63870K0J4 0J420160101000010201/01/16 00:00:31  5-MIN K0J4 010500Z AUTO 35003KT 10SM OVC055 12/10 A3019 60 86 -200 350/03 RMK AO2 $
63870K0J4 0J420160101000510201/01/16 00:05:31  5-MIN K0J4 010505Z AUTO 36003KT 10SM OVC055 12/10 A3019 70 86 -200 360/03 RMK AO2 $
63870K0J4 0J420160101001010201/01/16 00:10:31  5-MIN K0J4 010510Z AUTO 01004KT 10SM OVC055 12/10 A3018 70 86 -200 010/04 RMK AO2 $
63870K0J4 0J420160101001510201/01/16 00:15:31  5-MIN K0J4 010515Z AUTO 00000KT 10SM OVC055 12/10 A3019 70 86 -200 000/00 RMK AO2 $
63870K0J4 0J420160101002010201/01/16 00:20:31  5-MIN K0J4 010520Z AUTO 36003KT 10SM OVC055 12/10 A3018 70 89 -200 360/03 RMK AO2 $
63870K0J4 0J420160101002510201/01/16 00:25:31  5-MIN K0J4 010525Z AUTO 36003KT 10SM OVC055 12/10 A3018 70 89 -200 360/03 RMK AO2 $
63870K0J4 0J420160101003010201/01/16 00:30:31  5-MIN K0J4 010530Z AUTO 01003KT 10SM OVC055 12/10 A3018 80 89 -200 010/03 RMK AO2 $
63870K0J4 0J420160101003510201/01/16 00:35:31  5-MIN K0J4 010535Z AUTO 36004KT 10SM OVC055 12/10 A3018 80 89 -200 360/04 RMK AO2 $
63870K0J4 0J420160101004010201/01/16 00:40:31  5-MIN K0J4 010540Z AUTO 01004KT 10SM OVC060 12/10 A3017 80 89 -200 010/04 RMK AO2 $
63870K0J4 0J420160101004510201/01/16 00:45:31  5-MIN K0J4 010545Z AUTO VRB04KT 10SM OVC060 12/09 A3018 80 86 -200 VRB/04 RMK AO2 $
63870K0J4 0J420160101005010201/01/16 00:50:31  5-MIN K0J4 010550Z AUTO 36005KT 10SM OVC055 12/09 A3018 80 86 -200 360/05 RMK AO2 $
63870K0J4 0J420160101005513701/01/16 00:55:31  5-MIN K0J4 010555Z AUTO VRB03KT 10SM OVC055 12/09 A3018 80 86 -200 VRB/03 RMK AO2 SLP218 T01170094 10128 20117 51005 $
63870K0J4 0J420160101010010201/01/16 01:00:31  5-MIN K0J4 010600Z AUTO 01006KT 10SM OVC055 12/09 A3018 80 86 -200 010/06 RMK AO2 $
63870K0J4 0J420160101010510201/01/16 01:05:31  5-MIN K0J4 010605Z AUTO 36004KT 10SM OVC055 12/09 A3018 80 86 -200 360/04 RMK AO2 $
63870K0J4 0J420160101011010201/01/16 01:10:31  5-MIN K0J4 010610Z AUTO 36004KT 10SM OVC055 12/09 A3018 80 86 -200 360/04 RMK AO2 $
63870K0J4 0J420160101011510201/01/16 01:15:31  5-MIN K0J4 010615Z AUTO VRB06KT 10SM OVC055 12/09 A3018 80 83 -200 VRB/06 RMK AO2 $
63870K0J4 0J420160101012011801/01/16 01:20:31  5-MIN K0J4 010620Z AUTO 36006KT 10SM -RA OVC055 12/09 A3018 80 83 -200 360/06 RMK AO2 RAB20 P0000 $
63870K0J4 0J420160101012511801/01/16 01:25:31  5-MIN K0J4 010625Z AUTO VRB05KT 10SM -RA OVC055 12/09 A3018 80 83 -200 VRB/05 RMK AO2 RAB20 P0000 $
63870K0J4 0J420160101013011801/01/16 01:30:31  5-MIN K0J4 010630Z AUTO VRB03KT 10SM -RA OVC055 12/09 A3017 80 83 -200 VRB/03 RMK AO2 RAB20 P0000 $
63870K0J4 0J420160101013511801/01/16 01:35:31  5-MIN K0J4 010635Z AUTO 01005KT 10SM -RA OVC055 12/09 A3017 90 86 -200 010/05 RMK AO2 RAB20 P0000 $
63870K0J4 0J420160101014011801/01/16 01:40:31  5-MIN K0J4 010640Z AUTO 01005KT 10SM -RA OVC055 11/09 A3017 90 86 -300 010/05 RMK AO2 RAB20 P0001 $
63870K0J4 0J420160101014511801/01/16 01:45:31  5-MIN K0J4 010645Z AUTO 01007KT 10SM -RA OVC055 11/09 A3017 90 86 -300 010/07 RMK AO2 RAB20 P0001 $
63870K0J4 0J420160101015011801/01/16 01:50:31  5-MIN K0J4 010650Z AUTO 36005KT 10SM -RA OVC055 11/09 A3017 90 86 -300 360/05 RMK AO2 RAB20 P0001 $
63870K0J4 0J420160101015513401/01/16 01:55:31  5-MIN K0J4 010655Z AUTO 01005KT 10SM OVC055 11/09 A3017 90 86 -300 010/05 RMK AO2 RAB20E54 SLP213 P0001 T01110089 $
63870K0J4 0J420160101020010301/01/16 02:00:31  5-MIN K0J4 010700Z AUTO 01006KT 10SM OVC055 11/09 A3016 100 86 -300 010/06 RMK AO2 $
63870K0J4 0J420160101020510301/01/16 02:05:31  5-MIN K0J4 010705Z AUTO 01006KT 10SM OVC055 11/09 A3016 100 86 -300 010/06 RMK AO2 $
63870K0J4 0J420160101021010301/01/16 02:10:31  5-MIN K0J4 010710Z AUTO 01007KT 10SM OVC055 11/09 A3016 100 86 -300 010/07 RMK AO2 $
63870K0J4 0J420160101021510301/01/16 02:15:31  5-MIN K0J4 010715Z AUTO 02007KT 10SM OVC055 11/09 A3015 100 86 -200 020/07 RMK AO2 $
63870K0J4 0J420160101022010301/01/16 02:20:31  5-MIN K0J4 010720Z AUTO 01007KT 10SM OVC055 11/09 A3015 100 86 -200 010/07 RMK AO2 $
63870K0J4 0J420160101022510301/01/16 02:25:31  5-MIN K0J4 010725Z AUTO 01005KT 10SM OVC055 11/08 A3015 100 83 -200 010/05 RMK AO2 $
63870K0J4 0J420160101023010301/01/16 02:30:31  5-MIN K0J4 010730Z AUTO VRB04KT 10SM OVC055 11/08 A3015 100 83 -300 VRB/04 RMK AO2 $
63870K0J4 0J420160101023510301/01/16 02:35:31  5-MIN K0J4 010735Z AUTO 01005KT 10SM OVC055 11/08 A3015 100 83 -200 010/05 RMK AO2 $
63870K0J4 0J420160101024010301/01/16 02:40:31  5-MIN K0J4 010740Z AUTO VRB04KT 10SM OVC060 11/08 A3016 100 83 -300 VRB/04 RMK AO2 $
63870K0J4 0J420160101024510301/01/16 02:45:31  5-MIN K0J4 010745Z AUTO 36004KT 10SM OVC060 11/08 A3015 100 83 -300 360/04 RMK AO2 $
63870K0J4 0J420160101025010301/01/16 02:50:31  5-MIN K0J4 010750Z AUTO VRB04KT 10SM OVC055 11/09 A3016 100 86 -300 VRB/04 RMK AO2 $
63870K0J4 0J420160101025512001/01/16 02:55:31  5-MIN K0J4 010755Z AUTO 35004KT 10SM OVC060 11/09 A3016 100 86 -300 350/04 RMK AO2 SLP211 T01110089 $
63870K0J4 0J420160101030012101/01/16 03:00:31  5-MIN K0J4 010800Z AUTO 01003KT 10SM -RA OVC060 11/09 A3016 100 86 -300 010/03 RMK AO2 RAB0759 P0000 $
63870K0J4 0J420160101030512001/01/16 03:05:31  5-MIN K0J4 010805Z AUTO VRB03KT 10SM -RA OVC060 11/08 A3016 90 83 -300 VRB/03 RMK AO2 RAB0759 P0000 $
63870K0J4 0J420160101031011901/01/16 03:10:31  5-MIN K0J4 010810Z AUTO 35003KT 10SM OVC060 11/09 A3016 90 86 -300 350/03 RMK AO2 RAB0759E10 P0000 $
63870K0J4 0J420160101031511901/01/16 03:15:31  5-MIN K0J4 010815Z AUTO 36004KT 10SM OVC060 11/09 A3016 90 86 -300 360/04 RMK AO2 RAB0759E10 P0000 $
63870K0J4 0J420160101032011901/01/16 03:20:31  5-MIN K0J4 010820Z AUTO VRB03KT 10SM OVC060 11/09 A3017 90 86 -300 VRB/03 RMK AO2 RAB0759E10 P0000 $
63870K0J4 0J420160101032511901/01/16 03:25:31  5-MIN K0J4 010825Z AUTO VRB04KT 10SM OVC060 11/09 A3017 90 86 -300 VRB/04 RMK AO2 RAB0759E10 P0000 $
63870K0J4 0J420160101033011901/01/16 03:30:31  5-MIN K0J4 010830Z AUTO VRB03KT 10SM OVC060 11/08 A3017 90 83 -300 VRB/03 RMK AO2 RAB0759E10 P0000 $
63870K0J4 0J420160101033511901/01/16 03:35:31  5-MIN K0J4 010835Z AUTO 35003KT 10SM OVC060 11/08 A3017 90 83 -300 350/03 RMK AO2 RAB0759E10 P0000 $
63870K0J4 0J420160101034011901/01/16 03:40:31  5-MIN K0J4 010840Z AUTO 34004KT 10SM OVC060 11/08 A3017 80 86 -300 340/04 RMK AO2 RAB0759E10 P0000 $
63870K0J4 0J420160101034511901/01/16 03:45:31  5-MIN K0J4 010845Z AUTO VRB04KT 10SM OVC060 11/08 A3018 80 86 -300 VRB/04 RMK AO2 RAB0759E10 P0000 $
63870K0J4 0J420160101035011901/01/16 03:50:31  5-MIN K0J4 010850Z AUTO 35004KT 10SM OVC060 11/08 A3018 80 86 -300 350/04 RMK AO2 RAB0759E10 P0000 $
63870K0J4 0J420160101035514801/01/16 03:55:31  5-MIN K0J4 010855Z AUTO 35004KT 10SM OVC060 11/08 A3017 80 83 -300 350/04 RMK AO2 RAB0759E10 SLP215 P0000 60001 T01060078 58008 $
63870K0J4 0J420160101040010201/01/16 04:00:31  5-MIN K0J4 010900Z AUTO 35005KT 10SM OVC060 11/08 A3017 80 83 -300 350/05 RMK AO2 $
63870K0J4 0J420160101040511801/01/16 04:05:31  5-MIN K0J4 010905Z AUTO 35007KT 320V020 10SM OVC060 11/08 A3017 80 83 -300 350/07 320V020 RMK AO2 $
63870K0J4 0J420160101041010201/01/16 04:10:31  5-MIN K0J4 010910Z AUTO 36005KT 10SM OVC060 11/08 A3017 80 83 -300 360/05 RMK AO2 $
63870K0J4 0J420160101041510201/01/16 04:15:31  5-MIN K0J4 010915Z AUTO VRB04KT 10SM OVC060 11/08 A3018 80 83 -300 VRB/04 RMK AO2 $
63870K0J4 0J420160101042010201/01/16 04:20:31  5-MIN K0J4 010920Z AUTO 35005KT 10SM OVC060 11/08 A3017 80 83 -300 350/05 RMK AO2 $
63870K0J4 0J420160101042510201/01/16 04:25:31  5-MIN K0J4 010925Z AUTO VRB04KT 10SM OVC060 11/08 A3017 80 83 -300 VRB/04 RMK AO2 $
63870K0J4 0J420160101043010201/01/16 04:30:31  5-MIN K0J4 010930Z AUTO 36005KT 10SM OVC060 11/08 A3017 90 83 -300 360/05 RMK AO2 $
63870K0J4 0J420160101043510201/01/16 04:35:31  5-MIN K0J4 010935Z AUTO VRB04KT 10SM OVC060 11/08 A3017 90 83 -300 VRB/04 RMK AO2 $
63870K0J4 0J420160101044010201/01/16 04:40:31  5-MIN K0J4 010940Z AUTO 01006KT 10SM OVC060 11/08 A3017 90 83 -300 010/06 RMK AO2 $
63870K0J4 0J420160101044510201/01/16 04:45:31  5-MIN K0J4 010945Z AUTO 36005KT 10SM OVC060 11/07 A3017 90 80 -300 360/05 RMK AO2 $
63870K0J4 0J420160101045010201/01/16 04:50:31  5-MIN K0J4 010950Z AUTO 36006KT 10SM OVC060 11/07 A3017 90 80 -300 360/06 RMK AO2 $
63870K0J4 0J420160101045511901/01/16 04:55:31  5-MIN K0J4 010955Z AUTO 35006KT 10SM OVC060 11/07 A3017 90 80 -300 350/06 RMK AO2 SLP215 T01060072 $
63870K0J4 0J420160101050010201/01/16 05:00:31  5-MIN K0J4 011000Z AUTO 36007KT 10SM OVC060 10/07 A3017 80 83 -400 360/07 RMK AO2 $
63870K0J4 0J420160101050510201/01/16 05:05:31  5-MIN K0J4 011005Z AUTO 36008KT 10SM OVC060 10/07 A3017 90 83 -400 360/08 RMK AO2 $
63870K0J4 0J420160101051010201/01/16 05:10:31  5-MIN K0J4 011010Z AUTO 01005KT 10SM OVC065 10/07 A3017 90 83 -400 010/05 RMK AO2 $
63870K0J4 0J420160101051510201/01/16 05:15:31  5-MIN K0J4 011015Z AUTO 36005KT 10SM OVC060 10/07 A3017 90 83 -400 360/05 RMK AO2 $
63870K0J4 0J420160101052010201/01/16 05:20:31  5-MIN K0J4 011020Z AUTO 36006KT 10SM OVC060 10/07 A3017 90 83 -400 360/06 RMK AO2 $
63870K0J4 0J420160101052510201/01/16 05:25:31  5-MIN K0J4 011025Z AUTO 01005KT 10SM OVC060 10/07 A3016 90 83 -400 010/05 RMK AO2 $
63870K0J4 0J420160101053010201/01/16 05:30:31  5-MIN K0J4 011030Z AUTO 36004KT 10SM OVC060 10/07 A3016 90 83 -400 360/04 RMK AO2 $
63870K0J4 0J420160101053510301/01/16 05:35:31  5-MIN K0J4 011035Z AUTO 03006KT 10SM OVC060 10/07 A3016 100 83 -400 030/06 RMK AO2 $
63870K0J4 0J420160101054010301/01/16 05:40:31  5-MIN K0J4 011040Z AUTO 02008KT 10SM OVC060 10/07 A3015 100 83 -400 020/08 RMK AO2 $
63870K0J4 0J420160101054510201/01/16 05:45:31  5-MIN K0J4 011045Z AUTO 36007KT 10SM OVC060 10/07 A3016 90 83 -400 360/07 RMK AO2 $
63870K0J4 0J420160101055010201/01/16 05:50:31  5-MIN K0J4 011050Z AUTO 36005KT 10SM OVC060 10/07 A3017 90 80 -400 360/05 RMK AO2 $
63870K0J4 0J420160101055512601/01/16 05:55:31  5-MIN K0J4 011055Z AUTO 35006KT 10SM OVC060 10/07 A3018 80 80 -400 350/06 RMK AO2 PRESRR SLP217 T01000067 $
63870K0J4 0J420160101060010201/01/16 06:00:31  5-MIN K0J4 011100Z AUTO 35004KT 10SM OVC060 10/07 A3018 80 80 -400 350/04 RMK AO2 $
63870K0J4 0J420160101060510201/01/16 06:05:31  5-MIN K0J4 011105Z AUTO 36006KT 10SM OVC060 10/07 A3018 80 80 -400 360/06 RMK AO2 $
63870K0J4 0J420160101061010201/01/16 06:10:31  5-MIN K0J4 011110Z AUTO VRB05KT 10SM OVC065 10/07 A3019 70 80 -400 VRB/05 RMK AO2 $
63870K0J4 0J420160101061510201/01/16 06:15:31  5-MIN K0J4 011115Z AUTO VRB06KT 10SM OVC060 10/07 A3020 60 80 -400 VRB/06 RMK AO2 $
63870K0J4 0J420160101062010201/01/16 06:20:31  5-MIN K0J4 011120Z AUTO VRB04KT 10SM OVC060 10/07 A3020 60 80 -400 VRB/04 RMK AO2 $
63870K0J4 0J420160101062510201/01/16 06:25:31  5-MIN K0J4 011125Z AUTO VRB05KT 10SM OVC055 10/07 A3020 60 80 -400 VRB/05 RMK AO2 $
63870K0J4 0J420160101063010201/01/16 06:30:31  5-MIN K0J4 011130Z AUTO 34005KT 10SM OVC055 10/07 A3021 50 80 -400 340/05 RMK AO2 $
63870K0J4 0J420160101063510201/01/16 06:35:31  5-MIN K0J4 011135Z AUTO VRB05KT 10SM OVC055 09/07 A3020 60 83 -500 VRB/05 RMK AO2 $
63870K0J4 0J420160101064010201/01/16 06:40:31  5-MIN K0J4 011140Z AUTO 35008KT 10SM OVC055 09/06 A3020 60 79 -500 350/08 RMK AO2 $
63870K0J4 0J420160101064510201/01/16 06:45:31  5-MIN K0J4 011145Z AUTO VRB06KT 10SM OVC060 09/06 A3020 60 79 -500 VRB/06 RMK AO2 $
63870K0J4 0J420160101065010201/01/16 06:50:31  5-MIN K0J4 011150Z AUTO 36006KT 10SM OVC060 09/06 A3019 60 79 -500 360/06 RMK AO2 $
63870K0J4 0J420160101065515601/01/16 06:55:31  5-MIN K0J4 011155Z AUTO 01007KT 10SM BKN060 OVC075 09/06 A3019 70 79 -500 010/07 RMK AO2 SLP222 60001 70104 T00940061 10117 20094 55001 $
63870K0J4 0J420160101070010901/01/16 07:00:31  5-MIN K0J4 011200Z AUTO 35007KT 10SM BKN065 OVC075 09/06 A3019 70 79 -500 350/07 RMK AO2 $
63870K0J4 0J420160101070511501/01/16 07:05:31  5-MIN K0J4 011205Z AUTO 01007G14KT 10SM BKN065 OVC080 09/06 A3019 70 79 -500 010/07G14 RMK AO2 $
63870K0J4 0J420160101071011501/01/16 07:10:31  5-MIN K0J4 011210Z AUTO 36008G14KT 10SM BKN065 OVC080 09/06 A3019 70 79 -500 360/08G14 RMK AO2 $
63870K0J4 0J420160101071510901/01/16 07:15:31  5-MIN K0J4 011215Z AUTO 36005KT 10SM BKN060 OVC075 09/06 A3020 60 79 -500 360/05 RMK AO2 $
63870K0J4 0J420160101072012501/01/16 07:20:31  5-MIN K0J4 011220Z AUTO 36007KT 320V030 10SM BKN060 OVC075 09/06 A3020 60 79 -500 360/07 320V030 RMK AO2 $
63870K0J4 0J420160101072510901/01/16 07:25:31  5-MIN K0J4 011225Z AUTO 36005KT 10SM BKN055 OVC070 09/06 A3020 60 79 -500 360/05 RMK AO2 $
63870K0J4 0J420160101073010901/01/16 07:30:31  5-MIN K0J4 011230Z AUTO 35006KT 10SM BKN055 OVC070 09/06 A3021 50 76 -500 350/06 RMK AO2 $
63870K0J4 0J420160101073510201/01/16 07:35:31  5-MIN K0J4 011235Z AUTO 36008KT 10SM OVC055 09/06 A3021 50 76 -500 360/08 RMK AO2 $
63870K0J4 0J420160101074010201/01/16 07:40:31  5-MIN K0J4 011240Z AUTO 35007KT 10SM OVC055 09/06 A3021 50 76 -500 350/07 RMK AO2 $
63870K0J4 0J420160101074510201/01/16 07:45:31  5-MIN K0J4 011245Z AUTO 36008KT 10SM OVC055 09/06 A3020 50 76 -500 360/08 RMK AO2 $
63870K0J4 0J420160101075010201/01/16 07:50:31  5-MIN K0J4 011250Z AUTO 36007KT 10SM OVC055 09/06 A3021 50 76 -500 360/07 RMK AO2 $
63870K0J4 0J420160101075512601/01/16 07:55:31  5-MIN K0J4 011255Z AUTO 01006KT 10SM BKN055 OVC075 09/06 A3021 50 79 -600 010/06 RMK AO2 SLP228 T00890056 $
63870K0J4 0J420160101080010901/01/16 08:00:31  5-MIN K0J4 011300Z AUTO VRB04KT 10SM BKN055 OVC075 09/06 A3021 50 83 -600 VRB/04 RMK AO2 $
63870K0J4 0J420160101080511601/01/16 08:05:31  5-MIN K0J4 011305Z AUTO 36004KT 10SM SCT055 BKN075 OVC100 09/06 A3021 50 79 -500 360/04 RMK AO2 $
63870K0J4 0J420160101081010901/01/16 08:10:31  5-MIN K0J4 011310Z AUTO VRB05KT 10SM FEW055 OVC070 09/06 A3021 40 79 -500 VRB/05 RMK AO2 $
63870K0J4 0J420160101081511601/01/16 08:15:31  5-MIN K0J4 011315Z AUTO 36006KT 10SM FEW055 BKN070 OVC100 09/06 A3022 40 83 -600 360/06 RMK AO2 $
63870K0J4 0J420160101082010901/01/16 08:20:31  5-MIN K0J4 011320Z AUTO 36006KT 10SM BKN070 OVC100 09/06 A3022 40 79 -600 360/06 RMK AO2 $
63870K0J4 0J420160101082510901/01/16 08:25:31  5-MIN K0J4 011325Z AUTO 36005KT 10SM BKN075 OVC100 09/06 A3023 40 83 -600 360/05 RMK AO2 $
63870K0J4 0J420160101083011601/01/16 08:30:31  5-MIN K0J4 011330Z AUTO 34006KT 10SM FEW065 BKN080 OVC100 09/06 A3023 30 83 -600 340/06 RMK AO2 $
63870K0J4 0J420160101083511601/01/16 08:35:31  5-MIN K0J4 011335Z AUTO 34003KT 10SM SCT065 BKN080 OVC100 09/06 A3023 30 79 -600 340/03 RMK AO2 $
63870K0J4 0J420160101084012301/01/16 08:40:31  5-MIN K0J4 011340Z AUTO 34006KT 10SM BKN060 BKN080 OVC100 09/06 A3024 20 79 -600 340/06 RMK AO2 PRESRR $
63870K0J4 0J420160101084510901/01/16 08:45:31  5-MIN K0J4 011345Z AUTO 35005KT 10SM BKN060 OVC080 09/06 A3024 20 79 -600 350/05 RMK AO2 $
63870K0J4 0J420160101085010901/01/16 08:50:31  5-MIN K0J4 011350Z AUTO VRB05KT 10SM BKN060 OVC080 08/05 A3024 20 79 -700 VRB/05 RMK AO2 $
63870K0J4 0J420160101085511901/01/16 08:55:31  5-MIN K0J4 011355Z AUTO 36007KT 10SM OVC060 08/05 A3025 20 79 -700 360/07 RMK AO2 SLP241 T00830050 $
63870K0J4 0J420160101090010201/01/16 09:00:31  5-MIN K0J4 011400Z AUTO 36008KT 10SM OVC060 08/05 A3025 10 79 -700 360/08 RMK AO2 $
63870K0J4 0J420160101090510201/01/16 09:05:31  5-MIN K0J4 011405Z AUTO VRB05KT 10SM OVC060 08/05 A3026 10 79 -700 VRB/05 RMK AO2 $
63870K0J4 0J420160101091010201/01/16 09:10:31  5-MIN K0J4 011410Z AUTO 36006KT 10SM OVC065 08/05 A3026 10 79 -700 360/06 RMK AO2 $
63870K0J4 0J420160101091510201/01/16 09:15:31  5-MIN K0J4 011415Z AUTO 01008KT 10SM OVC065 08/05 A3025 10 79 -700 010/08 RMK AO2 $
63870K0J4 0J420160101092010201/01/16 09:20:31  5-MIN K0J4 011420Z AUTO 01006KT 10SM OVC065 08/05 A3025 20 79 -700 010/06 RMK AO2 $
63870K0J4 0J420160101092510901/01/16 09:25:31  5-MIN K0J4 011425Z AUTO 36007KT 10SM BKN065 OVC085 08/05 A3024 20 79 -700 360/07 RMK AO2 $
63870K0J4 0J420160101093010901/01/16 09:30:31  5-MIN K0J4 011430Z AUTO VRB06KT 10SM BKN065 OVC085 08/05 A3025 10 79 -700 VRB/06 RMK AO2 $
63870K0J4 0J420160101093513101/01/16 09:35:31  5-MIN K0J4 011435Z AUTO 35008G15KT 320V020 10SM BKN065 OVC085 08/05 A3026 10 79 -700 350/08G15 320V020 RMK AO2 $
63870K0J4 0J420160101094011401/01/16 09:40:31  5-MIN K0J4 011440Z AUTO VRB04G15KT 10SM SCT065 OVC085 08/04 A3026 0 76 -700 VRB/04G15 RMK AO2 $
63870K0J4 0J420160101094510801/01/16 09:45:31  5-MIN K0J4 011445Z AUTO 36007KT 10SM FEW065 OVC085 08/05 A3026 0 79 -700 360/07 RMK AO2 $
63870K0J4 0J420160101095010801/01/16 09:50:31  5-MIN K0J4 011450Z AUTO VRB04KT 10SM FEW065 OVC085 08/05 A3027 0 79 -700 VRB/04 RMK AO2 $
63870K0J4 0J420160101095513101/01/16 09:55:31  5-MIN K0J4 011455Z AUTO 35004KT 10SM FEW070 OVC085 08/05 A3027 0 79 -700 350/04 RMK AO2 SLP249 T00830050 53006 $
63870K0J4 0J420160101100011701/01/16 10:00:31  5-MIN K0J4 011500Z AUTO VRB04KT 10SM SCT075 OVC085 08/04 A3028 -10 76 -700 VRB/04 RMK AO2 PRESRR $
63870K0J4 0J420160101100511701/01/16 10:05:31  5-MIN K0J4 011505Z AUTO 32005KT 10SM BKN070 OVC085 08/04 A3029 -20 76 -700 320/05 RMK AO2 PRESRR $
63870K0J4 0J420160101101011001/01/16 10:10:31  5-MIN K0J4 011510Z AUTO VRB05KT 10SM BKN070 OVC085 08/04 A3029 -20 76 -700 VRB/05 RMK AO2 $
63870K0J4 0J420160101101512601/01/16 10:15:31  5-MIN K0J4 011515Z AUTO 33003KT 10SM -RA SCT070 OVC085 08/04 A3029 -20 76 -700 330/03 RMK AO2 RAB13 P0000 $
63870K0J4 0J420160101102012501/01/16 10:20:31  5-MIN K0J4 011520Z AUTO 35004KT 8SM -RA BKN070 OVC085 08/04 A3029 -20 76 -700 350/04 RMK AO2 RAB13 P0000 $
63870K0J4 0J420160101102512501/01/16 10:25:31  5-MIN K0J4 011525Z AUTO 33004KT 8SM -RA BKN075 OVC100 08/05 A3029 -20 82 -800 330/04 RMK AO2 RAB13 P0000 $
63870K0J4 0J420160101103012601/01/16 10:30:31  5-MIN K0J4 011530Z AUTO 33004KT 10SM -RA BKN075 OVC100 08/05 A3029 -20 82 -800 330/04 RMK AO2 RAB13 P0000 $
63870K0J4 0J420160101103513301/01/16 10:35:31  5-MIN K0J4 011535Z AUTO 00000KT 10SM -RA FEW065 SCT080 OVC100 08/05 A3028 -10 82 -800 000/00 RMK AO2 RAB13 P0000 $
63870K0J4 0J420160101104012501/01/16 10:40:31  5-MIN K0J4 011540Z AUTO 33003KT 9SM -RA SCT075 OVC100 08/05 A3028 -10 82 -800 330/03 RMK AO2 RAB13 P0000 $
63870K0J4 0J420160101104512501/01/16 10:45:31  5-MIN K0J4 011545Z AUTO 31003KT 8SM -RA FEW075 OVC100 08/05 A3029 -20 82 -800 310/03 RMK AO2 RAB13 P0000 $
63870K0J4 0J420160101105012501/01/16 10:50:31  5-MIN K0J4 011550Z AUTO 00000KT 8SM -RA FEW080 OVC100 08/06 A3028 -10 86 -800 000/00 RMK AO2 RAB13 P0000 $
63870K0J4 0J420160101105513501/01/16 10:55:31  5-MIN K0J4 011555Z AUTO 00000KT 8SM -RA OVC100 08/06 A3028 -10 86 -800 000/00 RMK AO2 RAB13 SLP254 P0001 T00780056 $
63870K0J4 0J420160101110011201/01/16 11:00:31  5-MIN K0J4 011600Z AUTO 33003KT 8SM -RA OVC110 08/06 A3029 -20 86 -800 330/03 RMK AO2 P0000 $
63870K0J4 0J420160101110511201/01/16 11:05:31  5-MIN K0J4 011605Z AUTO 00000KT 9SM -RA BKN110 08/06 A3029 -20 86 -800 000/00 RMK AO2 P0000 $
63870K0J4 0J420160101111011201/01/16 11:10:31  5-MIN K0J4 011610Z AUTO VRB03KT 9SM -RA BKN110 08/06 A3029 -10 86 -800 VRB/03 RMK AO2 P0000 $
63870K0J4 0J420160101111511001/01/16 11:15:31  5-MIN K0J4 011615Z AUTO 35003KT 9SM -RA BKN110 08/06 A3027 0 86 -800 350/03 RMK AO2 P0000 $
63870K0J4 0J420160101112011301/01/16 11:20:31  5-MIN K0J4 011620Z AUTO 34003KT 10SM -RA BKN110 08/06 A3028 -10 86 -800 340/03 RMK AO2 P0000 $
63870K0J4 0J420160101112512201/01/16 11:25:31  5-MIN K0J4 011625Z AUTO 00000KT 10SM FEW090 BKN110 08/06 A3028 -10 86 -800 000/00 RMK AO2 RAE23 P0000 $
63870K0J4 0J420160101113012201/01/16 11:30:31  5-MIN K0J4 011630Z AUTO 36003KT 10SM FEW090 BKN110 08/06 A3028 -10 86 -800 360/03 RMK AO2 RAE23 P0000 $
63870K0J4 0J420160101113511001/01/16 11:35:31  5-MIN K0J4 011635Z AUTO 03003KT 9SM -RA BKN110 08/06 A3027 0 86 -800 030/03 RMK AO2 P0000 $
63870K0J4 0J420160101114011101/01/16 11:40:31  5-MIN K0J4 011640Z AUTO 03003KT 10SM -RA BKN110 08/05 A3026 0 82 -800 030/03 RMK AO2 P0000 $
63870K0J4 0J420160101114511101/01/16 11:45:31  5-MIN K0J4 011645Z AUTO 01004KT 10SM -RA BKN110 08/06 A3026 0 86 -800 010/04 RMK AO2 P0000 $
63870K0J4 0J420160101115011001/01/16 11:50:31  5-MIN K0J4 011650Z AUTO 35004KT 9SM -RA BKN110 08/06 A3026 0 86 -800 350/04 RMK AO2 P0000 $
63870K0J4 0J420160101115512801/01/16 11:55:31  5-MIN K0J4 011655Z AUTO 35003KT 9SM -RA BKN110 08/06 A3026 10 86 -800 350/03 RMK AO2 SLP245 P0000 T00780056 $
63870K0J4 0J420160101120011801/01/16 12:00:31  5-MIN K0J4 011700Z AUTO VRB03KT 9SM -RA FEW070 BKN110 08/06 A3024 20 86 -700 VRB/03 RMK AO2 P0000 $
63870K0J4 0J420160101120512501/01/16 12:05:31  5-MIN K0J4 011705Z AUTO 02006KT 9SM -RA FEW048 SCT070 BKN110 08/06 A3024 20 86 -700 020/06 RMK AO2 P0000 $
63870K0J4 0J420160101121013301/01/16 12:10:31  5-MIN K0J4 011710Z AUTO 03007KT 10SM -RA FEW050 SCT095 BKN110 08/06 A3023 30 86 -700 030/07 RMK AO2 PRESFR P0000 $
63870K0J4 0J420160101121512101/01/16 12:15:31  5-MIN K0J4 011715Z AUTO 03005KT 10SM FEW050 SCT110 09/06 A3023 30 83 -600 030/05 RMK AO2 RAE11 P0000 $
63870K0J4 0J420160101122012101/01/16 12:20:31  5-MIN K0J4 011720Z AUTO 03005KT 10SM FEW008 SCT100 09/06 A3023 30 83 -600 030/05 RMK AO2 RAE11 P0000 $
63870K0J4 0J420160101122512101/01/16 12:25:31  5-MIN K0J4 011725Z AUTO 03006KT 10SM FEW008 09/06 A3021 50 83 -600 030/06 RMK AO2 RAE11 PRESFR P0000 $
63870K0J4 0J420160101123012101/01/16 12:30:31  5-MIN K0J4 011730Z AUTO 04007KT 10SM FEW008 09/06 A3020 60 79 -600 040/07 RMK AO2 RAE11 PRESFR P0000 $
63870K0J4 0J420160101123511401/01/16 12:35:31  5-MIN K0J4 011735Z AUTO 03005KT 10SM FEW008 09/06 A3020 60 83 -600 030/05 RMK AO2 RAE11 P0000 $
63870K0J4 0J420160101124011401/01/16 12:40:31  5-MIN K0J4 011740Z AUTO VRB06KT 10SM FEW120 09/07 A3021 50 83 -500 VRB/06 RMK AO2 RAE11 P0000 $
63870K0J4 0J420160101124511401/01/16 12:45:31  5-MIN K0J4 011745Z AUTO 02008KT 10SM SCT120 09/06 A3021 50 76 -500 020/08 RMK AO2 RAE11 P0000 $
63870K0J4 0J420160101125011401/01/16 12:50:31  5-MIN K0J4 011750Z AUTO 04006KT 10SM BKN120 09/06 A3020 60 76 -500 040/06 RMK AO2 RAE11 P0000 $
63870K0J4 0J420160101125515501/01/16 12:55:31  5-MIN K0J4 011755Z AUTO 01006KT 10SM BKN110 09/06 A3020 60 79 -500 010/06 RMK AO2 RAE11 SLP226 P0000 60001 T00940061 10094 20072 53027 $
63870K0J4 0J420160101130010201/01/16 13:00:31  5-MIN K0J4 011800Z AUTO 35004KT 10SM BKN110 09/06 A3021 50 79 -500 350/04 RMK AO2 $
63870K0J4 0J420160101130510201/01/16 13:05:31  5-MIN K0J4 011805Z AUTO 01006KT 10SM OVC110 09/06 A3022 40 76 -500 010/06 RMK AO2 $
63870K0J4 0J420160101131010901/01/16 13:10:31  5-MIN K0J4 011810Z AUTO 33005KT 10SM OVC110 09/06 A3022 40 76 -500 330/05 RMK AO2 PRESRR $
63870K0J4 0J420160101131510201/01/16 13:15:31  5-MIN K0J4 011815Z AUTO VRB06KT 10SM OVC100 09/06 A3022 40 76 -500 VRB/06 RMK AO2 $
63870K0J4 0J420160101132010201/01/16 13:20:31  5-MIN K0J4 011820Z AUTO 34008KT 10SM OVC100 09/06 A3022 40 76 -500 340/08 RMK AO2 $
63870K0J4 0J420160101132510201/01/16 13:25:31  5-MIN K0J4 011825Z AUTO 35007KT 10SM OVC100 09/06 A3022 40 76 -500 350/07 RMK AO2 $
63870K0J4 0J420160101133010201/01/16 13:30:31  5-MIN K0J4 011830Z AUTO 35007KT 10SM OVC100 10/06 A3022 40 74 -500 350/07 RMK AO2 $
63870K0J4 0J420160101133510201/01/16 13:35:31  5-MIN K0J4 011835Z AUTO VRB06KT 10SM OVC100 10/05 A3022 40 71 -500 VRB/06 RMK AO2 $
63870K0J4 0J420160101134011801/01/16 13:40:31  5-MIN K0J4 011840Z AUTO 34007KT 280V030 10SM OVC100 10/06 A3023 30 74 -500 340/07 280V030 RMK AO2 $
63870K0J4 0J420160101134512401/01/16 13:45:31  5-MIN K0J4 011845Z AUTO 35009G16KT 300V020 10SM OVC100 10/05 A3023 30 71 -500 350/09G16 300V020 RMK AO2 $
63870K0J4 0J420160101135010801/01/16 13:50:31  5-MIN K0J4 011850Z AUTO VRB05G17KT 10SM OVC100 09/05 A3023 30 74 -500 VRB/05G17 RMK AO2 $
63870K0J4 0J420160101135514101/01/16 13:55:31  5-MIN K0J4 011855Z AUTO 34008G17KT 290V030 10SM OVC100 09/05 A3023 30 74 -500 340/08G17 290V030 RMK AO2 SLP235 T00940050 $
63870K0J4 0J420160101140012401/01/16 14:00:31  5-MIN K0J4 011900Z AUTO 35009G19KT 320V020 10SM OVC095 09/04 A3022 40 73 -600 350/09G19 320V020 RMK AO2 $
63870K0J4 0J420160101140510801/01/16 14:05:31  5-MIN K0J4 011905Z AUTO 34008G19KT 10SM OVC095 09/04 A3022 40 73 -600 340/08G19 RMK AO2 $
63870K0J4 0J420160101141010801/01/16 14:10:31  5-MIN K0J4 011910Z AUTO 34005G14KT 10SM OVC095 09/04 A3022 40 73 -600 340/05G14 RMK AO2 $
63870K0J4 0J420160101141511801/01/16 14:15:31  5-MIN K0J4 011915Z AUTO 33007KT 300V020 10SM OVC095 09/04 A3023 30 73 -600 330/07 300V020 RMK AO2 $
63870K0J4 0J420160101142010201/01/16 14:20:31  5-MIN K0J4 011920Z AUTO VRB06KT 10SM OVC095 09/04 A3023 30 73 -600 VRB/06 RMK AO2 $
63870K0J4 0J420160101142510201/01/16 14:25:31  5-MIN K0J4 011925Z AUTO 34005KT 10SM OVC095 08/05 A3022 40 79 -700 340/05 RMK AO2 $
63870K0J4 0J420160101143012501/01/16 14:30:31  5-MIN K0J4 011930Z AUTO 33007KT 310V010 10SM SCT080 OVC095 08/04 A3023 30 76 -700 330/07 310V010 RMK AO2 $
63870K0J4 0J420160101143514801/01/16 14:35:31  5-MIN K0J4 011935Z AUTO 35008KT 310V010 10SM -RA FEW075 BKN090 OVC110 08/04 A3022 40 76 -700 350/08 310V010 RMK AO2 RAB31 P0000 $
63870K0J4 0J420160101144012501/01/16 14:40:31  5-MIN K0J4 011940Z AUTO 33005KT 10SM -RA FEW080 OVC100 08/04 A3023 30 79 -700 330/05 RMK AO2 RAB31 P0000 $
63870K0J4 0J420160101144512501/01/16 14:45:31  5-MIN K0J4 011945Z AUTO VRB04KT 10SM -RA FEW080 OVC100 08/05 A3023 40 82 -700 VRB/04 RMK AO2 RAB31 P0000 $
63870K0J4 0J420160101145014001/01/16 14:50:31  5-MIN K0J4 011950Z AUTO 35007KT 310V020 10SM FEW070 OVC100 08/04 A3023 40 79 -700 350/07 310V020 RMK AO2 RAB31E48 P0000 $
63870K0J4 0J420160101145514101/01/16 14:55:31  5-MIN K0J4 011955Z AUTO 36005KT 10SM FEW075 OVC100 08/04 A3022 40 79 -700 360/05 RMK AO2 RAB31E48 SLP233 P0000 T00780044 $
63870K0J4 0J420160101150010201/01/16 15:00:31  5-MIN K0J4 012000Z AUTO VRB05KT 10SM OVC100 08/04 A3022 40 79 -700 VRB/05 RMK AO2 $
63870K0J4 0J420160101150510201/01/16 15:05:31  5-MIN K0J4 012005Z AUTO VRB05KT 10SM OVC100 08/04 A3023 30 79 -700 VRB/05 RMK AO2 $
63870K0J4 0J420160101151010201/01/16 15:10:31  5-MIN K0J4 012010Z AUTO 36005KT 10SM OVC100 08/04 A3024 30 79 -700 360/05 RMK AO2 $
63870K0J4 0J420160101151511801/01/16 15:15:31  5-MIN K0J4 012015Z AUTO 36004KT 10SM -RA OVC100 08/04 A3024 30 79 -700 360/04 RMK AO2 RAB13 P0000 $
63870K0J4 0J420160101152011801/01/16 15:20:31  5-MIN K0J4 012020Z AUTO VRB03KT 10SM -RA OVC100 08/04 A3024 20 76 -700 VRB/03 RMK AO2 RAB13 P0000 $
63870K0J4 0J420160101152511701/01/16 15:25:31  5-MIN K0J4 012025Z AUTO VRB05KT 10SM OVC100 08/04 A3024 20 79 -800 VRB/05 RMK AO2 RAB13E22 P0000 $
63870K0J4 0J420160101153011701/01/16 15:30:31  5-MIN K0J4 012030Z AUTO 36007KT 10SM OVC100 08/04 A3023 30 79 -700 360/07 RMK AO2 RAB13E22 P0000 $
63870K0J4 0J420160101153512401/01/16 15:35:31  5-MIN K0J4 012035Z AUTO 02008KT 10SM OVC100 08/04 A3021 50 76 -700 020/08 RMK AO2 RAB13E22 PRESFR P0000 $
63870K0J4 0J420160101154011701/01/16 15:40:31  5-MIN K0J4 012040Z AUTO 01009KT 10SM OVC100 08/04 A3022 40 76 -700 010/09 RMK AO2 RAB13E22 P0000 $
63870K0J4 0J420160101154513301/01/16 15:45:31  5-MIN K0J4 012045Z AUTO 35007KT 310V010 10SM BKN100 08/04 A3023 30 76 -700 350/07 310V010 RMK AO2 RAB13E22 P0000 $
63870K0J4 0J420160101155011701/01/16 15:50:31  5-MIN K0J4 012050Z AUTO 36008KT 10SM BKN100 08/04 A3023 40 76 -700 360/08 RMK AO2 RAB13E22 P0000 $
63870K0J4 0J420160101155515301/01/16 15:55:31  5-MIN K0J4 012055Z AUTO 01007KT 10SM BKN100 BKN120 08/03 A3022 40 73 -700 010/07 RMK AO2 RAB13E22 SLP232 P0000 60000 T00780033 58022 $
63870K0J4 0J420160101160010201/01/16 16:00:31  5-MIN K0J4 012100Z AUTO 36007KT 10SM SCT100 08/03 A3022 40 73 -700 360/07 RMK AO2 $
63870K0J4 0J420160101160510901/01/16 16:05:31  5-MIN K0J4 012105Z AUTO VRB03KT 10SM FEW050 SCT100 08/03 A3023 30 73 -700 VRB/03 RMK AO2 $
63870K0J4 0J420160101161010901/01/16 16:10:31  5-MIN K0J4 012110Z AUTO 36005KT 10SM FEW050 BKN100 08/04 A3022 40 76 -700 360/05 RMK AO2 $
63870K0J4 0J420160101161510201/01/16 16:15:31  5-MIN K0J4 012115Z AUTO 01007KT 10SM BKN110 08/03 A3022 40 73 -700 010/07 RMK AO2 $
63870K0J4 0J420160101162010201/01/16 16:20:31  5-MIN K0J4 012120Z AUTO 01007KT 10SM BKN110 08/04 A3021 50 76 -700 010/07 RMK AO2 $
63870K0J4 0J420160101162510201/01/16 16:25:31  5-MIN K0J4 012125Z AUTO 01008KT 10SM BKN110 08/04 A3021 50 76 -700 010/08 RMK AO2 $
63870K0J4 0J420160101163010201/01/16 16:30:31  5-MIN K0J4 012130Z AUTO 01007KT 10SM OVC110 08/04 A3022 40 76 -700 010/07 RMK AO2 $
63870K0J4 0J420160101163510201/01/16 16:35:31  5-MIN K0J4 012135Z AUTO 01006KT 10SM OVC110 08/04 A3022 40 76 -700 010/06 RMK AO2 $
63870K0J4 0J420160101164010201/01/16 16:40:31  5-MIN K0J4 012140Z AUTO 01005KT 10SM OVC110 08/04 A3021 50 76 -700 010/05 RMK AO2 $
63870K0J4 0J420160101164510201/01/16 16:45:31  5-MIN K0J4 012145Z AUTO 01005KT 10SM OVC110 08/04 A3021 40 76 -700 010/05 RMK AO2 $
63870K0J4 0J420160101165010201/01/16 16:50:31  5-MIN K0J4 012150Z AUTO 01004KT 10SM OVC110 08/04 A3022 40 76 -700 010/04 RMK AO2 $
63870K0J4 0J420160101165511901/01/16 16:55:31  5-MIN K0J4 012155Z AUTO 01004KT 10SM OVC110 08/04 A3021 40 76 -700 010/04 RMK AO2 SLP231 T00780039 $
63870K0J4 0J420160101170010201/01/16 17:00:31  5-MIN K0J4 012200Z AUTO 01004KT 10SM OVC110 08/04 A3021 50 76 -700 010/04 RMK AO2 $
63870K0J4 0J420160101170510201/01/16 17:05:31  5-MIN K0J4 012205Z AUTO 34004KT 10SM OVC100 08/04 A3022 40 76 -700 340/04 RMK AO2 $
63870K0J4 0J420160101171010201/01/16 17:10:31  5-MIN K0J4 012210Z AUTO 36005KT 10SM OVC100 08/04 A3023 30 79 -700 360/05 RMK AO2 $
63870K0J4 0J420160101171510901/01/16 17:15:31  5-MIN K0J4 012215Z AUTO 35004KT 10SM FEW090 BKN110 08/04 A3024 30 76 -700 350/04 RMK AO2 $
63870K0J4 0J420160101172010201/01/16 17:20:31  5-MIN K0J4 012220Z AUTO 34006KT 10SM BKN110 08/04 A3024 20 76 -800 340/06 RMK AO2 $
63870K0J4 0J420160101172510901/01/16 17:25:31  5-MIN K0J4 012225Z AUTO 35005KT 10SM BKN100 OVC120 08/04 A3024 20 76 -800 350/05 RMK AO2 $
63870K0J4 0J420160101173010901/01/16 17:30:31  5-MIN K0J4 012230Z AUTO VRB04KT 10SM BKN100 OVC120 08/04 A3024 20 76 -800 VRB/04 RMK AO2 $
63870K0J4 0J420160101173510201/01/16 17:35:31  5-MIN K0J4 012235Z AUTO 36005KT 10SM OVC100 08/04 A3024 20 76 -800 360/05 RMK AO2 $
63870K0J4 0J420160101174010201/01/16 17:40:31  5-MIN K0J4 012240Z AUTO VRB06KT 10SM OVC100 08/04 A3024 30 76 -700 VRB/06 RMK AO2 $
63870K0J4 0J420160101174510201/01/16 17:45:31  5-MIN K0J4 012245Z AUTO 36004KT 10SM OVC100 08/04 A3024 30 76 -700 360/04 RMK AO2 $
63870K0J4 0J420160101175010201/01/16 17:50:31  5-MIN K0J4 012250Z AUTO 35006KT 10SM OVC100 08/04 A3024 20 76 -800 350/06 RMK AO2 $
63870K0J4 0J420160101175511901/01/16 17:55:31  5-MIN K0J4 012255Z AUTO 01005KT 10SM OVC100 08/04 A3023 30 76 -700 010/05 RMK AO2 SLP238 T00780039 $
63870K0J4 0J420160101180010201/01/16 18:00:31  5-MIN K0J4 012300Z AUTO 01005KT 10SM BKN100 08/04 A3024 30 76 -700 010/05 RMK AO2 $
63870K0J4 0J420160101180510201/01/16 18:05:31  5-MIN K0J4 012305Z AUTO 36006KT 10SM BKN100 08/04 A3023 30 76 -700 360/06 RMK AO2 $
63870K0J4 0J420160101181010201/01/16 18:10:31  5-MIN K0J4 012310Z AUTO 01007KT 10SM SCT100 07/04 A3023 30 79 -800 010/07 RMK AO2 $
63870K0J4 0J420160101181510201/01/16 18:15:31  5-MIN K0J4 012315Z AUTO 36006KT 10SM FEW100 07/04 A3023 30 79 -800 360/06 RMK AO2 $
63870K0J4 0J420160101182010201/01/16 18:20:31  5-MIN K0J4 012320Z AUTO 36005KT 10SM FEW110 07/04 A3024 20 79 -800 360/05 RMK AO2 $
63870K0J4 0J420160101182510601/01/16 18:25:31  5-MIN K0J4 012325Z AUTO 36005KT 10SM CLR 07/04 A3025 10 79 -800 360/05 RMK AO2 PRESRR $
63870K0J4 0J420160101183009901/01/16 18:30:31  5-MIN K0J4 012330Z AUTO 01008KT 10SM CLR 07/04 A3024 20 79 -800 010/08 RMK AO2 $
63870K0J4 0J420160101183509901/01/16 18:35:31  5-MIN K0J4 012335Z AUTO 36007KT 10SM CLR 07/03 A3025 10 76 -800 360/07 RMK AO2 $
63870K0J4 0J420160101184009901/01/16 18:40:31  5-MIN K0J4 012340Z AUTO 35005KT 10SM CLR 07/03 A3025 10 76 -800 350/05 RMK AO2 $
63870K0J4 0J420160101184509901/01/16 18:45:31  5-MIN K0J4 012345Z AUTO VRB04KT 10SM CLR 07/03 A3026 10 76 -800 VRB/04 RMK AO2 $
63870K0J4 0J420160101185011501/01/16 18:50:31  5-MIN K0J4 012350Z AUTO 36008KT 320V030 10SM CLR 07/03 A3025 10 76 -800 360/08 320V030 RMK AO2 $
63870K0J4 0J420160101185514301/01/16 18:55:31  5-MIN K0J4 012355Z AUTO 36007KT 10SM FEW060 07/03 A3026 10 76 -800 360/07 RMK AO2 SLP245 60000 T00720033 10100 20072 51006 $
63870K0J4 0J420160101190010201/01/16 19:00:31  5-MIN K0J4 020000Z AUTO 36008KT 10SM FEW060 07/03 A3026 10 76 -800 360/08 RMK AO2 $
63870K0J4 0J420160101190510201/01/16 19:05:31  5-MIN K0J4 020005Z AUTO 36008KT 10SM FEW110 07/03 A3025 10 76 -800 360/08 RMK AO2 $
63870K0J4 0J420160101191010201/01/16 19:10:31  5-MIN K0J4 020010Z AUTO 36008KT 10SM FEW110 07/03 A3025 10 76 -800 360/08 RMK AO2 $
63870K0J4 0J420160101191510901/01/16 19:15:31  5-MIN K0J4 020015Z AUTO 01007KT 10SM FEW065 BKN110 07/03 A3026 10 76 -800 010/07 RMK AO2 $
63870K0J4 0J420160101192011601/01/16 19:20:31  5-MIN K0J4 020020Z AUTO 36006KT 10SM FEW065 SCT100 BKN110 07/03 A3026 10 76 -800 360/06 RMK AO2 $
63870K0J4 0J420160101192510801/01/16 19:25:31  5-MIN K0J4 020025Z AUTO VRB05KT 10SM FEW070 SCT110 07/03 A3026 0 76 -800 VRB/05 RMK AO2 $
63870K0J4 0J420160101193010801/01/16 19:30:31  5-MIN K0J4 020030Z AUTO 01006KT 10SM FEW100 SCT110 07/03 A3026 0 76 -800 010/06 RMK AO2 $
63870K0J4 0J420160101193510101/01/16 19:35:31  5-MIN K0J4 020035Z AUTO 36007KT 10SM FEW100 07/03 A3027 0 76 -900 360/07 RMK AO2 $
63870K0J4 0J420160101194011701/01/16 19:40:31  5-MIN K0J4 020040Z AUTO 36008KT 310V020 10SM FEW100 07/03 A3027 0 73 -900 360/08 310V020 RMK AO2 $
63870K0J4 0J420160101194510001/01/16 19:45:31  5-MIN K0J4 020045Z AUTO 36008KT 10SM CLR 07/03 A3028 -10 73 -900 360/08 RMK AO2 $
63870K0J4 0J420160101195010001/01/16 19:50:31  5-MIN K0J4 020050Z AUTO 36006KT 10SM CLR 07/03 A3029 -10 73 -900 360/06 RMK AO2 $
63870K0J4 0J420160101195511701/01/16 19:55:31  5-MIN K0J4 020055Z AUTO 35003KT 10SM CLR 07/03 A3029 -10 73 -900 350/03 RMK AO2 SLP255 T00720028 $
63870K0J4 0J420160101200010001/01/16 20:00:31  5-MIN K0J4 020100Z AUTO 34004KT 10SM CLR 07/03 A3029 -20 73 -900 340/04 RMK AO2 $
63870K0J4 0J420160101200510001/01/16 20:05:31  5-MIN K0J4 020105Z AUTO 36006KT 10SM CLR 07/03 A3028 -10 73 -900 360/06 RMK AO2 $
63870K0J4 0J420160101201010001/01/16 20:10:31  5-MIN K0J4 020110Z AUTO 36005KT 10SM CLR 07/03 A3028 -10 73 -900 360/05 RMK AO2 $
63870K0J4 0J420160101201510001/01/16 20:15:31  5-MIN K0J4 020115Z AUTO VRB03KT 10SM CLR 07/03 A3029 -20 76 -900 VRB/03 RMK AO2 $
63870K0J4 0J420160101202010001/01/16 20:20:31  5-MIN K0J4 020120Z AUTO 35004KT 10SM CLR 07/03 A3030 -30 73 -900 350/04 RMK AO2 $
63870K0J4 0J420160101202510301/01/16 20:25:31  5-MIN K0J4 020125Z AUTO 01006KT 10SM FEW110 07/03 A3029 -20 73 -900 010/06 RMK AO2 $
63870K0J4 0J420160101203010301/01/16 20:30:31  5-MIN K0J4 020130Z AUTO VRB04KT 10SM SCT110 07/03 A3029 -20 73 -900 VRB/04 RMK AO2 $
63870K0J4 0J420160101203511001/01/16 20:35:31  5-MIN K0J4 020135Z AUTO 35005KT 10SM FEW090 BKN110 07/03 A3030 -20 73 -900 350/05 RMK AO2 $
63870K0J4 0J420160101204010301/01/16 20:40:31  5-MIN K0J4 020140Z AUTO 36005KT 10SM BKN100 07/03 A3029 -20 73 -900 360/05 RMK AO2 $
63870K0J4 0J420160101204511001/01/16 20:45:31  5-MIN K0J4 020145Z AUTO 36005KT 10SM SCT090 BKN110 07/03 A3029 -20 73 -900 360/05 RMK AO2 $
63870K0J4 0J420160101205011001/01/16 20:50:31  5-MIN K0J4 020150Z AUTO 36005KT 10SM SCT090 OVC110 07/03 A3029 -20 73 -900 360/05 RMK AO2 $
63870K0J4 0J420160101205512001/01/16 20:55:31  5-MIN K0J4 020155Z AUTO VRB05KT 10SM OVC100 07/03 A3029 -20 73 -900 VRB/05 RMK AO2 SLP257 T00720028 $
63870K0J4 0J420160101210010301/01/16 21:00:31  5-MIN K0J4 020200Z AUTO VRB06KT 10SM OVC100 07/03 A3030 -30 73 -900 VRB/06 RMK AO2 $
63870K0J4 0J420160101210510301/01/16 21:05:31  5-MIN K0J4 020205Z AUTO 01005KT 10SM BKN100 07/03 A3029 -20 73 -900 010/05 RMK AO2 $
63870K0J4 0J420160101211011001/01/16 21:10:31  5-MIN K0J4 020210Z AUTO 35005KT 10SM BKN100 BKN110 07/03 A3030 -20 73 -900 350/05 RMK AO2 $
63870K0J4 0J420160101211511701/01/16 21:15:31  5-MIN K0J4 020215Z AUTO VRB06KT 10SM FEW070 BKN090 BKN110 07/03 A3030 -20 73 -900 VRB/06 RMK AO2 $
63870K0J4 0J420160101212011701/01/16 21:20:31  5-MIN K0J4 020220Z AUTO VRB05KT 10SM FEW055 SCT070 BKN090 07/02 A3029 -20 70 -900 VRB/05 RMK AO2 $
63870K0J4 0J420160101212513901/01/16 21:25:31  5-MIN K0J4 020225Z AUTO 01007KT 330V030 10SM SCT060 BKN090 BKN110 07/03 A3029 -20 73 -900 010/07 330V030 RMK AO2 P0001 $
63870K0J4 0J420160101213012301/01/16 21:30:31  5-MIN K0J4 020230Z AUTO 36007KT 10SM FEW060 BKN085 BKN110 07/02 A3029 -20 70 -900 360/07 RMK AO2 P0001 $
63870K0J4 0J420160101213512301/01/16 21:35:31  5-MIN K0J4 020235Z AUTO 36008KT 10SM FEW060 BKN085 BKN110 07/02 A3030 -20 70 -900 360/08 RMK AO2 P0001 $
63870K0J4 0J420160101214012301/01/16 21:40:31  5-MIN K0J4 020240Z AUTO 36006KT 10SM FEW060 SCT090 SCT110 07/02 A3029 -20 70 -900 360/06 RMK AO2 P0001 $
63870K0J4 0J420160101214512301/01/16 21:45:31  5-MIN K0J4 020245Z AUTO VRB05KT 10SM FEW060 SCT090 SCT110 07/02 A3029 -20 70 -900 VRB/05 RMK AO2 P0001 $
63870K0J4 0J420160101215010901/01/16 21:50:31  5-MIN K0J4 020250Z AUTO 02009KT 10SM FEW090 07/02 A3029 -20 70 -900 020/09 RMK AO2 P0001 $
63870K0J4 0J420160101215513801/01/16 21:55:31  5-MIN K0J4 020255Z AUTO 01005KT 10SM FEW090 07/02 A3029 -20 70 -900 010/05 RMK AO2 SLP255 P0001 60001 T00720022 53010 $
63870K0J4 0J420160101220010301/01/16 22:00:31  5-MIN K0J4 020300Z AUTO 36006KT 10SM FEW100 07/02 A3030 -20 70 -900 360/06 RMK AO2 $
63870K0J4 0J420160101220511001/01/16 22:05:31  5-MIN K0J4 020305Z AUTO 35008KT 10SM FEW100 SCT110 07/02 A3030 -30 70 -900 350/08 RMK AO2 $
63870K0J4 0J420160101221011001/01/16 22:10:31  5-MIN K0J4 020310Z AUTO 36006KT 10SM SCT100 07/02 A3031 -40 70 -900 360/06 RMK AO2 PRESRR $
63870K0J4 0J420160101221511701/01/16 22:15:31  5-MIN K0J4 020315Z AUTO VRB05KT 10SM SCT100 SCT120 07/02 A3032 -40 70 -900 VRB/05 RMK AO2 PRESRR $
63870K0J4 0J420160101222012601/01/16 22:20:31  5-MIN K0J4 020320Z AUTO 35006KT 10SM -RA SCT100 SCT120 07/02 A3032 -40 70 -900 350/06 RMK AO2 RAB19 P0000 $
63870K0J4 0J420160101222512601/01/16 22:25:31  5-MIN K0J4 020325Z AUTO VRB05KT 10SM -RA FEW100 BKN120 07/02 A3032 -40 68 -900 VRB/05 RMK AO2 RAB19 P0000 $
63870K0J4 0J420160101223012501/01/16 22:30:31  5-MIN K0J4 020330Z AUTO 35004KT 10SM FEW095 BKN120 07/02 A3032 -40 70 -900 350/04 RMK AO2 RAB19E27 P0000 $
63870K0J4 0J420160101223512601/01/16 22:35:31  5-MIN K0J4 020335Z AUTO 36004KT 10SM FEW100 SCT120 07/02 A3031 -40 73 -1000 360/04 RMK AO2 RAB19E27 P0000 $
63870K0J4 0J420160101224011901/01/16 22:40:31  5-MIN K0J4 020340Z AUTO VRB05KT 10SM FEW120 07/02 A3031 -30 73 -1000 VRB/05 RMK AO2 RAB19E27 P0000 $
63870K0J4 0J420160101224511901/01/16 22:45:31  5-MIN K0J4 020345Z AUTO 36007KT 10SM FEW120 07/02 A3030 -30 73 -1000 360/07 RMK AO2 RAB19E27 P0000 $
63870K0J4 0J420160101225011901/01/16 22:50:31  5-MIN K0J4 020350Z AUTO 01007KT 10SM FEW120 07/02 A3030 -30 70 -1000 010/07 RMK AO2 RAB19E27 P0000 $
63870K0J4 0J420160101225513301/01/16 22:55:31  5-MIN K0J4 020355Z AUTO 35005KT 10SM CLR 07/02 A3031 -40 70 -1000 350/05 RMK AO2 RAB19E27 SLP264 P0000 T00670017 $
63870K0J4 0J420160101230010101/01/16 23:00:31  5-MIN K0J4 020400Z AUTO 36007KT 10SM CLR 07/02 A3031 -30 70 -1000 360/07 RMK AO2 $
63870K0J4 0J420160101230510101/01/16 23:05:31  5-MIN K0J4 020405Z AUTO 36006KT 10SM CLR 07/02 A3031 -40 70 -1000 360/06 RMK AO2 $
63870K0J4 0J420160101231010101/01/16 23:10:31  5-MIN K0J4 020410Z AUTO 01005KT 10SM CLR 07/02 A3031 -30 70 -1000 010/05 RMK AO2 $
63870K0J4 0J420160101231510101/01/16 23:15:31  5-MIN K0J4 020415Z AUTO 36005KT 10SM CLR 07/02 A3031 -30 70 -1000 360/05 RMK AO2 $
63870K0J4 0J420160101232010101/01/16 23:20:31  5-MIN K0J4 020420Z AUTO 35005KT 10SM CLR 07/02 A3031 -30 70 -1000 350/05 RMK AO2 $
63870K0J4 0J420160101232510001/01/16 23:25:31  5-MIN K0J4 020425Z AUTO 36007KT 10SM CLR 07/02 A3029 -20 70 -900 360/07 RMK AO2 $
63870K0J4 0J420160101233010101/01/16 23:30:31  5-MIN K0J4 020430Z AUTO VRB06KT 10SM CLR 07/02 A3030 -30 70 -1000 VRB/06 RMK AO2 $
63870K0J4 0J420160101233510101/01/16 23:35:31  5-MIN K0J4 020435Z AUTO 36008KT 10SM CLR 07/02 A3030 -20 70 -1000 360/08 RMK AO2 $
63870K0J4 0J420160101234010301/01/16 23:40:31  5-MIN K0J4 020440Z AUTO VRB05KT 10SM FEW120 07/02 A3029 -20 70 -900 VRB/05 RMK AO2 $
63870K0J4 0J420160101234510301/01/16 23:45:31  5-MIN K0J4 020445Z AUTO 36006KT 10SM FEW120 07/02 A3029 -20 70 -900 360/06 RMK AO2 $
63870K0J4 0J420160101235010001/01/16 23:50:31  5-MIN K0J4 020450Z AUTO 01007KT 10SM CLR 07/02 A3028 -10 70 -900 010/07 RMK AO2 $
63870K0J4 0J420160101235512701/01/16 23:55:31  5-MIN K0J4 020455Z AUTO 01006KT 10SM CLR 07/02 A3028 -10 70 -900 010/06 RMK AO2 SLP253 T00670017 401220067 $
63870K0J4 0J420160102000010001/02/16 00:00:31  5-MIN K0J4 020500Z AUTO VRB05KT 10SM CLR 07/02 A3029 -20 70 -900 VRB/05 RMK AO2 $
63870K0J4 0J420160102000510001/02/16 00:05:31  5-MIN K0J4 020505Z AUTO VRB06KT 10SM CLR 07/02 A3029 -20 70 -900 VRB/06 RMK AO2 $
63870K0J4 0J420160102001010001/02/16 00:10:31  5-MIN K0J4 020510Z AUTO 01005KT 10SM CLR 07/02 A3028 -10 70 -900 010/05 RMK AO2 $
63870K0J4 0J420160102001510001/02/16 00:15:31  5-MIN K0J4 020515Z AUTO 01006KT 10SM CLR 07/02 A3028 -10 70 -900 010/06 RMK AO2 $
63870K0J4 0J420160102002010001/02/16 00:20:31  5-MIN K0J4 020520Z AUTO 36006KT 10SM CLR 07/02 A3028 -10 70 -900 360/06 RMK AO2 $
63870K0J4 0J420160102002510001/02/16 00:25:31  5-MIN K0J4 020525Z AUTO 36007KT 10SM CLR 07/02 A3028 -10 70 -900 360/07 RMK AO2 $
63870K0J4 0J420160102003010001/02/16 00:30:31  5-MIN K0J4 020530Z AUTO 36004KT 10SM CLR 07/02 A3028 -10 70 -900 360/04 RMK AO2 $
63870K0J4 0J420160102003510001/02/16 00:35:31  5-MIN K0J4 020535Z AUTO 36006KT 10SM CLR 07/02 A3028 -10 70 -900 360/06 RMK AO2 $
63870K0J4 0J420160102004010001/02/16 00:40:31  5-MIN K0J4 020540Z AUTO 35006KT 10SM CLR 07/02 A3029 -20 70 -900 350/06 RMK AO2 $
63870K0J4 0J420160102004510001/02/16 00:45:31  5-MIN K0J4 020545Z AUTO 01005KT 10SM CLR 07/02 A3028 -10 70 -900 010/05 RMK AO2 $
63870K0J4 0J420160102005010001/02/16 00:50:31  5-MIN K0J4 020550Z AUTO 35008KT 10SM CLR 07/02 A3029 -20 70 -900 350/08 RMK AO2 $
63870K0J4 0J420160102005514201/02/16 00:55:31  5-MIN K0J4 020555Z AUTO 35008KT 10SM CLR 07/01 A3030 -30 67 -1000 350/08 RMK AO2 SLP259 60001 T00670011 10072 20061 50012 $
63870K0J4 0J420160102010010101/02/16 01:00:31  5-MIN K0J4 020600Z AUTO 36007KT 10SM CLR 07/01 A3030 -20 67 -1000 360/07 RMK AO2 $
63870K0J4 0J420160102010510001/02/16 01:05:31  5-MIN K0J4 020605Z AUTO 36006KT 10SM CLR 07/01 A3029 -20 67 -900 360/06 RMK AO2 $
63870K0J4 0J420160102011010101/02/16 01:10:31  5-MIN K0J4 020610Z AUTO 35005KT 10SM CLR 06/01 A3029 -20 70 -1000 350/05 RMK AO2 $
63870K0J4 0J420160102011511701/02/16 01:15:31  5-MIN K0J4 020615Z AUTO 36007KT 320V020 10SM CLR 06/01 A3028 -10 70 -1000 360/07 320V020 RMK AO2 $
63870K0J4 0J420160102012010101/02/16 01:20:31  5-MIN K0J4 020620Z AUTO 35004KT 10SM CLR 06/01 A3029 -20 70 -1000 350/04 RMK AO2 $
63870K0J4 0J420160102012510101/02/16 01:25:31  5-MIN K0J4 020625Z AUTO 36005KT 10SM CLR 06/01 A3028 -10 70 -1000 360/05 RMK AO2 $
63870K0J4 0J420160102013010101/02/16 01:30:31  5-MIN K0J4 020630Z AUTO 36004KT 10SM CLR 06/01 A3028 -10 70 -1000 360/04 RMK AO2 $
63870K0J4 0J420160102013510101/02/16 01:35:31  5-MIN K0J4 020635Z AUTO 36006KT 10SM CLR 06/01 A3028 -10 70 -1000 360/06 RMK AO2 $
63870K0J4 0J420160102014009901/02/16 01:40:31  5-MIN K0J4 020640Z AUTO 01006KT 10SM CLR 06/01 A3027 0 70 -1000 010/06 RMK AO2 $
63870K0J4 0J420160102014510101/02/16 01:45:31  5-MIN K0J4 020645Z AUTO VRB04KT 10SM CLR 06/01 A3028 -10 70 -1000 VRB/04 RMK AO2 $
63870K0J4 0J420160102015010101/02/16 01:50:31  5-MIN K0J4 020650Z AUTO 36007KT 10SM CLR 06/01 A3028 -10 70 -1000 360/07 RMK AO2 $
63870K0J4 0J420160102015511801/02/16 01:55:31  5-MIN K0J4 020655Z AUTO 36007KT 10SM CLR 06/01 A3028 -10 70 -1000 360/07 RMK AO2 SLP252 T00610011 $
63870K0J4 0J420160102020010101/02/16 02:00:31  5-MIN K0J4 020700Z AUTO 36007KT 10SM CLR 06/01 A3028 -10 70 -1000 360/07 RMK AO2 $
63870K0J4 0J420160102020509901/02/16 02:05:31  5-MIN K0J4 020705Z AUTO VRB05KT 10SM CLR 06/01 A3027 0 70 -1000 VRB/05 RMK AO2 $
63870K0J4 0J420160102021009901/02/16 02:10:31  5-MIN K0J4 020710Z AUTO 36006KT 10SM CLR 06/01 A3027 0 70 -1000 360/06 RMK AO2 $
63870K0J4 0J420160102021509901/02/16 02:15:31  5-MIN K0J4 020715Z AUTO 36006KT 10SM CLR 06/01 A3027 0 70 -1000 360/06 RMK AO2 $
63870K0J4 0J420160102022010101/02/16 02:20:31  5-MIN K0J4 020720Z AUTO 36006KT 10SM CLR 06/01 A3028 -10 70 -1000 360/06 RMK AO2 $
63870K0J4 0J420160102022509901/02/16 02:25:31  5-MIN K0J4 020725Z AUTO 36005KT 10SM CLR 06/01 A3027 0 70 -1000 360/05 RMK AO2 $
63870K0J4 0J420160102023009901/02/16 02:30:31  5-MIN K0J4 020730Z AUTO 01006KT 10SM CLR 06/01 A3027 0 70 -1000 010/06 RMK AO2 $
63870K0J4 0J420160102023510101/02/16 02:35:31  5-MIN K0J4 020735Z AUTO 36005KT 10SM CLR 06/01 A3028 -10 70 -1000 360/05 RMK AO2 $
63870K0J4 0J420160102024009901/02/16 02:40:31  5-MIN K0J4 020740Z AUTO 01007KT 10SM CLR 06/01 A3027 0 70 -1000 010/07 RMK AO2 $
63870K0J4 0J420160102024509901/02/16 02:45:31  5-MIN K0J4 020745Z AUTO 01007KT 10SM CLR 06/01 A3027 0 70 -1000 010/07 RMK AO2 $
63870K0J4 0J420160102025009901/02/16 02:50:31  5-MIN K0J4 020750Z AUTO 01007KT 10SM CLR 06/01 A3027 0 67 -1000 010/07 RMK AO2 $
63870K0J4 0J420160102025511801/02/16 02:55:31  5-MIN K0J4 020755Z AUTO 35007KT 10SM CLR 06/01 A3028 -10 67 -1000 350/07 RMK AO2 SLP252 T00610006 $
63870K0J4 0J420160102030009901/02/16 03:00:31  5-MIN K0J4 020800Z AUTO 36007KT 10SM CLR 06/01 A3027 0 67 -1000 360/07 RMK AO2 $
63870K0J4 0J420160102030510101/02/16 03:05:31  5-MIN K0J4 020805Z AUTO 35006KT 10SM CLR 06/01 A3029 -20 67 -1000 350/06 RMK AO2 $
63870K0J4 0J420160102031010101/02/16 03:10:31  5-MIN K0J4 020810Z AUTO 01006KT 10SM CLR 06/01 A3028 -10 67 -1000 010/06 RMK AO2 $
63870K0J4 0J420160102031510101/02/16 03:15:31  5-MIN K0J4 020815Z AUTO 36005KT 10SM CLR 06/01 A3028 -10 67 -1000 360/05 RMK AO2 $
63870K0J4 0J420160102032010101/02/16 03:20:31  5-MIN K0J4 020820Z AUTO 36007KT 10SM CLR 06/01 A3028 -10 67 -1000 360/07 RMK AO2 $
63870K0J4 0J420160102032510101/02/16 03:25:31  5-MIN K0J4 020825Z AUTO 34005KT 10SM CLR 06/01 A3029 -20 70 -1100 340/05 RMK AO2 $
63870K0J4 0J420160102033010101/02/16 03:30:31  5-MIN K0J4 020830Z AUTO 35005KT 10SM CLR 06/00 A3029 -20 67 -1100 350/05 RMK AO2 $
63870K0J4 0J420160102033510101/02/16 03:35:31  5-MIN K0J4 020835Z AUTO 36005KT 10SM CLR 06/01 A3029 -20 70 -1100 360/05 RMK AO2 $
63870K0J4 0J420160102034010101/02/16 03:40:31  5-MIN K0J4 020840Z AUTO VRB05KT 10SM CLR 06/00 A3029 -20 67 -1100 VRB/05 RMK AO2 $
63870K0J4 0J420160102034510101/02/16 03:45:31  5-MIN K0J4 020845Z AUTO 36005KT 10SM CLR 06/00 A3029 -20 67 -1100 360/05 RMK AO2 $
63870K0J4 0J420160102035010101/02/16 03:50:31  5-MIN K0J4 020850Z AUTO VRB05KT 10SM CLR 06/00 A3028 -10 67 -1100 VRB/05 RMK AO2 $
63870K0J4 0J420160102035512401/02/16 03:55:31  5-MIN K0J4 020855Z AUTO 36006KT 10SM CLR 06/00 A3028 -10 67 -1100 360/06 RMK AO2 SLP253 T00560000 51001 $
63870K0J4 0J420160102040010101/02/16 04:00:31  5-MIN K0J4 020900Z AUTO VRB04KT 10SM CLR 06/00 A3028 -10 67 -1100 VRB/04 RMK AO2 $
63870K0J4 0J420160102040509901/02/16 04:05:31  5-MIN K0J4 020905Z AUTO 01006KT 10SM CLR 06/00 A3027 0 67 -1100 010/06 RMK AO2 $
63870K0J4 0J420160102041010101/02/16 04:10:31  5-MIN K0J4 020910Z AUTO 36007KT 10SM CLR 06/00 A3028 -10 67 -1100 360/07 RMK AO2 $
63870K0J4 0J420160102041510101/02/16 04:15:31  5-MIN K0J4 020915Z AUTO 01006KT 10SM CLR 06/00 A3028 -10 67 -1100 010/06 RMK AO2 $
63870K0J4 0J420160102042010101/02/16 04:20:31  5-MIN K0J4 020920Z AUTO 36005KT 10SM CLR 06/00 A3028 -10 67 -1100 360/05 RMK AO2 $
63870K0J4 0J420160102042510101/02/16 04:25:31  5-MIN K0J4 020925Z AUTO 01004KT 10SM CLR 06/00 A3028 -10 67 -1100 010/04 RMK AO2 $
63870K0J4 0J420160102043010101/02/16 04:30:31  5-MIN K0J4 020930Z AUTO 35004KT 10SM CLR 06/00 A3030 -30 67 -1100 350/04 RMK AO2 $
63870K0J4 0J420160102043510101/02/16 04:35:31  5-MIN K0J4 020935Z AUTO 36004KT 10SM CLR 06/00 A3029 -20 67 -1100 360/04 RMK AO2 $
63870K0J4 0J420160102044010101/02/16 04:40:31  5-MIN K0J4 020940Z AUTO 36004KT 10SM CLR 06/00 A3030 -30 67 -1100 360/04 RMK AO2 $
63870K0J4 0J420160102044510101/02/16 04:45:31  5-MIN K0J4 020945Z AUTO VRB05KT 10SM CLR 06/00 A3030 -20 67 -1100 VRB/05 RMK AO2 $
63870K0J4 0J420160102045010101/02/16 04:50:31  5-MIN K0J4 020950Z AUTO 36005KT 10SM CLR 06/00 A3030 -20 67 -1100 360/05 RMK AO2 $
63870K0J4 0J420160102045511801/02/16 04:55:31  5-MIN K0J4 020955Z AUTO 36006KT 10SM CLR 06/00 A3029 -20 67 -1100 360/06 RMK AO2 SLP257 T00560000 $
63870K0J4 0J420160102050010101/02/16 05:00:31  5-MIN K0J4 021000Z AUTO 35005KT 10SM CLR 06/00 A3031 -30 67 -1100 350/05 RMK AO2 $
63870K0J4 0J420160102050510101/02/16 05:05:31  5-MIN K0J4 021005Z AUTO 01007KT 10SM CLR 06/00 A3030 -30 67 -1100 010/07 RMK AO2 $
63870K0J4 0J420160102051010101/02/16 05:10:31  5-MIN K0J4 021010Z AUTO 01007KT 10SM CLR 06/00 A3030 -20 67 -1100 010/07 RMK AO2 $
63870K0J4 0J420160102051510201/02/16 05:15:31  5-MIN K0J4 021015Z AUTO 01004KT 10SM CLR 05/M01 A3029 -20 67 -1100 010/04 RMK AO2 $
63870K0J4 0J420160102052010101/02/16 05:20:31  5-MIN K0J4 021020Z AUTO 01004KT 10SM CLR 06/00 A3029 -20 67 -1100 010/04 RMK AO2 $
63870K0J4 0J420160102052510101/02/16 05:25:31  5-MIN K0J4 021025Z AUTO VRB04KT 10SM CLR 05/00 A3029 -20 70 -1100 VRB/04 RMK AO2 $
63870K0J4 0J420160102053010101/02/16 05:30:31  5-MIN K0J4 021030Z AUTO 36004KT 10SM CLR 05/00 A3029 -20 70 -1200 360/04 RMK AO2 $
63870K0J4 0J420160102053510101/02/16 05:35:31  5-MIN K0J4 021035Z AUTO 35003KT 10SM CLR 05/00 A3030 -20 70 -1200 350/03 RMK AO2 $
63870K0J4 0J420160102054010101/02/16 05:40:31  5-MIN K0J4 021040Z AUTO 36005KT 10SM CLR 05/00 A3029 -20 70 -1200 360/05 RMK AO2 $
63870K0J4 0J420160102054510101/02/16 05:45:31  5-MIN K0J4 021045Z AUTO 36006KT 10SM CLR 05/00 A3029 -20 70 -1100 360/06 RMK AO2 $
63870K0J4 0J420160102055010201/02/16 05:50:31  5-MIN K0J4 021050Z AUTO 35004KT 10SM CLR 05/M01 A3030 -20 67 -1200 350/04 RMK AO2 $
63870K0J4 0J420160102055511801/02/16 05:55:31  5-MIN K0J4 021055Z AUTO 36004KT 10SM CLR 05/00 A3029 -20 70 -1100 360/04 RMK AO2 SLP256 T00500000 $
63870K0J4 0J420160102060010101/02/16 06:00:31  5-MIN K0J4 021100Z AUTO VRB05KT 10SM CLR 05/00 A3029 -20 70 -1100 VRB/05 RMK AO2 $
63870K0J4 0J420160102060510101/02/16 06:05:31  5-MIN K0J4 021105Z AUTO 36005KT 10SM CLR 05/00 A3029 -20 70 -1100 360/05 RMK AO2 $
63870K0J4 0J420160102061010101/02/16 06:10:31  5-MIN K0J4 021110Z AUTO 01006KT 10SM CLR 05/00 A3029 -20 70 -1200 010/06 RMK AO2 $
63870K0J4 0J420160102061510101/02/16 06:15:31  5-MIN K0J4 021115Z AUTO 01005KT 10SM CLR 05/00 A3029 -20 70 -1100 010/05 RMK AO2 $
63870K0J4 0J420160102062010101/02/16 06:20:31  5-MIN K0J4 021120Z AUTO VRB05KT 10SM CLR 05/00 A3029 -20 70 -1200 VRB/05 RMK AO2 $
63870K0J4 0J420160102062510201/02/16 06:25:31  5-MIN K0J4 021125Z AUTO 36005KT 10SM CLR 05/M01 A3029 -20 67 -1200 360/05 RMK AO2 $
63870K0J4 0J420160102063010201/02/16 06:30:31  5-MIN K0J4 021130Z AUTO 01005KT 10SM CLR 05/M01 A3029 -20 67 -1100 010/05 RMK AO2 $
63870K0J4 0J420160102063510101/02/16 06:35:31  5-MIN K0J4 021135Z AUTO VRB04KT 10SM CLR 05/00 A3030 -20 70 -1200 VRB/04 RMK AO2 $
63870K0J4 0J420160102064010201/02/16 06:40:31  5-MIN K0J4 021140Z AUTO 35003KT 10SM CLR 05/M01 A3030 -30 67 -1200 350/03 RMK AO2 $
63870K0J4 0J420160102064510101/02/16 06:45:31  5-MIN K0J4 021145Z AUTO VRB04KT 10SM CLR 05/00 A3030 -30 70 -1200 VRB/04 RMK AO2 $
63870K0J4 0J420160102065010201/02/16 06:50:31  5-MIN K0J4 021150Z AUTO 01005KT 10SM CLR 05/M01 A3030 -20 67 -1200 010/05 RMK AO2 $
63870K0J4 0J420160102065514201/02/16 06:55:31  5-MIN K0J4 021155Z AUTO 36003KT 10SM CLR 05/00 A3030 -30 70 -1200 360/03 RMK AO2 SLP260 70002 T00500000 10067 20050 55005 $
63870K0J4 0J420160102070010201/02/16 07:00:31  5-MIN K0J4 021200Z AUTO 34004KT 10SM CLR 05/M01 A3031 -40 67 -1200 340/04 RMK AO2 $
63870K0J4 0J420160102070510101/02/16 07:05:31  5-MIN K0J4 021205Z AUTO 36003KT 10SM CLR 05/00 A3031 -40 70 -1200 360/03 RMK AO2 $
63870K0J4 0J420160102071010101/02/16 07:10:31  5-MIN K0J4 021210Z AUTO 36004KT 10SM CLR 04/00 A3031 -40 73 -1200 360/04 RMK AO2 $
63870K0J4 0J420160102071510101/02/16 07:15:31  5-MIN K0J4 021215Z AUTO 01006KT 10SM CLR 04/00 A3030 -30 73 -1200 010/06 RMK AO2 $
63870K0J4 0J420160102072010101/02/16 07:20:31  5-MIN K0J4 021220Z AUTO 01004KT 10SM CLR 04/00 A3030 -30 73 -1200 010/04 RMK AO2 $
63870K0J4 0J420160102072510101/02/16 07:25:31  5-MIN K0J4 021225Z AUTO VRB05KT 10SM CLR 04/00 A3031 -30 73 -1200 VRB/05 RMK AO2 $
63870K0J4 0J420160102073010101/02/16 07:30:31  5-MIN K0J4 021230Z AUTO VRB05KT 10SM CLR 04/00 A3031 -30 73 -1200 VRB/05 RMK AO2 $
63870K0J4 0J420160102073510101/02/16 07:35:31  5-MIN K0J4 021235Z AUTO 36003KT 10SM CLR 04/00 A3031 -40 73 -1200 360/03 RMK AO2 $
63870K0J4 0J420160102074010101/02/16 07:40:31  5-MIN K0J4 021240Z AUTO 01006KT 10SM CLR 04/00 A3031 -30 73 -1200 010/06 RMK AO2 $
63870K0J4 0J420160102175511601/02/16 17:55:31  5-MIN K0J4 022255Z AUTO 00000KT 10SM CLR 08/04 A3021 50 76 -700 000/00 RMK AO2 SLP228 T00780039 $
63870K0J4 0J420160102180009901/02/16 18:00:31  5-MIN K0J4 022300Z AUTO 00000KT 10SM CLR 08/04 A3021 50 76 -700 000/00 RMK AO2 $
63870K0J4 0J420160102180509901/02/16 18:05:31  5-MIN K0J4 022305Z AUTO 00000KT 10SM CLR 08/04 A3020 50 76 -700 000/00 RMK AO2 $
63870K0J4 0J420160102181009901/02/16 18:10:31  5-MIN K0J4 022310Z AUTO 00000KT 10SM CLR 08/04 A3021 50 79 -700 000/00 RMK AO2 $
63870K0J4 0J420160102181509901/02/16 18:15:31  5-MIN K0J4 022315Z AUTO 00000KT 10SM CLR 08/04 A3020 60 76 -700 000/00 RMK AO2 $
63870K0J4 0J420160102182009901/02/16 18:20:31  5-MIN K0J4 022320Z AUTO 00000KT 10SM CLR 08/03 A3020 60 70 -600 000/00 RMK AO2 $
63870K0J4 0J420160102182509901/02/16 18:25:31  5-MIN K0J4 022325Z AUTO 00000KT 10SM CLR 08/04 A3020 60 79 -700 000/00 RMK AO2 $
63870K0J4 0J420160102183009901/02/16 18:30:31  5-MIN K0J4 022330Z AUTO 00000KT 10SM CLR 08/04 A3020 60 76 -700 000/00 RMK AO2 $
63870K0J4 0J420160102183509901/02/16 18:35:31  5-MIN K0J4 022335Z AUTO 00000KT 10SM CLR 08/04 A3020 60 76 -700 000/00 RMK AO2 $
63870K0J4 0J420160102184009901/02/16 18:40:31  5-MIN K0J4 022340Z AUTO 00000KT 10SM CLR 08/03 A3020 60 73 -700 000/00 RMK AO2 $
63870K0J4 0J420160102184509901/02/16 18:45:31  5-MIN K0J4 022345Z AUTO 35003KT 10SM CLR 08/03 A3021 50 73 -700 350/03 RMK AO2 $
63870K0J4 0J420160102185009901/02/16 18:50:31  5-MIN K0J4 022350Z AUTO 31003KT 10SM CLR 08/03 A3022 40 70 -700 310/03 RMK AO2 $
63870K0J4 0J420160102185513401/02/16 18:55:31  5-MIN K0J4 022355Z AUTO 00000KT 10SM CLR 08/03 A3022 40 68 -700 000/00 RMK AO2 SLP231 T00830028 10106 20078 56021 $
63870K0J4 0J420160102190009901/02/16 19:00:31  5-MIN K0J4 030000Z AUTO 00000KT 10SM CLR 08/03 A3022 40 68 -700 000/00 RMK AO2 $
63870K0J4 0J420160102190509901/02/16 19:05:31  5-MIN K0J4 030005Z AUTO 00000KT 10SM CLR 08/04 A3022 40 76 -700 000/00 RMK AO2 $
63870K0J4 0J420160102191009901/02/16 19:10:31  5-MIN K0J4 030010Z AUTO 00000KT 10SM CLR 08/04 A3022 40 76 -700 000/00 RMK AO2 $
63870K0J4 0J420160102191509901/02/16 19:15:31  5-MIN K0J4 030015Z AUTO 00000KT 10SM CLR 08/03 A3022 40 73 -700 000/00 RMK AO2 $
63870K0J4 0J420160102192009901/02/16 19:20:31  5-MIN K0J4 030020Z AUTO 35003KT 10SM CLR 08/03 A3022 40 70 -700 350/03 RMK AO2 $
63870K0J4 0J420160102192509901/02/16 19:25:31  5-MIN K0J4 030025Z AUTO 36005KT 10SM CLR 08/02 A3022 40 65 -700 360/05 RMK AO2 $
63870K0J4 0J420160102193009901/02/16 19:30:31  5-MIN K0J4 030030Z AUTO 36004KT 10SM CLR 08/02 A3022 40 65 -700 360/04 RMK AO2 $
63870K0J4 0J420160102193509901/02/16 19:35:31  5-MIN K0J4 030035Z AUTO 35004KT 10SM CLR 08/02 A3023 30 65 -700 350/04 RMK AO2 $
63870K0J4 0J420160102194009901/02/16 19:40:31  5-MIN K0J4 030040Z AUTO 36003KT 10SM CLR 08/02 A3023 30 65 -700 360/03 RMK AO2 $
63870K0J4 0J420160102194509901/02/16 19:45:31  5-MIN K0J4 030045Z AUTO 34003KT 10SM CLR 08/02 A3024 30 63 -700 340/03 RMK AO2 $
63870K0J4 0J420160102195009901/02/16 19:50:31  5-MIN K0J4 030050Z AUTO 34003KT 10SM CLR 08/02 A3024 20 63 -700 340/03 RMK AO2 $
63870K0J4 0J420160102195511601/02/16 19:55:31  5-MIN K0J4 030055Z AUTO 00000KT 10SM CLR 08/02 A3025 20 63 -700 000/00 RMK AO2 SLP241 T00830017 $
63870K0J4 0J420160102200009901/02/16 20:00:31  5-MIN K0J4 030100Z AUTO 00000KT 10SM CLR 08/02 A3025 10 63 -700 000/00 RMK AO2 $
63870K0J4 0J420160102200509901/02/16 20:05:31  5-MIN K0J4 030105Z AUTO 33003KT 10SM CLR 08/02 A3025 20 63 -700 330/03 RMK AO2 $
63870K0J4 0J420160102201009901/02/16 20:10:31  5-MIN K0J4 030110Z AUTO 35003KT 10SM CLR 08/02 A3024 20 63 -700 350/03 RMK AO2 $
63870K0J4 0J420160102201509901/02/16 20:15:31  5-MIN K0J4 030115Z AUTO VRB03KT 10SM CLR 08/02 A3024 20 65 -800 VRB/03 RMK AO2 $
63870K0J4 0J420160102202009901/02/16 20:20:31  5-MIN K0J4 030120Z AUTO 34003KT 10SM CLR 08/02 A3025 20 65 -800 340/03 RMK AO2 $
63870K0J4 0J420160102202509901/02/16 20:25:31  5-MIN K0J4 030125Z AUTO 35003KT 10SM CLR 08/02 A3024 20 65 -800 350/03 RMK AO2 $
63870K0J4 0J420160102203009901/02/16 20:30:31  5-MIN K0J4 030130Z AUTO 00000KT 10SM CLR 08/02 A3024 20 65 -800 000/00 RMK AO2 $
63870K0J4 0J420160102203509901/02/16 20:35:31  5-MIN K0J4 030135Z AUTO VRB03KT 10SM CLR 08/02 A3023 30 65 -700 VRB/03 RMK AO2 $
63870K0J4 0J420160102204009901/02/16 20:40:31  5-MIN K0J4 030140Z AUTO 01003KT 10SM CLR 08/02 A3023 30 65 -700 010/03 RMK AO2 $
63870K0J4 0J420160102204509901/02/16 20:45:31  5-MIN K0J4 030145Z AUTO 35003KT 10SM CLR 08/02 A3023 30 65 -700 350/03 RMK AO2 $
63870K0J4 0J420160102205009901/02/16 20:50:31  5-MIN K0J4 030150Z AUTO 35003KT 10SM CLR 08/02 A3023 30 65 -700 350/03 RMK AO2 $
63870K0J4 0J420160102205511601/02/16 20:55:31  5-MIN K0J4 030155Z AUTO 00000KT 10SM CLR 08/02 A3023 30 65 -700 000/00 RMK AO2 SLP236 T00780017 $
63870K0J4 0J420160102210009901/02/16 21:00:31  5-MIN K0J4 030200Z AUTO 36003KT 10SM CLR 08/02 A3023 30 65 -700 360/03 RMK AO2 $
63870K0J4 0J420160102210509901/02/16 21:05:31  5-MIN K0J4 030205Z AUTO 35003KT 10SM CLR 08/02 A3023 30 65 -700 350/03 RMK AO2 $
63870K0J4 0J420160102211009901/02/16 21:10:31  5-MIN K0J4 030210Z AUTO 00000KT 10SM CLR 08/02 A3023 30 65 -700 000/00 RMK AO2 $
63870K0J4 0J420160102211509901/02/16 21:15:31  5-MIN K0J4 030215Z AUTO VRB03KT 10SM CLR 08/02 A3023 30 65 -700 VRB/03 RMK AO2 $
63870K0J4 0J420160102212009901/02/16 21:20:31  5-MIN K0J4 030220Z AUTO 35003KT 10SM CLR 08/02 A3023 30 65 -700 350/03 RMK AO2 $
63870K0J4 0J420160102212509901/02/16 21:25:31  5-MIN K0J4 030225Z AUTO 34003KT 10SM CLR 08/02 A3024 20 65 -800 340/03 RMK AO2 $
63870K0J4 0J420160102213009901/02/16 21:30:31  5-MIN K0J4 030230Z AUTO 36003KT 10SM CLR 08/01 A3024 20 62 -800 360/03 RMK AO2 $
63870K0J4 0J420160102213509901/02/16 21:35:31  5-MIN K0J4 030235Z AUTO VRB04KT 10SM CLR 08/01 A3024 20 62 -800 VRB/04 RMK AO2 $
63870K0J4 0J420160102214009901/02/16 21:40:31  5-MIN K0J4 030240Z AUTO 33003KT 10SM CLR 08/01 A3024 20 62 -700 330/03 RMK AO2 $
63870K0J4 0J420160102214509901/02/16 21:45:31  5-MIN K0J4 030245Z AUTO 00000KT 10SM CLR 08/02 A3023 30 65 -700 000/00 RMK AO2 $
63870K0J4 0J420160102215009901/02/16 21:50:31  5-MIN K0J4 030250Z AUTO 01004KT 10SM CLR 08/02 A3022 40 65 -700 010/04 RMK AO2 $
63870K0J4 0J420160102215512201/02/16 21:55:31  5-MIN K0J4 030255Z AUTO 00000KT 10SM CLR 08/02 A3022 40 65 -700 000/00 RMK AO2 SLP232 T00780017 53010 $
63870K0J4 0J420160102220010601/02/16 22:00:31  5-MIN K0J4 030300Z AUTO 02004KT 10SM CLR 08/02 A3021 50 65 -700 020/04 RMK AO2 PRESFR $
63870K0J4 0J420160102220509901/02/16 22:05:31  5-MIN K0J4 030305Z AUTO 01004KT 10SM CLR 07/02 A3021 50 68 -800 010/04 RMK AO2 $
63870K0J4 0J420160102221009901/02/16 22:10:31  5-MIN K0J4 030310Z AUTO 01004KT 10SM CLR 07/02 A3021 50 68 -800 010/04 RMK AO2 $
63870K0J4 0J420160102221509901/02/16 22:15:31  5-MIN K0J4 030315Z AUTO 36004KT 10SM CLR 07/02 A3021 50 68 -800 360/04 RMK AO2 $
63870K0J4 0J420160102222009901/02/16 22:20:31  5-MIN K0J4 030320Z AUTO 35004KT 10SM CLR 07/02 A3022 40 68 -800 350/04 RMK AO2 $
63870K0J4 0J420160102222509901/02/16 22:25:31  5-MIN K0J4 030325Z AUTO 35005KT 10SM CLR 07/02 A3022 40 68 -800 350/05 RMK AO2 $
63870K0J4 0J420160102223009901/02/16 22:30:31  5-MIN K0J4 030330Z AUTO 35004KT 10SM CLR 07/02 A3023 40 68 -800 350/04 RMK AO2 $
63870K0J4 0J420160102223509901/02/16 22:35:31  5-MIN K0J4 030335Z AUTO VRB03KT 10SM CLR 07/02 A3022 40 68 -800 VRB/03 RMK AO2 $
63870K0J4 0J420160102224009901/02/16 22:40:31  5-MIN K0J4 030340Z AUTO 35003KT 10SM CLR 07/02 A3023 40 68 -800 350/03 RMK AO2 $
63870K0J4 0J420160102224509901/02/16 22:45:31  5-MIN K0J4 030345Z AUTO 35003KT 10SM CLR 07/01 A3023 30 65 -800 350/03 RMK AO2 $
63870K0J4 0J420160102225009901/02/16 22:50:31  5-MIN K0J4 030350Z AUTO 36003KT 10SM CLR 07/01 A3023 30 65 -800 360/03 RMK AO2 $
63870K0J4 0J420160102225511601/02/16 22:55:31  5-MIN K0J4 030355Z AUTO 34004KT 10SM CLR 07/01 A3023 30 65 -800 340/04 RMK AO2 SLP237 T00720011 $
63870K0J4 0J420160102230009901/02/16 23:00:31  5-MIN K0J4 030400Z AUTO 35003KT 10SM CLR 07/01 A3023 30 67 -900 350/03 RMK AO2 $
63870K0J4 0J420160102230509901/02/16 23:05:31  5-MIN K0J4 030405Z AUTO 00000KT 10SM CLR 07/01 A3023 30 67 -900 000/00 RMK AO2 $
63870K0J4 0J420160102231009901/02/16 23:10:31  5-MIN K0J4 030410Z AUTO 00000KT 10SM CLR 07/02 A3023 30 70 -900 000/00 RMK AO2 $
63870K0J4 0J420160102231509901/02/16 23:15:31  5-MIN K0J4 030415Z AUTO 34003KT 10SM CLR 07/02 A3023 30 70 -900 340/03 RMK AO2 $
63870K0J4 0J420160102232009901/02/16 23:20:31  5-MIN K0J4 030420Z AUTO 00000KT 10SM CLR 07/02 A3023 30 70 -900 000/00 RMK AO2 $
63870K0J4 0J420160102232509901/02/16 23:25:31  5-MIN K0J4 030425Z AUTO 00000KT 10SM CLR 07/02 A3023 30 70 -900 000/00 RMK AO2 $
63870K0J4 0J420160102233009901/02/16 23:30:31  5-MIN K0J4 030430Z AUTO 00000KT 10SM CLR 07/02 A3022 40 70 -900 000/00 RMK AO2 $
63870K0J4 0J420160102233509901/02/16 23:35:31  5-MIN K0J4 030435Z AUTO 00000KT 10SM CLR 07/02 A3022 40 70 -900 000/00 RMK AO2 $
63870K0J4 0J420160102234009901/02/16 23:40:31  5-MIN K0J4 030440Z AUTO 00000KT 10SM CLR 06/02 A3023 30 76 -900 000/00 RMK AO2 $
63870K0J4 0J420160102234509901/02/16 23:45:31  5-MIN K0J4 030445Z AUTO 00000KT 10SM CLR 06/02 A3023 30 76 -900 000/00 RMK AO2 $
63870K0J4 0J420160102235010001/02/16 23:50:31  5-MIN K0J4 030450Z AUTO 00000KT 10SM CLR 06/03 A3023 40 82 -1000 000/00 RMK AO2 $
63870K0J4 0J420160102235512701/02/16 23:55:31  5-MIN K0J4 030455Z AUTO 00000KT 10SM CLR 06/03 A3022 40 82 -1000 000/00 RMK AO2 SLP232 T00560028 401060044 $
63870K0J4 0J420160103000010001/03/16 00:00:31  5-MIN K0J4 030500Z AUTO 00000KT 10SM CLR 06/03 A3022 40 82 -1000 000/00 RMK AO2 $
63870K0J4 0J420160103000510001/03/16 00:05:31  5-MIN K0J4 030505Z AUTO 00000KT 10SM CLR 06/03 A3022 40 85 -1000 000/00 RMK AO2 $
63870K0J4 0J420160103001010001/03/16 00:10:31  5-MIN K0J4 030510Z AUTO 00000KT 10SM CLR 05/03 A3022 40 85 -1100 000/00 RMK AO2 $
63870K0J4 0J420160103001510001/03/16 00:15:31  5-MIN K0J4 030515Z AUTO 00000KT 10SM CLR 06/03 A3022 40 82 -1000 000/00 RMK AO2 $
63870K0J4 0J420160103002010001/03/16 00:20:31  5-MIN K0J4 030520Z AUTO 00000KT 10SM CLR 06/03 A3022 40 82 -1000 000/00 RMK AO2 $
63870K0J4 0J420160103002510001/03/16 00:25:31  5-MIN K0J4 030525Z AUTO 32003KT 10SM CLR 06/02 A3022 40 79 -1000 320/03 RMK AO2 $
63870K0J4 0J420160103003009901/03/16 00:30:31  5-MIN K0J4 030530Z AUTO 00000KT 10SM CLR 06/02 A3022 40 76 -900 000/00 RMK AO2 $
63870K0J4 0J420160103003509901/03/16 00:35:31  5-MIN K0J4 030535Z AUTO 00000KT 10SM CLR 06/02 A3022 40 73 -900 000/00 RMK AO2 $
63870K0J4 0J420160103004009901/03/16 00:40:31  5-MIN K0J4 030540Z AUTO 00000KT 10SM CLR 06/02 A3022 40 76 -900 000/00 RMK AO2 $
63870K0J4 0J420160103004509901/03/16 00:45:31  5-MIN K0J4 030545Z AUTO 35003KT 10SM CLR 06/02 A3021 50 73 -900 350/03 RMK AO2 $
63870K0J4 0J420160103005009901/03/16 00:50:31  5-MIN K0J4 030550Z AUTO 33003KT 10SM CLR 06/02 A3021 50 73 -900 330/03 RMK AO2 $
63870K0J4 0J420160103005513401/03/16 00:55:31  5-MIN K0J4 030555Z AUTO 00000KT 10SM CLR 06/02 A3021 50 73 -900 000/00 RMK AO2 SLP230 T00610017 10083 20050 58002 $
63870K0J4 0J420160103010009901/03/16 01:00:31  5-MIN K0J4 030600Z AUTO 34003KT 10SM CLR 06/02 A3021 50 73 -900 340/03 RMK AO2 $
63870K0J4 0J420160103010509901/03/16 01:05:31  5-MIN K0J4 030605Z AUTO 00000KT 10SM CLR 06/02 A3021 50 73 -900 000/00 RMK AO2 $
63870K0J4 0J420160103011010001/03/16 01:10:31  5-MIN K0J4 030610Z AUTO 00000KT 10SM CLR 06/02 A3021 50 76 -1000 000/00 RMK AO2 $
63870K0J4 0J420160103011510001/03/16 01:15:31  5-MIN K0J4 030615Z AUTO 00000KT 10SM CLR 06/02 A3021 50 76 -1000 000/00 RMK AO2 $
63870K0J4 0J420160103012010001/03/16 01:20:31  5-MIN K0J4 030620Z AUTO 00000KT 10SM CLR 06/02 A3021 50 76 -1000 000/00 RMK AO2 $
63870K0J4 0J420160103012510001/03/16 01:25:31  5-MIN K0J4 030625Z AUTO 33003KT 10SM CLR 06/02 A3020 50 76 -1000 330/03 RMK AO2 $
63870K0J4 0J420160103013010001/03/16 01:30:31  5-MIN K0J4 030630Z AUTO 00000KT 10SM CLR 06/02 A3020 60 76 -1000 000/00 RMK AO2 $
63870K0J4 0J420160103013510001/03/16 01:35:31  5-MIN K0J4 030635Z AUTO 00000KT 10SM CLR 06/02 A3020 60 76 -1000 000/00 RMK AO2 $
63870K0J4 0J420160103014010001/03/16 01:40:31  5-MIN K0J4 030640Z AUTO 34003KT 10SM CLR 06/02 A3020 60 76 -1000 340/03 RMK AO2 $
63870K0J4 0J420160103014510001/03/16 01:45:31  5-MIN K0J4 030645Z AUTO 00000KT 10SM CLR 06/02 A3020 60 76 -1000 000/00 RMK AO2 $
63870K0J4 0J420160103015010001/03/16 01:50:31  5-MIN K0J4 030650Z AUTO 00000KT 10SM CLR 06/02 A3020 60 76 -1000 000/00 RMK AO2 $
63870K0J4 0J420160103015511701/03/16 01:55:31  5-MIN K0J4 030655Z AUTO 00000KT 10SM CLR 06/02 A3019 60 76 -1000 000/00 RMK AO2 SLP224 T00560017 $
63870K0J4 0J420160103020010001/03/16 02:00:31  5-MIN K0J4 030700Z AUTO 00000KT 10SM CLR 06/02 A3019 60 76 -1000 000/00 RMK AO2 $
63870K0J4 0J420160103020510001/03/16 02:05:31  5-MIN K0J4 030705Z AUTO 00000KT 10SM CLR 06/02 A3020 60 76 -1000 000/00 RMK AO2 $
63870K0J4 0J420160103021010001/03/16 02:10:31  5-MIN K0J4 030710Z AUTO 00000KT 10SM CLR 06/02 A3020 60 76 -1000 000/00 RMK AO2 $
63870K0J4 0J420160103021510001/03/16 02:15:31  5-MIN K0J4 030715Z AUTO 00000KT 10SM CLR 06/02 A3019 70 76 -1000 000/00 RMK AO2 $
63870K0J4 0J420160103022010001/03/16 02:20:31  5-MIN K0J4 030720Z AUTO 00000KT 10SM CLR 06/02 A3019 70 76 -1000 000/00 RMK AO2 $
63870K0J4 0J420160103022510001/03/16 02:25:31  5-MIN K0J4 030725Z AUTO 33003KT 10SM CLR 06/02 A3019 70 76 -1000 330/03 RMK AO2 $
63870K0J4 0J420160103023010001/03/16 02:30:31  5-MIN K0J4 030730Z AUTO 35003KT 10SM CLR 06/02 A3019 70 76 -1000 350/03 RMK AO2 $
63870K0J4 0J420160103023510001/03/16 02:35:31  5-MIN K0J4 030735Z AUTO 35003KT 10SM CLR 06/02 A3019 60 76 -1000 350/03 RMK AO2 $
63870K0J4 0J420160103024010001/03/16 02:40:31  5-MIN K0J4 030740Z AUTO 00000KT 10SM CLR 06/02 A3019 70 76 -1000 000/00 RMK AO2 $
63870K0J4 0J420160103024510001/03/16 02:45:31  5-MIN K0J4 030745Z AUTO VRB03KT 10SM CLR 06/02 A3019 70 76 -1000 VRB/03 RMK AO2 $
63870K0J4 0J420160103025010001/03/16 02:50:31  5-MIN K0J4 030750Z AUTO 36004KT 10SM CLR 06/02 A3018 70 76 -1000 360/04 RMK AO2 $
63870K0J4 0J420160103025511701/03/16 02:55:31  5-MIN K0J4 030755Z AUTO 36004KT 10SM CLR 06/02 A3018 70 76 -1000 360/04 RMK AO2 SLP221 T00560017 $
63870K0J4 0J420160103030010001/03/16 03:00:31  5-MIN K0J4 030800Z AUTO VRB03KT 10SM CLR 06/02 A3019 70 76 -1000 VRB/03 RMK AO2 $
63870K0J4 0J420160103030510001/03/16 03:05:31  5-MIN K0J4 030805Z AUTO 01005KT 10SM CLR 06/01 A3017 80 73 -1000 010/05 RMK AO2 $
63870K0J4 0J420160103031010001/03/16 03:10:31  5-MIN K0J4 030810Z AUTO 01005KT 10SM CLR 05/01 A3018 80 76 -1000 010/05 RMK AO2 $
63870K0J4 0J420160103031510001/03/16 03:15:31  5-MIN K0J4 030815Z AUTO 01004KT 10SM CLR 05/01 A3018 80 76 -1000 010/04 RMK AO2 $
63870K0J4 0J420160103032010001/03/16 03:20:31  5-MIN K0J4 030820Z AUTO 36004KT 10SM CLR 05/01 A3017 80 76 -1000 360/04 RMK AO2 $
63870K0J4 0J420160103032510001/03/16 03:25:31  5-MIN K0J4 030825Z AUTO 35003KT 10SM CLR 05/01 A3018 80 76 -1000 350/03 RMK AO2 $
63870K0J4 0J420160103033010001/03/16 03:30:31  5-MIN K0J4 030830Z AUTO 36003KT 10SM CLR 05/01 A3018 80 76 -1000 360/03 RMK AO2 $
63870K0J4 0J420160103033510001/03/16 03:35:31  5-MIN K0J4 030835Z AUTO 01003KT 10SM CLR 05/02 A3018 80 79 -1000 010/03 RMK AO2 $
63870K0J4 0J420160103034010001/03/16 03:40:31  5-MIN K0J4 030840Z AUTO 00000KT 10SM CLR 05/02 A3018 80 79 -1000 000/00 RMK AO2 $
63870K0J4 0J420160103034510001/03/16 03:45:31  5-MIN K0J4 030845Z AUTO 34003KT 10SM CLR 05/01 A3018 80 76 -1000 340/03 RMK AO2 $
63870K0J4 0J420160103035010001/03/16 03:50:31  5-MIN K0J4 030850Z AUTO 00000KT 10SM CLR 05/01 A3018 80 76 -1000 000/00 RMK AO2 $
63870K0J4 0J420160103035512301/03/16 03:55:31  5-MIN K0J4 030855Z AUTO 35003KT 10SM CLR 05/01 A3018 80 76 -1000 350/03 RMK AO2 SLP219 T00500011 58001 $
63870K0J4 0J420160103040010001/03/16 04:00:31  5-MIN K0J4 030900Z AUTO 00000KT 10SM CLR 05/01 A3018 80 76 -1000 000/00 RMK AO2 $
63870K0J4 0J420160103040510001/03/16 04:05:31  5-MIN K0J4 030905Z AUTO 00000KT 10SM CLR 05/01 A3017 80 76 -1000 000/00 RMK AO2 $
63870K0J4 0J420160103041010001/03/16 04:10:31  5-MIN K0J4 030910Z AUTO 35003KT 10SM CLR 05/01 A3018 80 76 -1000 350/03 RMK AO2 $
63870K0J4 0J420160103041510001/03/16 04:15:31  5-MIN K0J4 030915Z AUTO 01004KT 10SM CLR 05/01 A3017 90 76 -1000 010/04 RMK AO2 $
63870K0J4 0J420160103042010001/03/16 04:20:31  5-MIN K0J4 030920Z AUTO 36003KT 10SM CLR 05/01 A3017 90 76 -1000 360/03 RMK AO2 $
63870K0J4 0J420160103042510001/03/16 04:25:31  5-MIN K0J4 030925Z AUTO 01004KT 10SM CLR 05/01 A3017 80 76 -1000 010/04 RMK AO2 $
63870K0J4 0J420160103043010001/03/16 04:30:31  5-MIN K0J4 030930Z AUTO 36003KT 10SM CLR 05/01 A3017 90 76 -1000 360/03 RMK AO2 $
63870K0J4 0J420160103043510001/03/16 04:35:31  5-MIN K0J4 030935Z AUTO 00000KT 10SM CLR 05/01 A3017 80 76 -1000 000/00 RMK AO2 $
63870K0J4 0J420160103044010001/03/16 04:40:31  5-MIN K0J4 030940Z AUTO 00000KT 10SM CLR 05/01 A3017 80 76 -1000 000/00 RMK AO2 $
63870K0J4 0J420160103044510001/03/16 04:45:31  5-MIN K0J4 030945Z AUTO 00000KT 10SM CLR 05/01 A3018 80 76 -1000 000/00 RMK AO2 $
63870K0J4 0J420160103045010001/03/16 04:50:31  5-MIN K0J4 030950Z AUTO 00000KT 10SM CLR 05/01 A3017 90 76 -1000 000/00 RMK AO2 $
63870K0J4 0J420160103045511701/03/16 04:55:31  5-MIN K0J4 030955Z AUTO 00000KT 10SM CLR 05/01 A3017 90 76 -1000 000/00 RMK AO2 SLP216 T00500011 $
63870K0J4 0J420160103050010001/03/16 05:00:31  5-MIN K0J4 031000Z AUTO 00000KT 10SM CLR 05/01 A3017 90 76 -1000 000/00 RMK AO2 $
63870K0J4 0J420160103050510001/03/16 05:05:31  5-MIN K0J4 031005Z AUTO 00000KT 10SM CLR 05/01 A3016 90 76 -1000 000/00 RMK AO2 $
63870K0J4 0J420160103051010101/03/16 05:10:31  5-MIN K0J4 031010Z AUTO 00000KT 10SM CLR 05/01 A3016 100 76 -1000 000/00 RMK AO2 $
63870K0J4 0J420160103051510101/03/16 05:15:31  5-MIN K0J4 031015Z AUTO 02003KT 10SM CLR 05/01 A3016 100 76 -1000 020/03 RMK AO2 $
63870K0J4 0J420160103052010101/03/16 05:20:31  5-MIN K0J4 031020Z AUTO 03003KT 10SM CLR 04/01 A3015 100 79 -1100 030/03 RMK AO2 $
63870K0J4 0J420160103052510101/03/16 05:25:31  5-MIN K0J4 031025Z AUTO 02003KT 10SM CLR 04/02 A3015 100 82 -1100 020/03 RMK AO2 $
63870K0J4 0J420160103053010101/03/16 05:30:31  5-MIN K0J4 031030Z AUTO 01003KT 10SM CLR 04/02 A3015 100 82 -1100 010/03 RMK AO2 $
63870K0J4 0J420160103053510101/03/16 05:35:31  5-MIN K0J4 031035Z AUTO 00000KT 10SM CLR 04/01 A3016 100 79 -1100 000/00 RMK AO2 $
63870K0J4 0J420160103054010101/03/16 05:40:31  5-MIN K0J4 031040Z AUTO 00000KT 10SM CLR 04/01 A3015 100 79 -1100 000/00 RMK AO2 $
63870K0J4 0J420160103054510001/03/16 05:45:31  5-MIN K0J4 031045Z AUTO 00000KT 10SM CLR 04/01 A3016 90 79 -1100 000/00 RMK AO2 $
63870K0J4 0J420160103055010001/03/16 05:50:31  5-MIN K0J4 031050Z AUTO 00000KT 10SM CLR 04/01 A3017 90 79 -1100 000/00 RMK AO2 $
63870K0J4 0J420160103055512401/03/16 05:55:31  5-MIN K0J4 031055Z AUTO 00000KT 10SM CLR 04/01 A3018 80 82 -1200 000/00 RMK AO2 PRESRR SLP218 T00390011 $
63870K0J4 0J420160103060010001/03/16 06:00:31  5-MIN K0J4 031100Z AUTO 00000KT 10SM CLR 04/01 A3018 80 82 -1200 000/00 RMK AO2 $
63870K0J4 0J420160103060510001/03/16 06:05:31  5-MIN K0J4 031105Z AUTO 00000KT 10SM CLR 04/01 A3018 80 82 -1200 000/00 RMK AO2 $
63870K0J4 0J420160103061010001/03/16 06:10:31  5-MIN K0J4 031110Z AUTO 00000KT 10SM CLR 04/01 A3018 80 82 -1200 000/00 RMK AO2 $
63870K0J4 0J420160103061510001/03/16 06:15:31  5-MIN K0J4 031115Z AUTO 00000KT 10SM CLR 04/01 A3017 80 82 -1200 000/00 RMK AO2 $
63870K0J4 0J420160103062010001/03/16 06:20:31  5-MIN K0J4 031120Z AUTO 00000KT 10SM CLR 04/01 A3017 90 82 -1200 000/00 RMK AO2 $
63870K0J4 0J420160103062510001/03/16 06:25:31  5-MIN K0J4 031125Z AUTO 00000KT 10SM CLR 04/01 A3017 90 82 -1200 000/00 RMK AO2 $
63870K0J4 0J420160103063010001/03/16 06:30:31  5-MIN K0J4 031130Z AUTO 00000KT 10SM CLR 04/01 A3017 80 82 -1200 000/00 RMK AO2 $
63870K0J4 0J420160103063510001/03/16 06:35:31  5-MIN K0J4 031135Z AUTO 00000KT 10SM CLR 04/01 A3018 80 82 -1200 000/00 RMK AO2 $
63870K0J4 0J420160103064010001/03/16 06:40:31  5-MIN K0J4 031140Z AUTO 00000KT 10SM CLR 04/01 A3018 80 82 -1200 000/00 RMK AO2 $
63870K0J4 0J420160103064510001/03/16 06:45:31  5-MIN K0J4 031145Z AUTO 00000KT 10SM CLR 04/01 A3018 80 82 -1200 000/00 RMK AO2 $
63870K0J4 0J420160103065010001/03/16 06:50:31  5-MIN K0J4 031150Z AUTO 00000KT 10SM CLR 04/01 A3018 80 82 -1200 000/00 RMK AO2 $
63870K0J4 0J420160103065513501/03/16 06:55:31  5-MIN K0J4 031155Z AUTO 00000KT 10SM CLR 04/01 A3017 80 82 -1200 000/00 RMK AO2 SLP216 T00390011 10061 20039 56010 $
63870K0J4 0J420160103070010001/03/16 07:00:31  5-MIN K0J4 031200Z AUTO 00000KT 10SM CLR 04/01 A3017 90 82 -1100 000/00 RMK AO2 $
63870K0J4 0J420160103070510001/03/16 07:05:31  5-MIN K0J4 031205Z AUTO 03003KT 10SM CLR 04/01 A3016 90 82 -1100 030/03 RMK AO2 $
63870K0J4 0J420160103071010001/03/16 07:10:31  5-MIN K0J4 031210Z AUTO 00000KT 10SM CLR 04/01 A3016 90 82 -1100 000/00 RMK AO2 $
63870K0J4 0J420160103071510101/03/16 07:15:31  5-MIN K0J4 031215Z AUTO 00000KT 10SM CLR 04/02 A3016 100 85 -1100 000/00 RMK AO2 $
63870K0J4 0J420160103072010101/03/16 07:20:31  5-MIN K0J4 031220Z AUTO 04003KT 10SM CLR 04/02 A3015 100 85 -1100 040/03 RMK AO2 $
63870K0J4 0J420160103072510101/03/16 07:25:31  5-MIN K0J4 031225Z AUTO 00000KT 10SM CLR 04/02 A3016 100 85 -1100 000/00 RMK AO2 $
63870K0J4 0J420160103073010001/03/16 07:30:31  5-MIN K0J4 031230Z AUTO 00000KT 10SM CLR 04/02 A3016 90 85 -1100 000/00 RMK AO2 $
63870K0J4 0J420160103073510001/03/16 07:35:31  5-MIN K0J4 031235Z AUTO 33003KT 10SM CLR 04/01 A3017 80 82 -1200 330/03 RMK AO2 $
63870K0J4 0J420160103074010701/03/16 07:40:31  5-MIN K0J4 031240Z AUTO 32003KT 10SM CLR 04/01 A3018 80 82 -1200 320/03 RMK AO2 PRESRR $
63870K0J4 0J420160103074510001/03/16 07:45:31  5-MIN K0J4 031245Z AUTO 00000KT 10SM CLR 04/01 A3018 80 82 -1200 000/00 RMK AO2 $
63870K0J4 0J420160103075010001/03/16 07:50:31  5-MIN K0J4 031250Z AUTO 00000KT 10SM CLR 04/01 A3018 70 82 -1200 000/00 RMK AO2 $
63870K0J4 0J420160103075511701/03/16 07:55:31  5-MIN K0J4 031255Z AUTO 00000KT 10SM CLR 04/01 A3018 80 82 -1200 000/00 RMK AO2 SLP220 T00390011 $
63870K0J4 0J420160103080010001/03/16 08:00:31  5-MIN K0J4 031300Z AUTO 33003KT 10SM CLR 04/01 A3018 70 82 -1200 330/03 RMK AO2 $
63870K0J4 0J420160103080510001/03/16 08:05:31  5-MIN K0J4 031305Z AUTO 35003KT 10SM CLR 04/01 A3018 80 82 -1200 350/03 RMK AO2 $
63870K0J4 0J420160103081010001/03/16 08:10:31  5-MIN K0J4 031310Z AUTO 36003KT 10SM CLR 04/01 A3017 80 82 -1200 360/03 RMK AO2 $
63870K0J4 0J420160103081510001/03/16 08:15:31  5-MIN K0J4 031315Z AUTO 36004KT 10SM CLR 04/01 A3016 90 82 -1100 360/04 RMK AO2 $
63870K0J4 0J420160103082010801/03/16 08:20:31  5-MIN K0J4 031320Z AUTO 36005KT 10SM CLR 04/01 A3016 100 82 -1100 360/05 RMK AO2 PRESFR $
63870K0J4 0J420160103082510001/03/16 08:25:31  5-MIN K0J4 031325Z AUTO 00000KT 10SM CLR 04/01 A3016 90 82 -1100 000/00 RMK AO2 $
63870K0J4 0J420160103083010001/03/16 08:30:31  5-MIN K0J4 031330Z AUTO 35003KT 10SM CLR 04/01 A3017 90 79 -1100 350/03 RMK AO2 $
63870K0J4 0J420160103083510001/03/16 08:35:31  5-MIN K0J4 031335Z AUTO 34003KT 10SM CLR 04/01 A3017 80 79 -1100 340/03 RMK AO2 $
63870K0J4 0J420160103084010001/03/16 08:40:31  5-MIN K0J4 031340Z AUTO 00000KT 10SM CLR 04/01 A3018 80 79 -1100 000/00 RMK AO2 $
63870K0J4 0J420160103084510001/03/16 08:45:31  5-MIN K0J4 031345Z AUTO VRB03KT 10SM CLR 04/01 A3018 80 79 -1100 VRB/03 RMK AO2 $
63870K0J4 0J420160103085010001/03/16 08:50:31  5-MIN K0J4 031350Z AUTO 33003KT 10SM CLR 04/01 A3018 80 79 -1100 330/03 RMK AO2 $
63870K0J4 0J420160103085511701/03/16 08:55:31  5-MIN K0J4 031355Z AUTO VRB03KT 10SM CLR 04/01 A3018 80 79 -1100 VRB/03 RMK AO2 SLP218 T00440011 $
63870K0J4 0J420160103090010001/03/16 09:00:31  5-MIN K0J4 031400Z AUTO 36003KT 10SM CLR 04/01 A3018 80 79 -1100 360/03 RMK AO2 $
63870K0J4 0J420160103090510001/03/16 09:05:31  5-MIN K0J4 031405Z AUTO VRB03KT 10SM CLR 05/01 A3018 80 73 -1000 VRB/03 RMK AO2 $
63870K0J4 0J420160103091010001/03/16 09:10:31  5-MIN K0J4 031410Z AUTO 36004KT 10SM CLR 05/01 A3017 80 76 -1000 360/04 RMK AO2 $
63870K0J4 0J420160103091510001/03/16 09:15:31  5-MIN K0J4 031415Z AUTO 35004KT 10SM CLR 05/01 A3018 80 73 -1000 350/04 RMK AO2 $
63870K0J4 0J420160103092010001/03/16 09:20:31  5-MIN K0J4 031420Z AUTO 01003KT 10SM CLR 05/01 A3018 80 73 -1000 010/03 RMK AO2 $
63870K0J4 0J420160103092510001/03/16 09:25:31  5-MIN K0J4 031425Z AUTO 02003KT 10SM CLR 05/01 A3017 80 73 -1000 020/03 RMK AO2 $
63870K0J4 0J420160103093010001/03/16 09:30:31  5-MIN K0J4 031430Z AUTO 01003KT 10SM CLR 05/01 A3017 80 73 -1000 010/03 RMK AO2 $
63870K0J4 0J420160103093510001/03/16 09:35:31  5-MIN K0J4 031435Z AUTO 00000KT 10SM CLR 05/01 A3018 80 73 -1000 000/00 RMK AO2 $
63870K0J4 0J420160103094010001/03/16 09:40:31  5-MIN K0J4 031440Z AUTO VRB03KT 10SM CLR 06/01 A3018 70 70 -1000 VRB/03 RMK AO2 $
63870K0J4 0J420160103094510001/03/16 09:45:31  5-MIN K0J4 031445Z AUTO 34004KT 10SM CLR 06/01 A3019 70 70 -1000 340/04 RMK AO2 $
63870K0J4 0J420160103095010001/03/16 09:50:31  5-MIN K0J4 031450Z AUTO 35004KT 10SM CLR 06/01 A3019 70 70 -1000 350/04 RMK AO2 $
63870K0J4 0J420160103095512301/03/16 09:55:31  5-MIN K0J4 031455Z AUTO 36003KT 10SM CLR 06/01 A3019 70 70 -1000 360/03 RMK AO2 SLP222 T00560006 56004 $
63870K0J4 0J420160103100010001/03/16 10:00:31  5-MIN K0J4 031500Z AUTO VRB04KT 10SM CLR 06/01 A3019 70 70 -1000 VRB/04 RMK AO2 $
63870K0J4 0J420160103100510001/03/16 10:05:31  5-MIN K0J4 031505Z AUTO 36003KT 10SM CLR 06/00 A3019 60 67 -1000 360/03 RMK AO2 $
63870K0J4 0J420160103101009901/03/16 10:10:31  5-MIN K0J4 031510Z AUTO 36003KT 10SM CLR 06/01 A3019 60 67 -900 360/03 RMK AO2 $
63870K0J4 0J420160103101509901/03/16 10:15:31  5-MIN K0J4 031515Z AUTO 00000KT 10SM CLR 06/01 A3020 60 67 -900 000/00 RMK AO2 $
63870K0J4 0J420160103102009901/03/16 10:20:31  5-MIN K0J4 031520Z AUTO 01003KT 10SM CLR 06/01 A3020 60 67 -900 010/03 RMK AO2 $
63870K0J4 0J420160103102509901/03/16 10:25:31  5-MIN K0J4 031525Z AUTO 00000KT 10SM CLR 06/01 A3020 60 67 -900 000/00 RMK AO2 $
63870K0J4 0J420160103103009901/03/16 10:30:31  5-MIN K0J4 031530Z AUTO 33003KT 10SM CLR 06/01 A3021 50 67 -900 330/03 RMK AO2 $
63870K0J4 0J420160103103509901/03/16 10:35:31  5-MIN K0J4 031535Z AUTO 32003KT 10SM CLR 07/01 A3021 50 67 -900 320/03 RMK AO2 $
63870K0J4 0J420160103104009901/03/16 10:40:31  5-MIN K0J4 031540Z AUTO VRB03KT 10SM CLR 06/01 A3021 50 67 -900 VRB/03 RMK AO2 $
63870K0J4 0J420160103104509901/03/16 10:45:31  5-MIN K0J4 031545Z AUTO 34003KT 10SM CLR 07/01 A3020 60 65 -800 340/03 RMK AO2 $
63870K0J4 0J420160103105009901/03/16 10:50:31  5-MIN K0J4 031550Z AUTO 00000KT 10SM CLR 07/01 A3020 60 65 -800 000/00 RMK AO2 $
63870K0J4 0J420160103105511601/03/16 10:55:31  5-MIN K0J4 031555Z AUTO 01003KT 10SM CLR 07/00 A3020 60 62 -800 010/03 RMK AO2 SLP226 T00670000 $
63870K0J4 0J420160103110009901/03/16 11:00:31  5-MIN K0J4 031600Z AUTO 36003KT 10SM CLR 07/00 A3020 60 60 -800 360/03 RMK AO2 $
63870K0J4 0J420160103110509901/03/16 11:05:31  5-MIN K0J4 031605Z AUTO 00000KT 10SM CLR 07/00 A3020 50 60 -800 000/00 RMK AO2 $
63870K0J4 0J420160103111009901/03/16 11:10:31  5-MIN K0J4 031610Z AUTO 00000KT 10SM CLR 07/01 A3021 50 62 -800 000/00 RMK AO2 $
63870K0J4 0J420160103111509901/03/16 11:15:31  5-MIN K0J4 031615Z AUTO 00000KT 10SM CLR 08/01 A3020 60 60 -700 000/00 RMK AO2 $
63870K0J4 0J420160103112009901/03/16 11:20:31  5-MIN K0J4 031620Z AUTO 00000KT 10SM CLR 07/00 A3020 60 60 -800 000/00 RMK AO2 $
63870K0J4 0J420160103112509901/03/16 11:25:31  5-MIN K0J4 031625Z AUTO 00000KT 10SM CLR 08/00 A3020 60 58 -700 000/00 RMK AO2 $
63870K0J4 0J420160103113009901/03/16 11:30:31  5-MIN K0J4 031630Z AUTO VRB03KT 10SM CLR 08/00 A3019 70 58 -700 VRB/03 RMK AO2 $
63870K0J4 0J420160103113509901/03/16 11:35:31  5-MIN K0J4 031635Z AUTO 04004KT 10SM CLR 08/00 A3019 70 58 -700 040/04 RMK AO2 $
63870K0J4 0J420160103114009901/03/16 11:40:31  5-MIN K0J4 031640Z AUTO 01004KT 10SM CLR 08/00 A3018 70 58 -700 010/04 RMK AO2 $
63870K0J4 0J420160103114509901/03/16 11:45:31  5-MIN K0J4 031645Z AUTO 35003KT 10SM CLR 08/00 A3018 70 55 -600 350/03 RMK AO2 $
63870K0J4 0J420160103115009901/03/16 11:50:31  5-MIN K0J4 031650Z AUTO 00000KT 10SM CLR 08/00 A3019 70 55 -600 000/00 RMK AO2 $
63870K0J4 0J420160103115511701/03/16 11:55:31  5-MIN K0J4 031655Z AUTO 00000KT 10SM CLR 08/M01 A3018 70 53 -600 000/00 RMK AO2 SLP220 T00831006 $
63870K0J4 0J420160103120010001/03/16 12:00:31  5-MIN K0J4 031700Z AUTO 01003KT 10SM CLR 08/M01 A3018 80 53 -600 010/03 RMK AO2 $
63870K0J4 0J420160103120510001/03/16 12:05:31  5-MIN K0J4 031705Z AUTO 33003KT 10SM CLR 08/M01 A3018 80 53 -600 330/03 RMK AO2 $
63870K0J4 0J420160103121009901/03/16 12:10:31  5-MIN K0J4 031710Z AUTO 00000KT 10SM CLR 08/00 A3018 70 55 -600 000/00 RMK AO2 $
63870K0J4 0J420160103121509901/03/16 12:15:31  5-MIN K0J4 031715Z AUTO 35004KT 10SM CLR 08/00 A3018 80 55 -600 350/04 RMK AO2 $
63870K0J4 0J420160103122009901/03/16 12:20:31  5-MIN K0J4 031720Z AUTO 00000KT 10SM CLR 08/00 A3018 80 55 -600 000/00 RMK AO2 $
63870K0J4 0J420160103122509901/03/16 12:25:31  5-MIN K0J4 031725Z AUTO VRB03KT 10SM CLR 09/00 A3016 90 53 -500 VRB/03 RMK AO2 $
63870K0J4 0J420160103123010801/03/16 12:30:31  5-MIN K0J4 031730Z AUTO 35004KT 10SM CLR 09/M01 A3015 100 51 -500 350/04 RMK AO2 PRESFR $
63870K0J4 0J420160103123510001/03/16 12:35:31  5-MIN K0J4 031735Z AUTO VRB04KT 10SM CLR 09/00 A3015 100 53 -500 VRB/04 RMK AO2 $
63870K0J4 0J420160103124010001/03/16 12:40:31  5-MIN K0J4 031740Z AUTO 35004KT 10SM CLR 09/00 A3015 100 53 -500 350/04 RMK AO2 $
63870K0J4 0J420160103124510001/03/16 12:45:31  5-MIN K0J4 031745Z AUTO 34005KT 10SM CLR 09/00 A3015 110 53 -500 340/05 RMK AO2 $
63870K0J4 0J420160103125010101/03/16 12:50:31  5-MIN K0J4 031750Z AUTO 36004KT 10SM CLR 09/M01 A3015 110 51 -500 360/04 RMK AO2 $
63870K0J4 0J420160103125513501/03/16 12:55:31  5-MIN K0J4 031755Z AUTO 32003KT 10SM CLR 09/00 A3014 110 53 -500 320/03 RMK AO2 SLP206 T00890000 10094 20039 52006 $
63870K0J4 0J420160103130010001/03/16 13:00:31  5-MIN K0J4 031800Z AUTO 29005KT 10SM CLR 09/00 A3014 110 53 -500 290/05 RMK AO2 $
63870K0J4 0J420160103130510101/03/16 13:05:31  5-MIN K0J4 031805Z AUTO VRB03KT 10SM CLR 09/M01 A3014 110 51 -500 VRB/03 RMK AO2 $
63870K0J4 0J420160103131010101/03/16 13:10:31  5-MIN K0J4 031810Z AUTO 32003KT 10SM CLR 09/M01 A3014 110 49 -400 320/03 RMK AO2 $
63870K0J4 0J420160103131510101/03/16 13:15:31  5-MIN K0J4 031815Z AUTO 34003KT 10SM CLR 09/M01 A3014 110 49 -400 340/03 RMK AO2 $
63870K0J4 0J420160103132010101/03/16 13:20:31  5-MIN K0J4 031820Z AUTO 00000KT 10SM CLR 09/M01 A3014 120 49 -400 000/00 RMK AO2 $
63870K0J4 0J420160103132510101/03/16 13:25:31  5-MIN K0J4 031825Z AUTO 28003KT 10SM CLR 09/M01 A3014 110 49 -400 280/03 RMK AO2 $
63870K0J4 0J420160103133010101/03/16 13:30:31  5-MIN K0J4 031830Z AUTO VRB03KT 10SM CLR 09/M01 A3014 110 51 -500 VRB/03 RMK AO2 $
63870K0J4 0J420160103133510101/03/16 13:35:31  5-MIN K0J4 031835Z AUTO 00000KT 10SM CLR 09/M01 A3013 120 49 -400 000/00 RMK AO2 $
63870K0J4 0J420160103134010101/03/16 13:40:31  5-MIN K0J4 031840Z AUTO VRB03KT 10SM CLR 09/M01 A3013 130 49 -400 VRB/03 RMK AO2 $
63870K0J4 0J420160103134510101/03/16 13:45:31  5-MIN K0J4 031845Z AUTO 34003KT 10SM CLR 09/M01 A3012 130 47 -400 340/03 RMK AO2 $
63870K0J4 0J420160103135010101/03/16 13:50:31  5-MIN K0J4 031850Z AUTO VRB03KT 10SM CLR 09/M01 A3012 130 47 -400 VRB/03 RMK AO2 $
63870K0J4 0J420160103135511801/03/16 13:55:31  5-MIN K0J4 031855Z AUTO 00000KT 10SM CLR 09/M01 A3011 140 49 -400 000/00 RMK AO2 SLP197 T00941006 $
63870K0J4 0J420160103140010001/03/16 14:00:31  5-MIN K0J4 031900Z AUTO VRB03KT 10SM CLR 09/00 A3011 140 51 -400 VRB/03 RMK AO2 $
63870K0J4 0J420160103140510101/03/16 14:05:31  5-MIN K0J4 031905Z AUTO 00000KT 10SM CLR 09/M01 A3012 140 49 -400 000/00 RMK AO2 $
63870K0J4 0J420160103141010001/03/16 14:10:31  5-MIN K0J4 031910Z AUTO 00000KT 10SM CLR 09/00 A3012 130 51 -400 000/00 RMK AO2 $
63870K0J4 0J420160103141510101/03/16 14:15:31  5-MIN K0J4 031915Z AUTO 00000KT 10SM CLR 09/M01 A3011 140 49 -400 000/00 RMK AO2 $
63870K0J4 0J420160103142010001/03/16 14:20:31  5-MIN K0J4 031920Z AUTO VRB03KT 10SM CLR 09/00 A3011 140 51 -400 VRB/03 RMK AO2 $
63870K0J4 0J420160103142510001/03/16 14:25:31  5-MIN K0J4 031925Z AUTO 29003KT 10SM CLR 09/00 A3011 140 51 -400 290/03 RMK AO2 $
63870K0J4 0J420160103143010301/03/16 14:30:31  5-MIN K0J4 031930Z AUTO 00000KT 10SM FEW120 09/00 A3011 140 51 -400 000/00 RMK AO2 $
63870K0J4 0J420160103143510301/03/16 14:35:31  5-MIN K0J4 031935Z AUTO 00000KT 10SM FEW120 09/01 A3010 150 53 -400 000/00 RMK AO2 $
63870K0J4 0J420160103144010301/03/16 14:40:31  5-MIN K0J4 031940Z AUTO 00000KT 10SM FEW120 09/01 A3010 150 53 -400 000/00 RMK AO2 $
63870K0J4 0J420160103144510301/03/16 14:45:31  5-MIN K0J4 031945Z AUTO 00000KT 10SM FEW120 09/01 A3009 160 53 -400 000/00 RMK AO2 $
63870K0J4 0J420160103145010301/03/16 14:50:31  5-MIN K0J4 031950Z AUTO VRB03KT 10SM FEW120 09/01 A3009 160 56 -400 VRB/03 RMK AO2 $
63870K0J4 0J420160103145512701/03/16 14:55:31  5-MIN K0J4 031955Z AUTO VRB03KT 10SM FEW120 09/01 A3008 170 56 -400 VRB/03 RMK AO2 PRESFR SLP185 T00940011 $
63870K0J4 0J420160103150010301/03/16 15:00:31  5-MIN K0J4 032000Z AUTO VRB03KT 10SM FEW120 09/01 A3008 170 56 -400 VRB/03 RMK AO2 $
63870K0J4 0J420160103150510001/03/16 15:05:31  5-MIN K0J4 032005Z AUTO 32003KT 10SM CLR 10/01 A3009 160 52 -300 320/03 RMK AO2 $
63870K0J4 0J420160103151010001/03/16 15:10:31  5-MIN K0J4 032010Z AUTO 33004KT 10SM CLR 10/01 A3009 160 52 -300 330/04 RMK AO2 $
63870K0J4 0J420160103151510001/03/16 15:15:31  5-MIN K0J4 032015Z AUTO VRB05KT 10SM CLR 10/00 A3008 170 49 -300 VRB/05 RMK AO2 $
63870K0J4 0J420160103152010001/03/16 15:20:31  5-MIN K0J4 032020Z AUTO 33005KT 10SM CLR 10/00 A3009 160 49 -300 330/05 RMK AO2 $
63870K0J4 0J420160103152510001/03/16 15:25:31  5-MIN K0J4 032025Z AUTO 34004KT 10SM CLR 10/00 A3009 160 49 -300 340/04 RMK AO2 $
63870K0J4 0J420160103153010301/03/16 15:30:31  5-MIN K0J4 032030Z AUTO 34004KT 10SM FEW100 10/01 A3009 160 52 -300 340/04 RMK AO2 $
63870K0J4 0J420160103153510301/03/16 15:35:31  5-MIN K0J4 032035Z AUTO VRB03KT 10SM FEW100 10/00 A3008 160 49 -300 VRB/03 RMK AO2 $
63870K0J4 0J420160103154010301/03/16 15:40:31  5-MIN K0J4 032040Z AUTO 00000KT 10SM FEW100 10/01 A3008 170 52 -300 000/00 RMK AO2 $
63870K0J4 0J420160103154510301/03/16 15:45:31  5-MIN K0J4 032045Z AUTO VRB03KT 10SM FEW100 09/01 A3009 160 53 -400 VRB/03 RMK AO2 $
63870K0J4 0J420160103155010301/03/16 15:50:31  5-MIN K0J4 032050Z AUTO 32003KT 10SM FEW100 09/00 A3009 160 51 -400 320/03 RMK AO2 $
63870K0J4 0J420160103155512601/03/16 15:55:31  5-MIN K0J4 032055Z AUTO 00000KT 10SM FEW100 09/01 A3008 170 53 -400 000/00 RMK AO2 SLP186 T00940006 58015 $
63870K0J4 0J420160103160010001/03/16 16:00:31  5-MIN K0J4 032100Z AUTO 00000KT 10SM CLR 09/01 A3009 160 53 -400 000/00 RMK AO2 $
63870K0J4 0J420160103160510001/03/16 16:05:31  5-MIN K0J4 032105Z AUTO 00000KT 10SM CLR 09/01 A3008 160 53 -400 000/00 RMK AO2 $
63870K0J4 0J420160103161010001/03/16 16:10:31  5-MIN K0J4 032110Z AUTO 00000KT 10SM CLR 09/01 A3008 170 53 -400 000/00 RMK AO2 $
63870K0J4 0J420160103161510301/03/16 16:15:31  5-MIN K0J4 032115Z AUTO 00000KT 10SM FEW120 09/01 A3009 160 53 -400 000/00 RMK AO2 $
63870K0J4 0J420160103162010301/03/16 16:20:31  5-MIN K0J4 032120Z AUTO 00000KT 10SM SCT110 09/01 A3009 160 56 -400 000/00 RMK AO2 $
63870K0J4 0J420160103162510301/03/16 16:25:31  5-MIN K0J4 032125Z AUTO 32003KT 10SM BKN100 09/01 A3009 160 56 -400 320/03 RMK AO2 $
63870K0J4 0J420160103163010301/03/16 16:30:31  5-MIN K0J4 032130Z AUTO 00000KT 10SM BKN110 09/01 A3009 160 56 -400 000/00 RMK AO2 $
63870K0J4 0J420160103163510301/03/16 16:35:31  5-MIN K0J4 032135Z AUTO 00000KT 10SM BKN110 09/02 A3009 160 58 -400 000/00 RMK AO2 $
63870K0J4 0J420160103164010301/03/16 16:40:31  5-MIN K0J4 032140Z AUTO 00000KT 10SM OVC110 09/02 A3008 170 58 -400 000/00 RMK AO2 $
63870K0J4 0J420160103164510301/03/16 16:45:31  5-MIN K0J4 032145Z AUTO 00000KT 10SM OVC100 09/02 A3008 170 58 -400 000/00 RMK AO2 $
63870K0J4 0J420160103165010301/03/16 16:50:31  5-MIN K0J4 032150Z AUTO 00000KT 10SM OVC100 09/02 A3008 170 60 -400 000/00 RMK AO2 $
63870K0J4 0J420160103165512001/03/16 16:55:31  5-MIN K0J4 032155Z AUTO 00000KT 10SM OVC100 09/02 A3008 170 60 -400 000/00 RMK AO2 SLP185 T00940022 $
63870K0J4 0J420160103170010301/03/16 17:00:31  5-MIN K0J4 032200Z AUTO 00000KT 10SM OVC100 09/02 A3008 160 60 -400 000/00 RMK AO2 $
63870K0J4 0J420160103170510301/03/16 17:05:31  5-MIN K0J4 032205Z AUTO 00000KT 10SM OVC100 09/03 A3009 160 65 -400 000/00 RMK AO2 $
63870K0J4 0J420160103171010301/03/16 17:10:31  5-MIN K0J4 032210Z AUTO 00000KT 10SM OVC095 09/03 A3009 160 65 -400 000/00 RMK AO2 $
63870K0J4 0J420160103171511001/03/16 17:15:31  5-MIN K0J4 032215Z AUTO 00000KT 10SM SCT085 OVC100 09/03 A3009 160 65 -400 000/00 RMK AO2 $
63870K0J4 0J420160103172010301/03/16 17:20:31  5-MIN K0J4 032220Z AUTO 00000KT 10SM OVC095 09/03 A3009 160 68 -400 000/00 RMK AO2 $
63870K0J4 0J420160103172510301/03/16 17:25:31  5-MIN K0J4 032225Z AUTO 00000KT 10SM OVC095 09/03 A3009 160 68 -400 000/00 RMK AO2 $
63870K0J4 0J420160103173010301/03/16 17:30:31  5-MIN K0J4 032230Z AUTO 00000KT 10SM OVC090 09/03 A3009 160 68 -400 000/00 RMK AO2 $
63870K0J4 0J420160103173511001/03/16 17:35:31  5-MIN K0J4 032235Z AUTO 00000KT 10SM SCT080 OVC100 09/03 A3009 160 68 -400 000/00 RMK AO2 $
63870K0J4 0J420160103174011001/03/16 17:40:31  5-MIN K0J4 032240Z AUTO 00000KT 10SM FEW055 OVC090 09/04 A3009 160 71 -400 000/00 RMK AO2 $
63870K0J4 0J420160103174512601/03/16 17:45:31  5-MIN K0J4 032245Z AUTO 00000KT 10SM -RA FEW055 OVC090 09/03 A3009 160 68 -400 000/00 RMK AO2 RAB42 P0000 $
63870K0J4 0J420160103175012601/03/16 17:50:31  5-MIN K0J4 032250Z AUTO 00000KT 10SM -RA FEW075 OVC090 09/04 A3009 160 71 -400 000/00 RMK AO2 RAB42 P0000 $
63870K0J4 0J420160103175514301/03/16 17:55:31  5-MIN K0J4 032255Z AUTO 00000KT 10SM -RA FEW060 OVC090 08/04 A3009 160 73 -500 000/00 RMK AO2 RAB42 SLP189 P0000 T00830039 $
63870K0J4 0J420160103180012601/03/16 18:00:31  5-MIN K0J4 032300Z AUTO 00000KT 10SM -RA FEW060 OVC090 08/04 A3009 160 73 -500 000/00 RMK AO2 RAB00 P0000 $
63870K0J4 0J420160103180511901/03/16 18:05:31  5-MIN K0J4 032305Z AUTO 00000KT 10SM -RA OVC095 08/04 A3009 160 73 -500 000/00 RMK AO2 RAB00 P0000 $
63870K0J4 0J420160103181011901/03/16 18:10:31  5-MIN K0J4 032310Z AUTO 00000KT 10SM -RA OVC095 08/04 A3009 160 73 -500 000/00 RMK AO2 RAB00 P0000 $
63870K0J4 0J420160103181511901/03/16 18:15:31  5-MIN K0J4 032315Z AUTO 00000KT 10SM -RA OVC095 08/04 A3009 160 79 -600 000/00 RMK AO2 RAB00 P0000 $
63870K0J4 0J420160103182011801/03/16 18:20:31  5-MIN K0J4 032320Z AUTO 00000KT 10SM OVC095 08/05 A3009 160 82 -600 000/00 RMK AO2 RAB00E20 P0000 $
63870K0J4 0J420160103182512501/03/16 18:25:31  5-MIN K0J4 032325Z AUTO 00000KT 10SM FEW065 OVC095 08/05 A3009 160 82 -600 000/00 RMK AO2 RAB00E20 P0000 $
63870K0J4 0J420160103183012501/03/16 18:30:31  5-MIN K0J4 032330Z AUTO 00000KT 10SM FEW065 OVC095 08/05 A3009 160 82 -600 000/00 RMK AO2 RAB00E20 P0000 $
63870K0J4 0J420160103183511801/03/16 18:35:31  5-MIN K0J4 032335Z AUTO 00000KT 10SM OVC095 08/05 A3009 160 82 -600 000/00 RMK AO2 RAB00E20 P0000 $
63870K0J4 0J420160103184012501/03/16 18:40:31  5-MIN K0J4 032340Z AUTO 00000KT 10SM FEW070 OVC095 08/06 A3009 160 86 -600 000/00 RMK AO2 RAB00E20 P0000 $
63870K0J4 0J420160103184512501/03/16 18:45:31  5-MIN K0J4 032345Z AUTO 00000KT 10SM FEW070 OVC090 08/05 A3008 170 82 -600 000/00 RMK AO2 RAB00E20 P0000 $
63870K0J4 0J420160103185012501/03/16 18:50:31  5-MIN K0J4 032350Z AUTO 00000KT 10SM FEW070 OVC090 08/05 A3008 170 82 -600 000/00 RMK AO2 RAB00E20 P0000 $
63870K0J4 0J420160103185517301/03/16 18:55:31  5-MIN K0J4 032355Z AUTO 00000KT 10SM FEW060 BKN090 OVC100 08/04 A3008 170 79 -600 000/00 RMK AO2 RAB00E20 SLP185 P0000 60000 T00780044 10100 20078 55020 $
63870K0J4 0J420160103190011001/03/16 19:00:31  5-MIN K0J4 040000Z AUTO 00000KT 10SM FEW060 BKN090 07/04 A3008 170 82 -600 000/00 RMK AO2 $
63870K0J4 0J420160103190510301/03/16 19:05:31  5-MIN K0J4 040005Z AUTO 00000KT 10SM SCT090 07/04 A3009 160 86 -700 000/00 RMK AO2 $
63870K0J4 0J420160103191010301/03/16 19:10:31  5-MIN K0J4 040010Z AUTO 00000KT 10SM SCT090 07/04 A3008 160 86 -700 000/00 RMK AO2 $
63870K0J4 0J420160103191510301/03/16 19:15:31  5-MIN K0J4 040015Z AUTO 00000KT 10SM FEW090 07/04 A3008 170 86 -700 000/00 RMK AO2 $
63870K0J4 0J420160103192010301/03/16 19:20:31  5-MIN K0J4 040020Z AUTO 00000KT 10SM FEW090 07/04 A3007 170 86 -700 000/00 RMK AO2 $
63870K0J4 0J420160103192510301/03/16 19:25:31  5-MIN K0J4 040025Z AUTO 00000KT 10SM SCT090 07/04 A3007 170 82 -700 000/00 RMK AO2 $
63870K0J4 0J420160103193010301/03/16 19:30:31  5-MIN K0J4 040030Z AUTO 00000KT 10SM SCT090 07/04 A3008 170 86 -700 000/00 RMK AO2 $
63870K0J4 0J420160103193510301/03/16 19:35:31  5-MIN K0J4 040035Z AUTO 00000KT 10SM SCT090 07/04 A3008 160 82 -700 000/00 RMK AO2 $
63870K0J4 0J420160103194010301/03/16 19:40:31  5-MIN K0J4 040040Z AUTO 00000KT 10SM SCT090 07/04 A3009 160 86 -700 000/00 RMK AO2 $
63870K0J4 0J420160103194510301/03/16 19:45:31  5-MIN K0J4 040045Z AUTO 00000KT 10SM BKN090 07/04 A3009 160 86 -700 000/00 RMK AO2 $
63870K0J4 0J420160103195010301/03/16 19:50:31  5-MIN K0J4 040050Z AUTO 00000KT 10SM BKN090 07/04 A3009 160 86 -700 000/00 RMK AO2 $
63870K0J4 0J420160103195512001/03/16 19:55:31  5-MIN K0J4 040055Z AUTO VRB03KT 10SM BKN090 07/04 A3009 160 79 -600 VRB/03 RMK AO2 SLP188 T00720039 $
63870K0J4 0J420160103200010301/03/16 20:00:31  5-MIN K0J4 040100Z AUTO 00000KT 10SM OVC090 07/04 A3009 160 79 -600 000/00 RMK AO2 $
63870K0J4 0J420160103200510301/03/16 20:05:31  5-MIN K0J4 040105Z AUTO 00000KT 10SM OVC090 07/04 A3009 160 79 -600 000/00 RMK AO2 $
63870K0J4 0J420160103201010301/03/16 20:10:31  5-MIN K0J4 040110Z AUTO 00000KT 10SM OVC090 07/04 A3009 160 82 -600 000/00 RMK AO2 $
63870K0J4 0J420160103201510301/03/16 20:15:31  5-MIN K0J4 040115Z AUTO 00000KT 10SM OVC090 07/04 A3009 160 82 -700 000/00 RMK AO2 $
63870K0J4 0J420160103202010301/03/16 20:20:31  5-MIN K0J4 040120Z AUTO 00000KT 10SM OVC090 07/04 A3009 160 82 -700 000/00 RMK AO2 $
63870K0J4 0J420160103202510301/03/16 20:25:31  5-MIN K0J4 040125Z AUTO 00000KT 10SM OVC090 07/04 A3010 150 82 -700 000/00 RMK AO2 $
63870K0J4 0J420160103203010301/03/16 20:30:31  5-MIN K0J4 040130Z AUTO 00000KT 10SM OVC085 07/04 A3010 150 82 -700 000/00 RMK AO2 $
63870K0J4 0J420160103203510301/03/16 20:35:31  5-MIN K0J4 040135Z AUTO 00000KT 10SM OVC085 07/04 A3010 150 82 -700 000/00 RMK AO2 $
63870K0J4 0J420160103204010301/03/16 20:40:31  5-MIN K0J4 040140Z AUTO 00000KT 10SM OVC085 08/04 A3010 150 79 -600 000/00 RMK AO2 $
63870K0J4 0J420160103204510301/03/16 20:45:31  5-MIN K0J4 040145Z AUTO 00000KT 10SM OVC085 08/04 A3010 150 79 -600 000/00 RMK AO2 $
63870K0J4 0J420160103205010301/03/16 20:50:31  5-MIN K0J4 040150Z AUTO 00000KT 10SM OVC085 07/04 A3011 150 82 -700 000/00 RMK AO2 $
63870K0J4 0J420160103205512001/03/16 20:55:31  5-MIN K0J4 040155Z AUTO 00000KT 10SM OVC085 08/04 A3011 150 79 -600 000/00 RMK AO2 SLP194 T00780044 $
63870K0J4 0J420160103210010301/03/16 21:00:31  5-MIN K0J4 040200Z AUTO 00000KT 10SM OVC085 08/04 A3010 150 79 -600 000/00 RMK AO2 $
63870K0J4 0J420160103210510301/03/16 21:05:31  5-MIN K0J4 040205Z AUTO 00000KT 10SM OVC085 08/04 A3011 150 76 -600 000/00 RMK AO2 $
63870K0J4 0J420160103211010301/03/16 21:10:31  5-MIN K0J4 040210Z AUTO 00000KT 10SM OVC085 08/04 A3011 140 76 -600 000/00 RMK AO2 $
63870K0J4 0J420160103211510301/03/16 21:15:31  5-MIN K0J4 040215Z AUTO 00000KT 10SM OVC085 08/04 A3011 140 76 -600 000/00 RMK AO2 $
63870K0J4 0J420160103212010301/03/16 21:20:31  5-MIN K0J4 040220Z AUTO VRB03KT 10SM OVC090 08/04 A3011 140 76 -600 VRB/03 RMK AO2 $
63870K0J4 0J420160103212510301/03/16 21:25:31  5-MIN K0J4 040225Z AUTO 00000KT 10SM OVC090 08/03 A3011 140 73 -600 000/00 RMK AO2 $
63870K0J4 0J420160103213010301/03/16 21:30:31  5-MIN K0J4 040230Z AUTO 00000KT 10SM OVC090 08/03 A3011 140 73 -600 000/00 RMK AO2 $
63870K0J4 0J420160103213510301/03/16 21:35:31  5-MIN K0J4 040235Z AUTO 00000KT 10SM OVC090 08/03 A3011 140 73 -600 000/00 RMK AO2 $
63870K0J4 0J420160103214010301/03/16 21:40:31  5-MIN K0J4 040240Z AUTO 00000KT 10SM OVC090 08/03 A3011 140 73 -600 000/00 RMK AO2 $
63870K0J4 0J420160103214510301/03/16 21:45:31  5-MIN K0J4 040245Z AUTO 00000KT 10SM OVC090 08/03 A3012 140 73 -600 000/00 RMK AO2 $
63870K0J4 0J420160103215010301/03/16 21:50:31  5-MIN K0J4 040250Z AUTO VRB03KT 10SM OVC090 08/03 A3012 130 70 -600 VRB/03 RMK AO2 $
63870K0J4 0J420160103215512601/03/16 21:55:31  5-MIN K0J4 040255Z AUTO 32004KT 10SM OVC090 08/03 A3012 130 70 -600 320/04 RMK AO2 SLP198 T00780028 58000 $
63870K0J4 0J420160103220010301/03/16 22:00:31  5-MIN K0J4 040300Z AUTO VRB03KT 10SM OVC095 08/03 A3012 130 70 -600 VRB/03 RMK AO2 $
63870K0J4 0J420160103220510301/03/16 22:05:31  5-MIN K0J4 040305Z AUTO VRB03KT 10SM OVC095 08/03 A3012 130 70 -600 VRB/03 RMK AO2 $
63870K0J4 0J420160103221010301/03/16 22:10:31  5-MIN K0J4 040310Z AUTO 34004KT 10SM OVC095 08/03 A3012 130 70 -600 340/04 RMK AO2 $
63870K0J4 0J420160103221510301/03/16 22:15:31  5-MIN K0J4 040315Z AUTO VRB04KT 10SM OVC100 08/03 A3012 130 70 -600 VRB/04 RMK AO2 $
63870K0J4 0J420160103222011001/03/16 22:20:31  5-MIN K0J4 040320Z AUTO VRB03KT 10SM BKN100 OVC110 08/03 A3012 130 70 -600 VRB/03 RMK AO2 $
63870K0J4 0J420160103222511001/03/16 22:25:31  5-MIN K0J4 040325Z AUTO 34005KT 10SM BKN100 OVC110 08/03 A3012 130 70 -600 340/05 RMK AO2 $
63870K0J4 0J420160103223011001/03/16 22:30:31  5-MIN K0J4 040330Z AUTO VRB03KT 10SM BKN100 OVC120 08/03 A3013 130 70 -600 VRB/03 RMK AO2 $
63870K0J4 0J420160103223511001/03/16 22:35:31  5-MIN K0J4 040335Z AUTO 00000KT 10SM BKN100 OVC120 08/02 A3013 120 68 -600 000/00 RMK AO2 $
63870K0J4 0J420160103224011001/03/16 22:40:31  5-MIN K0J4 040340Z AUTO 33003KT 10SM SCT100 BKN120 08/02 A3013 130 68 -600 330/03 RMK AO2 $
63870K0J4 0J420160103224511001/03/16 22:45:31  5-MIN K0J4 040345Z AUTO VRB03KT 10SM FEW100 BKN120 07/02 A3012 130 70 -700 VRB/03 RMK AO2 $
63870K0J4 0J420160103225011001/03/16 22:50:31  5-MIN K0J4 040350Z AUTO VRB03KT 10SM SCT100 BKN120 07/02 A3012 130 70 -700 VRB/03 RMK AO2 $
63870K0J4 0J420160103225512701/03/16 22:55:31  5-MIN K0J4 040355Z AUTO VRB03KT 10SM BKN100 BKN120 07/02 A3012 130 70 -700 VRB/03 RMK AO2 SLP200 T00720022 $
63870K0J4 0J420160103230011001/03/16 23:00:31  5-MIN K0J4 040400Z AUTO VRB03KT 10SM BKN100 BKN120 07/02 A3012 130 70 -700 VRB/03 RMK AO2 $
63870K0J4 0J420160103230510301/03/16 23:05:31  5-MIN K0J4 040405Z AUTO VRB03KT 10SM BKN100 07/02 A3012 130 70 -700 VRB/03 RMK AO2 $
63870K0J4 0J420160103231010301/03/16 23:10:31  5-MIN K0J4 040410Z AUTO VRB03KT 10SM BKN100 07/02 A3012 130 70 -700 VRB/03 RMK AO2 $
63870K0J4 0J420160103231510301/03/16 23:15:31  5-MIN K0J4 040415Z AUTO VRB03KT 10SM OVC100 07/02 A3012 130 70 -700 VRB/03 RMK AO2 $
63870K0J4 0J420160103232010301/03/16 23:20:31  5-MIN K0J4 040420Z AUTO VRB03KT 10SM BKN100 07/02 A3012 140 70 -700 VRB/03 RMK AO2 $
63870K0J4 0J420160103232510301/03/16 23:25:31  5-MIN K0J4 040425Z AUTO VRB03KT 10SM BKN100 07/02 A3012 140 70 -700 VRB/03 RMK AO2 $
63870K0J4 0J420160103233010301/03/16 23:30:31  5-MIN K0J4 040430Z AUTO VRB03KT 10SM SCT100 07/02 A3012 130 70 -700 VRB/03 RMK AO2 $
63870K0J4 0J420160103233510301/03/16 23:35:31  5-MIN K0J4 040435Z AUTO 33005KT 10SM SCT100 07/02 A3012 140 70 -700 330/05 RMK AO2 $
63870K0J4 0J420160103234010301/03/16 23:40:31  5-MIN K0J4 040440Z AUTO 34004KT 10SM BKN095 07/02 A3012 140 68 -700 340/04 RMK AO2 $
63870K0J4 0J420160103234510301/03/16 23:45:31  5-MIN K0J4 040445Z AUTO VRB03KT 10SM SCT095 07/02 A3012 140 73 -700 VRB/03 RMK AO2 $
63870K0J4 0J420160103235010301/03/16 23:50:31  5-MIN K0J4 040450Z AUTO VRB03KT 10SM SCT095 07/02 A3011 140 73 -700 VRB/03 RMK AO2 $
63870K0J4 0J420160103235513001/03/16 23:55:31  5-MIN K0J4 040455Z AUTO VRB04KT 10SM BKN095 07/02 A3011 140 70 -700 VRB/04 RMK AO2 SLP196 T00670017 401000039 $
63870K0J4 0J420160104000010301/04/16 00:00:31  5-MIN K0J4 040500Z AUTO VRB05KT 10SM BKN095 07/02 A3011 140 70 -700 VRB/05 RMK AO2 $
63870K0J4 0J420160104000510301/04/16 00:05:31  5-MIN K0J4 040505Z AUTO VRB03KT 10SM BKN095 07/02 A3011 150 68 -700 VRB/03 RMK AO2 $
63870K0J4 0J420160104001010301/04/16 00:10:31  5-MIN K0J4 040510Z AUTO VRB05KT 10SM BKN095 07/02 A3011 140 68 -700 VRB/05 RMK AO2 $
63870K0J4 0J420160104001510301/04/16 00:15:31  5-MIN K0J4 040515Z AUTO VRB04KT 10SM OVC095 07/02 A3010 150 68 -700 VRB/04 RMK AO2 $
63870K0J4 0J420160104002010301/04/16 00:20:31  5-MIN K0J4 040520Z AUTO 34003KT 10SM OVC095 07/02 A3010 150 68 -700 340/03 RMK AO2 $
63870K0J4 0J420160104002510301/04/16 00:25:31  5-MIN K0J4 040525Z AUTO VRB04KT 10SM OVC095 07/02 A3010 150 68 -700 VRB/04 RMK AO2 $
63870K0J4 0J420160104003010301/04/16 00:30:31  5-MIN K0J4 040530Z AUTO 34004KT 10SM OVC100 07/02 A3010 150 68 -700 340/04 RMK AO2 $
63870K0J4 0J420160104003510301/04/16 00:35:31  5-MIN K0J4 040535Z AUTO 33003KT 10SM OVC100 07/02 A3010 150 68 -700 330/03 RMK AO2 $
63870K0J4 0J420160104004010301/04/16 00:40:31  5-MIN K0J4 040540Z AUTO VRB03KT 10SM OVC100 07/02 A3010 150 68 -700 VRB/03 RMK AO2 $
63870K0J4 0J420160104004510301/04/16 00:45:31  5-MIN K0J4 040545Z AUTO VRB03KT 10SM OVC100 07/02 A3010 150 68 -700 VRB/03 RMK AO2 $
63870K0J4 0J420160104005010301/04/16 00:50:31  5-MIN K0J4 040550Z AUTO VRB03KT 10SM OVC100 07/02 A3010 150 68 -700 VRB/03 RMK AO2 $
63870K0J4 0J420160104005513801/04/16 00:55:31  5-MIN K0J4 040555Z AUTO 00000KT 10SM OVC100 07/02 A3010 150 68 -700 000/00 RMK AO2 SLP192 T00720017 10078 20061 53013 $
63870K0J4 0J420160104010010301/04/16 01:00:31  5-MIN K0J4 040600Z AUTO 00000KT 10SM OVC100 07/02 A3010 150 68 -700 000/00 RMK AO2 $
63870K0J4 0J420160104010510301/04/16 01:05:31  5-MIN K0J4 040605Z AUTO 00000KT 10SM OVC100 07/02 A3010 150 68 -700 000/00 RMK AO2 $
63870K0J4 0J420160104011010301/04/16 01:10:31  5-MIN K0J4 040610Z AUTO 32003KT 10SM OVC100 07/02 A3010 150 68 -700 320/03 RMK AO2 $
63870K0J4 0J420160104011510301/04/16 01:15:31  5-MIN K0J4 040615Z AUTO VRB03KT 10SM OVC100 07/02 A3010 150 70 -700 VRB/03 RMK AO2 $
63870K0J4 0J420160104012010301/04/16 01:20:31  5-MIN K0J4 040620Z AUTO VRB03KT 10SM OVC100 07/02 A3010 150 70 -700 VRB/03 RMK AO2 $
63870K0J4 0J420160104012510301/04/16 01:25:31  5-MIN K0J4 040625Z AUTO 00000KT 10SM OVC100 07/02 A3010 150 70 -700 000/00 RMK AO2 $
63870K0J4 0J420160104013010301/04/16 01:30:31  5-MIN K0J4 040630Z AUTO 00000KT 10SM OVC110 07/02 A3010 150 70 -700 000/00 RMK AO2 $
63870K0J4 0J420160104013510301/04/16 01:35:31  5-MIN K0J4 040635Z AUTO 32003KT 10SM BKN110 07/02 A3010 150 73 -700 320/03 RMK AO2 $
63870K0J4 0J420160104014010301/04/16 01:40:31  5-MIN K0J4 040640Z AUTO 32003KT 10SM BKN110 07/02 A3010 150 70 -700 320/03 RMK AO2 $
63870K0J4 0J420160104014510301/04/16 01:45:31  5-MIN K0J4 040645Z AUTO 33003KT 10SM SCT110 06/02 A3009 160 73 -800 330/03 RMK AO2 $
63870K0J4 0J420160104015010301/04/16 01:50:31  5-MIN K0J4 040650Z AUTO 00000KT 10SM SCT110 06/02 A3009 160 73 -800 000/00 RMK AO2 $
63870K0J4 0J420160104015512001/04/16 01:55:31  5-MIN K0J4 040655Z AUTO 00000KT 10SM FEW110 06/02 A3009 160 73 -800 000/00 RMK AO2 SLP189 T00610017 $
63870K0J4 0J420160104020010001/04/16 02:00:31  5-MIN K0J4 040700Z AUTO 00000KT 10SM CLR 06/02 A3009 160 73 -800 000/00 RMK AO2 $
63870K0J4 0J420160104020510001/04/16 02:05:31  5-MIN K0J4 040705Z AUTO 00000KT 10SM CLR 06/02 A3009 160 73 -800 000/00 RMK AO2 $
63870K0J4 0J420160104021010001/04/16 02:10:31  5-MIN K0J4 040710Z AUTO 00000KT 10SM CLR 06/02 A3009 160 79 -900 000/00 RMK AO2 $
63870K0J4 0J420160104021510001/04/16 02:15:31  5-MIN K0J4 040715Z AUTO 00000KT 10SM CLR 06/02 A3009 160 79 -900 000/00 RMK AO2 $
63870K0J4 0J420160104022010001/04/16 02:20:31  5-MIN K0J4 040720Z AUTO 00000KT 10SM CLR 05/02 A3009 160 82 -900 000/00 RMK AO2 $
63870K0J4 0J420160104022510001/04/16 02:25:31  5-MIN K0J4 040725Z AUTO 00000KT 10SM CLR 05/02 A3009 160 82 -900 000/00 RMK AO2 $
63870K0J4 0J420160104023010001/04/16 02:30:31  5-MIN K0J4 040730Z AUTO 00000KT 10SM CLR 05/02 A3009 160 82 -900 000/00 RMK AO2 $
63870K0J4 0J420160104023510101/04/16 02:35:31  5-MIN K0J4 040735Z AUTO 00000KT 10SM CLR 04/02 A3009 160 85 -1000 000/00 RMK AO2 $
63870K0J4 0J420160104024010101/04/16 02:40:31  5-MIN K0J4 040740Z AUTO 00000KT 10SM CLR 04/02 A3009 160 85 -1000 000/00 RMK AO2 $
63870K0J4 0J420160104024510101/04/16 02:45:31  5-MIN K0J4 040745Z AUTO 00000KT 10SM CLR 04/02 A3009 160 85 -1000 000/00 RMK AO2 $
63870K0J4 0J420160104025010101/04/16 02:50:31  5-MIN K0J4 040750Z AUTO 00000KT 10SM CLR 04/02 A3009 160 82 -1000 000/00 RMK AO2 $
63870K0J4 0J420160104025511801/04/16 02:55:31  5-MIN K0J4 040755Z AUTO 00000KT 10SM CLR 04/02 A3009 160 85 -1000 000/00 RMK AO2 SLP188 T00440022 $
63870K0J4 0J420160104030010101/04/16 03:00:31  5-MIN K0J4 040800Z AUTO 00000KT 10SM CLR 04/02 A3009 160 85 -1100 000/00 RMK AO2 $
63870K0J4 0J420160104030510101/04/16 03:05:31  5-MIN K0J4 040805Z AUTO 00000KT 10SM CLR 04/02 A3009 160 89 -1100 000/00 RMK AO2 $
63870K0J4 0J420160104031010101/04/16 03:10:31  5-MIN K0J4 040810Z AUTO 00000KT 10SM CLR 04/02 A3009 160 89 -1100 000/00 RMK AO2 $
63870K0J4 0J420160104031510101/04/16 03:15:31  5-MIN K0J4 040815Z AUTO 00000KT 10SM CLR 04/02 A3009 160 89 -1100 000/00 RMK AO2 $
63870K0J4 0J420160104032010101/04/16 03:20:31  5-MIN K0J4 040820Z AUTO 00000KT 10SM CLR 04/02 A3009 160 89 -1100 000/00 RMK AO2 $
63870K0J4 0J420160104032510101/04/16 03:25:31  5-MIN K0J4 040825Z AUTO 00000KT 10SM CLR 04/02 A3009 160 85 -1100 000/00 RMK AO2 $
63870K0J4 0J420160104033010101/04/16 03:30:31  5-MIN K0J4 040830Z AUTO 00000KT 10SM CLR 04/02 A3009 160 85 -1100 000/00 RMK AO2 $
63870K0J4 0J420160104033510101/04/16 03:35:31  5-MIN K0J4 040835Z AUTO 00000KT 10SM CLR 03/02 A3009 160 89 -1100 000/00 RMK AO2 $
63870K0J4 0J420160104034010101/04/16 03:40:31  5-MIN K0J4 040840Z AUTO 00000KT 10SM CLR 03/02 A3009 160 92 -1100 000/00 RMK AO2 $
63870K0J4 0J420160104034510101/04/16 03:45:31  5-MIN K0J4 040845Z AUTO 00000KT 10SM CLR 03/02 A3009 160 92 -1100 000/00 RMK AO2 $
63870K0J4 0J420160104035010101/04/16 03:50:31  5-MIN K0J4 040850Z AUTO 00000KT 10SM CLR 03/02 A3009 160 89 -1100 000/00 RMK AO2 $
63870K0J4 0J420160104035512401/04/16 03:55:31  5-MIN K0J4 040855Z AUTO 00000KT 10SM CLR 03/02 A3009 160 89 -1100 000/00 RMK AO2 SLP189 T00330017 58006 $
63870K0J4 0J420160104040010101/04/16 04:00:31  5-MIN K0J4 040900Z AUTO 00000KT 10SM CLR 03/02 A3009 160 89 -1100 000/00 RMK AO2 $
63870K0J4 0J420160104040510101/04/16 04:05:31  5-MIN K0J4 040905Z AUTO 00000KT 10SM CLR 03/02 A3009 160 89 -1100 000/00 RMK AO2 $
63870K0J4 0J420160104041010101/04/16 04:10:31  5-MIN K0J4 040910Z AUTO 00000KT 10SM CLR 03/02 A3009 160 89 -1100 000/00 RMK AO2 $
63870K0J4 0J420160104041510101/04/16 04:15:31  5-MIN K0J4 040915Z AUTO 00000KT 10SM CLR 03/02 A3009 160 89 -1100 000/00 RMK AO2 $
63870K0J4 0J420160104042010101/04/16 04:20:31  5-MIN K0J4 040920Z AUTO 00000KT 10SM CLR 04/02 A3009 160 85 -1100 000/00 RMK AO2 $
63870K0J4 0J420160104042510101/04/16 04:25:31  5-MIN K0J4 040925Z AUTO 00000KT 10SM CLR 03/02 A3009 160 89 -1100 000/00 RMK AO2 $
63870K0J4 0J420160104043010101/04/16 04:30:31  5-MIN K0J4 040930Z AUTO 00000KT 10SM CLR 03/02 A3009 160 89 -1100 000/00 RMK AO2 $
63870K0J4 0J420160104043510101/04/16 04:35:31  5-MIN K0J4 040935Z AUTO 00000KT 10SM CLR 03/02 A3009 160 89 -1100 000/00 RMK AO2 $
63870K0J4 0J420160104044010101/04/16 04:40:31  5-MIN K0J4 040940Z AUTO 00000KT 10SM CLR 03/02 A3009 160 89 -1100 000/00 RMK AO2 $
63870K0J4 0J420160104044510101/04/16 04:45:31  5-MIN K0J4 040945Z AUTO 00000KT 10SM CLR 03/02 A3009 160 89 -1100 000/00 RMK AO2 $
63870K0J4 0J420160104045010101/04/16 04:50:31  5-MIN K0J4 040950Z AUTO 00000KT 10SM CLR 03/02 A3009 160 89 -1100 000/00 RMK AO2 $
63870K0J4 0J420160104045511801/04/16 04:55:31  5-MIN K0J4 040955Z AUTO 00000KT 10SM CLR 03/02 A3009 160 89 -1100 000/00 RMK AO2 SLP189 T00330017 $
63870K0J4 0J420160104050010101/04/16 05:00:31  5-MIN K0J4 041000Z AUTO 00000KT 10SM CLR 03/02 A3009 160 89 -1100 000/00 RMK AO2 $
63870K0J4 0J420160104050510101/04/16 05:05:31  5-MIN K0J4 041005Z AUTO 00000KT 10SM CLR 03/02 A3009 160 89 -1100 000/00 RMK AO2 $
63870K0J4 0J420160104051010101/04/16 05:10:31  5-MIN K0J4 041010Z AUTO 00000KT 10SM CLR 03/02 A3009 160 89 -1100 000/00 RMK AO2 $
63870K0J4 0J420160104051510101/04/16 05:15:31  5-MIN K0J4 041015Z AUTO 00000KT 10SM CLR 03/02 A3009 160 89 -1100 000/00 RMK AO2 $
63870K0J4 0J420160104052010101/04/16 05:20:31  5-MIN K0J4 041020Z AUTO VRB03KT 10SM CLR 03/02 A3010 150 89 -1100 VRB/03 RMK AO2 $
63870K0J4 0J420160104052510101/04/16 05:25:31  5-MIN K0J4 041025Z AUTO VRB03KT 10SM CLR 03/02 A3010 150 89 -1100 VRB/03 RMK AO2 $
63870K0J4 0J420160104053010101/04/16 05:30:31  5-MIN K0J4 041030Z AUTO 00000KT 10SM CLR 03/02 A3009 160 89 -1100 000/00 RMK AO2 $
63870K0J4 0J420160104053510101/04/16 05:35:31  5-MIN K0J4 041035Z AUTO 32003KT 10SM CLR 03/02 A3009 160 89 -1100 320/03 RMK AO2 $
63870K0J4 0J420160104054010101/04/16 05:40:31  5-MIN K0J4 041040Z AUTO 00000KT 10SM CLR 03/02 A3010 150 89 -1100 000/00 RMK AO2 $
63870K0J4 0J420160104054510101/04/16 05:45:31  5-MIN K0J4 041045Z AUTO 00000KT 10SM CLR 03/02 A3010 150 92 -1200 000/00 RMK AO2 $
63870K0J4 0J420160104055010101/04/16 05:50:31  5-MIN K0J4 041050Z AUTO 00000KT 10SM CLR 03/02 A3010 150 92 -1200 000/00 RMK AO2 $
63870K0J4 0J420160104055511801/04/16 05:55:31  5-MIN K0J4 041055Z AUTO 00000KT 10SM CLR 03/02 A3010 150 92 -1200 000/00 RMK AO2 SLP193 T00280017 $
63870K0J4 0J420160104060010101/04/16 06:00:31  5-MIN K0J4 041100Z AUTO 00000KT 10SM CLR 03/02 A3010 150 92 -1200 000/00 RMK AO2 $
63870K0J4 0J420160104060510101/04/16 06:05:31  5-MIN K0J4 041105Z AUTO 32003KT 10SM CLR 03/02 A3010 150 92 -1200 320/03 RMK AO2 $
63870K0J4 0J420160104061010101/04/16 06:10:31  5-MIN K0J4 041110Z AUTO 33003KT 10SM CLR 03/02 A3010 150 92 -1200 330/03 RMK AO2 $
63870K0J4 0J420160104061510101/04/16 06:15:31  5-MIN K0J4 041115Z AUTO 32003KT 10SM CLR 03/01 A3010 150 89 -1200 320/03 RMK AO2 $
63870K0J4 0J420160104062010101/04/16 06:20:31  5-MIN K0J4 041120Z AUTO 32004KT 10SM CLR 03/01 A3011 140 89 -1200 320/04 RMK AO2 $
63870K0J4 0J420160104062510101/04/16 06:25:31  5-MIN K0J4 041125Z AUTO VRB03KT 10SM CLR 03/01 A3011 140 89 -1200 VRB/03 RMK AO2 $
63870K0J4 0J420160104063010101/04/16 06:30:31  5-MIN K0J4 041130Z AUTO VRB03KT 10SM CLR 03/01 A3011 140 89 -1200 VRB/03 RMK AO2 $
63870K0J4 0J420160104063510101/04/16 06:35:31  5-MIN K0J4 041135Z AUTO 00000KT 10SM CLR 03/01 A3011 140 89 -1200 000/00 RMK AO2 $
63870K0J4 0J420160104064010101/04/16 06:40:31  5-MIN K0J4 041140Z AUTO 00000KT 10SM CLR 03/01 A3011 140 89 -1200 000/00 RMK AO2 $
63870K0J4 0J420160104064510101/04/16 06:45:31  5-MIN K0J4 041145Z AUTO 00000KT 10SM CLR 02/01 A3011 140 92 -1300 000/00 RMK AO2 $
63870K0J4 0J420160104065010101/04/16 06:50:31  5-MIN K0J4 041150Z AUTO 00000KT 10SM CLR 02/01 A3011 140 92 -1300 000/00 RMK AO2 $
63870K0J4 0J420160104065513601/04/16 06:55:31  5-MIN K0J4 041155Z AUTO 31003KT 10SM CLR 02/01 A3012 130 92 -1300 310/03 RMK AO2 SLP199 T00220011 10072 20022 55003 $
63870K0J4 0J420160104070009901/04/16 07:00:31  5-MIN K0J4 041200Z AUTO 00000KT 10SM CLR 02/01 A3012 130 92 -1300 000/00 RMK AO2
63870K0J4 0J420160104070510101/04/16 07:05:31  5-MIN K0J4 041205Z AUTO 00000KT 10SM CLR 02/01 A3012 130 92 -1300 000/00 RMK AO2 $
63870K0J4 0J420160104071010101/04/16 07:10:31  5-MIN K0J4 041210Z AUTO 33003KT 10SM CLR 02/01 A3012 130 92 -1300 330/03 RMK AO2 $
63870K0J4 0J420160104071510101/04/16 07:15:31  5-MIN K0J4 041215Z AUTO VRB03KT 10SM CLR 02/01 A3012 130 92 -1300 VRB/03 RMK AO2 $
63870K0J4 0J420160104072010101/04/16 07:20:31  5-MIN K0J4 041220Z AUTO 00000KT 10SM CLR 02/01 A3012 130 92 -1300 000/00 RMK AO2 $
63870K0J4 0J420160104072510101/04/16 07:25:31  5-MIN K0J4 041225Z AUTO 33003KT 10SM CLR 02/01 A3012 130 92 -1300 330/03 RMK AO2 $
63870K0J4 0J420160104073010101/04/16 07:30:31  5-MIN K0J4 041230Z AUTO 31003KT 10SM CLR 02/01 A3013 130 92 -1300 310/03 RMK AO2 $
63870K0J4 0J420160104073510101/04/16 07:35:31  5-MIN K0J4 041235Z AUTO 32003KT 10SM CLR 02/01 A3013 120 92 -1300 320/03 RMK AO2 $
63870K0J4 0J420160104074010101/04/16 07:40:31  5-MIN K0J4 041240Z AUTO VRB03KT 10SM CLR 02/01 A3013 120 92 -1300 VRB/03 RMK AO2 $
63870K0J4 0J420160104074510101/04/16 07:45:31  5-MIN K0J4 041245Z AUTO 32003KT 10SM CLR 02/01 A3014 120 92 -1300 320/03 RMK AO2 $
63870K0J4 0J420160104075010101/04/16 07:50:31  5-MIN K0J4 041250Z AUTO 00000KT 10SM CLR 02/01 A3014 120 92 -1300 000/00 RMK AO2 $
63870K0J4 0J420160104075511801/04/16 07:55:31  5-MIN K0J4 041255Z AUTO 31003KT 10SM CLR 02/01 A3014 110 89 -1300 310/03 RMK AO2 SLP207 T00220006 $
63870K0J4 0J420160104080010101/04/16 08:00:31  5-MIN K0J4 041300Z AUTO 00000KT 10SM CLR 02/01 A3014 110 96 -1400 000/00 RMK AO2 $
63870K0J4 0J420160104080510101/04/16 08:05:31  5-MIN K0J4 041305Z AUTO 00000KT 10SM CLR 02/01 A3015 110 92 -1300 000/00 RMK AO2 $
63870K0J4 0J420160104081010101/04/16 08:10:31  5-MIN K0J4 041310Z AUTO 00000KT 10SM CLR 02/01 A3015 110 92 -1300 000/00 RMK AO2 $
63870K0J4 0J420160104081510101/04/16 08:15:31  5-MIN K0J4 041315Z AUTO 00000KT 10SM CLR 03/01 A3015 100 89 -1300 000/00 RMK AO2 $
63870K0J4 0J420160104082010101/04/16 08:20:31  5-MIN K0J4 041320Z AUTO 00000KT 10SM CLR 03/01 A3015 100 89 -1300 000/00 RMK AO2 $
63870K0J4 0J420160104082510101/04/16 08:25:31  5-MIN K0J4 041325Z AUTO 00000KT 10SM CLR 03/02 A3015 100 92 -1300 000/00 RMK AO2 $
63870K0J4 0J420160104083010101/04/16 08:30:31  5-MIN K0J4 041330Z AUTO 32003KT 10SM CLR 03/02 A3015 100 92 -1300 320/03 RMK AO2 $
63870K0J4 0J420160104083510101/04/16 08:35:31  5-MIN K0J4 041335Z AUTO 33003KT 10SM CLR 03/02 A3016 100 89 -1200 330/03 RMK AO2 $
63870K0J4 0J420160104084010101/04/16 08:40:31  5-MIN K0J4 041340Z AUTO VRB03KT 10SM CLR 03/02 A3016 100 89 -1200 VRB/03 RMK AO2 $
63870K0J4 0J420160104084510001/04/16 08:45:31  5-MIN K0J4 041345Z AUTO VRB03KT 10SM CLR 04/02 A3016 90 85 -1100 VRB/03 RMK AO2 $
63870K0J4 0J420160104085010001/04/16 08:50:31  5-MIN K0J4 041350Z AUTO 00000KT 10SM CLR 04/02 A3017 90 85 -1100 000/00 RMK AO2 $
63870K0J4 0J420160104085511701/04/16 08:55:31  5-MIN K0J4 041355Z AUTO VRB03KT 10SM CLR 04/02 A3017 90 89 -1200 VRB/03 RMK AO2 SLP216 T00390022 $
63870K0J4 0J420160104090010001/04/16 09:00:31  5-MIN K0J4 041400Z AUTO 34004KT 10SM CLR 04/02 A3017 90 82 -1100 340/04 RMK AO2 $
63870K0J4 0J420160104090510001/04/16 09:05:31  5-MIN K0J4 041405Z AUTO 34004KT 10SM CLR 04/02 A3017 90 82 -1100 340/04 RMK AO2 $
63870K0J4 0J420160104091010001/04/16 09:10:31  5-MIN K0J4 041410Z AUTO 34004KT 10SM CLR 04/02 A3017 80 82 -1100 340/04 RMK AO2 $
63870K0J4 0J420160104091510001/04/16 09:15:31  5-MIN K0J4 041415Z AUTO VRB05KT 10SM CLR 05/02 A3018 80 79 -1000 VRB/05 RMK AO2 $
63870K0J4 0J420160104092010001/04/16 09:20:31  5-MIN K0J4 041420Z AUTO VRB03KT 10SM CLR 05/02 A3018 80 79 -1000 VRB/03 RMK AO2 $
63870K0J4 0J420160104092510001/04/16 09:25:31  5-MIN K0J4 041425Z AUTO VRB05KT 10SM CLR 05/02 A3018 80 79 -1000 VRB/05 RMK AO2 $
63870K0J4 0J420160104093010001/04/16 09:30:31  5-MIN K0J4 041430Z AUTO 36007KT 10SM CLR 05/01 A3018 80 76 -1000 360/07 RMK AO2 $
63870K0J4 0J420160104093510001/04/16 09:35:31  5-MIN K0J4 041435Z AUTO 36006KT 10SM CLR 05/02 A3018 80 79 -1000 360/06 RMK AO2 $
63870K0J4 0J420160104094010001/04/16 09:40:31  5-MIN K0J4 041440Z AUTO 01006KT 10SM CLR 06/02 A3018 70 76 -1000 010/06 RMK AO2 $
63870K0J4 0J420160104094510001/04/16 09:45:31  5-MIN K0J4 041445Z AUTO 36006KT 10SM CLR 06/02 A3018 70 76 -1000 360/06 RMK AO2 $
63870K0J4 0J420160104095009901/04/16 09:50:31  5-MIN K0J4 041450Z AUTO 01008KT 10SM CLR 06/02 A3018 70 73 -900 010/08 RMK AO2 $
63870K0J4 0J420160104095512201/04/16 09:55:31  5-MIN K0J4 041455Z AUTO 01008KT 10SM CLR 07/02 A3018 80 70 -800 010/08 RMK AO2 SLP220 T00670017 53008 $
63870K0J4 0J420160104100009901/04/16 10:00:31  5-MIN K0J4 041500Z AUTO 02009KT 10SM CLR 07/02 A3018 80 70 -800 020/09 RMK AO2 $
63870K0J4 0J420160104100509901/04/16 10:05:31  5-MIN K0J4 041505Z AUTO 36008KT 10SM CLR 07/01 A3018 70 67 -800 360/08 RMK AO2 $
63870K0J4 0J420160104101009901/04/16 10:10:31  5-MIN K0J4 041510Z AUTO VRB06KT 10SM CLR 07/01 A3018 80 65 -800 VRB/06 RMK AO2 $
63870K0J4 0J420160104101509901/04/16 10:15:31  5-MIN K0J4 041515Z AUTO 02009KT 10SM CLR 07/01 A3018 70 65 -800 020/09 RMK AO2 $
63870K0J4 0J420160104102009901/04/16 10:20:31  5-MIN K0J4 041520Z AUTO 02008KT 10SM CLR 07/01 A3018 70 62 -800 020/08 RMK AO2 $
63870K0J4 0J420160104102509901/04/16 10:25:31  5-MIN K0J4 041525Z AUTO 01009KT 10SM CLR 08/01 A3018 70 62 -700 010/09 RMK AO2 $
63870K0J4 0J420160104103009901/04/16 10:30:31  5-MIN K0J4 041530Z AUTO 03009KT 10SM CLR 08/01 A3018 80 60 -700 030/09 RMK AO2 $
63870K0J4 0J420160104103509901/04/16 10:35:31  5-MIN K0J4 041535Z AUTO 02007KT 10SM CLR 08/01 A3018 70 58 -600 020/07 RMK AO2 $
63870K0J4 0J420160104104009901/04/16 10:40:31  5-MIN K0J4 041540Z AUTO 01007KT 10SM CLR 08/00 A3018 70 55 -600 010/07 RMK AO2 $
63870K0J4 0J420160104104509901/04/16 10:45:31  5-MIN K0J4 041545Z AUTO 01005KT 10SM CLR 08/00 A3019 70 55 -600 010/05 RMK AO2 $
63870K0J4 0J420160104105009901/04/16 10:50:31  5-MIN K0J4 041550Z AUTO 02006KT 10SM CLR 09/01 A3019 70 56 -600 020/06 RMK AO2 $
63870K0J4 0J420160104105511601/04/16 10:55:31  5-MIN K0J4 041555Z AUTO 35007KT 10SM CLR 09/00 A3019 70 53 -600 350/07 RMK AO2 SLP222 T00890000 $
63870K0J4 0J420160104110010001/04/16 11:00:31  5-MIN K0J4 041600Z AUTO 01009KT 10SM CLR 09/M01 A3019 70 51 -600 010/09 RMK AO2 $
63870K0J4 0J420160104110512101/04/16 11:05:31  5-MIN K0J4 041605Z AUTO 01009G15KT 330V030 10SM CLR 09/00 A3019 70 51 -500 010/09G15 330V030 RMK AO2 $
63870K0J4 0J420160104111010601/04/16 11:10:31  5-MIN K0J4 041610Z AUTO 02009G15KT 10SM CLR 09/M01 A3019 70 49 -600 020/09G15 RMK AO2 $
63870K0J4 0J420160104111510001/04/16 11:15:31  5-MIN K0J4 041615Z AUTO 01009KT 10SM CLR 09/M01 A3019 70 49 -500 010/09 RMK AO2 $
63870K0J4 0J420160104112010001/04/16 11:20:31  5-MIN K0J4 041620Z AUTO 36008KT 10SM CLR 09/M01 A3018 70 49 -600 360/08 RMK AO2 $
63870K0J4 0J420160104112510001/04/16 11:25:31  5-MIN K0J4 041625Z AUTO 35006KT 10SM CLR 09/M01 A3018 80 49 -500 350/06 RMK AO2 $
63870K0J4 0J420160104113009901/04/16 11:30:31  5-MIN K0J4 041630Z AUTO 01006KT 10SM CLR 10/00 A3018 80 49 -400 010/06 RMK AO2 $
63870K0J4 0J420160104113510601/04/16 11:35:31  5-MIN K0J4 041635Z AUTO 01010G16KT 10SM CLR 10/M01 A3018 80 47 -400 010/10G16 RMK AO2 $
63870K0J4 0J420160104114010601/04/16 11:40:31  5-MIN K0J4 041640Z AUTO 36006G16KT 10SM CLR 09/M01 A3018 80 47 -500 360/06G16 RMK AO2 $
63870K0J4 0J420160104114510001/04/16 11:45:31  5-MIN K0J4 041645Z AUTO 02007KT 10SM CLR 10/M01 A3018 80 47 -400 020/07 RMK AO2 $
63870K0J4 0J420160104115010001/04/16 11:50:31  5-MIN K0J4 041650Z AUTO VRB06KT 10SM CLR 10/M01 A3018 80 47 -400 VRB/06 RMK AO2 $
63870K0J4 0J420160104115513301/04/16 11:55:31  5-MIN K0J4 041655Z AUTO 35008KT 300V020 10SM CLR 11/M01 A3018 80 44 -300 350/08 300V020 RMK AO2 SLP218 T01061011 $
63870K0J4 0J420160104120010601/04/16 12:00:31  5-MIN K0J4 041700Z AUTO 36009G14KT 10SM CLR 11/M02 A3018 80 42 -300 360/09G14 RMK AO2 $
63870K0J4 0J420160104120510601/04/16 12:05:31  5-MIN K0J4 041705Z AUTO 01009G16KT 10SM CLR 10/M02 A3018 80 42 -400 010/09G16 RMK AO2 $
63870K0J4 0J420160104121010601/04/16 12:10:31  5-MIN K0J4 041710Z AUTO 02009G16KT 10SM CLR 11/M02 A3017 80 42 -300 020/09G16 RMK AO2 $
63870K0J4 0J420160104121512201/04/16 12:15:31  5-MIN K0J4 041715Z AUTO 34010G16KT 300V010 10SM CLR 11/M02 A3018 80 42 -300 340/10G16 300V010 RMK AO2 $
63870K0J4 0J420160104122010601/04/16 12:20:31  5-MIN K0J4 041720Z AUTO 35007G16KT 10SM CLR 11/M02 A3018 80 40 -300 350/07G16 RMK AO2 $
63870K0J4 0J420160104122511601/04/16 12:25:31  5-MIN K0J4 041725Z AUTO 36008KT 320V020 10SM CLR 11/M02 A3017 80 40 -300 360/08 320V020 RMK AO2 $
63870K0J4 0J420160104123011601/04/16 12:30:31  5-MIN K0J4 041730Z AUTO 33007KT 310V020 10SM CLR 11/M02 A3017 80 42 -300 330/07 310V020 RMK AO2 $
63870K0J4 0J420160104123510001/04/16 12:35:31  5-MIN K0J4 041735Z AUTO VRB06KT 10SM CLR 11/M01 A3017 80 42 -300 VRB/06 RMK AO2 $
63870K0J4 0J420160104124011601/04/16 12:40:31  5-MIN K0J4 041740Z AUTO 35008KT 310V020 10SM CLR 11/M02 A3017 80 41 -300 350/08 310V020 RMK AO2 $
63870K0J4 0J420160104124510001/04/16 12:45:31  5-MIN K0J4 041745Z AUTO VRB06KT 10SM CLR 11/M02 A3018 80 39 -300 VRB/06 RMK AO2 $
63870K0J4 0J420160104125010001/04/16 12:50:31  5-MIN K0J4 041750Z AUTO VRB06KT 10SM CLR 11/M02 A3017 80 39 -300 VRB/06 RMK AO2 $
63870K0J4 0J420160104125513501/04/16 12:55:31  5-MIN K0J4 041755Z AUTO VRB06KT 10SM CLR 12/M02 A3017 80 39 -200 VRB/06 RMK AO2 SLP216 T01171017 10117 20017 51021 $
63870K0J4 0J420160104130010001/04/16 13:00:31  5-MIN K0J4 041800Z AUTO 35007KT 10SM CLR 11/M02 A3017 90 41 -300 350/07 RMK AO2 $
63870K0J4 0J420160104130510001/04/16 13:05:31  5-MIN K0J4 041805Z AUTO VRB06KT 10SM CLR 12/M02 A3017 90 39 -200 VRB/06 RMK AO2 $
63870K0J4 0J420160104131010001/04/16 13:10:31  5-MIN K0J4 041810Z AUTO 35008KT 10SM CLR 12/M02 A3017 90 39 -200 350/08 RMK AO2 $
63870K0J4 0J420160104131510001/04/16 13:15:31  5-MIN K0J4 041815Z AUTO 35006KT 10SM CLR 12/M01 A3017 90 41 -200 350/06 RMK AO2 $
63870K0J4 0J420160104132010001/04/16 13:20:31  5-MIN K0J4 041820Z AUTO VRB06KT 10SM CLR 12/M02 A3017 90 39 -200 VRB/06 RMK AO2 $
63870K0J4 0J420160104132510001/04/16 13:25:31  5-MIN K0J4 041825Z AUTO 34007KT 10SM CLR 12/M02 A3017 90 39 -200 340/07 RMK AO2 $
63870K0J4 0J420160104133010001/04/16 13:30:31  5-MIN K0J4 041830Z AUTO 33009KT 10SM CLR 12/M02 A3017 90 39 -200 330/09 RMK AO2 $
63870K0J4 0J420160104133510601/04/16 13:35:31  5-MIN K0J4 041835Z AUTO 34009G14KT 10SM CLR 12/M02 A3017 90 39 -200 340/09G14 RMK AO2 $
63870K0J4 0J420160104134012201/04/16 13:40:31  5-MIN K0J4 041840Z AUTO 35007G14KT 310V020 10SM CLR 12/M02 A3017 90 39 -200 350/07G14 310V020 RMK AO2 $
63870K0J4 0J420160104134510001/04/16 13:45:31  5-MIN K0J4 041845Z AUTO VRB05KT 10SM CLR 12/M02 A3016 90 38 -200 VRB/05 RMK AO2 $
63870K0J4 0J420160104135010001/04/16 13:50:31  5-MIN K0J4 041850Z AUTO 34007KT 10SM CLR 12/M02 A3016 90 38 -100 340/07 RMK AO2 $
63870K0J4 0J420160104135511701/04/16 13:55:31  5-MIN K0J4 041855Z AUTO VRB06KT 10SM CLR 12/M02 A3016 90 38 -100 VRB/06 RMK AO2 SLP214 T01221017 $
63870K0J4 0J420160104140010001/04/16 14:00:31  5-MIN K0J4 041900Z AUTO 36007KT 10SM CLR 12/M02 A3016 90 38 -100 360/07 RMK AO2 $
63870K0J4 0J420160104140510101/04/16 14:05:31  5-MIN K0J4 041905Z AUTO 01007KT 10SM CLR 12/M03 A3016 100 35 -100 010/07 RMK AO2 $
63870K0J4 0J420160104141010101/04/16 14:10:31  5-MIN K0J4 041910Z AUTO VRB06KT 10SM CLR 12/M02 A3016 100 38 -100 VRB/06 RMK AO2 $
63870K0J4 0J420160104141510101/04/16 14:15:31  5-MIN K0J4 041915Z AUTO 33004KT 10SM CLR 12/M01 A3016 100 39 -100 330/04 RMK AO2 $
63870K0J4 0J420160104142010101/04/16 14:20:31  5-MIN K0J4 041920Z AUTO VRB06KT 10SM CLR 12/M01 A3015 100 39 -100 VRB/06 RMK AO2 $
63870K0J4 0J420160104142510101/04/16 14:25:31  5-MIN K0J4 041925Z AUTO 01010KT 10SM CLR 12/M01 A3015 100 41 -200 010/10 RMK AO2 $
63870K0J4 0J420160104143011701/04/16 14:30:31  5-MIN K0J4 041930Z AUTO 35007KT 310V020 10SM CLR 12/M02 A3015 110 38 -100 350/07 310V020 RMK AO2 $
63870K0J4 0J420160104143510701/04/16 14:35:31  5-MIN K0J4 041935Z AUTO 36009G14KT 10SM CLR 12/M01 A3015 110 39 -100 360/09G14 RMK AO2 $
63870K0J4 0J420160104144010701/04/16 14:40:31  5-MIN K0J4 041940Z AUTO VRB04G14KT 10SM CLR 12/M02 A3015 110 38 -100 VRB/04G14 RMK AO2 $
63870K0J4 0J420160104144511701/04/16 14:45:31  5-MIN K0J4 041945Z AUTO 01007KT 320V030 10SM CLR 12/M01 A3015 110 39 -100 010/07 320V030 RMK AO2 $
63870K0J4 0J420160104145010101/04/16 14:50:31  5-MIN K0J4 041950Z AUTO 34005KT 10SM CLR 12/M01 A3015 100 39 -100 340/05 RMK AO2 $
63870K0J4 0J420160104145512401/04/16 14:55:31  5-MIN K0J4 041955Z AUTO 36010G14KT 10SM CLR 12/M02 A3015 100 38 -100 360/10G14 RMK AO2 SLP210 T01221017 $
63870K0J4 0J420160104150010701/04/16 15:00:31  5-MIN K0J4 042000Z AUTO 02009G15KT 10SM CLR 12/M02 A3015 100 36 -100 020/09G15 RMK AO2 $
63870K0J4 0J420160104150510701/04/16 15:05:31  5-MIN K0J4 042005Z AUTO 36008G15KT 10SM CLR 12/M02 A3016 100 38 -100 360/08G15 RMK AO2 $
63870K0J4 0J420160104151010101/04/16 15:10:31  5-MIN K0J4 042010Z AUTO 01009KT 10SM CLR 12/M02 A3016 100 38 -100 010/09 RMK AO2 $
63870K0J4 0J420160104151511601/04/16 15:15:31  5-MIN K0J4 042015Z AUTO 35007KT 310V030 10SM CLR 12/M02 A3016 90 38 -100 350/07 310V030 RMK AO2 $
63870K0J4 0J420160104152010001/04/16 15:20:31  5-MIN K0J4 042020Z AUTO 01009KT 10SM CLR 12/M02 A3016 90 38 -100 010/09 RMK AO2 $
63870K0J4 0J420160104152510601/04/16 15:25:31  5-MIN K0J4 042025Z AUTO 36009G15KT 10SM CLR 12/M02 A3017 90 38 -200 360/09G15 RMK AO2 $
63870K0J4 0J420160104153012201/04/16 15:30:31  5-MIN K0J4 042030Z AUTO 35008G15KT 320V020 10SM CLR 12/M02 A3017 90 38 -200 350/08G15 320V020 RMK AO2 $
63870K0J4 0J420160104153510001/04/16 15:35:31  5-MIN K0J4 042035Z AUTO VRB05KT 10SM CLR 12/M02 A3017 80 39 -200 VRB/05 RMK AO2 $
63870K0J4 0J420160104154011601/04/16 15:40:31  5-MIN K0J4 042040Z AUTO 35007KT 290V020 10SM CLR 12/M02 A3017 80 38 -200 350/07 290V020 RMK AO2 $
63870K0J4 0J420160104154510601/04/16 15:45:31  5-MIN K0J4 042045Z AUTO 35010G15KT 10SM CLR 12/M02 A3018 80 38 -200 350/10G15 RMK AO2 $
63870K0J4 0J420160104155010601/04/16 15:50:31  5-MIN K0J4 042050Z AUTO 01010G15KT 10SM CLR 12/M02 A3018 80 38 -200 010/10G15 RMK AO2 $
63870K0J4 0J420160104155512901/04/16 15:55:31  5-MIN K0J4 042055Z AUTO 02010G15KT 10SM CLR 12/M02 A3018 80 39 -200 020/10G15 RMK AO2 SLP219 T01171017 58003 $
63870K0J4 0J420160104160010001/04/16 16:00:31  5-MIN K0J4 042100Z AUTO 02008KT 10SM CLR 12/M02 A3018 80 39 -200 020/08 RMK AO2 $
63870K0J4 0J420160104160510001/04/16 16:05:31  5-MIN K0J4 042105Z AUTO 01008KT 10SM CLR 12/M02 A3018 80 39 -200 010/08 RMK AO2 $
63870K0J4 0J420160104161010001/04/16 16:10:31  5-MIN K0J4 042110Z AUTO 36008KT 10SM CLR 12/M02 A3018 80 39 -200 360/08 RMK AO2 $
63870K0J4 0J420160104161510601/04/16 16:15:31  5-MIN K0J4 042115Z AUTO 36010G17KT 10SM CLR 11/M02 A3018 70 41 -300 360/10G17 RMK AO2 $
63870K0J4 0J420160104162010601/04/16 16:20:31  5-MIN K0J4 042120Z AUTO 35005G17KT 10SM CLR 11/M02 A3018 70 39 -300 350/05G17 RMK AO2 $
63870K0J4 0J420160104162510001/04/16 16:25:31  5-MIN K0J4 042125Z AUTO 01009KT 10SM CLR 11/M02 A3018 70 39 -300 010/09 RMK AO2 $
63870K0J4 0J420160104163010601/04/16 16:30:31  5-MIN K0J4 042130Z AUTO 01010G14KT 10SM CLR 11/M03 A3018 70 37 -300 010/10G14 RMK AO2 $
63870K0J4 0J420160104163510601/04/16 16:35:31  5-MIN K0J4 042135Z AUTO 01009G16KT 10SM CLR 11/M03 A3018 70 37 -300 010/09G16 RMK AO2 $
63870K0J4 0J420160104164010601/04/16 16:40:31  5-MIN K0J4 042140Z AUTO 02011G17KT 10SM CLR 11/M03 A3019 70 39 -400 020/11G17 RMK AO2 $
63870K0J4 0J420160104164510601/04/16 16:45:31  5-MIN K0J4 042145Z AUTO 01009G17KT 10SM CLR 11/M02 A3019 70 40 -400 010/09G17 RMK AO2 $
63870K0J4 0J420160104165010601/04/16 16:50:31  5-MIN K0J4 042150Z AUTO 01010G15KT 10SM CLR 11/M02 A3019 70 40 -400 010/10G15 RMK AO2 $
63870K0J4 0J420160104165511701/04/16 16:55:31  5-MIN K0J4 042155Z AUTO 01010KT 10SM CLR 11/M02 A3019 70 40 -400 010/10 RMK AO2 SLP222 T01061022 $
63870K0J4 0J420160104170010001/04/16 17:00:31  5-MIN K0J4 042200Z AUTO 36008KT 10SM CLR 11/M02 A3019 70 42 -400 360/08 RMK AO2 $
63870K0J4 0J420160104170510601/04/16 17:05:31  5-MIN K0J4 042205Z AUTO 36009G15KT 10SM CLR 10/M02 A3019 70 44 -400 360/09G15 RMK AO2 $
63870K0J4 0J420160104171012201/04/16 17:10:31  5-MIN K0J4 042210Z AUTO 36007G15KT 310V030 10SM CLR 10/M02 A3019 60 44 -400 360/07G15 310V030 RMK AO2 $
63870K0J4 0J420160104171510001/04/16 17:15:31  5-MIN K0J4 042215Z AUTO 01007KT 10SM CLR 09/M01 A3020 60 47 -500 010/07 RMK AO2 $
63870K0J4 0J420160104172010001/04/16 17:20:31  5-MIN K0J4 042220Z AUTO 01005KT 10SM CLR 09/M01 A3020 60 47 -500 010/05 RMK AO2 $
63870K0J4 0J420160104172510001/04/16 17:25:31  5-MIN K0J4 042225Z AUTO 36009KT 10SM CLR 09/M02 A3020 60 45 -500 360/09 RMK AO2 $
63870K0J4 0J420160104173010001/04/16 17:30:31  5-MIN K0J4 042230Z AUTO 01007KT 10SM CLR 09/M01 A3021 50 47 -500 010/07 RMK AO2 $
63870K0J4 0J420160104173510001/04/16 17:35:31  5-MIN K0J4 042235Z AUTO 01006KT 10SM CLR 09/M01 A3021 50 49 -600 010/06 RMK AO2 $
63870K0J4 0J420160104174010001/04/16 17:40:31  5-MIN K0J4 042240Z AUTO 01007KT 10SM CLR 08/M01 A3021 50 53 -700 010/07 RMK AO2 $
63870K0J4 0J420160104174510001/04/16 17:45:31  5-MIN K0J4 042245Z AUTO 01007KT 10SM CLR 08/M01 A3021 50 51 -700 010/07 RMK AO2 $
63870K0J4 0J420160104175010001/04/16 17:50:31  5-MIN K0J4 042250Z AUTO 01006KT 10SM CLR 08/M01 A3022 40 51 -700 010/06 RMK AO2 $
63870K0J4 0J420160104175511701/04/16 17:55:31  5-MIN K0J4 042255Z AUTO 01007KT 10SM CLR 08/M01 A3022 40 51 -700 010/07 RMK AO2 SLP234 T00831011 $
63870K0J4 0J420160104180010001/04/16 18:00:31  5-MIN K0J4 042300Z AUTO 36008KT 10SM CLR 08/M01 A3022 40 51 -700 360/08 RMK AO2 $
63870K0J4 0J420160104180510001/04/16 18:05:31  5-MIN K0J4 042305Z AUTO 01007KT 10SM CLR 08/M02 A3022 40 51 -700 010/07 RMK AO2 $
63870K0J4 0J420160104181010001/04/16 18:10:31  5-MIN K0J4 042310Z AUTO 01007KT 10SM CLR 08/M02 A3022 40 51 -700 010/07 RMK AO2 $
63870K0J4 0J420160104181510001/04/16 18:15:31  5-MIN K0J4 042315Z AUTO 01006KT 10SM CLR 08/M02 A3022 40 51 -700 010/06 RMK AO2 $
63870K0J4 0J420160104182010001/04/16 18:20:31  5-MIN K0J4 042320Z AUTO 01006KT 10SM CLR 07/M01 A3022 40 55 -800 010/06 RMK AO2 $
63870K0J4 0J420160104182510001/04/16 18:25:31  5-MIN K0J4 042325Z AUTO 01007KT 10SM CLR 07/M02 A3022 40 53 -800 010/07 RMK AO2 $
63870K0J4 0J420160104183010001/04/16 18:30:31  5-MIN K0J4 042330Z AUTO 01006KT 10SM CLR 07/M02 A3023 40 53 -800 010/06 RMK AO2 $
63870K0J4 0J420160104183510001/04/16 18:35:31  5-MIN K0J4 042335Z AUTO 36006KT 10SM CLR 07/M02 A3023 30 53 -800 360/06 RMK AO2 $
63870K0J4 0J420160104184010001/04/16 18:40:31  5-MIN K0J4 042340Z AUTO 01007KT 10SM CLR 07/M02 A3023 30 53 -800 010/07 RMK AO2 $
63870K0J4 0J420160104184510001/04/16 18:45:31  5-MIN K0J4 042345Z AUTO 01006KT 10SM CLR 07/M02 A3023 30 55 -900 010/06 RMK AO2 $
63870K0J4 0J420160104185010001/04/16 18:50:31  5-MIN K0J4 042350Z AUTO 01006KT 10SM CLR 07/M02 A3023 30 55 -900 010/06 RMK AO2 $
63870K0J4 0J420160104185513501/04/16 18:55:31  5-MIN K0J4 042355Z AUTO 01006KT 10SM CLR 07/M02 A3024 20 55 -900 010/06 RMK AO2 SLP240 T00671017 10122 20067 53003 $
63870K0J4 0J420160104190010001/04/16 19:00:31  5-MIN K0J4 050000Z AUTO 01004KT 10SM CLR 07/M02 A3024 20 55 -900 010/04 RMK AO2 $
63870K0J4 0J420160104190510001/04/16 19:05:31  5-MIN K0J4 050005Z AUTO 01004KT 10SM CLR 07/M02 A3024 20 55 -900 010/04 RMK AO2 $
63870K0J4 0J420160104191010101/04/16 19:10:31  5-MIN K0J4 050010Z AUTO 01005KT 10SM CLR 06/M01 A3025 20 60 -1000 010/05 RMK AO2 $
63870K0J4 0J420160104191510101/04/16 19:15:31  5-MIN K0J4 050015Z AUTO 01005KT 10SM CLR 06/M01 A3025 10 60 -1000 010/05 RMK AO2 $
63870K0J4 0J420160104192010101/04/16 19:20:31  5-MIN K0J4 050020Z AUTO 01005KT 10SM CLR 06/M01 A3025 10 60 -1000 010/05 RMK AO2 $
63870K0J4 0J420160104192510101/04/16 19:25:31  5-MIN K0J4 050025Z AUTO 01005KT 10SM CLR 06/M02 A3025 10 57 -1000 010/05 RMK AO2 $
63870K0J4 0J420160104193010101/04/16 19:30:31  5-MIN K0J4 050030Z AUTO 01005KT 10SM CLR 06/M01 A3025 10 62 -1000 010/05 RMK AO2 $
63870K0J4 0J420160104193510101/04/16 19:35:31  5-MIN K0J4 050035Z AUTO 01005KT 10SM CLR 06/M02 A3025 10 59 -1000 010/05 RMK AO2 $
63870K0J4 0J420160104194010101/04/16 19:40:31  5-MIN K0J4 050040Z AUTO 01004KT 10SM CLR 06/M02 A3026 10 59 -1000 010/04 RMK AO2 $
63870K0J4 0J420160104194510001/04/16 19:45:31  5-MIN K0J4 050045Z AUTO 01003KT 10SM CLR 06/M02 A3026 0 59 -1000 010/03 RMK AO2 $
63870K0J4 0J420160104195010001/04/16 19:50:31  5-MIN K0J4 050050Z AUTO 01004KT 10SM CLR 05/M02 A3026 0 62 -1100 010/04 RMK AO2 $
63870K0J4 0J420160104195511701/04/16 19:55:31  5-MIN K0J4 050055Z AUTO 36003KT 10SM CLR 06/M02 A3026 0 59 -1000 360/03 RMK AO2 SLP247 T00561017 $
63870K0J4 0J420160104200010001/04/16 20:00:31  5-MIN K0J4 050100Z AUTO 01003KT 10SM CLR 06/M02 A3026 0 59 -1100 010/03 RMK AO2 $
63870K0J4 0J420160104200510001/04/16 20:05:31  5-MIN K0J4 050105Z AUTO 36005KT 10SM CLR 05/M02 A3026 0 62 -1100 360/05 RMK AO2 $
63870K0J4 0J420160104201010001/04/16 20:10:31  5-MIN K0J4 050110Z AUTO 01005KT 10SM CLR 05/M02 A3027 0 62 -1100 010/05 RMK AO2 $
63870K0J4 0J420160104201510001/04/16 20:15:31  5-MIN K0J4 050115Z AUTO 01006KT 10SM CLR 05/M02 A3027 0 62 -1100 010/06 RMK AO2 $
63870K0J4 0J420160104202010001/04/16 20:20:31  5-MIN K0J4 050120Z AUTO 01004KT 10SM CLR 05/M02 A3027 0 62 -1100 010/04 RMK AO2 $
63870K0J4 0J420160104202510001/04/16 20:25:31  5-MIN K0J4 050125Z AUTO 02005KT 10SM CLR 05/M02 A3027 0 62 -1100 020/05 RMK AO2 $
63870K0J4 0J420160104203010201/04/16 20:30:31  5-MIN K0J4 050130Z AUTO 01005KT 10SM CLR 04/M02 A3028 -10 64 -1200 010/05 RMK AO2 $
63870K0J4 0J420160104203510201/04/16 20:35:31  5-MIN K0J4 050135Z AUTO 01005KT 10SM CLR 04/M02 A3028 -10 64 -1200 010/05 RMK AO2 $
63870K0J4 0J420160104204010201/04/16 20:40:31  5-MIN K0J4 050140Z AUTO 01005KT 10SM CLR 05/M02 A3028 -10 62 -1100 010/05 RMK AO2 $
63870K0J4 0J420160104204510201/04/16 20:45:31  5-MIN K0J4 050145Z AUTO 01004KT 10SM CLR 04/M02 A3028 -10 64 -1200 010/04 RMK AO2 $
63870K0J4 0J420160104205010201/04/16 20:50:31  5-MIN K0J4 050150Z AUTO 01005KT 10SM CLR 04/M02 A3028 -10 64 -1200 010/05 RMK AO2 $
63870K0J4 0J420160104205511901/04/16 20:55:31  5-MIN K0J4 050155Z AUTO 01005KT 10SM CLR 04/M02 A3028 -10 64 -1200 010/05 RMK AO2 SLP254 T00441017 $
63870K0J4 0J420160104210010201/04/16 21:00:31  5-MIN K0J4 050200Z AUTO 01005KT 10SM CLR 04/M02 A3028 -10 64 -1200 010/05 RMK AO2 $
63870K0J4 0J420160104210510201/04/16 21:05:31  5-MIN K0J4 050205Z AUTO 01004KT 10SM CLR 04/M02 A3028 -10 64 -1200 010/04 RMK AO2 $
63870K0J4 0J420160104211010201/04/16 21:10:31  5-MIN K0J4 050210Z AUTO 36004KT 10SM CLR 04/M02 A3028 -10 64 -1200 360/04 RMK AO2 $
63870K0J4 0J420160104211510201/04/16 21:15:31  5-MIN K0J4 050215Z AUTO 36004KT 10SM CLR 04/M02 A3028 -10 64 -1200 360/04 RMK AO2 $
63870K0J4 0J420160104212010201/04/16 21:20:31  5-MIN K0J4 050220Z AUTO 36003KT 10SM CLR 04/M02 A3028 -10 64 -1200 360/03 RMK AO2 $
63870K0J4 0J420160104212510201/04/16 21:25:31  5-MIN K0J4 050225Z AUTO 36004KT 10SM CLR 04/M02 A3029 -20 67 -1300 360/04 RMK AO2 $
63870K0J4 0J420160104213010201/04/16 21:30:31  5-MIN K0J4 050230Z AUTO 35003KT 10SM CLR 04/M02 A3029 -20 67 -1300 350/03 RMK AO2 $
63870K0J4 0J420160104213510201/04/16 21:35:31  5-MIN K0J4 050235Z AUTO 01005KT 10SM CLR 04/M02 A3029 -20 67 -1300 010/05 RMK AO2 $
63870K0J4 0J420160104214010201/04/16 21:40:31  5-MIN K0J4 050240Z AUTO 36004KT 10SM CLR 04/M02 A3029 -20 67 -1300 360/04 RMK AO2 $
63870K0J4 0J420160104214510201/04/16 21:45:31  5-MIN K0J4 050245Z AUTO 36004KT 10SM CLR 04/M02 A3029 -20 67 -1300 360/04 RMK AO2 $
63870K0J4 0J420160104215010201/04/16 21:50:31  5-MIN K0J4 050250Z AUTO 01005KT 10SM CLR 04/M02 A3029 -20 64 -1300 010/05 RMK AO2 $
63870K0J4 0J420160104215512501/04/16 21:55:31  5-MIN K0J4 050255Z AUTO 36004KT 10SM CLR 04/M02 A3029 -20 64 -1300 360/04 RMK AO2 SLP259 T00391022 53020 $
63870K0J4 0J420160104220010201/04/16 22:00:31  5-MIN K0J4 050300Z AUTO 36004KT 10SM CLR 04/M02 A3030 -30 67 -1300 360/04 RMK AO2 $
63870K0J4 0J420160104220510201/04/16 22:05:31  5-MIN K0J4 050305Z AUTO 35003KT 10SM CLR 03/M02 A3030 -30 70 -1400 350/03 RMK AO2 $
63870K0J4 0J420160104221010201/04/16 22:10:31  5-MIN K0J4 050310Z AUTO 36004KT 10SM CLR 03/M02 A3030 -30 67 -1400 360/04 RMK AO2 $
63870K0J4 0J420160104221510201/04/16 22:15:31  5-MIN K0J4 050315Z AUTO 35004KT 10SM CLR 03/M02 A3030 -30 70 -1400 350/04 RMK AO2 $
63870K0J4 0J420160104222010201/04/16 22:20:31  5-MIN K0J4 050320Z AUTO 35005KT 10SM CLR 03/M02 A3031 -40 67 -1400 350/05 RMK AO2 $
63870K0J4 0J420160104222510201/04/16 22:25:31  5-MIN K0J4 050325Z AUTO 36004KT 10SM CLR 03/M02 A3031 -40 67 -1400 360/04 RMK AO2 $
63870K0J4 0J420160104223010201/04/16 22:30:31  5-MIN K0J4 050330Z AUTO 36005KT 10SM CLR 03/M02 A3031 -40 67 -1400 360/05 RMK AO2 $
63870K0J4 0J420160104223510201/04/16 22:35:31  5-MIN K0J4 050335Z AUTO 36004KT 10SM CLR 03/M02 A3031 -40 67 -1400 360/04 RMK AO2 $
63870K0J4 0J420160104224010201/04/16 22:40:31  5-MIN K0J4 050340Z AUTO 01005KT 10SM CLR 03/M02 A3031 -40 67 -1400 010/05 RMK AO2 $
63870K0J4 0J420160104224510201/04/16 22:45:31  5-MIN K0J4 050345Z AUTO 01006KT 10SM CLR 03/M02 A3031 -40 69 -1500 010/06 RMK AO2 $
63870K0J4 0J420160104225010201/04/16 22:50:31  5-MIN K0J4 050350Z AUTO 01005KT 10SM CLR 03/M02 A3032 -40 69 -1500 010/05 RMK AO2 $
63870K0J4 0J420160104225511901/04/16 22:55:31  5-MIN K0J4 050355Z AUTO 02006KT 10SM CLR 03/M02 A3032 -40 69 -1500 020/06 RMK AO2 SLP265 T00281022 $
63870K0J4 0J420160104230010201/04/16 23:00:31  5-MIN K0J4 050400Z AUTO 01006KT 10SM CLR 03/M02 A3031 -40 69 -1500 010/06 RMK AO2 $
63870K0J4 0J420160104230510201/04/16 23:05:31  5-MIN K0J4 050405Z AUTO 01005KT 10SM CLR 03/M02 A3031 -40 69 -1500 010/05 RMK AO2 $
63870K0J4 0J420160104231010201/04/16 23:10:31  5-MIN K0J4 050410Z AUTO 02005KT 10SM CLR 03/M02 A3031 -40 69 -1500 020/05 RMK AO2 $
63870K0J4 0J420160104231510201/04/16 23:15:31  5-MIN K0J4 050415Z AUTO 01005KT 10SM CLR 02/M02 A3032 -40 72 -1500 010/05 RMK AO2 $
63870K0J4 0J420160104232010201/04/16 23:20:31  5-MIN K0J4 050420Z AUTO 01005KT 10SM CLR 02/M02 A3031 -40 72 -1500 010/05 RMK AO2 $
63870K0J4 0J420160104232510201/04/16 23:25:31  5-MIN K0J4 050425Z AUTO 01005KT 10SM CLR 02/M02 A3031 -40 72 -1500 010/05 RMK AO2 $
63870K0J4 0J420160104233010201/04/16 23:30:31  5-MIN K0J4 050430Z AUTO 01005KT 10SM CLR 02/M02 A3031 -40 72 -1500 010/05 RMK AO2 $
63870K0J4 0J420160104233510201/04/16 23:35:31  5-MIN K0J4 050435Z AUTO 01005KT 10SM CLR 02/M02 A3031 -40 72 -1500 010/05 RMK AO2 $
63870K0J4 0J420160104234010201/04/16 23:40:31  5-MIN K0J4 050440Z AUTO 01004KT 10SM CLR 02/M02 A3032 -40 72 -1500 010/04 RMK AO2 $
63870K0J4 0J420160104234510201/04/16 23:45:31  5-MIN K0J4 050445Z AUTO 01004KT 10SM CLR 02/M02 A3032 -40 72 -1500 010/04 RMK AO2 $
63870K0J4 0J420160104235010201/04/16 23:50:31  5-MIN K0J4 050450Z AUTO 36005KT 10SM CLR 02/M02 A3031 -40 75 -1600 360/05 RMK AO2 $
63870K0J4 0J420160104235512901/04/16 23:55:31  5-MIN K0J4 050455Z AUTO 01005KT 10SM CLR 02/M02 A3031 -40 72 -1500 010/05 RMK AO2 SLP265 T00221022 401220017 $
63870K0J4 0J420160105000010201/05/16 00:00:31  5-MIN K0J4 050500Z AUTO 01006KT 10SM CLR 02/M02 A3031 -40 75 -1600 010/06 RMK AO2 $
63870K0J4 0J420160105000510201/05/16 00:05:31  5-MIN K0J4 050505Z AUTO 01004KT 10SM CLR 02/M02 A3031 -40 75 -1600 010/04 RMK AO2 $
63870K0J4 0J420160105001010201/05/16 00:10:31  5-MIN K0J4 050510Z AUTO 01004KT 10SM CLR 02/M02 A3031 -40 75 -1600 010/04 RMK AO2 $
63870K0J4 0J420160105001510201/05/16 00:15:31  5-MIN K0J4 050515Z AUTO 01003KT 10SM CLR 01/M02 A3031 -40 78 -1700 010/03 RMK AO2 $
63870K0J4 0J420160105002010201/05/16 00:20:31  5-MIN K0J4 050520Z AUTO 01004KT 10SM CLR 02/M02 A3031 -40 75 -1600 010/04 RMK AO2 $
63870K0J4 0J420160105002510201/05/16 00:25:31  5-MIN K0J4 050525Z AUTO 01003KT 10SM CLR 02/M02 A3032 -40 75 -1600 010/03 RMK AO2 $
63870K0J4 0J420160105003010201/05/16 00:30:31  5-MIN K0J4 050530Z AUTO 01004KT 10SM CLR 01/M02 A3032 -40 78 -1700 010/04 RMK AO2 $
63870K0J4 0J420160105003510201/05/16 00:35:31  5-MIN K0J4 050535Z AUTO 01003KT 10SM CLR 01/M02 A3032 -40 78 -1700 010/03 RMK AO2 $
63870K0J4 0J420160105004010201/05/16 00:40:31  5-MIN K0J4 050540Z AUTO 02003KT 10SM CLR 01/M03 A3032 -40 75 -1700 020/03 RMK AO2 $
63870K0J4 0J420160105004510201/05/16 00:45:31  5-MIN K0J4 050545Z AUTO 02003KT 10SM CLR 01/M03 A3032 -50 78 -1700 020/03 RMK AO2 $
63870K0J4 0J420160105005010201/05/16 00:50:31  5-MIN K0J4 050550Z AUTO 02003KT 10SM CLR 01/M03 A3032 -50 78 -1700 020/03 RMK AO2 $
63870K0J4 0J420160105005513701/05/16 00:55:31  5-MIN K0J4 050555Z AUTO 00000KT 10SM CLR 01/M03 A3032 -50 78 -1700 000/00 RMK AO2 SLP267 T00061028 10067 20006 51019 $
63870K0J4 0J420160105010010201/05/16 01:00:31  5-MIN K0J4 050600Z AUTO 00000KT 10SM CLR 01/M02 A3032 -50 82 -1700 000/00 RMK AO2 $
63870K0J4 0J420160105010510201/05/16 01:05:31  5-MIN K0J4 050605Z AUTO 00000KT 10SM CLR 01/M02 A3032 -50 82 -1700 000/00 RMK AO2 $
63870K0J4 0J420160105011010201/05/16 01:10:31  5-MIN K0J4 050610Z AUTO 01003KT 10SM CLR 01/M02 A3032 -50 82 -1700 010/03 RMK AO2 $
63870K0J4 0J420160105011510201/05/16 01:15:31  5-MIN K0J4 050615Z AUTO 02003KT 10SM CLR 00/M02 A3032 -50 85 -1800 020/03 RMK AO2 $
63870K0J4 0J420160105012010201/05/16 01:20:31  5-MIN K0J4 050620Z AUTO 02004KT 10SM CLR 00/M03 A3032 -50 81 -1800 020/04 RMK AO2 $
63870K0J4 0J420160105012510201/05/16 01:25:31  5-MIN K0J4 050625Z AUTO 01004KT 10SM CLR 00/M03 A3032 -50 81 -1800 010/04 RMK AO2 $
63870K0J4 0J420160105013010201/05/16 01:30:31  5-MIN K0J4 050630Z AUTO 01003KT 10SM CLR 00/M03 A3032 -50 81 -1800 010/03 RMK AO2 $
63870K0J4 0J420160105013510201/05/16 01:35:31  5-MIN K0J4 050635Z AUTO 01004KT 10SM CLR 01/M03 A3032 -50 78 -1700 010/04 RMK AO2 $
63870K0J4 0J420160105014010201/05/16 01:40:31  5-MIN K0J4 050640Z AUTO 01004KT 10SM CLR 01/M03 A3032 -50 78 -1700 010/04 RMK AO2 $
63870K0J4 0J420160105014510201/05/16 01:45:31  5-MIN K0J4 050645Z AUTO 01005KT 10SM CLR 01/M03 A3032 -50 78 -1700 010/05 RMK AO2 $
63870K0J4 0J420160105015010201/05/16 01:50:31  5-MIN K0J4 050650Z AUTO 01004KT 10SM CLR 01/M03 A3033 -50 78 -1700 010/04 RMK AO2 $
63870K0J4 0J420160105015511901/05/16 01:55:31  5-MIN K0J4 050655Z AUTO 02003KT 10SM CLR 00/M03 A3033 -50 81 -1800 020/03 RMK AO2 SLP269 T00001028 $
63870K0J4 0J420160105020010201/05/16 02:00:31  5-MIN K0J4 050700Z AUTO 02003KT 10SM CLR 00/M03 A3033 -50 81 -1800 020/03 RMK AO2 $
63870K0J4 0J420160105020510301/05/16 02:05:31  5-MIN K0J4 050705Z AUTO 02004KT 10SM CLR M01/M03 A3033 -60 85 -1900 020/04 RMK AO2 $
63870K0J4 0J420160105021010301/05/16 02:10:31  5-MIN K0J4 050710Z AUTO 02003KT 10SM CLR M01/M03 A3033 -60 85 -1900 020/03 RMK AO2 $
63870K0J4 0J420160105021510301/05/16 02:15:31  5-MIN K0J4 050715Z AUTO 02003KT 10SM CLR M01/M03 A3033 -60 85 -1900 020/03 RMK AO2 $
63870K0J4 0J420160105022010301/05/16 02:20:31  5-MIN K0J4 050720Z AUTO 02004KT 10SM CLR M01/M03 A3033 -60 85 -1900 020/04 RMK AO2 $
63870K0J4 0J420160105022510301/05/16 02:25:31  5-MIN K0J4 050725Z AUTO 02004KT 10SM CLR M01/M03 A3034 -60 81 -1900 020/04 RMK AO2 $
63870K0J4 0J420160105023010301/05/16 02:30:31  5-MIN K0J4 050730Z AUTO 02005KT 10SM CLR M01/M03 A3034 -60 81 -1900 020/05 RMK AO2 $
63870K0J4 0J420160105023510201/05/16 02:35:31  5-MIN K0J4 050735Z AUTO 02005KT 10SM CLR 00/M03 A3034 -60 78 -1800 020/05 RMK AO2 $
63870K0J4 0J420160105024010201/05/16 02:40:31  5-MIN K0J4 050740Z AUTO 02005KT 10SM CLR 00/M03 A3034 -60 78 -1800 020/05 RMK AO2 $
63870K0J4 0J420160105024510201/05/16 02:45:31  5-MIN K0J4 050745Z AUTO 02006KT 10SM CLR 00/M03 A3034 -70 78 -1800 020/06 RMK AO2 $
63870K0J4 0J420160105025010201/05/16 02:50:31  5-MIN K0J4 050750Z AUTO 02006KT 10SM CLR 00/M03 A3034 -70 78 -1800 020/06 RMK AO2 $
63870K0J4 0J420160105025511901/05/16 02:55:31  5-MIN K0J4 050755Z AUTO 02006KT 10SM CLR 00/M03 A3034 -70 78 -1800 020/06 RMK AO2 SLP275 T00001033 $
63870K0J4 0J420160105030010201/05/16 03:00:31  5-MIN K0J4 050800Z AUTO 02005KT 10SM CLR 00/M03 A3034 -70 78 -1800 020/05 RMK AO2 $
63870K0J4 0J420160105030510301/05/16 03:05:31  5-MIN K0J4 050805Z AUTO 02005KT 10SM CLR M01/M03 A3034 -70 81 -1900 020/05 RMK AO2 $
63870K0J4 0J420160105031010301/05/16 03:10:31  5-MIN K0J4 050810Z AUTO 02007KT 10SM CLR M01/M03 A3034 -70 81 -1900 020/07 RMK AO2 $
63870K0J4 0J420160105031510301/05/16 03:15:31  5-MIN K0J4 050815Z AUTO 02006KT 10SM CLR M01/M03 A3034 -70 81 -1900 020/06 RMK AO2 $
63870K0J4 0J420160105032010201/05/16 03:20:31  5-MIN K0J4 050820Z AUTO 02006KT 10SM CLR 00/M03 A3034 -70 78 -1800 020/06 RMK AO2 $
63870K0J4 0J420160105032510201/05/16 03:25:31  5-MIN K0J4 050825Z AUTO 02006KT 10SM CLR 00/M03 A3035 -70 78 -1800 020/06 RMK AO2 $
63870K0J4 0J420160105033010201/05/16 03:30:31  5-MIN K0J4 050830Z AUTO 02005KT 10SM CLR 00/M03 A3035 -70 78 -1800 020/05 RMK AO2 $
63870K0J4 0J420160105033510301/05/16 03:35:31  5-MIN K0J4 050835Z AUTO 02006KT 10SM CLR M01/M04 A3035 -70 78 -1900 020/06 RMK AO2 $
63870K0J4 0J420160105034010301/05/16 03:40:31  5-MIN K0J4 050840Z AUTO 02005KT 10SM CLR M01/M04 A3035 -70 78 -1900 020/05 RMK AO2 $
63870K0J4 0J420160105034510301/05/16 03:45:31  5-MIN K0J4 050845Z AUTO 02005KT 10SM CLR M01/M04 A3035 -70 78 -1900 020/05 RMK AO2 $
63870K0J4 0J420160105035010301/05/16 03:50:31  5-MIN K0J4 050850Z AUTO 02005KT 10SM CLR M01/M04 A3035 -70 78 -1900 020/05 RMK AO2 $
63870K0J4 0J420160105035512601/05/16 03:55:31  5-MIN K0J4 050855Z AUTO 02004KT 10SM CLR M01/M04 A3035 -80 78 -1900 020/04 RMK AO2 SLP279 T10061039 51008 $
63870K0J4 0J420160105040010301/05/16 04:00:31  5-MIN K0J4 050900Z AUTO 02004KT 10SM CLR M01/M04 A3035 -80 78 -1900 020/04 RMK AO2 $
63870K0J4 0J420160105040510301/05/16 04:05:31  5-MIN K0J4 050905Z AUTO 02004KT 10SM CLR M01/M04 A3036 -80 78 -1900 020/04 RMK AO2 $
63870K0J4 0J420160105041010301/05/16 04:10:31  5-MIN K0J4 050910Z AUTO 02005KT 10SM CLR M01/M04 A3035 -80 81 -2000 020/05 RMK AO2 $
63870K0J4 0J420160105041510301/05/16 04:15:31  5-MIN K0J4 050915Z AUTO 02004KT 10SM CLR M01/M04 A3036 -80 81 -2000 020/04 RMK AO2 $
63870K0J4 0J420160105042010301/05/16 04:20:31  5-MIN K0J4 050920Z AUTO 02004KT 10SM CLR M01/M04 A3036 -80 81 -2000 020/04 RMK AO2 $
63870K0J4 0J420160105042510301/05/16 04:25:31  5-MIN K0J4 050925Z AUTO 01004KT 10SM CLR M01/M04 A3036 -80 81 -2000 010/04 RMK AO2 $
63870K0J4 0J420160105043010301/05/16 04:30:31  5-MIN K0J4 050930Z AUTO 01004KT 10SM CLR M01/M04 A3036 -80 81 -2000 010/04 RMK AO2 $
63870K0J4 0J420160105043510301/05/16 04:35:31  5-MIN K0J4 050935Z AUTO 02004KT 10SM CLR M01/M04 A3036 -80 81 -2000 020/04 RMK AO2 $
63870K0J4 0J420160105044010301/05/16 04:40:31  5-MIN K0J4 050940Z AUTO 01004KT 10SM CLR M01/M04 A3036 -80 81 -2000 010/04 RMK AO2 $
63870K0J4 0J420160105044510301/05/16 04:45:31  5-MIN K0J4 050945Z AUTO 01004KT 10SM CLR M01/M04 A3036 -90 81 -2000 010/04 RMK AO2 $
63870K0J4 0J420160105045010301/05/16 04:50:31  5-MIN K0J4 050950Z AUTO 01004KT 10SM CLR M01/M04 A3036 -90 81 -2000 010/04 RMK AO2 $
63870K0J4 0J420160105045512001/05/16 04:55:31  5-MIN K0J4 050955Z AUTO 01004KT 10SM CLR M01/M04 A3037 -90 81 -2000 010/04 RMK AO2 SLP284 T10111039 $
63870K0J4 0J420160105050010301/05/16 05:00:31  5-MIN K0J4 051000Z AUTO 02004KT 10SM CLR M01/M04 A3037 -90 81 -2000 020/04 RMK AO2 $
63870K0J4 0J420160105050510301/05/16 05:05:31  5-MIN K0J4 051005Z AUTO 02004KT 10SM CLR M01/M04 A3037 -90 81 -2000 020/04 RMK AO2 $
63870K0J4 0J420160105051010301/05/16 05:10:31  5-MIN K0J4 051010Z AUTO 02005KT 10SM CLR M02/M04 A3037 -90 85 -2100 020/05 RMK AO2 $
63870K0J4 0J420160105051510301/05/16 05:15:31  5-MIN K0J4 051015Z AUTO 02005KT 10SM CLR M01/M04 A3037 -90 81 -2000 020/05 RMK AO2 $
63870K0J4 0J420160105052010301/05/16 05:20:31  5-MIN K0J4 051020Z AUTO 02004KT 10SM CLR M01/M04 A3037 -90 81 -2000 020/04 RMK AO2 $
63870K0J4 0J420160105052510301/05/16 05:25:31  5-MIN K0J4 051025Z AUTO 02004KT 10SM CLR M01/M04 A3037 -90 81 -2000 020/04 RMK AO2 $
63870K0J4 0J420160105053010301/05/16 05:30:31  5-MIN K0J4 051030Z AUTO 02005KT 10SM CLR M01/M04 A3037 -90 81 -2000 020/05 RMK AO2 $
63870K0J4 0J420160105053510301/05/16 05:35:31  5-MIN K0J4 051035Z AUTO 02005KT 10SM CLR M01/M04 A3037 -90 81 -2000 020/05 RMK AO2 $
63870K0J4 0J420160105054010401/05/16 05:40:31  5-MIN K0J4 051040Z AUTO 02004KT 10SM CLR M01/M04 A3037 -100 78 -2000 020/04 RMK AO2 $
63870K0J4 0J420160105054510401/05/16 05:45:31  5-MIN K0J4 051045Z AUTO 03005KT 10SM CLR M01/M04 A3038 -100 78 -2000 030/05 RMK AO2 $
63870K0J4 0J420160105055010401/05/16 05:50:31  5-MIN K0J4 051050Z AUTO 03005KT 10SM CLR M02/M04 A3038 -100 81 -2100 030/05 RMK AO2 $
63870K0J4 0J420160105055512101/05/16 05:55:31  5-MIN K0J4 051055Z AUTO 03005KT 10SM CLR M02/M04 A3038 -110 81 -2100 030/05 RMK AO2 SLP290 T10171044 $
63870K0J4 0J420160105060010401/05/16 06:00:31  5-MIN K0J4 051100Z AUTO 03005KT 10SM CLR M01/M04 A3039 -110 78 -2000 030/05 RMK AO2 $
63870K0J4 0J420160105060510401/05/16 06:05:31  5-MIN K0J4 051105Z AUTO 03005KT 10SM CLR M01/M04 A3039 -110 81 -2000 030/05 RMK AO2 $
63870K0J4 0J420160105061010401/05/16 06:10:31  5-MIN K0J4 051110Z AUTO 03005KT 10SM CLR M01/M04 A3039 -110 81 -2000 030/05 RMK AO2 $
63870K0J4 0J420160105061510401/05/16 06:15:31  5-MIN K0J4 051115Z AUTO 04005KT 10SM CLR M02/M04 A3040 -120 81 -2100 040/05 RMK AO2 $
63870K0J4 0J420160105062010401/05/16 06:20:31  5-MIN K0J4 051120Z AUTO 03005KT 10SM CLR M01/M04 A3040 -120 78 -2000 030/05 RMK AO2 $
63870K0J4 0J420160105062510401/05/16 06:25:31  5-MIN K0J4 051125Z AUTO 04005KT 10SM CLR M01/M04 A3040 -120 78 -2000 040/05 RMK AO2 $
63870K0J4 0J420160105063010401/05/16 06:30:31  5-MIN K0J4 051130Z AUTO 04004KT 10SM CLR M01/M04 A3040 -120 78 -2000 040/04 RMK AO2 $
63870K0J4 0J420160105063510401/05/16 06:35:31  5-MIN K0J4 051135Z AUTO 04004KT 10SM CLR M01/M04 A3040 -120 78 -2000 040/04 RMK AO2 $
63870K0J4 0J420160105064010401/05/16 06:40:31  5-MIN K0J4 051140Z AUTO 04004KT 10SM CLR M01/M04 A3040 -120 78 -2000 040/04 RMK AO2 $
63870K0J4 0J420160105064510401/05/16 06:45:31  5-MIN K0J4 051145Z AUTO 05004KT 10SM CLR M01/M04 A3040 -120 78 -2000 050/04 RMK AO2 $
63870K0J4 0J420160105065010401/05/16 06:50:31  5-MIN K0J4 051150Z AUTO 04005KT 10SM CLR M01/M04 A3040 -120 78 -2000 040/05 RMK AO2 $
63870K0J4 0J420160105065513901/05/16 06:55:31  5-MIN K0J4 051155Z AUTO 05005KT 10SM CLR M01/M04 A3040 -120 78 -2000 050/05 RMK AO2 SLP295 T10111044 10006 21017 53010 $
63870K0J4 0J420160105070010401/05/16 07:00:31  5-MIN K0J4 051200Z AUTO 05005KT 10SM CLR M01/M04 A3040 -120 81 -2000 050/05 RMK AO2 $
63870K0J4 0J420160105070510401/05/16 07:05:31  5-MIN K0J4 051205Z AUTO 05006KT 10SM CLR M01/M04 A3040 -120 78 -2000 050/06 RMK AO2 $
63870K0J4 0J420160105071010401/05/16 07:10:31  5-MIN K0J4 051210Z AUTO 05006KT 10SM CLR M01/M04 A3040 -120 81 -2000 050/06 RMK AO2 $
63870K0J4 0J420160105071510401/05/16 07:15:31  5-MIN K0J4 051215Z AUTO 05007KT 10SM CLR M01/M04 A3041 -120 78 -2000 050/07 RMK AO2 $
63870K0J4 0J420160105072010401/05/16 07:20:31  5-MIN K0J4 051220Z AUTO 05007KT 10SM CLR M01/M04 A3040 -120 78 -2000 050/07 RMK AO2 $
63870K0J4 0J420160105072510401/05/16 07:25:31  5-MIN K0J4 051225Z AUTO 05005KT 10SM CLR M01/M04 A3040 -120 78 -2000 050/05 RMK AO2 $
63870K0J4 0J420160105073010401/05/16 07:30:31  5-MIN K0J4 051230Z AUTO 05006KT 10SM CLR M01/M04 A3040 -120 75 -2000 050/06 RMK AO2 $
63870K0J4 0J420160105073510401/05/16 07:35:31  5-MIN K0J4 051235Z AUTO 06006KT 10SM CLR M01/M04 A3040 -120 75 -2000 060/06 RMK AO2 $
63870K0J4 0J420160105074010401/05/16 07:40:31  5-MIN K0J4 051240Z AUTO 06007KT 10SM CLR M01/M04 A3040 -120 78 -2000 060/07 RMK AO2 $
63870K0J4 0J420160105074510401/05/16 07:45:31  5-MIN K0J4 051245Z AUTO 06007KT 10SM CLR M01/M04 A3041 -120 75 -2000 060/07 RMK AO2 $
63870K0J4 0J420160105075010401/05/16 07:50:31  5-MIN K0J4 051250Z AUTO 06007KT 10SM CLR M01/M04 A3041 -120 75 -2000 060/07 RMK AO2 $
63870K0J4 0J420160105075512101/05/16 07:55:31  5-MIN K0J4 051255Z AUTO 06006KT 10SM CLR M01/M04 A3041 -120 75 -2000 060/06 RMK AO2 SLP297 T10061044 $
63870K0J4 0J420160105080010401/05/16 08:00:31  5-MIN K0J4 051300Z AUTO 06009KT 10SM CLR M01/M04 A3041 -120 78 -2000 060/09 RMK AO2 $
63870K0J4 0J420160105080510301/05/16 08:05:31  5-MIN K0J4 051305Z AUTO 06007KT 10SM CLR 00/M04 A3041 -130 75 -1900 060/07 RMK AO2 $
63870K0J4 0J420160105081010301/05/16 08:10:31  5-MIN K0J4 051310Z AUTO 06007KT 10SM CLR 00/M04 A3041 -130 75 -1900 060/07 RMK AO2 $
63870K0J4 0J420160105081510301/05/16 08:15:31  5-MIN K0J4 051315Z AUTO 06007KT 10SM CLR 00/M04 A3041 -130 75 -1900 060/07 RMK AO2 $
63870K0J4 0J420160105082010301/05/16 08:20:31  5-MIN K0J4 051320Z AUTO 06008KT 10SM CLR 01/M04 A3042 -140 72 -1900 060/08 RMK AO2 $
63870K0J4 0J420160105082510301/05/16 08:25:31  5-MIN K0J4 051325Z AUTO 06009KT 10SM CLR 01/M04 A3042 -140 72 -1900 060/09 RMK AO2 $
63870K0J4 0J420160105083010301/05/16 08:30:31  5-MIN K0J4 051330Z AUTO 06007KT 10SM CLR 01/M04 A3043 -140 72 -1900 060/07 RMK AO2 $
63870K0J4 0J420160105083510301/05/16 08:35:31  5-MIN K0J4 051335Z AUTO 06008KT 10SM CLR 01/M04 A3043 -140 72 -1900 060/08 RMK AO2 $
63870K0J4 0J420160105084010301/05/16 08:40:31  5-MIN K0J4 051340Z AUTO 07009KT 10SM CLR 01/M04 A3043 -150 69 -1800 070/09 RMK AO2 $
63870K0J4 0J420160105084510301/05/16 08:45:31  5-MIN K0J4 051345Z AUTO 07010KT 10SM CLR 01/M04 A3043 -150 69 -1800 070/10 RMK AO2 $
63870K0J4 0J420160105085010301/05/16 08:50:31  5-MIN K0J4 051350Z AUTO 06010KT 10SM CLR 01/M04 A3043 -150 69 -1800 060/10 RMK AO2 $
63870K0J4 0J420160105085512001/05/16 08:55:31  5-MIN K0J4 051355Z AUTO 07008KT 10SM CLR 02/M04 A3044 -150 66 -1700 070/08 RMK AO2 SLP307 T00171039 $
63870K0J4 0J420160105090010901/05/16 09:00:31  5-MIN K0J4 051400Z AUTO 08011G17KT 10SM CLR 02/M04 A3044 -150 64 -1700 080/11G17 RMK AO2 $
63870K0J4 0J420160105090510901/05/16 09:05:31  5-MIN K0J4 051405Z AUTO 07013G18KT 10SM CLR 02/M04 A3044 -160 64 -1700 070/13G18 RMK AO2 $
63870K0J4 0J420160105091010901/05/16 09:10:31  5-MIN K0J4 051410Z AUTO 07010G18KT 10SM CLR 02/M04 A3044 -160 64 -1700 070/10G18 RMK AO2 $
63870K0J4 0J420160105091510901/05/16 09:15:31  5-MIN K0J4 051415Z AUTO 08013G17KT 10SM CLR 02/M04 A3045 -160 64 -1700 080/13G17 RMK AO2 $
63870K0J4 0J420160105092010901/05/16 09:20:31  5-MIN K0J4 051420Z AUTO 08009G17KT 10SM CLR 02/M04 A3045 -170 61 -1700 080/09G17 RMK AO2 $
63870K0J4 0J420160105092510901/05/16 09:25:31  5-MIN K0J4 051425Z AUTO 08009G17KT 10SM CLR 03/M04 A3045 -170 59 -1600 080/09G17 RMK AO2 $
63870K0J4 0J420160105093010901/05/16 09:30:31  5-MIN K0J4 051430Z AUTO 08009G17KT 10SM CLR 03/M04 A3046 -170 59 -1600 080/09G17 RMK AO2 $
63870K0J4 0J420160105093510301/05/16 09:35:31  5-MIN K0J4 051435Z AUTO 08012KT 10SM CLR 03/M04 A3046 -170 59 -1600 080/12 RMK AO2 $
63870K0J4 0J420160105094010301/05/16 09:40:31  5-MIN K0J4 051440Z AUTO 08010KT 10SM CLR 03/M05 A3046 -170 54 -1600 080/10 RMK AO2 $
63870K0J4 0J420160105094510901/05/16 09:45:31  5-MIN K0J4 051445Z AUTO 07012G18KT 10SM CLR 03/M04 A3046 -180 57 -1600 070/12G18 RMK AO2 $
63870K0J4 0J420160105095010901/05/16 09:50:31  5-MIN K0J4 051450Z AUTO 07013G19KT 10SM CLR 03/M05 A3046 -180 54 -1600 070/13G19 RMK AO2 $
63870K0J4 0J420160105095513201/05/16 09:55:31  5-MIN K0J4 051455Z AUTO 08013G19KT 10SM CLR 04/M05 A3046 -170 52 -1500 080/13G19 RMK AO2 SLP315 T00391050 51016 $
63870K0J4 0J420160105100010301/05/16 10:00:31  5-MIN K0J4 051500Z AUTO 08011KT 10SM CLR 04/M05 A3046 -180 52 -1500 080/11 RMK AO2 $
63870K0J4 0J420160105100510301/05/16 10:05:31  5-MIN K0J4 051505Z AUTO 08011KT 10SM CLR 04/M05 A3046 -180 52 -1500 080/11 RMK AO2 $
63870K0J4 0J420160105101010901/05/16 10:10:31  5-MIN K0J4 051510Z AUTO 07010G17KT 10SM CLR 04/M05 A3046 -180 50 -1400 070/10G17 RMK AO2 $
63870K0J4 0J420160105101510301/05/16 10:15:31  5-MIN K0J4 051515Z AUTO 07012KT 10SM CLR 04/M05 A3046 -170 50 -1400 070/12 RMK AO2 $
63870K0J4 0J420160105102010901/05/16 10:20:31  5-MIN K0J4 051520Z AUTO 07013G17KT 10SM CLR 04/M05 A3046 -180 50 -1400 070/13G17 RMK AO2 $
63870K0J4 0J420160105102510901/05/16 10:25:31  5-MIN K0J4 051525Z AUTO 09010G18KT 10SM CLR 04/M05 A3046 -180 50 -1400 090/10G18 RMK AO2 $
63870K0J4 0J420160105103010901/05/16 10:30:31  5-MIN K0J4 051530Z AUTO 08011G18KT 10SM CLR 05/M06 A3046 -180 46 -1300 080/11G18 RMK AO2 $
63870K0J4 0J420160105103510901/05/16 10:35:31  5-MIN K0J4 051535Z AUTO 07014G19KT 10SM CLR 05/M05 A3047 -180 48 -1300 070/14G19 RMK AO2 $
63870K0J4 0J420160105104010901/05/16 10:40:31  5-MIN K0J4 051540Z AUTO 09012G19KT 10SM CLR 05/M06 A3047 -180 46 -1400 090/12G19 RMK AO2 $
63870K0J4 0J420160105104510901/05/16 10:45:31  5-MIN K0J4 051545Z AUTO 09012G19KT 10SM CLR 05/M06 A3047 -180 46 -1400 090/12G19 RMK AO2 $
63870K0J4 0J420160105105010901/05/16 10:50:31  5-MIN K0J4 051550Z AUTO 07013G17KT 10SM CLR 06/M06 A3046 -180 44 -1300 070/13G17 RMK AO2 $
63870K0J4 0J420160105105512601/05/16 10:55:31  5-MIN K0J4 051555Z AUTO 07012G17KT 10SM CLR 05/M06 A3046 -180 46 -1300 070/12G17 RMK AO2 SLP316 T00501056 $
63870K0J4 0J420160105110010901/05/16 11:00:31  5-MIN K0J4 051600Z AUTO 07012G18KT 10SM CLR 06/M06 A3046 -180 44 -1300 070/12G18 RMK AO2 $
63870K0J4 0J420160105110510901/05/16 11:05:31  5-MIN K0J4 051605Z AUTO 09012G18KT 10SM CLR 06/M06 A3046 -180 44 -1300 090/12G18 RMK AO2 $
63870K0J4 0J420160105111010901/05/16 11:10:31  5-MIN K0J4 051610Z AUTO 08011G17KT 10SM CLR 06/M06 A3046 -180 44 -1300 080/11G17 RMK AO2 $
63870K0J4 0J420160105111510301/05/16 11:15:31  5-MIN K0J4 051615Z AUTO 09010KT 10SM CLR 06/M06 A3046 -180 43 -1300 090/10 RMK AO2 $
63870K0J4 0J420160105112010301/05/16 11:20:31  5-MIN K0J4 051620Z AUTO 07011KT 10SM CLR 06/M06 A3046 -170 43 -1200 070/11 RMK AO2 $
63870K0J4 0J420160105112510301/05/16 11:25:31  5-MIN K0J4 051625Z AUTO 08011KT 10SM CLR 06/M06 A3046 -170 43 -1200 080/11 RMK AO2 $
63870K0J4 0J420160105113010301/05/16 11:30:31  5-MIN K0J4 051630Z AUTO 07012KT 10SM CLR 06/M06 A3046 -170 43 -1200 070/12 RMK AO2 $
63870K0J4 0J420160105113510301/05/16 11:35:31  5-MIN K0J4 051635Z AUTO 08011KT 10SM CLR 06/M06 A3045 -170 41 -1200 080/11 RMK AO2 $
63870K0J4 0J420160105114012501/05/16 11:40:31  5-MIN K0J4 051640Z AUTO 09009G16KT 060V130 10SM CLR 06/M06 A3045 -170 43 -1200 090/09G16 060V130 RMK AO2 $
63870K0J4 0J420160105114510901/05/16 11:45:31  5-MIN K0J4 051645Z AUTO 08011G16KT 10SM CLR 07/M06 A3045 -160 41 -1100 080/11G16 RMK AO2 $
63870K0J4 0J420160105115010901/05/16 11:50:31  5-MIN K0J4 051650Z AUTO 10008G16KT 10SM CLR 07/M06 A3044 -160 41 -1100 100/08G16 RMK AO2 $
63870K0J4 0J420160105115512601/05/16 11:55:31  5-MIN K0J4 051655Z AUTO 08009G15KT 10SM CLR 07/M06 A3044 -160 41 -1100 080/09G15 RMK AO2 SLP309 T00671056 $
63870K0J4 0J420160105120010901/05/16 12:00:31  5-MIN K0J4 051700Z AUTO 08010G15KT 10SM CLR 07/M06 A3044 -150 41 -1100 080/10G15 RMK AO2 $
63870K0J4 0J420160105120510301/05/16 12:05:31  5-MIN K0J4 051705Z AUTO 06009KT 10SM CLR 07/M05 A3043 -150 43 -1100 060/09 RMK AO2 $
63870K0J4 0J420160105121010301/05/16 12:10:31  5-MIN K0J4 051710Z AUTO 07011KT 10SM CLR 07/M06 A3043 -150 41 -1100 070/11 RMK AO2 $
63870K0J4 0J420160105121511901/05/16 12:15:31  5-MIN K0J4 051715Z AUTO 06009KT 030V090 10SM CLR 07/M06 A3043 -140 41 -1100 060/09 030V090 RMK AO2 $
63870K0J4 0J420160105122010301/05/16 12:20:31  5-MIN K0J4 051720Z AUTO 06009KT 10SM CLR 07/M06 A3042 -140 41 -1100 060/09 RMK AO2 $
63870K0J4 0J420160105122510301/05/16 12:25:31  5-MIN K0J4 051725Z AUTO 09009KT 10SM CLR 07/M06 A3042 -140 40 -1000 090/09 RMK AO2 $
63870K0J4 0J420160105123010301/05/16 12:30:31  5-MIN K0J4 051730Z AUTO 08009KT 10SM CLR 07/M06 A3042 -140 40 -1000 080/09 RMK AO2 $
63870K0J4 0J420160105123510901/05/16 12:35:31  5-MIN K0J4 051735Z AUTO 07011G15KT 10SM CLR 07/M05 A3042 -130 41 -1000 070/11G15 RMK AO2 $
63870K0J4 0J420160105124010301/05/16 12:40:31  5-MIN K0J4 051740Z AUTO 04009KT 10SM CLR 07/M06 A3041 -130 38 -1000 040/09 RMK AO2 $
63870K0J4 0J420160105124510301/05/16 12:45:31  5-MIN K0J4 051745Z AUTO 09010KT 10SM CLR 07/M06 A3041 -130 38 -1000 090/10 RMK AO2 $
63870K0J4 0J420160105125010801/05/16 12:50:31  5-MIN K0J4 051750Z AUTO 06011G16KT 10SM CLR 08/M06 A3041 -130 36 -900 060/11G16 RMK AO2 $
63870K0J4 0J420160105125514301/05/16 12:55:31  5-MIN K0J4 051755Z AUTO 05009G16KT 10SM CLR 08/M06 A3040 -120 36 -900 050/09G16 RMK AO2 SLP295 T00781061 10078 21011 53020 $
63870K0J4 0J420160105130010201/05/16 13:00:31  5-MIN K0J4 051800Z AUTO 08008KT 10SM CLR 08/M06 A3040 -120 38 -900 080/08 RMK AO2 $
63870K0J4 0J420160105130510201/05/16 13:05:31  5-MIN K0J4 051805Z AUTO 05010KT 10SM CLR 08/M06 A3039 -110 35 -900 050/10 RMK AO2 $
63870K0J4 0J420160105131010801/05/16 13:10:31  5-MIN K0J4 051810Z AUTO 08011G16KT 10SM CLR 08/M06 A3039 -110 35 -900 080/11G16 RMK AO2 $
63870K0J4 0J420160105131510801/05/16 13:15:31  5-MIN K0J4 051815Z AUTO 05008G17KT 10SM CLR 08/M07 A3039 -110 35 -900 050/08G17 RMK AO2 $
63870K0J4 0J420160105132010801/05/16 13:20:31  5-MIN K0J4 051820Z AUTO 08011G17KT 10SM CLR 08/M07 A3039 -110 34 -900 080/11G17 RMK AO2 $
63870K0J4 0J420160105132510201/05/16 13:25:31  5-MIN K0J4 051825Z AUTO 07010KT 10SM CLR 08/M07 A3039 -110 34 -900 070/10 RMK AO2 $
63870K0J4 0J420160105133010201/05/16 13:30:31  5-MIN K0J4 051830Z AUTO 08006KT 10SM CLR 08/M08 A3039 -110 32 -900 080/06 RMK AO2 $
63870K0J4 0J420160105133510201/05/16 13:35:31  5-MIN K0J4 051835Z AUTO 05011KT 10SM CLR 08/M07 A3039 -110 32 -900 050/11 RMK AO2 $
63870K0J4 0J420160105134010801/05/16 13:40:31  5-MIN K0J4 051840Z AUTO 09007G14KT 10SM CLR 08/M08 A3038 -100 32 -900 090/07G14 RMK AO2 $
63870K0J4 0J420160105134510801/05/16 13:45:31  5-MIN K0J4 051845Z AUTO 06009G17KT 10SM CLR 08/M07 A3038 -100 34 -800 060/09G17 RMK AO2 $
63870K0J4 0J420160105135010801/05/16 13:50:31  5-MIN K0J4 051850Z AUTO 03008G17KT 10SM CLR 08/M08 A3038 -100 31 -800 030/08G17 RMK AO2 $
63870K0J4 0J420160105135512501/05/16 13:55:31  5-MIN K0J4 051855Z AUTO 04009G15KT 10SM CLR 08/M08 A3038 -100 31 -800 040/09G15 RMK AO2 SLP288 T00831078 $
63870K0J4 0J420160105140010801/05/16 14:00:31  5-MIN K0J4 051900Z AUTO 04007G15KT 10SM CLR 08/M07 A3038 -100 32 -800 040/07G15 RMK AO2 $
63870K0J4 0J420160105140510201/05/16 14:05:31  5-MIN K0J4 051905Z AUTO 05011KT 10SM CLR 09/M07 A3038 -100 31 -800 050/11 RMK AO2 $
63870K0J4 0J420160105141010201/05/16 14:10:31  5-MIN K0J4 051910Z AUTO 04009KT 10SM CLR 09/M07 A3038 -100 31 -800 040/09 RMK AO2 $
63870K0J4 0J420160105141510201/05/16 14:15:31  5-MIN K0J4 051915Z AUTO 03010KT 10SM CLR 09/M08 A3038 -100 30 -800 030/10 RMK AO2 $
63870K0J4 0J420160105142010201/05/16 14:20:31  5-MIN K0J4 051920Z AUTO 06009KT 10SM CLR 09/M08 A3037 -100 30 -800 060/09 RMK AO2 $
63870K0J4 0J420160105142510101/05/16 14:25:31  5-MIN K0J4 051925Z AUTO 09008KT 10SM CLR 09/M08 A3037 -90 30 -800 090/08 RMK AO2 $
63870K0J4 0J420160105143010101/05/16 14:30:31  5-MIN K0J4 051930Z AUTO 08008KT 10SM CLR 09/M08 A3037 -90 30 -800 080/08 RMK AO2 $
63870K0J4 0J420160105143511701/05/16 14:35:31  5-MIN K0J4 051935Z AUTO 05007KT 010V090 10SM CLR 09/M07 A3037 -90 31 -800 050/07 010V090 RMK AO2 $
63870K0J4 0J420160105144010101/05/16 14:40:31  5-MIN K0J4 051940Z AUTO 07009KT 10SM CLR 09/M07 A3037 -90 31 -800 070/09 RMK AO2 $
63870K0J4 0J420160105144510101/05/16 14:45:31  5-MIN K0J4 051945Z AUTO 05007KT 10SM CLR 09/M07 A3037 -90 31 -800 050/07 RMK AO2 $
63870K0J4 0J420160105145010101/05/16 14:50:31  5-MIN K0J4 051950Z AUTO 04008KT 10SM CLR 09/M07 A3037 -90 31 -800 040/08 RMK AO2 $
63870K0J4 0J420160105145511801/05/16 14:55:31  5-MIN K0J4 051955Z AUTO 04009KT 10SM CLR 09/M07 A3037 -90 31 -800 040/09 RMK AO2 SLP284 T00891072 $
63870K0J4 0J420160105150010101/05/16 15:00:31  5-MIN K0J4 052000Z AUTO 05008KT 10SM CLR 09/M07 A3037 -90 31 -700 050/08 RMK AO2 $
63870K0J4 0J420160105150510101/05/16 15:05:31  5-MIN K0J4 052005Z AUTO 05007KT 10SM CLR 09/M07 A3037 -90 31 -800 050/07 RMK AO2 $
63870K0J4 0J420160105151010101/05/16 15:10:31  5-MIN K0J4 052010Z AUTO 03007KT 10SM CLR 09/M07 A3037 -90 31 -700 030/07 RMK AO2 $
63870K0J4 0J420160105151510101/05/16 15:15:31  5-MIN K0J4 052015Z AUTO 07007KT 10SM CLR 09/M07 A3037 -90 31 -700 070/07 RMK AO2 $
63870K0J4 0J420160105152010101/05/16 15:20:31  5-MIN K0J4 052020Z AUTO 08006KT 10SM CLR 09/M07 A3036 -90 30 -700 080/06 RMK AO2 $
63870K0J4 0J420160105152510101/05/16 15:25:31  5-MIN K0J4 052025Z AUTO 07008KT 10SM CLR 09/M07 A3036 -90 30 -700 070/08 RMK AO2 $
63870K0J4 0J420160105153010101/05/16 15:30:31  5-MIN K0J4 052030Z AUTO 05008KT 10SM CLR 09/M07 A3036 -80 31 -800 050/08 RMK AO2 $
63870K0J4 0J420160105153510101/05/16 15:35:31  5-MIN K0J4 052035Z AUTO 06009KT 10SM CLR 09/M07 A3036 -80 31 -800 060/09 RMK AO2 $
63870K0J4 0J420160105154010101/05/16 15:40:31  5-MIN K0J4 052040Z AUTO 03006KT 10SM CLR 09/M07 A3036 -80 31 -800 030/06 RMK AO2 $
63870K0J4 0J420160105154510101/05/16 15:45:31  5-MIN K0J4 052045Z AUTO 07007KT 10SM CLR 09/M08 A3036 -80 30 -800 070/07 RMK AO2 $
63870K0J4 0J420160105155010101/05/16 15:50:31  5-MIN K0J4 052050Z AUTO 07007KT 10SM CLR 09/M07 A3036 -90 31 -800 070/07 RMK AO2 $
63870K0J4 0J420160105155512401/05/16 15:55:31  5-MIN K0J4 052055Z AUTO 07004KT 10SM CLR 09/M07 A3036 -90 31 -800 070/04 RMK AO2 SLP283 T00891072 58021 $
63870K0J4 0J420160105160010101/05/16 16:00:31  5-MIN K0J4 052100Z AUTO VRB06KT 10SM CLR 09/M07 A3037 -90 31 -800 VRB/06 RMK AO2 $
63870K0J4 0J420160105160510101/05/16 16:05:31  5-MIN K0J4 052105Z AUTO 06008KT 10SM CLR 09/M07 A3037 -90 31 -800 060/08 RMK AO2 $
63870K0J4 0J420160105161010101/05/16 16:10:31  5-MIN K0J4 052110Z AUTO 04006KT 10SM CLR 09/M08 A3037 -90 30 -800 040/06 RMK AO2 $
63870K0J4 0J420160105161510101/05/16 16:15:31  5-MIN K0J4 052115Z AUTO 07007KT 10SM CLR 09/M07 A3037 -90 31 -800 070/07 RMK AO2 $
63870K0J4 0J420160105162010101/05/16 16:20:31  5-MIN K0J4 052120Z AUTO 07007KT 10SM CLR 09/M07 A3037 -90 31 -800 070/07 RMK AO2 $
63870K0J4 0J420160105162510101/05/16 16:25:31  5-MIN K0J4 052125Z AUTO 08009KT 10SM CLR 09/M07 A3037 -90 31 -800 080/09 RMK AO2 $
63870K0J4 0J420160105163010101/05/16 16:30:31  5-MIN K0J4 052130Z AUTO 07007KT 10SM CLR 09/M07 A3037 -90 31 -800 070/07 RMK AO2 $
63870K0J4 0J420160105163510101/05/16 16:35:31  5-MIN K0J4 052135Z AUTO 06008KT 10SM CLR 08/M07 A3037 -90 32 -800 060/08 RMK AO2 $
63870K0J4 0J420160105164010101/05/16 16:40:31  5-MIN K0J4 052140Z AUTO 05007KT 10SM CLR 08/M08 A3037 -90 31 -800 050/07 RMK AO2 $
63870K0J4 0J420160105164510201/05/16 16:45:31  5-MIN K0J4 052145Z AUTO 04007KT 10SM CLR 09/M08 A3037 -100 30 -800 040/07 RMK AO2 $
63870K0J4 0J420160105165010201/05/16 16:50:31  5-MIN K0J4 052150Z AUTO 07007KT 10SM CLR 08/M07 A3038 -100 32 -800 070/07 RMK AO2 $
63870K0J4 0J420160105165511901/05/16 16:55:31  5-MIN K0J4 052155Z AUTO 08009KT 10SM CLR 08/M07 A3038 -100 34 -800 080/09 RMK AO2 SLP287 T00831067 $
63870K0J4 0J420160105170010201/05/16 17:00:31  5-MIN K0J4 052200Z AUTO 07006KT 10SM CLR 08/M07 A3038 -100 34 -800 070/06 RMK AO2 $
63870K0J4 0J420160105170510201/05/16 17:05:31  5-MIN K0J4 052205Z AUTO 07006KT 10SM CLR 08/M07 A3038 -100 34 -800 070/06 RMK AO2 $
63870K0J4 0J420160105171010201/05/16 17:10:31  5-MIN K0J4 052210Z AUTO 07006KT 10SM CLR 08/M06 A3038 -100 35 -800 070/06 RMK AO2 $
63870K0J4 0J420160105171510201/05/16 17:15:31  5-MIN K0J4 052215Z AUTO 07005KT 10SM CLR 08/M06 A3038 -100 36 -900 070/05 RMK AO2 $
63870K0J4 0J420160105172010201/05/16 17:20:31  5-MIN K0J4 052220Z AUTO 07006KT 10SM CLR 08/M06 A3038 -100 36 -900 070/06 RMK AO2 $
63870K0J4 0J420160105172510301/05/16 17:25:31  5-MIN K0J4 052225Z AUTO 08006KT 10SM CLR 07/M06 A3038 -100 40 -1000 080/06 RMK AO2 $
63870K0J4 0J420160105173010301/05/16 17:30:31  5-MIN K0J4 052230Z AUTO 08003KT 10SM CLR 07/M06 A3038 -100 38 -1000 080/03 RMK AO2 $
63870K0J4 0J420160105173510301/05/16 17:35:31  5-MIN K0J4 052235Z AUTO VRB06KT 10SM CLR 07/M06 A3038 -100 41 -1100 VRB/06 RMK AO2 $
63870K0J4 0J420160105174010301/05/16 17:40:31  5-MIN K0J4 052240Z AUTO VRB06KT 10SM CLR 07/M05 A3038 -100 43 -1100 VRB/06 RMK AO2 $
63870K0J4 0J420160105174510301/05/16 17:45:31  5-MIN K0J4 052245Z AUTO 08004KT 10SM CLR 06/M05 A3038 -110 45 -1100 080/04 RMK AO2 $
63870K0J4 0J420160105175010301/05/16 17:50:31  5-MIN K0J4 052250Z AUTO 09003KT 10SM CLR 06/M05 A3039 -110 45 -1100 090/03 RMK AO2 $
63870K0J4 0J420160105175512001/05/16 17:55:31  5-MIN K0J4 052255Z AUTO 00000KT 10SM CLR 06/M05 A3039 -110 45 -1100 000/00 RMK AO2 SLP292 T00611050 $
63870K0J4 0J420160105180010301/05/16 18:00:31  5-MIN K0J4 052300Z AUTO 00000KT 10SM CLR 06/M05 A3039 -110 45 -1100 000/00 RMK AO2 $
63870K0J4 0J420160105180510301/05/16 18:05:31  5-MIN K0J4 052305Z AUTO 00000KT 10SM CLR 06/M05 A3039 -110 45 -1100 000/00 RMK AO2 $
63870K0J4 0J420160105181010301/05/16 18:10:31  5-MIN K0J4 052310Z AUTO 08003KT 10SM CLR 06/M04 A3040 -120 48 -1200 080/03 RMK AO2 $
63870K0J4 0J420160105181510301/05/16 18:15:31  5-MIN K0J4 052315Z AUTO 07003KT 10SM CLR 04/M04 A3040 -120 55 -1300 070/03 RMK AO2 $
63870K0J4 0J420160105182010301/05/16 18:20:31  5-MIN K0J4 052320Z AUTO 06003KT 10SM CLR 04/M03 A3040 -120 57 -1300 060/03 RMK AO2 $
63870K0J4 0J420160105182510301/05/16 18:25:31  5-MIN K0J4 052325Z AUTO 07003KT 10SM CLR 04/M04 A3040 -120 57 -1400 070/03 RMK AO2 $
63870K0J4 0J420160105183010301/05/16 18:30:31  5-MIN K0J4 052330Z AUTO 06003KT 10SM CLR 04/M04 A3040 -120 57 -1400 060/03 RMK AO2 $
63870K0J4 0J420160105183510301/05/16 18:35:31  5-MIN K0J4 052335Z AUTO 05004KT 10SM CLR 04/M04 A3039 -110 54 -1400 050/04 RMK AO2 $
63870K0J4 0J420160105184010301/05/16 18:40:31  5-MIN K0J4 052340Z AUTO 05003KT 10SM CLR 04/M04 A3039 -110 54 -1400 050/03 RMK AO2 $
63870K0J4 0J420160105184510301/05/16 18:45:31  5-MIN K0J4 052345Z AUTO 05004KT 10SM CLR 04/M04 A3039 -110 54 -1400 050/04 RMK AO2 $
63870K0J4 0J420160105185010301/05/16 18:50:31  5-MIN K0J4 052350Z AUTO 05003KT 10SM CLR 04/M05 A3039 -110 52 -1400 050/03 RMK AO2 $
63870K0J4 0J420160105185513801/05/16 18:55:31  5-MIN K0J4 052355Z AUTO 05004KT 10SM CLR 03/M04 A3039 -110 57 -1500 050/04 RMK AO2 SLP293 T00331044 10094 20033 56012 $
63870K0J4 0J420160105190010301/05/16 19:00:31  5-MIN K0J4 060000Z AUTO 04004KT 10SM CLR 03/M04 A3039 -110 57 -1500 040/04 RMK AO2 $
63870K0J4 0J420160105190510301/05/16 19:05:31  5-MIN K0J4 060005Z AUTO 04004KT 10SM CLR 03/M05 A3039 -110 54 -1500 040/04 RMK AO2 $
63870K0J4 0J420160105191010301/05/16 19:10:31  5-MIN K0J4 060010Z AUTO 05003KT 10SM CLR 03/M05 A3039 -110 54 -1500 050/03 RMK AO2 $
63870K0J4 0J420160105191510301/05/16 19:15:31  5-MIN K0J4 060015Z AUTO 05004KT 10SM CLR 03/M05 A3039 -110 54 -1500 050/04 RMK AO2 $
63870K0J4 0J420160105192010301/05/16 19:20:31  5-MIN K0J4 060020Z AUTO 05004KT 10SM CLR 03/M05 A3039 -110 54 -1500 050/04 RMK AO2 $
63870K0J4 0J420160105192510301/05/16 19:25:31  5-MIN K0J4 060025Z AUTO 05004KT 10SM CLR 03/M05 A3040 -120 56 -1500 050/04 RMK AO2 $
63870K0J4 0J420160105193010301/05/16 19:30:31  5-MIN K0J4 060030Z AUTO 05004KT 10SM CLR 03/M05 A3040 -120 56 -1600 050/04 RMK AO2 $
63870K0J4 0J420160105193510301/05/16 19:35:31  5-MIN K0J4 060035Z AUTO 05005KT 10SM CLR 03/M05 A3040 -120 54 -1500 050/05 RMK AO2 $
63870K0J4 0J420160105194010301/05/16 19:40:31  5-MIN K0J4 060040Z AUTO 06005KT 10SM CLR 03/M05 A3040 -120 54 -1500 060/05 RMK AO2 $
63870K0J4 0J420160105194510301/05/16 19:45:31  5-MIN K0J4 060045Z AUTO 07004KT 10SM CLR 03/M05 A3041 -130 56 -1600 070/04 RMK AO2 $
63870K0J4 0J420160105195010301/05/16 19:50:31  5-MIN K0J4 060050Z AUTO 06005KT 10SM CLR 03/M05 A3041 -130 56 -1600 060/05 RMK AO2 $
63870K0J4 0J420160105195512001/05/16 19:55:31  5-MIN K0J4 060055Z AUTO 05003KT 10SM CLR 03/M05 A3041 -130 56 -1600 050/03 RMK AO2 SLP300 T00281050 $
63870K0J4 0J420160105200010301/05/16 20:00:31  5-MIN K0J4 060100Z AUTO 06004KT 10SM CLR 03/M06 A3041 -130 54 -1600 060/04 RMK AO2 $
63870K0J4 0J420160105200510301/05/16 20:05:31  5-MIN K0J4 060105Z AUTO 05004KT 10SM CLR 03/M06 A3041 -130 54 -1600 050/04 RMK AO2 $
63870K0J4 0J420160105201010301/05/16 20:10:31  5-MIN K0J4 060110Z AUTO 05004KT 10SM CLR 03/M06 A3041 -130 54 -1600 050/04 RMK AO2 $
63870K0J4 0J420160105201510301/05/16 20:15:31  5-MIN K0J4 060115Z AUTO 06005KT 10SM CLR 03/M06 A3042 -130 54 -1600 060/05 RMK AO2 $
63870K0J4 0J420160105202010301/05/16 20:20:31  5-MIN K0J4 060120Z AUTO 06004KT 10SM CLR 03/M06 A3042 -130 54 -1600 060/04 RMK AO2 $
63870K0J4 0J420160105202510301/05/16 20:25:31  5-MIN K0J4 060125Z AUTO 06004KT 10SM CLR 03/M05 A3042 -140 56 -1600 060/04 RMK AO2 $
63870K0J4 0J420160105203010301/05/16 20:30:31  5-MIN K0J4 060130Z AUTO 06004KT 10SM CLR 03/M05 A3042 -140 56 -1600 060/04 RMK AO2 $
63870K0J4 0J420160105203510301/05/16 20:35:31  5-MIN K0J4 060135Z AUTO 06004KT 10SM CLR 03/M05 A3042 -140 56 -1600 060/04 RMK AO2 $
63870K0J4 0J420160105204010301/05/16 20:40:31  5-MIN K0J4 060140Z AUTO 06004KT 10SM CLR 03/M05 A3042 -140 56 -1600 060/04 RMK AO2 $
63870K0J4 0J420160105204510301/05/16 20:45:31  5-MIN K0J4 060145Z AUTO 06004KT 10SM CLR 02/M05 A3042 -140 59 -1600 060/04 RMK AO2 $
63870K0J4 0J420160105205010301/05/16 20:50:31  5-MIN K0J4 060150Z AUTO 06005KT 10SM CLR 03/M05 A3042 -140 56 -1600 060/05 RMK AO2 $
63870K0J4 0J420160105205512001/05/16 20:55:31  5-MIN K0J4 060155Z AUTO 06004KT 10SM CLR 03/M05 A3043 -140 56 -1600 060/04 RMK AO2 SLP304 T00281050 $
63870K0J4 0J420160105210010301/05/16 21:00:31  5-MIN K0J4 060200Z AUTO 06005KT 10SM CLR 03/M05 A3042 -140 56 -1600 060/05 RMK AO2 $
63870K0J4 0J420160105210510301/05/16 21:05:31  5-MIN K0J4 060205Z AUTO 06004KT 10SM CLR 03/M05 A3042 -140 56 -1600 060/04 RMK AO2 $
63870K0J4 0J420160105211010301/05/16 21:10:31  5-MIN K0J4 060210Z AUTO 06003KT 10SM CLR 03/M05 A3042 -140 56 -1600 060/03 RMK AO2 $
63870K0J4 0J420160105211510301/05/16 21:15:31  5-MIN K0J4 060215Z AUTO 06003KT 10SM CLR 02/M05 A3042 -140 59 -1600 060/03 RMK AO2 $
63870K0J4 0J420160105212010301/05/16 21:20:31  5-MIN K0J4 060220Z AUTO 06003KT 10SM CLR 02/M05 A3042 -140 61 -1700 060/03 RMK AO2 $
63870K0J4 0J420160105212510301/05/16 21:25:31  5-MIN K0J4 060225Z AUTO 06004KT 10SM CLR 02/M05 A3042 -140 61 -1700 060/04 RMK AO2 $
63870K0J4 0J420160105213010301/05/16 21:30:31  5-MIN K0J4 060230Z AUTO 06004KT 10SM CLR 02/M05 A3042 -130 61 -1700 060/04 RMK AO2 $
63870K0J4 0J420160105213510301/05/16 21:35:31  5-MIN K0J4 060235Z AUTO 06005KT 10SM CLR 02/M05 A3042 -140 61 -1700 060/05 RMK AO2 $
63870K0J4 0J420160105214010301/05/16 21:40:31  5-MIN K0J4 060240Z AUTO 06004KT 10SM CLR 02/M05 A3042 -140 61 -1700 060/04 RMK AO2 $
63870K0J4 0J420160105214510301/05/16 21:45:31  5-MIN K0J4 060245Z AUTO 06004KT 10SM CLR 02/M05 A3042 -140 61 -1700 060/04 RMK AO2 $
63870K0J4 0J420160105215010301/05/16 21:50:31  5-MIN K0J4 060250Z AUTO 07005KT 10SM CLR 02/M05 A3042 -140 59 -1600 070/05 RMK AO2 $
63870K0J4 0J420160105215512601/05/16 21:55:31  5-MIN K0J4 060255Z AUTO 07006KT 10SM CLR 03/M05 A3042 -140 56 -1600 070/06 RMK AO2 SLP301 T00281050 50008 $
63870K0J4 0J420160105220010301/05/16 22:00:31  5-MIN K0J4 060300Z AUTO 06005KT 10SM CLR 03/M05 A3042 -130 56 -1600 060/05 RMK AO2 $
63870K0J4 0J420160105220510301/05/16 22:05:31  5-MIN K0J4 060305Z AUTO 06004KT 10SM CLR 02/M05 A3041 -130 59 -1600 060/04 RMK AO2 $
63870K0J4 0J420160105221010301/05/16 22:10:31  5-MIN K0J4 060310Z AUTO 06004KT 10SM CLR 02/M04 A3041 -130 64 -1700 060/04 RMK AO2 $
63870K0J4 0J420160105221510301/05/16 22:15:31  5-MIN K0J4 060315Z AUTO 06004KT 10SM CLR 02/M04 A3042 -130 64 -1700 060/04 RMK AO2 $
63870K0J4 0J420160105222010301/05/16 22:20:31  5-MIN K0J4 060320Z AUTO 05004KT 10SM CLR 01/M05 A3041 -130 64 -1800 050/04 RMK AO2 $
63870K0J4 0J420160105222510301/05/16 22:25:31  5-MIN K0J4 060325Z AUTO 05004KT 10SM CLR 01/M05 A3042 -130 64 -1800 050/04 RMK AO2 $
63870K0J4 0J420160105223010301/05/16 22:30:31  5-MIN K0J4 060330Z AUTO 05004KT 10SM CLR 01/M05 A3041 -130 64 -1800 050/04 RMK AO2 $
63870K0J4 0J420160105223510301/05/16 22:35:31  5-MIN K0J4 060335Z AUTO 05004KT 10SM CLR 01/M05 A3041 -130 64 -1800 050/04 RMK AO2 $
63870K0J4 0J420160105224010301/05/16 22:40:31  5-MIN K0J4 060340Z AUTO 05004KT 10SM CLR 01/M05 A3041 -130 64 -1800 050/04 RMK AO2 $
63870K0J4 0J420160105224510301/05/16 22:45:31  5-MIN K0J4 060345Z AUTO 05004KT 10SM CLR 01/M05 A3041 -130 64 -1800 050/04 RMK AO2 $
63870K0J4 0J420160105225010301/05/16 22:50:31  5-MIN K0J4 060350Z AUTO 05004KT 10SM CLR 01/M05 A3041 -130 64 -1800 050/04 RMK AO2 $
63870K0J4 0J420160105225512001/05/16 22:55:31  5-MIN K0J4 060355Z AUTO 05005KT 10SM CLR 01/M05 A3041 -130 64 -1800 050/05 RMK AO2 SLP298 T00111050 $
63870K0J4 0J420160105230010301/05/16 23:00:31  5-MIN K0J4 060400Z AUTO 06005KT 10SM CLR 01/M05 A3041 -130 64 -1800 060/05 RMK AO2 $
63870K0J4 0J420160105230510301/05/16 23:05:31  5-MIN K0J4 060405Z AUTO 05005KT 10SM CLR 02/M05 A3041 -130 61 -1700 050/05 RMK AO2 $
63870K0J4 0J420160105231010301/05/16 23:10:31  5-MIN K0J4 060410Z AUTO 06005KT 10SM CLR 02/M05 A3041 -130 61 -1700 060/05 RMK AO2 $
63870K0J4 0J420160105231510301/05/16 23:15:31  5-MIN K0J4 060415Z AUTO 06005KT 10SM CLR 02/M05 A3041 -130 61 -1700 060/05 RMK AO2 $
63870K0J4 0J420160105232010301/05/16 23:20:31  5-MIN K0J4 060420Z AUTO 06005KT 10SM CLR 02/M04 A3041 -120 64 -1700 060/05 RMK AO2 $
63870K0J4 0J420160105232510301/05/16 23:25:31  5-MIN K0J4 060425Z AUTO 06004KT 10SM CLR 02/M04 A3040 -120 64 -1700 060/04 RMK AO2 $
63870K0J4 0J420160105233010301/05/16 23:30:31  5-MIN K0J4 060430Z AUTO 05004KT 10SM CLR 02/M05 A3041 -120 61 -1700 050/04 RMK AO2 $
63870K0J4 0J420160105233510301/05/16 23:35:31  5-MIN K0J4 060435Z AUTO 06004KT 10SM CLR 01/M05 A3041 -120 64 -1800 060/04 RMK AO2 $
63870K0J4 0J420160105234010301/05/16 23:40:31  5-MIN K0J4 060440Z AUTO 05004KT 10SM CLR 02/M05 A3040 -120 61 -1700 050/04 RMK AO2 $
63870K0J4 0J420160105234510301/05/16 23:45:31  5-MIN K0J4 060445Z AUTO 06004KT 10SM CLR 01/M05 A3040 -120 64 -1800 060/04 RMK AO2 $
63870K0J4 0J420160105235010301/05/16 23:50:31  5-MIN K0J4 060450Z AUTO 06005KT 10SM CLR 02/M04 A3040 -120 64 -1700 060/05 RMK AO2 $
63870K0J4 0J420160105235513001/05/16 23:55:31  5-MIN K0J4 060455Z AUTO 07005KT 10SM CLR 02/M04 A3040 -120 64 -1700 070/05 RMK AO2 SLP294 T00171044 400941017 $
63870K0J4 0J420160106000010301/06/16 00:00:31  5-MIN K0J4 060500Z AUTO 07005KT 10SM CLR 02/M04 A3040 -120 64 -1700 070/05 RMK AO2 $
63870K0J4 0J420160106000510301/06/16 00:05:31  5-MIN K0J4 060505Z AUTO 06004KT 10SM CLR 02/M04 A3040 -120 64 -1700 060/04 RMK AO2 $
63870K0J4 0J420160106001010301/06/16 00:10:31  5-MIN K0J4 060510Z AUTO 06004KT 10SM CLR 01/M04 A3040 -120 66 -1800 060/04 RMK AO2 $
63870K0J4 0J420160106001510301/06/16 00:15:31  5-MIN K0J4 060515Z AUTO 06004KT 10SM CLR 01/M04 A3040 -120 66 -1800 060/04 RMK AO2 $
63870K0J4 0J420160106002010301/06/16 00:20:31  5-MIN K0J4 060520Z AUTO 06004KT 10SM CLR 01/M04 A3040 -120 66 -1800 060/04 RMK AO2 $
63870K0J4 0J420160106002510301/06/16 00:25:31  5-MIN K0J4 060525Z AUTO 06003KT 10SM CLR 01/M04 A3039 -110 69 -1800 060/03 RMK AO2 $
63870K0J4 0J420160106003010301/06/16 00:30:31  5-MIN K0J4 060530Z AUTO 06004KT 10SM CLR 01/M04 A3039 -110 69 -1800 060/04 RMK AO2 $
63870K0J4 0J420160106003510301/06/16 00:35:31  5-MIN K0J4 060535Z AUTO 06004KT 10SM CLR 01/M04 A3039 -110 69 -1800 060/04 RMK AO2 $
63870K0J4 0J420160106004010301/06/16 00:40:31  5-MIN K0J4 060540Z AUTO 06005KT 10SM CLR 01/M04 A3039 -110 69 -1800 060/05 RMK AO2 $
63870K0J4 0J420160106004510301/06/16 00:45:31  5-MIN K0J4 060545Z AUTO 06005KT 10SM CLR 02/M04 A3039 -110 66 -1700 060/05 RMK AO2 $
63870K0J4 0J420160106005010301/06/16 00:50:31  5-MIN K0J4 060550Z AUTO 06005KT 10SM CLR 02/M04 A3039 -110 64 -1700 060/05 RMK AO2 $
63870K0J4 0J420160106005513801/06/16 00:55:31  5-MIN K0J4 060555Z AUTO 07005KT 10SM CLR 01/M04 A3039 -110 66 -1700 070/05 RMK AO2 SLP291 T00111044 10033 20011 50008 $
63870K0J4 0J420160106010010301/06/16 01:00:31  5-MIN K0J4 060600Z AUTO 07004KT 10SM CLR 01/M04 A3039 -110 66 -1800 070/04 RMK AO2 $
63870K0J4 0J420160106010510601/06/16 01:05:31  5-MIN K0J4 060605Z AUTO 07005KT 10SM SCT044 01/M04 A3039 -110 69 -1700 070/05 RMK AO2 $
63870K0J4 0J420160106011010601/06/16 01:10:31  5-MIN K0J4 060610Z AUTO 06005KT 10SM BKN044 02/M04 A3038 -110 66 -1700 060/05 RMK AO2 $
63870K0J4 0J420160106011510601/06/16 01:15:31  5-MIN K0J4 060615Z AUTO 06005KT 10SM BKN044 02/M04 A3038 -100 66 -1700 060/05 RMK AO2 $
63870K0J4 0J420160106012010601/06/16 01:20:31  5-MIN K0J4 060620Z AUTO 07006KT 10SM BKN044 02/M04 A3038 -100 66 -1700 070/06 RMK AO2 $
63870K0J4 0J420160106012510601/06/16 01:25:31  5-MIN K0J4 060625Z AUTO 07005KT 10SM OVC044 02/M04 A3038 -100 66 -1700 070/05 RMK AO2 $
63870K0J4 0J420160106013010601/06/16 01:30:31  5-MIN K0J4 060630Z AUTO 07006KT 10SM OVC044 02/M04 A3038 -100 66 -1700 070/06 RMK AO2 $
63870K0J4 0J420160106013510601/06/16 01:35:31  5-MIN K0J4 060635Z AUTO 07006KT 10SM BKN044 02/M04 A3038 -100 66 -1700 070/06 RMK AO2 $
63870K0J4 0J420160106014010501/06/16 01:40:31  5-MIN K0J4 060640Z AUTO 07005KT 10SM BKN044 02/M04 A3037 -90 66 -1700 070/05 RMK AO2 $
63870K0J4 0J420160106014510501/06/16 01:45:31  5-MIN K0J4 060645Z AUTO 07006KT 10SM SCT044 02/M04 A3037 -90 66 -1700 070/06 RMK AO2 $
63870K0J4 0J420160106015010501/06/16 01:50:31  5-MIN K0J4 060650Z AUTO 07007KT 10SM FEW044 02/M04 A3037 -90 66 -1700 070/07 RMK AO2 $
63870K0J4 0J420160106015512201/06/16 01:55:31  5-MIN K0J4 060655Z AUTO 07007KT 10SM FEW044 02/M04 A3037 -90 66 -1700 070/07 RMK AO2 SLP284 T00171039 $
63870K0J4 0J420160106020010201/06/16 02:00:31  5-MIN K0J4 060700Z AUTO 08006KT 10SM CLR 02/M04 A3037 -90 66 -1700 080/06 RMK AO2 $
63870K0J4 0J420160106020510201/06/16 02:05:31  5-MIN K0J4 060705Z AUTO 08005KT 10SM CLR 02/M04 A3037 -90 66 -1700 080/05 RMK AO2 $
63870K0J4 0J420160106021010201/06/16 02:10:31  5-MIN K0J4 060710Z AUTO 07005KT 10SM CLR 02/M04 A3037 -90 66 -1700 070/05 RMK AO2 $
63870K0J4 0J420160106021510501/06/16 02:15:31  5-MIN K0J4 060715Z AUTO 07006KT 10SM FEW043 02/M03 A3037 -90 69 -1700 070/06 RMK AO2 $
63870K0J4 0J420160106022010501/06/16 02:20:31  5-MIN K0J4 060720Z AUTO 07007KT 10SM SCT043 02/M03 A3036 -90 67 -1600 070/07 RMK AO2 $
63870K0J4 0J420160106022510501/06/16 02:25:31  5-MIN K0J4 060725Z AUTO 07008KT 10SM SCT043 02/M03 A3036 -90 67 -1600 070/08 RMK AO2 $
63870K0J4 0J420160106023010501/06/16 02:30:31  5-MIN K0J4 060730Z AUTO 08007KT 10SM SCT043 02/M03 A3037 -90 67 -1600 080/07 RMK AO2 $
63870K0J4 0J420160106023510501/06/16 02:35:31  5-MIN K0J4 060735Z AUTO 08006KT 10SM SCT043 02/M04 A3037 -90 64 -1600 080/06 RMK AO2 $
63870K0J4 0J420160106024010501/06/16 02:40:31  5-MIN K0J4 060740Z AUTO 08007KT 10SM SCT043 02/M04 A3037 -90 64 -1600 080/07 RMK AO2 $
63870K0J4 0J420160106024510501/06/16 02:45:31  5-MIN K0J4 060745Z AUTO 08005KT 10SM FEW043 02/M03 A3037 -90 67 -1600 080/05 RMK AO2 $
63870K0J4 0J420160106025010501/06/16 02:50:31  5-MIN K0J4 060750Z AUTO 08005KT 10SM FEW043 02/M03 A3037 -90 67 -1600 080/05 RMK AO2 $
63870K0J4 0J420160106025512901/06/16 02:55:31  5-MIN K0J4 060755Z AUTO 08004KT 10SM FEW029 SCT043 02/M03 A3037 -90 67 -1600 080/04 RMK AO2 SLP285 T00221033 $
63870K0J4 0J420160106030011201/06/16 03:00:31  5-MIN K0J4 060800Z AUTO 08005KT 10SM FEW029 SCT035 03/M03 A3037 -90 64 -1500 080/05 RMK AO2 $
63870K0J4 0J420160106030511201/06/16 03:05:31  5-MIN K0J4 060805Z AUTO 07004KT 10SM SCT029 BKN035 03/M03 A3037 -90 64 -1500 070/04 RMK AO2 $
63870K0J4 0J420160106031011301/06/16 03:10:31  5-MIN K0J4 060810Z AUTO 06003KT 10SM SCT029 BKN035 03/M03 A3037 -100 64 -1500 060/03 RMK AO2 $
63870K0J4 0J420160106031511301/06/16 03:15:31  5-MIN K0J4 060815Z AUTO 05003KT 10SM BKN029 BKN035 03/M03 A3038 -100 64 -1500 050/03 RMK AO2 $
63870K0J4 0J420160106032011301/06/16 03:20:31  5-MIN K0J4 060820Z AUTO 00000KT 10SM BKN029 OVC035 03/M03 A3038 -100 64 -1500 000/00 RMK AO2 $
63870K0J4 0J420160106032511301/06/16 03:25:31  5-MIN K0J4 060825Z AUTO 05003KT 10SM BKN029 OVC035 03/M03 A3038 -100 67 -1500 050/03 RMK AO2 $
63870K0J4 0J420160106033010601/06/16 03:30:31  5-MIN K0J4 060830Z AUTO 04004KT 10SM OVC029 03/M03 A3037 -100 67 -1500 040/04 RMK AO2 $
63870K0J4 0J420160106033510501/06/16 03:35:31  5-MIN K0J4 060835Z AUTO 05005KT 10SM OVC029 03/M03 A3037 -90 61 -1400 050/05 RMK AO2 $
63870K0J4 0J420160106034010501/06/16 03:40:31  5-MIN K0J4 060840Z AUTO 06005KT 10SM OVC029 03/M03 A3037 -90 64 -1400 060/05 RMK AO2 $
63870K0J4 0J420160106034510501/06/16 03:45:31  5-MIN K0J4 060845Z AUTO 06006KT 10SM OVC029 03/M03 A3036 -90 61 -1400 060/06 RMK AO2 $
63870K0J4 0J420160106035010501/06/16 03:50:31  5-MIN K0J4 060850Z AUTO 06005KT 10SM OVC031 03/M03 A3036 -80 61 -1400 060/05 RMK AO2 $
63870K0J4 0J420160106035513501/06/16 03:55:31  5-MIN K0J4 060855Z AUTO 06006KT 10SM BKN031 OVC046 03/M03 A3036 -80 61 -1400 060/06 RMK AO2 SLP280 T00331033 58008 $
63870K0J4 0J420160106040011201/06/16 04:00:31  5-MIN K0J4 060900Z AUTO 06007KT 10SM BKN031 OVC046 03/M03 A3036 -80 61 -1400 060/07 RMK AO2 $
63870K0J4 0J420160106040511201/06/16 04:05:31  5-MIN K0J4 060905Z AUTO 06008KT 10SM SCT031 OVC046 03/M03 A3036 -80 61 -1400 060/08 RMK AO2 $
63870K0J4 0J420160106041011201/06/16 04:10:31  5-MIN K0J4 060910Z AUTO 06006KT 10SM SCT031 OVC046 03/M03 A3036 -80 61 -1400 060/06 RMK AO2 $
63870K0J4 0J420160106041511201/06/16 04:15:31  5-MIN K0J4 060915Z AUTO 06007KT 10SM FEW031 OVC046 03/M03 A3036 -80 61 -1400 060/07 RMK AO2 $
63870K0J4 0J420160106042011201/06/16 04:20:31  5-MIN K0J4 060920Z AUTO 06006KT 10SM FEW031 OVC046 03/M03 A3036 -80 61 -1400 060/06 RMK AO2 $
63870K0J4 0J420160106042510501/06/16 04:25:31  5-MIN K0J4 060925Z AUTO 06006KT 10SM OVC046 03/M03 A3036 -80 61 -1400 060/06 RMK AO2 $
63870K0J4 0J420160106043010501/06/16 04:30:31  5-MIN K0J4 060930Z AUTO 06006KT 10SM OVC044 03/M03 A3036 -80 61 -1400 060/06 RMK AO2 $
63870K0J4 0J420160106043510501/06/16 04:35:31  5-MIN K0J4 060935Z AUTO 06007KT 10SM OVC044 03/M03 A3036 -80 61 -1400 060/07 RMK AO2 $
63870K0J4 0J420160106044010501/06/16 04:40:31  5-MIN K0J4 060940Z AUTO 07008KT 10SM OVC044 03/M03 A3036 -80 61 -1400 070/08 RMK AO2 $
63870K0J4 0J420160106044510501/06/16 04:45:31  5-MIN K0J4 060945Z AUTO 07005KT 10SM OVC044 03/M03 A3036 -80 61 -1400 070/05 RMK AO2 $
63870K0J4 0J420160106045010501/06/16 04:50:31  5-MIN K0J4 060950Z AUTO 06007KT 10SM OVC044 03/M03 A3036 -80 61 -1400 060/07 RMK AO2 $
63870K0J4 0J420160106045512201/06/16 04:55:31  5-MIN K0J4 060955Z AUTO 08005KT 10SM BKN044 03/M03 A3036 -80 61 -1400 080/05 RMK AO2 SLP279 T00331033 $
63870K0J4 0J420160106050010501/06/16 05:00:31  5-MIN K0J4 061000Z AUTO 07006KT 10SM OVC044 03/M03 A3036 -80 61 -1400 070/06 RMK AO2 $
63870K0J4 0J420160106050510501/06/16 05:05:31  5-MIN K0J4 061005Z AUTO 07006KT 10SM OVC044 03/M03 A3036 -80 61 -1400 070/06 RMK AO2 $
63870K0J4 0J420160106051010501/06/16 05:10:31  5-MIN K0J4 061010Z AUTO 07006KT 10SM OVC042 03/M03 A3036 -80 61 -1400 070/06 RMK AO2 $
63870K0J4 0J420160106051510501/06/16 05:15:31  5-MIN K0J4 061015Z AUTO 07006KT 10SM OVC042 03/M03 A3036 -80 61 -1400 070/06 RMK AO2 $
63870K0J4 0J420160106052010501/06/16 05:20:31  5-MIN K0J4 061020Z AUTO 07006KT 10SM OVC044 04/M03 A3036 -80 59 -1400 070/06 RMK AO2 $
63870K0J4 0J420160106052510501/06/16 05:25:31  5-MIN K0J4 061025Z AUTO 07006KT 10SM OVC044 04/M03 A3036 -80 59 -1400 070/06 RMK AO2 $
63870K0J4 0J420160106053010501/06/16 05:30:31  5-MIN K0J4 061030Z AUTO 07006KT 10SM OVC044 04/M03 A3036 -80 59 -1400 070/06 RMK AO2 $
63870K0J4 0J420160106053510501/06/16 05:35:31  5-MIN K0J4 061035Z AUTO 06005KT 10SM OVC044 04/M03 A3036 -80 59 -1400 060/05 RMK AO2 $
63870K0J4 0J420160106054010501/06/16 05:40:31  5-MIN K0J4 061040Z AUTO 07006KT 10SM OVC044 04/M03 A3036 -80 59 -1400 070/06 RMK AO2 $
63870K0J4 0J420160106054510501/06/16 05:45:31  5-MIN K0J4 061045Z AUTO 07007KT 10SM OVC046 04/M03 A3036 -80 59 -1400 070/07 RMK AO2 $
63870K0J4 0J420160106055010501/06/16 05:50:31  5-MIN K0J4 061050Z AUTO 07007KT 10SM OVC046 04/M03 A3036 -80 59 -1400 070/07 RMK AO2 $
63870K0J4 0J420160106055512201/06/16 05:55:31  5-MIN K0J4 061055Z AUTO 06006KT 10SM OVC046 04/M03 A3036 -80 59 -1400 060/06 RMK AO2 SLP280 T00391033 $
63870K0J4 0J420160106060010501/06/16 06:00:31  5-MIN K0J4 061100Z AUTO 07005KT 10SM OVC046 04/M03 A3036 -80 59 -1400 070/05 RMK AO2 $
63870K0J4 0J420160106060510501/06/16 06:05:31  5-MIN K0J4 061105Z AUTO 07008KT 10SM OVC046 04/M03 A3036 -80 62 -1400 070/08 RMK AO2 $
63870K0J4 0J420160106061010501/06/16 06:10:31  5-MIN K0J4 061110Z AUTO 07007KT 10SM OVC046 04/M03 A3036 -80 59 -1400 070/07 RMK AO2 $
63870K0J4 0J420160106061510501/06/16 06:15:31  5-MIN K0J4 061115Z AUTO 07007KT 10SM OVC046 04/M03 A3036 -80 59 -1400 070/07 RMK AO2 $
63870K0J4 0J420160106062010501/06/16 06:20:31  5-MIN K0J4 061120Z AUTO 06006KT 10SM OVC046 04/M03 A3036 -80 59 -1400 060/06 RMK AO2 $
63870K0J4 0J420160106062510501/06/16 06:25:31  5-MIN K0J4 061125Z AUTO 06006KT 10SM OVC046 04/M03 A3036 -80 59 -1400 060/06 RMK AO2 $
63870K0J4 0J420160106063010501/06/16 06:30:31  5-MIN K0J4 061130Z AUTO 06007KT 10SM OVC046 04/M03 A3036 -80 59 -1400 060/07 RMK AO2 $
63870K0J4 0J420160106063510501/06/16 06:35:31  5-MIN K0J4 061135Z AUTO 07005KT 10SM OVC048 04/M03 A3036 -80 62 -1400 070/05 RMK AO2 $
63870K0J4 0J420160106064010501/06/16 06:40:31  5-MIN K0J4 061140Z AUTO 06007KT 10SM OVC048 04/M03 A3036 -80 62 -1400 060/07 RMK AO2 $
63870K0J4 0J420160106064510501/06/16 06:45:31  5-MIN K0J4 061145Z AUTO 06006KT 10SM OVC048 04/M03 A3036 -80 62 -1400 060/06 RMK AO2 $
63870K0J4 0J420160106065010501/06/16 06:50:31  5-MIN K0J4 061150Z AUTO 07005KT 10SM OVC048 03/M03 A3036 -80 61 -1400 070/05 RMK AO2 $
63870K0J4 0J420160106065514001/06/16 06:55:31  5-MIN K0J4 061155Z AUTO 07007KT 10SM OVC048 04/M03 A3036 -80 62 -1400 070/07 RMK AO2 SLP281 T00391028 10039 20011 56011 $
63870K0J4 0J420160106070010501/06/16 07:00:31  5-MIN K0J4 061200Z AUTO 07006KT 10SM OVC048 04/M03 A3036 -90 59 -1400 070/06 RMK AO2 $
63870K0J4 0J420160106070510501/06/16 07:05:31  5-MIN K0J4 061205Z AUTO 07005KT 10SM OVC048 04/M03 A3037 -90 62 -1400 070/05 RMK AO2 $
63870K0J4 0J420160106071010501/06/16 07:10:31  5-MIN K0J4 061210Z AUTO 08004KT 10SM OVC050 04/M03 A3037 -90 59 -1400 080/04 RMK AO2 $
63870K0J4 0J420160106071510501/06/16 07:15:31  5-MIN K0J4 061215Z AUTO 08004KT 10SM OVC050 04/M03 A3037 -90 62 -1400 080/04 RMK AO2 $
63870K0J4 0J420160106072010501/06/16 07:20:31  5-MIN K0J4 061220Z AUTO 08006KT 10SM OVC050 04/M03 A3036 -90 62 -1400 080/06 RMK AO2 $
63870K0J4 0J420160106072510501/06/16 07:25:31  5-MIN K0J4 061225Z AUTO 08005KT 10SM OVC050 04/M03 A3036 -90 62 -1400 080/05 RMK AO2 $
63870K0J4 0J420160106073010501/06/16 07:30:31  5-MIN K0J4 061230Z AUTO 08004KT 10SM OVC050 04/M03 A3036 -80 62 -1400 080/04 RMK AO2 $
63870K0J4 0J420160106073510501/06/16 07:35:31  5-MIN K0J4 061235Z AUTO 08005KT 10SM OVC050 04/M03 A3036 -90 62 -1400 080/05 RMK AO2 $
63870K0J4 0J420160106074010501/06/16 07:40:31  5-MIN K0J4 061240Z AUTO 08005KT 10SM OVC050 04/M03 A3036 -90 62 -1400 080/05 RMK AO2 $
63870K0J4 0J420160106074510501/06/16 07:45:31  5-MIN K0J4 061245Z AUTO 08006KT 10SM OVC050 04/M03 A3036 -90 62 -1400 080/06 RMK AO2 $
63870K0J4 0J420160106075010501/06/16 07:50:31  5-MIN K0J4 061250Z AUTO 08006KT 10SM OVC050 04/M03 A3037 -90 62 -1400 080/06 RMK AO2 $
63870K0J4 0J420160106075512201/06/16 07:55:31  5-MIN K0J4 061255Z AUTO 08006KT 10SM OVC050 04/M03 A3037 -90 62 -1400 080/06 RMK AO2 SLP284 T00391028 $
63870K0J4 0J420160106080010501/06/16 08:00:31  5-MIN K0J4 061300Z AUTO 08006KT 10SM OVC050 04/M03 A3037 -90 62 -1400 080/06 RMK AO2 $
63870K0J4 0J420160106080510501/06/16 08:05:31  5-MIN K0J4 061305Z AUTO 08007KT 10SM OVC050 04/M03 A3036 -90 62 -1400 080/07 RMK AO2 $
63870K0J4 0J420160106081010501/06/16 08:10:31  5-MIN K0J4 061310Z AUTO 07008KT 10SM OVC050 04/M03 A3037 -90 62 -1400 070/08 RMK AO2 $
63870K0J4 0J420160106081510501/06/16 08:15:31  5-MIN K0J4 061315Z AUTO 08006KT 10SM OVC050 04/M03 A3037 -90 62 -1400 080/06 RMK AO2 $
63870K0J4 0J420160106082010401/06/16 08:20:31  5-MIN K0J4 061320Z AUTO 08004KT 10SM OVC050 04/M03 A3037 -100 62 -1400 080/04 RMK AO2
63870K0J4 0J420160106082510601/06/16 08:25:31  5-MIN K0J4 061325Z AUTO 08005KT 10SM OVC050 04/M03 A3038 -100 59 -1300 080/05 RMK AO2 $
63870K0J4 0J420160106083010601/06/16 08:30:31  5-MIN K0J4 061330Z AUTO 08005KT 10SM OVC050 04/M03 A3038 -100 59 -1300 080/05 RMK AO2 $
63870K0J4 0J420160106083510601/06/16 08:35:31  5-MIN K0J4 061335Z AUTO 08007KT 10SM OVC050 04/M03 A3038 -100 59 -1300 080/07 RMK AO2 $
63870K0J4 0J420160106084010601/06/16 08:40:31  5-MIN K0J4 061340Z AUTO 08006KT 10SM OVC050 04/M03 A3038 -100 59 -1300 080/06 RMK AO2 $
63870K0J4 0J420160106084510601/06/16 08:45:31  5-MIN K0J4 061345Z AUTO 08005KT 10SM OVC050 04/M03 A3038 -100 59 -1300 080/05 RMK AO2 $
63870K0J4 0J420160106085010601/06/16 08:50:31  5-MIN K0J4 061350Z AUTO 07006KT 10SM OVC050 04/M03 A3038 -100 59 -1300 070/06 RMK AO2 $
63870K0J4 0J420160106085512301/06/16 08:55:31  5-MIN K0J4 061355Z AUTO 09008KT 10SM OVC050 04/M03 A3038 -100 59 -1300 090/08 RMK AO2 SLP288 T00441028 $
63870K0J4 0J420160106090010601/06/16 09:00:31  5-MIN K0J4 061400Z AUTO 07008KT 10SM OVC050 04/M03 A3038 -100 59 -1300 070/08 RMK AO2 $
63870K0J4 0J420160106090510601/06/16 09:05:31  5-MIN K0J4 061405Z AUTO 07008KT 10SM OVC050 04/M03 A3038 -100 59 -1300 070/08 RMK AO2 $
63870K0J4 0J420160106091010601/06/16 09:10:31  5-MIN K0J4 061410Z AUTO 09008KT 10SM OVC050 05/M03 A3039 -110 57 -1300 090/08 RMK AO2 $
63870K0J4 0J420160106091510601/06/16 09:15:31  5-MIN K0J4 061415Z AUTO 08009KT 10SM OVC050 05/M03 A3039 -110 57 -1300 080/09 RMK AO2 $
63870K0J4 0J420160106092010601/06/16 09:20:31  5-MIN K0J4 061420Z AUTO 07008KT 10SM OVC050 05/M03 A3039 -110 57 -1300 070/08 RMK AO2 $
63870K0J4 0J420160106092510601/06/16 09:25:31  5-MIN K0J4 061425Z AUTO 08009KT 10SM OVC050 05/M03 A3039 -110 57 -1300 080/09 RMK AO2 $
63870K0J4 0J420160106093010601/06/16 09:30:31  5-MIN K0J4 061430Z AUTO 07010KT 10SM OVC055 05/M03 A3039 -110 57 -1300 070/10 RMK AO2 $
63870K0J4 0J420160106093510601/06/16 09:35:31  5-MIN K0J4 061435Z AUTO 08010KT 10SM OVC055 05/M03 A3039 -110 57 -1300 080/10 RMK AO2 $
63870K0J4 0J420160106094010601/06/16 09:40:31  5-MIN K0J4 061440Z AUTO 08008KT 10SM OVC055 05/M03 A3039 -110 57 -1300 080/08 RMK AO2 $
63870K0J4 0J420160106094510601/06/16 09:45:31  5-MIN K0J4 061445Z AUTO 08010KT 10SM OVC050 06/M03 A3039 -110 55 -1200 080/10 RMK AO2 $
63870K0J4 0J420160106095010601/06/16 09:50:31  5-MIN K0J4 061450Z AUTO 07012KT 10SM OVC050 05/M03 A3039 -110 57 -1300 070/12 RMK AO2 $
63870K0J4 0J420160106095513501/06/16 09:55:31  5-MIN K0J4 061455Z AUTO 09008G15KT 10SM OVC055 05/M03 A3039 -110 57 -1300 090/08G15 RMK AO2 SLP292 T00501028 53002 $
63870K0J4 0J420160106100010601/06/16 10:00:31  5-MIN K0J4 061500Z AUTO 07010KT 10SM OVC055 05/M03 A3039 -110 57 -1300 070/10 RMK AO2 $
63870K0J4 0J420160106100510601/06/16 10:05:31  5-MIN K0J4 061505Z AUTO 07011KT 10SM OVC055 06/M02 A3039 -110 57 -1200 070/11 RMK AO2 $
63870K0J4 0J420160106101010601/06/16 10:10:31  5-MIN K0J4 061510Z AUTO 07009KT 10SM OVC055 06/M02 A3039 -110 57 -1200 070/09 RMK AO2 $
63870K0J4 0J420160106101510601/06/16 10:15:31  5-MIN K0J4 061515Z AUTO 08008KT 10SM OVC055 06/M03 A3039 -110 55 -1200 080/08 RMK AO2 $
63870K0J4 0J420160106102010601/06/16 10:20:31  5-MIN K0J4 061520Z AUTO 07010KT 10SM OVC055 06/M02 A3039 -110 57 -1200 070/10 RMK AO2 $
63870K0J4 0J420160106102510601/06/16 10:25:31  5-MIN K0J4 061525Z AUTO 08011KT 10SM OVC055 06/M02 A3039 -110 55 -1100 080/11 RMK AO2 $
63870K0J4 0J420160106103011201/06/16 10:30:31  5-MIN K0J4 061530Z AUTO 09010G16KT 10SM OVC055 06/M02 A3039 -110 55 -1100 090/10G16 RMK AO2 $
63870K0J4 0J420160106103511201/06/16 10:35:31  5-MIN K0J4 061535Z AUTO 10008G16KT 10SM OVC055 07/M02 A3039 -110 53 -1100 100/08G16 RMK AO2 $
63870K0J4 0J420160106104012201/06/16 10:40:31  5-MIN K0J4 061540Z AUTO 10007KT 070V130 10SM OVC055 07/M02 A3039 -110 55 -1100 100/07 070V130 RMK AO2 $
63870K0J4 0J420160106104510601/06/16 10:45:31  5-MIN K0J4 061545Z AUTO 09008KT 10SM OVC055 07/M02 A3039 -110 53 -1100 090/08 RMK AO2 $
63870K0J4 0J420160106105012201/06/16 10:50:31  5-MIN K0J4 061550Z AUTO 09009KT 060V130 10SM OVC055 07/M02 A3038 -110 53 -1100 090/09 060V130 RMK AO2 $
63870K0J4 0J420160106105512301/06/16 10:55:31  5-MIN K0J4 061555Z AUTO 07010KT 10SM BKN055 07/M02 A3038 -100 51 -1000 070/10 RMK AO2 SLP289 T00721022 $
63870K0J4 0J420160106110011201/06/16 11:00:31  5-MIN K0J4 061600Z AUTO 09007G15KT 10SM BKN055 07/M02 A3038 -100 55 -1000 090/07G15 RMK AO2 $
63870K0J4 0J420160106110511201/06/16 11:05:31  5-MIN K0J4 061605Z AUTO 08009G15KT 10SM BKN055 07/M02 A3038 -100 55 -1000 080/09G15 RMK AO2 $
63870K0J4 0J420160106111010501/06/16 11:10:31  5-MIN K0J4 061610Z AUTO 06009KT 10SM BKN055 08/M01 A3038 -100 53 -900 060/09 RMK AO2 $
63870K0J4 0J420160106111510501/06/16 11:15:31  5-MIN K0J4 061615Z AUTO 06009KT 10SM BKN055 08/M02 A3038 -100 51 -900 060/09 RMK AO2 $
63870K0J4 0J420160106112010401/06/16 11:20:31  5-MIN K0J4 061620Z AUTO 07009KT 10SM SCT055 08/M01 A3037 -90 51 -800 070/09 RMK AO2 $
63870K0J4 0J420160106112510401/06/16 11:25:31  5-MIN K0J4 061625Z AUTO 08008KT 10SM SCT055 08/M02 A3037 -90 49 -800 080/08 RMK AO2 $
63870K0J4 0J420160106113010401/06/16 11:30:31  5-MIN K0J4 061630Z AUTO 09009KT 10SM FEW055 08/M02 A3036 -80 49 -800 090/09 RMK AO2 $
63870K0J4 0J420160106113510401/06/16 11:35:31  5-MIN K0J4 061635Z AUTO 09008KT 10SM FEW055 08/M01 A3036 -80 51 -800 090/08 RMK AO2 $
63870K0J4 0J420160106114010101/06/16 11:40:31  5-MIN K0J4 061640Z AUTO 09006KT 10SM CLR 09/M01 A3035 -80 49 -700 090/06 RMK AO2 $
63870K0J4 0J420160106114510101/06/16 11:45:31  5-MIN K0J4 061645Z AUTO 07009KT 10SM CLR 09/M01 A3036 -80 49 -700 070/09 RMK AO2 $
63870K0J4 0J420160106115010101/06/16 11:50:31  5-MIN K0J4 061650Z AUTO 05010KT 10SM CLR 09/M01 A3036 -80 49 -700 050/10 RMK AO2 $
63870K0J4 0J420160106115511801/06/16 11:55:31  5-MIN K0J4 061655Z AUTO 08007KT 10SM CLR 09/M01 A3036 -80 49 -800 080/07 RMK AO2 SLP281 T00891011 $
63870K0J4 0J420160106120010101/06/16 12:00:31  5-MIN K0J4 061700Z AUTO 06009KT 10SM CLR 09/M01 A3036 -80 49 -700 060/09 RMK AO2 $
63870K0J4 0J420160106120510101/06/16 12:05:31  5-MIN K0J4 061705Z AUTO 07008KT 10SM CLR 09/M01 A3036 -80 47 -700 070/08 RMK AO2 $
63870K0J4 0J420160106121011701/06/16 12:10:31  5-MIN K0J4 061710Z AUTO 08007KT 050V110 10SM CLR 09/M01 A3035 -80 49 -700 080/07 050V110 RMK AO2 $
63870K0J4 0J420160106121510101/06/16 12:15:31  5-MIN K0J4 061715Z AUTO VRB06KT 10SM CLR 09/M01 A3035 -70 49 -700 VRB/06 RMK AO2 $
63870K0J4 0J420160106122010101/06/16 12:20:31  5-MIN K0J4 061720Z AUTO 06006KT 10SM CLR 10/M01 A3035 -70 47 -600 060/06 RMK AO2 $
63870K0J4 0J420160106122510101/06/16 12:25:31  5-MIN K0J4 061725Z AUTO 08005KT 10SM CLR 10/M01 A3034 -70 47 -600 080/05 RMK AO2 $
63870K0J4 0J420160106123010001/06/16 12:30:31  5-MIN K0J4 061730Z AUTO VRB06KT 10SM CLR 11/00 A3034 -60 48 -500 VRB/06 RMK AO2 $
63870K0J4 0J420160106123511601/06/16 12:35:31  5-MIN K0J4 061735Z AUTO 07007KT 040V110 10SM CLR 10/00 A3033 -60 49 -600 070/07 040V110 RMK AO2 $
63870K0J4 0J420160106124010001/06/16 12:40:31  5-MIN K0J4 061740Z AUTO 10005KT 10SM CLR 10/00 A3033 -50 49 -600 100/05 RMK AO2 $
63870K0J4 0J420160106124510001/06/16 12:45:31  5-MIN K0J4 061745Z AUTO 08006KT 10SM CLR 11/00 A3032 -50 48 -500 080/06 RMK AO2 $
63870K0J4 0J420160106125011601/06/16 12:50:31  5-MIN K0J4 061750Z AUTO 07007KT 030V120 10SM CLR 11/00 A3032 -50 48 -500 070/07 030V120 RMK AO2 $
63870K0J4 0J420160106125513501/06/16 12:55:31  5-MIN K0J4 061755Z AUTO VRB06KT 10SM CLR 11/00 A3032 -40 48 -500 VRB/06 RMK AO2 SLP265 T01060000 10111 20039 53010 $
63870K0J4 0J420160106130010001/06/16 13:00:31  5-MIN K0J4 061800Z AUTO 07007KT 10SM CLR 11/00 A3031 -40 48 -500 070/07 RMK AO2 $
63870K0J4 0J420160106130510001/06/16 13:05:31  5-MIN K0J4 061805Z AUTO 08006KT 10SM CLR 11/00 A3031 -40 48 -500 080/06 RMK AO2 $
63870K0J4 0J420160106131010001/06/16 13:10:31  5-MIN K0J4 061810Z AUTO 09007KT 10SM CLR 11/00 A3030 -30 48 -500 090/07 RMK AO2 $
63870K0J4 0J420160106131510001/06/16 13:15:31  5-MIN K0J4 061815Z AUTO 08006KT 10SM CLR 11/00 A3030 -30 46 -400 080/06 RMK AO2 $
63870K0J4 0J420160106132010701/06/16 13:20:31  5-MIN K0J4 061820Z AUTO 07005KT 10SM CLR 12/01 A3029 -20 46 -300 070/05 RMK AO2 PRESFR $
63870K0J4 0J420160106132510001/06/16 13:25:31  5-MIN K0J4 061825Z AUTO 05005KT 10SM CLR 12/01 A3029 -20 46 -300 050/05 RMK AO2 $
63870K0J4 0J420160106133010001/06/16 13:30:31  5-MIN K0J4 061830Z AUTO 10007KT 10SM CLR 12/01 A3028 -10 46 -300 100/07 RMK AO2 $
63870K0J4 0J420160106133510001/06/16 13:35:31  5-MIN K0J4 061835Z AUTO 06005KT 10SM CLR 12/01 A3028 -10 46 -300 060/05 RMK AO2 $
63870K0J4 0J420160106134010001/06/16 13:40:31  5-MIN K0J4 061840Z AUTO 08006KT 10SM CLR 12/01 A3028 -10 46 -300 080/06 RMK AO2 $
63870K0J4 0J420160106134509801/06/16 13:45:31  5-MIN K0J4 061845Z AUTO VRB05KT 10SM CLR 12/01 A3027 0 46 -300 VRB/05 RMK AO2 $
63870K0J4 0J420160106135009801/06/16 13:50:31  5-MIN K0J4 061850Z AUTO 04007KT 10SM CLR 12/01 A3027 0 46 -300 040/07 RMK AO2 $
63870K0J4 0J420160106135511501/06/16 13:55:31  5-MIN K0J4 061855Z AUTO 05006KT 10SM CLR 12/01 A3027 0 46 -300 050/06 RMK AO2 SLP250 T01170006 $
63870K0J4 0J420160106140009801/06/16 14:00:31  5-MIN K0J4 061900Z AUTO 06004KT 10SM CLR 12/01 A3027 0 46 -300 060/04 RMK AO2 $
63870K0J4 0J420160106140509801/06/16 14:05:31  5-MIN K0J4 061905Z AUTO VRB05KT 10SM CLR 12/01 A3026 0 46 -200 VRB/05 RMK AO2 $
63870K0J4 0J420160106141009801/06/16 14:10:31  5-MIN K0J4 061910Z AUTO 10007KT 10SM CLR 12/01 A3026 0 46 -200 100/07 RMK AO2 $
63870K0J4 0J420160106141509901/06/16 14:15:31  5-MIN K0J4 061915Z AUTO 05005KT 10SM CLR 12/01 A3026 10 46 -200 050/05 RMK AO2 $
63870K0J4 0J420160106142009901/06/16 14:20:31  5-MIN K0J4 061920Z AUTO 09004KT 10SM CLR 12/01 A3025 10 46 -200 090/04 RMK AO2 $
63870K0J4 0J420160106142509901/06/16 14:25:31  5-MIN K0J4 061925Z AUTO 12006KT 10SM CLR 12/01 A3025 10 46 -200 120/06 RMK AO2 $
63870K0J4 0J420160106143009901/06/16 14:30:31  5-MIN K0J4 061930Z AUTO 07007KT 10SM CLR 12/02 A3025 20 48 -200 070/07 RMK AO2 $
63870K0J4 0J420160106143509901/06/16 14:35:31  5-MIN K0J4 061935Z AUTO 08003KT 10SM CLR 13/01 A3024 20 44 -200 080/03 RMK AO2 $
63870K0J4 0J420160106144009901/06/16 14:40:31  5-MIN K0J4 061940Z AUTO VRB05KT 10SM CLR 13/02 A3024 20 46 -200 VRB/05 RMK AO2 $
63870K0J4 0J420160106144509901/06/16 14:45:31  5-MIN K0J4 061945Z AUTO 09009KT 10SM CLR 13/02 A3024 20 46 -100 090/09 RMK AO2 $
63870K0J4 0J420160106145009901/06/16 14:50:31  5-MIN K0J4 061950Z AUTO 09009KT 10SM CLR 12/01 A3024 20 46 -200 090/09 RMK AO2 $
63870K0J4 0J420160106145511601/06/16 14:55:31  5-MIN K0J4 061955Z AUTO 08009KT 10SM CLR 13/01 A3024 20 44 -100 080/09 RMK AO2 SLP239 T01280011 $
63870K0J4 0J420160106150009901/06/16 15:00:31  5-MIN K0J4 062000Z AUTO 06008KT 10SM CLR 13/02 A3023 30 46 -100 060/08 RMK AO2 $
63870K0J4 0J420160106150509901/06/16 15:05:31  5-MIN K0J4 062005Z AUTO 07008KT 10SM CLR 13/02 A3023 30 46 -100 070/08 RMK AO2 $
63870K0J4 0J420160106151009901/06/16 15:10:31  5-MIN K0J4 062010Z AUTO 06010KT 10SM CLR 13/02 A3023 30 46 -100 060/10 RMK AO2 $
63870K0J4 0J420160106151509901/06/16 15:15:31  5-MIN K0J4 062015Z AUTO 08009KT 10SM CLR 13/02 A3023 30 45 -100 080/09 RMK AO2 $
63870K0J4 0J420160106152012101/06/16 15:20:31  5-MIN K0J4 062020Z AUTO 10007G14KT 080V140 10SM CLR 13/02 A3023 30 45 -100 100/07G14 080V140 RMK AO2 $
63870K0J4 0J420160106152509901/06/16 15:25:31  5-MIN K0J4 062025Z AUTO 08009KT 10SM CLR 13/02 A3023 30 46 -100 080/09 RMK AO2 $
63870K0J4 0J420160106153010501/06/16 15:30:31  5-MIN K0J4 062030Z AUTO 09008G15KT 10SM CLR 13/02 A3023 30 46 -100 090/08G15 RMK AO2 $
63870K0J4 0J420160106153510501/06/16 15:35:31  5-MIN K0J4 062035Z AUTO 11007G15KT 10SM CLR 13/02 A3023 30 46 -100 110/07G15 RMK AO2 $
63870K0J4 0J420160106154009901/06/16 15:40:31  5-MIN K0J4 062040Z AUTO VRB06KT 10SM CLR 13/02 A3023 30 46 -100 VRB/06 RMK AO2 $
63870K0J4 0J420160106154509901/06/16 15:45:31  5-MIN K0J4 062045Z AUTO 07010KT 10SM CLR 13/02 A3023 30 46 -100 070/10 RMK AO2 $
63870K0J4 0J420160106155009901/06/16 15:50:31  5-MIN K0J4 062050Z AUTO 07007KT 10SM CLR 13/02 A3022 40 45 -100 070/07 RMK AO2 $
63870K0J4 0J420160106155512201/06/16 15:55:31  5-MIN K0J4 062055Z AUTO 08008KT 10SM CLR 13/02 A3022 40 46 -100 080/08 RMK AO2 SLP234 T01330022 58027 $
63870K0J4 0J420160106160009901/06/16 16:00:31  5-MIN K0J4 062100Z AUTO VRB05KT 10SM CLR 13/02 A3022 40 46 -100 VRB/05 RMK AO2 $
63870K0J4 0J420160106160509901/06/16 16:05:31  5-MIN K0J4 062105Z AUTO 08009KT 10SM CLR 13/02 A3022 40 46 -100 080/09 RMK AO2 $
63870K0J4 0J420160106161009901/06/16 16:10:31  5-MIN K0J4 062110Z AUTO 08008KT 10SM CLR 13/02 A3022 40 45 -100 080/08 RMK AO2 $
63870K0J4 0J420160106161509901/06/16 16:15:31  5-MIN K0J4 062115Z AUTO 08008KT 10SM CLR 13/02 A3022 40 45 -100 080/08 RMK AO2 $
63870K0J4 0J420160106162009901/06/16 16:20:31  5-MIN K0J4 062120Z AUTO 07010KT 10SM CLR 13/02 A3022 40 45 -100 070/10 RMK AO2 $
63870K0J4 0J420160106162509901/06/16 16:25:31  5-MIN K0J4 062125Z AUTO 09006KT 10SM CLR 13/02 A3022 40 46 -100 090/06 RMK AO2 $
63870K0J4 0J420160106163009901/06/16 16:30:31  5-MIN K0J4 062130Z AUTO 07008KT 10SM CLR 13/02 A3022 40 46 -100 070/08 RMK AO2 $
63870K0J4 0J420160106163509901/06/16 16:35:31  5-MIN K0J4 062135Z AUTO 08010KT 10SM CLR 13/02 A3022 40 45 -100 080/10 RMK AO2 $
63870K0J4 0J420160106164009901/06/16 16:40:31  5-MIN K0J4 062140Z AUTO 07008KT 10SM CLR 13/02 A3022 40 46 -100 070/08 RMK AO2 $
63870K0J4 0J420160106164509901/06/16 16:45:31  5-MIN K0J4 062145Z AUTO 09007KT 10SM CLR 13/02 A3022 40 46 -100 090/07 RMK AO2 $
63870K0J4 0J420160106165009901/06/16 16:50:31  5-MIN K0J4 062150Z AUTO 08008KT 10SM CLR 13/02 A3022 40 46 -100 080/08 RMK AO2 $
63870K0J4 0J420160106165511601/06/16 16:55:31  5-MIN K0J4 062155Z AUTO 07008KT 10SM CLR 13/02 A3022 40 46 -100 070/08 RMK AO2 SLP233 T01280017 $
63870K0J4 0J420160106170009901/06/16 17:00:31  5-MIN K0J4 062200Z AUTO 08009KT 10SM CLR 13/02 A3022 40 46 -100 080/09 RMK AO2 $
63870K0J4 0J420160106170509901/06/16 17:05:31  5-MIN K0J4 062205Z AUTO 09008KT 10SM CLR 13/02 A3022 40 46 -100 090/08 RMK AO2 $
63870K0J4 0J420160106171009901/06/16 17:10:31  5-MIN K0J4 062210Z AUTO 08008KT 10SM CLR 12/02 A3022 40 48 -200 080/08 RMK AO2 $
63870K0J4 0J420160106171509901/06/16 17:15:31  5-MIN K0J4 062215Z AUTO 08009KT 10SM CLR 12/02 A3022 40 48 -200 080/09 RMK AO2 $
63870K0J4 0J420160106172009901/06/16 17:20:31  5-MIN K0J4 062220Z AUTO 07007KT 10SM CLR 12/02 A3022 40 50 -300 070/07 RMK AO2 $
63870K0J4 0J420160106172509901/06/16 17:25:31  5-MIN K0J4 062225Z AUTO 07008KT 10SM CLR 12/02 A3022 40 50 -300 070/08 RMK AO2 $
63870K0J4 0J420160106173009901/06/16 17:30:31  5-MIN K0J4 062230Z AUTO 08005KT 10SM CLR 12/02 A3022 40 50 -300 080/05 RMK AO2 $
63870K0J4 0J420160106173509901/06/16 17:35:31  5-MIN K0J4 062235Z AUTO 08005KT 10SM CLR 11/02 A3022 40 52 -300 080/05 RMK AO2 $
63870K0J4 0J420160106174009901/06/16 17:40:31  5-MIN K0J4 062240Z AUTO 08006KT 10SM CLR 11/02 A3022 40 52 -300 080/06 RMK AO2 $
63870K0J4 0J420160106174509901/06/16 17:45:31  5-MIN K0J4 062245Z AUTO 07006KT 10SM CLR 11/02 A3022 40 56 -400 070/06 RMK AO2 $
63870K0J4 0J420160106175009901/06/16 17:50:31  5-MIN K0J4 062250Z AUTO 08008KT 10SM CLR 11/02 A3021 50 54 -400 080/08 RMK AO2 $
63870K0J4 0J420160106175511601/06/16 17:55:31  5-MIN K0J4 062255Z AUTO 08007KT 10SM CLR 11/02 A3021 50 54 -400 080/07 RMK AO2 SLP231 T01060017 $
63870K0J4 0J420160106180009901/06/16 18:00:31  5-MIN K0J4 062300Z AUTO 07006KT 10SM CLR 10/02 A3021 50 56 -500 070/06 RMK AO2 $
63870K0J4 0J420160106180509901/06/16 18:05:31  5-MIN K0J4 062305Z AUTO 06005KT 10SM CLR 10/02 A3022 40 58 -500 060/05 RMK AO2 $
63870K0J4 0J420160106181009901/06/16 18:10:31  5-MIN K0J4 062310Z AUTO 06005KT 10SM CLR 09/02 A3022 40 60 -500 060/05 RMK AO2 $
63870K0J4 0J420160106181509901/06/16 18:15:31  5-MIN K0J4 062315Z AUTO 07005KT 10SM CLR 09/02 A3021 40 58 -500 070/05 RMK AO2 $
63870K0J4 0J420160106182009901/06/16 18:20:31  5-MIN K0J4 062320Z AUTO 06005KT 10SM CLR 09/02 A3022 40 58 -500 060/05 RMK AO2 $
63870K0J4 0J420160106182509901/06/16 18:25:31  5-MIN K0J4 062325Z AUTO 06006KT 10SM CLR 09/02 A3022 40 58 -500 060/06 RMK AO2 $
63870K0J4 0J420160106183009901/06/16 18:30:31  5-MIN K0J4 062330Z AUTO 07006KT 10SM CLR 09/02 A3022 40 58 -500 070/06 RMK AO2 $
63870K0J4 0J420160106183509901/06/16 18:35:31  5-MIN K0J4 062335Z AUTO 07005KT 10SM CLR 09/02 A3022 40 60 -600 070/05 RMK AO2 $
63870K0J4 0J420160106184009901/06/16 18:40:31  5-MIN K0J4 062340Z AUTO 07005KT 10SM CLR 09/02 A3022 40 60 -600 070/05 RMK AO2 $
63870K0J4 0J420160106184509901/06/16 18:45:31  5-MIN K0J4 062345Z AUTO 07006KT 10SM CLR 09/02 A3022 40 60 -600 070/06 RMK AO2 $
63870K0J4 0J420160106185009901/06/16 18:50:31  5-MIN K0J4 062350Z AUTO 07005KT 10SM CLR 09/02 A3022 40 60 -600 070/05 RMK AO2 $
63870K0J4 0J420160106185513401/06/16 18:55:31  5-MIN K0J4 062355Z AUTO 06005KT 10SM CLR 09/02 A3022 40 60 -600 060/05 RMK AO2 SLP234 T00890017 10139 20089 56030 $
63870K0J4 0J420160106190009901/06/16 19:00:31  5-MIN K0J4 070000Z AUTO 07004KT 10SM CLR 08/02 A3023 40 63 -700 070/04 RMK AO2 $
63870K0J4 0J420160106190509901/06/16 19:05:31  5-MIN K0J4 070005Z AUTO 07006KT 10SM CLR 08/01 A3022 40 60 -700 070/06 RMK AO2 $
63870K0J4 0J420160106191009901/06/16 19:10:31  5-MIN K0J4 070010Z AUTO 07006KT 10SM CLR 08/01 A3023 30 60 -700 070/06 RMK AO2 $
63870K0J4 0J420160106191509901/06/16 19:15:31  5-MIN K0J4 070015Z AUTO 07006KT 10SM CLR 08/01 A3023 30 60 -700 070/06 RMK AO2 $
63870K0J4 0J420160106192009901/06/16 19:20:31  5-MIN K0J4 070020Z AUTO 07006KT 10SM CLR 08/01 A3023 30 60 -700 070/06 RMK AO2 $
63870K0J4 0J420160106192509901/06/16 19:25:31  5-MIN K0J4 070025Z AUTO 07006KT 10SM CLR 08/01 A3023 30 58 -700 070/06 RMK AO2 $
63870K0J4 0J420160106193009901/06/16 19:30:31  5-MIN K0J4 070030Z AUTO 06005KT 10SM CLR 08/01 A3023 30 58 -700 060/05 RMK AO2 $
63870K0J4 0J420160106193509901/06/16 19:35:31  5-MIN K0J4 070035Z AUTO 06006KT 10SM CLR 08/01 A3023 30 58 -700 060/06 RMK AO2 $
63870K0J4 0J420160106194009901/06/16 19:40:31  5-MIN K0J4 070040Z AUTO 06008KT 10SM CLR 08/01 A3023 30 58 -700 060/08 RMK AO2 $
63870K0J4 0J420160106194509901/06/16 19:45:31  5-MIN K0J4 070045Z AUTO 07007KT 10SM CLR 08/01 A3023 30 58 -700 070/07 RMK AO2 $
63870K0J4 0J420160106195009901/06/16 19:50:31  5-MIN K0J4 070050Z AUTO 06006KT 10SM CLR 08/01 A3023 30 58 -700 060/06 RMK AO2 $
63870K0J4 0J420160106195511601/06/16 19:55:31  5-MIN K0J4 070055Z AUTO 06005KT 10SM CLR 08/01 A3023 30 60 -700 060/05 RMK AO2 SLP236 T00780006 $
63870K0J4 0J420160106200009901/06/16 20:00:31  5-MIN K0J4 070100Z AUTO 06004KT 10SM CLR 08/01 A3023 30 62 -700 060/04 RMK AO2 $
63870K0J4 0J420160106200509901/06/16 20:05:31  5-MIN K0J4 070105Z AUTO 07004KT 10SM CLR 07/01 A3024 30 65 -800 070/04 RMK AO2 $
63870K0J4 0J420160106201009901/06/16 20:10:31  5-MIN K0J4 070110Z AUTO 07005KT 10SM CLR 07/01 A3024 20 62 -800 070/05 RMK AO2 $
63870K0J4 0J420160106201509901/06/16 20:15:31  5-MIN K0J4 070115Z AUTO 07005KT 10SM CLR 07/01 A3024 20 65 -800 070/05 RMK AO2 $
63870K0J4 0J420160106202009901/06/16 20:20:31  5-MIN K0J4 070120Z AUTO 07005KT 10SM CLR 07/01 A3024 20 65 -800 070/05 RMK AO2 $
63870K0J4 0J420160106202509901/06/16 20:25:31  5-MIN K0J4 070125Z AUTO 07005KT 10SM CLR 07/01 A3024 20 65 -800 070/05 RMK AO2 $
63870K0J4 0J420160106203009901/06/16 20:30:31  5-MIN K0J4 070130Z AUTO 07004KT 10SM CLR 07/01 A3024 20 62 -800 070/04 RMK AO2 $
63870K0J4 0J420160106203509901/06/16 20:35:31  5-MIN K0J4 070135Z AUTO 07004KT 10SM CLR 07/01 A3024 20 62 -800 070/04 RMK AO2 $
63870K0J4 0J420160106204009901/06/16 20:40:31  5-MIN K0J4 070140Z AUTO 07004KT 10SM CLR 07/01 A3024 20 65 -900 070/04 RMK AO2 $
63870K0J4 0J420160106204509901/06/16 20:45:31  5-MIN K0J4 070145Z AUTO 07006KT 10SM CLR 07/01 A3024 20 65 -900 070/06 RMK AO2 $
63870K0J4 0J420160106205009901/06/16 20:50:31  5-MIN K0J4 070150Z AUTO 07005KT 10SM CLR 07/01 A3024 20 65 -900 070/05 RMK AO2 $
63870K0J4 0J420160106205511601/06/16 20:55:31  5-MIN K0J4 070155Z AUTO 07004KT 10SM CLR 07/01 A3024 20 67 -900 070/04 RMK AO2 SLP240 T00670011 $
63870K0J4 0J420160106210009901/06/16 21:00:31  5-MIN K0J4 070200Z AUTO 07004KT 10SM CLR 07/01 A3024 20 65 -900 070/04 RMK AO2 $
63870K0J4 0J420160106210509901/06/16 21:05:31  5-MIN K0J4 070205Z AUTO 07005KT 10SM CLR 07/01 A3024 20 67 -900 070/05 RMK AO2 $
63870K0J4 0J420160106211010001/06/16 21:10:31  5-MIN K0J4 070210Z AUTO 07004KT 10SM CLR 06/01 A3024 20 70 -1000 070/04 RMK AO2 $
63870K0J4 0J420160106211510001/06/16 21:15:31  5-MIN K0J4 070215Z AUTO 08004KT 10SM CLR 06/01 A3024 20 67 -1000 080/04 RMK AO2 $
63870K0J4 0J420160106212009901/06/16 21:20:31  5-MIN K0J4 070220Z AUTO 08004KT 10SM CLR 07/01 A3024 20 65 -900 080/04 RMK AO2 $
63870K0J4 0J420160106212509901/06/16 21:25:31  5-MIN K0J4 070225Z AUTO 08004KT 10SM CLR 07/01 A3024 20 65 -900 080/04 RMK AO2 $
63870K0J4 0J420160106213010001/06/16 21:30:31  5-MIN K0J4 070230Z AUTO 08004KT 10SM CLR 06/01 A3024 20 67 -1000 080/04 RMK AO2 $
63870K0J4 0J420160106213510001/06/16 21:35:31  5-MIN K0J4 070235Z AUTO 08003KT 10SM CLR 06/01 A3024 20 67 -1000 080/03 RMK AO2 $
63870K0J4 0J420160106214010001/06/16 21:40:31  5-MIN K0J4 070240Z AUTO 08004KT 10SM CLR 06/01 A3024 20 67 -1000 080/04 RMK AO2 $
63870K0J4 0J420160106214510001/06/16 21:45:31  5-MIN K0J4 070245Z AUTO 08004KT 10SM CLR 06/01 A3024 20 67 -1000 080/04 RMK AO2 $
63870K0J4 0J420160106215010001/06/16 21:50:31  5-MIN K0J4 070250Z AUTO 07004KT 10SM CLR 06/01 A3024 30 67 -1000 070/04 RMK AO2 $
63870K0J4 0J420160106215512301/06/16 21:55:31  5-MIN K0J4 070255Z AUTO 07004KT 10SM CLR 06/01 A3023 30 67 -1000 070/04 RMK AO2 SLP239 T00610006 53001 $
63870K0J4 0J420160106220010001/06/16 22:00:31  5-MIN K0J4 070300Z AUTO 07005KT 10SM CLR 06/01 A3024 30 67 -1000 070/05 RMK AO2 $
63870K0J4 0J420160106220510001/06/16 22:05:31  5-MIN K0J4 070305Z AUTO 08004KT 10SM CLR 06/01 A3024 20 67 -1000 080/04 RMK AO2 $
63870K0J4 0J420160106221010001/06/16 22:10:31  5-MIN K0J4 070310Z AUTO 08003KT 10SM CLR 06/01 A3024 20 70 -1000 080/03 RMK AO2 $
63870K0J4 0J420160106221510001/06/16 22:15:31  5-MIN K0J4 070315Z AUTO 07004KT 10SM CLR 06/01 A3024 30 70 -1000 070/04 RMK AO2 $
63870K0J4 0J420160106222010001/06/16 22:20:31  5-MIN K0J4 070320Z AUTO 07005KT 10SM CLR 06/01 A3023 30 70 -1000 070/05 RMK AO2 $
63870K0J4 0J420160106222510001/06/16 22:25:31  5-MIN K0J4 070325Z AUTO 07005KT 10SM CLR 06/01 A3023 30 70 -1000 070/05 RMK AO2 $
63870K0J4 0J420160106223010001/06/16 22:30:31  5-MIN K0J4 070330Z AUTO 07004KT 10SM CLR 06/01 A3023 30 70 -1000 070/04 RMK AO2 $
63870K0J4 0J420160106223510001/06/16 22:35:31  5-MIN K0J4 070335Z AUTO 08004KT 10SM CLR 06/01 A3023 30 70 -1000 080/04 RMK AO2 $
63870K0J4 0J420160106224010001/06/16 22:40:31  5-MIN K0J4 070340Z AUTO 08005KT 10SM CLR 06/01 A3023 30 70 -1000 080/05 RMK AO2 $
63870K0J4 0J420160106224509901/06/16 22:45:31  5-MIN K0J4 070345Z AUTO 08005KT 10SM CLR 06/00 A3023 30 65 -900 080/05 RMK AO2 $
63870K0J4 0J420160106225010001/06/16 22:50:31  5-MIN K0J4 070350Z AUTO 08006KT 10SM CLR 06/00 A3023 30 67 -1000 080/06 RMK AO2 $
63870K0J4 0J420160106225511601/06/16 22:55:31  5-MIN K0J4 070355Z AUTO 08006KT 10SM CLR 06/00 A3023 30 65 -900 080/06 RMK AO2 SLP237 T00610000 $
63870K0J4 0J420160106230009901/06/16 23:00:31  5-MIN K0J4 070400Z AUTO 08007KT 10SM CLR 06/00 A3023 30 65 -900 080/07 RMK AO2 $
63870K0J4 0J420160106230509901/06/16 23:05:31  5-MIN K0J4 070405Z AUTO 08007KT 10SM CLR 06/00 A3023 30 65 -900 080/07 RMK AO2 $
63870K0J4 0J420160106231010001/06/16 23:10:31  5-MIN K0J4 070410Z AUTO 08007KT 10SM CLR 06/M01 A3023 30 62 -900 080/07 RMK AO2 $
63870K0J4 0J420160106231510001/06/16 23:15:31  5-MIN K0J4 070415Z AUTO 08008KT 10SM CLR 06/M01 A3023 30 62 -900 080/08 RMK AO2 $
63870K0J4 0J420160106232010001/06/16 23:20:31  5-MIN K0J4 070420Z AUTO 08006KT 10SM CLR 06/M01 A3023 30 62 -900 080/06 RMK AO2 $
63870K0J4 0J420160106232510001/06/16 23:25:31  5-MIN K0J4 070425Z AUTO 08007KT 10SM CLR 06/M01 A3023 40 62 -900 080/07 RMK AO2 $
63870K0J4 0J420160106233010101/06/16 23:30:31  5-MIN K0J4 070430Z AUTO 08006KT 10SM CLR 06/M01 A3022 40 65 -1000 080/06 RMK AO2 $
63870K0J4 0J420160106233510101/06/16 23:35:31  5-MIN K0J4 070435Z AUTO 08006KT 10SM CLR 06/M01 A3022 40 65 -1000 080/06 RMK AO2 $
63870K0J4 0J420160106234010101/06/16 23:40:31  5-MIN K0J4 070440Z AUTO 08006KT 10SM CLR 06/M01 A3022 40 65 -1000 080/06 RMK AO2 $
63870K0J4 0J420160106234510101/06/16 23:45:31  5-MIN K0J4 070445Z AUTO 08006KT 10SM CLR 06/M01 A3022 40 65 -1000 080/06 RMK AO2 $
63870K0J4 0J420160106235010101/06/16 23:50:31  5-MIN K0J4 070450Z AUTO 07006KT 10SM CLR 06/M01 A3021 50 65 -1000 070/06 RMK AO2 $
63870K0J4 0J420160106235512801/06/16 23:55:31  5-MIN K0J4 070455Z AUTO 07006KT 10SM CLR 06/M01 A3021 50 65 -1000 070/06 RMK AO2 SLP229 T00561006 401390011 $
63870K0J4 0J420160107000010101/07/16 00:00:31  5-MIN K0J4 070500Z AUTO 07006KT 10SM CLR 05/M01 A3021 50 67 -1100 070/06 RMK AO2 $
63870K0J4 0J420160107000510101/07/16 00:05:31  5-MIN K0J4 070505Z AUTO 07006KT 10SM CLR 05/M01 A3020 60 67 -1100 070/06 RMK AO2 $
63870K0J4 0J420160107001010101/07/16 00:10:31  5-MIN K0J4 070510Z AUTO 08006KT 10SM CLR 05/M01 A3020 60 67 -1000 080/06 RMK AO2 $
63870K0J4 0J420160107001510101/07/16 00:15:31  5-MIN K0J4 070515Z AUTO 07006KT 10SM CLR 05/M01 A3020 60 67 -1000 070/06 RMK AO2 $
63870K0J4 0J420160107002010101/07/16 00:20:31  5-MIN K0J4 070520Z AUTO 08006KT 10SM CLR 05/M01 A3020 60 67 -1000 080/06 RMK AO2 $
63870K0J4 0J420160107002510101/07/16 00:25:31  5-MIN K0J4 070525Z AUTO 08005KT 10SM CLR 05/M01 A3020 60 67 -1000 080/05 RMK AO2 $
63870K0J4 0J420160107003010101/07/16 00:30:31  5-MIN K0J4 070530Z AUTO 07004KT 10SM CLR 05/M01 A3020 60 67 -1000 070/04 RMK AO2 $
63870K0J4 0J420160107003510101/07/16 00:35:31  5-MIN K0J4 070535Z AUTO 07005KT 10SM CLR 05/M01 A3019 70 67 -1000 070/05 RMK AO2 $
63870K0J4 0J420160107004010101/07/16 00:40:31  5-MIN K0J4 070540Z AUTO 07005KT 10SM CLR 05/M01 A3019 70 67 -1000 070/05 RMK AO2 $
63870K0J4 0J420160107004510101/07/16 00:45:31  5-MIN K0J4 070545Z AUTO 07005KT 10SM CLR 04/M01 A3019 70 70 -1100 070/05 RMK AO2 $
63870K0J4 0J420160107005010101/07/16 00:50:31  5-MIN K0J4 070550Z AUTO 06005KT 10SM CLR 04/M01 A3019 70 70 -1100 060/05 RMK AO2 $
63870K0J4 0J420160107005513601/07/16 00:55:31  5-MIN K0J4 070555Z AUTO 06005KT 10SM CLR 04/M01 A3019 70 70 -1100 060/05 RMK AO2 SLP222 T00441006 10089 20044 50004 $
63870K0J4 0J420160107010010101/07/16 01:00:31  5-MIN K0J4 070600Z AUTO 06005KT 10SM CLR 04/M01 A3019 70 70 -1100 060/05 RMK AO2 $
63870K0J4 0J420160107010510101/07/16 01:05:31  5-MIN K0J4 070605Z AUTO 06005KT 10SM CLR 04/M01 A3019 70 70 -1100 060/05 RMK AO2 $
63870K0J4 0J420160107011010101/07/16 01:10:31  5-MIN K0J4 070610Z AUTO 06004KT 10SM CLR 05/M01 A3018 70 67 -1000 060/04 RMK AO2 $
63870K0J4 0J420160107011510101/07/16 01:15:31  5-MIN K0J4 070615Z AUTO 06005KT 10SM CLR 04/M01 A3018 70 70 -1100 060/05 RMK AO2 $
63870K0J4 0J420160107012010401/07/16 01:20:31  5-MIN K0J4 070620Z AUTO 07005KT 10SM FEW010 04/M01 A3018 80 70 -1100 070/05 RMK AO2 $
63870K0J4 0J420160107012510401/07/16 01:25:31  5-MIN K0J4 070625Z AUTO 07005KT 10SM FEW010 04/M01 A3018 80 70 -1100 070/05 RMK AO2 $
63870K0J4 0J420160107013010101/07/16 01:30:31  5-MIN K0J4 070630Z AUTO 08005KT 10SM CLR 04/M01 A3018 80 70 -1100 080/05 RMK AO2 $
63870K0J4 0J420160107013510101/07/16 01:35:31  5-MIN K0J4 070635Z AUTO 07005KT 10SM CLR 04/M01 A3017 80 70 -1100 070/05 RMK AO2 $
63870K0J4 0J420160107014010101/07/16 01:40:31  5-MIN K0J4 070640Z AUTO 07005KT 10SM CLR 04/M01 A3017 90 70 -1100 070/05 RMK AO2 $
63870K0J4 0J420160107014510101/07/16 01:45:31  5-MIN K0J4 070645Z AUTO 07005KT 10SM CLR 04/M01 A3017 90 70 -1100 070/05 RMK AO2 $
63870K0J4 0J420160107015010101/07/16 01:50:31  5-MIN K0J4 070650Z AUTO 07004KT 10SM CLR 04/M01 A3017 90 70 -1100 070/04 RMK AO2 $
63870K0J4 0J420160107015511801/07/16 01:55:31  5-MIN K0J4 070655Z AUTO 07005KT 10SM CLR 04/M01 A3016 90 70 -1100 070/05 RMK AO2 SLP214 T00441006 $
63870K0J4 0J420160107020010201/07/16 02:00:31  5-MIN K0J4 070700Z AUTO 07005KT 10SM CLR 04/M01 A3016 100 73 -1100 070/05 RMK AO2 $
63870K0J4 0J420160107020510501/07/16 02:05:31  5-MIN K0J4 070705Z AUTO 06005KT 10SM FEW009 04/M01 A3016 100 70 -1100 060/05 RMK AO2 $
63870K0J4 0J420160107021010501/07/16 02:10:31  5-MIN K0J4 070710Z AUTO 06005KT 10SM SCT009 04/M01 A3016 100 70 -1100 060/05 RMK AO2 $
63870K0J4 0J420160107021510501/07/16 02:15:31  5-MIN K0J4 070715Z AUTO 07006KT 10SM SCT009 04/M01 A3016 100 70 -1100 070/06 RMK AO2 $
63870K0J4 0J420160107022010501/07/16 02:20:31  5-MIN K0J4 070720Z AUTO 07004KT 10SM SCT009 04/M01 A3016 100 70 -1100 070/04 RMK AO2 $
63870K0J4 0J420160107022510501/07/16 02:25:31  5-MIN K0J4 070725Z AUTO 07005KT 10SM BKN009 04/M01 A3016 100 70 -1100 070/05 RMK AO2 $
63870K0J4 0J420160107023010501/07/16 02:30:31  5-MIN K0J4 070730Z AUTO 07004KT 10SM BKN009 04/M01 A3015 100 70 -1100 070/04 RMK AO2 $
63870K0J4 0J420160107023510501/07/16 02:35:31  5-MIN K0J4 070735Z AUTO 07005KT 10SM BKN009 04/M01 A3015 100 70 -1100 070/05 RMK AO2 $
63870K0J4 0J420160107024010501/07/16 02:40:31  5-MIN K0J4 070740Z AUTO 07005KT 10SM SCT009 04/M01 A3015 110 70 -1100 070/05 RMK AO2 $
63870K0J4 0J420160107024510501/07/16 02:45:31  5-MIN K0J4 070745Z AUTO 07006KT 10SM FEW009 04/M01 A3014 110 70 -1000 070/06 RMK AO2 $
63870K0J4 0J420160107025010501/07/16 02:50:31  5-MIN K0J4 070750Z AUTO 07007KT 10SM FEW009 04/M01 A3014 120 70 -1000 070/07 RMK AO2 $
63870K0J4 0J420160107025512201/07/16 02:55:31  5-MIN K0J4 070755Z AUTO 07005KT 10SM FEW009 04/M01 A3013 120 70 -1000 070/05 RMK AO2 SLP204 T00441006 $
63870K0J4 0J420160107030010501/07/16 03:00:31  5-MIN K0J4 070800Z AUTO 07006KT 10SM FEW009 04/M01 A3013 120 70 -1000 070/06 RMK AO2 $
63870K0J4 0J420160107030510201/07/16 03:05:31  5-MIN K0J4 070805Z AUTO 07005KT 10SM CLR 04/M01 A3013 130 70 -1000 070/05 RMK AO2 $
63870K0J4 0J420160107031010201/07/16 03:10:31  5-MIN K0J4 070810Z AUTO 07007KT 10SM CLR 04/M01 A3012 130 70 -1000 070/07 RMK AO2 $
63870K0J4 0J420160107031510201/07/16 03:15:31  5-MIN K0J4 070815Z AUTO 07007KT 10SM CLR 04/M01 A3012 130 70 -1000 070/07 RMK AO2 $
63870K0J4 0J420160107032010101/07/16 03:20:31  5-MIN K0J4 070820Z AUTO 07006KT 10SM CLR 04/00 A3013 130 73 -1000 070/06 RMK AO2 $
63870K0J4 0J420160107032510101/07/16 03:25:31  5-MIN K0J4 070825Z AUTO 07005KT 10SM CLR 04/00 A3013 130 73 -1000 070/05 RMK AO2 $
63870K0J4 0J420160107033010101/07/16 03:30:31  5-MIN K0J4 070830Z AUTO 07005KT 10SM CLR 04/00 A3013 130 73 -1000 070/05 RMK AO2 $
63870K0J4 0J420160107033510101/07/16 03:35:31  5-MIN K0J4 070835Z AUTO 07005KT 10SM CLR 04/00 A3012 130 73 -1000 070/05 RMK AO2 $
63870K0J4 0J420160107134009901/07/16 13:40:31  5-MIN K0J4 071840Z AUTO 10003KT 10SM CLR 13/08 A3003 220 71 100 100/03 RMK AO2 $
63870K0J4 0J420160107134509901/07/16 13:45:31  5-MIN K0J4 071845Z AUTO 10004KT 10SM CLR 13/08 A3002 220 71 100 100/04 RMK AO2 $
63870K0J4 0J420160107135009901/07/16 13:50:31  5-MIN K0J4 071850Z AUTO 07004KT 10SM CLR 14/08 A3002 230 69 200 070/04 RMK AO2 $
63870K0J4 0J420160107135511601/07/16 13:55:31  5-MIN K0J4 071855Z AUTO 08004KT 10SM CLR 14/09 A3002 230 71 200 080/04 RMK AO2 SLP163 T01390089 $
63870K0J4 0J420160107140009901/07/16 14:00:31  5-MIN K0J4 071900Z AUTO 06005KT 10SM CLR 14/09 A3001 240 71 200 060/05 RMK AO2 $
63870K0J4 0J420160107140509901/07/16 14:05:31  5-MIN K0J4 071905Z AUTO 04004KT 10SM CLR 13/08 A3000 240 71 100 040/04 RMK AO2 $
63870K0J4 0J420160107141009901/07/16 14:10:31  5-MIN K0J4 071910Z AUTO 05004KT 10SM CLR 14/09 A3000 240 71 200 050/04 RMK AO2 $
63870K0J4 0J420160107141509901/07/16 14:15:31  5-MIN K0J4 071915Z AUTO 11005KT 10SM CLR 13/08 A3000 250 71 100 110/05 RMK AO2 $
63870K0J4 0J420160107142009901/07/16 14:20:31  5-MIN K0J4 071920Z AUTO 07006KT 10SM CLR 13/09 A2999 250 74 200 070/06 RMK AO2 $
63870K0J4 0J420160107142510601/07/16 14:25:31  5-MIN K0J4 071925Z AUTO 05006KT 10SM CLR 13/08 A2998 260 71 200 050/06 RMK AO2 PRESFR $
63870K0J4 0J420160107143009901/07/16 14:30:31  5-MIN K0J4 071930Z AUTO 06005KT 10SM CLR 13/08 A2998 260 71 200 060/05 RMK AO2 $
63870K0J4 0J420160107143509901/07/16 14:35:31  5-MIN K0J4 071935Z AUTO 05006KT 10SM CLR 13/08 A2998 260 71 200 050/06 RMK AO2 $
63870K0J4 0J420160107144009901/07/16 14:40:31  5-MIN K0J4 071940Z AUTO 08006KT 10SM CLR 13/08 A2999 260 71 200 080/06 RMK AO2 $
63870K0J4 0J420160107144509901/07/16 14:45:31  5-MIN K0J4 071945Z AUTO 04004KT 10SM CLR 13/09 A2998 260 74 200 040/04 RMK AO2 $
63870K0J4 0J420160107145009901/07/16 14:50:31  5-MIN K0J4 071950Z AUTO 06005KT 10SM CLR 14/09 A2998 260 71 200 060/05 RMK AO2 $
63870K0J4 0J420160107145511601/07/16 14:55:31  5-MIN K0J4 071955Z AUTO 06004KT 10SM CLR 14/09 A2999 250 71 200 060/04 RMK AO2 SLP154 T01390089 $
63870K0J4 0J420160107150009901/07/16 15:00:31  5-MIN K0J4 072000Z AUTO 05003KT 10SM CLR 14/09 A2999 250 71 200 050/03 RMK AO2 $
63870K0J4 0J420160107150509901/07/16 15:05:31  5-MIN K0J4 072005Z AUTO 06004KT 10SM CLR 14/09 A2998 260 69 300 060/04 RMK AO2 $
63870K0J4 0J420160107151009901/07/16 15:10:31  5-MIN K0J4 072010Z AUTO 07005KT 10SM CLR 15/09 A2998 260 66 400 070/05 RMK AO2 $
63870K0J4 0J420160107151509901/07/16 15:15:31  5-MIN K0J4 072015Z AUTO 06006KT 10SM CLR 15/09 A2998 260 66 400 060/06 RMK AO2 $
63870K0J4 0J420160107152009901/07/16 15:20:31  5-MIN K0J4 072020Z AUTO 07006KT 10SM CLR 14/09 A2997 270 69 300 070/06 RMK AO2 $
63870K0J4 0J420160107152509901/07/16 15:25:31  5-MIN K0J4 072025Z AUTO 06005KT 10SM CLR 14/09 A2997 270 69 300 060/05 RMK AO2 $
63870K0J4 0J420160107153009901/07/16 15:30:31  5-MIN K0J4 072030Z AUTO 07005KT 10SM CLR 15/09 A2997 270 66 400 070/05 RMK AO2 $
63870K0J4 0J420160107153509901/07/16 15:35:31  5-MIN K0J4 072035Z AUTO 07006KT 10SM CLR 14/09 A2996 280 69 300 070/06 RMK AO2 $
63870K0J4 0J420160107154009901/07/16 15:40:31  5-MIN K0J4 072040Z AUTO 08004KT 10SM CLR 14/09 A2996 280 72 300 080/04 RMK AO2 $
63870K0J4 0J420160107154509901/07/16 15:45:31  5-MIN K0J4 072045Z AUTO 10006KT 10SM CLR 15/09 A2996 280 69 400 100/06 RMK AO2 $
63870K0J4 0J420160107155009901/07/16 15:50:31  5-MIN K0J4 072050Z AUTO 08006KT 10SM CLR 15/09 A2996 280 69 400 080/06 RMK AO2 $
63870K0J4 0J420160107155512201/07/16 15:55:31  5-MIN K0J4 072055Z AUTO 07006KT 10SM CLR 15/09 A2996 280 69 400 070/06 RMK AO2 SLP145 T01500094 58028 $
63870K0J4 0J420160107160009901/07/16 16:00:31  5-MIN K0J4 072100Z AUTO 06006KT 10SM CLR 15/09 A2996 280 69 400 060/06 RMK AO2 $
63870K0J4 0J420160107160509901/07/16 16:05:31  5-MIN K0J4 072105Z AUTO 04005KT 10SM CLR 15/09 A2996 280 69 400 040/05 RMK AO2 $
63870K0J4 0J420160107161009901/07/16 16:10:31  5-MIN K0J4 072110Z AUTO 06004KT 10SM CLR 15/09 A2996 280 69 400 060/04 RMK AO2 $
63870K0J4 0J420160107161509901/07/16 16:15:31  5-MIN K0J4 072115Z AUTO 07003KT 10SM CLR 15/09 A2996 280 69 400 070/03 RMK AO2 $
63870K0J4 0J420160107162009901/07/16 16:20:31  5-MIN K0J4 072120Z AUTO 06003KT 10SM CLR 15/09 A2997 270 69 400 060/03 RMK AO2 $
63870K0J4 0J420160107162509901/07/16 16:25:31  5-MIN K0J4 072125Z AUTO 00000KT 10SM CLR 15/10 A2997 270 72 400 000/00 RMK AO2 $
63870K0J4 0J420160107163009901/07/16 16:30:31  5-MIN K0J4 072130Z AUTO 04004KT 10SM CLR 16/10 A2996 280 69 400 040/04 RMK AO2 $
63870K0J4 0J420160107163509901/07/16 16:35:31  5-MIN K0J4 072135Z AUTO 05003KT 10SM CLR 16/10 A2996 280 69 400 050/03 RMK AO2 $
63870K0J4 0J420160107164009901/07/16 16:40:31  5-MIN K0J4 072140Z AUTO 04004KT 10SM CLR 16/10 A2996 280 69 400 040/04 RMK AO2 $
63870K0J4 0J420160107164509901/07/16 16:45:31  5-MIN K0J4 072145Z AUTO 07004KT 10SM CLR 15/10 A2996 280 72 400 070/04 RMK AO2 $
63870K0J4 0J420160107165009901/07/16 16:50:31  5-MIN K0J4 072150Z AUTO 06004KT 10SM CLR 15/10 A2997 270 72 400 060/04 RMK AO2 $
63870K0J4 0J420160107165511601/07/16 16:55:31  5-MIN K0J4 072155Z AUTO 08004KT 10SM CLR 15/10 A2997 270 72 400 080/04 RMK AO2 SLP147 T01500100 $
63870K0J4 0J420160107170009901/07/16 17:00:31  5-MIN K0J4 072200Z AUTO 09004KT 10SM CLR 14/10 A2997 270 74 300 090/04 RMK AO2 $
63870K0J4 0J420160107170509901/07/16 17:05:31  5-MIN K0J4 072205Z AUTO 08004KT 10SM CLR 14/10 A2998 270 74 300 080/04 RMK AO2 $
63870K0J4 0J420160107171009901/07/16 17:10:31  5-MIN K0J4 072210Z AUTO VRB03KT 10SM CLR 15/10 A2998 260 72 400 VRB/03 RMK AO2 $
63870K0J4 0J420160107171510201/07/16 17:15:31  5-MIN K0J4 072215Z AUTO 00000KT 10SM FEW047 14/10 A2998 260 74 300 000/00 RMK AO2 $
63870K0J4 0J420160107172010201/07/16 17:20:31  5-MIN K0J4 072220Z AUTO 00000KT 10SM SCT047 14/10 A2998 260 74 300 000/00 RMK AO2 $
63870K0J4 0J420160107172510201/07/16 17:25:31  5-MIN K0J4 072225Z AUTO 00000KT 10SM SCT047 14/10 A2997 270 74 300 000/00 RMK AO2 $
63870K0J4 0J420160107173010901/07/16 17:30:31  5-MIN K0J4 072230Z AUTO 00000KT 10SM SCT047 BKN085 14/10 A2998 260 74 300 000/00 RMK AO2 $
63870K0J4 0J420160107173510901/07/16 17:35:31  5-MIN K0J4 072235Z AUTO 00000KT 10SM BKN047 BKN085 14/10 A2998 260 74 300 000/00 RMK AO2 $
63870K0J4 0J420160107174010901/07/16 17:40:31  5-MIN K0J4 072240Z AUTO 00000KT 10SM BKN045 BKN085 14/10 A2998 260 74 300 000/00 RMK AO2 $
63870K0J4 0J420160107174510901/07/16 17:45:31  5-MIN K0J4 072245Z AUTO 00000KT 10SM BKN045 OVC085 14/10 A2999 260 74 300 000/00 RMK AO2 $
63870K0J4 0J420160107175010901/07/16 17:50:31  5-MIN K0J4 072250Z AUTO 00000KT 10SM BKN045 OVC085 14/10 A2999 260 77 200 000/00 RMK AO2 $
63870K0J4 0J420160107175511901/07/16 17:55:31  5-MIN K0J4 072255Z AUTO 00000KT 10SM OVC045 14/10 A2999 250 77 200 000/00 RMK AO2 SLP154 T01390100 $
63870K0J4 0J420160107180010201/07/16 18:00:31  5-MIN K0J4 072300Z AUTO 00000KT 10SM OVC045 14/11 A2999 260 80 200 000/00 RMK AO2 $
63870K0J4 0J420160107180510201/07/16 18:05:31  5-MIN K0J4 072305Z AUTO 00000KT 10SM OVC043 14/10 A2999 250 77 200 000/00 RMK AO2 $
63870K0J4 0J420160107181010201/07/16 18:10:31  5-MIN K0J4 072310Z AUTO 00000KT 10SM OVC043 14/11 A2999 250 80 200 000/00 RMK AO2 $
63870K0J4 0J420160107181510201/07/16 18:15:31  5-MIN K0J4 072315Z AUTO 00000KT 10SM OVC043 14/11 A2999 250 80 200 000/00 RMK AO2 $
63870K0J4 0J420160107182011801/07/16 18:20:31  5-MIN K0J4 072320Z AUTO 00000KT 10SM -RA OVC043 14/11 A2999 250 80 200 000/00 RMK AO2 RAB18 P0000 $
63870K0J4 0J420160107182513201/07/16 18:25:31  5-MIN K0J4 072325Z AUTO 06003KT 10SM -RA BKN043 BKN050 OVC090 13/11 A2999 250 83 200 060/03 RMK AO2 RAB18 P0000 $
63870K0J4 0J420160107183013201/07/16 18:30:31  5-MIN K0J4 072330Z AUTO 05003KT 10SM -RA SCT043 BKN050 OVC090 13/11 A2999 250 83 200 050/03 RMK AO2 RAB18 P0000 $
63870K0J4 0J420160107183512501/07/16 18:35:31  5-MIN K0J4 072335Z AUTO 06004KT 10SM -RA SCT045 OVC090 13/11 A2999 250 83 200 060/04 RMK AO2 RAB18 P0000 $
63870K0J4 0J420160107184012301/07/16 18:40:31  5-MIN K0J4 072340Z AUTO 06004KT 8SM RA FEW045 OVC090 13/11 A2999 250 86 200 060/04 RMK AO2 RAB18 P0001 $
63870K0J4 0J420160107184512301/07/16 18:45:31  5-MIN K0J4 072345Z AUTO 06004KT 7SM RA FEW045 OVC090 13/11 A2999 250 89 100 060/04 RMK AO2 RAB18 P0001 $
63870K0J4 0J420160107185011601/07/16 18:50:31  5-MIN K0J4 072350Z AUTO 06006KT 7SM RA OVC085 13/11 A2998 260 89 100 060/06 RMK AO2 RAB18 P0002 $
63870K0J4 0J420160107185515701/07/16 18:55:31  5-MIN K0J4 072355Z AUTO 06007KT 7SM RA OVC085 13/11 A2998 260 89 100 060/07 RMK AO2 RAB18 SLP152 P0003 60003 T01280111 10156 20128 56028 $
63870K0J4 0J420160107190011001/07/16 19:00:31  5-MIN K0J4 080000Z AUTO 06007KT 7SM RA OVC080 13/11 A2998 260 89 100 060/07 RMK AO2 P0000 $
63870K0J4 0J420160107190510801/07/16 19:05:31  5-MIN K0J4 080005Z AUTO 06007KT 8SM RA OVC080 12/11 A2998 260 93 0 060/07 RMK AO2 P0001 $
63870K0J4 0J420160107191010901/07/16 19:10:31  5-MIN K0J4 080010Z AUTO 06006KT 8SM -RA OVC080 12/11 A2997 270 93 0 060/06 RMK AO2 P0001 $
63870K0J4 0J420160107191510801/07/16 19:15:31  5-MIN K0J4 080015Z AUTO 06007KT 8SM RA OVC085 12/11 A2997 270 93 0 060/07 RMK AO2 P0002 $
63870K0J4 0J420160107192010901/07/16 19:20:31  5-MIN K0J4 080020Z AUTO 07006KT 8SM -RA OVC090 12/11 A2997 270 93 0 070/06 RMK AO2 P0003 $
63870K0J4 0J420160107192511001/07/16 19:25:31  5-MIN K0J4 080025Z AUTO 07007KT 10SM -RA OVC090 12/11 A2997 270 93 0 070/07 RMK AO2 P0003 $
63870K0J4 0J420160107193011701/07/16 19:30:31  5-MIN K0J4 080030Z AUTO 07006KT 10SM -RA BKN095 OVC110 12/11 A2997 270 93 0 070/06 RMK AO2 P0003 $
63870K0J4 0J420160107193511001/07/16 19:35:31  5-MIN K0J4 080035Z AUTO 07006KT 10SM -RA OVC095 12/11 A2997 270 89 0 070/06 RMK AO2 P0003 $
63870K0J4 0J420160107194011001/07/16 19:40:31  5-MIN K0J4 080040Z AUTO 08005KT 10SM -RA OVC090 12/11 A2998 260 93 0 080/05 RMK AO2 P0003 $
63870K0J4 0J420160107194511001/07/16 19:45:31  5-MIN K0J4 080045Z AUTO 08003KT 10SM -RA OVC090 12/11 A2998 260 89 0 080/03 RMK AO2 P0003 $
63870K0J4 0J420160107195011001/07/16 19:50:31  5-MIN K0J4 080050Z AUTO 07005KT 10SM -RA OVC090 12/11 A2998 260 89 0 070/05 RMK AO2 P0003 $
63870K0J4 0J420160107195512701/07/16 19:55:31  5-MIN K0J4 080055Z AUTO 07004KT 10SM -RA OVC085 12/11 A2998 260 89 0 070/04 RMK AO2 SLP152 P0004 T01220106 $
63870K0J4 0J420160107200011001/07/16 20:00:31  5-MIN K0J4 080100Z AUTO 07003KT 10SM -RA OVC085 12/11 A2998 260 89 0 070/03 RMK AO2 P0000 $
63870K0J4 0J420160107200510901/07/16 20:05:31  5-MIN K0J4 080105Z AUTO 09003KT 9SM -RA OVC080 12/11 A2999 250 93 0 090/03 RMK AO2 P0000 $
63870K0J4 0J420160107201010901/07/16 20:10:31  5-MIN K0J4 080110Z AUTO 08003KT 8SM -RA OVC080 12/11 A2999 250 89 0 080/03 RMK AO2 P0001 $
63870K0J4 0J420160107201510901/07/16 20:15:31  5-MIN K0J4 080115Z AUTO 08003KT 7SM -RA OVC080 12/11 A2999 250 89 0 080/03 RMK AO2 P0001 $
63870K0J4 0J420160107202011101/07/16 20:20:31  5-MIN K0J4 080120Z AUTO 09003KT 6SM RA BR OVC080 12/11 A2999 250 96 0 090/03 RMK AO2 P0002 $
63870K0J4 0J420160107202511101/07/16 20:25:31  5-MIN K0J4 080125Z AUTO 08004KT 6SM RA BR OVC080 12/11 A2999 250 96 0 080/04 RMK AO2 P0003 $
63870K0J4 0J420160107203011101/07/16 20:30:31  5-MIN K0J4 080130Z AUTO 08004KT 6SM RA BR OVC080 12/11 A2999 260 96 0 080/04 RMK AO2 P0005 $
63870K0J4 0J420160107203511101/07/16 20:35:31  5-MIN K0J4 080135Z AUTO 08006KT 6SM RA BR OVC085 12/11 A2998 260 93 0 080/06 RMK AO2 P0006 $
63870K0J4 0J420160107204010801/07/16 20:40:31  5-MIN K0J4 080140Z AUTO 08006KT 7SM RA OVC085 12/11 A2998 260 93 0 080/06 RMK AO2 P0007 $
63870K0J4 0J420160107204511101/07/16 20:45:31  5-MIN K0J4 080145Z AUTO 08007KT 6SM RA BR OVC085 12/11 A2998 260 93 0 080/07 RMK AO2 P0008 $
63870K0J4 0J420160107205011101/07/16 20:50:31  5-MIN K0J4 080150Z AUTO 08007KT 6SM RA BR OVC090 12/11 A2998 260 93 0 080/07 RMK AO2 P0009 $
63870K0J4 0J420160107205512501/07/16 20:55:31  5-MIN K0J4 080155Z AUTO 09008KT 7SM RA OVC090 12/11 A2997 270 93 0 090/08 RMK AO2 SLP150 P0010 T01170106 $
63870K0J4 0J420160107210010801/07/16 21:00:31  5-MIN K0J4 080200Z AUTO 09007KT 7SM RA OVC085 12/11 A2997 270 93 0 090/07 RMK AO2 P0001 $
63870K0J4 0J420160107210510801/07/16 21:05:31  5-MIN K0J4 080205Z AUTO 09008KT 7SM RA OVC085 12/11 A2997 270 93 0 090/08 RMK AO2 P0002 $
63870K0J4 0J420160107211010801/07/16 21:10:31  5-MIN K0J4 080210Z AUTO 10008KT 7SM RA OVC085 12/11 A2996 280 93 0 100/08 RMK AO2 P0003 $
63870K0J4 0J420160107211512401/07/16 21:15:31  5-MIN K0J4 080215Z AUTO 10007KT 070V140 7SM RA OVC085 12/11 A2996 280 93 0 100/07 070V140 RMK AO2 P0004 $
63870K0J4 0J420160107212011501/07/16 21:20:31  5-MIN K0J4 080220Z AUTO 10010G14KT 7SM -RA OVC085 12/11 A2996 280 93 0 100/10G14 RMK AO2 P0004 $
63870K0J4 0J420160107212511701/07/16 21:25:31  5-MIN K0J4 080225Z AUTO 11009G15KT 6SM RA BR OVC085 12/11 A2996 280 93 0 110/09G15 RMK AO2 P0005 $
63870K0J4 0J420160107213011701/07/16 21:30:31  5-MIN K0J4 080230Z AUTO 11009G16KT 6SM RA BR OVC080 12/11 A2995 290 93 0 110/09G16 RMK AO2 P0006 $
63870K0J4 0J420160107213512101/07/16 21:35:31  5-MIN K0J4 080235Z AUTO 10009G20KT 7SM RA OVC085 12/11 A2994 300 93 0 100/09G20 RMK AO2 PRESFR P0007 $
63870K0J4 0J420160107214012201/07/16 21:40:31  5-MIN K0J4 080240Z AUTO 10011G22KT 8SM -RA OVC090 12/11 A2993 310 93 0 100/11G22 RMK AO2 PRESFR P0007 $
63870K0J4 0J420160107214512201/07/16 21:45:31  5-MIN K0J4 080245Z AUTO 10011G22KT 8SM -RA SCT080 OVC100 12/11 A2993 310 93 0 100/11G22 RMK AO2 P0008 $
63870K0J4 0J420160107215012301/07/16 21:50:31  5-MIN K0J4 080250Z AUTO 10013G20KT 10SM -RA SCT080 OVC100 12/11 A2993 310 93 0 100/13G20 RMK AO2 P0008 $
63870K0J4 0J420160107215515201/07/16 21:55:31  5-MIN K0J4 080255Z AUTO 10010G20KT 10SM -RA FEW080 OVC100 12/11 A2993 310 93 0 100/10G20 RMK AO2 SLP134 P0008 60022 T01170106 50005 $
63870K0J4 0J420160107220011601/07/16 22:00:31  5-MIN K0J4 080300Z AUTO 11010G18KT 10SM -RA OVC100 12/11 A2993 300 93 0 110/10G18 RMK AO2 P0000 $
63870K0J4 0J420160107220511601/07/16 22:05:31  5-MIN K0J4 080305Z AUTO 11010G18KT 10SM -RA OVC100 12/11 A2994 300 93 0 110/10G18 RMK AO2 P0000 $
63870K0J4 0J420160107221012301/07/16 22:10:31  5-MIN K0J4 080310Z AUTO VRB06G17KT 10SM -RA OVC100 12/11 A2995 290 93 0 VRB/06G17 RMK AO2 PRESRR P0000 $
63870K0J4 0J420160107221511601/07/16 22:15:31  5-MIN K0J4 080315Z AUTO 10006G17KT 10SM -RA OVC100 12/11 A2996 280 93 0 100/06G17 RMK AO2 P0000 $
63870K0J4 0J420160107222013001/07/16 22:20:31  5-MIN K0J4 080320Z AUTO 09005G16KT 10SM -RA FEW007 OVC100 12/11 A2996 280 93 0 090/05G16 RMK AO2 PRESRR P0000 $
63870K0J4 0J420160107222511701/07/16 22:25:31  5-MIN K0J4 080325Z AUTO 09007KT 10SM -RA SCT007 OVC100 12/11 A2996 280 93 0 090/07 RMK AO2 P0000 $
63870K0J4 0J420160107223012901/07/16 22:30:31  5-MIN K0J4 080330Z AUTO 11005KT 10SM -RA BKN007 OVC100 12/11 A2996 280 93 0 110/05 RMK AO2 CIG 004V008 P0000 $
63870K0J4 0J420160107223511601/07/16 22:35:31  5-MIN K0J4 080335Z AUTO 11006KT 9SM -RA BKN007 OVC100 12/11 A2997 270 93 0 110/06 RMK AO2 P0001 $
63870K0J4 0J420160107224011601/07/16 22:40:31  5-MIN K0J4 080340Z AUTO VRB03KT 9SM -RA BKN007 OVC100 12/11 A2998 260 93 0 VRB/03 RMK AO2 P0001 $
63870K0J4 0J420160107224511001/07/16 22:45:31  5-MIN K0J4 080345Z AUTO 11005KT 10SM -RA OVC007 12/11 A2998 260 93 0 110/05 RMK AO2 P0001 $
63870K0J4 0J420160107225012001/07/16 22:50:31  5-MIN K0J4 080350Z AUTO VRB04KT 8SM RA OVC007 12/11 A2997 270 93 0 VRB/04 RMK AO2 CIG 004V008 P0001 $
63870K0J4 0J420160107225512601/07/16 22:55:31  5-MIN K0J4 080355Z AUTO VRB06KT 8SM -RA OVC007 12/11 A2997 270 93 0 VRB/06 RMK AO2 SLP146 P0002 T01170106 $
63870K0J4 0J420160107230011601/07/16 23:00:31  5-MIN K0J4 080400Z AUTO 10008KT 9SM -RA BKN007 12/11 A2995 290 93 0 100/08 RMK AO2 PRESFR P0000 $
63870K0J4 0J420160107230513101/07/16 23:05:31  5-MIN K0J4 080405Z AUTO 10007KT 10SM -RA BKN007 BKN027 OVC090 12/11 A2993 310 93 0 100/07 RMK AO2 PRESFR P0000 $
63870K0J4 0J420160107231013001/07/16 23:10:31  5-MIN K0J4 080410Z AUTO 11010G18KT 10SM -RA BKN007 BKN027 OVC100 12/11 A2993 310 93 0 110/10G18 RMK AO2 P0000 $
63870K0J4 0J420160107231512901/07/16 23:15:31  5-MIN K0J4 080415Z AUTO 09007G18KT 9SM -RA BKN005 BKN027 OVC100 12/11 A2993 300 93 0 090/07G18 RMK AO2 P0000 $
63870K0J4 0J420160107232013001/07/16 23:20:31  5-MIN K0J4 080420Z AUTO 10008G16KT 10SM -RA BKN005 BKN027 OVC100 12/11 A2993 310 93 0 100/08G16 RMK AO2 P0000 $
63870K0J4 0J420160107232513201/07/16 23:25:31  5-MIN K0J4 080425Z AUTO 08010G15KT 10SM BKN005 BKN027 OVC100 12/11 A2992 320 96 0 080/10G15 RMK AO2 RAE25 P0000 $
63870K0J4 0J420160107233013401/07/16 23:30:31  5-MIN K0J4 080430Z AUTO 08013G19KT 10SM BKN005 OVC100 12/11 A2990 330 93 100 080/13G19 RMK AO2 RAE25 PRESFR P0000 $
63870K0J4 0J420160107233511901/07/16 23:35:31  5-MIN K0J4 080435Z AUTO 10010G19KT 9SM OVC003 12/11 A2990 330 96 100 100/10G19 RMK AO2 RAE25 P0000 $
63870K0J4 0J420160107234012601/07/16 23:40:31  5-MIN K0J4 080440Z AUTO 08010G16KT 9SM OVC003 12/11 A2989 350 96 100 080/10G16 RMK AO2 RAE25 PRESFR P0000 $
63870K0J4 0J420160107234511701/07/16 23:45:31  5-MIN K0J4 080445Z AUTO VRB03G15KT 9SM OVC003 12/11 A2991 320 96 0 VRB/03G15 RMK AO2 RAE25 P0000 $
63870K0J4 0J420160107235011801/07/16 23:50:31  5-MIN K0J4 080450Z AUTO VRB03G14KT 10SM OVC003 12/11 A2992 320 96 0 VRB/03G14 RMK AO2 RAE25 P0000 $
63870K0J4 0J420160107235514601/07/16 23:55:31  5-MIN K0J4 080455Z AUTO 28004KT 10SM OVC003 12/11 A2995 290 96 0 280/04 RMK AO2 RAE25 PRESRR SLP139 P0000 T01170111 401560033 $
63870K0J4 0J420160108000011701/08/16 00:00:31  5-MIN K0J4 080500Z AUTO 00000KT 9SM -RA OVC003 12/11 A2994 290 96 0 000/00 RMK AO2 RAB0459 P0000 $
63870K0J4 0J420160108000511801/08/16 00:05:31  5-MIN K0J4 080505Z AUTO 10006KT 10SM -RA OVC003 12/11 A2993 310 96 0 100/06 RMK AO2 RAB0459 P0000 $
63870K0J4 0J420160108001012901/08/16 00:10:31  5-MIN K0J4 080510Z AUTO 09003KT 10SM OVC003 12/11 A2993 310 96 0 090/03 RMK AO2 RAB0459E10 CIG 002V007 P0000 $
63870K0J4 0J420160108001511901/08/16 00:15:31  5-MIN K0J4 080515Z AUTO 00000KT 10SM OVC003 12/11 A2993 310 93 100 000/00 RMK AO2 RAB0459E10 P0000 $
63870K0J4 0J420160108002013101/08/16 00:20:31  5-MIN K0J4 080520Z AUTO 07003KT 10SM OVC003 12/11 A2993 310 93 100 070/03 RMK AO2 RAB0459E10 CIG 002V008 P0000 $
63870K0J4 0J420160108002513101/08/16 00:25:31  5-MIN K0J4 080525Z AUTO 07004KT 10SM OVC003 12/11 A2993 310 93 100 070/04 RMK AO2 RAB0459E10 CIG 003V008 P0000 $
63870K0J4 0J420160108003011901/08/16 00:30:31  5-MIN K0J4 080530Z AUTO 07005KT 10SM OVC003 12/11 A2992 310 93 100 070/05 RMK AO2 RAB0459E10 P0000 $
63870K0J4 0J420160108003511901/08/16 00:35:31  5-MIN K0J4 080535Z AUTO 07005KT 10SM OVC003 12/11 A2992 320 93 100 070/05 RMK AO2 RAB0459E10 P0000 $
63870K0J4 0J420160108004013101/08/16 00:40:31  5-MIN K0J4 080540Z AUTO 07005KT 10SM OVC005 12/11 A2991 320 93 100 070/05 RMK AO2 RAB0459E10 CIG 003V007 P0000 $
63870K0J4 0J420160108004513101/08/16 00:45:31  5-MIN K0J4 080545Z AUTO 06005KT 10SM OVC005 12/11 A2991 320 93 100 060/05 RMK AO2 RAB0459E10 CIG 003V007 P0000 $
63870K0J4 0J420160108005011901/08/16 00:50:31  5-MIN K0J4 080550Z AUTO 06004KT 10SM OVC005 12/11 A2992 320 93 100 060/04 RMK AO2 RAB0459E10 P0000 $
63870K0J4 0J420160108005516001/08/16 00:55:31  5-MIN K0J4 080555Z AUTO 06003KT 10SM OVC005 12/11 A2992 320 93 100 060/03 RMK AO2 RAB0459E10 SLP128 P0000 60024 T01220111 10128 20117 58016 $
63870K0J4 0J420160108010010201/08/16 01:00:31  5-MIN K0J4 080600Z AUTO 07003KT 10SM OVC005 12/11 A2992 320 93 100 070/03 RMK AO2 $
63870K0J4 0J420160108010510201/08/16 01:05:31  5-MIN K0J4 080605Z AUTO 08003KT 10SM OVC005 12/11 A2992 320 93 100 080/03 RMK AO2 $
63870K0J4 0J420160108011010201/08/16 01:10:31  5-MIN K0J4 080610Z AUTO 07003KT 10SM OVC005 12/11 A2991 320 93 100 070/03 RMK AO2 $
63870K0J4 0J420160108011510201/08/16 01:15:31  5-MIN K0J4 080615Z AUTO 07003KT 10SM OVC005 12/11 A2991 320 93 100 070/03 RMK AO2 $
63870K0J4 0J420160108012010201/08/16 01:20:31  5-MIN K0J4 080620Z AUTO 07003KT 10SM OVC005 12/11 A2991 330 93 100 070/03 RMK AO2 $
63870K0J4 0J420160108012510201/08/16 01:25:31  5-MIN K0J4 080625Z AUTO 08003KT 10SM OVC005 12/11 A2991 330 93 100 080/03 RMK AO2 $
63870K0J4 0J420160108013010201/08/16 01:30:31  5-MIN K0J4 080630Z AUTO 09003KT 10SM OVC005 12/12 A2991 330 96 100 090/03 RMK AO2 $
63870K0J4 0J420160108013510201/08/16 01:35:31  5-MIN K0J4 080635Z AUTO 00000KT 10SM OVC005 12/12 A2991 320 96 100 000/00 RMK AO2 $
63870K0J4 0J420160108014010201/08/16 01:40:31  5-MIN K0J4 080640Z AUTO 00000KT 10SM OVC005 12/12 A2991 320 96 100 000/00 RMK AO2 $
63870K0J4 0J420160108014510201/08/16 01:45:31  5-MIN K0J4 080645Z AUTO 00000KT 10SM OVC005 12/12 A2991 320 96 100 000/00 RMK AO2 $
63870K0J4 0J420160108015010201/08/16 01:50:31  5-MIN K0J4 080650Z AUTO 00000KT 10SM OVC005 12/12 A2992 320 96 100 000/00 RMK AO2 $
63870K0J4 0J420160108015511901/08/16 01:55:31  5-MIN K0J4 080655Z AUTO 00000KT 10SM OVC005 12/12 A2992 320 96 100 000/00 RMK AO2 SLP129 T01220117 $
63870K0J4 0J420160108020010201/08/16 02:00:31  5-MIN K0J4 080700Z AUTO 00000KT 10SM OVC005 12/12 A2992 320 96 100 000/00 RMK AO2 $
63870K0J4 0J420160108020510201/08/16 02:05:31  5-MIN K0J4 080705Z AUTO 00000KT 10SM OVC005 12/12 A2992 320 96 100 000/00 RMK AO2 $
63870K0J4 0J420160108021010201/08/16 02:10:31  5-MIN K0J4 080710Z AUTO 00000KT 10SM OVC005 12/11 A2992 320 93 100 000/00 RMK AO2 $
63870K0J4 0J420160108021510201/08/16 02:15:31  5-MIN K0J4 080715Z AUTO 02003KT 10SM OVC005 12/11 A2992 320 93 100 020/03 RMK AO2 $
63870K0J4 0J420160108022010201/08/16 02:20:31  5-MIN K0J4 080720Z AUTO 01003KT 10SM OVC005 12/11 A2992 310 93 100 010/03 RMK AO2 $
63870K0J4 0J420160108022510201/08/16 02:25:31  5-MIN K0J4 080725Z AUTO 33003KT 10SM OVC005 12/12 A2992 310 96 100 330/03 RMK AO2 $
63870K0J4 0J420160108023010101/08/16 02:30:31  5-MIN K0J4 080730Z AUTO 34003KT 9SM OVC005 12/12 A2992 310 96 100 340/03 RMK AO2 $
63870K0J4 0J420160108023510101/08/16 02:35:31  5-MIN K0J4 080735Z AUTO 35003KT 8SM OVC005 12/11 A2992 310 93 100 350/03 RMK AO2 $
63870K0J4 0J420160108024010101/08/16 02:40:31  5-MIN K0J4 080740Z AUTO 01003KT 8SM OVC005 12/11 A2992 310 93 100 010/03 RMK AO2 $
63870K0J4 0J420160108024510101/08/16 02:45:31  5-MIN K0J4 080745Z AUTO 35003KT 9SM OVC005 12/11 A2992 310 93 100 350/03 RMK AO2 $
63870K0J4 0J420160108025010101/08/16 02:50:31  5-MIN K0J4 080750Z AUTO 35003KT 9SM OVC005 12/11 A2993 310 93 100 350/03 RMK AO2 $
63870K0J4 0J420160108025511801/08/16 02:55:31  5-MIN K0J4 080755Z AUTO 01003KT 9SM OVC005 12/11 A2992 310 93 100 010/03 RMK AO2 SLP131 T01220111 $
63870K0J4 0J420160108030010101/08/16 03:00:31  5-MIN K0J4 080800Z AUTO 34003KT 8SM OVC005 12/11 A2993 310 93 100 340/03 RMK AO2 $
63870K0J4 0J420160108030510101/08/16 03:05:31  5-MIN K0J4 080805Z AUTO 35003KT 8SM OVC005 12/11 A2993 310 93 100 350/03 RMK AO2 $
63870K0J4 0J420160108031010101/08/16 03:10:31  5-MIN K0J4 080810Z AUTO 01004KT 8SM OVC005 12/11 A2993 310 93 100 010/04 RMK AO2 $
63870K0J4 0J420160108031510101/08/16 03:15:31  5-MIN K0J4 080815Z AUTO 35003KT 8SM OVC005 12/11 A2993 310 93 100 350/03 RMK AO2 $
63870K0J4 0J420160108032010101/08/16 03:20:31  5-MIN K0J4 080820Z AUTO 36004KT 8SM OVC005 12/11 A2993 310 93 100 360/04 RMK AO2 $
63870K0J4 0J420160108032510101/08/16 03:25:31  5-MIN K0J4 080825Z AUTO 02003KT 8SM OVC005 12/11 A2993 310 93 100 020/03 RMK AO2 $
63870K0J4 0J420160108033010101/08/16 03:30:31  5-MIN K0J4 080830Z AUTO 01003KT 8SM OVC005 12/11 A2993 310 93 100 010/03 RMK AO2 $
63870K0J4 0J420160108033510101/08/16 03:35:31  5-MIN K0J4 080835Z AUTO 02004KT 7SM OVC005 12/11 A2992 310 93 100 020/04 RMK AO2 $
63870K0J4 0J420160108034010101/08/16 03:40:31  5-MIN K0J4 080840Z AUTO 03003KT 7SM OVC003 12/11 A2993 310 93 100 030/03 RMK AO2 $
63870K0J4 0J420160108034510101/08/16 03:45:31  5-MIN K0J4 080845Z AUTO 03003KT 7SM OVC003 12/11 A2993 310 93 100 030/03 RMK AO2 $
63870K0J4 0J420160108035010101/08/16 03:50:31  5-MIN K0J4 080850Z AUTO 03003KT 7SM OVC003 12/11 A2993 310 93 100 030/03 RMK AO2 $
63870K0J4 0J420160108035512401/08/16 03:55:31  5-MIN K0J4 080855Z AUTO 01003KT 7SM OVC003 12/11 A2993 310 93 100 010/03 RMK AO2 SLP133 T01220111 58006 $
63870K0J4 0J420160108040010101/08/16 04:00:31  5-MIN K0J4 080900Z AUTO 01003KT 8SM OVC005 12/11 A2993 310 93 100 010/03 RMK AO2 $
63870K0J4 0J420160108040510101/08/16 04:05:31  5-MIN K0J4 080905Z AUTO 02004KT 8SM OVC005 12/11 A2993 310 93 100 020/04 RMK AO2 $
63870K0J4 0J420160108041010101/08/16 04:10:31  5-MIN K0J4 080910Z AUTO 02003KT 8SM OVC005 12/11 A2993 310 93 100 020/03 RMK AO2 $
63870K0J4 0J420160108041510101/08/16 04:15:31  5-MIN K0J4 080915Z AUTO 02004KT 8SM OVC005 12/11 A2993 310 93 100 020/04 RMK AO2 $
63870K0J4 0J420160108042010101/08/16 04:20:31  5-MIN K0J4 080920Z AUTO 02004KT 8SM OVC005 12/11 A2993 310 93 100 020/04 RMK AO2 $
63870K0J4 0J420160108042510101/08/16 04:25:31  5-MIN K0J4 080925Z AUTO 01003KT 8SM OVC005 12/11 A2993 310 93 100 010/03 RMK AO2 $
63870K0J4 0J420160108043010101/08/16 04:30:31  5-MIN K0J4 080930Z AUTO 02004KT 9SM OVC005 12/11 A2993 310 93 100 020/04 RMK AO2 $
63870K0J4 0J420160108043511301/08/16 04:35:31  5-MIN K0J4 080935Z AUTO 01003KT 9SM OVC005 12/11 A2993 310 93 100 010/03 RMK AO2 CIG 002V007 $
63870K0J4 0J420160108044010101/08/16 04:40:31  5-MIN K0J4 080940Z AUTO 00000KT 9SM OVC005 12/11 A2993 310 93 100 000/00 RMK AO2 $
63870K0J4 0J420160108044510101/08/16 04:45:31  5-MIN K0J4 080945Z AUTO 03003KT 9SM OVC005 12/11 A2993 310 93 100 030/03 RMK AO2 $
63870K0J4 0J420160108045010101/08/16 04:50:31  5-MIN K0J4 080950Z AUTO 02003KT 9SM OVC005 12/11 A2992 310 93 100 020/03 RMK AO2 $
63870K0J4 0J420160108045511801/08/16 04:55:31  5-MIN K0J4 080955Z AUTO 05003KT 9SM OVC005 12/11 A2992 320 93 100 050/03 RMK AO2 SLP130 T01220111 $
63870K0J4 0J420160108050009901/08/16 05:00:31  5-MIN K0J4 081000Z AUTO 05003KT 8SM OVC005 12/11 A2992 320 96 0 050/03 RMK AO2 $
63870K0J4 0J420160108050509901/08/16 05:05:31  5-MIN K0J4 081005Z AUTO 04003KT 9SM OVC005 12/11 A2992 310 96 0 040/03 RMK AO2 $
63870K0J4 0J420160108051009901/08/16 05:10:31  5-MIN K0J4 081010Z AUTO 06003KT 9SM OVC005 12/11 A2992 310 96 0 060/03 RMK AO2 $
63870K0J4 0J420160108051510001/08/16 05:15:31  5-MIN K0J4 081015Z AUTO 05003KT 10SM OVC005 12/11 A2993 310 96 0 050/03 RMK AO2 $
63870K0J4 0J420160108052010201/08/16 05:20:31  5-MIN K0J4 081020Z AUTO 03003KT 10SM OVC005 12/11 A2993 310 93 100 030/03 RMK AO2 $
63870K0J4 0J420160108052510201/08/16 05:25:31  5-MIN K0J4 081025Z AUTO 05003KT 10SM OVC005 12/11 A2993 310 93 100 050/03 RMK AO2 $
63870K0J4 0J420160108053010201/08/16 05:30:31  5-MIN K0J4 081030Z AUTO 08003KT 10SM OVC005 12/11 A2993 310 93 100 080/03 RMK AO2 $
63870K0J4 0J420160108053510201/08/16 05:35:31  5-MIN K0J4 081035Z AUTO 08004KT 10SM OVC005 12/11 A2993 310 93 100 080/04 RMK AO2 $
63870K0J4 0J420160108054010201/08/16 05:40:31  5-MIN K0J4 081040Z AUTO 09003KT 10SM OVC005 12/11 A2993 310 93 100 090/03 RMK AO2 $
63870K0J4 0J420160108054510201/08/16 05:45:31  5-MIN K0J4 081045Z AUTO 06003KT 10SM OVC005 12/11 A2993 300 93 100 060/03 RMK AO2 $
63870K0J4 0J420160108055010201/08/16 05:50:31  5-MIN K0J4 081050Z AUTO 07003KT 10SM OVC005 12/11 A2994 300 93 100 070/03 RMK AO2 $
63870K0J4 0J420160108055511901/08/16 05:55:31  5-MIN K0J4 081055Z AUTO 06003KT 10SM OVC005 12/11 A2994 300 93 100 060/03 RMK AO2 SLP136 T01220111 $
63870K0J4 0J420160108060010201/08/16 06:00:31  5-MIN K0J4 081100Z AUTO 06003KT 10SM OVC005 12/11 A2994 300 93 100 060/03 RMK AO2 $
63870K0J4 0J420160108060510201/08/16 06:05:31  5-MIN K0J4 081105Z AUTO 06003KT 10SM OVC005 12/11 A2994 300 93 100 060/03 RMK AO2 $
63870K0J4 0J420160108061010201/08/16 06:10:31  5-MIN K0J4 081110Z AUTO 07003KT 10SM OVC005 12/11 A2994 300 93 100 070/03 RMK AO2 $
63870K0J4 0J420160108061510201/08/16 06:15:31  5-MIN K0J4 081115Z AUTO 00000KT 10SM OVC005 12/11 A2994 300 93 100 000/00 RMK AO2 $
63870K0J4 0J420160108062010201/08/16 06:20:31  5-MIN K0J4 081120Z AUTO 05003KT 10SM OVC005 12/11 A2994 300 93 100 050/03 RMK AO2 $
63870K0J4 0J420160108062510201/08/16 06:25:31  5-MIN K0J4 081125Z AUTO 05003KT 10SM OVC005 12/11 A2994 300 93 100 050/03 RMK AO2 $
63870K0J4 0J420160108063010201/08/16 06:30:31  5-MIN K0J4 081130Z AUTO 03003KT 10SM OVC005 12/11 A2994 300 93 100 030/03 RMK AO2 $
63870K0J4 0J420160108063510201/08/16 06:35:31  5-MIN K0J4 081135Z AUTO 04003KT 10SM OVC005 12/11 A2994 290 93 100 040/03 RMK AO2 $
63870K0J4 0J420160108064010201/08/16 06:40:31  5-MIN K0J4 081140Z AUTO 04003KT 10SM OVC005 12/11 A2995 290 93 100 040/03 RMK AO2 $
63870K0J4 0J420160108064510201/08/16 06:45:31  5-MIN K0J4 081145Z AUTO 04003KT 10SM OVC005 12/11 A2995 290 93 100 040/03 RMK AO2 $
63870K0J4 0J420160108065010201/08/16 06:50:31  5-MIN K0J4 081150Z AUTO 05003KT 10SM OVC005 12/11 A2995 290 93 100 050/03 RMK AO2 $
63870K0J4 0J420160108065514301/08/16 06:55:31  5-MIN K0J4 081155Z AUTO 00000KT 10SM OVC005 12/11 A2995 290 93 100 000/00 RMK AO2 SLP141 70027 T01220111 10122 20117 51005 $
63870K0J4 0J420160108070010201/08/16 07:00:31  5-MIN K0J4 081200Z AUTO 00000KT 10SM OVC005 12/11 A2995 290 93 100 000/00 RMK AO2 $
63870K0J4 0J420160108070510201/08/16 07:05:31  5-MIN K0J4 081205Z AUTO 00000KT 10SM OVC005 12/11 A2995 290 93 100 000/00 RMK AO2 $
63870K0J4 0J420160108071010201/08/16 07:10:31  5-MIN K0J4 081210Z AUTO 00000KT 10SM OVC005 12/11 A2996 280 93 100 000/00 RMK AO2 $
63870K0J4 0J420160108071510201/08/16 07:15:31  5-MIN K0J4 081215Z AUTO 00000KT 10SM OVC005 12/11 A2995 280 93 100 000/00 RMK AO2 $
63870K0J4 0J420160108072010201/08/16 07:20:31  5-MIN K0J4 081220Z AUTO 00000KT 10SM OVC005 12/11 A2995 280 93 100 000/00 RMK AO2 $
63870K0J4 0J420160108072510201/08/16 07:25:31  5-MIN K0J4 081225Z AUTO 00000KT 10SM OVC003 12/11 A2996 280 93 100 000/00 RMK AO2 $
63870K0J4 0J420160108073010201/08/16 07:30:31  5-MIN K0J4 081230Z AUTO 34003KT 10SM OVC003 12/11 A2996 280 93 100 340/03 RMK AO2 $
63870K0J4 0J420160108073510201/08/16 07:35:31  5-MIN K0J4 081235Z AUTO 00000KT 10SM OVC003 12/11 A2996 280 93 100 000/00 RMK AO2 $
63870K0J4 0J420160108074010001/08/16 07:40:31  5-MIN K0J4 081240Z AUTO 00000KT 10SM OVC003 12/11 A2996 280 93 0 000/00 RMK AO2 $
63870K0J4 0J420160108074510001/08/16 07:45:31  5-MIN K0J4 081245Z AUTO 00000KT 10SM OVC003 12/11 A2997 270 93 0 000/00 RMK AO2 $
63870K0J4 0J420160108075010001/08/16 07:50:31  5-MIN K0J4 081250Z AUTO 00000KT 10SM OVC003 12/11 A2997 270 93 0 000/00 RMK AO2 $
63870K0J4 0J420160108075511701/08/16 07:55:31  5-MIN K0J4 081255Z AUTO 02003KT 10SM OVC003 12/11 A2997 270 93 0 020/03 RMK AO2 SLP147 T01220111 $
63870K0J4 0J420160108080010001/08/16 08:00:31  5-MIN K0J4 081300Z AUTO 01003KT 10SM OVC003 12/11 A2997 270 93 0 010/03 RMK AO2 $
63870K0J4 0J420160108080510001/08/16 08:05:31  5-MIN K0J4 081305Z AUTO 01003KT 10SM OVC003 12/11 A2997 270 93 0 010/03 RMK AO2 $
63870K0J4 0J420160108081010001/08/16 08:10:31  5-MIN K0J4 081310Z AUTO 04003KT 10SM OVC003 12/11 A2997 270 93 0 040/03 RMK AO2 $
63870K0J4 0J420160108081510001/08/16 08:15:31  5-MIN K0J4 081315Z AUTO 00000KT 10SM OVC003 12/11 A2997 270 93 0 000/00 RMK AO2 $
63870K0J4 0J420160108082010001/08/16 08:20:31  5-MIN K0J4 081320Z AUTO 06003KT 10SM OVC003 12/11 A2998 260 93 0 060/03 RMK AO2 $
63870K0J4 0J420160108082510001/08/16 08:25:31  5-MIN K0J4 081325Z AUTO 03003KT 10SM OVC003 12/11 A2998 270 93 0 030/03 RMK AO2 $
63870K0J4 0J420160108083010001/08/16 08:30:31  5-MIN K0J4 081330Z AUTO 04004KT 10SM OVC003 12/11 A2998 260 93 0 040/04 RMK AO2 $
63870K0J4 0J420160108083510001/08/16 08:35:31  5-MIN K0J4 081335Z AUTO 01003KT 10SM OVC003 12/11 A2998 260 93 0 010/03 RMK AO2 $
63870K0J4 0J420160108084010001/08/16 08:40:31  5-MIN K0J4 081340Z AUTO 03004KT 10SM OVC003 12/11 A2998 260 93 0 030/04 RMK AO2 $
63870K0J4 0J420160108084510001/08/16 08:45:31  5-MIN K0J4 081345Z AUTO 04005KT 10SM OVC003 12/11 A2998 260 93 0 040/05 RMK AO2 $
63870K0J4 0J420160108085010001/08/16 08:50:31  5-MIN K0J4 081350Z AUTO 07004KT 10SM OVC003 12/11 A2998 260 93 0 070/04 RMK AO2 $
63870K0J4 0J420160108085511701/08/16 08:55:31  5-MIN K0J4 081355Z AUTO 04004KT 10SM OVC003 12/11 A2998 260 93 0 040/04 RMK AO2 SLP151 T01220111 $
63870K0J4 0J420160108090010001/08/16 09:00:31  5-MIN K0J4 081400Z AUTO VRB03KT 10SM OVC003 12/12 A2999 260 96 0 VRB/03 RMK AO2 $
63870K0J4 0J420160108090510001/08/16 09:05:31  5-MIN K0J4 081405Z AUTO 03004KT 10SM OVC003 12/12 A2999 250 96 0 030/04 RMK AO2 $
63870K0J4 0J420160108091010001/08/16 09:10:31  5-MIN K0J4 081410Z AUTO 04003KT 10SM OVC003 12/12 A2999 250 96 0 040/03 RMK AO2 $
63870K0J4 0J420160108091510001/08/16 09:15:31  5-MIN K0J4 081415Z AUTO 06004KT 10SM OVC003 12/12 A2999 250 96 0 060/04 RMK AO2 $
63870K0J4 0J420160108092010001/08/16 09:20:31  5-MIN K0J4 081420Z AUTO 05004KT 10SM OVC003 12/12 A2999 250 96 0 050/04 RMK AO2 $
63870K0J4 0J420160108092510001/08/16 09:25:31  5-MIN K0J4 081425Z AUTO VRB03KT 10SM OVC003 12/12 A2999 250 96 0 VRB/03 RMK AO2 $
63870K0J4 0J420160108093010001/08/16 09:30:31  5-MIN K0J4 081430Z AUTO 08003KT 10SM OVC003 12/12 A3000 250 96 0 080/03 RMK AO2 $
63870K0J4 0J420160108093510001/08/16 09:35:31  5-MIN K0J4 081435Z AUTO 07004KT 10SM OVC003 12/12 A2999 250 96 0 070/04 RMK AO2 $
63870K0J4 0J420160108094010001/08/16 09:40:31  5-MIN K0J4 081440Z AUTO 07004KT 10SM OVC003 12/12 A2999 250 96 0 070/04 RMK AO2 $
63870K0J4 0J420160108094510001/08/16 09:45:31  5-MIN K0J4 081445Z AUTO 06004KT 10SM OVC003 12/12 A2999 250 96 0 060/04 RMK AO2 $
63870K0J4 0J420160108095010001/08/16 09:50:31  5-MIN K0J4 081450Z AUTO 05003KT 10SM OVC003 12/12 A3000 250 96 0 050/03 RMK AO2 $
63870K0J4 0J420160108095512501/08/16 09:55:31  5-MIN K0J4 081455Z AUTO 06004KT 10SM OVC003 13/12 A3000 250 93 100 060/04 RMK AO2 SLP156 T01280117 53008 $
63870K0J4 0J420160108100010201/08/16 10:00:31  5-MIN K0J4 081500Z AUTO 08005KT 10SM OVC003 13/12 A3000 240 93 100 080/05 RMK AO2 $
63870K0J4 0J420160108100510001/08/16 10:05:31  5-MIN K0J4 081505Z AUTO 09004KT 10SM OVC003 12/12 A3000 240 96 0 090/04 RMK AO2 $
63870K0J4 0J420160108101010201/08/16 10:10:31  5-MIN K0J4 081510Z AUTO 00000KT 10SM OVC003 13/12 A3000 240 93 100 000/00 RMK AO2 $
63870K0J4 0J420160108101510201/08/16 10:15:31  5-MIN K0J4 081515Z AUTO 08004KT 10SM OVC003 13/12 A3000 240 93 100 080/04 RMK AO2 $
63870K0J4 0J420160108102010201/08/16 10:20:31  5-MIN K0J4 081520Z AUTO 07004KT 10SM OVC003 13/12 A3000 240 93 100 070/04 RMK AO2 $
63870K0J4 0J420160108102510201/08/16 10:25:31  5-MIN K0J4 081525Z AUTO 08003KT 10SM OVC003 13/12 A3000 240 93 100 080/03 RMK AO2 $
63870K0J4 0J420160108103010201/08/16 10:30:31  5-MIN K0J4 081530Z AUTO 10004KT 10SM OVC003 13/12 A3001 240 93 100 100/04 RMK AO2 $
63870K0J4 0J420160108103510201/08/16 10:35:31  5-MIN K0J4 081535Z AUTO 07005KT 10SM OVC003 13/12 A3001 240 93 100 070/05 RMK AO2 $
63870K0J4 0J420160108104010201/08/16 10:40:31  5-MIN K0J4 081540Z AUTO 07004KT 10SM OVC003 13/12 A3001 230 93 100 070/04 RMK AO2 $
63870K0J4 0J420160108104510201/08/16 10:45:31  5-MIN K0J4 081545Z AUTO 09004KT 10SM OVC003 13/12 A3001 230 93 100 090/04 RMK AO2 $
63870K0J4 0J420160108105010201/08/16 10:50:31  5-MIN K0J4 081550Z AUTO 07004KT 10SM OVC003 13/12 A3001 230 96 100 070/04 RMK AO2 $
63870K0J4 0J420160108105511901/08/16 10:55:31  5-MIN K0J4 081555Z AUTO 08003KT 10SM OVC003 13/12 A3001 230 93 100 080/03 RMK AO2 SLP162 T01280117 $
63870K0J4 0J420160108110010201/08/16 11:00:31  5-MIN K0J4 081600Z AUTO 10003KT 10SM OVC003 13/12 A3001 230 96 100 100/03 RMK AO2 $
63870K0J4 0J420160108110510201/08/16 11:05:31  5-MIN K0J4 081605Z AUTO 09003KT 10SM OVC003 13/12 A3001 230 96 100 090/03 RMK AO2 $
63870K0J4 0J420160108111010101/08/16 11:10:31  5-MIN K0J4 081610Z AUTO 08003KT 9SM OVC003 13/12 A3001 230 96 100 080/03 RMK AO2 $
63870K0J4 0J420160108111510101/08/16 11:15:31  5-MIN K0J4 081615Z AUTO 07004KT 9SM OVC003 13/12 A3001 230 96 100 070/04 RMK AO2 $
63870K0J4 0J420160108112010101/08/16 11:20:31  5-MIN K0J4 081620Z AUTO 00000KT 9SM OVC003 13/12 A3001 230 93 100 000/00 RMK AO2 $
63870K0J4 0J420160108112510101/08/16 11:25:31  5-MIN K0J4 081625Z AUTO 00000KT 9SM OVC003 13/12 A3001 230 93 100 000/00 RMK AO2 $
63870K0J4 0J420160108113010101/08/16 11:30:31  5-MIN K0J4 081630Z AUTO 06004KT 7SM OVC003 13/12 A3001 230 93 100 060/04 RMK AO2 $
63870K0J4 0J420160108113510401/08/16 11:35:31  5-MIN K0J4 081635Z AUTO 08004KT 6SM BR OVC003 13/12 A3002 230 93 100 080/04 RMK AO2 $
63870K0J4 0J420160108114010101/08/16 11:40:31  5-MIN K0J4 081640Z AUTO 07003KT 7SM OVC003 13/12 A3002 230 93 100 070/03 RMK AO2 $
63870K0J4 0J420160108114510101/08/16 11:45:31  5-MIN K0J4 081645Z AUTO 00000KT 9SM OVC003 13/12 A3002 230 93 100 000/00 RMK AO2 $
63870K0J4 0J420160108115010201/08/16 11:50:31  5-MIN K0J4 081650Z AUTO 00000KT 10SM OVC003 13/12 A3001 230 93 100 000/00 RMK AO2 $
63870K0J4 0J420160108115511901/08/16 11:55:31  5-MIN K0J4 081655Z AUTO 00000KT 10SM OVC003 13/12 A3001 230 93 100 000/00 RMK AO2 SLP162 T01330122 $
63870K0J4 0J420160108120010201/08/16 12:00:31  5-MIN K0J4 081700Z AUTO 00000KT 10SM OVC003 13/12 A3001 230 93 100 000/00 RMK AO2 $
63870K0J4 0J420160108120510201/08/16 12:05:31  5-MIN K0J4 081705Z AUTO 13003KT 10SM OVC003 13/12 A3001 230 89 100 130/03 RMK AO2 $
63870K0J4 0J420160108121010201/08/16 12:10:31  5-MIN K0J4 081710Z AUTO 16003KT 10SM OVC003 13/12 A3001 230 89 100 160/03 RMK AO2 $
63870K0J4 0J420160108121510201/08/16 12:15:31  5-MIN K0J4 081715Z AUTO 00000KT 10SM OVC003 13/12 A3001 240 89 100 000/00 RMK AO2 $
63870K0J4 0J420160108122010201/08/16 12:20:31  5-MIN K0J4 081720Z AUTO 00000KT 10SM OVC003 14/12 A3000 240 90 200 000/00 RMK AO2 $
63870K0J4 0J420160108122510201/08/16 12:25:31  5-MIN K0J4 081725Z AUTO 00000KT 10SM OVC003 14/12 A3000 240 90 200 000/00 RMK AO2 $
63870K0J4 0J420160108123010201/08/16 12:30:31  5-MIN K0J4 081730Z AUTO 06005KT 10SM OVC003 14/12 A3000 240 90 200 060/05 RMK AO2 $
63870K0J4 0J420160108123510201/08/16 12:35:31  5-MIN K0J4 081735Z AUTO 07004KT 10SM OVC003 14/12 A3000 240 90 200 070/04 RMK AO2 $
63870K0J4 0J420160108124010201/08/16 12:40:31  5-MIN K0J4 081740Z AUTO 00000KT 10SM OVC003 14/12 A2999 250 90 200 000/00 RMK AO2 $
63870K0J4 0J420160108124510201/08/16 12:45:31  5-MIN K0J4 081745Z AUTO 00000KT 10SM OVC003 14/12 A2999 250 90 200 000/00 RMK AO2 $
63870K0J4 0J420160108125011401/08/16 12:50:31  5-MIN K0J4 081750Z AUTO 00000KT 10SM OVC005 14/12 A2999 250 90 200 000/00 RMK AO2 CIG 003V008 $
63870K0J4 0J420160108125514901/08/16 12:55:31  5-MIN K0J4 081755Z AUTO 07003KT 10SM OVC005 14/12 A2998 260 90 200 070/03 RMK AO2 CIG 003V008 SLP150 T01390122 10139 20122 51015 $
63870K0J4 0J420160108130011401/08/16 13:00:31  5-MIN K0J4 081800Z AUTO 05004KT 10SM OVC005 14/12 A2998 260 90 200 050/04 RMK AO2 CIG 003V008 $
63870K0J4 0J420160108130511401/08/16 13:05:31  5-MIN K0J4 081805Z AUTO 06005KT 10SM OVC005 14/12 A2998 270 90 200 060/05 RMK AO2 CIG 003V008 $
63870K0J4 0J420160108131011401/08/16 13:10:31  5-MIN K0J4 081810Z AUTO 06004KT 10SM OVC005 14/12 A2997 270 90 200 060/04 RMK AO2 CIG 003V008 $
63870K0J4 0J420160108131511401/08/16 13:15:31  5-MIN K0J4 081815Z AUTO 00000KT 10SM OVC005 14/12 A2997 270 90 200 000/00 RMK AO2 CIG 003V008 $
63870K0J4 0J420160108132011401/08/16 13:20:31  5-MIN K0J4 081820Z AUTO VRB04KT 10SM OVC005 14/12 A2997 270 86 300 VRB/04 RMK AO2 CIG 003V007 $
63870K0J4 0J420160108132511401/08/16 13:25:31  5-MIN K0J4 081825Z AUTO 08005KT 10SM OVC005 14/12 A2997 270 90 200 080/05 RMK AO2 CIG 003V007 $
63870K0J4 0J420160108133010201/08/16 13:30:31  5-MIN K0J4 081830Z AUTO 07004KT 10SM OVC005 14/12 A2997 270 90 200 070/04 RMK AO2 $
63870K0J4 0J420160108133510201/08/16 13:35:31  5-MIN K0J4 081835Z AUTO 05005KT 10SM OVC005 14/12 A2997 270 90 200 050/05 RMK AO2 $
63870K0J4 0J420160108134010201/08/16 13:40:31  5-MIN K0J4 081840Z AUTO 03004KT 10SM OVC005 14/12 A2997 270 90 200 030/04 RMK AO2 $
63870K0J4 0J420160108134510201/08/16 13:45:31  5-MIN K0J4 081845Z AUTO 04004KT 10SM OVC005 14/12 A2996 280 90 300 040/04 RMK AO2 $
63870K0J4 0J420160108135010201/08/16 13:50:31  5-MIN K0J4 081850Z AUTO 07004KT 10SM OVC005 14/12 A2996 280 86 300 070/04 RMK AO2 $
63870K0J4 0J420160108135511901/08/16 13:55:31  5-MIN K0J4 081855Z AUTO 00000KT 10SM OVC005 14/12 A2996 280 90 300 000/00 RMK AO2 SLP143 T01390122 $
63870K0J4 0J420160108140010201/08/16 14:00:31  5-MIN K0J4 081900Z AUTO 00000KT 10SM OVC005 14/13 A2996 280 90 300 000/00 RMK AO2 $
63870K0J4 0J420160108140510201/08/16 14:05:31  5-MIN K0J4 081905Z AUTO 03003KT 10SM OVC005 14/12 A2996 280 86 300 030/03 RMK AO2 $
63870K0J4 0J420160108141010201/08/16 14:10:31  5-MIN K0J4 081910Z AUTO 06003KT 10SM OVC005 14/12 A2995 280 90 300 060/03 RMK AO2 $
63870K0J4 0J420160108141510201/08/16 14:15:31  5-MIN K0J4 081915Z AUTO 07004KT 10SM OVC005 14/12 A2995 290 86 300 070/04 RMK AO2 $
63870K0J4 0J420160108142010201/08/16 14:20:31  5-MIN K0J4 081920Z AUTO 09003KT 10SM OVC005 14/13 A2995 290 93 300 090/03 RMK AO2 $
63870K0J4 0J420160108142510201/08/16 14:25:31  5-MIN K0J4 081925Z AUTO 03003KT 10SM OVC005 14/12 A2995 290 86 300 030/03 RMK AO2 $
63870K0J4 0J420160108143010201/08/16 14:30:31  5-MIN K0J4 081930Z AUTO 04003KT 10SM OVC005 14/12 A2995 290 86 300 040/03 RMK AO2 $
63870K0J4 0J420160108143510201/08/16 14:35:31  5-MIN K0J4 081935Z AUTO 00000KT 10SM OVC005 14/12 A2995 290 86 300 000/00 RMK AO2 $
63870K0J4 0J420160108144010201/08/16 14:40:31  5-MIN K0J4 081940Z AUTO 06004KT 10SM OVC005 15/12 A2994 290 83 400 060/04 RMK AO2 $
63870K0J4 0J420160108144510201/08/16 14:45:31  5-MIN K0J4 081945Z AUTO 11003KT 10SM OVC005 14/12 A2994 290 86 300 110/03 RMK AO2 $
63870K0J4 0J420160108145010201/08/16 14:50:31  5-MIN K0J4 081950Z AUTO VRB04KT 10SM OVC005 14/12 A2994 300 86 300 VRB/04 RMK AO2 $
63870K0J4 0J420160108145511901/08/16 14:55:31  5-MIN K0J4 081955Z AUTO 07005KT 10SM OVC005 14/13 A2994 300 90 300 070/05 RMK AO2 SLP138 T01440128 $
63870K0J4 0J420160108150010201/08/16 15:00:31  5-MIN K0J4 082000Z AUTO 06004KT 10SM OVC005 14/12 A2994 290 86 300 060/04 RMK AO2 $
63870K0J4 0J420160108150510201/08/16 15:05:31  5-MIN K0J4 082005Z AUTO 10003KT 10SM OVC005 14/12 A2994 300 86 300 100/03 RMK AO2 $
63870K0J4 0J420160108151010201/08/16 15:10:31  5-MIN K0J4 082010Z AUTO 00000KT 10SM OVC005 14/12 A2994 300 90 300 000/00 RMK AO2 $
63870K0J4 0J420160108151510201/08/16 15:15:31  5-MIN K0J4 082015Z AUTO 09004KT 10SM OVC005 14/12 A2994 300 86 300 090/04 RMK AO2 $
63870K0J4 0J420160108152010201/08/16 15:20:31  5-MIN K0J4 082020Z AUTO 12003KT 10SM OVC005 14/12 A2994 300 90 300 120/03 RMK AO2 $
63870K0J4 0J420160108152510201/08/16 15:25:31  5-MIN K0J4 082025Z AUTO 12003KT 10SM OVC005 14/12 A2994 300 90 300 120/03 RMK AO2 $
63870K0J4 0J420160108153010201/08/16 15:30:31  5-MIN K0J4 082030Z AUTO 00000KT 10SM OVC005 14/12 A2994 300 86 300 000/00 RMK AO2 $
63870K0J4 0J420160108153510201/08/16 15:35:31  5-MIN K0J4 082035Z AUTO 00000KT 10SM OVC005 14/12 A2994 300 86 300 000/00 RMK AO2 $
63870K0J4 0J420160108154010201/08/16 15:40:31  5-MIN K0J4 082040Z AUTO 00000KT 10SM OVC005 14/12 A2994 300 86 300 000/00 RMK AO2 $
63870K0J4 0J420160108154510201/08/16 15:45:31  5-MIN K0J4 082045Z AUTO VRB03KT 10SM OVC005 14/13 A2994 300 90 300 VRB/03 RMK AO2 $
63870K0J4 0J420160108155010201/08/16 15:50:31  5-MIN K0J4 082050Z AUTO 00000KT 10SM OVC005 14/13 A2994 290 90 300 000/00 RMK AO2 $
63870K0J4 0J420160108155512501/08/16 15:55:31  5-MIN K0J4 082055Z AUTO 11003KT 10SM OVC005 14/13 A2994 300 90 300 110/03 RMK AO2 SLP137 T01440128 58007 $
63870K0J4 0J420160108160010201/08/16 16:00:31  5-MIN K0J4 082100Z AUTO 00000KT 10SM OVC005 14/12 A2994 300 86 300 000/00 RMK AO2 $
63870K0J4 0J420160108160510201/08/16 16:05:31  5-MIN K0J4 082105Z AUTO 00000KT 10SM OVC005 14/12 A2994 290 86 300 000/00 RMK AO2 $
63870K0J4 0J420160108161010201/08/16 16:10:31  5-MIN K0J4 082110Z AUTO 00000KT 10SM OVC007 14/12 A2995 290 86 300 000/00 RMK AO2 $
63870K0J4 0J420160108161510201/08/16 16:15:31  5-MIN K0J4 082115Z AUTO 00000KT 10SM OVC007 14/13 A2995 290 90 300 000/00 RMK AO2 $
63870K0J4 0J420160108162010201/08/16 16:20:31  5-MIN K0J4 082120Z AUTO 00000KT 10SM OVC007 14/13 A2995 290 90 300 000/00 RMK AO2 $
63870K0J4 0J420160108162510201/08/16 16:25:31  5-MIN K0J4 082125Z AUTO 10003KT 10SM OVC007 14/13 A2995 290 90 300 100/03 RMK AO2 $
63870K0J4 0J420160108163010201/08/16 16:30:31  5-MIN K0J4 082130Z AUTO 09003KT 10SM OVC007 14/13 A2996 280 90 300 090/03 RMK AO2 $
63870K0J4 0J420160108163510201/08/16 16:35:31  5-MIN K0J4 082135Z AUTO 11003KT 10SM OVC007 14/13 A2996 280 90 300 110/03 RMK AO2 $
63870K0J4 0J420160108164010201/08/16 16:40:31  5-MIN K0J4 082140Z AUTO VRB03KT 10SM OVC007 14/13 A2996 280 90 300 VRB/03 RMK AO2 $
63870K0J4 0J420160108164510201/08/16 16:45:31  5-MIN K0J4 082145Z AUTO 00000KT 10SM OVC007 14/13 A2995 290 90 300 000/00 RMK AO2 $
63870K0J4 0J420160108165010201/08/16 16:50:31  5-MIN K0J4 082150Z AUTO 00000KT 10SM OVC007 14/13 A2995 290 90 300 000/00 RMK AO2 $
63870K0J4 0J420160108165511901/08/16 16:55:31  5-MIN K0J4 082155Z AUTO 00000KT 10SM OVC007 14/13 A2995 290 90 300 000/00 RMK AO2 SLP140 T01440128 $
63870K0J4 0J420160108170010201/08/16 17:00:31  5-MIN K0J4 082200Z AUTO VRB03KT 10SM OVC007 14/13 A2995 290 90 300 VRB/03 RMK AO2 $
63870K0J4 0J420160108170510201/08/16 17:05:31  5-MIN K0J4 082205Z AUTO 11003KT 10SM OVC007 14/13 A2995 290 90 300 110/03 RMK AO2 $
63870K0J4 0J420160108171010201/08/16 17:10:31  5-MIN K0J4 082210Z AUTO 11003KT 10SM OVC007 14/13 A2995 290 90 300 110/03 RMK AO2 $
63870K0J4 0J420160108171510201/08/16 17:15:31  5-MIN K0J4 082215Z AUTO VRB03KT 10SM OVC007 14/13 A2995 290 90 300 VRB/03 RMK AO2 $
63870K0J4 0J420160108172010201/08/16 17:20:31  5-MIN K0J4 082220Z AUTO 09003KT 10SM OVC007 14/13 A2995 290 90 300 090/03 RMK AO2 $
63870K0J4 0J420160108172510201/08/16 17:25:31  5-MIN K0J4 082225Z AUTO 07004KT 10SM OVC007 14/13 A2995 290 90 300 070/04 RMK AO2 $
63870K0J4 0J420160108173010201/08/16 17:30:31  5-MIN K0J4 082230Z AUTO 07004KT 10SM OVC007 14/13 A2995 290 90 300 070/04 RMK AO2 $
63870K0J4 0J420160108173510201/08/16 17:35:31  5-MIN K0J4 082235Z AUTO 06004KT 10SM OVC007 14/13 A2995 290 90 300 060/04 RMK AO2 $
63870K0J4 0J420160108174010201/08/16 17:40:31  5-MIN K0J4 082240Z AUTO 08004KT 10SM OVC007 14/12 A2995 290 86 300 080/04 RMK AO2 $
63870K0J4 0J420160108174510201/08/16 17:45:31  5-MIN K0J4 082245Z AUTO 00000KT 10SM OVC007 14/13 A2995 290 90 300 000/00 RMK AO2 $
63870K0J4 0J420160108175010201/08/16 17:50:31  5-MIN K0J4 082250Z AUTO 11003KT 10SM OVC007 14/13 A2995 290 90 300 110/03 RMK AO2 $
63870K0J4 0J420160108175511901/08/16 17:55:31  5-MIN K0J4 082255Z AUTO 00000KT 10SM OVC007 14/13 A2995 290 90 300 000/00 RMK AO2 SLP140 T01440128 $
63870K0J4 0J420160108180010201/08/16 18:00:31  5-MIN K0J4 082300Z AUTO 10003KT 10SM OVC007 14/12 A2995 290 86 300 100/03 RMK AO2 $
63870K0J4 0J420160108180510201/08/16 18:05:31  5-MIN K0J4 082305Z AUTO 00000KT 10SM OVC007 14/13 A2995 290 90 300 000/00 RMK AO2 $
63870K0J4 0J420160108181010201/08/16 18:10:31  5-MIN K0J4 082310Z AUTO 00000KT 10SM OVC007 14/13 A2995 290 90 300 000/00 RMK AO2 $
63870K0J4 0J420160108181510201/08/16 18:15:31  5-MIN K0J4 082315Z AUTO 00000KT 10SM OVC007 14/13 A2995 290 90 300 000/00 RMK AO2 $
63870K0J4 0J420160108182010201/08/16 18:20:31  5-MIN K0J4 082320Z AUTO 00000KT 10SM OVC007 14/13 A2995 290 90 300 000/00 RMK AO2 $
63870K0J4 0J420160108182510201/08/16 18:25:31  5-MIN K0J4 082325Z AUTO 07003KT 10SM OVC007 14/13 A2995 290 90 300 070/03 RMK AO2 $
63870K0J4 0J420160108183010201/08/16 18:30:31  5-MIN K0J4 082330Z AUTO 00000KT 10SM OVC007 14/13 A2995 290 90 300 000/00 RMK AO2 $
63870K0J4 0J420160108183510201/08/16 18:35:31  5-MIN K0J4 082335Z AUTO 00000KT 10SM OVC007 14/13 A2995 280 90 300 000/00 RMK AO2 $
63870K0J4 0J420160108184010201/08/16 18:40:31  5-MIN K0J4 082340Z AUTO 00000KT 10SM OVC007 14/13 A2996 280 90 300 000/00 RMK AO2 $
63870K0J4 0J420160108184510201/08/16 18:45:31  5-MIN K0J4 082345Z AUTO 00000KT 10SM OVC007 14/13 A2995 280 90 300 000/00 RMK AO2 $
63870K0J4 0J420160108185010201/08/16 18:50:31  5-MIN K0J4 082350Z AUTO 00000KT 10SM OVC009 14/13 A2996 280 90 300 000/00 RMK AO2 $
63870K0J4 0J420160108185513701/08/16 18:55:31  5-MIN K0J4 082355Z AUTO 00000KT 10SM OVC009 14/13 A2996 280 90 300 000/00 RMK AO2 SLP143 T01440128 10150 20139 56011 $
63870K0J4 0J420160108190010201/08/16 19:00:31  5-MIN K0J4 090000Z AUTO 00000KT 10SM OVC009 14/13 A2996 280 90 300 000/00 RMK AO2 $
63870K0J4 0J420160108190510201/08/16 19:05:31  5-MIN K0J4 090005Z AUTO 00000KT 10SM OVC009 14/13 A2996 280 90 300 000/00 RMK AO2 $
63870K0J4 0J420160108191010201/08/16 19:10:31  5-MIN K0J4 090010Z AUTO 00000KT 10SM OVC009 14/13 A2996 280 90 300 000/00 RMK AO2 $
63870K0J4 0J420160108191510201/08/16 19:15:31  5-MIN K0J4 090015Z AUTO 00000KT 10SM OVC009 14/13 A2995 280 90 300 000/00 RMK AO2 $
63870K0J4 0J420160108192010201/08/16 19:20:31  5-MIN K0J4 090020Z AUTO 00000KT 10SM OVC009 14/13 A2995 290 90 300 000/00 RMK AO2 $
63870K0J4 0J420160108192510201/08/16 19:25:31  5-MIN K0J4 090025Z AUTO 00000KT 10SM OVC009 14/13 A2995 290 90 300 000/00 RMK AO2 $
63870K0J4 0J420160108193010201/08/16 19:30:31  5-MIN K0J4 090030Z AUTO 00000KT 10SM OVC009 14/13 A2995 290 90 300 000/00 RMK AO2 $
63870K0J4 0J420160108193510201/08/16 19:35:31  5-MIN K0J4 090035Z AUTO 05003KT 10SM OVC009 14/13 A2995 290 90 300 050/03 RMK AO2 $
63870K0J4 0J420160108194010201/08/16 19:40:31  5-MIN K0J4 090040Z AUTO 05003KT 10SM OVC009 14/13 A2995 290 90 300 050/03 RMK AO2 $
63870K0J4 0J420160108194510201/08/16 19:45:31  5-MIN K0J4 090045Z AUTO 07004KT 10SM OVC009 14/12 A2995 280 86 300 070/04 RMK AO2 $
63870K0J4 0J420160108195010201/08/16 19:50:31  5-MIN K0J4 090050Z AUTO 07004KT 10SM OVC009 14/12 A2996 280 86 300 070/04 RMK AO2 $
63870K0J4 0J420160108195511901/08/16 19:55:31  5-MIN K0J4 090055Z AUTO 08005KT 10SM OVC009 14/12 A2996 280 86 300 080/05 RMK AO2 SLP143 T01440122 $
63870K0J4 0J420160108200010201/08/16 20:00:31  5-MIN K0J4 090100Z AUTO 09004KT 10SM OVC009 14/12 A2996 280 86 300 090/04 RMK AO2 $
63870K0J4 0J420160108200510201/08/16 20:05:31  5-MIN K0J4 090105Z AUTO 08004KT 10SM OVC009 14/12 A2996 280 86 300 080/04 RMK AO2 $
63870K0J4 0J420160108201010201/08/16 20:10:31  5-MIN K0J4 090110Z AUTO 08004KT 10SM OVC009 14/12 A2996 280 90 300 080/04 RMK AO2 $
63870K0J4 0J420160108201510201/08/16 20:15:31  5-MIN K0J4 090115Z AUTO 09005KT 10SM OVC009 14/12 A2996 280 90 300 090/05 RMK AO2 $
63870K0J4 0J420160108202010201/08/16 20:20:31  5-MIN K0J4 090120Z AUTO 11004KT 10SM OVC009 14/12 A2996 280 90 300 110/04 RMK AO2 $
63870K0J4 0J420160108202510201/08/16 20:25:31  5-MIN K0J4 090125Z AUTO 09003KT 10SM OVC009 14/12 A2996 280 90 300 090/03 RMK AO2 $
63870K0J4 0J420160108203010201/08/16 20:30:31  5-MIN K0J4 090130Z AUTO 10003KT 10SM OVC009 14/12 A2996 280 90 300 100/03 RMK AO2 $
63870K0J4 0J420160108203510201/08/16 20:35:31  5-MIN K0J4 090135Z AUTO 09003KT 10SM OVC009 14/12 A2996 280 90 300 090/03 RMK AO2 $
63870K0J4 0J420160108204010201/08/16 20:40:31  5-MIN K0J4 090140Z AUTO 09003KT 10SM OVC009 14/12 A2995 280 90 300 090/03 RMK AO2 $
63870K0J4 0J420160108204510201/08/16 20:45:31  5-MIN K0J4 090145Z AUTO 08003KT 10SM OVC009 14/12 A2996 280 90 300 080/03 RMK AO2 $
63870K0J4 0J420160108205010201/08/16 20:50:31  5-MIN K0J4 090150Z AUTO 09004KT 10SM OVC009 14/12 A2996 280 90 300 090/04 RMK AO2 $
63870K0J4 0J420160108205511901/08/16 20:55:31  5-MIN K0J4 090155Z AUTO 10003KT 10SM OVC009 14/12 A2995 290 90 300 100/03 RMK AO2 SLP141 T01390122 $
63870K0J4 0J420160108210010201/08/16 21:00:31  5-MIN K0J4 090200Z AUTO 10003KT 10SM OVC009 14/12 A2995 290 90 300 100/03 RMK AO2 $
63870K0J4 0J420160108210510201/08/16 21:05:31  5-MIN K0J4 090205Z AUTO 00000KT 10SM OVC009 14/12 A2995 290 90 300 000/00 RMK AO2 $
63870K0J4 0J420160108211010201/08/16 21:10:31  5-MIN K0J4 090210Z AUTO 09004KT 10SM OVC009 14/12 A2995 290 90 300 090/04 RMK AO2 $
63870K0J4 0J420160108211510201/08/16 21:15:31  5-MIN K0J4 090215Z AUTO 10005KT 10SM OVC009 14/12 A2995 280 90 300 100/05 RMK AO2 $
63870K0J4 0J420160108212010201/08/16 21:20:31  5-MIN K0J4 090220Z AUTO 08006KT 10SM OVC009 14/12 A2996 280 90 300 080/06 RMK AO2 $
63870K0J4 0J420160108212510201/08/16 21:25:31  5-MIN K0J4 090225Z AUTO 11005KT 10SM OVC009 14/12 A2995 290 86 300 110/05 RMK AO2 $
63870K0J4 0J420160108213010201/08/16 21:30:31  5-MIN K0J4 090230Z AUTO 10004KT 10SM OVC009 14/12 A2996 280 90 300 100/04 RMK AO2 $
63870K0J4 0J420160108213510201/08/16 21:35:31  5-MIN K0J4 090235Z AUTO 12003KT 10SM OVC009 14/12 A2996 280 90 300 120/03 RMK AO2 $
63870K0J4 0J420160108214010201/08/16 21:40:31  5-MIN K0J4 090240Z AUTO 09005KT 10SM OVC009 14/12 A2995 280 90 300 090/05 RMK AO2 $
63870K0J4 0J420160108214510201/08/16 21:45:31  5-MIN K0J4 090245Z AUTO 10005KT 10SM OVC009 14/12 A2996 280 90 300 100/05 RMK AO2 $
63870K0J4 0J420160108215010201/08/16 21:50:31  5-MIN K0J4 090250Z AUTO 09003KT 10SM OVC009 14/12 A2995 280 90 300 090/03 RMK AO2 $
63870K0J4 0J420160108215512501/08/16 21:55:31  5-MIN K0J4 090255Z AUTO 11003KT 10SM OVC009 14/12 A2996 280 90 300 110/03 RMK AO2 SLP143 T01390122 53005 $
63870K0J4 0J420160108220010201/08/16 22:00:31  5-MIN K0J4 090300Z AUTO 11007KT 10SM OVC009 14/12 A2995 290 90 300 110/07 RMK AO2 $
63870K0J4 0J420160108220510201/08/16 22:05:31  5-MIN K0J4 090305Z AUTO 10006KT 10SM OVC009 14/12 A2995 290 90 300 100/06 RMK AO2 $
63870K0J4 0J420160108221010201/08/16 22:10:31  5-MIN K0J4 090310Z AUTO VRB04KT 10SM OVC009 14/12 A2995 290 90 300 VRB/04 RMK AO2 $
63870K0J4 0J420160108221510201/08/16 22:15:31  5-MIN K0J4 090315Z AUTO VRB04KT 10SM OVC009 14/12 A2995 290 90 300 VRB/04 RMK AO2 $
63870K0J4 0J420160108222010201/08/16 22:20:31  5-MIN K0J4 090320Z AUTO 12007KT 10SM OVC009 14/12 A2995 290 90 300 120/07 RMK AO2 $
63870K0J4 0J420160108222510201/08/16 22:25:31  5-MIN K0J4 090325Z AUTO 10006KT 10SM OVC009 14/12 A2995 290 90 300 100/06 RMK AO2 $
63870K0J4 0J420160108223010201/08/16 22:30:31  5-MIN K0J4 090330Z AUTO 14005KT 10SM OVC007 14/12 A2995 290 90 300 140/05 RMK AO2 $
63870K0J4 0J420160108223510201/08/16 22:35:31  5-MIN K0J4 090335Z AUTO 12005KT 10SM OVC007 14/12 A2996 280 90 300 120/05 RMK AO2 $
63870K0J4 0J420160108224010201/08/16 22:40:31  5-MIN K0J4 090340Z AUTO 11007KT 10SM OVC007 14/12 A2996 280 90 300 110/07 RMK AO2 $
63870K0J4 0J420160108224510201/08/16 22:45:31  5-MIN K0J4 090345Z AUTO 10006KT 10SM OVC007 13/12 A2996 280 93 200 100/06 RMK AO2 $
63870K0J4 0J420160108225010201/08/16 22:50:31  5-MIN K0J4 090350Z AUTO 12004KT 10SM OVC007 13/12 A2996 280 93 200 120/04 RMK AO2 $
63870K0J4 0J420160108225511901/08/16 22:55:31  5-MIN K0J4 090355Z AUTO 12003KT 10SM OVC007 13/12 A2996 280 93 200 120/03 RMK AO2 SLP143 T01330122 $
63870K0J4 0J420160108230010201/08/16 23:00:31  5-MIN K0J4 090400Z AUTO 13003KT 10SM OVC005 13/12 A2996 280 93 200 130/03 RMK AO2 $
63870K0J4 0J420160108230510201/08/16 23:05:31  5-MIN K0J4 090405Z AUTO 12003KT 10SM OVC005 13/12 A2995 290 93 200 120/03 RMK AO2 $
63870K0J4 0J420160108231010201/08/16 23:10:31  5-MIN K0J4 090410Z AUTO 11004KT 10SM OVC005 13/12 A2995 290 93 200 110/04 RMK AO2 $
63870K0J4 0J420160108231510201/08/16 23:15:31  5-MIN K0J4 090415Z AUTO 13004KT 10SM OVC005 13/12 A2995 290 93 200 130/04 RMK AO2 $
63870K0J4 0J420160108232010201/08/16 23:20:31  5-MIN K0J4 090420Z AUTO VRB03KT 10SM OVC005 13/12 A2995 290 93 200 VRB/03 RMK AO2 $
63870K0J4 0J420160108232510201/08/16 23:25:31  5-MIN K0J4 090425Z AUTO 13004KT 10SM OVC005 13/12 A2995 290 93 200 130/04 RMK AO2 $
63870K0J4 0J420160108233010201/08/16 23:30:31  5-MIN K0J4 090430Z AUTO 14005KT 10SM OVC005 13/12 A2995 290 93 200 140/05 RMK AO2 $
63870K0J4 0J420160108233510201/08/16 23:35:31  5-MIN K0J4 090435Z AUTO 12005KT 10SM OVC005 13/12 A2994 300 93 200 120/05 RMK AO2 $
63870K0J4 0J420160108234010201/08/16 23:40:31  5-MIN K0J4 090440Z AUTO 12005KT 10SM OVC005 13/12 A2994 290 93 200 120/05 RMK AO2 $
63870K0J4 0J420160108234510201/08/16 23:45:31  5-MIN K0J4 090445Z AUTO 13006KT 10SM OVC005 13/12 A2995 290 93 200 130/06 RMK AO2 $
63870K0J4 0J420160108235010201/08/16 23:50:31  5-MIN K0J4 090450Z AUTO VRB03KT 10SM OVC005 13/12 A2995 280 93 200 VRB/03 RMK AO2 $
63870K0J4 0J420160108235512901/08/16 23:55:31  5-MIN K0J4 090455Z AUTO 00000KT 10SM OVC005 13/12 A2995 290 93 200 000/00 RMK AO2 SLP140 T01330122 401500117 $
63870K0J4 0J420160109000010201/09/16 00:00:31  5-MIN K0J4 090500Z AUTO 11004KT 10SM OVC005 13/12 A2994 290 93 200 110/04 RMK AO2 $
63870K0J4 0J420160109000510201/09/16 00:05:31  5-MIN K0J4 090505Z AUTO 11004KT 10SM OVC005 13/12 A2994 300 93 200 110/04 RMK AO2 $
63870K0J4 0J420160109001010901/09/16 00:10:31  5-MIN K0J4 090510Z AUTO VRB03KT 10SM OVC005 13/12 A2993 310 93 200 VRB/03 RMK AO2 PRESFR $
63870K0J4 0J420160109001510201/09/16 00:15:31  5-MIN K0J4 090515Z AUTO 11005KT 10SM OVC005 13/12 A2993 310 93 200 110/05 RMK AO2 $
63870K0J4 0J420160109002010201/09/16 00:20:31  5-MIN K0J4 090520Z AUTO VRB04KT 10SM OVC005 13/12 A2993 310 93 200 VRB/04 RMK AO2 $
63870K0J4 0J420160109002510201/09/16 00:25:31  5-MIN K0J4 090525Z AUTO 10005KT 10SM OVC005 13/12 A2992 310 93 200 100/05 RMK AO2 $
63870K0J4 0J420160109003010201/09/16 00:30:31  5-MIN K0J4 090530Z AUTO 13004KT 10SM OVC005 13/12 A2993 310 93 200 130/04 RMK AO2 $
63870K0J4 0J420160109003510201/09/16 00:35:31  5-MIN K0J4 090535Z AUTO 00000KT 10SM OVC005 13/12 A2993 310 93 200 000/00 RMK AO2 $
63870K0J4 0J420160109004010201/09/16 00:40:31  5-MIN K0J4 090540Z AUTO VRB04KT 10SM OVC005 13/12 A2992 310 93 200 VRB/04 RMK AO2 $
63870K0J4 0J420160109004510201/09/16 00:45:31  5-MIN K0J4 090545Z AUTO VRB03KT 10SM OVC005 13/12 A2992 320 93 200 VRB/03 RMK AO2 $
63870K0J4 0J420160109005010201/09/16 00:50:31  5-MIN K0J4 090550Z AUTO 00000KT 10SM OVC005 13/12 A2992 320 93 200 000/00 RMK AO2 $
63870K0J4 0J420160109005513701/09/16 00:55:31  5-MIN K0J4 090555Z AUTO 10004KT 10SM OVC005 13/12 A2991 320 93 200 100/04 RMK AO2 SLP128 T01330122 10144 20133 55001 $
63870K0J4 0J420160109010010201/09/16 01:00:31  5-MIN K0J4 090600Z AUTO VRB04KT 10SM OVC005 13/12 A2992 320 93 200 VRB/04 RMK AO2 $
63870K0J4 0J420160109010510201/09/16 01:05:31  5-MIN K0J4 090605Z AUTO VRB03KT 10SM OVC005 13/12 A2992 320 93 200 VRB/03 RMK AO2 $
63870K0J4 0J420160109011010201/09/16 01:10:31  5-MIN K0J4 090610Z AUTO 11003KT 10SM OVC005 13/12 A2992 320 93 200 110/03 RMK AO2 $
63870K0J4 0J420160109011510201/09/16 01:15:31  5-MIN K0J4 090615Z AUTO 09004KT 10SM OVC005 13/12 A2992 320 93 200 090/04 RMK AO2 $
63870K0J4 0J420160109012010201/09/16 01:20:31  5-MIN K0J4 090620Z AUTO VRB06KT 10SM OVC005 13/12 A2992 320 93 200 VRB/06 RMK AO2 $
63870K0J4 0J420160109012510201/09/16 01:25:31  5-MIN K0J4 090625Z AUTO 13004KT 10SM OVC005 13/12 A2992 320 93 200 130/04 RMK AO2 $
63870K0J4 0J420160109013010201/09/16 01:30:31  5-MIN K0J4 090630Z AUTO 12004KT 10SM OVC005 13/12 A2992 320 93 200 120/04 RMK AO2 $
63870K0J4 0J420160109013510201/09/16 01:35:31  5-MIN K0J4 090635Z AUTO 00000KT 10SM OVC005 13/12 A2992 320 93 200 000/00 RMK AO2 $
63870K0J4 0J420160109014011401/09/16 01:40:31  5-MIN K0J4 090640Z AUTO 00000KT 10SM OVC005 13/12 A2992 320 93 200 000/00 RMK AO2 CIG 003V006 $
63870K0J4 0J420160109014511401/09/16 01:45:31  5-MIN K0J4 090645Z AUTO 00000KT 10SM OVC003 13/12 A2992 310 93 200 000/00 RMK AO2 CIG 003V006 $
63870K0J4 0J420160109015010201/09/16 01:50:31  5-MIN K0J4 090650Z AUTO 10003KT 10SM OVC003 13/12 A2992 320 93 200 100/03 RMK AO2 $
63870K0J4 0J420160109015511901/09/16 01:55:31  5-MIN K0J4 090655Z AUTO 10003KT 10SM OVC003 13/12 A2992 320 93 200 100/03 RMK AO2 SLP130 T01330122 $
63870K0J4 0J420160109020010201/09/16 02:00:31  5-MIN K0J4 090700Z AUTO 00000KT 10SM OVC003 13/12 A2992 320 93 200 000/00 RMK AO2 $
63870K0J4 0J420160109020510201/09/16 02:05:31  5-MIN K0J4 090705Z AUTO 08003KT 10SM OVC003 13/12 A2992 310 93 200 080/03 RMK AO2 $
63870K0J4 0J420160109021010101/09/16 02:10:31  5-MIN K0J4 090710Z AUTO 00000KT 9SM OVC003 13/12 A2992 310 93 200 000/00 RMK AO2 $
63870K0J4 0J420160109021510101/09/16 02:15:31  5-MIN K0J4 090715Z AUTO 09005KT 8SM OVC003 13/12 A2992 320 93 200 090/05 RMK AO2 $
63870K0J4 0J420160109022010101/09/16 02:20:31  5-MIN K0J4 090720Z AUTO 08005KT 7SM OVC003 13/12 A2992 320 93 200 080/05 RMK AO2 $
63870K0J4 0J420160109022510401/09/16 02:25:31  5-MIN K0J4 090725Z AUTO 09005KT 6SM BR OVC003 13/12 A2992 320 93 200 090/05 RMK AO2 $
63870K0J4 0J420160109023010401/09/16 02:30:31  5-MIN K0J4 090730Z AUTO 09003KT 6SM BR OVC003 13/12 A2991 320 93 200 090/03 RMK AO2 $
63870K0J4 0J420160109023510401/09/16 02:35:31  5-MIN K0J4 090735Z AUTO 11003KT 6SM BR OVC003 13/12 A2992 320 93 200 110/03 RMK AO2 $
63870K0J4 0J420160109024010401/09/16 02:40:31  5-MIN K0J4 090740Z AUTO VRB04KT 6SM BR OVC003 13/12 A2992 320 93 200 VRB/04 RMK AO2 $
63870K0J4 0J420160109024510101/09/16 02:45:31  5-MIN K0J4 090745Z AUTO 11003KT 8SM OVC003 13/12 A2992 320 93 200 110/03 RMK AO2 $
63870K0J4 0J420160109025010101/09/16 02:50:31  5-MIN K0J4 090750Z AUTO 11003KT 9SM OVC003 13/12 A2991 320 93 200 110/03 RMK AO2 $
63870K0J4 0J420160109025511801/09/16 02:55:31  5-MIN K0J4 090755Z AUTO 09003KT 8SM OVC003 13/12 A2992 320 93 200 090/03 RMK AO2 SLP129 T01330122 $
63870K0J4 0J420160109030010101/09/16 03:00:31  5-MIN K0J4 090800Z AUTO 10003KT 7SM OVC003 13/12 A2992 320 93 200 100/03 RMK AO2 $
63870K0J4 0J420160109030510401/09/16 03:05:31  5-MIN K0J4 090805Z AUTO 10005KT 5SM BR OVC003 13/12 A2991 320 93 200 100/05 RMK AO2 $
63870K0J4 0J420160109031010401/09/16 03:10:31  5-MIN K0J4 090810Z AUTO 11003KT 4SM BR OVC003 13/12 A2991 330 93 200 110/03 RMK AO2 $
63870K0J4 0J420160109031510401/09/16 03:15:31  5-MIN K0J4 090815Z AUTO 11004KT 3SM BR OVC003 13/12 A2991 330 93 200 110/04 RMK AO2 $
63870K0J4 0J420160109032010401/09/16 03:20:31  5-MIN K0J4 090820Z AUTO 10006KT 3SM BR OVC003 13/12 A2991 330 93 200 100/06 RMK AO2 $
63870K0J4 0J420160109032510401/09/16 03:25:31  5-MIN K0J4 090825Z AUTO 11004KT 3SM BR OVC003 13/12 A2990 330 96 200 110/04 RMK AO2 $
63870K0J4 0J420160109033010401/09/16 03:30:31  5-MIN K0J4 090830Z AUTO 14004KT 4SM BR OVC003 13/12 A2990 330 96 200 140/04 RMK AO2 $
63870K0J4 0J420160109033510401/09/16 03:35:31  5-MIN K0J4 090835Z AUTO 13005KT 5SM BR OVC003 13/12 A2990 330 96 200 130/05 RMK AO2 $
63870K0J4 0J420160109034010401/09/16 03:40:31  5-MIN K0J4 090840Z AUTO 11004KT 5SM BR OVC003 13/12 A2990 330 96 200 110/04 RMK AO2 $
63870K0J4 0J420160109034510401/09/16 03:45:31  5-MIN K0J4 090845Z AUTO 12005KT 5SM BR OVC003 13/12 A2990 340 96 200 120/05 RMK AO2 $
63870K0J4 0J420160109035010401/09/16 03:50:31  5-MIN K0J4 090850Z AUTO 12005KT 5SM BR OVC003 13/12 A2990 340 96 200 120/05 RMK AO2 $
63870K0J4 0J420160109035512701/09/16 03:55:31  5-MIN K0J4 090855Z AUTO 12003KT 4SM BR OVC003 13/12 A2990 330 96 200 120/03 RMK AO2 SLP123 T01280122 58013 $
63870K0J4 0J420160109040010401/09/16 04:00:31  5-MIN K0J4 090900Z AUTO VRB04KT 4SM BR OVC003 13/12 A2990 330 96 200 VRB/04 RMK AO2 $
63870K0J4 0J420160109040510401/09/16 04:05:31  5-MIN K0J4 090905Z AUTO 13006KT 3SM BR OVC003 13/12 A2990 330 96 200 130/06 RMK AO2 $
63870K0J4 0J420160109041010401/09/16 04:10:31  5-MIN K0J4 090910Z AUTO 11005KT 4SM BR OVC003 13/12 A2990 330 96 200 110/05 RMK AO2 $
63870K0J4 0J420160109041510401/09/16 04:15:31  5-MIN K0J4 090915Z AUTO 11005KT 3SM BR OVC003 13/12 A2990 330 96 200 110/05 RMK AO2 $
63870K0J4 0J420160109042010401/09/16 04:20:31  5-MIN K0J4 090920Z AUTO VRB04KT 3SM BR OVC003 13/12 A2990 330 96 200 VRB/04 RMK AO2 $
63870K0J4 0J420160109042510801/09/16 04:25:31  5-MIN K0J4 090925Z AUTO 12005KT 2 1/2SM BR OVC003 13/12 A2990 340 96 200 120/05 RMK AO2 $
63870K0J4 0J420160109043010801/09/16 04:30:31  5-MIN K0J4 090930Z AUTO 00000KT 2 1/2SM BR OVC001 13/12 A2990 330 96 200 000/00 RMK AO2 $
63870K0J4 0J420160109043510801/09/16 04:35:31  5-MIN K0J4 090935Z AUTO VRB03KT 2 1/2SM BR OVC001 13/12 A2990 330 96 200 VRB/03 RMK AO2 $
63870K0J4 0J420160109044010801/09/16 04:40:31  5-MIN K0J4 090940Z AUTO 11004KT 2 1/2SM BR OVC001 13/12 A2990 330 96 200 110/04 RMK AO2 $
63870K0J4 0J420160109044510801/09/16 04:45:31  5-MIN K0J4 090945Z AUTO VRB04KT 2 1/2SM BR OVC001 13/12 A2990 330 96 200 VRB/04 RMK AO2 $
63870K0J4 0J420160109045010801/09/16 04:50:31  5-MIN K0J4 090950Z AUTO VRB04KT 2 1/2SM BR OVC001 13/12 A2990 330 96 200 VRB/04 RMK AO2 $
63870K0J4 0J420160109045510401/09/16 04:55:31  5-MIN K0J4 090955Z AUTO 12004KT 3SM BR OVC001 13/12 A2990 340 96 200 120/04 RMK AO2 $
63870K0J4 0J420160109050010401/09/16 05:00:31  5-MIN K0J4 091000Z AUTO 11004KT 3SM BR OVC001 13/12 A2990 340 96 200 110/04 RMK AO2 $
63870K0J4 0J420160109050510401/09/16 05:05:31  5-MIN K0J4 091005Z AUTO 11003KT 3SM BR OVC001 13/12 A2990 340 96 200 110/03 RMK AO2 $
63870K0J4 0J420160109051010401/09/16 05:10:31  5-MIN K0J4 091010Z AUTO 09004KT 3SM BR OVC001 13/12 A2989 340 96 200 090/04 RMK AO2 $
63870K0J4 0J420160109051510801/09/16 05:15:31  5-MIN K0J4 091015Z AUTO 11004KT 2 1/2SM BR OVC001 13/12 A2989 340 96 200 110/04 RMK AO2 $
63870K0J4 0J420160109052010401/09/16 05:20:31  5-MIN K0J4 091020Z AUTO VRB05KT 3SM BR OVC001 13/12 A2989 350 96 200 VRB/05 RMK AO2 $
63870K0J4 0J420160109052510401/09/16 05:25:31  5-MIN K0J4 091025Z AUTO VRB04KT 3SM BR OVC001 13/12 A2989 350 96 200 VRB/04 RMK AO2 $
63870K0J4 0J420160109053010401/09/16 05:30:31  5-MIN K0J4 091030Z AUTO 10006KT 2SM BR OVC001 13/12 A2988 350 96 200 100/06 RMK AO2 $
63870K0J4 0J420160109053510801/09/16 05:35:31  5-MIN K0J4 091035Z AUTO 08006KT 1 3/4SM BR OVC001 13/12 A2988 350 96 200 080/06 RMK AO2 $
63870K0J4 0J420160109054010801/09/16 05:40:31  5-MIN K0J4 091040Z AUTO 10005KT 1 3/4SM BR OVC001 13/12 A2988 360 96 200 100/05 RMK AO2 $
63870K0J4 0J420160109054510801/09/16 05:45:31  5-MIN K0J4 091045Z AUTO 10004KT 1 3/4SM BR OVC001 13/12 A2987 360 96 200 100/04 RMK AO2 $
63870K0J4 0J420160109055010401/09/16 05:50:31  5-MIN K0J4 091050Z AUTO 10005KT 2SM BR OVC001 13/12 A2988 360 96 200 100/05 RMK AO2 $
63870K0J4 0J420160109055512101/09/16 05:55:31  5-MIN K0J4 091055Z AUTO 10006KT 2SM BR OVC001 13/12 A2988 360 96 200 100/06 RMK AO2 SLP115 T01280122 $
63870K0J4 0J420160109060010801/09/16 06:00:31  5-MIN K0J4 091100Z AUTO VRB05KT 1 3/4SM BR OVC001 13/12 A2988 350 96 200 VRB/05 RMK AO2 $
63870K0J4 0J420160109060510801/09/16 06:05:31  5-MIN K0J4 091105Z AUTO 10005KT 1 3/4SM BR OVC001 13/12 A2988 360 96 200 100/05 RMK AO2 $
63870K0J4 0J420160109061010801/09/16 06:10:31  5-MIN K0J4 091110Z AUTO 11005KT 1 3/4SM BR OVC001 13/12 A2988 350 96 200 110/05 RMK AO2 $
63870K0J4 0J420160109061510401/09/16 06:15:31  5-MIN K0J4 091115Z AUTO 12005KT 2SM BR OVC001 13/12 A2988 350 96 200 120/05 RMK AO2 $
63870K0J4 0J420160109062010401/09/16 06:20:31  5-MIN K0J4 091120Z AUTO 13006KT 2SM BR OVC001 13/12 A2988 350 96 200 130/06 RMK AO2 $
63870K0J4 0J420160109062510401/09/16 06:25:31  5-MIN K0J4 091125Z AUTO 12006KT 2SM BR OVC001 13/12 A2988 350 96 200 120/06 RMK AO2 $
63870K0J4 0J420160109063010401/09/16 06:30:31  5-MIN K0J4 091130Z AUTO 12005KT 2SM BR OVC001 13/12 A2988 350 96 200 120/05 RMK AO2 $
63870K0J4 0J420160109063510401/09/16 06:35:31  5-MIN K0J4 091135Z AUTO 11004KT 2SM BR OVC001 13/12 A2988 350 96 200 110/04 RMK AO2 $
63870K0J4 0J420160109064010401/09/16 06:40:31  5-MIN K0J4 091140Z AUTO VRB04KT 2SM BR OVC001 13/12 A2988 350 96 200 VRB/04 RMK AO2 $
63870K0J4 0J420160109064510801/09/16 06:45:31  5-MIN K0J4 091145Z AUTO 12005KT 2 1/2SM BR OVC001 13/12 A2988 350 96 200 120/05 RMK AO2 $
63870K0J4 0J420160109065010801/09/16 06:50:31  5-MIN K0J4 091150Z AUTO 11006KT 2 1/2SM BR OVC001 13/12 A2988 350 96 200 110/06 RMK AO2 $
63870K0J4 0J420160109065514301/09/16 06:55:31  5-MIN K0J4 091155Z AUTO 10005KT 2 1/2SM BR OVC001 13/12 A2988 350 96 200 100/05 RMK AO2 SLP117 T01280122 10133 20128 58005 $
63870K0J4 0J420160109070010801/09/16 07:00:31  5-MIN K0J4 091200Z AUTO VRB03KT 2 1/2SM BR OVC001 13/12 A2988 350 96 200 VRB/03 RMK AO2 $
63870K0J4 0J420160109070510801/09/16 07:05:31  5-MIN K0J4 091205Z AUTO 13005KT 2 1/2SM BR OVC001 13/12 A2988 350 96 200 130/05 RMK AO2 $
63870K0J4 0J420160109071010801/09/16 07:10:31  5-MIN K0J4 091210Z AUTO VRB04KT 2 1/2SM BR OVC001 13/12 A2988 350 96 200 VRB/04 RMK AO2 $
63870K0J4 0J420160109071510801/09/16 07:15:31  5-MIN K0J4 091215Z AUTO VRB04KT 2 1/2SM BR OVC001 13/12 A2988 350 96 200 VRB/04 RMK AO2 $
63870K0J4 0J420160109072010501/09/16 07:20:31  5-MIN K0J4 091220Z AUTO VRB06KT 2SM BR OVC001 13/13 A2989 350 100 200 VRB/06 RMK AO2 $
63870K0J4 0J420160109072510501/09/16 07:25:31  5-MIN K0J4 091225Z AUTO 12005KT 2SM BR OVC001 13/13 A2988 350 100 200 120/05 RMK AO2 $
63870K0J4 0J420160109073010401/09/16 07:30:31  5-MIN K0J4 091230Z AUTO 11003KT 2SM BR OVC001 13/12 A2989 350 96 200 110/03 RMK AO2 $
63870K0J4 0J420160109073510501/09/16 07:35:31  5-MIN K0J4 091235Z AUTO VRB03KT 2SM BR OVC001 13/13 A2988 350 100 200 VRB/03 RMK AO2 $
63870K0J4 0J420160109074010501/09/16 07:40:31  5-MIN K0J4 091240Z AUTO VRB05KT 2SM BR OVC001 13/13 A2988 350 100 200 VRB/05 RMK AO2 $
63870K0J4 0J420160109074510501/09/16 07:45:31  5-MIN K0J4 091245Z AUTO 11006KT 2SM BR OVC001 13/13 A2987 360 100 200 110/06 RMK AO2 $
63870K0J4 0J420160109075010901/09/16 07:50:31  5-MIN K0J4 091250Z AUTO 12004KT 1 1/2SM BR OVC001 13/13 A2988 360 100 200 120/04 RMK AO2 $
63870K0J4 0J420160109075512201/09/16 07:55:31  5-MIN K0J4 091255Z AUTO 14005KT 1SM BR OVC001 13/13 A2988 360 100 200 140/05 RMK AO2 SLP116 T01280128 $
63870K0J4 0J420160109080010501/09/16 08:00:31  5-MIN K0J4 091300Z AUTO 12005KT 1SM BR OVC001 13/13 A2988 360 100 200 120/05 RMK AO2 $
63870K0J4 0J420160109080511101/09/16 08:05:31  5-MIN K0J4 091305Z AUTO 13005KT 1SM BR OVC001 13/13 A2987 360 100 200 130/05 RMK AO2 P0001 $
63870K0J4 0J420160109081011101/09/16 08:10:31  5-MIN K0J4 091310Z AUTO VRB05KT 1SM BR OVC001 13/13 A2987 360 100 200 VRB/05 RMK AO2 P0001 $
63870K0J4 0J420160109081511001/09/16 08:15:31  5-MIN K0J4 091315Z AUTO 11005KT 1SM BR OVC001 13/13 A2987 360 96 300 110/05 RMK AO2 P0001 $
63870K0J4 0J420160109082011001/09/16 08:20:31  5-MIN K0J4 091320Z AUTO 10006KT 1SM BR OVC001 13/13 A2987 370 96 300 100/06 RMK AO2 P0001 $
63870K0J4 0J420160109082511001/09/16 08:25:31  5-MIN K0J4 091325Z AUTO VRB03KT 1SM BR OVC001 13/13 A2987 370 96 300 VRB/03 RMK AO2 P0001 $
63870K0J4 0J420160109083011001/09/16 08:30:31  5-MIN K0J4 091330Z AUTO 12006KT 1SM BR OVC001 13/13 A2987 360 96 300 120/06 RMK AO2 P0001 $
63870K0J4 0J420160109083511001/09/16 08:35:31  5-MIN K0J4 091335Z AUTO 11006KT 1SM BR OVC001 13/13 A2987 360 96 300 110/06 RMK AO2 P0001 $
63870K0J4 0J420160109084011001/09/16 08:40:31  5-MIN K0J4 091340Z AUTO 11006KT 1SM BR OVC001 13/13 A2987 370 96 300 110/06 RMK AO2 P0001 $
63870K0J4 0J420160109084511201/09/16 08:45:31  5-MIN K0J4 091345Z AUTO 11006KT 3/4SM BR OVC001 13/13 A2987 370 96 300 110/06 RMK AO2 P0001 $
63870K0J4 0J420160109085011201/09/16 08:50:31  5-MIN K0J4 091350Z AUTO 12006KT 3/4SM BR OVC001 13/13 A2986 370 96 300 120/06 RMK AO2 P0001 $
63870K0J4 0J420160109085511001/09/16 08:55:31  5-MIN K0J4 091355Z AUTO 11006KT 1SM BR OVC001 13/13 A2986 370 96 300 110/06 RMK AO2 P0001 $
63870K0J4 0J420160109090010401/09/16 09:00:31  5-MIN K0J4 091400Z AUTO 12007KT 1SM BR OVC001 13/13 A2986 370 96 300 120/07 RMK AO2 $
63870K0J4 0J420160109090510401/09/16 09:05:31  5-MIN K0J4 091405Z AUTO 12005KT 1SM BR OVC001 13/13 A2987 360 96 300 120/05 RMK AO2 $
63870K0J4 0J420160109091010401/09/16 09:10:31  5-MIN K0J4 091410Z AUTO VRB05KT 1SM BR OVC001 13/13 A2988 360 96 300 VRB/05 RMK AO2 $
63870K0J4 0J420160109091510801/09/16 09:15:31  5-MIN K0J4 091415Z AUTO 12005KT 1 1/4SM BR OVC001 13/13 A2987 360 96 300 120/05 RMK AO2 $
63870K0J4 0J420160109092010801/09/16 09:20:31  5-MIN K0J4 091420Z AUTO 11006KT 1 1/2SM BR OVC001 13/13 A2987 360 96 300 110/06 RMK AO2 $
63870K0J4 0J420160109092510801/09/16 09:25:31  5-MIN K0J4 091425Z AUTO 13005KT 1 3/4SM BR OVC001 13/13 A2988 360 96 300 130/05 RMK AO2 $
63870K0J4 0J420160109093010901/09/16 09:30:31  5-MIN K0J4 091430Z AUTO 12005KT 1 3/4SM BR OVC001 13/13 A2988 360 100 300 120/05 RMK AO2 $
63870K0J4 0J420160109093510901/09/16 09:35:31  5-MIN K0J4 091435Z AUTO 10004KT 1 3/4SM BR OVC001 13/13 A2987 360 100 300 100/04 RMK AO2 $
63870K0J4 0J420160109094010901/09/16 09:40:31  5-MIN K0J4 091440Z AUTO 11005KT 1 3/4SM BR OVC001 13/13 A2988 360 100 300 110/05 RMK AO2 $
63870K0J4 0J420160109094510501/09/16 09:45:31  5-MIN K0J4 091445Z AUTO VRB04KT 2SM BR OVC001 13/13 A2988 350 100 300 VRB/04 RMK AO2 $
63870K0J4 0J420160109095010801/09/16 09:50:31  5-MIN K0J4 091450Z AUTO 15003KT 2 1/2SM BR OVC001 14/13 A2989 350 96 300 150/03 RMK AO2 $
63870K0J4 0J420160109095513701/09/16 09:55:31  5-MIN K0J4 091455Z AUTO 00000KT 2 1/2SM BR OVC001 14/13 A2989 350 96 300 000/00 RMK AO2 SLP120 60001 T01390133 55006 $
63870K0J4 0J420160109100010801/09/16 10:00:31  5-MIN K0J4 091500Z AUTO VRB03KT 2 1/2SM BR OVC001 14/13 A2989 350 96 300 VRB/03 RMK AO2 $
63870K0J4 0J420160109100510801/09/16 10:05:31  5-MIN K0J4 091505Z AUTO 12004KT 2 1/2SM BR OVC001 14/13 A2989 350 96 300 120/04 RMK AO2 $
63870K0J4 0J420160109101010801/09/16 10:10:31  5-MIN K0J4 091510Z AUTO 00000KT 2 1/2SM BR OVC001 14/13 A2989 350 96 300 000/00 RMK AO2 $
63870K0J4 0J420160109101510801/09/16 10:15:31  5-MIN K0J4 091515Z AUTO 13005KT 2 1/2SM BR OVC001 14/13 A2988 350 96 300 130/05 RMK AO2 $
63870K0J4 0J420160109102010801/09/16 10:20:31  5-MIN K0J4 091520Z AUTO 11004KT 2 1/2SM BR OVC001 14/13 A2988 350 96 300 110/04 RMK AO2 $
63870K0J4 0J420160109102510801/09/16 10:25:31  5-MIN K0J4 091525Z AUTO VRB03KT 2 1/2SM BR OVC001 14/13 A2989 350 96 300 VRB/03 RMK AO2 $
63870K0J4 0J420160109103010801/09/16 10:30:31  5-MIN K0J4 091530Z AUTO 12004KT 2 1/2SM BR OVC003 14/13 A2989 340 96 300 120/04 RMK AO2 $
63870K0J4 0J420160109103510801/09/16 10:35:31  5-MIN K0J4 091535Z AUTO 12003KT 2 1/2SM BR OVC003 14/13 A2989 340 96 300 120/03 RMK AO2 $
63870K0J4 0J420160109104010801/09/16 10:40:31  5-MIN K0J4 091540Z AUTO 10003KT 2 1/2SM BR OVC003 14/13 A2989 350 96 300 100/03 RMK AO2 $
63870K0J4 0J420160109104510801/09/16 10:45:31  5-MIN K0J4 091545Z AUTO 11004KT 2 1/2SM BR OVC003 14/13 A2989 340 96 300 110/04 RMK AO2 $
63870K0J4 0J420160109105010401/09/16 10:50:31  5-MIN K0J4 091550Z AUTO 11005KT 3SM BR OVC003 14/13 A2990 340 96 300 110/05 RMK AO2 $
63870K0J4 0J420160109105512101/09/16 10:55:31  5-MIN K0J4 091555Z AUTO 11003KT 3SM BR OVC003 14/13 A2989 350 96 300 110/03 RMK AO2 SLP118 T01390133 $
63870K0J4 0J420160109110010801/09/16 11:00:31  5-MIN K0J4 091600Z AUTO 11004KT 2 1/2SM BR OVC003 14/13 A2988 350 96 300 110/04 RMK AO2 $
63870K0J4 0J420160109110510801/09/16 11:05:31  5-MIN K0J4 091605Z AUTO 09004KT 2 1/2SM BR OVC003 14/13 A2987 360 93 400 090/04 RMK AO2 $
63870K0J4 0J420160109111011501/09/16 11:10:31  5-MIN K0J4 091610Z AUTO 08005KT 2 1/2SM BR OVC003 14/13 A2987 370 93 400 080/05 RMK AO2 PRESFR $
63870K0J4 0J420160109111511501/09/16 11:15:31  5-MIN K0J4 091615Z AUTO 09006KT 2 1/2SM BR OVC003 14/13 A2986 370 96 400 090/06 RMK AO2 PRESFR $
63870K0J4 0J420160109112010801/09/16 11:20:31  5-MIN K0J4 091620Z AUTO 09005KT 2 1/2SM BR OVC003 14/13 A2986 370 93 400 090/05 RMK AO2 $
63870K0J4 0J420160109112510801/09/16 11:25:31  5-MIN K0J4 091625Z AUTO 13005KT 2 1/2SM BR OVC003 14/13 A2986 370 96 400 130/05 RMK AO2 $
63870K0J4 0J420160109113010401/09/16 11:30:31  5-MIN K0J4 091630Z AUTO VRB04KT 3SM BR OVC003 14/13 A2987 360 96 400 VRB/04 RMK AO2 $
63870K0J4 0J420160109113510401/09/16 11:35:31  5-MIN K0J4 091635Z AUTO 13003KT 3SM BR OVC003 14/13 A2988 360 96 300 130/03 RMK AO2 $
63870K0J4 0J420160109114010801/09/16 11:40:31  5-MIN K0J4 091640Z AUTO 11005KT 2 1/2SM BR OVC003 14/13 A2987 370 96 400 110/05 RMK AO2 $
63870K0J4 0J420160109114512401/09/16 11:45:31  5-MIN K0J4 091645Z AUTO VRB06KT 2 1/2SM -RA BR OVC003 14/13 A2986 370 96 400 VRB/06 RMK AO2 RAB43 P0000 $
63870K0J4 0J420160109115012001/09/16 11:50:31  5-MIN K0J4 091650Z AUTO VRB06KT 2SM -RA BR OVC003 14/13 A2986 380 96 400 VRB/06 RMK AO2 RAB43 P0001 $
63870K0J4 0J420160109115513601/09/16 11:55:31  5-MIN K0J4 091655Z AUTO 09005KT 2SM RA BR OVC003 14/13 A2985 380 96 400 090/05 RMK AO2 RAB43 SLP106 P0002 T01390133 $
63870K0J4 0J420160109120011301/09/16 12:00:31  5-MIN K0J4 091700Z AUTO VRB04KT 2SM RA BR OVC003 14/13 A2985 380 96 400 VRB/04 RMK AO2 P0001 $
63870K0J4 0J420160109120511301/09/16 12:05:31  5-MIN K0J4 091705Z AUTO 08006KT 2SM RA BR OVC003 14/13 A2984 390 96 400 080/06 RMK AO2 P0003 $
63870K0J4 0J420160109121012501/09/16 12:10:31  5-MIN K0J4 091710Z AUTO 08007KT 2 1/2SM +RA BR OVC003 14/13 A2983 400 93 500 080/07 RMK AO2 PRESFR P0005 $
63870K0J4 0J420160109121512001/09/16 12:15:31  5-MIN K0J4 091715Z AUTO 09006KT 3SM RA BR OVC003 14/13 A2982 410 93 500 090/06 RMK AO2 PRESFR P0007 $
63870K0J4 0J420160109122011301/09/16 12:20:31  5-MIN K0J4 091720Z AUTO 08006KT 4SM RA BR OVC003 14/13 A2983 400 93 500 080/06 RMK AO2 P0008 $
63870K0J4 0J420160109122511401/09/16 12:25:31  5-MIN K0J4 091725Z AUTO 09003KT 5SM -RA BR OVC003 14/14 A2983 400 96 500 090/03 RMK AO2 P0008 $
63870K0J4 0J420160109123011401/09/16 12:30:31  5-MIN K0J4 091730Z AUTO 10005KT 5SM -RA BR OVC003 14/13 A2983 400 93 500 100/05 RMK AO2 P0009 $
63870K0J4 0J420160109123511301/09/16 12:35:31  5-MIN K0J4 091735Z AUTO 09004KT 5SM RA BR OVC003 14/13 A2982 410 93 500 090/04 RMK AO2 P0010 $
63870K0J4 0J420160109124012601/09/16 12:40:31  5-MIN K0J4 091740Z AUTO 08005KT 3SM +RA BR OVC003 14/13 A2981 420 93 500 080/05 RMK AO2 CIG 002V006 P0013 $
63870K0J4 0J420160109124513301/09/16 12:45:31  5-MIN K0J4 091745Z AUTO 08006KT 3SM +RA BR OVC003 14/14 A2980 430 96 500 080/06 RMK AO2 CIG 002V006 PRESFR P0015 $
63870K0J4 0J420160109125013201/09/16 12:50:31  5-MIN K0J4 091750Z AUTO 08007KT 3SM RA BR OVC003 14/14 A2980 430 96 500 080/07 RMK AO2 CIG 002V006 PRESFR P0016 $
63870K0J4 0J420160109125515401/09/16 12:55:31  5-MIN K0J4 091755Z AUTO 09006KT 4SM RA BR OVC003 14/14 A2980 430 96 500 090/06 RMK AO2 SLP088 P0017 60022 T01440139 10144 20128 53004 $
63870K0J4 0J420160109130011301/09/16 13:00:31  5-MIN K0J4 091800Z AUTO 09006KT 5SM RA BR OVC003 14/14 A2980 430 96 500 090/06 RMK AO2 P0000 $
63870K0J4 0J420160109130511301/09/16 13:05:31  5-MIN K0J4 091805Z AUTO 10007KT 5SM RA BR OVC005 14/14 A2979 430 96 500 100/07 RMK AO2 P0001 $
63870K0J4 0J420160109131011301/09/16 13:10:31  5-MIN K0J4 091810Z AUTO 09005KT 5SM RA BR OVC005 14/13 A2980 430 93 500 090/05 RMK AO2 P0002 $
63870K0J4 0J420160109131511301/09/16 13:15:31  5-MIN K0J4 091815Z AUTO 10007KT 4SM RA BR OVC005 14/13 A2979 440 93 500 100/07 RMK AO2 P0003 $
63870K0J4 0J420160109132011301/09/16 13:20:31  5-MIN K0J4 091820Z AUTO 09006KT 3SM RA BR OVC005 14/13 A2978 440 93 500 090/06 RMK AO2 P0004 $
63870K0J4 0J420160109132511801/09/16 13:25:31  5-MIN K0J4 091825Z AUTO 09006KT 2 1/2SM +RA BR OVC005 14/13 A2978 440 93 500 090/06 RMK AO2 P0006 $
63870K0J4 0J420160109133012401/09/16 13:30:31  5-MIN K0J4 091830Z AUTO 11003KT 2 1/2SM RA BR BKN005 OVC041 14/13 A2979 430 93 500 110/03 RMK AO2 P0008 $
63870K0J4 0J420160109133512701/09/16 13:35:31  5-MIN K0J4 091835Z AUTO 09005KT 3SM RA BR BKN005 BKN010 OVC033 14/13 A2979 430 93 500 090/05 RMK AO2 P0009 $
63870K0J4 0J420160109134012701/09/16 13:40:31  5-MIN K0J4 091840Z AUTO 09005KT 3SM RA BR BKN005 BKN010 OVC033 14/13 A2979 430 93 500 090/05 RMK AO2 P0010 $
63870K0J4 0J420160109134512701/09/16 13:45:31  5-MIN K0J4 091845Z AUTO 10004KT 4SM RA BR SCT005 BKN009 OVC044 14/14 A2980 430 96 500 100/04 RMK AO2 P0011 $
63870K0J4 0J420160109135012701/09/16 13:50:31  5-MIN K0J4 091850Z AUTO 08005KT 3SM RA BR BKN007 BKN010 OVC044 14/13 A2979 440 93 500 080/05 RMK AO2 P0013 $
63870K0J4 0J420160109135512801/09/16 13:55:31  5-MIN K0J4 091855Z AUTO 09004KT 2SM +RA BR BKN007 BKN010 OVC039 14/14 A2978 440 96 500 090/04 RMK AO2 P0016 $
63870K0J4 0J420160109140012801/09/16 14:00:31  5-MIN K0J4 091900Z AUTO 08005KT 2SM +RA BR SCT007 BKN045 OVC065 14/14 A2978 450 96 500 080/05 RMK AO2 P0001 $
63870K0J4 0J420160109140513901/09/16 14:05:31  5-MIN K0J4 091905Z AUTO 09006KT 2 1/2SM +RA BR FEW007 BKN050 OVC065 14/14 A2977 460 96 500 090/06 RMK AO2 PRESFR P0002 $
63870K0J4 0J420160109141013101/09/16 14:10:31  5-MIN K0J4 091910Z AUTO 08006KT 2 1/2SM RA BR FEW007 BKN048 OVC065 14/14 A2976 460 96 500 080/06 RMK AO2 P0004 $
63870K0J4 0J420160109141512701/09/16 14:15:31  5-MIN K0J4 091915Z AUTO 09007KT 3SM RA BR FEW007 BKN046 OVC065 14/13 A2976 470 93 500 090/07 RMK AO2 P0004 $
63870K0J4 0J420160109142012801/09/16 14:20:31  5-MIN K0J4 091920Z AUTO 09006KT 3SM -RA BR FEW006 BKN047 OVC065 14/14 A2976 470 96 600 090/06 RMK AO2 P0005 $
63870K0J4 0J420160109142512801/09/16 14:25:31  5-MIN K0J4 091925Z AUTO 09008KT 5SM -RA BR FEW006 BKN050 OVC065 14/13 A2975 470 93 600 090/08 RMK AO2 P0005 $
63870K0J4 0J420160109143012601/09/16 14:30:31  5-MIN K0J4 091930Z AUTO 09006KT 10SM -RA FEW006 BKN042 OVC065 14/14 A2975 470 96 600 090/06 RMK AO2 P0005 $
63870K0J4 0J420160109143512801/09/16 14:35:31  5-MIN K0J4 091935Z AUTO 10006KT 10SM FEW004 BKN038 OVC045 14/14 A2975 480 96 600 100/06 RMK AO2 RAE32 P0005 $
63870K0J4 0J420160109144012801/09/16 14:40:31  5-MIN K0J4 091940Z AUTO 10007KT 10SM SCT004 BKN037 OVC046 14/14 A2974 480 96 600 100/07 RMK AO2 RAE32 P0005 $
63870K0J4 0J420160109144512801/09/16 14:45:31  5-MIN K0J4 091945Z AUTO 10008KT 10SM BKN004 BKN033 OVC040 14/14 A2974 490 96 600 100/08 RMK AO2 RAE32 P0005 $
63870K0J4 0J420160109145013401/09/16 14:50:31  5-MIN K0J4 091950Z AUTO 11007G15KT 10SM BKN004 BKN033 OVC040 14/14 A2973 490 96 600 110/07G15 RMK AO2 RAE32 P0005 $
63870K0J4 0J420160109145516001/09/16 14:55:31  5-MIN K0J4 091955Z AUTO 10008G15KT 070V150 10SM BKN004 OVC038 15/14 A2973 490 93 600 100/08G15 070V150 RMK AO2 RAE32 SLP066 P0005 T01500139 $
63870K0J4 0J420160109150011401/09/16 15:00:31  5-MIN K0J4 092000Z AUTO 10008KT 10SM OVC004 14/14 A2973 490 96 600 100/08 RMK AO2 CIG 003V007 $
63870K0J4 0J420160109150513001/09/16 15:05:31  5-MIN K0J4 092005Z AUTO 10008KT 060V130 10SM OVC004 15/14 A2973 490 93 600 100/08 060V130 RMK AO2 CIG 003V007 $
63870K0J4 0J420160109151010201/09/16 15:10:31  5-MIN K0J4 092010Z AUTO 10006KT 10SM OVC004 15/14 A2973 500 93 700 100/06 RMK AO2 $
63870K0J4 0J420160109151510201/09/16 15:15:31  5-MIN K0J4 092015Z AUTO 10008KT 10SM OVC004 15/14 A2973 500 93 700 100/08 RMK AO2 $
63870K0J4 0J420160109152010201/09/16 15:20:31  5-MIN K0J4 092020Z AUTO 12006KT 10SM OVC004 15/14 A2972 500 93 700 120/06 RMK AO2 $
63870K0J4 0J420160109152510201/09/16 15:25:31  5-MIN K0J4 092025Z AUTO 11007KT 10SM OVC004 15/14 A2972 500 93 700 110/07 RMK AO2 $
63870K0J4 0J420160109153010901/09/16 15:30:31  5-MIN K0J4 092030Z AUTO 11007KT 10SM BKN004 OVC047 15/14 A2972 500 93 700 110/07 RMK AO2 $
63870K0J4 0J420160109153512801/09/16 15:35:31  5-MIN K0J4 092035Z AUTO 13007KT 10SM BKN004 BKN034 OVC047 16/14 A2972 510 93 700 130/07 RMK AO2 CIG 004V008 $
63870K0J4 0J420160109154011601/09/16 15:40:31  5-MIN K0J4 092040Z AUTO 12007KT 10SM BKN004 BKN034 OVC047 16/14 A2972 510 90 700 120/07 RMK AO2 $
63870K0J4 0J420160109154511601/09/16 15:45:31  5-MIN K0J4 092045Z AUTO 11008KT 10SM BKN006 BKN031 OVC047 16/14 A2972 500 90 700 110/08 RMK AO2 $
63870K0J4 0J420160109155011601/09/16 15:50:31  5-MIN K0J4 092050Z AUTO 11006KT 10SM SCT006 BKN031 OVC047 16/14 A2971 510 90 700 110/06 RMK AO2 $
63870K0J4 0J420160109155514501/09/16 15:55:31  5-MIN K0J4 092055Z AUTO 12006KT 10SM SCT006 BKN031 OVC047 16/14 A2972 500 90 700 120/06 RMK AO2 SLP062 60022 T01560139 58031 $
63870K0J4 0J420160109160011601/09/16 16:00:31  5-MIN K0J4 092100Z AUTO VRB05KT 10SM SCT006 BKN031 OVC045 16/14 A2972 500 90 700 VRB/05 RMK AO2 $
63870K0J4 0J420160109160511601/09/16 16:05:31  5-MIN K0J4 092105Z AUTO 11006KT 10SM FEW006 BKN024 OVC045 16/14 A2972 500 90 700 110/06 RMK AO2 $
63870K0J4 0J420160109161011601/09/16 16:10:31  5-MIN K0J4 092110Z AUTO 10005KT 10SM SCT009 BKN024 OVC031 16/14 A2972 500 93 700 100/05 RMK AO2 $
63870K0J4 0J420160109161511601/09/16 16:15:31  5-MIN K0J4 092115Z AUTO 11006KT 10SM SCT009 BKN022 OVC031 16/14 A2972 500 90 700 110/06 RMK AO2 $
63870K0J4 0J420160109162011601/09/16 16:20:31  5-MIN K0J4 092120Z AUTO 11005KT 10SM SCT009 BKN016 OVC031 16/14 A2972 510 90 700 110/05 RMK AO2 $
63870K0J4 0J420160109162511601/09/16 16:25:31  5-MIN K0J4 092125Z AUTO 12007KT 10SM SCT009 BKN016 OVC021 16/14 A2972 510 90 700 120/07 RMK AO2 $
63870K0J4 0J420160109163011601/09/16 16:30:31  5-MIN K0J4 092130Z AUTO VRB04KT 10SM SCT009 BKN016 OVC021 16/14 A2972 500 90 700 VRB/04 RMK AO2 $
63870K0J4 0J420160109163512101/09/16 16:35:31  5-MIN K0J4 092135Z AUTO 12007KT 10SM BKN009 OVC015 16/14 A2972 510 93 700 120/07 RMK AO2 CIG 007V013 $
63870K0J4 0J420160109164012101/09/16 16:40:31  5-MIN K0J4 092140Z AUTO 12005KT 10SM BKN009 OVC013 16/14 A2972 510 90 700 120/05 RMK AO2 CIG 007V010 $
63870K0J4 0J420160109164512101/09/16 16:45:31  5-MIN K0J4 092145Z AUTO 11005KT 10SM BKN009 OVC015 16/14 A2972 510 93 700 110/05 RMK AO2 CIG 007V013 $
63870K0J4 0J420160109165010901/09/16 16:50:31  5-MIN K0J4 092150Z AUTO 11005KT 10SM BKN007 OVC012 16/14 A2972 510 90 700 110/05 RMK AO2 $
63870K0J4 0J420160109165512601/09/16 16:55:31  5-MIN K0J4 092155Z AUTO 11007KT 10SM BKN007 OVC012 16/14 A2972 510 90 700 110/07 RMK AO2 SLP061 T01560139 $
63870K0J4 0J420160109170010201/09/16 17:00:31  5-MIN K0J4 092200Z AUTO VRB05KT 10SM OVC007 16/14 A2971 510 90 700 VRB/05 RMK AO2 $
63870K0J4 0J420160109170510201/09/16 17:05:31  5-MIN K0J4 092205Z AUTO VRB04KT 10SM OVC007 16/14 A2972 500 90 700 VRB/04 RMK AO2 $
63870K0J4 0J420160109171010201/09/16 17:10:31  5-MIN K0J4 092210Z AUTO 00000KT 10SM OVC007 16/14 A2972 500 93 700 000/00 RMK AO2 $
63870K0J4 0J420160109171510201/09/16 17:15:31  5-MIN K0J4 092215Z AUTO 00000KT 10SM OVC007 16/14 A2973 490 93 700 000/00 RMK AO2 $
63870K0J4 0J420160109172010201/09/16 17:20:31  5-MIN K0J4 092220Z AUTO 00000KT 10SM OVC007 16/14 A2973 490 93 700 000/00 RMK AO2 $
63870K0J4 0J420160109172510901/09/16 17:25:31  5-MIN K0J4 092225Z AUTO 00000KT 10SM OVC007 16/14 A2974 480 90 700 000/00 RMK AO2 PRESRR $
63870K0J4 0J420160109173010201/09/16 17:30:31  5-MIN K0J4 092230Z AUTO 11003KT 10SM OVC005 16/14 A2974 480 90 700 110/03 RMK AO2 $
63870K0J4 0J420160109173510201/09/16 17:35:31  5-MIN K0J4 092235Z AUTO 13005KT 10SM OVC005 16/14 A2973 490 90 700 130/05 RMK AO2 $
63870K0J4 0J420160109174010201/09/16 17:40:31  5-MIN K0J4 092240Z AUTO VRB05KT 10SM OVC005 16/14 A2972 500 93 700 VRB/05 RMK AO2 $
63870K0J4 0J420160109174510901/09/16 17:45:31  5-MIN K0J4 092245Z AUTO VRB04KT 10SM BKN005 OVC015 16/14 A2972 500 93 700 VRB/04 RMK AO2 $
63870K0J4 0J420160109175010901/09/16 17:50:31  5-MIN K0J4 092250Z AUTO 17004KT 10SM BKN005 OVC017 16/14 A2972 500 93 700 170/04 RMK AO2 $
63870K0J4 0J420160109175512601/09/16 17:55:31  5-MIN K0J4 092255Z AUTO 16005KT 10SM BKN005 OVC015 16/14 A2972 500 93 700 160/05 RMK AO2 SLP063 T01560144 $
63870K0J4 0J420160109180010901/09/16 18:00:31  5-MIN K0J4 092300Z AUTO 12004KT 10SM BKN005 OVC014 16/14 A2972 500 93 700 120/04 RMK AO2 $
63870K0J4 0J420160109180510201/09/16 18:05:31  5-MIN K0J4 092305Z AUTO VRB04KT 10SM OVC005 16/14 A2973 500 93 700 VRB/04 RMK AO2 $
63870K0J4 0J420160109181010201/09/16 18:10:31  5-MIN K0J4 092310Z AUTO VRB03KT 10SM OVC005 16/14 A2973 490 93 700 VRB/03 RMK AO2 $
63870K0J4 0J420160109181510201/09/16 18:15:31  5-MIN K0J4 092315Z AUTO VRB03KT 10SM OVC005 16/14 A2973 490 93 700 VRB/03 RMK AO2 $
63870K0J4 0J420160109182010201/09/16 18:20:31  5-MIN K0J4 092320Z AUTO 14005KT 10SM OVC005 16/14 A2973 490 93 700 140/05 RMK AO2 $
63870K0J4 0J420160109182510201/09/16 18:25:31  5-MIN K0J4 092325Z AUTO 13004KT 10SM OVC005 16/14 A2973 490 93 700 130/04 RMK AO2 $
63870K0J4 0J420160109183010201/09/16 18:30:31  5-MIN K0J4 092330Z AUTO 14004KT 10SM OVC005 16/14 A2974 490 93 700 140/04 RMK AO2 $
63870K0J4 0J420160109183510201/09/16 18:35:31  5-MIN K0J4 092335Z AUTO 13004KT 10SM OVC005 16/14 A2973 490 93 700 130/04 RMK AO2 $
63870K0J4 0J420160109184010201/09/16 18:40:31  5-MIN K0J4 092340Z AUTO 14003KT 10SM OVC005 16/14 A2973 490 93 700 140/03 RMK AO2 $
63870K0J4 0J420160109184510201/09/16 18:45:31  5-MIN K0J4 092345Z AUTO 14003KT 10SM OVC005 16/14 A2973 490 93 700 140/03 RMK AO2 $
63870K0J4 0J420160109185010201/09/16 18:50:31  5-MIN K0J4 092350Z AUTO 15004KT 10SM OVC005 15/14 A2973 490 96 600 150/04 RMK AO2 $
63870K0J4 0J420160109185510201/09/16 18:55:31  5-MIN K0J4 092355Z AUTO 15004KT 10SM OVC003 15/14 A2973 490 96 600 150/04 RMK AO2 $
63870K0J4 0J420160109190010201/09/16 19:00:31  5-MIN K0J4 100000Z AUTO 15005KT 10SM OVC003 15/14 A2973 490 96 600 150/05 RMK AO2 $
63870K0J4 0J420160109190510201/09/16 19:05:31  5-MIN K0J4 100005Z AUTO 15003KT 10SM OVC003 16/14 A2973 490 93 700 150/03 RMK AO2 $
63870K0J4 0J420160109191010201/09/16 19:10:31  5-MIN K0J4 100010Z AUTO 14004KT 10SM OVC003 15/14 A2973 490 96 600 140/04 RMK AO2 $
63870K0J4 0J420160109191510201/09/16 19:15:31  5-MIN K0J4 100015Z AUTO 14004KT 10SM OVC003 15/14 A2973 490 96 600 140/04 RMK AO2 $
63870K0J4 0J420160109192010201/09/16 19:20:31  5-MIN K0J4 100020Z AUTO VRB03KT 10SM OVC003 15/14 A2973 500 96 700 VRB/03 RMK AO2 $
63870K0J4 0J420160109192510201/09/16 19:25:31  5-MIN K0J4 100025Z AUTO 13003KT 10SM OVC003 15/14 A2973 500 96 700 130/03 RMK AO2 $
63870K0J4 0J420160109193010201/09/16 19:30:31  5-MIN K0J4 100030Z AUTO VRB03KT 10SM OVC003 15/14 A2972 500 96 700 VRB/03 RMK AO2 $
63870K0J4 0J420160109193510201/09/16 19:35:31  5-MIN K0J4 100035Z AUTO 00000KT 10SM OVC003 15/14 A2972 500 96 700 000/00 RMK AO2 $
63870K0J4 0J420160109194010201/09/16 19:40:31  5-MIN K0J4 100040Z AUTO 13003KT 10SM OVC003 16/14 A2972 500 93 700 130/03 RMK AO2 $
63870K0J4 0J420160109194510101/09/16 19:45:31  5-MIN K0J4 100045Z AUTO 00000KT 9SM OVC003 16/14 A2973 490 93 700 000/00 RMK AO2 $
63870K0J4 0J420160109195010101/09/16 19:50:31  5-MIN K0J4 100050Z AUTO 15003KT 9SM OVC003 16/14 A2973 490 93 700 150/03 RMK AO2 $
63870K0J4 0J420160109195511801/09/16 19:55:31  5-MIN K0J4 100055Z AUTO 00000KT 8SM OVC003 16/15 A2973 490 96 700 000/00 RMK AO2 SLP066 T01560150 $
63870K0J4 0J420160109200010101/09/16 20:00:31  5-MIN K0J4 100100Z AUTO 00000KT 8SM OVC003 16/15 A2974 490 96 700 000/00 RMK AO2 $
63870K0J4 0J420160109200510101/09/16 20:05:31  5-MIN K0J4 100105Z AUTO 00000KT 8SM OVC003 16/15 A2974 480 96 700 000/00 RMK AO2 $
63870K0J4 0J420160109201010101/09/16 20:10:31  5-MIN K0J4 100110Z AUTO 00000KT 8SM OVC003 16/15 A2974 480 96 700 000/00 RMK AO2 $
63870K0J4 0J420160109201510101/09/16 20:15:31  5-MIN K0J4 100115Z AUTO 13003KT 8SM OVC003 16/15 A2974 480 96 700 130/03 RMK AO2 $
63870K0J4 0J420160109202010101/09/16 20:20:31  5-MIN K0J4 100120Z AUTO 00000KT 7SM OVC003 16/14 A2974 480 93 700 000/00 RMK AO2 $
63870K0J4 0J420160109202510401/09/16 20:25:31  5-MIN K0J4 100125Z AUTO 00000KT 6SM BR OVC003 16/15 A2974 490 96 700 000/00 RMK AO2 $
63870K0J4 0J420160109203010401/09/16 20:30:31  5-MIN K0J4 100130Z AUTO 00000KT 6SM BR OVC003 16/15 A2974 480 96 700 000/00 RMK AO2 $
63870K0J4 0J420160109203510401/09/16 20:35:31  5-MIN K0J4 100135Z AUTO 00000KT 6SM BR OVC003 16/15 A2975 480 96 700 000/00 RMK AO2 $
63870K0J4 0J420160109204010401/09/16 20:40:31  5-MIN K0J4 100140Z AUTO 00000KT 6SM BR OVC003 16/15 A2975 480 96 700 000/00 RMK AO2 $
63870K0J4 0J420160109204510401/09/16 20:45:31  5-MIN K0J4 100145Z AUTO 00000KT 6SM BR OVC003 16/15 A2975 480 96 700 000/00 RMK AO2 $
63870K0J4 0J420160109205010401/09/16 20:50:31  5-MIN K0J4 100150Z AUTO 00000KT 5SM BR OVC003 16/15 A2975 470 96 700 000/00 RMK AO2 $
63870K0J4 0J420160109205512101/09/16 20:55:31  5-MIN K0J4 100155Z AUTO 00000KT 5SM BR OVC003 16/15 A2976 470 96 700 000/00 RMK AO2 SLP074 T01560150 $
63870K0J4 0J420160109210010401/09/16 21:00:31  5-MIN K0J4 100200Z AUTO 00000KT 5SM BR OVC001 16/15 A2975 470 96 700 000/00 RMK AO2 $
63870K0J4 0J420160109210510401/09/16 21:05:31  5-MIN K0J4 100205Z AUTO 00000KT 4SM BR OVC001 16/15 A2975 470 96 700 000/00 RMK AO2 $
63870K0J4 0J420160109211010801/09/16 21:10:31  5-MIN K0J4 100210Z AUTO 00000KT 2 1/2SM BR OVC001 16/15 A2975 480 96 700 000/00 RMK AO2 $
63870K0J4 0J420160109211510801/09/16 21:15:31  5-MIN K0J4 100215Z AUTO 00000KT 1 3/4SM BR OVC001 16/15 A2975 470 96 700 000/00 RMK AO2 $
63870K0J4 0J420160109212010901/09/16 21:20:31  5-MIN K0J4 100220Z AUTO 18003KT 1 1/4SM BR OVC001 15/15 A2975 470 100 600 180/03 RMK AO2 $
63870K0J4 0J420160109212510401/09/16 21:25:31  5-MIN K0J4 100225Z AUTO 00000KT 1SM BR VV002 15/15 A2975 470 100 600 000/00 RMK AO2 $
63870K0J4 0J420160109213010601/09/16 21:30:31  5-MIN K0J4 100230Z AUTO 00000KT 3/4SM BR VV002 15/15 A2975 470 100 600 000/00 RMK AO2 $
63870K0J4 0J420160109213510601/09/16 21:35:31  5-MIN K0J4 100235Z AUTO 20003KT 3/4SM BR VV002 15/15 A2976 470 100 600 200/03 RMK AO2 $
63870K0J4 0J420160109214010601/09/16 21:40:31  5-MIN K0J4 100240Z AUTO 00000KT 3/4SM BR VV002 15/15 A2976 470 100 600 000/00 RMK AO2 $
63870K0J4 0J420160109214510601/09/16 21:45:31  5-MIN K0J4 100245Z AUTO 21003KT 1/2SM FG VV002 15/15 A2976 470 100 600 210/03 RMK AO2 $
63870K0J4 0J420160109215010601/09/16 21:50:31  5-MIN K0J4 100250Z AUTO 22003KT 3/4SM BR VV002 15/15 A2976 470 100 600 220/03 RMK AO2 $
63870K0J4 0J420160109215512801/09/16 21:55:31  5-MIN K0J4 100255Z AUTO 21003KT 3/4SM BR VV002 16/15 A2976 470 96 700 210/03 RMK AO2 SLP074 T01560150 51006 $
63870K0J4 0J420160109220010501/09/16 22:00:31  5-MIN K0J4 100300Z AUTO 21006KT 3/4SM BR VV002 16/15 A2976 470 96 700 210/06 RMK AO2 $
63870K0J4 0J420160109220510501/09/16 22:05:31  5-MIN K0J4 100305Z AUTO 21006KT 3/4SM BR VV002 16/15 A2976 470 96 700 210/06 RMK AO2 $
63870K0J4 0J420160109221010501/09/16 22:10:31  5-MIN K0J4 100310Z AUTO 21006KT 3/4SM BR VV002 16/15 A2976 470 96 700 210/06 RMK AO2 $
63870K0J4 0J420160109221510501/09/16 22:15:31  5-MIN K0J4 100315Z AUTO 22004KT 3/4SM BR VV002 16/15 A2976 470 96 700 220/04 RMK AO2 $
63870K0J4 0J420160109222010501/09/16 22:20:31  5-MIN K0J4 100320Z AUTO 22004KT 3/4SM BR VV002 16/15 A2976 460 96 700 220/04 RMK AO2 $
63870K0J4 0J420160109222510501/09/16 22:25:31  5-MIN K0J4 100325Z AUTO VRB06KT 3/4SM BR VV002 16/15 A2976 460 96 700 VRB/06 RMK AO2 $
63870K0J4 0J420160109223010501/09/16 22:30:31  5-MIN K0J4 100330Z AUTO 23004KT 3/4SM BR VV002 16/15 A2976 460 96 700 230/04 RMK AO2 $
63870K0J4 0J420160109223510801/09/16 22:35:31  5-MIN K0J4 100335Z AUTO 22006KT 1 1/4SM BR OVC002 16/15 A2976 460 96 700 220/06 RMK AO2 $
63870K0J4 0J420160109224010401/09/16 22:40:31  5-MIN K0J4 100340Z AUTO 23005KT 2SM BR OVC002 16/15 A2977 460 96 700 230/05 RMK AO2 $
63870K0J4 0J420160109224510401/09/16 22:45:31  5-MIN K0J4 100345Z AUTO VRB04KT 4SM BR OVC002 16/15 A2977 460 96 700 VRB/04 RMK AO2 $
63870K0J4 0J420160109225010101/09/16 22:50:31  5-MIN K0J4 100350Z AUTO VRB06KT 8SM OVC002 16/15 A2977 460 96 700 VRB/06 RMK AO2 $
63870K0J4 0J420160109225511901/09/16 22:55:31  5-MIN K0J4 100355Z AUTO 23006KT 10SM OVC002 16/15 A2977 460 96 700 230/06 RMK AO2 SLP077 T01560150 $
63870K0J4 0J420160109230011401/09/16 23:00:31  5-MIN K0J4 100400Z AUTO 23006KT 10SM OVC004 16/15 A2977 460 96 700 230/06 RMK AO2 CIG 001V007 $
63870K0J4 0J420160109230511401/09/16 23:05:31  5-MIN K0J4 100405Z AUTO 23005KT 10SM OVC004 16/15 A2977 460 96 700 230/05 RMK AO2 CIG 001V007 $
63870K0J4 0J420160109231011401/09/16 23:10:31  5-MIN K0J4 100410Z AUTO VRB05KT 10SM BKN004 16/15 A2977 450 96 700 VRB/05 RMK AO2 CIG 002V007 $
63870K0J4 0J420160109231512101/09/16 23:15:31  5-MIN K0J4 100415Z AUTO VRB06KT 10SM BKN004 OVC010 16/15 A2977 450 96 700 VRB/06 RMK AO2 CIG 002V007 $
63870K0J4 0J420160109232013701/09/16 23:20:31  5-MIN K0J4 100420Z AUTO 26007KT 230V340 10SM BKN006 OVC010 16/15 A2977 450 96 700 260/07 230V340 RMK AO2 CIG 003V008 $
63870K0J4 0J420160109232512101/09/16 23:25:31  5-MIN K0J4 100425Z AUTO VRB05KT 10SM BKN006 BKN013 16/14 A2978 450 93 700 VRB/05 RMK AO2 CIG 003V011 $
63870K0J4 0J420160109233012501/09/16 23:30:31  5-MIN K0J4 100430Z AUTO 27007KT 220V320 10SM SCT006 BKN013 15/14 A2978 450 96 600 270/07 220V320 RMK AO2 $
63870K0J4 0J420160109233510901/09/16 23:35:31  5-MIN K0J4 100435Z AUTO VRB03KT 10SM SCT006 BKN013 15/14 A2978 450 93 600 VRB/03 RMK AO2 $
63870K0J4 0J420160109234010901/09/16 23:40:31  5-MIN K0J4 100440Z AUTO VRB04KT 10SM FEW006 SCT011 14/14 A2978 440 96 500 VRB/04 RMK AO2 $
63870K0J4 0J420160109234510201/09/16 23:45:31  5-MIN K0J4 100445Z AUTO VRB03KT 10SM FEW013 14/13 A2978 440 93 500 VRB/03 RMK AO2 $
63870K0J4 0J420160109235010201/09/16 23:50:31  5-MIN K0J4 100450Z AUTO VRB03KT 10SM FEW014 14/13 A2979 440 93 500 VRB/03 RMK AO2 $
63870K0J4 0J420160109235512901/09/16 23:55:31  5-MIN K0J4 100455Z AUTO VRB03KT 10SM SCT014 15/13 A2979 440 90 600 VRB/03 RMK AO2 SLP085 T01500133 401560128 $
63870K0J4 0J420160110000010201/10/16 00:00:31  5-MIN K0J4 100500Z AUTO VRB06KT 10SM SCT016 15/13 A2979 440 86 600 VRB/06 RMK AO2 $
63870K0J4 0J420160110000510201/10/16 00:05:31  5-MIN K0J4 100505Z AUTO VRB06KT 10SM SCT016 14/13 A2979 440 90 500 VRB/06 RMK AO2 $
63870K0J4 0J420160110001010201/10/16 00:10:31  5-MIN K0J4 100510Z AUTO VRB05KT 10SM BKN014 14/13 A2979 440 90 500 VRB/05 RMK AO2 $
63870K0J4 0J420160110001510201/10/16 00:15:31  5-MIN K0J4 100515Z AUTO VRB04KT 10SM BKN014 14/13 A2979 430 90 500 VRB/04 RMK AO2 $
63870K0J4 0J420160110002010201/10/16 00:20:31  5-MIN K0J4 100520Z AUTO VRB06KT 10SM BKN014 14/13 A2980 430 90 500 VRB/06 RMK AO2 $
63870K0J4 0J420160110002510201/10/16 00:25:31  5-MIN K0J4 100525Z AUTO VRB05KT 10SM BKN014 14/12 A2980 430 86 500 VRB/05 RMK AO2 $
63870K0J4 0J420160110003011801/10/16 00:30:31  5-MIN K0J4 100530Z AUTO 31008KT 270V010 10SM BKN014 14/12 A2980 430 86 500 310/08 270V010 RMK AO2 $
63870K0J4 0J420160110003510201/10/16 00:35:31  5-MIN K0J4 100535Z AUTO VRB04KT 10SM BKN014 14/12 A2981 420 86 500 VRB/04 RMK AO2 $
63870K0J4 0J420160110004011801/10/16 00:40:31  5-MIN K0J4 100540Z AUTO 31009KT 270V330 10SM BKN014 14/12 A2981 420 90 400 310/09 270V330 RMK AO2 $
63870K0J4 0J420160110004511801/10/16 00:45:31  5-MIN K0J4 100545Z AUTO 32007KT 290V360 10SM SCT014 14/12 A2981 420 86 400 320/07 290V360 RMK AO2 $
63870K0J4 0J420160110005011801/10/16 00:50:31  5-MIN K0J4 100550Z AUTO 31007KT 190V360 10SM SCT014 14/12 A2981 420 86 400 310/07 190V360 RMK AO2 $
63870K0J4 0J420160110005513701/10/16 00:55:31  5-MIN K0J4 100555Z AUTO VRB04KT 10SM FEW014 13/11 A2982 410 86 400 VRB/04 RMK AO2 SLP094 T01330111 10156 20133 51007 $
63870K0J4 0J420160110010010201/10/16 01:00:31  5-MIN K0J4 100600Z AUTO VRB06KT 10SM FEW014 13/11 A2982 410 83 300 VRB/06 RMK AO2 $
63870K0J4 0J420160110010511801/10/16 01:05:31  5-MIN K0J4 100605Z AUTO 32007KT 290V350 10SM FEW015 13/10 A2982 410 80 300 320/07 290V350 RMK AO2 $
63870K0J4 0J420160110011010201/10/16 01:10:31  5-MIN K0J4 100610Z AUTO VRB05KT 10SM FEW018 13/10 A2982 410 83 300 VRB/05 RMK AO2 $
63870K0J4 0J420160110011510201/10/16 01:15:31  5-MIN K0J4 100615Z AUTO VRB04KT 10SM FEW018 13/09 A2982 410 80 300 VRB/04 RMK AO2 $
63870K0J4 0J420160110012010201/10/16 01:20:31  5-MIN K0J4 100620Z AUTO VRB06KT 10SM FEW018 12/09 A2982 410 83 200 VRB/06 RMK AO2 $
63870K0J4 0J420160110012510201/10/16 01:25:31  5-MIN K0J4 100625Z AUTO VRB06KT 10SM FEW018 12/09 A2982 400 80 200 VRB/06 RMK AO2 $
63870K0J4 0J420160110013011801/10/16 01:30:31  5-MIN K0J4 100630Z AUTO 33007KT 300V360 10SM FEW018 12/09 A2982 410 80 200 330/07 300V360 RMK AO2 $
63870K0J4 0J420160110013510201/10/16 01:35:31  5-MIN K0J4 100635Z AUTO VRB05KT 10SM FEW018 12/09 A2983 400 80 200 VRB/05 RMK AO2 $
63870K0J4 0J420160110014009901/10/16 01:40:31  5-MIN K0J4 100640Z AUTO 32008KT 10SM CLR 12/09 A2983 400 83 100 320/08 RMK AO2 $
63870K0J4 0J420160110014509901/10/16 01:45:31  5-MIN K0J4 100645Z AUTO 31005KT 10SM CLR 12/09 A2983 400 83 100 310/05 RMK AO2 $
63870K0J4 0J420160110015009901/10/16 01:50:31  5-MIN K0J4 100650Z AUTO VRB04KT 10SM CLR 12/09 A2983 400 83 100 VRB/04 RMK AO2 $
63870K0J4 0J420160110015511601/10/16 01:55:31  5-MIN K0J4 100655Z AUTO VRB05KT 10SM CLR 12/08 A2984 390 80 100 VRB/05 RMK AO2 SLP101 T01170083 $
63870K0J4 0J420160110020009901/10/16 02:00:31  5-MIN K0J4 100700Z AUTO 33004KT 10SM CLR 11/08 A2984 390 83 100 330/04 RMK AO2 $
63870K0J4 0J420160110020509901/10/16 02:05:31  5-MIN K0J4 100705Z AUTO VRB04KT 10SM CLR 11/08 A2984 390 83 100 VRB/04 RMK AO2 $
63870K0J4 0J420160110021009901/10/16 02:10:31  5-MIN K0J4 100710Z AUTO VRB05KT 10SM CLR 11/08 A2984 390 83 100 VRB/05 RMK AO2 $
63870K0J4 0J420160110021509901/10/16 02:15:31  5-MIN K0J4 100715Z AUTO VRB03KT 10SM CLR 11/08 A2983 400 83 100 VRB/03 RMK AO2 $
63870K0J4 0J420160110022009701/10/16 02:20:31  5-MIN K0J4 100720Z AUTO VRB03KT 10SM CLR 11/08 A2984 390 86 0 VRB/03 RMK AO2 $
63870K0J4 0J420160110022509701/10/16 02:25:31  5-MIN K0J4 100725Z AUTO 33004KT 10SM CLR 11/08 A2985 380 86 0 330/04 RMK AO2 $
63870K0J4 0J420160110023009701/10/16 02:30:31  5-MIN K0J4 100730Z AUTO VRB03KT 10SM CLR 11/08 A2985 380 86 0 VRB/03 RMK AO2 $
63870K0J4 0J420160110023509701/10/16 02:35:31  5-MIN K0J4 100735Z AUTO VRB03KT 10SM CLR 11/08 A2985 380 86 0 VRB/03 RMK AO2 $
63870K0J4 0J420160110024009701/10/16 02:40:31  5-MIN K0J4 100740Z AUTO VRB03KT 10SM CLR 10/08 A2985 380 89 0 VRB/03 RMK AO2 $
63870K0J4 0J420160110024509701/10/16 02:45:31  5-MIN K0J4 100745Z AUTO 00000KT 10SM CLR 10/08 A2986 370 89 0 000/00 RMK AO2 $
63870K0J4 0J420160110025010001/10/16 02:50:31  5-MIN K0J4 100750Z AUTO 00000KT 10SM CLR 10/08 A2986 370 89 -100 000/00 RMK AO2 $
63870K0J4 0J420160110025511401/10/16 02:55:31  5-MIN K0J4 100755Z AUTO VRB06KT 10SM CLR 11/08 A2986 370 83 0 VRB/06 RMK AO2 SLP111 T01060078 $
63870K0J4 0J420160110030010001/10/16 03:00:31  5-MIN K0J4 100800Z AUTO VRB05KT 10SM CLR 10/08 A2987 360 86 -100 VRB/05 RMK AO2 $
63870K0J4 0J420160110030510001/10/16 03:05:31  5-MIN K0J4 100805Z AUTO 33005KT 10SM CLR 10/08 A2987 360 86 -100 330/05 RMK AO2 $
63870K0J4 0J420160110031010001/10/16 03:10:31  5-MIN K0J4 100810Z AUTO VRB05KT 10SM CLR 10/08 A2987 360 86 -100 VRB/05 RMK AO2 $
63870K0J4 0J420160110031510001/10/16 03:15:31  5-MIN K0J4 100815Z AUTO 33004KT 10SM CLR 10/08 A2987 360 86 -100 330/04 RMK AO2 $
63870K0J4 0J420160110032010001/10/16 03:20:31  5-MIN K0J4 100820Z AUTO VRB05KT 10SM CLR 10/07 A2987 360 83 -100 VRB/05 RMK AO2 $
63870K0J4 0J420160110032510001/10/16 03:25:31  5-MIN K0J4 100825Z AUTO VRB03KT 10SM CLR 10/07 A2987 360 83 -100 VRB/03 RMK AO2 $
63870K0J4 0J420160110033010001/10/16 03:30:31  5-MIN K0J4 100830Z AUTO VRB04KT 10SM CLR 10/07 A2987 360 83 -100 VRB/04 RMK AO2 $
63870K0J4 0J420160110033510001/10/16 03:35:31  5-MIN K0J4 100835Z AUTO VRB03KT 10SM CLR 09/07 A2988 360 86 -100 VRB/03 RMK AO2 $
63870K0J4 0J420160110034010001/10/16 03:40:31  5-MIN K0J4 100840Z AUTO VRB03KT 10SM CLR 09/07 A2988 360 86 -100 VRB/03 RMK AO2 $
63870K0J4 0J420160110034510001/10/16 03:45:31  5-MIN K0J4 100845Z AUTO VRB04KT 10SM CLR 09/07 A2988 360 86 -100 VRB/04 RMK AO2 $
63870K0J4 0J420160110035010001/10/16 03:50:31  5-MIN K0J4 100850Z AUTO VRB04KT 10SM CLR 09/07 A2988 350 86 -100 VRB/04 RMK AO2 $
63870K0J4 0J420160110035512301/10/16 03:55:31  5-MIN K0J4 100855Z AUTO 00000KT 10SM CLR 09/07 A2988 350 86 -100 000/00 RMK AO2 SLP118 T00940072 53021 $
63870K0J4 0J420160110040010001/10/16 04:00:31  5-MIN K0J4 100900Z AUTO VRB03KT 10SM CLR 09/07 A2989 350 89 -200 VRB/03 RMK AO2 $
63870K0J4 0J420160110040510001/10/16 04:05:31  5-MIN K0J4 100905Z AUTO 00000KT 10SM CLR 09/07 A2989 350 89 -200 000/00 RMK AO2 $
63870K0J4 0J420160110041010001/10/16 04:10:31  5-MIN K0J4 100910Z AUTO 00000KT 10SM CLR 09/07 A2989 350 89 -200 000/00 RMK AO2 $
63870K0J4 0J420160110041510001/10/16 04:15:31  5-MIN K0J4 100915Z AUTO 00000KT 10SM CLR 09/07 A2989 350 89 -200 000/00 RMK AO2 $
63870K0J4 0J420160110042010001/10/16 04:20:31  5-MIN K0J4 100920Z AUTO 00000KT 10SM CLR 09/07 A2989 350 86 -200 000/00 RMK AO2 $
63870K0J4 0J420160110042510301/10/16 04:25:31  5-MIN K0J4 100925Z AUTO 00000KT 10SM FEW027 09/07 A2989 340 86 -200 000/00 RMK AO2 $
63870K0J4 0J420160110043010301/10/16 04:30:31  5-MIN K0J4 100930Z AUTO 00000KT 10SM FEW027 09/07 A2990 340 86 -200 000/00 RMK AO2 $
63870K0J4 0J420160110043510301/10/16 04:35:31  5-MIN K0J4 100935Z AUTO 00000KT 10SM SCT027 09/07 A2990 340 86 -200 000/00 RMK AO2 $
63870K0J4 0J420160110044010301/10/16 04:40:31  5-MIN K0J4 100940Z AUTO 00000KT 10SM SCT027 09/07 A2990 330 86 -200 000/00 RMK AO2 $
63870K0J4 0J420160110044510301/10/16 04:45:31  5-MIN K0J4 100945Z AUTO VRB03KT 10SM FEW027 09/07 A2990 330 86 -200 VRB/03 RMK AO2 $
63870K0J4 0J420160110045011001/10/16 04:50:31  5-MIN K0J4 100950Z AUTO 00000KT 10SM FEW027 SCT045 09/07 A2990 330 86 -200 000/00 RMK AO2 $
63870K0J4 0J420160110045513401/10/16 04:55:31  5-MIN K0J4 100955Z AUTO 00000KT 10SM FEW027 SCT037 BKN045 09/07 A2991 330 86 -200 000/00 RMK AO2 SLP126 T00890067 $
63870K0J4 0J420160110050011001/10/16 05:00:31  5-MIN K0J4 101000Z AUTO 00000KT 10SM FEW027 BKN042 09/07 A2991 330 86 -200 000/00 RMK AO2 $
63870K0J4 0J420160110050510301/10/16 05:05:31  5-MIN K0J4 101005Z AUTO 00000KT 10SM BKN042 09/07 A2990 330 86 -200 000/00 RMK AO2 $
63870K0J4 0J420160110051010301/10/16 05:10:31  5-MIN K0J4 101010Z AUTO 00000KT 10SM BKN042 09/07 A2991 330 86 -200 000/00 RMK AO2 $
63870K0J4 0J420160110051510301/10/16 05:15:31  5-MIN K0J4 101015Z AUTO 00000KT 10SM BKN042 09/07 A2990 330 89 -200 000/00 RMK AO2 $
63870K0J4 0J420160110052010301/10/16 05:20:31  5-MIN K0J4 101020Z AUTO VRB03KT 10SM BKN042 09/07 A2990 330 86 -200 VRB/03 RMK AO2 $
63870K0J4 0J420160110052510301/10/16 05:25:31  5-MIN K0J4 101025Z AUTO 00000KT 10SM BKN042 09/07 A2991 330 86 -200 000/00 RMK AO2 $
63870K0J4 0J420160110053010301/10/16 05:30:31  5-MIN K0J4 101030Z AUTO 00000KT 10SM OVC042 09/07 A2991 330 89 -200 000/00 RMK AO2 $
63870K0J4 0J420160110053510301/10/16 05:35:31  5-MIN K0J4 101035Z AUTO 00000KT 10SM OVC042 09/07 A2991 320 86 -200 000/00 RMK AO2 $
63870K0J4 0J420160110054010301/10/16 05:40:31  5-MIN K0J4 101040Z AUTO VRB03KT 10SM OVC042 09/07 A2992 320 86 -200 VRB/03 RMK AO2 $
63870K0J4 0J420160110054511001/10/16 05:45:31  5-MIN K0J4 101045Z AUTO 00000KT 10SM FEW019 OVC042 09/07 A2992 320 86 -300 000/00 RMK AO2 $
63870K0J4 0J420160110055011001/10/16 05:50:31  5-MIN K0J4 101050Z AUTO VRB03KT 10SM FEW019 OVC042 09/07 A2992 310 86 -300 VRB/03 RMK AO2 $
63870K0J4 0J420160110055512701/10/16 05:55:31  5-MIN K0J4 101055Z AUTO VRB03KT 10SM FEW019 BKN042 09/07 A2993 310 86 -300 VRB/03 RMK AO2 SLP132 T00890067 $
63870K0J4 0J420160110060011001/10/16 06:00:31  5-MIN K0J4 101100Z AUTO 00000KT 10SM FEW019 BKN042 09/07 A2993 310 86 -300 000/00 RMK AO2 $
63870K0J4 0J420160110060511001/10/16 06:05:31  5-MIN K0J4 101105Z AUTO 00000KT 10SM FEW019 BKN042 09/07 A2993 300 86 -300 000/00 RMK AO2 $
63870K0J4 0J420160110061011001/10/16 06:10:31  5-MIN K0J4 101110Z AUTO 00000KT 10SM FEW019 BKN042 09/07 A2993 300 86 -300 000/00 RMK AO2 $
63870K0J4 0J420160110061511001/10/16 06:15:31  5-MIN K0J4 101115Z AUTO 00000KT 10SM FEW017 SCT042 09/07 A2994 300 86 -300 000/00 RMK AO2 $
63870K0J4 0J420160110062010301/10/16 06:20:31  5-MIN K0J4 101120Z AUTO VRB03KT 10SM SCT040 09/07 A2994 300 86 -300 VRB/03 RMK AO2 $
63870K0J4 0J420160110062510301/10/16 06:25:31  5-MIN K0J4 101125Z AUTO 00000KT 10SM BKN040 09/07 A2994 300 86 -300 000/00 RMK AO2 $
63870K0J4 0J420160110063010301/10/16 06:30:31  5-MIN K0J4 101130Z AUTO VRB03KT 10SM BKN040 09/07 A2995 290 86 -300 VRB/03 RMK AO2 $
63870K0J4 0J420160110063510301/10/16 06:35:31  5-MIN K0J4 101135Z AUTO VRB03KT 10SM BKN040 09/06 A2995 290 83 -300 VRB/03 RMK AO2 $
63870K0J4 0J420160110064010301/10/16 06:40:31  5-MIN K0J4 101140Z AUTO 30005KT 10SM BKN040 09/06 A2995 290 83 -300 300/05 RMK AO2 $
63870K0J4 0J420160110064510301/10/16 06:45:31  5-MIN K0J4 101145Z AUTO VRB04KT 10SM BKN038 09/06 A2995 290 83 -300 VRB/04 RMK AO2 $
63870K0J4 0J420160110065010301/10/16 06:50:31  5-MIN K0J4 101150Z AUTO VRB03KT 10SM BKN038 09/06 A2995 290 83 -300 VRB/03 RMK AO2 $
63870K0J4 0J420160110065514401/10/16 06:55:31  5-MIN K0J4 101155Z AUTO 00000KT 10SM BKN038 09/06 A2996 280 83 -300 000/00 RMK AO2 SLP143 70044 T00890061 10133 20089 51023 $
63870K0J4 0J420160110070010301/10/16 07:00:31  5-MIN K0J4 101200Z AUTO 00000KT 10SM BKN038 09/06 A2996 280 83 -300 000/00 RMK AO2 $
63870K0J4 0J420160110070511001/10/16 07:05:31  5-MIN K0J4 101205Z AUTO VRB03KT 10SM FEW018 BKN038 09/06 A2997 270 83 -300 VRB/03 RMK AO2 $
63870K0J4 0J420160110071011001/10/16 07:10:31  5-MIN K0J4 101210Z AUTO VRB03KT 10SM FEW018 BKN038 09/06 A2996 280 83 -300 VRB/03 RMK AO2 $
63870K0J4 0J420160110071511001/10/16 07:15:31  5-MIN K0J4 101215Z AUTO VRB03KT 10SM FEW018 OVC038 09/06 A2997 270 83 -300 VRB/03 RMK AO2 $
63870K0J4 0J420160110072011001/10/16 07:20:31  5-MIN K0J4 101220Z AUTO VRB04KT 10SM FEW018 OVC038 09/06 A2997 270 83 -300 VRB/04 RMK AO2 $
63870K0J4 0J420160110072511001/10/16 07:25:31  5-MIN K0J4 101225Z AUTO VRB05KT 10SM FEW018 OVC038 09/06 A2998 270 83 -300 VRB/05 RMK AO2 $
63870K0J4 0J420160110073011001/10/16 07:30:31  5-MIN K0J4 101230Z AUTO VRB03KT 10SM FEW018 BKN038 09/06 A2998 260 79 -300 VRB/03 RMK AO2 $
63870K0J4 0J420160110073510301/10/16 07:35:31  5-MIN K0J4 101235Z AUTO VRB05KT 10SM BKN038 08/06 A2998 260 82 -400 VRB/05 RMK AO2 $
63870K0J4 0J420160110074010301/10/16 07:40:31  5-MIN K0J4 101240Z AUTO VRB04KT 10SM SCT038 08/05 A2999 260 79 -400 VRB/04 RMK AO2 $
63870K0J4 0J420160110074510301/10/16 07:45:31  5-MIN K0J4 101245Z AUTO VRB04KT 10SM FEW036 08/05 A2999 250 79 -400 VRB/04 RMK AO2 $
63870K0J4 0J420160110075010301/10/16 07:50:31  5-MIN K0J4 101250Z AUTO VRB03KT 10SM FEW036 08/05 A2999 250 79 -400 VRB/03 RMK AO2 $
63870K0J4 0J420160110075511701/10/16 07:55:31  5-MIN K0J4 101255Z AUTO VRB05KT 10SM CLR 08/04 A3000 240 76 -400 VRB/05 RMK AO2 SLP156 T00830044 $
63870K0J4 0J420160110080010001/10/16 08:00:31  5-MIN K0J4 101300Z AUTO VRB03KT 10SM CLR 08/04 A3000 240 79 -500 VRB/03 RMK AO2 $
63870K0J4 0J420160110080510001/10/16 08:05:31  5-MIN K0J4 101305Z AUTO VRB05KT 10SM CLR 08/04 A3000 240 76 -500 VRB/05 RMK AO2 $
63870K0J4 0J420160110081010001/10/16 08:10:31  5-MIN K0J4 101310Z AUTO VRB06KT 10SM CLR 08/04 A3001 240 76 -500 VRB/06 RMK AO2 $
63870K0J4 0J420160110081510301/10/16 08:15:31  5-MIN K0J4 101315Z AUTO 33006KT 10SM FEW031 08/04 A3001 230 76 -500 330/06 RMK AO2 $
63870K0J4 0J420160110082010301/10/16 08:20:31  5-MIN K0J4 101320Z AUTO VRB05KT 10SM SCT031 08/04 A3001 230 76 -500 VRB/05 RMK AO2 $
63870K0J4 0J420160110082511001/10/16 08:25:31  5-MIN K0J4 101325Z AUTO VRB03KT 10SM FEW023 BKN031 08/04 A3002 230 76 -500 VRB/03 RMK AO2 $
63870K0J4 0J420160110083011001/10/16 08:30:31  5-MIN K0J4 101330Z AUTO VRB03KT 10SM SCT023 BKN031 08/04 A3001 230 76 -500 VRB/03 RMK AO2 $
63870K0J4 0J420160110083511001/10/16 08:35:31  5-MIN K0J4 101335Z AUTO VRB04KT 10SM BKN023 BKN031 08/04 A3002 230 76 -500 VRB/04 RMK AO2 $
63870K0J4 0J420160110084011001/10/16 08:40:31  5-MIN K0J4 101340Z AUTO 00000KT 10SM BKN023 OVC031 08/04 A3002 220 79 -500 000/00 RMK AO2 $
63870K0J4 0J420160110084511001/10/16 08:45:31  5-MIN K0J4 101345Z AUTO VRB05KT 10SM BKN023 OVC031 08/04 A3002 220 79 -500 VRB/05 RMK AO2 $
63870K0J4 0J420160110085010301/10/16 08:50:31  5-MIN K0J4 101350Z AUTO VRB05KT 10SM OVC023 08/04 A3002 220 79 -500 VRB/05 RMK AO2 $
63870K0J4 0J420160110085512001/10/16 08:55:31  5-MIN K0J4 101355Z AUTO VRB05KT 10SM OVC023 08/04 A3002 220 79 -500 VRB/05 RMK AO2 SLP165 T00780044 $
63870K0J4 0J420160110090011901/10/16 09:00:31  5-MIN K0J4 101400Z AUTO 31007KT 260V360 10SM OVC023 08/04 A3003 220 76 -500 310/07 260V360 RMK AO2 $
63870K0J4 0J420160110090510301/10/16 09:05:31  5-MIN K0J4 101405Z AUTO VRB06KT 10SM OVC023 08/04 A3003 210 76 -500 VRB/06 RMK AO2 $
63870K0J4 0J420160110091010901/10/16 09:10:31  5-MIN K0J4 101410Z AUTO VRB05G15KT 10SM OVC025 08/03 A3004 210 73 -500 VRB/05G15 RMK AO2 $
63870K0J4 0J420160110091510901/10/16 09:15:31  5-MIN K0J4 101415Z AUTO VRB05G15KT 10SM OVC025 08/03 A3004 210 73 -500 VRB/05G15 RMK AO2 $
63870K0J4 0J420160110092011901/10/16 09:20:31  5-MIN K0J4 101420Z AUTO 33008KT 290V010 10SM OVC025 08/03 A3005 200 73 -500 330/08 290V010 RMK AO2 $
63870K0J4 0J420160110092510301/10/16 09:25:31  5-MIN K0J4 101425Z AUTO VRB06KT 10SM OVC025 08/03 A3005 200 73 -500 VRB/06 RMK AO2 $
63870K0J4 0J420160110093010301/10/16 09:30:31  5-MIN K0J4 101430Z AUTO 34008KT 10SM OVC025 07/03 A3005 190 73 -600 340/08 RMK AO2 $
63870K0J4 0J420160110093512601/10/16 09:35:31  5-MIN K0J4 101435Z AUTO 33007KT 300V020 10SM OVC025 07/03 A3006 190 73 -600 330/07 300V020 RMK AO2 PRESRR $
63870K0J4 0J420160110094011901/10/16 09:40:31  5-MIN K0J4 101440Z AUTO 34007KT 300V010 10SM OVC023 07/02 A3006 180 70 -600 340/07 300V010 RMK AO2 $
63870K0J4 0J420160110094510901/10/16 09:45:31  5-MIN K0J4 101445Z AUTO VRB05G15KT 10SM OVC023 07/02 A3007 180 70 -600 VRB/05G15 RMK AO2 $
63870K0J4 0J420160110095011901/10/16 09:50:31  5-MIN K0J4 101450Z AUTO 35008KT 300V020 10SM OVC023 07/02 A3007 180 70 -600 350/08 300V020 RMK AO2 $
63870K0J4 0J420160110095514801/10/16 09:55:31  5-MIN K0J4 101455Z AUTO 35008G15KT 310V010 10SM OVC023 07/02 A3007 170 73 -700 350/08G15 310V010 RMK AO2 SLP182 T00670022 53026 $
63870K0J4 0J420160110100012501/10/16 10:00:31  5-MIN K0J4 101500Z AUTO 33007G15KT 300V010 10SM OVC021 07/02 A3008 170 73 -700 330/07G15 300V010 RMK AO2 $
63870K0J4 0J420160110100511901/10/16 10:05:31  5-MIN K0J4 101505Z AUTO 33007KT 300V360 10SM OVC021 07/02 A3008 170 73 -700 330/07 300V360 RMK AO2 $
63870K0J4 0J420160110101012501/10/16 10:10:31  5-MIN K0J4 101510Z AUTO 34010G17KT 310V030 10SM OVC021 07/02 A3008 170 73 -700 340/10G17 310V030 RMK AO2 $
63870K0J4 0J420160110101510901/10/16 10:15:31  5-MIN K0J4 101515Z AUTO VRB04G17KT 10SM OVC023 07/02 A3009 160 70 -700 VRB/04G17 RMK AO2 $
63870K0J4 0J420160110102010301/10/16 10:20:31  5-MIN K0J4 101520Z AUTO 34004KT 10SM OVC023 07/02 A3009 160 70 -700 340/04 RMK AO2 $
63870K0J4 0J420160110102510301/10/16 10:25:31  5-MIN K0J4 101525Z AUTO VRB03KT 10SM OVC023 07/02 A3010 150 70 -700 VRB/03 RMK AO2 $
63870K0J4 0J420160110103010301/10/16 10:30:31  5-MIN K0J4 101530Z AUTO VRB04KT 10SM OVC023 07/02 A3010 150 73 -700 VRB/04 RMK AO2 $
63870K0J4 0J420160110103510301/10/16 10:35:31  5-MIN K0J4 101535Z AUTO VRB05KT 10SM OVC023 07/02 A3010 150 73 -700 VRB/05 RMK AO2 $
63870K0J4 0J420160110104011901/10/16 10:40:31  5-MIN K0J4 101540Z AUTO 35007KT 270V030 10SM OVC023 07/02 A3010 150 73 -700 350/07 270V030 RMK AO2 $
63870K0J4 0J420160110104510301/10/16 10:45:31  5-MIN K0J4 101545Z AUTO 33007KT 10SM OVC023 07/02 A3010 150 73 -700 330/07 RMK AO2 $
63870K0J4 0J420160110105010301/10/16 10:50:31  5-MIN K0J4 101550Z AUTO 34007KT 10SM OVC023 07/02 A3010 150 70 -700 340/07 RMK AO2 $
63870K0J4 0J420160110105512001/10/16 10:55:31  5-MIN K0J4 101555Z AUTO VRB05KT 10SM OVC023 07/02 A3010 150 73 -700 VRB/05 RMK AO2 SLP191 T00670022 $
63870K0J4 0J420160110110010301/10/16 11:00:31  5-MIN K0J4 101600Z AUTO 34007KT 10SM OVC023 07/02 A3010 150 73 -700 340/07 RMK AO2 $
63870K0J4 0J420160110110510301/10/16 11:05:31  5-MIN K0J4 101605Z AUTO VRB05KT 10SM OVC023 07/02 A3010 150 70 -700 VRB/05 RMK AO2 $
63870K0J4 0J420160110111011901/10/16 11:10:31  5-MIN K0J4 101610Z AUTO 33008KT 290V010 10SM OVC023 07/02 A3010 150 73 -700 330/08 290V010 RMK AO2 $
63870K0J4 0J420160110111510301/10/16 11:15:31  5-MIN K0J4 101615Z AUTO VRB03KT 10SM OVC023 07/02 A3010 150 70 -700 VRB/03 RMK AO2 $
63870K0J4 0J420160110112010301/10/16 11:20:31  5-MIN K0J4 101620Z AUTO VRB06KT 10SM OVC023 07/02 A3010 150 70 -700 VRB/06 RMK AO2 $
63870K0J4 0J420160110112510301/10/16 11:25:31  5-MIN K0J4 101625Z AUTO VRB04KT 10SM OVC023 07/02 A3010 150 70 -700 VRB/04 RMK AO2 $
63870K0J4 0J420160110113010301/10/16 11:30:31  5-MIN K0J4 101630Z AUTO VRB04KT 10SM OVC023 07/02 A3010 150 70 -700 VRB/04 RMK AO2 $
63870K0J4 0J420160110113510301/10/16 11:35:31  5-MIN K0J4 101635Z AUTO VRB04KT 10SM OVC023 07/02 A3010 150 70 -700 VRB/04 RMK AO2 $
63870K0J4 0J420160110114011901/10/16 11:40:31  5-MIN K0J4 101640Z AUTO 34007KT 290V020 10SM OVC023 07/02 A3010 150 70 -700 340/07 290V020 RMK AO2 $
63870K0J4 0J420160110114510301/10/16 11:45:31  5-MIN K0J4 101645Z AUTO VRB05KT 10SM OVC023 07/02 A3010 150 70 -700 VRB/05 RMK AO2 $
63870K0J4 0J420160110115010301/10/16 11:50:31  5-MIN K0J4 101650Z AUTO VRB06KT 10SM OVC023 07/02 A3011 150 70 -700 VRB/06 RMK AO2 $
63870K0J4 0J420160110115512001/10/16 11:55:31  5-MIN K0J4 101655Z AUTO VRB06KT 10SM OVC023 07/02 A3011 140 68 -700 VRB/06 RMK AO2 SLP193 T00720017 $
63870K0J4 0J420160110120010301/10/16 12:00:31  5-MIN K0J4 101700Z AUTO 00000KT 10SM OVC023 08/02 A3011 140 68 -600 000/00 RMK AO2 $
63870K0J4 0J420160110120510301/10/16 12:05:31  5-MIN K0J4 101705Z AUTO VRB05KT 10SM OVC023 08/02 A3011 150 68 -600 VRB/05 RMK AO2 $
63870K0J4 0J420160110121010301/10/16 12:10:31  5-MIN K0J4 101710Z AUTO VRB03KT 10SM OVC023 08/02 A3010 150 68 -600 VRB/03 RMK AO2 $
63870K0J4 0J420160110121510301/10/16 12:15:31  5-MIN K0J4 101715Z AUTO VRB06KT 10SM OVC025 08/02 A3010 150 68 -600 VRB/06 RMK AO2 $
63870K0J4 0J420160110122010301/10/16 12:20:31  5-MIN K0J4 101720Z AUTO 34006KT 10SM OVC025 08/02 A3010 150 68 -600 340/06 RMK AO2 $
63870K0J4 0J420160110122510301/10/16 12:25:31  5-MIN K0J4 101725Z AUTO VRB04KT 10SM OVC025 08/02 A3011 140 68 -600 VRB/04 RMK AO2 $
63870K0J4 0J420160110123010301/10/16 12:30:31  5-MIN K0J4 101730Z AUTO VRB06KT 10SM OVC023 07/02 A3010 150 70 -700 VRB/06 RMK AO2 $
63870K0J4 0J420160110123510301/10/16 12:35:31  5-MIN K0J4 101735Z AUTO VRB06KT 10SM OVC023 07/02 A3010 150 70 -700 VRB/06 RMK AO2 $
63870K0J4 0J420160110124010301/10/16 12:40:31  5-MIN K0J4 101740Z AUTO VRB06KT 10SM OVC023 07/02 A3009 160 70 -700 VRB/06 RMK AO2 $
63870K0J4 0J420160110124511001/10/16 12:45:31  5-MIN K0J4 101745Z AUTO VRB06KT 10SM BKN023 OVC030 08/02 A3009 160 68 -600 VRB/06 RMK AO2 $
63870K0J4 0J420160110125011001/10/16 12:50:31  5-MIN K0J4 101750Z AUTO 35005KT 10SM SCT023 OVC030 08/02 A3009 160 65 -500 350/05 RMK AO2 $
63870K0J4 0J420160110125514501/10/16 12:55:31  5-MIN K0J4 101755Z AUTO 36008KT 10SM BKN025 OVC030 08/02 A3009 160 65 -600 360/08 RMK AO2 SLP189 T00780017 10089 20067 53039 $
63870K0J4 0J420160110130011001/10/16 13:00:31  5-MIN K0J4 101800Z AUTO 34005KT 10SM BKN025 OVC030 08/02 A3009 160 65 -600 340/05 RMK AO2 $
63870K0J4 0J420160110130510301/10/16 13:05:31  5-MIN K0J4 101805Z AUTO 33005KT 10SM OVC027 08/02 A3009 160 68 -600 330/05 RMK AO2 $
63870K0J4 0J420160110131010301/10/16 13:10:31  5-MIN K0J4 101810Z AUTO VRB05KT 10SM OVC027 08/02 A3009 160 65 -500 VRB/05 RMK AO2 $
63870K0J4 0J420160110131510301/10/16 13:15:31  5-MIN K0J4 101815Z AUTO VRB06KT 10SM OVC027 08/02 A3009 160 65 -500 VRB/06 RMK AO2 $
63870K0J4 0J420160110132010301/10/16 13:20:31  5-MIN K0J4 101820Z AUTO VRB06KT 10SM OVC027 08/02 A3008 170 68 -600 VRB/06 RMK AO2 $
63870K0J4 0J420160110132510301/10/16 13:25:31  5-MIN K0J4 101825Z AUTO VRB05KT 10SM OVC027 08/02 A3009 160 65 -500 VRB/05 RMK AO2 $
63870K0J4 0J420160110133010301/10/16 13:30:31  5-MIN K0J4 101830Z AUTO VRB06KT 10SM OVC027 08/02 A3009 160 68 -600 VRB/06 RMK AO2 $
63870K0J4 0J420160110133511901/10/16 13:35:31  5-MIN K0J4 101835Z AUTO 34007KT 310V010 10SM OVC027 08/02 A3008 170 68 -600 340/07 310V010 RMK AO2 $
63870K0J4 0J420160110134010301/10/16 13:40:31  5-MIN K0J4 101840Z AUTO VRB06KT 10SM OVC027 08/02 A3008 170 68 -600 VRB/06 RMK AO2 $
63870K0J4 0J420160110134510301/10/16 13:45:31  5-MIN K0J4 101845Z AUTO VRB04KT 10SM OVC027 08/02 A3008 160 68 -600 VRB/04 RMK AO2 $
63870K0J4 0J420160110135010301/10/16 13:50:31  5-MIN K0J4 101850Z AUTO VRB06KT 10SM OVC027 08/02 A3009 160 65 -500 VRB/06 RMK AO2 $
63870K0J4 0J420160110135513601/10/16 13:55:31  5-MIN K0J4 101855Z AUTO 33007KT 300V020 10SM OVC029 08/02 A3008 160 68 -600 330/07 300V020 RMK AO2 SLP187 T00780022 $
63870K0J4 0J420160110140010301/10/16 14:00:31  5-MIN K0J4 101900Z AUTO VRB06KT 10SM OVC029 08/02 A3009 160 65 -600 VRB/06 RMK AO2 $
63870K0J4 0J420160110140510301/10/16 14:05:31  5-MIN K0J4 101905Z AUTO 33007KT 10SM OVC029 08/02 A3009 160 63 -500 330/07 RMK AO2 $
63870K0J4 0J420160110141010301/10/16 14:10:31  5-MIN K0J4 101910Z AUTO 34007KT 10SM OVC029 08/02 A3008 170 63 -500 340/07 RMK AO2 $
63870K0J4 0J420160110141511901/10/16 14:15:31  5-MIN K0J4 101915Z AUTO 33007KT 300V010 10SM OVC029 08/02 A3009 160 65 -600 330/07 300V010 RMK AO2 $
63870K0J4 0J420160110142010301/10/16 14:20:31  5-MIN K0J4 101920Z AUTO VRB03KT 10SM OVC029 08/02 A3009 160 65 -600 VRB/03 RMK AO2 $
63870K0J4 0J420160110142510301/10/16 14:25:31  5-MIN K0J4 101925Z AUTO 32007KT 10SM OVC029 08/02 A3009 160 65 -500 320/07 RMK AO2 $
63870K0J4 0J420160110143010301/10/16 14:30:31  5-MIN K0J4 101930Z AUTO VRB04KT 10SM OVC029 08/02 A3009 160 65 -500 VRB/04 RMK AO2 $
63870K0J4 0J420160110143510301/10/16 14:35:31  5-MIN K0J4 101935Z AUTO 35005KT 10SM OVC029 08/02 A3009 160 63 -500 350/05 RMK AO2 $
63870K0J4 0J420160110144010301/10/16 14:40:31  5-MIN K0J4 101940Z AUTO VRB05KT 10SM OVC029 08/02 A3009 160 63 -500 VRB/05 RMK AO2 $
63870K0J4 0J420160110144510301/10/16 14:45:31  5-MIN K0J4 101945Z AUTO VRB06KT 10SM OVC031 08/02 A3009 160 63 -500 VRB/06 RMK AO2 $
63870K0J4 0J420160110145010301/10/16 14:50:31  5-MIN K0J4 101950Z AUTO 34006KT 10SM OVC031 08/02 A3009 160 63 -500 340/06 RMK AO2 $
63870K0J4 0J420160110145512001/10/16 14:55:31  5-MIN K0J4 101955Z AUTO VRB05KT 10SM OVC031 08/01 A3009 160 60 -500 VRB/05 RMK AO2 SLP189 T00830011 $
63870K0J4 0J420160110150010301/10/16 15:00:31  5-MIN K0J4 102000Z AUTO VRB06KT 10SM OVC031 08/02 A3009 160 63 -500 VRB/06 RMK AO2 $
63870K0J4 0J420160110150510301/10/16 15:05:31  5-MIN K0J4 102005Z AUTO VRB04KT 10SM OVC031 08/02 A3009 160 63 -500 VRB/04 RMK AO2 $
63870K0J4 0J420160110151010301/10/16 15:10:31  5-MIN K0J4 102010Z AUTO 32008KT 10SM OVC029 08/02 A3010 150 63 -500 320/08 RMK AO2 $
63870K0J4 0J420160110151510301/10/16 15:15:31  5-MIN K0J4 102015Z AUTO VRB04KT 10SM OVC029 08/01 A3009 160 60 -500 VRB/04 RMK AO2 $
63870K0J4 0J420160110152010301/10/16 15:20:31  5-MIN K0J4 102020Z AUTO VRB04KT 10SM OVC029 08/02 A3009 160 63 -500 VRB/04 RMK AO2 $
63870K0J4 0J420160110152510301/10/16 15:25:31  5-MIN K0J4 102025Z AUTO VRB06KT 10SM OVC029 08/02 A3010 150 63 -500 VRB/06 RMK AO2 $
63870K0J4 0J420160110153010301/10/16 15:30:31  5-MIN K0J4 102030Z AUTO 33007KT 10SM OVC029 08/01 A3010 150 60 -500 330/07 RMK AO2 $
63870K0J4 0J420160110153510301/10/16 15:35:31  5-MIN K0J4 102035Z AUTO VRB04KT 10SM OVC029 08/01 A3010 150 62 -600 VRB/04 RMK AO2 $
63870K0J4 0J420160110154010301/10/16 15:40:31  5-MIN K0J4 102040Z AUTO VRB06KT 10SM OVC029 08/02 A3010 150 65 -600 VRB/06 RMK AO2 $
63870K0J4 0J420160110154511901/10/16 15:45:31  5-MIN K0J4 102045Z AUTO 34007KT 290V010 10SM OVC029 08/02 A3010 150 65 -600 340/07 290V010 RMK AO2 $
63870K0J4 0J420160110155010301/10/16 15:50:31  5-MIN K0J4 102050Z AUTO VRB06KT 10SM OVC029 08/02 A3010 150 65 -600 VRB/06 RMK AO2 $
63870K0J4 0J420160110155512601/10/16 15:55:31  5-MIN K0J4 102055Z AUTO 34006KT 10SM OVC029 08/01 A3011 150 62 -600 340/06 RMK AO2 SLP194 T00780011 50005 $
63870K0J4 0J420160110160010301/10/16 16:00:31  5-MIN K0J4 102100Z AUTO VRB05KT 10SM OVC029 08/01 A3011 140 62 -600 VRB/05 RMK AO2 $
63870K0J4 0J420160110160510301/10/16 16:05:31  5-MIN K0J4 102105Z AUTO VRB06KT 10SM OVC029 07/01 A3011 140 65 -700 VRB/06 RMK AO2 $
63870K0J4 0J420160110161010301/10/16 16:10:31  5-MIN K0J4 102110Z AUTO 34005KT 10SM OVC029 08/01 A3011 140 62 -600 340/05 RMK AO2 $
63870K0J4 0J420160110161510301/10/16 16:15:31  5-MIN K0J4 102115Z AUTO VRB05KT 10SM OVC029 08/01 A3012 140 62 -600 VRB/05 RMK AO2 $
63870K0J4 0J420160110162010301/10/16 16:20:31  5-MIN K0J4 102120Z AUTO VRB05KT 10SM OVC029 07/01 A3012 130 62 -700 VRB/05 RMK AO2 $
63870K0J4 0J420160110162510301/10/16 16:25:31  5-MIN K0J4 102125Z AUTO VRB03KT 10SM OVC029 07/01 A3013 130 62 -700 VRB/03 RMK AO2 $
63870K0J4 0J420160110163010301/10/16 16:30:31  5-MIN K0J4 102130Z AUTO VRB04KT 10SM OVC029 07/01 A3012 130 65 -700 VRB/04 RMK AO2 $
63870K0J4 0J420160110163510301/10/16 16:35:31  5-MIN K0J4 102135Z AUTO VRB03KT 10SM OVC029 07/01 A3013 120 65 -700 VRB/03 RMK AO2 $
63870K0J4 0J420160110164011901/10/16 16:40:31  5-MIN K0J4 102140Z AUTO 30007KT 260V330 10SM OVC029 07/01 A3013 120 62 -700 300/07 260V330 RMK AO2 $
63870K0J4 0J420160110164510301/10/16 16:45:31  5-MIN K0J4 102145Z AUTO VRB05KT 10SM OVC029 07/01 A3013 120 62 -700 VRB/05 RMK AO2 $
63870K0J4 0J420160110165010301/10/16 16:50:31  5-MIN K0J4 102150Z AUTO 34005KT 10SM OVC029 07/01 A3013 120 62 -700 340/05 RMK AO2 $
63870K0J4 0J420160110165512001/10/16 16:55:31  5-MIN K0J4 102155Z AUTO VRB03KT 10SM OVC029 07/01 A3014 120 62 -700 VRB/03 RMK AO2 SLP204 T00720006 $
63870K0J4 0J420160110170010301/10/16 17:00:31  5-MIN K0J4 102200Z AUTO VRB04KT 10SM BKN031 07/01 A3014 120 65 -800 VRB/04 RMK AO2 $
63870K0J4 0J420160110170510301/10/16 17:05:31  5-MIN K0J4 102205Z AUTO VRB06KT 10SM OVC031 07/01 A3014 110 62 -700 VRB/06 RMK AO2 $
63870K0J4 0J420160110171011901/10/16 17:10:31  5-MIN K0J4 102210Z AUTO 34007KT 300V010 10SM OVC031 07/01 A3014 110 65 -800 340/07 300V010 RMK AO2 $
63870K0J4 0J420160110171510301/10/16 17:15:31  5-MIN K0J4 102215Z AUTO VRB03KT 10SM BKN033 07/01 A3014 110 65 -800 VRB/03 RMK AO2 $
63870K0J4 0J420160110172010301/10/16 17:20:31  5-MIN K0J4 102220Z AUTO VRB03KT 10SM BKN033 07/01 A3015 110 65 -800 VRB/03 RMK AO2 $
63870K0J4 0J420160110172510301/10/16 17:25:31  5-MIN K0J4 102225Z AUTO VRB05KT 10SM SCT033 07/01 A3015 110 65 -800 VRB/05 RMK AO2 $
63870K0J4 0J420160110173010301/10/16 17:30:31  5-MIN K0J4 102230Z AUTO VRB03KT 10SM SCT033 07/01 A3015 110 65 -800 VRB/03 RMK AO2 $
63870K0J4 0J420160110173510301/10/16 17:35:31  5-MIN K0J4 102235Z AUTO VRB05KT 10SM SCT033 07/01 A3015 110 65 -800 VRB/05 RMK AO2 $
63870K0J4 0J420160110174010301/10/16 17:40:31  5-MIN K0J4 102240Z AUTO VRB03KT 10SM SCT033 07/01 A3015 100 65 -800 VRB/03 RMK AO2 $
63870K0J4 0J420160110174510301/10/16 17:45:31  5-MIN K0J4 102245Z AUTO VRB04KT 10SM SCT033 06/01 A3015 110 67 -900 VRB/04 RMK AO2 $
63870K0J4 0J420160110175010301/10/16 17:50:31  5-MIN K0J4 102250Z AUTO 34004KT 10SM BKN033 06/01 A3015 100 67 -900 340/04 RMK AO2 $
63870K0J4 0J420160110175512001/10/16 17:55:31  5-MIN K0J4 102255Z AUTO 00000KT 10SM BKN033 06/01 A3016 100 67 -900 000/00 RMK AO2 SLP211 T00610006 $
63870K0J4 0J420160110180010301/10/16 18:00:31  5-MIN K0J4 102300Z AUTO 35003KT 10SM BKN033 06/01 A3016 100 67 -900 350/03 RMK AO2 $
63870K0J4 0J420160110180510301/10/16 18:05:31  5-MIN K0J4 102305Z AUTO VRB03KT 10SM OVC033 06/01 A3016 100 67 -900 VRB/03 RMK AO2 $
63870K0J4 0J420160110181010301/10/16 18:10:31  5-MIN K0J4 102310Z AUTO VRB03KT 10SM OVC033 06/01 A3016 100 67 -900 VRB/03 RMK AO2 $
63870K0J4 0J420160110181510301/10/16 18:15:31  5-MIN K0J4 102315Z AUTO 34003KT 10SM OVC033 06/01 A3016 100 67 -900 340/03 RMK AO2 $
63870K0J4 0J420160110182010301/10/16 18:20:31  5-MIN K0J4 102320Z AUTO 00000KT 10SM BKN033 06/01 A3016 100 70 -900 000/00 RMK AO2 $
63870K0J4 0J420160110182510301/10/16 18:25:31  5-MIN K0J4 102325Z AUTO VRB04KT 10SM BKN033 06/01 A3016 100 70 -900 VRB/04 RMK AO2 $
63870K0J4 0J420160110183010201/10/16 18:30:31  5-MIN K0J4 102330Z AUTO 00000KT 10SM BKN033 06/01 A3016 90 70 -900 000/00 RMK AO2 $
63870K0J4 0J420160110183510201/10/16 18:35:31  5-MIN K0J4 102335Z AUTO 00000KT 10SM BKN033 06/01 A3016 90 70 -900 000/00 RMK AO2 $
63870K0J4 0J420160110184010201/10/16 18:40:31  5-MIN K0J4 102340Z AUTO VRB03KT 10SM BKN033 06/01 A3017 90 70 -900 VRB/03 RMK AO2 $
63870K0J4 0J420160110184510301/10/16 18:45:31  5-MIN K0J4 102345Z AUTO 35003KT 10SM BKN033 05/01 A3017 90 73 -1000 350/03 RMK AO2 $
63870K0J4 0J420160110185010301/10/16 18:50:31  5-MIN K0J4 102350Z AUTO 35004KT 10SM BKN033 05/01 A3017 90 73 -1000 350/04 RMK AO2 $
63870K0J4 0J420160110185513801/10/16 18:55:31  5-MIN K0J4 102355Z AUTO 34003KT 10SM SCT033 05/01 A3017 80 73 -1000 340/03 RMK AO2 SLP216 T00500006 10083 20050 53005 $
63870K0J4 0J420160110190010301/10/16 19:00:31  5-MIN K0J4 110000Z AUTO VRB03KT 10SM SCT033 05/00 A3017 80 70 -1000 VRB/03 RMK AO2 $
63870K0J4 0J420160110190510301/10/16 19:05:31  5-MIN K0J4 110005Z AUTO 36003KT 10SM FEW033 05/00 A3017 80 70 -1000 360/03 RMK AO2 $
63870K0J4 0J420160110191010301/10/16 19:10:31  5-MIN K0J4 110010Z AUTO 34004KT 10SM FEW033 04/00 A3018 80 73 -1100 340/04 RMK AO2 $
63870K0J4 0J420160110191510001/10/16 19:15:31  5-MIN K0J4 110015Z AUTO 34003KT 10SM CLR 04/00 A3018 80 73 -1100 340/03 RMK AO2 $
63870K0J4 0J420160110192010001/10/16 19:20:31  5-MIN K0J4 110020Z AUTO VRB04KT 10SM CLR 04/00 A3018 80 73 -1100 VRB/04 RMK AO2 $
63870K0J4 0J420160110192510001/10/16 19:25:31  5-MIN K0J4 110025Z AUTO VRB04KT 10SM CLR 04/00 A3018 80 73 -1100 VRB/04 RMK AO2 $
63870K0J4 0J420160110193010001/10/16 19:30:31  5-MIN K0J4 110030Z AUTO 32004KT 10SM CLR 04/00 A3018 70 73 -1100 320/04 RMK AO2 $
63870K0J4 0J420160110193510001/10/16 19:35:31  5-MIN K0J4 110035Z AUTO 33003KT 10SM CLR 04/00 A3019 70 76 -1200 330/03 RMK AO2 $
63870K0J4 0J420160110194010101/10/16 19:40:31  5-MIN K0J4 110040Z AUTO VRB04KT 10SM CLR 04/M01 A3018 70 73 -1200 VRB/04 RMK AO2 $
63870K0J4 0J420160110194510101/10/16 19:45:31  5-MIN K0J4 110045Z AUTO 35005KT 10SM CLR 04/M01 A3018 70 70 -1100 350/05 RMK AO2 $
63870K0J4 0J420160110195010101/10/16 19:50:31  5-MIN K0J4 110050Z AUTO 35004KT 10SM CLR 04/M01 A3018 70 73 -1200 350/04 RMK AO2 $
63870K0J4 0J420160110195511801/10/16 19:55:31  5-MIN K0J4 110055Z AUTO 35004KT 10SM CLR 04/M01 A3018 70 73 -1200 350/04 RMK AO2 SLP220 T00391006 $
63870K0J4 0J420160110200010101/10/16 20:00:31  5-MIN K0J4 110100Z AUTO VRB04KT 10SM CLR 04/M01 A3019 70 73 -1200 VRB/04 RMK AO2 $
63870K0J4 0J420160110200510401/10/16 20:05:31  5-MIN K0J4 110105Z AUTO 34004KT 10SM FEW029 04/M01 A3019 70 73 -1200 340/04 RMK AO2 $
63870K0J4 0J420160110201010401/10/16 20:10:31  5-MIN K0J4 110110Z AUTO 34004KT 10SM SCT029 04/M01 A3019 70 73 -1200 340/04 RMK AO2 $
63870K0J4 0J420160110201510401/10/16 20:15:31  5-MIN K0J4 110115Z AUTO VRB03KT 10SM FEW029 03/M01 A3019 70 76 -1200 VRB/03 RMK AO2 $
63870K0J4 0J420160110202010401/10/16 20:20:31  5-MIN K0J4 110120Z AUTO VRB03KT 10SM FEW029 03/M01 A3019 70 76 -1200 VRB/03 RMK AO2 $
63870K0J4 0J420160110202510401/10/16 20:25:31  5-MIN K0J4 110125Z AUTO VRB03KT 10SM FEW029 03/M01 A3019 70 76 -1200 VRB/03 RMK AO2 $
63870K0J4 0J420160110203010401/10/16 20:30:31  5-MIN K0J4 110130Z AUTO 00000KT 10SM FEW029 03/M01 A3019 70 76 -1200 000/00 RMK AO2 $
63870K0J4 0J420160110203510401/10/16 20:35:31  5-MIN K0J4 110135Z AUTO VRB04KT 10SM FEW029 03/M01 A3019 70 76 -1200 VRB/04 RMK AO2 $
63870K0J4 0J420160110204010101/10/16 20:40:31  5-MIN K0J4 110140Z AUTO 00000KT 10SM CLR 03/M01 A3019 60 76 -1200 000/00 RMK AO2 $
63870K0J4 0J420160110204510101/10/16 20:45:31  5-MIN K0J4 110145Z AUTO 32003KT 10SM CLR 03/M01 A3020 60 79 -1300 320/03 RMK AO2 $
63870K0J4 0J420160110205010101/10/16 20:50:31  5-MIN K0J4 110150Z AUTO 00000KT 10SM CLR 03/M01 A3020 60 79 -1300 000/00 RMK AO2 $
63870K0J4 0J420160110205511801/10/16 20:55:31  5-MIN K0J4 110155Z AUTO 00000KT 10SM CLR 03/M01 A3020 60 79 -1300 000/00 RMK AO2 SLP227 T00281006 $
63870K0J4 0J420160110210010101/10/16 21:00:31  5-MIN K0J4 110200Z AUTO 00000KT 10SM CLR 03/M01 A3020 60 79 -1300 000/00 RMK AO2 $
63870K0J4 0J420160110210510101/10/16 21:05:31  5-MIN K0J4 110205Z AUTO 00000KT 10SM CLR 03/M01 A3020 60 79 -1300 000/00 RMK AO2 $
63870K0J4 0J420160110211010101/10/16 21:10:31  5-MIN K0J4 110210Z AUTO 33003KT 10SM CLR 03/M01 A3020 50 79 -1300 330/03 RMK AO2 $
63870K0J4 0J420160110211510101/10/16 21:15:31  5-MIN K0J4 110215Z AUTO 00000KT 10SM CLR 02/M01 A3021 50 82 -1400 000/00 RMK AO2 $
63870K0J4 0J420160110212010101/10/16 21:20:31  5-MIN K0J4 110220Z AUTO 00000KT 10SM CLR 02/M01 A3021 50 82 -1400 000/00 RMK AO2 $
63870K0J4 0J420160110212510101/10/16 21:25:31  5-MIN K0J4 110225Z AUTO 00000KT 10SM CLR 02/M01 A3021 50 85 -1500 000/00 RMK AO2 $
63870K0J4 0J420160110213010101/10/16 21:30:31  5-MIN K0J4 110230Z AUTO 33003KT 10SM CLR 02/M01 A3021 50 82 -1400 330/03 RMK AO2 $
63870K0J4 0J420160110213510101/10/16 21:35:31  5-MIN K0J4 110235Z AUTO VRB03KT 10SM CLR 02/M01 A3021 50 82 -1400 VRB/03 RMK AO2 $
63870K0J4 0J420160110214010101/10/16 21:40:31  5-MIN K0J4 110240Z AUTO 00000KT 10SM CLR 02/M01 A3021 40 82 -1400 000/00 RMK AO2 $
63870K0J4 0J420160110214510101/10/16 21:45:31  5-MIN K0J4 110245Z AUTO 00000KT 10SM CLR 02/M01 A3021 50 82 -1400 000/00 RMK AO2 $
63870K0J4 0J420160110215010101/10/16 21:50:31  5-MIN K0J4 110250Z AUTO 34003KT 10SM CLR 02/M01 A3021 50 85 -1500 340/03 RMK AO2 $
63870K0J4 0J420160110215512401/10/16 21:55:31  5-MIN K0J4 110255Z AUTO 00000KT 10SM CLR 02/M01 A3021 50 85 -1500 000/00 RMK AO2 SLP230 T00171006 51022 $
63870K0J4 0J420160110220010101/10/16 22:00:31  5-MIN K0J4 110300Z AUTO 00000KT 10SM CLR 02/M01 A3021 50 78 -1400 000/00 RMK AO2 $
63870K0J4 0J420160110220510101/10/16 22:05:31  5-MIN K0J4 110305Z AUTO 00000KT 10SM CLR 02/M01 A3021 50 78 -1400 000/00 RMK AO2 $
63870K0J4 0J420160110221010101/10/16 22:10:31  5-MIN K0J4 110310Z AUTO 00000KT 10SM CLR 02/M01 A3022 40 82 -1500 000/00 RMK AO2 $
63870K0J4 0J420160110221510101/10/16 22:15:31  5-MIN K0J4 110315Z AUTO 00000KT 10SM CLR 02/M01 A3022 40 82 -1500 000/00 RMK AO2 $
63870K0J4 0J420160110222010101/10/16 22:20:31  5-MIN K0J4 110320Z AUTO 00000KT 10SM CLR 02/M01 A3022 40 82 -1500 000/00 RMK AO2 $
63870K0J4 0J420160110222510101/10/16 22:25:31  5-MIN K0J4 110325Z AUTO 00000KT 10SM CLR 02/M01 A3022 40 82 -1500 000/00 RMK AO2 $
63870K0J4 0J420160110223010101/10/16 22:30:31  5-MIN K0J4 110330Z AUTO 00000KT 10SM CLR 02/M01 A3022 40 82 -1500 000/00 RMK AO2 $
63870K0J4 0J420160110223510101/10/16 22:35:31  5-MIN K0J4 110335Z AUTO 00000KT 10SM CLR 02/M01 A3022 40 82 -1500 000/00 RMK AO2 $
63870K0J4 0J420160110224010101/10/16 22:40:31  5-MIN K0J4 110340Z AUTO 00000KT 10SM CLR 02/M01 A3022 40 82 -1500 000/00 RMK AO2 $
63870K0J4 0J420160110224510101/10/16 22:45:31  5-MIN K0J4 110345Z AUTO 00000KT 10SM CLR 02/M01 A3022 40 82 -1500 000/00 RMK AO2 $
63870K0J4 0J420160110225010101/10/16 22:50:31  5-MIN K0J4 110350Z AUTO 00000KT 10SM CLR 01/M01 A3022 40 85 -1600 000/00 RMK AO2 $
63870K0J4 0J420160110225511801/10/16 22:55:31  5-MIN K0J4 110355Z AUTO 00000KT 10SM CLR 01/M01 A3022 40 85 -1600 000/00 RMK AO2 SLP233 T00111011 $
63870K0J4 0J420160110230010101/10/16 23:00:31  5-MIN K0J4 110400Z AUTO 00000KT 10SM CLR 01/M01 A3022 40 85 -1600 000/00 RMK AO2 $
63870K0J4 0J420160110230510101/10/16 23:05:31  5-MIN K0J4 110405Z AUTO 00000KT 10SM CLR 01/M01 A3023 40 89 -1600 000/00 RMK AO2 $
63870K0J4 0J420160110231010101/10/16 23:10:31  5-MIN K0J4 110410Z AUTO 00000KT 10SM CLR 01/M01 A3023 30 92 -1600 000/00 RMK AO2 $
63870K0J4 0J420160110231510101/10/16 23:15:31  5-MIN K0J4 110415Z AUTO 00000KT 10SM CLR 01/M01 A3023 30 92 -1600 000/00 RMK AO2 $
63870K0J4 0J420160110232010101/10/16 23:20:31  5-MIN K0J4 110420Z AUTO 00000KT 10SM CLR 00/M01 A3023 30 92 -1700 000/00 RMK AO2 $
63870K0J4 0J420160110232510101/10/16 23:25:31  5-MIN K0J4 110425Z AUTO 00000KT 10SM CLR 00/M01 A3023 30 92 -1700 000/00 RMK AO2 $
63870K0J4 0J420160110233010101/10/16 23:30:31  5-MIN K0J4 110430Z AUTO 00000KT 10SM CLR 00/M01 A3023 30 92 -1700 000/00 RMK AO2 $
63870K0J4 0J420160110233510101/10/16 23:35:31  5-MIN K0J4 110435Z AUTO 00000KT 10SM CLR 01/M01 A3023 30 89 -1600 000/00 RMK AO2 $
63870K0J4 0J420160110234010101/10/16 23:40:31  5-MIN K0J4 110440Z AUTO VRB03KT 10SM CLR 01/M01 A3023 30 89 -1600 VRB/03 RMK AO2 $
63870K0J4 0J420160110234510101/10/16 23:45:31  5-MIN K0J4 110445Z AUTO 00000KT 10SM CLR 01/M01 A3022 40 89 -1600 000/00 RMK AO2 $
63870K0J4 0J420160110235010101/10/16 23:50:31  5-MIN K0J4 110450Z AUTO 00000KT 10SM CLR 01/M01 A3022 40 89 -1600 000/00 RMK AO2 $
63870K0J4 0J420160110235512801/10/16 23:55:31  5-MIN K0J4 110455Z AUTO 00000KT 10SM CLR 01/M01 A3022 40 89 -1600 000/00 RMK AO2 SLP235 T00061011 401500000 $
63870K0J4 0J420160111000010101/11/16 00:00:31  5-MIN K0J4 110500Z AUTO 00000KT 10SM CLR 01/M01 A3022 40 85 -1600 000/00 RMK AO2 $
63870K0J4 0J420160111000510101/11/16 00:05:31  5-MIN K0J4 110505Z AUTO 00000KT 10SM CLR 01/M01 A3022 40 89 -1600 000/00 RMK AO2 $
63870K0J4 0J420160111001010101/11/16 00:10:31  5-MIN K0J4 110510Z AUTO 00000KT 10SM CLR 01/M01 A3022 40 89 -1600 000/00 RMK AO2 $
63870K0J4 0J420160111001510101/11/16 00:15:31  5-MIN K0J4 110515Z AUTO 00000KT 10SM CLR 01/M01 A3022 40 89 -1600 000/00 RMK AO2 $
63870K0J4 0J420160111002010101/11/16 00:20:31  5-MIN K0J4 110520Z AUTO 00000KT 10SM CLR 00/M02 A3022 40 88 -1700 000/00 RMK AO2 $
63870K0J4 0J420160111002510101/11/16 00:25:31  5-MIN K0J4 110525Z AUTO 00000KT 10SM CLR 00/M02 A3022 40 88 -1700 000/00 RMK AO2 $
63870K0J4 0J420160111003010101/11/16 00:30:31  5-MIN K0J4 110530Z AUTO 00000KT 10SM CLR 01/M02 A3022 40 85 -1600 000/00 RMK AO2 $
63870K0J4 0J420160111003510101/11/16 00:35:31  5-MIN K0J4 110535Z AUTO 00000KT 10SM CLR 00/M02 A3023 30 88 -1700 000/00 RMK AO2 $
63870K0J4 0J420160111004010101/11/16 00:40:31  5-MIN K0J4 110540Z AUTO 00000KT 10SM CLR 00/M01 A3023 30 92 -1700 000/00 RMK AO2 $
63870K0J4 0J420160111004510101/11/16 00:45:31  5-MIN K0J4 110545Z AUTO 00000KT 10SM CLR 00/M01 A3023 30 92 -1700 000/00 RMK AO2 $
63870K0J4 0J420160111005010101/11/16 00:50:31  5-MIN K0J4 110550Z AUTO 00000KT 10SM CLR 00/M01 A3023 30 92 -1700 000/00 RMK AO2 $
63870K0J4 0J420160111005513701/11/16 00:55:31  5-MIN K0J4 110555Z AUTO 00000KT 10SM CLR M01/M02 A3023 30 92 -1800 000/00 RMK AO2 SLP238 T10061017 10050 21006 52013 $
63870K0J4 0J420160111010010201/11/16 01:00:31  5-MIN K0J4 110600Z AUTO 00000KT 10SM CLR M01/M02 A3023 30 92 -1800 000/00 RMK AO2 $
63870K0J4 0J420160111010510101/11/16 01:05:31  5-MIN K0J4 110605Z AUTO 00000KT 10SM CLR 00/M02 A3023 30 88 -1700 000/00 RMK AO2 $
63870K0J4 0J420160111011010101/11/16 01:10:31  5-MIN K0J4 110610Z AUTO 00000KT 10SM CLR 00/M02 A3023 30 88 -1700 000/00 RMK AO2 $
63870K0J4 0J420160111011510101/11/16 01:15:31  5-MIN K0J4 110615Z AUTO 00000KT 10SM CLR 00/M02 A3023 30 88 -1700 000/00 RMK AO2 $
63870K0J4 0J420160111012010101/11/16 01:20:31  5-MIN K0J4 110620Z AUTO 00000KT 10SM CLR 00/M02 A3023 30 88 -1700 000/00 RMK AO2 $
63870K0J4 0J420160111012510101/11/16 01:25:31  5-MIN K0J4 110625Z AUTO 00000KT 10SM CLR 00/M02 A3023 30 88 -1700 000/00 RMK AO2 $
63870K0J4 0J420160111013010201/11/16 01:30:31  5-MIN K0J4 110630Z AUTO 00000KT 10SM CLR M01/M02 A3023 30 92 -1800 000/00 RMK AO2 $
63870K0J4 0J420160111013510201/11/16 01:35:31  5-MIN K0J4 110635Z AUTO 00000KT 10SM CLR M01/M02 A3023 30 92 -1800 000/00 RMK AO2 $
63870K0J4 0J420160111014010201/11/16 01:40:31  5-MIN K0J4 110640Z AUTO 00000KT 10SM CLR M01/M02 A3024 20 92 -1800 000/00 RMK AO2 $
63870K0J4 0J420160111014510201/11/16 01:45:31  5-MIN K0J4 110645Z AUTO 00000KT 10SM CLR M01/M02 A3024 20 92 -1800 000/00 RMK AO2 $
63870K0J4 0J420160111015010201/11/16 01:50:31  5-MIN K0J4 110650Z AUTO 00000KT 10SM CLR M01/M02 A3024 20 96 -1900 000/00 RMK AO2 $
63870K0J4 0J420160111015511901/11/16 01:55:31  5-MIN K0J4 110655Z AUTO 00000KT 10SM CLR M01/M02 A3024 20 96 -1900 000/00 RMK AO2 SLP241 T10111017 $
63870K0J4 0J420160111020010201/11/16 02:00:31  5-MIN K0J4 110700Z AUTO 00000KT 10SM CLR M01/M02 A3024 20 96 -1900 000/00 RMK AO2 $
63870K0J4 0J420160111020510201/11/16 02:05:31  5-MIN K0J4 110705Z AUTO 00000KT 10SM CLR M01/M02 A3024 20 96 -1900 000/00 RMK AO2 $
63870K0J4 0J420160111021010201/11/16 02:10:31  5-MIN K0J4 110710Z AUTO 00000KT 10SM CLR M01/M02 A3024 20 96 -1900 000/00 RMK AO2 $
63870K0J4 0J420160111021510201/11/16 02:15:31  5-MIN K0J4 110715Z AUTO 00000KT 10SM CLR M01/M02 A3023 30 92 -1900 000/00 RMK AO2 $
63870K0J4 0J420160111022010201/11/16 02:20:31  5-MIN K0J4 110720Z AUTO VRB03KT 10SM CLR M01/M02 A3024 30 88 -1800 VRB/03 RMK AO2 $
63870K0J4 0J420160111022510201/11/16 02:25:31  5-MIN K0J4 110725Z AUTO 00000KT 10SM CLR M01/M02 A3024 20 88 -1800 000/00 RMK AO2 $
63870K0J4 0J420160111023010201/11/16 02:30:31  5-MIN K0J4 110730Z AUTO 00000KT 10SM CLR M01/M02 A3024 30 88 -1800 000/00 RMK AO2 $
63870K0J4 0J420160111023510201/11/16 02:35:31  5-MIN K0J4 110735Z AUTO 00000KT 10SM CLR M01/M02 A3024 30 88 -1800 000/00 RMK AO2 $
63870K0J4 0J420160111024010201/11/16 02:40:31  5-MIN K0J4 110740Z AUTO 00000KT 10SM CLR M01/M02 A3024 20 88 -1800 000/00 RMK AO2 $
63870K0J4 0J420160111024510201/11/16 02:45:31  5-MIN K0J4 110745Z AUTO 00000KT 10SM CLR M01/M02 A3024 20 92 -1900 000/00 RMK AO2 $
63870K0J4 0J420160111025010201/11/16 02:50:31  5-MIN K0J4 110750Z AUTO 00000KT 10SM CLR M01/M02 A3024 20 92 -1900 000/00 RMK AO2 $
63870K0J4 0J420160111025511901/11/16 02:55:31  5-MIN K0J4 110755Z AUTO 00000KT 10SM CLR M01/M02 A3024 20 92 -1900 000/00 RMK AO2 SLP240 T10111022 $
63870K0J4 0J420160111030010201/11/16 03:00:31  5-MIN K0J4 110800Z AUTO 00000KT 10SM CLR M01/M03 A3024 20 88 -1900 000/00 RMK AO2 $
63870K0J4 0J420160111030510201/11/16 03:05:31  5-MIN K0J4 110805Z AUTO 00000KT 10SM CLR M01/M03 A3024 20 88 -1900 000/00 RMK AO2 $
63870K0J4 0J420160111031010201/11/16 03:10:31  5-MIN K0J4 110810Z AUTO 00000KT 10SM CLR M01/M03 A3023 30 88 -1900 000/00 RMK AO2 $
63870K0J4 0J420160111031510201/11/16 03:15:31  5-MIN K0J4 110815Z AUTO 00000KT 10SM CLR M01/M03 A3024 20 88 -1900 000/00 RMK AO2 $
63870K0J4 0J420160111032010201/11/16 03:20:31  5-MIN K0J4 110820Z AUTO 00000KT 10SM CLR M01/M03 A3024 20 88 -1900 000/00 RMK AO2 $
63870K0J4 0J420160111032510201/11/16 03:25:31  5-MIN K0J4 110825Z AUTO 00000KT 10SM CLR M01/M03 A3024 20 88 -1900 000/00 RMK AO2 $
63870K0J4 0J420160111033010201/11/16 03:30:31  5-MIN K0J4 110830Z AUTO 00000KT 10SM CLR M01/M03 A3024 20 85 -1900 000/00 RMK AO2 $
63870K0J4 0J420160111033510201/11/16 03:35:31  5-MIN K0J4 110835Z AUTO 00000KT 10SM CLR M01/M03 A3024 20 85 -1900 000/00 RMK AO2 $
63870K0J4 0J420160111034010201/11/16 03:40:31  5-MIN K0J4 110840Z AUTO 00000KT 10SM CLR M01/M03 A3024 20 85 -1900 000/00 RMK AO2 $
63870K0J4 0J420160111034510201/11/16 03:45:31  5-MIN K0J4 110845Z AUTO 00000KT 10SM CLR M02/M03 A3024 20 92 -1900 000/00 RMK AO2 $
63870K0J4 0J420160111035010201/11/16 03:50:31  5-MIN K0J4 110850Z AUTO 00000KT 10SM CLR M02/M03 A3025 20 88 -1900 000/00 RMK AO2 $
63870K0J4 0J420160111035512501/11/16 03:55:31  5-MIN K0J4 110855Z AUTO 00000KT 10SM CLR M02/M03 A3025 10 88 -1900 000/00 RMK AO2 SLP244 T10171033 51006 $
63870K0J4 0J420160111040010201/11/16 04:00:31  5-MIN K0J4 110900Z AUTO 00000KT 10SM CLR M02/M03 A3025 10 88 -1900 000/00 RMK AO2 $
63870K0J4 0J420160111040510201/11/16 04:05:31  5-MIN K0J4 110905Z AUTO 00000KT 10SM CLR M02/M03 A3025 10 88 -1900 000/00 RMK AO2 $
63870K0J4 0J420160111041010201/11/16 04:10:31  5-MIN K0J4 110910Z AUTO 00000KT 10SM CLR M02/M03 A3025 20 92 -2000 000/00 RMK AO2 $
63870K0J4 0J420160111041510201/11/16 04:15:31  5-MIN K0J4 110915Z AUTO 00000KT 10SM CLR M02/M03 A3024 20 92 -2000 000/00 RMK AO2 $
63870K0J4 0J420160111042010201/11/16 04:20:31  5-MIN K0J4 110920Z AUTO 00000KT 10SM CLR M02/M03 A3024 20 92 -2000 000/00 RMK AO2 $
63870K0J4 0J420160111042510201/11/16 04:25:31  5-MIN K0J4 110925Z AUTO 00000KT 10SM CLR M02/M03 A3023 30 92 -2000 000/00 RMK AO2 $
63870K0J4 0J420160111043010201/11/16 04:30:31  5-MIN K0J4 110930Z AUTO 00000KT 10SM CLR M02/M03 A3024 30 92 -2000 000/00 RMK AO2 $
63870K0J4 0J420160111043510201/11/16 04:35:31  5-MIN K0J4 110935Z AUTO 00000KT 10SM CLR M02/M04 A3024 20 88 -2000 000/00 RMK AO2 $
63870K0J4 0J420160111044010201/11/16 04:40:31  5-MIN K0J4 110940Z AUTO 00000KT 10SM CLR M03/M04 A3024 20 92 -2100 000/00 RMK AO2 $
63870K0J4 0J420160111044510201/11/16 04:45:31  5-MIN K0J4 110945Z AUTO 00000KT 10SM CLR M03/M04 A3024 20 92 -2100 000/00 RMK AO2 $
63870K0J4 0J420160111045010201/11/16 04:50:31  5-MIN K0J4 110950Z AUTO 00000KT 10SM CLR M03/M04 A3025 20 88 -2100 000/00 RMK AO2 $
63870K0J4 0J420160111045511901/11/16 04:55:31  5-MIN K0J4 110955Z AUTO 00000KT 10SM CLR M02/M04 A3025 10 88 -2000 000/00 RMK AO2 SLP244 T10221039 $
63870K0J4 0J420160111050010201/11/16 05:00:31  5-MIN K0J4 111000Z AUTO 00000KT 10SM CLR M02/M04 A3025 10 88 -2000 000/00 RMK AO2 $
63870K0J4 0J420160111050510201/11/16 05:05:31  5-MIN K0J4 111005Z AUTO 00000KT 10SM CLR M02/M03 A3025 10 92 -2000 000/00 RMK AO2 $
63870K0J4 0J420160111051010201/11/16 05:10:31  5-MIN K0J4 111010Z AUTO 00000KT 10SM CLR M02/M03 A3025 10 92 -2000 000/00 RMK AO2 $
63870K0J4 0J420160111051510201/11/16 05:15:31  5-MIN K0J4 111015Z AUTO 00000KT 10SM CLR M02/M03 A3025 10 92 -2000 000/00 RMK AO2 $
63870K0J4 0J420160111052010201/11/16 05:20:31  5-MIN K0J4 111020Z AUTO 00000KT 10SM CLR M02/M03 A3025 10 92 -2000 000/00 RMK AO2 $
63870K0J4 0J420160111052510201/11/16 05:25:31  5-MIN K0J4 111025Z AUTO 00000KT 10SM CLR M02/M04 A3026 10 88 -2000 000/00 RMK AO2 $
63870K0J4 0J420160111053010201/11/16 05:30:31  5-MIN K0J4 111030Z AUTO 00000KT 10SM CLR M02/M04 A3026 10 88 -2000 000/00 RMK AO2 $
63870K0J4 0J420160111053510201/11/16 05:35:31  5-MIN K0J4 111035Z AUTO 34003KT 10SM CLR M02/M04 A3026 10 88 -2000 340/03 RMK AO2 $
63870K0J4 0J420160111054010201/11/16 05:40:31  5-MIN K0J4 111040Z AUTO 00000KT 10SM CLR M02/M04 A3026 10 88 -2000 000/00 RMK AO2 $
63870K0J4 0J420160111054510101/11/16 05:45:31  5-MIN K0J4 111045Z AUTO 00000KT 10SM CLR M02/M04 A3026 0 88 -2000 000/00 RMK AO2 $
63870K0J4 0J420160111055010201/11/16 05:50:31  5-MIN K0J4 111050Z AUTO 00000KT 10SM CLR M02/M04 A3026 10 88 -2000 000/00 RMK AO2 $
63870K0J4 0J420160111055511901/11/16 05:55:31  5-MIN K0J4 111055Z AUTO 00000KT 10SM CLR M02/M04 A3026 10 88 -2000 000/00 RMK AO2 SLP246 T10221039 $
63870K0J4 0J420160111060010201/11/16 06:00:31  5-MIN K0J4 111100Z AUTO 00000KT 10SM CLR M02/M04 A3026 10 88 -2000 000/00 RMK AO2 $
63870K0J4 0J420160111060510201/11/16 06:05:31  5-MIN K0J4 111105Z AUTO 00000KT 10SM CLR M02/M04 A3026 10 88 -2000 000/00 RMK AO2 $
63870K0J4 0J420160111061010201/11/16 06:10:31  5-MIN K0J4 111110Z AUTO 00000KT 10SM CLR M02/M04 A3026 10 88 -2000 000/00 RMK AO2 $
63870K0J4 0J420160111061510101/11/16 06:15:31  5-MIN K0J4 111115Z AUTO 00000KT 10SM CLR M02/M04 A3026 0 88 -2000 000/00 RMK AO2 $
63870K0J4 0J420160111062010201/11/16 06:20:31  5-MIN K0J4 111120Z AUTO 00000KT 10SM CLR M03/M04 A3026 10 92 -2100 000/00 RMK AO2 $
63870K0J4 0J420160111062510201/11/16 06:25:31  5-MIN K0J4 111125Z AUTO 35003KT 10SM CLR M03/M04 A3025 10 88 -2100 350/03 RMK AO2 $
63870K0J4 0J420160111063010201/11/16 06:30:31  5-MIN K0J4 111130Z AUTO 35003KT 10SM CLR M03/M04 A3025 10 88 -2100 350/03 RMK AO2 $
63870K0J4 0J420160111063510201/11/16 06:35:31  5-MIN K0J4 111135Z AUTO 35003KT 10SM CLR M03/M04 A3025 10 88 -2100 350/03 RMK AO2 $
63870K0J4 0J420160111064010201/11/16 06:40:31  5-MIN K0J4 111140Z AUTO 36004KT 10SM CLR M03/M04 A3025 20 88 -2100 360/04 RMK AO2 $
63870K0J4 0J420160111064510201/11/16 06:45:31  5-MIN K0J4 111145Z AUTO 36003KT 10SM CLR M03/M04 A3024 20 92 -2100 360/03 RMK AO2 $
63870K0J4 0J420160111065010201/11/16 06:50:31  5-MIN K0J4 111150Z AUTO 36004KT 10SM CLR M03/M04 A3024 20 88 -2100 360/04 RMK AO2 $
63870K0J4 0J420160111065513701/11/16 06:55:31  5-MIN K0J4 111155Z AUTO 35004KT 10SM CLR M02/M04 A3024 20 85 -2000 350/04 RMK AO2 SLP242 T10221044 10000 21033 51007 $
63870K0J4 0J420160111070010201/11/16 07:00:31  5-MIN K0J4 111200Z AUTO 00000KT 10SM CLR M02/M04 A3025 20 85 -2000 000/00 RMK AO2 $
63870K0J4 0J420160111070510201/11/16 07:05:31  5-MIN K0J4 111205Z AUTO 00000KT 10SM CLR M03/M04 A3025 10 88 -2100 000/00 RMK AO2 $
63870K0J4 0J420160111071010201/11/16 07:10:31  5-MIN K0J4 111210Z AUTO 00000KT 10SM CLR M03/M04 A3025 20 88 -2100 000/00 RMK AO2 $
63870K0J4 0J420160111071510201/11/16 07:15:31  5-MIN K0J4 111215Z AUTO 00000KT 10SM CLR M04/M05 A3025 10 92 -2200 000/00 RMK AO2 $
63870K0J4 0J420160111072010201/11/16 07:20:31  5-MIN K0J4 111220Z AUTO 00000KT 10SM CLR M04/M06 A3025 10 88 -2200 000/00 RMK AO2 $
63870K0J4 0J420160111072510201/11/16 07:25:31  5-MIN K0J4 111225Z AUTO 00000KT 10SM CLR M04/M05 A3025 10 92 -2200 000/00 RMK AO2 $
63870K0J4 0J420160111073010201/11/16 07:30:31  5-MIN K0J4 111230Z AUTO 00000KT 10SM CLR M03/M05 A3026 10 88 -2200 000/00 RMK AO2 $
63870K0J4 0J420160111073510101/11/16 07:35:31  5-MIN K0J4 111235Z AUTO 00000KT 10SM CLR M03/M04 A3026 0 92 -2200 000/00 RMK AO2 $
63870K0J4 0J420160111074010101/11/16 07:40:31  5-MIN K0J4 111240Z AUTO 00000KT 10SM CLR M03/M04 A3027 0 92 -2200 000/00 RMK AO2 $
63870K0J4 0J420160111074510101/11/16 07:45:31  5-MIN K0J4 111245Z AUTO 33003KT 10SM CLR M03/M04 A3027 0 88 -2100 330/03 RMK AO2 $
63870K0J4 0J420160111075010301/11/16 07:50:31  5-MIN K0J4 111250Z AUTO 33003KT 10SM CLR M03/M04 A3028 -10 88 -2100 330/03 RMK AO2 $
63870K0J4 0J420160111075512001/11/16 07:55:31  5-MIN K0J4 111255Z AUTO 00000KT 10SM CLR M03/M04 A3028 -10 88 -2100 000/00 RMK AO2 SLP255 T10281044 $
63870K0J4 0J420160111080010301/11/16 08:00:31  5-MIN K0J4 111300Z AUTO 34003KT 10SM CLR M03/M04 A3028 -10 88 -2100 340/03 RMK AO2 $
63870K0J4 0J420160111080510301/11/16 08:05:31  5-MIN K0J4 111305Z AUTO 36003KT 10SM CLR M03/M04 A3028 -10 88 -2100 360/03 RMK AO2 $
63870K0J4 0J420160111081010301/11/16 08:10:31  5-MIN K0J4 111310Z AUTO 35003KT 10SM CLR M02/M04 A3028 -10 85 -2100 350/03 RMK AO2 $
63870K0J4 0J420160111081510301/11/16 08:15:31  5-MIN K0J4 111315Z AUTO 34003KT 10SM CLR M02/M04 A3029 -20 85 -2100 340/03 RMK AO2 $
63870K0J4 0J420160111082010301/11/16 08:20:31  5-MIN K0J4 111320Z AUTO VRB03KT 10SM CLR M02/M04 A3029 -20 85 -2100 VRB/03 RMK AO2 $
63870K0J4 0J420160111082510301/11/16 08:25:31  5-MIN K0J4 111325Z AUTO 35003KT 10SM CLR M02/M04 A3029 -20 81 -2000 350/03 RMK AO2 $
63870K0J4 0J420160111083010301/11/16 08:30:31  5-MIN K0J4 111330Z AUTO 01003KT 10SM CLR M02/M04 A3029 -20 85 -2000 010/03 RMK AO2 $
63870K0J4 0J420160111083510301/11/16 08:35:31  5-MIN K0J4 111335Z AUTO 01003KT 10SM CLR M02/M04 A3029 -20 85 -2000 010/03 RMK AO2 $
63870K0J4 0J420160111084010301/11/16 08:40:31  5-MIN K0J4 111340Z AUTO 01003KT 10SM CLR M02/M04 A3029 -20 85 -2000 010/03 RMK AO2 $
63870K0J4 0J420160111084510301/11/16 08:45:31  5-MIN K0J4 111345Z AUTO 01004KT 10SM CLR M02/M04 A3029 -20 85 -2000 010/04 RMK AO2 $
63870K0J4 0J420160111085010101/11/16 08:50:31  5-MIN K0J4 111350Z AUTO 36004KT 10SM CLR M01/M04 A3029 -20 81 -1900 360/04 RMK AO2
63870K0J4 0J420160111085511801/11/16 08:55:31  5-MIN K0J4 111355Z AUTO 36003KT 10SM CLR M01/M04 A3030 -30 81 -1900 360/03 RMK AO2 SLP261 T10111039
63870K0J4 0J420160111090010101/11/16 09:00:31  5-MIN K0J4 111400Z AUTO 01004KT 10SM CLR M01/M04 A3030 -20 81 -1900 010/04 RMK AO2
63870K0J4 0J420160111090510101/11/16 09:05:31  5-MIN K0J4 111405Z AUTO 36005KT 10SM CLR M01/M03 A3029 -20 81 -1900 360/05 RMK AO2
63870K0J4 0J420160111091010101/11/16 09:10:31  5-MIN K0J4 111410Z AUTO 03003KT 10SM CLR M01/M03 A3029 -20 81 -1800 030/03 RMK AO2
63870K0J4 0J420160111091510101/11/16 09:15:31  5-MIN K0J4 111415Z AUTO 03006KT 10SM CLR M01/M03 A3030 -20 81 -1900 030/06 RMK AO2
63870K0J4 0J420160111092010101/11/16 09:20:31  5-MIN K0J4 111420Z AUTO 02006KT 10SM CLR M01/M04 A3030 -20 78 -1900 020/06 RMK AO2
63870K0J4 0J420160111092510101/11/16 09:25:31  5-MIN K0J4 111425Z AUTO 03005KT 10SM CLR M01/M03 A3030 -20 81 -1900 030/05 RMK AO2
63870K0J4 0J420160111093010001/11/16 09:30:31  5-MIN K0J4 111430Z AUTO 03005KT 10SM CLR 00/M03 A3030 -30 78 -1800 030/05 RMK AO2
63870K0J4 0J420160111093510001/11/16 09:35:31  5-MIN K0J4 111435Z AUTO 02004KT 10SM CLR 00/M03 A3031 -30 78 -1800 020/04 RMK AO2
63870K0J4 0J420160111094010001/11/16 09:40:31  5-MIN K0J4 111440Z AUTO 03004KT 10SM CLR 01/M03 A3031 -40 78 -1700 030/04 RMK AO2
63870K0J4 0J420160111094510001/11/16 09:45:31  5-MIN K0J4 111445Z AUTO 03006KT 10SM CLR 01/M03 A3031 -40 75 -1700 030/06 RMK AO2
63870K0J4 0J420160111095010001/11/16 09:50:31  5-MIN K0J4 111450Z AUTO 03004KT 10SM CLR 01/M03 A3031 -40 75 -1700 030/04 RMK AO2
63870K0J4 0J420160111095512301/11/16 09:55:31  5-MIN K0J4 111455Z AUTO 02004KT 10SM CLR 01/M03 A3031 -40 72 -1700 020/04 RMK AO2 SLP267 T00111033 58001
63870K0J4 0J420160111100010001/11/16 10:00:31  5-MIN K0J4 111500Z AUTO 03004KT 10SM CLR 01/M03 A3032 -50 72 -1700 030/04 RMK AO2
63870K0J4 0J420160111100510001/11/16 10:05:31  5-MIN K0J4 111505Z AUTO 03004KT 10SM CLR 02/M03 A3032 -50 69 -1600 030/04 RMK AO2
63870K0J4 0J420160111101010001/11/16 10:10:31  5-MIN K0J4 111510Z AUTO VRB03KT 10SM CLR 02/M03 A3032 -50 69 -1600 VRB/03 RMK AO2
63870K0J4 0J420160111101510001/11/16 10:15:31  5-MIN K0J4 111515Z AUTO 01005KT 10SM CLR 02/M03 A3032 -50 69 -1600 010/05 RMK AO2
63870K0J4 0J420160111102010001/11/16 10:20:31  5-MIN K0J4 111520Z AUTO 02004KT 10SM CLR 02/M04 A3032 -50 64 -1500 020/04 RMK AO2
63870K0J4 0J420160111102510001/11/16 10:25:31  5-MIN K0J4 111525Z AUTO 06005KT 10SM CLR 02/M03 A3032 -50 67 -1500 060/05 RMK AO2
63870K0J4 0J420160111103010001/11/16 10:30:31  5-MIN K0J4 111530Z AUTO VRB04KT 10SM CLR 03/M04 A3032 -50 61 -1500 VRB/04 RMK AO2
63870K0J4 0J420160111103510001/11/16 10:35:31  5-MIN K0J4 111535Z AUTO VRB03KT 10SM CLR 03/M03 A3032 -50 64 -1500 VRB/03 RMK AO2
63870K0J4 0J420160112075010101/12/16 07:50:31  5-MIN K0J4 121250Z AUTO 00000KT 10SM CLR M02/M03 A3027 0 92 -2000 000/00 RMK AO2 $
63870K0J4 0J420160112075511801/12/16 07:55:31  5-MIN K0J4 121255Z AUTO 00000KT 10SM CLR M02/M03 A3026 0 92 -2000 000/00 RMK AO2 SLP250 T10221033 $
63870K0J4 0J420160112080010101/12/16 08:00:31  5-MIN K0J4 121300Z AUTO 00000KT 10SM CLR M02/M03 A3026 0 92 -2000 000/00 RMK AO2 $
63870K0J4 0J420160112080510101/12/16 08:05:31  5-MIN K0J4 121305Z AUTO 00000KT 10SM CLR M02/M03 A3027 0 88 -2000 000/00 RMK AO2 $
63870K0J4 0J420160112081010101/12/16 08:10:31  5-MIN K0J4 121310Z AUTO 00000KT 10SM CLR M02/M03 A3027 0 88 -2000 000/00 RMK AO2 $
63870K0J4 0J420160112081510101/12/16 08:15:31  5-MIN K0J4 121315Z AUTO 00000KT 10SM CLR M02/M03 A3027 0 92 -2000 000/00 RMK AO2 $
63870K0J4 0J420160112082010101/12/16 08:20:31  5-MIN K0J4 121320Z AUTO 00000KT 10SM CLR M01/M02 A3027 0 92 -1900 000/00 RMK AO2 $
63870K0J4 0J420160112082510101/12/16 08:25:31  5-MIN K0J4 121325Z AUTO 00000KT 10SM CLR M01/M02 A3027 0 92 -1900 000/00 RMK AO2 $
63870K0J4 0J420160112083010101/12/16 08:30:31  5-MIN K0J4 121330Z AUTO 00000KT 10SM CLR M01/M02 A3027 0 88 -1800 000/00 RMK AO2 $
63870K0J4 0J420160112083510101/12/16 08:35:31  5-MIN K0J4 121335Z AUTO 00000KT 10SM CLR M01/M02 A3027 0 92 -1800 000/00 RMK AO2 $
63870K0J4 0J420160112084007001/12/16 08:40:31  5-MIN K0J4 121340Z AUTO M M M M /M RMK AO2 FZRANO $
63870K0J4 0J420160112084509101/12/16 08:45:31  5-MIN K0J4 121345Z AUTO 00000KT 01/M01 A3027 0 89 -1700 000/00 RMK AO2 $
63870K0J4 0J420160112085009601/12/16 08:50:31  5-MIN K0J4 121350Z AUTO 00000KT 10SM 01/M01 A3027 0 92 -1700 000/00 RMK AO2 $
63870K0J4 0J420160112085511501/12/16 08:55:31  5-MIN K0J4 121355Z AUTO 00000KT 10SM 01/M01 A3028 -10 89 -1600 000/00 RMK AO2 SLP254 T00111006 $
63870K0J4 0J420160112090009701/12/16 09:00:31  5-MIN K0J4 121400Z AUTO 00000KT 10SM 02/00 A3028 -10 89 -1600 000/00 RMK AO2 $
63870K0J4 0J420160112090509701/12/16 09:05:31  5-MIN K0J4 121405Z AUTO 00000KT 10SM 02/01 A3028 -10 92 -1600 000/00 RMK AO2 $
63870K0J4 0J420160112091010101/12/16 09:10:31  5-MIN K0J4 121410Z AUTO 00000KT 10SM CLR 03/01 A3028 -10 82 -1300 000/00 RMK AO2 $
63870K0J4 0J420160112091510101/12/16 09:15:31  5-MIN K0J4 121415Z AUTO 00000KT 10SM CLR 03/01 A3028 -10 82 -1300 000/00 RMK AO2 $
63870K0J4 0J420160112092010101/12/16 09:20:31  5-MIN K0J4 121420Z AUTO 00000KT 10SM CLR 04/01 A3028 -10 79 -1300 000/00 RMK AO2 $
63870K0J4 0J420160112092510101/12/16 09:25:31  5-MIN K0J4 121425Z AUTO 00000KT 10SM CLR 04/00 A3028 -10 73 -1200 000/00 RMK AO2 $
63870K0J4 0J420160112093010001/12/16 09:30:31  5-MIN K0J4 121430Z AUTO 00000KT 10SM CLR 05/M01 A3028 -10 67 -1100 000/00 RMK AO2
63870K0J4 0J420160112093510001/12/16 09:35:31  5-MIN K0J4 121435Z AUTO 00000KT 10SM CLR 06/M03 A3029 -20 53 -1100 000/00 RMK AO2
63870K0J4 0J420160112094010001/12/16 09:40:31  5-MIN K0J4 121440Z AUTO 00000KT 10SM CLR 06/M04 A3029 -20 50 -1100 000/00 RMK AO2
63870K0J4 0J420160112094510001/12/16 09:45:31  5-MIN K0J4 121445Z AUTO 00000KT 10SM CLR 06/M04 A3029 -20 48 -1000 000/00 RMK AO2
63870K0J4 0J420160112095010001/12/16 09:50:31  5-MIN K0J4 121450Z AUTO 00000KT 10SM CLR 06/M04 A3029 -20 46 -1000 000/00 RMK AO2
63870K0J4 0J420160112095511601/12/16 09:55:31  5-MIN K0J4 121455Z AUTO 00000KT 10SM CLR 07/M04 A3029 -20 47 -900 000/00 RMK AO2 SLP258 T00671039
63870K0J4 0J420160112100009901/12/16 10:00:31  5-MIN K0J4 121500Z AUTO VRB03KT 10SM CLR 07/M04 A3029 -20 45 -900 VRB/03 RMK AO2
63870K0J4 0J420160112100509901/12/16 10:05:31  5-MIN K0J4 121505Z AUTO 00000KT 10SM CLR 07/M04 A3029 -20 43 -900 000/00 RMK AO2
63870K0J4 0J420160112101009901/12/16 10:10:31  5-MIN K0J4 121510Z AUTO 00000KT 10SM CLR 08/M04 A3030 -30 43 -800 000/00 RMK AO2
63870K0J4 0J420160112101509901/12/16 10:15:31  5-MIN K0J4 121515Z AUTO 33003KT 10SM CLR 08/M04 A3030 -30 40 -800 330/03 RMK AO2
63870K0J4 0J420160112102009901/12/16 10:20:31  5-MIN K0J4 121520Z AUTO 34004KT 10SM CLR 08/M05 A3030 -30 38 -800 340/04 RMK AO2
63870K0J4 0J420160112102509901/12/16 10:25:31  5-MIN K0J4 121525Z AUTO VRB04KT 10SM CLR 08/M05 A3031 -30 38 -800 VRB/04 RMK AO2
63870K0J4 0J420160112103009901/12/16 10:30:31  5-MIN K0J4 121530Z AUTO VRB05KT 10SM CLR 08/M05 A3031 -40 38 -800 VRB/05 RMK AO2
63870K0J4 0J420160112103509901/12/16 10:35:31  5-MIN K0J4 121535Z AUTO VRB04KT 10SM CLR 08/M06 A3031 -40 37 -800 VRB/04 RMK AO2
63870K0J4 0J420160112104009901/12/16 10:40:31  5-MIN K0J4 121540Z AUTO VRB03KT 10SM CLR 08/M05 A3031 -40 38 -800 VRB/03 RMK AO2
63870K0J4 0J420160112104509901/12/16 10:45:31  5-MIN K0J4 121545Z AUTO 32005KT 10SM CLR 09/M05 A3032 -40 37 -700 320/05 RMK AO2
63870K0J4 0J420160112105009901/12/16 10:50:31  5-MIN K0J4 121550Z AUTO VRB03KT 10SM CLR 09/M06 A3032 -40 35 -700 VRB/03 RMK AO2
63870K0J4 0J420160112105511601/12/16 10:55:31  5-MIN K0J4 121555Z AUTO VRB05KT 10SM CLR 09/M05 A3032 -40 35 -600 VRB/05 RMK AO2 SLP267 T00941050
63870K0J4 0J420160112110009901/12/16 11:00:31  5-MIN K0J4 121600Z AUTO 33005KT 10SM CLR 09/M05 A3032 -40 35 -600 330/05 RMK AO2
63870K0J4 0J420160112110509901/12/16 11:05:31  5-MIN K0J4 121605Z AUTO 00000KT 10SM CLR 09/M05 A3032 -40 35 -600 000/00 RMK AO2
63870K0J4 0J420160112111009901/12/16 11:10:31  5-MIN K0J4 121610Z AUTO 33005KT 10SM CLR 10/M04 A3031 -40 36 -600 330/05 RMK AO2
63870K0J4 0J420160112111509901/12/16 11:15:31  5-MIN K0J4 121615Z AUTO VRB05KT 10SM CLR 10/M05 A3031 -40 34 -600 VRB/05 RMK AO2
63870K0J4 0J420160112112009901/12/16 11:20:31  5-MIN K0J4 121620Z AUTO VRB06KT 10SM CLR 10/M05 A3031 -40 34 -600 VRB/06 RMK AO2
63870K0J4 0J420160112112509901/12/16 11:25:31  5-MIN K0J4 121625Z AUTO VRB06KT 10SM CLR 10/M05 A3031 -40 34 -600 VRB/06 RMK AO2
63870K0J4 0J420160112113009901/12/16 11:30:31  5-MIN K0J4 121630Z AUTO VRB06KT 10SM CLR 10/M05 A3031 -40 34 -600 VRB/06 RMK AO2
63870K0J4 0J420160112113509901/12/16 11:35:31  5-MIN K0J4 121635Z AUTO VRB04KT 10SM CLR 10/M05 A3031 -40 34 -600 VRB/04 RMK AO2
63870K0J4 0J420160112114009901/12/16 11:40:31  5-MIN K0J4 121640Z AUTO VRB04KT 10SM CLR 11/M05 A3031 -40 33 -500 VRB/04 RMK AO2
63870K0J4 0J420160112114509901/12/16 11:45:31  5-MIN K0J4 121645Z AUTO VRB03KT 10SM CLR 10/M06 A3031 -40 33 -600 VRB/03 RMK AO2
63870K0J4 0J420160112115009901/12/16 11:50:31  5-MIN K0J4 121650Z AUTO VRB04KT 10SM CLR 11/M05 A3031 -30 33 -500 VRB/04 RMK AO2
63870K0J4 0J420160112115511601/12/16 11:55:31  5-MIN K0J4 121655Z AUTO VRB03KT 10SM CLR 12/M05 A3030 -30 30 -400 VRB/03 RMK AO2 SLP262 T01171050
63870K0J4 0J420160112120009901/12/16 12:00:31  5-MIN K0J4 121700Z AUTO 01007KT 10SM CLR 12/M05 A3030 -30 30 -300 010/07 RMK AO2
63870K0J4 0J420160112120509901/12/16 12:05:31  5-MIN K0J4 121705Z AUTO VRB03KT 10SM CLR 12/M04 A3030 -30 31 -300 VRB/03 RMK AO2
63870K0J4 0J420160112121011501/12/16 12:10:31  5-MIN K0J4 121710Z AUTO 32007KT 290V360 10SM CLR 12/M05 A3029 -20 29 -300 320/07 290V360 RMK AO2
63870K0J4 0J420160112121509901/12/16 12:15:31  5-MIN K0J4 121715Z AUTO VRB03KT 10SM CLR 12/M07 A3029 -20 27 -300 VRB/03 RMK AO2
63870K0J4 0J420160112122009901/12/16 12:20:31  5-MIN K0J4 121720Z AUTO VRB04KT 10SM CLR 12/M06 A3029 -20 27 -300 VRB/04 RMK AO2
63870K0J4 0J420160112122509901/12/16 12:25:31  5-MIN K0J4 121725Z AUTO VRB06KT 10SM CLR 12/M07 A3028 -10 25 -300 VRB/06 RMK AO2
63870K0J4 0J420160112123009901/12/16 12:30:31  5-MIN K0J4 121730Z AUTO VRB05KT 10SM CLR 12/M07 A3028 -10 26 -300 VRB/05 RMK AO2
63870K0J4 0J420160112123509901/12/16 12:35:31  5-MIN K0J4 121735Z AUTO VRB06KT 10SM CLR 12/M07 A3028 -10 26 -300 VRB/06 RMK AO2
63870K0J4 0J420160112124009901/12/16 12:40:31  5-MIN K0J4 121740Z AUTO 35007KT 10SM CLR 13/M06 A3027 -10 26 -200 350/07 RMK AO2
63870K0J4 0J420160112124509701/12/16 12:45:31  5-MIN K0J4 121745Z AUTO 35005KT 10SM CLR 12/M07 A3027 0 26 -200 350/05 RMK AO2
63870K0J4 0J420160112125009701/12/16 12:50:31  5-MIN K0J4 121750Z AUTO VRB04KT 10SM CLR 12/M07 A3026 0 26 -200 VRB/04 RMK AO2
63870K0J4 0J420160112125514201/12/16 12:55:31  5-MIN K0J4 121755Z AUTO 36007KT 320V030 10SM CLR 13/M06 A3026 0 25 -100 360/07 320V030 RMK AO2 SLP246 T01331061 10133 21022
63870K0J4 0J420160112130009801/12/16 13:00:31  5-MIN K0J4 121800Z AUTO VRB05KT 10SM CLR 13/M07 A3026 10 25 -200 VRB/05 RMK AO2
63870K0J4 0J420160112130509801/12/16 13:05:31  5-MIN K0J4 121805Z AUTO 36008KT 10SM CLR 13/M07 A3026 10 24 -200 360/08 RMK AO2
63870K0J4 0J420160112131009801/12/16 13:10:31  5-MIN K0J4 121810Z AUTO 01005KT 10SM CLR 13/M07 A3026 10 24 -200 010/05 RMK AO2
63870K0J4 0J420160112131509801/12/16 13:15:31  5-MIN K0J4 121815Z AUTO 01009KT 10SM CLR 13/M07 A3025 10 24 -200 010/09 RMK AO2
63870K0J4 0J420160112132009801/12/16 13:20:31  5-MIN K0J4 121820Z AUTO VRB06KT 10SM CLR 13/M06 A3025 10 26 -100 VRB/06 RMK AO2
63870K0J4 0J420160112132509801/12/16 13:25:31  5-MIN K0J4 121825Z AUTO VRB04KT 10SM CLR 13/M06 A3024 20 25 -100 VRB/04 RMK AO2
63870K0J4 0J420160112133009801/12/16 13:30:31  5-MIN K0J4 121830Z AUTO VRB03KT 10SM CLR 13/M06 A3024 20 26 -100 VRB/03 RMK AO2
63870K0J4 0J420160112133509801/12/16 13:35:31  5-MIN K0J4 121835Z AUTO 33006KT 10SM CLR 13/M06 A3024 30 27 -100 330/06 RMK AO2
63870K0J4 0J420160112134009801/12/16 13:40:31  5-MIN K0J4 121840Z AUTO VRB04KT 10SM CLR 13/M05 A3023 30 27 -100 VRB/04 RMK AO2
63870K0J4 0J420160112134509801/12/16 13:45:31  5-MIN K0J4 121845Z AUTO 02004KT 10SM CLR 13/M05 A3023 30 27 -100 020/04 RMK AO2
63870K0J4 0J420160112135009501/12/16 13:50:31  5-MIN K0J4 121850Z AUTO VRB04KT 10SM CLR 14/M05 A3023 30 26 0 VRB/04 RMK AO2
63870K0J4 0J420160112135511501/12/16 13:55:31  5-MIN K0J4 121855Z AUTO 31004KT 10SM CLR 13/M05 A3022 40 27 -100 310/04 RMK AO2 SLP234 T01331050
63870K0J4 0J420160112140009801/12/16 14:00:31  5-MIN K0J4 121900Z AUTO VRB04KT 10SM CLR 13/M05 A3022 40 27 -100 VRB/04 RMK AO2
63870K0J4 0J420160112140509801/12/16 14:05:31  5-MIN K0J4 121905Z AUTO VRB05KT 10SM CLR 13/M04 A3022 40 28 -100 VRB/05 RMK AO2
63870K0J4 0J420160112141009801/12/16 14:10:31  5-MIN K0J4 121910Z AUTO VRB03KT 10SM CLR 13/M06 A3022 40 26 -100 VRB/03 RMK AO2
63870K0J4 0J420160112141509501/12/16 14:15:31  5-MIN K0J4 121915Z AUTO VRB04KT 10SM CLR 14/M05 A3022 40 26 0 VRB/04 RMK AO2
63870K0J4 0J420160112142009501/12/16 14:20:31  5-MIN K0J4 121920Z AUTO VRB04KT 10SM CLR 14/M05 A3021 50 26 0 VRB/04 RMK AO2
63870K0J4 0J420160112142509501/12/16 14:25:31  5-MIN K0J4 121925Z AUTO 00000KT 10SM CLR 14/M05 A3021 50 26 0 000/00 RMK AO2
63870K0J4 0J420160112143009501/12/16 14:30:31  5-MIN K0J4 121930Z AUTO 00000KT 10SM CLR 14/M04 A3020 60 27 0 000/00 RMK AO2
63870K0J4 0J420160112143509501/12/16 14:35:31  5-MIN K0J4 121935Z AUTO VRB04KT 10SM CLR 14/M04 A3020 50 27 0 VRB/04 RMK AO2
63870K0J4 0J420160112144009501/12/16 14:40:31  5-MIN K0J4 121940Z AUTO 00000KT 10SM CLR 14/M04 A3020 50 27 0 000/00 RMK AO2
63870K0J4 0J420160112144509501/12/16 14:45:31  5-MIN K0J4 121945Z AUTO VRB05KT 10SM CLR 14/M04 A3020 60 26 0 VRB/05 RMK AO2
63870K0J4 0J420160112145009501/12/16 14:50:31  5-MIN K0J4 121950Z AUTO VRB04KT 10SM CLR 14/M04 A3020 60 26 0 VRB/04 RMK AO2
63870K0J4 0J420160112145511401/12/16 14:55:31  5-MIN K0J4 121955Z AUTO 00000KT 10SM CLR 14/M04 A3020 60 26 100 000/00 RMK AO2 SLP225 T01441044
63870K0J4 0J420160112150009501/12/16 15:00:31  5-MIN K0J4 122000Z AUTO VRB05KT 10SM CLR 14/M04 A3019 60 27 0 VRB/05 RMK AO2
63870K0J4 0J420160112150509701/12/16 15:05:31  5-MIN K0J4 122005Z AUTO VRB04KT 10SM CLR 14/M04 A3020 60 28 100 VRB/04 RMK AO2
63870K0J4 0J420160112151009701/12/16 15:10:31  5-MIN K0J4 122010Z AUTO 00000KT 10SM CLR 14/M04 A3019 60 28 100 000/00 RMK AO2
63870K0J4 0J420160112151509701/12/16 15:15:31  5-MIN K0J4 122015Z AUTO 35003KT 10SM CLR 15/M04 A3019 60 27 100 350/03 RMK AO2
63870K0J4 0J420160112152009701/12/16 15:20:31  5-MIN K0J4 122020Z AUTO 32003KT 10SM CLR 14/M03 A3019 60 29 100 320/03 RMK AO2
63870K0J4 0J420160112152509701/12/16 15:25:31  5-MIN K0J4 122025Z AUTO VRB05KT 10SM CLR 14/M03 A3019 70 29 100 VRB/05 RMK AO2
63870K0J4 0J420160112153009701/12/16 15:30:31  5-MIN K0J4 122030Z AUTO VRB04KT 10SM CLR 14/M03 A3019 70 30 100 VRB/04 RMK AO2
63870K0J4 0J420160112153509701/12/16 15:35:31  5-MIN K0J4 122035Z AUTO VRB05KT 10SM CLR 14/M03 A3019 60 29 100 VRB/05 RMK AO2
63870K0J4 0J420160112154009701/12/16 15:40:31  5-MIN K0J4 122040Z AUTO VRB03KT 10SM CLR 15/M03 A3019 70 29 100 VRB/03 RMK AO2
63870K0J4 0J420160112154509701/12/16 15:45:31  5-MIN K0J4 122045Z AUTO VRB06KT 10SM CLR 15/M03 A3019 70 28 100 VRB/06 RMK AO2
63870K0J4 0J420160112155009701/12/16 15:50:31  5-MIN K0J4 122050Z AUTO VRB03KT 10SM CLR 15/M03 A3019 70 29 100 VRB/03 RMK AO2
63870K0J4 0J420160112155512001/12/16 15:55:31  5-MIN K0J4 122055Z AUTO VRB03KT 10SM CLR 15/M02 A3019 70 30 100 VRB/03 RMK AO2 SLP222 T01501022 58011
63870K0J4 0J420160112160009701/12/16 16:00:31  5-MIN K0J4 122100Z AUTO VRB04KT 10SM CLR 14/M02 A3019 70 31 100 VRB/04 RMK AO2
63870K0J4 0J420160112160509701/12/16 16:05:31  5-MIN K0J4 122105Z AUTO VRB05KT 10SM CLR 15/M03 A3019 70 29 100 VRB/05 RMK AO2
63870K0J4 0J420160112161009701/12/16 16:10:31  5-MIN K0J4 122110Z AUTO VRB03KT 10SM CLR 14/M03 A3019 70 30 100 VRB/03 RMK AO2
63870K0J4 0J420160112161509701/12/16 16:15:31  5-MIN K0J4 122115Z AUTO VRB03KT 10SM CLR 14/M03 A3019 70 30 100 VRB/03 RMK AO2
63870K0J4 0J420160112162009701/12/16 16:20:31  5-MIN K0J4 122120Z AUTO VRB03KT 10SM CLR 14/M02 A3019 70 31 100 VRB/03 RMK AO2
63870K0J4 0J420160112162509701/12/16 16:25:31  5-MIN K0J4 122125Z AUTO VRB04KT 10SM CLR 14/M02 A3019 70 31 100 VRB/04 RMK AO2
63870K0J4 0J420160112163009701/12/16 16:30:31  5-MIN K0J4 122130Z AUTO VRB04KT 10SM CLR 14/M02 A3019 60 31 100 VRB/04 RMK AO2
63870K0J4 0J420160112163509701/12/16 16:35:31  5-MIN K0J4 122135Z AUTO 00000KT 10SM CLR 14/M02 A3019 60 31 100 000/00 RMK AO2
63870K0J4 0J420160112164009701/12/16 16:40:31  5-MIN K0J4 122140Z AUTO 00000KT 10SM CLR 14/M02 A3020 60 31 100 000/00 RMK AO2
63870K0J4 0J420160112164509501/12/16 16:45:31  5-MIN K0J4 122145Z AUTO VRB04KT 10SM CLR 14/M02 A3020 60 32 0 VRB/04 RMK AO2
63870K0J4 0J420160112165009501/12/16 16:50:31  5-MIN K0J4 122150Z AUTO VRB03KT 10SM CLR 14/M03 A3020 60 30 0 VRB/03 RMK AO2
63870K0J4 0J420160112165511201/12/16 16:55:31  5-MIN K0J4 122155Z AUTO 00000KT 10SM CLR 14/M02 A3020 60 31 0 000/00 RMK AO2 SLP227 T01441022
63870K0J4 0J420160112170009501/12/16 17:00:31  5-MIN K0J4 122200Z AUTO 00000KT 10SM CLR 14/M02 A3020 60 34 0 000/00 RMK AO2
63870K0J4 0J420160112170509501/12/16 17:05:31  5-MIN K0J4 122205Z AUTO 00000KT 10SM CLR 14/M02 A3020 50 34 0 000/00 RMK AO2
63870K0J4 0J420160112171009501/12/16 17:10:31  5-MIN K0J4 122210Z AUTO VRB03KT 10SM CLR 14/M02 A3021 50 34 0 VRB/03 RMK AO2
63870K0J4 0J420160112171509501/12/16 17:15:31  5-MIN K0J4 122215Z AUTO 00000KT 10SM CLR 14/M02 A3021 50 34 0 000/00 RMK AO2
63870K0J4 0J420160112172009501/12/16 17:20:31  5-MIN K0J4 122220Z AUTO 00000KT 10SM CLR 13/M02 A3021 50 35 0 000/00 RMK AO2
63870K0J4 0J420160112172509801/12/16 17:25:31  5-MIN K0J4 122225Z AUTO 00000KT 10SM CLR 13/M01 A3021 50 39 -100 000/00 RMK AO2
63870K0J4 0J420160112173009801/12/16 17:30:31  5-MIN K0J4 122230Z AUTO VRB03KT 10SM CLR 13/M01 A3021 50 38 -100 VRB/03 RMK AO2
63870K0J4 0J420160112173509801/12/16 17:35:31  5-MIN K0J4 122235Z AUTO 00000KT 10SM CLR 13/M01 A3021 50 38 -100 000/00 RMK AO2
63870K0J4 0J420160112174009701/12/16 17:40:31  5-MIN K0J4 122240Z AUTO 00000KT 10SM CLR 12/00 A3021 50 43 -200 000/00 RMK AO2
63870K0J4 0J420160112174509801/12/16 17:45:31  5-MIN K0J4 122245Z AUTO 00000KT 10SM CLR 12/M01 A3021 50 42 -200 000/00 RMK AO2
63870K0J4 0J420160112175009701/12/16 17:50:31  5-MIN K0J4 122250Z AUTO 00000KT 10SM CLR 12/00 A3021 50 44 -200 000/00 RMK AO2
63870K0J4 0J420160112175511401/12/16 17:55:31  5-MIN K0J4 122255Z AUTO 00000KT 10SM CLR 11/00 A3021 50 46 -300 000/00 RMK AO2 SLP230 T01110000
63870K0J4 0J420160112180009701/12/16 18:00:31  5-MIN K0J4 122300Z AUTO 00000KT 10SM CLR 11/01 A3021 50 50 -400 000/00 RMK AO2
63870K0J4 0J420160112180509701/12/16 18:05:31  5-MIN K0J4 122305Z AUTO 00000KT 10SM CLR 11/01 A3021 50 52 -400 000/00 RMK AO2
63870K0J4 0J420160112181009701/12/16 18:10:31  5-MIN K0J4 122310Z AUTO 00000KT 10SM CLR 10/01 A3022 40 54 -500 000/00 RMK AO2
63870K0J4 0J420160112181509701/12/16 18:15:31  5-MIN K0J4 122315Z AUTO 00000KT 10SM CLR 10/01 A3022 40 52 -500 000/00 RMK AO2
63870K0J4 0J420160112182009701/12/16 18:20:31  5-MIN K0J4 122320Z AUTO 00000KT 10SM CLR 10/01 A3022 40 52 -500 000/00 RMK AO2
63870K0J4 0J420160112182509701/12/16 18:25:31  5-MIN K0J4 122325Z AUTO 00000KT 10SM CLR 09/02 A3022 40 60 -600 000/00 RMK AO2
63870K0J4 0J420160112183009701/12/16 18:30:31  5-MIN K0J4 122330Z AUTO 00000KT 10SM CLR 08/02 A3022 40 63 -700 000/00 RMK AO2
63870K0J4 0J420160112183509701/12/16 18:35:31  5-MIN K0J4 122335Z AUTO 00000KT 10SM CLR 08/02 A3022 40 63 -700 000/00 RMK AO2
63870K0J4 0J420160112184009701/12/16 18:40:31  5-MIN K0J4 122340Z AUTO 00000KT 10SM CLR 08/02 A3022 40 68 -700 000/00 RMK AO2
63870K0J4 0J420160112184509701/12/16 18:45:31  5-MIN K0J4 122345Z AUTO 00000KT 10SM CLR 07/02 A3022 40 70 -800 000/00 RMK AO2
63870K0J4 0J420160112185009701/12/16 18:50:31  5-MIN K0J4 122350Z AUTO 00000KT 10SM CLR 07/02 A3022 40 70 -800 000/00 RMK AO2
63870K0J4 0J420160112185513201/12/16 18:55:31  5-MIN K0J4 122355Z AUTO 00000KT 10SM CLR 07/02 A3022 40 73 -900 000/00 RMK AO2 SLP235 T00670022 10150 20067 56023
63870K0J4 0J420160112190009701/12/16 19:00:31  5-MIN K0J4 130000Z AUTO 00000KT 10SM CLR 07/02 A3022 40 73 -900 000/00 RMK AO2
63870K0J4 0J420160112190509701/12/16 19:05:31  5-MIN K0J4 130005Z AUTO 00000KT 10SM CLR 06/02 A3022 40 76 -900 000/00 RMK AO2
63870K0J4 0J420160112191009801/12/16 19:10:31  5-MIN K0J4 130010Z AUTO 00000KT 10SM CLR 06/02 A3022 40 76 -1000 000/00 RMK AO2
63870K0J4 0J420160112191509701/12/16 19:15:31  5-MIN K0J4 130015Z AUTO 00000KT 10SM CLR 06/02 A3023 30 73 -900 000/00 RMK AO2
63870K0J4 0J420160112192009701/12/16 19:20:31  5-MIN K0J4 130020Z AUTO 00000KT 10SM CLR 06/02 A3023 30 76 -900 000/00 RMK AO2
63870K0J4 0J420160112192509701/12/16 19:25:31  5-MIN K0J4 130025Z AUTO 00000KT 10SM CLR 06/02 A3023 30 76 -900 000/00 RMK AO2
63870K0J4 0J420160112193009801/12/16 19:30:31  5-MIN K0J4 130030Z AUTO 00000KT 10SM CLR 05/02 A3023 30 79 -1100 000/00 RMK AO2
63870K0J4 0J420160112193509701/12/16 19:35:31  5-MIN K0J4 130035Z AUTO 00000KT 10SM CLR 06/02 A3023 30 73 -900 000/00 RMK AO2
63870K0J4 0J420160112194009801/12/16 19:40:31  5-MIN K0J4 130040Z AUTO 00000KT 10SM CLR 06/02 A3023 30 76 -1000 000/00 RMK AO2
63870K0J4 0J420160112194509801/12/16 19:45:31  5-MIN K0J4 130045Z AUTO 20003KT 10SM CLR 04/02 A3023 30 82 -1100 200/03 RMK AO2
63870K0J4 0J420160112195009801/12/16 19:50:31  5-MIN K0J4 130050Z AUTO 00000KT 10SM CLR 04/02 A3023 30 82 -1200 000/00 RMK AO2
63870K0J4 0J420160112195511501/12/16 19:55:31  5-MIN K0J4 130055Z AUTO 00000KT 10SM CLR 04/02 A3023 30 85 -1200 000/00 RMK AO2 SLP239 T00440022
63870K0J4 0J420160112200009801/12/16 20:00:31  5-MIN K0J4 130100Z AUTO 00000KT 10SM CLR 04/02 A3024 30 82 -1200 000/00 RMK AO2
63870K0J4 0J420160112200509801/12/16 20:05:31  5-MIN K0J4 130105Z AUTO 00000KT 10SM CLR 04/02 A3024 30 82 -1200 000/00 RMK AO2
63870K0J4 0J420160112201009801/12/16 20:10:31  5-MIN K0J4 130110Z AUTO 00000KT 10SM CLR 04/02 A3024 30 82 -1200 000/00 RMK AO2
63870K0J4 0J420160112201509801/12/16 20:15:31  5-MIN K0J4 130115Z AUTO 00000KT 10SM CLR 04/02 A3024 30 82 -1200 000/00 RMK AO2
63870K0J4 0J420160112202009801/12/16 20:20:31  5-MIN K0J4 130120Z AUTO 00000KT 10SM CLR 04/02 A3024 30 82 -1200 000/00 RMK AO2
63870K0J4 0J420160112202509801/12/16 20:25:31  5-MIN K0J4 130125Z AUTO 00000KT 10SM CLR 04/01 A3023 30 82 -1200 000/00 RMK AO2
63870K0J4 0J420160112203009801/12/16 20:30:31  5-MIN K0J4 130130Z AUTO 00000KT 10SM CLR 04/01 A3023 30 79 -1200 000/00 RMK AO2
63870K0J4 0J420160112203509801/12/16 20:35:31  5-MIN K0J4 130135Z AUTO 00000KT 10SM CLR 04/02 A3023 30 82 -1200 000/00 RMK AO2
63870K0J4 0J420160112204009801/12/16 20:40:31  5-MIN K0J4 130140Z AUTO 00000KT 10SM CLR 05/02 A3023 30 79 -1100 000/00 RMK AO2
63870K0J4 0J420160112204509801/12/16 20:45:31  5-MIN K0J4 130145Z AUTO 00000KT 10SM CLR 06/02 A3023 30 76 -1000 000/00 RMK AO2
63870K0J4 0J420160112205009801/12/16 20:50:31  5-MIN K0J4 130150Z AUTO 00000KT 10SM CLR 04/01 A3023 30 79 -1200 000/00 RMK AO2
63870K0J4 0J420160112205511501/12/16 20:55:31  5-MIN K0J4 130155Z AUTO 00000KT 10SM CLR 05/02 A3023 30 79 -1100 000/00 RMK AO2 SLP238 T00500017
63870K0J4 0J420160112210009801/12/16 21:00:31  5-MIN K0J4 130200Z AUTO 00000KT 10SM CLR 04/02 A3023 30 82 -1200 000/00 RMK AO2
63870K0J4 0J420160112210509801/12/16 21:05:31  5-MIN K0J4 130205Z AUTO 00000KT 10SM CLR 06/02 A3023 30 76 -1000 000/00 RMK AO2
63870K0J4 0J420160112211009801/12/16 21:10:31  5-MIN K0J4 130210Z AUTO 00000KT 10SM CLR 05/02 A3023 30 79 -1100 000/00 RMK AO2
63870K0J4 0J420160112211509801/12/16 21:15:31  5-MIN K0J4 130215Z AUTO 00000KT 10SM CLR 04/02 A3023 30 82 -1200 000/00 RMK AO2
63870K0J4 0J420160112212009801/12/16 21:20:31  5-MIN K0J4 130220Z AUTO 00000KT 10SM CLR 05/02 A3023 30 79 -1100 000/00 RMK AO2
63870K0J4 0J420160112212509701/12/16 21:25:31  5-MIN K0J4 130225Z AUTO 00000KT 10SM CLR 06/01 A3023 30 70 -900 000/00 RMK AO2
63870K0J4 0J420160112213009801/12/16 21:30:31  5-MIN K0J4 130230Z AUTO 00000KT 10SM CLR 06/01 A3023 30 73 -1000 000/00 RMK AO2
63870K0J4 0J420160112213509801/12/16 21:35:31  5-MIN K0J4 130235Z AUTO 00000KT 10SM CLR 06/01 A3024 30 67 -1000 000/00 RMK AO2
63870K0J4 0J420160112214009801/12/16 21:40:31  5-MIN K0J4 130240Z AUTO 00000KT 10SM CLR 06/01 A3024 20 70 -1000 000/00 RMK AO2
63870K0J4 0J420160112214509801/12/16 21:45:31  5-MIN K0J4 130245Z AUTO 00000KT 10SM CLR 05/01 A3024 20 76 -1100 000/00 RMK AO2
63870K0J4 0J420160112215009801/12/16 21:50:31  5-MIN K0J4 130250Z AUTO 00000KT 10SM CLR 05/02 A3024 20 79 -1100 000/00 RMK AO2
63870K0J4 0J420160112215512101/12/16 21:55:31  5-MIN K0J4 130255Z AUTO 00000KT 10SM CLR 04/01 A3024 30 82 -1200 000/00 RMK AO2 SLP239 T00390011 51011
63870K0J4 0J420160112220009801/12/16 22:00:31  5-MIN K0J4 130300Z AUTO 00000KT 10SM CLR 04/01 A3023 30 82 -1200 000/00 RMK AO2
63870K0J4 0J420160112220509801/12/16 22:05:31  5-MIN K0J4 130305Z AUTO 00000KT 10SM CLR 04/01 A3023 30 79 -1200 000/00 RMK AO2
63870K0J4 0J420160112221009801/12/16 22:10:31  5-MIN K0J4 130310Z AUTO 00000KT 10SM CLR 04/01 A3024 20 79 -1200 000/00 RMK AO2
63870K0J4 0J420160112221509801/12/16 22:15:31  5-MIN K0J4 130315Z AUTO 00000KT 10SM CLR 04/01 A3024 20 79 -1200 000/00 RMK AO2
63870K0J4 0J420160112222009801/12/16 22:20:31  5-MIN K0J4 130320Z AUTO 00000KT 10SM CLR 04/01 A3024 20 79 -1200 000/00 RMK AO2
63870K0J4 0J420160112222509801/12/16 22:25:31  5-MIN K0J4 130325Z AUTO 00000KT 10SM CLR 04/01 A3024 20 82 -1200 000/00 RMK AO2
63870K0J4 0J420160112223009801/12/16 22:30:31  5-MIN K0J4 130330Z AUTO 00000KT 10SM CLR 03/01 A3024 20 85 -1300 000/00 RMK AO2
63870K0J4 0J420160112223509801/12/16 22:35:31  5-MIN K0J4 130335Z AUTO 00000KT 10SM CLR 03/01 A3024 20 85 -1300 000/00 RMK AO2
63870K0J4 0J420160112224009801/12/16 22:40:31  5-MIN K0J4 130340Z AUTO 00000KT 10SM CLR 03/01 A3024 20 89 -1400 000/00 RMK AO2
63870K0J4 0J420160112224509801/12/16 22:45:31  5-MIN K0J4 130345Z AUTO 00000KT 10SM CLR 03/01 A3024 20 85 -1300 000/00 RMK AO2
63870K0J4 0J420160112225009801/12/16 22:50:31  5-MIN K0J4 130350Z AUTO 00000KT 10SM CLR 03/01 A3024 20 89 -1400 000/00 RMK AO2
63870K0J4 0J420160112225511501/12/16 22:55:31  5-MIN K0J4 130355Z AUTO 00000KT 10SM CLR 02/01 A3025 20 89 -1400 000/00 RMK AO2 SLP242 T00220006
63870K0J4 0J420160112230009801/12/16 23:00:31  5-MIN K0J4 130400Z AUTO 00000KT 10SM CLR 02/01 A3025 10 89 -1400 000/00 RMK AO2
63870K0J4 0J420160112230509801/12/16 23:05:31  5-MIN K0J4 130405Z AUTO 00000KT 10SM CLR 03/01 A3025 10 82 -1300 000/00 RMK AO2
63870K0J4 0J420160112231009801/12/16 23:10:31  5-MIN K0J4 130410Z AUTO 00000KT 10SM CLR 04/01 A3025 10 82 -1200 000/00 RMK AO2
63870K0J4 0J420160112231509801/12/16 23:15:31  5-MIN K0J4 130415Z AUTO 00000KT 10SM CLR 03/01 A3025 10 85 -1300 000/00 RMK AO2
63870K0J4 0J420160112232009801/12/16 23:20:31  5-MIN K0J4 130420Z AUTO 00000KT 10SM CLR 03/01 A3025 10 85 -1400 000/00 RMK AO2
63870K0J4 0J420160112232509801/12/16 23:25:31  5-MIN K0J4 130425Z AUTO 00000KT 10SM CLR 03/01 A3025 10 85 -1400 000/00 RMK AO2
63870K0J4 0J420160112233009801/12/16 23:30:31  5-MIN K0J4 130430Z AUTO 00000KT 10SM CLR 02/01 A3025 10 89 -1500 000/00 RMK AO2
63870K0J4 0J420160112233509801/12/16 23:35:31  5-MIN K0J4 130435Z AUTO 00000KT 10SM CLR 02/01 A3025 10 89 -1500 000/00 RMK AO2
63870K0J4 0J420160112234009801/12/16 23:40:31  5-MIN K0J4 130440Z AUTO 00000KT 10SM CLR 02/01 A3025 10 89 -1400 000/00 RMK AO2
63870K0J4 0J420160112234509801/12/16 23:45:31  5-MIN K0J4 130445Z AUTO 00000KT 10SM CLR 03/01 A3025 20 85 -1300 000/00 RMK AO2
63870K0J4 0J420160112235009801/12/16 23:50:31  5-MIN K0J4 130450Z AUTO 00000KT 10SM CLR 04/01 A3025 20 79 -1200 000/00 RMK AO2
63870K0J4 0J420160112235512501/12/16 23:55:31  5-MIN K0J4 130455Z AUTO 00000KT 10SM CLR 03/01 A3025 10 82 -1300 000/00 RMK AO2 SLP242 T00330006 401501022
63870K0J4 0J420160113000009701/13/16 00:00:31  5-MIN K0J4 130500Z AUTO 00000KT 9SM CLR 03/01 A3025 20 85 -1400 000/00 RMK AO2
63870K0J4 0J420160113000509801/13/16 00:05:31  5-MIN K0J4 130505Z AUTO 00000KT 10SM CLR 03/01 A3025 20 85 -1300 000/00 RMK AO2
63870K0J4 0J420160113001009701/13/16 00:10:31  5-MIN K0J4 130510Z AUTO 00000KT 9SM CLR 03/01 A3025 10 85 -1300 000/00 RMK AO2
63870K0J4 0J420160113001509701/13/16 00:15:31  5-MIN K0J4 130515Z AUTO 00000KT 9SM CLR 03/01 A3025 10 85 -1300 000/00 RMK AO2
63870K0J4 0J420160113002009701/13/16 00:20:31  5-MIN K0J4 130520Z AUTO 00000KT 9SM CLR 03/01 A3025 10 85 -1300 000/00 RMK AO2
63870K0J4 0J420160113002509701/13/16 00:25:31  5-MIN K0J4 130525Z AUTO 00000KT 9SM CLR 03/01 A3025 10 89 -1400 000/00 RMK AO2
63870K0J4 0J420160113003009701/13/16 00:30:31  5-MIN K0J4 130530Z AUTO 00000KT 9SM CLR 02/01 A3025 10 89 -1400 000/00 RMK AO2
63870K0J4 0J420160113003509701/13/16 00:35:31  5-MIN K0J4 130535Z AUTO 00000KT 9SM CLR 02/01 A3025 10 89 -1400 000/00 RMK AO2
63870K0J4 0J420160113004009701/13/16 00:40:31  5-MIN K0J4 130540Z AUTO 00000KT 9SM CLR 03/01 A3025 10 85 -1400 000/00 RMK AO2
63870K0J4 0J420160113004509701/13/16 00:45:31  5-MIN K0J4 130545Z AUTO 00000KT 9SM CLR 03/01 A3025 10 85 -1400 000/00 RMK AO2
63870K0J4 0J420160113005009701/13/16 00:50:31  5-MIN K0J4 130550Z AUTO 00000KT 9SM CLR 03/01 A3025 10 89 -1400 000/00 RMK AO2
63870K0J4 0J420160113005513301/13/16 00:55:31  5-MIN K0J4 130555Z AUTO 00000KT 10SM CLR 04/01 A3025 10 82 -1200 000/00 RMK AO2 SLP244 T00390011 10067 20022 51004
63870K0J4 0J420160113010009801/13/16 01:00:31  5-MIN K0J4 130600Z AUTO 00000KT 10SM CLR 04/01 A3026 10 76 -1200 000/00 RMK AO2
63870K0J4 0J420160113010509801/13/16 01:05:31  5-MIN K0J4 130605Z AUTO 00000KT 10SM CLR 03/01 A3026 10 82 -1300 000/00 RMK AO2
63870K0J4 0J420160113011009801/13/16 01:10:31  5-MIN K0J4 130610Z AUTO 00000KT 10SM CLR 03/01 A3026 10 85 -1400 000/00 RMK AO2
63870K0J4 0J420160113011509801/13/16 01:15:31  5-MIN K0J4 130615Z AUTO 00000KT 10SM CLR 03/01 A3026 10 82 -1300 000/00 RMK AO2
63870K0J4 0J420160113012009801/13/16 01:20:31  5-MIN K0J4 130620Z AUTO 00000KT 10SM CLR 03/01 A3026 10 85 -1400 000/00 RMK AO2
63870K0J4 0J420160113012509801/13/16 01:25:31  5-MIN K0J4 130625Z AUTO 00000KT 10SM CLR 03/01 A3026 10 85 -1400 000/00 RMK AO2
63870K0J4 0J420160113013009801/13/16 01:30:31  5-MIN K0J4 130630Z AUTO 00000KT 10SM CLR 02/01 A3025 10 89 -1500 000/00 RMK AO2
63870K0J4 0J420160113013509801/13/16 01:35:31  5-MIN K0J4 130635Z AUTO 00000KT 10SM CLR 02/01 A3025 10 89 -1500 000/00 RMK AO2
63870K0J4 0J420160113014009801/13/16 01:40:31  5-MIN K0J4 130640Z AUTO 00000KT 10SM CLR 02/01 A3025 10 89 -1500 000/00 RMK AO2
63870K0J4 0J420160113014509801/13/16 01:45:31  5-MIN K0J4 130645Z AUTO 00000KT 10SM CLR 03/01 A3025 10 85 -1400 000/00 RMK AO2
63870K0J4 0J420160113015009801/13/16 01:50:31  5-MIN K0J4 130650Z AUTO 00000KT 10SM CLR 03/01 A3025 10 85 -1400 000/00 RMK AO2
63870K0J4 0J420160113015511501/13/16 01:55:31  5-MIN K0J4 130655Z AUTO 00000KT 10SM CLR 03/01 A3025 10 85 -1400 000/00 RMK AO2 SLP243 T00280006
63870K0J4 0J420160113020009801/13/16 02:00:31  5-MIN K0J4 130700Z AUTO 00000KT 10SM CLR 03/00 A3025 20 82 -1400 000/00 RMK AO2
63870K0J4 0J420160113020509801/13/16 02:05:31  5-MIN K0J4 130705Z AUTO 00000KT 10SM CLR 03/01 A3024 20 82 -1300 000/00 RMK AO2
63870K0J4 0J420160113021009801/13/16 02:10:31  5-MIN K0J4 130710Z AUTO 00000KT 10SM CLR 03/01 A3025 10 85 -1400 000/00 RMK AO2
63870K0J4 0J420160113021509801/13/16 02:15:31  5-MIN K0J4 130715Z AUTO 00000KT 10SM CLR 03/01 A3025 10 82 -1300 000/00 RMK AO2
63870K0J4 0J420160113022009801/13/16 02:20:31  5-MIN K0J4 130720Z AUTO 00000KT 10SM CLR 02/01 A3025 10 89 -1400 000/00 RMK AO2
63870K0J4 0J420160113022509801/13/16 02:25:31  5-MIN K0J4 130725Z AUTO 00000KT 10SM CLR 02/01 A3025 10 89 -1400 000/00 RMK AO2
63870K0J4 0J420160113023009801/13/16 02:30:31  5-MIN K0J4 130730Z AUTO 00000KT 10SM CLR 02/01 A3025 10 89 -1500 000/00 RMK AO2
63870K0J4 0J420160113023509801/13/16 02:35:31  5-MIN K0J4 130735Z AUTO 00000KT 10SM CLR 02/01 A3025 10 92 -1500 000/00 RMK AO2
63870K0J4 0J420160113024009901/13/16 02:40:31  5-MIN K0J4 130740Z AUTO 00000KT 10SM CLR 01/M01 A3025 10 89 -1600 000/00 RMK AO2
63870K0J4 0J420160113024509801/13/16 02:45:31  5-MIN K0J4 130745Z AUTO 00000KT 10SM CLR 02/00 A3025 10 89 -1500 000/00 RMK AO2
63870K0J4 0J420160113025009801/13/16 02:50:31  5-MIN K0J4 130750Z AUTO 35003KT 10SM CLR 02/00 A3025 10 85 -1500 350/03 RMK AO2
63870K0J4 0J420160113025511501/13/16 02:55:31  5-MIN K0J4 130755Z AUTO VRB03KT 10SM CLR 02/00 A3025 20 85 -1400 VRB/03 RMK AO2 SLP242 T00220000
63870K0J4 0J420160113030009801/13/16 03:00:31  5-MIN K0J4 130800Z AUTO 36004KT 10SM CLR 03/00 A3025 20 79 -1300 360/04 RMK AO2
63870K0J4 0J420160113030509901/13/16 03:05:31  5-MIN K0J4 130805Z AUTO VRB03KT 10SM CLR 04/M01 A3025 10 73 -1200 VRB/03 RMK AO2
63870K0J4 0J420160113031009901/13/16 03:10:31  5-MIN K0J4 130810Z AUTO 00000KT 10SM CLR 04/M01 A3025 10 73 -1200 000/00 RMK AO2
63870K0J4 0J420160113031509901/13/16 03:15:31  5-MIN K0J4 130815Z AUTO 00000KT 10SM CLR 04/M01 A3025 10 73 -1200 000/00 RMK AO2
63870K0J4 0J420160113032009901/13/16 03:20:31  5-MIN K0J4 130820Z AUTO 00000KT 10SM CLR 03/M01 A3025 10 76 -1300 000/00 RMK AO2
63870K0J4 0J420160113032509901/13/16 03:25:31  5-MIN K0J4 130825Z AUTO 00000KT 10SM CLR 03/M01 A3025 10 79 -1400 000/00 RMK AO2
63870K0J4 0J420160113033009801/13/16 03:30:31  5-MIN K0J4 130830Z AUTO 00000KT 10SM CLR 02/00 A3025 10 85 -1500 000/00 RMK AO2
63870K0J4 0J420160113033509801/13/16 03:35:31  5-MIN K0J4 130835Z AUTO 33003KT 10SM CLR 02/00 A3025 10 85 -1500 330/03 RMK AO2
63870K0J4 0J420160113034009901/13/16 03:40:31  5-MIN K0J4 130840Z AUTO 00000KT 10SM CLR 03/M01 A3025 10 79 -1400 000/00 RMK AO2
63870K0J4 0J420160113034509901/13/16 03:45:31  5-MIN K0J4 130845Z AUTO 00000KT 10SM CLR 03/M01 A3025 10 79 -1400 000/00 RMK AO2
63870K0J4 0J420160113035009901/13/16 03:50:31  5-MIN K0J4 130850Z AUTO 00000KT 10SM CLR 03/M01 A3025 10 76 -1300 000/00 RMK AO2
63870K0J4 0J420160113035512201/13/16 03:55:31  5-MIN K0J4 130855Z AUTO 33003KT 10SM CLR 03/M01 A3026 10 79 -1400 330/03 RMK AO2 SLP245 T00281006 51007
63870K0J4 0J420160113040009901/13/16 04:00:31  5-MIN K0J4 130900Z AUTO 00000KT 10SM CLR 03/M01 A3026 10 76 -1300 000/00 RMK AO2
63870K0J4 0J420160113040509801/13/16 04:05:31  5-MIN K0J4 130905Z AUTO 00000KT 10SM CLR 03/M01 A3026 0 76 -1300 000/00 RMK AO2
63870K0J4 0J420160113041009801/13/16 04:10:31  5-MIN K0J4 130910Z AUTO 00000KT 10SM CLR 03/M01 A3026 0 76 -1300 000/00 RMK AO2
63870K0J4 0J420160113041509801/13/16 04:15:31  5-MIN K0J4 130915Z AUTO 34003KT 10SM CLR 03/M01 A3026 0 76 -1300 340/03 RMK AO2
63870K0J4 0J420160113042009801/13/16 04:20:31  5-MIN K0J4 130920Z AUTO 00000KT 10SM CLR 03/M01 A3026 0 76 -1300 000/00 RMK AO2
63870K0J4 0J420160113042509801/13/16 04:25:31  5-MIN K0J4 130925Z AUTO 00000KT 10SM CLR 03/M01 A3027 0 79 -1400 000/00 RMK AO2
63870K0J4 0J420160113043009801/13/16 04:30:31  5-MIN K0J4 130930Z AUTO 35003KT 10SM CLR 03/M01 A3027 0 76 -1300 350/03 RMK AO2
63870K0J4 0J420160113043510001/13/16 04:35:31  5-MIN K0J4 130935Z AUTO 00000KT 10SM CLR 03/M01 A3027 0 76 -1300 000/00 RMK AO2 $
63870K0J4 0J420160113044010001/13/16 04:40:31  5-MIN K0J4 130940Z AUTO 00000KT 10SM CLR 03/M01 A3026 0 72 -1300 000/00 RMK AO2 $
63870K0J4 0J420160113044510001/13/16 04:45:31  5-MIN K0J4 130945Z AUTO 34003KT 10SM CLR 03/M01 A3026 0 76 -1300 340/03 RMK AO2 $
63870K0J4 0J420160113045010001/13/16 04:50:31  5-MIN K0J4 130950Z AUTO 34003KT 10SM CLR 03/M01 A3026 0 76 -1300 340/03 RMK AO2 $
63870K0J4 0J420160113045511701/13/16 04:55:31  5-MIN K0J4 130955Z AUTO 00000KT 10SM CLR 03/M01 A3026 0 76 -1300 000/00 RMK AO2 SLP248 T00331006 $
63870K0J4 0J420160113050010001/13/16 05:00:31  5-MIN K0J4 131000Z AUTO 00000KT 10SM CLR 03/M01 A3026 0 79 -1400 000/00 RMK AO2 $
63870K0J4 0J420160113050510001/13/16 05:05:31  5-MIN K0J4 131005Z AUTO 00000KT 10SM CLR 03/M01 A3026 0 79 -1400 000/00 RMK AO2 $
63870K0J4 0J420160113051010001/13/16 05:10:31  5-MIN K0J4 131010Z AUTO 00000KT 10SM CLR 02/M01 A3026 0 82 -1500 000/00 RMK AO2 $
63870K0J4 0J420160113051510001/13/16 05:15:31  5-MIN K0J4 131015Z AUTO 00000KT 10SM CLR 02/M01 A3026 0 85 -1500 000/00 RMK AO2 $
63870K0J4 0J420160113052010001/13/16 05:20:31  5-MIN K0J4 131020Z AUTO 00000KT 10SM CLR 02/M01 A3026 0 85 -1500 000/00 RMK AO2 $
63870K0J4 0J420160113052510001/13/16 05:25:31  5-MIN K0J4 131025Z AUTO 00000KT 10SM CLR 01/M01 A3026 0 89 -1600 000/00 RMK AO2 $
63870K0J4 0J420160113053010001/13/16 05:30:31  5-MIN K0J4 131030Z AUTO 00000KT 10SM CLR 01/M01 A3026 0 89 -1700 000/00 RMK AO2 $
63870K0J4 0J420160113053510001/13/16 05:35:31  5-MIN K0J4 131035Z AUTO 00000KT 10SM CLR 01/M02 A3026 0 85 -1700 000/00 RMK AO2 $
63870K0J4 0J420160113054010001/13/16 05:40:31  5-MIN K0J4 131040Z AUTO VRB03KT 10SM CLR 01/M01 A3026 0 89 -1700 VRB/03 RMK AO2 $
63870K0J4 0J420160113054510001/13/16 05:45:31  5-MIN K0J4 131045Z AUTO 00000KT 10SM CLR 01/M02 A3026 0 85 -1700 000/00 RMK AO2 $
63870K0J4 0J420160113055010001/13/16 05:50:31  5-MIN K0J4 131050Z AUTO 35003KT 10SM CLR 01/M01 A3026 0 85 -1600 350/03 RMK AO2 $
63870K0J4 0J420160113055511701/13/16 05:55:31  5-MIN K0J4 131055Z AUTO 35003KT 10SM CLR 01/M02 A3026 0 85 -1700 350/03 RMK AO2 SLP248 T00061017 $
63870K0J4 0J420160113060010001/13/16 06:00:31  5-MIN K0J4 131100Z AUTO 00000KT 10SM CLR 01/M01 A3027 0 85 -1600 000/00 RMK AO2 $
63870K0J4 0J420160113060510001/13/16 06:05:31  5-MIN K0J4 131105Z AUTO 36003KT 10SM CLR 02/M01 A3027 0 85 -1500 360/03 RMK AO2 $
63870K0J4 0J420160113061010001/13/16 06:10:31  5-MIN K0J4 131110Z AUTO 36003KT 10SM CLR 02/M01 A3027 0 85 -1500 360/03 RMK AO2 $
63870K0J4 0J420160113061510001/13/16 06:15:31  5-MIN K0J4 131115Z AUTO 36003KT 10SM CLR 02/M01 A3027 0 85 -1500 360/03 RMK AO2 $
63870K0J4 0J420160113062010001/13/16 06:20:31  5-MIN K0J4 131120Z AUTO 35003KT 10SM CLR 02/M01 A3027 0 85 -1500 350/03 RMK AO2 $
63870K0J4 0J420160113062510001/13/16 06:25:31  5-MIN K0J4 131125Z AUTO 36004KT 10SM CLR 02/M01 A3027 0 82 -1500 360/04 RMK AO2 $
63870K0J4 0J420160113063010001/13/16 06:30:31  5-MIN K0J4 131130Z AUTO 36003KT 10SM CLR 02/M01 A3027 0 82 -1500 360/03 RMK AO2 $
63870K0J4 0J420160113063510001/13/16 06:35:31  5-MIN K0J4 131135Z AUTO 36003KT 10SM CLR 02/M01 A3027 0 78 -1500 360/03 RMK AO2 $
63870K0J4 0J420160113064010001/13/16 06:40:31  5-MIN K0J4 131140Z AUTO 36003KT 10SM CLR 02/M01 A3027 0 78 -1500 360/03 RMK AO2 $
63870K0J4 0J420160113064510201/13/16 06:45:31  5-MIN K0J4 131145Z AUTO 35004KT 10SM CLR 02/M01 A3028 -10 82 -1500 350/04 RMK AO2 $
63870K0J4 0J420160113065010201/13/16 06:50:31  5-MIN K0J4 131150Z AUTO VRB03KT 10SM CLR 02/M01 A3028 -10 82 -1600 VRB/03 RMK AO2 $
63870K0J4 0J420160113065513701/13/16 06:55:31  5-MIN K0J4 131155Z AUTO 35003KT 10SM CLR 02/M01 A3028 -10 82 -1600 350/03 RMK AO2 SLP253 T00171011 10044 20006 53001 $
63870K0J4 0J420160113070010201/13/16 07:00:31  5-MIN K0J4 131200Z AUTO 00000KT 10SM CLR 02/M01 A3028 -10 82 -1600 000/00 RMK AO2 $
63870K0J4 0J420160113070510201/13/16 07:05:31  5-MIN K0J4 131205Z AUTO 00000KT 10SM CLR 01/M01 A3028 -10 89 -1700 000/00 RMK AO2 $
63870K0J4 0J420160113071010201/13/16 07:10:31  5-MIN K0J4 131210Z AUTO 00000KT 10SM CLR 00/M02 A3028 -10 88 -1800 000/00 RMK AO2 $
63870K0J4 0J420160113071510201/13/16 07:15:31  5-MIN K0J4 131215Z AUTO 00000KT 10SM CLR 01/M02 A3028 -10 85 -1700 000/00 RMK AO2 $
63870K0J4 0J420160113072010201/13/16 07:20:31  5-MIN K0J4 131220Z AUTO 00000KT 10SM CLR 00/M02 A3028 -10 88 -1800 000/00 RMK AO2 $
63870K0J4 0J420160113072510201/13/16 07:25:31  5-MIN K0J4 131225Z AUTO 00000KT 10SM CLR 00/M02 A3029 -20 88 -1800 000/00 RMK AO2 $
63870K0J4 0J420160113073010301/13/16 07:30:31  5-MIN K0J4 131230Z AUTO 00000KT 10SM CLR M01/M02 A3029 -20 88 -1800 000/00 RMK AO2 $
63870K0J4 0J420160113073510301/13/16 07:35:31  5-MIN K0J4 131235Z AUTO 00000KT 10SM CLR M01/M02 A3029 -20 88 -1800 000/00 RMK AO2 $
63870K0J4 0J420160113074010301/13/16 07:40:31  5-MIN K0J4 131240Z AUTO 00000KT 10SM CLR M01/M02 A3029 -20 88 -1800 000/00 RMK AO2 $
63870K0J4 0J420160113074510301/13/16 07:45:31  5-MIN K0J4 131245Z AUTO 00000KT 10SM CLR M01/M02 A3029 -20 92 -1800 000/00 RMK AO2 $
63870K0J4 0J420160113075010301/13/16 07:50:31  5-MIN K0J4 131250Z AUTO 01003KT 10SM CLR M01/M02 A3029 -20 92 -1800 010/03 RMK AO2 $
63870K0J4 0J420160113075512001/13/16 07:55:31  5-MIN K0J4 131255Z AUTO 36005KT 10SM CLR M01/M02 A3029 -20 92 -1800 360/05 RMK AO2 SLP256 T10061017 $
63870K0J4 0J420160113080010201/13/16 08:00:31  5-MIN K0J4 131300Z AUTO 36004KT 10SM CLR 01/M01 A3028 -10 89 -1700 360/04 RMK AO2 $
63870K0J4 0J420160113080510201/13/16 08:05:31  5-MIN K0J4 131305Z AUTO 01004KT 10SM CLR 01/M01 A3029 -20 85 -1600 010/04 RMK AO2 $
63870K0J4 0J420160113081010201/13/16 08:10:31  5-MIN K0J4 131310Z AUTO 01004KT 10SM CLR 02/M01 A3029 -20 82 -1600 010/04 RMK AO2 $
63870K0J4 0J420160113081510201/13/16 08:15:31  5-MIN K0J4 131315Z AUTO 01003KT 10SM CLR 02/M01 A3029 -20 85 -1600 010/03 RMK AO2 $
63870K0J4 0J420160113082010201/13/16 08:20:31  5-MIN K0J4 131320Z AUTO 36003KT 10SM CLR 02/M01 A3029 -20 82 -1500 360/03 RMK AO2 $
63870K0J4 0J420160113082510201/13/16 08:25:31  5-MIN K0J4 131325Z AUTO 01003KT 10SM CLR 02/M01 A3029 -20 82 -1500 010/03 RMK AO2 $
63870K0J4 0J420160113083010201/13/16 08:30:31  5-MIN K0J4 131330Z AUTO 00000KT 10SM CLR 02/M01 A3029 -20 82 -1500 000/00 RMK AO2 $
63870K0J4 0J420160113083510201/13/16 08:35:31  5-MIN K0J4 131335Z AUTO 00000KT 10SM CLR 03/M01 A3029 -20 79 -1400 000/00 RMK AO2 $
63870K0J4 0J420160113084010101/13/16 08:40:31  5-MIN K0J4 131340Z AUTO 00000KT 10SM CLR 03/00 A3030 -20 79 -1400 000/00 RMK AO2 $
63870K0J4 0J420160113084510101/13/16 08:45:31  5-MIN K0J4 131345Z AUTO 00000KT 10SM CLR 03/01 A3030 -30 82 -1400 000/00 RMK AO2 $
63870K0J4 0J420160113085010101/13/16 08:50:31  5-MIN K0J4 131350Z AUTO 00000KT 10SM CLR 04/00 A3030 -30 76 -1300 000/00 RMK AO2 $
63870K0J4 0J420160113085511801/13/16 08:55:31  5-MIN K0J4 131355Z AUTO 00000KT 10SM CLR 05/01 A3030 -20 73 -1200 000/00 RMK AO2 SLP260 T00500006 $
63870K0J4 0J420160113090010101/13/16 09:00:31  5-MIN K0J4 131400Z AUTO 00000KT 10SM CLR 06/01 A3030 -20 70 -1100 000/00 RMK AO2 $
63870K0J4 0J420160113090510101/13/16 09:05:31  5-MIN K0J4 131405Z AUTO 02003KT 10SM CLR 06/01 A3030 -20 67 -1000 020/03 RMK AO2 $
63870K0J4 0J420160113091010101/13/16 09:10:31  5-MIN K0J4 131410Z AUTO 02003KT 10SM CLR 06/01 A3029 -20 70 -1000 020/03 RMK AO2 $
63870K0J4 0J420160113091510101/13/16 09:15:31  5-MIN K0J4 131415Z AUTO 02004KT 10SM CLR 07/01 A3030 -20 65 -1000 020/04 RMK AO2 $
63870K0J4 0J420160113092010101/13/16 09:20:31  5-MIN K0J4 131420Z AUTO 02004KT 10SM CLR 07/01 A3030 -20 67 -1000 020/04 RMK AO2 $
63870K0J4 0J420160113092510001/13/16 09:25:31  5-MIN K0J4 131425Z AUTO 03004KT 10SM CLR 07/01 A3030 -20 65 -900 030/04 RMK AO2 $
63870K0J4 0J420160113093010001/13/16 09:30:31  5-MIN K0J4 131430Z AUTO 02005KT 10SM CLR 07/02 A3030 -20 68 -900 020/05 RMK AO2 $
63870K0J4 0J420160113093510001/13/16 09:35:31  5-MIN K0J4 131435Z AUTO 04003KT 10SM CLR 08/01 A3030 -30 62 -800 040/03 RMK AO2 $
63870K0J4 0J420160113094010001/13/16 09:40:31  5-MIN K0J4 131440Z AUTO 05003KT 10SM CLR 08/01 A3030 -30 60 -800 050/03 RMK AO2 $
63870K0J4 0J420160113094510001/13/16 09:45:31  5-MIN K0J4 131445Z AUTO 05003KT 10SM CLR 08/01 A3030 -30 60 -800 050/03 RMK AO2 $
63870K0J4 0J420160113095010001/13/16 09:50:31  5-MIN K0J4 131450Z AUTO 06003KT 10SM CLR 08/01 A3030 -30 58 -800 060/03 RMK AO2 $
63870K0J4 0J420160113095512301/13/16 09:55:31  5-MIN K0J4 131455Z AUTO 07005KT 10SM CLR 09/01 A3031 -30 58 -700 070/05 RMK AO2 SLP262 T00890011 53007 $
63870K0J4 0J420160113100010001/13/16 10:00:31  5-MIN K0J4 131500Z AUTO 07004KT 10SM CLR 09/01 A3031 -40 56 -700 070/04 RMK AO2 $
63870K0J4 0J420160113100510001/13/16 10:05:31  5-MIN K0J4 131505Z AUTO 10003KT 10SM CLR 09/01 A3031 -40 56 -600 100/03 RMK AO2 $
63870K0J4 0J420160113101010001/13/16 10:10:31  5-MIN K0J4 131510Z AUTO 08004KT 10SM CLR 09/01 A3031 -40 53 -600 080/04 RMK AO2 $
63870K0J4 0J420160113101510001/13/16 10:15:31  5-MIN K0J4 131515Z AUTO 08004KT 10SM CLR 09/01 A3031 -40 53 -600 080/04 RMK AO2 $
63870K0J4 0J420160113102010001/13/16 10:20:31  5-MIN K0J4 131520Z AUTO 09005KT 10SM CLR 09/01 A3031 -40 53 -600 090/05 RMK AO2 $
63870K0J4 0J420160113102510001/13/16 10:25:31  5-MIN K0J4 131525Z AUTO 09003KT 10SM CLR 10/01 A3032 -50 52 -600 090/03 RMK AO2 $
63870K0J4 0J420160113103010001/13/16 10:30:31  5-MIN K0J4 131530Z AUTO 00000KT 10SM CLR 10/01 A3032 -50 52 -600 000/00 RMK AO2 $
63870K0J4 0J420160113103510001/13/16 10:35:31  5-MIN K0J4 131535Z AUTO 05004KT 10SM CLR 11/01 A3032 -50 50 -500 050/04 RMK AO2 $
63870K0J4 0J420160113104010001/13/16 10:40:31  5-MIN K0J4 131540Z AUTO VRB04KT 10SM CLR 11/00 A3032 -50 48 -500 VRB/04 RMK AO2 $
63870K0J4 0J420160113104510001/13/16 10:45:31  5-MIN K0J4 131545Z AUTO 09003KT 10SM CLR 11/01 A3033 -50 50 -500 090/03 RMK AO2 $
63870K0J4 0J420160113105010001/13/16 10:50:31  5-MIN K0J4 131550Z AUTO 08003KT 10SM CLR 11/01 A3032 -50 50 -500 080/03 RMK AO2 $
63870K0J4 0J420160113105511701/13/16 10:55:31  5-MIN K0J4 131555Z AUTO 03003KT 10SM CLR 11/00 A3033 -50 46 -400 030/03 RMK AO2 SLP269 T01110000 $
63870K0J4 0J420160113110010001/13/16 11:00:31  5-MIN K0J4 131600Z AUTO 00000KT 10SM CLR 11/01 A3033 -60 48 -400 000/00 RMK AO2 $
63870K0J4 0J420160113110510001/13/16 11:05:31  5-MIN K0J4 131605Z AUTO 00000KT 10SM CLR 11/00 A3033 -60 46 -500 000/00 RMK AO2 $
63870K0J4 0J420160113111010001/13/16 11:10:31  5-MIN K0J4 131610Z AUTO 00000KT 10SM CLR 11/01 A3033 -60 48 -500 000/00 RMK AO2 $
63870K0J4 0J420160113111510001/13/16 11:15:31  5-MIN K0J4 131615Z AUTO VRB03KT 10SM CLR 12/00 A3033 -50 44 -400 VRB/03 RMK AO2 $
63870K0J4 0J420160113112010001/13/16 11:20:31  5-MIN K0J4 131620Z AUTO 00000KT 10SM CLR 12/00 A3032 -50 43 -300 000/00 RMK AO2 $
63870K0J4 0J420160113112510001/13/16 11:25:31  5-MIN K0J4 131625Z AUTO VRB04KT 10SM CLR 12/00 A3032 -50 43 -300 VRB/04 RMK AO2 $
63870K0J4 0J420160113113010101/13/16 11:30:31  5-MIN K0J4 131630Z AUTO 00000KT 10SM CLR 12/M01 A3032 -50 42 -400 000/00 RMK AO2 $
63870K0J4 0J420160113113510101/13/16 11:35:31  5-MIN K0J4 131635Z AUTO 05003KT 10SM CLR 12/M01 A3032 -40 41 -300 050/03 RMK AO2 $
63870K0J4 0J420160113114010101/13/16 11:40:31  5-MIN K0J4 131640Z AUTO VRB03KT 10SM CLR 13/M01 A3031 -40 38 -200 VRB/03 RMK AO2 $
63870K0J4 0J420160113114510101/13/16 11:45:31  5-MIN K0J4 131645Z AUTO 06004KT 10SM CLR 13/M01 A3031 -40 39 -200 060/04 RMK AO2 $
63870K0J4 0J420160113115010101/13/16 11:50:31  5-MIN K0J4 131650Z AUTO 00000KT 10SM CLR 13/M02 A3031 -40 36 -200 000/00 RMK AO2 $
63870K0J4 0J420160113115511801/13/16 11:55:31  5-MIN K0J4 131655Z AUTO 05004KT 10SM CLR 13/M01 A3031 -40 36 -200 050/04 RMK AO2 SLP264 T01331011 $
63870K0J4 0J420160113120010101/13/16 12:00:31  5-MIN K0J4 131700Z AUTO 00000KT 10SM CLR 13/M02 A3031 -40 35 -200 000/00 RMK AO2 $
63870K0J4 0J420160113120510101/13/16 12:05:31  5-MIN K0J4 131705Z AUTO 00000KT 10SM CLR 13/M02 A3031 -40 36 -200 000/00 RMK AO2 $
63870K0J4 0J420160113121010101/13/16 12:10:31  5-MIN K0J4 131710Z AUTO VRB04KT 10SM CLR 13/M01 A3031 -30 36 -200 VRB/04 RMK AO2 $
63870K0J4 0J420160113121510101/13/16 12:15:31  5-MIN K0J4 131715Z AUTO 00000KT 10SM CLR 13/M01 A3031 -30 38 -200 000/00 RMK AO2 $
63870K0J4 0J420160113122010101/13/16 12:20:31  5-MIN K0J4 131720Z AUTO 00000KT 10SM CLR 13/M01 A3030 -30 36 -100 000/00 RMK AO2 $
63870K0J4 0J420160113122510101/13/16 12:25:31  5-MIN K0J4 131725Z AUTO VRB04KT 10SM CLR 14/M01 A3030 -30 35 -100 VRB/04 RMK AO2 $
63870K0J4 0J420160113123010101/13/16 12:30:31  5-MIN K0J4 131730Z AUTO 06005KT 10SM CLR 14/M01 A3029 -20 37 -100 060/05 RMK AO2 $
63870K0J4 0J420160113123510101/13/16 12:35:31  5-MIN K0J4 131735Z AUTO 07003KT 10SM CLR 13/M01 A3029 -20 36 -100 070/03 RMK AO2 $
63870K0J4 0J420160113124010101/13/16 12:40:31  5-MIN K0J4 131740Z AUTO VRB03KT 10SM CLR 14/M01 A3029 -20 37 -100 VRB/03 RMK AO2 $
63870K0J4 0J420160113124510101/13/16 12:45:31  5-MIN K0J4 131745Z AUTO VRB03KT 10SM CLR 14/M01 A3028 -10 35 -100 VRB/03 RMK AO2 $
63870K0J4 0J420160113125009801/13/16 12:50:31  5-MIN K0J4 131750Z AUTO VRB03KT 10SM CLR 14/M01 A3028 -10 35 0 VRB/03 RMK AO2 $
63870K0J4 0J420160113125513101/13/16 12:55:31  5-MIN K0J4 131755Z AUTO 00000KT 10SM CLR 14/M01 A3027 0 35 0 000/00 RMK AO2 SLP250 T01391011 10144 21006 53009 $
63870K0J4 0J420160113130009601/13/16 13:00:31  5-MIN K0J4 131800Z AUTO 35004KT 10SM CLR 14/M01 A3027 0 34 0 350/04 RMK AO2 $
63870K0J4 0J420160113130509601/13/16 13:05:31  5-MIN K0J4 131805Z AUTO 00000KT 10SM CLR 14/M01 A3026 0 34 0 000/00 RMK AO2 $
63870K0J4 0J420160113131009601/13/16 13:10:31  5-MIN K0J4 131810Z AUTO 00000KT 10SM CLR 14/M01 A3026 0 34 0 000/00 RMK AO2 $
63870K0J4 0J420160113131509701/13/16 13:15:31  5-MIN K0J4 131815Z AUTO 03004KT 10SM CLR 14/M02 A3025 10 33 0 030/04 RMK AO2 $
63870K0J4 0J420160113132009701/13/16 13:20:31  5-MIN K0J4 131820Z AUTO 34003KT 10SM CLR 14/M02 A3025 10 33 0 340/03 RMK AO2 $
63870K0J4 0J420160113132509701/13/16 13:25:31  5-MIN K0J4 131825Z AUTO 00000KT 10SM CLR 14/M02 A3025 10 33 0 000/00 RMK AO2 $
63870K0J4 0J420160113133009701/13/16 13:30:31  5-MIN K0J4 131830Z AUTO 01004KT 10SM CLR 14/M02 A3025 10 33 0 010/04 RMK AO2 $
63870K0J4 0J420160113133509701/13/16 13:35:31  5-MIN K0J4 131835Z AUTO 00000KT 10SM CLR 14/M02 A3025 10 33 0 000/00 RMK AO2 $
63870K0J4 0J420160113134009901/13/16 13:40:31  5-MIN K0J4 131840Z AUTO 00000KT 10SM CLR 15/M01 A3024 20 34 100 000/00 RMK AO2 $
63870K0J4 0J420160113134509701/13/16 13:45:31  5-MIN K0J4 131845Z AUTO VRB03KT 10SM CLR 14/M01 A3025 20 34 0 VRB/03 RMK AO2 $
63870K0J4 0J420160113135009901/13/16 13:50:31  5-MIN K0J4 131850Z AUTO VRB03KT 10SM CLR 15/M01 A3024 20 33 100 VRB/03 RMK AO2 $
63870K0J4 0J420160113135511601/13/16 13:55:31  5-MIN K0J4 131855Z AUTO 01006KT 10SM CLR 15/M01 A3023 30 33 100 010/06 RMK AO2 SLP238 T01501011 $
63870K0J4 0J420160113140009901/13/16 14:00:31  5-MIN K0J4 131900Z AUTO 00000KT 10SM CLR 15/M01 A3023 30 33 100 000/00 RMK AO2 $
63870K0J4 0J420160113140509901/13/16 14:05:31  5-MIN K0J4 131905Z AUTO 34005KT 10SM CLR 15/M02 A3023 30 31 100 340/05 RMK AO2 $
63870K0J4 0J420160113141009701/13/16 14:10:31  5-MIN K0J4 131910Z AUTO 00000KT 10SM CLR 14/M02 A3023 30 33 0 000/00 RMK AO2 $
63870K0J4 0J420160113141509901/13/16 14:15:31  5-MIN K0J4 131915Z AUTO 00000KT 10SM CLR 15/M02 A3022 40 30 100 000/00 RMK AO2 $
63870K0J4 0J420160113142009901/13/16 14:20:31  5-MIN K0J4 131920Z AUTO VRB05KT 10SM CLR 15/M02 A3022 40 30 100 VRB/05 RMK AO2 $
63870K0J4 0J420160113142509901/13/16 14:25:31  5-MIN K0J4 131925Z AUTO 00000KT 10SM CLR 15/M02 A3022 40 31 100 000/00 RMK AO2 $
63870K0J4 0J420160113143009901/13/16 14:30:31  5-MIN K0J4 131930Z AUTO 01005KT 10SM CLR 16/M02 A3022 40 29 200 010/05 RMK AO2 $
63870K0J4 0J420160113143509901/13/16 14:35:31  5-MIN K0J4 131935Z AUTO 36004KT 10SM CLR 16/M02 A3021 50 30 200 360/04 RMK AO2 $
63870K0J4 0J420160113144009901/13/16 14:40:31  5-MIN K0J4 131940Z AUTO 00000KT 10SM CLR 15/M02 A3021 50 30 100 000/00 RMK AO2 $
63870K0J4 0J420160113144509701/13/16 14:45:31  5-MIN K0J4 131945Z AUTO 00000KT 10SM CLR 14/M02 A3021 50 33 0 000/00 RMK AO2 $
63870K0J4 0J420160113145009901/13/16 14:50:31  5-MIN K0J4 131950Z AUTO 00000KT 10SM CLR 16/M02 A3021 50 30 200 000/00 RMK AO2 $
63870K0J4 0J420160113145511601/13/16 14:55:31  5-MIN K0J4 131955Z AUTO VRB04KT 10SM CLR 16/M02 A3021 50 30 200 VRB/04 RMK AO2 SLP228 T01561017 $
63870K0J4 0J420160113150009901/13/16 15:00:31  5-MIN K0J4 132000Z AUTO 02005KT 10SM CLR 16/M02 A3021 50 30 200 020/05 RMK AO2 $
63870K0J4 0J420160113150509901/13/16 15:05:31  5-MIN K0J4 132005Z AUTO 00000KT 10SM CLR 16/M02 A3020 60 30 200 000/00 RMK AO2 $
63870K0J4 0J420160113151009901/13/16 15:10:31  5-MIN K0J4 132010Z AUTO 07004KT 10SM CLR 16/M02 A3020 60 30 200 070/04 RMK AO2 $
63870K0J4 0J420160113151509901/13/16 15:15:31  5-MIN K0J4 132015Z AUTO 00000KT 10SM CLR 16/M02 A3020 60 30 200 000/00 RMK AO2 $
63870K0J4 0J420160113152009901/13/16 15:20:31  5-MIN K0J4 132020Z AUTO 00000KT 10SM CLR 16/M01 A3020 60 31 200 000/00 RMK AO2 $
63870K0J4 0J420160113152509901/13/16 15:25:31  5-MIN K0J4 132025Z AUTO VRB05KT 10SM CLR 16/M02 A3020 60 30 200 VRB/05 RMK AO2 $
63870K0J4 0J420160113153009901/13/16 15:30:31  5-MIN K0J4 132030Z AUTO 03004KT 10SM CLR 16/M02 A3020 60 30 200 030/04 RMK AO2 $
63870K0J4 0J420160113153509901/13/16 15:35:31  5-MIN K0J4 132035Z AUTO 00000KT 10SM CLR 16/M02 A3020 60 30 200 000/00 RMK AO2 $
63870K0J4 0J420160113154009901/13/16 15:40:31  5-MIN K0J4 132040Z AUTO 00000KT 10SM CLR 16/M02 A3020 60 29 200 000/00 RMK AO2 $
63870K0J4 0J420160113154509901/13/16 15:45:31  5-MIN K0J4 132045Z AUTO 00000KT 10SM CLR 16/M01 A3020 60 30 200 000/00 RMK AO2 $
63870K0J4 0J420160113155009901/13/16 15:50:31  5-MIN K0J4 132050Z AUTO VRB04KT 10SM CLR 16/M02 A3020 60 30 200 VRB/04 RMK AO2 $
63870K0J4 0J420160113155512201/13/16 15:55:31  5-MIN K0J4 132055Z AUTO 31005KT 10SM CLR 16/M02 A3020 60 29 200 310/05 RMK AO2 SLP226 T01611017 58013 $
63870K0J4 0J420160113160009901/13/16 16:00:31  5-MIN K0J4 132100Z AUTO 28003KT 10SM CLR 16/M02 A3020 60 30 200 280/03 RMK AO2 $
63870K0J4 0J420160113160509901/13/16 16:05:31  5-MIN K0J4 132105Z AUTO 00000KT 10SM CLR 16/M02 A3020 60 30 200 000/00 RMK AO2 $
63870K0J4 0J420160113161009901/13/16 16:10:31  5-MIN K0J4 132110Z AUTO 00000KT 10SM CLR 16/M02 A3020 60 29 200 000/00 RMK AO2 $
63870K0J4 0J420160113161509901/13/16 16:15:31  5-MIN K0J4 132115Z AUTO 00000KT 10SM CLR 16/M02 A3020 60 29 200 000/00 RMK AO2 $
63870K0J4 0J420160113162009901/13/16 16:20:31  5-MIN K0J4 132120Z AUTO 00000KT 10SM CLR 16/M02 A3020 60 28 200 000/00 RMK AO2 $
63870K0J4 0J420160113162509901/13/16 16:25:31  5-MIN K0J4 132125Z AUTO 00000KT 10SM CLR 16/M02 A3020 60 29 200 000/00 RMK AO2 $
63870K0J4 0J420160113163009901/13/16 16:30:31  5-MIN K0J4 132130Z AUTO 34003KT 10SM CLR 16/M01 A3020 60 30 200 340/03 RMK AO2 $
63870K0J4 0J420160113163509901/13/16 16:35:31  5-MIN K0J4 132135Z AUTO 00000KT 10SM CLR 16/M02 A3020 60 30 200 000/00 RMK AO2 $
63870K0J4 0J420160113164009901/13/16 16:40:31  5-MIN K0J4 132140Z AUTO 00000KT 10SM CLR 16/M02 A3020 60 30 200 000/00 RMK AO2 $
63870K0J4 0J420160113164509901/13/16 16:45:31  5-MIN K0J4 132145Z AUTO 01003KT 10SM CLR 16/M01 A3020 60 30 200 010/03 RMK AO2 $
63870K0J4 0J420160113165009901/13/16 16:50:31  5-MIN K0J4 132150Z AUTO 00000KT 10SM CLR 16/M02 A3019 60 29 200 000/00 RMK AO2 $
63870K0J4 0J420160113165511601/13/16 16:55:31  5-MIN K0J4 132155Z AUTO 35004KT 10SM CLR 15/M01 A3019 70 33 100 350/04 RMK AO2 SLP224 T01501011 $
63870K0J4 0J420160113170009901/13/16 17:00:31  5-MIN K0J4 132200Z AUTO 00000KT 10SM CLR 16/M01 A3019 70 31 200 000/00 RMK AO2 $
63870K0J4 0J420160113170509901/13/16 17:05:31  5-MIN K0J4 132205Z AUTO 00000KT 10SM CLR 15/M01 A3019 70 33 100 000/00 RMK AO2 $
63870K0J4 0J420160113171009901/13/16 17:10:31  5-MIN K0J4 132210Z AUTO 00000KT 10SM CLR 15/M01 A3019 60 34 100 000/00 RMK AO2 $
63870K0J4 0J420160113171509601/13/16 17:15:31  5-MIN K0J4 132215Z AUTO 00000KT 10SM CLR 14/00 A3020 60 38 0 000/00 RMK AO2 $
63870K0J4 0J420160113172009601/13/16 17:20:31  5-MIN K0J4 132220Z AUTO 00000KT 10SM CLR 14/01 A3020 60 41 0 000/00 RMK AO2 $
63870K0J4 0J420160113172509601/13/16 17:25:31  5-MIN K0J4 132225Z AUTO 00000KT 10SM CLR 13/01 A3020 60 43 0 000/00 RMK AO2 $
63870K0J4 0J420160113173009601/13/16 17:30:31  5-MIN K0J4 132230Z AUTO 00000KT 10SM CLR 13/00 A3020 60 40 0 000/00 RMK AO2 $
63870K0J4 0J420160113173509901/13/16 17:35:31  5-MIN K0J4 132235Z AUTO 00000KT 10SM CLR 13/01 A3020 60 43 -100 000/00 RMK AO2 $
63870K0J4 0J420160113174009901/13/16 17:40:31  5-MIN K0J4 132240Z AUTO 00000KT 10SM CLR 13/01 A3020 50 44 -100 000/00 RMK AO2 $
63870K0J4 0J420160113174509901/13/16 17:45:31  5-MIN K0J4 132245Z AUTO 00000KT 10SM CLR 12/02 A3020 60 48 -200 000/00 RMK AO2 $
63870K0J4 0J420160113175009901/13/16 17:50:31  5-MIN K0J4 132250Z AUTO 00000KT 10SM CLR 12/01 A3020 50 48 -200 000/00 RMK AO2 $
63870K0J4 0J420160113175511601/13/16 17:55:31  5-MIN K0J4 132255Z AUTO 00000KT 10SM CLR 12/01 A3020 60 46 -200 000/00 RMK AO2 SLP227 T01170006 $
63870K0J4 0J420160113180009901/13/16 18:00:31  5-MIN K0J4 132300Z AUTO 00000KT 10SM CLR 11/02 A3020 60 52 -300 000/00 RMK AO2 $
63870K0J4 0J420160113180509901/13/16 18:05:31  5-MIN K0J4 132305Z AUTO 00000KT 10SM CLR 11/02 A3020 60 54 -400 000/00 RMK AO2 $
63870K0J4 0J420160113181009901/13/16 18:10:31  5-MIN K0J4 132310Z AUTO 00000KT 10SM CLR 09/03 A3020 60 65 -600 000/00 RMK AO2 $
63870K0J4 0J420160113181509901/13/16 18:15:31  5-MIN K0J4 132315Z AUTO 00000KT 10SM CLR 09/03 A3020 60 68 -600 000/00 RMK AO2 $
63870K0J4 0J420160113182009901/13/16 18:20:31  5-MIN K0J4 132320Z AUTO 00000KT 10SM CLR 08/03 A3020 60 70 -600 000/00 RMK AO2 $
63870K0J4 0J420160113182509901/13/16 18:25:31  5-MIN K0J4 132325Z AUTO 00000KT 10SM CLR 08/03 A3020 60 68 -600 000/00 RMK AO2 $
63870K0J4 0J420160113183009901/13/16 18:30:31  5-MIN K0J4 132330Z AUTO 00000KT 10SM CLR 08/03 A3020 60 68 -600 000/00 RMK AO2 $
63870K0J4 0J420160113183509901/13/16 18:35:31  5-MIN K0J4 132335Z AUTO 00000KT 10SM CLR 08/03 A3020 60 70 -700 000/00 RMK AO2 $
63870K0J4 0J420160113184009901/13/16 18:40:31  5-MIN K0J4 132340Z AUTO 00000KT 10SM CLR 08/03 A3020 60 73 -700 000/00 RMK AO2 $
63870K0J4 0J420160113184509901/13/16 18:45:31  5-MIN K0J4 132345Z AUTO 00000KT 10SM CLR 08/03 A3021 50 70 -700 000/00 RMK AO2 $
63870K0J4 0J420160113185009901/13/16 18:50:31  5-MIN K0J4 132350Z AUTO 00000KT 10SM CLR 07/03 A3021 50 79 -900 000/00 RMK AO2 $
63870K0J4 0J420160113185513401/13/16 18:55:31  5-MIN K0J4 132355Z AUTO 00000KT 10SM CLR 07/03 A3021 50 73 -800 000/00 RMK AO2 SLP231 T00720028 10161 20067 56022 $
63870K0J4 0J420160113190009901/13/16 19:00:31  5-MIN K0J4 140000Z AUTO 00000KT 10SM CLR 07/03 A3022 40 73 -800 000/00 RMK AO2 $
63870K0J4 0J420160113190509901/13/16 19:05:31  5-MIN K0J4 140005Z AUTO 00000KT 10SM CLR 07/03 A3022 40 76 -900 000/00 RMK AO2 $
63870K0J4 0J420160113191009901/13/16 19:10:31  5-MIN K0J4 140010Z AUTO 00000KT 10SM CLR 07/02 A3022 40 70 -800 000/00 RMK AO2 $
63870K0J4 0J420160113191509901/13/16 19:15:31  5-MIN K0J4 140015Z AUTO 00000KT 10SM CLR 08/02 A3021 50 68 -700 000/00 RMK AO2 $
63870K0J4 0J420160113192009901/13/16 19:20:31  5-MIN K0J4 140020Z AUTO 00000KT 10SM CLR 07/02 A3021 50 70 -800 000/00 RMK AO2 $
63870K0J4 0J420160113192509901/13/16 19:25:31  5-MIN K0J4 140025Z AUTO 00000KT 10SM CLR 07/02 A3021 50 70 -800 000/00 RMK AO2 $
63870K0J4 0J420160113193009901/13/16 19:30:31  5-MIN K0J4 140030Z AUTO 00000KT 10SM CLR 07/02 A3021 50 70 -900 000/00 RMK AO2 $
63870K0J4 0J420160113193510001/13/16 19:35:31  5-MIN K0J4 140035Z AUTO 00000KT 10SM CLR 06/02 A3022 40 79 -1000 000/00 RMK AO2 $
63870K0J4 0J420160113194009901/13/16 19:40:31  5-MIN K0J4 140040Z AUTO 00000KT 10SM CLR 06/02 A3021 40 76 -900 000/00 RMK AO2 $
63870K0J4 0J420160113194509901/13/16 19:45:31  5-MIN K0J4 140045Z AUTO 00000KT 10SM CLR 06/02 A3021 50 76 -900 000/00 RMK AO2 $
63870K0J4 0J420160113195010001/13/16 19:50:31  5-MIN K0J4 140050Z AUTO 00000KT 10SM CLR 06/02 A3022 40 79 -1000 000/00 RMK AO2 $
63870K0J4 0J420160113195511701/13/16 19:55:31  5-MIN K0J4 140055Z AUTO 00000KT 10SM CLR 06/02 A3022 40 79 -1000 000/00 RMK AO2 SLP233 T00560022 $
63870K0J4 0J420160113200010001/13/16 20:00:31  5-MIN K0J4 140100Z AUTO 00000KT 10SM CLR 05/02 A3021 50 79 -1100 000/00 RMK AO2 $
63870K0J4 0J420160113200510001/13/16 20:05:31  5-MIN K0J4 140105Z AUTO 00000KT 10SM CLR 05/02 A3022 40 79 -1100 000/00 RMK AO2 $
63870K0J4 0J420160113201010001/13/16 20:10:31  5-MIN K0J4 140110Z AUTO 00000KT 10SM CLR 04/02 A3022 40 82 -1100 000/00 RMK AO2 $
63870K0J4 0J420160113201510001/13/16 20:15:31  5-MIN K0J4 140115Z AUTO 00000KT 10SM CLR 06/02 A3022 40 76 -1000 000/00 RMK AO2 $
63870K0J4 0J420160113202009901/13/16 20:20:31  5-MIN K0J4 140120Z AUTO 00000KT 10SM CLR 06/02 A3022 40 73 -900 000/00 RMK AO2 $
63870K0J4 0J420160113202510001/13/16 20:25:31  5-MIN K0J4 140125Z AUTO 00000KT 10SM CLR 06/02 A3022 40 76 -1000 000/00 RMK AO2 $
63870K0J4 0J420160113203009901/13/16 20:30:31  5-MIN K0J4 140130Z AUTO 00000KT 10SM CLR 06/01 A3022 40 70 -900 000/00 RMK AO2 $
63870K0J4 0J420160113203510001/13/16 20:35:31  5-MIN K0J4 140135Z AUTO 00000KT 10SM CLR 04/01 A3022 40 82 -1200 000/00 RMK AO2 $
63870K0J4 0J420160113204010001/13/16 20:40:31  5-MIN K0J4 140140Z AUTO 00000KT 10SM CLR 04/01 A3023 30 82 -1200 000/00 RMK AO2 $
63870K0J4 0J420160113204510001/13/16 20:45:31  5-MIN K0J4 140145Z AUTO 00000KT 10SM CLR 04/01 A3022 40 82 -1200 000/00 RMK AO2 $
63870K0J4 0J420160113205010001/13/16 20:50:31  5-MIN K0J4 140150Z AUTO 00000KT 10SM CLR 04/01 A3022 40 82 -1200 000/00 RMK AO2 $
63870K0J4 0J420160113205511701/13/16 20:55:31  5-MIN K0J4 140155Z AUTO 00000KT 10SM CLR 03/01 A3022 40 85 -1300 000/00 RMK AO2 SLP235 T00330011 $
63870K0J4 0J420160113210010001/13/16 21:00:31  5-MIN K0J4 140200Z AUTO 00000KT 10SM CLR 04/01 A3022 40 82 -1200 000/00 RMK AO2 $
63870K0J4 0J420160113210510001/13/16 21:05:31  5-MIN K0J4 140205Z AUTO 00000KT 10SM CLR 04/01 A3022 40 82 -1200 000/00 RMK AO2 $
63870K0J4 0J420160113211010001/13/16 21:10:31  5-MIN K0J4 140210Z AUTO 00000KT 10SM CLR 04/01 A3023 30 82 -1200 000/00 RMK AO2 $
63870K0J4 0J420160113211510001/13/16 21:15:31  5-MIN K0J4 140215Z AUTO 00000KT 10SM CLR 04/01 A3023 30 82 -1200 000/00 RMK AO2 $
63870K0J4 0J420160113212010001/13/16 21:20:31  5-MIN K0J4 140220Z AUTO 00000KT 10SM CLR 03/01 A3023 30 85 -1300 000/00 RMK AO2 $
63870K0J4 0J420160113212510001/13/16 21:25:31  5-MIN K0J4 140225Z AUTO 00000KT 10SM CLR 03/01 A3023 30 82 -1300 000/00 RMK AO2 $
63870K0J4 0J420160113213010001/13/16 21:30:31  5-MIN K0J4 140230Z AUTO 00000KT 10SM CLR 03/01 A3023 30 85 -1300 000/00 RMK AO2 $
63870K0J4 0J420160113213510001/13/16 21:35:31  5-MIN K0J4 140235Z AUTO 00000KT 10SM CLR 03/01 A3023 30 85 -1300 000/00 RMK AO2 $
63870K0J4 0J420160113214010001/13/16 21:40:31  5-MIN K0J4 140240Z AUTO 00000KT 10SM CLR 03/01 A3023 30 85 -1300 000/00 RMK AO2 $
63870K0J4 0J420160113214510001/13/16 21:45:31  5-MIN K0J4 140245Z AUTO 00000KT 10SM CLR 04/01 A3023 30 82 -1200 000/00 RMK AO2 $
63870K0J4 0J420160113215010001/13/16 21:50:31  5-MIN K0J4 140250Z AUTO 00000KT 10SM CLR 03/01 A3024 30 85 -1300 000/00 RMK AO2 $
63870K0J4 0J420160113215512301/13/16 21:55:31  5-MIN K0J4 140255Z AUTO 00000KT 10SM CLR 03/01 A3023 30 89 -1400 000/00 RMK AO2 SLP237 T00280011 53004 $
63870K0J4 0J420160113220010001/13/16 22:00:31  5-MIN K0J4 140300Z AUTO 21003KT 10SM CLR 03/01 A3023 30 85 -1300 210/03 RMK AO2 $
63870K0J4 0J420160113220510001/13/16 22:05:31  5-MIN K0J4 140305Z AUTO 00000KT 10SM CLR 03/01 A3023 30 89 -1400 000/00 RMK AO2 $
63870K0J4 0J420160113221010001/13/16 22:10:31  5-MIN K0J4 140310Z AUTO 00000KT 10SM CLR 03/01 A3024 20 89 -1400 000/00 RMK AO2 $
63870K0J4 0J420160113221510001/13/16 22:15:31  5-MIN K0J4 140315Z AUTO 00000KT 10SM CLR 03/01 A3024 30 89 -1400 000/00 RMK AO2 $
63870K0J4 0J420160113222010001/13/16 22:20:31  5-MIN K0J4 140320Z AUTO 00000KT 10SM CLR 03/01 A3024 30 89 -1400 000/00 RMK AO2 $
63870K0J4 0J420160113222510001/13/16 22:25:31  5-MIN K0J4 140325Z AUTO 00000KT 10SM CLR 03/01 A3023 30 89 -1400 000/00 RMK AO2 $
63870K0J4 0J420160113223010001/13/16 22:30:31  5-MIN K0J4 140330Z AUTO 22003KT 10SM CLR 03/01 A3024 30 89 -1400 220/03 RMK AO2 $
63870K0J4 0J420160113223510001/13/16 22:35:31  5-MIN K0J4 140335Z AUTO 22003KT 10SM CLR 03/01 A3023 30 89 -1400 220/03 RMK AO2 $
63870K0J4 0J420160113224010001/13/16 22:40:31  5-MIN K0J4 140340Z AUTO 22003KT 10SM CLR 03/01 A3023 30 89 -1400 220/03 RMK AO2 $
63870K0J4 0J420160113224510001/13/16 22:45:31  5-MIN K0J4 140345Z AUTO 00000KT 10SM CLR 03/01 A3023 30 89 -1400 000/00 RMK AO2 $
63870K0J4 0J420160113225010001/13/16 22:50:31  5-MIN K0J4 140350Z AUTO 00000KT 10SM CLR 03/01 A3023 30 89 -1400 000/00 RMK AO2 $
63870K0J4 0J420160113225511701/13/16 22:55:31  5-MIN K0J4 140355Z AUTO 00000KT 10SM CLR 03/01 A3023 30 89 -1400 000/00 RMK AO2 SLP236 T00280011 $
63870K0J4 0J420160113230010001/13/16 23:00:31  5-MIN K0J4 140400Z AUTO 00000KT 10SM CLR 03/01 A3023 30 89 -1400 000/00 RMK AO2 $
63870K0J4 0J420160113230510001/13/16 23:05:31  5-MIN K0J4 140405Z AUTO 00000KT 10SM CLR 02/01 A3023 30 89 -1400 000/00 RMK AO2 $
63870K0J4 0J420160113231010001/13/16 23:10:31  5-MIN K0J4 140410Z AUTO 00000KT 10SM CLR 03/01 A3023 30 82 -1300 000/00 RMK AO2 $
63870K0J4 0J420160113231510001/13/16 23:15:31  5-MIN K0J4 140415Z AUTO 00000KT 10SM CLR 03/01 A3023 30 85 -1300 000/00 RMK AO2 $
63870K0J4 0J420160113232010001/13/16 23:20:31  5-MIN K0J4 140420Z AUTO 00000KT 10SM CLR 03/01 A3023 30 89 -1400 000/00 RMK AO2 $
63870K0J4 0J420160113232510001/13/16 23:25:31  5-MIN K0J4 140425Z AUTO 00000KT 10SM CLR 03/01 A3023 30 85 -1300 000/00 RMK AO2 $
63870K0J4 0J420160113233010001/13/16 23:30:31  5-MIN K0J4 140430Z AUTO 00000KT 10SM CLR 04/01 A3023 30 82 -1200 000/00 RMK AO2 $
63870K0J4 0J420160113233510001/13/16 23:35:31  5-MIN K0J4 140435Z AUTO 00000KT 10SM CLR 04/02 A3023 30 85 -1200 000/00 RMK AO2 $
63870K0J4 0J420160113234010001/13/16 23:40:31  5-MIN K0J4 140440Z AUTO 00000KT 10SM CLR 03/01 A3023 30 85 -1400 000/00 RMK AO2 $
63870K0J4 0J420160113234510001/13/16 23:45:31  5-MIN K0J4 140445Z AUTO 00000KT 10SM CLR 03/01 A3023 30 85 -1300 000/00 RMK AO2 $
63870K0J4 0J420160113235010001/13/16 23:50:31  5-MIN K0J4 140450Z AUTO 00000KT 10SM CLR 03/01 A3023 30 85 -1300 000/00 RMK AO2 $
63870K0J4 0J420160113235512701/13/16 23:55:31  5-MIN K0J4 140455Z AUTO 00000KT 10SM CLR 04/01 A3023 40 82 -1200 000/00 RMK AO2 SLP235 T00390011 401611006 $
63870K0J4 0J420160114000010001/14/16 00:00:31  5-MIN K0J4 140500Z AUTO 00000KT 10SM CLR 03/01 A3022 40 89 -1400 000/00 RMK AO2 $
63870K0J4 0J420160114000510001/14/16 00:05:31  5-MIN K0J4 140505Z AUTO 00000KT 10SM CLR 02/01 A3022 40 89 -1400 000/00 RMK AO2 $
63870K0J4 0J420160114001010001/14/16 00:10:31  5-MIN K0J4 140510Z AUTO 20003KT 10SM CLR 02/01 A3022 40 89 -1400 200/03 RMK AO2 $
63870K0J4 0J420160114001510001/14/16 00:15:31  5-MIN K0J4 140515Z AUTO 21003KT 10SM CLR 04/01 A3022 40 79 -1100 210/03 RMK AO2 $
63870K0J4 0J420160114002010001/14/16 00:20:31  5-MIN K0J4 140520Z AUTO 00000KT 10SM CLR 04/02 A3022 40 85 -1200 000/00 RMK AO2 $
63870K0J4 0J420160114002510001/14/16 00:25:31  5-MIN K0J4 140525Z AUTO 00000KT 10SM CLR 04/02 A3022 40 85 -1200 000/00 RMK AO2 $
63870K0J4 0J420160114003010001/14/16 00:30:31  5-MIN K0J4 140530Z AUTO 00000KT 10SM CLR 04/02 A3022 40 85 -1200 000/00 RMK AO2 $
63870K0J4 0J420160114003510001/14/16 00:35:31  5-MIN K0J4 140535Z AUTO 00000KT 10SM CLR 03/01 A3022 40 89 -1300 000/00 RMK AO2 $
63870K0J4 0J420160114004010001/14/16 00:40:31  5-MIN K0J4 140540Z AUTO 00000KT 10SM CLR 03/01 A3022 40 85 -1300 000/00 RMK AO2 $
63870K0J4 0J420160114004510001/14/16 00:45:31  5-MIN K0J4 140545Z AUTO 00000KT 10SM CLR 03/01 A3021 50 89 -1300 000/00 RMK AO2 $
63870K0J4 0J420160114005010001/14/16 00:50:31  5-MIN K0J4 140550Z AUTO 00000KT 10SM CLR 03/01 A3021 50 85 -1300 000/00 RMK AO2 $
63870K0J4 0J420160114005513501/14/16 00:55:31  5-MIN K0J4 140555Z AUTO 00000KT 10SM CLR 03/01 A3021 50 85 -1300 000/00 RMK AO2 SLP230 T00330011 10078 20022 53006 $
63870K0J4 0J420160114010010001/14/16 01:00:31  5-MIN K0J4 140600Z AUTO 00000KT 10SM CLR 03/02 A3021 50 92 -1300 000/00 RMK AO2 $
63870K0J4 0J420160114010510001/14/16 01:05:31  5-MIN K0J4 140605Z AUTO 00000KT 10SM CLR 02/01 A3021 50 92 -1400 000/00 RMK AO2 $
63870K0J4 0J420160114011010001/14/16 01:10:31  5-MIN K0J4 140610Z AUTO 00000KT 10SM CLR 03/02 A3020 50 92 -1300 000/00 RMK AO2 $
63870K0J4 0J420160114011510001/14/16 01:15:31  5-MIN K0J4 140615Z AUTO 00000KT 10SM CLR 02/01 A3021 50 92 -1400 000/00 RMK AO2 $
63870K0J4 0J420160114012010001/14/16 01:20:31  5-MIN K0J4 140620Z AUTO 00000KT 10SM CLR 02/01 A3021 50 89 -1400 000/00 RMK AO2 $
63870K0J4 0J420160114012510001/14/16 01:25:31  5-MIN K0J4 140625Z AUTO 00000KT 10SM CLR 02/01 A3020 60 89 -1400 000/00 RMK AO2 $
63870K0J4 0J420160114013010001/14/16 01:30:31  5-MIN K0J4 140630Z AUTO 00000KT 10SM CLR 02/01 A3020 60 89 -1400 000/00 RMK AO2 $
63870K0J4 0J420160114013510001/14/16 01:35:31  5-MIN K0J4 140635Z AUTO 00000KT 10SM CLR 02/01 A3020 60 89 -1400 000/00 RMK AO2 $
63870K0J4 0J420160114014010001/14/16 01:40:31  5-MIN K0J4 140640Z AUTO 00000KT 10SM CLR 02/01 A3020 60 89 -1400 000/00 RMK AO2 $
63870K0J4 0J420160114014510001/14/16 01:45:31  5-MIN K0J4 140645Z AUTO 00000KT 10SM CLR 02/01 A3020 60 92 -1400 000/00 RMK AO2 $
63870K0J4 0J420160114015010001/14/16 01:50:31  5-MIN K0J4 140650Z AUTO 00000KT 10SM CLR 02/00 A3020 60 89 -1500 000/00 RMK AO2 $
63870K0J4 0J420160114015511701/14/16 01:55:31  5-MIN K0J4 140655Z AUTO 00000KT 10SM CLR 02/00 A3019 60 89 -1500 000/00 RMK AO2 SLP224 T00170000 $
63870K0J4 0J420160114020010001/14/16 02:00:31  5-MIN K0J4 140700Z AUTO 00000KT 10SM CLR 01/00 A3019 70 92 -1500 000/00 RMK AO2 $
63870K0J4 0J420160114020510001/14/16 02:05:31  5-MIN K0J4 140705Z AUTO 00000KT 10SM CLR 01/00 A3019 70 92 -1500 000/00 RMK AO2 $
63870K0J4 0J420160114021010001/14/16 02:10:31  5-MIN K0J4 140710Z AUTO 00000KT 10SM CLR 01/00 A3019 60 92 -1500 000/00 RMK AO2 $
63870K0J4 0J420160114021510001/14/16 02:15:31  5-MIN K0J4 140715Z AUTO 00000KT 10SM CLR 02/00 A3019 70 89 -1400 000/00 RMK AO2 $
63870K0J4 0J420160114022010001/14/16 02:20:31  5-MIN K0J4 140720Z AUTO 00000KT 10SM CLR 01/00 A3018 70 92 -1500 000/00 RMK AO2 $
63870K0J4 0J420160114022510001/14/16 02:25:31  5-MIN K0J4 140725Z AUTO 00000KT 10SM CLR 01/00 A3018 80 92 -1500 000/00 RMK AO2 $
63870K0J4 0J420160114023010001/14/16 02:30:31  5-MIN K0J4 140730Z AUTO 00000KT 10SM CLR 01/00 A3018 70 92 -1500 000/00 RMK AO2 $
63870K0J4 0J420160114023510001/14/16 02:35:31  5-MIN K0J4 140735Z AUTO 00000KT 10SM CLR 02/00 A3019 70 89 -1400 000/00 RMK AO2 $
63870K0J4 0J420160114024010001/14/16 02:40:31  5-MIN K0J4 140740Z AUTO 00000KT 10SM CLR 01/00 A3018 80 92 -1500 000/00 RMK AO2 $
63870K0J4 0J420160114024510001/14/16 02:45:31  5-MIN K0J4 140745Z AUTO 00000KT 10SM CLR 02/00 A3018 80 89 -1400 000/00 RMK AO2 $
63870K0J4 0J420160114025010001/14/16 02:50:31  5-MIN K0J4 140750Z AUTO 00000KT 10SM CLR 02/01 A3018 80 89 -1400 000/00 RMK AO2 $
63870K0J4 0J420160114025511701/14/16 02:55:31  5-MIN K0J4 140755Z AUTO 00000KT 10SM CLR 02/01 A3018 80 92 -1400 000/00 RMK AO2 SLP218 T00170006 $
63870K0J4 0J420160114030010001/14/16 03:00:31  5-MIN K0J4 140800Z AUTO 00000KT 10SM CLR 02/01 A3018 80 92 -1400 000/00 RMK AO2 $
63870K0J4 0J420160114030510001/14/16 03:05:31  5-MIN K0J4 140805Z AUTO 00000KT 10SM CLR 02/01 A3018 80 92 -1400 000/00 RMK AO2 $
63870K0J4 0J420160114031010001/14/16 03:10:31  5-MIN K0J4 140810Z AUTO 00000KT 10SM CLR 02/01 A3018 80 92 -1400 000/00 RMK AO2 $
63870K0J4 0J420160114031510001/14/16 03:15:31  5-MIN K0J4 140815Z AUTO 00000KT 10SM CLR 02/01 A3018 80 92 -1400 000/00 RMK AO2 $
63870K0J4 0J420160114032010001/14/16 03:20:31  5-MIN K0J4 140820Z AUTO 00000KT 10SM CLR 01/01 A3018 80 96 -1500 000/00 RMK AO2 $
63870K0J4 0J420160114032510001/14/16 03:25:31  5-MIN K0J4 140825Z AUTO 00000KT 10SM CLR 01/00 A3018 80 92 -1500 000/00 RMK AO2 $
63870K0J4 0J420160114033010001/14/16 03:30:31  5-MIN K0J4 140830Z AUTO 00000KT 10SM CLR 02/00 A3017 80 89 -1400 000/00 RMK AO2 $
63870K0J4 0J420160114033510001/14/16 03:35:31  5-MIN K0J4 140835Z AUTO 00000KT 10SM CLR 02/01 A3017 90 92 -1400 000/00 RMK AO2 $
63870K0J4 0J420160114034010001/14/16 03:40:31  5-MIN K0J4 140840Z AUTO 00000KT 10SM CLR 02/01 A3017 90 92 -1400 000/00 RMK AO2 $
63870K0J4 0J420160114034510001/14/16 03:45:31  5-MIN K0J4 140845Z AUTO 00000KT 10SM CLR 02/00 A3017 90 89 -1400 000/00 RMK AO2 $
63870K0J4 0J420160114035010001/14/16 03:50:31  5-MIN K0J4 140850Z AUTO 00000KT 10SM CLR 02/00 A3017 80 89 -1400 000/00 RMK AO2 $
63870K0J4 0J420160114035512301/14/16 03:55:31  5-MIN K0J4 140855Z AUTO 00000KT 10SM CLR 02/01 A3018 80 92 -1400 000/00 RMK AO2 SLP218 T00170006 58007 $
63870K0J4 0J420160114040010001/14/16 04:00:31  5-MIN K0J4 140900Z AUTO 00000KT 10SM CLR 01/01 A3017 80 96 -1500 000/00 RMK AO2 $
63870K0J4 0J420160114040510001/14/16 04:05:31  5-MIN K0J4 140905Z AUTO 00000KT 10SM CLR 01/00 A3018 80 92 -1500 000/00 RMK AO2 $
63870K0J4 0J420160114041010001/14/16 04:10:31  5-MIN K0J4 140910Z AUTO 00000KT 10SM CLR 01/00 A3017 80 92 -1500 000/00 RMK AO2 $
63870K0J4 0J420160114041510001/14/16 04:15:31  5-MIN K0J4 140915Z AUTO 00000KT 10SM CLR 01/00 A3017 80 92 -1500 000/00 RMK AO2 $
63870K0J4 0J420160114042010001/14/16 04:20:31  5-MIN K0J4 140920Z AUTO 00000KT 10SM CLR 01/00 A3017 80 92 -1500 000/00 RMK AO2 $
63870K0J4 0J420160114042510001/14/16 04:25:31  5-MIN K0J4 140925Z AUTO 00000KT 10SM CLR 02/01 A3017 80 92 -1400 000/00 RMK AO2 $
63870K0J4 0J420160114043010001/14/16 04:30:31  5-MIN K0J4 140930Z AUTO 00000KT 10SM CLR 01/01 A3017 80 96 -1500 000/00 RMK AO2 $
63870K0J4 0J420160114043510001/14/16 04:35:31  5-MIN K0J4 140935Z AUTO 00000KT 10SM CLR 01/00 A3017 80 92 -1500 000/00 RMK AO2 $
63870K0J4 0J420160114044010001/14/16 04:40:31  5-MIN K0J4 140940Z AUTO 00000KT 10SM CLR 01/00 A3017 80 92 -1500 000/00 RMK AO2 $
63870K0J4 0J420160114044510001/14/16 04:45:31  5-MIN K0J4 140945Z AUTO 00000KT 10SM CLR 02/00 A3017 80 89 -1400 000/00 RMK AO2 $
63870K0J4 0J420160114045010001/14/16 04:50:31  5-MIN K0J4 140950Z AUTO 00000KT 10SM CLR 01/01 A3017 80 96 -1500 000/00 RMK AO2 $
63870K0J4 0J420160114045511701/14/16 04:55:31  5-MIN K0J4 140955Z AUTO 00000KT 10SM CLR 02/00 A3018 80 89 -1400 000/00 RMK AO2 SLP219 T00170000 $
63870K0J4 0J420160114050010001/14/16 05:00:31  5-MIN K0J4 141000Z AUTO 00000KT 10SM CLR 02/01 A3018 80 89 -1400 000/00 RMK AO2 $
63870K0J4 0J420160114050510001/14/16 05:05:31  5-MIN K0J4 141005Z AUTO 00000KT 10SM CLR 02/01 A3018 80 92 -1400 000/00 RMK AO2 $
63870K0J4 0J420160114051010001/14/16 05:10:31  5-MIN K0J4 141010Z AUTO 00000KT 10SM CLR 02/01 A3017 80 89 -1400 000/00 RMK AO2 $
63870K0J4 0J420160114051510001/14/16 05:15:31  5-MIN K0J4 141015Z AUTO 00000KT 10SM CLR 02/01 A3017 80 92 -1400 000/00 RMK AO2 $
63870K0J4 0J420160114052010001/14/16 05:20:31  5-MIN K0J4 141020Z AUTO 00000KT 10SM CLR 01/00 A3017 80 92 -1500 000/00 RMK AO2 $
63870K0J4 0J420160114052510001/14/16 05:25:31  5-MIN K0J4 141025Z AUTO 00000KT 10SM CLR 01/00 A3017 80 92 -1500 000/00 RMK AO2 $
63870K0J4 0J420160114053010001/14/16 05:30:31  5-MIN K0J4 141030Z AUTO 00000KT 10SM CLR 01/00 A3017 80 96 -1600 000/00 RMK AO2 $
63870K0J4 0J420160114053510101/14/16 05:35:31  5-MIN K0J4 141035Z AUTO 00000KT 10SM CLR 01/M01 A3017 90 92 -1600 000/00 RMK AO2 $
63870K0J4 0J420160114054010101/14/16 05:40:31  5-MIN K0J4 141040Z AUTO 00000KT 10SM CLR 01/M01 A3016 90 89 -1500 000/00 RMK AO2 $
63870K0J4 0J420160114054510101/14/16 05:45:31  5-MIN K0J4 141045Z AUTO 00000KT 10SM CLR 02/01 A3016 100 92 -1400 000/00 RMK AO2 $
63870K0J4 0J420160114055010101/14/16 05:50:31  5-MIN K0J4 141050Z AUTO 00000KT 10SM CLR 02/01 A3015 100 89 -1300 000/00 RMK AO2 $
63870K0J4 0J420160114055511801/14/16 05:55:31  5-MIN K0J4 141055Z AUTO 00000KT 10SM CLR 02/01 A3016 100 92 -1400 000/00 RMK AO2 SLP212 T00170006 $
63870K0J4 0J420160114060010101/14/16 06:00:31  5-MIN K0J4 141100Z AUTO 00000KT 10SM CLR 02/01 A3016 100 89 -1300 000/00 RMK AO2 $
63870K0J4 0J420160114060510101/14/16 06:05:31  5-MIN K0J4 141105Z AUTO 00000KT 10SM CLR 02/01 A3016 100 92 -1400 000/00 RMK AO2 $
63870K0J4 0J420160114061010001/14/16 06:10:31  5-MIN K0J4 141110Z AUTO 00000KT 10SM CLR 01/00 A3016 90 92 -1500 000/00 RMK AO2 $
63870K0J4 0J420160114061510001/14/16 06:15:31  5-MIN K0J4 141115Z AUTO 00000KT 10SM CLR 02/00 A3016 90 89 -1400 000/00 RMK AO2 $
63870K0J4 0J420160114062010001/14/16 06:20:31  5-MIN K0J4 141120Z AUTO 00000KT 10SM CLR 02/01 A3017 90 89 -1400 000/00 RMK AO2 $
63870K0J4 0J420160114062510001/14/16 06:25:31  5-MIN K0J4 141125Z AUTO 00000KT 10SM CLR 03/01 A3017 90 85 -1300 000/00 RMK AO2 $
63870K0J4 0J420160114063010001/14/16 06:30:31  5-MIN K0J4 141130Z AUTO 00000KT 10SM CLR 03/01 A3017 90 85 -1300 000/00 RMK AO2 $
63870K0J4 0J420160114063510001/14/16 06:35:31  5-MIN K0J4 141135Z AUTO 00000KT 10SM CLR 03/01 A3016 90 85 -1300 000/00 RMK AO2 $
63870K0J4 0J420160114064010001/14/16 06:40:31  5-MIN K0J4 141140Z AUTO 00000KT 10SM CLR 03/01 A3016 90 85 -1300 000/00 RMK AO2 $
63870K0J4 0J420160114064510001/14/16 06:45:31  5-MIN K0J4 141145Z AUTO 00000KT 10SM CLR 02/01 A3017 90 89 -1400 000/00 RMK AO2 $
63870K0J4 0J420160114065010001/14/16 06:50:31  5-MIN K0J4 141150Z AUTO 00000KT 10SM CLR 02/01 A3016 90 89 -1400 000/00 RMK AO2 $
63870K0J4 0J420160114065513501/14/16 06:55:31  5-MIN K0J4 141155Z AUTO 00000KT 10SM CLR 03/01 A3016 90 85 -1300 000/00 RMK AO2 SLP214 T00280006 10033 20006 56013 $
63870K0J4 0J420160114070010001/14/16 07:00:31  5-MIN K0J4 141200Z AUTO 00000KT 10SM CLR 02/00 A3016 90 89 -1400 000/00 RMK AO2 $
63870K0J4 0J420160114070510001/14/16 07:05:31  5-MIN K0J4 141205Z AUTO 00000KT 10SM CLR 02/01 A3016 90 89 -1400 000/00 RMK AO2 $
63870K0J4 0J420160114071010001/14/16 07:10:31  5-MIN K0J4 141210Z AUTO 00000KT 10SM CLR 02/01 A3017 90 89 -1400 000/00 RMK AO2 $
63870K0J4 0J420160114071510001/14/16 07:15:31  5-MIN K0J4 141215Z AUTO 00000KT 10SM CLR 02/01 A3017 80 89 -1400 000/00 RMK AO2 $
63870K0J4 0J420160114072010001/14/16 07:20:31  5-MIN K0J4 141220Z AUTO 00000KT 10SM CLR 02/01 A3017 80 89 -1400 000/00 RMK AO2 $
63870K0J4 0J420160114072510001/14/16 07:25:31  5-MIN K0J4 141225Z AUTO 00000KT 10SM CLR 01/00 A3018 80 92 -1500 000/00 RMK AO2 $
63870K0J4 0J420160114073010001/14/16 07:30:31  5-MIN K0J4 141230Z AUTO 00000KT 10SM CLR 02/00 A3018 80 85 -1400 000/00 RMK AO2 $
63870K0J4 0J420160114073510001/14/16 07:35:31  5-MIN K0J4 141235Z AUTO 00000KT 10SM CLR 02/01 A3018 80 89 -1400 000/00 RMK AO2 $
63870K0J4 0J420160114074010001/14/16 07:40:31  5-MIN K0J4 141240Z AUTO 00000KT 10SM CLR 02/00 A3017 80 85 -1400 000/00 RMK AO2 $
63870K0J4 0J420160114074510001/14/16 07:45:31  5-MIN K0J4 141245Z AUTO 00000KT 10SM CLR 02/00 A3017 80 89 -1400 000/00 RMK AO2 $
63870K0J4 0J420160114075010001/14/16 07:50:31  5-MIN K0J4 141250Z AUTO 00000KT 10SM CLR 02/01 A3018 80 92 -1400 000/00 RMK AO2 $
63870K0J4 0J420160114075511701/14/16 07:55:31  5-MIN K0J4 141255Z AUTO 00000KT 10SM CLR 02/00 A3018 80 89 -1400 000/00 RMK AO2 SLP220 T00170000 $
63870K0J4 0J420160114080010001/14/16 08:00:31  5-MIN K0J4 141300Z AUTO 00000KT 10SM CLR 02/01 A3018 80 89 -1400 000/00 RMK AO2 $
63870K0J4 0J420160114080510001/14/16 08:05:31  5-MIN K0J4 141305Z AUTO 00000KT 10SM CLR 02/01 A3017 80 92 -1400 000/00 RMK AO2 $
63870K0J4 0J420160114081010001/14/16 08:10:31  5-MIN K0J4 141310Z AUTO 00000KT 10SM CLR 02/01 A3017 80 89 -1400 000/00 RMK AO2 $
63870K0J4 0J420160114081510001/14/16 08:15:31  5-MIN K0J4 141315Z AUTO 00000KT 10SM CLR 03/01 A3018 80 85 -1300 000/00 RMK AO2 $
63870K0J4 0J420160114082010001/14/16 08:20:31  5-MIN K0J4 141320Z AUTO 00000KT 10SM CLR 03/01 A3017 80 85 -1300 000/00 RMK AO2 $
63870K0J4 0J420160114082509901/14/16 08:25:31  5-MIN K0J4 141325Z AUTO 00000KT 9SM CLR 03/01 A3018 80 85 -1300 000/00 RMK AO2 $
63870K0J4 0J420160114083009901/14/16 08:30:31  5-MIN K0J4 141330Z AUTO 00000KT 8SM CLR 03/01 A3018 80 85 -1200 000/00 RMK AO2 $
63870K0J4 0J420160114083509701/14/16 08:35:31  5-MIN K0J4 141335Z AUTO 00000KT 7SM CLR 03/01 A3018 80 85 -1200 000/00 RMK AO2
63870K0J4 0J420160114084009701/14/16 08:40:31  5-MIN K0J4 141340Z AUTO 05003KT 8SM CLR 04/01 A3018 80 82 -1200 050/03 RMK AO2
63870K0J4 0J420160114084509701/14/16 08:45:31  5-MIN K0J4 141345Z AUTO 00000KT 9SM CLR 04/01 A3018 80 82 -1200 000/00 RMK AO2
63870K0J4 0J420160114085009801/14/16 08:50:31  5-MIN K0J4 141350Z AUTO 07003KT 10SM CLR 04/02 A3019 70 85 -1200 070/03 RMK AO2
63870K0J4 0J420160114085511501/14/16 08:55:31  5-MIN K0J4 141355Z AUTO 00000KT 10SM CLR 04/02 A3018 70 82 -1100 000/00 RMK AO2 SLP222 T00440017
63870K0J4 0J420160114090009801/14/16 09:00:31  5-MIN K0J4 141400Z AUTO 08003KT 10SM CLR 04/02 A3019 70 82 -1100 080/03 RMK AO2
63870K0J4 0J420160114090509801/14/16 09:05:31  5-MIN K0J4 141405Z AUTO 00000KT 10SM CLR 04/02 A3019 70 82 -1100 000/00 RMK AO2
63870K0J4 0J420160114091009801/14/16 09:10:31  5-MIN K0J4 141410Z AUTO 00000KT 10SM CLR 04/02 A3019 70 82 -1100 000/00 RMK AO2
63870K0J4 0J420160114091509801/14/16 09:15:31  5-MIN K0J4 141415Z AUTO 00000KT 10SM CLR 04/02 A3020 60 82 -1100 000/00 RMK AO2
63870K0J4 0J420160114092009801/14/16 09:20:31  5-MIN K0J4 141420Z AUTO 08004KT 10SM CLR 04/02 A3020 60 82 -1100 080/04 RMK AO2
63870K0J4 0J420160114092509801/14/16 09:25:31  5-MIN K0J4 141425Z AUTO 00000KT 10SM CLR 04/02 A3020 60 82 -1100 000/00 RMK AO2
63870K0J4 0J420160114093009801/14/16 09:30:31  5-MIN K0J4 141430Z AUTO 08003KT 10SM CLR 05/02 A3020 50 82 -1100 080/03 RMK AO2
63870K0J4 0J420160114093509801/14/16 09:35:31  5-MIN K0J4 141435Z AUTO 09004KT 10SM CLR 06/02 A3021 50 79 -1000 090/04 RMK AO2
63870K0J4 0J420160114094009801/14/16 09:40:31  5-MIN K0J4 141440Z AUTO 09003KT 10SM CLR 06/02 A3021 50 79 -1000 090/03 RMK AO2
63870K0J4 0J420160114094509801/14/16 09:45:31  5-MIN K0J4 141445Z AUTO 00000KT 10SM CLR 06/02 A3021 50 79 -1000 000/00 RMK AO2
63870K0J4 0J420160114095009701/14/16 09:50:31  5-MIN K0J4 141450Z AUTO 00000KT 10SM CLR 06/03 A3021 50 79 -900 000/00 RMK AO2
63870K0J4 0J420160114095512001/14/16 09:55:31  5-MIN K0J4 141455Z AUTO 00000KT 10SM CLR 06/03 A3021 50 79 -900 000/00 RMK AO2 SLP230 T00610028 58004
63870K0J4 0J420160114100009701/14/16 10:00:31  5-MIN K0J4 141500Z AUTO 12003KT 10SM CLR 06/03 A3021 40 79 -900 120/03 RMK AO2
63870K0J4 0J420160114100509701/14/16 10:05:31  5-MIN K0J4 141505Z AUTO VRB03KT 10SM CLR 07/03 A3022 40 76 -900 VRB/03 RMK AO2
63870K0J4 0J420160114101009701/14/16 10:10:31  5-MIN K0J4 141510Z AUTO 00000KT 10SM CLR 07/03 A3022 40 76 -900 000/00 RMK AO2
63870K0J4 0J420160114101509701/14/16 10:15:31  5-MIN K0J4 141515Z AUTO 00000KT 10SM CLR 07/03 A3022 40 79 -900 000/00 RMK AO2
63870K0J4 0J420160114102009701/14/16 10:20:31  5-MIN K0J4 141520Z AUTO 12003KT 10SM CLR 07/03 A3022 40 73 -800 120/03 RMK AO2
63870K0J4 0J420160114102509701/14/16 10:25:31  5-MIN K0J4 141525Z AUTO 10003KT 10SM CLR 07/03 A3021 50 73 -800 100/03 RMK AO2
63870K0J4 0J420160114103009701/14/16 10:30:31  5-MIN K0J4 141530Z AUTO 08003KT 10SM CLR 08/03 A3021 50 73 -700 080/03 RMK AO2
63870K0J4 0J420160114103509701/14/16 10:35:31  5-MIN K0J4 141535Z AUTO 00000KT 10SM CLR 08/03 A3021 50 70 -700 000/00 RMK AO2
63870K0J4 0J420160114104009701/14/16 10:40:31  5-MIN K0J4 141540Z AUTO 11004KT 10SM CLR 08/03 A3021 50 70 -700 110/04 RMK AO2
63870K0J4 0J420160114104509701/14/16 10:45:31  5-MIN K0J4 141545Z AUTO 11003KT 10SM CLR 08/03 A3021 50 70 -700 110/03 RMK AO2
63870K0J4 0J420160114105009701/14/16 10:50:31  5-MIN K0J4 141550Z AUTO 10003KT 10SM CLR 08/03 A3020 60 70 -700 100/03 RMK AO2
63870K0J4 0J420160114105511401/14/16 10:55:31  5-MIN K0J4 141555Z AUTO 00000KT 10SM CLR 08/03 A3020 60 70 -600 000/00 RMK AO2 SLP227 T00830033
63870K0J4 0J420160114110009701/14/16 11:00:31  5-MIN K0J4 141600Z AUTO 11004KT 10SM CLR 08/03 A3019 60 68 -600 110/04 RMK AO2
63870K0J4 0J420160114110509701/14/16 11:05:31  5-MIN K0J4 141605Z AUTO 10004KT 10SM CLR 08/03 A3019 70 68 -600 100/04 RMK AO2
63870K0J4 0J420160114111009701/14/16 11:10:31  5-MIN K0J4 141610Z AUTO 00000KT 10SM CLR 09/03 A3019 70 65 -600 000/00 RMK AO2
63870K0J4 0J420160114111509701/14/16 11:15:31  5-MIN K0J4 141615Z AUTO 11005KT 10SM CLR 09/03 A3019 70 68 -600 110/05 RMK AO2
63870K0J4 0J420160114112009701/14/16 11:20:31  5-MIN K0J4 141620Z AUTO VRB03KT 10SM CLR 09/03 A3019 70 65 -600 VRB/03 RMK AO2
63870K0J4 0J420160114112509701/14/16 11:25:31  5-MIN K0J4 141625Z AUTO 09003KT 10SM CLR 09/03 A3018 80 63 -500 090/03 RMK AO2
63870K0J4 0J420160114113009701/14/16 11:30:31  5-MIN K0J4 141630Z AUTO VRB04KT 10SM CLR 09/03 A3017 80 65 -500 VRB/04 RMK AO2
63870K0J4 0J420160114113509701/14/16 11:35:31  5-MIN K0J4 141635Z AUTO VRB04KT 10SM CLR 09/03 A3018 80 65 -500 VRB/04 RMK AO2
63870K0J4 0J420160114114009701/14/16 11:40:31  5-MIN K0J4 141640Z AUTO 10005KT 10SM CLR 09/03 A3018 80 63 -500 100/05 RMK AO2
63870K0J4 0J420160114114509701/14/16 11:45:31  5-MIN K0J4 141645Z AUTO 00000KT 10SM CLR 09/03 A3018 80 63 -500 000/00 RMK AO2
63870K0J4 0J420160114115009701/14/16 11:50:31  5-MIN K0J4 141650Z AUTO 00000KT 10SM CLR 09/03 A3018 70 65 -500 000/00 RMK AO2
63870K0J4 0J420160114115511401/14/16 11:55:31  5-MIN K0J4 141655Z AUTO 12004KT 10SM CLR 09/03 A3018 80 63 -500 120/04 RMK AO2 SLP219 T00940028
63870K0J4 0J420160114120009701/14/16 12:00:31  5-MIN K0J4 141700Z AUTO 09003KT 10SM CLR 10/03 A3018 80 60 -400 090/03 RMK AO2
63870K0J4 0J420160114120509701/14/16 12:05:31  5-MIN K0J4 141705Z AUTO 00000KT 10SM CLR 10/03 A3018 80 60 -400 000/00 RMK AO2
63870K0J4 0J420160114121009701/14/16 12:10:31  5-MIN K0J4 141710Z AUTO 00000KT 10SM CLR 10/03 A3017 80 60 -400 000/00 RMK AO2
63870K0J4 0J420160114121509701/14/16 12:15:31  5-MIN K0J4 141715Z AUTO 11003KT 10SM CLR 10/03 A3017 90 60 -400 110/03 RMK AO2
63870K0J4 0J420160114122009701/14/16 12:20:31  5-MIN K0J4 141720Z AUTO 09004KT 10SM CLR 10/03 A3016 90 60 -400 090/04 RMK AO2
63870K0J4 0J420160114122509701/14/16 12:25:31  5-MIN K0J4 141725Z AUTO 12003KT 10SM CLR 10/03 A3016 90 60 -400 120/03 RMK AO2
63870K0J4 0J420160114123009801/14/16 12:30:31  5-MIN K0J4 141730Z AUTO 14004KT 10SM CLR 11/03 A3016 100 58 -300 140/04 RMK AO2
63870K0J4 0J420160114123509801/14/16 12:35:31  5-MIN K0J4 141735Z AUTO VRB03KT 10SM CLR 11/03 A3016 100 58 -300 VRB/03 RMK AO2
63870K0J4 0J420160114124009801/14/16 12:40:31  5-MIN K0J4 141740Z AUTO 12004KT 10SM CLR 11/03 A3016 100 56 -300 120/04 RMK AO2
63870K0J4 0J420160114124509801/14/16 12:45:31  5-MIN K0J4 141745Z AUTO VRB03KT 10SM CLR 12/03 A3015 100 54 -200 VRB/03 RMK AO2
63870K0J4 0J420160114125009801/14/16 12:50:31  5-MIN K0J4 141750Z AUTO 14005KT 10SM CLR 12/02 A3015 100 52 -200 140/05 RMK AO2
63870K0J4 0J420160114125513301/14/16 12:55:31  5-MIN K0J4 141755Z AUTO VRB03KT 10SM CLR 12/02 A3015 100 50 -100 VRB/03 RMK AO2 SLP209 T01220022 10122 20011 53018
63870K0J4 0J420160114130009501/14/16 13:00:31  5-MIN K0J4 141800Z AUTO 12004KT 10SM CLR 13/02 A3015 110 48 0 120/04 RMK AO2
63870K0J4 0J420160114130509501/14/16 13:05:31  5-MIN K0J4 141805Z AUTO VRB04KT 10SM CLR 13/02 A3014 110 48 0 VRB/04 RMK AO2
63870K0J4 0J420160114131009501/14/16 13:10:31  5-MIN K0J4 141810Z AUTO 12004KT 10SM CLR 13/02 A3014 110 46 0 120/04 RMK AO2
63870K0J4 0J420160114131509501/14/16 13:15:31  5-MIN K0J4 141815Z AUTO VRB04KT 10SM CLR 13/02 A3014 120 46 0 VRB/04 RMK AO2
63870K0J4 0J420160114132009701/14/16 13:20:31  5-MIN K0J4 141820Z AUTO VRB03KT 10SM CLR 14/02 A3013 120 43 100 VRB/03 RMK AO2
63870K0J4 0J420160114132509501/14/16 13:25:31  5-MIN K0J4 141825Z AUTO VRB04KT 10SM CLR 13/01 A3013 120 43 0 VRB/04 RMK AO2
63870K0J4 0J420160114133009701/14/16 13:30:31  5-MIN K0J4 141830Z AUTO 09005KT 10SM CLR 14/01 A3013 130 41 100 090/05 RMK AO2
63870K0J4 0J420160114133509701/14/16 13:35:31  5-MIN K0J4 141835Z AUTO VRB04KT 10SM CLR 14/02 A3013 130 41 100 VRB/04 RMK AO2
63870K0J4 0J420160114134009701/14/16 13:40:31  5-MIN K0J4 141840Z AUTO VRB03KT 10SM CLR 14/02 A3013 130 41 100 VRB/03 RMK AO2
63870K0J4 0J420160114134509701/14/16 13:45:31  5-MIN K0J4 141845Z AUTO 00000KT 10SM CLR 15/01 A3012 130 38 200 000/00 RMK AO2
63870K0J4 0J420160114135009701/14/16 13:50:31  5-MIN K0J4 141850Z AUTO VRB03KT 10SM CLR 14/01 A3012 140 38 100 VRB/03 RMK AO2
63870K0J4 0J420160114135511401/14/16 13:55:31  5-MIN K0J4 141855Z AUTO 00000KT 10SM CLR 14/01 A3011 140 38 100 000/00 RMK AO2 SLP196 T01440006
63870K0J4 0J420160114140009701/14/16 14:00:31  5-MIN K0J4 141900Z AUTO 17004KT 10SM CLR 15/01 A3011 140 38 200 170/04 RMK AO2
63870K0J4 0J420160114140509701/14/16 14:05:31  5-MIN K0J4 141905Z AUTO 17004KT 10SM CLR 14/01 A3011 140 40 100 170/04 RMK AO2
63870K0J4 0J420160114141008901/14/16 14:10:31  5-MIN K0J4 141910Z AUTO 10SM CLR 14/01 A3012 140 38 100 M /M RMK AO2 $
63870K0J4 0J420160114141508901/14/16 14:15:31  5-MIN K0J4 141915Z AUTO 10SM CLR 14/01 A3012 140 40 100 M /M RMK AO2 $
63870K0J4 0J420160114142008901/14/16 14:20:31  5-MIN K0J4 141920Z AUTO 10SM CLR 14/01 A3011 140 40 100 M /M RMK AO2 $
63870K0J4 0J420160114142508901/14/16 14:25:31  5-MIN K0J4 141925Z AUTO 10SM CLR 14/01 A3011 150 40 200 M /M RMK AO2 $
63870K0J4 0J420160114143008901/14/16 14:30:31  5-MIN K0J4 141930Z AUTO 10SM CLR 14/01 A3010 150 40 200 M /M RMK AO2 $
63870K0J4 0J420160114143509701/14/16 14:35:31  5-MIN K0J4 141935Z AUTO 14003KT 10SM CLR 15/02 A3009 160 40 200 140/03 RMK AO2
63870K0J4 0J420160114144009701/14/16 14:40:31  5-MIN K0J4 141940Z AUTO 18005KT 10SM CLR 14/01 A3009 160 40 200 180/05 RMK AO2
63870K0J4 0J420160114144509701/14/16 14:45:31  5-MIN K0J4 141945Z AUTO 18008KT 10SM CLR 14/01 A3009 160 38 200 180/08 RMK AO2
63870K0J4 0J420160114145009701/14/16 14:50:31  5-MIN K0J4 141950Z AUTO 18006KT 10SM CLR 14/01 A3009 160 38 200 180/06 RMK AO2
63870K0J4 0J420160114145511401/14/16 14:55:31  5-MIN K0J4 141955Z AUTO 17006KT 10SM CLR 14/01 A3009 160 38 200 170/06 RMK AO2 SLP188 T01440006
63870K0J4 0J420160114150009701/14/16 15:00:31  5-MIN K0J4 142000Z AUTO 18006KT 10SM CLR 15/01 A3009 160 38 200 180/06 RMK AO2
63870K0J4 0J420160114150509701/14/16 15:05:31  5-MIN K0J4 142005Z AUTO 17006KT 10SM CLR 14/00 A3008 170 37 200 170/06 RMK AO2
63870K0J4 0J420160114151009701/14/16 15:10:31  5-MIN K0J4 142010Z AUTO 17006KT 10SM CLR 14/01 A3008 160 40 200 170/06 RMK AO2
63870K0J4 0J420160114151509701/14/16 15:15:31  5-MIN K0J4 142015Z AUTO 17006KT 10SM CLR 14/01 A3008 170 40 100 170/06 RMK AO2
63870K0J4 0J420160114152009701/14/16 15:20:31  5-MIN K0J4 142020Z AUTO 17004KT 10SM CLR 14/01 A3008 160 40 100 170/04 RMK AO2
63870K0J4 0J420160114152509701/14/16 15:25:31  5-MIN K0J4 142025Z AUTO 18005KT 10SM CLR 14/01 A3009 160 40 100 180/05 RMK AO2
63870K0J4 0J420160114153009701/14/16 15:30:31  5-MIN K0J4 142030Z AUTO 17005KT 10SM CLR 14/01 A3009 160 40 100 170/05 RMK AO2
63870K0J4 0J420160114153509701/14/16 15:35:31  5-MIN K0J4 142035Z AUTO 16004KT 10SM CLR 14/01 A3008 170 41 100 160/04 RMK AO2
63870K0J4 0J420160114154009701/14/16 15:40:31  5-MIN K0J4 142040Z AUTO 12005KT 10SM CLR 14/01 A3008 170 41 100 120/05 RMK AO2
63870K0J4 0J420160114154509701/14/16 15:45:31  5-MIN K0J4 142045Z AUTO 16004KT 10SM CLR 14/01 A3008 170 40 100 160/04 RMK AO2
63870K0J4 0J420160114155009701/14/16 15:50:31  5-MIN K0J4 142050Z AUTO 13004KT 10SM CLR 14/01 A3007 170 41 100 130/04 RMK AO2
63870K0J4 0J420160114155512001/14/16 15:55:31  5-MIN K0J4 142055Z AUTO 16004KT 10SM CLR 14/01 A3007 170 41 100 160/04 RMK AO2 SLP183 T01390011 58022
63870K0J4 0J420160114160009701/14/16 16:00:31  5-MIN K0J4 142100Z AUTO 17003KT 10SM CLR 14/02 A3007 180 43 100 170/03 RMK AO2
63870K0J4 0J420160114160509701/14/16 16:05:31  5-MIN K0J4 142105Z AUTO 16004KT 10SM CLR 14/02 A3007 180 43 100 160/04 RMK AO2
63870K0J4 0J420160114161009701/14/16 16:10:31  5-MIN K0J4 142110Z AUTO 16003KT 10SM CLR 14/02 A3007 180 45 100 160/03 RMK AO2
63870K0J4 0J420160114161509701/14/16 16:15:31  5-MIN K0J4 142115Z AUTO 15004KT 10SM CLR 14/02 A3008 170 45 100 150/04 RMK AO2
63870K0J4 0J420160114162009701/14/16 16:20:31  5-MIN K0J4 142120Z AUTO 00000KT 10SM CLR 14/02 A3007 170 45 100 000/00 RMK AO2
63870K0J4 0J420160114162509701/14/16 16:25:31  5-MIN K0J4 142125Z AUTO 12003KT 10SM CLR 13/03 A3007 180 48 100 120/03 RMK AO2
63870K0J4 0J420160114163009701/14/16 16:30:31  5-MIN K0J4 142130Z AUTO 00000KT 10SM CLR 13/03 A3007 180 48 100 000/00 RMK AO2
63870K0J4 0J420160114163509701/14/16 16:35:31  5-MIN K0J4 142135Z AUTO 11003KT 10SM CLR 13/03 A3007 180 48 100 110/03 RMK AO2
63870K0J4 0J420160114164009701/14/16 16:40:31  5-MIN K0J4 142140Z AUTO 00000KT 10SM CLR 13/02 A3007 180 46 100 000/00 RMK AO2
63870K0J4 0J420160114164509501/14/16 16:45:31  5-MIN K0J4 142145Z AUTO 12003KT 10SM CLR 13/03 A3007 180 50 0 120/03 RMK AO2
63870K0J4 0J420160114165009501/14/16 16:50:31  5-MIN K0J4 142150Z AUTO 11003KT 10SM CLR 13/03 A3007 180 50 0 110/03 RMK AO2
63870K0J4 0J420160114165511201/14/16 16:55:31  5-MIN K0J4 142155Z AUTO 00000KT 10SM CLR 13/03 A3006 180 50 0 000/00 RMK AO2 SLP180 T01280028
63870K0J4 0J420160114170009501/14/16 17:00:31  5-MIN K0J4 142200Z AUTO 00000KT 10SM CLR 13/03 A3006 190 52 0 000/00 RMK AO2
63870K0J4 0J420160114170509501/14/16 17:05:31  5-MIN K0J4 142205Z AUTO 12003KT 10SM CLR 12/03 A3006 190 54 0 120/03 RMK AO2
63870K0J4 0J420160114171009501/14/16 17:10:31  5-MIN K0J4 142210Z AUTO 00000KT 10SM CLR 12/03 A3006 190 52 0 000/00 RMK AO2
63870K0J4 0J420160114171509501/14/16 17:15:31  5-MIN K0J4 142215Z AUTO 14003KT 10SM CLR 12/03 A3006 180 52 0 140/03 RMK AO2
63870K0J4 0J420160114172009801/14/16 17:20:31  5-MIN K0J4 142220Z AUTO 00000KT 10SM CLR 12/03 A3006 180 56 -100 000/00 RMK AO2
63870K0J4 0J420160114172509801/14/16 17:25:31  5-MIN K0J4 142225Z AUTO 10003KT 10SM CLR 12/03 A3006 190 56 -100 100/03 RMK AO2
63870K0J4 0J420160114173009801/14/16 17:30:31  5-MIN K0J4 142230Z AUTO 12003KT 10SM CLR 12/03 A3006 190 56 -100 120/03 RMK AO2
63870K0J4 0J420160114173509801/14/16 17:35:31  5-MIN K0J4 142235Z AUTO VRB03KT 10SM CLR 12/03 A3006 190 54 -100 VRB/03 RMK AO2
63870K0J4 0J420160114174009801/14/16 17:40:31  5-MIN K0J4 142240Z AUTO 00000KT 10SM CLR 12/03 A3006 190 54 -100 000/00 RMK AO2
63870K0J4 0J420160114174509801/14/16 17:45:31  5-MIN K0J4 142245Z AUTO 00000KT 10SM CLR 12/03 A3006 190 54 -100 000/00 RMK AO2
63870K0J4 0J420160114175009801/14/16 17:50:31  5-MIN K0J4 142250Z AUTO 00000KT 10SM CLR 12/03 A3006 190 54 -100 000/00 RMK AO2
63870K0J4 0J420160114175511501/14/16 17:55:31  5-MIN K0J4 142255Z AUTO 00000KT 10SM CLR 11/03 A3006 190 56 -100 000/00 RMK AO2 SLP178 T01110028
63870K0J4 0J420160114180009801/14/16 18:00:31  5-MIN K0J4 142300Z AUTO 00000KT 10SM CLR 11/03 A3006 190 56 -100 000/00 RMK AO2
63870K0J4 0J420160114180509801/14/16 18:05:31  5-MIN K0J4 142305Z AUTO 09003KT 10SM CLR 11/03 A3005 200 56 -100 090/03 RMK AO2
63870K0J4 0J420160114181009801/14/16 18:10:31  5-MIN K0J4 142310Z AUTO 07004KT 10SM CLR 11/03 A3004 210 56 -100 070/04 RMK AO2
63870K0J4 0J420160114181510501/14/16 18:15:31  5-MIN K0J4 142315Z AUTO 08005KT 10SM CLR 11/03 A3003 210 56 -100 080/05 RMK AO2 PRESFR
63870K0J4 0J420160114182009801/14/16 18:20:31  5-MIN K0J4 142320Z AUTO 09003KT 10SM CLR 11/03 A3003 210 56 -100 090/03 RMK AO2
63870K0J4 0J420160114182509801/14/16 18:25:31  5-MIN K0J4 142325Z AUTO 08005KT 10SM CLR 11/03 A3003 220 58 -200 080/05 RMK AO2
63870K0J4 0J420160114183009801/14/16 18:30:31  5-MIN K0J4 142330Z AUTO 09005KT 10SM CLR 11/03 A3003 220 58 -200 090/05 RMK AO2
63870K0J4 0J420160114183509801/14/16 18:35:31  5-MIN K0J4 142335Z AUTO 09004KT 10SM CLR 11/03 A3003 210 58 -200 090/04 RMK AO2
63870K0J4 0J420160114184009801/14/16 18:40:31  5-MIN K0J4 142340Z AUTO 00000KT 10SM CLR 11/03 A3003 210 58 -200 000/00 RMK AO2
63870K0J4 0J420160114184509801/14/16 18:45:31  5-MIN K0J4 142345Z AUTO 00000KT 10SM CLR 11/03 A3004 210 58 -200 000/00 RMK AO2
63870K0J4 0J420160114185009801/14/16 18:50:31  5-MIN K0J4 142350Z AUTO 09003KT 10SM CLR 11/03 A3004 210 58 -200 090/03 RMK AO2
63870K0J4 0J420160114185513301/14/16 18:55:31  5-MIN K0J4 142355Z AUTO 11003KT 10SM CLR 11/02 A3004 210 56 -200 110/03 RMK AO2 SLP171 T01060022 10150 20106 56025
63870K0J4 0J420160114190009801/14/16 19:00:31  5-MIN K0J4 150000Z AUTO 00000KT 10SM CLR 11/03 A3004 210 58 -200 000/00 RMK AO2
63870K0J4 0J420160114190509801/14/16 19:05:31  5-MIN K0J4 150005Z AUTO 00000KT 10SM CLR 11/03 A3004 210 58 -200 000/00 RMK AO2
63870K0J4 0J420160114191009801/14/16 19:10:31  5-MIN K0J4 150010Z AUTO 00000KT 10SM CLR 10/03 A3004 210 60 -300 000/00 RMK AO2
63870K0J4 0J420160114191509801/14/16 19:15:31  5-MIN K0J4 150015Z AUTO 00000KT 10SM CLR 09/03 A3004 210 65 -300 000/00 RMK AO2
63870K0J4 0J420160114192009801/14/16 19:20:31  5-MIN K0J4 150020Z AUTO 00000KT 10SM CLR 09/03 A3004 200 65 -300 000/00 RMK AO2
63870K0J4 0J420160114192509801/14/16 19:25:31  5-MIN K0J4 150025Z AUTO 00000KT 10SM CLR 10/03 A3004 200 60 -300 000/00 RMK AO2
63870K0J4 0J420160114193009801/14/16 19:30:31  5-MIN K0J4 150030Z AUTO 00000KT 10SM CLR 10/03 A3004 200 60 -300 000/00 RMK AO2
63870K0J4 0J420160114193509801/14/16 19:35:31  5-MIN K0J4 150035Z AUTO 00000KT 10SM CLR 10/03 A3004 200 60 -300 000/00 RMK AO2
63870K0J4 0J420160114194009801/14/16 19:40:31  5-MIN K0J4 150040Z AUTO 00000KT 10SM CLR 10/03 A3004 200 60 -300 000/00 RMK AO2
63870K0J4 0J420160114205010101/14/16 20:50:31  5-MIN K0J4 150150Z AUTO 07005KT 10SM BKN080 10/03 A3003 210 60 -200 070/05 RMK AO2
63870K0J4 0J420160114205511801/14/16 20:55:31  5-MIN K0J4 150155Z AUTO 07004KT 10SM OVC080 09/03 A3003 210 65 -300 070/04 RMK AO2 SLP168 T00940033
63870K0J4 0J420160114210010101/14/16 21:00:31  5-MIN K0J4 150200Z AUTO 08003KT 10SM OVC075 09/03 A3003 210 65 -300 080/03 RMK AO2
63870K0J4 0J420160114210510101/14/16 21:05:31  5-MIN K0J4 150205Z AUTO 10003KT 10SM OVC075 09/03 A3003 210 65 -300 100/03 RMK AO2
63870K0J4 0J420160114211010801/14/16 21:10:31  5-MIN K0J4 150210Z AUTO 10003KT 10SM BKN075 OVC100 09/03 A3002 220 65 -300 100/03 RMK AO2
63870K0J4 0J420160114211510801/14/16 21:15:31  5-MIN K0J4 150215Z AUTO 09003KT 10SM BKN075 OVC100 09/03 A3002 220 65 -300 090/03 RMK AO2
63870K0J4 0J420160114212012401/14/16 21:20:31  5-MIN K0J4 150220Z AUTO 00000KT 10SM -RA BKN075 OVC100 09/03 A3002 220 65 -300 000/00 RMK AO2 RAB16 P0000
63870K0J4 0J420160114212512301/14/16 21:25:31  5-MIN K0J4 150225Z AUTO 00000KT 10SM BKN070 OVC100 09/03 A3002 220 65 -300 000/00 RMK AO2 RAB16E25 P0000
63870K0J4 0J420160114213012301/14/16 21:30:31  5-MIN K0J4 150230Z AUTO 00000KT 10SM BKN070 OVC100 09/03 A3002 220 65 -300 000/00 RMK AO2 RAB16E25 P0000
63870K0J4 0J420160114213512301/14/16 21:35:31  5-MIN K0J4 150235Z AUTO 00000KT 10SM BKN070 OVC100 09/03 A3002 220 65 -300 000/00 RMK AO2 RAB16E25 P0000
63870K0J4 0J420160114214011601/14/16 21:40:31  5-MIN K0J4 150240Z AUTO VRB03KT 10SM OVC075 09/03 A3002 220 65 -300 VRB/03 RMK AO2 RAB16E25 P0000
63870K0J4 0J420160114214511601/14/16 21:45:31  5-MIN K0J4 150245Z AUTO 13003KT 10SM OVC075 09/03 A3002 220 65 -300 130/03 RMK AO2 RAB16E25 P0000
63870K0J4 0J420160114215011601/14/16 21:50:31  5-MIN K0J4 150250Z AUTO 00000KT 10SM OVC075 09/03 A3002 220 65 -300 000/00 RMK AO2 RAB16E25 P0000
63870K0J4 0J420160114215514501/14/16 21:55:31  5-MIN K0J4 150255Z AUTO 00000KT 10SM OVC075 09/03 A3002 230 65 -300 000/00 RMK AO2 RAB16E25 SLP164 P0000 60000 T00940033 58012
63870K0J4 0J420160114220010101/14/16 22:00:31  5-MIN K0J4 150300Z AUTO 13003KT 10SM OVC075 09/03 A3002 230 65 -300 130/03 RMK AO2
63870K0J4 0J420160114220510101/14/16 22:05:31  5-MIN K0J4 150305Z AUTO VRB03KT 10SM OVC075 09/03 A3001 230 65 -300 VRB/03 RMK AO2
63870K0J4 0J420160114221010101/14/16 22:10:31  5-MIN K0J4 150310Z AUTO 12003KT 10SM OVC075 09/03 A3001 230 65 -300 120/03 RMK AO2
63870K0J4 0J420160114221510101/14/16 22:15:31  5-MIN K0J4 150315Z AUTO 12004KT 10SM OVC075 09/03 A3001 230 65 -300 120/04 RMK AO2
63870K0J4 0J420160114222011701/14/16 22:20:31  5-MIN K0J4 150320Z AUTO 12003KT 10SM -RA OVC075 09/03 A3001 240 65 -300 120/03 RMK AO2 RAB19 P0000
63870K0J4 0J420160114222511701/14/16 22:25:31  5-MIN K0J4 150325Z AUTO 11004KT 10SM -RA OVC080 09/03 A3000 240 65 -300 110/04 RMK AO2 RAB19 P0000
63870K0J4 0J420160114223011701/14/16 22:30:31  5-MIN K0J4 150330Z AUTO 11004KT 10SM -RA OVC080 09/04 A3000 250 71 -300 110/04 RMK AO2 RAB19 P0000
63870K0J4 0J420160114223513101/14/16 22:35:31  5-MIN K0J4 150335Z AUTO 09004KT 10SM -RA SCT075 BKN090 OVC110 09/04 A2999 250 73 -300 090/04 RMK AO2 RAB19 P0000
63870K0J4 0J420160114224012401/14/16 22:40:31  5-MIN K0J4 150340Z AUTO 10004KT 10SM -RA SCT080 OVC100 09/04 A2999 250 73 -300 100/04 RMK AO2 RAB19 P0000
63870K0J4 0J420160114224511601/14/16 22:45:31  5-MIN K0J4 150345Z AUTO 11004KT 10SM OVC095 09/04 A2999 260 73 -300 110/04 RMK AO2 RAB19E43 P0000
63870K0J4 0J420160114225011601/14/16 22:50:31  5-MIN K0J4 150350Z AUTO 12004KT 10SM OVC100 09/04 A2998 260 73 -300 120/04 RMK AO2 RAB19E43 P0000
63870K0J4 0J420160114225513301/14/16 22:55:31  5-MIN K0J4 150355Z AUTO 11007KT 10SM OVC100 09/04 A2998 260 73 -300 110/07 RMK AO2 RAB19E43 SLP150 P0000 T00890044
63870K0J4 0J420160114230010801/14/16 23:00:31  5-MIN K0J4 150400Z AUTO 10005KT 10SM OVC100 09/04 A2997 270 73 -300 100/05 RMK AO2 PRESFR
63870K0J4 0J420160114230510801/14/16 23:05:31  5-MIN K0J4 150405Z AUTO 10005KT 10SM OVC100 09/04 A2996 280 73 -300 100/05 RMK AO2 PRESFR
63870K0J4 0J420160114231010101/14/16 23:10:31  5-MIN K0J4 150410Z AUTO VRB04KT 10SM OVC095 09/04 A2996 280 71 -300 VRB/04 RMK AO2
63870K0J4 0J420160114231511701/14/16 23:15:31  5-MIN K0J4 150415Z AUTO VRB04KT 10SM -RA OVC095 09/04 A2996 280 73 -300 VRB/04 RMK AO2 RAB11 P0000
63870K0J4 0J420160114232011701/14/16 23:20:31  5-MIN K0J4 150420Z AUTO 10005KT 10SM -RA OVC095 09/04 A2996 280 71 -300 100/05 RMK AO2 RAB11 P0000
63870K0J4 0J420160114232511701/14/16 23:25:31  5-MIN K0J4 150425Z AUTO 09006KT 10SM -RA OVC095 09/04 A2995 290 71 -300 090/06 RMK AO2 RAB11 P0000
63870K0J4 0J420160114233011701/14/16 23:30:31  5-MIN K0J4 150430Z AUTO 10005KT 10SM -RA OVC100 09/04 A2995 290 71 -300 100/05 RMK AO2 RAB11 P0000
63870K0J4 0J420160114233511701/14/16 23:35:31  5-MIN K0J4 150435Z AUTO 11005KT 10SM -RA OVC100 09/04 A2995 290 71 -300 110/05 RMK AO2 RAB11 P0000
63870K0J4 0J420160114234011601/14/16 23:40:31  5-MIN K0J4 150440Z AUTO 10005KT 10SM OVC100 09/04 A2995 290 68 -200 100/05 RMK AO2 RAB11E37 P0000
63870K0J4 0J420160114234511601/14/16 23:45:31  5-MIN K0J4 150445Z AUTO 11004KT 10SM OVC095 09/04 A2995 290 68 -200 110/04 RMK AO2 RAB11E37 P0000
63870K0J4 0J420160114235011601/14/16 23:50:31  5-MIN K0J4 150450Z AUTO 09005KT 10SM OVC100 09/04 A2993 300 68 -200 090/05 RMK AO2 RAB11E37 P0000
63870K0J4 0J420160114235515001/14/16 23:55:31  5-MIN K0J4 150455Z AUTO 10007KT 10SM OVC100 09/04 A2993 310 68 -200 100/07 RMK AO2 RAB11E37 PRESFR SLP134 P0000 T00940039 401500006
63870K0J4 0J420160115000011501/15/16 00:00:31  5-MIN K0J4 150500Z AUTO 10005KT 10SM FEW075 OVC100 09/03 A2992 320 65 -200 100/05 RMK AO2 PRESFR
63870K0J4 0J420160115000511501/15/16 00:05:31  5-MIN K0J4 150505Z AUTO 09005KT 10SM SCT075 OVC100 09/03 A2991 320 65 -200 090/05 RMK AO2 PRESFR
63870K0J4 0J420160115001010801/15/16 00:10:31  5-MIN K0J4 150510Z AUTO 11004KT 10SM SCT080 OVC100 09/03 A2992 320 65 -200 110/04 RMK AO2
63870K0J4 0J420160115001510801/15/16 00:15:31  5-MIN K0J4 150515Z AUTO 11006KT 10SM SCT080 OVC100 09/03 A2991 320 65 -200 110/06 RMK AO2
63870K0J4 0J420160115002010801/15/16 00:20:31  5-MIN K0J4 150520Z AUTO 10004KT 10SM SCT080 OVC100 09/03 A2990 340 65 -200 100/04 RMK AO2
63870K0J4 0J420160115002510801/15/16 00:25:31  5-MIN K0J4 150525Z AUTO 11004KT 10SM SCT080 OVC100 09/03 A2990 330 65 -200 110/04 RMK AO2
63870K0J4 0J420160115003010801/15/16 00:30:31  5-MIN K0J4 150530Z AUTO VRB04KT 10SM FEW080 OVC100 09/03 A2990 340 65 -200 VRB/04 RMK AO2
63870K0J4 0J420160115003510801/15/16 00:35:31  5-MIN K0J4 150535Z AUTO 11004KT 10SM FEW080 OVC100 09/03 A2990 340 65 -200 110/04 RMK AO2
63870K0J4 0J420160115004010801/15/16 00:40:31  5-MIN K0J4 150540Z AUTO 10005KT 10SM FEW024 OVC100 09/03 A2989 340 65 -100 100/05 RMK AO2
63870K0J4 0J420160115004510801/15/16 00:45:31  5-MIN K0J4 150545Z AUTO 10004KT 10SM FEW024 OVC100 09/03 A2988 350 65 -100 100/04 RMK AO2
63870K0J4 0J420160115005010801/15/16 00:50:31  5-MIN K0J4 150550Z AUTO 10005KT 10SM SCT024 OVC100 09/03 A2988 350 65 -100 100/05 RMK AO2
63870K0J4 0J420160115005510801/15/16 00:55:31  5-MIN K0J4 150555Z AUTO VRB04KT 10SM BKN022 OVC100 09/03 A2988 360 65 -100 VRB/04 RMK AO2
63870K0J4 0J420160115010010801/15/16 01:00:31  5-MIN K0J4 150600Z AUTO VRB03KT 10SM BKN022 OVC100 09/03 A2988 360 65 -100 VRB/03 RMK AO2
63870K0J4 0J420160115010510801/15/16 01:05:31  5-MIN K0J4 150605Z AUTO 11004KT 10SM BKN022 OVC100 09/03 A2987 360 65 -100 110/04 RMK AO2
63870K0J4 0J420160115011010801/15/16 01:10:31  5-MIN K0J4 150610Z AUTO 09004KT 10SM OVC022 09/04 A2986 370 68 -100 090/04 RMK AO2 PRESFR
63870K0J4 0J420160115011510801/15/16 01:15:31  5-MIN K0J4 150615Z AUTO 09007KT 10SM OVC022 09/04 A2985 380 68 -100 090/07 RMK AO2 PRESFR
63870K0J4 0J420160115012010101/15/16 01:20:31  5-MIN K0J4 150620Z AUTO 09006KT 10SM OVC020 09/03 A2985 390 65 -100 090/06 RMK AO2
63870K0J4 0J420160115012510101/15/16 01:25:31  5-MIN K0J4 150625Z AUTO 11004KT 10SM OVC020 09/04 A2984 390 68 -100 110/04 RMK AO2
63870K0J4 0J420160115013009801/15/16 01:30:31  5-MIN K0J4 150630Z AUTO 11005KT 10SM BKN020 10/04 A2984 390 65 0 110/05 RMK AO2
63870K0J4 0J420160115013509801/15/16 01:35:31  5-MIN K0J4 150635Z AUTO 11004KT 10SM BKN020 10/03 A2983 400 63 0 110/04 RMK AO2
63870K0J4 0J420160115014010501/15/16 01:40:31  5-MIN K0J4 150640Z AUTO 10005KT 10SM SCT018 SCT090 10/03 A2983 400 63 0 100/05 RMK AO2
63870K0J4 0J420160115014511201/15/16 01:45:31  5-MIN K0J4 150645Z AUTO 10005KT 10SM SCT018 SCT090 BKN110 10/04 A2982 410 65 0 100/05 RMK AO2
63870K0J4 0J420160115015011201/15/16 01:50:31  5-MIN K0J4 150650Z AUTO 11005KT 10SM FEW018 BKN085 BKN110 10/04 A2982 410 65 0 110/05 RMK AO2
63870K0J4 0J420160115015512901/15/16 01:55:31  5-MIN K0J4 150655Z AUTO 11004KT 10SM FEW060 SCT085 BKN100 10/04 A2981 420 65 0 110/04 RMK AO2 SLP093 T01000039
63870K0J4 0J420160115020012801/15/16 02:00:31  5-MIN K0J4 150700Z AUTO 11004KT 10SM -RA FEW060 SCT090 BKN110 10/04 A2981 420 65 0 110/04 RMK AO2 RAB00 P0000
63870K0J4 0J420160115020512101/15/16 02:05:31  5-MIN K0J4 150705Z AUTO 12003KT 10SM -RA BKN095 BKN110 10/04 A2981 410 65 0 120/03 RMK AO2 RAB00 P0000
63870K0J4 0J420160115021011601/15/16 02:10:31  5-MIN K0J4 150710Z AUTO 12003KT 9SM -RA OVC095 09/04 A2982 410 71 -100 120/03 RMK AO2 RAB00 P0001
63870K0J4 0J420160115021511501/15/16 02:15:31  5-MIN K0J4 150715Z AUTO 12003KT 8SM RA OVC095 09/05 A2982 410 74 -100 120/03 RMK AO2 RAB00 P0002
63870K0J4 0J420160115022012201/15/16 02:20:31  5-MIN K0J4 150720Z AUTO 00000KT 7SM RA FEW065 OVC095 09/06 A2982 410 79 -100 000/00 RMK AO2 RAB00 P0003
63870K0J4 0J420160115022512201/15/16 02:25:31  5-MIN K0J4 150725Z AUTO 00000KT 7SM RA FEW070 OVC095 09/06 A2981 420 79 -100 000/00 RMK AO2 RAB00 P0004
63870K0J4 0J420160115023012201/15/16 02:30:31  5-MIN K0J4 150730Z AUTO 00000KT 7SM RA FEW070 OVC090 08/06 A2981 420 82 -200 000/00 RMK AO2 RAB00 P0004
63870K0J4 0J420160115023512301/15/16 02:35:31  5-MIN K0J4 150735Z AUTO 00000KT 8SM -RA FEW070 OVC090 09/06 A2980 420 79 -100 000/00 RMK AO2 RAB00 P0005
63870K0J4 0J420160115024012301/15/16 02:40:31  5-MIN K0J4 150740Z AUTO 06003KT 8SM -RA SCT070 OVC090 08/06 A2980 430 82 -200 060/03 RMK AO2 RAB00 P0005
63870K0J4 0J420160115024513701/15/16 02:45:31  5-MIN K0J4 150745Z AUTO 07005KT 8SM -RA FEW060 BKN075 OVC095 08/06 A2979 440 86 -200 070/05 RMK AO2 RAB00 PRESFR P0006
63870K0J4 0J420160115025013001/15/16 02:50:31  5-MIN K0J4 150750Z AUTO 08003KT 8SM -RA FEW060 SCT080 OVC090 08/06 A2978 440 86 -200 080/03 RMK AO2 RAB00 P0006
63870K0J4 0J420160115025514601/15/16 02:55:31  5-MIN K0J4 150755Z AUTO 09003KT 7SM RA FEW041 SCT070 OVC090 08/06 A2978 450 86 -200 090/03 RMK AO2 RAB00 SLP081 P0007 T00830061
63870K0J4 0J420160115030013301/15/16 03:00:31  5-MIN K0J4 150800Z AUTO 08005KT 6SM RA BR FEW041 BKN070 OVC090 08/07 A2977 460 89 -100 080/05 RMK AO2 PRESFR P0000
63870K0J4 0J420160115030512601/15/16 03:05:31  5-MIN K0J4 150805Z AUTO 08007KT 5SM RA BR BKN070 OVC090 08/07 A2975 470 89 -100 080/07 RMK AO2 PRESFR P0001
63870K0J4 0J420160115031012601/15/16 03:10:31  5-MIN K0J4 150810Z AUTO 08005KT 5SM RA BR FEW043 BKN075 OVC090 08/07 A2976 470 89 -100 080/05 RMK AO2 P0003
63870K0J4 0J420160115031512601/15/16 03:15:31  5-MIN K0J4 150815Z AUTO 08007KT 5SM RA BR FEW019 BKN080 OVC095 08/07 A2975 470 89 -100 080/07 RMK AO2 P0004
63870K0J4 0J420160115032012601/15/16 03:20:31  5-MIN K0J4 150820Z AUTO 11005KT 5SM RA BR FEW019 SCT049 OVC070 08/07 A2976 460 89 -100 110/05 RMK AO2 P0006
63870K0J4 0J420160115032512701/15/16 03:25:31  5-MIN K0J4 150825Z AUTO 13004KT 4SM +RA BR SCT014 SCT049 OVC075 08/07 A2977 450 89 -100 130/04 RMK AO2 P0009
63870K0J4 0J420160115033012701/15/16 03:30:31  5-MIN K0J4 150830Z AUTO 10006KT 2SM +RA BR FEW014 BKN031 OVC075 08/07 A2975 470 93 -100 100/06 RMK AO2 P0016
63870K0J4 0J420160115033512701/15/16 03:35:31  5-MIN K0J4 150835Z AUTO 09007KT 2SM +RA BR FEW014 BKN033 OVC075 08/07 A2974 480 93 -100 090/07 RMK AO2 P0019
63870K0J4 0J420160115034013101/15/16 03:40:31  5-MIN K0J4 150840Z AUTO 11004KT 2 1/2SM +RA BR FEW014 BKN041 OVC055 08/07 A2974 480 93 -100 110/04 RMK AO2 P0021
63870K0J4 0J420160115034513101/15/16 03:45:31  5-MIN K0J4 150845Z AUTO 09005KT 2 1/2SM +RA BR SCT014 BKN041 OVC055 08/08 A2974 490 96 -100 090/05 RMK AO2 P0025
63870K0J4 0J420160115035013101/15/16 03:50:31  5-MIN K0J4 150850Z AUTO 12004KT 2 1/2SM +RA BR BKN009 BKN019 OVC037 08/08 A2974 480 96 -100 120/04 RMK AO2 P0029
63870K0J4 0J420160115035517301/15/16 03:55:31  5-MIN K0J4 150855Z AUTO 08012G16KT 1 1/2SM +RA BR SCT009 BKN017 OVC031 08/08 A2971 510 96 -100 080/12G16 RMK AO2 PRESFR SLP058 P0041 60049 T00830078 58047
63870K0J4 0J420160115040014301/15/16 04:00:31  5-MIN K0J4 150900Z AUTO 09011G19KT 1 3/4SM RA BR FEW009 BKN037 OVC050 08/08 A2970 520 96 -100 090/11G19 RMK AO2 PRESFR P0001
63870K0J4 0J420160115040512901/15/16 04:05:31  5-MIN K0J4 150905Z AUTO 09010G19KT 3SM RA BR BKN010 BKN041 OVC075 09/08 A2970 520 93 0 090/10G19 RMK AO2 P0002
63870K0J4 0J420160115041012901/15/16 04:10:31  5-MIN K0J4 150910Z AUTO 09008G19KT 5SM RA BR BKN007 BKN015 OVC034 09/08 A2970 520 96 0 090/08G19 RMK AO2 P0002
63870K0J4 0J420160115041511701/15/16 04:15:31  5-MIN K0J4 150915Z AUTO 09008KT 6SM -RA BR BKN007 OVC034 09/08 A2970 520 96 0 090/08 RMK AO2 P0003
63870K0J4 0J420160115042011601/15/16 04:20:31  5-MIN K0J4 150920Z AUTO 10008KT 6SM RA BR BKN007 OVC034 09/08 A2969 530 96 0 100/08 RMK AO2 P0003
63870K0J4 0J420160115042513001/15/16 04:25:31  5-MIN K0J4 150925Z AUTO 09008G14KT 6SM -RA BR BKN005 OVC050 09/08 A2967 550 96 0 090/08G14 RMK AO2 PRESFR P0004
63870K0J4 0J420160115043012801/15/16 04:30:31  5-MIN K0J4 150930Z AUTO 10008G15KT 6SM -RA BR OVC005 09/08 A2968 540 96 0 100/08G15 RMK AO2 CIG 003V007 P0004
63870K0J4 0J420160115043512501/15/16 04:35:31  5-MIN K0J4 150935Z AUTO 09006G15KT 7SM -RA OVC003 09/08 A2967 550 96 0 090/06G15 RMK AO2 CIG 002V006 P0005
63870K0J4 0J420160115044013201/15/16 04:40:31  5-MIN K0J4 150940Z AUTO 10010G17KT 7SM -RA OVC003 09/08 A2965 570 96 0 100/10G17 RMK AO2 CIG 002V008 PRESFR P0005
63870K0J4 0J420160115044513501/15/16 04:45:31  5-MIN K0J4 150945Z AUTO 09009G17KT 6SM -RA BR OVC003 09/08 A2964 580 96 0 090/09G17 RMK AO2 CIG 001V006 PRESFR P0006
63870K0J4 0J420160115045011901/15/16 04:50:31  5-MIN K0J4 150950Z AUTO 09010KT 6SM -RA BR OVC003 09/08 A2963 590 93 100 090/10 RMK AO2 PRESFR P0007
63870K0J4 0J420160115045514101/15/16 04:55:31  5-MIN K0J4 150955Z AUTO 09009G15KT 6SM RA BR OVC003 09/09 A2962 600 96 100 090/09G15 RMK AO2 PRESFR SLP027 P0007 T00940089
63870K0J4 0J420160115050012401/15/16 05:00:31  5-MIN K0J4 151000Z AUTO 09011G17KT 5SM RA BR OVC003 09/09 A2960 610 96 100 090/11G17 RMK AO2 PRESFR P0000
63870K0J4 0J420160115050511701/15/16 05:05:31  5-MIN K0J4 151005Z AUTO 08011G17KT 5SM RA BR OVC003 09/09 A2960 610 96 100 080/11G17 RMK AO2 P0001
63870K0J4 0J420160115051011701/15/16 05:10:31  5-MIN K0J4 151010Z AUTO 09005G17KT 5SM RA BR OVC003 10/09 A2962 590 96 200 090/05G17 RMK AO2 P0002
63870K0J4 0J420160115051511101/15/16 05:15:31  5-MIN K0J4 151015Z AUTO VRB04KT 5SM RA BR OVC003 10/09 A2962 590 96 200 VRB/04 RMK AO2 P0004
63870K0J4 0J420160115052011101/15/16 05:20:31  5-MIN K0J4 151020Z AUTO 05008KT 5SM RA BR OVC003 10/09 A2961 600 96 200 050/08 RMK AO2 P0006
63870K0J4 0J420160115052511101/15/16 05:25:31  5-MIN K0J4 151025Z AUTO VRB04KT 5SM RA BR OVC003 11/10 A2961 610 96 300 VRB/04 RMK AO2 P0007
63870K0J4 0J420160115053010901/15/16 05:30:31  5-MIN K0J4 151030Z AUTO 03004KT 7SM -RA OVC003 11/10 A2961 600 96 300 030/04 RMK AO2 P0007
63870K0J4 0J420160115053510901/15/16 05:35:31  5-MIN K0J4 151035Z AUTO 05004KT 9SM -RA OVC003 11/10 A2961 610 96 300 050/04 RMK AO2 P0007
63870K0J4 0J420160115054011001/15/16 05:40:31  5-MIN K0J4 151040Z AUTO 07007KT 10SM -RA OVC003 11/10 A2959 620 96 300 070/07 RMK AO2 P0007
63870K0J4 0J420160115054511901/15/16 05:45:31  5-MIN K0J4 151045Z AUTO 08009KT 10SM OVC003 11/10 A2957 640 93 400 080/09 RMK AO2 RAE45 PRESFR P0007
63870K0J4 0J420160115055011901/15/16 05:50:31  5-MIN K0J4 151050Z AUTO 10007KT 10SM OVC003 11/11 A2956 650 96 400 100/07 RMK AO2 RAE45 PRESFR P0007
63870K0J4 0J420160115055512901/15/16 05:55:31  5-MIN K0J4 151055Z AUTO 09006KT 10SM OVC003 12/11 A2957 640 96 400 090/06 RMK AO2 RAE45 SLP012 P0007 T01170111
63870K0J4 0J420160115060010001/15/16 06:00:31  5-MIN K0J4 151100Z AUTO 09006KT 10SM OVC003 12/11 A2957 640 96 400 090/06 RMK AO2
63870K0J4 0J420160115060510001/15/16 06:05:31  5-MIN K0J4 151105Z AUTO 08003KT 10SM OVC003 12/11 A2957 640 96 400 080/03 RMK AO2
63870K0J4 0J420160115061010001/15/16 06:10:31  5-MIN K0J4 151110Z AUTO VRB03KT 10SM OVC003 12/11 A2958 630 96 400 VRB/03 RMK AO2
63870K0J4 0J420160115061510001/15/16 06:15:31  5-MIN K0J4 151115Z AUTO 10006KT 10SM OVC003 12/11 A2957 640 96 400 100/06 RMK AO2
63870K0J4 0J420160115062010701/15/16 06:20:31  5-MIN K0J4 151120Z AUTO 09006KT 10SM BKN003 OVC035 12/11 A2957 640 96 400 090/06 RMK AO2
63870K0J4 0J420160115062510701/15/16 06:25:31  5-MIN K0J4 151125Z AUTO 00000KT 10SM BKN003 OVC035 12/11 A2958 640 93 500 000/00 RMK AO2
63870K0J4 0J420160115063010701/15/16 06:30:31  5-MIN K0J4 151130Z AUTO VRB06KT 10SM BKN003 OVC035 12/11 A2960 610 96 400 VRB/06 RMK AO2
63870K0J4 0J420160115063510701/15/16 06:35:31  5-MIN K0J4 151135Z AUTO 34004KT 10SM BKN003 OVC035 12/11 A2959 620 96 400 340/04 RMK AO2
63870K0J4 0J420160115064010701/15/16 06:40:31  5-MIN K0J4 151140Z AUTO 33004KT 10SM BKN003 OVC035 12/11 A2958 630 96 400 330/04 RMK AO2
63870K0J4 0J420160115064512201/15/16 06:45:31  5-MIN K0J4 151145Z AUTO VRB05KT 9SM -RA BKN001 OVC035 12/11 A2961 600 96 400 VRB/05 RMK AO2 RAB44 P0000
63870K0J4 0J420160115065011501/15/16 06:50:31  5-MIN K0J4 151150Z AUTO VRB03KT 9SM -RA OVC001 12/11 A2962 600 96 400 VRB/03 RMK AO2 RAB44 P0000
63870K0J4 0J420160115065516201/15/16 06:55:31  5-MIN K0J4 151155Z AUTO VRB06KT 10SM OVC001 11/11 A2962 590 96 300 VRB/06 RMK AO2 RAB44E55 SLP028 P0000 60066 70066 T01110106 10122 20083 58061
63870K0J4 0J420160115070010701/15/16 07:00:31  5-MIN K0J4 151200Z AUTO VRB06KT 10SM OVC001 10/09 A2963 590 96 200 VRB/06 RMK AO2 PRESRR
63870K0J4 0J420160115070510001/15/16 07:05:31  5-MIN K0J4 151205Z AUTO 32005KT 10SM OVC001 09/09 A2964 580 96 100 320/05 RMK AO2
63870K0J4 0J420160115071012201/15/16 07:10:31  5-MIN K0J4 151210Z AUTO 32007KT 290V360 10SM OVC001 09/09 A2964 570 96 100 320/07 290V360 RMK AO2 P0001
63870K0J4 0J420160115071510401/15/16 07:15:31  5-MIN K0J4 151215Z AUTO VRB06KT 10SM OVC001 09/08 A2965 560 96 0 VRB/06 RMK AO2 P0001
63870K0J4 0J420160115072012901/15/16 07:20:31  5-MIN K0J4 151220Z AUTO 32008KT 290V010 7SM -RA OVC001 08/08 A2966 560 96 0 320/08 290V010 RMK AO2 RAB16 P0001
63870K0J4 0J420160115072512201/15/16 07:25:31  5-MIN K0J4 151225Z AUTO 32008G17KT 4SM -RA BR OVC003 08/08 A2966 560 96 0 320/08G17 RMK AO2 RAB16 P0002
63870K0J4 0J420160115073013301/15/16 07:30:31  5-MIN K0J4 151230Z AUTO VRB06G17KT 3SM RA BR OVC003 08/08 A2967 550 96 0 VRB/06G17 RMK AO2 RAB16 CIG 001V006 P0002
63870K0J4 0J420160115073512201/15/16 07:35:31  5-MIN K0J4 151235Z AUTO 36006KT 3SM RA BR BKN003 OVC019 08/07 A2966 560 93 0 360/06 RMK AO2 RAB16 P0003
63870K0J4 0J420160115074012901/15/16 07:40:31  5-MIN K0J4 151240Z AUTO 35007KT 3SM RA BR BKN003 BKN019 OVC027 08/07 A2966 560 93 0 350/07 RMK AO2 RAB16 P0005
63870K0J4 0J420160115074513001/15/16 07:45:31  5-MIN K0J4 151245Z AUTO VRB05KT 3SM -RA BR BKN003 BKN019 OVC027 08/07 A2966 560 93 0 VRB/05 RMK AO2 RAB16 P0005
63870K0J4 0J420160115075013001/15/16 07:50:31  5-MIN K0J4 151250Z AUTO VRB05KT 6SM -RA BR BKN003 BKN019 OVC042 08/07 A2966 560 93 0 VRB/05 RMK AO2 RAB16 P0005
63870K0J4 0J420160115075514401/15/16 07:55:31  5-MIN K0J4 151255Z AUTO 36007KT 10SM BKN003 BKN019 OVC033 08/07 A2966 560 93 0 360/07 RMK AO2 RAB16E54 SLP043 P0005 T00830072
63870K0J4 0J420160115080012801/15/16 08:00:31  5-MIN K0J4 151300Z AUTO 36007KT 320V020 10SM SCT005 SCT019 OVC027 08/07 A2965 560 93 0 360/07 320V020 RMK AO2
63870K0J4 0J420160115080510501/15/16 08:05:31  5-MIN K0J4 151305Z AUTO 35006KT 10SM SCT005 BKN027 08/07 A2966 560 93 0 350/06 RMK AO2
63870K0J4 0J420160115081010501/15/16 08:10:31  5-MIN K0J4 151310Z AUTO VRB03KT 10SM SCT005 BKN027 08/07 A2967 550 93 0 VRB/03 RMK AO2
63870K0J4 0J420160115081510501/15/16 08:15:31  5-MIN K0J4 151315Z AUTO 01006KT 10SM SCT005 BKN027 08/07 A2966 560 93 0 010/06 RMK AO2
63870K0J4 0J420160115082010501/15/16 08:20:31  5-MIN K0J4 151320Z AUTO 36004KT 10SM FEW005 SCT027 08/07 A2966 550 93 0 360/04 RMK AO2
63870K0J4 0J420160115082510501/15/16 08:25:31  5-MIN K0J4 151325Z AUTO 02007KT 10SM FEW005 SCT027 08/07 A2965 570 93 0 020/07 RMK AO2
63870K0J4 0J420160115083009801/15/16 08:30:31  5-MIN K0J4 151330Z AUTO 02004KT 10SM FEW003 08/07 A2964 570 93 0 020/04 RMK AO2
63870K0J4 0J420160115083509801/15/16 08:35:31  5-MIN K0J4 151335Z AUTO 02004KT 10SM FEW003 08/07 A2965 570 93 0 020/04 RMK AO2
63870K0J4 0J420160115084009501/15/16 08:40:31  5-MIN K0J4 151340Z AUTO VRB03KT 10SM CLR 08/07 A2966 560 93 0 VRB/03 RMK AO2
63870K0J4 0J420160115084509501/15/16 08:45:31  5-MIN K0J4 151345Z AUTO VRB03KT 10SM CLR 08/08 A2966 560 96 0 VRB/03 RMK AO2
63870K0J4 0J420160115184510001/15/16 18:45:31  5-MIN K0J4 152345Z AUTO 00000KT 10SM OVC021 13/12 A2975 470 89 400 000/00 RMK AO2
63870K0J4 0J420160115185010701/15/16 18:50:31  5-MIN K0J4 152350Z AUTO 00000KT 10SM BKN021 OVC028 13/12 A2975 470 89 400 000/00 RMK AO2
63870K0J4 0J420160115185514201/15/16 18:55:31  5-MIN K0J4 152355Z AUTO 00000KT 10SM BKN021 OVC028 13/12 A2976 470 89 400 000/00 RMK AO2 SLP075 T01330117 10139 20117 55006
63870K0J4 0J420160115190011401/15/16 19:00:31  5-MIN K0J4 160000Z AUTO 36003KT 10SM FEW018 BKN025 OVC029 13/12 A2976 460 89 400 360/03 RMK AO2
63870K0J4 0J420160115190510701/15/16 19:05:31  5-MIN K0J4 160005Z AUTO 01003KT 10SM SCT021 BKN027 13/12 A2976 460 89 400 010/03 RMK AO2
63870K0J4 0J420160115191010701/15/16 19:10:31  5-MIN K0J4 160010Z AUTO 00000KT 10SM FEW018 BKN025 13/12 A2977 460 89 400 000/00 RMK AO2
63870K0J4 0J420160115191510001/15/16 19:15:31  5-MIN K0J4 160015Z AUTO 00000KT 10SM BKN025 13/12 A2977 460 93 300 000/00 RMK AO2
63870K0J4 0J420160115192010001/15/16 19:20:31  5-MIN K0J4 160020Z AUTO 00000KT 10SM BKN025 13/11 A2976 460 89 300 000/00 RMK AO2
63870K0J4 0J420160115192510001/15/16 19:25:31  5-MIN K0J4 160025Z AUTO 00000KT 10SM SCT025 12/11 A2976 460 93 300 000/00 RMK AO2
63870K0J4 0J420160115193010001/15/16 19:30:31  5-MIN K0J4 160030Z AUTO 00000KT 10SM SCT025 12/11 A2976 460 93 300 000/00 RMK AO2
63870K0J4 0J420160115193509901/15/16 19:35:31  5-MIN K0J4 160035Z AUTO 00000KT 8SM FEW025 11/10 A2977 460 96 100 000/00 RMK AO2
63870K0J4 0J420160115194009901/15/16 19:40:31  5-MIN K0J4 160040Z AUTO 00000KT 7SM FEW023 11/10 A2977 450 93 100 000/00 RMK AO2
63870K0J4 0J420160115194510201/15/16 19:45:31  5-MIN K0J4 160045Z AUTO 00000KT 5SM BR FEW023 11/10 A2977 450 93 100 000/00 RMK AO2
63870K0J4 0J420160115195009901/15/16 19:50:31  5-MIN K0J4 160050Z AUTO 00000KT 5SM BR CLR 11/10 A2977 450 96 100 000/00 RMK AO2
63870K0J4 0J420160115195511401/15/16 19:55:31  5-MIN K0J4 160055Z AUTO 00000KT 6SM BR CLR 10/09 A2978 450 96 0 000/00 RMK AO2 SLP083 T01000094
63870K0J4 0J420160115200010601/15/16 20:00:31  5-MIN K0J4 160100Z AUTO 00000KT 1 1/4SM BR FEW002 11/10 A2978 450 96 100 000/00 RMK AO2
63870K0J4 0J420160115200510301/15/16 20:05:31  5-MIN K0J4 160105Z AUTO 00000KT 1/2SM FG VV002 11/10 A2978 440 96 100 000/00 RMK AO2
63870K0J4 0J420160115201010101/15/16 20:10:31  5-MIN K0J4 160110Z AUTO 00000KT 1/4SM FG VV002 10/09 A2979 440 96 0 000/00 RMK AO2
63870K0J4 0J420160115201510101/15/16 20:15:31  5-MIN K0J4 160115Z AUTO 00000KT 1/4SM FG VV002 10/09 A2979 440 96 0 000/00 RMK AO2
63870K0J4 0J420160115202010501/15/16 20:20:31  5-MIN K0J4 160120Z AUTO 00000KT 1/2SM FG VV002 09/09 A2979 440 100 -100 000/00 RMK AO2
63870K0J4 0J420160115202510401/15/16 20:25:31  5-MIN K0J4 160125Z AUTO 00000KT 1/2SM FG VV002 09/08 A2979 440 96 -100 000/00 RMK AO2
63870K0J4 0J420160115203010401/15/16 20:30:31  5-MIN K0J4 160130Z AUTO 00000KT 1/2SM FG VV002 09/08 A2979 440 96 -100 000/00 RMK AO2
63870K0J4 0J420160115203510401/15/16 20:35:31  5-MIN K0J4 160135Z AUTO 00000KT 1/2SM FG VV002 09/08 A2979 440 96 -100 000/00 RMK AO2
63870K0J4 0J420160115204010401/15/16 20:40:31  5-MIN K0J4 160140Z AUTO 00000KT 1/2SM FG VV002 09/08 A2979 440 96 -100 000/00 RMK AO2
63870K0J4 0J420160115204510401/15/16 20:45:31  5-MIN K0J4 160145Z AUTO 19003KT 3/4SM BR VV002 08/08 A2978 440 96 -200 190/03 RMK AO2
63870K0J4 0J420160115205010701/15/16 20:50:31  5-MIN K0J4 160150Z AUTO 19003KT 1 1/4SM BR FEW002 09/08 A2978 440 96 -100 190/03 RMK AO2
63870K0J4 0J420160115205511401/15/16 20:55:31  5-MIN K0J4 160155Z AUTO 18003KT 4SM BR CLR 10/09 A2978 440 96 0 180/03 RMK AO2 SLP084 T01000094
63870K0J4 0J420160115210009601/15/16 21:00:31  5-MIN K0J4 160200Z AUTO 00000KT 9SM CLR 11/10 A2979 440 96 100 000/00 RMK AO2
63870K0J4 0J420160115210509501/15/16 21:05:31  5-MIN K0J4 160205Z AUTO 00000KT 10SM CLR 11/10 A2979 440 96 0 000/00 RMK AO2
63870K0J4 0J420160115211009401/15/16 21:10:31  5-MIN K0J4 160210Z AUTO 00000KT 9SM CLR 11/10 A2979 440 96 0 000/00 RMK AO2
63870K0J4 0J420160115211509401/15/16 21:15:31  5-MIN K0J4 160215Z AUTO 00000KT 8SM CLR 10/09 A2979 440 96 0 000/00 RMK AO2
63870K0J4 0J420160115212009601/15/16 21:20:31  5-MIN K0J4 160220Z AUTO 00000KT 8SM CLR 11/09 A2979 440 93 100 000/00 RMK AO2
63870K0J4 0J420160115212509601/15/16 21:25:31  5-MIN K0J4 160225Z AUTO 00000KT 7SM CLR 11/09 A2979 440 93 100 000/00 RMK AO2
63870K0J4 0J420160115213009601/15/16 21:30:31  5-MIN K0J4 160230Z AUTO 00000KT 7SM CLR 11/10 A2979 440 96 100 000/00 RMK AO2
63870K0J4 0J420160115213509601/15/16 21:35:31  5-MIN K0J4 160235Z AUTO 00000KT 8SM CLR 11/10 A2979 440 96 100 000/00 RMK AO2
63870K0J4 0J420160115214009701/15/16 21:40:31  5-MIN K0J4 160240Z AUTO 00000KT 8SM CLR 11/11 A2979 440 100 100 000/00 RMK AO2
63870K0J4 0J420160115214509901/15/16 21:45:31  5-MIN K0J4 160245Z AUTO 00000KT 8SM FEW040 11/11 A2979 440 96 100 000/00 RMK AO2
63870K0J4 0J420160115215010001/15/16 21:50:31  5-MIN K0J4 160250Z AUTO 00000KT 8SM FEW040 11/11 A2979 440 100 100 000/00 RMK AO2
63870K0J4 0J420160115215512001/15/16 21:55:31  5-MIN K0J4 160255Z AUTO 00000KT 7SM FEW038 11/10 A2979 440 96 0 000/00 RMK AO2 SLP087 T01060100 53017
63870K0J4 0J420160115220010001/15/16 22:00:31  5-MIN K0J4 160300Z AUTO 00000KT 6SM BR FEW038 10/09 A2979 440 96 0 000/00 RMK AO2
63870K0J4 0J420160115220510001/15/16 22:05:31  5-MIN K0J4 160305Z AUTO 00000KT 6SM BR FEW038 10/09 A2979 430 96 0 000/00 RMK AO2
63870K0J4 0J420160115221010001/15/16 22:10:31  5-MIN K0J4 160310Z AUTO 00000KT 5SM BR FEW038 10/09 A2979 430 96 0 000/00 RMK AO2
63870K0J4 0J420160115221510701/15/16 22:15:31  5-MIN K0J4 160315Z AUTO 00000KT 4SM BR FEW022 SCT036 11/10 A2979 430 96 0 000/00 RMK AO2
63870K0J4 0J420160115222010801/15/16 22:20:31  5-MIN K0J4 160320Z AUTO 00000KT 4SM BR SCT020 BKN036 10/10 A2979 430 100 0 000/00 RMK AO2
63870K0J4 0J420160115222510101/15/16 22:25:31  5-MIN K0J4 160325Z AUTO 00000KT 4SM BR BKN020 10/10 A2980 430 100 0 000/00 RMK AO2
63870K0J4 0J420160115223010101/15/16 22:30:31  5-MIN K0J4 160330Z AUTO 00000KT 5SM BR BKN020 10/10 A2980 430 100 0 000/00 RMK AO2
63870K0J4 0J420160115223510701/15/16 22:35:31  5-MIN K0J4 160335Z AUTO 00000KT 5SM BR BKN020 BKN046 10/09 A2980 430 96 0 000/00 RMK AO2
63870K0J4 0J420160115224011401/15/16 22:40:31  5-MIN K0J4 160340Z AUTO 00000KT 6SM BR BKN020 BKN035 OVC046 10/09 A2980 430 96 0 000/00 RMK AO2
63870K0J4 0J420160115224510701/15/16 22:45:31  5-MIN K0J4 160345Z AUTO 00000KT 5SM BR BKN020 OVC050 09/09 A2980 430 96 0 000/00 RMK AO2
63870K0J4 0J420160115225010701/15/16 22:50:31  5-MIN K0J4 160350Z AUTO 00000KT 5SM BR BKN018 OVC043 09/09 A2980 430 96 0 000/00 RMK AO2
63870K0J4 0J420160115225512401/15/16 22:55:31  5-MIN K0J4 160355Z AUTO 00000KT 4SM BR BKN018 OVC043 10/09 A2979 430 96 0 000/00 RMK AO2 SLP088 T01000094
63870K0J4 0J420160115230010701/15/16 23:00:31  5-MIN K0J4 160400Z AUTO 00000KT 5SM BR BKN018 OVC050 11/09 A2980 430 93 0 000/00 RMK AO2
63870K0J4 0J420160115230510201/15/16 23:05:31  5-MIN K0J4 160405Z AUTO 00000KT 6SM BR OVC018 11/10 A2980 430 93 100 000/00 RMK AO2
63870K0J4 0J420160115231010201/15/16 23:10:31  5-MIN K0J4 160410Z AUTO 00000KT 6SM BR OVC018 11/11 A2980 430 96 100 000/00 RMK AO2
63870K0J4 0J420160115231509901/15/16 23:15:31  5-MIN K0J4 160415Z AUTO 00000KT 7SM OVC018 11/11 A2980 430 96 100 000/00 RMK AO2
63870K0J4 0J420160115232009701/15/16 23:20:31  5-MIN K0J4 160420Z AUTO 00000KT 7SM OVC018 11/10 A2980 430 96 0 000/00 RMK AO2
63870K0J4 0J420160115232509901/15/16 23:25:31  5-MIN K0J4 160425Z AUTO 00000KT 8SM OVC018 11/11 A2980 430 96 100 000/00 RMK AO2
63870K0J4 0J420160115233009701/15/16 23:30:31  5-MIN K0J4 160430Z AUTO 00000KT 8SM BKN018 11/10 A2980 430 96 0 000/00 RMK AO2
63870K0J4 0J420160115233510401/15/16 23:35:31  5-MIN K0J4 160435Z AUTO 00000KT 8SM BKN018 BKN037 11/10 A2980 430 96 0 000/00 RMK AO2
63870K0J4 0J420160115234010401/15/16 23:40:31  5-MIN K0J4 160440Z AUTO 00000KT 9SM SCT018 BKN037 11/09 A2980 430 93 0 000/00 RMK AO2
63870K0J4 0J420160115234510401/15/16 23:45:31  5-MIN K0J4 160445Z AUTO 00000KT 8SM SCT016 SCT037 10/09 A2980 430 96 0 000/00 RMK AO2
63870K0J4 0J420160115235010701/15/16 23:50:31  5-MIN K0J4 160450Z AUTO 00000KT 6SM BR FEW016 SCT037 11/10 A2980 430 96 0 000/00 RMK AO2
63870K0J4 0J420160115235512701/15/16 23:55:31  5-MIN K0J4 160455Z AUTO 00000KT 5SM BR FEW016 09/09 A2980 430 96 0 000/00 RMK AO2 SLP089 T00940089 401390083
63870K0J4 0J420160116000010001/16/16 00:00:31  5-MIN K0J4 160500Z AUTO 00000KT 3SM BR FEW036 10/09 A2980 430 96 0 000/00 RMK AO2
63870K0J4 0J420160116000511301/16/16 00:05:31  5-MIN K0J4 160505Z AUTO 21003KT 2 1/2SM BR CLR 10/09 A2980 430 93 0 210/03 RMK AO2 VIS 1 1/4V5
63870K0J4 0J420160116001011101/16/16 00:10:31  5-MIN K0J4 160510Z AUTO 21003KT 1 3/4SM BR CLR 09/09 A2980 430 96 0 210/03 RMK AO2 VIS 3/4V4
63870K0J4 0J420160116001511101/16/16 00:15:31  5-MIN K0J4 160515Z AUTO 20003KT 1 1/2SM BR CLR 11/09 A2980 430 93 0 200/03 RMK AO2 VIS 3/4V4
63870K0J4 0J420160116002010101/16/16 00:20:31  5-MIN K0J4 160520Z AUTO 21003KT 2 1/2SM BR CLR 11/10 A2980 430 96 0 210/03 RMK AO2
63870K0J4 0J420160116002509801/16/16 00:25:31  5-MIN K0J4 160525Z AUTO 00000KT 4SM BR CLR 10/10 A2980 430 100 0 000/00 RMK AO2
63870K0J4 0J420160116003009701/16/16 00:30:31  5-MIN K0J4 160530Z AUTO 00000KT 3SM BR CLR 09/09 A2980 430 96 0 000/00 RMK AO2
63870K0J4 0J420160116003509701/16/16 00:35:31  5-MIN K0J4 160535Z AUTO 00000KT 3SM BR CLR 09/09 A2980 430 96 0 000/00 RMK AO2
63870K0J4 0J420160116004009701/16/16 00:40:31  5-MIN K0J4 160540Z AUTO 00000KT 3SM BR CLR 09/09 A2979 430 96 0 000/00 RMK AO2
63870K0J4 0J420160116004510401/16/16 00:45:31  5-MIN K0J4 160545Z AUTO 00000KT 1 1/4SM BR CLR 09/08 A2979 440 93 -100 000/00 RMK AO2
63870K0J4 0J420160116005010401/16/16 00:50:31  5-MIN K0J4 160550Z AUTO 00000KT 1/2SM FG VV006 08/08 A2979 440 96 -200 000/00 RMK AO2
63870K0J4 0J420160116005513901/16/16 00:55:31  5-MIN K0J4 160555Z AUTO 00000KT 1/2SM FG VV007 08/08 A2979 440 96 -200 000/00 RMK AO2 SLP087 T00830078 10139 20083 51010
63870K0J4 0J420160116010010401/16/16 01:00:31  5-MIN K0J4 160600Z AUTO 00000KT 1/2SM FG VV007 08/08 A2979 440 96 -200 000/00 RMK AO2
63870K0J4 0J420160116010510401/16/16 01:05:31  5-MIN K0J4 160605Z AUTO 00000KT 1/4SM FG VV007 08/08 A2979 440 96 -200 000/00 RMK AO2
63870K0J4 0J420160116011010501/16/16 01:10:31  5-MIN K0J4 160610Z AUTO 00000KT 1/4SM FG VV007 08/08 A2978 440 100 -200 000/00 RMK AO2
63870K0J4 0J420160116011510401/16/16 01:15:31  5-MIN K0J4 160615Z AUTO 00000KT 3/4SM BR VV007 08/07 A2978 440 96 -200 000/00 RMK AO2
63870K0J4 0J420160116012010401/16/16 01:20:31  5-MIN K0J4 160620Z AUTO 00000KT 3/4SM BR VV006 08/07 A2978 440 96 -200 000/00 RMK AO2
63870K0J4 0J420160116012510401/16/16 01:25:31  5-MIN K0J4 160625Z AUTO 00000KT 1/2SM FG VV006 08/07 A2978 440 93 -200 000/00 RMK AO2
63870K0J4 0J420160116013010401/16/16 01:30:31  5-MIN K0J4 160630Z AUTO 00000KT 1/2SM FG VV006 09/08 A2978 440 96 -100 000/00 RMK AO2
63870K0J4 0J420160116013510501/16/16 01:35:31  5-MIN K0J4 160635Z AUTO 00000KT 1/4SM FG VV006 08/08 A2978 440 100 -200 000/00 RMK AO2
63870K0J4 0J420160116014010401/16/16 01:40:31  5-MIN K0J4 160640Z AUTO 00000KT 1/4SM FG VV005 08/08 A2978 440 96 -200 000/00 RMK AO2
63870K0J4 0J420160116014510401/16/16 01:45:31  5-MIN K0J4 160645Z AUTO 00000KT 1/4SM FG VV005 08/07 A2979 440 96 -200 000/00 RMK AO2
63870K0J4 0J420160116015010401/16/16 01:50:31  5-MIN K0J4 160650Z AUTO 21003KT 1/4SM FG VV004 08/07 A2979 440 93 -200 210/03 RMK AO2
63870K0J4 0J420160116015512101/16/16 01:55:31  5-MIN K0J4 160655Z AUTO 22003KT 1/4SM FG VV004 09/08 A2979 440 96 -100 220/03 RMK AO2 SLP086 T00890083
63870K0J4 0J420160116020010401/16/16 02:00:31  5-MIN K0J4 160700Z AUTO 00000KT 1/2SM FG VV004 08/08 A2979 440 96 -200 000/00 RMK AO2
63870K0J4 0J420160116020510401/16/16 02:05:31  5-MIN K0J4 160705Z AUTO 00000KT 1/2SM FG VV003 07/07 A2979 440 96 -300 000/00 RMK AO2
63870K0J4 0J420160116021010501/16/16 02:10:31  5-MIN K0J4 160710Z AUTO 22003KT 1/4SM FG VV002 07/07 A2979 440 100 -300 220/03 RMK AO2
63870K0J4 0J420160116021510401/16/16 02:15:31  5-MIN K0J4 160715Z AUTO 23003KT 1/4SM FG VV002 07/07 A2979 440 96 -300 230/03 RMK AO2
63870K0J4 0J420160116022010401/16/16 02:20:31  5-MIN K0J4 160720Z AUTO 00000KT 1/4SM FG VV002 07/07 A2979 440 96 -300 000/00 RMK AO2
63870K0J4 0J420160116022510401/16/16 02:25:31  5-MIN K0J4 160725Z AUTO 00000KT 1/4SM FG VV002 08/07 A2979 440 93 -200 000/00 RMK AO2
63870K0J4 0J420160116023010401/16/16 02:30:31  5-MIN K0J4 160730Z AUTO 00000KT 1/4SM FG VV001 08/08 A2979 430 96 -200 000/00 RMK AO2
63870K0J4 0J420160116023510401/16/16 02:35:31  5-MIN K0J4 160735Z AUTO 00000KT 1/4SM FG VV001 08/08 A2979 430 96 -200 000/00 RMK AO2
63870K0J4 0J420160116024010501/16/16 02:40:31  5-MIN K0J4 160740Z AUTO 00000KT 1/4SM FG VV001 08/08 A2979 430 100 -200 000/00 RMK AO2
63870K0J4 0J420160116024510501/16/16 02:45:31  5-MIN K0J4 160745Z AUTO 00000KT 1/4SM FG VV002 08/08 A2979 430 100 -200 000/00 RMK AO2
63870K0J4 0J420160116025010401/16/16 02:50:31  5-MIN K0J4 160750Z AUTO 00000KT 1/2SM FG VV002 09/08 A2979 430 96 -100 000/00 RMK AO2
63870K0J4 0J420160116025512201/16/16 02:55:31  5-MIN K0J4 160755Z AUTO 00000KT 1/2SM FG VV002 09/09 A2980 430 100 -100 000/00 RMK AO2 SLP088 T00890089
63870K0J4 0J420160116030010501/16/16 03:00:31  5-MIN K0J4 160800Z AUTO 00000KT 1/2SM FG VV002 09/09 A2979 430 100 -100 000/00 RMK AO2
63870K0J4 0J420160116030510101/16/16 03:05:31  5-MIN K0J4 160805Z AUTO 00000KT 1/2SM FG VV002 09/09 A2980 430 96 0 000/00 RMK AO2
63870K0J4 0J420160116031010201/16/16 03:10:31  5-MIN K0J4 160810Z AUTO 00000KT 1/2SM FG VV002 10/10 A2980 430 100 0 000/00 RMK AO2
63870K0J4 0J420160116031510301/16/16 03:15:31  5-MIN K0J4 160815Z AUTO 00000KT 1/2SM FG VV002 11/11 A2980 430 96 100 000/00 RMK AO2
63870K0J4 0J420160116032010401/16/16 03:20:31  5-MIN K0J4 160820Z AUTO 00000KT 1/4SM FG VV002 12/12 A2980 430 100 200 000/00 RMK AO2
63870K0J4 0J420160116032510401/16/16 03:25:31  5-MIN K0J4 160825Z AUTO 00000KT 1/4SM FG VV001 12/12 A2980 430 100 200 000/00 RMK AO2
63870K0J4 0J420160116033010401/16/16 03:30:31  5-MIN K0J4 160830Z AUTO 00000KT 1/4SM FG VV001 12/12 A2980 430 100 200 000/00 RMK AO2
63870K0J4 0J420160116033510401/16/16 03:35:31  5-MIN K0J4 160835Z AUTO 00000KT 1/4SM FG VV001 12/12 A2980 430 100 200 000/00 RMK AO2
63870K0J4 0J420160116034010301/16/16 03:40:31  5-MIN K0J4 160840Z AUTO 00000KT 1/4SM FG VV001 12/12 A2980 430 96 200 000/00 RMK AO2
63870K0J4 0J420160116034510301/16/16 03:45:31  5-MIN K0J4 160845Z AUTO 00000KT 1/4SM FG VV001 12/12 A2980 430 96 200 000/00 RMK AO2
63870K0J4 0J420160116035010301/16/16 03:50:31  5-MIN K0J4 160850Z AUTO 00000KT 1/4SM FG VV001 12/12 A2980 430 96 200 000/00 RMK AO2
63870K0J4 0J420160116035512701/16/16 03:55:31  5-MIN K0J4 160855Z AUTO 00000KT 1/4SM FG VV001 12/12 A2980 430 100 200 000/00 RMK AO2 SLP088 T01220122 50000
63870K0J4 0J420160116040010301/16/16 04:00:31  5-MIN K0J4 160900Z AUTO 00000KT 1/4SM FG VV001 12/12 A2980 430 96 200 000/00 RMK AO2
63870K0J4 0J420160116040510401/16/16 04:05:31  5-MIN K0J4 160905Z AUTO 00000KT 1/4SM FG VV001 12/12 A2980 430 100 200 000/00 RMK AO2
63870K0J4 0J420160116041010401/16/16 04:10:31  5-MIN K0J4 160910Z AUTO 00000KT 1/4SM FG VV001 12/12 A2980 430 100 200 000/00 RMK AO2
63870K0J4 0J420160116041510301/16/16 04:15:31  5-MIN K0J4 160915Z AUTO 00000KT 1/4SM FG VV001 12/12 A2980 430 96 200 000/00 RMK AO2
63870K0J4 0J420160116042010401/16/16 04:20:31  5-MIN K0J4 160920Z AUTO 00000KT 1/4SM FG VV001 12/12 A2981 420 100 200 000/00 RMK AO2
63870K0J4 0J420160116042510401/16/16 04:25:31  5-MIN K0J4 160925Z AUTO 00000KT 1/4SM FG VV001 12/12 A2981 420 100 200 000/00 RMK AO2
63870K0J4 0J420160116043010401/16/16 04:30:31  5-MIN K0J4 160930Z AUTO 00000KT 1/4SM FG VV001 12/12 A2981 420 100 200 000/00 RMK AO2
63870K0J4 0J420160116043510401/16/16 04:35:31  5-MIN K0J4 160935Z AUTO 00000KT 1/4SM FG VV001 12/12 A2981 420 100 200 000/00 RMK AO2
63870K0J4 0J420160116044010401/16/16 04:40:31  5-MIN K0J4 160940Z AUTO 00000KT 1/4SM FG VV001 12/12 A2981 420 100 200 000/00 RMK AO2
63870K0J4 0J420160116044510401/16/16 04:45:31  5-MIN K0J4 160945Z AUTO 00000KT 1/4SM FG VV001 12/12 A2981 420 100 200 000/00 RMK AO2
63870K0J4 0J420160116045010301/16/16 04:50:31  5-MIN K0J4 160950Z AUTO 00000KT 1/4SM FG VV001 12/11 A2981 420 96 200 000/00 RMK AO2
63870K0J4 0J420160116045512001/16/16 04:55:31  5-MIN K0J4 160955Z AUTO 00000KT 1/4SM FG VV001 12/11 A2981 420 96 200 000/00 RMK AO2 SLP092 T01170111
63870K0J4 0J420160116050010301/16/16 05:00:31  5-MIN K0J4 161000Z AUTO 00000KT 1/4SM FG VV001 12/11 A2981 420 96 200 000/00 RMK AO2
63870K0J4 0J420160116050510401/16/16 05:05:31  5-MIN K0J4 161005Z AUTO 00000KT 1/4SM FG VV001 11/11 A2981 420 100 100 000/00 RMK AO2
63870K0J4 0J420160116051010401/16/16 05:10:31  5-MIN K0J4 161010Z AUTO 00000KT 1/4SM FG VV002 11/11 A2981 420 100 100 000/00 RMK AO2
63870K0J4 0J420160116051510401/16/16 05:15:31  5-MIN K0J4 161015Z AUTO 00000KT 1/4SM FG VV002 11/11 A2981 420 100 100 000/00 RMK AO2
63870K0J4 0J420160116052010301/16/16 05:20:31  5-MIN K0J4 161020Z AUTO 00000KT 1/4SM FG VV002 11/11 A2981 420 96 100 000/00 RMK AO2
63870K0J4 0J420160116052510301/16/16 05:25:31  5-MIN K0J4 161025Z AUTO 00000KT 1/4SM FG VV002 11/11 A2981 420 96 100 000/00 RMK AO2
63870K0J4 0J420160116053010301/16/16 05:30:31  5-MIN K0J4 161030Z AUTO 00000KT 1/4SM FG VV002 11/11 A2981 420 96 100 000/00 RMK AO2
63870K0J4 0J420160116053510201/16/16 05:35:31  5-MIN K0J4 161035Z AUTO 00000KT 1/4SM FG VV002 11/11 A2981 420 100 0 000/00 RMK AO2
63870K0J4 0J420160116054010201/16/16 05:40:31  5-MIN K0J4 161040Z AUTO 00000KT 1/4SM FG VV002 11/11 A2982 410 100 0 000/00 RMK AO2
63870K0J4 0J420160116054510201/16/16 05:45:31  5-MIN K0J4 161045Z AUTO 00000KT 1/4SM FG VV002 11/11 A2982 410 100 0 000/00 RMK AO2
63870K0J4 0J420160116055010201/16/16 05:50:31  5-MIN K0J4 161050Z AUTO 00000KT 1/4SM FG VV001 11/11 A2982 410 100 0 000/00 RMK AO2
63870K0J4 0J420160116055511801/16/16 05:55:31  5-MIN K0J4 161055Z AUTO 00000KT 1/4SM FG VV001 11/10 A2982 410 96 0 000/00 RMK AO2 SLP096 T01060100
63870K0J4 0J420160116060010101/16/16 06:00:31  5-MIN K0J4 161100Z AUTO 00000KT 1/4SM FG VV001 11/10 A2982 410 96 0 000/00 RMK AO2
63870K0J4 0J420160116060510101/16/16 06:05:31  5-MIN K0J4 161105Z AUTO 00000KT 1/4SM FG VV001 11/10 A2982 410 96 0 000/00 RMK AO2
63870K0J4 0J420160116061010801/16/16 06:10:31  5-MIN K0J4 161110Z AUTO 00000KT 1/4SM FG VV001 10/10 A2982 410 100 0 000/00 RMK AO2 P0001
63870K0J4 0J420160116061510801/16/16 06:15:31  5-MIN K0J4 161115Z AUTO 00000KT 1/4SM FG VV001 10/10 A2983 400 100 0 000/00 RMK AO2 P0001
63870K0J4 0J420160116062010701/16/16 06:20:31  5-MIN K0J4 161120Z AUTO 00000KT 1/4SM FG VV001 10/09 A2983 400 96 0 000/00 RMK AO2 P0001
63870K0J4 0J420160116062510701/16/16 06:25:31  5-MIN K0J4 161125Z AUTO 00000KT 1/4SM FG VV001 10/09 A2983 400 96 0 000/00 RMK AO2 P0001
63870K0J4 0J420160116063010701/16/16 06:30:31  5-MIN K0J4 161130Z AUTO 00000KT 1/4SM FG VV001 10/09 A2984 390 96 0 000/00 RMK AO2 P0001
63870K0J4 0J420160116063510701/16/16 06:35:31  5-MIN K0J4 161135Z AUTO 00000KT 1/4SM FG VV001 10/09 A2984 390 96 0 000/00 RMK AO2 P0001
63870K0J4 0J420160116064011101/16/16 06:40:31  5-MIN K0J4 161140Z AUTO 00000KT 1/4SM FG VV001 09/09 A2984 390 100 -100 000/00 RMK AO2 P0001
63870K0J4 0J420160116064511101/16/16 06:45:31  5-MIN K0J4 161145Z AUTO 00000KT 1/4SM FG VV001 09/09 A2984 390 100 -100 000/00 RMK AO2 P0001
63870K0J4 0J420160116065011001/16/16 06:50:31  5-MIN K0J4 161150Z AUTO 00000KT 1/4SM FG VV001 09/09 A2985 380 96 -100 000/00 RMK AO2 P0001
63870K0J4 0J420160116065515801/16/16 06:55:31  5-MIN K0J4 161155Z AUTO 00000KT 1/4SM FG VV001 09/09 A2985 380 100 -200 000/00 RMK AO2 SLP106 P0001 60001 70007 T00890089 10122 20072 53002
63870K0J4 0J420160116070010501/16/16 07:00:31  5-MIN K0J4 161200Z AUTO 00000KT 1/4SM FG VV001 09/09 A2985 380 100 -200 000/00 RMK AO2
63870K0J4 0J420160116070510401/16/16 07:05:31  5-MIN K0J4 161205Z AUTO 00000KT 1/4SM FG VV001 09/08 A2986 380 96 -200 000/00 RMK AO2
63870K0J4 0J420160116071010401/16/16 07:10:31  5-MIN K0J4 161210Z AUTO 00000KT 1/4SM FG VV001 09/08 A2986 370 96 -200 000/00 RMK AO2
63870K0J4 0J420160116071510401/16/16 07:15:31  5-MIN K0J4 161215Z AUTO 00000KT 1/4SM FG VV001 09/08 A2986 370 96 -200 000/00 RMK AO2
63870K0J4 0J420160116072010401/16/16 07:20:31  5-MIN K0J4 161220Z AUTO 00000KT 1/4SM FG VV001 09/08 A2986 380 96 -200 000/00 RMK AO2
63870K0J4 0J420160116072510501/16/16 07:25:31  5-MIN K0J4 161225Z AUTO 00000KT 1/4SM FG VV001 08/08 A2986 370 100 -200 000/00 RMK AO2
63870K0J4 0J420160116073010501/16/16 07:30:31  5-MIN K0J4 161230Z AUTO 00000KT 1/4SM FG VV001 08/08 A2986 370 100 -300 000/00 RMK AO2
63870K0J4 0J420160116073510401/16/16 07:35:31  5-MIN K0J4 161235Z AUTO 00000KT 1/4SM FG VV001 08/08 A2986 370 96 -300 000/00 RMK AO2
63870K0J4 0J420160116074010401/16/16 07:40:31  5-MIN K0J4 161240Z AUTO 00000KT 1/4SM FG VV001 08/08 A2986 370 96 -300 000/00 RMK AO2
63870K0J4 0J420160116074510401/16/16 07:45:31  5-MIN K0J4 161245Z AUTO 00000KT 1/2SM FG VV001 08/08 A2986 370 96 -300 000/00 RMK AO2
63870K0J4 0J420160116075010401/16/16 07:50:31  5-MIN K0J4 161250Z AUTO 00000KT 3/4SM BR VV001 08/08 A2987 370 96 -300 000/00 RMK AO2
63870K0J4 0J420160116075512501/16/16 07:55:31  5-MIN K0J4 161255Z AUTO 00000KT 1 1/2SM BR OVC001 08/08 A2987 360 100 -300 000/00 RMK AO2 SLP114 T00780078
63870K0J4 0J420160116080010301/16/16 08:00:31  5-MIN K0J4 161300Z AUTO 00000KT 2SM BR OVC001 08/07 A2987 360 96 -300 000/00 RMK AO2
63870K0J4 0J420160116080511501/16/16 08:05:31  5-MIN K0J4 161305Z AUTO VRB04KT 1 1/2SM BR BKN001 08/07 A2987 360 96 -300 VRB/04 RMK AO2 VIS 1V4
63870K0J4 0J420160116081010401/16/16 08:10:31  5-MIN K0J4 161310Z AUTO 00000KT 3/4SM BR VV001 08/08 A2987 360 96 -300 000/00 RMK AO2
63870K0J4 0J420160116081510501/16/16 08:15:31  5-MIN K0J4 161315Z AUTO 34003KT 1/2SM FG OVC001 08/08 A2987 360 96 -300 340/03 RMK AO2
63870K0J4 0J420160116082010501/16/16 08:20:31  5-MIN K0J4 161320Z AUTO VRB03KT 1/2SM FG OVC001 08/08 A2987 360 96 -300 VRB/03 RMK AO2
63870K0J4 0J420160116082510501/16/16 08:25:31  5-MIN K0J4 161325Z AUTO 00000KT 1/2SM FG OVC001 08/08 A2987 360 96 -300 000/00 RMK AO2
63870K0J4 0J420160116083010601/16/16 08:30:31  5-MIN K0J4 161330Z AUTO VRB03KT 1/4SM FG OVC001 08/08 A2988 360 100 -300 VRB/03 RMK AO2
63870K0J4 0J420160117151011201/17/16 15:10:31  5-MIN K0J4 172010Z AUTO 36008KT 320V030 10SM CLR 12/M01 A3002 230 39 0 360/08 320V030 RMK AO2
63870K0J4 0J420160117151509601/17/16 15:15:31  5-MIN K0J4 172015Z AUTO VRB06KT 10SM CLR 12/M02 A3002 230 38 0 VRB/06 RMK AO2
63870K0J4 0J420160117152009601/17/16 15:20:31  5-MIN K0J4 172020Z AUTO VRB05KT 10SM CLR 12/M02 A3002 220 38 0 VRB/05 RMK AO2
63870K0J4 0J420160117152509601/17/16 15:25:31  5-MIN K0J4 172025Z AUTO VRB06KT 10SM CLR 12/M02 A3002 220 39 0 VRB/06 RMK AO2
63870K0J4 0J420160117153011201/17/16 15:30:31  5-MIN K0J4 172030Z AUTO 34008KT 300V010 10SM CLR 12/M02 A3002 220 38 0 340/08 300V010 RMK AO2
63870K0J4 0J420160117153511201/17/16 15:35:31  5-MIN K0J4 172035Z AUTO 35007KT 310V030 10SM CLR 12/M02 A3002 220 38 0 350/07 310V030 RMK AO2
63870K0J4 0J420160118133509901/18/16 13:35:31  5-MIN K0J4 181835Z AUTO VRB03KT 10SM CLR 10/M02 A3030 -30 42 -600 VRB/03 RMK AO2
63870K0J4 0J420160118134009901/18/16 13:40:31  5-MIN K0J4 181840Z AUTO VRB04KT 10SM CLR 10/M02 A3030 -30 42 -500 VRB/04 RMK AO2
63870K0J4 0J420160118134509901/18/16 13:45:31  5-MIN K0J4 181845Z AUTO 30007KT 10SM CLR 10/M02 A3030 -30 42 -600 300/07 RMK AO2
63870K0J4 0J420160118135011501/18/16 13:50:31  5-MIN K0J4 181850Z AUTO 34008KT 310V010 10SM CLR 11/M02 A3030 -20 40 -500 340/08 310V010 RMK AO2
63870K0J4 0J420160118135511601/18/16 13:55:31  5-MIN K0J4 181855Z AUTO VRB06KT 10SM CLR 11/M02 A3029 -20 42 -500 VRB/06 RMK AO2 SLP257 T01061017
63870K0J4 0J420160118140009901/18/16 14:00:31  5-MIN K0J4 181900Z AUTO VRB04KT 10SM CLR 11/M02 A3029 -20 40 -500 VRB/04 RMK AO2
63870K0J4 0J420160118140509901/18/16 14:05:31  5-MIN K0J4 181905Z AUTO VRB06KT 10SM CLR 11/M02 A3029 -20 40 -500 VRB/06 RMK AO2
63870K0J4 0J420160118141009901/18/16 14:10:31  5-MIN K0J4 181910Z AUTO VRB04KT 10SM CLR 11/M02 A3029 -20 40 -500 VRB/04 RMK AO2
63870K0J4 0J420160118141509901/18/16 14:15:31  5-MIN K0J4 181915Z AUTO VRB05KT 10SM CLR 11/M02 A3029 -20 41 -400 VRB/05 RMK AO2
63870K0J4 0J420160118142009901/18/16 14:20:31  5-MIN K0J4 181920Z AUTO VRB05KT 10SM CLR 11/M02 A3029 -20 40 -500 VRB/05 RMK AO2
63870K0J4 0J420160118142509901/18/16 14:25:31  5-MIN K0J4 181925Z AUTO VRB05KT 10SM CLR 11/M02 A3029 -20 39 -400 VRB/05 RMK AO2
63870K0J4 0J420160118143009901/18/16 14:30:31  5-MIN K0J4 181930Z AUTO VRB05KT 10SM CLR 11/M02 A3029 -20 41 -400 VRB/05 RMK AO2
63870K0J4 0J420160118143509901/18/16 14:35:31  5-MIN K0J4 181935Z AUTO VRB03KT 10SM CLR 11/M02 A3029 -10 41 -400 VRB/03 RMK AO2
63870K0J4 0J420160118144009901/18/16 14:40:31  5-MIN K0J4 181940Z AUTO VRB04KT 10SM CLR 11/M02 A3029 -20 41 -400 VRB/04 RMK AO2
63870K0J4 0J420160118144511501/18/16 14:45:31  5-MIN K0J4 181945Z AUTO 34007KT 240V030 10SM CLR 11/M02 A3028 -10 41 -400 340/07 240V030 RMK AO2
63870K0J4 0J420160118145009901/18/16 14:50:31  5-MIN K0J4 181950Z AUTO VRB04KT 10SM CLR 11/M02 A3028 -10 41 -400 VRB/04 RMK AO2
63870K0J4 0J420160118145511601/18/16 14:55:31  5-MIN K0J4 181955Z AUTO VRB05KT 10SM CLR 11/M02 A3028 -10 39 -400 VRB/05 RMK AO2 SLP255 T01111022
63870K0J4 0J420160118150009901/18/16 15:00:31  5-MIN K0J4 182000Z AUTO VRB06KT 10SM CLR 11/M02 A3029 -10 39 -400 VRB/06 RMK AO2
63870K0J4 0J420160118150509901/18/16 15:05:31  5-MIN K0J4 182005Z AUTO VRB05KT 10SM CLR 11/M02 A3028 -10 39 -400 VRB/05 RMK AO2
63870K0J4 0J420160118151009901/18/16 15:10:31  5-MIN K0J4 182010Z AUTO VRB05KT 10SM CLR 11/M02 A3028 -10 39 -400 VRB/05 RMK AO2
63870K0J4 0J420160118151509901/18/16 15:15:31  5-MIN K0J4 182015Z AUTO VRB06KT 10SM CLR 12/M02 A3029 -20 38 -300 VRB/06 RMK AO2
63870K0J4 0J420160118152009901/18/16 15:20:31  5-MIN K0J4 182020Z AUTO VRB04KT 10SM CLR 11/M02 A3028 -10 39 -400 VRB/04 RMK AO2
63870K0J4 0J420160118152511501/18/16 15:25:31  5-MIN K0J4 182025Z AUTO 33007KT 290V010 10SM CLR 11/M02 A3028 -10 39 -400 330/07 290V010 RMK AO2
63870K0J4 0J420160119003010101/19/16 00:30:31  5-MIN K0J4 190530Z AUTO 01004KT 10SM CLR 01/M02 A3042 -140 78 -1800 010/04 RMK AO2
63870K0J4 0J420160119003510101/19/16 00:35:31  5-MIN K0J4 190535Z AUTO 01004KT 10SM CLR 01/M03 A3042 -140 78 -1900 010/04 RMK AO2
63870K0J4 0J420160119004010101/19/16 00:40:31  5-MIN K0J4 190540Z AUTO 00000KT 10SM CLR 01/M02 A3042 -140 82 -1900 000/00 RMK AO2
63870K0J4 0J420160119004510101/19/16 00:45:31  5-MIN K0J4 190545Z AUTO 00000KT 10SM CLR 01/M03 A3042 -140 75 -1800 000/00 RMK AO2
63870K0J4 0J420160119005010101/19/16 00:50:31  5-MIN K0J4 190550Z AUTO 00000KT 10SM CLR 01/M03 A3041 -130 75 -1800 000/00 RMK AO2
63870K0J4 0J420160119005513601/19/16 00:55:31  5-MIN K0J4 190555Z AUTO 36003KT 10SM CLR 01/M03 A3041 -130 78 -1800 360/03 RMK AO2 SLP298 T00061028 10067 21006 51016
63870K0J4 0J420160119010010101/19/16 01:00:31  5-MIN K0J4 190600Z AUTO 35003KT 10SM CLR 01/M03 A3041 -130 78 -1800 350/03 RMK AO2
63870K0J4 0J420160119010510101/19/16 01:05:31  5-MIN K0J4 190605Z AUTO 00000KT 10SM CLR 01/M03 A3041 -130 78 -1800 000/00 RMK AO2
63870K0J4 0J420160119011010101/19/16 01:10:31  5-MIN K0J4 190610Z AUTO 36003KT 10SM CLR 00/M03 A3041 -130 81 -1900 360/03 RMK AO2
63870K0J4 0J420160119011510101/19/16 01:15:31  5-MIN K0J4 190615Z AUTO 35003KT 10SM CLR 00/M03 A3041 -130 81 -1900 350/03 RMK AO2
63870K0J4 0J420160119012010101/19/16 01:20:31  5-MIN K0J4 190620Z AUTO 00000KT 10SM CLR 00/M03 A3041 -130 81 -1900 000/00 RMK AO2
63870K0J4 0J420160119012510101/19/16 01:25:31  5-MIN K0J4 190625Z AUTO 00000KT 10SM CLR 01/M03 A3041 -130 78 -1800 000/00 RMK AO2
63870K0J4 0J420160119013010101/19/16 01:30:31  5-MIN K0J4 190630Z AUTO 36003KT 10SM CLR 01/M03 A3041 -130 75 -1800 360/03 RMK AO2
63870K0J4 0J420160119013510101/19/16 01:35:31  5-MIN K0J4 190635Z AUTO 36003KT 10SM CLR 01/M03 A3041 -120 75 -1800 360/03 RMK AO2
63870K0J4 0J420160119014010101/19/16 01:40:31  5-MIN K0J4 190640Z AUTO 00000KT 10SM CLR 00/M03 A3040 -120 81 -1900 000/00 RMK AO2
63870K0J4 0J420160119014510101/19/16 01:45:31  5-MIN K0J4 190645Z AUTO 35003KT 10SM CLR 00/M03 A3041 -120 81 -1900 350/03 RMK AO2
63870K0J4 0J420160119015010101/19/16 01:50:31  5-MIN K0J4 190650Z AUTO 00000KT 10SM CLR 01/M03 A3041 -130 75 -1800 000/00 RMK AO2
63870K0J4 0J420160119015511801/19/16 01:55:31  5-MIN K0J4 190655Z AUTO 00000KT 10SM CLR 01/M03 A3041 -130 75 -1800 000/00 RMK AO2 SLP297 T00061033
63870K0J4 0J420160119020010101/19/16 02:00:31  5-MIN K0J4 190700Z AUTO 00000KT 10SM CLR 01/M03 A3041 -130 75 -1800 000/00 RMK AO2
63870K0J4 0J420160119020510101/19/16 02:05:31  5-MIN K0J4 190705Z AUTO 00000KT 10SM CLR 01/M03 A3041 -130 75 -1800 000/00 RMK AO2
63870K0J4 0J420160119021010101/19/16 02:10:31  5-MIN K0J4 190710Z AUTO 00000KT 10SM CLR 01/M03 A3041 -130 75 -1800 000/00 RMK AO2
63870K0J4 0J420160119021510101/19/16 02:15:31  5-MIN K0J4 190715Z AUTO 36003KT 10SM CLR 01/M03 A3041 -130 75 -1800 360/03 RMK AO2
63870K0J4 0J420160119022010101/19/16 02:20:31  5-MIN K0J4 190720Z AUTO 00000KT 10SM CLR 01/M03 A3042 -130 75 -1900 000/00 RMK AO2
63870K0J4 0J420160119022510101/19/16 02:25:31  5-MIN K0J4 190725Z AUTO 00000KT 10SM CLR 00/M03 A3042 -140 78 -1900 000/00 RMK AO2
63870K0J4 0J420160119023010101/19/16 02:30:31  5-MIN K0J4 190730Z AUTO 36003KT 10SM CLR 00/M03 A3041 -130 78 -1900 360/03 RMK AO2
63870K0J4 0J420160119023510201/19/16 02:35:31  5-MIN K0J4 190735Z AUTO 36004KT 10SM CLR M01/M03 A3041 -130 81 -2000 360/04 RMK AO2
63870K0J4 0J420160119024010101/19/16 02:40:31  5-MIN K0J4 190740Z AUTO 35003KT 10SM CLR 00/M03 A3041 -130 78 -1900 350/03 RMK AO2
63870K0J4 0J420160119024510101/19/16 02:45:31  5-MIN K0J4 190745Z AUTO 35004KT 10SM CLR 00/M03 A3041 -130 78 -1900 350/04 RMK AO2
63870K0J4 0J420160119025010101/19/16 02:50:31  5-MIN K0J4 190750Z AUTO 36004KT 10SM CLR 00/M04 A3041 -130 75 -1900 360/04 RMK AO2
63870K0J4 0J420160119025511801/19/16 02:55:31  5-MIN K0J4 190755Z AUTO 36004KT 10SM CLR 00/M04 A3041 -120 75 -1900 360/04 RMK AO2 SLP297 T00001039
63870K0J4 0J420160119030010101/19/16 03:00:31  5-MIN K0J4 190800Z AUTO 35003KT 10SM CLR 00/M04 A3040 -120 75 -1900 350/03 RMK AO2
63870K0J4 0J420160119030510101/19/16 03:05:31  5-MIN K0J4 190805Z AUTO 35003KT 10SM CLR 00/M04 A3040 -120 75 -1900 350/03 RMK AO2
63870K0J4 0J420160119031010201/19/16 03:10:31  5-MIN K0J4 190810Z AUTO 35004KT 10SM CLR M01/M04 A3040 -120 75 -2000 350/04 RMK AO2
63870K0J4 0J420160119031510201/19/16 03:15:31  5-MIN K0J4 190815Z AUTO 35003KT 10SM CLR M01/M04 A3040 -120 75 -2000 350/03 RMK AO2
63870K0J4 0J420160119032010201/19/16 03:20:31  5-MIN K0J4 190820Z AUTO 35004KT 10SM CLR M01/M04 A3040 -120 75 -2000 350/04 RMK AO2
63870K0J4 0J420160119032510201/19/16 03:25:31  5-MIN K0J4 190825Z AUTO 34003KT 10SM CLR M01/M04 A3040 -120 75 -2000 340/03 RMK AO2
63870K0J4 0J420160119033010201/19/16 03:30:31  5-MIN K0J4 190830Z AUTO 00000KT 10SM CLR M01/M04 A3040 -120 75 -2000 000/00 RMK AO2
63870K0J4 0J420160119033510201/19/16 03:35:31  5-MIN K0J4 190835Z AUTO 33003KT 10SM CLR M01/M04 A3040 -120 75 -2000 330/03 RMK AO2
63870K0J4 0J420160119034010201/19/16 03:40:31  5-MIN K0J4 190840Z AUTO 34003KT 10SM CLR M01/M04 A3040 -120 75 -2000 340/03 RMK AO2
63870K0J4 0J420160119034510201/19/16 03:45:31  5-MIN K0J4 190845Z AUTO 34003KT 10SM CLR M01/M04 A3040 -120 75 -2000 340/03 RMK AO2
63870K0J4 0J420160119035010201/19/16 03:50:31  5-MIN K0J4 190850Z AUTO 00000KT 10SM CLR M01/M04 A3040 -120 75 -2000 000/00 RMK AO2
63870K0J4 0J420160119035512501/19/16 03:55:31  5-MIN K0J4 190855Z AUTO 34003KT 10SM CLR M01/M04 A3040 -120 75 -2000 340/03 RMK AO2 SLP296 T10061044 50004
63870K0J4 0J420160119040010201/19/16 04:00:31  5-MIN K0J4 190900Z AUTO 35003KT 10SM CLR M01/M04 A3040 -120 75 -2000 350/03 RMK AO2
63870K0J4 0J420160119040510201/19/16 04:05:31  5-MIN K0J4 190905Z AUTO 00000KT 10SM CLR M01/M04 A3041 -130 78 -2100 000/00 RMK AO2
63870K0J4 0J420160119041010201/19/16 04:10:31  5-MIN K0J4 190910Z AUTO 00000KT 10SM CLR M01/M04 A3041 -130 78 -2100 000/00 RMK AO2
63870K0J4 0J420160119041510201/19/16 04:15:31  5-MIN K0J4 190915Z AUTO VRB03KT 10SM CLR M01/M04 A3041 -130 78 -2100 VRB/03 RMK AO2
63870K0J4 0J420160119042010201/19/16 04:20:31  5-MIN K0J4 190920Z AUTO 35003KT 10SM CLR M01/M05 A3041 -130 75 -2100 350/03 RMK AO2
63870K0J4 0J420160119042510201/19/16 04:25:31  5-MIN K0J4 190925Z AUTO 36004KT 10SM CLR M01/M04 A3041 -130 78 -2100 360/04 RMK AO2
63870K0J4 0J420160119043010201/19/16 04:30:31  5-MIN K0J4 190930Z AUTO 35003KT 10SM CLR M01/M05 A3041 -130 75 -2100 350/03 RMK AO2
63870K0J4 0J420160119043510201/19/16 04:35:31  5-MIN K0J4 190935Z AUTO 00000KT 10SM CLR M01/M05 A3041 -130 75 -2100 000/00 RMK AO2
63870K0J4 0J420160119044010201/19/16 04:40:31  5-MIN K0J4 190940Z AUTO 00000KT 10SM CLR M01/M05 A3041 -130 75 -2100 000/00 RMK AO2
63870K0J4 0J420160119044510201/19/16 04:45:31  5-MIN K0J4 190945Z AUTO 33003KT 10SM CLR M01/M05 A3041 -130 75 -2100 330/03 RMK AO2
63870K0J4 0J420160119045010201/19/16 04:50:31  5-MIN K0J4 190950Z AUTO 00000KT 10SM CLR M01/M05 A3041 -130 75 -2100 000/00 RMK AO2
63870K0J4 0J420160119045511901/19/16 04:55:31  5-MIN K0J4 190955Z AUTO 00000KT 10SM CLR M01/M05 A3041 -130 75 -2100 000/00 RMK AO2 SLP299 T10111050
63870K0J4 0J420160119050010201/19/16 05:00:31  5-MIN K0J4 191000Z AUTO 35003KT 10SM CLR M01/M05 A3041 -130 75 -2100 350/03 RMK AO2
63870K0J4 0J420160119050510201/19/16 05:05:31  5-MIN K0J4 191005Z AUTO 35003KT 10SM CLR M01/M05 A3041 -130 75 -2100 350/03 RMK AO2
63870K0J4 0J420160119051010201/19/16 05:10:31  5-MIN K0J4 191010Z AUTO 00000KT 10SM CLR M01/M05 A3041 -130 75 -2100 000/00 RMK AO2
63870K0J4 0J420160119051510201/19/16 05:15:31  5-MIN K0J4 191015Z AUTO 35003KT 10SM CLR M01/M05 A3041 -130 75 -2100 350/03 RMK AO2
63870K0J4 0J420160119052010201/19/16 05:20:31  5-MIN K0J4 191020Z AUTO 35003KT 10SM CLR M02/M05 A3041 -130 78 -2100 350/03 RMK AO2
63870K0J4 0J420160119052510201/19/16 05:25:31  5-MIN K0J4 191025Z AUTO 35003KT 10SM CLR M01/M05 A3041 -130 75 -2100 350/03 RMK AO2
63870K0J4 0J420160119053010201/19/16 05:30:31  5-MIN K0J4 191030Z AUTO 35003KT 10SM CLR M01/M05 A3041 -130 75 -2100 350/03 RMK AO2
63870K0J4 0J420160119053510201/19/16 05:35:31  5-MIN K0J4 191035Z AUTO 35003KT 10SM CLR M02/M05 A3041 -130 78 -2100 350/03 RMK AO2
63870K0J4 0J420160119054010201/19/16 05:40:31  5-MIN K0J4 191040Z AUTO 35003KT 10SM CLR M02/M05 A3041 -130 78 -2100 350/03 RMK AO2
63870K0J4 0J420160119054510201/19/16 05:45:31  5-MIN K0J4 191045Z AUTO 35003KT 10SM CLR M02/M05 A3041 -130 78 -2100 350/03 RMK AO2
63870K0J4 0J420160119055010201/19/16 05:50:31  5-MIN K0J4 191050Z AUTO 36003KT 10SM CLR M02/M05 A3041 -130 78 -2100 360/03 RMK AO2
63870K0J4 0J420160119055511901/19/16 05:55:31  5-MIN K0J4 191055Z AUTO 00000KT 10SM CLR M02/M06 A3041 -130 75 -2100 000/00 RMK AO2 SLP299 T10171056
63870K0J4 0J420160119060010201/19/16 06:00:31  5-MIN K0J4 191100Z AUTO 02003KT 10SM CLR M02/M05 A3041 -130 81 -2200 020/03 RMK AO2
63870K0J4 0J420160119060510201/19/16 06:05:31  5-MIN K0J4 191105Z AUTO 00000KT 10SM CLR M02/M05 A3041 -130 81 -2200 000/00 RMK AO2
63870K0J4 0J420160119061010201/19/16 06:10:31  5-MIN K0J4 191110Z AUTO 00000KT 10SM CLR M03/M05 A3041 -130 85 -2300 000/00 RMK AO2
63870K0J4 0J420160119061510201/19/16 06:15:31  5-MIN K0J4 191115Z AUTO 00000KT 10SM CLR M03/M05 A3041 -130 85 -2300 000/00 RMK AO2
63870K0J4 0J420160119062010201/19/16 06:20:31  5-MIN K0J4 191120Z AUTO 00000KT 10SM CLR M02/M05 A3042 -140 81 -2200 000/00 RMK AO2
63870K0J4 0J420160119062510201/19/16 06:25:31  5-MIN K0J4 191125Z AUTO 00000KT 10SM CLR M03/M05 A3042 -130 85 -2300 000/00 RMK AO2
63870K0J4 0J420160119063010201/19/16 06:30:31  5-MIN K0J4 191130Z AUTO 02003KT 10SM CLR M03/M05 A3042 -130 85 -2300 020/03 RMK AO2
63870K0J4 0J420160119063510201/19/16 06:35:31  5-MIN K0J4 191135Z AUTO 02003KT 10SM CLR M03/M05 A3042 -140 85 -2300 020/03 RMK AO2
63870K0J4 0J420160119064010201/19/16 06:40:31  5-MIN K0J4 191140Z AUTO 02004KT 10SM CLR M03/M04 A3042 -140 88 -2300 020/04 RMK AO2
63870K0J4 0J420160119064510201/19/16 06:45:31  5-MIN K0J4 191145Z AUTO 02004KT 10SM CLR M03/M04 A3042 -130 88 -2300 020/04 RMK AO2
63870K0J4 0J420160119065010201/19/16 06:50:31  5-MIN K0J4 191150Z AUTO 02004KT 10SM CLR M03/M04 A3042 -130 88 -2300 020/04 RMK AO2
63870K0J4 0J420160119065513701/19/16 06:55:31  5-MIN K0J4 191155Z AUTO 02004KT 10SM CLR M03/M05 A3042 -140 85 -2300 020/04 RMK AO2 SLP302 T10281050 10011 21028 55003
63870K0J4 0J420160119070010201/19/16 07:00:31  5-MIN K0J4 191200Z AUTO 02004KT 10SM CLR M03/M05 A3042 -140 85 -2300 020/04 RMK AO2
63870K0J4 0J420160119070510201/19/16 07:05:31  5-MIN K0J4 191205Z AUTO 02005KT 10SM CLR M03/M06 A3042 -140 81 -2300 020/05 RMK AO2
63870K0J4 0J420160119071010201/19/16 07:10:31  5-MIN K0J4 191210Z AUTO 02005KT 10SM CLR M03/M06 A3042 -140 81 -2300 020/05 RMK AO2
63870K0J4 0J420160119071510201/19/16 07:15:31  5-MIN K0J4 191215Z AUTO 02005KT 10SM CLR M03/M06 A3042 -140 81 -2300 020/05 RMK AO2
63870K0J4 0J420160119072010201/19/16 07:20:31  5-MIN K0J4 191220Z AUTO 02004KT 10SM CLR M03/M06 A3042 -140 81 -2300 020/04 RMK AO2
63870K0J4 0J420160119072510201/19/16 07:25:31  5-MIN K0J4 191225Z AUTO 03004KT 10SM CLR M03/M06 A3042 -140 78 -2300 030/04 RMK AO2
63870K0J4 0J420160119073010201/19/16 07:30:31  5-MIN K0J4 191230Z AUTO 03003KT 10SM CLR M03/M06 A3042 -140 81 -2300 030/03 RMK AO2
63870K0J4 0J420160119073510201/19/16 07:35:31  5-MIN K0J4 191235Z AUTO 03003KT 10SM CLR M03/M06 A3043 -140 81 -2300 030/03 RMK AO2
63870K0J4 0J420160119074010201/19/16 07:40:31  5-MIN K0J4 191240Z AUTO 00000KT 10SM CLR M03/M06 A3043 -150 81 -2300 000/00 RMK AO2
63870K0J4 0J420160119074510201/19/16 07:45:31  5-MIN K0J4 191245Z AUTO 00000KT 10SM CLR M03/M06 A3043 -150 81 -2300 000/00 RMK AO2
63870K0J4 0J420160119075010201/19/16 07:50:31  5-MIN K0J4 191250Z AUTO 00000KT 10SM CLR M03/M06 A3043 -150 78 -2300 000/00 RMK AO2
63870K0J4 0J420160119075511901/19/16 07:55:31  5-MIN K0J4 191255Z AUTO 00000KT 10SM CLR M03/M06 A3044 -150 81 -2300 000/00 RMK AO2 SLP308 T10281056
63870K0J4 0J420160119080010201/19/16 08:00:31  5-MIN K0J4 191300Z AUTO 00000KT 10SM CLR M03/M06 A3044 -160 78 -2300 000/00 RMK AO2
63870K0J4 0J420160119080510201/19/16 08:05:31  5-MIN K0J4 191305Z AUTO 00000KT 10SM CLR M03/M06 A3044 -160 81 -2300 000/00 RMK AO2
63870K0J4 0J420160119081010201/19/16 08:10:31  5-MIN K0J4 191310Z AUTO 00000KT 10SM CLR M02/M06 A3045 -160 78 -2200 000/00 RMK AO2
63870K0J4 0J420160119081510201/19/16 08:15:31  5-MIN K0J4 191315Z AUTO VRB04KT 10SM CLR M02/M06 A3045 -160 75 -2200 VRB/04 RMK AO2
63870K0J4 0J420160119082010201/19/16 08:20:31  5-MIN K0J4 191320Z AUTO 00000KT 10SM CLR M02/M06 A3045 -160 75 -2200 000/00 RMK AO2
63870K0J4 0J420160119082510201/19/16 08:25:31  5-MIN K0J4 191325Z AUTO 00000KT 10SM CLR M01/M06 A3045 -160 72 -2100 000/00 RMK AO2
63870K0J4 0J420160119083010201/19/16 08:30:31  5-MIN K0J4 191330Z AUTO 00000KT 10SM CLR M01/M06 A3045 -170 72 -2100 000/00 RMK AO2
63870K0J4 0J420160119083510201/19/16 08:35:31  5-MIN K0J4 191335Z AUTO 00000KT 10SM CLR M01/M06 A3045 -170 72 -2100 000/00 RMK AO2
63870K0J4 0J420160119084010201/19/16 08:40:31  5-MIN K0J4 191340Z AUTO 04003KT 10SM CLR M01/M06 A3045 -170 72 -2100 040/03 RMK AO2
63870K0J4 0J420160119084510201/19/16 08:45:31  5-MIN K0J4 191345Z AUTO 03003KT 10SM CLR M01/M06 A3045 -170 72 -2100 030/03 RMK AO2
63870K0J4 0J420160119085010201/19/16 08:50:31  5-MIN K0J4 191350Z AUTO 04004KT 10SM CLR M01/M06 A3045 -170 69 -2000 040/04 RMK AO2
63870K0J4 0J420160119085511901/19/16 08:55:31  5-MIN K0J4 191355Z AUTO 04004KT 10SM CLR M01/M05 A3046 -170 72 -2000 040/04 RMK AO2 SLP315 T10061050
63870K0J4 0J420160119090010201/19/16 09:00:31  5-MIN K0J4 191400Z AUTO 03005KT 10SM CLR M01/M06 A3046 -170 69 -2000 030/05 RMK AO2
63870K0J4 0J420160119090510201/19/16 09:05:31  5-MIN K0J4 191405Z AUTO 04006KT 10SM CLR M01/M06 A3046 -170 69 -2000 040/06 RMK AO2
63870K0J4 0J420160119091010101/19/16 09:10:31  5-MIN K0J4 191410Z AUTO 03005KT 10SM CLR 00/M06 A3046 -180 66 -2000 030/05 RMK AO2
63870K0J4 0J420160119091510101/19/16 09:15:31  5-MIN K0J4 191415Z AUTO 05006KT 10SM CLR 00/M06 A3047 -180 63 -2000 050/06 RMK AO2
63870K0J4 0J420160119092010101/19/16 09:20:31  5-MIN K0J4 191420Z AUTO 04006KT 10SM CLR 00/M06 A3047 -180 63 -2000 040/06 RMK AO2
63870K0J4 0J420160119092510101/19/16 09:25:31  5-MIN K0J4 191425Z AUTO 04007KT 10SM CLR 00/M07 A3047 -190 61 -2000 040/07 RMK AO2
63870K0J4 0J420160119093010101/19/16 09:30:31  5-MIN K0J4 191430Z AUTO 04005KT 10SM CLR 01/M07 A3048 -190 58 -1900 040/05 RMK AO2
63870K0J4 0J420160119093519401/19/16 09:35:31  5-MIN K0J4 191435Z AUTO 05007KT 10SM CLR 01/M06 A3048 -200 58 -1900 050/07 RMK A 04007KT 10SM0 54 -1800 040/08 RMUTO 04009KT 10SM CLR 02/M07 A3049 -200 52 -1700 040/09 RMK AO2
63870K0J4 0J420160119102010101/19/16 10:20:31  5-MIN K0J4 191520Z AUTO 03009KT 10SM CLR 02/M07 A3049 -200 50 -1700 030/09 RMK AO2
63870K0J4 0J420160119102510101/19/16 10:25:31  5-MIN K0J4 191525Z AUTO 03008KT 10SM CLR 02/M07 A3049 -200 50 -1700 030/08 RMK AO2
63870K0J4 0J420160119103010101/19/16 10:30:31  5-MIN K0J4 191530Z AUTO 04007KT 10SM CLR 02/M08 A3049 -200 47 -1700 040/07 RMK AO2
63870K0J4 0J420160119103510101/19/16 10:35:31  5-MIN K0J4 191535Z AUTO 03008KT 10SM CLR 03/M08 A3049 -200 46 -1700 030/08 RMK AO2
63870K0J4 0J420160119104010101/19/16 10:40:31  5-MIN K0J4 191540Z AUTO 05008KT 10SM CLR 03/M08 A3049 -200 46 -1700 050/08 RMK AO2
63870K0J4 0J420160119104510101/19/16 10:45:31  5-MIN K0J4 191545Z AUTO 05007KT 10SM CLR 03/M07 A3049 -200 48 -1700 050/07 RMK AO2
63870K0J4 0J420160119105010101/19/16 10:50:31  5-MIN K0J4 191550Z AUTO 05005KT 10SM CLR 03/M08 A3049 -200 44 -1600 050/05 RMK AO2
63870K0J4 0J420160119105511801/19/16 10:55:31  5-MIN K0J4 191555Z AUTO 05007KT 10SM CLR 04/M07 A3049 -200 46 -1500 050/07 RMK AO2 SLP326 T00391067
63870K0J4 0J420160119110010101/19/16 11:00:31  5-MIN K0J4 191600Z AUTO 02005KT 10SM CLR 04/M08 A3049 -200 42 -1500 020/05 RMK AO2
63870K0J4 0J420160119110510101/19/16 11:05:31  5-MIN K0J4 191605Z AUTO 04005KT 10SM CLR 04/M07 A3049 -200 42 -1400 040/05 RMK AO2
63870K0J4 0J420160119111010101/19/16 11:10:31  5-MIN K0J4 191610Z AUTO VRB05KT 10SM CLR 04/M07 A3049 -200 42 -1400 VRB/05 RMK AO2
63870K0J4 0J420160119111510101/19/16 11:15:31  5-MIN K0J4 191615Z AUTO 02007KT 10SM CLR 04/M07 A3049 -200 42 -1400 020/07 RMK AO2
63870K0J4 0J420160119112010101/19/16 11:20:31  5-MIN K0J4 191620Z AUTO 36006KT 10SM CLR 04/M08 A3049 -200 41 -1400 360/06 RMK AO2
63870K0J4 0J420160119112510101/19/16 11:25:31  5-MIN K0J4 191625Z AUTO 03006KT 10SM CLR 05/M07 A3049 -200 41 -1400 030/06 RMK AO2
63870K0J4 0J420160119113010101/19/16 11:30:31  5-MIN K0J4 191630Z AUTO 04007KT 10SM CLR 05/M07 A3049 -200 41 -1400 040/07 RMK AO2
63870K0J4 0J420160119113510101/19/16 11:35:31  5-MIN K0J4 191635Z AUTO 01004KT 10SM CLR 05/M07 A3049 -200 41 -1400 010/04 RMK AO2
63870K0J4 0J420160119114010101/19/16 11:40:31  5-MIN K0J4 191640Z AUTO 03005KT 10SM CLR 06/M08 A3049 -200 37 -1300 030/05 RMK AO2
63870K0J4 0J420160119114510101/19/16 11:45:31  5-MIN K0J4 191645Z AUTO 01006KT 10SM CLR 06/M08 A3048 -200 37 -1300 010/06 RMK AO2
63870K0J4 0J420160119115010101/19/16 11:50:31  5-MIN K0J4 191650Z AUTO 02010KT 10SM CLR 06/M08 A3048 -200 37 -1300 020/10 RMK AO2
63870K0J4 0J420160119115511801/19/16 11:55:31  5-MIN K0J4 191655Z AUTO 03003KT 10SM CLR 06/M08 A3048 -200 36 -1200 030/03 RMK AO2 SLP323 T00611078
63870K0J4 0J420160119120010101/19/16 12:00:31  5-MIN K0J4 191700Z AUTO 03007KT 10SM CLR 06/M07 A3048 -190 38 -1200 030/07 RMK AO2
63870K0J4 0J420160119120510101/19/16 12:05:31  5-MIN K0J4 191705Z AUTO 33004KT 10SM CLR 06/M08 A3048 -190 37 -1300 330/04 RMK AO2
63870K0J4 0J420160119121010101/19/16 12:10:31  5-MIN K0J4 191710Z AUTO 06006KT 10SM CLR 06/M07 A3047 -190 38 -1200 060/06 RMK AO2
63870K0J4 0J420160119121510101/19/16 12:15:31  5-MIN K0J4 191715Z AUTO 06003KT 10SM CLR 06/M08 A3047 -190 36 -1200 060/03 RMK AO2
63870K0J4 0J420160119122010101/19/16 12:20:31  5-MIN K0J4 191720Z AUTO 02006KT 10SM CLR 07/M07 A3047 -180 35 -1100 020/06 RMK AO2
63870K0J4 0J420160119122510101/19/16 12:25:31  5-MIN K0J4 191725Z AUTO 01006KT 10SM CLR 07/M08 A3047 -180 33 -1100 010/06 RMK AO2
63870K0J4 0J420160119123010101/19/16 12:30:31  5-MIN K0J4 191730Z AUTO VRB03KT 10SM CLR 07/M08 A3046 -180 32 -1100 VRB/03 RMK AO2
63870K0J4 0J420160119123510101/19/16 12:35:31  5-MIN K0J4 191735Z AUTO 36006KT 10SM CLR 08/M08 A3046 -180 31 -1000 360/06 RMK AO2
63870K0J4 0J420160119124010101/19/16 12:40:31  5-MIN K0J4 191740Z AUTO 35005KT 10SM CLR 07/M08 A3046 -170 32 -1100 350/05 RMK AO2
63870K0J4 0J420160119124510101/19/16 12:45:31  5-MIN K0J4 191745Z AUTO VRB06KT 10SM CLR 08/M08 A3046 -170 31 -1000 VRB/06 RMK AO2
63870K0J4 0J420160119125010101/19/16 12:50:31  5-MIN K0J4 191750Z AUTO VRB05KT 10SM CLR 08/M08 A3046 -170 31 -1000 VRB/05 RMK AO2
63870K0J4 0J420160119125513601/19/16 12:55:31  5-MIN K0J4 191755Z AUTO 00000KT 10SM CLR 08/M08 A3045 -170 31 -1000 000/00 RMK AO2 SLP313 T00781083 10078 21028 53023
63870K0J4 0J420160119130010001/19/16 13:00:31  5-MIN K0J4 191800Z AUTO VRB04KT 10SM CLR 08/M08 A3045 -170 31 -900 VRB/04 RMK AO2
63870K0J4 0J420160119130510001/19/16 13:05:31  5-MIN K0J4 191805Z AUTO 08005KT 10SM CLR 08/M08 A3045 -160 31 -900 080/05 RMK AO2
63870K0J4 0J420160119131010001/19/16 13:10:31  5-MIN K0J4 191810Z AUTO VRB03KT 10SM CLR 08/M08 A3045 -160 31 -900 VRB/03 RMK AO2
63870K0J4 0J420160119131510001/19/16 13:15:31  5-MIN K0J4 191815Z AUTO 01006KT 10SM CLR 09/M07 A3044 -160 31 -800 010/06 RMK AO2
63870K0J4 0J420160119132010001/19/16 13:20:31  5-MIN K0J4 191820Z AUTO VRB05KT 10SM CLR 09/M07 A3044 -160 31 -800 VRB/05 RMK AO2
63870K0J4 0J420160119132510001/19/16 13:25:31  5-MIN K0J4 191825Z AUTO 01007KT 10SM CLR 09/M07 A3044 -160 31 -800 010/07 RMK AO2
63870K0J4 0J420160119133010001/19/16 13:30:31  5-MIN K0J4 191830Z AUTO VRB04KT 10SM CLR 09/M07 A3044 -150 31 -800 VRB/04 RMK AO2
63870K0J4 0J420160119133510001/19/16 13:35:31  5-MIN K0J4 191835Z AUTO 03004KT 10SM CLR 09/M07 A3043 -150 30 -800 030/04 RMK AO2
63870K0J4 0J420160119134010001/19/16 13:40:31  5-MIN K0J4 191840Z AUTO 03007KT 10SM CLR 09/M07 A3043 -150 31 -800 030/07 RMK AO2
63870K0J4 0J420160119134510001/19/16 13:45:31  5-MIN K0J4 191845Z AUTO 36005KT 10SM CLR 09/M06 A3043 -150 33 -800 360/05 RMK AO2
63870K0J4 0J420160119135010001/19/16 13:50:31  5-MIN K0J4 191850Z AUTO 03004KT 10SM CLR 09/M07 A3043 -140 30 -800 030/04 RMK AO2
63870K0J4 0J420160119135511701/19/16 13:55:31  5-MIN K0J4 191855Z AUTO VRB04KT 10SM CLR 09/M07 A3042 -140 31 -800 VRB/04 RMK AO2 SLP302 T00941067
63870K0J4 0J420160119140010001/19/16 14:00:31  5-MIN K0J4 191900Z AUTO 00000KT 10SM CLR 09/M07 A3042 -140 31 -800 000/00 RMK AO2
63870K0J4 0J420160119140510001/19/16 14:05:31  5-MIN K0J4 191905Z AUTO VRB05KT 10SM CLR 10/M06 A3042 -140 31 -700 VRB/05 RMK AO2
63870K0J4 0J420160119141010001/19/16 14:10:31  5-MIN K0J4 191910Z AUTO VRB04KT 10SM CLR 10/M06 A3042 -140 31 -700 VRB/04 RMK AO2
63870K0J4 0J420160119141510001/19/16 14:15:31  5-MIN K0J4 191915Z AUTO 02007KT 10SM CLR 10/M05 A3041 -130 34 -700 020/07 RMK AO2
63870K0J4 0J420160119142010001/19/16 14:20:31  5-MIN K0J4 191920Z AUTO 01004KT 10SM CLR 10/M06 A3041 -130 33 -700 010/04 RMK AO2
63870K0J4 0J420160119142510001/19/16 14:25:31  5-MIN K0J4 191925Z AUTO VRB04KT 10SM CLR 10/M06 A3041 -130 33 -700 VRB/04 RMK AO2
63870K0J4 0J420160119143010001/19/16 14:30:31  5-MIN K0J4 191930Z AUTO 00000KT 10SM CLR 10/M06 A3041 -130 31 -700 000/00 RMK AO2
63870K0J4 0J420160119143510001/19/16 14:35:31  5-MIN K0J4 191935Z AUTO 01003KT 10SM CLR 10/M06 A3041 -120 33 -700 010/03 RMK AO2
63870K0J4 0J420160119144010001/19/16 14:40:31  5-MIN K0J4 191940Z AUTO 03005KT 10SM CLR 11/M05 A3040 -120 33 -600 030/05 RMK AO2
63870K0J4 0J420160119144510001/19/16 14:45:31  5-MIN K0J4 191945Z AUTO VRB04KT 10SM CLR 11/M06 A3040 -120 31 -600 VRB/04 RMK AO2
63870K0J4 0J420160119145010001/19/16 14:50:31  5-MIN K0J4 191950Z AUTO 00000KT 10SM CLR 11/M06 A3040 -120 31 -600 000/00 RMK AO2
63870K0J4 0J420160119145511701/19/16 14:55:31  5-MIN K0J4 191955Z AUTO 01007KT 10SM CLR 11/M05 A3040 -120 32 -500 010/07 RMK AO2 SLP293 T01111050
63870K0J4 0J420160119150010001/19/16 15:00:31  5-MIN K0J4 192000Z AUTO 01005KT 10SM CLR 11/M06 A3039 -110 31 -600 010/05 RMK AO2
63870K0J4 0J420160119150510001/19/16 15:05:31  5-MIN K0J4 192005Z AUTO VRB03KT 10SM CLR 11/M06 A3040 -120 31 -600 VRB/03 RMK AO2
63870K0J4 0J420160119151010001/19/16 15:10:31  5-MIN K0J4 192010Z AUTO VRB03KT 10SM CLR 10/M06 A3039 -120 33 -700 VRB/03 RMK AO2
63870K0J4 0J420160119151510001/19/16 15:15:31  5-MIN K0J4 192015Z AUTO 35006KT 10SM CLR 11/M06 A3039 -110 30 -500 350/06 RMK AO2
63870K0J4 0J420160119152010001/19/16 15:20:31  5-MIN K0J4 192020Z AUTO 35003KT 10SM CLR 11/M05 A3039 -110 32 -500 350/03 RMK AO2
63870K0J4 0J420160119152510001/19/16 15:25:31  5-MIN K0J4 192025Z AUTO VRB04KT 10SM CLR 11/M06 A3039 -110 31 -600 VRB/04 RMK AO2
63870K0J4 0J420160119153010001/19/16 15:30:31  5-MIN K0J4 192030Z AUTO VRB05KT 10SM CLR 11/M06 A3039 -110 31 -600 VRB/05 RMK AO2
63870K0J4 0J420160119153510001/19/16 15:35:31  5-MIN K0J4 192035Z AUTO 06003KT 10SM CLR 11/M06 A3039 -110 30 -500 060/03 RMK AO2
63870K0J4 0J420160119154010001/19/16 15:40:31  5-MIN K0J4 192040Z AUTO 00000KT 10SM CLR 11/M06 A3039 -110 31 -600 000/00 RMK AO2
63870K0J4 0J420160119154510001/19/16 15:45:31  5-MIN K0J4 192045Z AUTO 01004KT 10SM CLR 11/M06 A3039 -110 30 -500 010/04 RMK AO2
63870K0J4 0J420160119155010001/19/16 15:50:31  5-MIN K0J4 192050Z AUTO VRB04KT 10SM CLR 11/M06 A3039 -110 30 -500 VRB/04 RMK AO2
63870K0J4 0J420160119222010101/19/16 22:20:31  5-MIN K0J4 200320Z AUTO 00000KT 10SM CLR 01/M02 A3041 -130 85 -1800 000/00 RMK AO2
63870K0J4 0J420160119222510101/19/16 22:25:31  5-MIN K0J4 200325Z AUTO 00000KT 10SM CLR 01/M02 A3041 -130 85 -1800 000/00 RMK AO2
63870K0J4 0J420160119223010101/19/16 22:30:31  5-MIN K0J4 200330Z AUTO 03004KT 10SM CLR 00/M02 A3041 -130 88 -1900 030/04 RMK AO2
63870K0J4 0J420160119223510101/19/16 22:35:31  5-MIN K0J4 200335Z AUTO 03004KT 10SM CLR 00/M02 A3041 -130 85 -1900 030/04 RMK AO2
63870K0J4 0J420160119224010101/19/16 22:40:31  5-MIN K0J4 200340Z AUTO 02004KT 10SM CLR 01/M02 A3041 -130 78 -1800 020/04 RMK AO2
63870K0J4 0J420160119224510101/19/16 22:45:31  5-MIN K0J4 200345Z AUTO 02004KT 10SM CLR 02/M03 A3041 -130 72 -1700 020/04 RMK AO2
63870K0J4 0J420160119225010101/19/16 22:50:31  5-MIN K0J4 200350Z AUTO 00000KT 10SM CLR 02/M03 A3041 -130 72 -1700 000/00 RMK AO2
63870K0J4 0J420160119225511801/19/16 22:55:31  5-MIN K0J4 200355Z AUTO 00000KT 10SM CLR 01/M02 A3041 -130 82 -1800 000/00 RMK AO2 SLP298 T00061022
63870K0J4 0J420160119230010101/19/16 23:00:31  5-MIN K0J4 200400Z AUTO 00000KT 10SM CLR 01/M02 A3041 -130 78 -1800 000/00 RMK AO2
63870K0J4 0J420160119230510101/19/16 23:05:31  5-MIN K0J4 200405Z AUTO 00000KT 10SM CLR 01/M02 A3041 -130 82 -1800 000/00 RMK AO2
63870K0J4 0J420160119231010101/19/16 23:10:31  5-MIN K0J4 200410Z AUTO 00000KT 10SM CLR 01/M02 A3041 -130 82 -1800 000/00 RMK AO2
63870K0J4 0J420160119231510101/19/16 23:15:31  5-MIN K0J4 200415Z AUTO 05003KT 10SM CLR 01/M02 A3041 -120 82 -1800 050/03 RMK AO2
63870K0J4 0J420160119232010101/19/16 23:20:31  5-MIN K0J4 200420Z AUTO 05003KT 10SM CLR 02/M03 A3040 -120 67 -1600 050/03 RMK AO2
63870K0J4 0J420160119232510101/19/16 23:25:31  5-MIN K0J4 200425Z AUTO 05003KT 10SM CLR 03/M04 A3040 -120 61 -1600 050/03 RMK AO2
63870K0J4 0J420160119233010101/19/16 23:30:31  5-MIN K0J4 200430Z AUTO 06003KT 10SM CLR 02/M04 A3040 -120 64 -1600 060/03 RMK AO2
63870K0J4 0J420160119233510101/19/16 23:35:31  5-MIN K0J4 200435Z AUTO 06003KT 10SM CLR 03/M04 A3040 -120 61 -1600 060/03 RMK AO2
63870K0J4 0J420160119234010101/19/16 23:40:31  5-MIN K0J4 200440Z AUTO 08003KT 10SM CLR 03/M04 A3040 -120 61 -1600 080/03 RMK AO2
63870K0J4 0J420160119234510101/19/16 23:45:31  5-MIN K0J4 200445Z AUTO 00000KT 10SM CLR 02/M03 A3040 -120 69 -1700 000/00 RMK AO2
63870K0J4 0J420160119235010101/19/16 23:50:31  5-MIN K0J4 200450Z AUTO 00000KT 10SM CLR 02/M03 A3040 -120 72 -1700 000/00 RMK AO2
63870K0J4 0J420160119235512801/19/16 23:55:31  5-MIN K0J4 200455Z AUTO 00000KT 10SM CLR 02/M03 A3040 -120 67 -1600 000/00 RMK AO2 SLP295 T00221033 401111028
63870K0J4 0J420160120000010101/20/16 00:00:31  5-MIN K0J4 200500Z AUTO 00000KT 10SM CLR 02/M04 A3040 -120 64 -1600 000/00 RMK AO2
63870K0J4 0J420160120000510101/20/16 00:05:31  5-MIN K0J4 200505Z AUTO 00000KT 10SM CLR 02/M03 A3039 -110 69 -1700 000/00 RMK AO2
63870K0J4 0J420160120001010101/20/16 00:10:31  5-MIN K0J4 200510Z AUTO 00000KT 10SM CLR 01/M03 A3039 -110 75 -1700 000/00 RMK AO2
63870K0J4 0J420160120001510101/20/16 00:15:31  5-MIN K0J4 200515Z AUTO 00000KT 10SM CLR 02/M03 A3039 -110 69 -1700 000/00 RMK AO2
63870K0J4 0J420160120002010101/20/16 00:20:31  5-MIN K0J4 200520Z AUTO 00000KT 10SM CLR 02/M04 A3039 -110 66 -1700 000/00 RMK AO2
63870K0J4 0J420160120002510101/20/16 00:25:31  5-MIN K0J4 200525Z AUTO 00000KT 10SM CLR 01/M03 A3038 -100 72 -1700 000/00 RMK AO2
63870K0J4 0J420160120003010101/20/16 00:30:31  5-MIN K0J4 200530Z AUTO 00000KT 10SM CLR 00/M03 A3038 -100 81 -1900 000/00 RMK AO2
63870K0J4 0J420160120003510101/20/16 00:35:31  5-MIN K0J4 200535Z AUTO 08003KT 10SM CLR 01/M03 A3038 -100 78 -1800 080/03 RMK AO2
63870K0J4 0J420160120004010101/20/16 00:40:31  5-MIN K0J4 200540Z AUTO 00000KT 10SM CLR 02/M03 A3038 -100 72 -1700 000/00 RMK AO2
63870K0J4 0J420160120004510101/20/16 00:45:31  5-MIN K0J4 200545Z AUTO 00000KT 10SM CLR 02/M03 A3038 -110 67 -1600 000/00 RMK AO2
63870K0J4 0J420160120005010101/20/16 00:50:31  5-MIN K0J4 200550Z AUTO 00000KT 10SM CLR 00/M02 A3039 -110 85 -1900 000/00 RMK AO2
63870K0J4 0J420160120005513701/20/16 00:55:31  5-MIN K0J4 200555Z AUTO 00000KT 10SM CLR M01/M02 A3038 -100 88 -2000 000/00 RMK AO2 SLP289 T10061022 10039 21006 51003
63870K0J4 0J420160120010010201/20/16 01:00:31  5-MIN K0J4 200600Z AUTO 00000KT 10SM CLR M01/M03 A3038 -100 88 -2000 000/00 RMK AO2
63870K0J4 0J420160124012010001/24/16 01:20:31  5-MIN K0J4 240620Z AUTO 00000KT 10SM CLR M01/M04 A3018 80 78 -1800 000/00 RMK AO2
63870K0J4 0J420160124012510001/24/16 01:25:31  5-MIN K0J4 240625Z AUTO 00000KT 10SM CLR M02/M04 A3018 80 81 -1900 000/00 RMK AO2
63870K0J4 0J420160124013010001/24/16 01:30:31  5-MIN K0J4 240630Z AUTO 00000KT 10SM CLR M02/M04 A3018 80 81 -1900 000/00 RMK AO2
63870K0J4 0J420160124013510001/24/16 01:35:31  5-MIN K0J4 240635Z AUTO 00000KT 10SM CLR M02/M04 A3017 80 81 -1900 000/00 RMK AO2
63870K0J4 0J420160124014010001/24/16 01:40:31  5-MIN K0J4 240640Z AUTO 00000KT 10SM CLR M02/M04 A3017 80 81 -1900 000/00 RMK AO2
63870K0J4 0J420160124014510001/24/16 01:45:31  5-MIN K0J4 240645Z AUTO 00000KT 10SM CLR M02/M04 A3017 80 81 -1900 000/00 RMK AO2
63870K0J4 0J420160124015010001/24/16 01:50:31  5-MIN K0J4 240650Z AUTO 00000KT 10SM CLR M02/M04 A3017 80 81 -1900 000/00 RMK AO2
63870K0J4 0J420160124015511701/24/16 01:55:31  5-MIN K0J4 240655Z AUTO 00000KT 10SM CLR M02/M04 A3017 90 81 -1900 000/00 RMK AO2 SLP218 T10171044
63870K0J4 0J420160124020010001/24/16 02:00:31  5-MIN K0J4 240700Z AUTO 00000KT 10SM CLR M02/M04 A3017 90 81 -1900 000/00 RMK AO2
63870K0J4 0J420160124020510001/24/16 02:05:31  5-MIN K0J4 240705Z AUTO 00000KT 10SM CLR M02/M04 A3017 90 85 -1900 000/00 RMK AO2
63870K0J4 0J420160124021010001/24/16 02:10:31  5-MIN K0J4 240710Z AUTO 00000KT 10SM CLR M02/M04 A3017 90 85 -1900 000/00 RMK AO2
63870K0J4 0J420160124021510001/24/16 02:15:31  5-MIN K0J4 240715Z AUTO 00000KT 10SM CLR M02/M04 A3017 90 85 -1900 000/00 RMK AO2
63870K0J4 0J420160124022010001/24/16 02:20:31  5-MIN K0J4 240720Z AUTO 00000KT 10SM CLR M02/M04 A3017 90 85 -1900 000/00 RMK AO2
63870K0J4 0J420160124022510001/24/16 02:25:31  5-MIN K0J4 240725Z AUTO 00000KT 10SM CLR M02/M04 A3017 90 85 -1900 000/00 RMK AO2
63870K0J4 0J420160124023010001/24/16 02:30:31  5-MIN K0J4 240730Z AUTO 00000KT 10SM CLR M02/M04 A3017 90 85 -1900 000/00 RMK AO2
63870K0J4 0J420160124023510001/24/16 02:35:31  5-MIN K0J4 240735Z AUTO 00000KT 10SM CLR M02/M04 A3017 90 85 -1900 000/00 RMK AO2
63870K0J4 0J420160124024010001/24/16 02:40:31  5-MIN K0J4 240740Z AUTO 00000KT 10SM CLR M02/M04 A3017 90 85 -1900 000/00 RMK AO2
63870K0J4 0J420160124024510001/24/16 02:45:31  5-MIN K0J4 240745Z AUTO 00000KT 10SM CLR M02/M04 A3017 90 85 -1900 000/00 RMK AO2
63870K0J4 0J420160124025010001/24/16 02:50:31  5-MIN K0J4 240750Z AUTO 00000KT 10SM CLR M02/M04 A3016 90 85 -1900 000/00 RMK AO2
63870K0J4 0J420160124025511701/24/16 02:55:31  5-MIN K0J4 240755Z AUTO 00000KT 10SM CLR M02/M04 A3017 90 85 -1900 000/00 RMK AO2 SLP217 T10221044
63870K0J4 0J420160124030010001/24/16 03:00:31  5-MIN K0J4 240800Z AUTO 00000KT 10SM CLR M03/M04 A3017 90 88 -2000 000/00 RMK AO2
63870K0J4 0J420160124030510001/24/16 03:05:31  5-MIN K0J4 240805Z AUTO 00000KT 10SM CLR M02/M04 A3017 90 85 -1900 000/00 RMK AO2
63870K0J4 0J420160124031010001/24/16 03:10:31  5-MIN K0J4 240810Z AUTO 00000KT 10SM CLR M02/M04 A3017 90 85 -1900 000/00 RMK AO2
63870K0J4 0J420160124031510001/24/16 03:15:31  5-MIN K0J4 240815Z AUTO 00000KT 10SM CLR M03/M04 A3017 90 88 -2000 000/00 RMK AO2
63870K0J4 0J420160124032010001/24/16 03:20:31  5-MIN K0J4 240820Z AUTO 00000KT 10SM CLR M03/M04 A3017 90 88 -2000 000/00 RMK AO2
63870K0J4 0J420160124032510001/24/16 03:25:31  5-MIN K0J4 240825Z AUTO 00000KT 10SM CLR M02/M04 A3017 90 85 -1900 000/00 RMK AO2
63870K0J4 0J420160124033010001/24/16 03:30:31  5-MIN K0J4 240830Z AUTO 32003KT 10SM CLR M02/M04 A3017 90 85 -1900 320/03 RMK AO2
63870K0J4 0J420160124033510001/24/16 03:35:31  5-MIN K0J4 240835Z AUTO 00000KT 10SM CLR M03/M04 A3017 80 88 -2000 000/00 RMK AO2
63870K0J4 0J420160124034010001/24/16 03:40:31  5-MIN K0J4 240840Z AUTO 00000KT 10SM CLR M03/M04 A3018 80 88 -2000 000/00 RMK AO2
63870K0J4 0J420160124034510001/24/16 03:45:31  5-MIN K0J4 240845Z AUTO 00000KT 10SM CLR M02/M04 A3017 80 85 -1900 000/00 RMK AO2
63870K0J4 0J420160124035010001/24/16 03:50:31  5-MIN K0J4 240850Z AUTO 00000KT 10SM CLR M02/M04 A3017 80 85 -1900 000/00 RMK AO2
63870K0J4 0J420160124035512301/24/16 03:55:31  5-MIN K0J4 240855Z AUTO 00000KT 10SM CLR M02/M04 A3018 80 85 -1900 000/00 RMK AO2 SLP220 T10221044 50001
63870K0J4 0J420160124040010001/24/16 04:00:31  5-MIN K0J4 240900Z AUTO 00000KT 10SM CLR M02/M04 A3017 80 85 -1900 000/00 RMK AO2
63870K0J4 0J420160124040510001/24/16 04:05:31  5-MIN K0J4 240905Z AUTO 00000KT 10SM CLR M02/M04 A3017 80 85 -1900 000/00 RMK AO2
63870K0J4 0J420160124041010001/24/16 04:10:31  5-MIN K0J4 240910Z AUTO 33003KT 10SM CLR M02/M04 A3017 80 85 -1900 330/03 RMK AO2
63870K0J4 0J420160124041510001/24/16 04:15:31  5-MIN K0J4 240915Z AUTO 00000KT 10SM CLR M02/M04 A3017 80 85 -1900 000/00 RMK AO2
63870K0J4 0J420160124042010001/24/16 04:20:31  5-MIN K0J4 240920Z AUTO 00000KT 10SM CLR M03/M04 A3017 80 88 -2000 000/00 RMK AO2
63870K0J4 0J420160124042510001/24/16 04:25:31  5-MIN K0J4 240925Z AUTO 00000KT 10SM CLR M03/M04 A3017 80 88 -2000 000/00 RMK AO2
63870K0J4 0J420160124043010001/24/16 04:30:31  5-MIN K0J4 240930Z AUTO 00000KT 10SM CLR M02/M05 A3018 80 81 -1900 000/00 RMK AO2
63870K0J4 0J420160124043510001/24/16 04:35:31  5-MIN K0J4 240935Z AUTO 00000KT 10SM CLR M03/M04 A3018 80 88 -2000 000/00 RMK AO2
63870K0J4 0J420160124044010001/24/16 04:40:31  5-MIN K0J4 240940Z AUTO 00000KT 10SM CLR M03/M04 A3018 80 88 -2000 000/00 RMK AO2
63870K0J4 0J420160124044510001/24/16 04:45:31  5-MIN K0J4 240945Z AUTO 00000KT 10SM CLR M03/M05 A3018 80 85 -2000 000/00 RMK AO2
63870K0J4 0J420160124045010001/24/16 04:50:31  5-MIN K0J4 240950Z AUTO 00000KT 10SM CLR M03/M04 A3018 80 88 -2000 000/00 RMK AO2
63870K0J4 0J420160124045511701/24/16 04:55:31  5-MIN K0J4 240955Z AUTO 00000KT 10SM CLR M03/M05 A3018 80 85 -2000 000/00 RMK AO2 SLP222 T10281050
63870K0J4 0J420160124050010001/24/16 05:00:31  5-MIN K0J4 241000Z AUTO 00000KT 10SM CLR M03/M04 A3018 80 88 -2000 000/00 RMK AO2
63870K0J4 0J420160124050510001/24/16 05:05:31  5-MIN K0J4 241005Z AUTO 00000KT 10SM CLR M03/M05 A3018 70 85 -2000 000/00 RMK AO2
63870K0J4 0J420160124051010001/24/16 05:10:31  5-MIN K0J4 241010Z AUTO 00000KT 10SM CLR M03/M05 A3019 70 85 -2000 000/00 RMK AO2
63870K0J4 0J420160124051510001/24/16 05:15:31  5-MIN K0J4 241015Z AUTO 00000KT 10SM CLR M03/M05 A3019 70 85 -2000 000/00 RMK AO2
63870K0J4 0J420160124052010001/24/16 05:20:31  5-MIN K0J4 241020Z AUTO 00000KT 10SM CLR M03/M05 A3019 60 85 -2000 000/00 RMK AO2
63870K0J4 0J420160124052510001/24/16 05:25:31  5-MIN K0J4 241025Z AUTO 00000KT 10SM CLR M03/M05 A3020 60 85 -2000 000/00 RMK AO2
63870K0J4 0J420160124053010001/24/16 05:30:31  5-MIN K0J4 241030Z AUTO 00000KT 10SM CLR M03/M05 A3020 60 85 -2000 000/00 RMK AO2
63870K0J4 0J420160124053510001/24/16 05:35:31  5-MIN K0J4 241035Z AUTO 00000KT 10SM CLR M03/M05 A3020 60 85 -2000 000/00 RMK AO2
63870K0J4 0J420160124054010001/24/16 05:40:31  5-MIN K0J4 241040Z AUTO 00000KT 10SM CLR M03/M05 A3020 60 85 -2000 000/00 RMK AO2
63870K0J4 0J420160124054510001/24/16 05:45:31  5-MIN K0J4 241045Z AUTO 00000KT 10SM CLR M03/M05 A3020 60 85 -2000 000/00 RMK AO2
63870K0J4 0J420160124055010001/24/16 05:50:31  5-MIN K0J4 241050Z AUTO 00000KT 10SM CLR M03/M05 A3020 60 85 -2000 000/00 RMK AO2
63870K0J4 0J420160124055511701/24/16 05:55:31  5-MIN K0J4 241055Z AUTO 00000KT 10SM CLR M03/M05 A3020 60 85 -2000 000/00 RMK AO2 SLP229 T10281050
63870K0J4 0J420160124060010001/24/16 06:00:31  5-MIN K0J4 241100Z AUTO 00000KT 10SM CLR M03/M05 A3020 60 85 -2000 000/00 RMK AO2
63870K0J4 0J420160124060510001/24/16 06:05:31  5-MIN K0J4 241105Z AUTO 00000KT 10SM CLR M03/M05 A3020 60 88 -2100 000/00 RMK AO2
63870K0J4 0J420160124061010001/24/16 06:10:31  5-MIN K0J4 241110Z AUTO 00000KT 10SM CLR M03/M05 A3020 60 85 -2000 000/00 RMK AO2
63870K0J4 0J420160124061510001/24/16 06:15:31  5-MIN K0J4 241115Z AUTO 00000KT 10SM CLR M03/M05 A3020 60 85 -2000 000/00 RMK AO2
63870K0J4 0J420160124062010001/24/16 06:20:31  5-MIN K0J4 241120Z AUTO 00000KT 10SM CLR M03/M05 A3020 60 88 -2100 000/00 RMK AO2
63870K0J4 0J420160124062510001/24/16 06:25:31  5-MIN K0J4 241125Z AUTO 00000KT 10SM CLR M03/M05 A3020 60 88 -2100 000/00 RMK AO2
63870K0J4 0J420160124063010001/24/16 06:30:31  5-MIN K0J4 241130Z AUTO 00000KT 10SM CLR M03/M05 A3020 60 88 -2100 000/00 RMK AO2
63870K0J4 0J420160124063510001/24/16 06:35:31  5-MIN K0J4 241135Z AUTO 00000KT 10SM CLR M03/M04 A3021 50 92 -2100 000/00 RMK AO2
63870K0J4 0J420160124064010001/24/16 06:40:31  5-MIN K0J4 241140Z AUTO 00000KT 10SM CLR M03/M04 A3021 50 92 -2100 000/00 RMK AO2
63870K0J4 0J420160124064510001/24/16 06:45:31  5-MIN K0J4 241145Z AUTO 00000KT 10SM CLR M03/M04 A3021 50 92 -2100 000/00 RMK AO2
63870K0J4 0J420160124065010001/24/16 06:50:31  5-MIN K0J4 241150Z AUTO 00000KT 10SM CLR M03/M04 A3021 50 92 -2100 000/00 RMK AO2
63870K0J4 0J420160124065513501/24/16 06:55:31  5-MIN K0J4 241155Z AUTO 00000KT 10SM CLR M03/M04 A3021 40 92 -2100 000/00 RMK AO2 SLP233 T10331044 11011 21033 55003
63870K0J4 0J420160124070010001/24/16 07:00:31  5-MIN K0J4 241200Z AUTO 00000KT 10SM CLR M03/M04 A3021 50 92 -2100 000/00 RMK AO2
63870K0J4 0J420160124070510001/24/16 07:05:31  5-MIN K0J4 241205Z AUTO 00000KT 10SM CLR M03/M05 A3021 50 88 -2100 000/00 RMK AO2
63870K0J4 0J420160124071010001/24/16 07:10:31  5-MIN K0J4 241210Z AUTO 00000KT 10SM CLR M03/M05 A3022 40 88 -2100 000/00 RMK AO2
63870K0J4 0J420160124071510001/24/16 07:15:31  5-MIN K0J4 241215Z AUTO 00000KT 10SM CLR M03/M04 A3022 40 92 -2100 000/00 RMK AO2
63870K0J4 0J420160124072010001/24/16 07:20:31  5-MIN K0J4 241220Z AUTO 00000KT 10SM CLR M04/M05 A3022 40 92 -2200 000/00 RMK AO2
63870K0J4 0J420160124072510001/24/16 07:25:31  5-MIN K0J4 241225Z AUTO 00000KT 10SM CLR M04/M05 A3022 40 92 -2200 000/00 RMK AO2
63870K0J4 0J420160124073010001/24/16 07:30:31  5-MIN K0J4 241230Z AUTO 00000KT 10SM CLR M04/M06 A3022 40 92 -2300 000/00 RMK AO2
63870K0J4 0J420160124073510001/24/16 07:35:31  5-MIN K0J4 241235Z AUTO 00000KT 10SM CLR M04/M06 A3023 30 92 -2300 000/00 RMK AO2
63870K0J4 0J420160124074010001/24/16 07:40:31  5-MIN K0J4 241240Z AUTO 00000KT 10SM CLR M04/M06 A3023 30 88 -2200 000/00 RMK AO2
63870K0J4 0J420160124074510001/24/16 07:45:31  5-MIN K0J4 241245Z AUTO 00000KT 10SM CLR M04/M06 A3023 30 92 -2300 000/00 RMK AO2
63870K0J4 0J420160124075010001/24/16 07:50:31  5-MIN K0J4 241250Z AUTO 00000KT 10SM CLR M04/M06 A3024 30 88 -2200 000/00 RMK AO2
63870K0J4 0J420160124075511601/24/16 07:55:31  5-MIN K0J4 241255Z AUTO 00000KT 9SM CLR M04/M05 A3024 20 92 -2200 000/00 RMK AO2 SLP241 T10391050
63870K0J4 0J420160124080009901/24/16 08:00:31  5-MIN K0J4 241300Z AUTO 00000KT 9SM CLR M04/M05 A3024 20 92 -2200 000/00 RMK AO2
63870K0J4 0J420160124080509901/24/16 08:05:31  5-MIN K0J4 241305Z AUTO 00000KT 9SM CLR M04/M05 A3025 20 92 -2200 000/00 RMK AO2
63870K0J4 0J420160124081009901/24/16 08:10:31  5-MIN K0J4 241310Z AUTO 00000KT 9SM CLR M03/M04 A3025 20 92 -2200 000/00 RMK AO2
63870K0J4 0J420160124081509901/24/16 08:15:31  5-MIN K0J4 241315Z AUTO 00000KT 9SM CLR M03/M04 A3025 20 92 -2200 000/00 RMK AO2
63870K0J4 0J420160124082010001/24/16 08:20:31  5-MIN K0J4 241320Z AUTO 00000KT 10SM CLR M02/M04 A3025 10 88 -2000 000/00 RMK AO2
63870K0J4 0J420160124082510001/24/16 08:25:31  5-MIN K0J4 241325Z AUTO 00000KT 10SM CLR M02/M04 A3025 10 81 -1900 000/00 RMK AO2
63870K0J4 0J420160124083010001/24/16 08:30:31  5-MIN K0J4 241330Z AUTO 00000KT 10SM CLR M02/M04 A3025 10 81 -1900 000/00 RMK AO2
63870K0J4 0J420160124083510001/24/16 08:35:31  5-MIN K0J4 241335Z AUTO 00000KT 10SM CLR M02/M04 A3026 10 81 -2000 000/00 RMK AO2
63870K0J4 0J420160124084009901/24/16 08:40:31  5-MIN K0J4 241340Z AUTO 00000KT 10SM CLR M02/M04 A3026 0 81 -2000 000/00 RMK AO2
63870K0J4 0J420160124084509901/24/16 08:45:31  5-MIN K0J4 241345Z AUTO 00000KT 10SM CLR M01/M04 A3026 0 81 -1900 000/00 RMK AO2
63870K0J4 0J420160124085009901/24/16 08:50:31  5-MIN K0J4 241350Z AUTO 01003KT 10SM CLR M01/M04 A3026 0 75 -1800 010/03 RMK AO2
63870K0J4 0J420160124085511601/24/16 08:55:31  5-MIN K0J4 241355Z AUTO 01003KT 10SM CLR M01/M04 A3027 0 75 -1800 010/03 RMK AO2 SLP250 T10061044
63870K0J4 0J420160124090009901/24/16 09:00:31  5-MIN K0J4 241400Z AUTO 01003KT 10SM CLR M01/M04 A3027 0 75 -1800 010/03 RMK AO2
63870K0J4 0J420160124090509901/24/16 09:05:31  5-MIN K0J4 241405Z AUTO VRB03KT 10SM CLR M01/M04 A3027 0 75 -1800 VRB/03 RMK AO2
63870K0J4 0J420160124091009901/24/16 09:10:31  5-MIN K0J4 241410Z AUTO 03005KT 10SM CLR M01/M04 A3027 0 75 -1800 030/05 RMK AO2
63870K0J4 0J420160124091509901/24/16 09:15:31  5-MIN K0J4 241415Z AUTO 04006KT 10SM CLR M01/M04 A3027 0 75 -1800 040/06 RMK AO2
63870K0J4 0J420160124092009901/24/16 09:20:31  5-MIN K0J4 241420Z AUTO 02007KT 10SM CLR M01/M05 A3027 0 72 -1800 020/07 RMK AO2
63870K0J4 0J420160124092509901/24/16 09:25:31  5-MIN K0J4 241425Z AUTO 01006KT 10SM CLR M01/M05 A3027 0 72 -1800 010/06 RMK AO2
63870K0J4 0J420160124093010001/24/16 09:30:31  5-MIN K0J4 241430Z AUTO 02005KT 10SM CLR 00/M04 A3028 -10 72 -1800 020/05 RMK AO2
63870K0J4 0J420160124093510001/24/16 09:35:31  5-MIN K0J4 241435Z AUTO 36006KT 10SM CLR 00/M04 A3028 -10 72 -1800 360/06 RMK AO2
63870K0J4 0J420160124094010001/24/16 09:40:31  5-MIN K0J4 241440Z AUTO 01007KT 10SM CLR 00/M04 A3028 -10 72 -1800 010/07 RMK AO2
63870K0J4 0J420160124094510001/24/16 09:45:31  5-MIN K0J4 241445Z AUTO 02005KT 10SM CLR 00/M04 A3028 -10 72 -1800 020/05 RMK AO2
63870K0J4 0J420160124095010001/24/16 09:50:31  5-MIN K0J4 241450Z AUTO 04005KT 10SM CLR 01/M04 A3028 -10 69 -1700 040/05 RMK AO2
63870K0J4 0J420160124095512301/24/16 09:55:31  5-MIN K0J4 241455Z AUTO 36004KT 10SM CLR 01/M04 A3028 -10 72 -1700 360/04 RMK AO2 SLP255 T00061039 53014
63870K0J4 0J420160124100010001/24/16 10:00:31  5-MIN K0J4 241500Z AUTO 02004KT 10SM CLR 01/M04 A3028 -10 72 -1700 020/04 RMK AO2
63870K0J4 0J420160124100510001/24/16 10:05:31  5-MIN K0J4 241505Z AUTO 03004KT 10SM CLR 01/M04 A3028 -10 69 -1600 030/04 RMK AO2
63870K0J4 0J420160124101010001/24/16 10:10:31  5-MIN K0J4 241510Z AUTO 03003KT 10SM CLR 01/M04 A3028 -10 69 -1600 030/03 RMK AO2
63870K0J4 0J420160124101510001/24/16 10:15:31  5-MIN K0J4 241515Z AUTO 06005KT 10SM CLR 02/M04 A3028 -10 66 -1600 060/05 RMK AO2
63870K0J4 0J420160124102010001/24/16 10:20:31  5-MIN K0J4 241520Z AUTO 02003KT 10SM CLR 02/M04 A3028 -10 66 -1600 020/03 RMK AO2
63870K0J4 0J420160124102510001/24/16 10:25:31  5-MIN K0J4 241525Z AUTO 06004KT 10SM CLR 02/M04 A3028 -10 64 -1500 060/04 RMK AO2
63870K0J4 0J420160124103010001/24/16 10:30:31  5-MIN K0J4 241530Z AUTO VRB04KT 10SM CLR 02/M04 A3028 -10 64 -1500 VRB/04 RMK AO2
63870K0J4 0J420160124103510001/24/16 10:35:31  5-MIN K0J4 241535Z AUTO 08004KT 10SM CLR 03/M04 A3027 -10 61 -1400 080/04 RMK AO2
63870K0J4 0J420160124231009901/24/16 23:10:31  5-MIN K0J4 250410Z AUTO 00000KT 10SM CLR 01/M01 A3020 60 89 -1500 000/00 RMK AO2
63870K0J4 0J420160124231509901/24/16 23:15:31  5-MIN K0J4 250415Z AUTO 22003KT 10SM CLR 02/M01 A3020 60 85 -1500 220/03 RMK AO2
63870K0J4 0J420160124232009901/24/16 23:20:31  5-MIN K0J4 250420Z AUTO 00000KT 10SM CLR 01/M01 A3020 60 89 -1500 000/00 RMK AO2
63870K0J4 0J420160124232509901/24/16 23:25:31  5-MIN K0J4 250425Z AUTO 00000KT 10SM CLR 01/M01 A3020 60 89 -1600 000/00 RMK AO2
63870K0J4 0J420160124233009901/24/16 23:30:31  5-MIN K0J4 250430Z AUTO 00000KT 10SM CLR 01/M01 A3020 60 89 -1500 000/00 RMK AO2
63870K0J4 0J420160124233509901/24/16 23:35:31  5-MIN K0J4 250435Z AUTO 00000KT 10SM CLR 01/M01 A3020 60 89 -1600 000/00 RMK AO2
63870K0J4 0J420160124234009901/24/16 23:40:31  5-MIN K0J4 250440Z AUTO 00000KT 10SM CLR 01/M01 A3020 60 89 -1600 000/00 RMK AO2
63870K0J4 0J420160124234509901/24/16 23:45:31  5-MIN K0J4 250445Z AUTO 00000KT 10SM CLR 01/M01 A3020 60 89 -1600 000/00 RMK AO2
63870K0J4 0J420160124235009901/24/16 23:50:31  5-MIN K0J4 250450Z AUTO 00000KT 10SM CLR 01/M01 A3020 60 89 -1600 000/00 RMK AO2
63870K0J4 0J420160124235512601/24/16 23:55:31  5-MIN K0J4 250455Z AUTO 00000KT 10SM CLR 01/M01 A3020 60 89 -1600 000/00 RMK AO2 SLP226 T00061011 401331044
63870K0J4 0J420160125000009901/25/16 00:00:31  5-MIN K0J4 250500Z AUTO 00000KT 10SM CLR 01/M01 A3020 60 89 -1500 000/00 RMK AO2
63870K0J4 0J420160125000509901/25/16 00:05:31  5-MIN K0J4 250505Z AUTO 00000KT 10SM CLR 01/M01 A3020 60 89 -1500 000/00 RMK AO2
63870K0J4 0J420160125001009901/25/16 00:10:31  5-MIN K0J4 250510Z AUTO 22003KT 10SM CLR 01/M01 A3020 60 89 -1500 220/03 RMK AO2
63870K0J4 0J420160125001509901/25/16 00:15:31  5-MIN K0J4 250515Z AUTO 00000KT 10SM CLR 01/M01 A3020 60 89 -1500 000/00 RMK AO2
63870K0J4 0J420160125002009901/25/16 00:20:31  5-MIN K0J4 250520Z AUTO 00000KT 10SM CLR 01/M01 A3020 60 89 -1500 000/00 RMK AO2
63870K0J4 0J420160125002509901/25/16 00:25:31  5-MIN K0J4 250525Z AUTO 00000KT 10SM CLR 01/M01 A3019 60 89 -1500 000/00 RMK AO2
63870K0J4 0J420160125003009901/25/16 00:30:31  5-MIN K0J4 250530Z AUTO 00000KT 10SM CLR 01/M01 A3019 70 89 -1500 000/00 RMK AO2
63870K0J4 0J420160125003509901/25/16 00:35:31  5-MIN K0J4 250535Z AUTO 00000KT 10SM CLR 01/M01 A3019 70 92 -1600 000/00 RMK AO2
63870K0J4 0J420160125004009901/25/16 00:40:31  5-MIN K0J4 250540Z AUTO 00000KT 10SM CLR 01/M01 A3019 70 92 -1600 000/00 RMK AO2
63870K0J4 0J420160125004509901/25/16 00:45:31  5-MIN K0J4 250545Z AUTO 00000KT 10SM CLR 01/M01 A3019 70 92 -1600 000/00 RMK AO2
63870K0J4 0J420160125005009901/25/16 00:50:31  5-MIN K0J4 250550Z AUTO 00000KT 10SM CLR 01/M01 A3019 70 92 -1600 000/00 RMK AO2
63870K0J4 0J420160125005513401/25/16 00:55:31  5-MIN K0J4 250555Z AUTO 00000KT 10SM CLR 01/M01 A3019 70 92 -1600 000/00 RMK AO2 SLP222 T00061006 10050 20006 50000
63870K0J4 0J420160125010009901/25/16 01:00:31  5-MIN K0J4 250600Z AUTO 00000KT 10SM CLR 01/M01 A3019 70 92 -1600 000/00 RMK AO2
63870K0J4 0J420160125010509901/25/16 01:05:31  5-MIN K0J4 250605Z AUTO 00000KT 10SM CLR 01/M01 A3019 70 92 -1600 000/00 RMK AO2
63870K0J4 0J420160125011009901/25/16 01:10:31  5-MIN K0J4 250610Z AUTO 00000KT 10SM CLR 01/M01 A3019 70 92 -1600 000/00 RMK AO2
63870K0J4 0J420160125011509901/25/16 01:15:31  5-MIN K0J4 250615Z AUTO 00000KT 10SM CLR 01/M01 A3019 70 92 -1600 000/00 RMK AO2
63870K0J4 0J420160125012009901/25/16 01:20:31  5-MIN K0J4 250620Z AUTO 00000KT 10SM CLR 00/M01 A3019 70 92 -1700 000/00 RMK AO2
63870K0J4 0J420160125012509901/25/16 01:25:31  5-MIN K0J4 250625Z AUTO 00000KT 10SM CLR 00/M01 A3019 70 92 -1700 000/00 RMK AO2
63870K0J4 0J420160125013009901/25/16 01:30:31  5-MIN K0J4 250630Z AUTO 00000KT 10SM CLR 01/M01 A3018 70 89 -1600 000/00 RMK AO2
63870K0J4 0J420160125013509901/25/16 01:35:31  5-MIN K0J4 250635Z AUTO 00000KT 10SM CLR 01/M01 A3018 70 89 -1600 000/00 RMK AO2
63870K0J4 0J420160125014009901/25/16 01:40:31  5-MIN K0J4 250640Z AUTO 00000KT 10SM CLR 01/M01 A3018 70 89 -1600 000/00 RMK AO2
63870K0J4 0J420160125014509901/25/16 01:45:31  5-MIN K0J4 250645Z AUTO 00000KT 10SM CLR 01/M01 A3018 70 89 -1600 000/00 RMK AO2
63870K0J4 0J420160125015009901/25/16 01:50:31  5-MIN K0J4 250650Z AUTO 00000KT 10SM CLR 01/M01 A3018 70 89 -1600 000/00 RMK AO2
63870K0J4 0J420160125015511601/25/16 01:55:31  5-MIN K0J4 250655Z AUTO 00000KT 10SM CLR 01/M01 A3018 70 89 -1600 000/00 RMK AO2 SLP221 T00061011
63870K0J4 0J420160125020009901/25/16 02:00:31  5-MIN K0J4 250700Z AUTO 00000KT 10SM CLR 01/M01 A3018 70 89 -1600 000/00 RMK AO2
63870K0J4 0J420160125020509901/25/16 02:05:31  5-MIN K0J4 250705Z AUTO 00000KT 10SM CLR 00/M01 A3018 70 92 -1700 000/00 RMK AO2
63870K0J4 0J420160125021009901/25/16 02:10:31  5-MIN K0J4 250710Z AUTO 00000KT 10SM CLR 00/M02 A3019 70 88 -1700 000/00 RMK AO2
63870K0J4 0J420160125021509901/25/16 02:15:31  5-MIN K0J4 250715Z AUTO 00000KT 10SM CLR 00/M02 A3019 70 88 -1700 000/00 RMK AO2
63870K0J4 0J420160125022009901/25/16 02:20:31  5-MIN K0J4 250720Z AUTO 00000KT 10SM CLR 00/M01 A3019 70 92 -1700 000/00 RMK AO2
63870K0J4 0J420160125022509901/25/16 02:25:31  5-MIN K0J4 250725Z AUTO 00000KT 10SM CLR 00/M01 A3019 70 92 -1700 000/00 RMK AO2
63870K0J4 0J420160125023009901/25/16 02:30:31  5-MIN K0J4 250730Z AUTO 00000KT 10SM CLR 00/M01 A3019 70 92 -1700 000/00 RMK AO2
63870K0J4 0J420160125023509901/25/16 02:35:31  5-MIN K0J4 250735Z AUTO 00000KT 10SM CLR 00/M01 A3019 70 92 -1700 000/00 RMK AO2
63870K0J4 0J420160125024009901/25/16 02:40:31  5-MIN K0J4 250740Z AUTO 00000KT 10SM CLR 00/M01 A3019 70 92 -1700 000/00 RMK AO2
63870K0J4 0J420160125024509901/25/16 02:45:31  5-MIN K0J4 250745Z AUTO 00000KT 10SM CLR 00/M01 A3019 70 92 -1700 000/00 RMK AO2
63870K0J4 0J420160125025009901/25/16 02:50:31  5-MIN K0J4 250750Z AUTO 00000KT 10SM CLR 00/M01 A3018 70 92 -1700 000/00 RMK AO2
63870K0J4 0J420160125025511601/25/16 02:55:31  5-MIN K0J4 250755Z AUTO 00000KT 10SM CLR 00/M01 A3018 80 92 -1700 000/00 RMK AO2 SLP220 T00001011
63870K0J4 0J420160125030009901/25/16 03:00:31  5-MIN K0J4 250800Z AUTO 00000KT 10SM CLR 00/M01 A3018 70 92 -1700 000/00 RMK AO2
63870K0J4 0J420160125030510001/25/16 03:05:31  5-MIN K0J4 250805Z AUTO 00000KT 10SM CLR M01/M02 A3018 70 92 -1700 000/00 RMK AO2
63870K0J4 0J420160125031010001/25/16 03:10:31  5-MIN K0J4 250810Z AUTO 00000KT 10SM CLR M01/M02 A3018 80 92 -1700 000/00 RMK AO2
63870K0J4 0J420160125031509901/25/16 03:15:31  5-MIN K0J4 250815Z AUTO 00000KT 10SM CLR 00/M02 A3018 80 88 -1700 000/00 RMK AO2
63870K0J4 0J420160125032009901/25/16 03:20:31  5-MIN K0J4 250820Z AUTO 00000KT 10SM CLR 00/M02 A3018 80 88 -1700 000/00 RMK AO2
63870K0J4 0J420160125032509901/25/16 03:25:31  5-MIN K0J4 250825Z AUTO 00000KT 10SM CLR 00/M01 A3018 70 92 -1700 000/00 RMK AO2
63870K0J4 0J420160125033010001/25/16 03:30:31  5-MIN K0J4 250830Z AUTO 00000KT 10SM CLR M01/M02 A3018 70 92 -1700 000/00 RMK AO2
63870K0J4 0J420160125033510001/25/16 03:35:31  5-MIN K0J4 250835Z AUTO 00000KT 10SM CLR M01/M02 A3018 70 92 -1700 000/00 RMK AO2
63870K0J4 0J420160125034010001/25/16 03:40:31  5-MIN K0J4 250840Z AUTO 00000KT 10SM CLR M01/M02 A3018 70 92 -1700 000/00 RMK AO2
63870K0J4 0J420160125034510001/25/16 03:45:31  5-MIN K0J4 250845Z AUTO 00000KT 10SM CLR M01/M02 A3018 70 92 -1700 000/00 RMK AO2
63870K0J4 0J420160125035010001/25/16 03:50:31  5-MIN K0J4 250850Z AUTO 00000KT 10SM CLR M01/M02 A3018 70 92 -1700 000/00 RMK AO2
63870K0J4 0J420160125035512301/25/16 03:55:31  5-MIN K0J4 250855Z AUTO 00000KT 10SM CLR M01/M01 A3018 70 96 -1700 000/00 RMK AO2 SLP220 T10061011 58002
63870K0J4 0J420160125040010001/25/16 04:00:31  5-MIN K0J4 250900Z AUTO 00000KT 10SM CLR M01/M01 A3018 70 96 -1700 000/00 RMK AO2
63870K0J4 0J420160125040509901/25/16 04:05:31  5-MIN K0J4 250905Z AUTO 00000KT 10SM CLR 00/M01 A3018 70 92 -1700 000/00 RMK AO2
63870K0J4 0J420160125041009901/25/16 04:10:31  5-MIN K0J4 250910Z AUTO 00000KT 10SM CLR 00/M01 A3019 70 92 -1700 000/00 RMK AO2
63870K0J4 0J420160125041510001/25/16 04:15:31  5-MIN K0J4 250915Z AUTO 00000KT 10SM CLR M01/M02 A3019 70 92 -1700 000/00 RMK AO2
63870K0J4 0J420160125042010001/25/16 04:20:31  5-MIN K0J4 250920Z AUTO 00000KT 10SM CLR M01/M02 A3019 70 92 -1700 000/00 RMK AO2
63870K0J4 0J420160125042510001/25/16 04:25:31  5-MIN K0J4 250925Z AUTO 00000KT 10SM CLR M01/M02 A3018 70 96 -1800 000/00 RMK AO2
63870K0J4 0J420160125043010001/25/16 04:30:31  5-MIN K0J4 250930Z AUTO 00000KT 10SM CLR M01/M02 A3019 70 92 -1700 000/00 RMK AO2
63870K0J4 0J420160125043510001/25/16 04:35:31  5-MIN K0J4 250935Z AUTO 00000KT 10SM CLR M01/M02 A3018 70 96 -1800 000/00 RMK AO2
63870K0J4 0J420160125044010001/25/16 04:40:31  5-MIN K0J4 250940Z AUTO 00000KT 10SM CLR M01/M02 A3018 70 92 -1700 000/00 RMK AO2
63870K0J4 0J420160125044510001/25/16 04:45:31  5-MIN K0J4 250945Z AUTO 00000KT 10SM CLR M01/M02 A3018 70 92 -1700 000/00 RMK AO2
63870K0J4 0J420160125045009901/25/16 04:50:31  5-MIN K0J4 250950Z AUTO 00000KT 10SM CLR 00/M02 A3019 70 88 -1700 000/00 RMK AO2
63870K0J4 0J420160125045511701/25/16 04:55:31  5-MIN K0J4 250955Z AUTO 00000KT 10SM CLR M01/M02 A3019 70 92 -1700 000/00 RMK AO2 SLP221 T10061017
63870K0J4 0J420160125050010001/25/16 05:00:31  5-MIN K0J4 251000Z AUTO 00000KT 10SM CLR M01/M02 A3018 70 92 -1700 000/00 RMK AO2
63870K0J4 0J420160125050510001/25/16 05:05:31  5-MIN K0J4 251005Z AUTO 00000KT 10SM CLR M01/M02 A3018 70 92 -1700 000/00 RMK AO2
63870K0J4 0J420160125051009901/25/16 05:10:31  5-MIN K0J4 251010Z AUTO 00000KT 10SM CLR 00/M02 A3019 70 88 -1700 000/00 RMK AO2
63870K0J4 0J420160125051510001/25/16 05:15:31  5-MIN K0J4 251015Z AUTO 00000KT 10SM CLR M01/M02 A3019 70 92 -1700 000/00 RMK AO2
63870K0J4 0J420160125052010001/25/16 05:20:31  5-MIN K0J4 251020Z AUTO 00000KT 10SM CLR M01/M02 A3019 70 92 -1700 000/00 RMK AO2
63870K0J4 0J420160125052510001/25/16 05:25:31  5-MIN K0J4 251025Z AUTO 00000KT 10SM CLR M01/M02 A3019 70 92 -1700 000/00 RMK AO2
63870K0J4 0J420160125053010001/25/16 05:30:31  5-MIN K0J4 251030Z AUTO 00000KT 10SM CLR M01/M02 A3019 70 92 -1700 000/00 RMK AO2
63870K0J4 0J420160125053510001/25/16 05:35:31  5-MIN K0J4 251035Z AUTO 00000KT 10SM CLR M01/M02 A3019 70 92 -1700 000/00 RMK AO2
63870K0J4 0J420160125054010001/25/16 05:40:31  5-MIN K0J4 251040Z AUTO 00000KT 10SM CLR M01/M02 A3019 70 92 -1700 000/00 RMK AO2
63870K0J4 0J420160125054509901/25/16 05:45:31  5-MIN K0J4 251045Z AUTO 00000KT 10SM CLR 00/M02 A3019 70 88 -1700 000/00 RMK AO2
63870K0J4 0J420160125055009901/25/16 05:50:31  5-MIN K0J4 251050Z AUTO 00000KT 10SM CLR 00/M01 A3019 60 92 -1700 000/00 RMK AO2
63870K0J4 0J420160125055511701/25/16 05:55:31  5-MIN K0J4 251055Z AUTO 00000KT 10SM CLR M01/M02 A3020 60 92 -1700 000/00 RMK AO2 SLP226 T10061017
63870K0J4 0J420160125060009901/25/16 06:00:31  5-MIN K0J4 251100Z AUTO 00000KT 10SM CLR 01/M02 A3020 60 85 -1600 000/00 RMK AO2
63870K0J4 0J420160125060509901/25/16 06:05:31  5-MIN K0J4 251105Z AUTO 00000KT 10SM CLR 01/M01 A3020 50 92 -1600 000/00 RMK AO2
63870K0J4 0J420160125061009901/25/16 06:10:31  5-MIN K0J4 251110Z AUTO 00000KT 10SM CLR 01/M01 A3021 50 89 -1500 000/00 RMK AO2
63870K0J4 0J420160125061509901/25/16 06:15:31  5-MIN K0J4 251115Z AUTO 00000KT 10SM CLR 00/M01 A3021 50 92 -1700 000/00 RMK AO2
63870K0J4 0J420160125062009901/25/16 06:20:31  5-MIN K0J4 251120Z AUTO 00000KT 10SM CLR 00/M02 A3021 50 88 -1700 000/00 RMK AO2
63870K0J4 0J420160125062509901/25/16 06:25:31  5-MIN K0J4 251125Z AUTO 00000KT 10SM CLR 00/M01 A3021 50 92 -1700 000/00 RMK AO2
63870K0J4 0J420160125063009901/25/16 06:30:31  5-MIN K0J4 251130Z AUTO 00000KT 10SM CLR 01/M01 A3021 50 89 -1600 000/00 RMK AO2
63870K0J4 0J420160125063509901/25/16 06:35:31  5-MIN K0J4 251135Z AUTO 00000KT 10SM CLR 01/M01 A3021 50 89 -1600 000/00 RMK AO2
63870K0J4 0J420160125064009901/25/16 06:40:31  5-MIN K0J4 251140Z AUTO 00000KT 10SM CLR 01/M01 A3021 50 89 -1600 000/00 RMK AO2
63870K0J4 0J420160125064509901/25/16 06:45:31  5-MIN K0J4 251145Z AUTO 00000KT 10SM CLR 01/M01 A3021 50 92 -1600 000/00 RMK AO2
63870K0J4 0J420160125065009901/25/16 06:50:31  5-MIN K0J4 251150Z AUTO 00000KT 10SM CLR 01/M01 A3021 50 92 -1600 000/00 RMK AO2
63870K0J4 0J420160125065513401/25/16 06:55:31  5-MIN K0J4 251155Z AUTO 00000KT 10SM CLR 01/M01 A3021 40 92 -1600 000/00 RMK AO2 SLP232 T00061006 10011 21011 55001
63870K0J4 0J420160125070009901/25/16 07:00:31  5-MIN K0J4 251200Z AUTO 00000KT 10SM CLR 00/M01 A3022 40 92 -1700 000/00 RMK AO2
63870K0J4 0J420160125070509901/25/16 07:05:31  5-MIN K0J4 251205Z AUTO 00000KT 10SM CLR 00/M01 A3022 40 92 -1700 000/00 RMK AO2
63870K0J4 0J420160125071010001/25/16 07:10:31  5-MIN K0J4 251210Z AUTO 00000KT 10SM CLR M01/M01 A3022 40 96 -1800 000/00 RMK AO2
63870K0J4 0J420160125071509901/25/16 07:15:31  5-MIN K0J4 251215Z AUTO 00000KT 10SM CLR 00/M01 A3023 30 92 -1700 000/00 RMK AO2
63870K0J4 0J420160125072009901/25/16 07:20:31  5-MIN K0J4 251220Z AUTO 00000KT 10SM CLR 01/M01 A3023 30 89 -1600 000/00 RMK AO2
63870K0J4 0J420160125072509901/25/16 07:25:31  5-MIN K0J4 251225Z AUTO 00000KT 10SM CLR 01/M01 A3023 30 92 -1600 000/00 RMK AO2
63870K0J4 0J420160125073009901/25/16 07:30:31  5-MIN K0J4 251230Z AUTO 00000KT 10SM CLR 01/M01 A3023 30 92 -1600 000/00 RMK AO2
63870K0J4 0J420160125073509901/25/16 07:35:31  5-MIN K0J4 251235Z AUTO 00000KT 10SM CLR 01/M01 A3024 20 92 -1600 000/00 RMK AO2
63870K0J4 0J420160125074009901/25/16 07:40:31  5-MIN K0J4 251240Z AUTO 00000KT 10SM CLR 00/M01 A3024 20 96 -1700 000/00 RMK AO2
63870K0J4 0J420160125074509901/25/16 07:45:31  5-MIN K0J4 251245Z AUTO 00000KT 10SM CLR 00/M01 A3024 20 96 -1700 000/00 RMK AO2
63870K0J4 0J420160125075009901/25/16 07:50:31  5-MIN K0J4 251250Z AUTO 00000KT 10SM CLR 00/M01 A3024 20 92 -1700 000/00 RMK AO2
63870K0J4 0J420160125075511601/25/16 07:55:31  5-MIN K0J4 251255Z AUTO 00000KT 10SM CLR 00/M01 A3024 20 96 -1700 000/00 RMK AO2 SLP243 T00001006
63870K0J4 0J420160125080009901/25/16 08:00:31  5-MIN K0J4 251300Z AUTO 00000KT 10SM CLR 00/M01 A3024 20 96 -1700 000/00 RMK AO2
63870K0J4 0J420160125080509901/25/16 08:05:31  5-MIN K0J4 251305Z AUTO 00000KT 10SM CLR 01/M01 A3024 20 92 -1700 000/00 RMK AO2
63870K0J4 0J420160125081009901/25/16 08:10:31  5-MIN K0J4 251310Z AUTO 00000KT 10SM CLR 01/M01 A3025 20 92 -1700 000/00 RMK AO2
63870K0J4 0J420160125081509901/25/16 08:15:31  5-MIN K0J4 251315Z AUTO 00000KT 10SM CLR 01/M01 A3025 10 92 -1700 000/00 RMK AO2
63870K0J4 0J420160125082009801/25/16 08:20:31  5-MIN K0J4 251320Z AUTO 00000KT 10SM CLR 01/00 A3025 10 92 -1600 000/00 RMK AO2
63870K0J4 0J420160125082510101/25/16 08:25:31  5-MIN K0J4 251325Z AUTO 00000KT 10SM FEW031 01/00 A3026 10 92 -1600 000/00 RMK AO2
63870K0J4 0J420160125083010001/25/16 08:30:31  5-MIN K0J4 251330Z AUTO 03003KT 10SM FEW031 01/00 A3026 0 92 -1600 030/03 RMK AO2
63870K0J4 0J420160125083510001/25/16 08:35:31  5-MIN K0J4 251335Z AUTO 02003KT 10SM FEW031 02/00 A3026 0 89 -1500 020/03 RMK AO2
63870K0J4 0J420160125084010001/25/16 08:40:31  5-MIN K0J4 251340Z AUTO 02003KT 10SM SCT033 02/01 A3026 0 89 -1500 020/03 RMK AO2
63870K0J4 0J420160125084510001/25/16 08:45:31  5-MIN K0J4 251345Z AUTO 02004KT 10SM SCT033 02/01 A3026 0 89 -1500 020/04 RMK AO2
63870K0J4 0J420160125085010001/25/16 08:50:31  5-MIN K0J4 251350Z AUTO 03003KT 10SM BKN033 02/01 A3026 0 89 -1500 030/03 RMK AO2
63870K0J4 0J420160125085511701/25/16 08:55:31  5-MIN K0J4 251355Z AUTO 01003KT 10SM BKN033 02/01 A3027 0 89 -1500 010/03 RMK AO2 SLP249 T00220006
63870K0J4 0J420160125090010001/25/16 09:00:31  5-MIN K0J4 251400Z AUTO 02004KT 10SM BKN033 03/01 A3027 0 85 -1400 020/04 RMK AO2
63870K0J4 0J420160125090510001/25/16 09:05:31  5-MIN K0J4 251405Z AUTO 00000KT 10SM OVC035 02/01 A3027 0 89 -1500 000/00 RMK AO2
63870K0J4 0J420160125091010001/25/16 09:10:31  5-MIN K0J4 251410Z AUTO 03004KT 10SM OVC035 02/01 A3027 0 89 -1500 030/04 RMK AO2
63870K0J4 0J420160125091510001/25/16 09:15:31  5-MIN K0J4 251415Z AUTO 02004KT 10SM OVC035 02/01 A3027 0 89 -1500 020/04 RMK AO2
63870K0J4 0J420160125092010001/25/16 09:20:31  5-MIN K0J4 251420Z AUTO 00000KT 10SM OVC035 02/01 A3027 0 89 -1500 000/00 RMK AO2
63870K0J4 0J420160125092510001/25/16 09:25:31  5-MIN K0J4 251425Z AUTO 01004KT 10SM OVC035 02/01 A3027 0 89 -1500 010/04 RMK AO2
63870K0J4 0J420160125093010001/25/16 09:30:31  5-MIN K0J4 251430Z AUTO 03003KT 10SM OVC037 03/01 A3027 0 89 -1400 030/03 RMK AO2
63870K0J4 0J420160125093510001/25/16 09:35:31  5-MIN K0J4 251435Z AUTO 04003KT 10SM OVC037 03/01 A3027 0 89 -1400 040/03 RMK AO2
63870K0J4 0J420160125094010201/25/16 09:40:31  5-MIN K0J4 251440Z AUTO 00000KT 10SM OVC037 03/01 A3028 -10 89 -1400 000/00 RMK AO2
63870K0J4 0J420160125094510201/25/16 09:45:31  5-MIN K0J4 251445Z AUTO 03003KT 10SM OVC037 03/02 A3028 -10 89 -1300 030/03 RMK AO2
63870K0J4 0J420160125095010201/25/16 09:50:31  5-MIN K0J4 251450Z AUTO 03003KT 10SM OVC037 04/02 A3028 -10 89 -1300 030/03 RMK AO2
63870K0J4 0J420160125095512501/25/16 09:55:31  5-MIN K0J4 251455Z AUTO 00000KT 10SM OVC037 04/02 A3028 -10 89 -1300 000/00 RMK AO2 SLP255 T00390022 53011
63870K0J4 0J420160125100010201/25/16 10:00:31  5-MIN K0J4 251500Z AUTO 07003KT 10SM OVC037 04/02 A3029 -20 85 -1200 070/03 RMK AO2
63870K0J4 0J420160125100510201/25/16 10:05:31  5-MIN K0J4 251505Z AUTO 08005KT 10SM OVC037 04/02 A3028 -10 82 -1200 080/05 RMK AO2
63870K0J4 0J420160125101010201/25/16 10:10:31  5-MIN K0J4 251510Z AUTO 07003KT 10SM OVC037 04/02 A3029 -20 82 -1200 070/03 RMK AO2
63870K0J4 0J420160125101510201/25/16 10:15:31  5-MIN K0J4 251515Z AUTO 05003KT 10SM OVC037 04/02 A3029 -20 82 -1200 050/03 RMK AO2
63870K0J4 0J420160125102010201/25/16 10:20:31  5-MIN K0J4 251520Z AUTO 08004KT 10SM OVC037 04/02 A3029 -20 82 -1200 080/04 RMK AO2
63870K0J4 0J420160125102510201/25/16 10:25:31  5-MIN K0J4 251525Z AUTO 07004KT 10SM OVC037 04/02 A3029 -20 85 -1200 070/04 RMK AO2
63870K0J4 0J420160125103010201/25/16 10:30:31  5-MIN K0J4 251530Z AUTO 08004KT 10SM OVC037 05/02 A3029 -20 79 -1200 080/04 RMK AO2
63870K0J4 0J420160125103510201/25/16 10:35:31  5-MIN K0J4 251535Z AUTO 06005KT 10SM OVC037 05/02 A3029 -20 82 -1200 060/05 RMK AO2
63870K0J4 0J420160125104010201/25/16 10:40:31  5-MIN K0J4 251540Z AUTO 06003KT 10SM OVC037 05/02 A3030 -20 82 -1200 060/03 RMK AO2
63870K0J4 0J420160125104510201/25/16 10:45:31  5-MIN K0J4 251545Z AUTO 06004KT 10SM OVC037 06/03 A3030 -20 82 -1100 060/04 RMK AO2
63870K0J4 0J420160125105010201/25/16 10:50:31  5-MIN K0J4 251550Z AUTO 06003KT 10SM OVC037 06/03 A3030 -20 82 -1100 060/03 RMK AO2
63870K0J4 0J420160125105511901/25/16 10:55:31  5-MIN K0J4 251555Z AUTO 08003KT 10SM OVC037 06/03 A3030 -30 82 -1100 080/03 RMK AO2 SLP260 T00560028
63870K0J4 0J420160125110010201/25/16 11:00:31  5-MIN K0J4 251600Z AUTO 08005KT 10SM OVC039 06/03 A3030 -20 82 -1000 080/05 RMK AO2
63870K0J4 0J420160125110510201/25/16 11:05:31  5-MIN K0J4 251605Z AUTO 08004KT 10SM OVC039 06/03 A3029 -20 82 -1000 080/04 RMK AO2
63870K0J4 0J420160126082009701/26/16 08:20:31  5-MIN K0J4 261320Z AUTO 16004KT 10SM CLR 10/09 A3019 70 93 -400 160/04 RMK AO2
63870K0J4 0J420160126082509701/26/16 08:25:31  5-MIN K0J4 261325Z AUTO 15003KT 10SM CLR 11/09 A3019 70 89 -400 150/03 RMK AO2
63870K0J4 0J420160126083009701/26/16 08:30:31  5-MIN K0J4 261330Z AUTO 15004KT 10SM CLR 11/09 A3019 70 89 -400 150/04 RMK AO2
63870K0J4 0J420160126083509701/26/16 08:35:31  5-MIN K0J4 261335Z AUTO 14004KT 10SM CLR 11/09 A3018 70 89 -400 140/04 RMK AO2
63870K0J4 0J420160126084009701/26/16 08:40:31  5-MIN K0J4 261340Z AUTO 14004KT 10SM CLR 11/09 A3018 70 86 -300 140/04 RMK AO2
63870K0J4 0J420160126084509701/26/16 08:45:31  5-MIN K0J4 261345Z AUTO 14004KT 10SM CLR 11/09 A3018 70 86 -300 140/04 RMK AO2
63870K0J4 0J420160126085009701/26/16 08:50:31  5-MIN K0J4 261350Z AUTO 15004KT 10SM CLR 11/09 A3019 70 86 -300 150/04 RMK AO2
63870K0J4 0J420160126085511401/26/16 08:55:31  5-MIN K0J4 261355Z AUTO 14005KT 10SM CLR 11/09 A3019 70 86 -300 140/05 RMK AO2 SLP221 T01110089
63870K0J4 0J420160126090009701/26/16 09:00:31  5-MIN K0J4 261400Z AUTO 15005KT 10SM CLR 11/09 A3019 70 86 -300 150/05 RMK AO2
63870K0J4 0J420160126090509701/26/16 09:05:31  5-MIN K0J4 261405Z AUTO 13004KT 10SM CLR 12/09 A3018 80 83 -200 130/04 RMK AO2
63870K0J4 0J420160126091009701/26/16 09:10:31  5-MIN K0J4 261410Z AUTO 14006KT 10SM CLR 12/09 A3018 80 83 -200 140/06 RMK AO2
63870K0J4 0J420160126091509701/26/16 09:15:31  5-MIN K0J4 261415Z AUTO 15007KT 10SM CLR 12/09 A3018 70 83 -200 150/07 RMK AO2
63870K0J4 0J420160126092009701/26/16 09:20:31  5-MIN K0J4 261420Z AUTO 15006KT 10SM CLR 12/09 A3018 70 80 -200 150/06 RMK AO2
63870K0J4 0J420160126092509701/26/16 09:25:31  5-MIN K0J4 261425Z AUTO 15006KT 10SM CLR 12/09 A3018 70 80 -200 150/06 RMK AO2
63870K0J4 0J420160126093009701/26/16 09:30:31  5-MIN K0J4 261430Z AUTO 16006KT 10SM CLR 12/09 A3019 70 80 -200 160/06 RMK AO2
63870K0J4 0J420160126093509701/26/16 09:35:31  5-MIN K0J4 261435Z AUTO 17006KT 10SM CLR 12/09 A3019 70 80 -200 170/06 RMK AO2
63870K0J4 0J420160126094010001/26/16 09:40:31  5-MIN K0J4 261440Z AUTO 16005KT 10SM FEW080 12/09 A3019 60 80 -200 160/05 RMK AO2
63870K0J4 0J420160126094510001/26/16 09:45:31  5-MIN K0J4 261445Z AUTO 17006KT 10SM SCT075 13/09 A3019 60 77 -100 170/06 RMK AO2
63870K0J4 0J420160126095010001/26/16 09:50:31  5-MIN K0J4 261450Z AUTO 16004KT 10SM BKN075 13/09 A3020 60 80 -100 160/04 RMK AO2
63870K0J4 0J420160126095512301/26/16 09:55:31  5-MIN K0J4 261455Z AUTO 16005KT 10SM BKN075 13/09 A3019 60 80 -100 160/05 RMK AO2 SLP223 T01280094 56007
63870K0J4 0J420160126100010001/26/16 10:00:31  5-MIN K0J4 261500Z AUTO 15005KT 10SM BKN075 13/09 A3019 70 80 -100 150/05 RMK AO2
63870K0J4 0J420160126100509701/26/16 10:05:31  5-MIN K0J4 261505Z AUTO 16005KT 10SM BKN075 13/09 A3019 70 77 0 160/05 RMK AO2
63870K0J4 0J420160126101009701/26/16 10:10:31  5-MIN K0J4 261510Z AUTO 16005KT 10SM OVC075 13/09 A3019 70 77 0 160/05 RMK AO2
63870K0J4 0J420160126101509701/26/16 10:15:31  5-MIN K0J4 261515Z AUTO 16005KT 10SM OVC075 13/09 A3019 70 77 0 160/05 RMK AO2
63870K0J4 0J420160126102009701/26/16 10:20:31  5-MIN K0J4 261520Z AUTO 16004KT 10SM OVC075 13/10 A3019 70 80 0 160/04 RMK AO2
63870K0J4 0J420160126102509701/26/16 10:25:31  5-MIN K0J4 261525Z AUTO 16005KT 10SM OVC075 13/10 A3019 60 80 0 160/05 RMK AO2
63870K0J4 0J420160126103009701/26/16 10:30:31  5-MIN K0J4 261530Z AUTO 16005KT 10SM OVC075 14/10 A3019 70 77 0 160/05 RMK AO2
63870K0J4 0J420160126103509701/26/16 10:35:31  5-MIN K0J4 261535Z AUTO 16005KT 10SM OVC075 14/10 A3019 60 77 0 160/05 RMK AO2
63870K0J4 0J420160126104009701/26/16 10:40:31  5-MIN K0J4 261540Z AUTO 16004KT 10SM OVC075 14/10 A3020 60 77 0 160/04 RMK AO2
63870K0J4 0J420160126104509901/26/16 10:45:31  5-MIN K0J4 261545Z AUTO 16005KT 10SM OVC070 14/10 A3020 60 74 100 160/05 RMK AO2
63870K0J4 0J420160126105009901/26/16 10:50:31  5-MIN K0J4 261550Z AUTO 17003KT 10SM OVC070 14/10 A3020 60 74 100 170/03 RMK AO2
63870K0J4 0J420160126105511601/26/16 10:55:31  5-MIN K0J4 261555Z AUTO 17004KT 10SM OVC070 14/10 A3019 60 74 100 170/04 RMK AO2 SLP223 T01440100
63870K0J4 0J420160126110009901/26/16 11:00:31  5-MIN K0J4 261600Z AUTO 17004KT 10SM OVC070 14/11 A3019 70 77 100 170/04 RMK AO2
63870K0J4 0J420160126110509901/26/16 11:05:31  5-MIN K0J4 261605Z AUTO 18004KT 10SM OVC070 14/11 A3019 70 77 100 180/04 RMK AO2
63870K0J4 0J420160126111009901/26/16 11:10:31  5-MIN K0J4 261610Z AUTO 18006KT 10SM OVC070 15/11 A3019 70 74 100 180/06 RMK AO2
63870K0J4 0J420160126111509901/26/16 11:15:31  5-MIN K0J4 261615Z AUTO 17004KT 10SM OVC065 15/11 A3019 70 74 100 170/04 RMK AO2
63870K0J4 0J420160126112009901/26/16 11:20:31  5-MIN K0J4 261620Z AUTO 17004KT 10SM OVC065 15/11 A3019 70 77 100 170/04 RMK AO2
63870K0J4 0J420160126112509901/26/16 11:25:31  5-MIN K0J4 261625Z AUTO 17004KT 10SM OVC065 15/11 A3019 70 77 100 170/04 RMK AO2
63870K0J4 0J420160126113009901/26/16 11:30:31  5-MIN K0J4 261630Z AUTO 15003KT 10SM OVC065 15/11 A3019 70 77 100 150/03 RMK AO2
63870K0J4 0J420160126113509901/26/16 11:35:31  5-MIN K0J4 261635Z AUTO 17003KT 10SM OVC065 16/11 A3019 70 74 200 170/03 RMK AO2
63870K0J4 0J420160126114009901/26/16 11:40:31  5-MIN K0J4 261640Z AUTO 18003KT 10SM OVC065 16/11 A3019 70 74 200 180/03 RMK AO2
63870K0J4 0J420160126114509901/26/16 11:45:31  5-MIN K0J4 261645Z AUTO 00000KT 10SM OVC065 16/11 A3019 70 74 200 000/00 RMK AO2
63870K0J4 0J420160126115009901/26/16 11:50:31  5-MIN K0J4 261650Z AUTO 21003KT 10SM OVC070 16/11 A3019 60 74 200 210/03 RMK AO2
63870K0J4 0J420160126115511601/26/16 11:55:31  5-MIN K0J4 261655Z AUTO 00000KT 10SM OVC065 16/11 A3019 70 74 200 000/00 RMK AO2 SLP221 T01560111
63870K0J4 0J420160126120009901/26/16 12:00:31  5-MIN K0J4 261700Z AUTO VRB03KT 10SM OVC065 16/12 A3018 80 75 300 VRB/03 RMK AO2
63870K0J4 0J420160126120509901/26/16 12:05:31  5-MIN K0J4 261705Z AUTO 00000KT 10SM OVC070 16/12 A3018 70 75 300 000/00 RMK AO2
63870K0J4 0J420160126121009901/26/16 12:10:31  5-MIN K0J4 261710Z AUTO 00000KT 10SM OVC070 16/12 A3018 70 75 300 000/00 RMK AO2
63870K0J4 0J420160126121509901/26/16 12:15:31  5-MIN K0J4 261715Z AUTO 17004KT 10SM OVC070 17/12 A3018 80 72 300 170/04 RMK AO2
63870K0J4 0J420160126122010601/26/16 12:20:31  5-MIN K0J4 261720Z AUTO 15003KT 10SM BKN070 OVC090 17/12 A3017 90 72 300 150/03 RMK AO2
63870K0J4 0J420160126122510601/26/16 12:25:31  5-MIN K0J4 261725Z AUTO 17005KT 10SM BKN070 OVC090 17/12 A3017 90 69 400 170/05 RMK AO2
63870K0J4 0J420160126123010601/26/16 12:30:31  5-MIN K0J4 261730Z AUTO 16005KT 10SM BKN070 OVC090 17/12 A3017 90 69 400 160/05 RMK AO2
63870K0J4 0J420160126123510601/26/16 12:35:31  5-MIN K0J4 261735Z AUTO 17007KT 10SM BKN070 OVC090 17/12 A3016 90 69 400 170/07 RMK AO2
63870K0J4 0J420160126124010701/26/16 12:40:31  5-MIN K0J4 261740Z AUTO 17006KT 10SM BKN070 OVC090 17/12 A3016 100 69 400 170/06 RMK AO2
63870K0J4 0J420160126124510701/26/16 12:45:31  5-MIN K0J4 261745Z AUTO 18006KT 10SM BKN070 OVC090 17/12 A3016 100 69 400 180/06 RMK AO2
63870K0J4 0J420160126125010001/26/16 12:50:31  5-MIN K0J4 261750Z AUTO 17006KT 10SM OVC070 17/12 A3015 100 69 400 170/06 RMK AO2
63870K0J4 0J420160126125513501/26/16 12:55:31  5-MIN K0J4 261755Z AUTO 18005KT 10SM OVC070 18/12 A3015 100 67 500 180/05 RMK AO2 SLP207 T01780117 10178 20100 51005
63870K0J4 0J420160126130010001/26/16 13:00:31  5-MIN K0J4 261800Z AUTO 17006KT 10SM OVC070 18/12 A3015 100 67 500 170/06 RMK AO2
63870K0J4 0J420160126130510701/26/16 13:05:31  5-MIN K0J4 261805Z AUTO 17007KT 10SM BKN070 OVC085 18/12 A3015 110 67 500 170/07 RMK AO2
63870K0J4 0J420160126131010701/26/16 13:10:31  5-MIN K0J4 261810Z AUTO 17006KT 10SM BKN070 OVC090 18/12 A3015 110 69 500 170/06 RMK AO2
63870K0J4 0J420160126131510701/26/16 13:15:31  5-MIN K0J4 261815Z AUTO 16006KT 10SM BKN070 OVC090 18/12 A3014 110 67 600 160/06 RMK AO2
63870K0J4 0J420160126132010701/26/16 13:20:31  5-MIN K0J4 261820Z AUTO 17008KT 10SM BKN070 OVC085 18/12 A3014 110 67 600 170/08 RMK AO2
63870K0J4 0J420160126132510701/26/16 13:25:31  5-MIN K0J4 261825Z AUTO 18008KT 10SM BKN070 BKN085 18/12 A3014 110 67 600 180/08 RMK AO2
63870K0J4 0J420160126133010701/26/16 13:30:31  5-MIN K0J4 261830Z AUTO 17007KT 10SM SCT070 BKN085 18/12 A3014 120 67 600 170/07 RMK AO2
63870K0J4 0J420160126133510701/26/16 13:35:31  5-MIN K0J4 261835Z AUTO 19008KT 10SM BKN070 BKN085 19/13 A3014 120 67 600 190/08 RMK AO2
63870K0J4 0J420160126134010701/26/16 13:40:31  5-MIN K0J4 261840Z AUTO 18008KT 10SM BKN070 BKN085 18/13 A3013 120 70 600 180/08 RMK AO2
63870K0J4 0J420160126134510701/26/16 13:45:31  5-MIN K0J4 261845Z AUTO 17007KT 10SM BKN070 OVC085 18/13 A3013 130 70 600 170/07 RMK AO2
63870K0J4 0J420160126135010601/26/16 13:50:31  5-MIN K0J4 261850Z AUTO 17008G14KT 10SM BKN070 18/13 A3012 130 72 600 170/08G14 RMK AO2
63870K0J4 0J420160126135511701/26/16 13:55:31  5-MIN K0J4 261855Z AUTO 18009KT 10SM OVC070 19/13 A3012 130 70 700 180/09 RMK AO2 SLP197 T01890133
63870K0J4 0J420160126140010001/26/16 14:00:31  5-MIN K0J4 261900Z AUTO 18009KT 10SM OVC065 19/13 A3012 130 70 700 180/09 RMK AO2
63870K0J4 0J420160126140510001/26/16 14:05:31  5-MIN K0J4 261905Z AUTO 18009KT 10SM OVC065 19/13 A3012 140 70 700 180/09 RMK AO2
63870K0J4 0J420160126141011301/26/16 14:10:31  5-MIN K0J4 261910Z AUTO 18010G15KT 10SM FEW023 OVC065 19/14 A3011 140 72 700 180/10G15 RMK AO2
63870K0J4 0J420160126141511301/26/16 14:15:31  5-MIN K0J4 261915Z AUTO 18010G17KT 10SM FEW023 BKN065 19/13 A3011 140 70 700 180/10G17 RMK AO2
63870K0J4 0J420160126142011301/26/16 14:20:31  5-MIN K0J4 261920Z AUTO 19010G17KT 10SM FEW023 BKN065 19/14 A3011 140 72 700 190/10G17 RMK AO2
63870K0J4 0J420160126142510601/26/16 14:25:31  5-MIN K0J4 261925Z AUTO 19007G14KT 10SM SCT060 19/14 A3011 140 72 700 190/07G14 RMK AO2
63870K0J4 0J420160126143010601/26/16 14:30:31  5-MIN K0J4 261930Z AUTO 17012G16KT 10SM FEW065 19/14 A3010 150 72 700 170/12G16 RMK AO2
63870K0J4 0J420160126143510601/26/16 14:35:31  5-MIN K0J4 261935Z AUTO 17008G16KT 10SM FEW065 19/14 A3010 150 72 700 170/08G16 RMK AO2
63870K0J4 0J420160126144009701/26/16 14:40:31  5-MIN K0J4 261940Z AUTO 18008KT 10SM CLR 19/14 A3010 150 70 700 180/08 RMK AO2
63870K0J4 0J420160126144510301/26/16 14:45:31  5-MIN K0J4 261945Z AUTO 19010G16KT 10SM CLR 19/13 A3010 150 67 700 190/10G16 RMK AO2
63870K0J4 0J420160126145010001/26/16 14:50:31  5-MIN K0J4 261950Z AUTO 19013KT 10SM FEW024 19/13 A3009 160 70 700 190/13 RMK AO2
63870K0J4 0J420160126145511701/26/16 14:55:31  5-MIN K0J4 261955Z AUTO 18010KT 10SM FEW024 19/13 A3009 160 70 700 180/10 RMK AO2 SLP187 T01890133
63870K0J4 0J420160126150010601/26/16 15:00:31  5-MIN K0J4 262000Z AUTO 18008G15KT 10SM FEW024 19/13 A3009 160 70 700 180/08G15 RMK AO2
63870K0J4 0J420160126150510001/26/16 15:05:31  5-MIN K0J4 262005Z AUTO 18008KT 10SM FEW024 19/13 A3008 170 70 700 180/08 RMK AO2
63870K0J4 0J420160126151010001/26/16 15:10:31  5-MIN K0J4 262010Z AUTO 18008KT 10SM FEW024 19/13 A3008 170 70 700 180/08 RMK AO2
63870K0J4 0J420160126151510001/26/16 15:15:31  5-MIN K0J4 262015Z AUTO 19007KT 10SM FEW024 19/13 A3008 170 67 800 190/07 RMK AO2
63870K0J4 0J420160126152010001/26/16 15:20:31  5-MIN K0J4 262020Z AUTO 19010KT 10SM FEW026 19/13 A3008 170 70 700 190/10 RMK AO2
63870K0J4 0J420160126152509701/26/16 15:25:31  5-MIN K0J4 262025Z AUTO 19007KT 10SM CLR 19/13 A3008 170 70 700 190/07 RMK AO2
63870K0J4 0J420160126153009701/26/16 15:30:31  5-MIN K0J4 262030Z AUTO 18007KT 10SM CLR 19/13 A3008 170 70 700 180/07 RMK AO2
63870K0J4 0J420160126153510601/26/16 15:35:31  5-MIN K0J4 262035Z AUTO 17009G14KT 10SM FEW065 19/13 A3008 170 70 700 170/09G14 RMK AO2
63870K0J4 0J420160126154010601/26/16 15:40:31  5-MIN K0J4 262040Z AUTO 18007G14KT 10SM SCT065 19/13 A3007 180 70 700 180/07G14 RMK AO2
63870K0J4 0J420160126154510001/26/16 15:45:31  5-MIN K0J4 262045Z AUTO 19009KT 10SM SCT065 19/13 A3007 180 70 700 190/09 RMK AO2
63870K0J4 0J420160126155010001/26/16 15:50:31  5-MIN K0J4 262050Z AUTO 18007KT 10SM BKN065 19/13 A3007 180 70 700 180/07 RMK AO2
63870K0J4 0J420160126155512301/26/16 15:55:31  5-MIN K0J4 262055Z AUTO 19008KT 10SM BKN060 19/13 A3007 180 70 700 190/08 RMK AO2 SLP180 T01890133 58013
63870K0J4 0J420160126160010001/26/16 16:00:31  5-MIN K0J4 262100Z AUTO 19006KT 10SM OVC060 18/13 A3007 180 72 600 190/06 RMK AO2
63870K0J4 0J420160126160510001/26/16 16:05:31  5-MIN K0J4 262105Z AUTO 17007KT 10SM OVC060 18/13 A3006 190 72 700 170/07 RMK AO2
63870K0J4 0J420160126161010001/26/16 16:10:31  5-MIN K0J4 262110Z AUTO 18007KT 10SM BKN060 18/13 A3006 180 72 700 180/07 RMK AO2
63870K0J4 0J420160126161510001/26/16 16:15:31  5-MIN K0J4 262115Z AUTO 18005KT 10SM BKN060 18/13 A3007 180 72 700 180/05 RMK AO2
63870K0J4 0J420160126162010001/26/16 16:20:31  5-MIN K0J4 262120Z AUTO 18006KT 10SM OVC060 18/13 A3007 180 72 700 180/06 RMK AO2
63870K0J4 0J420160126162510701/26/16 16:25:31  5-MIN K0J4 262125Z AUTO 18008KT 10SM BKN060 OVC070 18/13 A3006 180 72 700 180/08 RMK AO2
63870K0J4 0J420160126163010001/26/16 16:30:31  5-MIN K0J4 262130Z AUTO 18006KT 10SM OVC065 18/13 A3007 180 72 700 180/06 RMK AO2
63870K0J4 0J420160126163510001/26/16 16:35:31  5-MIN K0J4 262135Z AUTO 18007KT 10SM OVC065 18/13 A3007 180 72 700 180/07 RMK AO2
63870K0J4 0J420160126164010001/26/16 16:40:31  5-MIN K0J4 262140Z AUTO 17004KT 10SM OVC065 18/13 A3006 190 72 700 170/04 RMK AO2
63870K0J4 0J420160126164510001/26/16 16:45:31  5-MIN K0J4 262145Z AUTO 17006KT 10SM BKN070 18/13 A3006 190 72 700 170/06 RMK AO2
63870K0J4 0J420160126165010001/26/16 16:50:31  5-MIN K0J4 262150Z AUTO 17005KT 10SM BKN070 18/13 A3006 190 72 700 170/05 RMK AO2
63870K0J4 0J420160126165511701/26/16 16:55:31  5-MIN K0J4 262155Z AUTO 18005KT 10SM BKN070 18/13 A3007 180 72 700 180/05 RMK AO2 SLP178 T01830133
63870K0J4 0J420160126170010001/26/16 17:00:31  5-MIN K0J4 262200Z AUTO 18003KT 10SM BKN065 18/13 A3007 180 72 700 180/03 RMK AO2
63870K0J4 0J420160126170510001/26/16 17:05:31  5-MIN K0J4 262205Z AUTO 18003KT 10SM BKN070 18/13 A3006 180 75 600 180/03 RMK AO2
63870K0J4 0J420160126222510701/26/16 22:25:31  5-MIN K0J4 270325Z AUTO VRB06KT 10SM FEW003 OVC016 15/13 A3009 160 90 200 VRB/06 RMK AO2
63870K0J4 0J420160126223012301/26/16 22:30:31  5-MIN K0J4 270330Z AUTO VRB05KT 10SM -RA SCT003 OVC016 15/13 A3009 160 90 200 VRB/05 RMK AO2 RAB30 P0000
63870K0J4 0J420160126223512301/26/16 22:35:31  5-MIN K0J4 270335Z AUTO 36007KT 10SM -RA BKN003 OVC016 14/13 A3009 160 93 200 360/07 RMK AO2 RAB30 P0000
63870K0J4 0J420160126224012301/26/16 22:40:31  5-MIN K0J4 270340Z AUTO 35005KT 10SM -RA BKN003 OVC016 14/13 A3009 160 93 200 350/05 RMK AO2 RAB30 P0000
63870K0J4 0J420160126224512301/26/16 22:45:31  5-MIN K0J4 270345Z AUTO 36007KT 10SM -RA BKN003 OVC016 14/13 A3009 160 93 200 360/07 RMK AO2 RAB30 P0000
63870K0J4 0J420160126225011501/26/16 22:50:31  5-MIN K0J4 270350Z AUTO 36005KT 10SM OVC003 14/13 A3009 160 93 200 360/05 RMK AO2 RAB30E47 P0000
63870K0J4 0J420160126225513201/26/16 22:55:31  5-MIN K0J4 270355Z AUTO 36005KT 10SM OVC003 14/13 A3009 160 93 200 360/05 RMK AO2 RAB30E47 SLP189 P0000 T01440133
63870K0J4 0J420160126230010001/26/16 23:00:31  5-MIN K0J4 270400Z AUTO VRB05KT 10SM OVC003 14/13 A3009 160 93 200 VRB/05 RMK AO2
63870K0J4 0J420160126230510001/26/16 23:05:31  5-MIN K0J4 270405Z AUTO 01004KT 10SM OVC003 14/13 A3009 160 96 100 010/04 RMK AO2
63870K0J4 0J420160126231010001/26/16 23:10:31  5-MIN K0J4 270410Z AUTO 01004KT 10SM OVC003 14/13 A3009 160 96 100 010/04 RMK AO2
63870K0J4 0J420160126231510701/26/16 23:15:31  5-MIN K0J4 270415Z AUTO 03007KT 10SM BKN003 OVC014 14/13 A3009 160 96 100 030/07 RMK AO2
63870K0J4 0J420160126232010701/26/16 23:20:31  5-MIN K0J4 270420Z AUTO 02005KT 10SM BKN003 OVC014 14/13 A3009 160 96 100 020/05 RMK AO2
63870K0J4 0J420160126232510701/26/16 23:25:31  5-MIN K0J4 270425Z AUTO 02005KT 10SM BKN003 OVC014 14/13 A3009 160 96 100 020/05 RMK AO2
63870K0J4 0J420160126233010701/26/16 23:30:31  5-MIN K0J4 270430Z AUTO 03006KT 10SM SCT003 OVC014 14/13 A3009 160 96 100 030/06 RMK AO2
63870K0J4 0J420160126233512301/26/16 23:35:31  5-MIN K0J4 270435Z AUTO 02006KT 10SM -RA SCT003 OVC014 14/13 A3009 160 96 100 020/06 RMK AO2 RAB34 P0000
63870K0J4 0J420160126234012301/26/16 23:40:31  5-MIN K0J4 270440Z AUTO 01007KT 10SM -RA SCT003 OVC014 14/13 A3009 160 96 100 010/07 RMK AO2 RAB34 P0000
63870K0J4 0J420160126234512301/26/16 23:45:31  5-MIN K0J4 270445Z AUTO 36005KT 10SM -RA BKN003 OVC014 14/13 A3009 160 96 100 360/05 RMK AO2 RAB34 P0000
63870K0J4 0J420160126235012201/26/16 23:50:31  5-MIN K0J4 270450Z AUTO 02006KT 8SM -RA BKN003 OVC014 14/13 A3009 160 96 100 020/06 RMK AO2 RAB34 P0001
63870K0J4 0J420160126235515201/26/16 23:55:31  5-MIN K0J4 270455Z AUTO 01006KT 6SM -RA BR BKN003 OVC014 14/13 A3009 160 93 100 010/06 RMK AO2 RAB34 SLP186 P0001 T01390128 401940100
63870K0J4 0J420160127000011201/27/16 00:00:31  5-MIN K0J4 270500Z AUTO 36004KT 5SM -RA BR OVC003 14/13 A3009 160 96 100 360/04 RMK AO2 P0000
63870K0J4 0J420160127000511101/27/16 00:05:31  5-MIN K0J4 270505Z AUTO 36004KT 5SM RA BR OVC003 14/13 A3009 160 96 100 360/04 RMK AO2 P0001
63870K0J4 0J420160127001011101/27/16 00:10:31  5-MIN K0J4 270510Z AUTO 36005KT 4SM RA BR OVC003 14/13 A3009 160 96 100 360/05 RMK AO2 P0002
63870K0J4 0J420160127001511901/27/16 00:15:31  5-MIN K0J4 270515Z AUTO 36006KT 3SM +RA BR BKN003 OVC014 14/13 A3008 170 93 100 360/06 RMK AO2 P0005
63870K0J4 0J420160127002011801/27/16 00:20:31  5-MIN K0J4 270520Z AUTO 01005KT 3SM RA BR BKN003 OVC014 14/13 A3008 170 93 100 010/05 RMK AO2 P0005
63870K0J4 0J420160127002511901/27/16 00:25:31  5-MIN K0J4 270525Z AUTO 01006KT 6SM -RA BR BKN003 OVC014 14/13 A3008 170 93 100 010/06 RMK AO2 P0006
63870K0J4 0J420160127003011601/27/16 00:30:31  5-MIN K0J4 270530Z AUTO 02006KT 7SM -RA BKN003 OVC016 14/13 A3008 170 93 100 020/06 RMK AO2 P0006
63870K0J4 0J420160127003511901/27/16 00:35:31  5-MIN K0J4 270535Z AUTO 02006KT 6SM -RA BR BKN003 OVC016 14/13 A3008 170 96 100 020/06 RMK AO2 P0007
63870K0J4 0J420160127004011901/27/16 00:40:31  5-MIN K0J4 270540Z AUTO 02006KT 4SM +RA BR BKN003 OVC016 14/13 A3008 170 96 100 020/06 RMK AO2 P0009
63870K0J4 0J420160127004511901/27/16 00:45:31  5-MIN K0J4 270545Z AUTO VRB04KT 4SM +RA BR BKN003 OVC016 14/13 A3009 160 96 100 VRB/04 RMK AO2 P0011
63870K0J4 0J420160127005012701/27/16 00:50:31  5-MIN K0J4 270550Z AUTO VRB03KT 2SM +TSRA BR BKN003 OVC016 14/13 A3009 160 96 100 VRB/03 RMK AO2 TSB47 P0017
63870K0J4 0J420160127005513401/27/16 00:55:31  5-MIN K0J4 270555Z AUTO 07005KT 2SM +TSRA BR SCT003 BKN016 OVC037 14/13 A3008 170 93 100 070/05 RMK AO2 TSB47 P0020
63870K0J4 0J420160127010012801/27/16 01:00:31  5-MIN K0J4 270600Z AUTO 06003KT 3SM +TSRA BR SCT003 BKN016 OVC037 14/13 A3007 180 96 100 060/03 RMK AO2 P0001
63870K0J4 0J420160127010513201/27/16 01:05:31  5-MIN K0J4 270605Z AUTO 03004KT 2 1/2SM +TSRA BR SCT003 BKN018 OVC037 14/13 A3007 170 96 100 030/04 RMK AO2 P0006
63870K0J4 0J420160127011013201/27/16 01:10:31  5-MIN K0J4 270610Z AUTO 06008KT 2 1/2SM +TSRA BR FEW003 BKN015 OVC042 14/13 A3007 180 93 100 060/08 RMK AO2 P0009
63870K0J4 0J420160127011512801/27/16 01:15:31  5-MIN K0J4 270615Z AUTO 03007KT 3SM +TSRA BR SCT003 BKN027 OVC042 13/13 A3007 180 96 100 030/07 RMK AO2 P0012
63870K0J4 0J420160127012013201/27/16 01:20:31  5-MIN K0J4 270620Z AUTO 05006KT 3SM +RA BR SCT003 BKN034 OVC045 13/13 A3007 180 96 100 050/06 RMK AO2 TSE20 P0014
63870K0J4 0J420160127012513101/27/16 01:25:31  5-MIN K0J4 270625Z AUTO 07006KT 4SM RA BR FEW003 BKN038 OVC045 13/13 A3007 180 96 100 070/06 RMK AO2 TSE20 P0015
63870K0J4 0J420160127013012401/27/16 01:30:31  5-MIN K0J4 270630Z AUTO 35004KT 5SM RA BR SCT003 OVC042 13/13 A3007 180 96 100 350/04 RMK AO2 TSE20 P0017
63870K0J4 0J420160127013512401/27/16 01:35:31  5-MIN K0J4 270635Z AUTO 02006KT 5SM RA BR BKN003 OVC044 13/13 A3007 180 96 100 020/06 RMK AO2 TSE20 P0018
63870K0J4 0J420160127014013201/27/16 01:40:31  5-MIN K0J4 270640Z AUTO 04005KT 5SM -RA BR BKN003 BKN032 OVC044 13/13 A3007 180 96 100 040/05 RMK AO2 TSE20 P0019
63870K0J4 0J420160127014515201/27/16 01:45:31  5-MIN K0J4 270645Z AUTO 03005KT 7SM -RA BKN003 BKN032 OVC050 13/13 A3007 180 96 100 030/05 RMK AO2 TSE20 P0020 SLP178 P0023 T01330128
63870K0J4 0J420160127020011801/27/16 02:00:31  5-MIN K0J4 270700Z AUTO 06006KT 4SM RA BR SCT003 OVC030 13/13 A3007 180 96 100 060/06 RMK AO2 P0000
63870K0J4 0J420160127020512601/27/16 02:05:31  5-MIN K0J4 270705Z AUTO 06004KT 6SM -RA BR SCT003 BKN027 OVC032 13/13 A3007 180 96 100 060/04 RMK AO2 P0001
63870K0J4 0J420160127021011601/27/16 02:10:31  5-MIN K0J4 270710Z AUTO 01005KT 7SM -RA BKN003 OVC029 13/13 A3006 180 96 100 010/05 RMK AO2 P0001
63870K0J4 0J420160127021511601/27/16 02:15:31  5-MIN K0J4 270715Z AUTO 03005KT 8SM -RA BKN003 OVC029 13/13 A3006 190 96 100 030/05 RMK AO2 P0001
63870K0J4 0J420160127022011701/27/16 02:20:31  5-MIN K0J4 270720Z AUTO 04006KT 10SM -RA BKN003 OVC029 13/13 A3006 190 96 100 040/06 RMK AO2 P0001
63870K0J4 0J420160127022511701/27/16 02:25:31  5-MIN K0J4 270725Z AUTO 03006KT 10SM -RA BKN003 OVC027 13/13 A3006 190 96 100 030/06 RMK AO2 P0001
63870K0J4 0J420160127023011001/27/16 02:30:31  5-MIN K0J4 270730Z AUTO 03006KT 10SM -RA OVC003 13/13 A3006 190 96 100 030/06 RMK AO2 P0002
63870K0J4 0J420160127023510901/27/16 02:35:31  5-MIN K0J4 270735Z AUTO 03006KT 8SM -RA OVC003 13/13 A3005 190 96 100 030/06 RMK AO2 P0002
63870K0J4 0J420160127024010901/27/16 02:40:31  5-MIN K0J4 270740Z AUTO 04006KT 8SM -RA OVC003 13/13 A3005 190 96 100 040/06 RMK AO2 P0002
63870K0J4 0J420160127024511001/27/16 02:45:31  5-MIN K0J4 270745Z AUTO 05006KT 10SM -RA OVC003 13/13 A3005 190 96 100 050/06 RMK AO2 P0002
63870K0J4 0J420160127025011201/27/16 02:50:31  5-MIN K0J4 270750Z AUTO 05005KT 10SM OVC003 13/13 A3005 190 96 100 050/05 RMK AO2 RAE47 P0002
63870K0J4 0J420160127025512901/27/16 02:55:31  5-MIN K0J4 270755Z AUTO 04005KT 10SM OVC003 13/13 A3005 190 96 100 040/05 RMK AO2 RAE47 SLP174 P0002 T01330128
63870K0J4 0J420160127030010001/27/16 03:00:31  5-MIN K0J4 270800Z AUTO 04006KT 10SM OVC003 13/12 A3004 200 93 100 040/06 RMK AO2
63870K0J4 0J420160127030510001/27/16 03:05:31  5-MIN K0J4 270805Z AUTO 04006KT 10SM OVC003 13/12 A3004 210 93 100 040/06 RMK AO2
63870K0J4 0J420160127031010701/27/16 03:10:31  5-MIN K0J4 270810Z AUTO 06005KT 10SM OVC003 13/12 A3003 210 93 100 060/05 RMK AO2 PRESFR
63870K0J4 0J420160127031510001/27/16 03:15:31  5-MIN K0J4 270815Z AUTO 07004KT 10SM OVC003 13/12 A3003 210 93 100 070/04 RMK AO2
63870K0J4 0J420160127032010001/27/16 03:20:31  5-MIN K0J4 270820Z AUTO 07006KT 10SM OVC003 13/12 A3003 220 93 100 070/06 RMK AO2
63870K0J4 0J420160127090511601/27/16 09:05:31  5-MIN K0J4 271405Z AUTO 03005KT 9SM -RA OVC005 12/11 A3006 180 96 -100 030/05 RMK AO2 RAB03 P0000
63870K0J4 0J420160127091011601/27/16 09:10:31  5-MIN K0J4 271410Z AUTO 03005KT 7SM -RA OVC005 12/11 A3006 180 96 -100 030/05 RMK AO2 RAB03 P0000
63870K0J4 0J420160127091511901/27/16 09:15:31  5-MIN K0J4 271415Z AUTO 03006KT 6SM -RA BR OVC005 12/11 A3007 180 96 -100 030/06 RMK AO2 RAB03 P0000
63870K0J4 0J420160127092011901/27/16 09:20:31  5-MIN K0J4 271420Z AUTO 03005KT 6SM -RA BR OVC005 12/11 A3007 180 96 -100 030/05 RMK AO2 RAB03 P0000
63870K0J4 0J420160127092511901/27/16 09:25:31  5-MIN K0J4 271425Z AUTO 01004KT 6SM -RA BR OVC005 12/11 A3007 180 96 -100 010/04 RMK AO2 RAB03 P0000
63870K0J4 0J420160127093011801/27/16 09:30:31  5-MIN K0J4 271430Z AUTO 36005KT 6SM BR OVC005 12/11 A3007 180 96 -100 360/05 RMK AO2 RAB03E26 P0000
63870K0J4 0J420160127093511801/27/16 09:35:31  5-MIN K0J4 271435Z AUTO 35004KT 6SM BR OVC005 12/11 A3008 170 96 -100 350/04 RMK AO2 RAB03E26 P0000
63870K0J4 0J420160127094012501/27/16 09:40:31  5-MIN K0J4 271440Z AUTO VRB04KT 6SM BR OVC005 12/11 A3010 150 96 -100 VRB/04 RMK AO2 RAB03E26 PRESRR P0000
63870K0J4 0J420160127094512201/27/16 09:45:31  5-MIN K0J4 271445Z AUTO VRB04KT 7SM -RA OVC005 12/11 A3010 150 96 -100 VRB/04 RMK AO2 RAB03E26B42 P0000
63870K0J4 0J420160127095012201/27/16 09:50:31  5-MIN K0J4 271450Z AUTO 36006KT 7SM -RA OVC005 12/11 A3009 160 96 -100 360/06 RMK AO2 RAB03E26B42 P0001
63870K0J4 0J420160127095515101/27/16 09:55:31  5-MIN K0J4 271455Z AUTO 35005KT 7SM -RA OVC005 12/11 A3009 160 96 -100 350/05 RMK AO2 RAB03E26B42 SLP188 P0001 60001 T01170111 51004
63870K0J4 0J420160127100012201/27/16 10:00:31  5-MIN K0J4 271500Z AUTO VRB04KT 8SM -RA OVC005 12/11 A3009 160 96 -100 VRB/04 RMK AO2 CIG 003V007 P0000
63870K0J4 0J420160127100512901/27/16 10:05:31  5-MIN K0J4 271505Z AUTO 07006KT 9SM -RA BKN005 OVC015 12/11 A3008 170 96 -100 070/06 RMK AO2 CIG 003V007 P0000
63870K0J4 0J420160127101012601/27/16 10:10:31  5-MIN K0J4 271510Z AUTO 04005KT 4SM RA BR BKN005 BKN015 OVC050 12/11 A3009 160 96 -100 040/05 RMK AO2 P0001
63870K0J4 0J420160127101513001/27/16 10:15:31  5-MIN K0J4 271515Z AUTO 01006KT 2 1/2SM RA BR SCT005 BKN015 OVC050 12/11 A3010 150 96 -100 010/06 RMK AO2 P0003
63870K0J4 0J420160127102012401/27/16 10:20:31  5-MIN K0J4 271520Z AUTO 36006KT 1 1/2SM +RA BR SCT005 OVC015 12/11 A3010 150 96 -100 360/06 RMK AO2 P0006
63870K0J4 0J420160127102512701/27/16 10:25:31  5-MIN K0J4 271525Z AUTO 34004KT 1SM +RA BR SCT005 SCT010 OVC013 12/11 A3011 140 96 -100 340/04 RMK AO2 P0010
63870K0J4 0J420160127103012701/27/16 10:30:31  5-MIN K0J4 271530Z AUTO 36005KT 1SM +RA BR SCT003 BKN008 OVC013 12/11 A3010 150 96 -100 360/05 RMK AO2 P0014
63870K0J4 0J420160127103513101/27/16 10:35:31  5-MIN K0J4 271535Z AUTO 36005KT 1 1/2SM +RA BR BKN003 BKN008 OVC013 12/11 A3011 150 96 -100 360/05 RMK AO2 P0016
63870K0J4 0J420160127104013101/27/16 10:40:31  5-MIN K0J4 271540Z AUTO 01005KT 1 3/4SM +RA BR BKN003 BKN008 OVC013 12/11 A3010 150 96 -100 010/05 RMK AO2 P0019
63870K0J4 0J420160127104511901/27/16 10:45:31  5-MIN K0J4 271545Z AUTO VRB05KT 2SM RA BR BKN003 OVC008 12/11 A3010 150 96 -100 VRB/05 RMK AO2 P0021
63870K0J4 0J420160127105012301/27/16 10:50:31  5-MIN K0J4 271550Z AUTO VRB05KT 2 1/2SM RA BR BKN003 OVC008 12/11 A3011 140 96 -100 VRB/05 RMK AO2 P0022
63870K0J4 0J420160127105513001/27/16 10:55:31  5-MIN K0J4 271555Z AUTO VRB03KT 4SM -RA BR OVC005 12/11 A3011 140 96 -100 VRB/03 RMK AO2 SLP196 P0022 T01170111
63870K0J4 0J420160127110021601/27/16 11:00:31  5-MIN K0J4 271600Z AUTO 36005KT 4SM -RA BR BKN005 OVC014 12/11 A3011 140 96 -100 360/05 RMK AO2 P 03008KT 1SFR SLP71910Z AUTO 03009KT 10SM -RA OVC007 12/11 A3003 220 93 0 030/09 RMK AO2 RAB09 P0000
63870K0J4 0J420160127141511401/27/16 14:15:31  5-MIN K0J4 271915Z AUTO 02008KT 10SM -RA OVC007 12/11 A3003 220 93 0 020/08 RMK AO2 RAB09 P0000
63870K0J4 0J420160127142011401/27/16 14:20:31  5-MIN K0J4 271920Z AUTO 02008KT 10SM -RA OVC007 12/11 A3003 220 93 0 020/08 RMK AO2 RAB09 P0000
63870K0J4 0J420160127142511401/27/16 14:25:31  5-MIN K0J4 271925Z AUTO 02010KT 10SM -RA OVC007 12/11 A3003 220 93 0 020/10 RMK AO2 RAB09 P0000
63870K0J4 0J420160127143011401/27/16 14:30:31  5-MIN K0J4 271930Z AUTO 02007KT 10SM -RA OVC007 12/11 A3002 220 93 0 020/07 RMK AO2 RAB09 P0000
63870K0J4 0J420160127143511301/27/16 14:35:31  5-MIN K0J4 271935Z AUTO 03011KT 9SM -RA OVC007 12/11 A3001 230 93 0 030/11 RMK AO2 RAB09 P0001
63870K0J4 0J420160127144013101/27/16 14:40:31  5-MIN K0J4 271940Z AUTO 36007G16KT 9SM -RA OVC007 12/11 A3002 230 93 0 360/07G16 RMK AO2 RAB09 CIG 003V010 P0001
63870K0J4 0J420160127144513201/27/16 14:45:31  5-MIN K0J4 271945Z AUTO 36006G16KT 10SM -RA OVC005 12/11 A3002 220 93 0 360/06G16 RMK AO2 RAB09 CIG 002V010 P0001
63870K0J4 0J420160127145013201/27/16 14:50:31  5-MIN K0J4 271950Z AUTO 35007G14KT 10SM -RA OVC005 12/11 A3003 220 93 0 350/07G14 RMK AO2 RAB09 CIG 002V007 P0001
63870K0J4 0J420160127145512901/27/16 14:55:31  5-MIN K0J4 271955Z AUTO 36008G14KT 10SM BKN002 OVC007 11/11 A3003 220 96 -100 360/08G14 RMK AO2 RAB09E51 P0001
63870K0J4 0J420160127150010701/27/16 15:00:31  5-MIN K0J4 272000Z AUTO 36008KT 7SM BKN002 OVC007 11/10 A3002 220 93 -100 360/08 RMK AO2
63870K0J4 0J420160127150510301/27/16 15:05:31  5-MIN K0J4 272005Z AUTO 36009KT 6SM BR OVC002 11/10 A3002 220 96 -200 360/09 RMK AO2
63870K0J4 0J420160127151010301/27/16 15:10:31  5-MIN K0J4 272010Z AUTO 36009KT 5SM BR OVC002 11/10 A3002 230 96 -200 360/09 RMK AO2
63870K0J4 0J420160127151510301/27/16 15:15:31  5-MIN K0J4 272015Z AUTO 36008KT 6SM BR OVC002 11/10 A3002 230 96 -200 360/08 RMK AO2
63870K0J4 0J420160127152011201/27/16 15:20:31  5-MIN K0J4 272020Z AUTO 01007KT 8SM OVC002 11/10 A3002 220 96 -200 010/07 RMK AO2 CIG 002V007
63870K0J4 0J420160127152511301/27/16 15:25:31  5-MIN K0J4 272025Z AUTO 01008KT 10SM OVC004 11/10 A3002 220 96 -200 010/08 RMK AO2 CIG 002V007
63870K0J4 0J420160127153011301/27/16 15:30:31  5-MIN K0J4 272030Z AUTO 01008KT 10SM OVC004 11/10 A3001 230 96 -200 010/08 RMK AO2 CIG 002V007
63870K0J4 0J420160127153510101/27/16 15:35:31  5-MIN K0J4 272035Z AUTO 01009KT 10SM OVC004 11/10 A3001 230 96 -200 010/09 RMK AO2
63870K0J4 0J420160127154010101/27/16 15:40:31  5-MIN K0J4 272040Z AUTO 36008KT 10SM OVC004 11/09 A3002 230 93 -200 360/08 RMK AO2
63870K0J4 0J420160127154510101/27/16 15:45:31  5-MIN K0J4 272045Z AUTO 36005KT 10SM OVC004 11/09 A3001 230 93 -200 360/05 RMK AO2
63870K0J4 0J420160127155010101/27/16 15:50:31  5-MIN K0J4 272050Z AUTO 02006KT 10SM OVC004 11/09 A3001 230 93 -200 020/06 RMK AO2
63870K0J4 0J420160127155518601/27/16 15:55:31  5-MIN K0J4 272055Z AUTO 02008KT 10SM OVC004 11/09 A3001 230 93 -200 020/08 RMK AO2 SLP161 60AUTO 36004KT 10SM OVC009 11/09 A3005 200 93 -200 360/04 RMK AO2 CIG 006V012
63870K0J4 0J420160127182012001/27/16 18:20:31  5-MIN K0J4 272320Z AUTO 36004KT 10SM BKN009 OVC021 11/09 A3005 200 93 -200 360/04 RMK AO2 CIG 007V012
63870K0J4 0J420160127182512001/27/16 18:25:31  5-MIN K0J4 272325Z AUTO 01004KT 10SM BKN009 OVC021 11/09 A3005 200 93 -200 010/04 RMK AO2 CIG 007V012
63870K0J4 0J420160127183012001/27/16 18:30:31  5-MIN K0J4 272330Z AUTO 01005KT 10SM BKN009 OVC021 11/09 A3006 190 93 -200 010/05 RMK AO2 CIG 007V011
63870K0J4 0J420160127183510801/27/16 18:35:31  5-MIN K0J4 272335Z AUTO 01005KT 10SM SCT009 OVC021 11/09 A3006 190 93 -200 010/05 RMK AO2
63870K0J4 0J420160127184010801/27/16 18:40:31  5-MIN K0J4 272340Z AUTO 01005KT 10SM SCT009 OVC021 11/09 A3006 190 93 -200 010/05 RMK AO2
63870K0J4 0J420160127184515301/27/16 18:45:31  5-MIN K0J4 272345Z AUTO 01005KT 10SM BKN009 OVC021 11/09 A3006 190 93 -200 010/05 RMK AO2 A3007 180 93 -200 010/04 RMK AO2 CIG 006V012
63870K0J4 0J420160127191512001/27/16 19:15:31  5-MIN K0J4 280015Z AUTO 02004KT 10SM BKN009 OVC021 11/09 A3007 180 93 -200 020/04 RMK AO2 CIG 006V012
63870K0J4 0J420160127192010801/27/16 19:20:31  5-MIN K0J4 280020Z AUTO 01006KT 10SM SCT009 OVC021 11/09 A3007 180 93 -200 010/06 RMK AO2
63870K0J4 0J420160127192510801/27/16 19:25:31  5-MIN K0J4 280025Z AUTO 01006KT 10SM SCT009 OVC021 11/09 A3007 180 93 -200 010/06 RMK AO2
63870K0J4 0J420160127193010801/27/16 19:30:31  5-MIN K0J4 280030Z AUTO 01006KT 10SM SCT009 OVC021 11/09 A3007 180 93 -200 010/06 RMK AO2
63870K0J4 0J420160127193512001/27/16 19:35:31  5-MIN K0J4 280035Z AUTO 02005KT 10SM BKN009 OVC023 11/09 A3007 180 93 -200 020/05 RMK AO2 CIG 006V012
63870K0J4 0J420160127194012001/27/16 19:40:31  5-MIN K0J4 280040Z AUTO 01006KT 10SM BKN009 OVC023 11/09 A3006 190 93 -200 010/06 RMK AO2 CIG 006V012
63870K0J4 0J420160127194512001/27/16 19:45:31  5-MIN K0J4 280045Z AUTO 01006KT 10SM BKN009 OVC023 11/09 A3006 190 93 -200 010/06 RMK AO2 CIG 006V010
63870K0J4 0J420160127195012001/27/16 19:50:31  5-MIN K0J4 280050Z AUTO 01007KT 10SM BKN007 OVC023 11/09 A3006 190 93 -200 010/07 RMK AO2 CIG 005V010
63870K0J4 0J420160127195513701/27/16 19:55:31  5-MIN K0J4 280055Z AUTO 36007KT 10SM BKN007 OVC023 11/09 A3006 180 93 -200 360/07 RMK AO2 CIG 005V010 SLP179 T01060094
63870K0J4 0J420160127200011301/27/16 20:00:31  5-MIN K0J4 280100Z AUTO 01006KT 10SM OVC007 11/09 A3006 180 93 -200 010/06 RMK AO2 CIG 005V010
63870K0J4 0J420160127200511301/27/16 20:05:31  5-MIN K0J4 280105Z AUTO 01006KT 10SM OVC007 11/09 A3006 180 93 -200 010/06 RMK AO2 CIG 004V010
63870K0J4 0J420160127201011301/27/16 20:10:31  5-MIN K0J4 280110Z AUTO 01006KT 10SM OVC007 11/09 A3007 180 93 -200 010/06 RMK AO2 CIG 004V009
63870K0J4 0J420160127201511301/27/16 20:15:31  5-MIN K0J4 280115Z AUTO 01005KT 10SM OVC005 11/09 A3007 170 93 -200 010/05 RMK AO2 CIG 004V009
63870K0J4 0J420160127202011301/27/16 20:20:31  5-MIN K0J4 280120Z AUTO 01006KT 10SM OVC005 11/09 A3007 180 93 -200 010/06 RMK AO2 CIG 004V009
63870K0J4 0J420160127202511301/27/16 20:25:31  5-MIN K0J4 280125Z AUTO 02005KT 10SM OVC005 10/09 A3007 180 96 -300 020/05 RMK AO2 CIG 004V008
63870K0J4 0J420160127203011301/27/16 20:30:31  5-MIN K0J4 280130Z AUTO 01006KT 10SM OVC005 10/09 A3008 170 96 -300 010/06 RMK AO2 CIG 004V008
63870K0J4 0J420160127203511301/27/16 20:35:31  5-MIN K0J4 280135Z AUTO 02006KT 10SM OVC005 10/09 A3008 170 96 -300 020/06 RMK AO2 CIG 004V008
63870K0J4 0J420160127204011201/27/16 20:40:31  5-MIN K0J4 280140Z AUTO 01007KT 9SM OVC005 10/09 A3007 180 96 -300 010/07 RMK AO2 CIG 003V008
63870K0J4 0J420160127204511201/27/16 20:45:31  5-MIN K0J4 280145Z AUTO 02010KT 8SM OVC005 10/09 A3006 190 93 -300 020/10 RMK AO2 CIG 003V008
63870K0J4 0J420160127205011901/27/16 20:50:31  5-MIN K0J4 280150Z AUTO 02012KT 7SM OVC005 10/09 A3005 200 93 -300 020/12 RMK AO2 CIG 002V008 PRESFR
63870K0J4 0J420160127205513201/27/16 20:55:31  5-MIN K0J4 280155Z AUTO 36008KT 6SM BR OVC003 10/09 A3006 190 93 -300 360/08 RMK AO2 CIG 002V008 SLP176 T01000089
63870K0J4 0J420160127210011501/27/16 21:00:31  5-MIN K0J4 280200Z AUTO 01007KT 5SM BR OVC003 09/09 A3006 190 96 -300 010/07 RMK AO2 CIG 002V005
63870K0J4 0J420160128181009801/28/16 18:10:31  5-MIN K0J4 282310Z AUTO 00000KT 10SM CLR 08/04 A2992 310 73 -300 000/00 RMK AO2
63870K0J4 0J420160128181509801/28/16 18:15:31  5-MIN K0J4 282315Z AUTO 00000KT 10SM CLR 08/03 A2992 310 70 -300 000/00 RMK AO2
63870K0J4 0J420160128182009801/28/16 18:20:31  5-MIN K0J4 282320Z AUTO 00000KT 10SM CLR 07/04 A2992 310 79 -500 000/00 RMK AO2
63870K0J4 0J420160128182509801/28/16 18:25:31  5-MIN K0J4 282325Z AUTO 32003KT 10SM CLR 07/04 A2993 310 79 -500 320/03 RMK AO2
63870K0J4 0J420160128183009801/28/16 18:30:31  5-MIN K0J4 282330Z AUTO 00000KT 10SM CLR 07/04 A2993 310 82 -500 000/00 RMK AO2
63870K0J4 0J420160128183509801/28/16 18:35:31  5-MIN K0J4 282335Z AUTO VRB03KT 10SM CLR 07/03 A2994 300 76 -500 VRB/03 RMK AO2
63870K0J4 0J420160128184010501/28/16 18:40:31  5-MIN K0J4 282340Z AUTO 00000KT 10SM CLR 07/03 A2995 290 79 -600 000/00 RMK AO2 PRESRR
63870K0J4 0J420160128184510501/28/16 18:45:31  5-MIN K0J4 282345Z AUTO 33004KT 10SM CLR 07/03 A2995 290 79 -600 330/04 RMK AO2 PRESRR
63870K0J4 0J420160128213009801/28/16 21:30:31  5-MIN K0J4 290230Z AUTO 00000KT 10SM CLR 04/02 A2999 250 85 -900 000/00 RMK AO2
63870K0J4 0J420160128213509801/28/16 21:35:31  5-MIN K0J4 290235Z AUTO 00000KT 10SM CLR 04/02 A2999 250 85 -900 000/00 RMK AO2
63870K0J4 0J420160128214009801/28/16 21:40:31  5-MIN K0J4 290240Z AUTO 00000KT 10SM CLR 04/01 A2999 250 82 -900 000/00 RMK AO2
63870K0J4 0J420160128214509801/28/16 21:45:31  5-MIN K0J4 290245Z AUTO 00000KT 10SM CLR 04/01 A2999 250 79 -900 000/00 RMK AO2
63870K0J4 0J420160128215009801/28/16 21:50:31  5-MIN K0J4 290250Z AUTO 00000KT 10SM CLR 04/01 A2999 250 82 -900 000/00 RMK AO2
63870K0J4 0J420160128215512101/28/16 21:55:31  5-MIN K0J4 290255Z AUTO 00000KT 10SM CLR 04/01 A2999 250 82 -900 000/00 RMK AO2 SLP157 T00390011 53011
63870K0J4 0J420160128220009801/28/16 22:00:31  5-MIN K0J4 290300Z AUTO 00000KT 10SM CLR 04/01 A2999 250 82 -900 000/00 RMK AO2
63870K0J4 0J420160128220509901/28/16 22:05:31  5-MIN K0J4 290305Z AUTO 00000KT 10SM CLR 03/01 A2999 250 85 -1000 000/00 RMK AO2
63870K0J4 0J420160128221009901/28/16 22:10:31  5-MIN K0J4 290310Z AUTO 00000KT 10SM CLR 04/01 A3000 250 82 -1000 000/00 RMK AO2
63870K0J4 0J420160128221509901/28/16 22:15:31  5-MIN K0J4 290315Z AUTO 00000KT 10SM CLR 04/01 A3000 240 82 -1000 000/00 RMK AO2
63870K0J4 0J420160128222009901/28/16 22:20:31  5-MIN K0J4 290320Z AUTO 00000KT 10SM CLR 04/01 A3000 240 79 -1000 000/00 RMK AO2
63870K0J4 0J420160128222509801/28/16 22:25:31  5-MIN K0J4 290325Z AUTO 00000KT 10SM CLR 04/01 A3000 240 76 -900 000/00 RMK AO2
63870K0J4 0J420160128223009901/28/16 22:30:31  5-MIN K0J4 290330Z AUTO 00000KT 10SM CLR 04/01 A3000 250 79 -1000 000/00 RMK AO2
63870K0J4 0J420160128223509801/28/16 22:35:31  5-MIN K0J4 290335Z AUTO 00000KT 10SM CLR 04/01 A3000 240 76 -900 000/00 RMK AO2
63870K0J4 0J420160128224009801/28/16 22:40:31  5-MIN K0J4 290340Z AUTO 00000KT 10SM CLR 04/01 A3000 240 76 -900 000/00 RMK AO2
63870K0J4 0J420160128224509901/28/16 22:45:31  5-MIN K0J4 290345Z AUTO 00000KT 10SM CLR 04/01 A3000 240 79 -1000 000/00 RMK AO2
63870K0J4 0J420160128225009901/28/16 22:50:31  5-MIN K0J4 290350Z AUTO 00000KT 10SM CLR 03/01 A3000 240 82 -1000 000/00 RMK AO2
63870K0J4 0J420160128225511601/28/16 22:55:31  5-MIN K0J4 290355Z AUTO 00000KT 10SM CLR 03/01 A3000 240 85 -1000 000/00 RMK AO2 SLP159 T00330011
63870K0J4 0J420160128230009901/28/16 23:00:31  5-MIN K0J4 290400Z AUTO 00000KT 10SM CLR 04/01 A3000 240 79 -1000 000/00 RMK AO2
63870K0J4 0J420160128230509901/28/16 23:05:31  5-MIN K0J4 290405Z AUTO 00000KT 10SM CLR 04/01 A3000 240 79 -1000 000/00 RMK AO2
63870K0J4 0J420160128231009901/28/16 23:10:31  5-MIN K0J4 290410Z AUTO 00000KT 10SM CLR 04/01 A3000 240 79 -1000 000/00 RMK AO2
63870K0J4 0J420160128231509901/28/16 23:15:31  5-MIN K0J4 290415Z AUTO 00000KT 10SM CLR 04/01 A3000 240 79 -1000 000/00 RMK AO2
63870K0J4 0J420160128232009901/28/16 23:20:31  5-MIN K0J4 290420Z AUTO 00000KT 10SM CLR 04/01 A3000 240 79 -1000 000/00 RMK AO2
63870K0J4 0J420160128232509901/28/16 23:25:31  5-MIN K0J4 290425Z AUTO 00000KT 10SM CLR 04/01 A3000 240 79 -1000 000/00 RMK AO2
63870K0J4 0J420160128233009901/28/16 23:30:31  5-MIN K0J4 290430Z AUTO 00000KT 10SM CLR 04/01 A3000 240 79 -1000 000/00 RMK AO2
63870K0J4 0J420160128233509901/28/16 23:35:31  5-MIN K0J4 290435Z AUTO 00000KT 10SM CLR 03/01 A3000 240 82 -1000 000/00 RMK AO2
63870K0J4 0J420160128234009901/28/16 23:40:31  5-MIN K0J4 290440Z AUTO 00000KT 10SM CLR 04/01 A3000 240 79 -1000 000/00 RMK AO2
63870K0J4 0J420160128234509901/28/16 23:45:31  5-MIN K0J4 290445Z AUTO 00000KT 10SM CLR 04/01 A3000 240 79 -1000 000/00 RMK AO2
63870K0J4 0J420160128235009901/28/16 23:50:31  5-MIN K0J4 290450Z AUTO 00000KT 10SM CLR 04/00 A3000 240 76 -1000 000/00 RMK AO2
63870K0J4 0J420160128235512601/28/16 23:55:31  5-MIN K0J4 290455Z AUTO 00000KT 10SM CLR 03/01 A3000 240 82 -1000 000/00 RMK AO2 SLP161 T00330006 401000033
63870K0J4 0J420160129000009901/29/16 00:00:31  5-MIN K0J4 290500Z AUTO 00000KT 10SM CLR 03/01 A3001 240 82 -1000 000/00 RMK AO2
63870K0J4 0J420160129000509901/29/16 00:05:31  5-MIN K0J4 290505Z AUTO 00000KT 10SM CLR 03/01 A3000 240 82 -1000 000/00 RMK AO2
63870K0J4 0J420160129001009901/29/16 00:10:31  5-MIN K0J4 290510Z AUTO 00000KT 10SM CLR 03/01 A3000 240 82 -1000 000/00 RMK AO2
63870K0J4 0J420160129001509901/29/16 00:15:31  5-MIN K0J4 290515Z AUTO 00000KT 10SM CLR 03/00 A3000 240 79 -1000 000/00 RMK AO2
63870K0J4 0J420160129002009901/29/16 00:20:31  5-MIN K0J4 290520Z AUTO 22003KT 10SM CLR 03/01 A3001 240 85 -1100 220/03 RMK AO2
63870K0J4 0J420160129002509901/29/16 00:25:31  5-MIN K0J4 290525Z AUTO 22003KT 10SM CLR 02/01 A3001 240 89 -1200 220/03 RMK AO2
63870K0J4 0J420160129003009901/29/16 00:30:31  5-MIN K0J4 290530Z AUTO 00000KT 10SM CLR 02/01 A3001 240 89 -1200 000/00 RMK AO2
63870K0J4 0J420160129003509901/29/16 00:35:31  5-MIN K0J4 290535Z AUTO 00000KT 10SM CLR 03/01 A3001 240 89 -1100 000/00 RMK AO2
63870K0J4 0J420160129004009901/29/16 00:40:31  5-MIN K0J4 290540Z AUTO 00000KT 10SM CLR 03/01 A3001 240 85 -1100 000/00 RMK AO2
63870K0J4 0J420160129004509901/29/16 00:45:31  5-MIN K0J4 290545Z AUTO 00000KT 10SM CLR 03/01 A3001 230 85 -1100 000/00 RMK AO2
63870K0J4 0J420160129005009901/29/16 00:50:31  5-MIN K0J4 290550Z AUTO 00000KT 10SM CLR 03/01 A3001 230 85 -1100 000/00 RMK AO2
63870K0J4 0J420160129005513401/29/16 00:55:31  5-MIN K0J4 290555Z AUTO 00000KT 10SM CLR 03/01 A3001 230 85 -1100 000/00 RMK AO2 SLP163 T00280006 10067 20022 51012
63870K0J4 0J420160129010009901/29/16 01:00:31  5-MIN K0J4 290600Z AUTO 00000KT 10SM CLR 03/01 A3001 230 85 -1100 000/00 RMK AO2
63870K0J4 0J420160129010509901/29/16 01:05:31  5-MIN K0J4 290605Z AUTO 22003KT 10SM CLR 03/00 A3001 230 82 -1100 220/03 RMK AO2
63870K0J4 0J420160129011009901/29/16 01:10:31  5-MIN K0J4 290610Z AUTO 23003KT 10SM CLR 02/00 A3001 230 85 -1200 230/03 RMK AO2
63870K0J4 0J420160129011509901/29/16 01:15:31  5-MIN K0J4 290615Z AUTO 22003KT 10SM CLR 03/00 A3001 230 82 -1100 220/03 RMK AO2
63870K0J4 0J420160129012009901/29/16 01:20:31  5-MIN K0J4 290620Z AUTO 22003KT 10SM CLR 03/00 A3001 230 79 -1000 220/03 RMK AO2
63870K0J4 0J420160129012509901/29/16 01:25:31  5-MIN K0J4 290625Z AUTO 00000KT 10SM CLR 03/00 A3001 230 82 -1100 000/00 RMK AO2
63870K0J4 0J420160129013009901/29/16 01:30:31  5-MIN K0J4 290630Z AUTO 00000KT 10SM CLR 03/00 A3001 230 82 -1100 000/00 RMK AO2
63870K0J4 0J420160129013509901/29/16 01:35:31  5-MIN K0J4 290635Z AUTO 00000KT 10SM CLR 03/00 A3001 230 82 -1100 000/00 RMK AO2
63870K0J4 0J420160129014009901/29/16 01:40:31  5-MIN K0J4 290640Z AUTO 00000KT 10SM CLR 03/00 A3001 230 82 -1100 000/00 RMK AO2
63870K0J4 0J420160129014509901/29/16 01:45:31  5-MIN K0J4 290645Z AUTO 00000KT 10SM CLR 03/00 A3001 230 82 -1100 000/00 RMK AO2
63870K0J4 0J420160129015009901/29/16 01:50:31  5-MIN K0J4 290650Z AUTO 00000KT 10SM CLR 02/01 A3002 230 89 -1200 000/00 RMK AO2
63870K0J4 0J420160129015511601/29/16 01:55:31  5-MIN K0J4 290655Z AUTO 00000KT 10SM CLR 03/00 A3002 230 82 -1100 000/00 RMK AO2 SLP164 T00280000
63870K0J4 0J420160129020009901/29/16 02:00:31  5-MIN K0J4 290700Z AUTO 00000KT 10SM CLR 02/00 A3002 230 85 -1200 000/00 RMK AO2
63870K0J4 0J420160129020509901/29/16 02:05:31  5-MIN K0J4 290705Z AUTO 00000KT 10SM CLR 02/00 A3002 220 85 -1200 000/00 RMK AO2
63870K0J4 0J420160129021009901/29/16 02:10:31  5-MIN K0J4 290710Z AUTO 00000KT 10SM CLR 03/00 A3002 220 82 -1100 000/00 RMK AO2
63870K0J4 0J420160129021509901/29/16 02:15:31  5-MIN K0J4 290715Z AUTO 00000KT 10SM CLR 03/00 A3002 230 82 -1100 000/00 RMK AO2
63870K0J4 0J420160129022009901/29/16 02:20:31  5-MIN K0J4 290720Z AUTO 00000KT 10SM CLR 03/00 A3002 230 82 -1100 000/00 RMK AO2
63870K0J4 0J420160129022510001/29/16 02:25:31  5-MIN K0J4 290725Z AUTO 00000KT 10SM CLR 03/M01 A3002 230 76 -1000 000/00 RMK AO2
63870K0J4 0J420160129023009901/29/16 02:30:31  5-MIN K0J4 290730Z AUTO 00000KT 10SM CLR 03/00 A3002 230 82 -1100 000/00 RMK AO2
63870K0J4 0J420160129023509901/29/16 02:35:31  5-MIN K0J4 290735Z AUTO 00000KT 10SM CLR 03/00 A3001 230 82 -1100 000/00 RMK AO2
63870K0J4 0J420160129024009901/29/16 02:40:31  5-MIN K0J4 290740Z AUTO 00000KT 10SM CLR 03/00 A3002 230 82 -1100 000/00 RMK AO2
63870K0J4 0J420160129024510001/29/16 02:45:31  5-MIN K0J4 290745Z AUTO 00000KT 10SM CLR 03/M01 A3002 230 79 -1100 000/00 RMK AO2
63870K0J4 0J420160129025010001/29/16 02:50:31  5-MIN K0J4 290750Z AUTO 00000KT 10SM CLR 03/M01 A3002 230 79 -1100 000/00 RMK AO2
63870K0J4 0J420160129025511701/29/16 02:55:31  5-MIN K0J4 290755Z AUTO 00000KT 10SM CLR 02/M01 A3002 230 82 -1200 000/00 RMK AO2 SLP163 T00221006
63870K0J4 0J420160129030009901/29/16 03:00:31  5-MIN K0J4 290800Z AUTO 00000KT 10SM CLR 02/00 A3002 230 85 -1200 000/00 RMK AO2
63870K0J4 0J420160129030509901/29/16 03:05:31  5-MIN K0J4 290805Z AUTO 00000KT 10SM CLR 02/00 A3002 230 85 -1200 000/00 RMK AO2
63870K0J4 0J420160129031010001/29/16 03:10:31  5-MIN K0J4 290810Z AUTO 00000KT 10SM CLR 02/M01 A3001 230 82 -1200 000/00 RMK AO2
63870K0J4 0J420160129031509901/29/16 03:15:31  5-MIN K0J4 290815Z AUTO 00000KT 10SM CLR 02/00 A3001 230 85 -1200 000/00 RMK AO2
63870K0J4 0J420160129032009901/29/16 03:20:31  5-MIN K0J4 290820Z AUTO 00000KT 10SM CLR 02/00 A3001 230 89 -1200 000/00 RMK AO2
63870K0J4 0J420160129032509901/29/16 03:25:31  5-MIN K0J4 290825Z AUTO 00000KT 10SM CLR 02/00 A3001 230 85 -1200 000/00 RMK AO2
63870K0J4 0J420160129033009901/29/16 03:30:31  5-MIN K0J4 290830Z AUTO 00000KT 10SM CLR 02/00 A3001 230 85 -1200 000/00 RMK AO2
63870K0J4 0J420160129033509901/29/16 03:35:31  5-MIN K0J4 290835Z AUTO 00000KT 10SM CLR 02/00 A3001 230 85 -1200 000/00 RMK AO2
63870K0J4 0J420160129034009901/29/16 03:40:31  5-MIN K0J4 290840Z AUTO 00000KT 10SM CLR 02/00 A3001 230 85 -1200 000/00 RMK AO2
63870K0J4 0J420160129034509901/29/16 03:45:31  5-MIN K0J4 290845Z AUTO 00000KT 10SM CLR 02/00 A3001 230 89 -1200 000/00 RMK AO2
63870K0J4 0J420160129035009901/29/16 03:50:31  5-MIN K0J4 290850Z AUTO 00000KT 10SM CLR 02/00 A3001 230 89 -1300 000/00 RMK AO2
63870K0J4 0J420160129035512201/29/16 03:55:31  5-MIN K0J4 290855Z AUTO 00000KT 10SM CLR 02/00 A3002 230 89 -1300 000/00 RMK AO2 SLP164 T00170000 51006
63870K0J4 0J420160129040009901/29/16 04:00:31  5-MIN K0J4 290900Z AUTO 00000KT 10SM CLR 02/00 A3002 230 89 -1300 000/00 RMK AO2
63870K0J4 0J420160129040509901/29/16 04:05:31  5-MIN K0J4 290905Z AUTO 00000KT 10SM CLR 02/00 A3002 230 89 -1300 000/00 RMK AO2
63870K0J4 0J420160129041009901/29/16 04:10:31  5-MIN K0J4 290910Z AUTO 00000KT 10SM CLR 02/00 A3002 230 89 -1300 000/00 RMK AO2
63870K0J4 0J420160129041509901/29/16 04:15:31  5-MIN K0J4 290915Z AUTO 00000KT 10SM CLR 03/00 A3002 230 82 -1100 000/00 RMK AO2
63870K0J4 0J420160129042010001/29/16 04:20:31  5-MIN K0J4 290920Z AUTO 00000KT 10SM CLR 03/M01 A3002 220 79 -1100 000/00 RMK AO2
63870K0J4 0J420160129042510001/29/16 04:25:31  5-MIN K0J4 290925Z AUTO 00000KT 10SM CLR 03/M01 A3002 220 79 -1100 000/00 RMK AO2
63870K0J4 0J420160129043010001/29/16 04:30:31  5-MIN K0J4 290930Z AUTO 00000KT 10SM CLR 03/M01 A3002 220 79 -1100 000/00 RMK AO2
63870K0J4 0J420160129085009801/29/16 08:50:31  5-MIN K0J4 291350Z AUTO 00000KT 10SM CLR 06/00 A3009 160 67 -800 000/00 RMK AO2
63870K0J4 0J420160129085511501/29/16 08:55:31  5-MIN K0J4 291355Z AUTO 00000KT 10SM CLR 06/01 A3009 160 67 -800 000/00 RMK AO2 SLP189 T00610006
63870K0J4 0J420160129090009801/29/16 09:00:31  5-MIN K0J4 291400Z AUTO 00000KT 10SM CLR 07/00 A3009 160 62 -700 000/00 RMK AO2
63870K0J4 0J420160129090509801/29/16 09:05:31  5-MIN K0J4 291405Z AUTO 00000KT 10SM CLR 07/01 A3009 160 65 -700 000/00 RMK AO2
63870K0J4 0J420160129091009801/29/16 09:10:31  5-MIN K0J4 291410Z AUTO 00000KT 10SM CLR 07/01 A3009 160 65 -700 000/00 RMK AO2
63870K0J4 0J420160129091509801/29/16 09:15:31  5-MIN K0J4 291415Z AUTO VRB03KT 10SM CLR 07/01 A3009 160 62 -600 VRB/03 RMK AO2
63870K0J4 0J420160129092009801/29/16 09:20:31  5-MIN K0J4 291420Z AUTO VRB03KT 10SM CLR 07/00 A3009 160 60 -700 VRB/03 RMK AO2
63870K0J4 0J420160129092509801/29/16 09:25:31  5-MIN K0J4 291425Z AUTO 00000KT 10SM CLR 08/01 A3009 160 60 -600 000/00 RMK AO2
63870K0J4 0J420160129093009801/29/16 09:30:31  5-MIN K0J4 291430Z AUTO VRB03KT 10SM CLR 08/01 A3009 160 60 -600 VRB/03 RMK AO2
63870K0J4 0J420160129093509801/29/16 09:35:31  5-MIN K0J4 291435Z AUTO VRB04KT 10SM CLR 08/01 A3009 160 58 -500 VRB/04 RMK AO2
63870K0J4 0J420160129094009801/29/16 09:40:31  5-MIN K0J4 291440Z AUTO VRB05KT 10SM CLR 09/01 A3009 160 58 -500 VRB/05 RMK AO2
63870K0J4 0J420160129094509801/29/16 09:45:31  5-MIN K0J4 291445Z AUTO 00000KT 10SM CLR 09/01 A3009 160 58 -500 000/00 RMK AO2
63870K0J4 0J420160129095009801/29/16 09:50:31  5-MIN K0J4 291450Z AUTO VRB03KT 10SM CLR 09/01 A3010 150 56 -400 VRB/03 RMK AO2
63870K0J4 0J420160129095512101/29/16 09:55:31  5-MIN K0J4 291455Z AUTO VRB03KT 10SM CLR 09/02 A3010 150 58 -400 VRB/03 RMK AO2 SLP191 T00940017 53011
63870K0J4 0J420160129100009801/29/16 10:00:31  5-MIN K0J4 291500Z AUTO 00000KT 10SM CLR 09/01 A3010 150 56 -400 000/00 RMK AO2
63870K0J4 0J420160129100509801/29/16 10:05:31  5-MIN K0J4 291505Z AUTO VRB04KT 10SM CLR 10/01 A3010 150 54 -300 VRB/04 RMK AO2
63870K0J4 0J420160129101009801/29/16 10:10:31  5-MIN K0J4 291510Z AUTO VRB05KT 10SM CLR 10/01 A3010 150 54 -300 VRB/05 RMK AO2
63870K0J4 0J420160129101509801/29/16 10:15:31  5-MIN K0J4 291515Z AUTO VRB06KT 10SM CLR 10/01 A3010 150 54 -300 VRB/06 RMK AO2
63870K0J4 0J420160129102009801/29/16 10:20:31  5-MIN K0J4 291520Z AUTO VRB04KT 10SM CLR 11/02 A3010 150 54 -300 VRB/04 RMK AO2
63870K0J4 0J420160129102509801/29/16 10:25:31  5-MIN K0J4 291525Z AUTO 33005KT 10SM CLR 11/01 A3010 150 52 -300 330/05 RMK AO2
63870K0J4 0J420160129103009801/29/16 10:30:31  5-MIN K0J4 291530Z AUTO 33006KT 10SM CLR 11/02 A3010 150 54 -300 330/06 RMK AO2
63870K0J4 0J420160129103509801/29/16 10:35:31  5-MIN K0J4 291535Z AUTO VRB05KT 10SM CLR 11/02 A3010 150 52 -200 VRB/05 RMK AO2
63870K0J4 0J420160129104009801/29/16 10:40:31  5-MIN K0J4 291540Z AUTO VRB05KT 10SM CLR 12/02 A3010 150 50 -100 VRB/05 RMK AO2
63870K0J4 0J420160129104509801/29/16 10:45:31  5-MIN K0J4 291545Z AUTO 34008KT 10SM CLR 11/01 A3011 140 50 -200 340/08 RMK AO2
63870K0J4 0J420160129105009801/29/16 10:50:31  5-MIN K0J4 291550Z AUTO VRB03KT 10SM CLR 12/02 A3011 140 52 -100 VRB/03 RMK AO2
63870K0J4 0J420160129105511501/29/16 10:55:31  5-MIN K0J4 291555Z AUTO VRB06KT 10SM CLR 12/02 A3011 140 48 -100 VRB/06 RMK AO2 SLP195 T01220017
63870K0J4 0J420160129110009801/29/16 11:00:31  5-MIN K0J4 291600Z AUTO VRB03KT 10SM CLR 12/02 A3011 140 48 -100 VRB/03 RMK AO2
63870K0J4 0J420160129110509801/29/16 11:05:31  5-MIN K0J4 291605Z AUTO VRB05KT 10SM CLR 12/02 A3011 140 50 -100 VRB/05 RMK AO2
63870K0J4 0J420160129111009801/29/16 11:10:31  5-MIN K0J4 291610Z AUTO VRB04KT 10SM CLR 12/02 A3011 140 50 -100 VRB/04 RMK AO2
63870K0J4 0J420160129111509501/29/16 11:15:31  5-MIN K0J4 291615Z AUTO VRB04KT 10SM CLR 13/02 A3010 150 48 0 VRB/04 RMK AO2
63870K0J4 0J420160129112009501/29/16 11:20:31  5-MIN K0J4 291620Z AUTO VRB04KT 10SM CLR 13/02 A3010 150 48 0 VRB/04 RMK AO2
63870K0J4 0J420160129112509501/29/16 11:25:31  5-MIN K0J4 291625Z AUTO VRB05KT 10SM CLR 13/02 A3010 150 48 0 VRB/05 RMK AO2
63870K0J4 0J420160129113009501/29/16 11:30:31  5-MIN K0J4 291630Z AUTO VRB04KT 10SM CLR 13/02 A3010 150 46 0 VRB/04 RMK AO2
63870K0J4 0J420160129113509501/29/16 11:35:31  5-MIN K0J4 291635Z AUTO 36005KT 10SM CLR 13/02 A3010 150 46 0 360/05 RMK AO2
63870K0J4 0J420160129114009501/29/16 11:40:31  5-MIN K0J4 291640Z AUTO VRB03KT 10SM CLR 13/02 A3010 150 46 0 VRB/03 RMK AO2
63870K0J4 0J420160129114509701/29/16 11:45:31  5-MIN K0J4 291645Z AUTO VRB03KT 10SM CLR 14/03 A3010 150 47 100 VRB/03 RMK AO2
63870K0J4 0J420160129115009701/29/16 11:50:31  5-MIN K0J4 291650Z AUTO VRB03KT 10SM CLR 14/03 A3010 150 47 100 VRB/03 RMK AO2
63870K0J4 0J420160129115511401/29/16 11:55:31  5-MIN K0J4 291655Z AUTO 34004KT 10SM CLR 14/03 A3010 150 47 100 340/04 RMK AO2 SLP191 T01390028
63870K0J4 0J420160129120009701/29/16 12:00:31  5-MIN K0J4 291700Z AUTO 34005KT 10SM CLR 14/02 A3010 150 45 100 340/05 RMK AO2
63870K0J4 0J420160129120509701/29/16 12:05:31  5-MIN K0J4 291705Z AUTO VRB03KT 10SM CLR 14/02 A3009 160 43 200 VRB/03 RMK AO2
63870K0J4 0J420160129121009701/29/16 12:10:31  5-MIN K0J4 291710Z AUTO 00000KT 10SM CLR 14/03 A3009 160 45 200 000/00 RMK AO2
63870K0J4 0J420160129121509701/29/16 12:15:31  5-MIN K0J4 291715Z AUTO VRB03KT 10SM CLR 15/03 A3009 160 43 200 VRB/03 RMK AO2
63870K0J4 0J420160129122009701/29/16 12:20:31  5-MIN K0J4 291720Z AUTO 34003KT 10SM CLR 15/03 A3009 160 43 200 340/03 RMK AO2
63870K0J4 0J420160129122509701/29/16 12:25:31  5-MIN K0J4 291725Z AUTO VRB04KT 10SM CLR 15/03 A3009 160 45 200 VRB/04 RMK AO2
63870K0J4 0J420160129123009701/29/16 12:30:31  5-MIN K0J4 291730Z AUTO VRB04KT 10SM CLR 15/02 A3009 160 42 200 VRB/04 RMK AO2
63870K0J4 0J420160129123509701/29/16 12:35:31  5-MIN K0J4 291735Z AUTO 00000KT 10SM CLR 16/02 A3008 170 40 300 000/00 RMK AO2
63870K0J4 0J420160129124009701/29/16 12:40:31  5-MIN K0J4 291740Z AUTO VRB03KT 10SM CLR 16/03 A3008 170 40 400 VRB/03 RMK AO2
63870K0J4 0J420160129124509701/29/16 12:45:31  5-MIN K0J4 291745Z AUTO VRB05KT 10SM CLR 16/02 A3008 170 40 300 VRB/05 RMK AO2
63870K0J4 0J420160129125009701/29/16 12:50:31  5-MIN K0J4 291750Z AUTO VRB03KT 10SM CLR 16/03 A3007 170 42 300 VRB/03 RMK AO2
63870K0J4 0J420160129125513201/29/16 12:55:31  5-MIN K0J4 291755Z AUTO VRB05KT 10SM CLR 16/03 A3007 170 42 400 VRB/05 RMK AO2 SLP183 T01610033 10161 20033 51015
63870K0J4 0J420160129130009701/29/16 13:00:31  5-MIN K0J4 291800Z AUTO 00000KT 10SM CLR 16/03 A3007 180 42 300 000/00 RMK AO2
63870K0J4 0J420160129130509701/29/16 13:05:31  5-MIN K0J4 291805Z AUTO VRB03KT 10SM CLR 16/03 A3007 180 40 400 VRB/03 RMK AO2
63870K0J4 0J420160129131009701/29/16 13:10:31  5-MIN K0J4 291810Z AUTO VRB03KT 10SM CLR 16/03 A3007 180 40 400 VRB/03 RMK AO2
63870K0J4 0J420160129131509701/29/16 13:15:31  5-MIN K0J4 291815Z AUTO 00000KT 10SM CLR 17/03 A3006 190 39 500 000/00 RMK AO2
63870K0J4 0J420160129132009701/29/16 13:20:31  5-MIN K0J4 291820Z AUTO VRB03KT 10SM CLR 17/02 A3006 190 37 500 VRB/03 RMK AO2
63870K0J4 0J420160129132510401/29/16 13:25:31  5-MIN K0J4 291825Z AUTO VRB06KT 10SM CLR 17/02 A3005 200 36 500 VRB/06 RMK AO2 PRESFR
63870K0J4 0J420160129133009701/29/16 13:30:31  5-MIN K0J4 291830Z AUTO 35005KT 10SM CLR 17/02 A3004 200 36 600 350/05 RMK AO2
63870K0J4 0J420160129133509701/29/16 13:35:31  5-MIN K0J4 291835Z AUTO VRB05KT 10SM CLR 17/03 A3005 200 37 500 VRB/05 RMK AO2
63870K0J4 0J420160129134009701/29/16 13:40:31  5-MIN K0J4 291840Z AUTO 00000KT 10SM CLR 17/03 A3005 200 37 500 000/00 RMK AO2
63870K0J4 0J420160129134509701/29/16 13:45:31  5-MIN K0J4 291845Z AUTO VRB04KT 10SM CLR 18/03 A3005 200 36 600 VRB/04 RMK AO2
63870K0J4 0J420160129135009701/29/16 13:50:31  5-MIN K0J4 291850Z AUTO VRB04KT 10SM CLR 18/03 A3005 200 36 600 VRB/04 RMK AO2
63870K0J4 0J420160129135511401/29/16 13:55:31  5-MIN K0J4 291855Z AUTO VRB04KT 10SM CLR 18/03 A3004 200 36 600 VRB/04 RMK AO2 SLP171 T01780028
63870K0J4 0J420160129140009701/29/16 14:00:31  5-MIN K0J4 291900Z AUTO 31004KT 10SM CLR 18/02 A3004 200 35 600 310/04 RMK AO2
63870K0J4 0J420160129140509701/29/16 14:05:31  5-MIN K0J4 291905Z AUTO VRB03KT 10SM CLR 18/03 A3005 200 36 600 VRB/03 RMK AO2
63870K0J4 0J420160129141009701/29/16 14:10:31  5-MIN K0J4 291910Z AUTO VRB04KT 10SM CLR 18/03 A3005 200 36 600 VRB/04 RMK AO2
63870K0J4 0J420160129141509701/29/16 14:15:31  5-MIN K0J4 291915Z AUTO VRB03KT 10SM CLR 18/03 A3005 200 36 600 VRB/03 RMK AO2
63870K0J4 0J420160129142009701/29/16 14:20:31  5-MIN K0J4 291920Z AUTO VRB05KT 10SM CLR 18/03 A3005 200 35 700 VRB/05 RMK AO2
63870K0J4 0J420160129142509701/29/16 14:25:31  5-MIN K0J4 291925Z AUTO VRB04KT 10SM CLR 18/03 A3005 200 36 700 VRB/04 RMK AO2
63870K0J4 0J420160129143009701/29/16 14:30:31  5-MIN K0J4 291930Z AUTO VRB04KT 10SM CLR 18/02 A3004 200 35 600 VRB/04 RMK AO2
63870K0J4 0J420160129143509701/29/16 14:35:31  5-MIN K0J4 291935Z AUTO 34007KT 10SM CLR 18/02 A3004 210 34 700 340/07 RMK AO2
63870K0J4 0J420160129144009701/29/16 14:40:31  5-MIN K0J4 291940Z AUTO VRB04KT 10SM CLR 18/03 A3004 210 35 700 VRB/04 RMK AO2
63870K0J4 0J420160129144509701/29/16 14:45:31  5-MIN K0J4 291945Z AUTO VRB03KT 10SM CLR 18/03 A3004 200 35 700 VRB/03 RMK AO2
63870K0J4 0J420160129145009701/29/16 14:50:31  5-MIN K0J4 291950Z AUTO VRB06KT 10SM CLR 18/03 A3004 200 35 700 VRB/06 RMK AO2
63870K0J4 0J420160129145511401/29/16 14:55:31  5-MIN K0J4 291955Z AUTO VRB04KT 10SM CLR 18/02 A3004 200 34 700 VRB/04 RMK AO2 SLP172 T01830022
63870K0J4 0J420160129191509801/29/16 19:15:31  5-MIN K0J4 300015Z AUTO 00000KT 10SM CLR 09/07 A3008 170 83 -400 000/00 RMK AO2
63870K0J4 0J420160129192009801/29/16 19:20:31  5-MIN K0J4 300020Z AUTO 00000KT 10SM CLR 09/06 A3008 170 79 -400 000/00 RMK AO2
63870K0J4 0J420160129192509801/29/16 19:25:31  5-MIN K0J4 300025Z AUTO 00000KT 10SM CLR 09/06 A3008 160 83 -400 000/00 RMK AO2
63870K0J4 0J420160129193009801/29/16 19:30:31  5-MIN K0J4 300030Z AUTO 00000KT 10SM CLR 09/06 A3008 160 83 -400 000/00 RMK AO2
63870K0J4 0J420160129193509801/29/16 19:35:31  5-MIN K0J4 300035Z AUTO 00000KT 10SM CLR 09/06 A3008 170 83 -400 000/00 RMK AO2
63870K0J4 0J420160129194009801/29/16 19:40:31  5-MIN K0J4 300040Z AUTO 00000KT 10SM CLR 09/06 A3008 160 83 -400 000/00 RMK AO2
63870K0J4 0J420160129194509801/29/16 19:45:31  5-MIN K0J4 300045Z AUTO 00000KT 10SM CLR 08/06 A3009 160 82 -500 000/00 RMK AO2
63870K0J4 0J420160129195009801/29/16 19:50:31  5-MIN K0J4 300050Z AUTO 00000KT 10SM CLR 08/06 A3008 160 82 -500 000/00 RMK AO2
63870K0J4 0J420160129195511501/29/16 19:55:31  5-MIN K0J4 300055Z AUTO 00000KT 10SM CLR 08/06 A3009 160 82 -500 000/00 RMK AO2 SLP188 T00830056
63870K0J4 0J420160129200009801/29/16 20:00:31  5-MIN K0J4 300100Z AUTO 00000KT 10SM CLR 08/06 A3009 160 82 -500 000/00 RMK AO2
63870K0J4 0J420160129200509801/29/16 20:05:31  5-MIN K0J4 300105Z AUTO 00000KT 10SM CLR 08/06 A3009 160 82 -500 000/00 RMK AO2
63870K0J4 0J420160129201009801/29/16 20:10:31  5-MIN K0J4 300110Z AUTO 22004KT 10SM CLR 08/06 A3009 160 86 -600 220/04 RMK AO2
63870K0J4 0J420160129201509801/29/16 20:15:31  5-MIN K0J4 300115Z AUTO 00000KT 10SM CLR 09/06 A3009 160 79 -400 000/00 RMK AO2
63870K0J4 0J420160129202009801/29/16 20:20:31  5-MIN K0J4 300120Z AUTO 00000KT 10SM CLR 08/06 A3009 160 82 -500 000/00 RMK AO2
63870K0J4 0J420160129202509801/29/16 20:25:31  5-MIN K0J4 300125Z AUTO 19003KT 10SM CLR 08/05 A3010 150 82 -600 190/03 RMK AO2
63870K0J4 0J420160129203009801/29/16 20:30:31  5-MIN K0J4 300130Z AUTO 21004KT 10SM CLR 07/05 A3009 160 86 -700 210/04 RMK AO2
63870K0J4 0J420160129203509801/29/16 20:35:31  5-MIN K0J4 300135Z AUTO 24003KT 10SM CLR 09/05 A3009 160 76 -500 240/03 RMK AO2
63870K0J4 0J420160129204009801/29/16 20:40:31  5-MIN K0J4 300140Z AUTO 23005KT 10SM CLR 10/05 A3009 160 71 -300 230/05 RMK AO2
63870K0J4 0J420160129204509801/29/16 20:45:31  5-MIN K0J4 300145Z AUTO 24004KT 10SM CLR 11/05 A3010 150 68 -300 240/04 RMK AO2
63870K0J4 0J420160129205009801/29/16 20:50:31  5-MIN K0J4 300150Z AUTO 00000KT 10SM CLR 10/05 A3010 150 71 -300 000/00 RMK AO2
63870K0J4 0J420160129205511501/29/16 20:55:31  5-MIN K0J4 300155Z AUTO 21004KT 10SM CLR 08/05 A3010 150 79 -500 210/04 RMK AO2 SLP191 T00830050
63870K0J4 0J420160129210009801/29/16 21:00:31  5-MIN K0J4 300200Z AUTO 24003KT 10SM CLR 09/05 A3010 150 76 -500 240/03 RMK AO2
63870K0J4 0J420160129210509801/29/16 21:05:31  5-MIN K0J4 300205Z AUTO 00000KT 10SM CLR 09/05 A3010 150 76 -500 000/00 RMK AO2
63870K0J4 0J420160129211009801/29/16 21:10:31  5-MIN K0J4 300210Z AUTO 00000KT 10SM CLR 09/05 A3010 150 76 -500 000/00 RMK AO2
63870K0J4 0J420160129211509801/29/16 21:15:31  5-MIN K0J4 300215Z AUTO 22003KT 10SM CLR 07/04 A3010 150 82 -700 220/03 RMK AO2
63870K0J4 0J420160129212009801/29/16 21:20:31  5-MIN K0J4 300220Z AUTO 00000KT 10SM CLR 08/04 A3010 150 79 -600 000/00 RMK AO2
63870K0J4 0J420160129212509801/29/16 21:25:31  5-MIN K0J4 300225Z AUTO 00000KT 10SM CLR 08/05 A3010 150 79 -500 000/00 RMK AO2
63870K0J4 0J420160129213009801/29/16 21:30:31  5-MIN K0J4 300230Z AUTO 24003KT 10SM CLR 08/05 A3010 150 82 -600 240/03 RMK AO2
63870K0J4 0J420160129213509801/29/16 21:35:31  5-MIN K0J4 300235Z AUTO 00000KT 10SM CLR 06/04 A3010 150 86 -800 000/00 RMK AO2
63870K0J4 0J420160129214009801/29/16 21:40:31  5-MIN K0J4 300240Z AUTO 00000KT 10SM CLR 07/04 A3010 150 86 -700 000/00 RMK AO2
63870K0J4 0J420160129214509801/29/16 21:45:31  5-MIN K0J4 300245Z AUTO 00000KT 10SM CLR 07/04 A3010 150 82 -700 000/00 RMK AO2
63870K0J4 0J420160129215009801/29/16 21:50:31  5-MIN K0J4 300250Z AUTO 23003KT 10SM CLR 07/04 A3010 150 82 -700 230/03 RMK AO2
63870K0J4 0J420160129215512101/29/16 21:55:31  5-MIN K0J4 300255Z AUTO 22003KT 10SM CLR 06/04 A3010 150 86 -800 220/03 RMK AO2 SLP192 T00610039 53015
63870K0J4 0J420160129220009801/29/16 22:00:31  5-MIN K0J4 300300Z AUTO 23004KT 10SM CLR 07/05 A3010 150 86 -700 230/04 RMK AO2
63870K0J4 0J420160129220509801/29/16 22:05:31  5-MIN K0J4 300305Z AUTO 22004KT 10SM CLR 08/05 A3010 150 82 -600 220/04 RMK AO2
63870K0J4 0J420160129221009801/29/16 22:10:31  5-MIN K0J4 300310Z AUTO 22005KT 10SM CLR 09/06 A3010 150 76 -400 220/05 RMK AO2
63870K0J4 0J420160129221509801/29/16 22:15:31  5-MIN K0J4 300315Z AUTO 00000KT 10SM CLR 09/06 A3010 150 79 -500 000/00 RMK AO2
63870K0J4 0J420160129222009801/29/16 22:20:31  5-MIN K0J4 300320Z AUTO 00000KT 10SM CLR 08/06 A3010 150 82 -500 000/00 RMK AO2
63870K0J4 0J420160129222509801/29/16 22:25:31  5-MIN K0J4 300325Z AUTO 00000KT 10SM CLR 08/06 A3010 150 86 -600 000/00 RMK AO2
63870K0J4 0J420160129223009801/29/16 22:30:31  5-MIN K0J4 300330Z AUTO 21003KT 10SM CLR 07/05 A3010 150 86 -700 210/03 RMK AO2
63870K0J4 0J420160129223509801/29/16 22:35:31  5-MIN K0J4 300335Z AUTO 00000KT 10SM CLR 07/05 A3009 160 86 -700 000/00 RMK AO2
63870K0J4 0J420160129224009801/29/16 22:40:31  5-MIN K0J4 300340Z AUTO 00000KT 10SM CLR 08/05 A3009 160 82 -600 000/00 RMK AO2
63870K0J4 0J420160129224509801/29/16 22:45:31  5-MIN K0J4 300345Z AUTO 19003KT 10SM CLR 07/05 A3009 160 86 -700 190/03 RMK AO2
63870K0J4 0J420160129225009801/29/16 22:50:31  5-MIN K0J4 300350Z AUTO 20003KT 10SM CLR 07/05 A3009 160 86 -700 200/03 RMK AO2
63870K0J4 0J420160129225511501/29/16 22:55:31  5-MIN K0J4 300355Z AUTO 22003KT 10SM CLR 08/06 A3009 160 82 -500 220/03 RMK AO2 SLP189 T00830056
63870K0J4 0J420160129230009801/29/16 23:00:31  5-MIN K0J4 300400Z AUTO 00000KT 10SM CLR 07/05 A3010 150 89 -700 000/00 RMK AO2
63870K0J4 0J420160129230509801/29/16 23:05:31  5-MIN K0J4 300405Z AUTO 19003KT 10SM CLR 06/04 A3009 160 89 -800 190/03 RMK AO2
63870K0J4 0J420160129231009801/29/16 23:10:31  5-MIN K0J4 300410Z AUTO 20003KT 10SM CLR 07/05 A3009 160 86 -700 200/03 RMK AO2
63870K0J4 0J420160129231509801/29/16 23:15:31  5-MIN K0J4 300415Z AUTO 00000KT 10SM CLR 08/06 A3009 160 86 -600 000/00 RMK AO2
63870K0J4 0J420160129232009801/29/16 23:20:31  5-MIN K0J4 300420Z AUTO 00000KT 10SM CLR 07/06 A3009 160 89 -700 000/00 RMK AO2
63870K0J4 0J420160129232509801/29/16 23:25:31  5-MIN K0J4 300425Z AUTO 00000KT 10SM CLR 06/04 A3009 160 89 -800 000/00 RMK AO2
63870K0J4 0J420160129233009801/29/16 23:30:31  5-MIN K0J4 300430Z AUTO 00000KT 10SM CLR 06/04 A3009 160 89 -800 000/00 RMK AO2
63870K0J4 0J420160129233509801/29/16 23:35:31  5-MIN K0J4 300435Z AUTO 00000KT 10SM CLR 06/04 A3009 160 89 -800 000/00 RMK AO2
63870K0J4 0J420160129234009801/29/16 23:40:31  5-MIN K0J4 300440Z AUTO 00000KT 10SM CLR 06/04 A3008 170 89 -800 000/00 RMK AO2
63870K0J4 0J420160129234509801/29/16 23:45:31  5-MIN K0J4 300445Z AUTO 00000KT 10SM CLR 06/04 A3008 170 89 -800 000/00 RMK AO2
63870K0J4 0J420160129235009801/29/16 23:50:31  5-MIN K0J4 300450Z AUTO 00000KT 10SM CLR 06/04 A3008 170 89 -800 000/00 RMK AO2
63870K0J4 0J420160129235512501/29/16 23:55:31  5-MIN K0J4 300455Z AUTO 00000KT 10SM CLR 06/04 A3008 170 89 -800 000/00 RMK AO2 SLP185 T00560039 401890017
63870K0J4 0J420160130000009801/30/16 00:00:31  5-MIN K0J4 300500Z AUTO 00000KT 10SM CLR 06/04 A3008 170 92 -800 000/00 RMK AO2
63870K0J4 0J420160130000509801/30/16 00:05:31  5-MIN K0J4 300505Z AUTO 00000KT 10SM CLR 06/04 A3008 170 89 -800 000/00 RMK AO2
63870K0J4 0J420160130001009801/30/16 00:10:31  5-MIN K0J4 300510Z AUTO 00000KT 10SM CLR 05/04 A3008 170 92 -900 000/00 RMK AO2
63870K0J4 0J420160130001509901/30/16 00:15:31  5-MIN K0J4 300515Z AUTO 00000KT 10SM CLR 04/03 A3008 170 92 -1000 000/00 RMK AO2
63870K0J4 0J420160130002009901/30/16 00:20:31  5-MIN K0J4 300520Z AUTO 00000KT 10SM CLR 04/03 A3008 170 92 -1000 000/00 RMK AO2
63870K0J4 0J420160130002509801/30/16 00:25:31  5-MIN K0J4 300525Z AUTO 00000KT 10SM CLR 05/03 A3008 170 89 -900 000/00 RMK AO2
63870K0J4 0J420160130003009901/30/16 00:30:31  5-MIN K0J4 300530Z AUTO 00000KT 10SM CLR 04/03 A3008 170 89 -1000 000/00 RMK AO2
63870K0J4 0J420160130003509901/30/16 00:35:31  5-MIN K0J4 300535Z AUTO 00000KT 10SM CLR 04/03 A3008 170 89 -1000 000/00 RMK AO2
63870K0J4 0J420160130004009901/30/16 00:40:31  5-MIN K0J4 300540Z AUTO 00000KT 10SM CLR 04/03 A3008 170 89 -1000 000/00 RMK AO2
63870K0J4 0J420160130004509901/30/16 00:45:31  5-MIN K0J4 300545Z AUTO 00000KT 10SM CLR 04/03 A3008 170 92 -1000 000/00 RMK AO2
63870K0J4 0J420160130005009901/30/16 00:50:31  5-MIN K0J4 300550Z AUTO 00000KT 10SM CLR 04/03 A3008 170 92 -1000 000/00 RMK AO2
63870K0J4 0J420160130005513401/30/16 00:55:31  5-MIN K0J4 300555Z AUTO 00000KT 10SM CLR 04/03 A3008 170 92 -1000 000/00 RMK AO2 SLP185 T00440033 10106 20039 50008
63870K0J4 0J420160130010009901/30/16 01:00:31  5-MIN K0J4 300600Z AUTO 00000KT 10SM CLR 04/03 A3009 160 92 -1100 000/00 RMK AO2
63870K0J4 0J420160130010509901/30/16 01:05:31  5-MIN K0J4 300605Z AUTO 00000KT 10SM CLR 04/03 A3008 170 89 -1000 000/00 RMK AO2
63870K0J4 0J420160130011009901/30/16 01:10:31  5-MIN K0J4 300610Z AUTO 00000KT 10SM CLR 04/03 A3008 170 89 -1000 000/00 RMK AO2
63870K0J4 0J420160130011509901/30/16 01:15:31  5-MIN K0J4 300615Z AUTO 00000KT 10SM CLR 04/03 A3008 170 89 -1000 000/00 RMK AO2
63870K0J4 0J420160130012009901/30/16 01:20:31  5-MIN K0J4 300620Z AUTO 00000KT 10SM CLR 04/03 A3008 160 92 -1100 000/00 RMK AO2
63870K0J4 0J420160130012509801/30/16 01:25:31  5-MIN K0J4 300625Z AUTO 00000KT 7SM CLR 03/02 A3009 160 92 -1100 000/00 RMK AO2
63870K0J4 0J420160130013010101/30/16 01:30:31  5-MIN K0J4 300630Z AUTO 00000KT 6SM BR CLR 04/03 A3009 160 92 -1100 000/00 RMK AO2
63870K0J4 0J420160130013509701/30/16 01:35:31  5-MIN K0J4 300635Z AUTO 00000KT 8SM CLR 05/04 A3009 160 92 -900 000/00 RMK AO2
63870K0J4 0J420160130014009901/30/16 01:40:31  5-MIN K0J4 300640Z AUTO 00000KT 10SM CLR 04/03 A3009 160 92 -1100 000/00 RMK AO2
63870K0J4 0J420160130014509901/30/16 01:45:31  5-MIN K0J4 300645Z AUTO 00000KT 10SM CLR 04/03 A3009 160 89 -1000 000/00 RMK AO2
63870K0J4 0J420160130015009901/30/16 01:50:31  5-MIN K0J4 300650Z AUTO 00000KT 10SM CLR 04/03 A3009 160 92 -1000 000/00 RMK AO2
63870K0J4 0J420160130015511601/30/16 01:55:31  5-MIN K0J4 300655Z AUTO 00000KT 10SM CLR 04/03 A3009 160 92 -1100 000/00 RMK AO2 SLP188 T00390028
63870K0J4 0J420160130061009801/30/16 06:10:31  5-MIN K0J4 301110Z AUTO 00000KT 7SM CLR 03/02 A3010 150 92 -1100 000/00 RMK AO2
63870K0J4 0J420160130061509801/30/16 06:15:31  5-MIN K0J4 301115Z AUTO 00000KT 8SM CLR 03/02 A3010 150 92 -1100 000/00 RMK AO2
63870K0J4 0J420160130062009901/30/16 06:20:31  5-MIN K0J4 301120Z AUTO 00000KT 10SM CLR 04/02 A3011 140 89 -1100 000/00 RMK AO2
63870K0J4 0J420160130062509801/30/16 06:25:31  5-MIN K0J4 301125Z AUTO 00000KT 9SM CLR 04/03 A3011 140 92 -1100 000/00 RMK AO2
63870K0J4 0J420160130063009801/30/16 06:30:31  5-MIN K0J4 301130Z AUTO 00000KT 8SM CLR 03/02 A3011 140 96 -1200 000/00 RMK AO2
63870K0J4 0J420160130063509801/30/16 06:35:31  5-MIN K0J4 301135Z AUTO 00000KT 9SM CLR 03/02 A3011 140 92 -1200 000/00 RMK AO2
63870K0J4 0J420160130064010101/30/16 06:40:31  5-MIN K0J4 301140Z AUTO 00000KT 6SM BR CLR 03/02 A3011 140 92 -1200 000/00 RMK AO2
63870K0J4 0J420160130064511501/30/16 06:45:31  5-MIN K0J4 301145Z AUTO 00000KT 2 1/2SM BR CLR 03/02 A3011 140 96 -1200 000/00 RMK AO2 VIS 3/4V5
63870K0J4 0J420160130065011501/30/16 06:50:31  5-MIN K0J4 301150Z AUTO 00000KT 1 1/4SM BR CLR 03/02 A3011 140 92 -1200 000/00 RMK AO2 VIS 1/2V4
63870K0J4 0J420160130065514001/30/16 06:55:31  5-MIN K0J4 301155Z AUTO 00000KT 1 3/4SM BR CLR 03/02 A3011 140 92 -1200 000/00 RMK AO2 SLP196 T00330022 10050 20028 52004
63870K0J4 0J420160130070009801/30/16 07:00:31  5-MIN K0J4 301200Z AUTO 00000KT 7SM CLR 04/03 A3012 130 89 -1000 000/00 RMK AO2
63870K0J4 0J420160130070509801/30/16 07:05:31  5-MIN K0J4 301205Z AUTO 00000KT 8SM CLR 04/03 A3012 130 96 -1100 000/00 RMK AO2
63870K0J4 0J420160130071009801/30/16 07:10:31  5-MIN K0J4 301210Z AUTO 00000KT 8SM CLR 03/02 A3012 130 92 -1200 000/00 RMK AO2
63870K0J4 0J420160130071510101/30/16 07:15:31  5-MIN K0J4 301215Z AUTO 00000KT 6SM BR CLR 03/02 A3013 130 92 -1200 000/00 RMK AO2
63870K0J4 0J420160130072010101/30/16 07:20:31  5-MIN K0J4 301220Z AUTO 00000KT 6SM BR CLR 03/02 A3013 120 92 -1200 000/00 RMK AO2
63870K0J4 0J420160130072510101/30/16 07:25:31  5-MIN K0J4 301225Z AUTO 00000KT 7SM FEW002 03/02 A3014 120 92 -1200 000/00 RMK AO2
63870K0J4 0J420160130073007101/30/16 07:30:31  5-MIN K0J4 301230Z AUTO 00000KT 5SM BR FEW002 03/02 
63870K0J4 0J420160130172509901/30/16 17:25:31  5-MIN K0J4 302225Z AUTO 20010KT 10SM CLR 19/07 A3009 160 44 700 200/10 RMK AO2 $
63870K0J4 0J420160130173009901/30/16 17:30:31  5-MIN K0J4 302230Z AUTO 21010KT 10SM CLR 18/07 A3009 160 46 600 210/10 RMK AO2 $
63870K0J4 0J420160130173509901/30/16 17:35:31  5-MIN K0J4 302235Z AUTO 21009KT 10SM CLR 18/07 A3009 160 46 600 210/09 RMK AO2 $
63870K0J4 0J420160130174009901/30/16 17:40:31  5-MIN K0J4 302240Z AUTO 22008KT 10SM CLR 18/07 A3009 160 49 600 220/08 RMK AO2 $
63870K0J4 0J420160130174509901/30/16 17:45:31  5-MIN K0J4 302245Z AUTO 21008KT 10SM CLR 18/07 A3009 160 49 600 210/08 RMK AO2 $
63870K0J4 0J420160130175009901/30/16 17:50:31  5-MIN K0J4 302250Z AUTO 22005KT 10SM CLR 18/07 A3009 160 49 600 220/05 RMK AO2 $
63870K0J4 0J420160130175511601/30/16 17:55:31  5-MIN K0J4 302255Z AUTO 21008KT 10SM CLR 17/07 A3009 160 51 500 210/08 RMK AO2 SLP189 T01720072 $
63870K0J4 0J420160130180009901/30/16 18:00:31  5-MIN K0J4 302300Z AUTO 21006KT 10SM CLR 17/08 A3009 160 55 400 210/06 RMK AO2 $
63870K0J4 0J420160130180509901/30/16 18:05:31  5-MIN K0J4 302305Z AUTO 20005KT 10SM CLR 17/08 A3009 160 55 400 200/05 RMK AO2 $
63870K0J4 0J420160130181009901/30/16 18:10:31  5-MIN K0J4 302310Z AUTO 20005KT 10SM CLR 16/08 A3009 160 57 400 200/05 RMK AO2 $
63870K0J4 0J420160130181509901/30/16 18:15:31  5-MIN K0J4 302315Z AUTO 20007KT 10SM CLR 16/08 A3009 160 57 400 200/07 RMK AO2 $
63870K0J4 0J420160130182009901/30/16 18:20:31  5-MIN K0J4 302320Z AUTO 20006KT 10SM CLR 16/08 A3010 150 62 300 200/06 RMK AO2 $
63870K0J4 0J420160130182509901/30/16 18:25:31  5-MIN K0J4 302325Z AUTO 20005KT 10SM CLR 15/08 A3010 150 64 200 200/05 RMK AO2 $
63870K0J4 0J420160130183009901/30/16 18:30:31  5-MIN K0J4 302330Z AUTO 20005KT 10SM CLR 15/08 A3010 150 64 200 200/05 RMK AO2 $
63870K0J4 0J420160130183509901/30/16 18:35:31  5-MIN K0J4 302335Z AUTO 19004KT 10SM CLR 15/08 A3010 150 64 200 190/04 RMK AO2 $
63870K0J4 0J420160130184009901/30/16 18:40:31  5-MIN K0J4 302340Z AUTO 19004KT 10SM CLR 14/08 A3010 150 66 200 190/04 RMK AO2 $
63870K0J4 0J420160130184509901/30/16 18:45:31  5-MIN K0J4 302345Z AUTO 19004KT 10SM CLR 14/08 A3010 150 66 200 190/04 RMK AO2 $
63870K0J4 0J420160130185009901/30/16 18:50:31  5-MIN K0J4 302350Z AUTO 19004KT 10SM CLR 14/08 A3010 150 66 200 190/04 RMK AO2 $
63870K0J4 0J420160130185513401/30/16 18:55:31  5-MIN K0J4 302355Z AUTO 20003KT 10SM CLR 14/08 A3010 150 66 200 200/03 RMK AO2 SLP191 T01440083 10206 20144 56023 $
63870K0J4 0J420160130190009901/30/16 19:00:31  5-MIN K0J4 310000Z AUTO 19003KT 10SM CLR 14/08 A3010 150 66 200 190/03 RMK AO2 $
63870K0J4 0J420160130190509901/30/16 19:05:31  5-MIN K0J4 310005Z AUTO 19004KT 10SM CLR 14/08 A3010 150 69 100 190/04 RMK AO2 $
63870K0J4 0J420160130191009901/30/16 19:10:31  5-MIN K0J4 310010Z AUTO 19005KT 10SM CLR 14/08 A3010 150 69 100 190/05 RMK AO2 $
63870K0J4 0J420160130191509901/30/16 19:15:31  5-MIN K0J4 310015Z AUTO 18003KT 10SM CLR 14/09 A3011 140 71 100 180/03 RMK AO2 $
63870K0J4 0J420160130192009901/30/16 19:20:31  5-MIN K0J4 310020Z AUTO 18003KT 10SM CLR 14/09 A3011 140 71 100 180/03 RMK AO2 $
63870K0J4 0J420160130192509901/30/16 19:25:31  5-MIN K0J4 310025Z AUTO 19004KT 10SM CLR 14/09 A3011 140 71 100 190/04 RMK AO2 $
63870K0J4 0J420160130193009901/30/16 19:30:31  5-MIN K0J4 310030Z AUTO 19004KT 10SM CLR 14/09 A3011 140 72 100 190/04 RMK AO2 $
63870K0J4 0J420160130193509701/30/16 19:35:31  5-MIN K0J4 310035Z AUTO 19004KT 10SM CLR 13/09 A3011 140 74 0 190/04 RMK AO2 $
63870K0J4 0J420160130194009701/30/16 19:40:31  5-MIN K0J4 310040Z AUTO 19004KT 10SM CLR 13/09 A3011 140 74 0 190/04 RMK AO2 $
63870K0J4 0J420160130194509701/30/16 19:45:31  5-MIN K0J4 310045Z AUTO 18004KT 10SM CLR 13/09 A3011 140 77 0 180/04 RMK AO2 $
63870K0J4 0J420160130195009701/30/16 19:50:31  5-MIN K0J4 310050Z AUTO 18004KT 10SM CLR 13/09 A3011 140 77 0 180/04 RMK AO2 $
63870K0J4 0J420160130195511401/30/16 19:55:31  5-MIN K0J4 310055Z AUTO 18005KT 10SM CLR 13/09 A3011 140 77 0 180/05 RMK AO2 SLP196 T01330094 $
63870K0J4 0J420160130200009701/30/16 20:00:31  5-MIN K0J4 310100Z AUTO 18004KT 10SM CLR 13/09 A3012 140 77 0 180/04 RMK AO2 $
63870K0J4 0J420160130200509701/30/16 20:05:31  5-MIN K0J4 310105Z AUTO 18003KT 10SM CLR 13/09 A3012 130 77 0 180/03 RMK AO2 $
63870K0J4 0J420160130201009701/30/16 20:10:31  5-MIN K0J4 310110Z AUTO 17003KT 10SM CLR 13/09 A3012 140 80 0 170/03 RMK AO2 $
63870K0J4 0J420160130201510001/30/16 20:15:31  5-MIN K0J4 310115Z AUTO 17003KT 10SM CLR 12/09 A3012 140 83 -100 170/03 RMK AO2 $
63870K0J4 0J420160130202010001/30/16 20:20:31  5-MIN K0J4 310120Z AUTO 17003KT 10SM CLR 12/09 A3012 130 80 -100 170/03 RMK AO2 $
63870K0J4 0J420160130202510001/30/16 20:25:31  5-MIN K0J4 310125Z AUTO 17003KT 10SM CLR 12/09 A3012 130 83 -100 170/03 RMK AO2 $
63870K0J4 0J420160130203010001/30/16 20:30:31  5-MIN K0J4 310130Z AUTO 16003KT 10SM CLR 11/09 A3012 130 86 -200 160/03 RMK AO2 $
63870K0J4 0J420160130203510001/30/16 20:35:31  5-MIN K0J4 310135Z AUTO 00000KT 10SM CLR 12/09 A3012 130 83 -100 000/00 RMK AO2 $
63870K0J4 0J420160130204010001/30/16 20:40:31  5-MIN K0J4 310140Z AUTO 00000KT 10SM CLR 12/09 A3012 130 83 -100 000/00 RMK AO2 $
63870K0J4 0J420160130204510001/30/16 20:45:31  5-MIN K0J4 310145Z AUTO 00000KT 10SM CLR 12/09 A3012 130 83 -100 000/00 RMK AO2 $
63870K0J4 0J420160130205010001/30/16 20:50:31  5-MIN K0J4 310150Z AUTO 16003KT 10SM CLR 10/08 A3012 130 89 -300 160/03 RMK AO2 $
63870K0J4 0J420160130205511701/30/16 20:55:31  5-MIN K0J4 310155Z AUTO 17003KT 10SM CLR 10/08 A3013 130 86 -400 170/03 RMK AO2 SLP201 T01000078 $
63870K0J4 0J420160130210010001/30/16 21:00:31  5-MIN K0J4 310200Z AUTO 18003KT 10SM CLR 11/09 A3013 130 86 -200 180/03 RMK AO2 $
63870K0J4 0J420160130210510001/30/16 21:05:31  5-MIN K0J4 310205Z AUTO 18003KT 10SM CLR 11/09 A3013 130 89 -300 180/03 RMK AO2 $
63870K0J4 0J420160130211010001/30/16 21:10:31  5-MIN K0J4 310210Z AUTO 18003KT 10SM CLR 11/09 A3013 130 89 -200 180/03 RMK AO2 $
63870K0J4 0J420160130211510001/30/16 21:15:31  5-MIN K0J4 310215Z AUTO 18003KT 10SM CLR 11/09 A3013 130 93 -300 180/03 RMK AO2 $
63870K0J4 0J420160130212010001/30/16 21:20:31  5-MIN K0J4 310220Z AUTO 00000KT 10SM CLR 11/09 A3013 120 89 -300 000/00 RMK AO2 $
63870K0J4 0J420160130212510001/30/16 21:25:31  5-MIN K0J4 310225Z AUTO 00000KT 10SM CLR 11/09 A3013 120 86 -200 000/00 RMK AO2 $
63870K0J4 0J420160130213010001/30/16 21:30:31  5-MIN K0J4 310230Z AUTO 00000KT 10SM CLR 11/09 A3013 120 86 -200 000/00 RMK AO2 $
63870K0J4 0J420160130213510001/30/16 21:35:31  5-MIN K0J4 310235Z AUTO 00000KT 10SM CLR 11/09 A3013 120 86 -200 000/00 RMK AO2 $
63870K0J4 0J420160130214010001/30/16 21:40:31  5-MIN K0J4 310240Z AUTO 00000KT 10SM CLR 11/09 A3014 120 86 -200 000/00 RMK AO2 $
63870K0J4 0J420160130214510001/30/16 21:45:31  5-MIN K0J4 310245Z AUTO 00000KT 10SM CLR 11/09 A3014 120 89 -200 000/00 RMK AO2 $
63870K0J4 0J420160130215010001/30/16 21:50:31  5-MIN K0J4 310250Z AUTO 00000KT 10SM CLR 11/09 A3014 120 93 -300 000/00 RMK AO2 $
63870K0J4 0J420160130215512301/30/16 21:55:31  5-MIN K0J4 310255Z AUTO 00000KT 10SM CLR 11/09 A3014 120 89 -300 000/00 RMK AO2 SLP203 T01060089 53005 $
63870K0J4 0J420160130220010001/30/16 22:00:31  5-MIN K0J4 310300Z AUTO 00000KT 10SM CLR 11/09 A3013 120 93 -300 000/00 RMK AO2 $
63870K0J4 0J420160130220510001/30/16 22:05:31  5-MIN K0J4 310305Z AUTO 00000KT 10SM CLR 11/09 A3013 120 89 -300 000/00 RMK AO2 $
63870K0J4 0J420160130221010001/30/16 22:10:31  5-MIN K0J4 310310Z AUTO 00000KT 10SM CLR 10/08 A3013 120 89 -400 000/00 RMK AO2 $
63870K0J4 0J420160130221510001/30/16 22:15:31  5-MIN K0J4 310315Z AUTO 00000KT 10SM CLR 11/09 A3013 120 86 -200 000/00 RMK AO2 $
63870K0J4 0J420160130222010001/30/16 22:20:31  5-MIN K0J4 310320Z AUTO 00000KT 10SM CLR 09/08 A3013 120 93 -400 000/00 RMK AO2 $
63870K0J4 0J420160130222510001/30/16 22:25:31  5-MIN K0J4 310325Z AUTO 00000KT 10SM CLR 10/09 A3013 120 93 -400 000/00 RMK AO2 $
63870K0J4 0J420160130223010001/30/16 22:30:31  5-MIN K0J4 310330Z AUTO 18003KT 10SM CLR 11/09 A3013 120 93 -300 180/03 RMK AO2 $
63870K0J4 0J420160130223510001/30/16 22:35:31  5-MIN K0J4 310335Z AUTO 00000KT 10SM CLR 11/09 A3013 120 89 -300 000/00 RMK AO2 $
63870K0J4 0J420160130224010001/30/16 22:40:31  5-MIN K0J4 310340Z AUTO 17003KT 10SM CLR 10/09 A3013 120 93 -400 170/03 RMK AO2 $
63870K0J4 0J420160130224510001/30/16 22:45:31  5-MIN K0J4 310345Z AUTO 17003KT 10SM CLR 11/09 A3013 120 89 -300 170/03 RMK AO2 $
63870K0J4 0J420160130225010001/30/16 22:50:31  5-MIN K0J4 310350Z AUTO 00000KT 10SM CLR 11/09 A3013 130 89 -300 000/00 RMK AO2 $
63870K0J4 0J420160130225511701/30/16 22:55:31  5-MIN K0J4 310355Z AUTO 00000KT 10SM CLR 10/09 A3013 130 93 -400 000/00 RMK AO2 SLP200 T01000089 $
63870K0J4 0J420160130230010001/30/16 23:00:31  5-MIN K0J4 310400Z AUTO 00000KT 10SM CLR 11/09 A3013 130 93 -300 000/00 RMK AO2 $
63870K0J4 0J420160130230510001/30/16 23:05:31  5-MIN K0J4 310405Z AUTO 00000KT 10SM CLR 11/09 A3012 130 89 -200 000/00 RMK AO2 $
63870K0J4 0J420160130231010001/30/16 23:10:31  5-MIN K0J4 310410Z AUTO 00000KT 10SM CLR 11/09 A3013 130 93 -300 000/00 RMK AO2 $
63870K0J4 0J420160130231510001/30/16 23:15:31  5-MIN K0J4 310415Z AUTO 00000KT 10SM CLR 11/09 A3012 130 93 -300 000/00 RMK AO2 $
63870K0J4 0J420160130232010001/30/16 23:20:31  5-MIN K0J4 310420Z AUTO 18003KT 10SM CLR 11/09 A3013 130 93 -300 180/03 RMK AO2 $
63870K0J4 0J420160130232510001/30/16 23:25:31  5-MIN K0J4 310425Z AUTO 00000KT 10SM CLR 10/09 A3012 130 93 -400 000/00 RMK AO2 $
63870K0J4 0J420160130233010001/30/16 23:30:31  5-MIN K0J4 310430Z AUTO 00000KT 10SM CLR 11/09 A3012 130 89 -300 000/00 RMK AO2 $
63870K0J4 0J420160130233510001/30/16 23:35:31  5-MIN K0J4 310435Z AUTO 00000KT 10SM CLR 11/09 A3012 130 89 -300 000/00 RMK AO2 $
63870K0J4 0J420160130234010001/30/16 23:40:31  5-MIN K0J4 310440Z AUTO 00000KT 10SM CLR 11/09 A3012 130 93 -300 000/00 RMK AO2 $
63870K0J4 0J420160130234510001/30/16 23:45:31  5-MIN K0J4 310445Z AUTO 00000KT 10SM CLR 11/09 A3012 130 93 -300 000/00 RMK AO2 $
63870K0J4 0J420160130235010001/30/16 23:50:31  5-MIN K0J4 310450Z AUTO 00000KT 10SM CLR 11/09 A3012 130 93 -300 000/00 RMK AO2 $
63870K0J4 0J420160130235512701/30/16 23:55:31  5-MIN K0J4 310455Z AUTO 00000KT 10SM CLR 10/09 A3012 140 93 -300 000/00 RMK AO2 SLP197 T01000089 402060028 $
63870K0J4 0J420160131000010001/31/16 00:00:31  5-MIN K0J4 310500Z AUTO 00000KT 10SM CLR 11/09 A3011 140 93 -300 000/00 RMK AO2 $
63870K0J4 0J420160131000510001/31/16 00:05:31  5-MIN K0J4 310505Z AUTO 00000KT 10SM CLR 11/09 A3011 140 93 -300 000/00 RMK AO2 $
63870K0J4 0J420160131001010001/31/16 00:10:31  5-MIN K0J4 310510Z AUTO 00000KT 10SM CLR 11/09 A3012 140 93 -300 000/00 RMK AO2 $
63870K0J4 0J420160131001510001/31/16 00:15:31  5-MIN K0J4 310515Z AUTO 00000KT 10SM CLR 09/09 A3011 140 96 -400 000/00 RMK AO2 $
63870K0J4 0J420160131002010001/31/16 00:20:31  5-MIN K0J4 310520Z AUTO 00000KT 10SM CLR 09/08 A3011 140 93 -400 000/00 RMK AO2 $
63870K0J4 0J420160131002510001/31/16 00:25:31  5-MIN K0J4 310525Z AUTO 00000KT 10SM CLR 10/09 A3012 140 93 -300 000/00 RMK AO2 $
63870K0J4 0J420160131003010001/31/16 00:30:31  5-MIN K0J4 310530Z AUTO 00000KT 10SM CLR 10/09 A3011 140 93 -300 000/00 RMK AO2 $
63870K0J4 0J420160131003510001/31/16 00:35:31  5-MIN K0J4 310535Z AUTO 00000KT 10SM CLR 11/09 A3011 140 93 -300 000/00 RMK AO2 $
63870K0J4 0J420160131004010001/31/16 00:40:31  5-MIN K0J4 310540Z AUTO 00000KT 10SM CLR 11/09 A3011 140 93 -300 000/00 RMK AO2 $
63870K0J4 0J420160131004507501/31/16 00:45:31  5-MIN K0J4 310545Z AUTO 00000KT 10SM CLR 11/09 A3011 140
63870K0J4 0J420160131034009901/31/16 03:40:31  5-MIN K0J4 310840Z AUTO 16003KT 9SM CLR 11/10 A3006 190 96 -200 160/03 RMK AO2 $
63870K0J4 0J420160131034510001/31/16 03:45:31  5-MIN K0J4 310845Z AUTO 15003KT 10SM CLR 11/10 A3006 190 96 -200 150/03 RMK AO2 $
63870K0J4 0J420160131035010001/31/16 03:50:31  5-MIN K0J4 310850Z AUTO 15003KT 10SM CLR 11/10 A3005 190 96 -200 150/03 RMK AO2 $
63870K0J4 0J420160131035512301/31/16 03:55:31  5-MIN K0J4 310855Z AUTO 00000KT 10SM CLR 11/10 A3006 190 96 -200 000/00 RMK AO2 SLP175 T01060100 58010 $
63870K0J4 0J420160131040010001/31/16 04:00:31  5-MIN K0J4 310900Z AUTO 15003KT 10SM CLR 11/10 A3006 190 93 -100 150/03 RMK AO2 $
63870K0J4 0J420160131040510001/31/16 04:05:31  5-MIN K0J4 310905Z AUTO 00000KT 10SM CLR 11/10 A3005 190 93 -100 000/00 RMK AO2 $
63870K0J4 0J420160131041010001/31/16 04:10:31  5-MIN K0J4 310910Z AUTO 16003KT 10SM CLR 11/10 A3006 190 96 -200 160/03 RMK AO2 $
63870K0J4 0J420160131041510001/31/16 04:15:31  5-MIN K0J4 310915Z AUTO 00000KT 10SM CLR 11/10 A3006 190 96 -200 000/00 RMK AO2 $
63870K0J4 0J420160131042010001/31/16 04:20:31  5-MIN K0J4 310920Z AUTO 15003KT 10SM CLR 11/10 A3006 190 93 -100 150/03 RMK AO2 $
63870K0J4 0J420160131042510001/31/16 04:25:31  5-MIN K0J4 310925Z AUTO 15003KT 10SM CLR 11/10 A3006 190 93 -100 150/03 RMK AO2 $
63870K0J4 0J420160131043010001/31/16 04:30:31  5-MIN K0J4 310930Z AUTO 15003KT 10SM CLR 11/10 A3006 190 93 -100 150/03 RMK AO2 $
63870K0J4 0J420160131043510001/31/16 04:35:31  5-MIN K0J4 310935Z AUTO 15003KT 10SM CLR 11/10 A3006 190 93 -100 150/03 RMK AO2 $
63870K0J4 0J420160131044010001/31/16 04:40:31  5-MIN K0J4 310940Z AUTO 00000KT 10SM CLR 11/10 A3006 190 93 -100 000/00 RMK AO2 $
63870K0J4 0J420160131044510001/31/16 04:45:31  5-MIN K0J4 310945Z AUTO 15003KT 10SM CLR 11/10 A3006 180 93 -100 150/03 RMK AO2 $
63870K0J4 0J420160131045010001/31/16 04:50:31  5-MIN K0J4 310950Z AUTO 15003KT 10SM CLR 11/10 A3006 180 96 -200 150/03 RMK AO2 $
63870K0J4 0J420160131045511701/31/16 04:55:31  5-MIN K0J4 310955Z AUTO 15003KT 10SM CLR 11/10 A3006 180 96 -200 150/03 RMK AO2 SLP178 T01060100 $
63870K0J4 0J420160131050010001/31/16 05:00:31  5-MIN K0J4 311000Z AUTO 00000KT 10SM CLR 11/10 A3007 180 96 -200 000/00 RMK AO2 $
63870K0J4 0J420160131050510001/31/16 05:05:31  5-MIN K0J4 311005Z AUTO 15003KT 10SM CLR 11/10 A3007 180 93 -200 150/03 RMK AO2 $
63870K0J4 0J420160131051010001/31/16 05:10:31  5-MIN K0J4 311010Z AUTO 00000KT 10SM CLR 11/10 A3007 180 96 -200 000/00 RMK AO2 $
63870K0J4 0J420160131051510001/31/16 05:15:31  5-MIN K0J4 311015Z AUTO 15003KT 10SM CLR 11/10 A3007 180 96 -200 150/03 RMK AO2 $
63870K0J4 0J420160131052010001/31/16 05:20:31  5-MIN K0J4 311020Z AUTO 15003KT 10SM CLR 11/10 A3007 180 96 -200 150/03 RMK AO2 $
63870K0J4 0J420160131052510001/31/16 05:25:31  5-MIN K0J4 311025Z AUTO 15003KT 10SM CLR 11/10 A3006 180 96 -200 150/03 RMK AO2 $
63870K0J4 0J420160131053010001/31/16 05:30:31  5-MIN K0J4 311030Z AUTO 00000KT 10SM CLR 11/10 A3007 180 96 -200 000/00 RMK AO2 $
63870K0J4 0J420160131053510001/31/16 05:35:31  5-MIN K0J4 311035Z AUTO 00000KT 10SM CLR 11/10 A3007 180 96 -200 000/00 RMK AO2 $
63870K0J4 0J420160131054010001/31/16 05:40:31  5-MIN K0J4 311040Z AUTO 15003KT 10SM CLR 11/10 A3007 180 93 -200 150/03 RMK AO2 $
63870K0J4 0J420160131054510001/31/16 05:45:31  5-MIN K0J4 311045Z AUTO 15003KT 10SM CLR 11/10 A3007 180 93 -200 150/03 RMK AO2 $
63870K0J4 0J420160131055010001/31/16 05:50:31  5-MIN K0J4 311050Z AUTO 15003KT 10SM CLR 11/10 A3007 180 93 -200 150/03 RMK AO2 $
63870K0J4 0J420160131055511701/31/16 05:55:31  5-MIN K0J4 311055Z AUTO 15003KT 10SM CLR 11/10 A3007 180 93 -200 150/03 RMK AO2 SLP181 T01110100 $
63870K0J4 0J420160131060010301/31/16 06:00:31  5-MIN K0J4 311100Z AUTO 15003KT 10SM FEW034 11/10 A3007 180 93 -200 150/03 RMK AO2 $
63870K0J4 0J420160131060510301/31/16 06:05:31  5-MIN K0J4 311105Z AUTO 00000KT 10SM SCT034 11/10 A3008 170 93 -200 000/00 RMK AO2 $
63870K0J4 0J420160131061010301/31/16 06:10:31  5-MIN K0J4 311110Z AUTO 16003KT 10SM SCT032 11/10 A3008 170 93 -200 160/03 RMK AO2 $
63870K0J4 0J420160131061510301/31/16 06:15:31  5-MIN K0J4 311115Z AUTO 00000KT 10SM SCT032 11/10 A3008 170 93 -200 000/00 RMK AO2 $
63870K0J4 0J420160131062010301/31/16 06:20:31  5-MIN K0J4 311120Z AUTO 00000KT 10SM SCT032 11/10 A3008 170 93 -200 000/00 RMK AO2 $
63870K0J4 0J420160131062510301/31/16 06:25:31  5-MIN K0J4 311125Z AUTO 00000KT 10SM SCT032 11/10 A3008 170 93 -200 000/00 RMK AO2 $
63870K0J4 0J420160131063010301/31/16 06:30:31  5-MIN K0J4 311130Z AUTO 00000KT 10SM FEW032 11/10 A3008 170 93 -200 000/00 RMK AO2 $
63870K0J4 0J420160131063510301/31/16 06:35:31  5-MIN K0J4 311135Z AUTO 00000KT 10SM FEW029 11/10 A3008 170 93 -200 000/00 RMK AO2 $
63870K0J4 0J420160131064010001/31/16 06:40:31  5-MIN K0J4 311140Z AUTO 00000KT 10SM CLR 11/10 A3009 160 93 -200 000/00 RMK AO2 $
63870K0J4 0J420160131064510001/31/16 06:45:31  5-MIN K0J4 311145Z AUTO 00000KT 10SM CLR 11/10 A3008 170 93 -200 000/00 RMK AO2 $
63870K0J4 0J420160131065010001/31/16 06:50:31  5-MIN K0J4 311150Z AUTO 00000KT 10SM CLR 11/10 A3008 160 93 -200 000/00 RMK AO2 $
63870K0J4 0J420160131065514101/31/16 06:55:31  5-MIN K0J4 311155Z AUTO 00000KT 10SM CLR 11/10 A3009 160 93 -200 000/00 RMK AO2 SLP186 7//// T01110100 10111 20106 58016 $
63870K0J4 0J420160131070010001/31/16 07:00:31  5-MIN K0J4 311200Z AUTO 00000KT 10SM CLR 11/10 A3009 160 93 -200 000/00 RMK AO2 $
63870K0J4 0J420160131070510001/31/16 07:05:31  5-MIN K0J4 311205Z AUTO 00000KT 10SM CLR 11/10 A3009 160 93 -200 000/00 RMK AO2 $
63870K0J4 0J420160131071010001/31/16 07:10:31  5-MIN K0J4 311210Z AUTO 00000KT 10SM CLR 11/10 A3009 160 93 -200 000/00 RMK AO2 $
63870K0J4 0J420160131071510001/31/16 07:15:31  5-MIN K0J4 311215Z AUTO 00000KT 10SM CLR 11/10 A3009 160 96 -200 000/00 RMK AO2 $
63870K0J4 0J420160131072010001/31/16 07:20:31  5-MIN K0J4 311220Z AUTO 00000KT 10SM CLR 11/09 A3009 160 93 -200 000/00 RMK AO2 $
63870K0J4 0J420160131072510001/31/16 07:25:31  5-MIN K0J4 311225Z AUTO 00000KT 10SM CLR 11/10 A3009 160 93 -200 000/00 RMK AO2 $
63870K0J4 0J420160131073010001/31/16 07:30:31  5-MIN K0J4 311230Z AUTO 00000KT 10SM CLR 11/10 A3010 150 93 -200 000/00 RMK AO2 $
63870K0J4 0J420160131073510001/31/16 07:35:31  5-MIN K0J4 311235Z AUTO 00000KT 10SM CLR 11/10 A3010 150 93 -200 000/00 RMK AO2 $
63870K0J4 0J420160131074010001/31/16 07:40:31  5-MIN K0J4 311240Z AUTO 00000KT 10SM CLR 11/10 A3010 150 96 -300 000/00 RMK AO2 $
63870K0J4 0J420160131074510001/31/16 07:45:31  5-MIN K0J4 311245Z AUTO 00000KT 10SM CLR 11/10 A3010 150 96 -300 000/00 RMK AO2 $
63870K0J4 0J420160131075010001/31/16 07:50:31  5-MIN K0J4 311250Z AUTO 00000KT 10SM CLR 11/10 A3010 150 93 -200 000/00 RMK AO2 $
63870K0J4 0J420160131075511701/31/16 07:55:31  5-MIN K0J4 311255Z AUTO 00000KT 10SM CLR 11/10 A3010 150 93 -200 000/00 RMK AO2 SLP191 T01110100 $
63870K0J4 0J420160131080009901/31/16 08:00:31  5-MIN K0J4 311300Z AUTO 00000KT 9SM CLR 11/10 A3010 150 96 -300 000/00 RMK AO2 $
63870K0J4 0J420160131080509901/31/16 08:05:31  5-MIN K0J4 311305Z AUTO 00000KT 9SM CLR 11/10 A3010 150 93 -200 000/00 RMK AO2 $
63870K0J4 0J420160131081010001/31/16 08:10:31  5-MIN K0J4 311310Z AUTO 00000KT 10SM CLR 11/10 A3010 150 93 -200 000/00 RMK AO2 $
63870K0J4 0J420160131081510001/31/16 08:15:31  5-MIN K0J4 311315Z AUTO 00000KT 10SM CLR 11/11 A3010 150 96 -200 000/00 RMK AO2 $
63870K0J4 0J420160131082010001/31/16 08:20:31  5-MIN K0J4 311320Z AUTO 00000KT 10SM CLR 11/11 A3010 150 96 -200 000/00 RMK AO2 $
63870K0J4 0J420160131082510001/31/16 08:25:31  5-MIN K0J4 311325Z AUTO 00000KT 10SM CLR 11/11 A3010 150 96 -200 000/00 RMK AO2 $
63870K0J4 0J420160131083010001/31/16 08:30:31  5-MIN K0J4 311330Z AUTO 00000KT 10SM CLR 11/11 A3010 150 96 -200 000/00 RMK AO2 $
63870K0J4 0J420160131083510001/31/16 08:35:31  5-MIN K0J4 311335Z AUTO 00000KT 10SM CLR 11/11 A3010 150 96 -200 000/00 RMK AO2 $
63870K0J4 0J420160131084010001/31/16 08:40:31  5-MIN K0J4 311340Z AUTO 00000KT 10SM CLR 11/11 A3010 150 96 -200 000/00 RMK AO2 $
63870K0J4 0J420160131084510001/31/16 08:45:31  5-MIN K0J4 311345Z AUTO VRB03KT 10SM CLR 12/11 A3010 150 93 -100 VRB/03 RMK AO2 $
63870K0J4 0J420160131085010001/31/16 08:50:31  5-MIN K0J4 311350Z AUTO 00000KT 10SM CLR 12/11 A3010 150 93 -100 000/00 RMK AO2 $
63870K0J4 0J420160131085511701/31/16 08:55:31  5-MIN K0J4 311355Z AUTO 00000KT 10SM CLR 12/11 A3010 150 93 -100 000/00 RMK AO2 SLP192 T01170106 $
63870K0J4 0J420160131090010001/31/16 09:00:31  5-MIN K0J4 311400Z AUTO 13003KT 10SM CLR 12/11 A3011 150 93 -100 130/03 RMK AO2 $
63870K0J4 0J420160131090510001/31/16 09:05:31  5-MIN K0J4 311405Z AUTO 12003KT 10SM CLR 12/11 A3011 140 96 -100 120/03 RMK AO2 $
63870K0J4 0J420160131091010001/31/16 09:10:31  5-MIN K0J4 311410Z AUTO 00000KT 10SM CLR 12/11 A3011 140 93 -100 000/00 RMK AO2 $
63870K0J4 0J420160131091510001/31/16 09:15:31  5-MIN K0J4 311415Z AUTO 12003KT 10SM CLR 12/11 A3010 150 93 -100 120/03 RMK AO2 $
63870K0J4 0J420160131092010001/31/16 09:20:31  5-MIN K0J4 311420Z AUTO 00000KT 10SM CLR 12/11 A3011 140 93 -100 000/00 RMK AO2 $
63870K0J4 0J420160131092510001/31/16 09:25:31  5-MIN K0J4 311425Z AUTO 00000KT 10SM CLR 12/11 A3011 140 93 -100 000/00 RMK AO2 $
63870K0J4 0J420160131093009701/31/16 09:30:31  5-MIN K0J4 311430Z AUTO 13003KT 10SM CLR 13/12 A3011 140 93 0 130/03 RMK AO2 $
63870K0J4 0J420160131093509701/31/16 09:35:31  5-MIN K0J4 311435Z AUTO 00000KT 10SM CLR 13/12 A3011 140 93 0 000/00 RMK AO2 $
63870K0J4 0J420160131094009701/31/16 09:40:31  5-MIN K0J4 311440Z AUTO 15003KT 10SM CLR 13/12 A3011 140 93 0 150/03 RMK AO2 $
63870K0J4 0J420160131094509701/31/16 09:45:31  5-MIN K0J4 311445Z AUTO 15003KT 10SM CLR 13/12 A3011 140 89 0 150/03 RMK AO2 $
63870K0J4 0J420160131095009701/31/16 09:50:31  5-MIN K0J4 311450Z AUTO 15004KT 10SM CLR 13/12 A3011 140 89 0 150/04 RMK AO2 $
63870K0J4 0J420160131095512001/31/16 09:55:31  5-MIN K0J4 311455Z AUTO 15003KT 10SM CLR 13/12 A3011 140 89 0 150/03 RMK AO2 SLP194 T01330117 52011 $
63870K0J4 0J420160131100009701/31/16 10:00:31  5-MIN K0J4 311500Z AUTO 14003KT 10SM CLR 13/12 A3011 140 93 0 140/03 RMK AO2 $
63870K0J4 0J420160131100509901/31/16 10:05:31  5-MIN K0J4 311505Z AUTO 15003KT 10SM CLR 14/12 A3011 140 90 100 150/03 RMK AO2 $
63870K0J4 0J420160131101009901/31/16 10:10:31  5-MIN K0J4 311510Z AUTO 15005KT 10SM CLR 14/13 A3011 140 93 100 150/05 RMK AO2 $
63870K0J4 0J420160131101509901/31/16 10:15:31  5-MIN K0J4 311515Z AUTO 16005KT 10SM CLR 14/13 A3011 140 90 100 160/05 RMK AO2 $
63870K0J4 0J420160131102009901/31/16 10:20:31  5-MIN K0J4 311520Z AUTO 16005KT 10SM CLR 14/13 A3012 130 90 100 160/05 RMK AO2 $
63870K0J4 0J420160131102510201/31/16 10:25:31  5-MIN K0J4 311525Z AUTO 16006KT 10SM FEW026 15/13 A3012 130 86 200 160/06 RMK AO2 $
63870K0J4 0J420160131103010201/31/16 10:30:31  5-MIN K0J4 311530Z AUTO 16005KT 10SM FEW030 15/13 A3012 130 86 200 160/05 RMK AO2 $
63870K0J4 0J420160131103510201/31/16 10:35:31  5-MIN K0J4 311535Z AUTO 16004KT 10SM FEW030 16/13 A3012 130 86 300 160/04 RMK AO2 $
63870K0J4 0J420160131104010201/31/16 10:40:31  5-MIN K0J4 311540Z AUTO 16006KT 10SM FEW024 16/13 A3012 130 83 300 160/06 RMK AO2 $
63870K0J4 0J420160131104510201/31/16 10:45:31  5-MIN K0J4 311545Z AUTO 15005KT 10SM FEW024 16/13 A3012 130 83 300 150/05 RMK AO2 $
63870K0J4 0J420160131105010201/31/16 10:50:31  5-MIN K0J4 311550Z AUTO 16005KT 10SM FEW026 17/13 A3011 140 80 400 160/05 RMK AO2 $
63870K0J4 0J420160131105511901/31/16 10:55:31  5-MIN K0J4 311555Z AUTO 16006KT 10SM FEW026 17/13 A3011 140 78 500 160/06 RMK AO2 SLP195 T01720133 $
63870K0J4 0J420160131110009901/31/16 11:00:31  5-MIN K0J4 311600Z AUTO 17006KT 10SM CLR 17/13 A3011 140 78 500 170/06 RMK AO2 $
63870K0J4 0J420160131110509901/31/16 11:05:31  5-MIN K0J4 311605Z AUTO 16007KT 10SM CLR 18/13 A3011 140 75 500 160/07 RMK AO2 $
63870K0J4 0J420160131111009901/31/16 11:10:31  5-MIN K0J4 311610Z AUTO 15008KT 10SM CLR 18/13 A3011 140 72 600 150/08 RMK AO2 $
63870K0J4 0J420160131111509901/31/16 11:15:31  5-MIN K0J4 311615Z AUTO 15007KT 10SM CLR 18/13 A3011 140 72 600 150/07 RMK AO2 $
63870K0J4 0J420160131112011801/31/16 11:20:31  5-MIN K0J4 311620Z AUTO 14007KT 120V180 10SM FEW025 18/13 A3010 150 72 600 140/07 120V180 RMK AO2 $
63870K0J4 0J420160131112510201/31/16 11:25:31  5-MIN K0J4 311625Z AUTO 17008KT 10SM FEW025 19/14 A3010 150 72 700 170/08 RMK AO2 $
63870K0J4 0J420160131113010201/31/16 11:30:31  5-MIN K0J4 311630Z AUTO 17008KT 10SM FEW025 19/14 A3010 150 72 700 170/08 RMK AO2 $
63870K0J4 0J420160131113510201/31/16 11:35:31  5-MIN K0J4 311635Z AUTO 17009KT 10SM FEW025 19/14 A3010 150 70 800 170/09 RMK AO2 $
63870K0J4 0J420160131114010801/31/16 11:40:31  5-MIN K0J4 311640Z AUTO 17012G15KT 10SM FEW025 19/14 A3010 150 70 800 170/12G15 RMK AO2 $
63870K0J4 0J420160131114510201/31/16 11:45:31  5-MIN K0J4 311645Z AUTO 16010KT 10SM FEW025 19/14 A3009 160 70 800 160/10 RMK AO2 $
63870K0J4 0J420160131115009901/31/16 11:50:31  5-MIN K0J4 311650Z AUTO 17008KT 10SM CLR 19/14 A3009 160 70 800 170/08 RMK AO2 $
63870K0J4 0J420160131115511601/31/16 11:55:31  5-MIN K0J4 311655Z AUTO 18009KT 10SM CLR 19/14 A3009 160 70 800 180/09 RMK AO2 SLP186 T01940139 $
63870K0J4 0J420160131120010201/31/16 12:00:31  5-MIN K0J4 311700Z AUTO 18009KT 10SM FEW025 19/14 A3009 160 70 800 180/09 RMK AO2 $
63870K0J4 0J420160131120510801/31/16 12:05:31  5-MIN K0J4 311705Z AUTO 18011G17KT 10SM SCT025 20/14 A3009 160 70 800 180/11G17 RMK AO2 $
63870K0J4 0J420160131121010801/31/16 12:10:31  5-MIN K0J4 311710Z AUTO 18009G17KT 10SM SCT025 19/14 A3008 170 70 800 180/09G17 RMK AO2 $
63870K0J4 0J420160131122007301/31/16 12:20:31  5-MIN K0J4 311720Z AUTO 17009KT M M M 170/09 RMK AO2 $
63870K0J4 0J420160131122509601/31/16 12:25:31  5-MIN K0J4 311725Z AUTO 18010G16KT 20/14 A3008 170 70 800 180/10G16 RMK AO2 $
63870K0J4 0J420160131123010101/31/16 12:30:31  5-MIN K0J4 311730Z AUTO 19008G15KT 10SM 20/14 A3008 170 70 800 190/08G15 RMK AO2 $
63870K0J4 0J420160131123509501/31/16 12:35:31  5-MIN K0J4 311735Z AUTO 20010KT 10SM 20/14 A3008 170 70 800 200/10 RMK AO2 $
63870K0J4 0J420160131124010101/31/16 12:40:31  5-MIN K0J4 311740Z AUTO 18008G14KT 10SM 20/14 A3008 170 70 800 180/08G14 RMK AO2 $
63870K0J4 0J420160131124510101/31/16 12:45:31  5-MIN K0J4 311745Z AUTO 18010G14KT 10SM 20/14 A3007 180 70 800 180/10G14 RMK AO2 $
63870K0J4 0J420160131125011501/31/16 12:50:31  5-MIN K0J4 311750Z AUTO 17010G17KT 10SM BKN022 BKN027 19/14 A3007 180 72 800 170/10G17 RMK AO2 $
63870K0J4 0J420160131125515101/31/16 12:55:31  5-MIN K0J4 311755Z AUTO 19010G17KT 10SM BKN024 BKN028 OVC034 19/14 A3007 180 72 800 190/10G17 RMK AO2 SLP179 T01940144 10206 20106 $
63870K0J4 0J420160131130010901/31/16 13:00:31  5-MIN K0J4 311800Z AUTO 19008KT 10SM BKN024 OVC034 19/14 A3007 180 72 800 190/08 RMK AO2 $
63870K0J4 0J420160131130510901/31/16 13:05:31  5-MIN K0J4 311805Z AUTO 20010KT 10SM BKN024 OVC028 19/14 A3007 180 72 800 200/10 RMK AO2 $
63870K0J4 0J420160131131010901/31/16 13:10:31  5-MIN K0J4 311810Z AUTO 20009KT 10SM BKN024 OVC033 19/14 A3006 190 72 800 200/09 RMK AO2 $
63870K0J4 0J420160131131511601/31/16 13:15:31  5-MIN K0J4 311815Z AUTO 17008KT 10SM BKN024 BKN029 OVC041 19/14 A3006 190 72 800 170/08 RMK AO2 $
63870K0J4 0J420160131132011601/31/16 13:20:31  5-MIN K0J4 311820Z AUTO 18009KT 10SM BKN022 BKN029 OVC038 19/14 A3005 190 72 800 180/09 RMK AO2 $
63870K0J4 0J420160131132510901/31/16 13:25:31  5-MIN K0J4 311825Z AUTO 18008KT 10SM BKN022 OVC032 19/14 A3005 200 72 800 180/08 RMK AO2 $
63870K0J4 0J420160131133010901/31/16 13:30:31  5-MIN K0J4 311830Z AUTO 19007KT 10SM BKN024 OVC032 20/14 A3004 200 70 900 190/07 RMK AO2 $
63870K0J4 0J420160131133511501/31/16 13:35:31  5-MIN K0J4 311835Z AUTO 19008G14KT 10SM BKN024 OVC030 21/15 A3004 200 70 900 190/08G14 RMK AO2 $
63870K0J4 0J420160131134011501/31/16 13:40:31  5-MIN K0J4 311840Z AUTO 17011G19KT 10SM BKN024 OVC031 20/14 A3004 200 70 900 170/11G19 RMK AO2 $
63870K0J4 0J420160131134512201/31/16 13:45:31  5-MIN K0J4 311845Z AUTO 18008G19KT 10SM BKN024 BKN029 OVC036 20/14 A3004 210 70 900 180/08G19 RMK AO2 $
63870K0J4 0J420160131135010901/31/16 13:50:31  5-MIN K0J4 311850Z AUTO 20012KT 10SM BKN024 OVC032 20/14 A3004 210 70 900 200/12 RMK AO2 $
63870K0J4 0J420160131135512601/31/16 13:55:31  5-MIN K0J4 311855Z AUTO 18010KT 10SM BKN024 OVC032 20/14 A3004 210 70 900 180/10 RMK AO2 SLP168 T02000144 $
63870K0J4 0J420160131140010901/31/16 14:00:31  5-MIN K0J4 311900Z AUTO 18011KT 10SM BKN024 OVC032 20/14 A3003 210 70 900 180/11 RMK AO2 $
63870K0J4 0J420160131140511601/31/16 14:05:31  5-MIN K0J4 311905Z AUTO 18011KT 10SM BKN024 BKN029 OVC041 21/14 A3003 210 67 900 180/11 RMK AO2 $
63870K0J4 0J420160131141011601/31/16 14:10:31  5-MIN K0J4 311910Z AUTO 18011KT 10SM BKN024 BKN033 OVC041 21/14 A3003 210 67 900 180/11 RMK AO2 $
63870K0J4 0J420160131141511001/31/16 14:15:31  5-MIN K0J4 311915Z AUTO 18011KT 10SM BKN024 OVC029 21/14 A3003 210 67 1000 180/11 RMK AO2 $
63870K0J4 0J420160131142012301/31/16 14:20:31  5-MIN K0J4 311920Z AUTO 19009G17KT 10SM BKN024 BKN029 OVC055 21/14 A3003 220 67 1000 190/09G17 RMK AO2 $
63870K0J4 0J420160131142511701/31/16 14:25:31  5-MIN K0J4 311925Z AUTO 19010KT 10SM BKN024 BKN029 OVC055 21/14 A3003 220 67 1000 190/10 RMK AO2 $
63870K0J4 0J420160131143011001/31/16 14:30:31  5-MIN K0J4 311930Z AUTO 19011KT 10SM BKN024 OVC055 21/14 A3003 220 67 1000 190/11 RMK AO2 $
63870K0J4 0J420160131143511001/31/16 14:35:31  5-MIN K0J4 311935Z AUTO 20012KT 10SM BKN024 BKN055 21/14 A3002 220 67 1000 200/12 RMK AO2 $
63870K0J4 0J420160131144011701/31/16 14:40:31  5-MIN K0J4 311940Z AUTO 19009KT 10SM SCT024 BKN031 BKN055 21/14 A3002 220 67 1000 190/09 RMK AO2 $
63870K0J4 0J420160131144511701/31/16 14:45:31  5-MIN K0J4 311945Z AUTO 19012KT 10SM SCT026 BKN034 BKN049 21/14 A3002 220 67 1000 190/12 RMK AO2 $
63870K0J4 0J420160131145011701/31/16 14:50:31  5-MIN K0J4 311950Z AUTO 20012KT 10SM FEW026 SCT030 BKN034 21/14 A3002 220 65 1000 200/12 RMK AO2 $
63870K0J4 0J420160131145513401/31/16 14:55:31  5-MIN K0J4 311955Z AUTO 19011KT 10SM SCT026 BKN034 BKN055 21/14 A3002 220 65 1000 190/11 RMK AO2 SLP164 T02110144 $
63870K0J4 0J420160131150011701/31/16 15:00:31  5-MIN K0J4 312000Z AUTO 19011KT 10SM SCT026 BKN034 BKN055 21/14 A3002 220 67 1000 190/11 RMK AO2 $
63870K0J4 0J420160131150511701/31/16 15:05:31  5-MIN K0J4 312005Z AUTO 19011KT 10SM SCT026 BKN034 BKN060 21/14 A3002 220 67 1000 190/11 RMK AO2 $
63870K0J4 0J420160131151011701/31/16 15:10:31  5-MIN K0J4 312010Z AUTO 20009KT 10SM FEW028 BKN034 BKN060 21/14 A3002 220 67 1000 200/09 RMK AO2 $
63870K0J4 0J420160131151512201/31/16 15:15:31  5-MIN K0J4 312015Z AUTO 19011G16KT 9SM SCT028 BKN034 BKN060 21/14 A3002 230 67 1000 190/11G16 RMK AO2 $
63870K0J4 0J420160131152012501/31/16 15:20:31  5-MIN K0J4 312020Z AUTO 19012G18KT 6SM HZ SCT026 BKN032 BKN060 21/14 A3002 230 67 1000 190/12G18 RMK AO2 $
63870K0J4 0J420160131152512401/31/16 15:25:31  5-MIN K0J4 312025Z AUTO 19009G18KT 4SM HZ BKN026 BKN032 OVC060 20/14 A3002 230 70 900 190/09G18 RMK AO2 $
63870K0J4 0J420160131153012501/31/16 15:30:31  5-MIN K0J4 312030Z AUTO 19011G18KT 4SM HZ BKN026 BKN032 OVC060 21/14 A3002 230 67 1000 190/11G18 RMK AO2 $
63870K0J4 0J420160131153512401/31/16 15:35:31  5-MIN K0J4 312035Z AUTO 18010G16KT 3SM HZ BKN026 BKN032 OVC060 20/14 A3002 230 70 900 180/10G16 RMK AO2 $
63870K0J4 0J420160131154011101/31/16 15:40:31  5-MIN K0J4 312040Z AUTO 18008KT 3SM HZ BKN026 OVC032 20/14 A3002 230 70 900 180/08 RMK AO2 $
63870K0J4 0J420160131154511001/31/16 15:45:31  5-MIN K0J4 312045Z AUTO 19009G19KT 3SM HZ OVC026 20/14 A3002 230 70 900 190/09G19 RMK AO2 $
63870K0J4 0J420160131155011701/31/16 15:50:31  5-MIN K0J4 312050Z AUTO 19011G19KT 3SM HZ BKN026 OVC033 20/14 A3002 230 70 900 190/11G19 RMK AO2 $
63870K0J4 0J420160131155513401/31/16 15:55:31  5-MIN K0J4 312055Z AUTO 19009G18KT 3SM HZ BKN026 OVC031 20/14 A3002 230 70 900 190/09G18 RMK AO2 SLP162 T02000144 $
63870K0J4 0J420160131160011801/31/16 16:00:31  5-MIN K0J4 312100Z AUTO 18011KT 3SM HZ BKN026 BKN031 OVC060 20/14 A3002 230 70 900 180/11 RMK AO2 $
63870K0J4 0J420160131160511801/31/16 16:05:31  5-MIN K0J4 312105Z AUTO 18010KT 3SM HZ SCT026 BKN034 OVC060 20/14 A3002 230 70 900 180/10 RMK AO2 $
63870K0J4 0J420160131161012401/31/16 16:10:31  5-MIN K0J4 312110Z AUTO 19013G19KT 3SM HZ SCT026 BKN040 OVC060 20/14 A3001 230 70 900 190/13G19 RMK AO2 $
63870K0J4 0J420160131161512401/31/16 16:15:31  5-MIN K0J4 312115Z AUTO 18010G19KT 3SM HZ FEW024 BKN030 OVC060 19/14 A3001 230 72 800 180/10G19 RMK AO2 $
63870K0J4 0J420160131162011801/31/16 16:20:31  5-MIN K0J4 312120Z AUTO 18010KT 4SM HZ SCT028 BKN039 OVC060 19/14 A3002 230 72 800 180/10 RMK AO2 $
63870K0J4 0J420160131162511801/31/16 16:25:31  5-MIN K0J4 312125Z AUTO 19011KT 5SM HZ SCT028 BKN036 OVC060 19/14 A3002 230 72 800 190/11 RMK AO2 $
63870K0J4 0J420160131163012101/31/16 16:30:31  5-MIN K0J4 312130Z AUTO 17009G15KT 7SM BKN028 BKN033 OVC060 19/14 A3002 230 72 800 170/09G15 RMK AO2 $
63870K0J4 0J420160131163511501/31/16 16:35:31  5-MIN K0J4 312135Z AUTO 18007KT 9SM BKN028 BKN033 OVC065 19/14 A3002 230 72 800 180/07 RMK AO2 $
63870K0J4 0J420160131164011601/31/16 16:40:31  5-MIN K0J4 312140Z AUTO 18008KT 10SM BKN026 BKN033 OVC060 19/14 A3002 220 72 800 180/08 RMK AO2 $
63870K0J4 0J420160131164511601/31/16 16:45:31  5-MIN K0J4 312145Z AUTO 18008KT 10SM BKN026 BKN033 OVC060 19/14 A3002 220 72 800 180/08 RMK AO2 $
63870K0J4 0J420160131165011601/31/16 16:50:31  5-MIN K0J4 312150Z AUTO 18006KT 10SM BKN026 BKN033 OVC043 19/14 A3002 220 72 800 180/06 RMK AO2 $
63870K0J4 0J420160131165513101/31/16 16:55:31  5-MIN K0J4 312155Z AUTO 18009KT 10SM BKN026 BKN033 OVC043 19/14 A3002 220 72 800 180/09 RMK AO2 SLP164 T01940144
63870K0J4 0J420160131170012001/31/16 17:00:31  5-MIN K0J4 312200Z AUTO 19010G17KT 10SM SCT026 BKN032 OVC065 19/14 A3002 220 72 800 190/10G17 RMK AO2
63870K0J4 0J420160131170512001/31/16 17:05:31  5-MIN K0J4 312205Z AUTO 19009G17KT 10SM SCT024 BKN030 OVC065 19/14 A3002 220 72 800 190/09G17 RMK AO2
63870K0J4 0J420160131171011401/31/16 17:10:31  5-MIN K0J4 312210Z AUTO 19008KT 10SM BKN025 BKN035 OVC060 19/14 A3002 220 72 800 190/08 RMK AO2
63870K0J4 0J420160131171511401/31/16 17:15:31  5-MIN K0J4 312215Z AUTO 18005KT 10SM SCT025 BKN035 OVC065 19/14 A3002 220 75 800 180/05 RMK AO2
63870K0J4 0J420160131172013001/31/16 17:20:31  5-MIN K0J4 312220Z AUTO 19006KT 10SM -RA SCT021 BKN027 OVC065 19/15 A3002 220 78 800 190/06 RMK AO2 RAB19 P0000
63870K0J4 0J420160131172513001/31/16 17:25:31  5-MIN K0J4 312225Z AUTO 18007KT 10SM -RA BKN021 BKN027 OVC065 19/15 A3002 230 78 800 180/07 RMK AO2 RAB19 P0000
63870K0J4 0J420160131173012901/31/16 17:30:31  5-MIN K0J4 312230Z AUTO 18005KT 10SM BKN021 BKN027 OVC041 19/15 A3002 220 78 800 180/05 RMK AO2 RAB19E29 P0000
63870K0J4 0J420160131173514501/31/16 17:35:31  5-MIN K0J4 312235Z AUTO 18007KT 140V200 10SM BKN021 BKN027 OVC041 19/15 A3002 220 78 800 180/07 140V200 RMK AO2 RAB19E29 P0000
63870K0J4 0J420160131174012901/31/16 17:40:31  5-MIN K0J4 312240Z AUTO 18008KT 10SM BKN021 BKN026 OVC036 19/15 A3002 220 78 800 180/08 RMK AO2 RAB19E29 P0000
63870K0J4 0J420160131174512801/31/16 17:45:31  5-MIN K0J4 312245Z AUTO 18009G16KT 10SM BKN021 OVC040 19/15 A3002 220 78 800 180/09G16 RMK AO2 RAB19E29 P0000
63870K0J4 0J420160131175012801/31/16 17:50:31  5-MIN K0J4 312250Z AUTO 19010G16KT 10SM BKN021 OVC027 19/15 A3002 220 78 800 190/10G16 RMK AO2 RAB19E29 P0000
63870K0J4 0J420160131175514601/31/16 17:55:31  5-MIN K0J4 312255Z AUTO 19007KT 10SM BKN021 BKN027 OVC070 19/15 A3002 220 78 800 190/07 RMK AO2 RAB19E29 SLP163 P0000 T01890150
63870K0J4 0J420160131180011401/31/16 18:00:31  5-MIN K0J4 312300Z AUTO 19009KT 10SM BKN021 BKN026 OVC065 19/15 A3002 220 78 800 190/09 RMK AO2
63870K0J4 0J420160131180511401/31/16 18:05:31  5-MIN K0J4 312305Z AUTO 19006KT 10SM BKN021 BKN026 BKN065 18/15 A3002 220 81 700 190/06 RMK AO2
63870K0J4 0J420160131181011401/31/16 18:10:31  5-MIN K0J4 312310Z AUTO 19007KT 10SM BKN019 BKN025 BKN065 18/15 A3002 220 81 700 190/07 RMK AO2
63870K0J4 0J420160131181511401/31/16 18:15:31  5-MIN K0J4 312315Z AUTO 18009KT 10SM BKN019 BKN027 OVC065 18/15 A3002 220 81 700 180/09 RMK AO2
63870K0J4 0J420160131182011401/31/16 18:20:31  5-MIN K0J4 312320Z AUTO 18011KT 10SM SCT019 BKN027 OVC065 18/15 A3002 230 81 700 180/11 RMK AO2
63870K0J4 0J420160131182511401/31/16 18:25:31  5-MIN K0J4 312325Z AUTO 18007KT 10SM SCT019 BKN025 OVC065 18/15 A3002 230 81 700 180/07 RMK AO2
63870K0J4 0J420160131183011401/31/16 18:30:31  5-MIN K0J4 312330Z AUTO 18006KT 10SM BKN017 BKN023 OVC065 18/15 A3002 230 81 700 180/06 RMK AO2
63870K0J4 0J420160131183510701/31/16 18:35:31  5-MIN K0J4 312335Z AUTO 16006KT 10SM BKN017 BKN065 18/15 A3002 230 83 600 160/06 RMK AO2
63870K0J4 0J420160131184010701/31/16 18:40:31  5-MIN K0J4 312340Z AUTO 17009KT 10SM BKN017 BKN065 18/15 A3002 230 81 700 170/09 RMK AO2
63870K0J4 0J420160131184511401/31/16 18:45:31  5-MIN K0J4 312345Z AUTO 18008KT 10SM SCT017 SCT025 BKN065 18/15 A3002 230 83 600 180/08 RMK AO2
63870K0J4 0J420160131185010701/31/16 18:50:31  5-MIN K0J4 312350Z AUTO 17005KT 10SM BKN019 BKN065 18/14 A3002 220 81 600 170/05 RMK AO2
63870K0J4 0J420160131185514101/31/16 18:55:31  5-MIN K0J4 312355Z AUTO 17007KT 10SM BKN020 18/14 A3002 220 81 600 170/07 RMK AO2 SLP165 60000 T01780144 10211 20178 56017
63870K0J4 0J420160131191009001/31/16 19:10:31  5-MIN K0J4 010010Z AUTO 17004KT 18/14 A3002 220 81 600 170/04 RMK AO2 $
63870K0J4 0J420160131191509501/31/16 19:15:31  5-MIN K0J4 010015Z AUTO 16005KT 10SM 18/14 A3003 220 81 600 160/05 RMK AO2 $
63870K0J4 0J420160131192507301/31/16 19:25:31  5-MIN K0J4 010025Z AUTO 17005KT M M M 170/05 RMK AO2 $
63870K0J4 0J420160131193009001/31/16 19:30:31  5-MIN K0J4 010030Z AUTO 17005KT 18/14 A3003 220 81 600 170/05 RMK AO2 $
63870K0J4 0J420160131193509501/31/16 19:35:31  5-MIN K0J4 010035Z AUTO 16005KT 10SM 17/14 A3003 220 83 600 160/05 RMK AO2 $
63870K0J4 0J420160131194009501/31/16 19:40:31  5-MIN K0J4 010040Z AUTO 16004KT 10SM 17/14 A3003 220 83 600 160/04 RMK AO2 $
63870K0J4 0J420160131194509501/31/16 19:45:31  5-MIN K0J4 010045Z AUTO 16004KT 10SM 17/14 A3003 220 83 600 160/04 RMK AO2 $
63870K0J4 0J420160131195009501/31/16 19:50:31  5-MIN K0J4 010050Z AUTO 16005KT 10SM 17/14 A3003 220 83 600 160/05 RMK AO2 $
63870K0J4 0J420160131195510201/31/16 19:55:31  5-MIN K0J4 010055Z AUTO 16006KT 10SM OVC018 17/14 A3003 220 83 600 160/06 RMK AO2 $
63870K0J4 0J420160131200010201/31/16 20:00:31  5-MIN K0J4 010100Z AUTO 16005KT 10SM OVC018 17/14 A3003 220 83 600 160/05 RMK AO2 $
63870K0J4 0J420160131200510901/31/16 20:05:31  5-MIN K0J4 010105Z AUTO 16005KT 10SM BKN018 OVC024 17/14 A3003 220 83 600 160/05 RMK AO2 $
63870K0J4 0J420160131201010901/31/16 20:10:31  5-MIN K0J4 010110Z AUTO 16004KT 10SM BKN018 OVC026 17/14 A3003 220 80 600 160/04 RMK AO2 $
63870K0J4 0J420160131201510901/31/16 20:15:31  5-MIN K0J4 010115Z AUTO 16004KT 10SM BKN020 OVC025 17/14 A3003 220 80 600 160/04 RMK AO2 $
63870K0J4 0J420160131202010901/31/16 20:20:31  5-MIN K0J4 010120Z AUTO 16004KT 10SM BKN020 OVC025 17/14 A3003 220 80 600 160/04 RMK AO2 $
63870K0J4 0J420160131202510901/31/16 20:25:31  5-MIN K0J4 010125Z AUTO 16004KT 10SM BKN020 OVC026 17/14 A3003 220 80 600 160/04 RMK AO2 $
63870K0J4 0J420160131203010901/31/16 20:30:31  5-MIN K0J4 010130Z AUTO 16004KT 10SM BKN020 OVC024 17/14 A3003 220 80 600 160/04 RMK AO2 $
63870K0J4 0J420160131203510901/31/16 20:35:31  5-MIN K0J4 010135Z AUTO 15004KT 10SM BKN020 OVC026 17/14 A3002 220 80 600 150/04 RMK AO2 $
63870K0J4 0J420160131204010901/31/16 20:40:31  5-MIN K0J4 010140Z AUTO 15005KT 10SM BKN022 OVC029 17/14 A3003 220 83 500 150/05 RMK AO2 $
63870K0J4 0J420160131204510901/31/16 20:45:31  5-MIN K0J4 010145Z AUTO 15005KT 10SM BKN020 OVC025 17/14 A3003 220 83 500 150/05 RMK AO2 $
63870K0J4 0J420160131205010901/31/16 20:50:31  5-MIN K0J4 010150Z AUTO 15004KT 10SM BKN022 OVC029 17/14 A3003 220 83 500 150/04 RMK AO2 $
63870K0J4 0J420160131205513301/31/16 20:55:31  5-MIN K0J4 010155Z AUTO 15005KT 10SM SCT020 BKN026 OVC034 17/14 A3003 220 83 500 150/05 RMK AO2 SLP166 T01670139 $
63870K0J4 0J420160131210010901/31/16 21:00:31  5-MIN K0J4 010200Z AUTO 15005KT 10SM SCT022 OVC032 17/14 A3002 220 83 500 150/05 RMK AO2 $
63870K0J4 0J420160131210510901/31/16 21:05:31  5-MIN K0J4 010205Z AUTO 15006KT 10SM FEW022 BKN032 17/14 A3002 220 83 500 150/06 RMK AO2 $
63870K0J4 0J420160131211011601/31/16 21:10:31  5-MIN K0J4 010210Z AUTO 16005KT 10SM FEW022 BKN030 BKN044 16/14 A3002 220 86 400 160/05 RMK AO2 $
63870K0J4 0J420160131211511601/31/16 21:15:31  5-MIN K0J4 010215Z AUTO 16006KT 10SM FEW020 SCT032 BKN044 17/13 A3002 220 80 500 160/06 RMK AO2 $
63870K0J4 0J420160131212011601/31/16 21:20:31  5-MIN K0J4 010220Z AUTO 16006KT 10SM FEW020 SCT032 BKN044 16/13 A3002 220 83 400 160/06 RMK AO2 $
63870K0J4 0J420160131212511601/31/16 21:25:31  5-MIN K0J4 010225Z AUTO 16006KT 10SM FEW018 SCT032 BKN044 16/13 A3002 220 83 400 160/06 RMK AO2 $
63870K0J4 0J420160131213011601/31/16 21:30:31  5-MIN K0J4 010230Z AUTO 17006KT 10SM SCT018 SCT032 BKN044 16/13 A3002 220 83 400 170/06 RMK AO2 $
63870K0J4 0J420160131213510901/31/16 21:35:31  5-MIN K0J4 010235Z AUTO 16007KT 10SM SCT020 BKN044 16/13 A3002 220 83 400 160/07 RMK AO2 $
63870K0J4 0J420160131214011601/31/16 21:40:31  5-MIN K0J4 010240Z AUTO 16006KT 10SM SCT020 BKN026 BKN044 16/13 A3002 220 83 400 160/06 RMK AO2 $
63870K0J4 0J420160131214511601/31/16 21:45:31  5-MIN K0J4 010245Z AUTO 17004KT 10SM BKN020 BKN026 BKN042 16/13 A3003 220 83 400 170/04 RMK AO2 $
63870K0J4 0J420160131215011601/31/16 21:50:31  5-MIN K0J4 010250Z AUTO 17006KT 10SM BKN020 BKN024 OVC042 16/13 A3003 220 83 400 170/06 RMK AO2 $
63870K0J4 0J420160131215512601/31/16 21:55:31  5-MIN K0J4 010255Z AUTO 17005KT 10SM BKN020 OVC024 16/13 A3003 220 83 400 170/05 RMK AO2 SLP167 T01610133 $
63870K0J4 0J420160131220010901/31/16 22:00:31  5-MIN K0J4 010300Z AUTO 18005KT 10SM BKN020 OVC025 17/13 A3003 210 80 500 180/05 RMK AO2 $
63870K0J4 0J420160131220510901/31/16 22:05:31  5-MIN K0J4 010305Z AUTO 17004KT 10SM BKN018 OVC025 17/13 A3003 210 80 500 170/04 RMK AO2 $
63870K0J4 0J420160131221010901/31/16 22:10:31  5-MIN K0J4 010310Z AUTO 17006KT 10SM BKN018 OVC035 16/13 A3003 220 83 400 170/06 RMK AO2 $
63870K0J4 0J420160131221510901/31/16 22:15:31  5-MIN K0J4 010315Z AUTO 16006KT 10SM BKN018 OVC035 16/13 A3003 220 83 400 160/06 RMK AO2 $
63870K0J4 0J420160131222011601/31/16 22:20:31  5-MIN K0J4 010320Z AUTO 16006KT 10SM FEW016 SCT021 OVC035 16/13 A3003 220 83 400 160/06 RMK AO2 $
63870K0J4 0J420160131222511601/31/16 22:25:31  5-MIN K0J4 010325Z AUTO 16005KT 10SM FEW017 BKN035 OVC055 16/13 A3003 220 83 400 160/05 RMK AO2 $
63870K0J4 0J420160131223011601/31/16 22:30:31  5-MIN K0J4 010330Z AUTO 16005KT 10SM FEW017 BKN035 OVC055 16/13 A3003 220 83 400 160/05 RMK AO2 $
63870K0J4 0J420160131223510901/31/16 22:35:31  5-MIN K0J4 010335Z AUTO 16006KT 10SM BKN037 OVC055 16/13 A3003 220 83 400 160/06 RMK AO2 $
63870K0J4 0J420160131224010901/31/16 22:40:31  5-MIN K0J4 010340Z AUTO 16004KT 10SM SCT037 BKN055 16/13 A3003 220 83 400 160/04 RMK AO2 $
63870K0J4 0J420160131224510901/31/16 22:45:31  5-MIN K0J4 010345Z AUTO 16003KT 10SM FEW037 OVC055 16/13 A3003 210 83 400 160/03 RMK AO2 $
63870K0J4 0J420160131225010901/31/16 22:50:31  5-MIN K0J4 010350Z AUTO 16004KT 10SM FEW037 OVC055 16/13 A3003 210 83 400 160/04 RMK AO2 $
63870K0J4 0J420160131225511901/31/16 22:55:31  5-MIN K0J4 010355Z AUTO 16004KT 10SM BKN055 16/13 A3004 210 83 400 160/04 RMK AO2 SLP168 T01610133 $
63870K0J4 0J420160131230010201/31/16 23:00:31  5-MIN K0J4 010400Z AUTO 17004KT 10SM OVC055 16/13 A3004 210 86 400 170/04 RMK AO2 $
63870K0J4 0J420160131230510201/31/16 23:05:31  5-MIN K0J4 010405Z AUTO 16005KT 10SM OVC055 16/13 A3004 210 83 400 160/05 RMK AO2 $
63870K0J4 0J420160131231010201/31/16 23:10:31  5-MIN K0J4 010410Z AUTO 17004KT 10SM OVC055 16/13 A3004 210 83 400 170/04 RMK AO2 $
63870K0J4 0J420160131231510901/31/16 23:15:31  5-MIN K0J4 010415Z AUTO 16005KT 10SM FEW040 OVC055 16/13 A3004 210 86 400 160/05 RMK AO2 $
63870K0J4 0J420160131232010901/31/16 23:20:31  5-MIN K0J4 010420Z AUTO 16004KT 10SM SCT040 OVC055 16/13 A3004 210 86 400 160/04 RMK AO2 $
63870K0J4 0J420160131232510901/31/16 23:25:31  5-MIN K0J4 010425Z AUTO 16004KT 10SM FEW040 BKN055 16/13 A3004 210 86 400 160/04 RMK AO2 $
63870K0J4 0J420160131233010901/31/16 23:30:31  5-MIN K0J4 010430Z AUTO 16005KT 10SM FEW040 BKN055 15/13 A3003 210 90 300 160/05 RMK AO2 $
63870K0J4 0J420160131233510901/31/16 23:35:31  5-MIN K0J4 010435Z AUTO 16005KT 10SM FEW040 SCT055 15/13 A3003 210 90 300 160/05 RMK AO2 $
63870K0J4 0J420160131234010201/31/16 23:40:31  5-MIN K0J4 010440Z AUTO 16004KT 10SM FEW040 15/13 A3003 210 90 300 160/04 RMK AO2 $
63870K0J4 0J420160131234510201/31/16 23:45:31  5-MIN K0J4 010445Z AUTO 16004KT 10SM FEW040 15/13 A3003 210 90 300 160/04 RMK AO2 $
63870K0J4 0J420160131235009901/31/16 23:50:31  5-MIN K0J4 010450Z AUTO 16004KT 10SM CLR 15/13 A3003 210 90 300 160/04 RMK AO2 $
63870K0J4 0J420160131235512601/31/16 23:55:31  5-MIN K0J4 010455Z AUTO 16003KT 10SM CLR 14/13 A3003 210 93 200 160/03 RMK AO2 SLP168 T01440133 402110094 $
