14756KACK ACK20160301000011303/01/16 00:00:31  5-MIN KACK 010500Z AUTO 24015KT 10SM CLR 07/04 A2984 130 79 -700 260/15 RMK AO2 T00720039 TSNO
14756KACK ACK20160301000511303/01/16 00:05:31  5-MIN KACK 010505Z AUTO 24013KT 10SM CLR 07/04 A2984 130 82 -800 260/13 RMK AO2 T00670039 TSNO
14756KACK ACK20160301001011203/01/16 00:10:31  5-MIN KACK 010510Z AUTO 24013KT 9SM CLR 07/04 A2984 120 82 -800 260/13 RMK AO2 T00670039 TSNO
14756KACK ACK20160301001511203/01/16 00:15:31  5-MIN KACK 010515Z AUTO 24012KT 9SM CLR 07/04 A2984 120 82 -800 260/12 RMK AO2 T00670039 TSNO
14756KACK ACK20160301002011203/01/16 00:20:31  5-MIN KACK 010520Z AUTO 25014KT 9SM CLR 07/04 A2985 120 82 -800 260/14 RMK AO2 T00670039 TSNO
14756KACK ACK20160301002511303/01/16 00:25:31  5-MIN KACK 010525Z AUTO 25013KT 10SM CLR 07/03 A2985 110 79 -800 270/13 RMK AO2 T00670033 TSNO
14756KACK ACK20160301003011303/01/16 00:30:31  5-MIN KACK 010530Z AUTO 25015KT 10SM CLR 07/03 A2985 110 76 -700 260/15 RMK AO2 T00720033 TSNO
14756KACK ACK20160301003511303/01/16 00:35:31  5-MIN KACK 010535Z AUTO 25014KT 10SM CLR 07/03 A2985 110 79 -800 260/14 RMK AO2 T00670033 TSNO
14756KACK ACK20160301004011303/01/16 00:40:31  5-MIN KACK 010540Z AUTO 26014KT 10SM CLR 07/03 A2986 110 79 -800 270/14 RMK AO2 T00670033 TSNO
14756KACK ACK20160301004511303/01/16 00:45:31  5-MIN KACK 010545Z AUTO 25014KT 10SM CLR 07/03 A2986 100 76 -700 270/14 RMK AO2 T00720033 TSNO
14756KACK ACK20160301005014403/01/16 00:50:31  5-MIN KACK 010550Z AUTO 25017KT 10SM CLR 07/03 A2986 100 73 -700 270/17 RMK AO2 SLP112 60000 T00720028 10078 20039 51028 TSNO
14756KACK ACK20160301005511903/01/16 00:55:31  5-MIN KACK 010555Z AUTO 26016G23KT 10SM CLR 07/03 A2986 100 73 -700 270/16G23 RMK AO2 T00720028 TSNO
14756KACK ACK20160301010011903/01/16 01:00:31  5-MIN KACK 010600Z AUTO 26014G23KT 10SM CLR 07/02 A2986 100 70 -700 270/14G23 RMK AO2 T00720022 TSNO
14756KACK ACK20160301010511303/01/16 01:05:31  5-MIN KACK 010605Z AUTO 26014KT 10SM CLR 07/02 A2986 100 70 -700 280/14 RMK AO2 T00720022 TSNO
14756KACK ACK20160301011011903/01/16 01:10:31  5-MIN KACK 010610Z AUTO 26014G21KT 10SM CLR 07/02 A2986 100 70 -700 270/14G21 RMK AO2 T00720022 TSNO
14756KACK ACK20160301011511303/01/16 01:15:31  5-MIN KACK 010615Z AUTO 26014KT 10SM CLR 07/02 A2987 100 70 -800 280/14 RMK AO2 T00670017 TSNO
14756KACK ACK20160301012011303/01/16 01:20:31  5-MIN KACK 010620Z AUTO 26014KT 10SM CLR 07/02 A2987 100 70 -800 270/14 RMK AO2 T00670017 TSNO
14756KACK ACK20160301012511303/01/16 01:25:31  5-MIN KACK 010625Z AUTO 26015KT 10SM CLR 07/02 A2987 100 73 -800 280/15 RMK AO2 T00670022 TSNO
14756KACK ACK20160301013011203/01/16 01:30:31  5-MIN KACK 010630Z AUTO 26014KT 10SM CLR 07/02 A2987 90 73 -800 280/14 RMK AO2 T00670022 TSNO
14756KACK ACK20160301013511803/01/16 01:35:31  5-MIN KACK 010635Z AUTO 26014G22KT 10SM CLR 07/02 A2987 90 73 -800 270/14G22 RMK AO2 T00670022 TSNO
14756KACK ACK20160301014011903/01/16 01:40:31  5-MIN KACK 010640Z AUTO 26015G22KT 10SM CLR 07/02 A2987 100 70 -800 270/15G22 RMK AO2 T00670017 TSNO
14756KACK ACK20160301014511803/01/16 01:45:31  5-MIN KACK 010645Z AUTO 26016G22KT 10SM CLR 07/02 A2987 90 70 -800 280/16G22 RMK AO2 T00670017 TSNO
14756KACK ACK20160301015012503/01/16 01:50:31  5-MIN KACK 010650Z AUTO 26017G23KT 10SM CLR 07/02 A2987 90 70 -800 280/17G23 RMK AO2 SLP115 T00670017 TSNO
14756KACK ACK20160301015511803/01/16 01:55:31  5-MIN KACK 010655Z AUTO 26016G23KT 10SM CLR 07/02 A2987 90 70 -800 280/16G23 RMK AO2 T00670017 TSNO
14756KACK ACK20160301020011803/01/16 02:00:31  5-MIN KACK 010700Z AUTO 26014G23KT 10SM CLR 07/02 A2988 90 70 -800 280/14G23 RMK AO2 T00670017 TSNO
14756KACK ACK20160301020511203/01/16 02:05:31  5-MIN KACK 010705Z AUTO 26017KT 10SM CLR 07/02 A2988 90 70 -800 280/17 RMK AO2 T00670017 TSNO
14756KACK ACK20160301021011803/01/16 02:10:31  5-MIN KACK 010710Z AUTO 26015G22KT 10SM CLR 07/02 A2988 80 70 -800 280/15G22 RMK AO2 T00670017 TSNO
14756KACK ACK20160301021511203/01/16 02:15:31  5-MIN KACK 010715Z AUTO 27017KT 10SM CLR 07/02 A2988 80 70 -800 280/17 RMK AO2 T00670017 TSNO
14756KACK ACK20160301022011203/01/16 02:20:31  5-MIN KACK 010720Z AUTO 27015KT 10SM CLR 07/02 A2989 80 70 -800 280/15 RMK AO2 T00670017 TSNO
14756KACK ACK20160301022511803/01/16 02:25:31  5-MIN KACK 010725Z AUTO 27017G22KT 10SM CLR 07/02 A2989 80 70 -800 280/17G22 RMK AO2 T00670017 TSNO
14756KACK ACK20160301023011803/01/16 02:30:31  5-MIN KACK 010730Z AUTO 27017G22KT 10SM CLR 07/02 A2989 80 70 -800 280/17G22 RMK AO2 T00670017 TSNO
14756KACK ACK20160301023511203/01/16 02:35:31  5-MIN KACK 010735Z AUTO 27015KT 10SM CLR 07/02 A2989 80 70 -800 290/15 RMK AO2 T00670017 TSNO
14756KACK ACK20160301024011203/01/16 02:40:31  5-MIN KACK 010740Z AUTO 27015KT 10SM CLR 07/02 A2989 80 70 -800 280/15 RMK AO2 T00670017 TSNO
14756KACK ACK20160301024511803/01/16 02:45:31  5-MIN KACK 010745Z AUTO 27013G23KT 10SM CLR 07/02 A2989 70 70 -800 290/13G23 RMK AO2 T00670017 TSNO
14756KACK ACK20160301025012503/01/16 02:50:31  5-MIN KACK 010750Z AUTO 27014G23KT 10SM CLR 07/02 A2990 70 70 -800 290/14G23 RMK AO2 SLP124 T00670017 TSNO
14756KACK ACK20160301025511803/01/16 02:55:31  5-MIN KACK 010755Z AUTO 27015G22KT 10SM CLR 07/02 A2990 70 70 -800 290/15G22 RMK AO2 T00670017 TSNO
14756KACK ACK20160301030011803/01/16 03:00:31  5-MIN KACK 010800Z AUTO 27016G23KT 10SM CLR 07/01 A2990 70 67 -800 280/16G23 RMK AO2 T00670011 TSNO
14756KACK ACK20160301030511803/01/16 03:05:31  5-MIN KACK 010805Z AUTO 27019G23KT 10SM CLR 07/01 A2990 70 65 -800 290/19G23 RMK AO2 T00720011 TSNO
14756KACK ACK20160301031011803/01/16 03:10:31  5-MIN KACK 010810Z AUTO 27015G23KT 10SM CLR 07/01 A2990 60 65 -800 290/15G23 RMK AO2 T00720011 TSNO
14756KACK ACK20160301031511803/01/16 03:15:31  5-MIN KACK 010815Z AUTO 27017G23KT 10SM CLR 07/01 A2991 60 67 -800 280/17G23 RMK AO2 T00670011 TSNO
14756KACK ACK20160301032011803/01/16 03:20:31  5-MIN KACK 010820Z AUTO 27018G25KT 10SM CLR 07/01 A2991 60 65 -800 290/18G25 RMK AO2 T00720011 TSNO
14756KACK ACK20160301032513603/01/16 03:25:31  5-MIN KACK 010825Z AUTO 27017G27KT 10SM CLR 07/01 A2991 60 65 -800 280/17G27 RMK AO2 PK WND 27027/0821 T00720011 TSNO
14756KACK ACK20160301033013603/01/16 03:30:31  5-MIN KACK 010830Z AUTO 27015G27KT 10SM CLR 07/01 A2992 50 67 -800 280/15G27 RMK AO2 PK WND 27027/0821 T00670011 TSNO
14756KACK ACK20160301033513603/01/16 03:35:31  5-MIN KACK 010835Z AUTO 27016G23KT 10SM CLR 07/01 A2992 50 65 -800 280/16G23 RMK AO2 PK WND 27027/0821 T00720011 TSNO
14756KACK ACK20160301034013603/01/16 03:40:31  5-MIN KACK 010840Z AUTO 27016G23KT 10SM CLR 07/01 A2993 40 67 -900 280/16G23 RMK AO2 PK WND 27027/0821 T00670011 TSNO
14756KACK ACK20160301034513603/01/16 03:45:31  5-MIN KACK 010845Z AUTO 27012G21KT 10SM CLR 07/01 A2993 40 67 -900 280/12G21 RMK AO2 PK WND 27027/0821 T00670011 TSNO
14756KACK ACK20160301035014903/01/16 03:50:31  5-MIN KACK 010850Z AUTO 27013G20KT 10SM CLR 07/01 A2993 40 67 -900 280/13G20 RMK AO2 PK WND 27027/0821 SLP135 T00670011 53019 TSNO
14756KACK ACK20160301035511203/01/16 03:55:31  5-MIN KACK 010855Z AUTO 26015KT 10SM CLR 07/01 A2993 40 67 -900 270/15 RMK AO2 T00670011 TSNO
14756KACK ACK20160301040011203/01/16 04:00:31  5-MIN KACK 010900Z AUTO 26014KT 10SM CLR 07/02 A2994 40 70 -900 280/14 RMK AO2 T00670017 TSNO
14756KACK ACK20160301040511203/01/16 04:05:31  5-MIN KACK 010905Z AUTO 26012KT 10SM CLR 07/02 A2994 30 70 -900 280/12 RMK AO2 T00670017 TSNO
14756KACK ACK20160301041011203/01/16 04:10:31  5-MIN KACK 010910Z AUTO 26012KT 10SM CLR 06/02 A2994 30 73 -900 280/12 RMK AO2 T00610017 TSNO
14756KACK ACK20160301041511303/01/16 04:15:31  5-MIN KACK 010915Z AUTO 26013KT 10SM CLR 06/02 A2995 30 73 -1000 280/13 RMK AO2 T00610017 TSNO
14756KACK ACK20160301042011203/01/16 04:20:31  5-MIN KACK 010920Z AUTO 26012KT 10SM CLR 07/02 A2995 20 70 -900 280/12 RMK AO2 T00670017 TSNO
14756KACK ACK20160301042511303/01/16 04:25:31  5-MIN KACK 010925Z AUTO 27011KT 10SM CLR 06/02 A2995 20 73 -1000 280/11 RMK AO2 T00610017 TSNO
14756KACK ACK20160301043011303/01/16 04:30:31  5-MIN KACK 010930Z AUTO 27013KT 10SM CLR 06/02 A2996 20 73 -1000 290/13 RMK AO2 T00610017 TSNO
14756KACK ACK20160301043511303/01/16 04:35:31  5-MIN KACK 010935Z AUTO 27012KT 10SM CLR 06/02 A2996 20 73 -1000 280/12 RMK AO2 T00610017 TSNO
14756KACK ACK20160301044011303/01/16 04:40:31  5-MIN KACK 010940Z AUTO 27013KT 10SM CLR 06/02 A2996 10 73 -1000 280/13 RMK AO2 T00610017 TSNO
14756KACK ACK20160301044511303/01/16 04:45:31  5-MIN KACK 010945Z AUTO 27013KT 10SM CLR 06/02 A2996 10 73 -1000 290/13 RMK AO2 T00610017 TSNO
14756KACK ACK20160301045011903/01/16 04:50:31  5-MIN KACK 010950Z AUTO 27011KT 10SM CLR 06/02 A2997 0 73 -1000 290/11 RMK AO2 SLP148 T00610017 TSNO
14756KACK ACK20160301045511203/01/16 04:55:31  5-MIN KACK 010955Z AUTO 27014KT 10SM CLR 06/02 A2997 0 73 -1000 290/14 RMK AO2 T00610017 TSNO
14756KACK ACK20160301050011703/01/16 05:00:31  5-MIN KACK 011000Z AUTO 27014G20KT 10SM CLR 07/02 A2998 0 70 -900 290/14G20 RMK AO2 T00670017 TSNO
14756KACK ACK20160301050511803/01/16 05:05:31  5-MIN KACK 011005Z AUTO 27013G20KT 10SM CLR 06/02 A2998 0 73 -1000 290/13G20 RMK AO2 T00610017 TSNO
14756KACK ACK20160301051011203/01/16 05:10:31  5-MIN KACK 011010Z AUTO 27013KT 10SM CLR 06/02 A2998 0 73 -1000 290/13 RMK AO2 T00610017 TSNO
14756KACK ACK20160301051511403/01/16 05:15:31  5-MIN KACK 011015Z AUTO 28014KT 10SM CLR 06/02 A2999 -10 73 -1000 290/14 RMK AO2 T00610017 TSNO
14756KACK ACK20160301052011903/01/16 05:20:31  5-MIN KACK 011020Z AUTO 27013G21KT 10SM CLR 07/02 A2999 -10 70 -900 280/13G21 RMK AO2 T00670017 TSNO
14756KACK ACK20160301052511303/01/16 05:25:31  5-MIN KACK 011025Z AUTO 27013KT 10SM CLR 07/02 A3000 -20 70 -900 280/13 RMK AO2 T00670017 TSNO
14756KACK ACK20160301053012103/01/16 05:30:31  5-MIN KACK 011030Z AUTO 27014KT 10SM CLR 06/02 A3000 -20 73 -1000 290/14 RMK AO2 PRESRR T00610017 TSNO
14756KACK ACK20160301053512103/01/16 05:35:31  5-MIN KACK 011035Z AUTO 27012KT 10SM CLR 06/02 A3001 -30 73 -1000 290/12 RMK AO2 PRESRR T00610017 TSNO
14756KACK ACK20160301054011403/01/16 05:40:31  5-MIN KACK 011040Z AUTO 28012KT 10SM CLR 06/02 A3001 -30 73 -1000 290/12 RMK AO2 T00610017 TSNO
14756KACK ACK20160301054511403/01/16 05:45:31  5-MIN KACK 011045Z AUTO 28012KT 10SM CLR 06/02 A3002 -40 73 -1000 290/12 RMK AO2 T00610017 TSNO
14756KACK ACK20160301055012103/01/16 05:50:31  5-MIN KACK 011050Z AUTO 27012KT 10SM CLR 06/02 A3002 -40 73 -1000 290/12 RMK AO2 SLP165 T00610017 TSNO
14756KACK ACK20160301055510403/01/16 05:55:31  5-MIN KACK 011055Z 27011KT 10SM CLR 06/02 A3002 -40 73 -1000 290/11 RMK AO2 T00610017
14756KACK ACK20160301060010403/01/16 06:00:31  5-MIN KACK 011100Z 27011KT 10SM CLR 06/01 A3003 -40 70 -1000 290/11 RMK AO2 T00610011
14756KACK ACK20160301060510403/01/16 06:05:31  5-MIN KACK 011105Z 27010KT 10SM CLR 06/01 A3003 -50 73 -1100 280/10 RMK AO2 T00560011
14756KACK ACK20160301061010403/01/16 06:10:31  5-MIN KACK 011110Z 28011KT 10SM CLR 06/01 A3004 -50 73 -1100 290/11 RMK AO2 T00560011
14756KACK ACK20160301061510403/01/16 06:15:31  5-MIN KACK 011115Z 28010KT 10SM CLR 06/01 A3004 -60 73 -1100 300/10 RMK AO2 T00560011
14756KACK ACK20160301062010403/01/16 06:20:31  5-MIN KACK 011120Z 29009KT 10SM CLR 06/01 A3005 -60 70 -1100 310/09 RMK AO2 T00560006
14756KACK ACK20160301062510403/01/16 06:25:31  5-MIN KACK 011125Z 30010KT 10SM CLR 06/01 A3005 -60 70 -1100 310/10 RMK AO2 T00560006
14756KACK ACK20160301063010403/01/16 06:30:31  5-MIN KACK 011130Z 30012KT 10SM CLR 06/00 A3005 -60 67 -1100 310/12 RMK AO2 T00560000
14756KACK ACK20160301063510503/01/16 06:35:31  5-MIN KACK 011135Z 31011KT 10SM CLR 06/M01 A3005 -70 65 -1100 320/11 RMK AO2 T00561006
14756KACK ACK20160301064011103/01/16 06:40:31  5-MIN KACK 011140Z 31013G19KT 10SM CLR 06/M01 A3006 -70 65 -1100 330/13G19 RMK AO2 T00561006
14756KACK ACK20160301064511103/01/16 06:45:31  5-MIN KACK 011145Z 30013G19KT 10SM CLR 06/M01 A3006 -70 62 -1100 320/13G19 RMK AO2 T00561011
14756KACK ACK20160301065013003/01/16 06:50:31  5-MIN KACK 011150Z 30012KT 10SM CLR 06/M02 A3006 -80 59 -1200 320/12 RMK AO2 SLP179 T00561017 10072 20056 53023
14756KACK ACK20160301065510503/01/16 06:55:31  5-MIN KACK 011155Z 29010KT 10SM CLR 06/M02 A3007 -80 59 -1200 310/10 RMK AO2 T00561017
14756KACK ACK20160301070010503/01/16 07:00:31  5-MIN KACK 011200Z 29011KT 10SM CLR 06/M02 A3007 -80 59 -1200 310/11 RMK AO2 T00561017
14756KACK ACK20160301070510503/01/16 07:05:31  5-MIN KACK 011205Z 30010KT 10SM CLR 06/M02 A3007 -90 59 -1200 320/10 RMK AO2 T00561017
14756KACK ACK20160301071010503/01/16 07:10:31  5-MIN KACK 011210Z 31012KT 10SM CLR 06/M02 A3008 -90 59 -1200 320/12 RMK AO2 T00561017
14756KACK ACK20160301071510503/01/16 07:15:31  5-MIN KACK 011215Z 30012KT 10SM CLR 06/M02 A3008 -90 57 -1200 320/12 RMK AO2 T00561022
14756KACK ACK20160301072010503/01/16 07:20:31  5-MIN KACK 011220Z 30011KT 10SM CLR 06/M02 A3008 -90 57 -1200 310/11 RMK AO2 T00561022
14756KACK ACK20160301072510603/01/16 07:25:31  5-MIN KACK 011225Z 29013KT 10SM CLR 06/M02 A3009 -100 55 -1100 310/13 RMK AO2 T00611022
14756KACK ACK20160301073010603/01/16 07:30:31  5-MIN KACK 011230Z 30012KT 10SM CLR 06/M02 A3009 -110 55 -1100 310/12 RMK AO2 T00611022
14756KACK ACK20160301073510603/01/16 07:35:31  5-MIN KACK 011235Z 31011KT 10SM CLR 06/M03 A3010 -110 53 -1100 320/11 RMK AO2 T00611028
14756KACK ACK20160301074011203/01/16 07:40:31  5-MIN KACK 011240Z 32015G22KT 10SM CLR 06/M03 A3010 -110 51 -1100 330/15G22 RMK AO2 T00611033
14756KACK ACK20160301074511203/01/16 07:45:31  5-MIN KACK 011245Z 30014G22KT 10SM CLR 06/M04 A3010 -120 48 -1100 310/14G22 RMK AO2 T00611039
14756KACK ACK20160301075011903/01/16 07:50:31  5-MIN KACK 011250Z 31012G20KT 10SM CLR 06/M04 A3011 -120 48 -1100 330/12G20 RMK AO2 SLP197 T00611039
14756KACK ACK20160301075511203/01/16 07:55:31  5-MIN KACK 011255Z 30013G20KT 10SM CLR 06/M04 A3011 -120 46 -1100 320/13G20 RMK AO2 T00611044
14756KACK ACK20160301080011203/01/16 08:00:31  5-MIN KACK 011300Z 31014G21KT 10SM CLR 06/M04 A3011 -120 46 -1100 320/14G21 RMK AO2 T00611044
14756KACK ACK20160301080511203/01/16 08:05:31  5-MIN KACK 011305Z 30014G22KT 10SM CLR 06/M05 A3012 -130 45 -1100 310/14G22 RMK AO2 T00611050
14756KACK ACK20160301081011203/01/16 08:10:31  5-MIN KACK 011310Z 31012G22KT 10SM CLR 06/M06 A3013 -140 41 -1200 320/12G22 RMK AO2 T00611061
14756KACK ACK20160301081511403/01/16 08:15:31  5-MIN KACK 011315Z 31011G19KT 10SM CLR 06/M05 A3012 -130 45 -1200 320/11G19 RMK AO2 T00611050 $
14756KACK ACK20160301082011403/01/16 08:20:31  5-MIN KACK 011320Z 31014G19KT 10SM CLR 06/M05 A3013 -140 45 -1200 320/14G19 RMK AO2 T00611050 $
14756KACK ACK20160301082510803/01/16 08:25:31  5-MIN KACK 011325Z 32013KT 10SM CLR 06/M06 A3013 -140 41 -1200 330/13 RMK AO2 T00611061 $
14756KACK ACK20160301083010803/01/16 08:30:31  5-MIN KACK 011330Z 30014KT 10SM CLR 06/M06 A3013 -140 41 -1200 310/14 RMK AO2 T00611061 $
14756KACK ACK20160301083511403/01/16 08:35:31  5-MIN KACK 011335Z 32014G20KT 10SM CLR 06/M06 A3013 -140 43 -1200 330/14G20 RMK AO2 T00611056 $
14756KACK ACK20160301084011403/01/16 08:40:31  5-MIN KACK 011340Z 32016G20KT 10SM CLR 06/M07 A3013 -140 39 -1200 340/16G20 RMK AO2 T00611067 $
14756KACK ACK20160301084510803/01/16 08:45:31  5-MIN KACK 011345Z 31014KT 10SM CLR 06/M07 A3014 -140 38 -1200 330/14 RMK AO2 T00611072 $
14756KACK ACK20160301085012103/01/16 08:50:31  5-MIN KACK 011350Z 32016G20KT 10SM CLR 06/M08 A3014 -150 36 -1200 340/16G20 RMK AO2 SLP206 T00611078 $
14756KACK ACK20160301085510803/01/16 08:55:31  5-MIN KACK 011355Z 31015KT 10SM CLR 06/M08 A3014 -150 35 -1200 320/15 RMK AO2 T00611083 $
14756KACK ACK20160301090010803/01/16 09:00:31  5-MIN KACK 011400Z 32013KT 10SM CLR 07/M08 A3014 -150 33 -1100 340/13 RMK AO2 T00671083 $
14756KACK ACK20160301090511403/01/16 09:05:31  5-MIN KACK 011405Z 32014G21KT 10SM CLR 06/M07 A3014 -150 38 -1200 330/14G21 RMK AO2 T00611072 $
14756KACK ACK20160301091011403/01/16 09:10:31  5-MIN KACK 011410Z 33017G21KT 10SM CLR 07/M07 A3014 -150 36 -1100 340/17G21 RMK AO2 T00671072 $
14756KACK ACK20160301091510803/01/16 09:15:31  5-MIN KACK 011415Z 34017KT 10SM CLR 06/M08 A3014 -150 36 -1200 360/17 RMK AO2 T00611078 $
14756KACK ACK20160301092010803/01/16 09:20:31  5-MIN KACK 011420Z 34015KT 10SM CLR 06/M08 A3014 -150 36 -1200 350/15 RMK AO2 T00611078 $
14756KACK ACK20160301092510803/01/16 09:25:31  5-MIN KACK 011425Z 33015KT 10SM CLR 06/M08 A3015 -150 36 -1200 340/15 RMK AO2 T00611078 $
14756KACK ACK20160301093010803/01/16 09:30:31  5-MIN KACK 011430Z 32016KT 10SM CLR 06/M08 A3014 -150 35 -1200 340/16 RMK AO2 T00611083 $
14756KACK ACK20160301093510803/01/16 09:35:31  5-MIN KACK 011435Z 33016KT 10SM CLR 07/M07 A3014 -150 36 -1100 350/16 RMK AO2 T00671072 $
14756KACK ACK20160301094010803/01/16 09:40:31  5-MIN KACK 011440Z 32018KT 10SM CLR 06/M08 A3014 -150 36 -1200 330/18 RMK AO2 T00611078 $
14756KACK ACK20160301094510803/01/16 09:45:31  5-MIN KACK 011445Z 32015KT 10SM CLR 06/M08 A3015 -150 35 -1200 330/15 RMK AO2 T00611083 $
14756KACK ACK20160301095012103/01/16 09:50:31  5-MIN KACK 011450Z 34015KT 10SM CLR 06/M09 A3015 -160 32 -1200 360/15 RMK AO2 SLP210 T00611094 53045 $
14756KACK ACK20160301095510803/01/16 09:55:31  5-MIN KACK 011455Z 33014KT 10SM CLR 06/M09 A3015 -160 32 -1200 340/14 RMK AO2 T00611094 $
14756KACK ACK20160301100010803/01/16 10:00:31  5-MIN KACK 011500Z 34014KT 10SM CLR 06/M09 A3015 -160 32 -1200 350/14 RMK AO2 T00611094 $
14756KACK ACK20160301100510803/01/16 10:05:31  5-MIN KACK 011505Z 34014KT 10SM CLR 06/M09 A3015 -160 33 -1200 350/14 RMK AO2 T00611089 $
14756KACK ACK20160301101010803/01/16 10:10:31  5-MIN KACK 011510Z 33014KT 10SM CLR 06/M09 A3016 -160 32 -1200 350/14 RMK AO2 T00611094 $
14756KACK ACK20160301101510803/01/16 10:15:31  5-MIN KACK 011515Z 32014KT 10SM CLR 06/M08 A3015 -160 35 -1200 330/14 RMK AO2 T00611083 $
14756KACK ACK20160301102010803/01/16 10:20:31  5-MIN KACK 011520Z 33017KT 10SM CLR 06/M08 A3015 -160 35 -1200 350/17 RMK AO2 T00611083 $
14756KACK ACK20160301102510803/01/16 10:25:31  5-MIN KACK 011525Z 33014KT 10SM CLR 06/M08 A3015 -160 36 -1200 350/14 RMK AO2 T00611078 $
14756KACK ACK20160301103010803/01/16 10:30:31  5-MIN KACK 011530Z 33016KT 10SM CLR 07/M08 A3015 -160 35 -1100 340/16 RMK AO2 T00671078 $
14756KACK ACK20160301103510803/01/16 10:35:31  5-MIN KACK 011535Z 32013KT 10SM CLR 07/M08 A3016 -170 35 -1100 330/13 RMK AO2 T00671078 $
14756KACK ACK20160301104010803/01/16 10:40:31  5-MIN KACK 011540Z 33015KT 10SM CLR 07/M07 A3016 -160 36 -1100 340/15 RMK AO2 T00671072 $
14756KACK ACK20160301104510803/01/16 10:45:31  5-MIN KACK 011545Z 34015KT 10SM CLR 07/M08 A3016 -170 35 -1100 350/15 RMK AO2 T00671078 $
14756KACK ACK20160301105011503/01/16 10:50:31  5-MIN KACK 011550Z 32013KT 10SM CLR 06/M08 A3017 -170 35 -1200 330/13 RMK AO2 SLP215 T00611083 $
14756KACK ACK20160301105510803/01/16 10:55:31  5-MIN KACK 011555Z 31013KT 10SM CLR 06/M08 A3017 -180 36 -1200 330/13 RMK AO2 T00611078 $
14756KACK ACK20160301110010803/01/16 11:00:31  5-MIN KACK 011600Z 33013KT 10SM CLR 06/M08 A3017 -170 35 -1200 350/13 RMK AO2 T00611083 $
14756KACK ACK20160301110510803/01/16 11:05:31  5-MIN KACK 011605Z 34013KT 10SM CLR 07/M08 A3017 -180 33 -1100 350/13 RMK AO2 T00671083 $
14756KACK ACK20160301111010803/01/16 11:10:31  5-MIN KACK 011610Z 32013KT 10SM CLR 07/M09 A3018 -190 32 -1200 340/13 RMK AO2 T00671089 $
14756KACK ACK20160301111510803/01/16 11:15:31  5-MIN KACK 011615Z 32010KT 10SM CLR 07/M09 A3018 -190 31 -1100 330/10 RMK AO2 T00721089 $
14756KACK ACK20160301112010803/01/16 11:20:31  5-MIN KACK 011620Z 34011KT 10SM CLR 07/M09 A3018 -190 32 -1200 350/11 RMK AO2 T00671089 $
14756KACK ACK20160301112510803/01/16 11:25:31  5-MIN KACK 011625Z 32011KT 10SM CLR 07/M09 A3018 -180 32 -1200 330/11 RMK AO2 T00671089 $
14756KACK ACK20160301113010803/01/16 11:30:31  5-MIN KACK 011630Z 32010KT 10SM CLR 07/M09 A3017 -180 32 -1100 340/10 RMK AO2 T00671089 $
14756KACK ACK20160301113510803/01/16 11:35:31  5-MIN KACK 011635Z 35010KT 10SM CLR 07/M09 A3017 -180 31 -1100 360/10 RMK AO2 T00721089 $
14756KACK ACK20160301114010803/01/16 11:40:31  5-MIN KACK 011640Z 32010KT 10SM CLR 07/M09 A3017 -180 30 -1100 330/10 RMK AO2 T00671094 $
14756KACK ACK20160301114510803/01/16 11:45:31  5-MIN KACK 011645Z 32010KT 10SM CLR 07/M10 A3017 -180 29 -1100 340/10 RMK AO2 T00671100 $
14756KACK ACK20160301115011503/01/16 11:50:31  5-MIN KACK 011650Z 35010KT 10SM CLR 07/M10 A3017 -180 29 -1100 360/10 RMK AO2 SLP216 T00671100 $
14756KACK ACK20160301115510803/01/16 11:55:31  5-MIN KACK 011655Z 34010KT 10SM CLR 07/M11 A3017 -170 27 -1100 350/10 RMK AO2 T00671111 $
14756KACK ACK20160301120010803/01/16 12:00:31  5-MIN KACK 011700Z 33010KT 10SM CLR 07/M10 A3016 -170 28 -1100 350/10 RMK AO2 T00721100 $
14756KACK ACK20160301120510803/01/16 12:05:31  5-MIN KACK 011705Z 34010KT 10SM CLR 07/M10 A3016 -170 28 -1100 350/10 RMK AO2 T00721100 $
14756KACK ACK20160301121010803/01/16 12:10:31  5-MIN KACK 011710Z 34009KT 10SM CLR 07/M10 A3017 -170 29 -1100 360/09 RMK AO2 T00671100 $
14756KACK ACK20160301121510803/01/16 12:15:31  5-MIN KACK 011715Z 35008KT 10SM CLR 07/M10 A3016 -170 29 -1100 360/08 RMK AO2 T00671100 $
14756KACK ACK20160301122010803/01/16 12:20:31  5-MIN KACK 011720Z 35008KT 10SM CLR 07/M09 A3016 -160 30 -1100 360/08 RMK AO2 T00671094 $
14756KACK ACK20160301122510803/01/16 12:25:31  5-MIN KACK 011725Z 01008KT 10SM CLR 07/M09 A3016 -170 29 -1100 020/08 RMK AO2 T00721094 $
14756KACK ACK20160301123010803/01/16 12:30:31  5-MIN KACK 011730Z 01007KT 10SM CLR 07/M11 A3016 -170 28 -1100 020/07 RMK AO2 T00671106 $
14756KACK ACK20160301123510803/01/16 12:35:31  5-MIN KACK 011735Z 01007KT 10SM CLR 07/M11 A3016 -170 27 -1100 020/07 RMK AO2 T00721106 $
14756KACK ACK20160301124010803/01/16 12:40:31  5-MIN KACK 011740Z 36007KT 10SM CLR 07/M11 A3016 -160 27 -1100 010/07 RMK AO2 T00721106 $
14756KACK ACK20160301124510803/01/16 12:45:31  5-MIN KACK 011745Z 36007KT 10SM CLR 07/M10 A3016 -160 28 -1100 020/07 RMK AO2 T00721100 $
14756KACK ACK20160301125013303/01/16 12:50:31  5-MIN KACK 011750Z 01005KT 10SM CLR 07/M10 A3015 -160 28 -1100 030/05 RMK AO2 SLP211 T00721100 10078 20056 51029 $
14756KACK ACK20160301125510803/01/16 12:55:31  5-MIN KACK 011755Z 02006KT 10SM CLR 07/M11 A3015 -160 27 -1100 040/06 RMK AO2 T00721106 $
14756KACK ACK20160301130010803/01/16 13:00:31  5-MIN KACK 011800Z VRB04KT 10SM CLR 07/M10 A3015 -160 28 -1100 VRB/04 RMK AO2 T00721100 $
14756KACK ACK20160301130510803/01/16 13:05:31  5-MIN KACK 011805Z 33004KT 10SM CLR 08/M11 A3015 -160 26 -1000 350/04 RMK AO2 T00781106 $
14756KACK ACK20160301131010803/01/16 13:10:31  5-MIN KACK 011810Z 36004KT 10SM CLR 08/M11 A3015 -160 25 -1000 020/04 RMK AO2 T00781111 $
14756KACK ACK20160301131510803/01/16 13:15:31  5-MIN KACK 011815Z 03005KT 10SM CLR 08/M11 A3015 -160 26 -1000 050/05 RMK AO2 T00781106 $
14756KACK ACK20160301132010803/01/16 13:20:31  5-MIN KACK 011820Z 01004KT 10SM CLR 08/M11 A3015 -160 26 -1000 020/04 RMK AO2 T00781106 $
14756KACK ACK20160301132510803/01/16 13:25:31  5-MIN KACK 011825Z VRB04KT 10SM CLR 08/M11 A3016 -160 25 -1000 VRB/04 RMK AO2 T00781111 $
14756KACK ACK20160301133010803/01/16 13:30:31  5-MIN KACK 011830Z 00000KT 10SM CLR 07/M12 A3016 -160 25 -1100 000/00 RMK AO2 T00721117 $
14756KACK ACK20160301133509803/01/16 13:35:31  5-MIN KACK 011835Z 10SM CLR 07/M08 A3016 -170 33 -1100 M /M RMK AO2 T00721078 $
14756KACK ACK20160301134010803/01/16 13:40:31  5-MIN KACK 011840Z 14010KT 10SM CLR 07/M07 A3016 -160 36 -1100 150/10 RMK AO2 T00721067 $
14756KACK ACK20160301134510803/01/16 13:45:31  5-MIN KACK 011845Z 14010KT 10SM CLR 07/M07 A3016 -160 36 -1100 160/10 RMK AO2 T00721067 $
14756KACK ACK20160301135011503/01/16 13:50:31  5-MIN KACK 011850Z 13009KT 10SM CLR 07/M07 A3016 -170 36 -1100 140/09 RMK AO2 SLP212 T00721067 $
14756KACK ACK20160301135510803/01/16 13:55:31  5-MIN KACK 011855Z 13010KT 10SM CLR 07/M06 A3016 -160 40 -1100 140/10 RMK AO2 T00721056 $
14756KACK ACK20160301140010803/01/16 14:00:31  5-MIN KACK 011900Z 13009KT 10SM CLR 07/M06 A3016 -160 39 -1100 150/09 RMK AO2 T00671061 $
14756KACK ACK20160301140510803/01/16 14:05:31  5-MIN KACK 011905Z 13009KT 10SM CLR 07/M06 A3016 -160 39 -1100 150/09 RMK AO2 T00671061 $
14756KACK ACK20160301141010803/01/16 14:10:31  5-MIN KACK 011910Z 12010KT 10SM CLR 06/M03 A3016 -160 51 -1200 130/10 RMK AO2 T00611033 $
14756KACK ACK20160301141510803/01/16 14:15:31  5-MIN KACK 011915Z 11010KT 10SM CLR 06/M02 A3016 -160 55 -1200 120/10 RMK AO2 T00611022 $
14756KACK ACK20160301142010803/01/16 14:20:31  5-MIN KACK 011920Z 12010KT 10SM CLR 06/M02 A3015 -160 55 -1200 130/10 RMK AO2 T00611022 $
14756KACK ACK20160301142510803/01/16 14:25:31  5-MIN KACK 011925Z 13010KT 10SM CLR 06/M03 A3015 -160 53 -1200 150/10 RMK AO2 T00611028 $
14756KACK ACK20160301143010803/01/16 14:30:31  5-MIN KACK 011930Z 13009KT 10SM CLR 06/M03 A3015 -160 53 -1200 150/09 RMK AO2 T00611028 $
14756KACK ACK20160301143510803/01/16 14:35:31  5-MIN KACK 011935Z 13010KT 10SM CLR 06/M03 A3015 -160 55 -1300 150/10 RMK AO2 T00561028 $
14756KACK ACK20160301144010803/01/16 14:40:31  5-MIN KACK 011940Z 12009KT 10SM CLR 06/M03 A3015 -160 53 -1200 130/09 RMK AO2 T00611028 $
14756KACK ACK20160301144510803/01/16 14:45:31  5-MIN KACK 011945Z 12010KT 10SM CLR 06/M03 A3015 -160 55 -1300 140/10 RMK AO2 T00561028 $
14756KACK ACK20160301145011503/01/16 14:50:31  5-MIN KACK 011950Z 12010KT 10SM CLR 06/M03 A3014 -150 53 -1200 130/10 RMK AO2 SLP207 T00611028 $
14756KACK ACK20160301145510803/01/16 14:55:31  5-MIN KACK 011955Z 12011KT 10SM CLR 06/M03 A3014 -150 53 -1200 140/11 RMK AO2 T00611028 $
14756KACK ACK20160301150010803/01/16 15:00:31  5-MIN KACK 012000Z 12012KT 10SM CLR 06/M03 A3014 -150 53 -1200 140/12 RMK AO2 T00611028 $
14756KACK ACK20160301150510803/01/16 15:05:31  5-MIN KACK 012005Z 11011KT 10SM CLR 06/M03 A3014 -150 55 -1200 130/11 RMK AO2 T00561028 $
14756KACK ACK20160301151010803/01/16 15:10:31  5-MIN KACK 012010Z 12011KT 10SM CLR 06/M03 A3014 -140 53 -1200 130/11 RMK AO2 T00611028 $
14756KACK ACK20160301151510803/01/16 15:15:31  5-MIN KACK 012015Z 12011KT 10SM CLR 06/M03 A3013 -140 55 -1200 140/11 RMK AO2 T00561028 $
14756KACK ACK20160301152010803/01/16 15:20:31  5-MIN KACK 012020Z 13011KT 10SM CLR 06/M03 A3013 -140 55 -1200 140/11 RMK AO2 T00561028 $
14756KACK ACK20160301152510803/01/16 15:25:31  5-MIN KACK 012025Z 11011KT 10SM CLR 06/M02 A3013 -140 55 -1200 120/11 RMK AO2 T00611022 $
14756KACK ACK20160301153010803/01/16 15:30:31  5-MIN KACK 012030Z 11010KT 10SM CLR 06/M03 A3013 -140 53 -1200 130/10 RMK AO2 T00611028 $
14756KACK ACK20160301153510803/01/16 15:35:31  5-MIN KACK 012035Z 13012KT 10SM CLR 06/M02 A3012 -130 57 -1200 140/12 RMK AO2 T00561022 $
14756KACK ACK20160301154010803/01/16 15:40:31  5-MIN KACK 012040Z 11011KT 10SM CLR 06/M03 A3011 -120 55 -1200 130/11 RMK AO2 T00561028 $
14756KACK ACK20160301154510803/01/16 15:45:31  5-MIN KACK 012045Z 11013KT 10SM CLR 06/M03 A3012 -130 55 -1200 120/13 RMK AO2 T00561028 $
14756KACK ACK20160301155012103/01/16 15:50:31  5-MIN KACK 012050Z 13012KT 10SM CLR 06/M03 A3012 -130 55 -1200 140/12 RMK AO2 SLP199 T00561028 50000 $
14756KACK ACK20160301155510803/01/16 15:55:31  5-MIN KACK 012055Z 12012KT 10SM CLR 06/M03 A3013 -140 55 -1200 140/12 RMK AO2 T00561028 $
14756KACK ACK20160301160010803/01/16 16:00:31  5-MIN KACK 012100Z 12012KT 10SM CLR 06/M03 A3013 -140 55 -1200 140/12 RMK AO2 T00561028 $
14756KACK ACK20160301160510803/01/16 16:05:31  5-MIN KACK 012105Z 12012KT 10SM CLR 05/M03 A3013 -140 57 -1300 140/12 RMK AO2 T00501028 $
14756KACK ACK20160301161010803/01/16 16:10:31  5-MIN KACK 012110Z 13012KT 10SM CLR 06/M03 A3012 -130 55 -1200 140/12 RMK AO2 T00561028 $
14756KACK ACK20160301161510803/01/16 16:15:31  5-MIN KACK 012115Z 13012KT 10SM CLR 06/M02 A3013 -140 57 -1200 140/12 RMK AO2 T00561022 $
14756KACK ACK20160301162010803/01/16 16:20:31  5-MIN KACK 012120Z 13014KT 10SM CLR 05/M02 A3013 -140 59 -1300 140/14 RMK AO2 T00501022 $
14756KACK ACK20160301162510803/01/16 16:25:31  5-MIN KACK 012125Z 12014KT 10SM CLR 05/M02 A3012 -130 59 -1300 140/14 RMK AO2 T00501022 $
14756KACK ACK20160301163010803/01/16 16:30:31  5-MIN KACK 012130Z 13012KT 10SM CLR 05/M02 A3013 -130 59 -1300 140/12 RMK AO2 T00501022 $
14756KACK ACK20160301163510803/01/16 16:35:31  5-MIN KACK 012135Z 13013KT 10SM CLR 05/M02 A3012 -130 59 -1300 140/13 RMK AO2 T00501022 $
14756KACK ACK20160301164010803/01/16 16:40:31  5-MIN KACK 012140Z 13013KT 10SM CLR 05/M02 A3012 -130 59 -1300 150/13 RMK AO2 T00501022 $
14756KACK ACK20160301164510803/01/16 16:45:31  5-MIN KACK 012145Z 13013KT 10SM CLR 05/M02 A3012 -130 62 -1300 150/13 RMK AO2 T00501017 $
14756KACK ACK20160301165011303/01/16 16:50:31  5-MIN KACK 012150Z 14013KT 10SM CLR 05/M02 A3013 -140 62 -1300 150/13 RMK AO2 SLP202 T00501017
14756KACK ACK20160301165510603/01/16 16:55:31  5-MIN KACK 012155Z 14013KT 10SM CLR 05/M02 A3013 -140 62 -1300 150/13 RMK AO2 T00501017
14756KACK ACK20160301170010603/01/16 17:00:31  5-MIN KACK 012200Z 14012KT 10SM CLR 05/M02 A3013 -140 62 -1300 160/12 RMK AO2 T00501017
14756KACK ACK20160301170510603/01/16 17:05:31  5-MIN KACK 012205Z 14012KT 10SM CLR 04/M02 A3013 -140 64 -1400 160/12 RMK AO2 T00441017
14756KACK ACK20160301171010603/01/16 17:10:31  5-MIN KACK 012210Z 14013KT 10SM CLR 04/M02 A3013 -140 64 -1400 160/13 RMK AO2 T00441017
14756KACK ACK20160301171510603/01/16 17:15:31  5-MIN KACK 012215Z 15014KT 10SM CLR 04/M02 A3013 -140 64 -1400 160/14 RMK AO2 T00441017
14756KACK ACK20160301172010603/01/16 17:20:31  5-MIN KACK 012220Z 15013KT 10SM CLR 04/M02 A3013 -140 64 -1400 160/13 RMK AO2 T00441017
14756KACK ACK20160301172510603/01/16 17:25:31  5-MIN KACK 012225Z 14013KT 10SM CLR 04/M02 A3013 -140 64 -1400 160/13 RMK AO2 T00441017
14756KACK ACK20160301173010603/01/16 17:30:31  5-MIN KACK 012230Z 14012KT 10SM CLR 04/M02 A3013 -140 64 -1400 160/12 RMK AO2 T00441017
14756KACK ACK20160301173510603/01/16 17:35:31  5-MIN KACK 012235Z 14013KT 10SM CLR 04/M01 A3013 -140 67 -1400 160/13 RMK AO2 T00441011
14756KACK ACK20160301174010603/01/16 17:40:31  5-MIN KACK 012240Z 15014KT 10SM CLR 04/M02 A3013 -140 64 -1400 170/14 RMK AO2 T00441017
14756KACK ACK20160301174510603/01/16 17:45:31  5-MIN KACK 012245Z 15013KT 10SM CLR 04/M02 A3013 -140 64 -1400 160/13 RMK AO2 T00441017
14756KACK ACK20160301175011303/01/16 17:50:31  5-MIN KACK 012250Z 15013KT 10SM CLR 04/M02 A3012 -130 62 -1400 160/13 RMK AO2 SLP201 T00441022
14756KACK ACK20160301175510603/01/16 17:55:31  5-MIN KACK 012255Z 15014KT 10SM CLR 04/M02 A3012 -130 62 -1400 160/14 RMK AO2 T00441022
14756KACK ACK20160301180010603/01/16 18:00:31  5-MIN KACK 012300Z 15012KT 10SM CLR 04/M02 A3012 -130 62 -1400 170/12 RMK AO2 T00441022
14756KACK ACK20160301180510603/01/16 18:05:31  5-MIN KACK 012305Z 15012KT 10SM CLR 04/M02 A3012 -130 62 -1400 160/12 RMK AO2 T00441022
14756KACK ACK20160301181010603/01/16 18:10:31  5-MIN KACK 012310Z 15013KT 10SM CLR 04/M02 A3012 -130 62 -1400 160/13 RMK AO2 T00441022
14756KACK ACK20160301181510603/01/16 18:15:31  5-MIN KACK 012315Z 15015KT 10SM CLR 04/M02 A3011 -120 62 -1300 160/15 RMK AO2 T00441022
14756KACK ACK20160301182010603/01/16 18:20:31  5-MIN KACK 012320Z 15013KT 10SM CLR 04/M02 A3011 -120 62 -1300 170/13 RMK AO2 T00441022
14756KACK ACK20160301182510603/01/16 18:25:31  5-MIN KACK 012325Z 15012KT 10SM CLR 04/M02 A3011 -120 62 -1300 160/12 RMK AO2 T00441022
14756KACK ACK20160301183010603/01/16 18:30:31  5-MIN KACK 012330Z 15014KT 10SM CLR 04/M02 A3011 -120 64 -1300 160/14 RMK AO2 T00441017
14756KACK ACK20160301183510603/01/16 18:35:31  5-MIN KACK 012335Z 15014KT 10SM CLR 04/M02 A3011 -120 64 -1400 160/14 RMK AO2 T00441017
14756KACK ACK20160301184010603/01/16 18:40:31  5-MIN KACK 012340Z 15014KT 10SM CLR 04/M02 A3011 -120 62 -1300 160/14 RMK AO2 T00441022
14756KACK ACK20160301184510603/01/16 18:45:31  5-MIN KACK 012345Z 14014KT 10SM CLR 04/M02 A3010 -120 62 -1300 160/14 RMK AO2 T00441022
14756KACK ACK20160301185013103/01/16 18:50:31  5-MIN KACK 012350Z 14013KT 10SM CLR 04/M02 A3010 -110 64 -1300 150/13 RMK AO2 SLP193 T00441017 10078 20044 58010
14756KACK ACK20160301185510603/01/16 18:55:31  5-MIN KACK 012355Z 14013KT 10SM CLR 04/M02 A3010 -110 64 -1300 150/13 RMK AO2 T00441017
14756KACK ACK20160301190010603/01/16 19:00:31  5-MIN KACK 020000Z 13013KT 10SM CLR 04/M02 A3009 -100 64 -1300 150/13 RMK AO2 T00441017
14756KACK ACK20160301190510603/01/16 19:05:31  5-MIN KACK 020005Z 13013KT 10SM CLR 04/M02 A3009 -100 64 -1300 150/13 RMK AO2 T00441017
14756KACK ACK20160301191010603/01/16 19:10:31  5-MIN KACK 020010Z 13014KT 10SM CLR 04/M02 A3009 -100 64 -1300 150/14 RMK AO2 T00441017
14756KACK ACK20160301191510603/01/16 19:15:31  5-MIN KACK 020015Z 13014KT 10SM CLR 04/M02 A3009 -100 64 -1300 150/14 RMK AO2 T00441017
14756KACK ACK20160301192010603/01/16 19:20:31  5-MIN KACK 020020Z 14015KT 10SM CLR 05/M01 A3009 -100 64 -1200 150/15 RMK AO2 T00501011
14756KACK ACK20160301192510603/01/16 19:25:31  5-MIN KACK 020025Z 13013KT 10SM CLR 05/M01 A3008 -100 64 -1200 150/13 RMK AO2 T00501011
14756KACK ACK20160301193010603/01/16 19:30:31  5-MIN KACK 020030Z 13014KT 10SM CLR 04/M01 A3008 -100 67 -1300 150/14 RMK AO2 T00441011
14756KACK ACK20160301193510603/01/16 19:35:31  5-MIN KACK 020035Z 14013KT 10SM CLR 05/M01 A3008 -100 67 -1200 150/13 RMK AO2 T00501006
14756KACK ACK20160301194010503/01/16 19:40:31  5-MIN KACK 020040Z 13014KT 10SM CLR 05/M01 A3008 -90 67 -1200 150/14 RMK AO2 T00501006
14756KACK ACK20160301194510503/01/16 19:45:31  5-MIN KACK 020045Z 14014KT 10SM CLR 05/M01 A3008 -90 67 -1200 150/14 RMK AO2 T00501006
14756KACK ACK20160301195011203/01/16 19:50:31  5-MIN KACK 020050Z 14015KT 10SM CLR 05/M01 A3008 -90 67 -1200 150/15 RMK AO2 SLP184 T00501006
14756KACK ACK20160301195510503/01/16 19:55:31  5-MIN KACK 020055Z 14014KT 10SM CLR 05/M01 A3008 -90 67 -1200 150/14 RMK AO2 T00501006
14756KACK ACK20160301200010403/01/16 20:00:31  5-MIN KACK 020100Z 14014KT 10SM CLR 05/00 A3007 -90 70 -1200 150/14 RMK AO2 T00500000
14756KACK ACK20160301200510403/01/16 20:05:31  5-MIN KACK 020105Z 14013KT 10SM CLR 05/00 A3007 -80 70 -1200 150/13 RMK AO2 T00500000
14756KACK ACK20160301201010403/01/16 20:10:31  5-MIN KACK 020110Z 14012KT 10SM CLR 05/00 A3007 -80 70 -1200 150/12 RMK AO2 T00500000
14756KACK ACK20160301201510403/01/16 20:15:31  5-MIN KACK 020115Z 14014KT 10SM CLR 05/00 A3007 -90 70 -1200 150/14 RMK AO2 T00500000
14756KACK ACK20160301202010403/01/16 20:20:31  5-MIN KACK 020120Z 14015KT 10SM CLR 05/00 A3007 -80 70 -1200 150/15 RMK AO2 T00500000
14756KACK ACK20160301202510403/01/16 20:25:31  5-MIN KACK 020125Z 14014KT 10SM CLR 05/00 A3006 -80 70 -1200 150/14 RMK AO2 T00500000
14756KACK ACK20160301203010403/01/16 20:30:31  5-MIN KACK 020130Z 14014KT 10SM CLR 05/00 A3006 -70 70 -1200 150/14 RMK AO2 T00500000
14756KACK ACK20160301203510403/01/16 20:35:31  5-MIN KACK 020135Z 13015KT 10SM CLR 05/00 A3006 -70 70 -1200 150/15 RMK AO2 T00500000
14756KACK ACK20160301204010403/01/16 20:40:31  5-MIN KACK 020140Z 13015KT 10SM CLR 05/00 A3005 -70 70 -1200 150/15 RMK AO2 T00500000
14756KACK ACK20160301204510403/01/16 20:45:31  5-MIN KACK 020145Z 14014KT 10SM CLR 05/00 A3005 -60 70 -1200 150/14 RMK AO2 T00500000
14756KACK ACK20160301205011103/01/16 20:50:31  5-MIN KACK 020150Z 13017KT 10SM CLR 05/00 A3005 -60 70 -1200 150/17 RMK AO2 SLP174 T00500000
14756KACK ACK20160301205511403/01/16 20:55:31  5-MIN KACK 020155Z AUTO 13016KT 10SM CLR 05/00 A3004 -60 70 -1200 150/16 RMK AO2 T00500000 TSNO
14756KACK ACK20160301210011403/01/16 21:00:31  5-MIN KACK 020200Z AUTO 13017KT 10SM CLR 06/00 A3004 -60 67 -1100 150/17 RMK AO2 T00560000 TSNO
14756KACK ACK20160301210511403/01/16 21:05:31  5-MIN KACK 020205Z AUTO 13016KT 10SM CLR 06/00 A3003 -50 67 -1100 150/16 RMK AO2 T00560000 TSNO
14756KACK ACK20160301211011403/01/16 21:10:31  5-MIN KACK 020210Z AUTO 13015KT 10SM CLR 06/01 A3003 -50 70 -1100 150/15 RMK AO2 T00560006 TSNO
14756KACK ACK20160301211511403/01/16 21:15:31  5-MIN KACK 020215Z AUTO 13015KT 10SM CLR 06/01 A3003 -50 70 -1100 150/15 RMK AO2 T00560006 TSNO
14756KACK ACK20160301212011403/01/16 21:20:31  5-MIN KACK 020220Z AUTO 13015KT 10SM CLR 06/01 A3003 -40 70 -1100 150/15 RMK AO2 T00560006 TSNO
14756KACK ACK20160301212511403/01/16 21:25:31  5-MIN KACK 020225Z AUTO 13017KT 10SM CLR 06/01 A3002 -40 70 -1100 150/17 RMK AO2 T00560006 TSNO
14756KACK ACK20160301213011403/01/16 21:30:31  5-MIN KACK 020230Z AUTO 13017KT 10SM CLR 06/01 A3002 -30 73 -1100 140/17 RMK AO2 T00560011 TSNO
14756KACK ACK20160301213512103/01/16 21:35:31  5-MIN KACK 020235Z AUTO 13016KT 10SM CLR 06/01 A3001 -30 73 -1100 140/16 RMK AO2 PRESFR T00560011 TSNO
14756KACK ACK20160301214011403/01/16 21:40:31  5-MIN KACK 020240Z AUTO 13017KT 10SM CLR 06/01 A3001 -20 73 -1100 150/17 RMK AO2 T00560011 TSNO
14756KACK ACK20160301214511403/01/16 21:45:31  5-MIN KACK 020245Z AUTO 13016KT 10SM CLR 06/01 A3000 -20 73 -1100 140/16 RMK AO2 T00560011 TSNO
14756KACK ACK20160301215012703/01/16 21:50:31  5-MIN KACK 020250Z AUTO 13016KT 10SM CLR 06/02 A3000 -20 76 -1100 140/16 RMK AO2 SLP159 T00560017 58007 TSNO
14756KACK ACK20160301215511403/01/16 21:55:31  5-MIN KACK 020255Z AUTO 13017KT 10SM CLR 06/01 A3000 -20 73 -1100 150/17 RMK AO2 T00560011 TSNO
14756KACK ACK20160301220011403/01/16 22:00:31  5-MIN KACK 020300Z AUTO 13016KT 10SM CLR 06/02 A3000 -10 76 -1100 140/16 RMK AO2 T00560017 TSNO
14756KACK ACK20160301220511403/01/16 22:05:31  5-MIN KACK 020305Z AUTO 13017KT 10SM CLR 06/02 A2999 -10 76 -1100 150/17 RMK AO2 T00560017 TSNO
14756KACK ACK20160301221011403/01/16 22:10:31  5-MIN KACK 020310Z AUTO 13017KT 10SM CLR 06/02 A2999 -10 76 -1100 150/17 RMK AO2 T00560017 TSNO
14756KACK ACK20160301221511203/01/16 22:15:31  5-MIN KACK 020315Z AUTO 13017KT 10SM CLR 06/02 A2998 0 76 -1100 140/17 RMK AO2 T00560017 TSNO
14756KACK ACK20160301222011203/01/16 22:20:31  5-MIN KACK 020320Z AUTO 13018KT 10SM CLR 06/02 A2998 0 73 -1000 140/18 RMK AO2 T00610017 TSNO
14756KACK ACK20160301222511203/01/16 22:25:31  5-MIN KACK 020325Z AUTO 13018KT 10SM CLR 06/02 A2997 0 73 -1000 140/18 RMK AO2 T00610017 TSNO
14756KACK ACK20160301223011303/01/16 22:30:31  5-MIN KACK 020330Z AUTO 13018KT 10SM CLR 06/02 A2997 10 76 -1000 140/18 RMK AO2 T00610022 TSNO
14756KACK ACK20160301223512003/01/16 22:35:31  5-MIN KACK 020335Z AUTO 13019KT 10SM CLR 06/02 A2996 10 76 -1000 140/19 RMK AO2 PRESFR T00610022 TSNO
14756KACK ACK20160301224011303/01/16 22:40:31  5-MIN KACK 020340Z AUTO 13018KT 10SM CLR 06/02 A2996 20 76 -1000 140/18 RMK AO2 T00610022 TSNO
14756KACK ACK20160301224512003/01/16 22:45:31  5-MIN KACK 020345Z AUTO 13020KT 10SM CLR 06/02 A2995 20 76 -1000 140/20 RMK AO2 PRESFR T00610022 TSNO
14756KACK ACK20160301225012603/01/16 22:50:31  5-MIN KACK 020350Z AUTO 13020KT 10SM CLR 06/02 A2994 30 76 -900 140/20 RMK AO2 PRESFR SLP139 T00610022 TSNO
14756KACK ACK20160301225511203/01/16 22:55:31  5-MIN KACK 020355Z AUTO 13018KT 10SM CLR 06/03 A2994 30 79 -900 140/18 RMK AO2 T00610028 TSNO
14756KACK ACK20160301230013003/01/16 23:00:31  5-MIN KACK 020400Z AUTO 13019KT 10SM CLR 06/03 A2993 40 79 -900 140/19 RMK AO2 PK WND 13026/0358 T00610028 TSNO
14756KACK ACK20160301230513603/01/16 23:05:31  5-MIN KACK 020405Z AUTO 13021G26KT 10SM CLR 07/03 A2994 30 76 -900 150/21G26 RMK AO2 PK WND 13026/0358 T00670028 TSNO
14756KACK ACK20160301231013303/01/16 23:10:31  5-MIN KACK 020410Z AUTO 13019KT 10SM FEW090 07/03 A2994 30 76 -900 140/19 RMK AO2 PK WND 13026/0358 T00670028 TSNO
14756KACK ACK20160301231513303/01/16 23:15:31  5-MIN KACK 020415Z AUTO 13020KT 10SM FEW090 07/03 A2994 30 76 -900 140/20 RMK AO2 PK WND 13026/0358 T00670028 TSNO
14756KACK ACK20160301232013903/01/16 23:20:31  5-MIN KACK 020420Z AUTO 13021G26KT 10SM FEW090 07/03 A2993 40 79 -900 150/21G26 RMK AO2 PK WND 13026/0420 T00670033 TSNO
14756KACK ACK20160301232513903/01/16 23:25:31  5-MIN KACK 020425Z AUTO 13022G26KT 10SM FEW090 07/03 A2992 50 79 -900 150/22G26 RMK AO2 PK WND 13026/0425 T00670033 TSNO
14756KACK ACK20160301233013303/01/16 23:30:31  5-MIN KACK 020430Z AUTO 13021KT 10SM FEW090 07/03 A2992 50 79 -900 150/21 RMK AO2 PK WND 13026/0425 T00670033 TSNO
14756KACK ACK20160301233513303/01/16 23:35:31  5-MIN KACK 020435Z AUTO 13022KT 10SM SCT095 07/03 A2992 50 76 -800 150/22 RMK AO2 PK WND 13027/0432 T00720033 TSNO
14756KACK ACK20160301234013303/01/16 23:40:31  5-MIN KACK 020440Z AUTO 13021KT 10SM BKN095 07/04 A2991 60 79 -800 150/21 RMK AO2 PK WND 14027/0437 T00720039 TSNO
14756KACK ACK20160301234513903/01/16 23:45:31  5-MIN KACK 020445Z AUTO 13022G30KT 10SM BKN095 07/04 A2991 60 79 -800 150/22G30 RMK AO2 PK WND 13030/0443 T00720039 TSNO
14756KACK ACK20160301235015603/01/16 23:50:31  5-MIN KACK 020450Z AUTO 13022G30KT 10SM BKN090 07/04 A2990 60 79 -800 150/22G30 RMK AO2 PK WND 13030/0443 SLP126 T00720039 400780044 TSNO
14756KACK ACK20160301235515303/01/16 23:55:31  5-MIN KACK 020455Z AUTO 13022G30KT 10SM BKN090 OVC110 07/04 A2990 70 79 -800 150/22G30 RMK AO2 PK WND 13030/0454 PRESFR T00720039 TSNO
14756KACK ACK20160302000012803/02/16 00:00:31  5-MIN KACK 020500Z AUTO 13020G30KT 10SM OVC090 07/04 A2989 80 79 -700 150/20G30 RMK AO2 PRESFR T00720039 TSNO
14756KACK ACK20160302000514603/02/16 00:05:31  5-MIN KACK 020505Z AUTO 13022G29KT 10SM OVC090 08/04 A2988 80 79 -700 150/22G29 RMK AO2 PK WND 13029/0502 PRESFR T00780044 TSNO
14756KACK ACK20160302001014703/02/16 00:10:31  5-MIN KACK 020510Z AUTO 13022KT 10SM BKN085 OVC110 08/04 A2988 90 79 -700 140/22 RMK AO2 PK WND 13029/0502 PRESFR T00780044 TSNO
14756KACK ACK20160302001514003/02/16 00:15:31  5-MIN KACK 020515Z AUTO 13021KT 9SM OVC085 08/04 A2987 100 79 -700 140/21 RMK AO2 PK WND 13029/0502 PRESFR T00780044 TSNO
14756KACK ACK20160302002014003/02/16 00:20:31  5-MIN KACK 020520Z AUTO 13023KT 9SM OVC085 08/05 A2986 100 82 -700 140/23 RMK AO2 PK WND 13029/0502 PRESFR T00780050 TSNO
14756KACK ACK20160302002514603/02/16 00:25:31  5-MIN KACK 020525Z AUTO 13023G30KT 9SM OVC085 08/05 A2985 110 82 -600 140/23G30 RMK AO2 PK WND 13030/0522 PRESFR T00780050 TSNO
14756KACK ACK20160302003013903/02/16 00:30:31  5-MIN KACK 020530Z AUTO 13022G30KT 9SM OVC080 08/05 A2985 110 82 -600 140/22G30 RMK AO2 PK WND 13030/0522 T00780050 TSNO
14756KACK ACK20160302003514603/02/16 00:35:31  5-MIN KACK 020535Z AUTO 13023G29KT 9SM OVC080 08/05 A2984 120 82 -600 140/23G29 RMK AO2 PK WND 13030/0522 PRESFR T00780050 TSNO
14756KACK ACK20160302004013903/02/16 00:40:31  5-MIN KACK 020540Z AUTO 13023G29KT 9SM OVC080 08/05 A2984 120 82 -600 150/23G29 RMK AO2 PK WND 13030/0522 T00780050 TSNO
14756KACK ACK20160302004516203/02/16 00:45:31  5-MIN KACK 020545Z AUTO 13023G31KT 8SM -RA OVC080 08/06 A2983 130 86 -600 140/23G31 RMK AO2 PK WND 13031/0543 RAB43 PRESFR P0000 T00780056 TSNO
14756KACK ACK20160302005019303/02/16 00:50:31  5-MIN KACK 020550Z AUTO 13022G31KT 8SM -RA OVC080 08/06 A2983 140 86 -600 140/22G31 RMK AO2 PK WND 13031/0543 RAB43 PRESFR SLP100 P0000 60000 T00780056 10078 20044 58035 TSNO
14756KACK ACK20160302005514303/02/16 00:55:31  5-MIN KACK 020555Z AUTO 13023KT 8SM -RA OVC080 08/06 A2982 140 86 -600 150/23 RMK AO2 PK WND 13029/0555 P0000 T00780056 TSNO
14756KACK ACK20160302010014703/02/16 01:00:31  5-MIN KACK 020600Z AUTO 13024KT 8SM OVC075 08/06 A2982 140 86 -600 150/24 RMK AO2 PK WND 13029/0557 RAE0558 P0000 T00780056 TSNO
14756KACK ACK20160302010515303/02/16 01:05:31  5-MIN KACK 020605Z AUTO 14022G29KT 8SM OVC075 08/06 A2983 130 86 -600 150/22G29 RMK AO2 PK WND 13029/0557 RAE0558 P0000 T00780056 TSNO
14756KACK ACK20160302011014703/02/16 01:10:31  5-MIN KACK 020610Z AUTO 14022KT 8SM OVC075 08/06 A2982 140 86 -500 150/22 RMK AO2 PK WND 13029/0557 RAE0558 P0000 T00830061 TSNO
14756KACK ACK20160302011514703/02/16 01:15:31  5-MIN KACK 020615Z AUTO 13022KT 8SM OVC075 08/06 A2982 140 86 -500 150/22 RMK AO2 PK WND 13029/0557 RAE0558 P0000 T00830061 TSNO
14756KACK ACK20160302012014703/02/16 01:20:31  5-MIN KACK 020620Z AUTO 14022KT 8SM OVC070 08/06 A2982 150 86 -500 150/22 RMK AO2 PK WND 13029/0557 RAE0558 P0000 T00830061 TSNO
14756KACK ACK20160302012514703/02/16 01:25:31  5-MIN KACK 020625Z AUTO 14022KT 8SM OVC070 08/06 A2981 150 86 -500 150/22 RMK AO2 PK WND 13029/0557 RAE0558 P0000 T00830061 TSNO
14756KACK ACK20160302013014703/02/16 01:30:31  5-MIN KACK 020630Z AUTO 14023KT 7SM OVC070 08/06 A2981 150 86 -500 160/23 RMK AO2 PK WND 13029/0557 RAE0558 P0000 T00830061 TSNO
14756KACK ACK20160302013516003/02/16 01:35:31  5-MIN KACK 020635Z AUTO 14022G29KT 7SM -RA OVC070 08/06 A2980 160 86 -500 150/22G29 RMK AO2 PK WND 13029/0557 RAE0558B33 P0000 T00830061 TSNO
14756KACK ACK20160302014016703/02/16 01:40:31  5-MIN KACK 020640Z AUTO 14020G29KT 7SM -RA SCT060 OVC070 08/06 A2980 160 86 -500 150/20G29 RMK AO2 PK WND 13029/0557 RAE0558B33 P0000 T00830061 TSNO
14756KACK ACK20160302014516803/02/16 01:45:31  5-MIN KACK 020645Z AUTO 14020KT 7SM -RA SCT060 OVC070 08/06 A2979 170 86 -500 150/20 RMK AO2 PK WND 13029/0557 RAE0558B33 PRESFR P0000 T00830061 TSNO
14756KACK ACK20160302015017503/02/16 01:50:31  5-MIN KACK 020650Z AUTO 14021KT 7SM -RA BKN060 OVC075 08/06 A2978 180 86 -500 150/21 RMK AO2 PK WND 13029/0557 RAE0558B33 PRESFR SLP085 P0000 T00830061 TSNO
14756KACK ACK20160302015514803/02/16 01:55:31  5-MIN KACK 020655Z AUTO 14021G27KT 6SM -RA BR FEW050 BKN060 OVC075 08/06 A2978 180 86 -500 160/21G27 RMK AO2 P0000 T00830061 TSNO
14756KACK ACK20160302020016603/02/16 02:00:31  5-MIN KACK 020700Z AUTO 14022G27KT 4SM -RA BR FEW041 BKN060 OVC070 08/07 A2977 190 89 -500 150/22G27 RMK AO2 PK WND 14027/0658 P0001 T00830067 TSNO
14756KACK ACK20160302020516603/02/16 02:05:31  5-MIN KACK 020705Z AUTO 14022G29KT 4SM -RA BR FEW041 SCT050 OVC065 08/07 A2977 190 89 -500 160/22G29 RMK AO2 PK WND 14029/0703 P0001 T00830067 TSNO
14756KACK ACK20160302021016503/02/16 02:10:31  5-MIN KACK 020710Z AUTO 14021G30KT 3SM RA BR FEW029 BKN055 OVC070 08/07 A2977 190 89 -500 160/21G30 RMK AO2 PK WND 14030/0707 P0003 T00830067 TSNO
14756KACK ACK20160302021516503/02/16 02:15:31  5-MIN KACK 020715Z AUTO 14019G30KT 3SM RA BR FEW029 BKN041 OVC070 08/07 A2976 200 89 -500 160/19G30 RMK AO2 PK WND 14030/0707 P0004 T00830067 TSNO
14756KACK ACK20160302022016603/02/16 02:20:31  5-MIN KACK 020720Z AUTO 14020G28KT 4SM -RA BR FEW028 BKN039 OVC070 08/07 A2975 200 89 -500 160/20G28 RMK AO2 PK WND 14030/0707 P0005 T00830067 TSNO
14756KACK ACK20160302022517303/02/16 02:25:31  5-MIN KACK 020725Z AUTO 14020G28KT 4SM -RA BR SCT032 BKN041 OVC065 08/07 A2975 210 89 -400 150/20G28 RMK AO2 PK WND 14030/0707 PRESFR P0006 T00830067 TSNO
14756KACK ACK20160302023016703/02/16 02:30:31  5-MIN KACK 020730Z AUTO 14019KT 4SM -RA BR SCT032 BKN040 OVC050 08/07 A2974 220 89 -400 160/19 RMK AO2 PK WND 14030/0707 PRESFR P0006 T00830067 TSNO
14756KACK ACK20160302023517303/02/16 02:35:31  5-MIN KACK 020735Z AUTO 14022G27KT 6SM -RA BR BKN035 BKN042 OVC050 09/07 A2973 220 89 -400 150/22G27 RMK AO2 PK WND 14030/0707 PRESFR P0006 T00890072 TSNO
14756KACK ACK20160302024016003/02/16 02:40:31  5-MIN KACK 020740Z AUTO 14020KT 5SM -RA BR BKN035 BKN042 OVC050 09/07 A2973 230 86 -400 160/20 RMK AO2 PK WND 14030/0707 P0006 T00890067 TSNO
14756KACK ACK20160302024516703/02/16 02:45:31  5-MIN KACK 020745Z AUTO 14021KT 4SM -RA BR SCT032 BKN039 OVC060 09/07 A2972 240 86 -400 150/21 RMK AO2 PK WND 14030/0707 PRESFR P0007 T00890067 TSNO
14756KACK ACK20160302025017303/02/16 02:50:31  5-MIN KACK 020750Z AUTO 14020G26KT 4SM -RA BR SCT033 BKN040 OVC060 09/07 A2972 240 89 -300 160/20G26 RMK AO2 PK WND 14030/0707 SLP063 P0008 T00890072 TSNO
14756KACK ACK20160302025516503/02/16 02:55:31  5-MIN KACK 020755Z AUTO 14023G29KT 4SM RA BR BKN035 BKN050 OVC060 09/07 A2971 240 89 -300 150/23G29 RMK AO2 PK WND 14028/0755 P0000 T00890072 TSNO
14756KACK ACK20160302030015903/02/16 03:00:31  5-MIN KACK 020800Z AUTO 14021KT 3SM RA BR BKN035 BKN047 OVC055 09/07 A2971 250 89 -300 150/21 RMK AO2 PK WND 14028/0755 P0002 T00890072 TSNO
14756KACK ACK20160302030516303/02/16 03:05:31  5-MIN KACK 020805Z AUTO 14020KT 2 1/2SM RA BR SCT030 BKN038 OVC065 09/07 A2971 250 89 -300 160/20 RMK AO2 PK WND 14028/0755 P0005 T00890072 TSNO
14756KACK ACK20160302031016003/02/16 03:10:31  5-MIN KACK 020810Z AUTO 14018KT 3SM -RA BR BKN030 BKN035 OVC060 09/07 A2970 250 89 -300 160/18 RMK AO2 PK WND 14028/0755 P0005 T00890072 TSNO
14756KACK ACK20160302031516603/02/16 03:15:31  5-MIN KACK 020815Z AUTO 15020G25KT 4SM -RA BR BKN028 BKN035 OVC046 09/07 A2970 250 89 -300 160/20G25 RMK AO2 PK WND 14028/0755 P0005 T00890072 TSNO
14756KACK ACK20160302032017503/02/16 03:20:31  5-MIN KACK 020820Z AUTO 14026G30KT 5SM BR BKN028 BKN037 OVC046 09/07 A2969 270 89 -300 150/26G30 RMK AO2 PK WND 14030/0818 RAE17 PRESFR P0005 T00890072 TSNO
14756KACK ACK20160302032516803/02/16 03:25:31  5-MIN KACK 020825Z AUTO 14024G30KT 6SM BR BKN029 BKN039 OVC046 09/07 A2968 270 86 -200 160/24G30 RMK AO2 PK WND 14030/0818 RAE17 P0005 T00940072 TSNO
14756KACK ACK20160302033017503/02/16 03:30:31  5-MIN KACK 020830Z AUTO 14022G30KT 6SM -RA BR BKN029 BKN040 OVC060 09/08 A2968 270 89 -200 160/22G30 RMK AO2 PK WND 14030/0818 RAE17B29 P0005 T00940078 TSNO
14756KACK ACK20160302033517503/02/16 03:35:31  5-MIN KACK 020835Z AUTO 15025G31KT 5SM -RA BR SCT027 BKN038 OVC080 09/08 A2968 270 89 -200 160/25G31 RMK AO2 PK WND 14031/0834 RAE17B29 P0005 T00940078 TSNO
14756KACK ACK20160302034017503/02/16 03:40:31  5-MIN KACK 020840Z AUTO 15025G31KT 5SM -RA BR FEW031 BKN045 OVC075 09/08 A2967 280 89 -200 160/25G31 RMK AO2 PK WND 15031/0840 RAE17B29 P0005 T00940078 TSNO
14756KACK ACK20160302034517403/02/16 03:45:31  5-MIN KACK 020845Z AUTO 15025G31KT 5SM BR FEW028 BKN050 OVC075 10/08 A2966 290 89 -200 160/25G31 RMK AO2 PK WND 14032/0842 RAE17B29E44 P0005 T01000083 TSNO
14756KACK ACK20160302035019403/02/16 03:50:31  5-MIN KACK 020850Z AUTO 15023KT 5SM BR FEW025 BKN065 OVC080 09/08 A2966 290 89 -200 160/23 RMK AO2 PK WND 14032/0842 RAE17B29E44 PRESFR SLP043 P0005 60014 T00940078 58059 TSNO
14756KACK ACK20160302035515603/02/16 03:55:31  5-MIN KACK 020855Z AUTO 15024G30KT 5SM BR SCT041 BKN065 OVC080 09/08 A2966 290 89 -200 160/24G30 RMK AO2 PK WND 15029/0855 T00940078 TSNO
14756KACK ACK20160302040015603/02/16 04:00:31  5-MIN KACK 020900Z AUTO 15022G29KT 5SM BR FEW004 BKN046 OVC075 09/08 A2966 290 93 -200 170/22G29 RMK AO2 PK WND 15029/0855 T00940083 TSNO
14756KACK ACK20160302040515003/02/16 04:05:31  5-MIN KACK 020905Z AUTO 16022KT 4SM BR FEW004 BKN040 OVC075 09/08 A2966 290 93 -200 170/22 RMK AO2 PK WND 15029/0855 T00940083 TSNO
14756KACK ACK20160302041015603/02/16 04:10:31  5-MIN KACK 020910Z AUTO 15023G28KT 4SM BR SCT027 BKN040 OVC090 10/08 A2966 290 89 -100 170/23G28 RMK AO2 PK WND 15029/0855 T01000083 TSNO
14756KACK ACK20160302041517203/02/16 04:15:31  5-MIN KACK 020915Z AUTO 16021G30KT 5SM -RA BR FEW010 BKN032 OVC090 11/09 A2965 300 89 -100 170/21G30 RMK AO2 PK WND 16030/0911 RAB11 P0000 T01060089 TSNO
14756KACK ACK20160302042017903/02/16 04:20:31  5-MIN KACK 020920Z AUTO 16022G30KT 5SM -RA BR FEW009 BKN027 OVC090 11/09 A2964 310 89 -100 170/22G30 RMK AO2 PK WND 16030/0911 RAB11 PRESFR P0000 T01060089 TSNO
14756KACK ACK20160302042517803/02/16 04:25:31  5-MIN KACK 020925Z AUTO 16020G27KT 5SM BR FEW021 BKN029 OVC110 11/09 A2964 310 93 -100 170/20G27 RMK AO2 PK WND 16030/0911 RAB11E22 PRESFR P0000 T01060094 TSNO
14756KACK ACK20160302043016503/02/16 04:30:31  5-MIN KACK 020930Z AUTO 16019KT 4SM BR FEW020 SCT029 BKN090 10/09 A2964 310 93 -100 170/19 RMK AO2 PK WND 16030/0911 RAB11E22 P0000 T01000089 TSNO
14756KACK ACK20160302043516503/02/16 04:35:31  5-MIN KACK 020935Z AUTO 16019KT 4SM BR FEW021 SCT090 BKN110 10/09 A2964 310 93 -100 180/19 RMK AO2 PK WND 16030/0911 RAB11E22 P0000 T01000089 TSNO
14756KACK ACK20160302044016503/02/16 04:40:31  5-MIN KACK 020940Z AUTO 16020KT 4SM BR FEW026 FEW090 SCT110 10/09 A2963 320 93 -100 170/20 RMK AO2 PK WND 16030/0911 RAB11E22 P0000 T01000089 TSNO
14756KACK ACK20160302044516503/02/16 04:45:31  5-MIN KACK 020945Z AUTO 16021KT 5SM BR FEW014 SCT090 SCT110 10/09 A2962 320 93 -100 170/21 RMK AO2 PK WND 16030/0911 RAB11E22 P0001 T01000089 TSNO
14756KACK ACK20160302045017203/02/16 04:50:31  5-MIN KACK 020950Z AUTO 15020KT 5SM BR FEW010 SCT014 SCT110 10/09 A2962 330 93 -100 170/20 RMK AO2 PK WND 16030/0911 RAB11E22 SLP029 P0001 T01000089 TSNO
14756KACK ACK20160302045511803/02/16 04:55:31  5-MIN KACK 020955Z AUTO 16020KT 5SM BR BKN010 10/09 A2961 330 93 -100 170/20 RMK AO2 T01000089 TSNO
14756KACK ACK20160302050013603/02/16 05:00:31  5-MIN KACK 021000Z AUTO 16021KT 5SM BR BKN010 10/09 A2961 340 93 -100 170/21 RMK AO2 PK WND 16026/0959 T01000089 TSNO
14756KACK ACK20160302050514503/02/16 05:05:31  5-MIN KACK 021005Z AUTO 16021KT 5SM BR BKN009 11/09 A2961 340 93 0 180/21 RMK AO2 PK WND 16027/1002 CIG 008V013 T01060094 TSNO
14756KACK ACK20160302051013303/02/16 05:10:31  5-MIN KACK 021010Z AUTO 16021KT 5SM BR OVC011 11/09 A2960 350 93 0 180/21 RMK AO2 PK WND 16027/1002 T01060094 TSNO
14756KACK ACK20160302051513303/02/16 05:15:31  5-MIN KACK 021015Z AUTO 16020KT 5SM BR OVC011 11/09 A2960 350 93 0 180/20 RMK AO2 PK WND 16027/1002 T01060094 TSNO
14756KACK ACK20160302052013603/02/16 05:20:31  5-MIN KACK 021020Z AUTO 16020KT 4SM BR OVC011 10/09 A2960 350 93 -100 180/20 RMK AO2 PK WND 16027/1002 T01000089 TSNO
14756KACK ACK20160302052513603/02/16 05:25:31  5-MIN KACK 021025Z AUTO 16020KT 4SM BR OVC011 10/09 A2960 350 93 -100 180/20 RMK AO2 PK WND 16027/1002 T01000089 TSNO
14756KACK ACK20160302053013603/02/16 05:30:31  5-MIN KACK 021030Z AUTO 16021KT 4SM BR OVC011 10/09 A2959 360 93 -100 180/21 RMK AO2 PK WND 16027/1002 T01000089 TSNO
14756KACK ACK20160302053513603/02/16 05:35:31  5-MIN KACK 021035Z AUTO 16021KT 4SM BR OVC011 10/09 A2959 360 93 -100 180/21 RMK AO2 PK WND 16027/1002 T01000089 TSNO
14756KACK ACK20160302054014303/02/16 05:40:31  5-MIN KACK 021040Z AUTO 16021KT 4SM BR BKN011 OVC110 10/09 A2958 360 93 -100 180/21 RMK AO2 PK WND 16027/1002 T01000089 TSNO
14756KACK ACK20160302054515003/02/16 05:45:31  5-MIN KACK 021045Z AUTO 16021KT 4SM BR BKN011 BKN090 OVC110 10/09 A2958 370 93 -100 180/21 RMK AO2 PK WND 16027/1002 T01000089 TSNO
14756KACK ACK20160302055013703/02/16 05:50:31  5-MIN KACK 021050Z AUTO 16021KT 4SM BR SCT011 OVC090 10/09 A2957 370 93 0 180/21 RMK AO2 PK WND 16027/1002 PRESFR TSNO
14756KACK ACK20160302055511203/02/16 05:55:31  5-MIN KACK 021055Z 16021KT 4SM BR SCT009 OVC090 11/09 A2957 380 89 0 180/21 RMK AO2 T01060089
14756KACK ACK20160302060013703/02/16 06:00:31  5-MIN KACK 021100Z 16021KT 4SM BR SCT009 BKN090 OVC110 10/09 A2956 380 93 0 180/21 RMK AO2 PK WND 16027/1056 T01000089
14756KACK ACK20160302060514303/02/16 06:05:31  5-MIN KACK 021105Z 17020G28KT 4SM BR FEW009 BKN090 OVC110 11/09 A2956 390 89 0 180/20G28 RMK AO2 PK WND 16028/1101 T01060089
14756KACK ACK20160302061014303/02/16 06:10:31  5-MIN KACK 021110Z 17020G28KT 4SM BR FEW009 SCT090 OVC110 10/09 A2956 390 93 0 180/20G28 RMK AO2 PK WND 16028/1101 T01000089
14756KACK ACK20160302061513703/02/16 06:15:31  5-MIN KACK 021115Z 17020KT 4SM BR FEW009 BKN090 OVC110 10/09 A2955 390 93 0 180/20 RMK AO2 PK WND 16028/1101 T01000089
14756KACK ACK20160302062014303/02/16 06:20:31  5-MIN KACK 021120Z 17021G28KT 4SM BR FEW009 SCT090 OVC110 11/09 A2955 400 89 0 180/21G28 RMK AO2 PK WND 16028/1101 T01060089
14756KACK ACK20160302062513603/02/16 06:25:31  5-MIN KACK 021125Z 17018G28KT 4SM BR FEW090 OVC110 11/09 A2954 400 89 0 190/18G28 RMK AO2 PK WND 16028/1101 T01060089
14756KACK ACK20160302063013603/02/16 06:30:31  5-MIN KACK 021130Z 17020G27KT 3SM BR FEW090 OVC110 11/09 A2954 400 93 0 180/20G27 RMK AO2 PK WND 16028/1101 T01060094
14756KACK ACK20160302063513003/02/16 06:35:31  5-MIN KACK 021135Z 17021KT 3SM BR FEW090 OVC110 11/09 A2954 400 89 0 190/21 RMK AO2 PK WND 16028/1101 T01060089
14756KACK ACK20160302064013003/02/16 06:40:31  5-MIN KACK 021140Z 17021KT 4SM BR FEW090 OVC110 11/09 A2954 400 89 0 190/21 RMK AO2 PK WND 16028/1101 T01060089
14756KACK ACK20160302064512303/02/16 06:45:31  5-MIN KACK 021145Z 17020KT 4SM BR OVC100 11/09 A2954 400 89 0 190/20 RMK AO2 PK WND 16028/1101 T01060089
14756KACK ACK20160302065016003/02/16 06:50:31  5-MIN KACK 021150Z 17022KT 4SM BR OVC100 11/09 A2954 400 89 0 190/22 RMK AO2 PK WND 16028/1101 SLP004 60015 70015 T01060089 10106 20078 58055
14756KACK ACK20160302065513103/02/16 06:55:31  5-MIN KACK 021155Z 18022G30KT 4SM BR OVC100 11/09 A2954 410 89 100 190/22G30 RMK AO2 PK WND 18030/1154 T01110094
14756KACK ACK20160302070013103/02/16 07:00:31  5-MIN KACK 021200Z 18022G30KT 4SM BR OVC100 11/09 A2954 400 89 100 190/22G30 RMK AO2 PK WND 18030/1156 T01110094
14756KACK ACK20160302070513103/02/16 07:05:31  5-MIN KACK 021205Z 18022G30KT 5SM BR OVC110 11/09 A2954 410 89 100 190/22G30 RMK AO2 PK WND 18030/1156 T01110094
14756KACK ACK20160302071013103/02/16 07:10:31  5-MIN KACK 021210Z 18019G29KT 5SM BR OVC110 11/09 A2954 410 89 100 190/19G29 RMK AO2 PK WND 18030/1156 T01110094
14756KACK ACK20160302071513103/02/16 07:15:31  5-MIN KACK 021215Z 18022G28KT 4SM BR BKN110 11/09 A2954 400 86 100 190/22G28 RMK AO2 PK WND 18030/1156 T01110089
14756KACK ACK20160302072013103/02/16 07:20:31  5-MIN KACK 021220Z 18022G27KT 4SM BR BKN110 11/09 A2954 400 89 100 200/22G27 RMK AO2 PK WND 18030/1156 T01110094
14756KACK ACK20160302072513103/02/16 07:25:31  5-MIN KACK 021225Z 18022G28KT 4SM BR SCT110 11/09 A2954 400 89 100 190/22G28 RMK AO2 PK WND 18030/1156 T01110094
14756KACK ACK20160302073013103/02/16 07:30:31  5-MIN KACK 021230Z 18019G28KT 4SM BR SCT110 11/09 A2954 400 89 100 190/19G28 RMK AO2 PK WND 18030/1156 T01110094
14756KACK ACK20160302073512903/02/16 07:35:31  5-MIN KACK 021235Z 18020G28KT 4SM BR FEW120 11/09 A2954 400 89 0 190/20G28 RMK AO2 PK WND 18030/1156 T01060089
14756KACK ACK20160302074013803/02/16 07:40:31  5-MIN KACK 021240Z 18021G28KT 4SM BR FEW055 FEW120 11/09 A2954 400 86 100 190/21G28 RMK AO2 PK WND 18030/1156 T01110089
14756KACK ACK20160302074513803/02/16 07:45:31  5-MIN KACK 021245Z 18020G29KT 4SM BR SCT055 SCT120 11/09 A2954 400 89 100 200/20G29 RMK AO2 PK WND 18030/1156 T01110094
14756KACK ACK20160302075014503/02/16 07:50:31  5-MIN KACK 021250Z 18021G29KT 4SM BR SCT055 SCT120 11/09 A2954 400 89 100 200/21G29 RMK AO2 PK WND 18030/1156 SLP002 T01110094
14756KACK ACK20160302075511403/02/16 07:55:31  5-MIN KACK 021255Z 18019KT 4SM BR FEW036 BKN055 11/09 A2954 400 89 100 190/19 RMK AO2 T01110094
14756KACK ACK20160302080012703/02/16 08:00:31  5-MIN KACK 021300Z 18019G27KT 4SM BR FEW030 SCT036 BKN055 11/09 A2954 410 89 100 190/19G27 RMK AO2 T01110094
14756KACK ACK20160302080514303/02/16 08:05:31  5-MIN KACK 021305Z 18020G27KT 3SM BR SCT030 BKN036 BKN055 11/09 A2953 410 89 0 190/20G27 RMK AO2 PK WND 18027/1304 T01060089
14756KACK ACK20160302081014303/02/16 08:10:31  5-MIN KACK 021310Z 18019G27KT 3SM BR BKN030 BKN036 OVC055 11/09 A2953 410 89 0 200/19G27 RMK AO2 PK WND 18027/1304 T01060089
14756KACK ACK20160302081513003/02/16 08:15:31  5-MIN KACK 021315Z 18020KT 3SM BR BKN030 OVC036 11/09 A2953 410 89 0 200/20 RMK AO2 PK WND 18027/1304 T01060089
14756KACK ACK20160302082013003/02/16 08:20:31  5-MIN KACK 021320Z 19019KT 3SM BR BKN030 OVC036 11/09 A2953 410 89 0 200/19 RMK AO2 PK WND 18027/1304 T01060089
14756KACK ACK20160302082512303/02/16 08:25:31  5-MIN KACK 021325Z 19018KT 3SM BR OVC030 11/09 A2953 410 89 0 200/18 RMK AO2 PK WND 18027/1304 T01060089
14756KACK ACK20160302083012303/02/16 08:30:31  5-MIN KACK 021330Z 19018KT 3SM BR OVC030 11/09 A2953 410 89 0 200/18 RMK AO2 PK WND 18027/1304 T01060089
14756KACK ACK20160302083512903/02/16 08:35:31  5-MIN KACK 021335Z 19018G26KT 3SM BR OVC030 10/09 A2953 410 93 0 200/18G26 RMK AO2 PK WND 18027/1304 T01000089
14756KACK ACK20160302084012903/02/16 08:40:31  5-MIN KACK 021340Z 19019G26KT 3SM BR OVC028 11/09 A2953 410 89 0 200/19G26 RMK AO2 PK WND 18027/1304 T01060089
14756KACK ACK20160302084512903/02/16 08:45:31  5-MIN KACK 021345Z 19019G26KT 3SM BR OVC028 10/09 A2953 410 93 0 210/19G26 RMK AO2 PK WND 18027/1304 T01000089
14756KACK ACK20160302085015203/02/16 08:50:31  5-MIN KACK 021350Z 20017KT 3SM RA BR FEW016 OVC028 10/08 A2953 410 89 0 210/17 RMK AO2 PK WND 18027/1304 RAB47 SLP001 P0000 T01000083
14756KACK ACK20160302085512203/02/16 08:55:31  5-MIN KACK 021355Z 20019KT 3SM -RA BR FEW016 OVC026 10/08 A2954 410 89 0 220/19 RMK AO2 P0000 T01000083
14756KACK ACK20160302090012803/02/16 09:00:31  5-MIN KACK 021400Z 20018G25KT 3SM -RA BR SCT020 OVC026 10/08 A2954 400 89 0 220/18G25 RMK AO2 P0000 T01000083
14756KACK ACK20160302090514603/02/16 09:05:31  5-MIN KACK 021405Z 22023G30KT 3SM -RA BR BKN020 OVC026 11/09 A2954 400 89 0 230/23G30 RMK AO2 PK WND 22030/1405 P0000 T01060089
14756KACK ACK20160302091015503/02/16 09:10:31  5-MIN KACK 021410Z 22023G31KT 3SM -RA BR FEW013 BKN019 OVC026 11/09 A2955 390 89 100 230/23G31 RMK AO2 PK WND 22031/1406 P0001 T01110094
14756KACK ACK20160302091518103/02/16 09:15:31  5-MIN KACK 021415Z 22022G31KT 1 1/2SM R24/6000VP6000FT -RA BR FEW010 BKN014 OVC019 11/09 A2956 380 93 0 240/22G31 RMK AO2 PK WND 22031/1406 PRESRR P0001 T01060094
14756KACK ACK20160302092017403/02/16 09:20:31  5-MIN KACK 021420Z 22020G29KT 1 3/4SM R24/5500VP6000FT -RA BR FEW008 BKN013 OVC024 10/09 A2956 380 93 0 240/20G29 RMK AO2 PK WND 22031/1406 P0002 T01000089
14756KACK ACK20160302092517703/02/16 09:25:31  5-MIN KACK 021425Z 23016G26KT 1 3/4SM R24/5500VP6000FT -RA BR FEW008 BKN013 OVC024 09/08 A2956 380 93 -100 250/16G26 RMK AO2 PK WND 22031/1406 P0002 T00940083
14756KACK ACK20160302093015403/02/16 09:30:31  5-MIN KACK 021430Z 23015KT 1 3/4SM -RA BR FEW008 BKN013 OVC024 09/08 A2956 380 93 -100 250/15 RMK AO2 PK WND 22031/1406 P0002 T00940083
14756KACK ACK20160302093515603/02/16 09:35:31  5-MIN KACK 021435Z 23013KT 1 3/4SM BR FEW008 BKN013 OVC024 09/08 A2956 390 93 -200 250/13 RMK AO2 PK WND 22031/1406 RAE35 P0002 T00890078
14756KACK ACK20160302094015403/02/16 09:40:31  5-MIN KACK 021440Z 24014KT 1 3/4SM -RA BR FEW008 BKN013 OVC024 09/08 A2956 380 93 -200 250/14 RMK AO2 PK WND 22031/1406 P0002 T00890078
14756KACK ACK20160302094517003/02/16 09:45:31  5-MIN KACK 021445Z 24013KT 1 3/4SM R24/5500VP6000FT RA BR FEW008 BKN013 OVC024 09/08 A2956 390 93 -200 260/13 RMK AO2 PK WND 22031/1406 P0004 T00890078
14756KACK ACK20160302095016003/02/16 09:50:31  5-MIN KACK 021450Z 24012KT 1 1/4SM R24/5500VP6000FT RA BR SCT008 SCT017 OVC032 09/08 A2956 380 93 -200 250/12 RMK AO2 PK WND 22031/1406 P0006
14756KACK ACK20160302095515303/02/16 09:55:31  5-MIN KACK 021455Z 24011KT 1 1/4SM R24/5500VP6000FT +RA BR SCT008 SCT017 OVC032 09/08 A2956 380 93 -200 260/11 RMK AO2 P0001 T00890078
14756KACK ACK20160302100015203/02/16 10:00:31  5-MIN KACK 021500Z 24011KT 1 1/4SM R24/5500VP6000FT RA BR SCT008 SCT017 OVC032 09/08 A2956 390 93 -200 250/11 RMK AO2 P0002 T00890078
14756KACK ACK20160302100515203/02/16 10:05:31  5-MIN KACK 021505Z 25010KT 1 1/4SM R24/6000VP6000FT RA BR SCT008 SCT017 OVC032 08/08 A2955 390 96 -200 260/10 RMK AO2 P0002 T00830078
14756KACK ACK20160302101013503/02/16 10:10:31  5-MIN KACK 021510Z 25011KT 1 1/2SM RA BR SCT008 SCT017 OVC032 09/08 A2955 400 93 -200 260/11 RMK AO2 P0003 T00890078
14756KACK ACK20160302101513503/02/16 10:15:31  5-MIN KACK 021515Z 25010KT 1 3/4SM RA BR SCT008 SCT017 OVC032 09/08 A2955 400 93 -200 260/10 RMK AO2 P0004 T00890078
14756KACK ACK20160302102013603/02/16 10:20:31  5-MIN KACK 021520Z 25012KT 1 1/4SM -RA BR SCT008 SCT017 OVC032 09/07 A2955 390 89 -200 270/12 RMK AO2 P0004 T00890072
14756KACK ACK20160302102513503/02/16 10:25:31  5-MIN KACK 021525Z 25013KT 2 1/2SM RA BR SCT005 SCT050 OVC075 09/07 A2955 400 89 -200 270/13 RMK AO2 P0005 T00890072
14756KACK ACK20160302103013203/02/16 10:30:31  5-MIN KACK 021530Z 25012KT 3SM -RA BR FEW005 BKN050 OVC075 09/07 A2955 390 89 -200 270/12 RMK AO2 P0005 T00890072
14756KACK ACK20160302103513203/02/16 10:35:31  5-MIN KACK 021535Z 25012KT 4SM -RA BR FEW005 BKN041 OVC075 09/08 A2955 390 93 -200 260/12 RMK AO2 P0005 T00890078
14756KACK ACK20160302104013403/02/16 10:40:31  5-MIN KACK 021540Z 24011KT 3SM BR FEW007 BKN041 OVC075 09/07 A2955 390 89 -200 250/11 RMK AO2 RAE36 P0005 T00890072
14756KACK ACK20160302104513203/02/16 10:45:31  5-MIN KACK 021545Z 24012KT 3SM -RA BR FEW031 BKN041 OVC075 08/07 A2955 390 93 -200 250/12 RMK AO2 P0005 T00830072
14756KACK ACK20160302105013503/02/16 10:50:31  5-MIN KACK 021550Z 24011KT 1 1/2SM R24/5500VP6000FT RA BR BKN006 OVC041 08/07 A2955 390 93 -300 250/11 RMK AO2 P0006
14756KACK ACK20160302105514503/02/16 10:55:31  5-MIN KACK 021555Z 24011KT 1 3/4SM R24/5500VP6000FT RA BR BKN006 OVC041 08/07 A2955 400 93 -300 260/11 RMK AO2 P0000 T00780067
14756KACK ACK20160302110014503/02/16 11:00:31  5-MIN KACK 021600Z 23009KT 1 3/4SM R24/5500VP6000FT RA BR BKN006 OVC041 08/07 A2954 400 89 -200 250/09 RMK AO2 P0001 T00830067
14756KACK ACK20160302110512903/02/16 11:05:31  5-MIN KACK 021605Z 24009KT 1 3/4SM -RA BR BKN006 OVC041 08/07 A2954 400 93 -200 250/09 RMK AO2 P0001 T00830072
14756KACK ACK20160302111012903/02/16 11:10:31  5-MIN KACK 021610Z 23010KT 1 3/4SM -RA BR BKN006 OVC041 08/07 A2954 400 93 -200 250/10 RMK AO2 P0001 T00830072
14756KACK ACK20160302111512903/02/16 11:15:31  5-MIN KACK 021615Z 23010KT 1 3/4SM -RA BR BKN006 OVC041 08/07 A2955 400 89 -200 240/10 RMK AO2 P0001 T00830067
14756KACK ACK20160302112012903/02/16 11:20:31  5-MIN KACK 021620Z 23010KT 1 3/4SM -RA BR BKN006 OVC041 08/07 A2955 390 93 -300 240/10 RMK AO2 P0002 T00780067
14756KACK ACK20160302112512903/02/16 11:25:31  5-MIN KACK 021625Z 22010KT 1 3/4SM -RA BR BKN006 OVC041 08/07 A2955 390 93 -300 240/10 RMK AO2 P0002 T00780067
14756KACK ACK20160302113012903/02/16 11:30:31  5-MIN KACK 021630Z 22011KT 1 3/4SM -RA BR BKN006 OVC041 08/07 A2955 390 89 -200 240/11 RMK AO2 P0002 T00830067
14756KACK ACK20160302113512903/02/16 11:35:31  5-MIN KACK 021635Z 22011KT 1 3/4SM -RA BR BKN006 OVC041 08/07 A2955 390 93 -300 230/11 RMK AO2 P0002 T00780067
14756KACK ACK20160302114012903/02/16 11:40:31  5-MIN KACK 021640Z 22012KT 1 3/4SM -RA BR BKN006 OVC041 08/07 A2955 400 89 -200 230/12 RMK AO2 P0002 T00830067
14756KACK ACK20160302114513103/02/16 11:45:31  5-MIN KACK 021645Z 21012KT 1 3/4SM BR BKN006 OVC041 08/07 A2955 400 93 -200 230/12 RMK AO2 RAE42 P0002 T00830072
14756KACK ACK20160302115011703/02/16 11:50:31  5-MIN KACK 021650Z 21012KT 3SM BR BKN004 OVC090 08/07 A2955 400 93 -200 230/12 RMK AO2 RAE42 P0002
14756KACK ACK20160302115511503/02/16 11:55:31  5-MIN KACK 021655Z 21013KT 3SM BR BKN004 OVC090 08/07 A2955 400 89 -200 230/13 RMK AO2 T00830067
14756KACK ACK20160302120011503/02/16 12:00:31  5-MIN KACK 021700Z 22014KT 3SM BR BKN004 OVC090 08/07 A2954 400 89 -200 230/14 RMK AO2 T00830067
14756KACK ACK20160302120511503/02/16 12:05:31  5-MIN KACK 021705Z 23014KT 3SM BR BKN004 OVC090 08/07 A2954 400 89 -200 240/14 RMK AO2 T00830067
14756KACK ACK20160302121011503/02/16 12:10:31  5-MIN KACK 021710Z 23016KT 3SM BR BKN004 OVC090 08/07 A2953 410 93 -200 250/16 RMK AO2 T00830072
14756KACK ACK20160302121511503/02/16 12:15:31  5-MIN KACK 021715Z 23015KT 3SM BR BKN004 OVC090 08/07 A2953 410 93 -200 250/15 RMK AO2 T00830072
14756KACK ACK20160302122011503/02/16 12:20:31  5-MIN KACK 021720Z 24015KT 3SM BR BKN004 OVC090 08/07 A2953 420 89 -200 250/15 RMK AO2 T00830067
14756KACK ACK20160302122511503/02/16 12:25:31  5-MIN KACK 021725Z 24016KT 3SM BR BKN004 OVC090 08/07 A2952 420 89 -200 250/16 RMK AO2 T00830067
14756KACK ACK20160302123011503/02/16 12:30:31  5-MIN KACK 021730Z 24015KT 3SM BR BKN004 OVC090 08/07 A2952 420 89 -200 250/15 RMK AO2 T00830067
14756KACK ACK20160302123511503/02/16 12:35:31  5-MIN KACK 021735Z 24013KT 3SM BR BKN004 OVC090 08/07 A2952 420 89 -200 260/13 RMK AO2 T00830067
14756KACK ACK20160302124011503/02/16 12:40:31  5-MIN KACK 021740Z 24014KT 3SM BR BKN004 OVC090 08/07 A2952 420 89 -200 260/14 RMK AO2 T00830067
14756KACK ACK20160302124511503/02/16 12:45:31  5-MIN KACK 021745Z 24014KT 3SM BR BKN004 OVC090 08/07 A2952 420 89 -200 260/14 RMK AO2 T00830067
14756KACK ACK20160302125010503/02/16 12:50:31  5-MIN KACK 021750Z 25016KT 4SM BR FEW004 OVC100 08/07 A2952 420 89 -200 260/16 RMK AO2
14756KACK ACK20160302125510803/02/16 12:55:31  5-MIN KACK 021755Z 25016KT 6SM BR BKN100 08/06 A2952 420 86 -200 260/16 RMK AO2 T00830061
14756KACK ACK20160302130010503/02/16 13:00:31  5-MIN KACK 021800Z 25015KT 7SM BKN100 08/06 A2952 420 86 -200 270/15 RMK AO2 T00830061
14756KACK ACK20160302130511103/02/16 13:05:31  5-MIN KACK 021805Z 25017G24KT 9SM BKN100 08/05 A2953 420 82 -300 270/17G24 RMK AO2 T00780050
14756KACK ACK20160302131010603/02/16 13:10:31  5-MIN KACK 021810Z 25017KT 10SM BKN100 08/04 A2953 410 76 -300 270/17 RMK AO2 T00780039
14756KACK ACK20160302131510603/02/16 13:15:31  5-MIN KACK 021815Z 24018KT 10SM BKN100 08/03 A2953 420 73 -300 260/18 RMK AO2 T00780033
14756KACK ACK20160302132011203/02/16 13:20:31  5-MIN KACK 021820Z 25015G24KT 10SM BKN100 08/04 A2953 410 73 -200 260/15G24 RMK AO2 T00830039
14756KACK ACK20160302132510603/02/16 13:25:31  5-MIN KACK 021825Z 25016KT 10SM BKN100 08/04 A2953 420 73 -200 270/16 RMK AO2 T00830039
14756KACK ACK20160302133011203/02/16 13:30:31  5-MIN KACK 021830Z 25016G23KT 10SM SCT110 08/03 A2952 420 70 -200 260/16G23 RMK AO2 T00830033
14756KACK ACK20160302133511203/02/16 13:35:31  5-MIN KACK 021835Z 25018G23KT 10SM SCT110 08/03 A2953 420 70 -200 260/18G23 RMK AO2 T00830033
14756KACK ACK20160302134011203/02/16 13:40:31  5-MIN KACK 021840Z 25014G22KT 10SM FEW110 08/03 A2953 410 70 -300 260/14G22 RMK AO2 T00780028
14756KACK ACK20160302134511203/02/16 13:45:31  5-MIN KACK 021845Z 25019G24KT 10SM FEW110 08/03 A2954 400 70 -300 260/19G24 RMK AO2 T00780028
14756KACK ACK20160302135012603/02/16 13:50:31  5-MIN KACK 021850Z 25016G24KT 10SM SCT110 08/03 A2955 400 70 -300 270/16G24 RMK AO2 PRESRR SLP006 T00780028
14756KACK ACK20160302135511203/02/16 13:55:31  5-MIN KACK 021855Z 25016G23KT 10SM BKN110 08/03 A2955 400 70 -300 270/16G23 RMK AO2 T00780028
14756KACK ACK20160302140010603/02/16 14:00:31  5-MIN KACK 021900Z 26016KT 10SM BKN110 08/03 A2954 400 70 -300 270/16 RMK AO2 T00780028
14756KACK ACK20160302140510603/02/16 14:05:31  5-MIN KACK 021905Z 27016KT 10SM BKN110 08/03 A2955 400 70 -300 280/16 RMK AO2 T00780028
14756KACK ACK20160302141011203/02/16 14:10:31  5-MIN KACK 021910Z 29012G21KT 10SM OVC110 08/03 A2955 400 73 -300 300/12G21 RMK AO2 T00780033
14756KACK ACK20160302141513003/02/16 14:15:31  5-MIN KACK 021915Z 30018G26KT 10SM OVC110 08/03 A2955 390 73 -300 310/18G26 RMK AO2 PK WND 32026/1915 T00780033
14756KACK ACK20160302142013003/02/16 14:20:31  5-MIN KACK 021920Z 30020G27KT 10SM BKN120 07/02 A2954 400 68 -400 320/20G27 RMK AO2 PK WND 31027/1917 T00720017
14756KACK ACK20160302142513003/02/16 14:25:31  5-MIN KACK 021925Z 30016G27KT 10SM BKN120 07/01 A2955 400 65 -400 310/16G27 RMK AO2 PK WND 31027/1917 T00720011
14756KACK ACK20160302143013003/02/16 14:30:31  5-MIN KACK 021930Z 31018G27KT 10SM SCT120 07/01 A2955 400 67 -400 320/18G27 RMK AO2 PK WND 31027/1917 T00670011
14756KACK ACK20160302143513003/02/16 14:35:31  5-MIN KACK 021935Z 30022G28KT 10SM SCT120 07/01 A2955 400 65 -400 320/22G28 RMK AO2 PK WND 30028/1935 T00670006
14756KACK ACK20160302144013703/02/16 14:40:31  5-MIN KACK 021940Z 30019G28KT 10SM FEW027 FEW120 07/01 A2955 390 65 -400 320/19G28 RMK AO2 PK WND 30028/1935 T00670006
14756KACK ACK20160302144513003/02/16 14:45:31  5-MIN KACK 021945Z 31017G27KT 10SM SCT027 07/00 A2955 390 62 -400 320/17G27 RMK AO2 PK WND 30028/1935 T00670000
14756KACK ACK20160302145012003/02/16 14:50:31  5-MIN KACK 021950Z 30018G27KT 10SM BKN027 07/00 A2956 380 62 -400 310/18G27 RMK AO2 PK WND 30028/1935
14756KACK ACK20160302145511203/02/16 14:55:31  5-MIN KACK 021955Z 30017G27KT 10SM BKN028 07/00 A2957 380 62 -400 320/17G27 RMK AO2 T00670000
14756KACK ACK20160302150011903/02/16 15:00:31  5-MIN KACK 022000Z 29017G23KT 10SM BKN030 07/00 A2959 360 62 -500 310/17G23 RMK AO2 PRESRR T00670000
14756KACK ACK20160302150511203/02/16 15:05:31  5-MIN KACK 022005Z 30017G23KT 10SM BKN030 07/00 A2958 370 62 -500 310/17G23 RMK AO2 T00670000
14756KACK ACK20160302151012003/02/16 15:10:31  5-MIN KACK 022010Z 30018G23KT 10SM SCT028 OVC033 07/M01 A2959 360 60 -500 310/18G23 RMK AO2 T00671006
14756KACK ACK20160302151511203/02/16 15:15:31  5-MIN KACK 022015Z 30013G23KT 10SM OVC033 07/00 A2959 360 60 -400 310/13G23 RMK AO2 T00720000
14756KACK ACK20160302152010603/02/16 15:20:31  5-MIN KACK 022020Z 30015KT 10SM OVC035 07/00 A2958 370 60 -400 320/15 RMK AO2 T00720000
14756KACK ACK20160302152510603/02/16 15:25:31  5-MIN KACK 022025Z 30013KT 10SM OVC037 07/00 A2958 360 60 -400 320/13 RMK AO2 T00720000
14756KACK ACK20160302153011203/02/16 15:30:31  5-MIN KACK 022030Z 29015G21KT 10SM BKN037 07/00 A2959 360 60 -400 310/15G21 RMK AO2 T00720000
14756KACK ACK20160302153511303/02/16 15:35:31  5-MIN KACK 022035Z 29016G22KT 10SM BKN037 07/M01 A2959 360 57 -400 310/16G22 RMK AO2 T00721006
14756KACK ACK20160302154011303/02/16 15:40:31  5-MIN KACK 022040Z 30017G22KT 10SM SCT037 07/M01 A2959 350 57 -400 320/17G22 RMK AO2 T00721006
14756KACK ACK20160302154511303/02/16 15:45:31  5-MIN KACK 022045Z 31018G23KT 10SM FEW037 07/M01 A2959 360 57 -400 320/18G23 RMK AO2 T00721006
14756KACK ACK20160302155012603/02/16 15:50:31  5-MIN KACK 022050Z 30018G24KT 10SM FEW039 07/M01 A2961 340 57 -500 310/18G24 RMK AO2 SLP025 T00671011 56009
14756KACK ACK20160302155511003/02/16 15:55:31  5-MIN KACK 022055Z 30019G27KT 10SM CLR 07/M01 A2961 340 57 -500 320/19G27 RMK AO2 T00671011
14756KACK ACK20160302160011003/02/16 16:00:31  5-MIN KACK 022100Z 29015G27KT 10SM CLR 07/M02 A2960 340 55 -500 310/15G27 RMK AO2 T00671017
14756KACK ACK20160302160512803/02/16 16:05:31  5-MIN KACK 022105Z 29019G27KT 10SM CLR 06/M03 A2961 340 53 -600 310/19G27 RMK AO2 PK WND 31027/2101 T00611028
14756KACK ACK20160302161012803/02/16 16:10:31  5-MIN KACK 022110Z 29021G27KT 10SM CLR 06/M04 A2961 330 48 -600 310/21G27 RMK AO2 PK WND 31027/2101 T00611039
14756KACK ACK20160302161512803/02/16 16:15:31  5-MIN KACK 022115Z 29018G26KT 10SM CLR 06/M04 A2962 330 48 -600 310/18G26 RMK AO2 PK WND 31027/2101 T00611039
14756KACK ACK20160302162012803/02/16 16:20:31  5-MIN KACK 022120Z 30019G26KT 10SM CLR 06/M04 A2962 330 48 -600 310/19G26 RMK AO2 PK WND 31027/2101 T00611039
14756KACK ACK20160302162512803/02/16 16:25:31  5-MIN KACK 022125Z 29020G26KT 10SM CLR 06/M04 A2962 320 48 -600 310/20G26 RMK AO2 PK WND 31027/2101 T00611039
14756KACK ACK20160302163012803/02/16 16:30:31  5-MIN KACK 022130Z 30018G25KT 10SM CLR 06/M04 A2963 320 48 -600 310/18G25 RMK AO2 PK WND 31027/2101 T00611039
14756KACK ACK20160302163512803/02/16 16:35:31  5-MIN KACK 022135Z 30019G26KT 10SM CLR 06/M04 A2963 310 48 -600 310/19G26 RMK AO2 PK WND 31027/2101 T00611039
14756KACK ACK20160302164013503/02/16 16:40:31  5-MIN KACK 022140Z 29019G26KT 10SM CLR 06/M04 A2964 310 46 -600 300/19G26 RMK AO2 PK WND 31027/2101 PRESRR T00611044
14756KACK ACK20160302164512803/02/16 16:45:31  5-MIN KACK 022145Z 29014G26KT 10SM CLR 06/M04 A2964 300 48 -700 310/14G26 RMK AO2 PK WND 31027/2101 T00561044
14756KACK ACK20160302165013503/02/16 16:50:31  5-MIN KACK 022150Z 29019G28KT 10SM CLR 06/M04 A2965 300 48 -700 310/19G28 RMK AO2 PK WND 29028/2150 SLP039 T00561044
14756KACK ACK20160302165511003/02/16 16:55:31  5-MIN KACK 022155Z 29018G28KT 10SM CLR 06/M05 A2965 300 46 -700 310/18G28 RMK AO2 T00561050
14756KACK ACK20160302170012803/02/16 17:00:31  5-MIN KACK 022200Z 29017G26KT 10SM CLR 05/M05 A2965 300 48 -700 310/17G26 RMK AO2 PK WND 30026/2157 T00501050
14756KACK ACK20160302170512803/02/16 17:05:31  5-MIN KACK 022205Z 29018G26KT 10SM CLR 05/M06 A2964 310 46 -700 310/18G26 RMK AO2 PK WND 30026/2157 T00501056
14756KACK ACK20160302171012803/02/16 17:10:31  5-MIN KACK 022210Z 30018G26KT 10SM CLR 05/M06 A2965 300 46 -700 310/18G26 RMK AO2 PK WND 30026/2207 T00501056
14756KACK ACK20160302171512803/02/16 17:15:31  5-MIN KACK 022215Z 30015G26KT 10SM CLR 05/M06 A2965 300 46 -700 320/15G26 RMK AO2 PK WND 30026/2207 T00501056
14756KACK ACK20160302172012803/02/16 17:20:31  5-MIN KACK 022220Z 30017G25KT 10SM CLR 04/M06 A2965 300 48 -800 310/17G25 RMK AO2 PK WND 30026/2207 T00441056
14756KACK ACK20160302172512803/02/16 17:25:31  5-MIN KACK 022225Z 30018G25KT 10SM CLR 04/M06 A2966 290 46 -800 310/18G25 RMK AO2 PK WND 30026/2207 T00441061
14756KACK ACK20160302173012803/02/16 17:30:31  5-MIN KACK 022230Z 30016G24KT 10SM CLR 04/M06 A2966 290 48 -800 320/16G24 RMK AO2 PK WND 30026/2207 T00441056
14756KACK ACK20160302173512803/02/16 17:35:31  5-MIN KACK 022235Z 30018G26KT 10SM CLR 04/M06 A2966 290 50 -900 320/18G26 RMK AO2 PK WND 31026/2235 T00391056
14756KACK ACK20160302174012803/02/16 17:40:31  5-MIN KACK 022240Z 30018G27KT 10SM CLR 04/M06 A2966 290 48 -900 320/18G27 RMK AO2 PK WND 30027/2237 T00391061
14756KACK ACK20160302174512803/02/16 17:45:31  5-MIN KACK 022245Z 31022G29KT 10SM CLR 04/M07 A2967 280 46 -900 320/22G29 RMK AO2 PK WND 31029/2245 T00391067
14756KACK ACK20160302175014203/02/16 17:50:31  5-MIN KACK 022250Z 31016G29KT 10SM CLR 04/M07 A2968 270 46 -900 320/16G29 RMK AO2 PK WND 31029/2245 PRESRR SLP051 T00391067
14756KACK ACK20160302175511003/02/16 17:55:31  5-MIN KACK 022255Z 31017G25KT 10SM CLR 04/M07 A2969 270 44 -900 320/17G25 RMK AO2 T00391072
14756KACK ACK20160302180011003/02/16 18:00:31  5-MIN KACK 022300Z 31019G23KT 10SM CLR 04/M07 A2969 270 44 -900 320/19G23 RMK AO2 T00391072
14756KACK ACK20160302180512803/02/16 18:05:31  5-MIN KACK 022305Z 30019G28KT 10SM CLR 04/M07 A2969 260 44 -900 320/19G28 RMK AO2 PK WND 29028/2305 T00391072
14756KACK ACK20160302181012803/02/16 18:10:31  5-MIN KACK 022310Z 31020G28KT 10SM CLR 04/M07 A2969 260 44 -900 320/20G28 RMK AO2 PK WND 29028/2305 T00391072
14756KACK ACK20160302181512803/02/16 18:15:31  5-MIN KACK 022315Z 31018G28KT 10SM CLR 04/M08 A2970 260 42 -900 320/18G28 RMK AO2 PK WND 29028/2305 T00391078
14756KACK ACK20160302182013603/02/16 18:20:31  5-MIN KACK 022320Z 31020G26KT 10SM CLR 03/M07 A2971 240 46 -1000 330/20G26 RMK AO2 PK WND 29028/2305 PRESRR T00331072
14756KACK ACK20160302182512903/02/16 18:25:31  5-MIN KACK 022325Z 31018G26KT 10SM CLR 03/M08 A2971 240 44 -1000 320/18G26 RMK AO2 PK WND 29028/2305 T00331078
14756KACK ACK20160302183012903/02/16 18:30:31  5-MIN KACK 022330Z 31013G26KT 10SM CLR 03/M08 A2972 240 44 -1000 330/13G26 RMK AO2 PK WND 29028/2305 T00331078
14756KACK ACK20160302183512903/02/16 18:35:31  5-MIN KACK 022335Z 31014G24KT 10SM CLR 03/M08 A2972 230 44 -1000 330/14G24 RMK AO2 PK WND 29028/2305 T00331078
14756KACK ACK20160302184012903/02/16 18:40:31  5-MIN KACK 022340Z 31020G26KT 10SM CLR 03/M08 A2973 230 42 -1000 320/20G26 RMK AO2 PK WND 29028/2305 T00331083
14756KACK ACK20160302184513603/02/16 18:45:31  5-MIN KACK 022345Z 30019G26KT 10SM CLR 03/M08 A2974 220 44 -1100 320/19G26 RMK AO2 PK WND 29028/2305 PRESRR T00281083
14756KACK ACK20160302185016103/02/16 18:50:31  5-MIN KACK 022350Z 31019G25KT 10SM CLR 03/M08 A2974 210 44 -1100 330/19G25 RMK AO2 PK WND 29028/2305 PRESRR SLP072 T00281083 10083 20028 53028
14756KACK ACK20160302185511103/02/16 18:55:31  5-MIN KACK 022355Z 31015G25KT 10SM CLR 03/M09 A2975 210 42 -1100 320/15G25 RMK AO2 T00281089
14756KACK ACK20160302190011103/02/16 19:00:31  5-MIN KACK 030000Z 30013G24KT 10SM CLR 03/M08 A2975 210 46 -1100 320/13G24 RMK AO2 T00281078
14756KACK ACK20160302190511103/02/16 19:05:31  5-MIN KACK 030005Z 30018G25KT 10SM CLR 03/M08 A2975 210 46 -1100 320/18G25 RMK AO2 T00281078
14756KACK ACK20160302191012903/02/16 19:10:31  5-MIN KACK 030010Z 31018G26KT 10SM CLR 03/M08 A2975 210 46 -1100 320/18G26 RMK AO2 PK WND 30026/0009 T00281078
14756KACK ACK20160302191512903/02/16 19:15:31  5-MIN KACK 030015Z 31016G26KT 10SM CLR 03/M08 A2976 200 44 -1100 320/16G26 RMK AO2 PK WND 30026/0013 T00281083
14756KACK ACK20160302192012903/02/16 19:20:31  5-MIN KACK 030020Z 30016G26KT 10SM CLR 03/M08 A2975 210 44 -1100 320/16G26 RMK AO2 PK WND 30026/0013 T00281083
14756KACK ACK20160302192512903/02/16 19:25:31  5-MIN KACK 030025Z 31020G24KT 10SM CLR 03/M08 A2975 200 44 -1100 320/20G24 RMK AO2 PK WND 30026/0013 T00281083
14756KACK ACK20160302193012903/02/16 19:30:31  5-MIN KACK 030030Z 31016G25KT 10SM CLR 03/M08 A2976 200 44 -1100 320/16G25 RMK AO2 PK WND 30026/0013 T00281083
14756KACK ACK20160302193512903/02/16 19:35:31  5-MIN KACK 030035Z 30019G26KT 10SM CLR 02/M08 A2976 200 47 -1200 320/19G26 RMK AO2 PK WND 30026/0034 T00221078
14756KACK ACK20160302194012903/02/16 19:40:31  5-MIN KACK 030040Z 31020G26KT 10SM CLR 02/M08 A2976 200 45 -1200 320/20G26 RMK AO2 PK WND 30026/0034 T00221083
14756KACK ACK20160302194512903/02/16 19:45:31  5-MIN KACK 030045Z 31017G25KT 10SM CLR 02/M08 A2976 200 45 -1200 320/17G25 RMK AO2 PK WND 30026/0034 T00221083
14756KACK ACK20160302195013603/02/16 19:50:31  5-MIN KACK 030050Z 31015G25KT 10SM CLR 02/M08 A2977 190 45 -1200 320/15G25 RMK AO2 PK WND 30026/0034 SLP081 T00221083
14756KACK ACK20160302195511103/02/16 19:55:31  5-MIN KACK 030055Z 30017G25KT 10SM CLR 02/M08 A2977 190 47 -1300 320/17G25 RMK AO2 T00171083
14756KACK ACK20160302200012103/02/16 20:00:31  5-MIN KACK 030100Z AUTO 30016G25KT 10SM CLR 02/M08 A2977 190 47 -1300 320/16G25 RMK AO2 T00171083 TSNO
14756KACK ACK20160302200512103/02/16 20:05:31  5-MIN KACK 030105Z AUTO 31017G25KT 10SM CLR 02/M08 A2978 180 49 -1300 320/17G25 RMK AO2 T00171078 TSNO
14756KACK ACK20160302201012103/02/16 20:10:31  5-MIN KACK 030110Z AUTO 31019G25KT 10SM CLR 02/M08 A2978 180 47 -1300 320/19G25 RMK AO2 T00171083 TSNO
14756KACK ACK20160302201513903/02/16 20:15:31  5-MIN KACK 030115Z AUTO 31017G27KT 10SM CLR 02/M08 A2978 180 47 -1300 320/17G27 RMK AO2 PK WND 32027/0113 T00171083 TSNO
14756KACK ACK20160302202013903/02/16 20:20:31  5-MIN KACK 030120Z AUTO 31017G27KT 10SM CLR 02/M08 A2979 170 47 -1300 320/17G27 RMK AO2 PK WND 32027/0113 T00171083 TSNO
14756KACK ACK20160302202513903/02/16 20:25:31  5-MIN KACK 030125Z AUTO 31018G26KT 10SM CLR 01/M08 A2979 170 49 -1400 320/18G26 RMK AO2 PK WND 32027/0113 T00111083 TSNO
14756KACK ACK20160302203013903/02/16 20:30:31  5-MIN KACK 030130Z AUTO 30017G26KT 10SM CLR 01/M08 A2980 160 49 -1400 320/17G26 RMK AO2 PK WND 32027/0113 T00111083 TSNO
14756KACK ACK20160302203513903/02/16 20:35:31  5-MIN KACK 030135Z AUTO 30020G31KT 10SM CLR 01/M09 A2980 160 47 -1400 310/20G31 RMK AO2 PK WND 30031/0133 T00111089 TSNO
14756KACK ACK20160302204014603/02/16 20:40:31  5-MIN KACK 030140Z AUTO 30016G31KT 10SM CLR 01/M09 A2981 150 47 -1400 320/16G31 RMK AO2 PK WND 30031/0133 PRESRR T00111089 TSNO
14756KACK ACK20160302204513903/02/16 20:45:31  5-MIN KACK 030145Z AUTO 32016G24KT 10SM CLR 01/M08 A2981 150 49 -1400 330/16G24 RMK AO2 PK WND 30031/0133 T00111083 TSNO
14756KACK ACK20160302205014603/02/16 20:50:31  5-MIN KACK 030150Z AUTO 31021G29KT 10SM CLR 01/M09 A2981 150 47 -1400 320/21G29 RMK AO2 PK WND 30031/0133 SLP095 T00111089 TSNO
14756KACK ACK20160302205513903/02/16 20:55:31  5-MIN KACK 030155Z AUTO 31019G29KT 10SM CLR 01/M09 A2982 140 47 -1400 330/19G29 RMK AO2 PK WND 32026/0154 T00111089 TSNO
14756KACK ACK20160302210013903/02/16 21:00:31  5-MIN KACK 030200Z AUTO 31020G28KT 10SM CLR 01/M09 A2982 140 49 -1500 320/20G28 RMK AO2 PK WND 32028/0200 T00061089 TSNO
14756KACK ACK20160302210513903/02/16 21:05:31  5-MIN KACK 030205Z AUTO 31018G28KT 10SM CLR 01/M09 A2982 140 49 -1500 330/18G28 RMK AO2 PK WND 32028/0200 T00061089 TSNO
14756KACK ACK20160302211013903/02/16 21:10:31  5-MIN KACK 030210Z AUTO 31018G28KT 10SM CLR 01/M09 A2983 130 49 -1500 320/18G28 RMK AO2 PK WND 32028/0200 T00061089 TSNO
14756KACK ACK20160302211513903/02/16 21:15:31  5-MIN KACK 030215Z AUTO 31022G28KT 10SM CLR 01/M09 A2983 140 49 -1500 330/22G28 RMK AO2 PK WND 32028/0200 T00061089 TSNO
14756KACK ACK20160302212014103/02/16 21:20:31  5-MIN KACK 030220Z AUTO 31019G28KT 10SM CLR 01/M08 A2983 130 51 -1500 330/19G28 RMK AO2 PK WND 32028/0200 T00061083 TSNO $
14756KACK ACK20160302212514103/02/16 21:25:31  5-MIN KACK 030225Z AUTO 31021G27KT 10SM CLR 01/M09 A2984 130 49 -1500 330/21G27 RMK AO2 PK WND 32028/0200 T00061089 TSNO $
14756KACK ACK20160302213014103/02/16 21:30:31  5-MIN KACK 030230Z AUTO 31014G27KT 10SM CLR 01/M09 A2984 120 49 -1500 320/14G27 RMK AO2 PK WND 32028/0200 T00061089 TSNO $
14756KACK ACK20160302213514103/02/16 21:35:31  5-MIN KACK 030235Z AUTO 31020G26KT 10SM CLR 01/M09 A2984 120 49 -1500 320/20G26 RMK AO2 PK WND 32028/0200 T00061089 TSNO $
14756KACK ACK20160302214014103/02/16 21:40:31  5-MIN KACK 030240Z AUTO 31018G28KT 10SM CLR 01/M09 A2985 110 47 -1500 320/18G28 RMK AO2 PK WND 32028/0238 T00061094 TSNO $
14756KACK ACK20160302214514103/02/16 21:45:31  5-MIN KACK 030245Z AUTO 31020G28KT 10SM CLR 01/M09 A2985 110 49 -1500 330/20G28 RMK AO2 PK WND 32028/0238 T00061089 TSNO $
14756KACK ACK20160302215015403/02/16 21:50:31  5-MIN KACK 030250Z AUTO 30022G27KT 10SM CLR 00/M09 A2986 110 51 -1600 320/22G27 RMK AO2 PK WND 32028/0238 SLP110 T00001089 53047 TSNO $
14756KACK ACK20160302215512303/02/16 21:55:31  5-MIN KACK 030255Z AUTO 31017G27KT 10SM CLR 00/M09 A2986 110 49 -1600 330/17G27 RMK AO2 T00001094 TSNO $
14756KACK ACK20160302220014103/02/16 22:00:31  5-MIN KACK 030300Z AUTO 31019G27KT 10SM CLR 00/M09 A2986 100 49 -1600 320/19G27 RMK AO2 PK WND 30027/0259 T00001094 TSNO $
14756KACK ACK20160302220514103/02/16 22:05:31  5-MIN KACK 030305Z AUTO 31017G27KT 10SM CLR 00/M09 A2987 100 49 -1600 330/17G27 RMK AO2 PK WND 30027/0259 T00001094 TSNO $
14756KACK ACK20160302221014103/02/16 22:10:31  5-MIN KACK 030310Z AUTO 31019G27KT 10SM CLR 00/M09 A2987 100 49 -1600 320/19G27 RMK AO2 PK WND 30027/0310 T00001094 TSNO $
14756KACK ACK20160302221514003/02/16 22:15:31  5-MIN KACK 030315Z AUTO 31017G27KT 10SM CLR 00/M09 A2987 90 51 -1600 320/17G27 RMK AO2 PK WND 30027/0310 T00001089 TSNO $
14756KACK ACK20160302222014103/02/16 22:20:31  5-MIN KACK 030320Z AUTO 31020G26KT 10SM CLR 00/M09 A2987 100 49 -1600 320/20G26 RMK AO2 PK WND 30027/0310 T00001094 TSNO $
14756KACK ACK20160302222514003/02/16 22:25:31  5-MIN KACK 030325Z AUTO 31020G28KT 10SM CLR 00/M09 A2987 90 49 -1600 330/20G28 RMK AO2 PK WND 31028/0324 T00001094 TSNO $
14756KACK ACK20160302223014003/02/16 22:30:31  5-MIN KACK 030330Z AUTO 31020G28KT 10SM CLR 00/M09 A2988 90 51 -1600 330/20G28 RMK AO2 PK WND 31028/0324 T00001089 TSNO $
14756KACK ACK20160302223514003/02/16 22:35:31  5-MIN KACK 030335Z AUTO 30019G27KT 10SM CLR 00/M09 A2988 90 51 -1600 320/19G27 RMK AO2 PK WND 31028/0324 T00001089 TSNO $
14756KACK ACK20160302224014103/02/16 22:40:31  5-MIN KACK 030340Z AUTO 30018G26KT 10SM CLR M01/M09 A2989 80 53 -1700 320/18G26 RMK AO2 PK WND 31028/0324 T10061089 TSNO $
14756KACK ACK20160302224514103/02/16 22:45:31  5-MIN KACK 030345Z AUTO 31019G27KT 10SM CLR M01/M09 A2989 80 51 -1700 330/19G27 RMK AO2 PK WND 31028/0324 T10061094 TSNO $
14756KACK ACK20160302225014803/02/16 22:50:31  5-MIN KACK 030350Z AUTO 30018G27KT 10SM CLR M01/M09 A2989 70 51 -1700 320/18G27 RMK AO2 PK WND 31028/0324 SLP122 T10061094 TSNO $
14756KACK ACK20160302225512303/02/16 22:55:31  5-MIN KACK 030355Z AUTO 31018G27KT 10SM CLR M01/M09 A2990 70 51 -1700 320/18G27 RMK AO2 T10061094 TSNO $
14756KACK ACK20160302230014103/02/16 23:00:31  5-MIN KACK 030400Z AUTO 30018G26KT 10SM CLR M01/M09 A2990 70 51 -1700 320/18G26 RMK AO2 PK WND 30026/0358 T10061094 TSNO $
14756KACK ACK20160302230514103/02/16 23:05:31  5-MIN KACK 030405Z AUTO 31020G27KT 10SM CLR M01/M09 A2991 60 51 -1700 320/20G27 RMK AO2 PK WND 30027/0404 T10061094 TSNO $
14756KACK ACK20160302231014103/02/16 23:10:31  5-MIN KACK 030410Z AUTO 30017G27KT 10SM CLR M01/M09 A2991 60 51 -1700 320/17G27 RMK AO2 PK WND 30027/0404 T10061094 TSNO $
14756KACK ACK20160302231514103/02/16 23:15:31  5-MIN KACK 030415Z AUTO 31015G22KT 10SM CLR M01/M09 A2991 60 51 -1700 330/15G22 RMK AO2 PK WND 30027/0404 T10061094 TSNO $
14756KACK ACK20160302232014103/02/16 23:20:31  5-MIN KACK 030420Z AUTO 31016G22KT 10SM CLR M01/M09 A2992 50 51 -1800 320/16G22 RMK AO2 PK WND 30027/0404 T10061094 TSNO $
14756KACK ACK20160302232514103/02/16 23:25:31  5-MIN KACK 030425Z AUTO 31020G28KT 10SM CLR M01/M09 A2992 50 51 -1800 320/20G28 RMK AO2 PK WND 30028/0424 T10061094 TSNO $
14756KACK ACK20160302233014103/02/16 23:30:31  5-MIN KACK 030430Z AUTO 31018G28KT 10SM CLR M01/M09 A2993 40 51 -1800 330/18G28 RMK AO2 PK WND 30028/0424 T10061094 TSNO $
14756KACK ACK20160302233514103/02/16 23:35:31  5-MIN KACK 030435Z AUTO 32019G28KT 10SM CLR M01/M09 A2993 40 51 -1800 330/19G28 RMK AO2 PK WND 30028/0424 T10061094 TSNO $
14756KACK ACK20160302234014103/02/16 23:40:31  5-MIN KACK 030440Z AUTO 31014G28KT 10SM CLR M01/M09 A2993 40 53 -1800 320/14G28 RMK AO2 PK WND 30028/0424 T10111094 TSNO $
14756KACK ACK20160302234514103/02/16 23:45:31  5-MIN KACK 030445Z AUTO 32017G25KT 10SM CLR M01/M10 A2993 40 51 -1800 330/17G25 RMK AO2 PK WND 30028/0424 T10111100 TSNO $
14756KACK ACK20160302235015803/02/16 23:50:31  5-MIN KACK 030450Z AUTO 31016G25KT 10SM CLR M01/M10 A2994 30 51 -1800 330/16G25 RMK AO2 PK WND 30028/0424 SLP137 T10111100 401111011 TSNO $
14756KACK ACK20160302235514103/02/16 23:55:31  5-MIN KACK 030455Z AUTO 32019G26KT 10SM CLR M01/M10 A2994 30 51 -1800 330/19G26 RMK AO2 PK WND 31026/0454 T10111100 TSNO $
14756KACK ACK20160303000012303/03/16 00:00:31  5-MIN KACK 030500Z AUTO 32017G26KT 10SM CLR M01/M10 A2995 20 51 -1900 330/17G26 RMK AO2 T10111100 TSNO $
14756KACK ACK20160303000512303/03/16 00:05:31  5-MIN KACK 030505Z AUTO 31018G24KT 10SM CLR M01/M10 A2995 20 51 -1900 330/18G24 RMK AO2 T10111100 TSNO $
14756KACK ACK20160303001014103/03/16 00:10:31  5-MIN KACK 030510Z AUTO 31018G26KT 10SM CLR M01/M10 A2995 20 51 -1900 330/18G26 RMK AO2 PK WND 31026/0509 T10111100 TSNO $
14756KACK ACK20160303001514103/03/16 00:15:31  5-MIN KACK 030515Z AUTO 32017G26KT 10SM CLR M01/M10 A2996 20 51 -1900 330/17G26 RMK AO2 PK WND 31026/0509 T10111100 TSNO $
14756KACK ACK20160303002014103/03/16 00:20:31  5-MIN KACK 030520Z AUTO 31017G26KT 10SM CLR M01/M10 A2996 10 51 -1900 330/17G26 RMK AO2 PK WND 30026/0520 T10111100 TSNO $
14756KACK ACK20160303002514103/03/16 00:25:31  5-MIN KACK 030525Z AUTO 31016G26KT 10SM CLR M01/M11 A2996 10 49 -1900 330/16G26 RMK AO2 PK WND 30026/0520 T10111106 TSNO $
14756KACK ACK20160303003014103/03/16 00:30:31  5-MIN KACK 030530Z AUTO 31015G24KT 10SM CLR M01/M11 A2997 10 49 -1900 320/15G24 RMK AO2 PK WND 30026/0520 T10111106 TSNO $
14756KACK ACK20160303003514103/03/16 00:35:31  5-MIN KACK 030535Z AUTO 31013G21KT 10SM CLR M01/M11 A2997 10 49 -1900 320/13G21 RMK AO2 PK WND 30026/0520 T10111106 TSNO $
14756KACK ACK20160303004014003/03/16 00:40:31  5-MIN KACK 030540Z AUTO 32016G21KT 10SM CLR M01/M11 A2997 0 49 -1900 330/16G21 RMK AO2 PK WND 30026/0520 T10111106 TSNO $
14756KACK ACK20160303004514003/03/16 00:45:31  5-MIN KACK 030545Z AUTO 32017G23KT 10SM CLR M01/M11 A2997 0 47 -1900 330/17G23 RMK AO2 PK WND 30026/0520 T10111111 TSNO $
14756KACK ACK20160303005016503/03/16 00:50:31  5-MIN KACK 030550Z AUTO 31017G25KT 10SM CLR M01/M12 A2998 0 45 -1900 330/17G25 RMK AO2 PK WND 30026/0520 SLP151 T10111117 10033 21011 53038 TSNO $
14756KACK ACK20160303005512203/03/16 00:55:31  5-MIN KACK 030555Z AUTO 32018G25KT 10SM CLR M01/M12 A2998 0 43 -1900 330/18G25 RMK AO2 T10111122 TSNO $
14756KACK ACK20160303010014203/03/16 01:00:31  5-MIN KACK 030600Z AUTO 32020G28KT 10SM CLR M01/M12 A2999 -10 43 -1900 330/20G28 RMK AO2 PK WND 32028/0559 T10111122 TSNO $
14756KACK ACK20160303010514203/03/16 01:05:31  5-MIN KACK 030605Z AUTO 33020G28KT 10SM CLR M01/M12 A2998 -10 43 -1900 340/20G28 RMK AO2 PK WND 32028/0559 T10111122 TSNO $
14756KACK ACK20160303011014203/03/16 01:10:31  5-MIN KACK 030610Z AUTO 32017G27KT 10SM CLR M01/M12 A2999 -10 43 -1900 330/17G27 RMK AO2 PK WND 32028/0559 T10111122 TSNO $
14756KACK ACK20160303011514203/03/16 01:15:31  5-MIN KACK 030615Z AUTO 32017G25KT 10SM CLR M02/M12 A2999 -10 44 -2000 330/17G25 RMK AO2 PK WND 32028/0559 T10171122 TSNO $
14756KACK ACK20160303012013603/03/16 01:20:31  5-MIN KACK 030620Z AUTO 32016KT 10SM CLR M02/M12 A3000 -20 46 -2000 330/16 RMK AO2 PK WND 32028/0559 T10171117 TSNO $
14756KACK ACK20160303012513603/03/16 01:25:31  5-MIN KACK 030625Z AUTO 32018KT 10SM CLR M02/M12 A3000 -20 46 -2000 340/18 RMK AO2 PK WND 32028/0559 T10171117 TSNO $
14756KACK ACK20160303013014203/03/16 01:30:31  5-MIN KACK 030630Z AUTO 31010G23KT 10SM CLR M02/M11 A3000 -20 49 -2000 330/10G23 RMK AO2 PK WND 32028/0559 T10171111 TSNO $
14756KACK ACK20160303013514203/03/16 01:35:31  5-MIN KACK 030635Z AUTO 31014G19KT 10SM CLR M02/M12 A3000 -20 46 -2000 320/14G19 RMK AO2 PK WND 32028/0559 T10171117 TSNO $
14756KACK ACK20160303014013603/03/16 01:40:31  5-MIN KACK 030640Z AUTO 31014KT 10SM CLR M02/M12 A3000 -20 44 -2000 320/14 RMK AO2 PK WND 32028/0559 T10171122 TSNO $
14756KACK ACK20160303014513603/03/16 01:45:31  5-MIN KACK 030645Z AUTO 31016KT 10SM CLR M02/M13 A3000 -20 44 -2100 330/16 RMK AO2 PK WND 32028/0559 T10221128 TSNO $
14756KACK ACK20160303015014903/03/16 01:50:31  5-MIN KACK 030650Z AUTO 31016G22KT 10SM CLR M02/M12 A3001 -20 44 -2000 330/16G22 RMK AO2 PK WND 32028/0559 SLP160 T10171122 TSNO $
14756KACK ACK20160303015512403/03/16 01:55:31  5-MIN KACK 030655Z AUTO 32013G22KT 10SM CLR M02/M12 A3001 -30 44 -2000 340/13G22 RMK AO2 T10171122 TSNO $
14756KACK ACK20160303020012403/03/16 02:00:31  5-MIN KACK 030700Z AUTO 31015G21KT 10SM CLR M02/M12 A3001 -30 46 -2100 320/15G21 RMK AO2 T10221122 TSNO $
14756KACK ACK20160303020512403/03/16 02:05:31  5-MIN KACK 030705Z AUTO 31015G22KT 10SM CLR M02/M12 A3001 -30 46 -2100 320/15G22 RMK AO2 T10221122 TSNO $
14756KACK ACK20160303021012403/03/16 02:10:31  5-MIN KACK 030710Z AUTO 30016G22KT 10SM CLR M02/M13 A3001 -30 44 -2100 320/16G22 RMK AO2 T10221128 TSNO $
14756KACK ACK20160303021512403/03/16 02:15:31  5-MIN KACK 030715Z AUTO 31016G22KT 10SM CLR M02/M12 A3001 -30 46 -2100 330/16G22 RMK AO2 T10221122 TSNO $
14756KACK ACK20160303022012403/03/16 02:20:31  5-MIN KACK 030720Z AUTO 31015G22KT 10SM CLR M02/M13 A3002 -40 44 -2100 330/15G22 RMK AO2 T10221128 TSNO $
14756KACK ACK20160303022512403/03/16 02:25:31  5-MIN KACK 030725Z AUTO 31015G22KT 10SM CLR M02/M13 A3003 -40 44 -2100 320/15G22 RMK AO2 T10221128 TSNO $
14756KACK ACK20160303023012503/03/16 02:30:31  5-MIN KACK 030730Z AUTO 31014KT 10SM CLR M02/M13 A3004 -50 44 -2100 330/14 RMK AO2 PRESRR T10221128 TSNO $
14756KACK ACK20160303023512403/03/16 02:35:31  5-MIN KACK 030735Z AUTO 31011G22KT 10SM CLR M02/M13 A3004 -50 44 -2100 320/11G22 RMK AO2 T10221128 TSNO $
14756KACK ACK20160303024012403/03/16 02:40:31  5-MIN KACK 030740Z AUTO 30016G22KT 10SM CLR M03/M13 A3004 -50 46 -2200 320/16G22 RMK AO2 T10281128 TSNO $
14756KACK ACK20160303024512403/03/16 02:45:31  5-MIN KACK 030745Z AUTO 31012G22KT 10SM CLR M03/M13 A3004 -50 44 -2200 320/12G22 RMK AO2 T10281133 TSNO $
14756KACK ACK20160303025013103/03/16 02:50:31  5-MIN KACK 030750Z AUTO 32018G22KT 10SM CLR M03/M13 A3003 -50 44 -2200 330/18G22 RMK AO2 SLP170 T10281133 TSNO $
14756KACK ACK20160303025512403/03/16 02:55:31  5-MIN KACK 030755Z AUTO 32013G21KT 10SM CLR M03/M13 A3003 -50 44 -2200 340/13G21 RMK AO2 T10281133 TSNO $
14756KACK ACK20160303030012403/03/16 03:00:31  5-MIN KACK 030800Z AUTO 31016G22KT 10SM CLR M03/M12 A3003 -50 48 -2200 330/16G22 RMK AO2 T10281122 TSNO $
14756KACK ACK20160303030512403/03/16 03:05:31  5-MIN KACK 030805Z AUTO 32014G22KT 10SM CLR M03/M13 A3004 -50 46 -2200 340/14G22 RMK AO2 T10281128 TSNO $
14756KACK ACK20160303031012403/03/16 03:10:31  5-MIN KACK 030810Z AUTO 31016G21KT 10SM CLR M03/M13 A3004 -50 46 -2200 330/16G21 RMK AO2 T10281128 TSNO $
14756KACK ACK20160303031512403/03/16 03:15:31  5-MIN KACK 030815Z AUTO 32018G21KT 10SM CLR M03/M13 A3004 -50 44 -2200 330/18G21 RMK AO2 T10281133 TSNO $
14756KACK ACK20160303032012403/03/16 03:20:31  5-MIN KACK 030820Z AUTO 31015G25KT 10SM CLR M03/M13 A3003 -50 44 -2200 330/15G25 RMK AO2 T10281133 TSNO $
14756KACK ACK20160303032512403/03/16 03:25:31  5-MIN KACK 030825Z AUTO 32014G25KT 10SM CLR M03/M13 A3004 -50 44 -2200 330/14G25 RMK AO2 T10281133 TSNO $
14756KACK ACK20160303033014203/03/16 03:30:31  5-MIN KACK 030830Z AUTO 32013G26KT 10SM CLR M03/M13 A3004 -50 46 -2200 330/13G26 RMK AO2 PK WND 32026/0827 T10331133 TSNO $
14756KACK ACK20160303033514203/03/16 03:35:31  5-MIN KACK 030835Z AUTO 32015G26KT 10SM CLR M03/M13 A3004 -60 46 -2300 330/15G26 RMK AO2 PK WND 32026/0827 T10331133 TSNO $
14756KACK ACK20160303034014203/03/16 03:40:31  5-MIN KACK 030840Z AUTO 31017G23KT 10SM CLR M03/M13 A3004 -60 46 -2300 330/17G23 RMK AO2 PK WND 32026/0827 T10331133 TSNO $
14756KACK ACK20160303034514203/03/16 03:45:31  5-MIN KACK 030845Z AUTO 31016G23KT 10SM CLR M03/M13 A3005 -60 46 -2300 330/16G23 RMK AO2 PK WND 32026/0827 T10331133 TSNO $
14756KACK ACK20160303035015503/03/16 03:50:31  5-MIN KACK 030850Z AUTO 32018G22KT 10SM CLR M03/M13 A3005 -70 48 -2300 330/18G22 RMK AO2 PK WND 32026/0827 SLP177 T10331128 53041 TSNO $
14756KACK ACK20160303035512403/03/16 03:55:31  5-MIN KACK 030855Z AUTO 32018G22KT 10SM CLR M03/M13 A3006 -70 46 -2300 340/18G22 RMK AO2 T10331133 TSNO $
14756KACK ACK20160303040012403/03/16 04:00:31  5-MIN KACK 030900Z AUTO 32016G22KT 10SM CLR M03/M13 A3006 -80 46 -2300 330/16G22 RMK AO2 T10331133 TSNO $
14756KACK ACK20160303040512403/03/16 04:05:31  5-MIN KACK 030905Z AUTO 32017G22KT 10SM CLR M03/M13 A3007 -80 46 -2300 330/17G22 RMK AO2 T10331133 TSNO $
14756KACK ACK20160303041012403/03/16 04:10:31  5-MIN KACK 030910Z AUTO 32013G22KT 10SM CLR M03/M13 A3007 -80 46 -2300 330/13G22 RMK AO2 T10331133 TSNO $
14756KACK ACK20160303041511803/03/16 04:15:31  5-MIN KACK 030915Z AUTO 31013KT 10SM CLR M03/M13 A3007 -90 48 -2300 330/13 RMK AO2 T10331128 TSNO $
14756KACK ACK20160303042012403/03/16 04:20:31  5-MIN KACK 030920Z AUTO 32016G22KT 10SM CLR M03/M13 A3008 -90 46 -2300 330/16G22 RMK AO2 T10331133 TSNO $
14756KACK ACK20160303042512403/03/16 04:25:31  5-MIN KACK 030925Z AUTO 32016G22KT 10SM CLR M03/M13 A3008 -90 46 -2300 330/16G22 RMK AO2 T10331133 TSNO $
14756KACK ACK20160303043012403/03/16 04:30:31  5-MIN KACK 030930Z AUTO 32014G22KT 10SM CLR M03/M13 A3008 -90 46 -2300 340/14G22 RMK AO2 T10331133 TSNO $
14756KACK ACK20160303043512503/03/16 04:35:31  5-MIN KACK 030935Z AUTO 32016G24KT 10SM CLR M03/M13 A3009 -100 46 -2300 340/16G24 RMK AO2 T10331133 TSNO $
14756KACK ACK20160303044012503/03/16 04:40:31  5-MIN KACK 030940Z AUTO 32018G24KT 10SM CLR M03/M14 A3009 -100 44 -2300 340/18G24 RMK AO2 T10331139 TSNO $
14756KACK ACK20160303044512503/03/16 04:45:31  5-MIN KACK 030945Z AUTO 33018G24KT 10SM CLR M03/M14 A3009 -100 44 -2300 340/18G24 RMK AO2 T10331139 TSNO $
14756KACK ACK20160303045013203/03/16 04:50:31  5-MIN KACK 030950Z AUTO 31014G22KT 10SM CLR M03/M13 A3010 -110 48 -2300 320/14G22 RMK AO2 SLP191 T10331128 TSNO $
14756KACK ACK20160303045511903/03/16 04:55:31  5-MIN KACK 030955Z AUTO 32015KT 10SM CLR M03/M13 A3010 -110 46 -2300 330/15 RMK AO2 T10331133 TSNO $
14756KACK ACK20160303050011903/03/16 05:00:31  5-MIN KACK 031000Z AUTO 31014KT 10SM CLR M03/M13 A3010 -110 48 -2300 320/14 RMK AO2 T10331128 TSNO $
14756KACK ACK20160303050511903/03/16 05:05:31  5-MIN KACK 031005Z AUTO 32017KT 10SM CLR M04/M13 A3010 -110 48 -2400 330/17 RMK AO2 T10391133 TSNO $
14756KACK ACK20160303051012503/03/16 05:10:31  5-MIN KACK 031010Z AUTO 32016G22KT 10SM CLR M04/M14 A3010 -110 46 -2400 330/16G22 RMK AO2 T10391139 TSNO $
14756KACK ACK20160303051511903/03/16 05:15:31  5-MIN KACK 031015Z AUTO 32018KT 10SM CLR M04/M14 A3010 -110 46 -2400 340/18 RMK AO2 T10391139 TSNO $
14756KACK ACK20160303052012503/03/16 05:20:31  5-MIN KACK 031020Z AUTO 32015G25KT 10SM CLR M04/M14 A3010 -110 46 -2400 340/15G25 RMK AO2 T10391139 TSNO $
14756KACK ACK20160303052514303/03/16 05:25:31  5-MIN KACK 031025Z AUTO 32017G28KT 10SM CLR M04/M14 A3011 -120 46 -2400 330/17G28 RMK AO2 PK WND 31028/1023 T10391139 TSNO $
14756KACK ACK20160303053014303/03/16 05:30:31  5-MIN KACK 031030Z AUTO 32017G28KT 10SM CLR M04/M14 A3011 -120 46 -2400 340/17G28 RMK AO2 PK WND 31028/1023 T10391139 TSNO $
14756KACK ACK20160303053514303/03/16 05:35:31  5-MIN KACK 031035Z AUTO 33016G24KT 10SM CLR M04/M14 A3011 -120 46 -2400 340/16G24 RMK AO2 PK WND 31028/1023 T10391139 TSNO $
14756KACK ACK20160303054014303/03/16 05:40:31  5-MIN KACK 031040Z AUTO 32017G24KT 10SM CLR M04/M14 A3012 -130 46 -2400 340/17G24 RMK AO2 PK WND 31028/1023 T10391139 TSNO $
14756KACK ACK20160303054513703/03/16 05:45:31  5-MIN KACK 031045Z AUTO 32017KT 10SM CLR M04/M14 A3012 -130 46 -2400 330/17 RMK AO2 PK WND 31028/1023 T10391139 TSNO $
14756KACK ACK20160303055014403/03/16 05:50:31  5-MIN KACK 031050Z AUTO 33014KT 10SM CLR M04/M14 A3012 -130 46 -2400 350/14 RMK AO2 PK WND 31028/1023 SLP199 T10391139 TSNO $
14756KACK ACK20160303055511503/03/16 05:55:31  5-MIN KACK 031055Z 32017G21KT 10SM CLR M04/M13 A3012 -130 48 -2400 340/17G21 RMK AO2 T10391133 $
14756KACK ACK20160303060011503/03/16 06:00:31  5-MIN KACK 031100Z 33016G21KT 10SM CLR M04/M14 A3012 -130 46 -2400 340/16G21 RMK AO2 T10391139 $
14756KACK ACK20160303060510903/03/16 06:05:31  5-MIN KACK 031105Z 33013KT 10SM CLR M04/M13 A3013 -140 48 -2400 350/13 RMK AO2 T10391133 $
14756KACK ACK20160303061010903/03/16 06:10:31  5-MIN KACK 031110Z 33014KT 10SM CLR M04/M13 A3013 -140 48 -2400 340/14 RMK AO2 T10391133 $
14756KACK ACK20160303061510903/03/16 06:15:31  5-MIN KACK 031115Z 33013KT 10SM CLR M04/M13 A3013 -140 48 -2400 340/13 RMK AO2 T10391133 $
14756KACK ACK20160303062011503/03/16 06:20:31  5-MIN KACK 031120Z 32013G19KT 10SM CLR M04/M13 A3013 -140 48 -2400 340/13G19 RMK AO2 T10391133 $
14756KACK ACK20160303062510903/03/16 06:25:31  5-MIN KACK 031125Z 32012KT 10SM CLR M04/M13 A3014 -140 48 -2400 340/12 RMK AO2 T10391133 $
14756KACK ACK20160303063010903/03/16 06:30:31  5-MIN KACK 031130Z 33012KT 10SM CLR M04/M13 A3014 -150 50 -2400 340/12 RMK AO2 T10391128 $
14756KACK ACK20160303063510903/03/16 06:35:31  5-MIN KACK 031135Z 32012KT 10SM CLR M04/M13 A3014 -150 50 -2400 340/12 RMK AO2 T10391128 $
14756KACK ACK20160303064010903/03/16 06:40:31  5-MIN KACK 031140Z 32010KT 10SM CLR M03/M13 A3014 -150 48 -2400 330/10 RMK AO2 T10331128 $
14756KACK ACK20160303064511503/03/16 06:45:31  5-MIN KACK 031145Z 33011G18KT 10SM CLR M03/M13 A3014 -150 48 -2400 340/11G18 RMK AO2 T10331128 $
14756KACK ACK20160303065014003/03/16 06:50:31  5-MIN KACK 031150Z 32015KT 10SM CLR M03/M13 A3015 -160 46 -2400 340/15 RMK AO2 SLP209 70014 T10331133 11011 21039 51026 $
14756KACK ACK20160303065510703/03/16 06:55:31  5-MIN KACK 031155Z 32012KT 10SM CLR M03/M13 A3016 -160 46 -2400 330/12 RMK AO2 T10331133
14756KACK ACK20160303070010703/03/16 07:00:31  5-MIN KACK 031200Z 33010KT 10SM CLR M03/M13 A3016 -170 48 -2400 350/10 RMK AO2 T10331128
14756KACK ACK20160303070510703/03/16 07:05:31  5-MIN KACK 031205Z 32009KT 10SM CLR M03/M13 A3016 -170 46 -2300 330/09 RMK AO2 T10281128
14756KACK ACK20160303071010703/03/16 07:10:31  5-MIN KACK 031210Z 32011KT 10SM CLR M03/M12 A3016 -170 48 -2300 340/11 RMK AO2 T10281122
14756KACK ACK20160303071510703/03/16 07:15:31  5-MIN KACK 031215Z 32012KT 10SM CLR M03/M12 A3016 -170 48 -2300 340/12 RMK AO2 T10281122
14756KACK ACK20160303072010703/03/16 07:20:31  5-MIN KACK 031220Z 31014KT 10SM CLR M03/M13 A3017 -170 46 -2300 330/14 RMK AO2 T10281128
14756KACK ACK20160303072510703/03/16 07:25:31  5-MIN KACK 031225Z 31012KT 10SM CLR M02/M13 A3017 -170 44 -2300 330/12 RMK AO2 T10221128
14756KACK ACK20160303073010703/03/16 07:30:31  5-MIN KACK 031230Z 32013KT 10SM CLR M02/M13 A3017 -170 44 -2300 340/13 RMK AO2 T10221128
14756KACK ACK20160303073510703/03/16 07:35:31  5-MIN KACK 031235Z 31014KT 10SM CLR M02/M13 A3017 -180 44 -2300 320/14 RMK AO2 T10221128
14756KACK ACK20160303074010703/03/16 07:40:31  5-MIN KACK 031240Z 31012KT 10SM CLR M02/M13 A3017 -180 44 -2300 330/12 RMK AO2 T10221128
14756KACK ACK20160303074510703/03/16 07:45:31  5-MIN KACK 031245Z 32012KT 10SM CLR M02/M13 A3018 -180 42 -2300 330/12 RMK AO2 T10221133
14756KACK ACK20160303075012003/03/16 07:50:31  5-MIN KACK 031250Z 32010G18KT 10SM CLR M02/M13 A3018 -180 44 -2300 330/10G18 RMK AO2 SLP219 T10221128
14756KACK ACK20160303075511303/03/16 07:55:31  5-MIN KACK 031255Z 33012G18KT 10SM CLR M02/M13 A3018 -180 44 -2300 350/12G18 RMK AO2 T10221128
14756KACK ACK20160303080010703/03/16 08:00:31  5-MIN KACK 031300Z 32012KT 10SM CLR M02/M13 A3018 -190 44 -2300 340/12 RMK AO2 T10221128
14756KACK ACK20160303080511303/03/16 08:05:31  5-MIN KACK 031305Z 32011G19KT 10SM CLR M02/M13 A3018 -190 44 -2300 330/11G19 RMK AO2 T10221128
14756KACK ACK20160303081010703/03/16 08:10:31  5-MIN KACK 031310Z 34014KT 10SM CLR M02/M12 A3019 -190 44 -2200 350/14 RMK AO2 T10171122
14756KACK ACK20160303081510703/03/16 08:15:31  5-MIN KACK 031315Z 32012KT 10SM CLR M02/M13 A3019 -190 42 -2200 340/12 RMK AO2 T10171128
14756KACK ACK20160303082010703/03/16 08:20:31  5-MIN KACK 031320Z 32012KT 10SM CLR M02/M12 A3019 -190 44 -2200 330/12 RMK AO2 T10171122
14756KACK ACK20160303082510703/03/16 08:25:31  5-MIN KACK 031325Z 32013KT 10SM CLR M02/M12 A3019 -200 44 -2200 340/13 RMK AO2 T10171122
14756KACK ACK20160303083011303/03/16 08:30:31  5-MIN KACK 031330Z 32013G18KT 10SM CLR M02/M12 A3019 -200 44 -2200 330/13G18 RMK AO2 T10171122
14756KACK ACK20160303083511303/03/16 08:35:31  5-MIN KACK 031335Z 32009G18KT 10SM CLR M02/M12 A3019 -200 44 -2200 340/09G18 RMK AO2 T10171122
14756KACK ACK20160303084010703/03/16 08:40:31  5-MIN KACK 031340Z 32008KT 10SM CLR M02/M12 A3020 -200 44 -2200 340/08 RMK AO2 T10171122
14756KACK ACK20160303084510703/03/16 08:45:31  5-MIN KACK 031345Z 31009KT 10SM CLR M01/M12 A3020 -200 43 -2100 320/09 RMK AO2 T10111122
14756KACK ACK20160303085011403/03/16 08:50:31  5-MIN KACK 031350Z 31012KT 10SM CLR M02/M12 A3020 -200 44 -2200 320/12 RMK AO2 SLP226 T10171122
14756KACK ACK20160303085510703/03/16 08:55:31  5-MIN KACK 031355Z 29011KT 10SM CLR M02/M12 A3020 -200 44 -2200 310/11 RMK AO2 T10171122
14756KACK ACK20160303090010703/03/16 09:00:31  5-MIN KACK 031400Z 30014KT 10SM CLR M02/M12 A3020 -210 44 -2200 320/14 RMK AO2 T10171122
14756KACK ACK20160303090510703/03/16 09:05:31  5-MIN KACK 031405Z 33009KT 10SM CLR M02/M13 A3020 -210 42 -2200 340/09 RMK AO2 T10171128
14756KACK ACK20160303091010703/03/16 09:10:31  5-MIN KACK 031410Z 31010KT 10SM CLR M01/M12 A3021 -210 43 -2200 330/10 RMK AO2 T10111122
14756KACK ACK20160303091510703/03/16 09:15:31  5-MIN KACK 031415Z 30012KT 10SM CLR M02/M13 A3021 -210 42 -2200 310/12 RMK AO2 T10171128
14756KACK ACK20160303092010703/03/16 09:20:31  5-MIN KACK 031420Z 29012KT 10SM CLR M01/M12 A3021 -210 43 -2200 310/12 RMK AO2 T10111122
14756KACK ACK20160303092510703/03/16 09:25:31  5-MIN KACK 031425Z 31010KT 10SM CLR M01/M12 A3021 -220 43 -2200 330/10 RMK AO2 T10111122
14756KACK ACK20160303093010703/03/16 09:30:31  5-MIN KACK 031430Z 30009KT 10SM CLR M01/M12 A3021 -210 43 -2200 320/09 RMK AO2 T10111122
14756KACK ACK20160303093510703/03/16 09:35:31  5-MIN KACK 031435Z 33011KT 10SM CLR M01/M12 A3021 -220 45 -2200 340/11 RMK AO2 T10111117
14756KACK ACK20160303094010703/03/16 09:40:31  5-MIN KACK 031440Z 34009KT 10SM CLR M01/M12 A3021 -220 43 -2200 350/09 RMK AO2 T10111122
14756KACK ACK20160303094510703/03/16 09:45:31  5-MIN KACK 031445Z 30009KT 10SM CLR M01/M12 A3022 -220 43 -2100 310/09 RMK AO2 T10061117
14756KACK ACK20160303095012003/03/16 09:50:31  5-MIN KACK 031450Z 33008KT 10SM CLR M01/M12 A3022 -220 43 -2100 350/08 RMK AO2 SLP232 T10061117 51033
14756KACK ACK20160303095511303/03/16 09:55:31  5-MIN KACK 031455Z 31011G17KT 10SM CLR M01/M12 A3022 -220 43 -2100 330/11G17 RMK AO2 T10061117
14756KACK ACK20160303100011303/03/16 10:00:31  5-MIN KACK 031500Z 30007G17KT 10SM CLR M01/M12 A3022 -220 43 -2200 310/07G17 RMK AO2 T10111122
14756KACK ACK20160303100510703/03/16 10:05:31  5-MIN KACK 031505Z 32010KT 10SM CLR M01/M12 A3022 -220 45 -2200 340/10 RMK AO2 T10111117
14756KACK ACK20160303101010703/03/16 10:10:31  5-MIN KACK 031510Z 31010KT 10SM CLR M01/M12 A3022 -220 43 -2100 330/10 RMK AO2 T10061117
14756KACK ACK20160303101510703/03/16 10:15:31  5-MIN KACK 031515Z 33008KT 10SM CLR M01/M12 A3021 -220 43 -2100 350/08 RMK AO2 T10061117
14756KACK ACK20160303102010703/03/16 10:20:31  5-MIN KACK 031520Z 31009KT 10SM CLR M01/M12 A3021 -210 43 -2100 320/09 RMK AO2 T10061117
14756KACK ACK20160303102510703/03/16 10:25:31  5-MIN KACK 031525Z 30009KT 10SM CLR M01/M12 A3021 -210 45 -2200 310/09 RMK AO2 T10111117
14756KACK ACK20160303103012303/03/16 10:30:31  5-MIN KACK 031530Z 28007KT 250V310 10SM CLR M01/M12 A3021 -210 45 -2200 300/07 270V330 RMK AO2 T10111117
14756KACK ACK20160303103510603/03/16 10:35:31  5-MIN KACK 031535Z 33010KT 10SM CLR 00/M11 A3021 -210 43 -2000 340/10 RMK AO2 T00001111
14756KACK ACK20160303104010703/03/16 10:40:31  5-MIN KACK 031540Z 31010KT 10SM CLR M01/M12 A3021 -210 45 -2200 320/10 RMK AO2 T10111117
14756KACK ACK20160303104512303/03/16 10:45:31  5-MIN KACK 031545Z 28007KT 240V320 10SM CLR M01/M11 A3021 -220 45 -2100 290/07 260V340 RMK AO2 T10061111
14756KACK ACK20160303105011703/03/16 10:50:31  5-MIN KACK 031550Z VRB06KT 10SM FEW020 M01/M11 A3022 -220 47 -2200 VRB/06 RMK AO2 SLP232 T10111111
14756KACK ACK20160303105510603/03/16 10:55:31  5-MIN KACK 031555Z 34010KT 10SM CLR 00/M11 A3022 -220 43 -2000 350/10 RMK AO2 T00001111
14756KACK ACK20160303110010703/03/16 11:00:31  5-MIN KACK 031600Z 36009KT 10SM CLR M01/M11 A3022 -220 45 -2100 020/09 RMK AO2 T10061111
14756KACK ACK20160303110510603/03/16 11:05:31  5-MIN KACK 031605Z 34009KT 10SM CLR 00/M11 A3022 -220 43 -2000 360/09 RMK AO2 T00001111
14756KACK ACK20160303111010603/03/16 11:10:31  5-MIN KACK 031610Z 35012KT 10SM CLR 00/M11 A3022 -220 43 -2000 010/12 RMK AO2 T00001111
14756KACK ACK20160303111510703/03/16 11:15:31  5-MIN KACK 031615Z 33007KT 10SM CLR M01/M12 A3022 -220 43 -2100 350/07 RMK AO2 T10061117
14756KACK ACK20160303112010603/03/16 11:20:31  5-MIN KACK 031620Z 34010KT 10SM CLR 00/M11 A3022 -220 43 -2000 360/10 RMK AO2 T00001111
14756KACK ACK20160303112510703/03/16 11:25:31  5-MIN KACK 031625Z 31008KT 10SM CLR M01/M11 A3022 -220 45 -2100 330/08 RMK AO2 T10061111
14756KACK ACK20160303113010703/03/16 11:30:31  5-MIN KACK 031630Z 34008KT 10SM CLR M01/M12 A3022 -220 43 -2100 360/08 RMK AO2 T10061117
14756KACK ACK20160303113510703/03/16 11:35:31  5-MIN KACK 031635Z VRB06KT 10SM CLR M01/M12 A3022 -220 43 -2100 VRB/06 RMK AO2 T10061117
14756KACK ACK20160303114010603/03/16 11:40:31  5-MIN KACK 031640Z VRB05KT 10SM CLR 00/M11 A3022 -220 43 -2000 VRB/05 RMK AO2 T00001111
14756KACK ACK20160303114510603/03/16 11:45:31  5-MIN KACK 031645Z 34008KT 10SM CLR 00/M11 A3022 -220 43 -2000 350/08 RMK AO2 T00001111
14756KACK ACK20160303115011303/03/16 11:50:31  5-MIN KACK 031650Z 35010KT 10SM CLR 00/M11 A3022 -220 43 -2000 360/10 RMK AO2 SLP232 T00001111
14756KACK ACK20160303115512803/03/16 11:55:31  5-MIN KACK 031655Z 30009G17KT 280V350 10SM CLR 01/M11 A3022 -220 41 -2000 320/09G17 300V010 RMK AO2 T00061111
14756KACK ACK20160303120011203/03/16 12:00:31  5-MIN KACK 031700Z VRB06G17KT 10SM CLR 01/M11 A3022 -220 41 -2000 VRB/06G17 RMK AO2 T00061111
14756KACK ACK20160303120510603/03/16 12:05:31  5-MIN KACK 031705Z VRB03KT 10SM CLR 00/M11 A3022 -220 43 -2000 VRB/03 RMK AO2 T00001111
14756KACK ACK20160303121010603/03/16 12:10:31  5-MIN KACK 031710Z VRB06KT 10SM CLR 01/M11 A3022 -220 43 -2000 VRB/06 RMK AO2 T00061106
14756KACK ACK20160303121510603/03/16 12:15:31  5-MIN KACK 031715Z 34007KT 10SM CLR 00/M11 A3022 -220 43 -2000 360/07 RMK AO2 T00001111
14756KACK ACK20160303122012203/03/16 12:20:31  5-MIN KACK 031720Z 29008KT 260V320 10SM CLR 01/M11 A3022 -220 41 -2000 300/08 280V340 RMK AO2 T00061111
14756KACK ACK20160303122510603/03/16 12:25:31  5-MIN KACK 031725Z 26007KT 10SM CLR 00/M12 A3022 -220 41 -2000 280/07 RMK AO2 T00001117
14756KACK ACK20160303123010703/03/16 12:30:31  5-MIN KACK 031730Z VRB04KT 10SM CLR M01/M12 A3022 -220 43 -2100 VRB/04 RMK AO2 T10061117
14756KACK ACK20160303123510703/03/16 12:35:31  5-MIN KACK 031735Z 28006KT 10SM CLR M01/M12 A3022 -220 43 -2100 290/06 RMK AO2 T10061117
14756KACK ACK20160303124012203/03/16 12:40:31  5-MIN KACK 031740Z 31008KT 270V340 10SM CLR 01/M11 A3022 -220 41 -2000 320/08 290V360 RMK AO2 T00061111
14756KACK ACK20160303124510603/03/16 12:45:31  5-MIN KACK 031745Z 32006KT 10SM CLR 01/M11 A3022 -220 41 -2000 330/06 RMK AO2 T00061111
14756KACK ACK20160303125013103/03/16 12:50:31  5-MIN KACK 031750Z 32006KT 10SM CLR 01/M12 A3022 -220 39 -2000 340/06 RMK AO2 SLP232 T00061117 10006 21033 51022
14756KACK ACK20160303125510603/03/16 12:55:31  5-MIN KACK 031755Z VRB05KT 10SM CLR 00/M12 A3021 -220 39 -2000 VRB/05 RMK AO2 T00001122
14756KACK ACK20160303130010603/03/16 13:00:31  5-MIN KACK 031800Z 30005KT 10SM CLR 00/M12 A3021 -210 39 -2000 320/05 RMK AO2 T00001122
14756KACK ACK20160303130510603/03/16 13:05:31  5-MIN KACK 031805Z 28007KT 10SM CLR 00/M12 A3021 -210 39 -2000 300/07 RMK AO2 T00001122
14756KACK ACK20160303131010603/03/16 13:10:31  5-MIN KACK 031810Z 27009KT 10SM CLR 01/M11 A3020 -210 41 -1900 290/09 RMK AO2 T00061111
14756KACK ACK20160303131510603/03/16 13:15:31  5-MIN KACK 031815Z 24012KT 10SM CLR 01/M11 A3020 -210 43 -1900 250/12 RMK AO2 T00061106
14756KACK ACK20160303132010603/03/16 13:20:31  5-MIN KACK 031820Z 23013KT 10SM CLR 00/M11 A3020 -210 45 -2000 240/13 RMK AO2 T00001106
14756KACK ACK20160303132510603/03/16 13:25:31  5-MIN KACK 031825Z 23012KT 10SM CLR 00/M10 A3020 -210 47 -2000 250/12 RMK AO2 T00001100
14756KACK ACK20160303133010603/03/16 13:30:31  5-MIN KACK 031830Z 22012KT 10SM CLR 00/M11 A3020 -210 45 -2000 240/12 RMK AO2 T00001106
14756KACK ACK20160303133510603/03/16 13:35:31  5-MIN KACK 031835Z 22012KT 10SM CLR 00/M11 A3020 -210 45 -2000 230/12 RMK AO2 T00001106
14756KACK ACK20160303134010603/03/16 13:40:31  5-MIN KACK 031840Z 22013KT 10SM CLR 01/M10 A3020 -210 45 -1900 240/13 RMK AO2 T00061100
14756KACK ACK20160303134510603/03/16 13:45:31  5-MIN KACK 031845Z 22012KT 10SM CLR 00/M11 A3020 -210 43 -2000 240/12 RMK AO2 T00001111
14756KACK ACK20160303135011303/03/16 13:50:31  5-MIN KACK 031850Z 23011KT 10SM CLR 00/M11 A3021 -210 45 -2000 240/11 RMK AO2 SLP228 T00001106
14756KACK ACK20160303135510603/03/16 13:55:31  5-MIN KACK 031855Z 22011KT 10SM CLR 00/M11 A3021 -210 45 -2000 230/11 RMK AO2 T00001106
14756KACK ACK20160303140010603/03/16 14:00:31  5-MIN KACK 031900Z 22010KT 10SM CLR 00/M11 A3021 -210 45 -2000 240/10 RMK AO2 T00001106
14756KACK ACK20160303140510603/03/16 14:05:31  5-MIN KACK 031905Z 23009KT 10SM CLR 00/M11 A3021 -210 45 -2000 240/09 RMK AO2 T00001106
14756KACK ACK20160303141010603/03/16 14:10:31  5-MIN KACK 031910Z 21011KT 10SM CLR 01/M11 A3021 -220 43 -2000 230/11 RMK AO2 T00061106
14756KACK ACK20160303141510603/03/16 14:15:31  5-MIN KACK 031915Z 22010KT 10SM CLR 00/M11 A3022 -220 45 -2000 240/10 RMK AO2 T00001106
14756KACK ACK20160303142010603/03/16 14:20:31  5-MIN KACK 031920Z 23010KT 10SM CLR 00/M11 A3022 -220 45 -2000 240/10 RMK AO2 T00001106
14756KACK ACK20160303142510603/03/16 14:25:31  5-MIN KACK 031925Z 22011KT 10SM CLR 00/M11 A3021 -220 45 -2000 240/11 RMK AO2 T00001106
14756KACK ACK20160303143010603/03/16 14:30:31  5-MIN KACK 031930Z 25009KT 10SM CLR 01/M10 A3022 -220 45 -2000 260/09 RMK AO2 T00061100
14756KACK ACK20160303143510603/03/16 14:35:31  5-MIN KACK 031935Z 23011KT 10SM CLR 00/M11 A3022 -220 45 -2000 250/11 RMK AO2 T00001106
14756KACK ACK20160303144010603/03/16 14:40:31  5-MIN KACK 031940Z 24008KT 10SM CLR 00/M11 A3022 -220 45 -2000 250/08 RMK AO2 T00001106
14756KACK ACK20160303144510603/03/16 14:45:31  5-MIN KACK 031945Z 22008KT 10SM CLR 00/M10 A3022 -220 47 -2000 240/08 RMK AO2 T00001100
14756KACK ACK20160303145012103/03/16 14:50:31  5-MIN KACK 031950Z AUTO 23011KT 10SM FEW036 00/M10 A3021 -220 47 -2000 240/11 RMK AO2 SLP231 T00001100
14756KACK ACK20160303145511503/03/16 14:55:31  5-MIN KACK 031955Z 22008G15KT 10SM FEW036 00/M11 A3021 -210 45 -2000 230/08G15 RMK AO2 T00001106
14756KACK ACK20160303150010603/03/16 15:00:31  5-MIN KACK 032000Z 24009KT 10SM CLR 00/M10 A3021 -210 47 -2000 250/09 RMK AO2 T00001100
14756KACK ACK20160303150510603/03/16 15:05:31  5-MIN KACK 032005Z 22007KT 10SM CLR 00/M10 A3021 -210 47 -2000 230/07 RMK AO2 T00001100
14756KACK ACK20160303151010603/03/16 15:10:31  5-MIN KACK 032010Z 23009KT 10SM CLR 00/M11 A3021 -210 45 -2000 240/09 RMK AO2 T00001106
14756KACK ACK20160303151510603/03/16 15:15:31  5-MIN KACK 032015Z 23009KT 10SM CLR 00/M11 A3022 -220 45 -2000 250/09 RMK AO2 T00001106
14756KACK ACK20160303152010603/03/16 15:20:31  5-MIN KACK 032020Z 23009KT 10SM CLR 00/M11 A3022 -220 45 -2000 250/09 RMK AO2 T00001106
14756KACK ACK20160303152510603/03/16 15:25:31  5-MIN KACK 032025Z 24009KT 10SM CLR 00/M11 A3022 -220 45 -2000 250/09 RMK AO2 T00001106
14756KACK ACK20160303153010603/03/16 15:30:31  5-MIN KACK 032030Z 21010KT 10SM CLR 00/M11 A3022 -220 45 -2000 230/10 RMK AO2 T00001106
14756KACK ACK20160303153510603/03/16 15:35:31  5-MIN KACK 032035Z 24009KT 10SM CLR 00/M11 A3022 -220 45 -2000 250/09 RMK AO2 T00001106
14756KACK ACK20160303154010603/03/16 15:40:31  5-MIN KACK 032040Z 24008KT 10SM CLR 00/M10 A3022 -220 47 -2000 250/08 RMK AO2 T00001100
14756KACK ACK20160303154510703/03/16 15:45:31  5-MIN KACK 032045Z 21011KT 10SM CLR M01/M10 A3022 -230 49 -2100 230/11 RMK AO2 T10061100
14756KACK ACK20160303155011903/03/16 15:50:31  5-MIN KACK 032050Z 25009KT 10SM CLR 00/M10 A3023 -230 47 -2000 260/09 RMK AO2 SLP235 T00001100 58001
14756KACK ACK20160303155510703/03/16 15:55:31  5-MIN KACK 032055Z 24011KT 10SM CLR M01/M10 A3022 -230 49 -2100 250/11 RMK AO2 T10061100
14756KACK ACK20160303160010703/03/16 16:00:31  5-MIN KACK 032100Z 23009KT 10SM CLR M01/M11 A3023 -230 47 -2100 240/09 RMK AO2 T10061106
14756KACK ACK20160303160510703/03/16 16:05:31  5-MIN KACK 032105Z 23010KT 10SM CLR M01/M11 A3022 -230 47 -2100 240/10 RMK AO2 T10061106
14756KACK ACK20160303161010703/03/16 16:10:31  5-MIN KACK 032110Z 22011KT 10SM CLR M01/M11 A3022 -220 47 -2100 230/11 RMK AO2 T10061106
14756KACK ACK20160303161510703/03/16 16:15:31  5-MIN KACK 032115Z 21010KT 10SM CLR M01/M11 A3023 -230 47 -2100 230/10 RMK AO2 T10061106
14756KACK ACK20160303162010703/03/16 16:20:31  5-MIN KACK 032120Z 24011KT 10SM CLR M01/M11 A3023 -230 47 -2100 260/11 RMK AO2 T10061106
14756KACK ACK20160303162510703/03/16 16:25:31  5-MIN KACK 032125Z 24010KT 10SM CLR M01/M11 A3023 -230 47 -2100 250/10 RMK AO2 T10061106
14756KACK ACK20160303163010703/03/16 16:30:31  5-MIN KACK 032130Z 24008KT 10SM CLR M01/M11 A3023 -240 45 -2100 250/08 RMK AO2 T10061111
14756KACK ACK20160303163510703/03/16 16:35:31  5-MIN KACK 032135Z 23010KT 10SM CLR M01/M11 A3023 -230 45 -2100 250/10 RMK AO2 T10061111
14756KACK ACK20160303164010703/03/16 16:40:31  5-MIN KACK 032140Z 24010KT 10SM CLR M01/M11 A3023 -230 47 -2100 250/10 RMK AO2 T10061106
14756KACK ACK20160303164510703/03/16 16:45:31  5-MIN KACK 032145Z 23010KT 10SM CLR M01/M10 A3023 -230 51 -2200 250/10 RMK AO2 T10111100
14756KACK ACK20160303165011403/03/16 16:50:31  5-MIN KACK 032150Z 23009KT 10SM CLR M01/M11 A3023 -230 49 -2200 250/09 RMK AO2 SLP237 T10111106
14756KACK ACK20160303165510703/03/16 16:55:31  5-MIN KACK 032155Z 23009KT 10SM CLR M01/M11 A3023 -240 49 -2200 240/09 RMK AO2 T10111106
14756KACK ACK20160303170010703/03/16 17:00:31  5-MIN KACK 032200Z 24009KT 10SM CLR M01/M11 A3023 -240 49 -2200 260/09 RMK AO2 T10111106
14756KACK ACK20160303170510703/03/16 17:05:31  5-MIN KACK 032205Z 23007KT 10SM CLR M01/M11 A3024 -240 49 -2200 250/07 RMK AO2 T10111106
14756KACK ACK20160303171010703/03/16 17:10:31  5-MIN KACK 032210Z 23008KT 10SM CLR M01/M11 A3024 -240 49 -2200 250/08 RMK AO2 T10111106
14756KACK ACK20160303171510703/03/16 17:15:31  5-MIN KACK 032215Z 25009KT 10SM CLR M01/M10 A3024 -240 51 -2200 260/09 RMK AO2 T10111100
14756KACK ACK20160303172010703/03/16 17:20:31  5-MIN KACK 032220Z 24008KT 10SM CLR M01/M10 A3024 -240 51 -2200 250/08 RMK AO2 T10111100
14756KACK ACK20160303172510703/03/16 17:25:31  5-MIN KACK 032225Z 25008KT 10SM CLR M02/M10 A3024 -240 53 -2300 270/08 RMK AO2 T10171100
14756KACK ACK20160303173010703/03/16 17:30:31  5-MIN KACK 032230Z 26009KT 10SM CLR M01/M11 A3024 -240 49 -2200 270/09 RMK AO2 T10111106
14756KACK ACK20160303173510703/03/16 17:35:31  5-MIN KACK 032235Z 25007KT 10SM CLR M01/M11 A3024 -240 49 -2200 260/07 RMK AO2 T10111106
14756KACK ACK20160303174010703/03/16 17:40:31  5-MIN KACK 032240Z 24007KT 10SM CLR M02/M11 A3024 -240 51 -2300 250/07 RMK AO2 T10171106
14756KACK ACK20160303174510703/03/16 17:45:31  5-MIN KACK 032245Z 23008KT 10SM CLR M02/M10 A3024 -240 55 -2300 250/08 RMK AO2 T10221100
14756KACK ACK20160303175011403/03/16 17:50:31  5-MIN KACK 032250Z 25005KT 10SM CLR M02/M10 A3024 -240 55 -2300 260/05 RMK AO2 SLP240 T10221100
14756KACK ACK20160303175510703/03/16 17:55:31  5-MIN KACK 032255Z 25006KT 10SM CLR M02/M10 A3024 -240 55 -2300 260/06 RMK AO2 T10221100
14756KACK ACK20160303180010703/03/16 18:00:31  5-MIN KACK 032300Z 24006KT 10SM CLR M02/M10 A3024 -240 55 -2300 260/06 RMK AO2 T10221100
14756KACK ACK20160303180510703/03/16 18:05:31  5-MIN KACK 032305Z 22008KT 10SM CLR M02/M10 A3023 -230 55 -2300 240/08 RMK AO2 T10221100
14756KACK ACK20160303181010703/03/16 18:10:31  5-MIN KACK 032310Z 22006KT 10SM CLR M02/M11 A3023 -230 51 -2300 230/06 RMK AO2 T10171106
14756KACK ACK20160303181510703/03/16 18:15:31  5-MIN KACK 032315Z 24008KT 10SM CLR M02/M10 A3024 -240 55 -2300 250/08 RMK AO2 T10221100
14756KACK ACK20160303182010703/03/16 18:20:31  5-MIN KACK 032320Z 23006KT 10SM CLR M02/M10 A3024 -240 53 -2300 250/06 RMK AO2 T10171100
14756KACK ACK20160303182510703/03/16 18:25:31  5-MIN KACK 032325Z 22007KT 10SM CLR M02/M09 A3024 -240 58 -2300 240/07 RMK AO2 T10221094
14756KACK ACK20160303183010703/03/16 18:30:31  5-MIN KACK 032330Z 22006KT 10SM CLR M02/M09 A3024 -240 55 -2300 240/06 RMK AO2 T10171094
14756KACK ACK20160303183510703/03/16 18:35:31  5-MIN KACK 032335Z 24006KT 10SM CLR M02/M10 A3024 -240 53 -2300 250/06 RMK AO2 T10171100
14756KACK ACK20160303184010703/03/16 18:40:31  5-MIN KACK 032340Z 23007KT 10SM CLR M02/M09 A3025 -250 55 -2300 240/07 RMK AO2 T10171094
14756KACK ACK20160303184510703/03/16 18:45:31  5-MIN KACK 032345Z 23008KT 10SM CLR M02/M09 A3025 -250 58 -2300 240/08 RMK AO2 T10221094
14756KACK ACK20160303185013203/03/16 18:50:31  5-MIN KACK 032350Z 23007KT 10SM CLR M02/M09 A3025 -250 58 -2300 240/07 RMK AO2 SLP243 T10221094 10006 21022 53003
14756KACK ACK20160303185510703/03/16 18:55:31  5-MIN KACK 032355Z 23007KT 10SM CLR M02/M09 A3025 -250 58 -2300 240/07 RMK AO2 T10221094
14756KACK ACK20160303190010703/03/16 19:00:31  5-MIN KACK 040000Z 23006KT 10SM CLR M02/M09 A3025 -250 58 -2300 250/06 RMK AO2 T10221094
14756KACK ACK20160303190510703/03/16 19:05:31  5-MIN KACK 040005Z 22007KT 10SM CLR M02/M09 A3025 -250 58 -2300 240/07 RMK AO2 T10221094
14756KACK ACK20160303191010703/03/16 19:10:31  5-MIN KACK 040010Z 22006KT 10SM CLR M02/M09 A3025 -250 58 -2300 230/06 RMK AO2 T10171089
14756KACK ACK20160303191510703/03/16 19:15:31  5-MIN KACK 040015Z 22007KT 10SM CLR M02/M09 A3025 -250 58 -2300 240/07 RMK AO2 T10171089
14756KACK ACK20160303192010703/03/16 19:20:31  5-MIN KACK 040020Z 24004KT 10SM CLR M02/M09 A3025 -250 58 -2300 260/04 RMK AO2 T10171089
14756KACK ACK20160303192510703/03/16 19:25:31  5-MIN KACK 040025Z 24003KT 10SM CLR M02/M09 A3025 -250 60 -2300 260/03 RMK AO2 T10221089
14756KACK ACK20160303193010703/03/16 19:30:31  5-MIN KACK 040030Z 00000KT 10SM CLR M01/M09 A3025 -250 53 -2200 000/00 RMK AO2 T10111094
14756KACK ACK20160303193510703/03/16 19:35:31  5-MIN KACK 040035Z 00000KT 10SM CLR M02/M10 A3026 -260 53 -2300 000/00 RMK AO2 T10171100
14756KACK ACK20160303194010703/03/16 19:40:31  5-MIN KACK 040040Z 24004KT 10SM CLR M02/M09 A3026 -260 55 -2300 260/04 RMK AO2 T10171094
14756KACK ACK20160303194510703/03/16 19:45:31  5-MIN KACK 040045Z 24003KT 10SM CLR M02/M09 A3026 -260 55 -2300 260/03 RMK AO2 T10171094
14756KACK ACK20160303195011403/03/16 19:50:31  5-MIN KACK 040050Z 24004KT 10SM CLR M02/M09 A3026 -260 55 -2300 250/04 RMK AO2 SLP247 T10171094
14756KACK ACK20160303195510703/03/16 19:55:31  5-MIN KACK 040055Z 25004KT 10SM CLR M02/M09 A3026 -260 55 -2300 270/04 RMK AO2 T10171094
14756KACK ACK20160303200010703/03/16 20:00:31  5-MIN KACK 040100Z 24004KT 10SM CLR M02/M09 A3027 -260 58 -2400 250/04 RMK AO2 T10221094
14756KACK ACK20160303200510703/03/16 20:05:31  5-MIN KACK 040105Z 23004KT 10SM CLR M02/M09 A3027 -270 55 -2300 240/04 RMK AO2 T10171094
14756KACK ACK20160303201010703/03/16 20:10:31  5-MIN KACK 040110Z 24004KT 10SM CLR M01/M09 A3027 -260 53 -2200 250/04 RMK AO2 T10111094
14756KACK ACK20160303201510703/03/16 20:15:31  5-MIN KACK 040115Z 25005KT 10SM CLR M01/M09 A3027 -270 55 -2200 260/05 RMK AO2 T10111089
14756KACK ACK20160303202010703/03/16 20:20:31  5-MIN KACK 040120Z 26003KT 10SM CLR M01/M09 A3027 -270 55 -2200 270/03 RMK AO2 T10111089
14756KACK ACK20160303202510703/03/16 20:25:31  5-MIN KACK 040125Z 25003KT 10SM CLR M01/M09 A3027 -270 55 -2200 270/03 RMK AO2 T10111089
14756KACK ACK20160303203010703/03/16 20:30:31  5-MIN KACK 040130Z 25004KT 10SM CLR M01/M09 A3027 -270 53 -2200 270/04 RMK AO2 T10111094
14756KACK ACK20160303203510703/03/16 20:35:31  5-MIN KACK 040135Z 25006KT 10SM CLR M01/M09 A3027 -270 53 -2200 260/06 RMK AO2 T10111094
14756KACK ACK20160303204011003/03/16 20:40:31  5-MIN KACK 040140Z 24005KT 10SM FEW120 M01/M09 A3027 -270 51 -2200 260/05 RMK AO2 T10061094
14756KACK ACK20160303204511003/03/16 20:45:31  5-MIN KACK 040145Z 26005KT 10SM FEW120 M01/M09 A3027 -270 51 -2200 270/05 RMK AO2 T10061094
14756KACK ACK20160303205012703/03/16 20:50:31  5-MIN KACK 040150Z AUTO 26004KT 10SM FEW120 M01/M09 A3027 -270 51 -2200 280/04 RMK AO2 SLP251 T10061094 TSNO
14756KACK ACK20160303205512003/03/16 20:55:31  5-MIN KACK 040155Z AUTO 25005KT 10SM FEW120 M01/M09 A3027 -270 51 -2200 270/05 RMK AO2 T10061094 TSNO
14756KACK ACK20160303210012003/03/16 21:00:31  5-MIN KACK 040200Z AUTO 24006KT 10SM FEW120 M01/M09 A3027 -270 53 -2200 250/06 RMK AO2 T10061089 TSNO
14756KACK ACK20160303210512003/03/16 21:05:31  5-MIN KACK 040205Z AUTO 24007KT 10SM FEW120 M01/M09 A3027 -270 53 -2200 260/07 RMK AO2 T10061089 TSNO
14756KACK ACK20160303211011703/03/16 21:10:31  5-MIN KACK 040210Z AUTO 23005KT 10SM CLR M01/M08 A3028 -270 56 -2200 250/05 RMK AO2 T10061083 TSNO
14756KACK ACK20160303211511603/03/16 21:15:31  5-MIN KACK 040215Z AUTO 25006KT 10SM CLR 00/M08 A3028 -270 53 -2100 260/06 RMK AO2 T00001083 TSNO
14756KACK ACK20160303212011903/03/16 21:20:31  5-MIN KACK 040220Z AUTO 25006KT 10SM FEW120 00/M09 A3027 -270 51 -2100 270/06 RMK AO2 T00001089 TSNO
14756KACK ACK20160303212511903/03/16 21:25:31  5-MIN KACK 040225Z AUTO 25005KT 10SM SCT120 00/M09 A3027 -270 51 -2100 260/05 RMK AO2 T00001089 TSNO
14756KACK ACK20160303213011903/03/16 21:30:31  5-MIN KACK 040230Z AUTO 24004KT 10SM BKN120 00/M09 A3027 -270 51 -2100 260/04 RMK AO2 T00001089 TSNO
14756KACK ACK20160303213511903/03/16 21:35:31  5-MIN KACK 040235Z AUTO 25005KT 10SM BKN120 00/M09 A3027 -260 51 -2100 260/05 RMK AO2 T00001089 TSNO
14756KACK ACK20160303214011903/03/16 21:40:31  5-MIN KACK 040240Z AUTO 25004KT 10SM BKN120 00/M09 A3027 -270 51 -2100 260/04 RMK AO2 T00001089 TSNO
14756KACK ACK20160303214511903/03/16 21:45:31  5-MIN KACK 040245Z AUTO 25004KT 10SM BKN120 00/M09 A3027 -270 51 -2100 270/04 RMK AO2 T00001089 TSNO
14756KACK ACK20160303215013203/03/16 21:50:31  5-MIN KACK 040250Z AUTO 26004KT 10SM BKN120 00/M09 A3027 -270 51 -2100 280/04 RMK AO2 SLP250 T00001089 53009 TSNO
14756KACK ACK20160303215511903/03/16 21:55:31  5-MIN KACK 040255Z AUTO 26004KT 10SM SCT120 00/M09 A3026 -260 51 -2100 280/04 RMK AO2 T00001089 TSNO
14756KACK ACK20160303220011903/03/16 22:00:31  5-MIN KACK 040300Z AUTO 26003KT 10SM FEW120 00/M09 A3027 -260 51 -2100 280/03 RMK AO2 T00001089 TSNO
14756KACK ACK20160303220511903/03/16 22:05:31  5-MIN KACK 040305Z AUTO 00000KT 10SM FEW120 00/M09 A3026 -260 51 -2100 000/00 RMK AO2 T00001089 TSNO
14756KACK ACK20160303221011903/03/16 22:10:31  5-MIN KACK 040310Z AUTO 00000KT 10SM FEW120 00/M09 A3026 -260 51 -2100 000/00 RMK AO2 T00001089 TSNO
14756KACK ACK20160303221511903/03/16 22:15:31  5-MIN KACK 040315Z AUTO 00000KT 10SM SCT120 00/M09 A3027 -260 51 -2100 000/00 RMK AO2 T00001089 TSNO
14756KACK ACK20160303222011903/03/16 22:20:31  5-MIN KACK 040320Z AUTO 26003KT 10SM BKN120 00/M09 A3027 -260 51 -2100 280/03 RMK AO2 T00001089 TSNO
14756KACK ACK20160303222512003/03/16 22:25:31  5-MIN KACK 040325Z AUTO 27005KT 10SM BKN120 M01/M08 A3027 -270 56 -2200 280/05 RMK AO2 T10061083 TSNO
14756KACK ACK20160303223011903/03/16 22:30:31  5-MIN KACK 040330Z AUTO 26004KT 10SM BKN120 00/M08 A3027 -270 53 -2100 280/04 RMK AO2 T00001083 TSNO
14756KACK ACK20160303223511903/03/16 22:35:31  5-MIN KACK 040335Z AUTO 27003KT 10SM BKN120 00/M09 A3026 -260 51 -2100 280/03 RMK AO2 T00001089 TSNO
14756KACK ACK20160303224011903/03/16 22:40:31  5-MIN KACK 040340Z AUTO 25004KT 10SM BKN120 00/M09 A3026 -260 51 -2100 270/04 RMK AO2 T00001089 TSNO
14756KACK ACK20160303224511903/03/16 22:45:31  5-MIN KACK 040345Z AUTO 24003KT 10SM BKN120 00/M08 A3026 -260 53 -2100 260/03 RMK AO2 T00001083 TSNO
14756KACK ACK20160303225012703/03/16 22:50:31  5-MIN KACK 040350Z AUTO 25003KT 10SM BKN120 M01/M08 A3026 -260 56 -2100 270/03 RMK AO2 SLP246 T10061083 TSNO
14756KACK ACK20160303225511903/03/16 22:55:31  5-MIN KACK 040355Z AUTO 00000KT 10SM BKN120 00/M08 A3025 -250 53 -2100 000/00 RMK AO2 T00001083 TSNO
14756KACK ACK20160303230011903/03/16 23:00:31  5-MIN KACK 040400Z AUTO 23003KT 10SM SCT120 00/M08 A3026 -250 53 -2100 250/03 RMK AO2 T00001083 TSNO
14756KACK ACK20160303230511903/03/16 23:05:31  5-MIN KACK 040405Z AUTO 20003KT 10SM SCT120 00/M08 A3026 -260 53 -2100 210/03 RMK AO2 T00001083 TSNO
14756KACK ACK20160303231011903/03/16 23:10:31  5-MIN KACK 040410Z AUTO 00000KT 10SM BKN120 00/M08 A3026 -260 53 -2100 000/00 RMK AO2 T00001083 TSNO
14756KACK ACK20160303231511903/03/16 23:15:31  5-MIN KACK 040415Z AUTO 00000KT 10SM BKN120 00/M09 A3026 -260 51 -2100 000/00 RMK AO2 T00001089 TSNO
14756KACK ACK20160303232011903/03/16 23:20:31  5-MIN KACK 040420Z AUTO 25003KT 10SM BKN120 00/M08 A3026 -260 53 -2100 270/03 RMK AO2 T00001083 TSNO
14756KACK ACK20160303232511903/03/16 23:25:31  5-MIN KACK 040425Z AUTO 24003KT 10SM BKN110 00/M08 A3027 -260 56 -2100 260/03 RMK AO2 T00001078 TSNO
14756KACK ACK20160303233011903/03/16 23:30:31  5-MIN KACK 040430Z AUTO 25003KT 10SM OVC110 00/M08 A3027 -270 56 -2100 270/03 RMK AO2 T00001078 TSNO
14756KACK ACK20160303233511903/03/16 23:35:31  5-MIN KACK 040435Z AUTO 24003KT 10SM OVC110 00/M07 A3027 -260 58 -2100 260/03 RMK AO2 T00001072 TSNO
14756KACK ACK20160303234011903/03/16 23:40:31  5-MIN KACK 040440Z AUTO 23003KT 10SM OVC110 00/M08 A3026 -260 56 -2100 250/03 RMK AO2 T00001078 TSNO
14756KACK ACK20160303234511903/03/16 23:45:31  5-MIN KACK 040445Z AUTO VRB03KT 10SM OVC110 00/M08 A3025 -250 56 -2100 VRB/03 RMK AO2 T00001078 TSNO
14756KACK ACK20160303235013603/03/16 23:50:31  5-MIN KACK 040450Z AUTO 22003KT 10SM OVC110 00/M08 A3025 -250 56 -2100 230/03 RMK AO2 SLP244 T00001078 400061039 TSNO
14756KACK ACK20160303235511903/03/16 23:55:31  5-MIN KACK 040455Z AUTO 24005KT 10SM OVC100 00/M08 A3026 -260 56 -2100 260/05 RMK AO2 T00001078 TSNO
14756KACK ACK20160304000011903/04/16 00:00:31  5-MIN KACK 040500Z AUTO 21004KT 10SM OVC100 00/M08 A3026 -260 56 -2100 220/04 RMK AO2 T00001078 TSNO
14756KACK ACK20160304000511903/04/16 00:05:31  5-MIN KACK 040505Z AUTO 22003KT 10SM OVC100 00/M08 A3026 -260 56 -2100 230/03 RMK AO2 T00001078 TSNO
14756KACK ACK20160304001011903/04/16 00:10:31  5-MIN KACK 040510Z AUTO 22003KT 10SM OVC100 00/M08 A3027 -260 56 -2100 240/03 RMK AO2 T00001078 TSNO
14756KACK ACK20160304001511903/04/16 00:15:31  5-MIN KACK 040515Z AUTO 24003KT 10SM OVC100 01/M08 A3027 -270 54 -2000 250/03 RMK AO2 T00061078 TSNO
14756KACK ACK20160304002011903/04/16 00:20:31  5-MIN KACK 040520Z AUTO 25003KT 10SM OVC100 00/M08 A3027 -270 56 -2100 260/03 RMK AO2 T00001078 TSNO
14756KACK ACK20160304002511903/04/16 00:25:31  5-MIN KACK 040525Z AUTO 00000KT 10SM OVC095 00/M08 A3026 -260 56 -2100 000/00 RMK AO2 T00001078 TSNO
14756KACK ACK20160304003011903/04/16 00:30:31  5-MIN KACK 040530Z AUTO 00000KT 10SM OVC095 01/M08 A3026 -260 51 -2000 000/00 RMK AO2 T00061083 TSNO
14756KACK ACK20160304003511903/04/16 00:35:31  5-MIN KACK 040535Z AUTO 00000KT 10SM OVC090 01/M08 A3026 -260 54 -2000 000/00 RMK AO2 T00061078 TSNO
14756KACK ACK20160304004011903/04/16 00:40:31  5-MIN KACK 040540Z AUTO 00000KT 10SM OVC090 01/M08 A3026 -250 54 -2000 000/00 RMK AO2 T00061078 TSNO
14756KACK ACK20160304004511903/04/16 00:45:31  5-MIN KACK 040545Z AUTO 00000KT 10SM OVC090 00/M07 A3025 -250 58 -2100 000/00 RMK AO2 T00001072 TSNO
14756KACK ACK20160304005014403/04/16 00:50:31  5-MIN KACK 040550Z AUTO 00000KT 10SM OVC090 00/M07 A3025 -250 61 -2100 000/00 RMK AO2 SLP244 T00001067 10006 21022 50005 TSNO
14756KACK ACK20160304005512603/04/16 00:55:31  5-MIN KACK 040555Z AUTO 00000KT 10SM BKN090 OVC110 00/M06 A3025 -250 63 -2100 000/00 RMK AO2 T00001061 TSNO
14756KACK ACK20160304010012603/04/16 01:00:31  5-MIN KACK 040600Z AUTO 00000KT 10SM SCT090 OVC110 00/M06 A3025 -250 63 -2100 000/00 RMK AO2 T00001061 TSNO
14756KACK ACK20160304010512003/04/16 01:05:31  5-MIN KACK 040605Z AUTO 00000KT 10SM OVC100 M01/M06 A3025 -250 66 -2100 000/00 RMK AO2 T10061061 TSNO
14756KACK ACK20160304011012003/04/16 01:10:31  5-MIN KACK 040610Z AUTO 00000KT 10SM OVC100 M01/M06 A3025 -250 66 -2100 000/00 RMK AO2 T10061061 TSNO
14756KACK ACK20160304011511903/04/16 01:15:31  5-MIN KACK 040615Z AUTO 00000KT 10SM OVC100 00/M06 A3024 -240 63 -2100 000/00 RMK AO2 T00001061 TSNO
14756KACK ACK20160304012012003/04/16 01:20:31  5-MIN KACK 040620Z AUTO 00000KT 10SM OVC100 M01/M07 A3024 -240 63 -2100 000/00 RMK AO2 T10061067 TSNO
14756KACK ACK20160304012511903/04/16 01:25:31  5-MIN KACK 040625Z AUTO 07003KT 10SM OVC095 00/M06 A3024 -240 63 -2000 090/03 RMK AO2 T00001061 TSNO
14756KACK ACK20160304013012003/04/16 01:30:31  5-MIN KACK 040630Z AUTO 07004KT 10SM OVC095 M01/M06 A3023 -230 66 -2100 090/04 RMK AO2 T10061061 TSNO
14756KACK ACK20160304013512003/04/16 01:35:31  5-MIN KACK 040635Z AUTO 00000KT 10SM OVC095 M01/M07 A3024 -240 63 -2100 000/00 RMK AO2 T10061067 TSNO
14756KACK ACK20160304014012003/04/16 01:40:31  5-MIN KACK 040640Z AUTO 06003KT 10SM OVC095 M01/M07 A3024 -240 63 -2100 080/03 RMK AO2 T10061067 TSNO
14756KACK ACK20160304014512003/04/16 01:45:31  5-MIN KACK 040645Z AUTO 00000KT 10SM OVC095 M01/M07 A3024 -240 63 -2100 000/00 RMK AO2 T10061067 TSNO
14756KACK ACK20160304015012703/04/16 01:50:31  5-MIN KACK 040650Z AUTO 00000KT 10SM OVC095 M01/M07 A3023 -230 63 -2100 000/00 RMK AO2 SLP238 T10061067 TSNO
14756KACK ACK20160304015512003/04/16 01:55:31  5-MIN KACK 040655Z AUTO 07003KT 10SM OVC095 M01/M07 A3023 -230 63 -2100 090/03 RMK AO2 T10061067 TSNO
14756KACK ACK20160304020012003/04/16 02:00:31  5-MIN KACK 040700Z AUTO 06003KT 10SM OVC090 M01/M07 A3022 -230 63 -2100 080/03 RMK AO2 T10061067 TSNO
14756KACK ACK20160304020512703/04/16 02:05:31  5-MIN KACK 040705Z AUTO 06004KT 10SM OVC090 M01/M07 A3022 -220 66 -2200 070/04 RMK AO2 PRESFR T10111067 TSNO
14756KACK ACK20160304021012003/04/16 02:10:31  5-MIN KACK 040710Z AUTO 05004KT 10SM OVC090 M01/M06 A3022 -220 66 -2100 070/04 RMK AO2 T10061061 TSNO
14756KACK ACK20160304021512003/04/16 02:15:31  5-MIN KACK 040715Z AUTO 05004KT 10SM OVC090 M01/M06 A3022 -220 69 -2200 070/04 RMK AO2 T10111061 TSNO
14756KACK ACK20160304022012003/04/16 02:20:31  5-MIN KACK 040720Z AUTO 05004KT 10SM OVC085 M01/M06 A3021 -210 69 -2200 070/04 RMK AO2 T10111061 TSNO
14756KACK ACK20160304022512003/04/16 02:25:31  5-MIN KACK 040725Z AUTO 05004KT 10SM OVC085 M01/M06 A3021 -210 69 -2200 070/04 RMK AO2 T10111061 TSNO
14756KACK ACK20160304023012003/04/16 02:30:31  5-MIN KACK 040730Z AUTO 06004KT 10SM OVC080 M01/M06 A3021 -210 66 -2100 070/04 RMK AO2 T10061061 TSNO
14756KACK ACK20160304023511903/04/16 02:35:31  5-MIN KACK 040735Z AUTO 05004KT 10SM OVC080 00/M07 A3021 -210 61 -2000 070/04 RMK AO2 T00001067 TSNO
14756KACK ACK20160304024011903/04/16 02:40:31  5-MIN KACK 040740Z AUTO 05004KT 10SM OVC080 00/M07 A3021 -210 61 -2000 070/04 RMK AO2 T00001067 TSNO
14756KACK ACK20160304024511903/04/16 02:45:31  5-MIN KACK 040745Z AUTO 06004KT 10SM OVC080 00/M07 A3021 -210 58 -2000 080/04 RMK AO2 T00001072 TSNO
14756KACK ACK20160304025012603/04/16 02:50:31  5-MIN KACK 040750Z AUTO 06005KT 10SM OVC080 00/M07 A3020 -210 58 -2000 070/05 RMK AO2 SLP227 T00001072 TSNO
14756KACK ACK20160304025511903/04/16 02:55:31  5-MIN KACK 040755Z AUTO 07005KT 10SM OVC080 00/M07 A3020 -200 58 -2000 080/05 RMK AO2 T00001072 TSNO
14756KACK ACK20160304030011903/04/16 03:00:31  5-MIN KACK 040800Z AUTO 06005KT 10SM OVC080 00/M07 A3019 -200 58 -2000 080/05 RMK AO2 T00001072 TSNO
14756KACK ACK20160304030511903/04/16 03:05:31  5-MIN KACK 040805Z AUTO 06004KT 10SM OVC080 00/M07 A3020 -200 58 -2000 080/04 RMK AO2 T00001072 TSNO
14756KACK ACK20160304031011903/04/16 03:10:31  5-MIN KACK 040810Z AUTO 06004KT 10SM OVC080 00/M07 A3020 -200 58 -2000 080/04 RMK AO2 T00001072 TSNO
14756KACK ACK20160304031511903/04/16 03:15:31  5-MIN KACK 040815Z AUTO 06004KT 10SM OVC080 00/M07 A3020 -200 58 -2000 080/04 RMK AO2 T00001072 TSNO
14756KACK ACK20160304032011903/04/16 03:20:31  5-MIN KACK 040820Z AUTO 06004KT 10SM OVC080 00/M07 A3020 -200 58 -2000 070/04 RMK AO2 T00001072 TSNO
14756KACK ACK20160304032511903/04/16 03:25:31  5-MIN KACK 040825Z AUTO 05004KT 10SM OVC080 00/M07 A3020 -210 61 -2000 070/04 RMK AO2 T00001067 TSNO
14756KACK ACK20160304033011903/04/16 03:30:31  5-MIN KACK 040830Z AUTO 05003KT 10SM OVC080 00/M07 A3020 -210 58 -2000 060/03 RMK AO2 T00001072 TSNO
14756KACK ACK20160304033511903/04/16 03:35:31  5-MIN KACK 040835Z AUTO 05003KT 10SM OVC080 00/M07 A3021 -210 61 -2000 070/03 RMK AO2 T00001067 TSNO
14756KACK ACK20160304034011903/04/16 03:40:31  5-MIN KACK 040840Z AUTO 05003KT 10SM OVC080 00/M07 A3020 -210 61 -2000 070/03 RMK AO2 T00001067 TSNO
14756KACK ACK20160304034512003/04/16 03:45:31  5-MIN KACK 040845Z AUTO 05004KT 10SM OVC075 M01/M06 A3020 -200 66 -2100 060/04 RMK AO2 T10061061 TSNO
14756KACK ACK20160304035014003/04/16 03:50:31  5-MIN KACK 040850Z AUTO 05005KT 10SM BKN060 OVC080 M01/M06 A3020 -200 66 -2100 060/05 RMK AO2 SLP226 T10061061 56004 TSNO
14756KACK ACK20160304035512603/04/16 03:55:31  5-MIN KACK 040855Z AUTO 05005KT 10SM BKN055 OVC075 00/M06 A3020 -200 63 -2000 070/05 RMK AO2 T00001061 TSNO
14756KACK ACK20160304040012603/04/16 04:00:31  5-MIN KACK 040900Z AUTO 05004KT 10SM BKN055 OVC075 00/M06 A3019 -200 63 -2000 060/04 RMK AO2 T00001061 TSNO
14756KACK ACK20160304040512603/04/16 04:05:31  5-MIN KACK 040905Z AUTO 05004KT 10SM BKN050 OVC070 00/M06 A3020 -200 63 -2000 060/04 RMK AO2 T00001061 TSNO
14756KACK ACK20160304041011903/04/16 04:10:31  5-MIN KACK 040910Z AUTO 05004KT 10SM OVC050 00/M06 A3020 -200 63 -2000 070/04 RMK AO2 T00001061 TSNO
14756KACK ACK20160304041511903/04/16 04:15:31  5-MIN KACK 040915Z AUTO 06004KT 10SM OVC050 00/M07 A3020 -200 61 -2000 080/04 RMK AO2 T00001067 TSNO
14756KACK ACK20160304042011903/04/16 04:20:31  5-MIN KACK 040920Z AUTO 08004KT 10SM OVC050 01/M07 A3019 -200 58 -1900 090/04 RMK AO2 T00061067 TSNO
14756KACK ACK20160304042511903/04/16 04:25:31  5-MIN KACK 040925Z AUTO 09005KT 10SM OVC048 00/M07 A3019 -200 61 -2000 100/05 RMK AO2 T00001067 TSNO
14756KACK ACK20160304043011903/04/16 04:30:31  5-MIN KACK 040930Z AUTO 08005KT 10SM OVC044 00/M07 A3019 -190 61 -2000 090/05 RMK AO2 T00001067 TSNO
14756KACK ACK20160304043511903/04/16 04:35:31  5-MIN KACK 040935Z AUTO 08005KT 10SM OVC042 01/M06 A3019 -200 61 -1900 100/05 RMK AO2 T00061061 TSNO
14756KACK ACK20160304044011803/04/16 04:40:31  5-MIN KACK 040940Z AUTO 10005KT 9SM OVC040 00/M06 A3019 -200 63 -2000 110/05 RMK AO2 T00001061 TSNO
14756KACK ACK20160304044513403/04/16 04:45:31  5-MIN KACK 040945Z AUTO 08003KT 8SM -SN OVC036 00/M06 A3019 -200 63 -2000 090/03 RMK AO2 SNB42 P0000 T00001061 TSNO
14756KACK ACK20160304045014103/04/16 04:50:31  5-MIN KACK 040950Z AUTO 10005KT 8SM -SN OVC032 00/M06 A3019 -200 66 -2000 120/05 RMK AO2 SNB42 SLP223 P0000 T00001056 TSNO
14756KACK ACK20160304045512803/04/16 04:55:31  5-MIN KACK 040955Z AUTO 10004KT 9SM -SN OVC032 00/M06 A3020 -200 66 -2000 110/04 RMK AO2 P0000 T00001056 TSNO
14756KACK ACK20160304050012803/04/16 05:00:31  5-MIN KACK 041000Z AUTO 10007KT 8SM -SN OVC032 00/M06 A3019 -200 66 -2000 110/07 RMK AO2 P0000 T00001056 TSNO
14756KACK ACK20160304050512803/04/16 05:05:31  5-MIN KACK 041005Z AUTO 08006KT 7SM -SN OVC032 00/M05 A3019 -200 69 -2000 100/06 RMK AO2 P0000 T00001050 TSNO
14756KACK ACK20160304051013703/04/16 05:10:31  5-MIN KACK 041010Z AUTO 08006KT 9SM FEW029 OVC035 00/M05 A3019 -200 69 -2000 100/06 RMK AO2 SNE09 P0000 T00001050 TSNO
14756KACK ACK20160304051513803/04/16 05:15:31  5-MIN KACK 041015Z AUTO 08005KT 10SM FEW029 OVC039 00/M05 A3020 -200 69 -2000 090/05 RMK AO2 SNE09 P0000 T00001050 TSNO
14756KACK ACK20160304052013503/04/16 05:20:31  5-MIN KACK 041020Z AUTO 07004KT 9SM -SN FEW029 OVC039 00/M05 A3020 -200 69 -2000 090/04 RMK AO2 P0000 T00001050 TSNO
14756KACK ACK20160304052513503/04/16 05:25:31  5-MIN KACK 041025Z AUTO 07004KT 8SM -SN FEW029 OVC039 00/M05 A3020 -200 69 -2000 080/04 RMK AO2 P0000 T00001050 TSNO
14756KACK ACK20160304053013003/04/16 05:30:31  5-MIN KACK 041030Z AUTO 09005KT 9SM OVC041 00/M04 A3019 -200 72 -2000 100/05 RMK AO2 SNE30 P0000 T00001044 TSNO
14756KACK ACK20160304053513003/04/16 05:35:31  5-MIN KACK 041035Z AUTO 09004KT 9SM OVC041 00/M04 A3019 -200 72 -2000 110/04 RMK AO2 SNE30 P0000 T00001044 TSNO
14756KACK ACK20160304054013103/04/16 05:40:31  5-MIN KACK 041040Z AUTO 08005KT 10SM OVC041 00/M04 A3019 -190 72 -2000 100/05 RMK AO2 SNE30 P0000 T00001044 TSNO
14756KACK ACK20160304054513103/04/16 05:45:31  5-MIN KACK 041045Z AUTO 07004KT 10SM OVC041 00/M04 A3019 -190 72 -2000 090/04 RMK AO2 SNE30 P0000 T00001044 TSNO
14756KACK ACK20160304055012703/04/16 05:50:31  5-MIN KACK 041050Z 06005KT 9SM OVC043 00/M04 A3019 -190 72 -2000 070/05 RMK AO2 SNE30 SLP221 P0000 T00001044
14756KACK ACK20160304055512403/04/16 05:55:31  5-MIN KACK 041055Z 06004KT 9SM -SN OVC043 00/M04 A3018 -190 72 -2000 070/04 RMK AO2 SNB54 P0000 T00001044
14756KACK ACK20160304060012603/04/16 06:00:31  5-MIN KACK 041100Z 06005KT 9SM -SN OVC047 00/M04 A3018 -190 75 -2000 070/05 RMK AO2 SNB1054 P0000 T00001039
14756KACK ACK20160304060512703/04/16 06:05:31  5-MIN KACK 041105Z 06004KT 9SM -SN OVC047 M01/M04 A3018 -190 78 -2100 080/04 RMK AO2 SNB1054 P0000 T10061039
14756KACK ACK20160304061012603/04/16 06:10:31  5-MIN KACK 041110Z 06004KT 9SM -SN OVC049 00/M04 A3019 -190 75 -2000 080/04 RMK AO2 SNB1054 P0000 T00001039
14756KACK ACK20160304061512603/04/16 06:15:31  5-MIN KACK 041115Z 07004KT 9SM -SN OVC049 00/M04 A3019 -190 75 -2000 080/04 RMK AO2 SNB1054 P0000 T00001039
14756KACK ACK20160304062012603/04/16 06:20:31  5-MIN KACK 041120Z 07004KT 9SM -SN OVC050 00/M04 A3019 -190 75 -2000 080/04 RMK AO2 SNB1054 P0000 T00001039
14756KACK ACK20160304062513303/04/16 06:25:31  5-MIN KACK 041125Z 06004KT 9SM -SN SCT047 OVC055 00/M04 A3019 -190 75 -2000 080/04 RMK AO2 SNB1054 P0000 T00001039
14756KACK ACK20160304063013303/04/16 06:30:31  5-MIN KACK 041130Z 06005KT 9SM -SN BKN050 OVC085 00/M04 A3018 -190 75 -2000 080/05 RMK AO2 SNB1054 P0000 T00001039
14756KACK ACK20160304063514003/04/16 06:35:31  5-MIN KACK 041135Z 06004KT 9SM -SN FEW046 BKN055 OVC085 00/M04 A3018 -190 75 -2000 080/04 RMK AO2 SNB1054 P0000 T00001039
14756KACK ACK20160304064014003/04/16 06:40:31  5-MIN KACK 041140Z 06005KT 9SM -SN FEW046 SCT055 OVC085 00/M04 A3019 -190 75 -2000 070/05 RMK AO2 SNB1054 P0000 T00001039
14756KACK ACK20160304064514003/04/16 06:45:31  5-MIN KACK 041145Z 06005KT 9SM -SN FEW046 SCT060 OVC080 00/M04 A3019 -190 75 -2000 080/05 RMK AO2 SNB1054 P0000 T00001039
14756KACK ACK20160304065017103/04/16 06:50:31  5-MIN KACK 041150Z 07005KT 8SM -SN SCT012 BKN046 OVC060 00/M03 A3018 -180 78 -2000 080/05 RMK AO2 SNB1054 SLP219 P0000 60000 T00001033 10006 21011 56019
14756KACK ACK20160304065513203/04/16 06:55:31  5-MIN KACK 041155Z 07006KT 6SM -SN FEW046 BKN060 OVC080 00/M03 A3018 -190 78 -2000 080/06 RMK AO2 P0000 T00001033
14756KACK ACK20160304070013203/04/16 07:00:31  5-MIN KACK 041200Z 07004KT 5SM -SN FEW018 BKN047 OVC080 00/M03 A3019 -190 78 -2000 090/04 RMK AO2 P0000 T00001033
14756KACK ACK20160304070513203/04/16 07:05:31  5-MIN KACK 041205Z 06006KT 5SM -SN BKN043 BKN060 OVC080 00/M03 A3018 -190 78 -2000 070/06 RMK AO2 P0000 T00001033
14756KACK ACK20160304071013203/04/16 07:10:31  5-MIN KACK 041210Z 06005KT 5SM -SN BKN036 BKN047 OVC060 01/M03 A3019 -190 78 -1900 070/05 RMK AO2 P0000 T00061028
14756KACK ACK20160304071513203/04/16 07:15:31  5-MIN KACK 041215Z 07005KT 4SM -SN FEW015 BKN036 OVC047 01/M03 A3019 -200 78 -1900 080/05 RMK AO2 P0000 T00061028
14756KACK ACK20160304072012503/04/16 07:20:31  5-MIN KACK 041220Z 06006KT 4SM -SN SCT036 OVC045 01/M03 A3019 -200 78 -1900 070/06 RMK AO2 P0000 T00061028
14756KACK ACK20160304072512503/04/16 07:25:31  5-MIN KACK 041225Z 06006KT 4SM -SN SCT034 OVC045 01/M03 A3019 -200 78 -1900 080/06 RMK AO2 P0000 T00061028
14756KACK ACK20160304073012503/04/16 07:30:31  5-MIN KACK 041230Z 06005KT 4SM -SN SCT034 OVC043 01/M02 A3019 -200 82 -1900 070/05 RMK AO2 P0000 T00061022
14756KACK ACK20160304073512903/04/16 07:35:31  5-MIN KACK 041235Z 07006KT 2 1/2SM -SN FEW030 OVC043 01/M02 A3019 -200 82 -1900 090/06 RMK AO2 P0000 T00061022
14756KACK ACK20160304074011803/04/16 07:40:31  5-MIN KACK 041240Z 07007KT 3SM -SN OVC043 01/M02 A3019 -190 82 -1900 080/07 RMK AO2 P0000 T00111017
14756KACK ACK20160304074512503/04/16 07:45:31  5-MIN KACK 041245Z 06006KT 3SM -SN FEW030 OVC043 01/M02 A3018 -190 82 -1900 080/06 RMK AO2 P0000 T00061022
14756KACK ACK20160304075014203/04/16 07:50:31  5-MIN KACK 041250Z 06007KT 3SM -SN BR SCT012 BKN035 OVC043 01/M02 A3019 -190 85 -1900 070/07 RMK AO2 SLP221 P0000 T00061017
14756KACK ACK20160304075513503/04/16 07:55:31  5-MIN KACK 041255Z 06008KT 3SM -SN BR SCT012 BKN035 OVC043 01/M02 A3019 -190 85 -1900 070/08 RMK AO2 P0000 T00061017
14756KACK ACK20160304080013203/04/16 08:00:31  5-MIN KACK 041300Z 06007KT 3SM -SN SCT012 BKN035 OVC043 01/M02 A3019 -200 82 -1900 080/07 RMK AO2 P0000 T00111017
14756KACK ACK20160304080513203/04/16 08:05:31  5-MIN KACK 041305Z 07006KT 3SM -SN SCT012 BKN035 OVC043 01/M02 A3020 -200 82 -1900 080/06 RMK AO2 P0000 T00111017
14756KACK ACK20160304081013203/04/16 08:10:31  5-MIN KACK 041310Z 07006KT 3SM -SN SCT012 BKN035 OVC043 01/M02 A3020 -200 82 -1900 090/06 RMK AO2 P0000 T00111017
14756KACK ACK20160304081513503/04/16 08:15:31  5-MIN KACK 041315Z 06007KT 3SM -SN BR SCT012 BKN035 OVC043 01/M01 A3020 -200 85 -1900 080/07 RMK AO2 P0000 T00111011
14756KACK ACK20160304082013503/04/16 08:20:31  5-MIN KACK 041320Z 06007KT 3SM -SN BR SCT012 BKN035 OVC043 01/M01 A3019 -190 85 -1900 070/07 RMK AO2 P0000 T00111011
14756KACK ACK20160304082515203/04/16 08:25:31  5-MIN KACK 041325Z 07006KT 3SM R24/6000VP6000FT -SN BR SCT012 BKN035 OVC043 01/M01 A3019 -190 85 -1900 080/06 RMK AO2 P0000 T00111011
14756KACK ACK20160304083015203/04/16 08:30:31  5-MIN KACK 041330Z 06008KT 3SM R24/5500VP6000FT -SN BR SCT012 BKN035 OVC043 01/M01 A3018 -190 85 -1800 080/08 RMK AO2 P0000 T00111011
14756KACK ACK20160304083515203/04/16 08:35:31  5-MIN KACK 041335Z 07007KT 3SM R24/5500VP6000FT -SN BR SCT012 BKN035 OVC043 01/M01 A3018 -190 85 -1800 080/07 RMK AO2 P0000 T00111011
14756KACK ACK20160304084015203/04/16 08:40:31  5-MIN KACK 041340Z 07006KT 3SM R24/5500VP6000FT -SN BR SCT012 BKN035 OVC043 01/M01 A3018 -190 85 -1800 080/06 RMK AO2 P0000 T00111011
14756KACK ACK20160304084515203/04/16 08:45:31  5-MIN KACK 041345Z 06007KT 3SM R24/5500VP6000FT -SN BR SCT012 BKN035 OVC043 01/M01 A3017 -180 85 -1800 080/07 RMK AO2 P0000 T00111011
14756KACK ACK20160304085011803/04/16 08:50:31  5-MIN KACK 041350Z 06008KT 3SM -SN BR FEW008 OVC020 01/M01 A3017 -180 85 -1800 070/08 RMK AO2 P0000
14756KACK ACK20160304085513503/04/16 08:55:31  5-MIN KACK 041355Z 06009KT 2SM -SN BR BKN006 BKN011 OVC020 01/M01 A3017 -180 85 -1800 070/09 RMK AO2 P0000 T00111011
14756KACK ACK20160304090013503/04/16 09:00:31  5-MIN KACK 041400Z 05009KT 2SM -SN BR BKN006 BKN011 OVC020 01/M01 A3016 -170 85 -1800 070/09 RMK AO2 P0000 T00111011
14756KACK ACK20160304090515203/04/16 09:05:31  5-MIN KACK 041405Z 06006KT 2SM R24/6000VP6000FT -SN BR BKN006 BKN011 OVC020 01/M01 A3016 -170 85 -1800 080/06 RMK AO2 P0000 T00111011
14756KACK ACK20160304091015203/04/16 09:10:31  5-MIN KACK 041410Z 05007KT 2SM R24/6000VP6000FT -SN BR BKN006 BKN011 OVC020 01/M01 A3016 -170 85 -1800 060/07 RMK AO2 P0000 T00111011
14756KACK ACK20160304091513503/04/16 09:15:31  5-MIN KACK 041415Z 04008KT 2SM -SN BR BKN006 BKN011 OVC020 01/M01 A3016 -160 89 -1800 060/08 RMK AO2 P0000 T00111006
14756KACK ACK20160304092015203/04/16 09:20:31  5-MIN KACK 041420Z 04007KT 2SM R24/5500VP6000FT -SN BR BKN006 BKN011 OVC020 01/M01 A3016 -170 89 -1800 060/07 RMK AO2 P0001 T00111006
14756KACK ACK20160304092515203/04/16 09:25:31  5-MIN KACK 041425Z 05007KT 2SM R24/4500VP6000FT -SN BR BKN006 BKN011 OVC020 02/M01 A3016 -160 85 -1700 070/07 RMK AO2 P0001 T00171006
14756KACK ACK20160304093015203/04/16 09:30:31  5-MIN KACK 041430Z 05007KT 2SM R24/4500VP6000FT -SN BR BKN006 BKN011 OVC020 02/M01 A3016 -170 85 -1700 070/07 RMK AO2 P0001 T00171006
14756KACK ACK20160304093515203/04/16 09:35:31  5-MIN KACK 041435Z 06007KT 2SM R24/5000VP6000FT -SN BR BKN006 BKN011 OVC020 02/M01 A3015 -160 85 -1700 080/07 RMK AO2 P0001 T00171006
14756KACK ACK20160304094015103/04/16 09:40:31  5-MIN KACK 041440Z 06009KT 2SM R24/5500VP6000FT -SN BR BKN006 BKN011 OVC020 02/00 A3015 -160 89 -1700 070/09 RMK AO2 P0001 T00170000
14756KACK ACK20160304094515203/04/16 09:45:31  5-MIN KACK 041445Z 06010KT 2SM R24/5500VP6000FT -SN BR BKN006 BKN011 OVC020 02/M01 A3015 -160 85 -1700 070/10 RMK AO2 P0001 T00171006
14756KACK ACK20160304095016903/04/16 09:50:31  5-MIN KACK 041450Z 06009KT 2SM R24/4500VP6000FT -SN BR OVC006 02/M01 A3015 -160 85 -1700 070/09 RMK AO2 CIG 004V011 SLP210 P0001 60001 T00171006 56006
14756KACK ACK20160304095515603/04/16 09:55:31  5-MIN KACK 041455Z 06008KT 2SM R24/4500VP6000FT -SN BR BKN006 OVC016 02/00 A3015 -160 89 -1700 070/08 RMK AO2 CIG 004V010 P0000 T00170000
14756KACK ACK20160304100015603/04/16 10:00:31  5-MIN KACK 041500Z 06008KT 2SM R24/5500VP6000FT -SN BR BKN006 OVC016 02/01 A3014 -150 89 -1700 080/08 RMK AO2 CIG 004V010 P0000 T00220006
14756KACK ACK20160304100513903/04/16 10:05:31  5-MIN KACK 041505Z 07008KT 2SM -SN BR BKN006 OVC014 02/01 A3014 -150 89 -1700 090/08 RMK AO2 CIG 004V009 P0000 T00220006
14756KACK ACK20160304101012703/04/16 10:10:31  5-MIN KACK 041510Z 08008KT 2SM -SN BR BKN006 OVC012 02/01 A3014 -150 89 -1700 090/08 RMK AO2 P0000 T00220006
14756KACK ACK20160304101512903/04/16 10:15:31  5-MIN KACK 041515Z 07009KT 2SM BR BKN007 OVC012 02/01 A3014 -150 89 -1700 080/09 RMK AO2 SNE14 P0000 T00220006
14756KACK ACK20160304102012703/04/16 10:20:31  5-MIN KACK 041520Z 06010KT 4SM -SN BR BKN007 OVC012 02/01 A3014 -150 89 -1700 080/10 RMK AO2 P0000 T00220006
14756KACK ACK20160304102512403/04/16 10:25:31  5-MIN KACK 041525Z 06011KT 2 1/2SM -SN BR OVC007 02/00 A3014 -150 85 -1700 080/11 RMK AO2 P0000 T00220000
14756KACK ACK20160304103013903/04/16 10:30:31  5-MIN KACK 041530Z 07008KT 2SM -SN BR BKN007 OVC012 02/00 A3013 -140 89 -1700 080/08 RMK AO2 VIS 1 3/4V3 P0000 T00170000
14756KACK ACK20160304103513203/04/16 10:35:31  5-MIN KACK 041535Z 06007KT 2SM -SN BR OVC007 02/00 A3013 -140 89 -1700 080/07 RMK AO2 VIS 1 1/2V3 P0000 T00170000
14756KACK ACK20160304104012003/04/16 10:40:31  5-MIN KACK 041540Z 06008KT 2SM -SN BR OVC006 02/01 A3013 -140 92 -1700 080/08 RMK AO2 P0000 T00170006
14756KACK ACK20160304104512003/04/16 10:45:31  5-MIN KACK 041545Z 06008KT 3SM -SN BR OVC006 02/01 A3013 -140 89 -1600 080/08 RMK AO2 P0000 T00220006
14756KACK ACK20160304105012703/04/16 10:50:31  5-MIN KACK 041550Z 07010KT 3SM -SN BR OVC006 02/01 A3013 -140 89 -1600 080/10 RMK AO2 SLP202 P0000 T00220006
14756KACK ACK20160304105512703/04/16 10:55:31  5-MIN KACK 041555Z 06010KT 4SM -SN BR BKN006 OVC011 02/01 A3013 -140 89 -1600 070/10 RMK AO2 P0000 T00220006
14756KACK ACK20160304110012703/04/16 11:00:31  5-MIN KACK 041600Z 06011KT 3SM -SN BR BKN006 OVC012 02/01 A3012 -130 89 -1600 080/11 RMK AO2 P0000 T00220006
14756KACK ACK20160304110512703/04/16 11:05:31  5-MIN KACK 041605Z 06008KT 3SM -SN BR BKN006 OVC012 02/01 A3012 -130 89 -1600 070/08 RMK AO2 P0000 T00220006
14756KACK ACK20160304111013103/04/16 11:10:31  5-MIN KACK 041610Z 07011KT 2 1/2SM -SN BR BKN007 OVC014 02/01 A3012 -130 89 -1600 080/11 RMK AO2 P0000 T00220006
14756KACK ACK20160304111512703/04/16 11:15:31  5-MIN KACK 041615Z 06012KT 3SM -SN BR BKN007 OVC014 02/00 A3012 -130 85 -1600 080/12 RMK AO2 P0000 T00220000
14756KACK ACK20160304112012703/04/16 11:20:31  5-MIN KACK 041620Z 06010KT 3SM -SN BR BKN007 OVC014 02/00 A3012 -130 85 -1600 070/10 RMK AO2 P0000 T00220000
14756KACK ACK20160304112512703/04/16 11:25:31  5-MIN KACK 041625Z 06012KT 3SM -SN BR BKN007 OVC014 02/01 A3011 -120 89 -1600 070/12 RMK AO2 P0000 T00220006
14756KACK ACK20160304113012703/04/16 11:30:31  5-MIN KACK 041630Z 06010KT 3SM -SN BR BKN007 OVC014 02/01 A3011 -120 89 -1600 070/10 RMK AO2 P0000 T00220006
14756KACK ACK20160304113512703/04/16 11:35:31  5-MIN KACK 041635Z 05011KT 3SM -SN BR BKN007 OVC014 02/01 A3011 -120 89 -1600 060/11 RMK AO2 P0000 T00220006
14756KACK ACK20160304114012703/04/16 11:40:31  5-MIN KACK 041640Z 05011KT 3SM -SN BR BKN007 OVC014 02/01 A3011 -120 89 -1600 060/11 RMK AO2 P0000 T00220006
14756KACK ACK20160304114512703/04/16 11:45:31  5-MIN KACK 041645Z 05008KT 3SM -SN BR BKN007 OVC014 03/01 A3011 -120 85 -1500 070/08 RMK AO2 P0000 T00280006
14756KACK ACK20160304115013403/04/16 11:50:31  5-MIN KACK 041650Z 05009KT 3SM -SN BR BKN007 OVC014 02/01 A3010 -110 89 -1600 060/09 RMK AO2 SLP194 P0000 T00220006
14756KACK ACK20160304115513803/04/16 11:55:31  5-MIN KACK 041655Z 04009KT 2 1/2SM -SN BR BKN007 BKN013 OVC019 02/01 A3010 -110 89 -1600 060/09 RMK AO2 P0000 T00220006
14756KACK ACK20160304120013103/04/16 12:00:31  5-MIN KACK 041700Z 04009KT 2 1/2SM -SN BR BKN007 OVC019 02/01 A3010 -110 89 -1600 060/09 RMK AO2 P0001 T00220006
14756KACK ACK20160304120512703/04/16 12:05:31  5-MIN KACK 041705Z 05009KT 3SM -SN BR BKN007 OVC019 02/01 A3009 -100 89 -1600 060/09 RMK AO2 P0001 T00220006
14756KACK ACK20160304121012003/04/16 12:10:31  5-MIN KACK 041710Z 05009KT 3SM -SN BR OVC005 02/01 A3009 -100 89 -1600 060/09 RMK AO2 P0001 T00220006
14756KACK ACK20160304121513803/04/16 12:15:31  5-MIN KACK 041715Z 05013KT 3SM -SN BR OVC005 02/01 A3008 -90 89 -1600 070/13 RMK AO2 CIG 004V009 PRESFR P0001 T00220006
14756KACK ACK20160304122013103/04/16 12:20:31  5-MIN KACK 041720Z 05011KT 3SM -SN BR OVC005 02/01 A3008 -90 89 -1600 070/11 RMK AO2 CIG 004V010 P0001 T00220006
14756KACK ACK20160304122511903/04/16 12:25:31  5-MIN KACK 041725Z 05013KT 3SM -SN BR OVC006 03/01 A3008 -90 89 -1500 070/13 RMK AO2 P0002 T00280011
14756KACK ACK20160304123013503/04/16 12:30:31  5-MIN KACK 041730Z 06013G20KT 3SM UP BR OVC006 03/01 A3007 -90 89 -1500 070/13G20 RMK AO2 UPB27SNE27 P0002 T00280011
14756KACK ACK20160304123514203/04/16 12:35:31  5-MIN KACK 041735Z 05012G20KT 3SM -SN BR OVC006 03/01 A3007 -80 89 -1500 070/12G20 RMK AO2 UPB27E32SNE27B32 P0002 T00280011
14756KACK ACK20160304124013603/04/16 12:40:31  5-MIN KACK 041740Z 05014KT 3SM -SN BR OVC006 03/01 A3007 -80 89 -1500 060/14 RMK AO2 UPB27E32SNE27B32 P0002 T00280011
14756KACK ACK20160304124513603/04/16 12:45:31  5-MIN KACK 041745Z 05014KT 3SM -SN BR OVC006 03/01 A3006 -80 89 -1500 070/14 RMK AO2 UPB27E32SNE27B32 P0002 T00280011
14756KACK ACK20160304125017403/04/16 12:50:31  5-MIN KACK 041750Z 05015KT 3SM -SN BR BKN006 OVC012 03/01 A3006 -70 89 -1500 070/15 RMK AO2 UPB27E32SNE27B32 SLP178 P0002 60004 T00280011 10028 20000 58010
14756KACK ACK20160304125513803/04/16 12:55:31  5-MIN KACK 041755Z 05012KT 5SM -SN BR BKN006 OVC012 03/01 A3006 -80 85 -1500 060/12 RMK AO2 CIG 005V009 P0000 T00280006
14756KACK ACK20160304130013703/04/16 13:00:31  5-MIN KACK 041800Z 05015G20KT 6SM -SN BR OVC006 03/01 A3006 -70 89 -1500 070/15G20 RMK AO2 CIG 005V011 P0000 T00280011
14756KACK ACK20160304130513103/04/16 13:05:31  5-MIN KACK 041805Z 05013KT 6SM -SN BR OVC008 03/01 A3006 -70 89 -1500 070/13 RMK AO2 CIG 005V011 P0000 T00280011
14756KACK ACK20160304131013803/04/16 13:10:31  5-MIN KACK 041810Z 05014KT 5SM -SN BR BKN008 OVC012 03/01 A3006 -70 89 -1500 060/14 RMK AO2 CIG 005V009 P0000 T00280011
14756KACK ACK20160304131513203/04/16 13:15:31  5-MIN KACK 041815Z 05014G20KT 3SM -SN BR BKN008 OVC012 03/01 A3006 -70 89 -1500 060/14G20 RMK AO2 P0000 T00280011
14756KACK ACK20160304132013203/04/16 13:20:31  5-MIN KACK 041820Z 05013G20KT 3SM -SN BR BKN007 OVC012 03/01 A3006 -70 89 -1500 070/13G20 RMK AO2 P0000 T00280011
14756KACK ACK20160304132513503/04/16 13:25:31  5-MIN KACK 041825Z 05014KT 2 1/2SM -SN BR OVC007 03/01 A3005 -70 89 -1500 070/14 RMK AO2 CIG 006V012 P0001 T00280011
14756KACK ACK20160304133014403/04/16 13:30:31  5-MIN KACK 041830Z 05013G23KT 3SM -SN BR BKN007 OVC015 03/01 A3004 -60 85 -1500 070/13G23 RMK AO2 CIG 005V011 P0001 T00280006
14756KACK ACK20160304133513703/04/16 13:35:31  5-MIN KACK 041835Z 05014G23KT 3SM -SN BR OVC007 03/01 A3004 -60 89 -1500 070/14G23 RMK AO2 CIG 005V011 P0001 T00280011
14756KACK ACK20160304134012503/04/16 13:40:31  5-MIN KACK 041840Z 05013G22KT 2SM -SN BR OVC008 03/01 A3004 -60 85 -1500 070/13G22 RMK AO2 P0001 T00280006
14756KACK ACK20160304134512503/04/16 13:45:31  5-MIN KACK 041845Z 05014G22KT 2SM -SN BR OVC007 03/01 A3003 -50 89 -1500 060/14G22 RMK AO2 P0001 T00280011
14756KACK ACK20160304135013203/04/16 13:50:31  5-MIN KACK 041850Z 05015G24KT 2SM -SN BR OVC007 03/01 A3003 -50 85 -1500 070/15G24 RMK AO2 SLP170 P0001 T00280006
14756KACK ACK20160304135513203/04/16 13:55:31  5-MIN KACK 041855Z 04014G24KT 2SM -SN BR BKN007 OVC014 03/01 A3003 -50 89 -1500 060/14G24 RMK AO2 P0000 T00280011
14756KACK ACK20160304140013603/04/16 14:00:31  5-MIN KACK 041900Z 04015G22KT 2 1/2SM -SN BR BKN007 OVC011 03/01 A3002 -40 89 -1500 060/15G22 RMK AO2 P0000 T00280011
14756KACK ACK20160304140513003/04/16 14:05:31  5-MIN KACK 041905Z 04017KT 2 1/2SM -SN BR BKN006 OVC014 03/01 A3002 -40 89 -1500 060/17 RMK AO2 P0000 T00280011
14756KACK ACK20160304141012303/04/16 14:10:31  5-MIN KACK 041910Z 04017KT 2 1/2SM -SN BR OVC008 03/01 A3002 -40 89 -1400 050/17 RMK AO2 P0000 T00280011
14756KACK ACK20160304141511903/04/16 14:15:31  5-MIN KACK 041915Z 04016KT 2SM -SN BR OVC007 03/01 A3002 -40 89 -1400 060/16 RMK AO2 P0001 T00280011
14756KACK ACK20160304142012503/04/16 14:20:31  5-MIN KACK 041920Z 04017G25KT 2SM -SN BR OVC007 03/01 A3001 -30 85 -1400 060/17G25 RMK AO2 P0001 T00280006
14756KACK ACK20160304142511903/04/16 14:25:31  5-MIN KACK 041925Z 04017KT 2SM -SN BR OVC007 03/01 A3000 -20 85 -1400 060/17 RMK AO2 P0001 T00280006
14756KACK ACK20160304143011903/04/16 14:30:31  5-MIN KACK 041930Z 04018KT 2SM -SN BR OVC007 03/01 A3000 -20 85 -1400 060/18 RMK AO2 P0001 T00280006
14756KACK ACK20160304143511903/04/16 14:35:31  5-MIN KACK 041935Z 04017KT 2SM -SN BR OVC007 03/01 A3000 -20 85 -1400 060/17 RMK AO2 P0001 T00280006
14756KACK ACK20160304144011903/04/16 14:40:31  5-MIN KACK 041940Z 04015KT 2SM -SN BR OVC007 03/01 A3000 -20 85 -1400 060/15 RMK AO2 P0001 T00280006
14756KACK ACK20160304144512503/04/16 14:45:31  5-MIN KACK 041945Z 04017G23KT 2SM -SN BR OVC007 03/01 A3000 -20 89 -1400 060/17G23 RMK AO2 P0001 T00280011
14756KACK ACK20160304145012503/04/16 14:50:31  5-MIN KACK 041950Z AUTO 04016G23KT 5SM -SN BR OVC007 03/01 A3000 -20 85 -1400 060/16G23 RMK AO2 P0001 TSNO
14756KACK ACK20160304145512903/04/16 14:55:31  5-MIN KACK 041955Z AUTO 04017KT 5SM -SN BR OVC007 03/01 A3000 -20 85 -1400 060/17 RMK AO2 P0000 T00280006 TSNO
14756KACK ACK20160304150014103/04/16 15:00:31  5-MIN KACK 042000Z AUTO 04016KT 6SM -SN BR OVC007 03/01 A2999 -10 89 -1400 060/16 RMK AO2 CIG 005V010 P0000 T00280011 TSNO
14756KACK ACK20160304150512903/04/16 15:05:31  5-MIN KACK 042005Z AUTO 04015KT 6SM -SN BR OVC006 03/01 A2999 -10 89 -1400 060/15 RMK AO2 P0000 T00280011 TSNO
14756KACK ACK20160304151013503/04/16 15:10:31  5-MIN KACK 042010Z AUTO 04018G23KT 6SM -SN BR OVC006 03/01 A2999 -10 89 -1400 060/18G23 RMK AO2 P0000 T00280011 TSNO
14756KACK ACK20160304151514703/04/16 15:15:31  5-MIN KACK 042015Z AUTO 04017G25KT 5SM -SN BR OVC007 03/01 A2999 -10 89 -1400 060/17G25 RMK AO2 CIG 005V011 P0001 T00280011 TSNO
14756KACK ACK20160304152014703/04/16 15:20:31  5-MIN KACK 042020Z AUTO 04017G25KT 5SM -SN BR OVC007 03/01 A2999 -10 89 -1400 060/17G25 RMK AO2 CIG 006V009 P0001 T00280011 TSNO
14756KACK ACK20160304152514703/04/16 15:25:31  5-MIN KACK 042025Z AUTO 05016G22KT 4SM -SN BR OVC007 03/01 A2999 -10 89 -1400 060/16G22 RMK AO2 CIG 005V009 P0001 T00280011 TSNO
14756KACK ACK20160304153014503/04/16 15:30:31  5-MIN KACK 042030Z AUTO 04019G23KT 4SM -SN BR OVC007 03/01 A2998 0 89 -1400 050/19G23 RMK AO2 CIG 005V011 P0001 T00280011 TSNO
14756KACK ACK20160304153514403/04/16 15:35:31  5-MIN KACK 042035Z 04015G23KT 4SM -SN BR OVC007 03/01 A2998 0 89 -1400 050/15G23 RMK AO2 RAB34E35 CIG 005V011 P0001 T00280011
14756KACK ACK20160304154014003/04/16 15:40:31  5-MIN KACK 042040Z 04016KT 4SM -RA BR OVC007 03/01 A2998 0 89 -1400 050/16 RMK AO2 RAB34SNE37 CIG 005V011 P0002 T00280011
14756KACK ACK20160304154514003/04/16 15:45:31  5-MIN KACK 042045Z 04017KT 4SM -RA BR OVC006 03/01 A2997 0 89 -1400 050/17 RMK AO2 RAB34SNE37 CIG 005V011 P0002 T00280011
14756KACK ACK20160304155014703/04/16 15:50:31  5-MIN KACK 042050Z 04015KT 4SM -RA BR OVC006 03/01 A2997 0 89 -1400 050/15 RMK AO2 RAB34SNE37 SLP148 P0003 60005 T00280011 58024
14756KACK ACK20160304155512503/04/16 15:55:31  5-MIN KACK 042055Z 04016KT 5SM -RA BR BKN006 OVC016 03/01 A2997 10 89 -1400 060/16 RMK AO2 P0000 T00280011
14756KACK ACK20160304160013103/04/16 16:00:31  5-MIN KACK 042100Z 04014G22KT 5SM -RA BR BKN007 OVC016 03/01 A2996 10 89 -1400 050/14G22 RMK AO2 P0000 T00280011
14756KACK ACK20160304160513103/04/16 16:05:31  5-MIN KACK 042105Z 04016G22KT 6SM -RA BR BKN007 OVC013 03/01 A2996 20 89 -1400 060/16G22 RMK AO2 P0001 T00280011
14756KACK ACK20160304161013103/04/16 16:10:31  5-MIN KACK 042110Z 05017G23KT 6SM -RA BR BKN009 OVC015 03/01 A2996 20 89 -1400 060/17G23 RMK AO2 P0001 T00280011
14756KACK ACK20160304161514903/04/16 16:15:31  5-MIN KACK 042115Z 04017G26KT 5SM -RA BR BKN009 OVC015 03/01 A2996 20 89 -1400 060/17G26 RMK AO2 PK WND 04026/2114 P0001 T00280011
14756KACK ACK20160304162014803/04/16 16:20:31  5-MIN KACK 042120Z 05018G26KT 5SM RA BR BKN008 OVC015 03/01 A2995 20 89 -1400 060/18G26 RMK AO2 PK WND 04026/2114 P0002 T00280011
14756KACK ACK20160304162514803/04/16 16:25:31  5-MIN KACK 042125Z 04017G24KT 5SM RA BR BKN008 OVC015 03/01 A2995 20 89 -1400 060/17G24 RMK AO2 PK WND 04026/2114 P0002 T00280011
14756KACK ACK20160304163015503/04/16 16:30:31  5-MIN KACK 042130Z 05017G25KT 5SM RA BR BKN008 BKN013 OVC018 03/01 A2995 20 89 -1400 060/17G25 RMK AO2 PK WND 04026/2114 P0003 T00280011
14756KACK ACK20160304163514803/04/16 16:35:31  5-MIN KACK 042135Z 04017G25KT 5SM RA BR BKN008 OVC016 03/01 A2995 30 89 -1400 060/17G25 RMK AO2 PK WND 04026/2114 P0003 T00280011
14756KACK ACK20160304164014803/04/16 16:40:31  5-MIN KACK 042140Z 04017G23KT 5SM RA BR BKN008 OVC018 03/01 A2994 30 89 -1400 060/17G23 RMK AO2 PK WND 04026/2114 P0004 T00280011
14756KACK ACK20160304164515003/04/16 16:45:31  5-MIN KACK 042145Z 04018KT 6SM -RA BR BKN008 BKN013 OVC018 03/01 A2994 30 89 -1400 060/18 RMK AO2 PK WND 04026/2114 P0004 T00280011
14756KACK ACK20160304165014603/04/16 16:50:31  5-MIN KACK 042150Z 04017G23KT 6SM -RA BR SCT008 BKN013 OVC018 03/01 A2994 30 89 -1400 060/17G23 RMK AO2 PK WND 04026/2114 P0004
14756KACK ACK20160304165513103/04/16 16:55:31  5-MIN KACK 042155Z 04014G24KT 6SM -RA BR SCT008 OVC018 03/01 A2993 40 89 -1300 050/14G24 RMK AO2 P0001 T00280011
14756KACK ACK20160304170012803/04/16 17:00:31  5-MIN KACK 042200Z 04018G24KT 7SM -RA SCT008 OVC016 03/01 A2993 40 89 -1300 060/18G24 RMK AO2 P0001 T00280011
14756KACK ACK20160304170512803/04/16 17:05:31  5-MIN KACK 042205Z 04015G24KT 7SM -RA SCT008 OVC016 03/01 A2992 50 89 -1300 060/15G24 RMK AO2 P0001 T00280011
14756KACK ACK20160304171012803/04/16 17:10:31  5-MIN KACK 042210Z 04018G22KT 7SM -RA SCT008 OVC016 03/01 A2992 50 89 -1300 060/18G22 RMK AO2 P0001 T00280011
14756KACK ACK20160304171512203/04/16 17:15:31  5-MIN KACK 042215Z 04017KT 7SM -RA SCT008 OVC016 03/01 A2992 50 89 -1300 050/17 RMK AO2 P0001 T00280011
14756KACK ACK20160304172013103/04/16 17:20:31  5-MIN KACK 042220Z 04018KT 8SM -RA SCT008 OVC016 03/01 A2991 60 85 -1300 050/18 RMK AO2 UPB18E20 P0001 T00330011
14756KACK ACK20160304172513703/04/16 17:25:31  5-MIN KACK 042225Z 04016G24KT 9SM -RA SCT008 OVC016 03/01 A2991 60 85 -1300 050/16G24 RMK AO2 UPB18E20 P0002 T00330011
14756KACK ACK20160304173013703/04/16 17:30:31  5-MIN KACK 042230Z 04018G24KT 9SM -RA SCT008 OVC016 03/01 A2991 60 85 -1300 050/18G24 RMK AO2 UPB18E20 P0002 T00330011
14756KACK ACK20160304173515503/04/16 17:35:31  5-MIN KACK 042235Z 04020G28KT 8SM -RA SCT008 OVC016 03/01 A2991 60 85 -1200 050/20G28 RMK AO2 PK WND 04028/2232 UPB18E20 P0002 T00330011
14756KACK ACK20160304174015503/04/16 17:40:31  5-MIN KACK 042240Z 04019G28KT 8SM -RA SCT008 OVC016 03/01 A2990 60 85 -1200 050/19G28 RMK AO2 PK WND 04028/2232 UPB18E20 P0002 T00330011
14756KACK ACK20160304174515503/04/16 17:45:31  5-MIN KACK 042245Z 04021G28KT 7SM -RA SCT008 OVC016 03/01 A2990 70 85 -1200 050/21G28 RMK AO2 PK WND 04028/2232 UPB18E20 P0003 T00330011
14756KACK ACK20160304175015003/04/16 17:50:31  5-MIN KACK 042250Z 04018G28KT 8SM -RA OVC010 03/02 A2990 70 89 -1200 060/18G28 RMK AO2 PK WND 04028/2232 UPB18E20 CIG 007V013 P0003
14756KACK ACK20160304175515103/04/16 17:55:31  5-MIN KACK 042255Z 04021G27KT 9SM -RA OVC010 03/02 A2990 70 89 -1200 050/21G27 RMK AO2 PK WND 03027/2254 CIG 007V013 P0000 T00330017
14756KACK ACK20160304180015103/04/16 18:00:31  5-MIN KACK 042300Z 04019G27KT 9SM -RA OVC010 03/02 A2990 70 89 -1200 050/19G27 RMK AO2 PK WND 03027/2254 CIG 008V014 P0000 T00330017
14756KACK ACK20160304180515803/04/16 18:05:31  5-MIN KACK 042305Z 04021G33KT 8SM -RA BKN010 OVC015 03/02 A2990 70 89 -1200 050/21G33 RMK AO2 PK WND 04033/2304 CIG 008V012 P0000 T00330017
14756KACK ACK20160304181014603/04/16 18:10:31  5-MIN KACK 042310Z 04021G33KT 8SM -RA BKN010 OVC015 04/02 A2989 70 85 -1200 060/21G33 RMK AO2 PK WND 04033/2304 P0000 T00390017
14756KACK ACK20160304181514603/04/16 18:15:31  5-MIN KACK 042315Z 04018G27KT 8SM -RA BKN010 OVC015 04/02 A2989 80 85 -1200 050/18G27 RMK AO2 PK WND 04033/2304 P0001 T00390017
14756KACK ACK20160304182014603/04/16 18:20:31  5-MIN KACK 042320Z 04020G27KT 7SM -RA BKN010 OVC018 04/02 A2989 80 85 -1200 050/20G27 RMK AO2 PK WND 04033/2304 P0001 T00390017
14756KACK ACK20160304182513903/04/16 18:25:31  5-MIN KACK 042325Z 03021G28KT 8SM -RA OVC012 04/02 A2989 80 85 -1200 050/21G28 RMK AO2 PK WND 04033/2304 P0001 T00390017
14756KACK ACK20160304183014603/04/16 18:30:31  5-MIN KACK 042330Z 04024G31KT 8SM -RA BKN010 OVC017 04/02 A2989 80 85 -1200 050/24G31 RMK AO2 PK WND 04033/2304 P0002 T00390017
14756KACK ACK20160304183515303/04/16 18:35:31  5-MIN KACK 042335Z 04023G31KT 8SM -RA BKN010 BKN017 OVC024 04/02 A2988 90 85 -1200 050/23G31 RMK AO2 PK WND 04033/2304 P0002 T00390017
14756KACK ACK20160304184014603/04/16 18:40:31  5-MIN KACK 042340Z 03020G27KT 8SM -RA BKN010 OVC024 04/02 A2988 90 85 -1200 050/20G27 RMK AO2 PK WND 04033/2304 P0002 T00390017
14756KACK ACK20160304184514603/04/16 18:45:31  5-MIN KACK 042345Z 04022G31KT 8SM -RA BKN010 OVC022 04/02 A2988 90 85 -1100 050/22G31 RMK AO2 PK WND 04033/2304 P0002 T00390017
14756KACK ACK20160304185018403/04/16 18:50:31  5-MIN KACK 042350Z 03021G33KT 8SM -RA SCT010 BKN013 OVC022 04/02 A2987 90 85 -1100 050/21G33 RMK AO2 PK WND 04033/2304 SLP115 P0003 60015 T00390017 10039 20028 58031
14756KACK ACK20160304185514603/04/16 18:55:31  5-MIN KACK 042355Z 03025G33KT 8SM -RA BKN010 OVC013 03/02 A2987 90 89 -1200 050/25G33 RMK AO2 PK WND 04032/2355 P0000 T00330017
14756KACK ACK20160304190015303/04/16 19:00:31  5-MIN KACK 050000Z 03024G32KT 8SM -RA SCT010 BKN013 OVC022 03/02 A2987 90 89 -1200 050/24G32 RMK AO2 PK WND 04032/2355 P0000 T00330017
14756KACK ACK20160304190515303/04/16 19:05:31  5-MIN KACK 050005Z 03024G32KT 8SM -RA SCT010 BKN013 OVC022 03/01 A2987 90 85 -1200 050/24G32 RMK AO2 PK WND 04032/2355 P0001 T00330011
14756KACK ACK20160304191015403/04/16 19:10:31  5-MIN KACK 050010Z 03022G30KT 8SM -RA SCT010 BKN013 OVC022 03/01 A2987 100 85 -1200 050/22G30 RMK AO2 PK WND 04032/2355 P0001 T00330011
14756KACK ACK20160304191515403/04/16 19:15:31  5-MIN KACK 050015Z 03027G33KT 8SM -RA SCT010 BKN013 OVC022 03/01 A2986 100 85 -1200 040/27G33 RMK AO2 PK WND 02033/0014 P0001 T00330011
14756KACK ACK20160304192015403/04/16 19:20:31  5-MIN KACK 050020Z 03028G33KT 7SM -RA SCT010 BKN013 OVC022 03/01 A2986 110 85 -1200 040/28G33 RMK AO2 PK WND 02033/0014 P0001 T00330011
14756KACK ACK20160304192515403/04/16 19:25:31  5-MIN KACK 050025Z 03026G33KT 7SM -RA SCT010 BKN013 OVC022 03/01 A2986 110 85 -1200 040/26G33 RMK AO2 PK WND 02033/0014 P0002 T00330011
14756KACK ACK20160304193015403/04/16 19:30:31  5-MIN KACK 050030Z 03027G32KT 7SM -RA SCT010 BKN013 OVC022 03/01 A2986 100 85 -1200 050/27G32 RMK AO2 PK WND 02033/0014 P0002 T00330011
14756KACK ACK20160304193515403/04/16 19:35:31  5-MIN KACK 050035Z 03027G34KT 7SM -RA SCT010 BKN013 OVC022 03/01 A2985 110 85 -1200 040/27G34 RMK AO2 PK WND 03034/0034 P0002 T00330011
14756KACK ACK20160304194015403/04/16 19:40:31  5-MIN KACK 050040Z 03026G34KT 7SM -RA SCT010 BKN013 OVC022 03/01 A2985 110 85 -1200 040/26G34 RMK AO2 PK WND 03034/0034 P0003 T00330011
14756KACK ACK20160304194515403/04/16 19:45:31  5-MIN KACK 050045Z 03024G34KT 7SM -RA SCT010 BKN013 OVC022 03/01 A2985 120 85 -1200 040/24G34 RMK AO2 PK WND 03034/0041 P0003 T00330011
14756KACK ACK20160304195014703/04/16 19:50:31  5-MIN KACK 050050Z 03028G38KT 7SM -RA OVC012 03/01 A2984 120 85 -1200 040/28G38 RMK AO2 PK WND 03038/0046 SLP106 P0004 T00330011
14756KACK ACK20160304195514703/04/16 19:55:31  5-MIN KACK 050055Z 02025G38KT 8SM -RA BKN010 OVC015 03/01 A2984 120 85 -1200 040/25G38 RMK AO2 PK WND 03032/0055 P0000 T00330011
14756KACK ACK20160304200014703/04/16 20:00:31  5-MIN KACK 050100Z 03027G37KT 8SM -RA BKN010 OVC015 03/01 A2984 120 85 -1200 040/27G37 RMK AO2 PK WND 03037/0057 P0000 T00330011
14756KACK ACK20160304200514703/04/16 20:05:31  5-MIN KACK 050105Z 03025G37KT 8SM -RA BKN010 OVC014 03/01 A2984 120 85 -1200 040/25G37 RMK AO2 PK WND 03037/0057 P0000 T00330011
14756KACK ACK20160304201014703/04/16 20:10:31  5-MIN KACK 050110Z 03023G35KT 8SM -RA BKN010 OVC014 03/01 A2984 120 85 -1200 040/23G35 RMK AO2 PK WND 03037/0057 P0001 T00330011
14756KACK ACK20160304201514003/04/16 20:15:31  5-MIN KACK 050115Z 02024G35KT 7SM -RA OVC010 03/01 A2984 130 85 -1200 040/24G35 RMK AO2 PK WND 03037/0057 P0001 T00330011
14756KACK ACK20160304202014303/04/16 20:20:31  5-MIN KACK 050120Z 02030G37KT 6SM -RA BR OVC010 03/01 A2983 130 85 -1200 040/30G37 RMK AO2 PK WND 03037/0118 P0002 T00330011
14756KACK ACK20160304202515403/04/16 20:25:31  5-MIN KACK 050125Z 03023G39KT 6SM -SN BR OVC010 03/01 A2983 130 85 -1200 040/23G39 RMK AO2 PK WND 02039/0122 RAE22SNB22 P0002 T00330011
14756KACK ACK20160304203016103/04/16 20:30:31  5-MIN KACK 050130Z 03026G39KT 5SM -SN BR BKN010 OVC013 03/01 A2984 130 85 -1200 040/26G39 RMK AO2 PK WND 02039/0122 RAE22SNB22 P0003 T00330011
14756KACK ACK20160304203515903/04/16 20:35:31  5-MIN KACK 050135Z 03024G35KT 6SM -RA BR BKN010 OVC013 03/01 A2984 130 85 -1200 040/24G35 RMK AO2 PK WND 02039/0122 SNB22E32 P0003 T00330011
14756KACK ACK20160304204015903/04/16 20:40:31  5-MIN KACK 050140Z 03026G35KT 6SM -RA BR BKN010 OVC013 03/01 A2984 120 89 -1200 040/26G35 RMK AO2 PK WND 02039/0122 SNB22E32 P0004 T00280011
14756KACK ACK20160304204515603/04/16 20:45:31  5-MIN KACK 050145Z 03027G35KT 7SM -RA BKN010 OVC013 03/01 A2984 120 89 -1200 040/27G35 RMK AO2 PK WND 02039/0122 SNB22E32 P0004 T00280011
14756KACK ACK20160304205016303/04/16 20:50:31  5-MIN KACK 050150Z 03022G34KT 7SM -RA BKN010 OVC013 03/01 A2984 120 89 -1200 050/22G34 RMK AO2 PK WND 02039/0122 SNB22E32 SLP106 P0005 T00280011
14756KACK ACK20160304205515703/04/16 20:55:31  5-MIN KACK 050155Z AUTO 03025G37KT 7SM -RA BKN010 OVC015 03/01 A2985 120 89 -1300 050/25G37 RMK AO2 PK WND 02036/0154 P0000 T00280011 TSNO
14756KACK ACK20160304210017103/04/16 21:00:31  5-MIN KACK 050200Z AUTO 03027G37KT 6SM -SN BR BKN010 OVC015 03/01 A2985 120 89 -1300 040/27G37 RMK AO2 PK WND 03037/0200 RAE00SNB00 P0001 T00280011 TSNO
14756KACK ACK20160304210517103/04/16 21:05:31  5-MIN KACK 050205Z AUTO 03029G37KT 5SM -SN BR BKN010 OVC014 03/01 A2985 120 85 -1300 040/29G37 RMK AO2 PK WND 03037/0200 RAE00SNB00 P0002 T00280006 TSNO
14756KACK ACK20160304211017103/04/16 21:10:31  5-MIN KACK 050210Z AUTO 03031G37KT 4SM -SN BR BKN010 OVC014 03/01 A2984 120 85 -1200 040/31G37 RMK AO2 PK WND 03037/0200 RAE00SNB00 P0002 T00280006 TSNO
14756KACK ACK20160304211517103/04/16 21:15:31  5-MIN KACK 050215Z AUTO 03026G37KT 5SM -SN BR SCT008 OVC014 03/01 A2984 120 85 -1200 040/26G37 RMK AO2 PK WND 03037/0200 RAE00SNB00 P0002 T00280006 TSNO
14756KACK ACK20160304212017103/04/16 21:20:31  5-MIN KACK 050220Z AUTO 03024G36KT 5SM -SN BR BKN008 OVC014 03/01 A2985 120 89 -1300 040/24G36 RMK AO2 PK WND 03037/0200 RAE00SNB00 P0003 T00280011 TSNO
14756KACK ACK20160304212517103/04/16 21:25:31  5-MIN KACK 050225Z AUTO 03026G36KT 5SM -SN BR BKN008 OVC014 03/01 A2985 120 85 -1300 040/26G36 RMK AO2 PK WND 03037/0200 RAE00SNB00 P0003 T00280006 TSNO
14756KACK ACK20160304213017103/04/16 21:30:31  5-MIN KACK 050230Z AUTO 03026G36KT 5SM -SN BR BKN008 OVC014 03/01 A2985 110 85 -1300 040/26G36 RMK AO2 PK WND 03037/0200 RAE00SNB00 P0004 T00280006 TSNO
14756KACK ACK20160304213517103/04/16 21:35:31  5-MIN KACK 050235Z AUTO 02025G35KT 5SM -SN BR BKN008 OVC014 03/01 A2985 110 85 -1300 040/25G35 RMK AO2 PK WND 03037/0200 RAE00SNB00 P0004 T00280006 TSNO
14756KACK ACK20160304214017103/04/16 21:40:31  5-MIN KACK 050240Z AUTO 03028G36KT 5SM -SN BR BKN008 OVC014 03/01 A2986 100 85 -1300 040/28G36 RMK AO2 PK WND 03037/0200 RAE00SNB00 P0005 T00280006 TSNO
14756KACK ACK20160304214517103/04/16 21:45:31  5-MIN KACK 050245Z AUTO 03025G36KT 5SM -SN BR BKN009 OVC014 03/01 A2986 100 85 -1300 040/25G36 RMK AO2 PK WND 03037/0200 RAE00SNB00 P0005 T00280006 TSNO
14756KACK ACK20160304215019003/04/16 21:50:31  5-MIN KACK 050250Z AUTO 02024G33KT 5SM -SN BR BKN009 OVC014 03/01 A2986 110 85 -1300 040/24G33 RMK AO2 PK WND 03037/0200 RAE00SNB00 SLP111 P0006 60015 T00280006 58022 TSNO
14756KACK ACK20160304215516003/04/16 21:55:31  5-MIN KACK 050255Z AUTO 03028G35KT 4SM -SN BR BKN009 OVC014 03/01 A2986 100 85 -1300 040/28G35 RMK AO2 PK WND 03035/0255 P0000 T00280006 TSNO
14756KACK ACK20160304220016003/04/16 22:00:31  5-MIN KACK 050300Z AUTO 03026G35KT 4SM -SN BR SCT009 OVC014 02/01 A2986 100 89 -1300 040/26G35 RMK AO2 PK WND 03035/0255 P0000 T00220006 TSNO
14756KACK ACK20160304220516003/04/16 22:05:31  5-MIN KACK 050305Z AUTO 03026G36KT 4SM -SN BR SCT009 OVC014 02/01 A2986 100 89 -1300 040/26G36 RMK AO2 PK WND 03036/0302 P0001 T00220006 TSNO
14756KACK ACK20160304221016003/04/16 22:10:31  5-MIN KACK 050310Z AUTO 02024G36KT 5SM -SN BR SCT009 OVC014 03/01 A2986 110 85 -1300 040/24G36 RMK AO2 PK WND 03036/0302 P0001 T00280006 TSNO
14756KACK ACK20160304221516003/04/16 22:15:31  5-MIN KACK 050315Z AUTO 02027G35KT 5SM -SN BR SCT009 OVC014 03/01 A2986 110 85 -1300 040/27G35 RMK AO2 PK WND 03036/0302 P0001 T00280006 TSNO
14756KACK ACK20160304222016003/04/16 22:20:31  5-MIN KACK 050320Z AUTO 02026G35KT 6SM -SN BR SCT009 OVC016 02/01 A2985 110 89 -1300 040/26G35 RMK AO2 PK WND 03036/0302 P0001 T00220006 TSNO
14756KACK ACK20160304222516003/04/16 22:25:31  5-MIN KACK 050325Z AUTO 02025G33KT 5SM -SN BR SCT009 OVC016 02/01 A2986 110 89 -1300 040/25G33 RMK AO2 PK WND 03036/0302 P0002 T00220006 TSNO
14756KACK ACK20160304223016003/04/16 22:30:31  5-MIN KACK 050330Z AUTO 02029G39KT 5SM -SN BR SCT009 OVC016 02/01 A2985 110 89 -1300 040/29G39 RMK AO2 PK WND 03039/0330 P0002 T00220006 TSNO
14756KACK ACK20160304223516003/04/16 22:35:31  5-MIN KACK 050335Z AUTO 02027G40KT 4SM -SN BR BKN009 OVC018 02/00 A2985 110 85 -1300 040/27G40 RMK AO2 PK WND 02040/0331 P0002 T00220000 TSNO
14756KACK ACK20160304224016003/04/16 22:40:31  5-MIN KACK 050340Z AUTO 02027G40KT 4SM -SN BR BKN009 OVC018 02/00 A2986 110 85 -1300 040/27G40 RMK AO2 PK WND 02040/0331 P0002 T00220000 TSNO
14756KACK ACK20160304224516703/04/16 22:45:31  5-MIN KACK 050345Z AUTO 02027G34KT 4SM -SN BR SCT009 SCT012 OVC016 02/00 A2986 110 85 -1300 040/27G34 RMK AO2 PK WND 02040/0331 P0002 T00220000 TSNO
14756KACK ACK20160304225015003/04/16 22:50:31  5-MIN KACK 050350Z AUTO 02028G34KT 3SM -SN BR BKN009 OVC016 02/01 A2986 110 89 -1300 040/28G34 RMK AO2 PK WND 02040/0331 P0002 TSNO
14756KACK ACK20160304225516703/04/16 22:55:31  5-MIN KACK 050355Z AUTO 02029G41KT 4SM -SN BR BKN009 BKN013 OVC018 02/00 A2986 100 85 -1300 040/29G41 RMK AO2 PK WND 03038/0355 P0000 T00220000 TSNO
14756KACK ACK20160304230016003/04/16 23:00:31  5-MIN KACK 050400Z AUTO 02027G41KT 4SM -SN BR BKN009 OVC018 02/01 A2986 110 89 -1300 040/27G41 RMK AO2 PK WND 03038/0355 P0000 T00220006 TSNO
14756KACK ACK20160304230516703/04/16 23:05:31  5-MIN KACK 050405Z AUTO 02027G38KT 5SM -SN BR BKN009 BKN013 OVC018 02/00 A2987 100 85 -1300 040/27G38 RMK AO2 PK WND 02038/0403 P0000 T00220000 TSNO
14756KACK ACK20160304231016003/04/16 23:10:31  5-MIN KACK 050410Z AUTO 02025G38KT 6SM -SN BR BKN011 OVC020 02/00 A2987 100 85 -1300 040/25G38 RMK AO2 PK WND 02038/0403 P0001 T00220000 TSNO
14756KACK ACK20160304231516703/04/16 23:15:31  5-MIN KACK 050415Z AUTO 02026G34KT 6SM -SN BR BKN009 BKN013 OVC019 02/01 A2987 100 89 -1300 040/26G34 RMK AO2 PK WND 02038/0403 P0001 T00220006 TSNO
14756KACK ACK20160304232016403/04/16 23:20:31  5-MIN KACK 050420Z AUTO 02031G41KT 7SM -SN BKN009 BKN018 OVC028 02/00 A2986 100 85 -1300 030/31G41 RMK AO2 PK WND 02041/0416 P0001 T00220000 TSNO
14756KACK ACK20160304232516703/04/16 23:25:31  5-MIN KACK 050425Z AUTO 02029G41KT 6SM -SN BR BKN009 BKN013 OVC028 02/00 A2987 100 85 -1300 040/29G41 RMK AO2 PK WND 02041/0416 P0001 T00220000 TSNO
14756KACK ACK20160304233016703/04/16 23:30:31  5-MIN KACK 050430Z AUTO 02031G41KT 6SM -SN BR BKN011 BKN018 OVC026 02/00 A2987 100 85 -1300 040/31G41 RMK AO2 PK WND 03041/0428 P0001 T00220000 TSNO
14756KACK ACK20160304233517703/04/16 23:35:31  5-MIN KACK 050435Z AUTO 02026G41KT 6SM UP BR BKN011 BKN016 OVC026 02/00 A2987 100 85 -1300 040/26G41 RMK AO2 PK WND 03041/0428 UPB34SNE34 P0001 T00220000 TSNO
14756KACK ACK20160304234017403/04/16 23:40:31  5-MIN KACK 050440Z AUTO 02026G37KT 8SM UP BKN011 BKN017 OVC028 02/00 A2986 100 85 -1300 030/26G37 RMK AO2 PK WND 03041/0428 UPB34SNE34 P0001 T00220000 TSNO
14756KACK ACK20160304234517403/04/16 23:45:31  5-MIN KACK 050445Z AUTO 02029G37KT 8SM UP SCT009 BKN014 OVC028 02/00 A2987 100 85 -1300 030/29G37 RMK AO2 PK WND 03041/0428 UPB34SNE34 P0001 T00220000 TSNO
14756KACK ACK20160304235019103/04/16 23:50:31  5-MIN KACK 050450Z AUTO 02029G40KT 7SM UP SCT009 BKN014 OVC025 02/00 A2987 100 85 -1300 030/29G40 RMK AO2 PK WND 03041/0428 UPB34SNE34 SLP113 P0001 T00220000 400391011 TSNO
14756KACK ACK20160304235516303/04/16 23:55:31  5-MIN KACK 050455Z AUTO 02032G42KT 7SM UP SCT009 BKN016 OVC025 02/00 A2987 100 85 -1300 030/32G42 RMK AO2 PK WND 02042/0454 P0000 T00220000 TSNO
14756KACK ACK20160305000018203/05/16 00:00:31  5-MIN KACK 050500Z AUTO 02030G42KT 6SM -SN BR SCT009 BKN014 OVC028 02/00 A2987 100 85 -1300 030/30G42 RMK AO2 PK WND 02038/0500 UPE0457SNB0457 P0000 T00220000 TSNO
14756KACK ACK20160305000518003/05/16 00:05:31  5-MIN KACK 050505Z AUTO 02032G40KT 7SM -SN FEW009 BKN014 OVC028 02/M01 A2987 100 82 -1300 030/32G40 RMK AO2 PK WND 02038/0504 UPE0457SNB0457 P0000 T00221006 TSNO
14756KACK ACK20160305001017803/05/16 00:10:31  5-MIN KACK 050510Z AUTO 02026G38KT 9SM SCT010 BKN015 OVC026 02/00 A2987 100 85 -1300 040/26G38 RMK AO2 PK WND 03038/0507 UPE0457SNB0457E08 P0000 T00220000 TSNO
14756KACK ACK20160305001518203/05/16 00:15:31  5-MIN KACK 050515Z AUTO 02033G39KT 6SM -SN BR BKN010 BKN015 OVC028 02/00 A2987 100 85 -1300 030/33G39 RMK AO2 PK WND 02039/0514 UPE0457SNB0457 P0000 T00220000 TSNO
14756KACK ACK20160305002018103/05/16 00:20:31  5-MIN KACK 050520Z AUTO 01028G40KT 5SM -SN BR BKN010 BKN016 OVC025 02/00 A2987 90 85 -1400 030/28G40 RMK AO2 PK WND 01040/0520 UPE0457SNB0457 P0000 T00220000 TSNO
14756KACK ACK20160305002518303/05/16 00:25:31  5-MIN KACK 050525Z AUTO 01027G40KT 7SM UP BKN010 BKN017 OVC024 02/00 A2987 90 85 -1400 030/27G40 RMK AO2 PK WND 01040/0520 UPE0457B25SNB0457E25 P0000 T00220000 TSNO
14756KACK ACK20160305003018303/05/16 00:30:31  5-MIN KACK 050530Z AUTO 01033G39KT 8SM UP SCT010 BKN014 OVC022 02/00 A2988 90 85 -1400 030/33G39 RMK AO2 PK WND 01040/0520 UPE0457B25SNB0457E25 P0000 T00220000 TSNO
14756KACK ACK20160305003518403/05/16 00:35:31  5-MIN KACK 050535Z AUTO 01029G39KT 9SM UP SCT010 BKN016 OVC027 02/M01 A2987 90 82 -1400 020/29G39 RMK AO2 PK WND 01040/0520 UPE0457B25SNB0457E25 P0000 T00221006 TSNO
14756KACK ACK20160305004018503/05/16 00:40:31  5-MIN KACK 050540Z AUTO 01030G38KT 10SM SCT010 BKN016 OVC030 02/M01 A2988 90 82 -1400 030/30G38 RMK AO2 PK WND 01040/0520 UPE0457B25E39SNB0457E25 P0000 T00221006 TSNO
14756KACK ACK20160305004518503/05/16 00:45:31  5-MIN KACK 050545Z AUTO 01030G38KT 10SM FEW010 BKN021 OVC029 02/M01 A2988 90 78 -1400 030/30G38 RMK AO2 PK WND 01040/0520 UPE0457B25E39SNB0457E25 P0000 T00221011 TSNO
14756KACK ACK20160305005021603/05/16 00:50:31  5-MIN KACK 050550Z AUTO 02027G41KT 10SM FEW012 BKN019 OVC025 02/M01 A2988 80 78 -1400 040/27G41 RMK AO2 PK WND 01041/0546 UPE0457B25E39SNB0457E25 SLP119 P0000 60018 T00221011 10033 20022 55005 TSNO
14756KACK ACK20160305005515503/05/16 00:55:31  5-MIN KACK 050555Z AUTO 02033G41KT 10SM FEW012 BKN019 OVC025 02/M01 A2988 80 78 -1400 030/33G41 RMK AO2 PK WND 03040/0554 T00221011 TSNO
14756KACK ACK20160305010014803/05/16 01:00:31  5-MIN KACK 050600Z AUTO 02029G40KT 10SM BKN019 OVC025 02/M01 A2988 90 78 -1400 030/29G40 RMK AO2 PK WND 01040/0558 T00221011 TSNO
14756KACK ACK20160305010514103/05/16 01:05:31  5-MIN KACK 050605Z AUTO 01029G41KT 10SM OVC019 02/M01 A2988 90 78 -1400 030/29G41 RMK AO2 PK WND 02041/0605 T00221011 TSNO
14756KACK ACK20160305011014103/05/16 01:10:31  5-MIN KACK 050610Z AUTO 01034G42KT 10SM OVC019 02/M02 A2988 90 75 -1400 020/34G42 RMK AO2 PK WND 01042/0610 T00221017 TSNO
14756KACK ACK20160305011514103/05/16 01:15:31  5-MIN KACK 050615Z AUTO 01034G44KT 10SM OVC021 02/M02 A2988 90 75 -1400 020/34G44 RMK AO2 PK WND 02044/0612 T00221017 TSNO
14756KACK ACK20160305012014103/05/16 01:20:31  5-MIN KACK 050620Z AUTO 01035G44KT 10SM OVC021 02/M02 A2988 80 72 -1400 030/35G44 RMK AO2 PK WND 02044/0612 T00221022 TSNO
14756KACK ACK20160305012514103/05/16 01:25:31  5-MIN KACK 050625Z AUTO 01029G46KT 10SM OVC021 02/M02 A2988 90 72 -1400 030/29G46 RMK AO2 PK WND 01046/0622 T00221022 TSNO
14756KACK ACK20160305013014103/05/16 01:30:31  5-MIN KACK 050630Z AUTO 01036G46KT 10SM OVC023 02/M02 A2988 80 72 -1400 030/36G46 RMK AO2 PK WND 01046/0622 T00221022 TSNO
14756KACK ACK20160305013514103/05/16 01:35:31  5-MIN KACK 050635Z AUTO 01030G45KT 10SM OVC023 02/M02 A2989 80 72 -1400 030/30G45 RMK AO2 PK WND 01046/0622 T00221022 TSNO
14756KACK ACK20160305014014103/05/16 01:40:31  5-MIN KACK 050640Z AUTO 02028G42KT 10SM OVC023 02/M02 A2989 80 72 -1400 030/28G42 RMK AO2 PK WND 01046/0622 T00221022 TSNO
14756KACK ACK20160305014514103/05/16 01:45:31  5-MIN KACK 050645Z AUTO 01031G41KT 10SM OVC023 02/M02 A2989 80 72 -1400 030/31G41 RMK AO2 PK WND 01046/0622 T00221022 TSNO
14756KACK ACK20160305015014803/05/16 01:50:31  5-MIN KACK 050650Z AUTO 01028G41KT 10SM OVC023 02/M02 A2989 80 72 -1400 030/28G41 RMK AO2 PK WND 01046/0622 SLP122 T00221022 TSNO
14756KACK ACK20160305015514103/05/16 01:55:31  5-MIN KACK 050655Z AUTO 01027G42KT 10SM OVC023 02/M02 A2989 70 72 -1400 020/27G42 RMK AO2 PK WND 36040/0655 T00221022 TSNO
14756KACK ACK20160305020014103/05/16 02:00:31  5-MIN KACK 050700Z AUTO 01033G44KT 10SM OVC024 02/M03 A2989 70 69 -1400 030/33G44 RMK AO2 PK WND 36044/0658 T00221028 TSNO
14756KACK ACK20160305020514103/05/16 02:05:31  5-MIN KACK 050705Z AUTO 36029G44KT 10SM OVC024 02/M03 A2989 70 69 -1400 020/29G44 RMK AO2 PK WND 36044/0658 T00221028 TSNO
14756KACK ACK20160305021014103/05/16 02:10:31  5-MIN KACK 050710Z AUTO 01029G41KT 10SM OVC024 02/M03 A2990 70 69 -1400 020/29G41 RMK AO2 PK WND 36044/0658 T00221028 TSNO
14756KACK ACK20160305021514103/05/16 02:15:31  5-MIN KACK 050715Z AUTO 01031G43KT 10SM OVC024 02/M03 A2990 70 69 -1400 020/31G43 RMK AO2 PK WND 36044/0658 T00221028 TSNO
14756KACK ACK20160305022014103/05/16 02:20:31  5-MIN KACK 050720Z AUTO 01029G43KT 10SM OVC024 02/M03 A2990 70 69 -1400 030/29G43 RMK AO2 PK WND 36044/0658 T00221028 TSNO
14756KACK ACK20160305022514103/05/16 02:25:31  5-MIN KACK 050725Z AUTO 01021G43KT 10SM OVC024 02/M03 A2990 70 69 -1400 020/21G43 RMK AO2 PK WND 36044/0658 T00221028 TSNO
14756KACK ACK20160305023014103/05/16 02:30:31  5-MIN KACK 050730Z AUTO 36027G40KT 10SM OVC023 02/M02 A2991 60 72 -1400 020/27G40 RMK AO2 PK WND 36044/0658 T00221022 TSNO
14756KACK ACK20160305023514103/05/16 02:35:31  5-MIN KACK 050735Z AUTO 01035G44KT 10SM OVC023 02/M03 A2991 60 69 -1400 020/35G44 RMK AO2 PK WND 36044/0658 T00221028 TSNO
14756KACK ACK20160305024014103/05/16 02:40:31  5-MIN KACK 050740Z AUTO 01032G44KT 10SM OVC025 02/M03 A2991 60 69 -1500 020/32G44 RMK AO2 PK WND 36044/0658 T00171033 TSNO
14756KACK ACK20160305024514103/05/16 02:45:31  5-MIN KACK 050745Z AUTO 36029G40KT 10SM OVC025 02/M03 A2991 60 69 -1500 020/29G40 RMK AO2 PK WND 36044/0658 T00171033 TSNO
14756KACK ACK20160305025015503/05/16 02:50:31  5-MIN KACK 050750Z AUTO 36029G40KT 10SM BKN025 OVC029 02/M03 A2991 60 69 -1500 010/29G40 RMK AO2 PK WND 36044/0658 SLP127 T00171033 TSNO
14756KACK ACK20160305025514803/05/16 02:55:31  5-MIN KACK 050755Z AUTO 36030G40KT 10SM BKN026 OVC049 02/M04 A2991 60 66 -1500 020/30G40 RMK AO2 PK WND 01037/0754 T00171039 TSNO
14756KACK ACK20160305030014803/05/16 03:00:31  5-MIN KACK 050800Z AUTO 36032G39KT 10SM BKN026 OVC049 02/M03 A2991 60 69 -1500 020/32G39 RMK AO2 PK WND 01038/0800 T00171033 TSNO
14756KACK ACK20160305030514803/05/16 03:05:31  5-MIN KACK 050805Z AUTO 36031G39KT 10SM BKN026 OVC047 02/M04 A2991 60 66 -1500 020/31G39 RMK AO2 PK WND 35039/0805 T00171039 TSNO
14756KACK ACK20160305031014803/05/16 03:10:31  5-MIN KACK 050810Z AUTO 36029G39KT 10SM SCT026 OVC047 02/M04 A2991 60 66 -1500 020/29G39 RMK AO2 PK WND 35039/0805 T00171039 TSNO
14756KACK ACK20160305031514803/05/16 03:15:31  5-MIN KACK 050815Z AUTO 36031G40KT 10SM SCT026 OVC047 02/M04 A2991 50 66 -1500 020/31G40 RMK AO2 PK WND 01040/0813 T00171039 TSNO
14756KACK ACK20160305032014803/05/16 03:20:31  5-MIN KACK 050820Z AUTO 36032G43KT 10SM FEW026 OVC046 02/M04 A2991 60 66 -1500 020/32G43 RMK AO2 PK WND 35043/0820 T00171039 TSNO
14756KACK ACK20160305032514803/05/16 03:25:31  5-MIN KACK 050825Z AUTO 36024G43KT 10SM FEW026 OVC046 02/M04 A2991 50 66 -1500 010/24G43 RMK AO2 PK WND 35043/0820 T00171039 TSNO
14756KACK ACK20160305033014803/05/16 03:30:31  5-MIN KACK 050830Z AUTO 36025G41KT 10SM FEW025 OVC044 02/M04 A2991 60 66 -1500 020/25G41 RMK AO2 PK WND 35043/0820 T00171039 TSNO
14756KACK ACK20160305033514803/05/16 03:35:31  5-MIN KACK 050835Z AUTO 36029G37KT 10SM FEW025 OVC044 02/M04 A2991 60 64 -1500 010/29G37 RMK AO2 PK WND 35043/0820 T00171044 TSNO
14756KACK ACK20160305034014803/05/16 03:40:31  5-MIN KACK 050840Z AUTO 36029G40KT 10SM FEW025 OVC046 02/M04 A2992 50 64 -1500 020/29G40 RMK AO2 PK WND 35043/0820 T00171044 TSNO
14756KACK ACK20160305034514803/05/16 03:45:31  5-MIN KACK 050845Z AUTO 36026G40KT 10SM FEW025 OVC046 02/M04 A2992 50 64 -1500 010/26G40 RMK AO2 PK WND 35043/0820 T00171044 TSNO
14756KACK ACK20160305035016103/05/16 03:50:31  5-MIN KACK 050850Z AUTO 36030G40KT 10SM SCT027 OVC046 01/M04 A2992 50 66 -1500 020/30G40 RMK AO2 PK WND 35043/0820 SLP131 T00111044 53008 TSNO
14756KACK ACK20160305035514803/05/16 03:55:31  5-MIN KACK 050855Z AUTO 36025G40KT 10SM SCT027 OVC045 02/M04 A2992 50 64 -1500 010/25G40 RMK AO2 PK WND 01034/0854 T00171044 TSNO
14756KACK ACK20160305040014803/05/16 04:00:31  5-MIN KACK 050900Z AUTO 36029G40KT 10SM SCT027 OVC045 01/M04 A2992 50 66 -1500 020/29G40 RMK AO2 PK WND 36040/0900 T00111044 TSNO
14756KACK ACK20160305040514803/05/16 04:05:31  5-MIN KACK 050905Z AUTO 35026G40KT 10SM SCT027 OVC047 01/M04 A2992 50 66 -1500 010/26G40 RMK AO2 PK WND 36040/0900 T00111044 TSNO
14756KACK ACK20160305041014803/05/16 04:10:31  5-MIN KACK 050910Z AUTO 35029G37KT 10SM SCT027 OVC047 01/M05 A2992 50 64 -1500 010/29G37 RMK AO2 PK WND 36040/0900 T00111050 TSNO
14756KACK ACK20160305041514803/05/16 04:15:31  5-MIN KACK 050915Z AUTO 36027G37KT 10SM SCT028 BKN047 01/M05 A2993 40 64 -1600 010/27G37 RMK AO2 PK WND 36040/0900 T00111050 TSNO
14756KACK ACK20160305042014803/05/16 04:20:31  5-MIN KACK 050920Z AUTO 36027G40KT 10SM SCT028 BKN048 01/M05 A2993 40 64 -1600 010/27G40 RMK AO2 PK WND 36040/0900 T00111050 TSNO
14756KACK ACK20160305042514803/05/16 04:25:31  5-MIN KACK 050925Z AUTO 36030G40KT 10SM SCT028 BKN048 01/M05 A2994 30 64 -1600 020/30G40 RMK AO2 PK WND 36040/0900 T00111050 TSNO
14756KACK ACK20160305043015503/05/16 04:30:31  5-MIN KACK 050930Z AUTO 36028G39KT 10SM BKN028 BKN032 BKN048 01/M05 A2994 30 64 -1600 010/28G39 RMK AO2 PK WND 36040/0900 T00111050 TSNO
14756KACK ACK20160305043514803/05/16 04:35:31  5-MIN KACK 050935Z AUTO 36023G37KT 10SM BKN028 BKN049 01/M05 A2994 30 64 -1600 010/23G37 RMK AO2 PK WND 36040/0900 T00111050 TSNO
14756KACK ACK20160305044014103/05/16 04:40:31  5-MIN KACK 050940Z AUTO 36022G35KT 10SM BKN028 01/M04 A2995 30 66 -1600 010/22G35 RMK AO2 PK WND 36040/0900 T00111044 TSNO
14756KACK ACK20160305044514103/05/16 04:45:31  5-MIN KACK 050945Z AUTO 36029G37KT 10SM BKN028 01/M04 A2995 20 66 -1600 010/29G37 RMK AO2 PK WND 36040/0900 T00111044 TSNO
14756KACK ACK20160305045014803/05/16 04:50:31  5-MIN KACK 050950Z AUTO 36023G37KT 10SM OVC026 01/M05 A2995 20 64 -1600 010/23G37 RMK AO2 PK WND 36040/0900 SLP142 T00111050 TSNO
14756KACK ACK20160305045514103/05/16 04:55:31  5-MIN KACK 050955Z AUTO 36026G37KT 10SM OVC026 01/M05 A2996 10 64 -1600 020/26G37 RMK AO2 PK WND 36032/0954 T00111050 TSNO
14756KACK ACK20160305050014103/05/16 05:00:31  5-MIN KACK 051000Z AUTO 36025G37KT 10SM OVC026 01/M05 A2996 10 64 -1600 010/25G37 RMK AO2 PK WND 36034/0957 T00111050 TSNO
14756KACK ACK20160305050514103/05/16 05:05:31  5-MIN KACK 051005Z AUTO 35023G34KT 10SM OVC026 01/M05 A2996 10 64 -1600 010/23G34 RMK AO2 PK WND 36034/0957 T00111050 TSNO
14756KACK ACK20160305051014103/05/16 05:10:31  5-MIN KACK 051010Z AUTO 36028G33KT 10SM OVC026 01/M05 A2997 10 64 -1600 020/28G33 RMK AO2 PK WND 36034/0957 T00111050 TSNO
14756KACK ACK20160305051514003/05/16 05:15:31  5-MIN KACK 051015Z AUTO 36026G39KT 10SM OVC028 01/M06 A2997 0 61 -1600 010/26G39 RMK AO2 PK WND 35039/1011 T00111056 TSNO
14756KACK ACK20160305052014003/05/16 05:20:31  5-MIN KACK 051020Z AUTO 36027G39KT 10SM OVC028 01/M05 A2997 0 64 -1600 020/27G39 RMK AO2 PK WND 35039/1011 T00111050 TSNO
14756KACK ACK20160305052514003/05/16 05:25:31  5-MIN KACK 051025Z AUTO 36024G37KT 10SM OVC028 01/M06 A2998 0 61 -1600 020/24G37 RMK AO2 PK WND 35039/1011 T00111056 TSNO
14756KACK ACK20160305053014003/05/16 05:30:31  5-MIN KACK 051030Z AUTO 01026G37KT 10SM OVC028 01/M06 A2998 0 63 -1700 020/26G37 RMK AO2 PK WND 35039/1011 T00061056 TSNO
14756KACK ACK20160305053514203/05/16 05:35:31  5-MIN KACK 051035Z AUTO 01024G34KT 10SM BKN030 01/M06 A2999 -10 63 -1700 020/24G34 RMK AO2 PK WND 35039/1011 T00061056 TSNO
14756KACK ACK20160305054014203/05/16 05:40:31  5-MIN KACK 051040Z AUTO 36020G33KT 10SM BKN030 01/M06 A2999 -10 63 -1700 010/20G33 RMK AO2 PK WND 35039/1011 T00061056 TSNO
14756KACK ACK20160305054514203/05/16 05:45:31  5-MIN KACK 051045Z AUTO 36025G36KT 10SM BKN030 01/M06 A2999 -10 63 -1700 010/25G36 RMK AO2 PK WND 35039/1011 T00061056 TSNO
14756KACK ACK20160305055014903/05/16 05:50:31  5-MIN KACK 051050Z AUTO 36024G36KT 10SM BKN030 01/M06 A3000 -20 63 -1700 010/24G36 RMK AO2 PK WND 35039/1011 SLP159 T00061056 TSNO
14756KACK ACK20160305055513203/05/16 05:55:31  5-MIN KACK 051055Z 36026G34KT 10SM BKN030 01/M06 A3001 -20 61 -1700 010/26G34 RMK AO2 PK WND 36034/1054 T00061061
14756KACK ACK20160305060013203/05/16 06:00:31  5-MIN KACK 051100Z 36026G34KT 10SM BKN030 01/M06 A3001 -30 61 -1700 010/26G34 RMK AO2 PK WND 36034/1054 T00061061
14756KACK ACK20160305060513203/05/16 06:05:31  5-MIN KACK 051105Z 01023G33KT 10SM BKN030 01/M06 A3001 -30 61 -1700 020/23G33 RMK AO2 PK WND 36034/1054 T00061061
14756KACK ACK20160305061013203/05/16 06:10:31  5-MIN KACK 051110Z 35021G30KT 10SM BKN030 01/M06 A3002 -40 63 -1700 010/21G30 RMK AO2 PK WND 36034/1054 T00061056
14756KACK ACK20160305061513203/05/16 06:15:31  5-MIN KACK 051115Z 36020G30KT 10SM BKN030 01/M06 A3002 -40 61 -1700 010/20G30 RMK AO2 PK WND 36034/1054 T00061061
14756KACK ACK20160305062013203/05/16 06:20:31  5-MIN KACK 051120Z 35021G27KT 10SM BKN031 01/M06 A3002 -40 63 -1700 010/21G27 RMK AO2 PK WND 36034/1054 T00061056
14756KACK ACK20160305062513203/05/16 06:25:31  5-MIN KACK 051125Z 36024G30KT 10SM OVC031 01/M06 A3003 -40 61 -1700 020/24G30 RMK AO2 PK WND 36034/1054 T00061061
14756KACK ACK20160305063013903/05/16 06:30:31  5-MIN KACK 051130Z 36026G32KT 10SM BKN031 OVC036 01/M06 A3003 -50 61 -1700 020/26G32 RMK AO2 PK WND 36034/1054 T00061061
14756KACK ACK20160305063513203/05/16 06:35:31  5-MIN KACK 051135Z 36019G32KT 10SM BKN031 01/M06 A3003 -50 61 -1700 020/19G32 RMK AO2 PK WND 36034/1054 T00061061
14756KACK ACK20160305064013203/05/16 06:40:31  5-MIN KACK 051140Z 35023G30KT 10SM BKN031 01/M06 A3003 -50 61 -1700 010/23G30 RMK AO2 PK WND 36034/1054 T00061061
14756KACK ACK20160305064513203/05/16 06:45:31  5-MIN KACK 051145Z 36021G31KT 10SM BKN033 01/M07 A3003 -50 58 -1700 010/21G31 RMK AO2 PK WND 36034/1054 T00061067
14756KACK ACK20160305065016303/05/16 06:50:31  5-MIN KACK 051150Z 36022G33KT 10SM BKN033 01/M07 A3003 -50 58 -1700 020/22G33 RMK AO2 PK WND 36034/1054 SLP170 70037 T00061067 10022 20006 53012
14756KACK ACK20160305065513203/05/16 06:55:31  5-MIN KACK 051155Z 36024G33KT 10SM BKN033 01/M07 A3004 -60 58 -1800 010/24G33 RMK AO2 PK WND 01030/1154 T00061067
14756KACK ACK20160305070013203/05/16 07:00:31  5-MIN KACK 051200Z 36023G32KT 10SM BKN034 01/M07 A3004 -60 58 -1800 020/23G32 RMK AO2 PK WND 01032/1157 T00061067
14756KACK ACK20160305070513203/05/16 07:05:31  5-MIN KACK 051205Z 36025G32KT 10SM BKN034 01/M07 A3004 -60 58 -1800 020/25G32 RMK AO2 PK WND 01032/1157 T00061067
14756KACK ACK20160305071013203/05/16 07:10:31  5-MIN KACK 051210Z 36021G31KT 10SM BKN034 01/M07 A3004 -60 58 -1800 020/21G31 RMK AO2 PK WND 01032/1157 T00061067
14756KACK ACK20160305071513203/05/16 07:15:31  5-MIN KACK 051215Z 36025G30KT 10SM BKN034 01/M07 A3005 -60 56 -1700 020/25G30 RMK AO2 PK WND 01032/1157 T00111067
14756KACK ACK20160305072013203/05/16 07:20:31  5-MIN KACK 051220Z 01021G30KT 10SM BKN034 01/M06 A3005 -70 58 -1700 020/21G30 RMK AO2 PK WND 01032/1157 T00111061
14756KACK ACK20160305072513203/05/16 07:25:31  5-MIN KACK 051225Z 36019G30KT 10SM BKN032 01/M07 A3005 -70 56 -1700 010/19G30 RMK AO2 PK WND 01032/1157 T00111067
14756KACK ACK20160305073013203/05/16 07:30:31  5-MIN KACK 051230Z 36021G30KT 10SM BKN032 01/M06 A3006 -70 58 -1700 010/21G30 RMK AO2 PK WND 01032/1157 T00111061
14756KACK ACK20160305073513203/05/16 07:35:31  5-MIN KACK 051235Z 36022G32KT 10SM BKN032 01/M06 A3006 -70 58 -1700 020/22G32 RMK AO2 PK WND 01032/1157 T00111061
14756KACK ACK20160305074013203/05/16 07:40:31  5-MIN KACK 051240Z 36020G32KT 10SM BKN034 02/M06 A3006 -80 56 -1600 020/20G32 RMK AO2 PK WND 01032/1157 T00171061
14756KACK ACK20160305074513203/05/16 07:45:31  5-MIN KACK 051245Z 01022G29KT 10SM BKN034 01/M06 A3006 -80 58 -1700 020/22G29 RMK AO2 PK WND 01032/1157 T00111061
14756KACK ACK20160305075013903/05/16 07:50:31  5-MIN KACK 051250Z 36019G29KT 10SM BKN034 01/M06 A3006 -80 58 -1700 020/19G29 RMK AO2 PK WND 01032/1157 SLP179 T00111061
14756KACK ACK20160305075513203/05/16 07:55:31  5-MIN KACK 051255Z 35020G29KT 10SM BKN034 01/M07 A3007 -80 56 -1700 360/20G29 RMK AO2 PK WND 35026/1254 T00111067
14756KACK ACK20160305080013203/05/16 08:00:31  5-MIN KACK 051300Z 35022G28KT 10SM BKN034 01/M07 A3007 -80 58 -1800 360/22G28 RMK AO2 PK WND 35028/1300 T00061067
14756KACK ACK20160305080513203/05/16 08:05:31  5-MIN KACK 051305Z 35017G28KT 10SM BKN034 01/M07 A3007 -80 56 -1800 010/17G28 RMK AO2 PK WND 35028/1300 T00061072
14756KACK ACK20160305081013203/05/16 08:10:31  5-MIN KACK 051310Z 35018G25KT 10SM BKN032 01/M07 A3007 -90 58 -1800 010/18G25 RMK AO2 PK WND 35028/1300 T00061067
14756KACK ACK20160305081513203/05/16 08:15:31  5-MIN KACK 051315Z 35023G28KT 10SM BKN032 01/M07 A3007 -80 58 -1800 010/23G28 RMK AO2 PK WND 35028/1300 T00061067
14756KACK ACK20160305082013203/05/16 08:20:31  5-MIN KACK 051320Z 36021G29KT 10SM BKN034 01/M07 A3007 -90 56 -1700 020/21G29 RMK AO2 PK WND 35029/1317 T00111067
14756KACK ACK20160305082513203/05/16 08:25:31  5-MIN KACK 051325Z 36019G30KT 10SM BKN034 01/M07 A3008 -90 56 -1700 020/19G30 RMK AO2 PK WND 36030/1322 T00111067
14756KACK ACK20160305083013203/05/16 08:30:31  5-MIN KACK 051330Z 36018G30KT 10SM BKN034 02/M06 A3008 -90 54 -1600 020/18G30 RMK AO2 PK WND 36030/1322 T00221061
14756KACK ACK20160305083513203/05/16 08:35:31  5-MIN KACK 051335Z 36020G28KT 10SM BKN033 02/M07 A3008 -90 54 -1700 010/20G28 RMK AO2 PK WND 36030/1322 T00171067
14756KACK ACK20160305084013203/05/16 08:40:31  5-MIN KACK 051340Z 35020G28KT 10SM BKN033 01/M07 A3008 -90 54 -1700 010/20G28 RMK AO2 PK WND 36030/1322 T00111072
14756KACK ACK20160305084513203/05/16 08:45:31  5-MIN KACK 051345Z 35019G28KT 10SM BKN033 01/M07 A3008 -90 54 -1700 360/19G28 RMK AO2 PK WND 36030/1322 T00111072
14756KACK ACK20160305085014003/05/16 08:50:31  5-MIN KACK 051350Z 36020G28KT 10SM BKN033 01/M07 A3008 -100 56 -1700 020/20G28 RMK AO2 PK WND 36030/1322 SLP186 T00111067
14756KACK ACK20160305085511503/05/16 08:55:31  5-MIN KACK 051355Z 35016G25KT 10SM BKN033 01/M07 A3009 -100 56 -1700 010/16G25 RMK AO2 T00111067
14756KACK ACK20160305090011503/05/16 09:00:31  5-MIN KACK 051400Z 35018G24KT 10SM BKN033 01/M07 A3009 -100 56 -1700 360/18G24 RMK AO2 T00111067
14756KACK ACK20160305090513303/05/16 09:05:31  5-MIN KACK 051405Z 36021G27KT 10SM OVC033 01/M07 A3009 -100 56 -1700 020/21G27 RMK AO2 PK WND 01027/1404 T00111067
14756KACK ACK20160305091013303/05/16 09:10:31  5-MIN KACK 051410Z 36019G29KT 10SM OVC035 02/M07 A3009 -100 52 -1700 020/19G29 RMK AO2 PK WND 35029/1406 T00171072
14756KACK ACK20160305091513303/05/16 09:15:31  5-MIN KACK 051415Z 01023G30KT 10SM OVC035 02/M07 A3009 -110 52 -1700 020/23G30 RMK AO2 PK WND 01030/1415 T00171072
14756KACK ACK20160305092013303/05/16 09:20:31  5-MIN KACK 051420Z 01022G30KT 10SM OVC035 02/M07 A3010 -110 52 -1700 020/22G30 RMK AO2 PK WND 01030/1415 T00171072
14756KACK ACK20160305092513303/05/16 09:25:31  5-MIN KACK 051425Z 01021G28KT 10SM OVC035 02/M07 A3010 -110 52 -1700 020/21G28 RMK AO2 PK WND 01030/1415 T00171072
14756KACK ACK20160305093013303/05/16 09:30:31  5-MIN KACK 051430Z 36017G27KT 10SM OVC036 02/M07 A3010 -110 54 -1700 010/17G27 RMK AO2 PK WND 01030/1415 T00171067
14756KACK ACK20160305093513303/05/16 09:35:31  5-MIN KACK 051435Z 36016G25KT 10SM OVC036 02/M07 A3010 -110 52 -1700 010/16G25 RMK AO2 PK WND 01030/1415 T00171072
14756KACK ACK20160305094013303/05/16 09:40:31  5-MIN KACK 051440Z 35018G25KT 10SM OVC036 03/M07 A3011 -120 50 -1500 010/18G25 RMK AO2 PK WND 01030/1415 T00281067
14756KACK ACK20160305094513303/05/16 09:45:31  5-MIN KACK 051445Z 35019G25KT 10SM OVC036 02/M07 A3010 -120 52 -1700 360/19G25 RMK AO2 PK WND 01030/1415 T00171072
14756KACK ACK20160305095014603/05/16 09:50:31  5-MIN KACK 051450Z 36017G26KT 10SM BKN036 02/M07 A3010 -120 50 -1600 010/17G26 RMK AO2 PK WND 01030/1415 SLP194 T00221072 53041
14756KACK ACK20160305095511503/05/16 09:55:31  5-MIN KACK 051455Z 35019G26KT 10SM BKN036 02/M08 A3010 -110 49 -1700 360/19G26 RMK AO2 T00171078
14756KACK ACK20160305100011503/05/16 10:00:31  5-MIN KACK 051500Z 35019G26KT 10SM BKN036 02/M07 A3010 -110 50 -1600 010/19G26 RMK AO2 T00221072
14756KACK ACK20160305100511503/05/16 10:05:31  5-MIN KACK 051505Z 35016G25KT 10SM BKN036 01/M07 A3010 -110 54 -1800 360/16G25 RMK AO2 T00111072
14756KACK ACK20160305101013303/05/16 10:10:31  5-MIN KACK 051510Z 35019G26KT 10SM BKN036 02/M08 A3010 -110 49 -1700 010/19G26 RMK AO2 PK WND 35026/1507 T00171078
14756KACK ACK20160305101513303/05/16 10:15:31  5-MIN KACK 051515Z 01017G26KT 10SM BKN036 02/M08 A3010 -120 47 -1600 020/17G26 RMK AO2 PK WND 35026/1507 T00221078
14756KACK ACK20160305102013303/05/16 10:20:31  5-MIN KACK 051520Z 36020G30KT 10SM BKN038 03/M08 A3010 -120 46 -1500 010/20G30 RMK AO2 PK WND 01030/1519 T00281078
14756KACK ACK20160305102513303/05/16 10:25:31  5-MIN KACK 051525Z 01018G30KT 10SM OVC038 03/M07 A3010 -110 48 -1500 030/18G30 RMK AO2 PK WND 01030/1519 T00281072
14756KACK ACK20160305103013303/05/16 10:30:31  5-MIN KACK 051530Z 36020G26KT 10SM BKN038 02/M08 A3010 -110 47 -1600 010/20G26 RMK AO2 PK WND 01030/1519 T00221078
14756KACK ACK20160305103513303/05/16 10:35:31  5-MIN KACK 051535Z 36018G26KT 10SM BKN038 03/M08 A3010 -110 46 -1500 010/18G26 RMK AO2 PK WND 01030/1519 T00281078
14756KACK ACK20160305104013303/05/16 10:40:31  5-MIN KACK 051540Z 35018G28KT 10SM SCT038 03/M08 A3010 -120 46 -1500 360/18G28 RMK AO2 PK WND 01030/1519 T00281078
14756KACK ACK20160305104513303/05/16 10:45:31  5-MIN KACK 051545Z 36022G29KT 10SM SCT038 03/M08 A3010 -120 46 -1500 020/22G29 RMK AO2 PK WND 01030/1519 T00281078
14756KACK ACK20160305105014003/05/16 10:50:31  5-MIN KACK 051550Z 35020G29KT 10SM SCT038 03/M08 A3010 -110 46 -1500 010/20G29 RMK AO2 PK WND 01030/1519 SLP193 T00281078
14756KACK ACK20160305105511503/05/16 10:55:31  5-MIN KACK 051555Z 35019G26KT 10SM SCT036 02/M08 A3011 -120 47 -1600 010/19G26 RMK AO2 T00221078
14756KACK ACK20160305110011503/05/16 11:00:31  5-MIN KACK 051600Z 34018G26KT 10SM SCT036 02/M08 A3011 -120 47 -1600 360/18G26 RMK AO2 T00221078
14756KACK ACK20160305110511503/05/16 11:05:31  5-MIN KACK 051605Z 35014G23KT 10SM SCT036 03/M08 A3010 -120 46 -1500 010/14G23 RMK AO2 T00281078
14756KACK ACK20160305111011503/05/16 11:10:31  5-MIN KACK 051610Z 36018G25KT 10SM SCT036 03/M08 A3011 -120 46 -1500 020/18G25 RMK AO2 T00281078
14756KACK ACK20160305111513303/05/16 11:15:31  5-MIN KACK 051615Z 36017G26KT 10SM SCT036 02/M08 A3011 -120 47 -1600 010/17G26 RMK AO2 PK WND 34026/1612 T00221078
14756KACK ACK20160305112013303/05/16 11:20:31  5-MIN KACK 051620Z 36018G26KT 10SM BKN036 03/M07 A3011 -120 48 -1600 010/18G26 RMK AO2 PK WND 34026/1612 T00281072
14756KACK ACK20160305112513303/05/16 11:25:31  5-MIN KACK 051625Z 35015G23KT 10SM BKN036 02/M08 A3012 -130 49 -1700 010/15G23 RMK AO2 PK WND 34026/1612 T00171078
14756KACK ACK20160305113013303/05/16 11:30:31  5-MIN KACK 051630Z 36015G25KT 10SM SCT036 02/M08 A3012 -130 45 -1600 010/15G25 RMK AO2 PK WND 34026/1612 T00221083
14756KACK ACK20160305113513303/05/16 11:35:31  5-MIN KACK 051635Z 33017G25KT 10SM SCT036 03/M08 A3012 -130 46 -1600 350/17G25 RMK AO2 PK WND 34026/1612 T00281078
14756KACK ACK20160305114013303/05/16 11:40:31  5-MIN KACK 051640Z 01019G23KT 10SM SCT036 03/M08 A3012 -130 46 -1600 020/19G23 RMK AO2 PK WND 34026/1612 T00281078
14756KACK ACK20160305114512703/05/16 11:45:31  5-MIN KACK 051645Z 36018KT 10SM FEW036 02/M08 A3012 -130 45 -1600 010/18 RMK AO2 PK WND 34026/1612 T00221083
14756KACK ACK20160305115014003/05/16 11:50:31  5-MIN KACK 051650Z 35016G24KT 10SM FEW036 02/M08 A3012 -130 45 -1600 360/16G24 RMK AO2 PK WND 34026/1612 SLP199 T00221083
14756KACK ACK20160305115511503/05/16 11:55:31  5-MIN KACK 051655Z 35018G25KT 10SM SCT036 02/M08 A3012 -130 47 -1600 010/18G25 RMK AO2 T00221078
14756KACK ACK20160305120011503/05/16 12:00:31  5-MIN KACK 051700Z 35016G25KT 10SM SCT036 02/M08 A3012 -130 45 -1600 010/16G25 RMK AO2 T00221083
14756KACK ACK20160305120510903/05/16 12:05:31  5-MIN KACK 051705Z 35017KT 10SM SCT036 02/M08 A3012 -130 47 -1600 360/17 RMK AO2 T00221078
14756KACK ACK20160305121011503/05/16 12:10:31  5-MIN KACK 051710Z 36017G23KT 10SM BKN036 02/M08 A3012 -130 49 -1700 010/17G23 RMK AO2 T00171078
14756KACK ACK20160305121511503/05/16 12:15:31  5-MIN KACK 051715Z 36018G22KT 10SM BKN036 02/M07 A3012 -130 52 -1700 010/18G22 RMK AO2 T00171072
14756KACK ACK20160305122011503/05/16 12:20:31  5-MIN KACK 051720Z 34016G25KT 10SM BKN034 02/M07 A3012 -130 50 -1600 350/16G25 RMK AO2 T00221072
14756KACK ACK20160305122511503/05/16 12:25:31  5-MIN KACK 051725Z 34017G25KT 10SM BKN034 02/M07 A3013 -130 50 -1600 360/17G25 RMK AO2 T00221072
14756KACK ACK20160305123010903/05/16 12:30:31  5-MIN KACK 051730Z 34017KT 10SM BKN034 02/M07 A3013 -140 50 -1600 350/17 RMK AO2 T00221072
14756KACK ACK20160305123511503/05/16 12:35:31  5-MIN KACK 051735Z 36018G24KT 10SM SCT034 02/M08 A3012 -130 47 -1600 010/18G24 RMK AO2 T00221078
14756KACK ACK20160305124013303/05/16 12:40:31  5-MIN KACK 051740Z 35019G26KT 10SM SCT034 02/M08 A3012 -130 47 -1600 010/19G26 RMK AO2 PK WND 36026/1736 T00221078
14756KACK ACK20160305124513303/05/16 12:45:31  5-MIN KACK 051745Z 34017G26KT 10SM FEW034 02/M08 A3012 -130 47 -1600 360/17G26 RMK AO2 PK WND 36026/1736 T00221078
14756KACK ACK20160305125015803/05/16 12:50:31  5-MIN KACK 051750Z 35017G24KT 10SM FEW034 02/M08 A3012 -130 47 -1600 360/17G24 RMK AO2 PK WND 36026/1736 SLP201 T00221078 10033 20006 51022
14756KACK ACK20160305125511503/05/16 12:55:31  5-MIN KACK 051755Z 34016G24KT 10SM FEW034 02/M08 A3013 -140 47 -1600 350/16G24 RMK AO2 T00221078
14756KACK ACK20160305130011503/05/16 13:00:31  5-MIN KACK 051800Z 34017G23KT 10SM FEW035 02/M08 A3013 -140 45 -1600 350/17G23 RMK AO2 T00221083
14756KACK ACK20160305130511503/05/16 13:05:31  5-MIN KACK 051805Z 35018G23KT 10SM FEW035 02/M08 A3013 -140 47 -1600 360/18G23 RMK AO2 T00221078
14756KACK ACK20160305131011503/05/16 13:10:31  5-MIN KACK 051810Z 35017G24KT 10SM FEW035 02/M08 A3012 -130 47 -1700 360/17G24 RMK AO2 T00171083
14756KACK ACK20160305131511503/05/16 13:15:31  5-MIN KACK 051815Z 35017G24KT 10SM FEW035 02/M08 A3013 -140 47 -1600 360/17G24 RMK AO2 T00221078
14756KACK ACK20160305132011503/05/16 13:20:31  5-MIN KACK 051820Z 34020G23KT 10SM FEW035 02/M08 A3013 -140 45 -1600 360/20G23 RMK AO2 T00221083
14756KACK ACK20160305132511503/05/16 13:25:31  5-MIN KACK 051825Z 33018G23KT 10SM FEW035 02/M08 A3013 -140 45 -1600 350/18G23 RMK AO2 T00221083
14756KACK ACK20160305133011503/05/16 13:30:31  5-MIN KACK 051830Z 35019G23KT 10SM FEW035 02/M08 A3013 -140 45 -1600 360/19G23 RMK AO2 T00221083
14756KACK ACK20160305133511203/05/16 13:35:31  5-MIN KACK 051835Z 35018G25KT 10SM CLR 02/M09 A3013 -140 45 -1700 360/18G25 RMK AO2 T00171089
14756KACK ACK20160305134011203/05/16 13:40:31  5-MIN KACK 051840Z 36016G25KT 10SM CLR 02/M09 A3013 -130 44 -1600 010/16G25 RMK AO2 T00221089
14756KACK ACK20160305134511203/05/16 13:45:31  5-MIN KACK 051845Z 36016G24KT 10SM CLR 02/M09 A3013 -140 45 -1700 010/16G24 RMK AO2 T00171089
14756KACK ACK20160305135011903/05/16 13:50:31  5-MIN KACK 051850Z 35016G24KT 10SM CLR 02/M09 A3013 -140 43 -1700 010/16G24 RMK AO2 SLP203 T00171094
14756KACK ACK20160305135510603/05/16 13:55:31  5-MIN KACK 051855Z 36017KT 10SM CLR 02/M09 A3014 -140 43 -1700 020/17 RMK AO2 T00171094
14756KACK ACK20160305140010603/05/16 14:00:31  5-MIN KACK 051900Z 35015KT 10SM CLR 02/M09 A3014 -140 43 -1700 010/15 RMK AO2 T00171094
14756KACK ACK20160305140511203/05/16 14:05:31  5-MIN KACK 051905Z 35016G22KT 10SM CLR 02/M09 A3014 -140 45 -1700 010/16G22 RMK AO2 T00171089
14756KACK ACK20160305141011203/05/16 14:10:31  5-MIN KACK 051910Z 35016G23KT 10SM CLR 02/M09 A3013 -140 45 -1700 010/16G23 RMK AO2 T00171089
14756KACK ACK20160305141511203/05/16 14:15:31  5-MIN KACK 051915Z 01016G23KT 10SM CLR 02/M09 A3013 -140 45 -1700 020/16G23 RMK AO2 T00171089
14756KACK ACK20160305142011203/05/16 14:20:31  5-MIN KACK 051920Z 35016G22KT 10SM CLR 01/M09 A3013 -140 47 -1800 360/16G22 RMK AO2 T00111089
14756KACK ACK20160305142510603/05/16 14:25:31  5-MIN KACK 051925Z 36016KT 10SM CLR 02/M09 A3013 -140 45 -1700 010/16 RMK AO2 T00171089
14756KACK ACK20160305143011203/05/16 14:30:31  5-MIN KACK 051930Z 35014G20KT 10SM CLR 02/M08 A3014 -150 47 -1700 010/14G20 RMK AO2 T00171083
14756KACK ACK20160305143511203/05/16 14:35:31  5-MIN KACK 051935Z 33015G20KT 10SM CLR 02/M09 A3014 -150 45 -1700 350/15G20 RMK AO2 T00171089
14756KACK ACK20160305144011203/05/16 14:40:31  5-MIN KACK 051940Z 36014G22KT 10SM CLR 02/M09 A3014 -150 45 -1700 010/14G22 RMK AO2 T00171089
14756KACK ACK20160305144511203/05/16 14:45:31  5-MIN KACK 051945Z 36016G22KT 10SM CLR 01/M09 A3014 -150 45 -1800 020/16G22 RMK AO2 T00111094
14756KACK ACK20160305145011303/05/16 14:50:31  5-MIN KACK 051950Z 34016KT 10SM CLR 01/M09 A3014 -150 45 -1800 360/16 RMK AO2 SLP206 T00111094
14756KACK ACK20160305145510603/05/16 14:55:31  5-MIN KACK 051955Z 35015KT 10SM CLR 01/M09 A3014 -150 47 -1800 010/15 RMK AO2 T00111089
14756KACK ACK20160305150011203/05/16 15:00:31  5-MIN KACK 052000Z 35015G21KT 10SM CLR 02/M09 A3014 -150 45 -1700 010/15G21 RMK AO2 T00171089
14756KACK ACK20160305150510603/05/16 15:05:31  5-MIN KACK 052005Z 36015KT 10SM CLR 01/M09 A3014 -150 47 -1800 010/15 RMK AO2 T00111089
14756KACK ACK20160305151010603/05/16 15:10:31  5-MIN KACK 052010Z 34014KT 10SM CLR 01/M09 A3015 -150 49 -1900 360/14 RMK AO2 T00061089
14756KACK ACK20160305151510603/05/16 15:15:31  5-MIN KACK 052015Z 35013KT 10SM CLR 01/M09 A3014 -150 49 -1900 360/13 RMK AO2 T00061089
14756KACK ACK20160305152010603/05/16 15:20:31  5-MIN KACK 052020Z 35011KT 10SM CLR 01/M09 A3014 -150 49 -1900 360/11 RMK AO2 T00061089
14756KACK ACK20160305152510603/05/16 15:25:31  5-MIN KACK 052025Z 34013KT 10SM CLR 01/M08 A3014 -150 49 -1800 360/13 RMK AO2 T00111083
14756KACK ACK20160305153011203/05/16 15:30:31  5-MIN KACK 052030Z 35013G18KT 10SM CLR 01/M09 A3014 -150 47 -1800 010/13G18 RMK AO2 T00111089
14756KACK ACK20160305153511203/05/16 15:35:31  5-MIN KACK 052035Z 36013G18KT 10SM CLR 01/M09 A3014 -150 45 -1800 020/13G18 RMK AO2 T00111094
14756KACK ACK20160305154010603/05/16 15:40:31  5-MIN KACK 052040Z 36011KT 10SM CLR 01/M09 A3014 -150 47 -1800 010/11 RMK AO2 T00111089
14756KACK ACK20160305154510603/05/16 15:45:31  5-MIN KACK 052045Z 36012KT 10SM CLR 01/M09 A3014 -150 47 -1800 010/12 RMK AO2 T00111089
14756KACK ACK20160305155011903/05/16 15:50:31  5-MIN KACK 052050Z 35014KT 10SM CLR 01/M09 A3014 -140 47 -1900 010/14 RMK AO2 SLP204 T00061094 53008
14756KACK ACK20160305155510603/05/16 15:55:31  5-MIN KACK 052055Z 35014KT 10SM CLR 01/M09 A3014 -150 47 -1900 360/14 RMK AO2 T00061094
14756KACK ACK20160305160010603/05/16 16:00:31  5-MIN KACK 052100Z 35010KT 10SM CLR 01/M09 A3014 -150 49 -1900 360/10 RMK AO2 T00061089
14756KACK ACK20160305160510603/05/16 16:05:31  5-MIN KACK 052105Z 35012KT 10SM CLR 01/M09 A3014 -150 49 -1900 010/12 RMK AO2 T00061089
14756KACK ACK20160305161010603/05/16 16:10:31  5-MIN KACK 052110Z 36012KT 10SM CLR 01/M09 A3014 -150 49 -1900 010/12 RMK AO2 T00061089
14756KACK ACK20160305161510603/05/16 16:15:31  5-MIN KACK 052115Z 35012KT 10SM CLR 01/M09 A3014 -150 47 -1900 010/12 RMK AO2 T00061094
14756KACK ACK20160305162010603/05/16 16:20:31  5-MIN KACK 052120Z 36010KT 10SM CLR 01/M09 A3014 -150 49 -1900 010/10 RMK AO2 T00061089
14756KACK ACK20160305162510603/05/16 16:25:31  5-MIN KACK 052125Z 34014KT 10SM CLR 01/M08 A3014 -150 49 -1800 360/14 RMK AO2 T00111083
14756KACK ACK20160305163010603/05/16 16:30:31  5-MIN KACK 052130Z 35012KT 10SM CLR 01/M09 A3015 -160 49 -1900 360/12 RMK AO2 T00061089
14756KACK ACK20160305163510603/05/16 16:35:31  5-MIN KACK 052135Z 36012KT 10SM CLR 01/M09 A3015 -160 47 -1900 020/12 RMK AO2 T00061094
14756KACK ACK20160305164010603/05/16 16:40:31  5-MIN KACK 052140Z 35012KT 10SM CLR 01/M09 A3015 -160 47 -1900 010/12 RMK AO2 T00061094
14756KACK ACK20160305164510603/05/16 16:45:31  5-MIN KACK 052145Z 35009KT 10SM CLR 00/M09 A3015 -160 49 -2000 010/09 RMK AO2 T00001094
14756KACK ACK20160305165011303/05/16 16:50:31  5-MIN KACK 052150Z 34011KT 10SM CLR 00/M09 A3016 -160 51 -2000 360/11 RMK AO2 SLP211 T00001089
14756KACK ACK20160305165510603/05/16 16:55:31  5-MIN KACK 052155Z 35012KT 10SM CLR 00/M09 A3016 -160 51 -2000 010/12 RMK AO2 T00001089
14756KACK ACK20160305170010603/05/16 17:00:31  5-MIN KACK 052200Z 34010KT 10SM CLR 00/M09 A3016 -160 51 -2000 360/10 RMK AO2 T00001089
14756KACK ACK20160305170510603/05/16 17:05:31  5-MIN KACK 052205Z 35010KT 10SM CLR 00/M09 A3016 -170 51 -2000 010/10 RMK AO2 T00001089
14756KACK ACK20160305171010603/05/16 17:10:31  5-MIN KACK 052210Z 35011KT 10SM CLR 00/M09 A3016 -170 51 -2000 010/11 RMK AO2 T00001089
14756KACK ACK20160305171510603/05/16 17:15:31  5-MIN KACK 052215Z 34006KT 10SM CLR 00/M09 A3016 -170 51 -2000 360/06 RMK AO2 T00001089
14756KACK ACK20160305172010603/05/16 17:20:31  5-MIN KACK 052220Z 36008KT 10SM CLR 00/M08 A3016 -170 53 -2000 010/08 RMK AO2 T00001083
14756KACK ACK20160305172510603/05/16 17:25:31  5-MIN KACK 052225Z 35009KT 10SM CLR 00/M08 A3017 -170 53 -2000 360/09 RMK AO2 T00001083
14756KACK ACK20160305173010603/05/16 17:30:31  5-MIN KACK 052230Z 34010KT 10SM CLR 00/M09 A3017 -180 51 -2000 360/10 RMK AO2 T00001089
14756KACK ACK20160305173510603/05/16 17:35:31  5-MIN KACK 052235Z 35010KT 10SM CLR 00/M08 A3017 -180 53 -2000 360/10 RMK AO2 T00001083
14756KACK ACK20160305174010603/05/16 17:40:31  5-MIN KACK 052240Z 35008KT 10SM CLR 00/M09 A3018 -180 51 -2000 360/08 RMK AO2 T00001089
14756KACK ACK20160305174510603/05/16 17:45:31  5-MIN KACK 052245Z 34009KT 10SM CLR 00/M08 A3018 -180 53 -2000 360/09 RMK AO2 T00001083
14756KACK ACK20160305175011303/05/16 17:50:31  5-MIN KACK 052250Z 35008KT 10SM CLR 00/M09 A3018 -180 51 -2000 360/08 RMK AO2 SLP219 T00001089
14756KACK ACK20160305175510603/05/16 17:55:31  5-MIN KACK 052255Z 34010KT 10SM CLR 00/M09 A3018 -180 49 -2000 360/10 RMK AO2 T00001094
14756KACK ACK20160305180010603/05/16 18:00:31  5-MIN KACK 052300Z 35009KT 10SM CLR 00/M09 A3018 -190 49 -2000 010/09 RMK AO2 T00001094
14756KACK ACK20160305180510603/05/16 18:05:31  5-MIN KACK 052305Z 36010KT 10SM CLR 00/M09 A3018 -190 49 -2000 020/10 RMK AO2 T00001094
14756KACK ACK20160305181010603/05/16 18:10:31  5-MIN KACK 052310Z 36010KT 10SM CLR 00/M09 A3018 -190 49 -2000 010/10 RMK AO2 T00001094
14756KACK ACK20160305181510603/05/16 18:15:31  5-MIN KACK 052315Z 35006KT 10SM CLR 00/M09 A3018 -190 49 -2000 360/06 RMK AO2 T00001094
14756KACK ACK20160305182010703/05/16 18:20:31  5-MIN KACK 052320Z 34006KT 10SM CLR M01/M09 A3019 -190 51 -2100 360/06 RMK AO2 T10061094
14756KACK ACK20160305182510703/05/16 18:25:31  5-MIN KACK 052325Z 35006KT 10SM CLR M01/M09 A3019 -190 51 -2100 360/06 RMK AO2 T10061094
14756KACK ACK20160305183010703/05/16 18:30:31  5-MIN KACK 052330Z 35007KT 10SM CLR M01/M09 A3019 -190 51 -2100 010/07 RMK AO2 T10061094
14756KACK ACK20160305183510703/05/16 18:35:31  5-MIN KACK 052335Z 36005KT 10SM CLR M01/M09 A3019 -200 51 -2100 010/05 RMK AO2 T10061094
14756KACK ACK20160305184011003/05/16 18:40:31  5-MIN KACK 052340Z 35005KT 10SM FEW120 M01/M09 A3019 -200 51 -2100 360/05 RMK AO2 T10061094
14756KACK ACK20160305184511003/05/16 18:45:31  5-MIN KACK 052345Z 35005KT 10SM FEW120 M01/M09 A3019 -200 51 -2100 010/05 RMK AO2 T10061094
14756KACK ACK20160305185013503/05/16 18:50:31  5-MIN KACK 052350Z 35005KT 10SM SCT120 M01/M09 A3020 -200 51 -2100 360/05 RMK AO2 SLP225 T10061094 10022 21006 50003
14756KACK ACK20160305185511003/05/16 18:55:31  5-MIN KACK 052355Z 36004KT 10SM FEW120 M01/M09 A3019 -200 51 -2100 010/04 RMK AO2 T10061094
14756KACK ACK20160305190011003/05/16 19:00:31  5-MIN KACK 060000Z 36005KT 10SM FEW120 M01/M09 A3020 -200 51 -2100 020/05 RMK AO2 T10061094
14756KACK ACK20160305190511003/05/16 19:05:31  5-MIN KACK 060005Z 35004KT 10SM FEW120 M01/M09 A3020 -200 51 -2100 360/04 RMK AO2 T10061094
14756KACK ACK20160305191011003/05/16 19:10:31  5-MIN KACK 060010Z 35005KT 10SM FEW120 M01/M09 A3020 -200 51 -2100 010/05 RMK AO2 T10061094
14756KACK ACK20160305191510703/05/16 19:15:31  5-MIN KACK 060015Z 35005KT 10SM CLR M01/M10 A3020 -210 49 -2100 360/05 RMK AO2 T10061100
14756KACK ACK20160305192010703/05/16 19:20:31  5-MIN KACK 060020Z 35003KT 10SM CLR M01/M09 A3020 -200 51 -2100 010/03 RMK AO2 T10061094
14756KACK ACK20160305192510703/05/16 19:25:31  5-MIN KACK 060025Z 36003KT 10SM CLR M01/M09 A3020 -200 51 -2100 020/03 RMK AO2 T10061094
14756KACK ACK20160305193010703/05/16 19:30:31  5-MIN KACK 060030Z 01003KT 10SM CLR M01/M09 A3020 -200 51 -2100 030/03 RMK AO2 T10061094
14756KACK ACK20160305193510703/05/16 19:35:31  5-MIN KACK 060035Z 06003KT 10SM CLR M01/M09 A3020 -200 51 -2100 080/03 RMK AO2 T10061094
14756KACK ACK20160305194010703/05/16 19:40:31  5-MIN KACK 060040Z 05003KT 10SM CLR M01/M09 A3020 -200 51 -2100 060/03 RMK AO2 T10061094
14756KACK ACK20160305194510703/05/16 19:45:31  5-MIN KACK 060045Z 04003KT 10SM CLR M01/M09 A3020 -200 55 -2100 060/03 RMK AO2 T10111089
14756KACK ACK20160305195011403/05/16 19:50:31  5-MIN KACK 060050Z 06003KT 10SM CLR M01/M09 A3020 -210 55 -2100 070/03 RMK AO2 SLP227 T10111089
14756KACK ACK20160305195510703/05/16 19:55:31  5-MIN KACK 060055Z 06003KT 10SM CLR M01/M09 A3020 -210 53 -2200 070/03 RMK AO2 T10111094
14756KACK ACK20160305200010703/05/16 20:00:31  5-MIN KACK 060100Z 00000KT 10SM CLR M01/M10 A3021 -210 51 -2200 000/00 RMK AO2 T10111100
14756KACK ACK20160305200510703/05/16 20:05:31  5-MIN KACK 060105Z 00000KT 10SM CLR M01/M10 A3020 -210 51 -2200 000/00 RMK AO2 T10111100
14756KACK ACK20160305201010703/05/16 20:10:31  5-MIN KACK 060110Z 00000KT 10SM CLR M02/M09 A3020 -210 55 -2200 000/00 RMK AO2 T10171094
14756KACK ACK20160305201510703/05/16 20:15:31  5-MIN KACK 060115Z 00000KT 10SM CLR M02/M09 A3021 -210 58 -2300 000/00 RMK AO2 T10221094
14756KACK ACK20160305202010703/05/16 20:20:31  5-MIN KACK 060120Z 00000KT 10SM CLR M02/M09 A3021 -210 55 -2200 000/00 RMK AO2 T10171094
14756KACK ACK20160305202510703/05/16 20:25:31  5-MIN KACK 060125Z 00000KT 10SM CLR M02/M09 A3021 -210 55 -2200 000/00 RMK AO2 T10171094
14756KACK ACK20160305203010703/05/16 20:30:31  5-MIN KACK 060130Z 00000KT 10SM CLR M02/M09 A3021 -210 55 -2200 000/00 RMK AO2 T10171094
14756KACK ACK20160305203510703/05/16 20:35:31  5-MIN KACK 060135Z 00000KT 10SM CLR M02/M09 A3020 -210 55 -2200 000/00 RMK AO2 T10171094
14756KACK ACK20160305204010703/05/16 20:40:31  5-MIN KACK 060140Z 08003KT 10SM CLR M01/M09 A3020 -210 55 -2200 090/03 RMK AO2 T10111089
14756KACK ACK20160305204510703/05/16 20:45:31  5-MIN KACK 060145Z 08003KT 10SM CLR M02/M09 A3020 -210 58 -2200 090/03 RMK AO2 T10171089
14756KACK ACK20160305205011403/05/16 20:50:31  5-MIN KACK 060150Z 08005KT 10SM CLR M02/M09 A3020 -200 58 -2200 100/05 RMK AO2 SLP226 T10171089
14756KACK ACK20160305205510703/05/16 20:55:31  5-MIN KACK 060155Z 07004KT 10SM CLR M02/M09 A3020 -200 55 -2200 090/04 RMK AO2 T10171094
14756KACK ACK20160305210011703/05/16 21:00:31  5-MIN KACK 060200Z AUTO 00000KT 10SM CLR M02/M09 A3020 -200 58 -2200 000/00 RMK AO2 T10171089 TSNO
14756KACK ACK20160305210511703/05/16 21:05:31  5-MIN KACK 060205Z AUTO 00000KT 10SM CLR M02/M08 A3020 -200 60 -2200 000/00 RMK AO2 T10171083 TSNO
14756KACK ACK20160305211011703/05/16 21:10:31  5-MIN KACK 060210Z AUTO 00000KT 10SM CLR M01/M09 A3020 -200 55 -2100 000/00 RMK AO2 T10111089 TSNO
14756KACK ACK20160305211511703/05/16 21:15:31  5-MIN KACK 060215Z AUTO 00000KT 10SM CLR M02/M09 A3020 -210 58 -2200 000/00 RMK AO2 T10171089 TSNO
14756KACK ACK20160305212011703/05/16 21:20:31  5-MIN KACK 060220Z AUTO 00000KT 10SM CLR M02/M09 A3020 -210 58 -2200 000/00 RMK AO2 T10171089 TSNO
14756KACK ACK20160305212511703/05/16 21:25:31  5-MIN KACK 060225Z AUTO 00000KT 10SM CLR M01/M09 A3020 -210 53 -2200 000/00 RMK AO2 T10111094 TSNO
14756KACK ACK20160305213011703/05/16 21:30:31  5-MIN KACK 060230Z AUTO 00000KT 10SM CLR M01/M09 A3020 -210 55 -2200 000/00 RMK AO2 T10111089 TSNO
14756KACK ACK20160305213511703/05/16 21:35:31  5-MIN KACK 060235Z AUTO 00000KT 10SM CLR M01/M09 A3020 -210 55 -2200 000/00 RMK AO2 T10111089 TSNO
14756KACK ACK20160305214011703/05/16 21:40:31  5-MIN KACK 060240Z AUTO 00000KT 10SM CLR M01/M09 A3020 -200 55 -2100 000/00 RMK AO2 T10111089 TSNO
14756KACK ACK20160305214511703/05/16 21:45:31  5-MIN KACK 060245Z AUTO 00000KT 10SM CLR M01/M09 A3020 -200 55 -2100 000/00 RMK AO2 T10111089 TSNO
14756KACK ACK20160305215013303/05/16 21:50:31  5-MIN KACK 060250Z AUTO 00000KT 10SM FEW100 M01/M09 A3020 -210 55 -2200 000/00 RMK AO2 SLP227 T10111089 51019 TSNO
14756KACK ACK20160305215512003/05/16 21:55:31  5-MIN KACK 060255Z AUTO 00000KT 10SM SCT100 M01/M09 A3020 -210 55 -2200 000/00 RMK AO2 T10111089 TSNO
14756KACK ACK20160305220012003/05/16 22:00:31  5-MIN KACK 060300Z AUTO 00000KT 10SM BKN100 M02/M08 A3020 -210 60 -2200 000/00 RMK AO2 T10171083 TSNO
14756KACK ACK20160305220512003/05/16 22:05:31  5-MIN KACK 060305Z AUTO 00000KT 10SM BKN100 M02/M08 A3021 -210 63 -2200 000/00 RMK AO2 T10171078 TSNO
14756KACK ACK20160305221012003/05/16 22:10:31  5-MIN KACK 060310Z AUTO 00000KT 10SM BKN100 M02/M08 A3021 -210 60 -2200 000/00 RMK AO2 T10171083 TSNO
14756KACK ACK20160305221512003/05/16 22:15:31  5-MIN KACK 060315Z AUTO 00000KT 10SM OVC100 M02/M08 A3021 -210 60 -2200 000/00 RMK AO2 T10171083 TSNO
14756KACK ACK20160305222012003/05/16 22:20:31  5-MIN KACK 060320Z AUTO 25003KT 10SM OVC100 M02/M08 A3021 -210 60 -2200 270/03 RMK AO2 T10171083 TSNO
14756KACK ACK20160305222512003/05/16 22:25:31  5-MIN KACK 060325Z AUTO 26004KT 10SM OVC100 M02/M08 A3021 -210 60 -2200 270/04 RMK AO2 T10171083 TSNO
14756KACK ACK20160305223012003/05/16 22:30:31  5-MIN KACK 060330Z AUTO 27004KT 10SM OVC100 M02/M08 A3021 -210 63 -2300 280/04 RMK AO2 T10221083 TSNO
14756KACK ACK20160305223512003/05/16 22:35:31  5-MIN KACK 060335Z AUTO 28004KT 10SM OVC100 M02/M09 A3021 -210 58 -2200 300/04 RMK AO2 T10171089 TSNO
14756KACK ACK20160305224012003/05/16 22:40:31  5-MIN KACK 060340Z AUTO 28003KT 10SM OVC100 M02/M08 A3021 -210 60 -2200 300/03 RMK AO2 T10171083 TSNO
14756KACK ACK20160305224512003/05/16 22:45:31  5-MIN KACK 060345Z AUTO 27004KT 10SM OVC100 M02/M08 A3021 -220 60 -2200 280/04 RMK AO2 T10171083 TSNO
14756KACK ACK20160305225012703/05/16 22:50:31  5-MIN KACK 060350Z AUTO 26004KT 10SM OVC110 M02/M08 A3022 -220 60 -2200 280/04 RMK AO2 SLP231 T10171083 TSNO
14756KACK ACK20160305225512003/05/16 22:55:31  5-MIN KACK 060355Z AUTO 26005KT 10SM OVC110 M02/M08 A3022 -220 60 -2200 280/05 RMK AO2 T10171083 TSNO
14756KACK ACK20160305230012003/05/16 23:00:31  5-MIN KACK 060400Z AUTO 26004KT 10SM OVC110 M02/M08 A3021 -220 60 -2200 280/04 RMK AO2 T10171083 TSNO
14756KACK ACK20160305230512003/05/16 23:05:31  5-MIN KACK 060405Z AUTO 26004KT 10SM OVC110 M01/M08 A3021 -220 58 -2200 280/04 RMK AO2 T10111083 TSNO
14756KACK ACK20160305231012003/05/16 23:10:31  5-MIN KACK 060410Z AUTO 26004KT 10SM OVC110 M01/M08 A3022 -220 58 -2200 270/04 RMK AO2 T10111083 TSNO
14756KACK ACK20160305231512003/05/16 23:15:31  5-MIN KACK 060415Z AUTO 26004KT 10SM OVC110 M01/M08 A3022 -220 58 -2200 270/04 RMK AO2 T10111083 TSNO
14756KACK ACK20160305232012003/05/16 23:20:31  5-MIN KACK 060420Z AUTO 26004KT 10SM OVC100 M01/M08 A3022 -220 58 -2200 280/04 RMK AO2 T10111083 TSNO
14756KACK ACK20160305232512003/05/16 23:25:31  5-MIN KACK 060425Z AUTO 26004KT 10SM OVC100 M01/M08 A3022 -220 58 -2200 280/04 RMK AO2 T10111083 TSNO
14756KACK ACK20160305233012003/05/16 23:30:31  5-MIN KACK 060430Z AUTO 27004KT 10SM OVC100 M01/M08 A3022 -220 58 -2200 280/04 RMK AO2 T10111083 TSNO
14756KACK ACK20160305233512003/05/16 23:35:31  5-MIN KACK 060435Z AUTO 28005KT 10SM OVC100 M01/M08 A3022 -220 58 -2200 290/05 RMK AO2 T10111083 TSNO
14756KACK ACK20160305234012003/05/16 23:40:31  5-MIN KACK 060440Z AUTO 28005KT 10SM OVC100 M01/M08 A3022 -220 60 -2200 300/05 RMK AO2 T10111078 TSNO
14756KACK ACK20160305234512003/05/16 23:45:31  5-MIN KACK 060445Z AUTO 29004KT 10SM OVC100 M01/M08 A3022 -220 58 -2100 300/04 RMK AO2 T10061078 TSNO
14756KACK ACK20160305235013703/05/16 23:50:31  5-MIN KACK 060450Z AUTO 29004KT 10SM OVC100 M01/M08 A3022 -220 58 -2100 300/04 RMK AO2 SLP233 T10061078 400331022 TSNO
14756KACK ACK20160305235512003/05/16 23:55:31  5-MIN KACK 060455Z AUTO 29004KT 10SM OVC100 M01/M08 A3022 -220 58 -2100 300/04 RMK AO2 T10061078 TSNO
14756KACK ACK20160306000012003/06/16 00:00:31  5-MIN KACK 060500Z AUTO 29004KT 10SM OVC100 M01/M08 A3022 -230 58 -2100 310/04 RMK AO2 T10061078 TSNO
14756KACK ACK20160306000512003/06/16 00:05:31  5-MIN KACK 060505Z AUTO 29004KT 10SM OVC100 M01/M08 A3022 -230 58 -2100 310/04 RMK AO2 T10061078 TSNO
14756KACK ACK20160306001012003/06/16 00:10:31  5-MIN KACK 060510Z AUTO 29004KT 10SM OVC100 M01/M08 A3022 -230 58 -2100 310/04 RMK AO2 T10061078 TSNO
14756KACK ACK20160306001512003/06/16 00:15:31  5-MIN KACK 060515Z AUTO 30004KT 10SM OVC100 M01/M08 A3022 -230 56 -2100 310/04 RMK AO2 T10061083 TSNO
14756KACK ACK20160306002012003/06/16 00:20:31  5-MIN KACK 060520Z AUTO 29004KT 10SM OVC100 M01/M08 A3023 -230 58 -2100 310/04 RMK AO2 T10061078 TSNO
14756KACK ACK20160306002512003/06/16 00:25:31  5-MIN KACK 060525Z AUTO 29004KT 10SM OVC100 M01/M08 A3023 -230 58 -2100 300/04 RMK AO2 T10061078 TSNO
14756KACK ACK20160306003012003/06/16 00:30:31  5-MIN KACK 060530Z AUTO 28004KT 10SM OVC100 M01/M08 A3023 -230 58 -2100 300/04 RMK AO2 T10061078 TSNO
14756KACK ACK20160306003512003/06/16 00:35:31  5-MIN KACK 060535Z AUTO 27005KT 10SM OVC100 M01/M08 A3023 -230 58 -2100 290/05 RMK AO2 T10061078 TSNO
14756KACK ACK20160306004012003/06/16 00:40:31  5-MIN KACK 060540Z AUTO 28004KT 10SM OVC100 M01/M08 A3024 -240 58 -2100 290/04 RMK AO2 T10061078 TSNO
14756KACK ACK20160306004512003/06/16 00:45:31  5-MIN KACK 060545Z AUTO 29004KT 10SM OVC100 M01/M08 A3024 -240 58 -2100 300/04 RMK AO2 T10061078 TSNO
14756KACK ACK20160306005014403/06/16 00:50:31  5-MIN KACK 060550Z AUTO 29003KT 10SM OVC100 00/M08 A3024 -240 53 -2100 310/03 RMK AO2 SLP240 T00001083 10000 21022 51003 TSNO
14756KACK ACK20160306005511903/06/16 00:55:31  5-MIN KACK 060555Z AUTO 29003KT 10SM OVC100 00/M08 A3024 -240 53 -2100 310/03 RMK AO2 T00001083 TSNO
14756KACK ACK20160306010011903/06/16 01:00:31  5-MIN KACK 060600Z AUTO 30003KT 10SM OVC100 00/M08 A3024 -240 53 -2100 320/03 RMK AO2 T00001083 TSNO
14756KACK ACK20160306010511903/06/16 01:05:31  5-MIN KACK 060605Z AUTO 30003KT 10SM OVC100 00/M08 A3024 -240 53 -2100 310/03 RMK AO2 T00001083 TSNO
14756KACK ACK20160306011011903/06/16 01:10:31  5-MIN KACK 060610Z AUTO 00000KT 10SM OVC100 00/M08 A3024 -240 53 -2100 000/00 RMK AO2 T00001083 TSNO
14756KACK ACK20160306011511903/06/16 01:15:31  5-MIN KACK 060615Z AUTO 00000KT 10SM OVC100 01/M09 A3024 -240 49 -2000 000/00 RMK AO2 T00061089 TSNO
14756KACK ACK20160306012011903/06/16 01:20:31  5-MIN KACK 060620Z AUTO 31003KT 10SM OVC100 01/M09 A3024 -240 49 -2000 320/03 RMK AO2 T00061089 TSNO
14756KACK ACK20160306012511903/06/16 01:25:31  5-MIN KACK 060625Z AUTO 32003KT 10SM OVC100 00/M08 A3024 -240 53 -2100 330/03 RMK AO2 T00001083 TSNO
14756KACK ACK20160306013011903/06/16 01:30:31  5-MIN KACK 060630Z AUTO 00000KT 10SM OVC100 00/M08 A3024 -240 56 -2100 000/00 RMK AO2 T00001078 TSNO
14756KACK ACK20160306013511903/06/16 01:35:31  5-MIN KACK 060635Z AUTO 00000KT 10SM OVC100 01/M08 A3024 -240 51 -2000 000/00 RMK AO2 T00061083 TSNO
14756KACK ACK20160306014011903/06/16 01:40:31  5-MIN KACK 060640Z AUTO 00000KT 10SM OVC100 00/M08 A3024 -240 56 -2100 000/00 RMK AO2 T00001078 TSNO
14756KACK ACK20160306014512003/06/16 01:45:31  5-MIN KACK 060645Z AUTO 00000KT 10SM OVC100 M01/M07 A3024 -240 63 -2100 000/00 RMK AO2 T10061067 TSNO
14756KACK ACK20160306015012603/06/16 01:50:31  5-MIN KACK 060650Z AUTO 00000KT 10SM OVC095 00/M07 A3024 -240 61 -2100 000/00 RMK AO2 SLP240 T00001067 TSNO
14756KACK ACK20160306015511903/06/16 01:55:31  5-MIN KACK 060655Z AUTO 00000KT 10SM OVC095 01/M08 A3024 -240 54 -2000 000/00 RMK AO2 T00061078 TSNO
14756KACK ACK20160306020012603/06/16 02:00:31  5-MIN KACK 060700Z AUTO 00000KT 10SM BKN095 OVC110 01/M08 A3024 -240 51 -2000 000/00 RMK AO2 T00061083 TSNO
14756KACK ACK20160306020512703/06/16 02:05:31  5-MIN KACK 060705Z AUTO 00000KT 10SM BKN090 OVC110 M01/M07 A3024 -240 63 -2100 000/00 RMK AO2 T10061067 TSNO
14756KACK ACK20160306021012703/06/16 02:10:31  5-MIN KACK 060710Z AUTO 00000KT 10SM SCT090 OVC110 M01/M07 A3023 -230 66 -2200 000/00 RMK AO2 T10111067 TSNO
14756KACK ACK20160306021512703/06/16 02:15:31  5-MIN KACK 060715Z AUTO 00000KT 10SM SCT090 OVC110 M01/M07 A3023 -230 61 -2100 000/00 RMK AO2 T10061072 TSNO
14756KACK ACK20160306022012603/06/16 02:20:31  5-MIN KACK 060720Z AUTO 00000KT 10SM SCT090 OVC110 00/M07 A3023 -230 58 -2000 000/00 RMK AO2 T00001072 TSNO
14756KACK ACK20160306022512603/06/16 02:25:31  5-MIN KACK 060725Z AUTO 00000KT 10SM FEW090 OVC110 00/M08 A3023 -230 56 -2000 000/00 RMK AO2 T00001078 TSNO
14756KACK ACK20160306023012703/06/16 02:30:31  5-MIN KACK 060730Z AUTO 00000KT 10SM FEW090 OVC110 M01/M07 A3023 -230 61 -2100 000/00 RMK AO2 T10061072 TSNO
14756KACK ACK20160306023512703/06/16 02:35:31  5-MIN KACK 060735Z AUTO 00000KT 10SM FEW090 OVC110 M01/M06 A3023 -230 66 -2100 000/00 RMK AO2 T10061061 TSNO
14756KACK ACK20160306024012703/06/16 02:40:31  5-MIN KACK 060740Z AUTO 00000KT 10SM FEW090 OVC110 M01/M06 A3023 -230 66 -2100 000/00 RMK AO2 T10061061 TSNO
14756KACK ACK20160306024512003/06/16 02:45:31  5-MIN KACK 060745Z AUTO 00000KT 10SM OVC110 M01/M07 A3023 -230 63 -2100 000/00 RMK AO2 T10061067 TSNO
14756KACK ACK20160306025012703/06/16 02:50:31  5-MIN KACK 060750Z AUTO 00000KT 10SM OVC110 M01/M07 A3022 -230 63 -2100 000/00 RMK AO2 SLP234 T10061067 TSNO
14756KACK ACK20160306025512003/06/16 02:55:31  5-MIN KACK 060755Z AUTO 00000KT 10SM OVC110 M01/M07 A3023 -230 66 -2200 000/00 RMK AO2 T10111067 TSNO
14756KACK ACK20160306030012003/06/16 03:00:31  5-MIN KACK 060800Z AUTO 00000KT 10SM OVC110 M01/M07 A3023 -230 66 -2200 000/00 RMK AO2 T10111067 TSNO
14756KACK ACK20160306030512003/06/16 03:05:31  5-MIN KACK 060805Z AUTO 00000KT 10SM OVC110 M02/M07 A3023 -230 69 -2200 000/00 RMK AO2 T10171067 TSNO
14756KACK ACK20160306031012003/06/16 03:10:31  5-MIN KACK 060810Z AUTO 00000KT 10SM OVC110 M02/M06 A3023 -230 72 -2300 000/00 RMK AO2 T10171061 TSNO
14756KACK ACK20160306031512003/06/16 03:15:31  5-MIN KACK 060815Z AUTO 00000KT 10SM OVC110 M02/M06 A3023 -230 72 -2300 000/00 RMK AO2 T10171061 TSNO
14756KACK ACK20160306032012003/06/16 03:20:31  5-MIN KACK 060820Z AUTO 00000KT 10SM OVC110 M02/M06 A3023 -230 72 -2300 000/00 RMK AO2 T10171061 TSNO
14756KACK ACK20160306032512003/06/16 03:25:31  5-MIN KACK 060825Z AUTO 00000KT 10SM OVC110 M01/M06 A3023 -230 69 -2200 000/00 RMK AO2 T10111061 TSNO
14756KACK ACK20160306033012003/06/16 03:30:31  5-MIN KACK 060830Z AUTO 00000KT 10SM OVC110 M02/M06 A3023 -230 72 -2300 000/00 RMK AO2 T10171061 TSNO
14756KACK ACK20160306033512003/06/16 03:35:31  5-MIN KACK 060835Z AUTO 00000KT 10SM OVC110 M01/M06 A3023 -230 69 -2200 000/00 RMK AO2 T10111061 TSNO
14756KACK ACK20160306034012003/06/16 03:40:31  5-MIN KACK 060840Z AUTO 00000KT 10SM OVC110 M02/M07 A3023 -230 72 -2300 000/00 RMK AO2 T10221067 TSNO
14756KACK ACK20160306034512003/06/16 03:45:31  5-MIN KACK 060845Z AUTO 00000KT 10SM OVC110 M02/M07 A3023 -230 72 -2300 000/00 RMK AO2 T10221067 TSNO
14756KACK ACK20160306035013303/06/16 03:50:31  5-MIN KACK 060850Z AUTO 00000KT 10SM OVC110 M03/M07 A3023 -230 75 -2400 000/00 RMK AO2 SLP237 T10281067 53013 TSNO
14756KACK ACK20160306035512003/06/16 03:55:31  5-MIN KACK 060855Z AUTO 00000KT 10SM OVC120 M02/M07 A3023 -240 72 -2300 000/00 RMK AO2 T10221067 TSNO
14756KACK ACK20160306040012003/06/16 04:00:31  5-MIN KACK 060900Z AUTO 00000KT 10SM OVC120 M02/M06 A3023 -230 75 -2300 000/00 RMK AO2 T10221061 TSNO
14756KACK ACK20160306040512003/06/16 04:05:31  5-MIN KACK 060905Z AUTO 00000KT 10SM OVC120 M02/M06 A3024 -240 72 -2300 000/00 RMK AO2 T10171061 TSNO
14756KACK ACK20160306041012003/06/16 04:10:31  5-MIN KACK 060910Z AUTO 00000KT 10SM OVC120 M02/M07 A3024 -240 72 -2300 000/00 RMK AO2 T10221067 TSNO
14756KACK ACK20160306041512003/06/16 04:15:31  5-MIN KACK 060915Z AUTO 00000KT 10SM OVC120 M02/M06 A3024 -240 75 -2300 000/00 RMK AO2 T10221061 TSNO
14756KACK ACK20160306042012003/06/16 04:20:31  5-MIN KACK 060920Z AUTO 00000KT 10SM OVC120 M03/M07 A3024 -240 75 -2400 000/00 RMK AO2 T10281067 TSNO
14756KACK ACK20160306042512003/06/16 04:25:31  5-MIN KACK 060925Z AUTO 00000KT 10SM BKN120 M02/M07 A3024 -240 72 -2300 000/00 RMK AO2 T10221067 TSNO
14756KACK ACK20160306043012003/06/16 04:30:31  5-MIN KACK 060930Z AUTO 00000KT 10SM BKN120 M03/M07 A3024 -240 71 -2400 000/00 RMK AO2 T10281072 TSNO
14756KACK ACK20160306043512003/06/16 04:35:31  5-MIN KACK 060935Z AUTO 00000KT 10SM BKN120 M03/M07 A3024 -240 71 -2400 000/00 RMK AO2 T10281072 TSNO
14756KACK ACK20160306044012003/06/16 04:40:31  5-MIN KACK 060940Z AUTO 00000KT 10SM SCT120 M03/M07 A3024 -240 71 -2400 000/00 RMK AO2 T10281072 TSNO
14756KACK ACK20160306044512003/06/16 04:45:31  5-MIN KACK 060945Z AUTO 00000KT 10SM FEW120 M03/M07 A3024 -240 74 -2500 000/00 RMK AO2 T10331072 TSNO
14756KACK ACK20160306045012703/06/16 04:50:31  5-MIN KACK 060950Z AUTO 00000KT 10SM FEW120 M03/M07 A3024 -240 74 -2500 000/00 RMK AO2 SLP238 T10331072 TSNO
14756KACK ACK20160306045512003/06/16 04:55:31  5-MIN KACK 060955Z AUTO 00000KT 10SM FEW120 M03/M07 A3024 -240 74 -2500 000/00 RMK AO2 T10331072 TSNO
14756KACK ACK20160306050012003/06/16 05:00:31  5-MIN KACK 061000Z AUTO 00000KT 10SM FEW120 M03/M07 A3024 -240 74 -2500 000/00 RMK AO2 T10331072 TSNO
14756KACK ACK20160306050512003/06/16 05:05:31  5-MIN KACK 061005Z AUTO 00000KT 10SM SCT120 M03/M07 A3024 -240 74 -2500 000/00 RMK AO2 T10331072 TSNO
14756KACK ACK20160306051012003/06/16 05:10:31  5-MIN KACK 061010Z AUTO 00000KT 10SM BKN120 M03/M07 A3024 -240 78 -2500 000/00 RMK AO2 T10331067 TSNO
14756KACK ACK20160306051512003/06/16 05:15:31  5-MIN KACK 061015Z AUTO 00000KT 10SM BKN120 M05/M08 A3024 -240 77 -2700 000/00 RMK AO2 T10501083 TSNO
14756KACK ACK20160306052012003/06/16 05:20:31  5-MIN KACK 061020Z AUTO 00000KT 10SM BKN120 M04/M08 A3024 -240 74 -2600 000/00 RMK AO2 T10441083 TSNO
14756KACK ACK20160306052512003/06/16 05:25:31  5-MIN KACK 061025Z AUTO 00000KT 10SM SCT120 M04/M08 A3024 -240 78 -2600 000/00 RMK AO2 T10441078 TSNO
14756KACK ACK20160306053012003/06/16 05:30:31  5-MIN KACK 061030Z AUTO 00000KT 10SM SCT120 M04/M07 A3024 -240 81 -2600 000/00 RMK AO2 T10441072 TSNO
14756KACK ACK20160306053512003/06/16 05:35:31  5-MIN KACK 061035Z AUTO 00000KT 10SM FEW120 M04/M07 A3024 -240 78 -2600 000/00 RMK AO2 T10391072 TSNO
14756KACK ACK20160306054012003/06/16 05:40:31  5-MIN KACK 061040Z AUTO 00000KT 10SM FEW120 M04/M07 A3024 -240 78 -2600 000/00 RMK AO2 T10391072 TSNO
14756KACK ACK20160306054511703/06/16 05:45:31  5-MIN KACK 061045Z AUTO 00000KT 10SM CLR M03/M07 A3025 -250 74 -2500 000/00 RMK AO2 T10331072 TSNO
14756KACK ACK20160306055012403/06/16 05:50:31  5-MIN KACK 061050Z AUTO 00000KT 10SM CLR M03/M07 A3025 -250 78 -2500 000/00 RMK AO2 SLP242 T10331067 TSNO
14756KACK ACK20160306055511703/06/16 05:55:31  5-MIN KACK 061055Z AUTO 00000KT 10SM CLR M03/M06 A3025 -250 78 -2400 000/00 RMK AO2 T10281061 TSNO
14756KACK ACK20160306060010703/06/16 06:00:31  5-MIN KACK 061100Z 00000KT 10SM CLR M03/M07 A3025 -250 78 -2500 000/00 RMK AO2 T10331067
14756KACK ACK20160306060510703/06/16 06:05:31  5-MIN KACK 061105Z 00000KT 10SM CLR M03/M07 A3025 -250 78 -2500 000/00 RMK AO2 T10331067
14756KACK ACK20160306061010703/06/16 06:10:31  5-MIN KACK 061110Z 00000KT 10SM CLR M04/M07 A3025 -250 78 -2600 000/00 RMK AO2 T10391072
14756KACK ACK20160306061510703/06/16 06:15:31  5-MIN KACK 061115Z 00000KT 10SM CLR M03/M07 A3025 -250 74 -2500 000/00 RMK AO2 T10331072
14756KACK ACK20160306062010703/06/16 06:20:31  5-MIN KACK 061120Z 00000KT 10SM CLR M04/M07 A3025 -250 81 -2600 000/00 RMK AO2 T10441072
14756KACK ACK20160306062510703/06/16 06:25:31  5-MIN KACK 061125Z 00000KT 10SM CLR M03/M07 A3025 -250 74 -2500 000/00 RMK AO2 T10331072
14756KACK ACK20160306063010703/06/16 06:30:31  5-MIN KACK 061130Z 00000KT 10SM CLR M04/M08 A3025 -250 74 -2600 000/00 RMK AO2 T10391078
14756KACK ACK20160306063510703/06/16 06:35:31  5-MIN KACK 061135Z 00000KT 10SM CLR M03/M07 A3025 -250 71 -2400 000/00 RMK AO2 T10281072
14756KACK ACK20160306064010703/06/16 06:40:31  5-MIN KACK 061140Z 00000KT 10SM CLR M03/M07 A3025 -250 71 -2400 000/00 RMK AO2 T10281072
14756KACK ACK20160306064511003/06/16 06:45:31  5-MIN KACK 061145Z 00000KT 10SM FEW110 M03/M07 A3025 -250 71 -2400 000/00 RMK AO2 T10281072
14756KACK ACK20160306065013503/06/16 06:50:31  5-MIN KACK 061150Z 00000KT 10SM FEW110 M02/M07 A3025 -250 72 -2300 000/00 RMK AO2 SLP242 T10221067 10006 21050 55002
14756KACK ACK20160306065511003/06/16 06:55:31  5-MIN KACK 061155Z 00000KT 10SM SCT110 M02/M07 A3025 -250 72 -2300 000/00 RMK AO2 T10221067
14756KACK ACK20160306070011003/06/16 07:00:31  5-MIN KACK 061200Z 00000KT 10SM SCT110 M02/M06 A3025 -250 72 -2300 000/00 RMK AO2 T10171061
14756KACK ACK20160306070511003/06/16 07:05:31  5-MIN KACK 061205Z 00000KT 10SM SCT110 M02/M06 A3025 -250 75 -2300 000/00 RMK AO2 T10171056
14756KACK ACK20160306071011003/06/16 07:10:31  5-MIN KACK 061210Z 00000KT 10SM BKN110 M01/M06 A3025 -250 72 -2200 000/00 RMK AO2 T10111056
14756KACK ACK20160306071511003/06/16 07:15:31  5-MIN KACK 061215Z 00000KT 10SM BKN110 M01/M04 A3025 -250 78 -2200 000/00 RMK AO2 T10111044
14756KACK ACK20160306072010903/06/16 07:20:31  5-MIN KACK 061220Z 33003KT 10SM BKN110 01/M03 A3025 -250 72 -1900 350/03 RMK AO2 T00111033
14756KACK ACK20160306072510903/06/16 07:25:31  5-MIN KACK 061225Z 33003KT 10SM BKN110 02/M04 A3025 -250 64 -1800 340/03 RMK AO2 T00221039
14756KACK ACK20160306073010903/06/16 07:30:31  5-MIN KACK 061230Z 31003KT 10SM OVC110 02/M05 A3026 -260 59 -1800 330/03 RMK AO2 T00221050
14756KACK ACK20160306073510903/06/16 07:35:31  5-MIN KACK 061235Z 00000KT 10SM OVC110 02/M05 A3026 -260 59 -1800 000/00 RMK AO2 T00221050
14756KACK ACK20160306074010903/06/16 07:40:31  5-MIN KACK 061240Z 00000KT 10SM OVC110 02/M05 A3026 -260 59 -1800 000/00 RMK AO2 T00221050
14756KACK ACK20160306074510903/06/16 07:45:31  5-MIN KACK 061245Z 00000KT 10SM OVC110 02/M06 A3026 -260 56 -1800 000/00 RMK AO2 T00221056
14756KACK ACK20160306075011603/06/16 07:50:31  5-MIN KACK 061250Z 00000KT 10SM OVC110 02/M06 A3026 -260 56 -1800 000/00 RMK AO2 SLP248 T00221056
14756KACK ACK20160306075510903/06/16 07:55:31  5-MIN KACK 061255Z 00000KT 10SM BKN110 02/M06 A3027 -260 54 -1800 000/00 RMK AO2 T00221061
14756KACK ACK20160306080010903/06/16 08:00:31  5-MIN KACK 061300Z 00000KT 10SM BKN110 02/M06 A3027 -260 54 -1800 000/00 RMK AO2 T00221061
14756KACK ACK20160306080510903/06/16 08:05:31  5-MIN KACK 061305Z 00000KT 10SM SCT110 02/M07 A3027 -270 52 -1800 000/00 RMK AO2 T00221067
14756KACK ACK20160306081010903/06/16 08:10:31  5-MIN KACK 061310Z 00000KT 10SM SCT110 02/M06 A3027 -270 54 -1800 000/00 RMK AO2 T00221061
14756KACK ACK20160306081510903/06/16 08:15:31  5-MIN KACK 061315Z 00000KT 10SM FEW110 02/M07 A3027 -270 52 -1800 000/00 RMK AO2 T00221067
14756KACK ACK20160306082010903/06/16 08:20:31  5-MIN KACK 061320Z 00000KT 10SM FEW110 02/M07 A3027 -270 52 -1800 000/00 RMK AO2 T00221067
14756KACK ACK20160306082510603/06/16 08:25:31  5-MIN KACK 061325Z 00000KT 10SM CLR 03/M07 A3028 -270 50 -1700 000/00 RMK AO2 T00281067
14756KACK ACK20160306083010603/06/16 08:30:31  5-MIN KACK 061330Z 00000KT 10SM CLR 02/M07 A3028 -280 52 -1800 000/00 RMK AO2 T00221067
14756KACK ACK20160306083510603/06/16 08:35:31  5-MIN KACK 061335Z 00000KT 10SM CLR 02/M07 A3028 -280 52 -1800 000/00 RMK AO2 T00221067
14756KACK ACK20160306084010903/06/16 08:40:31  5-MIN KACK 061340Z 00000KT 10SM FEW048 03/M07 A3028 -280 48 -1800 000/00 RMK AO2 T00281072
14756KACK ACK20160306084510903/06/16 08:45:31  5-MIN KACK 061345Z 00000KT 10SM SCT048 03/M08 A3028 -280 46 -1800 000/00 RMK AO2 T00281078
14756KACK ACK20160306085011603/06/16 08:50:31  5-MIN KACK 061350Z 21003KT 10SM BKN046 03/M07 A3028 -280 50 -1800 230/03 RMK AO2 SLP255 T00281067
14756KACK ACK20160306085511603/06/16 08:55:31  5-MIN KACK 061355Z 20004KT 10SM BKN046 BKN100 03/M07 A3028 -280 50 -1800 210/04 RMK AO2 T00281067
14756KACK ACK20160306090011603/06/16 09:00:31  5-MIN KACK 061400Z 21003KT 10SM SCT046 BKN110 03/M07 A3028 -280 48 -1800 230/03 RMK AO2 T00281072
14756KACK ACK20160306090511603/06/16 09:05:31  5-MIN KACK 061405Z VRB03KT 10SM SCT046 BKN110 03/M07 A3028 -280 48 -1700 VRB/03 RMK AO2 T00331067
14756KACK ACK20160306091011603/06/16 09:10:31  5-MIN KACK 061410Z VRB03KT 10SM SCT046 SCT110 03/M07 A3028 -280 46 -1700 VRB/03 RMK AO2 T00331072
14756KACK ACK20160306091511603/06/16 09:15:31  5-MIN KACK 061415Z 17005KT 10SM FEW046 FEW110 03/M07 A3028 -280 46 -1700 190/05 RMK AO2 T00331072
14756KACK ACK20160306092011603/06/16 09:20:31  5-MIN KACK 061420Z 17005KT 10SM FEW046 FEW110 03/M08 A3028 -280 42 -1700 180/05 RMK AO2 T00331083
14756KACK ACK20160306092510603/06/16 09:25:31  5-MIN KACK 061425Z 17005KT 10SM CLR 03/M08 A3028 -280 44 -1700 190/05 RMK AO2 T00331078
14756KACK ACK20160306093010603/06/16 09:30:31  5-MIN KACK 061430Z 18004KT 10SM CLR 03/M08 A3028 -280 42 -1700 190/04 RMK AO2 T00331083
14756KACK ACK20160306093510603/06/16 09:35:31  5-MIN KACK 061435Z 16006KT 10SM CLR 03/M08 A3028 -280 44 -1700 180/06 RMK AO2 T00331078
14756KACK ACK20160306094010603/06/16 09:40:31  5-MIN KACK 061440Z 17006KT 10SM CLR 03/M08 A3028 -270 42 -1700 180/06 RMK AO2 T00331083
14756KACK ACK20160306094510603/06/16 09:45:31  5-MIN KACK 061445Z 16006KT 10SM CLR 03/M08 A3028 -280 44 -1700 170/06 RMK AO2 T00331078
14756KACK ACK20160306095011903/06/16 09:50:31  5-MIN KACK 061450Z 17005KT 10SM CLR 03/M09 A3028 -280 40 -1700 180/05 RMK AO2 SLP253 T00331089 51005
14756KACK ACK20160306095510603/06/16 09:55:31  5-MIN KACK 061455Z 19005KT 10SM CLR 03/M08 A3028 -270 42 -1700 200/05 RMK AO2 T00331083
14756KACK ACK20160306100010903/06/16 10:00:31  5-MIN KACK 061500Z 18007KT 10SM FEW110 03/M08 A3028 -280 44 -1700 200/07 RMK AO2 T00331078
14756KACK ACK20160306100510903/06/16 10:05:31  5-MIN KACK 061505Z 18006KT 10SM FEW110 03/M08 A3028 -280 44 -1700 200/06 RMK AO2 T00331078
14756KACK ACK20160306101010903/06/16 10:10:31  5-MIN KACK 061510Z 17006KT 10SM FEW110 04/M08 A3028 -280 42 -1600 190/06 RMK AO2 T00391078
14756KACK ACK20160306101510903/06/16 10:15:31  5-MIN KACK 061515Z 18007KT 10SM FEW110 04/M08 A3028 -280 40 -1600 200/07 RMK AO2 T00391083
14756KACK ACK20160306102011603/06/16 10:20:31  5-MIN KACK 061520Z 18007KT 10SM FEW065 FEW110 03/M09 A3028 -280 40 -1700 190/07 RMK AO2 T00331089
14756KACK ACK20160306102511603/06/16 10:25:31  5-MIN KACK 061525Z 19007KT 10SM SCT065 SCT110 04/M09 A3028 -270 39 -1600 210/07 RMK AO2 T00391089
14756KACK ACK20160306103010903/06/16 10:30:31  5-MIN KACK 061530Z VRB06KT 10SM BKN065 04/M08 A3028 -270 42 -1600 VRB/06 RMK AO2 T00391078
14756KACK ACK20160306103510903/06/16 10:35:31  5-MIN KACK 061535Z 18006KT 10SM BKN060 04/M08 A3028 -270 42 -1600 190/06 RMK AO2 T00391078
14756KACK ACK20160306104010903/06/16 10:40:31  5-MIN KACK 061540Z 19007KT 10SM BKN060 04/M08 A3028 -270 40 -1600 200/07 RMK AO2 T00391083
14756KACK ACK20160306104510903/06/16 10:45:31  5-MIN KACK 061545Z 20006KT 10SM OVC060 04/M08 A3028 -280 40 -1600 210/06 RMK AO2 T00391083
14756KACK ACK20160306105011603/06/16 10:50:31  5-MIN KACK 061550Z 20006KT 10SM OVC060 04/M08 A3028 -280 40 -1600 220/06 RMK AO2 SLP253 T00391083
14756KACK ACK20160306105510903/06/16 10:55:31  5-MIN KACK 061555Z 19007KT 10SM OVC060 04/M08 A3028 -280 40 -1600 210/07 RMK AO2 T00391083
14756KACK ACK20160306110010903/06/16 11:00:31  5-MIN KACK 061600Z 21006KT 10SM OVC055 04/M08 A3028 -280 40 -1600 220/06 RMK AO2 T00391083
14756KACK ACK20160306110510903/06/16 11:05:31  5-MIN KACK 061605Z 22006KT 10SM OVC055 04/M08 A3028 -280 40 -1600 240/06 RMK AO2 T00391083
14756KACK ACK20160306111010903/06/16 11:10:31  5-MIN KACK 061610Z 22007KT 10SM OVC060 04/M08 A3028 -270 40 -1600 230/07 RMK AO2 T00391083
14756KACK ACK20160306111510903/06/16 11:15:31  5-MIN KACK 061615Z 21007KT 10SM OVC055 04/M08 A3028 -270 42 -1600 230/07 RMK AO2 T00391078
14756KACK ACK20160306112010903/06/16 11:20:31  5-MIN KACK 061620Z 23006KT 10SM OVC055 04/M08 A3028 -270 42 -1600 250/06 RMK AO2 T00391078
14756KACK ACK20160306112510903/06/16 11:25:31  5-MIN KACK 061625Z VRB06KT 10SM OVC055 04/M07 A3027 -270 44 -1600 VRB/06 RMK AO2 T00391072
14756KACK ACK20160306113010903/06/16 11:30:31  5-MIN KACK 061630Z 21007KT 10SM BKN055 04/M08 A3027 -270 42 -1600 220/07 RMK AO2 T00391078
14756KACK ACK20160306113510903/06/16 11:35:31  5-MIN KACK 061635Z 20007KT 10SM BKN055 04/M08 A3027 -270 42 -1600 220/07 RMK AO2 T00391078
14756KACK ACK20160306114011603/06/16 11:40:31  5-MIN KACK 061640Z 20007KT 10SM BKN055 BKN065 04/M08 A3027 -270 42 -1600 220/07 RMK AO2 T00391078
14756KACK ACK20160306114511603/06/16 11:45:31  5-MIN KACK 061645Z 21007KT 10SM BKN055 BKN065 04/M08 A3027 -270 41 -1500 220/07 RMK AO2 T00441078
14756KACK ACK20160306115012303/06/16 11:50:31  5-MIN KACK 061650Z 22006KT 10SM BKN055 BKN065 04/M08 A3027 -270 42 -1600 240/06 RMK AO2 SLP250 T00391078
14756KACK ACK20160306115511603/06/16 11:55:31  5-MIN KACK 061655Z 22007KT 10SM BKN050 BKN065 04/M08 A3027 -270 42 -1600 230/07 RMK AO2 T00391078
14756KACK ACK20160306120011603/06/16 12:00:31  5-MIN KACK 061700Z 22008KT 10SM BKN050 OVC060 04/M07 A3027 -270 42 -1500 230/08 RMK AO2 T00441072
14756KACK ACK20160306120511603/06/16 12:05:31  5-MIN KACK 061705Z 22008KT 10SM BKN048 OVC065 04/M08 A3027 -260 42 -1600 240/08 RMK AO2 T00391078
14756KACK ACK20160306121011603/06/16 12:10:31  5-MIN KACK 061710Z 20008KT 10SM SCT050 OVC065 04/M07 A3026 -260 42 -1500 210/08 RMK AO2 T00441072
14756KACK ACK20160306121511603/06/16 12:15:31  5-MIN KACK 061715Z 19007KT 10SM BKN048 OVC065 04/M07 A3027 -260 42 -1500 210/07 RMK AO2 T00441072
14756KACK ACK20160306122011603/06/16 12:20:31  5-MIN KACK 061720Z 21008KT 10SM BKN050 OVC065 05/M07 A3027 -260 41 -1500 220/08 RMK AO2 T00501072
14756KACK ACK20160306122511603/06/16 12:25:31  5-MIN KACK 061725Z 24007KT 10SM BKN047 OVC060 04/M07 A3027 -260 42 -1500 250/07 RMK AO2 T00441072
14756KACK ACK20160306123011603/06/16 12:30:31  5-MIN KACK 061730Z 23005KT 10SM BKN047 OVC065 04/M08 A3027 -270 42 -1600 250/05 RMK AO2 T00391078
14756KACK ACK20160306123512303/06/16 12:35:31  5-MIN KACK 061735Z 25006KT 10SM FEW033 BKN045 OVC060 04/M08 A3027 -260 42 -1600 260/06 RMK AO2 T00391078
14756KACK ACK20160306124011603/06/16 12:40:31  5-MIN KACK 061740Z 35003KT 10SM SCT033 OVC045 04/M06 A3027 -260 50 -1600 360/03 RMK AO2 T00391056
14756KACK ACK20160306124511603/06/16 12:45:31  5-MIN KACK 061745Z 33006KT 10SM BKN035 OVC047 04/M05 A3026 -260 52 -1600 350/06 RMK AO2 T00391050
14756KACK ACK20160306125014103/06/16 12:50:31  5-MIN KACK 061750Z 36007KT 10SM SCT035 OVC055 04/M05 A3026 -260 52 -1600 010/07 RMK AO2 SLP247 T00391050 10050 21022 50010
14756KACK ACK20160306125511603/06/16 12:55:31  5-MIN KACK 061755Z 01006KT 10SM SCT037 OVC055 04/M05 A3026 -260 52 -1600 020/06 RMK AO2 T00391050
14756KACK ACK20160306130011603/06/16 13:00:31  5-MIN KACK 061800Z 32006KT 10SM SCT037 OVC055 04/M05 A3026 -260 50 -1500 340/06 RMK AO2 T00441050
14756KACK ACK20160306130511603/06/16 13:05:31  5-MIN KACK 061805Z 29004KT 10SM SCT037 OVC055 04/M05 A3026 -260 52 -1600 310/04 RMK AO2 T00391050
14756KACK ACK20160306131011603/06/16 13:10:31  5-MIN KACK 061810Z 00000KT 10SM SCT037 OVC055 03/M05 A3026 -260 54 -1700 000/00 RMK AO2 T00331050
14756KACK ACK20160306131511603/06/16 13:15:31  5-MIN KACK 061815Z VRB04KT 10SM SCT037 OVC055 03/M05 A3026 -260 54 -1700 VRB/04 RMK AO2 T00331050
14756KACK ACK20160306132011603/06/16 13:20:31  5-MIN KACK 061820Z 00000KT 10SM SCT037 OVC055 03/M05 A3026 -250 54 -1700 000/00 RMK AO2 T00331050
14756KACK ACK20160306132511603/06/16 13:25:31  5-MIN KACK 061825Z VRB03KT 10SM SCT037 OVC055 04/M06 A3026 -260 50 -1600 VRB/03 RMK AO2 T00391056
14756KACK ACK20160306133011603/06/16 13:30:31  5-MIN KACK 061830Z VRB05KT 10SM SCT037 OVC055 04/M05 A3026 -260 52 -1600 VRB/05 RMK AO2 T00391050
14756KACK ACK20160306133511603/06/16 13:35:31  5-MIN KACK 061835Z 22006KT 10SM SCT037 OVC055 04/M07 A3026 -250 46 -1600 230/06 RMK AO2 T00391067
14756KACK ACK20160306134011603/06/16 13:40:31  5-MIN KACK 061840Z 21006KT 10SM SCT037 OVC055 04/M07 A3026 -250 46 -1600 220/06 RMK AO2 T00391067
14756KACK ACK20160306134511603/06/16 13:45:31  5-MIN KACK 061845Z 25007KT 10SM SCT037 OVC055 04/M07 A3026 -260 46 -1600 260/07 RMK AO2 T00391067
14756KACK ACK20160306135012303/06/16 13:50:31  5-MIN KACK 061850Z 25006KT 10SM SCT037 OVC055 04/M07 A3026 -250 46 -1600 260/06 RMK AO2 SLP245 T00391067
14756KACK ACK20160306135512303/06/16 13:55:31  5-MIN KACK 061855Z 22007KT 10SM SCT040 SCT047 OVC060 04/M07 A3025 -250 46 -1600 230/07 RMK AO2 T00391067
14756KACK ACK20160306140012303/06/16 14:00:31  5-MIN KACK 061900Z 22007KT 10SM FEW040 SCT046 OVC060 04/M07 A3025 -250 46 -1600 240/07 RMK AO2 T00391067
14756KACK ACK20160306140511603/06/16 14:05:31  5-MIN KACK 061905Z 21005KT 10SM FEW042 OVC060 03/M07 A3025 -250 48 -1600 220/05 RMK AO2 T00331067
14756KACK ACK20160306141011603/06/16 14:10:31  5-MIN KACK 061910Z 20005KT 10SM FEW046 OVC060 04/M07 A3025 -250 46 -1600 220/05 RMK AO2 T00391067
14756KACK ACK20160306141510903/06/16 14:15:31  5-MIN KACK 061915Z 23006KT 10SM OVC060 04/M07 A3025 -250 46 -1600 250/06 RMK AO2 T00391067
14756KACK ACK20160306142010903/06/16 14:20:31  5-MIN KACK 061920Z 22006KT 10SM OVC060 04/M07 A3026 -250 44 -1500 240/06 RMK AO2 T00441067
14756KACK ACK20160306142510903/06/16 14:25:31  5-MIN KACK 061925Z 22007KT 10SM OVC060 04/M07 A3026 -250 46 -1600 230/07 RMK AO2 T00391067
14756KACK ACK20160306143010903/06/16 14:30:31  5-MIN KACK 061930Z 21006KT 10SM OVC060 03/M07 A3026 -250 48 -1700 230/06 RMK AO2 T00331067
14756KACK ACK20160306143510903/06/16 14:35:31  5-MIN KACK 061935Z 21006KT 10SM OVC060 04/M07 A3026 -260 46 -1600 230/06 RMK AO2 T00391067
14756KACK ACK20160306144010903/06/16 14:40:31  5-MIN KACK 061940Z 21006KT 10SM OVC055 04/M07 A3026 -250 46 -1600 220/06 RMK AO2 T00391067
14756KACK ACK20160306144510903/06/16 14:45:31  5-MIN KACK 061945Z 21007KT 10SM OVC055 03/M07 A3025 -250 48 -1700 230/07 RMK AO2 T00331067
14756KACK ACK20160306145012303/06/16 14:50:31  5-MIN KACK 061950Z 21008KT 10SM SCT040 OVC055 04/M07 A3025 -250 46 -1600 220/08 RMK AO2 SLP245 T00391067
14756KACK ACK20160306145512803/06/16 14:55:31  5-MIN KACK 061955Z AUTO 21006KT 10SM SCT040 BKN047 OVC055 04/M07 A3026 -250 46 -1600 220/06 RMK AO2 T00391067
14756KACK ACK20160306150011603/06/16 15:00:31  5-MIN KACK 062000Z 21007KT 10SM BKN042 OVC055 04/M07 A3026 -250 46 -1600 230/07 RMK AO2 T00391067
14756KACK ACK20160306150512303/06/16 15:05:31  5-MIN KACK 062005Z 21007KT 10SM BKN040 BKN047 OVC055 04/M07 A3026 -250 44 -1500 230/07 RMK AO2 T00441067
14756KACK ACK20160306151010903/06/16 15:10:31  5-MIN KACK 062010Z 21006KT 10SM OVC042 03/M07 A3026 -260 46 -1700 230/06 RMK AO2 T00331072
14756KACK ACK20160306151510903/06/16 15:15:31  5-MIN KACK 062015Z 22007KT 10SM OVC042 04/M07 A3026 -250 46 -1600 230/07 RMK AO2 T00391067
14756KACK ACK20160306152010903/06/16 15:20:31  5-MIN KACK 062020Z 21006KT 10SM OVC042 04/M07 A3026 -250 46 -1600 220/06 RMK AO2 T00391067
14756KACK ACK20160306152510903/06/16 15:25:31  5-MIN KACK 062025Z 22008KT 10SM OVC042 03/M07 A3026 -250 46 -1700 240/08 RMK AO2 T00331072
14756KACK ACK20160306153010903/06/16 15:30:31  5-MIN KACK 062030Z 21007KT 10SM OVC042 04/M07 A3026 -250 46 -1600 230/07 RMK AO2 T00391067
14756KACK ACK20160306153511603/06/16 15:35:31  5-MIN KACK 062035Z 22005KT 10SM BKN039 OVC046 04/M07 A3026 -250 46 -1600 240/05 RMK AO2 T00391067
14756KACK ACK20160306154011603/06/16 15:40:31  5-MIN KACK 062040Z VRB06KT 10SM BKN037 OVC045 04/M07 A3026 -260 46 -1600 VRB/06 RMK AO2 T00391067
14756KACK ACK20160306154510903/06/16 15:45:31  5-MIN KACK 062045Z 20007KT 10SM OVC039 04/M07 A3026 -260 46 -1600 210/07 RMK AO2 T00391067
14756KACK ACK20160306155012203/06/16 15:50:31  5-MIN KACK 062050Z 20007KT 10SM OVC039 04/M07 A3026 -250 46 -1600 220/07 RMK AO2 SLP245 T00391067 58006
14756KACK ACK20160306155510903/06/16 15:55:31  5-MIN KACK 062055Z 21007KT 10SM OVC039 04/M06 A3026 -250 46 -1500 220/07 RMK AO2 T00441061
14756KACK ACK20160306160010903/06/16 16:00:31  5-MIN KACK 062100Z 20006KT 10SM OVC039 04/M07 A3026 -250 46 -1600 220/06 RMK AO2 T00391067
14756KACK ACK20160306160510903/06/16 16:05:31  5-MIN KACK 062105Z 21007KT 10SM OVC039 04/M07 A3025 -250 46 -1600 220/07 RMK AO2 T00391067
14756KACK ACK20160306161010903/06/16 16:10:31  5-MIN KACK 062110Z 21005KT 10SM OVC039 04/M07 A3025 -250 46 -1600 230/05 RMK AO2 T00391067
14756KACK ACK20160306161510903/06/16 16:15:31  5-MIN KACK 062115Z 21007KT 10SM OVC040 04/M07 A3025 -250 46 -1600 230/07 RMK AO2 T00391067
14756KACK ACK20160306162010903/06/16 16:20:31  5-MIN KACK 062120Z 20007KT 10SM OVC040 04/M07 A3026 -250 46 -1600 220/07 RMK AO2 T00391067
14756KACK ACK20160306162510903/06/16 16:25:31  5-MIN KACK 062125Z 21007KT 10SM OVC040 04/M07 A3026 -260 46 -1600 220/07 RMK AO2 T00391067
14756KACK ACK20160306163010903/06/16 16:30:31  5-MIN KACK 062130Z 21006KT 10SM OVC040 04/M07 A3026 -260 44 -1600 220/06 RMK AO2 T00391072
14756KACK ACK20160306163510903/06/16 16:35:31  5-MIN KACK 062135Z 19006KT 10SM OVC040 04/M07 A3026 -260 46 -1600 210/06 RMK AO2 T00391067
14756KACK ACK20160306164010903/06/16 16:40:31  5-MIN KACK 062140Z 22006KT 10SM BKN040 03/M07 A3026 -260 48 -1700 240/06 RMK AO2 T00331067
14756KACK ACK20160306164511603/06/16 16:45:31  5-MIN KACK 062145Z 20005KT 10SM BKN040 BKN047 03/M07 A3026 -260 48 -1700 210/05 RMK AO2 T00331067
14756KACK ACK20160306165012303/06/16 16:50:31  5-MIN KACK 062150Z 21006KT 10SM SCT040 BKN047 03/M07 A3026 -260 48 -1700 220/06 RMK AO2 SLP247 T00331067
14756KACK ACK20160306165510903/06/16 16:55:31  5-MIN KACK 062155Z 19005KT 10SM SCT042 03/M07 A3026 -260 48 -1700 210/05 RMK AO2 T00331067
14756KACK ACK20160306170010903/06/16 17:00:31  5-MIN KACK 062200Z 21003KT 10SM FEW042 03/M07 A3026 -260 48 -1700 220/03 RMK AO2 T00331067
14756KACK ACK20160306170510903/06/16 17:05:31  5-MIN KACK 062205Z 20005KT 10SM FEW044 03/M07 A3027 -260 50 -1700 210/05 RMK AO2 T00281067
14756KACK ACK20160306171010903/06/16 17:10:31  5-MIN KACK 062210Z 19004KT 10SM FEW044 03/M07 A3027 -270 50 -1700 210/04 RMK AO2 T00281067
14756KACK ACK20160306171510603/06/16 17:15:31  5-MIN KACK 062215Z 20003KT 10SM CLR 03/M07 A3027 -270 50 -1700 210/03 RMK AO2 T00281067
14756KACK ACK20160306172010603/06/16 17:20:31  5-MIN KACK 062220Z 19003KT 10SM CLR 02/M07 A3027 -270 52 -1800 210/03 RMK AO2 T00221067
14756KACK ACK20160306172510603/06/16 17:25:31  5-MIN KACK 062225Z 00000KT 10SM CLR 02/M07 A3027 -270 52 -1800 000/00 RMK AO2 T00221067
14756KACK ACK20160306173010603/06/16 17:30:31  5-MIN KACK 062230Z 19003KT 10SM CLR 02/M07 A3027 -270 54 -1900 200/03 RMK AO2 T00171067
14756KACK ACK20160306173510603/06/16 17:35:31  5-MIN KACK 062235Z 20003KT 10SM CLR 02/M07 A3028 -270 54 -1900 210/03 RMK AO2 T00171067
14756KACK ACK20160306174010603/06/16 17:40:31  5-MIN KACK 062240Z 19003KT 10SM CLR 01/M07 A3028 -280 56 -2000 210/03 RMK AO2 T00111067
14756KACK ACK20160306174510603/06/16 17:45:31  5-MIN KACK 062245Z 20003KT 10SM CLR 01/M07 A3028 -280 56 -2000 210/03 RMK AO2 T00111067
14756KACK ACK20160306175011303/06/16 17:50:31  5-MIN KACK 062250Z 00000KT 10SM CLR 01/M07 A3028 -280 56 -2000 000/00 RMK AO2 SLP254 T00111067
14756KACK ACK20160306175510603/06/16 17:55:31  5-MIN KACK 062255Z 00000KT 10SM CLR 01/M07 A3028 -280 54 -2000 000/00 RMK AO2 T00111072
14756KACK ACK20160306180010603/06/16 18:00:31  5-MIN KACK 062300Z 19003KT 10SM CLR 01/M07 A3028 -280 54 -2000 210/03 RMK AO2 T00111072
14756KACK ACK20160306180510803/06/16 18:05:31  5-MIN KACK 062305Z 00000KT 10SM CLR 01/M07 A3029 -280 54 -2000 000/00 RMK AO2 T00111072 $
14756KACK ACK20160306181010803/06/16 18:10:31  5-MIN KACK 062310Z 00000KT 10SM CLR 00/M07 A3029 -280 61 -2100 000/00 RMK AO2 T00001067 $
14756KACK ACK20160306181510803/06/16 18:15:31  5-MIN KACK 062315Z 00000KT 10SM CLR 01/M06 A3029 -280 61 -2000 000/00 RMK AO2 T00061061 $
14756KACK ACK20160306182010803/06/16 18:20:31  5-MIN KACK 062320Z 00000KT 10SM CLR 00/M06 A3029 -290 63 -2100 000/00 RMK AO2 T00001061 $
14756KACK ACK20160306182510903/06/16 18:25:31  5-MIN KACK 062325Z 00000KT 10SM CLR M01/M07 A3029 -290 66 -2300 000/00 RMK AO2 T10111067 $
14756KACK ACK20160306183010903/06/16 18:30:31  5-MIN KACK 062330Z 00000KT 10SM CLR M02/M07 A3029 -290 69 -2300 000/00 RMK AO2 T10171067 $
14756KACK ACK20160306183510903/06/16 18:35:31  5-MIN KACK 062335Z 00000KT 10SM CLR M01/M06 A3029 -290 69 -2300 000/00 RMK AO2 T10111061 $
14756KACK ACK20160306184010903/06/16 18:40:31  5-MIN KACK 062340Z 00000KT 10SM CLR M01/M06 A3029 -290 69 -2300 000/00 RMK AO2 T10111061 $
14756KACK ACK20160306184510903/06/16 18:45:31  5-MIN KACK 062345Z 00000KT 10SM CLR M01/M07 A3029 -290 66 -2300 000/00 RMK AO2 T10111067 $
14756KACK ACK20160306185013403/06/16 18:50:31  5-MIN KACK 062350Z 00000KT 10SM CLR M02/M07 A3030 -290 69 -2300 000/00 RMK AO2 SLP258 T10171067 10044 21017 56001 $
14756KACK ACK20160306185510903/06/16 18:55:31  5-MIN KACK 062355Z 00000KT 10SM CLR M02/M07 A3030 -290 69 -2400 000/00 RMK AO2 T10221072 $
14756KACK ACK20160306190010903/06/16 19:00:31  5-MIN KACK 070000Z 00000KT 10SM CLR M02/M07 A3030 -290 69 -2300 000/00 RMK AO2 T10171067 $
14756KACK ACK20160306190510903/06/16 19:05:31  5-MIN KACK 070005Z 00000KT 10SM CLR M01/M07 A3030 -290 66 -2300 000/00 RMK AO2 T10111067 $
14756KACK ACK20160306191010903/06/16 19:10:31  5-MIN KACK 070010Z 05003KT 10SM CLR M01/M07 A3030 -290 66 -2300 060/03 RMK AO2 T10111067 $
14756KACK ACK20160306191510903/06/16 19:15:31  5-MIN KACK 070015Z 06003KT 10SM CLR M01/M07 A3030 -290 66 -2300 070/03 RMK AO2 T10111067 $
14756KACK ACK20160306192010903/06/16 19:20:31  5-MIN KACK 070020Z 00000KT 10SM CLR M01/M07 A3030 -290 66 -2300 000/00 RMK AO2 T10111067 $
14756KACK ACK20160306192510903/06/16 19:25:31  5-MIN KACK 070025Z 00000KT 10SM CLR M02/M07 A3030 -290 66 -2300 000/00 RMK AO2 T10171072 $
14756KACK ACK20160306193010903/06/16 19:30:31  5-MIN KACK 070030Z 00000KT 10SM CLR M02/M07 A3030 -290 69 -2400 000/00 RMK AO2 T10221072 $
14756KACK ACK20160306193510903/06/16 19:35:31  5-MIN KACK 070035Z 07003KT 10SM CLR M02/M07 A3030 -300 69 -2400 090/03 RMK AO2 T10221072 $
14756KACK ACK20160306194010903/06/16 19:40:31  5-MIN KACK 070040Z 00000KT 10SM CLR M02/M07 A3030 -290 69 -2300 000/00 RMK AO2 T10171067 $
14756KACK ACK20160306194510903/06/16 19:45:31  5-MIN KACK 070045Z 00000KT 10SM CLR M02/M07 A3030 -300 69 -2300 000/00 RMK AO2 T10171067 $
14756KACK ACK20160306195011603/06/16 19:50:31  5-MIN KACK 070050Z 00000KT 10SM CLR M02/M07 A3030 -300 72 -2400 000/00 RMK AO2 SLP261 T10221067 $
14756KACK ACK20160306195510903/06/16 19:55:31  5-MIN KACK 070055Z 00000KT 10SM CLR M02/M07 A3030 -300 69 -2400 000/00 RMK AO2 T10221072 $
14756KACK ACK20160306200010903/06/16 20:00:31  5-MIN KACK 070100Z 00000KT 10SM CLR M03/M08 A3030 -300 71 -2500 000/00 RMK AO2 T10331078 $
14756KACK ACK20160306200510903/06/16 20:05:31  5-MIN KACK 070105Z 00000KT 10SM CLR M02/M07 A3030 -300 72 -2400 000/00 RMK AO2 T10221067 $
14756KACK ACK20160306201010903/06/16 20:10:31  5-MIN KACK 070110Z 00000KT 10SM CLR M02/M07 A3030 -300 69 -2400 000/00 RMK AO2 T10221072 $
14756KACK ACK20160306201510903/06/16 20:15:31  5-MIN KACK 070115Z 00000KT 10SM CLR M02/M07 A3030 -300 72 -2400 000/00 RMK AO2 T10221067 $
14756KACK ACK20160306202010903/06/16 20:20:31  5-MIN KACK 070120Z 00000KT 10SM CLR M03/M07 A3030 -300 71 -2500 000/00 RMK AO2 T10281072 $
14756KACK ACK20160306202510903/06/16 20:25:31  5-MIN KACK 070125Z 00000KT 10SM CLR M02/M07 A3030 -300 69 -2400 000/00 RMK AO2 T10221072 $
14756KACK ACK20160306203010903/06/16 20:30:31  5-MIN KACK 070130Z 00000KT 10SM CLR M02/M07 A3030 -300 69 -2400 000/00 RMK AO2 T10221072 $
14756KACK ACK20160306203510903/06/16 20:35:31  5-MIN KACK 070135Z 00000KT 10SM CLR M02/M07 A3030 -300 69 -2400 000/00 RMK AO2 T10221072 $
14756KACK ACK20160306204010903/06/16 20:40:31  5-MIN KACK 070140Z 00000KT 10SM CLR M02/M07 A3031 -300 69 -2400 000/00 RMK AO2 T10221072 $
14756KACK ACK20160306204510903/06/16 20:45:31  5-MIN KACK 070145Z 00000KT 10SM CLR M03/M07 A3031 -300 71 -2500 000/00 RMK AO2 T10281072 $
14756KACK ACK20160306205011603/06/16 20:50:31  5-MIN KACK 070150Z 00000KT 10SM CLR M02/M07 A3031 -300 69 -2400 000/00 RMK AO2 SLP263 T10221072 $
14756KACK ACK20160306205510903/06/16 20:55:31  5-MIN KACK 070155Z 00000KT 10SM CLR M02/M07 A3031 -300 69 -2300 000/00 RMK AO2 T10171067 $
14756KACK ACK20160306210011903/06/16 21:00:31  5-MIN KACK 070200Z AUTO 00000KT 10SM CLR M02/M06 A3031 -310 72 -2300 000/00 RMK AO2 T10171061 TSNO $
14756KACK ACK20160306210511903/06/16 21:05:31  5-MIN KACK 070205Z AUTO 00000KT 10SM CLR M02/M06 A3031 -310 72 -2300 000/00 RMK AO2 T10171061 TSNO $
14756KACK ACK20160306211011903/06/16 21:10:31  5-MIN KACK 070210Z AUTO 00000KT 10SM CLR M02/M07 A3031 -310 72 -2400 000/00 RMK AO2 T10221067 TSNO $
14756KACK ACK20160306211511903/06/16 21:15:31  5-MIN KACK 070215Z AUTO 00000KT 10SM CLR M02/M07 A3031 -310 72 -2400 000/00 RMK AO2 T10221067 TSNO $
14756KACK ACK20160306212011903/06/16 21:20:31  5-MIN KACK 070220Z AUTO 00000KT 10SM CLR M02/M07 A3031 -310 72 -2400 000/00 RMK AO2 T10221067 TSNO $
14756KACK ACK20160306212511903/06/16 21:25:31  5-MIN KACK 070225Z AUTO 00000KT 10SM CLR M03/M07 A3031 -310 75 -2500 000/00 RMK AO2 T10281067 TSNO $
14756KACK ACK20160306213011903/06/16 21:30:31  5-MIN KACK 070230Z AUTO 00000KT 10SM CLR M03/M07 A3031 -310 74 -2600 000/00 RMK AO2 T10331072 TSNO $
14756KACK ACK20160306213511903/06/16 21:35:31  5-MIN KACK 070235Z AUTO 00000KT 10SM CLR M03/M07 A3031 -310 71 -2500 000/00 RMK AO2 T10281072 TSNO $
14756KACK ACK20160306214011903/06/16 21:40:31  5-MIN KACK 070240Z AUTO 00000KT 10SM CLR M03/M07 A3032 -310 74 -2600 000/00 RMK AO2 T10331072 TSNO $
14756KACK ACK20160306214511903/06/16 21:45:31  5-MIN KACK 070245Z AUTO 00000KT 10SM CLR M03/M07 A3032 -310 71 -2500 000/00 RMK AO2 T10281072 TSNO $
14756KACK ACK20160306215013203/06/16 21:50:31  5-MIN KACK 070250Z AUTO 00000KT 10SM CLR M02/M07 A3031 -310 72 -2400 000/00 RMK AO2 SLP265 T10221067 53014 TSNO $
14756KACK ACK20160306215511903/06/16 21:55:31  5-MIN KACK 070255Z AUTO 00000KT 10SM CLR M02/M07 A3031 -310 72 -2400 000/00 RMK AO2 T10221067 TSNO $
14756KACK ACK20160306220011903/06/16 22:00:31  5-MIN KACK 070300Z AUTO 00000KT 10SM CLR M03/M07 A3032 -310 75 -2500 000/00 RMK AO2 T10281067 TSNO $
14756KACK ACK20160306220511903/06/16 22:05:31  5-MIN KACK 070305Z AUTO 00000KT 10SM CLR M03/M07 A3032 -310 75 -2500 000/00 RMK AO2 T10281067 TSNO $
14756KACK ACK20160306221011903/06/16 22:10:31  5-MIN KACK 070310Z AUTO 00000KT 10SM CLR M03/M07 A3032 -310 75 -2500 000/00 RMK AO2 T10281067 TSNO $
14756KACK ACK20160306221511903/06/16 22:15:31  5-MIN KACK 070315Z AUTO 00000KT 10SM CLR M03/M07 A3032 -310 71 -2500 000/00 RMK AO2 T10281072 TSNO $
14756KACK ACK20160306222011903/06/16 22:20:31  5-MIN KACK 070320Z AUTO 00000KT 10SM CLR M03/M07 A3032 -310 71 -2500 000/00 RMK AO2 T10281072 TSNO $
14756KACK ACK20160306222511903/06/16 22:25:31  5-MIN KACK 070325Z AUTO 00000KT 10SM CLR M03/M07 A3032 -310 75 -2500 000/00 RMK AO2 T10281067 TSNO $
14756KACK ACK20160306223011903/06/16 22:30:31  5-MIN KACK 070330Z AUTO 00000KT 10SM CLR M03/M07 A3032 -310 75 -2500 000/00 RMK AO2 T10281067 TSNO $
14756KACK ACK20160306223511903/06/16 22:35:31  5-MIN KACK 070335Z AUTO 00000KT 10SM CLR M02/M07 A3032 -310 72 -2400 000/00 RMK AO2 T10221067 TSNO $
14756KACK ACK20160306224011903/06/16 22:40:31  5-MIN KACK 070340Z AUTO 00000KT 10SM CLR M03/M07 A3032 -310 75 -2500 000/00 RMK AO2 T10281067 TSNO $
14756KACK ACK20160306224511903/06/16 22:45:31  5-MIN KACK 070345Z AUTO 00000KT 10SM CLR M03/M07 A3032 -310 78 -2600 000/00 RMK AO2 T10331067 TSNO $
14756KACK ACK20160306225012603/06/16 22:50:31  5-MIN KACK 070350Z AUTO 00000KT 10SM CLR M03/M07 A3032 -310 74 -2600 000/00 RMK AO2 SLP265 T10331072 TSNO $
14756KACK ACK20160306225511903/06/16 22:55:31  5-MIN KACK 070355Z AUTO 27003KT 10SM CLR M03/M07 A3032 -310 78 -2600 280/03 RMK AO2 T10331067 TSNO $
14756KACK ACK20160306230011903/06/16 23:00:31  5-MIN KACK 070400Z AUTO 00000KT 10SM CLR M03/M07 A3031 -310 78 -2600 000/00 RMK AO2 T10331067 TSNO $
14756KACK ACK20160306230511903/06/16 23:05:31  5-MIN KACK 070405Z AUTO 27003KT 10SM CLR M03/M07 A3031 -310 74 -2600 280/03 RMK AO2 T10331072 TSNO $
14756KACK ACK20160306231011903/06/16 23:10:31  5-MIN KACK 070410Z AUTO 25003KT 10SM CLR M03/M07 A3031 -300 75 -2500 270/03 RMK AO2 T10281067 TSNO $
14756KACK ACK20160306231511903/06/16 23:15:31  5-MIN KACK 070415Z AUTO 25003KT 10SM CLR M02/M07 A3031 -300 72 -2400 270/03 RMK AO2 T10221067 TSNO $
14756KACK ACK20160306232011903/06/16 23:20:31  5-MIN KACK 070420Z AUTO 25003KT 10SM CLR M02/M06 A3031 -300 72 -2300 260/03 RMK AO2 T10171061 TSNO $
14756KACK ACK20160306232511903/06/16 23:25:31  5-MIN KACK 070425Z AUTO 00000KT 10SM CLR M02/M07 A3031 -300 72 -2400 000/00 RMK AO2 T10221067 TSNO $
14756KACK ACK20160306233011903/06/16 23:30:31  5-MIN KACK 070430Z AUTO 28003KT 10SM CLR M02/M06 A3031 -300 75 -2400 290/03 RMK AO2 T10221061 TSNO $
14756KACK ACK20160306233511903/06/16 23:35:31  5-MIN KACK 070435Z AUTO 27003KT 10SM CLR M02/M06 A3031 -300 75 -2400 290/03 RMK AO2 T10221061 TSNO $
14756KACK ACK20160306234011903/06/16 23:40:31  5-MIN KACK 070440Z AUTO 27004KT 10SM CLR M02/M06 A3031 -310 72 -2300 290/04 RMK AO2 T10171061 TSNO $
14756KACK ACK20160306234511903/06/16 23:45:31  5-MIN KACK 070445Z AUTO 26004KT 10SM CLR M02/M06 A3031 -310 72 -2300 280/04 RMK AO2 T10171061 TSNO $
14756KACK ACK20160306235013603/06/16 23:50:31  5-MIN KACK 070450Z AUTO 26004KT 10SM CLR M01/M06 A3031 -300 66 -2200 270/04 RMK AO2 SLP263 T10061061 400501050 TSNO $
14756KACK ACK20160306235511903/06/16 23:55:31  5-MIN KACK 070455Z AUTO 27004KT 10SM CLR M02/M07 A3031 -300 69 -2300 290/04 RMK AO2 T10171067 TSNO $
14756KACK ACK20160307000011903/07/16 00:00:31  5-MIN KACK 070500Z AUTO 27003KT 10SM CLR M02/M07 A3031 -300 69 -2300 290/03 RMK AO2 T10171067 TSNO $
14756KACK ACK20160307000511903/07/16 00:05:31  5-MIN KACK 070505Z AUTO 27003KT 10SM CLR M02/M07 A3031 -310 69 -2300 280/03 RMK AO2 T10171067 TSNO $
14756KACK ACK20160307001011903/07/16 00:10:31  5-MIN KACK 070510Z AUTO 26003KT 10SM CLR M02/M07 A3032 -310 69 -2400 280/03 RMK AO2 T10171067 TSNO $
14756KACK ACK20160307001511903/07/16 00:15:31  5-MIN KACK 070515Z AUTO 26004KT 10SM CLR M02/M07 A3032 -310 69 -2400 280/04 RMK AO2 T10171067 TSNO $
14756KACK ACK20160307002011903/07/16 00:20:31  5-MIN KACK 070520Z AUTO 27004KT 10SM CLR M02/M07 A3032 -310 69 -2400 280/04 RMK AO2 T10171067 TSNO $
14756KACK ACK20160307002511903/07/16 00:25:31  5-MIN KACK 070525Z AUTO 26004KT 10SM CLR M02/M07 A3032 -310 69 -2400 280/04 RMK AO2 T10171067 TSNO $
14756KACK ACK20160307003011903/07/16 00:30:31  5-MIN KACK 070530Z AUTO 00000KT 10SM CLR M02/M07 A3031 -310 69 -2300 000/00 RMK AO2 T10171067 TSNO $
14756KACK ACK20160307003511903/07/16 00:35:31  5-MIN KACK 070535Z AUTO 25003KT 10SM CLR M02/M07 A3031 -310 69 -2300 260/03 RMK AO2 T10171067 TSNO $
14756KACK ACK20160307004011903/07/16 00:40:31  5-MIN KACK 070540Z AUTO 25003KT 10SM CLR M02/M06 A3031 -310 72 -2300 270/03 RMK AO2 T10171061 TSNO $
14756KACK ACK20160307004511903/07/16 00:45:31  5-MIN KACK 070545Z AUTO 00000KT 10SM CLR M02/M06 A3031 -300 72 -2300 000/00 RMK AO2 T10171061 TSNO $
14756KACK ACK20160307005014403/07/16 00:50:31  5-MIN KACK 070550Z AUTO 26003KT 10SM CLR M02/M06 A3031 -310 75 -2400 270/03 RMK AO2 SLP264 T10221061 11006 21033 53006 TSNO $
14756KACK ACK20160307005511903/07/16 00:55:31  5-MIN KACK 070555Z AUTO 25003KT 10SM CLR M02/M06 A3031 -300 72 -2300 270/03 RMK AO2 T10171061 TSNO $
14756KACK ACK20160307010011903/07/16 01:00:31  5-MIN KACK 070600Z AUTO 00000KT 10SM CLR M03/M07 A3031 -300 71 -2500 000/00 RMK AO2 T10281072 TSNO $
14756KACK ACK20160307010511903/07/16 01:05:31  5-MIN KACK 070605Z AUTO 00000KT 10SM CLR M02/M07 A3031 -310 72 -2400 000/00 RMK AO2 T10221067 TSNO $
14756KACK ACK20160307011011903/07/16 01:10:31  5-MIN KACK 070610Z AUTO 24004KT 10SM CLR M02/M06 A3031 -300 72 -2300 250/04 RMK AO2 T10171061 TSNO $
14756KACK ACK20160307011511903/07/16 01:15:31  5-MIN KACK 070615Z AUTO 25004KT 10SM CLR M02/M07 A3031 -300 72 -2400 260/04 RMK AO2 T10221067 TSNO $
14756KACK ACK20160307012011903/07/16 01:20:31  5-MIN KACK 070620Z AUTO 25004KT 10SM CLR M02/M07 A3031 -300 72 -2400 260/04 RMK AO2 T10221067 TSNO $
14756KACK ACK20160307012511903/07/16 01:25:31  5-MIN KACK 070625Z AUTO 24003KT 10SM CLR M03/M07 A3031 -300 74 -2600 260/03 RMK AO2 T10331072 TSNO $
14756KACK ACK20160307013011903/07/16 01:30:31  5-MIN KACK 070630Z AUTO 25003KT 10SM CLR M02/M07 A3031 -300 72 -2400 260/03 RMK AO2 T10221067 TSNO $
14756KACK ACK20160307013511903/07/16 01:35:31  5-MIN KACK 070635Z AUTO 24004KT 10SM CLR M02/M06 A3031 -300 72 -2300 260/04 RMK AO2 T10171061 TSNO $
14756KACK ACK20160307014011903/07/16 01:40:31  5-MIN KACK 070640Z AUTO 25004KT 10SM CLR M02/M07 A3031 -300 72 -2400 270/04 RMK AO2 T10221067 TSNO $
14756KACK ACK20160307014511903/07/16 01:45:31  5-MIN KACK 070645Z AUTO 25005KT 10SM CLR M01/M06 A3030 -300 69 -2300 270/05 RMK AO2 T10111061 TSNO $
14756KACK ACK20160307015012603/07/16 01:50:31  5-MIN KACK 070650Z AUTO 25004KT 10SM CLR M01/M06 A3030 -300 69 -2300 260/04 RMK AO2 SLP261 T10111061 TSNO $
14756KACK ACK20160307015511903/07/16 01:55:31  5-MIN KACK 070655Z AUTO 25004KT 10SM CLR M01/M07 A3030 -300 66 -2300 260/04 RMK AO2 T10111067 TSNO $
14756KACK ACK20160307020011903/07/16 02:00:31  5-MIN KACK 070700Z AUTO 25004KT 10SM CLR M02/M07 A3030 -290 72 -2400 260/04 RMK AO2 T10221067 TSNO $
14756KACK ACK20160307020511903/07/16 02:05:31  5-MIN KACK 070705Z AUTO 24003KT 10SM CLR M02/M07 A3029 -290 69 -2300 250/03 RMK AO2 T10171067 TSNO $
14756KACK ACK20160307021011903/07/16 02:10:31  5-MIN KACK 070710Z AUTO 25003KT 10SM CLR M02/M07 A3029 -290 69 -2300 260/03 RMK AO2 T10171067 TSNO $
14756KACK ACK20160307021511903/07/16 02:15:31  5-MIN KACK 070715Z AUTO 27004KT 10SM CLR M01/M06 A3029 -290 69 -2300 280/04 RMK AO2 T10111061 TSNO $
14756KACK ACK20160307022011903/07/16 02:20:31  5-MIN KACK 070720Z AUTO 26003KT 10SM CLR M02/M06 A3029 -290 72 -2300 270/03 RMK AO2 T10171061 TSNO $
14756KACK ACK20160307022511903/07/16 02:25:31  5-MIN KACK 070725Z AUTO 00000KT 10SM CLR M02/M07 A3029 -280 72 -2400 000/00 RMK AO2 T10221067 TSNO $
14756KACK ACK20160307023011903/07/16 02:30:31  5-MIN KACK 070730Z AUTO 25003KT 10SM CLR M01/M06 A3029 -280 69 -2200 270/03 RMK AO2 T10111061 TSNO $
14756KACK ACK20160307023511903/07/16 02:35:31  5-MIN KACK 070735Z AUTO 26003KT 10SM CLR M01/M06 A3029 -280 69 -2200 270/03 RMK AO2 T10111061 TSNO $
14756KACK ACK20160307024011903/07/16 02:40:31  5-MIN KACK 070740Z AUTO 24004KT 10SM CLR M02/M06 A3028 -280 72 -2300 260/04 RMK AO2 T10171061 TSNO $
14756KACK ACK20160307024511903/07/16 02:45:31  5-MIN KACK 070745Z AUTO 25003KT 10SM CLR M02/M07 A3029 -280 72 -2400 260/03 RMK AO2 T10221067 TSNO $
14756KACK ACK20160307025012603/07/16 02:50:31  5-MIN KACK 070750Z AUTO 24004KT 10SM CLR M02/M07 A3029 -280 69 -2300 260/04 RMK AO2 SLP255 T10171067 TSNO $
14756KACK ACK20160307025511903/07/16 02:55:31  5-MIN KACK 070755Z AUTO 25004KT 10SM CLR M01/M06 A3029 -280 69 -2200 270/04 RMK AO2 T10111061 TSNO $
14756KACK ACK20160307030011903/07/16 03:00:31  5-MIN KACK 070800Z AUTO 24004KT 10SM CLR M02/M07 A3029 -280 72 -2400 250/04 RMK AO2 T10221067 TSNO $
14756KACK ACK20160307030511903/07/16 03:05:31  5-MIN KACK 070805Z AUTO 25004KT 10SM CLR M02/M07 A3029 -280 69 -2300 260/04 RMK AO2 T10171067 TSNO $
14756KACK ACK20160307031011903/07/16 03:10:31  5-MIN KACK 070810Z AUTO 25005KT 10SM CLR M01/M06 A3029 -280 69 -2200 260/05 RMK AO2 T10111061 TSNO $
14756KACK ACK20160307031511903/07/16 03:15:31  5-MIN KACK 070815Z AUTO 24004KT 10SM CLR M01/M07 A3028 -280 66 -2200 260/04 RMK AO2 T10111067 TSNO $
14756KACK ACK20160307032011903/07/16 03:20:31  5-MIN KACK 070820Z AUTO 23005KT 10SM CLR M02/M07 A3028 -280 69 -2300 240/05 RMK AO2 T10171067 TSNO $
14756KACK ACK20160307032511903/07/16 03:25:31  5-MIN KACK 070825Z AUTO 23004KT 10SM CLR M01/M07 A3028 -280 66 -2200 250/04 RMK AO2 T10111067 TSNO $
14756KACK ACK20160307033011903/07/16 03:30:31  5-MIN KACK 070830Z AUTO 23005KT 10SM CLR M02/M07 A3029 -280 69 -2300 250/05 RMK AO2 T10171067 TSNO $
14756KACK ACK20160307033511903/07/16 03:35:31  5-MIN KACK 070835Z AUTO 23005KT 10SM CLR M01/M06 A3029 -280 66 -2200 250/05 RMK AO2 T10061061 TSNO $
14756KACK ACK20160307034011903/07/16 03:40:31  5-MIN KACK 070840Z AUTO 24005KT 10SM CLR M01/M06 A3029 -290 66 -2200 250/05 RMK AO2 T10061061 TSNO $
14756KACK ACK20160307034511803/07/16 03:45:31  5-MIN KACK 070845Z AUTO 25005KT 10SM CLR 00/M06 A3029 -290 66 -2100 260/05 RMK AO2 T00001056 TSNO $
14756KACK ACK20160307035013203/07/16 03:50:31  5-MIN KACK 070850Z AUTO 25006KT 10SM CLR M01/M06 A3030 -290 66 -2200 260/06 RMK AO2 SLP258 T10061061 58001 TSNO $
14756KACK ACK20160307035511803/07/16 03:55:31  5-MIN KACK 070855Z AUTO 25007KT 10SM CLR 00/M06 A3030 -290 66 -2100 260/07 RMK AO2 T00001056 TSNO $
14756KACK ACK20160307040011903/07/16 04:00:31  5-MIN KACK 070900Z AUTO 24006KT 10SM CLR M01/M06 A3030 -290 69 -2200 260/06 RMK AO2 T10061056 TSNO $
14756KACK ACK20160307040511903/07/16 04:05:31  5-MIN KACK 070905Z AUTO 24006KT 10SM CLR M01/M06 A3030 -300 72 -2300 250/06 RMK AO2 T10111056 TSNO $
14756KACK ACK20160307041011903/07/16 04:10:31  5-MIN KACK 070910Z AUTO 23006KT 10SM CLR M01/M06 A3030 -290 69 -2200 250/06 RMK AO2 T10061056 TSNO $
14756KACK ACK20160307041511903/07/16 04:15:31  5-MIN KACK 070915Z AUTO 23005KT 10SM CLR M01/M06 A3030 -290 66 -2200 240/05 RMK AO2 T10061061 TSNO $
14756KACK ACK20160307042011803/07/16 04:20:31  5-MIN KACK 070920Z AUTO 24007KT 10SM CLR 01/M05 A3030 -290 66 -2000 250/07 RMK AO2 T00061050 TSNO $
14756KACK ACK20160307042511803/07/16 04:25:31  5-MIN KACK 070925Z AUTO 24007KT 10SM CLR 01/M05 A3030 -290 66 -2000 260/07 RMK AO2 T00061050 TSNO $
14756KACK ACK20160307043011903/07/16 04:30:31  5-MIN KACK 070930Z AUTO 23007KT 10SM CLR M01/M06 A3030 -290 69 -2300 250/07 RMK AO2 T10111061 TSNO $
14756KACK ACK20160307043511903/07/16 04:35:31  5-MIN KACK 070935Z AUTO 23006KT 10SM CLR M01/M06 A3029 -290 69 -2200 240/06 RMK AO2 T10061056 TSNO $
14756KACK ACK20160307044011803/07/16 04:40:31  5-MIN KACK 070940Z AUTO 23006KT 10SM CLR 01/M04 A3029 -290 69 -2000 250/06 RMK AO2 T00061044 TSNO $
14756KACK ACK20160307044511803/07/16 04:45:31  5-MIN KACK 070945Z AUTO 23007KT 10SM CLR 01/M05 A3029 -290 66 -2000 250/07 RMK AO2 T00061050 TSNO $
14756KACK ACK20160307045012503/07/16 04:50:31  5-MIN KACK 070950Z AUTO 23007KT 10SM CLR 00/M05 A3029 -290 69 -2100 250/07 RMK AO2 SLP258 T00001050 TSNO $
14756KACK ACK20160307045511803/07/16 04:55:31  5-MIN KACK 070955Z AUTO 24007KT 10SM CLR 00/M05 A3030 -290 69 -2100 250/07 RMK AO2 T00001050 TSNO $
14756KACK ACK20160307050011803/07/16 05:00:31  5-MIN KACK 071000Z AUTO 23006KT 10SM CLR 00/M04 A3029 -290 72 -2100 250/06 RMK AO2 T00001044 TSNO $
14756KACK ACK20160307050511803/07/16 05:05:31  5-MIN KACK 071005Z AUTO 24006KT 10SM CLR 01/M04 A3029 -290 66 -2000 250/06 RMK AO2 T00111044 TSNO $
14756KACK ACK20160307051011803/07/16 05:10:31  5-MIN KACK 071010Z AUTO 22007KT 10SM CLR 00/M05 A3029 -280 69 -2100 240/07 RMK AO2 T00001050 TSNO $
14756KACK ACK20160307200010603/07/16 20:00:31  5-MIN KACK 080100Z 24009KT 7SM OVC060 06/03 A3007 -80 82 -1100 260/09 RMK AO2 T00610033
14756KACK ACK20160307200510603/07/16 20:05:31  5-MIN KACK 080105Z 25010KT 7SM OVC060 07/03 A3007 -80 79 -1000 260/10 RMK AO2 T00670033
14756KACK ACK20160307201010603/07/16 20:10:31  5-MIN KACK 080110Z 25009KT 7SM OVC060 07/03 A3007 -80 79 -1000 260/09 RMK AO2 T00670033
14756KACK ACK20160307201510603/07/16 20:15:31  5-MIN KACK 080115Z 25009KT 7SM OVC060 07/03 A3007 -80 79 -1000 260/09 RMK AO2 T00670033
14756KACK ACK20160307202010603/07/16 20:20:31  5-MIN KACK 080120Z 25009KT 7SM OVC060 07/03 A3007 -80 79 -1000 270/09 RMK AO2 T00670033
14756KACK ACK20160307202510603/07/16 20:25:31  5-MIN KACK 080125Z 25009KT 7SM OVC060 07/03 A3007 -80 79 -1000 270/09 RMK AO2 T00670033
14756KACK ACK20160307203010603/07/16 20:30:31  5-MIN KACK 080130Z 26009KT 8SM OVC060 07/04 A3007 -90 82 -1000 280/09 RMK AO2 T00670039
14756KACK ACK20160307203510603/07/16 20:35:31  5-MIN KACK 080135Z 26010KT 8SM OVC060 07/04 A3007 -80 82 -1000 270/10 RMK AO2 T00670039
14756KACK ACK20160307204010603/07/16 20:40:31  5-MIN KACK 080140Z 26009KT 7SM OVC060 07/04 A3007 -90 82 -1000 270/09 RMK AO2 T00670039
14756KACK ACK20160307204510603/07/16 20:45:31  5-MIN KACK 080145Z 26009KT 7SM OVC060 07/04 A3007 -80 82 -1000 270/09 RMK AO2 T00670039
14756KACK ACK20160307205011303/07/16 20:50:31  5-MIN KACK 080150Z 26011KT 7SM OVC060 07/04 A3007 -80 82 -1000 270/11 RMK AO2 SLP183 T00670039
14756KACK ACK20160307205510603/07/16 20:55:31  5-MIN KACK 080155Z 26010KT 7SM OVC060 07/04 A3007 -80 82 -1000 280/10 RMK AO2 T00670039
14756KACK ACK20160307210011603/07/16 21:00:31  5-MIN KACK 080200Z AUTO 26011KT 7SM OVC060 07/04 A3007 -80 82 -1000 280/11 RMK AO2 T00670039 TSNO
14756KACK ACK20160307210511603/07/16 21:05:31  5-MIN KACK 080205Z AUTO 26010KT 8SM OVC060 07/04 A3007 -80 82 -1000 280/10 RMK AO2 T00670039 TSNO
14756KACK ACK20160307211011603/07/16 21:10:31  5-MIN KACK 080210Z AUTO 26011KT 8SM OVC060 07/04 A3007 -80 82 -1000 280/11 RMK AO2 T00670039 TSNO
14756KACK ACK20160307211511603/07/16 21:15:31  5-MIN KACK 080215Z AUTO 26011KT 8SM OVC060 07/04 A3007 -80 79 -1000 280/11 RMK AO2 T00720039 TSNO
14756KACK ACK20160307212011603/07/16 21:20:31  5-MIN KACK 080220Z AUTO 26012KT 8SM OVC060 07/04 A3006 -80 79 -1000 280/12 RMK AO2 T00720039 TSNO
14756KACK ACK20160307212511603/07/16 21:25:31  5-MIN KACK 080225Z AUTO 27012KT 8SM OVC060 07/04 A3006 -80 79 -1000 280/12 RMK AO2 T00720039 TSNO
14756KACK ACK20160307213011603/07/16 21:30:31  5-MIN KACK 080230Z AUTO 26012KT 8SM OVC060 07/04 A3006 -80 79 -1000 280/12 RMK AO2 T00720039 TSNO
14756KACK ACK20160307213511503/07/16 21:35:31  5-MIN KACK 080235Z AUTO 27013KT 8SM OVC060 07/04 A3006 -80 79 -900 280/13 RMK AO2 T00720039 TSNO
14756KACK ACK20160307214011503/07/16 21:40:31  5-MIN KACK 080240Z AUTO 27012KT 8SM OVC060 07/04 A3006 -80 79 -900 290/12 RMK AO2 T00720039 TSNO
14756KACK ACK20160307214511603/07/16 21:45:31  5-MIN KACK 080245Z AUTO 28011KT 8SM OVC060 07/04 A3006 -80 79 -1000 290/11 RMK AO2 T00720039 TSNO
14756KACK ACK20160307215012903/07/16 21:50:31  5-MIN KACK 080250Z AUTO 27013KT 8SM OVC060 07/04 A3006 -80 79 -1000 290/13 RMK AO2 SLP180 T00720039 53012 TSNO
14756KACK ACK20160307215511503/07/16 21:55:31  5-MIN KACK 080255Z AUTO 27013KT 8SM OVC055 07/04 A3006 -80 79 -900 290/13 RMK AO2 T00720039 TSNO
14756KACK ACK20160307220011503/07/16 22:00:31  5-MIN KACK 080300Z AUTO 27013KT 8SM OVC055 07/04 A3006 -80 79 -900 280/13 RMK AO2 T00720039 TSNO
14756KACK ACK20160307220511503/07/16 22:05:31  5-MIN KACK 080305Z AUTO 27012KT 8SM OVC055 07/04 A3006 -80 79 -900 280/12 RMK AO2 T00720039 TSNO
14756KACK ACK20160307221011503/07/16 22:10:31  5-MIN KACK 080310Z AUTO 27013KT 8SM OVC055 07/04 A3006 -70 79 -900 280/13 RMK AO2 T00720039 TSNO
14756KACK ACK20160307221511503/07/16 22:15:31  5-MIN KACK 080315Z AUTO 26014KT 8SM OVC055 07/04 A3006 -70 79 -900 280/14 RMK AO2 T00720039 TSNO
14756KACK ACK20160307222011503/07/16 22:20:31  5-MIN KACK 080320Z AUTO 27013KT 8SM OVC060 07/04 A3006 -70 79 -900 280/13 RMK AO2 T00720039 TSNO
14756KACK ACK20160307222511503/07/16 22:25:31  5-MIN KACK 080325Z AUTO 27011KT 8SM OVC060 07/04 A3006 -70 79 -900 290/11 RMK AO2 T00720039 TSNO
14756KACK ACK20160307223011503/07/16 22:30:31  5-MIN KACK 080330Z AUTO 27011KT 8SM OVC060 07/04 A3006 -70 79 -900 280/11 RMK AO2 T00720039 TSNO
14756KACK ACK20160307223511503/07/16 22:35:31  5-MIN KACK 080335Z AUTO 27011KT 8SM OVC060 07/04 A3005 -70 79 -900 290/11 RMK AO2 T00720039 TSNO
14756KACK ACK20160307224011503/07/16 22:40:31  5-MIN KACK 080340Z AUTO 27012KT 8SM BKN060 07/04 A3005 -70 79 -900 290/12 RMK AO2 T00720039 TSNO
14756KACK ACK20160307224511603/07/16 22:45:31  5-MIN KACK 080345Z AUTO 28011KT 8SM BKN060 07/04 A3005 -70 82 -1000 290/11 RMK AO2 T00670039 TSNO
14756KACK ACK20160307225012303/07/16 22:50:31  5-MIN KACK 080350Z AUTO 27010KT 8SM SCT060 07/04 A3005 -70 82 -1000 290/10 RMK AO2 SLP176 T00670039 TSNO
14756KACK ACK20160307225511603/07/16 22:55:31  5-MIN KACK 080355Z AUTO 28011KT 8SM FEW060 07/04 A3005 -70 82 -1000 290/11 RMK AO2 T00670039 TSNO
14756KACK ACK20160307230011603/07/16 23:00:31  5-MIN KACK 080400Z AUTO 27011KT 8SM FEW060 07/04 A3005 -70 82 -1000 290/11 RMK AO2 T00670039 TSNO
14756KACK ACK20160307230511303/07/16 23:05:31  5-MIN KACK 080405Z AUTO 27010KT 7SM CLR 07/04 A3005 -60 82 -1000 290/10 RMK AO2 T00670039 TSNO
14756KACK ACK20160307231011303/07/16 23:10:31  5-MIN KACK 080410Z AUTO 28010KT 7SM CLR 07/04 A3005 -60 82 -1000 300/10 RMK AO2 T00670039 TSNO
14756KACK ACK20160307231511303/07/16 23:15:31  5-MIN KACK 080415Z AUTO 28010KT 7SM CLR 07/04 A3005 -60 82 -1000 300/10 RMK AO2 T00670039 TSNO
14756KACK ACK20160307232011303/07/16 23:20:31  5-MIN KACK 080420Z AUTO 28009KT 7SM CLR 07/04 A3005 -70 82 -1000 300/09 RMK AO2 T00670039 TSNO
14756KACK ACK20160307232511303/07/16 23:25:31  5-MIN KACK 080425Z AUTO 28011KT 7SM CLR 07/04 A3005 -70 82 -1000 290/11 RMK AO2 T00670039 TSNO
14756KACK ACK20160307233011303/07/16 23:30:31  5-MIN KACK 080430Z AUTO 28011KT 7SM CLR 07/04 A3005 -70 82 -1000 300/11 RMK AO2 T00670039 TSNO
14756KACK ACK20160307233511303/07/16 23:35:31  5-MIN KACK 080435Z AUTO 29009KT 7SM CLR 07/04 A3005 -70 82 -1000 300/09 RMK AO2 T00670039 TSNO
14756KACK ACK20160307234011303/07/16 23:40:31  5-MIN KACK 080440Z AUTO 29008KT 7SM CLR 07/04 A3005 -70 82 -1000 310/08 RMK AO2 T00670039 TSNO
14756KACK ACK20160307234511303/07/16 23:45:31  5-MIN KACK 080445Z AUTO 29008KT 8SM CLR 07/04 A3005 -70 82 -1000 310/08 RMK AO2 T00670039 TSNO
14756KACK ACK20160307235013003/07/16 23:50:31  5-MIN KACK 080450Z AUTO 29008KT 8SM CLR 07/04 A3005 -70 82 -1000 310/08 RMK AO2 SLP176 T00670039 400781033 TSNO
14756KACK ACK20160307235511303/07/16 23:55:31  5-MIN KACK 080455Z AUTO 30008KT 8SM CLR 07/04 A3005 -70 82 -1000 310/08 RMK AO2 T00670039 TSNO
14756KACK ACK20160308000011303/08/16 00:00:31  5-MIN KACK 080500Z AUTO 31007KT 8SM CLR 07/04 A3005 -70 82 -1000 320/07 RMK AO2 T00670039 TSNO
14756KACK ACK20160308000511303/08/16 00:05:31  5-MIN KACK 080505Z AUTO 30007KT 8SM CLR 07/04 A3005 -70 82 -1000 320/07 RMK AO2 T00670039 TSNO
14756KACK ACK20160308001011303/08/16 00:10:31  5-MIN KACK 080510Z AUTO 30007KT 7SM CLR 06/03 A3005 -70 82 -1100 320/07 RMK AO2 T00610033 TSNO
14756KACK ACK20160308001511303/08/16 00:15:31  5-MIN KACK 080515Z AUTO 31008KT 7SM CLR 06/03 A3005 -70 82 -1100 320/08 RMK AO2 T00610033 TSNO
14756KACK ACK20160308002011303/08/16 00:20:31  5-MIN KACK 080520Z AUTO 31007KT 7SM CLR 06/03 A3005 -70 82 -1100 320/07 RMK AO2 T00610033 TSNO
14756KACK ACK20160308002511303/08/16 00:25:31  5-MIN KACK 080525Z AUTO 31006KT 7SM CLR 06/03 A3005 -70 82 -1100 330/06 RMK AO2 T00610033 TSNO
14756KACK ACK20160308003011303/08/16 00:30:31  5-MIN KACK 080530Z AUTO 32007KT 7SM CLR 06/03 A3005 -70 82 -1100 330/07 RMK AO2 T00610033 TSNO
14756KACK ACK20160308003511303/08/16 00:35:31  5-MIN KACK 080535Z AUTO 31007KT 7SM CLR 06/03 A3005 -70 82 -1100 320/07 RMK AO2 T00610033 TSNO
14756KACK ACK20160308004011603/08/16 00:40:31  5-MIN KACK 080540Z AUTO 31007KT 7SM FEW060 06/03 A3005 -70 82 -1100 330/07 RMK AO2 T00610033 TSNO
14756KACK ACK20160308004511603/08/16 00:45:31  5-MIN KACK 080545Z AUTO 32006KT 7SM SCT060 06/03 A3006 -70 85 -1100 330/06 RMK AO2 T00560033 TSNO
14756KACK ACK20160308005014103/08/16 00:50:31  5-MIN KACK 080550Z AUTO 32005KT 7SM BKN060 06/03 A3006 -70 85 -1100 340/05 RMK AO2 SLP178 T00560033 10072 20056 58002 TSNO
14756KACK ACK20160308005511603/08/16 00:55:31  5-MIN KACK 080555Z AUTO 32005KT 7SM BKN060 06/03 A3006 -70 85 -1100 340/05 RMK AO2 T00560033 TSNO
14756KACK ACK20160308010011603/08/16 01:00:31  5-MIN KACK 080600Z AUTO 32005KT 7SM BKN060 06/03 A3006 -70 82 -1100 330/05 RMK AO2 T00610033 TSNO
14756KACK ACK20160308010511603/08/16 01:05:31  5-MIN KACK 080605Z AUTO 33006KT 7SM OVC060 06/04 A3006 -70 86 -1100 350/06 RMK AO2 T00610039 TSNO
14756KACK ACK20160308011011603/08/16 01:10:31  5-MIN KACK 080610Z AUTO 34006KT 7SM OVC060 06/03 A3006 -70 82 -1100 360/06 RMK AO2 T00610033 TSNO
14756KACK ACK20160308011511603/08/16 01:15:31  5-MIN KACK 080615Z AUTO 34007KT 7SM OVC060 06/04 A3006 -70 86 -1100 350/07 RMK AO2 T00610039 TSNO
14756KACK ACK20160308012011603/08/16 01:20:31  5-MIN KACK 080620Z AUTO 34006KT 7SM OVC060 06/03 A3006 -70 82 -1100 350/06 RMK AO2 T00610033 TSNO
14756KACK ACK20160308012511603/08/16 01:25:31  5-MIN KACK 080625Z AUTO 33006KT 7SM OVC060 06/03 A3006 -70 82 -1100 350/06 RMK AO2 T00610033 TSNO
14756KACK ACK20160308013011603/08/16 01:30:31  5-MIN KACK 080630Z AUTO 33006KT 7SM BKN060 06/03 A3006 -70 85 -1100 350/06 RMK AO2 T00560033 TSNO
14756KACK ACK20160308013511603/08/16 01:35:31  5-MIN KACK 080635Z AUTO 34006KT 7SM BKN060 06/03 A3006 -70 85 -1100 350/06 RMK AO2 T00560033 TSNO
14756KACK ACK20160308014011603/08/16 01:40:31  5-MIN KACK 080640Z AUTO 34006KT 7SM BKN060 06/03 A3006 -70 82 -1100 360/06 RMK AO2 T00560028 TSNO
14756KACK ACK20160308014511603/08/16 01:45:31  5-MIN KACK 080645Z AUTO 34006KT 7SM BKN060 05/03 A3006 -70 85 -1200 350/06 RMK AO2 T00500028 TSNO
14756KACK ACK20160308015012303/08/16 01:50:31  5-MIN KACK 080650Z AUTO 33006KT 7SM SCT060 05/03 A3005 -70 85 -1200 350/06 RMK AO2 SLP177 T00500028 TSNO
14756KACK ACK20160308015511603/08/16 01:55:31  5-MIN KACK 080655Z AUTO 33007KT 7SM BKN060 05/03 A3005 -70 85 -1200 350/07 RMK AO2 T00500028 TSNO
14756KACK ACK20160308020011603/08/16 02:00:31  5-MIN KACK 080700Z AUTO 33007KT 7SM BKN060 06/03 A3005 -70 82 -1100 350/07 RMK AO2 T00560028 TSNO
14756KACK ACK20160308020511603/08/16 02:05:31  5-MIN KACK 080705Z AUTO 34007KT 7SM BKN060 06/03 A3005 -70 82 -1100 360/07 RMK AO2 T00560028 TSNO
14756KACK ACK20160308021011603/08/16 02:10:31  5-MIN KACK 080710Z AUTO 34007KT 7SM BKN060 06/03 A3005 -70 82 -1100 350/07 RMK AO2 T00560028 TSNO
14756KACK ACK20160308021511603/08/16 02:15:31  5-MIN KACK 080715Z AUTO 33007KT 8SM BKN060 06/03 A3005 -70 82 -1100 350/07 RMK AO2 T00560028 TSNO
14756KACK ACK20160308022011603/08/16 02:20:31  5-MIN KACK 080720Z AUTO 34007KT 8SM BKN060 06/03 A3005 -70 82 -1100 360/07 RMK AO2 T00560028 TSNO
14756KACK ACK20160308022511603/08/16 02:25:31  5-MIN KACK 080725Z AUTO 35007KT 8SM BKN060 06/03 A3005 -70 82 -1100 010/07 RMK AO2 T00560028 TSNO
14756KACK ACK20160308023011603/08/16 02:30:31  5-MIN KACK 080730Z AUTO 35008KT 7SM SCT060 06/03 A3006 -70 82 -1100 360/08 RMK AO2 T00560028 TSNO
14756KACK ACK20160308023511603/08/16 02:35:31  5-MIN KACK 080735Z AUTO 35010KT 7SM SCT060 06/03 A3006 -70 82 -1100 010/10 RMK AO2 T00560028 TSNO
14756KACK ACK20160308024011603/08/16 02:40:31  5-MIN KACK 080740Z AUTO 36010KT 8SM FEW060 06/03 A3006 -70 82 -1100 010/10 RMK AO2 T00560028 TSNO
14756KACK ACK20160308024511603/08/16 02:45:31  5-MIN KACK 080745Z AUTO 36010KT 8SM FEW060 06/03 A3006 -70 82 -1100 020/10 RMK AO2 T00560028 TSNO
14756KACK ACK20160308025012003/08/16 02:50:31  5-MIN KACK 080750Z AUTO 36010KT 8SM CLR 06/03 A3006 -70 82 -1100 020/10 RMK AO2 SLP178 T00560028 TSNO
14756KACK ACK20160308025511303/08/16 02:55:31  5-MIN KACK 080755Z AUTO 01009KT 7SM CLR 05/03 A3006 -70 85 -1200 020/09 RMK AO2 T00500028 TSNO
14756KACK ACK20160308030011303/08/16 03:00:31  5-MIN KACK 080800Z AUTO 36009KT 7SM CLR 05/03 A3006 -80 85 -1200 020/09 RMK AO2 T00500028 TSNO
14756KACK ACK20160308030511303/08/16 03:05:31  5-MIN KACK 080805Z AUTO 36008KT 7SM CLR 05/03 A3006 -80 85 -1200 020/08 RMK AO2 T00500028 TSNO
14756KACK ACK20160308031011303/08/16 03:10:31  5-MIN KACK 080810Z AUTO 36007KT 7SM CLR 05/03 A3006 -80 85 -1200 020/07 RMK AO2 T00500028 TSNO
14756KACK ACK20160308031511303/08/16 03:15:31  5-MIN KACK 080815Z AUTO 01008KT 7SM CLR 05/02 A3006 -80 82 -1200 020/08 RMK AO2 T00500022 TSNO
14756KACK ACK20160308032011603/08/16 03:20:31  5-MIN KACK 080820Z AUTO 01007KT 7SM FEW065 04/02 A3006 -80 85 -1300 020/07 RMK AO2 T00440022 TSNO
14756KACK ACK20160308032511603/08/16 03:25:31  5-MIN KACK 080825Z AUTO 36007KT 7SM SCT060 04/02 A3006 -80 85 -1300 020/07 RMK AO2 T00440022 TSNO
14756KACK ACK20160308033011603/08/16 03:30:31  5-MIN KACK 080830Z AUTO 01008KT 7SM BKN060 05/02 A3006 -70 82 -1200 020/08 RMK AO2 T00500022 TSNO
14756KACK ACK20160308033511603/08/16 03:35:31  5-MIN KACK 080835Z AUTO 01008KT 7SM BKN060 05/02 A3006 -80 82 -1200 020/08 RMK AO2 T00500022 TSNO
14756KACK ACK20160308034011603/08/16 03:40:31  5-MIN KACK 080840Z AUTO 01008KT 8SM BKN060 05/02 A3006 -80 82 -1200 020/08 RMK AO2 T00500022 TSNO
14756KACK ACK20160308034511603/08/16 03:45:31  5-MIN KACK 080845Z AUTO 01008KT 8SM BKN060 04/02 A3006 -80 85 -1300 020/08 RMK AO2 T00440022 TSNO
14756KACK ACK20160308035012903/08/16 03:50:31  5-MIN KACK 080850Z AUTO 01008KT 8SM BKN060 04/02 A3007 -80 85 -1300 020/08 RMK AO2 SLP181 T00440022 55002 TSNO
14756KACK ACK20160308035511603/08/16 03:55:31  5-MIN KACK 080855Z AUTO 01008KT 8SM BKN060 04/02 A3007 -80 85 -1300 020/08 RMK AO2 T00440022 TSNO
14756KACK ACK20160308040011603/08/16 04:00:31  5-MIN KACK 080900Z AUTO 01009KT 8SM BKN060 04/02 A3007 -80 82 -1300 020/09 RMK AO2 T00440017 TSNO
14756KACK ACK20160308040511603/08/16 04:05:31  5-MIN KACK 080905Z AUTO 01009KT 8SM SCT060 04/02 A3007 -80 82 -1300 020/09 RMK AO2 T00440017 TSNO
14756KACK ACK20160308041011603/08/16 04:10:31  5-MIN KACK 080910Z AUTO 01008KT 8SM FEW060 04/02 A3007 -90 82 -1300 020/08 RMK AO2 T00440017 TSNO
14756KACK ACK20160308041511603/08/16 04:15:31  5-MIN KACK 080915Z AUTO 01008KT 8SM FEW060 04/02 A3008 -90 82 -1300 020/08 RMK AO2 T00440017 TSNO
14756KACK ACK20160308042011603/08/16 04:20:31  5-MIN KACK 080920Z AUTO 01008KT 9SM FEW060 04/02 A3008 -90 82 -1300 020/08 RMK AO2 T00440017 TSNO
14756KACK ACK20160308042511403/08/16 04:25:31  5-MIN KACK 080925Z AUTO 01008KT 9SM CLR 04/02 A3008 -100 82 -1300 020/08 RMK AO2 T00440017 TSNO
14756KACK ACK20160308043011403/08/16 04:30:31  5-MIN KACK 080930Z AUTO 01008KT 9SM CLR 04/02 A3009 -100 82 -1300 020/08 RMK AO2 T00440017 TSNO
14756KACK ACK20160308043511403/08/16 04:35:31  5-MIN KACK 080935Z AUTO 36008KT 9SM CLR 04/02 A3009 -100 82 -1300 020/08 RMK AO2 T00440017 TSNO
14756KACK ACK20160308044011403/08/16 04:40:31  5-MIN KACK 080940Z AUTO 36009KT 9SM CLR 04/02 A3009 -100 82 -1300 020/09 RMK AO2 T00440017 TSNO
14756KACK ACK20160308044511403/08/16 04:45:31  5-MIN KACK 080945Z AUTO 36009KT 9SM CLR 04/01 A3009 -100 79 -1300 020/09 RMK AO2 T00440011 TSNO
14756KACK ACK20160308045012103/08/16 04:50:31  5-MIN KACK 080950Z AUTO 36009KT 9SM CLR 04/01 A3009 -100 79 -1300 020/09 RMK AO2 SLP188 T00440011 TSNO
14756KACK ACK20160308045511403/08/16 04:55:31  5-MIN KACK 080955Z AUTO 36009KT 9SM CLR 04/01 A3009 -100 79 -1300 020/09 RMK AO2 T00440011 TSNO
14756KACK ACK20160308050011503/08/16 05:00:31  5-MIN KACK 081000Z AUTO 36010KT 10SM CLR 04/01 A3009 -100 79 -1300 020/10 RMK AO2 T00440011 TSNO
14756KACK ACK20160308050511503/08/16 05:05:31  5-MIN KACK 081005Z AUTO 36010KT 10SM CLR 04/01 A3009 -100 79 -1300 020/10 RMK AO2 T00440011 TSNO
14756KACK ACK20160308051011503/08/16 05:10:31  5-MIN KACK 081010Z AUTO 36011KT 10SM CLR 04/01 A3009 -100 79 -1300 020/11 RMK AO2 T00440011 TSNO
14756KACK ACK20160308051511503/08/16 05:15:31  5-MIN KACK 081015Z AUTO 01012KT 10SM CLR 05/01 A3009 -100 76 -1300 020/12 RMK AO2 T00500011 TSNO
14756KACK ACK20160308052011503/08/16 05:20:31  5-MIN KACK 081020Z AUTO 36010KT 10SM CLR 05/01 A3009 -100 76 -1300 020/10 RMK AO2 T00500011 TSNO
14756KACK ACK20160308052511503/08/16 05:25:31  5-MIN KACK 081025Z AUTO 36010KT 10SM CLR 04/01 A3009 -110 79 -1300 020/10 RMK AO2 T00440011 TSNO
14756KACK ACK20160308053011503/08/16 05:30:31  5-MIN KACK 081030Z AUTO 36009KT 10SM CLR 04/01 A3010 -110 79 -1300 020/09 RMK AO2 T00440011 TSNO
14756KACK ACK20160308053511503/08/16 05:35:31  5-MIN KACK 081035Z AUTO 36009KT 10SM CLR 04/01 A3010 -110 79 -1300 020/09 RMK AO2 T00440011 TSNO
14756KACK ACK20160308054011503/08/16 05:40:31  5-MIN KACK 081040Z AUTO 36009KT 10SM CLR 04/01 A3010 -110 79 -1300 020/09 RMK AO2 T00440011 TSNO
14756KACK ACK20160308054511503/08/16 05:45:31  5-MIN KACK 081045Z AUTO 01010KT 10SM CLR 04/01 A3010 -110 79 -1300 020/10 RMK AO2 T00440011 TSNO
14756KACK ACK20160308055012203/08/16 05:50:31  5-MIN KACK 081050Z AUTO 36010KT 10SM CLR 04/01 A3010 -110 79 -1300 020/10 RMK AO2 SLP193 T00440011 TSNO
14756KACK ACK20160308055511503/08/16 05:55:31  5-MIN KACK 081055Z AUTO 36010KT 10SM CLR 04/01 A3010 -120 79 -1300 020/10 RMK AO2 T00440011 TSNO
14756KACK ACK20160308060010503/08/16 06:00:31  5-MIN KACK 081100Z 36010KT 10SM CLR 04/01 A3010 -120 79 -1300 010/10 RMK AO2 T00440011
14756KACK ACK20160308060510403/08/16 06:05:31  5-MIN KACK 081105Z 36011KT 9SM CLR 04/01 A3010 -110 79 -1300 020/11 RMK AO2 T00440011
14756KACK ACK20160308061010403/08/16 06:10:31  5-MIN KACK 081110Z 01012KT 9SM CLR 04/01 A3010 -110 79 -1300 020/12 RMK AO2 T00440011
14756KACK ACK20160308061510403/08/16 06:15:31  5-MIN KACK 081115Z 01011KT 9SM CLR 04/01 A3010 -110 79 -1300 020/11 RMK AO2 T00440011
14756KACK ACK20160308062010403/08/16 06:20:31  5-MIN KACK 081120Z 36009KT 9SM CLR 04/01 A3010 -110 79 -1300 020/09 RMK AO2 T00440011
14756KACK ACK20160308062510403/08/16 06:25:31  5-MIN KACK 081125Z 36009KT 9SM CLR 04/02 A3011 -120 82 -1300 020/09 RMK AO2 T00440017
14756KACK ACK20160308063010403/08/16 06:30:31  5-MIN KACK 081130Z 35008KT 9SM CLR 04/02 A3011 -120 82 -1300 010/08 RMK AO2 T00440017
14756KACK ACK20160308063510403/08/16 06:35:31  5-MIN KACK 081135Z 36008KT 9SM CLR 05/02 A3012 -130 79 -1300 010/08 RMK AO2 T00500017
14756KACK ACK20160308064010403/08/16 06:40:31  5-MIN KACK 081140Z 36008KT 9SM CLR 05/02 A3012 -130 79 -1300 020/08 RMK AO2 T00500017
14756KACK ACK20160308064510403/08/16 06:45:31  5-MIN KACK 081145Z 36008KT 9SM CLR 05/02 A3012 -130 79 -1300 020/08 RMK AO2 T00500017
14756KACK ACK20160308065012903/08/16 06:50:31  5-MIN KACK 081150Z 01008KT 9SM CLR 06/02 A3012 -130 76 -1200 020/08 RMK AO2 SLP200 T00560017 10061 20044 53002
14756KACK ACK20160308065510403/08/16 06:55:31  5-MIN KACK 081155Z 01008KT 9SM CLR 06/02 A3012 -130 76 -1200 020/08 RMK AO2 T00560017
14756KACK ACK20160308070010503/08/16 07:00:31  5-MIN KACK 081200Z 36007KT 10SM CLR 06/02 A3013 -140 79 -1200 010/07 RMK AO2 T00560022
14756KACK ACK20160308070510503/08/16 07:05:31  5-MIN KACK 081205Z 36008KT 10SM CLR 06/02 A3013 -140 79 -1200 020/08 RMK AO2 T00560022
14756KACK ACK20160308071010503/08/16 07:10:31  5-MIN KACK 081210Z 36009KT 10SM CLR 06/02 A3013 -140 76 -1200 020/09 RMK AO2 T00610022
14756KACK ACK20160308071510503/08/16 07:15:31  5-MIN KACK 081215Z 35008KT 10SM CLR 06/02 A3014 -150 76 -1200 010/08 RMK AO2 T00610022
14756KACK ACK20160308072010503/08/16 07:20:31  5-MIN KACK 081220Z 36008KT 10SM CLR 06/02 A3014 -150 76 -1200 020/08 RMK AO2 T00610022
14756KACK ACK20160308072510503/08/16 07:25:31  5-MIN KACK 081225Z 36008KT 10SM CLR 07/03 A3014 -150 76 -1100 010/08 RMK AO2 T00670028
14756KACK ACK20160308073010503/08/16 07:30:31  5-MIN KACK 081230Z 36008KT 10SM CLR 07/03 A3015 -150 76 -1100 010/08 RMK AO2 T00670028
14756KACK ACK20160308073510503/08/16 07:35:31  5-MIN KACK 081235Z 35007KT 10SM CLR 07/02 A3015 -150 73 -1100 010/07 RMK AO2 T00670022
14756KACK ACK20160308074010503/08/16 07:40:31  5-MIN KACK 081240Z 35007KT 10SM CLR 07/03 A3015 -160 76 -1100 010/07 RMK AO2 T00670028
14756KACK ACK20160308074510503/08/16 07:45:31  5-MIN KACK 081245Z 36009KT 10SM CLR 07/02 A3015 -160 73 -1100 010/09 RMK AO2 T00670022
14756KACK ACK20160308075011203/08/16 07:50:31  5-MIN KACK 081250Z 36008KT 10SM CLR 07/02 A3015 -160 70 -1100 010/08 RMK AO2 SLP210 T00720022
14756KACK ACK20160308075510503/08/16 07:55:31  5-MIN KACK 081255Z 36007KT 10SM CLR 07/02 A3015 -160 70 -1100 020/07 RMK AO2 T00720022
14756KACK ACK20160308080010503/08/16 08:00:31  5-MIN KACK 081300Z 36007KT 10SM CLR 07/03 A3015 -160 73 -1100 020/07 RMK AO2 T00720028
14756KACK ACK20160308080510503/08/16 08:05:31  5-MIN KACK 081305Z 36009KT 10SM CLR 07/02 A3015 -160 70 -1100 010/09 RMK AO2 T00720022
14756KACK ACK20160308081010503/08/16 08:10:31  5-MIN KACK 081310Z 36009KT 10SM CLR 07/02 A3015 -160 70 -1100 020/09 RMK AO2 T00720022
14756KACK ACK20160308081510503/08/16 08:15:31  5-MIN KACK 081315Z 36011KT 10SM CLR 07/02 A3015 -160 70 -1100 020/11 RMK AO2 T00720022
14756KACK ACK20160308082010503/08/16 08:20:31  5-MIN KACK 081320Z 01010KT 10SM CLR 07/02 A3015 -160 70 -1000 020/10 RMK AO2 T00720022
14756KACK ACK20160308082510503/08/16 08:25:31  5-MIN KACK 081325Z 36009KT 10SM CLR 08/02 A3015 -160 68 -1000 020/09 RMK AO2 T00780022
14756KACK ACK20160308083010503/08/16 08:30:31  5-MIN KACK 081330Z 36010KT 10SM CLR 08/02 A3015 -160 68 -1000 020/10 RMK AO2 T00780022
14756KACK ACK20160308083510503/08/16 08:35:31  5-MIN KACK 081335Z 02010KT 10SM CLR 08/02 A3016 -160 68 -1000 030/10 RMK AO2 T00780022
14756KACK ACK20160308084010503/08/16 08:40:31  5-MIN KACK 081340Z 01009KT 10SM CLR 08/03 A3016 -170 70 -1000 030/09 RMK AO2 T00780028
14756KACK ACK20160308084510503/08/16 08:45:31  5-MIN KACK 081345Z 02009KT 10SM CLR 08/03 A3016 -160 70 -1000 030/09 RMK AO2 T00780028
14756KACK ACK20160308085011103/08/16 08:50:31  5-MIN KACK 081350Z 04009KT 10SM CLR 08/03 A3015 -160 68 -900 050/09 RMK AO2 SLP211 T00830028
14756KACK ACK20160308085510403/08/16 08:55:31  5-MIN KACK 081355Z 02008KT 10SM CLR 08/03 A3016 -160 68 -900 030/08 RMK AO2 T00830028
14756KACK ACK20160308090010403/08/16 09:00:31  5-MIN KACK 081400Z 01009KT 10SM CLR 08/03 A3016 -160 68 -900 020/09 RMK AO2 T00830028
14756KACK ACK20160308090510403/08/16 09:05:31  5-MIN KACK 081405Z 01007KT 10SM CLR 08/03 A3015 -160 68 -900 030/07 RMK AO2 T00830028
14756KACK ACK20160308091010403/08/16 09:10:31  5-MIN KACK 081410Z 01008KT 10SM CLR 09/03 A3016 -160 65 -900 030/08 RMK AO2 T00890028
14756KACK ACK20160308091510403/08/16 09:15:31  5-MIN KACK 081415Z 03007KT 10SM CLR 09/03 A3016 -170 65 -900 050/07 RMK AO2 T00890028
14756KACK ACK20160308092010403/08/16 09:20:31  5-MIN KACK 081420Z 02005KT 10SM CLR 09/03 A3016 -170 65 -900 040/05 RMK AO2 T00890028
14756KACK ACK20160308092510403/08/16 09:25:31  5-MIN KACK 081425Z 02007KT 10SM CLR 09/03 A3016 -170 63 -800 030/07 RMK AO2 T00940028
14756KACK ACK20160308093010403/08/16 09:30:31  5-MIN KACK 081430Z 04006KT 10SM CLR 09/03 A3016 -160 63 -800 050/06 RMK AO2 T00940028
14756KACK ACK20160308093510403/08/16 09:35:31  5-MIN KACK 081435Z 05007KT 10SM CLR 09/02 A3016 -170 60 -900 070/07 RMK AO2 T00890017
14756KACK ACK20160308094010403/08/16 09:40:31  5-MIN KACK 081440Z 04005KT 10SM CLR 09/02 A3016 -170 60 -800 060/05 RMK AO2 T00940022
14756KACK ACK20160308094510403/08/16 09:45:31  5-MIN KACK 081445Z 04007KT 10SM CLR 09/02 A3016 -170 60 -800 050/07 RMK AO2 T00940022
14756KACK ACK20160308095011703/08/16 09:50:31  5-MIN KACK 081450Z 02006KT 10SM CLR 10/02 A3017 -170 58 -700 040/06 RMK AO2 SLP215 T01000022 51020
14756KACK ACK20160308095510403/08/16 09:55:31  5-MIN KACK 081455Z VRB06KT 10SM CLR 10/02 A3017 -170 58 -700 VRB/06 RMK AO2 T01000022
14756KACK ACK20160308100010403/08/16 10:00:31  5-MIN KACK 081500Z 08006KT 10SM CLR 09/02 A3017 -170 58 -800 090/06 RMK AO2 T00940017
14756KACK ACK20160308100510403/08/16 10:05:31  5-MIN KACK 081505Z 05007KT 10SM CLR 09/02 A3017 -170 58 -800 070/07 RMK AO2 T00940017
14756KACK ACK20160308101010403/08/16 10:10:31  5-MIN KACK 081510Z 07006KT 10SM CLR 09/02 A3017 -170 58 -800 080/06 RMK AO2 T00940017
14756KACK ACK20160308101510403/08/16 10:15:31  5-MIN KACK 081515Z 04008KT 10SM CLR 10/02 A3017 -170 56 -700 050/08 RMK AO2 T01000017
14756KACK ACK20160308102010403/08/16 10:20:31  5-MIN KACK 081520Z 07009KT 10SM CLR 10/02 A3017 -170 56 -700 080/09 RMK AO2 T01000017
14756KACK ACK20160308102510403/08/16 10:25:31  5-MIN KACK 081525Z 04007KT 10SM CLR 10/02 A3017 -170 56 -700 060/07 RMK AO2 T01000017
14756KACK ACK20160308103009403/08/16 10:30:31  5-MIN KACK 081530Z 10SM CLR 09/02 A3017 -180 58 -800 M /M RMK AO2 T00940017
14756KACK ACK20160308103510403/08/16 10:35:31  5-MIN KACK 081535Z 03009KT 10SM CLR 10/02 A3017 -170 56 -700 050/09 RMK AO2 T01000017
14756KACK ACK20160308104010403/08/16 10:40:31  5-MIN KACK 081540Z 06008KT 10SM CLR 10/02 A3016 -170 58 -700 070/08 RMK AO2 T01000022
14756KACK ACK20160308104510403/08/16 10:45:31  5-MIN KACK 081545Z 06007KT 10SM CLR 10/02 A3016 -170 58 -700 070/07 RMK AO2 T01000022
14756KACK ACK20160308105011103/08/16 10:50:31  5-MIN KACK 081550Z 06009KT 10SM CLR 10/02 A3016 -170 58 -700 080/09 RMK AO2 SLP213 T01000022
14756KACK ACK20160308105510403/08/16 10:55:31  5-MIN KACK 081555Z 08009KT 10SM CLR 10/02 A3016 -170 58 -700 090/09 RMK AO2 T01000022
14756KACK ACK20160308110010403/08/16 11:00:31  5-MIN KACK 081600Z 06008KT 10SM CLR 10/02 A3016 -170 58 -700 080/08 RMK AO2 T01000022
14756KACK ACK20160308110510403/08/16 11:05:31  5-MIN KACK 081605Z 10007KT 10SM CLR 09/02 A3016 -170 60 -800 110/07 RMK AO2 T00940022
14756KACK ACK20160308111010403/08/16 11:10:31  5-MIN KACK 081610Z 09006KT 10SM CLR 09/02 A3016 -170 58 -800 110/06 RMK AO2 T00940017
14756KACK ACK20160308111510403/08/16 11:15:31  5-MIN KACK 081615Z VRB05KT 10SM CLR 10/02 A3017 -170 58 -700 VRB/05 RMK AO2 T01000022
14756KACK ACK20160308112010403/08/16 11:20:31  5-MIN KACK 081620Z VRB06KT 10SM CLR 10/02 A3017 -170 58 -700 VRB/06 RMK AO2 T01000022
14756KACK ACK20160308112510403/08/16 11:25:31  5-MIN KACK 081625Z 06007KT 10SM CLR 11/02 A3017 -170 56 -700 070/07 RMK AO2 T01060022
14756KACK ACK20160308113010403/08/16 11:30:31  5-MIN KACK 081630Z 06005KT 10SM CLR 10/02 A3017 -170 58 -700 080/05 RMK AO2 T01000022
14756KACK ACK20160308113510403/08/16 11:35:31  5-MIN KACK 081635Z 08007KT 10SM CLR 10/02 A3017 -170 58 -700 090/07 RMK AO2 T01000022
14756KACK ACK20160308114010403/08/16 11:40:31  5-MIN KACK 081640Z 11008KT 10SM CLR 10/02 A3017 -170 58 -700 130/08 RMK AO2 T01000022
14756KACK ACK20160308114510403/08/16 11:45:31  5-MIN KACK 081645Z 11007KT 10SM CLR 10/02 A3017 -170 58 -700 120/07 RMK AO2 T01000022
14756KACK ACK20160308115011103/08/16 11:50:31  5-MIN KACK 081650Z 09007KT 10SM CLR 10/02 A3017 -170 58 -700 110/07 RMK AO2 SLP215 T01000022
14756KACK ACK20160308115510403/08/16 11:55:31  5-MIN KACK 081655Z 07005KT 10SM CLR 10/02 A3017 -170 58 -700 090/05 RMK AO2 T01000022
14756KACK ACK20160308120010703/08/16 12:00:31  5-MIN KACK 081700Z 06006KT 10SM FEW025 10/02 A3017 -170 58 -700 080/06 RMK AO2 T01000022
14756KACK ACK20160308120510703/08/16 12:05:31  5-MIN KACK 081705Z 08008KT 10SM FEW025 10/02 A3017 -180 58 -700 100/08 RMK AO2 T01000022
14756KACK ACK20160308121010403/08/16 12:10:31  5-MIN KACK 081710Z VRB06KT 10SM CLR 09/02 A3017 -180 60 -800 VRB/06 RMK AO2 T00940022
14756KACK ACK20160308121512003/08/16 12:15:31  5-MIN KACK 081715Z 09007KT 050V140 10SM CLR 11/02 A3017 -170 56 -700 110/07 070V160 RMK AO2 T01060022
14756KACK ACK20160308122010403/08/16 12:20:31  5-MIN KACK 081720Z 13009KT 10SM CLR 10/02 A3017 -170 56 -700 140/09 RMK AO2 T01000017
14756KACK ACK20160308122510703/08/16 12:25:31  5-MIN KACK 081725Z 13011KT 10SM FEW027 10/02 A3017 -170 56 -700 150/11 RMK AO2 T01000017
14756KACK ACK20160308123010703/08/16 12:30:31  5-MIN KACK 081730Z 13011KT 10SM FEW027 09/02 A3017 -170 58 -800 150/11 RMK AO2 T00940017
14756KACK ACK20160308123510703/08/16 12:35:31  5-MIN KACK 081735Z 14011KT 10SM FEW027 10/02 A3017 -170 58 -700 150/11 RMK AO2 T01000022
14756KACK ACK20160308124010703/08/16 12:40:31  5-MIN KACK 081740Z 14011KT 10SM SCT026 09/02 A3016 -170 60 -800 150/11 RMK AO2 T00940022
14756KACK ACK20160308124510703/08/16 12:45:31  5-MIN KACK 081745Z 13011KT 10SM SCT026 10/02 A3016 -170 58 -700 150/11 RMK AO2 T01000022
14756KACK ACK20160308125013203/08/16 12:50:31  5-MIN KACK 081750Z 14012KT 10SM SCT026 10/02 A3016 -170 56 -700 160/12 RMK AO2 SLP213 T01000017 10106 20056 51014
14756KACK ACK20160308125510703/08/16 12:55:31  5-MIN KACK 081755Z 14011KT 10SM SCT026 10/02 A3016 -160 56 -700 160/11 RMK AO2 T01000017
14756KACK ACK20160308130010703/08/16 13:00:31  5-MIN KACK 081800Z 14010KT 10SM SCT026 09/02 A3015 -160 58 -800 150/10 RMK AO2 T00940017
14756KACK ACK20160308130510703/08/16 13:05:31  5-MIN KACK 081805Z 14009KT 10SM SCT026 10/02 A3015 -160 56 -700 150/09 RMK AO2 T01000017
14756KACK ACK20160308131010703/08/16 13:10:31  5-MIN KACK 081810Z 15011KT 10SM SCT026 10/02 A3015 -160 56 -700 160/11 RMK AO2 T01000017
14756KACK ACK20160308131510703/08/16 13:15:31  5-MIN KACK 081815Z 15009KT 10SM FEW026 09/02 A3016 -160 58 -800 160/09 RMK AO2 T00940017
14756KACK ACK20160308132010703/08/16 13:20:31  5-MIN KACK 081820Z 15009KT 10SM FEW026 10/02 A3015 -160 56 -700 170/09 RMK AO2 T01000017
14756KACK ACK20160308132510703/08/16 13:25:31  5-MIN KACK 081825Z 15010KT 10SM FEW026 09/01 A3015 -160 56 -800 160/10 RMK AO2 T00940011
14756KACK ACK20160308133010703/08/16 13:30:31  5-MIN KACK 081830Z 15011KT 10SM FEW025 09/01 A3015 -160 56 -800 160/11 RMK AO2 T00940011
14756KACK ACK20160308133510703/08/16 13:35:31  5-MIN KACK 081835Z 15009KT 10SM FEW027 10/02 A3015 -160 56 -700 170/09 RMK AO2 T01000017
14756KACK ACK20160308134010703/08/16 13:40:31  5-MIN KACK 081840Z 14010KT 10SM SCT027 09/01 A3015 -160 56 -800 150/10 RMK AO2 T00940011
14756KACK ACK20160308134510703/08/16 13:45:31  5-MIN KACK 081845Z 15009KT 10SM SCT027 10/02 A3015 -160 56 -700 160/09 RMK AO2 T01000017
14756KACK ACK20160308135012103/08/16 13:50:31  5-MIN KACK 081850Z 13010KT 10SM SCT027 BKN100 10/02 A3015 -160 56 -700 150/10 RMK AO2 SLP209 T01000017
14756KACK ACK20160308135511403/08/16 13:55:31  5-MIN KACK 081855Z 14011KT 10SM SCT027 BKN100 10/02 A3015 -160 58 -700 160/11 RMK AO2 T01000022
14756KACK ACK20160308140011403/08/16 14:00:31  5-MIN KACK 081900Z 14010KT 10SM SCT026 BKN100 10/02 A3015 -160 58 -700 160/10 RMK AO2 T01000022
14756KACK ACK20160308140511403/08/16 14:05:31  5-MIN KACK 081905Z 13009KT 10SM FEW026 BKN100 09/02 A3015 -160 58 -800 140/09 RMK AO2 T00940017
14756KACK ACK20160308141011403/08/16 14:10:31  5-MIN KACK 081910Z 12008KT 10SM SCT026 OVC100 09/02 A3015 -160 58 -800 130/08 RMK AO2 T00940017
14756KACK ACK20160308141511403/08/16 14:15:31  5-MIN KACK 081915Z 13007KT 10SM SCT025 OVC100 09/02 A3015 -160 58 -800 150/07 RMK AO2 T00940017
14756KACK ACK20160308142011403/08/16 14:20:31  5-MIN KACK 081920Z 14009KT 10SM FEW025 OVC100 09/02 A3016 -160 63 -900 150/09 RMK AO2 T00890022
14756KACK ACK20160308142511403/08/16 14:25:31  5-MIN KACK 081925Z 13008KT 10SM FEW025 OVC100 08/02 A3015 -160 65 -900 140/08 RMK AO2 T00830022
14756KACK ACK20160308143011403/08/16 14:30:31  5-MIN KACK 081930Z 13009KT 10SM FEW025 OVC100 08/02 A3015 -160 65 -900 140/09 RMK AO2 T00830022
14756KACK ACK20160308143511503/08/16 14:35:31  5-MIN KACK 081935Z 11008KT 10SM FEW025 BKN100 08/02 A3015 -160 68 -1000 120/08 RMK AO2 T00780022
14756KACK ACK20160308144010703/08/16 14:40:31  5-MIN KACK 081940Z 12009KT 10SM BKN100 08/02 A3016 -160 65 -900 140/09 RMK AO2 T00830022
14756KACK ACK20160308144510703/08/16 14:45:31  5-MIN KACK 081945Z 11007KT 10SM SCT100 08/02 A3016 -170 65 -900 120/07 RMK AO2 T00830022
14756KACK ACK20160308145011503/08/16 14:50:31  5-MIN KACK 081950Z 12008KT 10SM FEW100 08/02 A3016 -170 68 -1000 140/08 RMK AO2 SLP213 T00780022
14756KACK ACK20160308145510703/08/16 14:55:31  5-MIN KACK 081955Z 11008KT 10SM FEW100 08/02 A3016 -160 65 -900 130/08 RMK AO2 T00830022
14756KACK ACK20160308150010403/08/16 15:00:31  5-MIN KACK 082000Z 13007KT 10SM CLR 09/02 A3016 -170 63 -900 140/07 RMK AO2 T00890022
14756KACK ACK20160308150510703/08/16 15:05:31  5-MIN KACK 082005Z 13008KT 10SM FEW100 09/02 A3016 -160 63 -900 150/08 RMK AO2 T00890022
14756KACK ACK20160308151010703/08/16 15:10:31  5-MIN KACK 082010Z 12008KT 10SM FEW100 09/02 A3016 -160 63 -900 130/08 RMK AO2 T00890022
14756KACK ACK20160308151510703/08/16 15:15:31  5-MIN KACK 082015Z 12008KT 10SM FEW100 08/02 A3016 -170 65 -900 140/08 RMK AO2 T00830022
14756KACK ACK20160308152010703/08/16 15:20:31  5-MIN KACK 082020Z 13008KT 10SM FEW100 08/02 A3016 -170 65 -900 150/08 RMK AO2 T00830022
14756KACK ACK20160308152510703/08/16 15:25:31  5-MIN KACK 082025Z 12008KT 10SM FEW100 08/02 A3016 -170 65 -900 130/08 RMK AO2 T00830022
14756KACK ACK20160308153010703/08/16 15:30:31  5-MIN KACK 082030Z 13009KT 10SM FEW100 08/02 A3016 -170 65 -900 150/09 RMK AO2 T00830022
14756KACK ACK20160308153510703/08/16 15:35:31  5-MIN KACK 082035Z 12009KT 10SM FEW100 08/02 A3016 -170 65 -900 140/09 RMK AO2 T00830022
14756KACK ACK20160308154010703/08/16 15:40:31  5-MIN KACK 082040Z 13008KT 10SM FEW100 08/02 A3016 -170 65 -900 140/08 RMK AO2 T00830022
14756KACK ACK20160308154510703/08/16 15:45:31  5-MIN KACK 082045Z 14009KT 10SM FEW100 08/02 A3016 -170 65 -900 150/09 RMK AO2 T00830022
14756KACK ACK20160308155012003/08/16 15:50:31  5-MIN KACK 082050Z 12009KT 10SM FEW100 08/02 A3016 -170 65 -900 140/09 RMK AO2 SLP214 T00830022 58003
14756KACK ACK20160308155510403/08/16 15:55:31  5-MIN KACK 082055Z 12008KT 10SM CLR 08/02 A3017 -170 65 -900 140/08 RMK AO2 T00830022
14756KACK ACK20160308160010403/08/16 16:00:31  5-MIN KACK 082100Z 13008KT 10SM CLR 08/02 A3016 -170 65 -900 150/08 RMK AO2 T00830022
14756KACK ACK20160308160510503/08/16 16:05:31  5-MIN KACK 082105Z 12009KT 10SM CLR 08/02 A3016 -170 68 -1000 130/09 RMK AO2 T00780022
14756KACK ACK20160308161010503/08/16 16:10:31  5-MIN KACK 082110Z 13010KT 10SM CLR 08/02 A3016 -170 68 -1000 140/10 RMK AO2 T00780022
14756KACK ACK20160308161510803/08/16 16:15:31  5-MIN KACK 082115Z 12009KT 10SM FEW110 08/02 A3016 -170 68 -1000 140/09 RMK AO2 T00780022
14756KACK ACK20160308162010803/08/16 16:20:31  5-MIN KACK 082120Z 12008KT 10SM FEW110 08/02 A3016 -170 68 -1000 140/08 RMK AO2 T00780022
14756KACK ACK20160308162510803/08/16 16:25:31  5-MIN KACK 082125Z 12009KT 10SM FEW110 08/02 A3017 -170 68 -1000 140/09 RMK AO2 T00780022
14756KACK ACK20160308163010803/08/16 16:30:31  5-MIN KACK 082130Z 12011KT 10SM FEW110 07/02 A3016 -170 70 -1100 140/11 RMK AO2 T00720022
14756KACK ACK20160308163510803/08/16 16:35:31  5-MIN KACK 082135Z 12008KT 10SM FEW110 07/02 A3016 -170 70 -1100 130/08 RMK AO2 T00720022
14756KACK ACK20160308164010803/08/16 16:40:31  5-MIN KACK 082140Z 12009KT 10SM FEW110 07/02 A3016 -170 70 -1100 140/09 RMK AO2 T00720022
14756KACK ACK20160308164510503/08/16 16:45:31  5-MIN KACK 082145Z 13009KT 10SM CLR 07/02 A3017 -170 70 -1100 140/09 RMK AO2 T00720022
14756KACK ACK20160308165011203/08/16 16:50:31  5-MIN KACK 082150Z 12009KT 10SM CLR 07/02 A3017 -170 70 -1100 140/09 RMK AO2 SLP214 T00720022
14756KACK ACK20160308165510503/08/16 16:55:31  5-MIN KACK 082155Z 12008KT 10SM CLR 07/02 A3017 -170 70 -1100 140/08 RMK AO2 T00720022
14756KACK ACK20160308170010503/08/16 17:00:31  5-MIN KACK 082200Z 12007KT 10SM CLR 07/02 A3017 -170 73 -1100 140/07 RMK AO2 T00670022
14756KACK ACK20160308170510503/08/16 17:05:31  5-MIN KACK 082205Z 12008KT 10SM CLR 07/02 A3017 -170 73 -1100 140/08 RMK AO2 T00670022
14756KACK ACK20160308171010503/08/16 17:10:31  5-MIN KACK 082210Z 13007KT 10SM CLR 06/02 A3017 -180 76 -1200 140/07 RMK AO2 T00610022
14756KACK ACK20160308171510503/08/16 17:15:31  5-MIN KACK 082215Z 13006KT 10SM CLR 06/03 A3017 -180 79 -1200 140/06 RMK AO2 T00610028
14756KACK ACK20160308172010503/08/16 17:20:31  5-MIN KACK 082220Z 13006KT 10SM CLR 06/02 A3018 -180 79 -1300 150/06 RMK AO2 T00560022
14756KACK ACK20160308172510403/08/16 17:25:31  5-MIN KACK 082225Z 13006KT 9SM CLR 06/02 A3018 -180 79 -1300 150/06 RMK AO2 T00560022
14756KACK ACK20160308173010403/08/16 17:30:31  5-MIN KACK 082230Z 14005KT 9SM CLR 06/03 A3018 -180 82 -1300 150/05 RMK AO2 T00560028
14756KACK ACK20160308173510403/08/16 17:35:31  5-MIN KACK 082235Z 14005KT 8SM CLR 05/03 A3018 -190 85 -1400 160/05 RMK AO2 T00500028
14756KACK ACK20160308174010403/08/16 17:40:31  5-MIN KACK 082240Z 14005KT 8SM CLR 05/03 A3018 -190 85 -1400 160/05 RMK AO2 T00500028
14756KACK ACK20160308174510403/08/16 17:45:31  5-MIN KACK 082245Z 14005KT 7SM CLR 05/02 A3018 -180 82 -1400 160/05 RMK AO2 T00500022
14756KACK ACK20160308175011103/08/16 17:50:31  5-MIN KACK 082250Z 13006KT 7SM CLR 04/02 A3018 -180 85 -1400 150/06 RMK AO2 SLP218 T00440022
14756KACK ACK20160308175510403/08/16 17:55:31  5-MIN KACK 082255Z 14006KT 8SM CLR 04/02 A3018 -180 85 -1400 150/06 RMK AO2 T00440022
14756KACK ACK20160308180010403/08/16 18:00:31  5-MIN KACK 082300Z 14005KT 8SM CLR 04/02 A3018 -190 85 -1400 150/05 RMK AO2 T00440022
14756KACK ACK20160308180510403/08/16 18:05:31  5-MIN KACK 082305Z 14005KT 7SM CLR 04/02 A3018 -190 85 -1400 150/05 RMK AO2 T00440022
14756KACK ACK20160308181010403/08/16 18:10:31  5-MIN KACK 082310Z 13005KT 7SM CLR 04/03 A3018 -190 89 -1400 150/05 RMK AO2 T00440028
14756KACK ACK20160308181510403/08/16 18:15:31  5-MIN KACK 082315Z 14005KT 7SM CLR 04/03 A3019 -190 89 -1400 150/05 RMK AO2 T00440028
14756KACK ACK20160308182010403/08/16 18:20:31  5-MIN KACK 082320Z 13005KT 7SM CLR 04/03 A3019 -190 89 -1400 150/05 RMK AO2 T00440028
14756KACK ACK20160308182510403/08/16 18:25:31  5-MIN KACK 082325Z 13005KT 7SM CLR 04/03 A3019 -190 89 -1400 150/05 RMK AO2 T00440028
14756KACK ACK20160308183010403/08/16 18:30:31  5-MIN KACK 082330Z 14005KT 7SM CLR 04/03 A3019 -190 89 -1400 150/05 RMK AO2 T00440028
14756KACK ACK20160308183510403/08/16 18:35:31  5-MIN KACK 082335Z 13005KT 8SM CLR 05/03 A3019 -200 85 -1400 140/05 RMK AO2 T00500028
14756KACK ACK20160308184010403/08/16 18:40:31  5-MIN KACK 082340Z 14004KT 8SM CLR 04/03 A3019 -200 89 -1400 150/04 RMK AO2 T00440028
14756KACK ACK20160308184510403/08/16 18:45:31  5-MIN KACK 082345Z 14004KT 8SM CLR 04/02 A3020 -200 89 -1500 160/04 RMK AO2 T00390022
14756KACK ACK20160308185012903/08/16 18:50:31  5-MIN KACK 082350Z 15005KT 7SM CLR 04/02 A3020 -200 89 -1500 160/05 RMK AO2 SLP225 T00390022 10100 20039 53003
14756KACK ACK20160308185510403/08/16 18:55:31  5-MIN KACK 082355Z 14006KT 7SM CLR 04/02 A3020 -200 89 -1500 160/06 RMK AO2 T00390022
14756KACK ACK20160308190010403/08/16 19:00:31  5-MIN KACK 090000Z 14006KT 7SM CLR 04/02 A3020 -200 89 -1500 160/06 RMK AO2 T00390022
14756KACK ACK20160308190510403/08/16 19:05:31  5-MIN KACK 090005Z 15006KT 8SM CLR 04/02 A3020 -200 89 -1500 160/06 RMK AO2 T00390022
14756KACK ACK20160308191010403/08/16 19:10:31  5-MIN KACK 090010Z 15006KT 7SM CLR 03/02 A3020 -200 89 -1600 170/06 RMK AO2 T00330017
14756KACK ACK20160308191510403/08/16 19:15:31  5-MIN KACK 090015Z 15006KT 7SM CLR 03/02 A3020 -200 89 -1600 170/06 RMK AO2 T00330017
14756KACK ACK20160308192010403/08/16 19:20:31  5-MIN KACK 090020Z 15006KT 7SM CLR 04/02 A3020 -200 89 -1500 170/06 RMK AO2 T00390022
14756KACK ACK20160308192510403/08/16 19:25:31  5-MIN KACK 090025Z 15006KT 8SM CLR 04/02 A3020 -200 89 -1500 170/06 RMK AO2 T00390022
14756KACK ACK20160308193010403/08/16 19:30:31  5-MIN KACK 090030Z 16006KT 8SM CLR 04/02 A3020 -200 89 -1500 170/06 RMK AO2 T00390022
14756KACK ACK20160308193510403/08/16 19:35:31  5-MIN KACK 090035Z 15007KT 8SM CLR 04/02 A3020 -200 89 -1500 170/07 RMK AO2 T00390022
14756KACK ACK20160308194010403/08/16 19:40:31  5-MIN KACK 090040Z 14007KT 8SM CLR 04/02 A3020 -200 89 -1500 160/07 RMK AO2 T00390022
14756KACK ACK20160308194510403/08/16 19:45:31  5-MIN KACK 090045Z 14006KT 8SM CLR 04/02 A3020 -200 89 -1500 160/06 RMK AO2 T00390022
14756KACK ACK20160308195011103/08/16 19:50:31  5-MIN KACK 090050Z 15006KT 7SM CLR 04/02 A3020 -210 89 -1500 170/06 RMK AO2 SLP227 T00390022
14756KACK ACK20160308195510403/08/16 19:55:31  5-MIN KACK 090055Z 16006KT 8SM CLR 04/02 A3021 -210 85 -1500 170/06 RMK AO2 T00440022
14756KACK ACK20160308200010403/08/16 20:00:31  5-MIN KACK 090100Z 16006KT 8SM CLR 04/03 A3021 -210 89 -1500 170/06 RMK AO2 T00440028
14756KACK ACK20160308200510403/08/16 20:05:31  5-MIN KACK 090105Z 15006KT 9SM CLR 04/03 A3021 -210 89 -1500 170/06 RMK AO2 T00440028
14756KACK ACK20160308201010403/08/16 20:10:31  5-MIN KACK 090110Z 15006KT 9SM CLR 04/03 A3021 -210 89 -1500 170/06 RMK AO2 T00440028
14756KACK ACK20160308201510403/08/16 20:15:31  5-MIN KACK 090115Z 15006KT 8SM CLR 04/03 A3021 -210 89 -1500 170/06 RMK AO2 T00440028
14756KACK ACK20160308202010403/08/16 20:20:31  5-MIN KACK 090120Z 17005KT 8SM CLR 04/03 A3021 -220 89 -1500 180/05 RMK AO2 T00440028
14756KACK ACK20160308202510403/08/16 20:25:31  5-MIN KACK 090125Z 16005KT 8SM CLR 04/03 A3022 -220 89 -1500 170/05 RMK AO2 T00440028
14756KACK ACK20160308203010403/08/16 20:30:31  5-MIN KACK 090130Z 16005KT 8SM CLR 04/03 A3022 -220 89 -1500 170/05 RMK AO2 T00440028
14756KACK ACK20160308203510403/08/16 20:35:31  5-MIN KACK 090135Z 16005KT 8SM CLR 04/03 A3022 -220 89 -1500 180/05 RMK AO2 T00440028
14756KACK ACK20160308204010403/08/16 20:40:31  5-MIN KACK 090140Z 17005KT 8SM CLR 04/03 A3022 -220 89 -1500 180/05 RMK AO2 T00440028
14756KACK ACK20160308204510403/08/16 20:45:31  5-MIN KACK 090145Z 17005KT 8SM CLR 04/03 A3022 -230 89 -1500 180/05 RMK AO2 T00440028
14756KACK ACK20160308205012103/08/16 20:50:31  5-MIN KACK 090150Z AUTO 16005KT 8SM CLR 05/03 A3022 -220 85 -1400 180/05 RMK AO2 SLP234 T00500028 TSNO
14756KACK ACK20160308205511403/08/16 20:55:31  5-MIN KACK 090155Z AUTO 16006KT 8SM CLR 04/03 A3022 -220 89 -1500 170/06 RMK AO2 T00440028 TSNO
14756KACK ACK20160308210011403/08/16 21:00:31  5-MIN KACK 090200Z AUTO 16006KT 8SM CLR 04/03 A3022 -220 89 -1500 180/06 RMK AO2 T00440028 TSNO
14756KACK ACK20160308210511403/08/16 21:05:31  5-MIN KACK 090205Z AUTO 16006KT 9SM CLR 04/03 A3022 -230 89 -1500 180/06 RMK AO2 T00440028 TSNO
14756KACK ACK20160308211011403/08/16 21:10:31  5-MIN KACK 090210Z AUTO 15005KT 9SM CLR 04/03 A3022 -220 89 -1500 170/05 RMK AO2 T00440028 TSNO
14756KACK ACK20160308211511403/08/16 21:15:31  5-MIN KACK 090215Z AUTO 15005KT 9SM CLR 04/02 A3023 -230 85 -1500 160/05 RMK AO2 T00440022 TSNO
14756KACK ACK20160308212011403/08/16 21:20:31  5-MIN KACK 090220Z AUTO 15006KT 9SM CLR 04/03 A3022 -230 89 -1500 160/06 RMK AO2 T00440028 TSNO
14756KACK ACK20160308212511403/08/16 21:25:31  5-MIN KACK 090225Z AUTO 16006KT 8SM CLR 04/03 A3023 -230 89 -1500 180/06 RMK AO2 T00440028 TSNO
14756KACK ACK20160308213011403/08/16 21:30:31  5-MIN KACK 090230Z AUTO 16006KT 8SM CLR 04/03 A3023 -230 89 -1500 180/06 RMK AO2 T00440028 TSNO
14756KACK ACK20160308213511403/08/16 21:35:31  5-MIN KACK 090235Z AUTO 16006KT 9SM CLR 04/03 A3023 -230 89 -1500 180/06 RMK AO2 T00440028 TSNO
14756KACK ACK20160308214011403/08/16 21:40:31  5-MIN KACK 090240Z AUTO 16006KT 9SM CLR 04/03 A3023 -230 89 -1500 180/06 RMK AO2 T00440028 TSNO
14756KACK ACK20160308214511403/08/16 21:45:31  5-MIN KACK 090245Z AUTO 17006KT 9SM CLR 04/03 A3023 -230 89 -1500 180/06 RMK AO2 T00440028 TSNO
14756KACK ACK20160308215012703/08/16 21:50:31  5-MIN KACK 090250Z AUTO 16006KT 9SM CLR 04/03 A3023 -230 89 -1500 180/06 RMK AO2 SLP237 T00440028 53010 TSNO
14756KACK ACK20160308215511403/08/16 21:55:31  5-MIN KACK 090255Z AUTO 16007KT 9SM CLR 04/03 A3023 -230 89 -1500 180/07 RMK AO2 T00440028 TSNO
14756KACK ACK20160308220011403/08/16 22:00:31  5-MIN KACK 090300Z AUTO 16007KT 9SM CLR 04/03 A3023 -230 89 -1500 180/07 RMK AO2 T00440028 TSNO
14756KACK ACK20160308220511403/08/16 22:05:31  5-MIN KACK 090305Z AUTO 16008KT 9SM CLR 05/03 A3022 -220 85 -1400 170/08 RMK AO2 T00500028 TSNO
14756KACK ACK20160308221011503/08/16 22:10:31  5-MIN KACK 090310Z AUTO 16008KT 10SM CLR 05/03 A3022 -220 85 -1400 170/08 RMK AO2 T00500028 TSNO
14756KACK ACK20160308221511503/08/16 22:15:31  5-MIN KACK 090315Z AUTO 15009KT 10SM CLR 05/03 A3022 -220 89 -1400 170/09 RMK AO2 T00500033 TSNO
14756KACK ACK20160308222011503/08/16 22:20:31  5-MIN KACK 090320Z AUTO 15008KT 10SM CLR 05/03 A3021 -220 89 -1400 170/08 RMK AO2 T00500033 TSNO
14756KACK ACK20160308222511403/08/16 22:25:31  5-MIN KACK 090325Z AUTO 15008KT 9SM CLR 05/03 A3021 -210 89 -1400 160/08 RMK AO2 T00500033 TSNO
14756KACK ACK20160308223011403/08/16 22:30:31  5-MIN KACK 090330Z AUTO 15008KT 9SM CLR 05/03 A3021 -210 89 -1400 160/08 RMK AO2 T00500033 TSNO
14756KACK ACK20160308223511403/08/16 22:35:31  5-MIN KACK 090335Z AUTO 15008KT 9SM CLR 05/03 A3021 -220 89 -1400 170/08 RMK AO2 T00500033 TSNO
14756KACK ACK20160308224011403/08/16 22:40:31  5-MIN KACK 090340Z AUTO 15009KT 9SM CLR 05/03 A3021 -210 89 -1400 160/09 RMK AO2 T00500033 TSNO
14756KACK ACK20160308224511403/08/16 22:45:31  5-MIN KACK 090345Z AUTO 15009KT 9SM CLR 05/03 A3021 -210 89 -1400 160/09 RMK AO2 T00500033 TSNO
14756KACK ACK20160308225012103/08/16 22:50:31  5-MIN KACK 090350Z AUTO 15009KT 9SM CLR 05/03 A3021 -210 89 -1400 170/09 RMK AO2 SLP230 T00500033 TSNO
14756KACK ACK20160308225511403/08/16 22:55:31  5-MIN KACK 090355Z AUTO 15009KT 9SM CLR 05/03 A3021 -210 89 -1400 160/09 RMK AO2 T00500033 TSNO
14756KACK ACK20160308230011403/08/16 23:00:31  5-MIN KACK 090400Z AUTO 16009KT 9SM CLR 05/03 A3021 -210 89 -1400 170/09 RMK AO2 T00500033 TSNO
14756KACK ACK20160308230511403/08/16 23:05:31  5-MIN KACK 090405Z AUTO 16009KT 9SM CLR 06/03 A3021 -210 85 -1300 170/09 RMK AO2 T00560033 TSNO
14756KACK ACK20160308231011403/08/16 23:10:31  5-MIN KACK 090410Z AUTO 16008KT 9SM CLR 05/03 A3021 -220 89 -1400 180/08 RMK AO2 T00500033 TSNO
14756KACK ACK20160308231511403/08/16 23:15:31  5-MIN KACK 090415Z AUTO 17008KT 9SM CLR 05/03 A3022 -220 89 -1400 180/08 RMK AO2 T00500033 TSNO
14756KACK ACK20160308232011403/08/16 23:20:31  5-MIN KACK 090420Z AUTO 16009KT 9SM CLR 06/03 A3021 -220 85 -1300 180/09 RMK AO2 T00560033 TSNO
14756KACK ACK20160308232511403/08/16 23:25:31  5-MIN KACK 090425Z AUTO 15009KT 9SM CLR 06/03 A3021 -210 85 -1300 170/09 RMK AO2 T00560033 TSNO
14756KACK ACK20160308233011403/08/16 23:30:31  5-MIN KACK 090430Z AUTO 16008KT 9SM CLR 05/03 A3021 -220 89 -1400 180/08 RMK AO2 T00500033 TSNO
14756KACK ACK20160308233511403/08/16 23:35:31  5-MIN KACK 090435Z AUTO 16009KT 9SM CLR 06/03 A3021 -220 85 -1300 170/09 RMK AO2 T00560033 TSNO
14756KACK ACK20160308234011403/08/16 23:40:31  5-MIN KACK 090440Z AUTO 16008KT 9SM CLR 06/03 A3022 -220 85 -1300 170/08 RMK AO2 T00560033 TSNO
14756KACK ACK20160308234511403/08/16 23:45:31  5-MIN KACK 090445Z AUTO 17009KT 9SM CLR 06/04 A3021 -220 89 -1300 180/09 RMK AO2 T00560039 TSNO
14756KACK ACK20160308235013103/08/16 23:50:31  5-MIN KACK 090450Z AUTO 16010KT 9SM CLR 06/04 A3021 -210 89 -1300 170/10 RMK AO2 SLP229 T00560039 401060033 TSNO
14756KACK ACK20160308235511403/08/16 23:55:31  5-MIN KACK 090455Z AUTO 16010KT 9SM CLR 06/04 A3021 -210 89 -1300 170/10 RMK AO2 T00560039 TSNO
14756KACK ACK20160309000011403/09/16 00:00:31  5-MIN KACK 090500Z AUTO 15010KT 9SM CLR 06/04 A3021 -210 89 -1300 170/10 RMK AO2 T00560039 TSNO
14756KACK ACK20160309000511403/09/16 00:05:31  5-MIN KACK 090505Z AUTO 15009KT 9SM CLR 06/03 A3020 -210 85 -1300 170/09 RMK AO2 T00560033 TSNO
14756KACK ACK20160309001011403/09/16 00:10:31  5-MIN KACK 090510Z AUTO 15009KT 8SM CLR 06/03 A3021 -210 85 -1300 170/09 RMK AO2 T00560033 TSNO
14756KACK ACK20160309001511403/09/16 00:15:31  5-MIN KACK 090515Z AUTO 15009KT 8SM CLR 06/03 A3021 -210 85 -1300 170/09 RMK AO2 T00560033 TSNO
14756KACK ACK20160309002011403/09/16 00:20:31  5-MIN KACK 090520Z AUTO 16009KT 8SM CLR 06/03 A3020 -210 85 -1300 170/09 RMK AO2 T00560033 TSNO
14756KACK ACK20160309002511403/09/16 00:25:31  5-MIN KACK 090525Z AUTO 16009KT 8SM CLR 06/04 A3020 -210 89 -1300 170/09 RMK AO2 T00560039 TSNO
14756KACK ACK20160309003011403/09/16 00:30:31  5-MIN KACK 090530Z AUTO 16009KT 8SM CLR 06/04 A3020 -210 89 -1300 170/09 RMK AO2 T00560039 TSNO
14756KACK ACK20160309003511403/09/16 00:35:31  5-MIN KACK 090535Z AUTO 16010KT 8SM CLR 06/04 A3020 -200 89 -1300 170/10 RMK AO2 T00560039 TSNO
14756KACK ACK20160309004011403/09/16 00:40:31  5-MIN KACK 090540Z AUTO 16010KT 8SM CLR 06/04 A3020 -200 89 -1300 170/10 RMK AO2 T00560039 TSNO
14756KACK ACK20160309004511403/09/16 00:45:31  5-MIN KACK 090545Z AUTO 15010KT 9SM CLR 06/04 A3019 -200 89 -1300 170/10 RMK AO2 T00560039 TSNO
14756KACK ACK20160309005013903/09/16 00:50:31  5-MIN KACK 090550Z AUTO 15010KT 8SM CLR 06/03 A3019 -190 85 -1300 160/10 RMK AO2 SLP222 T00560033 10056 20033 51012 TSNO
14756KACK ACK20160309005511403/09/16 00:55:31  5-MIN KACK 090555Z AUTO 14010KT 8SM CLR 05/03 A3019 -190 89 -1400 160/10 RMK AO2 T00500033 TSNO
14756KACK ACK20160309010011403/09/16 01:00:31  5-MIN KACK 090600Z AUTO 15009KT 8SM CLR 06/03 A3019 -190 85 -1300 160/09 RMK AO2 T00560033 TSNO
14756KACK ACK20160309010511403/09/16 01:05:31  5-MIN KACK 090605Z AUTO 14009KT 8SM CLR 06/03 A3019 -190 85 -1300 160/09 RMK AO2 T00560033 TSNO
14756KACK ACK20160309011011403/09/16 01:10:31  5-MIN KACK 090610Z AUTO 14009KT 8SM CLR 06/04 A3019 -190 89 -1300 160/09 RMK AO2 T00560039 TSNO
14756KACK ACK20160309011511403/09/16 01:15:31  5-MIN KACK 090615Z AUTO 14009KT 8SM CLR 06/04 A3018 -190 89 -1300 160/09 RMK AO2 T00560039 TSNO
14756KACK ACK20160309012011403/09/16 01:20:31  5-MIN KACK 090620Z AUTO 14009KT 8SM CLR 06/04 A3018 -190 89 -1300 160/09 RMK AO2 T00560039 TSNO
14756KACK ACK20160309012511403/09/16 01:25:31  5-MIN KACK 090625Z AUTO 14008KT 8SM CLR 06/04 A3018 -190 89 -1300 160/08 RMK AO2 T00560039 TSNO
14756KACK ACK20160309013011403/09/16 01:30:31  5-MIN KACK 090630Z AUTO 14009KT 8SM CLR 06/04 A3018 -180 89 -1300 150/09 RMK AO2 T00560039 TSNO
14756KACK ACK20160309013511403/09/16 01:35:31  5-MIN KACK 090635Z AUTO 14008KT 8SM CLR 06/04 A3018 -190 89 -1300 150/08 RMK AO2 T00560039 TSNO
14756KACK ACK20160309014011403/09/16 01:40:31  5-MIN KACK 090640Z AUTO 14008KT 8SM CLR 06/04 A3018 -190 89 -1300 160/08 RMK AO2 T00560039 TSNO
14756KACK ACK20160309014511403/09/16 01:45:31  5-MIN KACK 090645Z AUTO 15009KT 8SM CLR 06/04 A3018 -190 89 -1300 160/09 RMK AO2 T00560039 TSNO
14756KACK ACK20160309015012103/09/16 01:50:31  5-MIN KACK 090650Z AUTO 14007KT 9SM CLR 06/04 A3018 -190 89 -1300 160/07 RMK AO2 SLP221 T00560039 TSNO
14756KACK ACK20160309015511403/09/16 01:55:31  5-MIN KACK 090655Z AUTO 14007KT 9SM CLR 06/04 A3019 -190 89 -1300 160/07 RMK AO2 T00560039 TSNO
14756KACK ACK20160309020011403/09/16 02:00:31  5-MIN KACK 090700Z AUTO 14007KT 9SM CLR 06/04 A3018 -190 89 -1300 150/07 RMK AO2 T00560039 TSNO
14756KACK ACK20160309020511403/09/16 02:05:31  5-MIN KACK 090705Z AUTO 14008KT 9SM CLR 06/04 A3018 -190 89 -1300 160/08 RMK AO2 T00560039 TSNO
14756KACK ACK20160309021011703/09/16 02:10:31  5-MIN KACK 090710Z AUTO 14007KT 8SM FEW065 06/04 A3019 -190 89 -1300 150/07 RMK AO2 T00560039 TSNO
14756KACK ACK20160309021511703/09/16 02:15:31  5-MIN KACK 090715Z AUTO 14007KT 8SM FEW065 06/04 A3018 -190 89 -1300 150/07 RMK AO2 T00560039 TSNO
14756KACK ACK20160309022011703/09/16 02:20:31  5-MIN KACK 090720Z AUTO 14008KT 8SM SCT065 06/04 A3018 -190 89 -1300 150/08 RMK AO2 T00560039 TSNO
14756KACK ACK20160309022511703/09/16 02:25:31  5-MIN KACK 090725Z AUTO 13008KT 8SM BKN065 06/04 A3018 -190 89 -1300 150/08 RMK AO2 T00560039 TSNO
14756KACK ACK20160309023011703/09/16 02:30:31  5-MIN KACK 090730Z AUTO 13007KT 8SM BKN065 06/04 A3019 -190 89 -1300 150/07 RMK AO2 T00560039 TSNO
14756KACK ACK20160309023511703/09/16 02:35:31  5-MIN KACK 090735Z AUTO 13007KT 8SM BKN065 06/04 A3019 -190 89 -1300 150/07 RMK AO2 T00560039 TSNO
14756KACK ACK20160309024011703/09/16 02:40:31  5-MIN KACK 090740Z AUTO 13007KT 9SM OVC065 06/04 A3019 -200 89 -1200 150/07 RMK AO2 T00610044 TSNO
14756KACK ACK20160309024511703/09/16 02:45:31  5-MIN KACK 090745Z AUTO 13008KT 9SM OVC065 06/04 A3020 -200 89 -1200 150/08 RMK AO2 T00610044 TSNO
14756KACK ACK20160309025012403/09/16 02:50:31  5-MIN KACK 090750Z AUTO 14007KT 9SM OVC060 06/04 A3020 -200 89 -1200 150/07 RMK AO2 SLP225 T00610044 TSNO
14756KACK ACK20160309025511703/09/16 02:55:31  5-MIN KACK 090755Z AUTO 13007KT 9SM OVC060 06/04 A3020 -200 89 -1200 150/07 RMK AO2 T00610044 TSNO
14756KACK ACK20160309030011703/09/16 03:00:31  5-MIN KACK 090800Z AUTO 13008KT 9SM OVC065 06/04 A3020 -200 89 -1200 150/08 RMK AO2 T00610044 TSNO
14756KACK ACK20160309030511703/09/16 03:05:31  5-MIN KACK 090805Z AUTO 13007KT 9SM OVC065 06/04 A3020 -200 89 -1200 150/07 RMK AO2 T00610044 TSNO
14756KACK ACK20160309031011703/09/16 03:10:31  5-MIN KACK 090810Z AUTO 15007KT 9SM OVC065 06/04 A3020 -200 89 -1200 160/07 RMK AO2 T00610044 TSNO
14756KACK ACK20160309031511703/09/16 03:15:31  5-MIN KACK 090815Z AUTO 15008KT 9SM OVC065 06/04 A3020 -200 89 -1200 160/08 RMK AO2 T00610044 TSNO
14756KACK ACK20160309032011703/09/16 03:20:31  5-MIN KACK 090820Z AUTO 15008KT 9SM OVC065 06/04 A3020 -200 89 -1200 160/08 RMK AO2 T00610044 TSNO
14756KACK ACK20160309032511703/09/16 03:25:31  5-MIN KACK 090825Z AUTO 16008KT 9SM OVC065 06/04 A3020 -200 89 -1200 170/08 RMK AO2 T00610044 TSNO
14756KACK ACK20160309033011703/09/16 03:30:31  5-MIN KACK 090830Z AUTO 16008KT 9SM OVC065 06/04 A3020 -200 89 -1200 180/08 RMK AO2 T00610044 TSNO
14756KACK ACK20160309033511803/09/16 03:35:31  5-MIN KACK 090835Z AUTO 16008KT 10SM OVC065 07/04 A3020 -200 86 -1200 180/08 RMK AO2 T00670044 TSNO
14756KACK ACK20160309034011803/09/16 03:40:31  5-MIN KACK 090840Z AUTO 16008KT 10SM OVC065 07/04 A3020 -200 86 -1200 180/08 RMK AO2 T00670044 TSNO
14756KACK ACK20160309034511803/09/16 03:45:31  5-MIN KACK 090845Z AUTO 16008KT 10SM OVC060 07/04 A3019 -200 86 -1200 170/08 RMK AO2 T00670044 TSNO
14756KACK ACK20160309035013103/09/16 03:50:31  5-MIN KACK 090850Z AUTO 16008KT 10SM OVC060 07/04 A3019 -200 86 -1200 170/08 RMK AO2 SLP224 T00670044 56015 TSNO
14756KACK ACK20160309035511803/09/16 03:55:31  5-MIN KACK 090855Z AUTO 15007KT 10SM OVC065 07/04 A3019 -200 86 -1200 160/07 RMK AO2 T00670044 TSNO
14756KACK ACK20160309040011703/09/16 04:00:31  5-MIN KACK 090900Z AUTO 15007KT 9SM OVC065 07/04 A3019 -190 86 -1200 160/07 RMK AO2 T00670044 TSNO
14756KACK ACK20160309040511703/09/16 04:05:31  5-MIN KACK 090905Z AUTO 14008KT 9SM OVC065 07/04 A3019 -190 86 -1200 160/08 RMK AO2 T00670044 TSNO
14756KACK ACK20160309041011703/09/16 04:10:31  5-MIN KACK 090910Z AUTO 14008KT 9SM OVC065 07/04 A3019 -190 86 -1200 160/08 RMK AO2 T00670044 TSNO
14756KACK ACK20160309041511703/09/16 04:15:31  5-MIN KACK 090915Z AUTO 14009KT 9SM OVC070 07/04 A3019 -190 86 -1200 150/09 RMK AO2 T00670044 TSNO
14756KACK ACK20160309042011703/09/16 04:20:31  5-MIN KACK 090920Z AUTO 14009KT 8SM OVC070 07/04 A3019 -190 86 -1200 160/09 RMK AO2 T00670044 TSNO
14756KACK ACK20160309042511703/09/16 04:25:31  5-MIN KACK 090925Z AUTO 15009KT 8SM BKN070 06/04 A3019 -190 89 -1200 160/09 RMK AO2 T00610044 TSNO
14756KACK ACK20160309043011703/09/16 04:30:31  5-MIN KACK 090930Z AUTO 14008KT 9SM BKN070 06/04 A3019 -190 89 -1200 160/08 RMK AO2 T00610044 TSNO
14756KACK ACK20160309043511703/09/16 04:35:31  5-MIN KACK 090935Z AUTO 15008KT 8SM SCT070 06/04 A3019 -200 89 -1300 160/08 RMK AO2 T00560039 TSNO
14756KACK ACK20160309044011703/09/16 04:40:31  5-MIN KACK 090940Z AUTO 14008KT 8SM SCT070 06/04 A3019 -200 89 -1300 160/08 RMK AO2 T00560039 TSNO
14756KACK ACK20160309044511703/09/16 04:45:31  5-MIN KACK 090945Z AUTO 15008KT 8SM FEW065 06/04 A3019 -190 89 -1300 160/08 RMK AO2 T00560039 TSNO
14756KACK ACK20160309045012103/09/16 04:50:31  5-MIN KACK 090950Z AUTO 15008KT 8SM CLR 06/04 A3019 -190 89 -1300 170/08 RMK AO2 SLP223 T00560039 TSNO
14756KACK ACK20160309045511403/09/16 04:55:31  5-MIN KACK 090955Z AUTO 16008KT 7SM CLR 06/04 A3019 -200 89 -1300 170/08 RMK AO2 T00560039 TSNO
14756KACK ACK20160309050011403/09/16 05:00:31  5-MIN KACK 091000Z AUTO 15007KT 7SM CLR 06/04 A3020 -200 89 -1300 170/07 RMK AO2 T00560039 TSNO
14756KACK ACK20160309050511403/09/16 05:05:31  5-MIN KACK 091005Z AUTO 15008KT 8SM CLR 06/04 A3020 -200 89 -1300 170/08 RMK AO2 T00560039 TSNO
14756KACK ACK20160309051011403/09/16 05:10:31  5-MIN KACK 091010Z AUTO 17007KT 8SM CLR 06/04 A3020 -200 89 -1300 180/07 RMK AO2 T00560039 TSNO
14756KACK ACK20160309051511403/09/16 05:15:31  5-MIN KACK 091015Z AUTO 16007KT 8SM CLR 06/04 A3020 -200 89 -1200 180/07 RMK AO2 T00610044 TSNO
14756KACK ACK20160309052011403/09/16 05:20:31  5-MIN KACK 091020Z AUTO 16007KT 8SM CLR 06/04 A3020 -200 92 -1300 180/07 RMK AO2 T00560044 TSNO
14756KACK ACK20160309052511403/09/16 05:25:31  5-MIN KACK 091025Z AUTO 17007KT 8SM CLR 06/04 A3020 -200 89 -1200 180/07 RMK AO2 T00610044 TSNO
14756KACK ACK20160309053011403/09/16 05:30:31  5-MIN KACK 091030Z AUTO 18007KT 8SM CLR 06/04 A3020 -210 89 -1200 190/07 RMK AO2 T00610044 TSNO
14756KACK ACK20160309053511403/09/16 05:35:31  5-MIN KACK 091035Z AUTO 17007KT 8SM CLR 06/04 A3020 -210 89 -1200 190/07 RMK AO2 T00610044 TSNO
14756KACK ACK20160309054011403/09/16 05:40:31  5-MIN KACK 091040Z AUTO 17006KT 8SM CLR 06/04 A3020 -210 89 -1200 190/06 RMK AO2 T00610044 TSNO
14756KACK ACK20160309054511403/09/16 05:45:31  5-MIN KACK 091045Z AUTO 17006KT 8SM CLR 06/04 A3020 -210 89 -1200 190/06 RMK AO2 T00610044 TSNO
14756KACK ACK20160309055012103/09/16 05:50:31  5-MIN KACK 091050Z AUTO 17006KT 8SM CLR 06/04 A3020 -210 89 -1200 190/06 RMK AO2 SLP227 T00610044 TSNO
14756KACK ACK20160309055511403/09/16 05:55:31  5-MIN KACK 091055Z AUTO 17007KT 8SM CLR 06/04 A3020 -210 89 -1200 180/07 RMK AO2 T00610044 TSNO
14756KACK ACK20160309060010403/09/16 06:00:31  5-MIN KACK 091100Z 16007KT 8SM CLR 06/04 A3020 -210 89 -1200 180/07 RMK AO2 T00610044
14756KACK ACK20160309060510403/09/16 06:05:31  5-MIN KACK 091105Z 16007KT 7SM CLR 06/04 A3020 -200 89 -1200 170/07 RMK AO2 T00610044
14756KACK ACK20160309061010703/09/16 06:10:31  5-MIN KACK 091110Z 16007KT 6SM BR CLR 06/04 A3020 -200 89 -1200 170/07 RMK AO2 T00610044
14756KACK ACK20160309061510703/09/16 06:15:31  5-MIN KACK 091115Z 15007KT 6SM BR CLR 06/04 A3020 -210 89 -1200 170/07 RMK AO2 T00610044
14756KACK ACK20160309062010703/09/16 06:20:31  5-MIN KACK 091120Z 16008KT 7SM FEW080 06/04 A3020 -200 89 -1200 170/08 RMK AO2 T00610044
14756KACK ACK20160309062510703/09/16 06:25:31  5-MIN KACK 091125Z 16009KT 7SM FEW080 06/04 A3020 -200 89 -1200 170/09 RMK AO2 T00610044
14756KACK ACK20160309063010403/09/16 06:30:31  5-MIN KACK 091130Z 16009KT 7SM CLR 07/05 A3019 -200 89 -1200 170/09 RMK AO2 T00670050
14756KACK ACK20160309063510403/09/16 06:35:31  5-MIN KACK 091135Z 16010KT 7SM CLR 07/05 A3019 -200 89 -1200 170/10 RMK AO2 T00670050
14756KACK ACK20160309064010403/09/16 06:40:31  5-MIN KACK 091140Z 16009KT 7SM CLR 07/05 A3019 -200 89 -1200 180/09 RMK AO2 T00670050
14756KACK ACK20160309064510403/09/16 06:45:31  5-MIN KACK 091145Z 16010KT 8SM CLR 07/05 A3019 -190 89 -1200 180/10 RMK AO2 T00670050
14756KACK ACK20160309065012903/09/16 06:50:31  5-MIN KACK 091150Z 17010KT 8SM CLR 07/06 A3019 -200 89 -1100 180/10 RMK AO2 SLP223 T00720056 10072 20050 50002
14756KACK ACK20160309065510703/09/16 06:55:31  5-MIN KACK 091155Z 17012KT 8SM FEW070 07/06 A3019 -200 89 -1100 180/12 RMK AO2 T00720056
14756KACK ACK20160309070010703/09/16 07:00:31  5-MIN KACK 091200Z 17012KT 8SM FEW070 08/06 A3019 -190 86 -1000 190/12 RMK AO2 T00780056
14756KACK ACK20160309070510703/09/16 07:05:31  5-MIN KACK 091205Z 18012KT 8SM FEW070 08/06 A3019 -190 86 -1000 190/12 RMK AO2 T00780056
14756KACK ACK20160309071010703/09/16 07:10:31  5-MIN KACK 091210Z 17012KT 8SM SCT075 08/06 A3019 -190 86 -1000 190/12 RMK AO2 T00780056
14756KACK ACK20160309071510703/09/16 07:15:31  5-MIN KACK 091215Z 17012KT 8SM BKN080 08/06 A3019 -200 89 -1000 190/12 RMK AO2 T00780061
14756KACK ACK20160309072010703/09/16 07:20:31  5-MIN KACK 091220Z 17012KT 8SM BKN080 08/06 A3019 -200 89 -1000 180/12 RMK AO2 T00780061
14756KACK ACK20160309072510703/09/16 07:25:31  5-MIN KACK 091225Z 17011KT 8SM BKN080 08/06 A3020 -200 89 -1000 190/11 RMK AO2 T00780061
14756KACK ACK20160309073010703/09/16 07:30:31  5-MIN KACK 091230Z 18011KT 8SM OVC080 08/06 A3020 -210 89 -1000 200/11 RMK AO2 T00780061
14756KACK ACK20160309073510703/09/16 07:35:31  5-MIN KACK 091235Z 18012KT 8SM OVC080 08/06 A3020 -200 86 -1000 190/12 RMK AO2 T00830061
14756KACK ACK20160309074010703/09/16 07:40:31  5-MIN KACK 091240Z 18011KT 8SM OVC080 08/06 A3020 -200 86 -1000 190/11 RMK AO2 T00830061
14756KACK ACK20160309074510703/09/16 07:45:31  5-MIN KACK 091245Z 18012KT 8SM OVC080 08/06 A3020 -200 86 -1000 190/12 RMK AO2 T00830061
14756KACK ACK20160309075011403/09/16 07:50:31  5-MIN KACK 091250Z 18012KT 8SM OVC080 08/06 A3019 -200 86 -1000 190/12 RMK AO2 SLP224 T00830061
14756KACK ACK20160309075510703/09/16 07:55:31  5-MIN KACK 091255Z 18011KT 8SM OVC080 08/07 A3019 -200 89 -1000 200/11 RMK AO2 T00830067
14756KACK ACK20160309080010703/09/16 08:00:31  5-MIN KACK 091300Z 18012KT 8SM OVC080 08/07 A3020 -200 89 -1000 190/12 RMK AO2 T00830067
14756KACK ACK20160309080510603/09/16 08:05:31  5-MIN KACK 091305Z 18012KT 8SM OVC080 09/07 A3020 -200 86 -900 190/12 RMK AO2 T00890067
14756KACK ACK20160309081010603/09/16 08:10:31  5-MIN KACK 091310Z 17011KT 8SM OVC080 09/07 A3019 -200 86 -900 190/11 RMK AO2 T00890067
14756KACK ACK20160309081510703/09/16 08:15:31  5-MIN KACK 091315Z 17011KT 8SM OVC080 08/07 A3019 -200 89 -1000 190/11 RMK AO2 T00830067
14756KACK ACK20160309082010703/09/16 08:20:31  5-MIN KACK 091320Z 18009KT 7SM OVC080 08/07 A3019 -200 89 -1000 190/09 RMK AO2 T00830067
14756KACK ACK20160309082510603/09/16 08:25:31  5-MIN KACK 091325Z 17010KT 7SM OVC080 09/07 A3019 -190 86 -900 190/10 RMK AO2 T00890067
14756KACK ACK20160309083010603/09/16 08:30:31  5-MIN KACK 091330Z 17010KT 7SM OVC080 09/07 A3019 -190 86 -900 190/10 RMK AO2 T00890067
14756KACK ACK20160309083510603/09/16 08:35:31  5-MIN KACK 091335Z 17010KT 7SM OVC080 09/07 A3018 -190 86 -900 190/10 RMK AO2 T00890067
14756KACK ACK20160309084010603/09/16 08:40:31  5-MIN KACK 091340Z 18009KT 7SM OVC080 09/07 A3018 -190 86 -900 190/09 RMK AO2 T00890067
14756KACK ACK20160309084510603/09/16 08:45:31  5-MIN KACK 091345Z 18008KT 8SM OVC080 09/07 A3019 -190 89 -900 190/08 RMK AO2 T00890072
14756KACK ACK20160309085011303/09/16 08:50:31  5-MIN KACK 091350Z 18008KT 8SM OVC080 09/07 A3019 -190 86 -900 190/08 RMK AO2 SLP222 T00890067
14756KACK ACK20160309085510603/09/16 08:55:31  5-MIN KACK 091355Z 18008KT 8SM OVC080 09/07 A3019 -190 86 -900 200/08 RMK AO2 T00890067
14756KACK ACK20160309090010603/09/16 09:00:31  5-MIN KACK 091400Z 19008KT 8SM OVC080 09/07 A3018 -190 86 -900 200/08 RMK AO2 T00890067
14756KACK ACK20160309090510603/09/16 09:05:31  5-MIN KACK 091405Z 19009KT 8SM OVC080 09/07 A3018 -190 86 -900 200/09 RMK AO2 T00890067
14756KACK ACK20160309091010603/09/16 09:10:31  5-MIN KACK 091410Z 19009KT 8SM OVC080 09/07 A3018 -190 86 -800 200/09 RMK AO2 T00940072
14756KACK ACK20160309091510603/09/16 09:15:31  5-MIN KACK 091415Z 19010KT 8SM OVC080 09/07 A3018 -190 86 -800 200/10 RMK AO2 T00940072
14756KACK ACK20160309092010603/09/16 09:20:31  5-MIN KACK 091420Z 18009KT 8SM OVC080 10/07 A3018 -180 83 -700 200/09 RMK AO2 T01000072
14756KACK ACK20160309092510603/09/16 09:25:31  5-MIN KACK 091425Z 18009KT 8SM OVC080 10/07 A3017 -180 83 -700 190/09 RMK AO2 T01000072
14756KACK ACK20160309093010603/09/16 09:30:31  5-MIN KACK 091430Z 17009KT 8SM OVC080 11/08 A3017 -180 83 -700 190/09 RMK AO2 T01060078
14756KACK ACK20160309093510603/09/16 09:35:31  5-MIN KACK 091435Z 17010KT 8SM OVC080 11/08 A3017 -170 83 -700 190/10 RMK AO2 T01060078
14756KACK ACK20160309094010603/09/16 09:40:31  5-MIN KACK 091440Z 17010KT 8SM BKN080 11/08 A3017 -170 80 -600 190/10 RMK AO2 T01110078
14756KACK ACK20160309094510603/09/16 09:45:31  5-MIN KACK 091445Z 18011KT 8SM BKN080 12/08 A3016 -170 77 -500 190/11 RMK AO2 T01170078
14756KACK ACK20160309095011903/09/16 09:50:31  5-MIN KACK 091450Z 18011KT 8SM SCT080 12/08 A3016 -170 77 -500 190/11 RMK AO2 SLP213 T01170078 58001
14756KACK ACK20160309095510603/09/16 09:55:31  5-MIN KACK 091455Z 18011KT 8SM FEW080 12/08 A3016 -170 77 -500 190/11 RMK AO2 T01170078
14756KACK ACK20160309100010603/09/16 10:00:31  5-MIN KACK 091500Z 18012KT 8SM FEW080 12/08 A3016 -160 77 -500 190/12 RMK AO2 T01170078
14756KACK ACK20160309100510303/09/16 10:05:31  5-MIN KACK 091505Z 18012KT 8SM CLR 12/08 A3016 -160 77 -500 190/12 RMK AO2 T01170078
14756KACK ACK20160309101010303/09/16 10:10:31  5-MIN KACK 091510Z 18012KT 8SM CLR 12/08 A3016 -160 77 -500 190/12 RMK AO2 T01170078
14756KACK ACK20160309101510303/09/16 10:15:31  5-MIN KACK 091515Z 18012KT 8SM CLR 12/08 A3015 -160 77 -500 190/12 RMK AO2 T01170078
14756KACK ACK20160309102010303/09/16 10:20:31  5-MIN KACK 091520Z 18012KT 8SM CLR 12/08 A3015 -160 77 -500 190/12 RMK AO2 T01170078
14756KACK ACK20160309102510303/09/16 10:25:31  5-MIN KACK 091525Z 18011KT 8SM CLR 12/08 A3015 -160 77 -500 190/11 RMK AO2 T01170078
14756KACK ACK20160309103010303/09/16 10:30:31  5-MIN KACK 091530Z 18012KT 8SM CLR 12/08 A3015 -160 80 -500 200/12 RMK AO2 T01170083
14756KACK ACK20160309103510303/09/16 10:35:31  5-MIN KACK 091535Z 19011KT 8SM CLR 12/08 A3015 -160 77 -400 200/11 RMK AO2 T01220083
14756KACK ACK20160309104010303/09/16 10:40:31  5-MIN KACK 091540Z 19012KT 7SM CLR 12/08 A3015 -160 77 -500 200/12 RMK AO2 T01170078
14756KACK ACK20160309104510303/09/16 10:45:31  5-MIN KACK 091545Z 19010KT 7SM CLR 12/08 A3015 -160 77 -500 210/10 RMK AO2 T01170078
14756KACK ACK20160309105011003/09/16 10:50:31  5-MIN KACK 091550Z 19011KT 7SM CLR 11/08 A3015 -150 80 -600 210/11 RMK AO2 SLP208 T01110078
14756KACK ACK20160309105510303/09/16 10:55:31  5-MIN KACK 091555Z 19010KT 7SM CLR 12/08 A3014 -150 77 -500 210/10 RMK AO2 T01170078
14756KACK ACK20160309120510303/09/16 12:05:31  5-MIN KACK 091705Z 19010KT 9SM CLR 12/07 A3012 -130 74 -500 210/10 RMK AO2 T01170072
14756KACK ACK20160309121010303/09/16 12:10:31  5-MIN KACK 091710Z 20010KT 9SM CLR 13/07 A3011 -120 69 -300 210/10 RMK AO2 T01280072
14756KACK ACK20160309121510403/09/16 12:15:31  5-MIN KACK 091715Z 20011KT 10SM CLR 13/07 A3011 -120 69 -300 210/11 RMK AO2 T01280072
14756KACK ACK20160309122010403/09/16 12:20:31  5-MIN KACK 091720Z 21012KT 10SM CLR 13/07 A3011 -120 69 -300 220/12 RMK AO2 T01280072
14756KACK ACK20160309122510303/09/16 12:25:31  5-MIN KACK 091725Z 21012KT 9SM CLR 12/07 A3011 -120 71 -400 220/12 RMK AO2 T01220072
14756KACK ACK20160309123010303/09/16 12:30:31  5-MIN KACK 091730Z 20011KT 9SM CLR 13/07 A3011 -120 69 -300 220/11 RMK AO2 T01280072
14756KACK ACK20160309123510303/09/16 12:35:31  5-MIN KACK 091735Z 20014KT 9SM CLR 13/07 A3010 -110 69 -300 220/14 RMK AO2 T01280072
14756KACK ACK20160309124010303/09/16 12:40:31  5-MIN KACK 091740Z 21012KT 9SM CLR 12/07 A3009 -110 74 -400 220/12 RMK AO2 T01170072
14756KACK ACK20160309124510303/09/16 12:45:31  5-MIN KACK 091745Z 20012KT 9SM CLR 12/07 A3009 -100 71 -400 220/12 RMK AO2 T01220072
14756KACK ACK20160309125013403/09/16 12:50:31  5-MIN KACK 091750Z 21015G20KT 9SM CLR 12/07 A3009 -100 71 -400 220/15G20 RMK AO2 SLP189 T01220072 10128 20072 58010
14756KACK ACK20160309125510303/09/16 12:55:31  5-MIN KACK 091755Z 20015KT 9SM CLR 12/07 A3009 -100 71 -400 220/15 RMK AO2 T01220072
14756KACK ACK20160309130010303/09/16 13:00:31  5-MIN KACK 091800Z 21013KT 9SM CLR 12/07 A3009 -100 71 -400 220/13 RMK AO2 T01220072
14756KACK ACK20160309130510303/09/16 13:05:31  5-MIN KACK 091805Z 21012KT 9SM CLR 13/07 A3009 -100 69 -300 220/12 RMK AO2 T01280072
14756KACK ACK20160309131010303/09/16 13:10:31  5-MIN KACK 091810Z 21012KT 9SM CLR 13/07 A3009 -100 69 -300 220/12 RMK AO2 T01280072
14756KACK ACK20160309131510303/09/16 13:15:31  5-MIN KACK 091815Z 21014KT 9SM CLR 13/07 A3008 -100 69 -300 220/14 RMK AO2 T01280072
14756KACK ACK20160309132010303/09/16 13:20:31  5-MIN KACK 091820Z 21014KT 9SM CLR 13/08 A3008 -100 71 -300 230/14 RMK AO2 T01280078
14756KACK ACK20160309132510303/09/16 13:25:31  5-MIN KACK 091825Z 21011KT 9SM CLR 12/08 A3008 -100 74 -400 230/11 RMK AO2 T01220078
14756KACK ACK20160309133010303/09/16 13:30:31  5-MIN KACK 091830Z 21012KT 9SM CLR 12/08 A3008 -100 74 -400 220/12 RMK AO2 T01220078
14756KACK ACK20160309133510203/09/16 13:35:31  5-MIN KACK 091835Z 21013KT 8SM CLR 12/07 A3008 -90 74 -400 230/13 RMK AO2 T01170072
14756KACK ACK20160309134010203/09/16 13:40:31  5-MIN KACK 091840Z 22012KT 8SM CLR 12/07 A3008 -90 71 -400 230/12 RMK AO2 T01220072
14756KACK ACK20160309134510203/09/16 13:45:31  5-MIN KACK 091845Z 22012KT 8SM CLR 12/07 A3008 -90 74 -400 230/12 RMK AO2 T01170072
14756KACK ACK20160309135010903/09/16 13:50:31  5-MIN KACK 091850Z 22012KT 8SM CLR 12/07 A3008 -90 74 -400 230/12 RMK AO2 SLP186 T01170072
14756KACK ACK20160309135510203/09/16 13:55:31  5-MIN KACK 091855Z 22013KT 8SM CLR 12/07 A3008 -90 74 -400 230/13 RMK AO2 T01170072
14756KACK ACK20160309140010203/09/16 14:00:31  5-MIN KACK 091900Z 22014KT 8SM CLR 12/07 A3008 -90 74 -400 230/14 RMK AO2 T01170072
14756KACK ACK20160309140510203/09/16 14:05:31  5-MIN KACK 091905Z 22014KT 8SM CLR 12/07 A3008 -90 74 -400 230/14 RMK AO2 T01170072
14756KACK ACK20160309141010203/09/16 14:10:31  5-MIN KACK 091910Z 22012KT 8SM CLR 12/07 A3008 -90 74 -400 240/12 RMK AO2 T01170072
14756KACK ACK20160309141510203/09/16 14:15:31  5-MIN KACK 091915Z 22012KT 9SM CLR 12/07 A3008 -90 71 -400 230/12 RMK AO2 T01220072
14756KACK ACK20160309142010203/09/16 14:20:31  5-MIN KACK 091920Z 21012KT 9SM CLR 12/07 A3008 -90 74 -400 230/12 RMK AO2 T01170072
14756KACK ACK20160309142510203/09/16 14:25:31  5-MIN KACK 091925Z 21010KT 8SM CLR 12/07 A3007 -90 71 -400 230/10 RMK AO2 T01220072
14756KACK ACK20160309143010203/09/16 14:30:31  5-MIN KACK 091930Z 21010KT 9SM CLR 12/07 A3007 -90 74 -400 230/10 RMK AO2 T01170072
14756KACK ACK20160309143510203/09/16 14:35:31  5-MIN KACK 091935Z 22010KT 9SM CLR 12/07 A3007 -90 74 -400 230/10 RMK AO2 T01170072
14756KACK ACK20160309144010203/09/16 14:40:31  5-MIN KACK 091940Z 21009KT 9SM CLR 12/07 A3007 -80 71 -400 230/09 RMK AO2 T01220072
14756KACK ACK20160309144510203/09/16 14:45:31  5-MIN KACK 091945Z 21010KT 8SM CLR 12/07 A3007 -80 71 -300 230/10 RMK AO2 T01220072
14756KACK ACK20160309145010903/09/16 14:50:31  5-MIN KACK 091950Z 22011KT 8SM CLR 12/07 A3007 -80 74 -400 230/11 RMK AO2 SLP182 T01170072
14756KACK ACK20160309145510203/09/16 14:55:31  5-MIN KACK 091955Z 22010KT 8SM CLR 12/07 A3007 -80 74 -400 230/10 RMK AO2 T01170072
14756KACK ACK20160309150010203/09/16 15:00:31  5-MIN KACK 092000Z 21012KT 8SM CLR 12/07 A3006 -80 71 -300 230/12 RMK AO2 T01220072
14756KACK ACK20160309150510203/09/16 15:05:31  5-MIN KACK 092005Z 21011KT 8SM CLR 12/07 A3006 -80 74 -400 230/11 RMK AO2 T01170072
14756KACK ACK20160309151010203/09/16 15:10:31  5-MIN KACK 092010Z 21012KT 8SM CLR 12/07 A3006 -70 74 -400 220/12 RMK AO2 T01170072
14756KACK ACK20160309151510203/09/16 15:15:31  5-MIN KACK 092015Z 21013KT 8SM CLR 12/07 A3006 -70 74 -400 220/13 RMK AO2 T01170072
14756KACK ACK20160309152010803/09/16 15:20:31  5-MIN KACK 092020Z 21011G19KT 8SM CLR 12/07 A3006 -70 74 -400 230/11G19 RMK AO2 T01170072
14756KACK ACK20160309152510203/09/16 15:25:31  5-MIN KACK 092025Z 22011KT 8SM CLR 12/07 A3006 -70 74 -400 230/11 RMK AO2 T01170072
14756KACK ACK20160309153010203/09/16 15:30:31  5-MIN KACK 092030Z 22011KT 8SM CLR 11/07 A3006 -70 77 -500 230/11 RMK AO2 T01110072
14756KACK ACK20160309153510203/09/16 15:35:31  5-MIN KACK 092035Z 22011KT 8SM CLR 11/07 A3005 -70 74 -500 230/11 RMK AO2 T01110067
14756KACK ACK20160309154010203/09/16 15:40:31  5-MIN KACK 092040Z 22010KT 8SM CLR 11/07 A3005 -70 74 -500 230/10 RMK AO2 T01110067
14756KACK ACK20160309154510203/09/16 15:45:31  5-MIN KACK 092045Z 22010KT 8SM CLR 11/07 A3005 -70 77 -500 230/10 RMK AO2 T01060067
14756KACK ACK20160309155011503/09/16 15:50:31  5-MIN KACK 092050Z 22011KT 8SM CLR 11/07 A3005 -60 77 -500 230/11 RMK AO2 SLP175 T01060067 58024
14756KACK ACK20160309155510203/09/16 15:55:31  5-MIN KACK 092055Z 22010KT 7SM CLR 11/07 A3005 -60 77 -500 230/10 RMK AO2 T01060067
14756KACK ACK20160309160010203/09/16 16:00:31  5-MIN KACK 092100Z 22010KT 7SM CLR 11/07 A3005 -60 77 -500 230/10 RMK AO2 T01060067
14756KACK ACK20160309160510203/09/16 16:05:31  5-MIN KACK 092105Z 22010KT 7SM CLR 11/07 A3005 -60 77 -500 240/10 RMK AO2 T01060067
14756KACK ACK20160309161010203/09/16 16:10:31  5-MIN KACK 092110Z 22010KT 7SM CLR 11/07 A3004 -60 77 -500 240/10 RMK AO2 T01060067
14756KACK ACK20160309161510203/09/16 16:15:31  5-MIN KACK 092115Z 22012KT 7SM CLR 11/07 A3004 -60 80 -500 230/12 RMK AO2 T01060072
14756KACK ACK20160309162010203/09/16 16:20:31  5-MIN KACK 092120Z 22012KT 7SM CLR 11/07 A3004 -60 80 -500 230/12 RMK AO2 T01060072
14756KACK ACK20160309162510203/09/16 16:25:31  5-MIN KACK 092125Z 22011KT 7SM CLR 11/07 A3004 -50 80 -500 230/11 RMK AO2 T01060072
14756KACK ACK20160309163010203/09/16 16:30:31  5-MIN KACK 092130Z 22012KT 7SM CLR 11/07 A3004 -50 80 -500 230/12 RMK AO2 T01060072
14756KACK ACK20160309163510203/09/16 16:35:31  5-MIN KACK 092135Z 22011KT 7SM CLR 10/07 A3004 -50 83 -600 230/11 RMK AO2 T01000072
14756KACK ACK20160309164010203/09/16 16:40:31  5-MIN KACK 092140Z 22012KT 7SM CLR 10/07 A3003 -50 83 -600 230/12 RMK AO2 T01000072
14756KACK ACK20160309164510203/09/16 16:45:31  5-MIN KACK 092145Z 22011KT 7SM CLR 10/07 A3003 -50 83 -600 230/11 RMK AO2 T01000072
14756KACK ACK20160309165011203/09/16 16:50:31  5-MIN KACK 092150Z 21011KT 6SM HZ CLR 10/07 A3003 -50 83 -600 230/11 RMK AO2 SLP169 T01000072
14756KACK ACK20160309165510203/09/16 16:55:31  5-MIN KACK 092155Z 21010KT 6SM CLR 09/07 A3003 -50 86 -600 230/10 RMK AO2 T00940072
14756KACK ACK20160309170010203/09/16 17:00:31  5-MIN KACK 092200Z 21008KT 7SM CLR 09/07 A3002 -40 86 -600 230/08 RMK AO2 T00940072
14756KACK ACK20160309170510203/09/16 17:05:31  5-MIN KACK 092205Z 21009KT 7SM CLR 09/07 A3002 -40 83 -600 230/09 RMK AO2 T00940067
14756KACK ACK20160309171010203/09/16 17:10:31  5-MIN KACK 092210Z 22008KT 7SM CLR 09/07 A3002 -40 86 -700 230/08 RMK AO2 T00890067
14756KACK ACK20160309171510203/09/16 17:15:31  5-MIN KACK 092215Z 22007KT 7SM CLR 09/07 A3002 -40 86 -600 240/07 RMK AO2 T00940072
14756KACK ACK20160309172010203/09/16 17:20:31  5-MIN KACK 092220Z 22009KT 7SM CLR 09/07 A3003 -40 86 -600 240/09 RMK AO2 T00940072
14756KACK ACK20160309172510203/09/16 17:25:31  5-MIN KACK 092225Z 22008KT 7SM CLR 09/07 A3003 -50 89 -700 240/08 RMK AO2 T00890072
14756KACK ACK20160309173010203/09/16 17:30:31  5-MIN KACK 092230Z 22008KT 7SM CLR 09/07 A3003 -50 86 -700 240/08 RMK AO2 T00890067
14756KACK ACK20160309173510203/09/16 17:35:31  5-MIN KACK 092235Z 22008KT 7SM CLR 08/07 A3003 -50 89 -800 240/08 RMK AO2 T00830067
14756KACK ACK20160309174010203/09/16 17:40:31  5-MIN KACK 092240Z 22009KT 7SM CLR 08/07 A3003 -50 89 -800 230/09 RMK AO2 T00830067
14756KACK ACK20160309174510203/09/16 17:45:31  5-MIN KACK 092245Z 22008KT 7SM CLR 08/07 A3003 -50 89 -800 230/08 RMK AO2 T00830067
14756KACK ACK20160309175011203/09/16 17:50:31  5-MIN KACK 092250Z 22010KT 5SM BR CLR 08/07 A3003 -50 89 -800 230/10 RMK AO2 SLP169 T00830067
14756KACK ACK20160309175510503/09/16 17:55:31  5-MIN KACK 092255Z 22010KT 6SM BR CLR 08/07 A3003 -50 89 -800 230/10 RMK AO2 T00830067
14756KACK ACK20160309180010203/09/16 18:00:31  5-MIN KACK 092300Z 22009KT 7SM CLR 09/07 A3003 -50 86 -700 230/09 RMK AO2 T00890067
14756KACK ACK20160309180510203/09/16 18:05:31  5-MIN KACK 092305Z 22010KT 7SM CLR 08/07 A3003 -50 89 -800 230/10 RMK AO2 T00830067
14756KACK ACK20160309181010203/09/16 18:10:31  5-MIN KACK 092310Z 22010KT 7SM CLR 09/07 A3003 -50 86 -700 230/10 RMK AO2 T00890067
14756KACK ACK20160309181510203/09/16 18:15:31  5-MIN KACK 092315Z 22011KT 7SM CLR 09/07 A3003 -50 86 -700 230/11 RMK AO2 T00890067
14756KACK ACK20160309182010203/09/16 18:20:31  5-MIN KACK 092320Z 22011KT 7SM CLR 09/07 A3003 -50 86 -700 230/11 RMK AO2 T00890067
14756KACK ACK20160309182510203/09/16 18:25:31  5-MIN KACK 092325Z 21011KT 7SM CLR 09/07 A3003 -40 86 -700 230/11 RMK AO2 T00890067
14756KACK ACK20160309183010203/09/16 18:30:31  5-MIN KACK 092330Z 22011KT 7SM CLR 09/07 A3003 -50 86 -700 230/11 RMK AO2 T00890067
14756KACK ACK20160309183510203/09/16 18:35:31  5-MIN KACK 092335Z 22012KT 8SM CLR 09/07 A3003 -40 86 -600 240/12 RMK AO2 T00940072
14756KACK ACK20160309184010203/09/16 18:40:31  5-MIN KACK 092340Z 22011KT 8SM CLR 09/07 A3002 -40 86 -600 230/11 RMK AO2 T00940072
14756KACK ACK20160309184510203/09/16 18:45:31  5-MIN KACK 092345Z 22013KT 8SM CLR 09/07 A3002 -40 86 -600 230/13 RMK AO2 T00940072
14756KACK ACK20160309185012703/09/16 18:50:31  5-MIN KACK 092350Z 22014KT 8SM CLR 09/07 A3002 -40 86 -600 230/14 RMK AO2 SLP164 T00940072 10128 20083 58013
14756KACK ACK20160309185510203/09/16 18:55:31  5-MIN KACK 092355Z 22013KT 8SM CLR 09/07 A3002 -40 86 -600 230/13 RMK AO2 T00940072
14756KACK ACK20160309190010203/09/16 19:00:31  5-MIN KACK 100000Z 22014KT 8SM CLR 09/07 A3002 -40 86 -600 230/14 RMK AO2 T00940072
14756KACK ACK20160309190510203/09/16 19:05:31  5-MIN KACK 100005Z 22014KT 8SM CLR 10/07 A3002 -40 83 -600 240/14 RMK AO2 T01000072
14756KACK ACK20160309191010203/09/16 19:10:31  5-MIN KACK 100010Z 22015KT 8SM CLR 09/07 A3001 -30 86 -600 230/15 RMK AO2 T00940072
14756KACK ACK20160309191510203/09/16 19:15:31  5-MIN KACK 100015Z 22013KT 8SM CLR 09/07 A3001 -30 86 -600 230/13 RMK AO2 T00940072
14756KACK ACK20160309192010203/09/16 19:20:31  5-MIN KACK 100020Z 22013KT 7SM CLR 09/07 A3001 -30 86 -600 230/13 RMK AO2 T00940072
14756KACK ACK20160309192510203/09/16 19:25:31  5-MIN KACK 100025Z 22012KT 7SM CLR 09/07 A3001 -30 86 -600 230/12 RMK AO2 T00940072
14756KACK ACK20160309193010203/09/16 19:30:31  5-MIN KACK 100030Z 23013KT 7SM CLR 09/07 A3002 -30 86 -600 240/13 RMK AO2 T00940072
14756KACK ACK20160309193510203/09/16 19:35:31  5-MIN KACK 100035Z 23012KT 7SM CLR 09/07 A3002 -30 89 -700 240/12 RMK AO2 T00890072
14756KACK ACK20160309194010203/09/16 19:40:31  5-MIN KACK 100040Z 22013KT 7SM CLR 09/07 A3001 -30 89 -700 240/13 RMK AO2 T00890072
14756KACK ACK20160309194510203/09/16 19:45:31  5-MIN KACK 100045Z 22012KT 7SM CLR 09/07 A3000 -20 86 -600 230/12 RMK AO2 T00940072
14756KACK ACK20160309195010903/09/16 19:50:31  5-MIN KACK 100050Z 22013KT 7SM CLR 09/07 A3000 -20 89 -700 240/13 RMK AO2 SLP160 T00890072
14756KACK ACK20160309195510203/09/16 19:55:31  5-MIN KACK 100055Z 22013KT 7SM CLR 09/07 A3000 -20 89 -700 240/13 RMK AO2 T00890072
14756KACK ACK20160309200010203/09/16 20:00:31  5-MIN KACK 100100Z 22012KT 7SM CLR 09/07 A3000 -20 86 -700 240/12 RMK AO2 T00890067
14756KACK ACK20160309200510203/09/16 20:05:31  5-MIN KACK 100105Z 22011KT 7SM CLR 09/07 A3000 -20 86 -700 240/11 RMK AO2 T00890067
14756KACK ACK20160309201011203/09/16 20:10:31  5-MIN KACK 100110Z AUTO 22010KT 7SM CLR 08/07 A2999 -10 89 -700 230/10 RMK AO2 T00830067 TSNO
14756KACK ACK20160309201511203/09/16 20:15:31  5-MIN KACK 100115Z AUTO 22009KT 7SM CLR 08/07 A2999 -10 89 -700 230/09 RMK AO2 T00830067 TSNO
14756KACK ACK20160309202011203/09/16 20:20:31  5-MIN KACK 100120Z AUTO 22011KT 7SM CLR 08/07 A2999 -10 89 -700 240/11 RMK AO2 T00830067 TSNO
14756KACK ACK20160309202511203/09/16 20:25:31  5-MIN KACK 100125Z AUTO 22011KT 7SM CLR 08/07 A2999 -10 89 -700 240/11 RMK AO2 T00830067 TSNO
14756KACK ACK20160309203011203/09/16 20:30:31  5-MIN KACK 100130Z AUTO 23011KT 7SM CLR 08/07 A3000 -20 89 -700 250/11 RMK AO2 T00830067 TSNO
14756KACK ACK20160309203511203/09/16 20:35:31  5-MIN KACK 100135Z AUTO 23011KT 7SM CLR 08/07 A3000 -20 89 -700 240/11 RMK AO2 T00830067 TSNO
14756KACK ACK20160309204011203/09/16 20:40:31  5-MIN KACK 100140Z AUTO 23012KT 7SM CLR 08/07 A2999 -10 89 -700 250/12 RMK AO2 T00830067 TSNO
14756KACK ACK20160309204511203/09/16 20:45:31  5-MIN KACK 100145Z AUTO 23013KT 7SM CLR 08/07 A2999 -10 89 -700 240/13 RMK AO2 T00830067 TSNO
14756KACK ACK20160309205011903/09/16 20:50:31  5-MIN KACK 100150Z AUTO 23012KT 7SM CLR 09/07 A2999 -10 86 -700 240/12 RMK AO2 SLP155 T00890067 TSNO
14756KACK ACK20160309205511203/09/16 20:55:31  5-MIN KACK 100155Z AUTO 23013KT 7SM CLR 08/07 A2999 -10 89 -700 250/13 RMK AO2 T00830067 TSNO
14756KACK ACK20160309210011203/09/16 21:00:31  5-MIN KACK 100200Z AUTO 23013KT 7SM CLR 09/07 A2999 -10 86 -700 250/13 RMK AO2 T00890067 TSNO
14756KACK ACK20160309210511003/09/16 21:05:31  5-MIN KACK 100205Z AUTO 23013KT 7SM CLR 09/07 A2998 0 86 -700 240/13 RMK AO2 T00890067 TSNO
14756KACK ACK20160309211011003/09/16 21:10:31  5-MIN KACK 100210Z AUTO 23012KT 7SM CLR 09/07 A2998 0 86 -700 250/12 RMK AO2 T00890067 TSNO
14756KACK ACK20160309211511003/09/16 21:15:31  5-MIN KACK 100215Z AUTO 23015KT 7SM CLR 09/07 A2998 0 86 -700 250/15 RMK AO2 T00890067 TSNO
14756KACK ACK20160309212011003/09/16 21:20:31  5-MIN KACK 100220Z AUTO 23015KT 7SM CLR 09/07 A2998 0 86 -600 240/15 RMK AO2 T00940072 TSNO
14756KACK ACK20160309212511003/09/16 21:25:31  5-MIN KACK 100225Z AUTO 23015KT 7SM CLR 09/07 A2997 0 86 -600 240/15 RMK AO2 T00940072 TSNO
14756KACK ACK20160309213011003/09/16 21:30:31  5-MIN KACK 100230Z AUTO 23015KT 7SM CLR 09/07 A2998 0 86 -600 250/15 RMK AO2 T00940072 TSNO
14756KACK ACK20160309213511003/09/16 21:35:31  5-MIN KACK 100235Z AUTO 23015KT 7SM CLR 09/07 A2998 0 86 -600 250/15 RMK AO2 T00940072 TSNO
14756KACK ACK20160309214011003/09/16 21:40:31  5-MIN KACK 100240Z AUTO 23015KT 7SM CLR 09/07 A2998 0 86 -600 250/15 RMK AO2 T00940072 TSNO
14756KACK ACK20160309214511003/09/16 21:45:31  5-MIN KACK 100245Z AUTO 24014KT 7SM CLR 09/07 A2998 0 86 -600 250/14 RMK AO2 T00940072 TSNO
14756KACK ACK20160309215012503/09/16 21:50:31  5-MIN KACK 100250Z AUTO 24016KT 7SM CLR 09/07 A2999 -10 86 -600 250/16 RMK AO2 SLP154 T00940072 56011 TSNO
14756KACK ACK20160309215511203/09/16 21:55:31  5-MIN KACK 100255Z AUTO 24015KT 7SM CLR 09/07 A2999 -10 86 -600 260/15 RMK AO2 T00940072 TSNO
14756KACK ACK20160309220011203/09/16 22:00:31  5-MIN KACK 100300Z AUTO 25015KT 7SM CLR 09/07 A2999 -10 86 -600 260/15 RMK AO2 T00940072 TSNO
14756KACK ACK20160309220511203/09/16 22:05:31  5-MIN KACK 100305Z AUTO 25015KT 7SM CLR 09/07 A2999 -10 86 -600 260/15 RMK AO2 T00940072 TSNO
14756KACK ACK20160309221011203/09/16 22:10:31  5-MIN KACK 100310Z AUTO 24013KT 7SM CLR 09/07 A2999 -10 86 -600 260/13 RMK AO2 T00940072 TSNO
14756KACK ACK20160309221511003/09/16 22:15:31  5-MIN KACK 100315Z AUTO 24015KT 8SM CLR 09/07 A2998 0 86 -600 250/15 RMK AO2 T00940072 TSNO
14756KACK ACK20160309222011003/09/16 22:20:31  5-MIN KACK 100320Z AUTO 23015KT 7SM CLR 09/07 A2998 0 83 -600 250/15 RMK AO2 T00940067 TSNO
14756KACK ACK20160309222511003/09/16 22:25:31  5-MIN KACK 100325Z AUTO 23015KT 7SM CLR 09/07 A2998 0 86 -600 250/15 RMK AO2 T00890067 TSNO
14756KACK ACK20160309223011303/09/16 22:30:31  5-MIN KACK 100330Z AUTO 24015KT 6SM BR CLR 09/07 A2998 0 86 -600 260/15 RMK AO2 T00890067 TSNO
14756KACK ACK20160309223511303/09/16 22:35:31  5-MIN KACK 100335Z AUTO 24016KT 6SM BR CLR 09/07 A2998 0 86 -600 260/16 RMK AO2 T00890067 TSNO
14756KACK ACK20160309224011003/09/16 22:40:31  5-MIN KACK 100340Z AUTO 24017KT 7SM CLR 09/07 A2998 0 83 -600 260/17 RMK AO2 T00940067 TSNO
14756KACK ACK20160309224511203/09/16 22:45:31  5-MIN KACK 100345Z AUTO 24018KT 7SM CLR 09/07 A2999 -10 83 -600 250/18 RMK AO2 T00940067 TSNO
14756KACK ACK20160309225011903/09/16 22:50:31  5-MIN KACK 100350Z AUTO 24015KT 7SM CLR 09/07 A2999 -10 83 -600 260/15 RMK AO2 SLP154 T00940067 TSNO
14756KACK ACK20160309225511203/09/16 22:55:31  5-MIN KACK 100355Z AUTO 25015KT 7SM CLR 09/07 A2999 -10 83 -600 260/15 RMK AO2 T00940067 TSNO
14756KACK ACK20160309230011803/09/16 23:00:31  5-MIN KACK 100400Z AUTO 24015G22KT 7SM CLR 09/07 A2999 -10 83 -600 260/15G22 RMK AO2 T00940067 TSNO
14756KACK ACK20160309230511803/09/16 23:05:31  5-MIN KACK 100405Z AUTO 24016G22KT 8SM CLR 09/07 A2999 -10 83 -600 260/16G22 RMK AO2 T00940067 TSNO
14756KACK ACK20160309231011203/09/16 23:10:31  5-MIN KACK 100410Z AUTO 24017KT 8SM CLR 09/07 A2999 -10 83 -600 260/17 RMK AO2 T00940067 TSNO
14756KACK ACK20160309231511203/09/16 23:15:31  5-MIN KACK 100415Z AUTO 24017KT 8SM CLR 09/07 A2999 -10 83 -600 250/17 RMK AO2 T00940067 TSNO
14756KACK ACK20160309232011203/09/16 23:20:31  5-MIN KACK 100420Z AUTO 24016KT 8SM CLR 09/07 A2999 -10 83 -600 260/16 RMK AO2 T00940067 TSNO
14756KACK ACK20160309232511203/09/16 23:25:31  5-MIN KACK 100425Z AUTO 24017KT 8SM CLR 09/07 A2999 -10 83 -600 260/17 RMK AO2 T00940067 TSNO
14756KACK ACK20160309233011203/09/16 23:30:31  5-MIN KACK 100430Z AUTO 24016KT 8SM CLR 09/07 A2999 -10 83 -600 260/16 RMK AO2 T00940067 TSNO
14756KACK ACK20160309233511203/09/16 23:35:31  5-MIN KACK 100435Z AUTO 25016KT 8SM CLR 09/07 A2999 -10 83 -600 260/16 RMK AO2 T00940067 TSNO
14756KACK ACK20160309234011203/09/16 23:40:31  5-MIN KACK 100440Z AUTO 25017KT 8SM CLR 09/07 A2999 -10 83 -600 260/17 RMK AO2 T00940067 TSNO
14756KACK ACK20160309234511203/09/16 23:45:31  5-MIN KACK 100445Z AUTO 24015KT 8SM CLR 09/07 A2999 -10 83 -600 260/15 RMK AO2 T00940067 TSNO
14756KACK ACK20160309235012903/09/16 23:50:31  5-MIN KACK 100450Z AUTO 25016KT 8SM CLR 09/07 A2999 -10 83 -600 260/16 RMK AO2 SLP157 T00940067 401280050 TSNO
14756KACK ACK20160309235511203/09/16 23:55:31  5-MIN KACK 100455Z AUTO 25016KT 8SM CLR 09/07 A3000 -20 83 -600 260/16 RMK AO2 T00940067 TSNO
14756KACK ACK20160310000011203/10/16 00:00:31  5-MIN KACK 100500Z AUTO 24016KT 8SM CLR 09/07 A2999 -10 83 -600 260/16 RMK AO2 T00940067 TSNO
14756KACK ACK20160310000511203/10/16 00:05:31  5-MIN KACK 100505Z AUTO 25016KT 8SM CLR 09/07 A2999 -10 83 -600 260/16 RMK AO2 T00940067 TSNO
14756KACK ACK20160310001011203/10/16 00:10:31  5-MIN KACK 100510Z AUTO 25016KT 8SM CLR 09/07 A2999 -10 83 -600 260/16 RMK AO2 T00940067 TSNO
14756KACK ACK20160310001511203/10/16 00:15:31  5-MIN KACK 100515Z AUTO 25017KT 8SM CLR 09/07 A2999 -10 83 -600 260/17 RMK AO2 T00940067 TSNO
14756KACK ACK20160310002011203/10/16 00:20:31  5-MIN KACK 100520Z AUTO 24017KT 8SM CLR 09/07 A2999 -10 83 -600 260/17 RMK AO2 T00940067 TSNO
14756KACK ACK20160310002511203/10/16 00:25:31  5-MIN KACK 100525Z AUTO 24015KT 8SM CLR 09/07 A2999 -10 86 -700 260/15 RMK AO2 T00890067 TSNO
14756KACK ACK20160310003011203/10/16 00:30:31  5-MIN KACK 100530Z AUTO 24015KT 8SM CLR 09/07 A2999 -10 86 -700 260/15 RMK AO2 T00890067 TSNO
14756KACK ACK20160310003511203/10/16 00:35:31  5-MIN KACK 100535Z AUTO 24015KT 7SM CLR 09/07 A2999 -10 86 -700 260/15 RMK AO2 T00890067 TSNO
14756KACK ACK20160310004011203/10/16 00:40:31  5-MIN KACK 100540Z AUTO 24015KT 7SM CLR 09/07 A2999 -10 86 -700 260/15 RMK AO2 T00890067 TSNO
14756KACK ACK20160310004511203/10/16 00:45:31  5-MIN KACK 100545Z AUTO 24014KT 7SM CLR 09/07 A2999 -10 86 -700 260/14 RMK AO2 T00890067 TSNO
14756KACK ACK20160310005013703/10/16 00:50:31  5-MIN KACK 100550Z AUTO 24014KT 7SM CLR 09/07 A2998 -10 86 -700 260/14 RMK AO2 SLP153 T00890067 10100 20083 56010 TSNO
14756KACK ACK20160310005511003/10/16 00:55:31  5-MIN KACK 100555Z AUTO 24015KT 7SM CLR 09/06 A2998 0 83 -700 250/15 RMK AO2 T00890061 TSNO
14756KACK ACK20160310010011003/10/16 01:00:31  5-MIN KACK 100600Z AUTO 24014KT 7SM CLR 08/06 A2998 0 86 -700 250/14 RMK AO2 T00830061 TSNO
14756KACK ACK20160310010511303/10/16 01:05:31  5-MIN KACK 100605Z AUTO 24015KT 6SM BR CLR 08/06 A2998 0 86 -700 250/15 RMK AO2 T00830061 TSNO
14756KACK ACK20160310011011303/10/16 01:10:31  5-MIN KACK 100610Z AUTO 24014KT 6SM BR CLR 08/06 A2998 0 86 -700 250/14 RMK AO2 T00830061 TSNO
14756KACK ACK20160310011511303/10/16 01:15:31  5-MIN KACK 100615Z AUTO 24014KT 6SM BR CLR 08/06 A2998 0 86 -700 250/14 RMK AO2 T00830061 TSNO
14756KACK ACK20160310012011303/10/16 01:20:31  5-MIN KACK 100620Z AUTO 24014KT 5SM BR CLR 08/06 A2998 0 86 -700 250/14 RMK AO2 T00830061 TSNO
14756KACK ACK20160310012511303/10/16 01:25:31  5-MIN KACK 100625Z AUTO 24013KT 6SM BR CLR 08/06 A2998 0 86 -700 250/13 RMK AO2 T00830061 TSNO
14756KACK ACK20160310013011303/10/16 01:30:31  5-MIN KACK 100630Z AUTO 24014KT 6SM BR CLR 08/06 A2997 0 86 -700 250/14 RMK AO2 T00830061 TSNO
14756KACK ACK20160310013511303/10/16 01:35:31  5-MIN KACK 100635Z AUTO 24014KT 6SM BR CLR 08/06 A2997 0 86 -700 250/14 RMK AO2 T00830061 TSNO
14756KACK ACK20160310014011303/10/16 01:40:31  5-MIN KACK 100640Z AUTO 24015KT 6SM BR CLR 08/06 A2997 0 86 -700 250/15 RMK AO2 T00830061 TSNO
14756KACK ACK20160310014511303/10/16 01:45:31  5-MIN KACK 100645Z AUTO 24015KT 6SM BR CLR 08/06 A2997 0 86 -700 250/15 RMK AO2 T00830061 TSNO
14756KACK ACK20160310015012003/10/16 01:50:31  5-MIN KACK 100650Z AUTO 24015KT 6SM BR CLR 08/06 A2997 0 86 -700 250/15 RMK AO2 SLP148 T00830061 TSNO
14756KACK ACK20160310015511403/10/16 01:55:31  5-MIN KACK 100655Z AUTO 24014KT 6SM BR CLR 08/06 A2997 10 86 -700 250/14 RMK AO2 T00830061 TSNO
14756KACK ACK20160310020011403/10/16 02:00:31  5-MIN KACK 100700Z AUTO 24014KT 6SM BR CLR 08/06 A2996 10 86 -700 250/14 RMK AO2 T00830061 TSNO
14756KACK ACK20160310020511403/10/16 02:05:31  5-MIN KACK 100705Z AUTO 24014KT 6SM BR CLR 08/06 A2996 10 86 -700 250/14 RMK AO2 T00830061 TSNO
14756KACK ACK20160310021011403/10/16 02:10:31  5-MIN KACK 100710Z AUTO 24014KT 6SM HZ CLR 09/06 A2996 10 83 -600 260/14 RMK AO2 T00890061 TSNO
14756KACK ACK20160310021511103/10/16 02:15:31  5-MIN KACK 100715Z AUTO 24013KT 7SM CLR 09/06 A2997 10 83 -600 260/13 RMK AO2 T00890061 TSNO
14756KACK ACK20160310022011103/10/16 02:20:31  5-MIN KACK 100720Z AUTO 24014KT 7SM CLR 09/06 A2996 10 83 -600 260/14 RMK AO2 T00890061 TSNO
14756KACK ACK20160310022511103/10/16 02:25:31  5-MIN KACK 100725Z AUTO 24014KT 8SM CLR 09/07 A2996 10 86 -600 260/14 RMK AO2 T00890067 TSNO
14756KACK ACK20160310023011103/10/16 02:30:31  5-MIN KACK 100730Z AUTO 25014KT 8SM CLR 09/06 A2996 10 83 -600 260/14 RMK AO2 T00890061 TSNO
14756KACK ACK20160310023511103/10/16 02:35:31  5-MIN KACK 100735Z AUTO 25013KT 8SM CLR 09/07 A2996 10 83 -600 260/13 RMK AO2 T00940067 TSNO
14756KACK ACK20160310024011103/10/16 02:40:31  5-MIN KACK 100740Z AUTO 24014KT 8SM CLR 09/07 A2996 10 83 -600 260/14 RMK AO2 T00940067 TSNO
14756KACK ACK20160310024511103/10/16 02:45:31  5-MIN KACK 100745Z AUTO 24015KT 8SM CLR 09/07 A2996 10 83 -600 260/15 RMK AO2 T00940067 TSNO
14756KACK ACK20160310025011803/10/16 02:50:31  5-MIN KACK 100750Z AUTO 25015KT 8SM CLR 09/07 A2996 10 83 -600 260/15 RMK AO2 SLP146 T00940067 TSNO
14756KACK ACK20160310025511103/10/16 02:55:31  5-MIN KACK 100755Z AUTO 24015KT 8SM CLR 09/07 A2996 10 83 -600 260/15 RMK AO2 T00940067 TSNO
14756KACK ACK20160310030011103/10/16 03:00:31  5-MIN KACK 100800Z AUTO 24013KT 8SM CLR 09/07 A2996 10 83 -600 260/13 RMK AO2 T00940067 TSNO
14756KACK ACK20160310030511103/10/16 03:05:31  5-MIN KACK 100805Z AUTO 24014KT 8SM CLR 09/07 A2996 10 83 -600 260/14 RMK AO2 T00940067 TSNO
14756KACK ACK20160310031011103/10/16 03:10:31  5-MIN KACK 100810Z AUTO 24014KT 8SM CLR 09/07 A2996 10 83 -600 260/14 RMK AO2 T00940067 TSNO
14756KACK ACK20160310031511103/10/16 03:15:31  5-MIN KACK 100815Z AUTO 24014KT 8SM CLR 09/07 A2996 20 83 -600 260/14 RMK AO2 T00940067 TSNO
14756KACK ACK20160310032011103/10/16 03:20:31  5-MIN KACK 100820Z AUTO 24013KT 7SM CLR 09/07 A2996 10 86 -600 260/13 RMK AO2 T00890067 TSNO
14756KACK ACK20160310032511103/10/16 03:25:31  5-MIN KACK 100825Z AUTO 24013KT 7SM CLR 09/07 A2996 10 86 -600 260/13 RMK AO2 T00890067 TSNO
14756KACK ACK20160310033011103/10/16 03:30:31  5-MIN KACK 100830Z AUTO 24014KT 7SM CLR 09/07 A2997 10 86 -600 260/14 RMK AO2 T00890067 TSNO
14756KACK ACK20160310033511103/10/16 03:35:31  5-MIN KACK 100835Z AUTO 25013KT 7SM CLR 09/07 A2996 10 86 -600 260/13 RMK AO2 T00890067 TSNO
14756KACK ACK20160310034011103/10/16 03:40:31  5-MIN KACK 100840Z AUTO 24013KT 7SM CLR 09/07 A2996 10 86 -600 260/13 RMK AO2 T00890067 TSNO
14756KACK ACK20160310034511103/10/16 03:45:31  5-MIN KACK 100845Z AUTO 24013KT 7SM CLR 09/07 A2996 10 86 -600 260/13 RMK AO2 T00890067 TSNO
14756KACK ACK20160310035012403/10/16 03:50:31  5-MIN KACK 100850Z AUTO 24014KT 7SM CLR 09/07 A2997 10 86 -600 260/14 RMK AO2 SLP148 T00890067 58001 TSNO
14756KACK ACK20160310035511003/10/16 03:55:31  5-MIN KACK 100855Z AUTO 24014KT 7SM CLR 09/07 A2997 0 86 -600 260/14 RMK AO2 T00890067 TSNO
14756KACK ACK20160310040011003/10/16 04:00:31  5-MIN KACK 100900Z AUTO 24013KT 7SM CLR 09/07 A2997 0 86 -600 260/13 RMK AO2 T00890067 TSNO
14756KACK ACK20160310040511003/10/16 04:05:31  5-MIN KACK 100905Z AUTO 24014KT 7SM CLR 09/07 A2997 0 86 -600 260/14 RMK AO2 T00890067 TSNO
14756KACK ACK20160310041011003/10/16 04:10:31  5-MIN KACK 100910Z AUTO 24014KT 8SM CLR 09/07 A2997 0 86 -600 260/14 RMK AO2 T00890067 TSNO
14756KACK ACK20160310041511003/10/16 04:15:31  5-MIN KACK 100915Z AUTO 24013KT 8SM CLR 09/07 A2997 0 86 -600 260/13 RMK AO2 T00890067 TSNO
14756KACK ACK20160310042011003/10/16 04:20:31  5-MIN KACK 100920Z AUTO 24013KT 7SM CLR 09/07 A2997 0 86 -600 250/13 RMK AO2 T00890067 TSNO
14756KACK ACK20160310042511303/10/16 04:25:31  5-MIN KACK 100925Z AUTO 24013KT 6SM BR CLR 08/06 A2998 0 86 -700 250/13 RMK AO2 T00830061 TSNO
14756KACK ACK20160310043011303/10/16 04:30:31  5-MIN KACK 100930Z AUTO 24013KT 6SM BR CLR 08/06 A2997 0 86 -700 250/13 RMK AO2 T00830061 TSNO
14756KACK ACK20160310043511303/10/16 04:35:31  5-MIN KACK 100935Z AUTO 23011KT 6SM BR CLR 08/06 A2997 0 86 -700 250/11 RMK AO2 T00830061 TSNO
14756KACK ACK20160310044011303/10/16 04:40:31  5-MIN KACK 100940Z AUTO 24011KT 6SM BR CLR 08/06 A2997 0 86 -700 250/11 RMK AO2 T00830061 TSNO
14756KACK ACK20160310044511303/10/16 04:45:31  5-MIN KACK 100945Z AUTO 24011KT 6SM BR CLR 08/06 A2997 0 86 -700 250/11 RMK AO2 T00830061 TSNO
14756KACK ACK20160310045012003/10/16 04:50:31  5-MIN KACK 100950Z AUTO 24012KT 6SM BR CLR 08/06 A2997 0 86 -700 250/12 RMK AO2 SLP149 T00830061 TSNO
14756KACK ACK20160310045512303/10/16 04:55:31  5-MIN KACK 100955Z AUTO 25011KT 6SM BR FEW090 FEW110 08/06 A2997 0 86 -700 260/11 RMK AO2 T00830061 TSNO
14756KACK ACK20160310050012003/10/16 05:00:31  5-MIN KACK 101000Z AUTO 25012KT 7SM FEW085 SCT110 09/06 A2997 0 83 -600 260/12 RMK AO2 T00890061 TSNO
14756KACK ACK20160310050512003/10/16 05:05:31  5-MIN KACK 101005Z AUTO 24013KT 8SM FEW085 SCT110 09/07 A2998 0 86 -600 260/13 RMK AO2 T00890067 TSNO
14756KACK ACK20160310051012003/10/16 05:10:31  5-MIN KACK 101010Z AUTO 25012KT 8SM FEW085 FEW110 09/06 A2997 0 83 -600 260/12 RMK AO2 T00890061 TSNO
14756KACK ACK20160310051512003/10/16 05:15:31  5-MIN KACK 101015Z AUTO 25012KT 8SM FEW085 FEW110 09/07 A2998 0 86 -600 270/12 RMK AO2 T00890067 TSNO
14756KACK ACK20160310052012003/10/16 05:20:31  5-MIN KACK 101020Z AUTO 25013KT 8SM FEW085 FEW110 09/07 A2998 0 83 -600 270/13 RMK AO2 T00940067 TSNO
14756KACK ACK20160310052511003/10/16 05:25:31  5-MIN KACK 101025Z AUTO 25012KT 8SM CLR 09/07 A2997 0 83 -600 260/12 RMK AO2 T00940067 TSNO
14756KACK ACK20160310053011003/10/16 05:30:31  5-MIN KACK 101030Z AUTO 25012KT 8SM CLR 09/07 A2997 0 83 -600 270/12 RMK AO2 T00940067 TSNO
14756KACK ACK20160310053511003/10/16 05:35:31  5-MIN KACK 101035Z AUTO 25010KT 8SM CLR 09/07 A2998 0 83 -600 260/10 RMK AO2 T00940067 TSNO
14756KACK ACK20160310054011003/10/16 05:40:31  5-MIN KACK 101040Z AUTO 25011KT 8SM CLR 09/07 A2998 0 83 -600 260/11 RMK AO2 T00940067 TSNO
14756KACK ACK20160310054510003/10/16 05:45:31  5-MIN KACK 101045Z 25011KT 8SM CLR 09/07 A2998 0 86 -600 260/11 RMK AO2 T00890067
14756KACK ACK20160310055010703/10/16 05:50:31  5-MIN KACK 101050Z 25010KT 8SM CLR 09/07 A2998 0 83 -600 260/10 RMK AO2 SLP152 T00940067
14756KACK ACK20160310055510003/10/16 05:55:31  5-MIN KACK 101055Z 25011KT 8SM CLR 09/07 A2998 0 86 -700 270/11 RMK AO2 T00890067
14756KACK ACK20160310060010003/10/16 06:00:31  5-MIN KACK 101100Z 25011KT 8SM CLR 09/07 A2998 0 86 -700 260/11 RMK AO2 T00890067
14756KACK ACK20160310060510003/10/16 06:05:31  5-MIN KACK 101105Z 25010KT 8SM CLR 09/07 A2998 0 86 -700 260/10 RMK AO2 T00890067
14756KACK ACK20160310061010003/10/16 06:10:31  5-MIN KACK 101110Z 25010KT 8SM CLR 09/06 A2998 0 83 -700 260/10 RMK AO2 T00890061
14756KACK ACK20160310061510003/10/16 06:15:31  5-MIN KACK 101115Z 25010KT 8SM CLR 09/06 A2998 0 83 -700 270/10 RMK AO2 T00890061
14756KACK ACK20160310062010003/10/16 06:20:31  5-MIN KACK 101120Z 25010KT 7SM CLR 09/06 A2998 0 83 -700 270/10 RMK AO2 T00890061
14756KACK ACK20160310062510003/10/16 06:25:31  5-MIN KACK 101125Z 24011KT 7SM CLR 09/06 A2998 0 83 -600 260/11 RMK AO2 T00890061
14756KACK ACK20160310063010003/10/16 06:30:31  5-MIN KACK 101130Z 24011KT 7SM CLR 09/06 A2998 0 83 -600 260/11 RMK AO2 T00890061
14756KACK ACK20160310063510003/10/16 06:35:31  5-MIN KACK 101135Z 24011KT 7SM CLR 09/06 A2998 0 83 -600 260/11 RMK AO2 T00890061
14756KACK ACK20160310064010003/10/16 06:40:31  5-MIN KACK 101140Z 25010KT 7SM CLR 09/07 A2998 0 86 -700 260/10 RMK AO2 T00890067
14756KACK ACK20160310064510003/10/16 06:45:31  5-MIN KACK 101145Z 25012KT 7SM CLR 09/07 A2998 0 86 -700 270/12 RMK AO2 T00890067
14756KACK ACK20160310065013603/10/16 06:50:31  5-MIN KACK 101150Z 25013G20KT 7SM FEW120 09/07 A2999 -10 83 -600 260/13G20 RMK AO2 SLP154 T00940067 10094 20083 55005
14756KACK ACK20160310065510003/10/16 06:55:31  5-MIN KACK 101155Z 25012KT 8SM CLR 09/07 A2998 0 83 -600 260/12 RMK AO2 T00940067
14756KACK ACK20160310070010203/10/16 07:00:31  5-MIN KACK 101200Z 25012KT 8SM CLR 09/07 A2999 -10 83 -600 270/12 RMK AO2 T00940067
14756KACK ACK20160310070510003/10/16 07:05:31  5-MIN KACK 101205Z 25013KT 8SM CLR 09/07 A2998 0 83 -600 270/13 RMK AO2 T00940067
14756KACK ACK20160310071010003/10/16 07:10:31  5-MIN KACK 101210Z 25011KT 8SM CLR 09/07 A2998 0 83 -600 270/11 RMK AO2 T00940067
14756KACK ACK20160310071510003/10/16 07:15:31  5-MIN KACK 101215Z 25011KT 8SM CLR 09/07 A2998 0 83 -600 260/11 RMK AO2 T00940067
14756KACK ACK20160310072010203/10/16 07:20:31  5-MIN KACK 101220Z 25010KT 8SM CLR 10/07 A2999 -10 80 -500 270/10 RMK AO2 T01000067
14756KACK ACK20160310072510203/10/16 07:25:31  5-MIN KACK 101225Z 25010KT 8SM CLR 10/07 A2999 -10 80 -500 270/10 RMK AO2 T01000067
14756KACK ACK20160310073010203/10/16 07:30:31  5-MIN KACK 101230Z 25010KT 8SM CLR 10/07 A2999 -10 80 -500 260/10 RMK AO2 T01000067
14756KACK ACK20160310073510203/10/16 07:35:31  5-MIN KACK 101235Z 24010KT 8SM CLR 10/07 A3000 -20 80 -500 260/10 RMK AO2 T01000067
14756KACK ACK20160310074010203/10/16 07:40:31  5-MIN KACK 101240Z 24010KT 8SM CLR 09/07 A3000 -20 83 -600 260/10 RMK AO2 T00940067
14756KACK ACK20160310074510203/10/16 07:45:31  5-MIN KACK 101245Z 24010KT 8SM CLR 09/07 A3000 -20 83 -600 260/10 RMK AO2 T00940067
14756KACK ACK20160310075010903/10/16 07:50:31  5-MIN KACK 101250Z 24009KT 7SM CLR 09/07 A3000 -20 83 -600 260/09 RMK AO2 SLP160 T00940067
14756KACK ACK20160310075510203/10/16 07:55:31  5-MIN KACK 101255Z 25012KT 7SM CLR 10/07 A3001 -30 80 -600 260/12 RMK AO2 T01000067
14756KACK ACK20160310080010203/10/16 08:00:31  5-MIN KACK 101300Z 25011KT 8SM CLR 10/07 A3001 -30 80 -600 260/11 RMK AO2 T01000067
14756KACK ACK20160310080510203/10/16 08:05:31  5-MIN KACK 101305Z 26010KT 8SM CLR 10/07 A3001 -30 80 -500 270/10 RMK AO2 T01000067
14756KACK ACK20160310081010203/10/16 08:10:31  5-MIN KACK 101310Z 25008KT 8SM CLR 10/07 A3000 -20 80 -500 260/08 RMK AO2 T01000067
14756KACK ACK20160310081510203/10/16 08:15:31  5-MIN KACK 101315Z 25010KT 8SM CLR 10/07 A3000 -20 80 -500 260/10 RMK AO2 T01000067
14756KACK ACK20160310082010203/10/16 08:20:31  5-MIN KACK 101320Z 24009KT 8SM CLR 10/07 A3001 -30 80 -500 260/09 RMK AO2 T01000067
14756KACK ACK20160310082510203/10/16 08:25:31  5-MIN KACK 101325Z 25010KT 8SM CLR 10/07 A3001 -30 80 -600 260/10 RMK AO2 T01000067
14756KACK ACK20160310083010203/10/16 08:30:31  5-MIN KACK 101330Z 25009KT 8SM CLR 10/07 A3001 -30 80 -500 260/09 RMK AO2 T01000067
14756KACK ACK20160310083510203/10/16 08:35:31  5-MIN KACK 101335Z 25011KT 8SM CLR 11/07 A3001 -30 80 -500 270/11 RMK AO2 T01060072
14756KACK ACK20160310084010203/10/16 08:40:31  5-MIN KACK 101340Z 25010KT 8SM CLR 11/07 A3001 -30 77 -500 270/10 RMK AO2 T01060067
14756KACK ACK20160310084510203/10/16 08:45:31  5-MIN KACK 101345Z 25010KT 8SM CLR 11/07 A3001 -20 80 -500 270/10 RMK AO2 T01060072
14756KACK ACK20160310085010903/10/16 08:50:31  5-MIN KACK 101350Z 25009KT 8SM CLR 11/07 A3000 -20 80 -500 260/09 RMK AO2 SLP159 T01060072
14756KACK ACK20160310085510203/10/16 08:55:31  5-MIN KACK 101355Z 25010KT 8SM CLR 11/07 A3001 -30 77 -400 270/10 RMK AO2 T01110072
14756KACK ACK20160310090010503/10/16 09:00:31  5-MIN KACK 101400Z 25011KT 8SM FEW110 11/07 A3001 -30 77 -400 270/11 RMK AO2 T01110072
14756KACK ACK20160310090511103/10/16 09:05:31  5-MIN KACK 101405Z 25013G18KT 9SM SCT110 11/07 A3001 -30 77 -400 270/13G18 RMK AO2 T01110072
14756KACK ACK20160310091010503/10/16 09:10:31  5-MIN KACK 101410Z 26013KT 9SM SCT110 11/07 A3001 -30 77 -400 270/13 RMK AO2 T01110072
14756KACK ACK20160310091510503/10/16 09:15:31  5-MIN KACK 101415Z 26013KT 9SM BKN110 11/07 A3001 -30 77 -400 270/13 RMK AO2 T01110072
14756KACK ACK20160310092010503/10/16 09:20:31  5-MIN KACK 101420Z 26012KT 9SM BKN110 12/07 A3001 -30 74 -400 280/12 RMK AO2 T01170072
14756KACK ACK20160310092510503/10/16 09:25:31  5-MIN KACK 101425Z 26010KT 9SM BKN110 12/07 A3001 -30 74 -300 280/10 RMK AO2 T01170072
14756KACK ACK20160310093010503/10/16 09:30:31  5-MIN KACK 101430Z 27013KT 9SM BKN110 12/07 A3002 -30 71 -300 280/13 RMK AO2 T01220072
14756KACK ACK20160310093510603/10/16 09:35:31  5-MIN KACK 101435Z 26011KT 10SM BKN110 12/07 A3001 -30 71 -300 280/11 RMK AO2 T01220072
14756KACK ACK20160310094010603/10/16 09:40:31  5-MIN KACK 101440Z 26012KT 10SM BKN110 13/07 A3001 -30 69 -200 270/12 RMK AO2 T01280072
14756KACK ACK20160310094510603/10/16 09:45:31  5-MIN KACK 101445Z 26013KT 10SM BKN110 12/07 A3001 -30 71 -300 270/13 RMK AO2 T01220072
14756KACK ACK20160310095011903/10/16 09:50:31  5-MIN KACK 101450Z 25012KT 10SM BKN110 12/07 A3001 -30 71 -300 260/12 RMK AO2 SLP161 T01220072 51005
14756KACK ACK20160310095510603/10/16 09:55:31  5-MIN KACK 101455Z 25011KT 10SM SCT110 12/07 A3000 -20 71 -300 270/11 RMK AO2 T01220072
14756KACK ACK20160310100010603/10/16 10:00:31  5-MIN KACK 101500Z 25009KT 10SM SCT110 13/07 A3000 -20 69 -200 260/09 RMK AO2 T01280072
14756KACK ACK20160310100510603/10/16 10:05:31  5-MIN KACK 101505Z 25009KT 10SM FEW110 13/08 A3000 -20 69 -100 260/09 RMK AO2 T01330078
14756KACK ACK20160310101010603/10/16 10:10:31  5-MIN KACK 101510Z 26010KT 10SM FEW110 13/08 A3000 -20 69 -100 270/10 RMK AO2 T01330078
14756KACK ACK20160311223011403/11/16 22:30:31  5-MIN KACK 120330Z AUTO 00000KT 7SM CLR 02/01 A3030 -290 96 -1900 000/00 RMK AO2 T00170011 TSNO
14756KACK ACK20160311223511703/11/16 22:35:31  5-MIN KACK 120335Z AUTO 00000KT 5SM BR CLR 02/01 A3030 -290 92 -1800 000/00 RMK AO2 T00220011 TSNO
14756KACK ACK20160311224011703/11/16 22:40:31  5-MIN KACK 120340Z AUTO 00000KT 5SM BR CLR 02/01 A3030 -300 92 -1800 000/00 RMK AO2 T00220011 TSNO
14756KACK ACK20160311224511403/11/16 22:45:31  5-MIN KACK 120345Z AUTO 27003KT 7SM CLR 03/02 A3030 -290 92 -1800 290/03 RMK AO2 T00280017 TSNO
14756KACK ACK20160311225012103/11/16 22:50:31  5-MIN KACK 120350Z AUTO 00000KT 7SM CLR 03/02 A3030 -300 92 -1800 000/00 RMK AO2 SLP261 T00280017 TSNO
14756KACK ACK20160311225511703/11/16 22:55:31  5-MIN KACK 120355Z AUTO 00000KT 5SM BR CLR 02/01 A3031 -300 92 -1900 000/00 RMK AO2 T00170006 TSNO
14756KACK ACK20160311230011703/11/16 23:00:31  5-MIN KACK 120400Z AUTO 29003KT 5SM BR CLR 02/01 A3030 -300 92 -1800 310/03 RMK AO2 T00220011 TSNO
14756KACK ACK20160311230511403/11/16 23:05:31  5-MIN KACK 120405Z AUTO 28004KT 8SM CLR 02/01 A3030 -300 92 -1800 290/04 RMK AO2 T00220011 TSNO
14756KACK ACK20160311231011403/11/16 23:10:31  5-MIN KACK 120410Z AUTO 27004KT 9SM CLR 03/01 A3030 -290 89 -1800 290/04 RMK AO2 T00280011 TSNO
14756KACK ACK20160311231511503/11/16 23:15:31  5-MIN KACK 120415Z AUTO 00000KT 10SM CLR 01/01 A3030 -290 96 -2000 000/00 RMK AO2 T00110006 TSNO
14756KACK ACK20160311232011403/11/16 23:20:31  5-MIN KACK 120420Z AUTO 27003KT 8SM CLR 02/00 A3030 -290 89 -1900 290/03 RMK AO2 T00170000 TSNO
14756KACK ACK20160311232511703/11/16 23:25:31  5-MIN KACK 120425Z AUTO 28004KT 6SM BR CLR 02/01 A3030 -290 89 -1800 300/04 RMK AO2 T00220006 TSNO
14756KACK ACK20160311233011403/11/16 23:30:31  5-MIN KACK 120430Z AUTO 29005KT 7SM CLR 03/01 A3030 -300 85 -1800 310/05 RMK AO2 T00280006 TSNO
14756KACK ACK20160311233511403/11/16 23:35:31  5-MIN KACK 120435Z AUTO 30005KT 9SM CLR 03/01 A3030 -300 85 -1700 320/05 RMK AO2 T00330011 TSNO
14756KACK ACK20160311234011403/11/16 23:40:31  5-MIN KACK 120440Z AUTO 31006KT 8SM CLR 03/01 A3031 -300 89 -1800 330/06 RMK AO2 T00280011 TSNO
14756KACK ACK20160311234513003/11/16 23:45:31  5-MIN KACK 120445Z AUTO 31006KT 7SM -RA CLR 03/02 A3031 -300 89 -1700 330/06 RMK AO2 RAB44 P0000 T00330017 TSNO
14756KACK ACK20160311235014703/11/16 23:50:31  5-MIN KACK 120450Z AUTO 30006KT 8SM -RA CLR 03/02 A3031 -310 89 -1700 320/06 RMK AO2 RAB44 SLP264 P0000 T00330017 401280011 TSNO
14756KACK ACK20160311235512403/11/16 23:55:31  5-MIN KACK 120455Z AUTO 32006KT 9SM -RA CLR 04/02 A3031 -310 89 -1600 330/06 RMK AO2 P0000 T00390022 TSNO
14756KACK ACK20160312000012403/12/16 00:00:31  5-MIN KACK 120500Z AUTO 31006KT 8SM -RA CLR 03/02 A3031 -310 89 -1700 330/06 RMK AO2 P0000 T00330017 TSNO
14756KACK ACK20160312000512703/12/16 00:05:31  5-MIN KACK 120505Z AUTO 32005KT 6SM -RA BR CLR 03/02 A3031 -300 89 -1700 330/05 RMK AO2 P0000 T00330017 TSNO
14756KACK ACK20160312001012703/12/16 00:10:31  5-MIN KACK 120510Z AUTO 32004KT 6SM -RA BR CLR 03/02 A3031 -310 89 -1700 330/04 RMK AO2 P0000 T00330017 TSNO
14756KACK ACK20160312001512703/12/16 00:15:31  5-MIN KACK 120515Z AUTO 31004KT 6SM -RA BR CLR 03/02 A3031 -310 89 -1700 320/04 RMK AO2 P0000 T00330017 TSNO
14756KACK ACK20160312002012403/12/16 00:20:31  5-MIN KACK 120520Z AUTO 30004KT 7SM -RA CLR 04/02 A3031 -310 89 -1600 320/04 RMK AO2 P0000 T00390022 TSNO
14756KACK ACK20160312002512703/12/16 00:25:31  5-MIN KACK 120525Z AUTO 32004KT 5SM -RA BR CLR 04/02 A3031 -300 89 -1600 330/04 RMK AO2 P0000 T00390022 TSNO
14756KACK ACK20160312003012903/12/16 00:30:31  5-MIN KACK 120530Z AUTO 33004KT 5SM BR CLR 03/02 A3031 -300 92 -1700 340/04 RMK AO2 RAE30 P0000 T00330022 TSNO
14756KACK ACK20160312003512903/12/16 00:35:31  5-MIN KACK 120535Z AUTO 32004KT 4SM BR CLR 03/02 A3031 -300 92 -1700 330/04 RMK AO2 RAE30 P0000 T00330022 TSNO
14756KACK ACK20160312004013303/12/16 00:40:31  5-MIN KACK 120540Z AUTO 00000KT 1 1/2SM BR CLR 03/02 A3031 -300 96 -1800 000/00 RMK AO2 RAE30 P0000 T00280022 TSNO
14756KACK ACK20160312004514103/12/16 00:45:31  5-MIN KACK 120545Z AUTO 00000KT 1SM R24/P6000FT BR CLR 01/01 A3031 -300 96 -2000 000/00 RMK AO2 RAE30 P0000 T00110006 TSNO
14756KACK ACK20160312005017203/12/16 00:50:31  5-MIN KACK 120550Z AUTO 35003KT 1SM R24/P6000FT BR CLR 02/01 A3031 -300 89 -1800 360/03 RMK AO2 RAE30 SLP263 P0000 60000 T00220006 10050 20011 51026 TSNO
14756KACK ACK20160312005513903/12/16 00:55:31  5-MIN KACK 120555Z AUTO 00000KT 1SM R24/P6000FT -RA BR CLR 02/01 A3031 -300 92 -1800 000/00 RMK AO2 P0000 T00220011 TSNO
14756KACK ACK20160312010015403/12/16 01:00:31  5-MIN KACK 120600Z AUTO 36003KT 1SM R24/P6000FT -SN BR CLR 02/01 A3031 -300 96 -1900 010/03 RMK AO2 RAE0559SNB0559 P0000 T00170011 TSNO
14756KACK ACK20160312010516403/12/16 01:05:31  5-MIN KACK 120605Z AUTO 36004KT 3/4SM R24/4000VP6000FT -SN BR VV004 01/M01 A3030 -300 92 -2100 020/04 RMK AO2 RAE0559SNB0559 P0000 T00061006 TSNO
14756KACK ACK20160312011016303/12/16 01:10:31  5-MIN KACK 120610Z AUTO 34003KT 3/4SM R24/4000VP6000FT -SN BR VV004 01/00 A3031 -300 96 -2100 350/03 RMK AO2 RAE0559SNB0559 P0000 T00060000 TSNO
14756KACK ACK20160312011516403/12/16 01:15:31  5-MIN KACK 120615Z AUTO 36003KT 3/4SM R24/P6000FT -SN BR VV003 01/00 A3031 -300 96 -2100 020/03 RMK AO2 RAE0559B11E15SNB0559 P0000 T00060000 TSNO
14756KACK ACK20160312012016403/12/16 01:20:31  5-MIN KACK 120620Z AUTO 34005KT 3/4SM R24/P6000FT -SN BR VV003 01/00 A3031 -300 92 -2000 360/05 RMK AO2 RAE0559B11E15SNB0559 P0000 T00110000 TSNO
14756KACK ACK20160312012515403/12/16 01:25:31  5-MIN KACK 120625Z AUTO 36005KT 1 1/4SM BR FEW003 01/00 A3031 -300 92 -2000 010/05 RMK AO2 RAE0559B11E15SNB0559E25 P0000 T00110000 TSNO
14756KACK ACK20160312013018103/12/16 01:30:31  5-MIN KACK 120630Z AUTO 35005KT 1 3/4SM R24/2400VP6000FT BR SCT003 01/00 A3031 -300 92 -2000 360/05 RMK AO2 VIS 1/2V5 RAE0559B11E15SNB0559E25 P0000 T00110000 TSNO
14756KACK ACK20160312013516803/12/16 01:35:31  5-MIN KACK 120635Z AUTO 36004KT 1/2SM R24/2400VP6000FT FG VV002 01/01 A3031 -300 96 -2000 010/04 RMK AO2 RAE0559B11E15SNB0559E25 P0000 T00110006 TSNO
14756KACK ACK20160312014016703/12/16 01:40:31  5-MIN KACK 120640Z AUTO 35004KT 1/2SM R24/2800V4500FT FG VV002 02/01 A3031 -310 96 -1900 360/04 RMK AO2 RAE0559B11E15SNB0559E25 P0000 T00170011 TSNO
14756KACK ACK20160312014516803/12/16 01:45:31  5-MIN KACK 120645Z AUTO 34003KT 1/2SM R24/3000VP6000FT FG VV002 02/01 A3031 -310 92 -1900 350/03 RMK AO2 RAE0559B11E15SNB0559E25 P0000 T00220011 TSNO
14756KACK ACK20160312015017503/12/16 01:50:31  5-MIN KACK 120650Z AUTO 33004KT 3/4SM R24/3500VP6000FT BR VV002 03/02 A3031 -310 92 -1800 350/04 RMK AO2 RAE0559B11E15SNB0559E25 SLP265 P0000 T00280017 TSNO
14756KACK ACK20160312015512403/12/16 01:55:31  5-MIN KACK 120655Z AUTO 34005KT 2 1/2SM BR SCT002 03/02 A3031 -310 89 -1700 360/05 RMK AO2 T00330017 TSNO
14756KACK ACK20160312020011703/12/16 02:00:31  5-MIN KACK 120700Z AUTO 35005KT 9SM FEW002 03/02 A3031 -310 89 -1700 010/05 RMK AO2 T00330017 TSNO
14756KACK ACK20160312020511803/12/16 02:05:31  5-MIN KACK 120705Z AUTO 35005KT 10SM FEW002 03/02 A3032 -310 92 -1800 360/05 RMK AO2 T00280017 TSNO
14756KACK ACK20160312021011503/12/16 02:10:31  5-MIN KACK 120710Z AUTO 34006KT 10SM CLR 03/01 A3032 -310 89 -1800 350/06 RMK AO2 T00280011 TSNO
14756KACK ACK20160312021511503/12/16 02:15:31  5-MIN KACK 120715Z AUTO 33006KT 10SM CLR 03/01 A3032 -310 89 -1800 350/06 RMK AO2 T00280011 TSNO
14756KACK ACK20160312022011503/12/16 02:20:31  5-MIN KACK 120720Z AUTO 34006KT 10SM CLR 03/02 A3032 -310 92 -1800 350/06 RMK AO2 T00280017 TSNO
14756KACK ACK20160312022511503/12/16 02:25:31  5-MIN KACK 120725Z AUTO 35006KT 10SM CLR 02/01 A3032 -310 92 -1900 360/06 RMK AO2 T00220011 TSNO
14756KACK ACK20160312023011503/12/16 02:30:31  5-MIN KACK 120730Z AUTO 35007KT 10SM CLR 02/01 A3032 -310 89 -1900 360/07 RMK AO2 T00220006 TSNO
14756KACK ACK20160312023511503/12/16 02:35:31  5-MIN KACK 120735Z AUTO 35007KT 10SM CLR 03/01 A3031 -310 89 -1800 360/07 RMK AO2 T00280011 TSNO
14756KACK ACK20160312024011503/12/16 02:40:31  5-MIN KACK 120740Z AUTO 36008KT 10SM CLR 03/01 A3032 -310 85 -1800 010/08 RMK AO2 T00280006 TSNO
14756KACK ACK20160312024511503/12/16 02:45:31  5-MIN KACK 120745Z AUTO 35007KT 10SM CLR 03/01 A3031 -310 85 -1800 010/07 RMK AO2 T00280006 TSNO
14756KACK ACK20160312025012203/12/16 02:50:31  5-MIN KACK 120750Z AUTO 35008KT 10SM CLR 03/01 A3032 -310 85 -1800 010/08 RMK AO2 SLP267 T00280006 TSNO
14756KACK ACK20160312025511503/12/16 02:55:31  5-MIN KACK 120755Z AUTO 36009KT 10SM CLR 03/01 A3032 -310 85 -1800 010/09 RMK AO2 T00280006 TSNO
14756KACK ACK20160312030011503/12/16 03:00:31  5-MIN KACK 120800Z AUTO 36009KT 10SM CLR 03/01 A3032 -320 85 -1800 020/09 RMK AO2 T00280006 TSNO
14756KACK ACK20160312030511503/12/16 03:05:31  5-MIN KACK 120805Z AUTO 36009KT 10SM CLR 03/01 A3032 -320 85 -1800 020/09 RMK AO2 T00280006 TSNO
14756KACK ACK20160312031011503/12/16 03:10:31  5-MIN KACK 120810Z AUTO 36009KT 10SM CLR 03/01 A3032 -320 85 -1800 020/09 RMK AO2 T00280006 TSNO
14756KACK ACK20160312031511503/12/16 03:15:31  5-MIN KACK 120815Z AUTO 36008KT 10SM CLR 03/01 A3033 -320 85 -1800 020/08 RMK AO2 T00280006 TSNO
14756KACK ACK20160312032011503/12/16 03:20:31  5-MIN KACK 120820Z AUTO 36008KT 10SM CLR 03/01 A3032 -320 85 -1800 020/08 RMK AO2 T00280006 TSNO
14756KACK ACK20160312032511503/12/16 03:25:31  5-MIN KACK 120825Z AUTO 36008KT 10SM CLR 03/01 A3032 -320 85 -1800 010/08 RMK AO2 T00280006 TSNO
14756KACK ACK20160312033011503/12/16 03:30:31  5-MIN KACK 120830Z AUTO 36008KT 10SM CLR 03/01 A3033 -320 82 -1700 020/08 RMK AO2 T00330006 TSNO
14756KACK ACK20160312033511503/12/16 03:35:31  5-MIN KACK 120835Z AUTO 36007KT 10SM CLR 03/01 A3033 -320 82 -1700 010/07 RMK AO2 T00330006 TSNO
14756KACK ACK20160312034011503/12/16 03:40:31  5-MIN KACK 120840Z AUTO 36006KT 10SM CLR 03/01 A3033 -320 82 -1700 020/06 RMK AO2 T00330006 TSNO
14756KACK ACK20160312034511503/12/16 03:45:31  5-MIN KACK 120845Z AUTO 35005KT 10SM CLR 03/01 A3033 -320 82 -1700 010/05 RMK AO2 T00330006 TSNO
14756KACK ACK20160312035013403/12/16 03:50:31  5-MIN KACK 120850Z AUTO 36005KT 10SM CLR 03/01 A3033 -320 82 -1700 010/05 RMK AO2 SLP271 60000 T00330006 50008 TSNO
14756KACK ACK20160312035511503/12/16 03:55:31  5-MIN KACK 120855Z AUTO 35006KT 10SM CLR 03/01 A3033 -320 82 -1700 010/06 RMK AO2 T00330006 TSNO
14756KACK ACK20160312040011503/12/16 04:00:31  5-MIN KACK 120900Z AUTO 36007KT 10SM CLR 03/01 A3033 -320 82 -1700 020/07 RMK AO2 T00330006 TSNO
14756KACK ACK20160312040511503/12/16 04:05:31  5-MIN KACK 120905Z AUTO 36007KT 10SM CLR 03/01 A3033 -320 85 -1800 020/07 RMK AO2 T00280006 TSNO
14756KACK ACK20160312041011503/12/16 04:10:31  5-MIN KACK 120910Z AUTO 35005KT 10SM CLR 03/01 A3033 -320 85 -1800 010/05 RMK AO2 T00280006 TSNO
14756KACK ACK20160312041511503/12/16 04:15:31  5-MIN KACK 120915Z AUTO 34005KT 10SM CLR 03/01 A3034 -330 82 -1700 360/05 RMK AO2 T00330006 TSNO
14756KACK ACK20160312042011503/12/16 04:20:31  5-MIN KACK 120920Z AUTO 35006KT 10SM CLR 03/01 A3034 -330 85 -1800 010/06 RMK AO2 T00280006 TSNO
14756KACK ACK20160312042511503/12/16 04:25:31  5-MIN KACK 120925Z AUTO 34005KT 10SM CLR 03/00 A3034 -330 82 -1800 360/05 RMK AO2 T00280000 TSNO
14756KACK ACK20160312043011503/12/16 04:30:31  5-MIN KACK 120930Z AUTO 34005KT 10SM CLR 03/00 A3034 -340 82 -1800 360/05 RMK AO2 T00280000 TSNO
14756KACK ACK20160312043511503/12/16 04:35:31  5-MIN KACK 120935Z AUTO 34006KT 10SM CLR 02/00 A3034 -340 85 -1900 360/06 RMK AO2 T00220000 TSNO
14756KACK ACK20160312044011503/12/16 04:40:31  5-MIN KACK 120940Z AUTO 36006KT 10SM CLR 03/00 A3035 -340 82 -1800 010/06 RMK AO2 T00280000 TSNO
14756KACK ACK20160312044511503/12/16 04:45:31  5-MIN KACK 120945Z AUTO 36007KT 10SM CLR 02/00 A3034 -330 85 -1900 020/07 RMK AO2 T00220000 TSNO
14756KACK ACK20160312045012203/12/16 04:50:31  5-MIN KACK 120950Z AUTO 36007KT 10SM CLR 02/00 A3034 -330 85 -1900 020/07 RMK AO2 SLP274 T00220000 TSNO
14756KACK ACK20160312045511503/12/16 04:55:31  5-MIN KACK 120955Z AUTO 36005KT 10SM CLR 03/00 A3034 -330 82 -1800 020/05 RMK AO2 T00280000 TSNO
14756KACK ACK20160312050011503/12/16 05:00:31  5-MIN KACK 121000Z AUTO 35005KT 10SM CLR 02/00 A3034 -330 85 -1900 010/05 RMK AO2 T00220000 TSNO
14756KACK ACK20160312050511503/12/16 05:05:31  5-MIN KACK 121005Z AUTO 35004KT 10SM CLR 03/00 A3034 -330 82 -1800 010/04 RMK AO2 T00280000 TSNO
14756KACK ACK20160312051011503/12/16 05:10:31  5-MIN KACK 121010Z AUTO 35004KT 10SM CLR 02/00 A3034 -330 85 -1900 360/04 RMK AO2 T00220000 TSNO
14756KACK ACK20160312051511503/12/16 05:15:31  5-MIN KACK 121015Z AUTO 34004KT 10SM CLR 03/01 A3033 -320 85 -1800 360/04 RMK AO2 T00280006 TSNO
14756KACK ACK20160312052011503/12/16 05:20:31  5-MIN KACK 121020Z AUTO 35003KT 10SM CLR 03/01 A3033 -330 85 -1800 010/03 RMK AO2 T00280006 TSNO
14756KACK ACK20160312052511503/12/16 05:25:31  5-MIN KACK 121025Z AUTO 35003KT 10SM CLR 02/00 A3033 -320 89 -1900 010/03 RMK AO2 T00170000 TSNO
14756KACK ACK20160312053011603/12/16 05:30:31  5-MIN KACK 121030Z AUTO 35003KT 10SM CLR 02/M01 A3033 -320 85 -1900 010/03 RMK AO2 T00171006 TSNO
14756KACK ACK20160312053511603/12/16 05:35:31  5-MIN KACK 121035Z AUTO 01003KT 10SM CLR 02/M01 A3032 -320 82 -1900 030/03 RMK AO2 T00221006 TSNO
14756KACK ACK20160312054011603/12/16 05:40:31  5-MIN KACK 121040Z AUTO 02003KT 10SM CLR 02/M01 A3032 -310 82 -1900 040/03 RMK AO2 T00221006 TSNO
14756KACK ACK20160312054511603/12/16 05:45:31  5-MIN KACK 121045Z AUTO 04004KT 10SM CLR 02/M01 A3031 -310 82 -1900 060/04 RMK AO2 T00221006 TSNO
14756KACK ACK20160312055012303/12/16 05:50:31  5-MIN KACK 121050Z AUTO 05005KT 10SM CLR 01/M01 A3031 -300 89 -2000 070/05 RMK AO2 SLP263 T00111006 TSNO
14756KACK ACK20160312055510603/12/16 05:55:31  5-MIN KACK 121055Z 04004KT 10SM CLR 01/M01 A3030 -300 89 -2000 060/04 RMK AO2 T00111006
14756KACK ACK20160312060010603/12/16 06:00:31  5-MIN KACK 121100Z 04003KT 10SM CLR 01/M01 A3031 -300 89 -2100 060/03 RMK AO2 T00061011
14756KACK ACK20160312060510603/12/16 06:05:31  5-MIN KACK 121105Z 00000KT 10SM CLR 01/M01 A3031 -300 85 -2000 000/00 RMK AO2 T00111011
14756KACK ACK20160312061010503/12/16 06:10:31  5-MIN KACK 121110Z 00000KT 10SM CLR 02/00 A3030 -300 89 -1900 000/00 RMK AO2 T00170000
14756KACK ACK20160312061510703/12/16 06:15:31  5-MIN KACK 121115Z 00000KT 10SM CLR M01/M01 A3031 -300 96 -2200 000/00 RMK AO2 T10061011
14756KACK ACK20160312062010603/12/16 06:20:31  5-MIN KACK 121120Z 00000KT 10SM CLR 01/M01 A3031 -310 85 -2000 000/00 RMK AO2 T00111011
14756KACK ACK20160312062510603/12/16 06:25:31  5-MIN KACK 121125Z 00000KT 10SM CLR 01/M01 A3031 -310 89 -2000 000/00 RMK AO2 T00111006
14756KACK ACK20160312063010603/12/16 06:30:31  5-MIN KACK 121130Z 00000KT 10SM CLR 01/M01 A3032 -310 89 -2100 000/00 RMK AO2 T00061011
14756KACK ACK20160312063510603/12/16 06:35:31  5-MIN KACK 121135Z 00000KT 10SM CLR 01/M01 A3032 -310 92 -2100 000/00 RMK AO2 T00061006
14756KACK ACK20160312064010603/12/16 06:40:31  5-MIN KACK 121140Z 34003KT 10SM CLR 01/M01 A3032 -310 89 -2000 360/03 RMK AO2 T00111006
14756KACK ACK20160312064510503/12/16 06:45:31  5-MIN KACK 121145Z 35003KT 10SM CLR 02/00 A3033 -320 85 -1900 360/03 RMK AO2 T00220000
14756KACK ACK20160312065014203/12/16 06:50:31  5-MIN KACK 121150Z 34003KT 10SM CLR 02/00 A3033 -320 85 -1900 350/03 RMK AO2 SLP269 60000 70002 T00220000 10033 21006 51007
14756KACK ACK20160312065510503/12/16 06:55:31  5-MIN KACK 121155Z 34003KT 10SM CLR 03/01 A3033 -320 85 -1800 350/03 RMK AO2 T00280006
14756KACK ACK20160312070010503/12/16 07:00:31  5-MIN KACK 121200Z 33003KT 10SM CLR 03/01 A3033 -320 82 -1700 350/03 RMK AO2 T00330006
14756KACK ACK20160312070510503/12/16 07:05:31  5-MIN KACK 121205Z 34004KT 10SM CLR 04/01 A3033 -330 82 -1700 350/04 RMK AO2 T00390011
14756KACK ACK20160312071010503/12/16 07:10:31  5-MIN KACK 121210Z 33004KT 10SM CLR 04/02 A3034 -330 82 -1600 350/04 RMK AO2 T00440017
14756KACK ACK20160312071510503/12/16 07:15:31  5-MIN KACK 121215Z 33003KT 10SM CLR 05/02 A3034 -330 82 -1500 340/03 RMK AO2 T00500022
14756KACK ACK20160312072010503/12/16 07:20:31  5-MIN KACK 121220Z 34004KT 10SM CLR 05/02 A3034 -330 82 -1500 350/04 RMK AO2 T00500022
14756KACK ACK20160312072510503/12/16 07:25:31  5-MIN KACK 121225Z 34003KT 10SM CLR 06/03 A3034 -340 82 -1500 350/03 RMK AO2 T00560028
14756KACK ACK20160312073010503/12/16 07:30:31  5-MIN KACK 121230Z 33003KT 10SM CLR 06/03 A3035 -340 79 -1400 350/03 RMK AO2 T00610028
14756KACK ACK20160312073510503/12/16 07:35:31  5-MIN KACK 121235Z 35004KT 10SM CLR 06/02 A3035 -340 76 -1400 360/04 RMK AO2 T00610022
14756KACK ACK20160312074010503/12/16 07:40:31  5-MIN KACK 121240Z 35005KT 10SM CLR 06/02 A3035 -340 76 -1400 010/05 RMK AO2 T00610022
14756KACK ACK20160312074510503/12/16 07:45:31  5-MIN KACK 121245Z 36005KT 10SM CLR 07/02 A3035 -340 73 -1300 020/05 RMK AO2 T00670022
14756KACK ACK20160312075011203/12/16 07:50:31  5-MIN KACK 121250Z 36005KT 10SM CLR 07/02 A3035 -340 70 -1300 010/05 RMK AO2 SLP276 T00670017
14756KACK ACK20160312075510503/12/16 07:55:31  5-MIN KACK 121255Z 36005KT 10SM CLR 07/02 A3035 -340 70 -1300 020/05 RMK AO2 T00670017
14756KACK ACK20160312080010503/12/16 08:00:31  5-MIN KACK 121300Z 03005KT 10SM CLR 07/02 A3035 -340 70 -1300 040/05 RMK AO2 T00670017
14756KACK ACK20160312080510503/12/16 08:05:31  5-MIN KACK 121305Z 03003KT 10SM CLR 07/02 A3035 -340 68 -1300 050/03 RMK AO2 T00720017
14756KACK ACK20160312081010503/12/16 08:10:31  5-MIN KACK 121310Z 36003KT 10SM CLR 07/02 A3035 -340 70 -1300 020/03 RMK AO2 T00670017
14756KACK ACK20160312081510503/12/16 08:15:31  5-MIN KACK 121315Z 00000KT 10SM CLR 07/02 A3035 -340 70 -1300 000/00 RMK AO2 T00670017
14756KACK ACK20160312082010503/12/16 08:20:31  5-MIN KACK 121320Z 36003KT 10SM CLR 07/02 A3035 -340 68 -1300 010/03 RMK AO2 T00720017
14756KACK ACK20160312082510503/12/16 08:25:31  5-MIN KACK 121325Z 08003KT 10SM CLR 07/02 A3035 -340 68 -1300 090/03 RMK AO2 T00720017
14756KACK ACK20160312083010503/12/16 08:30:31  5-MIN KACK 121330Z 09003KT 10SM CLR 07/01 A3035 -340 67 -1300 110/03 RMK AO2 T00670011
14756KACK ACK20160312083510503/12/16 08:35:31  5-MIN KACK 121335Z 00000KT 10SM CLR 07/01 A3034 -330 65 -1300 000/00 RMK AO2 T00720011
14756KACK ACK20160312084010503/12/16 08:40:31  5-MIN KACK 121340Z 00000KT 10SM CLR 08/02 A3034 -330 65 -1200 000/00 RMK AO2 T00780017
14756KACK ACK20160312084510503/12/16 08:45:31  5-MIN KACK 121345Z VRB03KT 10SM CLR 08/02 A3034 -330 65 -1200 VRB/03 RMK AO2 T00780017
14756KACK ACK20160312085011203/12/16 08:50:31  5-MIN KACK 121350Z 06004KT 10SM CLR 08/01 A3033 -330 62 -1200 070/04 RMK AO2 SLP272 T00780011
14756KACK ACK20160312085510503/12/16 08:55:31  5-MIN KACK 121355Z VRB03KT 10SM CLR 07/01 A3033 -320 65 -1300 VRB/03 RMK AO2 T00720011
14756KACK ACK20160312090010503/12/16 09:00:31  5-MIN KACK 121400Z 16005KT 10SM CLR 08/02 A3033 -330 65 -1200 180/05 RMK AO2 T00780017
14756KACK ACK20160312090510503/12/16 09:05:31  5-MIN KACK 121405Z 16006KT 10SM CLR 08/02 A3033 -320 65 -1200 180/06 RMK AO2 T00780017
14756KACK ACK20160312091010503/12/16 09:10:31  5-MIN KACK 121410Z 17007KT 10SM CLR 07/02 A3033 -320 68 -1300 180/07 RMK AO2 T00720017
14756KACK ACK20160312091510503/12/16 09:15:31  5-MIN KACK 121415Z 16006KT 10SM CLR 07/02 A3033 -320 68 -1300 180/06 RMK AO2 T00720017
14756KACK ACK20160312092010503/12/16 09:20:31  5-MIN KACK 121420Z 17006KT 10SM CLR 07/02 A3033 -320 68 -1300 190/06 RMK AO2 T00720017
14756KACK ACK20160312092510503/12/16 09:25:31  5-MIN KACK 121425Z 15006KT 10SM CLR 08/02 A3033 -320 65 -1200 160/06 RMK AO2 T00780017
14756KACK ACK20160312093010503/12/16 09:30:31  5-MIN KACK 121430Z 15005KT 10SM CLR 07/01 A3033 -320 65 -1200 170/05 RMK AO2 T00720011
14756KACK ACK20160312093510503/12/16 09:35:31  5-MIN KACK 121435Z VRB04KT 10SM CLR 07/01 A3032 -320 65 -1200 VRB/04 RMK AO2 T00720011
14756KACK ACK20160312094010503/12/16 09:40:31  5-MIN KACK 121440Z 18005KT 10SM CLR 07/01 A3032 -320 65 -1200 190/05 RMK AO2 T00720011
14756KACK ACK20160312094510503/12/16 09:45:31  5-MIN KACK 121445Z 15006KT 10SM CLR 08/01 A3032 -310 62 -1200 170/06 RMK AO2 T00780011
14756KACK ACK20160312095011803/12/16 09:50:31  5-MIN KACK 121450Z 16007KT 10SM CLR 07/01 A3032 -320 62 -1200 170/07 RMK AO2 SLP268 T00720006 53000
14756KACK ACK20160312095510503/12/16 09:55:31  5-MIN KACK 121455Z 15006KT 10SM CLR 07/01 A3032 -310 62 -1200 170/06 RMK AO2 T00720006
14756KACK ACK20160312100010503/12/16 10:00:31  5-MIN KACK 121500Z 15006KT 10SM CLR 08/01 A3032 -310 62 -1200 160/06 RMK AO2 T00780011
14756KACK ACK20160312100510503/12/16 10:05:31  5-MIN KACK 121505Z 17007KT 10SM CLR 08/01 A3032 -310 62 -1200 180/07 RMK AO2 T00780011
14756KACK ACK20160312101010503/12/16 10:10:31  5-MIN KACK 121510Z 17008KT 10SM CLR 08/01 A3031 -310 62 -1200 180/08 RMK AO2 T00780011
14756KACK ACK20160312101510503/12/16 10:15:31  5-MIN KACK 121515Z 16007KT 10SM CLR 07/01 A3030 -300 65 -1200 170/07 RMK AO2 T00720011
14756KACK ACK20160312102011203/12/16 10:20:31  5-MIN KACK 121520Z 16007KT 10SM CLR 08/01 A3030 -290 62 -1100 170/07 RMK AO2 PRESFR T00780011
14756KACK ACK20160312102510503/12/16 10:25:31  5-MIN KACK 121525Z 16007KT 10SM CLR 08/02 A3030 -290 65 -1100 180/07 RMK AO2 T00780017
14756KACK ACK20160312103010503/12/16 10:30:31  5-MIN KACK 121530Z 14007KT 10SM CLR 07/02 A3030 -290 68 -1200 150/07 RMK AO2 T00720017
14756KACK ACK20160312103510503/12/16 10:35:31  5-MIN KACK 121535Z 15007KT 10SM CLR 08/02 A3029 -290 65 -1100 170/07 RMK AO2 T00780017
14756KACK ACK20160312104010503/12/16 10:40:31  5-MIN KACK 121540Z 16008KT 10SM CLR 08/01 A3029 -280 62 -1100 170/08 RMK AO2 T00780011
14756KACK ACK20160312104510503/12/16 10:45:31  5-MIN KACK 121545Z 15007KT 10SM CLR 07/01 A3028 -280 65 -1200 170/07 RMK AO2 T00720011
14756KACK ACK20160312105011203/12/16 10:50:31  5-MIN KACK 121550Z 16007KT 10SM CLR 08/02 A3029 -280 65 -1100 170/07 RMK AO2 SLP255 T00780017
14756KACK ACK20160312105510503/12/16 10:55:31  5-MIN KACK 121555Z 16007KT 10SM CLR 08/02 A3029 -280 65 -1100 180/07 RMK AO2 T00780017
14756KACK ACK20160312110010503/12/16 11:00:31  5-MIN KACK 121600Z 16006KT 10SM CLR 07/02 A3028 -280 68 -1200 170/06 RMK AO2 T00720017
14756KACK ACK20160312110510503/12/16 11:05:31  5-MIN KACK 121605Z 14007KT 10SM CLR 07/02 A3028 -280 68 -1200 160/07 RMK AO2 T00720017
14756KACK ACK20160312111010503/12/16 11:10:31  5-MIN KACK 121610Z 16008KT 10SM CLR 08/02 A3028 -280 65 -1100 170/08 RMK AO2 T00780017
14756KACK ACK20160312111510503/12/16 11:15:31  5-MIN KACK 121615Z 17006KT 10SM CLR 07/02 A3027 -270 68 -1200 180/06 RMK AO2 T00720017
14756KACK ACK20160312112010503/12/16 11:20:31  5-MIN KACK 121620Z 15007KT 10SM CLR 07/02 A3027 -270 68 -1200 170/07 RMK AO2 T00720017
14756KACK ACK20160312112510503/12/16 11:25:31  5-MIN KACK 121625Z 16006KT 10SM CLR 08/02 A3027 -270 68 -1100 170/06 RMK AO2 T00780022
14756KACK ACK20160312113010503/12/16 11:30:31  5-MIN KACK 121630Z 15006KT 10SM CLR 08/02 A3027 -270 65 -1100 160/06 RMK AO2 T00780017
14756KACK ACK20160312113510503/12/16 11:35:31  5-MIN KACK 121635Z 15006KT 10SM CLR 07/02 A3027 -260 68 -1200 170/06 RMK AO2 T00720017
14756KACK ACK20160312114010503/12/16 11:40:31  5-MIN KACK 121640Z 16006KT 10SM CLR 07/02 A3027 -270 68 -1200 170/06 RMK AO2 T00720017
14756KACK ACK20160312114510503/12/16 11:45:31  5-MIN KACK 121645Z VRB05KT 10SM CLR 08/02 A3026 -260 65 -1100 VRB/05 RMK AO2 T00780017
14756KACK ACK20160312115011203/12/16 11:50:31  5-MIN KACK 121650Z VRB05KT 10SM CLR 07/02 A3026 -260 68 -1200 VRB/05 RMK AO2 SLP248 T00720017
14756KACK ACK20160312115510503/12/16 11:55:31  5-MIN KACK 121655Z 18008KT 10SM CLR 08/02 A3026 -260 65 -1100 200/08 RMK AO2 T00780017
14756KACK ACK20160312120010503/12/16 12:00:31  5-MIN KACK 121700Z 18009KT 10SM CLR 08/02 A3026 -260 68 -1100 190/09 RMK AO2 T00780022
14756KACK ACK20160312120510503/12/16 12:05:31  5-MIN KACK 121705Z 18010KT 10SM CLR 08/02 A3026 -260 68 -1100 200/10 RMK AO2 T00780022
14756KACK ACK20160312121010503/12/16 12:10:31  5-MIN KACK 121710Z 19010KT 10SM CLR 08/02 A3026 -260 68 -1100 210/10 RMK AO2 T00780022
14756KACK ACK20160312121510503/12/16 12:15:31  5-MIN KACK 121715Z 19009KT 10SM CLR 08/02 A3026 -250 68 -1100 200/09 RMK AO2 T00780022
14756KACK ACK20160312122010503/12/16 12:20:31  5-MIN KACK 121720Z 18010KT 10SM CLR 08/02 A3025 -250 68 -1100 200/10 RMK AO2 T00780022
14756KACK ACK20160312122510503/12/16 12:25:31  5-MIN KACK 121725Z 19010KT 10SM CLR 08/02 A3024 -240 68 -1100 210/10 RMK AO2 T00780022
14756KACK ACK20160312123011203/12/16 12:30:31  5-MIN KACK 121730Z 19010KT 10SM CLR 08/03 A3024 -240 68 -1000 200/10 RMK AO2 PRESFR T00830028
14756KACK ACK20160312123511203/12/16 12:35:31  5-MIN KACK 121735Z 18010KT 10SM CLR 08/03 A3023 -230 70 -1100 200/10 RMK AO2 PRESFR T00780028
14756KACK ACK20160312124011503/12/16 12:40:31  5-MIN KACK 121740Z 19011KT 10SM FEW026 08/03 A3022 -220 68 -1000 200/11 RMK AO2 PRESFR T00830028
14756KACK ACK20160312124510803/12/16 12:45:31  5-MIN KACK 121745Z 19011KT 10SM FEW026 08/03 A3022 -220 70 -1100 210/11 RMK AO2 T00780028
14756KACK ACK20160312125013903/12/16 12:50:31  5-MIN KACK 121750Z 19011KT 10SM CLR 08/03 A3021 -210 68 -1000 200/11 RMK AO2 PRESFR SLP230 T00830028 10083 20028 58003 $
14756KACK ACK20160312125511403/12/16 12:55:31  5-MIN KACK 121755Z 19010KT 10SM CLR 08/03 A3020 -200 68 -1000 200/10 RMK AO2 PRESFR T00830028 $
14756KACK ACK20160312130010703/12/16 13:00:31  5-MIN KACK 121800Z 19011KT 10SM CLR 08/03 A3019 -200 70 -1000 200/11 RMK AO2 T00780028 $
14756KACK ACK20160312130511403/12/16 13:05:31  5-MIN KACK 121805Z 19010KT 10SM CLR 08/03 A3019 -190 68 -1000 200/10 RMK AO2 PRESFR T00830028 $
14756KACK ACK20160312131010703/12/16 13:10:31  5-MIN KACK 121810Z 19012KT 10SM CLR 08/03 A3018 -190 70 -1000 210/12 RMK AO2 T00780028 $
14756KACK ACK20160312131510703/12/16 13:15:31  5-MIN KACK 121815Z 19010KT 10SM CLR 08/03 A3018 -190 68 -1000 210/10 RMK AO2 T00830028 $
14756KACK ACK20160312132011003/12/16 13:20:31  5-MIN KACK 121820Z 19010KT 10SM FEW023 08/03 A3018 -190 70 -1000 210/10 RMK AO2 T00780028 $
14756KACK ACK20160312132511003/12/16 13:25:31  5-MIN KACK 121825Z 19010KT 10SM SCT023 08/03 A3018 -180 70 -1000 200/10 RMK AO2 T00780028 $
14756KACK ACK20160312133010703/12/16 13:30:31  5-MIN KACK 121830Z 19011KT 10SM CLR 08/03 A3017 -180 73 -1000 210/11 RMK AO2 T00780033 $
14756KACK ACK20160312133510603/12/16 13:35:31  5-MIN KACK 121835Z 19013KT 10SM CLR 08/03 A3017 -170 70 -900 200/13 RMK AO2 T00830033 $
14756KACK ACK20160312134010703/12/16 13:40:31  5-MIN KACK 121840Z 20011KT 10SM CLR 08/03 A3016 -170 73 -1000 210/11 RMK AO2 T00780033 $
14756KACK ACK20160312134510603/12/16 13:45:31  5-MIN KACK 121845Z 19011KT 10SM CLR 08/03 A3016 -170 70 -900 200/11 RMK AO2 T00830033 $
14756KACK ACK20160312135011303/12/16 13:50:31  5-MIN KACK 121850Z 19013KT 10SM CLR 08/03 A3016 -160 70 -900 200/13 RMK AO2 SLP211 T00830033 $
14756KACK ACK20160312135510603/12/16 13:55:31  5-MIN KACK 121855Z 19013KT 10SM CLR 08/04 A3015 -160 73 -900 210/13 RMK AO2 T00830039 $
14756KACK ACK20160312140010603/12/16 14:00:31  5-MIN KACK 121900Z 20016KT 10SM CLR 08/03 A3015 -160 70 -900 210/16 RMK AO2 T00830033 $
14756KACK ACK20160312140510603/12/16 14:05:31  5-MIN KACK 121905Z 19014KT 10SM CLR 08/03 A3015 -150 70 -900 210/14 RMK AO2 T00830033 $
14756KACK ACK20160312141010603/12/16 14:10:31  5-MIN KACK 121910Z 20014KT 10SM CLR 08/04 A3014 -150 73 -900 210/14 RMK AO2 T00830039 $
14756KACK ACK20160312141510603/12/16 14:15:31  5-MIN KACK 121915Z 20013KT 10SM CLR 08/03 A3014 -150 70 -900 210/13 RMK AO2 T00830033 $
14756KACK ACK20160312142010603/12/16 14:20:31  5-MIN KACK 121920Z 19013KT 10SM CLR 08/04 A3014 -150 73 -900 210/13 RMK AO2 T00830039 $
14756KACK ACK20160312142510603/12/16 14:25:31  5-MIN KACK 121925Z 20014KT 10SM CLR 08/04 A3014 -140 73 -900 210/14 RMK AO2 T00830039 $
14756KACK ACK20160312143010703/12/16 14:30:31  5-MIN KACK 121930Z 20014KT 10SM CLR 08/03 A3014 -140 73 -1000 210/14 RMK AO2 T00780033 $
14756KACK ACK20160312143510603/12/16 14:35:31  5-MIN KACK 121935Z 20014KT 10SM CLR 08/03 A3013 -140 70 -900 210/14 RMK AO2 T00830033 $
14756KACK ACK20160312144010603/12/16 14:40:31  5-MIN KACK 121940Z 20012KT 10SM CLR 08/03 A3013 -140 70 -900 210/12 RMK AO2 T00830033 $
14756KACK ACK20160312144510703/12/16 14:45:31  5-MIN KACK 121945Z 20013KT 10SM CLR 08/03 A3012 -130 73 -1000 210/13 RMK AO2 T00780033 $
14756KACK ACK20160312145011303/12/16 14:50:31  5-MIN KACK 121950Z 21012KT 10SM CLR 08/04 A3012 -130 73 -900 220/12 RMK AO2 SLP200 T00830039 $
14756KACK ACK20160312145511603/12/16 14:55:31  5-MIN KACK 121955Z AUTO 20012KT 10SM CLR 08/03 A3012 -130 73 -900 220/12 RMK AO2 T00780033 TSNO $
14756KACK ACK20160312150010603/12/16 15:00:31  5-MIN KACK 122000Z 20011KT 10SM CLR 08/04 A3012 -130 73 -900 210/11 RMK AO2 T00830039 $
14756KACK ACK20160312150510603/12/16 15:05:31  5-MIN KACK 122005Z 20011KT 10SM CLR 08/04 A3011 -120 76 -900 210/11 RMK AO2 T00780039 $
14756KACK ACK20160312151010603/12/16 15:10:31  5-MIN KACK 122010Z 20011KT 10SM CLR 08/04 A3011 -120 73 -900 220/11 RMK AO2 T00830039 $
14756KACK ACK20160312151510603/12/16 15:15:31  5-MIN KACK 122015Z 20011KT 10SM CLR 08/04 A3011 -120 73 -900 220/11 RMK AO2 T00830039 $
14756KACK ACK20160312152010903/12/16 15:20:31  5-MIN KACK 122020Z 20011KT 10SM FEW019 08/04 A3011 -120 76 -900 220/11 RMK AO2 T00780039 $
14756KACK ACK20160312152510903/12/16 15:25:31  5-MIN KACK 122025Z 20011KT 10SM FEW019 08/04 A3011 -120 76 -900 220/11 RMK AO2 T00780039 $
14756KACK ACK20160312153010903/12/16 15:30:31  5-MIN KACK 122030Z 20012KT 10SM FEW019 08/04 A3011 -120 76 -900 220/12 RMK AO2 T00780039 $
14756KACK ACK20160312153510903/12/16 15:35:31  5-MIN KACK 122035Z 21011KT 10SM FEW019 08/04 A3011 -120 73 -900 220/11 RMK AO2 T00830039 $
14756KACK ACK20160312154010903/12/16 15:40:31  5-MIN KACK 122040Z 20011KT 10SM FEW019 08/04 A3011 -120 73 -900 220/11 RMK AO2 T00830039 $
14756KACK ACK20160312154510903/12/16 15:45:31  5-MIN KACK 122045Z 21011KT 10SM SCT019 08/04 A3011 -120 73 -900 220/11 RMK AO2 T00830039 $
14756KACK ACK20160312155012203/12/16 15:50:31  5-MIN KACK 122050Z 21010KT 10SM SCT019 08/04 A3010 -110 76 -900 220/10 RMK AO2 SLP193 T00830044 58039 $
14756KACK ACK20160312155510903/12/16 15:55:31  5-MIN KACK 122055Z 21012KT 10SM FEW019 08/04 A3010 -110 73 -900 220/12 RMK AO2 T00830039 $
14756KACK ACK20160312160010903/12/16 16:00:31  5-MIN KACK 122100Z 21012KT 10SM FEW019 08/04 A3010 -110 73 -900 220/12 RMK AO2 T00830039 $
14756KACK ACK20160312160510903/12/16 16:05:31  5-MIN KACK 122105Z 21011KT 10SM FEW019 08/04 A3010 -110 73 -900 220/11 RMK AO2 T00830039 $
14756KACK ACK20160312161010903/12/16 16:10:31  5-MIN KACK 122110Z 21012KT 10SM FEW019 08/04 A3009 -100 73 -800 220/12 RMK AO2 T00830039 $
14756KACK ACK20160312161510603/12/16 16:15:31  5-MIN KACK 122115Z 21013KT 10SM CLR 08/04 A3008 -100 76 -900 220/13 RMK AO2 T00780039 $
14756KACK ACK20160312162010503/12/16 16:20:31  5-MIN KACK 122120Z 21013KT 10SM CLR 08/04 A3008 -90 76 -900 220/13 RMK AO2 T00780039 $
14756KACK ACK20160312162510503/12/16 16:25:31  5-MIN KACK 122125Z 21014KT 10SM CLR 08/04 A3008 -90 76 -900 220/14 RMK AO2 T00780039 $
14756KACK ACK20160312163010503/12/16 16:30:31  5-MIN KACK 122130Z 21013KT 10SM CLR 08/04 A3007 -90 76 -800 230/13 RMK AO2 T00830044 $
14756KACK ACK20160312163510503/12/16 16:35:31  5-MIN KACK 122135Z 21013KT 10SM CLR 08/04 A3007 -90 79 -900 220/13 RMK AO2 T00780044 $
14756KACK ACK20160312164010503/12/16 16:40:31  5-MIN KACK 122140Z 21013KT 10SM CLR 08/04 A3007 -80 79 -900 220/13 RMK AO2 T00780044 $
14756KACK ACK20160312164510503/12/16 16:45:31  5-MIN KACK 122145Z 21012KT 10SM CLR 08/04 A3007 -80 76 -800 230/12 RMK AO2 T00830044 $
14756KACK ACK20160312165011203/12/16 16:50:31  5-MIN KACK 122150Z 21011KT 10SM CLR 08/05 A3007 -80 79 -800 230/11 RMK AO2 SLP181 T00830050 $
14756KACK ACK20160312165510503/12/16 16:55:31  5-MIN KACK 122155Z 22012KT 10SM CLR 08/05 A3007 -80 79 -800 230/12 RMK AO2 T00830050 $
14756KACK ACK20160312170010503/12/16 17:00:31  5-MIN KACK 122200Z 21011KT 10SM CLR 08/05 A3007 -80 79 -800 230/11 RMK AO2 T00830050 $
14756KACK ACK20160312170510503/12/16 17:05:31  5-MIN KACK 122205Z 22011KT 10SM CLR 08/05 A3006 -80 82 -900 230/11 RMK AO2 T00780050 $
14756KACK ACK20160312171010303/12/16 17:10:31  5-MIN KACK 122210Z 22010KT 10SM CLR 08/05 A3006 -80 82 -900 240/10 RMK AO2 T00780050
14756KACK ACK20160312171510303/12/16 17:15:31  5-MIN KACK 122215Z 22009KT 10SM CLR 08/05 A3006 -70 82 -900 230/09 RMK AO2 T00780050
14756KACK ACK20160312172010303/12/16 17:20:31  5-MIN KACK 122220Z 22009KT 10SM CLR 08/05 A3006 -70 82 -900 230/09 RMK AO2 T00780050
14756KACK ACK20160312172510303/12/16 17:25:31  5-MIN KACK 122225Z 22009KT 10SM CLR 08/05 A3006 -70 82 -900 230/09 RMK AO2 T00780050
14756KACK ACK20160312173010303/12/16 17:30:31  5-MIN KACK 122230Z 22010KT 10SM CLR 08/05 A3006 -70 82 -900 240/10 RMK AO2 T00780050
14756KACK ACK20160312173510303/12/16 17:35:31  5-MIN KACK 122235Z 22010KT 10SM CLR 07/05 A3005 -70 86 -900 240/10 RMK AO2 T00720050
14756KACK ACK20160312174010303/12/16 17:40:31  5-MIN KACK 122240Z 22011KT 10SM CLR 07/05 A3005 -60 86 -900 230/11 RMK AO2 T00720050
14756KACK ACK20160312174510303/12/16 17:45:31  5-MIN KACK 122245Z 22013KT 10SM CLR 07/05 A3004 -60 86 -900 230/13 RMK AO2 T00720050
14756KACK ACK20160312175011003/12/16 17:50:31  5-MIN KACK 122250Z 22012KT 10SM CLR 08/05 A3004 -60 82 -900 230/12 RMK AO2 SLP173 T00780050
14756KACK ACK20160312175510303/12/16 17:55:31  5-MIN KACK 122255Z 22013KT 10SM CLR 08/05 A3005 -60 82 -900 230/13 RMK AO2 T00780050
14756KACK ACK20160312180010303/12/16 18:00:31  5-MIN KACK 122300Z 22013KT 10SM CLR 07/05 A3005 -60 86 -900 240/13 RMK AO2 T00720050
14756KACK ACK20160312180510303/12/16 18:05:31  5-MIN KACK 122305Z 22011KT 10SM CLR 07/05 A3004 -60 86 -900 240/11 RMK AO2 T00720050
14756KACK ACK20160312181010303/12/16 18:10:31  5-MIN KACK 122310Z 23011KT 10SM CLR 07/05 A3004 -60 86 -900 240/11 RMK AO2 T00720050
14756KACK ACK20160312181510303/12/16 18:15:31  5-MIN KACK 122315Z 23012KT 10SM CLR 07/05 A3004 -60 86 -900 240/12 RMK AO2 T00720050
14756KACK ACK20160312182010303/12/16 18:20:31  5-MIN KACK 122320Z 23012KT 10SM CLR 07/05 A3004 -60 86 -900 240/12 RMK AO2 T00720050
14756KACK ACK20160312182510303/12/16 18:25:31  5-MIN KACK 122325Z 23010KT 10SM CLR 07/05 A3004 -50 86 -900 250/10 RMK AO2 T00720050
14756KACK ACK20160312183010303/12/16 18:30:31  5-MIN KACK 122330Z 23013KT 10SM CLR 07/05 A3003 -50 86 -900 240/13 RMK AO2 T00720050
14756KACK ACK20160312183510303/12/16 18:35:31  5-MIN KACK 122335Z 23014KT 10SM CLR 07/05 A3003 -50 86 -900 250/14 RMK AO2 T00720050
14756KACK ACK20160312184010303/12/16 18:40:31  5-MIN KACK 122340Z 23014KT 10SM CLR 07/05 A3003 -50 86 -900 250/14 RMK AO2 T00720050
14756KACK ACK20160312184510303/12/16 18:45:31  5-MIN KACK 122345Z 23014KT 10SM CLR 07/05 A3003 -40 86 -900 250/14 RMK AO2 T00720050
14756KACK ACK20160312185012803/12/16 18:50:31  5-MIN KACK 122350Z 23013KT 10SM CLR 07/05 A3003 -50 86 -900 250/13 RMK AO2 SLP168 T00720050 10089 20072 56035
14756KACK ACK20160312185510303/12/16 18:55:31  5-MIN KACK 122355Z 24014KT 10SM CLR 07/04 A3003 -50 82 -900 250/14 RMK AO2 T00720044
14756KACK ACK20160312190010303/12/16 19:00:31  5-MIN KACK 130000Z 24014KT 10SM CLR 07/04 A3003 -40 82 -900 250/14 RMK AO2 T00720044
14756KACK ACK20160312190510303/12/16 19:05:31  5-MIN KACK 130005Z 24013KT 10SM CLR 07/04 A3003 -50 82 -900 260/13 RMK AO2 T00720044
14756KACK ACK20160312191010303/12/16 19:10:31  5-MIN KACK 130010Z 24014KT 10SM CLR 07/04 A3002 -40 82 -900 260/14 RMK AO2 T00720044
14756KACK ACK20160312191510303/12/16 19:15:31  5-MIN KACK 130015Z 24013KT 10SM CLR 07/04 A3002 -40 82 -900 260/13 RMK AO2 T00720044
14756KACK ACK20160312192010303/12/16 19:20:31  5-MIN KACK 130020Z 24013KT 10SM CLR 07/04 A3002 -40 82 -900 260/13 RMK AO2 T00720044
14756KACK ACK20160312192510303/12/16 19:25:31  5-MIN KACK 130025Z 25012KT 10SM CLR 07/04 A3003 -50 82 -900 260/12 RMK AO2 T00720044
14756KACK ACK20160312193010303/12/16 19:30:31  5-MIN KACK 130030Z 25011KT 10SM CLR 07/04 A3003 -40 82 -900 260/11 RMK AO2 T00720044
14756KACK ACK20160312193510303/12/16 19:35:31  5-MIN KACK 130035Z 24013KT 10SM CLR 07/04 A3002 -40 82 -900 260/13 RMK AO2 T00720044
14756KACK ACK20160312194010303/12/16 19:40:31  5-MIN KACK 130040Z 24015KT 10SM CLR 07/04 A3002 -40 82 -900 260/15 RMK AO2 T00720044
14756KACK ACK20160312194510303/12/16 19:45:31  5-MIN KACK 130045Z 24015KT 10SM CLR 07/04 A3001 -30 79 -900 250/15 RMK AO2 T00720039
14756KACK ACK20160312195011003/12/16 19:50:31  5-MIN KACK 130050Z 24015KT 10SM CLR 07/04 A3001 -30 79 -900 250/15 RMK AO2 SLP163 T00720039
14756KACK ACK20160312195510303/12/16 19:55:31  5-MIN KACK 130055Z 24014KT 10SM CLR 07/04 A3001 -30 82 -900 260/14 RMK AO2 T00720044
14756KACK ACK20160312200010303/12/16 20:00:31  5-MIN KACK 130100Z 24014KT 10SM CLR 07/04 A3001 -30 79 -900 260/14 RMK AO2 T00720039
14756KACK ACK20160312200510303/12/16 20:05:31  5-MIN KACK 130105Z 24014KT 10SM CLR 07/04 A3001 -30 79 -900 260/14 RMK AO2 T00720039
14756KACK ACK20160312201010303/12/16 20:10:31  5-MIN KACK 130110Z 24014KT 10SM CLR 07/04 A3001 -30 79 -900 260/14 RMK AO2 T00720039
14756KACK ACK20160312201510303/12/16 20:15:31  5-MIN KACK 130115Z 24011KT 10SM CLR 07/04 A3001 -30 79 -900 250/11 RMK AO2 T00720039
14756KACK ACK20160312202010303/12/16 20:20:31  5-MIN KACK 130120Z 24012KT 10SM CLR 07/04 A3000 -20 79 -900 260/12 RMK AO2 T00720039
14756KACK ACK20160312202510303/12/16 20:25:31  5-MIN KACK 130125Z 24014KT 10SM CLR 07/04 A3000 -20 79 -900 250/14 RMK AO2 T00720039
14756KACK ACK20160312203010303/12/16 20:30:31  5-MIN KACK 130130Z 24012KT 10SM CLR 07/04 A3000 -20 79 -900 260/12 RMK AO2 T00720039
14756KACK ACK20160312203510303/12/16 20:35:31  5-MIN KACK 130135Z 25011KT 10SM CLR 07/04 A3000 -20 82 -900 260/11 RMK AO2 T00720044
14756KACK ACK20160312204010303/12/16 20:40:31  5-MIN KACK 130140Z 25011KT 10SM CLR 07/04 A3000 -20 79 -900 260/11 RMK AO2 T00720039
14756KACK ACK20160312204510303/12/16 20:45:31  5-MIN KACK 130145Z 24013KT 10SM CLR 07/04 A2999 -10 82 -900 260/13 RMK AO2 T00670039
14756KACK ACK20160312205011003/12/16 20:50:31  5-MIN KACK 130150Z 24011KT 10SM CLR 07/04 A3000 -20 82 -900 260/11 RMK AO2 SLP157 T00670039
14756KACK ACK20160312205510303/12/16 20:55:31  5-MIN KACK 130155Z 24013KT 10SM CLR 07/04 A2999 -10 82 -900 260/13 RMK AO2 T00670039
14756KACK ACK20160312210010303/12/16 21:00:31  5-MIN KACK 130200Z 24014KT 10SM CLR 07/04 A2999 -10 82 -900 260/14 RMK AO2 T00670039
14756KACK ACK20160312210510303/12/16 21:05:31  5-MIN KACK 130205Z 24013KT 10SM CLR 07/04 A2999 -10 82 -900 250/13 RMK AO2 T00670039
14756KACK ACK20160312211011303/12/16 21:10:31  5-MIN KACK 130210Z AUTO 24014KT 10SM CLR 07/04 A2999 -10 82 -900 250/14 RMK AO2 T00670039 TSNO
14756KACK ACK20160312211511303/12/16 21:15:31  5-MIN KACK 130215Z AUTO 24013KT 10SM CLR 07/04 A2999 -10 82 -900 260/13 RMK AO2 T00670039 TSNO
14756KACK ACK20160312212011303/12/16 21:20:31  5-MIN KACK 130220Z AUTO 24014KT 10SM CLR 07/04 A2999 -10 82 -900 250/14 RMK AO2 T00670039 TSNO
14756KACK ACK20160312212511303/12/16 21:25:31  5-MIN KACK 130225Z AUTO 24015KT 10SM CLR 07/04 A2999 -10 82 -900 250/15 RMK AO2 T00670039 TSNO
14756KACK ACK20160312213011103/12/16 21:30:31  5-MIN KACK 130230Z AUTO 24014KT 10SM CLR 07/04 A2998 0 82 -900 250/14 RMK AO2 T00670039 TSNO
14756KACK ACK20160312213511103/12/16 21:35:31  5-MIN KACK 130235Z AUTO 24013KT 10SM CLR 07/04 A2998 0 82 -900 250/13 RMK AO2 T00670039 TSNO
14756KACK ACK20160312214011103/12/16 21:40:31  5-MIN KACK 130240Z AUTO 24013KT 10SM CLR 07/04 A2998 0 82 -900 250/13 RMK AO2 T00670039 TSNO
14756KACK ACK20160312214511103/12/16 21:45:31  5-MIN KACK 130245Z AUTO 24014KT 10SM CLR 07/04 A2997 0 82 -900 250/14 RMK AO2 T00670039 TSNO
14756KACK ACK20160312215012403/12/16 21:50:31  5-MIN KACK 130250Z AUTO 24013KT 10SM CLR 07/04 A2997 0 82 -900 250/13 RMK AO2 SLP148 T00670039 56025 TSNO
14756KACK ACK20160312215511103/12/16 21:55:31  5-MIN KACK 130255Z AUTO 24014KT 10SM CLR 07/04 A2997 0 82 -900 260/14 RMK AO2 T00670039 TSNO
14756KACK ACK20160312220011203/12/16 22:00:31  5-MIN KACK 130300Z AUTO 24014KT 10SM CLR 07/04 A2997 10 82 -900 250/14 RMK AO2 T00670039 TSNO
14756KACK ACK20160312220511103/12/16 22:05:31  5-MIN KACK 130305Z AUTO 24014KT 10SM CLR 07/04 A2997 0 82 -900 260/14 RMK AO2 T00670039 TSNO
14756KACK ACK20160312221011103/12/16 22:10:31  5-MIN KACK 130310Z AUTO 24014KT 10SM CLR 07/04 A2997 0 82 -900 260/14 RMK AO2 T00670039 TSNO
14756KACK ACK20160312221511203/12/16 22:15:31  5-MIN KACK 130315Z AUTO 24015KT 10SM CLR 07/04 A2997 10 82 -900 260/15 RMK AO2 T00670039 TSNO
14756KACK ACK20160312222011203/12/16 22:20:31  5-MIN KACK 130320Z AUTO 24016KT 10SM CLR 07/04 A2996 10 82 -900 260/16 RMK AO2 T00670039 TSNO
14756KACK ACK20160312222511203/12/16 22:25:31  5-MIN KACK 130325Z AUTO 24015KT 10SM CLR 07/04 A2996 10 79 -800 260/15 RMK AO2 T00720039 TSNO
14756KACK ACK20160312223011203/12/16 22:30:31  5-MIN KACK 130330Z AUTO 24015KT 10SM CLR 07/04 A2996 10 79 -800 260/15 RMK AO2 T00720039 TSNO
14756KACK ACK20160312223511203/12/16 22:35:31  5-MIN KACK 130335Z AUTO 24015KT 10SM CLR 07/04 A2996 10 79 -800 260/15 RMK AO2 T00720039 TSNO
14756KACK ACK20160312224011203/12/16 22:40:31  5-MIN KACK 130340Z AUTO 24015KT 10SM CLR 07/04 A2996 20 79 -800 260/15 RMK AO2 T00720039 TSNO
14756KACK ACK20160312224511203/12/16 22:45:31  5-MIN KACK 130345Z AUTO 24016KT 10SM CLR 07/04 A2995 20 79 -800 260/16 RMK AO2 T00720039 TSNO
14756KACK ACK20160312225011903/12/16 22:50:31  5-MIN KACK 130350Z AUTO 24016KT 10SM CLR 07/04 A2995 20 79 -800 260/16 RMK AO2 SLP141 T00720039 TSNO
14756KACK ACK20160312225511203/12/16 22:55:31  5-MIN KACK 130355Z AUTO 25016KT 10SM CLR 07/04 A2995 30 79 -800 260/16 RMK AO2 T00720039 TSNO
14756KACK ACK20160312230011203/12/16 23:00:31  5-MIN KACK 130400Z AUTO 25015KT 10SM CLR 07/04 A2994 30 79 -800 260/15 RMK AO2 T00720039 TSNO
14756KACK ACK20160312230511203/12/16 23:05:31  5-MIN KACK 130405Z AUTO 25015KT 10SM CLR 07/04 A2994 30 82 -800 260/15 RMK AO2 T00720044 TSNO
14756KACK ACK20160312231011203/12/16 23:10:31  5-MIN KACK 130410Z AUTO 25016KT 10SM CLR 07/04 A2994 30 82 -800 260/16 RMK AO2 T00720044 TSNO
14756KACK ACK20160312231511803/12/16 23:15:31  5-MIN KACK 130415Z AUTO 25016G22KT 10SM CLR 07/04 A2994 30 82 -800 260/16G22 RMK AO2 T00720044 TSNO
14756KACK ACK20160312232011203/12/16 23:20:31  5-MIN KACK 130420Z AUTO 25017KT 10SM CLR 07/04 A2993 40 82 -800 260/17 RMK AO2 T00720044 TSNO
14756KACK ACK20160312232511203/12/16 23:25:31  5-MIN KACK 130425Z AUTO 25017KT 10SM CLR 07/04 A2993 40 82 -800 260/17 RMK AO2 T00720044 TSNO
14756KACK ACK20160312233011203/12/16 23:30:31  5-MIN KACK 130430Z AUTO 25016KT 10SM CLR 08/04 A2993 40 79 -700 260/16 RMK AO2 T00780044 TSNO
14756KACK ACK20160312233511203/12/16 23:35:31  5-MIN KACK 130435Z AUTO 25016KT 10SM CLR 07/04 A2993 40 82 -800 260/16 RMK AO2 T00720044 TSNO
14756KACK ACK20160312234011203/12/16 23:40:31  5-MIN KACK 130440Z AUTO 25017KT 10SM CLR 07/04 A2993 40 82 -800 260/17 RMK AO2 T00720044 TSNO
14756KACK ACK20160312234511203/12/16 23:45:31  5-MIN KACK 130445Z AUTO 25016KT 10SM CLR 07/04 A2993 40 82 -800 270/16 RMK AO2 T00720044 TSNO
14756KACK ACK20160312235012903/12/16 23:50:31  5-MIN KACK 130450Z AUTO 25017KT 10SM CLR 08/04 A2993 40 79 -700 270/17 RMK AO2 SLP134 T00780044 400891006 TSNO
14756KACK ACK20160312235511203/12/16 23:55:31  5-MIN KACK 130455Z AUTO 25017KT 10SM CLR 08/04 A2993 40 79 -700 270/17 RMK AO2 T00780044 TSNO
14756KACK ACK20160313000011203/13/16 00:00:31  5-MIN KACK 130500Z AUTO 25016KT 10SM CLR 08/04 A2992 50 79 -700 270/16 RMK AO2 T00780044 TSNO
14756KACK ACK20160313000511203/13/16 00:05:31  5-MIN KACK 130505Z AUTO 25017KT 10SM CLR 08/04 A2992 50 79 -700 270/17 RMK AO2 T00780044 TSNO
14756KACK ACK20160313001011203/13/16 00:10:31  5-MIN KACK 130510Z AUTO 25017KT 10SM CLR 08/04 A2992 50 79 -700 260/17 RMK AO2 T00780044 TSNO
14756KACK ACK20160313001511203/13/16 00:15:31  5-MIN KACK 130515Z AUTO 25017KT 10SM CLR 08/04 A2992 50 79 -700 260/17 RMK AO2 T00780044 TSNO
14756KACK ACK20160313002011803/13/16 00:20:31  5-MIN KACK 130520Z AUTO 25018G24KT 10SM CLR 08/04 A2992 50 79 -700 270/18G24 RMK AO2 T00780044 TSNO
14756KACK ACK20160313002511803/13/16 00:25:31  5-MIN KACK 130525Z AUTO 25018G24KT 10SM CLR 08/04 A2992 50 79 -700 270/18G24 RMK AO2 T00780044 TSNO
14756KACK ACK20160313003011803/13/16 00:30:31  5-MIN KACK 130530Z AUTO 25017G25KT 10SM CLR 08/04 A2992 50 79 -700 270/17G25 RMK AO2 T00780044 TSNO
14756KACK ACK20160313003511803/13/16 00:35:31  5-MIN KACK 130535Z AUTO 25017G25KT 10SM CLR 08/04 A2992 50 79 -700 270/17G25 RMK AO2 T00780044 TSNO
14756KACK ACK20160313004011203/13/16 00:40:31  5-MIN KACK 130540Z AUTO 25017KT 10SM CLR 08/04 A2992 50 79 -700 270/17 RMK AO2 T00780044 TSNO
14756KACK ACK20160313004511203/13/16 00:45:31  5-MIN KACK 130545Z AUTO 25016KT 10SM CLR 08/04 A2991 60 79 -700 270/16 RMK AO2 T00780044 TSNO
14756KACK ACK20160313005013703/13/16 00:50:31  5-MIN KACK 130550Z AUTO 25017KT 10SM CLR 08/04 A2991 60 79 -700 270/17 RMK AO2 SLP129 T00780044 10078 20067 58021 TSNO
14756KACK ACK20160313005511203/13/16 00:55:31  5-MIN KACK 130555Z AUTO 25017KT 10SM CLR 08/04 A2991 60 79 -700 270/17 RMK AO2 T00780044 TSNO
14756KACK ACK20160313010011803/13/16 01:00:31  5-MIN KACK 130600Z AUTO 25018G24KT 10SM CLR 08/04 A2991 60 79 -700 270/18G24 RMK AO2 T00780044 TSNO
14756KACK ACK20160313010511803/13/16 01:05:31  5-MIN KACK 130605Z AUTO 25017G24KT 10SM CLR 08/04 A2991 60 79 -700 270/17G24 RMK AO2 T00780044 TSNO
14756KACK ACK20160313011011203/13/16 01:10:31  5-MIN KACK 130610Z AUTO 26016KT 10SM CLR 08/04 A2991 60 79 -700 270/16 RMK AO2 T00780044 TSNO
14756KACK ACK20160313011511203/13/16 01:15:31  5-MIN KACK 130615Z AUTO 26016KT 10SM CLR 08/04 A2990 60 79 -700 270/16 RMK AO2 T00780044 TSNO
14756KACK ACK20160313012011803/13/16 01:20:31  5-MIN KACK 130620Z AUTO 26014G22KT 10SM CLR 08/04 A2990 70 79 -700 270/14G22 RMK AO2 T00780044 TSNO
14756KACK ACK20160313012511203/13/16 01:25:31  5-MIN KACK 130625Z AUTO 26016KT 10SM CLR 08/04 A2990 70 79 -700 270/16 RMK AO2 T00780044 TSNO
14756KACK ACK20160313013011803/13/16 01:30:31  5-MIN KACK 130630Z AUTO 25016G22KT 10SM CLR 08/04 A2990 70 79 -700 270/16G22 RMK AO2 T00780044 TSNO
14756KACK ACK20160313013511803/13/16 01:35:31  5-MIN KACK 130635Z AUTO 26014G22KT 10SM CLR 08/04 A2990 70 79 -700 270/14G22 RMK AO2 T00780044 TSNO
14756KACK ACK20160313014011803/13/16 01:40:31  5-MIN KACK 130640Z AUTO 26015G20KT 10SM CLR 08/04 A2990 70 79 -700 270/15G20 RMK AO2 T00780044 TSNO
14756KACK ACK20160313014511803/13/16 01:45:31  5-MIN KACK 130645Z AUTO 26015G22KT 10SM CLR 08/04 A2989 70 79 -700 270/15G22 RMK AO2 T00780044 TSNO
14756KACK ACK20160313015012503/13/16 01:50:31  5-MIN KACK 130650Z AUTO 26016G23KT 10SM CLR 08/04 A2989 80 79 -700 270/16G23 RMK AO2 SLP122 T00780044 TSNO
14756KACK ACK20160313015511803/13/16 01:55:31  5-MIN KACK 130655Z AUTO 26015G23KT 10SM CLR 08/04 A2989 80 79 -700 280/15G23 RMK AO2 T00780044 TSNO
14756KACK ACK20160313020011803/13/16 02:00:31  5-MIN KACK 130700Z AUTO 26015G21KT 10SM CLR 08/04 A2989 80 79 -700 270/15G21 RMK AO2 T00780044 TSNO
14756KACK ACK20160313020511203/13/16 02:05:31  5-MIN KACK 130705Z AUTO 26013KT 10SM CLR 08/04 A2989 80 79 -700 280/13 RMK AO2 T00780044 TSNO
14756KACK ACK20160313021011803/13/16 02:10:31  5-MIN KACK 130710Z AUTO 26014G20KT 10SM CLR 08/04 A2989 80 79 -700 280/14G20 RMK AO2 T00780044 TSNO
14756KACK ACK20160313021511203/13/16 02:15:31  5-MIN KACK 130715Z AUTO 26014KT 10SM CLR 08/04 A2989 80 79 -700 270/14 RMK AO2 T00780044 TSNO
14756KACK ACK20160313022011803/13/16 02:20:31  5-MIN KACK 130720Z AUTO 26015G21KT 10SM CLR 08/04 A2989 80 79 -700 280/15G21 RMK AO2 T00780044 TSNO
14756KACK ACK20160313022511203/13/16 02:25:31  5-MIN KACK 130725Z AUTO 27014KT 10SM CLR 08/04 A2989 80 79 -700 290/14 RMK AO2 T00780044 TSNO
14756KACK ACK20160313023011203/13/16 02:30:31  5-MIN KACK 130730Z AUTO 27011KT 10SM CLR 08/04 A2989 70 79 -700 290/11 RMK AO2 T00780044 TSNO
14756KACK ACK20160313023511203/13/16 02:35:31  5-MIN KACK 130735Z AUTO 27014KT 10SM CLR 08/04 A2989 80 79 -700 280/14 RMK AO2 T00780044 TSNO
14756KACK ACK20160313024011203/13/16 02:40:31  5-MIN KACK 130740Z AUTO 27013KT 10SM CLR 08/04 A2989 80 79 -700 280/13 RMK AO2 T00780044 TSNO
14756KACK ACK20160313024511203/13/16 02:45:31  5-MIN KACK 130745Z AUTO 27013KT 10SM CLR 08/04 A2989 80 79 -700 290/13 RMK AO2 T00780044 TSNO
14756KACK ACK20160313025011903/13/16 02:50:31  5-MIN KACK 130750Z AUTO 27011KT 10SM CLR 08/05 A2989 80 82 -700 290/11 RMK AO2 SLP120 T00780050 TSNO
14756KACK ACK20160313025511203/13/16 02:55:31  5-MIN KACK 130755Z AUTO 27013KT 10SM CLR 08/04 A2988 80 79 -700 290/13 RMK AO2 T00780044 TSNO
14756KACK ACK20160313030011803/13/16 03:00:31  5-MIN KACK 130800Z AUTO 28014G20KT 10SM CLR 08/05 A2988 80 82 -700 290/14G20 RMK AO2 T00780050 TSNO
14756KACK ACK20160313030511803/13/16 03:05:31  5-MIN KACK 130805Z AUTO 27013G21KT 10SM CLR 08/05 A2988 80 82 -700 290/13G21 RMK AO2 T00780050 TSNO
14756KACK ACK20160313031011803/13/16 03:10:31  5-MIN KACK 130810Z AUTO 27013G21KT 10SM CLR 08/05 A2988 80 82 -700 280/13G21 RMK AO2 T00780050 TSNO
14756KACK ACK20160313031511203/13/16 03:15:31  5-MIN KACK 130815Z AUTO 26015KT 10SM CLR 08/04 A2989 80 79 -700 270/15 RMK AO2 T00780044 TSNO
14756KACK ACK20160313032011203/13/16 03:20:31  5-MIN KACK 130820Z AUTO 27015KT 10SM CLR 07/04 A2989 80 82 -700 280/15 RMK AO2 T00720044 TSNO
14756KACK ACK20160313032511203/13/16 03:25:31  5-MIN KACK 130825Z AUTO 27016KT 10SM CLR 07/04 A2989 80 82 -700 280/16 RMK AO2 T00720044 TSNO
14756KACK ACK20160313033011203/13/16 03:30:31  5-MIN KACK 130830Z AUTO 27015KT 10SM CLR 07/05 A2989 80 86 -800 290/15 RMK AO2 T00720050 TSNO
14756KACK ACK20160313033511203/13/16 03:35:31  5-MIN KACK 130835Z AUTO 27015KT 10SM CLR 07/05 A2989 80 86 -800 290/15 RMK AO2 T00720050 TSNO
14756KACK ACK20160313034011803/13/16 03:40:31  5-MIN KACK 130840Z AUTO 27013G21KT 10SM CLR 07/05 A2989 80 86 -800 280/13G21 RMK AO2 T00720050 TSNO
14756KACK ACK20160313034511203/13/16 03:45:31  5-MIN KACK 130845Z AUTO 27012KT 10SM CLR 07/05 A2989 80 86 -800 290/12 RMK AO2 T00720050 TSNO
14756KACK ACK20160313035012503/13/16 03:50:31  5-MIN KACK 130850Z AUTO 27011KT 10SM CLR 07/05 A2989 80 86 -800 290/11 RMK AO2 SLP121 T00720050 56019 TSNO
14756KACK ACK20160313035511203/13/16 03:55:31  5-MIN KACK 130855Z AUTO 27011KT 10SM CLR 07/05 A2989 80 86 -800 290/11 RMK AO2 T00720050 TSNO
14756KACK ACK20160313040011203/13/16 04:00:31  5-MIN KACK 130900Z AUTO 28011KT 10SM CLR 07/04 A2989 80 82 -800 290/11 RMK AO2 T00720044 TSNO
14756KACK ACK20160313040511203/13/16 04:05:31  5-MIN KACK 130905Z AUTO 27010KT 10SM CLR 07/04 A2989 80 82 -700 290/10 RMK AO2 T00720044 TSNO
14756KACK ACK20160313041011203/13/16 04:10:31  5-MIN KACK 130910Z AUTO 27010KT 10SM CLR 07/04 A2989 80 82 -800 290/10 RMK AO2 T00720044 TSNO
14756KACK ACK20160313041511203/13/16 04:15:31  5-MIN KACK 130915Z AUTO 27010KT 10SM CLR 07/04 A2989 80 82 -800 290/10 RMK AO2 T00720044 TSNO
14756KACK ACK20160313042011203/13/16 04:20:31  5-MIN KACK 130920Z AUTO 28010KT 10SM CLR 08/04 A2989 80 79 -700 290/10 RMK AO2 T00780044 TSNO
14756KACK ACK20160313042511203/13/16 04:25:31  5-MIN KACK 130925Z AUTO 28009KT 10SM CLR 08/04 A2989 80 79 -700 290/09 RMK AO2 T00780044 TSNO
14756KACK ACK20160313043011203/13/16 04:30:31  5-MIN KACK 130930Z AUTO 28009KT 10SM CLR 08/04 A2989 80 79 -700 290/09 RMK AO2 T00780044 TSNO
14756KACK ACK20160313043511203/13/16 04:35:31  5-MIN KACK 130935Z AUTO 28010KT 10SM CLR 08/04 A2989 70 79 -700 290/10 RMK AO2 T00780044 TSNO
14756KACK ACK20160313044011203/13/16 04:40:31  5-MIN KACK 130940Z AUTO 28010KT 10SM CLR 08/04 A2989 80 76 -600 300/10 RMK AO2 T00830044 TSNO
14756KACK ACK20160313044511203/13/16 04:45:31  5-MIN KACK 130945Z AUTO 29010KT 10SM CLR 08/04 A2989 70 73 -600 300/10 RMK AO2 T00830039 TSNO
14756KACK ACK20160313045011903/13/16 04:50:31  5-MIN KACK 130950Z AUTO 29012KT 10SM CLR 09/04 A2989 70 71 -600 300/12 RMK AO2 SLP123 T00890039 TSNO
14756KACK ACK20160313045510203/13/16 04:55:31  5-MIN KACK 130955Z 29011KT 10SM CLR 09/04 A2990 70 71 -600 300/11 RMK AO2 T00890039
14756KACK ACK20160313050010203/13/16 05:00:31  5-MIN KACK 131000Z 29010KT 10SM CLR 09/04 A2989 70 68 -500 310/10 RMK AO2 T00940039
14756KACK ACK20160313050510203/13/16 05:05:31  5-MIN KACK 131005Z 29010KT 10SM CLR 09/04 A2990 70 68 -500 300/10 RMK AO2 T00940039
14756KACK ACK20160313051010203/13/16 05:10:31  5-MIN KACK 131010Z 29011KT 10SM CLR 09/04 A2989 70 68 -500 300/11 RMK AO2 T00940039
14756KACK ACK20160313051510203/13/16 05:15:31  5-MIN KACK 131015Z 29011KT 10SM CLR 09/03 A2990 70 65 -500 300/11 RMK AO2 T00940033
14756KACK ACK20160313052010203/13/16 05:20:31  5-MIN KACK 131020Z 28011KT 10SM CLR 09/03 A2990 70 65 -500 300/11 RMK AO2 T00940033
14756KACK ACK20160313052510203/13/16 05:25:31  5-MIN KACK 131025Z 29010KT 10SM CLR 09/03 A2990 70 65 -500 300/10 RMK AO2 T00940033
14756KACK ACK20160313053010203/13/16 05:30:31  5-MIN KACK 131030Z 29009KT 10SM CLR 09/03 A2990 70 65 -500 300/09 RMK AO2 T00940033
14756KACK ACK20160313053510203/13/16 05:35:31  5-MIN KACK 131035Z 29008KT 10SM CLR 09/03 A2990 70 68 -600 300/08 RMK AO2 T00890033
14756KACK ACK20160313054010203/13/16 05:40:31  5-MIN KACK 131040Z 30009KT 10SM CLR 09/03 A2990 60 65 -500 310/09 RMK AO2 T00940033
14756KACK ACK20160313054510203/13/16 05:45:31  5-MIN KACK 131045Z 29008KT 10SM CLR 09/03 A2990 60 68 -600 310/08 RMK AO2 T00890033
14756KACK ACK20160313055010903/13/16 05:50:31  5-MIN KACK 131050Z 29009KT 10SM CLR 09/03 A2991 60 65 -500 310/09 RMK AO2 SLP128 T00940033
14756KACK ACK20160313055510203/13/16 05:55:31  5-MIN KACK 131055Z 29010KT 10SM CLR 09/03 A2991 60 63 -500 300/10 RMK AO2 T00940028
14756KACK ACK20160313060010203/13/16 06:00:31  5-MIN KACK 131100Z 29009KT 10SM CLR 09/03 A2991 60 63 -500 300/09 RMK AO2 T00940028
14756KACK ACK20160313060510203/13/16 06:05:31  5-MIN KACK 131105Z 30010KT 10SM CLR 10/03 A2991 60 60 -400 310/10 RMK AO2 T01000028
14756KACK ACK20160313061010203/13/16 06:10:31  5-MIN KACK 131110Z 30010KT 10SM CLR 10/03 A2991 50 60 -400 310/10 RMK AO2 T01000028
14756KACK ACK20160313061510203/13/16 06:15:31  5-MIN KACK 131115Z 30010KT 10SM CLR 11/02 A2992 50 56 -400 310/10 RMK AO2 T01060022
14756KACK ACK20160313062010203/13/16 06:20:31  5-MIN KACK 131120Z 30012KT 10SM CLR 11/02 A2992 50 56 -400 310/12 RMK AO2 T01060022
14756KACK ACK20160313062510203/13/16 06:25:31  5-MIN KACK 131125Z 30010KT 10SM CLR 11/02 A2992 50 56 -400 310/10 RMK AO2 T01060022
14756KACK ACK20160313063010203/13/16 06:30:31  5-MIN KACK 131130Z 30011KT 10SM CLR 11/02 A2992 50 56 -400 320/11 RMK AO2 T01060022
14756KACK ACK20160313063510203/13/16 06:35:31  5-MIN KACK 131135Z 30011KT 10SM CLR 11/02 A2992 50 56 -400 310/11 RMK AO2 T01060022
14756KACK ACK20160313064010203/13/16 06:40:31  5-MIN KACK 131140Z 30011KT 10SM CLR 11/02 A2992 50 56 -400 320/11 RMK AO2 T01060022
14756KACK ACK20160313064510203/13/16 06:45:31  5-MIN KACK 131145Z 30009KT 10SM CLR 11/02 A2992 50 54 -300 320/09 RMK AO2 T01110022
14756KACK ACK20160313065012703/13/16 06:50:31  5-MIN KACK 131150Z 30011KT 10SM CLR 11/02 A2992 50 54 -300 310/11 RMK AO2 SLP133 T01110022 10111 20072 55007
14756KACK ACK20160313065510203/13/16 06:55:31  5-MIN KACK 131155Z 30011KT 10SM CLR 12/02 A2992 50 52 -300 320/11 RMK AO2 T01170022
14756KACK ACK20160318210012203/18/16 21:00:31  5-MIN KACK 190200Z AUTO 31012G18KT 10SM FEW080 07/01 A2986 100 65 -700 320/12G18 RMK AO2 T00720011 TSNO
14756KACK ACK20160318210512303/18/16 21:05:31  5-MIN KACK 190205Z AUTO 31010KT 10SM FEW080 SCT100 07/01 A2986 100 62 -700 320/10 RMK AO2 T00720006 TSNO
14756KACK ACK20160318211011603/18/16 21:10:31  5-MIN KACK 190210Z AUTO 31009KT 10SM SCT100 07/01 A2986 100 65 -700 320/09 RMK AO2 T00720011 TSNO
14756KACK ACK20160318211511603/18/16 21:15:31  5-MIN KACK 190215Z AUTO 31011KT 10SM BKN100 07/01 A2986 100 65 -700 320/11 RMK AO2 T00720011 TSNO
14756KACK ACK20160318212011603/18/16 21:20:31  5-MIN KACK 190220Z AUTO 31010KT 10SM BKN100 07/01 A2987 100 65 -700 320/10 RMK AO2 T00720011 TSNO
14756KACK ACK20160318212511603/18/16 21:25:31  5-MIN KACK 190225Z AUTO 30009KT 10SM BKN100 07/01 A2987 100 65 -700 320/09 RMK AO2 T00720011 TSNO
14756KACK ACK20160318213011503/18/16 21:30:31  5-MIN KACK 190230Z AUTO 30011KT 10SM BKN100 07/01 A2987 90 65 -700 320/11 RMK AO2 T00720011 TSNO
14756KACK ACK20160318213511503/18/16 21:35:31  5-MIN KACK 190235Z AUTO 30011KT 10SM OVC100 07/01 A2987 90 65 -700 320/11 RMK AO2 T00720011 TSNO
14756KACK ACK20160318214011503/18/16 21:40:31  5-MIN KACK 190240Z AUTO 30009KT 10SM BKN100 07/01 A2987 90 67 -800 310/09 RMK AO2 T00670011 TSNO
14756KACK ACK20160318214511503/18/16 21:45:31  5-MIN KACK 190245Z AUTO 31010KT 10SM BKN100 07/01 A2988 90 67 -800 320/10 RMK AO2 T00670011 TSNO
14756KACK ACK20160318215012803/18/16 21:50:31  5-MIN KACK 190250Z AUTO 30011KT 10SM BKN100 07/01 A2988 90 67 -800 320/11 RMK AO2 SLP118 T00670011 53028 TSNO
14756KACK ACK20160318215511503/18/16 21:55:31  5-MIN KACK 190255Z AUTO 30011KT 10SM OVC100 07/01 A2988 90 67 -800 320/11 RMK AO2 T00670011 TSNO
14756KACK ACK20160318220011503/18/16 22:00:31  5-MIN KACK 190300Z AUTO 31009KT 10SM BKN100 07/01 A2988 90 67 -800 320/09 RMK AO2 T00670011 TSNO
14756KACK ACK20160318220512103/18/16 22:05:31  5-MIN KACK 190305Z AUTO 31013G18KT 10SM BKN095 07/01 A2988 90 65 -800 320/13G18 RMK AO2 T00670006 TSNO
14756KACK ACK20160318221011503/18/16 22:10:31  5-MIN KACK 190310Z AUTO 31010KT 10SM BKN095 07/01 A2988 90 65 -800 320/10 RMK AO2 T00670006 TSNO
14756KACK ACK20160318221511503/18/16 22:15:31  5-MIN KACK 190315Z AUTO 31011KT 10SM BKN095 07/00 A2988 80 62 -800 320/11 RMK AO2 T00670000 TSNO
14756KACK ACK20160318222011603/18/16 22:20:31  5-MIN KACK 190320Z AUTO 31012KT 10SM SCT095 07/M01 A2988 80 60 -800 320/12 RMK AO2 T00671006 TSNO
14756KACK ACK20160318222511603/18/16 22:25:31  5-MIN KACK 190325Z AUTO 30011KT 10SM SCT095 07/M01 A2988 80 60 -800 320/11 RMK AO2 T00671006 TSNO
14756KACK ACK20160318223011503/18/16 22:30:31  5-MIN KACK 190330Z AUTO 30010KT 10SM FEW095 07/00 A2988 80 62 -800 310/10 RMK AO2 T00670000 TSNO
14756KACK ACK20160318223511303/18/16 22:35:31  5-MIN KACK 190335Z AUTO 30011KT 10SM CLR 07/M01 A2989 80 60 -800 320/11 RMK AO2 T00671006 TSNO
14756KACK ACK20160318224011303/18/16 22:40:31  5-MIN KACK 190340Z AUTO 30010KT 10SM CLR 07/M01 A2988 80 60 -800 320/10 RMK AO2 T00671006 TSNO
14756KACK ACK20160318224511303/18/16 22:45:31  5-MIN KACK 190345Z AUTO 31010KT 10SM CLR 07/M01 A2989 80 60 -800 320/10 RMK AO2 T00671006 TSNO
14756KACK ACK20160318225012003/18/16 22:50:31  5-MIN KACK 190350Z AUTO 30012KT 10SM CLR 07/M01 A2989 80 60 -800 320/12 RMK AO2 SLP121 T00671006 TSNO
14756KACK ACK20160318225511303/18/16 22:55:31  5-MIN KACK 190355Z AUTO 31011KT 10SM CLR 07/M01 A2989 80 60 -800 320/11 RMK AO2 T00671006 TSNO
14756KACK ACK20160318230011303/18/16 23:00:31  5-MIN KACK 190400Z AUTO 32012KT 10SM CLR 07/M01 A2989 70 60 -800 330/12 RMK AO2 T00671006 TSNO
14756KACK ACK20160318230512303/18/16 23:05:31  5-MIN KACK 190405Z AUTO 34012KT 10SM FEW030 FEW041 07/M01 A2990 70 60 -800 360/12 RMK AO2 T00671006 TSNO
14756KACK ACK20160318231012303/18/16 23:10:31  5-MIN KACK 190410Z AUTO 35009KT 10SM FEW030 SCT041 07/M01 A2990 70 57 -800 360/09 RMK AO2 T00671011 TSNO
14756KACK ACK20160318231512303/18/16 23:15:31  5-MIN KACK 190415Z AUTO 36011KT 10SM FEW030 BKN039 07/M02 A2990 70 55 -800 010/11 RMK AO2 T00671017 TSNO
14756KACK ACK20160318232012303/18/16 23:20:31  5-MIN KACK 190420Z AUTO 01011KT 10SM BKN039 BKN049 07/M02 A2990 70 53 -800 020/11 RMK AO2 T00671022 TSNO
14756KACK ACK20160318232512303/18/16 23:25:31  5-MIN KACK 190425Z AUTO 36011KT 10SM BKN039 BKN049 07/M03 A2990 70 51 -800 020/11 RMK AO2 T00671028 TSNO
14756KACK ACK20160318233011603/18/16 23:30:31  5-MIN KACK 190430Z AUTO 36011KT 10SM OVC039 07/M03 A2990 70 49 -800 020/11 RMK AO2 T00671033 TSNO
14756KACK ACK20160318233512303/18/16 23:35:31  5-MIN KACK 190435Z AUTO 36009KT 10SM BKN039 OVC050 06/M03 A2990 70 51 -900 010/09 RMK AO2 T00611033 TSNO
14756KACK ACK20160318234012303/18/16 23:40:31  5-MIN KACK 190440Z AUTO 36013KT 10SM BKN039 OVC050 06/M03 A2990 70 51 -900 010/13 RMK AO2 T00611033 TSNO
14756KACK ACK20160318234512303/18/16 23:45:31  5-MIN KACK 190445Z AUTO 36010KT 10SM BKN041 OVC050 06/M04 A2990 70 48 -900 010/10 RMK AO2 T00611039 TSNO
14756KACK ACK20160318235014003/18/16 23:50:31  5-MIN KACK 190450Z AUTO 36010KT 10SM BKN041 OVC050 06/M04 A2991 60 46 -900 010/10 RMK AO2 SLP127 T00611044 401220050 TSNO
14756KACK ACK20160318235512303/18/16 23:55:31  5-MIN KACK 190455Z AUTO 36010KT 10SM BKN043 OVC050 06/M04 A2991 60 46 -900 010/10 RMK AO2 T00611044 TSNO
14756KACK ACK20160319000012303/19/16 00:00:31  5-MIN KACK 190500Z AUTO 36011KT 10SM SCT041 OVC050 06/M04 A2991 60 46 -900 010/11 RMK AO2 T00611044 TSNO
14756KACK ACK20160319000513103/19/16 00:05:31  5-MIN KACK 190505Z AUTO 36011KT 10SM SCT041 BKN050 BKN060 06/M04 A2991 60 50 -1000 010/11 RMK AO2 T00561039 TSNO
14756KACK ACK20160319001013103/19/16 00:10:31  5-MIN KACK 190510Z AUTO 01011KT 10SM FEW041 BKN050 BKN060 06/M04 A2991 60 50 -1000 020/11 RMK AO2 T00561039 TSNO
14756KACK ACK20160319001513103/19/16 00:15:31  5-MIN KACK 190515Z AUTO 35010KT 10SM SCT041 BKN050 BKN060 06/M04 A2991 60 50 -1000 010/10 RMK AO2 T00561039 TSNO
14756KACK ACK20160319002012403/19/16 00:20:31  5-MIN KACK 190520Z AUTO 36011KT 10SM SCT039 BKN055 06/M04 A2991 60 50 -1000 010/11 RMK AO2 T00561039 TSNO
14756KACK ACK20160319002512403/19/16 00:25:31  5-MIN KACK 190525Z AUTO 36011KT 10SM FEW039 SCT055 06/M04 A2991 60 50 -1000 020/11 RMK AO2 T00561039 TSNO
14756KACK ACK20160319003012403/19/16 00:30:31  5-MIN KACK 190530Z AUTO 01013KT 10SM FEW039 SCT055 05/M03 A2992 50 57 -1100 030/13 RMK AO2 T00501028 TSNO
14756KACK ACK20160319003511703/19/16 00:35:31  5-MIN KACK 190535Z AUTO 02012KT 10SM FEW039 05/M02 A2992 50 62 -1100 030/12 RMK AO2 T00501017 TSNO
14756KACK ACK20160319004011703/19/16 00:40:31  5-MIN KACK 190540Z AUTO 02012KT 10SM FEW039 04/M01 A2991 50 67 -1100 040/12 RMK AO2 T00441011 TSNO
14756KACK ACK20160319004511403/19/16 00:45:31  5-MIN KACK 190545Z AUTO 03012KT 10SM CLR 04/M01 A2992 50 67 -1100 050/12 RMK AO2 T00441011 TSNO
14756KACK ACK20160319005013903/19/16 00:50:31  5-MIN KACK 190550Z AUTO 04009KT 10SM CLR 04/M02 A2992 50 67 -1200 050/09 RMK AO2 SLP131 T00391017 10078 20039 51021 TSNO
14756KACK ACK20160319005511403/19/16 00:55:31  5-MIN KACK 190555Z AUTO 03009KT 10SM CLR 04/M02 A2992 50 67 -1200 040/09 RMK AO2 T00391017 TSNO
14756KACK ACK20160319010011403/19/16 01:00:31  5-MIN KACK 190600Z AUTO 03007KT 10SM CLR 03/M02 A2993 40 70 -1300 050/07 RMK AO2 T00331017 TSNO
14756KACK ACK20160319010513103/19/16 01:05:31  5-MIN KACK 190605Z AUTO 03006KT 10SM FEW045 SCT055 03/M02 A2994 30 70 -1300 050/06 RMK AO2 PRESRR T00331017 TSNO
14756KACK ACK20160319011012403/19/16 01:10:31  5-MIN KACK 190610Z AUTO 03008KT 10SM SCT045 BKN055 03/M02 A2994 30 70 -1300 050/08 RMK AO2 T00331017 TSNO
14756KACK ACK20160319011512403/19/16 01:15:31  5-MIN KACK 190615Z AUTO 03007KT 10SM BKN047 BKN055 04/M02 A2994 30 67 -1200 050/07 RMK AO2 T00391017 TSNO
14756KACK ACK20160319012012403/19/16 01:20:31  5-MIN KACK 190620Z AUTO 03007KT 10SM BKN049 BKN055 04/M02 A2995 30 67 -1200 040/07 RMK AO2 T00391017 TSNO
14756KACK ACK20160319012512403/19/16 01:25:31  5-MIN KACK 190625Z AUTO 02007KT 10SM BKN049 BKN055 04/M02 A2995 20 67 -1200 040/07 RMK AO2 T00391017 TSNO
14756KACK ACK20160319013011703/19/16 01:30:31  5-MIN KACK 190630Z AUTO 02008KT 10SM OVC049 04/M02 A2995 20 67 -1200 030/08 RMK AO2 T00391017 TSNO
14756KACK ACK20160319013511703/19/16 01:35:31  5-MIN KACK 190635Z AUTO 02009KT 10SM BKN049 04/M02 A2995 20 64 -1200 030/09 RMK AO2 T00391022 TSNO
14756KACK ACK20160319014011703/19/16 01:40:31  5-MIN KACK 190640Z AUTO 02008KT 10SM BKN050 04/M02 A2995 20 64 -1200 030/08 RMK AO2 T00391022 TSNO
14756KACK ACK20160319014511703/19/16 01:45:31  5-MIN KACK 190645Z AUTO 03009KT 10SM SCT050 03/M03 A2995 20 64 -1300 040/09 RMK AO2 T00331028 TSNO
14756KACK ACK20160319015012403/19/16 01:50:31  5-MIN KACK 190650Z AUTO 01009KT 10SM SCT050 03/M03 A2995 20 64 -1300 020/09 RMK AO2 SLP143 T00331028 TSNO
14756KACK ACK20160319015511703/19/16 01:55:31  5-MIN KACK 190655Z AUTO 01008KT 10SM FEW055 03/M03 A2995 20 64 -1300 020/08 RMK AO2 T00331028 TSNO
14756KACK ACK20160319020011703/19/16 02:00:31  5-MIN KACK 190700Z AUTO 01009KT 10SM FEW055 03/M03 A2996 20 64 -1300 030/09 RMK AO2 T00331028 TSNO
14756KACK ACK20160319020511403/19/16 02:05:31  5-MIN KACK 190705Z AUTO 01008KT 10SM CLR 03/M03 A2996 10 61 -1300 020/08 RMK AO2 T00331033 TSNO
14756KACK ACK20160319021011403/19/16 02:10:31  5-MIN KACK 190710Z AUTO 01009KT 10SM CLR 03/M03 A2996 10 61 -1300 030/09 RMK AO2 T00331033 TSNO
14756KACK ACK20160319021511403/19/16 02:15:31  5-MIN KACK 190715Z AUTO 36007KT 10SM CLR 03/M03 A2996 10 61 -1300 020/07 RMK AO2 T00331033 TSNO
14756KACK ACK20160319022011703/19/16 02:20:31  5-MIN KACK 190720Z AUTO 36007KT 10SM FEW033 03/M03 A2997 10 61 -1300 020/07 RMK AO2 T00331033 TSNO
14756KACK ACK20160319022511703/19/16 02:25:31  5-MIN KACK 190725Z AUTO 35006KT 10SM FEW033 03/M03 A2997 10 61 -1300 010/06 RMK AO2 T00331033 TSNO
14756KACK ACK20160319023011703/19/16 02:30:31  5-MIN KACK 190730Z AUTO 01007KT 10SM FEW034 03/M03 A2996 10 61 -1300 020/07 RMK AO2 T00331033 TSNO
14756KACK ACK20160319023511703/19/16 02:35:31  5-MIN KACK 190735Z AUTO 01008KT 10SM SCT034 03/M03 A2996 10 61 -1300 020/08 RMK AO2 T00331033 TSNO
14756KACK ACK20160319024011703/19/16 02:40:31  5-MIN KACK 190740Z AUTO 01008KT 10SM SCT034 03/M03 A2996 10 64 -1400 030/08 RMK AO2 T00281033 TSNO
14756KACK ACK20160319024511703/19/16 02:45:31  5-MIN KACK 190745Z AUTO 02008KT 10SM SCT034 03/M03 A2996 10 64 -1400 030/08 RMK AO2 T00281033 TSNO
14756KACK ACK20160319025012403/19/16 02:50:31  5-MIN KACK 190750Z AUTO 02007KT 10SM BKN036 03/M03 A2996 10 61 -1300 030/07 RMK AO2 SLP145 T00331033 TSNO
14756KACK ACK20160319025511703/19/16 02:55:31  5-MIN KACK 190755Z AUTO 01007KT 10SM BKN036 03/M03 A2996 10 64 -1400 030/07 RMK AO2 T00281033 TSNO
14756KACK ACK20160319030011703/19/16 03:00:31  5-MIN KACK 190800Z AUTO 01006KT 10SM BKN038 03/M03 A2997 10 61 -1300 020/06 RMK AO2 T00331033 TSNO
14756KACK ACK20160319030511703/19/16 03:05:31  5-MIN KACK 190805Z AUTO 36005KT 10SM BKN038 03/M03 A2997 10 61 -1300 020/05 RMK AO2 T00331033 TSNO
14756KACK ACK20160319031011703/19/16 03:10:31  5-MIN KACK 190810Z AUTO 36008KT 10SM BKN038 04/M03 A2997 10 59 -1200 010/08 RMK AO2 T00391033 TSNO
14756KACK ACK20160319031512303/19/16 03:15:31  5-MIN KACK 190815Z AUTO 35012G15KT 10SM BKN038 04/M04 A2997 10 54 -1300 360/12G15 RMK AO2 T00391044 TSNO
14756KACK ACK20160319032012303/19/16 03:20:31  5-MIN KACK 190820Z AUTO 35011KT 10SM SCT038 BKN050 04/M05 A2997 0 52 -1300 010/11 RMK AO2 T00391050 TSNO
14756KACK ACK20160319032512303/19/16 03:25:31  5-MIN KACK 190825Z AUTO 35011KT 10SM SCT038 BKN050 03/M05 A2997 0 54 -1300 360/11 RMK AO2 T00331050 TSNO
14756KACK ACK20160319033012303/19/16 03:30:31  5-MIN KACK 190830Z AUTO 35012KT 10SM FEW036 FEW050 03/M06 A2997 0 52 -1300 010/12 RMK AO2 T00331056 TSNO
14756KACK ACK20160319033512303/19/16 03:35:31  5-MIN KACK 190835Z AUTO 35012KT 10SM FEW039 FEW050 03/M06 A2998 0 52 -1300 010/12 RMK AO2 T00331056 TSNO
14756KACK ACK20160319034011603/19/16 03:40:31  5-MIN KACK 190840Z AUTO 36010KT 10SM FEW050 03/M06 A2998 0 52 -1300 010/10 RMK AO2 T00331056 TSNO
14756KACK ACK20160319034511603/19/16 03:45:31  5-MIN KACK 190845Z AUTO 35010KT 10SM FEW050 03/M06 A2998 0 52 -1300 010/10 RMK AO2 T00331056 TSNO
14756KACK ACK20160319035012603/19/16 03:50:31  5-MIN KACK 190850Z AUTO 36010KT 10SM CLR 03/M06 A2998 0 52 -1300 010/10 RMK AO2 SLP152 T00331056 53014 TSNO
14756KACK ACK20160319035511303/19/16 03:55:31  5-MIN KACK 190855Z AUTO 35009KT 10SM CLR 03/M06 A2998 0 54 -1400 010/09 RMK AO2 T00281056 TSNO
14756KACK ACK20160319040011303/19/16 04:00:31  5-MIN KACK 190900Z AUTO 35011KT 10SM CLR 03/M06 A2998 0 52 -1400 360/11 RMK AO2 T00281061 TSNO
14756KACK ACK20160319040511503/19/16 04:05:31  5-MIN KACK 190905Z AUTO 35011KT 10SM CLR 03/M06 A2999 -10 52 -1300 360/11 RMK AO2 T00331056 TSNO
14756KACK ACK20160319041011503/19/16 04:10:31  5-MIN KACK 190910Z AUTO 35009KT 10SM CLR 03/M06 A2999 -10 54 -1400 360/09 RMK AO2 T00281056 TSNO
14756KACK ACK20160319041511503/19/16 04:15:31  5-MIN KACK 190915Z AUTO 35009KT 10SM CLR 03/M06 A2999 -10 52 -1400 360/09 RMK AO2 T00331056 TSNO
14756KACK ACK20160319042011503/19/16 04:20:31  5-MIN KACK 190920Z AUTO 35010KT 10SM CLR 03/M06 A2999 -10 54 -1400 010/10 RMK AO2 T00281056 TSNO
14756KACK ACK20160319042511503/19/16 04:25:31  5-MIN KACK 190925Z AUTO 35009KT 10SM CLR 03/M06 A3000 -10 54 -1400 360/09 RMK AO2 T00281056 TSNO
14756KACK ACK20160319043011503/19/16 04:30:31  5-MIN KACK 190930Z AUTO 35009KT 10SM CLR 03/M06 A3000 -20 54 -1400 010/09 RMK AO2 T00281056 TSNO
14756KACK ACK20160319043511503/19/16 04:35:31  5-MIN KACK 190935Z AUTO 36009KT 10SM CLR 03/M05 A3000 -20 56 -1400 010/09 RMK AO2 T00281050 TSNO
14756KACK ACK20160319044011503/19/16 04:40:31  5-MIN KACK 190940Z AUTO 35010KT 10SM CLR 03/M05 A3000 -20 56 -1400 010/10 RMK AO2 T00281050 TSNO
14756KACK ACK20160319044511503/19/16 04:45:31  5-MIN KACK 190945Z AUTO 35010KT 10SM CLR 03/M06 A3001 -30 54 -1400 010/10 RMK AO2 T00281056 TSNO
14756KACK ACK20160319045012203/19/16 04:50:31  5-MIN KACK 190950Z AUTO 35011KT 10SM CLR 03/M06 A3001 -30 54 -1400 360/11 RMK AO2 SLP161 T00281056 TSNO
14756KACK ACK20160319045510503/19/16 04:55:31  5-MIN KACK 190955Z 35008KT 10SM CLR 02/M06 A3001 -30 56 -1500 010/08 RMK AO2 T00221056
14756KACK ACK20160319050010503/19/16 05:00:31  5-MIN KACK 191000Z 35008KT 10SM CLR 02/M06 A3001 -30 56 -1500 010/08 RMK AO2 T00221056
14756KACK ACK20160319050510503/19/16 05:05:31  5-MIN KACK 191005Z 35009KT 10SM CLR 02/M06 A3001 -30 54 -1500 010/09 RMK AO2 T00221061
14756KACK ACK20160319051010503/19/16 05:10:31  5-MIN KACK 191010Z 35009KT 10SM CLR 02/M06 A3002 -30 54 -1500 360/09 RMK AO2 T00221061
14756KACK ACK20160319051510503/19/16 05:15:31  5-MIN KACK 191015Z 34010KT 10SM CLR 02/M06 A3002 -30 54 -1500 360/10 RMK AO2 T00221061
14756KACK ACK20160319052010503/19/16 05:20:31  5-MIN KACK 191020Z 35009KT 10SM CLR 02/M06 A3002 -40 54 -1500 360/09 RMK AO2 T00221061
14756KACK ACK20160319052510503/19/16 05:25:31  5-MIN KACK 191025Z 34009KT 10SM CLR 02/M06 A3002 -40 54 -1500 360/09 RMK AO2 T00221061
14756KACK ACK20160319053010503/19/16 05:30:31  5-MIN KACK 191030Z 34010KT 10SM CLR 02/M06 A3003 -40 54 -1500 360/10 RMK AO2 T00221061
14756KACK ACK20160319053510503/19/16 05:35:31  5-MIN KACK 191035Z 34011KT 10SM CLR 02/M06 A3003 -50 54 -1500 350/11 RMK AO2 T00221061
14756KACK ACK20160319054010503/19/16 05:40:31  5-MIN KACK 191040Z 34010KT 10SM CLR 02/M06 A3003 -50 54 -1500 360/10 RMK AO2 T00221061
14756KACK ACK20160319054510503/19/16 05:45:31  5-MIN KACK 191045Z 35010KT 10SM CLR 02/M07 A3003 -50 52 -1500 360/10 RMK AO2 T00221067
14756KACK ACK20160319055011203/19/16 05:50:31  5-MIN KACK 191050Z 35010KT 10SM CLR 02/M07 A3004 -50 52 -1500 360/10 RMK AO2 SLP171 T00221067
14756KACK ACK20160319055510503/19/16 05:55:31  5-MIN KACK 191055Z 34008KT 10SM CLR 02/M07 A3004 -50 54 -1600 360/08 RMK AO2 T00171067
14756KACK ACK20160319060010503/19/16 06:00:31  5-MIN KACK 191100Z 35009KT 10SM CLR 02/M07 A3004 -50 52 -1500 360/09 RMK AO2 T00221067
14756KACK ACK20160319060510503/19/16 06:05:31  5-MIN KACK 191105Z 34013KT 10SM CLR 02/M07 A3004 -60 50 -1500 360/13 RMK AO2 T00221072
14756KACK ACK20160319061010503/19/16 06:10:31  5-MIN KACK 191110Z 35009KT 10SM CLR 02/M07 A3005 -60 52 -1500 010/09 RMK AO2 T00221067
14756KACK ACK20160319061510503/19/16 06:15:31  5-MIN KACK 191115Z 35010KT 10SM CLR 02/M07 A3004 -60 50 -1500 010/10 RMK AO2 T00221072
14756KACK ACK20160319062010503/19/16 06:20:31  5-MIN KACK 191120Z 35010KT 10SM CLR 02/M07 A3005 -60 50 -1600 360/10 RMK AO2 T00221072
14756KACK ACK20160319062510503/19/16 06:25:31  5-MIN KACK 191125Z 34011KT 10SM CLR 02/M07 A3005 -70 52 -1600 360/11 RMK AO2 T00221067
14756KACK ACK20160319063010503/19/16 06:30:31  5-MIN KACK 191130Z 35012KT 10SM CLR 03/M07 A3005 -70 48 -1500 360/12 RMK AO2 T00281072
14756KACK ACK20160319063510503/19/16 06:35:31  5-MIN KACK 191135Z 34011KT 10SM CLR 03/M07 A3005 -70 48 -1500 360/11 RMK AO2 T00281072
14756KACK ACK20160319064010503/19/16 06:40:31  5-MIN KACK 191140Z 34015KT 10SM CLR 03/M07 A3006 -70 48 -1500 360/15 RMK AO2 T00281072
14756KACK ACK20160319064510503/19/16 06:45:31  5-MIN KACK 191145Z 35013KT 10SM CLR 03/M07 A3006 -70 48 -1500 360/13 RMK AO2 T00281072
14756KACK ACK20160319065013003/19/16 06:50:31  5-MIN KACK 191150Z 34013KT 10SM CLR 03/M07 A3006 -80 48 -1500 360/13 RMK AO2 SLP180 T00281072 10039 20017 51020
14756KACK ACK20160319065510503/19/16 06:55:31  5-MIN KACK 191155Z 35012KT 10SM CLR 03/M07 A3007 -80 50 -1500 360/12 RMK AO2 T00281067
14756KACK ACK20160319070010503/19/16 07:00:31  5-MIN KACK 191200Z 34012KT 10SM CLR 03/M07 A3007 -90 48 -1500 360/12 RMK AO2 T00281072
14756KACK ACK20160319070510503/19/16 07:05:31  5-MIN KACK 191205Z 34011KT 10SM CLR 03/M07 A3007 -90 46 -1400 350/11 RMK AO2 T00331072
14756KACK ACK20160319071010503/19/16 07:10:31  5-MIN KACK 191210Z 33012KT 10SM CLR 03/M07 A3007 -90 46 -1400 340/12 RMK AO2 T00331072
14756KACK ACK20160319071510503/19/16 07:15:31  5-MIN KACK 191215Z 34011KT 10SM CLR 03/M07 A3007 -90 48 -1400 360/11 RMK AO2 T00331067
14756KACK ACK20160319072010503/19/16 07:20:31  5-MIN KACK 191220Z 33012KT 10SM CLR 03/M07 A3007 -90 46 -1400 340/12 RMK AO2 T00331072
14756KACK ACK20160319072510503/19/16 07:25:31  5-MIN KACK 191225Z 34015KT 10SM CLR 03/M07 A3007 -90 46 -1400 350/15 RMK AO2 T00331072
14756KACK ACK20160319073010503/19/16 07:30:31  5-MIN KACK 191230Z 32015KT 10SM CLR 03/M08 A3007 -90 44 -1400 340/15 RMK AO2 T00331078
14756KACK ACK20160319073510503/19/16 07:35:31  5-MIN KACK 191235Z 34015KT 10SM CLR 03/M08 A3007 -80 42 -1400 360/15 RMK AO2 T00331083
14756KACK ACK20160319074010503/19/16 07:40:31  5-MIN KACK 191240Z 33013KT 10SM CLR 03/M08 A3007 -80 44 -1400 350/13 RMK AO2 T00331078
14756KACK ACK20160319074510503/19/16 07:45:31  5-MIN KACK 191245Z 33014KT 10SM CLR 03/M08 A3007 -80 44 -1400 350/14 RMK AO2 T00331078
14756KACK ACK20160319075011203/19/16 07:50:31  5-MIN KACK 191250Z 33016KT 10SM CLR 03/M08 A3007 -90 44 -1400 340/16 RMK AO2 SLP183 T00331078
14756KACK ACK20160319075510503/19/16 07:55:31  5-MIN KACK 191255Z 34014KT 10SM CLR 03/M08 A3008 -90 42 -1400 350/14 RMK AO2 T00331083
14756KACK ACK20160319080011103/19/16 08:00:31  5-MIN KACK 191300Z 33012G20KT 10SM CLR 04/M08 A3008 -90 42 -1400 350/12G20 RMK AO2 T00391078
14756KACK ACK20160319080510503/19/16 08:05:31  5-MIN KACK 191305Z 33013KT 10SM CLR 04/M08 A3008 -90 40 -1400 340/13 RMK AO2 T00391083
14756KACK ACK20160319081010503/19/16 08:10:31  5-MIN KACK 191310Z 33015KT 10SM CLR 04/M08 A3008 -90 40 -1400 350/15 RMK AO2 T00391083
14756KACK ACK20160319081510503/19/16 08:15:31  5-MIN KACK 191315Z 33015KT 10SM CLR 04/M08 A3008 -90 40 -1400 350/15 RMK AO2 T00391083
14756KACK ACK20160319082010503/19/16 08:20:31  5-MIN KACK 191320Z 33016KT 10SM CLR 03/M09 A3007 -90 40 -1400 350/16 RMK AO2 T00331089
14756KACK ACK20160319082511103/19/16 08:25:31  5-MIN KACK 191325Z 33012G21KT 10SM CLR 04/M08 A3008 -90 40 -1400 340/12G21 RMK AO2 T00391083
14756KACK ACK20160319083010503/19/16 08:30:31  5-MIN KACK 191330Z 33013KT 10SM CLR 04/M08 A3008 -90 40 -1400 340/13 RMK AO2 T00391083
14756KACK ACK20160319083511103/19/16 08:35:31  5-MIN KACK 191335Z 33013G19KT 10SM CLR 04/M08 A3008 -90 40 -1400 340/13G19 RMK AO2 T00391083
14756KACK ACK20160319084011103/19/16 08:40:31  5-MIN KACK 191340Z 35014G20KT 10SM CLR 04/M08 A3008 -90 40 -1400 360/14G20 RMK AO2 T00391083
14756KACK ACK20160319084510503/19/16 08:45:31  5-MIN KACK 191345Z 32014KT 10SM CLR 04/M09 A3008 -90 39 -1400 340/14 RMK AO2 T00391089
14756KACK ACK20160319085011203/19/16 08:50:31  5-MIN KACK 191350Z 33013KT 10SM CLR 04/M08 A3008 -90 40 -1400 340/13 RMK AO2 SLP186 T00391083
14756KACK ACK20160319085510603/19/16 08:55:31  5-MIN KACK 191355Z 31014KT 10SM CLR 04/M09 A3008 -100 39 -1400 320/14 RMK AO2 T00391089
14756KACK ACK20160319090010603/19/16 09:00:31  5-MIN KACK 191400Z 34012KT 10SM CLR 04/M09 A3009 -100 39 -1400 350/12 RMK AO2 T00391089
14756KACK ACK20160319090510603/19/16 09:05:31  5-MIN KACK 191405Z 33011KT 10SM CLR 04/M08 A3009 -100 40 -1400 340/11 RMK AO2 T00391083
14756KACK ACK20160319091010603/19/16 09:10:31  5-MIN KACK 191410Z 32012KT 10SM CLR 04/M09 A3009 -100 39 -1400 330/12 RMK AO2 T00391089
14756KACK ACK20160319091510603/19/16 09:15:31  5-MIN KACK 191415Z 31012KT 10SM CLR 04/M09 A3009 -100 39 -1400 330/12 RMK AO2 T00391089
14756KACK ACK20160319092010603/19/16 09:20:31  5-MIN KACK 191420Z 31010KT 10SM CLR 04/M09 A3009 -100 36 -1300 320/10 RMK AO2 T00441094
14756KACK ACK20160319092510603/19/16 09:25:31  5-MIN KACK 191425Z 33012KT 10SM CLR 04/M09 A3009 -100 37 -1300 350/12 RMK AO2 T00441089
14756KACK ACK20160319093011203/19/16 09:30:31  5-MIN KACK 191430Z 33014G19KT 10SM CLR 04/M09 A3009 -100 37 -1400 350/14G19 RMK AO2 T00391094
14756KACK ACK20160319093511203/19/16 09:35:31  5-MIN KACK 191435Z 32016G19KT 10SM CLR 04/M09 A3009 -100 36 -1300 340/16G19 RMK AO2 T00441094
14756KACK ACK20160319094011203/19/16 09:40:31  5-MIN KACK 191440Z 33011G19KT 10SM CLR 04/M10 A3009 -100 35 -1400 340/11G19 RMK AO2 T00391100
14756KACK ACK20160319094510603/19/16 09:45:31  5-MIN KACK 191445Z 33014KT 10SM CLR 04/M09 A3009 -100 36 -1300 350/14 RMK AO2 T00441094
14756KACK ACK20160319095011903/19/16 09:50:31  5-MIN KACK 191450Z 31011KT 10SM CLR 04/M09 A3008 -100 36 -1300 320/11 RMK AO2 SLP187 T00441094 51028
14756KACK ACK20160319095510603/19/16 09:55:31  5-MIN KACK 191455Z 31010KT 10SM CLR 04/M10 A3008 -100 35 -1400 320/10 RMK AO2 T00391100
14756KACK ACK20160319100011103/19/16 10:00:31  5-MIN KACK 191500Z 33012G17KT 10SM CLR 04/M10 A3008 -90 34 -1300 350/12G17 RMK AO2 T00441100
14756KACK ACK20160319100511103/19/16 10:05:31  5-MIN KACK 191505Z 32014G19KT 10SM CLR 04/M10 A3008 -90 34 -1300 340/14G19 RMK AO2 T00441100
14756KACK ACK20160319101011103/19/16 10:10:31  5-MIN KACK 191510Z 31011G19KT 10SM CLR 04/M11 A3008 -90 34 -1400 320/11G19 RMK AO2 T00391106
14756KACK ACK20160319101510503/19/16 10:15:31  5-MIN KACK 191515Z 31012KT 10SM CLR 04/M10 A3008 -90 34 -1300 320/12 RMK AO2 T00441100
14756KACK ACK20160319102010603/19/16 10:20:31  5-MIN KACK 191520Z 33011KT 10SM CLR 04/M10 A3008 -100 34 -1300 350/11 RMK AO2 T00441100
14756KACK ACK20160319102512203/19/16 10:25:31  5-MIN KACK 191525Z 33010KT 290V360 10SM CLR 04/M11 A3009 -100 33 -1300 340/10 310V020 RMK AO2 T00441106
14756KACK ACK20160319103010603/19/16 10:30:31  5-MIN KACK 191530Z 33011KT 10SM CLR 05/M11 A3009 -100 31 -1300 340/11 RMK AO2 T00501106
14756KACK ACK20160319103511103/19/16 10:35:31  5-MIN KACK 191535Z 34013G18KT 10SM CLR 04/M11 A3008 -90 33 -1300 350/13G18 RMK AO2 T00441106
14756KACK ACK20160319104010503/19/16 10:40:31  5-MIN KACK 191540Z 32012KT 10SM CLR 05/M11 A3008 -90 31 -1200 340/12 RMK AO2 T00501106
14756KACK ACK20160319104511203/19/16 10:45:31  5-MIN KACK 191545Z 33012G18KT 10SM CLR 04/M11 A3008 -100 31 -1300 340/12G18 RMK AO2 T00441111
14756KACK ACK20160319105011803/19/16 10:50:31  5-MIN KACK 191550Z 34012G18KT 10SM CLR 05/M11 A3008 -90 31 -1200 360/12G18 RMK AO2 SLP186 T00501106
14756KACK ACK20160319105510503/19/16 10:55:31  5-MIN KACK 191555Z 32010KT 10SM CLR 04/M11 A3008 -90 31 -1300 340/10 RMK AO2 T00441111
14756KACK ACK20160319110011103/19/16 11:00:31  5-MIN KACK 191600Z 32010G17KT 10SM CLR 05/M11 A3008 -90 30 -1200 330/10G17 RMK AO2 T00501111
14756KACK ACK20160319110511103/19/16 11:05:31  5-MIN KACK 191605Z 35011G18KT 10SM CLR 05/M11 A3008 -90 30 -1200 360/11G18 RMK AO2 T00501111
14756KACK ACK20160319111011103/19/16 11:10:31  5-MIN KACK 191610Z 32009G18KT 10SM CLR 04/M11 A3008 -90 31 -1300 340/09G18 RMK AO2 T00441111
14756KACK ACK20160319111511103/19/16 11:15:31  5-MIN KACK 191615Z 32009G18KT 10SM CLR 05/M11 A3008 -90 30 -1200 330/09G18 RMK AO2 T00501111
14756KACK ACK20160319112010503/19/16 11:20:31  5-MIN KACK 191620Z 33009KT 10SM CLR 05/M11 A3008 -90 30 -1200 350/09 RMK AO2 T00501111
14756KACK ACK20160319112510503/19/16 11:25:31  5-MIN KACK 191625Z 34010KT 10SM CLR 05/M11 A3008 -90 31 -1200 350/10 RMK AO2 T00501106
14756KACK ACK20160319113010503/19/16 11:30:31  5-MIN KACK 191630Z 32012KT 10SM CLR 05/M11 A3008 -90 30 -1200 330/12 RMK AO2 T00501111
14756KACK ACK20160319113510503/19/16 11:35:31  5-MIN KACK 191635Z 33013KT 10SM CLR 05/M12 A3008 -90 29 -1200 350/13 RMK AO2 T00501117
14756KACK ACK20160319114010503/19/16 11:40:31  5-MIN KACK 191640Z 31010KT 10SM CLR 05/M12 A3008 -90 29 -1200 330/10 RMK AO2 T00501117
14756KACK ACK20160319114510503/19/16 11:45:31  5-MIN KACK 191645Z 32011KT 10SM CLR 05/M12 A3008 -90 29 -1200 340/11 RMK AO2 T00501117
14756KACK ACK20160319115011203/19/16 11:50:31  5-MIN KACK 191650Z 32010KT 10SM CLR 05/M12 A3008 -90 29 -1200 330/10 RMK AO2 SLP184 T00501117
14756KACK ACK20160319115512103/19/16 11:55:31  5-MIN KACK 191655Z 35009KT 310V010 10SM CLR 05/M11 A3007 -90 30 -1200 360/09 330V030 RMK AO2 T00501111
14756KACK ACK20160319120010503/19/16 12:00:31  5-MIN KACK 191700Z 34011KT 10SM CLR 06/M11 A3007 -90 29 -1200 350/11 RMK AO2 T00561111
14756KACK ACK20160319120512103/19/16 12:05:31  5-MIN KACK 191705Z 34008KT 310V030 10SM CLR 06/M11 A3007 -80 29 -1200 350/08 330V050 RMK AO2 T00561111
14756KACK ACK20160319121011103/19/16 12:10:31  5-MIN KACK 191710Z 34011G16KT 10SM CLR 06/M11 A3006 -80 29 -1200 350/11G16 RMK AO2 T00561111
14756KACK ACK20160319121511103/19/16 12:15:31  5-MIN KACK 191715Z 35008G18KT 10SM CLR 05/M12 A3006 -80 29 -1200 010/08G18 RMK AO2 T00501117
14756KACK ACK20160319122011103/19/16 12:20:31  5-MIN KACK 191720Z 36009G18KT 10SM CLR 05/M11 A3006 -80 30 -1200 010/09G18 RMK AO2 T00501111
14756KACK ACK20160319122510503/19/16 12:25:31  5-MIN KACK 191725Z 33010KT 10SM CLR 06/M11 A3006 -70 28 -1100 350/10 RMK AO2 T00611111
14756KACK ACK20160319123010503/19/16 12:30:31  5-MIN KACK 191730Z 34007KT 10SM CLR 05/M12 A3006 -70 27 -1200 350/07 RMK AO2 T00501122
14756KACK ACK20160319123512103/19/16 12:35:31  5-MIN KACK 191735Z 01009KT 330V030 10SM CLR 06/M12 A3006 -80 28 -1200 020/09 350V050 RMK AO2 T00561117
14756KACK ACK20160319124010503/19/16 12:40:31  5-MIN KACK 191740Z 33010KT 10SM CLR 06/M11 A3006 -70 29 -1100 340/10 RMK AO2 T00561111
14756KACK ACK20160319124510503/19/16 12:45:31  5-MIN KACK 191745Z 34009KT 10SM CLR 06/M11 A3006 -70 29 -1100 360/09 RMK AO2 T00561111
14756KACK ACK20160319125013003/19/16 12:50:31  5-MIN KACK 191750Z 29008KT 10SM CLR 06/M12 A3006 -70 28 -1100 310/08 RMK AO2 SLP178 T00561117 10061 20028 50006
14756KACK ACK20160319125510503/19/16 12:55:31  5-MIN KACK 191755Z VRB05KT 10SM CLR 05/M12 A3006 -70 29 -1200 VRB/05 RMK AO2 T00501117
14756KACK ACK20160319130010503/19/16 13:00:31  5-MIN KACK 191800Z VRB04KT 10SM CLR 06/M11 A3005 -70 29 -1100 VRB/04 RMK AO2 T00561111
14756KACK ACK20160319130510503/19/16 13:05:31  5-MIN KACK 191805Z 31007KT 10SM CLR 06/M11 A3005 -70 28 -1100 320/07 RMK AO2 T00611111
14756KACK ACK20160319131010503/19/16 13:10:31  5-MIN KACK 191810Z 25011KT 10SM CLR 06/M10 A3005 -60 30 -1100 260/11 RMK AO2 T00611100
14756KACK ACK20160319131510503/19/16 13:15:31  5-MIN KACK 191815Z 26008KT 10SM CLR 06/M11 A3005 -60 30 -1100 270/08 RMK AO2 T00561106
14756KACK ACK20160319132010503/19/16 13:20:31  5-MIN KACK 191820Z 32008KT 10SM CLR 05/M11 A3004 -60 30 -1200 340/08 RMK AO2 T00501111
14756KACK ACK20160319132510503/19/16 13:25:31  5-MIN KACK 191825Z VRB06KT 10SM CLR 06/M11 A3004 -50 30 -1100 VRB/06 RMK AO2 T00561106
14756KACK ACK20160319133010503/19/16 13:30:31  5-MIN KACK 191830Z 22009KT 10SM CLR 05/M10 A3004 -60 33 -1200 240/09 RMK AO2 T00501100
14756KACK ACK20160319133511103/19/16 13:35:31  5-MIN KACK 191835Z 27012G15KT 10SM CLR 06/M09 A3004 -60 33 -1100 290/12G15 RMK AO2 T00611089
14756KACK ACK20160319134010503/19/16 13:40:31  5-MIN KACK 191840Z 24013KT 10SM CLR 05/M09 A3005 -60 34 -1200 260/13 RMK AO2 T00501094
14756KACK ACK20160319134510503/19/16 13:45:31  5-MIN KACK 191845Z 23013KT 10SM CLR 05/M09 A3005 -70 34 -1200 250/13 RMK AO2 T00501094
14756KACK ACK20160319135011203/19/16 13:50:31  5-MIN KACK 191850Z 24013KT 10SM CLR 06/M09 A3005 -60 34 -1100 260/13 RMK AO2 SLP175 T00561089
14756KACK ACK20160319135510503/19/16 13:55:31  5-MIN KACK 191855Z 24011KT 10SM CLR 05/M09 A3005 -60 36 -1200 250/11 RMK AO2 T00501089
14756KACK ACK20160319140010503/19/16 14:00:31  5-MIN KACK 191900Z 24011KT 10SM CLR 05/M09 A3005 -60 36 -1200 260/11 RMK AO2 T00501089
14756KACK ACK20160319140512103/19/16 14:05:31  5-MIN KACK 191905Z 24011KT 200V280 10SM CLR 06/M08 A3005 -60 36 -1100 250/11 220V300 RMK AO2 T00561083
14756KACK ACK20160319141010503/19/16 14:10:31  5-MIN KACK 191910Z 26009KT 10SM CLR 05/M09 A3005 -60 34 -1200 270/09 RMK AO2 T00501094
14756KACK ACK20160319141510503/19/16 14:15:31  5-MIN KACK 191915Z 26012KT 10SM CLR 05/M09 A3004 -60 34 -1200 280/12 RMK AO2 T00501094
14756KACK ACK20160319142011103/19/16 14:20:31  5-MIN KACK 191920Z 25006G14KT 10SM CLR 05/M09 A3005 -60 34 -1200 270/06G14 RMK AO2 T00501094
14756KACK ACK20160319142510503/19/16 14:25:31  5-MIN KACK 191925Z 26009KT 10SM CLR 05/M09 A3005 -70 34 -1200 270/09 RMK AO2 T00501094
14756KACK ACK20160319143011103/19/16 14:30:31  5-MIN KACK 191930Z 27010G15KT 10SM CLR 06/M09 A3006 -70 33 -1100 280/10G15 RMK AO2 T00561094
14756KACK ACK20160319143511103/19/16 14:35:31  5-MIN KACK 191935Z 26011G17KT 10SM CLR 05/M09 A3006 -70 34 -1200 280/11G17 RMK AO2 T00501094
14756KACK ACK20160319144011103/19/16 14:40:31  5-MIN KACK 191940Z 25007G17KT 10SM CLR 05/M09 A3006 -70 34 -1200 270/07G17 RMK AO2 T00501094
14756KACK ACK20160319144510503/19/16 14:45:31  5-MIN KACK 191945Z 26010KT 10SM CLR 05/M09 A3005 -70 34 -1200 270/10 RMK AO2 T00501094
14756KACK ACK20160319145011203/19/16 14:50:31  5-MIN KACK 191950Z 29008KT 10SM CLR 05/M09 A3005 -70 34 -1200 300/08 RMK AO2 SLP176 T00501094
14756KACK ACK20160319145510503/19/16 14:55:31  5-MIN KACK 191955Z 26011KT 10SM CLR 06/M09 A3005 -60 34 -1100 270/11 RMK AO2 T00561089
14756KACK ACK20160319150010503/19/16 15:00:31  5-MIN KACK 192000Z 29010KT 10SM CLR 06/M09 A3005 -70 33 -1100 300/10 RMK AO2 T00561094
14756KACK ACK20160319150510503/19/16 15:05:31  5-MIN KACK 192005Z 27009KT 10SM CLR 06/M09 A3005 -70 34 -1100 290/09 RMK AO2 T00561089
14756KACK ACK20160319151010503/19/16 15:10:31  5-MIN KACK 192010Z 25013KT 10SM CLR 05/M09 A3005 -70 36 -1200 270/13 RMK AO2 T00501089
14756KACK ACK20160319151510503/19/16 15:15:31  5-MIN KACK 192015Z 26013KT 10SM CLR 05/M09 A3005 -60 36 -1200 280/13 RMK AO2 T00501089
14756KACK ACK20160319152010503/19/16 15:20:31  5-MIN KACK 192020Z 26011KT 10SM CLR 05/M09 A3005 -60 36 -1200 280/11 RMK AO2 T00501089
14756KACK ACK20160319152510503/19/16 15:25:31  5-MIN KACK 192025Z 25012KT 10SM CLR 06/M09 A3004 -60 34 -1100 260/12 RMK AO2 T00561089
14756KACK ACK20160319153010503/19/16 15:30:31  5-MIN KACK 192030Z 27012KT 10SM CLR 06/M08 A3004 -60 36 -1100 280/12 RMK AO2 T00561083
14756KACK ACK20160319153510503/19/16 15:35:31  5-MIN KACK 192035Z 25010KT 10SM CLR 05/M08 A3004 -50 37 -1200 270/10 RMK AO2 T00501083
14756KACK ACK20160319154010503/19/16 15:40:31  5-MIN KACK 192040Z 26008KT 10SM CLR 05/M09 A3004 -50 36 -1200 270/08 RMK AO2 T00501089
14756KACK ACK20160319154510503/19/16 15:45:31  5-MIN KACK 192045Z 24007KT 10SM CLR 05/M08 A3003 -50 37 -1200 260/07 RMK AO2 T00501083
14756KACK ACK20160319155011803/19/16 15:50:31  5-MIN KACK 192050Z 26009KT 10SM CLR 05/M08 A3003 -50 37 -1200 280/09 RMK AO2 SLP170 T00501083 58008
14756KACK ACK20160319155510503/19/16 15:55:31  5-MIN KACK 192055Z 26007KT 10SM CLR 05/M08 A3003 -50 37 -1200 280/07 RMK AO2 T00501083
14756KACK ACK20160319160010503/19/16 16:00:31  5-MIN KACK 192100Z 27009KT 10SM CLR 05/M08 A3003 -50 37 -1200 280/09 RMK AO2 T00501083
14756KACK ACK20160319160510503/19/16 16:05:31  5-MIN KACK 192105Z 26008KT 10SM CLR 05/M08 A3003 -50 37 -1200 280/08 RMK AO2 T00501083
14756KACK ACK20160319161010503/19/16 16:10:31  5-MIN KACK 192110Z 25009KT 10SM CLR 05/M08 A3003 -40 37 -1200 260/09 RMK AO2 T00501083
14756KACK ACK20160319161510503/19/16 16:15:31  5-MIN KACK 192115Z 24009KT 10SM CLR 05/M07 A3003 -50 41 -1200 260/09 RMK AO2 T00501072
14756KACK ACK20160319162010503/19/16 16:20:31  5-MIN KACK 192120Z 24010KT 10SM CLR 05/M07 A3003 -50 41 -1200 250/10 RMK AO2 T00501072
14756KACK ACK20160319162510503/19/16 16:25:31  5-MIN KACK 192125Z 24008KT 10SM CLR 05/M08 A3003 -50 39 -1200 260/08 RMK AO2 T00501078
14756KACK ACK20160319163010503/19/16 16:30:31  5-MIN KACK 192130Z 25009KT 10SM CLR 05/M08 A3004 -50 37 -1200 270/09 RMK AO2 T00501083
14756KACK ACK20160319163510503/19/16 16:35:31  5-MIN KACK 192135Z 26009KT 10SM CLR 05/M08 A3004 -50 37 -1200 270/09 RMK AO2 T00501083
14756KACK ACK20160319164010503/19/16 16:40:31  5-MIN KACK 192140Z 24008KT 10SM CLR 04/M08 A3003 -50 39 -1300 260/08 RMK AO2 T00441083
14756KACK ACK20160319164510503/19/16 16:45:31  5-MIN KACK 192145Z 25010KT 10SM CLR 04/M07 A3004 -50 42 -1300 270/10 RMK AO2 T00441072
14756KACK ACK20160319165011203/19/16 16:50:31  5-MIN KACK 192150Z 25009KT 10SM CLR 04/M07 A3004 -60 42 -1300 270/09 RMK AO2 SLP172 T00441072
14756KACK ACK20160319165510503/19/16 16:55:31  5-MIN KACK 192155Z 25009KT 10SM CLR 04/M08 A3004 -60 41 -1300 270/09 RMK AO2 T00441078
14756KACK ACK20160319170010503/19/16 17:00:31  5-MIN KACK 192200Z 25009KT 10SM CLR 04/M08 A3005 -70 40 -1300 270/09 RMK AO2 T00391083
14756KACK ACK20160319170510503/19/16 17:05:31  5-MIN KACK 192205Z 26007KT 10SM CLR 04/M08 A3005 -70 42 -1300 270/07 RMK AO2 T00391078
14756KACK ACK20160319171010503/19/16 17:10:31  5-MIN KACK 192210Z 25008KT 10SM CLR 04/M07 A3005 -70 44 -1400 270/08 RMK AO2 T00391072
14756KACK ACK20160319171510503/19/16 17:15:31  5-MIN KACK 192215Z 25007KT 10SM CLR 04/M07 A3006 -70 44 -1400 270/07 RMK AO2 T00391072
14756KACK ACK20160319172010503/19/16 17:20:31  5-MIN KACK 192220Z 25010KT 10SM CLR 04/M07 A3007 -80 44 -1400 260/10 RMK AO2 T00391072
14756KACK ACK20160319172510503/19/16 17:25:31  5-MIN KACK 192225Z 26008KT 10SM CLR 04/M07 A3006 -80 44 -1400 270/08 RMK AO2 T00391072
14756KACK ACK20160319173010503/19/16 17:30:31  5-MIN KACK 192230Z 25008KT 10SM CLR 03/M07 A3006 -80 46 -1400 270/08 RMK AO2 T00331072
14756KACK ACK20160319173510503/19/16 17:35:31  5-MIN KACK 192235Z 24009KT 10SM CLR 03/M07 A3007 -90 46 -1400 260/09 RMK AO2 T00331072
14756KACK ACK20160319174010603/19/16 17:40:31  5-MIN KACK 192240Z 24010KT 10SM CLR 03/M07 A3008 -100 48 -1500 260/10 RMK AO2 T00331067
14756KACK ACK20160319174511303/19/16 17:45:31  5-MIN KACK 192245Z 24011KT 10SM CLR 03/M07 A3009 -100 48 -1500 260/11 RMK AO2 PRESRR T00331067
14756KACK ACK20160319175011303/19/16 17:50:31  5-MIN KACK 192250Z 23012KT 10SM CLR 04/M07 A3009 -100 46 -1400 250/12 RMK AO2 SLP188 T00391067
14756KACK ACK20160319175510603/19/16 17:55:31  5-MIN KACK 192255Z 25010KT 10SM CLR 04/M06 A3009 -100 48 -1400 260/10 RMK AO2 T00391061
14756KACK ACK20160319180010603/19/16 18:00:31  5-MIN KACK 192300Z 25011KT 10SM CLR 04/M07 A3009 -100 46 -1400 270/11 RMK AO2 T00391067
14756KACK ACK20160319180510603/19/16 18:05:31  5-MIN KACK 192305Z 25009KT 10SM CLR 04/M07 A3009 -100 46 -1400 270/09 RMK AO2 T00391067
14756KACK ACK20160319181010603/19/16 18:10:31  5-MIN KACK 192310Z 25008KT 10SM CLR 04/M07 A3009 -100 46 -1400 270/08 RMK AO2 T00391067
14756KACK ACK20160319181510603/19/16 18:15:31  5-MIN KACK 192315Z 25008KT 10SM CLR 04/M07 A3010 -110 46 -1400 270/08 RMK AO2 T00391067
14756KACK ACK20160319182010603/19/16 18:20:31  5-MIN KACK 192320Z 25008KT 10SM CLR 04/M07 A3010 -110 46 -1400 260/08 RMK AO2 T00391067
14756KACK ACK20160319182510603/19/16 18:25:31  5-MIN KACK 192325Z 24007KT 10SM CLR 03/M06 A3009 -100 50 -1500 260/07 RMK AO2 T00331061
14756KACK ACK20160319183010603/19/16 18:30:31  5-MIN KACK 192330Z 26006KT 10SM CLR 03/M06 A3009 -100 50 -1500 270/06 RMK AO2 T00331061
14756KACK ACK20160319183510603/19/16 18:35:31  5-MIN KACK 192335Z 26006KT 10SM CLR 03/M06 A3008 -100 50 -1500 270/06 RMK AO2 T00331061
14756KACK ACK20160319184010603/19/16 18:40:31  5-MIN KACK 192340Z 25007KT 10SM CLR 03/M06 A3008 -100 50 -1500 260/07 RMK AO2 T00331061
14756KACK ACK20160319184510603/19/16 18:45:31  5-MIN KACK 192345Z 24007KT 10SM CLR 03/M06 A3009 -100 52 -1500 260/07 RMK AO2 T00281061
14756KACK ACK20160319185013103/19/16 18:50:31  5-MIN KACK 192350Z 25007KT 10SM CLR 03/M06 A3009 -100 52 -1500 270/07 RMK AO2 SLP189 T00281061 10061 20028 58009
14756KACK ACK20160319185510603/19/16 18:55:31  5-MIN KACK 192355Z 26006KT 10SM CLR 03/M06 A3009 -100 52 -1500 270/06 RMK AO2 T00281061
14756KACK ACK20160319190010603/19/16 19:00:31  5-MIN KACK 200000Z 26005KT 10SM CLR 03/M07 A3008 -100 50 -1500 280/05 RMK AO2 T00281067
14756KACK ACK20160319190510603/19/16 19:05:31  5-MIN KACK 200005Z 26005KT 10SM CLR 03/M07 A3009 -100 50 -1500 270/05 RMK AO2 T00281067
14756KACK ACK20160319191010603/19/16 19:10:31  5-MIN KACK 200010Z 25006KT 10SM CLR 02/M07 A3009 -100 52 -1600 270/06 RMK AO2 T00221067
14756KACK ACK20160319191510603/19/16 19:15:31  5-MIN KACK 200015Z 25006KT 10SM CLR 03/M07 A3009 -110 50 -1500 270/06 RMK AO2 T00281067
14756KACK ACK20160319192010603/19/16 19:20:31  5-MIN KACK 200020Z 26004KT 10SM CLR 02/M06 A3009 -110 54 -1600 280/04 RMK AO2 T00221061
14756KACK ACK20160319192510603/19/16 19:25:31  5-MIN KACK 200025Z 28005KT 10SM CLR 03/M06 A3009 -110 52 -1500 290/05 RMK AO2 T00281061
14756KACK ACK20160319193010603/19/16 19:30:31  5-MIN KACK 200030Z 26005KT 10SM CLR 03/M06 A3009 -110 52 -1500 280/05 RMK AO2 T00281061
14756KACK ACK20160319193510603/19/16 19:35:31  5-MIN KACK 200035Z 26005KT 10SM CLR 03/M06 A3010 -110 52 -1500 280/05 RMK AO2 T00281061
14756KACK ACK20160319194010603/19/16 19:40:31  5-MIN KACK 200040Z 27005KT 10SM CLR 03/M06 A3009 -110 52 -1500 290/05 RMK AO2 T00281061
14756KACK ACK20160319194510603/19/16 19:45:31  5-MIN KACK 200045Z 27005KT 10SM CLR 03/M06 A3009 -110 52 -1500 280/05 RMK AO2 T00281061
14756KACK ACK20160319195011303/19/16 19:50:31  5-MIN KACK 200050Z 26004KT 10SM CLR 03/M06 A3009 -100 52 -1500 280/04 RMK AO2 SLP189 T00281061
14756KACK ACK20160319195510603/19/16 19:55:31  5-MIN KACK 200055Z 26003KT 10SM CLR 03/M06 A3009 -100 52 -1500 280/03 RMK AO2 T00281061
14756KACK ACK20160319200010603/19/16 20:00:31  5-MIN KACK 200100Z 30003KT 10SM CLR 03/M06 A3009 -100 52 -1500 310/03 RMK AO2 T00281061
14756KACK ACK20160319200511603/19/16 20:05:31  5-MIN KACK 200105Z AUTO VRB04KT 10SM CLR 03/M06 A3009 -110 52 -1500 VRB/04 RMK AO2 T00281061 TSNO
14756KACK ACK20160319201011603/19/16 20:10:31  5-MIN KACK 200110Z AUTO 01004KT 10SM CLR 01/M06 A3009 -100 58 -1700 020/04 RMK AO2 T00111061 TSNO
14756KACK ACK20160319201511603/19/16 20:15:31  5-MIN KACK 200115Z AUTO 00000KT 10SM CLR 01/M06 A3010 -110 58 -1700 000/00 RMK AO2 T00111061 TSNO
14756KACK ACK20160319202011603/19/16 20:20:31  5-MIN KACK 200120Z AUTO 00000KT 10SM CLR 01/M06 A3010 -110 58 -1700 000/00 RMK AO2 T00111061 TSNO
14756KACK ACK20160319202511603/19/16 20:25:31  5-MIN KACK 200125Z AUTO 00000KT 10SM CLR 02/M06 A3009 -110 56 -1600 000/00 RMK AO2 T00221056 TSNO
14756KACK ACK20160319203011603/19/16 20:30:31  5-MIN KACK 200130Z AUTO 00000KT 10SM CLR 03/M06 A3010 -110 54 -1500 000/00 RMK AO2 T00281056 TSNO
14756KACK ACK20160319203511603/19/16 20:35:31  5-MIN KACK 200135Z AUTO 00000KT 10SM CLR 03/M06 A3010 -110 54 -1500 000/00 RMK AO2 T00281056 TSNO
14756KACK ACK20160319204011603/19/16 20:40:31  5-MIN KACK 200140Z AUTO 00000KT 10SM CLR 03/M06 A3009 -100 54 -1500 000/00 RMK AO2 T00281056 TSNO
14756KACK ACK20160319204511603/19/16 20:45:31  5-MIN KACK 200145Z AUTO 00000KT 10SM CLR 02/M06 A3009 -100 59 -1700 000/00 RMK AO2 T00171056 TSNO
14756KACK ACK20160319205012303/19/16 20:50:31  5-MIN KACK 200150Z AUTO 00000KT 10SM CLR 02/M05 A3009 -100 61 -1700 000/00 RMK AO2 SLP188 T00171050 TSNO
14756KACK ACK20160319205511603/19/16 20:55:31  5-MIN KACK 200155Z AUTO 00000KT 10SM CLR 02/M05 A3009 -100 61 -1700 000/00 RMK AO2 T00171050 TSNO
14756KACK ACK20160319210011603/19/16 21:00:31  5-MIN KACK 200200Z AUTO 00000KT 10SM CLR 01/M05 A3009 -110 64 -1700 000/00 RMK AO2 T00111050 TSNO
14756KACK ACK20160319210511603/19/16 21:05:31  5-MIN KACK 200205Z AUTO 00000KT 10SM CLR 01/M05 A3009 -100 64 -1700 000/00 RMK AO2 T00111050 TSNO
14756KACK ACK20160319211011603/19/16 21:10:31  5-MIN KACK 200210Z AUTO 00000KT 10SM CLR 02/M04 A3009 -100 64 -1700 000/00 RMK AO2 T00171044 TSNO
14756KACK ACK20160319211511603/19/16 21:15:31  5-MIN KACK 200215Z AUTO 00000KT 10SM CLR 01/M04 A3009 -100 69 -1800 000/00 RMK AO2 T00061044 TSNO
14756KACK ACK20160319212011603/19/16 21:20:31  5-MIN KACK 200220Z AUTO 00000KT 10SM CLR 01/M04 A3009 -100 69 -1800 000/00 RMK AO2 T00061044 TSNO
14756KACK ACK20160319212511603/19/16 21:25:31  5-MIN KACK 200225Z AUTO 00000KT 10SM CLR 01/M05 A3010 -110 66 -1800 000/00 RMK AO2 T00061050 TSNO
14756KACK ACK20160319213011603/19/16 21:30:31  5-MIN KACK 200230Z AUTO 00000KT 10SM CLR 01/M04 A3010 -110 69 -1800 000/00 RMK AO2 T00061044 TSNO
14756KACK ACK20160319213511603/19/16 21:35:31  5-MIN KACK 200235Z AUTO 00000KT 10SM CLR 01/M04 A3010 -110 69 -1800 000/00 RMK AO2 T00061044 TSNO
14756KACK ACK20160319214011603/19/16 21:40:31  5-MIN KACK 200240Z AUTO 00000KT 10SM CLR 01/M04 A3010 -110 66 -1800 000/00 RMK AO2 T00111044 TSNO
14756KACK ACK20160319214511603/19/16 21:45:31  5-MIN KACK 200245Z AUTO 00000KT 10SM CLR 00/M05 A3010 -110 69 -1900 000/00 RMK AO2 T00001050 TSNO
14756KACK ACK20160319215012903/19/16 21:50:31  5-MIN KACK 200250Z AUTO 00000KT 10SM CLR 01/M06 A3009 -110 63 -1800 000/00 RMK AO2 SLP190 T00061056 51020 TSNO
14756KACK ACK20160319215511603/19/16 21:55:31  5-MIN KACK 200255Z AUTO 00000KT 10SM CLR 01/M06 A3009 -100 63 -1800 000/00 RMK AO2 T00061056 TSNO
14756KACK ACK20160319220011603/19/16 22:00:31  5-MIN KACK 200300Z AUTO 00000KT 10SM CLR 02/M05 A3010 -110 61 -1700 000/00 RMK AO2 T00171050 TSNO
14756KACK ACK20160319220511603/19/16 22:05:31  5-MIN KACK 200305Z AUTO 00000KT 10SM CLR 01/M04 A3010 -110 66 -1700 000/00 RMK AO2 T00111044 TSNO
14756KACK ACK20160319221011603/19/16 22:10:31  5-MIN KACK 200310Z AUTO 03003KT 10SM CLR 01/M05 A3010 -110 66 -1800 040/03 RMK AO2 T00061050 TSNO
14756KACK ACK20160319221511603/19/16 22:15:31  5-MIN KACK 200315Z AUTO 33003KT 10SM CLR 02/M05 A3010 -110 61 -1700 340/03 RMK AO2 T00171050 TSNO
14756KACK ACK20160319222011603/19/16 22:20:31  5-MIN KACK 200320Z AUTO 32003KT 10SM CLR 02/M05 A3010 -110 61 -1700 330/03 RMK AO2 T00171050 TSNO
14756KACK ACK20160319222511603/19/16 22:25:31  5-MIN KACK 200325Z AUTO 34003KT 10SM CLR 01/M05 A3010 -110 64 -1700 360/03 RMK AO2 T00111050 TSNO
14756KACK ACK20160319223011603/19/16 22:30:31  5-MIN KACK 200330Z AUTO 34004KT 10SM CLR 01/M05 A3010 -110 64 -1700 350/04 RMK AO2 T00111050 TSNO
14756KACK ACK20160319223511603/19/16 22:35:31  5-MIN KACK 200335Z AUTO 34003KT 10SM CLR 01/M04 A3010 -110 69 -1800 360/03 RMK AO2 T00061044 TSNO
14756KACK ACK20160319224011603/19/16 22:40:31  5-MIN KACK 200340Z AUTO 34003KT 10SM CLR 01/M04 A3010 -110 69 -1700 360/03 RMK AO2 T00111039 TSNO
14756KACK ACK20160319224511603/19/16 22:45:31  5-MIN KACK 200345Z AUTO 35004KT 10SM CLR 02/M04 A3009 -110 66 -1700 360/04 RMK AO2 T00171039 TSNO
14756KACK ACK20160319225012303/19/16 22:50:31  5-MIN KACK 200350Z AUTO 35003KT 10SM CLR 02/M04 A3010 -110 66 -1700 360/03 RMK AO2 SLP193 T00171039 TSNO
14756KACK ACK20160319225511603/19/16 22:55:31  5-MIN KACK 200355Z AUTO 34005KT 10SM CLR 02/M04 A3010 -110 64 -1600 360/05 RMK AO2 T00221039 TSNO
14756KACK ACK20160319230011603/19/16 23:00:31  5-MIN KACK 200400Z AUTO 35007KT 10SM CLR 02/M03 A3009 -100 67 -1600 010/07 RMK AO2 T00221033 TSNO
14756KACK ACK20160319230511603/19/16 23:05:31  5-MIN KACK 200405Z AUTO 34006KT 10SM CLR 03/M03 A3010 -110 64 -1500 360/06 RMK AO2 T00281033 TSNO
14756KACK ACK20160319231011603/19/16 23:10:31  5-MIN KACK 200410Z AUTO 35008KT 10SM CLR 03/M03 A3010 -110 64 -1500 010/08 RMK AO2 T00281033 TSNO
14756KACK ACK20160319231511603/19/16 23:15:31  5-MIN KACK 200415Z AUTO 35008KT 10SM CLR 03/M04 A3010 -110 59 -1500 010/08 RMK AO2 T00331039 TSNO
14756KACK ACK20160319232011603/19/16 23:20:31  5-MIN KACK 200420Z AUTO 36011KT 10SM CLR 03/M04 A3010 -110 57 -1500 010/11 RMK AO2 T00331044 TSNO
14756KACK ACK20160319232511603/19/16 23:25:31  5-MIN KACK 200425Z AUTO 35010KT 10SM CLR 04/M06 A3010 -120 50 -1400 010/10 RMK AO2 T00391056 TSNO
14756KACK ACK20160319233011603/19/16 23:30:31  5-MIN KACK 200430Z AUTO 35011KT 10SM CLR 04/M06 A3011 -120 50 -1400 360/11 RMK AO2 T00391056 TSNO
14756KACK ACK20160319233511603/19/16 23:35:31  5-MIN KACK 200435Z AUTO 36010KT 10SM CLR 04/M06 A3011 -120 46 -1300 010/10 RMK AO2 T00441061 TSNO
14756KACK ACK20160319234011603/19/16 23:40:31  5-MIN KACK 200440Z AUTO 36008KT 10SM CLR 04/M06 A3011 -120 46 -1300 010/08 RMK AO2 T00441061 TSNO
14756KACK ACK20160319234511603/19/16 23:45:31  5-MIN KACK 200445Z AUTO 36011KT 10SM CLR 04/M06 A3011 -120 50 -1400 010/11 RMK AO2 T00391056 TSNO
14756KACK ACK20160319235013903/19/16 23:50:31  5-MIN KACK 200450Z AUTO 36013G18KT 10SM CLR 04/M06 A3011 -120 50 -1400 010/13G18 RMK AO2 SLP196 T00391056 400610000 TSNO
14756KACK ACK20160319235511603/19/16 23:55:31  5-MIN KACK 200455Z AUTO 35010KT 10SM CLR 04/M06 A3012 -130 50 -1400 010/10 RMK AO2 T00391056 TSNO
14756KACK ACK20160320000011603/20/16 00:00:31  5-MIN KACK 200500Z AUTO 35009KT 10SM CLR 04/M06 A3012 -130 50 -1400 010/09 RMK AO2 T00391056 TSNO
14756KACK ACK20160320000511603/20/16 00:05:31  5-MIN KACK 200505Z AUTO 36010KT 10SM CLR 04/M06 A3012 -130 50 -1400 010/10 RMK AO2 T00391056 TSNO
14756KACK ACK20160320001011603/20/16 00:10:31  5-MIN KACK 200510Z AUTO 36010KT 10SM CLR 04/M06 A3012 -130 50 -1400 010/10 RMK AO2 T00391056 TSNO
14756KACK ACK20160320001511603/20/16 00:15:31  5-MIN KACK 200515Z AUTO 36011KT 10SM CLR 04/M05 A3012 -130 52 -1400 020/11 RMK AO2 T00391050 TSNO
14756KACK ACK20160320002011603/20/16 00:20:31  5-MIN KACK 200520Z AUTO 01010KT 10SM CLR 04/M05 A3013 -140 52 -1400 020/10 RMK AO2 T00391050 TSNO
14756KACK ACK20160320002511603/20/16 00:25:31  5-MIN KACK 200525Z AUTO 02012KT 10SM CLR 04/M05 A3013 -140 52 -1400 030/12 RMK AO2 T00391050 TSNO
14756KACK ACK20160320003011603/20/16 00:30:31  5-MIN KACK 200530Z AUTO 01011KT 10SM CLR 04/M05 A3013 -140 52 -1400 030/11 RMK AO2 T00391050 TSNO
14756KACK ACK20160320003511603/20/16 00:35:31  5-MIN KACK 200535Z AUTO 01011KT 10SM CLR 03/M06 A3013 -140 52 -1500 030/11 RMK AO2 T00331056 TSNO
14756KACK ACK20160320004011603/20/16 00:40:31  5-MIN KACK 200540Z AUTO 01012KT 10SM CLR 03/M06 A3013 -140 52 -1500 030/12 RMK AO2 T00331056 TSNO
14756KACK ACK20160320004511603/20/16 00:45:31  5-MIN KACK 200545Z AUTO 01013KT 10SM CLR 03/M06 A3012 -130 50 -1500 030/13 RMK AO2 T00331061 TSNO
14756KACK ACK20160320005014103/20/16 00:50:31  5-MIN KACK 200550Z AUTO 01015KT 10SM CLR 03/M06 A3012 -130 50 -1500 030/15 RMK AO2 SLP200 T00331061 10044 20000 53001 TSNO
14756KACK ACK20160320005511603/20/16 00:55:31  5-MIN KACK 200555Z AUTO 01013KT 10SM CLR 03/M07 A3012 -130 48 -1600 030/13 RMK AO2 T00281072 TSNO
14756KACK ACK20160320010011603/20/16 01:00:31  5-MIN KACK 200600Z AUTO 01013KT 10SM CLR 03/M08 A3012 -130 44 -1500 030/13 RMK AO2 T00331078 TSNO
14756KACK ACK20160320010511603/20/16 01:05:31  5-MIN KACK 200605Z AUTO 01014KT 10SM CLR 03/M08 A3013 -140 44 -1600 030/14 RMK AO2 T00281083 TSNO
14756KACK ACK20160320011011603/20/16 01:10:31  5-MIN KACK 200610Z AUTO 01013KT 10SM CLR 03/M09 A3012 -130 42 -1600 030/13 RMK AO2 T00281089 TSNO
14756KACK ACK20160320011511603/20/16 01:15:31  5-MIN KACK 200615Z AUTO 01015KT 10SM CLR 03/M08 A3013 -140 44 -1600 030/15 RMK AO2 T00281083 TSNO
14756KACK ACK20160320012011603/20/16 01:20:31  5-MIN KACK 200620Z AUTO 01012KT 10SM CLR 03/M09 A3013 -140 42 -1600 020/12 RMK AO2 T00281089 TSNO
14756KACK ACK20160320012511603/20/16 01:25:31  5-MIN KACK 200625Z AUTO 01013KT 10SM CLR 03/M09 A3012 -130 40 -1600 030/13 RMK AO2 T00281094 TSNO
14756KACK ACK20160320013011603/20/16 01:30:31  5-MIN KACK 200630Z AUTO 01014KT 10SM CLR 02/M09 A3013 -130 42 -1600 030/14 RMK AO2 T00221094 TSNO
14756KACK ACK20160320013511603/20/16 01:35:31  5-MIN KACK 200635Z AUTO 01016KT 10SM CLR 03/M10 A3013 -130 38 -1600 030/16 RMK AO2 T00281100 TSNO
14756KACK ACK20160320014011603/20/16 01:40:31  5-MIN KACK 200640Z AUTO 01011KT 10SM CLR 03/M11 A3012 -130 37 -1600 020/11 RMK AO2 T00281106 TSNO
14756KACK ACK20160320014511603/20/16 01:45:31  5-MIN KACK 200645Z AUTO 01011KT 10SM CLR 02/M10 A3013 -140 40 -1600 020/11 RMK AO2 T00221100 TSNO
14756KACK ACK20160320015012303/20/16 01:50:31  5-MIN KACK 200650Z AUTO 01012KT 10SM CLR 02/M11 A3013 -140 38 -1600 030/12 RMK AO2 SLP203 T00221106 TSNO
14756KACK ACK20160320015511603/20/16 01:55:31  5-MIN KACK 200655Z AUTO 01011KT 10SM CLR 02/M09 A3013 -140 42 -1600 030/11 RMK AO2 T00221094 TSNO
14756KACK ACK20160320020011603/20/16 02:00:31  5-MIN KACK 200700Z AUTO 01012KT 10SM CLR 02/M09 A3013 -140 42 -1700 030/12 RMK AO2 T00221094 TSNO
14756KACK ACK20160320020511603/20/16 02:05:31  5-MIN KACK 200705Z AUTO 01013KT 10SM CLR 03/M09 A3013 -140 40 -1600 030/13 RMK AO2 T00281094 TSNO
14756KACK ACK20160320021011603/20/16 02:10:31  5-MIN KACK 200710Z AUTO 01011KT 10SM CLR 02/M09 A3012 -130 44 -1600 020/11 RMK AO2 T00221089 TSNO
14756KACK ACK20160320021511603/20/16 02:15:31  5-MIN KACK 200715Z AUTO 01012KT 10SM CLR 02/M08 A3012 -130 45 -1600 030/12 RMK AO2 T00221083 TSNO
14756KACK ACK20160320022011603/20/16 02:20:31  5-MIN KACK 200720Z AUTO 02010KT 10SM CLR 02/M08 A3012 -130 45 -1600 030/10 RMK AO2 T00221083 TSNO
14756KACK ACK20160320022511603/20/16 02:25:31  5-MIN KACK 200725Z AUTO 01012KT 10SM CLR 02/M08 A3012 -130 47 -1600 030/12 RMK AO2 T00221078 TSNO
14756KACK ACK20160320023011603/20/16 02:30:31  5-MIN KACK 200730Z AUTO 02010KT 10SM CLR 02/M07 A3012 -130 50 -1600 030/10 RMK AO2 T00221072 TSNO
14756KACK ACK20160320023511603/20/16 02:35:31  5-MIN KACK 200735Z AUTO 02009KT 10SM CLR 02/M07 A3012 -130 52 -1700 040/09 RMK AO2 T00171072 TSNO
14756KACK ACK20160320024011603/20/16 02:40:31  5-MIN KACK 200740Z AUTO 02010KT 10SM CLR 02/M07 A3011 -120 52 -1700 040/10 RMK AO2 T00171072 TSNO
14756KACK ACK20160320024511603/20/16 02:45:31  5-MIN KACK 200745Z AUTO 03011KT 10SM CLR 02/M07 A3011 -120 52 -1700 040/11 RMK AO2 T00171072 TSNO
14756KACK ACK20160320025012303/20/16 02:50:31  5-MIN KACK 200750Z AUTO 03010KT 10SM CLR 02/M08 A3012 -130 49 -1700 040/10 RMK AO2 SLP197 T00171078 TSNO
14756KACK ACK20160320025511603/20/16 02:55:31  5-MIN KACK 200755Z AUTO 03010KT 10SM CLR 02/M08 A3012 -130 49 -1700 040/10 RMK AO2 T00171078 TSNO
14756KACK ACK20160320030011903/20/16 03:00:31  5-MIN KACK 200800Z AUTO 03013KT 10SM FEW032 02/M07 A3012 -130 54 -1700 050/13 RMK AO2 T00171067 TSNO
14756KACK ACK20160320030511903/20/16 03:05:31  5-MIN KACK 200805Z AUTO 03012KT 10SM FEW032 02/M05 A3012 -130 59 -1600 050/12 RMK AO2 T00221050 TSNO
14756KACK ACK20160320031011903/20/16 03:10:31  5-MIN KACK 200810Z AUTO 03012KT 10SM FEW033 02/M05 A3012 -130 61 -1700 050/12 RMK AO2 T00171050 TSNO
14756KACK ACK20160320031511903/20/16 03:15:31  5-MIN KACK 200815Z AUTO 03014KT 10SM FEW033 02/M04 A3012 -130 61 -1600 050/14 RMK AO2 T00221044 TSNO
14756KACK ACK20160320032011903/20/16 03:20:31  5-MIN KACK 200820Z AUTO 04014KT 10SM FEW033 02/M05 A3013 -140 59 -1600 050/14 RMK AO2 T00221050 TSNO
14756KACK ACK20160320032511903/20/16 03:25:31  5-MIN KACK 200825Z AUTO 03013KT 10SM FEW033 02/M05 A3012 -130 61 -1700 050/13 RMK AO2 T00171050 TSNO
14756KACK ACK20160320033011603/20/16 03:30:31  5-MIN KACK 200830Z AUTO 04012KT 10SM CLR 02/M05 A3012 -130 61 -1700 050/12 RMK AO2 T00171050 TSNO
14756KACK ACK20160320033511603/20/16 03:35:31  5-MIN KACK 200835Z AUTO 03016KT 10SM CLR 02/M05 A3012 -130 61 -1700 050/16 RMK AO2 T00171050 TSNO
14756KACK ACK20160320034011903/20/16 03:40:31  5-MIN KACK 200840Z AUTO 03015KT 10SM FEW033 02/M05 A3013 -140 61 -1700 050/15 RMK AO2 T00171050 TSNO
14756KACK ACK20160320034511603/20/16 03:45:31  5-MIN KACK 200845Z AUTO 03014KT 10SM CLR 02/M05 A3012 -130 61 -1700 050/14 RMK AO2 T00171050 TSNO
14756KACK ACK20160320035012903/20/16 03:50:31  5-MIN KACK 200850Z AUTO 03014KT 10SM CLR 02/M05 A3013 -140 61 -1700 050/14 RMK AO2 SLP202 T00171050 51010 TSNO
14756KACK ACK20160320035511603/20/16 03:55:31  5-MIN KACK 200855Z AUTO 04013KT 10SM CLR 02/M05 A3013 -140 61 -1700 050/13 RMK AO2 T00171050 TSNO
14756KACK ACK20160320040011603/20/16 04:00:31  5-MIN KACK 200900Z AUTO 04013KT 10SM CLR 01/M05 A3013 -140 64 -1800 050/13 RMK AO2 T00111050 TSNO
14756KACK ACK20160320040511603/20/16 04:05:31  5-MIN KACK 200905Z AUTO 04013KT 10SM CLR 01/M06 A3014 -140 61 -1800 050/13 RMK AO2 T00111056 TSNO
14756KACK ACK20160320041011603/20/16 04:10:31  5-MIN KACK 200910Z AUTO 04013KT 10SM CLR 02/M06 A3013 -140 59 -1700 050/13 RMK AO2 T00171056 TSNO
14756KACK ACK20160320041511603/20/16 04:15:31  5-MIN KACK 200915Z AUTO 04014KT 10SM CLR 01/M06 A3013 -140 61 -1800 050/14 RMK AO2 T00111056 TSNO
14756KACK ACK20160320042011603/20/16 04:20:31  5-MIN KACK 200920Z AUTO 03012KT 10SM CLR 01/M06 A3013 -140 61 -1800 050/12 RMK AO2 T00111056 TSNO
14756KACK ACK20160320042511603/20/16 04:25:31  5-MIN KACK 200925Z AUTO 04012KT 10SM CLR 01/M06 A3013 -140 61 -1800 050/12 RMK AO2 T00111056 TSNO
14756KACK ACK20160320043011603/20/16 04:30:31  5-MIN KACK 200930Z AUTO 03011KT 10SM CLR 01/M06 A3013 -140 61 -1800 050/11 RMK AO2 T00111056 TSNO
14756KACK ACK20160320043511603/20/16 04:35:31  5-MIN KACK 200935Z AUTO 04013KT 10SM CLR 01/M06 A3014 -140 61 -1800 050/13 RMK AO2 T00111056 TSNO
14756KACK ACK20160320044011603/20/16 04:40:31  5-MIN KACK 200940Z AUTO 04012KT 10SM CLR 01/M06 A3014 -150 61 -1800 050/12 RMK AO2 T00111056 TSNO
14756KACK ACK20160320044511603/20/16 04:45:31  5-MIN KACK 200945Z AUTO 04011KT 10SM CLR 01/M06 A3014 -150 61 -1800 050/11 RMK AO2 T00111056 TSNO
14756KACK ACK20160320045011303/20/16 04:50:31  5-MIN KACK 200950Z 04012KT 10SM CLR 01/M06 A3014 -150 61 -1800 050/12 RMK AO2 SLP206 T00111056
14756KACK ACK20160320045510603/20/16 04:55:31  5-MIN KACK 200955Z 04013KT 10SM CLR 01/M06 A3014 -150 61 -1800 060/13 RMK AO2 T00111056
14756KACK ACK20160320050010603/20/16 05:00:31  5-MIN KACK 201000Z 04013KT 10SM CLR 01/M06 A3014 -150 61 -1800 050/13 RMK AO2 T00111056
14756KACK ACK20160320050510603/20/16 05:05:31  5-MIN KACK 201005Z 03012KT 10SM CLR 01/M06 A3014 -150 61 -1800 050/12 RMK AO2 T00111056
14756KACK ACK20160320051010603/20/16 05:10:31  5-MIN KACK 201010Z 04013KT 10SM CLR 01/M06 A3015 -150 61 -1800 050/13 RMK AO2 T00111056
14756KACK ACK20160320051510603/20/16 05:15:31  5-MIN KACK 201015Z 03012KT 10SM CLR 01/M06 A3014 -150 61 -1800 050/12 RMK AO2 T00111056
14756KACK ACK20160320052010903/20/16 05:20:31  5-MIN KACK 201020Z 04015KT 10SM FEW030 01/M06 A3015 -150 61 -1800 060/15 RMK AO2 T00111056
14756KACK ACK20160320052510903/20/16 05:25:31  5-MIN KACK 201025Z 04012KT 10SM FEW030 02/M06 A3015 -160 59 -1700 050/12 RMK AO2 T00171056
14756KACK ACK20160320053010903/20/16 05:30:31  5-MIN KACK 201030Z 05010KT 10SM FEW030 01/M06 A3015 -160 61 -1800 060/10 RMK AO2 T00111056
14756KACK ACK20160320053510903/20/16 05:35:31  5-MIN KACK 201035Z 04011KT 10SM FEW030 02/M06 A3015 -160 59 -1700 060/11 RMK AO2 T00171056
14756KACK ACK20160320054010903/20/16 05:40:31  5-MIN KACK 201040Z 04011KT 10SM SCT031 02/M06 A3016 -170 59 -1700 060/11 RMK AO2 T00171056
14756KACK ACK20160320054510903/20/16 05:45:31  5-MIN KACK 201045Z 05011KT 10SM SCT031 01/M06 A3016 -170 61 -1800 060/11 RMK AO2 T00111056
14756KACK ACK20160320055012203/20/16 05:50:31  5-MIN KACK 201050Z 05012G18KT 10SM FEW033 02/M06 A3016 -170 59 -1800 060/12G18 RMK AO2 SLP213 T00171056
14756KACK ACK20160320055511503/20/16 05:55:31  5-MIN KACK 201055Z 04014G19KT 10SM SCT033 02/M06 A3016 -170 59 -1800 050/14G19 RMK AO2 T00171056
14756KACK ACK20160320060011503/20/16 06:00:31  5-MIN KACK 201100Z 05010G19KT 10SM SCT033 02/M06 A3016 -170 59 -1800 070/10G19 RMK AO2 T00171056
14756KACK ACK20160320060510903/20/16 06:05:31  5-MIN KACK 201105Z 05011KT 10SM BKN033 02/M05 A3016 -170 61 -1800 070/11 RMK AO2 T00171050
14756KACK ACK20160320061010903/20/16 06:10:31  5-MIN KACK 201110Z 05012KT 10SM BKN031 02/M05 A3016 -170 61 -1800 060/12 RMK AO2 T00171050
14756KACK ACK20160320061510903/20/16 06:15:31  5-MIN KACK 201115Z 05011KT 10SM SCT031 02/M05 A3016 -170 61 -1800 070/11 RMK AO2 T00171050
14756KACK ACK20160320062010903/20/16 06:20:31  5-MIN KACK 201120Z 05011KT 10SM SCT031 02/M05 A3016 -170 61 -1800 060/11 RMK AO2 T00171050
14756KACK ACK20160320062510903/20/16 06:25:31  5-MIN KACK 201125Z 05014KT 10SM SCT031 02/M05 A3016 -170 61 -1800 060/14 RMK AO2 T00171050
14756KACK ACK20160320063010903/20/16 06:30:31  5-MIN KACK 201130Z 05013KT 10SM SCT031 02/M05 A3016 -170 59 -1700 060/13 RMK AO2 T00221050
14756KACK ACK20160320063510903/20/16 06:35:31  5-MIN KACK 201135Z 05015KT 10SM BKN031 02/M05 A3016 -170 59 -1700 060/15 RMK AO2 T00221050
14756KACK ACK20160320064011503/20/16 06:40:31  5-MIN KACK 201140Z 05012G20KT 10SM BKN031 02/M05 A3016 -170 59 -1700 060/12G20 RMK AO2 T00221050
14756KACK ACK20160320064511503/20/16 06:45:31  5-MIN KACK 201145Z 05015G20KT 10SM BKN031 02/M06 A3015 -160 56 -1700 070/15G20 RMK AO2 T00221056
14756KACK ACK20160320065014003/20/16 06:50:31  5-MIN KACK 201150Z 05015G20KT 10SM BKN031 02/M05 A3016 -160 59 -1700 070/15G20 RMK AO2 SLP211 T00221050 10033 20011 51002
14756KACK ACK20160320065511503/20/16 06:55:31  5-MIN KACK 201155Z 04018G22KT 10SM BKN029 02/M05 A3015 -160 59 -1700 050/18G22 RMK AO2 T00221050
14756KACK ACK20160320070011503/20/16 07:00:31  5-MIN KACK 201200Z 04016G22KT 10SM SCT031 02/M06 A3016 -160 56 -1700 060/16G22 RMK AO2 T00221056
14756KACK ACK20160320070510903/20/16 07:05:31  5-MIN KACK 201205Z 05014KT 10SM SCT031 02/M06 A3015 -160 56 -1700 070/14 RMK AO2 T00221056
14756KACK ACK20160320071010903/20/16 07:10:31  5-MIN KACK 201210Z 06013KT 10SM SCT031 02/M05 A3015 -160 59 -1700 070/13 RMK AO2 T00221050
14756KACK ACK20160320071511503/20/16 07:15:31  5-MIN KACK 201215Z 04018G23KT 10SM SCT031 02/M06 A3015 -160 56 -1700 060/18G23 RMK AO2 T00221056
14756KACK ACK20160320072011503/20/16 07:20:31  5-MIN KACK 201220Z 04015G23KT 10SM SCT031 03/M06 A3015 -160 54 -1600 050/15G23 RMK AO2 T00281056
14756KACK ACK20160320072513303/20/16 07:25:31  5-MIN KACK 201225Z 04017G27KT 10SM SCT031 03/M06 A3015 -160 54 -1600 060/17G27 RMK AO2 PK WND 04027/1221 T00281056
14756KACK ACK20160320073013303/20/16 07:30:31  5-MIN KACK 201230Z 05017G27KT 10SM SCT031 03/M06 A3015 -160 54 -1600 060/17G27 RMK AO2 PK WND 04027/1221 T00281056
14756KACK ACK20160320073513303/20/16 07:35:31  5-MIN KACK 201235Z 05016G22KT 10SM SCT031 03/M06 A3016 -160 54 -1600 060/16G22 RMK AO2 PK WND 04027/1221 T00281056
14756KACK ACK20160320074013303/20/16 07:40:31  5-MIN KACK 201240Z 05012G20KT 10SM SCT031 03/M06 A3016 -170 54 -1600 060/12G20 RMK AO2 PK WND 04027/1221 T00281056
14756KACK ACK20160320074512703/20/16 07:45:31  5-MIN KACK 201245Z 06013KT 10SM SCT031 03/M06 A3017 -170 54 -1600 070/13 RMK AO2 PK WND 04027/1221 T00281056
14756KACK ACK20160320075013403/20/16 07:50:31  5-MIN KACK 201250Z 05013KT 10SM SCT031 03/M06 A3017 -170 52 -1600 060/13 RMK AO2 PK WND 04027/1221 SLP215 T00281061
14756KACK ACK20160320075510903/20/16 07:55:31  5-MIN KACK 201255Z 06014KT 10SM SCT031 03/M06 A3017 -170 54 -1600 070/14 RMK AO2 T00281056
14756KACK ACK20160320080011503/20/16 08:00:31  5-MIN KACK 201300Z 05017G22KT 10SM SCT031 03/M06 A3017 -180 52 -1600 060/17G22 RMK AO2 T00331056
14756KACK ACK20160320080511503/20/16 08:05:31  5-MIN KACK 201305Z 05015G22KT 10SM SCT030 03/M06 A3017 -180 52 -1600 070/15G22 RMK AO2 T00331056
14756KACK ACK20160320081010903/20/16 08:10:31  5-MIN KACK 201310Z 03019KT 10SM BKN030 04/M06 A3017 -180 50 -1500 050/19 RMK AO2 T00391056
14756KACK ACK20160320081511503/20/16 08:15:31  5-MIN KACK 201315Z 06013G20KT 10SM BKN030 03/M06 A3018 -180 52 -1600 080/13G20 RMK AO2 T00331056
14756KACK ACK20160320082011503/20/16 08:20:31  5-MIN KACK 201320Z 05013G21KT 10SM BKN030 04/M06 A3018 -180 50 -1500 070/13G21 RMK AO2 T00391056
14756KACK ACK20160320082511503/20/16 08:25:31  5-MIN KACK 201325Z 05015G21KT 10SM BKN030 04/M06 A3018 -180 50 -1500 070/15G21 RMK AO2 T00391056
14756KACK ACK20160320083010903/20/16 08:30:31  5-MIN KACK 201330Z 05015KT 10SM BKN031 03/M06 A3018 -180 52 -1600 060/15 RMK AO2 T00331056
14756KACK ACK20160320083510903/20/16 08:35:31  5-MIN KACK 201335Z 04015KT 10SM SCT031 04/M06 A3017 -180 50 -1500 050/15 RMK AO2 T00391056
14756KACK ACK20160320084011503/20/16 08:40:31  5-MIN KACK 201340Z 05015G21KT 10SM SCT031 03/M06 A3018 -180 52 -1600 070/15G21 RMK AO2 T00331056
14756KACK ACK20160320084510903/20/16 08:45:31  5-MIN KACK 201345Z 04014KT 10SM SCT032 04/M06 A3018 -180 50 -1500 060/14 RMK AO2 T00391056
14756KACK ACK20160320085011603/20/16 08:50:31  5-MIN KACK 201350Z 05012KT 10SM SCT032 04/M06 A3018 -180 50 -1500 060/12 RMK AO2 SLP218 T00391056
14756KACK ACK20160320085511503/20/16 08:55:31  5-MIN KACK 201355Z 04015G21KT 10SM SCT032 04/M06 A3018 -180 50 -1500 060/15G21 RMK AO2 T00391056
14756KACK ACK20160320090011503/20/16 09:00:31  5-MIN KACK 201400Z 06013G21KT 10SM BKN031 04/M06 A3018 -190 50 -1500 080/13G21 RMK AO2 T00391056
14756KACK ACK20160320090511503/20/16 09:05:31  5-MIN KACK 201405Z 05016G21KT 10SM BKN031 04/M05 A3018 -190 52 -1500 070/16G21 RMK AO2 T00391050
14756KACK ACK20160320091011503/20/16 09:10:31  5-MIN KACK 201410Z 05012G21KT 10SM BKN031 04/M06 A3019 -190 50 -1500 070/12G21 RMK AO2 T00391056
14756KACK ACK20160320091510903/20/16 09:15:31  5-MIN KACK 201415Z 06012KT 10SM BKN031 04/M06 A3018 -190 50 -1500 070/12 RMK AO2 T00391056
14756KACK ACK20160320092011503/20/16 09:20:31  5-MIN KACK 201420Z 04015G20KT 10SM BKN031 04/M05 A3018 -190 50 -1400 050/15G20 RMK AO2 T00441050
14756KACK ACK20160320092511503/20/16 09:25:31  5-MIN KACK 201425Z 06015G20KT 10SM BKN031 04/M05 A3018 -190 52 -1500 080/15G20 RMK AO2 T00391050
14756KACK ACK20160320093011503/20/16 09:30:31  5-MIN KACK 201430Z 05017G23KT 10SM BKN031 04/M05 A3018 -190 50 -1400 070/17G23 RMK AO2 T00441050
14756KACK ACK20160320093511503/20/16 09:35:31  5-MIN KACK 201435Z 06014G23KT 10SM BKN032 04/M05 A3018 -180 52 -1500 080/14G23 RMK AO2 T00391050
14756KACK ACK20160320094010903/20/16 09:40:31  5-MIN KACK 201440Z 06015KT 10SM BKN032 03/M06 A3018 -180 52 -1600 070/15 RMK AO2 T00331056
14756KACK ACK20160320094510903/20/16 09:45:31  5-MIN KACK 201445Z 05014KT 10SM BKN032 04/M06 A3018 -180 50 -1500 070/14 RMK AO2 T00391056
14756KACK ACK20160320095012803/20/16 09:50:31  5-MIN KACK 201450Z 04017G22KT 10SM SCT032 04/M05 A3018 -180 50 -1400 060/17G22 RMK AO2 SLP218 T00441050 50009
14756KACK ACK20160320095511503/20/16 09:55:31  5-MIN KACK 201455Z 05017G23KT 10SM BKN032 04/M05 A3017 -180 50 -1400 060/17G23 RMK AO2 T00441050
14756KACK ACK20160320100011503/20/16 10:00:31  5-MIN KACK 201500Z 04017G23KT 10SM SCT032 04/M06 A3017 -180 50 -1500 050/17G23 RMK AO2 T00391056
14756KACK ACK20160320100511503/20/16 10:05:31  5-MIN KACK 201505Z 05014G22KT 10SM SCT032 04/M06 A3017 -180 50 -1500 060/14G22 RMK AO2 T00391056
14756KACK ACK20160320101010903/20/16 10:10:31  5-MIN KACK 201510Z 07014KT 10SM BKN032 04/M06 A3017 -180 50 -1500 090/14 RMK AO2 T00391056
14756KACK ACK20160320101511503/20/16 10:15:31  5-MIN KACK 201515Z 05015G20KT 10SM BKN032 05/M05 A3017 -180 48 -1300 060/15G20 RMK AO2 T00501050
14756KACK ACK20160320102011503/20/16 10:20:31  5-MIN KACK 201520Z 07015G22KT 10SM BKN032 04/M06 A3018 -180 48 -1400 090/15G22 RMK AO2 T00441056
14756KACK ACK20160320102511503/20/16 10:25:31  5-MIN KACK 201525Z 05014G22KT 10SM BKN032 04/M06 A3017 -180 48 -1400 070/14G22 RMK AO2 T00441056
14756KACK ACK20160320103011503/20/16 10:30:31  5-MIN KACK 201530Z 06010G20KT 10SM OVC032 05/M06 A3018 -180 46 -1400 080/10G20 RMK AO2 T00501056
14756KACK ACK20160320103511503/20/16 10:35:31  5-MIN KACK 201535Z 05015G19KT 10SM OVC032 06/M05 A3017 -170 46 -1300 070/15G19 RMK AO2 T00561050
14756KACK ACK20160320104011503/20/16 10:40:31  5-MIN KACK 201540Z 05014G19KT 10SM OVC033 05/M06 A3017 -170 46 -1300 070/14G19 RMK AO2 T00501056
14756KACK ACK20160320104512203/20/16 10:45:31  5-MIN KACK 201545Z 05015G22KT 10SM BKN033 OVC120 04/M06 A3016 -170 48 -1400 070/15G22 RMK AO2 T00441056
14756KACK ACK20160320105012903/20/16 10:50:31  5-MIN KACK 201550Z 06014G22KT 10SM SCT033 SCT120 04/M06 A3015 -160 48 -1400 080/14G22 RMK AO2 SLP209 T00441056
14756KACK ACK20160320105511503/20/16 10:55:31  5-MIN KACK 201555Z 05015G21KT 10SM BKN033 04/M06 A3015 -160 50 -1500 060/15G21 RMK AO2 T00391056
14756KACK ACK20160320110011503/20/16 11:00:31  5-MIN KACK 201600Z 08013G24KT 10SM BKN033 04/M06 A3015 -150 50 -1500 090/13G24 RMK AO2 T00391056
14756KACK ACK20160320110511503/20/16 11:05:31  5-MIN KACK 201605Z 08013G24KT 10SM BKN033 04/M06 A3015 -160 50 -1500 090/13G24 RMK AO2 T00391056
14756KACK ACK20160320111011503/20/16 11:10:31  5-MIN KACK 201610Z 07013G22KT 10SM BKN033 04/M05 A3015 -160 50 -1400 080/13G22 RMK AO2 T00441050
14756KACK ACK20160320111511503/20/16 11:15:31  5-MIN KACK 201615Z 06017G21KT 10SM BKN033 04/M05 A3014 -150 50 -1400 080/17G21 RMK AO2 T00441050
14756KACK ACK20160320112011503/20/16 11:20:31  5-MIN KACK 201620Z 06017G23KT 10SM BKN033 04/M05 A3014 -150 50 -1400 080/17G23 RMK AO2 T00441050
14756KACK ACK20160320112511503/20/16 11:25:31  5-MIN KACK 201625Z 06014G24KT 10SM SCT032 04/M06 A3014 -140 48 -1400 070/14G24 RMK AO2 T00441056
14756KACK ACK20160320113011503/20/16 11:30:31  5-MIN KACK 201630Z 05015G24KT 10SM SCT032 05/M05 A3014 -150 48 -1300 070/15G24 RMK AO2 T00501050
14756KACK ACK20160320113511503/20/16 11:35:31  5-MIN KACK 201635Z 05013G23KT 10SM SCT032 04/M05 A3014 -150 50 -1400 070/13G23 RMK AO2 T00441050
14756KACK ACK20160320114011503/20/16 11:40:31  5-MIN KACK 201640Z 07016G24KT 10SM SCT032 04/M06 A3013 -140 48 -1400 080/16G24 RMK AO2 T00441056
14756KACK ACK20160320114511503/20/16 11:45:31  5-MIN KACK 201645Z 04014G24KT 10SM FEW032 04/M06 A3013 -140 48 -1400 060/14G24 RMK AO2 T00441056
14756KACK ACK20160320115012203/20/16 11:50:31  5-MIN KACK 201650Z 04018G23KT 10SM FEW032 06/M05 A3013 -140 46 -1200 060/18G23 RMK AO2 SLP204 T00561050
14756KACK ACK20160320115511503/20/16 11:55:31  5-MIN KACK 201655Z 04019G23KT 10SM SCT032 04/M05 A3013 -140 50 -1400 060/19G23 RMK AO2 T00441050
14756KACK ACK20160320120011503/20/16 12:00:31  5-MIN KACK 201700Z 06015G23KT 10SM FEW032 04/M05 A3014 -140 50 -1400 070/15G23 RMK AO2 T00441050
14756KACK ACK20160320120511503/20/16 12:05:31  5-MIN KACK 201705Z 05012G24KT 10SM SCT032 04/M05 A3014 -150 50 -1400 060/12G24 RMK AO2 T00441050
14756KACK ACK20160320121011503/20/16 12:10:31  5-MIN KACK 201710Z 07014G24KT 10SM SCT032 04/M05 A3014 -150 50 -1400 090/14G24 RMK AO2 T00441050
14756KACK ACK20160320121511503/20/16 12:15:31  5-MIN KACK 201715Z 06014G22KT 10SM SCT031 04/M05 A3014 -150 52 -1400 070/14G22 RMK AO2 T00391050
14756KACK ACK20160320122011503/20/16 12:20:31  5-MIN KACK 201720Z 04014G21KT 10SM SCT031 05/M04 A3014 -150 50 -1300 060/14G21 RMK AO2 T00501044
14756KACK ACK20160320122511503/20/16 12:25:31  5-MIN KACK 201725Z 07012G20KT 10SM BKN031 05/M04 A3013 -140 50 -1300 090/12G20 RMK AO2 T00501044
14756KACK ACK20160320123011503/20/16 12:30:31  5-MIN KACK 201730Z 05016G21KT 10SM BKN031 04/M05 A3012 -130 50 -1400 070/16G21 RMK AO2 T00441050
14756KACK ACK20160320123511503/20/16 12:35:31  5-MIN KACK 201735Z 07014G21KT 10SM SCT031 04/M05 A3012 -130 50 -1400 090/14G21 RMK AO2 T00441050
14756KACK ACK20160320124010903/20/16 12:40:31  5-MIN KACK 201740Z 06014KT 10SM SCT031 05/M05 A3012 -130 48 -1300 080/14 RMK AO2 T00501050
14756KACK ACK20160320124511503/20/16 12:45:31  5-MIN KACK 201745Z 07014G21KT 10SM SCT031 05/M04 A3012 -130 50 -1300 090/14G21 RMK AO2 T00501044
14756KACK ACK20160320125014003/20/16 12:50:31  5-MIN KACK 201750Z 06015G22KT 10SM SCT031 05/M04 A3011 -120 50 -1300 080/15G22 RMK AO2 SLP195 T00501044 10056 20022 50006
14756KACK ACK20160320125511503/20/16 12:55:31  5-MIN KACK 201755Z 04017G23KT 10SM SCT031 04/M04 A3011 -120 52 -1300 060/17G23 RMK AO2 T00441044
14756KACK ACK20160320130011503/20/16 13:00:31  5-MIN KACK 201800Z 05014G23KT 10SM SCT031 04/M05 A3010 -120 52 -1400 060/14G23 RMK AO2 T00391050
14756KACK ACK20160320130511503/20/16 13:05:31  5-MIN KACK 201805Z 03016G23KT 10SM SCT030 05/M04 A3012 -130 50 -1300 050/16G23 RMK AO2 T00501044
14756KACK ACK20160320131012203/20/16 13:10:31  5-MIN KACK 201810Z 06013G23KT 10SM SCT030 BKN095 04/M05 A3011 -120 50 -1300 070/13G23 RMK AO2 T00441050
14756KACK ACK20160320131511603/20/16 13:15:31  5-MIN KACK 201815Z 05014KT 10SM SCT030 BKN095 04/M05 A3012 -130 52 -1400 060/14 RMK AO2 T00391050
14756KACK ACK20160320132012203/20/16 13:20:31  5-MIN KACK 201820Z 05015G20KT 10SM SCT030 BKN095 04/M05 A3011 -120 52 -1400 070/15G20 RMK AO2 T00391050
14756KACK ACK20160320132512203/20/16 13:25:31  5-MIN KACK 201825Z 04014G21KT 10SM SCT030 BKN095 04/M04 A3011 -120 54 -1400 060/14G21 RMK AO2 T00391044
14756KACK ACK20160320133012203/20/16 13:30:31  5-MIN KACK 201830Z 06011G21KT 10SM BKN030 OVC095 04/M04 A3011 -120 54 -1400 070/11G21 RMK AO2 T00391044
14756KACK ACK20160320133511603/20/16 13:35:31  5-MIN KACK 201835Z 06011KT 10SM BKN030 OVC095 04/M05 A3012 -130 52 -1400 080/11 RMK AO2 T00391050
14756KACK ACK20160320134012203/20/16 13:40:31  5-MIN KACK 201840Z 06012G19KT 10SM BKN030 OVC090 04/M05 A3012 -130 52 -1400 080/12G19 RMK AO2 T00391050
14756KACK ACK20160320134512203/20/16 13:45:31  5-MIN KACK 201845Z 05014G20KT 10SM BKN030 OVC090 04/M04 A3012 -130 54 -1400 070/14G20 RMK AO2 T00391044
14756KACK ACK20160320135013403/20/16 13:50:31  5-MIN KACK 201850Z AUTO 07010G20KT 10SM BKN030 OVC095 04/M04 A3012 -130 54 -1400 080/10G20 RMK AO2 SLP199 T00391044
14756KACK ACK20160320135512603/20/16 13:55:31  5-MIN KACK 201855Z AUTO 05015KT 10SM BKN030 OVC095 04/M04 A3012 -130 54 -1400 070/15 RMK AO2 T00391044 TSNO
14756KACK ACK20160320140012603/20/16 14:00:31  5-MIN KACK 201900Z AUTO 07011KT 10SM BKN030 OVC095 03/M04 A3011 -120 57 -1500 090/11 RMK AO2 T00331044 TSNO
14756KACK ACK20160320140513203/20/16 14:05:31  5-MIN KACK 201905Z AUTO 05015G19KT 10SM BKN030 OVC095 04/M04 A3011 -120 54 -1400 060/15G19 RMK AO2 T00391044 TSNO
14756KACK ACK20160320141012203/20/16 14:10:31  5-MIN KACK 201910Z 05013G19KT 10SM BKN030 OVC095 04/M04 A3012 -130 54 -1400 060/13G19 RMK AO2 T00391044
14756KACK ACK20160320141511603/20/16 14:15:31  5-MIN KACK 201915Z 06015KT 10SM BKN029 OVC090 04/M04 A3011 -120 54 -1400 070/15 RMK AO2 T00391044
14756KACK ACK20160320142011603/20/16 14:20:31  5-MIN KACK 201920Z 08014KT 10SM BKN030 OVC090 03/M04 A3011 -130 57 -1500 090/14 RMK AO2 T00331044
14756KACK ACK20160320142511603/20/16 14:25:31  5-MIN KACK 201925Z 06012KT 10SM BKN030 OVC090 03/M05 A3012 -130 54 -1500 070/12 RMK AO2 T00331050
14756KACK ACK20160320143011603/20/16 14:30:31  5-MIN KACK 201930Z 05014KT 10SM BKN030 OVC090 03/M05 A3011 -120 54 -1500 060/14 RMK AO2 T00331050
14756KACK ACK20160320143512203/20/16 14:35:31  5-MIN KACK 201935Z 06011G18KT 10SM BKN030 OVC090 03/M04 A3011 -120 57 -1500 070/11G18 RMK AO2 T00331044
14756KACK ACK20160320144011603/20/16 14:40:31  5-MIN KACK 201940Z 06011KT 10SM BKN030 OVC090 03/M04 A3011 -120 57 -1500 070/11 RMK AO2 T00331044
14756KACK ACK20160320144511603/20/16 14:45:31  5-MIN KACK 201945Z 06011KT 10SM BKN030 OVC090 03/M04 A3011 -120 57 -1500 080/11 RMK AO2 T00331044
14756KACK ACK20160320145012903/20/16 14:50:31  5-MIN KACK 201950Z 06014G20KT 10SM SCT030 OVC080 03/M04 A3011 -120 57 -1500 070/14G20 RMK AO2 SLP196 T00331044
14756KACK ACK20160320145512203/20/16 14:55:31  5-MIN KACK 201955Z 06013G20KT 10SM SCT030 OVC080 03/M04 A3011 -120 57 -1500 070/13G20 RMK AO2 T00331044
14756KACK ACK20160320150011603/20/16 15:00:31  5-MIN KACK 202000Z 06011KT 10SM SCT030 OVC080 03/M04 A3010 -110 57 -1500 080/11 RMK AO2 T00331044
14756KACK ACK20160320150511603/20/16 15:05:31  5-MIN KACK 202005Z 08010KT 10SM SCT030 OVC080 03/M04 A3010 -110 57 -1500 090/10 RMK AO2 T00331044
14756KACK ACK20160320151011603/20/16 15:10:31  5-MIN KACK 202010Z 07010KT 10SM SCT030 OVC080 04/M04 A3010 -110 54 -1400 090/10 RMK AO2 T00391044
14756KACK ACK20160320151511603/20/16 15:15:31  5-MIN KACK 202015Z 06012KT 10SM SCT030 OVC080 03/M04 A3010 -110 57 -1500 070/12 RMK AO2 T00331044
14756KACK ACK20160320152011603/20/16 15:20:31  5-MIN KACK 202020Z 07011KT 10SM SCT030 OVC080 03/M04 A3009 -110 57 -1500 090/11 RMK AO2 T00331044
14756KACK ACK20160320152511603/20/16 15:25:31  5-MIN KACK 202025Z 05013KT 10SM SCT030 OVC080 03/M04 A3009 -110 59 -1500 070/13 RMK AO2 T00331039
14756KACK ACK20160320153012203/20/16 15:30:31  5-MIN KACK 202030Z 07010G18KT 10SM SCT030 OVC080 03/M04 A3009 -110 59 -1500 080/10G18 RMK AO2 T00331039
14756KACK ACK20160320153512203/20/16 15:35:31  5-MIN KACK 202035Z 05012G18KT 10SM SCT030 OVC080 03/M04 A3008 -100 57 -1500 070/12G18 RMK AO2 T00331044
14756KACK ACK20160320154012103/20/16 15:40:31  5-MIN KACK 202040Z 07012G20KT 10SM SCT030 OVC080 03/M04 A3008 -90 59 -1500 090/12G20 RMK AO2 T00331039
14756KACK ACK20160320154512103/20/16 15:45:31  5-MIN KACK 202045Z 06012G20KT 10SM SCT030 OVC080 03/M04 A3008 -90 59 -1400 070/12G20 RMK AO2 T00331039
14756KACK ACK20160320155011103/20/16 15:50:31  5-MIN KACK 202050Z 06012G20KT 10SM BKN027 OVC070 03/M04 A3008 -90 59 -1400 080/12G20 RMK AO2
14756KACK ACK20160320155512103/20/16 15:55:31  5-MIN KACK 202055Z 07012G20KT 10SM BKN027 OVC070 03/M04 A3008 -90 59 -1400 080/12G20 RMK AO2 T00331039
14756KACK ACK20160320160011503/20/16 16:00:31  5-MIN KACK 202100Z 06016KT 10SM BKN027 OVC070 03/M04 A3007 -90 59 -1400 070/16 RMK AO2 T00331039
14756KACK ACK20160320160511503/20/16 16:05:31  5-MIN KACK 202105Z 07013KT 10SM BKN027 OVC070 03/M04 A3007 -90 59 -1400 090/13 RMK AO2 T00331039
14756KACK ACK20160320161011503/20/16 16:10:31  5-MIN KACK 202110Z 07014KT 10SM SCT026 OVC070 03/M04 A3007 -80 59 -1400 080/14 RMK AO2 T00331039
14756KACK ACK20160320161511503/20/16 16:15:31  5-MIN KACK 202115Z 06013KT 10SM SCT026 OVC065 03/M04 A3007 -80 59 -1400 080/13 RMK AO2 T00331039
14756KACK ACK20160320162011503/20/16 16:20:31  5-MIN KACK 202120Z 08012KT 10SM SCT026 OVC070 03/M04 A3007 -80 59 -1400 090/12 RMK AO2 T00331039
14756KACK ACK20160320162512103/20/16 16:25:31  5-MIN KACK 202125Z 06016G20KT 10SM SCT026 OVC070 03/M04 A3006 -80 61 -1500 070/16G20 RMK AO2 T00281039
14756KACK ACK20160320163012103/20/16 16:30:31  5-MIN KACK 202130Z 08011G20KT 10SM BKN026 OVC065 03/M04 A3007 -80 59 -1400 090/11G20 RMK AO2 T00331039
14756KACK ACK20160320163511503/20/16 16:35:31  5-MIN KACK 202135Z 06012KT 10SM SCT026 OVC065 03/M04 A3007 -80 61 -1500 080/12 RMK AO2 T00281039
14756KACK ACK20160320164011503/20/16 16:40:31  5-MIN KACK 202140Z 07012KT 10SM SCT026 OVC065 03/M04 A3006 -80 61 -1500 090/12 RMK AO2 T00281039
14756KACK ACK20160320164511503/20/16 16:45:31  5-MIN KACK 202145Z 07015KT 10SM SCT026 OVC065 03/M04 A3006 -80 59 -1400 090/15 RMK AO2 T00331039
14756KACK ACK20160320165012203/20/16 16:50:31  5-MIN KACK 202150Z 07012KT 10SM SCT027 OVC065 03/M04 A3006 -70 59 -1400 080/12 RMK AO2 SLP177 T00331039
14756KACK ACK20160320165512103/20/16 16:55:31  5-MIN KACK 202155Z 07014G19KT 10SM SCT027 OVC065 03/M04 A3005 -70 59 -1400 080/14G19 RMK AO2 T00331039
14756KACK ACK20160320170012103/20/16 17:00:31  5-MIN KACK 202200Z 07010G19KT 10SM BKN026 OVC060 03/M04 A3006 -70 59 -1400 090/10G19 RMK AO2 T00331039
14756KACK ACK20160320170512103/20/16 17:05:31  5-MIN KACK 202205Z 07012G17KT 10SM SCT026 OVC065 03/M03 A3005 -70 61 -1400 080/12G17 RMK AO2 T00331033
14756KACK ACK20160320171012103/20/16 17:10:31  5-MIN KACK 202210Z 07012G17KT 10SM SCT026 OVC060 03/M03 A3005 -70 61 -1400 080/12G17 RMK AO2 T00331033
14756KACK ACK20160320171511503/20/16 17:15:31  5-MIN KACK 202215Z 07013KT 10SM SCT026 OVC060 03/M03 A3005 -70 61 -1400 080/13 RMK AO2 T00331033
14756KACK ACK20160320172011503/20/16 17:20:31  5-MIN KACK 202220Z 06013KT 10SM SCT025 OVC060 03/M03 A3005 -60 61 -1400 080/13 RMK AO2 T00331033
14756KACK ACK20160320172511503/20/16 17:25:31  5-MIN KACK 202225Z 07014KT 10SM FEW025 OVC060 03/M03 A3004 -60 61 -1400 080/14 RMK AO2 T00331033
14756KACK ACK20160320173011503/20/16 17:30:31  5-MIN KACK 202230Z 07012KT 10SM FEW025 OVC060 03/M03 A3004 -50 61 -1400 080/12 RMK AO2 T00331033
14756KACK ACK20160320173511503/20/16 17:35:31  5-MIN KACK 202235Z 07012KT 10SM SCT025 OVC060 03/M03 A3004 -50 61 -1400 080/12 RMK AO2 T00331033
14756KACK ACK20160320174011503/20/16 17:40:31  5-MIN KACK 202240Z 07010KT 10SM SCT023 OVC060 03/M03 A3004 -60 64 -1400 080/10 RMK AO2 T00331028
14756KACK ACK20160320174512103/20/16 17:45:31  5-MIN KACK 202245Z 08012G19KT 10SM SCT023 OVC060 03/M03 A3004 -60 64 -1400 090/12G19 RMK AO2 T00331028
14756KACK ACK20160320175012203/20/16 17:50:31  5-MIN KACK 202250Z 07013KT 10SM SCT023 OVC060 03/M03 A3003 -40 67 -1500 090/13 RMK AO2 SLP168 T00281028
14756KACK ACK20160320175512103/20/16 17:55:31  5-MIN KACK 202255Z 07014G20KT 10SM SCT023 OVC060 03/M03 A3002 -40 64 -1400 090/14G20 RMK AO2 T00331028
14756KACK ACK20160320180012103/20/16 18:00:31  5-MIN KACK 202300Z 07014G20KT 10SM SCT023 OVC060 03/M03 A3002 -40 64 -1400 080/14G20 RMK AO2 T00331028
14756KACK ACK20160320180512803/20/16 18:05:31  5-MIN KACK 202305Z 07015G19KT 10SM SCT023 BKN060 OVC075 03/M03 A3002 -40 64 -1400 090/15G19 RMK AO2 T00331028
14756KACK ACK20160320181012203/20/16 18:10:31  5-MIN KACK 202310Z 07013KT 10SM SCT023 BKN060 OVC075 03/M03 A3002 -40 67 -1400 080/13 RMK AO2 T00281028
14756KACK ACK20160320181512803/20/16 18:15:31  5-MIN KACK 202315Z 07012G18KT 10SM SCT023 BKN060 OVC095 03/M03 A3001 -30 64 -1400 090/12G18 RMK AO2 T00331028
14756KACK ACK20160320182012803/20/16 18:20:31  5-MIN KACK 202320Z 06014G18KT 10SM SCT023 BKN060 OVC100 03/M03 A3002 -30 64 -1400 080/14G18 RMK AO2 T00331028
14756KACK ACK20160320182512803/20/16 18:25:31  5-MIN KACK 202325Z 07015G19KT 10SM SCT023 BKN060 OVC100 03/M03 A3002 -30 64 -1400 090/15G19 RMK AO2 T00331028
14756KACK ACK20160320183012803/20/16 18:30:31  5-MIN KACK 202330Z 07014G19KT 10SM SCT023 BKN060 OVC075 03/M03 A3002 -30 64 -1400 090/14G19 RMK AO2 T00331028
14756KACK ACK20160320183512103/20/16 18:35:31  5-MIN KACK 202335Z 07012G19KT 10SM SCT023 OVC060 03/M03 A3001 -30 64 -1400 090/12G19 RMK AO2 T00331028
14756KACK ACK20160320184012103/20/16 18:40:31  5-MIN KACK 202340Z 06013G19KT 10SM SCT023 OVC060 03/M03 A3001 -30 64 -1400 080/13G19 RMK AO2 T00331028
14756KACK ACK20160320184512103/20/16 18:45:31  5-MIN KACK 202345Z 07016G21KT 10SM FEW021 OVC060 03/M03 A3001 -30 64 -1400 080/16G21 RMK AO2 T00331028
14756KACK ACK20160320185014603/20/16 18:50:31  5-MIN KACK 202350Z 07015G21KT 10SM FEW021 OVC055 03/M03 A3000 -20 64 -1400 090/15G21 RMK AO2 SLP160 T00331028 10050 20022 58009
14756KACK ACK20160320185511503/20/16 18:55:31  5-MIN KACK 202355Z 07013KT 10SM FEW021 OVC055 03/M02 A3001 -30 67 -1400 090/13 RMK AO2 T00331022
14756KACK ACK20160320190012103/20/16 19:00:31  5-MIN KACK 210000Z 07011G21KT 10SM FEW021 OVC050 03/M02 A3001 -30 67 -1400 090/11G21 RMK AO2 T00331022
14756KACK ACK20160320190512103/20/16 19:05:31  5-MIN KACK 210005Z 07013G21KT 10SM FEW021 OVC055 03/M02 A3000 -20 67 -1400 080/13G21 RMK AO2 T00331022
14756KACK ACK20160320191011503/20/16 19:10:31  5-MIN KACK 210010Z 07015KT 10SM FEW021 OVC050 03/M02 A2999 -10 67 -1400 080/15 RMK AO2 T00331022
14756KACK ACK20160320191510803/20/16 19:15:31  5-MIN KACK 210015Z 07011KT 10SM OVC050 03/M02 A3000 -20 67 -1400 080/11 RMK AO2 T00331022
14756KACK ACK20160320192011403/20/16 19:20:31  5-MIN KACK 210020Z 06014G20KT 10SM OVC050 03/M02 A3000 -20 67 -1400 070/14G20 RMK AO2 T00331022
14756KACK ACK20160320192511403/20/16 19:25:31  5-MIN KACK 210025Z 07012G21KT 10SM OVC050 03/M02 A3000 -20 67 -1400 090/12G21 RMK AO2 T00331022
14756KACK ACK20160320193011403/20/16 19:30:31  5-MIN KACK 210030Z 07013G21KT 10SM OVC050 03/M02 A3000 -20 67 -1400 080/13G21 RMK AO2 T00331022
14756KACK ACK20160320193510803/20/16 19:35:31  5-MIN KACK 210035Z 07014KT 10SM OVC050 03/M02 A3000 -20 67 -1400 080/14 RMK AO2 T00331022
14756KACK ACK20160320194012403/20/16 19:40:31  5-MIN KACK 210040Z 06012KT 10SM -RA OVC050 03/M02 A3000 -20 67 -1400 070/12 RMK AO2 RAB38 P0000 T00331022
14756KACK ACK20160320194512403/20/16 19:45:31  5-MIN KACK 210045Z 06012KT 10SM -RA OVC050 03/M02 A3000 -20 70 -1400 080/12 RMK AO2 RAB38 P0000 T00331017
14756KACK ACK20160320195013103/20/16 19:50:31  5-MIN KACK 210050Z 06011KT 10SM -RA OVC050 03/M02 A2999 -10 70 -1300 080/11 RMK AO2 RAB38 SLP155 P0000 T00331017
14756KACK ACK20160320195512303/20/16 19:55:31  5-MIN KACK 210055Z 06011KT 10SM -RA OVC050 03/M01 A2998 0 75 -1400 080/11 RMK AO2 PRESFR P0000 T00281011
14756KACK ACK20160320200012603/20/16 20:00:31  5-MIN KACK 210100Z 07014G20KT 10SM OVC050 03/M01 A2998 0 72 -1300 080/14G20 RMK AO2 RAE0056 P0000 T00331011
14756KACK ACK20160320200513003/20/16 20:05:31  5-MIN KACK 210105Z AUTO 06012KT 10SM OVC050 03/M02 A2998 0 70 -1300 080/12 RMK AO2 RAE0056 P0000 T00331017 TSNO
14756KACK ACK20160320201013003/20/16 20:10:31  5-MIN KACK 210110Z AUTO 06015KT 10SM OVC050 03/M02 A2997 0 70 -1300 070/15 RMK AO2 RAE0056 P0000 T00331017 TSNO
14756KACK ACK20160320201513003/20/16 20:15:31  5-MIN KACK 210115Z AUTO 07012KT 10SM OVC050 03/M02 A2998 0 70 -1300 080/12 RMK AO2 RAE0056 P0000 T00331017 TSNO
14756KACK ACK20160320202013003/20/16 20:20:31  5-MIN KACK 210120Z AUTO 07014KT 10SM OVC050 03/M02 A2997 0 70 -1300 080/14 RMK AO2 RAE0056 P0000 T00331017 TSNO
14756KACK ACK20160320202513003/20/16 20:25:31  5-MIN KACK 210125Z AUTO 06015KT 10SM OVC050 03/M02 A2997 0 70 -1300 070/15 RMK AO2 RAE0056 P0000 T00331017 TSNO
14756KACK ACK20160320203014403/20/16 20:30:31  5-MIN KACK 210130Z AUTO 05014G23KT 10SM BKN050 OVC055 03/M02 A2997 10 70 -1300 070/14G23 RMK AO2 RAE0056 P0000 T00331017 TSNO
14756KACK ACK20160320203515103/20/16 20:35:31  5-MIN KACK 210135Z AUTO 06014G23KT 10SM FEW039 SCT050 OVC060 03/M02 A2996 10 70 -1300 070/14G23 RMK AO2 RAE0056 P0000 T00331017 TSNO
14756KACK ACK20160320204013803/20/16 20:40:31  5-MIN KACK 210140Z AUTO 06014KT 10SM FEW050 OVC060 03/M02 A2996 10 70 -1300 080/14 RMK AO2 RAE0056 P0000 T00331017 TSNO
14756KACK ACK20160320204514503/20/16 20:45:31  5-MIN KACK 210145Z AUTO 05014KT 10SM FEW049 BKN060 OVC070 03/M01 A2997 10 72 -1300 070/14 RMK AO2 RAE0056 P0000 T00331011 TSNO
14756KACK ACK20160320205015703/20/16 20:50:31  5-MIN KACK 210150Z AUTO 06013G19KT 10SM FEW018 SCT041 OVC055 03/M01 A2998 0 72 -1300 070/13G19 RMK AO2 RAE0056 SLP150 P0000 T00331011 TSNO
14756KACK ACK20160320205513003/20/16 20:55:31  5-MIN KACK 210155Z AUTO 06011KT 10SM FEW018 BKN041 OVC060 03/M01 A2997 0 72 -1300 080/11 RMK AO2 T00331011 TSNO
14756KACK ACK20160320210013003/20/16 21:00:31  5-MIN KACK 210200Z AUTO 06011KT 10SM FEW017 BKN043 OVC055 03/M01 A2997 0 72 -1300 070/11 RMK AO2 T00331011 TSNO
14756KACK ACK20160320210514503/20/16 21:05:31  5-MIN KACK 210205Z AUTO 05011KT 9SM RA SCT017 BKN043 OVC055 03/M01 A2997 10 72 -1300 060/11 RMK AO2 RAB02 P0000 T00331011 TSNO
14756KACK ACK20160320211014603/20/16 21:10:31  5-MIN KACK 210210Z AUTO 04011KT 8SM -RA BKN017 BKN043 OVC055 03/M01 A2997 10 76 -1300 060/11 RMK AO2 RAB02 P0000 T00331006 TSNO
14756KACK ACK20160320211514503/20/16 21:15:31  5-MIN KACK 210215Z AUTO 05012G19KT 9SM -RA BKN017 OVC043 03/M01 A2996 10 79 -1400 060/12G19 RMK AO2 RAB02 P0001 T00281006 TSNO
14756KACK ACK20160320212014003/20/16 21:20:31  5-MIN KACK 210220Z AUTO 05014KT 10SM -RA BKN017 OVC043 03/M01 A2995 20 79 -1400 060/14 RMK AO2 RAB02 P0001 T00281006 TSNO
14756KACK ACK20160320212513803/20/16 21:25:31  5-MIN KACK 210225Z AUTO 04015KT 9SM -RA BKN017 OVC045 03/00 A2995 20 82 -1400 060/15 RMK AO2 RAB02 P0001 T00280000 TSNO
14756KACK ACK20160320213013103/20/16 21:30:31  5-MIN KACK 210230Z AUTO 04014KT 9SM -RA OVC018 03/00 A2995 20 82 -1400 050/14 RMK AO2 RAB02 P0001 T00280000 TSNO
14756KACK ACK20160320213513803/20/16 21:35:31  5-MIN KACK 210235Z AUTO 05013KT 8SM UP OVC016 03/00 A2995 30 82 -1400 060/13 RMK AO2 RAB02E32UPB32 P0001 T00280000 TSNO
14756KACK ACK20160320214013803/20/16 21:40:31  5-MIN KACK 210240Z AUTO 05012KT 6SM UP OVC016 03/00 A2994 30 82 -1400 060/12 RMK AO2 RAB02E32UPB32 P0001 T00280000 TSNO
14756KACK ACK20160320214513803/20/16 21:45:31  5-MIN KACK 210245Z AUTO 04013KT 6SM UP OVC016 03/00 A2994 30 82 -1400 060/13 RMK AO2 RAB02E32UPB32 P0001 T00280000 TSNO
14756KACK ACK20160320215016003/20/16 21:50:31  5-MIN KACK 210250Z AUTO 04013KT 6SM HZ OVC016 03/00 A2994 30 82 -1400 060/13 RMK AO2 RAB02E32UPB32E50 SLP139 P0001 60001 T00280000 56025 TSNO
14756KACK ACK20160320215514003/20/16 21:55:31  5-MIN KACK 210255Z AUTO 05015KT 5SM UP BR BKN016 OVC034 03/01 A2993 40 85 -1300 060/15 RMK AO2 UPB55 P0000 T00280006 TSNO
14756KACK ACK20160320220016903/20/16 22:00:31  5-MIN KACK 210300Z AUTO 05014KT 4SM -RA BR BKN016 BKN036 OVC050 03/01 A2992 50 85 -1300 070/14 RMK AO2 UPB0255E0258RAB0258 PRESFR P0000 T00280006 TSNO
14756KACK ACK20160320220516803/20/16 22:05:31  5-MIN KACK 210305Z AUTO 05014G20KT 4SM -RA BR SCT015 BKN036 OVC050 03/01 A2992 50 85 -1300 060/14G20 RMK AO2 UPB0255E0258RAB0258 P0000 T00280006 TSNO
14756KACK ACK20160320221016503/20/16 22:10:31  5-MIN KACK 210310Z AUTO 05012G20KT 4SM UP BR SCT014 BKN036 OVC048 03/01 A2993 40 85 -1300 060/12G20 RMK AO2 UPB0255RAB0258E10 P0000 T00280006 TSNO
14756KACK ACK20160320221515903/20/16 22:15:31  5-MIN KACK 210315Z AUTO 05013KT 4SM UP BR FEW010 BKN034 OVC046 03/01 A2992 50 85 -1300 070/13 RMK AO2 UPB0255RAB0258E10 P0001 T00280006 TSNO
14756KACK ACK20160320222015903/20/16 22:20:31  5-MIN KACK 210320Z AUTO 05013KT 4SM UP BR FEW008 BKN034 OVC046 03/01 A2992 50 85 -1300 070/13 RMK AO2 UPB0255RAB0258E10 P0001 T00280006 TSNO
14756KACK ACK20160320222515903/20/16 22:25:31  5-MIN KACK 210325Z AUTO 04014KT 4SM UP BR BKN008 BKN035 OVC048 03/01 A2990 70 85 -1300 060/14 RMK AO2 UPB0255RAB0258E10 P0001 T00280006 TSNO
14756KACK ACK20160320223015903/20/16 22:30:31  5-MIN KACK 210330Z AUTO 04016KT 4SM UP BR BKN008 BKN035 OVC046 03/01 A2990 60 85 -1300 050/16 RMK AO2 UPB0255RAB0258E10 P0001 T00280006 TSNO
14756KACK ACK20160320223515903/20/16 22:35:31  5-MIN KACK 210335Z AUTO 04015KT 4SM UP BR BKN008 BKN038 OVC046 03/01 A2991 60 85 -1300 050/15 RMK AO2 UPB0255RAB0258E10 P0001 T00280006 TSNO
14756KACK ACK20160320224015203/20/16 22:40:31  5-MIN KACK 210340Z AUTO 03014KT 4SM UP BR BKN008 OVC035 03/01 A2991 60 89 -1300 050/14 RMK AO2 UPB0255RAB0258E10 P0001 T00280011 TSNO
14756KACK ACK20160320224515203/20/16 22:45:31  5-MIN KACK 210345Z AUTO 03014KT 4SM -RA BR OVC008 03/01 A2991 60 89 -1300 050/14 RMK AO2 UPB0255E45RAB0258E10B45 P0001 T00280011 TSNO
14756KACK ACK20160320225015803/20/16 22:50:31  5-MIN KACK 210350Z AUTO 03014KT 4SM RA BR OVC008 03/01 A2991 60 89 -1300 050/14 RMK AO2 UPB0255E45RAB0258E10B45 SLP127 P0003 T00280011 TSNO
14756KACK ACK20160320225512703/20/16 22:55:31  5-MIN KACK 210355Z AUTO 04014KT 4SM RA BR OVC008 03/01 A2990 70 89 -1300 050/14 RMK AO2 P0000 T00280011 TSNO
14756KACK ACK20160320230012703/20/16 23:00:31  5-MIN KACK 210400Z AUTO 03013KT 4SM RA BR OVC008 03/01 A2989 70 89 -1300 050/13 RMK AO2 P0001 T00280011 TSNO
14756KACK ACK20160320230513503/20/16 23:05:31  5-MIN KACK 210405Z AUTO 03015KT 5SM -RA BR OVC008 03/01 A2989 80 89 -1300 040/15 RMK AO2 PRESFR P0001 T00280011 TSNO
14756KACK ACK20160320231012803/20/16 23:10:31  5-MIN KACK 210410Z AUTO 03015KT 5SM -RA BR OVC008 03/01 A2988 80 89 -1300 040/15 RMK AO2 P0001 T00280011 TSNO
14756KACK ACK20160320231512803/20/16 23:15:31  5-MIN KACK 210415Z AUTO 03016KT 4SM -RA BR OVC008 03/01 A2988 90 89 -1300 040/16 RMK AO2 P0002 T00280011 TSNO
14756KACK ACK20160320232012803/20/16 23:20:31  5-MIN KACK 210420Z AUTO 02015KT 4SM -RA BR OVC008 03/01 A2988 80 89 -1300 040/15 RMK AO2 P0002 T00280011 TSNO
14756KACK ACK20160320232512803/20/16 23:25:31  5-MIN KACK 210425Z AUTO 03017KT 4SM -RA BR OVC008 03/01 A2987 90 89 -1300 040/17 RMK AO2 P0002 T00280011 TSNO
14756KACK ACK20160320233012903/20/16 23:30:31  5-MIN KACK 210430Z AUTO 03015KT 3SM -RA BR OVC008 03/01 A2987 100 89 -1300 040/15 RMK AO2 P0003 T00280011 TSNO
14756KACK ACK20160320233512903/20/16 23:35:31  5-MIN KACK 210435Z AUTO 03015KT 3SM -RA BR OVC008 03/02 A2987 100 92 -1300 040/15 RMK AO2 P0003 T00280017 TSNO
14756KACK ACK20160320234013903/20/16 23:40:31  5-MIN KACK 210440Z AUTO 03016KT 4SM UP BR OVC008 03/02 A2986 100 92 -1300 040/16 RMK AO2 RAE40UPB40 P0003 T00280017 TSNO
14756KACK ACK20160320234513903/20/16 23:45:31  5-MIN KACK 210445Z AUTO 02016KT 5SM UP BR OVC007 03/02 A2986 110 92 -1300 040/16 RMK AO2 RAE40UPB40 P0003 T00280017 TSNO
14756KACK ACK20160320235016803/20/16 23:50:31  5-MIN KACK 210450Z AUTO 02016KT 5SM UP BR OVC007 03/02 A2986 110 89 -1200 030/16 RMK AO2 RAE40UPB40 CIG 005V012 SLP110 P0003 T00330017 400610011 TSNO
14756KACK ACK20160320235514103/20/16 23:55:31  5-MIN KACK 210455Z AUTO 02016KT 4SM -RA BR OVC007 03/02 A2985 110 89 -1200 040/16 RMK AO2 CIG 005V009 P0001 T00330017 TSNO
14756KACK ACK20160321000014403/21/16 00:00:31  5-MIN KACK 210500Z AUTO 02017KT 3SM -SN BR OVC007 03/02 A2984 120 89 -1200 040/17 RMK AO2 RAE0456SNB0456 P0001 T00330017 TSNO
14756KACK ACK20160321000515503/21/16 00:05:31  5-MIN KACK 210505Z AUTO 02019KT 2 1/2SM -SN BR BKN009 OVC017 03/02 A2984 120 89 -1200 040/19 RMK AO2 RAE0456SNB0456 P0001 T00330017 TSNO
14756KACK ACK20160321001016703/21/16 00:10:31  5-MIN KACK 210510Z AUTO 03019KT 2 1/2SM RA BR BKN009 OVC017 03/01 A2983 130 85 -1200 040/19 RMK AO2 RAE0456B09SNB0456E09 PRESFR P0002 T00330011 TSNO
14756KACK ACK20160321001517003/21/16 00:15:31  5-MIN KACK 210515Z AUTO 02019KT 3SM RA BR BKN009 BKN017 OVC044 03/01 A2982 140 89 -1200 040/19 RMK AO2 RAE0456B09SNB0456E09 PRESFR P0003 T00280011 TSNO
14756KACK ACK20160321002019403/21/16 00:20:31  5-MIN KACK 210520Z AUTO 02018G27KT 3SM RA BR BKN009 BKN020 OVC044 03/02 A2982 150 92 -1200 030/18G27 RMK AO2 PK WND 02027/0518 RAE0456B09SNB0456E09 PRESFR P0004 T00280017 TSNO
14756KACK ACK20160321002518703/21/16 00:25:31  5-MIN KACK 210525Z AUTO 02021G27KT 3SM RA BR BKN009 BKN020 OVC042 03/01 A2981 150 89 -1200 030/21G27 RMK AO2 PK WND 02027/0518 RAE0456B09SNB0456E09 P0005 T00280011 TSNO
14756KACK ACK20160321003017403/21/16 00:30:31  5-MIN KACK 210530Z AUTO 02021KT 4SM RA BR BKN009 OVC018 03/02 A2981 150 89 -1100 030/21 RMK AO2 PK WND 02027/0518 RAE0456B09SNB0456E09 P0006 T00330017 TSNO
14756KACK ACK20160321003518003/21/16 00:35:31  5-MIN KACK 210535Z AUTO 02019G27KT 4SM RA BR BKN007 OVC018 03/01 A2981 150 85 -1100 030/19G27 RMK AO2 PK WND 02027/0532 RAE0456B09SNB0456E09 P0006 T00330011 TSNO
14756KACK ACK20160321004018103/21/16 00:40:31  5-MIN KACK 210540Z AUTO 01019G27KT 5SM -RA BR BKN007 OVC021 03/01 A2981 150 85 -1100 030/19G27 RMK AO2 PK WND 02027/0532 RAE0456B09SNB0456E09 P0006 T00330011 TSNO
14756KACK ACK20160321004516803/21/16 00:45:31  5-MIN KACK 210545Z AUTO 01017KT 6SM -RA BR OVC007 03/02 A2980 160 89 -1100 030/17 RMK AO2 PK WND 02027/0532 RAE0456B09SNB0456E09 P0007 T00330017 TSNO
14756KACK ACK20160321005020903/21/16 00:50:31  5-MIN KACK 210550Z AUTO 02021G27KT 7SM -RA BKN007 OVC011 03/02 A2980 160 89 -1100 030/21G27 RMK AO2 PK WND 02027/0532 RAE0456B09SNB0456E09 SLP091 P0007 60015 T00330017 10033 20028 58023 TSNO
14756KACK ACK20160321005516003/21/16 00:55:31  5-MIN KACK 210555Z AUTO 02023G28KT 6SM -RA BR BKN007 OVC013 03/01 A2980 170 85 -1100 030/23G28 RMK AO2 PK WND 02028/0554 P0000 T00330011 TSNO
14756KACK ACK20160321010017503/21/16 01:00:31  5-MIN KACK 210600Z AUTO 02020G28KT 4SM -SN BR BKN007 OVC013 03/01 A2979 170 85 -1100 040/20G28 RMK AO2 PK WND 02028/0554 RAE0557SNB0557 P0000 T00330011 TSNO
14756KACK ACK20160321010517903/21/16 01:05:31  5-MIN KACK 210605Z AUTO 02021G29KT 2 1/2SM -SN BR BKN007 OVC013 03/01 A2979 170 85 -1100 030/21G29 RMK AO2 PK WND 01029/0603 RAE0557SNB0557 P0000 T00330011 TSNO
14756KACK ACK20160321011017203/21/16 01:10:31  5-MIN KACK 210610Z AUTO 02018G29KT 2 1/2SM -SN BR OVC009 03/01 A2978 180 89 -1200 030/18G29 RMK AO2 PK WND 01029/0603 RAE0557SNB0557 P0000 T00280011 TSNO
14756KACK ACK20160321011517203/21/16 01:15:31  5-MIN KACK 210615Z AUTO 02021G27KT 2 1/2SM -SN BR OVC009 03/01 A2978 180 85 -1100 030/21G27 RMK AO2 PK WND 01029/0603 RAE0557SNB0557 P0001 T00330011 TSNO
14756KACK ACK20160321012017203/21/16 01:20:31  5-MIN KACK 210620Z AUTO 02021G26KT 2 1/2SM -SN BR OVC008 03/01 A2978 180 85 -1100 030/21G26 RMK AO2 PK WND 01029/0603 RAE0557SNB0557 P0001 T00330011 TSNO
14756KACK ACK20160321012516603/21/16 01:25:31  5-MIN KACK 210625Z AUTO 02020KT 2 1/2SM -SN BR OVC008 03/01 A2978 180 89 -1200 030/20 RMK AO2 PK WND 01029/0603 RAE0557SNB0557 P0001 T00280011 TSNO
14756KACK ACK20160321013017303/21/16 01:30:31  5-MIN KACK 210630Z AUTO 02019KT 2 1/2SM -SN BR BKN008 OVC014 03/01 A2977 190 89 -1200 030/19 RMK AO2 PK WND 01029/0603 RAE0557SNB0557 P0002 T00280011 TSNO
14756KACK ACK20160321013516803/21/16 01:35:31  5-MIN KACK 210635Z AUTO 02021G26KT 2SM -SN BR OVC008 03/01 A2977 190 89 -1200 040/21G26 RMK AO2 PK WND 01029/0603 RAE0557SNB0557 P0002 T00280011 TSNO
14756KACK ACK20160321014018603/21/16 01:40:31  5-MIN KACK 210640Z AUTO 02021G26KT 1 3/4SM -SN BR BKN006 OVC011 03/01 A2975 200 89 -1100 040/21G26 RMK AO2 PK WND 01029/0603 RAE0557SNB0557 PRESFR P0004 T00280011 TSNO
14756KACK ACK20160321014518003/21/16 01:45:31  5-MIN KACK 210645Z AUTO 03022KT 1 1/2SM -SN BR BKN006 OVC011 03/01 A2975 210 89 -1100 040/22 RMK AO2 PK WND 01029/0603 RAE0557SNB0557 PRESFR P0005 T00280011 TSNO
14756KACK ACK20160321015019303/21/16 01:50:31  5-MIN KACK 210650Z AUTO 03023G28KT 1 3/4SM -SN BR BKN006 OVC011 03/01 A2974 220 89 -1100 040/23G28 RMK AO2 PK WND 01029/0603 RAE0557SNB0557 PRESFR SLP071 P0005 T00280011 TSNO
14756KACK ACK20160321015516003/21/16 01:55:31  5-MIN KACK 210655Z AUTO 03021G28KT 2SM -SN BR BKN006 OVC011 03/01 A2974 220 89 -1100 050/21G28 RMK AO2 PK WND 03026/0655 P0000 T00280011 TSNO
14756KACK ACK20160321020016703/21/16 02:00:31  5-MIN KACK 210700Z AUTO 02022G28KT 2SM -SN BR BKN006 BKN011 OVC038 03/01 A2974 220 89 -1100 030/22G28 RMK AO2 PK WND 01028/0659 P0000 T00280011 TSNO
14756KACK ACK20160321020516403/21/16 02:05:31  5-MIN KACK 210705Z AUTO 03017G28KT 2 1/2SM -SN BR BKN006 OVC011 03/01 A2973 220 89 -1100 050/17G28 RMK AO2 PK WND 01028/0659 P0000 T00280011 TSNO
14756KACK ACK20160321021016003/21/16 02:10:31  5-MIN KACK 210710Z AUTO 03024G29KT 3SM -SN BR BKN005 OVC010 03/01 A2972 230 89 -1100 040/24G29 RMK AO2 PK WND 03029/0709 P0001 T00280011 TSNO
14756KACK ACK20160321021518403/21/16 02:15:31  5-MIN KACK 210715Z AUTO 03022G29KT 4SM UP BR SCT005 BKN010 OVC015 03/01 A2972 240 89 -1100 050/22G29 RMK AO2 PK WND 03029/0709 UPB11SNE11 PRESFR P0001 T00280011 TSNO
14756KACK ACK20160321022017703/21/16 02:20:31  5-MIN KACK 210720Z AUTO 03020G31KT 4SM UP BR SCT006 BKN010 OVC017 03/01 A2972 230 89 -1100 040/20G31 RMK AO2 PK WND 03031/0718 UPB11SNE11 P0001 T00280011 TSNO
14756KACK ACK20160321022517703/21/16 02:25:31  5-MIN KACK 210725Z AUTO 02019G31KT 4SM UP BR SCT006 BKN012 OVC017 03/01 A2973 230 89 -1100 040/19G31 RMK AO2 PK WND 03031/0718 UPB11SNE11 P0001 T00280011 TSNO
14756KACK ACK20160321023017703/21/16 02:30:31  5-MIN KACK 210730Z AUTO 02021G25KT 4SM UP BR BKN006 BKN012 OVC019 03/01 A2973 230 89 -1100 040/21G25 RMK AO2 PK WND 03031/0718 UPB11SNE11 P0001 T00280011 TSNO
14756KACK ACK20160321023517703/21/16 02:35:31  5-MIN KACK 210735Z AUTO 03019G27KT 4SM UP BR BKN007 BKN014 OVC019 03/01 A2972 230 89 -1100 040/19G27 RMK AO2 PK WND 03031/0718 UPB11SNE11 P0001 T00280011 TSNO
14756KACK ACK20160321024018603/21/16 02:40:31  5-MIN KACK 210740Z AUTO 03023G31KT 4SM -RA BR BKN007 BKN012 OVC019 03/01 A2972 240 89 -1100 040/23G31 RMK AO2 PK WND 02031/0737 UPB11E37RAB37SNE11 P0002 T00280011 TSNO
14756KACK ACK20160321024518603/21/16 02:45:31  5-MIN KACK 210745Z AUTO 03019G31KT 4SM -RA BR BKN009 BKN013 OVC019 03/01 A2972 240 89 -1100 050/19G31 RMK AO2 PK WND 02031/0737 UPB11E37RAB37SNE11 P0002 T00280011 TSNO
14756KACK ACK20160321025019203/21/16 02:50:31  5-MIN KACK 210750Z AUTO 03022G31KT 4SM UP BR BKN007 BKN012 OVC017 03/01 A2972 240 89 -1100 040/22G31 RMK AO2 PK WND 02031/0737 UPB11RAB37E46SNE11 SLP063 P0002 T00280011 TSNO
14756KACK ACK20160321025514203/21/16 02:55:31  5-MIN KACK 210755Z AUTO 03022G31KT 3SM -SN BR BKN007 OVC015 03/01 A2972 230 89 -1100 040/22G31 RMK AO2 P0000 T00280011 TSNO
14756KACK ACK20160321030016403/21/16 03:00:31  5-MIN KACK 210800Z AUTO 02019G27KT 2 1/2SM -SN BR BKN007 OVC015 03/01 A2972 230 89 -1100 040/19G27 RMK AO2 PK WND 03027/0756 P0000 T00280011 TSNO
14756KACK ACK20160321030516403/21/16 03:05:31  5-MIN KACK 210805Z AUTO 02018G27KT 2 1/2SM -SN BR BKN007 OVC015 03/01 A2972 230 89 -1100 040/18G27 RMK AO2 PK WND 03027/0756 P0001 T00280011 TSNO
14756KACK ACK20160321031016003/21/16 03:10:31  5-MIN KACK 210810Z AUTO 02019G26KT 2SM -SN BR BKN007 OVC015 03/01 A2972 230 89 -1100 040/19G26 RMK AO2 PK WND 03027/0756 P0001 T00280011 TSNO
14756KACK ACK20160321031516003/21/16 03:15:31  5-MIN KACK 210815Z AUTO 02022G28KT 2SM -SN BR BKN007 OVC015 03/01 A2972 230 89 -1100 040/22G28 RMK AO2 PK WND 03028/0814 P0002 T00280011 TSNO
14756KACK ACK20160321032016403/21/16 03:20:31  5-MIN KACK 210820Z AUTO 02019G28KT 2 1/2SM -SN BR BKN007 OVC015 03/01 A2972 230 89 -1100 040/19G28 RMK AO2 PK WND 03028/0814 P0002 T00280011 TSNO
14756KACK ACK20160321032516403/21/16 03:25:31  5-MIN KACK 210825Z AUTO 03020G25KT 2 1/2SM -SN BR BKN007 OVC015 03/01 A2972 230 89 -1100 040/20G25 RMK AO2 PK WND 03028/0814 P0003 T00280011 TSNO
14756KACK ACK20160321033016003/21/16 03:30:31  5-MIN KACK 210830Z AUTO 02018G25KT 2SM -SN BR BKN007 OVC015 03/02 A2972 230 92 -1100 040/18G25 RMK AO2 PK WND 03028/0814 P0003 T00280017 TSNO
14756KACK ACK20160321033517103/21/16 03:35:31  5-MIN KACK 210835Z AUTO 03022G26KT 2 1/2SM -SN BR BKN007 BKN013 OVC019 03/01 A2971 240 89 -1100 040/22G26 RMK AO2 PK WND 03028/0814 P0003 T00280011 TSNO
14756KACK ACK20160321034017103/21/16 03:40:31  5-MIN KACK 210840Z AUTO 02022G27KT 2 1/2SM -SN BR BKN007 BKN011 OVC017 03/01 A2971 250 89 -1100 040/22G27 RMK AO2 PK WND 03028/0814 P0004 T00280011 TSNO
14756KACK ACK20160321034516703/21/16 03:45:31  5-MIN KACK 210845Z AUTO 02019G27KT 2SM -SN BR BKN007 BKN012 OVC017 03/01 A2971 240 89 -1100 030/19G27 RMK AO2 PK WND 03028/0814 P0004 T00280011 TSNO
14756KACK ACK20160321035017903/21/16 03:50:31  5-MIN KACK 210850Z AUTO 03022G28KT 2SM -SN BR BKN007 OVC015 03/01 A2971 250 89 -1100 040/22G28 RMK AO2 PK WND 02028/0850 SLP059 P0005 60013 T00280011 58047 TSNO
14756KACK ACK20160321035516003/21/16 03:55:31  5-MIN KACK 210855Z AUTO 01021G30KT 2SM -SN BR BKN007 OVC015 03/01 A2972 230 89 -1100 030/21G30 RMK AO2 PK WND 01026/0855 P0000 T00280011 TSNO
14756KACK ACK20160321040016703/21/16 04:00:31  5-MIN KACK 210900Z AUTO 02021G30KT 2SM -SN BR BKN007 BKN012 OVC017 03/01 A2972 230 89 -1100 030/21G30 RMK AO2 PK WND 01028/0857 P0000 T00280011 TSNO
14756KACK ACK20160321040516403/21/16 04:05:31  5-MIN KACK 210905Z AUTO 02019G28KT 2 1/2SM -SN BR BKN007 OVC015 03/01 A2973 230 89 -1100 040/19G28 RMK AO2 PK WND 01028/0857 P0000 T00280011 TSNO
14756KACK ACK20160321041016403/21/16 04:10:31  5-MIN KACK 210910Z AUTO 01018G25KT 2 1/2SM -SN BR BKN007 OVC015 03/01 A2973 230 89 -1100 020/18G25 RMK AO2 PK WND 01028/0857 P0000 T00280011 TSNO
14756KACK ACK20160321041516003/21/16 04:15:31  5-MIN KACK 210915Z AUTO 01016G25KT 3SM -SN BR BKN007 OVC015 03/01 A2972 230 89 -1100 030/16G25 RMK AO2 PK WND 01028/0857 P0001 T00280011 TSNO
14756KACK ACK20160321042017103/21/16 04:20:31  5-MIN KACK 210920Z AUTO 01021G29KT 2 1/2SM -SN BR BKN007 BKN013 OVC019 02/01 A2971 240 89 -1200 030/21G29 RMK AO2 PK WND 01029/0920 P0001 T00220006 TSNO
14756KACK ACK20160321042517103/21/16 04:25:31  5-MIN KACK 210925Z AUTO 01018G29KT 2 1/2SM -SN BR SCT007 BKN013 OVC019 02/01 A2971 240 89 -1200 020/18G29 RMK AO2 PK WND 01029/0921 P0002 T00220006 TSNO
14756KACK ACK20160321043016703/21/16 04:30:31  5-MIN KACK 210930Z AUTO 01019G29KT 3SM -SN BR SCT007 BKN014 OVC024 02/01 A2972 240 89 -1200 020/19G29 RMK AO2 PK WND 01029/0921 P0002 T00220006 TSNO
14756KACK ACK20160321043516703/21/16 04:35:31  5-MIN KACK 210935Z AUTO 36019G25KT 3SM -SN BR BKN007 BKN014 OVC024 02/01 A2973 230 89 -1200 020/19G25 RMK AO2 PK WND 01029/0921 P0002 T00220006 TSNO
14756KACK ACK20160321044016703/21/16 04:40:31  5-MIN KACK 210940Z AUTO 01021G26KT 4SM -SN BR BKN007 BKN019 OVC028 02/01 A2972 240 89 -1200 020/21G26 RMK AO2 PK WND 01029/0921 P0002 T00220006 TSNO
14756KACK ACK20160321044516003/21/16 04:45:31  5-MIN KACK 210945Z AUTO 01021G28KT 4SM -SN BR BKN007 OVC021 02/01 A2971 240 89 -1200 020/21G28 RMK AO2 PK WND 01029/0921 P0002 T00220006 TSNO
14756KACK ACK20160321045016403/21/16 04:50:31  5-MIN KACK 210950Z 36019G29KT 4SM -SN BR BKN008 BKN017 OVC022 02/01 A2972 240 89 -1200 010/19G29 RMK AO2 PK WND 36029/0947 SLP063 P0002 T00220006
14756KACK ACK20160321045513903/21/16 04:55:31  5-MIN KACK 210955Z 36020G29KT 4SM -SN BR BKN008 BKN013 OVC020 02/01 A2973 230 89 -1200 010/20G29 RMK AO2 P0000 T00220006
14756KACK ACK20160321050018403/21/16 05:00:31  5-MIN KACK 211000Z 36023G29KT 4SM -RA BR BKN008 BKN013 OVC020 02/01 A2972 230 89 -1200 020/23G29 RMK AO2 PK WND 35029/0959 UPB0956E0958RAB0959SNE0956 P0000 T00220006
14756KACK ACK20160321050517703/21/16 05:05:31  5-MIN KACK 211005Z 36022G29KT 3SM -RA BR BKN008 OVC013 02/01 A2971 250 89 -1200 010/22G29 RMK AO2 PK WND 35029/0959 UPB0956E0958RAB0959SNE0956 P0000 T00220006
14756KACK ACK20160321051017703/21/16 05:10:31  5-MIN KACK 211010Z 36019G30KT 3SM -RA BR BKN008 OVC013 02/00 A2972 240 89 -1200 010/19G30 RMK AO2 PK WND 36030/1006 UPB0956E0958RAB0959SNE0956 P0000 T00170000
14756KACK ACK20160321051517703/21/16 05:15:31  5-MIN KACK 211015Z 35022G30KT 3SM -RA BR BKN008 OVC013 02/00 A2971 240 89 -1200 010/22G30 RMK AO2 PK WND 36030/1006 UPB0956E0958RAB0959SNE0956 P0001 T00170000
14756KACK ACK20160321052017703/21/16 05:20:31  5-MIN KACK 211020Z 36022G29KT 3SM -RA BR BKN007 OVC012 02/00 A2971 250 89 -1200 020/22G29 RMK AO2 PK WND 36030/1006 UPB0956E0958RAB0959SNE0956 P0001 T00170000
14756KACK ACK20160321052517703/21/16 05:25:31  5-MIN KACK 211025Z 36018G27KT 4SM -RA BR BKN007 OVC014 02/00 A2971 250 89 -1200 020/18G27 RMK AO2 PK WND 36030/1006 UPB0956E0958RAB0959SNE0956 P0001 T00170000
14756KACK ACK20160321053018403/21/16 05:30:31  5-MIN KACK 211030Z 36018G27KT 5SM -RA BR BKN007 BKN012 OVC023 02/00 A2972 240 89 -1200 010/18G27 RMK AO2 PK WND 36030/1006 UPB0956E0958RAB0959SNE0956 P0002 T00170000
14756KACK ACK20160321053518403/21/16 05:35:31  5-MIN KACK 211035Z 36020G27KT 6SM -RA BR BKN007 BKN012 OVC025 02/00 A2972 230 89 -1200 020/20G27 RMK AO2 PK WND 36030/1006 UPB0956E0958RAB0959SNE0956 P0002 T00170000
14756KACK ACK20160321054018403/21/16 05:40:31  5-MIN KACK 211040Z 36018G26KT 6SM -RA BR BKN008 BKN012 OVC023 02/00 A2972 240 89 -1200 010/18G26 RMK AO2 PK WND 36030/1006 UPB0956E0958RAB0959SNE0956 P0002 T00170000
14756KACK ACK20160321054518403/21/16 05:45:31  5-MIN KACK 211045Z 36021G28KT 5SM -RA BR BKN008 BKN012 OVC026 02/00 A2972 240 89 -1200 020/21G28 RMK AO2 PK WND 36030/1006 UPB0956E0958RAB0959SNE0956 P0003 T00170000
14756KACK ACK20160321055018403/21/16 05:50:31  5-MIN KACK 211050Z 01021G28KT 6SM -RA BR BKN008 OVC035 02/00 A2972 240 89 -1200 020/21G28 RMK AO2 PK WND 36030/1006 UPB0956E0958RAB0959SNE0956 SLP063 P0003 T00170000
14756KACK ACK20160321055515403/21/16 05:55:31  5-MIN KACK 211055Z 36022G27KT 8SM -RA BKN008 BKN021 OVC039 02/00 A2972 240 89 -1200 020/22G27 RMK AO2 PK WND 01026/1054 P0000 T00170000
14756KACK ACK20160321060016803/21/16 06:00:31  5-MIN KACK 211100Z 36016G26KT 8SM UP BKN009 BKN013 OVC041 02/00 A2972 230 89 -1200 010/16G26 RMK AO2 PK WND 01026/1054 RAE1057UPB1057 P0001 T00170000
14756KACK ACK20160321060516803/21/16 06:05:31  5-MIN KACK 211105Z 36018G23KT 8SM UP BKN009 BKN034 OVC041 02/00 A2972 230 89 -1200 010/18G23 RMK AO2 PK WND 01026/1054 RAE1057UPB1057 P0001 T00170000
14756KACK ACK20160321061016503/21/16 06:10:31  5-MIN KACK 211110Z 36018G24KT 7SM -RA BKN008 BKN013 OVC037 02/00 A2972 240 89 -1200 020/18G24 RMK AO2 PK WND 01026/1054 UPB1057E09 P0001 T00170000
14756KACK ACK20160321061515903/21/16 06:15:31  5-MIN KACK 211115Z 36019KT 7SM -RA BKN008 BKN013 OVC037 02/00 A2971 240 89 -1200 020/19 RMK AO2 PK WND 01026/1054 UPB1057E09 P0001 T00170000
14756KACK ACK20160321062015903/21/16 06:20:31  5-MIN KACK 211120Z 36019KT 8SM -RA BKN008 BKN013 OVC037 02/00 A2971 250 89 -1200 020/19 RMK AO2 PK WND 36027/1118 UPB1057E09 P0001 T00170000
14756KACK ACK20160321062516503/21/16 06:25:31  5-MIN KACK 211125Z 36020G27KT 9SM -RA BKN008 BKN013 OVC037 02/00 A2971 250 89 -1200 010/20G27 RMK AO2 PK WND 36027/1118 UPB1057E09 P0001 T00170000
14756KACK ACK20160321063016003/21/16 06:30:31  5-MIN KACK 211130Z 36019KT 10SM -RA BKN008 BKN013 OVC037 02/00 A2970 250 89 -1200 020/19 RMK AO2 PK WND 36027/1118 UPB1057E09 P0001 T00170000
14756KACK ACK20160321063516603/21/16 06:35:31  5-MIN KACK 211135Z 36020G26KT 10SM -RA BKN008 BKN013 OVC037 02/00 A2970 260 89 -1200 020/20G26 RMK AO2 PK WND 36027/1118 UPB1057E09 P0001 T00170000
14756KACK ACK20160321064016603/21/16 06:40:31  5-MIN KACK 211140Z 01021G28KT 10SM -RA BKN008 BKN013 OVC037 02/00 A2969 260 89 -1200 020/21G28 RMK AO2 PK WND 36028/1137 UPB1057E09 P0001 T00170000
14756KACK ACK20160321064516603/21/16 06:45:31  5-MIN KACK 211145Z 36019G28KT 10SM -RA BKN008 BKN013 OVC037 02/00 A2968 270 85 -1100 020/19G28 RMK AO2 PK WND 36028/1137 UPB1057E09 P0001 T00220000
14756KACK ACK20160321065015703/21/16 06:50:31  5-MIN KACK 211150Z 01020G28KT 10SM SCT010 BKN015 OVC040 02/00 A2969 260 85 -1100 020/20G28 RMK AO2 PK WND 36028/1137 RAE47UPB1057E09 P0001
14756KACK ACK20160321065512603/21/16 06:55:31  5-MIN KACK 211155Z 01021G27KT 9SM SCT010 BKN028 OVC042 02/00 A2969 260 85 -1100 020/21G27 RMK AO2 T00220000
14756KACK ACK20160321070012703/21/16 07:00:31  5-MIN KACK 211200Z 01019G26KT 10SM SCT010 BKN033 OVC042 02/00 A2969 260 85 -1100 020/19G26 RMK AO2 T00220000
14756KACK ACK20160321070514503/21/16 07:05:31  5-MIN KACK 211205Z 01022G30KT 10SM SCT010 BKN015 OVC042 02/00 A2968 270 85 -1100 020/22G30 RMK AO2 PK WND 01030/1205 T00220000
14756KACK ACK20160321071014503/21/16 07:10:31  5-MIN KACK 211210Z 01019G30KT 10SM SCT010 BKN015 OVC042 02/00 A2969 260 85 -1100 020/19G30 RMK AO2 PK WND 01030/1205 T00220000
14756KACK ACK20160321071514503/21/16 07:15:31  5-MIN KACK 211215Z 36022G27KT 10SM SCT010 BKN015 OVC042 02/01 A2969 260 89 -1100 020/22G27 RMK AO2 PK WND 01030/1205 T00220006
14756KACK ACK20160321072014503/21/16 07:20:31  5-MIN KACK 211220Z 01021G27KT 10SM SCT010 BKN015 OVC042 02/00 A2968 270 85 -1100 020/21G27 RMK AO2 PK WND 01030/1205 T00220000
14756KACK ACK20160321072514503/21/16 07:25:31  5-MIN KACK 211225Z 36020G27KT 10SM SCT010 BKN015 OVC042 02/01 A2968 270 89 -1100 020/20G27 RMK AO2 PK WND 01030/1205 T00220006
14756KACK ACK20160321073014503/21/16 07:30:31  5-MIN KACK 211230Z 01018G28KT 10SM SCT010 BKN015 OVC042 02/00 A2968 270 85 -1100 020/18G28 RMK AO2 PK WND 01030/1205 T00220000
14756KACK ACK20160321073514503/21/16 07:35:31  5-MIN KACK 211235Z 01019G28KT 10SM SCT010 BKN015 OVC042 02/01 A2968 270 89 -1100 020/19G28 RMK AO2 PK WND 01030/1205 T00220006
14756KACK ACK20160321074013903/21/16 07:40:31  5-MIN KACK 211240Z 36018KT 10SM SCT010 BKN015 OVC042 02/01 A2968 270 89 -1100 020/18 RMK AO2 PK WND 01030/1205 T00220006
14756KACK ACK20160321074514503/21/16 07:45:31  5-MIN KACK 211245Z 01016G23KT 10SM SCT010 BKN015 OVC042 02/01 A2968 280 89 -1100 020/16G23 RMK AO2 PK WND 01030/1205 T00220006
14756KACK ACK20160321075012803/21/16 07:50:31  5-MIN KACK 211250Z 01017KT 9SM BKN010 BKN013 OVC044 02/01 A2967 280 89 -1100 030/17 RMK AO2 PK WND 01030/1205
14756KACK ACK20160321075511303/21/16 07:55:31  5-MIN KACK 211255Z 01016KT 7SM BKN010 OVC045 02/01 A2968 270 89 -1100 020/16 RMK AO2 T00220006
14756KACK ACK20160321080013703/21/16 08:00:31  5-MIN KACK 211300Z 01015G22KT 7SM -SN BKN008 OVC015 02/01 A2967 280 89 -1100 030/15G22 RMK AO2 SNB1259 P0000 T00220006
14756KACK ACK20160321080514703/21/16 08:05:31  5-MIN KACK 211305Z 02018G23KT 6SM -SN BR BKN008 BKN015 OVC049 03/01 A2967 280 85 -1000 030/18G23 RMK AO2 SNB1259 P0000 T00280006
14756KACK ACK20160321081014103/21/16 08:10:31  5-MIN KACK 211310Z 02018KT 6SM UP BR BKN008 OVC046 03/01 A2967 280 85 -1000 030/18 RMK AO2 UPB09SNB1259E09 P0000 T00280006
14756KACK ACK20160321081513803/21/16 08:15:31  5-MIN KACK 211315Z 01017KT 7SM UP BKN008 OVC046 03/01 A2967 280 85 -1000 020/17 RMK AO2 UPB09SNB1259E09 P0000 T00280006
14756KACK ACK20160321082013803/21/16 08:20:31  5-MIN KACK 211320Z 01016KT 7SM UP BKN009 OVC016 03/01 A2967 280 89 -1000 030/16 RMK AO2 UPB09SNB1259E09 P0000 T00280011
14756KACK ACK20160321082516203/21/16 08:25:31  5-MIN KACK 211325Z 01019G27KT 7SM BKN009 OVC016 03/01 A2967 280 89 -1100 030/19G27 RMK AO2 PK WND 01027/1323 UPB09E25SNB1259E09 P0000 T00280011
14756KACK ACK20160321083016203/21/16 08:30:31  5-MIN KACK 211330Z 01015G27KT 7SM SCT009 OVC014 03/01 A2968 270 89 -1100 020/15G27 RMK AO2 PK WND 01027/1323 UPB09E25SNB1259E09 P0000 T00280011
14756KACK ACK20160321083515903/21/16 08:35:31  5-MIN KACK 211335Z 01017KT 6SM UP BR BKN008 OVC046 03/01 A2968 270 89 -1100 020/17 RMK AO2 PK WND 01027/1323 UPB09SNB1259E09 P0000 T00280011
14756KACK ACK20160321084015903/21/16 08:40:31  5-MIN KACK 211340Z 01017KT 5SM UP BR BKN008 OVC046 03/01 A2967 280 85 -1000 020/17 RMK AO2 PK WND 01027/1323 UPB09SNB1259E09 P0000 T00280006
14756KACK ACK20160321084515903/21/16 08:45:31  5-MIN KACK 211345Z 36017KT 6SM UP BR BKN008 OVC046 03/01 A2967 280 85 -1000 020/17 RMK AO2 PK WND 01027/1323 UPB09SNB1259E09 P0000 T00280006
14756KACK ACK20160321085013903/21/16 08:50:31  5-MIN KACK 211350Z 01016KT 9SM OVC011 03/01 A2967 280 85 -1100 020/16 RMK AO2 PK WND 01027/1323 UPB09E49SNB1259E09 P0000
14756KACK ACK20160321085511803/21/16 08:55:31  5-MIN KACK 211355Z 01013KT 8SM OVC011 03/01 A2967 280 85 -1100 020/13 RMK AO2 CIG 007V013 T00280006
14756KACK ACK20160321090011603/21/16 09:00:31  5-MIN KACK 211400Z 36016KT 6SM BR BKN011 OVC016 03/01 A2967 280 85 -1000 020/16 RMK AO2 T00280006
14756KACK ACK20160321090511603/21/16 09:05:31  5-MIN KACK 211405Z 36013KT 5SM BR BKN011 OVC016 03/01 A2967 280 89 -1000 020/13 RMK AO2 T00280011
14756KACK ACK20160321091011303/21/16 09:10:31  5-MIN KACK 211410Z 36015KT 7SM BKN011 OVC016 03/01 A2967 280 89 -1000 020/15 RMK AO2 T00280011
14756KACK ACK20160321091511303/21/16 09:15:31  5-MIN KACK 211415Z 36016KT 8SM BKN008 OVC014 03/01 A2967 280 89 -1000 010/16 RMK AO2 T00280011
14756KACK ACK20160321092011603/21/16 09:20:31  5-MIN KACK 211420Z 36014KT 6SM BR BKN008 OVC014 03/01 A2967 280 85 -1000 010/14 RMK AO2 T00280006
14756KACK ACK20160321092511903/21/16 09:25:31  5-MIN KACK 211425Z 36017G22KT 7SM BKN008 OVC014 03/01 A2967 280 89 -1000 020/17G22 RMK AO2 T00280011
14756KACK ACK20160321093012003/21/16 09:30:31  5-MIN KACK 211430Z 36014G22KT 10SM BKN008 OVC014 03/01 A2967 280 85 -1000 010/14G22 RMK AO2 T00330011
14756KACK ACK20160321093512003/21/16 09:35:31  5-MIN KACK 211435Z 35018G22KT 10SM BKN008 OVC014 03/01 A2968 280 85 -1000 010/18G22 RMK AO2 T00330011
14756KACK ACK20160321094012003/21/16 09:40:31  5-MIN KACK 211440Z 35015G22KT 10SM BKN008 OVC014 03/01 A2968 280 85 -1100 360/15G22 RMK AO2 T00280006
14756KACK ACK20160321094512003/21/16 09:45:31  5-MIN KACK 211445Z 35017G23KT 10SM BKN008 OVC014 03/01 A2968 280 85 -1100 010/17G23 RMK AO2 T00280006
14756KACK ACK20160321095013903/21/16 09:50:31  5-MIN KACK 211450Z 35015G23KT 10SM BKN008 OVC014 03/01 A2968 270 85 -1100 010/15G23 RMK AO2 SLP050 60000 T00280006 58008
14756KACK ACK20160321095511403/21/16 09:55:31  5-MIN KACK 211455Z 35016KT 10SM FEW010 OVC016 03/01 A2968 270 85 -1100 360/16 RMK AO2 T00280006
14756KACK ACK20160321100012003/21/16 10:00:31  5-MIN KACK 211500Z 35016G21KT 10SM BKN008 OVC030 03/01 A2968 270 85 -1100 360/16G21 RMK AO2 T00280006
14756KACK ACK20160321100512003/21/16 10:05:31  5-MIN KACK 211505Z 34015G23KT 10SM BKN013 OVC020 03/00 A2968 270 82 -1100 360/15G23 RMK AO2 T00280000
14756KACK ACK20160321101012003/21/16 10:10:31  5-MIN KACK 211510Z 35014G23KT 10SM BKN013 OVC020 03/01 A2968 270 85 -1100 360/14G23 RMK AO2 T00280006
14756KACK ACK20160321101512903/21/16 10:15:31  5-MIN KACK 211515Z 34015KT 9SM -SN BKN013 OVC020 03/01 A2968 270 85 -1100 360/15 RMK AO2 SNB13 P0000 T00280006
14756KACK ACK20160321102013203/21/16 10:20:31  5-MIN KACK 211520Z 34015KT 5SM -SN BR BKN013 OVC020 03/01 A2968 270 85 -1100 350/15 RMK AO2 SNB13 P0000 T00280006
14756KACK ACK20160321102513203/21/16 10:25:31  5-MIN KACK 211525Z 35014KT 4SM -SN BR BKN013 OVC020 03/01 A2967 280 85 -1000 360/14 RMK AO2 SNB13 P0000 T00280006
14756KACK ACK20160321103013203/21/16 10:30:31  5-MIN KACK 211530Z 35016KT 4SM -SN BR BKN013 OVC020 03/01 A2967 280 85 -1000 360/16 RMK AO2 SNB13 P0000 T00280006
14756KACK ACK20160321103513203/21/16 10:35:31  5-MIN KACK 211535Z 35015KT 4SM -SN BR BKN013 OVC020 03/01 A2968 280 85 -1100 360/15 RMK AO2 SNB13 P0001 T00280006
14756KACK ACK20160321104013203/21/16 10:40:31  5-MIN KACK 211540Z 34017KT 5SM -SN BR BKN013 OVC020 03/01 A2967 280 89 -1100 360/17 RMK AO2 SNB13 P0001 T00280011
14756KACK ACK20160321104512903/21/16 10:45:31  5-MIN KACK 211545Z 35015KT 8SM -SN BKN013 OVC020 03/01 A2968 280 82 -1000 360/15 RMK AO2 SNB13 P0001 T00330006
14756KACK ACK20160321105013603/21/16 10:50:31  5-MIN KACK 211550Z 34018KT 8SM -SN BKN013 OVC020 03/01 A2968 280 82 -1000 360/18 RMK AO2 SNB13 SLP049 P0001 T00330006
14756KACK ACK20160321105513003/21/16 10:55:31  5-MIN KACK 211555Z 33017KT 7SM -SN SCT010 BKN024 OVC033 03/01 A2968 280 82 -1000 340/17 RMK AO2 P0000 T00330006
14756KACK ACK20160321110013003/21/16 11:00:31  5-MIN KACK 211600Z 33018KT 7SM -SN FEW010 BKN024 OVC035 03/01 A2967 280 82 -1000 340/18 RMK AO2 P0000 T00330006
14756KACK ACK20160321110513303/21/16 11:05:31  5-MIN KACK 211605Z 33015KT 6SM -SN BR SCT013 BKN029 OVC035 03/01 A2967 280 85 -1100 350/15 RMK AO2 P0000 T00280006
14756KACK ACK20160321111013303/21/16 11:10:31  5-MIN KACK 211610Z 34015KT 4SM -SN BR SCT010 BKN024 OVC035 03/01 A2967 280 85 -1100 360/15 RMK AO2 P0000 T00280006
14756KACK ACK20160321111513303/21/16 11:15:31  5-MIN KACK 211615Z 34018KT 4SM -SN BR SCT010 BKN024 OVC035 03/01 A2968 280 85 -1100 350/18 RMK AO2 P0000 T00280006
14756KACK ACK20160321112013903/21/16 11:20:31  5-MIN KACK 211620Z 33017G22KT 6SM -SN BR SCT010 BKN024 OVC035 03/01 A2968 280 85 -1000 350/17G22 RMK AO2 P0000 T00330011
14756KACK ACK20160321112513603/21/16 11:25:31  5-MIN KACK 211625Z 33015G23KT 9SM -SN SCT010 BKN024 OVC035 03/01 A2967 280 85 -1000 350/15G23 RMK AO2 P0000 T00330011
14756KACK ACK20160321113015603/21/16 11:30:31  5-MIN KACK 211630Z 33018G23KT 5SM R24/5500VP6000FT -SN BR SCT010 BKN024 OVC035 03/01 A2968 280 89 -1100 350/18G23 RMK AO2 P0000 T00280011
14756KACK ACK20160321113515003/21/16 11:35:31  5-MIN KACK 211635Z 33022KT 3SM R24/5000VP6000FT -SN BR SCT010 BKN024 OVC035 02/01 A2968 280 89 -1100 350/22 RMK AO2 P0000 T00220006
14756KACK ACK20160321114015403/21/16 11:40:31  5-MIN KACK 211640Z 33019KT 1 1/2SM R24/5000VP6000FT -SN BR FEW007 BKN011 OVC018 02/00 A2967 280 85 -1100 350/19 RMK AO2 P0000 T00220000
14756KACK ACK20160321114515403/21/16 11:45:31  5-MIN KACK 211645Z 34018KT 2 1/2SM R24/6000VP6000FT -SN BR FEW007 BKN014 OVC020 03/01 A2967 280 85 -1100 350/18 RMK AO2 P0000 T00280006
14756KACK ACK20160321115014103/21/16 11:50:31  5-MIN KACK 211650Z 33018KT 2 1/2SM -SN FEW007 BKN012 OVC020 03/00 A2968 280 82 -1100 350/18 RMK AO2 SLP049 P0000 T00280000
14756KACK ACK20160321115513803/21/16 11:55:31  5-MIN KACK 211655Z 33017G23KT 5SM -SN BR SCT008 OVC014 02/00 A2967 280 85 -1100 340/17G23 RMK AO2 SNB54 P0000 T00220000
14756KACK ACK20160321120014703/21/16 12:00:31  5-MIN KACK 211700Z 34016G23KT 5SM -SN BR SCT006 BKN009 OVC016 03/00 A2967 280 82 -1100 350/16G23 RMK AO2 SNB1654 P0000 T00280000
14756KACK ACK20160321120514703/21/16 12:05:31  5-MIN KACK 211705Z 33019G25KT 5SM -SN BR SCT006 BKN009 OVC016 03/00 A2968 270 82 -1100 340/19G25 RMK AO2 SNB1654 P0000 T00280000
14756KACK ACK20160321121016503/21/16 12:10:31  5-MIN KACK 211710Z 33021G26KT 5SM -SN BR SCT006 BKN009 OVC016 03/00 A2968 270 82 -1100 340/21G26 RMK AO2 PK WND 33026/1709 SNB1654 P0000 T00280000
14756KACK ACK20160321121516503/21/16 12:15:31  5-MIN KACK 211715Z 32018G26KT 5SM -SN BR SCT006 BKN009 OVC016 03/00 A2968 270 82 -1100 340/18G26 RMK AO2 PK WND 33026/1709 SNB1654 P0000 T00280000
14756KACK ACK20160321122016503/21/16 12:20:31  5-MIN KACK 211720Z 32017G24KT 5SM -SN BR SCT006 BKN009 OVC016 02/00 A2968 270 85 -1100 340/17G24 RMK AO2 PK WND 33026/1709 SNB1654 P0000 T00220000
14756KACK ACK20160321122516503/21/16 12:25:31  5-MIN KACK 211725Z 34014G24KT 5SM -SN BR SCT006 BKN009 OVC016 02/00 A2968 270 85 -1100 350/14G24 RMK AO2 PK WND 33026/1709 SNB1654 P0000 T00220000
14756KACK ACK20160321123016503/21/16 12:30:31  5-MIN KACK 211730Z 33016G21KT 5SM -SN BR SCT006 BKN009 OVC016 03/00 A2968 270 82 -1100 340/16G21 RMK AO2 PK WND 33026/1709 SNB1654 P0000 T00280000
14756KACK ACK20160321123516503/21/16 12:35:31  5-MIN KACK 211735Z 33015G23KT 5SM -SN BR SCT006 BKN009 OVC016 02/00 A2968 270 85 -1100 340/15G23 RMK AO2 PK WND 33026/1709 SNB1654 P0000 T00220000
14756KACK ACK20160321124016503/21/16 12:40:31  5-MIN KACK 211740Z 32015G24KT 5SM -SN BR SCT006 BKN009 OVC016 02/00 A2969 270 85 -1100 330/15G24 RMK AO2 PK WND 33026/1709 SNB1654 P0000 T00220000
14756KACK ACK20160321124516603/21/16 12:45:31  5-MIN KACK 211745Z 32016G24KT 5SM -SN BR SCT006 BKN009 OVC016 02/M01 A2969 260 82 -1100 340/16G24 RMK AO2 PK WND 33026/1709 SNB1654 P0000 T00221006
14756KACK ACK20160321125019603/21/16 12:50:31  5-MIN KACK 211750Z 32014G23KT 5SM -SN BR SCT006 BKN009 OVC016 03/00 A2968 270 82 -1100 330/14G23 RMK AO2 PK WND 33026/1709 SNB1654 SLP051 P0000 60001 T00280000 10033 20022 55003
14756KACK ACK20160321125511403/21/16 12:55:31  5-MIN KACK 211755Z 32013KT 9SM BKN014 OVC022 02/M01 A2969 270 82 -1100 330/13 RMK AO2 T00221006
14756KACK ACK20160321130011503/21/16 13:00:31  5-MIN KACK 211800Z 31014KT 10SM BKN014 OVC022 03/M01 A2969 270 79 -1100 330/14 RMK AO2 T00281006
14756KACK ACK20160321130511503/21/16 13:05:31  5-MIN KACK 211805Z 32013KT 10SM BKN014 OVC022 03/M01 A2969 270 79 -1100 330/13 RMK AO2 T00281006
14756KACK ACK20160321131012103/21/16 13:10:31  5-MIN KACK 211810Z 30013G20KT 10SM BKN014 OVC022 03/M01 A2969 260 79 -1100 320/13G20 RMK AO2 T00281006
14756KACK ACK20160321131512103/21/16 13:15:31  5-MIN KACK 211815Z 32014G19KT 10SM BKN014 OVC022 03/M01 A2969 260 79 -1100 340/14G19 RMK AO2 T00281006
14756KACK ACK20160321132013103/21/16 13:20:31  5-MIN KACK 211820Z 32014KT 10SM -SN BKN014 OVC022 03/M01 A2969 270 75 -1100 330/14 RMK AO2 SNB19 P0000 T00281011
14756KACK ACK20160321132512903/21/16 13:25:31  5-MIN KACK 211825Z 31014KT 9SM BKN014 OVC022 03/M01 A2968 270 79 -1100 330/14 RMK AO2 SNB19E25 P0000 T00281006
14756KACK ACK20160321133012903/21/16 13:30:31  5-MIN KACK 211830Z 32013KT 9SM BKN014 OVC022 03/M01 A2968 270 75 -1100 330/13 RMK AO2 SNB19E25 P0000 T00281011
14756KACK ACK20160321133513003/21/16 13:35:31  5-MIN KACK 211835Z 31014KT 10SM BKN014 OVC022 03/M01 A2968 270 75 -1100 330/14 RMK AO2 SNB19E25 P0000 T00281011
14756KACK ACK20160321134013003/21/16 13:40:31  5-MIN KACK 211840Z 31013KT 10SM BKN014 OVC022 03/M01 A2969 270 75 -1100 320/13 RMK AO2 SNB19E25 P0000 T00281011
14756KACK ACK20160321134512803/21/16 13:45:31  5-MIN KACK 211845Z AUTO 32014KT 10SM OVC017 03/M01 A2969 260 76 -1000 330/14 RMK AO2 SNB19E25 P0000 T00331006
14756KACK ACK20160321135014203/21/16 13:50:31  5-MIN KACK 211850Z 31012G19KT 10SM BKN017 OVC022 04/M01 A2969 270 73 -900 330/12G19 RMK AO2 SNB19E25 SLP053 P0000 T00391006
14756KACK ACK20160321135511303/21/16 13:55:31  5-MIN KACK 211855Z 32015G21KT 10SM BKN017 04/M01 A2969 260 73 -900 330/15G21 RMK AO2 T00391006
14756KACK ACK20160321140011403/21/16 14:00:31  5-MIN KACK 211900Z 31014G21KT 10SM BKN017 03/M01 A2969 260 72 -1000 320/14G21 RMK AO2 T00331011
14756KACK ACK20160321140511403/21/16 14:05:31  5-MIN KACK 211905Z 31015G21KT 10SM BKN017 03/M01 A2969 260 72 -1000 320/15G21 RMK AO2 T00331011
14756KACK ACK20160321141011303/21/16 14:10:31  5-MIN KACK 211910Z 32014G21KT 10SM BKN018 04/M01 A2969 260 70 -900 330/14G21 RMK AO2 T00391011
14756KACK ACK20160321141511303/21/16 14:15:31  5-MIN KACK 211915Z 31014G20KT 10SM BKN018 04/M02 A2969 260 67 -900 330/14G20 RMK AO2 T00391017
14756KACK ACK20160321142010803/21/16 14:20:31  5-MIN KACK 211920Z 30013KT 10SM BKN018 03/M02 A2970 260 67 -1000 320/13 RMK AO2 T00331022
14756KACK ACK20160321142510703/21/16 14:25:31  5-MIN KACK 211925Z 30013KT 10SM BKN018 04/M01 A2970 250 70 -900 320/13 RMK AO2 T00391011
14756KACK ACK20160321143011403/21/16 14:30:31  5-MIN KACK 211930Z 31014KT 10SM BKN018 BKN023 04/M02 A2970 250 67 -900 330/14 RMK AO2 T00391017
14756KACK ACK20160321143511403/21/16 14:35:31  5-MIN KACK 211935Z 31016G23KT 10SM BKN020 03/M02 A2970 250 70 -1000 330/16G23 RMK AO2 T00331017
14756KACK ACK20160321144012103/21/16 14:40:31  5-MIN KACK 211940Z 32017G23KT 10SM BKN022 BKN028 03/M02 A2971 250 67 -1000 330/17G23 RMK AO2 T00331022
14756KACK ACK20160321144511503/21/16 14:45:31  5-MIN KACK 211945Z 31013KT 10SM BKN022 OVC028 03/M03 A2970 250 64 -1000 330/13 RMK AO2 T00331028
14756KACK ACK20160321145012203/21/16 14:50:31  5-MIN KACK 211950Z 31016KT 10SM BKN022 OVC030 03/M02 A2970 250 67 -1000 330/16 RMK AO2 SLP058 T00331022
14756KACK ACK20160321145512803/21/16 14:55:31  5-MIN KACK 211955Z 31015G20KT 10SM BKN022 BKN028 OVC033 03/M02 A2970 250 67 -1000 320/15G20 RMK AO2 T00331022
14756KACK ACK20160321150012703/21/16 15:00:31  5-MIN KACK 212000Z 31014G20KT 10SM SCT024 BKN034 OVC042 04/M02 A2970 250 67 -900 330/14G20 RMK AO2 T00391017
14756KACK ACK20160321150511403/21/16 15:05:31  5-MIN KACK 212005Z 32015KT 10SM BKN022 OVC030 04/M02 A2970 250 64 -900 340/15 RMK AO2 T00391022
14756KACK ACK20160321151012003/21/16 15:10:31  5-MIN KACK 212010Z 32014G21KT 10SM BKN022 OVC030 04/M02 A2969 260 62 -900 340/14G21 RMK AO2 T00441022
14756KACK ACK20160321151511403/21/16 15:15:31  5-MIN KACK 212015Z 30012KT 10SM BKN022 OVC030 04/M02 A2969 260 62 -900 310/12 RMK AO2 T00441022
14756KACK ACK20160321152011403/21/16 15:20:31  5-MIN KACK 212020Z 31014KT 10SM BKN022 OVC030 04/M02 A2969 260 62 -900 320/14 RMK AO2 T00441022
14756KACK ACK20160321152511403/21/16 15:25:31  5-MIN KACK 212025Z 31013KT 10SM BKN022 OVC030 04/M02 A2970 260 62 -900 330/13 RMK AO2 T00441022
14756KACK ACK20160321153011403/21/16 15:30:31  5-MIN KACK 212030Z 29012KT 10SM BKN022 OVC030 05/M02 A2970 260 62 -800 300/12 RMK AO2 T00501017
14756KACK ACK20160321153511403/21/16 15:35:31  5-MIN KACK 212035Z 32013KT 10SM BKN022 OVC030 05/M02 A2970 260 62 -800 330/13 RMK AO2 T00501017
14756KACK ACK20160321154012003/21/16 15:40:31  5-MIN KACK 212040Z 31011G19KT 10SM BKN022 OVC030 05/M02 A2970 260 62 -800 320/11G19 RMK AO2 T00501017
14756KACK ACK20160321154512003/21/16 15:45:31  5-MIN KACK 212045Z 31013G19KT 10SM BKN022 OVC030 05/M02 A2970 260 59 -800 330/13G19 RMK AO2 T00501022
14756KACK ACK20160321155009403/21/16 15:50:31  5-MIN KACK 212050Z 31014KT 10SM CLR 04/M02 A2970 260 62 -900 330/14 RMK AO2
14756KACK ACK20160321155510403/21/16 15:55:31  5-MIN KACK 212055Z 32014KT 10SM CLR 05/M02 A2970 250 59 -800 330/14 RMK AO2 T00501022
14756KACK ACK20160321160010403/21/16 16:00:31  5-MIN KACK 212100Z 30012KT 10SM CLR 04/M02 A2970 250 62 -900 320/12 RMK AO2 T00441022
14756KACK ACK20160321160510403/21/16 16:05:31  5-MIN KACK 212105Z 31014KT 10SM CLR 05/M02 A2970 250 59 -800 320/14 RMK AO2 T00501022
14756KACK ACK20160321161010403/21/16 16:10:31  5-MIN KACK 212110Z 31013KT 10SM CLR 04/M02 A2970 250 62 -900 320/13 RMK AO2 T00441022
14756KACK ACK20160321161510403/21/16 16:15:31  5-MIN KACK 212115Z 30011KT 10SM CLR 04/M02 A2970 250 62 -900 310/11 RMK AO2 T00441022
14756KACK ACK20160321162010403/21/16 16:20:31  5-MIN KACK 212120Z 29009KT 10SM CLR 05/M02 A2970 250 59 -800 310/09 RMK AO2 T00501022
14756KACK ACK20160321162510403/21/16 16:25:31  5-MIN KACK 212125Z 31010KT 10SM CLR 05/M02 A2970 250 59 -800 330/10 RMK AO2 T00501022
14756KACK ACK20160321163011003/21/16 16:30:31  5-MIN KACK 212130Z 30011G16KT 10SM CLR 05/M02 A2970 250 59 -800 310/11G16 RMK AO2 T00501022
14756KACK ACK20160321163510403/21/16 16:35:31  5-MIN KACK 212135Z 29010KT 10SM CLR 05/M02 A2970 250 59 -800 310/10 RMK AO2 T00501022
14756KACK ACK20160321164010403/21/16 16:40:31  5-MIN KACK 212140Z 29011KT 10SM CLR 05/M03 A2970 250 57 -800 310/11 RMK AO2 T00501028
14756KACK ACK20160321164510403/21/16 16:45:31  5-MIN KACK 212145Z 29009KT 10SM CLR 05/M02 A2971 250 59 -800 310/09 RMK AO2 T00501022
14756KACK ACK20160321165011103/21/16 16:50:31  5-MIN KACK 212150Z 28009KT 10SM CLR 05/M02 A2971 250 59 -800 300/09 RMK AO2 SLP060 T00501022
14756KACK ACK20160321165510503/21/16 16:55:31  5-MIN KACK 212155Z 29008KT 10SM CLR 04/M03 A2971 240 62 -1000 300/08 RMK AO2 T00391028
14756KACK ACK20160321170010503/21/16 17:00:31  5-MIN KACK 212200Z 28008KT 10SM CLR 04/M03 A2971 240 62 -1000 300/08 RMK AO2 T00391028
14756KACK ACK20160321170510503/21/16 17:05:31  5-MIN KACK 212205Z 28007KT 10SM CLR 04/M03 A2971 240 62 -1000 300/07 RMK AO2 T00391028
14756KACK ACK20160321171010503/21/16 17:10:31  5-MIN KACK 212210Z 29006KT 10SM CLR 04/M03 A2972 240 62 -1000 300/06 RMK AO2 T00391028
14756KACK ACK20160321171510503/21/16 17:15:31  5-MIN KACK 212215Z 27006KT 10SM CLR 04/M02 A2972 240 64 -1000 280/06 RMK AO2 T00391022
14756KACK ACK20160321172011503/21/16 17:20:31  5-MIN KACK 212220Z 27005KT 10SM FEW026 FEW039 04/M02 A2972 230 64 -1000 280/05 RMK AO2 T00391022
14756KACK ACK20160321172511403/21/16 17:25:31  5-MIN KACK 212225Z 26010KT 10SM SCT024 SCT039 04/M02 A2973 230 64 -900 270/10 RMK AO2 T00441017
14756KACK ACK20160321173010703/21/16 17:30:31  5-MIN KACK 212230Z 27011KT 10SM SCT024 04/M01 A2973 230 67 -900 280/11 RMK AO2 T00441011
14756KACK ACK20160321173510803/21/16 17:35:31  5-MIN KACK 212235Z 26011KT 10SM FEW024 04/M01 A2973 230 70 -1000 270/11 RMK AO2 T00391011
14756KACK ACK20160321174010803/21/16 17:40:31  5-MIN KACK 212240Z 26012KT 10SM FEW024 04/M01 A2973 220 70 -1000 270/12 RMK AO2 T00391011
14756KACK ACK20160321174510803/21/16 17:45:31  5-MIN KACK 212245Z 25011KT 10SM FEW024 04/M02 A2973 220 67 -1000 270/11 RMK AO2 T00391017
14756KACK ACK20160321175011503/21/16 17:50:31  5-MIN KACK 212250Z 26009KT 10SM SCT024 04/M02 A2973 220 67 -1000 280/09 RMK AO2 SLP068 T00391017
14756KACK ACK20160321175510803/21/16 17:55:31  5-MIN KACK 212255Z 25011KT 10SM SCT024 03/M02 A2974 220 70 -1100 270/11 RMK AO2 T00331017
14756KACK ACK20160321180010803/21/16 18:00:31  5-MIN KACK 212300Z 26010KT 10SM FEW024 04/M02 A2974 220 67 -1000 270/10 RMK AO2 T00391017
14756KACK ACK20160321180510803/21/16 18:05:31  5-MIN KACK 212305Z 25009KT 10SM FEW024 03/M02 A2974 220 70 -1100 270/09 RMK AO2 T00331017
14756KACK ACK20160321181010503/21/16 18:10:31  5-MIN KACK 212310Z 25009KT 10SM CLR 03/M01 A2974 220 72 -1100 260/09 RMK AO2 T00331011
14756KACK ACK20160321181510503/21/16 18:15:31  5-MIN KACK 212315Z 25011KT 10SM CLR 03/M01 A2974 220 72 -1100 270/11 RMK AO2 T00331011
14756KACK ACK20160321182010503/21/16 18:20:31  5-MIN KACK 212320Z 25010KT 10SM CLR 04/M01 A2974 220 70 -1000 270/10 RMK AO2 T00391011
14756KACK ACK20160321182510503/21/16 18:25:31  5-MIN KACK 212325Z 25010KT 10SM CLR 04/M01 A2974 220 70 -1000 270/10 RMK AO2 T00391011
14756KACK ACK20160321183010503/21/16 18:30:31  5-MIN KACK 212330Z 25010KT 10SM CLR 04/M01 A2974 210 70 -1000 270/10 RMK AO2 T00391011
14756KACK ACK20160321183510503/21/16 18:35:31  5-MIN KACK 212335Z 25011KT 10SM CLR 04/M01 A2975 210 73 -1000 270/11 RMK AO2 T00391006
14756KACK ACK20160321184010403/21/16 18:40:31  5-MIN KACK 212340Z 25013KT 10SM CLR 04/M01 A2975 210 70 -900 260/13 RMK AO2 T00441006
14756KACK ACK20160321184510403/21/16 18:45:31  5-MIN KACK 212345Z 25015KT 10SM CLR 04/M01 A2975 210 70 -900 260/15 RMK AO2 T00441006
14756KACK ACK20160321185013403/21/16 18:50:31  5-MIN KACK 212350Z 25012KT 10SM CLR 04/00 A2975 200 73 -900 270/12 RMK AO2 SLP075 60000 T00440000 10050 20022 50003
14756KACK ACK20160321185510303/21/16 18:55:31  5-MIN KACK 212355Z 25013KT 10SM CLR 04/00 A2975 200 73 -900 270/13 RMK AO2 T00440000
14756KACK ACK20160321190010303/21/16 19:00:31  5-MIN KACK 220000Z 25013KT 10SM CLR 04/00 A2975 200 73 -900 270/13 RMK AO2 T00440000
14756KACK ACK20160321190510303/21/16 19:05:31  5-MIN KACK 220005Z 25015KT 10SM CLR 04/00 A2975 200 73 -900 270/15 RMK AO2 T00440000
14756KACK ACK20160321191010303/21/16 19:10:31  5-MIN KACK 220010Z 25015KT 10SM CLR 04/00 A2976 200 73 -900 270/15 RMK AO2 T00440000
14756KACK ACK20160321191510303/21/16 19:15:31  5-MIN KACK 220015Z 25014KT 10SM CLR 04/00 A2976 200 73 -900 270/14 RMK AO2 T00440000
14756KACK ACK20160321192010303/21/16 19:20:31  5-MIN KACK 220020Z 25013KT 10SM CLR 04/01 A2976 200 76 -900 270/13 RMK AO2 T00440006
14756KACK ACK20160321192510303/21/16 19:25:31  5-MIN KACK 220025Z 25012KT 10SM CLR 04/01 A2976 200 76 -900 270/12 RMK AO2 T00440006
14756KACK ACK20160321193010903/21/16 19:30:31  5-MIN KACK 220030Z 25015G20KT 10SM CLR 05/01 A2976 190 73 -900 270/15G20 RMK AO2 T00500006
14756KACK ACK20160321193510903/21/16 19:35:31  5-MIN KACK 220035Z 25016G21KT 10SM CLR 05/01 A2977 190 73 -900 270/16G21 RMK AO2 T00500006
14756KACK ACK20160321194010903/21/16 19:40:31  5-MIN KACK 220040Z 25015G21KT 10SM CLR 05/01 A2977 190 73 -900 270/15G21 RMK AO2 T00500006
14756KACK ACK20160321194510903/21/16 19:45:31  5-MIN KACK 220045Z 25015G22KT 10SM CLR 05/01 A2977 190 73 -900 270/15G22 RMK AO2 T00500006
14756KACK ACK20160321195011603/21/16 19:50:31  5-MIN KACK 220050Z 25015G22KT 10SM CLR 05/01 A2977 190 73 -900 270/15G22 RMK AO2 SLP081 T00500006
14756KACK ACK20160321195510303/21/16 19:55:31  5-MIN KACK 220055Z 25015KT 10SM CLR 05/01 A2977 190 73 -900 270/15 RMK AO2 T00500006
14756KACK ACK20160321200011303/21/16 20:00:31  5-MIN KACK 220100Z AUTO 25015KT 10SM CLR 05/01 A2977 180 73 -900 270/15 RMK AO2 T00500006 TSNO
14756KACK ACK20160321200511303/21/16 20:05:31  5-MIN KACK 220105Z AUTO 25017KT 10SM CLR 06/01 A2977 180 73 -800 270/17 RMK AO2 T00560011 TSNO
14756KACK ACK20160321201011303/21/16 20:10:31  5-MIN KACK 220110Z AUTO 25014KT 10SM CLR 05/01 A2978 180 76 -900 270/14 RMK AO2 T00500011 TSNO
14756KACK ACK20160321201511903/21/16 20:15:31  5-MIN KACK 220115Z AUTO 26013G22KT 10SM CLR 06/01 A2978 180 73 -800 270/13G22 RMK AO2 T00560011 TSNO
14756KACK ACK20160321202011303/21/16 20:20:31  5-MIN KACK 220120Z AUTO 26013KT 10SM CLR 06/01 A2978 180 73 -800 280/13 RMK AO2 T00560011 TSNO
14756KACK ACK20160321202511303/21/16 20:25:31  5-MIN KACK 220125Z AUTO 27015KT 10SM CLR 06/01 A2978 180 70 -800 280/15 RMK AO2 T00560006 TSNO
14756KACK ACK20160321203011303/21/16 20:30:31  5-MIN KACK 220130Z AUTO 27013KT 10SM CLR 06/01 A2979 170 70 -800 280/13 RMK AO2 T00560006 TSNO
14756KACK ACK20160321203511303/21/16 20:35:31  5-MIN KACK 220135Z AUTO 27014KT 10SM CLR 06/00 A2979 170 67 -800 290/14 RMK AO2 T00560000 TSNO
14756KACK ACK20160321204011403/21/16 20:40:31  5-MIN KACK 220140Z AUTO 28013KT 10SM CLR 06/M01 A2979 170 65 -800 290/13 RMK AO2 T00561006 TSNO
14756KACK ACK20160321204512003/21/16 20:45:31  5-MIN KACK 220145Z AUTO 29015G23KT 10SM CLR 06/M02 A2979 170 57 -800 300/15G23 RMK AO2 T00561022 TSNO
14756KACK ACK20160321205012703/21/16 20:50:31  5-MIN KACK 220150Z AUTO 29013G23KT 10SM CLR 06/M03 A2979 170 53 -800 300/13G23 RMK AO2 SLP089 T00561033 TSNO
14756KACK ACK20160321205511403/21/16 20:55:31  5-MIN KACK 220155Z AUTO 29013KT 10SM CLR 06/M04 A2980 160 48 -800 310/13 RMK AO2 T00561044 TSNO
14756KACK ACK20160321210011403/21/16 21:00:31  5-MIN KACK 220200Z AUTO 30015KT 10SM CLR 06/M06 A2980 160 44 -800 310/15 RMK AO2 T00561056 TSNO
14756KACK ACK20160321210512003/21/16 21:05:31  5-MIN KACK 220205Z AUTO 30016G23KT 10SM CLR 06/M06 A2980 160 44 -800 310/16G23 RMK AO2 T00561056 TSNO
14756KACK ACK20160321211012003/21/16 21:10:31  5-MIN KACK 220210Z AUTO 30016G25KT 10SM CLR 06/M06 A2980 160 43 -900 310/16G25 RMK AO2 T00561061 TSNO
14756KACK ACK20160321211512003/21/16 21:15:31  5-MIN KACK 220215Z AUTO 30017G25KT 10SM CLR 06/M06 A2980 160 43 -900 310/17G25 RMK AO2 T00561061 TSNO
14756KACK ACK20160321212012003/21/16 21:20:31  5-MIN KACK 220220Z AUTO 30017G25KT 10SM CLR 06/M06 A2980 160 43 -900 320/17G25 RMK AO2 T00561061 TSNO
14756KACK ACK20160321212513803/21/16 21:25:31  5-MIN KACK 220225Z AUTO 30016G27KT 10SM CLR 06/M07 A2981 160 41 -900 320/16G27 RMK AO2 PK WND 30027/0223 T00561067 TSNO
14756KACK ACK20160321213013803/21/16 21:30:31  5-MIN KACK 220230Z AUTO 30014G27KT 10SM CLR 06/M07 A2981 150 41 -900 320/14G27 RMK AO2 PK WND 30027/0223 T00561067 TSNO
14756KACK ACK20160321213513803/21/16 21:35:31  5-MIN KACK 220235Z AUTO 30016G24KT 10SM CLR 06/M06 A2981 150 43 -900 320/16G24 RMK AO2 PK WND 30027/0223 T00561061 TSNO
14756KACK ACK20160321214013203/21/16 21:40:31  5-MIN KACK 220240Z AUTO 30016KT 10SM CLR 06/M06 A2981 150 43 -900 310/16 RMK AO2 PK WND 30027/0223 T00561061 TSNO
14756KACK ACK20160321214513803/21/16 21:45:31  5-MIN KACK 220245Z AUTO 30014G24KT 10SM CLR 06/M07 A2982 150 41 -900 310/14G24 RMK AO2 PK WND 30027/0223 T00561067 TSNO
14756KACK ACK20160321215015103/21/16 21:50:31  5-MIN KACK 220250Z AUTO 29016G25KT 10SM CLR 06/M07 A2982 140 41 -900 310/16G25 RMK AO2 PK WND 30027/0223 SLP098 T00561067 53019 TSNO
14756KACK ACK20160321215512003/21/16 21:55:31  5-MIN KACK 220255Z AUTO 29014G25KT 10SM CLR 05/M06 A2982 140 44 -900 300/14G25 RMK AO2 T00501061 TSNO
14756KACK ACK20160321220011503/21/16 22:00:31  5-MIN KACK 220300Z AUTO 29013KT 10SM CLR 05/M06 A2983 140 44 -1000 310/13 RMK AO2 T00501061 TSNO
14756KACK ACK20160321220511503/21/16 22:05:31  5-MIN KACK 220305Z AUTO 30013KT 10SM CLR 05/M06 A2983 130 44 -1000 310/13 RMK AO2 T00501061 TSNO
14756KACK ACK20160321221012103/21/16 22:10:31  5-MIN KACK 220310Z AUTO 30016G21KT 10SM CLR 05/M06 A2983 130 44 -1000 310/16G21 RMK AO2 T00501061 TSNO
14756KACK ACK20160321221512103/21/16 22:15:31  5-MIN KACK 220315Z AUTO 30013G21KT 10SM CLR 05/M06 A2984 130 44 -1000 310/13G21 RMK AO2 T00501061 TSNO
14756KACK ACK20160321222012103/21/16 22:20:31  5-MIN KACK 220320Z AUTO 29014G21KT 10SM CLR 05/M06 A2984 120 44 -1000 310/14G21 RMK AO2 T00501061 TSNO
14756KACK ACK20160321222511503/21/16 22:25:31  5-MIN KACK 220325Z AUTO 29014KT 10SM CLR 05/M06 A2984 120 44 -1000 310/14 RMK AO2 T00501061 TSNO
14756KACK ACK20160321223011503/21/16 22:30:31  5-MIN KACK 220330Z AUTO 29013KT 10SM CLR 05/M06 A2984 120 46 -1000 310/13 RMK AO2 T00501056 TSNO
14756KACK ACK20160321223512103/21/16 22:35:31  5-MIN KACK 220335Z AUTO 29012G22KT 10SM CLR 04/M06 A2985 120 48 -1000 310/12G22 RMK AO2 T00441056 TSNO
14756KACK ACK20160321224012103/21/16 22:40:31  5-MIN KACK 220340Z AUTO 29013G22KT 10SM CLR 04/M06 A2985 110 48 -1000 310/13G22 RMK AO2 T00441056 TSNO
14756KACK ACK20160321224512103/21/16 22:45:31  5-MIN KACK 220345Z AUTO 30013G19KT 10SM CLR 04/M06 A2985 110 46 -1100 310/13G19 RMK AO2 T00441061 TSNO
14756KACK ACK20160321225012803/21/16 22:50:31  5-MIN KACK 220350Z AUTO 30014G22KT 10SM CLR 04/M06 A2985 110 46 -1100 310/14G22 RMK AO2 SLP109 T00441061 TSNO
14756KACK ACK20160321225512103/21/16 22:55:31  5-MIN KACK 220355Z AUTO 31017G23KT 10SM CLR 04/M06 A2986 110 46 -1100 320/17G23 RMK AO2 T00441061 TSNO
14756KACK ACK20160321230012103/21/16 23:00:31  5-MIN KACK 220400Z AUTO 30015G23KT 10SM CLR 04/M06 A2986 110 46 -1100 310/15G23 RMK AO2 T00441061 TSNO
14756KACK ACK20160321230513903/21/16 23:05:31  5-MIN KACK 220405Z AUTO 30018G29KT 10SM CLR 04/M07 A2986 100 44 -1100 320/18G29 RMK AO2 PK WND 29029/0401 T00441067 TSNO
14756KACK ACK20160321231013903/21/16 23:10:31  5-MIN KACK 220410Z AUTO 30017G29KT 10SM CLR 04/M07 A2987 100 44 -1100 320/17G29 RMK AO2 PK WND 29029/0401 T00441067 TSNO
14756KACK ACK20160321231513903/21/16 23:15:31  5-MIN KACK 220415Z AUTO 30019G24KT 10SM CLR 04/M07 A2987 100 44 -1100 320/19G24 RMK AO2 PK WND 29029/0401 T00441067 TSNO
14756KACK ACK20160321232013903/21/16 23:20:31  5-MIN KACK 220420Z AUTO 30018G26KT 10SM CLR 04/M07 A2987 100 44 -1100 320/18G26 RMK AO2 PK WND 29029/0401 T00441067 TSNO
14756KACK ACK20160321232513803/21/16 23:25:31  5-MIN KACK 220425Z AUTO 30012G26KT 10SM CLR 04/M07 A2987 90 44 -1100 310/12G26 RMK AO2 PK WND 29029/0401 T00441067 TSNO
14756KACK ACK20160321233013803/21/16 23:30:31  5-MIN KACK 220430Z AUTO 29013G21KT 10SM CLR 04/M06 A2988 90 48 -1100 310/13G21 RMK AO2 PK WND 29029/0401 T00441056 TSNO
14756KACK ACK20160321233513803/21/16 23:35:31  5-MIN KACK 220435Z AUTO 30015G21KT 10SM CLR 04/M06 A2988 90 46 -1100 310/15G21 RMK AO2 PK WND 29029/0401 T00441061 TSNO
14756KACK ACK20160321234013803/21/16 23:40:31  5-MIN KACK 220440Z AUTO 30016G22KT 10SM CLR 04/M07 A2988 90 44 -1100 320/16G22 RMK AO2 PK WND 29029/0401 T00441067 TSNO
14756KACK ACK20160321234513203/21/16 23:45:31  5-MIN KACK 220445Z AUTO 30014KT 10SM CLR 04/M07 A2988 90 44 -1100 310/14 RMK AO2 PK WND 29029/0401 T00441067 TSNO
14756KACK ACK20160321235015503/21/16 23:50:31  5-MIN KACK 220450Z AUTO 30016G26KT 10SM CLR 04/M06 A2988 80 46 -1100 320/16G26 RMK AO2 PK WND 29029/0401 SLP119 T00441061 400560017 TSNO
14756KACK ACK20160321235512003/21/16 23:55:31  5-MIN KACK 220455Z AUTO 30013G27KT 10SM CLR 04/M06 A2988 80 46 -1100 320/13G27 RMK AO2 T00441061 TSNO
14756KACK ACK20160322000012003/22/16 00:00:31  5-MIN KACK 220500Z AUTO 30015G27KT 10SM CLR 04/M06 A2989 80 46 -1100 320/15G27 RMK AO2 T00441061 TSNO
14756KACK ACK20160322000512003/22/16 00:05:31  5-MIN KACK 220505Z AUTO 30010G23KT 10SM CLR 04/M06 A2989 80 48 -1200 310/10G23 RMK AO2 T00391061 TSNO
14756KACK ACK20160322001011403/22/16 00:10:31  5-MIN KACK 220510Z AUTO 30011KT 10SM CLR 04/M06 A2989 80 50 -1200 310/11 RMK AO2 T00391056 TSNO
14756KACK ACK20160322001511403/22/16 00:15:31  5-MIN KACK 220515Z AUTO 29012KT 10SM CLR 04/M06 A2989 80 50 -1200 310/12 RMK AO2 T00391056 TSNO
14756KACK ACK20160322002011403/22/16 00:20:31  5-MIN KACK 220520Z AUTO 29012KT 10SM CLR 04/M06 A2990 70 50 -1200 310/12 RMK AO2 T00391056 TSNO
14756KACK ACK20160322002511403/22/16 00:25:31  5-MIN KACK 220525Z AUTO 28011KT 10SM CLR 03/M06 A2990 70 52 -1200 300/11 RMK AO2 T00331056 TSNO
14756KACK ACK20160322003011403/22/16 00:30:31  5-MIN KACK 220530Z AUTO 29011KT 10SM CLR 03/M06 A2990 70 52 -1200 310/11 RMK AO2 T00331056 TSNO
14756KACK ACK20160322003512003/22/16 00:35:31  5-MIN KACK 220535Z AUTO 29012G20KT 10SM CLR 04/M06 A2990 70 50 -1200 310/12G20 RMK AO2 T00391056 TSNO
14756KACK ACK20160322004012003/22/16 00:40:31  5-MIN KACK 220540Z AUTO 29012G20KT 10SM CLR 03/M06 A2990 60 52 -1200 310/12G20 RMK AO2 T00331056 TSNO
14756KACK ACK20160322004511403/22/16 00:45:31  5-MIN KACK 220545Z AUTO 29012KT 10SM CLR 03/M06 A2990 60 52 -1200 310/12 RMK AO2 T00331056 TSNO
14756KACK ACK20160322005014503/22/16 00:50:31  5-MIN KACK 220550Z AUTO 29011G20KT 10SM CLR 03/M06 A2991 60 52 -1300 300/11G20 RMK AO2 SLP127 T00331056 10056 20033 53023 TSNO
14756KACK ACK20160322005511403/22/16 00:55:31  5-MIN KACK 220555Z AUTO 29013KT 10SM CLR 03/M06 A2991 60 52 -1300 300/13 RMK AO2 T00331056 TSNO
14756KACK ACK20160322010011403/22/16 01:00:31  5-MIN KACK 220600Z AUTO 29014KT 10SM CLR 03/M06 A2991 60 52 -1300 300/14 RMK AO2 T00331056 TSNO
14756KACK ACK20160322010511403/22/16 01:05:31  5-MIN KACK 220605Z AUTO 29011KT 10SM CLR 03/M05 A2991 60 54 -1300 310/11 RMK AO2 T00331050 TSNO
14756KACK ACK20160322011011403/22/16 01:10:31  5-MIN KACK 220610Z AUTO 29011KT 10SM CLR 03/M06 A2991 50 52 -1300 300/11 RMK AO2 T00331056 TSNO
14756KACK ACK20160322011511403/22/16 01:15:31  5-MIN KACK 220615Z AUTO 28012KT 10SM CLR 03/M06 A2992 50 54 -1300 300/12 RMK AO2 T00281056 TSNO
14756KACK ACK20160322012011403/22/16 01:20:31  5-MIN KACK 220620Z AUTO 29011KT 10SM CLR 03/M06 A2992 50 54 -1300 300/11 RMK AO2 T00281056 TSNO
14756KACK ACK20160322012511403/22/16 01:25:31  5-MIN KACK 220625Z AUTO 29011KT 10SM CLR 03/M06 A2992 50 54 -1300 300/11 RMK AO2 T00281056 TSNO
14756KACK ACK20160322013011403/22/16 01:30:31  5-MIN KACK 220630Z AUTO 29009KT 10SM CLR 03/M06 A2992 50 54 -1300 300/09 RMK AO2 T00281056 TSNO
14756KACK ACK20160322013511403/22/16 01:35:31  5-MIN KACK 220635Z AUTO 29014KT 10SM CLR 03/M06 A2992 50 54 -1300 300/14 RMK AO2 T00281056 TSNO
14756KACK ACK20160322014011403/22/16 01:40:31  5-MIN KACK 220640Z AUTO 28011KT 10SM CLR 03/M06 A2992 50 54 -1300 300/11 RMK AO2 T00281056 TSNO
14756KACK ACK20160322014511403/22/16 01:45:31  5-MIN KACK 220645Z AUTO 28011KT 10SM CLR 03/M06 A2993 40 54 -1300 300/11 RMK AO2 T00281056 TSNO
14756KACK ACK20160322015012103/22/16 01:50:31  5-MIN KACK 220650Z AUTO 28011KT 10SM CLR 03/M06 A2993 40 54 -1300 290/11 RMK AO2 SLP133 T00281056 TSNO
14756KACK ACK20160322015511403/22/16 01:55:31  5-MIN KACK 220655Z AUTO 28010KT 10SM CLR 03/M06 A2993 40 54 -1300 290/10 RMK AO2 T00281056 TSNO
14756KACK ACK20160322020011403/22/16 02:00:31  5-MIN KACK 220700Z AUTO 28011KT 10SM CLR 02/M05 A2993 40 59 -1400 300/11 RMK AO2 T00221050 TSNO
14756KACK ACK20160322020511403/22/16 02:05:31  5-MIN KACK 220705Z AUTO 29012KT 10SM CLR 03/M06 A2993 40 54 -1300 300/12 RMK AO2 T00281056 TSNO
14756KACK ACK20160322021012003/22/16 02:10:31  5-MIN KACK 220710Z AUTO 29012G19KT 10SM CLR 03/M06 A2993 40 54 -1300 300/12G19 RMK AO2 T00281056 TSNO
14756KACK ACK20160322021512003/22/16 02:15:31  5-MIN KACK 220715Z AUTO 29013G22KT 10SM CLR 03/M06 A2993 40 54 -1300 310/13G22 RMK AO2 T00281056 TSNO
14756KACK ACK20160322022012003/22/16 02:20:31  5-MIN KACK 220720Z AUTO 30012G22KT 10SM CLR 03/M06 A2993 40 54 -1300 310/12G22 RMK AO2 T00281056 TSNO
14756KACK ACK20160322022511403/22/16 02:25:31  5-MIN KACK 220725Z AUTO 29012KT 10SM CLR 03/M05 A2993 40 56 -1300 310/12 RMK AO2 T00281050 TSNO
14756KACK ACK20160322023011403/22/16 02:30:31  5-MIN KACK 220730Z AUTO 29011KT 10SM CLR 03/M05 A2993 40 56 -1400 300/11 RMK AO2 T00281050 TSNO
14756KACK ACK20160322023511403/22/16 02:35:31  5-MIN KACK 220735Z AUTO 29012KT 10SM CLR 03/M05 A2993 40 56 -1400 310/12 RMK AO2 T00281050 TSNO
14756KACK ACK20160322024011403/22/16 02:40:31  5-MIN KACK 220740Z AUTO 29013KT 10SM CLR 03/M05 A2994 30 56 -1400 310/13 RMK AO2 T00281050 TSNO
14756KACK ACK20160322024512003/22/16 02:45:31  5-MIN KACK 220745Z AUTO 30018G23KT 10SM CLR 03/M05 A2994 30 56 -1400 310/18G23 RMK AO2 T00281050 TSNO
14756KACK ACK20160322025012703/22/16 02:50:31  5-MIN KACK 220750Z AUTO 30013G23KT 10SM CLR 03/M06 A2994 30 54 -1400 310/13G23 RMK AO2 SLP137 T00281056 TSNO
14756KACK ACK20160322025511403/22/16 02:55:31  5-MIN KACK 220755Z AUTO 29012KT 10SM CLR 03/M05 A2994 30 56 -1400 300/12 RMK AO2 T00281050 TSNO
14756KACK ACK20160322030011403/22/16 03:00:31  5-MIN KACK 220800Z AUTO 29013KT 10SM CLR 03/M05 A2994 30 56 -1400 300/13 RMK AO2 T00281050 TSNO
14756KACK ACK20160322030511403/22/16 03:05:31  5-MIN KACK 220805Z AUTO 29013KT 10SM CLR 02/M05 A2995 20 59 -1400 310/13 RMK AO2 T00221050 TSNO
14756KACK ACK20160322031011403/22/16 03:10:31  5-MIN KACK 220810Z AUTO 29011KT 10SM CLR 02/M05 A2995 20 59 -1400 300/11 RMK AO2 T00221050 TSNO
14756KACK ACK20160322031512003/22/16 03:15:31  5-MIN KACK 220815Z AUTO 29014G20KT 10SM CLR 02/M05 A2995 20 59 -1400 300/14G20 RMK AO2 T00221050 TSNO
14756KACK ACK20160322032012003/22/16 03:20:31  5-MIN KACK 220820Z AUTO 29013G20KT 10SM CLR 02/M05 A2995 20 59 -1400 300/13G20 RMK AO2 T00221050 TSNO
14756KACK ACK20160322032511403/22/16 03:25:31  5-MIN KACK 220825Z AUTO 29013KT 10SM CLR 02/M05 A2996 20 59 -1400 310/13 RMK AO2 T00221050 TSNO
14756KACK ACK20160322033011403/22/16 03:30:31  5-MIN KACK 220830Z AUTO 29013KT 10SM CLR 02/M05 A2996 10 59 -1400 310/13 RMK AO2 T00221050 TSNO
14756KACK ACK20160322033511403/22/16 03:35:31  5-MIN KACK 220835Z AUTO 29013KT 10SM CLR 02/M05 A2996 10 59 -1500 310/13 RMK AO2 T00221050 TSNO
14756KACK ACK20160322034011403/22/16 03:40:31  5-MIN KACK 220840Z AUTO 29012KT 10SM CLR 02/M05 A2996 10 59 -1500 310/12 RMK AO2 T00221050 TSNO
14756KACK ACK20160322034511303/22/16 03:45:31  5-MIN KACK 220845Z AUTO 29011KT 10SM CLR 02/M05 A2997 0 59 -1500 300/11 RMK AO2 T00221050 TSNO
14756KACK ACK20160322035012603/22/16 03:50:31  5-MIN KACK 220850Z AUTO 29013KT 10SM CLR 02/M05 A2997 0 59 -1500 300/13 RMK AO2 SLP149 T00221050 51029 TSNO
14756KACK ACK20160322035511303/22/16 03:55:31  5-MIN KACK 220855Z AUTO 29011KT 10SM CLR 02/M05 A2997 0 59 -1500 300/11 RMK AO2 T00221050 TSNO
14756KACK ACK20160322040011303/22/16 04:00:31  5-MIN KACK 220900Z AUTO 29010KT 10SM CLR 02/M04 A2998 0 61 -1500 310/10 RMK AO2 T00221044 TSNO
14756KACK ACK20160322040511303/22/16 04:05:31  5-MIN KACK 220905Z AUTO 29009KT 10SM CLR 02/M04 A2998 0 61 -1500 300/09 RMK AO2 T00221044 TSNO
14756KACK ACK20160322041011303/22/16 04:10:31  5-MIN KACK 220910Z AUTO 29013KT 10SM CLR 02/M04 A2998 0 61 -1500 310/13 RMK AO2 T00221044 TSNO
14756KACK ACK20160322041511303/22/16 04:15:31  5-MIN KACK 220915Z AUTO 29012KT 10SM CLR 02/M05 A2998 0 59 -1500 300/12 RMK AO2 T00221050 TSNO
14756KACK ACK20160322042011303/22/16 04:20:31  5-MIN KACK 220920Z AUTO 29011KT 10SM CLR 02/M05 A2998 0 59 -1500 300/11 RMK AO2 T00221050 TSNO
14756KACK ACK20160322042511903/22/16 04:25:31  5-MIN KACK 220925Z AUTO 29012G19KT 10SM CLR 02/M05 A2998 0 59 -1500 310/12G19 RMK AO2 T00221050 TSNO
14756KACK ACK20160322043012103/22/16 04:30:31  5-MIN KACK 220930Z AUTO 29012G19KT 10SM CLR 02/M05 A2999 -10 59 -1500 300/12G19 RMK AO2 T00221050 TSNO
14756KACK ACK20160322043511503/22/16 04:35:31  5-MIN KACK 220935Z AUTO 29012KT 10SM CLR 02/M05 A2999 -10 59 -1500 310/12 RMK AO2 T00221050 TSNO
14756KACK ACK20160322044012103/22/16 04:40:31  5-MIN KACK 220940Z AUTO 29013G19KT 10SM CLR 02/M05 A2999 -10 59 -1500 310/13G19 RMK AO2 T00221050 TSNO
14756KACK ACK20160322044512103/22/16 04:45:31  5-MIN KACK 220945Z AUTO 29012G18KT 10SM CLR 02/M05 A2999 -10 59 -1500 310/12G18 RMK AO2 T00221050 TSNO
14756KACK ACK20160322045012203/22/16 04:50:31  5-MIN KACK 220950Z AUTO 29012KT 10SM CLR 02/M05 A3000 -20 59 -1500 300/12 RMK AO2 SLP158 T00221050 TSNO
14756KACK ACK20160322045510503/22/16 04:55:31  5-MIN KACK 220955Z 29015KT 10SM CLR 02/M05 A3000 -20 59 -1500 300/15 RMK AO2 T00221050
14756KACK ACK20160322050010503/22/16 05:00:31  5-MIN KACK 221000Z 28010KT 10SM CLR 02/M05 A3000 -20 61 -1600 300/10 RMK AO2 T00171050
14756KACK ACK20160322050510503/22/16 05:05:31  5-MIN KACK 221005Z 28014KT 10SM CLR 02/M04 A3000 -20 61 -1500 300/14 RMK AO2 T00221044
14756KACK ACK20160322051010503/22/16 05:10:31  5-MIN KACK 221010Z 28012KT 10SM CLR 02/M04 A3000 -20 61 -1500 300/12 RMK AO2 T00221044
14756KACK ACK20160322051510503/22/16 05:15:31  5-MIN KACK 221015Z 29011KT 10SM CLR 02/M05 A3000 -20 59 -1500 300/11 RMK AO2 T00221050
14756KACK ACK20160322052011103/22/16 05:20:31  5-MIN KACK 221020Z 29014G20KT 10SM CLR 02/M05 A3001 -20 59 -1500 300/14G20 RMK AO2 T00221050
14756KACK ACK20160322052511103/22/16 05:25:31  5-MIN KACK 221025Z 28010G20KT 10SM CLR 02/M05 A3001 -30 59 -1500 300/10G20 RMK AO2 T00221050
14756KACK ACK20160322053010503/22/16 05:30:31  5-MIN KACK 221030Z 28013KT 10SM CLR 02/M05 A3001 -30 59 -1500 300/13 RMK AO2 T00221050
14756KACK ACK20160322053510503/22/16 05:35:31  5-MIN KACK 221035Z 28015KT 10SM CLR 02/M05 A3001 -30 59 -1500 300/15 RMK AO2 T00221050
14756KACK ACK20160322054010503/22/16 05:40:31  5-MIN KACK 221040Z 28011KT 10SM CLR 02/M05 A3002 -30 59 -1500 290/11 RMK AO2 T00221050
14756KACK ACK20160322054510503/22/16 05:45:31  5-MIN KACK 221045Z 28013KT 10SM CLR 02/M05 A3002 -40 59 -1500 300/13 RMK AO2 T00221050
14756KACK ACK20160322055011203/22/16 05:50:31  5-MIN KACK 221050Z 28014KT 10SM CLR 02/M05 A3002 -40 59 -1500 300/14 RMK AO2 SLP166 T00221050
14756KACK ACK20160322055510503/22/16 05:55:31  5-MIN KACK 221055Z 29013KT 10SM CLR 02/M05 A3002 -40 59 -1500 300/13 RMK AO2 T00221050
14756KACK ACK20160322060010503/22/16 06:00:31  5-MIN KACK 221100Z 29012KT 10SM CLR 02/M05 A3003 -50 59 -1500 300/12 RMK AO2 T00221050
14756KACK ACK20160322060510503/22/16 06:05:31  5-MIN KACK 221105Z 29012KT 10SM CLR 02/M05 A3003 -50 59 -1500 300/12 RMK AO2 T00221050
14756KACK ACK20160322061011103/22/16 06:10:31  5-MIN KACK 221110Z 29014G19KT 10SM CLR 02/M05 A3003 -50 59 -1500 300/14G19 RMK AO2 T00221050
14756KACK ACK20160322061510503/22/16 06:15:31  5-MIN KACK 221115Z 29011KT 10SM CLR 02/M06 A3004 -50 56 -1500 310/11 RMK AO2 T00221056
14756KACK ACK20160322062010503/22/16 06:20:31  5-MIN KACK 221120Z 29011KT 10SM CLR 02/M06 A3004 -50 56 -1500 300/11 RMK AO2 T00221056
14756KACK ACK20160322062510503/22/16 06:25:31  5-MIN KACK 221125Z 28011KT 10SM CLR 03/M06 A3004 -60 54 -1500 300/11 RMK AO2 T00281056
14756KACK ACK20160322063011103/22/16 06:30:31  5-MIN KACK 221130Z 29014G20KT 10SM CLR 03/M06 A3004 -60 54 -1500 310/14G20 RMK AO2 T00281056
14756KACK ACK20160322063511103/22/16 06:35:31  5-MIN KACK 221135Z 29015G20KT 10SM CLR 03/M06 A3004 -60 54 -1500 300/15G20 RMK AO2 T00281056
14756KACK ACK20160322064010503/22/16 06:40:31  5-MIN KACK 221140Z 28012KT 10SM CLR 03/M06 A3005 -60 54 -1500 300/12 RMK AO2 T00281056
14756KACK ACK20160322064510503/22/16 06:45:31  5-MIN KACK 221145Z 28013KT 10SM CLR 03/M06 A3005 -70 54 -1500 300/13 RMK AO2 T00281056
14756KACK ACK20160322065014203/22/16 06:50:31  5-MIN KACK 221150Z 29017G24KT 10SM CLR 03/M06 A3005 -70 52 -1400 310/17G24 RMK AO2 SLP176 70001 T00331056 10033 20017 53022
14756KACK ACK20160322065511103/22/16 06:55:31  5-MIN KACK 221155Z 29016G24KT 10SM CLR 03/M06 A3005 -70 52 -1400 300/16G24 RMK AO2 T00331056
14756KACK ACK20160322070011103/22/16 07:00:31  5-MIN KACK 221200Z 29014G20KT 10SM CLR 03/M06 A3005 -70 50 -1400 310/14G20 RMK AO2 T00331061
14756KACK ACK20160322070510703/22/16 07:05:31  5-MIN KACK 221205Z 28016KT 10SM CLR 03/M06 A3006 -70 50 -1400 290/16 RMK AO2 T00331061 $
14756KACK ACK20160322071011303/22/16 07:10:31  5-MIN KACK 221210Z 29011G20KT 10SM CLR 03/M06 A3006 -80 52 -1400 300/11G20 RMK AO2 T00331056 $
14756KACK ACK20160322071511303/22/16 07:15:31  5-MIN KACK 221215Z 29014G22KT 10SM CLR 04/M06 A3007 -80 50 -1400 300/14G22 RMK AO2 T00391056 $
14756KACK ACK20160322072011303/22/16 07:20:31  5-MIN KACK 221220Z 29013G22KT 10SM CLR 04/M06 A3007 -80 50 -1400 300/13G22 RMK AO2 T00391056 $
14756KACK ACK20160322072511303/22/16 07:25:31  5-MIN KACK 221225Z 28016G23KT 10SM CLR 04/M06 A3007 -80 48 -1400 300/16G23 RMK AO2 T00391061 $
14756KACK ACK20160322073011303/22/16 07:30:31  5-MIN KACK 221230Z 30015G23KT 10SM CLR 04/M06 A3007 -80 50 -1400 310/15G23 RMK AO2 T00391056 $
14756KACK ACK20160322073511303/22/16 07:35:31  5-MIN KACK 221235Z 29012G21KT 10SM CLR 04/M06 A3007 -90 50 -1400 310/12G21 RMK AO2 T00391056 $
14756KACK ACK20160322074011303/22/16 07:40:31  5-MIN KACK 221240Z 29013G21KT 10SM CLR 04/M06 A3007 -90 48 -1300 300/13G21 RMK AO2 T00441056 $
14756KACK ACK20160322074511303/22/16 07:45:31  5-MIN KACK 221245Z 30016G20KT 10SM CLR 04/M06 A3007 -90 50 -1400 310/16G20 RMK AO2 T00391056 $
14756KACK ACK20160322075011403/22/16 07:50:31  5-MIN KACK 221250Z 30016KT 10SM CLR 04/M06 A3007 -90 48 -1400 310/16 RMK AO2 SLP183 T00391061 $
14756KACK ACK20160322075510703/22/16 07:55:31  5-MIN KACK 221255Z 29018KT 10SM CLR 04/M06 A3007 -90 50 -1400 300/18 RMK AO2 T00391056 $
14756KACK ACK20160322080011303/22/16 08:00:31  5-MIN KACK 221300Z 29016G21KT 10SM CLR 04/M06 A3008 -90 46 -1300 310/16G21 RMK AO2 T00441061 $
14756KACK ACK20160322080510703/22/16 08:05:31  5-MIN KACK 221305Z 29017KT 10SM CLR 04/M06 A3008 -90 46 -1300 310/17 RMK AO2 T00441061 $
14756KACK ACK20160322081011303/22/16 08:10:31  5-MIN KACK 221310Z 29017G22KT 10SM CLR 04/M06 A3008 -90 48 -1300 310/17G22 RMK AO2 T00441056 $
14756KACK ACK20160322081511303/22/16 08:15:31  5-MIN KACK 221315Z 28015G22KT 10SM CLR 04/M06 A3008 -90 48 -1300 300/15G22 RMK AO2 T00441056 $
14756KACK ACK20160322082011303/22/16 08:20:31  5-MIN KACK 221320Z 29016G22KT 10SM CLR 04/M06 A3008 -90 48 -1300 310/16G22 RMK AO2 T00441056 $
14756KACK ACK20160322082511303/22/16 08:25:31  5-MIN KACK 221325Z 27015G22KT 10SM CLR 04/M06 A3008 -90 46 -1300 290/15G22 RMK AO2 T00441061 $
14756KACK ACK20160322083011403/22/16 08:30:31  5-MIN KACK 221330Z 29014G21KT 10SM CLR 04/M06 A3008 -100 48 -1300 300/14G21 RMK AO2 T00441056 $
14756KACK ACK20160322083513003/22/16 08:35:31  5-MIN KACK 221335Z 30013G20KT 260V320 10SM CLR 04/M06 A3009 -100 46 -1300 310/13G20 280V340 RMK AO2 T00441061 $
14756KACK ACK20160322084011703/22/16 08:40:31  5-MIN KACK 221340Z 30013G21KT 10SM FEW039 05/M06 A3009 -100 46 -1300 320/13G21 RMK AO2 T00501056 $
14756KACK ACK20160322084511703/22/16 08:45:31  5-MIN KACK 221345Z 30014G21KT 10SM FEW039 04/M06 A3009 -110 48 -1400 310/14G21 RMK AO2 T00391061 $
14756KACK ACK20160322085012403/22/16 08:50:31  5-MIN KACK 221350Z 29014G21KT 10SM FEW039 04/M06 A3009 -110 46 -1300 310/14G21 RMK AO2 SLP191 T00441061 $
14756KACK ACK20160322085511703/22/16 08:55:31  5-MIN KACK 221355Z 30015G20KT 10SM FEW039 05/M06 A3009 -110 46 -1300 320/15G20 RMK AO2 T00501056 $
14756KACK ACK20160322090011703/22/16 09:00:31  5-MIN KACK 221400Z 29016G22KT 10SM FEW040 05/M06 A3010 -110 44 -1300 310/16G22 RMK AO2 T00501061 $
14756KACK ACK20160322090511703/22/16 09:05:31  5-MIN KACK 221405Z 31017G22KT 10SM FEW040 05/M06 A3010 -110 46 -1300 320/17G22 RMK AO2 T00501056 $
14756KACK ACK20160322091011703/22/16 09:10:31  5-MIN KACK 221410Z 29017G22KT 10SM FEW040 06/M06 A3010 -110 44 -1200 300/17G22 RMK AO2 T00561056 $
14756KACK ACK20160322091511403/22/16 09:15:31  5-MIN KACK 221415Z 30016G23KT 10SM CLR 05/M06 A3010 -110 44 -1300 320/16G23 RMK AO2 T00501061 $
14756KACK ACK20160322092011403/22/16 09:20:31  5-MIN KACK 221420Z 30017G23KT 10SM CLR 05/M06 A3010 -110 44 -1300 320/17G23 RMK AO2 T00501061 $
14756KACK ACK20160322092511403/22/16 09:25:31  5-MIN KACK 221425Z 30018G23KT 10SM CLR 05/M06 A3010 -110 44 -1300 320/18G23 RMK AO2 T00501061 $
14756KACK ACK20160322093011403/22/16 09:30:31  5-MIN KACK 221430Z 29016G23KT 10SM CLR 05/M07 A3010 -110 42 -1300 300/16G23 RMK AO2 T00501067 $
14756KACK ACK20160322093510803/22/16 09:35:31  5-MIN KACK 221435Z 30014KT 10SM CLR 06/M06 A3010 -110 43 -1200 320/14 RMK AO2 T00561061 $
14756KACK ACK20160322094010803/22/16 09:40:31  5-MIN KACK 221440Z 31016KT 10SM CLR 06/M06 A3010 -120 44 -1200 320/16 RMK AO2 T00561056 $
14756KACK ACK20160322094511403/22/16 09:45:31  5-MIN KACK 221445Z 29021G24KT 10SM CLR 06/M06 A3010 -110 44 -1200 310/21G24 RMK AO2 T00561056 $
14756KACK ACK20160322095012703/22/16 09:50:31  5-MIN KACK 221450Z 29017G25KT 10SM CLR 06/M06 A3010 -120 43 -1200 300/17G25 RMK AO2 SLP194 T00561061 53027 $
14756KACK ACK20160322095511403/22/16 09:55:31  5-MIN KACK 221455Z 30019G25KT 10SM CLR 06/M06 A3010 -120 43 -1200 320/19G25 RMK AO2 T00561061 $
14756KACK ACK20160322100010803/22/16 10:00:31  5-MIN KACK 221500Z 29017KT 10SM CLR 06/M06 A3011 -120 43 -1200 310/17 RMK AO2 T00561061 $
14756KACK ACK20160322100510803/22/16 10:05:31  5-MIN KACK 221505Z 31014KT 10SM CLR 06/M06 A3011 -120 43 -1200 320/14 RMK AO2 T00561061 $
14756KACK ACK20160322101011403/22/16 10:10:31  5-MIN KACK 221510Z 31018G22KT 10SM CLR 06/M06 A3011 -120 43 -1200 320/18G22 RMK AO2 T00561061 $
14756KACK ACK20160322101511403/22/16 10:15:31  5-MIN KACK 221515Z 31017G24KT 10SM CLR 06/M07 A3011 -120 41 -1200 320/17G24 RMK AO2 T00561067 $
14756KACK ACK20160322102011403/22/16 10:20:31  5-MIN KACK 221520Z 30016G24KT 10SM CLR 06/M07 A3011 -120 39 -1100 320/16G24 RMK AO2 T00611067 $
14756KACK ACK20160322102511403/22/16 10:25:31  5-MIN KACK 221525Z 30015G23KT 10SM CLR 06/M06 A3011 -120 41 -1100 310/15G23 RMK AO2 T00611061 $
14756KACK ACK20160322103011403/22/16 10:30:31  5-MIN KACK 221530Z 28015G20KT 10SM CLR 06/M06 A3011 -120 41 -1100 300/15G20 RMK AO2 T00611061 $
14756KACK ACK20160322103511403/22/16 10:35:31  5-MIN KACK 221535Z 29015G22KT 10SM CLR 06/M06 A3011 -120 41 -1100 310/15G22 RMK AO2 T00611061 $
14756KACK ACK20160322104011403/22/16 10:40:31  5-MIN KACK 221540Z 28015G22KT 10SM CLR 07/M07 A3011 -120 38 -1100 290/15G22 RMK AO2 T00671067 $
14756KACK ACK20160322104513203/22/16 10:45:31  5-MIN KACK 221545Z 27019G27KT 10SM CLR 06/M07 A3011 -120 38 -1100 280/19G27 RMK AO2 PK WND 26027/1545 T00611072 $
14756KACK ACK20160322105013903/22/16 10:50:31  5-MIN KACK 221550Z 28012G27KT 10SM CLR 07/M07 A3011 -120 38 -1100 300/12G27 RMK AO2 PK WND 26027/1545 SLP196 T00671067 $
14756KACK ACK20160322105511403/22/16 10:55:31  5-MIN KACK 221555Z 28018G23KT 10SM CLR 07/M07 A3011 -120 36 -1000 300/18G23 RMK AO2 T00721067 $
14756KACK ACK20160322110011403/22/16 11:00:31  5-MIN KACK 221600Z 27020G25KT 10SM CLR 07/M07 A3011 -120 38 -1100 290/20G25 RMK AO2 T00671067 $
14756KACK ACK20160322110511403/22/16 11:05:31  5-MIN KACK 221605Z 27019G25KT 10SM CLR 07/M07 A3011 -120 38 -1100 290/19G25 RMK AO2 T00671067 $
14756KACK ACK20160322111013203/22/16 11:10:31  5-MIN KACK 221610Z 27021G28KT 10SM CLR 06/M07 A3011 -120 38 -1100 280/21G28 RMK AO2 PK WND 27028/1608 T00611072 $
14756KACK ACK20160322111513203/22/16 11:15:31  5-MIN KACK 221615Z 26017G28KT 10SM CLR 06/M07 A3011 -120 39 -1100 280/17G28 RMK AO2 PK WND 27028/1608 T00611067 $
14756KACK ACK20160322112013203/22/16 11:20:31  5-MIN KACK 221620Z 26019G24KT 10SM CLR 07/M07 A3011 -120 36 -1100 280/19G24 RMK AO2 PK WND 27028/1608 T00671072 $
14756KACK ACK20160322112513203/22/16 11:25:31  5-MIN KACK 221625Z 27018G24KT 10SM CLR 06/M07 A3011 -120 38 -1100 280/18G24 RMK AO2 PK WND 27028/1608 T00611072 $
14756KACK ACK20160322113013203/22/16 11:30:31  5-MIN KACK 221630Z 27019G26KT 10SM CLR 07/M07 A3011 -120 36 -1100 280/19G26 RMK AO2 PK WND 27028/1608 T00671072 $
14756KACK ACK20160322113513203/22/16 11:35:31  5-MIN KACK 221635Z 25022G27KT 10SM CLR 07/M07 A3011 -120 38 -1100 270/22G27 RMK AO2 PK WND 27028/1608 T00671067 $
14756KACK ACK20160322114013203/22/16 11:40:31  5-MIN KACK 221640Z 28019G27KT 10SM CLR 07/M07 A3010 -120 38 -1100 290/19G27 RMK AO2 PK WND 27028/1608 T00671067 $
14756KACK ACK20160322114513203/22/16 11:45:31  5-MIN KACK 221645Z 28019G26KT 10SM CLR 07/M07 A3010 -110 36 -1100 290/19G26 RMK AO2 PK WND 27028/1608 T00671072 $
14756KACK ACK20160322115013903/22/16 11:50:31  5-MIN KACK 221650Z 25019G26KT 10SM CLR 07/M07 A3010 -110 36 -1100 270/19G26 RMK AO2 PK WND 27028/1608 SLP193 T00671072 $
14756KACK ACK20160322115511403/22/16 11:55:31  5-MIN KACK 221655Z 27018G27KT 10SM CLR 06/M07 A3010 -110 38 -1100 290/18G27 RMK AO2 T00611072 $
14756KACK ACK20160322120013203/22/16 12:00:31  5-MIN KACK 221700Z 27020G27KT 10SM CLR 07/M07 A3010 -110 38 -1100 280/20G27 RMK AO2 PK WND 28026/1700 T00671067 $
14756KACK ACK20160322120513203/22/16 12:05:31  5-MIN KACK 221705Z 28019G26KT 10SM CLR 07/M07 A3010 -110 36 -1100 290/19G26 RMK AO2 PK WND 28026/1700 T00671072 $
14756KACK ACK20160322121013203/22/16 12:10:31  5-MIN KACK 221710Z 26018G27KT 10SM CLR 07/M07 A3010 -110 38 -1100 280/18G27 RMK AO2 PK WND 28027/1708 T00671067 $
14756KACK ACK20160322121513203/22/16 12:15:31  5-MIN KACK 221715Z 27018G27KT 10SM CLR 07/M07 A3010 -110 38 -1100 290/18G27 RMK AO2 PK WND 28027/1708 T00671067 $
14756KACK ACK20160322122013203/22/16 12:20:31  5-MIN KACK 221720Z 24016G27KT 10SM CLR 07/M06 A3009 -110 39 -1100 260/16G27 RMK AO2 PK WND 28027/1708 T00671061 $
14756KACK ACK20160322122513203/22/16 12:25:31  5-MIN KACK 221725Z 27016G24KT 10SM CLR 07/M06 A3009 -100 39 -1000 280/16G24 RMK AO2 PK WND 28027/1708 T00671061 $
14756KACK ACK20160322123013203/22/16 12:30:31  5-MIN KACK 221730Z 27021G29KT 10SM CLR 07/M07 A3009 -100 38 -1000 280/21G29 RMK AO2 PK WND 27029/1730 T00671067 $
14756KACK ACK20160322123513203/22/16 12:35:31  5-MIN KACK 221735Z 26020G29KT 10SM CLR 07/M06 A3009 -100 41 -1000 280/20G29 RMK AO2 PK WND 27029/1730 T00671056 $
14756KACK ACK20160322124013203/22/16 12:40:31  5-MIN KACK 221740Z 26022G28KT 10SM CLR 07/M06 A3009 -100 39 -1000 270/22G28 RMK AO2 PK WND 27029/1730 T00671061 $
14756KACK ACK20160322124513203/22/16 12:45:31  5-MIN KACK 221745Z 25022G28KT 10SM CLR 06/M06 A3009 -100 41 -1100 270/22G28 RMK AO2 PK WND 27029/1730 T00611061 $
14756KACK ACK20160322125015703/22/16 12:50:31  5-MIN KACK 221750Z 26019G28KT 10SM CLR 07/M06 A3009 -100 39 -1000 280/19G28 RMK AO2 PK WND 27029/1730 SLP188 T00671061 10072 20033 51017 $
14756KACK ACK20160322125511403/22/16 12:55:31  5-MIN KACK 221755Z 26019G26KT 10SM CLR 07/M06 A3009 -100 39 -1000 270/19G26 RMK AO2 T00671061 $
14756KACK ACK20160322130011403/22/16 13:00:31  5-MIN KACK 221800Z 27020G25KT 10SM CLR 07/M06 A3009 -100 39 -1000 280/20G25 RMK AO2 T00671061 $
14756KACK ACK20160322130513203/22/16 13:05:31  5-MIN KACK 221805Z 26022G26KT 10SM CLR 07/M06 A3008 -100 41 -1000 270/22G26 RMK AO2 PK WND 26026/1804 T00671056 $
14756KACK ACK20160322131013103/22/16 13:10:31  5-MIN KACK 221810Z 26020G28KT 10SM CLR 07/M06 A3008 -90 39 -1000 280/20G28 RMK AO2 PK WND 26028/1807 T00671061 $
14756KACK ACK20160322131513103/22/16 13:15:31  5-MIN KACK 221815Z 26020G28KT 10SM CLR 07/M06 A3008 -90 41 -1000 280/20G28 RMK AO2 PK WND 27028/1813 T00671056 $
14756KACK ACK20160322132013103/22/16 13:20:31  5-MIN KACK 221820Z 26022G28KT 10SM CLR 07/M06 A3008 -90 41 -1000 270/22G28 RMK AO2 PK WND 27028/1813 T00671056 $
14756KACK ACK20160322132513103/22/16 13:25:31  5-MIN KACK 221825Z 26022G28KT 10SM CLR 07/M06 A3008 -90 41 -1000 270/22G28 RMK AO2 PK WND 25028/1825 T00671056 $
14756KACK ACK20160322133013103/22/16 13:30:31  5-MIN KACK 221830Z 25022G28KT 10SM CLR 07/M06 A3008 -90 41 -1000 270/22G28 RMK AO2 PK WND 25028/1827 T00671056 $
14756KACK ACK20160322133513103/22/16 13:35:31  5-MIN KACK 221835Z 25020G28KT 10SM CLR 07/M05 A3008 -90 43 -1000 260/20G28 RMK AO2 PK WND 25028/1827 T00671050 $
14756KACK ACK20160322134013103/22/16 13:40:31  5-MIN KACK 221840Z 26022G30KT 10SM CLR 07/M05 A3007 -90 43 -1000 280/22G30 RMK AO2 PK WND 27030/1840 T00671050 $
14756KACK ACK20160322134513103/22/16 13:45:31  5-MIN KACK 221845Z 26021G30KT 10SM CLR 07/M06 A3007 -80 39 -1000 280/21G30 RMK AO2 PK WND 27030/1840 T00671061 $
14756KACK ACK20160322135013803/22/16 13:50:31  5-MIN KACK 221850Z 25022G28KT 10SM CLR 07/M04 A3007 -80 43 -1000 260/22G28 RMK AO2 PK WND 27030/1840 SLP182 T00721044 $
14756KACK ACK20160322135514103/22/16 13:55:31  5-MIN KACK 221855Z AUTO 27025G31KT 10SM CLR 07/M04 A3007 -80 43 -1000 280/25G31 RMK AO2 PK WND 27031/1854 T00721044 TSNO $
14756KACK ACK20160322140013103/22/16 14:00:31  5-MIN KACK 221900Z 25023G31KT 10SM CLR 07/M06 A3007 -80 41 -1000 270/23G31 RMK AO2 PK WND 27031/1854 T00671056 $
14756KACK ACK20160322140513103/22/16 14:05:31  5-MIN KACK 221905Z 26024G30KT 10SM CLR 07/M05 A3007 -90 41 -1000 280/24G30 RMK AO2 PK WND 27031/1854 T00721050 $
14756KACK ACK20160322141013103/22/16 14:10:31  5-MIN KACK 221910Z 26023G30KT 10SM CLR 07/M04 A3007 -90 43 -1000 270/23G30 RMK AO2 PK WND 27031/1854 T00721044 $
14756KACK ACK20160322141513103/22/16 14:15:31  5-MIN KACK 221915Z 25023G29KT 10SM CLR 07/M04 A3008 -90 45 -1000 270/23G29 RMK AO2 PK WND 27031/1854 T00671044 $
14756KACK ACK20160322142013103/22/16 14:20:31  5-MIN KACK 221920Z 25020G28KT 10SM CLR 07/M05 A3008 -90 41 -1000 260/20G28 RMK AO2 PK WND 27031/1854 T00721050 $
14756KACK ACK20160322142513103/22/16 14:25:31  5-MIN KACK 221925Z 24019G26KT 10SM CLR 07/M05 A3008 -90 41 -1000 250/19G26 RMK AO2 PK WND 27031/1854 T00721050 $
14756KACK ACK20160322143013103/22/16 14:30:31  5-MIN KACK 221930Z 24016G25KT 10SM CLR 07/M04 A3007 -90 43 -1000 260/16G25 RMK AO2 PK WND 27031/1854 T00721044 $
14756KACK ACK20160322143513103/22/16 14:35:31  5-MIN KACK 221935Z 24021G27KT 10SM CLR 07/M04 A3007 -90 43 -1000 260/21G27 RMK AO2 PK WND 27031/1854 T00721044 $
14756KACK ACK20160322144013103/22/16 14:40:31  5-MIN KACK 221940Z 26021G27KT 10SM CLR 07/M04 A3007 -80 43 -1000 270/21G27 RMK AO2 PK WND 27031/1854 T00721044 $
14756KACK ACK20160322144513103/22/16 14:45:31  5-MIN KACK 221945Z 24022G26KT 10SM CLR 07/M04 A3007 -90 43 -1000 260/22G26 RMK AO2 PK WND 27031/1854 T00721044 $
14756KACK ACK20160322145013803/22/16 14:50:31  5-MIN KACK 221950Z 24017G26KT 10SM CLR 07/M04 A3007 -90 45 -1000 260/17G26 RMK AO2 PK WND 27031/1854 SLP184 T00721039 $
14756KACK ACK20160322145511303/22/16 14:55:31  5-MIN KACK 221955Z 24020G28KT 10SM CLR 07/M04 A3007 -90 47 -1000 250/20G28 RMK AO2 T00671039 $
14756KACK ACK20160322150013103/22/16 15:00:31  5-MIN KACK 222000Z 25022G28KT 10SM CLR 07/M04 A3007 -90 45 -1000 260/22G28 RMK AO2 PK WND 25028/1959 T00721039 $
14756KACK ACK20160322150513103/22/16 15:05:31  5-MIN KACK 222005Z 26023G28KT 10SM CLR 07/M04 A3007 -90 45 -1000 270/23G28 RMK AO2 PK WND 25028/1959 T00721039 $
14756KACK ACK20160322151013103/22/16 15:10:31  5-MIN KACK 222010Z 26019G28KT 10SM CLR 07/M04 A3007 -90 45 -1000 270/19G28 RMK AO2 PK WND 24028/2006 T00721039 $
14756KACK ACK20160322151513103/22/16 15:15:31  5-MIN KACK 222015Z 25023G28KT 10SM CLR 07/M04 A3007 -90 43 -1000 260/23G28 RMK AO2 PK WND 25028/2011 T00721044 $
14756KACK ACK20160322152013103/22/16 15:20:31  5-MIN KACK 222020Z 25019G28KT 10SM CLR 07/M04 A3007 -90 45 -1000 260/19G28 RMK AO2 PK WND 25028/2011 T00721039 $
14756KACK ACK20160322152513103/22/16 15:25:31  5-MIN KACK 222025Z 25021G27KT 10SM CLR 07/M03 A3007 -90 47 -1000 270/21G27 RMK AO2 PK WND 25028/2011 T00721033 $
14756KACK ACK20160322153013103/22/16 15:30:31  5-MIN KACK 222030Z 25023G27KT 10SM CLR 07/M03 A3007 -90 47 -1000 270/23G27 RMK AO2 PK WND 25028/2011 T00721033 $
14756KACK ACK20160322153513103/22/16 15:35:31  5-MIN KACK 222035Z 25022G29KT 10SM CLR 07/M04 A3008 -90 45 -1000 270/22G29 RMK AO2 PK WND 24029/2031 T00721039 $
14756KACK ACK20160322154013103/22/16 15:40:31  5-MIN KACK 222040Z 25020G29KT 10SM CLR 07/M04 A3007 -90 45 -1000 270/20G29 RMK AO2 PK WND 24029/2031 T00721039 $
14756KACK ACK20160322154513103/22/16 15:45:31  5-MIN KACK 222045Z 26018G29KT 10SM CLR 07/M04 A3007 -90 45 -1000 270/18G29 RMK AO2 PK WND 24029/2043 T00721039 $
14756KACK ACK20160322155014403/22/16 15:50:31  5-MIN KACK 222050Z 25019G29KT 10SM CLR 07/M03 A3007 -90 47 -1000 260/19G29 RMK AO2 PK WND 24029/2043 SLP184 T00721033 58006 $
14756KACK ACK20160322155513103/22/16 15:55:31  5-MIN KACK 222055Z 25015G26KT 10SM CLR 07/M03 A3007 -90 47 -1000 260/15G26 RMK AO2 PK WND 24026/2055 T00721033 $
14756KACK ACK20160322160013103/22/16 16:00:31  5-MIN KACK 222100Z 25019G26KT 10SM CLR 07/M02 A3008 -90 51 -1000 260/19G26 RMK AO2 PK WND 24026/2058 T00721022 $
14756KACK ACK20160322160513103/22/16 16:05:31  5-MIN KACK 222105Z 25021G29KT 10SM CLR 07/M02 A3008 -90 51 -1000 270/21G29 RMK AO2 PK WND 25029/2105 T00721022 $
14756KACK ACK20160322161013103/22/16 16:10:31  5-MIN KACK 222110Z 25020G29KT 10SM CLR 07/M03 A3008 -90 51 -1000 260/20G29 RMK AO2 PK WND 25029/2105 T00671028 $
14756KACK ACK20160322161513103/22/16 16:15:31  5-MIN KACK 222115Z 25021G28KT 10SM CLR 07/M02 A3008 -90 51 -1000 260/21G28 RMK AO2 PK WND 25029/2105 T00721022 $
14756KACK ACK20160322162013203/22/16 16:20:31  5-MIN KACK 222120Z 24018G26KT 10SM CLR 07/M02 A3008 -100 55 -1000 260/18G26 RMK AO2 PK WND 25029/2105 T00671017 $
14756KACK ACK20160322162513103/22/16 16:25:31  5-MIN KACK 222125Z 24020G26KT 10SM CLR 07/M02 A3008 -90 55 -1000 260/20G26 RMK AO2 PK WND 25029/2105 T00671017 $
14756KACK ACK20160322163013103/22/16 16:30:31  5-MIN KACK 222130Z 24019G26KT 10SM CLR 07/M02 A3008 -90 55 -1000 260/19G26 RMK AO2 PK WND 25029/2105 T00671017 $
14756KACK ACK20160322163513103/22/16 16:35:31  5-MIN KACK 222135Z 24020G26KT 10SM CLR 07/M01 A3008 -90 57 -1000 260/20G26 RMK AO2 PK WND 25029/2105 T00671011 $
14756KACK ACK20160322164012503/22/16 16:40:31  5-MIN KACK 222140Z 24021KT 10SM CLR 07/M02 A3008 -90 55 -1000 260/21 RMK AO2 PK WND 25029/2105 T00671017 $
14756KACK ACK20160322164512603/22/16 16:45:31  5-MIN KACK 222145Z 24021KT 10SM CLR 07/M01 A3008 -100 57 -1000 260/21 RMK AO2 PK WND 25029/2105 T00671011 $
14756KACK ACK20160322165013303/22/16 16:50:31  5-MIN KACK 222150Z 24021KT 10SM CLR 06/M02 A3008 -100 57 -1100 250/21 RMK AO2 PK WND 25029/2105 SLP187 T00611017 $
14756KACK ACK20160322165512603/22/16 16:55:31  5-MIN KACK 222155Z 24020KT 10SM CLR 06/M01 A3008 -100 60 -1100 250/20 RMK AO2 PK WND 24026/2155 T00611011 $
14756KACK ACK20160322170013203/22/16 17:00:31  5-MIN KACK 222200Z 24021G26KT 10SM CLR 06/M01 A3008 -100 60 -1100 260/21G26 RMK AO2 PK WND 24026/2155 T00611011 $
14756KACK ACK20160322170512603/22/16 17:05:31  5-MIN KACK 222205Z 24020KT 10SM CLR 06/M01 A3009 -100 60 -1100 250/20 RMK AO2 PK WND 24026/2155 T00611011 $
14756KACK ACK20160322171012603/22/16 17:10:31  5-MIN KACK 222210Z 23020KT 10SM CLR 06/M01 A3009 -100 62 -1100 250/20 RMK AO2 PK WND 24026/2155 T00611006 $
14756KACK ACK20160322171512603/22/16 17:15:31  5-MIN KACK 222215Z 24019KT 10SM CLR 06/M01 A3009 -100 60 -1100 250/19 RMK AO2 PK WND 24026/2155 T00611011 $
14756KACK ACK20160322172012603/22/16 17:20:31  5-MIN KACK 222220Z 24019KT 10SM CLR 06/M01 A3009 -100 62 -1100 250/19 RMK AO2 PK WND 24026/2155 T00611006 $
14756KACK ACK20160322172512603/22/16 17:25:31  5-MIN KACK 222225Z 24019KT 10SM CLR 06/M01 A3009 -100 60 -1100 250/19 RMK AO2 PK WND 24026/2155 T00611011 $
14756KACK ACK20160322173012603/22/16 17:30:31  5-MIN KACK 222230Z 24019KT 10SM CLR 06/M01 A3009 -100 62 -1100 250/19 RMK AO2 PK WND 24026/2155 T00611006 $
14756KACK ACK20160322173512603/22/16 17:35:31  5-MIN KACK 222235Z 23020KT 10SM CLR 06/M01 A3009 -100 62 -1100 250/20 RMK AO2 PK WND 24026/2155 T00611006 $
14756KACK ACK20160322174013203/22/16 17:40:31  5-MIN KACK 222240Z 24020G25KT 10SM CLR 06/M01 A3009 -100 62 -1100 250/20G25 RMK AO2 PK WND 24026/2155 T00611006 $
14756KACK ACK20160322174513203/22/16 17:45:31  5-MIN KACK 222245Z 24017G25KT 10SM CLR 06/M01 A3009 -110 62 -1200 250/17G25 RMK AO2 PK WND 24026/2155 T00561011 $
14756KACK ACK20160322175013303/22/16 17:50:31  5-MIN KACK 222250Z 24016KT 10SM CLR 06/M01 A3009 -110 65 -1200 250/16 RMK AO2 PK WND 24026/2155 SLP190 T00561006 $
14756KACK ACK20160322175510803/22/16 17:55:31  5-MIN KACK 222255Z 24017KT 10SM CLR 06/M01 A3009 -100 65 -1200 250/17 RMK AO2 T00561006 $
14756KACK ACK20160322180010803/22/16 18:00:31  5-MIN KACK 222300Z 23019KT 10SM CLR 06/M01 A3009 -110 65 -1200 250/19 RMK AO2 T00561006 $
14756KACK ACK20160322180510803/22/16 18:05:31  5-MIN KACK 222305Z 23018KT 10SM CLR 06/M01 A3010 -110 65 -1200 250/18 RMK AO2 T00561006 $
14756KACK ACK20160322181010803/22/16 18:10:31  5-MIN KACK 222310Z 24019KT 10SM CLR 06/M01 A3010 -110 65 -1200 250/19 RMK AO2 T00561006 $
14756KACK ACK20160322181510803/22/16 18:15:31  5-MIN KACK 222315Z 23019KT 10SM CLR 06/M01 A3009 -110 62 -1100 250/19 RMK AO2 T00611006 $
14756KACK ACK20160322182012503/22/16 18:20:31  5-MIN KACK 222320Z 24020KT 10SM CLR 06/00 A3009 -100 65 -1100 250/20 RMK AO2 PK WND 24026/2317 T00610000 $
14756KACK ACK20160322182513203/22/16 18:25:31  5-MIN KACK 222325Z 23024G29KT 10SM CLR 06/M01 A3009 -110 62 -1100 250/24G29 RMK AO2 PK WND 23029/2324 T00611006 $
14756KACK ACK20160322183013203/22/16 18:30:31  5-MIN KACK 222330Z 24022G29KT 10SM CLR 06/M01 A3010 -110 62 -1100 250/22G29 RMK AO2 PK WND 23029/2324 T00611006 $
14756KACK ACK20160322183512503/22/16 18:35:31  5-MIN KACK 222335Z 24022KT 10SM CLR 06/00 A3010 -110 65 -1100 250/22 RMK AO2 PK WND 23029/2324 T00610000 $
14756KACK ACK20160322184012503/22/16 18:40:31  5-MIN KACK 222340Z 24021KT 10SM CLR 06/00 A3010 -110 65 -1100 250/21 RMK AO2 PK WND 23029/2324 T00610000 $
14756KACK ACK20160322184513103/22/16 18:45:31  5-MIN KACK 222345Z 23022G26KT 10SM CLR 06/00 A3011 -120 65 -1100 250/22G26 RMK AO2 PK WND 23029/2324 T00610000 $
14756KACK ACK20160322185015003/22/16 18:50:31  5-MIN KACK 222350Z 24022KT 10SM CLR 06/00 A3011 -120 65 -1100 250/22 RMK AO2 PK WND 23029/2324 SLP195 T00610000 10072 20056 56004 $
14756KACK ACK20160322185511303/22/16 18:55:31  5-MIN KACK 222355Z 24021G27KT 10SM CLR 06/00 A3011 -120 65 -1100 260/21G27 RMK AO2 T00610000 $
14756KACK ACK20160322190013203/22/16 19:00:31  5-MIN KACK 230000Z 24020G28KT 10SM CLR 06/M01 A3011 -120 62 -1100 250/20G28 RMK AO2 PK WND 24028/2357 T00611006 $
14756KACK ACK20160322190513103/22/16 19:05:31  5-MIN KACK 230005Z 23019G28KT 10SM CLR 06/00 A3011 -120 65 -1100 250/19G28 RMK AO2 PK WND 24028/2357 T00610000 $
14756KACK ACK20160322191012503/22/16 19:10:31  5-MIN KACK 230010Z 23019KT 10SM CLR 06/00 A3011 -120 65 -1100 250/19 RMK AO2 PK WND 24028/2357 T00610000 $
14756KACK ACK20160322191512503/22/16 19:15:31  5-MIN KACK 230015Z 23020KT 10SM CLR 06/00 A3011 -120 65 -1100 250/20 RMK AO2 PK WND 24028/2357 T00610000 $
14756KACK ACK20160322192012503/22/16 19:20:31  5-MIN KACK 230020Z 23018KT 10SM CLR 06/00 A3011 -120 65 -1100 250/18 RMK AO2 PK WND 24028/2357 T00610000 $
14756KACK ACK20160322192512503/22/16 19:25:31  5-MIN KACK 230025Z 23018KT 10SM CLR 06/01 A3011 -120 67 -1100 250/18 RMK AO2 PK WND 24028/2357 T00610006 $
14756KACK ACK20160322193012503/22/16 19:30:31  5-MIN KACK 230030Z 23017KT 10SM CLR 06/01 A3011 -120 67 -1100 250/17 RMK AO2 PK WND 24028/2357 T00610006 $
14756KACK ACK20160322193512503/22/16 19:35:31  5-MIN KACK 230035Z 23017KT 10SM CLR 06/01 A3012 -130 67 -1100 250/17 RMK AO2 PK WND 24028/2357 T00610006 $
14756KACK ACK20160322194012503/22/16 19:40:31  5-MIN KACK 230040Z 23017KT 10SM CLR 06/01 A3012 -130 67 -1100 250/17 RMK AO2 PK WND 24028/2357 T00610006 $
14756KACK ACK20160322194512503/22/16 19:45:31  5-MIN KACK 230045Z 23017KT 10SM CLR 06/01 A3011 -120 67 -1100 250/17 RMK AO2 PK WND 24028/2357 T00610006 $
14756KACK ACK20160322195013203/22/16 19:50:31  5-MIN KACK 230050Z 23018KT 10SM CLR 06/01 A3011 -120 67 -1100 240/18 RMK AO2 PK WND 24028/2357 SLP197 T00610006 $
14756KACK ACK20160322195510703/22/16 19:55:31  5-MIN KACK 230055Z 23017KT 10SM CLR 06/01 A3011 -120 70 -1100 240/17 RMK AO2 T00610011 $
14756KACK ACK20160322200010703/22/16 20:00:31  5-MIN KACK 230100Z 23017KT 10SM CLR 06/01 A3011 -120 70 -1100 240/17 RMK AO2 T00610011 $
14756KACK ACK20160322200510703/22/16 20:05:31  5-MIN KACK 230105Z 23016KT 10SM CLR 06/01 A3011 -120 70 -1100 240/16 RMK AO2 T00610011 $
14756KACK ACK20160322201011703/22/16 20:10:31  5-MIN KACK 230110Z AUTO 23016KT 10SM CLR 06/01 A3011 -120 70 -1100 240/16 RMK AO2 T00610011 TSNO $
14756KACK ACK20160322201511703/22/16 20:15:31  5-MIN KACK 230115Z AUTO 23017KT 10SM CLR 06/01 A3011 -120 70 -1100 240/17 RMK AO2 T00610011 TSNO $
14756KACK ACK20160322202011703/22/16 20:20:31  5-MIN KACK 230120Z AUTO 23016KT 10SM CLR 06/01 A3011 -120 70 -1100 250/16 RMK AO2 T00610011 TSNO $
14756KACK ACK20160322202511703/22/16 20:25:31  5-MIN KACK 230125Z AUTO 23017KT 10SM CLR 06/01 A3011 -120 70 -1100 240/17 RMK AO2 T00610011 TSNO $
14756KACK ACK20160322203011703/22/16 20:30:31  5-MIN KACK 230130Z AUTO 23013KT 10SM CLR 06/01 A3011 -120 70 -1100 240/13 RMK AO2 T00610011 TSNO $
14756KACK ACK20160322203511703/22/16 20:35:31  5-MIN KACK 230135Z AUTO 22014KT 10SM CLR 06/02 A3010 -110 73 -1100 240/14 RMK AO2 T00610017 TSNO $
14756KACK ACK20160322204011703/22/16 20:40:31  5-MIN KACK 230140Z AUTO 22015KT 10SM CLR 07/02 A3010 -110 70 -1100 240/15 RMK AO2 T00670017 TSNO $
14756KACK ACK20160322204511703/22/16 20:45:31  5-MIN KACK 230145Z AUTO 22014KT 10SM CLR 07/02 A3010 -110 70 -1100 230/14 RMK AO2 T00670017 TSNO $
14756KACK ACK20160322205012403/22/16 20:50:31  5-MIN KACK 230150Z AUTO 22014KT 10SM CLR 07/02 A3010 -110 70 -1100 240/14 RMK AO2 SLP193 T00670017 TSNO $
14756KACK ACK20160322205511703/22/16 20:55:31  5-MIN KACK 230155Z AUTO 22014KT 10SM CLR 07/02 A3010 -110 70 -1100 230/14 RMK AO2 T00670017 TSNO $
14756KACK ACK20160322210011703/22/16 21:00:31  5-MIN KACK 230200Z AUTO 22012KT 10SM CLR 07/02 A3010 -110 70 -1100 230/12 RMK AO2 T00670017 TSNO $
14756KACK ACK20160322210511703/22/16 21:05:31  5-MIN KACK 230205Z AUTO 22013KT 10SM CLR 07/02 A3010 -110 73 -1100 230/13 RMK AO2 T00670022 TSNO $
14756KACK ACK20160322211011703/22/16 21:10:31  5-MIN KACK 230210Z AUTO 22013KT 10SM CLR 07/02 A3010 -110 73 -1100 230/13 RMK AO2 T00670022 TSNO $
14756KACK ACK20160322211511703/22/16 21:15:31  5-MIN KACK 230215Z AUTO 22012KT 10SM CLR 07/02 A3010 -110 73 -1100 230/12 RMK AO2 T00670022 TSNO $
14756KACK ACK20160322212011703/22/16 21:20:31  5-MIN KACK 230220Z AUTO 22013KT 10SM CLR 07/02 A3010 -110 73 -1100 230/13 RMK AO2 T00670022 TSNO $
14756KACK ACK20160322212511703/22/16 21:25:31  5-MIN KACK 230225Z AUTO 22012KT 10SM CLR 07/02 A3009 -110 73 -1100 230/12 RMK AO2 T00670022 TSNO $
14756KACK ACK20160322213011703/22/16 21:30:31  5-MIN KACK 230230Z AUTO 22013KT 10SM CLR 07/02 A3010 -110 70 -1000 230/13 RMK AO2 T00720022 TSNO $
14756KACK ACK20160322213511703/22/16 21:35:31  5-MIN KACK 230235Z AUTO 22013KT 10SM CLR 07/02 A3010 -110 70 -1000 230/13 RMK AO2 T00720022 TSNO $
14756KACK ACK20160322214011703/22/16 21:40:31  5-MIN KACK 230240Z AUTO 22013KT 10SM CLR 07/02 A3010 -110 70 -1000 230/13 RMK AO2 T00720022 TSNO $
14756KACK ACK20160322214511703/22/16 21:45:31  5-MIN KACK 230245Z AUTO 22013KT 10SM CLR 07/02 A3010 -110 70 -1000 230/13 RMK AO2 T00720022 TSNO $
14756KACK ACK20160322215013603/22/16 21:50:31  5-MIN KACK 230250Z AUTO 22013G19KT 10SM CLR 07/02 A3010 -110 70 -1000 230/13G19 RMK AO2 SLP192 T00720022 53011 TSNO $
14756KACK ACK20160322215511703/22/16 21:55:31  5-MIN KACK 230255Z AUTO 22014KT 10SM CLR 07/03 A3010 -110 73 -1000 230/14 RMK AO2 T00720028 TSNO $
14756KACK ACK20160322220011703/22/16 22:00:31  5-MIN KACK 230300Z AUTO 21013KT 10SM CLR 07/03 A3010 -110 73 -1000 230/13 RMK AO2 T00720028 TSNO $
14756KACK ACK20160322220511703/22/16 22:05:31  5-MIN KACK 230305Z AUTO 22013KT 10SM CLR 07/03 A3010 -110 73 -1000 230/13 RMK AO2 T00720028 TSNO $
14756KACK ACK20160322221011603/22/16 22:10:31  5-MIN KACK 230310Z AUTO 22013KT 10SM CLR 08/03 A3010 -110 70 -900 230/13 RMK AO2 T00780028 TSNO $
14756KACK ACK20160322221511603/22/16 22:15:31  5-MIN KACK 230315Z AUTO 22014KT 10SM CLR 08/03 A3010 -110 70 -900 230/14 RMK AO2 T00780028 TSNO $
14756KACK ACK20160322222011603/22/16 22:20:31  5-MIN KACK 230320Z AUTO 22015KT 10SM CLR 08/03 A3009 -110 70 -900 230/15 RMK AO2 T00780028 TSNO $
14756KACK ACK20160322222511603/22/16 22:25:31  5-MIN KACK 230325Z AUTO 22014KT 10SM CLR 08/03 A3010 -110 70 -900 230/14 RMK AO2 T00780028 TSNO $
14756KACK ACK20160322223011603/22/16 22:30:31  5-MIN KACK 230330Z AUTO 22014KT 10SM CLR 08/03 A3010 -110 70 -900 230/14 RMK AO2 T00780028 TSNO $
14756KACK ACK20160322223511603/22/16 22:35:31  5-MIN KACK 230335Z AUTO 22012KT 10SM CLR 08/03 A3010 -110 70 -900 230/12 RMK AO2 T00780028 TSNO $
14756KACK ACK20160322224011603/22/16 22:40:31  5-MIN KACK 230340Z AUTO 22013KT 10SM CLR 08/03 A3010 -110 73 -900 230/13 RMK AO2 T00780033 TSNO $
14756KACK ACK20160322224511603/22/16 22:45:31  5-MIN KACK 230345Z AUTO 22014KT 10SM CLR 08/03 A3009 -110 73 -900 230/14 RMK AO2 T00780033 TSNO $
14756KACK ACK20160322225012303/22/16 22:50:31  5-MIN KACK 230350Z AUTO 22012KT 10SM CLR 08/03 A3009 -100 73 -900 230/12 RMK AO2 SLP190 T00780033 TSNO $
14756KACK ACK20160322225511603/22/16 22:55:31  5-MIN KACK 230355Z AUTO 22013KT 10SM CLR 08/03 A3009 -100 73 -900 230/13 RMK AO2 T00780033 TSNO $
14756KACK ACK20160322230011603/22/16 23:00:31  5-MIN KACK 230400Z AUTO 22014KT 10SM CLR 08/03 A3009 -100 70 -800 230/14 RMK AO2 T00830033 TSNO $
14756KACK ACK20160322230511603/22/16 23:05:31  5-MIN KACK 230405Z AUTO 22014KT 10SM CLR 08/03 A3009 -100 70 -800 230/14 RMK AO2 T00830033 TSNO $
14756KACK ACK20160322231011603/22/16 23:10:31  5-MIN KACK 230410Z AUTO 21013KT 10SM CLR 08/03 A3009 -100 70 -800 230/13 RMK AO2 T00830033 TSNO $
14756KACK ACK20160322231511603/22/16 23:15:31  5-MIN KACK 230415Z AUTO 21012KT 10SM CLR 08/03 A3008 -100 70 -800 230/12 RMK AO2 T00830033 TSNO $
14756KACK ACK20160322232011503/22/16 23:20:31  5-MIN KACK 230420Z AUTO 21013KT 10SM CLR 08/03 A3008 -90 70 -800 230/13 RMK AO2 T00830033 TSNO $
14756KACK ACK20160322232511503/22/16 23:25:31  5-MIN KACK 230425Z AUTO 21013KT 10SM CLR 08/03 A3008 -90 70 -800 230/13 RMK AO2 T00830033 TSNO $
14756KACK ACK20160322233011503/22/16 23:30:31  5-MIN KACK 230430Z AUTO 22014KT 10SM CLR 08/03 A3008 -90 70 -800 230/14 RMK AO2 T00830033 TSNO $
14756KACK ACK20160322233511503/22/16 23:35:31  5-MIN KACK 230435Z AUTO 22014KT 10SM CLR 08/03 A3008 -90 70 -800 230/14 RMK AO2 T00830033 TSNO $
14756KACK ACK20160322234011503/22/16 23:40:31  5-MIN KACK 230440Z AUTO 22014KT 10SM CLR 08/03 A3008 -90 70 -800 230/14 RMK AO2 T00830033 TSNO $
14756KACK ACK20160322234511803/22/16 23:45:31  5-MIN KACK 230445Z AUTO 22014KT 10SM FEW110 08/03 A3007 -90 70 -800 230/14 RMK AO2 T00830033 TSNO $
14756KACK ACK20160322235013503/22/16 23:50:31  5-MIN KACK 230450Z AUTO 22015KT 10SM SCT110 08/03 A3007 -90 70 -800 230/15 RMK AO2 SLP183 T00830033 400830017 TSNO $
14756KACK ACK20160322235511803/22/16 23:55:31  5-MIN KACK 230455Z AUTO 21014KT 10SM BKN110 08/03 A3007 -80 70 -800 230/14 RMK AO2 T00830033 TSNO $
14756KACK ACK20160323000011803/23/16 00:00:31  5-MIN KACK 230500Z AUTO 22014KT 10SM BKN110 08/03 A3007 -80 70 -800 230/14 RMK AO2 T00830033 TSNO $
14756KACK ACK20160323000511803/23/16 00:05:31  5-MIN KACK 230505Z AUTO 21015KT 10SM BKN110 08/03 A3007 -80 70 -800 230/15 RMK AO2 T00830033 TSNO $
14756KACK ACK20160323001011803/23/16 00:10:31  5-MIN KACK 230510Z AUTO 22014KT 10SM OVC110 08/03 A3007 -80 70 -800 230/14 RMK AO2 T00830033 TSNO $
14756KACK ACK20160323001511803/23/16 00:15:31  5-MIN KACK 230515Z AUTO 22014KT 10SM OVC110 08/03 A3006 -80 70 -800 230/14 RMK AO2 T00830033 TSNO $
14756KACK ACK20160323002011803/23/16 00:20:31  5-MIN KACK 230520Z AUTO 22014KT 10SM OVC110 08/03 A3006 -80 70 -800 230/14 RMK AO2 T00830033 TSNO $
14756KACK ACK20160323002512503/23/16 00:25:31  5-MIN KACK 230525Z AUTO 22013KT 10SM BKN100 OVC110 08/03 A3007 -80 70 -800 230/13 RMK AO2 T00830033 TSNO $
14756KACK ACK20160323003012503/23/16 00:30:31  5-MIN KACK 230530Z AUTO 22014KT 10SM BKN095 OVC110 08/03 A3007 -80 70 -800 230/14 RMK AO2 T00830033 TSNO $
14756KACK ACK20160323003511803/23/16 00:35:31  5-MIN KACK 230535Z AUTO 22013KT 10SM OVC095 08/03 A3007 -80 70 -800 230/13 RMK AO2 T00830033 TSNO $
14756KACK ACK20160323004011803/23/16 00:40:31  5-MIN KACK 230540Z AUTO 22012KT 10SM OVC090 08/03 A3006 -80 70 -800 230/12 RMK AO2 T00830033 TSNO $
14756KACK ACK20160323004511803/23/16 00:45:31  5-MIN KACK 230545Z AUTO 22012KT 10SM OVC090 08/03 A3006 -80 70 -800 230/12 RMK AO2 T00830033 TSNO $
14756KACK ACK20160323005014303/23/16 00:50:31  5-MIN KACK 230550Z AUTO 21010KT 10SM OVC085 08/04 A3006 -80 73 -800 230/10 RMK AO2 SLP180 T00830039 10083 20061 58002 TSNO $
14756KACK ACK20160323005511803/23/16 00:55:31  5-MIN KACK 230555Z AUTO 22010KT 10SM OVC085 08/04 A3006 -70 73 -800 230/10 RMK AO2 T00830039 TSNO $
14756KACK ACK20160323010011803/23/16 01:00:31  5-MIN KACK 230600Z AUTO 22011KT 10SM OVC085 08/04 A3006 -70 73 -800 230/11 RMK AO2 T00830039 TSNO $
14756KACK ACK20160323010511803/23/16 01:05:31  5-MIN KACK 230605Z AUTO 22011KT 10SM OVC090 08/04 A3005 -70 73 -800 230/11 RMK AO2 T00830039 TSNO $
14756KACK ACK20160323011011803/23/16 01:10:31  5-MIN KACK 230610Z AUTO 22009KT 10SM OVC090 08/04 A3005 -70 73 -800 230/09 RMK AO2 T00830039 TSNO $
14756KACK ACK20160323011511803/23/16 01:15:31  5-MIN KACK 230615Z AUTO 22009KT 10SM OVC090 08/04 A3005 -70 73 -800 240/09 RMK AO2 T00830039 TSNO $
14756KACK ACK20160323012011803/23/16 01:20:31  5-MIN KACK 230620Z AUTO 22010KT 10SM OVC090 08/04 A3005 -60 73 -800 230/10 RMK AO2 T00830039 TSNO $
14756KACK ACK20160323012511803/23/16 01:25:31  5-MIN KACK 230625Z AUTO 22011KT 10SM OVC090 08/04 A3004 -60 73 -800 230/11 RMK AO2 T00830039 TSNO $
14756KACK ACK20160323013011803/23/16 01:30:31  5-MIN KACK 230630Z AUTO 22011KT 10SM OVC090 08/04 A3004 -60 73 -800 230/11 RMK AO2 T00830039 TSNO $
14756KACK ACK20160323013511803/23/16 01:35:31  5-MIN KACK 230635Z AUTO 21010KT 10SM OVC090 08/04 A3003 -50 73 -800 230/10 RMK AO2 T00830039 TSNO $
14756KACK ACK20160323014011803/23/16 01:40:31  5-MIN KACK 230640Z AUTO 21011KT 10SM OVC095 09/04 A3003 -50 71 -700 230/11 RMK AO2 T00890039 TSNO $
14756KACK ACK20160323014511803/23/16 01:45:31  5-MIN KACK 230645Z AUTO 21011KT 10SM OVC095 09/04 A3003 -40 71 -700 230/11 RMK AO2 T00890039 TSNO $
14756KACK ACK20160323015012503/23/16 01:50:31  5-MIN KACK 230650Z AUTO 21011KT 10SM OVC100 09/04 A3002 -40 71 -700 230/11 RMK AO2 SLP167 T00890039 TSNO $
14756KACK ACK20160323015511803/23/16 01:55:31  5-MIN KACK 230655Z AUTO 21011KT 10SM OVC100 09/04 A3002 -40 71 -700 220/11 RMK AO2 T00890039 TSNO $
14756KACK ACK20160323020011803/23/16 02:00:31  5-MIN KACK 230700Z AUTO 21011KT 10SM OVC100 09/04 A3002 -40 71 -700 220/11 RMK AO2 T00890039 TSNO $
14756KACK ACK20160323020511803/23/16 02:05:31  5-MIN KACK 230705Z AUTO 21011KT 10SM OVC100 09/04 A3002 -40 71 -700 220/11 RMK AO2 T00890039 TSNO $
14756KACK ACK20160323021011803/23/16 02:10:31  5-MIN KACK 230710Z AUTO 21011KT 10SM OVC100 09/04 A3002 -40 71 -700 220/11 RMK AO2 T00890039 TSNO $
14756KACK ACK20160323021511803/23/16 02:15:31  5-MIN KACK 230715Z AUTO 21012KT 10SM OVC100 09/04 A3002 -30 71 -700 220/12 RMK AO2 T00890039 TSNO $
14756KACK ACK20160323022011803/23/16 02:20:31  5-MIN KACK 230720Z AUTO 21013KT 10SM OVC100 09/04 A3001 -30 71 -700 220/13 RMK AO2 T00890039 TSNO $
14756KACK ACK20160323022511803/23/16 02:25:31  5-MIN KACK 230725Z AUTO 21012KT 10SM OVC100 09/04 A3001 -30 71 -700 220/12 RMK AO2 T00890039 TSNO $
14756KACK ACK20160323023011803/23/16 02:30:31  5-MIN KACK 230730Z AUTO 21013KT 10SM OVC100 09/04 A3001 -30 71 -700 220/13 RMK AO2 T00890039 TSNO $
14756KACK ACK20160323023511803/23/16 02:35:31  5-MIN KACK 230735Z AUTO 21012KT 10SM OVC100 09/04 A3001 -30 68 -600 220/12 RMK AO2 T00940039 TSNO $
14756KACK ACK20160323024011803/23/16 02:40:31  5-MIN KACK 230740Z AUTO 21013KT 10SM OVC100 09/04 A3001 -30 68 -600 220/13 RMK AO2 T00940039 TSNO $
14756KACK ACK20160323024511803/23/16 02:45:31  5-MIN KACK 230745Z AUTO 21012KT 10SM OVC100 09/04 A3001 -30 71 -700 220/12 RMK AO2 T00890039 TSNO $
14756KACK ACK20160323025012503/23/16 02:50:31  5-MIN KACK 230750Z AUTO 21014KT 10SM OVC100 09/04 A3001 -20 68 -600 220/14 RMK AO2 SLP160 T00940039 TSNO $
14756KACK ACK20160323025511803/23/16 02:55:31  5-MIN KACK 230755Z AUTO 21013KT 10SM OVC095 09/04 A3001 -20 68 -600 230/13 RMK AO2 T00940039 TSNO $
14756KACK ACK20160323030011803/23/16 03:00:31  5-MIN KACK 230800Z AUTO 21011KT 10SM OVC095 09/04 A3001 -20 68 -600 230/11 RMK AO2 T00940039 TSNO $
14756KACK ACK20160323030511803/23/16 03:05:31  5-MIN KACK 230805Z AUTO 21012KT 10SM OVC095 09/04 A3000 -20 71 -700 220/12 RMK AO2 T00890039 TSNO $
14756KACK ACK20160323031011803/23/16 03:10:31  5-MIN KACK 230810Z AUTO 20010KT 10SM OVC095 09/04 A3000 -20 73 -700 220/10 RMK AO2 T00890044 TSNO $
14756KACK ACK20160323031511803/23/16 03:15:31  5-MIN KACK 230815Z AUTO 20009KT 10SM OVC090 09/04 A3000 -20 73 -700 210/09 RMK AO2 T00890044 TSNO $
14756KACK ACK20160323032011803/23/16 03:20:31  5-MIN KACK 230820Z AUTO 20011KT 10SM OVC095 09/04 A3000 -20 73 -700 210/11 RMK AO2 T00890044 TSNO $
14756KACK ACK20160323032511803/23/16 03:25:31  5-MIN KACK 230825Z AUTO 20013KT 10SM OVC095 09/04 A2999 -10 73 -700 210/13 RMK AO2 T00890044 TSNO $
14756KACK ACK20160323033011803/23/16 03:30:31  5-MIN KACK 230830Z AUTO 20012KT 10SM OVC100 09/04 A2999 -10 73 -700 210/12 RMK AO2 T00890044 TSNO $
14756KACK ACK20160323033511803/23/16 03:35:31  5-MIN KACK 230835Z AUTO 19011KT 10SM OVC100 09/04 A2999 -10 73 -700 210/11 RMK AO2 T00890044 TSNO $
14756KACK ACK20160323034011803/23/16 03:40:31  5-MIN KACK 230840Z AUTO 20012KT 10SM OVC100 09/05 A2999 -10 76 -700 220/12 RMK AO2 T00890050 TSNO $
14756KACK ACK20160323034511803/23/16 03:45:31  5-MIN KACK 230845Z AUTO 20013KT 10SM OVC100 09/05 A2999 -10 74 -600 220/13 RMK AO2 T00940050 TSNO $
14756KACK ACK20160323035012903/23/16 03:50:31  5-MIN KACK 230850Z AUTO 20015KT 10SM OVC100 09/05 A2998 0 74 -600 210/15 RMK AO2 SLP153 T00940050 58014 TSNO $
14756KACK ACK20160323035511603/23/16 03:55:31  5-MIN KACK 230855Z AUTO 20013KT 10SM OVC100 09/05 A2998 0 74 -600 210/13 RMK AO2 T00940050 TSNO $
14756KACK ACK20160323040011603/23/16 04:00:31  5-MIN KACK 230900Z AUTO 20013KT 10SM OVC100 09/05 A2998 0 76 -700 210/13 RMK AO2 T00890050 TSNO $
14756KACK ACK20160323040511603/23/16 04:05:31  5-MIN KACK 230905Z AUTO 20014KT 10SM OVC100 09/05 A2998 0 74 -600 220/14 RMK AO2 T00940050 TSNO $
14756KACK ACK20160323041011603/23/16 04:10:31  5-MIN KACK 230910Z AUTO 20014KT 10SM OVC100 09/05 A2998 0 74 -600 220/14 RMK AO2 T00940050 TSNO $
14756KACK ACK20160323041511603/23/16 04:15:31  5-MIN KACK 230915Z AUTO 21011KT 10SM OVC095 09/05 A2997 0 74 -600 220/11 RMK AO2 T00940050 TSNO $
14756KACK ACK20160323042011703/23/16 04:20:31  5-MIN KACK 230920Z AUTO 20014KT 10SM OVC095 09/05 A2997 10 74 -600 220/14 RMK AO2 T00940050 TSNO $
14756KACK ACK20160323042511703/23/16 04:25:31  5-MIN KACK 230925Z AUTO 21015KT 10SM OVC100 09/05 A2996 10 74 -600 220/15 RMK AO2 T00940050 TSNO $
14756KACK ACK20160323043011703/23/16 04:30:31  5-MIN KACK 230930Z AUTO 21015KT 10SM OVC100 09/05 A2996 10 74 -600 220/15 RMK AO2 T00940050 TSNO $
14756KACK ACK20160323043511703/23/16 04:35:31  5-MIN KACK 230935Z AUTO 21013KT 10SM OVC100 09/05 A2996 10 74 -600 220/13 RMK AO2 T00940050 TSNO $
14756KACK ACK20160323044011703/23/16 04:40:31  5-MIN KACK 230940Z AUTO 21015KT 10SM OVC100 09/05 A2996 20 74 -600 230/15 RMK AO2 T00940050 TSNO $
14756KACK ACK20160323044511703/23/16 04:45:31  5-MIN KACK 230945Z AUTO 21015KT 10SM OVC100 09/04 A2995 20 71 -600 230/15 RMK AO2 T00940044 TSNO $
14756KACK ACK20160323045012403/23/16 04:50:31  5-MIN KACK 230950Z AUTO 21015KT 10SM OVC100 09/04 A2995 20 71 -600 230/15 RMK AO2 SLP142 T00940044 TSNO $
14756KACK ACK20160323045511703/23/16 04:55:31  5-MIN KACK 230955Z AUTO 21015KT 10SM OVC100 09/04 A2995 20 71 -600 230/15 RMK AO2 T00940044 TSNO $
14756KACK ACK20160323050011703/23/16 05:00:31  5-MIN KACK 231000Z AUTO 21013KT 10SM OVC100 09/04 A2995 20 71 -600 230/13 RMK AO2 T00940044 TSNO $
14756KACK ACK20160323050511703/23/16 05:05:31  5-MIN KACK 231005Z AUTO 21014KT 10SM OVC095 09/04 A2995 20 71 -600 230/14 RMK AO2 T00940044 TSNO $
14756KACK ACK20160323051011703/23/16 05:10:31  5-MIN KACK 231010Z AUTO 22015KT 10SM OVC090 09/04 A2995 20 71 -500 230/15 RMK AO2 T00940044 TSNO $
14756KACK ACK20160323051511703/23/16 05:15:31  5-MIN KACK 231015Z AUTO 22014KT 10SM OVC095 09/04 A2995 20 71 -500 230/14 RMK AO2 T00940044 TSNO $
14756KACK ACK20160323052011703/23/16 05:20:31  5-MIN KACK 231020Z AUTO 21015KT 10SM OVC090 09/04 A2995 20 71 -500 230/15 RMK AO2 T00940044 TSNO $
14756KACK ACK20160323052512303/23/16 05:25:31  5-MIN KACK 231025Z AUTO 21016G22KT 10SM OVC090 09/04 A2995 20 71 -500 230/16G22 RMK AO2 T00940044 TSNO $
14756KACK ACK20160323053012303/23/16 05:30:31  5-MIN KACK 231030Z AUTO 21016G22KT 10SM OVC090 09/04 A2995 20 71 -500 230/16G22 RMK AO2 T00940044 TSNO $
14756KACK ACK20160323053511703/23/16 05:35:31  5-MIN KACK 231035Z AUTO 21016KT 10SM OVC090 09/04 A2995 20 71 -500 220/16 RMK AO2 T00940044 TSNO $
14756KACK ACK20160323054012303/23/16 05:40:31  5-MIN KACK 231040Z AUTO 22014G21KT 10SM OVC090 09/04 A2995 20 71 -600 230/14G21 RMK AO2 T00940044 TSNO $
14756KACK ACK20160323054511703/23/16 05:45:31  5-MIN KACK 231045Z AUTO 22013KT 10SM OVC090 09/04 A2995 20 71 -600 230/13 RMK AO2 T00940044 TSNO $
14756KACK ACK20160323055012303/23/16 05:50:31  5-MIN KACK 231050Z AUTO 22013KT 9SM OVC090 09/04 A2995 20 71 -600 230/13 RMK AO2 SLP143 T00940044 TSNO $
14756KACK ACK20160323055511603/23/16 05:55:31  5-MIN KACK 231055Z AUTO 23013KT 9SM OVC085 09/04 A2995 20 71 -600 240/13 RMK AO2 T00940044 TSNO $
14756KACK ACK20160323060011603/23/16 06:00:31  5-MIN KACK 231100Z AUTO 24012KT 8SM OVC085 09/05 A2996 20 74 -600 250/12 RMK AO2 T00940050 TSNO $
14756KACK ACK20160323060512303/23/16 06:05:31  5-MIN KACK 231105Z AUTO 23014KT 8SM BKN080 OVC095 09/05 A2996 20 74 -600 240/14 RMK AO2 T00940050 TSNO $
14756KACK ACK20160323061011603/23/16 06:10:31  5-MIN KACK 231110Z AUTO 23013KT 8SM OVC090 09/05 A2996 20 74 -600 240/13 RMK AO2 T00940050 TSNO $
14756KACK ACK20160323061511603/23/16 06:15:31  5-MIN KACK 231115Z AUTO 23014KT 8SM OVC090 09/05 A2996 10 74 -600 240/14 RMK AO2 T00940050 TSNO $
14756KACK ACK20160323062012303/23/16 06:20:31  5-MIN KACK 231120Z AUTO 23014KT 8SM FEW075 OVC095 09/05 A2996 10 74 -600 250/14 RMK AO2 T00940050 TSNO $
14756KACK ACK20160323062511603/23/16 06:25:31  5-MIN KACK 231125Z AUTO 23016KT 8SM OVC095 09/05 A2996 10 74 -600 250/16 RMK AO2 T00940050 TSNO $
14756KACK ACK20160323063011603/23/16 06:30:31  5-MIN KACK 231130Z AUTO 24014KT 8SM OVC095 09/05 A2996 20 74 -600 250/14 RMK AO2 T00940050 TSNO $
14756KACK ACK20160323063511603/23/16 06:35:31  5-MIN KACK 231135Z AUTO 23013KT 8SM OVC095 09/05 A2996 20 74 -600 250/13 RMK AO2 T00940050 TSNO $
14756KACK ACK20160323064011603/23/16 06:40:31  5-MIN KACK 231140Z AUTO 23016KT 8SM OVC100 09/05 A2996 20 74 -600 250/16 RMK AO2 T00940050 TSNO $
14756KACK ACK20160323064511603/23/16 06:45:31  5-MIN KACK 231145Z AUTO 23013KT 7SM OVC090 09/05 A2995 20 74 -600 250/13 RMK AO2 T00940050 TSNO $
14756KACK ACK20160323065014103/23/16 06:50:31  5-MIN KACK 231150Z AUTO 23015KT 7SM OVC090 09/05 A2995 20 74 -600 240/15 RMK AO2 SLP142 T00940050 10094 20083 56027 TSNO $
14756KACK ACK20160323065511603/23/16 06:55:31  5-MIN KACK 231155Z AUTO 23012KT 7SM OVC090 09/05 A2995 20 74 -600 250/12 RMK AO2 T00940050 TSNO $
14756KACK ACK20160323070011603/23/16 07:00:31  5-MIN KACK 231200Z AUTO 23014KT 7SM OVC090 09/05 A2996 20 74 -600 250/14 RMK AO2 T00940050 TSNO $
14756KACK ACK20160323070511603/23/16 07:05:31  5-MIN KACK 231205Z AUTO 23013KT 7SM OVC090 09/05 A2996 20 74 -600 240/13 RMK AO2 T00940050 TSNO $
14756KACK ACK20160323071011603/23/16 07:10:31  5-MIN KACK 231210Z AUTO 24012KT 7SM OVC090 09/05 A2996 20 74 -600 250/12 RMK AO2 T00940050 TSNO $
14756KACK ACK20160323071511903/23/16 07:15:31  5-MIN KACK 231215Z AUTO 23012KT 6SM HZ OVC090 09/05 A2996 10 74 -600 240/12 RMK AO2 T00940050 TSNO $
14756KACK ACK20160323072011603/23/16 07:20:31  5-MIN KACK 231220Z AUTO 23013KT 7SM OVC090 09/05 A2996 20 74 -600 240/13 RMK AO2 T00940050 TSNO $
14756KACK ACK20160323072511603/23/16 07:25:31  5-MIN KACK 231225Z AUTO 23013KT 7SM OVC095 09/05 A2996 10 74 -600 240/13 RMK AO2 T00940050 TSNO $
14756KACK ACK20160323073011603/23/16 07:30:31  5-MIN KACK 231230Z AUTO 23012KT 7SM OVC095 09/05 A2995 20 74 -600 250/12 RMK AO2 T00940050 TSNO $
14756KACK ACK20160323073511603/23/16 07:35:31  5-MIN KACK 231235Z AUTO 23013KT 7SM OVC095 09/06 A2995 20 76 -600 240/13 RMK AO2 T00940056 TSNO $
14756KACK ACK20160323074011603/23/16 07:40:31  5-MIN KACK 231240Z AUTO 23014KT 7SM OVC095 09/06 A2996 20 76 -600 250/14 RMK AO2 T00940056 TSNO $
14756KACK ACK20160323074511603/23/16 07:45:31  5-MIN KACK 231245Z AUTO 23014KT 7SM OVC095 10/06 A2995 20 74 -500 250/14 RMK AO2 T01000056 TSNO $
14756KACK ACK20160323075012303/23/16 07:50:31  5-MIN KACK 231250Z AUTO 23015KT 7SM OVC095 10/06 A2995 20 74 -500 240/15 RMK AO2 SLP143 T01000056 TSNO $
14756KACK ACK20160323075511603/23/16 07:55:31  5-MIN KACK 231255Z AUTO 23014KT 7SM OVC095 10/06 A2995 20 74 -500 240/14 RMK AO2 T01000056 TSNO $
14756KACK ACK20160323080011603/23/16 08:00:31  5-MIN KACK 231300Z AUTO 23014KT 7SM BKN095 10/06 A2995 20 74 -500 240/14 RMK AO2 T01000056 TSNO $
14756KACK ACK20160323080511603/23/16 08:05:31  5-MIN KACK 231305Z AUTO 23014KT 7SM BKN095 10/06 A2995 20 74 -500 250/14 RMK AO2 T01000056 TSNO $
14756KACK ACK20160323081011603/23/16 08:10:31  5-MIN KACK 231310Z AUTO 23014KT 7SM SCT095 10/06 A2995 20 74 -500 240/14 RMK AO2 T01000056 TSNO $
14756KACK ACK20160323081512303/23/16 08:15:31  5-MIN KACK 231315Z AUTO 23014KT 7SM SCT100 SCT120 10/06 A2995 20 74 -500 240/14 RMK AO2 T01000056 TSNO $
14756KACK ACK20160323082012303/23/16 08:20:31  5-MIN KACK 231320Z AUTO 23013KT 7SM FEW100 SCT120 11/06 A2995 20 71 -400 250/13 RMK AO2 T01060056 TSNO $
14756KACK ACK20160323082511603/23/16 08:25:31  5-MIN KACK 231325Z AUTO 23014KT 7SM SCT110 10/06 A2995 20 74 -500 250/14 RMK AO2 T01000056 TSNO $
14756KACK ACK20160323083011603/23/16 08:30:31  5-MIN KACK 231330Z AUTO 23013KT 7SM SCT110 11/06 A2995 20 71 -400 250/13 RMK AO2 T01060056 TSNO $
14756KACK ACK20160323083511603/23/16 08:35:31  5-MIN KACK 231335Z AUTO 23016KT 7SM SCT110 10/06 A2996 20 74 -500 250/16 RMK AO2 T01000056 TSNO $
14756KACK ACK20160323084011603/23/16 08:40:31  5-MIN KACK 231340Z AUTO 23015KT 7SM SCT110 11/06 A2995 20 71 -400 250/15 RMK AO2 T01060056 TSNO $
14756KACK ACK20160323084511603/23/16 08:45:31  5-MIN KACK 231345Z AUTO 23017KT 7SM FEW110 11/06 A2996 10 71 -400 250/17 RMK AO2 T01060056 TSNO $
14756KACK ACK20160323085012303/23/16 08:50:31  5-MIN KACK 231350Z AUTO 23016KT 7SM FEW110 11/06 A2995 20 71 -400 250/16 RMK AO2 SLP143 T01060056 TSNO $
14756KACK ACK20160323085511603/23/16 08:55:31  5-MIN KACK 231355Z AUTO 23016KT 7SM FEW110 11/06 A2995 20 71 -400 240/16 RMK AO2 T01060056 TSNO $
14756KACK ACK20160323090011303/23/16 09:00:31  5-MIN KACK 231400Z AUTO 23017KT 7SM CLR 11/06 A2996 20 68 -400 240/17 RMK AO2 T01110056 TSNO $
14756KACK ACK20160323090511303/23/16 09:05:31  5-MIN KACK 231405Z AUTO 23018KT 8SM CLR 11/06 A2996 10 71 -400 240/18 RMK AO2 T01060056 TSNO $
14756KACK ACK20160323091011303/23/16 09:10:31  5-MIN KACK 231410Z AUTO 23017KT 8SM CLR 11/06 A2996 10 71 -400 240/17 RMK AO2 T01060056 TSNO $
14756KACK ACK20160323091511303/23/16 09:15:31  5-MIN KACK 231415Z AUTO 23016KT 8SM CLR 11/06 A2996 10 68 -400 240/16 RMK AO2 T01110056 TSNO $
14756KACK ACK20160323092011303/23/16 09:20:31  5-MIN KACK 231420Z AUTO 23018KT 8SM CLR 11/06 A2996 10 71 -400 250/18 RMK AO2 T01060056 TSNO $
14756KACK ACK20160323092511303/23/16 09:25:31  5-MIN KACK 231425Z AUTO 23017KT 8SM CLR 11/06 A2996 10 71 -400 250/17 RMK AO2 T01060056 TSNO $
14756KACK ACK20160323093011303/23/16 09:30:31  5-MIN KACK 231430Z AUTO 23018KT 7SM CLR 10/06 A2996 10 74 -500 250/18 RMK AO2 T01000056 TSNO $
14756KACK ACK20160323093511303/23/16 09:35:31  5-MIN KACK 231435Z AUTO 23017KT 7SM CLR 11/06 A2996 10 71 -400 250/17 RMK AO2 T01060056 TSNO $
14756KACK ACK20160323094011303/23/16 09:40:31  5-MIN KACK 231440Z AUTO 23017KT 7SM CLR 10/06 A2996 10 74 -500 250/17 RMK AO2 T01000056 TSNO $
14756KACK ACK20160323094511303/23/16 09:45:31  5-MIN KACK 231445Z AUTO 23017KT 7SM CLR 10/06 A2997 10 74 -500 250/17 RMK AO2 T01000056 TSNO $
14756KACK ACK20160323095012603/23/16 09:50:31  5-MIN KACK 231450Z AUTO 24017KT 7SM CLR 11/06 A2997 10 71 -400 250/17 RMK AO2 SLP147 T01060056 56009 TSNO $
14756KACK ACK20160323095511303/23/16 09:55:31  5-MIN KACK 231455Z AUTO 24016KT 7SM CLR 11/06 A2997 10 71 -400 250/16 RMK AO2 T01060056 TSNO $
14756KACK ACK20160323100011303/23/16 10:00:31  5-MIN KACK 231500Z AUTO 23017KT 7SM CLR 11/06 A2996 10 68 -400 250/17 RMK AO2 T01110056 TSNO $
14756KACK ACK20160323100511303/23/16 10:05:31  5-MIN KACK 231505Z AUTO 24017KT 7SM CLR 12/06 A2996 10 68 -300 260/17 RMK AO2 T01170061 TSNO $
14756KACK ACK20160323101011303/23/16 10:10:31  5-MIN KACK 231510Z AUTO 24017KT 7SM CLR 11/06 A2996 10 68 -400 250/17 RMK AO2 T01110056 TSNO $
14756KACK ACK20160323101511303/23/16 10:15:31  5-MIN KACK 231515Z AUTO 24015KT 7SM CLR 11/06 A2996 10 68 -400 250/15 RMK AO2 T01110056 TSNO $
14756KACK ACK20160323102011303/23/16 10:20:31  5-MIN KACK 231520Z AUTO 24017KT 7SM CLR 11/06 A2996 10 68 -400 250/17 RMK AO2 T01110056 TSNO $
14756KACK ACK20160323102511303/23/16 10:25:31  5-MIN KACK 231525Z AUTO 24018KT 8SM CLR 12/06 A2996 10 68 -300 260/18 RMK AO2 T01170061 TSNO $
14756KACK ACK20160323103011303/23/16 10:30:31  5-MIN KACK 231530Z AUTO 24016KT 8SM CLR 12/06 A2996 10 66 -300 250/16 RMK AO2 T01170056 TSNO $
14756KACK ACK20160323103511303/23/16 10:35:31  5-MIN KACK 231535Z AUTO 23016KT 8SM CLR 11/06 A2996 10 68 -400 250/16 RMK AO2 T01110056 TSNO $
14756KACK ACK20160323104011303/23/16 10:40:31  5-MIN KACK 231540Z AUTO 24017KT 8SM CLR 11/06 A2996 20 68 -400 260/17 RMK AO2 T01110056 TSNO $
14756KACK ACK20160323104511303/23/16 10:45:31  5-MIN KACK 231545Z AUTO 24016KT 8SM CLR 11/06 A2995 20 68 -400 250/16 RMK AO2 T01110056 TSNO $
14756KACK ACK20160323105012003/23/16 10:50:31  5-MIN KACK 231550Z AUTO 24016KT 8SM CLR 11/06 A2995 20 68 -300 250/16 RMK AO2 SLP142 T01110056 TSNO $
14756KACK ACK20160323105511303/23/16 10:55:31  5-MIN KACK 231555Z AUTO 23017KT 8SM CLR 12/06 A2995 20 66 -300 250/17 RMK AO2 T01170056 TSNO $
14756KACK ACK20160323110011303/23/16 11:00:31  5-MIN KACK 231600Z AUTO 23015KT 8SM CLR 12/06 A2995 20 66 -300 240/15 RMK AO2 T01170056 TSNO $
14756KACK ACK20160323110511303/23/16 11:05:31  5-MIN KACK 231605Z AUTO 23017KT 7SM CLR 11/06 A2995 20 68 -300 240/17 RMK AO2 T01110056 TSNO $
14756KACK ACK20160323111011303/23/16 11:10:31  5-MIN KACK 231610Z AUTO 23016KT 8SM CLR 11/06 A2995 20 68 -300 250/16 RMK AO2 T01110056 TSNO $
14756KACK ACK20160323111511303/23/16 11:15:31  5-MIN KACK 231615Z AUTO 23017KT 8SM CLR 12/06 A2995 20 68 -300 240/17 RMK AO2 T01170061 TSNO $
14756KACK ACK20160323112011303/23/16 11:20:31  5-MIN KACK 231620Z AUTO 23016KT 8SM CLR 11/06 A2995 30 71 -300 240/16 RMK AO2 T01110061 TSNO $
14756KACK ACK20160323112511303/23/16 11:25:31  5-MIN KACK 231625Z AUTO 23015KT 8SM CLR 12/06 A2994 30 68 -300 240/15 RMK AO2 T01170061 TSNO $
14756KACK ACK20160323113011303/23/16 11:30:31  5-MIN KACK 231630Z AUTO 23017KT 8SM CLR 11/06 A2994 30 68 -300 250/17 RMK AO2 T01110056 TSNO $
14756KACK ACK20160323113511303/23/16 11:35:31  5-MIN KACK 231635Z AUTO 23017KT 8SM CLR 11/06 A2995 20 68 -300 250/17 RMK AO2 T01110056 TSNO $
14756KACK ACK20160323114011303/23/16 11:40:31  5-MIN KACK 231640Z AUTO 24016KT 8SM CLR 12/06 A2995 20 66 -200 250/16 RMK AO2 T01220061 TSNO $
14756KACK ACK20160323114511903/23/16 11:45:31  5-MIN KACK 231645Z AUTO 24018G25KT 8SM CLR 12/06 A2995 20 68 -300 250/18G25 RMK AO2 T01170061 TSNO $
14756KACK ACK20160323115012903/23/16 11:50:31  5-MIN KACK 231650Z AUTO 24018G25KT 8SM FEW120 11/06 A2995 20 68 -300 250/18G25 RMK AO2 SLP142 T01110056 TSNO $
14756KACK ACK20160323115511603/23/16 11:55:31  5-MIN KACK 231655Z AUTO 24016KT 8SM FEW120 11/06 A2995 20 68 -300 250/16 RMK AO2 T01110056 TSNO $
14756KACK ACK20160323120011603/23/16 12:00:31  5-MIN KACK 231700Z AUTO 23016KT 8SM FEW120 12/06 A2995 20 68 -300 250/16 RMK AO2 T01170061 TSNO $
14756KACK ACK20160323120511603/23/16 12:05:31  5-MIN KACK 231705Z AUTO 23016KT 8SM FEW120 12/06 A2995 20 68 -300 250/16 RMK AO2 T01170061 TSNO $
14756KACK ACK20160323121011603/23/16 12:10:31  5-MIN KACK 231710Z AUTO 23016KT 8SM FEW120 11/06 A2995 30 68 -300 250/16 RMK AO2 T01110056 TSNO $
14756KACK ACK20160323121511603/23/16 12:15:31  5-MIN KACK 231715Z AUTO 24017KT 8SM FEW120 11/06 A2995 30 68 -300 250/17 RMK AO2 T01110056 TSNO $
14756KACK ACK20160323122011303/23/16 12:20:31  5-MIN KACK 231720Z AUTO 23015KT 8SM CLR 11/06 A2995 30 71 -300 250/15 RMK AO2 T01110061 TSNO $
14756KACK ACK20160323122511303/23/16 12:25:31  5-MIN KACK 231725Z AUTO 23014KT 8SM CLR 12/06 A2995 30 68 -300 240/14 RMK AO2 T01170061 TSNO $
14756KACK ACK20160323123011303/23/16 12:30:31  5-MIN KACK 231730Z AUTO 24015KT 8SM CLR 11/06 A2995 20 68 -300 250/15 RMK AO2 T01110056 TSNO $
14756KACK ACK20160323123511303/23/16 12:35:31  5-MIN KACK 231735Z AUTO 23015KT 8SM CLR 12/06 A2995 20 68 -300 250/15 RMK AO2 T01170061 TSNO $
14756KACK ACK20160323124011303/23/16 12:40:31  5-MIN KACK 231740Z AUTO 24016KT 8SM CLR 12/06 A2995 20 66 -300 250/16 RMK AO2 T01170056 TSNO $
14756KACK ACK20160323124511303/23/16 12:45:31  5-MIN KACK 231745Z AUTO 23015KT 7SM CLR 11/06 A2995 20 71 -300 250/15 RMK AO2 T01110061 TSNO $
14756KACK ACK20160323125012803/23/16 12:50:31  5-MIN KACK 231750Z 23015KT 7SM CLR 11/06 A2994 30 68 -300 250/15 RMK AO2 SLP139 T01110056 10122 20094 53005 $
14756KACK ACK20160323125510303/23/16 12:55:31  5-MIN KACK 231755Z 23016KT 7SM CLR 12/06 A2994 30 68 -300 250/16 RMK AO2 T01170061 $
14756KACK ACK20160323130010303/23/16 13:00:31  5-MIN KACK 231800Z 23015KT 8SM CLR 11/06 A2994 30 71 -300 250/15 RMK AO2 T01110061 $
14756KACK ACK20160323130510303/23/16 13:05:31  5-MIN KACK 231805Z 23014KT 8SM CLR 12/06 A2994 30 68 -300 250/14 RMK AO2 T01170061 $
14756KACK ACK20160323131010303/23/16 13:10:31  5-MIN KACK 231810Z 23015KT 8SM CLR 11/06 A2994 30 68 -300 250/15 RMK AO2 T01110056 $
14756KACK ACK20160323131510303/23/16 13:15:31  5-MIN KACK 231815Z 23014KT 8SM CLR 12/06 A2994 30 68 -300 240/14 RMK AO2 T01170061 $
14756KACK ACK20160323132010303/23/16 13:20:31  5-MIN KACK 231820Z 23016KT 8SM CLR 11/06 A2994 30 71 -300 240/16 RMK AO2 T01110061 $
14756KACK ACK20160323132510303/23/16 13:25:31  5-MIN KACK 231825Z 23017KT 8SM CLR 12/06 A2994 30 68 -300 250/17 RMK AO2 T01170061 $
14756KACK ACK20160323133010303/23/16 13:30:31  5-MIN KACK 231830Z 24017KT 8SM CLR 11/06 A2994 30 71 -300 250/17 RMK AO2 T01110061 $
14756KACK ACK20160323133510303/23/16 13:35:31  5-MIN KACK 231835Z 23016KT 8SM CLR 11/06 A2994 30 71 -300 250/16 RMK AO2 T01110061 $
14756KACK ACK20160323134010303/23/16 13:40:31  5-MIN KACK 231840Z 23015KT 7SM CLR 11/06 A2994 30 74 -400 250/15 RMK AO2 T01060061 $
14756KACK ACK20160323134510303/23/16 13:45:31  5-MIN KACK 231845Z 23015KT 7SM CLR 11/06 A2994 30 68 -300 250/15 RMK AO2 T01110056 $
14756KACK ACK20160323135011003/23/16 13:50:31  5-MIN KACK 231850Z 23016KT 8SM CLR 11/06 A2994 30 68 -300 250/16 RMK AO2 SLP139 T01110056 $
14756KACK ACK20160323135510303/23/16 13:55:31  5-MIN KACK 231855Z 23015KT 8SM CLR 11/06 A2994 30 71 -300 240/15 RMK AO2 T01110061 $
14756KACK ACK20160323140012003/23/16 14:00:31  5-MIN KACK 231900Z 23015KT 7SM R24/3000VP6000FT CLR 11/06 A2995 30 71 -400 250/15 RMK AO2 T01060056 $
14756KACK ACK20160323140512003/23/16 14:05:31  5-MIN KACK 231905Z 23014KT 7SM R24/3000VP6000FT CLR 10/06 A2995 30 74 -500 250/14 RMK AO2 T01000056 $
14756KACK ACK20160323141010303/23/16 14:10:31  5-MIN KACK 231910Z 24017KT 7SM CLR 11/06 A2994 30 74 -400 250/17 RMK AO2 T01060061 $
14756KACK ACK20160323141510303/23/16 14:15:31  5-MIN KACK 231915Z 23015KT 7SM CLR 11/06 A2995 30 74 -400 240/15 RMK AO2 T01060061 $
14756KACK ACK20160323142010303/23/16 14:20:31  5-MIN KACK 231920Z 23014KT 7SM CLR 11/06 A2995 20 74 -400 250/14 RMK AO2 T01060061 $
14756KACK ACK20160323142510303/23/16 14:25:31  5-MIN KACK 231925Z 23017KT 7SM CLR 11/06 A2995 20 71 -300 250/17 RMK AO2 T01110061 $
14756KACK ACK20160323143010303/23/16 14:30:31  5-MIN KACK 231930Z 23017KT 7SM CLR 11/06 A2995 30 71 -400 240/17 RMK AO2 T01060056 $
14756KACK ACK20160323143510303/23/16 14:35:31  5-MIN KACK 231935Z 23016KT 7SM CLR 11/06 A2995 30 74 -400 250/16 RMK AO2 T01060061 $
14756KACK ACK20160323144010303/23/16 14:40:31  5-MIN KACK 231940Z 23015KT 7SM CLR 11/06 A2995 20 74 -400 250/15 RMK AO2 T01060061 $
14756KACK ACK20160323144510303/23/16 14:45:31  5-MIN KACK 231945Z 23015KT 7SM CLR 10/06 A2995 20 74 -500 240/15 RMK AO2 T01000056 $
14756KACK ACK20160323145011003/23/16 14:50:31  5-MIN KACK 231950Z 23015KT 7SM CLR 10/06 A2995 20 74 -500 240/15 RMK AO2 SLP142 T01000056 $
14756KACK ACK20160323145510303/23/16 14:55:31  5-MIN KACK 231955Z 23013KT 7SM CLR 10/06 A2995 20 74 -500 240/13 RMK AO2 T01000056 $
14756KACK ACK20160323150010303/23/16 15:00:31  5-MIN KACK 232000Z 23014KT 7SM CLR 10/06 A2995 20 77 -500 240/14 RMK AO2 T01000061 $
14756KACK ACK20160323150510303/23/16 15:05:31  5-MIN KACK 232005Z 23015KT 7SM CLR 10/06 A2995 20 74 -500 240/15 RMK AO2 T01000056 $
14756KACK ACK20160323151010303/23/16 15:10:31  5-MIN KACK 232010Z 23016KT 7SM CLR 11/06 A2995 20 74 -400 250/16 RMK AO2 T01060061 $
14756KACK ACK20160323151510303/23/16 15:15:31  5-MIN KACK 232015Z 24015KT 7SM CLR 11/06 A2995 20 71 -400 250/15 RMK AO2 T01060056 $
14756KACK ACK20160323152010303/23/16 15:20:31  5-MIN KACK 232020Z 23016KT 7SM CLR 10/06 A2995 20 74 -500 250/16 RMK AO2 T01000056 $
14756KACK ACK20160323152510103/23/16 15:25:31  5-MIN KACK 232025Z 23015KT 7SM CLR 10/06 A2995 20 74 -500 250/15 RMK AO2 T01000056
14756KACK ACK20160323153010103/23/16 15:30:31  5-MIN KACK 232030Z 23013KT 7SM CLR 10/06 A2994 30 74 -500 250/13 RMK AO2 T01000056
14756KACK ACK20160323153510103/23/16 15:35:31  5-MIN KACK 232035Z 23013KT 7SM CLR 10/06 A2995 30 74 -500 240/13 RMK AO2 T01000056
14756KACK ACK20160323154010103/23/16 15:40:31  5-MIN KACK 232040Z 23015KT 7SM CLR 10/06 A2995 20 74 -500 240/15 RMK AO2 T01000056
14756KACK ACK20160323154510103/23/16 15:45:31  5-MIN KACK 232045Z 23014KT 7SM CLR 10/06 A2995 20 74 -500 250/14 RMK AO2 T01000056
14756KACK ACK20160323155011403/23/16 15:50:31  5-MIN KACK 232050Z 23015KT 7SM CLR 10/06 A2995 20 77 -500 240/15 RMK AO2 SLP142 T01000061 56008
14756KACK ACK20160323155510103/23/16 15:55:31  5-MIN KACK 232055Z 23015KT 7SM CLR 10/06 A2995 20 74 -500 240/15 RMK AO2 T01000056
14756KACK ACK20160323160010103/23/16 16:00:31  5-MIN KACK 232100Z 23012KT 7SM CLR 09/06 A2995 20 76 -600 240/12 RMK AO2 T00940056
14756KACK ACK20160323160510103/23/16 16:05:31  5-MIN KACK 232105Z 23013KT 7SM CLR 09/06 A2996 20 76 -600 240/13 RMK AO2 T00940056
14756KACK ACK20160323161010103/23/16 16:10:31  5-MIN KACK 232110Z 22012KT 7SM CLR 09/06 A2996 20 79 -600 240/12 RMK AO2 T00890056
14756KACK ACK20160323161510103/23/16 16:15:31  5-MIN KACK 232115Z 22013KT 7SM CLR 09/06 A2996 10 76 -600 240/13 RMK AO2 T00940056
14756KACK ACK20160323162010103/23/16 16:20:31  5-MIN KACK 232120Z 22012KT 7SM CLR 09/06 A2996 20 76 -600 240/12 RMK AO2 T00940056
14756KACK ACK20160323162510103/23/16 16:25:31  5-MIN KACK 232125Z 23011KT 7SM CLR 09/06 A2996 10 79 -600 240/11 RMK AO2 T00890056
14756KACK ACK20160323163010103/23/16 16:30:31  5-MIN KACK 232130Z 23011KT 7SM CLR 09/06 A2996 10 79 -600 240/11 RMK AO2 T00890056
14756KACK ACK20160323163510103/23/16 16:35:31  5-MIN KACK 232135Z 23012KT 7SM CLR 09/06 A2997 10 76 -600 250/12 RMK AO2 T00940056
14756KACK ACK20160323164010003/23/16 16:40:31  5-MIN KACK 232140Z 24011KT 7SM CLR 09/06 A2997 0 76 -600 250/11 RMK AO2 T00940056
14756KACK ACK20160323164510003/23/16 16:45:31  5-MIN KACK 232145Z 24013KT 7SM CLR 09/06 A2997 0 79 -600 250/13 RMK AO2 T00890056
14756KACK ACK20160323165011003/23/16 16:50:31  5-MIN KACK 232150Z 24011KT 6SM HZ CLR 09/06 A2998 0 79 -600 250/11 RMK AO2 SLP150 T00890056
14756KACK ACK20160323165510303/23/16 16:55:31  5-MIN KACK 232155Z 24012KT 6SM HZ CLR 09/06 A2998 0 79 -600 250/12 RMK AO2 T00890056
14756KACK ACK20160323170010303/23/16 17:00:31  5-MIN KACK 232200Z 23012KT 6SM HZ CLR 09/06 A2998 0 79 -700 250/12 RMK AO2 T00890056
14756KACK ACK20160323170510303/23/16 17:05:31  5-MIN KACK 232205Z 23012KT 6SM HZ CLR 09/06 A2998 0 79 -700 250/12 RMK AO2 T00890056
14756KACK ACK20160323171010303/23/16 17:10:31  5-MIN KACK 232210Z 23012KT 6SM HZ CLR 09/06 A2998 0 79 -700 240/12 RMK AO2 T00890056
14756KACK ACK20160323171510503/23/16 17:15:31  5-MIN KACK 232215Z 23012KT 6SM HZ CLR 08/06 A2999 -10 82 -700 250/12 RMK AO2 T00830056
14756KACK ACK20160323172010503/23/16 17:20:31  5-MIN KACK 232220Z 23011KT 5SM HZ CLR 08/06 A2999 -10 82 -700 250/11 RMK AO2 T00830056
14756KACK ACK20160323172510503/23/16 17:25:31  5-MIN KACK 232225Z 23012KT 5SM HZ CLR 08/06 A2999 -10 82 -700 250/12 RMK AO2 T00830056
14756KACK ACK20160323173010503/23/16 17:30:31  5-MIN KACK 232230Z 23011KT 5SM HZ CLR 08/06 A2999 -10 82 -700 250/11 RMK AO2 T00830056
14756KACK ACK20160323173510503/23/16 17:35:31  5-MIN KACK 232235Z 23012KT 5SM HZ CLR 08/06 A2999 -10 82 -700 250/12 RMK AO2 T00830056
14756KACK ACK20160323174010503/23/16 17:40:31  5-MIN KACK 232240Z 23012KT 4SM HZ CLR 08/06 A3000 -20 82 -700 240/12 RMK AO2 T00830056
14756KACK ACK20160323174510503/23/16 17:45:31  5-MIN KACK 232245Z 23011KT 4SM HZ CLR 08/05 A3000 -20 82 -800 250/11 RMK AO2 T00780050
14756KACK ACK20160323175011203/23/16 17:50:31  5-MIN KACK 232250Z 23010KT 6SM BR CLR 08/05 A3000 -20 82 -800 250/10 RMK AO2 SLP158 T00780050
14756KACK ACK20160323175510503/23/16 17:55:31  5-MIN KACK 232255Z 23011KT 4SM HZ CLR 08/05 A3000 -20 82 -800 250/11 RMK AO2 T00780050
14756KACK ACK20160323180010203/23/16 18:00:31  5-MIN KACK 232300Z 23009KT 7SM CLR 08/05 A3001 -30 82 -800 250/09 RMK AO2 T00780050
14756KACK ACK20160323180510203/23/16 18:05:31  5-MIN KACK 232305Z 24008KT 7SM CLR 07/05 A3001 -30 86 -900 250/08 RMK AO2 T00720050
14756KACK ACK20160323181010203/23/16 18:10:31  5-MIN KACK 232310Z 24008KT 7SM CLR 07/05 A3001 -30 86 -900 250/08 RMK AO2 T00720050
14756KACK ACK20160323181510203/23/16 18:15:31  5-MIN KACK 232315Z 24009KT 7SM CLR 07/05 A3001 -30 86 -900 250/09 RMK AO2 T00720050
14756KACK ACK20160323182010203/23/16 18:20:31  5-MIN KACK 232320Z 24008KT 7SM CLR 07/05 A3001 -30 86 -900 260/08 RMK AO2 T00720050
14756KACK ACK20160323182510203/23/16 18:25:31  5-MIN KACK 232325Z 24008KT 7SM CLR 07/05 A3001 -30 86 -900 260/08 RMK AO2 T00720050
14756KACK ACK20160323183010203/23/16 18:30:31  5-MIN KACK 232330Z 23008KT 7SM CLR 07/05 A3002 -40 86 -900 240/08 RMK AO2 T00720050
14756KACK ACK20160323183510203/23/16 18:35:31  5-MIN KACK 232335Z 23008KT 7SM CLR 07/05 A3002 -40 86 -900 240/08 RMK AO2 T00720050
14756KACK ACK20160323184010303/23/16 18:40:31  5-MIN KACK 232340Z 22006KT 7SM CLR 07/05 A3002 -40 89 -1000 240/06 RMK AO2 T00670050
14756KACK ACK20160323184510303/23/16 18:45:31  5-MIN KACK 232345Z 22007KT 7SM CLR 07/05 A3002 -40 89 -1000 230/07 RMK AO2 T00670050
14756KACK ACK20160323185012703/23/16 18:50:31  5-MIN KACK 232350Z 22007KT 7SM CLR 07/05 A3002 -40 86 -900 240/07 RMK AO2 SLP166 T00720050 10117 20067 53003
14756KACK ACK20160323185510303/23/16 18:55:31  5-MIN KACK 232355Z 23007KT 7SM CLR 07/05 A3003 -40 89 -1000 240/07 RMK AO2 T00670050
14756KACK ACK20160323190010303/23/16 19:00:31  5-MIN KACK 240000Z 22007KT 7SM CLR 07/05 A3003 -50 89 -1000 240/07 RMK AO2 T00670050
14756KACK ACK20160323190510303/23/16 19:05:31  5-MIN KACK 240005Z 22007KT 7SM CLR 07/05 A3003 -50 89 -1000 240/07 RMK AO2 T00670050
14756KACK ACK20160323191013203/23/16 19:10:31  5-MIN KACK 240010Z 31010G17KT 240V350 7SM CLR 07/05 A3006 -70 89 -1000 330/10G17 260V010 RMK AO2 PRESRR T00670050
14756KACK ACK20160323191511403/23/16 19:15:31  5-MIN KACK 240015Z VRB06G17KT 6SM BR FEW009 08/06 A3005 -60 86 -900 VRB/06G17 RMK AO2 T00780056
14756KACK ACK20160323192011103/23/16 19:20:31  5-MIN KACK 240020Z 32005G16KT 8SM FEW009 08/06 A3006 -70 86 -900 330/05G16 RMK AO2 T00780056
14756KACK ACK20160323192510203/23/16 19:25:31  5-MIN KACK 240025Z 28006KT 9SM CLR 08/06 A3006 -70 86 -900 300/06 RMK AO2 T00780056
14756KACK ACK20160323193010203/23/16 19:30:31  5-MIN KACK 240030Z 28004KT 9SM CLR 08/06 A3006 -70 86 -900 300/04 RMK AO2 T00780056
14756KACK ACK20160323193510203/23/16 19:35:31  5-MIN KACK 240035Z 31005KT 9SM CLR 07/05 A3006 -80 86 -900 330/05 RMK AO2 T00720050
14756KACK ACK20160323194010203/23/16 19:40:31  5-MIN KACK 240040Z 36003KT 9SM CLR 08/05 A3007 -80 82 -900 010/03 RMK AO2 T00780050
14756KACK ACK20160323194510303/23/16 19:45:31  5-MIN KACK 240045Z 03003KT 9SM CLR 07/05 A3007 -80 86 -1000 050/03 RMK AO2 T00720050
14756KACK ACK20160323195010903/23/16 19:50:31  5-MIN KACK 240050Z 03003KT 9SM CLR 08/04 A3007 -80 79 -900 040/03 RMK AO2 SLP181 T00780044
14756KACK ACK20160323195511303/23/16 19:55:31  5-MIN KACK 240055Z AUTO 34003KT 9SM CLR 07/04 A3007 -80 82 -1000 350/03 RMK AO2 T00720044 TSNO
14756KACK ACK20160323200011303/23/16 20:00:31  5-MIN KACK 240100Z AUTO 34007KT 9SM CLR 07/04 A3007 -90 82 -1000 360/07 RMK AO2 T00720044 TSNO
14756KACK ACK20160323200511303/23/16 20:05:31  5-MIN KACK 240105Z AUTO 34007KT 9SM CLR 07/04 A3008 -90 82 -1000 350/07 RMK AO2 T00720044 TSNO
14756KACK ACK20160323201011303/23/16 20:10:31  5-MIN KACK 240110Z AUTO 34008KT 8SM CLR 07/05 A3008 -90 86 -1000 360/08 RMK AO2 T00720050 TSNO
14756KACK ACK20160323201511303/23/16 20:15:31  5-MIN KACK 240115Z AUTO 01011KT 8SM CLR 07/05 A3008 -90 86 -1000 020/11 RMK AO2 T00720050 TSNO
14756KACK ACK20160323202011303/23/16 20:20:31  5-MIN KACK 240120Z AUTO 01013KT 8SM CLR 07/05 A3008 -90 86 -1000 030/13 RMK AO2 T00720050 TSNO
14756KACK ACK20160323202511403/23/16 20:25:31  5-MIN KACK 240125Z AUTO 04015KT 8SM CLR 07/05 A3008 -100 86 -1000 050/15 RMK AO2 T00720050 TSNO
14756KACK ACK20160323203011403/23/16 20:30:31  5-MIN KACK 240130Z AUTO 04015KT 8SM CLR 07/05 A3008 -100 86 -1000 050/15 RMK AO2 T00720050 TSNO
14756KACK ACK20160323203512003/23/16 20:35:31  5-MIN KACK 240135Z AUTO 05017G22KT 8SM CLR 07/05 A3008 -100 86 -1000 060/17G22 RMK AO2 T00720050 TSNO
14756KACK ACK20160323204012003/23/16 20:40:31  5-MIN KACK 240140Z AUTO 04014G22KT 9SM CLR 07/05 A3009 -100 86 -1000 060/14G22 RMK AO2 T00720050 TSNO
14756KACK ACK20160323204511403/23/16 20:45:31  5-MIN KACK 240145Z AUTO 05015KT 9SM CLR 07/04 A3009 -100 86 -1100 060/15 RMK AO2 T00670044 TSNO
14756KACK ACK20160323205012803/23/16 20:50:31  5-MIN KACK 240150Z AUTO 04018G22KT 10SM CLR 07/04 A3009 -100 86 -1100 060/18G22 RMK AO2 SLP190 T00670044 TSNO
14756KACK ACK20160323205511503/23/16 20:55:31  5-MIN KACK 240155Z AUTO 04014KT 10SM CLR 07/04 A3010 -110 86 -1100 060/14 RMK AO2 T00670044 TSNO
14756KACK ACK20160323210011503/23/16 21:00:31  5-MIN KACK 240200Z AUTO 04016KT 10SM CLR 07/04 A3010 -110 86 -1100 060/16 RMK AO2 T00670044 TSNO
14756KACK ACK20160323210511503/23/16 21:05:31  5-MIN KACK 240205Z AUTO 04014KT 10SM CLR 07/04 A3010 -110 82 -1100 050/14 RMK AO2 T00670039 TSNO
14756KACK ACK20160323211011503/23/16 21:10:31  5-MIN KACK 240210Z AUTO 04012KT 10SM CLR 07/04 A3011 -120 82 -1100 060/12 RMK AO2 T00670039 TSNO
14756KACK ACK20160323211511503/23/16 21:15:31  5-MIN KACK 240215Z AUTO 04013KT 10SM CLR 07/03 A3011 -120 79 -1100 060/13 RMK AO2 T00670033 TSNO
14756KACK ACK20160323212011503/23/16 21:20:31  5-MIN KACK 240220Z AUTO 04013KT 10SM CLR 07/03 A3011 -120 79 -1100 050/13 RMK AO2 T00670033 TSNO
14756KACK ACK20160323212511503/23/16 21:25:31  5-MIN KACK 240225Z AUTO 05015KT 10SM CLR 07/03 A3011 -120 79 -1100 060/15 RMK AO2 T00670033 TSNO
14756KACK ACK20160323213011503/23/16 21:30:31  5-MIN KACK 240230Z AUTO 04014KT 10SM CLR 07/03 A3011 -120 76 -1100 060/14 RMK AO2 T00670028 TSNO
14756KACK ACK20160323213512103/23/16 21:35:31  5-MIN KACK 240235Z AUTO 05011G21KT 10SM CLR 07/03 A3011 -130 76 -1100 060/11G21 RMK AO2 T00670028 TSNO
14756KACK ACK20160323214011503/23/16 21:40:31  5-MIN KACK 240240Z AUTO 05013KT 10SM CLR 07/03 A3012 -130 76 -1100 060/13 RMK AO2 T00670028 TSNO
14756KACK ACK20160323214511503/23/16 21:45:31  5-MIN KACK 240245Z AUTO 05012KT 10SM CLR 07/03 A3012 -130 76 -1100 070/12 RMK AO2 T00670028 TSNO
14756KACK ACK20160323215012803/23/16 21:50:31  5-MIN KACK 240250Z AUTO 06012KT 10SM CLR 07/03 A3012 -130 76 -1100 070/12 RMK AO2 SLP198 T00670028 52025 TSNO
14756KACK ACK20160323215511503/23/16 21:55:31  5-MIN KACK 240255Z AUTO 06011KT 10SM CLR 07/03 A3012 -130 76 -1100 070/11 RMK AO2 T00670028 TSNO
14756KACK ACK20160323220011503/23/16 22:00:31  5-MIN KACK 240300Z AUTO 06011KT 10SM CLR 07/03 A3012 -130 76 -1100 080/11 RMK AO2 T00670028 TSNO
14756KACK ACK20160323220511503/23/16 22:05:31  5-MIN KACK 240305Z AUTO 06010KT 10SM CLR 07/03 A3012 -130 76 -1100 080/10 RMK AO2 T00670028 TSNO
14756KACK ACK20160323221011503/23/16 22:10:31  5-MIN KACK 240310Z AUTO 06010KT 10SM CLR 07/03 A3012 -130 76 -1100 070/10 RMK AO2 T00670028 TSNO
14756KACK ACK20160323221511503/23/16 22:15:31  5-MIN KACK 240315Z AUTO 07010KT 10SM CLR 07/03 A3012 -130 76 -1100 080/10 RMK AO2 T00670028 TSNO
14756KACK ACK20160323222011503/23/16 22:20:31  5-MIN KACK 240320Z AUTO 06010KT 10SM CLR 07/03 A3012 -130 76 -1100 080/10 RMK AO2 T00670028 TSNO
14756KACK ACK20160323222511503/23/16 22:25:31  5-MIN KACK 240325Z AUTO 06009KT 10SM CLR 07/02 A3013 -140 73 -1100 080/09 RMK AO2 T00670022 TSNO
14756KACK ACK20160323223011503/23/16 22:30:31  5-MIN KACK 240330Z AUTO 06008KT 10SM CLR 07/02 A3013 -140 73 -1100 080/08 RMK AO2 T00670022 TSNO
14756KACK ACK20160323223511503/23/16 22:35:31  5-MIN KACK 240335Z AUTO 07009KT 10SM CLR 07/02 A3013 -140 73 -1100 080/09 RMK AO2 T00670022 TSNO
14756KACK ACK20160323224011503/23/16 22:40:31  5-MIN KACK 240340Z AUTO 06008KT 10SM CLR 07/03 A3013 -140 76 -1100 080/08 RMK AO2 T00670028 TSNO
14756KACK ACK20160323224511503/23/16 22:45:31  5-MIN KACK 240345Z AUTO 07008KT 10SM CLR 07/03 A3013 -140 76 -1100 080/08 RMK AO2 T00670028 TSNO
14756KACK ACK20160323225012203/23/16 22:50:31  5-MIN KACK 240350Z AUTO 07009KT 10SM CLR 06/03 A3014 -140 79 -1200 080/09 RMK AO2 SLP204 T00610028 TSNO
14756KACK ACK20160323225511503/23/16 22:55:31  5-MIN KACK 240355Z AUTO 06009KT 10SM CLR 07/03 A3013 -140 76 -1100 080/09 RMK AO2 T00670028 TSNO
14756KACK ACK20160323230011503/23/16 23:00:31  5-MIN KACK 240400Z AUTO 07008KT 10SM CLR 06/02 A3013 -140 76 -1200 080/08 RMK AO2 T00610022 TSNO
14756KACK ACK20160323230511503/23/16 23:05:31  5-MIN KACK 240405Z AUTO 07008KT 10SM CLR 07/02 A3014 -150 73 -1100 080/08 RMK AO2 T00670022 TSNO
14756KACK ACK20160323231011503/23/16 23:10:31  5-MIN KACK 240410Z AUTO 06008KT 10SM CLR 06/02 A3014 -150 76 -1200 070/08 RMK AO2 T00610022 TSNO
14756KACK ACK20160323231511503/23/16 23:15:31  5-MIN KACK 240415Z AUTO 05009KT 10SM CLR 06/02 A3014 -150 76 -1200 060/09 RMK AO2 T00610022 TSNO
14756KACK ACK20160323232011503/23/16 23:20:31  5-MIN KACK 240420Z AUTO 05009KT 10SM CLR 06/02 A3015 -150 76 -1200 070/09 RMK AO2 T00610022 TSNO
14756KACK ACK20160323232511503/23/16 23:25:31  5-MIN KACK 240425Z AUTO 06009KT 10SM CLR 06/02 A3014 -150 76 -1200 070/09 RMK AO2 T00610022 TSNO
14756KACK ACK20160323233011503/23/16 23:30:31  5-MIN KACK 240430Z AUTO 06009KT 10SM CLR 06/02 A3014 -150 76 -1200 070/09 RMK AO2 T00610022 TSNO
14756KACK ACK20160323233511503/23/16 23:35:31  5-MIN KACK 240435Z AUTO 06008KT 10SM CLR 06/02 A3014 -150 76 -1200 080/08 RMK AO2 T00610022 TSNO
14756KACK ACK20160323234011503/23/16 23:40:31  5-MIN KACK 240440Z AUTO 05009KT 10SM CLR 06/02 A3014 -150 76 -1200 070/09 RMK AO2 T00610022 TSNO
14756KACK ACK20160323234511503/23/16 23:45:31  5-MIN KACK 240445Z AUTO 05008KT 10SM CLR 06/02 A3015 -150 76 -1200 070/08 RMK AO2 T00610022 TSNO
14756KACK ACK20160323235013203/23/16 23:50:31  5-MIN KACK 240450Z AUTO 06007KT 10SM CLR 06/02 A3015 -160 76 -1200 080/07 RMK AO2 SLP209 T00610022 401220061 TSNO
14756KACK ACK20160323235511503/23/16 23:55:31  5-MIN KACK 240455Z AUTO 05008KT 10SM CLR 06/02 A3015 -160 76 -1200 070/08 RMK AO2 T00610022 TSNO
14756KACK ACK20160324000011503/24/16 00:00:31  5-MIN KACK 240500Z AUTO 05008KT 10SM CLR 06/02 A3016 -160 76 -1200 070/08 RMK AO2 T00610022 TSNO
14756KACK ACK20160324000511503/24/16 00:05:31  5-MIN KACK 240505Z AUTO 05007KT 10SM CLR 06/02 A3016 -160 76 -1200 060/07 RMK AO2 T00610022 TSNO
14756KACK ACK20160324001011503/24/16 00:10:31  5-MIN KACK 240510Z AUTO 05007KT 10SM CLR 06/02 A3015 -160 76 -1200 060/07 RMK AO2 T00610022 TSNO
14756KACK ACK20160324001511503/24/16 00:15:31  5-MIN KACK 240515Z AUTO 05008KT 10SM CLR 06/02 A3016 -160 76 -1200 060/08 RMK AO2 T00610022 TSNO
14756KACK ACK20160324002011503/24/16 00:20:31  5-MIN KACK 240520Z AUTO 05008KT 10SM CLR 06/03 A3015 -160 79 -1200 070/08 RMK AO2 T00610028 TSNO
14756KACK ACK20160324002511503/24/16 00:25:31  5-MIN KACK 240525Z AUTO 06008KT 10SM CLR 06/03 A3015 -160 79 -1200 070/08 RMK AO2 T00610028 TSNO
14756KACK ACK20160324003011503/24/16 00:30:31  5-MIN KACK 240530Z AUTO 05008KT 10SM CLR 06/03 A3015 -160 79 -1200 070/08 RMK AO2 T00610028 TSNO
14756KACK ACK20160324003511503/24/16 00:35:31  5-MIN KACK 240535Z AUTO 06007KT 10SM CLR 06/03 A3015 -160 79 -1200 070/07 RMK AO2 T00610028 TSNO
14756KACK ACK20160324004011503/24/16 00:40:31  5-MIN KACK 240540Z AUTO 05007KT 10SM CLR 06/03 A3015 -160 79 -1200 070/07 RMK AO2 T00610028 TSNO
14756KACK ACK20160324004511503/24/16 00:45:31  5-MIN KACK 240545Z AUTO 06007KT 10SM CLR 06/03 A3015 -160 79 -1200 080/07 RMK AO2 T00610028 TSNO
14756KACK ACK20160324005014003/24/16 00:50:31  5-MIN KACK 240550Z AUTO 06007KT 10SM CLR 06/03 A3015 -160 79 -1200 080/07 RMK AO2 SLP210 T00610028 10078 20061 51030 TSNO
14756KACK ACK20160324005511503/24/16 00:55:31  5-MIN KACK 240555Z AUTO 06008KT 10SM CLR 06/03 A3015 -160 79 -1200 070/08 RMK AO2 T00610028 TSNO
14756KACK ACK20160324010011503/24/16 01:00:31  5-MIN KACK 240600Z AUTO 05008KT 10SM CLR 06/03 A3015 -160 79 -1200 070/08 RMK AO2 T00610028 TSNO
14756KACK ACK20160324010511503/24/16 01:05:31  5-MIN KACK 240605Z AUTO 05007KT 10SM CLR 06/03 A3015 -160 79 -1200 070/07 RMK AO2 T00610028 TSNO
14756KACK ACK20160324011011503/24/16 01:10:31  5-MIN KACK 240610Z AUTO 06006KT 10SM CLR 06/03 A3015 -160 82 -1300 070/06 RMK AO2 T00560028 TSNO
14756KACK ACK20160324011511503/24/16 01:15:31  5-MIN KACK 240615Z AUTO 05007KT 10SM CLR 06/03 A3015 -160 79 -1200 070/07 RMK AO2 T00610028 TSNO
14756KACK ACK20160324012011503/24/16 01:20:31  5-MIN KACK 240620Z AUTO 06007KT 10SM CLR 06/03 A3015 -160 79 -1200 070/07 RMK AO2 T00610028 TSNO
14756KACK ACK20160324012511503/24/16 01:25:31  5-MIN KACK 240625Z AUTO 06007KT 10SM CLR 06/03 A3015 -160 79 -1200 070/07 RMK AO2 T00610028 TSNO
14756KACK ACK20160324013011503/24/16 01:30:31  5-MIN KACK 240630Z AUTO 05008KT 10SM CLR 06/03 A3015 -160 82 -1300 060/08 RMK AO2 T00560028 TSNO
14756KACK ACK20160324013511503/24/16 01:35:31  5-MIN KACK 240635Z AUTO 05008KT 10SM CLR 06/03 A3015 -160 82 -1300 060/08 RMK AO2 T00560028 TSNO
14756KACK ACK20160324014011503/24/16 01:40:31  5-MIN KACK 240640Z AUTO 05008KT 10SM CLR 06/03 A3015 -160 79 -1200 060/08 RMK AO2 T00610028 TSNO
14756KACK ACK20160324014511503/24/16 01:45:31  5-MIN KACK 240645Z AUTO 05009KT 10SM CLR 06/03 A3015 -160 82 -1300 070/09 RMK AO2 T00560028 TSNO
14756KACK ACK20160324015012203/24/16 01:50:31  5-MIN KACK 240650Z AUTO 05008KT 10SM CLR 06/03 A3015 -160 82 -1300 070/08 RMK AO2 SLP209 T00560028 TSNO
14756KACK ACK20160324015511503/24/16 01:55:31  5-MIN KACK 240655Z AUTO 05008KT 10SM CLR 06/03 A3015 -150 82 -1200 070/08 RMK AO2 T00610033 TSNO
14756KACK ACK20160324020011503/24/16 02:00:31  5-MIN KACK 240700Z AUTO 05009KT 10SM CLR 06/03 A3015 -150 82 -1200 060/09 RMK AO2 T00610033 TSNO
14756KACK ACK20160324020511503/24/16 02:05:31  5-MIN KACK 240705Z AUTO 04009KT 10SM CLR 06/03 A3015 -150 85 -1300 060/09 RMK AO2 T00560033 TSNO
14756KACK ACK20160324021011503/24/16 02:10:31  5-MIN KACK 240710Z AUTO 05007KT 10SM CLR 06/03 A3015 -160 85 -1300 060/07 RMK AO2 T00560033 TSNO
14756KACK ACK20160324021511503/24/16 02:15:31  5-MIN KACK 240715Z AUTO 05009KT 10SM CLR 06/03 A3015 -150 82 -1200 070/09 RMK AO2 T00610033 TSNO
14756KACK ACK20160324022011503/24/16 02:20:31  5-MIN KACK 240720Z AUTO 04009KT 10SM CLR 06/03 A3015 -160 82 -1200 060/09 RMK AO2 T00610033 TSNO
14756KACK ACK20160324022511503/24/16 02:25:31  5-MIN KACK 240725Z AUTO 04009KT 10SM CLR 06/03 A3015 -160 85 -1300 060/09 RMK AO2 T00560033 TSNO
14756KACK ACK20160324023011503/24/16 02:30:31  5-MIN KACK 240730Z AUTO 05009KT 10SM CLR 06/03 A3015 -150 85 -1200 070/09 RMK AO2 T00560033 TSNO
14756KACK ACK20160324023511503/24/16 02:35:31  5-MIN KACK 240735Z AUTO 05008KT 10SM CLR 06/03 A3014 -150 82 -1200 070/08 RMK AO2 T00610033 TSNO
14756KACK ACK20160324024011503/24/16 02:40:31  5-MIN KACK 240740Z AUTO 06009KT 10SM CLR 06/03 A3014 -140 82 -1200 080/09 RMK AO2 T00610033 TSNO
14756KACK ACK20160324024511503/24/16 02:45:31  5-MIN KACK 240745Z AUTO 06009KT 10SM CLR 06/03 A3013 -140 82 -1200 080/09 RMK AO2 T00610033 TSNO
14756KACK ACK20160324025012203/24/16 02:50:31  5-MIN KACK 240750Z AUTO 07009KT 10SM CLR 06/03 A3013 -140 82 -1200 080/09 RMK AO2 SLP203 T00610033 TSNO
14756KACK ACK20160324025511503/24/16 02:55:31  5-MIN KACK 240755Z AUTO 06009KT 10SM CLR 06/03 A3013 -140 82 -1200 080/09 RMK AO2 T00610033 TSNO
14756KACK ACK20160324030011503/24/16 03:00:31  5-MIN KACK 240800Z AUTO 06010KT 10SM CLR 06/03 A3013 -140 79 -1200 070/10 RMK AO2 T00610028 TSNO
14756KACK ACK20160324030511503/24/16 03:05:31  5-MIN KACK 240805Z AUTO 06011KT 10SM CLR 06/03 A3013 -140 79 -1200 070/11 RMK AO2 T00610028 TSNO
14756KACK ACK20160324031011503/24/16 03:10:31  5-MIN KACK 240810Z AUTO 05010KT 10SM CLR 06/03 A3013 -140 79 -1200 070/10 RMK AO2 T00610028 TSNO
14756KACK ACK20160324031511503/24/16 03:15:31  5-MIN KACK 240815Z AUTO 06011KT 10SM CLR 06/03 A3012 -130 79 -1200 070/11 RMK AO2 T00610028 TSNO
14756KACK ACK20160324032011503/24/16 03:20:31  5-MIN KACK 240820Z AUTO 07011KT 10SM CLR 06/03 A3012 -130 79 -1200 080/11 RMK AO2 T00610028 TSNO
14756KACK ACK20160324032511503/24/16 03:25:31  5-MIN KACK 240825Z AUTO 07010KT 10SM CLR 06/03 A3012 -130 79 -1200 080/10 RMK AO2 T00610028 TSNO
14756KACK ACK20160324033011503/24/16 03:30:31  5-MIN KACK 240830Z AUTO 07010KT 10SM CLR 06/03 A3012 -130 79 -1200 090/10 RMK AO2 T00610028 TSNO
14756KACK ACK20160324033511503/24/16 03:35:31  5-MIN KACK 240835Z AUTO 06011KT 10SM CLR 06/03 A3013 -130 79 -1200 080/11 RMK AO2 T00610028 TSNO
14756KACK ACK20160324034011503/24/16 03:40:31  5-MIN KACK 240840Z AUTO 07011KT 10SM CLR 06/03 A3013 -140 79 -1200 080/11 RMK AO2 T00610028 TSNO
14756KACK ACK20160324034511503/24/16 03:45:31  5-MIN KACK 240845Z AUTO 06010KT 10SM CLR 06/03 A3013 -140 79 -1200 080/10 RMK AO2 T00610028 TSNO
14756KACK ACK20160324035012803/24/16 03:50:31  5-MIN KACK 240850Z AUTO 06010KT 10SM CLR 06/03 A3013 -140 79 -1200 080/10 RMK AO2 SLP203 T00610028 51013 TSNO
14756KACK ACK20160324035511503/24/16 03:55:31  5-MIN KACK 240855Z AUTO 07012KT 10SM CLR 06/03 A3013 -140 79 -1200 080/12 RMK AO2 T00610028 TSNO
14756KACK ACK20160324040011503/24/16 04:00:31  5-MIN KACK 240900Z AUTO 07011KT 10SM CLR 06/03 A3013 -140 79 -1200 080/11 RMK AO2 T00610028 TSNO
14756KACK ACK20160324040511503/24/16 04:05:31  5-MIN KACK 240905Z AUTO 06011KT 10SM CLR 06/03 A3015 -150 79 -1200 070/11 RMK AO2 T00610028 TSNO
14756KACK ACK20160324041011503/24/16 04:10:31  5-MIN KACK 240910Z AUTO 05010KT 10SM CLR 06/03 A3015 -160 79 -1200 070/10 RMK AO2 T00610028 TSNO
14756KACK ACK20160324041511503/24/16 04:15:31  5-MIN KACK 240915Z AUTO 06010KT 10SM CLR 06/03 A3015 -160 79 -1200 080/10 RMK AO2 T00610028 TSNO
14756KACK ACK20160324042011503/24/16 04:20:31  5-MIN KACK 240920Z AUTO 06010KT 10SM CLR 06/03 A3015 -160 79 -1200 070/10 RMK AO2 T00610028 TSNO
14756KACK ACK20160324042511503/24/16 04:25:31  5-MIN KACK 240925Z AUTO 06010KT 10SM CLR 06/02 A3016 -160 76 -1200 070/10 RMK AO2 T00610022 TSNO
14756KACK ACK20160324043011503/24/16 04:30:31  5-MIN KACK 240930Z AUTO 05010KT 10SM CLR 06/02 A3016 -170 76 -1200 070/10 RMK AO2 T00610022 TSNO
14756KACK ACK20160324043511503/24/16 04:35:31  5-MIN KACK 240935Z AUTO 06011KT 10SM CLR 06/02 A3016 -170 76 -1200 070/11 RMK AO2 T00610022 TSNO
14756KACK ACK20160324044011503/24/16 04:40:31  5-MIN KACK 240940Z AUTO 06010KT 10SM CLR 06/02 A3016 -170 76 -1200 080/10 RMK AO2 T00610022 TSNO
14756KACK ACK20160324044511503/24/16 04:45:31  5-MIN KACK 240945Z AUTO 06009KT 10SM CLR 06/02 A3016 -170 73 -1200 080/09 RMK AO2 T00610017 TSNO
14756KACK ACK20160324045011203/24/16 04:50:31  5-MIN KACK 240950Z 06009KT 10SM CLR 06/02 A3016 -170 73 -1200 070/09 RMK AO2 SLP214 T00610017
14756KACK ACK20160324045510503/24/16 04:55:31  5-MIN KACK 240955Z 05009KT 10SM CLR 06/02 A3017 -170 73 -1200 070/09 RMK AO2 T00610017
14756KACK ACK20160324050010503/24/16 05:00:31  5-MIN KACK 241000Z 06009KT 10SM CLR 06/02 A3016 -170 76 -1200 070/09 RMK AO2 T00610022
14756KACK ACK20160324050510503/24/16 05:05:31  5-MIN KACK 241005Z 05009KT 10SM CLR 06/02 A3016 -170 76 -1200 070/09 RMK AO2 T00610022
14756KACK ACK20160324051010503/24/16 05:10:31  5-MIN KACK 241010Z 05010KT 10SM CLR 06/02 A3016 -170 76 -1200 070/10 RMK AO2 T00610022
14756KACK ACK20160324051510503/24/16 05:15:31  5-MIN KACK 241015Z 05010KT 10SM CLR 06/02 A3016 -170 76 -1200 070/10 RMK AO2 T00610022
14756KACK ACK20160324052010503/24/16 05:20:31  5-MIN KACK 241020Z 05012KT 10SM CLR 06/02 A3016 -170 76 -1200 070/12 RMK AO2 T00610022
14756KACK ACK20160324052510503/24/16 05:25:31  5-MIN KACK 241025Z 05011KT 10SM CLR 06/03 A3016 -170 79 -1200 070/11 RMK AO2 T00610028
14756KACK ACK20160324053010503/24/16 05:30:31  5-MIN KACK 241030Z 06012KT 10SM CLR 06/03 A3016 -170 79 -1200 070/12 RMK AO2 T00610028
14756KACK ACK20160324053510503/24/16 05:35:31  5-MIN KACK 241035Z 06011KT 10SM CLR 06/03 A3016 -170 79 -1200 070/11 RMK AO2 T00610028
14756KACK ACK20160324054010503/24/16 05:40:31  5-MIN KACK 241040Z 05011KT 10SM CLR 06/03 A3016 -170 79 -1200 070/11 RMK AO2 T00610028
14756KACK ACK20160324054510503/24/16 05:45:31  5-MIN KACK 241045Z 06012KT 10SM CLR 06/03 A3017 -170 79 -1200 070/12 RMK AO2 T00610028
14756KACK ACK20160324055011203/24/16 05:50:31  5-MIN KACK 241050Z 06012KT 10SM CLR 06/03 A3017 -170 79 -1200 070/12 RMK AO2 SLP216 T00610028
14756KACK ACK20160324055510503/24/16 05:55:31  5-MIN KACK 241055Z 06012KT 10SM CLR 06/03 A3016 -170 79 -1200 080/12 RMK AO2 T00610028
14756KACK ACK20160324060010503/24/16 06:00:31  5-MIN KACK 241100Z 06013KT 10SM CLR 06/03 A3016 -170 79 -1200 080/13 RMK AO2 T00610028
14756KACK ACK20160324060510503/24/16 06:05:31  5-MIN KACK 241105Z 06011KT 10SM CLR 07/03 A3017 -170 76 -1100 070/11 RMK AO2 T00670028
14756KACK ACK20160324061010503/24/16 06:10:31  5-MIN KACK 241110Z 06012KT 10SM CLR 07/03 A3017 -170 76 -1100 070/12 RMK AO2 T00670028
14756KACK ACK20160324061510503/24/16 06:15:31  5-MIN KACK 241115Z 06011KT 10SM CLR 07/03 A3017 -170 76 -1100 070/11 RMK AO2 T00670028
14756KACK ACK20160324062010503/24/16 06:20:31  5-MIN KACK 241120Z 06011KT 10SM CLR 07/03 A3016 -170 76 -1100 080/11 RMK AO2 T00670028
14756KACK ACK20160324062510503/24/16 06:25:31  5-MIN KACK 241125Z 07012KT 10SM CLR 07/03 A3017 -170 76 -1100 080/12 RMK AO2 T00670028
14756KACK ACK20160324063010503/24/16 06:30:31  5-MIN KACK 241130Z 06014KT 10SM CLR 07/03 A3017 -180 73 -1100 080/14 RMK AO2 T00720028
14756KACK ACK20160324063511103/24/16 06:35:31  5-MIN KACK 241135Z 06012G19KT 10SM CLR 07/03 A3017 -180 73 -1100 080/12G19 RMK AO2 T00720028
14756KACK ACK20160324064010503/24/16 06:40:31  5-MIN KACK 241140Z 06012KT 10SM CLR 07/03 A3017 -180 73 -1100 080/12 RMK AO2 T00720028
14756KACK ACK20160324064510503/24/16 06:45:31  5-MIN KACK 241145Z 06013KT 10SM CLR 07/02 A3017 -180 70 -1100 070/13 RMK AO2 T00720022
14756KACK ACK20160324065013003/24/16 06:50:31  5-MIN KACK 241150Z 06014KT 10SM CLR 07/02 A3017 -170 70 -1100 080/14 RMK AO2 SLP215 T00720022 10072 20056 55007
14756KACK ACK20160324065511103/24/16 06:55:31  5-MIN KACK 241155Z 06015G20KT 10SM CLR 07/02 A3017 -180 70 -1100 080/15G20 RMK AO2 T00720022
14756KACK ACK20160324070011103/24/16 07:00:31  5-MIN KACK 241200Z 06013G20KT 10SM CLR 07/02 A3017 -180 70 -1100 080/13G20 RMK AO2 T00720022
14756KACK ACK20160324070510503/24/16 07:05:31  5-MIN KACK 241205Z 06014KT 10SM CLR 07/03 A3017 -180 73 -1100 070/14 RMK AO2 T00720028
14756KACK ACK20160324071011103/24/16 07:10:31  5-MIN KACK 241210Z 06014G22KT 10SM CLR 07/02 A3017 -170 70 -1100 080/14G22 RMK AO2 T00720022
14756KACK ACK20160324071511103/24/16 07:15:31  5-MIN KACK 241215Z 06014G22KT 10SM CLR 07/03 A3017 -180 73 -1100 080/14G22 RMK AO2 T00720028
14756KACK ACK20160324072011103/24/16 07:20:31  5-MIN KACK 241220Z 06013G21KT 10SM CLR 07/03 A3017 -180 73 -1100 080/13G21 RMK AO2 T00720028
14756KACK ACK20160324072511103/24/16 07:25:31  5-MIN KACK 241225Z 06012G21KT 10SM CLR 08/03 A3017 -180 73 -1000 080/12G21 RMK AO2 T00780033
14756KACK ACK20160324073011103/24/16 07:30:31  5-MIN KACK 241230Z 06014G20KT 10SM CLR 08/03 A3018 -180 73 -1000 080/14G20 RMK AO2 T00780033
14756KACK ACK20160324073510503/24/16 07:35:31  5-MIN KACK 241235Z 07014KT 10SM CLR 08/03 A3018 -180 73 -1000 080/14 RMK AO2 T00780033
14756KACK ACK20160324074010503/24/16 07:40:31  5-MIN KACK 241240Z 06012KT 10SM CLR 08/03 A3018 -180 73 -1000 080/12 RMK AO2 T00780033
14756KACK ACK20160324074510403/24/16 07:45:31  5-MIN KACK 241245Z 06016KT 10SM CLR 08/03 A3017 -180 70 -900 080/16 RMK AO2 T00830033
14756KACK ACK20160324075011103/24/16 07:50:31  5-MIN KACK 241250Z 06014KT 10SM CLR 08/03 A3016 -170 68 -900 080/14 RMK AO2 SLP214 T00830028
14756KACK ACK20160324075511003/24/16 07:55:31  5-MIN KACK 241255Z 07013G22KT 10SM CLR 08/03 A3016 -170 68 -900 090/13G22 RMK AO2 T00830028
14756KACK ACK20160324080011003/24/16 08:00:31  5-MIN KACK 241300Z 07014G22KT 10SM CLR 08/03 A3016 -170 68 -900 080/14G22 RMK AO2 T00830028
14756KACK ACK20160324080511003/24/16 08:05:31  5-MIN KACK 241305Z 07016G23KT 10SM CLR 08/03 A3016 -170 68 -900 090/16G23 RMK AO2 T00830028
14756KACK ACK20160324081011003/24/16 08:10:31  5-MIN KACK 241310Z 07015G23KT 10SM CLR 08/03 A3016 -170 68 -900 090/15G23 RMK AO2 T00830028
14756KACK ACK20160324081511003/24/16 08:15:31  5-MIN KACK 241315Z 07017G23KT 10SM CLR 08/03 A3016 -170 68 -900 080/17G23 RMK AO2 T00830028
14756KACK ACK20160324082012803/24/16 08:20:31  5-MIN KACK 241320Z 07017G26KT 10SM CLR 08/03 A3016 -160 68 -900 080/17G26 RMK AO2 PK WND 06026/1318 T00830028
14756KACK ACK20160324082512803/24/16 08:25:31  5-MIN KACK 241325Z 08015G26KT 10SM CLR 08/03 A3016 -170 68 -900 090/15G26 RMK AO2 PK WND 06026/1318 T00830028
14756KACK ACK20160324083012803/24/16 08:30:31  5-MIN KACK 241330Z 07017G24KT 10SM CLR 08/03 A3017 -170 68 -900 080/17G24 RMK AO2 PK WND 06026/1318 T00830028
14756KACK ACK20160324083512203/24/16 08:35:31  5-MIN KACK 241335Z 07014KT 10SM CLR 08/03 A3017 -180 68 -900 090/14 RMK AO2 PK WND 06026/1318 T00830028
14756KACK ACK20160324084012803/24/16 08:40:31  5-MIN KACK 241340Z 07014G20KT 10SM CLR 08/03 A3017 -180 68 -900 090/14G20 RMK AO2 PK WND 06026/1318 T00830028
14756KACK ACK20160324084512803/24/16 08:45:31  5-MIN KACK 241345Z 07012G23KT 10SM CLR 08/03 A3017 -180 68 -900 080/12G23 RMK AO2 PK WND 06026/1318 T00830028
14756KACK ACK20160324085013503/24/16 08:50:31  5-MIN KACK 241350Z 07016G23KT 10SM CLR 09/03 A3017 -180 65 -900 080/16G23 RMK AO2 PK WND 06026/1318 SLP217 T00890028
14756KACK ACK20160324085511003/24/16 08:55:31  5-MIN KACK 241355Z 06017G22KT 10SM CLR 09/03 A3018 -180 65 -900 070/17G22 RMK AO2 T00890028
14756KACK ACK20160324090010403/24/16 09:00:31  5-MIN KACK 241400Z 07016KT 10SM CLR 09/03 A3018 -180 65 -900 080/16 RMK AO2 T00890028
14756KACK ACK20160324090511003/24/16 09:05:31  5-MIN KACK 241405Z 06017G22KT 10SM CLR 09/03 A3018 -180 65 -900 080/17G22 RMK AO2 T00890028
14756KACK ACK20160324091011003/24/16 09:10:31  5-MIN KACK 241410Z 07015G23KT 10SM CLR 09/03 A3018 -180 65 -900 080/15G23 RMK AO2 T00890028
14756KACK ACK20160324091511003/24/16 09:15:31  5-MIN KACK 241415Z 07013G23KT 10SM CLR 09/03 A3018 -180 65 -900 090/13G23 RMK AO2 T00890028
14756KACK ACK20160324092011003/24/16 09:20:31  5-MIN KACK 241420Z 07013G22KT 10SM CLR 09/03 A3018 -190 65 -900 080/13G22 RMK AO2 T00890028
14756KACK ACK20160324092511003/24/16 09:25:31  5-MIN KACK 241425Z 07013G22KT 10SM CLR 09/03 A3018 -180 63 -800 090/13G22 RMK AO2 T00940028
14756KACK ACK20160324093011003/24/16 09:30:31  5-MIN KACK 241430Z 07016G25KT 10SM CLR 09/03 A3018 -180 63 -800 090/16G25 RMK AO2 T00940028
14756KACK ACK20160324093511003/24/16 09:35:31  5-MIN KACK 241435Z 06016G25KT 10SM CLR 09/03 A3018 -180 63 -800 080/16G25 RMK AO2 T00940028
14756KACK ACK20160324094011303/24/16 09:40:31  5-MIN KACK 241440Z 07012G24KT 10SM FEW026 09/03 A3018 -180 65 -900 090/12G24 RMK AO2 T00890028
14756KACK ACK20160324094512003/24/16 09:45:31  5-MIN KACK 241445Z 08015G21KT 10SM SCT021 SCT026 09/03 A3017 -180 65 -900 100/15G21 RMK AO2 T00890028
14756KACK ACK20160324095010303/24/16 09:50:31  5-MIN KACK 241450Z 08014G21KT 10SM BKN023 09/03 A3017 -180 65 -900 090/14G21 RMK AO2
14756KACK ACK20160324095511403/24/16 09:55:31  5-MIN KACK 241455Z 07016KT 10SM BKN021 BKN026 09/03 A3017 -170 65 -900 090/16 RMK AO2 T00890028
14756KACK ACK20160324100012003/24/16 10:00:31  5-MIN KACK 241500Z 08017G22KT 10SM BKN019 BKN026 08/02 A3016 -170 65 -900 090/17G22 RMK AO2 T00830022
14756KACK ACK20160324100512103/24/16 10:05:31  5-MIN KACK 241505Z 08017KT 10SM BKN019 OVC026 08/02 A3015 -160 65 -900 090/17 RMK AO2 PRESFR T00830022
14756KACK ACK20160324101011403/24/16 10:10:31  5-MIN KACK 241510Z 08016KT 10SM OVC019 09/02 A3014 -150 63 -800 090/16 RMK AO2 PRESFR T00890022
14756KACK ACK20160324101511303/24/16 10:15:31  5-MIN KACK 241515Z 08016G24KT 10SM OVC015 09/02 A3014 -150 63 -800 100/16G24 RMK AO2 T00890022
14756KACK ACK20160324102011303/24/16 10:20:31  5-MIN KACK 241520Z 07017G24KT 10SM OVC015 08/02 A3015 -160 65 -900 080/17G24 RMK AO2 T00830022
14756KACK ACK20160324102511303/24/16 10:25:31  5-MIN KACK 241525Z 06014G23KT 10SM OVC015 08/02 A3016 -170 65 -900 080/14G23 RMK AO2 T00830022
14756KACK ACK20160324103011303/24/16 10:30:31  5-MIN KACK 241530Z 06014G22KT 10SM OVC015 08/02 A3016 -170 65 -900 080/14G22 RMK AO2 T00830022
14756KACK ACK20160324103511303/24/16 10:35:31  5-MIN KACK 241535Z 06014G21KT 10SM OVC015 08/02 A3016 -170 65 -900 080/14G21 RMK AO2 T00830022
14756KACK ACK20160324104011403/24/16 10:40:31  5-MIN KACK 241540Z 05015G21KT 10SM OVC015 08/02 A3017 -170 68 -1000 070/15G21 RMK AO2 T00780022
14756KACK ACK20160324104511403/24/16 10:45:31  5-MIN KACK 241545Z 06015G22KT 10SM OVC015 08/02 A3016 -170 68 -1000 080/15G22 RMK AO2 T00780022
14756KACK ACK20160324105012103/24/16 10:50:31  5-MIN KACK 241550Z 06014G22KT 10SM OVC015 08/02 A3017 -170 68 -1000 080/14G22 RMK AO2 SLP215 T00780022
14756KACK ACK20160324105510803/24/16 10:55:31  5-MIN KACK 241555Z 06015KT 10SM OVC015 08/03 A3017 -170 70 -1000 070/15 RMK AO2 T00780028
14756KACK ACK20160324110011403/24/16 11:00:31  5-MIN KACK 241600Z 06012G22KT 10SM OVC015 08/03 A3016 -170 70 -1000 070/12G22 RMK AO2 T00780028
14756KACK ACK20160324110511403/24/16 11:05:31  5-MIN KACK 241605Z 06012G22KT 10SM OVC015 08/03 A3016 -170 70 -1000 070/12G22 RMK AO2 T00780028
14756KACK ACK20160324111011403/24/16 11:10:31  5-MIN KACK 241610Z 05015G22KT 10SM OVC015 08/03 A3016 -170 70 -1000 070/15G22 RMK AO2 T00780028
14756KACK ACK20160324111511303/24/16 11:15:31  5-MIN KACK 241615Z 05013G22KT 9SM OVC014 08/03 A3016 -170 70 -1000 070/13G22 RMK AO2 T00780028
14756KACK ACK20160324112011303/24/16 11:20:31  5-MIN KACK 241620Z 05015G22KT 9SM OVC015 08/03 A3016 -170 70 -1000 070/15G22 RMK AO2 T00780028
14756KACK ACK20160324112511403/24/16 11:25:31  5-MIN KACK 241625Z 05014G23KT 10SM OVC015 08/03 A3016 -170 70 -1000 070/14G23 RMK AO2 T00780028
14756KACK ACK20160324113011403/24/16 11:30:31  5-MIN KACK 241630Z 05017G24KT 10SM OVC015 08/03 A3016 -160 70 -1000 070/17G24 RMK AO2 T00780028
14756KACK ACK20160324113511403/24/16 11:35:31  5-MIN KACK 241635Z 05016G24KT 10SM OVC015 08/03 A3015 -160 73 -1000 070/16G24 RMK AO2 T00780033
14756KACK ACK20160324114011303/24/16 11:40:31  5-MIN KACK 241640Z 05020G24KT 9SM OVC015 07/03 A3015 -160 76 -1100 060/20G24 RMK AO2 T00720033
14756KACK ACK20160324114511303/24/16 11:45:31  5-MIN KACK 241645Z 05016G24KT 9SM OVC015 07/03 A3015 -160 76 -1100 070/16G24 RMK AO2 T00720033
14756KACK ACK20160324115012103/24/16 11:50:31  5-MIN KACK 241650Z 06013G24KT 10SM OVC015 07/03 A3015 -150 76 -1000 070/13G24 RMK AO2 SLP208 T00720033
14756KACK ACK20160324115511403/24/16 11:55:31  5-MIN KACK 241655Z 05013G24KT 10SM OVC015 08/03 A3014 -150 73 -1000 070/13G24 RMK AO2 T00780033
14756KACK ACK20160324120011403/24/16 12:00:31  5-MIN KACK 241700Z 05016G23KT 10SM OVC015 08/03 A3014 -150 73 -1000 070/16G23 RMK AO2 T00780033
14756KACK ACK20160324120511403/24/16 12:05:31  5-MIN KACK 241705Z 06018G24KT 10SM OVC015 08/03 A3013 -140 73 -1000 070/18G24 RMK AO2 T00780033
14756KACK ACK20160324121011403/24/16 12:10:31  5-MIN KACK 241710Z 06014G24KT 10SM OVC015 08/03 A3013 -140 73 -1000 070/14G24 RMK AO2 T00780033
14756KACK ACK20160324121513203/24/16 12:15:31  5-MIN KACK 241715Z 06017G26KT 10SM OVC015 08/03 A3013 -140 73 -1000 070/17G26 RMK AO2 PK WND 05026/1715 T00780033
14756KACK ACK20160324122013203/24/16 12:20:31  5-MIN KACK 241720Z 06018G26KT 10SM OVC015 08/03 A3013 -130 73 -1000 080/18G26 RMK AO2 PK WND 05026/1715 T00780033
14756KACK ACK20160324122513103/24/16 12:25:31  5-MIN KACK 241725Z 06015G25KT 10SM OVC014 08/03 A3012 -130 73 -900 080/15G25 RMK AO2 PK WND 05026/1715 T00780033
14756KACK ACK20160324123013103/24/16 12:30:31  5-MIN KACK 241730Z 06020G26KT 10SM OVC014 08/03 A3012 -130 73 -900 080/20G26 RMK AO2 PK WND 05026/1715 T00780033
14756KACK ACK20160324123513103/24/16 12:35:31  5-MIN KACK 241735Z 06019G26KT 10SM OVC015 08/03 A3011 -120 73 -900 070/19G26 RMK AO2 PK WND 05026/1715 T00780033
14756KACK ACK20160324124013103/24/16 12:40:31  5-MIN KACK 241740Z 06020G27KT 10SM OVC015 08/03 A3011 -120 73 -900 070/20G27 RMK AO2 PK WND 08027/1737 T00780033
14756KACK ACK20160324124513103/24/16 12:45:31  5-MIN KACK 241745Z 07016G27KT 10SM OVC015 08/03 A3011 -120 73 -900 080/16G27 RMK AO2 PK WND 08027/1737 T00780033
14756KACK ACK20160324125015603/24/16 12:50:31  5-MIN KACK 241750Z 06016G24KT 10SM OVC015 08/04 A3010 -110 73 -900 070/16G24 RMK AO2 PK WND 08027/1737 SLP193 T00830039 10094 20072 50002
14756KACK ACK20160324125511303/24/16 12:55:31  5-MIN KACK 241755Z 07013G22KT 10SM OVC015 08/04 A3010 -110 73 -900 080/13G22 RMK AO2 T00830039
14756KACK ACK20160324130011303/24/16 13:00:31  5-MIN KACK 241800Z 07016G22KT 10SM OVC015 08/03 A3010 -110 70 -900 080/16G22 RMK AO2 T00830033
14756KACK ACK20160324130511303/24/16 13:05:31  5-MIN KACK 241805Z 07017G22KT 10SM OVC015 08/03 A3010 -110 73 -900 090/17G22 RMK AO2 T00780033
14756KACK ACK20160324131011303/24/16 13:10:31  5-MIN KACK 241810Z 07015G21KT 10SM OVC015 08/03 A3010 -110 73 -900 080/15G21 RMK AO2 T00780033
14756KACK ACK20160324131511303/24/16 13:15:31  5-MIN KACK 241815Z 07016G22KT 10SM OVC015 08/03 A3010 -110 73 -900 080/16G22 RMK AO2 T00780033
14756KACK ACK20160324132011303/24/16 13:20:31  5-MIN KACK 241820Z 08016G22KT 10SM OVC015 08/03 A3009 -110 73 -900 090/16G22 RMK AO2 T00780033
14756KACK ACK20160324132510703/24/16 13:25:31  5-MIN KACK 241825Z 06017KT 10SM OVC015 08/03 A3009 -100 73 -900 080/17 RMK AO2 T00780033
14756KACK ACK20160324133011303/24/16 13:30:31  5-MIN KACK 241830Z 07016G22KT 10SM OVC015 08/03 A3008 -100 73 -900 080/16G22 RMK AO2 T00780033
14756KACK ACK20160324133511203/24/16 13:35:31  5-MIN KACK 241835Z 07014G22KT 10SM OVC015 08/04 A3008 -90 73 -800 080/14G22 RMK AO2 T00830039
14756KACK ACK20160324134011203/24/16 13:40:31  5-MIN KACK 241840Z 07016G22KT 10SM OVC015 08/03 A3008 -90 73 -900 080/16G22 RMK AO2 T00780033
14756KACK ACK20160324134510603/24/16 13:45:31  5-MIN KACK 241845Z 07015KT 10SM OVC015 08/03 A3008 -90 73 -900 090/15 RMK AO2 T00780033
14756KACK ACK20160324135009603/24/16 13:50:31  5-MIN KACK 241850Z 07013KT 10SM OVC012 08/03 A3007 -90 70 -800 090/13 RMK AO2
14756KACK ACK20160324135510603/24/16 13:55:31  5-MIN KACK 241855Z 08016KT 10SM OVC012 08/03 A3007 -90 73 -900 100/16 RMK AO2 T00780033
14756KACK ACK20160324140010603/24/16 14:00:31  5-MIN KACK 241900Z 07016KT 10SM OVC012 08/03 A3007 -90 70 -800 080/16 RMK AO2 T00830033
14756KACK ACK20160324140510603/24/16 14:05:31  5-MIN KACK 241905Z 07015KT 10SM OVC012 08/03 A3007 -80 70 -800 090/15 RMK AO2 T00830033
14756KACK ACK20160324141010603/24/16 14:10:31  5-MIN KACK 241910Z 08016KT 10SM OVC012 08/03 A3007 -80 73 -900 090/16 RMK AO2 T00780033
14756KACK ACK20160324141510603/24/16 14:15:31  5-MIN KACK 241915Z 07015KT 10SM OVC012 08/03 A3007 -80 70 -800 090/15 RMK AO2 T00830033
14756KACK ACK20160324142010603/24/16 14:20:31  5-MIN KACK 241920Z 07014KT 10SM OVC012 08/03 A3007 -80 73 -900 090/14 RMK AO2 T00780033
14756KACK ACK20160324142510603/24/16 14:25:31  5-MIN KACK 241925Z 07014KT 10SM OVC011 08/03 A3007 -80 73 -900 080/14 RMK AO2 T00780033
14756KACK ACK20160324143010603/24/16 14:30:31  5-MIN KACK 241930Z 07016KT 10SM OVC011 08/03 A3007 -80 73 -900 090/16 RMK AO2 T00780033
14756KACK ACK20160324143510603/24/16 14:35:31  5-MIN KACK 241935Z 07016KT 10SM OVC011 08/03 A3007 -80 73 -900 090/16 RMK AO2 T00780033
14756KACK ACK20160324144010603/24/16 14:40:31  5-MIN KACK 241940Z 06016KT 10SM OVC011 08/04 A3007 -80 76 -900 080/16 RMK AO2 T00780039
14756KACK ACK20160324144510603/24/16 14:45:31  5-MIN KACK 241945Z 07010KT 10SM OVC011 08/04 A3007 -80 76 -900 090/10 RMK AO2 T00780039
14756KACK ACK20160324145011903/24/16 14:50:31  5-MIN KACK 241950Z 06014G20KT 10SM OVC010 08/04 A3006 -80 76 -900 080/14G20 RMK AO2 SLP180 T00780039
14756KACK ACK20160324145511203/24/16 14:55:31  5-MIN KACK 241955Z 07014G21KT 10SM OVC010 08/04 A3006 -80 76 -900 080/14G21 RMK AO2 T00780039
14756KACK ACK20160324150011103/24/16 15:00:31  5-MIN KACK 242000Z 07014G21KT 9SM OVC010 08/04 A3006 -70 76 -900 080/14G21 RMK AO2 T00780039
14756KACK ACK20160324150510503/24/16 15:05:31  5-MIN KACK 242005Z 07012KT 9SM OVC010 08/04 A3006 -70 76 -900 090/12 RMK AO2 T00780039
14756KACK ACK20160324151010503/24/16 15:10:31  5-MIN KACK 242010Z 06014KT 9SM OVC010 08/04 A3006 -70 76 -900 080/14 RMK AO2 T00780039
14756KACK ACK20160324151510503/24/16 15:15:31  5-MIN KACK 242015Z 07013KT 9SM OVC010 08/04 A3006 -70 79 -900 090/13 RMK AO2 T00780044
14756KACK ACK20160324152011103/24/16 15:20:31  5-MIN KACK 242020Z 07014G20KT 8SM OVC010 08/04 A3006 -70 79 -900 080/14G20 RMK AO2 T00780044
14756KACK ACK20160324152511103/24/16 15:25:31  5-MIN KACK 242025Z 07013G20KT 8SM OVC010 08/04 A3005 -70 79 -900 090/13G20 RMK AO2 T00780044
14756KACK ACK20160324153011103/24/16 15:30:31  5-MIN KACK 242030Z 07012G20KT 8SM OVC010 08/04 A3005 -70 79 -900 080/12G20 RMK AO2 T00780044
14756KACK ACK20160324153510603/24/16 15:35:31  5-MIN KACK 242035Z 07011KT 10SM OVC010 08/04 A3005 -60 79 -900 080/11 RMK AO2 T00780044
14756KACK ACK20160324154010603/24/16 15:40:31  5-MIN KACK 242040Z 07012KT 10SM OVC010 08/04 A3005 -60 79 -900 080/12 RMK AO2 T00780044
14756KACK ACK20160324154510603/24/16 15:45:31  5-MIN KACK 242045Z 08012KT 10SM OVC010 08/04 A3004 -60 79 -900 090/12 RMK AO2 T00780044
14756KACK ACK20160324155009503/24/16 15:50:31  5-MIN KACK 242050Z 08012KT 9SM OVC008 08/04 A3004 -60 79 -900 090/12 RMK AO2
14756KACK ACK20160324155510503/24/16 15:55:31  5-MIN KACK 242055Z 07012KT 8SM OVC008 08/04 A3004 -50 79 -900 080/12 RMK AO2 T00780044
14756KACK ACK20160324160010503/24/16 16:00:31  5-MIN KACK 242100Z 08008KT 8SM OVC008 08/04 A3004 -50 79 -900 090/08 RMK AO2 T00780044
14756KACK ACK20160324160510503/24/16 16:05:31  5-MIN KACK 242105Z 07012KT 9SM OVC008 08/04 A3003 -50 79 -800 080/12 RMK AO2 T00780044
14756KACK ACK20160324161010503/24/16 16:10:31  5-MIN KACK 242110Z 07012KT 9SM OVC009 08/04 A3003 -50 79 -800 090/12 RMK AO2 T00780044
14756KACK ACK20160324161511103/24/16 16:15:31  5-MIN KACK 242115Z 07010G18KT 9SM OVC009 08/04 A3003 -50 79 -800 080/10G18 RMK AO2 T00780044
14756KACK ACK20160324162011103/24/16 16:20:31  5-MIN KACK 242120Z 07012G18KT 9SM OVC009 08/04 A3003 -50 79 -800 080/12G18 RMK AO2 T00780044
14756KACK ACK20160324162510503/24/16 16:25:31  5-MIN KACK 242125Z 07010KT 8SM OVC009 08/04 A3003 -50 79 -800 080/10 RMK AO2 T00780044
14756KACK ACK20160324163010503/24/16 16:30:31  5-MIN KACK 242130Z 07011KT 8SM OVC008 08/04 A3003 -50 79 -800 090/11 RMK AO2 T00780044
14756KACK ACK20160324163510503/24/16 16:35:31  5-MIN KACK 242135Z 08010KT 8SM OVC008 08/04 A3003 -50 79 -800 090/10 RMK AO2 T00780044
14756KACK ACK20160324164010503/24/16 16:40:31  5-MIN KACK 242140Z 08011KT 8SM OVC008 08/04 A3003 -40 79 -800 090/11 RMK AO2 T00780044
14756KACK ACK20160324164510503/24/16 16:45:31  5-MIN KACK 242145Z 08011KT 8SM OVC008 08/05 A3003 -40 82 -800 090/11 RMK AO2 T00780050
14756KACK ACK20160324165012403/24/16 16:50:31  5-MIN KACK 242150Z 08009KT 8SM OVC008 08/05 A3002 -40 82 -800 100/09 RMK AO2 CIG 008V013 SLP167 T00780050
14756KACK ACK20160324165510503/24/16 16:55:31  5-MIN KACK 242155Z 08010KT 8SM OVC010 08/05 A3002 -40 82 -800 090/10 RMK AO2 T00780050
14756KACK ACK20160324170010503/24/16 17:00:31  5-MIN KACK 242200Z 08009KT 8SM OVC012 08/05 A3003 -40 82 -800 090/09 RMK AO2 T00780050
14756KACK ACK20160324170510503/24/16 17:05:31  5-MIN KACK 242205Z 08009KT 8SM OVC012 08/05 A3002 -40 82 -800 090/09 RMK AO2 T00780050
14756KACK ACK20160324171010503/24/16 17:10:31  5-MIN KACK 242210Z 08010KT 7SM OVC012 08/05 A3003 -40 82 -800 100/10 RMK AO2 T00780050
14756KACK ACK20160324171510503/24/16 17:15:31  5-MIN KACK 242215Z 08010KT 7SM OVC012 08/05 A3003 -40 82 -800 100/10 RMK AO2 T00780050
14756KACK ACK20160324172011203/24/16 17:20:31  5-MIN KACK 242220Z 08009KT 7SM BKN008 OVC012 08/05 A3002 -40 82 -800 100/09 RMK AO2 T00780050
14756KACK ACK20160324172511203/24/16 17:25:31  5-MIN KACK 242225Z 08009KT 7SM SCT008 OVC012 08/05 A3002 -40 82 -800 100/09 RMK AO2 T00780050
14756KACK ACK20160324173011203/24/16 17:30:31  5-MIN KACK 242230Z 08010KT 7SM SCT008 OVC012 07/05 A3002 -40 86 -900 100/10 RMK AO2 T00720050
14756KACK ACK20160324173511203/24/16 17:35:31  5-MIN KACK 242235Z 09009KT 7SM SCT007 BKN012 07/05 A3002 -40 86 -900 100/09 RMK AO2 T00720050
14756KACK ACK20160324174011203/24/16 17:40:31  5-MIN KACK 242240Z 09009KT 7SM SCT007 BKN012 07/05 A3002 -30 86 -900 100/09 RMK AO2 T00720050
14756KACK ACK20160324174511203/24/16 17:45:31  5-MIN KACK 242245Z 09009KT 7SM FEW007 SCT012 07/05 A3001 -30 86 -900 100/09 RMK AO2 T00720050
14756KACK ACK20160324175011903/24/16 17:50:31  5-MIN KACK 242250Z 09009KT 7SM FEW007 SCT012 07/05 A3001 -30 86 -900 100/09 RMK AO2 SLP163 T00720050
14756KACK ACK20160324175510803/24/16 17:55:31  5-MIN KACK 242255Z 09009KT 6SM BR FEW012 07/05 A3001 -30 86 -900 100/09 RMK AO2 T00720050
14756KACK ACK20160324180010903/24/16 18:00:31  5-MIN KACK 242300Z 09010KT 6SM BR FEW013 07/05 A3001 -30 89 -1000 110/10 RMK AO2 T00670050
14756KACK ACK20160324180510903/24/16 18:05:31  5-MIN KACK 242305Z 09010KT 6SM BR FEW013 07/05 A3001 -30 89 -1000 100/10 RMK AO2 T00670050
14756KACK ACK20160324181010803/24/16 18:10:31  5-MIN KACK 242310Z 10009KT 6SM BR FEW013 07/05 A3000 -20 89 -900 110/09 RMK AO2 T00670050
14756KACK ACK20160324181510803/24/16 18:15:31  5-MIN KACK 242315Z 10010KT 6SM BR FEW013 07/05 A3000 -20 89 -900 120/10 RMK AO2 T00670050
14756KACK ACK20160324182010503/24/16 18:20:31  5-MIN KACK 242320Z 10010KT 6SM BR CLR 07/05 A3000 -20 89 -900 120/10 RMK AO2 T00670050
14756KACK ACK20160324182510503/24/16 18:25:31  5-MIN KACK 242325Z 11011KT 6SM BR CLR 07/05 A3000 -20 89 -900 120/11 RMK AO2 T00670050
14756KACK ACK20160324183010503/24/16 18:30:31  5-MIN KACK 242330Z 11010KT 6SM BR CLR 07/05 A2999 -10 89 -900 130/10 RMK AO2 T00670050
14756KACK ACK20160324183510503/24/16 18:35:31  5-MIN KACK 242335Z 11010KT 6SM BR CLR 07/05 A2999 -10 89 -900 130/10 RMK AO2 T00670050
14756KACK ACK20160324184010503/24/16 18:40:31  5-MIN KACK 242340Z 11009KT 6SM BR CLR 07/05 A2999 -10 89 -900 120/09 RMK AO2 T00670050
14756KACK ACK20160324184510503/24/16 18:45:31  5-MIN KACK 242345Z 11010KT 6SM BR CLR 07/05 A2999 -10 89 -900 120/10 RMK AO2 T00670050
14756KACK ACK20160324185013303/24/16 18:50:31  5-MIN KACK 242350Z 11009KT 5SM BR FEW012 07/05 A3000 -20 89 -900 120/09 RMK AO2 SLP157 T00670050 10083 20067 56021
14756KACK ACK20160324185510803/24/16 18:55:31  5-MIN KACK 242355Z 11008KT 5SM BR SCT012 07/05 A3000 -20 89 -900 130/08 RMK AO2 T00670050
14756KACK ACK20160324190010803/24/16 19:00:31  5-MIN KACK 250000Z 11008KT 5SM BR SCT011 07/05 A3000 -20 89 -900 130/08 RMK AO2 T00670050
14756KACK ACK20160324190510803/24/16 19:05:31  5-MIN KACK 250005Z 11009KT 5SM BR FEW011 07/05 A3000 -20 89 -900 120/09 RMK AO2 T00670050
14756KACK ACK20160324191010803/24/16 19:10:31  5-MIN KACK 250010Z 11009KT 5SM BR FEW012 07/05 A3000 -10 89 -900 120/09 RMK AO2 T00670050
14756KACK ACK20160324191510803/24/16 19:15:31  5-MIN KACK 250015Z 11008KT 5SM BR SCT012 07/05 A3000 -20 89 -900 120/08 RMK AO2 T00670050
14756KACK ACK20160324192010803/24/16 19:20:31  5-MIN KACK 250020Z 11008KT 5SM BR BKN014 07/05 A3000 -10 89 -900 130/08 RMK AO2 T00670050
14756KACK ACK20160324192510803/24/16 19:25:31  5-MIN KACK 250025Z 12009KT 5SM BR SCT014 07/05 A2999 -10 89 -900 130/09 RMK AO2 T00670050
14756KACK ACK20160324193010803/24/16 19:30:31  5-MIN KACK 250030Z 11009KT 5SM BR FEW014 07/06 A2999 -10 93 -900 130/09 RMK AO2 T00670056
14756KACK ACK20160324193510803/24/16 19:35:31  5-MIN KACK 250035Z 11009KT 5SM BR FEW014 07/05 A2999 -10 89 -900 130/09 RMK AO2 T00670050
14756KACK ACK20160324194010803/24/16 19:40:31  5-MIN KACK 250040Z 11009KT 5SM BR SCT015 07/05 A2999 -10 89 -900 130/09 RMK AO2 T00670050
14756KACK ACK20160324194510803/24/16 19:45:31  5-MIN KACK 250045Z 12008KT 4SM BR FEW015 07/06 A2999 -10 93 -900 140/08 RMK AO2 T00670056
14756KACK ACK20160324195011403/24/16 19:50:31  5-MIN KACK 250050Z 12008KT 4SM BR SCT014 06/05 A2998 0 93 -1000 140/08 RMK AO2 SLP153 T00610050
14756KACK ACK20160324195511903/24/16 19:55:31  5-MIN KACK 250055Z AUTO 12007KT 3SM BR BKN014 06/05 A2999 -10 93 -1000 140/07 RMK AO2 T00610050 TSNO
14756KACK ACK20160324200012603/24/16 20:00:31  5-MIN KACK 250100Z AUTO 12005KT 3SM BR FEW010 BKN014 06/05 A2999 -10 93 -1000 130/05 RMK AO2 T00610050 TSNO
14756KACK ACK20160324200512603/24/16 20:05:31  5-MIN KACK 250105Z AUTO 12006KT 3SM BR SCT010 BKN014 06/06 A2999 -10 96 -1000 130/06 RMK AO2 T00610056 TSNO
14756KACK ACK20160324201012503/24/16 20:10:31  5-MIN KACK 250110Z AUTO 12006KT 4SM BR SCT010 OVC014 07/06 A2999 -10 93 -900 140/06 RMK AO2 T00670056 TSNO
14756KACK ACK20160324201512603/24/16 20:15:31  5-MIN KACK 250115Z AUTO 13006KT 4SM BR SCT010 OVC016 06/06 A2999 -10 96 -1000 140/06 RMK AO2 T00610056 TSNO
14756KACK ACK20160324202012603/24/16 20:20:31  5-MIN KACK 250120Z AUTO 13006KT 3SM BR SCT010 OVC016 06/05 A2999 -10 93 -1000 150/06 RMK AO2 T00610050 TSNO
14756KACK ACK20160324202512603/24/16 20:25:31  5-MIN KACK 250125Z AUTO 14006KT 3SM BR SCT010 OVC016 06/05 A2999 -10 93 -1000 150/06 RMK AO2 T00610050 TSNO
14756KACK ACK20160324203013003/24/16 20:30:31  5-MIN KACK 250130Z AUTO 14006KT 2 1/2SM BR FEW010 OVC016 06/06 A2998 -10 96 -1000 150/06 RMK AO2 T00610056 TSNO
14756KACK ACK20160324203512103/24/16 20:35:31  5-MIN KACK 250135Z AUTO 14005KT 2 1/2SM BR OVC017 06/05 A2998 0 93 -1000 160/05 RMK AO2 T00610050 TSNO
14756KACK ACK20160324204012103/24/16 20:40:31  5-MIN KACK 250140Z AUTO 14005KT 2 1/2SM BR OVC017 06/06 A2998 0 96 -1000 160/05 RMK AO2 T00610056 TSNO
14756KACK ACK20160324204512003/24/16 20:45:31  5-MIN KACK 250145Z AUTO 15005KT 2 1/2SM BR OVC017 07/06 A2998 0 93 -900 160/05 RMK AO2 T00670056 TSNO
14756KACK ACK20160324205012703/24/16 20:50:31  5-MIN KACK 250150Z AUTO 14005KT 2 1/2SM BR OVC017 07/06 A2998 0 93 -900 160/05 RMK AO2 SLP151 T00670056 TSNO
14756KACK ACK20160324205513603/24/16 20:55:31  5-MIN KACK 250155Z AUTO 14005KT 2 1/2SM -RA BR OVC017 07/06 A2998 0 93 -900 150/05 RMK AO2 RAB55 P0000 T00670056 TSNO
14756KACK ACK20160324210013403/24/16 21:00:31  5-MIN KACK 250200Z AUTO 14004KT 3SM -RA BR OVC017 07/06 A2997 0 93 -900 150/04 RMK AO2 RAB0155 P0000 T00670056 TSNO
14756KACK ACK20160324210513803/24/16 21:05:31  5-MIN KACK 250205Z AUTO 13004KT 2 1/2SM -RA BR OVC018 07/06 A2997 0 93 -900 150/04 RMK AO2 RAB0155 P0000 T00670056 TSNO
14756KACK ACK20160324211013803/24/16 21:10:31  5-MIN KACK 250210Z AUTO 13003KT 2 1/2SM -RA BR OVC018 07/06 A2997 0 89 -800 150/03 RMK AO2 RAB0155 P0000 T00720056 TSNO
14756KACK ACK20160324211513803/24/16 21:15:31  5-MIN KACK 250215Z AUTO 13003KT 2 1/2SM -RA BR OVC018 07/06 A2997 0 93 -800 150/03 RMK AO2 RAB0155 P0000 T00720061 TSNO
14756KACK ACK20160324212013903/24/16 21:20:31  5-MIN KACK 250220Z AUTO 00000KT 1 1/2SM -RA BR OVC018 07/06 A2997 10 93 -800 000/00 RMK AO2 RAB0155 P0000 T00720061 TSNO
14756KACK ACK20160324212513903/24/16 21:25:31  5-MIN KACK 250225Z AUTO 00000KT 1 1/4SM -RA BR OVC016 07/06 A2997 10 93 -800 000/00 RMK AO2 RAB0155 P0000 T00720061 TSNO
14756KACK ACK20160324213014603/24/16 21:30:31  5-MIN KACK 250230Z AUTO 00000KT 1 1/2SM -RA BR FEW004 OVC016 07/06 A2997 10 93 -800 000/00 RMK AO2 RAB0155 P0000 T00720061 TSNO
14756KACK ACK20160324213514603/24/16 21:35:31  5-MIN KACK 250235Z AUTO 00000KT 1 1/4SM -RA BR SCT004 OVC016 07/06 A2996 10 93 -800 000/00 RMK AO2 RAB0155 P0000 T00720061 TSNO
14756KACK ACK20160324214014603/24/16 21:40:31  5-MIN KACK 250240Z AUTO 00000KT 1 1/4SM -RA BR BKN002 OVC016 07/06 A2996 10 93 -800 000/00 RMK AO2 RAB0155 P0000 T00720061 TSNO
14756KACK ACK20160324214514603/24/16 21:45:31  5-MIN KACK 250245Z AUTO 00000KT 1 1/4SM -RA BR BKN002 OVC016 07/06 A2996 10 93 -800 000/00 RMK AO2 RAB0155 P0000 T00720061 TSNO
14756KACK ACK20160324215017303/24/16 21:50:31  5-MIN KACK 250250Z AUTO 00000KT 1SM R24/P6000FT -RA BR BKN002 OVC015 07/06 A2996 20 93 -800 000/00 RMK AO2 RAB0155 SLP144 P0000 60000 T00720061 58010 TSNO
14756KACK ACK20160324215515103/24/16 21:55:31  5-MIN KACK 250255Z AUTO 00000KT 1SM R24/6000VP6000FT -RA BR BKN002 OVC007 07/06 A2996 10 96 -900 000/00 RMK AO2 P0000 T00670061 TSNO
14756KACK ACK20160324220015203/24/16 22:00:31  5-MIN KACK 250300Z AUTO 00000KT 1SM R24/4500VP6000FT -RA BR BKN003 OVC007 06/06 A2997 10 96 -1000 000/00 RMK AO2 P0000 T00610056 TSNO
14756KACK ACK20160324220514803/24/16 22:05:31  5-MIN KACK 250305Z AUTO 00000KT 1 1/4SM R24/4500VP6000FT -RA BR OVC003 07/06 A2997 10 93 -800 000/00 RMK AO2 P0000 T00720061 TSNO
14756KACK ACK20160324221012703/24/16 22:10:31  5-MIN KACK 250310Z AUTO 00000KT 2SM -RA BR OVC003 07/07 A2997 10 96 -800 000/00 RMK AO2 P0000 T00720067 TSNO
14756KACK ACK20160324221513803/24/16 22:15:31  5-MIN KACK 250315Z AUTO 00000KT 2 1/2SM -RA BR BKN003 OVC007 08/07 A2997 10 93 -800 000/00 RMK AO2 P0000 T00780067 TSNO
14756KACK ACK20160324222014103/24/16 22:20:31  5-MIN KACK 250320Z AUTO 00000KT 2SM -RA BR BKN003 BKN007 OVC014 08/07 A2997 10 93 -700 000/00 RMK AO2 P0000 T00830072 TSNO
14756KACK ACK20160324222513803/24/16 22:25:31  5-MIN KACK 250325Z AUTO 00000KT 1 3/4SM -RA BR SCT003 OVC014 08/07 A2997 10 93 -700 000/00 RMK AO2 P0000 T00830072 TSNO
14756KACK ACK20160324223013703/24/16 22:30:31  5-MIN KACK 250330Z AUTO 26003KT 1 1/2SM -RA BR SCT003 OVC014 08/07 A2997 0 96 -800 280/03 RMK AO2 P0000 T00780072 TSNO
14756KACK ACK20160324223513803/24/16 22:35:31  5-MIN KACK 250335Z AUTO 26003KT 1 1/4SM -RA BR FEW003 OVC014 08/07 A2997 10 93 -800 280/03 RMK AO2 P0000 T00780067 TSNO
14756KACK ACK20160324224014403/24/16 22:40:31  5-MIN KACK 250340Z AUTO 24003KT 1 1/4SM -RA BR FEW003 BKN014 OVC065 07/07 A2997 0 96 -800 260/03 RMK AO2 P0000 T00720067 TSNO
14756KACK ACK20160324224514703/24/16 22:45:31  5-MIN KACK 250345Z AUTO 26003KT 1/2SM R24/P6000FT -RA FG BKN014 OVC065 07/07 A2998 0 96 -900 270/03 RMK AO2 P0000 T00720067 TSNO
14756KACK ACK20160324225013703/24/16 22:50:31  5-MIN KACK 250350Z AUTO 26003KT 1/2SM R24/P6000FT -RA FG SCT014 OVC065 08/07 A2998 0 93 -800 270/03 RMK AO2 P0000 TSNO
14756KACK ACK20160324225514403/24/16 22:55:31  5-MIN KACK 250355Z AUTO 26003KT 1 1/4SM -RA BR FEW006 SCT014 OVC065 08/07 A2998 0 93 -800 280/03 RMK AO2 P0000 T00780067 TSNO
14756KACK ACK20160324230014003/24/16 23:00:31  5-MIN KACK 250400Z AUTO 27003KT 3SM -RA BR SCT006 BKN013 OVC065 08/07 A2998 0 96 -800 280/03 RMK AO2 P0000 T00780072 TSNO
14756KACK ACK20160324230514003/24/16 23:05:31  5-MIN KACK 250405Z AUTO 28004KT 3SM -RA BR BKN006 BKN013 OVC065 08/07 A2998 0 93 -700 290/04 RMK AO2 P0000 T00830072 TSNO
14756KACK ACK20160324231013303/24/16 23:10:31  5-MIN KACK 250410Z AUTO 28003KT 3SM -RA BR BKN006 OVC065 08/07 A2998 0 93 -700 290/03 RMK AO2 P0000 T00830072 TSNO
14756KACK ACK20160324231513303/24/16 23:15:31  5-MIN KACK 250415Z AUTO 30003KT 3SM -RA BR BKN006 OVC065 08/07 A2997 0 93 -700 310/03 RMK AO2 P0000 T00830072 TSNO
14756KACK ACK20160324232013803/24/16 23:20:31  5-MIN KACK 250420Z AUTO 32003KT 3SM -RA BR OVC006 08/07 A2997 0 93 -700 340/03 RMK AO2 CIG 003V011 P0000 T00830072 TSNO
14756KACK ACK20160324232514203/24/16 23:25:31  5-MIN KACK 250425Z AUTO 34004KT 2 1/2SM -RA BR OVC005 08/07 A2997 0 93 -700 350/04 RMK AO2 CIG 002V007 P0000 T00830072 TSNO
14756KACK ACK20160324233014703/24/16 23:30:31  5-MIN KACK 250430Z AUTO 34006KT 1 1/2SM R24/3500VP6000FT -RA BR OVC005 08/07 A2997 0 89 -700 360/06 RMK AO2 P0000 T00830067 TSNO
14756KACK ACK20160324233514503/24/16 23:35:31  5-MIN KACK 250435Z AUTO 36005KT 3/4SM R24/2200V5500FT -RA BR OVC003 08/07 A2996 10 93 -800 010/05 RMK AO2 P0000 T00780067 TSNO
14756KACK ACK20160324234014403/24/16 23:40:31  5-MIN KACK 250440Z AUTO 03004KT 1/2SM R24/1800V3000FT -RA FG VV002 08/07 A2996 10 93 -800 040/04 RMK AO2 P0000 T00780067 TSNO
14756KACK ACK20160324234514403/24/16 23:45:31  5-MIN KACK 250445Z AUTO 02004KT 1/4SM R24/1800V2000FT -RA FG VV002 08/07 A2995 20 93 -800 040/04 RMK AO2 P0000 T00780067 TSNO
14756KACK ACK20160324235015603/24/16 23:50:31  5-MIN KACK 250450Z AUTO 01005KT 1/4SM R24/1800FT -RA FG VV002 08/07 A2996 10 93 -800 020/05 RMK AO2 SLP145 P0000 T00780067 400940056 TSNO
14756KACK ACK20160324235514403/24/16 23:55:31  5-MIN KACK 250455Z AUTO 35004KT 1/4SM R24/1600V1800FT -RA FG VV002 08/07 A2996 20 93 -800 010/04 RMK AO2 P0000 T00780067 TSNO
14756KACK ACK20160325000014403/25/16 00:00:31  5-MIN KACK 250500Z AUTO 35004KT 1/4SM R24/1600V1800FT -RA FG VV002 08/07 A2996 20 93 -800 010/04 RMK AO2 P0000 T00780067 TSNO
14756KACK ACK20160325000514403/25/16 00:05:31  5-MIN KACK 250505Z AUTO 36005KT 1/4SM R24/1400V1600FT -RA FG VV002 08/07 A2995 20 93 -800 020/05 RMK AO2 P0000 T00780067 TSNO
14756KACK ACK20160325001014403/25/16 00:10:31  5-MIN KACK 250510Z AUTO 02006KT 1/4SM R24/1400V1600FT -RA FG VV002 08/07 A2995 20 93 -700 040/06 RMK AO2 P0000 T00780067 TSNO
14756KACK ACK20160325001514403/25/16 00:15:31  5-MIN KACK 250515Z AUTO 03005KT 1/4SM R24/1200V1400FT -RA FG VV002 08/07 A2995 20 93 -700 040/05 RMK AO2 P0000 T00780067 TSNO
14756KACK ACK20160325002014403/25/16 00:20:31  5-MIN KACK 250520Z AUTO 04005KT 1/4SM R24/1000V1400FT -RA FG VV002 08/07 A2994 30 93 -700 050/05 RMK AO2 P0000 T00780067 TSNO
14756KACK ACK20160325002514403/25/16 00:25:31  5-MIN KACK 250525Z AUTO 04004KT 1/4SM R24/1000V1200FT -RA FG VV002 08/07 A2994 30 93 -700 050/04 RMK AO2 P0000 T00780067 TSNO
14756KACK ACK20160325003014403/25/16 00:30:31  5-MIN KACK 250530Z AUTO 06003KT 1/4SM R24/1000V1200FT -RA FG VV002 08/07 A2994 30 93 -700 080/03 RMK AO2 P0000 T00780067 TSNO
14756KACK ACK20160325003514403/25/16 00:35:31  5-MIN KACK 250535Z AUTO 08003KT 1/4SM R24/1000V1600FT -RA FG VV002 08/07 A2994 30 93 -700 090/03 RMK AO2 P0000 T00780067 TSNO
14756KACK ACK20160325004015203/25/16 00:40:31  5-MIN KACK 250540Z AUTO 00000KT 1/4SM R24/1400V2600FT -RA FG BKN002 OVC036 08/07 A2994 40 96 -700 000/00 RMK AO2 P0000 T00780072 TSNO
14756KACK ACK20160325004515903/25/16 00:45:31  5-MIN KACK 250545Z AUTO 00000KT 1/2SM R24/1600V2800FT -RA FG BKN004 BKN036 OVC047 08/07 A2993 40 96 -700 000/00 RMK AO2 P0000 T00780072 TSNO
14756KACK ACK20160325005014903/25/16 00:50:31  5-MIN KACK 250550Z AUTO 06003KT 1/2SM R24/2400V3500FT -RA FG BKN006 BKN036 OVC047 08/07 A2993 40 93 -700 080/03 RMK AO2 P0000 TSNO
14756KACK ACK20160325005515903/25/16 00:55:31  5-MIN KACK 250555Z AUTO 00000KT 3/4SM R24/2800V5500FT -RA BR SCT006 BKN036 OVC070 08/07 A2993 40 93 -700 000/00 RMK AO2 P0000 T00780067 TSNO
14756KACK ACK20160325010016203/25/16 01:00:31  5-MIN KACK 250600Z AUTO 09003KT 1 3/4SM R24/3000VP6000FT -RA BR SCT008 BKN035 OVC070 08/07 A2993 40 93 -700 100/03 RMK AO2 P0000 T00780067 TSNO
14756KACK ACK20160325010514103/25/16 01:05:31  5-MIN KACK 250605Z AUTO 09004KT 4SM -RA BR SCT008 BKN020 OVC070 08/07 A2992 50 96 -700 110/04 RMK AO2 P0000 T00780072 TSNO
14756KACK ACK20160325011014103/25/16 01:10:31  5-MIN KACK 250610Z AUTO 10004KT 4SM -RA BR BKN006 BKN020 OVC070 08/07 A2992 50 93 -700 120/04 RMK AO2 P0000 T00830072 TSNO
14756KACK ACK20160325011514103/25/16 01:15:31  5-MIN KACK 250615Z AUTO 10004KT 4SM -RA BR BKN006 BKN034 OVC047 08/07 A2992 50 93 -700 120/04 RMK AO2 P0000 T00830072 TSNO
14756KACK ACK20160325012014103/25/16 01:20:31  5-MIN KACK 250620Z AUTO 11003KT 4SM -RA BR BKN006 BKN036 OVC065 09/08 A2992 50 93 -600 120/03 RMK AO2 P0000 T00890078 TSNO
14756KACK ACK20160325012512703/25/16 01:25:31  5-MIN KACK 250625Z AUTO 00000KT 4SM -RA BR OVC006 09/08 A2992 50 93 -600 000/00 RMK AO2 P0000 T00890078 TSNO
14756KACK ACK20160325013012703/25/16 01:30:31  5-MIN KACK 250630Z AUTO 00000KT 5SM -RA BR OVC005 09/08 A2992 50 96 -600 000/00 RMK AO2 P0000 T00890083 TSNO
14756KACK ACK20160325013512703/25/16 01:35:31  5-MIN KACK 250635Z AUTO 13004KT 5SM -RA BR OVC005 09/08 A2992 50 93 -600 140/04 RMK AO2 P0000 T00890078 TSNO
14756KACK ACK20160325014012703/25/16 01:40:31  5-MIN KACK 250640Z AUTO 13006KT 4SM -RA BR OVC004 09/08 A2991 50 93 -600 150/06 RMK AO2 P0000 T00890078 TSNO
14756KACK ACK20160325014512703/25/16 01:45:31  5-MIN KACK 250645Z AUTO 13006KT 3SM -RA BR OVC004 09/07 A2991 60 89 -600 150/06 RMK AO2 P0000 T00890072 TSNO
14756KACK ACK20160325015012103/25/16 01:50:31  5-MIN KACK 250650Z AUTO 14007KT 2 1/2SM -RA BR OVC004 09/08 A2991 60 89 -500 160/07 RMK AO2 P0000 TSNO
14756KACK ACK20160325015513103/25/16 01:55:31  5-MIN KACK 250655Z AUTO 14006KT 2 1/2SM -RA BR OVC003 10/08 A2990 60 89 -400 160/06 RMK AO2 P0000 T01000083 TSNO
14756KACK ACK20160325020014803/25/16 02:00:31  5-MIN KACK 250700Z AUTO 16007KT 1 3/4SM R24/4000VP6000FT -RA BR OVC003 10/09 A2990 60 93 -400 170/07 RMK AO2 P0000 T01000089 TSNO
14756KACK ACK20160325020514603/25/16 02:05:31  5-MIN KACK 250705Z AUTO 16007KT 3/4SM R24/2200VP6000FT -RA BR OVC002 10/09 A2990 70 93 -400 180/07 RMK AO2 P0000 T01000089 TSNO
14756KACK ACK20160325021014403/25/16 02:10:31  5-MIN KACK 250710Z AUTO 16007KT 1/2SM R24/1800V3500FT -RA FG VV002 10/09 A2990 70 93 -400 180/07 RMK AO2 P0000 T01000089 TSNO
14756KACK ACK20160325021514403/25/16 02:15:31  5-MIN KACK 250715Z AUTO 17008KT 1/4SM R24/1600V2200FT -RA FG VV002 10/09 A2989 80 93 -400 180/08 RMK AO2 P0000 T01000089 TSNO
14756KACK ACK20160325022013903/25/16 02:20:31  5-MIN KACK 250720Z AUTO 17007KT 1/4SM R24/1600FT -RA FG VV002 10/09 A2989 80 93 -400 190/07 RMK AO2 P0000 T01000089 TSNO
14756KACK ACK20160325022514403/25/16 02:25:31  5-MIN KACK 250725Z AUTO 18005KT 1/4SM R24/1600V2000FT -RA FG VV002 10/09 A2989 80 93 -400 190/05 RMK AO2 P0000 T01000089 TSNO
14756KACK ACK20160325023014603/25/16 02:30:31  5-MIN KACK 250730Z AUTO 19004KT 1/4SM R24/1600V2200FT FG VV002 10/09 A2989 80 93 -400 200/04 RMK AO2 RAE29 P0000 T01000089 TSNO
14756KACK ACK20160325023514603/25/16 02:35:31  5-MIN KACK 250735Z AUTO 22003KT 1/2SM R24/2000V2200FT FG VV002 10/09 A2989 70 93 -400 230/03 RMK AO2 RAE29 P0000 T01000089 TSNO
14756KACK ACK20160325024014603/25/16 02:40:31  5-MIN KACK 250740Z AUTO 21003KT 1/2SM R24/2200V2400FT FG VV002 10/09 A2989 80 93 -400 230/03 RMK AO2 RAE29 P0000 T01000089 TSNO
14756KACK ACK20160325024514603/25/16 02:45:31  5-MIN KACK 250745Z AUTO 19006KT 1/2SM R24/2200V2600FT FG VV002 10/09 A2989 80 93 -400 200/06 RMK AO2 RAE29 P0000 T01000089 TSNO
14756KACK ACK20160325025015303/25/16 02:50:31  5-MIN KACK 250750Z AUTO 19007KT 1/2SM R24/2400V3500FT FG VV002 10/09 A2989 80 93 -400 200/07 RMK AO2 RAE29 SLP121 P0000 T01000089 TSNO
14756KACK ACK20160325025513403/25/16 02:55:31  5-MIN KACK 250755Z AUTO 19007KT 1/2SM R24/2600V4000FT FG VV002 10/09 A2989 80 93 -400 210/07 RMK AO2 T01000089 TSNO
14756KACK ACK20160325030013403/25/16 03:00:31  5-MIN KACK 250800Z AUTO 20008KT 3/4SM R24/3000V5500FT BR VV002 10/09 A2989 80 93 -400 220/08 RMK AO2 T01000089 TSNO
14756KACK ACK20160325030514103/25/16 03:05:31  5-MIN KACK 250805Z AUTO 20008KT 1SM R24/4000VP6000FT BR BKN002 OVC025 10/09 A2988 80 93 -400 220/08 RMK AO2 T01000089 TSNO
14756KACK ACK20160325031013103/25/16 03:10:31  5-MIN KACK 250810Z AUTO 19009KT 2SM BR BKN002 BKN025 OVC031 09/09 A2988 90 96 -500 210/09 RMK AO2 T00940089 TSNO
14756KACK ACK20160325031513103/25/16 03:15:31  5-MIN KACK 250815Z AUTO 19009KT 3SM BR SCT002 BKN025 OVC080 10/09 A2988 90 93 -400 210/09 RMK AO2 T01000089 TSNO
14756KACK ACK20160325032013103/25/16 03:20:31  5-MIN KACK 250820Z AUTO 19009KT 4SM BR SCT002 BKN027 OVC080 10/09 A2988 90 93 -400 210/09 RMK AO2 T01000089 TSNO
14756KACK ACK20160325032513103/25/16 03:25:31  5-MIN KACK 250825Z AUTO 19009KT 4SM BR FEW002 BKN027 OVC080 10/09 A2988 90 93 -400 210/09 RMK AO2 T01000089 TSNO
14756KACK ACK20160325033012403/25/16 03:30:31  5-MIN KACK 250830Z AUTO 19009KT 4SM BR SCT027 OVC080 10/09 A2988 90 93 -400 210/09 RMK AO2 T01000089 TSNO
14756KACK ACK20160325033512403/25/16 03:35:31  5-MIN KACK 250835Z AUTO 19009KT 4SM BR FEW027 OVC080 10/09 A2988 90 93 -400 210/09 RMK AO2 T01000089 TSNO
14756KACK ACK20160325034012403/25/16 03:40:31  5-MIN KACK 250840Z AUTO 19010KT 4SM BR FEW027 OVC080 10/09 A2987 90 93 -400 200/10 RMK AO2 T01000089 TSNO
14756KACK ACK20160325034513203/25/16 03:45:31  5-MIN KACK 250845Z AUTO 19011KT 4SM BR FEW020 SCT029 OVC080 10/09 A2987 100 93 -400 200/11 RMK AO2 T01000089 TSNO
14756KACK ACK20160325035014403/25/16 03:50:31  5-MIN KACK 250850Z AUTO 19011KT 4SM BR SCT018 OVC080 10/09 A2987 100 93 -400 210/11 RMK AO2 SLP114 60000 T01000089 58016 TSNO
14756KACK ACK20160325035512503/25/16 03:55:31  5-MIN KACK 250855Z AUTO 19013KT 4SM BR SCT018 OVC080 11/09 A2986 100 93 -300 200/13 RMK AO2 T01060094 TSNO
14756KACK ACK20160325040012503/25/16 04:00:31  5-MIN KACK 250900Z AUTO 18015KT 5SM BR BKN018 OVC080 11/09 A2986 100 93 -300 200/15 RMK AO2 T01060094 TSNO
14756KACK ACK20160325040513103/25/16 04:05:31  5-MIN KACK 250905Z AUTO 19015G21KT 5SM BR BKN018 OVC080 11/09 A2986 100 93 -300 200/15G21 RMK AO2 T01060094 TSNO
14756KACK ACK20160325041012503/25/16 04:10:31  5-MIN KACK 250910Z AUTO 19015KT 5SM BR BKN018 OVC080 11/09 A2986 100 89 -200 200/15 RMK AO2 T01110094 TSNO
14756KACK ACK20160325041512503/25/16 04:15:31  5-MIN KACK 250915Z AUTO 19016KT 5SM BR SCT018 OVC080 11/09 A2986 110 89 -200 200/16 RMK AO2 T01110094 TSNO
14756KACK ACK20160325042012503/25/16 04:20:31  5-MIN KACK 250920Z AUTO 19016KT 5SM BR SCT018 OVC080 11/10 A2986 110 93 -200 200/16 RMK AO2 T01110100 TSNO
14756KACK ACK20160325042513203/25/16 04:25:31  5-MIN KACK 250925Z AUTO 19016KT 5SM BR FEW018 SCT042 OVC080 11/10 A2986 110 93 -200 200/16 RMK AO2 T01110100 TSNO
14756KACK ACK20160325043013203/25/16 04:30:31  5-MIN KACK 250930Z AUTO 18015KT 5SM BR FEW020 FEW042 OVC080 11/10 A2985 110 93 -200 200/15 RMK AO2 T01110100 TSNO
14756KACK ACK20160325043512503/25/16 04:35:31  5-MIN KACK 250935Z AUTO 18015KT 5SM BR FEW035 OVC080 11/09 A2986 110 89 -200 200/15 RMK AO2 T01110094 TSNO
14756KACK ACK20160325044013203/25/16 04:40:31  5-MIN KACK 250940Z AUTO 18015KT 5SM BR SCT030 SCT037 OVC080 11/09 A2985 110 93 -300 200/15 RMK AO2 T01060094 TSNO
14756KACK ACK20160325044512203/25/16 04:45:31  5-MIN KACK 250945Z 18015KT 5SM BR BKN030 BKN037 OVC080 11/09 A2986 110 93 -300 200/15 RMK AO2 T01060094
14756KACK ACK20160325045012903/25/16 04:50:31  5-MIN KACK 250950Z 18016KT 5SM BR BKN030 BKN037 OVC080 11/09 A2985 110 93 -300 190/16 RMK AO2 SLP110 T01060094
14756KACK ACK20160325045511503/25/16 04:55:31  5-MIN KACK 250955Z 18015KT 5SM BR BKN029 OVC080 11/09 A2985 110 93 -300 190/15 RMK AO2 T01060094
14756KACK ACK20160325050011503/25/16 05:00:31  5-MIN KACK 251000Z 18016KT 5SM BR BKN029 OVC075 11/09 A2985 110 93 -300 190/16 RMK AO2 T01060094
14756KACK ACK20160325050511503/25/16 05:05:31  5-MIN KACK 251005Z 18015KT 5SM BR BKN029 OVC075 11/09 A2985 110 93 -300 190/15 RMK AO2 T01060094
14756KACK ACK20160325051011503/25/16 05:10:31  5-MIN KACK 251010Z 18016KT 5SM BR BKN029 OVC075 11/09 A2985 110 93 -300 200/16 RMK AO2 T01060094
14756KACK ACK20160325051511503/25/16 05:15:31  5-MIN KACK 251015Z 18015KT 5SM BR BKN029 OVC075 11/09 A2985 110 93 -300 190/15 RMK AO2 T01060094
14756KACK ACK20160325052011503/25/16 05:20:31  5-MIN KACK 251020Z 18014KT 5SM BR BKN029 OVC075 11/09 A2986 110 93 -300 190/14 RMK AO2 T01060094
14756KACK ACK20160325052511503/25/16 05:25:31  5-MIN KACK 251025Z 18014KT 5SM BR BKN029 OVC075 11/09 A2985 110 93 -300 190/14 RMK AO2 T01060094
14756KACK ACK20160325053011503/25/16 05:30:31  5-MIN KACK 251030Z 18014KT 5SM BR BKN029 OVC075 11/09 A2986 110 93 -300 190/14 RMK AO2 T01060094
14756KACK ACK20160325053511503/25/16 05:35:31  5-MIN KACK 251035Z 18014KT 5SM BR BKN029 OVC075 11/09 A2986 110 93 -300 190/14 RMK AO2 T01060094
14756KACK ACK20160325054011503/25/16 05:40:31  5-MIN KACK 251040Z 18015KT 5SM BR BKN029 OVC075 11/09 A2986 110 93 -300 200/15 RMK AO2 T01060094
14756KACK ACK20160325054512103/25/16 05:45:31  5-MIN KACK 251045Z 18014G21KT 4SM BR BKN029 OVC075 11/09 A2985 110 93 -300 200/14G21 RMK AO2 T01060094
14756KACK ACK20160325055010403/25/16 05:50:31  5-MIN KACK 251050Z 18014G21KT 4SM BR OVC075 11/09 A2985 110 93 -300 200/14G21 RMK AO2
14756KACK ACK20160325055510803/25/16 05:55:31  5-MIN KACK 251055Z 18015KT 4SM BR OVC075 11/09 A2985 110 93 -300 200/15 RMK AO2 T01060094
14756KACK ACK20160325060010803/25/16 06:00:31  5-MIN KACK 251100Z 18014KT 4SM BR OVC075 11/09 A2985 110 89 -200 200/14 RMK AO2 T01110094
14756KACK ACK20160325060510803/25/16 06:05:31  5-MIN KACK 251105Z 18013KT 4SM BR OVC075 11/09 A2985 110 89 -200 200/13 RMK AO2 T01110094
14756KACK ACK20160325061011503/25/16 06:10:31  5-MIN KACK 251110Z 18013KT 4SM BR FEW026 OVC075 11/09 A2985 110 89 -200 200/13 RMK AO2 T01110094
14756KACK ACK20160325061511503/25/16 06:15:31  5-MIN KACK 251115Z 18014KT 4SM BR FEW026 OVC075 11/09 A2985 110 89 -200 200/14 RMK AO2 T01110094
14756KACK ACK20160325062011503/25/16 06:20:31  5-MIN KACK 251120Z 18014KT 4SM BR FEW027 OVC075 11/09 A2985 110 89 -200 200/14 RMK AO2 T01110094
14756KACK ACK20160325062511503/25/16 06:25:31  5-MIN KACK 251125Z 18013KT 4SM BR FEW027 OVC080 11/09 A2985 110 89 -200 200/13 RMK AO2 T01110094
14756KACK ACK20160325063011503/25/16 06:30:31  5-MIN KACK 251130Z 18014KT 4SM BR FEW029 OVC080 11/09 A2985 110 89 -200 200/14 RMK AO2 T01110094
14756KACK ACK20160325063512203/25/16 06:35:31  5-MIN KACK 251135Z 18012KT 4SM BR FEW029 SCT065 OVC080 11/09 A2986 110 89 -200 190/12 RMK AO2 T01110094
14756KACK ACK20160325064012203/25/16 06:40:31  5-MIN KACK 251140Z 18013KT 4SM BR SCT029 BKN065 OVC080 11/09 A2986 110 89 -200 190/13 RMK AO2 T01110094
14756KACK ACK20160325064512203/25/16 06:45:31  5-MIN KACK 251145Z 18013KT 4SM BR SCT029 SCT050 OVC075 11/09 A2985 110 89 -200 190/13 RMK AO2 T01110094
14756KACK ACK20160325065015303/25/16 06:50:31  5-MIN KACK 251150Z 17012KT 4SM BR SCT027 BKN065 OVC080 11/09 A2985 110 89 -200 190/12 RMK AO2 SLP109 60000 T01110094 10111 20078 56023
14756KACK ACK20160325065512203/25/16 06:55:31  5-MIN KACK 251155Z 18014KT 4SM BR FEW022 BKN060 OVC080 11/09 A2985 110 89 -200 190/14 RMK AO2 T01110094
14756KACK ACK20160325070012203/25/16 07:00:31  5-MIN KACK 251200Z 18014KT 4SM BR FEW022 BKN060 OVC075 12/10 A2985 110 89 -200 190/14 RMK AO2 T01170100
14756KACK ACK20160325070512203/25/16 07:05:31  5-MIN KACK 251205Z 18014KT 5SM BR FEW022 BKN055 OVC075 12/11 A2985 110 89 -100 190/14 RMK AO2 T01220106
14756KACK ACK20160325071012203/25/16 07:10:31  5-MIN KACK 251210Z 18014KT 5SM BR FEW024 BKN055 OVC075 12/10 A2985 120 89 -200 200/14 RMK AO2 T01170100
14756KACK ACK20160325071512203/25/16 07:15:31  5-MIN KACK 251215Z 18014KT 5SM BR FEW022 BKN055 OVC075 12/10 A2985 120 89 -200 200/14 RMK AO2 T01170100
14756KACK ACK20160325072012203/25/16 07:20:31  5-MIN KACK 251220Z 18015KT 5SM BR FEW020 SCT055 OVC070 12/10 A2985 120 89 -200 200/15 RMK AO2 T01170100
14756KACK ACK20160325072511503/25/16 07:25:31  5-MIN KACK 251225Z 18017KT 5SM BR SCT055 BKN070 12/10 A2985 120 89 -200 200/17 RMK AO2 T01170100
14756KACK ACK20160325073011503/25/16 07:30:31  5-MIN KACK 251230Z 18016KT 5SM BR SCT050 BKN070 12/10 A2985 120 89 -200 200/16 RMK AO2 T01170100
14756KACK ACK20160325073511503/25/16 07:35:31  5-MIN KACK 251235Z 18017KT 5SM BR BKN050 BKN070 12/11 A2985 120 89 -100 200/17 RMK AO2 T01220106
14756KACK ACK20160325074011203/25/16 07:40:31  5-MIN KACK 251240Z 18015KT 5SM BR SCT050 BKN065 13/11 A2985 120 86 0 200/15 RMK AO2 T01280106
14756KACK ACK20160325074511203/25/16 07:45:31  5-MIN KACK 251245Z 19016KT 5SM BR SCT050 BKN060 13/11 A2985 110 86 0 200/16 RMK AO2 T01330111
14756KACK ACK20160325075011903/25/16 07:50:31  5-MIN KACK 251250Z 18017KT 6SM HZ FEW050 BKN060 13/11 A2985 110 83 0 200/17 RMK AO2 SLP108 T01330106
14756KACK ACK20160325075511203/25/16 07:55:31  5-MIN KACK 251255Z 18017KT 5SM BR SCT050 OVC060 13/11 A2985 120 86 0 200/17 RMK AO2 T01280106
14756KACK ACK20160325080010703/25/16 08:00:31  5-MIN KACK 251300Z 18016KT 5SM BR OVC060 13/11 A2985 120 86 0 200/16 RMK AO2 T01280106 $
14756KACK ACK20160325080510703/25/16 08:05:31  5-MIN KACK 251305Z 18016KT 5SM BR OVC060 13/11 A2985 120 86 0 200/16 RMK AO2 T01280106 $
14756KACK ACK20160325081010703/25/16 08:10:31  5-MIN KACK 251310Z 18017KT 5SM BR OVC060 13/11 A2985 120 86 0 200/17 RMK AO2 T01280106 $
14756KACK ACK20160325081510703/25/16 08:15:31  5-MIN KACK 251315Z 18016KT 5SM BR OVC060 13/11 A2985 110 89 0 200/16 RMK AO2 T01280111 $
14756KACK ACK20160325082009403/25/16 08:20:31  5-MIN KACK 251320Z 19018G24KT 5SM HZ OVC060 A2985 M M M 200/18G24 RMK AO2 $
14756KACK ACK20160325082509403/25/16 08:25:31  5-MIN KACK 251325Z 18017G24KT 5SM HZ OVC055 A2985 M M M 200/17G24 RMK AO2 $
14756KACK ACK20160325083008803/25/16 08:30:31  5-MIN KACK 251330Z 18018KT 5SM HZ OVC055 A2985 M M M 200/18 RMK AO2 $
14756KACK ACK20160325083509403/25/16 08:35:31  5-MIN KACK 251335Z 18016G23KT 5SM HZ OVC055 A2985 M M M 200/16G23 RMK AO2 $
14756KACK ACK20160325084009403/25/16 08:40:31  5-MIN KACK 251340Z 19016G23KT 5SM HZ OVC060 A2985 M M M 200/16G23 RMK AO2 $
14756KACK ACK20160325084510203/25/16 08:45:31  5-MIN KACK 251345Z 18017KT 5SM HZ FEW017 BKN055 OVC070 A2985 M M M 200/17 RMK AO2 $
14756KACK ACK20160325085012103/25/16 08:50:31  5-MIN KACK 251350Z 18018KT 5SM BR SCT017 BKN060 13/11 A2985 120 89 0 200/18 RMK AO2 SLP107 T01280111 $
14756KACK ACK20160325085511403/25/16 08:55:31  5-MIN KACK 251355Z 18018KT 6SM BR FEW017 BKN060 13/11 A2985 120 89 0 200/18 RMK AO2 T01280111 $
14756KACK ACK20160325090011403/25/16 09:00:31  5-MIN KACK 251400Z 18018KT 6SM BR FEW018 BKN060 13/11 A2984 120 89 0 200/18 RMK AO2 T01280111 $
14756KACK ACK20160325090513803/25/16 09:05:31  5-MIN KACK 251405Z 18018G26KT 6SM BR FEW018 BKN060 13/11 A2984 120 89 0 200/18G26 RMK AO2 PK WND 18026/1403 T01280111 $
14756KACK ACK20160325091013803/25/16 09:10:31  5-MIN KACK 251410Z 18020G26KT 6SM BR FEW018 BKN065 13/11 A2984 130 89 0 200/20G26 RMK AO2 PK WND 18026/1403 T01280111 $
14756KACK ACK20160325091513803/25/16 09:15:31  5-MIN KACK 251415Z 18019G25KT 6SM BR FEW018 BKN065 13/11 A2984 130 89 0 200/19G25 RMK AO2 PK WND 18026/1403 T01280111 $
14756KACK ACK20160325092012503/25/16 09:20:31  5-MIN KACK 251420Z 18020KT 6SM BR BKN065 13/11 A2983 130 89 0 190/20 RMK AO2 PK WND 18026/1403 T01280111 $
14756KACK ACK20160325092513103/25/16 09:25:31  5-MIN KACK 251425Z 18019G26KT 6SM BR SCT065 13/11 A2984 130 89 0 200/19G26 RMK AO2 PK WND 18026/1403 T01280111 $
14756KACK ACK20160325093013103/25/16 09:30:31  5-MIN KACK 251430Z 18020G26KT 6SM BR SCT065 13/11 A2984 130 89 0 190/20G26 RMK AO2 PK WND 18026/1403 T01280111 $
14756KACK ACK20160325093513103/25/16 09:35:31  5-MIN KACK 251435Z 18017G26KT 6SM BR FEW065 13/11 A2983 130 89 0 190/17G26 RMK AO2 PK WND 18026/1403 T01280111 $
14756KACK ACK20160325094012603/25/16 09:40:31  5-MIN KACK 251440Z 18018G25KT 6SM BR CLR 13/11 A2984 130 89 0 190/18G25 RMK AO2 PK WND 18026/1403 T01280111
14756KACK ACK20160325094512003/25/16 09:45:31  5-MIN KACK 251445Z 18018KT 6SM BR CLR 13/11 A2984 130 89 0 190/18 RMK AO2 PK WND 18026/1403 T01280111
14756KACK ACK20160325095013603/25/16 09:50:31  5-MIN KACK 251450Z 18019KT 6SM BR FEW021 13/11 A2984 130 89 0 190/19 RMK AO2 PK WND 18026/1403 SLP103 T01280111 56004
14756KACK ACK20160325095510503/25/16 09:55:31  5-MIN KACK 251455Z 18017KT 6SM HZ SCT019 13/10 A2984 120 80 0 190/17 RMK AO2 T01330100
14756KACK ACK20160325100011203/25/16 10:00:31  5-MIN KACK 251500Z 18017KT 6SM HZ SCT019 SCT120 13/10 A2984 130 80 0 190/17 RMK AO2 T01330100
14756KACK ACK20160325100511903/25/16 10:05:31  5-MIN KACK 251505Z 18017KT 6SM HZ FEW021 SCT055 BKN120 13/10 A2984 120 80 0 190/17 RMK AO2 T01330100
14756KACK ACK20160325101011903/25/16 10:10:31  5-MIN KACK 251510Z 18016KT 6SM HZ SCT018 BKN055 BKN120 13/10 A2984 120 80 0 190/16 RMK AO2 T01330100
14756KACK ACK20160325101511903/25/16 10:15:31  5-MIN KACK 251515Z 18016KT 6SM HZ SCT018 BKN055 BKN075 13/10 A2984 120 80 0 190/16 RMK AO2 T01330100
14756KACK ACK20160325102011903/25/16 10:20:31  5-MIN KACK 251520Z 18016KT 6SM HZ SCT020 BKN055 OVC120 13/10 A2984 120 83 0 190/16 RMK AO2 T01280100
14756KACK ACK20160325102511903/25/16 10:25:31  5-MIN KACK 251525Z 18016KT 5SM HZ FEW020 BKN055 OVC120 13/10 A2984 130 83 0 190/16 RMK AO2 T01280100
14756KACK ACK20160325103011903/25/16 10:30:31  5-MIN KACK 251530Z 18018KT 5SM HZ FEW018 BKN050 OVC080 13/10 A2984 130 83 0 190/18 RMK AO2 T01280100
14756KACK ACK20160325103512503/25/16 10:35:31  5-MIN KACK 251535Z 18016G24KT 6SM HZ FEW018 BKN050 OVC060 13/10 A2984 130 83 0 200/16G24 RMK AO2 T01280100
14756KACK ACK20160325104011203/25/16 10:40:31  5-MIN KACK 251540Z 18017KT 5SM HZ SCT020 OVC050 13/10 A2984 130 83 0 200/17 RMK AO2 T01280100
14756KACK ACK20160325104511903/25/16 10:45:31  5-MIN KACK 251545Z 18018KT 5SM HZ SCT018 BKN050 OVC060 13/10 A2983 130 83 0 190/18 RMK AO2 T01280100
14756KACK ACK20160325105012603/25/16 10:50:31  5-MIN KACK 251550Z 18018KT 5SM HZ SCT016 BKN050 OVC060 13/10 A2983 130 83 0 190/18 RMK AO2 SLP101 T01280100
14756KACK ACK20160325105511903/25/16 10:55:31  5-MIN KACK 251555Z 18018KT 5SM HZ SCT016 BKN027 OVC060 13/11 A2983 140 83 0 190/18 RMK AO2 T01330106
14756KACK ACK20160325110011803/25/16 11:00:31  5-MIN KACK 251600Z 18017G24KT 6SM HZ BKN016 OVC055 13/11 A2983 140 86 0 200/17G24 RMK AO2 T01280106
14756KACK ACK20160325110512503/25/16 11:05:31  5-MIN KACK 251605Z 18017G24KT 6SM HZ SCT016 SCT027 OVC055 13/10 A2982 140 83 0 190/17G24 RMK AO2 T01280100
14756KACK ACK20160325111012503/25/16 11:10:31  5-MIN KACK 251610Z 18019G25KT 5SM HZ SCT014 SCT027 OVC050 13/10 A2982 140 83 0 190/19G25 RMK AO2 T01280100
14756KACK ACK20160325111512803/25/16 11:15:31  5-MIN KACK 251615Z 18017G25KT 5SM HZ FEW014 BKN050 OVC060 12/10 A2982 140 86 -100 190/17G25 RMK AO2 T01220100
14756KACK ACK20160325112012203/25/16 11:20:31  5-MIN KACK 251620Z 18018KT 5SM HZ FEW016 SCT024 OVC050 12/10 A2982 140 86 -100 190/18 RMK AO2 T01220100
14756KACK ACK20160325112516203/25/16 11:25:31  5-MIN KACK 251625Z 18019G26KT 4SM -RA BR SCT024 SCT030 OVC050 12/10 A2982 140 86 -100 190/19G26 RMK AO2 PK WND 17026/1625 RAB25 P0000 T01220100
14756KACK ACK20160325113015603/25/16 11:30:31  5-MIN KACK 251630Z 18018KT 3SM -RA BR SCT024 BKN050 OVC060 12/11 A2982 140 89 -100 200/18 RMK AO2 PK WND 17026/1625 RAB25 P0000 T01220106
14756KACK ACK20160325113516203/25/16 11:35:31  5-MIN KACK 251635Z 18017G25KT 3SM -RA BR SCT023 BKN050 OVC070 12/11 A2982 140 89 -100 200/17G25 RMK AO2 PK WND 17026/1625 RAB25 P0000 T01220106
14756KACK ACK20160325114016103/25/16 11:40:31  5-MIN KACK 251640Z 18018G25KT 4SM BR SCT023 BKN046 OVC070 12/11 A2982 140 93 -100 200/18G25 RMK AO2 PK WND 17026/1625 RAB25E36 P0000 T01220111
14756KACK ACK20160325114516103/25/16 11:45:31  5-MIN KACK 251645Z 18018G25KT 4SM BR SCT023 BKN032 OVC049 12/11 A2982 140 93 -100 200/18G25 RMK AO2 PK WND 17026/1625 RAB25E36 P0000 T01220111
14756KACK ACK20160325115016803/25/16 11:50:31  5-MIN KACK 251650Z 18019G24KT 4SM BR FEW023 BKN032 OVC055 12/11 A2982 140 93 -100 200/19G24 RMK AO2 PK WND 17026/1625 RAB25E36 SLP097 P0000 T01220111
14756KACK ACK20160325115512803/25/16 11:55:31  5-MIN KACK 251655Z 18018G25KT 4SM BR SCT023 BKN032 OVC048 12/11 A2982 150 93 -100 200/18G25 RMK AO2 T01170106
14756KACK ACK20160325120013003/25/16 12:00:31  5-MIN KACK 251700Z 18016G25KT 3SM BR SCT023 BKN032 OVC038 12/11 A2981 150 93 -100 200/16G25 RMK AO2 T01170106 $
14756KACK ACK20160325120514403/25/16 12:05:31  5-MIN KACK 251705Z 18015KT 3SM TSRA BKN023 BKN031 OVC038 12/11 A2981 150 93 -100 200/15 RMK AO2 RAB01 TSB03 P0000 T01170106 $
14756KACK ACK20160325121015403/25/16 12:10:31  5-MIN KACK 251710Z 19017KT 2SM R24/3500VP6000FT TSRA BKN021 OVC031 12/11 A2981 150 93 -100 200/17 RMK AO2 RAB01 TSB03 P0008 T01170106 $
14756KACK ACK20160325121516303/25/16 12:15:31  5-MIN KACK 251715Z 18018KT 1 1/4SM R24/3500VP6000FT +RA BR BKN021 OVC031 12/11 A2981 150 93 -100 200/18 RMK AO2 RAB01 TSB03E14 P0013 T01170106 $
14756KACK ACK20160325122016103/25/16 12:20:31  5-MIN KACK 251720Z 19015G24KT 1 3/4SM R24/3500VP6000FT RA BR OVC021 12/11 A2981 150 93 -100 200/15G24 RMK AO2 RAB01 TSB03E14 P0013 T01170106 $
14756KACK ACK20160325122516103/25/16 12:25:31  5-MIN KACK 251725Z 19017G23KT 1 1/2SM R24/4500VP6000FT RA BR OVC021 12/11 A2981 150 93 -100 210/17G23 RMK AO2 RAB01 TSB03E14 P0015 T01170106 $
14756KACK ACK20160325123016603/25/16 12:30:31  5-MIN KACK 251730Z 19018G25KT 2SM R24/3500VP6000FT TSRA FEW003 OVC021 12/11 A2981 150 89 -100 210/18G25 RMK AO2 RAB01 TSB03E14B27 P0019 T01220106 $
14756KACK ACK20160325123517003/25/16 12:35:31  5-MIN KACK 251735Z 19016G25KT 2SM R24/3500VP6000FT TSRA FEW003 BKN019 OVC028 12/11 A2980 160 93 0 200/16G25 RMK AO2 RAB01 TSB03E14B27 P0020 T01220111 $
14756KACK ACK20160325124017003/25/16 12:40:31  5-MIN KACK 251740Z 18016G23KT 2SM R24/3500VP6000FT TSRA FEW004 BKN019 OVC026 12/11 A2980 160 93 0 200/16G23 RMK AO2 RAB01 TSB03E14B27 P0020 T01220111 $
14756KACK ACK20160325124517003/25/16 12:45:31  5-MIN KACK 251745Z 18017G23KT 2SM R24/4500VP6000FT TSRA FEW004 BKN019 OVC026 12/11 A2980 160 93 0 200/17G23 RMK AO2 RAB01 TSB03E14B27 P0023 T01220111 $
14756KACK ACK20160325125016703/25/16 12:50:31  5-MIN KACK 251750Z 18018G25KT 3/4SM R24/2600VP6000FT +RA BR FEW004 SCT017 OVC023 12/11 A2979 170 93 0 200/18G25 RMK AO2 RAB01 TSB03E14B27E50 P0036 $
14756KACK ACK20160325125514903/25/16 12:55:31  5-MIN KACK 251755Z 18016G25KT 3/4SM R24/2600VP6000FT +RA BR FEW002 OVC022 12/11 A2979 170 93 0 200/16G25 RMK AO2 P0000 T01220111 $
14756KACK ACK20160325130015703/25/16 13:00:31  5-MIN KACK 251800Z 18015G25KT 1SM R24/3500VP6000FT +RA BR FEW004 BKN019 OVC023 12/11 A2978 180 96 -100 200/15G25 RMK AO2 P0004 T01170111 $
14756KACK ACK20160325130515803/25/16 13:05:31  5-MIN KACK 251805Z 18018G25KT 1 1/4SM R24/3500VP6000FT -RA BR FEW004 BKN019 OVC023 12/11 A2978 180 93 0 200/18G25 RMK AO2 P0006 T01220111 $
14756KACK ACK20160325131016103/25/16 13:10:31  5-MIN KACK 251810Z 18020G25KT 1 1/4SM R24/2600VP6000FT +RA BR FEW004 BKN019 OVC023 12/11 A2978 180 96 -100 200/20G25 RMK AO2 P0012 T01170111 $
14756KACK ACK20160325131517303/25/16 13:15:31  5-MIN KACK 251815Z 18020G27KT 3/4SM R24/2600V5000FT +RA BR FEW004 BKN019 OVC023 12/11 A2977 180 93 0 200/20G27 RMK AO2 PK WND 18027/1812 P0019 T01220111 $
14756KACK ACK20160325132017503/25/16 13:20:31  5-MIN KACK 251820Z 18019G27KT 1 1/4SM R24/2600V6000FT +RA BR FEW004 BKN019 OVC023 12/12 A2977 190 96 0 200/19G27 RMK AO2 PK WND 18027/1812 P0026 T01220117 $
14756KACK ACK20160325132517003/25/16 13:25:31  5-MIN KACK 251825Z 18018KT 1 1/4SM R24/2600VP6000FT -RA BR FEW004 BKN019 OVC023 12/12 A2977 180 96 0 200/18 RMK AO2 PK WND 18027/1812 P0026 T01220117 $
14756KACK ACK20160325133017003/25/16 13:30:31  5-MIN KACK 251830Z 19018KT 1 1/4SM R24/5500VP6000FT -RA BR FEW004 BKN019 OVC023 12/12 A2978 180 96 0 200/18 RMK AO2 PK WND 18027/1812 P0026 T01220117 $
14756KACK ACK20160325133517003/25/16 13:35:31  5-MIN KACK 251835Z 19017KT 2SM R24/5000VP6000FT TSRA SCT002 BKN012 OVC036 12/12 A2978 180 96 0 200/17 RMK AO2 PK WND 18027/1812 TSB35 P0026 T01220117 $
14756KACK ACK20160325134017703/25/16 13:40:31  5-MIN KACK 251840Z 19016KT 1 3/4SM R24/5000VP6000FT TSRA BKN002 BKN012 OVC036 12/11 A2978 180 96 -100 200/16 RMK AO2 PK WND 18027/1812 TSB35 P0027 T01170111 $
14756KACK ACK20160325134518003/25/16 13:45:31  5-MIN KACK 251845Z AUTO 19016KT 2SM R24/5000V6000FT RA BKN002 BKN014 OVC055 12/11 A2979 170 96 -100 200/16 RMK AO2 PK WND 18027/1812 TSB35 P0028 T01170111 TSNO $
14756KACK ACK20160325135017703/25/16 13:50:31  5-MIN KACK 251850Z 19016KT 2SM R24/5000V6000FT RA BKN002 BKN016 OVC036 12/11 A2978 180 96 -100 200/16 RMK AO2 PK WND 18027/1812 TSB35 SLP085 P0028 T01170111 $
14756KACK ACK20160325135514703/25/16 13:55:31  5-MIN KACK 251855Z 19015KT 2SM R24/5500VP6000FT RA BKN002 BKN014 OVC033 12/11 A2979 170 96 -100 200/15 RMK AO2 P0000 T01170111 $
14756KACK ACK20160325140014703/25/16 14:00:31  5-MIN KACK 251900Z 19014KT 2SM R24/6000VP6000FT RA BKN002 BKN014 OVC031 12/11 A2979 170 96 -100 210/14 RMK AO2 P0000 T01170111 $
14756KACK ACK20160325140516803/25/16 14:05:31  5-MIN KACK 251905Z 26017G22KT 2 1/2SM R24/6000VP6000FT +RA BR BKN002 BKN017 OVC031 12/11 A2981 150 93 -100 270/17G22 RMK AO2 PRESRR P0000 T01220111 $
14756KACK ACK20160325141014403/25/16 14:10:31  5-MIN KACK 251910Z 22017G22KT 2 1/2SM +RA BR BKN002 BKN018 OVC031 12/11 A2981 150 93 -100 240/17G22 RMK AO2 P0000 T01220111 $
14756KACK ACK20160325141515903/25/16 14:15:31  5-MIN KACK 251915Z 22016KT 2SM R24/4500VP6000FT +RA BR BKN004 BKN007 OVC031 13/12 A2981 150 93 0 230/16 RMK AO2 WSHFT 1858 P0004 T01280117 $
14756KACK ACK20160325142016903/25/16 14:20:31  5-MIN KACK 251920Z 22016G25KT 1 3/4SM R24/4500VP6000FT +RA BR BKN002 BKN006 OVC028 13/12 A2980 160 93 0 230/16G25 RMK AO2 WSHFT 1858 P0006 T01330122 $
14756KACK ACK20160325142516903/25/16 14:25:31  5-MIN KACK 251925Z 21017G25KT 1 1/4SM R24/4000VP6000FT +RA BR BKN002 BKN006 OVC028 13/12 A2980 160 96 0 220/17G25 RMK AO2 WSHFT 1858 P0010 T01280122 $
14756KACK ACK20160325143015903/25/16 14:30:31  5-MIN KACK 251930Z 20016KT 1SM R24/4000VP6000FT +RA BR BKN002 BKN006 OVC028 13/12 A2979 170 93 0 220/16 RMK AO2 WSHFT 1858 P0013 T01280117 $
14756KACK ACK20160325143516103/25/16 14:35:31  5-MIN KACK 251935Z 21016KT 1 1/4SM R24/4500V5500FT RA BR BKN002 BKN006 OVC028 13/12 A2980 170 93 0 220/16 RMK AO2 WSHFT 1858 P0014 T01280117 $
14756KACK ACK20160325144016203/25/16 14:40:31  5-MIN KACK 251940Z 21015KT 1 1/4SM R24/4000V5500FT +RA BR BKN002 BKN006 OVC028 12/12 A2979 170 96 0 220/15 RMK AO2 WSHFT 1858 P0017 T01220117 $
14756KACK ACK20160325144516303/25/16 14:45:31  5-MIN KACK 251945Z 20012KT 1 1/4SM R24/4000VP6000FT -RA BR BKN002 BKN006 OVC028 12/12 A2979 170 96 0 220/12 RMK AO2 WSHFT 1858 P0017 T01220117 $
14756KACK ACK20160325145015203/25/16 14:50:31  5-MIN KACK 251950Z 20014KT 1 1/2SM R24/5500VP6000FT RA BR FEW014 BKN037 OVC075 12/12 A2979 170 96 0 220/14 RMK AO2 WSHFT 1858 P0018 $
14756KACK ACK20160325145515203/25/16 14:55:31  5-MIN KACK 251955Z 20013KT 1 1/2SM R24/4500VP6000FT -RA BR FEW014 BKN025 OVC070 12/12 A2979 170 96 0 220/13 RMK AO2 P0000 T01220117 $
14756KACK ACK20160325150015203/25/16 15:00:31  5-MIN KACK 252000Z 21013KT 1 3/4SM R24/4500VP6000FT -RA BR BKN014 BKN027 OVC070 12/12 A2979 170 96 0 220/13 RMK AO2 P0000 T01220117 $
14756KACK ACK20160325150513103/25/16 15:05:31  5-MIN KACK 252005Z 20014KT 2SM -RA BR BKN011 BKN017 OVC038 12/12 A2979 170 96 0 220/14 RMK AO2 P0000 T01220117 $
14756KACK ACK20160325151013703/25/16 15:10:31  5-MIN KACK 252010Z 20017G22KT 2SM -RA BR SCT008 BKN013 OVC028 13/12 A2980 170 93 0 210/17G22 RMK AO2 P0001 T01280117 $
14756KACK ACK20160325151513503/25/16 15:15:31  5-MIN KACK 252015Z 20015KT 1 3/4SM -RA BR SCT010 BKN013 OVC028 13/12 A2979 170 93 0 210/15 RMK AO2 P0001 T01280117 $
14756KACK ACK20160325152015203/25/16 15:20:31  5-MIN KACK 252020Z 20014KT 1 1/2SM R24/4500VP6000FT -RA BR FEW008 BKN013 OVC024 13/12 A2979 170 96 0 210/14 RMK AO2 P0001 T01280122 $
14756KACK ACK20160325152515003/25/16 15:25:31  5-MIN KACK 252025Z 20015KT 1SM R24/4000VP6000FT BR SCT008 BKN013 OVC024 13/12 A2980 160 93 0 220/15 RMK AO2 RAE22 P0001 T01280117 $
14756KACK ACK20160325153015003/25/16 15:30:31  5-MIN KACK 252030Z 20015KT 1SM R24/4000VP6000FT BR BKN006 BKN013 OVC022 13/12 A2980 160 96 0 220/15 RMK AO2 RAE22 P0001 T01280122 $
14756KACK ACK20160325153515403/25/16 15:35:31  5-MIN KACK 252035Z 20014KT 1 1/2SM R24/5500VP6000FT BR BKN006 BKN013 OVC022 13/12 A2980 160 93 0 210/14 RMK AO2 RAE22 P0001 T01280117 $
14756KACK ACK20160325154015203/25/16 15:40:31  5-MIN KACK 252040Z 20014KT 3/4SM R24/2600VP6000FT BR BKN004 BKN013 OVC019 12/11 A2980 160 93 0 210/14 RMK AO2 RAE22 P0001 T01220111 $
14756KACK ACK20160325154514203/25/16 15:45:31  5-MIN KACK 252045Z 20015G22KT 1/2SM R24/2600V4500FT FG VV003 12/12 A2980 160 96 0 210/15G22 RMK AO2 RAE22 P0001 T01220117 $
14756KACK ACK20160325155015503/25/16 15:50:31  5-MIN KACK 252050Z 20014KT 1/2SM R24/2400V3500FT FG VV003 12/12 A2980 160 96 0 220/14 RMK AO2 RAE22 SLP092 P0001 60048 T01220117 58017 $
14756KACK ACK20160325155512403/25/16 15:55:31  5-MIN KACK 252055Z 20014KT 1/2SM R24/2000V2800FT FG VV003 12/12 A2980 160 96 0 220/14 RMK AO2 T01220117 $
14756KACK ACK20160325160014203/25/16 16:00:31  5-MIN KACK 252100Z 20012KT 1/4SM R24/2000V2200FT -RA FG VV003 12/11 A2981 160 93 0 220/12 RMK AO2 RAB2057 P0000 T01220111 $
14756KACK ACK20160325160514203/25/16 16:05:31  5-MIN KACK 252105Z 20015KT 1/2SM R24/2000V2200FT -RA FG VV002 12/11 A2980 160 93 0 220/15 RMK AO2 RAB2057 P0000 T01220111 $
14756KACK ACK20160325161014203/25/16 16:10:31  5-MIN KACK 252110Z 20014KT 1/2SM R24/2000V2400FT -RA FG VV002 12/11 A2980 160 93 0 210/14 RMK AO2 RAB2057 P0000 T01220111 $
14756KACK ACK20160325161514503/25/16 16:15:31  5-MIN KACK 252115Z 19012KT 1/2SM R24/2000V2400FT -RA FG VV002 12/11 A2980 160 96 -100 210/12 RMK AO2 RAB2057 P0000 T01170111 $
14756KACK ACK20160325162014503/25/16 16:20:31  5-MIN KACK 252120Z 20013KT 1/2SM R24/1800V2200FT -RA FG VV002 12/11 A2980 160 96 -100 210/13 RMK AO2 RAB2057 P0000 T01170111 $
14756KACK ACK20160325162514503/25/16 16:25:31  5-MIN KACK 252125Z 20010KT 1/2SM R24/1800V2000FT -RA FG VV002 12/11 A2980 160 96 -100 220/10 RMK AO2 RAB2057 P0000 T01170111 $
14756KACK ACK20160325163014503/25/16 16:30:31  5-MIN KACK 252130Z 20009KT 1/2SM R24/1600V1800FT -RA FG VV002 12/11 A2980 160 96 -100 210/09 RMK AO2 RAB2057 P0000 T01170111 $
14756KACK ACK20160325163514503/25/16 16:35:31  5-MIN KACK 252135Z 19010KT 1/2SM R24/1600V2800FT -RA FG VV002 12/11 A2979 170 96 -100 210/10 RMK AO2 RAB2057 P0000 T01170111 $
14756KACK ACK20160325164014603/25/16 16:40:31  5-MIN KACK 252140Z 20011KT 1/2SM R24/1800VP6000FT -RA FG VV003 12/11 A2979 170 96 -100 220/11 RMK AO2 RAB2057 P0000 T01170111 $
14756KACK ACK20160325164514303/25/16 16:45:31  5-MIN KACK 252145Z 20010KT 1/2SM R24/2800VP6000FT -RA FG VV003 12/11 A2979 170 93 0 210/10 RMK AO2 RAB2057 P0000 T01220111 $
14756KACK ACK20160325165014903/25/16 16:50:31  5-MIN KACK 252150Z 20011KT 3/4SM R24/3500V6000FT -RA BR VV003 12/11 A2979 170 93 0 220/11 RMK AO2 RAB2057 SLP088 P0000 T01220111 $
14756KACK ACK20160325165513403/25/16 16:55:31  5-MIN KACK 252155Z 22008KT 3/4SM R24/3500V5000FT -RA BR VV002 12/11 A2980 170 93 0 230/08 RMK AO2 P0000 T01220111 $
14756KACK ACK20160325170013703/25/16 17:00:31  5-MIN KACK 252200Z 21008KT 3/4SM R24/2800V4000FT -RA BR VV002 12/11 A2980 160 96 -100 230/08 RMK AO2 P0000 T01170111 $
14756KACK ACK20160325170513703/25/16 17:05:31  5-MIN KACK 252205Z 21009KT 1/2SM R24/2600V3500FT -RA FG VV002 12/11 A2980 160 93 -100 220/09 RMK AO2 P0000 T01170106 $
14756KACK ACK20160325171013903/25/16 17:10:31  5-MIN KACK 252210Z 20009KT 1/2SM R24/2400V2800FT FG VV002 11/11 A2980 160 96 -200 220/09 RMK AO2 RAE07 P0000 T01110106 $
14756KACK ACK20160325171513903/25/16 17:15:31  5-MIN KACK 252215Z 20007KT 3/4SM R24/2200V2800FT BR VV003 11/11 A2980 160 96 -200 210/07 RMK AO2 RAE07 P0000 T01110106 $
14756KACK ACK20160325172013903/25/16 17:20:31  5-MIN KACK 252220Z 19007KT 3/4SM R24/2000V2800FT BR VV003 11/11 A2980 160 96 -200 210/07 RMK AO2 RAE07 P0000 T01110106 $
14756KACK ACK20160325172513903/25/16 17:25:31  5-MIN KACK 252225Z 19008KT 3/4SM R24/1800V2400FT BR VV003 11/10 A2979 170 93 -200 210/08 RMK AO2 RAE07 P0000 T01110100 $
14756KACK ACK20160325173014503/25/16 17:30:31  5-MIN KACK 252230Z 19010KT 1/2SM R24/1800V2600FT FG VV002 11/11 A2980 160 96 -200 200/10 RMK AO2 RAE07B27E29 P0000 T01110106 $
14756KACK ACK20160325173514503/25/16 17:35:31  5-MIN KACK 252235Z 19011KT 1/2SM R24/2000V3500FT FG VV002 12/11 A2980 160 93 -100 200/11 RMK AO2 RAE07B27E29 P0001 T01170106 $
14756KACK ACK20160325174014503/25/16 17:40:31  5-MIN KACK 252240Z 19010KT 1/2SM R24/2400V3500FT FG VV003 12/11 A2979 170 93 -100 200/10 RMK AO2 RAE07B27E29 P0001 T01170106 $
14756KACK ACK20160325174514503/25/16 17:45:31  5-MIN KACK 252245Z 19010KT 1/2SM R24/2400V3000FT FG VV003 12/11 A2980 160 93 -100 200/10 RMK AO2 RAE07B27E29 P0001 T01170106 $
14756KACK ACK20160325175015203/25/16 17:50:31  5-MIN KACK 252250Z 19010KT 1/2SM R24/2400V2800FT FG VV003 11/10 A2980 160 93 -200 200/10 RMK AO2 RAE07B27E29 SLP090 P0001 T01110100 $
14756KACK ACK20160325175512703/25/16 17:55:31  5-MIN KACK 252255Z 19009KT 1/2SM R24/2400V2800FT FG VV003 11/10 A2980 160 93 -200 200/09 RMK AO2 T01110100 $
14756KACK ACK20160325180012703/25/16 18:00:31  5-MIN KACK 252300Z 19009KT 1/2SM R24/2200V2400FT FG VV003 11/10 A2980 160 93 -200 200/09 RMK AO2 T01110100 $
14756KACK ACK20160325180512703/25/16 18:05:31  5-MIN KACK 252305Z 19009KT 1/2SM R24/2200V2600FT FG VV003 11/10 A2980 160 93 -200 200/09 RMK AO2 T01110100 $
14756KACK ACK20160325181012703/25/16 18:10:31  5-MIN KACK 252310Z 19009KT 1/2SM R24/2400V3000FT FG VV003 11/10 A2981 160 93 -200 210/09 RMK AO2 T01110100 $
14756KACK ACK20160325181512703/25/16 18:15:31  5-MIN KACK 252315Z 19010KT 1/2SM R24/2600V4000FT FG VV003 11/10 A2981 160 93 -200 210/10 RMK AO2 T01110100 $
14756KACK ACK20160325182012703/25/16 18:20:31  5-MIN KACK 252320Z 19010KT 3/4SM R24/3500V4500FT BR VV004 11/10 A2981 150 93 -200 210/10 RMK AO2 T01110100 $
14756KACK ACK20160325182512703/25/16 18:25:31  5-MIN KACK 252325Z 19009KT 3/4SM R24/4000V5000FT BR VV005 11/10 A2981 150 93 -200 210/09 RMK AO2 T01110100 $
14756KACK ACK20160325183012703/25/16 18:30:31  5-MIN KACK 252330Z 19009KT 3/4SM R24/3500V5000FT BR VV005 11/10 A2981 160 93 -200 200/09 RMK AO2 T01110100 $
14756KACK ACK20160325183512703/25/16 18:35:31  5-MIN KACK 252335Z 20009KT 1/2SM R24/2400V4000FT FG VV004 11/10 A2981 150 93 -200 210/09 RMK AO2 T01110100 $
14756KACK ACK20160325184012703/25/16 18:40:31  5-MIN KACK 252340Z 22008KT 1/2SM R24/2200V3000FT FG VV004 12/10 A2981 150 89 -100 230/08 RMK AO2 T01170100 $
14756KACK ACK20160325184514303/25/16 18:45:31  5-MIN KACK 252345Z 22007KT 1/2SM R24/2000V2400FT -RA FG VV004 12/11 A2981 150 93 -100 230/07 RMK AO2 RAB44 P0000 T01170106 $
14756KACK ACK20160325185013303/25/16 18:50:31  5-MIN KACK 252350Z 22007KT 1/2SM R24/2000V2200FT -RA FG VV003 12/11 A2981 150 93 -100 230/07 RMK AO2 RAB44 P0000 $
14756KACK ACK20160325185513703/25/16 18:55:31  5-MIN KACK 252355Z 22006KT 1/2SM R24/1800V2000FT -RA FG VV003 11/10 A2981 150 93 -200 240/06 RMK AO2 P0000 T01110100 $
14756KACK ACK20160325190013703/25/16 19:00:31  5-MIN KACK 260000Z 22006KT 1/2SM R24/1800V2000FT -RA FG VV003 11/10 A2981 150 93 -200 230/06 RMK AO2 P0000 T01110100 $
14756KACK ACK20160325190513703/25/16 19:05:31  5-MIN KACK 260005Z 25007KT 1/4SM R24/1800V2000FT -RA FG VV003 11/11 A2982 150 96 -200 270/07 RMK AO2 P0000 T01110106 $
14756KACK ACK20160325191013703/25/16 19:10:31  5-MIN KACK 260010Z 24008KT 1/2SM R24/1800V2000FT -RA FG VV003 12/11 A2981 150 93 -100 260/08 RMK AO2 P0000 T01170106 $
14756KACK ACK20160325191513703/25/16 19:15:31  5-MIN KACK 260015Z 24008KT 1/2SM R24/1800V2000FT -RA FG VV003 12/11 A2981 150 89 -100 260/08 RMK AO2 P0000 T01220106 $
14756KACK ACK20160325192013703/25/16 19:20:31  5-MIN KACK 260020Z 23008KT 1/2SM R24/2000V2200FT -RA FG VV003 12/11 A2982 150 93 -100 240/08 RMK AO2 P0000 T01220111 $
14756KACK ACK20160325192513703/25/16 19:25:31  5-MIN KACK 260025Z 22007KT 1/2SM R24/1400V2200FT -RA FG VV003 12/11 A2982 140 93 -100 230/07 RMK AO2 P0000 T01170106 $
14756KACK ACK20160325193013703/25/16 19:30:31  5-MIN KACK 260030Z 23008KT 1/2SM R24/1400V2000FT -RA FG VV003 11/10 A2983 140 93 -200 240/08 RMK AO2 P0000 T01110100 $
14756KACK ACK20160325193513703/25/16 19:35:31  5-MIN KACK 260035Z 24008KT 1/2SM R24/1400V1600FT -RA FG VV003 11/10 A2983 130 93 -200 250/08 RMK AO2 P0000 T01110100 $
14756KACK ACK20160325194013703/25/16 19:40:31  5-MIN KACK 260040Z 25007KT 1/2SM R24/1400V1800FT -RA FG VV003 11/10 A2983 130 93 -200 260/07 RMK AO2 P0000 T01110100 $
14756KACK ACK20160325194513703/25/16 19:45:31  5-MIN KACK 260045Z 25008KT 1/2SM R24/1600V1800FT -RA FG VV003 11/10 A2983 130 93 -200 260/08 RMK AO2 P0000 T01110100 $
14756KACK ACK20160325195014403/25/16 19:50:31  5-MIN KACK 260050Z 25009KT 1/4SM R24/1600V2400FT -RA FG VV002 12/11 A2984 120 93 -200 260/09 RMK AO2 SLP104 P0000 T01170106 $
14756KACK ACK20160325195513703/25/16 19:55:31  5-MIN KACK 260055Z 26009KT 1/2SM R24/1800V3000FT -RA FG VV002 12/11 A2984 120 93 -200 270/09 RMK AO2 P0000 T01170106 $
14756KACK ACK20160325200014403/25/16 20:00:31  5-MIN KACK 260100Z 27010KT 1/2SM R24/2600V3000FT -RA FG VV002 12/11 A2985 110 93 -100 280/10 RMK AO2 PRESRR P0000 T01220111 $
14756KACK ACK20160325200516003/25/16 20:05:31  5-MIN KACK 260105Z AUTO 30016G22KT 1/2SM R24/3000V3500FT -RA FG VV002 12/11 A2987 100 93 -100 320/16G22 RMK AO2 PRESRR P0000 T01220111 TSNO $
14756KACK ACK20160325201015303/25/16 20:10:31  5-MIN KACK 260110Z AUTO 33020KT 1/2SM R24/2400V3500FT -RA FG VV002 12/11 A2988 90 93 -200 340/20 RMK AO2 PRESRR P0000 T01170106 TSNO $
14756KACK ACK20160325201516403/25/16 20:15:31  5-MIN KACK 260115Z AUTO 34017G23KT 3/4SM R24/2400VP6000FT -RA BR VV002 09/07 A2988 90 89 -500 360/17G23 RMK AO2 WSHFT 0100 P0000 T00890072 TSNO $
14756KACK ACK20160325202016103/25/16 20:20:31  5-MIN KACK 260120Z AUTO 35015KT 1 1/2SM R24/4500VP6000FT -RA BR OVC002 08/07 A2988 90 93 -700 010/15 RMK AO2 WSHFT 0100 P0000 T00780067 TSNO $
14756KACK ACK20160325202514003/25/16 20:25:31  5-MIN KACK 260125Z AUTO 36014KT 2SM -RA BR OVC002 08/07 A2988 80 93 -700 010/14 RMK AO2 WSHFT 0100 P0000 T00780067 TSNO $
14756KACK ACK20160325203014203/25/16 20:30:31  5-MIN KACK 260130Z AUTO 35014KT 2SM BR OVC002 08/07 A2989 80 93 -700 010/14 RMK AO2 WSHFT 0100 RAE26 P0000 T00780067 TSNO $
14756KACK ACK20160325203514903/25/16 20:35:31  5-MIN KACK 260135Z AUTO 35013KT 2SM -RA BR OVC002 08/07 A2988 80 93 -600 360/13 RMK AO2 WSHFT 0100 RAE26B35 P0000 T00830072 TSNO $
14756KACK ACK20160325204014903/25/16 20:40:31  5-MIN KACK 260140Z AUTO 34013KT 2SM -RA BR OVC002 09/08 A2989 80 93 -500 360/13 RMK AO2 WSHFT 0100 RAE26B35 P0000 T00890078 TSNO $
14756KACK ACK20160325204515603/25/16 20:45:31  5-MIN KACK 260145Z AUTO 35012KT 3SM -RA BR BKN002 OVC012 09/08 A2989 80 93 -500 360/12 RMK AO2 WSHFT 0100 RAE26B35 P0000 T00890078 TSNO $
14756KACK ACK20160325205015303/25/16 20:50:31  5-MIN KACK 260150Z AUTO 35014KT 6SM -RA BR BKN002 BKN012 OVC018 09/08 A2989 80 93 -500 360/14 RMK AO2 WSHFT 0100 RAE26B35 P0000 TSNO $
14756KACK ACK20160325205513003/25/16 20:55:31  5-MIN KACK 260155Z AUTO 35013KT 7SM SCT002 BKN010 OVC018 08/07 A2989 70 93 -600 360/13 RMK AO2 T00830072 TSNO $
14756KACK ACK20160325210013003/25/16 21:00:31  5-MIN KACK 260200Z AUTO 35014KT 7SM FEW002 SCT010 OVC018 09/07 A2989 80 89 -600 010/14 RMK AO2 T00890072 TSNO $
14756KACK ACK20160325210513003/25/16 21:05:31  5-MIN KACK 260205Z AUTO 35014KT 7SM FEW002 FEW010 OVC018 09/08 A2990 70 93 -600 010/14 RMK AO2 T00890078 TSNO $
14756KACK ACK20160325211012303/25/16 21:10:31  5-MIN KACK 260210Z AUTO 35014KT 8SM FEW010 OVC020 09/08 A2990 70 93 -600 360/14 RMK AO2 T00890078 TSNO $
14756KACK ACK20160325211511603/25/16 21:15:31  5-MIN KACK 260215Z AUTO 35014KT 8SM OVC020 09/08 A2990 70 93 -600 360/14 RMK AO2 T00890078 TSNO $
14756KACK ACK20160325212011603/25/16 21:20:31  5-MIN KACK 260220Z AUTO 35013KT 8SM OVC020 09/07 A2991 60 89 -600 360/13 RMK AO2 T00890072 TSNO $
14756KACK ACK20160325212511603/25/16 21:25:31  5-MIN KACK 260225Z AUTO 35012KT 8SM OVC020 08/07 A2991 60 93 -600 360/12 RMK AO2 T00830072 TSNO $
14756KACK ACK20160325213011603/25/16 21:30:31  5-MIN KACK 260230Z AUTO 35013KT 7SM OVC022 08/07 A2991 60 93 -600 360/13 RMK AO2 T00830072 TSNO $
14756KACK ACK20160325213511603/25/16 21:35:31  5-MIN KACK 260235Z AUTO 35013KT 7SM OVC024 08/07 A2991 60 93 -600 360/13 RMK AO2 T00830072 TSNO $
14756KACK ACK20160325214011603/25/16 21:40:31  5-MIN KACK 260240Z AUTO 35012KT 7SM OVC024 08/07 A2992 50 93 -600 360/12 RMK AO2 T00830072 TSNO $
14756KACK ACK20160325214511603/25/16 21:45:31  5-MIN KACK 260245Z AUTO 35011KT 7SM OVC025 08/07 A2992 50 93 -700 360/11 RMK AO2 T00830072 TSNO $
14756KACK ACK20160325215013503/25/16 21:50:31  5-MIN KACK 260250Z AUTO 34013KT 7SM OVC025 08/07 A2992 50 93 -700 360/13 RMK AO2 SLP133 60000 T00830072 53003 TSNO $
14756KACK ACK20160325215511603/25/16 21:55:31  5-MIN KACK 260255Z AUTO 35012KT 7SM OVC025 08/07 A2993 40 93 -700 360/12 RMK AO2 T00830072 TSNO $
14756KACK ACK20160325220011603/25/16 22:00:31  5-MIN KACK 260300Z AUTO 34012KT 7SM OVC025 08/07 A2993 40 93 -700 360/12 RMK AO2 T00830072 TSNO $
14756KACK ACK20160325220511603/25/16 22:05:31  5-MIN KACK 260305Z AUTO 35013KT 8SM OVC026 08/07 A2993 40 93 -700 360/13 RMK AO2 T00830072 TSNO $
14756KACK ACK20160325221011603/25/16 22:10:31  5-MIN KACK 260310Z AUTO 34013KT 8SM OVC026 08/07 A2993 40 89 -700 360/13 RMK AO2 T00830067 TSNO $
14756KACK ACK20160325221511603/25/16 22:15:31  5-MIN KACK 260315Z AUTO 35012KT 9SM OVC026 08/07 A2994 30 89 -700 360/12 RMK AO2 T00830067 TSNO $
14756KACK ACK20160325222011703/25/16 22:20:31  5-MIN KACK 260320Z AUTO 35013KT 10SM OVC027 08/07 A2994 30 89 -700 360/13 RMK AO2 T00830067 TSNO $
14756KACK ACK20160325222511703/25/16 22:25:31  5-MIN KACK 260325Z AUTO 35014KT 10SM OVC027 08/07 A2994 30 89 -700 360/14 RMK AO2 T00830067 TSNO $
14756KACK ACK20160325223012303/25/16 22:30:31  5-MIN KACK 260330Z AUTO 35012G20KT 10SM OVC027 08/07 A2994 30 89 -700 010/12G20 RMK AO2 T00830067 TSNO $
14756KACK ACK20160325223512303/25/16 22:35:31  5-MIN KACK 260335Z AUTO 35012G20KT 10SM OVC027 08/07 A2994 30 89 -700 010/12G20 RMK AO2 T00830067 TSNO $
14756KACK ACK20160325224011703/25/16 22:40:31  5-MIN KACK 260340Z AUTO 35014KT 10SM BKN027 08/07 A2994 30 89 -700 360/14 RMK AO2 T00830067 TSNO $
14756KACK ACK20160325224511703/25/16 22:45:31  5-MIN KACK 260345Z AUTO 35012KT 10SM BKN027 08/06 A2995 20 89 -700 360/12 RMK AO2 T00780061 TSNO $
14756KACK ACK20160325225010703/25/16 22:50:31  5-MIN KACK 260350Z AUTO 35013KT 10SM SCT027 08/06 A2994 30 89 -700 360/13 RMK AO2 TSNO $
14756KACK ACK20160325225511703/25/16 22:55:31  5-MIN KACK 260355Z AUTO 35015KT 10SM FEW027 08/06 A2995 20 89 -800 360/15 RMK AO2 T00780061 TSNO $
14756KACK ACK20160325230012403/25/16 23:00:31  5-MIN KACK 260400Z AUTO 35014KT 10SM FEW027 FEW100 08/06 A2995 20 89 -800 360/14 RMK AO2 T00780061 TSNO $
14756KACK ACK20160325230511703/25/16 23:05:31  5-MIN KACK 260405Z AUTO 35014KT 10SM FEW100 08/06 A2996 10 89 -800 010/14 RMK AO2 T00780061 TSNO $
14756KACK ACK20160325231011703/25/16 23:10:31  5-MIN KACK 260410Z AUTO 36014KT 10SM FEW110 08/06 A2996 10 89 -800 010/14 RMK AO2 T00780061 TSNO $
14756KACK ACK20160325231512403/25/16 23:15:31  5-MIN KACK 260415Z AUTO 36014KT 10SM SCT042 SCT110 08/06 A2997 10 89 -800 010/14 RMK AO2 T00780061 TSNO $
14756KACK ACK20160325232012303/25/16 23:20:31  5-MIN KACK 260420Z AUTO 36014KT 10SM SCT042 BKN100 08/06 A2997 0 89 -800 010/14 RMK AO2 T00780061 TSNO $
14756KACK ACK20160325232512303/25/16 23:25:31  5-MIN KACK 260425Z AUTO 36012KT 10SM BKN040 BKN100 08/06 A2997 0 89 -800 010/12 RMK AO2 T00780061 TSNO $
14756KACK ACK20160325233012303/25/16 23:30:31  5-MIN KACK 260430Z AUTO 36015KT 10SM BKN040 BKN110 08/06 A2997 0 89 -800 020/15 RMK AO2 T00780061 TSNO $
14756KACK ACK20160325233512303/25/16 23:35:31  5-MIN KACK 260435Z AUTO 36014KT 10SM BKN039 BKN110 08/06 A2998 0 86 -700 010/14 RMK AO2 T00830061 TSNO $
14756KACK ACK20160325234011803/25/16 23:40:31  5-MIN KACK 260440Z AUTO 36013KT 10SM OVC037 08/06 A2999 -10 86 -700 010/13 RMK AO2 T00830061 TSNO $
14756KACK ACK20160325234511803/25/16 23:45:31  5-MIN KACK 260445Z AUTO 36014KT 10SM OVC037 08/06 A2999 -10 86 -700 020/14 RMK AO2 T00830061 TSNO $
14756KACK ACK20160325235013303/25/16 23:50:31  5-MIN KACK 260450Z AUTO 36015KT 10SM OVC035 08/06 A2998 0 89 -800 020/15 RMK AO2 SLP153 T00780061 401330022 TSNO $
14756KACK ACK20160325235511803/25/16 23:55:31  5-MIN KACK 260455Z AUTO 36015KT 10SM OVC035 08/06 A2999 -10 86 -800 020/15 RMK AO2 T00780056 TSNO $
14756KACK ACK20160326000011803/26/16 00:00:31  5-MIN KACK 260500Z AUTO 36016KT 10SM OVC035 08/06 A2999 -10 86 -800 020/16 RMK AO2 T00780056 TSNO $
14756KACK ACK20160326000511803/26/16 00:05:31  5-MIN KACK 260505Z AUTO 36015KT 10SM OVC035 08/06 A2999 -10 86 -800 020/15 RMK AO2 T00780056 TSNO $
14756KACK ACK20160326001011803/26/16 00:10:31  5-MIN KACK 260510Z AUTO 36014KT 10SM OVC035 08/06 A3000 -20 86 -800 020/14 RMK AO2 T00780056 TSNO $
14756KACK ACK20160326001512503/26/16 00:15:31  5-MIN KACK 260515Z AUTO 36013KT 10SM OVC034 08/06 A3001 -30 86 -800 010/13 RMK AO2 PRESRR T00780056 TSNO $
14756KACK ACK20160326002011803/26/16 00:20:31  5-MIN KACK 260520Z AUTO 36016KT 10SM OVC034 08/06 A3001 -20 86 -800 010/16 RMK AO2 T00780056 TSNO $
14756KACK ACK20160326002511803/26/16 00:25:31  5-MIN KACK 260525Z AUTO 36014KT 10SM OVC034 08/06 A3000 -20 86 -800 010/14 RMK AO2 T00780056 TSNO $
14756KACK ACK20160326003011803/26/16 00:30:31  5-MIN KACK 260530Z AUTO 35015KT 10SM OVC034 08/06 A3001 -30 86 -800 010/15 RMK AO2 T00780056 TSNO $
14756KACK ACK20160326003511803/26/16 00:35:31  5-MIN KACK 260535Z AUTO 36014KT 10SM OVC034 08/06 A3001 -30 86 -800 010/14 RMK AO2 T00780056 TSNO $
14756KACK ACK20160326004011803/26/16 00:40:31  5-MIN KACK 260540Z AUTO 36014KT 10SM OVC034 08/06 A3001 -30 86 -800 020/14 RMK AO2 T00780056 TSNO $
14756KACK ACK20160326004511803/26/16 00:45:31  5-MIN KACK 260545Z AUTO 36015KT 10SM OVC035 08/06 A3002 -40 86 -800 020/15 RMK AO2 T00780056 TSNO $
14756KACK ACK20160326005014903/26/16 00:50:31  5-MIN KACK 260550Z AUTO 35014KT 10SM OVC035 08/06 A3002 -40 86 -800 010/14 RMK AO2 SLP166 60000 T00780056 10122 20078 51028 TSNO $
14756KACK ACK20160326005511803/26/16 00:55:31  5-MIN KACK 260555Z AUTO 36015KT 10SM OVC035 08/06 A3002 -40 86 -800 010/15 RMK AO2 T00780056 TSNO $
14756KACK ACK20160326010011803/26/16 01:00:31  5-MIN KACK 260600Z AUTO 01015KT 10SM OVC036 08/06 A3002 -40 86 -800 020/15 RMK AO2 T00780056 TSNO $
14756KACK ACK20160326010511803/26/16 01:05:31  5-MIN KACK 260605Z AUTO 36013KT 10SM OVC036 08/06 A3002 -40 86 -800 020/13 RMK AO2 T00780056 TSNO $
14756KACK ACK20160326011011803/26/16 01:10:31  5-MIN KACK 260610Z AUTO 36014KT 10SM OVC036 08/06 A3002 -40 86 -800 010/14 RMK AO2 T00780056 TSNO $
14756KACK ACK20160326011511803/26/16 01:15:31  5-MIN KACK 260615Z AUTO 36013KT 10SM OVC036 08/06 A3002 -40 86 -800 020/13 RMK AO2 T00780056 TSNO $
14756KACK ACK20160326012011803/26/16 01:20:31  5-MIN KACK 260620Z AUTO 36014KT 10SM OVC036 08/06 A3003 -40 86 -800 020/14 RMK AO2 T00780056 TSNO $
14756KACK ACK20160326012511803/26/16 01:25:31  5-MIN KACK 260625Z AUTO 01013KT 10SM OVC036 08/06 A3002 -40 86 -800 020/13 RMK AO2 T00780056 TSNO $
14756KACK ACK20160326013011803/26/16 01:30:31  5-MIN KACK 260630Z AUTO 01014KT 10SM OVC037 08/06 A3002 -40 86 -800 020/14 RMK AO2 T00780056 TSNO $
14756KACK ACK20160326013511803/26/16 01:35:31  5-MIN KACK 260635Z AUTO 01011KT 10SM OVC039 08/06 A3003 -40 86 -800 030/11 RMK AO2 T00780056 TSNO $
14756KACK ACK20160326014011803/26/16 01:40:31  5-MIN KACK 260640Z AUTO 01013KT 10SM OVC039 08/06 A3003 -40 86 -800 030/13 RMK AO2 T00780056 TSNO $
14756KACK ACK20160326014511803/26/16 01:45:31  5-MIN KACK 260645Z AUTO 01011KT 10SM OVC039 08/06 A3003 -50 86 -800 020/11 RMK AO2 T00780056 TSNO $
14756KACK ACK20160326015012503/26/16 01:50:31  5-MIN KACK 260650Z AUTO 01012KT 10SM OVC039 08/06 A3003 -50 86 -800 020/12 RMK AO2 SLP168 T00780056 TSNO $
14756KACK ACK20160326015512403/26/16 01:55:31  5-MIN KACK 260655Z AUTO 01014G20KT 10SM OVC039 08/06 A3003 -40 86 -800 020/14G20 RMK AO2 T00780056 TSNO $
14756KACK ACK20160326020011803/26/16 02:00:31  5-MIN KACK 260700Z AUTO 01014KT 10SM OVC039 08/05 A3003 -50 82 -800 030/14 RMK AO2 T00780050 TSNO $
14756KACK ACK20160326020511803/26/16 02:05:31  5-MIN KACK 260705Z AUTO 01016KT 10SM OVC039 08/05 A3003 -50 82 -800 030/16 RMK AO2 T00780050 TSNO $
14756KACK ACK20160326021011803/26/16 02:10:31  5-MIN KACK 260710Z AUTO 01014KT 10SM OVC039 08/04 A3004 -60 79 -900 020/14 RMK AO2 T00780044 TSNO $
14756KACK ACK20160326021511803/26/16 02:15:31  5-MIN KACK 260715Z AUTO 01014KT 10SM OVC039 08/04 A3004 -60 79 -900 020/14 RMK AO2 T00780044 TSNO $
14756KACK ACK20160326022012403/26/16 02:20:31  5-MIN KACK 260720Z AUTO 01015G21KT 10SM OVC040 08/04 A3005 -60 79 -900 020/15G21 RMK AO2 T00780044 TSNO $
14756KACK ACK20160326022512403/26/16 02:25:31  5-MIN KACK 260725Z AUTO 01013G24KT 10SM OVC040 08/04 A3005 -60 79 -900 020/13G24 RMK AO2 T00780044 TSNO $
14756KACK ACK20160326023012403/26/16 02:30:31  5-MIN KACK 260730Z AUTO 01012G24KT 10SM BKN040 08/04 A3005 -70 79 -900 020/12G24 RMK AO2 T00780044 TSNO $
14756KACK ACK20160326023512403/26/16 02:35:31  5-MIN KACK 260735Z AUTO 01018G23KT 10SM BKN040 08/04 A3005 -70 76 -900 020/18G23 RMK AO2 T00780039 TSNO $
14756KACK ACK20160326024012403/26/16 02:40:31  5-MIN KACK 260740Z AUTO 01017G23KT 10SM SCT040 07/04 A3006 -70 79 -900 020/17G23 RMK AO2 T00720039 TSNO $
14756KACK ACK20160326024511903/26/16 02:45:31  5-MIN KACK 260745Z AUTO 01016KT 10SM BKN040 07/04 A3006 -80 79 -1000 020/16 RMK AO2 T00720039 TSNO $
14756KACK ACK20160326025012503/26/16 02:50:31  5-MIN KACK 260750Z AUTO 01016KT 10SM BKN041 08/04 A3006 -80 76 -900 020/16 RMK AO2 SLP180 T00780039 TSNO $
14756KACK ACK20160326025511803/26/16 02:55:31  5-MIN KACK 260755Z AUTO 01015KT 10SM BKN041 08/04 A3007 -80 76 -900 030/15 RMK AO2 T00780039 TSNO $
14756KACK ACK20160326030011803/26/16 03:00:31  5-MIN KACK 260800Z AUTO 01015KT 10SM BKN042 08/04 A3007 -80 76 -900 030/15 RMK AO2 T00780039 TSNO $
14756KACK ACK20160326030511903/26/16 03:05:31  5-MIN KACK 260805Z AUTO 01016KT 10SM OVC042 07/04 A3007 -80 79 -1000 030/16 RMK AO2 T00720039 TSNO $
14756KACK ACK20160326031011803/26/16 03:10:31  5-MIN KACK 260810Z AUTO 01016KT 10SM OVC041 08/04 A3007 -90 76 -900 020/16 RMK AO2 T00780039 TSNO $
14756KACK ACK20160326031511903/26/16 03:15:31  5-MIN KACK 260815Z AUTO 01013KT 10SM BKN041 07/03 A3008 -90 76 -1000 020/13 RMK AO2 T00720033 TSNO $
14756KACK ACK20160326032011903/26/16 03:20:31  5-MIN KACK 260820Z AUTO 01014KT 10SM BKN041 07/03 A3008 -90 76 -1000 030/14 RMK AO2 T00720033 TSNO $
14756KACK ACK20160326032511903/26/16 03:25:31  5-MIN KACK 260825Z AUTO 01016KT 10SM SCT041 07/03 A3008 -90 76 -1000 030/16 RMK AO2 T00720033 TSNO $
14756KACK ACK20160326033011903/26/16 03:30:31  5-MIN KACK 260830Z AUTO 01014KT 10SM SCT041 07/03 A3008 -90 76 -1000 030/14 RMK AO2 T00720033 TSNO $
14756KACK ACK20160326033512003/26/16 03:35:31  5-MIN KACK 260835Z AUTO 01015KT 10SM FEW041 07/03 A3008 -100 76 -1000 020/15 RMK AO2 T00720033 TSNO $
14756KACK ACK20160326034011703/26/16 03:40:31  5-MIN KACK 260840Z AUTO 01013KT 10SM CLR 07/03 A3009 -100 79 -1000 020/13 RMK AO2 T00670033 TSNO $
14756KACK ACK20160326034511703/26/16 03:45:31  5-MIN KACK 260845Z AUTO 01013KT 10SM CLR 07/03 A3008 -100 79 -1000 020/13 RMK AO2 T00670033 TSNO $
14756KACK ACK20160326035013003/26/16 03:50:31  5-MIN KACK 260850Z AUTO 36015KT 10SM CLR 07/03 A3009 -100 79 -1000 020/15 RMK AO2 SLP188 T00670033 53026 TSNO $
14756KACK ACK20160326035511703/26/16 03:55:31  5-MIN KACK 260855Z AUTO 01013KT 10SM CLR 07/03 A3009 -100 79 -1000 020/13 RMK AO2 T00670033 TSNO $
14756KACK ACK20160326040011703/26/16 04:00:31  5-MIN KACK 260900Z AUTO 01015KT 10SM CLR 07/03 A3009 -100 79 -1000 020/15 RMK AO2 T00670033 TSNO $
14756KACK ACK20160326040511703/26/16 04:05:31  5-MIN KACK 260905Z AUTO 36017KT 10SM CLR 07/03 A3010 -110 79 -1100 020/17 RMK AO2 T00670033 TSNO $
14756KACK ACK20160326041011703/26/16 04:10:31  5-MIN KACK 260910Z AUTO 36012KT 10SM CLR 07/03 A3010 -110 79 -1100 020/12 RMK AO2 T00670033 TSNO $
14756KACK ACK20160326041511703/26/16 04:15:31  5-MIN KACK 260915Z AUTO 36014KT 10SM CLR 07/03 A3010 -110 79 -1100 020/14 RMK AO2 T00670033 TSNO $
14756KACK ACK20160326042011703/26/16 04:20:31  5-MIN KACK 260920Z AUTO 01013KT 10SM CLR 07/03 A3011 -120 79 -1100 020/13 RMK AO2 T00670033 TSNO $
14756KACK ACK20160326042511703/26/16 04:25:31  5-MIN KACK 260925Z AUTO 01013KT 10SM CLR 06/03 A3011 -120 82 -1100 020/13 RMK AO2 T00610033 TSNO $
14756KACK ACK20160326043011703/26/16 04:30:31  5-MIN KACK 260930Z AUTO 36012KT 10SM CLR 07/03 A3012 -130 79 -1100 020/12 RMK AO2 T00670033 TSNO $
14756KACK ACK20160326043511703/26/16 04:35:31  5-MIN KACK 260935Z AUTO 36013KT 10SM CLR 06/03 A3012 -130 82 -1200 020/13 RMK AO2 T00610033 TSNO $
14756KACK ACK20160326044011703/26/16 04:40:31  5-MIN KACK 260940Z AUTO 01014KT 10SM CLR 06/03 A3012 -130 82 -1200 020/14 RMK AO2 T00610033 TSNO $
14756KACK ACK20160326044511703/26/16 04:45:31  5-MIN KACK 260945Z AUTO 01012KT 10SM CLR 06/03 A3013 -140 82 -1200 020/12 RMK AO2 T00610033 TSNO $
14756KACK ACK20160326045012703/26/16 04:50:31  5-MIN KACK 260950Z AUTO 01013KT 10SM FEW013 06/03 A3013 -140 82 -1200 020/13 RMK AO2 SLP203 T00610033 TSNO $
14756KACK ACK20160326045511803/26/16 04:55:31  5-MIN KACK 260955Z 01017G21KT 10SM CLR 06/03 A3013 -140 82 -1200 020/17G21 RMK AO2 T00610033 TSNO $
14756KACK ACK20160326050011303/26/16 05:00:31  5-MIN KACK 261000Z 01015G21KT 10SM CLR 06/03 A3014 -150 82 -1200 020/15G21 RMK AO2 T00610033 $
14756KACK ACK20160326050510703/26/16 05:05:31  5-MIN KACK 261005Z 01015KT 10SM CLR 06/03 A3014 -150 82 -1200 020/15 RMK AO2 T00610033 $
14756KACK ACK20160326051010703/26/16 05:10:31  5-MIN KACK 261010Z 36014KT 10SM CLR 06/03 A3015 -160 82 -1200 010/14 RMK AO2 T00610033 $
14756KACK ACK20160326051511003/26/16 05:15:31  5-MIN KACK 261015Z 36013KT 10SM FEW013 06/03 A3015 -160 82 -1200 020/13 RMK AO2 T00610033 $
14756KACK ACK20160326052011003/26/16 05:20:31  5-MIN KACK 261020Z 36016KT 10SM FEW013 06/03 A3015 -160 82 -1200 020/16 RMK AO2 T00610033 $
14756KACK ACK20160326052511003/26/16 05:25:31  5-MIN KACK 261025Z 01018KT 10SM FEW013 06/03 A3016 -160 79 -1200 030/18 RMK AO2 T00610028 $
14756KACK ACK20160326053010703/26/16 05:30:31  5-MIN KACK 261030Z 01017KT 10SM CLR 06/03 A3015 -160 79 -1200 020/17 RMK AO2 T00610028 $
14756KACK ACK20160326053511003/26/16 05:35:31  5-MIN KACK 261035Z 01019KT 10SM FEW032 06/03 A3016 -170 79 -1200 030/19 RMK AO2 T00610028 $
14756KACK ACK20160326054011003/26/16 05:40:31  5-MIN KACK 261040Z 01017KT 10SM FEW032 06/03 A3016 -170 79 -1200 020/17 RMK AO2 T00610028 $
14756KACK ACK20160326054510703/26/16 05:45:31  5-MIN KACK 261045Z 01015KT 10SM CLR 06/03 A3017 -170 79 -1200 030/15 RMK AO2 T00610028 $
14756KACK ACK20160326055012003/26/16 05:50:31  5-MIN KACK 261050Z 01016G22KT 10SM CLR 06/03 A3016 -170 79 -1200 020/16G22 RMK AO2 SLP213 T00610028 $
14756KACK ACK20160326055511303/26/16 05:55:31  5-MIN KACK 261055Z 01014G22KT 10SM CLR 06/03 A3017 -170 79 -1200 030/14G22 RMK AO2 T00610028 $
14756KACK ACK20160326060011003/26/16 06:00:31  5-MIN KACK 261100Z 36017KT 10SM FEW016 06/03 A3017 -180 79 -1200 020/17 RMK AO2 T00610028 $
14756KACK ACK20160326060511003/26/16 06:05:31  5-MIN KACK 261105Z 01016KT 10SM FEW016 06/03 A3018 -180 79 -1200 030/16 RMK AO2 T00610028 $
14756KACK ACK20160326061011003/26/16 06:10:31  5-MIN KACK 261110Z 01018KT 10SM FEW016 06/03 A3018 -180 79 -1200 020/18 RMK AO2 T00610028 $
14756KACK ACK20160326061511003/26/16 06:15:31  5-MIN KACK 261115Z 01019KT 10SM FEW016 06/03 A3018 -180 79 -1200 020/19 RMK AO2 T00610028 $
14756KACK ACK20160326062011603/26/16 06:20:31  5-MIN KACK 261120Z 01019G24KT 10SM FEW016 06/03 A3018 -190 79 -1200 030/19G24 RMK AO2 T00610028 $
14756KACK ACK20160326062511603/26/16 06:25:31  5-MIN KACK 261125Z 01017G24KT 10SM FEW016 06/03 A3019 -190 79 -1200 030/17G24 RMK AO2 T00610028 $
14756KACK ACK20160326063013403/26/16 06:30:31  5-MIN KACK 261130Z 01017G26KT 10SM FEW016 06/03 A3019 -190 79 -1200 030/17G26 RMK AO2 PK WND 02026/1126 T00610028 $
14756KACK ACK20160326063513403/26/16 06:35:31  5-MIN KACK 261135Z 01017G26KT 10SM SCT017 07/03 A3019 -200 76 -1200 030/17G26 RMK AO2 PK WND 02026/1126 T00670028 $
14756KACK ACK20160326064013403/26/16 06:40:31  5-MIN KACK 261140Z 01020G24KT 10SM SCT017 07/03 A3020 -200 76 -1200 030/20G24 RMK AO2 PK WND 02026/1126 T00670028 $
14756KACK ACK20160326064513403/26/16 06:45:31  5-MIN KACK 261145Z 02021G26KT 10SM SCT017 07/02 A3020 -200 73 -1200 040/21G26 RMK AO2 PK WND 02026/1143 T00670022 $
14756KACK ACK20160326065016503/26/16 06:50:31  5-MIN KACK 261150Z 01020G26KT 10SM SCT017 07/02 A3021 -210 73 -1200 030/20G26 RMK AO2 PK WND 02026/1143 SLP228 70090 T00670022 10078 20061 53023 $
14756KACK ACK20160326065511603/26/16 06:55:31  5-MIN KACK 261155Z 01021G24KT 10SM SCT017 07/02 A3021 -210 73 -1200 030/21G24 RMK AO2 T00670022 $
14756KACK ACK20160326070013403/26/16 07:00:31  5-MIN KACK 261200Z 02019G26KT 10SM SCT017 07/02 A3021 -210 73 -1200 030/19G26 RMK AO2 PK WND 02026/1200 T00670022 $
14756KACK ACK20160326070513403/26/16 07:05:31  5-MIN KACK 261205Z 02022G26KT 10SM FEW017 07/02 A3021 -210 70 -1200 030/22G26 RMK AO2 PK WND 02027/1204 T00670017 $
14756KACK ACK20160326071012803/26/16 07:10:31  5-MIN KACK 261210Z 01019KT 10SM FEW017 07/02 A3022 -220 70 -1200 020/19 RMK AO2 PK WND 01027/1207 T00670017 $
14756KACK ACK20160326071512803/26/16 07:15:31  5-MIN KACK 261215Z 02020KT 10SM FEW017 07/02 A3022 -220 70 -1200 030/20 RMK AO2 PK WND 01027/1207 T00670017 $
14756KACK ACK20160326072013403/26/16 07:20:31  5-MIN KACK 261220Z 01020G26KT 10SM FEW018 07/02 A3022 -220 68 -1100 030/20G26 RMK AO2 PK WND 01027/1207 T00720017 $
14756KACK ACK20160326072513103/26/16 07:25:31  5-MIN KACK 261225Z 01020G26KT 10SM CLR 07/02 A3022 -220 68 -1100 020/20G26 RMK AO2 PK WND 01027/1207 T00720017 $
14756KACK ACK20160326073012503/26/16 07:30:31  5-MIN KACK 261230Z 01019KT 10SM CLR 07/02 A3022 -220 68 -1100 020/19 RMK AO2 PK WND 01027/1207 T00720017 $
14756KACK ACK20160326073513103/26/16 07:35:31  5-MIN KACK 261235Z 02024G31KT 10SM CLR 07/02 A3022 -220 68 -1100 030/24G31 RMK AO2 PK WND 01031/1233 T00720017 $
14756KACK ACK20160326074013103/26/16 07:40:31  5-MIN KACK 261240Z 01026G32KT 10SM CLR 07/02 A3022 -230 68 -1100 020/26G32 RMK AO2 PK WND 01032/1240 T00720017 $
14756KACK ACK20160326074513103/26/16 07:45:31  5-MIN KACK 261245Z 02025G32KT 10SM CLR 07/01 A3023 -230 65 -1100 030/25G32 RMK AO2 PK WND 01032/1240 T00720011 $
14756KACK ACK20160326075014103/26/16 07:50:31  5-MIN KACK 261250Z 01023G30KT 10SM FEW019 07/02 A3023 -230 68 -1100 030/23G30 RMK AO2 PK WND 01032/1240 SLP236 T00720017 $
14756KACK ACK20160326075513403/26/16 07:55:31  5-MIN KACK 261255Z 01020G29KT 10SM FEW019 07/02 A3023 -230 68 -1100 030/20G29 RMK AO2 PK WND 02027/1255 T00720017 $
14756KACK ACK20160326080013403/26/16 08:00:31  5-MIN KACK 261300Z 02020G30KT 10SM FEW019 07/02 A3024 -240 68 -1100 030/20G30 RMK AO2 PK WND 02030/1258 T00720017 $
14756KACK ACK20160326080513403/26/16 08:05:31  5-MIN KACK 261305Z 02022G30KT 10SM FEW019 07/01 A3024 -240 67 -1200 030/22G30 RMK AO2 PK WND 02030/1258 T00670011 $
14756KACK ACK20160326081013403/26/16 08:10:31  5-MIN KACK 261310Z 02024G29KT 10SM FEW019 07/01 A3025 -240 67 -1200 040/24G29 RMK AO2 PK WND 02030/1258 T00670011 $
14756KACK ACK20160326081513403/26/16 08:15:31  5-MIN KACK 261315Z 02022G28KT 10SM FEW018 07/01 A3024 -240 67 -1200 030/22G28 RMK AO2 PK WND 02030/1258 T00670011 $
14756KACK ACK20160326082013403/26/16 08:20:31  5-MIN KACK 261320Z 02023G29KT 10SM FEW018 07/02 A3025 -250 68 -1200 040/23G29 RMK AO2 PK WND 02030/1258 T00720017 $
14756KACK ACK20160326082513403/26/16 08:25:31  5-MIN KACK 261325Z 01021G29KT 10SM FEW018 07/02 A3025 -250 68 -1200 030/21G29 RMK AO2 PK WND 02030/1258 T00720017 $
14756KACK ACK20160326083013403/26/16 08:30:31  5-MIN KACK 261330Z 02019G27KT 10SM FEW018 07/02 A3025 -250 68 -1200 030/19G27 RMK AO2 PK WND 02030/1258 T00720017 $
14756KACK ACK20160326083513403/26/16 08:35:31  5-MIN KACK 261335Z 02020G27KT 10SM SCT018 08/02 A3026 -260 65 -1100 040/20G27 RMK AO2 PK WND 02030/1258 T00780017 $
14756KACK ACK20160326084014103/26/16 08:40:31  5-MIN KACK 261340Z 02023G28KT 10SM SCT018 BKN038 07/02 A3026 -260 68 -1200 030/23G28 RMK AO2 PK WND 02030/1258 T00720017 $
14756KACK ACK20160326084514103/26/16 08:45:31  5-MIN KACK 261345Z 02020G28KT 10SM SCT018 BKN038 07/01 A3026 -260 65 -1200 040/20G28 RMK AO2 PK WND 02030/1258 T00720011 $
14756KACK ACK20160326085014803/26/16 08:50:31  5-MIN KACK 261350Z 02022G28KT 10SM SCT018 BKN038 07/02 A3027 -270 68 -1200 040/22G28 RMK AO2 PK WND 02030/1258 SLP249 T00720017 $
14756KACK ACK20160326085512303/26/16 08:55:31  5-MIN KACK 261355Z 02020G28KT 10SM BKN018 OVC038 07/02 A3027 -270 68 -1200 040/20G28 RMK AO2 T00720017 $
14756KACK ACK20160326090012303/26/16 09:00:31  5-MIN KACK 261400Z 03019G24KT 10SM BKN018 OVC038 07/02 A3027 -270 68 -1200 040/19G24 RMK AO2 T00720017 $
14756KACK ACK20160326090511703/26/16 09:05:31  5-MIN KACK 261405Z 03019KT 10SM BKN018 OVC038 07/02 A3028 -270 68 -1200 050/19 RMK AO2 T00720017 $
14756KACK ACK20160326091011003/26/16 09:10:31  5-MIN KACK 261410Z 02020KT 10SM OVC018 07/02 A3028 -270 68 -1200 030/20 RMK AO2 T00720017 $
14756KACK ACK20160326091511003/26/16 09:15:31  5-MIN KACK 261415Z 03019KT 10SM OVC017 07/02 A3028 -280 68 -1200 040/19 RMK AO2 T00720017 $
14756KACK ACK20160326092011603/26/16 09:20:31  5-MIN KACK 261420Z 02021G25KT 10SM OVC017 07/02 A3028 -280 68 -1200 040/21G25 RMK AO2 T00720017 $
14756KACK ACK20160326092511603/26/16 09:25:31  5-MIN KACK 261425Z 03019G25KT 10SM OVC017 07/02 A3029 -280 70 -1300 040/19G25 RMK AO2 T00670017 $
14756KACK ACK20160326093011003/26/16 09:30:31  5-MIN KACK 261430Z 02017KT 10SM OVC017 07/02 A3029 -290 68 -1200 030/17 RMK AO2 T00720017 $
14756KACK ACK20160326093511603/26/16 09:35:31  5-MIN KACK 261435Z 02015G24KT 10SM OVC017 07/02 A3029 -290 70 -1200 040/15G24 RMK AO2 T00720022 $
14756KACK ACK20160326094011603/26/16 09:40:31  5-MIN KACK 261440Z 03019G24KT 10SM OVC017 07/02 A3030 -290 70 -1200 040/19G24 RMK AO2 T00720022 $
14756KACK ACK20160326094511603/26/16 09:45:31  5-MIN KACK 261445Z 04019G24KT 10SM OVC017 07/02 A3030 -300 70 -1300 050/19G24 RMK AO2 T00670017 $
14756KACK ACK20160326095012303/26/16 09:50:31  5-MIN KACK 261450Z 04016KT 10SM OVC017 07/02 A3030 -300 70 -1300 060/16 RMK AO2 SLP261 T00670017 51040 $
14756KACK ACK20160326095511003/26/16 09:55:31  5-MIN KACK 261455Z 03018KT 10SM OVC017 07/02 A3030 -300 70 -1300 040/18 RMK AO2 T00670017 $
14756KACK ACK20160326100011603/26/16 10:00:31  5-MIN KACK 261500Z 03018G23KT 10SM OVC017 07/02 A3031 -300 68 -1200 050/18G23 RMK AO2 T00720017 $
14756KACK ACK20160326100511603/26/16 10:05:31  5-MIN KACK 261505Z 03019G25KT 10SM OVC017 07/01 A3031 -300 67 -1300 040/19G25 RMK AO2 T00670011 $
14756KACK ACK20160326101011003/26/16 10:10:31  5-MIN KACK 261510Z 02020KT 10SM OVC017 07/01 A3031 -300 67 -1300 040/20 RMK AO2 T00670011 $
14756KACK ACK20160326101511003/26/16 10:15:31  5-MIN KACK 261515Z 02021KT 10SM OVC018 07/01 A3031 -300 67 -1300 040/21 RMK AO2 T00670011 $
14756KACK ACK20160326102011003/26/16 10:20:31  5-MIN KACK 261520Z 04019KT 10SM OVC018 07/01 A3031 -300 67 -1300 050/19 RMK AO2 T00670011 $
14756KACK ACK20160326102511603/26/16 10:25:31  5-MIN KACK 261525Z 04016G24KT 10SM OVC018 07/01 A3031 -300 67 -1300 050/16G24 RMK AO2 T00670011 $
14756KACK ACK20160326103011603/26/16 10:30:31  5-MIN KACK 261530Z 04019G23KT 10SM OVC018 07/01 A3031 -300 67 -1300 050/19G23 RMK AO2 T00670011 $
14756KACK ACK20160326103511603/26/16 10:35:31  5-MIN KACK 261535Z 03017G25KT 10SM OVC018 07/01 A3031 -300 67 -1300 050/17G25 RMK AO2 T00670011 $
14756KACK ACK20160326104011603/26/16 10:40:31  5-MIN KACK 261540Z 03020G25KT 10SM OVC018 07/02 A3031 -300 68 -1200 050/20G25 RMK AO2 T00720017 $
14756KACK ACK20160326104511003/26/16 10:45:31  5-MIN KACK 261545Z 03019KT 10SM OVC018 07/01 A3031 -310 65 -1200 050/19 RMK AO2 T00720011 $
14756KACK ACK20160326105012303/26/16 10:50:31  5-MIN KACK 261550Z 03015G24KT 10SM OVC018 08/02 A3031 -310 65 -1200 050/15G24 RMK AO2 SLP264 T00780017 $
14756KACK ACK20160326105511003/26/16 10:55:31  5-MIN KACK 261555Z 02020KT 10SM OVC018 08/02 A3031 -300 65 -1100 030/20 RMK AO2 T00830022 $
14756KACK ACK20160326110011003/26/16 11:00:31  5-MIN KACK 261600Z 02016KT 10SM OVC018 08/02 A3031 -310 65 -1200 040/16 RMK AO2 T00780017 $
14756KACK ACK20160326110511003/26/16 11:05:31  5-MIN KACK 261605Z 01020KT 10SM OVC018 08/02 A3031 -300 68 -1200 030/20 RMK AO2 T00780022 $
14756KACK ACK20160326111013403/26/16 11:10:31  5-MIN KACK 261610Z 02021G27KT 10SM OVC018 08/02 A3031 -310 65 -1200 030/21G27 RMK AO2 PK WND 01027/1610 T00780017 $
14756KACK ACK20160326111513403/26/16 11:15:31  5-MIN KACK 261615Z 02022G27KT 10SM OVC018 08/02 A3032 -310 65 -1200 030/22G27 RMK AO2 PK WND 01027/1610 T00780017 $
14756KACK ACK20160326112013403/26/16 11:20:31  5-MIN KACK 261620Z 02020G26KT 10SM OVC017 07/02 A3032 -310 68 -1200 030/20G26 RMK AO2 PK WND 01027/1610 T00720017 $
14756KACK ACK20160326112512803/26/16 11:25:31  5-MIN KACK 261625Z 02020KT 10SM OVC017 08/02 A3032 -310 65 -1200 030/20 RMK AO2 PK WND 01027/1610 T00780017 $
14756KACK ACK20160326113014103/26/16 11:30:31  5-MIN KACK 261630Z 02020G27KT 10SM BKN017 OVC038 08/02 A3031 -310 65 -1200 040/20G27 RMK AO2 PK WND 01027/1610 T00780017 $
14756KACK ACK20160326113514103/26/16 11:35:31  5-MIN KACK 261635Z 02020G27KT 10SM BKN017 OVC038 07/02 A3032 -310 68 -1200 030/20G27 RMK AO2 PK WND 01027/1610 T00720017 $
14756KACK ACK20160326114013503/26/16 11:40:31  5-MIN KACK 261640Z 03019KT 10SM BKN017 OVC038 07/02 A3032 -310 68 -1200 040/19 RMK AO2 PK WND 01027/1610 T00720017 $
14756KACK ACK20160326114513503/26/16 11:45:31  5-MIN KACK 261645Z 02020KT 10SM BKN017 OVC038 08/02 A3032 -310 65 -1200 040/20 RMK AO2 PK WND 01027/1610 T00780017 $
14756KACK ACK20160326115014203/26/16 11:50:31  5-MIN KACK 261650Z 03021KT 10SM BKN017 OVC038 08/02 A3032 -310 65 -1200 050/21 RMK AO2 PK WND 01027/1610 SLP267 T00780017 $
14756KACK ACK20160326115511703/26/16 11:55:31  5-MIN KACK 261655Z 02020KT 10SM BKN017 OVC038 08/02 A3032 -320 65 -1200 030/20 RMK AO2 T00780017 $
14756KACK ACK20160326120011703/26/16 12:00:31  5-MIN KACK 261700Z 02019KT 10SM BKN017 OVC037 08/02 A3033 -320 65 -1200 040/19 RMK AO2 T00780017 $
14756KACK ACK20160326120511703/26/16 12:05:31  5-MIN KACK 261705Z 03020KT 10SM BKN017 OVC037 08/02 A3033 -320 65 -1200 040/20 RMK AO2 T00780017 $
14756KACK ACK20160326121011703/26/16 12:10:31  5-MIN KACK 261710Z 04020KT 10SM BKN017 OVC037 08/02 A3033 -320 65 -1200 060/20 RMK AO2 T00780017 $
14756KACK ACK20160326121511703/26/16 12:15:31  5-MIN KACK 261715Z 03016KT 10SM BKN017 OVC037 08/02 A3033 -320 65 -1200 040/16 RMK AO2 T00780017 $
14756KACK ACK20160326122012303/26/16 12:20:31  5-MIN KACK 261720Z 03020G23KT 10SM BKN018 OVC037 08/02 A3033 -320 65 -1200 040/20G23 RMK AO2 T00780017 $
14756KACK ACK20160326122512303/26/16 12:25:31  5-MIN KACK 261725Z 04019G23KT 10SM BKN018 OVC037 07/02 A3033 -320 68 -1300 050/19G23 RMK AO2 T00720017 $
14756KACK ACK20160326123011003/26/16 12:30:31  5-MIN KACK 261730Z 04018KT 10SM OVC018 07/01 A3033 -330 65 -1300 050/18 RMK AO2 T00720011 $
14756KACK ACK20160326123511703/26/16 12:35:31  5-MIN KACK 261735Z 03019KT 10SM BKN018 OVC036 07/01 A3034 -330 65 -1300 040/19 RMK AO2 T00720011 $
14756KACK ACK20160326124011703/26/16 12:40:31  5-MIN KACK 261740Z 02019KT 10SM BKN018 OVC036 08/01 A3034 -330 62 -1200 040/19 RMK AO2 T00780011 $
14756KACK ACK20160326124511703/26/16 12:45:31  5-MIN KACK 261745Z 02017KT 10SM BKN018 OVC036 08/01 A3033 -330 62 -1200 030/17 RMK AO2 T00780011 $
14756KACK ACK20160326125014203/26/16 12:50:31  5-MIN KACK 261750Z 02018KT 10SM BKN018 OVC036 08/01 A3033 -330 62 -1200 040/18 RMK AO2 SLP271 T00780011 10083 20061 53032 $
14756KACK ACK20160326125511703/26/16 12:55:31  5-MIN KACK 261755Z 03016KT 10SM BKN018 OVC036 08/01 A3033 -330 62 -1200 050/16 RMK AO2 T00780011 $
14756KACK ACK20160326130012303/26/16 13:00:31  5-MIN KACK 261800Z 02020G25KT 10SM BKN018 OVC037 07/01 A3033 -330 62 -1300 030/20G25 RMK AO2 T00720006 $
14756KACK ACK20160326130511703/26/16 13:05:31  5-MIN KACK 261805Z 02019KT 10SM BKN018 OVC037 07/01 A3033 -330 62 -1300 030/19 RMK AO2 T00720006 $
14756KACK ACK20160326131011703/26/16 13:10:31  5-MIN KACK 261810Z 02016KT 10SM BKN018 OVC037 08/01 A3033 -320 60 -1200 030/16 RMK AO2 T00780006 $
14756KACK ACK20160326131511703/26/16 13:15:31  5-MIN KACK 261815Z 03015KT 10SM BKN018 OVC037 08/01 A3033 -320 62 -1200 040/15 RMK AO2 T00780011 $
14756KACK ACK20160326132011703/26/16 13:20:31  5-MIN KACK 261820Z 03017KT 10SM BKN018 OVC037 07/01 A3033 -320 62 -1300 050/17 RMK AO2 T00720006 $
14756KACK ACK20160326132512303/26/16 13:25:31  5-MIN KACK 261825Z 02016G23KT 10SM BKN018 OVC037 08/01 A3033 -330 60 -1200 040/16G23 RMK AO2 T00780006 $
14756KACK ACK20160326133012303/26/16 13:30:31  5-MIN KACK 261830Z 04018G23KT 10SM BKN018 OVC037 07/01 A3033 -330 65 -1300 060/18G23 RMK AO2 T00670006 $
14756KACK ACK20160326133511703/26/16 13:35:31  5-MIN KACK 261835Z 01018KT 10SM BKN018 OVC037 07/01 A3033 -330 65 -1300 030/18 RMK AO2 T00670006 $
14756KACK ACK20160326134011703/26/16 13:40:31  5-MIN KACK 261840Z 02018KT 10SM BKN018 OVC037 07/01 A3033 -320 62 -1300 030/18 RMK AO2 T00720006 $
14756KACK ACK20160326134512303/26/16 13:45:31  5-MIN KACK 261845Z 04016G25KT 10SM BKN018 OVC037 07/01 A3033 -320 62 -1300 050/16G25 RMK AO2 T00720006 $
14756KACK ACK20160326135013003/26/16 13:50:31  5-MIN KACK 261850Z 04018G25KT 10SM BKN018 OVC037 07/01 A3033 -320 65 -1300 060/18G25 RMK AO2 SLP270 T00670006 $
14756KACK ACK20160326135512303/26/16 13:55:31  5-MIN KACK 261855Z 03019G25KT 10SM BKN019 OVC037 07/01 A3033 -320 65 -1300 040/19G25 RMK AO2 T00670006 $
14756KACK ACK20160326140011703/26/16 14:00:31  5-MIN KACK 261900Z 03019KT 10SM SCT019 OVC036 07/01 A3033 -320 67 -1300 050/19 RMK AO2 T00670011 $
14756KACK ACK20160326140511703/26/16 14:05:31  5-MIN KACK 261905Z 03018KT 10SM SCT019 OVC036 07/01 A3033 -320 65 -1300 050/18 RMK AO2 T00720011 $
14756KACK ACK20160326141011703/26/16 14:10:31  5-MIN KACK 261910Z 04018KT 10SM FEW019 OVC036 07/01 A3032 -320 65 -1200 050/18 RMK AO2 T00720011 $
14756KACK ACK20160326141511703/26/16 14:15:31  5-MIN KACK 261915Z 03018KT 10SM FEW019 OVC035 07/01 A3032 -320 62 -1200 050/18 RMK AO2 T00720006 $
14756KACK ACK20160326142011703/26/16 14:20:31  5-MIN KACK 261920Z 03018KT 10SM FEW019 OVC035 07/01 A3033 -320 62 -1200 040/18 RMK AO2 T00720006 $
14756KACK ACK20160326142511703/26/16 14:25:31  5-MIN KACK 261925Z 02018KT 10SM FEW021 OVC035 07/01 A3033 -320 62 -1300 040/18 RMK AO2 T00720006 $
14756KACK ACK20160326143011703/26/16 14:30:31  5-MIN KACK 261930Z 03017KT 10SM FEW021 BKN035 07/01 A3033 -320 65 -1300 040/17 RMK AO2 T00670006 $
14756KACK ACK20160326143511703/26/16 14:35:31  5-MIN KACK 261935Z 02018KT 10SM FEW021 BKN035 07/01 A3033 -320 65 -1300 040/18 RMK AO2 T00670006 $
14756KACK ACK20160326144011703/26/16 14:40:31  5-MIN KACK 261940Z 02019KT 10SM SCT021 BKN035 07/00 A3032 -320 62 -1300 040/19 RMK AO2 T00670000 $
14756KACK ACK20160326144512303/26/16 14:45:31  5-MIN KACK 261945Z 03016G23KT 10SM SCT021 SCT035 07/00 A3032 -320 60 -1200 050/16G23 RMK AO2 T00720000 $
14756KACK ACK20160326145012303/26/16 14:50:31  5-MIN KACK 261950Z 03018G24KT 10SM SCT021 07/01 A3033 -320 62 -1200 040/18G24 RMK AO2 SLP269 T00720006 $
14756KACK ACK20160326145511603/26/16 14:55:31  5-MIN KACK 261955Z 03017G24KT 10SM SCT021 08/01 A3033 -320 60 -1200 040/17G24 RMK AO2 T00780006 $
14756KACK ACK20160326150012303/26/16 15:00:31  5-MIN KACK 262000Z 03016G24KT 10SM SCT021 SCT037 08/00 A3033 -320 58 -1200 040/16G24 RMK AO2 T00780000 $
14756KACK ACK20160326150512403/26/16 15:05:31  5-MIN KACK 262005Z 02016G24KT 10SM SCT021 SCT037 07/M01 A3033 -320 57 -1300 030/16G24 RMK AO2 T00721006 $
14756KACK ACK20160326151012303/26/16 15:10:31  5-MIN KACK 262010Z 03016G24KT 10SM SCT021 SCT037 07/00 A3033 -320 60 -1300 050/16G24 RMK AO2 T00720000 $
14756KACK ACK20160326151512303/26/16 15:15:31  5-MIN KACK 262015Z 05014G20KT 10SM SCT021 SCT037 06/01 A3033 -320 70 -1500 060/14G20 RMK AO2 T00560006 $
14756KACK ACK20160326152012303/26/16 15:20:31  5-MIN KACK 262020Z 04015G22KT 10SM SCT021 SCT037 06/01 A3033 -330 70 -1500 050/15G22 RMK AO2 T00560006 $
14756KACK ACK20160326152512303/26/16 15:25:31  5-MIN KACK 262025Z 03018G23KT 10SM SCT021 SCT037 06/01 A3034 -330 70 -1500 050/18G23 RMK AO2 T00560006 $
14756KACK ACK20160326153012303/26/16 15:30:31  5-MIN KACK 262030Z 04015G23KT 10SM SCT021 SCT037 06/01 A3034 -330 70 -1500 060/15G23 RMK AO2 T00560006 $
14756KACK ACK20160326153511703/26/16 15:35:31  5-MIN KACK 262035Z 04013KT 10SM SCT021 SCT037 06/01 A3034 -330 73 -1500 050/13 RMK AO2 T00560011 $
14756KACK ACK20160326154011703/26/16 15:40:31  5-MIN KACK 262040Z 05015KT 10SM SCT021 SCT037 06/01 A3034 -340 70 -1500 060/15 RMK AO2 T00560006 $
14756KACK ACK20160326154511703/26/16 15:45:31  5-MIN KACK 262045Z 03014KT 10SM SCT021 SCT037 05/01 A3035 -340 73 -1500 050/14 RMK AO2 T00500006 $
14756KACK ACK20160326155010703/26/16 15:50:31  5-MIN KACK 262050Z 04015KT 10SM BKN018 OVC024 06/01 A3035 -340 70 -1500 050/15 RMK AO2 $
14756KACK ACK20160326155511703/26/16 15:55:31  5-MIN KACK 262055Z 04015KT 10SM SCT015 OVC024 05/00 A3035 -340 70 -1600 060/15 RMK AO2 T00500000 $
14756KACK ACK20160326160011703/26/16 16:00:31  5-MIN KACK 262100Z 03016KT 10SM SCT017 BKN024 05/00 A3035 -340 70 -1600 040/16 RMK AO2 T00500000 $
14756KACK ACK20160326160511703/26/16 16:05:31  5-MIN KACK 262105Z 04016KT 10SM SCT017 BKN024 06/01 A3035 -340 70 -1500 050/16 RMK AO2 T00560006 $
14756KACK ACK20160326161011703/26/16 16:10:31  5-MIN KACK 262110Z 04016KT 10SM SCT017 OVC025 05/01 A3035 -340 73 -1600 050/16 RMK AO2 T00500006 $
14756KACK ACK20160326161511703/26/16 16:15:31  5-MIN KACK 262115Z 03014KT 10SM BKN019 OVC025 05/00 A3035 -340 70 -1600 050/14 RMK AO2 T00500000 $
14756KACK ACK20160326162011703/26/16 16:20:31  5-MIN KACK 262120Z 03014KT 10SM BKN020 BKN026 05/00 A3035 -340 70 -1600 050/14 RMK AO2 T00500000 $
14756KACK ACK20160326162511703/26/16 16:25:31  5-MIN KACK 262125Z 04016KT 10SM BKN020 BKN026 05/00 A3036 -350 70 -1600 060/16 RMK AO2 T00500000 $
14756KACK ACK20160326163011703/26/16 16:30:31  5-MIN KACK 262130Z 04015KT 10SM SCT020 BKN024 05/00 A3036 -350 70 -1600 060/15 RMK AO2 T00500000 $
14756KACK ACK20160326163511803/26/16 16:35:31  5-MIN KACK 262135Z 04012KT 10SM FEW019 BKN024 04/M01 A3036 -350 70 -1600 060/12 RMK AO2 T00441006 $
14756KACK ACK20160326164011703/26/16 16:40:31  5-MIN KACK 262140Z 03015KT 10SM SCT020 SCT026 05/00 A3036 -350 70 -1600 050/15 RMK AO2 T00500000 $
14756KACK ACK20160326164511103/26/16 16:45:31  5-MIN KACK 262145Z 02015KT 10SM SCT023 05/M01 A3036 -350 67 -1600 040/15 RMK AO2 T00501006 $
14756KACK ACK20160326165010103/26/16 16:50:31  5-MIN KACK 262150Z 04015KT 10SM BKN023 06/M01 A3037 -360 65 -1500 050/15 RMK AO2 $
14756KACK ACK20160326165511003/26/16 16:55:31  5-MIN KACK 262155Z 03014KT 10SM SCT023 05/00 A3037 -360 70 -1600 040/14 RMK AO2 T00500000 $
14756KACK ACK20160326170011003/26/16 17:00:31  5-MIN KACK 262200Z 03013KT 10SM SCT023 05/00 A3037 -360 70 -1600 050/13 RMK AO2 T00500000 $
14756KACK ACK20160326170511003/26/16 17:05:31  5-MIN KACK 262205Z 03013KT 10SM SCT023 04/00 A3037 -360 73 -1600 040/13 RMK AO2 T00440000 $
14756KACK ACK20160326171011003/26/16 17:10:31  5-MIN KACK 262210Z 04011KT 10SM SCT023 04/01 A3038 -370 79 -1700 050/11 RMK AO2 T00390006 $
14756KACK ACK20160326171511003/26/16 17:15:31  5-MIN KACK 262215Z 03011KT 10SM SCT023 04/01 A3038 -370 79 -1700 050/11 RMK AO2 T00390006 $
14756KACK ACK20160326172011003/26/16 17:20:31  5-MIN KACK 262220Z 04012KT 10SM SCT023 04/00 A3038 -370 76 -1700 050/12 RMK AO2 T00390000 $
14756KACK ACK20160326172511003/26/16 17:25:31  5-MIN KACK 262225Z 04009KT 10SM SCT023 04/00 A3038 -370 73 -1700 060/09 RMK AO2 T00440000 $
14756KACK ACK20160326173011003/26/16 17:30:31  5-MIN KACK 262230Z 04010KT 10SM SCT023 04/00 A3038 -370 73 -1700 050/10 RMK AO2 T00440000 $
14756KACK ACK20160326173511103/26/16 17:35:31  5-MIN KACK 262235Z 04009KT 10SM SCT023 04/M01 A3038 -370 70 -1700 060/09 RMK AO2 T00441006 $
14756KACK ACK20160326174011103/26/16 17:40:31  5-MIN KACK 262240Z 04009KT 10SM SCT023 04/M01 A3039 -370 70 -1700 060/09 RMK AO2 T00441006 $
14756KACK ACK20160326174511103/26/16 17:45:31  5-MIN KACK 262245Z 05010KT 10SM SCT023 04/M01 A3039 -380 67 -1700 070/10 RMK AO2 T00441011 $
14756KACK ACK20160326175010103/26/16 17:50:31  5-MIN KACK 262250Z 05008KT 10SM OVC023 04/M01 A3039 -380 70 -1700 060/08 RMK AO2 $
14756KACK ACK20160326175511103/26/16 17:55:31  5-MIN KACK 262255Z 04009KT 10SM OVC021 04/M01 A3039 -380 67 -1700 060/09 RMK AO2 T00441011 $
14756KACK ACK20160326180011103/26/16 18:00:31  5-MIN KACK 262300Z 03012KT 10SM OVC021 04/M01 A3039 -380 70 -1700 040/12 RMK AO2 T00391011 $
14756KACK ACK20160326180511103/26/16 18:05:31  5-MIN KACK 262305Z 03012KT 10SM OVC021 04/M01 A3039 -370 70 -1700 050/12 RMK AO2 T00391011 $
14756KACK ACK20160326181011103/26/16 18:10:31  5-MIN KACK 262310Z 03009KT 10SM OVC021 04/M02 A3039 -380 67 -1700 050/09 RMK AO2 T00391017 $
14756KACK ACK20160326181511103/26/16 18:15:31  5-MIN KACK 262315Z 04008KT 10SM OVC021 04/M01 A3039 -380 70 -1700 060/08 RMK AO2 T00391011 $
14756KACK ACK20160326182011103/26/16 18:20:31  5-MIN KACK 262320Z 05008KT 10SM OVC021 04/M01 A3038 -370 70 -1700 070/08 RMK AO2 T00391011 $
14756KACK ACK20160326182511103/26/16 18:25:31  5-MIN KACK 262325Z 04009KT 10SM OVC021 04/M01 A3038 -370 70 -1700 060/09 RMK AO2 T00391011 $
14756KACK ACK20160326183011103/26/16 18:30:31  5-MIN KACK 262330Z 04009KT 10SM OVC021 04/M01 A3038 -370 70 -1700 060/09 RMK AO2 T00391011 $
14756KACK ACK20160326183511103/26/16 18:35:31  5-MIN KACK 262335Z 04007KT 10SM OVC021 04/M01 A3038 -370 70 -1700 060/07 RMK AO2 T00391011 $
14756KACK ACK20160326184011103/26/16 18:40:31  5-MIN KACK 262340Z 05006KT 10SM OVC021 04/M01 A3039 -380 70 -1700 070/06 RMK AO2 T00391011 $
14756KACK ACK20160326184511103/26/16 18:45:31  5-MIN KACK 262345Z 06005KT 10SM OVC021 04/M01 A3040 -380 70 -1700 070/05 RMK AO2 T00391011 $
14756KACK ACK20160326185013603/26/16 18:50:31  5-MIN KACK 262350Z 03004KT 10SM OVC021 04/M01 A3040 -380 70 -1700 050/04 RMK AO2 SLP292 T00391011 10083 20039 53005 $
14756KACK ACK20160326185511103/26/16 18:55:31  5-MIN KACK 262355Z 04008KT 10SM OVC020 04/M01 A3040 -390 70 -1700 050/08 RMK AO2 T00391011 $
14756KACK ACK20160326190011103/26/16 19:00:31  5-MIN KACK 270000Z 04008KT 10SM OVC020 04/M01 A3040 -390 70 -1800 060/08 RMK AO2 T00391011 $
14756KACK ACK20160326190511103/26/16 19:05:31  5-MIN KACK 270005Z 03008KT 10SM OVC020 04/M01 A3041 -390 70 -1800 050/08 RMK AO2 T00391011 $
14756KACK ACK20160326191011103/26/16 19:10:31  5-MIN KACK 270010Z 03008KT 10SM OVC020 04/M01 A3041 -400 70 -1800 040/08 RMK AO2 T00391011 $
14756KACK ACK20160326191511103/26/16 19:15:31  5-MIN KACK 270015Z 05006KT 10SM OVC020 04/M01 A3041 -400 70 -1800 060/06 RMK AO2 T00391011 $
14756KACK ACK20160326192011103/26/16 19:20:31  5-MIN KACK 270020Z 03006KT 10SM OVC020 04/M01 A3041 -390 73 -1800 050/06 RMK AO2 T00391006 $
14756KACK ACK20160326192511103/26/16 19:25:31  5-MIN KACK 270025Z 06009KT 10SM OVC019 04/M01 A3041 -400 73 -1800 070/09 RMK AO2 T00391006 $
14756KACK ACK20160326193010903/26/16 19:30:31  5-MIN KACK 270030Z 07007KT 8SM OVC019 03/00 A3042 -400 79 -1800 090/07 RMK AO2 T00330000 $
14756KACK ACK20160326193511203/26/16 19:35:31  5-MIN KACK 270035Z 05008KT 6SM HZ OVC019 03/01 A3042 -400 82 -1800 070/08 RMK AO2 T00330006 $
14756KACK ACK20160326194010903/26/16 19:40:31  5-MIN KACK 270040Z 04006KT 7SM OVC019 03/01 A3042 -400 82 -1800 060/06 RMK AO2 T00330006 $
14756KACK ACK20160326194511003/26/16 19:45:31  5-MIN KACK 270045Z 04007KT 10SM OVC019 03/01 A3042 -410 82 -1800 050/07 RMK AO2 T00330006 $
14756KACK ACK20160326195011703/26/16 19:50:31  5-MIN KACK 270050Z 03007KT 10SM OVC019 03/01 A3042 -410 82 -1800 040/07 RMK AO2 SLP302 T00330006 $
14756KACK ACK20160326195511503/26/16 19:55:31  5-MIN KACK 270055Z AUTO 02005KT 10SM OVC019 03/01 A3043 -410 82 -1800 030/05 RMK AO2 T00330006 $
14756KACK ACK20160326200012003/26/16 20:00:31  5-MIN KACK 270100Z AUTO 03004KT 10SM OVC019 03/01 A3043 -410 82 -1800 040/04 RMK AO2 T00330006 TSNO $
14756KACK ACK20160326200512003/26/16 20:05:31  5-MIN KACK 270105Z AUTO 02005KT 10SM OVC019 03/01 A3042 -410 82 -1800 040/05 RMK AO2 T00330006 TSNO $
14756KACK ACK20160326201012003/26/16 20:10:31  5-MIN KACK 270110Z AUTO 03005KT 10SM OVC017 03/01 A3042 -410 82 -1800 040/05 RMK AO2 T00330006 TSNO $
14756KACK ACK20160326201512003/26/16 20:15:31  5-MIN KACK 270115Z AUTO 03004KT 10SM OVC017 03/01 A3041 -400 82 -1800 040/04 RMK AO2 T00330006 TSNO $
14756KACK ACK20160326202012003/26/16 20:20:31  5-MIN KACK 270120Z AUTO 03005KT 10SM OVC017 03/01 A3041 -400 82 -1800 040/05 RMK AO2 T00330006 TSNO $
14756KACK ACK20160326202512003/26/16 20:25:31  5-MIN KACK 270125Z AUTO 05006KT 10SM OVC018 03/01 A3041 -400 82 -1800 060/06 RMK AO2 T00330006 TSNO $
14756KACK ACK20160326203012003/26/16 20:30:31  5-MIN KACK 270130Z AUTO 03006KT 10SM OVC018 03/00 A3041 -400 79 -1800 050/06 RMK AO2 T00330000 TSNO $
14756KACK ACK20160326203512003/26/16 20:35:31  5-MIN KACK 270135Z AUTO 05005KT 10SM OVC018 03/00 A3042 -400 79 -1800 070/05 RMK AO2 T00330000 TSNO $
14756KACK ACK20160326204012003/26/16 20:40:31  5-MIN KACK 270140Z AUTO 07004KT 10SM OVC020 04/00 A3042 -400 76 -1800 090/04 RMK AO2 T00390000 TSNO $
14756KACK ACK20160326204512803/26/16 20:45:31  5-MIN KACK 270145Z AUTO 06004KT 10SM BKN020 OVC025 03/M01 A3042 -410 76 -1800 070/04 RMK AO2 T00331006 TSNO $
14756KACK ACK20160326205013503/26/16 20:50:31  5-MIN KACK 270150Z AUTO 05006KT 10SM BKN020 OVC025 03/M01 A3042 -410 76 -1800 070/06 RMK AO2 SLP302 T00331006 TSNO $
14756KACK ACK20160326205512803/26/16 20:55:31  5-MIN KACK 270155Z AUTO 04007KT 10SM SCT016 OVC022 03/M01 A3042 -400 76 -1800 060/07 RMK AO2 T00331006 TSNO $
14756KACK ACK20160326210012703/26/16 21:00:31  5-MIN KACK 270200Z AUTO 05005KT 10SM FEW014 OVC022 03/00 A3041 -400 79 -1800 070/05 RMK AO2 T00330000 TSNO $
14756KACK ACK20160326210512703/26/16 21:05:31  5-MIN KACK 270205Z AUTO 05005KT 10SM FEW014 OVC022 03/00 A3042 -400 79 -1800 070/05 RMK AO2 T00330000 TSNO $
14756KACK ACK20160326211012703/26/16 21:10:31  5-MIN KACK 270210Z AUTO 05005KT 10SM FEW014 OVC024 03/01 A3041 -400 82 -1800 060/05 RMK AO2 T00330006 TSNO $
14756KACK ACK20160326211512703/26/16 21:15:31  5-MIN KACK 270215Z AUTO 04005KT 10SM FEW014 OVC024 03/01 A3041 -390 82 -1800 060/05 RMK AO2 T00330006 TSNO $
14756KACK ACK20160326212012703/26/16 21:20:31  5-MIN KACK 270220Z AUTO 04005KT 10SM FEW014 OVC024 03/01 A3040 -390 82 -1800 060/05 RMK AO2 T00330006 TSNO $
14756KACK ACK20160326212512003/26/16 21:25:31  5-MIN KACK 270225Z AUTO 03005KT 10SM OVC022 03/01 A3040 -380 82 -1800 050/05 RMK AO2 T00330006 TSNO $
14756KACK ACK20160326213012703/26/16 21:30:31  5-MIN KACK 270230Z AUTO 03006KT 10SM FEW014 OVC022 03/01 A3039 -380 82 -1800 040/06 RMK AO2 T00330006 TSNO $
14756KACK ACK20160326213512703/26/16 21:35:31  5-MIN KACK 270235Z AUTO 03005KT 10SM SCT014 OVC022 03/01 A3040 -390 82 -1800 040/05 RMK AO2 T00330006 TSNO $
14756KACK ACK20160326214012703/26/16 21:40:31  5-MIN KACK 270240Z AUTO 03004KT 10SM FEW014 OVC023 03/01 A3040 -390 82 -1800 040/04 RMK AO2 T00330006 TSNO $
14756KACK ACK20160326214512703/26/16 21:45:31  5-MIN KACK 270245Z AUTO 03004KT 10SM FEW014 OVC023 03/01 A3040 -380 82 -1800 040/04 RMK AO2 T00330006 TSNO $
14756KACK ACK20160326215014003/26/16 21:50:31  5-MIN KACK 270250Z AUTO 03004KT 10SM FEW014 OVC023 03/00 A3040 -390 82 -1900 050/04 RMK AO2 SLP294 T00280000 51017 TSNO $
14756KACK ACK20160326215512703/26/16 21:55:31  5-MIN KACK 270255Z AUTO 04004KT 10SM SCT014 OVC023 03/01 A3040 -390 85 -1900 050/04 RMK AO2 T00280006 TSNO $
14756KACK ACK20160326220012703/26/16 22:00:31  5-MIN KACK 270300Z AUTO 05005KT 10SM BKN014 OVC024 03/01 A3040 -390 82 -1800 060/05 RMK AO2 T00330006 TSNO $
14756KACK ACK20160326220512703/26/16 22:05:31  5-MIN KACK 270305Z AUTO 03004KT 10SM BKN014 OVC024 03/01 A3041 -390 82 -1800 050/04 RMK AO2 T00330006 TSNO $
14756KACK ACK20160326221012703/26/16 22:10:31  5-MIN KACK 270310Z AUTO 04003KT 10SM BKN015 OVC024 03/01 A3041 -400 82 -1800 050/03 RMK AO2 T00330006 TSNO $
14756KACK ACK20160326221512003/26/16 22:15:31  5-MIN KACK 270315Z AUTO 02003KT 10SM OVC015 03/01 A3042 -400 82 -1800 030/03 RMK AO2 T00330006 TSNO $
14756KACK ACK20160326222012003/26/16 22:20:31  5-MIN KACK 270320Z AUTO 00000KT 10SM OVC015 03/01 A3042 -410 85 -1800 000/00 RMK AO2 T00330011 TSNO $
14756KACK ACK20160326222512703/26/16 22:25:31  5-MIN KACK 270325Z AUTO 01005KT 10SM BKN013 OVC023 03/01 A3042 -410 85 -1800 030/05 RMK AO2 T00330011 TSNO $
14756KACK ACK20160326223012703/26/16 22:30:31  5-MIN KACK 270330Z AUTO 02004KT 10SM BKN013 OVC023 03/01 A3042 -410 82 -1800 040/04 RMK AO2 T00330006 TSNO $
14756KACK ACK20160326223512703/26/16 22:35:31  5-MIN KACK 270335Z AUTO 04003KT 10SM SCT013 OVC021 03/01 A3042 -410 82 -1800 050/03 RMK AO2 T00330006 TSNO $
14756KACK ACK20160326224012703/26/16 22:40:31  5-MIN KACK 270340Z AUTO 07003KT 10SM BKN013 OVC021 03/01 A3042 -410 82 -1800 090/03 RMK AO2 T00330006 TSNO $
14756KACK ACK20160326224512703/26/16 22:45:31  5-MIN KACK 270345Z AUTO 08003KT 10SM BKN015 OVC021 04/00 A3042 -410 76 -1800 090/03 RMK AO2 T00390000 TSNO $
14756KACK ACK20160326225011703/26/16 22:50:31  5-MIN KACK 270350Z AUTO 04003KT 10SM BKN015 OVC021 04/00 A3042 -400 76 -1800 050/03 RMK AO2 TSNO $
14756KACK ACK20160326225512003/26/16 22:55:31  5-MIN KACK 270355Z AUTO 03004KT 10SM OVC019 03/00 A3042 -400 79 -1800 050/04 RMK AO2 T00330000 TSNO $
14756KACK ACK20160326230012003/26/16 23:00:31  5-MIN KACK 270400Z AUTO 03004KT 10SM OVC019 03/00 A3041 -400 79 -1800 050/04 RMK AO2 T00330000 TSNO $
14756KACK ACK20160326230512003/26/16 23:05:31  5-MIN KACK 270405Z AUTO 04004KT 10SM OVC019 03/01 A3041 -400 82 -1800 050/04 RMK AO2 T00330006 TSNO $
14756KACK ACK20160326231011903/26/16 23:10:31  5-MIN KACK 270410Z AUTO 03003KT 9SM OVC019 03/00 A3041 -400 79 -1800 040/03 RMK AO2 T00330000 TSNO $
14756KACK ACK20160326231512603/26/16 23:15:31  5-MIN KACK 270415Z AUTO 06004KT 9SM BKN019 OVC025 03/00 A3041 -390 79 -1800 080/04 RMK AO2 T00330000 TSNO $
14756KACK ACK20160326232012003/26/16 23:20:31  5-MIN KACK 270420Z AUTO 00000KT 10SM OVC019 03/01 A3040 -390 82 -1800 000/00 RMK AO2 T00330006 TSNO $
14756KACK ACK20160326232512003/26/16 23:25:31  5-MIN KACK 270425Z AUTO 03003KT 10SM OVC019 03/01 A3040 -390 82 -1800 040/03 RMK AO2 T00330006 TSNO $
14756KACK ACK20160326233012703/26/16 23:30:31  5-MIN KACK 270430Z AUTO 00000KT 10SM BKN017 OVC023 03/01 A3040 -390 82 -1800 000/00 RMK AO2 T00330006 TSNO $
14756KACK ACK20160326233512703/26/16 23:35:31  5-MIN KACK 270435Z AUTO 00000KT 10SM BKN017 OVC023 03/01 A3041 -390 82 -1800 000/00 RMK AO2 T00330006 TSNO $
14756KACK ACK20160326234012003/26/16 23:40:31  5-MIN KACK 270440Z AUTO 05003KT 10SM OVC017 03/01 A3041 -390 82 -1800 060/03 RMK AO2 T00330006 TSNO $
14756KACK ACK20160326234511903/26/16 23:45:31  5-MIN KACK 270445Z AUTO 04004KT 9SM OVC016 03/01 A3041 -390 82 -1800 050/04 RMK AO2 T00330006 TSNO $
14756KACK ACK20160326235013603/26/16 23:50:31  5-MIN KACK 270450Z AUTO 04005KT 8SM OVC016 03/01 A3041 -390 82 -1800 050/05 RMK AO2 SLP296 T00330006 400830028 TSNO $
14756KACK ACK20160326235511903/26/16 23:55:31  5-MIN KACK 270455Z AUTO 05004KT 9SM OVC014 04/01 A3041 -390 79 -1800 070/04 RMK AO2 T00390006 TSNO $
14756KACK ACK20160327000012003/27/16 00:00:31  5-MIN KACK 270500Z AUTO 34004KT 10SM OVC014 03/01 A3041 -400 82 -1800 360/04 RMK AO2 T00330006 TSNO $
14756KACK ACK20160327000512003/27/16 00:05:31  5-MIN KACK 270505Z AUTO 33004KT 10SM OVC014 03/01 A3041 -390 82 -1800 350/04 RMK AO2 T00330006 TSNO $
14756KACK ACK20160327001012003/27/16 00:10:31  5-MIN KACK 270510Z AUTO 33004KT 10SM OVC014 03/01 A3041 -390 82 -1800 340/04 RMK AO2 T00330006 TSNO $
14756KACK ACK20160327001512003/27/16 00:15:31  5-MIN KACK 270515Z AUTO 34004KT 10SM OVC014 03/01 A3040 -390 82 -1800 360/04 RMK AO2 T00330006 TSNO $
14756KACK ACK20160327002012003/27/16 00:20:31  5-MIN KACK 270520Z AUTO 35004KT 10SM OVC014 03/01 A3040 -390 82 -1800 360/04 RMK AO2 T00330006 TSNO $
14756KACK ACK20160327002512003/27/16 00:25:31  5-MIN KACK 270525Z AUTO 36004KT 10SM OVC014 03/01 A3040 -390 85 -1800 020/04 RMK AO2 T00330011 TSNO $
14756KACK ACK20160327003012003/27/16 00:30:31  5-MIN KACK 270530Z AUTO 01005KT 10SM OVC014 03/01 A3040 -390 82 -1800 030/05 RMK AO2 T00330006 TSNO $
14756KACK ACK20160327003512003/27/16 00:35:31  5-MIN KACK 270535Z AUTO 02005KT 10SM OVC016 03/01 A3040 -390 82 -1800 040/05 RMK AO2 T00330006 TSNO $
14756KACK ACK20160327004011903/27/16 00:40:31  5-MIN KACK 270540Z AUTO 05004KT 8SM OVC016 03/01 A3040 -390 82 -1800 060/04 RMK AO2 T00330006 TSNO $
14756KACK ACK20160327004511903/27/16 00:45:31  5-MIN KACK 270545Z AUTO 04004KT 8SM OVC016 03/01 A3039 -380 82 -1800 060/04 RMK AO2 T00330006 TSNO $
14756KACK ACK20160327005014503/27/16 00:50:31  5-MIN KACK 270550Z AUTO 01006KT 10SM OVC016 03/01 A3040 -390 82 -1800 030/06 RMK AO2 SLP293 T00330006 10039 20028 50001 TSNO $
14756KACK ACK20160327005512003/27/16 00:55:31  5-MIN KACK 270555Z AUTO 02006KT 10SM OVC016 03/01 A3040 -390 82 -1800 040/06 RMK AO2 T00330006 TSNO $
14756KACK ACK20160327010012703/27/16 01:00:31  5-MIN KACK 270600Z AUTO 01004KT 10SM BKN016 OVC024 03/01 A3040 -380 82 -1800 020/04 RMK AO2 T00330006 TSNO $
14756KACK ACK20160327010512703/27/16 01:05:31  5-MIN KACK 270605Z AUTO 02003KT 10SM SCT016 OVC026 03/00 A3040 -380 82 -1900 040/03 RMK AO2 T00280000 TSNO $
14756KACK ACK20160327011012703/27/16 01:10:31  5-MIN KACK 270610Z AUTO 03004KT 10SM SCT016 OVC026 03/00 A3040 -380 82 -1900 040/04 RMK AO2 T00280000 TSNO $
14756KACK ACK20160327011512703/27/16 01:15:31  5-MIN KACK 270615Z AUTO 02004KT 10SM FEW016 OVC026 03/00 A3040 -380 82 -1900 030/04 RMK AO2 T00280000 TSNO $
14756KACK ACK20160327012012703/27/16 01:20:31  5-MIN KACK 270620Z AUTO 01004KT 10SM FEW018 OVC026 03/00 A3040 -380 82 -1900 030/04 RMK AO2 T00280000 TSNO $
14756KACK ACK20160327012512703/27/16 01:25:31  5-MIN KACK 270625Z AUTO 01003KT 10SM FEW016 OVC026 03/01 A3040 -380 85 -1900 020/03 RMK AO2 T00280006 TSNO $
14756KACK ACK20160327013013403/27/16 01:30:31  5-MIN KACK 270630Z AUTO 36003KT 10SM SCT016 BKN021 OVC026 03/01 A3040 -390 82 -1800 010/03 RMK AO2 T00330006 TSNO $
14756KACK ACK20160327013513403/27/16 01:35:31  5-MIN KACK 270635Z AUTO 34003KT 10SM BKN014 BKN021 OVC026 03/01 A3040 -390 82 -1800 350/03 RMK AO2 T00330006 TSNO $
14756KACK ACK20160327014012703/27/16 01:40:31  5-MIN KACK 270640Z AUTO 34003KT 10SM BKN014 OVC024 03/01 A3040 -390 85 -1800 360/03 RMK AO2 T00330011 TSNO $
14756KACK ACK20160327014512703/27/16 01:45:31  5-MIN KACK 270645Z AUTO 35003KT 10SM BKN013 OVC022 03/01 A3040 -390 85 -1800 360/03 RMK AO2 T00330011 TSNO $
14756KACK ACK20160327015012703/27/16 01:50:31  5-MIN KACK 270650Z AUTO 35004KT 10SM OVC013 03/01 A3040 -390 85 -1800 010/04 RMK AO2 SLP295 T00330011 TSNO $
14756KACK ACK20160327015512003/27/16 01:55:31  5-MIN KACK 270655Z AUTO 05003KT 10SM OVC013 03/01 A3041 -390 82 -1800 060/03 RMK AO2 T00330006 TSNO $
14756KACK ACK20160327020012003/27/16 02:00:31  5-MIN KACK 270700Z AUTO 05003KT 10SM OVC015 03/01 A3041 -390 82 -1800 060/03 RMK AO2 T00330006 TSNO $
14756KACK ACK20160327020512003/27/16 02:05:31  5-MIN KACK 270705Z AUTO 00000KT 10SM OVC015 03/01 A3040 -390 82 -1800 000/00 RMK AO2 T00330006 TSNO $
14756KACK ACK20160327021012003/27/16 02:10:31  5-MIN KACK 270710Z AUTO 08004KT 10SM OVC015 03/01 A3040 -390 82 -1800 090/04 RMK AO2 T00330006 TSNO $
14756KACK ACK20160327021512003/27/16 02:15:31  5-MIN KACK 270715Z AUTO 00000KT 10SM OVC015 03/01 A3041 -390 82 -1800 000/00 RMK AO2 T00330006 TSNO $
14756KACK ACK20160327022012003/27/16 02:20:31  5-MIN KACK 270720Z AUTO 06004KT 10SM OVC015 03/01 A3041 -390 82 -1800 070/04 RMK AO2 T00330006 TSNO $
14756KACK ACK20160327022512003/27/16 02:25:31  5-MIN KACK 270725Z AUTO 05003KT 10SM OVC015 03/00 A3041 -400 79 -1800 070/03 RMK AO2 T00330000 TSNO $
14756KACK ACK20160327023012003/27/16 02:30:31  5-MIN KACK 270730Z AUTO 09003KT 10SM OVC015 03/01 A3041 -400 82 -1800 100/03 RMK AO2 T00330006 TSNO $
14756KACK ACK20160327023512003/27/16 02:35:31  5-MIN KACK 270735Z AUTO 07003KT 10SM OVC015 03/00 A3041 -400 79 -1800 090/03 RMK AO2 T00330000 TSNO $
14756KACK ACK20160327024012003/27/16 02:40:31  5-MIN KACK 270740Z AUTO 07003KT 10SM OVC014 03/00 A3041 -390 79 -1800 090/03 RMK AO2 T00330000 TSNO $
14756KACK ACK20160327024512003/27/16 02:45:31  5-MIN KACK 270745Z AUTO 00000KT 10SM OVC014 03/00 A3041 -390 79 -1800 000/00 RMK AO2 T00330000 TSNO $
14756KACK ACK20160327025012703/27/16 02:50:31  5-MIN KACK 270750Z AUTO VRB03KT 10SM OVC014 03/00 A3041 -390 79 -1800 VRB/03 RMK AO2 SLP296 T00330000 TSNO $
14756KACK ACK20160327025512003/27/16 02:55:31  5-MIN KACK 270755Z AUTO 02004KT 10SM OVC014 03/00 A3040 -390 79 -1800 040/04 RMK AO2 T00330000 TSNO $
14756KACK ACK20160327030012003/27/16 03:00:31  5-MIN KACK 270800Z AUTO 00000KT 10SM OVC014 03/00 A3041 -390 79 -1800 000/00 RMK AO2 T00330000 TSNO $
14756KACK ACK20160327030512003/27/16 03:05:31  5-MIN KACK 270805Z AUTO 02003KT 10SM OVC014 03/00 A3041 -390 79 -1800 040/03 RMK AO2 T00330000 TSNO $
14756KACK ACK20160327031012003/27/16 03:10:31  5-MIN KACK 270810Z AUTO 00000KT 10SM OVC013 03/00 A3040 -390 79 -1800 000/00 RMK AO2 T00330000 TSNO $
14756KACK ACK20160327031512003/27/16 03:15:31  5-MIN KACK 270815Z AUTO 04003KT 10SM OVC013 03/00 A3040 -390 79 -1800 050/03 RMK AO2 T00330000 TSNO $
14756KACK ACK20160327032012003/27/16 03:20:31  5-MIN KACK 270820Z AUTO 03004KT 10SM OVC015 03/00 A3040 -380 79 -1800 040/04 RMK AO2 T00330000 TSNO $
14756KACK ACK20160327032512003/27/16 03:25:31  5-MIN KACK 270825Z AUTO 03003KT 10SM OVC015 03/01 A3040 -390 82 -1800 040/03 RMK AO2 T00330006 TSNO $
14756KACK ACK20160327033012003/27/16 03:30:31  5-MIN KACK 270830Z AUTO 02003KT 10SM OVC015 03/00 A3040 -390 79 -1800 040/03 RMK AO2 T00330000 TSNO $
14756KACK ACK20160327033512003/27/16 03:35:31  5-MIN KACK 270835Z AUTO 02003KT 10SM OVC015 03/00 A3040 -390 79 -1800 040/03 RMK AO2 T00330000 TSNO $
14756KACK ACK20160327034012003/27/16 03:40:31  5-MIN KACK 270840Z AUTO 02005KT 10SM OVC017 03/00 A3040 -390 79 -1800 040/05 RMK AO2 T00330000 TSNO $
14756KACK ACK20160327034512003/27/16 03:45:31  5-MIN KACK 270845Z AUTO 01003KT 10SM OVC017 03/00 A3040 -380 79 -1800 030/03 RMK AO2 T00330000 TSNO $
14756KACK ACK20160327035013303/27/16 03:50:31  5-MIN KACK 270850Z AUTO 01004KT 10SM OVC017 03/00 A3040 -390 79 -1800 020/04 RMK AO2 SLP293 T00330000 58006 TSNO $
14756KACK ACK20160327035512703/27/16 03:55:31  5-MIN KACK 270855Z AUTO 36004KT 10SM BKN017 OVC023 03/00 A3040 -390 79 -1800 010/04 RMK AO2 T00330000 TSNO $
14756KACK ACK20160327040012803/27/16 04:00:31  5-MIN KACK 270900Z AUTO 36004KT 10SM BKN020 OVC025 03/M01 A3040 -390 76 -1800 020/04 RMK AO2 T00331006 TSNO $
14756KACK ACK20160327040512103/27/16 04:05:31  5-MIN KACK 270905Z AUTO 01004KT 10SM OVC022 03/M01 A3040 -390 76 -1800 030/04 RMK AO2 T00331006 TSNO $
14756KACK ACK20160327041012803/27/16 04:10:31  5-MIN KACK 270910Z AUTO 03003KT 10SM SCT018 OVC024 03/M01 A3040 -390 76 -1800 040/03 RMK AO2 T00331006 TSNO $
14756KACK ACK20160327041512803/27/16 04:15:31  5-MIN KACK 270915Z AUTO 01004KT 10SM SCT018 OVC024 03/M01 A3040 -390 76 -1800 030/04 RMK AO2 T00331006 TSNO $
14756KACK ACK20160327042012803/27/16 04:20:31  5-MIN KACK 270920Z AUTO 36004KT 10SM FEW016 OVC024 03/M01 A3040 -390 76 -1800 020/04 RMK AO2 T00331006 TSNO $
14756KACK ACK20160327042512703/27/16 04:25:31  5-MIN KACK 270925Z AUTO 36004KT 10SM FEW016 OVC024 03/00 A3040 -390 79 -1800 020/04 RMK AO2 T00330000 TSNO $
14756KACK ACK20160327043012703/27/16 04:30:31  5-MIN KACK 270930Z AUTO 01004KT 10SM FEW017 OVC024 03/00 A3040 -390 79 -1800 030/04 RMK AO2 T00330000 TSNO $
14756KACK ACK20160327043512703/27/16 04:35:31  5-MIN KACK 270935Z AUTO 01003KT 10SM FEW017 OVC024 03/00 A3040 -390 79 -1800 020/03 RMK AO2 T00330000 TSNO $
14756KACK ACK20160327044012703/27/16 04:40:31  5-MIN KACK 270940Z AUTO 33003KT 10SM SCT017 OVC024 03/00 A3040 -390 79 -1800 350/03 RMK AO2 T00330000 TSNO $
14756KACK ACK20160327044512603/27/16 04:45:31  5-MIN KACK 270945Z AUTO 34004KT 9SM SCT019 OVC024 03/00 A3040 -390 79 -1800 350/04 RMK AO2 T00330000 TSNO $
14756KACK ACK20160327045012303/27/16 04:50:31  5-MIN KACK 270950Z 34005KT 9SM BKN018 OVC024 03/00 A3041 -390 82 -1900 350/05 RMK AO2 SLP296 T00280000 $
14756KACK ACK20160327045511603/27/16 04:55:31  5-MIN KACK 270955Z 33006KT 9SM BKN018 OVC024 03/01 A3041 -390 85 -1900 340/06 RMK AO2 T00280006 $
14756KACK ACK20160327050010903/27/16 05:00:31  5-MIN KACK 271000Z 34004KT 9SM OVC020 03/01 A3041 -390 85 -1900 350/04 RMK AO2 T00280006 $
14756KACK ACK20160327050511003/27/16 05:05:31  5-MIN KACK 271005Z 34003KT 10SM OVC020 03/01 A3041 -390 82 -1800 350/03 RMK AO2 T00330006 $
14756KACK ACK20160327051011703/27/16 05:10:31  5-MIN KACK 271010Z 01006KT 10SM BKN018 OVC023 03/01 A3041 -390 85 -1800 020/06 RMK AO2 T00330011 $
14756KACK ACK20160327051511003/27/16 05:15:31  5-MIN KACK 271015Z 03007KT 10SM OVC018 03/00 A3041 -390 79 -1800 040/07 RMK AO2 T00330000 $
14756KACK ACK20160327052011003/27/16 05:20:31  5-MIN KACK 271020Z 04006KT 10SM OVC018 03/00 A3041 -390 79 -1800 050/06 RMK AO2 T00330000 $
14756KACK ACK20160327052511003/27/16 05:25:31  5-MIN KACK 271025Z 36006KT 10SM OVC018 03/00 A3041 -400 79 -1800 010/06 RMK AO2 T00330000 $
14756KACK ACK20160327053011003/27/16 05:30:31  5-MIN KACK 271030Z 33004KT 10SM OVC016 03/01 A3041 -400 82 -1800 340/04 RMK AO2 T00330006 $
14756KACK ACK20160327053511703/27/16 05:35:31  5-MIN KACK 271035Z 34004KT 10SM BKN013 OVC018 03/01 A3042 -400 82 -1800 350/04 RMK AO2 T00330006 $
14756KACK ACK20160327054011703/27/16 05:40:31  5-MIN KACK 271040Z 35005KT 10SM BKN011 OVC018 03/01 A3042 -400 82 -1800 010/05 RMK AO2 T00330006 $
14756KACK ACK20160327054511703/27/16 05:45:31  5-MIN KACK 271045Z 36006KT 10SM BKN013 OVC018 03/01 A3042 -410 82 -1800 020/06 RMK AO2 T00330006 $
14756KACK ACK20160327055010003/27/16 05:50:31  5-MIN KACK 271050Z 01005KT 10SM OVC015 03/01 A3042 -410 82 -1800 020/05 RMK AO2 $
14756KACK ACK20160327055511003/27/16 05:55:31  5-MIN KACK 271055Z 35004KT 10SM OVC015 03/01 A3042 -400 82 -1800 010/04 RMK AO2 T00330006 $
14756KACK ACK20160327060011703/27/16 06:00:31  5-MIN KACK 271100Z 35004KT 10SM FEW011 OVC017 03/01 A3042 -400 82 -1800 360/04 RMK AO2 T00330006 $
14756KACK ACK20160327060512403/27/16 06:05:31  5-MIN KACK 271105Z 35004KT 10SM FEW011 BKN017 OVC023 03/01 A3042 -400 82 -1800 360/04 RMK AO2 T00330006 $
14756KACK ACK20160327061011003/27/16 06:10:31  5-MIN KACK 271110Z 35005KT 10SM OVC019 03/01 A3042 -410 82 -1800 010/05 RMK AO2 T00330006 $
14756KACK ACK20160327061511003/27/16 06:15:31  5-MIN KACK 271115Z 36006KT 10SM OVC019 03/01 A3042 -410 85 -1800 010/06 RMK AO2 T00330011 $
14756KACK ACK20160327062011003/27/16 06:20:31  5-MIN KACK 271120Z 36005KT 10SM OVC019 03/01 A3042 -410 82 -1800 020/05 RMK AO2 T00330006 $
14756KACK ACK20160327062511703/27/16 06:25:31  5-MIN KACK 271125Z 36006KT 10SM BKN016 OVC023 03/01 A3042 -410 82 -1800 020/06 RMK AO2 T00330006 $
14756KACK ACK20160327063011003/27/16 06:30:31  5-MIN KACK 271130Z 01006KT 10SM OVC018 03/01 A3042 -410 82 -1800 030/06 RMK AO2 T00330006 $
14756KACK ACK20160327063511003/27/16 06:35:31  5-MIN KACK 271135Z 01007KT 10SM OVC018 04/01 A3043 -410 79 -1800 030/07 RMK AO2 T00390006 $
14756KACK ACK20160327064011003/27/16 06:40:31  5-MIN KACK 271140Z 01006KT 10SM OVC018 04/01 A3043 -410 79 -1800 020/06 RMK AO2 T00390006 $
14756KACK ACK20160327064511003/27/16 06:45:31  5-MIN KACK 271145Z 01006KT 10SM OVC018 04/01 A3043 -410 79 -1800 030/06 RMK AO2 T00390006 $
14756KACK ACK20160327065013503/27/16 06:50:31  5-MIN KACK 271150Z 03004KT 10SM OVC020 04/01 A3043 -410 79 -1800 050/04 RMK AO2 SLP303 T00390006 10039 20028 50000 $
14756KACK ACK20160327065511003/27/16 06:55:31  5-MIN KACK 271155Z 02004KT 10SM OVC020 04/00 A3043 -420 76 -1800 030/04 RMK AO2 T00390000 $
14756KACK ACK20160327070011103/27/16 07:00:31  5-MIN KACK 271200Z 01007KT 10SM OVC020 04/M01 A3043 -410 73 -1800 030/07 RMK AO2 T00391006 $
14756KACK ACK20160327070511003/27/16 07:05:31  5-MIN KACK 271205Z 04008KT 10SM OVC020 04/00 A3043 -410 76 -1800 050/08 RMK AO2 T00390000 $
14756KACK ACK20160327071011003/27/16 07:10:31  5-MIN KACK 271210Z 04007KT 10SM OVC020 04/00 A3042 -410 76 -1800 060/07 RMK AO2 T00390000 $
14756KACK ACK20160327071511703/27/16 07:15:31  5-MIN KACK 271215Z 01008KT 10SM BKN018 OVC022 04/00 A3043 -410 76 -1800 030/08 RMK AO2 T00390000 $
14756KACK ACK20160327072010903/27/16 07:20:31  5-MIN KACK 271220Z 36005KT 9SM OVC018 04/00 A3043 -410 76 -1800 020/05 RMK AO2 T00390000 $
14756KACK ACK20160327072511603/27/16 07:25:31  5-MIN KACK 271225Z 01005KT 9SM BKN015 OVC020 04/00 A3043 -410 76 -1800 020/05 RMK AO2 T00390000 $
14756KACK ACK20160327073011003/27/16 07:30:31  5-MIN KACK 271230Z 36005KT 10SM OVC015 04/01 A3043 -410 79 -1800 010/05 RMK AO2 T00390006 $
14756KACK ACK20160327073511003/27/16 07:35:31  5-MIN KACK 271235Z 02004KT 10SM OVC015 04/01 A3043 -410 79 -1800 030/04 RMK AO2 T00390006 $
14756KACK ACK20160327074011003/27/16 07:40:31  5-MIN KACK 271240Z 36005KT 10SM OVC015 04/01 A3043 -410 79 -1800 020/05 RMK AO2 T00390006 $
14756KACK ACK20160327074511003/27/16 07:45:31  5-MIN KACK 271245Z 35004KT 10SM OVC015 04/01 A3042 -410 79 -1800 360/04 RMK AO2 T00390006 $
14756KACK ACK20160327075010003/27/16 07:50:31  5-MIN KACK 271250Z 02005KT 10SM OVC014 04/01 A3042 -410 76 -1700 030/05 RMK AO2 $
14756KACK ACK20160327075511703/27/16 07:55:31  5-MIN KACK 271255Z 36005KT 10SM BKN014 OVC020 04/01 A3042 -410 76 -1700 020/05 RMK AO2 T00440006 $
14756KACK ACK20160327080011703/27/16 08:00:31  5-MIN KACK 271300Z 36006KT 10SM BKN017 OVC022 04/01 A3042 -410 76 -1700 020/06 RMK AO2 T00440006 $
14756KACK ACK20160327080511703/27/16 08:05:31  5-MIN KACK 271305Z 02008KT 10SM SCT014 OVC020 05/00 A3042 -400 70 -1600 030/08 RMK AO2 T00500000 $
14756KACK ACK20160327081011003/27/16 08:10:31  5-MIN KACK 271310Z 02008KT 10SM OVC020 05/00 A3042 -400 70 -1600 040/08 RMK AO2 T00500000 $
14756KACK ACK20160327081511003/27/16 08:15:31  5-MIN KACK 271315Z 01009KT 10SM OVC020 05/00 A3042 -400 70 -1600 020/09 RMK AO2 T00500000 $
14756KACK ACK20160327082011003/27/16 08:20:31  5-MIN KACK 271320Z 36008KT 10SM OVC018 04/00 A3041 -400 73 -1700 010/08 RMK AO2 T00440000 $
14756KACK ACK20160327082511003/27/16 08:25:31  5-MIN KACK 271325Z 36008KT 10SM OVC018 05/00 A3041 -400 70 -1600 020/08 RMK AO2 T00500000 $
14756KACK ACK20160327083011003/27/16 08:30:31  5-MIN KACK 271330Z 35008KT 10SM OVC018 05/00 A3041 -400 70 -1600 010/08 RMK AO2 T00500000 $
14756KACK ACK20160327083511003/27/16 08:35:31  5-MIN KACK 271335Z 05008KT 10SM OVC018 05/01 A3042 -400 73 -1600 070/08 RMK AO2 T00500006 $
14756KACK ACK20160327084011003/27/16 08:40:31  5-MIN KACK 271340Z 06007KT 10SM OVC018 05/00 A3041 -400 70 -1600 070/07 RMK AO2 T00500000 $
14756KACK ACK20160327084511003/27/16 08:45:31  5-MIN KACK 271345Z 03007KT 10SM OVC018 06/00 A3041 -400 67 -1600 050/07 RMK AO2 T00560000 $
14756KACK ACK20160327085011703/27/16 08:50:31  5-MIN KACK 271350Z 03009KT 10SM OVC018 06/00 A3042 -400 67 -1600 040/09 RMK AO2 SLP300 T00560000 $
14756KACK ACK20160327085511703/27/16 08:55:31  5-MIN KACK 271355Z VRB05KT 10SM BKN018 OVC022 05/00 A3042 -410 70 -1600 VRB/05 RMK AO2 T00500000 $
14756KACK ACK20160327090011003/27/16 09:00:31  5-MIN KACK 271400Z VRB05KT 10SM OVC017 05/01 A3043 -410 73 -1600 VRB/05 RMK AO2 T00500006 $
14756KACK ACK20160327090511003/27/16 09:05:31  5-MIN KACK 271405Z 01005KT 10SM OVC017 05/00 A3043 -420 70 -1600 030/05 RMK AO2 T00500000 $
14756KACK ACK20160327091011003/27/16 09:10:31  5-MIN KACK 271410Z 05006KT 10SM OVC017 05/00 A3044 -420 70 -1600 060/06 RMK AO2 T00500000 $
14756KACK ACK20160327091511003/27/16 09:15:31  5-MIN KACK 271415Z 04004KT 10SM OVC017 05/00 A3044 -420 70 -1700 050/04 RMK AO2 T00500000 $
14756KACK ACK20160327092011003/27/16 09:20:31  5-MIN KACK 271420Z 07005KT 10SM OVC017 05/00 A3044 -420 70 -1700 090/05 RMK AO2 T00500000 $
14756KACK ACK20160327092511003/27/16 09:25:31  5-MIN KACK 271425Z 36004KT 10SM OVC017 05/00 A3043 -420 70 -1600 010/04 RMK AO2 T00500000 $
14756KACK ACK20160327093010803/27/16 09:30:31  5-MIN KACK 271430Z 36007KT 10SM OVC017 06/00 A3043 -410 67 -1600 020/07 RMK AO2 T00560000
14756KACK ACK20160327093510803/27/16 09:35:31  5-MIN KACK 271435Z VRB03KT 10SM OVC017 06/01 A3043 -410 70 -1600 VRB/03 RMK AO2 T00560006
14756KACK ACK20160327094010803/27/16 09:40:31  5-MIN KACK 271440Z 02008KT 10SM OVC017 06/01 A3042 -410 70 -1600 040/08 RMK AO2 T00560006
14756KACK ACK20160327094510803/27/16 09:45:31  5-MIN KACK 271445Z 33004KT 10SM OVC017 06/01 A3042 -400 70 -1600 350/04 RMK AO2 T00560006
14756KACK ACK20160327095012103/27/16 09:50:31  5-MIN KACK 271450Z 36011KT 10SM OVC017 06/01 A3042 -410 70 -1600 020/11 RMK AO2 SLP301 T00560006 53010
14756KACK ACK20160327095510803/27/16 09:55:31  5-MIN KACK 271455Z 36006KT 10SM OVC017 06/01 A3043 -410 70 -1600 020/06 RMK AO2 T00560006
14756KACK ACK20160327100010803/27/16 10:00:31  5-MIN KACK 271500Z 35005KT 10SM OVC017 06/01 A3043 -410 70 -1600 360/05 RMK AO2 T00560006
14756KACK ACK20160327100510803/27/16 10:05:31  5-MIN KACK 271505Z 36007KT 10SM OVC017 06/01 A3043 -410 70 -1600 020/07 RMK AO2 T00560006
14756KACK ACK20160327101010803/27/16 10:10:31  5-MIN KACK 271510Z 02006KT 10SM OVC017 06/01 A3043 -410 70 -1600 040/06 RMK AO2 T00560006
14756KACK ACK20160327101510803/27/16 10:15:31  5-MIN KACK 271515Z 07007KT 10SM OVC018 06/01 A3042 -410 67 -1500 080/07 RMK AO2 T00610006
14756KACK ACK20160327102010803/27/16 10:20:31  5-MIN KACK 271520Z 09006KT 10SM OVC018 06/01 A3042 -410 70 -1600 110/06 RMK AO2 T00560006
14756KACK ACK20160327102510803/27/16 10:25:31  5-MIN KACK 271525Z 03009KT 10SM OVC018 06/01 A3042 -400 67 -1500 050/09 RMK AO2 T00610006
14756KACK ACK20160327103010803/27/16 10:30:31  5-MIN KACK 271530Z 02006KT 10SM OVC018 06/01 A3041 -400 67 -1500 040/06 RMK AO2 T00610006
14756KACK ACK20160327103510803/27/16 10:35:31  5-MIN KACK 271535Z VRB06KT 10SM OVC018 06/01 A3041 -400 67 -1500 VRB/06 RMK AO2 T00610006
14756KACK ACK20160327104010803/27/16 10:40:31  5-MIN KACK 271540Z VRB03KT 10SM OVC020 06/00 A3041 -390 65 -1500 VRB/03 RMK AO2 T00610000
14756KACK ACK20160327104510803/27/16 10:45:31  5-MIN KACK 271545Z 01008KT 10SM OVC020 07/01 A3040 -390 65 -1300 030/08 RMK AO2 T00720011
14756KACK ACK20160327105011503/27/16 10:50:31  5-MIN KACK 271550Z 02010KT 10SM OVC020 07/01 A3040 -390 62 -1300 030/10 RMK AO2 SLP294 T00720006
14756KACK ACK20160327105510803/27/16 10:55:31  5-MIN KACK 271555Z 01009KT 10SM OVC020 07/01 A3040 -390 65 -1400 030/09 RMK AO2 T00670006
14756KACK ACK20160327110010803/27/16 11:00:31  5-MIN KACK 271600Z 34007KT 10SM OVC020 07/01 A3040 -390 65 -1400 350/07 RMK AO2 T00670006
14756KACK ACK20160327110510803/27/16 11:05:31  5-MIN KACK 271605Z VRB04KT 10SM OVC022 07/01 A3040 -390 65 -1400 VRB/04 RMK AO2 T00670006
14756KACK ACK20160327111010803/27/16 11:10:31  5-MIN KACK 271610Z 01007KT 10SM OVC022 07/01 A3040 -390 65 -1400 020/07 RMK AO2 T00670006
14756KACK ACK20160327111510803/27/16 11:15:31  5-MIN KACK 271615Z 33008KT 10SM OVC022 08/01 A3041 -390 62 -1300 350/08 RMK AO2 T00780011
14756KACK ACK20160327112010803/27/16 11:20:31  5-MIN KACK 271620Z VRB03KT 10SM OVC022 07/01 A3041 -400 62 -1300 VRB/03 RMK AO2 T00720006
14756KACK ACK20160327112510803/27/16 11:25:31  5-MIN KACK 271625Z 03005KT 10SM OVC022 07/01 A3041 -400 62 -1300 050/05 RMK AO2 T00720006
14756KACK ACK20160327113012403/27/16 11:30:31  5-MIN KACK 271630Z 34007KT 320V030 10SM OVC022 07/01 A3041 -400 62 -1300 360/07 340V050 RMK AO2 T00720006
14756KACK ACK20160327113510803/27/16 11:35:31  5-MIN KACK 271635Z VRB06KT 10SM OVC023 07/01 A3042 -400 65 -1400 VRB/06 RMK AO2 T00670006
14756KACK ACK20160327114010803/27/16 11:40:31  5-MIN KACK 271640Z VRB03KT 10SM OVC023 07/01 A3043 -410 65 -1400 VRB/03 RMK AO2 T00670006
14756KACK ACK20160327114510803/27/16 11:45:31  5-MIN KACK 271645Z VRB04KT 10SM OVC023 07/01 A3040 -390 65 -1400 VRB/04 RMK AO2 T00670006
14756KACK ACK20160327115012203/27/16 11:50:31  5-MIN KACK 271650Z 02006KT 10SM OVC023 07/01 A3038 -370 62 -1300 040/06 RMK AO2 PRESFR SLP287 T00720006
14756KACK ACK20160327115510803/27/16 11:55:31  5-MIN KACK 271655Z 01010KT 10SM OVC024 08/01 A3037 -360 60 -1200 030/10 RMK AO2 T00780006
14756KACK ACK20160327120010803/27/16 12:00:31  5-MIN KACK 271700Z VRB06KT 10SM OVC024 08/01 A3038 -370 62 -1200 VRB/06 RMK AO2 T00780011
14756KACK ACK20160327120510803/27/16 12:05:31  5-MIN KACK 271705Z 04011KT 10SM OVC024 07/01 A3037 -360 62 -1300 050/11 RMK AO2 T00720006
14756KACK ACK20160327121010803/27/16 12:10:31  5-MIN KACK 271710Z 04010KT 10SM OVC024 08/01 A3037 -360 60 -1200 050/10 RMK AO2 T00780006
14756KACK ACK20160327121510803/27/16 12:15:31  5-MIN KACK 271715Z 08008KT 10SM OVC024 07/00 A3037 -360 62 -1400 090/08 RMK AO2 T00670000
14756KACK ACK20160327122010803/27/16 12:20:31  5-MIN KACK 271720Z 06008KT 10SM OVC024 07/01 A3038 -360 62 -1300 080/08 RMK AO2 T00720006
14756KACK ACK20160327122510803/27/16 12:25:31  5-MIN KACK 271725Z 07009KT 10SM OVC022 07/01 A3038 -370 65 -1400 090/09 RMK AO2 T00670006
14756KACK ACK20160327123010803/27/16 12:30:31  5-MIN KACK 271730Z 05007KT 10SM OVC022 07/01 A3038 -370 65 -1400 070/07 RMK AO2 T00670006
14756KACK ACK20160327123510803/27/16 12:35:31  5-MIN KACK 271735Z 07005KT 10SM OVC022 07/01 A3039 -380 65 -1400 090/05 RMK AO2 T00670006
14756KACK ACK20160327124012403/27/16 12:40:31  5-MIN KACK 271740Z 05007KT 030V090 10SM OVC022 07/01 A3038 -370 65 -1400 070/07 050V110 RMK AO2 T00670006
14756KACK ACK20160327124510803/27/16 12:45:31  5-MIN KACK 271745Z 08009KT 10SM OVC021 07/01 A3038 -370 65 -1400 090/09 RMK AO2 T00670006
14756KACK ACK20160327125013303/27/16 12:50:31  5-MIN KACK 271750Z 07008KT 10SM OVC021 06/01 A3038 -370 67 -1500 080/08 RMK AO2 SLP289 T00610006 10078 20039 55002
14756KACK ACK20160327125510803/27/16 12:55:31  5-MIN KACK 271755Z 07007KT 10SM OVC020 06/01 A3038 -370 67 -1500 080/07 RMK AO2 T00610006
14756KACK ACK20160327130010803/27/16 13:00:31  5-MIN KACK 271800Z 06007KT 10SM OVC020 06/01 A3038 -370 67 -1400 080/07 RMK AO2 T00610006
14756KACK ACK20160327130510803/27/16 13:05:31  5-MIN KACK 271805Z 07007KT 10SM OVC020 06/01 A3038 -370 67 -1400 080/07 RMK AO2 T00610006
14756KACK ACK20160327131010803/27/16 13:10:31  5-MIN KACK 271810Z 09006KT 10SM OVC020 06/01 A3038 -370 67 -1500 110/06 RMK AO2 T00610006
14756KACK ACK20160327131510803/27/16 13:15:31  5-MIN KACK 271815Z 05007KT 10SM OVC020 06/01 A3038 -370 67 -1500 070/07 RMK AO2 T00610006
14756KACK ACK20160327132010803/27/16 13:20:31  5-MIN KACK 271820Z VRB05KT 10SM OVC020 06/01 A3038 -370 67 -1500 VRB/05 RMK AO2 T00610006
14756KACK ACK20160327132510803/27/16 13:25:31  5-MIN KACK 271825Z 05004KT 10SM OVC020 06/01 A3038 -360 67 -1400 070/04 RMK AO2 T00610006
14756KACK ACK20160327133010803/27/16 13:30:31  5-MIN KACK 271830Z 09006KT 10SM OVC022 06/01 A3037 -360 67 -1400 100/06 RMK AO2 T00610006
14756KACK ACK20160327133510803/27/16 13:35:31  5-MIN KACK 271835Z 10007KT 10SM OVC022 06/01 A3037 -360 67 -1400 110/07 RMK AO2 T00610006
14756KACK ACK20160327134010803/27/16 13:40:31  5-MIN KACK 271840Z 11006KT 10SM OVC022 06/01 A3036 -350 67 -1400 120/06 RMK AO2 T00610006
14756KACK ACK20160327134510803/27/16 13:45:31  5-MIN KACK 271845Z 08008KT 10SM OVC022 07/01 A3036 -350 65 -1400 100/08 RMK AO2 T00670006
14756KACK ACK20160327135012503/27/16 13:50:31  5-MIN KACK 271850Z AUTO 06005KT 10SM OVC022 07/01 A3036 -350 65 -1400 070/05 RMK AO2 SLP281 T00670006 TSNO
14756KACK ACK20160327135511803/27/16 13:55:31  5-MIN KACK 271855Z AUTO 06004KT 10SM OVC022 06/01 A3036 -350 67 -1400 080/04 RMK AO2 T00610006 TSNO
14756KACK ACK20160327140011803/27/16 14:00:31  5-MIN KACK 271900Z AUTO 09006KT 10SM OVC022 07/01 A3035 -350 65 -1400 110/06 RMK AO2 T00670006 TSNO
14756KACK ACK20160327140511803/27/16 14:05:31  5-MIN KACK 271905Z AUTO VRB06KT 10SM OVC022 07/01 A3035 -340 62 -1300 VRB/06 RMK AO2 T00720006 TSNO
14756KACK ACK20160327141011803/27/16 14:10:31  5-MIN KACK 271910Z AUTO 07007KT 10SM OVC022 07/01 A3034 -340 65 -1300 090/07 RMK AO2 T00670006 TSNO
14756KACK ACK20160327141511803/27/16 14:15:31  5-MIN KACK 271915Z AUTO 08005KT 10SM OVC022 07/01 A3035 -340 65 -1300 090/05 RMK AO2 T00670006 TSNO
14756KACK ACK20160327142011803/27/16 14:20:31  5-MIN KACK 271920Z AUTO 10008KT 10SM OVC022 07/01 A3035 -340 65 -1300 120/08 RMK AO2 T00670006 TSNO
14756KACK ACK20160327142511803/27/16 14:25:31  5-MIN KACK 271925Z AUTO 09006KT 10SM BKN022 07/00 A3035 -340 62 -1300 110/06 RMK AO2 T00670000 TSNO
14756KACK ACK20160327143011803/27/16 14:30:31  5-MIN KACK 271930Z AUTO 10006KT 10SM BKN022 07/01 A3035 -340 65 -1300 110/06 RMK AO2 T00670006 TSNO
14756KACK ACK20160327143511803/27/16 14:35:31  5-MIN KACK 271935Z AUTO 08007KT 10SM OVC022 07/01 A3035 -340 65 -1300 100/07 RMK AO2 T00670006 TSNO
14756KACK ACK20160327144011803/27/16 14:40:31  5-MIN KACK 271940Z AUTO 07004KT 10SM OVC022 07/01 A3036 -350 65 -1400 090/04 RMK AO2 T00670006 TSNO
14756KACK ACK20160327144511803/27/16 14:45:31  5-MIN KACK 271945Z AUTO 11006KT 10SM OVC022 07/01 A3035 -340 65 -1400 120/06 RMK AO2 T00670006 TSNO
14756KACK ACK20160327145012503/27/16 14:50:31  5-MIN KACK 271950Z AUTO 15010KT 10SM OVC022 07/01 A3035 -340 62 -1300 160/10 RMK AO2 SLP276 T00720006 TSNO
14756KACK ACK20160327145511803/27/16 14:55:31  5-MIN KACK 271955Z AUTO 15008KT 10SM OVC022 07/01 A3035 -340 65 -1300 170/08 RMK AO2 T00670006 TSNO
14756KACK ACK20160327150011803/27/16 15:00:31  5-MIN KACK 272000Z AUTO 14009KT 10SM OVC022 07/01 A3034 -340 65 -1300 160/09 RMK AO2 T00670006 TSNO
14756KACK ACK20160327150511803/27/16 15:05:31  5-MIN KACK 272005Z AUTO 14010KT 10SM OVC022 07/01 A3034 -330 62 -1300 150/10 RMK AO2 T00720006 TSNO
14756KACK ACK20160327151011803/27/16 15:10:31  5-MIN KACK 272010Z AUTO 15010KT 10SM OVC022 07/01 A3034 -330 62 -1300 170/10 RMK AO2 T00720006 TSNO
14756KACK ACK20160327151511803/27/16 15:15:31  5-MIN KACK 272015Z AUTO 14009KT 10SM OVC021 07/01 A3034 -330 67 -1300 160/09 RMK AO2 T00670011 TSNO
14756KACK ACK20160327152011803/27/16 15:20:31  5-MIN KACK 272020Z AUTO 12009KT 10SM OVC021 06/01 A3034 -330 67 -1400 130/09 RMK AO2 T00610006 TSNO
14756KACK ACK20160327152511803/27/16 15:25:31  5-MIN KACK 272025Z AUTO 13009KT 10SM OVC021 06/01 A3033 -320 67 -1400 150/09 RMK AO2 T00610006 TSNO
14756KACK ACK20160327153010803/27/16 15:30:31  5-MIN KACK 272030Z 13010KT 10SM OVC020 06/01 A3032 -320 67 -1400 140/10 RMK AO2 T00610006
14756KACK ACK20160327153510803/27/16 15:35:31  5-MIN KACK 272035Z 12009KT 10SM OVC020 06/01 A3032 -320 67 -1400 140/09 RMK AO2 T00610006
14756KACK ACK20160327154010803/27/16 15:40:31  5-MIN KACK 272040Z 13007KT 10SM OVC019 06/01 A3033 -320 67 -1400 150/07 RMK AO2 T00610006
14756KACK ACK20160327154510803/27/16 15:45:31  5-MIN KACK 272045Z 12009KT 10SM OVC019 06/01 A3032 -310 70 -1400 130/09 RMK AO2 T00610011
14756KACK ACK20160327155012103/27/16 15:50:31  5-MIN KACK 272050Z 10008KT 10SM OVC019 06/01 A3032 -310 67 -1400 110/08 RMK AO2 SLP266 T00610006 55014
14756KACK ACK20160327155510803/27/16 15:55:31  5-MIN KACK 272055Z 12007KT 10SM OVC019 06/01 A3032 -310 67 -1400 130/07 RMK AO2 T00610006
14756KACK ACK20160327160010803/27/16 16:00:31  5-MIN KACK 272100Z 09007KT 10SM OVC019 06/01 A3032 -310 67 -1400 110/07 RMK AO2 T00610006
14756KACK ACK20160327160510803/27/16 16:05:31  5-MIN KACK 272105Z 10006KT 10SM OVC018 06/01 A3031 -310 70 -1400 120/06 RMK AO2 T00560006
14756KACK ACK20160327161010803/27/16 16:10:31  5-MIN KACK 272110Z 08006KT 10SM OVC018 06/01 A3031 -310 70 -1400 090/06 RMK AO2 T00610011
14756KACK ACK20160327161510803/27/16 16:15:31  5-MIN KACK 272115Z 08006KT 10SM OVC018 06/01 A3031 -300 70 -1400 100/06 RMK AO2 T00610011
14756KACK ACK20160327162010803/27/16 16:20:31  5-MIN KACK 272120Z 10008KT 10SM OVC018 06/01 A3030 -300 70 -1400 110/08 RMK AO2 T00610011
14756KACK ACK20160327162510803/27/16 16:25:31  5-MIN KACK 272125Z 12008KT 10SM OVC018 06/01 A3030 -300 70 -1400 130/08 RMK AO2 T00560006
14756KACK ACK20160327163010803/27/16 16:30:31  5-MIN KACK 272130Z 14008KT 10SM OVC018 06/01 A3030 -300 70 -1400 150/08 RMK AO2 T00560006
14756KACK ACK20160327163510803/27/16 16:35:31  5-MIN KACK 272135Z 11006KT 10SM OVC018 06/01 A3031 -300 70 -1400 120/06 RMK AO2 T00560006
14756KACK ACK20160327164010803/27/16 16:40:31  5-MIN KACK 272140Z 13008KT 10SM OVC018 06/01 A3031 -300 70 -1400 140/08 RMK AO2 T00560006
14756KACK ACK20160327164510803/27/16 16:45:31  5-MIN KACK 272145Z 14006KT 10SM OVC018 06/01 A3031 -300 70 -1400 150/06 RMK AO2 T00560006
14756KACK ACK20160327165011503/27/16 16:50:31  5-MIN KACK 272150Z VRB06KT 10SM OVC018 06/01 A3031 -300 70 -1400 VRB/06 RMK AO2 SLP262 T00560006
14756KACK ACK20160327165510803/27/16 16:55:31  5-MIN KACK 272155Z 11006KT 10SM OVC018 06/01 A3030 -300 70 -1400 120/06 RMK AO2 T00560006
14756KACK ACK20160327170010803/27/16 17:00:31  5-MIN KACK 272200Z 09007KT 10SM OVC018 06/01 A3030 -300 70 -1400 110/07 RMK AO2 T00560006
14756KACK ACK20160327170510803/27/16 17:05:31  5-MIN KACK 272205Z 12004KT 10SM BKN018 06/01 A3031 -300 70 -1400 130/04 RMK AO2 T00560006
14756KACK ACK20160327171010803/27/16 17:10:31  5-MIN KACK 272210Z 10006KT 10SM BKN018 06/01 A3030 -300 70 -1400 120/06 RMK AO2 T00560006
14756KACK ACK20160327171510803/27/16 17:15:31  5-MIN KACK 272215Z 11006KT 10SM BKN018 05/01 A3030 -300 73 -1500 130/06 RMK AO2 T00500006
14756KACK ACK20160327172010803/27/16 17:20:31  5-MIN KACK 272220Z 09007KT 10SM BKN018 05/01 A3030 -290 73 -1500 110/07 RMK AO2 T00500006
14756KACK ACK20160327172510803/27/16 17:25:31  5-MIN KACK 272225Z 11005KT 10SM BKN018 05/01 A3030 -290 73 -1500 120/05 RMK AO2 T00500006
14756KACK ACK20160327173010803/27/16 17:30:31  5-MIN KACK 272230Z 09006KT 10SM BKN018 05/01 A3030 -290 73 -1500 110/06 RMK AO2 T00500006
14756KACK ACK20160327173510803/27/16 17:35:31  5-MIN KACK 272235Z 09006KT 10SM BKN018 05/01 A3029 -290 73 -1500 100/06 RMK AO2 T00500006
14756KACK ACK20160327174010803/27/16 17:40:31  5-MIN KACK 272240Z 11006KT 10SM BKN018 04/00 A3030 -290 73 -1600 130/06 RMK AO2 T00440000
14756KACK ACK20160327174510803/27/16 17:45:31  5-MIN KACK 272245Z 11006KT 10SM BKN018 04/00 A3030 -300 73 -1600 120/06 RMK AO2 T00440000
14756KACK ACK20160327175009503/27/16 17:50:31  5-MIN KACK 272250Z 10005KT 10SM CLR 04/00 A3031 -300 73 -1600 120/05 RMK AO2
14756KACK ACK20160327175510503/27/16 17:55:31  5-MIN KACK 272255Z 10005KT 10SM CLR 04/00 A3030 -300 76 -1600 110/05 RMK AO2 T00390000
14756KACK ACK20160327180010503/27/16 18:00:31  5-MIN KACK 272300Z 10004KT 10SM CLR 04/00 A3030 -300 76 -1600 110/04 RMK AO2 T00390000
14756KACK ACK20160327180510503/27/16 18:05:31  5-MIN KACK 272305Z 10004KT 10SM CLR 04/00 A3030 -300 76 -1600 120/04 RMK AO2 T00390000
14756KACK ACK20160327181010803/27/16 18:10:31  5-MIN KACK 272310Z 10005KT 10SM FEW015 04/00 A3030 -300 76 -1600 120/05 RMK AO2 T00390000
14756KACK ACK20160327181510803/27/16 18:15:31  5-MIN KACK 272315Z 09005KT 10SM FEW015 03/00 A3030 -290 79 -1700 110/05 RMK AO2 T00330000
14756KACK ACK20160327182010903/27/16 18:20:31  5-MIN KACK 272320Z 09005KT 10SM FEW015 03/M01 A3030 -290 76 -1700 110/05 RMK AO2 T00331006
14756KACK ACK20160327182510803/27/16 18:25:31  5-MIN KACK 272325Z 09004KT 10SM FEW015 03/00 A3030 -300 79 -1700 110/04 RMK AO2 T00330000
14756KACK ACK20160327183010803/27/16 18:30:31  5-MIN KACK 272330Z 09004KT 10SM FEW015 04/00 A3030 -300 76 -1600 110/04 RMK AO2 T00390000
14756KACK ACK20160327183510803/27/16 18:35:31  5-MIN KACK 272335Z 09004KT 10SM FEW015 04/00 A3030 -300 76 -1600 110/04 RMK AO2 T00390000
14756KACK ACK20160327184010803/27/16 18:40:31  5-MIN KACK 272340Z 11005KT 10SM SCT015 03/00 A3030 -300 79 -1700 120/05 RMK AO2 T00330000
14756KACK ACK20160327184510803/27/16 18:45:31  5-MIN KACK 272345Z 10006KT 10SM FEW015 03/00 A3030 -300 79 -1700 110/06 RMK AO2 T00330000
14756KACK ACK20160327185013303/27/16 18:50:31  5-MIN KACK 272350Z 10005KT 10SM FEW015 03/00 A3031 -300 79 -1700 110/05 RMK AO2 SLP263 T00330000 10072 20033 58022
14756KACK ACK20160327185510803/27/16 18:55:31  5-MIN KACK 272355Z 08004KT 10SM FEW015 03/00 A3031 -300 79 -1700 100/04 RMK AO2 T00330000
14756KACK ACK20160327190010803/27/16 19:00:31  5-MIN KACK 280000Z 09005KT 10SM FEW015 03/00 A3031 -310 79 -1700 100/05 RMK AO2 T00330000
14756KACK ACK20160327190510803/27/16 19:05:31  5-MIN KACK 280005Z 10005KT 10SM FEW015 03/00 A3031 -310 79 -1700 120/05 RMK AO2 T00330000
14756KACK ACK20160327191010803/27/16 19:10:31  5-MIN KACK 280010Z 10006KT 10SM FEW015 03/00 A3031 -310 79 -1700 110/06 RMK AO2 T00330000
14756KACK ACK20160327191510803/27/16 19:15:31  5-MIN KACK 280015Z 08004KT 10SM FEW014 03/00 A3031 -310 79 -1700 100/04 RMK AO2 T00330000
14756KACK ACK20160327192010803/27/16 19:20:31  5-MIN KACK 280020Z 08004KT 10SM FEW014 03/00 A3031 -310 79 -1700 100/04 RMK AO2 T00330000
14756KACK ACK20160327192510803/27/16 19:25:31  5-MIN KACK 280025Z 08005KT 10SM SCT014 03/01 A3031 -310 82 -1700 100/05 RMK AO2 T00330006
14756KACK ACK20160327193010803/27/16 19:30:31  5-MIN KACK 280030Z 09005KT 10SM FEW015 03/01 A3031 -300 82 -1700 100/05 RMK AO2 T00330006
14756KACK ACK20160327193510803/27/16 19:35:31  5-MIN KACK 280035Z 09006KT 10SM FEW015 03/00 A3031 -300 79 -1700 100/06 RMK AO2 T00330000
14756KACK ACK20160327194010803/27/16 19:40:31  5-MIN KACK 280040Z 08006KT 10SM FEW015 03/00 A3030 -300 79 -1700 090/06 RMK AO2 T00330000
14756KACK ACK20160327194510803/27/16 19:45:31  5-MIN KACK 280045Z 08006KT 10SM FEW015 03/00 A3030 -290 79 -1700 090/06 RMK AO2 T00330000
14756KACK ACK20160327195011503/27/16 19:50:31  5-MIN KACK 280050Z 08006KT 10SM FEW015 03/00 A3030 -290 79 -1700 100/06 RMK AO2 SLP259 T00330000
14756KACK ACK20160327195510803/27/16 19:55:31  5-MIN KACK 280055Z 10006KT 10SM SCT015 03/00 A3030 -300 82 -1800 110/06 RMK AO2 T00280000
14756KACK ACK20160327200010803/27/16 20:00:31  5-MIN KACK 280100Z 10007KT 10SM FEW015 03/00 A3030 -290 82 -1800 110/07 RMK AO2 T00280000
14756KACK ACK20160327200511503/27/16 20:05:31  5-MIN KACK 280105Z AUTO 10007KT 10SM CLR 03/00 A3030 -300 82 -1800 120/07 RMK AO2 T00280000 TSNO
14756KACK ACK20160327201011803/27/16 20:10:31  5-MIN KACK 280110Z AUTO 12007KT 10SM FEW014 03/00 A3030 -290 82 -1800 140/07 RMK AO2 T00280000 TSNO
14756KACK ACK20160327201511803/27/16 20:15:31  5-MIN KACK 280115Z AUTO 10006KT 10SM SCT014 03/00 A3029 -290 82 -1800 110/06 RMK AO2 T00280000 TSNO
14756KACK ACK20160327202011803/27/16 20:20:31  5-MIN KACK 280120Z AUTO 09006KT 10SM BKN015 03/00 A3029 -290 82 -1800 110/06 RMK AO2 T00280000 TSNO
14756KACK ACK20160327202511803/27/16 20:25:31  5-MIN KACK 280125Z AUTO 10007KT 10SM BKN015 03/01 A3029 -290 82 -1700 120/07 RMK AO2 T00330006 TSNO
14756KACK ACK20160327203011803/27/16 20:30:31  5-MIN KACK 280130Z AUTO 10007KT 10SM BKN015 04/01 A3029 -280 79 -1600 120/07 RMK AO2 T00390006 TSNO
14756KACK ACK20160327203511803/27/16 20:35:31  5-MIN KACK 280135Z AUTO 10007KT 10SM OVC015 04/01 A3029 -280 79 -1600 110/07 RMK AO2 T00390006 TSNO
14756KACK ACK20160327204011803/27/16 20:40:31  5-MIN KACK 280140Z AUTO 10006KT 10SM OVC015 04/01 A3028 -280 79 -1600 110/06 RMK AO2 T00390006 TSNO
14756KACK ACK20160327204511803/27/16 20:45:31  5-MIN KACK 280145Z AUTO 10008KT 10SM BKN015 04/01 A3028 -280 79 -1600 110/08 RMK AO2 T00390006 TSNO
14756KACK ACK20160327205010803/27/16 20:50:31  5-MIN KACK 280150Z AUTO 11006KT 10SM BKN014 04/01 A3028 -270 82 -1600 120/06 RMK AO2 TSNO
14756KACK ACK20160327205511803/27/16 20:55:31  5-MIN KACK 280155Z AUTO 10007KT 10SM OVC014 04/01 A3027 -270 82 -1600 120/07 RMK AO2 T00390011 TSNO
14756KACK ACK20160327210011803/27/16 21:00:31  5-MIN KACK 280200Z AUTO 10007KT 10SM OVC014 04/01 A3027 -270 82 -1600 120/07 RMK AO2 T00390011 TSNO
14756KACK ACK20160327210511803/27/16 21:05:31  5-MIN KACK 280205Z AUTO 11009KT 10SM BKN014 04/01 A3027 -270 79 -1500 120/09 RMK AO2 T00440011 TSNO
14756KACK ACK20160327211011803/27/16 21:10:31  5-MIN KACK 280210Z AUTO 11006KT 10SM BKN014 04/01 A3027 -270 79 -1600 120/06 RMK AO2 T00390006 TSNO
14756KACK ACK20160327211511803/27/16 21:15:31  5-MIN KACK 280215Z AUTO 11007KT 10SM OVC014 04/01 A3026 -260 82 -1600 130/07 RMK AO2 T00390011 TSNO
14756KACK ACK20160327212011803/27/16 21:20:31  5-MIN KACK 280220Z AUTO 11010KT 10SM BKN014 04/01 A3026 -260 79 -1500 120/10 RMK AO2 T00440011 TSNO
14756KACK ACK20160327212511803/27/16 21:25:31  5-MIN KACK 280225Z AUTO 11010KT 10SM BKN014 04/01 A3026 -260 79 -1500 130/10 RMK AO2 T00440011 TSNO
14756KACK ACK20160327213011803/27/16 21:30:31  5-MIN KACK 280230Z AUTO 11009KT 10SM BKN014 04/01 A3026 -260 79 -1500 130/09 RMK AO2 T00440011 TSNO
14756KACK ACK20160327213511803/27/16 21:35:31  5-MIN KACK 280235Z AUTO 12008KT 10SM BKN014 04/01 A3026 -260 79 -1500 130/08 RMK AO2 T00440011 TSNO
14756KACK ACK20160327214011803/27/16 21:40:31  5-MIN KACK 280240Z AUTO 11009KT 10SM OVC014 04/01 A3026 -260 79 -1500 120/09 RMK AO2 T00440011 TSNO
14756KACK ACK20160327214511803/27/16 21:45:31  5-MIN KACK 280245Z AUTO 12010KT 10SM OVC014 04/01 A3026 -260 79 -1500 140/10 RMK AO2 T00440011 TSNO
14756KACK ACK20160327215010803/27/16 21:50:31  5-MIN KACK 280250Z AUTO 13010KT 10SM OVC015 04/01 A3026 -260 79 -1500 140/10 RMK AO2 TSNO
14756KACK ACK20160327215511803/27/16 21:55:31  5-MIN KACK 280255Z AUTO 11010KT 10SM OVC015 05/01 A3026 -250 76 -1400 130/10 RMK AO2 T00500011 TSNO
14756KACK ACK20160327220011803/27/16 22:00:31  5-MIN KACK 280300Z AUTO 11010KT 10SM OVC015 05/02 A3025 -250 79 -1400 130/10 RMK AO2 T00500017 TSNO
14756KACK ACK20160327220511803/27/16 22:05:31  5-MIN KACK 280305Z AUTO 12011KT 10SM OVC015 05/01 A3025 -250 76 -1400 140/11 RMK AO2 T00500011 TSNO
14756KACK ACK20160327221011803/27/16 22:10:31  5-MIN KACK 280310Z AUTO 12011KT 10SM OVC015 05/01 A3025 -250 76 -1400 140/11 RMK AO2 T00500011 TSNO
14756KACK ACK20160327221511803/27/16 22:15:31  5-MIN KACK 280315Z AUTO 12011KT 10SM OVC015 05/01 A3025 -250 76 -1400 140/11 RMK AO2 T00500011 TSNO
14756KACK ACK20160327222011803/27/16 22:20:31  5-MIN KACK 280320Z AUTO 13011KT 10SM OVC015 05/01 A3025 -250 76 -1400 150/11 RMK AO2 T00500011 TSNO
14756KACK ACK20160327222511803/27/16 22:25:31  5-MIN KACK 280325Z AUTO 12012KT 10SM OVC015 05/01 A3025 -250 76 -1400 140/12 RMK AO2 T00500011 TSNO
14756KACK ACK20160327223011803/27/16 22:30:31  5-MIN KACK 280330Z AUTO 12012KT 10SM OVC015 05/01 A3025 -250 76 -1400 140/12 RMK AO2 T00500011 TSNO
14756KACK ACK20160327223511803/27/16 22:35:31  5-MIN KACK 280335Z AUTO 12009KT 10SM OVC015 05/01 A3025 -250 76 -1400 140/09 RMK AO2 T00500011 TSNO
14756KACK ACK20160327224011803/27/16 22:40:31  5-MIN KACK 280340Z AUTO 13010KT 10SM OVC015 05/01 A3025 -250 76 -1400 140/10 RMK AO2 T00500011 TSNO
14756KACK ACK20160327224511803/27/16 22:45:31  5-MIN KACK 280345Z AUTO 11011KT 10SM OVC015 05/01 A3024 -240 76 -1400 130/11 RMK AO2 T00500011 TSNO
14756KACK ACK20160327225012503/27/16 22:50:31  5-MIN KACK 280350Z AUTO 12011KT 10SM OVC015 05/01 A3024 -240 76 -1400 130/11 RMK AO2 SLP239 T00500011 TSNO
14756KACK ACK20160327225511803/27/16 22:55:31  5-MIN KACK 280355Z AUTO 12009KT 10SM OVC015 05/02 A3024 -240 79 -1400 140/09 RMK AO2 T00500017 TSNO
14756KACK ACK20160327230011803/27/16 23:00:31  5-MIN KACK 280400Z AUTO 13011KT 10SM OVC015 05/02 A3024 -240 79 -1400 140/11 RMK AO2 T00500017 TSNO
14756KACK ACK20160327230511803/27/16 23:05:31  5-MIN KACK 280405Z AUTO 12010KT 10SM OVC015 05/02 A3023 -230 79 -1400 140/10 RMK AO2 T00500017 TSNO
14756KACK ACK20160327231011803/27/16 23:10:31  5-MIN KACK 280410Z AUTO 12010KT 10SM OVC015 05/01 A3023 -230 76 -1400 140/10 RMK AO2 T00500011 TSNO
14756KACK ACK20160327231511803/27/16 23:15:31  5-MIN KACK 280415Z AUTO 13012KT 10SM BKN015 05/01 A3023 -230 76 -1400 140/12 RMK AO2 T00500011 TSNO
14756KACK ACK20160327232011803/27/16 23:20:31  5-MIN KACK 280420Z AUTO 13009KT 10SM OVC015 05/01 A3023 -230 76 -1400 140/09 RMK AO2 T00500011 TSNO
14756KACK ACK20160327232511803/27/16 23:25:31  5-MIN KACK 280425Z AUTO 13009KT 10SM OVC015 05/02 A3022 -230 79 -1400 150/09 RMK AO2 T00500017 TSNO
14756KACK ACK20160327233011803/27/16 23:30:31  5-MIN KACK 280430Z AUTO 13010KT 10SM OVC015 06/02 A3022 -220 76 -1300 150/10 RMK AO2 T00560017 TSNO
14756KACK ACK20160327233511803/27/16 23:35:31  5-MIN KACK 280435Z AUTO 11009KT 10SM OVC015 05/02 A3021 -210 79 -1400 120/09 RMK AO2 T00500017 TSNO
14756KACK ACK20160327234011803/27/16 23:40:31  5-MIN KACK 280440Z AUTO 11008KT 10SM OVC015 05/02 A3021 -210 79 -1400 130/08 RMK AO2 T00500017 TSNO
14756KACK ACK20160327234511803/27/16 23:45:31  5-MIN KACK 280445Z AUTO 11009KT 10SM OVC014 05/02 A3020 -210 79 -1400 130/09 RMK AO2 T00500017 TSNO
14756KACK ACK20160327235013503/27/16 23:50:31  5-MIN KACK 280450Z AUTO 11010KT 10SM BKN014 05/02 A3020 -200 79 -1400 130/10 RMK AO2 SLP226 T00500017 400780028 TSNO
14756KACK ACK20160327235511803/27/16 23:55:31  5-MIN KACK 280455Z AUTO 12011KT 10SM BKN014 05/02 A3020 -200 79 -1400 130/11 RMK AO2 T00500017 TSNO
14756KACK ACK20160328000011803/28/16 00:00:31  5-MIN KACK 280500Z AUTO 12010KT 10SM BKN014 05/02 A3020 -200 79 -1400 130/10 RMK AO2 T00500017 TSNO
14756KACK ACK20160328000511803/28/16 00:05:31  5-MIN KACK 280505Z AUTO 13008KT 10SM BKN014 05/02 A3020 -200 79 -1400 140/08 RMK AO2 T00500017 TSNO
14756KACK ACK20160328001011803/28/16 00:10:31  5-MIN KACK 280510Z AUTO 12010KT 10SM BKN014 05/02 A3019 -200 79 -1400 140/10 RMK AO2 T00500017 TSNO
14756KACK ACK20160328001511803/28/16 00:15:31  5-MIN KACK 280515Z AUTO 13008KT 10SM BKN014 05/02 A3019 -200 79 -1400 140/08 RMK AO2 T00500017 TSNO
14756KACK ACK20160328002011803/28/16 00:20:31  5-MIN KACK 280520Z AUTO 13010KT 10SM BKN014 05/02 A3019 -190 79 -1400 140/10 RMK AO2 T00500017 TSNO
14756KACK ACK20160328002511803/28/16 00:25:31  5-MIN KACK 280525Z AUTO 12010KT 10SM BKN014 05/02 A3019 -190 79 -1400 140/10 RMK AO2 T00500017 TSNO
14756KACK ACK20160328003011803/28/16 00:30:31  5-MIN KACK 280530Z AUTO 13009KT 10SM BKN014 06/02 A3018 -190 76 -1300 140/09 RMK AO2 T00560017 TSNO
14756KACK ACK20160328003511803/28/16 00:35:31  5-MIN KACK 280535Z AUTO 13010KT 10SM OVC014 06/02 A3018 -190 76 -1300 140/10 RMK AO2 T00560017 TSNO
14756KACK ACK20160328004011803/28/16 00:40:31  5-MIN KACK 280540Z AUTO 11011KT 10SM OVC014 06/02 A3017 -180 76 -1300 130/11 RMK AO2 T00560017 TSNO
14756KACK ACK20160328004512503/28/16 00:45:31  5-MIN KACK 280545Z AUTO 11009KT 10SM OVC014 06/02 A3017 -170 79 -1300 130/09 RMK AO2 PRESFR T00560022 TSNO
14756KACK ACK20160328005015003/28/16 00:50:31  5-MIN KACK 280550Z AUTO 10008KT 10SM OVC013 06/02 A3016 -170 79 -1300 120/08 RMK AO2 PRESFR SLP214 T00560022 10056 20028 58018 TSNO
14756KACK ACK20160328005511803/28/16 00:55:31  5-MIN KACK 280555Z AUTO 11011KT 10SM OVC013 05/02 A3016 -170 79 -1300 130/11 RMK AO2 T00500017 TSNO
14756KACK ACK20160328010011803/28/16 01:00:31  5-MIN KACK 280600Z AUTO 11010KT 10SM OVC013 05/02 A3016 -160 79 -1300 130/10 RMK AO2 T00500017 TSNO
14756KACK ACK20160328010512503/28/16 01:05:31  5-MIN KACK 280605Z AUTO 11010KT 10SM BKN013 OVC065 05/02 A3015 -160 79 -1300 130/10 RMK AO2 T00500017 TSNO
14756KACK ACK20160328011012503/28/16 01:10:31  5-MIN KACK 280610Z AUTO 11009KT 10SM BKN013 OVC065 05/02 A3015 -160 79 -1300 130/09 RMK AO2 T00500017 TSNO
14756KACK ACK20160328011512503/28/16 01:15:31  5-MIN KACK 280615Z AUTO 12009KT 10SM SCT012 OVC065 06/02 A3015 -150 76 -1200 130/09 RMK AO2 T00560017 TSNO
14756KACK ACK20160328012012503/28/16 01:20:31  5-MIN KACK 280620Z AUTO 11010KT 10SM SCT012 OVC065 06/02 A3015 -150 79 -1200 130/10 RMK AO2 T00560022 TSNO
14756KACK ACK20160328012512503/28/16 01:25:31  5-MIN KACK 280625Z AUTO 12012KT 10SM SCT012 OVC065 06/02 A3014 -150 79 -1200 130/12 RMK AO2 T00560022 TSNO
14756KACK ACK20160328013012503/28/16 01:30:31  5-MIN KACK 280630Z AUTO 12011KT 10SM FEW012 OVC060 06/02 A3014 -150 79 -1200 130/11 RMK AO2 T00560022 TSNO
14756KACK ACK20160328013512503/28/16 01:35:31  5-MIN KACK 280635Z AUTO 12010KT 10SM SCT012 OVC060 06/02 A3014 -150 79 -1200 130/10 RMK AO2 T00560022 TSNO
14756KACK ACK20160328014012503/28/16 01:40:31  5-MIN KACK 280640Z AUTO 12012KT 10SM BKN012 OVC060 06/02 A3013 -140 79 -1200 130/12 RMK AO2 T00560022 TSNO
14756KACK ACK20160328014512503/28/16 01:45:31  5-MIN KACK 280645Z AUTO 11009KT 10SM BKN012 OVC060 06/02 A3013 -140 79 -1200 130/09 RMK AO2 T00560022 TSNO
14756KACK ACK20160328015011503/28/16 01:50:31  5-MIN KACK 280650Z AUTO 10009KT 10SM SCT012 OVC060 06/02 A3012 -130 79 -1200 120/09 RMK AO2 TSNO
14756KACK ACK20160328015512503/28/16 01:55:31  5-MIN KACK 280655Z AUTO 11010KT 10SM SCT011 OVC060 06/02 A3012 -130 79 -1200 120/10 RMK AO2 T00560022 TSNO
14756KACK ACK20160328020012503/28/16 02:00:31  5-MIN KACK 280700Z AUTO 11010KT 10SM SCT011 OVC065 06/02 A3012 -130 79 -1200 130/10 RMK AO2 T00560022 TSNO
14756KACK ACK20160328020512503/28/16 02:05:31  5-MIN KACK 280705Z AUTO 10008KT 10SM FEW011 OVC065 06/02 A3011 -120 79 -1200 120/08 RMK AO2 T00560022 TSNO
14756KACK ACK20160328021012503/28/16 02:10:31  5-MIN KACK 280710Z AUTO 11010KT 10SM FEW011 OVC060 06/02 A3011 -120 79 -1200 120/10 RMK AO2 T00560022 TSNO
14756KACK ACK20160328021512503/28/16 02:15:31  5-MIN KACK 280715Z AUTO 11011KT 10SM FEW011 OVC065 06/02 A3010 -110 79 -1200 120/11 RMK AO2 T00560022 TSNO
14756KACK ACK20160328022012503/28/16 02:20:31  5-MIN KACK 280720Z AUTO 10009KT 10SM FEW010 OVC065 06/02 A3010 -110 79 -1200 110/09 RMK AO2 T00560022 TSNO
14756KACK ACK20160328022512503/28/16 02:25:31  5-MIN KACK 280725Z AUTO 10010KT 10SM FEW010 OVC065 06/02 A3009 -110 79 -1200 120/10 RMK AO2 T00560022 TSNO
14756KACK ACK20160328023012503/28/16 02:30:31  5-MIN KACK 280730Z AUTO 10011KT 10SM FEW010 OVC065 06/02 A3009 -100 79 -1200 120/11 RMK AO2 T00560022 TSNO
14756KACK ACK20160328023513103/28/16 02:35:31  5-MIN KACK 280735Z AUTO 09011KT 10SM FEW050 OVC065 06/02 A3008 -90 79 -1200 110/11 RMK AO2 PRESFR T00560022 TSNO
14756KACK ACK20160328024012403/28/16 02:40:31  5-MIN KACK 280740Z AUTO 10010KT 10SM FEW050 OVC065 06/02 A3008 -90 79 -1200 110/10 RMK AO2 T00560022 TSNO
14756KACK ACK20160328024513103/28/16 02:45:31  5-MIN KACK 280745Z AUTO 10011KT 10SM SCT050 OVC065 06/02 A3007 -80 79 -1200 110/11 RMK AO2 PRESFR T00560022 TSNO
14756KACK ACK20160328025013803/28/16 02:50:31  5-MIN KACK 280750Z AUTO 09012KT 10SM FEW050 OVC065 06/02 A3006 -80 79 -1200 110/12 RMK AO2 PRESFR SLP180 T00560022 TSNO
14756KACK ACK20160328025512403/28/16 02:55:31  5-MIN KACK 280755Z AUTO 10012KT 10SM FEW050 OVC065 06/02 A3006 -70 79 -1200 110/12 RMK AO2 T00560022 TSNO
14756KACK ACK20160328030012403/28/16 03:00:31  5-MIN KACK 280800Z AUTO 09010KT 10SM SCT050 BKN065 06/02 A3006 -70 79 -1100 110/10 RMK AO2 T00560022 TSNO
14756KACK ACK20160328030512403/28/16 03:05:31  5-MIN KACK 280805Z AUTO 10011KT 10SM BKN050 BKN065 06/03 A3005 -70 82 -1100 110/11 RMK AO2 T00560028 TSNO
14756KACK ACK20160328031012403/28/16 03:10:31  5-MIN KACK 280810Z AUTO 10010KT 10SM BKN050 BKN065 06/03 A3005 -70 82 -1100 110/10 RMK AO2 T00560028 TSNO
14756KACK ACK20160328031512403/28/16 03:15:31  5-MIN KACK 280815Z AUTO 10011KT 10SM SCT050 BKN065 06/03 A3005 -70 82 -1100 120/11 RMK AO2 T00560028 TSNO
14756KACK ACK20160328032011703/28/16 03:20:31  5-MIN KACK 280820Z AUTO 10010KT 10SM SCT050 06/03 A3005 -60 82 -1100 120/10 RMK AO2 T00560028 TSNO
14756KACK ACK20160328032511703/28/16 03:25:31  5-MIN KACK 280825Z AUTO 10010KT 10SM FEW050 06/03 A3005 -60 82 -1100 120/10 RMK AO2 T00560028 TSNO
14756KACK ACK20160328033011703/28/16 03:30:31  5-MIN KACK 280830Z AUTO 11010KT 10SM SCT048 06/03 A3004 -60 82 -1100 120/10 RMK AO2 T00560028 TSNO
14756KACK ACK20160328033512403/28/16 03:35:31  5-MIN KACK 280835Z AUTO 11012KT 10SM FEW009 BKN048 06/03 A3004 -60 82 -1100 130/12 RMK AO2 T00560028 TSNO
14756KACK ACK20160328034012403/28/16 03:40:31  5-MIN KACK 280840Z AUTO 11012KT 10SM FEW009 BKN048 06/03 A3004 -50 82 -1100 120/12 RMK AO2 T00560028 TSNO
14756KACK ACK20160328034513103/28/16 03:45:31  5-MIN KACK 280845Z AUTO 11013KT 10SM FEW009 BKN048 BKN070 06/03 A3004 -50 82 -1100 120/13 RMK AO2 T00560028 TSNO
14756KACK ACK20160328035014403/28/16 03:50:31  5-MIN KACK 280850Z AUTO 11013KT 10SM SCT009 BKN048 BKN060 06/03 A3004 -50 82 -1100 120/13 RMK AO2 SLP171 T00560028 56026 TSNO
14756KACK ACK20160328035512403/28/16 03:55:31  5-MIN KACK 280855Z AUTO 11013KT 10SM BKN009 OVC048 06/03 A3004 -50 82 -1100 130/13 RMK AO2 T00560028 TSNO
14756KACK ACK20160328040012403/28/16 04:00:31  5-MIN KACK 280900Z AUTO 11013KT 10SM BKN009 OVC048 06/03 A3003 -50 79 -1100 120/13 RMK AO2 T00610028 TSNO
14756KACK ACK20160328040513103/28/16 04:05:31  5-MIN KACK 280905Z AUTO 10011KT 10SM BKN009 BKN048 OVC065 06/03 A3003 -50 79 -1000 120/11 RMK AO2 T00610028 TSNO
14756KACK ACK20160328041013103/28/16 04:10:31  5-MIN KACK 280910Z AUTO 11012KT 10SM BKN009 BKN039 OVC065 06/03 A3003 -40 82 -1000 120/12 RMK AO2 T00610033 TSNO
14756KACK ACK20160328041512403/28/16 04:15:31  5-MIN KACK 280915Z AUTO 11011KT 10SM BKN009 OVC037 06/03 A3002 -40 82 -1000 120/11 RMK AO2 T00610033 TSNO
14756KACK ACK20160328042012403/28/16 04:20:31  5-MIN KACK 280920Z AUTO 11010KT 10SM BKN009 OVC037 06/03 A3002 -40 82 -1000 120/10 RMK AO2 T00610033 TSNO
14756KACK ACK20160328042512403/28/16 04:25:31  5-MIN KACK 280925Z AUTO 11012KT 10SM BKN009 OVC037 06/03 A3002 -40 82 -1000 120/12 RMK AO2 T00610033 TSNO
14756KACK ACK20160328043012403/28/16 04:30:31  5-MIN KACK 280930Z AUTO 11011KT 10SM SCT009 OVC037 06/03 A3002 -40 82 -1000 120/11 RMK AO2 T00610033 TSNO
14756KACK ACK20160328043512403/28/16 04:35:31  5-MIN KACK 280935Z AUTO 11013KT 10SM FEW008 OVC035 06/03 A3002 -30 82 -1000 130/13 RMK AO2 T00610033 TSNO
14756KACK ACK20160328044012403/28/16 04:40:31  5-MIN KACK 280940Z AUTO 11012KT 10SM FEW008 OVC035 06/03 A3001 -30 82 -1000 130/12 RMK AO2 T00610033 TSNO
14756KACK ACK20160328044512403/28/16 04:45:31  5-MIN KACK 280945Z AUTO 10012KT 10SM FEW008 OVC035 06/03 A3001 -30 82 -1000 120/12 RMK AO2 T00610033 TSNO
14756KACK ACK20160328045012103/28/16 04:50:31  5-MIN KACK 280950Z 11012KT 10SM FEW008 OVC037 06/03 A3001 -30 82 -1000 130/12 RMK AO2 SLP161 T00610033
14756KACK ACK20160328045510703/28/16 04:55:31  5-MIN KACK 280955Z 10010KT 10SM OVC037 06/03 A3001 -30 82 -1000 120/10 RMK AO2 T00610033
14756KACK ACK20160328050011403/28/16 05:00:31  5-MIN KACK 281000Z 11011KT 10SM FEW008 OVC037 06/03 A3000 -20 82 -1000 120/11 RMK AO2 T00610033
14756KACK ACK20160328050511403/28/16 05:05:31  5-MIN KACK 281005Z 10013KT 10SM FEW008 OVC037 06/03 A3000 -20 82 -1000 110/13 RMK AO2 T00610033
14756KACK ACK20160328051011403/28/16 05:10:31  5-MIN KACK 281010Z 10011KT 10SM FEW008 OVC037 06/03 A2999 -10 82 -1000 110/11 RMK AO2 T00610033
14756KACK ACK20160328051511403/28/16 05:15:31  5-MIN KACK 281015Z 10011KT 10SM FEW008 OVC039 06/04 A2999 -10 86 -1000 110/11 RMK AO2 T00610039
14756KACK ACK20160328052010703/28/16 05:20:31  5-MIN KACK 281020Z 10012KT 10SM OVC039 06/04 A2999 -10 86 -1000 110/12 RMK AO2 T00610039
14756KACK ACK20160328052510703/28/16 05:25:31  5-MIN KACK 281025Z 10009KT 10SM OVC039 06/04 A2999 -10 86 -1000 110/09 RMK AO2 T00610039
14756KACK ACK20160328053010603/28/16 05:30:31  5-MIN KACK 281030Z 11011KT 10SM OVC039 07/04 A2999 -10 82 -900 120/11 RMK AO2 T00670039
14756KACK ACK20160328053510403/28/16 05:35:31  5-MIN KACK 281035Z 10010KT 10SM OVC039 07/04 A2998 0 82 -900 110/10 RMK AO2 T00670039
14756KACK ACK20160328054010403/28/16 05:40:31  5-MIN KACK 281040Z 10011KT 10SM OVC039 07/04 A2998 0 82 -900 110/11 RMK AO2 T00670039
14756KACK ACK20160328054510403/28/16 05:45:31  5-MIN KACK 281045Z 10013KT 10SM OVC039 07/04 A2998 0 82 -900 120/13 RMK AO2 T00670039
14756KACK ACK20160328055011103/28/16 05:50:31  5-MIN KACK 281050Z 11011KT 10SM OVC037 07/04 A2997 0 82 -900 120/11 RMK AO2 SLP150 T00670039
14756KACK ACK20160328055510403/28/16 05:55:31  5-MIN KACK 281055Z 11012KT 10SM OVC037 07/04 A2997 0 82 -900 120/12 RMK AO2 T00670039
14756KACK ACK20160328060010403/28/16 06:00:31  5-MIN KACK 281100Z 10014KT 10SM OVC037 07/04 A2997 0 82 -900 120/14 RMK AO2 T00670039
14756KACK ACK20160328060510503/28/16 06:05:31  5-MIN KACK 281105Z 10011KT 10SM OVC037 07/04 A2997 10 82 -900 120/11 RMK AO2 T00670039
14756KACK ACK20160328061012003/28/16 06:10:31  5-MIN KACK 281110Z 11012KT 9SM -RA OVC036 07/04 A2996 10 82 -900 120/12 RMK AO2 RAB10 P0000 T00670039
14756KACK ACK20160328061513403/28/16 06:15:31  5-MIN KACK 281115Z 10013KT 8SM -RA BKN036 OVC090 07/04 A2995 20 82 -900 120/13 RMK AO2 RAB10 PRESFR P0000 T00670039
14756KACK ACK20160328062013403/28/16 06:20:31  5-MIN KACK 281120Z 09011KT 7SM -RA BKN036 OVC090 07/04 A2995 30 86 -900 110/11 RMK AO2 RAB10 PRESFR P0000 T00670044
14756KACK ACK20160328062513003/28/16 06:25:31  5-MIN KACK 281125Z 10012KT 6SM -RA BR SCT036 OVC090 07/04 A2994 30 86 -900 110/12 RMK AO2 RAB10 P0000 T00670044
14756KACK ACK20160328063013603/28/16 06:30:31  5-MIN KACK 281130Z 10014G18KT 6SM -RA BR SCT036 OVC090 07/04 A2994 30 86 -900 110/14G18 RMK AO2 RAB10 P0001 T00670044
14756KACK ACK20160328063513003/28/16 06:35:31  5-MIN KACK 281135Z 09014KT 5SM -RA BR FEW036 OVC095 06/04 A2994 30 89 -900 110/14 RMK AO2 RAB10 P0001 T00610044
14756KACK ACK20160328064013003/28/16 06:40:31  5-MIN KACK 281140Z 09012KT 5SM -RA BR FEW036 OVC095 07/04 A2993 40 86 -900 110/12 RMK AO2 RAB10 P0001 T00670044
14756KACK ACK20160328064513003/28/16 06:45:31  5-MIN KACK 281145Z 09013KT 6SM -RA BR SCT038 OVC090 07/04 A2993 40 86 -900 110/13 RMK AO2 RAB10 P0002 T00670044
14756KACK ACK20160328065016703/28/16 06:50:31  5-MIN KACK 281150Z 09013KT 6SM -RA BR BKN038 OVC090 07/04 A2993 40 86 -900 110/13 RMK AO2 RAB10 SLP134 P0002 60002 70002 T00670044 10067 20050 56041
14756KACK ACK20160328065513103/28/16 06:55:31  5-MIN KACK 281155Z 09013KT 6SM -RA BR BKN036 BKN060 OVC095 07/04 A2992 50 86 -900 100/13 RMK AO2 P0000 T00670044
14756KACK ACK20160328070013603/28/16 07:00:31  5-MIN KACK 281200Z 09013G20KT 5SM RA BR BKN036 BKN060 OVC090 07/05 A2992 50 89 -800 110/13G20 RMK AO2 P0001 T00670050
14756KACK ACK20160328070513703/28/16 07:05:31  5-MIN KACK 281205Z 09014G20KT 5SM -RA BR SCT032 BKN041 OVC090 07/05 A2991 60 89 -800 100/14G20 RMK AO2 P0001 T00670050
14756KACK ACK20160328071013703/28/16 07:10:31  5-MIN KACK 281210Z 09013G20KT 5SM -RA BR BKN030 BKN039 OVC085 07/05 A2991 60 89 -800 110/13G20 RMK AO2 P0002 T00670050
14756KACK ACK20160328071513103/28/16 07:15:31  5-MIN KACK 281215Z 09013KT 5SM -RA BR BKN006 BKN039 OVC085 07/05 A2990 70 89 -800 110/13 RMK AO2 P0002 T00670050
14756KACK ACK20160328072014303/28/16 07:20:31  5-MIN KACK 281220Z 09013G20KT 4SM RA BR BKN006 BKN039 OVC085 07/05 A2990 70 89 -800 110/13G20 RMK AO2 PRESFR P0003 T00670050
14756KACK ACK20160328072513703/28/16 07:25:31  5-MIN KACK 281225Z 09014KT 4SM RA BR BKN006 BKN039 OVC085 07/05 A2989 80 89 -800 110/14 RMK AO2 PRESFR P0004 T00670050
14756KACK ACK20160328073013703/28/16 07:30:31  5-MIN KACK 281230Z 09015KT 4SM RA BR BKN006 BKN039 OVC085 07/05 A2988 90 89 -800 110/15 RMK AO2 PRESFR P0005 T00670050
14756KACK ACK20160328073514303/28/16 07:35:31  5-MIN KACK 281235Z 09017G22KT 3SM RA BR BKN006 BKN039 OVC085 07/05 A2988 90 89 -800 110/17G22 RMK AO2 PRESFR P0006 T00670050
14756KACK ACK20160328074014403/28/16 07:40:31  5-MIN KACK 281240Z 09014G22KT 3SM RA BR BKN006 BKN039 OVC085 07/05 A2987 100 89 -800 110/14G22 RMK AO2 PRESFR P0007 T00670050
14756KACK ACK20160328074513103/28/16 07:45:31  5-MIN KACK 281245Z 10015KT 3SM RA BR BKN006 BKN039 OVC085 07/06 A2987 100 93 -800 110/15 RMK AO2 P0009 T00670056
14756KACK ACK20160328075012503/28/16 07:50:31  5-MIN KACK 281250Z 09016KT 2 1/2SM RA BR BKN006 BKN041 OVC070 07/06 A2986 100 93 -800 110/16 RMK AO2 P0010
14756KACK ACK20160328075514803/28/16 07:55:31  5-MIN KACK 281255Z 09018G23KT 2 1/2SM RA BR BKN006 BKN041 OVC070 07/06 A2985 110 93 -800 110/18G23 RMK AO2 PRESFR P0001 T00670056
14756KACK ACK20160328080013703/28/16 08:00:31  5-MIN KACK 281300Z 09014G23KT 3SM RA BR BKN006 BKN041 OVC070 07/06 A2985 110 93 -800 110/14G23 RMK AO2 P0002 T00670056
14756KACK ACK20160328080514503/28/16 08:05:31  5-MIN KACK 281305Z 09015G23KT 3SM +RA BR BKN006 BKN041 OVC070 07/06 A2984 120 93 -800 100/15G23 RMK AO2 PRESFR P0004 T00670056
14756KACK ACK20160328081013703/28/16 08:10:31  5-MIN KACK 281310Z 10016G23KT 3SM RA BR BKN006 BKN041 OVC070 07/06 A2984 120 93 -800 110/16G23 RMK AO2 P0005 T00670056
14756KACK ACK20160328081513703/28/16 08:15:31  5-MIN KACK 281315Z 09016G23KT 3SM RA BR BKN006 BKN041 OVC070 07/06 A2984 130 93 -800 110/16G23 RMK AO2 P0005 T00670056
14756KACK ACK20160328082013703/28/16 08:20:31  5-MIN KACK 281320Z 09017G24KT 3SM RA BR BKN006 BKN041 OVC070 07/06 A2983 130 93 -800 110/17G24 RMK AO2 P0006 T00670056
14756KACK ACK20160328082513703/28/16 08:25:31  5-MIN KACK 281325Z 09017G24KT 3SM RA BR BKN006 BKN041 OVC070 07/06 A2982 140 93 -700 100/17G24 RMK AO2 P0007 T00670056
14756KACK ACK20160328083013803/28/16 08:30:31  5-MIN KACK 281330Z 09014KT 3SM RA BR BKN006 BKN041 OVC070 07/06 A2982 140 89 -700 100/14 RMK AO2 PRESFR P0008 T00720056
14756KACK ACK20160328083513803/28/16 08:35:31  5-MIN KACK 281335Z 09014KT 3SM RA BR BKN006 BKN041 OVC070 07/06 A2981 150 89 -700 110/14 RMK AO2 PRESFR P0010 T00720056
14756KACK ACK20160328084013703/28/16 08:40:31  5-MIN KACK 281340Z 10015G22KT 3SM RA BR BKN006 BKN041 OVC070 07/06 A2981 150 89 -700 110/15G22 RMK AO2 P0011 T00720056
14756KACK ACK20160328084514403/28/16 08:45:31  5-MIN KACK 281345Z 09016G22KT 3SM RA BR BKN006 BKN041 OVC070 07/06 A2980 160 89 -700 110/16G22 RMK AO2 PRESFR P0012 T00720056
14756KACK ACK20160328085010703/28/16 08:50:31  5-MIN KACK 281350Z 10015KT 3SM RA BR OVC004 07/06 A2980 160 89 -600 110/15 RMK AO2 P0013
14756KACK ACK20160328085511703/28/16 08:55:31  5-MIN KACK 281355Z 09013KT 3SM RA BR OVC004 07/06 A2979 170 93 -600 110/13 RMK AO2 P0000 T00720061
14756KACK ACK20160328090011703/28/16 09:00:31  5-MIN KACK 281400Z 09014KT 4SM RA BR OVC004 07/06 A2979 170 93 -600 100/14 RMK AO2 P0001 T00720061
14756KACK ACK20160328090512403/28/16 09:05:31  5-MIN KACK 281405Z 08012KT 4SM RA BR OVC004 07/06 A2978 180 93 -600 100/12 RMK AO2 PRESFR P0002 T00720061
14756KACK ACK20160328091012303/28/16 09:10:31  5-MIN KACK 281410Z 09012G20KT 4SM RA BR OVC004 07/06 A2978 180 93 -600 100/12G20 RMK AO2 P0002 T00720061
14756KACK ACK20160328091512403/28/16 09:15:31  5-MIN KACK 281415Z 09015G19KT 4SM -RA BR OVC004 07/06 A2977 180 93 -600 110/15G19 RMK AO2 P0003 T00720061
14756KACK ACK20160328092011803/28/16 09:20:31  5-MIN KACK 281420Z 09015KT 4SM -RA BR OVC004 07/06 A2977 190 93 -600 110/15 RMK AO2 P0003 T00720061
14756KACK ACK20160328092512503/28/16 09:25:31  5-MIN KACK 281425Z 10015KT 4SM -RA BR OVC004 08/06 A2976 200 89 -500 110/15 RMK AO2 PRESFR P0004 T00780061
14756KACK ACK20160328093012503/28/16 09:30:31  5-MIN KACK 281430Z 09013KT 5SM -RA BR OVC004 08/06 A2975 200 89 -500 110/13 RMK AO2 PRESFR P0004 T00780061
14756KACK ACK20160328093512503/28/16 09:35:31  5-MIN KACK 281435Z 09014KT 4SM -RA BR OVC004 08/06 A2975 210 89 -500 110/14 RMK AO2 PRESFR P0004 T00780061
14756KACK ACK20160328094012503/28/16 09:40:31  5-MIN KACK 281440Z 09013KT 4SM -RA BR OVC004 08/06 A2974 220 89 -500 110/13 RMK AO2 PRESFR P0005 T00780061
14756KACK ACK20160328094512503/28/16 09:45:31  5-MIN KACK 281445Z 09013KT 4SM -RA BR OVC003 08/07 A2974 220 93 -500 110/13 RMK AO2 PRESFR P0005 T00780067
14756KACK ACK20160328095013603/28/16 09:50:31  5-MIN KACK 281450Z 10014KT 4SM RA BR OVC003 08/07 A2973 230 93 -500 110/14 RMK AO2 SLP067 P0006 60031 T00780067 58039
14756KACK ACK20160328095512503/28/16 09:55:31  5-MIN KACK 281455Z 10014KT 4SM -RA BR OVC003 08/07 A2972 230 93 -500 110/14 RMK AO2 PRESFR P0000 T00780067
14756KACK ACK20160328100013103/28/16 10:00:31  5-MIN KACK 281500Z 10016G22KT 5SM -RA BR OVC003 08/07 A2972 240 93 -400 110/16G22 RMK AO2 PRESFR P0000 T00830072
14756KACK ACK20160328100512403/28/16 10:05:31  5-MIN KACK 281505Z 10015G22KT 4SM -RA BR OVC003 08/07 A2971 240 93 -400 120/15G22 RMK AO2 P0001 T00830072
14756KACK ACK20160328101011803/28/16 10:10:31  5-MIN KACK 281510Z 10016KT 4SM -RA BR OVC003 08/07 A2971 250 93 -400 120/16 RMK AO2 P0001 T00830072
14756KACK ACK20160328101511803/28/16 10:15:31  5-MIN KACK 281515Z 10014KT 4SM -RA BR OVC003 08/07 A2970 250 93 -400 120/14 RMK AO2 P0001 T00830072
14756KACK ACK20160328102012403/28/16 10:20:31  5-MIN KACK 281520Z 10020G24KT 4SM -RA BR OVC003 09/07 A2970 260 89 -300 120/20G24 RMK AO2 P0001 T00890072
14756KACK ACK20160328102513103/28/16 10:25:31  5-MIN KACK 281525Z 11018G24KT 4SM -RA BR OVC003 09/07 A2969 260 89 -300 120/18G24 RMK AO2 PRESFR P0002 T00890072
14756KACK ACK20160328103013103/28/16 10:30:31  5-MIN KACK 281530Z 10018G24KT 4SM -RA BR OVC003 09/08 A2968 270 93 -300 120/18G24 RMK AO2 PRESFR P0002 T00890078
14756KACK ACK20160328103513103/28/16 10:35:31  5-MIN KACK 281535Z 11017G25KT 4SM -RA BR OVC003 09/08 A2967 280 89 -200 120/17G25 RMK AO2 PRESFR P0002 T00940078
14756KACK ACK20160328104013103/28/16 10:40:31  5-MIN KACK 281540Z 10015G25KT 4SM -RA BR OVC003 09/08 A2967 280 89 -200 120/15G25 RMK AO2 PRESFR P0002 T00940078
14756KACK ACK20160328104513103/28/16 10:45:31  5-MIN KACK 281545Z 10018G24KT 5SM -RA BR OVC003 09/08 A2966 290 93 -300 120/18G24 RMK AO2 PRESFR P0002 T00890078
14756KACK ACK20160328105013803/28/16 10:50:31  5-MIN KACK 281550Z 10017G23KT 4SM -RA BR OVC003 09/08 A2965 300 89 -200 120/17G23 RMK AO2 PRESFR SLP041 P0003 T00940078
14756KACK ACK20160328105512503/28/16 10:55:31  5-MIN KACK 281555Z 10016KT 4SM -RA BR OVC003 09/08 A2965 300 93 -200 120/16 RMK AO2 PRESFR P0000 T00940083
14756KACK ACK20160328110012503/28/16 11:00:31  5-MIN KACK 281600Z 11017KT 4SM -RA BR OVC003 09/08 A2964 310 93 -200 120/17 RMK AO2 PRESFR P0000 T00940083
14756KACK ACK20160328110513103/28/16 11:05:31  5-MIN KACK 281605Z 10016G23KT 4SM -RA BR OVC003 09/08 A2963 320 93 -200 120/16G23 RMK AO2 PRESFR P0000 T00940083
14756KACK ACK20160328111013103/28/16 11:10:31  5-MIN KACK 281610Z 11016G23KT 4SM -RA BR OVC003 09/08 A2962 330 93 -200 120/16G23 RMK AO2 PRESFR P0000 T00940083
14756KACK ACK20160328111513103/28/16 11:15:31  5-MIN KACK 281615Z 11017G23KT 4SM -RA BR OVC003 09/08 A2962 330 93 -200 120/17G23 RMK AO2 PRESFR P0000 T00940083
14756KACK ACK20160328112013103/28/16 11:20:31  5-MIN KACK 281620Z 10017G25KT 3SM -RA BR OVC002 09/08 A2961 340 93 -200 120/17G25 RMK AO2 PRESFR P0000 T00940083
14756KACK ACK20160328112513103/28/16 11:25:31  5-MIN KACK 281625Z 10018G25KT 3SM -RA BR OVC002 09/08 A2960 350 93 -100 120/18G25 RMK AO2 PRESFR P0001 T00940083
14756KACK ACK20160328113013103/28/16 11:30:31  5-MIN KACK 281630Z 10018G25KT 3SM -RA BR OVC002 10/09 A2959 350 93 -100 120/18G25 RMK AO2 PRESFR P0001 T01000089
14756KACK ACK20160328113512503/28/16 11:35:31  5-MIN KACK 281635Z 10017KT 3SM -RA BR OVC002 10/09 A2958 360 93 -100 120/17 RMK AO2 PRESFR P0001 T01000089
14756KACK ACK20160328114012903/28/16 11:40:31  5-MIN KACK 281640Z 10018KT 2 1/2SM -RA BR OVC002 10/09 A2958 370 93 -100 120/18 RMK AO2 PRESFR P0002 T01000089
14756KACK ACK20160328114512103/28/16 11:45:31  5-MIN KACK 281645Z 10018KT 2SM RA BR OVC003 10/09 A2957 380 93 0 120/18 RMK AO2 PRESFR P0002 T01000089
14756KACK ACK20160328115016903/28/16 11:50:31  5-MIN KACK 281650Z 10017G26KT 2SM R24/5500VP6000FT RA BR OVC003 10/09 A2956 380 93 0 120/17G26 RMK AO2 PK WND 09026/1649 PRESFR SLP010 P0003 T01000089
14756KACK ACK20160328115514803/28/16 11:55:31  5-MIN KACK 281655Z 10017G26KT 2 1/2SM R24/5500VP6000FT RA BR OVC002 11/09 A2955 390 93 0 120/17G26 RMK AO2 PRESFR P0000 T01060094
14756KACK ACK20160328120012203/28/16 12:00:31  5-MIN KACK 281700Z 10015KT 2SM -RA BR OVC003 11/09 A2955 400 93 0 120/15 RMK AO2 PRESFR P0000 T01060094
14756KACK ACK20160328120512203/28/16 12:05:31  5-MIN KACK 281705Z 10017KT 2SM -RA BR OVC003 11/09 A2954 400 93 0 120/17 RMK AO2 PRESFR P0001 T01060094
14756KACK ACK20160328121012103/28/16 12:10:31  5-MIN KACK 281710Z 11016G22KT 2SM -RA BR OVC003 11/09 A2954 410 93 0 120/16G22 RMK AO2 P0001 T01060094
14756KACK ACK20160328121512703/28/16 12:15:31  5-MIN KACK 281715Z 11016G22KT 2SM RA BR OVC003 11/09 A2953 410 93 0 120/16G22 RMK AO2 PRESFR P0002 T01060094
14756KACK ACK20160328122013803/28/16 12:20:31  5-MIN KACK 281720Z 11017KT 2SM R24/6000VP6000FT RA BR OVC003 11/09 A2952 430 93 0 120/17 RMK AO2 PRESFR P0003 T01060094
14756KACK ACK20160328122514003/28/16 12:25:31  5-MIN KACK 281725Z 11018KT 2SM R24/5500VP6000FT RA BR OVC003 12/10 A2951 440 89 200 120/18 RMK AO2 PRESFR P0004 T01170100
14756KACK ACK20160328123016403/28/16 12:30:31  5-MIN KACK 281730Z 10024G31KT 2SM R24/5500VP6000FT RA BR OVC003 13/11 A2949 450 89 300 120/24G31 RMK AO2 PK WND 11031/1729 PRESFR P0005 T01280111
14756KACK ACK20160328123514803/28/16 12:35:31  5-MIN KACK 281735Z 11023G31KT 2SM -RA BR OVC003 13/12 A2948 460 93 300 120/23G31 RMK AO2 PK WND 11031/1735 PRESFR P0005 T01280117
14756KACK ACK20160328124014103/28/16 12:40:31  5-MIN KACK 281740Z 11024G31KT 2SM -RA BR OVC003 12/11 A2948 460 93 300 130/24G31 RMK AO2 PK WND 11031/1735 P0005 T01220111
14756KACK ACK20160328124514103/28/16 12:45:31  5-MIN KACK 281745Z 12015G29KT 2SM -RA BR OVC003 11/11 A2948 460 96 100 140/15G29 RMK AO2 PK WND 11031/1735 P0006 T01110106
14756KACK ACK20160328125014303/28/16 12:50:31  5-MIN KACK 281750Z 12017G23KT 4SM -RA BR OVC003 11/11 A2948 460 96 100 130/17G23 RMK AO2 PK WND 11031/1735 CIG 002V007 P0006
14756KACK ACK20160328125513503/28/16 12:55:31  5-MIN KACK 281755Z 14014G23KT 3SM -RA BR OVC003 11/10 A2947 470 96 100 150/14G23 RMK AO2 CIG 002V007 P0000 T01060100
14756KACK ACK20160328130012703/28/16 13:00:31  5-MIN KACK 281800Z 13012G23KT 2 1/2SM -RA BR OVC003 11/10 A2947 470 96 100 150/12G23 RMK AO2 P0000 T01060100
14756KACK ACK20160328130512703/28/16 13:05:31  5-MIN KACK 281805Z 14015G20KT 2 1/2SM -RA BR OVC003 11/10 A2947 470 96 100 160/15G20 RMK AO2 P0000 T01060100
14756KACK ACK20160328131013403/28/16 13:10:31  5-MIN KACK 281810Z 14015KT 2SM R24/6000VP6000FT -RA BR OVC002 11/10 A2946 470 96 100 150/15 RMK AO2 P0000 T01060100
14756KACK ACK20160328131513803/28/16 13:15:31  5-MIN KACK 281815Z 14015KT 2 1/2SM R24/6000VP6000FT -RA BR OVC002 11/09 A2945 490 93 100 150/15 RMK AO2 P0000 T01060094
14756KACK ACK20160328132012103/28/16 13:20:31  5-MIN KACK 281820Z 14014KT 2 1/2SM -RA BR OVC002 11/09 A2945 490 93 100 150/14 RMK AO2 P0000 T01060094
14756KACK ACK20160328132514003/28/16 13:25:31  5-MIN KACK 281825Z 14012KT 1 3/4SM R24/4500VP6000FT BR OVC002 10/09 A2944 490 96 100 150/12 RMK AO2 RAE22 P0000 T01000094
14756KACK ACK20160328133014203/28/16 13:30:31  5-MIN KACK 281830Z 13012KT 2SM R24/3500V6000FT BR OVC002 10/09 A2943 500 96 100 140/12 RMK AO2 RAE22 PRESFR P0000 T01000094
14756KACK ACK20160328133513503/28/16 13:35:31  5-MIN KACK 281835Z 16009KT 2SM R24/3500V4500FT BR OVC002 10/09 A2943 500 96 100 180/09 RMK AO2 RAE22 P0000 T01000094
14756KACK ACK20160328134014203/28/16 13:40:31  5-MIN KACK 281840Z 14012KT 2SM R24/3000V4000FT BR OVC002 11/10 A2942 510 96 100 150/12 RMK AO2 RAE22 PRESFR P0000 T01060100
14756KACK ACK20160328134514803/28/16 13:45:31  5-MIN KACK 281845Z 12018G25KT 2SM R24/3000V3500FT BR OVC002 11/09 A2941 530 93 200 140/18G25 RMK AO2 RAE22 PRESFR P0000 T01060094
14756KACK ACK20160328135012203/28/16 13:50:31  5-MIN KACK 281850Z 13013G25KT 3/4SM BR VV002 11/09 A2941 530 93 200 140/13G25 RMK AO2 RAE22 P0000 RVRNO
14756KACK ACK20160328135512003/28/16 13:55:31  5-MIN KACK 281855Z 14011G23KT 3/4SM BR VV002 10/09 A2941 530 93 100 150/11G23 RMK AO2 T01000089 RVRNO
14756KACK ACK20160328140013203/28/16 14:00:31  5-MIN KACK 281900Z 13010KT 3/4SM -RA BR VV002 10/09 A2940 530 96 100 150/10 RMK AO2 RAB1858 P0000 T01000094 RVRNO
14756KACK ACK20160328140513203/28/16 14:05:31  5-MIN KACK 281905Z 13008KT 3/4SM -RA BR VV002 10/09 A2940 540 96 100 150/08 RMK AO2 RAB1858 P0000 T01000094 RVRNO
14756KACK ACK20160328141013103/28/16 14:10:31  5-MIN KACK 281910Z 13008KT 1/2SM FG VV002 10/09 A2939 540 96 100 140/08 RMK AO2 RAB1858E09 P0000 T01000094 RVRNO
14756KACK ACK20160328141513103/28/16 14:15:31  5-MIN KACK 281915Z 13009KT 1/2SM FG VV002 11/09 A2939 550 93 200 150/09 RMK AO2 RAB1858E09 P0000 T01060094 RVRNO
14756KACK ACK20160328142013203/28/16 14:20:31  5-MIN KACK 281920Z 14010KT 1/2SM -RA FG VV002 11/10 A2938 550 93 300 160/10 RMK AO2 RAB1858 P0000 T01110100 RVRNO
14756KACK ACK20160328142513203/28/16 14:25:31  5-MIN KACK 281925Z 14012KT 1/2SM -RA FG VV002 11/10 A2938 550 93 300 150/12 RMK AO2 RAB1858 P0000 T01110100 RVRNO
14756KACK ACK20160328143013203/28/16 14:30:31  5-MIN KACK 281930Z 14012KT 1/2SM -RA FG VV002 11/09 A2938 560 93 200 150/12 RMK AO2 RAB1858 P0000 T01060094 RVRNO
14756KACK ACK20160328143513203/28/16 14:35:31  5-MIN KACK 281935Z 14011KT 1/4SM -RA FG VV002 11/09 A2937 560 93 200 150/11 RMK AO2 RAB1858 P0000 T01060094 RVRNO
14756KACK ACK20160328144013203/28/16 14:40:31  5-MIN KACK 281940Z 14010KT 1/4SM -RA FG VV002 11/09 A2937 560 93 200 150/10 RMK AO2 RAB1858 P0000 T01060094 RVRNO
14756KACK ACK20160328144513203/28/16 14:45:31  5-MIN KACK 281945Z 14009KT 1/4SM -RA FG VV002 10/09 A2937 560 96 100 150/09 RMK AO2 RAB1858 P0000 T01000094 RVRNO
14756KACK ACK20160328145013903/28/16 14:50:31  5-MIN KACK 281950Z 15009KT 1/4SM -RA FG VV002 10/09 A2937 570 96 100 170/09 RMK AO2 RAB1858 SLP944 P0000 T01000094 RVRNO
14756KACK ACK20160328145512503/28/16 14:55:31  5-MIN KACK 281955Z 16006KT 1/4SM -RA FG VV002 10/10 A2936 570 100 100 170/06 RMK AO2 P0000 T01000100 RVRNO
14756KACK ACK20160328150012503/28/16 15:00:31  5-MIN KACK 282000Z 19005KT 1/4SM -RA FG VV002 10/10 A2936 570 100 100 210/05 RMK AO2 P0000 T01000100 RVRNO
14756KACK ACK20160328150512403/28/16 15:05:31  5-MIN KACK 282005Z 15008KT 1/4SM -RA FG VV002 10/09 A2936 570 96 200 170/08 RMK AO2 P0000 T01000094 RVRNO
14756KACK ACK20160328151012403/28/16 15:10:31  5-MIN KACK 282010Z 18005KT 1/4SM -RA FG VV002 10/09 A2935 580 96 200 190/05 RMK AO2 P0000 T01000094 RVRNO
14756KACK ACK20160328151512503/28/16 15:15:31  5-MIN KACK 282015Z 16006KT 1/4SM -RA FG VV002 10/10 A2935 580 100 200 170/06 RMK AO2 P0000 T01000100 RVRNO
14756KACK ACK20160328152012403/28/16 15:20:31  5-MIN KACK 282020Z 18007KT 1/4SM -RA FG VV002 11/10 A2935 580 96 200 200/07 RMK AO2 P0000 T01060100 RVRNO
14756KACK ACK20160328152512403/28/16 15:25:31  5-MIN KACK 282025Z 19007KT 1/4SM -RA FG VV002 10/09 A2935 580 96 200 210/07 RMK AO2 P0000 T01000094 RVRNO
14756KACK ACK20160328153012403/28/16 15:30:31  5-MIN KACK 282030Z 20007KT 1/4SM -RA FG VV002 11/09 A2935 580 93 200 220/07 RMK AO2 P0000 T01060094 RVRNO
14756KACK ACK20160328153512403/28/16 15:35:31  5-MIN KACK 282035Z 22009KT 1/4SM -RA FG VV002 10/09 A2935 580 96 200 230/09 RMK AO2 P0000 T01000094 RVRNO
14756KACK ACK20160328154012403/28/16 15:40:31  5-MIN KACK 282040Z 23009KT 1/4SM -RA FG VV002 10/09 A2936 580 96 200 240/09 RMK AO2 P0000 T01000094 RVRNO
14756KACK ACK20160328154512403/28/16 15:45:31  5-MIN KACK 282045Z 23007KT 1/4SM -RA FG VV002 10/09 A2935 580 96 200 240/07 RMK AO2 P0000 T01000094 RVRNO
14756KACK ACK20160328155014303/28/16 15:50:31  5-MIN KACK 282050Z 23009KT 1/4SM -RA FG VV002 10/09 A2935 580 93 200 250/09 RMK AO2 SLP938 P0000 60000 T01000089 58087 RVRNO
14756KACK ACK20160328155512403/28/16 15:55:31  5-MIN KACK 282055Z 24012KT 1/4SM -RA FG VV002 10/09 A2935 580 93 200 250/12 RMK AO2 P0000 T01000089 RVRNO
14756KACK ACK20160328160012403/28/16 16:00:31  5-MIN KACK 282100Z 25013KT 1/4SM -RA FG VV002 10/09 A2935 580 96 200 260/13 RMK AO2 P0000 T01000094 RVRNO
14756KACK ACK20160328160512403/28/16 16:05:31  5-MIN KACK 282105Z 26009KT 1/4SM -RA FG VV002 11/09 A2934 590 93 200 270/09 RMK AO2 P0000 T01060094 RVRNO
14756KACK ACK20160328161012403/28/16 16:10:31  5-MIN KACK 282110Z 26009KT 1/4SM -RA FG VV002 11/09 A2934 590 93 200 280/09 RMK AO2 P0000 T01060094 RVRNO
14756KACK ACK20160328161512403/28/16 16:15:31  5-MIN KACK 282115Z 27010KT 1/4SM -RA FG VV002 11/09 A2933 600 93 200 290/10 RMK AO2 P0000 T01060094 RVRNO
14756KACK ACK20160328162012403/28/16 16:20:31  5-MIN KACK 282120Z 28011KT 1/4SM -RA FG VV002 11/09 A2934 590 93 200 290/11 RMK AO2 P0000 T01060094 RVRNO
14756KACK ACK20160328162512403/28/16 16:25:31  5-MIN KACK 282125Z 28010KT 1/2SM -RA FG VV002 11/10 A2934 590 96 200 290/10 RMK AO2 P0000 T01060100 RVRNO
14756KACK ACK20160328163012403/28/16 16:30:31  5-MIN KACK 282130Z 28012KT 1/2SM -RA FG VV002 11/10 A2935 580 93 300 290/12 RMK AO2 P0000 T01110100 RVRNO
14756KACK ACK20160328163512403/28/16 16:35:31  5-MIN KACK 282135Z 27014KT 1/2SM -RA FG VV002 11/10 A2935 580 96 200 290/14 RMK AO2 P0000 T01060100 RVRNO
14756KACK ACK20160328164012403/28/16 16:40:31  5-MIN KACK 282140Z 29012KT 1/2SM -RA FG VV002 11/10 A2935 580 93 300 300/12 RMK AO2 P0000 T01110100 RVRNO
14756KACK ACK20160328164512703/28/16 16:45:31  5-MIN KACK 282145Z 29012KT 1/2SM FG OVC002 11/09 A2935 580 93 200 310/12 RMK AO2 RAE44 P0000 T01060094 RVRNO
14756KACK ACK20160328165014003/28/16 16:50:31  5-MIN KACK 282150Z 29012G19KT 3/4SM BR OVC002 11/09 A2936 570 93 200 300/12G19 RMK AO2 RAE44 SLP941 P0000 T01060094 RVRNO
14756KACK ACK20160328165513703/28/16 16:55:31  5-MIN KACK 282155Z 30014G19KT 1/2SM -RA FG OVC003 11/09 A2936 570 93 200 310/14G19 RMK AO2 RAB55 P0000 T01060094 RVRNO
14756KACK ACK20160328170013203/28/16 17:00:31  5-MIN KACK 282200Z 30014KT 1/2SM -RA FG VV002 11/09 A2936 570 93 200 320/14 RMK AO2 RAB2155 P0000 T01060094 RVRNO
14756KACK ACK20160328170513203/28/16 17:05:31  5-MIN KACK 282205Z 30014KT 1/2SM -RA FG VV002 10/09 A2936 570 93 100 320/14 RMK AO2 RAB2155 P0000 T01000089 RVRNO
14756KACK ACK20160328171013203/28/16 17:10:31  5-MIN KACK 282210Z 30012KT 1/2SM -RA FG VV002 10/08 A2937 560 89 100 310/12 RMK AO2 RAB2155 P0000 T01000083 RVRNO
14756KACK ACK20160328171513203/28/16 17:15:31  5-MIN KACK 282215Z 29011KT 1/2SM -RA FG VV002 09/08 A2938 560 93 100 300/11 RMK AO2 RAB2155 P0000 T00940083 RVRNO
14756KACK ACK20160328172013103/28/16 17:20:31  5-MIN KACK 282220Z 28012KT 1/2SM FG VV002 10/09 A2938 550 93 100 290/12 RMK AO2 RAB2155E18 P0000 T01000089 RVRNO
14756KACK ACK20160328172513103/28/16 17:25:31  5-MIN KACK 282225Z 28014KT 1/2SM FG VV002 10/09 A2938 550 93 100 290/14 RMK AO2 RAB2155E18 P0000 T01000089 RVRNO
14756KACK ACK20160328173013103/28/16 17:30:31  5-MIN KACK 282230Z 28011KT 1/2SM FG VV002 10/09 A2939 550 93 100 290/11 RMK AO2 RAB2155E18 P0000 T01000089 RVRNO
14756KACK ACK20160328173513103/28/16 17:35:31  5-MIN KACK 282235Z 27013KT 1/2SM FG VV002 10/09 A2939 540 93 100 280/13 RMK AO2 RAB2155E18 P0000 T01000089 RVRNO
14756KACK ACK20160328174013603/28/16 17:40:31  5-MIN KACK 282240Z 27013KT 1/2SM -RA FG VV002 09/08 A2939 540 93 0 290/13 RMK AO2 RAB2155E18B38 P0000 T00940083 RVRNO
14756KACK ACK20160328174513603/28/16 17:45:31  5-MIN KACK 282245Z 28012KT 1/2SM -RA FG VV002 09/08 A2939 540 93 0 300/12 RMK AO2 RAB2155E18B38 P0000 T00940083 RVRNO
14756KACK ACK20160328175014303/28/16 17:50:31  5-MIN KACK 282250Z 28014KT 1/2SM -RA FG VV002 09/08 A2940 530 93 0 290/14 RMK AO2 RAB2155E18B38 SLP956 P0000 T00940083 RVRNO
14756KACK ACK20160328175512203/28/16 17:55:31  5-MIN KACK 282255Z 27013KT 3/4SM -RA BR VV002 09/08 A2940 530 93 0 280/13 RMK AO2 P0000 T00940083 RVRNO
14756KACK ACK20160328180012003/28/16 18:00:31  5-MIN KACK 282300Z 27012KT 1SM -RA BR VV002 09/08 A2940 530 96 0 290/12 RMK AO2 P0000 T00890083 RVRNO
14756KACK ACK20160328180512803/28/16 18:05:31  5-MIN KACK 282305Z 28014G20KT 1/2SM -RA FG VV002 09/08 A2940 530 93 0 290/14G20 RMK AO2 P0000 T00890078 RVRNO
14756KACK ACK20160328181012803/28/16 18:10:31  5-MIN KACK 282310Z 28012G20KT 1/2SM -RA FG VV002 09/08 A2941 530 89 0 290/12G20 RMK AO2 P0000 T00940078 RVRNO
14756KACK ACK20160328181512303/28/16 18:15:31  5-MIN KACK 282315Z 28012KT 1/2SM -RA FG OVC002 09/08 A2941 530 93 0 300/12 RMK AO2 P0000 T00940083 RVRNO
14756KACK ACK20160328182012503/28/16 18:20:31  5-MIN KACK 282320Z 28014KT 1/2SM FG OVC002 09/08 A2941 530 93 0 290/14 RMK AO2 RAE17 P0000 T00940083 RVRNO
14756KACK ACK20160328182512403/28/16 18:25:31  5-MIN KACK 282325Z 28014KT 3SM BR BKN002 OVC009 09/08 A2941 520 93 0 300/14 RMK AO2 RAE17 P0000 T00940083
14756KACK ACK20160328183012403/28/16 18:30:31  5-MIN KACK 282330Z 27014KT 3SM BR BKN002 OVC009 09/08 A2941 520 93 0 280/14 RMK AO2 RAE17 P0000 T00940083
14756KACK ACK20160328183511703/28/16 18:35:31  5-MIN KACK 282335Z 27014KT 3SM BR OVC002 09/08 A2942 520 89 0 280/14 RMK AO2 RAE17 P0000 T00940078
14756KACK ACK20160328184011703/28/16 18:40:31  5-MIN KACK 282340Z 26015KT 3SM BR OVC002 09/08 A2942 520 93 0 270/15 RMK AO2 RAE17 P0000 T00890078
14756KACK ACK20160328184511703/28/16 18:45:31  5-MIN KACK 282345Z 26014KT 3SM BR OVC002 09/07 A2942 520 89 0 270/14 RMK AO2 RAE17 P0000 T00890072
14756KACK ACK20160328185015703/28/16 18:50:31  5-MIN KACK 282350Z 26016G22KT 3SM BR OVC004 08/07 A2942 510 93 -100 270/16G22 RMK AO2 RAE17 SLP963 P0000 60000 T00830072 10111 20083 56041
14756KACK ACK20160328185511603/28/16 18:55:31  5-MIN KACK 282355Z 26015KT 1 1/2SM BR BKN004 OVC009 09/07 A2942 510 89 0 280/15 RMK AO2 T00890072
14756KACK ACK20160328190012503/28/16 19:00:31  5-MIN KACK 290000Z 26016G22KT 1 1/2SM BR BKN002 OVC009 08/07 A2942 510 93 -100 280/16G22 RMK AO2 T00830072
14756KACK ACK20160328190512503/28/16 19:05:31  5-MIN KACK 290005Z 26016G22KT 1 1/2SM BR BKN002 OVC009 08/07 A2943 510 93 -100 270/16G22 RMK AO2 T00830072
14756KACK ACK20160328191011203/28/16 19:10:31  5-MIN KACK 290010Z 26017KT 1 1/2SM BR OVC002 08/07 A2943 500 93 -100 270/17 RMK AO2 T00830072
14756KACK ACK20160328191511803/28/16 19:15:31  5-MIN KACK 290015Z 26018G25KT 1 1/2SM BR OVC002 08/07 A2944 500 93 -100 270/18G25 RMK AO2 T00830072
14756KACK ACK20160328192010803/28/16 19:20:31  5-MIN KACK 290020Z 26016G25KT 7SM OVC002 09/07 A2944 500 89 0 270/16G25 RMK AO2 T00890072
14756KACK ACK20160328192511903/28/16 19:25:31  5-MIN KACK 290025Z 26017G24KT 10SM BKN002 OVC012 08/07 A2944 500 93 -100 270/17G24 RMK AO2 T00830072
14756KACK ACK20160328193011903/28/16 19:30:31  5-MIN KACK 290030Z 26018G24KT 10SM BKN004 OVC012 08/07 A2944 500 93 -100 270/18G24 RMK AO2 T00830072
14756KACK ACK20160328193511903/28/16 19:35:31  5-MIN KACK 290035Z 26018G24KT 10SM BKN004 OVC011 08/07 A2944 500 93 -100 270/18G24 RMK AO2 T00830072
14756KACK ACK20160328194011903/28/16 19:40:31  5-MIN KACK 290040Z 26018G24KT 10SM BKN004 OVC011 08/07 A2944 500 93 -100 280/18G24 RMK AO2 T00830072
14756KACK ACK20160328194511903/28/16 19:45:31  5-MIN KACK 290045Z 26017G24KT 10SM BKN004 OVC011 08/07 A2944 500 89 -100 280/17G24 RMK AO2 T00830067
14756KACK ACK20160328195012103/28/16 19:50:31  5-MIN KACK 290050Z 26016G22KT 10SM SCT004 BKN011 08/07 A2944 500 89 -100 270/16G22 RMK AO2 CIG 008V012
14756KACK ACK20160328195512303/28/16 19:55:31  5-MIN KACK 290055Z AUTO 26015KT 10SM SCT005 BKN011 08/07 A2944 500 89 -100 270/15 RMK AO2 T00830067 TSNO
14756KACK ACK20160328200012303/28/16 20:00:31  5-MIN KACK 290100Z AUTO 26015KT 10SM FEW005 BKN010 08/07 A2944 500 89 -100 270/15 RMK AO2 T00830067 TSNO
14756KACK ACK20160328200512303/28/16 20:05:31  5-MIN KACK 290105Z AUTO 25016KT 10SM SCT004 SCT010 08/07 A2944 500 89 -100 270/16 RMK AO2 T00830067 TSNO
14756KACK ACK20160328201011603/28/16 20:10:31  5-MIN KACK 290110Z AUTO 26016KT 10SM SCT004 08/07 A2944 500 89 -100 270/16 RMK AO2 T00830067 TSNO
14756KACK ACK20160328201511603/28/16 20:15:31  5-MIN KACK 290115Z AUTO 26018KT 10SM SCT004 08/07 A2944 500 89 -100 280/18 RMK AO2 T00830067 TSNO
14756KACK ACK20160328202012103/28/16 20:20:31  5-MIN KACK 290120Z AUTO 26014G22KT 7SM BKN004 08/07 A2944 490 89 -100 270/14G22 RMK AO2 T00830067 TSNO
14756KACK ACK20160328202512403/28/16 20:25:31  5-MIN KACK 290125Z AUTO 26016G22KT 5SM BR BKN004 08/07 A2945 490 89 -100 270/16G22 RMK AO2 T00830067 TSNO
14756KACK ACK20160328203012403/28/16 20:30:31  5-MIN KACK 290130Z AUTO 26016G24KT 2SM BR BKN002 08/07 A2945 490 93 -200 270/16G24 RMK AO2 T00780067 TSNO
14756KACK ACK20160328203513103/28/16 20:35:31  5-MIN KACK 290135Z AUTO 26014G24KT 3/4SM BR VV002 08/06 A2944 490 89 -200 270/14G24 RMK AO2 T00780061 TSNO RVRNO
14756KACK ACK20160328204013103/28/16 20:40:31  5-MIN KACK 290140Z AUTO 26014G22KT 1/2SM FG VV002 08/06 A2945 490 89 -200 270/14G22 RMK AO2 T00780061 TSNO RVRNO
14756KACK ACK20160328204512503/28/16 20:45:31  5-MIN KACK 290145Z AUTO 26013KT 1/2SM FG VV002 08/07 A2945 490 93 -200 270/13 RMK AO2 T00780067 TSNO RVRNO
14756KACK ACK20160328205013203/28/16 20:50:31  5-MIN KACK 290150Z AUTO 25014KT 3/4SM BR VV002 08/07 A2945 490 93 -200 270/14 RMK AO2 SLP972 T00780067 TSNO RVRNO
14756KACK ACK20160328205512203/28/16 20:55:31  5-MIN KACK 290155Z AUTO 25015KT 1 1/2SM BR OVC002 08/06 A2945 490 89 -200 260/15 RMK AO2 T00780061 TSNO
14756KACK ACK20160328210011803/28/16 21:00:31  5-MIN KACK 290200Z AUTO 24013KT 3SM BR OVC002 08/06 A2944 490 89 -200 260/13 RMK AO2 T00780061 TSNO
14756KACK ACK20160328210512203/28/16 21:05:31  5-MIN KACK 290205Z AUTO 25014KT 8SM BKN002 OVC070 08/07 A2944 490 93 -200 260/14 RMK AO2 T00780067 TSNO
14756KACK ACK20160328211012203/28/16 21:10:31  5-MIN KACK 290210Z AUTO 25013KT 9SM BKN002 OVC070 08/07 A2944 500 89 -100 260/13 RMK AO2 T00830067 TSNO
14756KACK ACK20160328211512303/28/16 21:15:31  5-MIN KACK 290215Z AUTO 24015KT 10SM SCT002 BKN070 08/07 A2944 500 89 -100 260/15 RMK AO2 T00830067 TSNO
14756KACK ACK20160328212012203/28/16 21:20:31  5-MIN KACK 290220Z AUTO 24018KT 9SM FEW002 BKN070 08/07 A2944 500 89 -100 260/18 RMK AO2 T00830067 TSNO
14756KACK ACK20160328212512203/28/16 21:25:31  5-MIN KACK 290225Z AUTO 24018KT 9SM FEW003 BKN070 08/07 A2943 500 89 -100 260/18 RMK AO2 T00830067 TSNO
14756KACK ACK20160328213011503/28/16 21:30:31  5-MIN KACK 290230Z AUTO 24017KT 9SM BKN070 08/07 A2943 500 89 -100 260/17 RMK AO2 T00830067 TSNO
14756KACK ACK20160328213511503/28/16 21:35:31  5-MIN KACK 290235Z AUTO 24019KT 9SM BKN070 08/07 A2943 510 89 -100 260/19 RMK AO2 T00830067 TSNO
14756KACK ACK20160328214011503/28/16 21:40:31  5-MIN KACK 290240Z AUTO 25018KT 9SM SCT070 08/06 A2943 510 86 -100 260/18 RMK AO2 T00830061 TSNO
14756KACK ACK20160328214511603/28/16 21:45:31  5-MIN KACK 290245Z AUTO 25018KT 10SM SCT070 08/06 A2943 510 86 -100 260/18 RMK AO2 T00830061 TSNO
14756KACK ACK20160328215013503/28/16 21:50:31  5-MIN KACK 290250Z AUTO 25019G25KT 10SM FEW070 08/06 A2942 510 86 -100 260/19G25 RMK AO2 SLP964 T00830061 53025 TSNO
14756KACK ACK20160328215511603/28/16 21:55:31  5-MIN KACK 290255Z AUTO 25018KT 10SM FEW070 08/06 A2942 510 82 -100 260/18 RMK AO2 T00830056 TSNO
14756KACK ACK20160328220011303/28/16 22:00:31  5-MIN KACK 290300Z AUTO 25017KT 10SM CLR 08/06 A2943 510 82 -100 260/17 RMK AO2 T00830056 TSNO
14756KACK ACK20160328220513703/28/16 22:05:31  5-MIN KACK 290305Z AUTO 25020G26KT 10SM CLR 08/05 A2942 510 79 -100 260/20G26 RMK AO2 PK WND 25026/0304 T00830050 TSNO
14756KACK ACK20160328221013703/28/16 22:10:31  5-MIN KACK 290310Z AUTO 25020G26KT 10SM CLR 08/05 A2943 510 79 -100 260/20G26 RMK AO2 PK WND 24026/0309 T00830050 TSNO
14756KACK ACK20160328221513403/28/16 22:15:31  5-MIN KACK 290315Z AUTO 25021G26KT 10SM CLR 09/05 A2943 510 76 0 260/21G26 RMK AO2 PK WND 24026/0315 T00890050 TSNO
14756KACK ACK20160328222013403/28/16 22:20:31  5-MIN KACK 290320Z AUTO 25022G30KT 10SM CLR 09/05 A2943 510 76 0 270/22G30 RMK AO2 PK WND 25030/0320 T00890050 TSNO
14756KACK ACK20160328222513403/28/16 22:25:31  5-MIN KACK 290325Z AUTO 25024G30KT 10SM CLR 09/05 A2943 510 76 0 260/24G30 RMK AO2 PK WND 25030/0320 T00890050 TSNO
14756KACK ACK20160328223013403/28/16 22:30:31  5-MIN KACK 290330Z AUTO 25021G29KT 10SM CLR 09/04 A2943 510 73 0 270/21G29 RMK AO2 PK WND 25030/0320 T00890044 TSNO
14756KACK ACK20160328223513403/28/16 22:35:31  5-MIN KACK 290335Z AUTO 25021G29KT 10SM CLR 09/04 A2943 500 73 0 270/21G29 RMK AO2 PK WND 25030/0320 T00890044 TSNO
14756KACK ACK20160328224013403/28/16 22:40:31  5-MIN KACK 290340Z AUTO 25020G27KT 10SM CLR 09/04 A2943 500 73 0 270/20G27 RMK AO2 PK WND 25030/0320 T00890044 TSNO
14756KACK ACK20160328224513403/28/16 22:45:31  5-MIN KACK 290345Z AUTO 25022G29KT 10SM CLR 09/04 A2943 500 73 0 270/22G29 RMK AO2 PK WND 25030/0320 T00890044 TSNO
14756KACK ACK20160328225014103/28/16 22:50:31  5-MIN KACK 290350Z AUTO 26022G29KT 10SM CLR 09/04 A2943 510 73 0 270/22G29 RMK AO2 PK WND 25030/0320 SLP966 T00890044 TSNO
14756KACK ACK20160328225513403/28/16 22:55:31  5-MIN KACK 290355Z AUTO 26024G33KT 10SM CLR 09/04 A2943 500 73 0 270/24G33 RMK AO2 PK WND 26033/0354 T00890044 TSNO
14756KACK ACK20160328230013403/28/16 23:00:31  5-MIN KACK 290400Z AUTO 26022G34KT 10SM CLR 09/03 A2943 500 68 0 270/22G34 RMK AO2 PK WND 26034/0358 T00890033 TSNO
14756KACK ACK20160328230513703/28/16 23:05:31  5-MIN KACK 290405Z AUTO 26022G34KT 10SM CLR 08/03 A2944 500 70 -100 270/22G34 RMK AO2 PK WND 26034/0358 T00830033 TSNO
14756KACK ACK20160328231013703/28/16 23:10:31  5-MIN KACK 290410Z AUTO 26022G30KT 10SM CLR 08/03 A2944 500 70 -100 270/22G30 RMK AO2 PK WND 26034/0358 T00830033 TSNO
14756KACK ACK20160328231513703/28/16 23:15:31  5-MIN KACK 290415Z AUTO 26025G35KT 10SM CLR 08/03 A2944 500 68 -100 280/25G35 RMK AO2 PK WND 26035/0414 T00830028 TSNO
14756KACK ACK20160328232013703/28/16 23:20:31  5-MIN KACK 290420Z AUTO 26023G35KT 10SM CLR 08/03 A2944 500 70 -100 280/23G35 RMK AO2 PK WND 26035/0414 T00830033 TSNO
14756KACK ACK20160328232513703/28/16 23:25:31  5-MIN KACK 290425Z AUTO 26021G30KT 10SM CLR 08/03 A2944 490 68 -100 270/21G30 RMK AO2 PK WND 26035/0414 T00830028 TSNO
14756KACK ACK20160328233013703/28/16 23:30:31  5-MIN KACK 290430Z AUTO 26021G28KT 10SM CLR 08/03 A2945 490 70 -100 280/21G28 RMK AO2 PK WND 26035/0414 T00830033 TSNO
14756KACK ACK20160328233513703/28/16 23:35:31  5-MIN KACK 290435Z AUTO 26024G30KT 10SM CLR 08/03 A2945 490 68 -100 280/24G30 RMK AO2 PK WND 26035/0414 T00830028 TSNO
14756KACK ACK20160328234013703/28/16 23:40:31  5-MIN KACK 290440Z AUTO 26021G32KT 10SM CLR 08/03 A2945 490 68 -100 280/21G32 RMK AO2 PK WND 26035/0414 T00830028 TSNO
14756KACK ACK20160328234513703/28/16 23:45:31  5-MIN KACK 290445Z AUTO 26022G32KT 10SM CLR 08/03 A2945 490 68 -100 280/22G32 RMK AO2 PK WND 26035/0414 T00830028 TSNO
14756KACK ACK20160328235015403/28/16 23:50:31  5-MIN KACK 290450Z AUTO 26022G32KT 10SM CLR 08/03 A2945 480 68 -100 280/22G32 RMK AO2 PK WND 26035/0414 SLP974 T00830028 401280050 TSNO
14756KACK ACK20160328235513703/28/16 23:55:31  5-MIN KACK 290455Z AUTO 26024G30KT 10SM CLR 08/03 A2946 480 68 -100 280/24G30 RMK AO2 PK WND 26029/0455 T00830028 TSNO
14756KACK ACK20160329000013703/29/16 00:00:31  5-MIN KACK 290500Z AUTO 27022G32KT 10SM CLR 08/03 A2946 480 68 -100 280/22G32 RMK AO2 PK WND 27030/0500 T00830028 TSNO
14756KACK ACK20160329000513703/29/16 00:05:31  5-MIN KACK 290505Z AUTO 27024G34KT 10SM CLR 08/03 A2946 480 68 -100 280/24G34 RMK AO2 PK WND 27034/0505 T00830028 TSNO
14756KACK ACK20160329001013703/29/16 00:10:31  5-MIN KACK 290510Z AUTO 26024G34KT 10SM CLR 08/02 A2946 480 65 -100 280/24G34 RMK AO2 PK WND 27034/0505 T00830022 TSNO
14756KACK ACK20160329001513703/29/16 00:15:31  5-MIN KACK 290515Z AUTO 27022G33KT 10SM CLR 08/02 A2946 480 65 -100 280/22G33 RMK AO2 PK WND 27034/0505 T00830022 TSNO
14756KACK ACK20160329002013703/29/16 00:20:31  5-MIN KACK 290520Z AUTO 27021G33KT 10SM CLR 08/02 A2946 470 65 -100 280/21G33 RMK AO2 PK WND 27034/0505 T00830022 TSNO
14756KACK ACK20160329002513703/29/16 00:25:31  5-MIN KACK 290525Z AUTO 26022G30KT 10SM CLR 08/02 A2946 470 65 -100 280/22G30 RMK AO2 PK WND 27034/0505 T00830022 TSNO
14756KACK ACK20160329003013703/29/16 00:30:31  5-MIN KACK 290530Z AUTO 27021G29KT 10SM CLR 08/02 A2946 470 68 -200 280/21G29 RMK AO2 PK WND 27034/0505 T00780022 TSNO
14756KACK ACK20160329003513703/29/16 00:35:31  5-MIN KACK 290535Z AUTO 27020G26KT 10SM CLR 08/02 A2946 470 68 -200 280/20G26 RMK AO2 PK WND 27034/0505 T00780022 TSNO
14756KACK ACK20160329004013703/29/16 00:40:31  5-MIN KACK 290540Z AUTO 27019G27KT 10SM CLR 08/02 A2946 480 68 -200 290/19G27 RMK AO2 PK WND 27034/0505 T00780022 TSNO
14756KACK ACK20160329004513703/29/16 00:45:31  5-MIN KACK 290545Z AUTO 27020G27KT 10SM CLR 08/02 A2946 480 68 -200 280/20G27 RMK AO2 PK WND 27034/0505 T00780022 TSNO
14756KACK ACK20160329005016203/29/16 00:50:31  5-MIN KACK 290550Z AUTO 27023G32KT 10SM CLR 08/02 A2946 470 68 -200 280/23G32 RMK AO2 PK WND 27034/0505 SLP977 T00780022 10089 20078 50000 TSNO
14756KACK ACK20160329005511903/29/16 00:55:31  5-MIN KACK 290555Z AUTO 27021G32KT 10SM CLR 08/02 A2947 470 68 -200 280/21G32 RMK AO2 T00780022 TSNO
14756KACK ACK20160329010013703/29/16 01:00:31  5-MIN KACK 290600Z AUTO 27020G30KT 10SM CLR 08/02 A2947 470 65 -100 280/20G30 RMK AO2 PK WND 27030/0558 T00830022 TSNO
14756KACK ACK20160329010513703/29/16 01:05:31  5-MIN KACK 290605Z AUTO 26020G30KT 10SM CLR 08/02 A2947 470 68 -200 280/20G30 RMK AO2 PK WND 27030/0558 T00780022 TSNO
14756KACK ACK20160329011013703/29/16 01:10:31  5-MIN KACK 290610Z AUTO 27020G28KT 10SM CLR 08/02 A2947 470 68 -200 280/20G28 RMK AO2 PK WND 27030/0558 T00780022 TSNO
14756KACK ACK20160329011513703/29/16 01:15:31  5-MIN KACK 290615Z AUTO 26021G33KT 10SM CLR 08/02 A2947 470 68 -200 280/21G33 RMK AO2 PK WND 27033/0614 T00780022 TSNO
14756KACK ACK20160329012013703/29/16 01:20:31  5-MIN KACK 290620Z AUTO 26023G33KT 10SM CLR 08/02 A2947 470 68 -200 280/23G33 RMK AO2 PK WND 27033/0614 T00780022 TSNO
14756KACK ACK20160329012513703/29/16 01:25:31  5-MIN KACK 290625Z AUTO 26021G30KT 10SM CLR 08/02 A2947 470 68 -200 270/21G30 RMK AO2 PK WND 27033/0614 T00780022 TSNO
14756KACK ACK20160329013013703/29/16 01:30:31  5-MIN KACK 290630Z AUTO 27022G31KT 10SM CLR 08/02 A2947 470 68 -200 280/22G31 RMK AO2 PK WND 27033/0614 T00780022 TSNO
14756KACK ACK20160329013513703/29/16 01:35:31  5-MIN KACK 290635Z AUTO 26022G31KT 10SM CLR 08/03 A2947 470 70 -200 280/22G31 RMK AO2 PK WND 27033/0614 T00780028 TSNO
14756KACK ACK20160329014013703/29/16 01:40:31  5-MIN KACK 290640Z AUTO 26019G29KT 10SM CLR 08/03 A2947 470 70 -200 280/19G29 RMK AO2 PK WND 27033/0614 T00780028 TSNO
14756KACK ACK20160329014513703/29/16 01:45:31  5-MIN KACK 290645Z AUTO 26019G29KT 10SM CLR 08/03 A2947 470 70 -200 280/19G29 RMK AO2 PK WND 27033/0614 T00780028 TSNO
14756KACK ACK20160329015014403/29/16 01:50:31  5-MIN KACK 290650Z AUTO 26019G27KT 10SM CLR 08/03 A2946 470 70 -200 280/19G27 RMK AO2 PK WND 27033/0614 SLP978 T00780028 TSNO
14756KACK ACK20160329015513703/29/16 01:55:31  5-MIN KACK 290655Z AUTO 26021G28KT 10SM CLR 08/02 A2947 470 68 -200 270/21G28 RMK AO2 PK WND 27028/0654 T00780022 TSNO
14756KACK ACK20160329020013703/29/16 02:00:31  5-MIN KACK 290700Z AUTO 25018G28KT 10SM CLR 08/03 A2947 470 70 -200 270/18G28 RMK AO2 PK WND 27028/0654 T00780028 TSNO
14756KACK ACK20160329020513703/29/16 02:05:31  5-MIN KACK 290705Z AUTO 26019G25KT 10SM CLR 08/03 A2947 470 70 -200 270/19G25 RMK AO2 PK WND 27028/0654 T00780028 TSNO
14756KACK ACK20160329021013703/29/16 02:10:31  5-MIN KACK 290710Z AUTO 26023G28KT 10SM CLR 08/03 A2947 470 70 -200 270/23G28 RMK AO2 PK WND 27028/0654 T00780028 TSNO
14756KACK ACK20160329021513703/29/16 02:15:31  5-MIN KACK 290715Z AUTO 26018G28KT 10SM CLR 08/03 A2947 470 70 -200 280/18G28 RMK AO2 PK WND 27028/0654 T00780028 TSNO
14756KACK ACK20160329022013103/29/16 02:20:31  5-MIN KACK 290720Z AUTO 26018KT 10SM CLR 08/03 A2947 470 70 -200 280/18 RMK AO2 PK WND 27028/0654 T00780028 TSNO
14756KACK ACK20160329022513703/29/16 02:25:31  5-MIN KACK 290725Z AUTO 26020G25KT 10SM CLR 08/02 A2947 470 68 -200 270/20G25 RMK AO2 PK WND 27028/0654 T00780022 TSNO
14756KACK ACK20160329023013703/29/16 02:30:31  5-MIN KACK 290730Z AUTO 26019G25KT 10SM CLR 08/02 A2947 470 68 -200 280/19G25 RMK AO2 PK WND 27028/0654 T00780022 TSNO
14756KACK ACK20160329023513703/29/16 02:35:31  5-MIN KACK 290735Z AUTO 26020G27KT 10SM CLR 08/02 A2947 470 68 -200 270/20G27 RMK AO2 PK WND 27028/0654 T00780022 TSNO
14756KACK ACK20160329024013703/29/16 02:40:31  5-MIN KACK 290740Z AUTO 26021G28KT 10SM CLR 08/02 A2947 470 68 -200 280/21G28 RMK AO2 PK WND 27028/0739 T00780022 TSNO
14756KACK ACK20160329024513703/29/16 02:45:31  5-MIN KACK 290745Z AUTO 27019G28KT 10SM CLR 07/02 A2947 470 70 -300 280/19G28 RMK AO2 PK WND 27028/0739 T00720022 TSNO
14756KACK ACK20160329025014403/29/16 02:50:31  5-MIN KACK 290750Z AUTO 26019G31KT 10SM CLR 08/02 A2947 470 68 -200 280/19G31 RMK AO2 PK WND 27031/0746 SLP978 T00780022 TSNO
14756KACK ACK20160329025513703/29/16 02:55:31  5-MIN KACK 290755Z AUTO 26021G31KT 10SM CLR 08/02 A2947 470 68 -200 280/21G31 RMK AO2 PK WND 27027/0755 T00780022 TSNO
14756KACK ACK20160329030013703/29/16 03:00:31  5-MIN KACK 290800Z AUTO 27020G29KT 10SM CLR 07/02 A2947 470 70 -300 280/20G29 RMK AO2 PK WND 28029/0759 T00720022 TSNO
14756KACK ACK20160329030513703/29/16 03:05:31  5-MIN KACK 290805Z AUTO 27021G29KT 10SM CLR 07/02 A2947 470 70 -300 280/21G29 RMK AO2 PK WND 28029/0759 T00720022 TSNO
14756KACK ACK20160329031013703/29/16 03:10:31  5-MIN KACK 290810Z AUTO 27018G26KT 10SM CLR 07/02 A2947 470 70 -300 280/18G26 RMK AO2 PK WND 28029/0759 T00720022 TSNO
14756KACK ACK20160329031513703/29/16 03:15:31  5-MIN KACK 290815Z AUTO 27019G26KT 10SM CLR 07/02 A2947 460 70 -300 280/19G26 RMK AO2 PK WND 28029/0759 T00720022 TSNO
14756KACK ACK20160329032013703/29/16 03:20:31  5-MIN KACK 290820Z AUTO 27022G31KT 10SM CLR 07/02 A2948 460 68 -300 280/22G31 RMK AO2 PK WND 27031/0820 T00720017 TSNO
14756KACK ACK20160329032513703/29/16 03:25:31  5-MIN KACK 290825Z AUTO 27024G34KT 10SM CLR 08/01 A2948 460 60 -200 290/24G34 RMK AO2 PK WND 27034/0824 T00780006 TSNO
14756KACK ACK20160329033013703/29/16 03:30:31  5-MIN KACK 290830Z AUTO 28021G34KT 10SM CLR 07/01 A2948 460 62 -300 290/21G34 RMK AO2 PK WND 27034/0824 T00720006 TSNO
14756KACK ACK20160329033513703/29/16 03:35:31  5-MIN KACK 290835Z AUTO 27022G29KT 10SM CLR 07/01 A2948 450 62 -300 290/22G29 RMK AO2 PK WND 27034/0824 T00720006 TSNO
14756KACK ACK20160329034013703/29/16 03:40:31  5-MIN KACK 290840Z AUTO 28021G29KT 10SM CLR 07/01 A2948 450 62 -300 290/21G29 RMK AO2 PK WND 27034/0824 T00720006 TSNO
14756KACK ACK20160329034513703/29/16 03:45:31  5-MIN KACK 290845Z AUTO 27024G30KT 10SM CLR 07/01 A2949 450 62 -300 290/24G30 RMK AO2 PK WND 27034/0824 T00720006 TSNO
14756KACK ACK20160329035015003/29/16 03:50:31  5-MIN KACK 290850Z AUTO 27022G30KT 10SM CLR 07/00 A2949 450 60 -300 290/22G30 RMK AO2 PK WND 27034/0824 SLP987 T00720000 51014 TSNO
14756KACK ACK20160329035513703/29/16 03:55:31  5-MIN KACK 290855Z AUTO 27021G30KT 10SM CLR 07/01 A2949 450 62 -300 290/21G30 RMK AO2 PK WND 27028/0855 T00720006 TSNO
14756KACK ACK20160329040013703/29/16 04:00:31  5-MIN KACK 290900Z AUTO 27020G30KT 10SM CLR 07/01 A2950 440 62 -300 290/20G30 RMK AO2 PK WND 27030/0859 T00720006 TSNO
14756KACK ACK20160329040513703/29/16 04:05:31  5-MIN KACK 290905Z AUTO 27021G37KT 10SM CLR 07/01 A2950 440 62 -300 290/21G37 RMK AO2 PK WND 27037/0904 T00720006 TSNO
14756KACK ACK20160329041013703/29/16 04:10:31  5-MIN KACK 290910Z AUTO 27023G37KT 10SM CLR 07/01 A2950 440 62 -300 290/23G37 RMK AO2 PK WND 27037/0904 T00720006 TSNO
14756KACK ACK20160329041513703/29/16 04:15:31  5-MIN KACK 290915Z AUTO 28018G31KT 10SM CLR 07/01 A2950 440 62 -300 290/18G31 RMK AO2 PK WND 27037/0904 T00720006 TSNO
14756KACK ACK20160329042013703/29/16 04:20:31  5-MIN KACK 290920Z AUTO 28023G31KT 10SM CLR 07/01 A2951 430 62 -300 290/23G31 RMK AO2 PK WND 27037/0904 T00720006 TSNO
14756KACK ACK20160329042513703/29/16 04:25:31  5-MIN KACK 290925Z AUTO 27021G31KT 10SM CLR 07/01 A2951 430 62 -300 290/21G31 RMK AO2 PK WND 27037/0904 T00720006 TSNO
14756KACK ACK20160329043013703/29/16 04:30:31  5-MIN KACK 290930Z AUTO 27019G28KT 10SM CLR 07/01 A2951 430 65 -400 290/19G28 RMK AO2 PK WND 27037/0904 T00670006 TSNO
14756KACK ACK20160329043513703/29/16 04:35:31  5-MIN KACK 290935Z AUTO 27022G30KT 10SM CLR 07/01 A2952 430 62 -300 290/22G30 RMK AO2 PK WND 27037/0904 T00720006 TSNO
14756KACK ACK20160329044013703/29/16 04:40:31  5-MIN KACK 290940Z AUTO 27023G30KT 10SM CLR 07/01 A2952 420 65 -400 290/23G30 RMK AO2 PK WND 27037/0904 T00670006 TSNO
14756KACK ACK20160329044513703/29/16 04:45:31  5-MIN KACK 290945Z AUTO 27018G29KT 10SM CLR 07/01 A2953 410 62 -300 290/18G29 RMK AO2 PK WND 27037/0904 T00720006 TSNO
14756KACK ACK20160329045014403/29/16 04:50:31  5-MIN KACK 290950Z AUTO 27018G28KT 10SM CLR 07/01 A2953 410 65 -400 290/18G28 RMK AO2 PK WND 27037/0904 SLP000 T00670006 TSNO
14756KACK ACK20160329045512703/29/16 04:55:31  5-MIN KACK 290955Z 27020G29KT 10SM CLR 07/01 A2953 410 65 -400 290/20G29 RMK AO2 PK WND 26029/0955 T00670006
14756KACK ACK20160329050012703/29/16 05:00:31  5-MIN KACK 291000Z 28019G30KT 10SM CLR 07/01 A2954 400 65 -400 290/19G30 RMK AO2 PK WND 28030/0956 T00670006
14756KACK ACK20160329050512703/29/16 05:05:31  5-MIN KACK 291005Z 27019G30KT 10SM CLR 07/01 A2954 400 65 -400 290/19G30 RMK AO2 PK WND 28030/0956 T00670006
14756KACK ACK20160329051012703/29/16 05:10:31  5-MIN KACK 291010Z 27020G26KT 10SM CLR 07/01 A2954 400 65 -400 290/20G26 RMK AO2 PK WND 28030/0956 T00670006
14756KACK ACK20160329051512703/29/16 05:15:31  5-MIN KACK 291015Z 27020G27KT 10SM CLR 07/01 A2955 400 65 -400 290/20G27 RMK AO2 PK WND 28030/0956 T00670006
14756KACK ACK20160329052012703/29/16 05:20:31  5-MIN KACK 291020Z 27017G27KT 10SM CLR 07/01 A2955 390 65 -400 290/17G27 RMK AO2 PK WND 28030/0956 T00670006
14756KACK ACK20160329052512703/29/16 05:25:31  5-MIN KACK 291025Z 28020G28KT 10SM CLR 07/00 A2955 390 62 -400 290/20G28 RMK AO2 PK WND 28030/0956 T00670000
14756KACK ACK20160329053012703/29/16 05:30:31  5-MIN KACK 291030Z 27018G28KT 10SM CLR 07/00 A2955 390 62 -400 290/18G28 RMK AO2 PK WND 28030/0956 T00670000
14756KACK ACK20160329053513003/29/16 05:35:31  5-MIN KACK 291035Z 28019G29KT 10SM FEW065 07/01 A2956 390 65 -400 290/19G29 RMK AO2 PK WND 28030/0956 T00670006
14756KACK ACK20160329054013003/29/16 05:40:31  5-MIN KACK 291040Z 27020G29KT 10SM SCT065 07/01 A2956 380 65 -400 290/20G29 RMK AO2 PK WND 28030/0956 T00670006
14756KACK ACK20160329054513003/29/16 05:45:31  5-MIN KACK 291045Z 28019G28KT 10SM BKN065 07/00 A2957 380 62 -400 290/19G28 RMK AO2 PK WND 28030/0956 T00670000
14756KACK ACK20160329055013703/29/16 05:50:31  5-MIN KACK 291050Z 28021G29KT 10SM BKN065 07/00 A2957 380 60 -400 290/21G29 RMK AO2 PK WND 28030/0956 SLP012 T00720000
14756KACK ACK20160329055511203/29/16 05:55:31  5-MIN KACK 291055Z 27016G30KT 10SM BKN065 07/00 A2957 370 60 -400 290/16G30 RMK AO2 T00720000
14756KACK ACK20160329060013003/29/16 06:00:31  5-MIN KACK 291100Z 28016G30KT 10SM BKN070 07/00 A2957 370 60 -400 290/16G30 RMK AO2 PK WND 29027/1058 T00720000
14756KACK ACK20160329060513003/29/16 06:05:31  5-MIN KACK 291105Z 28019G27KT 10SM BKN070 07/00 A2958 370 60 -400 290/19G27 RMK AO2 PK WND 29027/1058 T00720000
14756KACK ACK20160329061013003/29/16 06:10:31  5-MIN KACK 291110Z 28021G28KT 10SM BKN070 07/00 A2958 370 60 -400 290/21G28 RMK AO2 PK WND 28028/1108 T00720000
14756KACK ACK20160329061513003/29/16 06:15:31  5-MIN KACK 291115Z 28022G28KT 10SM BKN070 07/00 A2958 360 60 -400 300/22G28 RMK AO2 PK WND 29028/1115 T00720000
14756KACK ACK20160329062013003/29/16 06:20:31  5-MIN KACK 291120Z 28021G28KT 10SM OVC070 07/00 A2959 360 60 -400 290/21G28 RMK AO2 PK WND 28028/1120 T00720000
14756KACK ACK20160329062513003/29/16 06:25:31  5-MIN KACK 291125Z 28019G28KT 10SM OVC070 07/00 A2959 350 60 -400 290/19G28 RMK AO2 PK WND 28028/1120 T00720000
14756KACK ACK20160329063013003/29/16 06:30:31  5-MIN KACK 291130Z 29017G29KT 10SM OVC070 08/00 A2960 350 58 -300 300/17G29 RMK AO2 PK WND 29029/1128 T00780000
14756KACK ACK20160329063513003/29/16 06:35:31  5-MIN KACK 291135Z 28024G32KT 10SM OVC070 08/00 A2959 350 58 -300 300/24G32 RMK AO2 PK WND 27032/1133 T00780000
14756KACK ACK20160329064013003/29/16 06:40:31  5-MIN KACK 291140Z 28022G32KT 10SM OVC070 08/00 A2960 350 58 -300 300/22G32 RMK AO2 PK WND 27032/1133 T00780000
14756KACK ACK20160329064513003/29/16 06:45:31  5-MIN KACK 291145Z 28020G32KT 10SM OVC070 08/00 A2960 350 58 -300 300/20G32 RMK AO2 PK WND 27032/1133 T00780000
14756KACK ACK20160329065016103/29/16 06:50:31  5-MIN KACK 291150Z 28022G29KT 10SM BKN070 08/01 A2961 340 60 -400 300/22G29 RMK AO2 PK WND 27032/1133 SLP027 70044 T00780006 10083 20067 53010
14756KACK ACK20160329065513003/29/16 06:55:31  5-MIN KACK 291155Z 28019G30KT 10SM BKN070 08/00 A2961 340 58 -400 300/19G30 RMK AO2 PK WND 29030/1154 T00780000
14756KACK ACK20160329070013003/29/16 07:00:31  5-MIN KACK 291200Z 28020G30KT 10SM SCT075 08/00 A2961 340 58 -400 300/20G30 RMK AO2 PK WND 29030/1154 T00780000
14756KACK ACK20160329070513003/29/16 07:05:31  5-MIN KACK 291205Z 28018G30KT 10SM FEW075 08/01 A2961 340 60 -400 300/18G30 RMK AO2 PK WND 29030/1154 T00780006
14756KACK ACK20160329071013003/29/16 07:10:31  5-MIN KACK 291210Z 28023G30KT 10SM FEW075 08/00 A2962 330 55 -300 290/23G30 RMK AO2 PK WND 29030/1154 T00830000
14756KACK ACK20160329071512703/29/16 07:15:31  5-MIN KACK 291215Z 28020G30KT 10SM CLR 08/00 A2962 330 55 -300 290/20G30 RMK AO2 PK WND 29030/1154 T00830000
14756KACK ACK20160329072012703/29/16 07:20:31  5-MIN KACK 291220Z 28024G32KT 10SM CLR 08/00 A2963 320 55 -300 300/24G32 RMK AO2 PK WND 28032/1219 T00830000
14756KACK ACK20160329072512703/29/16 07:25:31  5-MIN KACK 291225Z 28017G32KT 10SM CLR 08/00 A2963 320 55 -300 300/17G32 RMK AO2 PK WND 28032/1219 T00830000
14756KACK ACK20160329073012703/29/16 07:30:31  5-MIN KACK 291230Z 28024G33KT 10SM CLR 08/00 A2964 310 55 -300 300/24G33 RMK AO2 PK WND 28033/1229 T00830000
14756KACK ACK20160329073512703/29/16 07:35:31  5-MIN KACK 291235Z 28020G33KT 10SM CLR 08/00 A2963 320 55 -300 300/20G33 RMK AO2 PK WND 28033/1229 T00830000
14756KACK ACK20160329074012703/29/16 07:40:31  5-MIN KACK 291240Z 28023G31KT 10SM CLR 08/00 A2964 310 55 -300 300/23G31 RMK AO2 PK WND 28033/1229 T00830000
14756KACK ACK20160329074512703/29/16 07:45:31  5-MIN KACK 291245Z 28021G31KT 10SM CLR 08/00 A2964 310 55 -300 300/21G31 RMK AO2 PK WND 28033/1229 T00830000
14756KACK ACK20160329075013703/29/16 07:50:31  5-MIN KACK 291250Z 28020G30KT 10SM FEW039 09/00 A2964 300 53 -300 300/20G30 RMK AO2 PK WND 28033/1229 SLP038 T00890000
14756KACK ACK20160329075513003/29/16 07:55:31  5-MIN KACK 291255Z 28021G30KT 10SM FEW039 09/01 A2965 300 56 -300 290/21G30 RMK AO2 PK WND 27028/1255 T00890006
14756KACK ACK20160329080013003/29/16 08:00:31  5-MIN KACK 291300Z 28023G31KT 10SM FEW037 09/00 A2965 300 53 -300 300/23G31 RMK AO2 PK WND 28031/1256 T00890000
14756KACK ACK20160329080513003/29/16 08:05:31  5-MIN KACK 291305Z 28024G31KT 10SM FEW037 09/00 A2966 300 53 -300 290/24G31 RMK AO2 PK WND 28031/1256 T00890000
14756KACK ACK20160329081013003/29/16 08:10:31  5-MIN KACK 291310Z 29019G31KT 10SM FEW038 09/00 A2966 290 53 -300 300/19G31 RMK AO2 PK WND 28031/1256 T00890000
14756KACK ACK20160329081513003/29/16 08:15:31  5-MIN KACK 291315Z 28023G30KT 10SM FEW042 09/00 A2966 290 51 -200 290/23G30 RMK AO2 PK WND 28031/1256 T00940000
14756KACK ACK20160329082013003/29/16 08:20:31  5-MIN KACK 291320Z 28020G33KT 10SM SCT042 09/00 A2966 290 53 -300 290/20G33 RMK AO2 PK WND 28033/1316 T00890000
14756KACK ACK20160329082513103/29/16 08:25:31  5-MIN KACK 291325Z 30023G37KT 10SM BKN042 09/M01 A2967 280 51 -300 320/23G37 RMK AO2 PK WND 29037/1321 T00891006
14756KACK ACK20160329083013103/29/16 08:30:31  5-MIN KACK 291330Z 29023G37KT 10SM BKN042 09/M01 A2967 280 51 -300 310/23G37 RMK AO2 PK WND 29037/1321 T00891006
14756KACK ACK20160329083513103/29/16 08:35:31  5-MIN KACK 291335Z 29022G33KT 10SM BKN042 09/M01 A2967 280 51 -300 300/22G33 RMK AO2 PK WND 29037/1321 T00891006
14756KACK ACK20160329084013103/29/16 08:40:31  5-MIN KACK 291340Z 28024G33KT 10SM OVC044 09/M01 A2967 280 51 -300 300/24G33 RMK AO2 PK WND 29037/1321 T00891006
14756KACK ACK20160329084513103/29/16 08:45:31  5-MIN KACK 291345Z 28022G33KT 10SM BKN044 09/M01 A2967 280 49 -200 300/22G33 RMK AO2 PK WND 29037/1321 T00941006
14756KACK ACK20160329085013803/29/16 08:50:31  5-MIN KACK 291350Z 28024G30KT 10SM BKN044 09/M01 A2967 280 49 -200 290/24G30 RMK AO2 PK WND 29037/1321 SLP047 T00941006
14756KACK ACK20160329085513103/29/16 08:55:31  5-MIN KACK 291355Z 29021G33KT 10SM SCT044 09/M01 A2967 280 49 -200 310/21G33 RMK AO2 PK WND 29027/1354 T00941006
14756KACK ACK20160329090013103/29/16 09:00:31  5-MIN KACK 291400Z 28024G33KT 10SM SCT044 09/M01 A2968 270 49 -200 300/24G33 RMK AO2 PK WND 27033/1400 T00941006
14756KACK ACK20160329090513103/29/16 09:05:31  5-MIN KACK 291405Z 29019G33KT 10SM FEW044 10/M01 A2968 270 47 -200 310/19G33 RMK AO2 PK WND 27033/1400 T01001006
14756KACK ACK20160329091013103/29/16 09:10:31  5-MIN KACK 291410Z 28024G34KT 10SM FEW044 10/M01 A2967 280 47 -200 300/24G34 RMK AO2 PK WND 27034/1409 T01001006
14756KACK ACK20160329091512803/29/16 09:15:31  5-MIN KACK 291415Z 29021G34KT 10SM CLR 10/M01 A2968 270 47 -200 310/21G34 RMK AO2 PK WND 27034/1409 T01001006
14756KACK ACK20160329092012803/29/16 09:20:31  5-MIN KACK 291420Z 29019G31KT 10SM CLR 10/M01 A2968 270 47 -200 300/19G31 RMK AO2 PK WND 27034/1409 T01001006
14756KACK ACK20160329092512803/29/16 09:25:31  5-MIN KACK 291425Z 30022G31KT 10SM CLR 10/M01 A2968 270 47 -200 310/22G31 RMK AO2 PK WND 27034/1409 T01001006
14756KACK ACK20160329093012803/29/16 09:30:31  5-MIN KACK 291430Z 30019G30KT 10SM CLR 10/M01 A2968 270 47 -200 320/19G30 RMK AO2 PK WND 27034/1409 T01001006
14756KACK ACK20160329093513103/29/16 09:35:31  5-MIN KACK 291435Z 29017G29KT 10SM FEW039 10/M01 A2969 260 47 -200 310/17G29 RMK AO2 PK WND 27034/1409 T01001006
14756KACK ACK20160329094013003/29/16 09:40:31  5-MIN KACK 291440Z 28019G29KT 10SM FEW039 10/00 A2969 260 49 -200 300/19G29 RMK AO2 PK WND 27034/1409 T01000000
14756KACK ACK20160329094513003/29/16 09:45:31  5-MIN KACK 291445Z 28017G32KT 10SM FEW037 10/00 A2969 260 49 -200 300/17G32 RMK AO2 PK WND 27034/1409 T01000000
14756KACK ACK20160329095014303/29/16 09:50:31  5-MIN KACK 291450Z 28022G32KT 10SM FEW037 09/01 A2969 260 53 -300 290/22G32 RMK AO2 PK WND 27034/1409 SLP054 T00940006 51038
14756KACK ACK20160329095513003/29/16 09:55:31  5-MIN KACK 291455Z 28021G28KT 10SM FEW037 11/01 A2969 260 50 -100 300/21G28 RMK AO2 PK WND 30026/1455 T01060006
14756KACK ACK20160329100013003/29/16 10:00:31  5-MIN KACK 291500Z 27024G31KT 10SM FEW037 11/01 A2969 260 50 -100 290/24G31 RMK AO2 PK WND 26031/1500 T01060006
14756KACK ACK20160329100513003/29/16 10:05:31  5-MIN KACK 291505Z 29024G31KT 10SM FEW035 11/01 A2969 260 50 -100 300/24G31 RMK AO2 PK WND 26031/1500 T01060006
14756KACK ACK20160329101013003/29/16 10:10:31  5-MIN KACK 291510Z 28023G31KT 10SM FEW035 10/01 A2969 260 52 -200 290/23G31 RMK AO2 PK WND 28031/1509 T01000006
14756KACK ACK20160329101513003/29/16 10:15:31  5-MIN KACK 291515Z 29020G31KT 10SM FEW035 10/01 A2969 260 52 -200 300/20G31 RMK AO2 PK WND 28031/1509 T01000006
14756KACK ACK20160329102013003/29/16 10:20:31  5-MIN KACK 291520Z 28023G30KT 10SM FEW035 11/01 A2969 260 50 -100 300/23G30 RMK AO2 PK WND 28031/1509 T01060006
14756KACK ACK20160329102513003/29/16 10:25:31  5-MIN KACK 291525Z 27021G30KT 10SM FEW035 11/01 A2970 260 50 -100 290/21G30 RMK AO2 PK WND 28031/1509 T01060006
14756KACK ACK20160329103013003/29/16 10:30:31  5-MIN KACK 291530Z 28019G29KT 10SM FEW037 11/01 A2970 260 50 -100 290/19G29 RMK AO2 PK WND 28031/1509 T01060006
14756KACK ACK20160329103513003/29/16 10:35:31  5-MIN KACK 291535Z 28017G26KT 10SM FEW037 11/01 A2969 260 50 -100 300/17G26 RMK AO2 PK WND 28031/1509 T01060006
14756KACK ACK20160329104012703/29/16 10:40:31  5-MIN KACK 291540Z 28020G26KT 10SM CLR 11/01 A2969 260 50 -100 300/20G26 RMK AO2 PK WND 28031/1509 T01110011
14756KACK ACK20160329104512703/29/16 10:45:31  5-MIN KACK 291545Z 29020G28KT 10SM CLR 11/01 A2969 260 50 -100 300/20G28 RMK AO2 PK WND 28031/1509 T01060006
14756KACK ACK20160329105013703/29/16 10:50:31  5-MIN KACK 291550Z 29017G30KT 10SM FEW037 11/00 A2970 260 46 -100 300/17G30 RMK AO2 PK WND 28031/1509 SLP056 T01110000
14756KACK ACK20160329105512803/29/16 10:55:31  5-MIN KACK 291555Z 28022G30KT 10SM CLR 11/M01 A2970 260 44 -100 290/22G30 RMK AO2 PK WND 29029/1554 T01111006
14756KACK ACK20160329110012803/29/16 11:00:31  5-MIN KACK 291600Z 29022G31KT 10SM CLR 11/M01 A2970 250 44 -100 300/22G31 RMK AO2 PK WND 28031/1557 T01111006
14756KACK ACK20160329110512803/29/16 11:05:31  5-MIN KACK 291605Z 29018G31KT 10SM CLR 11/M01 A2970 260 44 -100 310/18G31 RMK AO2 PK WND 28031/1557 T01111006
14756KACK ACK20160329111012803/29/16 11:10:31  5-MIN KACK 291610Z 30021G31KT 10SM CLR 11/M01 A2970 260 44 -100 320/21G31 RMK AO2 PK WND 28031/1557 T01111006
14756KACK ACK20160329111512803/29/16 11:15:31  5-MIN KACK 291615Z 30024G31KT 10SM CLR 11/M01 A2970 260 44 -100 310/24G31 RMK AO2 PK WND 28031/1557 T01111006
14756KACK ACK20160329112012803/29/16 11:20:31  5-MIN KACK 291620Z 29021G31KT 10SM CLR 11/M01 A2970 250 44 -100 310/21G31 RMK AO2 PK WND 28031/1557 T01111006
14756KACK ACK20160329112512803/29/16 11:25:31  5-MIN KACK 291625Z 29021G32KT 10SM CLR 11/M01 A2970 250 44 -100 310/21G32 RMK AO2 PK WND 29032/1621 T01111006
14756KACK ACK20160329113012503/29/16 11:30:31  5-MIN KACK 291630Z 29019G33KT 10SM CLR 12/M01 A2970 250 42 0 310/19G33 RMK AO2 PK WND 29033/1626 T01171006
14756KACK ACK20160329113512803/29/16 11:35:31  5-MIN KACK 291635Z 30027G33KT 10SM CLR 11/M01 A2970 250 44 -100 310/27G33 RMK AO2 PK WND 30033/1634 T01111006
14756KACK ACK20160329114012503/29/16 11:40:31  5-MIN KACK 291640Z 30022G33KT 10SM CLR 12/M01 A2970 250 41 0 320/22G33 RMK AO2 PK WND 30033/1634 T01171011
14756KACK ACK20160329114512503/29/16 11:45:31  5-MIN KACK 291645Z 30022G32KT 10SM CLR 12/M01 A2970 250 42 0 320/22G32 RMK AO2 PK WND 30033/1634 T01171006
14756KACK ACK20160329115013403/29/16 11:50:31  5-MIN KACK 291650Z 29022G30KT 10SM FEW037 12/00 A2970 250 44 0 300/22G30 RMK AO2 PK WND 30033/1634 SLP058 T01170000
14756KACK ACK20160329115512503/29/16 11:55:31  5-MIN KACK 291655Z 29021G35KT 10SM CLR 12/M01 A2971 250 42 0 310/21G35 RMK AO2 PK WND 29029/1654 T01171006
14756KACK ACK20160329120012503/29/16 12:00:31  5-MIN KACK 291700Z 30020G35KT 10SM CLR 12/M01 A2971 250 41 0 320/20G35 RMK AO2 PK WND 30031/1657 T01171011
14756KACK ACK20160329120512503/29/16 12:05:31  5-MIN KACK 291705Z 28022G31KT 10SM CLR 12/M01 A2971 240 41 0 300/22G31 RMK AO2 PK WND 30031/1657 T01221006
14756KACK ACK20160329121012503/29/16 12:10:31  5-MIN KACK 291710Z 30019G31KT 10SM CLR 12/M01 A2971 240 39 0 320/19G31 RMK AO2 PK WND 28031/1707 T01221011
14756KACK ACK20160329121512503/29/16 12:15:31  5-MIN KACK 291715Z 29023G31KT 10SM CLR 12/M01 A2971 240 41 0 310/23G31 RMK AO2 PK WND 29031/1715 T01221006
14756KACK ACK20160329122012503/29/16 12:20:31  5-MIN KACK 291720Z 29022G33KT 10SM CLR 12/M01 A2971 240 41 0 310/22G33 RMK AO2 PK WND 28033/1716 T01171011
14756KACK ACK20160329122512503/29/16 12:25:31  5-MIN KACK 291725Z 29018G33KT 10SM CLR 12/M01 A2972 240 41 0 310/18G33 RMK AO2 PK WND 28033/1716 T01171011
14756KACK ACK20160329123012503/29/16 12:30:31  5-MIN KACK 291730Z 29022G31KT 10SM CLR 12/M01 A2972 240 41 0 310/22G31 RMK AO2 PK WND 28033/1716 T01221006
14756KACK ACK20160329123512503/29/16 12:35:31  5-MIN KACK 291735Z 30022G32KT 10SM CLR 12/M01 A2972 240 41 0 320/22G32 RMK AO2 PK WND 28033/1716 T01171011
14756KACK ACK20160329124012503/29/16 12:40:31  5-MIN KACK 291740Z 30020G32KT 10SM CLR 12/M01 A2972 240 39 0 320/20G32 RMK AO2 PK WND 28033/1716 T01221011
14756KACK ACK20160329124512503/29/16 12:45:31  5-MIN KACK 291745Z 30024G30KT 10SM CLR 12/M01 A2972 240 41 0 310/24G30 RMK AO2 PK WND 28033/1716 T01221006
14756KACK ACK20160329125015003/29/16 12:50:31  5-MIN KACK 291750Z 29017G30KT 10SM CLR 12/M01 A2972 240 41 0 300/17G30 RMK AO2 PK WND 28033/1716 SLP064 T01221006 10122 20078 51029
14756KACK ACK20160329125512503/29/16 12:55:31  5-MIN KACK 291755Z 30022G30KT 10SM CLR 12/M01 A2972 240 41 0 310/22G30 RMK AO2 PK WND 30030/1755 T01221006
14756KACK ACK20160329130012503/29/16 13:00:31  5-MIN KACK 291800Z 30023G30KT 10SM CLR 12/M01 A2972 230 41 0 320/23G30 RMK AO2 PK WND 30030/1755 T01221006
14756KACK ACK20160329130512503/29/16 13:05:31  5-MIN KACK 291805Z 30019G30KT 10SM CLR 12/M01 A2972 230 41 0 310/19G30 RMK AO2 PK WND 30030/1755 T01221006
14756KACK ACK20160329131012503/29/16 13:10:31  5-MIN KACK 291810Z 30025G30KT 10SM CLR 12/M01 A2972 230 41 0 310/25G30 RMK AO2 PK WND 28030/1807 T01221006
14756KACK ACK20160329131512703/29/16 13:15:31  5-MIN KACK 291815Z 29020G30KT 10SM CLR 13/M01 A2972 230 39 100 310/20G30 RMK AO2 PK WND 28030/1807 T01281006
14756KACK ACK20160329132012703/29/16 13:20:31  5-MIN KACK 291820Z 30023G29KT 10SM CLR 13/M01 A2972 240 38 100 310/23G29 RMK AO2 PK WND 28030/1807 T01281011
14756KACK ACK20160329132512703/29/16 13:25:31  5-MIN KACK 291825Z 29016G29KT 10SM CLR 13/M01 A2972 240 39 100 310/16G29 RMK AO2 PK WND 28030/1807 T01281006
14756KACK ACK20160329133012703/29/16 13:30:31  5-MIN KACK 291830Z 30023G29KT 10SM CLR 13/M01 A2972 230 38 100 310/23G29 RMK AO2 PK WND 28030/1807 T01281011
14756KACK ACK20160329133512503/29/16 13:35:31  5-MIN KACK 291835Z 29024G34KT 10SM CLR 12/M01 A2972 230 39 0 310/24G34 RMK AO2 PK WND 32034/1831 T01221011
14756KACK ACK20160329134012503/29/16 13:40:31  5-MIN KACK 291840Z 30021G34KT 10SM CLR 12/M01 A2972 230 39 0 310/21G34 RMK AO2 PK WND 32034/1831 T01221011
14756KACK ACK20160329134512703/29/16 13:45:31  5-MIN KACK 291845Z 29022G29KT 10SM CLR 13/M01 A2972 230 39 100 300/22G29 RMK AO2 PK WND 32034/1831 T01281006
14756KACK ACK20160329135013203/29/16 13:50:31  5-MIN KACK 291850Z 29020G30KT 10SM CLR 12/M01 A2972 240 39 0 310/20G30 RMK AO2 PK WND 32034/1831 SLP064 T01221011
14756KACK ACK20160329135512703/29/16 13:55:31  5-MIN KACK 291855Z 30021G30KT 10SM CLR 13/M01 A2972 240 38 100 320/21G30 RMK AO2 PK WND 29028/1854 T01281011
14756KACK ACK20160329140012503/29/16 14:00:31  5-MIN KACK 291900Z 29021G30KT 10SM CLR 12/M01 A2972 230 39 0 310/21G30 RMK AO2 PK WND 29030/1857 T01221011
14756KACK ACK20160329140512503/29/16 14:05:31  5-MIN KACK 291905Z 30021G30KT 10SM CLR 12/M01 A2973 230 39 0 320/21G30 RMK AO2 PK WND 29030/1857 T01221011
14756KACK ACK20160329141012703/29/16 14:10:31  5-MIN KACK 291910Z 29021G29KT 10SM CLR 13/M01 A2973 230 39 100 310/21G29 RMK AO2 PK WND 29030/1857 T01281006
14756KACK ACK20160329141512503/29/16 14:15:31  5-MIN KACK 291915Z 30020G29KT 10SM CLR 12/M01 A2973 230 39 0 310/20G29 RMK AO2 PK WND 29030/1857 T01221011
14756KACK ACK20160329142012703/29/16 14:20:31  5-MIN KACK 291920Z 29020G33KT 10SM CLR 13/M01 A2973 220 38 100 310/20G33 RMK AO2 PK WND 30033/1918 T01281011
14756KACK ACK20160329142512503/29/16 14:25:31  5-MIN KACK 291925Z 29022G33KT 10SM CLR 12/M01 A2973 220 39 0 310/22G33 RMK AO2 PK WND 30033/1918 T01221011
14756KACK ACK20160329143012503/29/16 14:30:31  5-MIN KACK 291930Z 30021G30KT 10SM CLR 13/M01 A2974 220 39 0 310/21G30 RMK AO2 PK WND 30033/1918 T01281006
14756KACK ACK20160329143512503/29/16 14:35:31  5-MIN KACK 291935Z 29023G29KT 10SM CLR 12/M01 A2974 220 39 0 310/23G29 RMK AO2 PK WND 30033/1918 T01221011
14756KACK ACK20160329144012503/29/16 14:40:31  5-MIN KACK 291940Z 29022G30KT 10SM CLR 12/M01 A2974 210 41 0 310/22G30 RMK AO2 PK WND 30033/1918 T01221006
14756KACK ACK20160329144512503/29/16 14:45:31  5-MIN KACK 291945Z 29021G30KT 10SM CLR 12/M01 A2975 210 41 0 310/21G30 RMK AO2 PK WND 30033/1918 T01221006
14756KACK ACK20160329145013203/29/16 14:50:31  5-MIN KACK 291950Z 29023G30KT 10SM CLR 12/M01 A2975 210 39 0 310/23G30 RMK AO2 PK WND 30033/1918 SLP073 T01221011
14756KACK ACK20160329145512503/29/16 14:55:31  5-MIN KACK 291955Z 29022G29KT 10SM CLR 12/M01 A2975 210 41 0 310/22G29 RMK AO2 PK WND 29027/1954 T01221006
14756KACK ACK20160329150012503/29/16 15:00:31  5-MIN KACK 292000Z 29021G27KT 10SM CLR 12/M01 A2975 210 41 0 310/21G27 RMK AO2 PK WND 29028/1956 T01221006
14756KACK ACK20160329150512503/29/16 15:05:31  5-MIN KACK 292005Z 29018G29KT 10SM CLR 12/M01 A2976 200 41 0 300/18G29 RMK AO2 PK WND 30029/2002 T01221006
14756KACK ACK20160329151012503/29/16 15:10:31  5-MIN KACK 292010Z 30017G29KT 10SM CLR 12/M01 A2976 200 41 0 310/17G29 RMK AO2 PK WND 30029/2002 T01221006
14756KACK ACK20160329151512503/29/16 15:15:31  5-MIN KACK 292015Z 29020G29KT 10SM CLR 12/M01 A2976 200 41 0 310/20G29 RMK AO2 PK WND 30029/2011 T01221006
14756KACK ACK20160329152012503/29/16 15:20:31  5-MIN KACK 292020Z 30017G29KT 10SM CLR 12/M01 A2976 190 41 0 320/17G29 RMK AO2 PK WND 30029/2011 T01221006
14756KACK ACK20160329152512503/29/16 15:25:31  5-MIN KACK 292025Z 31020G31KT 10SM CLR 12/M01 A2977 190 41 0 320/20G31 RMK AO2 PK WND 30031/2022 T01221006
14756KACK ACK20160329153012503/29/16 15:30:31  5-MIN KACK 292030Z 30019G31KT 10SM CLR 12/M01 A2977 190 41 0 320/19G31 RMK AO2 PK WND 30031/2022 T01221006
14756KACK ACK20160329153512503/29/16 15:35:31  5-MIN KACK 292035Z 29020G30KT 10SM CLR 12/M01 A2977 190 41 0 310/20G30 RMK AO2 PK WND 30031/2022 T01221006
14756KACK ACK20160329154012503/29/16 15:40:31  5-MIN KACK 292040Z 31020G30KT 10SM CLR 12/M01 A2977 180 41 0 320/20G30 RMK AO2 PK WND 30031/2022 T01221006
14756KACK ACK20160329154512803/29/16 15:45:31  5-MIN KACK 292045Z 30018G25KT 10SM CLR 12/M01 A2978 180 42 -100 320/18G25 RMK AO2 PK WND 30031/2022 T01171006
14756KACK ACK20160329155014103/29/16 15:50:31  5-MIN KACK 292050Z 30017G27KT 10SM CLR 12/M01 A2978 180 42 -100 310/17G27 RMK AO2 PK WND 30031/2022 SLP084 T01171006 53008
14756KACK ACK20160329155511003/29/16 15:55:31  5-MIN KACK 292055Z 30016G27KT 10SM CLR 12/M01 A2978 180 42 -100 320/16G27 RMK AO2 T01171006
14756KACK ACK20160329160012803/29/16 16:00:31  5-MIN KACK 292100Z 30021G29KT 10SM CLR 12/M01 A2978 180 41 -100 320/21G29 RMK AO2 PK WND 29029/2056 T01171011
14756KACK ACK20160329160512803/29/16 16:05:31  5-MIN KACK 292105Z 30018G29KT 10SM CLR 12/M01 A2979 170 41 -100 320/18G29 RMK AO2 PK WND 29029/2056 T01171011
14756KACK ACK20160329161012803/29/16 16:10:31  5-MIN KACK 292110Z 29019G26KT 10SM CLR 12/M01 A2979 170 41 -100 310/19G26 RMK AO2 PK WND 29029/2056 T01171011
14756KACK ACK20160329161512803/29/16 16:15:31  5-MIN KACK 292115Z 30017G26KT 10SM CLR 12/M01 A2980 170 41 -100 310/17G26 RMK AO2 PK WND 29029/2056 T01171011
14756KACK ACK20160329162012203/29/16 16:20:31  5-MIN KACK 292120Z 30016KT 10SM CLR 11/M01 A2980 160 42 -200 320/16 RMK AO2 PK WND 29029/2056 T01111011
14756KACK ACK20160329162512803/29/16 16:25:31  5-MIN KACK 292125Z 31015G24KT 10SM CLR 12/M01 A2980 160 42 -100 320/15G24 RMK AO2 PK WND 29029/2056 T01171006
14756KACK ACK20160329163012803/29/16 16:30:31  5-MIN KACK 292130Z 31015G24KT 10SM CLR 11/M01 A2981 150 44 -200 330/15G24 RMK AO2 PK WND 29029/2056 T01111006
14756KACK ACK20160329163512703/29/16 16:35:31  5-MIN KACK 292135Z 30013G24KT 10SM CLR 11/00 A2981 150 46 -200 320/13G24 RMK AO2 PK WND 29029/2056 T01110000
14756KACK ACK20160329164013103/29/16 16:40:31  5-MIN KACK 292140Z 30015G24KT 10SM FEW060 11/M01 A2981 150 44 -200 320/15G24 RMK AO2 PK WND 29029/2056 T01111006
14756KACK ACK20160329164512503/29/16 16:45:31  5-MIN KACK 292145Z 31016KT 10SM SCT065 11/M01 A2982 150 44 -200 330/16 RMK AO2 PK WND 29029/2056 T01111006
14756KACK ACK20160329165013803/29/16 16:50:31  5-MIN KACK 292150Z 33014G21KT 10SM BKN065 11/M01 A2982 140 44 -200 340/14G21 RMK AO2 PK WND 29029/2056 SLP098 T01111006
14756KACK ACK20160329165511203/29/16 16:55:31  5-MIN KACK 292155Z 32013G21KT 10SM BKN065 11/01 A2982 140 48 -200 330/13G21 RMK AO2 T01110006
14756KACK ACK20160329170010603/29/16 17:00:31  5-MIN KACK 292200Z 32010KT 10SM SCT065 11/01 A2983 130 52 -300 340/10 RMK AO2 T01060011
14756KACK ACK20160329170510603/29/16 17:05:31  5-MIN KACK 292205Z 34011KT 10SM SCT065 10/01 A2983 130 54 -300 350/11 RMK AO2 T01000011
14756KACK ACK20160329171010603/29/16 17:10:31  5-MIN KACK 292210Z 33012KT 10SM SCT065 09/01 A2984 130 53 -400 340/12 RMK AO2 T00940006
14756KACK ACK20160329171510603/29/16 17:15:31  5-MIN KACK 292215Z 34012KT 10SM FEW065 09/01 A2984 120 53 -400 350/12 RMK AO2 T00940006
14756KACK ACK20160329172010603/29/16 17:20:31  5-MIN KACK 292220Z 34014KT 10SM FEW065 09/01 A2985 120 53 -400 360/14 RMK AO2 T00940006
14756KACK ACK20160329172510603/29/16 17:25:31  5-MIN KACK 292225Z 35015KT 10SM SCT065 09/01 A2985 110 53 -400 360/15 RMK AO2 T00940006
14756KACK ACK20160329173010603/29/16 17:30:31  5-MIN KACK 292230Z 34016KT 10SM BKN065 09/00 A2986 110 53 -500 360/16 RMK AO2 T00890000
14756KACK ACK20160329173511203/29/16 17:35:31  5-MIN KACK 292235Z 35016G22KT 10SM BKN065 09/00 A2986 110 53 -500 360/16G22 RMK AO2 T00890000
14756KACK ACK20160329174011203/29/16 17:40:31  5-MIN KACK 292240Z 35015G22KT 10SM BKN060 09/00 A2986 100 53 -500 360/15G22 RMK AO2 T00890000
14756KACK ACK20160329174510603/29/16 17:45:31  5-MIN KACK 292245Z 35017KT 10SM BKN060 09/00 A2987 100 53 -500 360/17 RMK AO2 T00890000
14756KACK ACK20160329175011303/29/16 17:50:31  5-MIN KACK 292250Z 35016KT 10SM OVC060 09/00 A2987 100 53 -500 360/16 RMK AO2 SLP114 T00890000
14756KACK ACK20160329175511103/29/16 17:55:31  5-MIN KACK 292255Z 35017G23KT 10SM BKN060 09/00 A2987 90 53 -500 360/17G23 RMK AO2 T00890000
14756KACK ACK20160329180011103/29/16 18:00:31  5-MIN KACK 292300Z 35014G22KT 10SM BKN060 09/00 A2988 90 53 -500 010/14G22 RMK AO2 T00890000
14756KACK ACK20160329180511103/29/16 18:05:31  5-MIN KACK 292305Z 35016G22KT 10SM BKN060 08/00 A2988 90 55 -600 010/16G22 RMK AO2 T00830000
14756KACK ACK20160329181010503/29/16 18:10:31  5-MIN KACK 292310Z 35017KT 10SM BKN060 08/00 A2988 80 55 -600 360/17 RMK AO2 T00830000
14756KACK ACK20160329181511203/29/16 18:15:31  5-MIN KACK 292315Z 35019G22KT 10SM BKN060 08/M01 A2989 80 53 -600 360/19G22 RMK AO2 T00831006
14756KACK ACK20160329182011203/29/16 18:20:31  5-MIN KACK 292320Z 35019G24KT 10SM BKN060 08/M01 A2989 80 53 -600 360/19G24 RMK AO2 T00831006
14756KACK ACK20160329182511203/29/16 18:25:31  5-MIN KACK 292325Z 35018G24KT 10SM BKN060 08/M01 A2990 70 53 -600 360/18G24 RMK AO2 T00831006
14756KACK ACK20160329183010603/29/16 18:30:31  5-MIN KACK 292330Z 35018KT 10SM BKN060 08/M01 A2990 70 55 -700 360/18 RMK AO2 T00781006
14756KACK ACK20160329183511203/29/16 18:35:31  5-MIN KACK 292335Z 35018G24KT 10SM BKN060 08/M01 A2990 60 55 -700 360/18G24 RMK AO2 T00781006
14756KACK ACK20160329184011203/29/16 18:40:31  5-MIN KACK 292340Z 35018G24KT 10SM BKN060 08/M01 A2991 60 55 -700 360/18G24 RMK AO2 T00781006
14756KACK ACK20160329184511203/29/16 18:45:31  5-MIN KACK 292345Z 35019G24KT 10SM BKN060 08/M01 A2992 50 55 -700 360/19G24 RMK AO2 T00781006
14756KACK ACK20160329185013703/29/16 18:50:31  5-MIN KACK 292350Z 35017G25KT 10SM FEW060 08/M01 A2992 50 55 -700 360/17G25 RMK AO2 SLP132 T00781006 10128 20078 53021
14756KACK ACK20160329185511903/29/16 18:55:31  5-MIN KACK 292355Z 35017G25KT 10SM FEW060 08/M01 A2993 40 55 -700 360/17G25 RMK AO2 PRESRR T00781006
14756KACK ACK20160329190013403/29/16 19:00:31  5-MIN KACK 300000Z 35020G27KT 10SM CLR 08/M01 A2993 40 55 -700 360/20G27 RMK AO2 PK WND 35027/0000 PRESRR T00781006
14756KACK ACK20160329190512703/29/16 19:05:31  5-MIN KACK 300005Z 35017G27KT 10SM CLR 08/M01 A2994 30 55 -700 360/17G27 RMK AO2 PK WND 35027/0000 T00781006
14756KACK ACK20160329191013403/29/16 19:10:31  5-MIN KACK 300010Z 35017G24KT 10SM CLR 08/M01 A2995 30 53 -700 360/17G24 RMK AO2 PK WND 35027/0000 PRESRR T00781011
14756KACK ACK20160329191512703/29/16 19:15:31  5-MIN KACK 300015Z 35019G24KT 10SM CLR 08/M01 A2995 20 55 -800 360/19G24 RMK AO2 PK WND 35027/0000 T00781006
14756KACK ACK20160329192013403/29/16 19:20:31  5-MIN KACK 300020Z 35019G28KT 10SM CLR 08/M01 A2996 10 53 -800 360/19G28 RMK AO2 PK WND 35028/0017 PRESRR T00781011
14756KACK ACK20160329192513403/29/16 19:25:31  5-MIN KACK 300025Z 35020G28KT 10SM CLR 08/M01 A2997 10 53 -800 010/20G28 RMK AO2 PK WND 35028/0017 PRESRR T00781011
14756KACK ACK20160329193013303/29/16 19:30:31  5-MIN KACK 300030Z 35016G28KT 10SM CLR 07/M01 A2997 0 55 -800 360/16G28 RMK AO2 PK WND 35028/0026 PRESRR T00721011
14756KACK ACK20160329193513303/29/16 19:35:31  5-MIN KACK 300035Z 35018G28KT 10SM CLR 07/M01 A2998 0 55 -900 360/18G28 RMK AO2 PK WND 35028/0026 PRESRR T00721011
14756KACK ACK20160329194012703/29/16 19:40:31  5-MIN KACK 300040Z 35015KT 10SM CLR 07/M01 A2998 0 55 -900 010/15 RMK AO2 PK WND 35028/0026 PRESRR T00721011
14756KACK ACK20160329194513503/29/16 19:45:31  5-MIN KACK 300045Z 35018G24KT 10SM CLR 07/M01 A2999 -10 55 -900 360/18G24 RMK AO2 PK WND 35028/0026 PRESRR T00721011
14756KACK ACK20160329195013503/29/16 19:50:31  5-MIN KACK 300050Z 35018G25KT 10SM CLR 07/M01 A2999 -10 55 -900 010/18G25 RMK AO2 PK WND 35028/0026 SLP156 T00721011
14756KACK ACK20160329195511703/29/16 19:55:31  5-MIN KACK 300055Z 35016G26KT 10SM CLR 07/M01 A3000 -20 55 -900 360/16G26 RMK AO2 PRESRR T00721011
14756KACK ACK20160329200011003/29/16 20:00:31  5-MIN KACK 300100Z 35018G26KT 10SM CLR 07/M01 A3000 -20 55 -900 360/18G26 RMK AO2 T00721011
14756KACK ACK20160329200512703/29/16 20:05:31  5-MIN KACK 300105Z AUTO 35018G24KT 10SM CLR 07/M02 A3001 -30 53 -900 360/18G24 RMK AO2 PRESRR T00721017 TSNO
14756KACK ACK20160329201012003/29/16 20:10:31  5-MIN KACK 300110Z AUTO 35016G24KT 10SM CLR 07/M02 A3002 -30 53 -900 010/16G24 RMK AO2 T00721017 TSNO
14756KACK ACK20160329201512003/29/16 20:15:31  5-MIN KACK 300115Z AUTO 35018G23KT 10SM CLR 07/M02 A3002 -40 53 -900 360/18G23 RMK AO2 T00721017 TSNO
14756KACK ACK20160329202012003/29/16 20:20:31  5-MIN KACK 300120Z AUTO 35017G23KT 10SM CLR 07/M02 A3002 -40 53 -900 360/17G23 RMK AO2 T00721017 TSNO
14756KACK ACK20160329202511403/29/16 20:25:31  5-MIN KACK 300125Z AUTO 36016KT 10SM CLR 07/M02 A3003 -50 53 -900 010/16 RMK AO2 T00721017 TSNO
14756KACK ACK20160329203012003/29/16 20:30:31  5-MIN KACK 300130Z AUTO 35016G22KT 10SM CLR 07/M02 A3003 -50 53 -900 010/16G22 RMK AO2 T00721017 TSNO
14756KACK ACK20160329203512103/29/16 20:35:31  5-MIN KACK 300135Z AUTO 35016G22KT 10SM CLR 07/M01 A3004 -60 57 -1000 010/16G22 RMK AO2 T00671011 TSNO
14756KACK ACK20160329204012103/29/16 20:40:31  5-MIN KACK 300140Z AUTO 35019G23KT 10SM CLR 07/M02 A3004 -60 55 -1000 360/19G23 RMK AO2 T00671017 TSNO
14756KACK ACK20160329204513903/29/16 20:45:31  5-MIN KACK 300145Z AUTO 35019G27KT 10SM CLR 07/M02 A3005 -60 55 -1000 360/19G27 RMK AO2 PK WND 35027/0145 T00671017 TSNO
14756KACK ACK20160329205014603/29/16 20:50:31  5-MIN KACK 300150Z AUTO 35018G27KT 10SM CLR 07/M02 A3005 -60 55 -1000 360/18G27 RMK AO2 PK WND 35027/0145 SLP175 T00671017 TSNO
14756KACK ACK20160329205512103/29/16 20:55:31  5-MIN KACK 300155Z AUTO 35019G27KT 10SM CLR 07/M02 A3005 -70 53 -1000 360/19G27 RMK AO2 T00671022 TSNO
14756KACK ACK20160329210013903/29/16 21:00:31  5-MIN KACK 300200Z AUTO 34020G28KT 10SM CLR 07/M03 A3006 -70 51 -1000 360/20G28 RMK AO2 PK WND 35028/0158 T00671028 TSNO
14756KACK ACK20160329210513903/29/16 21:05:31  5-MIN KACK 300205Z AUTO 34020G28KT 10SM CLR 07/M03 A3006 -70 49 -1000 360/20G28 RMK AO2 PK WND 34028/0201 T00671033 TSNO
14756KACK ACK20160329211013903/29/16 21:10:31  5-MIN KACK 300210Z AUTO 34022G28KT 10SM CLR 07/M03 A3006 -80 49 -1000 360/22G28 RMK AO2 PK WND 34028/0201 T00671033 TSNO
14756KACK ACK20160329211512203/29/16 21:15:31  5-MIN KACK 300215Z AUTO 34022G28KT 10SM CLR 07/M04 A300703/29/16 03/29/16 2CK 03/.6840R5:31  5`0`03eX6 
14756KACK ACK20160330061010603/30/16 06:10:31  5-MIN KACK 301110Z 32006KT 10SM CLR 04/M05 A3030 -290 52 -1600 330/06 RMK AO2 T00391050
14756KACK ACK20160330061510603/30/16 06:15:31  5-MIN KACK 301115Z 31006KT 10SM CLR 04/M05 A3030 -290 50 -1600 330/06 RMK AO2 T00441050
14756KACK ACK20160330062010603/30/16 06:20:31  5-MIN KACK 301120Z 31006KT 10SM CLR 04/M05 A3030 -300 50 -1600 330/06 RMK AO2 T00441050
14756KACK ACK20160330062510603/30/16 06:25:31  5-MIN KACK 301125Z 33006KT 10SM CLR 05/M05 A3030 -300 48 -1500 340/06 RMK AO2 T00501050
14756KACK ACK20160330063010603/30/16 06:30:31  5-MIN KACK 301130Z 32007KT 10SM CLR 05/M04 A3030 -300 50 -1500 340/07 RMK AO2 T00501044
14756KACK ACK20160330063510603/30/16 06:35:31  5-MIN KACK 301135Z 31007KT 10SM CLR 06/M04 A3030 -300 48 -1400 320/07 RMK AO2 T00561044
14756KACK ACK20160330064010603/30/16 06:40:31  5-MIN KACK 301140Z 31008KT 10SM CLR 06/M05 A3031 -300 46 -1400 330/08 RMK AO2 T00561050
14756KACK ACK20160330064510603/30/16 06:45:31  5-MIN KACK 301145Z 31008KT 10SM CLR 06/M05 A3031 -300 46 -1400 330/08 RMK AO2 T00561050
14756KACK ACK20160330065013103/30/16 06:50:31  5-MIN KACK 301150Z 32008KT 10SM CLR 06/M05 A3031 -300 46 -1400 330/08 RMK AO2 SLP262 T00561050 10056 20033 53020
14756KACK ACK20160330065510603/30/16 06:55:31  5-MIN KACK 301155Z 31007KT 10SM CLR 06/M05 A3031 -300 46 -1400 330/07 RMK AO2 T00561050
14756KACK ACK20160330070010603/30/16 07:00:31  5-MIN KACK 301200Z 31008KT 10SM CLR 06/M05 A3031 -300 46 -1400 320/08 RMK AO2 T00561050
14756KACK ACK20160330070510603/30/16 07:05:31  5-MIN KACK 301205Z 32007KT 10SM CLR 06/M04 A3031 -300 46 -1400 340/07 RMK AO2 T00611044
14756KACK ACK20160330071010603/30/16 07:10:31  5-MIN KACK 301210Z 32010KT 10SM CLR 06/M05 A3031 -310 45 -1400 340/10 RMK AO2 T00611050
14756KACK ACK20160330071510603/30/16 07:15:31  5-MIN KACK 301215Z 33010KT 10SM CLR 06/M05 A3032 -310 45 -1400 350/10 RMK AO2 T00611050
14756KACK ACK20160330072010603/30/16 07:20:31  5-MIN KACK 301220Z 31009KT 10SM CLR 06/M05 A3032 -320 45 -1400 330/09 RMK AO2 T00611050
14756KACK ACK20160330072510603/30/16 07:25:31  5-MIN KACK 301225Z 31009KT 10SM CLR 06/M05 A3032 -320 45 -1400 320/09 RMK AO2 T00611050
14756KACK ACK20160330073010603/30/16 07:30:31  5-MIN KACK 301230Z 32008KT 10SM CLR 06/M05 A3032 -310 45 -1400 330/08 RMK AO2 T00611050
14756KACK ACK20160330073510603/30/16 07:35:31  5-MIN KACK 301235Z 32008KT 10SM CLR 06/M05 A3032 -320 45 -1400 340/08 RMK AO2 T00611050
14756KACK ACK20160330074010603/30/16 07:40:31  5-MIN KACK 301240Z 32009KT 10SM CLR 07/M05 A3033 -320 43 -1300 340/09 RMK AO2 T00671050
14756KACK ACK20160330074510603/30/16 07:45:31  5-MIN KACK 301245Z 30007KT 10SM CLR 06/M06 A3033 -320 43 -1400 320/07 RMK AO2 T00611056
14756KACK ACK20160330075011303/30/16 07:50:31  5-MIN KACK 301250Z 33008KT 10SM CLR 07/M05 A3032 -320 43 -1300 350/08 RMK AO2 SLP268 T00671050
14756KACK ACK20160330075510603/30/16 07:55:31  5-MIN KACK 301255Z 31006KT 10SM CLR 07/M05 A3033 -320 43 -1300 330/06 RMK AO2 T00671050
14756KACK ACK20160330080010603/30/16 08:00:31  5-MIN KACK 301300Z 30006KT 10SM CLR 07/M06 A3033 -320 41 -1300 310/06 RMK AO2 T00671056
14756KACK ACK20160330080510603/30/16 08:05:31  5-MIN KACK 301305Z 32008KT 10SM CLR 07/M06 A3033 -330 41 -1300 340/08 RMK AO2 T00671056
14756KACK ACK20160330081010603/30/16 08:10:31  5-MIN KACK 301310Z 31008KT 10SM CLR 07/M06 A3034 -330 41 -1300 320/08 RMK AO2 T00671056
14756KACK ACK20160330081510603/30/16 08:15:31  5-MIN KACK 301315Z 32008KT 10SM CLR 07/M06 A3034 -330 41 -1300 340/08 RMK AO2 T00671056
14756KACK ACK20160330082010603/30/16 08:20:31  5-MIN KACK 301320Z 33008KT 10SM CLR 07/M05 A3034 -330 41 -1300 350/08 RMK AO2 T00721050
14756KACK ACK20160330082510603/30/16 08:25:31  5-MIN KACK 301325Z 32007KT 10SM CLR 07/M05 A3034 -330 41 -1300 340/07 RMK AO2 T00721050
14756KACK ACK20160330083010603/30/16 08:30:31  5-MIN KACK 301330Z 30007KT 10SM CLR 07/M06 A3034 -330 40 -1300 310/07 RMK AO2 T00721056
14756KACK ACK20160330083510603/30/16 08:35:31  5-MIN KACK 301335Z 33005KT 10SM CLR 07/M06 A3034 -330 41 -1300 340/05 RMK AO2 T00671056
14756KACK ACK20160330084010603/30/16 08:40:31  5-MIN KACK 301340Z 30005KT 10SM CLR 07/M05 A3034 -330 41 -1300 310/05 RMK AO2 T00721050
14756KACK ACK20160330084510603/30/16 08:45:31  5-MIN KACK 301345Z 32007KT 10SM CLR 07/M06 A3034 -330 40 -1300 340/07 RMK AO2 T00721056
14756KACK ACK20160330085011303/30/16 08:50:31  5-MIN KACK 301350Z 31005KT 10SM CLR 07/M06 A3035 -340 40 -1300 330/05 RMK AO2 SLP275 T00721056
14756KACK ACK20160330085510603/30/16 08:55:31  5-MIN KACK 301355Z VRB04KT 10SM CLR 07/M06 A3035 -340 38 -1300 VRB/04 RMK AO2 T00721061
14756KACK ACK20160330090010603/30/16 09:00:31  5-MIN KACK 301400Z VRB05KT 10SM CLR 08/M06 A3035 -340 38 -1200 VRB/05 RMK AO2 T00781056
14756KACK ACK20160330090510603/30/16 09:05:31  5-MIN KACK 301405Z 27007KT 10SM CLR 08/M06 A3035 -340 37 -1100 280/07 RMK AO2 T00831056
14756KACK ACK20160330091009603/30/16 09:10:31  5-MIN KACK 301410Z 10SM CLR 08/M06 A3035 -340 38 -1200 M /M RMK AO2 T00781056
14756KACK ACK20160330091510603/30/16 09:15:31  5-MIN KACK 301415Z 30005KT 10SM CLR 08/M06 A3035 -340 38 -1200 310/05 RMK AO2 T00781056
14756KACK ACK20160330092010603/30/16 09:20:31  5-MIN KACK 301420Z 24008KT 10SM CLR 08/M07 A3035 -350 35 -1200 260/08 RMK AO2 T00781067
14756KACK ACK20160330092510603/30/16 09:25:31  5-MIN KACK 301425Z 22011KT 10SM CLR 08/M07 A3036 -350 32 -1100 240/11 RMK AO2 T00831072
14756KACK ACK20160330093010603/30/16 09:30:31  5-MIN KACK 301430Z 23011KT 10SM CLR 08/M08 A3035 -340 32 -1200 250/11 RMK AO2 T00781078
14756KACK ACK20160330093510603/30/16 09:35:31  5-MIN KACK 301435Z 22011KT 10SM CLR 08/M08 A3036 -350 32 -1200 240/11 RMK AO2 T00781078
14756KACK ACK20160330094010603/30/16 09:40:31  5-MIN KACK 301440Z 22010KT 10SM CLR 08/M08 A3035 -340 31 -1200 240/10 RMK AO2 T00781083
14756KACK ACK20160330094510603/30/16 09:45:31  5-MIN KACK 301445Z 23009KT 10SM CLR 08/M08 A3035 -340 32 -1200 250/09 RMK AO2 T00781078
14756KACK ACK20160330095011903/30/16 09:50:31  5-MIN KACK 301450Z 23011KT 10SM CLR 08/M08 A3035 -340 31 -1200 240/11 RMK AO2 SLP277 T00781083 51028
14756KACK ACK20160330095510603/30/16 09:55:31  5-MIN KACK 301455Z 23009KT 10SM CLR 08/M08 A3035 -340 31 -1200 250/09 RMK AO2 T00781083
14756KACK ACK20160330100010603/30/16 10:00:31  5-MIN KACK 301500Z 22010KT 10SM CLR 08/M07 A3035 -340 32 -1100 240/10 RMK AO2 T00831072
14756KACK ACK20160330100510603/30/16 10:05:31  5-MIN KACK 301505Z 23010KT 10SM CLR 08/M07 A3035 -340 34 -1200 240/10 RMK AO2 T00781072
14756KACK ACK20160330101010603/30/16 10:10:31  5-MIN KACK 301510Z 23008KT 10SM CLR 08/M07 A3035 -340 35 -1200 240/08 RMK AO2 T00781067
14756KACK ACK20160330101510603/30/16 10:15:31  5-MIN KACK 301515Z 23010KT 10SM CLR 08/M07 A3035 -340 35 -1200 240/10 RMK AO2 T00781067
14756KACK ACK20160330102010603/30/16 10:20:31  5-MIN KACK 301520Z 23009KT 10SM CLR 08/M07 A3035 -340 35 -1200 250/09 RMK AO2 T00781067
14756KACK ACK20160330102510603/30/16 10:25:31  5-MIN KACK 301525Z 23010KT 10SM CLR 08/M07 A3035 -340 35 -1200 250/10 RMK AO2 T00781067
14756KACK ACK20160330103010603/30/16 10:30:31  5-MIN KACK 301530Z 24009KT 10SM CLR 08/M06 A3034 -330 37 -1100 250/09 RMK AO2 T00831056
14756KACK ACK20160330103510603/30/16 10:35:31  5-MIN KACK 301535Z 23009KT 10SM CLR 08/M06 A3034 -330 36 -1200 250/09 RMK AO2 T00781061
14756KACK ACK20160330104010603/30/16 10:40:31  5-MIN KACK 301540Z 22010KT 10SM CLR 08/M06 A3034 -330 37 -1100 230/10 RMK AO2 T00831056
14756KACK ACK20160330104510603/30/16 10:45:31  5-MIN KACK 301545Z 21009KT 10SM CLR 07/M05 A3033 -320 41 -1300 230/09 RMK AO2 T00721050
14756KACK ACK20160330105011303/30/16 10:50:31  5-MIN KACK 301550Z 23009KT 10SM CLR 07/M05 A3034 -330 41 -1300 250/09 RMK AO2 SLP272 T00721050
14756KACK ACK20160330105510603/30/16 10:55:31  5-MIN KACK 301555Z 23009KT 10SM CLR 07/M05 A3033 -320 41 -1300 240/09 RMK AO2 T00721050
14756KACK ACK20160330110010603/30/16 11:00:31  5-MIN KACK 301600Z 21010KT 10SM CLR 08/M05 A3033 -320 40 -1200 230/10 RMK AO2 T00781050
14756KACK ACK20160330110510603/30/16 11:05:31  5-MIN KACK 301605Z 21008KT 10SM CLR 07/M05 A3033 -320 41 -1300 230/08 RMK AO2 T00721050
14756KACK ACK20160330111010603/30/16 11:10:31  5-MIN KACK 301610Z 23009KT 10SM CLR 08/M04 A3033 -320 41 -1200 240/09 RMK AO2 T00781044
14756KACK ACK20160330111510603/30/16 11:15:31  5-MIN KACK 301615Z 23008KT 10SM CLR 07/M04 A3033 -320 43 -1300 240/08 RMK AO2 T00721044
14756KACK ACK20160330112010603/30/16 11:20:31  5-MIN KACK 301620Z 22009KT 10SM CLR 08/M04 A3033 -330 41 -1200 240/09 RMK AO2 T00781044
14756KACK ACK20160330112510603/30/16 11:25:31  5-MIN KACK 301625Z 24010KT 10SM CLR 08/M04 A3033 -320 42 -1100 250/10 RMK AO2 T00831039
14756KACK ACK20160330113010603/30/16 11:30:31  5-MIN KACK 301630Z 23010KT 10SM CLR 08/M04 A3033 -320 41 -1200 240/10 RMK AO2 T00781044
14756KACK ACK20160330113510603/30/16 11:35:31  5-MIN KACK 301635Z 23009KT 10SM CLR 08/M04 A3033 -320 41 -1200 240/09 RMK AO2 T00781044
14756KACK ACK20160330114010603/30/16 11:40:31  5-MIN KACK 301640Z 22011KT 10SM CLR 08/M04 A3033 -320 43 -1200 230/11 RMK AO2 T00781039
14756KACK ACK20160330114510603/30/16 11:45:31  5-MIN KACK 301645Z 22011KT 10SM CLR 08/M04 A3032 -320 43 -1200 240/11 RMK AO2 T00781039
14756KACK ACK20160330115011303/30/16 11:50:31  5-MIN KACK 301650Z 24011KT 10SM CLR 08/M04 A3032 -320 43 -1200 250/11 RMK AO2 SLP268 T00781039
14756KACK ACK20160330115510603/30/16 11:55:31  5-MIN KACK 301655Z 23012KT 10SM CLR 08/M04 A3033 -320 43 -1200 240/12 RMK AO2 T00781039
14756KACK ACK20160330120010603/30/16 12:00:31  5-MIN KACK 301700Z 23011KT 10SM CLR 08/M04 A3032 -320 43 -1200 240/11 RMK AO2 T00781039
14756KACK ACK20160330120510603/30/16 12:05:31  5-MIN KACK 301705Z 22011KT 10SM CLR 08/M04 A3032 -320 43 -1200 230/11 RMK AO2 T00781039
14756KACK ACK20160330121010603/30/16 12:10:31  5-MIN KACK 301710Z 22010KT 10SM CLR 08/M04 A3032 -310 43 -1200 240/10 RMK AO2 T00781039
14756KACK ACK20160330121510603/30/16 12:15:31  5-MIN KACK 301715Z 22012KT 10SM CLR 08/M04 A3032 -310 43 -1200 240/12 RMK AO2 T00781039
14756KACK ACK20160330122010603/30/16 12:20:31  5-MIN KACK 301720Z 22013KT 10SM CLR 08/M04 A3032 -310 41 -1200 240/13 RMK AO2 T00781044
14756KACK ACK20160330122510603/30/16 12:25:31  5-MIN KACK 301725Z 22011KT 10SM CLR 08/M04 A3032 -310 41 -1200 230/11 RMK AO2 T00781044
14756KACK ACK20160330123010603/30/16 12:30:31  5-MIN KACK 301730Z 22012KT 10SM CLR 08/M04 A3032 -310 42 -1100 240/12 RMK AO2 T00831039
14756KACK ACK20160330123510603/30/16 12:35:31  5-MIN KACK 301735Z 22012KT 10SM CLR 08/M04 A3031 -310 43 -1200 230/12 RMK AO2 T00781039
14756KACK ACK20160330124010603/30/16 12:40:31  5-MIN KACK 301740Z 23013KT 10SM CLR 08/M04 A3031 -310 43 -1200 250/13 RMK AO2 T00781039
14756KACK ACK20160330124510603/30/16 12:45:31  5-MIN KACK 301745Z 22013KT 10SM CLR 08/M04 A3031 -310 43 -1200 230/13 RMK AO2 T00781039
14756KACK ACK20160330125013103/30/16 12:50:31  5-MIN KACK 301750Z 22013KT 10SM CLR 08/M04 A3032 -310 41 -1200 230/13 RMK AO2 SLP265 T00781044 10083 20056 51014
14756KACK ACK20160330125510603/30/16 12:55:31  5-MIN KACK 301755Z 22013KT 10SM CLR 08/M04 A3031 -310 43 -1200 240/13 RMK AO2 T00781039
14756KACK ACK20160330130010603/30/16 13:00:31  5-MIN KACK 301800Z 22012KT 10SM CLR 08/M04 A3031 -310 43 -1200 240/12 RMK AO2 T00781039
14756KACK ACK20160330130510603/30/16 13:05:31  5-MIN KACK 301805Z 22014KT 10SM CLR 08/M03 A3031 -310 45 -1100 240/14 RMK AO2 T00831028
14756KACK ACK20160330131010603/30/16 13:10:31  5-MIN KACK 301810Z 22015KT 10SM CLR 08/M02 A3031 -310 49 -1200 240/15 RMK AO2 T00781022
14756KACK ACK20160330131510603/30/16 13:15:31  5-MIN KACK 301815Z 23014KT 10SM CLR 08/M03 A3031 -310 45 -1100 240/14 RMK AO2 T00831028
14756KACK ACK20160330132010603/30/16 13:20:31  5-MIN KACK 301820Z 22014KT 10SM CLR 08/M03 A3031 -300 45 -1100 230/14 RMK AO2 T00831028
14756KACK ACK20160330132510603/30/16 13:25:31  5-MIN KACK 301825Z 21015KT 10SM CLR 08/M03 A3031 -300 43 -1100 230/15 RMK AO2 T00831033
14756KACK ACK20160330133010603/30/16 13:30:31  5-MIN KACK 301830Z 22016KT 10SM CLR 08/M03 A3031 -300 43 -1100 240/16 RMK AO2 T00831033
14756KACK ACK20160330133510603/30/16 13:35:31  5-MIN KACK 301835Z 23017KT 10SM CLR 08/M03 A3031 -300 45 -1200 240/17 RMK AO2 T00781033
14756KACK ACK20160330134010603/30/16 13:40:31  5-MIN KACK 301840Z 22013KT 10SM CLR 08/M03 A3031 -300 45 -1100 230/13 RMK AO2 T00831028
14756KACK ACK20160330134510603/30/16 13:45:31  5-MIN KACK 301845Z 23015KT 10SM CLR 08/M03 A3030 -300 43 -1100 240/15 RMK AO2 T00831033
14756KACK ACK20160330135011303/30/16 13:50:31  5-MIN KACK 301850Z 22015KT 10SM CLR 08/M03 A3030 -300 45 -1200 240/15 RMK AO2 SLP262 T00781033
14756KACK ACK20160330135510603/30/16 13:55:31  5-MIN KACK 301855Z 23018KT 10SM CLR 08/M03 A3030 -300 45 -1100 250/18 RMK AO2 T00831028
14756KACK ACK20160330140010603/30/16 14:00:31  5-MIN KACK 301900Z 22016KT 10SM CLR 08/M03 A3030 -300 45 -1100 230/16 RMK AO2 T00831028
14756KACK ACK20160330140510603/30/16 14:05:31  5-MIN KACK 301905Z 22017KT 10SM CLR 08/M03 A3031 -300 45 -1100 240/17 RMK AO2 T00831028
14756KACK ACK20160330141010603/30/16 14:10:31  5-MIN KACK 301910Z 22016KT 10SM CLR 08/M02 A3031 -300 47 -1100 240/16 RMK AO2 T00831022
14756KACK ACK20160330141510603/30/16 14:15:31  5-MIN KACK 301915Z 22017KT 10SM CLR 08/M02 A3031 -300 47 -1100 240/17 RMK AO2 T00831022
14756KACK ACK20160330142010603/30/16 14:20:31  5-MIN KACK 301920Z 22016KT 10SM CLR 08/M03 A3031 -300 47 -1200 240/16 RMK AO2 T00781028
14756KACK ACK20160330142510603/30/16 14:25:31  5-MIN KACK 301925Z 23018KT 10SM CLR 08/M02 A3031 -300 47 -1100 240/18 RMK AO2 T00831022
14756KACK ACK20160330143010603/30/16 14:30:31  5-MIN KACK 301930Z 23018KT 10SM CLR 08/M03 A3030 -300 45 -1100 240/18 RMK AO2 T00831028
14756KACK ACK20160330143510603/30/16 14:35:31  5-MIN KACK 301935Z 23019KT 10SM CLR 08/M02 A3030 -300 47 -1100 240/19 RMK AO2 T00831022
14756KACK ACK20160330144010603/30/16 14:40:31  5-MIN KACK 301940Z 22016KT 10SM CLR 08/M02 A3030 -300 49 -1200 240/16 RMK AO2 T00781022
14756KACK ACK20160330144510603/30/16 14:45:31  5-MIN KACK 301945Z 23018KT 10SM CLR 08/M02 A3030 -300 47 -1100 240/18 RMK AO2 T00831022
14756KACK ACK20160330145011303/30/16 14:50:31  5-MIN KACK 301950Z 23017KT 10SM CLR 08/M02 A3030 -300 49 -1200 240/17 RMK AO2 SLP260 T00781022
14756KACK ACK20160330145510603/30/16 14:55:31  5-MIN KACK 301955Z 23018KT 10SM CLR 08/M02 A3030 -300 51 -1200 240/18 RMK AO2 T00781017
14756KACK ACK20160330150010603/30/16 15:00:31  5-MIN KACK 302000Z 23018KT 10SM CLR 08/M02 A3030 -300 49 -1100 250/18 RMK AO2 T00831017
14756KACK ACK20160330150510603/30/16 15:05:31  5-MIN KACK 302005Z 23019KT 10SM CLR 08/M01 A3030 -300 51 -1100 250/19 RMK AO2 T00831011
14756KACK ACK20160330151010603/30/16 15:10:31  5-MIN KACK 302010Z 23020KT 10SM CLR 08/M02 A3030 -300 49 -1100 240/20 RMK AO2 T00831017
14756KACK ACK20160330151510603/30/16 15:15:31  5-MIN KACK 302015Z 23020KT 10SM CLR 08/M02 A3030 -300 49 -1200 240/20 RMK AO2 T00781022
14756KACK ACK20160330152010603/30/16 15:20:31  5-MIN KACK 302020Z 23020KT 10SM CLR 08/M02 A3030 -300 51 -1200 250/20 RMK AO2 T00781017
14756KACK ACK20160330152510603/30/16 15:25:31  5-MIN KACK 302025Z 23019KT 10SM CLR 08/M02 A3030 -300 49 -1100 250/19 RMK AO2 T00831017
14756KACK ACK20160330153010603/30/16 15:30:31  5-MIN KACK 302030Z 24019KT 10SM CLR 08/M01 A3030 -300 53 -1200 250/19 RMK AO2 T00781011
14756KACK ACK20160330153510603/30/16 15:35:31  5-MIN KACK 302035Z 22017KT 10SM CLR 08/M01 A3030 -290 53 -1100 240/17 RMK AO2 T00781011
14756KACK ACK20160330154010603/30/16 15:40:31  5-MIN KACK 302040Z 23019KT 10SM CLR 08/M01 A3030 -290 53 -1200 240/19 RMK AO2 T00781011
14756KACK ACK20160330154510603/30/16 15:45:31  5-MIN KACK 302045Z 23018KT 10SM CLR 08/M01 A3030 -290 55 -1100 250/18 RMK AO2 T00781006
14756KACK ACK20160330155011903/30/16 15:50:31  5-MIN KACK 302050Z 23019KT 10SM CLR 08/M01 A3030 -290 55 -1100 240/19 RMK AO2 SLP259 T00781006 57012
14756KACK ACK20160330155510603/30/16 15:55:31  5-MIN KACK 302055Z 22018KT 10SM CLR 08/M01 A3030 -300 55 -1200 240/18 RMK AO2 T00781006
14756KACK ACK20160330160010603/30/16 16:00:31  5-MIN KACK 302100Z 23019KT 10SM CLR 08/M01 A3029 -290 55 -1100 250/19 RMK AO2 T00781006
14756KACK ACK20160330160510603/30/16 16:05:31  5-MIN KACK 302105Z 22018KT 10SM CLR 08/M01 A3029 -290 55 -1100 240/18 RMK AO2 T00781006
14756KACK ACK20160330161010603/30/16 16:10:31  5-MIN KACK 302110Z 22017KT 10SM CLR 08/M01 A3029 -290 53 -1100 240/17 RMK AO2 T00781011
14756KACK ACK20160330161510603/30/16 16:15:31  5-MIN KACK 302115Z 22017KT 10SM CLR 08/M01 A3029 -290 55 -1100 240/17 RMK AO2 T00781006
14756KACK ACK20160330162010603/30/16 16:20:31  5-MIN KACK 302120Z 22020KT 10SM CLR 08/M01 A3029 -290 55 -1100 240/20 RMK AO2 T00781006
14756KACK ACK20160330162510603/30/16 16:25:31  5-MIN KACK 302125Z 22018KT 10SM CLR 08/M01 A3029 -280 53 -1100 240/18 RMK AO2 T00781011
14756KACK ACK20160330163011203/30/16 16:30:31  5-MIN KACK 302130Z 22015G23KT 10SM CLR 07/M01 A3029 -290 57 -1200 230/15G23 RMK AO2 T00721006
14756KACK ACK20160330163510603/30/16 16:35:31  5-MIN KACK 302135Z 22018KT 10SM CLR 07/M01 A3029 -280 57 -1200 240/18 RMK AO2 T00721006
14756KACK ACK20160330164011203/30/16 16:40:31  5-MIN KACK 302140Z 22015G23KT 10SM CLR 07/M01 A3028 -280 57 -1200 230/15G23 RMK AO2 T00721006
14756KACK ACK20160330164511203/30/16 16:45:31  5-MIN KACK 302145Z 22018G23KT 10SM CLR 07/M01 A3028 -280 57 -1200 240/18G23 RMK AO2 T00721006
14756KACK ACK20160330165011303/30/16 16:50:31  5-MIN KACK 302150Z 22019KT 10SM CLR 07/M01 A3028 -280 57 -1200 230/19 RMK AO2 SLP254 T00721006
14756KACK ACK20160330165511203/30/16 16:55:31  5-MIN KACK 302155Z 22019G24KT 10SM CLR 07/M01 A3028 -280 57 -1200 240/19G24 RMK AO2 T00721006
14756KACK ACK20160330170011203/30/16 17:00:31  5-MIN KACK 302200Z 22017G24KT 10SM CLR 07/M01 A3028 -270 55 -1200 240/17G24 RMK AO2 T00721011
14756KACK ACK20160330170511203/30/16 17:05:31  5-MIN KACK 302205Z 22018G23KT 10SM CLR 07/M01 A3028 -270 57 -1200 230/18G23 RMK AO2 T00721006
14756KACK ACK20160330171011203/30/16 17:10:31  5-MIN KACK 302210Z 22018G24KT 10SM CLR 07/M01 A3028 -270 60 -1300 240/18G24 RMK AO2 T00671006
14756KACK ACK20160330171510603/30/16 17:15:31  5-MIN KACK 302215Z 22017KT 10SM CLR 07/M01 A3028 -270 60 -1300 230/17 RMK AO2 T00671006
14756KACK ACK20160330172010603/30/16 17:20:31  5-MIN KACK 302220Z 22018KT 10SM CLR 07/M01 A3028 -270 60 -1300 230/18 RMK AO2 T00671006
14756KACK ACK20160330172510603/30/16 17:25:31  5-MIN KACK 302225Z 22020KT 10SM CLR 07/M01 A3027 -270 60 -1300 240/20 RMK AO2 T00671006
14756KACK ACK20160330173011203/30/16 17:30:31  5-MIN KACK 302230Z 22016G23KT 10SM CLR 07/M01 A3027 -270 60 -1300 240/16G23 RMK AO2 T00671006
14756KACK ACK20160330173511203/30/16 17:35:31  5-MIN KACK 302235Z 22018G23KT 10SM CLR 07/M01 A3027 -270 60 -1300 240/18G23 RMK AO2 T00671006
14756KACK ACK20160330174011103/30/16 17:40:31  5-MIN KACK 302240Z 22017G23KT 10SM CLR 07/00 A3027 -270 62 -1300 230/17G23 RMK AO2 T00670000
14756KACK ACK20160330174510503/30/16 17:45:31  5-MIN KACK 302245Z 22017KT 10SM CLR 07/00 A3027 -270 62 -1300 230/17 RMK AO2 T00670000
14756KACK ACK20160330175011203/30/16 17:50:31  5-MIN KACK 302250Z 22017KT 10SM CLR 07/00 A3027 -270 62 -1300 240/17 RMK AO2 SLP251 T00670000
14756KACK ACK20160330175510503/30/16 17:55:31  5-MIN KACK 302255Z 22016KT 10SM CLR 07/00 A3027 -270 62 -1300 230/16 RMK AO2 T00670000
14756KACK ACK20160330180010503/30/16 18:00:31  5-MIN KACK 302300Z 22016KT 10SM CLR 07/01 A3027 -270 65 -1300 230/16 RMK AO2 T00670006
14756KACK ACK20160330180510503/30/16 18:05:31  5-MIN KACK 302305Z 22015KT 10SM CLR 07/01 A3027 -270 65 -1300 230/15 RMK AO2 T00670006
14756KACK ACK20160330181010503/30/16 18:10:31  5-MIN KACK 302310Z 21016KT 10SM CLR 07/01 A3027 -270 65 -1300 230/16 RMK AO2 T00670006
14756KACK ACK20160330181510503/30/16 18:15:31  5-MIN KACK 302315Z 22017KT 10SM CLR 07/00 A3027 -270 62 -1300 230/17 RMK AO2 T00670000
14756KACK ACK20160330182011103/30/16 18:20:31  5-MIN KACK 302320Z 22014G22KT 10SM CLR 06/00 A3027 -260 65 -1300 230/14G22 RMK AO2 T00610000
14756KACK ACK20160330182510503/30/16 18:25:31  5-MIN KACK 302325Z 22016KT 10SM CLR 07/01 A3026 -260 65 -1200 230/16 RMK AO2 T00670006
14756KACK ACK20160330183010503/30/16 18:30:31  5-MIN KACK 302330Z 22017KT 10SM CLR 07/01 A3026 -260 65 -1200 230/17 RMK AO2 T00670006
14756KACK ACK20160330183510503/30/16 18:35:31  5-MIN KACK 302335Z 21015KT 10SM CLR 07/01 A3026 -260 65 -1200 230/15 RMK AO2 T00670006
14756KACK ACK20160330184011103/30/16 18:40:31  5-MIN KACK 302340Z 22018G23KT 10SM CLR 07/01 A3026 -260 65 -1200 230/18G23 RMK AO2 T00670006
14756KACK ACK20160330184511103/30/16 18:45:31  5-MIN KACK 302345Z 22017G23KT 10SM CLR 07/01 A3026 -260 65 -1200 230/17G23 RMK AO2 T00670006
14756KACK ACK20160330185013003/30/16 18:50:31  5-MIN KACK 302350Z 22013KT 10SM CLR 07/01 A3026 -260 65 -1200 230/13 RMK AO2 SLP247 T00670006 10083 20061 56005
14756KACK ACK20160330185510503/30/16 18:55:31  5-MIN KACK 302355Z 22016KT 10SM CLR 07/01 A3026 -260 67 -1200 230/16 RMK AO2 T00670011
14756KACK ACK20160330190010503/30/16 19:00:31  5-MIN KACK 310000Z 21015KT 10SM CLR 07/01 A3026 -250 67 -1200 230/15 RMK AO2 T00670011
14756KACK ACK20160330190510503/30/16 19:05:31  5-MIN KACK 310005Z 21014KT 10SM CLR 07/01 A3025 -250 67 -1200 230/14 RMK AO2 T00670011
14756KACK ACK20160330191010503/30/16 19:10:31  5-MIN KACK 310010Z 21013KT 10SM CLR 07/01 A3025 -250 67 -1200 220/13 RMK AO2 T00670011
14756KACK ACK20160330191510503/30/16 19:15:31  5-MIN KACK 310015Z 21014KT 10SM CLR 07/02 A3025 -250 70 -1200 230/14 RMK AO2 T00670017
14756KACK ACK20160330192010503/30/16 19:20:31  5-MIN KACK 310020Z 21014KT 10SM CLR 07/02 A3025 -250 70 -1200 220/14 RMK AO2 T00670017
14756KACK ACK20160330192510503/30/16 19:25:31  5-MIN KACK 310025Z 21012KT 10SM CLR 07/02 A3025 -250 70 -1200 230/12 RMK AO2 T00670017
14756KACK ACK20160330193010503/30/16 19:30:31  5-MIN KACK 310030Z 21013KT 10SM CLR 07/02 A3025 -250 70 -1200 220/13 RMK AO2 T00670017
14756KACK ACK20160330193510503/30/16 19:35:31  5-MIN KACK 310035Z 21015KT 10SM CLR 07/02 A3025 -250 70 -1200 220/15 RMK AO2 T00670017
14756KACK ACK20160330194010503/30/16 19:40:31  5-MIN KACK 310040Z 21014KT 10SM CLR 07/02 A3025 -250 73 -1200 220/14 RMK AO2 T00670022
14756KACK ACK20160330194510503/30/16 19:45:31  5-MIN KACK 310045Z 21012KT 10SM CLR 07/02 A3026 -250 73 -1200 220/12 RMK AO2 T00670022
14756KACK ACK20160330195012203/30/16 19:50:31  5-MIN KACK 310050Z AUTO 21012KT 10SM CLR 07/02 A3025 -250 73 -1200 220/12 RMK AO2 SLP245 T00670022 TSNO
14756KACK ACK20160330195511503/30/16 19:55:31  5-MIN KACK 310055Z AUTO 21013KT 10SM CLR 07/02 A3025 -250 73 -1200 220/13 RMK AO2 T00670022 TSNO
14756KACK ACK20160330200011503/30/16 20:00:31  5-MIN KACK 310100Z AUTO 20011KT 10SM CLR 07/02 A3025 -250 73 -1200 220/11 RMK AO2 T00670022 TSNO
14756KACK ACK20160330200511503/30/16 20:05:31  5-MIN KACK 310105Z AUTO 20011KT 10SM CLR 07/02 A3025 -250 73 -1200 220/11 RMK AO2 T00670022 TSNO
14756KACK ACK20160330201011503/30/16 20:10:31  5-MIN KACK 310110Z AUTO 20011KT 10SM CLR 07/02 A3025 -250 73 -1200 220/11 RMK AO2 T00670022 TSNO
14756KACK ACK20160330201511503/30/16 20:15:31  5-MIN KACK 310115Z AUTO 21011KT 10SM CLR 07/03 A3025 -250 76 -1200 220/11 RMK AO2 T00670028 TSNO
14756KACK ACK20160330202011503/30/16 20:20:31  5-MIN KACK 310120Z AUTO 20010KT 10SM CLR 07/03 A3025 -250 76 -1200 220/10 RMK AO2 T00670028 TSNO
14756KACK ACK20160330202511503/30/16 20:25:31  5-MIN KACK 310125Z AUTO 20010KT 10SM CLR 07/03 A3025 -250 76 -1200 220/10 RMK AO2 T00670028 TSNO
14756KACK ACK20160330203011503/30/16 20:30:31  5-MIN KACK 310130Z AUTO 20010KT 10SM CLR 07/03 A3025 -250 76 -1200 220/10 RMK AO2 T00670028 TSNO
14756KACK ACK20160330203511503/30/16 20:35:31  5-MIN KACK 310135Z AUTO 20011KT 10SM CLR 07/03 A3025 -250 76 -1200 220/11 RMK AO2 T00670028 TSNO
14756KACK ACK20160330204011503/30/16 20:40:31  5-MIN KACK 310140Z AUTO 20012KT 10SM CLR 07/03 A3025 -250 73 -1200 220/12 RMK AO2 T00720028 TSNO
14756KACK ACK20160330204511503/30/16 20:45:31  5-MIN KACK 310145Z AUTO 20012KT 10SM CLR 07/03 A3025 -250 73 -1200 220/12 RMK AO2 T00720028 TSNO
14756KACK ACK20160330205012203/30/16 20:50:31  5-MIN KACK 310150Z AUTO 20013KT 10SM CLR 07/03 A3024 -240 73 -1200 220/13 RMK AO2 SLP241 T00720028 TSNO
14756KACK ACK20160330205511503/30/16 20:55:31  5-MIN KACK 310155Z AUTO 20013KT 10SM CLR 07/03 A3024 -240 73 -1200 220/13 RMK AO2 T00720028 TSNO
14756KACK ACK20160330210011503/30/16 21:00:31  5-MIN KACK 310200Z AUTO 20013KT 10SM CLR 07/03 A3024 -240 76 -1200 220/13 RMK AO2 T00720033 TSNO
14756KACK ACK20160330210511503/30/16 21:05:31  5-MIN KACK 310205Z AUTO 20013KT 10SM CLR 07/03 A3024 -240 76 -1100 220/13 RMK AO2 T00720033 TSNO
14756KACK ACK20160330211011503/30/16 21:10:31  5-MIN KACK 310210Z AUTO 20013KT 10SM CLR 07/03 A3024 -240 76 -1100 210/13 RMK AO2 T00720033 TSNO
14756KACK ACK20160330211511503/30/16 21:15:31  5-MIN KACK 310215Z AUTO 20012KT 10SM CLR 07/03 A3024 -240 76 -1200 220/12 RMK AO2 T00720033 TSNO
14756KACK ACK20160330212011503/30/16 21:20:31  5-MIN KACK 310220Z AUTO 20011KT 10SM CLR 07/03 A3024 -240 76 -1200 210/11 RMK AO2 T00720033 TSNO
14756KACK ACK20160330212511503/30/16 21:25:31  5-MIN KACK 310225Z AUTO 20011KT 10SM CLR 07/03 A3024 -240 76 -1100 210/11 RMK AO2 T00720033 TSNO
14756KACK ACK20160330213011503/30/16 21:30:31  5-MIN KACK 310230Z AUTO 20012KT 10SM CLR 07/04 A3023 -230 79 -1100 210/12 RMK AO2 T00720039 TSNO
14756KACK ACK20160330213511503/30/16 21:35:31  5-MIN KACK 310235Z AUTO 20011KT 10SM CLR 07/04 A3023 -230 79 -1100 210/11 RMK AO2 T00720039 TSNO
14756KACK ACK20160330214011503/30/16 21:40:31  5-MIN KACK 310240Z AUTO 20012KT 10SM CLR 07/04 A3023 -230 79 -1100 210/12 RMK AO2 T00720039 TSNO
14756KACK ACK20160330214511503/30/16 21:45:31  5-MIN KACK 310245Z AUTO 20011KT 10SM CLR 07/04 A3023 -230 79 -1100 210/11 RMK AO2 T00720039 TSNO
14756KACK ACK20160330215012803/30/16 21:50:31  5-MIN KACK 310250Z AUTO 20012KT 10SM CLR 07/04 A3023 -230 79 -1100 210/12 RMK AO2 SLP235 T00720039 56013 TSNO
14756KACK ACK20160330215511503/30/16 21:55:31  5-MIN KACK 310255Z AUTO 20011KT 10SM CLR 07/04 A3022 -230 79 -1100 210/11 RMK AO2 T00720039 TSNO
14756KACK ACK20160330220011503/30/16 22:00:31  5-MIN KACK 310300Z AUTO 20010KT 10SM CLR 07/04 A3023 -230 79 -1100 210/10 RMK AO2 T00720039 TSNO
14756KACK ACK20160330220511503/30/16 22:05:31  5-MIN KACK 310305Z AUTO 20011KT 10SM CLR 07/04 A3023 -230 79 -1100 220/11 RMK AO2 T00720039 TSNO
14756KACK ACK20160330221011503/30/16 22:10:31  5-MIN KACK 310310Z AUTO 20010KT 10SM CLR 07/04 A3022 -220 82 -1100 210/10 RMK AO2 T00720044 TSNO
14756KACK ACK20160330221511503/30/16 22:15:31  5-MIN KACK 310315Z AUTO 20010KT 10SM CLR 07/04 A3022 -220 82 -1100 210/10 RMK AO2 T00720044 TSNO
14756KACK ACK20160330222011503/30/16 22:20:31  5-MIN KACK 310320Z AUTO 20010KT 10SM CLR 07/04 A3022 -220 82 -1100 210/10 RMK AO2 T00720044 TSNO
14756KACK ACK20160330222511503/30/16 22:25:31  5-MIN KACK 310325Z AUTO 20011KT 10SM CLR 07/04 A3022 -220 82 -1100 220/11 RMK AO2 T00720044 TSNO
14756KACK ACK20160330223011503/30/16 22:30:31  5-MIN KACK 310330Z AUTO 20010KT 10SM CLR 07/04 A3022 -230 82 -1100 220/10 RMK AO2 T00720044 TSNO
14756KACK ACK20160330223511503/30/16 22:35:31  5-MIN KACK 310335Z AUTO 20010KT 10SM CLR 07/04 A3022 -220 82 -1100 220/10 RMK AO2 T00720044 TSNO
14756KACK ACK20160330224011503/30/16 22:40:31  5-MIN KACK 310340Z AUTO 20009KT 10SM CLR 07/04 A3022 -220 82 -1100 220/09 RMK AO2 T00720044 TSNO
14756KACK ACK20160330224511503/30/16 22:45:31  5-MIN KACK 310345Z AUTO 20010KT 10SM CLR 07/04 A3022 -220 82 -1100 220/10 RMK AO2 T00720044 TSNO
14756KACK ACK20160330225012203/30/16 22:50:31  5-MIN KACK 310350Z AUTO 20010KT 10SM CLR 07/04 A3021 -220 82 -1100 220/10 RMK AO2 SLP231 T00720044 TSNO
14756KACK ACK20160330225511503/30/16 22:55:31  5-MIN KACK 310355Z AUTO 20011KT 10SM CLR 07/04 A3021 -220 82 -1100 220/11 RMK AO2 T00720044 TSNO
14756KACK ACK20160330230011503/30/16 23:00:31  5-MIN KACK 310400Z AUTO 20012KT 10SM CLR 08/04 A3021 -210 79 -1000 220/12 RMK AO2 T00780044 TSNO
14756KACK ACK20160330230511503/30/16 23:05:31  5-MIN KACK 310405Z AUTO 20012KT 10SM CLR 07/04 A3021 -210 82 -1100 220/12 RMK AO2 T00720044 TSNO
14756KACK ACK20160330231011503/30/16 23:10:31  5-MIN KACK 310410Z AUTO 20012KT 10SM CLR 08/04 A3020 -210 79 -1000 210/12 RMK AO2 T00780044 TSNO
14756KACK ACK20160330231511503/30/16 23:15:31  5-MIN KACK 310415Z AUTO 20013KT 10SM CLR 08/05 A3020 -210 82 -1000 210/13 RMK AO2 T00780050 TSNO
14756KACK ACK20160330232011503/30/16 23:20:31  5-MIN KACK 310420Z AUTO 19012KT 10SM CLR 08/05 A3020 -200 82 -1000 210/12 RMK AO2 T00780050 TSNO
14756KACK ACK20160330232511503/30/16 23:25:31  5-MIN KACK 310425Z AUTO 19013KT 10SM CLR 08/05 A3020 -200 82 -1000 210/13 RMK AO2 T00780050 TSNO
14756KACK ACK20160330233011503/30/16 23:30:31  5-MIN KACK 310430Z AUTO 19012KT 10SM CLR 08/05 A3019 -200 82 -1000 210/12 RMK AO2 T00780050 TSNO
14756KACK ACK20160330233511503/30/16 23:35:31  5-MIN KACK 310435Z AUTO 19013KT 10SM CLR 08/05 A3019 -200 82 -1000 210/13 RMK AO2 T00780050 TSNO
14756KACK ACK20160330234011503/30/16 23:40:31  5-MIN KACK 310440Z AUTO 19012KT 10SM CLR 08/05 A3020 -200 82 -1000 210/12 RMK AO2 T00780050 TSNO
14756KACK ACK20160330234511503/30/16 23:45:31  5-MIN KACK 310445Z AUTO 19013KT 10SM CLR 08/05 A3020 -200 82 -1000 210/13 RMK AO2 T00780050 TSNO
14756KACK ACK20160330235013203/30/16 23:50:31  5-MIN KACK 310450Z AUTO 19013KT 10SM CLR 08/05 A3020 -200 82 -1000 210/13 RMK AO2 SLP227 T00780050 400830033 TSNO
14756KACK ACK20160330235511503/30/16 23:55:31  5-MIN KACK 310455Z AUTO 20013KT 10SM CLR 08/05 A3020 -200 79 -1000 210/13 RMK AO2 T00830050 TSNO
14756KACK ACK20160331000011503/31/16 00:00:31  5-MIN KACK 310500Z AUTO 20013KT 10SM CLR 08/05 A3019 -200 82 -1000 210/13 RMK AO2 T00780050 TSNO
14756KACK ACK20160331000511503/31/16 00:05:31  5-MIN KACK 310505Z AUTO 20014KT 10SM CLR 08/05 A3019 -200 82 -1000 220/14 RMK AO2 T00780050 TSNO
14756KACK ACK20160331001011503/31/16 00:10:31  5-MIN KACK 310510Z AUTO 20015KT 10SM CLR 08/06 A3019 -200 82 -1000 220/15 RMK AO2 T00830056 TSNO
14756KACK ACK20160331001511503/31/16 00:15:31  5-MIN KACK 310515Z AUTO 20014KT 10SM CLR 08/06 A3019 -190 82 -1000 210/14 RMK AO2 T00830056 TSNO
14756KACK ACK20160331002011503/31/16 00:20:31  5-MIN KACK 310520Z AUTO 20013KT 10SM CLR 08/06 A3019 -190 82 -1000 220/13 RMK AO2 T00830056 TSNO
14756KACK ACK20160331002511503/31/16 00:25:31  5-MIN KACK 310525Z AUTO 20013KT 10SM CLR 08/06 A3018 -190 82 -1000 210/13 RMK AO2 T00830056 TSNO
14756KACK ACK20160331003011503/31/16 00:30:31  5-MIN KACK 310530Z AUTO 20012KT 10SM CLR 08/06 A3018 -190 86 -1000 210/12 RMK AO2 T00780056 TSNO
14756KACK ACK20160331003511503/31/16 00:35:31  5-MIN KACK 310535Z AUTO 20012KT 10SM CLR 08/06 A3018 -190 86 -1000 220/12 RMK AO2 T00780056 TSNO
14756KACK ACK20160331004011503/31/16 00:40:31  5-MIN KACK 310540Z AUTO 20012KT 10SM CLR 08/06 A3018 -190 86 -1000 210/12 RMK AO2 T00780056 TSNO
14756KACK ACK20160331004511503/31/16 00:45:31  5-MIN KACK 310545Z AUTO 20010KT 10SM CLR 08/06 A3018 -190 86 -1000 220/10 RMK AO2 T00780056 TSNO
14756KACK ACK20160331005013903/31/16 00:50:31  5-MIN KACK 310550Z AUTO 21010KT 9SM CLR 08/06 A3018 -190 86 -1000 220/10 RMK AO2 SLP221 T00780056 10083 20067 58012 TSNO
14756KACK ACK20160331005511403/31/16 00:55:31  5-MIN KACK 310555Z AUTO 21011KT 9SM CLR 08/06 A3018 -190 86 -1000 230/11 RMK AO2 T00780056 TSNO
14756KACK ACK20160331010011303/31/16 01:00:31  5-MIN KACK 310600Z AUTO 21010KT 9SM CLR 08/06 A3018 -180 82 -900 230/10 RMK AO2 T00830056 TSNO
14756KACK ACK20160331010511403/31/16 01:05:31  5-MIN KACK 310605Z AUTO 21010KT 10SM CLR 08/06 A3018 -180 82 -900 230/10 RMK AO2 T00830056 TSNO
14756KACK ACK20160331011011403/31/16 01:10:31  5-MIN KACK 310610Z AUTO 21011KT 10SM CLR 08/06 A3017 -180 82 -900 230/11 RMK AO2 T00830056 TSNO
14756KACK ACK20160331011511403/31/16 01:15:31  5-MIN KACK 310615Z AUTO 22010KT 10SM CLR 08/06 A3017 -180 82 -900 230/10 RMK AO2 T00830056 TSNO
14756KACK ACK20160331012011403/31/16 01:20:31  5-MIN KACK 310620Z AUTO 22010KT 10SM CLR 08/06 A3017 -180 82 -900 230/10 RMK AO2 T00830056 TSNO
14756KACK ACK20160331012511403/31/16 01:25:31  5-MIN KACK 310625Z AUTO 22010KT 9SM CLR 08/06 A3017 -170 86 -1000 240/10 RMK AO2 T00780056 TSNO
14756KACK ACK20160331013011403/31/16 01:30:31  5-MIN KACK 310630Z AUTO 22010KT 9SM CLR 08/06 A3016 -170 86 -1000 230/10 RMK AO2 T00780056 TSNO
14756KACK ACK20160331013511403/31/16 01:35:31  5-MIN KACK 310635Z AUTO 22011KT 9SM CLR 08/06 A3016 -170 86 -1000 230/11 RMK AO2 T00780056 TSNO
14756KACK ACK20160331014011403/31/16 01:40:31  5-MIN KACK 310640Z AUTO 22010KT 9SM CLR 08/06 A3016 -170 89 -1000 240/10 RMK AO2 T00780061 TSNO
14756KACK ACK20160331014511403/31/16 01:45:31  5-MIN KACK 310645Z AUTO 22010KT 9SM CLR 08/06 A3016 -170 89 -1000 230/10 RMK AO2 T00780061 TSNO
14756KACK ACK20160331015012103/31/16 01:50:31  5-MIN KACK 310650Z AUTO 22009KT 9SM CLR 08/06 A3015 -160 86 -1000 230/09 RMK AO2 SLP211 T00780056 TSNO
14756KACK ACK20160331015511403/31/16 01:55:31  5-MIN KACK 310655Z AUTO 22009KT 8SM CLR 08/06 A3015 -160 86 -1000 230/09 RMK AO2 T00780056 TSNO
14756KACK ACK20160331020011403/31/16 02:00:31  5-MIN KACK 310700Z AUTO 21008KT 8SM CLR 08/06 A3015 -150 89 -1000 230/08 RMK AO2 T00780061 TSNO
14756KACK ACK20160331020511403/31/16 02:05:31  5-MIN KACK 310705Z AUTO 22008KT 8SM CLR 08/06 A3015 -150 89 -1000 230/08 RMK AO2 T00780061 TSNO
14756KACK ACK20160331021011403/31/16 02:10:31  5-MIN KACK 310710Z AUTO 21008KT 8SM CLR 08/06 A3014 -150 86 -1000 230/08 RMK AO2 T00780056 TSNO
14756KACK ACK20160331021511403/31/16 02:15:31  5-MIN KACK 310715Z AUTO 21010KT 8SM CLR 08/06 A3014 -150 86 -1000 230/10 RMK AO2 T00780056 TSNO
14756KACK ACK20160331022011403/31/16 02:20:31  5-MIN KACK 310720Z AUTO 21010KT 8SM CLR 08/06 A3014 -150 86 -1000 230/10 RMK AO2 T00780056 TSNO
14756KACK ACK20160331022511403/31/16 02:25:31  5-MIN KACK 310725Z AUTO 22012KT 8SM CLR 08/06 A3013 -140 89 -1000 230/12 RMK AO2 T00780061 TSNO
14756KACK ACK20160331023011403/31/16 02:30:31  5-MIN KACK 310730Z AUTO 21013KT 8SM CLR 08/06 A3013 -140 89 -1000 230/13 RMK AO2 T00780061 TSNO
14756KACK ACK20160331023511303/31/16 02:35:31  5-MIN KACK 310735Z AUTO 22013KT 8SM CLR 08/06 A3013 -140 86 -900 230/13 RMK AO2 T00830061 TSNO
14756KACK ACK20160331024011303/31/16 02:40:31  5-MIN KACK 310740Z AUTO 22013KT 8SM CLR 08/07 A3013 -140 89 -900 230/13 RMK AO2 T00830067 TSNO
14756KACK ACK20160331024511303/31/16 02:45:31  5-MIN KACK 310745Z AUTO 22013KT 8SM CLR 08/07 A3013 -140 89 -900 230/13 RMK AO2 T00830067 TSNO
14756KACK ACK20160331025012003/31/16 02:50:31  5-MIN KACK 310750Z AUTO 21012KT 8SM CLR 08/07 A3013 -140 89 -900 230/12 RMK AO2 SLP202 T00830067 TSNO
14756KACK ACK20160331025511303/31/16 02:55:31  5-MIN KACK 310755Z AUTO 21012KT 8SM CLR 08/07 A3013 -140 89 -900 230/12 RMK AO2 T00830067 TSNO
14756KACK ACK20160331030011303/31/16 03:00:31  5-MIN KACK 310800Z AUTO 21013KT 8SM CLR 08/07 A3012 -130 89 -900 230/13 RMK AO2 T00830067 TSNO
14756KACK ACK20160331030511303/31/16 03:05:31  5-MIN KACK 310805Z AUTO 21012KT 8SM CLR 08/07 A3012 -130 89 -900 230/12 RMK AO2 T00830067 TSNO
14756KACK ACK20160331031011303/31/16 03:10:31  5-MIN KACK 310810Z AUTO 21013KT 8SM CLR 08/07 A3012 -130 89 -900 230/13 RMK AO2 T00830067 TSNO
14756KACK ACK20160331031511303/31/16 03:15:31  5-MIN KACK 310815Z AUTO 21013KT 8SM CLR 08/07 A3012 -130 89 -900 230/13 RMK AO2 T00830067 TSNO
14756KACK ACK20160331032011303/31/16 03:20:31  5-MIN KACK 310820Z AUTO 21014KT 9SM CLR 09/07 A3012 -130 86 -800 230/14 RMK AO2 T00890067 TSNO
14756KACK ACK20160331032511303/31/16 03:25:31  5-MIN KACK 310825Z AUTO 21014KT 9SM CLR 09/07 A3012 -130 86 -800 230/14 RMK AO2 T00890067 TSNO
14756KACK ACK20160331033011303/31/16 03:30:31  5-MIN KACK 310830Z AUTO 21014KT 9SM CLR 09/07 A3012 -130 86 -800 230/14 RMK AO2 T00890067 TSNO
14756KACK ACK20160331033511303/31/16 03:35:31  5-MIN KACK 310835Z AUTO 21013KT 9SM CLR 09/07 A3012 -130 86 -800 230/13 RMK AO2 T00890067 TSNO
14756KACK ACK20160331034011303/31/16 03:40:31  5-MIN KACK 310840Z AUTO 22013KT 9SM CLR 09/07 A3012 -130 86 -800 230/13 RMK AO2 T00890067 TSNO
14756KACK ACK20160331034511303/31/16 03:45:31  5-MIN KACK 310845Z AUTO 22013KT 9SM CLR 09/07 A3012 -130 86 -800 230/13 RMK AO2 T00890067 TSNO
14756KACK ACK20160331035012603/31/16 03:50:31  5-MIN KACK 310850Z AUTO 22014KT 9SM CLR 09/07 A3012 -130 89 -800 230/14 RMK AO2 SLP199 T00890072 58014 TSNO
14756KACK ACK20160331035511903/31/16 03:55:31  5-MIN KACK 310855Z AUTO 22012G20KT 9SM CLR 09/07 A3012 -130 89 -800 230/12G20 RMK AO2 T00890072 TSNO
14756KACK ACK20160331040011303/31/16 04:00:31  5-MIN KACK 310900Z AUTO 22012KT 9SM CLR 09/07 A3012 -130 86 -700 230/12 RMK AO2 T00940072 TSNO
14756KACK ACK20160331040511303/31/16 04:05:31  5-MIN KACK 310905Z AUTO 21011KT 9SM CLR 09/07 A3012 -130 86 -700 230/11 RMK AO2 T00940072 TSNO
14756KACK ACK20160331041011303/31/16 04:10:31  5-MIN KACK 310910Z AUTO 21012KT 9SM CLR 09/07 A3012 -130 86 -700 230/12 RMK AO2 T00940072 TSNO
14756KACK ACK20160331041511303/31/16 04:15:31  5-MIN KACK 310915Z AUTO 21012KT 9SM CLR 09/07 A3012 -130 86 -700 230/12 RMK AO2 T00940072 TSNO
14756KACK ACK20160331042011303/31/16 04:20:31  5-MIN KACK 310920Z AUTO 21015KT 9SM CLR 09/07 A3012 -130 86 -700 230/15 RMK AO2 T00940072 TSNO
14756KACK ACK20160331042511303/31/16 04:25:31  5-MIN KACK 310925Z AUTO 21015KT 9SM CLR 10/07 A3012 -130 83 -700 230/15 RMK AO2 T01000072 TSNO
14756KACK ACK20160331043011303/31/16 04:30:31  5-MIN KACK 310930Z AUTO 21015KT 9SM CLR 10/07 A3012 -130 83 -700 230/15 RMK AO2 T01000072 TSNO
14756KACK ACK20160331043511303/31/16 04:35:31  5-MIN KACK 310935Z AUTO 21015KT 9SM CLR 10/07 A3012 -130 83 -700 220/15 RMK AO2 T01000072 TSNO
14756KACK ACK20160331044011303/31/16 04:40:31  5-MIN KACK 310940Z AUTO 21015KT 9SM CLR 10/08 A3012 -130 86 -700 220/15 RMK AO2 T01000078 TSNO
14756KACK ACK20160331044511303/31/16 04:45:31  5-MIN KACK 310945Z AUTO 21015KT 9SM CLR 10/07 A3012 -130 83 -700 220/15 RMK AO2 T01000072 TSNO
14756KACK ACK20160331045012003/31/16 04:50:31  5-MIN KACK 310950Z AUTO 21014KT 9SM CLR 10/07 A3012 -130 83 -700 230/14 RMK AO2 SLP199 T01000072 TSNO
14756KACK ACK20160331045510303/31/16 04:55:31  5-MIN KACK 310955Z 21016KT 9SM CLR 10/07 A3012 -130 83 -700 230/16 RMK AO2 T01000072
14756KACK ACK20160331050010303/31/16 05:00:31  5-MIN KACK 311000Z 21017KT 9SM CLR 10/07 A3012 -130 83 -700 230/17 RMK AO2 T01000072
14756KACK ACK20160331050510403/31/16 05:05:31  5-MIN KACK 311005Z 21016KT 10SM CLR 10/07 A3012 -130 83 -700 230/16 RMK AO2 T01000072
14756KACK ACK20160331051010403/31/16 05:10:31  5-MIN KACK 311010Z 21016KT 10SM CLR 10/07 A3013 -140 83 -700 230/16 RMK AO2 T01000072
14756KACK ACK20160331051510403/31/16 05:15:31  5-MIN KACK 311015Z 21015KT 10SM CLR 10/07 A3012 -130 83 -700 230/15 RMK AO2 T01000072
14756KACK ACK20160331052011003/31/16 05:20:31  5-MIN KACK 311020Z 21017G22KT 10SM CLR 10/07 A3012 -130 83 -700 230/17G22 RMK AO2 T01000072
14756KACK ACK20160331052510403/31/16 05:25:31  5-MIN KACK 311025Z 21017KT 10SM CLR 10/07 A3012 -130 83 -700 230/17 RMK AO2 T01000072
14756KACK ACK20160331053010303/31/16 05:30:31  5-MIN KACK 311030Z 21017KT 9SM CLR 10/07 A3012 -130 83 -700 230/17 RMK AO2 T01000072
14756KACK ACK20160331053510903/31/16 05:35:31  5-MIN KACK 311035Z 21016G23KT 9SM CLR 10/07 A3012 -130 80 -700 230/16G23 RMK AO2 T01000067
14756KACK ACK20160331054010903/31/16 05:40:31  5-MIN KACK 311040Z 21017G23KT 9SM CLR 10/07 A3012 -130 80 -700 230/17G23 RMK AO2 T01000067
14756KACK ACK20160331054510303/31/16 05:45:31  5-MIN KACK 311045Z 21015KT 9SM CLR 10/07 A3012 -130 80 -700 230/15 RMK AO2 T01000067
14756KACK ACK20160331055011003/31/16 05:50:31  5-MIN KACK 311050Z 21016KT 9SM CLR 10/07 A3012 -130 80 -700 230/16 RMK AO2 SLP200 T01000067
14756KACK ACK20160331055510303/31/16 05:55:31  5-MIN KACK 311055Z 21016KT 9SM CLR 10/07 A3012 -130 80 -700 220/16 RMK AO2 T01000067
14756KACK ACK20160331060010303/31/16 06:00:31  5-MIN KACK 311100Z 21014KT 9SM CLR 10/07 A3012 -130 80 -700 220/14 RMK AO2 T01000067
14756KACK ACK20160331060510303/31/16 06:05:31  5-MIN KACK 311105Z 21015KT 9SM CLR 10/07 A3012 -130 83 -700 220/15 RMK AO2 T01000072
14756KACK ACK20160331061010303/31/16 06:10:31  5-MIN KACK 311110Z 21014KT 8SM CLR 10/07 A3012 -130 83 -700 220/14 RMK AO2 T01000072
14756KACK ACK20160331061510303/31/16 06:15:31  5-MIN KACK 311115Z 21014KT 8SM CLR 10/07 A3012 -130 83 -700 220/14 RMK AO2 T01000072
14756KACK ACK20160331062010303/31/16 06:20:31  5-MIN KACK 311120Z 21015KT 8SM CLR 10/07 A3012 -130 83 -700 220/15 RMK AO2 T01000072
14756KACK ACK20160331062510303/31/16 06:25:31  5-MIN KACK 311125Z 20013KT 8SM CLR 11/07 A3012 -130 80 -600 220/13 RMK AO2 T01060072
14756KACK ACK20160331063010303/31/16 06:30:31  5-MIN KACK 311130Z 20014KT 8SM CLR 11/07 A3012 -130 80 -600 220/14 RMK AO2 T01060072
14756KACK ACK20160331063510303/31/16 06:35:31  5-MIN KACK 311135Z 20015KT 8SM CLR 11/07 A3012 -130 80 -600 220/15 RMK AO2 T01060072
14756KACK ACK20160331064010303/31/16 06:40:31  5-MIN KACK 311140Z 20012KT 8SM CLR 11/08 A3012 -130 83 -600 220/12 RMK AO2 T01060078
14756KACK ACK20160331064510303/31/16 06:45:31  5-MIN KACK 311145Z 20014KT 7SM CLR 11/08 A3012 -130 83 -600 210/14 RMK AO2 T01060078
14756KACK ACK20160331065012803/31/16 06:50:31  5-MIN KACK 311150Z 20013KT 8SM CLR 11/08 A3012 -130 83 -600 210/13 RMK AO2 SLP198 T01060078 10106 20078 56021
14756KACK ACK20160331065510303/31/16 06:55:31  5-MIN KACK 311155Z 20012KT 7SM CLR 11/08 A3012 -130 83 -600 210/12 RMK AO2 T01060078
14756KACK ACK20160331070010303/31/16 07:00:31  5-MIN KACK 311200Z 20013KT 7SM CLR 11/08 A3012 -130 83 -500 210/13 RMK AO2 T01110083
14756KACK ACK20160331070510303/31/16 07:05:31  5-MIN KACK 311205Z 20014KT 7SM CLR 11/08 A3012 -130 83 -500 210/14 RMK AO2 T01110083
14756KACK ACK20160331071010303/31/16 07:10:31  5-MIN KACK 311210Z 20013KT 8SM CLR 11/08 A3012 -130 83 -500 220/13 RMK AO2 T01110083
14756KACK ACK20160331071510303/31/16 07:15:31  5-MIN KACK 311215Z 20015KT 8SM CLR 11/08 A3012 -130 83 -500 210/15 RMK AO2 T01110083
14756KACK ACK20160331072010303/31/16 07:20:31  5-MIN KACK 311220Z 20015KT 8SM CLR 11/08 A3012 -130 83 -500 210/15 RMK AO2 T01110083
14756KACK ACK20160331072510303/31/16 07:25:31  5-MIN KACK 311225Z 20016KT 8SM CLR 11/08 A3012 -130 83 -500 210/16 RMK AO2 T01110083
14756KACK ACK20160331073010903/31/16 07:30:31  5-MIN KACK 311230Z 20015G21KT 8SM CLR 12/08 A3012 -130 80 -500 210/15G21 RMK AO2 T01170083
14756KACK ACK20160331073510303/31/16 07:35:31  5-MIN KACK 311235Z 20016KT 8SM CLR 12/08 A3012 -130 80 -500 210/16 RMK AO2 T01170083
14756KACK ACK20160331074010303/31/16 07:40:31  5-MIN KACK 311240Z 20015KT 8SM CLR 12/08 A3012 -130 80 -500 210/15 RMK AO2 T01170083
14756KACK ACK20160331074510303/31/16 07:45:31  5-MIN KACK 311245Z 20013KT 8SM CLR 12/08 A3013 -130 77 -400 220/13 RMK AO2 T01220083
14756KACK ACK20160331075011003/31/16 07:50:31  5-MIN KACK 311250Z 20015KT 8SM CLR 12/08 A3013 -140 77 -400 220/15 RMK AO2 SLP202 T01220083
14756KACK ACK20160331075510303/31/16 07:55:31  5-MIN KACK 311255Z 20014KT 8SM CLR 12/08 A3013 -140 77 -400 220/14 RMK AO2 T01220083
14756KACK ACK20160331080010303/31/16 08:00:31  5-MIN KACK 311300Z 20014KT 8SM CLR 12/08 A3013 -140 77 -400 210/14 RMK AO2 T01220083
14756KACK ACK20160331080510303/31/16 08:05:31  5-MIN KACK 311305Z 20014KT 8SM CLR 12/08 A3013 -140 77 -400 220/14 RMK AO2 T01220083
14756KACK ACK20160331081010303/31/16 08:10:31  5-MIN KACK 311310Z 20015KT 9SM CLR 13/08 A3012 -130 74 -300 220/15 RMK AO2 T01280083
14756KACK ACK20160331081510303/31/16 08:15:31  5-MIN KACK 311315Z 20015KT 9SM CLR 12/08 A3013 -130 77 -400 220/15 RMK AO2 T01220083
14756KACK ACK20160331082010303/31/16 08:20:31  5-MIN KACK 311320Z 20014KT 9SM CLR 12/08 A3012 -130 77 -400 210/14 RMK AO2 T01220083
14756KACK ACK20160331082510303/31/16 08:25:31  5-MIN KACK 311325Z 20015KT 8SM CLR 12/08 A3012 -130 77 -400 210/15 RMK AO2 T01220083
14756KACK ACK20160331083010303/31/16 08:30:31  5-MIN KACK 311330Z 19014KT 8SM CLR 12/08 A3012 -130 77 -400 210/14 RMK AO2 T01220083
14756KACK ACK20160331083510303/31/16 08:35:31  5-MIN KACK 311335Z 19013KT 8SM CLR 13/08 A3012 -130 74 -300 210/13 RMK AO2 T01280083
14756KACK ACK20160331084010303/31/16 08:40:31  5-MIN KACK 311340Z 19013KT 8SM CLR 12/08 A3012 -130 77 -400 200/13 RMK AO2 T01220083
14756KACK ACK20160331084510303/31/16 08:45:31  5-MIN KACK 311345Z 19013KT 8SM CLR 12/08 A3012 -130 77 -400 200/13 RMK AO2 T01220083
14756KACK ACK20160331085011003/31/16 08:50:31  5-MIN KACK 311350Z 19014KT 8SM CLR 12/08 A3012 -130 74 -400 200/14 RMK AO2 SLP198 T01220078
14756KACK ACK20160331085510303/31/16 08:55:31  5-MIN KACK 311355Z 19013KT 8SM CLR 12/08 A3012 -130 74 -400 200/13 RMK AO2 T01220078
14756KACK ACK20160331090010303/31/16 09:00:31  5-MIN KACK 311400Z 19014KT 8SM CLR 12/08 A3011 -120 74 -400 200/14 RMK AO2 T01220078
14756KACK ACK20160331090510303/31/16 09:05:31  5-MIN KACK 311405Z 19015KT 8SM CLR 13/08 A3011 -120 74 -300 200/15 RMK AO2 T01280083
14756KACK ACK20160331091010303/31/16 09:10:31  5-MIN KACK 311410Z 19016KT 8SM CLR 13/08 A3011 -120 71 -300 200/16 RMK AO2 T01280078
14756KACK ACK20160331091510303/31/16 09:15:31  5-MIN KACK 311415Z 19014KT 8SM CLR 13/08 A3011 -120 74 -300 200/14 RMK AO2 T01280083
14756KACK ACK20160331092010303/31/16 09:20:31  5-MIN KACK 311420Z 19014KT 9SM CLR 13/08 A3011 -120 71 -300 210/14 RMK AO2 T01330083
14756KACK ACK20160331092510303/31/16 09:25:31  5-MIN KACK 311425Z 19014KT 8SM CLR 13/08 A3011 -120 71 -300 210/14 RMK AO2 T01330083
14756KACK ACK20160331093010303/31/16 09:30:31  5-MIN KACK 311430Z 19015KT 9SM CLR 13/08 A3011 -120 71 -300 210/15 RMK AO2 T01330083
14756KACK ACK20160331093510303/31/16 09:35:31  5-MIN KACK 311435Z 20014KT 9SM CLR 13/08 A3011 -120 71 -300 210/14 RMK AO2 T01330083
14756KACK ACK20160331094010303/31/16 09:40:31  5-MIN KACK 311440Z 19017KT 9SM CLR 13/08 A3010 -110 71 -300 210/17 RMK AO2 T01330083
14756KACK ACK20160331094510303/31/16 09:45:31  5-MIN KACK 311445Z 19017KT 9SM CLR 14/09 A3010 -110 71 -200 210/17 RMK AO2 T01390089
14756KACK ACK20160331095011603/31/16 09:50:31  5-MIN KACK 311450Z 19017KT 9SM CLR 13/08 A3010 -110 71 -300 210/17 RMK AO2 SLP192 T01330083 58000
14756KACK ACK20160331095510303/31/16 09:55:31  5-MIN KACK 311455Z 20017KT 9SM CLR 14/09 A3010 -110 71 -200 210/17 RMK AO2 T01390089
14756KACK ACK20160331100010603/31/16 10:00:31  5-MIN KACK 311500Z 19017KT 9SM SCT046 13/08 A3010 -110 71 -300 210/17 RMK AO2 T01330083
14756KACK ACK20160331100510603/31/16 10:05:31  5-MIN KACK 311505Z 19016KT 9SM BKN046 13/08 A3010 -110 71 -200 210/16 RMK AO2 T01330083
14756KACK ACK20160331101010603/31/16 10:10:31  5-MIN KACK 311510Z 20016KT 9SM BKN046 13/08 A3009 -110 71 -200 210/16 RMK AO2 T01330083
14756KACK ACK20160331101510603/31/16 10:15:31  5-MIN KACK 311515Z 19015KT 9SM BKN046 13/08 A3009 -100 74 -300 210/15 RMK AO2 T01280083
14756KACK ACK20160331102011303/31/16 10:20:31  5-MIN KACK 311520Z 20016KT 9SM BKN046 OVC060 13/08 A3009 -100 71 -200 210/16 RMK AO2 T01330083
14756KACK ACK20160331102510603/31/16 10:25:31  5-MIN KACK 311525Z 20015KT 9SM OVC046 13/08 A3009 -100 71 -200 210/15 RMK AO2 T01330083
14756KACK ACK20160331103010603/31/16 10:30:31  5-MIN KACK 311530Z 20015KT 9SM BKN046 14/08 A3008 -100 69 -200 210/15 RMK AO2 T01390083
14756KACK ACK20160331103510703/31/16 10:35:31  5-MIN KACK 311535Z 20016KT 10SM BKN046 14/08 A3008 -100 69 -200 210/16 RMK AO2 T01390083
14756KACK ACK20160331104011403/31/16 10:40:31  5-MIN KACK 311540Z 19015KT 10SM FEW040 BKN046 14/08 A3008 -100 69 -200 210/15 RMK AO2 T01390083
14756KACK ACK20160331104511303/31/16 10:45:31  5-MIN KACK 311545Z 19014KT 10SM FEW038 SCT047 14/08 A3008 -90 69 -200 210/14 RMK AO2 T01390083
14756KACK ACK20160331105012003/31/16 10:50:31  5-MIN KACK 311550Z 19013KT 10SM FEW040 SCT047 14/08 A3008 -90 66 -100 210/13 RMK AO2 SLP185 T01440083
14756KACK ACK20160331105511303/31/16 10:55:31  5-MIN KACK 311555Z 20014KT 10SM FEW038 SCT049 14/08 A3008 -90 66 -100 210/14 RMK AO2 T01440083
14756KACK ACK20160331110011303/31/16 11:00:31  5-MIN KACK 311600Z 20013KT 10SM FEW038 SCT049 14/08 A3008 -90 66 -100 210/13 RMK AO2 T01440083
14756KACK ACK20160331110510603/31/16 11:05:31  5-MIN KACK 311605Z 20015KT 10SM SCT049 14/08 A3007 -90 66 -100 210/15 RMK AO2 T01440083
14756KACK ACK20160331111010603/31/16 11:10:31  5-MIN KACK 311610Z 20014KT 10SM FEW048 14/08 A3007 -90 66 -100 210/14 RMK AO2 T01440083
14756KACK ACK20160331111510603/31/16 11:15:31  5-MIN KACK 311615Z 20015KT 10SM SCT048 14/08 A3007 -90 66 -100 210/15 RMK AO2 T01440083
14756KACK ACK20160331112010603/31/16 11:20:31  5-MIN KACK 311620Z 20016KT 10SM BKN048 14/08 A3007 -80 66 -100 210/16 RMK AO2 T01440083
14756KACK ACK20160331112510603/31/16 11:25:31  5-MIN KACK 311625Z 20015KT 10SM BKN047 14/08 A3007 -80 64 -100 210/15 RMK AO2 T01440078
14756KACK ACK20160331113010603/31/16 11:30:31  5-MIN KACK 311630Z 20014KT 10SM BKN049 14/08 A3007 -80 66 -100 210/14 RMK AO2 T01390078
14756KACK ACK20160331113510603/31/16 11:35:31  5-MIN KACK 311635Z 20015KT 10SM BKN049 14/08 A3006 -80 66 -100 210/15 RMK AO2 T01440083
14756KACK ACK20160331114010603/31/16 11:40:31  5-MIN KACK 311640Z 20015KT 10SM BKN049 14/08 A3006 -70 66 -100 210/15 RMK AO2 T01440083
14756KACK ACK20160331114510303/31/16 11:45:31  5-MIN KACK 311645Z 20015KT 10SM BKN049 15/08 A3006 -70 64 0 210/15 RMK AO2 T01500083
14756KACK ACK20160331115011003/31/16 11:50:31  5-MIN KACK 311650Z 20015KT 10SM BKN049 15/08 A3006 -70 64 0 210/15 RMK AO2 SLP178 T01500083
14756KACK ACK20160331115510603/31/16 11:55:31  5-MIN KACK 311655Z 20016KT 10SM BKN050 14/08 A3005 -70 66 -100 210/16 RMK AO2 T01440083
14756KACK ACK20160331120010603/31/16 12:00:31  5-MIN KACK 311700Z 19016KT 10SM SCT050 14/08 A3005 -60 66 -100 210/16 RMK AO2 T01440083
14756KACK ACK20160331120510303/31/16 12:05:31  5-MIN KACK 311705Z 19015KT 10SM SCT050 15/08 A3005 -60 64 0 210/15 RMK AO2 T01500083
14756KACK ACK20160331121010603/31/16 12:10:31  5-MIN KACK 311710Z 20016KT 10SM SCT050 14/08 A3004 -60 66 -100 210/16 RMK AO2 T01440083
14756KACK ACK20160331121511303/31/16 12:15:31  5-MIN KACK 311715Z 20017KT 10SM FEW042 SCT055 14/08 A3004 -60 69 -100 210/17 RMK AO2 T01390083
14756KACK ACK20160331122011303/31/16 12:20:31  5-MIN KACK 311720Z 19015KT 10SM SCT042 SCT055 14/08 A3004 -60 66 -100 200/15 RMK AO2 T01440083
14756KACK ACK20160331122511303/31/16 12:25:31  5-MIN KACK 311725Z 19016KT 10SM SCT042 BKN050 14/08 A3004 -60 69 -100 210/16 RMK AO2 T01390083
14756KACK ACK20160331123011203/31/16 12:30:31  5-MIN KACK 311730Z 19014G22KT 10SM BKN041 13/08 A3005 -60 71 -200 210/14G22 RMK AO2 T01330083
14756KACK ACK20160331123510503/31/16 12:35:31  5-MIN KACK 311735Z 19013KT 9SM BKN041 13/08 A3004 -60 71 -200 200/13 RMK AO2 T01330083
14756KACK ACK20160331124010503/31/16 12:40:31  5-MIN KACK 311740Z 18014KT 9SM BKN041 13/08 A3004 -60 74 -300 200/14 RMK AO2 T01280083
14756KACK ACK20160331124510503/31/16 12:45:31  5-MIN KACK 311745Z 20012KT 9SM OVC039 13/08 A3004 -60 74 -300 210/12 RMK AO2 T01280083
14756KACK ACK20160331125013003/31/16 12:50:31  5-MIN KACK 311750Z 19013KT 9SM SCT039 14/09 A3004 -60 71 -100 210/13 RMK AO2 SLP173 T01390089 10150 20106 58006
14756KACK ACK20160331125511203/31/16 12:55:31  5-MIN KACK 311755Z 19014KT 9SM BKN039 OVC050 14/09 A3004 -60 69 -100 210/14 RMK AO2 T01440089
14756KACK ACK20160331130011203/31/16 13:00:31  5-MIN KACK 311800Z 19013KT 9SM BKN040 OVC050 13/09 A3004 -60 74 -200 210/13 RMK AO2 T01330089
14756KACK ACK20160331130511203/31/16 13:05:31  5-MIN KACK 311805Z 20012KT 8SM BKN040 OVC050 13/09 A3004 -60 74 -200 210/12 RMK AO2 T01330089
14756KACK ACK20160331131011203/31/16 13:10:31  5-MIN KACK 311810Z 20013KT 8SM SCT040 OVC050 13/09 A3004 -60 77 -300 210/13 RMK AO2 T01280089
14756KACK ACK20160331131511203/31/16 13:15:31  5-MIN KACK 311815Z 20013KT 8SM FEW040 OVC055 13/09 A3004 -60 74 -200 220/13 RMK AO2 T01330089
14756KACK ACK20160331132011203/31/16 13:20:31  5-MIN KACK 311820Z 20012KT 8SM SCT040 OVC055 13/09 A3004 -60 77 -300 220/12 RMK AO2 T01280089
14756KACK ACK20160331132511203/31/16 13:25:31  5-MIN KACK 311825Z 20013KT 8SM BKN040 OVC050 13/09 A3004 -60 77 -300 210/13 RMK AO2 T01280089
14756KACK ACK20160331133011203/31/16 13:30:31  5-MIN KACK 311830Z 20014KT 8SM BKN039 OVC050 13/09 A3004 -60 77 -200 210/14 RMK AO2 T01280089
14756KACK ACK20160331133511203/31/16 13:35:31  5-MIN KACK 311835Z 20013KT 8SM SCT039 OVC050 12/09 A3004 -50 80 -300 210/13 RMK AO2 T01220089
14756KACK ACK20160331134011203/31/16 13:40:31  5-MIN KACK 311840Z 20012KT 8SM SCT039 OVC055 13/09 A3003 -50 77 -200 210/12 RMK AO2 T01280089
14756KACK ACK20160331134511203/31/16 13:45:31  5-MIN KACK 311845Z 20014KT 8SM SCT039 OVC055 13/09 A3003 -50 77 -200 210/14 RMK AO2 T01280089
14756KACK ACK20160331135011903/31/16 13:50:31  5-MIN KACK 311850Z 20012KT 8SM FEW039 OVC055 13/09 A3003 -50 77 -200 220/12 RMK AO2 SLP168 T01280089
14756KACK ACK20160331135511203/31/16 13:55:31  5-MIN KACK 311855Z 20015KT 8SM SCT039 OVC055 13/09 A3003 -50 74 -200 220/15 RMK AO2 T01330089
14756KACK ACK20160331140011203/31/16 14:00:31  5-MIN KACK 311900Z 20014KT 8SM SCT039 OVC055 13/08 A3003 -50 74 -200 220/14 RMK AO2 T01280083
14756KACK ACK20160331140511203/31/16 14:05:31  5-MIN KACK 311905Z 20013KT 8SM SCT040 OVC055 13/09 A3003 -40 77 -200 220/13 RMK AO2 T01280089
14756KACK ACK20160331141011203/31/16 14:10:31  5-MIN KACK 311910Z 20013KT 8SM SCT040 OVC055 12/08 A3003 -50 77 -300 220/13 RMK AO2 T01220083
14756KACK ACK20160331141511203/31/16 14:15:31  5-MIN KACK 311915Z 20013KT 8SM BKN042 OVC055 12/08 A3003 -50 80 -400 220/13 RMK AO2 T01170083
14756KACK ACK20160331142011203/31/16 14:20:31  5-MIN KACK 311920Z 20013KT 8SM BKN040 OVC055 12/08 A3003 -40 77 -300 220/13 RMK AO2 T01220083
14756KACK ACK20160331142511203/31/16 14:25:31  5-MIN KACK 311925Z 20013KT 8SM BKN042 OVC055 12/08 A3003 -40 77 -300 220/13 RMK AO2 T01220083
14756KACK ACK20160331143011203/31/16 14:30:31  5-MIN KACK 311930Z 20014KT 8SM BKN042 OVC055 13/09 A3003 -40 77 -200 220/14 RMK AO2 T01280089
14756KACK ACK20160331143511203/31/16 14:35:31  5-MIN KACK 311935Z 20014KT 8SM BKN042 OVC055 13/09 A3002 -40 77 -200 220/14 RMK AO2 T01280089
14756KACK ACK20160331144011203/31/16 14:40:31  5-MIN KACK 311940Z 20015KT 8SM BKN040 OVC055 13/09 A3002 -40 77 -200 220/15 RMK AO2 T01280089
14756KACK ACK20160331144511203/31/16 14:45:31  5-MIN KACK 311945Z 20015KT 8SM BKN040 OVC055 12/09 A3002 -40 80 -300 220/15 RMK AO2 T01220089
14756KACK ACK20160331145011903/31/16 14:50:31  5-MIN KACK 311950Z 21014KT 8SM BKN040 OVC055 12/09 A3002 -40 80 -300 220/14 RMK AO2 SLP166 T01220089
14756KACK ACK20160331145511903/31/16 14:55:31  5-MIN KACK 311955Z 20015KT 8SM BKN036 BKN043 OVC055 13/09 A3002 -40 77 -200 220/15 RMK AO2 T01280089
14756KACK ACK20160331150011203/31/16 15:00:31  5-MIN KACK 312000Z 20016KT 8SM SCT036 OVC055 13/09 A3002 -40 77 -200 220/16 RMK AO2 T01280089
14756KACK ACK20160331150511903/31/16 15:05:31  5-MIN KACK 312005Z 20016KT 8SM SCT036 BKN043 OVC055 13/09 A3002 -40 77 -200 220/16 RMK AO2 T01280089
14756KACK ACK20160331151011903/31/16 15:10:31  5-MIN KACK 312010Z 20016KT 8SM FEW036 SCT043 OVC055 13/09 A3002 -30 77 -200 220/16 RMK AO2 T01280089
14756KACK ACK20160331151511903/31/16 15:15:31  5-MIN KACK 312015Z 20015KT 8SM FEW035 SCT042 OVC055 13/09 A3002 -40 77 -200 220/15 RMK AO2 T01280089
14756KACK ACK20160331152011903/31/16 15:20:31  5-MIN KACK 312020Z 20014KT 8SM FEW032 SCT042 OVC055 12/09 A3002 -30 80 -300 220/14 RMK AO2 T01220089
14756KACK ACK20160331152511203/31/16 15:25:31  5-MIN KACK 312025Z 20015KT 8SM SCT044 OVC055 12/09 A3002 -40 80 -300 220/15 RMK AO2 T01220089
14756KACK ACK20160331153011203/31/16 15:30:31  5-MIN KACK 312030Z 20015KT 7SM SCT044 OVC055 12/09 A3002 -30 80 -300 220/15 RMK AO2 T01220089
14756KACK ACK20160331153511203/31/16 15:35:31  5-MIN KACK 312035Z 20014KT 7SM FEW044 OVC055 12/09 A3001 -30 80 -300 210/14 RMK AO2 T01220089
14756KACK ACK20160331154011203/31/16 15:40:31  5-MIN KACK 312040Z 20014KT 7SM FEW045 OVC055 12/09 A3001 -30 80 -300 210/14 RMK AO2 T01220089
14756KACK ACK20160331154511203/31/16 15:45:31  5-MIN KACK 312045Z 20014KT 7SM FEW045 OVC055 12/09 A3001 -30 80 -300 210/14 RMK AO2 T01220089
14756KACK ACK20160331155012503/31/16 15:50:31  5-MIN KACK 312050Z 20013KT 7SM FEW045 OVC055 12/09 A3001 -30 80 -300 220/13 RMK AO2 SLP163 T01220089 56019
14756KACK ACK20160331155510503/31/16 15:55:31  5-MIN KACK 312055Z 20014KT 7SM OVC055 12/09 A3001 -30 80 -300 220/14 RMK AO2 T01220089
14756KACK ACK20160331160010503/31/16 16:00:31  5-MIN KACK 312100Z 20013KT 7SM OVC055 12/09 A3001 -30 80 -300 210/13 RMK AO2 T01220089
14756KACK ACK20160331160510503/31/16 16:05:31  5-MIN KACK 312105Z 20014KT 7SM OVC055 12/09 A3001 -30 80 -300 210/14 RMK AO2 T01220089
14756KACK ACK20160331161010503/31/16 16:10:31  5-MIN KACK 312110Z 20015KT 7SM OVC060 12/09 A3001 -30 83 -300 220/15 RMK AO2 T01220094
14756KACK ACK20160331161510503/31/16 16:15:31  5-MIN KACK 312115Z 20015KT 7SM OVC060 12/09 A3001 -30 80 -300 220/15 RMK AO2 T01220089
14756KACK ACK20160331162010503/31/16 16:20:31  5-MIN KACK 312120Z 20014KT 7SM OVC060 12/09 A3001 -30 80 -300 210/14 RMK AO2 T01220089
14756KACK ACK20160331162510503/31/16 16:25:31  5-MIN KACK 312125Z 20015KT 7SM OVC060 12/09 A3001 -30 80 -300 210/15 RMK AO2 T01220089
14756KACK ACK20160331163011203/31/16 16:30:31  5-MIN KACK 312130Z 20015KT 7SM FEW045 OVC060 12/09 A3000 -20 80 -300 210/15 RMK AO2 T01220089
14756KACK ACK20160331163511203/31/16 16:35:31  5-MIN KACK 312135Z 20015KT 7SM FEW043 OVC060 12/09 A3001 -20 80 -300 210/15 RMK AO2 T01220089
14756KACK ACK20160331164011203/31/16 16:40:31  5-MIN KACK 312140Z 20016KT 7SM FEW043 OVC060 12/09 A3000 -20 80 -300 210/16 RMK AO2 T01220089
14756KACK ACK20160331164511203/31/16 16:45:31  5-MIN KACK 312145Z 20015KT 7SM FEW041 OVC055 12/09 A3000 -20 80 -300 210/15 RMK AO2 T01220089
14756KACK ACK20160331165012603/31/16 16:50:31  5-MIN KACK 312150Z 19012KT 7SM FEW036 FEW043 OVC055 12/09 A3000 -20 80 -300 210/12 RMK AO2 SLP158 T01220089
14756KACK ACK20160331165511203/31/16 16:55:31  5-MIN KACK 312155Z 19013KT 7SM FEW038 BKN055 12/09 A3000 -20 83 -300 200/13 RMK AO2 T01170089
14756KACK ACK20160331170011203/31/16 17:00:31  5-MIN KACK 312200Z 19014KT 7SM SCT038 BKN055 12/09 A3000 -20 83 -300 210/14 RMK AO2 T01170089
14756KACK ACK20160331170511203/31/16 17:05:31  5-MIN KACK 312205Z 19013KT 7SM SCT036 BKN055 12/09 A2999 -10 83 -300 210/13 RMK AO2 T01170089
14756KACK ACK20160331171011203/31/16 17:10:31  5-MIN KACK 312210Z 19014KT 7SM SCT036 BKN055 12/09 A2999 -10 83 -300 210/14 RMK AO2 T01170089
14756KACK ACK20160331171510503/31/16 17:15:31  5-MIN KACK 312215Z 19014KT 7SM SCT036 12/09 A2999 -10 83 -300 200/14 RMK AO2 T01170089
14756KACK ACK20160331172010503/31/16 17:20:31  5-MIN KACK 312220Z 19014KT 7SM SCT036 12/09 A2999 -10 83 -300 200/14 RMK AO2 T01170089
14756KACK ACK20160331172510803/31/16 17:25:31  5-MIN KACK 312225Z 19013KT 6SM HZ BKN034 11/08 A2999 -10 83 -400 200/13 RMK AO2 T01110083
14756KACK ACK20160331173010803/31/16 17:30:31  5-MIN KACK 312230Z 19013KT 6SM HZ BKN034 11/08 A2999 -10 83 -400 200/13 RMK AO2 T01110083
14756KACK ACK20160331173511503/31/16 17:35:31  5-MIN KACK 312235Z 19012KT 6SM HZ BKN034 BKN060 11/08 A2999 -10 83 -400 200/12 RMK AO2 T01110083
14756KACK ACK20160331174011503/31/16 17:40:31  5-MIN KACK 312240Z 19013KT 6SM HZ SCT034 BKN060 11/08 A2999 -10 83 -400 200/13 RMK AO2 T01110083
14756KACK ACK20160331174511503/31/16 17:45:31  5-MIN KACK 312245Z 19013KT 6SM HZ SCT034 SCT060 11/08 A2998 -10 83 -400 200/13 RMK AO2 T01110083
14756KACK ACK20160331175012203/31/16 17:50:31  5-MIN KACK 312250Z 19013KT 6SM HZ SCT034 SCT060 11/08 A2999 -10 83 -400 200/13 RMK AO2 SLP154 T01110083
14756KACK ACK20160331175511303/31/16 17:55:31  5-MIN KACK 312255Z 19013KT 6SM BR SCT035 BKN060 11/09 A2998 0 86 -400 200/13 RMK AO2 T01110089
14756KACK ACK20160331180011303/31/16 18:00:31  5-MIN KACK 312300Z 19014KT 6SM BR BKN035 BKN055 11/09 A2998 0 86 -400 200/14 RMK AO2 T01110089
14756KACK ACK20160331180510603/31/16 18:05:31  5-MIN KACK 312305Z 19014KT 6SM BR BKN035 11/09 A2998 0 86 -400 200/14 RMK AO2 T01110089
14756KACK ACK20160331181010303/31/16 18:10:31  5-MIN KACK 312310Z 19014KT 7SM BKN037 11/08 A2998 0 83 -400 200/14 RMK AO2 T01110083
14756KACK ACK20160331181510303/31/16 18:15:31  5-MIN KACK 312315Z 18015KT 8SM BKN037 11/09 A2998 0 86 -400 200/15 RMK AO2 T01110089
14756KACK ACK20160331182010303/31/16 18:20:31  5-MIN KACK 312320Z 19016KT 8SM OVC038 11/09 A2997 0 86 -400 200/16 RMK AO2 T01110089
14756KACK ACK20160331182510303/31/16 18:25:31  5-MIN KACK 312325Z 18016KT 8SM OVC038 11/09 A2997 0 86 -400 200/16 RMK AO2 T01110089
14756KACK ACK20160331183010303/31/16 18:30:31  5-MIN KACK 312330Z 18015KT 8SM OVC038 11/09 A2997 0 86 -400 200/15 RMK AO2 T01110089
14756KACK ACK20160331183510303/31/16 18:35:31  5-MIN KACK 312335Z 18015KT 8SM OVC040 11/09 A2997 0 86 -400 200/15 RMK AO2 T01110089
14756KACK ACK20160331184010303/31/16 18:40:31  5-MIN KACK 312340Z 18015KT 8SM OVC040 11/09 A2997 0 86 -400 200/15 RMK AO2 T01110089
14756KACK ACK20160331184510403/31/16 18:45:31  5-MIN KACK 312345Z 18015KT 8SM BKN040 11/09 A2997 10 86 -400 200/15 RMK AO2 T01110089
14756KACK ACK20160331185012903/31/16 18:50:31  5-MIN KACK 312350Z 18015KT 8SM BKN040 11/09 A2997 10 86 -400 200/15 RMK AO2 SLP147 T01110089 10144 20111 56011
14756KACK ACK20160331185510403/31/16 18:55:31  5-MIN KACK 312355Z 18016KT 8SM SCT040 11/09 A2997 10 86 -400 200/16 RMK AO2 T01110089
14756KACK ACK20160331190010403/31/16 19:00:31  5-MIN KACK 010000Z 18017KT 8SM SCT040 11/09 A2996 10 86 -400 200/17 RMK AO2 T01110089
14756KACK ACK20160331190511003/31/16 19:05:31  5-MIN KACK 010005Z 18017G23KT 8SM FEW040 12/09 A2996 10 83 -300 200/17G23 RMK AO2 T01170089
14756KACK ACK20160331191010403/31/16 19:10:31  5-MIN KACK 010010Z 19016KT 8SM FEW055 12/09 A2996 10 83 -300 200/16 RMK AO2 T01170089
14756KACK ACK20160331191511103/31/16 19:15:31  5-MIN KACK 010015Z 19017KT 8SM FEW049 SCT055 12/09 A2996 10 83 -300 200/17 RMK AO2 T01170089
14756KACK ACK20160331192011103/31/16 19:20:31  5-MIN KACK 010020Z 18017KT 8SM SCT049 BKN055 12/09 A2996 10 86 -300 200/17 RMK AO2 T01170094
14756KACK ACK20160331192511103/31/16 19:25:31  5-MIN KACK 010025Z 18016KT 8SM SCT049 BKN055 12/09 A2996 10 86 -300 200/16 RMK AO2 T01170094
14756KACK ACK20160331193011103/31/16 19:30:31  5-MIN KACK 010030Z 18017KT 8SM FEW049 SCT055 12/09 A2996 10 83 -300 200/17 RMK AO2 T01170089
14756KACK ACK20160331193511803/31/16 19:35:31  5-MIN KACK 010035Z 18017KT 8SM FEW039 SCT049 BKN055 12/09 A2996 10 86 -300 200/17 RMK AO2 T01170094
14756KACK ACK20160331194011803/31/16 19:40:31  5-MIN KACK 010040Z 18017KT 8SM SCT039 BKN049 BKN055 12/09 A2996 10 86 -300 200/17 RMK AO2 T01170094
14756KACK ACK20160331194511103/31/16 19:45:31  5-MIN KACK 010045Z 18018KT 8SM BKN039 BKN049 12/09 A2996 20 86 -300 200/18 RMK AO2 T01170094
14756KACK ACK20160331195011103/31/16 19:50:31  5-MIN KACK 010050Z 18017KT 8SM BKN039 12/09 A2996 20 86 -300 200/17 RMK AO2 SLP144 T01170094
14756KACK ACK20160331195511403/31/16 19:55:31  5-MIN KACK 010055Z AUTO 18017KT 8SM BKN037 12/09 A2996 20 86 -300 200/17 RMK AO2 T01170094 TSNO
14756KACK ACK20160331200011403/31/16 20:00:31  5-MIN KACK 010100Z AUTO 18016KT 7SM OVC037 12/09 A2996 20 86 -300 200/16 RMK AO2 T01170094 TSNO
14756KACK ACK20160331200511403/31/16 20:05:31  5-MIN KACK 010105Z AUTO 18016KT 7SM OVC037 12/09 A2995 20 86 -300 200/16 RMK AO2 T01170094 TSNO
14756KACK ACK20160331201011403/31/16 20:10:31  5-MIN KACK 010110Z AUTO 18017KT 7SM OVC037 12/09 A2995 20 86 -300 200/17 RMK AO2 T01170094 TSNO
14756KACK ACK20160331201512103/31/16 20:15:31  5-MIN KACK 010115Z AUTO 19016KT 7SM BKN037 OVC046 12/09 A2995 20 86 -300 200/16 RMK AO2 T01170094 TSNO
14756KACK ACK20160331202012103/31/16 20:20:31  5-MIN KACK 010120Z AUTO 19016KT 7SM BKN037 OVC046 12/09 A2995 20 86 -300 200/16 RMK AO2 T01170094 TSNO
14756KACK ACK20160331202512803/31/16 20:25:31  5-MIN KACK 010125Z AUTO 19017KT 7SM BKN037 BKN046 OVC060 12/09 A2995 20 86 -300 200/17 RMK AO2 T01170094 TSNO
14756KACK ACK20160331203012803/31/16 20:30:31  5-MIN KACK 010130Z AUTO 19016KT 7SM BKN037 BKN046 OVC060 12/09 A2995 20 86 -300 200/16 RMK AO2 T01170094 TSNO
14756KACK ACK20160331203512803/31/16 20:35:31  5-MIN KACK 010135Z AUTO 19016KT 7SM BKN037 BKN046 OVC060 12/09 A2995 30 86 -300 200/16 RMK AO2 T01170094 TSNO
14756KACK ACK20160331204012803/31/16 20:40:31  5-MIN KACK 010140Z AUTO 19016KT 7SM BKN035 BKN048 OVC060 12/09 A2995 30 86 -300 200/16 RMK AO2 T01170094 TSNO
14756KACK ACK20160331204512803/31/16 20:45:31  5-MIN KACK 010145Z AUTO 19017KT 7SM SCT035 BKN048 OVC060 12/09 A2994 30 86 -300 200/17 RMK AO2 T01170094 TSNO
14756KACK ACK20160331205013503/31/16 20:50:31  5-MIN KACK 010150Z AUTO 18017KT 7SM FEW035 BKN048 OVC060 12/09 A2994 30 86 -300 200/17 RMK AO2 SLP139 T01170094 TSNO
14756KACK ACK20160331205512803/31/16 20:55:31  5-MIN KACK 010155Z AUTO 18017KT 7SM SCT035 BKN050 OVC060 12/09 A2994 30 86 -300 200/17 RMK AO2 T01170094 TSNO
14756KACK ACK20160331210012803/31/16 21:00:31  5-MIN KACK 010200Z AUTO 18017KT 7SM SCT035 BKN050 OVC060 12/09 A2994 30 86 -300 200/17 RMK AO2 T01170094 TSNO
14756KACK ACK20160331210513403/31/16 21:05:31  5-MIN KACK 010205Z AUTO 19016G23KT 7SM FEW035 BKN050 OVC060 12/09 A2994 30 86 -300 200/16G23 RMK AO2 T01170094 TSNO
14756KACK ACK20160331211012103/31/16 21:10:31  5-MIN KACK 010210Z AUTO 19016KT 7SM FEW034 OVC048 12/09 A2994 30 86 -300 200/16 RMK AO2 T01170094 TSNO
14756KACK ACK20160331211512103/31/16 21:15:31  5-MIN KACK 010215Z AUTO 19016KT 7SM BKN048 OVC060 12/09 A2994 30 86 -300 200/16 RMK AO2 T01170094 TSNO
14756KACK ACK20160331212012803/31/16 21:20:31  5-MIN KACK 010220Z AUTO 18017KT 7SM FEW038 BKN048 OVC060 12/09 A2994 30 86 -300 200/17 RMK AO2 T01170094 TSNO
14756KACK ACK20160331212512803/31/16 21:25:31  5-MIN KACK 010225Z AUTO 18017KT 7SM FEW028 BKN048 OVC060 12/09 A2994 30 86 -300 200/17 RMK AO2 T01170094 TSNO
14756KACK ACK20160331213012803/31/16 21:30:31  5-MIN KACK 010230Z AUTO 19017KT 7SM FEW028 BKN048 OVC060 12/09 A2994 40 86 -300 200/17 RMK AO2 T01170094 TSNO
14756KACK ACK20160331213512803/31/16 21:35:31  5-MIN KACK 010235Z AUTO 19016KT 7SM FEW028 BKN048 OVC060 12/09 A2994 40 86 -300 200/16 RMK AO2 T01170094 TSNO
14756KACK ACK20160331214012803/31/16 21:40:31  5-MIN KACK 010240Z AUTO 19015KT 7SM SCT034 BKN048 OVC060 12/09 A2994 40 86 -300 200/15 RMK AO2 T01170094 TSNO
14756KACK ACK20160331214513103/31/16 21:45:31  5-MIN KACK 010245Z AUTO 19015KT 6SM BR FEW029 BKN034 OVC060 12/09 A2994 40 86 -300 200/15 RMK AO2 T01170094 TSNO
14756KACK ACK20160331215014403/31/16 21:50:31  5-MIN KACK 010250Z AUTO 18017KT 6SM BR BKN034 BKN047 OVC060 12/09 A2993 40 86 -300 200/17 RMK AO2 SLP136 T01170094 58015 TSNO
14756KACK ACK20160331215513103/31/16 21:55:31  5-MIN KACK 010255Z AUTO 19016KT 6SM BR FEW030 BKN034 OVC048 12/09 A2993 40 86 -300 200/16 RMK AO2 T01170094 TSNO
14756KACK ACK20160331220011703/31/16 22:00:31  5-MIN KACK 010300Z AUTO 19016KT 6SM BR OVC034 12/10 A2993 40 89 -300 200/16 RMK AO2 T01170100 TSNO
14756KACK ACK20160331220511703/31/16 22:05:31  5-MIN KACK 010305Z AUTO 19017KT 6SM BR OVC034 12/09 A2993 40 86 -300 200/17 RMK AO2 T01170094 TSNO
14756KACK ACK20160331221012403/31/16 22:10:31  5-MIN KACK 010310Z AUTO 19016KT 6SM BR SCT030 OVC036 12/10 A2993 40 89 -300 200/16 RMK AO2 T01170100 TSNO
14756KACK ACK20160331221513103/31/16 22:15:31  5-MIN KACK 010315Z AUTO 19017KT 6SM BR FEW027 BKN034 OVC043 12/10 A2992 50 89 -200 200/17 RMK AO2 T01170100 TSNO
14756KACK ACK20160331222013103/31/16 22:20:31  5-MIN KACK 010320Z AUTO 19016KT 6SM BR FEW024 BKN030 OVC043 12/10 A2992 50 89 -200 200/16 RMK AO2 T01170100 TSNO
14756KACK ACK20160331222513103/31/16 22:25:31  5-MIN KACK 010325Z AUTO 18016KT 6SM BR FEW024 BKN030 OVC042 12/10 A2992 50 89 -200 200/16 RMK AO2 T01170100 TSNO
14756KACK ACK20160331223013703/31/16 22:30:31  5-MIN KACK 010330Z AUTO 18016G23KT 6SM BR BKN028 BKN034 OVC042 12/09 A2991 50 86 -200 200/16G23 RMK AO2 T01170094 TSNO
14756KACK ACK20160331223513003/31/16 22:35:31  5-MIN KACK 010335Z AUTO 18017G23KT 6SM BR BKN028 OVC035 12/10 A2991 60 89 -200 200/17G23 RMK AO2 T01170100 TSNO
14756KACK ACK20160331224011703/31/16 22:40:31  5-MIN KACK 010340Z AUTO 18016KT 6SM BR OVC028 12/09 A2991 60 86 -200 200/16 RMK AO2 T01170094 TSNO
14756KACK ACK20160331224511703/31/16 22:45:31  5-MIN KACK 010345Z AUTO 18016KT 6SM BR OVC028 11/09 A2991 60 89 -300 200/16 RMK AO2 T01110094 TSNO
14756KACK ACK20160331225012403/31/16 22:50:31  5-MIN KACK 010350Z AUTO 18015KT 6SM BR OVC026 12/10 A2991 60 89 -200 200/15 RMK AO2 SLP129 T01170100 TSNO
14756KACK ACK20160331225511703/31/16 22:55:31  5-MIN KACK 010355Z AUTO 18016KT 6SM BR OVC026 12/10 A2991 60 89 -200 200/16 RMK AO2 T01170100 TSNO
14756KACK ACK20160331230011703/31/16 23:00:31  5-MIN KACK 010400Z AUTO 18017KT 6SM BR OVC026 12/10 A2991 60 89 -200 200/17 RMK AO2 T01170100 TSNO
14756KACK ACK20160331230511703/31/16 23:05:31  5-MIN KACK 010405Z AUTO 18016KT 6SM BR OVC026 12/10 A2991 60 89 -200 200/16 RMK AO2 T01170100 TSNO
14756KACK ACK20160331231011703/31/16 23:10:31  5-MIN KACK 010410Z AUTO 18018KT 5SM BR OVC026 12/10 A2990 60 89 -200 200/18 RMK AO2 T01170100 TSNO
14756KACK ACK20160331231511703/31/16 23:15:31  5-MIN KACK 010415Z AUTO 18016KT 5SM BR OVC026 12/10 A2990 70 89 -200 200/16 RMK AO2 T01170100 TSNO
14756KACK ACK20160331232011703/31/16 23:20:31  5-MIN KACK 010420Z AUTO 18017KT 5SM BR OVC027 12/10 A2990 70 89 -200 200/17 RMK AO2 T01170100 TSNO
14756KACK ACK20160331232512303/31/16 23:25:31  5-MIN KACK 010425Z AUTO 18015G22KT 5SM BR OVC029 12/10 A2990 60 89 -200 200/15G22 RMK AO2 T01170100 TSNO
14756KACK ACK20160331233011703/31/16 23:30:31  5-MIN KACK 010430Z AUTO 19015KT 5SM BR OVC029 12/10 A2990 60 89 -200 200/15 RMK AO2 T01170100 TSNO
14756KACK ACK20160331233513103/31/16 23:35:31  5-MIN KACK 010435Z AUTO 19015KT 5SM BR BKN029 BKN036 OVC070 12/10 A2991 60 89 -200 200/15 RMK AO2 T01170100 TSNO
14756KACK ACK20160331234013103/31/16 23:40:31  5-MIN KACK 010440Z AUTO 19015KT 5SM BR BKN030 BKN036 OVC070 12/10 A2990 60 89 -200 200/15 RMK AO2 T01170100 TSNO
14756KACK ACK20160331234513103/31/16 23:45:31  5-MIN KACK 010445Z AUTO 19015KT 5SM BR BKN030 BKN037 OVC070 12/10 A2990 70 89 -200 200/15 RMK AO2 T01170100 TSNO
14756KACK ACK20160331235014803/31/16 23:50:31  5-MIN KACK 010450Z AUTO 18015KT 5SM BR BKN032 BKN045 OVC070 12/10 A2990 70 89 -200 200/15 RMK AO2 SLP124 T01170100 401500078 TSNO
14756KACK ACK20160331235513103/31/16 23:55:31  5-MIN KACK 010455Z AUTO 18016KT 5SM BR BKN030 BKN037 OVC070 12/10 A2990 70 89 -200 200/16 RMK AO2 T01170100 TSNO
