03812KAVL AVL20160504024510905/04/16 02:45:31  5-MIN KAVL 040745Z AUTO 34007KT 10SM CLR 11/07 A2980 2280 77 2300 350/07 RMK AO2 T01060067
03812KAVL AVL20160504025011605/04/16 02:50:31  5-MIN KAVL 040750Z AUTO 34006KT 10SM CLR 11/07 A2980 2280 77 2300 340/06 RMK AO2 SLP072 T01060067
03812KAVL AVL20160504025510905/04/16 02:55:31  5-MIN KAVL 040755Z AUTO 34005KT 10SM CLR 11/07 A2980 2280 77 2300 340/05 RMK AO2 T01060067
03812KAVL AVL20160504030010905/04/16 03:00:31  5-MIN KAVL 040800Z AUTO 34006KT 10SM CLR 11/07 A2979 2280 77 2300 340/06 RMK AO2 T01060067
03812KAVL AVL20160504030510905/04/16 03:05:31  5-MIN KAVL 040805Z AUTO 34007KT 10SM CLR 11/07 A2979 2290 77 2300 340/07 RMK AO2 T01060067
03812KAVL AVL20160504031010905/04/16 03:10:31  5-MIN KAVL 040810Z AUTO 34007KT 10SM CLR 11/07 A2979 2280 77 2300 340/07 RMK AO2 T01060067
03812KAVL AVL20160504031510905/04/16 03:15:31  5-MIN KAVL 040815Z AUTO 35005KT 10SM CLR 11/07 A2979 2280 77 2300 350/05 RMK AO2 T01060067
03812KAVL AVL20160504032010905/04/16 03:20:31  5-MIN KAVL 040820Z AUTO 36005KT 10SM CLR 11/07 A2980 2280 77 2300 010/05 RMK AO2 T01060067
03812KAVL AVL20160504032510905/04/16 03:25:31  5-MIN KAVL 040825Z AUTO 35005KT 10SM CLR 11/07 A2979 2290 77 2300 360/05 RMK AO2 T01060067
03812KAVL AVL20160504033010905/04/16 03:30:31  5-MIN KAVL 040830Z AUTO 35005KT 10SM CLR 11/07 A2980 2280 74 2400 360/05 RMK AO2 T01110067
03812KAVL AVL20160504033510905/04/16 03:35:31  5-MIN KAVL 040835Z AUTO 34007KT 10SM CLR 11/07 A2980 2280 77 2300 340/07 RMK AO2 T01060067
03812KAVL AVL20160504034010905/04/16 03:40:31  5-MIN KAVL 040840Z AUTO 34007KT 10SM CLR 11/07 A2980 2280 77 2300 350/07 RMK AO2 T01060067
03812KAVL AVL20160504034510905/04/16 03:45:31  5-MIN KAVL 040845Z AUTO 34008KT 10SM CLR 11/07 A2980 2280 77 2300 340/08 RMK AO2 T01060067
03812KAVL AVL20160504035012205/04/16 03:50:31  5-MIN KAVL 040850Z AUTO 35004KT 10SM CLR 11/07 A2980 2280 77 2300 350/04 RMK AO2 SLP073 T01060067 56009
03812KAVL AVL20160504035510905/04/16 03:55:31  5-MIN KAVL 040855Z AUTO 34006KT 10SM CLR 11/07 A2980 2280 77 2300 350/06 RMK AO2 T01060067
03812KAVL AVL20160504040010905/04/16 04:00:31  5-MIN KAVL 040900Z AUTO 34005KT 10SM CLR 10/07 A2980 2280 80 2300 350/05 RMK AO2 T01000067
03812KAVL AVL20160504040510905/04/16 04:05:31  5-MIN KAVL 040905Z AUTO 33004KT 10SM CLR 10/07 A2980 2280 80 2300 340/04 RMK AO2 T01000067
03812KAVL AVL20160504041010905/04/16 04:10:31  5-MIN KAVL 040910Z AUTO 33005KT 10SM CLR 10/06 A2980 2280 77 2300 340/05 RMK AO2 T01000061
03812KAVL AVL20160504041510905/04/16 04:15:31  5-MIN KAVL 040915Z AUTO 00000KT 10SM CLR 10/06 A2980 2280 77 2300 000/00 RMK AO2 T01000061
03812KAVL AVL20160504042010905/04/16 04:20:31  5-MIN KAVL 040920Z AUTO 33003KT 10SM CLR 10/06 A2979 2280 77 2300 340/03 RMK AO2 T01000061
03812KAVL AVL20160504042510905/04/16 04:25:31  5-MIN KAVL 040925Z AUTO 00000KT 10SM CLR 10/06 A2979 2290 77 2300 000/00 RMK AO2 T01000061
03812KAVL AVL20160504043010905/04/16 04:30:31  5-MIN KAVL 040930Z AUTO 00000KT 10SM CLR 10/06 A2979 2290 77 2300 000/00 RMK AO2 T01000061
03812KAVL AVL20160504043510905/04/16 04:35:31  5-MIN KAVL 040935Z AUTO 00000KT 10SM CLR 10/06 A2979 2290 77 2300 000/00 RMK AO2 T01000061
03812KAVL AVL20160504044010905/04/16 04:40:31  5-MIN KAVL 040940Z AUTO 32004KT 10SM CLR 09/06 A2979 2290 79 2200 330/04 RMK AO2 T00940061
03812KAVL AVL20160504044510905/04/16 04:45:31  5-MIN KAVL 040945Z AUTO 32004KT 10SM CLR 09/06 A2979 2290 79 2200 330/04 RMK AO2 T00940061
03812KAVL AVL20160504045011605/04/16 04:50:31  5-MIN KAVL 040950Z AUTO 33004KT 10SM CLR 09/06 A2979 2290 79 2200 340/04 RMK AO2 SLP072 T00940061
03812KAVL AVL20160504045510905/04/16 04:55:31  5-MIN KAVL 040955Z AUTO 35005KT 10SM CLR 09/06 A2979 2290 79 2200 350/05 RMK AO2 T00940061
03812KAVL AVL20160504050010905/04/16 05:00:31  5-MIN KAVL 041000Z AUTO 33005KT 10SM CLR 09/06 A2979 2290 79 2200 340/05 RMK AO2 T00940061
03812KAVL AVL20160504050510905/04/16 05:05:31  5-MIN KAVL 041005Z AUTO 33003KT 10SM CLR 09/06 A2979 2290 79 2200 340/03 RMK AO2 T00940061
03812KAVL AVL20160504051010905/04/16 05:10:31  5-MIN KAVL 041010Z AUTO 34004KT 10SM CLR 09/07 A2979 2290 83 2200 350/04 RMK AO2 T00940067
03812KAVL AVL20160504051510905/04/16 05:15:31  5-MIN KAVL 041015Z AUTO 34005KT 10SM CLR 09/06 A2979 2290 79 2200 340/05 RMK AO2 T00940061
03812KAVL AVL20160504052010405/04/16 05:20:31  5-MIN KAVL 041020Z 35004KT 10SM CLR 09/06 A2979 2290 79 2200 360/04 RMK AO2 T00940061
03812KAVL AVL20160504052510405/04/16 05:25:31  5-MIN KAVL 041025Z 34006KT 10SM CLR 09/07 A2979 2290 83 2200 340/06 RMK AO2 T00940067
03812KAVL AVL20160504053010405/04/16 05:30:31  5-MIN KAVL 041030Z 33005KT 10SM CLR 09/07 A2979 2280 83 2200 340/05 RMK AO2 T00940067
03812KAVL AVL20160504053510405/04/16 05:35:31  5-MIN KAVL 041035Z 35004KT 10SM CLR 09/07 A2979 2280 83 2200 360/04 RMK AO2 T00940067
03812KAVL AVL20160504054010405/04/16 05:40:31  5-MIN KAVL 041040Z 34004KT 10SM CLR 09/07 A2979 2290 83 2200 350/04 RMK AO2 T00940067
03812KAVL AVL20160504054510405/04/16 05:45:31  5-MIN KAVL 041045Z 33005KT 10SM CLR 09/07 A2979 2290 83 2200 340/05 RMK AO2 T00940067
03812KAVL AVL20160504055011105/04/16 05:50:31  5-MIN KAVL 041050Z 34006KT 10SM CLR 09/07 A2979 2290 86 2100 340/06 RMK AO2 SLP074 T00890067
03812KAVL AVL20160504055510405/04/16 05:55:31  5-MIN KAVL 041055Z 33006KT 10SM CLR 09/07 A2979 2290 83 2200 340/06 RMK AO2 T00940067
03812KAVL AVL20160504060010405/04/16 06:00:31  5-MIN KAVL 041100Z 33007KT 10SM CLR 09/07 A2979 2280 83 2200 340/07 RMK AO2 T00940067
03812KAVL AVL20160504060510405/04/16 06:05:31  5-MIN KAVL 041105Z 33006KT 10SM CLR 09/07 A2979 2280 83 2200 340/06 RMK AO2 T00940067
03812KAVL AVL20160504061010405/04/16 06:10:31  5-MIN KAVL 041110Z 32006KT 10SM CLR 09/07 A2979 2280 83 2200 330/06 RMK AO2 T00940067
03812KAVL AVL20160504061510405/04/16 06:15:31  5-MIN KAVL 041115Z 32006KT 10SM CLR 10/07 A2979 2280 83 2300 330/06 RMK AO2 T01000072
03812KAVL AVL20160504062010405/04/16 06:20:31  5-MIN KAVL 041120Z 33006KT 10SM CLR 10/07 A2980 2280 83 2300 330/06 RMK AO2 T01000072
03812KAVL AVL20160504062510405/04/16 06:25:31  5-MIN KAVL 041125Z 32006KT 10SM CLR 10/07 A2980 2280 83 2300 330/06 RMK AO2 T01000072
03812KAVL AVL20160504063010405/04/16 06:30:31  5-MIN KAVL 041130Z 33006KT 10SM CLR 11/07 A2980 2280 80 2300 330/06 RMK AO2 T01060072
03812KAVL AVL20160504063510405/04/16 06:35:31  5-MIN KAVL 041135Z 33007KT 10SM CLR 11/07 A2980 2280 80 2300 340/07 RMK AO2 T01060072
03812KAVL AVL20160504064010405/04/16 06:40:31  5-MIN KAVL 041140Z 33008KT 10SM CLR 11/07 A2980 2280 80 2300 340/08 RMK AO2 T01060072
03812KAVL AVL20160504064510405/04/16 06:45:31  5-MIN KAVL 041145Z 34009KT 10SM CLR 11/07 A2980 2280 80 2300 340/09 RMK AO2 T01060072
03812KAVL AVL20160504065012905/04/16 06:50:31  5-MIN KAVL 041150Z 34008KT 10SM CLR 11/07 A2979 2280 80 2300 350/08 RMK AO2 SLP075 T01060072 10122 20089 56010
03812KAVL AVL20160504065510405/04/16 06:55:31  5-MIN KAVL 041155Z 34009KT 10SM CLR 11/07 A2979 2290 77 2400 340/09 RMK AO2 T01110072
03812KAVL AVL20160504070010405/04/16 07:00:31  5-MIN KAVL 041200Z 34009KT 10SM CLR 11/07 A2979 2290 77 2400 340/09 RMK AO2 T01110072
03812KAVL AVL20160504070510405/04/16 07:05:31  5-MIN KAVL 041205Z 34008KT 10SM CLR 11/08 A2979 2290 80 2400 340/08 RMK AO2 T01110078
03812KAVL AVL20160504071010405/04/16 07:10:31  5-MIN KAVL 041210Z 33009KT 10SM CLR 12/08 A2979 2290 77 2500 340/09 RMK AO2 T01170078
03812KAVL AVL20160504071510405/04/16 07:15:31  5-MIN KAVL 041215Z 35008KT 10SM CLR 12/07 A2979 2290 74 2500 350/08 RMK AO2 T01170072
03812KAVL AVL20160504072010405/04/16 07:20:31  5-MIN KAVL 041220Z 35010KT 10SM CLR 12/07 A2979 2290 74 2500 350/10 RMK AO2 T01170072
03812KAVL AVL20160504072510405/04/16 07:25:31  5-MIN KAVL 041225Z 35008KT 10SM CLR 12/07 A2979 2290 74 2500 360/08 RMK AO2 T01170072
03812KAVL AVL20160504073010405/04/16 07:30:31  5-MIN KAVL 041230Z 35010KT 10SM CLR 12/07 A2979 2290 71 2500 360/10 RMK AO2 T01220072
03812KAVL AVL20160504073510705/04/16 07:35:31  5-MIN KAVL 041235Z 36012KT 10SM FEW050 12/07 A2979 2290 71 2500 360/12 RMK AO2 T01220072
03812KAVL AVL20160504074010705/04/16 07:40:31  5-MIN KAVL 041240Z 36011KT 10SM FEW050 12/07 A2979 2290 68 2500 360/11 RMK AO2 T01220067
03812KAVL AVL20160504074511405/04/16 07:45:31  5-MIN KAVL 041245Z 35011KT 10SM FEW020 SCT045 12/06 A2979 2290 68 2500 360/11 RMK AO2 T01170061
03812KAVL AVL20160504075012105/04/16 07:50:31  5-MIN KAVL 041250Z 35010KT 10SM FEW020 SCT045 12/06 A2979 2290 68 2500 360/10 RMK AO2 SLP072 T01170061
03812KAVL AVL20160504075511405/04/16 07:55:31  5-MIN KAVL 041255Z 36012KT 10SM FEW020 SCT047 12/06 A2979 2290 66 2500 010/12 RMK AO2 T01170056
03812KAVL AVL20160504080011405/04/16 08:00:31  5-MIN KAVL 041300Z 35009KT 10SM FEW020 FEW047 12/06 A2979 2290 68 2500 350/09 RMK AO2 T01170061
03812KAVL AVL20160504080511405/04/16 08:05:31  5-MIN KAVL 041305Z 36009KT 10SM FEW020 FEW047 13/06 A2979 2290 63 2600 360/09 RMK AO2 T01280061
03812KAVL AVL20160504081012005/04/16 08:10:31  5-MIN KAVL 041310Z 35014G19KT 10SM FEW021 FEW045 13/06 A2978 2290 63 2600 350/14G19 RMK AO2 T01280061
03812KAVL AVL20160504081511005/04/16 08:15:31  5-MIN KAVL 041315Z 36011G19KT 10SM CLR 13/06 A2978 2290 63 2600 010/11G19 RMK AO2 T01280061
03812KAVL AVL20160504082010405/04/16 08:20:31  5-MIN KAVL 041320Z 36012KT 10SM CLR 12/06 A2978 2290 66 2500 010/12 RMK AO2 T01220061
03812KAVL AVL20160504082510405/04/16 08:25:31  5-MIN KAVL 041325Z 36012KT 10SM CLR 13/06 A2978 2300 61 2600 360/12 RMK AO2 T01280056
03812KAVL AVL20160504083010405/04/16 08:30:31  5-MIN KAVL 041330Z 36011KT 10SM CLR 13/06 A2978 2300 61 2600 010/11 RMK AO2 T01280056
03812KAVL AVL20160504083511405/04/16 08:35:31  5-MIN KAVL 041335Z 36010KT 10SM FEW033 SCT048 13/06 A2978 2300 61 2600 360/10 RMK AO2 T01280056
03812KAVL AVL20160504084012705/04/16 08:40:31  5-MIN KAVL 041340Z 01011G17KT 10SM FEW030 FEW036 SCT048 13/06 A2978 2300 59 2700 020/11G17 RMK AO2 T01330056
03812KAVL AVL20160504084511405/04/16 08:45:31  5-MIN KAVL 041345Z 34014KT 10SM FEW030 SCT046 14/06 A2978 2300 57 2700 350/14 RMK AO2 T01390056
03812KAVL AVL20160504085012105/04/16 08:50:31  5-MIN KAVL 041350Z 36010KT 10SM FEW032 BKN046 13/05 A2978 2300 57 2700 010/10 RMK AO2 SLP070 T01330050
03812KAVL AVL20160504085512705/04/16 08:55:31  5-MIN KAVL 041355Z 34014G17KT 10SM FEW032 BKN046 BKN055 13/05 A2978 2300 57 2700 340/14G17 RMK AO2 T01330050
03812KAVL AVL20160504090012705/04/16 09:00:31  5-MIN KAVL 041400Z 33013G21KT 10SM FEW032 BKN045 BKN050 13/04 A2978 2300 54 2700 340/13G21 RMK AO2 T01330044
03812KAVL AVL20160504090512005/04/16 09:05:31  5-MIN KAVL 041405Z 34013G21KT 10SM SCT034 BKN048 13/04 A2978 2290 54 2700 340/13G21 RMK AO2 T01330044
03812KAVL AVL20160504091012105/04/16 09:10:31  5-MIN KAVL 041410Z 34013KT 10SM FEW034 BKN046 BKN050 13/04 A2979 2290 52 2700 340/13 RMK AO2 T01330039
03812KAVL AVL20160504091512005/04/16 09:15:31  5-MIN KAVL 041415Z 34015G20KT 10SM FEW034 BKN050 14/02 A2978 2290 45 2700 350/15G20 RMK AO2 T01390022
03812KAVL AVL20160504092012705/04/16 09:20:31  5-MIN KAVL 041420Z 35015G23KT 10SM FEW034 SCT046 BKN055 14/02 A2978 2290 45 2700 360/15G23 RMK AO2 T01390022
03812KAVL AVL20160504092512705/04/16 09:25:31  5-MIN KAVL 041425Z 34018G23KT 10SM FEW037 SCT047 SCT055 14/02 A2978 2290 43 2800 350/18G23 RMK AO2 T01440022
03812KAVL AVL20160504093011305/04/16 09:30:31  5-MIN KAVL 041430Z 34014G21KT 10SM SCT049 14/02 A2979 2290 43 2800 340/14G21 RMK AO2 T01440022
03812KAVL AVL20160504093511305/04/16 09:35:31  5-MIN KAVL 041435Z 34015G22KT 10SM BKN049 14/02 A2978 2290 43 2800 350/15G22 RMK AO2 T01440022
03812KAVL AVL20160504094011305/04/16 09:40:31  5-MIN KAVL 041440Z 33015G22KT 10SM BKN050 14/02 A2978 2290 43 2700 330/15G22 RMK AO2 T01390017
03812KAVL AVL20160504094510705/04/16 09:45:31  5-MIN KAVL 041445Z 34015KT 10SM BKN050 14/03 A2979 2290 47 2700 350/15 RMK AO2 T01390028
03812KAVL AVL20160504095012605/04/16 09:50:31  5-MIN KAVL 041450Z 35016G23KT 10SM SCT050 14/03 A2979 2290 45 2800 350/16G23 RMK AO2 SLP074 T01440028 56001
03812KAVL AVL20160504095511305/04/16 09:55:31  5-MIN KAVL 041455Z 36012G23KT 10SM SCT050 14/03 A2979 2290 45 2800 360/12G23 RMK AO2 T01440028
03812KAVL AVL20160504100011305/04/16 10:00:31  5-MIN KAVL 041500Z 36012G19KT 10SM SCT050 14/02 A2979 2290 43 2700 010/12G19 RMK AO2 T01390017
03812KAVL AVL20160504100511305/04/16 10:05:31  5-MIN KAVL 041505Z 35015G21KT 10SM SCT050 15/02 A2979 2290 42 2900 360/15G21 RMK AO2 T01500022
03812KAVL AVL20160504101011305/04/16 10:10:31  5-MIN KAVL 041510Z 34016G22KT 10SM BKN050 14/02 A2979 2290 45 2700 350/16G22 RMK AO2 T01390022
03812KAVL AVL20160504101511305/04/16 10:15:31  5-MIN KAVL 041515Z 34016G21KT 10SM BKN050 14/03 A2979 2290 47 2700 340/16G21 RMK AO2 T01390028
03812KAVL AVL20160504102011305/04/16 10:20:31  5-MIN KAVL 041520Z 33014G21KT 10SM BKN050 14/03 A2979 2290 45 2800 340/14G21 RMK AO2 T01440028
03812KAVL AVL20160504102510705/04/16 10:25:31  5-MIN KAVL 041525Z 35014KT 10SM BKN055 15/03 A2979 2280 43 2900 360/14 RMK AO2 T01500028
03812KAVL AVL20160504103011305/04/16 10:30:31  5-MIN KAVL 041530Z 35010G18KT 10SM OVC055 14/02 A2979 2290 43 2700 360/10G18 RMK AO2 T01390017
03812KAVL AVL20160504103511305/04/16 10:35:31  5-MIN KAVL 041535Z 32012G18KT 10SM OVC050 14/02 A2979 2290 43 2700 330/12G18 RMK AO2 T01390017
03812KAVL AVL20160504104010705/04/16 10:40:31  5-MIN KAVL 041540Z 34010KT 10SM OVC055 14/02 A2979 2280 43 2700 340/10 RMK AO2 T01390017
03812KAVL AVL20160504104511305/04/16 10:45:31  5-MIN KAVL 041545Z 32009G18KT 10SM OVC055 14/02 A2979 2280 45 2700 330/09G18 RMK AO2 T01390022
03812KAVL AVL20160504105011405/04/16 10:50:31  5-MIN KAVL 041550Z 31008KT 10SM OVC055 14/02 A2979 2290 43 2800 310/08 RMK AO2 SLP074 T01440022
03812KAVL AVL20160504105510705/04/16 10:55:31  5-MIN KAVL 041555Z 30006KT 10SM OVC055 14/02 A2979 2290 43 2800 300/06 RMK AO2 T01440022
03812KAVL AVL20160504110011305/04/16 11:00:31  5-MIN KAVL 041600Z 34010G18KT 10SM BKN060 16/02 A2979 2290 40 2900 340/10G18 RMK AO2 T01560022
03812KAVL AVL20160504110511305/04/16 11:05:31  5-MIN KAVL 041605Z 35012G18KT 10SM BKN060 15/02 A2979 2290 40 2900 350/12G18 RMK AO2 T01500017
03812KAVL AVL20160504111010705/04/16 11:10:31  5-MIN KAVL 041610Z 36011KT 10SM BKN060 15/02 A2979 2290 40 2900 360/11 RMK AO2 T01500017
03812KAVL AVL20160504111510705/04/16 11:15:31  5-MIN KAVL 041615Z 36013KT 10SM BKN055 16/03 A2978 2290 42 2900 010/13 RMK AO2 T01560028
03812KAVL AVL20160504112011305/04/16 11:20:31  5-MIN KAVL 041620Z 36006G16KT 10SM OVC055 14/02 A2978 2290 43 2800 010/06G16 RMK AO2 T01440022
03812KAVL AVL20160504112511305/04/16 11:25:31  5-MIN KAVL 041625Z 35012G18KT 10SM OVC055 14/02 A2979 2290 43 2800 360/12G18 RMK AO2 T01440022
03812KAVL AVL20160504113011305/04/16 11:30:31  5-MIN KAVL 041630Z 35009G18KT 10SM OVC050 14/03 A2978 2290 45 2800 360/09G18 RMK AO2 T01440028
03812KAVL AVL20160504113510705/04/16 11:35:31  5-MIN KAVL 041635Z 36011KT 10SM OVC050 14/03 A2978 2290 45 2800 360/11 RMK AO2 T01440028
03812KAVL AVL20160504114010705/04/16 11:40:31  5-MIN KAVL 041640Z 36012KT 10SM OVC050 15/03 A2978 2300 45 2900 360/12 RMK AO2 T01500033
03812KAVL AVL20160504114511305/04/16 11:45:31  5-MIN KAVL 041645Z 01012G18KT 10SM OVC050 15/03 A2978 2300 45 2900 010/12G18 RMK AO2 T01500033
03812KAVL AVL20160504115011405/04/16 11:50:31  5-MIN KAVL 041650Z 01009KT 10SM OVC050 15/03 A2978 2300 45 2900 020/09 RMK AO2 SLP068 T01500033
03812KAVL AVL20160504115510705/04/16 11:55:31  5-MIN KAVL 041655Z 35011KT 10SM BKN050 15/03 A2978 2300 45 2900 350/11 RMK AO2 T01500033
03812KAVL AVL20160504120011305/04/16 12:00:31  5-MIN KAVL 041700Z 35010G17KT 10SM BKN050 16/03 A2977 2310 42 2900 350/10G17 RMK AO2 T01560028
03812KAVL AVL20160504120512005/04/16 12:05:31  5-MIN KAVL 041705Z 35011G20KT 10SM FEW045 SCT055 16/03 A2977 2310 42 3000 350/11G20 RMK AO2 T01610033
03812KAVL AVL20160504121011305/04/16 12:10:31  5-MIN KAVL 041710Z 36011G20KT 10SM SCT055 16/02 A2976 2310 39 3000 010/11G20 RMK AO2 T01610022
03812KAVL AVL20160504121511305/04/16 12:15:31  5-MIN KAVL 041715Z 36008G17KT 10SM SCT055 16/02 A2976 2320 39 3000 360/08G17 RMK AO2 T01610022
03812KAVL AVL20160504122011305/04/16 12:20:31  5-MIN KAVL 041720Z 34012G20KT 10SM FEW055 17/03 A2976 2320 40 3100 350/12G20 RMK AO2 T01670033
03812KAVL AVL20160504122511305/04/16 12:25:31  5-MIN KAVL 041725Z 34011G20KT 10SM FEW055 17/03 A2976 2320 39 3100 340/11G20 RMK AO2 T01670028
03812KAVL AVL20160504123011305/04/16 12:30:31  5-MIN KAVL 041730Z 32007G18KT 10SM FEW055 17/03 A2976 2320 40 3100 330/07G18 RMK AO2 T01670033
03812KAVL AVL20160504123511305/04/16 12:35:31  5-MIN KAVL 041735Z 34014G22KT 10SM FEW055 17/03 A2976 2320 39 3100 350/14G22 RMK AO2 T01670028
03812KAVL AVL20160504124011305/04/16 12:40:31  5-MIN KAVL 041740Z 35007G22KT 10SM FEW055 16/03 A2975 2320 40 3000 350/07G22 RMK AO2 T01610028
03812KAVL AVL20160504124512605/04/16 12:45:31  5-MIN KAVL 041745Z 34012G18KT 320V020 10SM CLR 17/03 A2975 2320 39 3100 350/12G18 330V030 RMK AO2 T01670028
03812KAVL AVL20160504125013505/04/16 12:50:31  5-MIN KAVL 041750Z 01013G18KT 10SM CLR 17/02 A2975 2330 37 3100 010/13G18 RMK AO2 SLP059 T01670022 10167 20111 55000
03812KAVL AVL20160504125511005/04/16 12:55:31  5-MIN KAVL 041755Z 36015G20KT 10SM CLR 16/02 A2974 2330 37 3000 010/15G20 RMK AO2 T01610017
03812KAVL AVL20160504130011005/04/16 13:00:31  5-MIN KAVL 041800Z 34011G20KT 10SM CLR 17/02 A2974 2330 36 3100 350/11G20 RMK AO2 T01670017
03812KAVL AVL20160504130511005/04/16 13:05:31  5-MIN KAVL 041805Z 33016G21KT 10SM CLR 17/02 A2974 2340 36 3100 330/16G21 RMK AO2 T01670017
03812KAVL AVL20160504131011005/04/16 13:10:31  5-MIN KAVL 041810Z 35015G21KT 10SM CLR 17/02 A2974 2340 36 3100 350/15G21 RMK AO2 T01670017
03812KAVL AVL20160504131511005/04/16 13:15:31  5-MIN KAVL 041815Z 36015G22KT 10SM CLR 17/02 A2974 2340 36 3100 010/15G22 RMK AO2 T01670017
03812KAVL AVL20160504132011005/04/16 13:20:31  5-MIN KAVL 041820Z 35012G22KT 10SM CLR 17/02 A2973 2340 35 3200 360/12G22 RMK AO2 T01720017
03812KAVL AVL20160504132511005/04/16 13:25:31  5-MIN KAVL 041825Z 02010G22KT 10SM CLR 16/02 A2973 2340 39 3100 030/10G22 RMK AO2 T01610022
03812KAVL AVL20160504133012605/04/16 13:30:31  5-MIN KAVL 041830Z 03007G21KT 350V050 10SM CLR 17/02 A2973 2340 37 3100 030/07G21 360V060 RMK AO2 T01670022
03812KAVL AVL20160504133511005/04/16 13:35:31  5-MIN KAVL 041835Z 01006G15KT 10SM CLR 17/02 A2973 2350 37 3100 020/06G15 RMK AO2 T01670022
03812KAVL AVL20160504134012605/04/16 13:40:31  5-MIN KAVL 041840Z 34009G15KT 320V030 10SM CLR 17/02 A2973 2350 37 3100 350/09G15 330V040 RMK AO2 T01670022
03812KAVL AVL20160504134511005/04/16 13:45:31  5-MIN KAVL 041845Z 35010G17KT 10SM CLR 17/02 A2972 2350 37 3100 360/10G17 RMK AO2 T01670022
03812KAVL AVL20160504135011705/04/16 13:50:31  5-MIN KAVL 041850Z VRB04G17KT 10SM CLR 17/03 A2972 2350 37 3200 VRB/04G17 RMK AO2 SLP050 T01720028
03812KAVL AVL20160504135509405/04/16 13:55:31  5-MIN KAVL 041855Z 10SM CLR 17/03 A2972 2350 37 3200 M /M RMK AO2 T01720028
03812KAVL AVL20160504140011005/04/16 14:00:31  5-MIN KAVL 041900Z 36010G16KT 10SM CLR 18/03 A2972 2360 36 3300 360/10G16 RMK AO2 T01780028
03812KAVL AVL20160504140511005/04/16 14:05:31  5-MIN KAVL 041905Z 34011G16KT 10SM CLR 17/03 A2972 2360 37 3200 340/11G16 RMK AO2 T01720028
03812KAVL AVL20160504141010405/04/16 14:10:31  5-MIN KAVL 041910Z 02009KT 10SM CLR 17/03 A2971 2360 37 3200 030/09 RMK AO2 T01720028
03812KAVL AVL20160504141511305/04/16 14:15:31  5-MIN KAVL 041915Z 36009G16KT 10SM FEW065 18/03 A2971 2360 36 3300 360/09G16 RMK AO2 T01780028
03812KAVL AVL20160504142012905/04/16 14:20:31  5-MIN KAVL 041920Z 03007G16KT 360V060 10SM SCT065 17/03 A2971 2360 37 3200 040/07G16 010V070 RMK AO2 T01720028
03812KAVL AVL20160504142512905/04/16 14:25:31  5-MIN KAVL 041925Z 35009G16KT 340V040 10SM BKN065 17/03 A2971 2370 37 3200 360/09G16 350V050 RMK AO2 T01720028
03812KAVL AVL20160504143011305/04/16 14:30:31  5-MIN KAVL 041930Z 36011G16KT 10SM BKN065 17/02 A2971 2360 37 3100 360/11G16 RMK AO2 T01670022
03812KAVL AVL20160504143512905/04/16 14:35:31  5-MIN KAVL 041935Z 36008G16KT 340V040 10SM BKN060 17/03 A2970 2370 39 3100 010/08G16 350V050 RMK AO2 T01670028
03812KAVL AVL20160504144010705/04/16 14:40:31  5-MIN KAVL 041940Z 01007KT 10SM OVC060 17/03 A2970 2370 39 3100 010/07 RMK AO2 T01670028
03812KAVL AVL20160504144512305/04/16 14:45:31  5-MIN KAVL 041945Z 02008KT 340V050 10SM OVC060 17/02 A2970 2370 37 3200 020/08 350V060 RMK AO2 T01670022
03812KAVL AVL20160504145011405/04/16 14:50:31  5-MIN KAVL 041950Z 35008KT 10SM OVC060 17/02 A2970 2370 36 3200 360/08 RMK AO2 SLP042 T01670017
03812KAVL AVL20160504145510705/04/16 14:55:31  5-MIN KAVL 041955Z 03008KT 10SM OVC060 17/02 A2970 2380 36 3200 040/08 RMK AO2 T01670017
03812KAVL AVL20160504150010705/04/16 15:00:31  5-MIN KAVL 042000Z 02007KT 10SM OVC065 17/02 A2969 2380 36 3200 020/07 RMK AO2 T01720022
03812KAVL AVL20160504150512305/04/16 15:05:31  5-MIN KAVL 042005Z 03007KT 340V050 10SM OVC065 18/02 A2969 2380 35 3300 030/07 350V060 RMK AO2 T01780022
03812KAVL AVL20160504151010705/04/16 15:10:31  5-MIN KAVL 042010Z 01005KT 10SM OVC065 18/02 A2969 2380 33 3300 010/05 RMK AO2 T01780017
03812KAVL AVL20160504151510705/04/16 15:15:31  5-MIN KAVL 042015Z VRB04KT 10SM OVC065 17/02 A2969 2380 35 3200 VRB/04 RMK AO2 T01720017
03812KAVL AVL20160504152010705/04/16 15:20:31  5-MIN KAVL 042020Z VRB04KT 10SM OVC065 17/02 A2969 2380 37 3200 VRB/04 RMK AO2 T01670022
03812KAVL AVL20160504152510705/04/16 15:25:31  5-MIN KAVL 042025Z 04005KT 10SM OVC065 17/02 A2968 2390 36 3200 050/05 RMK AO2 T01720022
03812KAVL AVL20160504153010705/04/16 15:30:31  5-MIN KAVL 042030Z VRB04KT 10SM OVC060 17/02 A2968 2390 36 3200 VRB/04 RMK AO2 T01670017
03812KAVL AVL20160504153510705/04/16 15:35:31  5-MIN KAVL 042035Z VRB04KT 10SM OVC060 18/02 A2968 2390 35 3300 VRB/04 RMK AO2 T01780022
03812KAVL AVL20160504154010705/04/16 15:40:31  5-MIN KAVL 042040Z 01004KT 10SM OVC060 19/03 A2968 2390 34 3400 010/04 RMK AO2 T01890028
03812KAVL AVL20160504154510705/04/16 15:45:31  5-MIN KAVL 042045Z 36005KT 10SM OVC060 18/02 A2968 2390 34 3400 360/05 RMK AO2 T01830022
03812KAVL AVL20160504155012005/04/16 15:50:31  5-MIN KAVL 042050Z 35007KT 10SM OVC060 18/02 A2968 2390 34 3400 360/07 RMK AO2 SLP034 T01830022 58015
03812KAVL AVL20160504155510705/04/16 15:55:31  5-MIN KAVL 042055Z 34010KT 10SM OVC065 18/02 A2968 2390 34 3400 340/10 RMK AO2 T01830022
03812KAVL AVL20160504160010705/04/16 16:00:31  5-MIN KAVL 042100Z VRB05KT 10SM OVC070 18/02 A2968 2400 34 3400 VRB/05 RMK AO2 T01830022
03812KAVL AVL20160504160510705/04/16 16:05:31  5-MIN KAVL 042105Z 35007KT 10SM OVC070 18/02 A2967 2400 34 3400 360/07 RMK AO2 T01830022
03812KAVL AVL20160504161010705/04/16 16:10:31  5-MIN KAVL 042110Z 34006KT 10SM OVC070 19/03 A2967 2400 34 3400 350/06 RMK AO2 T01890028
03812KAVL AVL20160504161512305/04/16 16:15:31  5-MIN KAVL 042115Z 34007KT 320V020 10SM OVC070 19/03 A2967 2400 34 3400 340/07 330V030 RMK AO2 T01890028
03812KAVL AVL20160504162010705/04/16 16:20:31  5-MIN KAVL 042120Z 33006KT 10SM OVC075 19/03 A2967 2400 34 3400 330/06 RMK AO2 T01890028
03812KAVL AVL20160504162510705/04/16 16:25:31  5-MIN KAVL 042125Z 34006KT 10SM OVC070 18/02 A2967 2400 33 3300 350/06 RMK AO2 T01780017
03812KAVL AVL20160504163010705/04/16 16:30:31  5-MIN KAVL 042130Z 32004KT 10SM BKN070 18/02 A2967 2400 35 3300 330/04 RMK AO2 T01780022
03812KAVL AVL20160504163509705/04/16 16:35:31  5-MIN KAVL 042135Z 10SM BKN070 17/02 A2967 2400 36 3300 M /M RMK AO2 T01720022
03812KAVL AVL20160504164010705/04/16 16:40:31  5-MIN KAVL 042140Z 33007KT 10SM SCT070 18/02 A2967 2400 35 3300 340/07 RMK AO2 T01780022
03812KAVL AVL20160504164510705/04/16 16:45:31  5-MIN KAVL 042145Z 35008KT 10SM SCT070 17/02 A2967 2400 36 3300 360/08 RMK AO2 T01720022
03812KAVL AVL20160504165011405/04/16 16:50:31  5-MIN KAVL 042150Z 33007KT 10SM BKN070 18/02 A2967 2400 35 3300 340/07 RMK AO2 SLP032 T01780022
03812KAVL AVL20160504165510705/04/16 16:55:31  5-MIN KAVL 042155Z 01005KT 10SM SCT075 18/02 A2967 2400 33 3300 020/05 RMK AO2 T01780017
03812KAVL AVL20160504170010705/04/16 17:00:31  5-MIN KAVL 042200Z VRB05KT 10SM FEW070 18/02 A2967 2400 33 3300 VRB/05 RMK AO2 T01780017
03812KAVL AVL20160504170510705/04/16 17:05:31  5-MIN KAVL 042205Z 02006KT 10SM SCT070 18/02 A2967 2400 33 3300 030/06 RMK AO2 T01780017
03812KAVL AVL20160504171010705/04/16 17:10:31  5-MIN KAVL 042210Z 00000KT 10SM SCT070 17/02 A2967 2400 35 3200 000/00 RMK AO2 T01720017
03812KAVL AVL20160504171510705/04/16 17:15:31  5-MIN KAVL 042215Z VRB03KT 10SM BKN070 17/02 A2968 2390 35 3200 VRB/03 RMK AO2 T01720017
03812KAVL AVL20160504172010705/04/16 17:20:31  5-MIN KAVL 042220Z 33004KT 10SM BKN070 17/02 A2968 2390 37 3200 330/04 RMK AO2 T01670022
03812KAVL AVL20160504172511405/04/16 17:25:31  5-MIN KAVL 042225Z 36003KT 10SM BKN070 BKN090 17/02 A2968 2390 37 3200 010/03 RMK AO2 T01670022
03812KAVL AVL20160504173011405/04/16 17:30:31  5-MIN KAVL 042230Z 36005KT 10SM BKN070 BKN090 17/02 A2968 2390 36 3200 360/05 RMK AO2 T01670017
03812KAVL AVL20160504173511405/04/16 17:35:31  5-MIN KAVL 042235Z VRB03KT 10SM BKN070 OVC090 17/02 A2968 2390 36 3200 VRB/03 RMK AO2 T01670017
03812KAVL AVL20160504174011405/04/16 17:40:31  5-MIN KAVL 042240Z 03003KT 10SM BKN070 OVC090 17/02 A2968 2390 36 3200 040/03 RMK AO2 T01670017
03812KAVL AVL20160504174511405/04/16 17:45:31  5-MIN KAVL 042245Z 00000KT 10SM BKN070 OVC090 17/02 A2968 2390 36 3200 000/00 RMK AO2 T01670017
03812KAVL AVL20160504175012105/04/16 17:50:31  5-MIN KAVL 042250Z 35004KT 10SM BKN070 OVC090 17/02 A2968 2390 36 3200 360/04 RMK AO2 SLP037 T01670017
03812KAVL AVL20160504175511405/04/16 17:55:31  5-MIN KAVL 042255Z 00000KT 10SM BKN070 OVC090 17/02 A2968 2390 36 3200 000/00 RMK AO2 T01670017
03812KAVL AVL20160504180011405/04/16 18:00:31  5-MIN KAVL 042300Z 33004KT 10SM BKN070 OVC090 17/02 A2968 2390 36 3200 330/04 RMK AO2 T01670017
03812KAVL AVL20160504180511405/04/16 18:05:31  5-MIN KAVL 042305Z 34007KT 10SM BKN065 OVC090 17/02 A2968 2390 37 3200 340/07 RMK AO2 T01670022
03812KAVL AVL20160504181011405/04/16 18:10:31  5-MIN KAVL 042310Z 01007KT 10SM BKN070 OVC090 17/02 A2968 2390 37 3200 020/07 RMK AO2 T01670022
03812KAVL AVL20160504181511405/04/16 18:15:31  5-MIN KAVL 042315Z 35008KT 10SM BKN070 OVC085 17/02 A2969 2390 37 3200 360/08 RMK AO2 T01670022
03812KAVL AVL20160504182011405/04/16 18:20:31  5-MIN KAVL 042320Z 34009KT 10SM BKN070 OVC085 16/03 A2968 2390 40 3100 340/09 RMK AO2 T01610028
03812KAVL AVL20160504182511405/04/16 18:25:31  5-MIN KAVL 042325Z 36010KT 10SM BKN070 OVC085 16/02 A2968 2390 39 3100 010/10 RMK AO2 T01610022
03812KAVL AVL20160504183011405/04/16 18:30:31  5-MIN KAVL 042330Z 36012KT 10SM BKN070 OVC090 16/02 A2968 2390 37 3100 010/12 RMK AO2 T01610017
03812KAVL AVL20160504183511405/04/16 18:35:31  5-MIN KAVL 042335Z 01010KT 10SM BKN070 OVC090 16/02 A2968 2390 37 3100 010/10 RMK AO2 T01610017
03812KAVL AVL20160504184011405/04/16 18:40:31  5-MIN KAVL 042340Z 36011KT 10SM BKN070 OVC090 16/02 A2968 2390 39 3000 360/11 RMK AO2 T01560017
03812KAVL AVL20160504184511405/04/16 18:45:31  5-MIN KAVL 042345Z 36009KT 10SM BKN070 OVC090 16/02 A2968 2390 39 3000 360/09 RMK AO2 T01560017
03812KAVL AVL20160504185013905/04/16 18:50:31  5-MIN KAVL 042350Z 35008KT 10SM BKN070 OVC090 16/02 A2969 2380 39 3000 360/08 RMK AO2 SLP039 T01560017 10189 20156 56022
03812KAVL AVL20160504185511405/04/16 18:55:31  5-MIN KAVL 042355Z 36009KT 10SM BKN070 OVC090 16/02 A2969 2390 39 3000 360/09 RMK AO2 T01560017
03812KAVL AVL20160504190011405/04/16 19:00:31  5-MIN KAVL 050000Z VRB06KT 10SM BKN070 OVC090 16/02 A2968 2390 39 3000 VRB/06 RMK AO2 T01560017
03812KAVL AVL20160504190511305/04/16 19:05:31  5-MIN KAVL 050005Z 01010G15KT 10SM OVC070 16/02 A2968 2390 39 3000 010/10G15 RMK AO2 T01560017
03812KAVL AVL20160504191010705/04/16 19:10:31  5-MIN KAVL 050010Z 36008KT 10SM OVC070 16/02 A2968 2390 40 3000 360/08 RMK AO2 T01560022
03812KAVL AVL20160504191510705/04/16 19:15:31  5-MIN KAVL 050015Z 36010KT 10SM OVC070 15/02 A2969 2380 42 3000 360/10 RMK AO2 T01500022
03812KAVL AVL20160504192010705/04/16 19:20:31  5-MIN KAVL 050020Z 35010KT 10SM OVC070 15/02 A2969 2380 42 3000 360/10 RMK AO2 T01500022
03812KAVL AVL20160504192510705/04/16 19:25:31  5-MIN KAVL 050025Z 35009KT 10SM OVC070 15/02 A2969 2380 42 3000 350/09 RMK AO2 T01500022
03812KAVL AVL20160504193010705/04/16 19:30:31  5-MIN KAVL 050030Z 35007KT 10SM OVC070 15/03 A2969 2380 43 3000 360/07 RMK AO2 T01500028
03812KAVL AVL20160504193510705/04/16 19:35:31  5-MIN KAVL 050035Z 34011KT 10SM OVC065 15/03 A2969 2380 43 3000 350/11 RMK AO2 T01500028
03812KAVL AVL20160504194011405/04/16 19:40:31  5-MIN KAVL 050040Z 34012KT 10SM BKN065 OVC090 15/03 A2969 2380 43 3000 350/12 RMK AO2 T01500028
03812KAVL AVL20160504194511405/04/16 19:45:31  5-MIN KAVL 050045Z 34009KT 10SM BKN065 OVC090 15/03 A2969 2380 43 3000 350/09 RMK AO2 T01500028
03812KAVL AVL20160504195012105/04/16 19:50:31  5-MIN KAVL 050050Z 35009KT 10SM SCT065 OVC095 15/03 A2970 2370 43 3000 360/09 RMK AO2 SLP043 T01500028
03812KAVL AVL20160504195511405/04/16 19:55:31  5-MIN KAVL 050055Z 34009KT 10SM SCT065 OVC095 15/03 A2970 2370 43 3000 350/09 RMK AO2 T01500028
03812KAVL AVL20160504200012005/04/16 20:00:31  5-MIN KAVL 050100Z 36012G18KT 10SM FEW065 OVC095 14/03 A2970 2370 45 2900 360/12G18 RMK AO2 T01440028
03812KAVL AVL20160504200510705/04/16 20:05:31  5-MIN KAVL 050105Z 36012KT 10SM OVC095 14/03 A2970 2370 47 2900 360/12 RMK AO2 T01440033
03812KAVL AVL20160504201011305/04/16 20:10:31  5-MIN KAVL 050110Z 36014G20KT 10SM OVC095 14/04 A2970 2370 50 2800 360/14G20 RMK AO2 T01390039
03812KAVL AVL20160504201512005/04/16 20:15:31  5-MIN KAVL 050115Z 01011G20KT 10SM FEW070 OVC090 13/04 A2970 2370 52 2800 010/11G20 RMK AO2 T01330039
03812KAVL AVL20160504202012005/04/16 20:20:31  5-MIN KAVL 050120Z 36012G17KT 10SM FEW070 OVC090 13/04 A2971 2370 54 2800 010/12G17 RMK AO2 T01330044
03812KAVL AVL20160504202510705/04/16 20:25:31  5-MIN KAVL 050125Z 36011KT 10SM OVC090 13/04 A2971 2370 54 2800 360/11 RMK AO2 T01330044
03812KAVL AVL20160504203010705/04/16 20:30:31  5-MIN KAVL 050130Z 36010KT 10SM OVC085 13/04 A2970 2370 56 2700 010/10 RMK AO2 T01280044
03812KAVL AVL20160504203512105/04/16 20:35:31  5-MIN KAVL 050135Z 34009KT 10SM FEW055 BKN075 OVC090 13/05 A2971 2370 59 2700 350/09 RMK AO2 T01280050
03812KAVL AVL20160504204012105/04/16 20:40:31  5-MIN KAVL 050140Z 35009KT 10SM SCT050 SCT070 OVC085 13/05 A2971 2360 59 2700 350/09 RMK AO2 T01280050
03812KAVL AVL20160504204512105/04/16 20:45:31  5-MIN KAVL 050145Z 34009KT 10SM FEW050 SCT075 OVC090 13/05 A2972 2350 59 2700 340/09 RMK AO2 T01280050
03812KAVL AVL20160504205012805/04/16 20:50:31  5-MIN KAVL 050150Z 34008KT 10SM FEW050 SCT065 OVC090 13/05 A2972 2350 59 2700 350/08 RMK AO2 SLP050 T01280050
03812KAVL AVL20160504205512105/04/16 20:55:31  5-MIN KAVL 050155Z 01006KT 10SM FEW050 BKN065 OVC090 13/05 A2971 2360 59 2700 020/06 RMK AO2 T01280050
03812KAVL AVL20160504210013905/04/16 21:00:31  5-MIN KAVL 050200Z 01007KT 10SM -RA FEW050 BKN065 OVC090 12/06 A2972 2360 63 2600 010/07 RMK AO2 RAB0159 P0000 T01220056
03812KAVL AVL20160504210513905/04/16 21:05:31  5-MIN KAVL 050205Z 36006KT 10SM -RA FEW048 BKN065 OVC090 12/06 A2972 2360 66 2600 360/06 RMK AO2 RAB0159 P0000 T01220061
03812KAVL AVL20160504211013205/04/16 21:10:31  5-MIN KAVL 050210Z 34006KT 10SM -RA SCT065 OVC085 12/06 A2972 2360 66 2600 350/06 RMK AO2 RAB0159 P0000 T01220061
03812KAVL AVL20160504211513105/04/16 21:15:31  5-MIN KAVL 050215Z 35006KT 10SM SCT065 OVC085 12/06 A2972 2360 66 2600 350/06 RMK AO2 RAB0159E11 P0000 T01220061
03812KAVL AVL20160504212013805/04/16 21:20:31  5-MIN KAVL 050220Z 33007KT 10SM FEW060 BKN090 BKN120 12/06 A2972 2360 68 2600 340/07 RMK AO2 RAB0159E11 P0000 T01170061
03812KAVL AVL20160504212513805/04/16 21:25:31  5-MIN KAVL 050225Z 35007KT 10SM FEW065 SCT085 BKN120 12/06 A2972 2360 68 2600 350/07 RMK AO2 RAB0159E11 P0000 T01170061
03812KAVL AVL20160504213013105/04/16 21:30:31  5-MIN KAVL 050230Z 35006KT 10SM SCT085 SCT120 12/06 A2971 2360 68 2600 360/06 RMK AO2 RAB0159E11 P0000 T01170061
03812KAVL AVL20160504213513105/04/16 21:35:31  5-MIN KAVL 050235Z 35007KT 10SM FEW090 SCT120 12/06 A2972 2360 66 2600 360/07 RMK AO2 RAB0159E11 P0000 T01170056
03812KAVL AVL20160504214013105/04/16 21:40:31  5-MIN KAVL 050240Z 34010KT 10SM FEW090 FEW120 11/06 A2972 2360 71 2500 340/10 RMK AO2 RAB0159E11 P0000 T01110061
03812KAVL AVL20160504214512405/04/16 21:45:31  5-MIN KAVL 050245Z 35009KT 10SM FEW120 12/06 A2972 2350 68 2500 350/09 RMK AO2 RAB0159E11 P0000 T01170061
03812KAVL AVL20160504215014505/04/16 21:50:31  5-MIN KAVL 050250Z AUTO 35008KT 10SM CLR 12/06 A2972 2350 68 2500 350/08 RMK AO2 RAB0159E11 SLP050 P0000 60000 T01170061 53003
03812KAVL AVL20160504215511205/04/16 21:55:31  5-MIN KAVL 050255Z AUTO 33009KT 10SM FEW110 12/07 A2972 2350 71 2500 340/09 RMK AO2 T01170067
03812KAVL AVL20160504220011205/04/16 22:00:31  5-MIN KAVL 050300Z AUTO 35006KT 10SM SCT110 11/07 A2972 2360 74 2500 350/06 RMK AO2 T01110067
03812KAVL AVL20160504220511905/04/16 22:05:31  5-MIN KAVL 050305Z AUTO 34008KT 10SM SCT100 BKN110 12/06 A2972 2350 68 2500 340/08 RMK AO2 T01170061
03812KAVL AVL20160504221011905/04/16 22:10:31  5-MIN KAVL 050310Z AUTO 33009KT 10SM BKN095 BKN120 11/07 A2973 2350 74 2500 340/09 RMK AO2 T01110067
03812KAVL AVL20160504221511905/04/16 22:15:31  5-MIN KAVL 050315Z AUTO 33010KT 10SM SCT090 BKN110 11/07 A2973 2340 74 2500 340/10 RMK AO2 T01110067
03812KAVL AVL20160504222012605/04/16 22:20:31  5-MIN KAVL 050320Z AUTO 32010KT 10SM SCT034 BKN095 OVC110 11/07 A2973 2340 74 2500 320/10 RMK AO2 T01110067
03812KAVL AVL20160504222513205/04/16 22:25:31  5-MIN KAVL 050325Z AUTO 32013G18KT 10SM SCT031 BKN040 OVC100 12/06 A2973 2340 66 2500 330/13G18 RMK AO2 T01170056
03812KAVL AVL20160504223014805/04/16 22:30:31  5-MIN KAVL 050330Z AUTO 32013G19KT 10SM -RA SCT027 BKN034 OVC100 11/05 A2974 2340 66 2500 330/13G19 RMK AO2 RAB29 P0000 T01110050
03812KAVL AVL20160504223514805/04/16 22:35:31  5-MIN KAVL 050335Z AUTO 33010G19KT 10SM -RA SCT027 BKN032 OVC090 11/06 A2973 2340 71 2400 340/10G19 RMK AO2 RAB29 P0000 T01060056
03812KAVL AVL20160504224014205/04/16 22:40:31  5-MIN KAVL 050340Z AUTO 35008KT 10SM -RA FEW027 BKN035 OVC050 10/06 A2973 2350 77 2300 350/08 RMK AO2 RAB29 P0000 T01000061
03812KAVL AVL20160504224514205/04/16 22:45:31  5-MIN KAVL 050345Z AUTO 36007KT 10SM -RA FEW027 BKN040 OVC050 10/07 A2972 2350 80 2300 360/07 RMK AO2 RAB29 P0000 T01000067
03812KAVL AVL20160504225014905/04/16 22:50:31  5-MIN KAVL 050350Z AUTO 35006KT 10SM -RA FEW027 BKN036 OVC055 10/07 A2972 2360 80 2400 360/06 RMK AO2 RAB29 SLP051 P0000 T01000067
03812KAVL AVL20160504225512605/04/16 22:55:31  5-MIN KAVL 050355Z AUTO 32008KT 10SM SCT030 SCT037 BKN055 09/07 A2972 2350 83 2300 320/08 RMK AO2 T00940067
03812KAVL AVL20160504230012605/04/16 23:00:31  5-MIN KAVL 050400Z AUTO 34012KT 10SM FEW015 SCT032 BKN055 09/07 A2972 2350 86 2300 340/12 RMK AO2 T00940072
03812KAVL AVL20160504230512605/04/16 23:05:31  5-MIN KAVL 050405Z AUTO 34012KT 10SM FEW015 SCT034 BKN055 09/06 A2972 2350 79 2300 350/12 RMK AO2 T00940061
03812KAVL AVL20160504231012605/04/16 23:10:31  5-MIN KAVL 050410Z AUTO 34013KT 10SM FEW015 SCT034 BKN070 09/06 A2972 2350 83 2200 350/13 RMK AO2 T00890061
03812KAVL AVL20160504231512605/04/16 23:15:31  5-MIN KAVL 050415Z AUTO 34013KT 10SM FEW016 BKN070 BKN120 09/06 A2972 2350 79 2200 350/13 RMK AO2 T00890056
03812KAVL AVL20160504232012605/04/16 23:20:31  5-MIN KAVL 050420Z AUTO 34010KT 10SM FEW016 BKN075 BKN120 09/06 A2972 2350 79 2200 350/10 RMK AO2 T00890056
03812KAVL AVL20160504232512605/04/16 23:25:31  5-MIN KAVL 050425Z AUTO 34011KT 10SM FEW016 BKN075 BKN120 09/05 A2972 2350 76 2200 350/11 RMK AO2 T00890050
03812KAVL AVL20160504233012605/04/16 23:30:31  5-MIN KAVL 050430Z AUTO 34010KT 10SM FEW016 BKN075 OVC120 09/05 A2972 2350 76 2200 350/10 RMK AO2 T00890050
03812KAVL AVL20160504233511205/04/16 23:35:31  5-MIN KAVL 050435Z AUTO 34011KT 10SM OVC075 08/05 A2971 2360 79 2200 350/11 RMK AO2 T00830050
03812KAVL AVL20160504234011205/04/16 23:40:31  5-MIN KAVL 050440Z AUTO 34011KT 10SM OVC080 08/05 A2971 2360 79 2200 350/11 RMK AO2 T00830050
03812KAVL AVL20160504234511205/04/16 23:45:31  5-MIN KAVL 050445Z AUTO 34011KT 10SM BKN080 08/05 A2970 2370 79 2200 350/11 RMK AO2 T00830050
03812KAVL AVL20160504235012905/04/16 23:50:31  5-MIN KAVL 050450Z AUTO 34010KT 10SM BKN080 08/05 A2970 2370 79 2200 350/10 RMK AO2 SLP048 T00830050 401890083
03812KAVL AVL20160504235511905/04/16 23:55:31  5-MIN KAVL 050455Z AUTO 33010KT 10SM SCT080 BKN120 08/05 A2971 2370 82 2100 340/10 RMK AO2 T00780050
03812KAVL AVL20160505000011905/05/16 00:00:31  5-MIN KAVL 050500Z AUTO 33008KT 10SM SCT080 BKN110 08/05 A2971 2370 82 2100 330/08 RMK AO2 T00780050
03812KAVL AVL20160505000511905/05/16 00:05:31  5-MIN KAVL 050505Z AUTO 33011KT 10SM FEW080 BKN110 08/05 A2970 2370 82 2100 340/11 RMK AO2 T00780050
03812KAVL AVL20160505001011905/05/16 00:10:31  5-MIN KAVL 050510Z AUTO 33011KT 10SM FEW080 BKN120 08/05 A2970 2370 79 2200 340/11 RMK AO2 T00830050
03812KAVL AVL20160505001511205/05/16 00:15:31  5-MIN KAVL 050515Z AUTO 34009KT 10SM BKN110 08/05 A2970 2370 79 2200 350/09 RMK AO2 T00830050
03812KAVL AVL20160505002011905/05/16 00:20:31  5-MIN KAVL 050520Z AUTO 35008KT 10SM BKN100 OVC110 08/05 A2970 2370 79 2200 350/08 RMK AO2 T00830050
03812KAVL AVL20160505002511905/05/16 00:25:31  5-MIN KAVL 050525Z AUTO 35010KT 10SM SCT080 OVC100 08/05 A2970 2380 79 2200 360/10 RMK AO2 T00830050
03812KAVL AVL20160505003012605/05/16 00:30:31  5-MIN KAVL 050530Z AUTO 36011KT 10SM FEW080 BKN100 OVC120 08/05 A2969 2380 79 2200 010/11 RMK AO2 T00830050
03812KAVL AVL20160505003512605/05/16 00:35:31  5-MIN KAVL 050535Z AUTO 36012KT 10SM FEW080 BKN100 OVC110 08/05 A2969 2380 79 2200 010/12 RMK AO2 T00830050
03812KAVL AVL20160505004013205/05/16 00:40:31  5-MIN KAVL 050540Z AUTO 36012G20KT 10SM FEW080 BKN100 OVC110 08/05 A2969 2380 79 2200 360/12G20 RMK AO2 T00830050
03812KAVL AVL20160505004513205/05/16 00:45:31  5-MIN KAVL 050545Z AUTO 36013G20KT 10SM FEW080 BKN100 BKN120 08/05 A2969 2380 79 2200 360/13G20 RMK AO2 T00830050
03812KAVL AVL20160505005015705/05/16 00:50:31  5-MIN KAVL 050550Z AUTO 36012KT 10SM FEW075 SCT095 BKN120 08/05 A2969 2380 79 2200 360/12 RMK AO2 SLP040 60000 T00830050 10156 20078 51010
03812KAVL AVL20160505005512505/05/16 00:55:31  5-MIN KAVL 050555Z AUTO 35012G19KT 10SM SCT100 SCT120 08/05 A2969 2380 79 2200 360/12G19 RMK AO2 T00830050
03812KAVL AVL20160505010011905/05/16 01:00:31  5-MIN KAVL 050600Z AUTO 35011KT 10SM FEW100 SCT120 08/05 A2969 2380 82 2100 350/11 RMK AO2 T00780050
03812KAVL AVL20160505010511205/05/16 01:05:31  5-MIN KAVL 050605Z AUTO 36010KT 10SM FEW110 08/05 A2969 2380 82 2100 360/10 RMK AO2 T00780050
03812KAVL AVL20160505011011905/05/16 01:10:31  5-MIN KAVL 050610Z AUTO 36010KT 10SM FEW080 FEW120 08/05 A2969 2380 82 2100 010/10 RMK AO2 T00780050
03812KAVL AVL20160505011511205/05/16 01:15:31  5-MIN KAVL 050615Z AUTO 36010KT 10SM FEW080 08/05 A2968 2390 82 2100 360/10 RMK AO2 T00780050
03812KAVL AVL20160505012011205/05/16 01:20:31  5-MIN KAVL 050620Z AUTO 36010KT 10SM FEW080 08/05 A2968 2390 82 2100 010/10 RMK AO2 T00780050
03812KAVL AVL20160505012511205/05/16 01:25:31  5-MIN KAVL 050625Z AUTO 36008KT 10SM FEW080 08/05 A2968 2390 82 2100 360/08 RMK AO2 T00780050
03812KAVL AVL20160505013011205/05/16 01:30:31  5-MIN KAVL 050630Z AUTO 36010KT 10SM FEW080 08/05 A2968 2390 82 2100 360/10 RMK AO2 T00780050
03812KAVL AVL20160505013511205/05/16 01:35:31  5-MIN KAVL 050635Z AUTO 36008KT 10SM FEW080 08/05 A2967 2400 82 2100 010/08 RMK AO2 T00780050
03812KAVL AVL20160505014013105/05/16 01:40:31  5-MIN KAVL 050640Z AUTO 36010G16KT 330V040 10SM CLR 08/05 A2967 2400 82 2100 010/10G16 340V050 RMK AO2 T00780050
03812KAVL AVL20160505014510905/05/16 01:45:31  5-MIN KAVL 050645Z AUTO 36010KT 10SM CLR 08/05 A2967 2400 82 2100 010/10 RMK AO2 T00780050
03812KAVL AVL20160505015011605/05/16 01:50:31  5-MIN KAVL 050650Z AUTO 35010KT 10SM CLR 08/05 A2967 2400 82 2100 360/10 RMK AO2 SLP034 T00780050
03812KAVL AVL20160505015510905/05/16 01:55:31  5-MIN KAVL 050655Z AUTO 35009KT 10SM CLR 08/05 A2967 2400 82 2100 360/09 RMK AO2 T00780050
03812KAVL AVL20160505020010905/05/16 02:00:31  5-MIN KAVL 050700Z AUTO 35009KT 10SM CLR 08/05 A2966 2410 82 2200 360/09 RMK AO2 T00780050
03812KAVL AVL20160505020511105/05/16 02:05:31  5-MIN KAVL 050705Z AUTO 33012KT 10SM CLR 08/05 A2966 2410 82 2200 340/12 RMK AO2 T00780050 $
03812KAVL AVL20160505021011105/05/16 02:10:31  5-MIN KAVL 050710Z AUTO 34011KT 10SM CLR 07/05 A2966 2410 86 2100 340/11 RMK AO2 T00720050 $
03812KAVL AVL20160505021511705/05/16 02:15:31  5-MIN KAVL 050715Z AUTO 34012G19KT 10SM CLR 08/05 A2966 2410 82 2200 350/12G19 RMK AO2 T00780050 $
03812KAVL AVL20160505022011705/05/16 02:20:31  5-MIN KAVL 050720Z AUTO 34012G19KT 10SM CLR 07/05 A2966 2410 86 2100 350/12G19 RMK AO2 T00720050 $
03812KAVL AVL20160505022511105/05/16 02:25:31  5-MIN KAVL 050725Z AUTO 34015KT 10SM CLR 07/05 A2966 2410 86 2100 350/15 RMK AO2 T00720050 $
03812KAVL AVL20160505023011105/05/16 02:30:31  5-MIN KAVL 050730Z AUTO 33015KT 10SM CLR 07/05 A2965 2410 86 2100 340/15 RMK AO2 T00720050 $
03812KAVL AVL20160505023511105/05/16 02:35:31  5-MIN KAVL 050735Z AUTO 33011KT 10SM CLR 07/05 A2965 2410 86 2100 330/11 RMK AO2 T00720050 $
03812KAVL AVL20160505024012005/05/16 02:40:31  5-MIN KAVL 050740Z AUTO 33012G19KT 10SM FEW009 07/05 A2965 2420 86 2100 340/12G19 RMK AO2 T00720050 $
03812KAVL AVL20160505024511705/05/16 02:45:31  5-MIN KAVL 050745Z AUTO 34012G20KT 10SM CLR 07/05 A2965 2420 86 2100 340/12G20 RMK AO2 T00720050 $
03812KAVL AVL20160505025012405/05/16 02:50:31  5-MIN KAVL 050750Z AUTO 34011G20KT 10SM CLR 07/05 A2965 2420 86 2100 350/11G20 RMK AO2 SLP028 T00720050 $
03812KAVL AVL20160505025510905/05/16 02:55:31  5-MIN KAVL 050755Z AUTO 34012KT 10SM CLR 07/05 A2965 2420 86 2100 350/12 RMK AO2 T00720050
03812KAVL AVL20160505030010905/05/16 03:00:31  5-MIN KAVL 050800Z AUTO 34011KT 10SM CLR 07/04 A2965 2420 82 2100 340/11 RMK AO2 T00720044
03812KAVL AVL20160505030510905/05/16 03:05:31  5-MIN KAVL 050805Z AUTO 33011KT 10SM CLR 07/04 A2965 2420 82 2100 330/11 RMK AO2 T00720044
03812KAVL AVL20160505031010905/05/16 03:10:31  5-MIN KAVL 050810Z AUTO 33011KT 10SM CLR 07/04 A2965 2420 82 2100 340/11 RMK AO2 T00720044
03812KAVL AVL20160505031511505/05/16 03:15:31  5-MIN KAVL 050815Z AUTO 35014G20KT 10SM CLR 07/04 A2965 2410 82 2100 350/14G20 RMK AO2 T00720044
03812KAVL AVL20160505032011505/05/16 03:20:31  5-MIN KAVL 050820Z AUTO 34013G20KT 10SM CLR 07/04 A2966 2410 82 2100 350/13G20 RMK AO2 T00720044
03812KAVL AVL20160505032511505/05/16 03:25:31  5-MIN KAVL 050825Z AUTO 35012G20KT 10SM CLR 07/04 A2965 2420 82 2100 350/12G20 RMK AO2 T00720044
03812KAVL AVL20160505033010905/05/16 03:30:31  5-MIN KAVL 050830Z AUTO 34012KT 10SM CLR 07/04 A2965 2420 82 2100 350/12 RMK AO2 T00720044
03812KAVL AVL20160505033511205/05/16 03:35:31  5-MIN KAVL 050835Z AUTO 35012KT 10SM FEW013 07/04 A2965 2420 82 2100 350/12 RMK AO2 T00720044
03812KAVL AVL20160505034011205/05/16 03:40:31  5-MIN KAVL 050840Z AUTO 34012KT 10SM FEW013 07/04 A2965 2410 82 2100 350/12 RMK AO2 T00720044
03812KAVL AVL20160505034511205/05/16 03:45:31  5-MIN KAVL 050845Z AUTO 34014KT 10SM FEW013 07/04 A2965 2410 82 2100 350/14 RMK AO2 T00720044
03812KAVL AVL20160505035013805/05/16 03:50:31  5-MIN KAVL 050850Z AUTO 35009G18KT 10SM FEW013 FEW044 07/04 A2966 2410 82 2100 360/09G18 RMK AO2 SLP029 T00720044 58009
03812KAVL AVL20160505035512505/05/16 03:55:31  5-MIN KAVL 050855Z AUTO 35011G19KT 10SM FEW013 FEW044 07/04 A2965 2420 79 2100 350/11G19 RMK AO2 T00720039
03812KAVL AVL20160505040011805/05/16 04:00:31  5-MIN KAVL 050900Z AUTO 34015G19KT 10SM FEW013 07/04 A2965 2420 79 2100 350/15G19 RMK AO2 T00720039
03812KAVL AVL20160505040513405/05/16 04:05:31  5-MIN KAVL 050905Z AUTO 34016G22KT 10SM -RA FEW043 07/03 A2965 2420 76 2100 350/16G22 RMK AO2 RAB05 P0000 T00720033
03812KAVL AVL20160505041013405/05/16 04:10:31  5-MIN KAVL 050910Z AUTO 35014G22KT 10SM -RA FEW043 07/03 A2965 2420 73 2100 350/14G22 RMK AO2 RAB05 P0000 T00720028
03812KAVL AVL20160505041513405/05/16 04:15:31  5-MIN KAVL 050915Z AUTO 35016G22KT 10SM -RA FEW041 07/03 A2965 2420 73 2100 350/16G22 RMK AO2 RAB05 P0000 T00720028
03812KAVL AVL20160505042013405/05/16 04:20:31  5-MIN KAVL 050920Z AUTO 34013G22KT 10SM -RA FEW041 07/03 A2965 2420 73 2100 350/13G22 RMK AO2 RAB05 P0000 T00720028
03812KAVL AVL20160505042513405/05/16 04:25:31  5-MIN KAVL 050925Z AUTO 34011G23KT 10SM -RA FEW041 07/03 A2966 2410 73 2100 350/11G23 RMK AO2 RAB05 P0000 T00720028
03812KAVL AVL20160505043013405/05/16 04:30:31  5-MIN KAVL 050930Z AUTO 34014G23KT 10SM -RA FEW041 07/03 A2966 2410 76 2000 350/14G23 RMK AO2 RAB05 P0000 T00670028
03812KAVL AVL20160505043513105/05/16 04:35:31  5-MIN KAVL 050935Z AUTO 34013G20KT 10SM -RA CLR 07/03 A2966 2410 73 2100 350/13G20 RMK AO2 RAB05 P0000 T00720028
03812KAVL AVL20160505044013005/05/16 04:40:31  5-MIN KAVL 050940Z AUTO 34014G19KT 10SM CLR 07/03 A2966 2410 73 2100 350/14G19 RMK AO2 RAB05E38 P0000 T00720028
03812KAVL AVL20160505044513005/05/16 04:45:31  5-MIN KAVL 050945Z AUTO 35014G19KT 10SM CLR 07/03 A2966 2410 73 2100 360/14G19 RMK AO2 RAB05E38 P0000 T00720028
03812KAVL AVL20160505045013705/05/16 04:50:31  5-MIN KAVL 050950Z AUTO 35011G19KT 10SM CLR 07/03 A2966 2400 73 2100 360/11G19 RMK AO2 RAB05E38 SLP032 P0000 T00720028
03812KAVL AVL20160505045511505/05/16 04:55:31  5-MIN KAVL 050955Z AUTO 35011G18KT 10SM CLR 07/03 A2966 2410 73 2100 360/11G18 RMK AO2 T00720028
03812KAVL AVL20160505050011505/05/16 05:00:31  5-MIN KAVL 051000Z AUTO 35012G19KT 10SM CLR 07/03 A2966 2410 73 2100 360/12G19 RMK AO2 T00720028
03812KAVL AVL20160505050512605/05/16 05:05:31  5-MIN KAVL 051005Z 34014G22KT 10SM -RA CLR 07/03 A2966 2410 76 2000 350/14G22 RMK AO2 RAB05 P0000 T00670028
03812KAVL AVL20160505051012605/05/16 05:10:31  5-MIN KAVL 051010Z 34013G22KT 10SM -RA CLR 07/03 A2966 2410 76 2000 350/13G22 RMK AO2 RAB05 P0000 T00670028
03812KAVL AVL20160505051512605/05/16 05:15:31  5-MIN KAVL 051015Z 34016G24KT 10SM -RA CLR 07/03 A2966 2410 76 2000 350/16G24 RMK AO2 RAB05 P0000 T00670028
03812KAVL AVL20160505052012605/05/16 05:20:31  5-MIN KAVL 051020Z 33015G24KT 10SM -RA CLR 07/03 A2966 2410 76 2000 340/15G24 RMK AO2 RAB05 P0000 T00670028
03812KAVL AVL20160505052512605/05/16 05:25:31  5-MIN KAVL 051025Z 33018G25KT 10SM -RA CLR 07/03 A2966 2410 76 2000 330/18G25 RMK AO2 RAB05 P0000 T00670028
03812KAVL AVL20160505053012605/05/16 05:30:31  5-MIN KAVL 051030Z 33018G25KT 10SM -RA CLR 07/03 A2966 2410 76 2000 330/18G25 RMK AO2 RAB05 P0000 T00670028
03812KAVL AVL20160505053512605/05/16 05:35:31  5-MIN KAVL 051035Z 33018G24KT 10SM -RA CLR 07/03 A2966 2410 76 2000 330/18G24 RMK AO2 RAB05 P0000 T00670028
03812KAVL AVL20160505054012605/05/16 05:40:31  5-MIN KAVL 051040Z 33018G25KT 10SM -RA CLR 07/03 A2966 2410 76 2000 340/18G25 RMK AO2 RAB05 P0000 T00670028
03812KAVL AVL20160505054512605/05/16 05:45:31  5-MIN KAVL 051045Z 33016G25KT 10SM -RA CLR 07/03 A2966 2410 76 2000 340/16G25 RMK AO2 RAB05 P0000 T00670028
03812KAVL AVL20160505055012705/05/16 05:50:31  5-MIN KAVL 051050Z 34017KT 10SM -RA CLR 07/03 A2966 2410 76 2000 340/17 RMK AO2 RAB05 SLP033 P0000 T00670028
03812KAVL AVL20160505055512005/05/16 05:55:31  5-MIN KAVL 051055Z 33017G24KT 10SM -RA CLR 07/03 A2966 2410 76 2000 340/17G24 RMK AO2 P0000 T00670028
03812KAVL AVL20160505060012005/05/16 06:00:31  5-MIN KAVL 051100Z 33015G21KT 10SM -RA CLR 07/03 A2967 2400 79 2000 330/15G21 RMK AO2 P0000 T00670033
03812KAVL AVL20160505060512005/05/16 06:05:31  5-MIN KAVL 051105Z 32015G23KT 10SM -RA CLR 07/03 A2967 2400 79 2000 330/15G23 RMK AO2 P0000 T00670033
03812KAVL AVL20160505061012305/05/16 06:10:31  5-MIN KAVL 051110Z 32015G23KT 10SM -RA FEW029 07/03 A2967 2400 79 2000 330/15G23 RMK AO2 P0000 T00670033
03812KAVL AVL20160505061511705/05/16 06:15:31  5-MIN KAVL 051115Z 33014KT 10SM -RA SCT027 07/03 A2967 2400 79 2000 340/14 RMK AO2 P0000 T00670033
03812KAVL AVL20160505062011905/05/16 06:20:31  5-MIN KAVL 051120Z 33013KT 10SM SCT025 07/03 A2967 2400 79 2000 340/13 RMK AO2 RAE16 P0000 T00670033
03812KAVL AVL20160505062513505/05/16 06:25:31  5-MIN KAVL 051125Z 33013KT 290V360 10SM SCT027 07/03 A2967 2400 79 2000 340/13 300V010 RMK AO2 RAE16 P0000 T00670033
03812KAVL AVL20160505063011905/05/16 06:30:31  5-MIN KAVL 051130Z 34011KT 10SM SCT027 07/03 A2967 2400 79 2000 340/11 RMK AO2 RAE16 P0000 T00670033
03812KAVL AVL20160505063511905/05/16 06:35:31  5-MIN KAVL 051135Z 34011KT 10SM SCT026 07/03 A2968 2390 76 2100 340/11 RMK AO2 RAE16 P0000 T00720033
03812KAVL AVL20160505064011905/05/16 06:40:31  5-MIN KAVL 051140Z 33015KT 10SM FEW028 08/03 A2968 2390 73 2100 340/15 RMK AO2 RAE16 P0000 T00780033
03812KAVL AVL20160505064512505/05/16 06:45:31  5-MIN KAVL 051145Z 34014G21KT 10SM SCT033 08/03 A2968 2390 73 2100 350/14G21 RMK AO2 RAE16 P0000 T00780033
03812KAVL AVL20160505065015605/05/16 06:50:31  5-MIN KAVL 051150Z 35014G21KT 10SM SCT037 08/03 A2968 2390 73 2100 350/14G21 RMK AO2 RAE16 SLP040 P0000 60000 T00780033 10083 20067 55012
03812KAVL AVL20160505065512305/05/16 06:55:31  5-MIN KAVL 051155Z 35014G22KT 10SM -RA SCT037 08/03 A2968 2390 70 2100 350/14G22 RMK AO2 P0000 T00780028
03812KAVL AVL20160505070012305/05/16 07:00:31  5-MIN KAVL 051200Z 33015G22KT 10SM -RA SCT035 08/03 A2968 2390 70 2200 340/15G22 RMK AO2 P0000 T00830033
03812KAVL AVL20160505070512305/05/16 07:05:31  5-MIN KAVL 051205Z 34018G23KT 10SM -RA SCT032 08/03 A2969 2390 73 2100 340/18G23 RMK AO2 P0000 T00780033
03812KAVL AVL20160505071012305/05/16 07:10:31  5-MIN KAVL 051210Z 34015G23KT 10SM -RA SCT032 08/03 A2969 2380 70 2200 340/15G23 RMK AO2 P0000 T00830033
03812KAVL AVL20160505071512305/05/16 07:15:31  5-MIN KAVL 051215Z 33016G23KT 10SM -RA SCT036 08/03 A2969 2380 70 2200 340/16G23 RMK AO2 P0000 T00830033
03812KAVL AVL20160505072012305/05/16 07:20:31  5-MIN KAVL 051220Z 33012G23KT 10SM -RA SCT036 08/03 A2969 2380 70 2200 340/12G23 RMK AO2 P0000 T00830033
03812KAVL AVL20160505072511705/05/16 07:25:31  5-MIN KAVL 051225Z 33015KT 10SM -RA SCT036 08/04 A2969 2380 73 2200 340/15 RMK AO2 P0000 T00830039
03812KAVL AVL20160505073012305/05/16 07:30:31  5-MIN KAVL 051230Z 34016G20KT 10SM -RA FEW034 09/03 A2969 2390 68 2300 350/16G20 RMK AO2 P0000 T00890033
03812KAVL AVL20160505073512305/05/16 07:35:31  5-MIN KAVL 051235Z 35014G20KT 10SM -RA FEW038 08/03 A2969 2380 70 2200 360/14G20 RMK AO2 P0000 T00830033
03812KAVL AVL20160505074014805/05/16 07:40:31  5-MIN KAVL 051240Z 34019G25KT 10SM -RA FEW021 FEW038 08/03 A2969 2380 68 2200 350/19G25 RMK AO2 PK WND 33026/1238 P0000 T00830028
03812KAVL AVL20160505074514805/05/16 07:45:31  5-MIN KAVL 051245Z 35018G26KT 10SM -RA FEW021 SCT035 08/02 A2969 2380 65 2200 360/18G26 RMK AO2 PK WND 34026/1245 P0000 T00830022
03812KAVL AVL20160505075016205/05/16 07:50:31  5-MIN KAVL 051250Z 34018G26KT 10SM -RA FEW019 FEW026 SCT035 08/02 A2969 2380 68 2100 350/18G26 RMK AO2 PK WND 34026/1245 SLP043 P0000 T00780022
03812KAVL AVL20160505075514805/05/16 07:55:31  5-MIN KAVL 051255Z 35021G30KT 10SM -RA FEW021 FEW035 08/02 A2969 2380 65 2200 350/21G30 RMK AO2 PK WND 34027/1255 P0000 T00830022
03812KAVL AVL20160505080014105/05/16 08:00:31  5-MIN KAVL 051300Z 35021G30KT 10SM -RA FEW021 08/02 A2969 2380 65 2200 360/21G30 RMK AO2 PK WND 34030/1300 P0000 T00830022
03812KAVL AVL20160505080514105/05/16 08:05:31  5-MIN KAVL 051305Z 34023G32KT 10SM -RA FEW021 08/03 A2969 2380 68 2200 340/23G32 RMK AO2 PK WND 32032/1303 P0000 T00830028
03812KAVL AVL20160505081014105/05/16 08:10:31  5-MIN KAVL 051310Z 34022G33KT 10SM -RA FEW034 08/02 A2969 2380 65 2200 340/22G33 RMK AO2 PK WND 33033/1306 P0000 T00830022
03812KAVL AVL20160505081513805/05/16 08:15:31  5-MIN KAVL 051315Z 34020G33KT 10SM -RA CLR 08/02 A2970 2370 65 2200 340/20G33 RMK AO2 PK WND 33033/1306 P0000 T00830022
03812KAVL AVL20160505082014805/05/16 08:20:31  5-MIN KAVL 051320Z 33016G29KT 10SM -RA FEW020 FEW045 09/02 A2971 2360 63 2200 340/16G29 RMK AO2 PK WND 33033/1306 P0000 T00890022
03812KAVL AVL20160505082516405/05/16 08:25:31  5-MIN KAVL 051325Z 36013G25KT 320V020 10SM -RA FEW020 SCT045 08/02 A2971 2360 63 2200 360/13G25 330V030 RMK AO2 PK WND 33033/1306 P0000 T00830017
03812KAVL AVL20160505083014105/05/16 08:30:31  5-MIN KAVL 051330Z 35015G22KT 10SM -RA BKN043 08/02 A2971 2360 65 2100 350/15G22 RMK AO2 PK WND 33033/1306 P0000 T00780017
03812KAVL AVL20160505083514805/05/16 08:35:31  5-MIN KAVL 051335Z 33012G22KT 10SM -RA SCT037 BKN046 08/02 A2971 2360 65 2200 340/12G22 RMK AO2 PK WND 33033/1306 P0000 T00830022
03812KAVL AVL20160505084014805/05/16 08:40:31  5-MIN KAVL 051340Z 33019G23KT 10SM -RA SCT037 BKN046 09/02 A2971 2370 60 2300 340/19G23 RMK AO2 PK WND 33033/1306 P0000 T00940022
03812KAVL AVL20160505084514805/05/16 08:45:31  5-MIN KAVL 051345Z 34019G25KT 10SM -RA FEW037 BKN046 09/02 A2970 2370 63 2200 340/19G25 RMK AO2 PK WND 33033/1306 P0000 T00890022
03812KAVL AVL20160505085015505/05/16 08:50:31  5-MIN KAVL 051350Z 34022G27KT 10SM -RA BKN041 BKN048 09/02 A2970 2370 60 2300 340/22G27 RMK AO2 PK WND 33033/1306 SLP047 P0000 T00940022
03812KAVL AVL20160505085512305/05/16 08:55:31  5-MIN KAVL 051355Z 34022G27KT 10SM -RA BKN040 09/01 A2970 2370 58 2200 350/22G27 RMK AO2 P0000 T00890011
03812KAVL AVL20160505090014805/05/16 09:00:31  5-MIN KAVL 051400Z 34019G27KT 10SM -RA FEW031 BKN042 09/02 A2970 2370 58 2300 340/19G27 RMK AO2 PK WND 33026/1357 P0000 T00940017
03812KAVL AVL20160505090514805/05/16 09:05:31  5-MIN KAVL 051405Z 35017G26KT 10SM -RA FEW029 BKN042 09/01 A2970 2370 56 2300 350/17G26 RMK AO2 PK WND 33026/1357 P0000 T00940011
03812KAVL AVL20160505091014805/05/16 09:10:31  5-MIN KAVL 051410Z 32018G26KT 10SM -RA FEW029 SCT044 10/01 A2970 2370 54 2400 330/18G26 RMK AO2 PK WND 33026/1357 P0000 T01000011
03812KAVL AVL20160505091514805/05/16 09:15:31  5-MIN KAVL 051415Z 32015G24KT 10SM -RA FEW028 SCT044 11/02 A2970 2370 54 2400 320/15G24 RMK AO2 PK WND 33026/1357 P0000 T01060017
03812KAVL AVL20160505092014805/05/16 09:20:31  5-MIN KAVL 051420Z 34020G25KT 10SM -RA FEW030 BKN044 09/01 A2971 2370 56 2300 340/20G25 RMK AO2 PK WND 33026/1357 P0000 T00940011
03812KAVL AVL20160505092515505/05/16 09:25:31  5-MIN KAVL 051425Z 34016G25KT 10SM -RA FEW030 SCT041 BKN048 09/01 A2971 2370 58 2200 350/16G25 RMK AO2 PK WND 33026/1357 P0000 T00890011
03812KAVL AVL20160505093015505/05/16 09:30:31  5-MIN KAVL 051430Z 34018G23KT 10SM -RA FEW030 SCT041 BKN048 09/01 A2970 2370 58 2200 350/18G23 RMK AO2 PK WND 33026/1357 P0000 T00890011
03812KAVL AVL20160505093515505/05/16 09:35:31  5-MIN KAVL 051435Z 35014G23KT 10SM -RA FEW030 FEW041 SCT048 09/02 A2971 2370 58 2300 360/14G23 RMK AO2 PK WND 33026/1357 P0000 T00940017
03812KAVL AVL20160505094015505/05/16 09:40:31  5-MIN KAVL 051440Z 34016G21KT 10SM -RA FEW030 SCT041 SCT048 09/02 A2971 2370 60 2200 350/16G21 RMK AO2 PK WND 33026/1357 P0000 T00890017
03812KAVL AVL20160505094515505/05/16 09:45:31  5-MIN KAVL 051445Z 35010G22KT 10SM -RA FEW028 SCT032 BKN045 09/01 A2970 2370 56 2300 360/10G22 RMK AO2 PK WND 33026/1357 P0000 T00940011
03812KAVL AVL20160505095017405/05/16 09:50:31  5-MIN KAVL 051450Z 01010G22KT 10SM -RA SCT030 BKN041 BKN048 11/02 A2971 2370 56 2400 010/10G22 RMK AO2 PK WND 33026/1357 SLP049 P0000 60000 T01060022 53009
03812KAVL AVL20160505095512005/05/16 09:55:31  5-MIN KAVL 051455Z 35010G19KT 10SM BKN030 BKN041 10/02 A2970 2370 56 2400 360/10G19 RMK AO2 T01000017
03812KAVL AVL20160505100015405/05/16 10:00:31  5-MIN KAVL 051500Z 34016G27KT 10SM -RA BKN030 BKN043 09/01 A2971 2370 56 2300 350/16G27 RMK AO2 PK WND 33027/1458 RAB00 P0000 T00940011
03812KAVL AVL20160505100515405/05/16 10:05:31  5-MIN KAVL 051505Z 35013G27KT 10SM -RA BKN030 BKN041 09/01 A2970 2370 53 2300 360/13G27 RMK AO2 PK WND 33027/1458 RAB00 P0000 T00940006
03812KAVL AVL20160505101016105/05/16 10:10:31  5-MIN KAVL 051510Z 35014G23KT 10SM -RA SCT030 BKN036 OVC043 09/01 A2970 2370 53 2300 350/14G23 RMK AO2 PK WND 33027/1458 RAB00 P0000 T00940006
03812KAVL AVL20160505101516105/05/16 10:15:31  5-MIN KAVL 051515Z 33016G24KT 10SM -RA SCT030 BKN039 OVC046 09/01 A2970 2370 53 2300 340/16G24 RMK AO2 PK WND 33027/1458 RAB00 P0000 T00940006
03812KAVL AVL20160505102015405/05/16 10:20:31  5-MIN KAVL 051520Z 35013G24KT 10SM -RA BKN032 BKN043 11/02 A2970 2370 54 2400 360/13G24 RMK AO2 PK WND 33027/1458 RAB00 P0000 T01060017
03812KAVL AVL20160505102516105/05/16 10:25:31  5-MIN KAVL 051525Z 35017G25KT 10SM -RA FEW030 BKN037 BKN043 11/01 A2970 2370 52 2400 360/17G25 RMK AO2 PK WND 33027/1458 RAB00 P0000 T01060011
03812KAVL AVL20160505103015405/05/16 10:30:31  5-MIN KAVL 051530Z 35014G27KT 10SM -RA SCT034 BKN043 11/01 A2970 2370 48 2500 360/14G27 RMK AO2 PK WND 33027/1526 RAB00 P0000 T01110006
03812KAVL AVL20160505103515405/05/16 10:35:31  5-MIN KAVL 051535Z 01015G27KT 10SM -RA FEW034 BKN043 11/01 A2970 2370 52 2400 020/15G27 RMK AO2 PK WND 33027/1526 RAB00 P0000 T01060011
03812KAVL AVL20160505104015405/05/16 10:40:31  5-MIN KAVL 051540Z 35012G24KT 10SM -RA SCT036 BKN043 11/01 A2970 2370 50 2500 360/12G24 RMK AO2 PK WND 33027/1526 RAB00 P0000 T01110011
03812KAVL AVL20160505104514705/05/16 10:45:31  5-MIN KAVL 051545Z 34016G23KT 10SM -RA SCT041 12/02 A2970 2370 50 2600 340/16G23 RMK AO2 PK WND 33027/1526 RAB00 P0000 T01170017
03812KAVL AVL20160505105015405/05/16 10:50:31  5-MIN KAVL 051550Z 34020G29KT 10SM -RA SCT041 12/01 A2970 2370 48 2600 350/20G29 RMK AO2 PK WND 33029/1549 RAB00 SLP047 P0000 T01170011
03812KAVL AVL20160505105512305/05/16 10:55:31  5-MIN KAVL 051555Z 35019G29KT 10SM -RA SCT041 12/01 A2970 2370 48 2600 350/19G29 RMK AO2 P0000 T01170011
03812KAVL AVL20160505110014105/05/16 11:00:31  5-MIN KAVL 051600Z 34019G27KT 10SM -RA BKN041 12/01 A2970 2370 48 2600 340/19G27 RMK AO2 PK WND 33027/1559 P0000 T01170011
03812KAVL AVL20160505110514105/05/16 11:05:31  5-MIN KAVL 051605Z 35019G27KT 10SM -RA BKN041 12/01 A2970 2370 48 2600 360/19G27 RMK AO2 PK WND 33027/1559 P0000 T01170011
03812KAVL AVL20160505111014105/05/16 11:10:31  5-MIN KAVL 051610Z 35014G26KT 10SM -RA BKN041 11/01 A2970 2370 50 2400 360/14G26 RMK AO2 PK WND 33027/1559 P0000 T01060006
03812KAVL AVL20160505111514105/05/16 11:15:31  5-MIN KAVL 051615Z 34016G25KT 10SM -RA BKN041 11/01 A2971 2360 50 2500 350/16G25 RMK AO2 PK WND 33027/1559 P0000 T01110011
03812KAVL AVL20160505112014105/05/16 11:20:31  5-MIN KAVL 051620Z 36014G25KT 10SM -RA BKN041 11/01 A2971 2360 48 2500 360/14G25 RMK AO2 PK WND 33027/1559 P0000 T01110006
03812KAVL AVL20160505112514105/05/16 11:25:31  5-MIN KAVL 051625Z 35015G26KT 10SM -RA BKN041 11/01 A2971 2360 50 2400 350/15G26 RMK AO2 PK WND 33027/1559 P0000 T01060006
03812KAVL AVL20160505113014105/05/16 11:30:31  5-MIN KAVL 051630Z 34015G26KT 10SM -RA BKN041 11/01 A2971 2360 50 2400 350/15G26 RMK AO2 PK WND 33027/1559 P0000 T01060006
03812KAVL AVL20160505113514105/05/16 11:35:31  5-MIN KAVL 051635Z 34018G28KT 10SM -RA BKN041 11/02 A2971 2360 52 2500 340/18G28 RMK AO2 PK WND 32028/1631 P0000 T01110017
03812KAVL AVL20160505114014105/05/16 11:40:31  5-MIN KAVL 051640Z 35019G28KT 10SM -RA BKN041 11/02 A2971 2360 52 2500 350/19G28 RMK AO2 PK WND 32028/1631 P0000 T01110017
03812KAVL AVL20160505114514105/05/16 11:45:31  5-MIN KAVL 051645Z 33018G26KT 10SM -RA BKN041 11/02 A2971 2360 52 2500 340/18G26 RMK AO2 PK WND 32028/1631 P0000 T01110017
03812KAVL AVL20160505115014805/05/16 11:50:31  5-MIN KAVL 051650Z 33021G26KT 10SM -RA BKN041 12/02 A2971 2360 50 2600 330/21G26 RMK AO2 PK WND 32028/1631 SLP052 P0000 T01170017
03812KAVL AVL20160505115513005/05/16 11:55:31  5-MIN KAVL 051655Z 34019G27KT 10SM -RA SCT038 BKN050 12/02 A2971 2360 50 2600 350/19G27 RMK AO2 P0000 T01220022
03812KAVL AVL20160505120015505/05/16 12:00:31  5-MIN KAVL 051700Z 32019G27KT 10SM -RA FEW039 SCT047 BKN055 12/02 A2971 2370 52 2600 320/19G27 RMK AO2 PK WND 33026/1656 P0000 T01170022
03812KAVL AVL20160505120514805/05/16 12:05:31  5-MIN KAVL 051705Z 33018G26KT 10SM -RA FEW044 SCT050 12/03 A2971 2370 52 2600 330/18G26 RMK AO2 PK WND 33026/1656 P0000 T01220028
03812KAVL AVL20160505121014805/05/16 12:10:31  5-MIN KAVL 051710Z 35016G25KT 10SM -RA FEW041 SCT050 12/02 A2970 2370 52 2600 350/16G25 RMK AO2 PK WND 33026/1656 P0000 T01170022
03812KAVL AVL20160505121514805/05/16 12:15:31  5-MIN KAVL 051715Z 36016G25KT 10SM -RA FEW038 SCT050 12/02 A2970 2370 50 2600 010/16G25 RMK AO2 PK WND 33026/1656 P0000 T01170017
03812KAVL AVL20160505122014805/05/16 12:20:31  5-MIN KAVL 051720Z 35013G22KT 10SM -RA SCT038 SCT050 12/01 A2970 2370 48 2600 350/13G22 RMK AO2 PK WND 33026/1656 P0000 T01170011
03812KAVL AVL20160505122514105/05/16 12:25:31  5-MIN KAVL 051725Z 33016G23KT 10SM -RA SCT038 12/02 A2970 2370 50 2600 340/16G23 RMK AO2 PK WND 33026/1656 P0000 T01170017
03812KAVL AVL20160505123014105/05/16 12:30:31  5-MIN KAVL 051730Z 34018G24KT 10SM -RA BKN038 12/01 A2970 2370 48 2600 340/18G24 RMK AO2 PK WND 33026/1656 P0000 T01170011
03812KAVL AVL20160505123514105/05/16 12:35:31  5-MIN KAVL 051735Z 33020G25KT 10SM -RA BKN037 12/02 A2970 2370 50 2600 330/20G25 RMK AO2 PK WND 33026/1656 P0000 T01170017
03812KAVL AVL20160505124014805/05/16 12:40:31  5-MIN KAVL 051740Z 32021G25KT 10SM -RA BKN037 OVC050 11/02 A2971 2370 54 2400 330/21G25 RMK AO2 PK WND 33026/1656 P0000 T01060017
03812KAVL AVL20160505124515505/05/16 12:45:31  5-MIN KAVL 051745Z 33020G29KT 10SM -RA BKN037 BKN043 BKN055 12/02 A2971 2370 48 2600 340/20G29 RMK AO2 PK WND 33029/1743 P0000 T01220017
03812KAVL AVL20160505125017905/05/16 12:50:31  5-MIN KAVL 051750Z 35019G29KT 10SM -RA BKN037 BKN046 12/02 A2971 2370 50 2600 360/19G29 RMK AO2 PK WND 33029/1743 SLP051 P0000 60000 T01170017 10122 20078 51007
03812KAVL AVL20160505125513005/05/16 12:55:31  5-MIN KAVL 051755Z 36016G25KT 10SM -RA BKN037 OVC046 11/01 A2971 2360 50 2500 010/16G25 RMK AO2 P0000 T01110011
03812KAVL AVL20160505130014805/05/16 13:00:31  5-MIN KAVL 051800Z 32017G26KT 10SM -RA SCT037 BKN046 11/02 A2971 2360 52 2500 330/17G26 RMK AO2 PK WND 32026/1756 P0000 T01110017
03812KAVL AVL20160505130514805/05/16 13:05:31  5-MIN KAVL 051805Z 33018G26KT 10SM -RA FEW034 BKN046 12/02 A2971 2360 52 2600 340/18G26 RMK AO2 PK WND 33026/1804 P0000 T01170022
03812KAVL AVL20160505131014805/05/16 13:10:31  5-MIN KAVL 051810Z 35018G26KT 10SM -RA FEW034 BKN046 12/02 A2971 2360 50 2600 360/18G26 RMK AO2 PK WND 33026/1804 P0000 T01170017
03812KAVL AVL20160505131515505/05/16 13:15:31  5-MIN KAVL 051815Z 35016G25KT 10SM -RA FEW034 SCT043 BKN050 12/02 A2971 2360 50 2600 360/16G25 RMK AO2 PK WND 33026/1804 P0000 T01170017
03812KAVL AVL20160505132014805/05/16 13:20:31  5-MIN KAVL 051820Z 33018G26KT 10SM -RA FEW034 BKN045 12/02 A2971 2360 50 2600 340/18G26 RMK AO2 PK WND 33026/1804 P0000 T01170017
03812KAVL AVL20160505132514805/05/16 13:25:31  5-MIN KAVL 051825Z 35017G26KT 10SM -RA SCT034 BKN045 11/02 A2971 2360 52 2500 350/17G26 RMK AO2 PK WND 33026/1804 P0000 T01110017
03812KAVL AVL20160505133014805/05/16 13:30:31  5-MIN KAVL 051830Z 32020G27KT 10SM -RA SCT033 BKN043 12/02 A2971 2360 52 2600 330/20G27 RMK AO2 PK WND 32027/1829 P0000 T01170022
03812KAVL AVL20160505133514805/05/16 13:35:31  5-MIN KAVL 051835Z 34015G27KT 10SM -RA BKN033 BKN042 12/02 A2971 2360 52 2600 350/15G27 RMK AO2 PK WND 32027/1829 P0000 T01170022
03812KAVL AVL20160505134014105/05/16 13:40:31  5-MIN KAVL 051840Z 35017G25KT 10SM -RA BKN035 12/02 A2971 2360 50 2600 350/17G25 RMK AO2 PK WND 32027/1829 P0000 T01170017
03812KAVL AVL20160505134514105/05/16 13:45:31  5-MIN KAVL 051845Z 35019G26KT 10SM -RA BKN033 12/02 A2971 2360 50 2600 350/19G26 RMK AO2 PK WND 32027/1829 P0000 T01170017
03812KAVL AVL20160505135014805/05/16 13:50:31  5-MIN KAVL 051850Z 32019G28KT 10SM -RA BKN033 12/02 A2971 2360 50 2600 330/19G28 RMK AO2 PK WND 34028/1846 SLP053 P0000 T01220022
03812KAVL AVL20160505135512305/05/16 13:55:31  5-MIN KAVL 051855Z 33020G28KT 10SM -RA SCT033 13/02 A2971 2360 48 2700 330/20G28 RMK AO2 P0000 T01280022
03812KAVL AVL20160505140014105/05/16 14:00:31  5-MIN KAVL 051900Z 35017G26KT 10SM -RA BKN036 12/02 A2971 2360 50 2600 350/17G26 RMK AO2 PK WND 34026/1858 P0000 T01170017
03812KAVL AVL20160505140514605/05/16 14:05:31  5-MIN KAVL 051905Z AUTO 32014G26KT 10SM -RA BKN034 13/02 A2971 2360 48 2700 330/14G26 RMK AO2 PK WND 34026/1858 P0000 T01280022
03812KAVL AVL20160505141014605/05/16 14:10:31  5-MIN KAVL 051910Z AUTO 35022G28KT 10SM -RA BKN036 11/01 A2971 2360 50 2500 350/22G28 RMK AO2 PK WND 34028/1909 P0000 T01110011
03812KAVL AVL20160505141515305/05/16 14:15:31  5-MIN KAVL 051915Z AUTO 33020G29KT 10SM -RA BKN036 BKN047 11/01 A2971 2360 50 2500 340/20G29 RMK AO2 PK WND 34029/1911 P0000 T01110011
03812KAVL AVL20160505142015305/05/16 14:20:31  5-MIN KAVL 051920Z AUTO 31016G29KT 10SM -RA BKN036 BKN047 12/02 A2971 2360 52 2600 320/16G29 RMK AO2 PK WND 34029/1911 P0000 T01170022
03812KAVL AVL20160505142515305/05/16 14:25:31  5-MIN KAVL 051925Z AUTO 32018G24KT 10SM -RA SCT037 BKN049 12/02 A2971 2360 52 2600 330/18G24 RMK AO2 PK WND 34029/1911 P0000 T01170022
03812KAVL AVL20160505143015305/05/16 14:30:31  5-MIN KAVL 051930Z AUTO 32015G24KT 10SM -RA SCT037 BKN049 12/03 A2971 2360 54 2600 330/15G24 RMK AO2 PK WND 34029/1911 P0000 T01170028
03812KAVL AVL20160505143515305/05/16 14:35:31  5-MIN KAVL 051935Z AUTO 31014G23KT 10SM -RA SCT037 BKN049 12/03 A2971 2360 54 2600 310/14G23 RMK AO2 PK WND 34029/1911 P0000 T01170028
03812KAVL AVL20160505144015305/05/16 14:40:31  5-MIN KAVL 051940Z AUTO 31017G24KT 10SM -RA BKN043 BKN055 12/03 A2971 2360 54 2600 320/17G24 RMK AO2 PK WND 34029/1911 P0000 T01220033
03812KAVL AVL20160505144515305/05/16 14:45:31  5-MIN KAVL 051945Z AUTO 32014G24KT 10SM -RA SCT040 BKN055 12/03 A2971 2360 52 2600 320/14G24 RMK AO2 PK WND 34029/1911 P0000 T01220028
03812KAVL AVL20160505145016005/05/16 14:50:31  5-MIN KAVL 051950Z AUTO 31015G23KT 10SM -RA FEW040 SCT049 12/02 A2971 2360 50 2600 320/15G23 RMK AO2 PK WND 34029/1911 SLP053 P0000 T01220022
03812KAVL AVL20160505145514405/05/16 14:55:31  5-MIN KAVL 051955Z AUTO 32019G24KT 10SM FEW039 FEW046 SCT055 12/02 A2971 2360 50 2600 330/19G24 RMK AO2 RAE55 P0000 T01220022
03812KAVL AVL20160505150013005/05/16 15:00:31  5-MIN KAVL 052000Z 32017G24KT 10SM -RA FEW039 FEW046 12/02 A2971 2370 48 2600 320/17G24 RMK AO2 P0000 T01220017
03812KAVL AVL20160505150513005/05/16 15:05:31  5-MIN KAVL 052005Z 31011G22KT 10SM -RA FEW037 FEW047 12/02 A2971 2370 48 2600 320/11G22 RMK AO2 P0000 T01220017
03812KAVL AVL20160505151012005/05/16 15:10:31  5-MIN KAVL 052010Z 33011G19KT 10SM -RA CLR 13/02 A2970 2370 48 2700 340/11G19 RMK AO2 P0000 T01280022
03812KAVL AVL20160505151512205/05/16 15:15:31  5-MIN KAVL 052015Z 32012G21KT 10SM CLR 13/02 A2970 2370 48 2700 330/12G21 RMK AO2 RAE12 P0000 T01280022
03812KAVL AVL20160505152014105/05/16 15:20:31  5-MIN KAVL 052020Z 33019G26KT 10SM -RA FEW039 13/02 A2970 2370 48 2700 340/19G26 RMK AO2 PK WND 33026/2020 P0000 T01280022
03812KAVL AVL20160505152514105/05/16 15:25:31  5-MIN KAVL 052025Z 33020G26KT 10SM -RA SCT037 12/02 A2971 2370 50 2600 340/20G26 RMK AO2 PK WND 33026/2020 P0000 T01220022
03812KAVL AVL20160505153014805/05/16 15:30:31  5-MIN KAVL 052030Z 34021G26KT 10SM -RA BKN035 BKN043 12/02 A2971 2360 52 2600 340/21G26 RMK AO2 PK WND 34026/2029 P0000 T01170022
03812KAVL AVL20160505153514805/05/16 15:35:31  5-MIN KAVL 052035Z 34019G26KT 10SM -RA BKN035 BKN055 11/02 A2971 2360 54 2500 340/19G26 RMK AO2 PK WND 34026/2029 P0000 T01110022
03812KAVL AVL20160505154014805/05/16 15:40:31  5-MIN KAVL 052040Z 33017G24KT 10SM -RA BKN037 BKN050 11/03 A2971 2360 61 2400 340/17G24 RMK AO2 PK WND 34026/2029 P0000 T01060033
03812KAVL AVL20160505154514805/05/16 15:45:31  5-MIN KAVL 052045Z 33015G24KT 10SM -RA BKN037 BKN050 10/04 A2972 2360 65 2400 340/15G24 RMK AO2 PK WND 34026/2029 P0000 T01000039
03812KAVL AVL20160505155017405/05/16 15:50:31  5-MIN KAVL 052050Z 33011G22KT 10SM -RA SCT033 BKN041 BKN050 11/04 A2971 2360 66 2400 340/11G22 RMK AO2 PK WND 34026/2029 SLP055 P0000 60000 T01060044 53001
03812KAVL AVL20160505155513705/05/16 15:55:31  5-MIN KAVL 052055Z 35012G18KT 10SM -RA SCT033 SCT041 BKN050 12/03 A2971 2360 56 2600 350/12G18 RMK AO2 P0000 T01170033
03812KAVL AVL20160505160014105/05/16 16:00:31  5-MIN KAVL 052100Z 34012G18KT 10SM FEW033 FEW041 SCT050 12/03 A2971 2360 56 2600 340/12G18 RMK AO2 RAE2056 P0000 T01170033
03812KAVL AVL20160505160513005/05/16 16:05:31  5-MIN KAVL 052105Z 34016G25KT 10SM -RA SCT039 BKN050 12/03 A2971 2360 52 2600 350/16G25 RMK AO2 P0000 T01220028
03812KAVL AVL20160505161013705/05/16 16:10:31  5-MIN KAVL 052110Z 33014G25KT 10SM -RA SCT032 BKN040 BKN050 12/03 A2971 2360 52 2600 330/14G25 RMK AO2 P0000 T01220028
03812KAVL AVL20160505161514605/05/16 16:15:31  5-MIN KAVL 052115Z 34013G23KT 310V010 10SM -RA SCT032 BKN040 13/03 A2971 2360 50 2700 350/13G23 320V020 RMK AO2 P0000 T01280028
03812KAVL AVL20160505162013005/05/16 16:20:31  5-MIN KAVL 052120Z 35014G23KT 10SM -RA BKN035 BKN044 13/03 A2971 2360 50 2700 360/14G23 RMK AO2 P0000 T01280028
03812KAVL AVL20160505162513005/05/16 16:25:31  5-MIN KAVL 052125Z 34015G23KT 10SM -RA BKN037 BKN047 13/02 A2971 2360 48 2700 350/15G23 RMK AO2 P0000 T01280022
03812KAVL AVL20160505163014805/05/16 16:30:31  5-MIN KAVL 052130Z 33019G26KT 10SM -RA BKN037 BKN045 12/02 A2971 2360 48 2600 330/19G26 RMK AO2 PK WND 32026/2129 P0000 T01220017
03812KAVL AVL20160505163515505/05/16 16:35:31  5-MIN KAVL 052135Z 35016G26KT 10SM -RA BKN034 BKN041 BKN048 13/02 A2971 2360 48 2700 360/16G26 RMK AO2 PK WND 32026/2129 P0000 T01280022
03812KAVL AVL20160505164014805/05/16 16:40:31  5-MIN KAVL 052140Z 34015G23KT 10SM -RA BKN036 OVC045 11/03 A2972 2360 56 2500 350/15G23 RMK AO2 PK WND 32026/2129 P0000 T01110028
03812KAVL AVL20160505164514805/05/16 16:45:31  5-MIN KAVL 052145Z 35012G23KT 10SM -RA BKN036 BKN047 12/03 A2972 2350 54 2500 360/12G23 RMK AO2 PK WND 32026/2129 P0000 T01170028
03812KAVL AVL20160505165016405/05/16 16:50:31  5-MIN KAVL 052150Z 35011G21KT 10SM SCT034 SCT043 BKN050 11/03 A2972 2350 56 2500 360/11G21 RMK AO2 PK WND 32026/2129 RAE50 SLP057 P0000 T01110028
03812KAVL AVL20160505165512005/05/16 16:55:31  5-MIN KAVL 052155Z 36012G22KT 10SM SCT036 BKN047 11/03 A2972 2350 56 2500 360/12G22 RMK AO2 T01110028
03812KAVL AVL20160505170012005/05/16 17:00:31  5-MIN KAVL 052200Z 36016G23KT 10SM BKN038 BKN045 11/03 A2973 2350 61 2400 360/16G23 RMK AO2 T01060033
03812KAVL AVL20160505170513605/05/16 17:05:31  5-MIN KAVL 052205Z 36015G23KT 10SM -RA BKN038 BKN046 11/03 A2973 2340 61 2400 010/15G23 RMK AO2 RAB01 P0000 T01060033
03812KAVL AVL20160505171014305/05/16 17:10:31  5-MIN KAVL 052210Z 35013G22KT 10SM -RA BKN038 BKN045 BKN050 10/03 A2973 2340 63 2300 360/13G22 RMK AO2 RAB01 P0000 T01000033
03812KAVL AVL20160505171513605/05/16 17:15:31  5-MIN KAVL 052215Z 35017G23KT 10SM -RA BKN038 BKN048 10/03 A2973 2350 63 2300 350/17G23 RMK AO2 RAB01 P0000 T01000033
03812KAVL AVL20160505172013605/05/16 17:20:31  5-MIN KAVL 052220Z 34020G25KT 10SM -RA BKN038 BKN048 10/03 A2973 2350 63 2300 350/20G25 RMK AO2 RAB01 P0000 T01000033
03812KAVL AVL20160505172513605/05/16 17:25:31  5-MIN KAVL 052225Z 33019G25KT 10SM -RA SCT039 BKN048 10/03 A2973 2350 60 2300 340/19G25 RMK AO2 RAB01 P0000 T01000028
03812KAVL AVL20160505173013605/05/16 17:30:31  5-MIN KAVL 052230Z 33016G24KT 10SM -RA SCT039 SCT048 10/03 A2973 2350 63 2300 340/16G24 RMK AO2 RAB01 P0000 T01000033
03812KAVL AVL20160505173513605/05/16 17:35:31  5-MIN KAVL 052235Z 33017G24KT 10SM -RA FEW039 SCT048 10/03 A2973 2350 63 2300 340/17G24 RMK AO2 RAB01 P0000 T01000033
03812KAVL AVL20160505174013605/05/16 17:40:31  5-MIN KAVL 052240Z 33020G25KT 10SM -RA FEW044 FEW100 10/03 A2973 2340 60 2300 340/20G25 RMK AO2 RAB01 P0000 T01000028
03812KAVL AVL20160505174514705/05/16 17:45:31  5-MIN KAVL 052245Z 33017G26KT 10SM -RA FEW110 10/03 A2973 2340 60 2300 340/17G26 RMK AO2 PK WND 33026/2241 RAB01 P0000 T01000028
03812KAVL AVL20160505175015405/05/16 17:50:31  5-MIN KAVL 052250Z 34018G26KT 10SM -RA FEW110 10/03 A2974 2340 63 2300 340/18G26 RMK AO2 PK WND 33026/2241 RAB01 SLP064 P0000 T01000033
03812KAVL AVL20160505175512305/05/16 17:55:31  5-MIN KAVL 052255Z 35014G24KT 10SM -RA SCT110 10/03 A2974 2340 63 2300 350/14G24 RMK AO2 P0000 T01000033
03812KAVL AVL20160505180013005/05/16 18:00:31  5-MIN KAVL 052300Z 34016G22KT 10SM -RA SCT038 BKN110 10/03 A2974 2330 63 2300 340/16G22 RMK AO2 P0000 T01000033
03812KAVL AVL20160505180513005/05/16 18:05:31  5-MIN KAVL 052305Z 34015G22KT 10SM -RA BKN038 BKN110 10/03 A2974 2330 63 2300 340/15G22 RMK AO2 P0000 T01000033
03812KAVL AVL20160505181013005/05/16 18:10:31  5-MIN KAVL 052310Z 35014G22KT 10SM -RA BKN038 BKN110 09/03 A2974 2330 65 2300 360/14G22 RMK AO2 P0000 T00940033
03812KAVL AVL20160505181513005/05/16 18:15:31  5-MIN KAVL 052315Z 34013G20KT 10SM -RA BKN036 BKN110 09/04 A2974 2330 68 2300 350/13G20 RMK AO2 P0000 T00940039
03812KAVL AVL20160505182012405/05/16 18:20:31  5-MIN KAVL 052320Z 33011KT 10SM -RA BKN036 OVC110 09/04 A2974 2330 68 2300 340/11 RMK AO2 P0000 T00940039
03812KAVL AVL20160505182512605/05/16 18:25:31  5-MIN KAVL 052325Z 34010KT 10SM SCT038 OVC110 09/04 A2974 2330 68 2300 340/10 RMK AO2 RAE24 P0000 T00940039
03812KAVL AVL20160505183012605/05/16 18:30:31  5-MIN KAVL 052330Z 33010KT 10SM SCT036 OVC110 09/04 A2974 2330 68 2300 340/10 RMK AO2 RAE24 P0000 T00940039
03812KAVL AVL20160505183512605/05/16 18:35:31  5-MIN KAVL 052335Z 34010KT 10SM FEW036 OVC110 09/04 A2974 2330 68 2300 340/10 RMK AO2 RAE24 P0000 T00940039
03812KAVL AVL20160505184013205/05/16 18:40:31  5-MIN KAVL 052340Z 35011G17KT 10SM FEW036 OVC110 09/04 A2975 2330 68 2300 350/11G17 RMK AO2 RAE24 P0000 T00940039
03812KAVL AVL20160505184512505/05/16 18:45:31  5-MIN KAVL 052345Z 35008G17KT 10SM OVC110 09/04 A2975 2330 68 2300 360/08G17 RMK AO2 RAE24 P0000 T00940039
03812KAVL AVL20160505185015005/05/16 18:50:31  5-MIN KAVL 052350Z 35010KT 10SM BKN110 09/03 A2975 2330 65 2300 350/10 RMK AO2 RAE24 SLP067 P0000 60000 T00940033 10128 20094 52001
03812KAVL AVL20160505185511405/05/16 18:55:31  5-MIN KAVL 052355Z 34011KT 10SM FEW034 BKN110 09/03 A2975 2330 65 2300 350/11 RMK AO2 T00940033
03812KAVL AVL20160505190013805/05/16 19:00:31  5-MIN KAVL 060000Z 34011G19KT 10SM -RA SCT036 BKN110 09/03 A2975 2320 65 2200 340/11G19 RMK AO2 RAB2359 P0000 T00940033
03812KAVL AVL20160505190513205/05/16 19:05:31  5-MIN KAVL 060005Z 34014KT 10SM -RA BKN036 BKN110 09/03 A2975 2320 65 2200 350/14 RMK AO2 RAB2359 P0000 T00940033
03812KAVL AVL20160505191013805/05/16 19:10:31  5-MIN KAVL 060010Z 33014G20KT 10SM -RA SCT036 BKN110 09/03 A2975 2320 65 2200 340/14G20 RMK AO2 RAB2359 P0000 T00940033
03812KAVL AVL20160505191513805/05/16 19:15:31  5-MIN KAVL 060015Z 33017G23KT 10SM -RA SCT036 BKN110 09/03 A2975 2320 63 2200 330/17G23 RMK AO2 RAB2359 P0000 T00940028
03812KAVL AVL20160505192013805/05/16 19:20:31  5-MIN KAVL 060020Z 33015G23KT 10SM -RA SCT035 OVC100 09/03 A2975 2320 63 2200 340/15G23 RMK AO2 RAB2359 P0000 T00940028
03812KAVL AVL20160505192513805/05/16 19:25:31  5-MIN KAVL 060025Z 34016G24KT 10SM -RA FEW035 OVC100 09/03 A2976 2320 65 2200 340/16G24 RMK AO2 RAB2359 P0000 T00940033
03812KAVL AVL20160505193013805/05/16 19:30:31  5-MIN KAVL 060030Z 34017G24KT 10SM -RA FEW033 OVC100 09/03 A2976 2320 65 2200 350/17G24 RMK AO2 RAB2359 P0000 T00940033
03812KAVL AVL20160505193513105/05/16 19:35:31  5-MIN KAVL 060035Z 35015G25KT 10SM -RA OVC100 09/04 A2976 2320 71 2200 350/15G25 RMK AO2 RAB2359 P0000 T00890039
03812KAVL AVL20160505194014905/05/16 19:40:31  5-MIN KAVL 060040Z 34021G26KT 10SM -RA OVC100 09/04 A2976 2320 71 2200 350/21G26 RMK AO2 PK WND 34026/0039 RAB2359 P0000 T00890039
03812KAVL AVL20160505194515605/05/16 19:45:31  5-MIN KAVL 060045Z 34020G27KT 10SM -RA FEW034 OVC100 09/04 A2977 2310 71 2200 350/20G27 RMK AO2 PK WND 35027/0042 RAB2359 P0000 T00890039
03812KAVL AVL20160505195016305/05/16 19:50:31  5-MIN KAVL 060050Z 35015G27KT 10SM -RA FEW034 OVC100 09/04 A2977 2310 71 2200 350/15G27 RMK AO2 PK WND 35027/0042 RAB2359 SLP076 P0000 T00890039
03812KAVL AVL20160505195514805/05/16 19:55:31  5-MIN KAVL 060055Z 34020G28KT 10SM -RA FEW034 OVC110 09/04 A2977 2300 71 2200 350/20G28 RMK AO2 PK WND 33028/0055 P0000 T00890039
03812KAVL AVL20160505200014805/05/16 20:00:31  5-MIN KAVL 060100Z 35019G28KT 10SM -RA FEW034 OVC110 09/04 A2978 2300 71 2200 350/19G28 RMK AO2 PK WND 33028/0055 P0000 T00890039
03812KAVL AVL20160505200515505/05/16 20:05:31  5-MIN KAVL 060105Z 35018G26KT 10SM -RA SCT036 SCT042 OVC110 09/04 A2978 2300 71 2100 350/18G26 RMK AO2 PK WND 33028/0055 P0000 T00890039
03812KAVL AVL20160505201015505/05/16 20:10:31  5-MIN KAVL 060110Z 35020G27KT 10SM -RA SCT034 BKN044 OVC120 09/03 A2978 2300 68 2100 350/20G27 RMK AO2 PK WND 33028/0055 P0000 T00890033
03812KAVL AVL20160505201515505/05/16 20:15:31  5-MIN KAVL 060115Z 33021G27KT 10SM -RA FEW032 BKN100 OVC120 08/03 A2979 2290 70 2100 340/21G27 RMK AO2 PK WND 33028/0055 P0000 T00830033
03812KAVL AVL20160505202015505/05/16 20:20:31  5-MIN KAVL 060120Z 34022G28KT 10SM -RA FEW032 BKN090 OVC120 08/03 A2979 2290 70 2100 350/22G28 RMK AO2 PK WND 33028/0119 P0000 T00830033
03812KAVL AVL20160505202515505/05/16 20:25:31  5-MIN KAVL 060125Z 35016G28KT 10SM -RA FEW032 SCT045 OVC090 08/03 A2979 2290 68 2100 350/16G28 RMK AO2 PK WND 33028/0119 P0000 T00830028
03812KAVL AVL20160505203015505/05/16 20:30:31  5-MIN KAVL 060130Z 35017G31KT 10SM -RA FEW032 SCT049 OVC090 08/03 A2979 2290 68 2100 350/17G31 RMK AO2 PK WND 34031/0126 P0000 T00830028
03812KAVL AVL20160505203515505/05/16 20:35:31  5-MIN KAVL 060135Z 34019G31KT 10SM -RA FEW043 BKN055 OVC090 08/03 A2979 2290 68 2100 340/19G31 RMK AO2 PK WND 34031/0126 P0000 T00830028
03812KAVL AVL20160505204014805/05/16 20:40:31  5-MIN KAVL 060140Z 35014G26KT 10SM -RA BKN055 OVC090 08/03 A2979 2280 73 2000 350/14G26 RMK AO2 PK WND 34031/0126 P0000 T00780033
03812KAVL AVL20160505204514805/05/16 20:45:31  5-MIN KAVL 060145Z 35014G23KT 10SM -RA BKN055 OVC090 08/03 A2979 2280 73 2000 360/14G23 RMK AO2 PK WND 34031/0126 P0000 T00780033
03812KAVL AVL20160505205015505/05/16 20:50:31  5-MIN KAVL 060150Z 35016G23KT 10SM -RA BKN050 OVC090 08/04 A2980 2280 76 2000 360/16G23 RMK AO2 PK WND 34031/0126 SLP084 P0000 T00780039
03812KAVL AVL20160505205512305/05/16 20:55:31  5-MIN KAVL 060155Z 35014G21KT 10SM -RA OVC050 08/04 A2980 2280 76 2000 350/14G21 RMK AO2 P0000 T00780039
03812KAVL AVL20160505210012305/05/16 21:00:31  5-MIN KAVL 060200Z 35014G21KT 10SM -RA OVC050 08/04 A2980 2280 76 2000 360/14G21 RMK AO2 P0000 T00780039
03812KAVL AVL20160505210512305/05/16 21:05:31  5-MIN KAVL 060205Z 35014G20KT 10SM -RA OVC050 07/04 A2980 2280 79 1900 350/14G20 RMK AO2 P0000 T00720039
03812KAVL AVL20160505211012305/05/16 21:10:31  5-MIN KAVL 060210Z 36011G20KT 10SM -RA OVC048 07/04 A2980 2280 79 1900 360/11G20 RMK AO2 P0000 T00720039
03812KAVL AVL20160505211513005/05/16 21:15:31  5-MIN KAVL 060215Z 35009G18KT 10SM -RA FEW030 OVC048 07/04 A2980 2280 82 1900 360/09G18 RMK AO2 P0000 T00720044
03812KAVL AVL20160505212012405/05/16 21:20:31  5-MIN KAVL 060220Z 35012KT 10SM -RA FEW030 OVC048 07/04 A2980 2280 82 1900 360/12 RMK AO2 P0000 T00720044
03812KAVL AVL20160505212511705/05/16 21:25:31  5-MIN KAVL 060225Z 36009KT 10SM -RA OVC048 07/04 A2980 2280 82 1900 360/09 RMK AO2 P0000 T00720044
03812KAVL AVL20160505213013005/05/16 21:30:31  5-MIN KAVL 060230Z 35012G18KT 10SM -RA FEW029 OVC046 07/04 A2980 2280 82 1900 360/12G18 RMK AO2 P0000 T00720044
03812KAVL AVL20160505213513005/05/16 21:35:31  5-MIN KAVL 060235Z 36014G22KT 10SM -RA FEW029 OVC048 07/04 A2980 2280 82 1900 360/14G22 RMK AO2 P0000 T00720044
03812KAVL AVL20160505214013005/05/16 21:40:31  5-MIN KAVL 060240Z 35013G22KT 10SM -RA FEW029 OVC055 07/04 A2980 2280 82 1900 360/13G22 RMK AO2 P0001 T00720044
03812KAVL AVL20160505214513005/05/16 21:45:31  5-MIN KAVL 060245Z 36013G19KT 10SM -RA FEW029 OVC055 07/04 A2980 2280 82 1900 360/13G19 RMK AO2 P0001 T00720044
03812KAVL AVL20160505215015005/05/16 21:50:31  5-MIN KAVL 060250Z 35013KT 10SM -RA FEW029 BKN055 OVC070 07/04 A2980 2280 82 1900 360/13 RMK AO2 SLP087 P0001 60001 T00720044 53012
03812KAVL AVL20160505215513605/05/16 21:55:31  5-MIN KAVL 060255Z AUTO 36013KT 10SM -RA FEW029 BKN055 OVC070 07/04 A2980 2280 86 1900 360/13 RMK AO2 P0000 T00670044
03812KAVL AVL20160505220014205/05/16 22:00:31  5-MIN KAVL 060300Z AUTO 35010G20KT 10SM -RA FEW031 BKN055 OVC090 07/04 A2980 2280 86 1900 350/10G20 RMK AO2 P0000 T00670044
03812KAVL AVL20160505220514205/05/16 22:05:31  5-MIN KAVL 060305Z AUTO 34013G20KT 10SM -RA SCT060 SCT070 OVC090 07/05 A2980 2280 89 1900 350/13G20 RMK AO2 P0000 T00670050
03812KAVL AVL20160505221014205/05/16 22:10:31  5-MIN KAVL 060310Z AUTO 35012G18KT 10SM -RA FEW055 SCT070 OVC090 07/05 A2980 2280 86 1900 360/12G18 RMK AO2 P0000 T00720050
03812KAVL AVL20160505221514205/05/16 22:15:31  5-MIN KAVL 060315Z AUTO 35011G19KT 10SM -RA FEW050 BKN090 OVC100 07/04 A2980 2280 86 1900 360/11G19 RMK AO2 P0000 T00670044
03812KAVL AVL20160505222014205/05/16 22:20:31  5-MIN KAVL 060320Z AUTO 35011G19KT 10SM -RA FEW031 FEW075 OVC090 07/04 A2980 2280 82 1900 360/11G19 RMK AO2 P0000 T00720044
03812KAVL AVL20160505222513105/05/16 22:25:31  5-MIN KAVL 060325Z AUTO 36011KT 10SM FEW031 OVC090 07/04 A2980 2280 82 1900 360/11 RMK AO2 RAE23 P0000 T00720044
03812KAVL AVL20160505223013105/05/16 22:30:31  5-MIN KAVL 060330Z AUTO 35013KT 10SM FEW032 OVC090 07/04 A2980 2280 86 1900 360/13 RMK AO2 RAE23 P0000 T00670044
03812KAVL AVL20160505223513705/05/16 22:35:31  5-MIN KAVL 060335Z AUTO 35013G20KT 10SM SCT032 BKN095 07/04 A2980 2280 82 1900 360/13G20 RMK AO2 RAE23 P0000 T00720044
03812KAVL AVL20160505224013505/05/16 22:40:31  5-MIN KAVL 060340Z AUTO 34013G20KT 10SM -RA FEW032 OVC100 07/04 A2980 2280 82 1900 350/13G20 RMK AO2 P0000 T00720044
03812KAVL AVL20160505224513505/05/16 22:45:31  5-MIN KAVL 060345Z AUTO 34015G19KT 10SM -RA FEW032 OVC100 07/05 A2980 2280 89 1900 350/15G19 RMK AO2 P0000 T00670050
03812KAVL AVL20160505225014905/05/16 22:50:31  5-MIN KAVL 060350Z AUTO 34016G20KT 10SM -RA FEW030 BKN100 OVC110 07/04 A2979 2280 86 1900 350/16G20 RMK AO2 SLP082 P0000 T00670044
03812KAVL AVL20160505225514205/05/16 22:55:31  5-MIN KAVL 060355Z AUTO 35011G20KT 10SM -RA FEW030 BKN095 OVC110 07/04 A2980 2280 82 1900 360/11G20 RMK AO2 P0000 T00720044
03812KAVL AVL20160505230014205/05/16 23:00:31  5-MIN KAVL 060400Z AUTO 35016G22KT 10SM -RA FEW030 BKN090 OVC110 07/04 A2979 2290 82 1900 350/16G22 RMK AO2 P0000 T00720044
03812KAVL AVL20160505230513505/05/16 23:05:31  5-MIN KAVL 060405Z AUTO 35013G22KT 10SM -RA BKN090 OVC110 07/04 A2979 2280 82 1900 350/13G22 RMK AO2 P0000 T00720044
03812KAVL AVL20160505231012805/05/16 23:10:31  5-MIN KAVL 060410Z AUTO 36011G19KT 10SM -RA OVC090 07/04 A2980 2280 82 1900 360/11G19 RMK AO2 P0000 T00720044
03812KAVL AVL20160505231513505/05/16 23:15:31  5-MIN KAVL 060415Z AUTO 35013G19KT 10SM -RA FEW033 OVC090 07/04 A2980 2280 82 1900 360/13G19 RMK AO2 P0000 T00720044
03812KAVL AVL20160505232012905/05/16 23:20:31  5-MIN KAVL 060420Z AUTO 35010KT 10SM -RA SCT033 OVC090 07/04 A2980 2280 82 1900 350/10 RMK AO2 P0000 T00720044
03812KAVL AVL20160505232514405/05/16 23:25:31  5-MIN KAVL 060425Z AUTO 34013G17KT 10SM -RA SCT031 SCT050 OVC085 07/04 A2980 2280 82 1900 350/13G17 RMK AO2 P0000 T00720044 $
03812KAVL AVL20160505233013805/05/16 23:30:31  5-MIN KAVL 060430Z AUTO 34013KT 10SM -RA BKN031 BKN050 OVC085 07/04 A2980 2280 82 1900 350/13 RMK AO2 P0000 T00720044 $
03812KAVL AVL20160505233513105/05/16 23:35:31  5-MIN KAVL 060435Z AUTO 35013KT 10SM -RA BKN029 OVC080 07/04 A2979 2280 82 1900 360/13 RMK AO2 P0000 T00720044 $
03812KAVL AVL20160505234013705/05/16 23:40:31  5-MIN KAVL 060440Z AUTO 34017G24KT 10SM -RA BKN025 OVC090 07/04 A2979 2290 82 1900 350/17G24 RMK AO2 P0000 T00720044 $
03812KAVL AVL20160505234514405/05/16 23:45:31  5-MIN KAVL 060445Z AUTO 34017G24KT 10SM -RA SCT025 BKN030 OVC120 07/04 A2979 2290 82 1900 350/17G24 RMK AO2 P0000 T00720044 $
03812KAVL AVL20160505235015405/05/16 23:50:31  5-MIN KAVL 060450Z AUTO 35014G22KT 10SM -RA FEW024 OVC029 07/04 A2980 2280 82 1900 360/14G22 RMK AO2 SLP083 P0000 T00720044 401280067 $
03812KAVL AVL20160505235513705/05/16 23:55:31  5-MIN KAVL 060455Z AUTO 36011G19KT 10SM -RA BKN027 OVC033 07/04 A2980 2280 82 1900 360/11G19 RMK AO2 P0000 T00720044 $
03812KAVL AVL20160506000013705/06/16 00:00:31  5-MIN KAVL 060500Z AUTO 35011G17KT 10SM -RA BKN027 OVC033 07/04 A2980 2280 82 1900 360/11G17 RMK AO2 P0000 T00720044 $
03812KAVL AVL20160506000513305/06/16 00:05:31  5-MIN KAVL 060505Z AUTO 35011KT 10SM BKN027 OVC033 07/04 A2980 2280 82 1900 360/11 RMK AO2 RAE01 P0000 T00720044 $
03812KAVL AVL20160506001014405/06/16 00:10:31  5-MIN KAVL 060510Z AUTO 35012G18KT 10SM -RA FEW023 BKN029 OVC034 07/04 A2980 2280 82 1900 360/12G18 RMK AO2 P0000 T00720044 $
03812KAVL AVL20160506001513705/06/16 00:15:31  5-MIN KAVL 060515Z AUTO 36011G18KT 10SM -RA BKN023 OVC032 07/04 A2980 2280 82 1900 010/11G18 RMK AO2 P0000 T00720044 $
03812KAVL AVL20160506002013905/06/16 00:20:31  5-MIN KAVL 060520Z AUTO 36008G17KT 10SM BKN023 OVC032 07/04 A2980 2280 82 1900 010/08G17 RMK AO2 RAE20 P0000 T00720044 $
03812KAVL AVL20160506002513905/06/16 00:25:31  5-MIN KAVL 060525Z AUTO 36010G17KT 10SM BKN023 OVC032 07/04 A2980 2280 82 1900 010/10G17 RMK AO2 RAE20 P0000 T00720044 $
03812KAVL AVL20160506003013305/06/16 00:30:31  5-MIN KAVL 060530Z AUTO 02007KT 10SM BKN021 OVC032 07/04 A2980 2280 82 1900 020/07 RMK AO2 RAE20 P0000 T00720044 $
03812KAVL AVL20160506003513305/06/16 00:35:31  5-MIN KAVL 060535Z AUTO 36006KT 10SM FEW012 OVC021 07/04 A2980 2280 82 1900 010/06 RMK AO2 RAE20 P0000 T00720044 $
03812KAVL AVL20160506004013905/06/16 00:40:31  5-MIN KAVL 060540Z AUTO 35010G16KT 10SM FEW012 OVC021 07/04 A2980 2280 82 1900 360/10G16 RMK AO2 RAE20 P0000 T00720044 $
03812KAVL AVL20160506004513205/06/16 00:45:31  5-MIN KAVL 060545Z AUTO 36009G16KT 10SM OVC021 07/04 A2980 2280 82 1900 360/09G16 RMK AO2 RAE20 P0000 T00720044 $
03812KAVL AVL20160506005016305/06/16 00:50:31  5-MIN KAVL 060550Z AUTO 35012G18KT 10SM OVC020 07/04 A2979 2280 82 1900 360/12G18 RMK AO2 RAE20 SLP082 P0000 60001 T00720044 10094 20067 51018 $
03812KAVL AVL20160506005513005/06/16 00:55:31  5-MIN KAVL 060555Z AUTO 36012G18KT 10SM -RA OVC020 07/04 A2979 2290 82 1900 360/12G18 RMK AO2 P0000 T00720044 $
03812KAVL AVL20160506010013705/06/16 01:00:31  5-MIN KAVL 060600Z AUTO 35015G20KT 10SM -RA BKN022 OVC027 07/04 A2978 2290 82 1900 360/15G20 RMK AO2 P0000 T00720044 $
03812KAVL AVL20160506010513705/06/16 01:05:31  5-MIN KAVL 060605Z AUTO 34018G23KT 10SM -RA BKN022 BKN027 07/04 A2977 2300 82 2000 350/18G23 RMK AO2 P0000 T00720044 $
03812KAVL AVL20160506011013705/06/16 01:10:31  5-MIN KAVL 060610Z AUTO 34019G25KT 10SM -RA SCT022 BKN027 08/04 A2977 2300 79 2000 350/19G25 RMK AO2 P0000 T00780044 $
03812KAVL AVL20160506011513005/06/16 01:15:31  5-MIN KAVL 060615Z AUTO 35013G25KT 10SM -RA SCT024 08/04 A2978 2300 79 2000 360/13G25 RMK AO2 P0000 T00780044 $
03812KAVL AVL20160506012013005/06/16 01:20:31  5-MIN KAVL 060620Z AUTO 35012G23KT 10SM -RA SCT024 08/04 A2978 2300 79 2000 360/12G23 RMK AO2 P0000 T00780044 $
03812KAVL AVL20160506012513005/06/16 01:25:31  5-MIN KAVL 060625Z AUTO 35014G20KT 10SM -RA SCT026 08/04 A2978 2300 79 2000 350/14G20 RMK AO2 P0000 T00780044 $
03812KAVL AVL20160506013013005/06/16 01:30:31  5-MIN KAVL 060630Z AUTO 35012G19KT 10SM -RA SCT026 08/04 A2978 2300 79 2000 350/12G19 RMK AO2 P0000 T00780044 $
03812KAVL AVL20160506013513705/06/16 01:35:31  5-MIN KAVL 060635Z AUTO 35011G19KT 10SM -RA FEW025 SCT030 08/04 A2978 2300 79 2000 360/11G19 RMK AO2 P0000 T00780044 $
03812KAVL AVL20160506014013905/06/16 01:40:31  5-MIN KAVL 060640Z AUTO 36009G20KT 10SM SCT025 BKN030 08/04 A2978 2290 79 2000 010/09G20 RMK AO2 RAE40 P0000 T00780044 $
03812KAVL AVL20160506014513205/06/16 01:45:31  5-MIN KAVL 060645Z AUTO 02006G20KT 10SM BKN027 08/04 A2978 2290 79 2000 020/06G20 RMK AO2 RAE40 P0000 T00780044 $
03812KAVL AVL20160506015014605/06/16 01:50:31  5-MIN KAVL 060650Z AUTO 35009G16KT 10SM BKN025 OVC030 08/04 A2978 2290 76 2100 360/09G16 RMK AO2 RAE40 SLP077 P0000 T00830044 $
03812KAVL AVL20160506015512705/06/16 01:55:31  5-MIN KAVL 060655Z AUTO 36011G16KT 10SM BKN025 OVC030 08/04 A2978 2290 76 2100 360/11G16 RMK AO2 T00830044 $
03812KAVL AVL20160506020012105/06/16 02:00:31  5-MIN KAVL 060700Z AUTO 36009KT 10SM BKN024 OVC030 08/04 A2978 2300 76 2100 010/09 RMK AO2 T00830044 $
03812KAVL AVL20160506020511405/06/16 02:05:31  5-MIN KAVL 060705Z AUTO 01007KT 10SM OVC024 08/04 A2978 2300 76 2100 020/07 RMK AO2 T00830044 $
03812KAVL AVL20160506021011405/06/16 02:10:31  5-MIN KAVL 060710Z AUTO 01009KT 10SM OVC024 08/04 A2979 2290 76 2100 010/09 RMK AO2 T00830044 $
03812KAVL AVL20160506021511405/06/16 02:15:31  5-MIN KAVL 060715Z AUTO 01009KT 10SM OVC024 08/04 A2979 2290 76 2100 020/09 RMK AO2 T00830044 $
03812KAVL AVL20160506022013005/06/16 02:20:31  5-MIN KAVL 060720Z AUTO 02007KT 330V060 10SM OVC024 08/04 A2979 2290 76 2100 020/07 340V070 RMK AO2 T00830044 $
03812KAVL AVL20160506022511405/06/16 02:25:31  5-MIN KAVL 060725Z AUTO 36009KT 10SM OVC025 08/04 A2979 2290 76 2100 010/09 RMK AO2 T00830044 $
03812KAVL AVL20160506023012005/06/16 02:30:31  5-MIN KAVL 060730Z AUTO 01007G15KT 10SM OVC025 08/04 A2979 2290 76 2100 010/07G15 RMK AO2 T00830044 $
03812KAVL AVL20160506023512005/06/16 02:35:31  5-MIN KAVL 060735Z AUTO 01008G15KT 10SM OVC025 08/04 A2979 2290 76 2100 020/08G15 RMK AO2 T00830044 $
03812KAVL AVL20160506024011405/06/16 02:40:31  5-MIN KAVL 060740Z AUTO 36008KT 10SM OVC025 08/04 A2980 2280 76 2100 010/08 RMK AO2 T00830044 $
03812KAVL AVL20160506024511405/06/16 02:45:31  5-MIN KAVL 060745Z AUTO 36006KT 10SM OVC025 08/04 A2980 2280 76 2100 360/06 RMK AO2 T00830044 $
03812KAVL AVL20160506025012105/06/16 02:50:31  5-MIN KAVL 060750Z AUTO 02006KT 10SM OVC024 08/04 A2980 2280 76 2100 020/06 RMK AO2 SLP081 T00830044 $
03812KAVL AVL20160506025511405/06/16 02:55:31  5-MIN KAVL 060755Z AUTO VRB06KT 10SM OVC024 08/04 A2980 2280 76 2100 VRB/06 RMK AO2 T00830044 $
03812KAVL AVL20160506030013005/06/16 03:00:31  5-MIN KAVL 060800Z AUTO 02007KT 350V060 10SM OVC023 08/04 A2979 2280 76 2100 020/07 360V070 RMK AO2 T00830044 $
03812KAVL AVL20160506030511405/06/16 03:05:31  5-MIN KAVL 060805Z AUTO 02006KT 10SM OVC025 08/04 A2979 2290 76 2100 030/06 RMK AO2 T00830044 $
03812KAVL AVL20160506031012805/06/16 03:10:31  5-MIN KAVL 060810Z AUTO 36008KT 10SM BKN025 BKN030 OVC034 09/04 A2979 2290 73 2100 010/08 RMK AO2 T00890044 $
03812KAVL AVL20160506031512805/06/16 03:15:31  5-MIN KAVL 060815Z AUTO 36005KT 10SM BKN025 BKN030 OVC034 09/04 A2979 2290 73 2100 010/05 RMK AO2 T00890044 $
03812KAVL AVL20160506032012105/06/16 03:20:31  5-MIN KAVL 060820Z AUTO VRB06KT 10SM BKN027 OVC033 09/04 A2980 2280 73 2100 VRB/06 RMK AO2 T00890044 $
03812KAVL AVL20160506032512105/06/16 03:25:31  5-MIN KAVL 060825Z AUTO 36009KT 10SM SCT027 OVC033 09/04 A2980 2280 73 2100 010/09 RMK AO2 T00890044 $
03812KAVL AVL20160506033012105/06/16 03:30:31  5-MIN KAVL 060830Z AUTO 36008KT 10SM FEW027 OVC034 09/04 A2980 2280 73 2100 360/08 RMK AO2 T00890044 $
03812KAVL AVL20160506033511405/06/16 03:35:31  5-MIN KAVL 060835Z AUTO 35007KT 10SM OVC032 09/04 A2980 2280 73 2100 360/07 RMK AO2 T00890044 $
03812KAVL AVL20160506034012005/06/16 03:40:31  5-MIN KAVL 060840Z AUTO 34011G18KT 10SM OVC032 09/04 A2980 2280 71 2100 350/11G18 RMK AO2 T00890039 $
03812KAVL AVL20160506034512705/06/16 03:45:31  5-MIN KAVL 060845Z AUTO 34013G18KT 10SM BKN029 OVC034 09/04 A2980 2280 68 2200 340/13G18 RMK AO2 T00940039 $
03812KAVL AVL20160506035013905/06/16 03:50:31  5-MIN KAVL 060850Z AUTO 34012G17KT 10SM OVC031 09/04 A2980 2280 68 2200 340/12G17 RMK AO2 SLP084 60000 T00940039 56004 $
03812KAVL AVL20160506035511405/06/16 03:55:31  5-MIN KAVL 060855Z AUTO 34011KT 10SM OVC029 09/04 A2980 2280 68 2200 350/11 RMK AO2 T00940039 $
03812KAVL AVL20160506040012005/06/16 04:00:31  5-MIN KAVL 060900Z AUTO 34012G18KT 10SM OVC029 09/04 A2981 2270 68 2200 350/12G18 RMK AO2 T00940039 $
03812KAVL AVL20160506040512005/06/16 04:05:31  5-MIN KAVL 060905Z AUTO 36008G18KT 10SM OVC027 09/04 A2981 2270 68 2200 360/08G18 RMK AO2 T00940039 $
03812KAVL AVL20160506041013005/06/16 04:10:31  5-MIN KAVL 060910Z AUTO 36008KT 310V020 10SM OVC027 09/04 A2981 2270 68 2200 360/08 320V030 RMK AO2 T00940039 $
03812KAVL AVL20160506041512005/06/16 04:15:31  5-MIN KAVL 060915Z AUTO 01008G16KT 10SM OVC027 09/04 A2981 2270 68 2200 010/08G16 RMK AO2 T00940039 $
03812KAVL AVL20160506042012005/06/16 04:20:31  5-MIN KAVL 060920Z AUTO 36010G16KT 10SM OVC028 09/04 A2981 2270 68 2200 360/10G16 RMK AO2 T00940039 $
03812KAVL AVL20160506042511405/06/16 04:25:31  5-MIN KAVL 060925Z AUTO 33011KT 10SM OVC030 09/03 A2981 2270 65 2200 340/11 RMK AO2 T00940033 $
03812KAVL AVL20160506043011405/06/16 04:30:31  5-MIN KAVL 060930Z AUTO 35010KT 10SM OVC030 09/03 A2981 2270 65 2200 360/10 RMK AO2 T00940033 $
03812KAVL AVL20160506043511405/06/16 04:35:31  5-MIN KAVL 060935Z AUTO 35009KT 10SM OVC030 09/03 A2981 2270 65 2200 360/09 RMK AO2 T00940033 $
03812KAVL AVL20160506044012705/06/16 04:40:31  5-MIN KAVL 060940Z AUTO 36013G18KT 10SM BKN030 OVC041 09/03 A2981 2270 65 2200 360/13G18 RMK AO2 T00940033 $
03812KAVL AVL20160506044512805/06/16 04:45:31  5-MIN KAVL 060945Z AUTO 35011KT 10SM BKN030 BKN041 BKN048 09/03 A2981 2270 65 2200 350/11 RMK AO2 T00940033 $
03812KAVL AVL20160506045014105/06/16 04:50:31  5-MIN KAVL 060950Z AUTO 34016G19KT 10SM SCT032 BKN043 BKN050 09/03 A2981 2270 65 2200 340/16G19 RMK AO2 SLP087 T00940033 $
03812KAVL AVL20160506045514405/06/16 04:55:31  5-MIN KAVL 060955Z AUTO 34016G19KT 10SM -RA FEW032 SCT043 BKN050 09/03 A2981 2270 63 2200 340/16G19 RMK AO2 P0000 T00940028 $
03812KAVL AVL20160506050014405/06/16 05:00:31  5-MIN KAVL 061000Z AUTO 34015G20KT 10SM -RA FEW032 FEW043 SCT050 09/03 A2981 2270 63 2200 340/15G20 RMK AO2 P0000 T00940028 $
03812KAVL AVL20160506050513105/06/16 05:05:31  5-MIN KAVL 061005Z AUTO 34016KT 10SM -RA FEW040 SCT050 09/03 A2982 2270 63 2200 350/16 RMK AO2 P0000 T00940028 $
03812KAVL AVL20160506051013005/06/16 05:10:31  5-MIN KAVL 061010Z AUTO 35011G21KT 10SM -RA SCT050 09/03 A2982 2260 63 2200 350/11G21 RMK AO2 P0000 T00940028 $
03812KAVL AVL20160506051513005/06/16 05:15:31  5-MIN KAVL 061015Z AUTO 35011G19KT 10SM -RA SCT050 09/03 A2982 2260 63 2200 350/11G19 RMK AO2 P0000 T00940028 $
03812KAVL AVL20160506052012105/06/16 05:20:31  5-MIN KAVL 061020Z 35011KT 10SM BKN050 09/03 A2982 2260 65 2200 350/11 RMK AO2 RAE19 P0000 T00940033 $
03812KAVL AVL20160506052513405/06/16 05:25:31  5-MIN KAVL 061025Z 35009G17KT 10SM FEW041 BKN050 09/03 A2982 2260 63 2200 350/09G17 RMK AO2 RAE19 P0000 T00940028 $
03812KAVL AVL20160506053012705/06/16 05:30:31  5-MIN KAVL 061030Z 35009G19KT 10SM BKN048 09/03 A2983 2250 65 2200 360/09G19 RMK AO2 RAE30 P0000 T00940033 $
03812KAVL AVL20160506053512705/06/16 05:35:31  5-MIN KAVL 061035Z 36011G19KT 10SM OVC046 09/03 A2983 2250 65 2200 360/11G19 RMK AO2 RAE30 P0000 T00940033 $
03812KAVL AVL20160506054012805/06/16 05:40:31  5-MIN KAVL 061040Z 35009KT 10SM BKN041 OVC049 09/03 A2983 2250 65 2200 360/09 RMK AO2 RAE30 P0000 T00940033 $
03812KAVL AVL20160506054512805/06/16 05:45:31  5-MIN KAVL 061045Z 35010KT 10SM BKN041 OVC049 09/03 A2983 2250 65 2200 360/10 RMK AO2 RAE30 P0000 T00940033 $
03812KAVL AVL20160506055013505/06/16 05:50:31  5-MIN KAVL 061050Z 36010KT 10SM BKN041 OVC049 09/03 A2983 2250 65 2200 360/10 RMK AO2 RAE30 SLP094 P0000 T00940033 $
03812KAVL AVL20160506055510905/06/16 05:55:31  5-MIN KAVL 061055Z 33013KT 10SM OVC043 09/03 A2983 2250 65 2200 340/13 RMK AO2 T00940033 $
03812KAVL AVL20160506060010905/06/16 06:00:31  5-MIN KAVL 061100Z 35012KT 10SM OVC043 09/04 A2983 2250 68 2200 350/12 RMK AO2 T00940039 $
03812KAVL AVL20160506060512505/06/16 06:05:31  5-MIN KAVL 061105Z 34013KT 10SM -RA OVC043 09/03 A2983 2250 65 2200 340/13 RMK AO2 RAB03 P0000 T00940033 $
03812KAVL AVL20160506061012505/06/16 06:10:31  5-MIN KAVL 061110Z 34014KT 10SM -RA OVC043 10/04 A2983 2250 65 2200 340/14 RMK AO2 RAB03 P0000 T01000039 $
03812KAVL AVL20160506061512505/06/16 06:15:31  5-MIN KAVL 061115Z 34016KT 10SM -RA SCT043 10/03 A2983 2250 63 2200 340/16 RMK AO2 RAB03 P0000 T01000033 $
03812KAVL AVL20160506062012505/06/16 06:20:31  5-MIN KAVL 061120Z 33017KT 10SM -RA SCT043 10/03 A2984 2250 63 2200 340/17 RMK AO2 RAB03 P0000 T01000033 $
03812KAVL AVL20160506062512505/06/16 06:25:31  5-MIN KAVL 061125Z 34016KT 10SM -RA SCT043 10/03 A2984 2240 63 2200 340/16 RMK AO2 RAB03 P0000 T01000033 $
03812KAVL AVL20160506063013105/06/16 06:30:31  5-MIN KAVL 061130Z 34015G22KT 10SM -RA SCT043 10/03 A2984 2240 63 2200 350/15G22 RMK AO2 RAB03 P0000 T01000033 $
03812KAVL AVL20160506063513105/06/16 06:35:31  5-MIN KAVL 061135Z 33016G20KT 10SM -RA SCT043 10/03 A2984 2240 63 2200 340/16G20 RMK AO2 RAB03 P0000 T01000033 $
03812KAVL AVL20160506064014905/06/16 06:40:31  5-MIN KAVL 061140Z 34018G26KT 10SM -RA SCT043 10/03 A2984 2240 63 2200 340/18G26 RMK AO2 PK WND 34026/1139 RAB03 P0000 T01000033 $
03812KAVL AVL20160506064514905/06/16 06:45:31  5-MIN KAVL 061145Z 34016G26KT 10SM -RA SCT043 10/03 A2984 2250 63 2200 340/16G26 RMK AO2 PK WND 34026/1139 RAB03 P0000 T01000033 $
03812KAVL AVL20160506065018605/06/16 06:50:31  5-MIN KAVL 061150Z 34015G27KT 10SM -RA SCT043 10/03 A2984 2240 63 2200 340/15G27 RMK AO2 PK WND 34027/1146 RAB03 SLP096 P0000 60000 70001 T01000033 10100 20072 53006 $
03812KAVL AVL20160506065512205/06/16 06:55:31  5-MIN KAVL 061155Z 34015G27KT 10SM -RA CLR 10/03 A2984 2240 63 2200 340/15G27 RMK AO2 P0000 T01000033 $
03812KAVL AVL20160506070012205/06/16 07:00:31  5-MIN KAVL 061200Z 35015G21KT 10SM -RA CLR 10/03 A2984 2240 63 2200 350/15G21 RMK AO2 P0000 T01000033 $
03812KAVL AVL20160506070512205/06/16 07:05:31  5-MIN KAVL 061205Z 33016G24KT 10SM -RA CLR 11/03 A2985 2240 61 2300 340/16G24 RMK AO2 P0000 T01060033 $
03812KAVL AVL20160506071012205/06/16 07:10:31  5-MIN KAVL 061210Z 34018G24KT 10SM -RA CLR 11/03 A2985 2230 58 2300 340/18G24 RMK AO2 P0000 T01110033 $
03812KAVL AVL20160506071512205/06/16 07:15:31  5-MIN KAVL 061215Z 35011G22KT 10SM -RA CLR 11/03 A2985 2230 58 2300 350/11G22 RMK AO2 P0000 T01110033 $
03812KAVL AVL20160506072012005/06/16 07:20:31  5-MIN KAVL 061220Z 36014G21KT 10SM -RA CLR 11/03 A2985 2230 58 2300 360/14G21 RMK AO2 P0000 T01110033
03812KAVL AVL20160506072512005/06/16 07:25:31  5-MIN KAVL 061225Z 34018G23KT 10SM -RA CLR 12/03 A2985 2230 56 2400 350/18G23 RMK AO2 P0000 T01170033
03812KAVL AVL20160506073012005/06/16 07:30:31  5-MIN KAVL 061230Z 33016G23KT 10SM -RA CLR 12/03 A2985 2230 56 2400 340/16G23 RMK AO2 P0000 T01170033
03812KAVL AVL20160506073512005/06/16 07:35:31  5-MIN KAVL 061235Z 34014G22KT 10SM -RA CLR 12/03 A2986 2230 56 2400 340/14G22 RMK AO2 P0000 T01170033
03812KAVL AVL20160506074012005/06/16 07:40:31  5-MIN KAVL 061240Z 33017G23KT 10SM -RA CLR 12/03 A2986 2230 54 2500 340/17G23 RMK AO2 P0000 T01220033
03812KAVL AVL20160506074512005/06/16 07:45:31  5-MIN KAVL 061245Z 33017G23KT 10SM -RA CLR 12/03 A2986 2230 54 2500 330/17G23 RMK AO2 P0000 T01220033
03812KAVL AVL20160506075012705/06/16 07:50:31  5-MIN KAVL 061250Z 34017G22KT 10SM -RA CLR 12/03 A2986 2220 54 2500 350/17G22 RMK AO2 SLP103 P0000 T01220033
03812KAVL AVL20160506075511405/06/16 07:55:31  5-MIN KAVL 061255Z 34017KT 10SM -RA CLR 12/03 A2986 2220 54 2500 350/17 RMK AO2 P0000 T01220033
03812KAVL AVL20160506080011405/06/16 08:00:31  5-MIN KAVL 061300Z 35016KT 10SM -RA CLR 12/03 A2986 2220 56 2400 360/16 RMK AO2 P0000 T01170033
03812KAVL AVL20160506080512005/06/16 08:05:31  5-MIN KAVL 061305Z 34018G24KT 10SM -RA CLR 12/03 A2986 2220 56 2400 340/18G24 RMK AO2 P0000 T01170033
03812KAVL AVL20160506081012005/06/16 08:10:31  5-MIN KAVL 061310Z 35017G24KT 10SM -RA CLR 12/03 A2986 2220 56 2400 350/17G24 RMK AO2 P0000 T01170033
03812KAVL AVL20160506081512005/06/16 08:15:31  5-MIN KAVL 061315Z 34017G24KT 10SM -RA CLR 12/03 A2986 2220 56 2400 350/17G24 RMK AO2 P0000 T01170033
03812KAVL AVL20160506082012005/06/16 08:20:31  5-MIN KAVL 061320Z 34018G23KT 10SM -RA CLR 12/03 A2986 2220 56 2400 350/18G23 RMK AO2 P0000 T01170033
03812KAVL AVL20160506082512005/06/16 08:25:31  5-MIN KAVL 061325Z 34018G23KT 10SM -RA CLR 12/03 A2987 2220 56 2400 350/18G23 RMK AO2 P0000 T01170033
03812KAVL AVL20160506083013805/06/16 08:30:31  5-MIN KAVL 061330Z 33022G31KT 10SM -RA CLR 12/03 A2987 2220 54 2400 340/22G31 RMK AO2 PK WND 31031/1329 P0000 T01220033
03812KAVL AVL20160506083513805/06/16 08:35:31  5-MIN KAVL 061335Z 34023G31KT 10SM -RA CLR 12/03 A2987 2220 54 2400 340/23G31 RMK AO2 PK WND 31031/1329 P0000 T01220033
03812KAVL AVL20160506084014105/06/16 08:40:31  5-MIN KAVL 061340Z 34021G29KT 10SM -RA FEW034 12/03 A2987 2220 54 2400 350/21G29 RMK AO2 PK WND 31031/1329 P0000 T01220033
03812KAVL AVL20160506084514105/06/16 08:45:31  5-MIN KAVL 061345Z 33021G30KT 10SM -RA FEW034 12/03 A2987 2220 54 2400 340/21G30 RMK AO2 PK WND 31031/1329 P0000 T01220033
03812KAVL AVL20160506085014805/06/16 08:50:31  5-MIN KAVL 061350Z 33021G30KT 10SM -RA FEW034 12/03 A2987 2220 54 2400 340/21G30 RMK AO2 PK WND 31031/1329 SLP106 P0000 T01220033
03812KAVL AVL20160506085512305/06/16 08:55:31  5-MIN KAVL 061355Z 34023G28KT 10SM -RA FEW035 12/03 A2987 2220 54 2400 340/23G28 RMK AO2 P0000 T01220033
03812KAVL AVL20160506090012305/06/16 09:00:31  5-MIN KAVL 061400Z 34021G28KT 10SM -RA FEW035 12/03 A2987 2220 54 2400 350/21G28 RMK AO2 P0000 T01220033
03812KAVL AVL20160506090514105/06/16 09:05:31  5-MIN KAVL 061405Z 34021G27KT 10SM -RA FEW035 12/03 A2987 2220 54 2400 350/21G27 RMK AO2 PK WND 34027/1402 P0000 T01220033
03812KAVL AVL20160506091014105/06/16 09:10:31  5-MIN KAVL 061410Z 33018G27KT 10SM -RA FEW035 13/03 A2987 2210 52 2500 340/18G27 RMK AO2 PK WND 34027/1402 P0000 T01280033
03812KAVL AVL20160506091513805/06/16 09:15:31  5-MIN KAVL 061415Z 34015G24KT 10SM -RA CLR 13/04 A2987 2210 52 2600 350/15G24 RMK AO2 PK WND 34027/1402 P0000 T01330039
03812KAVL AVL20160506092013805/06/16 09:20:31  5-MIN KAVL 061420Z 34020G29KT 10SM -RA CLR 13/03 A2987 2210 52 2500 340/20G29 RMK AO2 PK WND 34029/1418 P0000 T01280033
03812KAVL AVL20160506092513805/06/16 09:25:31  5-MIN KAVL 061425Z 34022G30KT 10SM -RA CLR 13/03 A2988 2210 50 2500 340/22G30 RMK AO2 PK WND 33030/1421 P0000 T01280028
03812KAVL AVL20160506093014105/06/16 09:30:31  5-MIN KAVL 061430Z 34019G30KT 10SM -RA FEW036 12/03 A2988 2210 52 2400 350/19G30 RMK AO2 PK WND 33030/1421 P0000 T01220028
03812KAVL AVL20160506093514105/06/16 09:35:31  5-MIN KAVL 061435Z 34017G25KT 10SM -RA FEW036 13/03 A2988 2200 50 2600 350/17G25 RMK AO2 PK WND 33030/1421 P0000 T01330033
03812KAVL AVL20160506094014105/06/16 09:40:31  5-MIN KAVL 061440Z 34019G24KT 10SM -RA FEW036 14/03 A2988 2200 48 2600 340/19G24 RMK AO2 PK WND 33030/1421 P0000 T01390033
03812KAVL AVL20160506094514105/06/16 09:45:31  5-MIN KAVL 061445Z 36016G24KT 10SM -RA FEW036 14/03 A2988 2200 48 2600 360/16G24 RMK AO2 PK WND 33030/1421 P0000 T01390033
03812KAVL AVL20160506095016005/06/16 09:50:31  5-MIN KAVL 061450Z 35014G23KT 10SM -RA FEW036 13/03 A2988 2200 50 2600 350/14G23 RMK AO2 PK WND 33030/1421 SLP111 P0000 60000 T01330033 51012
03812KAVL AVL20160506095512305/06/16 09:55:31  5-MIN KAVL 061455Z 36013G23KT 10SM -RA FEW036 13/03 A2988 2200 48 2600 360/13G23 RMK AO2 P0000 T01330028
03812KAVL AVL20160506100012305/06/16 10:00:31  5-MIN KAVL 061500Z 36017G23KT 10SM -RA FEW036 13/03 A2989 2200 50 2500 360/17G23 RMK AO2 P0000 T01280028
03812KAVL AVL20160506100512005/06/16 10:05:31  5-MIN KAVL 061505Z 34021G25KT 10SM -RA CLR 13/03 A2989 2200 48 2600 340/21G25 RMK AO2 P0000 T01330028
03812KAVL AVL20160506101014105/06/16 10:10:31  5-MIN KAVL 061510Z 34018G26KT 10SM -RA FEW039 13/03 A2989 2190 50 2500 350/18G26 RMK AO2 PK WND 36026/1510 P0000 T01280028
03812KAVL AVL20160506101514105/06/16 10:15:31  5-MIN KAVL 061515Z 34022G27KT 10SM -RA FEW039 13/03 A2990 2190 48 2500 340/22G27 RMK AO2 PK WND 34027/1511 P0000 T01330028
03812KAVL AVL20160506102014105/06/16 10:20:31  5-MIN KAVL 061520Z 35019G30KT 10SM -RA FEW039 13/03 A2990 2190 50 2500 360/19G30 RMK AO2 PK WND 34030/1516 P0000 T01280028
03812KAVL AVL20160506102514105/06/16 10:25:31  5-MIN KAVL 061525Z 35019G30KT 10SM -RA FEW037 13/03 A2990 2190 50 2500 350/19G30 RMK AO2 PK WND 34030/1516 P0000 T01280028
03812KAVL AVL20160506103014105/06/16 10:30:31  5-MIN KAVL 061530Z 33022G29KT 10SM -RA FEW037 13/03 A2990 2190 50 2500 340/22G29 RMK AO2 PK WND 34030/1516 P0000 T01330033
03812KAVL AVL20160506103514105/06/16 10:35:31  5-MIN KAVL 061535Z 33020G26KT 10SM -RA SCT037 13/03 A2990 2180 50 2500 340/20G26 RMK AO2 PK WND 34030/1516 P0000 T01330033
03812KAVL AVL20160506104014105/06/16 10:40:31  5-MIN KAVL 061540Z 32018G23KT 10SM -RA BKN037 14/04 A2991 2180 50 2600 330/18G23 RMK AO2 PK WND 34030/1516 P0000 T01390039
03812KAVL AVL20160506104514105/06/16 10:45:31  5-MIN KAVL 061545Z 36014G23KT 10SM -RA BKN037 14/04 A2991 2180 49 2700 010/14G23 RMK AO2 PK WND 34030/1516 P0000 T01440039
03812KAVL AVL20160506105014805/06/16 10:50:31  5-MIN KAVL 061550Z 36020G25KT 10SM -RA BKN037 14/03 A2991 2180 47 2600 010/20G25 RMK AO2 PK WND 34030/1516 SLP120 P0000 T01390028
03812KAVL AVL20160506105514105/06/16 10:55:31  5-MIN KAVL 061555Z 34023G30KT 10SM -RA BKN037 14/03 A2991 2180 48 2600 350/23G30 RMK AO2 PK WND 34030/1555 P0000 T01390033
03812KAVL AVL20160506110014105/06/16 11:00:31  5-MIN KAVL 061600Z 35020G30KT 10SM -RA BKN038 14/04 A2990 2180 49 2700 360/20G30 RMK AO2 PK WND 34030/1555 P0000 T01440039
03812KAVL AVL20160506110514105/06/16 11:05:31  5-MIN KAVL 061605Z 35017G29KT 10SM -RA SCT038 14/03 A2990 2180 48 2600 360/17G29 RMK AO2 PK WND 34030/1555 P0000 T01390033
03812KAVL AVL20160506111014105/06/16 11:10:31  5-MIN KAVL 061610Z 33021G30KT 10SM -RA SCT038 14/03 A2990 2180 47 2700 330/21G30 RMK AO2 PK WND 34030/1555 P0000 T01440033
03812KAVL AVL20160506111514105/06/16 11:15:31  5-MIN KAVL 061615Z 34021G30KT 10SM -RA BKN040 15/04 A2990 2180 47 2700 340/21G30 RMK AO2 PK WND 34030/1555 P0000 T01500039
03812KAVL AVL20160506112014105/06/16 11:20:31  5-MIN KAVL 061620Z 33021G30KT 10SM -RA BKN040 14/03 A2990 2180 47 2700 340/21G30 RMK AO2 PK WND 34030/1555 P0000 T01440033
03812KAVL AVL20160506112515705/06/16 11:25:31  5-MIN KAVL 061625Z 34017G27KT 320V020 10SM -RA SCT040 14/04 A2991 2180 49 2700 350/17G27 330V030 RMK AO2 PK WND 34030/1555 P0000 T01440039
03812KAVL AVL20160506113014105/06/16 11:30:31  5-MIN KAVL 061630Z 33018G28KT 10SM -RA BKN040 14/03 A2991 2180 47 2700 340/18G28 RMK AO2 PK WND 34030/1555 P0000 T01440033
03812KAVL AVL20160506113514105/06/16 11:35:31  5-MIN KAVL 061635Z 36017G28KT 10SM -RA BKN040 14/03 A2991 2180 48 2600 360/17G28 RMK AO2 PK WND 34030/1555 P0000 T01390033
03812KAVL AVL20160506114014105/06/16 11:40:31  5-MIN KAVL 061640Z 34020G27KT 10SM -RA BKN040 14/03 A2991 2180 48 2600 350/20G27 RMK AO2 PK WND 34030/1555 P0000 T01390033
03812KAVL AVL20160506114514105/06/16 11:45:31  5-MIN KAVL 061645Z 35019G27KT 10SM -RA BKN040 14/04 A2991 2180 49 2700 350/19G27 RMK AO2 PK WND 34030/1555 P0000 T01440039
03812KAVL AVL20160506115014805/06/16 11:50:31  5-MIN KAVL 061650Z 33018G29KT 10SM -RA SCT040 15/04 A2991 2180 47 2700 340/18G29 RMK AO2 PK WND 34030/1555 SLP119 P0000 T01500039
03812KAVL AVL20160506115514105/06/16 11:55:31  5-MIN KAVL 061655Z 32022G29KT 10SM -RA BKN040 15/04 A2990 2180 47 2700 330/22G29 RMK AO2 PK WND 33026/1655 P0000 T01500039
03812KAVL AVL20160506120014105/06/16 12:00:31  5-MIN KAVL 061700Z 34017G28KT 10SM -RA BKN040 15/04 A2991 2180 47 2700 340/17G28 RMK AO2 PK WND 31028/1658 P0000 T01500039
03812KAVL AVL20160506120514305/06/16 12:05:31  5-MIN KAVL 061705Z 33019G28KT 10SM -RA SCT040 15/03 A2990 2180 45 2700 330/19G28 RMK AO2 PK WND 31028/1658 P0000 T01500033 $
03812KAVL AVL20160506121014405/06/16 12:10:31  5-MIN KAVL 061710Z 34015G26KT 9SM SCT040 15/04 A2991 2180 47 2700 340/15G26 RMK AO2 PK WND 31028/1658 RAEMM P0000 T01500039 $
03812KAVL AVL20160506121514405/06/16 12:15:31  5-MIN KAVL 061715Z 36016G28KT 9SM SCT040 15/03 A2990 2180 45 2700 360/16G28 RMK AO2 PK WND 33028/1712 RAEMM P0000 T01500033 $
03812KAVL AVL20160506122014505/06/16 12:20:31  5-MIN KAVL 061720Z 36019G28KT 10SM SCT042 16/03 A2990 2180 43 2800 010/19G28 RMK AO2 PK WND 33028/1712 RAEMM P0000 T01560033 $
03812KAVL AVL20160506122514305/06/16 12:25:31  5-MIN KAVL 061725Z 36019G26KT 10SM SCT042 16/03 A2991 2180 43 2800 360/19G26 RMK AO2 PK WND 33028/1712 RAEMM P0000 T01560033
03812KAVL AVL20160506123014305/06/16 12:30:31  5-MIN KAVL 061730Z 35016G25KT 10SM FEW042 16/03 A2991 2180 43 2800 350/16G25 RMK AO2 PK WND 33028/1712 RAEMM P0000 T01560033
03812KAVL AVL20160506123514305/06/16 12:35:31  5-MIN KAVL 061735Z 32018G25KT 10SM FEW042 16/04 A2990 2180 44 2900 330/18G25 RMK AO2 PK WND 33028/1712 RAEMM P0000 T01610039
03812KAVL AVL20160506124014305/06/16 12:40:31  5-MIN KAVL 061740Z 36018G31KT 10SM FEW042 16/03 A2990 2180 42 2900 360/18G31 RMK AO2 PK WND 34031/1738 RAEMM P0000 T01610033
03812KAVL AVL20160506124514305/06/16 12:45:31  5-MIN KAVL 061745Z 35017G31KT 10SM FEW042 16/03 A2990 2190 43 2800 360/17G31 RMK AO2 PK WND 34031/1738 RAEMM P0000 T01560033
03812KAVL AVL20160506125017405/06/16 12:50:31  5-MIN KAVL 061750Z 35015G25KT 10SM FEW042 16/04 A2990 2190 45 2800 360/15G25 RMK AO2 PK WND 34031/1738 RAEMM SLP114 P0000 60000 T01560039 10161 20100 51015
03812KAVL AVL20160506125511305/06/16 12:55:31  5-MIN KAVL 061755Z 35020G28KT 10SM FEW042 16/03 A2990 2190 43 2800 360/20G28 RMK AO2 T01560033
03812KAVL AVL20160506130013105/06/16 13:00:31  5-MIN KAVL 061800Z 34022G29KT 10SM FEW041 16/03 A2990 2190 42 2900 350/22G29 RMK AO2 PK WND 34029/1756 T01610033
03812KAVL AVL20160506130513105/06/16 13:05:31  5-MIN KAVL 061805Z 33019G29KT 10SM FEW041 16/04 A2990 2190 44 2900 340/19G29 RMK AO2 PK WND 34029/1756 T01610039
03812KAVL AVL20160506131013105/06/16 13:10:31  5-MIN KAVL 061810Z 35016G29KT 10SM FEW041 17/04 A2989 2190 42 2900 360/16G29 RMK AO2 PK WND 34029/1756 T01670039
03812KAVL AVL20160506131513805/06/16 13:15:31  5-MIN KAVL 061815Z 33022G31KT 10SM FEW044 FEW060 17/03 A2989 2190 40 2900 340/22G31 RMK AO2 PK WND 33031/1813 T01670033
03812KAVL AVL20160506132013805/06/16 13:20:31  5-MIN KAVL 061820Z 35016G31KT 10SM FEW046 FEW060 17/03 A2990 2190 40 2900 360/16G31 RMK AO2 PK WND 33031/1813 T01670033
03812KAVL AVL20160506132513805/06/16 13:25:31  5-MIN KAVL 061825Z 33020G28KT 10SM FEW046 SCT060 17/04 A2990 2190 42 2900 340/20G28 RMK AO2 PK WND 33031/1813 T01670039
03812KAVL AVL20160506133013805/06/16 13:30:31  5-MIN KAVL 061830Z 36020G25KT 10SM FEW046 SCT060 16/03 A2990 2190 42 2900 360/20G25 RMK AO2 PK WND 33031/1813 T01610033
03812KAVL AVL20160506133513805/06/16 13:35:31  5-MIN KAVL 061835Z 34020G27KT 10SM FEW046 SCT055 16/03 A2990 2190 42 2900 350/20G27 RMK AO2 PK WND 33031/1813 T01610033
03812KAVL AVL20160506134014505/06/16 13:40:31  5-MIN KAVL 061840Z 33020G27KT 10SM FEW035 FEW044 SCT055 17/04 A2990 2190 44 2900 340/20G27 RMK AO2 PK WND 33031/1813 T01670044
03812KAVL AVL20160506134514505/06/16 13:45:31  5-MIN KAVL 061845Z 34018G27KT 10SM FEW035 FEW044 SCT060 16/04 A2990 2190 44 2900 340/18G27 RMK AO2 PK WND 33031/1813 T01610039
03812KAVL AVL20160506135014505/06/16 13:50:31  5-MIN KAVL 061850Z 33017G25KT 10SM FEW044 FEW060 16/04 A2990 2180 45 2900 330/17G25 RMK AO2 PK WND 33031/1813 SLP115 T01610044
03812KAVL AVL20160506135511305/06/16 13:55:31  5-MIN KAVL 061855Z 34015G21KT 10SM FEW060 16/04 A2990 2180 45 2900 350/15G21 RMK AO2 T01610044
03812KAVL AVL20160506140011305/06/16 14:00:31  5-MIN KAVL 061900Z 35016G22KT 10SM FEW043 16/04 A2990 2190 45 2800 350/16G22 RMK AO2 T01560039
03812KAVL AVL20160506140511305/06/16 14:05:31  5-MIN KAVL 061905Z 34016G22KT 10SM SCT042 16/04 A2990 2190 45 2900 340/16G22 RMK AO2 T01610044
03812KAVL AVL20160506141013105/06/16 14:10:31  5-MIN KAVL 061910Z 34024G28KT 10SM SCT042 17/04 A2990 2190 44 2900 340/24G28 RMK AO2 PK WND 34028/1910 T01670044
03812KAVL AVL20160506141513105/06/16 14:15:31  5-MIN KAVL 061915Z 34018G28KT 10SM FEW042 16/04 A2990 2190 45 2800 350/18G28 RMK AO2 PK WND 34028/1910 T01560039
03812KAVL AVL20160506142013605/06/16 14:20:31  5-MIN KAVL 061920Z AUTO 35019G29KT 10SM FEW042 16/03 A2990 2190 43 2800 360/19G29 RMK AO2 PK WND 34029/1917 T01560033
03812KAVL AVL20160506142513605/06/16 14:25:31  5-MIN KAVL 061925Z AUTO 35017G29KT 10SM FEW042 15/03 A2989 2190 43 2700 360/17G29 RMK AO2 PK WND 34029/1917 T01500028
03812KAVL AVL20160506143013105/06/16 14:30:31  5-MIN KAVL 061930Z 35018G24KT 10SM FEW042 16/03 A2989 2190 43 2800 360/18G24 RMK AO2 PK WND 34029/1917 T01560033
03812KAVL AVL20160506143512805/06/16 14:35:31  5-MIN KAVL 061935Z 33021G31KT 10SM CLR 16/03 A2989 2200 42 2900 340/21G31 RMK AO2 PK WND 33031/1934 T01610033
03812KAVL AVL20160506144012805/06/16 14:40:31  5-MIN KAVL 061940Z 34019G31KT 10SM CLR 16/03 A2988 2200 42 2900 340/19G31 RMK AO2 PK WND 33031/1934 T01610033
03812KAVL AVL20160506144512805/06/16 14:45:31  5-MIN KAVL 061945Z 34019G28KT 10SM CLR 17/04 A2988 2200 42 2900 350/19G28 RMK AO2 PK WND 33031/1934 T01670039
03812KAVL AVL20160506145013505/06/16 14:50:31  5-MIN KAVL 061950Z 34017G27KT 10SM CLR 17/04 A2988 2200 42 2900 350/17G27 RMK AO2 PK WND 33031/1934 SLP107 T01670039
03812KAVL AVL20160506145511005/06/16 14:55:31  5-MIN KAVL 061955Z 34019G27KT 10SM CLR 17/03 A2988 2200 39 3000 350/19G27 RMK AO2 T01720033
03812KAVL AVL20160506150012805/06/16 15:00:31  5-MIN KAVL 062000Z 32015G28KT 10SM CLR 17/03 A2988 2200 39 2900 330/15G28 RMK AO2 PK WND 34028/1956 T01670028
03812KAVL AVL20160506150512805/06/16 15:05:31  5-MIN KAVL 062005Z 32017G28KT 10SM CLR 17/03 A2988 2210 39 3000 320/17G28 RMK AO2 PK WND 34028/1956 T01670028
03812KAVL AVL20160506151012805/06/16 15:10:31  5-MIN KAVL 062010Z 32016G25KT 10SM CLR 17/03 A2988 2210 37 3000 330/16G25 RMK AO2 PK WND 34028/1956 T01720028
03812KAVL AVL20160506151512805/06/16 15:15:31  5-MIN KAVL 062015Z 32016G25KT 10SM CLR 17/02 A2988 2210 37 3000 330/16G25 RMK AO2 PK WND 34028/1956 T01670022
03812KAVL AVL20160506152012805/06/16 15:20:31  5-MIN KAVL 062020Z 31015G25KT 10SM CLR 17/03 A2988 2210 39 3000 320/15G25 RMK AO2 PK WND 34028/1956 T01670028
03812KAVL AVL20160506152512805/06/16 15:25:31  5-MIN KAVL 062025Z 32011G24KT 10SM CLR 17/03 A2987 2210 40 3000 330/11G24 RMK AO2 PK WND 34028/1956 T01670033
03812KAVL AVL20160506153012805/06/16 15:30:31  5-MIN KAVL 062030Z 33017G25KT 10SM CLR 17/03 A2987 2210 40 3000 330/17G25 RMK AO2 PK WND 34028/1956 T01670033
03812KAVL AVL20160506153512805/06/16 15:35:31  5-MIN KAVL 062035Z 33013G25KT 10SM CLR 16/03 A2987 2210 42 2900 340/13G25 RMK AO2 PK WND 34028/1956 T01610033
03812KAVL AVL20160506154013105/06/16 15:40:31  5-MIN KAVL 062040Z 33011G24KT 10SM FEW046 16/03 A2987 2210 42 2900 340/11G24 RMK AO2 PK WND 34028/1956 T01610033
03812KAVL AVL20160506154513105/06/16 15:45:31  5-MIN KAVL 062045Z 34010G21KT 10SM SCT046 17/04 A2988 2210 42 3000 340/10G21 RMK AO2 PK WND 34028/1956 T01670039
03812KAVL AVL20160506155014405/06/16 15:50:31  5-MIN KAVL 062050Z 34018G24KT 10SM SCT046 16/03 A2987 2210 42 2900 340/18G24 RMK AO2 PK WND 34028/1956 SLP104 T01610033 50005
03812KAVL AVL20160506155511305/06/16 15:55:31  5-MIN KAVL 062055Z 32014G24KT 10SM SCT046 16/03 A2987 2210 42 2900 330/14G24 RMK AO2 T01610033
03812KAVL AVL20160506160011305/06/16 16:00:31  5-MIN KAVL 062100Z 33017G23KT 10SM SCT046 16/03 A2987 2210 40 2900 330/17G23 RMK AO2 T01610028
03812KAVL AVL20160506160511305/06/16 16:05:31  5-MIN KAVL 062105Z 34014G23KT 10SM SCT046 17/03 A2987 2220 40 3000 350/14G23 RMK AO2 T01670033
03812KAVL AVL20160506161013105/06/16 16:10:31  5-MIN KAVL 062110Z 33016G26KT 10SM SCT046 17/03 A2986 2220 40 3000 330/16G26 RMK AO2 PK WND 32026/2107 T01670033
03812KAVL AVL20160506161513105/06/16 16:15:31  5-MIN KAVL 062115Z 34016G26KT 10SM FEW048 16/03 A2986 2220 40 2900 340/16G26 RMK AO2 PK WND 32026/2107 T01610028
03812KAVL AVL20160506162013105/06/16 16:20:31  5-MIN KAVL 062120Z 35013G23KT 10SM FEW048 17/03 A2986 2220 40 3000 350/13G23 RMK AO2 PK WND 32026/2107 T01670033
03812KAVL AVL20160506162513105/06/16 16:25:31  5-MIN KAVL 062125Z 32016G21KT 10SM FEW048 17/03 A2986 2220 40 3000 320/16G21 RMK AO2 PK WND 32026/2107 T01670033
03812KAVL AVL20160506163013105/06/16 16:30:31  5-MIN KAVL 062130Z 32014G21KT 10SM FEW048 17/04 A2986 2220 41 3000 330/14G21 RMK AO2 PK WND 32026/2107 T01720039
03812KAVL AVL20160506163512505/06/16 16:35:31  5-MIN KAVL 062135Z 34014KT 10SM FEW050 17/04 A2987 2220 41 3000 350/14 RMK AO2 PK WND 32026/2107 T01720039
03812KAVL AVL20160506164012805/06/16 16:40:31  5-MIN KAVL 062140Z 35011G23KT 10SM CLR 16/03 A2987 2220 42 2900 360/11G23 RMK AO2 PK WND 32026/2107 T01610033
03812KAVL AVL20160506164513105/06/16 16:45:31  5-MIN KAVL 062145Z 36012G23KT 10SM FEW050 16/03 A2987 2220 40 2900 360/12G23 RMK AO2 PK WND 32026/2107 T01610028
03812KAVL AVL20160506165013205/06/16 16:50:31  5-MIN KAVL 062150Z 33014KT 10SM FEW050 17/03 A2987 2220 40 3000 330/14 RMK AO2 PK WND 32026/2107 SLP101 T01670033
03812KAVL AVL20160506165511305/06/16 16:55:31  5-MIN KAVL 062155Z 36016G22KT 10SM FEW050 17/03 A2987 2220 40 3000 010/16G22 RMK AO2 T01670033
03812KAVL AVL20160506170011305/06/16 17:00:31  5-MIN KAVL 062200Z 35016G23KT 10SM FEW050 17/03 A2987 2220 39 3000 350/16G23 RMK AO2 T01670028
03812KAVL AVL20160506170511305/06/16 17:05:31  5-MIN KAVL 062205Z 35014G25KT 10SM FEW050 17/02 A2987 2220 37 3000 360/14G25 RMK AO2 T01670022
03812KAVL AVL20160506171011305/06/16 17:10:31  5-MIN KAVL 062210Z 36015G25KT 10SM FEW050 17/02 A2987 2210 37 3000 360/15G25 RMK AO2 T01670022
03812KAVL AVL20160506171511005/06/16 17:15:31  5-MIN KAVL 062215Z 35015G21KT 10SM CLR 17/02 A2987 2210 37 3000 350/15G21 RMK AO2 T01670022
03812KAVL AVL20160506172011005/06/16 17:20:31  5-MIN KAVL 062220Z 35015G22KT 10SM CLR 17/02 A2987 2210 37 3000 360/15G22 RMK AO2 T01670022
03812KAVL AVL20160506172511305/06/16 17:25:31  5-MIN KAVL 062225Z 35012G22KT 10SM FEW055 17/02 A2987 2210 37 3000 360/12G22 RMK AO2 T01670022
03812KAVL AVL20160506173011305/06/16 17:30:31  5-MIN KAVL 062230Z 34016G22KT 10SM FEW055 17/03 A2987 2210 39 3000 340/16G22 RMK AO2 T01670028
03812KAVL AVL20160506173511305/06/16 17:35:31  5-MIN KAVL 062235Z 35012G23KT 10SM FEW055 17/03 A2987 2210 39 3000 360/12G23 RMK AO2 T01670028
03812KAVL AVL20160506174011305/06/16 17:40:31  5-MIN KAVL 062240Z 34013G23KT 10SM FEW055 16/02 A2988 2210 39 2900 350/13G23 RMK AO2 T01610022
03812KAVL AVL20160506174511305/06/16 17:45:31  5-MIN KAVL 062245Z 34018G24KT 10SM FEW055 16/03 A2988 2210 40 2900 340/18G24 RMK AO2 T01610028
03812KAVL AVL20160506175013805/06/16 17:50:31  5-MIN KAVL 062250Z 32016G26KT 10SM SCT055 16/02 A2988 2210 37 2900 330/16G26 RMK AO2 PK WND 35026/2249 SLP105 T01610017
03812KAVL AVL20160506175511305/06/16 17:55:31  5-MIN KAVL 062255Z 32014G26KT 10SM FEW055 16/02 A2988 2210 39 2900 320/14G26 RMK AO2 T01610022
03812KAVL AVL20160506180011305/06/16 18:00:31  5-MIN KAVL 062300Z 34008G19KT 10SM FEW055 16/02 A2988 2200 39 2900 350/08G19 RMK AO2 T01610022
03812KAVL AVL20160506180511305/06/16 18:05:31  5-MIN KAVL 062305Z 36009G19KT 10SM FEW055 16/02 A2988 2200 39 2900 360/09G19 RMK AO2 T01610022
03812KAVL AVL20160506181011305/06/16 18:10:31  5-MIN KAVL 062310Z 35013G19KT 10SM FEW055 16/02 A2988 2200 39 2800 350/13G19 RMK AO2 T01560017
03812KAVL AVL20160506181510705/06/16 18:15:31  5-MIN KAVL 062315Z 35011KT 10SM FEW080 16/02 A2988 2200 40 2800 360/11 RMK AO2 T01560022
03812KAVL AVL20160506182010705/06/16 18:20:31  5-MIN KAVL 062320Z 36011KT 10SM SCT075 16/02 A2989 2200 39 2800 360/11 RMK AO2 T01560017
03812KAVL AVL20160506182511405/06/16 18:25:31  5-MIN KAVL 062325Z 35007KT 10SM SCT070 SCT085 15/02 A2989 2200 42 2700 360/07 RMK AO2 T01500022
03812KAVL AVL20160506183010705/06/16 18:30:31  5-MIN KAVL 062330Z 34008KT 10SM SCT080 15/02 A2989 2200 42 2700 350/08 RMK AO2 T01500022
03812KAVL AVL20160506183510705/06/16 18:35:31  5-MIN KAVL 062335Z 34008KT 10SM FEW075 15/02 A2989 2190 42 2700 340/08 RMK AO2 T01500022
03812KAVL AVL20160506184011405/06/16 18:40:31  5-MIN KAVL 062340Z 35008KT 10SM FEW075 SCT090 15/02 A2989 2190 42 2700 350/08 RMK AO2 T01500022
03812KAVL AVL20160506184511405/06/16 18:45:31  5-MIN KAVL 062345Z 34006KT 10SM FEW070 SCT090 15/02 A2989 2190 42 2700 350/06 RMK AO2 T01500022
03812KAVL AVL20160506185013205/06/16 18:50:31  5-MIN KAVL 062350Z 35006KT 10SM FEW090 15/02 A2990 2190 42 2700 360/06 RMK AO2 SLP111 T01500022 10172 20150 58009
03812KAVL AVL20160506185510705/06/16 18:55:31  5-MIN KAVL 062355Z 01006KT 10SM FEW090 15/02 A2990 2190 42 2700 010/06 RMK AO2 T01500022
03812KAVL AVL20160506190010705/06/16 19:00:31  5-MIN KAVL 070000Z 36005KT 10SM FEW090 14/03 A2990 2190 45 2700 360/05 RMK AO2 T01440028
03812KAVL AVL20160506190510705/06/16 19:05:31  5-MIN KAVL 070005Z 35004KT 10SM FEW090 14/03 A2990 2190 45 2700 360/04 RMK AO2 T01440028
03812KAVL AVL20160506191010405/06/16 19:10:31  5-MIN KAVL 070010Z 01005KT 10SM CLR 14/03 A2990 2190 45 2700 010/05 RMK AO2 T01440028
03812KAVL AVL20160506191510405/06/16 19:15:31  5-MIN KAVL 070015Z 35004KT 10SM CLR 14/03 A2990 2180 45 2700 360/04 RMK AO2 T01440028
03812KAVL AVL20160506192010405/06/16 19:20:31  5-MIN KAVL 070020Z 32003KT 10SM CLR 14/03 A2991 2180 47 2600 330/03 RMK AO2 T01390028
03812KAVL AVL20160506192510405/06/16 19:25:31  5-MIN KAVL 070025Z 34004KT 10SM CLR 14/03 A2991 2180 47 2600 350/04 RMK AO2 T01390028
03812KAVL AVL20160506193010405/06/16 19:30:31  5-MIN KAVL 070030Z 00000KT 10SM CLR 13/03 A2990 2180 50 2500 000/00 RMK AO2 T01330033
03812KAVL AVL20160506193510405/06/16 19:35:31  5-MIN KAVL 070035Z 33003KT 10SM CLR 14/03 A2990 2180 47 2600 340/03 RMK AO2 T01390028
03812KAVL AVL20160506194010405/06/16 19:40:31  5-MIN KAVL 070040Z 00000KT 10SM CLR 14/03 A2991 2180 47 2600 000/00 RMK AO2 T01390028
03812KAVL AVL20160506194510405/06/16 19:45:31  5-MIN KAVL 070045Z 00000KT 10SM CLR 13/03 A2991 2180 48 2500 000/00 RMK AO2 T01330028
03812KAVL AVL20160506195011105/06/16 19:50:31  5-MIN KAVL 070050Z 00000KT 10SM CLR 13/03 A2991 2180 52 2500 000/00 RMK AO2 SLP115 T01280033
03812KAVL AVL20160506195510405/06/16 19:55:31  5-MIN KAVL 070055Z 00000KT 10SM CLR 13/03 A2991 2180 50 2500 000/00 RMK AO2 T01330033
03812KAVL AVL20160506200010405/06/16 20:00:31  5-MIN KAVL 070100Z 00000KT 10SM CLR 13/03 A2991 2180 52 2500 000/00 RMK AO2 T01280033
03812KAVL AVL20160506200510405/06/16 20:05:31  5-MIN KAVL 070105Z 00000KT 10SM CLR 13/03 A2991 2180 52 2500 000/00 RMK AO2 T01280033
03812KAVL AVL20160506201010705/06/16 20:10:31  5-MIN KAVL 070110Z 36003KT 10SM FEW085 13/03 A2991 2180 52 2500 010/03 RMK AO2 T01280033
03812KAVL AVL20160506201510705/06/16 20:15:31  5-MIN KAVL 070115Z 00000KT 10SM FEW080 12/04 A2991 2180 56 2400 000/00 RMK AO2 T01220039
03812KAVL AVL20160506202010705/06/16 20:20:31  5-MIN KAVL 070120Z 00000KT 10SM FEW080 12/04 A2991 2180 56 2400 000/00 RMK AO2 T01220039
03812KAVL AVL20160506202510705/06/16 20:25:31  5-MIN KAVL 070125Z 00000KT 10SM FEW080 12/04 A2991 2180 58 2300 000/00 RMK AO2 T01170039
03812KAVL AVL20160506203010705/06/16 20:30:31  5-MIN KAVL 070130Z 00000KT 10SM FEW080 12/04 A2991 2180 61 2300 000/00 RMK AO2 T01170044
03812KAVL AVL20160506203510705/06/16 20:35:31  5-MIN KAVL 070135Z 00000KT 10SM FEW080 12/04 A2991 2170 61 2300 000/00 RMK AO2 T01170044
03812KAVL AVL20160506204010705/06/16 20:40:31  5-MIN KAVL 070140Z 00000KT 10SM FEW080 12/04 A2991 2170 61 2300 000/00 RMK AO2 T01170044
03812KAVL AVL20160506204510405/06/16 20:45:31  5-MIN KAVL 070145Z 00000KT 10SM CLR 11/04 A2991 2170 63 2300 000/00 RMK AO2 T01110044
03812KAVL AVL20160506205011105/06/16 20:50:31  5-MIN KAVL 070150Z 00000KT 10SM CLR 11/04 A2991 2170 63 2300 000/00 RMK AO2 SLP119 T01110044
03812KAVL AVL20160506205510405/06/16 20:55:31  5-MIN KAVL 070155Z 00000KT 10SM CLR 11/04 A2991 2170 63 2300 000/00 RMK AO2 T01110044
03812KAVL AVL20160506210010405/06/16 21:00:31  5-MIN KAVL 070200Z 00000KT 10SM CLR 11/04 A2991 2170 66 2200 000/00 RMK AO2 T01060044
03812KAVL AVL20160506210510405/06/16 21:05:31  5-MIN KAVL 070205Z 00000KT 10SM CLR 11/04 A2992 2170 66 2200 000/00 RMK AO2 T01060044
03812KAVL AVL20160506211010405/06/16 21:10:31  5-MIN KAVL 070210Z 00000KT 10SM CLR 11/05 A2992 2170 66 2300 000/00 RMK AO2 T01110050
03812KAVL AVL20160506211510405/06/16 21:15:31  5-MIN KAVL 070215Z 00000KT 10SM CLR 11/05 A2992 2170 68 2200 000/00 RMK AO2 T01060050
03812KAVL AVL20160506212010405/06/16 21:20:31  5-MIN KAVL 070220Z 00000KT 10SM CLR 10/05 A2992 2170 71 2100 000/00 RMK AO2 T01000050
03812KAVL AVL20160506212510405/06/16 21:25:31  5-MIN KAVL 070225Z 15003KT 10SM CLR 10/05 A2992 2170 71 2100 150/03 RMK AO2 T01000050
03812KAVL AVL20160506213010405/06/16 21:30:31  5-MIN KAVL 070230Z 00000KT 10SM CLR 09/05 A2992 2160 74 2100 000/00 RMK AO2 T00940050
03812KAVL AVL20160506213510405/06/16 21:35:31  5-MIN KAVL 070235Z 00000KT 10SM CLR 09/05 A2993 2160 74 2100 000/00 RMK AO2 T00940050
03812KAVL AVL20160506214010405/06/16 21:40:31  5-MIN KAVL 070240Z 00000KT 10SM CLR 09/05 A2993 2160 74 2100 000/00 RMK AO2 T00940050
03812KAVL AVL20160509184510705/09/16 18:45:31  5-MIN KAVL 092345Z 16004KT 10SM FEW120 21/12 A3012 1980 54 3200 160/04 RMK AO2 T02110117
03812KAVL AVL20160509185013205/09/16 18:50:31  5-MIN KAVL 092350Z 16004KT 10SM FEW120 21/12 A3012 1980 54 3200 170/04 RMK AO2 SLP181 T02110117 10244 20211 56007
03812KAVL AVL20160509185510705/09/16 18:55:31  5-MIN KAVL 092355Z 16004KT 10SM FEW120 21/11 A3012 1980 52 3200 170/04 RMK AO2 T02110111
03812KAVL AVL20160509190010705/09/16 19:00:31  5-MIN KAVL 100000Z 17005KT 10SM SCT120 21/12 A3012 1980 56 3100 170/05 RMK AO2 T02060117
03812KAVL AVL20160509190510705/09/16 19:05:31  5-MIN KAVL 100005Z 16004KT 10SM BKN120 21/12 A3013 1980 56 3100 160/04 RMK AO2 T02060117
03812KAVL AVL20160509191010705/09/16 19:10:31  5-MIN KAVL 100010Z 16003KT 10SM BKN120 21/12 A3013 1980 56 3100 160/03 RMK AO2 T02060117
03812KAVL AVL20160509191510705/09/16 19:15:31  5-MIN KAVL 100015Z 16004KT 10SM BKN110 21/12 A3013 1980 54 3200 160/04 RMK AO2 T02110117
03812KAVL AVL20160509192010705/09/16 19:20:31  5-MIN KAVL 100020Z 16005KT 10SM BKN110 21/11 A3013 1980 52 3200 170/05 RMK AO2 T02110111
03812KAVL AVL20160509192511405/09/16 19:25:31  5-MIN KAVL 100025Z 17006KT 10SM BKN100 OVC120 21/12 A3013 1970 56 3100 180/06 RMK AO2 T02060117
03812KAVL AVL20160509193010705/09/16 19:30:31  5-MIN KAVL 100030Z 15003KT 10SM OVC100 20/12 A3012 1980 58 3100 160/03 RMK AO2 T02000117
03812KAVL AVL20160509193510705/09/16 19:35:31  5-MIN KAVL 100035Z 15005KT 10SM OVC100 21/12 A3012 1990 56 3100 160/05 RMK AO2 T02060117
03812KAVL AVL20160509194010705/09/16 19:40:31  5-MIN KAVL 100040Z 18008KT 10SM OVC100 21/11 A3012 1980 50 3200 180/08 RMK AO2 T02110106
03812KAVL AVL20160509194510705/09/16 19:45:31  5-MIN KAVL 100045Z 18007KT 10SM OVC100 21/11 A3012 1980 54 3100 180/07 RMK AO2 T02060111
03812KAVL AVL20160509195011405/09/16 19:50:31  5-MIN KAVL 100050Z 16006KT 10SM OVC110 20/11 A3012 1980 56 3100 170/06 RMK AO2 SLP182 T02000111
03812KAVL AVL20160509195510705/09/16 19:55:31  5-MIN KAVL 100055Z 18006KT 10SM BKN110 20/11 A3012 1980 54 3100 190/06 RMK AO2 T02000106
03812KAVL AVL20160509200010705/09/16 20:00:31  5-MIN KAVL 100100Z 16004KT 10SM BKN110 20/11 A3012 1980 56 3100 170/04 RMK AO2 T02000111
03812KAVL AVL20160509200510705/09/16 20:05:31  5-MIN KAVL 100105Z 16005KT 10SM BKN110 20/11 A3012 1980 56 3100 170/05 RMK AO2 T02000111
03812KAVL AVL20160509201010705/09/16 20:10:31  5-MIN KAVL 100110Z 17006KT 10SM BKN110 19/11 A3012 1980 58 3000 170/06 RMK AO2 T01940111
03812KAVL AVL20160509201510705/09/16 20:15:31  5-MIN KAVL 100115Z 17006KT 10SM BKN110 19/12 A3012 1980 60 3000 180/06 RMK AO2 T01940117
03812KAVL AVL20160509202010705/09/16 20:20:31  5-MIN KAVL 100120Z 17006KT 10SM BKN110 20/11 A3012 1980 56 3100 180/06 RMK AO2 T02000111
03812KAVL AVL20160509202510705/09/16 20:25:31  5-MIN KAVL 100125Z 17005KT 10SM BKN110 20/11 A3012 1980 56 3100 170/05 RMK AO2 T02000111
03812KAVL AVL20160509203010705/09/16 20:30:31  5-MIN KAVL 100130Z 17005KT 10SM BKN110 20/11 A3012 1980 56 3100 180/05 RMK AO2 T02000111
03812KAVL AVL20160509203510705/09/16 20:35:31  5-MIN KAVL 100135Z 18006KT 10SM BKN110 21/10 A3013 1980 50 3100 190/06 RMK AO2 T02060100
03812KAVL AVL20160509204012105/09/16 20:40:31  5-MIN KAVL 100140Z 18005KT 10SM FEW080 FEW090 OVC110 20/11 A3013 1980 54 3100 180/05 RMK AO2 T02000106
03812KAVL AVL20160509204512105/09/16 20:45:31  5-MIN KAVL 100145Z 18006KT 10SM SCT080 SCT090 OVC110 20/10 A3013 1980 52 3100 180/06 RMK AO2 T02000100
03812KAVL AVL20160509205012805/09/16 20:50:31  5-MIN KAVL 100150Z 17007KT 10SM BKN075 BKN090 OVC110 20/10 A3013 1980 52 3100 180/07 RMK AO2 SLP181 T02000100
03812KAVL AVL20160509205512105/09/16 20:55:31  5-MIN KAVL 100155Z 18007KT 10SM BKN075 BKN090 OVC110 20/10 A3013 1980 52 3100 180/07 RMK AO2 T02000100
03812KAVL AVL20160509210012105/09/16 21:00:31  5-MIN KAVL 100200Z 18007KT 10SM BKN080 BKN090 OVC110 20/09 A3012 1980 50 3100 180/07 RMK AO2 T02000094
03812KAVL AVL20160509210511405/09/16 21:05:31  5-MIN KAVL 100205Z 17008KT 10SM BKN075 OVC100 20/09 A3012 1980 50 3100 180/08 RMK AO2 T02000094
03812KAVL AVL20160509211011405/09/16 21:10:31  5-MIN KAVL 100210Z 17007KT 10SM BKN075 OVC100 20/09 A3013 1980 48 3100 180/07 RMK AO2 T02000089
03812KAVL AVL20160509211512105/09/16 21:15:31  5-MIN KAVL 100215Z 15003KT 10SM FEW055 SCT075 OVC100 20/09 A3013 1970 48 3000 160/03 RMK AO2 T02000089
03812KAVL AVL20160509212012105/09/16 21:20:31  5-MIN KAVL 100220Z 14004KT 10SM FEW055 SCT075 OVC100 21/08 A3013 1970 45 3100 150/04 RMK AO2 T02060083
03812KAVL AVL20160509212512105/09/16 21:25:31  5-MIN KAVL 100225Z 15005KT 10SM FEW055 FEW070 OVC100 21/08 A3013 1970 43 3100 160/05 RMK AO2 T02060078
03812KAVL AVL20160509213012105/09/16 21:30:31  5-MIN KAVL 100230Z 14004KT 10SM FEW055 FEW070 OVC100 21/08 A3013 1970 43 3100 150/04 RMK AO2 T02060078
03812KAVL AVL20160509213512105/09/16 21:35:31  5-MIN KAVL 100235Z 13003KT 10SM FEW055 FEW065 OVC100 21/08 A3013 1980 43 3100 130/03 RMK AO2 T02060078
03812KAVL AVL20160509214011405/09/16 21:40:31  5-MIN KAVL 100240Z 12004KT 10SM FEW055 OVC100 21/08 A3013 1980 45 3100 130/04 RMK AO2 T02060083
03812KAVL AVL20160509214511405/09/16 21:45:31  5-MIN KAVL 100245Z 14004KT 10SM FEW060 OVC100 21/08 A3013 1980 43 3100 150/04 RMK AO2 T02060078
03812KAVL AVL20160509215012005/09/16 21:50:31  5-MIN KAVL 100250Z 11004KT 10SM OVC100 21/08 A3012 1980 43 3100 120/04 RMK AO2 SLP179 T02060078 53005
03812KAVL AVL20160509215510705/09/16 21:55:31  5-MIN KAVL 100255Z 00000KT 10SM OVC100 21/08 A3013 1980 43 3100 000/00 RMK AO2 T02060078
03812KAVL AVL20160509220011205/09/16 22:00:31  5-MIN KAVL 100300Z AUTO 12003KT 10SM OVC100 21/08 A3013 1980 43 3100 130/03 RMK AO2 T02060078
03812KAVL AVL20160509220511205/09/16 22:05:31  5-MIN KAVL 100305Z AUTO 13003KT 10SM OVC100 21/08 A3013 1980 43 3100 140/03 RMK AO2 T02060078
03812KAVL AVL20160509221011205/09/16 22:10:31  5-MIN KAVL 100310Z AUTO 00000KT 10SM OVC110 21/08 A3012 1980 43 3100 000/00 RMK AO2 T02060078
03812KAVL AVL20160509221511205/09/16 22:15:31  5-MIN KAVL 100315Z AUTO 00000KT 10SM BKN110 20/08 A3013 1980 45 3000 000/00 RMK AO2 T02000078
03812KAVL AVL20160509222011205/09/16 22:20:31  5-MIN KAVL 100320Z AUTO 15003KT 10SM BKN110 20/08 A3014 1970 45 3000 160/03 RMK AO2 T02000078
03812KAVL AVL20160509222511205/09/16 22:25:31  5-MIN KAVL 100325Z AUTO 00000KT 10SM SCT110 20/08 A3014 1970 45 3000 000/00 RMK AO2 T02000078
03812KAVL AVL20160509223011205/09/16 22:30:31  5-MIN KAVL 100330Z AUTO 00000KT 10SM FEW110 19/08 A3014 1970 48 3000 000/00 RMK AO2 T01940083
03812KAVL AVL20160509223511205/09/16 22:35:31  5-MIN KAVL 100335Z AUTO 19004KT 10SM FEW120 19/08 A3014 1960 48 3000 200/04 RMK AO2 T01940083
03812KAVL AVL20160509224011205/09/16 22:40:31  5-MIN KAVL 100340Z AUTO 00000KT 10SM FEW100 19/08 A3014 1970 48 3000 000/00 RMK AO2 T01940083
03812KAVL AVL20160509224511905/09/16 22:45:31  5-MIN KAVL 100345Z AUTO 13003KT 10SM FEW070 SCT100 19/08 A3013 1970 48 3000 140/03 RMK AO2 T01940083
03812KAVL AVL20160509225013305/09/16 22:50:31  5-MIN KAVL 100350Z AUTO 12003KT 10SM SCT070 SCT095 BKN110 20/08 A3012 1980 45 3100 120/03 RMK AO2 SLP179 T02000078
03812KAVL AVL20160509225513605/09/16 22:55:31  5-MIN KAVL 100355Z AUTO 14003KT 10SM -RA FEW065 SCT090 BKN110 19/08 A3013 1970 48 3000 150/03 RMK AO2 P0000 T01940083
03812KAVL AVL20160509230013605/09/16 23:00:31  5-MIN KAVL 100400Z AUTO 00000KT 10SM -RA FEW070 SCT090 BKN110 19/08 A3014 1970 48 3000 000/00 RMK AO2 P0000 T01940083
03812KAVL AVL20160509230513605/09/16 23:05:31  5-MIN KAVL 100405Z AUTO 00000KT 10SM -RA FEW070 SCT090 BKN110 19/09 A3014 1960 50 3000 000/00 RMK AO2 P0000 T01940089
03812KAVL AVL20160509231013805/09/16 23:10:31  5-MIN KAVL 100410Z AUTO 12003KT 10SM FEW070 FEW085 SCT110 19/09 A3014 1970 52 2900 130/03 RMK AO2 RAE07 P0000 T01890089
03812KAVL AVL20160509231513105/09/16 23:15:31  5-MIN KAVL 100415Z AUTO 11004KT 10SM FEW065 FEW110 19/09 A3014 1970 54 2900 120/04 RMK AO2 RAE07 P0000 T01890094
03812KAVL AVL20160509232012405/09/16 23:20:31  5-MIN KAVL 100420Z AUTO VRB03KT 10SM FEW110 19/09 A3014 1960 52 2900 VRB/03 RMK AO2 RAE07 P0000 T01890089
03812KAVL AVL20160509232512105/09/16 23:25:31  5-MIN KAVL 100425Z AUTO VRB03KT 10SM CLR 19/09 A3014 1960 52 2900 VRB/03 RMK AO2 RAE07 P0000 T01890089
03812KAVL AVL20160509233012105/09/16 23:30:31  5-MIN KAVL 100430Z AUTO 10003KT 10SM CLR 18/09 A3014 1960 54 2800 100/03 RMK AO2 RAE07 P0000 T01830089
03812KAVL AVL20160509233512105/09/16 23:35:31  5-MIN KAVL 100435Z AUTO 12003KT 10SM CLR 19/09 A3014 1960 52 2900 120/03 RMK AO2 RAE07 P0000 T01890089
03812KAVL AVL20160509234012105/09/16 23:40:31  5-MIN KAVL 100440Z AUTO 11004KT 10SM CLR 18/09 A3015 1960 54 2800 120/04 RMK AO2 RAE07 P0000 T01830089
03812KAVL AVL20160509234512105/09/16 23:45:31  5-MIN KAVL 100445Z AUTO 10004KT 10SM CLR 19/08 A3014 1960 50 2900 100/04 RMK AO2 RAE07 P0000 T01890083
03812KAVL AVL20160509235013805/09/16 23:50:31  5-MIN KAVL 100450Z AUTO 11005KT 10SM CLR 19/08 A3014 1960 50 2900 120/05 RMK AO2 RAE07 SLP183 P0000 T01890083 402440133
03812KAVL AVL20160509235510905/09/16 23:55:31  5-MIN KAVL 100455Z AUTO 13005KT 10SM CLR 19/08 A3014 1960 48 2900 140/05 RMK AO2 T01890078
03812KAVL AVL20160510000010905/10/16 00:00:31  5-MIN KAVL 100500Z AUTO 12003KT 10SM CLR 19/08 A3014 1960 50 2900 130/03 RMK AO2 T01890083
03812KAVL AVL20160510000511205/10/16 00:05:31  5-MIN KAVL 100505Z AUTO 11003KT 10SM FEW120 19/08 A3014 1960 50 2900 120/03 RMK AO2 T01890083
03812KAVL AVL20160510001011205/10/16 00:10:31  5-MIN KAVL 100510Z AUTO 11003KT 10SM SCT110 18/08 A3014 1960 52 2800 120/03 RMK AO2 T01830083
03812KAVL AVL20160510001511205/10/16 00:15:31  5-MIN KAVL 100515Z AUTO 12003KT 10SM BKN110 18/08 A3014 1960 52 2800 130/03 RMK AO2 T01830083
03812KAVL AVL20160510002011205/10/16 00:20:31  5-MIN KAVL 100520Z AUTO 12004KT 10SM BKN110 18/08 A3014 1960 52 2800 120/04 RMK AO2 T01830083
03812KAVL AVL20160510002511205/10/16 00:25:31  5-MIN KAVL 100525Z AUTO 00000KT 10SM BKN110 19/08 A3014 1960 48 2900 000/00 RMK AO2 T01890078
03812KAVL AVL20160510003011205/10/16 00:30:31  5-MIN KAVL 100530Z AUTO 12003KT 10SM OVC110 18/08 A3014 1970 52 2800 120/03 RMK AO2 T01830083
03812KAVL AVL20160510003511205/10/16 00:35:31  5-MIN KAVL 100535Z AUTO 11003KT 10SM OVC110 18/09 A3014 1960 54 2800 110/03 RMK AO2 T01830089
03812KAVL AVL20160510004011205/10/16 00:40:31  5-MIN KAVL 100540Z AUTO VRB03KT 10SM OVC110 18/09 A3014 1960 55 2800 VRB/03 RMK AO2 T01780089
03812KAVL AVL20160510004511205/10/16 00:45:31  5-MIN KAVL 100545Z AUTO 00000KT 10SM OVC110 18/09 A3014 1960 58 2800 000/00 RMK AO2 T01780094
03812KAVL AVL20160510005014305/10/16 00:50:31  5-MIN KAVL 100550Z AUTO 00000KT 10SM OVC110 18/09 A3015 1960 55 2800 000/00 RMK AO2 SLP184 60000 T01780089 10211 20172 52002
03812KAVL AVL20160510005511205/10/16 00:55:31  5-MIN KAVL 100555Z AUTO 00000KT 10SM OVC110 17/10 A3014 1960 64 2700 000/00 RMK AO2 T01670100
03812KAVL AVL20160510010011205/10/16 01:00:31  5-MIN KAVL 100600Z AUTO 00000KT 10SM OVC110 17/10 A3015 1960 62 2700 000/00 RMK AO2 T01720100
03812KAVL AVL20160510010511205/10/16 01:05:31  5-MIN KAVL 100605Z AUTO 00000KT 10SM OVC110 17/09 A3014 1960 60 2700 000/00 RMK AO2 T01720094
03812KAVL AVL20160510011011205/10/16 01:10:31  5-MIN KAVL 100610Z AUTO 15003KT 10SM OVC110 17/09 A3014 1960 60 2700 150/03 RMK AO2 T01720094
03812KAVL AVL20160510011511205/10/16 01:15:31  5-MIN KAVL 100615Z AUTO 00000KT 10SM BKN110 17/09 A3014 1970 60 2700 000/00 RMK AO2 T01720094
03812KAVL AVL20160510012011205/10/16 01:20:31  5-MIN KAVL 100620Z AUTO 12003KT 10SM BKN110 18/09 A3014 1970 55 2800 130/03 RMK AO2 T01780089
03812KAVL AVL20160510012511205/10/16 01:25:31  5-MIN KAVL 100625Z AUTO 14004KT 10SM SCT120 18/08 A3014 1970 52 2900 140/04 RMK AO2 T01830083
03812KAVL AVL20160510013011205/10/16 01:30:31  5-MIN KAVL 100630Z AUTO 13004KT 10SM SCT110 18/07 A3013 1970 48 2900 140/04 RMK AO2 T01830072
03812KAVL AVL20160510013511205/10/16 01:35:31  5-MIN KAVL 100635Z AUTO 14004KT 10SM FEW110 18/07 A3013 1980 48 2900 150/04 RMK AO2 T01830072
03812KAVL AVL20160510014011205/10/16 01:40:31  5-MIN KAVL 100640Z AUTO 12003KT 10SM FEW110 18/07 A3012 1980 48 2900 120/03 RMK AO2 T01830072
03812KAVL AVL20160510014511205/10/16 01:45:31  5-MIN KAVL 100645Z AUTO 11003KT 10SM FEW110 18/08 A3012 1980 51 2800 120/03 RMK AO2 T01780078
03812KAVL AVL20160510015011905/10/16 01:50:31  5-MIN KAVL 100650Z AUTO 11003KT 10SM FEW110 18/08 A3012 1980 51 2800 110/03 RMK AO2 SLP178 T01780078
03812KAVL AVL20160510015510905/10/16 01:55:31  5-MIN KAVL 100655Z AUTO 00000KT 10SM CLR 18/08 A3012 1980 51 2800 000/00 RMK AO2 T01780078
03812KAVL AVL20160510020010905/10/16 02:00:31  5-MIN KAVL 100700Z AUTO 00000KT 10SM CLR 17/08 A3013 1980 55 2700 000/00 RMK AO2 T01720083
03812KAVL AVL20160510020510905/10/16 02:05:31  5-MIN KAVL 100705Z AUTO 00000KT 10SM CLR 17/09 A3012 1980 62 2700 000/00 RMK AO2 T01670094
03812KAVL AVL20160510021010905/10/16 02:10:31  5-MIN KAVL 100710Z AUTO 00000KT 10SM CLR 17/10 A3013 1980 64 2700 000/00 RMK AO2 T01670100
03812KAVL AVL20160510021510905/10/16 02:15:31  5-MIN KAVL 100715Z AUTO 00000KT 10SM CLR 16/10 A3013 1980 67 2600 000/00 RMK AO2 T01610100
03812KAVL AVL20160510022010905/10/16 02:20:31  5-MIN KAVL 100720Z AUTO 23003KT 10SM CLR 16/10 A3013 1970 67 2600 240/03 RMK AO2 T01610100
03812KAVL AVL20160510022510905/10/16 02:25:31  5-MIN KAVL 100725Z AUTO 00000KT 10SM CLR 16/10 A3014 1970 67 2600 000/00 RMK AO2 T01610100
03812KAVL AVL20160510023010905/10/16 02:30:31  5-MIN KAVL 100730Z AUTO 00000KT 10SM CLR 16/09 A3014 1970 64 2600 000/00 RMK AO2 T01610094
03812KAVL AVL20160510023510905/10/16 02:35:31  5-MIN KAVL 100735Z AUTO 00000KT 10SM CLR 16/10 A3014 1970 67 2600 000/00 RMK AO2 T01610100
03812KAVL AVL20160510024010905/10/16 02:40:31  5-MIN KAVL 100740Z AUTO 00000KT 10SM CLR 16/10 A3014 1970 67 2600 000/00 RMK AO2 T01610100
03812KAVL AVL20160510024510905/10/16 02:45:31  5-MIN KAVL 100745Z AUTO 00000KT 10SM CLR 16/10 A3014 1970 67 2600 000/00 RMK AO2 T01610100
03812KAVL AVL20160510025011605/10/16 02:50:31  5-MIN KAVL 100750Z AUTO 00000KT 10SM CLR 16/10 A3014 1970 67 2600 000/00 RMK AO2 SLP183 T01610100
03812KAVL AVL20160510025510905/10/16 02:55:31  5-MIN KAVL 100755Z AUTO 00000KT 10SM CLR 16/10 A3014 1970 67 2600 000/00 RMK AO2 T01610100
03812KAVL AVL20160510030010905/10/16 03:00:31  5-MIN KAVL 100800Z AUTO 00000KT 10SM CLR 17/09 A3014 1960 60 2700 000/00 RMK AO2 T01670089
03812KAVL AVL20160510030510905/10/16 03:05:31  5-MIN KAVL 100805Z AUTO 00000KT 10SM CLR 17/08 A3015 1960 55 2700 000/00 RMK AO2 T01720083
03812KAVL AVL20160510031010905/10/16 03:10:31  5-MIN KAVL 100810Z AUTO 00000KT 10SM CLR 17/08 A3015 1960 57 2600 000/00 RMK AO2 T01670083
03812KAVL AVL20160510031510905/10/16 03:15:31  5-MIN KAVL 100815Z AUTO 00000KT 10SM CLR 17/09 A3015 1960 60 2600 000/00 RMK AO2 T01670089
03812KAVL AVL20160510032010905/10/16 03:20:31  5-MIN KAVL 100820Z AUTO 00000KT 10SM CLR 17/08 A3014 1960 57 2700 000/00 RMK AO2 T01670083
03812KAVL AVL20160510032510905/10/16 03:25:31  5-MIN KAVL 100825Z AUTO 00000KT 10SM CLR 17/08 A3015 1960 57 2600 000/00 RMK AO2 T01670083
03812KAVL AVL20160510033010905/10/16 03:30:31  5-MIN KAVL 100830Z AUTO 00000KT 10SM CLR 17/08 A3015 1960 57 2600 000/00 RMK AO2 T01670083
03812KAVL AVL20160510033510905/10/16 03:35:31  5-MIN KAVL 100835Z AUTO 00000KT 10SM CLR 16/08 A3015 1960 59 2600 000/00 RMK AO2 T01610083
03812KAVL AVL20160510034010905/10/16 03:40:31  5-MIN KAVL 100840Z AUTO 00000KT 10SM CLR 16/09 A3015 1960 62 2600 000/00 RMK AO2 T01610089
03812KAVL AVL20160510034510905/10/16 03:45:31  5-MIN KAVL 100845Z AUTO 00000KT 10SM CLR 16/09 A3015 1960 62 2600 000/00 RMK AO2 T01610089
03812KAVL AVL20160510035012205/10/16 03:50:31  5-MIN KAVL 100850Z AUTO 00000KT 10SM CLR 16/09 A3014 1960 62 2600 000/00 RMK AO2 SLP185 T01610089 51005
03812KAVL AVL20160510035510905/10/16 03:55:31  5-MIN KAVL 100855Z AUTO 12003KT 10SM CLR 16/09 A3015 1960 62 2600 130/03 RMK AO2 T01610089
03812KAVL AVL20160510040010905/10/16 04:00:31  5-MIN KAVL 100900Z AUTO 12004KT 10SM CLR 17/08 A3015 1960 57 2600 120/04 RMK AO2 T01670083
03812KAVL AVL20160510040510905/10/16 04:05:31  5-MIN KAVL 100905Z AUTO 13004KT 10SM CLR 17/08 A3015 1950 55 2600 140/04 RMK AO2 T01670078
03812KAVL AVL20160510041010905/10/16 04:10:31  5-MIN KAVL 100910Z AUTO 12004KT 10SM CLR 17/08 A3015 1960 53 2700 130/04 RMK AO2 T01720078
03812KAVL AVL20160510041510905/10/16 04:15:31  5-MIN KAVL 100915Z AUTO 00000KT 10SM CLR 17/08 A3015 1950 53 2700 000/00 RMK AO2 T01720078
03812KAVL AVL20160510042010905/10/16 04:20:31  5-MIN KAVL 100920Z AUTO VRB03KT 10SM CLR 17/08 A3016 1950 53 2700 VRB/03 RMK AO2 T01720078
03812KAVL AVL20160510042510905/10/16 04:25:31  5-MIN KAVL 100925Z AUTO 00000KT 10SM CLR 17/08 A3016 1950 53 2700 000/00 RMK AO2 T01720078
03812KAVL AVL20160510043010905/10/16 04:30:31  5-MIN KAVL 100930Z AUTO 00000KT 10SM CLR 17/08 A3016 1950 57 2600 000/00 RMK AO2 T01670083
03812KAVL AVL20160510043510905/10/16 04:35:31  5-MIN KAVL 100935Z AUTO 00000KT 10SM CLR 17/08 A3016 1950 57 2600 000/00 RMK AO2 T01670083
03812KAVL AVL20160510044010905/10/16 04:40:31  5-MIN KAVL 100940Z AUTO 13003KT 10SM CLR 17/08 A3016 1950 57 2600 140/03 RMK AO2 T01670083
03812KAVL AVL20160510044510905/10/16 04:45:31  5-MIN KAVL 100945Z AUTO 00000KT 10SM CLR 17/08 A3016 1950 57 2600 000/00 RMK AO2 T01670083
03812KAVL AVL20160510045011605/10/16 04:50:31  5-MIN KAVL 100950Z AUTO 00000KT 10SM CLR 17/08 A3016 1940 57 2600 000/00 RMK AO2 SLP192 T01670083
03812KAVL AVL20160510045510905/10/16 04:55:31  5-MIN KAVL 100955Z AUTO 00000KT 10SM CLR 17/08 A3016 1940 57 2600 000/00 RMK AO2 T01670083
03812KAVL AVL20160510050010905/10/16 05:00:31  5-MIN KAVL 101000Z AUTO 00000KT 10SM CLR 17/08 A3016 1950 57 2600 000/00 RMK AO2 T01670083
03812KAVL AVL20160510050510905/10/16 05:05:31  5-MIN KAVL 101005Z AUTO 00000KT 10SM CLR 17/08 A3016 1940 57 2600 000/00 RMK AO2 T01670083
03812KAVL AVL20160510051010905/10/16 05:10:31  5-MIN KAVL 101010Z AUTO 00000KT 10SM CLR 17/08 A3016 1940 57 2600 000/00 RMK AO2 T01670083
03812KAVL AVL20160510051510405/10/16 05:15:31  5-MIN KAVL 101015Z 00000KT 10SM CLR 17/08 A3016 1940 57 2600 000/00 RMK AO2 T01670083
03812KAVL AVL20160510052010405/10/16 05:20:31  5-MIN KAVL 101020Z 00000KT 10SM CLR 17/08 A3017 1940 57 2600 000/00 RMK AO2 T01670083
03812KAVL AVL20160510052510405/10/16 05:25:31  5-MIN KAVL 101025Z 00000KT 10SM CLR 17/08 A3017 1940 57 2600 000/00 RMK AO2 T01670083
03812KAVL AVL20160510053010405/10/16 05:30:31  5-MIN KAVL 101030Z 00000KT 10SM CLR 17/08 A3017 1940 57 2600 000/00 RMK AO2 T01670083
03812KAVL AVL20160510053510405/10/16 05:35:31  5-MIN KAVL 101035Z 00000KT 10SM CLR 17/08 A3017 1940 57 2600 000/00 RMK AO2 T01670083
03812KAVL AVL20160510054010405/10/16 05:40:31  5-MIN KAVL 101040Z 00000KT 10SM CLR 17/08 A3017 1930 57 2600 000/00 RMK AO2 T01670083
03812KAVL AVL20160510054510405/10/16 05:45:31  5-MIN KAVL 101045Z 00000KT 10SM CLR 17/08 A3018 1930 57 2600 000/00 RMK AO2 T01670083
03812KAVL AVL20160510055011105/10/16 05:50:31  5-MIN KAVL 101050Z 00000KT 10SM CLR 17/08 A3018 1930 57 2600 000/00 RMK AO2 SLP198 T01670083
03812KAVL AVL20160510055510405/10/16 05:55:31  5-MIN KAVL 101055Z 00000KT 10SM CLR 16/09 A3018 1930 62 2500 000/00 RMK AO2 T01610089
03812KAVL AVL20160510060010405/10/16 06:00:31  5-MIN KAVL 101100Z 16003KT 10SM CLR 15/10 A3018 1930 72 2400 170/03 RMK AO2 T01500100
03812KAVL AVL20160510060510405/10/16 06:05:31  5-MIN KAVL 101105Z 16003KT 10SM CLR 15/11 A3018 1930 74 2400 160/03 RMK AO2 T01500106
03812KAVL AVL20160510061010405/10/16 06:10:31  5-MIN KAVL 101110Z 00000KT 10SM CLR 15/11 A3018 1930 74 2400 000/00 RMK AO2 T01500106
03812KAVL AVL20160510061510405/10/16 06:15:31  5-MIN KAVL 101115Z 00000KT 10SM CLR 15/11 A3018 1920 74 2400 000/00 RMK AO2 T01500106
03812KAVL AVL20160510062010405/10/16 06:20:31  5-MIN KAVL 101120Z 00000KT 10SM CLR 16/11 A3018 1920 72 2500 000/00 RMK AO2 T01560106
03812KAVL AVL20160510062510405/10/16 06:25:31  5-MIN KAVL 101125Z 00000KT 10SM CLR 16/11 A3018 1930 72 2500 000/00 RMK AO2 T01560106
03812KAVL AVL20160510063010405/10/16 06:30:31  5-MIN KAVL 101130Z 00000KT 10SM CLR 16/10 A3018 1930 67 2500 000/00 RMK AO2 T01610100
03812KAVL AVL20160510063510405/10/16 06:35:31  5-MIN KAVL 101135Z 00000KT 10SM CLR 16/10 A3018 1930 67 2500 000/00 RMK AO2 T01610100
03812KAVL AVL20160510064010405/10/16 06:40:31  5-MIN KAVL 101140Z 00000KT 10SM CLR 17/09 A3018 1930 62 2600 000/00 RMK AO2 T01670094
03812KAVL AVL20160510064510405/10/16 06:45:31  5-MIN KAVL 101145Z 00000KT 10SM CLR 16/10 A3018 1930 67 2500 000/00 RMK AO2 T01610100
03812KAVL AVL20160510065012905/10/16 06:50:31  5-MIN KAVL 101150Z 24003KT 10SM CLR 16/11 A3018 1930 74 2500 240/03 RMK AO2 SLP202 T01560111 10183 20150 53001
03812KAVL AVL20160510065510405/10/16 06:55:31  5-MIN KAVL 101155Z 21003KT 10SM CLR 16/11 A3018 1920 74 2500 210/03 RMK AO2 T01560111
03812KAVL AVL20160510070010405/10/16 07:00:31  5-MIN KAVL 101200Z 21003KT 10SM CLR 16/11 A3018 1920 74 2500 220/03 RMK AO2 T01560111
03812KAVL AVL20160510070510405/10/16 07:05:31  5-MIN KAVL 101205Z 00000KT 10SM CLR 16/11 A3018 1930 74 2500 000/00 RMK AO2 T01560111
03812KAVL AVL20160510071010405/10/16 07:10:31  5-MIN KAVL 101210Z 18003KT 10SM CLR 16/11 A3018 1930 74 2500 180/03 RMK AO2 T01560111
03812KAVL AVL20160510071510405/10/16 07:15:31  5-MIN KAVL 101215Z 00000KT 10SM CLR 16/11 A3018 1930 74 2500 000/00 RMK AO2 T01560111
03812KAVL AVL20160510072010405/10/16 07:20:31  5-MIN KAVL 101220Z 00000KT 10SM CLR 16/11 A3019 1920 72 2500 000/00 RMK AO2 T01610111
03812KAVL AVL20160510072510405/10/16 07:25:31  5-MIN KAVL 101225Z 24003KT 10SM CLR 16/11 A3020 1910 72 2500 250/03 RMK AO2 T01610111
03812KAVL AVL20160510073010405/10/16 07:30:31  5-MIN KAVL 101230Z 23004KT 10SM CLR 16/11 A3020 1910 72 2500 230/04 RMK AO2 T01610111
03812KAVL AVL20160510073510405/10/16 07:35:31  5-MIN KAVL 101235Z 00000KT 10SM CLR 16/11 A3020 1910 72 2500 000/00 RMK AO2 T01610111
03812KAVL AVL20160510074010405/10/16 07:40:31  5-MIN KAVL 101240Z 18003KT 10SM CLR 17/12 A3020 1910 72 2600 180/03 RMK AO2 T01670117
03812KAVL AVL20160510074510405/10/16 07:45:31  5-MIN KAVL 101245Z 00000KT 10SM CLR 17/12 A3020 1910 72 2600 000/00 RMK AO2 T01670117
03812KAVL AVL20160510075011105/10/16 07:50:31  5-MIN KAVL 101250Z 17003KT 10SM CLR 17/12 A3020 1910 69 2600 180/03 RMK AO2 SLP207 T01720117
03812KAVL AVL20160510075510405/10/16 07:55:31  5-MIN KAVL 101255Z 00000KT 10SM CLR 18/12 A3020 1910 69 2700 000/00 RMK AO2 T01780122
03812KAVL AVL20160510080010405/10/16 08:00:31  5-MIN KAVL 101300Z 00000KT 10SM CLR 18/12 A3020 1910 67 2800 000/00 RMK AO2 T01830122
03812KAVL AVL20160510080510405/10/16 08:05:31  5-MIN KAVL 101305Z 16003KT 10SM CLR 19/12 A3020 1910 62 2800 170/03 RMK AO2 T01890117
03812KAVL AVL20160510081010405/10/16 08:10:31  5-MIN KAVL 101310Z 16004KT 10SM CLR 20/12 A3020 1910 58 3000 170/04 RMK AO2 T02000117
03812KAVL AVL20160510081510405/10/16 08:15:31  5-MIN KAVL 101315Z 17004KT 10SM CLR 20/12 A3021 1900 58 3000 180/04 RMK AO2 T02000117
03812KAVL AVL20160510082010705/10/16 08:20:31  5-MIN KAVL 101320Z 17004KT 10SM FEW055 19/12 A3021 1900 60 2900 180/04 RMK AO2 T01940117
03812KAVL AVL20160510082510705/10/16 08:25:31  5-MIN KAVL 101325Z 17005KT 10SM BKN060 19/11 A3020 1910 58 2900 170/05 RMK AO2 T01940111
03812KAVL AVL20160510083010705/10/16 08:30:31  5-MIN KAVL 101330Z 16004KT 10SM BKN060 19/11 A3020 1910 58 2900 170/04 RMK AO2 T01940111
03812KAVL AVL20160510083510705/10/16 08:35:31  5-MIN KAVL 101335Z 17005KT 10SM BKN060 20/11 A3020 1910 56 3000 170/05 RMK AO2 T02000111
03812KAVL AVL20160510084010705/10/16 08:40:31  5-MIN KAVL 101340Z 14004KT 10SM SCT060 20/11 A3020 1910 56 3000 140/04 RMK AO2 T02000111
03812KAVL AVL20160510084510705/10/16 08:45:31  5-MIN KAVL 101345Z VRB05KT 10SM SCT060 21/11 A3021 1910 54 3000 VRB/05 RMK AO2 T02060111
03812KAVL AVL20160510085011405/10/16 08:50:31  5-MIN KAVL 101350Z 15007KT 10SM SCT060 21/12 A3021 1900 56 3000 160/07 RMK AO2 SLP206 T02060117
03812KAVL AVL20160510085510705/10/16 08:55:31  5-MIN KAVL 101355Z 15005KT 10SM FEW060 20/11 A3021 1900 56 3000 160/05 RMK AO2 T02000111
03812KAVL AVL20160510090010705/10/16 09:00:31  5-MIN KAVL 101400Z 18007KT 10SM FEW060 21/12 A3021 1900 56 3000 190/07 RMK AO2 T02060117
03812KAVL AVL20160510090512305/10/16 09:05:31  5-MIN KAVL 101405Z 18010KT 150V220 10SM SCT060 21/12 A3021 1900 56 3100 190/10 160V230 RMK AO2 T02110122
03812KAVL AVL20160510091010705/10/16 09:10:31  5-MIN KAVL 101410Z 18010KT 10SM SCT060 21/12 A3021 1900 54 3100 180/10 RMK AO2 T02110117
03812KAVL AVL20160510091510705/10/16 09:15:31  5-MIN KAVL 101415Z 17009KT 10SM FEW060 21/12 A3021 1900 54 3100 170/09 RMK AO2 T02110117
03812KAVL AVL20160510092010705/10/16 09:20:31  5-MIN KAVL 101420Z 17007KT 10SM FEW060 21/12 A3021 1900 56 3100 170/07 RMK AO2 T02110122
03812KAVL AVL20160510092510705/10/16 09:25:31  5-MIN KAVL 101425Z 18008KT 10SM FEW060 22/12 A3020 1910 54 3200 180/08 RMK AO2 T02170122
03812KAVL AVL20160510093010705/10/16 09:30:31  5-MIN KAVL 101430Z 15010KT 10SM FEW060 22/13 A3020 1910 54 3200 160/10 RMK AO2 T02220128
03812KAVL AVL20160510093510405/10/16 09:35:31  5-MIN KAVL 101435Z 15007KT 10SM CLR 21/12 A3019 1920 56 3100 160/07 RMK AO2 T02110122
03812KAVL AVL20160510094010405/10/16 09:40:31  5-MIN KAVL 101440Z 17010KT 10SM CLR 22/12 A3019 1920 54 3200 180/10 RMK AO2 T02170122
03812KAVL AVL20160510094510405/10/16 09:45:31  5-MIN KAVL 101445Z 18011KT 10SM CLR 22/12 A3020 1910 54 3200 180/11 RMK AO2 T02170122
03812KAVL AVL20160510095012305/10/16 09:50:31  5-MIN KAVL 101450Z 19013G19KT 10SM CLR 22/13 A3019 1920 54 3200 200/13G19 RMK AO2 SLP200 T02220128 51012
03812KAVL AVL20160510095511005/10/16 09:55:31  5-MIN KAVL 101455Z 18012G19KT 10SM CLR 23/13 A3019 1920 51 3400 190/12G19 RMK AO2 T02330128
03812KAVL AVL20160510100011005/10/16 10:00:31  5-MIN KAVL 101500Z 19010G17KT 10SM CLR 23/13 A3019 1920 51 3400 200/10G17 RMK AO2 T02330128
03812KAVL AVL20160510100511005/10/16 10:05:31  5-MIN KAVL 101505Z 18013G17KT 10SM CLR 23/12 A3019 1920 51 3300 190/13G17 RMK AO2 T02280122
03812KAVL AVL20160510101010405/10/16 10:10:31  5-MIN KAVL 101510Z 19013KT 10SM CLR 23/12 A3019 1920 49 3400 190/13 RMK AO2 T02330122
03812KAVL AVL20160510101510405/10/16 10:15:31  5-MIN KAVL 101515Z 19011KT 10SM CLR 23/12 A3020 1910 49 3400 200/11 RMK AO2 T02330122
03812KAVL AVL20160510102010405/10/16 10:20:31  5-MIN KAVL 101520Z 18010KT 10SM CLR 24/12 A3020 1910 47 3400 190/10 RMK AO2 T02390122
03812KAVL AVL20160510102511005/10/16 10:25:31  5-MIN KAVL 101525Z 19012G18KT 10SM CLR 23/12 A3020 1910 47 3400 200/12G18 RMK AO2 T02330117
03812KAVL AVL20160510103011005/10/16 10:30:31  5-MIN KAVL 101530Z 19011G18KT 10SM CLR 23/12 A3020 1910 47 3400 190/11G18 RMK AO2 T02330117
03812KAVL AVL20160510103510405/10/16 10:35:31  5-MIN KAVL 101535Z 18013KT 10SM CLR 24/12 A3020 1910 46 3400 190/13 RMK AO2 T02390117
03812KAVL AVL20160510104010405/10/16 10:40:31  5-MIN KAVL 101540Z 19010KT 10SM CLR 24/11 A3020 1910 44 3400 190/10 RMK AO2 T02390111
03812KAVL AVL20160510104510405/10/16 10:45:31  5-MIN KAVL 101545Z 19010KT 10SM CLR 24/12 A3019 1920 44 3500 200/10 RMK AO2 T02440117
03812KAVL AVL20160510105011105/10/16 10:50:31  5-MIN KAVL 101550Z 19012KT 10SM CLR 24/12 A3019 1910 44 3500 190/12 RMK AO2 SLP199 T02440117
03812KAVL AVL20160510105511005/10/16 10:55:31  5-MIN KAVL 101555Z 19009G21KT 10SM CLR 24/12 A3019 1920 44 3500 190/09G21 RMK AO2 T02440117
03812KAVL AVL20160510110011005/10/16 11:00:31  5-MIN KAVL 101600Z 18014G21KT 10SM CLR 25/12 A3019 1920 43 3500 190/14G21 RMK AO2 T02500117
03812KAVL AVL20160510110511005/10/16 11:05:31  5-MIN KAVL 101605Z 19013G20KT 10SM CLR 24/11 A3019 1920 42 3500 190/13G20 RMK AO2 T02440111
03812KAVL AVL20160510111011005/10/16 11:10:31  5-MIN KAVL 101610Z 18015G23KT 10SM CLR 24/11 A3019 1920 42 3500 190/15G23 RMK AO2 T02440111
03812KAVL AVL20160510111511005/10/16 11:15:31  5-MIN KAVL 101615Z 21017G24KT 10SM CLR 23/11 A3019 1920 44 3400 210/17G24 RMK AO2 T02330106
03812KAVL AVL20160510112011005/10/16 11:20:31  5-MIN KAVL 101620Z 18019G24KT 10SM CLR 24/11 A3019 1920 44 3400 190/19G24 RMK AO2 T02390111
03812KAVL AVL20160510112511005/10/16 11:25:31  5-MIN KAVL 101625Z 20017G24KT 10SM CLR 24/11 A3019 1920 42 3500 210/17G24 RMK AO2 T02440111
03812KAVL AVL20160510113012805/10/16 11:30:31  5-MIN KAVL 101630Z 19020G27KT 10SM CLR 24/11 A3019 1920 42 3400 200/20G27 RMK AO2 PK WND 18027/1628 T02390106
03812KAVL AVL20160510113512805/10/16 11:35:31  5-MIN KAVL 101635Z 19017G27KT 10SM CLR 26/11 A3019 1920 38 3600 200/17G27 RMK AO2 PK WND 18027/1632 T02560106
03812KAVL AVL20160510114012805/10/16 11:40:31  5-MIN KAVL 101640Z 19018G27KT 10SM CLR 25/10 A3018 1920 38 3600 200/18G27 RMK AO2 PK WND 18027/1632 T02500100
03812KAVL AVL20160510114512805/10/16 11:45:31  5-MIN KAVL 101645Z 19017G24KT 10SM CLR 24/09 A3018 1920 38 3500 190/17G24 RMK AO2 PK WND 18027/1632 T02440094
03812KAVL AVL20160510115013505/10/16 11:50:31  5-MIN KAVL 101650Z 20018G26KT 10SM CLR 24/09 A3018 1930 38 3500 200/18G26 RMK AO2 PK WND 18027/1632 SLP196 T02440094
03812KAVL AVL20160510115511005/10/16 11:55:31  5-MIN KAVL 101655Z 18017G26KT 10SM CLR 25/10 A3018 1930 38 3600 190/17G26 RMK AO2 T02500100
03812KAVL AVL20160510120012805/10/16 12:00:31  5-MIN KAVL 101700Z 20018G28KT 10SM CLR 24/09 A3018 1930 38 3500 210/18G28 RMK AO2 PK WND 21028/1659 T02440094
03812KAVL AVL20160510120512805/10/16 12:05:31  5-MIN KAVL 101705Z 20017G28KT 10SM CLR 24/09 A3018 1920 39 3400 210/17G28 RMK AO2 PK WND 21028/1659 T02390094
03812KAVL AVL20160510121012805/10/16 12:10:31  5-MIN KAVL 101710Z 20016G28KT 10SM CLR 24/09 A3018 1930 39 3400 200/16G28 RMK AO2 PK WND 21028/1659 T02390094
03812KAVL AVL20160510121512805/10/16 12:15:31  5-MIN KAVL 101715Z 19018G26KT 10SM CLR 24/09 A3018 1930 39 3400 200/18G26 RMK AO2 PK WND 21028/1659 T02390094
03812KAVL AVL20160510122012805/10/16 12:20:31  5-MIN KAVL 101720Z 18013G25KT 10SM CLR 25/11 A3018 1930 39 3600 190/13G25 RMK AO2 PK WND 21028/1659 T02500106
03812KAVL AVL20160510122512805/10/16 12:25:31  5-MIN KAVL 101725Z 19014G22KT 10SM CLR 26/11 A3017 1930 38 3600 200/14G22 RMK AO2 PK WND 21028/1659 T02560106
03812KAVL AVL20160510123012805/10/16 12:30:31  5-MIN KAVL 101730Z 19016G22KT 10SM CLR 26/10 A3017 1930 37 3600 200/16G22 RMK AO2 PK WND 21028/1659 T02560100
03812KAVL AVL20160510123512805/10/16 12:35:31  5-MIN KAVL 101735Z 19014G23KT 10SM CLR 25/09 A3017 1930 37 3600 190/14G23 RMK AO2 PK WND 21028/1659 T02500094
03812KAVL AVL20160510124012805/10/16 12:40:31  5-MIN KAVL 101740Z 18017G24KT 10SM CLR 25/09 A3017 1930 37 3600 190/17G24 RMK AO2 PK WND 21028/1659 T02500094
03812KAVL AVL20160510124512805/10/16 12:45:31  5-MIN KAVL 101745Z 19015G24KT 10SM CLR 25/09 A3017 1940 37 3600 200/15G24 RMK AO2 PK WND 21028/1659 T02500094
03812KAVL AVL20160510125015305/10/16 12:50:31  5-MIN KAVL 101750Z 19012G20KT 10SM CLR 26/09 A3017 1940 34 3700 190/12G20 RMK AO2 PK WND 21028/1659 SLP191 T02610094 10261 20156 50002
03812KAVL AVL20160510125511305/10/16 12:55:31  5-MIN KAVL 101755Z 20014G21KT 10SM FEW120 26/10 A3017 1940 36 3700 200/14G21 RMK AO2 T02610100
03812KAVL AVL20160510130011305/10/16 13:00:31  5-MIN KAVL 101800Z 18016G22KT 10SM SCT120 26/10 A3017 1940 36 3700 190/16G22 RMK AO2 T02610100
03812KAVL AVL20160510130511305/10/16 13:05:31  5-MIN KAVL 101805Z 19011G22KT 10SM SCT120 26/09 A3017 1940 34 3700 190/11G22 RMK AO2 T02610094
03812KAVL AVL20160510131011305/10/16 13:10:31  5-MIN KAVL 101810Z 18015G22KT 10SM SCT120 25/09 A3017 1940 37 3600 190/15G22 RMK AO2 T02500094
03812KAVL AVL20160510131511305/10/16 13:15:31  5-MIN KAVL 101815Z 20011G22KT 10SM BKN110 26/10 A3017 1940 37 3600 200/11G22 RMK AO2 T02560100
03812KAVL AVL20160510132011305/10/16 13:20:31  5-MIN KAVL 101820Z 20013G18KT 10SM BKN110 26/10 A3017 1940 37 3600 210/13G18 RMK AO2 T02560100
03812KAVL AVL20160510132511305/10/16 13:25:31  5-MIN KAVL 101825Z 20012G18KT 10SM BKN110 25/09 A3016 1950 37 3600 200/12G18 RMK AO2 T02500094
03812KAVL AVL20160510133011305/10/16 13:30:31  5-MIN KAVL 101830Z 18014G21KT 10SM OVC110 25/09 A3016 1950 37 3600 190/14G21 RMK AO2 T02500094
03812KAVL AVL20160510133511305/10/16 13:35:31  5-MIN KAVL 101835Z 19013G22KT 10SM OVC110 25/08 A3016 1950 34 3600 200/13G22 RMK AO2 T02500083
03812KAVL AVL20160510134011305/10/16 13:40:31  5-MIN KAVL 101840Z 18014G22KT 10SM OVC110 25/09 A3016 1950 35 3600 190/14G22 RMK AO2 T02500089
03812KAVL AVL20160510134510705/10/16 13:45:31  5-MIN KAVL 101845Z 20013KT 10SM OVC110 25/09 A3016 1950 37 3600 200/13 RMK AO2 T02500094
03812KAVL AVL20160510135011405/10/16 13:50:31  5-MIN KAVL 101850Z 20012KT 10SM OVC110 26/10 A3016 1950 37 3600 200/12 RMK AO2 SLP188 T02560100
03812KAVL AVL20160510135511305/10/16 13:55:31  5-MIN KAVL 101855Z 20013G21KT 10SM OVC110 26/09 A3016 1950 35 3600 200/13G21 RMK AO2 T02560094
03812KAVL AVL20160510140011305/10/16 14:00:31  5-MIN KAVL 101900Z 20011G21KT 10SM OVC110 25/10 A3016 1950 38 3600 210/11G21 RMK AO2 T02500100
03812KAVL AVL20160510140511305/10/16 14:05:31  5-MIN KAVL 101905Z 19015G19KT 10SM OVC110 25/10 A3015 1950 38 3600 200/15G19 RMK AO2 T02500100
03812KAVL AVL20160510141011305/10/16 14:10:31  5-MIN KAVL 101910Z 18014G20KT 10SM OVC110 25/10 A3015 1950 38 3600 180/14G20 RMK AO2 T02500100
03812KAVL AVL20160510141511805/10/16 14:15:31  5-MIN KAVL 101915Z AUTO 19013G20KT 10SM OVC110 25/09 A3015 1960 37 3600 200/13G20 RMK AO2 T02500094
03812KAVL AVL20160510142010705/10/16 14:20:31  5-MIN KAVL 101920Z 19014KT 10SM OVC110 26/10 A3015 1960 37 3700 190/14 RMK AO2 T02560100
03812KAVL AVL20160510142511305/10/16 14:25:31  5-MIN KAVL 101925Z 19012G19KT 10SM OVC110 25/10 A3015 1960 38 3600 200/12G19 RMK AO2 T02500100
03812KAVL AVL20160510143011305/10/16 14:30:31  5-MIN KAVL 101930Z 19010G19KT 10SM OVC110 25/11 A3015 1960 39 3600 200/10G19 RMK AO2 T02500106
03812KAVL AVL20160510143510705/10/16 14:35:31  5-MIN KAVL 101935Z 19013KT 10SM OVC110 26/10 A3015 1960 37 3700 200/13 RMK AO2 T02560100
03812KAVL AVL20160510144010705/10/16 14:40:31  5-MIN KAVL 101940Z 20013KT 10SM OVC100 27/11 A3014 1960 36 3800 210/13 RMK AO2 T02670106
03812KAVL AVL20160510144510705/10/16 14:45:31  5-MIN KAVL 101945Z 23014KT 10SM OVC100 27/11 A3014 1970 34 3800 230/14 RMK AO2 T02720106
03812KAVL AVL20160510145012005/10/16 14:50:31  5-MIN KAVL 101950Z 21014G22KT 10SM BKN110 27/10 A3014 1970 34 3800 220/14G22 RMK AO2 SLP180 T02670100
03812KAVL AVL20160510145511305/10/16 14:55:31  5-MIN KAVL 101955Z 21012G22KT 10SM BKN100 26/10 A3014 1970 36 3700 210/12G22 RMK AO2 T02610100
03812KAVL AVL20160510150011305/10/16 15:00:31  5-MIN KAVL 102000Z 19015G22KT 10SM BKN110 27/10 A3014 1970 34 3800 190/15G22 RMK AO2 T02670100
03812KAVL AVL20160510150511305/10/16 15:05:31  5-MIN KAVL 102005Z 19016G20KT 10SM BKN100 27/11 A3013 1970 36 3800 200/16G20 RMK AO2 T02670106
03812KAVL AVL20160510151011305/10/16 15:10:31  5-MIN KAVL 102010Z 21014G20KT 10SM SCT100 26/10 A3013 1970 36 3700 210/14G20 RMK AO2 T02610100
03812KAVL AVL20160510151512005/10/16 15:15:31  5-MIN KAVL 102015Z 18013G20KT 10SM FEW085 BKN100 26/10 A3013 1970 36 3700 190/13G20 RMK AO2 T02610100
03812KAVL AVL20160510152011405/10/16 15:20:31  5-MIN KAVL 102020Z 19016KT 10SM SCT080 BKN100 27/10 A3013 1970 34 3800 190/16 RMK AO2 T02670100
03812KAVL AVL20160510152512005/10/16 15:25:31  5-MIN KAVL 102025Z 19013G21KT 10SM FEW080 SCT110 26/10 A3013 1970 36 3700 200/13G21 RMK AO2 T02610100
03812KAVL AVL20160510153012005/10/16 15:30:31  5-MIN KAVL 102030Z 21014G21KT 10SM FEW080 FEW100 26/10 A3013 1970 36 3700 210/14G21 RMK AO2 T02610100
03812KAVL AVL20160510153511305/10/16 15:35:31  5-MIN KAVL 102035Z 20012G21KT 10SM FEW080 26/10 A3014 1970 36 3700 210/12G21 RMK AO2 T02610100
03812KAVL AVL20160510154011305/10/16 15:40:31  5-MIN KAVL 102040Z 19014G21KT 10SM FEW080 26/11 A3014 1970 38 3700 190/14G21 RMK AO2 T02560106
03812KAVL AVL20160510154511305/10/16 15:45:31  5-MIN KAVL 102045Z 17014G21KT 10SM FEW080 26/11 A3013 1970 38 3700 180/14G21 RMK AO2 T02560106
03812KAVL AVL20160510155012005/10/16 15:50:31  5-MIN KAVL 102050Z 20014KT 10SM FEW110 26/11 A3013 1970 38 3700 200/14 RMK AO2 SLP180 T02560106 58006
03812KAVL AVL20160510155511305/10/16 15:55:31  5-MIN KAVL 102055Z 21014G21KT 10SM SCT110 26/11 A3014 1970 38 3700 220/14G21 RMK AO2 T02610111
03812KAVL AVL20160510160012005/10/16 16:00:31  5-MIN KAVL 102100Z 18014G19KT 10SM FEW085 SCT110 26/11 A3014 1970 38 3700 190/14G19 RMK AO2 T02610111
03812KAVL AVL20160510160512005/10/16 16:05:31  5-MIN KAVL 102105Z 19012G19KT 10SM SCT090 BKN110 25/11 A3014 1970 39 3600 200/12G19 RMK AO2 T02500106
03812KAVL AVL20160510161011405/10/16 16:10:31  5-MIN KAVL 102110Z 19015KT 10SM BKN090 BKN110 25/11 A3013 1970 39 3600 190/15 RMK AO2 T02500106
03812KAVL AVL20160510161511405/10/16 16:15:31  5-MIN KAVL 102115Z 19011KT 10SM BKN090 BKN110 25/11 A3013 1970 39 3600 200/11 RMK AO2 T02500106
03812KAVL AVL20160510162011405/10/16 16:20:31  5-MIN KAVL 102120Z 19012KT 10SM BKN090 BKN110 26/11 A3013 1970 38 3700 200/12 RMK AO2 T02560106
03812KAVL AVL20160510162510705/10/16 16:25:31  5-MIN KAVL 102125Z 18013KT 10SM BKN090 26/11 A3014 1970 38 3700 190/13 RMK AO2 T02560106
03812KAVL AVL20160510163011305/10/16 16:30:31  5-MIN KAVL 102130Z 18011G18KT 10SM BKN090 26/11 A3014 1970 40 3700 180/11G18 RMK AO2 T02560111
03812KAVL AVL20160510163510705/10/16 16:35:31  5-MIN KAVL 102135Z 18009KT 10SM BKN090 26/11 A3014 1970 40 3700 180/09 RMK AO2 T02560111
03812KAVL AVL20160510164010705/10/16 16:40:31  5-MIN KAVL 102140Z 21012KT 10SM BKN095 26/12 A3014 1970 41 3700 220/12 RMK AO2 T02560117
03812KAVL AVL20160510164510705/10/16 16:45:31  5-MIN KAVL 102145Z 21010KT 10SM BKN095 26/11 A3014 1970 40 3700 220/10 RMK AO2 T02560111
03812KAVL AVL20160510165012005/10/16 16:50:31  5-MIN KAVL 102150Z 22013G19KT 10SM BKN090 25/11 A3014 1970 41 3600 220/13G19 RMK AO2 SLP181 T02500111
03812KAVL AVL20160510165510705/10/16 16:55:31  5-MIN KAVL 102155Z 18013KT 10SM SCT095 25/11 A3013 1970 41 3600 190/13 RMK AO2 T02500111
03812KAVL AVL20160510170010705/10/16 17:00:31  5-MIN KAVL 102200Z 18014KT 10SM SCT095 25/12 A3013 1970 43 3600 190/14 RMK AO2 T02500117
03812KAVL AVL20160510170510705/10/16 17:05:31  5-MIN KAVL 102205Z 18013KT 10SM FEW095 25/12 A3013 1970 43 3600 180/13 RMK AO2 T02500117
03812KAVL AVL20160510171010705/10/16 17:10:31  5-MIN KAVL 102210Z 17012KT 10SM FEW095 24/12 A3013 1970 44 3500 180/12 RMK AO2 T02440117
03812KAVL AVL20160510171510705/10/16 17:15:31  5-MIN KAVL 102215Z 17015KT 10SM FEW095 24/12 A3013 1970 44 3600 180/15 RMK AO2 T02440117
03812KAVL AVL20160510172010405/10/16 17:20:31  5-MIN KAVL 102220Z 17013KT 10SM CLR 24/12 A3013 1970 44 3500 170/13 RMK AO2 T02440117
03812KAVL AVL20160510172510405/10/16 17:25:31  5-MIN KAVL 102225Z 17013KT 10SM CLR 24/12 A3013 1970 44 3500 180/13 RMK AO2 T02440117
03812KAVL AVL20160510173010405/10/16 17:30:31  5-MIN KAVL 102230Z 18011KT 10SM CLR 24/11 A3013 1970 42 3500 180/11 RMK AO2 T02440111
03812KAVL AVL20160510173510405/10/16 17:35:31  5-MIN KAVL 102235Z 18013KT 10SM CLR 24/12 A3013 1970 44 3500 180/13 RMK AO2 T02440117
03812KAVL AVL20160510174010405/10/16 17:40:31  5-MIN KAVL 102240Z 17014KT 10SM CLR 24/12 A3013 1970 44 3600 180/14 RMK AO2 T02440117
03812KAVL AVL20160510174510405/10/16 17:45:31  5-MIN KAVL 102245Z 18013KT 10SM CLR 24/11 A3013 1980 44 3500 190/13 RMK AO2 T02390111
03812KAVL AVL20160510175011105/10/16 17:50:31  5-MIN KAVL 102250Z 17014KT 10SM CLR 24/11 A3013 1980 44 3500 180/14 RMK AO2 SLP178 T02390111
03812KAVL AVL20160510175510405/10/16 17:55:31  5-MIN KAVL 102255Z 17013KT 10SM CLR 24/11 A3012 1980 44 3500 180/13 RMK AO2 T02390111
03812KAVL AVL20160510180010405/10/16 18:00:31  5-MIN KAVL 102300Z 19013KT 10SM CLR 24/11 A3013 1980 44 3500 190/13 RMK AO2 T02390111
03812KAVL AVL20160510180510405/10/16 18:05:31  5-MIN KAVL 102305Z 19014KT 10SM CLR 24/11 A3013 1970 42 3500 200/14 RMK AO2 T02390106
03812KAVL AVL20160510181010405/10/16 18:10:31  5-MIN KAVL 102310Z 20010KT 10SM CLR 24/11 A3013 1970 42 3500 210/10 RMK AO2 T02390106
03812KAVL AVL20160510181510405/10/16 18:15:31  5-MIN KAVL 102315Z 20009KT 10SM CLR 24/11 A3013 1970 42 3500 210/09 RMK AO2 T02390106
03812KAVL AVL20160510182010405/10/16 18:20:31  5-MIN KAVL 102320Z 21009KT 10SM CLR 24/11 A3013 1970 42 3500 220/09 RMK AO2 T02390106
03812KAVL AVL20160510182510405/10/16 18:25:31  5-MIN KAVL 102325Z 20010KT 10SM CLR 24/11 A3013 1970 42 3500 200/10 RMK AO2 T02390106
03812KAVL AVL20160510183010405/10/16 18:30:31  5-MIN KAVL 102330Z 21009KT 10SM CLR 23/11 A3013 1970 44 3400 210/09 RMK AO2 T02330106
03812KAVL AVL20160510183510405/10/16 18:35:31  5-MIN KAVL 102335Z 20008KT 10SM CLR 23/11 A3013 1970 44 3400 210/08 RMK AO2 T02330106
03812KAVL AVL20160510184010405/10/16 18:40:31  5-MIN KAVL 102340Z 20011KT 10SM CLR 23/11 A3013 1970 44 3400 210/11 RMK AO2 T02330106
03812KAVL AVL20160510184510405/10/16 18:45:31  5-MIN KAVL 102345Z 20009KT 10SM CLR 23/10 A3013 1970 42 3400 210/09 RMK AO2 T02330100
03812KAVL AVL20160510185012905/10/16 18:50:31  5-MIN KAVL 102350Z 20009KT 10SM CLR 23/11 A3013 1970 44 3400 210/09 RMK AO2 SLP183 T02330106 10272 20233 56011
03812KAVL AVL20160510185510405/10/16 18:55:31  5-MIN KAVL 102355Z 20007KT 10SM CLR 23/10 A3014 1970 44 3400 210/07 RMK AO2 T02280100
03812KAVL AVL20160510190010405/10/16 19:00:31  5-MIN KAVL 110000Z 20009KT 10SM CLR 23/10 A3014 1970 44 3400 200/09 RMK AO2 T02280100
03812KAVL AVL20160510190510405/10/16 19:05:31  5-MIN KAVL 110005Z 21009KT 10SM CLR 23/10 A3014 1960 44 3400 210/09 RMK AO2 T02280100
03812KAVL AVL20160510191010405/10/16 19:10:31  5-MIN KAVL 110010Z 20008KT 10SM CLR 23/10 A3015 1960 44 3300 210/08 RMK AO2 T02280100
03812KAVL AVL20160510191510405/10/16 19:15:31  5-MIN KAVL 110015Z 20009KT 10SM CLR 22/10 A3015 1960 45 3300 200/09 RMK AO2 T02220100
03812KAVL AVL20160510192010405/10/16 19:20:31  5-MIN KAVL 110020Z 19009KT 10SM CLR 22/10 A3015 1960 45 3300 190/09 RMK AO2 T02220100
03812KAVL AVL20160510192510405/10/16 19:25:31  5-MIN KAVL 110025Z 19007KT 10SM CLR 22/10 A3015 1960 45 3300 190/07 RMK AO2 T02220100
03812KAVL AVL20160510193010405/10/16 19:30:31  5-MIN KAVL 110030Z 19007KT 10SM CLR 22/10 A3015 1950 47 3200 190/07 RMK AO2 T02170100
03812KAVL AVL20160510193510405/10/16 19:35:31  5-MIN KAVL 110035Z 19006KT 10SM CLR 22/10 A3015 1950 47 3200 190/06 RMK AO2 T02170100
03812KAVL AVL20160510194010405/10/16 19:40:31  5-MIN KAVL 110040Z 19005KT 10SM CLR 21/11 A3016 1950 50 3100 200/05 RMK AO2 T02110106
03812KAVL AVL20160510194510405/10/16 19:45:31  5-MIN KAVL 110045Z 18004KT 10SM CLR 21/11 A3016 1950 50 3100 190/04 RMK AO2 T02110106
03812KAVL AVL20160510195011105/10/16 19:50:31  5-MIN KAVL 110050Z 16004KT 10SM CLR 21/11 A3016 1950 52 3100 170/04 RMK AO2 SLP191 T02060106
03812KAVL AVL20160510195510405/10/16 19:55:31  5-MIN KAVL 110055Z 16004KT 10SM CLR 21/11 A3016 1950 52 3100 160/04 RMK AO2 T02060106
03812KAVL AVL20160510200010405/10/16 20:00:31  5-MIN KAVL 110100Z 14003KT 10SM CLR 21/11 A3016 1950 52 3100 150/03 RMK AO2 T02060106
03812KAVL AVL20160510200510405/10/16 20:05:31  5-MIN KAVL 110105Z 14004KT 10SM CLR 21/11 A3016 1950 52 3100 150/04 RMK AO2 T02060106
03812KAVL AVL20160510201010405/10/16 20:10:31  5-MIN KAVL 110110Z 13004KT 10SM CLR 21/11 A3016 1950 52 3100 140/04 RMK AO2 T02060106
03812KAVL AVL20160510201510405/10/16 20:15:31  5-MIN KAVL 110115Z 14004KT 10SM CLR 21/11 A3016 1950 52 3100 150/04 RMK AO2 T02060106
03812KAVL AVL20160510202010405/10/16 20:20:31  5-MIN KAVL 110120Z 12003KT 10SM CLR 21/11 A3016 1950 52 3100 130/03 RMK AO2 T02060106
03812KAVL AVL20160510202510405/10/16 20:25:31  5-MIN KAVL 110125Z 13004KT 10SM CLR 21/11 A3016 1950 52 3100 130/04 RMK AO2 T02060106
03812KAVL AVL20160510203010405/10/16 20:30:31  5-MIN KAVL 110130Z 12004KT 10SM CLR 21/11 A3016 1950 52 3100 130/04 RMK AO2 T02060106
03812KAVL AVL20160510203510405/10/16 20:35:31  5-MIN KAVL 110135Z 12004KT 10SM CLR 21/11 A3016 1950 52 3100 130/04 RMK AO2 T02060106
03812KAVL AVL20160510204010405/10/16 20:40:31  5-MIN KAVL 110140Z 13003KT 10SM CLR 21/11 A3016 1950 52 3100 130/03 RMK AO2 T02060106
03812KAVL AVL20160510204510405/10/16 20:45:31  5-MIN KAVL 110145Z 13005KT 10SM CLR 21/11 A3016 1940 52 3100 140/05 RMK AO2 T02060106
03812KAVL AVL20160510205011105/10/16 20:50:31  5-MIN KAVL 110150Z 16004KT 10SM CLR 20/11 A3016 1940 54 3000 170/04 RMK AO2 SLP191 T02000106
03812KAVL AVL20160510205510405/10/16 20:55:31  5-MIN KAVL 110155Z 16004KT 10SM CLR 19/11 A3016 1940 56 2900 160/04 RMK AO2 T01940106
03812KAVL AVL20160510210010405/10/16 21:00:31  5-MIN KAVL 110200Z 15004KT 10SM CLR 19/11 A3017 1940 60 2900 150/04 RMK AO2 T01890111
03812KAVL AVL20160510210510405/10/16 21:05:31  5-MIN KAVL 110205Z 14004KT 10SM CLR 19/11 A3017 1940 56 2900 140/04 RMK AO2 T01940106
03812KAVL AVL20160510211010405/10/16 21:10:31  5-MIN KAVL 110210Z 13004KT 10SM CLR 20/11 A3017 1940 54 3000 140/04 RMK AO2 T02000106
03812KAVL AVL20160510211510405/10/16 21:15:31  5-MIN KAVL 110215Z 14004KT 10SM CLR 20/11 A3017 1940 54 3000 140/04 RMK AO2 T02000106
03812KAVL AVL20160510212010405/10/16 21:20:31  5-MIN KAVL 110220Z 14005KT 10SM CLR 20/11 A3017 1940 54 3000 140/05 RMK AO2 T02000106
03812KAVL AVL20160510212510405/10/16 21:25:31  5-MIN KAVL 110225Z 15004KT 10SM CLR 20/11 A3017 1930 54 3000 160/04 RMK AO2 T02000106
03812KAVL AVL20160510213010405/10/16 21:30:31  5-MIN KAVL 110230Z 14004KT 10SM CLR 20/11 A3017 1930 54 3000 150/04 RMK AO2 T02000106
03812KAVL AVL20160510213510905/10/16 21:35:31  5-MIN KAVL 110235Z AUTO 15004KT 10SM CLR 19/11 A3017 1940 58 2900 160/04 RMK AO2 T01940111
03812KAVL AVL20160510214010905/10/16 21:40:31  5-MIN KAVL 110240Z AUTO 16006KT 10SM CLR 19/11 A3017 1940 60 2900 170/06 RMK AO2 T01890111
03812KAVL AVL20160510214510905/10/16 21:45:31  5-MIN KAVL 110245Z AUTO 17006KT 10SM CLR 18/11 A3017 1940 62 2800 170/06 RMK AO2 T01830111
03812KAVL AVL20160510215012205/10/16 21:50:31  5-MIN KAVL 110250Z AUTO 16005KT 10SM CLR 18/12 A3017 1940 67 2700 170/05 RMK AO2 SLP195 T01780117 55000
03812KAVL AVL20160510215510905/10/16 21:55:31  5-MIN KAVL 110255Z AUTO 16004KT 10SM CLR 18/12 A3017 1930 67 2700 160/04 RMK AO2 T01780117
03812KAVL AVL20160510220010905/10/16 22:00:31  5-MIN KAVL 110300Z AUTO 14003KT 10SM CLR 18/11 A3017 1930 62 2800 150/03 RMK AO2 T01830111
03812KAVL AVL20160510220510905/10/16 22:05:31  5-MIN KAVL 110305Z AUTO 13003KT 10SM CLR 19/11 A3017 1930 60 2900 140/03 RMK AO2 T01890111
03812KAVL AVL20160510221010905/10/16 22:10:31  5-MIN KAVL 110310Z AUTO 15004KT 10SM CLR 19/11 A3017 1940 58 2900 150/04 RMK AO2 T01940111
03812KAVL AVL20160510221510905/10/16 22:15:31  5-MIN KAVL 110315Z AUTO 14004KT 10SM CLR 19/11 A3017 1940 58 2900 150/04 RMK AO2 T01940111
03812KAVL AVL20160510222010905/10/16 22:20:31  5-MIN KAVL 110320Z AUTO 13003KT 10SM CLR 19/11 A3017 1940 58 2900 130/03 RMK AO2 T01940111
03812KAVL AVL20160510222510905/10/16 22:25:31  5-MIN KAVL 110325Z AUTO 13004KT 10SM CLR 19/11 A3017 1930 58 2900 130/04 RMK AO2 T01940111
03812KAVL AVL20160510223010905/10/16 22:30:31  5-MIN KAVL 110330Z AUTO VRB04KT 10SM CLR 19/11 A3017 1930 58 2900 VRB/04 RMK AO2 T01940111
03812KAVL AVL20160510223510905/10/16 22:35:31  5-MIN KAVL 110335Z AUTO 16004KT 10SM CLR 19/11 A3017 1930 60 2900 160/04 RMK AO2 T01890111
03812KAVL AVL20160510224010905/10/16 22:40:31  5-MIN KAVL 110340Z AUTO 00000KT 10SM CLR 18/11 A3018 1930 62 2800 000/00 RMK AO2 T01830111
03812KAVL AVL20160510224510905/10/16 22:45:31  5-MIN KAVL 110345Z AUTO 00000KT 10SM CLR 18/11 A3018 1930 62 2800 000/00 RMK AO2 T01830111
03812KAVL AVL20160510225011605/10/16 22:50:31  5-MIN KAVL 110350Z AUTO 00000KT 10SM CLR 18/11 A3018 1930 62 2800 000/00 RMK AO2 SLP195 T01830111
03812KAVL AVL20160510225510905/10/16 22:55:31  5-MIN KAVL 110355Z AUTO 00000KT 10SM CLR 18/11 A3018 1930 62 2800 000/00 RMK AO2 T01830111
03812KAVL AVL20160510230010905/10/16 23:00:31  5-MIN KAVL 110400Z AUTO 00000KT 10SM CLR 18/11 A3018 1930 64 2700 000/00 RMK AO2 T01780111
03812KAVL AVL20160510230510905/10/16 23:05:31  5-MIN KAVL 110405Z AUTO 00000KT 10SM CLR 18/11 A3018 1930 64 2700 000/00 RMK AO2 T01780111
03812KAVL AVL20160510231010905/10/16 23:10:31  5-MIN KAVL 110410Z AUTO 00000KT 10SM CLR 18/11 A3018 1930 64 2700 000/00 RMK AO2 T01780111
03812KAVL AVL20160510231510905/10/16 23:15:31  5-MIN KAVL 110415Z AUTO 00000KT 10SM CLR 17/12 A3018 1930 69 2700 000/00 RMK AO2 T01720117
03812KAVL AVL20160510232010905/10/16 23:20:31  5-MIN KAVL 110420Z AUTO 00000KT 10SM CLR 17/12 A3018 1930 72 2600 000/00 RMK AO2 T01670117
03812KAVL AVL20160510232510905/10/16 23:25:31  5-MIN KAVL 110425Z AUTO 00000KT 10SM CLR 17/12 A3018 1920 69 2700 000/00 RMK AO2 T01720117
03812KAVL AVL20160510233010905/10/16 23:30:31  5-MIN KAVL 110430Z AUTO 00000KT 10SM CLR 17/12 A3018 1930 72 2600 000/00 RMK AO2 T01670117
03812KAVL AVL20160510233510905/10/16 23:35:31  5-MIN KAVL 110435Z AUTO 17003KT 10SM CLR 16/12 A3018 1930 77 2500 170/03 RMK AO2 T01560117
03812KAVL AVL20160510234010905/10/16 23:40:31  5-MIN KAVL 110440Z AUTO 00000KT 10SM CLR 15/12 A3018 1930 80 2400 000/00 RMK AO2 T01500117
03812KAVL AVL20160510234510905/10/16 23:45:31  5-MIN KAVL 110445Z AUTO 00000KT 10SM CLR 16/12 A3018 1930 77 2500 000/00 RMK AO2 T01560117
03812KAVL AVL20160510235012605/10/16 23:50:31  5-MIN KAVL 110450Z AUTO 00000KT 10SM CLR 16/12 A3018 1930 77 2500 000/00 RMK AO2 SLP197 T01560117 402720150
03812KAVL AVL20160510235510905/10/16 23:55:31  5-MIN KAVL 110455Z AUTO 00000KT 10SM CLR 16/12 A3017 1930 75 2600 000/00 RMK AO2 T01610117
03812KAVL AVL20160511000010905/11/16 00:00:31  5-MIN KAVL 110500Z AUTO 00000KT 10SM CLR 16/12 A3017 1940 75 2600 000/00 RMK AO2 T01610117
03812KAVL AVL20160511000510905/11/16 00:05:31  5-MIN KAVL 110505Z AUTO 00000KT 10SM CLR 16/12 A3017 1940 75 2600 000/00 RMK AO2 T01610117
03812KAVL AVL20160511001010905/11/16 00:10:31  5-MIN KAVL 110510Z AUTO 00000KT 10SM CLR 16/12 A3017 1940 75 2600 000/00 RMK AO2 T01610117
03812KAVL AVL20160511001510905/11/16 00:15:31  5-MIN KAVL 110515Z AUTO 00000KT 10SM CLR 16/12 A3016 1940 77 2500 000/00 RMK AO2 T01560117
03812KAVL AVL20160511002010905/11/16 00:20:31  5-MIN KAVL 110520Z AUTO 00000KT 10SM CLR 16/12 A3016 1950 77 2500 000/00 RMK AO2 T01560117
03812KAVL AVL20160511002510905/11/16 00:25:31  5-MIN KAVL 110525Z AUTO 00000KT 10SM CLR 15/12 A3016 1950 80 2400 000/00 RMK AO2 T01500117
03812KAVL AVL20160511003010905/11/16 00:30:31  5-MIN KAVL 110530Z AUTO 00000KT 10SM CLR 14/12 A3016 1950 83 2400 000/00 RMK AO2 T01440117
03812KAVL AVL20160511003510905/11/16 00:35:31  5-MIN KAVL 110535Z AUTO 00000KT 10SM CLR 14/11 A3016 1950 80 2400 000/00 RMK AO2 T01440111
03812KAVL AVL20160511004010905/11/16 00:40:31  5-MIN KAVL 110540Z AUTO 00000KT 10SM CLR 15/12 A3016 1940 80 2400 000/00 RMK AO2 T01500117
03812KAVL AVL20160511004510905/11/16 00:45:31  5-MIN KAVL 110545Z AUTO 00000KT 10SM CLR 16/12 A3016 1950 77 2500 000/00 RMK AO2 T01560117
03812KAVL AVL20160511005013405/11/16 00:50:31  5-MIN KAVL 110550Z AUTO 11003KT 10SM CLR 15/12 A3016 1950 80 2400 110/03 RMK AO2 SLP190 T01500117 10228 20144 51012
03812KAVL AVL20160511005510905/11/16 00:55:31  5-MIN KAVL 110555Z AUTO 00000KT 10SM CLR 15/12 A3016 1950 80 2400 000/00 RMK AO2 T01500117
03812KAVL AVL20160511010010905/11/16 01:00:31  5-MIN KAVL 110600Z AUTO 00000KT 10SM CLR 16/12 A3016 1950 77 2500 000/00 RMK AO2 T01560117
03812KAVL AVL20160511010510905/11/16 01:05:31  5-MIN KAVL 110605Z AUTO 00000KT 10SM CLR 16/12 A3015 1950 77 2500 000/00 RMK AO2 T01560117
03812KAVL AVL20160511011010905/11/16 01:10:31  5-MIN KAVL 110610Z AUTO 13003KT 10SM CLR 16/12 A3015 1950 77 2500 130/03 RMK AO2 T01560117
03812KAVL AVL20160511011510905/11/16 01:15:31  5-MIN KAVL 110615Z AUTO 13004KT 10SM CLR 16/12 A3015 1960 75 2600 140/04 RMK AO2 T01610117
03812KAVL AVL20160511012010905/11/16 01:20:31  5-MIN KAVL 110620Z AUTO 15005KT 10SM CLR 17/12 A3015 1960 72 2600 160/05 RMK AO2 T01670117
03812KAVL AVL20160511012510905/11/16 01:25:31  5-MIN KAVL 110625Z AUTO 15005KT 10SM CLR 17/12 A3014 1960 72 2600 150/05 RMK AO2 T01670117
03812KAVL AVL20160511013010905/11/16 01:30:31  5-MIN KAVL 110630Z AUTO 15005KT 10SM CLR 17/12 A3014 1960 72 2700 160/05 RMK AO2 T01670117
03812KAVL AVL20160511013510905/11/16 01:35:31  5-MIN KAVL 110635Z AUTO 15005KT 10SM CLR 16/12 A3014 1960 75 2600 160/05 RMK AO2 T01610117
03812KAVL AVL20160511014010905/11/16 01:40:31  5-MIN KAVL 110640Z AUTO 15004KT 10SM CLR 16/12 A3014 1960 75 2600 160/04 RMK AO2 T01610117
03812KAVL AVL20160511014510905/11/16 01:45:31  5-MIN KAVL 110645Z AUTO 14003KT 10SM CLR 16/12 A3014 1960 77 2500 150/03 RMK AO2 T01560117
03812KAVL AVL20160511015011605/11/16 01:50:31  5-MIN KAVL 110650Z AUTO 00000KT 10SM CLR 16/12 A3015 1960 75 2600 000/00 RMK AO2 SLP185 T01610117
03812KAVL AVL20160511015510905/11/16 01:55:31  5-MIN KAVL 110655Z AUTO VRB03KT 10SM CLR 16/12 A3014 1960 75 2600 VRB/03 RMK AO2 T01610117
03812KAVL AVL20160511020010905/11/16 02:00:31  5-MIN KAVL 110700Z AUTO VRB03KT 10SM CLR 17/12 A3014 1960 75 2600 VRB/03 RMK AO2 T01670122
03812KAVL AVL20160511020510905/11/16 02:05:31  5-MIN KAVL 110705Z AUTO 00000KT 10SM CLR 17/12 A3014 1960 75 2600 000/00 RMK AO2 T01670122
03812KAVL AVL20160511021010905/11/16 02:10:31  5-MIN KAVL 110710Z AUTO 14003KT 10SM CLR 17/12 A3014 1960 75 2600 150/03 RMK AO2 T01670122
03812KAVL AVL20160511021510905/11/16 02:15:31  5-MIN KAVL 110715Z AUTO 00000KT 10SM CLR 16/12 A3014 1960 77 2600 000/00 RMK AO2 T01610122
03812KAVL AVL20160511022010905/11/16 02:20:31  5-MIN KAVL 110720Z AUTO 16003KT 10SM CLR 16/12 A3014 1960 77 2500 170/03 RMK AO2 T01560117
03812KAVL AVL20160511022510905/11/16 02:25:31  5-MIN KAVL 110725Z AUTO 17005KT 10SM CLR 14/12 A3014 1970 83 2400 170/05 RMK AO2 T01440117
03812KAVL AVL20160511023010905/11/16 02:30:31  5-MIN KAVL 110730Z AUTO 14003KT 10SM CLR 14/11 A3014 1970 83 2300 150/03 RMK AO2 T01390111
03812KAVL AVL20160511023510905/11/16 02:35:31  5-MIN KAVL 110735Z AUTO 00000KT 10SM CLR 14/11 A3014 1970 83 2300 000/00 RMK AO2 T01390111
03812KAVL AVL20160511024010905/11/16 02:40:31  5-MIN KAVL 110740Z AUTO 00000KT 10SM CLR 14/12 A3014 1970 83 2400 000/00 RMK AO2 T01440117
03812KAVL AVL20160511024510905/11/16 02:45:31  5-MIN KAVL 110745Z AUTO 00000KT 10SM CLR 14/11 A3014 1960 80 2400 000/00 RMK AO2 T01440111
03812KAVL AVL20160511025011605/11/16 02:50:31  5-MIN KAVL 110750Z AUTO 00000KT 10SM CLR 14/11 A3014 1960 80 2400 000/00 RMK AO2 SLP185 T01440111
03812KAVL AVL20160511025510905/11/16 02:55:31  5-MIN KAVL 110755Z AUTO 33005KT 10SM CLR 14/12 A3015 1960 83 2400 330/05 RMK AO2 T01440117
03812KAVL AVL20160511030010905/11/16 03:00:31  5-MIN KAVL 110800Z AUTO 33004KT 10SM CLR 13/11 A3015 1960 86 2300 340/04 RMK AO2 T01330111
03812KAVL AVL20160511030510905/11/16 03:05:31  5-MIN KAVL 110805Z AUTO 32005KT 10SM CLR 13/11 A3015 1960 86 2300 330/05 RMK AO2 T01330111
03812KAVL AVL20160511031010905/11/16 03:10:31  5-MIN KAVL 110810Z AUTO 33005KT 10SM CLR 13/12 A3015 1960 89 2300 330/05 RMK AO2 T01330117
03812KAVL AVL20160511031510905/11/16 03:15:31  5-MIN KAVL 110815Z AUTO 34003KT 10SM CLR 13/12 A3015 1960 89 2300 340/03 RMK AO2 T01330117
03812KAVL AVL20160511032010905/11/16 03:20:31  5-MIN KAVL 110820Z AUTO 00000KT 10SM CLR 14/12 A3015 1960 86 2300 000/00 RMK AO2 T01390117
03812KAVL AVL20160511032510905/11/16 03:25:31  5-MIN KAVL 110825Z AUTO 00000KT 10SM CLR 14/12 A3015 1960 86 2300 000/00 RMK AO2 T01390117
03812KAVL AVL20160511033010905/11/16 03:30:31  5-MIN KAVL 110830Z AUTO 00000KT 10SM CLR 13/11 A3015 1960 86 2300 000/00 RMK AO2 T01330111
03812KAVL AVL20160511033510905/11/16 03:35:31  5-MIN KAVL 110835Z AUTO 00000KT 10SM CLR 13/11 A3015 1960 86 2300 000/00 RMK AO2 T01330111
03812KAVL AVL20160511034010905/11/16 03:40:31  5-MIN KAVL 110840Z AUTO 00000KT 10SM CLR 13/11 A3015 1960 89 2200 000/00 RMK AO2 T01280111
03812KAVL AVL20160511034510905/11/16 03:45:31  5-MIN KAVL 110845Z AUTO 00000KT 10SM CLR 14/11 A3015 1960 83 2300 000/00 RMK AO2 T01390111
03812KAVL AVL20160511035012205/11/16 03:50:31  5-MIN KAVL 110850Z AUTO 30004KT 10SM CLR 13/11 A3015 1950 86 2300 310/04 RMK AO2 SLP189 T01330111 58005
03812KAVL AVL20160511035510905/11/16 03:55:31  5-MIN KAVL 110855Z AUTO 32004KT 10SM CLR 13/11 A3016 1950 86 2200 330/04 RMK AO2 T01330111
03812KAVL AVL20160511040010905/11/16 04:00:31  5-MIN KAVL 110900Z AUTO 00000KT 10SM CLR 13/11 A3015 1950 86 2300 000/00 RMK AO2 T01330111
03812KAVL AVL20160511040510905/11/16 04:05:31  5-MIN KAVL 110905Z AUTO 00000KT 10SM CLR 14/12 A3015 1950 86 2300 000/00 RMK AO2 T01390117
03812KAVL AVL20160511041010905/11/16 04:10:31  5-MIN KAVL 110910Z AUTO 00000KT 10SM CLR 13/11 A3015 1950 86 2300 000/00 RMK AO2 T01330111
03812KAVL AVL20160511041510905/11/16 04:15:31  5-MIN KAVL 110915Z AUTO 00000KT 10SM CLR 13/11 A3016 1950 86 2200 000/00 RMK AO2 T01330111
03812KAVL AVL20160511042010905/11/16 04:20:31  5-MIN KAVL 110920Z AUTO 29003KT 10SM CLR 13/11 A3016 1950 86 2200 300/03 RMK AO2 T01330111
03812KAVL AVL20160511042510905/11/16 04:25:31  5-MIN KAVL 110925Z AUTO 32004KT 10SM CLR 13/11 A3016 1940 89 2200 320/04 RMK AO2 T01280111
03812KAVL AVL20160511043010905/11/16 04:30:31  5-MIN KAVL 110930Z AUTO 34003KT 10SM CLR 13/11 A3016 1940 86 2200 340/03 RMK AO2 T01330111
03812KAVL AVL20160511043510905/11/16 04:35:31  5-MIN KAVL 110935Z AUTO 00000KT 10SM CLR 13/11 A3016 1940 86 2200 000/00 RMK AO2 T01330111
03812KAVL AVL20160511044010905/11/16 04:40:31  5-MIN KAVL 110940Z AUTO 00000KT 10SM CLR 13/11 A3016 1940 89 2200 000/00 RMK AO2 T01280111
03812KAVL AVL20160511044510905/11/16 04:45:31  5-MIN KAVL 110945Z AUTO 00000KT 10SM CLR 13/11 A3016 1950 89 2200 000/00 RMK AO2 T01280111
03812KAVL AVL20160511045011605/11/16 04:50:31  5-MIN KAVL 110950Z AUTO 22003KT 10SM CLR 13/11 A3016 1940 86 2200 230/03 RMK AO2 SLP194 T01280106
03812KAVL AVL20160511045510905/11/16 04:55:31  5-MIN KAVL 110955Z AUTO 00000KT 10SM CLR 12/11 A3017 1940 89 2100 000/00 RMK AO2 T01220106
03812KAVL AVL20160511050010905/11/16 05:00:31  5-MIN KAVL 111000Z AUTO 00000KT 10SM CLR 12/11 A3017 1940 89 2100 000/00 RMK AO2 T01220106
03812KAVL AVL20160511050510905/11/16 05:05:31  5-MIN KAVL 111005Z AUTO 00000KT 10SM CLR 13/11 A3018 1930 86 2200 000/00 RMK AO2 T01280106
03812KAVL AVL20160511051010905/11/16 05:10:31  5-MIN KAVL 111010Z AUTO 00000KT 10SM CLR 13/11 A3017 1930 86 2200 000/00 RMK AO2 T01280106
03812KAVL AVL20160511051510905/11/16 05:15:31  5-MIN KAVL 111015Z AUTO 00000KT 10SM CLR 13/11 A3017 1940 86 2200 000/00 RMK AO2 T01280106
03812KAVL AVL20160511052010405/11/16 05:20:31  5-MIN KAVL 111020Z 18003KT 10SM CLR 12/11 A3016 1940 89 2100 180/03 RMK AO2 T01220106
03812KAVL AVL20160511052510405/11/16 05:25:31  5-MIN KAVL 111025Z 00000KT 10SM CLR 12/11 A3016 1940 89 2100 000/00 RMK AO2 T01220106
03812KAVL AVL20160511053010405/11/16 05:30:31  5-MIN KAVL 111030Z 00000KT 10SM CLR 13/11 A3017 1930 86 2200 000/00 RMK AO2 T01280106
03812KAVL AVL20160511053510405/11/16 05:35:31  5-MIN KAVL 111035Z 28003KT 10SM CLR 12/11 A3018 1930 89 2100 280/03 RMK AO2 T01220106
03812KAVL AVL20160511054010405/11/16 05:40:31  5-MIN KAVL 111040Z 00000KT 10SM CLR 12/11 A3017 1930 89 2100 000/00 RMK AO2 T01220106
03812KAVL AVL20160511054510305/11/16 05:45:31  5-MIN KAVL 111045Z 00000KT 9SM CLR 12/11 A3018 1930 89 2100 000/00 RMK AO2 T01220106
03812KAVL AVL20160511055011405/11/16 05:50:31  5-MIN KAVL 111050Z 00000KT 10SM FEW120 13/11 A3018 1920 86 2100 000/00 RMK AO2 SLP202 T01280106
03812KAVL AVL20160511055510705/11/16 05:55:31  5-MIN KAVL 111055Z 14003KT 10SM SCT120 13/11 A3018 1930 89 2200 150/03 RMK AO2 T01280111
03812KAVL AVL20160511060010705/11/16 06:00:31  5-MIN KAVL 111100Z 00000KT 10SM BKN120 13/11 A3018 1930 86 2200 000/00 RMK AO2 T01330111
03812KAVL AVL20160511060510705/11/16 06:05:31  5-MIN KAVL 111105Z 00000KT 10SM BKN120 13/11 A3018 1930 86 2200 000/00 RMK AO2 T01330111
03812KAVL AVL20160511061010705/11/16 06:10:31  5-MIN KAVL 111110Z 00000KT 10SM BKN120 13/11 A3018 1930 86 2200 000/00 RMK AO2 T01330111
03812KAVL AVL20160511061510705/11/16 06:15:31  5-MIN KAVL 111115Z 00000KT 10SM BKN120 13/11 A3018 1930 86 2200 000/00 RMK AO2 T01330111
03812KAVL AVL20160511062010705/11/16 06:20:31  5-MIN KAVL 111120Z 22003KT 10SM BKN120 14/12 A3019 1920 86 2300 220/03 RMK AO2 T01390117
03812KAVL AVL20160511062510705/11/16 06:25:31  5-MIN KAVL 111125Z 00000KT 10SM BKN120 13/12 A3019 1920 89 2200 000/00 RMK AO2 T01330117
03812KAVL AVL20160511063010705/11/16 06:30:31  5-MIN KAVL 111130Z 00000KT 10SM BKN120 13/11 A3019 1920 86 2200 000/00 RMK AO2 T01330111
03812KAVL AVL20160511063510705/11/16 06:35:31  5-MIN KAVL 111135Z 00000KT 10SM BKN120 13/12 A3019 1920 89 2200 000/00 RMK AO2 T01330117
03812KAVL AVL20160511064011905/11/16 06:40:31  5-MIN KAVL 111140Z 00000KT 10SM BKN120 13/12 A3019 1920 89 2200 000/00 RMK AO2 LTG DSNT NW T01330117
03812KAVL AVL20160511064511905/11/16 06:45:31  5-MIN KAVL 111145Z 00000KT 10SM BKN120 14/12 A3019 1920 86 2300 000/00 RMK AO2 LTG DSNT NW T01390117
03812KAVL AVL20160511065015005/11/16 06:50:31  5-MIN KAVL 111150Z 00000KT 10SM BKN110 14/12 A3019 1920 86 2300 000/00 RMK AO2 LTG DSNT N AND NW SLP204 T01390117 10167 20122 55000
03812KAVL AVL20160511065512505/11/16 06:55:31  5-MIN KAVL 111155Z 00000KT 10SM BKN110 14/12 A3020 1910 83 2300 000/00 RMK AO2 LTG DSNT N AND NW T01440117
03812KAVL AVL20160511070014205/11/16 07:00:31  5-MIN KAVL 111200Z 00000KT 9SM -RA BKN110 14/12 A3019 1910 86 2300 000/00 RMK AO2 LTG DSNT N AND NW RAB1156 P0000 T01440122
03812KAVL AVL20160511070514205/11/16 07:05:31  5-MIN KAVL 111205Z 00000KT 9SM -RA BKN100 14/12 A3020 1910 86 2300 000/00 RMK AO2 LTG DSNT N AND NW RAB1156 P0000 T01440122
03812KAVL AVL20160511071014305/11/16 07:10:31  5-MIN KAVL 111210Z 00000KT 10SM -RA OVC100 15/12 A3021 1900 83 2400 000/00 RMK AO2 LTG DSNT N AND NW RAB1156 P0000 T01500122
03812KAVL AVL20160511071514205/11/16 07:15:31  5-MIN KAVL 111215Z 00000KT 10SM OVC100 15/12 A3021 1900 83 2400 000/00 RMK AO2 LTG DSNT N AND NW RAB1156E14 P0000 T01500122
03812KAVL AVL20160511072014305/11/16 07:20:31  5-MIN KAVL 111220Z VRB03KT 10SM -RA OVC100 15/12 A3021 1900 83 2400 VRB/03 RMK AO2 LTG DSNT N AND NW RAB1156 P0000 T01500122
03812KAVL AVL20160511072515005/11/16 07:25:31  5-MIN KAVL 111225Z 34005KT 10SM -RA BKN100 OVC120 15/13 A3022 1900 86 2400 350/05 RMK AO2 LTG DSNT N AND NW RAB1156 P0000 T01500128
03812KAVL AVL20160511073013905/11/16 07:30:31  5-MIN KAVL 111230Z 31003KT 10SM OVC110 14/13 A3022 1890 90 2300 310/03 RMK AO2 LTG DSNT NW-NE RAB1156E30 P0000 T01440128
03812KAVL AVL20160511073513805/11/16 07:35:31  5-MIN KAVL 111235Z 25003KT 9SM OVC110 14/13 A3022 1890 90 2300 250/03 RMK AO2 LTG DSNT NW-NE RAB1156E30 P0000 T01440128
03812KAVL AVL20160511074014105/11/16 07:40:31  5-MIN KAVL 111240Z 00000KT 8SM OVC100 14/13 A3022 1890 90 2300 000/00 RMK AO2 LTG DSNT N AND NE RAB1156E30 P0000 T01440128
03812KAVL AVL20160511074512305/11/16 07:45:31  5-MIN KAVL 111245Z 00000KT 8SM OVC100 14/13 A3022 1890 90 2300 000/00 RMK AO2 RAB1156E30 P0000 T01440128
03812KAVL AVL20160511075013005/11/16 07:50:31  5-MIN KAVL 111250Z 00000KT 8SM OVC100 14/13 A3022 1890 90 2300 000/00 RMK AO2 RAB1156E30 SLP215 P0000 T01440128
03812KAVL AVL20160511075510605/11/16 07:55:31  5-MIN KAVL 111255Z 20003KT 8SM OVC100 14/13 A3022 1890 90 2300 200/03 RMK AO2 T01440128
03812KAVL AVL20160511080010605/11/16 08:00:31  5-MIN KAVL 111300Z 21003KT 8SM OVC100 14/13 A3022 1890 90 2300 220/03 RMK AO2 T01440128
03812KAVL AVL20160511080510605/11/16 08:05:31  5-MIN KAVL 111305Z 00000KT 7SM OVC100 14/13 A3022 1890 90 2300 000/00 RMK AO2 T01440128
03812KAVL AVL20160511081010605/11/16 08:10:31  5-MIN KAVL 111310Z 00000KT 7SM OVC100 14/13 A3022 1890 90 2300 000/00 RMK AO2 T01440128
03812KAVL AVL20160511081511805/11/16 08:15:31  5-MIN KAVL 111315Z 00000KT 7SM OVC100 14/13 A3022 1890 90 2300 000/00 RMK AO2 LTG DSNT NW T01440128
03812KAVL AVL20160511082014005/11/16 08:20:31  5-MIN KAVL 111320Z 00000KT 7SM -RA OVC095 15/13 A3022 1890 86 2400 000/00 RMK AO2 LTG DSNT N AND NW RAB19 P0000 T01500128
03812KAVL AVL20160511082514005/11/16 08:25:31  5-MIN KAVL 111325Z 34006KT 9SM -RA OVC095 15/13 A3022 1890 86 2400 340/06 RMK AO2 LTG DSNT N AND NW RAB19 P0000 T01500128
03812KAVL AVL20160511083014005/11/16 08:30:31  5-MIN KAVL 111330Z 33004KT 10SM OVC090 15/13 A3021 1900 86 2400 340/04 RMK AO2 LTG DSNT N AND NW RAB19E30 P0000 T01500128
03812KAVL AVL20160511083514005/11/16 08:35:31  5-MIN KAVL 111335Z 34003KT 10SM OVC090 15/13 A3021 1900 86 2400 340/03 RMK AO2 LTG DSNT N AND NW RAB19E30 P0000 T01500128
03812KAVL AVL20160511084014705/11/16 08:40:31  5-MIN KAVL 111340Z 32005KT 10SM -RA OVC095 15/13 A3022 1890 86 2400 330/05 RMK AO2 LTG DSNT N AND NW RAB19E30B37 P0000 T01500128
03812KAVL AVL20160511084514705/11/16 08:45:31  5-MIN KAVL 111345Z 00000KT 10SM -RA OVC090 15/13 A3022 1890 86 2400 000/00 RMK AO2 LTG DSNT N AND NW RAB19E30B37 P0000 T01500128
03812KAVL AVL20160511085015405/11/16 08:50:31  5-MIN KAVL 111350Z 28003KT 10SM FEW080 OVC095 15/13 A3022 1890 86 2400 280/03 RMK AO2 LTG DSNT NW RAB19E30B37E46 SLP217 P0000 T01500128
03812KAVL AVL20160511085513505/11/16 08:55:31  5-MIN KAVL 111355Z 00000KT 8SM -RA FEW070 OVC095 15/13 A3022 1890 86 2400 000/00 RMK AO2 LTG DSNT NW P0000 T01500128
03812KAVL AVL20160511090012805/11/16 09:00:31  5-MIN KAVL 111400Z 00000KT 8SM -RA OVC095 15/13 A3022 1890 86 2400 000/00 RMK AO2 LTG DSNT NW P0000 T01500128
03812KAVL AVL20160511090512305/11/16 09:05:31  5-MIN KAVL 111405Z 00000KT 9SM -RA FEW080 OVC100 15/13 A3022 1890 86 2400 000/00 RMK AO2 P0000 T01500128
03812KAVL AVL20160511091012605/11/16 09:10:31  5-MIN KAVL 111410Z 00000KT 10SM FEW080 OVC100 16/13 A3023 1890 83 2400 000/00 RMK AO2 RAE10 P0000 T01560128
03812KAVL AVL20160511091512605/11/16 09:15:31  5-MIN KAVL 111415Z 00000KT 10SM SCT080 OVC095 15/13 A3023 1880 86 2400 000/00 RMK AO2 RAE10 P0000 T01500128
03812KAVL AVL20160511092013305/11/16 09:20:31  5-MIN KAVL 111420Z 00000KT 10SM FEW055 BKN080 OVC095 16/13 A3023 1880 83 2400 000/00 RMK AO2 RAE10 P0000 T01560128
03812KAVL AVL20160511092513205/11/16 09:25:31  5-MIN KAVL 111425Z 36003KT 6SM RA BR FEW055 BKN080 OVC095 16/13 A3022 1890 86 2400 010/03 RMK AO2 P0000 T01560133
03812KAVL AVL20160511093013305/11/16 09:30:31  5-MIN KAVL 111430Z 01003KT 6SM -RA BR FEW035 BKN080 OVC095 16/13 A3022 1890 86 2400 010/03 RMK AO2 P0001 T01560133
03812KAVL AVL20160511093513005/11/16 09:35:31  5-MIN KAVL 111435Z 00000KT 7SM -RA SCT027 BKN075 OVC090 16/13 A3022 1890 83 2500 000/00 RMK AO2 P0001 T01610133
03812KAVL AVL20160511094014205/11/16 09:40:31  5-MIN KAVL 111440Z 00000KT 9SM -RA SCT023 SCT055 BKN075 16/13 A3022 1890 83 2500 000/00 RMK AO2 LTG DSNT NE P0001 T01610133
03812KAVL AVL20160511094514505/11/16 09:45:31  5-MIN KAVL 111445Z 02003KT 10SM FEW026 SCT060 BKN085 17/14 A3022 1890 83 2600 020/03 RMK AO2 LTG DSNT NE RAE44 P0001 T01670139
03812KAVL AVL20160511095016405/11/16 09:50:31  5-MIN KAVL 111450Z VRB03KT 10SM FEW026 BKN060 BKN085 17/14 A3022 1890 83 2600 VRB/03 RMK AO2 LTG DSNT NE RAE44 SLP216 P0001 60001 T01670139 53013
03812KAVL AVL20160511095511405/11/16 09:55:31  5-MIN KAVL 111455Z 35004KT 10SM FEW031 BKN060 18/14 A3022 1890 81 2700 360/04 RMK AO2 T01780144
03812KAVL AVL20160511100011405/11/16 10:00:31  5-MIN KAVL 111500Z 34006KT 10SM FEW029 SCT060 18/14 A3022 1890 81 2700 340/06 RMK AO2 T01780144
03812KAVL AVL20160511100510705/11/16 10:05:31  5-MIN KAVL 111505Z 36005KT 10SM FEW060 18/14 A3022 1890 81 2700 010/05 RMK AO2 T01780144
03812KAVL AVL20160511101010705/11/16 10:10:31  5-MIN KAVL 111510Z 36005KT 10SM FEW060 18/14 A3021 1900 78 2800 010/05 RMK AO2 T01830144
03812KAVL AVL20160511101510705/11/16 10:15:31  5-MIN KAVL 111515Z 00000KT 10SM FEW060 19/15 A3021 1900 78 2800 000/00 RMK AO2 T01890150
03812KAVL AVL20160511102011605/11/16 10:20:31  5-MIN KAVL 111520Z VRB03KT 10SM CLR 19/15 A3021 1900 78 2800 VRB/03 RMK AO2 LTG DSNT NW T01890150
03812KAVL AVL20160511102512205/11/16 10:25:31  5-MIN KAVL 111525Z 00000KT 10SM CLR 19/14 A3021 1900 75 2800 000/00 RMK AO2 LTG DSNT N AND NW T01890144
03812KAVL AVL20160511103012205/11/16 10:30:31  5-MIN KAVL 111530Z 00000KT 10SM CLR 20/15 A3022 1900 72 3000 000/00 RMK AO2 LTG DSNT N AND NW T02000150
03812KAVL AVL20160511103512205/11/16 10:35:31  5-MIN KAVL 111535Z 28003KT 10SM CLR 20/15 A3022 1890 72 3000 280/03 RMK AO2 LTG DSNT N AND NW T02000150
03812KAVL AVL20160511104011505/11/16 10:40:31  5-MIN KAVL 111540Z 33004KT 10SM CLR 20/15 A3022 1890 72 2900 340/04 RMK AO2 LTG DSNT N T02000150
03812KAVL AVL20160511104512205/11/16 10:45:31  5-MIN KAVL 111545Z 33006KT 10SM CLR 20/15 A3022 1890 72 2900 340/06 RMK AO2 LTG DSNT N AND NW T02000150
03812KAVL AVL20160511105012305/11/16 10:50:31  5-MIN KAVL 111550Z 35007KT 10SM CLR 20/15 A3022 1890 72 3000 350/07 RMK AO2 LTG DSNT NW SLP211 T02000150
03812KAVL AVL20160511105511605/11/16 10:55:31  5-MIN KAVL 111555Z 34007KT 10SM CLR 21/15 A3022 1890 70 3000 340/07 RMK AO2 LTG DSNT NW T02060150
03812KAVL AVL20160511110011605/11/16 11:00:31  5-MIN KAVL 111600Z 34007KT 10SM CLR 21/14 A3022 1890 67 3000 340/07 RMK AO2 LTG DSNT NW T02060144
03812KAVL AVL20160511110510405/11/16 11:05:31  5-MIN KAVL 111605Z 35007KT 10SM CLR 21/15 A3022 1890 68 3100 350/07 RMK AO2 T02110150
03812KAVL AVL20160511111011505/11/16 11:10:31  5-MIN KAVL 111610Z 34005KT 10SM CLR 21/15 A3022 1890 68 3100 340/05 RMK AO2 LTG DSNT N T02110150
03812KAVL AVL20160511111511505/11/16 11:15:31  5-MIN KAVL 111615Z 02006KT 10SM CLR 22/15 A3021 1900 65 3100 020/06 RMK AO2 LTG DSNT N T02170150
03812KAVL AVL20160511112011505/11/16 11:20:31  5-MIN KAVL 111620Z VRB06KT 10SM CLR 22/15 A3021 1900 65 3100 VRB/06 RMK AO2 LTG DSNT N T02170150
03812KAVL AVL20160511112511505/11/16 11:25:31  5-MIN KAVL 111625Z VRB03KT 10SM CLR 22/14 A3021 1900 61 3200 VRB/03 RMK AO2 LTG DSNT N T02220144
03812KAVL AVL20160511113011505/11/16 11:30:31  5-MIN KAVL 111630Z 36004KT 10SM CLR 22/15 A3021 1900 63 3200 360/04 RMK AO2 LTG DSNT N T02220150
03812KAVL AVL20160511113512205/11/16 11:35:31  5-MIN KAVL 111635Z 00000KT 10SM CLR 22/15 A3021 1900 63 3200 000/00 RMK AO2 LTG DSNT N AND NW T02220150
03812KAVL AVL20160511114012505/11/16 11:40:31  5-MIN KAVL 111640Z 00000KT 10SM FEW085 22/14 A3021 1900 63 3100 000/00 RMK AO2 LTG DSNT N AND NW T02170144
03812KAVL AVL20160511114512505/11/16 11:45:31  5-MIN KAVL 111645Z 00000KT 10SM SCT085 22/15 A3021 1900 63 3200 000/00 RMK AO2 LTG DSNT N AND NW T02220150
03812KAVL AVL20160511115013205/11/16 11:50:31  5-MIN KAVL 111650Z 00000KT 10SM SCT085 22/14 A3021 1900 61 3200 000/00 RMK AO2 LTG DSNT N AND NW SLP209 T02220144
03812KAVL AVL20160511115512505/11/16 11:55:31  5-MIN KAVL 111655Z 34005KT 10SM FEW080 FEW095 23/15 A3021 1900 59 3300 340/05 RMK AO2 LTG DSNT N T02330150
03812KAVL AVL20160511120012605/11/16 12:00:31  5-MIN KAVL 111700Z 35004KT 10SM FEW080 FEW095 23/16 A3021 1900 61 3300 350/04 RMK AO2 LTG DSNT NW T02330156
03812KAVL AVL20160511120511905/11/16 12:05:31  5-MIN KAVL 111705Z 34006KT 10SM FEW085 23/15 A3021 1910 59 3300 350/06 RMK AO2 LTG DSNT NW T02330150
03812KAVL AVL20160511121012505/11/16 12:10:31  5-MIN KAVL 111710Z VRB04KT 10SM FEW095 23/15 A3020 1910 61 3300 VRB/04 RMK AO2 LTG DSNT N AND NW T02280150
03812KAVL AVL20160511121512505/11/16 12:15:31  5-MIN KAVL 111715Z 28003KT 10SM FEW100 23/15 A3021 1900 61 3300 290/03 RMK AO2 LTG DSNT N AND NW T02280150
03812KAVL AVL20160511122012505/11/16 12:20:31  5-MIN KAVL 111720Z 35005KT 10SM SCT100 23/15 A3021 1900 59 3300 350/05 RMK AO2 LTG DSNT N AND NW T02330150
03812KAVL AVL20160511122512505/11/16 12:25:31  5-MIN KAVL 111725Z 35004KT 10SM FEW095 23/15 A3021 1900 59 3300 350/04 RMK AO2 LTG DSNT N AND NW T02330150
03812KAVL AVL20160511123012505/11/16 12:30:31  5-MIN KAVL 111730Z 34007KT 10SM FEW100 23/15 A3021 1900 59 3300 350/07 RMK AO2 LTG DSNT N AND NW T02330150
03812KAVL AVL20160511123512505/11/16 12:35:31  5-MIN KAVL 111735Z 01007KT 10SM FEW100 24/15 A3021 1900 57 3400 020/07 RMK AO2 LTG DSNT N AND NE T02390150
03812KAVL AVL20160511124012505/11/16 12:40:31  5-MIN KAVL 111740Z 34009KT 10SM FEW100 24/15 A3020 1910 57 3400 340/09 RMK AO2 LTG DSNT N AND NE T02390150
03812KAVL AVL20160511124512205/11/16 12:45:31  5-MIN KAVL 111745Z 34009KT 10SM CLR 23/15 A3021 1910 59 3300 350/09 RMK AO2 LTG DSNT N AND NE T02330150
03812KAVL AVL20160511125014705/11/16 12:50:31  5-MIN KAVL 111750Z 36010KT 10SM CLR 23/16 A3021 1900 61 3300 360/10 RMK AO2 LTG DSNT NE SLP208 60001 T02330156 10239 20144 50006
03812KAVL AVL20160511125511605/11/16 12:55:31  5-MIN KAVL 111755Z 35010KT 10SM CLR 23/16 A3021 1900 61 3300 360/10 RMK AO2 LTG DSNT NE T02330156
03812KAVL AVL20160511130010405/11/16 13:00:31  5-MIN KAVL 111800Z 36011KT 10SM CLR 23/16 A3021 1900 61 3300 360/11 RMK AO2 T02330156
03812KAVL AVL20160511130510405/11/16 13:05:31  5-MIN KAVL 111805Z 34011KT 10SM CLR 23/16 A3020 1910 61 3300 350/11 RMK AO2 T02330156
03812KAVL AVL20160511131010405/11/16 13:10:31  5-MIN KAVL 111810Z 33011KT 10SM CLR 23/16 A3020 1910 61 3300 340/11 RMK AO2 T02330156
03812KAVL AVL20160511131510405/11/16 13:15:31  5-MIN KAVL 111815Z 34010KT 10SM CLR 24/16 A3020 1910 59 3400 340/10 RMK AO2 T02390156
03812KAVL AVL20160511132010405/11/16 13:20:31  5-MIN KAVL 111820Z 33009KT 10SM CLR 23/16 A3020 1910 63 3300 340/09 RMK AO2 T02330161
03812KAVL AVL20160511132512305/11/16 13:25:31  5-MIN KAVL 111825Z 34007KT 320V020 10SM FEW075 24/16 A3020 1910 61 3400 350/07 330V030 RMK AO2 T02390161
03812KAVL AVL20160511133010705/11/16 13:30:31  5-MIN KAVL 111830Z 34010KT 10SM FEW075 24/16 A3020 1910 61 3400 350/10 RMK AO2 T02390161
03812KAVL AVL20160511133510705/11/16 13:35:31  5-MIN KAVL 111835Z 34009KT 10SM FEW075 24/16 A3020 1910 61 3400 350/09 RMK AO2 T02390161
03812KAVL AVL20160511134010705/11/16 13:40:31  5-MIN KAVL 111840Z 35008KT 10SM FEW075 24/16 A3020 1910 57 3500 360/08 RMK AO2 T02440156
03812KAVL AVL20160511134510705/11/16 13:45:31  5-MIN KAVL 111845Z 34010KT 10SM FEW075 23/16 A3020 1910 61 3300 340/10 RMK AO2 T02330156
03812KAVL AVL20160511135013205/11/16 13:50:31  5-MIN KAVL 111850Z 35007KT 10SM FEW075 23/16 A3020 1910 61 3400 360/07 RMK AO2 LTG DSNT S AND SW SLP203 T02330156
03812KAVL AVL20160511135512205/11/16 13:55:31  5-MIN KAVL 111855Z 34009KT 10SM CLR 24/16 A3019 1920 59 3400 340/09 RMK AO2 LTG DSNT S AND SW T02390156
03812KAVL AVL20160511140012205/11/16 14:00:31  5-MIN KAVL 111900Z 34008KT 10SM CLR 24/16 A3019 1920 57 3500 350/08 RMK AO2 LTG DSNT S AND SW T02440156
03812KAVL AVL20160511140512205/11/16 14:05:31  5-MIN KAVL 111905Z 01007KT 10SM CLR 24/16 A3019 1920 57 3500 010/07 RMK AO2 LTG DSNT S AND SW T02440156
03812KAVL AVL20160511141012205/11/16 14:10:31  5-MIN KAVL 111910Z 34007KT 10SM CLR 24/16 A3018 1930 57 3500 340/07 RMK AO2 LTG DSNT S AND SW T02440156
03812KAVL AVL20160511141512205/11/16 14:15:31  5-MIN KAVL 111915Z VRB06KT 10SM CLR 25/16 A3018 1930 55 3600 VRB/06 RMK AO2 LTG DSNT S AND SW T02500156
03812KAVL AVL20160511142012905/11/16 14:20:31  5-MIN KAVL 111920Z 34008KT 10SM CLR 24/16 A3017 1940 57 3500 340/08 RMK AO2 LTG DSNT S AND SW PRESFR T02440156
03812KAVL AVL20160511142512205/11/16 14:25:31  5-MIN KAVL 111925Z 34008KT 10SM CLR 24/16 A3017 1940 57 3500 350/08 RMK AO2 LTG DSNT S AND SW T02440156
03812KAVL AVL20160511143012205/11/16 14:30:31  5-MIN KAVL 111930Z 35007KT 10SM CLR 24/16 A3017 1940 57 3500 350/07 RMK AO2 LTG DSNT S AND SW T02440156
03812KAVL AVL20160511143512205/11/16 14:35:31  5-MIN KAVL 111935Z 34007KT 10SM CLR 24/16 A3016 1940 57 3500 350/07 RMK AO2 LTG DSNT S AND SW T02440156
03812KAVL AVL20160511144012205/11/16 14:40:31  5-MIN KAVL 111940Z 35006KT 10SM CLR 24/15 A3017 1940 57 3400 350/06 RMK AO2 LTG DSNT S AND SW T02390150
03812KAVL AVL20160511144511505/11/16 14:45:31  5-MIN KAVL 111945Z 34008KT 10SM CLR 24/16 A3017 1940 57 3500 350/08 RMK AO2 LTG DSNT S T02440156
03812KAVL AVL20160511145012605/11/16 14:50:31  5-MIN KAVL 111950Z 35009KT 10SM CLR 25/16 A3017 1930 55 3600 360/09 RMK AO2 LTG DSNT SE-SW SLP195 T02500156
03812KAVL AVL20160511145511905/11/16 14:55:31  5-MIN KAVL 111955Z 34004KT 10SM CLR 24/15 A3018 1930 57 3400 340/04 RMK AO2 LTG DSNT SE-SW T02390150
03812KAVL AVL20160511150011905/11/16 15:00:31  5-MIN KAVL 112000Z 33008KT 10SM CLR 24/15 A3018 1930 57 3400 330/08 RMK AO2 LTG DSNT SE-SW T02390150
03812KAVL AVL20160511150511905/11/16 15:05:31  5-MIN KAVL 112005Z 34009KT 10SM CLR 24/16 A3018 1930 57 3500 340/09 RMK AO2 LTG DSNT SE-SW T02440156
03812KAVL AVL20160511151011905/11/16 15:10:31  5-MIN KAVL 112010Z 34009KT 10SM CLR 24/15 A3018 1930 55 3500 340/09 RMK AO2 LTG DSNT SE-SW T02440150
03812KAVL AVL20160511151511505/11/16 15:15:31  5-MIN KAVL 112015Z 33011KT 10SM CLR 24/15 A3018 1930 55 3500 340/11 RMK AO2 LTG DSNT S T02440150
03812KAVL AVL20160511152012205/11/16 15:20:31  5-MIN KAVL 112020Z 35008KT 10SM CLR 25/16 A3018 1930 55 3600 360/08 RMK AO2 LTG DSNT SE AND S T02500156
03812KAVL AVL20160511152512205/11/16 15:25:31  5-MIN KAVL 112025Z 35009KT 10SM CLR 26/16 A3018 1930 53 3600 350/09 RMK AO2 LTG DSNT SE AND S T02560156
03812KAVL AVL20160511153012205/11/16 15:30:31  5-MIN KAVL 112030Z 34010KT 10SM CLR 25/15 A3017 1930 53 3600 350/10 RMK AO2 LTG DSNT SE AND S T02500150
03812KAVL AVL20160511153510405/11/16 15:35:31  5-MIN KAVL 112035Z 34009KT 10SM CLR 26/15 A3017 1940 51 3600 340/09 RMK AO2 T02560150
03812KAVL AVL20160511154010905/11/16 15:40:31  5-MIN KAVL 112040Z 35010KT 10SM VCTS CLR 25/15 A3016 1940 53 3600 360/10 RMK AO2 T02500150
03812KAVL AVL20160511154510905/11/16 15:45:31  5-MIN KAVL 112045Z 02007KT 10SM VCTS CLR 24/14 A3016 1950 55 3500 020/07 RMK AO2 T02390144
03812KAVL AVL20160511155013405/11/16 15:50:31  5-MIN KAVL 112050Z 36006KT 10SM VCTS CLR 24/14 A3016 1950 55 3500 360/06 RMK AO2 LTG DSNT SW SLP192 T02390144 58003
03812KAVL AVL20160511155512905/11/16 15:55:31  5-MIN KAVL 112055Z 01005KT 10SM TS FEW049 24/14 A3016 1950 55 3500 020/05 RMK AO2 LTG DSNT SW AND NW T02390144
03812KAVL AVL20160511160012905/11/16 16:00:31  5-MIN KAVL 112100Z 36004KT 10SM TS FEW049 24/15 A3017 1940 55 3500 360/04 RMK AO2 LTG DSNT SW AND NW T02440150
03812KAVL AVL20160511160513605/11/16 16:05:31  5-MIN KAVL 112105Z 36007KT 10SM TS FEW049 FEW110 24/16 A3017 1940 57 3500 360/07 RMK AO2 LTG DSNT SW AND NW T02440156
03812KAVL AVL20160511161014505/11/16 16:10:31  5-MIN KAVL 112110Z 32009KT 10SM TS FEW049 FEW075 FEW110 24/16 A3016 1940 59 3500 320/09 RMK AO2 LTG DSNT SW TSE06B09 T02440161
03812KAVL AVL20160511161514405/11/16 16:15:31  5-MIN KAVL 112115Z 32008KT 10SM TS FEW049 FEW080 SCT110 24/16 A3017 1940 59 3500 330/08 RMK AO2 LTG DSNT S TSE06B09 T02440161
03812KAVL AVL20160511162014405/11/16 16:20:31  5-MIN KAVL 112120Z 32006KT 10SM TS FEW049 SCT070 BKN110 24/16 A3016 1940 61 3400 330/06 RMK AO2 LTG DSNT S TSE06B09 T02390161
03812KAVL AVL20160511162516605/11/16 16:25:31  5-MIN KAVL 112125Z 32004KT 10SM -TSRA FEW049 SCT090 BKN110 23/17 A3016 1940 66 3400 330/04 RMK AO2 LTG DSNT S AND SW RAB21 TSE06B09 P0000 T02330167
03812KAVL AVL20160511163016505/11/16 16:30:31  5-MIN KAVL 112130Z 31005KT 8SM -TSRA FEW060 SCT080 BKN100 23/17 A3016 1940 70 3300 320/05 RMK AO2 LTG DSNT S AND SW RAB21 TSE06B09 P0000 T02280172
03812KAVL AVL20160511163516505/11/16 16:35:31  5-MIN KAVL 112135Z 00000KT 8SM -TSRA FEW029 SCT055 BKN075 23/17 A3017 1940 70 3300 000/00 RMK AO2 LTG DSNT S AND SW RAB21 TSE06B09 P0001 T02280172
03812KAVL AVL20160511164016605/11/16 16:40:31  5-MIN KAVL 112140Z 21003KT 10SM -TSRA SCT027 BKN050 OVC110 23/17 A3017 1940 68 3400 210/03 RMK AO2 LTG DSNT S AND SW RAB21 TSE06B09 P0001 T02330172
03812KAVL AVL20160511164516605/11/16 16:45:31  5-MIN KAVL 112145Z 20008KT 10SM -TSRA BKN027 BKN055 OVC100 23/18 A3017 1930 73 3300 200/08 RMK AO2 LTG DSNT SE AND S RAB21 TSE06B09 P0001 T02280178
03812KAVL AVL20160511165016905/11/16 16:50:31  5-MIN KAVL 112150Z 20006KT 10SM BKN027 BKN055 OVC080 22/17 A3017 1940 70 3300 210/06 RMK AO2 LTG DSNT E-SW RAB21E46 TSE06B09E49 SLP198 P0001 T02220167
03812KAVL AVL20160511165513505/11/16 16:55:31  5-MIN KAVL 112155Z 19005KT 10SM BKN025 BKN034 OVC055 22/17 A3017 1940 70 3300 190/05 RMK AO2 LTG DSNT E-SW T02220167
03812KAVL AVL20160511170013505/11/16 17:00:31  5-MIN KAVL 112200Z 20005KT 10SM FEW025 SCT055 BKN090 23/17 A3017 1940 70 3300 210/05 RMK AO2 LTG DSNT E-SW T02280172
03812KAVL AVL20160511170513405/11/16 17:05:31  5-MIN KAVL 112205Z 21005KT 10SM FEW025 SCT055 BKN090 23/17 A3017 1940 68 3300 210/05 RMK AO2 LTG DSNT E-S T02280167
03812KAVL AVL20160511171013405/11/16 17:10:31  5-MIN KAVL 112210Z 22003KT 10SM FEW025 SCT055 BKN090 23/16 A3016 1940 65 3300 230/03 RMK AO2 LTG DSNT E-S T02280161
03812KAVL AVL20160511171513405/11/16 17:15:31  5-MIN KAVL 112215Z VRB04KT 10SM FEW025 SCT055 BKN090 23/16 A3016 1940 63 3400 VRB/04 RMK AO2 LTG DSNT E-S T02330161
03812KAVL AVL20160511172013905/11/16 17:20:31  5-MIN KAVL 112220Z 23005KT 10SM FEW025 SCT055 BKN090 23/17 A3017 1940 66 3400 240/05 RMK AO2 LTG DSNT E AND SE T02330167
03812KAVL AVL20160511172513205/11/16 17:25:31  5-MIN KAVL 112225Z VRB04KT 10SM FEW025 SCT055 BKN090 23/17 A3016 1940 66 3400 VRB/04 RMK AO2 LTG DSNT E T02330167
03812KAVL AVL20160511173013205/11/16 17:30:31  5-MIN KAVL 112230Z 24003KT 10SM FEW025 SCT055 BKN090 23/16 A3016 1940 63 3400 250/03 RMK AO2 LTG DSNT E T02330161
03812KAVL AVL20160511173512105/11/16 17:35:31  5-MIN KAVL 112235Z 00000KT 10SM FEW025 SCT055 BKN090 23/17 A3016 1950 66 3400 000/00 RMK AO2 T02330167
03812KAVL AVL20160511174012105/11/16 17:40:31  5-MIN KAVL 112240Z 18005KT 10SM FEW025 SCT055 BKN090 23/17 A3016 1950 66 3400 180/05 RMK AO2 T02330167
03812KAVL AVL20160511174512105/11/16 17:45:31  5-MIN KAVL 112245Z 18005KT 10SM FEW025 SCT055 BKN090 23/16 A3016 1950 65 3300 180/05 RMK AO2 T02280161
03812KAVL AVL20160511175012805/11/16 17:50:31  5-MIN KAVL 112250Z 17003KT 10SM FEW025 SCT055 BKN090 23/16 A3016 1950 65 3300 180/03 RMK AO2 SLP193 T02280161
03812KAVL AVL20160511175510405/11/16 17:55:31  5-MIN KAVL 112255Z 17006KT 10SM CLR 23/16 A3016 1950 65 3300 170/06 RMK AO2 T02280161
03812KAVL AVL20160511180010405/11/16 18:00:31  5-MIN KAVL 112300Z 17005KT 10SM CLR 23/16 A3015 1950 63 3300 180/05 RMK AO2 T02280156
03812KAVL AVL20160511180510405/11/16 18:05:31  5-MIN KAVL 112305Z 17003KT 10SM CLR 23/16 A3015 1950 63 3300 170/03 RMK AO2 T02280156
03812KAVL AVL20160511181010405/11/16 18:10:31  5-MIN KAVL 112310Z 19004KT 10SM CLR 23/16 A3016 1950 63 3300 200/04 RMK AO2 T02280156
03812KAVL AVL20160511181510405/11/16 18:15:31  5-MIN KAVL 112315Z 19003KT 10SM CLR 23/16 A3015 1950 63 3300 200/03 RMK AO2 T02280156
03812KAVL AVL20160511182010405/11/16 18:20:31  5-MIN KAVL 112320Z 00000KT 10SM CLR 23/16 A3015 1950 63 3300 000/00 RMK AO2 T02280156
03812KAVL AVL20160511182510405/11/16 18:25:31  5-MIN KAVL 112325Z 00000KT 10SM CLR 23/16 A3015 1950 61 3400 000/00 RMK AO2 T02330156
03812KAVL AVL20160511183010405/11/16 18:30:31  5-MIN KAVL 112330Z 30003KT 10SM CLR 23/16 A3015 1950 63 3400 310/03 RMK AO2 T02330161
03812KAVL AVL20160511183510405/11/16 18:35:31  5-MIN KAVL 112335Z 32003KT 10SM CLR 23/16 A3015 1950 63 3400 330/03 RMK AO2 T02330161
03812KAVL AVL20160511184010405/11/16 18:40:31  5-MIN KAVL 112340Z 35003KT 10SM CLR 23/16 A3015 1950 65 3300 360/03 RMK AO2 T02280161
03812KAVL AVL20160511184510405/11/16 18:45:31  5-MIN KAVL 112345Z 34004KT 10SM CLR 23/16 A3015 1950 65 3300 340/04 RMK AO2 T02280161
03812KAVL AVL20160511185013505/11/16 18:50:31  5-MIN KAVL 112350Z 34004KT 10SM CLR 23/16 A3016 1950 65 3300 340/04 RMK AO2 SLP192 60001 T02280161 10256 20222 57016
03812KAVL AVL20160511185510405/11/16 18:55:31  5-MIN KAVL 112355Z 00000KT 10SM CLR 23/16 A3016 1950 65 3300 000/00 RMK AO2 T02280161
03812KAVL AVL20160511190010405/11/16 19:00:31  5-MIN KAVL 120000Z 00000KT 10SM CLR 23/16 A3016 1950 65 3300 000/00 RMK AO2 T02280161
03812KAVL AVL20160511190510405/11/16 19:05:31  5-MIN KAVL 120005Z 00000KT 10SM CLR 22/17 A3016 1950 70 3300 000/00 RMK AO2 T02220167
03812KAVL AVL20160511191010405/11/16 19:10:31  5-MIN KAVL 120010Z 00000KT 10SM CLR 22/17 A3016 1940 70 3300 000/00 RMK AO2 T02220167
03812KAVL AVL20160511191510405/11/16 19:15:31  5-MIN KAVL 120015Z 24003KT 10SM CLR 22/17 A3017 1940 73 3200 250/03 RMK AO2 T02170167
03812KAVL AVL20160511192010405/11/16 19:20:31  5-MIN KAVL 120020Z 24003KT 10SM CLR 21/17 A3016 1940 75 3100 240/03 RMK AO2 T02110167
03812KAVL AVL20160511192510405/11/16 19:25:31  5-MIN KAVL 120025Z 23004KT 10SM CLR 21/17 A3016 1940 78 3100 230/04 RMK AO2 T02110172
03812KAVL AVL20160511193010405/11/16 19:30:31  5-MIN KAVL 120030Z 23003KT 10SM CLR 21/18 A3017 1940 84 3100 240/03 RMK AO2 T02060178
03812KAVL AVL20160511193510405/11/16 19:35:31  5-MIN KAVL 120035Z 00000KT 10SM CLR 21/18 A3017 1940 84 3100 000/00 RMK AO2 T02060178
03812KAVL AVL20160511194010405/11/16 19:40:31  5-MIN KAVL 120040Z 15003KT 10SM CLR 21/17 A3017 1940 81 3100 160/03 RMK AO2 T02060172
03812KAVL AVL20160511194510405/11/16 19:45:31  5-MIN KAVL 120045Z 17003KT 10SM CLR 20/17 A3017 1940 81 3000 170/03 RMK AO2 T02000167
03812KAVL AVL20160511195011105/11/16 19:50:31  5-MIN KAVL 120050Z 17003KT 10SM CLR 20/17 A3017 1940 81 3000 170/03 RMK AO2 SLP199 T02000167
03812KAVL AVL20160511195510405/11/16 19:55:31  5-MIN KAVL 120055Z 00000KT 10SM CLR 20/17 A3017 1940 81 3000 000/00 RMK AO2 T02000167
03812KAVL AVL20160511200010405/11/16 20:00:31  5-MIN KAVL 120100Z 00000KT 10SM CLR 20/17 A3017 1940 81 3000 000/00 RMK AO2 T02000167
03812KAVL AVL20160511200510405/11/16 20:05:31  5-MIN KAVL 120105Z 00000KT 10SM CLR 20/17 A3017 1930 81 3000 000/00 RMK AO2 T02000167
03812KAVL AVL20160511201010405/11/16 20:10:31  5-MIN KAVL 120110Z 00000KT 10SM CLR 20/17 A3017 1940 81 3000 000/00 RMK AO2 T02000167
03812KAVL AVL20160511201510405/11/16 20:15:31  5-MIN KAVL 120115Z 00000KT 10SM CLR 20/17 A3017 1940 81 3000 000/00 RMK AO2 T02000167
03812KAVL AVL20160511202010405/11/16 20:20:31  5-MIN KAVL 120120Z 00000KT 10SM CLR 20/17 A3018 1930 81 3000 000/00 RMK AO2 T02000167
03812KAVL AVL20160511202510405/11/16 20:25:31  5-MIN KAVL 120125Z 00000KT 10SM CLR 20/17 A3018 1930 81 3000 000/00 RMK AO2 T02000167
03812KAVL AVL20160511203010405/11/16 20:30:31  5-MIN KAVL 120130Z 00000KT 10SM CLR 20/17 A3018 1930 81 3000 000/00 RMK AO2 T02000167
03812KAVL AVL20160511203510405/11/16 20:35:31  5-MIN KAVL 120135Z 00000KT 10SM CLR 19/17 A3018 1930 84 2900 000/00 RMK AO2 T01940167
03812KAVL AVL20160511204010405/11/16 20:40:31  5-MIN KAVL 120140Z 00000KT 10SM CLR 19/17 A3018 1930 84 2900 000/00 RMK AO2 T01940167
03812KAVL AVL20160511204510305/11/16 20:45:31  5-MIN KAVL 120145Z 00000KT 9SM CLR 19/17 A3018 1930 87 2900 000/00 RMK AO2 T01890167
03812KAVL AVL20160511205011005/11/16 20:50:31  5-MIN KAVL 120150Z 00000KT 9SM CLR 19/17 A3019 1920 87 2900 000/00 RMK AO2 SLP205 T01890167
03812KAVL AVL20160511205510305/11/16 20:55:31  5-MIN KAVL 120155Z 00000KT 9SM CLR 19/17 A3019 1920 87 2900 000/00 RMK AO2 T01890167
03812KAVL AVL20160511210010305/11/16 21:00:31  5-MIN KAVL 120200Z 00000KT 9SM CLR 19/17 A3019 1920 87 2900 000/00 RMK AO2 T01890167
03812KAVL AVL20160511210510305/11/16 21:05:31  5-MIN KAVL 120205Z 00000KT 9SM CLR 19/17 A3019 1920 87 2900 000/00 RMK AO2 T01890167
03812KAVL AVL20160511211010305/11/16 21:10:31  5-MIN KAVL 120210Z 00000KT 9SM CLR 19/17 A3019 1920 87 2900 000/00 RMK AO2 T01890167
03812KAVL AVL20160511211510305/11/16 21:15:31  5-MIN KAVL 120215Z 00000KT 9SM CLR 18/16 A3019 1920 87 2800 000/00 RMK AO2 T01830161
03812KAVL AVL20160511212010305/11/16 21:20:31  5-MIN KAVL 120220Z 00000KT 9SM CLR 18/16 A3019 1920 87 2800 000/00 RMK AO2 T01830161
03812KAVL AVL20160511212510405/11/16 21:25:31  5-MIN KAVL 120225Z 00000KT 10SM CLR 18/16 A3020 1910 87 2800 000/00 RMK AO2 T01830161
03812KAVL AVL20160511213010305/11/16 21:30:31  5-MIN KAVL 120230Z 00000KT 9SM CLR 18/16 A3019 1920 87 2800 000/00 RMK AO2 T01830161
03812KAVL AVL20160511213510305/11/16 21:35:31  5-MIN KAVL 120235Z 00000KT 9SM CLR 18/16 A3020 1910 87 2800 000/00 RMK AO2 T01830161
03812KAVL AVL20160511214010305/11/16 21:40:31  5-MIN KAVL 120240Z 00000KT 9SM CLR 18/16 A3020 1910 87 2800 000/00 RMK AO2 T01830161
03812KAVL AVL20160511214510405/11/16 21:45:31  5-MIN KAVL 120245Z 00000KT 10SM CLR 18/16 A3020 1910 87 2800 000/00 RMK AO2 T01830161
03812KAVL AVL20160511215011705/11/16 21:50:31  5-MIN KAVL 120250Z 00000KT 10SM CLR 18/16 A3020 1910 87 2800 000/00 RMK AO2 SLP207 T01830161 55004
03812KAVL AVL20160511215510905/11/16 21:55:31  5-MIN KAVL 120255Z AUTO 00000KT 10SM CLR 18/16 A3020 1910 90 2700 000/00 RMK AO2 T01780161
03812KAVL AVL20160511220010905/11/16 22:00:31  5-MIN KAVL 120300Z AUTO 18003KT 10SM CLR 18/16 A3020 1910 87 2700 190/03 RMK AO2 T01780156
03812KAVL AVL20160511220510805/11/16 22:05:31  5-MIN KAVL 120305Z AUTO 00000KT 9SM CLR 18/16 A3019 1920 90 2700 000/00 RMK AO2 T01780161
03812KAVL AVL20160511221010805/11/16 22:10:31  5-MIN KAVL 120310Z AUTO 00000KT 8SM CLR 17/16 A3019 1920 90 2700 000/00 RMK AO2 T01720156
03812KAVL AVL20160511221510805/11/16 22:15:31  5-MIN KAVL 120315Z AUTO 00000KT 8SM CLR 18/16 A3019 1920 87 2700 000/00 RMK AO2 T01780156
03812KAVL AVL20160511222010805/11/16 22:20:31  5-MIN KAVL 120320Z AUTO 16003KT 9SM CLR 18/16 A3019 1920 87 2700 160/03 RMK AO2 T01780156
03812KAVL AVL20160511222510805/11/16 22:25:31  5-MIN KAVL 120325Z AUTO 18003KT 9SM CLR 17/16 A3019 1920 90 2700 190/03 RMK AO2 T01720156
03812KAVL AVL20160511223010805/11/16 22:30:31  5-MIN KAVL 120330Z AUTO 00000KT 9SM CLR 17/16 A3019 1920 90 2700 000/00 RMK AO2 T01720156
03812KAVL AVL20160511223510805/11/16 22:35:31  5-MIN KAVL 120335Z AUTO 00000KT 9SM CLR 17/16 A3019 1920 90 2700 000/00 RMK AO2 T01720156
03812KAVL AVL20160511224010805/11/16 22:40:31  5-MIN KAVL 120340Z AUTO 00000KT 9SM CLR 17/16 A3019 1920 90 2700 000/00 RMK AO2 T01720156
03812KAVL AVL20160511224512505/11/16 22:45:31  5-MIN KAVL 120345Z AUTO 00000KT 8SM R35/6000VP6000FT CLR 17/16 A3019 1920 90 2700 000/00 RMK AO2 T01720156
03812KAVL AVL20160511225013205/11/16 22:50:31  5-MIN KAVL 120350Z AUTO 00000KT 8SM R35/6000VP6000FT CLR 17/15 A3019 1920 87 2700 000/00 RMK AO2 SLP202 T01720150
03812KAVL AVL20160511225513205/11/16 22:55:31  5-MIN KAVL 120355Z AUTO 00000KT 3/4SM R35/4500VP6000FT BR VV002 17/16 A3019 1920 93 2600 000/00 RMK AO2 T01670156
03812KAVL AVL20160511230013205/11/16 23:00:31  5-MIN KAVL 120400Z AUTO 00000KT 1/4SM R35/1000VP6000FT FG VV001 17/16 A3019 1920 93 2600 000/00 RMK AO2 T01670156
03812KAVL AVL20160511230513105/11/16 23:05:31  5-MIN KAVL 120405Z AUTO 00000KT 1/4SM R35/1000V3000FT FG VV002 17/16 A3018 1920 93 2600 000/00 RMK AO2 T01670156
03812KAVL AVL20160511231013005/11/16 23:10:31  5-MIN KAVL 120410Z AUTO 00000KT 1SM R35/1400VP6000FT BR VV002 17/16 A3019 1920 93 2600 000/00 RMK AO2 T01670156
03812KAVL AVL20160511231513105/11/16 23:15:31  5-MIN KAVL 120415Z AUTO 00000KT 5SM R35/2000VP6000FT BR SCT002 17/16 A3019 1920 93 2600 000/00 RMK AO2 T01670156
03812KAVL AVL20160511232012805/11/16 23:20:31  5-MIN KAVL 120420Z AUTO 00000KT 7SM R35/2000VP6000FT SCT002 17/15 A3019 1920 90 2600 000/00 RMK AO2 T01670150
03812KAVL AVL20160511232512805/11/16 23:25:31  5-MIN KAVL 120425Z AUTO 00000KT 7SM R35/2200VP6000FT FEW002 16/15 A3019 1920 93 2500 000/00 RMK AO2 T01610150
03812KAVL AVL20160511233010805/11/16 23:30:31  5-MIN KAVL 120430Z AUTO 00000KT 8SM CLR 16/15 A3018 1920 93 2500 000/00 RMK AO2 T01610150
03812KAVL AVL20160511233510805/11/16 23:35:31  5-MIN KAVL 120435Z AUTO 00000KT 8SM CLR 16/15 A3018 1930 93 2500 000/00 RMK AO2 T01610150
03812KAVL AVL20160511234010805/11/16 23:40:31  5-MIN KAVL 120440Z AUTO 00000KT 7SM CLR 16/15 A3019 1920 93 2500 000/00 RMK AO2 T01610150
03812KAVL AVL20160511234510805/11/16 23:45:31  5-MIN KAVL 120445Z AUTO 00000KT 8SM CLR 16/15 A3019 1920 93 2500 000/00 RMK AO2 T01610150
03812KAVL AVL20160511235012505/11/16 23:50:31  5-MIN KAVL 120450Z AUTO 32003KT 8SM CLR 16/15 A3018 1920 93 2500 330/03 RMK AO2 SLP200 T01610150 402560122
03812KAVL AVL20160511235512505/11/16 23:55:31  5-MIN KAVL 120455Z AUTO 31004KT 8SM R35/2400VP6000FT CLR 16/14 A3018 1920 93 2500 310/04 RMK AO2 T01560144
03812KAVL AVL20160512000012505/12/16 00:00:31  5-MIN KAVL 120500Z AUTO 25003KT 8SM R35/1800VP6000FT CLR 16/14 A3019 1920 93 2500 260/03 RMK AO2 T01560144
03812KAVL AVL20160512000512705/12/16 00:05:31  5-MIN KAVL 120505Z AUTO 00000KT 5SM R35/1400V2200FT BR CLR 15/14 A3018 1920 93 2400 000/00 RMK AO2 T01500139
03812KAVL AVL20160512001012705/12/16 00:10:31  5-MIN KAVL 120510Z AUTO 00000KT 5SM R35/1400V1800FT BR CLR 15/14 A3018 1930 93 2400 000/00 RMK AO2 T01500139
03812KAVL AVL20160512001512705/12/16 00:15:31  5-MIN KAVL 120515Z AUTO 00000KT 5SM R35/1400V1800FT BR CLR 15/14 A3018 1930 93 2400 000/00 RMK AO2 T01500139
03812KAVL AVL20160512002012805/12/16 00:20:31  5-MIN KAVL 120520Z AUTO 00000KT 6SM R35/1400VP6000FT BR CLR 16/14 A3018 1930 90 2500 000/00 RMK AO2 T01560139
03812KAVL AVL20160512002512505/12/16 00:25:31  5-MIN KAVL 120525Z AUTO 00000KT 7SM R35/1400VP6000FT CLR 16/14 A3018 1930 90 2500 000/00 RMK AO2 T01560139
03812KAVL AVL20160512003012505/12/16 00:30:31  5-MIN KAVL 120530Z AUTO 00000KT 8SM R35/1800VP6000FT CLR 16/14 A3018 1930 93 2500 000/00 RMK AO2 T01560144
03812KAVL AVL20160512003512405/12/16 00:35:31  5-MIN KAVL 120535Z AUTO 32004KT 9SM R35/1800V3000FT CLR 16/14 A3018 1930 90 2500 320/04 RMK AO2 T01560139
03812KAVL AVL20160512004012505/12/16 00:40:31  5-MIN KAVL 120540Z AUTO 34003KT 9SM R35/2400VP6000FT CLR 16/14 A3018 1930 90 2500 350/03 RMK AO2 T01560139
03812KAVL AVL20160512004512805/12/16 00:45:31  5-MIN KAVL 120545Z AUTO 33004KT 6SM R35/2400VP6000FT BR CLR 16/14 A3018 1930 90 2500 330/04 RMK AO2 T01560139
03812KAVL AVL20160512005015605/12/16 00:50:31  5-MIN KAVL 120550Z AUTO 33003KT 2SM R35/1400VP6000FT BR SCT002 16/14 A3018 1930 93 2500 340/03 RMK AO2 SLP198 T01560144 10228 20150 51013
03812KAVL AVL20160512005513405/12/16 00:55:31  5-MIN KAVL 120555Z AUTO 31004KT 2 1/2SM R35/1400V4500FT BR SCT002 16/14 A3018 1930 93 2500 310/04 RMK AO2 T01560144
03812KAVL AVL20160512010013005/12/16 01:00:31  5-MIN KAVL 120600Z AUTO 00000KT 4SM R35/1400V2600FT BR FEW003 15/14 A3017 1930 93 2400 000/00 RMK AO2 T01500139
03812KAVL AVL20160512010513705/12/16 01:05:31  5-MIN KAVL 120605Z AUTO 00000KT 3SM R35/1200V2600FT BR FEW003 SCT006 15/14 A3017 1930 93 2400 000/00 RMK AO2 T01500139
03812KAVL AVL20160512011013705/12/16 01:10:31  5-MIN KAVL 120610Z AUTO 00000KT 4SM R35/1200V1800FT BR FEW002 SCT006 15/14 A3017 1940 93 2400 000/00 RMK AO2 T01500139
03812KAVL AVL20160512011513705/12/16 01:15:31  5-MIN KAVL 120615Z AUTO 00000KT 5SM R35/1200V2200FT BR FEW002 SCT006 15/14 A3017 1940 93 2400 000/00 RMK AO2 T01500139
03812KAVL AVL20160512012013705/12/16 01:20:31  5-MIN KAVL 120620Z AUTO 00000KT 4SM R35/1600V2800FT BR FEW001 FEW006 15/14 A3017 1940 93 2400 000/00 RMK AO2 T01500139
03812KAVL AVL20160512012514705/12/16 01:25:31  5-MIN KAVL 120625Z AUTO 00000KT 2SM R35/1800V2800FT BR FEW001 SCT006 15/13 A3016 1940 90 2400 000/00 RMK AO2 VIS 3/4V5 T01500133
03812KAVL AVL20160512013013105/12/16 01:30:31  5-MIN KAVL 120630Z AUTO 00000KT 3/4SM R35/1400V2000FT BR VV004 15/13 A3017 1940 90 2400 000/00 RMK AO2 T01500133
03812KAVL AVL20160512013513105/12/16 01:35:31  5-MIN KAVL 120635Z AUTO 00000KT 1/2SM R35/1200V2200FT FG VV002 14/13 A3017 1940 93 2400 000/00 RMK AO2 T01440133
03812KAVL AVL20160512014013105/12/16 01:40:31  5-MIN KAVL 120640Z AUTO 00000KT 1/2SM R35/1000V2200FT FG VV002 14/13 A3016 1940 93 2400 000/00 RMK AO2 T01440133
03812KAVL AVL20160512014513105/12/16 01:45:31  5-MIN KAVL 120645Z AUTO 00000KT 1/4SM R35/1000V1600FT FG VV001 14/13 A3016 1940 93 2400 000/00 RMK AO2 T01440133
03812KAVL AVL20160512015013805/12/16 01:50:31  5-MIN KAVL 120650Z AUTO 00000KT 1/4SM R35/1400V2000FT FG VV001 14/13 A3016 1950 93 2400 000/00 RMK AO2 SLP192 T01440133
03812KAVL AVL20160512015513105/12/16 01:55:31  5-MIN KAVL 120655Z AUTO 00000KT 1/4SM R35/1600V2400FT FG VV001 14/13 A3016 1950 93 2400 000/00 RMK AO2 T01440133
03812KAVL AVL20160512020013105/12/16 02:00:31  5-MIN KAVL 120700Z AUTO 00000KT 1/4SM R35/0800V2400FT FG VV001 14/13 A3016 1950 93 2400 000/00 RMK AO2 T01440133
03812KAVL AVL20160512020513105/12/16 02:05:31  5-MIN KAVL 120705Z AUTO 01003KT 1/4SM R35/0800V1400FT FG VV001 14/13 A3016 1940 93 2400 020/03 RMK AO2 T01440133
03812KAVL AVL20160512021013105/12/16 02:10:31  5-MIN KAVL 120710Z AUTO 00000KT 1/4SM R35/0800V1000FT FG VV001 14/14 A3016 1950 96 2400 000/00 RMK AO2 T01440139
03812KAVL AVL20160512021513105/12/16 02:15:31  5-MIN KAVL 120715Z AUTO 00000KT 1/4SM R35/0800V1400FT FG VV002 14/14 A3016 1950 96 2400 000/00 RMK AO2 T01440139
03812KAVL AVL20160512022013105/12/16 02:20:31  5-MIN KAVL 120720Z AUTO 00000KT 1/2SM R35/1000V3500FT FG VV002 14/14 A3016 1950 96 2400 000/00 RMK AO2 T01440139
03812KAVL AVL20160512022513505/12/16 02:25:31  5-MIN KAVL 120725Z AUTO 00000KT 1 1/2SM R35/1800VP6000FT BR OVC002 14/13 A3016 1950 93 2400 000/00 RMK AO2 T01440133
03812KAVL AVL20160512023011405/12/16 02:30:31  5-MIN KAVL 120730Z AUTO 00000KT 3SM BR BKN002 14/13 A3016 1950 93 2400 000/00 RMK AO2 T01440133
03812KAVL AVL20160512023511405/12/16 02:35:31  5-MIN KAVL 120735Z AUTO 34004KT 4SM BR BKN002 14/13 A3016 1950 93 2300 350/04 RMK AO2 T01390128
03812KAVL AVL20160512024011405/12/16 02:40:31  5-MIN KAVL 120740Z AUTO 00000KT 6SM BR SCT002 14/13 A3016 1950 93 2300 000/00 RMK AO2 T01390128
03812KAVL AVL20160512024511105/12/16 02:45:31  5-MIN KAVL 120745Z AUTO 00000KT 7SM FEW002 14/13 A3016 1950 93 2400 000/00 RMK AO2 T01440133
03812KAVL AVL20160512025013505/12/16 02:50:31  5-MIN KAVL 120750Z AUTO 33003KT 8SM R35/6000VP6000FT FEW002 14/13 A3016 1950 93 2300 340/03 RMK AO2 SLP192 T01390128
03812KAVL AVL20160512025512505/12/16 02:55:31  5-MIN KAVL 120755Z AUTO 00000KT 8SM R35/6000VP6000FT CLR 13/13 A3016 1950 96 2200 000/00 RMK AO2 T01330128
03812KAVL AVL20160512030010805/12/16 03:00:31  5-MIN KAVL 120800Z AUTO 00000KT 9SM CLR 14/13 A3016 1950 96 2300 000/00 RMK AO2 T01390133
03812KAVL AVL20160512030510805/12/16 03:05:31  5-MIN KAVL 120805Z AUTO 00000KT 9SM CLR 14/13 A3016 1950 93 2300 000/00 RMK AO2 T01390128
03812KAVL AVL20160512031010905/12/16 03:10:31  5-MIN KAVL 120810Z AUTO 00000KT 10SM CLR 14/13 A3016 1940 93 2300 000/00 RMK AO2 T01390128
03812KAVL AVL20160512031510905/12/16 03:15:31  5-MIN KAVL 120815Z AUTO 33004KT 10SM CLR 14/12 A3016 1940 90 2300 330/04 RMK AO2 T01390122
03812KAVL AVL20160512032010905/12/16 03:20:31  5-MIN KAVL 120820Z AUTO 33005KT 10SM CLR 14/13 A3016 1940 93 2300 340/05 RMK AO2 T01390128
03812KAVL AVL20160512032510905/12/16 03:25:31  5-MIN KAVL 120825Z AUTO 34004KT 10SM CLR 14/13 A3016 1940 93 2300 350/04 RMK AO2 T01390128
03812KAVL AVL20160512033012605/12/16 03:30:31  5-MIN KAVL 120830Z AUTO 34004KT 10SM R35/5000VP6000FT CLR 14/13 A3017 1940 93 2300 340/04 RMK AO2 T01390128
03812KAVL AVL20160512033512605/12/16 03:35:31  5-MIN KAVL 120835Z AUTO 00000KT 10SM R35/5000VP6000FT CLR 14/13 A3017 1940 90 2400 000/00 RMK AO2 T01440128
03812KAVL AVL20160512034011105/12/16 03:40:31  5-MIN KAVL 120840Z AUTO 00000KT 9SM FEW002 14/13 A3017 1940 90 2400 000/00 RMK AO2 T01440128
03812KAVL AVL20160512034511405/12/16 03:45:31  5-MIN KAVL 120845Z AUTO 00000KT 3SM BR SCT002 14/13 A3017 1940 93 2300 000/00 RMK AO2 T01390128
03812KAVL AVL20160512035013305/12/16 03:50:31  5-MIN KAVL 120850Z AUTO 00000KT 1 3/4SM R35/6000VP6000FT BR BKN002 14/13 A3017 1940 93 2300 000/00 RMK AO2 VIS 1V3
03812KAVL AVL20160512035513205/12/16 03:55:31  5-MIN KAVL 120855Z AUTO 00000KT 3/4SM R35/2800VP6000FT BR VV002 14/13 A3017 1940 93 2400 000/00 RMK AO2 T01440133
03812KAVL AVL20160512040013205/12/16 04:00:31  5-MIN KAVL 120900Z AUTO 00000KT 1/2SM R35/1800VP6000FT FG VV002 14/13 A3017 1940 93 2300 000/00 RMK AO2 T01390128
03812KAVL AVL20160512040513105/12/16 04:05:31  5-MIN KAVL 120905Z AUTO 00000KT 3/4SM R35/1600V2200FT BR VV002 14/13 A3017 1940 96 2300 000/00 RMK AO2 T01390133
03812KAVL AVL20160512041011605/12/16 04:10:31  5-MIN KAVL 120910Z 00000KT 3/4SM BR VV002 14/13 A3017 1940 96 2300 000/00 RMK AO2 T01390133 RVRNO
03812KAVL AVL20160512041511605/12/16 04:15:31  5-MIN KAVL 120915Z 29003KT 1/2SM FG VV002 14/13 A3017 1940 96 2300 300/03 RMK AO2 T01390133 RVRNO
03812KAVL AVL20160512042011605/12/16 04:20:31  5-MIN KAVL 120920Z 31004KT 1/2SM FG VV002 14/13 A3017 1930 96 2300 310/04 RMK AO2 T01390133 RVRNO
03812KAVL AVL20160512042511605/12/16 04:25:31  5-MIN KAVL 120925Z 30004KT 1/2SM FG VV002 14/13 A3017 1930 93 2400 310/04 RMK AO2 T01440133 RVRNO
03812KAVL AVL20160512043011605/12/16 04:30:31  5-MIN KAVL 120930Z 33004KT 1/2SM FG VV002 14/13 A3018 1930 93 2400 330/04 RMK AO2 T01440133 RVRNO
03812KAVL AVL20160512043511605/12/16 04:35:31  5-MIN KAVL 120935Z 34007KT 1/2SM FG VV002 14/13 A3018 1930 93 2300 340/07 RMK AO2 T01440133 RVRNO
03812KAVL AVL20160512044011605/12/16 04:40:31  5-MIN KAVL 120940Z 35008KT 1/2SM FG VV002 14/13 A3018 1920 93 2300 350/08 RMK AO2 T01440133 RVRNO
03812KAVL AVL20160512044511605/12/16 04:45:31  5-MIN KAVL 120945Z 34012KT 3/4SM BR VV002 14/13 A3019 1920 93 2300 350/12 RMK AO2 T01440133 RVRNO
03812KAVL AVL20160512045011605/12/16 04:50:31  5-MIN KAVL 120950Z 34007KT 3SM BR OVC002 14/14 A3019 1920 96 2300 350/07 RMK AO2 SLP203 T01440139
03812KAVL AVL20160512045510905/12/16 04:55:31  5-MIN KAVL 120955Z 34009KT 5SM BR OVC002 14/14 A3019 1920 96 2300 350/09 RMK AO2 T01440139
03812KAVL AVL20160512050010905/12/16 05:00:31  5-MIN KAVL 121000Z 34010KT 6SM BR OVC002 14/13 A3019 1920 93 2300 350/10 RMK AO2 T01440133
03812KAVL AVL20160512050510605/12/16 05:05:31  5-MIN KAVL 121005Z 34008KT 7SM OVC002 14/13 A3019 1920 93 2300 350/08 RMK AO2 T01440133
03812KAVL AVL20160512051010605/12/16 05:10:31  5-MIN KAVL 121010Z 34007KT 8SM BKN003 14/13 A3019 1920 93 2300 350/07 RMK AO2 T01440133
03812KAVL AVL20160512051510605/12/16 05:15:31  5-MIN KAVL 121015Z 33007KT 8SM BKN003 14/13 A3019 1920 93 2300 340/07 RMK AO2 T01440133
03812KAVL AVL20160512052010605/12/16 05:20:31  5-MIN KAVL 121020Z 32005KT 8SM SCT003 14/13 A3019 1920 93 2300 330/05 RMK AO2 T01390128
03812KAVL AVL20160512052510905/12/16 05:25:31  5-MIN KAVL 121025Z 33006KT 3SM BR BKN003 14/13 A3019 1920 93 2300 330/06 RMK AO2 T01390128
03812KAVL AVL20160512053010905/12/16 05:30:31  5-MIN KAVL 121030Z 34006KT 3SM BR BKN003 14/13 A3019 1910 96 2300 340/06 RMK AO2 T01390133
03812KAVL AVL20160512053510905/12/16 05:35:31  5-MIN KAVL 121035Z 35004KT 3SM BR BKN003 14/13 A3020 1910 93 2300 350/04 RMK AO2 T01440133
03812KAVL AVL20160512054010905/12/16 05:40:31  5-MIN KAVL 121040Z 36004KT 3SM BR BKN003 14/13 A3020 1910 90 2300 360/04 RMK AO2 T01440128
03812KAVL AVL20160512054510905/12/16 05:45:31  5-MIN KAVL 121045Z 36005KT 3SM BR BKN003 14/13 A3020 1910 93 2300 010/05 RMK AO2 T01440133
03812KAVL AVL20160512055009905/12/16 05:50:31  5-MIN KAVL 121050Z 34005KT 5SM BR SCT003 15/13 A3020 1910 90 2400 340/05 RMK AO2
03812KAVL AVL20160512055510405/12/16 05:55:31  5-MIN KAVL 121055Z 33005KT 10SM CLR 15/13 A3020 1910 90 2400 330/05 RMK AO2 T01500133
03812KAVL AVL20160512060010405/12/16 06:00:31  5-MIN KAVL 121100Z 32004KT 10SM CLR 15/13 A3020 1910 90 2400 330/04 RMK AO2 T01500133
03812KAVL AVL20160512060510405/12/16 06:05:31  5-MIN KAVL 121105Z 31004KT 10SM CLR 15/13 A3020 1910 90 2400 320/04 RMK AO2 T01500133
03812KAVL AVL20160512061010405/12/16 06:10:31  5-MIN KAVL 121110Z 33004KT 10SM CLR 15/13 A3020 1910 90 2400 330/04 RMK AO2 T01500133
03812KAVL AVL20160512061510405/12/16 06:15:31  5-MIN KAVL 121115Z 33005KT 10SM CLR 15/13 A3020 1910 90 2400 340/05 RMK AO2 T01500133
03812KAVL AVL20160512062010405/12/16 06:20:31  5-MIN KAVL 121120Z 34004KT 10SM CLR 16/13 A3020 1910 86 2500 350/04 RMK AO2 T01560133
03812KAVL AVL20160512062510405/12/16 06:25:31  5-MIN KAVL 121125Z 36004KT 10SM CLR 16/13 A3020 1910 86 2500 010/04 RMK AO2 T01560133
03812KAVL AVL20160512063010405/12/16 06:30:31  5-MIN KAVL 121130Z 36003KT 10SM CLR 16/14 A3019 1910 86 2500 360/03 RMK AO2 T01610139
03812KAVL AVL20160512063510405/12/16 06:35:31  5-MIN KAVL 121135Z 35004KT 10SM CLR 16/14 A3019 1920 86 2500 360/04 RMK AO2 T01610139
03812KAVL AVL20160512064010405/12/16 06:40:31  5-MIN KAVL 121140Z 36004KT 10SM CLR 17/14 A3019 1920 83 2600 360/04 RMK AO2 T01670139
03812KAVL AVL20160512064510405/12/16 06:45:31  5-MIN KAVL 121145Z 00000KT 10SM CLR 17/14 A3019 1920 80 2700 000/00 RMK AO2 T01720139
03812KAVL AVL20160512065013505/12/16 06:50:31  5-MIN KAVL 121150Z 00000KT 10SM CLR 17/14 A3019 1920 80 2700 000/00 RMK AO2 SLP201 70002 T01720139 10172 20133 55002
03812KAVL AVL20160512065510405/12/16 06:55:31  5-MIN KAVL 121155Z 33003KT 10SM CLR 18/14 A3019 1920 81 2700 340/03 RMK AO2 T01780144
03812KAVL AVL20160512070010405/12/16 07:00:31  5-MIN KAVL 121200Z 00000KT 10SM CLR 18/14 A3019 1920 81 2700 000/00 RMK AO2 T01780144
03812KAVL AVL20160512070510405/12/16 07:05:31  5-MIN KAVL 121205Z 00000KT 10SM CLR 17/14 A3019 1920 83 2700 000/00 RMK AO2 T01720144
03812KAVL AVL20160512071010405/12/16 07:10:31  5-MIN KAVL 121210Z 00000KT 10SM CLR 17/14 A3018 1920 83 2700 000/00 RMK AO2 T01720144
03812KAVL AVL20160512071510405/12/16 07:15:31  5-MIN KAVL 121215Z 00000KT 10SM CLR 17/14 A3018 1930 83 2700 000/00 RMK AO2 T01720144
03812KAVL AVL20160512072010405/12/16 07:20:31  5-MIN KAVL 121220Z 00000KT 10SM CLR 17/14 A3018 1920 83 2700 000/00 RMK AO2 T01720144
03812KAVL AVL20160512072510405/12/16 07:25:31  5-MIN KAVL 121225Z 00000KT 10SM CLR 18/14 A3018 1930 81 2700 000/00 RMK AO2 T01780144
03812KAVL AVL20160512073010405/12/16 07:30:31  5-MIN KAVL 121230Z 00000KT 10SM CLR 18/14 A3018 1930 81 2700 000/00 RMK AO2 T01780144
03812KAVL AVL20160512073510405/12/16 07:35:31  5-MIN KAVL 121235Z 00000KT 10SM CLR 18/14 A3018 1930 81 2700 000/00 RMK AO2 T01780144
03812KAVL AVL20160512074010405/12/16 07:40:31  5-MIN KAVL 121240Z 00000KT 10SM CLR 18/15 A3018 1930 83 2700 000/00 RMK AO2 T01780150
03812KAVL AVL20160512074510405/12/16 07:45:31  5-MIN KAVL 121245Z 00000KT 10SM CLR 18/14 A3018 1930 81 2700 000/00 RMK AO2 T01780144
03812KAVL AVL20160512075011105/12/16 07:50:31  5-MIN KAVL 121250Z 00000KT 10SM CLR 18/14 A3019 1920 81 2700 000/00 RMK AO2 SLP202 T01780144
03812KAVL AVL20160512075510405/12/16 07:55:31  5-MIN KAVL 121255Z 23003KT 10SM CLR 17/14 A3019 1920 83 2700 240/03 RMK AO2 T01720144
03812KAVL AVL20160512080010405/12/16 08:00:31  5-MIN KAVL 121300Z 22004KT 10SM CLR 17/14 A3019 1920 83 2700 220/04 RMK AO2 T01720144
03812KAVL AVL20160512080510405/12/16 08:05:31  5-MIN KAVL 121305Z 22003KT 10SM CLR 18/15 A3019 1920 83 2700 220/03 RMK AO2 T01780150
03812KAVL AVL20160512081010405/12/16 08:10:31  5-MIN KAVL 121310Z 00000KT 10SM CLR 18/15 A3019 1920 81 2800 000/00 RMK AO2 T01830150
03812KAVL AVL20160512081510405/12/16 08:15:31  5-MIN KAVL 121315Z 00000KT 10SM CLR 18/15 A3019 1920 81 2800 000/00 RMK AO2 T01830150
03812KAVL AVL20160512082010405/12/16 08:20:31  5-MIN KAVL 121320Z 00000KT 10SM CLR 19/16 A3019 1920 81 2900 000/00 RMK AO2 T01890156
03812KAVL AVL20160512082510405/12/16 08:25:31  5-MIN KAVL 121325Z 00000KT 10SM CLR 18/15 A3019 1920 81 2800 000/00 RMK AO2 T01830150
03812KAVL AVL20160512083010405/12/16 08:30:31  5-MIN KAVL 121330Z 00000KT 10SM CLR 19/16 A3019 1920 78 2900 000/00 RMK AO2 T01940156
03812KAVL AVL20160512083510405/12/16 08:35:31  5-MIN KAVL 121335Z 00000KT 10SM CLR 19/16 A3018 1930 78 2900 000/00 RMK AO2 T01940156
03812KAVL AVL20160512084010405/12/16 08:40:31  5-MIN KAVL 121340Z 00000KT 10SM CLR 20/16 A3018 1930 75 3000 000/00 RMK AO2 T02000156
03812KAVL AVL20160512084510405/12/16 08:45:31  5-MIN KAVL 121345Z VRB03KT 10SM CLR 20/16 A3018 1930 75 3000 VRB/03 RMK AO2 T02000156
03812KAVL AVL20160512085011105/12/16 08:50:31  5-MIN KAVL 121350Z 00000KT 10SM CLR 21/16 A3018 1930 70 3100 000/00 RMK AO2 SLP197 T02110156
03812KAVL AVL20160512085510405/12/16 08:55:31  5-MIN KAVL 121355Z 23004KT 10SM CLR 21/16 A3018 1930 73 3100 240/04 RMK AO2 T02110161
03812KAVL AVL20160512090010405/12/16 09:00:31  5-MIN KAVL 121400Z 00000KT 10SM CLR 21/16 A3018 1930 70 3100 000/00 RMK AO2 T02110156
03812KAVL AVL20160512090510405/12/16 09:05:31  5-MIN KAVL 121405Z 00000KT 10SM CLR 22/16 A3018 1930 70 3200 000/00 RMK AO2 T02170161
03812KAVL AVL20160512091010405/12/16 09:10:31  5-MIN KAVL 121410Z 00000KT 10SM CLR 22/16 A3018 1930 68 3200 000/00 RMK AO2 T02170156
03812KAVL AVL20160512091510405/12/16 09:15:31  5-MIN KAVL 121415Z 00000KT 10SM CLR 22/16 A3018 1930 70 3200 000/00 RMK AO2 T02170161
03812KAVL AVL20160512092010405/12/16 09:20:31  5-MIN KAVL 121420Z 15003KT 10SM CLR 22/16 A3018 1930 68 3200 160/03 RMK AO2 T02220161
03812KAVL AVL20160512092510405/12/16 09:25:31  5-MIN KAVL 121425Z 00000KT 10SM CLR 22/16 A3018 1930 68 3200 000/00 RMK AO2 T02220161
03812KAVL AVL20160512093010405/12/16 09:30:31  5-MIN KAVL 121430Z 00000KT 10SM CLR 23/16 A3018 1930 65 3300 000/00 RMK AO2 T02280161
03812KAVL AVL20160512093510405/12/16 09:35:31  5-MIN KAVL 121435Z 00000KT 10SM CLR 23/16 A3018 1930 63 3300 000/00 RMK AO2 T02280156
03812KAVL AVL20160512094010405/12/16 09:40:31  5-MIN KAVL 121440Z 00000KT 10SM CLR 24/14 A3018 1930 55 3400 000/00 RMK AO2 T02390144
03812KAVL AVL20160512094510405/12/16 09:45:31  5-MIN KAVL 121445Z 00000KT 10SM CLR 24/15 A3018 1930 57 3400 000/00 RMK AO2 T02390150
03812KAVL AVL20160512095011705/12/16 09:50:31  5-MIN KAVL 121450Z 17004KT 10SM CLR 23/16 A3018 1930 61 3400 170/04 RMK AO2 SLP195 T02330156 50005
03812KAVL AVL20160512095510405/12/16 09:55:31  5-MIN KAVL 121455Z 00000KT 10SM CLR 23/15 A3018 1930 59 3400 000/00 RMK AO2 T02330150
03812KAVL AVL20160512100010405/12/16 10:00:31  5-MIN KAVL 121500Z 00000KT 10SM CLR 24/16 A3018 1930 59 3400 000/00 RMK AO2 T02390156
03812KAVL AVL20160512100510405/12/16 10:05:31  5-MIN KAVL 121505Z 00000KT 10SM CLR 24/15 A3018 1930 57 3400 000/00 RMK AO2 T02390150
03812KAVL AVL20160512101010405/12/16 10:10:31  5-MIN KAVL 121510Z VRB03KT 10SM CLR 24/15 A3018 1930 55 3500 VRB/03 RMK AO2 T02440150
03812KAVL AVL20160512101510405/12/16 10:15:31  5-MIN KAVL 121515Z 00000KT 10SM CLR 25/15 A3018 1930 53 3600 000/00 RMK AO2 T02500150
03812KAVL AVL20160512102010405/12/16 10:20:31  5-MIN KAVL 121520Z 00000KT 10SM CLR 24/14 A3018 1930 53 3500 000/00 RMK AO2 T02440144
03812KAVL AVL20160512102510405/12/16 10:25:31  5-MIN KAVL 121525Z 33003KT 10SM CLR 26/15 A3018 1930 51 3600 340/03 RMK AO2 T02560150
03812KAVL AVL20160512103011505/12/16 10:30:31  5-MIN KAVL 121530Z 00000KT 10SM VCTS CLR 26/14 A3017 1930 49 3600 000/00 RMK AO2 TSE29 T02560144
03812KAVL AVL20160512103511505/12/16 10:35:31  5-MIN KAVL 121535Z 00000KT 10SM VCTS CLR 26/14 A3018 1930 49 3600 000/00 RMK AO2 TSE29 T02560144
03812KAVL AVL20160512104011505/12/16 10:40:31  5-MIN KAVL 121540Z 27004KT 10SM VCTS CLR 26/14 A3018 1930 48 3700 270/04 RMK AO2 TSE29 T02610144
03812KAVL AVL20160512104511005/12/16 10:45:31  5-MIN KAVL 121545Z 00000KT 10SM CLR 25/14 A3017 1930 49 3600 000/00 RMK AO2 TSE29 T02500139
03812KAVL AVL20160512105011705/12/16 10:50:31  5-MIN KAVL 121550Z 00000KT 10SM CLR 26/14 A3017 1940 49 3600 000/00 RMK AO2 TSE29 SLP192 T02560144
03812KAVL AVL20160512105510405/12/16 10:55:31  5-MIN KAVL 121555Z 19004KT 10SM CLR 25/15 A3017 1940 53 3600 200/04 RMK AO2 T02500150
03812KAVL AVL20160512110010405/12/16 11:00:31  5-MIN KAVL 121600Z 00000KT 10SM CLR 25/14 A3017 1940 51 3600 000/00 RMK AO2 T02500144
03812KAVL AVL20160512110510705/12/16 11:05:31  5-MIN KAVL 121605Z 00000KT 10SM FEW110 25/14 A3016 1940 49 3600 000/00 RMK AO2 T02500139
03812KAVL AVL20160512111010705/12/16 11:10:31  5-MIN KAVL 121610Z 00000KT 10SM FEW120 25/14 A3016 1940 49 3600 000/00 RMK AO2 T02500139
03812KAVL AVL20160512111510705/12/16 11:15:31  5-MIN KAVL 121615Z 00000KT 10SM FEW120 25/13 A3016 1940 48 3600 000/00 RMK AO2 T02500133
03812KAVL AVL20160512112010705/12/16 11:20:31  5-MIN KAVL 121620Z 00000KT 10SM SCT120 26/13 A3016 1950 44 3600 000/00 RMK AO2 T02560128
03812KAVL AVL20160512112510705/12/16 11:25:31  5-MIN KAVL 121625Z VRB03KT 10SM SCT120 26/13 A3016 1950 46 3600 VRB/03 RMK AO2 T02560133
03812KAVL AVL20160512113010705/12/16 11:30:31  5-MIN KAVL 121630Z 00000KT 10SM FEW120 26/14 A3016 1950 48 3600 000/00 RMK AO2 T02560139
03812KAVL AVL20160512113510705/12/16 11:35:31  5-MIN KAVL 121635Z VRB03KT 10SM FEW120 26/14 A3015 1950 49 3700 VRB/03 RMK AO2 T02560144
03812KAVL AVL20160512114010705/12/16 11:40:31  5-MIN KAVL 121640Z 33005KT 10SM FEW120 26/16 A3015 1960 51 3700 330/05 RMK AO2 T02610156
03812KAVL AVL20160512114512005/12/16 11:45:31  5-MIN KAVL 121645Z 34006KT 10SM VCTS CLR 25/15 A3014 1960 53 3600 340/06 RMK AO2 LTG DSNT W T02500150
03812KAVL AVL20160512115011305/12/16 11:50:31  5-MIN KAVL 121650Z 33006KT 10SM VCTS FEW110 25/14 A3015 1960 51 3600 340/06 RMK AO2 LTG DSNT W
03812KAVL AVL20160512115512805/12/16 11:55:31  5-MIN KAVL 121655Z 32006KT 10SM TS FEW055 FEW070 25/16 A3014 1960 55 3600 330/06 RMK AO2 LTG DSNT W T02500156
03812KAVL AVL20160512120015205/12/16 12:00:31  5-MIN KAVL 121700Z 31006KT 10SM -TSRA FEW055 SCT070 BKN090 24/16 A3014 1960 59 3500 320/06 RMK AO2 LTG DSNT W RAB1656 P0000 T02440161
03812KAVL AVL20160512120514105/12/16 12:05:31  5-MIN KAVL 121705Z 32007KT 10SM -TSRA FEW033 SCT075 BKN090 24/18 A3014 1960 68 3500 320/07 RMK AO2 RAB1656 P0000 T02390178
03812KAVL AVL20160512121015005/12/16 12:10:31  5-MIN KAVL 121710Z 32007KT 10SM VCTS -RA FEW033 SCT075 BKN095 23/17 A3014 1970 68 3400 330/07 RMK AO2 RAB1656 TSE07 P0000 T02330172
03812KAVL AVL20160512121515005/12/16 12:15:31  5-MIN KAVL 121715Z 33008KT 10SM VCTS -RA FEW033 BKN095 OVC110 23/18 A3013 1970 70 3400 330/08 RMK AO2 RAB1656 TSE07 P0000 T02330178
03812KAVL AVL20160512122015005/12/16 12:20:31  5-MIN KAVL 121720Z 33007KT 10SM VCTS -RA FEW033 BKN095 OVC110 23/17 A3013 1970 68 3400 340/07 RMK AO2 RAB1656 TSE07 P0000 T02280167
03812KAVL AVL20160512122516205/12/16 12:25:31  5-MIN KAVL 121725Z 32006KT 10SM -TSRA FEW033 FEW075 OVC100 23/16 A3014 1970 63 3400 330/06 RMK AO2 LTG DSNT SW RAB1656 TSE07B24 P0000 T02280156
03812KAVL AVL20160512123016105/12/16 12:30:31  5-MIN KAVL 121730Z 32005KT 7SM -TSRA FEW031 BKN090 OVC110 22/15 A3014 1970 63 3300 330/05 RMK AO2 LTG DSNT SW RAB1656 TSE07B24 P0000 T02220150
03812KAVL AVL20160512123516005/12/16 12:35:31  5-MIN KAVL 121735Z 35004KT 4SM TSRA FEW055 BKN095 OVC110 22/14 A3014 1970 63 3200 350/04 RMK AO2 LTG DSNT SW RAB1656 TSE07B24 P0001 T02170144
03812KAVL AVL20160512124016105/12/16 12:40:31  5-MIN KAVL 121740Z 35007KT 4SM -TSRA FEW055 BKN095 OVC110 21/14 A3013 1970 65 3200 360/07 RMK AO2 LTG DSNT SW RAB1656 TSE07B24 P0003 T02110144
03812KAVL AVL20160512124515405/12/16 12:45:31  5-MIN KAVL 121745Z 01008KT 7SM -TSRA FEW080 OVC100 21/16 A3013 1970 73 3100 010/08 RMK AO2 LTG DSNT SW RAB1656 TSE07B24 P0003 T02060156
03812KAVL AVL20160512125019305/12/16 12:50:31  5-MIN KAVL 121750Z 02005KT 10SM -TSRA FEW060 BKN090 OVC110 21/16 A3012 1980 75 3100 030/05 RMK AO2 LTG DSNT SW RAB1656 TSE07B24 SLP181 P0003 60003 T02060161 10261 20172 58003
03812KAVL AVL20160512125513105/12/16 12:55:31  5-MIN KAVL 121755Z 22004KT 10SM -RA FEW055 SCT080 BKN100 21/16 A3013 1980 73 3200 230/04 RMK AO2 P0000 T02110161
03812KAVL AVL20160512130013505/12/16 13:00:31  5-MIN KAVL 121800Z 00000KT 10SM FEW050 SCT080 BKN100 21/16 A3012 1980 73 3200 000/00 RMK AO2 RAE1758 P0000 T02110161
03812KAVL AVL20160512130515405/12/16 13:05:31  5-MIN KAVL 121805Z 00000KT 10SM FEW048 FEW080 OVC100 21/16 A3011 1990 73 3200 000/00 RMK AO2 LTG DSNT NE AND SW RAE1758 P0000 T02110161
03812KAVL AVL20160512131016805/12/16 13:10:31  5-MIN KAVL 121810Z AUTO 00000KT 10SM TS FEW050 BKN090 OVC110 21/17 A3011 1990 75 3200 000/00 RMK AO2 LTG DSNT NE AND SW RAE1758 TSB06 P0000 T02110167
03812KAVL AVL20160512131516305/12/16 13:15:31  5-MIN KAVL 121815Z AUTO 26003KT 10SM -TSRA FEW050 BKN095 OVC110 21/17 A3012 1990 75 3200 260/03 RMK AO2 LTG DSNT NE AND SW TSB06 P0000 T02110167
03812KAVL AVL20160512132015605/12/16 13:20:31  5-MIN KAVL 121820Z AUTO 00000KT 10SM -TSRA FEW050 BKN090 OVC110 22/17 A3012 1990 73 3300 000/00 RMK AO2 LTG DSNT SW TSB06 P0000 T02170167
03812KAVL AVL20160512132515505/12/16 13:25:31  5-MIN KAVL 121825Z AUTO 00000KT 10SM -TSRA FEW050 BKN090 OVC110 22/17 A3012 1990 73 3300 000/00 RMK AO2 LTG DSNT N TSB06 P0000 T02170167
03812KAVL AVL20160512133015105/12/16 13:30:31  5-MIN KAVL 121830Z 32004KT 10SM -RA FEW050 SCT070 OVC095 22/17 A3011 1990 73 3300 330/04 RMK AO2 LTG DSNT N TSB06E26 P0000 T02170167
03812KAVL AVL20160512133515805/12/16 13:35:31  5-MIN KAVL 121835Z 28006KT 10SM -RA FEW055 FEW075 OVC100 21/17 A3011 1990 78 3200 290/06 RMK AO2 LTG DSNT N AND SW TSB06E26 P0000 T02110172
03812KAVL AVL20160512134016005/12/16 13:40:31  5-MIN KAVL 121840Z 31004KT 10SM FEW048 SCT070 OVC100 21/17 A3011 1990 75 3200 320/04 RMK AO2 LTG DSNT N AND SW RAE37 TSB06E26 P0000 T02110167
03812KAVL AVL20160512134515805/12/16 13:45:31  5-MIN KAVL 121845Z 33004KT 10SM -RA FEW055 SCT075 OVC100 22/16 A3011 2000 70 3300 340/04 RMK AO2 LTG DSNT N AND SW TSB06E26 P0000 T02170161
03812KAVL AVL20160512135015405/12/16 13:50:31  5-MIN KAVL 121850Z 35005KT 10SM -RA FEW055 OVC100 21/17 A3010 2000 75 3200 360/05 RMK AO2 LTG DSNT SW-N TSB06E26 SLP175 P0000 T02110167
03812KAVL AVL20160512135513805/12/16 13:55:31  5-MIN KAVL 121855Z 31006KT 10SM -RA FEW060 OVC100 21/17 A3010 2000 78 3200 310/06 RMK AO2 LTG DSNT SW-N P0000 T02110172
03812KAVL AVL20160512140014605/12/16 14:00:31  5-MIN KAVL 121900Z 23005KT 10SM -RA FEW050 SCT070 OVC095 21/17 A3011 1990 78 3200 230/05 RMK AO2 LTG DSNT ALQDS P0000 T02110172
03812KAVL AVL20160512140515605/12/16 14:05:31  5-MIN KAVL 121905Z 24005KT 10SM -RA FEW048 BKN090 OVC100 21/17 A3011 1990 78 3200 250/05 RMK AO2 LTG DSNT N AND NE AND SW P0000 T02110172
03812KAVL AVL20160512141015605/12/16 14:10:31  5-MIN KAVL 121910Z 00000KT 10SM -RA SCT046 BKN080 OVC095 21/17 A3010 2000 75 3200 000/00 RMK AO2 LTG DSNT N AND NE AND SW P0000 T02110167
03812KAVL AVL20160512141514605/12/16 14:15:31  5-MIN KAVL 121915Z 00000KT 10SM -RA FEW029 BKN070 OVC100 22/16 A3010 2000 68 3300 000/00 RMK AO2 LTG DSNT ALQDS P0000 T02220161
03812KAVL AVL20160512142014805/12/16 14:20:31  5-MIN KAVL 121920Z 00000KT 10SM FEW044 SCT060 OVC100 23/17 A3009 2010 68 3400 000/00 RMK AO2 LTG DSNT ALQDS RAE20 P0000 T02280167
03812KAVL AVL20160512142514605/12/16 14:25:31  5-MIN KAVL 121925Z 00000KT 10SM FEW055 SCT080 BKN100 22/16 A3009 2010 68 3300 000/00 RMK AO2 LTG DSNT S-W RAE20 P0000 T02220161
03812KAVL AVL20160512143015305/12/16 14:30:31  5-MIN KAVL 121930Z 25003KT 10SM VCTS FEW047 SCT070 BKN100 23/16 A3009 2010 65 3400 260/03 RMK AO2 LTG DSNT ALQDS RAE20 P0000 T02280161
03812KAVL AVL20160512143515305/12/16 14:35:31  5-MIN KAVL 121935Z 19004KT 10SM VCTS FEW028 SCT049 BKN100 23/17 A3009 2010 66 3500 200/04 RMK AO2 LTG DSNT ALQDS RAE20 P0000 T02330167
03812KAVL AVL20160512144016005/12/16 14:40:31  5-MIN KAVL 121940Z 20007KT 10SM VCTS -RA FEW032 SCT049 BKN100 23/17 A3009 2010 70 3400 200/07 RMK AO2 LTG DSNT ALQDS RAE20B38 P0000 T02280172
03812KAVL AVL20160512144516005/12/16 14:45:31  5-MIN KAVL 121945Z 21010KT 10SM VCTS -RA FEW032 SCT050 BKN110 23/16 A3009 2010 65 3400 210/10 RMK AO2 LTG DSNT ALQDS RAE20B38 P0000 T02280161
03812KAVL AVL20160512145016605/12/16 14:50:31  5-MIN KAVL 121950Z 20010KT 10SM VCTS FEW032 FEW050 OVC100 22/17 A3009 2010 70 3300 200/10 RMK AO2 LTG DSNT ALQDS RAE20B38E49 SLP171 P0000 T02220167
03812KAVL AVL20160512145515705/12/16 14:55:31  5-MIN KAVL 121955Z 20009KT 10SM -RA FEW032 SCT050 OVC100 21/17 A3010 2010 78 3200 210/09 RMK AO2 LTG DSNT SE AND SW AND NW P0000 T02110172
03812KAVL AVL20160512150014605/12/16 15:00:31  5-MIN KAVL 122000Z 19007KT 10SM -RA FEW032 BKN100 OVC120 21/17 A3009 2010 75 3200 200/07 RMK AO2 LTG DSNT ALQDS P0000 T02110167
03812KAVL AVL20160512150515605/12/16 15:05:31  5-MIN KAVL 122005Z 20007KT 10SM -RA FEW032 BKN100 OVC120 21/17 A3009 2010 75 3200 200/07 RMK AO2 LTG DSNT SE AND W AND NW P0000 T02110167
03812KAVL AVL20160512151014205/12/16 15:10:31  5-MIN KAVL 122010Z 21005KT 10SM -RA OVC100 21/17 A3009 2010 78 3200 220/05 RMK AO2 LTG DSNT SE AND W AND NW P0000 T02060167
03812KAVL AVL20160512151513405/12/16 15:15:31  5-MIN KAVL 122015Z 22005KT 7SM RA FEW046 OVC100 21/17 A3010 2010 78 3200 230/05 RMK AO2 LTG DSNT NW P0001 T02060167
03812KAVL AVL20160512152014805/12/16 15:20:31  5-MIN KAVL 122020Z 20006KT 5SM RA FEW049 SCT075 OVC100 20/17 A3010 2010 81 3100 210/06 RMK AO2 LTG DSNT SE AND NW P0002 T02000167
03812KAVL AVL20160512152514205/12/16 15:25:31  5-MIN KAVL 122025Z 19006KT 6SM -RA SCT075 OVC100 20/17 A3009 2010 81 3100 190/06 RMK AO2 LTG DSNT SE AND NW P0002 T02000167
03812KAVL AVL20160512153014805/12/16 15:30:31  5-MIN KAVL 122030Z 19006KT 8SM -RA FEW070 OVC095 20/17 A3008 2020 81 3100 200/06 RMK AO2 LTG DSNT E AND SE AND NW P0003 T02000167
03812KAVL AVL20160512153514205/12/16 15:35:31  5-MIN KAVL 122035Z 19006KT 10SM -RA FEW070 OVC090 20/16 A3009 2010 78 3100 190/06 RMK AO2 LTG DSNT E AND NW P0003 T02000161
03812KAVL AVL20160512154014205/12/16 15:40:31  5-MIN KAVL 122040Z 19006KT 10SM -RA FEW070 OVC090 20/16 A3009 2010 78 3100 200/06 RMK AO2 LTG DSNT E AND NW P0003 T02000161
03812KAVL AVL20160512154514805/12/16 15:45:31  5-MIN KAVL 122045Z 19007KT 9SM -RA FEW070 OVC095 20/16 A3009 2010 78 3100 200/07 RMK AO2 LTG DSNT E AND SE AND NW P0003 T02000161
03812KAVL AVL20160512155015205/12/16 15:50:31  5-MIN KAVL 122050Z 20008KT 7SM RA OVC095 19/16 A3009 2010 81 3000 210/08 RMK AO2 LTG DSNT E AND SE SLP173 P0004 60004 T01940161 58015
03812KAVL AVL20160512155513305/12/16 15:55:31  5-MIN KAVL 122055Z 20005KT 6SM RA OVC100 19/16 A3009 2010 84 3000 210/05 RMK AO2 LTG DSNT E AND SE P0001 T01890161
03812KAVL AVL20160512160013105/12/16 16:00:31  5-MIN KAVL 122100Z 19004KT 7SM -RA OVC100 19/16 A3009 2010 84 3000 200/04 RMK AO2 LTG DSNT NE-SE P0001 T01890161
03812KAVL AVL20160512160512805/12/16 16:05:31  5-MIN KAVL 122105Z 00000KT 8SM -RA OVC100 19/16 A3008 2020 81 3000 000/00 RMK AO2 LTG DSNT NE P0002 T01940161
03812KAVL AVL20160512161012805/12/16 16:10:31  5-MIN KAVL 122110Z 00000KT 9SM -RA OVC095 19/16 A3008 2020 78 3000 000/00 RMK AO2 LTG DSNT NE P0002 T01940156
03812KAVL AVL20160512161513605/12/16 16:15:31  5-MIN KAVL 122115Z 00000KT 10SM -RA FEW027 OVC095 19/16 A3008 2020 78 3000 000/00 RMK AO2 LTG DSNT NE P0003 T01940156
03812KAVL AVL20160512162014305/12/16 16:20:31  5-MIN KAVL 122120Z 00000KT 10SM -RA FEW027 FEW080 BKN100 20/16 A3008 2020 75 3100 000/00 RMK AO2 LTG DSNT NE P0003 T02000156
03812KAVL AVL20160512162513105/12/16 16:25:31  5-MIN KAVL 122125Z VRB03KT 10SM BKN095 20/16 A3008 2020 75 3100 VRB/03 RMK AO2 LTG DSNT NE RAE25 P0003 T02000156
03812KAVL AVL20160512163011905/12/16 16:30:31  5-MIN KAVL 122130Z 00000KT 10SM SCT095 20/15 A3007 2030 72 3100 000/00 RMK AO2 RAE25 P0003 T02000150
03812KAVL AVL20160512163511905/12/16 16:35:31  5-MIN KAVL 122135Z 00000KT 10SM FEW090 21/15 A3007 2030 70 3200 000/00 RMK AO2 RAE25 P0003 T02060150
03812KAVL AVL20160512164011905/12/16 16:40:31  5-MIN KAVL 122140Z 00000KT 10SM FEW100 21/16 A3007 2030 70 3200 000/00 RMK AO2 RAE25 P0003 T02110156
03812KAVL AVL20160512164511605/12/16 16:45:31  5-MIN KAVL 122145Z 00000KT 10SM CLR 21/15 A3006 2030 68 3200 000/00 RMK AO2 RAE25 P0003 T02110150
03812KAVL AVL20160512165012305/12/16 16:50:31  5-MIN KAVL 122150Z 00000KT 10SM CLR 22/14 A3007 2030 63 3300 000/00 RMK AO2 RAE25 SLP162 P0003 T02170144
03812KAVL AVL20160512165510405/12/16 16:55:31  5-MIN KAVL 122155Z VRB03KT 10SM CLR 22/14 A3007 2030 61 3300 VRB/03 RMK AO2 T02170139
03812KAVL AVL20160512170011605/12/16 17:00:31  5-MIN KAVL 122200Z 22003KT 10SM CLR 22/14 A3007 2030 61 3300 230/03 RMK AO2 LTG DSNT NW T02170139
03812KAVL AVL20160512170511605/12/16 17:05:31  5-MIN KAVL 122205Z 00000KT 10SM CLR 21/14 A3007 2030 65 3200 000/00 RMK AO2 LTG DSNT NW T02110144
03812KAVL AVL20160512171011605/12/16 17:10:31  5-MIN KAVL 122210Z 00000KT 10SM CLR 21/14 A3006 2030 65 3200 000/00 RMK AO2 LTG DSNT NW T02110144
03812KAVL AVL20160512171511605/12/16 17:15:31  5-MIN KAVL 122215Z 00000KT 10SM CLR 22/14 A3006 2040 61 3300 000/00 RMK AO2 LTG DSNT NW T02170139
03812KAVL AVL20160512172011605/12/16 17:20:31  5-MIN KAVL 122220Z 00000KT 10SM CLR 22/14 A3006 2040 63 3300 000/00 RMK AO2 LTG DSNT NW T02170144
03812KAVL AVL20160512172511605/12/16 17:25:31  5-MIN KAVL 122225Z 00000KT 10SM CLR 22/14 A3006 2040 63 3300 000/00 RMK AO2 LTG DSNT NW T02170144
03812KAVL AVL20160512173010405/12/16 17:30:31  5-MIN KAVL 122230Z 00000KT 10SM CLR 22/14 A3006 2040 63 3300 000/00 RMK AO2 T02170144
03812KAVL AVL20160512173511605/12/16 17:35:31  5-MIN KAVL 122235Z 00000KT 10SM CLR 21/14 A3006 2040 65 3300 000/00 RMK AO2 LTG DSNT NW T02110144
03812KAVL AVL20160512174011905/12/16 17:40:31  5-MIN KAVL 122240Z 00000KT 10SM FEW100 22/15 A3007 2030 65 3300 000/00 RMK AO2 LTG DSNT NW T02170150
03812KAVL AVL20160512174511905/12/16 17:45:31  5-MIN KAVL 122245Z 00000KT 10SM SCT100 22/15 A3007 2030 65 3300 000/00 RMK AO2 LTG DSNT NW T02170150
03812KAVL AVL20160512175012605/12/16 17:50:31  5-MIN KAVL 122250Z 31004KT 10SM BKN110 21/15 A3007 2030 68 3200 310/04 RMK AO2 LTG DSNT NW SLP162 T02110150
03812KAVL AVL20160512175511905/12/16 17:55:31  5-MIN KAVL 122255Z 31006KT 10SM BKN110 21/16 A3007 2030 70 3200 320/06 RMK AO2 LTG DSNT NW T02110156
03812KAVL AVL20160512180012605/12/16 18:00:31  5-MIN KAVL 122300Z 32008KT 10SM SCT060 BKN110 21/16 A3008 2020 73 3200 320/08 RMK AO2 LTG DSNT NW T02060156
03812KAVL AVL20160512180511405/12/16 18:05:31  5-MIN KAVL 122305Z 33006KT 10SM BKN060 OVC110 21/16 A3007 2030 75 3200 330/06 RMK AO2 T02060161
03812KAVL AVL20160512181012105/12/16 18:10:31  5-MIN KAVL 122310Z 33005KT 10SM FEW049 BKN060 OVC110 21/16 A3007 2030 73 3200 340/05 RMK AO2 T02110161
03812KAVL AVL20160512181513705/12/16 18:15:31  5-MIN KAVL 122315Z 33006KT 10SM -RA FEW049 BKN060 OVC110 21/16 A3007 2030 75 3200 340/06 RMK AO2 RAB13 P0000 T02060161
03812KAVL AVL20160512182013705/12/16 18:20:31  5-MIN KAVL 122320Z 36006KT 10SM -RA BKN055 BKN070 OVC090 21/16 A3007 2030 73 3200 360/06 RMK AO2 RAB13 P0000 T02110161
03812KAVL AVL20160512182513705/12/16 18:25:31  5-MIN KAVL 122325Z 34008KT 10SM -RA FEW049 BKN070 OVC095 21/16 A3007 2030 70 3200 340/08 RMK AO2 RAB13 P0000 T02110156
03812KAVL AVL20160512183013605/12/16 18:30:31  5-MIN KAVL 122330Z 34007KT 10SM SCT049 BKN055 OVC095 21/16 A3007 2030 73 3200 340/07 RMK AO2 RAB13E30 P0000 T02060156
03812KAVL AVL20160512183512905/12/16 18:35:31  5-MIN KAVL 122335Z 34007KT 10SM BKN049 OVC070 21/16 A3007 2030 73 3200 340/07 RMK AO2 RAB13E30 P0000 T02060156
03812KAVL AVL20160512184012905/12/16 18:40:31  5-MIN KAVL 122340Z 33007KT 10SM BKN049 OVC070 21/16 A3008 2020 75 3200 340/07 RMK AO2 RAB13E30 P0000 T02060161
03812KAVL AVL20160512184513605/12/16 18:45:31  5-MIN KAVL 122345Z 33008KT 10SM BKN049 BKN055 OVC070 21/16 A3008 2020 75 3200 340/08 RMK AO2 RAB13E30 P0000 T02060161
03812KAVL AVL20160512185012405/12/16 18:50:31  5-MIN KAVL 122350Z 34006KT 10SM VCTS BKN049 OVC070 21/16 A3007 2030 75 3200 350/06 RMK AO2 RAB13E30 P0000
03812KAVL AVL20160512185513405/12/16 18:55:31  5-MIN KAVL 122355Z 34004KT 6SM VCTS RA SCT049 BKN060 OVC080 20/16 A3008 2020 75 3100 350/04 RMK AO2 P0000 T02000156
03812KAVL AVL20160512190013505/12/16 19:00:31  5-MIN KAVL 130000Z 02004KT 5SM VCTS -RA SCT049 BKN075 OVC090 19/16 A3007 2030 81 3000 030/04 RMK AO2 P0001 T01940161
03812KAVL AVL20160512190513005/12/16 19:05:31  5-MIN KAVL 130005Z 04004KT 8SM -RA SCT049 BKN090 OVC100 19/16 A3007 2030 81 3100 050/04 RMK AO2 P0001 T01940161
03812KAVL AVL20160512191013105/12/16 19:10:31  5-MIN KAVL 130010Z 02005KT 10SM -RA FEW055 BKN085 OVC110 19/16 A3007 2030 81 3100 030/05 RMK AO2 P0001 T01940161
03812KAVL AVL20160512191513105/12/16 19:15:31  5-MIN KAVL 130015Z VRB04KT 10SM -RA FEW060 SCT075 OVC100 19/16 A3007 2030 81 3000 VRB/04 RMK AO2 P0001 T01890156
03812KAVL AVL20160512192013105/12/16 19:20:31  5-MIN KAVL 130020Z 35004KT 10SM -RA FEW075 SCT085 OVC100 19/15 A3007 2030 78 3000 360/04 RMK AO2 P0001 T01890150
03812KAVL AVL20160512192512405/12/16 19:25:31  5-MIN KAVL 130025Z 00000KT 10SM -RA FEW080 OVC110 19/16 A3007 2030 81 3000 000/00 RMK AO2 P0001 T01890156
03812KAVL AVL20160512193012605/12/16 19:30:31  5-MIN KAVL 130030Z VRB03KT 10SM FEW080 BKN110 19/16 A3006 2040 81 3000 VRB/03 RMK AO2 RAE28 P0001 T01890156
03812KAVL AVL20160512193512605/12/16 19:35:31  5-MIN KAVL 130035Z 35004KT 10SM FEW080 BKN110 19/16 A3007 2030 81 3000 350/04 RMK AO2 RAE28 P0001 T01890156
03812KAVL AVL20160512194012605/12/16 19:40:31  5-MIN KAVL 130040Z 33003KT 10SM FEW075 BKN110 19/15 A3007 2030 78 3000 340/03 RMK AO2 RAE28 P0001 T01890150
03812KAVL AVL20160512194511905/12/16 19:45:31  5-MIN KAVL 130045Z 28004KT 10SM OVC110 18/16 A3007 2030 84 2900 290/04 RMK AO2 RAE28 P0001 T01830156
03812KAVL AVL20160512195012605/12/16 19:50:31  5-MIN KAVL 130050Z 29003KT 10SM OVC110 18/16 A3007 2030 87 2900 300/03 RMK AO2 RAE28 SLP164 P0001 T01780156
03812KAVL AVL20160512195510705/12/16 19:55:31  5-MIN KAVL 130055Z 00000KT 10SM OVC110 18/16 A3007 2030 90 2900 000/00 RMK AO2 T01780161
03812KAVL AVL20160512200010705/12/16 20:00:31  5-MIN KAVL 130100Z 00000KT 10SM OVC110 18/16 A3007 2030 87 2900 000/00 RMK AO2 T01780156
03812KAVL AVL20160512200510705/12/16 20:05:31  5-MIN KAVL 130105Z 00000KT 10SM OVC110 18/16 A3007 2030 84 2900 000/00 RMK AO2 T01830156
03812KAVL AVL20160512201010705/12/16 20:10:31  5-MIN KAVL 130110Z 00000KT 10SM BKN120 18/16 A3007 2030 84 2900 000/00 RMK AO2 T01830156
03812KAVL AVL20160512201510705/12/16 20:15:31  5-MIN KAVL 130115Z 00000KT 10SM BKN120 18/16 A3007 2030 87 2900 000/00 RMK AO2 T01780156
03812KAVL AVL20160512202010705/12/16 20:20:31  5-MIN KAVL 130120Z 00000KT 10SM BKN110 18/16 A3008 2020 87 2900 000/00 RMK AO2 T01780156
03812KAVL AVL20160512202510705/12/16 20:25:31  5-MIN KAVL 130125Z 32003KT 10SM BKN110 18/16 A3008 2020 87 2900 330/03 RMK AO2 T01780156
03812KAVL AVL20160512203010705/12/16 20:30:31  5-MIN KAVL 130130Z 30003KT 10SM BKN110 18/16 A3008 2020 87 2800 310/03 RMK AO2 T01780156
03812KAVL AVL20160512203510705/12/16 20:35:31  5-MIN KAVL 130135Z 00000KT 10SM BKN100 18/16 A3008 2020 87 2900 000/00 RMK AO2 T01780156
03812KAVL AVL20160512204010705/12/16 20:40:31  5-MIN KAVL 130140Z 00000KT 10SM BKN100 18/16 A3008 2020 84 2900 000/00 RMK AO2 T01830156
03812KAVL AVL20160512204510705/12/16 20:45:31  5-MIN KAVL 130145Z 00000KT 10SM OVC100 18/16 A3008 2020 87 2800 000/00 RMK AO2 T01780156
03812KAVL AVL20160512205011405/12/16 20:50:31  5-MIN KAVL 130150Z 33003KT 10SM OVC100 18/16 A3008 2020 87 2800 340/03 RMK AO2 SLP166 T01780156
03812KAVL AVL20160512205510705/12/16 20:55:31  5-MIN KAVL 130155Z 00000KT 10SM OVC100 18/16 A3009 2020 87 2800 000/00 RMK AO2 T01780156
03812KAVL AVL20160512210010705/12/16 21:00:31  5-MIN KAVL 130200Z 00000KT 10SM OVC100 18/16 A3009 2010 87 2800 000/00 RMK AO2 T01780156
03812KAVL AVL20160512210510705/12/16 21:05:31  5-MIN KAVL 130205Z 00000KT 10SM OVC110 18/16 A3009 2010 87 2800 000/00 RMK AO2 T01780156
03812KAVL AVL20160512211010705/12/16 21:10:31  5-MIN KAVL 130210Z 00000KT 10SM OVC110 18/16 A3008 2020 87 2800 000/00 RMK AO2 T01780156
03812KAVL AVL20160512211510705/12/16 21:15:31  5-MIN KAVL 130215Z 00000KT 10SM OVC110 18/16 A3008 2020 87 2800 000/00 RMK AO2 T01780156
03812KAVL AVL20160512212011405/12/16 21:20:31  5-MIN KAVL 130220Z 00000KT 10SM BKN100 OVC120 18/16 A3008 2020 87 2800 000/00 RMK AO2 T01780156
03812KAVL AVL20160512212511405/12/16 21:25:31  5-MIN KAVL 130225Z 01003KT 10SM BKN100 OVC120 18/16 A3008 2020 87 2900 010/03 RMK AO2 T01780156
03812KAVL AVL20160512213011405/12/16 21:30:31  5-MIN KAVL 130230Z 00000KT 10SM BKN100 OVC120 18/16 A3008 2020 87 2900 000/00 RMK AO2 T01780156
03812KAVL AVL20160512213510705/12/16 21:35:31  5-MIN KAVL 130235Z 00000KT 10SM OVC100 18/16 A3008 2020 87 2900 000/00 RMK AO2 T01780156
03812KAVL AVL20160512214010705/12/16 21:40:31  5-MIN KAVL 130240Z 00000KT 10SM OVC100 18/16 A3008 2020 87 2900 000/00 RMK AO2 T01780156
03812KAVL AVL20160512214511405/12/16 21:45:31  5-MIN KAVL 130245Z 33003KT 10SM BKN100 OVC120 18/16 A3008 2020 87 2900 340/03 RMK AO2 T01780156
03812KAVL AVL20160512215013305/12/16 21:50:31  5-MIN KAVL 130250Z 34003KT 10SM BKN100 OVC110 18/16 A3007 2030 87 2900 350/03 RMK AO2 SLP160 60001 T01780156 52002
03812KAVL AVL20160512215511905/12/16 21:55:31  5-MIN KAVL 130255Z AUTO 30003KT 10SM BKN095 BKN110 17/16 A3007 2030 90 2800 310/03 RMK AO2 T01720156
03812KAVL AVL20160512220011905/12/16 22:00:31  5-MIN KAVL 130300Z AUTO 32003KT 10SM SCT095 BKN120 17/16 A3007 2030 90 2800 320/03 RMK AO2 T01720156
03812KAVL AVL20160512220511905/12/16 22:05:31  5-MIN KAVL 130305Z AUTO 36003KT 10SM FEW095 BKN120 17/16 A3006 2040 90 2800 010/03 RMK AO2 T01720156
03812KAVL AVL20160512221011905/12/16 22:10:31  5-MIN KAVL 130310Z AUTO 35004KT 10SM FEW095 BKN120 18/16 A3006 2040 87 2900 350/04 RMK AO2 T01780156
03812KAVL AVL20160512221511905/12/16 22:15:31  5-MIN KAVL 130315Z AUTO 34006KT 10SM FEW095 SCT120 17/16 A3006 2040 90 2800 340/06 RMK AO2 T01720156
03812KAVL AVL20160512222011205/12/16 22:20:31  5-MIN KAVL 130320Z AUTO 34004KT 10SM SCT110 17/16 A3006 2040 90 2800 350/04 RMK AO2 T01720156
03812KAVL AVL20160512222511205/12/16 22:25:31  5-MIN KAVL 130325Z AUTO 34005KT 10SM BKN110 17/16 A3006 2040 90 2800 350/05 RMK AO2 T01720156
03812KAVL AVL20160512223011205/12/16 22:30:31  5-MIN KAVL 130330Z AUTO 34005KT 10SM SCT110 17/16 A3005 2040 90 2800 340/05 RMK AO2 T01720156
03812KAVL AVL20160512223511205/12/16 22:35:31  5-MIN KAVL 130335Z AUTO 35003KT 10SM FEW110 17/16 A3005 2050 90 2800 360/03 RMK AO2 T01720156
03812KAVL AVL20160512224011205/12/16 22:40:31  5-MIN KAVL 130340Z AUTO 35004KT 10SM FEW110 17/16 A3005 2050 90 2800 360/04 RMK AO2 T01720156
03812KAVL AVL20160512224511205/12/16 22:45:31  5-MIN KAVL 130345Z AUTO 35005KT 10SM SCT110 17/16 A3005 2050 90 2800 360/05 RMK AO2 T01720156
03812KAVL AVL20160512225011905/12/16 22:50:31  5-MIN KAVL 130350Z AUTO 36004KT 10SM SCT110 17/15 A3004 2060 87 2800 010/04 RMK AO2 SLP148 T01720150
03812KAVL AVL20160512225511205/12/16 22:55:31  5-MIN KAVL 130355Z AUTO 35005KT 10SM FEW120 17/15 A3004 2060 87 2800 360/05 RMK AO2 T01720150
03812KAVL AVL20160512230011205/12/16 23:00:31  5-MIN KAVL 130400Z AUTO 34005KT 10SM FEW120 17/15 A3004 2060 87 2800 340/05 RMK AO2 T01720150
03812KAVL AVL20160512230511205/12/16 23:05:31  5-MIN KAVL 130405Z AUTO 34004KT 10SM FEW120 17/15 A3004 2060 90 2800 340/04 RMK AO2 T01670150
03812KAVL AVL20160512231011205/12/16 23:10:31  5-MIN KAVL 130410Z AUTO 33004KT 10SM FEW120 17/15 A3004 2050 90 2800 340/04 RMK AO2 T01670150
03812KAVL AVL20160512231511205/12/16 23:15:31  5-MIN KAVL 130415Z AUTO 00000KT 10SM FEW120 17/15 A3004 2050 90 2800 000/00 RMK AO2 T01670150
03812KAVL AVL20160512232011205/12/16 23:20:31  5-MIN KAVL 130420Z AUTO 00000KT 10SM FEW120 17/15 A3004 2050 90 2800 000/00 RMK AO2 T01670150
03812KAVL AVL20160512232511105/12/16 23:25:31  5-MIN KAVL 130425Z AUTO 17004KT 9SM FEW120 16/15 A3004 2050 93 2700 170/04 RMK AO2 T01610150
03812KAVL AVL20160512233011105/12/16 23:30:31  5-MIN KAVL 130430Z AUTO 00000KT 8SM FEW120 16/15 A3004 2060 93 2700 000/00 RMK AO2 T01610150
03812KAVL AVL20160512233511105/12/16 23:35:31  5-MIN KAVL 130435Z AUTO 00000KT 8SM FEW120 16/15 A3004 2060 93 2700 000/00 RMK AO2 T01610150
03812KAVL AVL20160512234011105/12/16 23:40:31  5-MIN KAVL 130440Z AUTO 00000KT 9SM FEW120 17/15 A3004 2060 90 2800 000/00 RMK AO2 T01670150
03812KAVL AVL20160512234510805/12/16 23:45:31  5-MIN KAVL 130445Z AUTO 00000KT 9SM CLR 16/15 A3004 2060 93 2700 000/00 RMK AO2 T01610150
03812KAVL AVL20160512235012505/12/16 23:50:31  5-MIN KAVL 130450Z AUTO 00000KT 9SM CLR 16/15 A3004 2060 93 2700 000/00 RMK AO2 SLP148 T01610150 402610133
03812KAVL AVL20160512235510805/12/16 23:55:31  5-MIN KAVL 130455Z AUTO 00000KT 8SM CLR 17/15 A3004 2060 90 2800 000/00 RMK AO2 T01670150
03812KAVL AVL20160513000010805/13/16 00:00:31  5-MIN KAVL 130500Z AUTO 00000KT 9SM CLR 17/15 A3004 2060 90 2800 000/00 RMK AO2 T01670150
03812KAVL AVL20160513000510905/13/16 00:05:31  5-MIN KAVL 130505Z AUTO 33003KT 10SM CLR 17/15 A3004 2060 90 2800 330/03 RMK AO2 T01670150
03812KAVL AVL20160513001010905/13/16 00:10:31  5-MIN KAVL 130510Z AUTO 35003KT 10SM CLR 17/15 A3004 2060 90 2800 350/03 RMK AO2 T01670150
03812KAVL AVL20160513001510905/13/16 00:15:31  5-MIN KAVL 130515Z AUTO 00000KT 10SM CLR 17/15 A3003 2060 90 2800 000/00 RMK AO2 T01670150
03812KAVL AVL20160513002010905/13/16 00:20:31  5-MIN KAVL 130520Z AUTO 00000KT 10SM CLR 17/15 A3003 2070 90 2800 000/00 RMK AO2 T01670150
03812KAVL AVL20160513002510805/13/16 00:25:31  5-MIN KAVL 130525Z AUTO 34003KT 9SM CLR 17/15 A3003 2060 90 2800 350/03 RMK AO2 T01670150
03812KAVL AVL20160513003010905/13/16 00:30:31  5-MIN KAVL 130530Z AUTO 32003KT 10SM CLR 17/15 A3003 2060 90 2800 330/03 RMK AO2 T01670150
03812KAVL AVL20160513003510905/13/16 00:35:31  5-MIN KAVL 130535Z AUTO 34003KT 10SM CLR 16/14 A3003 2070 90 2700 350/03 RMK AO2 T01610144
03812KAVL AVL20160513004011205/13/16 00:40:31  5-MIN KAVL 130540Z AUTO 00000KT 10SM FEW100 16/15 A3003 2070 93 2700 000/00 RMK AO2 T01610150
03812KAVL AVL20160513004511205/13/16 00:45:31  5-MIN KAVL 130545Z AUTO 24003KT 10SM FEW100 16/15 A3003 2060 93 2700 240/03 RMK AO2 T01610150
03812KAVL AVL20160513005014205/13/16 00:50:31  5-MIN KAVL 130550Z AUTO 00000KT 8SM FEW100 16/14 A3003 2070 90 2700 000/00 RMK AO2 SLP150 60001 T01610144 10200 20161 58001
03812KAVL AVL20160513005511805/13/16 00:55:31  5-MIN KAVL 130555Z AUTO 18003KT 7SM FEW100 FEW120 16/14 A3003 2070 90 2700 180/03 RMK AO2 T01610144
03812KAVL AVL20160513010011805/13/16 01:00:31  5-MIN KAVL 130600Z AUTO 00000KT 7SM SCT100 SCT120 16/14 A3003 2060 90 2700 000/00 RMK AO2 T01610144
03812KAVL AVL20160513010511805/13/16 01:05:31  5-MIN KAVL 130605Z AUTO 20003KT 7SM SCT100 BKN110 16/14 A3003 2060 90 2700 210/03 RMK AO2 T01610144
03812KAVL AVL20160513011011805/13/16 01:10:31  5-MIN KAVL 130610Z AUTO 00000KT 7SM SCT002 BKN100 16/14 A3004 2060 90 2700 000/00 RMK AO2 T01610144
03812KAVL AVL20160513011512805/13/16 01:15:31  5-MIN KAVL 130615Z AUTO 00000KT 6SM BR BKN002 BKN100 BKN120 16/15 A3003 2060 93 2700 000/00 RMK AO2 T01610150
03812KAVL AVL20160513012012805/13/16 01:20:31  5-MIN KAVL 130620Z AUTO 00000KT 6SM BR SCT002 BKN100 BKN110 16/14 A3003 2070 90 2700 000/00 RMK AO2 T01610144
03812KAVL AVL20160513012512805/13/16 01:25:31  5-MIN KAVL 130625Z AUTO 00000KT 6SM BR SCT002 BKN100 BKN110 16/14 A3002 2070 90 2700 000/00 RMK AO2 T01610144
03812KAVL AVL20160513013012505/13/16 01:30:31  5-MIN KAVL 130630Z AUTO 00000KT 7SM SCT002 BKN095 OVC110 16/14 A3002 2070 90 2700 000/00 RMK AO2 T01610144
03812KAVL AVL20160513013512505/13/16 01:35:31  5-MIN KAVL 130635Z AUTO 00000KT 7SM SCT002 BKN090 OVC110 16/14 A3002 2070 90 2700 000/00 RMK AO2 T01610144
03812KAVL AVL20160513014014105/13/16 01:40:31  5-MIN KAVL 130640Z AUTO 00000KT 7SM -RA FEW002 BKN090 OVC110 16/14 A3003 2070 90 2700 000/00 RMK AO2 RAB38 P0000 T01610144
03812KAVL AVL20160513014514005/13/16 01:45:31  5-MIN KAVL 130645Z AUTO 00000KT 7SM BKN048 BKN070 OVC110 16/15 A3002 2070 93 2700 000/00 RMK AO2 RAB38E41 P0000 T01610150
03812KAVL AVL20160513015014705/13/16 01:50:31  5-MIN KAVL 130650Z AUTO 00000KT 7SM SCT048 BKN100 OVC110 16/15 A3002 2070 93 2700 000/00 RMK AO2 RAB38E41 SLP145 P0000 T01610150
03812KAVL AVL20160513015511805/13/16 01:55:31  5-MIN KAVL 130655Z AUTO 00000KT 7SM FEW048 OVC100 16/15 A3002 2080 93 2700 000/00 RMK AO2 T01610150
03812KAVL AVL20160513020012505/13/16 02:00:31  5-MIN KAVL 130700Z AUTO 00000KT 8SM FEW048 BKN090 OVC110 16/14 A3002 2080 90 2700 000/00 RMK AO2 T01610144
03812KAVL AVL20160513020512505/13/16 02:05:31  5-MIN KAVL 130705Z AUTO 00000KT 7SM FEW048 BKN090 OVC100 16/14 A3002 2080 90 2700 000/00 RMK AO2 T01610144
03812KAVL AVL20160513021014105/13/16 02:10:31  5-MIN KAVL 130710Z AUTO 31006KT 7SM -RA FEW048 SCT070 OVC090 16/14 A3002 2080 90 2700 320/06 RMK AO2 RAB10 P0000 T01610144
03812KAVL AVL20160513021513405/13/16 02:15:31  5-MIN KAVL 130715Z AUTO 35004KT 7SM -RA BKN075 OVC090 16/14 A3001 2080 90 2700 360/04 RMK AO2 RAB10 P0000 T01610144
03812KAVL AVL20160513022013405/13/16 02:20:31  5-MIN KAVL 130720Z AUTO 34006KT 8SM -RA BKN080 OVC095 16/15 A3001 2080 93 2700 350/06 RMK AO2 RAB10 P0000 T01610150
03812KAVL AVL20160513022513405/13/16 02:25:31  5-MIN KAVL 130725Z AUTO 33004KT 9SM -RA BKN075 OVC090 16/15 A3001 2090 93 2700 330/04 RMK AO2 RAB10 P0000 T01610150
03812KAVL AVL20160513023013305/13/16 02:30:31  5-MIN KAVL 130730Z AUTO 01004KT 9SM BKN075 OVC090 16/15 A3001 2090 93 2700 010/04 RMK AO2 RAB10E27 P0000 T01610150
03812KAVL AVL20160513023513305/13/16 02:35:31  5-MIN KAVL 130735Z AUTO 35007KT 8SM BKN075 OVC090 16/15 A3001 2090 93 2700 360/07 RMK AO2 RAB10E27 P0000 T01610150
03812KAVL AVL20160513024013305/13/16 02:40:31  5-MIN KAVL 130740Z AUTO 34006KT 8SM BKN075 OVC090 16/15 A3001 2090 93 2700 350/06 RMK AO2 RAB10E27 P0000 T01610150
03812KAVL AVL20160513024514005/13/16 02:45:31  5-MIN KAVL 130745Z AUTO 34008KT 7SM -RA BKN075 OVC100 16/15 A3001 2090 93 2700 340/08 RMK AO2 RAB10E27B45 P0000 T01610150
03812KAVL AVL20160513025015405/13/16 02:50:31  5-MIN KAVL 130750Z AUTO 34008KT 8SM -RA FEW060 BKN075 OVC110 16/15 A3001 2090 93 2700 350/08 RMK AO2 RAB10E27B45 SLP139 P0000 T01610150
03812KAVL AVL20160513025512505/13/16 02:55:31  5-MIN KAVL 130755Z AUTO 35007KT 9SM FEW002 BKN080 OVC110 16/15 A3001 2090 93 2700 350/07 RMK AO2 T01610150
03812KAVL AVL20160513030012505/13/16 03:00:31  5-MIN KAVL 130800Z AUTO 34007KT 9SM FEW002 BKN080 OVC110 16/15 A3001 2090 93 2700 340/07 RMK AO2 T01610150
03812KAVL AVL20160513030514105/13/16 03:05:31  5-MIN KAVL 130805Z AUTO 34009KT 9SM -RA FEW002 BKN090 OVC100 16/14 A3001 2080 90 2700 340/09 RMK AO2 RAB02 P0000 T01610144
03812KAVL AVL20160513031014105/13/16 03:10:31  5-MIN KAVL 130810Z AUTO 35009KT 9SM -RA SCT002 BKN085 OVC100 16/14 A3001 2080 90 2700 350/09 RMK AO2 RAB02 P0000 T01610144
03812KAVL AVL20160513031514105/13/16 03:15:31  5-MIN KAVL 130815Z AUTO 35007KT 9SM -RA BKN002 BKN090 OVC100 16/14 A3001 2080 90 2700 360/07 RMK AO2 RAB02 P0000 T01610144
03812KAVL AVL20160513032013405/13/16 03:20:31  5-MIN KAVL 130820Z AUTO 35006KT 8SM -RA BKN003 OVC100 16/14 A3001 2090 90 2700 360/06 RMK AO2 RAB02 P0000 T01610144
03812KAVL AVL20160513032514105/13/16 03:25:31  5-MIN KAVL 130825Z AUTO 35008KT 8SM -RA BKN003 BKN085 OVC100 16/14 A3001 2090 90 2700 360/08 RMK AO2 RAB02 P0000 T01610144
03812KAVL AVL20160513033013405/13/16 03:30:31  5-MIN KAVL 130830Z AUTO 36008KT 8SM -RA BKN003 OVC095 16/14 A3000 2090 90 2700 360/08 RMK AO2 RAB02 P0000 T01610144
03812KAVL AVL20160513033513405/13/16 03:35:31  5-MIN KAVL 130835Z AUTO 34009KT 9SM -RA BKN003 OVC095 16/14 A3001 2090 90 2700 350/09 RMK AO2 RAB02 P0000 T01610144
03812KAVL AVL20160513034013505/13/16 03:40:31  5-MIN KAVL 130840Z AUTO 35008KT 10SM -RA SCT003 OVC095 16/14 A3001 2090 90 2700 360/08 RMK AO2 RAB02 P0000 T01610144
03812KAVL AVL20160513034514205/13/16 03:45:31  5-MIN KAVL 130845Z AUTO 35005KT 10SM -RA SCT003 BKN035 OVC100 16/14 A3000 2090 90 2700 360/05 RMK AO2 RAB02 P0000 T01610144
03812KAVL AVL20160513035016105/13/16 03:50:31  5-MIN KAVL 130850Z AUTO 36005KT 10SM -RA FEW003 BKN095 OVC110 16/14 A3000 2090 90 2700 360/05 RMK AO2 RAB02 SLP141 P0000 60000 T01610144 56013
03812KAVL AVL20160513035513605/13/16 03:55:31  5-MIN KAVL 130855Z AUTO 36005KT 10SM -RA FEW003 BKN100 OVC110 16/14 A3001 2090 90 2700 360/05 RMK AO2 P0000 T01610144
03812KAVL AVL20160513040013605/13/16 04:00:31  5-MIN KAVL 130900Z AUTO 34007KT 10SM -RA SCT003 BKN095 OVC110 16/14 A3001 2090 90 2700 340/07 RMK AO2 P0000 T01610144
03812KAVL AVL20160513040513605/13/16 04:05:31  5-MIN KAVL 130905Z AUTO 35007KT 10SM -RA FEW003 BKN100 OVC110 16/14 A3000 2090 90 2700 350/07 RMK AO2 P0001 T01610144
03812KAVL AVL20160513041013605/13/16 04:10:31  5-MIN KAVL 130910Z AUTO 34007KT 10SM -RA FEW004 BKN095 OVC110 16/14 A3000 2090 90 2700 350/07 RMK AO2 P0001 T01610144
03812KAVL AVL20160513041512905/13/16 04:15:31  5-MIN KAVL 130915Z AUTO 35006KT 10SM -RA FEW004 OVC090 16/14 A3000 2090 90 2700 350/06 RMK AO2 P0001 T01610144
03812KAVL AVL20160513042012905/13/16 04:20:31  5-MIN KAVL 130920Z AUTO 35004KT 10SM -RA FEW004 OVC090 16/14 A3000 2090 90 2700 350/04 RMK AO2 P0001 T01610144
03812KAVL AVL20160513042512905/13/16 04:25:31  5-MIN KAVL 130925Z AUTO 33004KT 10SM -RA FEW004 OVC090 16/14 A3001 2090 90 2700 330/04 RMK AO2 P0001 T01610144
03812KAVL AVL20160513043012205/13/16 04:30:31  5-MIN KAVL 130930Z AUTO 32005KT 10SM -RA OVC090 16/14 A3001 2090 90 2700 320/05 RMK AO2 P0001 T01610144
03812KAVL AVL20160513043512205/13/16 04:35:31  5-MIN KAVL 130935Z AUTO 33006KT 10SM -RA OVC090 16/14 A3000 2090 90 2700 340/06 RMK AO2 P0001 T01610144
03812KAVL AVL20160513044012205/13/16 04:40:31  5-MIN KAVL 130940Z AUTO 34004KT 10SM -RA OVC090 16/14 A3001 2090 90 2700 340/04 RMK AO2 P0001 T01610144
03812KAVL AVL20160513044512205/13/16 04:45:31  5-MIN KAVL 130945Z AUTO 34004KT 10SM -RA OVC090 16/14 A3001 2090 90 2700 340/04 RMK AO2 P0001 T01610144
03812KAVL AVL20160513045012905/13/16 04:50:31  5-MIN KAVL 130950Z AUTO 36005KT 10SM -RA OVC090 16/14 A3001 2090 90 2700 360/05 RMK AO2 SLP141 P0001 T01610144
03812KAVL AVL20160513045512705/13/16 04:55:31  5-MIN KAVL 130955Z AUTO 36005KT 9SM RA FEW080 OVC090 16/14 A3001 2090 90 2700 010/05 RMK AO2 P0000 T01610144
03812KAVL AVL20160513050012705/13/16 05:00:31  5-MIN KAVL 131000Z AUTO 35006KT 8SM RA FEW080 OVC095 16/14 A3001 2090 90 2700 360/06 RMK AO2 P0001 T01610144
03812KAVL AVL20160513050512705/13/16 05:05:31  5-MIN KAVL 131005Z AUTO 34007KT 8SM RA FEW080 OVC095 16/14 A3001 2090 90 2700 350/07 RMK AO2 P0002 T01610144
03812KAVL AVL20160513051012805/13/16 05:10:31  5-MIN KAVL 131010Z AUTO 34007KT 8SM -RA FEW080 OVC095 16/14 A3001 2080 90 2700 340/07 RMK AO2 P0002 T01610144
03812KAVL AVL20160513051512805/13/16 05:15:31  5-MIN KAVL 131015Z AUTO 36007KT 9SM -RA FEW080 OVC095 16/14 A3001 2080 90 2700 360/07 RMK AO2 P0003 T01610144
03812KAVL AVL20160513052011705/13/16 05:20:31  5-MIN KAVL 131020Z 36006KT 10SM -RA OVC100 16/14 A3001 2080 90 2700 360/06 RMK AO2 P0003 T01610144
03812KAVL AVL20160513052513005/13/16 05:25:31  5-MIN KAVL 131025Z 35007KT 2 1/2SM -RA BR SCT015 OVC100 16/14 A3002 2080 90 2700 360/07 RMK AO2 P0003 T01610144
03812KAVL AVL20160513053013705/13/16 05:30:31  5-MIN KAVL 131030Z 35009KT 2 1/2SM -RA BR SCT015 BKN080 OVC095 16/14 A3002 2080 90 2700 360/09 RMK AO2 P0003 T01610144
03812KAVL AVL20160513053513705/13/16 05:35:31  5-MIN KAVL 131035Z 35012KT 2 1/2SM -RA BR SCT016 BKN080 OVC100 16/14 A3002 2080 90 2700 360/12 RMK AO2 P0003 T01610144
03812KAVL AVL20160513054013705/13/16 05:40:31  5-MIN KAVL 131040Z 36012KT 2 1/2SM -RA BR FEW016 BKN080 OVC100 16/14 A3002 2080 90 2700 360/12 RMK AO2 P0003 T01610144
03812KAVL AVL20160513054513705/13/16 05:45:31  5-MIN KAVL 131045Z 36010KT 2 1/2SM -RA BR FEW016 BKN027 OVC085 16/14 A3002 2080 90 2700 360/10 RMK AO2 P0003 T01610144
03812KAVL AVL20160513055014405/13/16 05:50:31  5-MIN KAVL 131050Z 36011KT 2 1/2SM -RA BR FEW016 BKN025 OVC080 16/14 A3002 2070 90 2700 360/11 RMK AO2 SLP145 P0003 T01610144
03812KAVL AVL20160513055513105/13/16 05:55:31  5-MIN KAVL 131055Z 35009KT 10SM -RA FEW018 SCT025 OVC080 16/14 A3003 2070 86 2700 350/09 RMK AO2 P0000 T01610139
03812KAVL AVL20160513060013305/13/16 06:00:31  5-MIN KAVL 131100Z 34010KT 4SM -RA BR FEW023 SCT035 OVC080 16/14 A3003 2070 86 2700 350/10 RMK AO2 P0000 T01610139
03812KAVL AVL20160513060513505/13/16 06:05:31  5-MIN KAVL 131105Z 36009KT 4SM BR FEW009 SCT025 OVC080 16/14 A3003 2070 86 2700 360/09 RMK AO2 RAE02 P0000 T01610139
03812KAVL AVL20160513061013505/13/16 06:10:31  5-MIN KAVL 131110Z 36009KT 4SM BR FEW009 BKN034 OVC080 16/14 A3003 2070 86 2700 360/09 RMK AO2 RAE02 P0000 T01610139
03812KAVL AVL20160513061513505/13/16 06:15:31  5-MIN KAVL 131115Z 36011KT 4SM HZ SCT027 BKN034 OVC080 17/14 A3003 2060 83 2800 010/11 RMK AO2 RAE02 P0000 T01670139
03812KAVL AVL20160513062013505/13/16 06:20:31  5-MIN KAVL 131120Z 35010KT 4SM BR SCT027 BKN036 OVC080 16/14 A3004 2060 86 2700 360/10 RMK AO2 RAE02 P0000 T01610139
03812KAVL AVL20160513062513505/13/16 06:25:31  5-MIN KAVL 131125Z 36009KT 4SM BR FEW009 BKN027 OVC080 16/14 A3003 2060 86 2700 010/09 RMK AO2 RAE02 P0000 T01610139
03812KAVL AVL20160513063014105/13/16 06:30:31  5-MIN KAVL 131130Z 35009G15KT 4SM BR SCT009 BKN027 OVC036 16/14 A3004 2060 86 2700 360/09G15 RMK AO2 RAE02 P0000 T01610139
03812KAVL AVL20160513063514105/13/16 06:35:31  5-MIN KAVL 131135Z 36009G15KT 4SM BR FEW009 BKN027 OVC038 16/14 A3004 2060 86 2700 360/09G15 RMK AO2 RAE02 P0000 T01610139
03812KAVL AVL20160513064013505/13/16 06:40:31  5-MIN KAVL 131140Z 35010KT 4SM BR FEW009 BKN027 BKN038 16/14 A3004 2060 86 2700 360/10 RMK AO2 RAE02 P0000 T01610139
03812KAVL AVL20160513064512805/13/16 06:45:31  5-MIN KAVL 131145Z 35012KT 4SM HZ SCT009 BKN027 17/14 A3003 2060 83 2800 350/12 RMK AO2 RAE02 P0000 T01670139
03812KAVL AVL20160513065016505/13/16 06:50:31  5-MIN KAVL 131150Z 36011KT 4SM BR SCT009 BKN027 16/14 A3003 2060 86 2700 360/11 RMK AO2 RAE02 SLP150 P0000 60004 70016 T01610139 10167 20161 56008
03812KAVL AVL20160513065511405/13/16 06:55:31  5-MIN KAVL 131155Z 35009KT 10SM SCT009 BKN027 16/14 A3003 2060 86 2700 360/09 RMK AO2 T01610139
03812KAVL AVL20160513070011405/13/16 07:00:31  5-MIN KAVL 131200Z 35008KT 10SM FEW009 SCT028 16/14 A3004 2060 86 2700 360/08 RMK AO2 T01610139
03812KAVL AVL20160513070510705/13/16 07:05:31  5-MIN KAVL 131205Z 35007KT 10SM FEW009 17/14 A3004 2060 83 2800 360/07 RMK AO2 T01670139
03812KAVL AVL20160513071010705/13/16 07:10:31  5-MIN KAVL 131210Z 35008KT 10SM FEW009 17/14 A3004 2060 83 2800 360/08 RMK AO2 T01670139
03812KAVL AVL20160513071510705/13/16 07:15:31  5-MIN KAVL 131215Z 36010KT 10SM FEW009 17/14 A3004 2060 83 2800 360/10 RMK AO2 T01670139
03812KAVL AVL20160513072010405/13/16 07:20:31  5-MIN KAVL 131220Z 35009KT 10SM CLR 17/14 A3004 2060 83 2800 360/09 RMK AO2 T01670139
03812KAVL AVL20160513072511405/13/16 07:25:31  5-MIN KAVL 131225Z 36009KT 10SM FEW009 FEW033 17/14 A3004 2060 83 2800 010/09 RMK AO2 T01670139
03812KAVL AVL20160513073012705/13/16 07:30:31  5-MIN KAVL 131230Z 35012G18KT 10SM FEW011 SCT014 SCT033 17/14 A3004 2060 83 2800 350/12G18 RMK AO2 T01670139
03812KAVL AVL20160513073512005/13/16 07:35:31  5-MIN KAVL 131235Z 35012G19KT 10SM SCT011 BKN033 17/14 A3004 2060 83 2800 360/12G19 RMK AO2 T01670139
03812KAVL AVL20160513074012705/13/16 07:40:31  5-MIN KAVL 131240Z 36013G19KT 10SM FEW011 SCT014 BKN028 17/13 A3004 2050 80 2800 360/13G19 RMK AO2 T01670133
03812KAVL AVL20160513074512705/13/16 07:45:31  5-MIN KAVL 131245Z 36016G22KT 10SM FEW011 SCT014 BKN028 17/13 A3005 2050 77 2800 360/16G22 RMK AO2 T01670128
03812KAVL AVL20160513075013405/13/16 07:50:31  5-MIN KAVL 131250Z 35017G23KT 10SM FEW010 SCT014 OVC030 17/12 A3005 2050 72 2800 360/17G23 RMK AO2 SLP157 T01670117
03812KAVL AVL20160513075512705/13/16 07:55:31  5-MIN KAVL 131255Z 35018G24KT 10SM FEW010 BKN026 OVC031 16/11 A3005 2050 69 2700 350/18G24 RMK AO2 T01610106
03812KAVL AVL20160513080012705/13/16 08:00:31  5-MIN KAVL 131300Z 35013G24KT 10SM FEW012 BKN031 OVC043 17/11 A3005 2040 67 2800 360/13G24 RMK AO2 T01670106
03812KAVL AVL20160513080512705/13/16 08:05:31  5-MIN KAVL 131305Z 34018G23KT 10SM FEW012 BKN028 OVC044 17/11 A3006 2040 67 2800 350/18G23 RMK AO2 T01720111
03812KAVL AVL20160513081012705/13/16 08:10:31  5-MIN KAVL 131310Z 34018G23KT 10SM FEW024 SCT030 BKN036 17/11 A3006 2040 67 2800 350/18G23 RMK AO2 T01720111
03812KAVL AVL20160513081512705/13/16 08:15:31  5-MIN KAVL 131315Z 33016G23KT 10SM FEW026 SCT035 BKN048 18/12 A3006 2040 67 2900 330/16G23 RMK AO2 T01780117
03812KAVL AVL20160513082012705/13/16 08:20:31  5-MIN KAVL 131320Z 34016G23KT 10SM FEW028 SCT035 BKN050 18/12 A3006 2040 67 2900 340/16G23 RMK AO2 T01780117
03812KAVL AVL20160513082512005/13/16 08:25:31  5-MIN KAVL 131325Z 33016G23KT 10SM FEW037 SCT048 18/11 A3006 2040 62 2900 340/16G23 RMK AO2 T01830111
03812KAVL AVL20160513083012005/13/16 08:30:31  5-MIN KAVL 131330Z 34021G25KT 10SM FEW037 FEW048 18/11 A3006 2040 60 2900 340/21G25 RMK AO2 T01830106
03812KAVL AVL20160513083511305/13/16 08:35:31  5-MIN KAVL 131335Z 35014G25KT 10SM FEW050 18/11 A3006 2040 62 2900 360/14G25 RMK AO2 T01780106
03812KAVL AVL20160513084013105/13/16 08:40:31  5-MIN KAVL 131340Z 34018G26KT 10SM FEW050 18/09 A3006 2040 58 2900 350/18G26 RMK AO2 PK WND 34026/1340 T01780094
03812KAVL AVL20160513084512805/13/16 08:45:31  5-MIN KAVL 131345Z 35016G26KT 10SM CLR 18/09 A3006 2040 58 2900 350/16G26 RMK AO2 PK WND 34026/1340 T01780094
03812KAVL AVL20160513085013505/13/16 08:50:31  5-MIN KAVL 131350Z 36012G21KT 10SM CLR 18/10 A3006 2040 60 2900 360/12G21 RMK AO2 PK WND 34026/1340 SLP160 T01780100
03812KAVL AVL20160513085511005/13/16 08:55:31  5-MIN KAVL 131355Z 35016G21KT 10SM CLR 18/10 A3006 2040 60 2900 350/16G21 RMK AO2 T01780100
03812KAVL AVL20160513090011005/13/16 09:00:31  5-MIN KAVL 131400Z 35017G23KT 10SM CLR 18/09 A3006 2040 58 2900 350/17G23 RMK AO2 T01780094
03812KAVL AVL20160513090511005/13/16 09:05:31  5-MIN KAVL 131405Z 35014G23KT 10SM CLR 18/09 A3006 2040 58 2900 360/14G23 RMK AO2 T01780094
03812KAVL AVL20160513091010405/13/16 09:10:31  5-MIN KAVL 131410Z 35012KT 10SM CLR 18/09 A3006 2040 56 2900 360/12 RMK AO2 T01830094
03812KAVL AVL20160513091511005/13/16 09:15:31  5-MIN KAVL 131415Z 34014G21KT 10SM CLR 18/09 A3006 2040 56 2900 340/14G21 RMK AO2 T01830094
03812KAVL AVL20160513092010405/13/16 09:20:31  5-MIN KAVL 131420Z 36013KT 10SM CLR 18/09 A3006 2040 56 2900 010/13 RMK AO2 T01830094
03812KAVL AVL20160513092511005/13/16 09:25:31  5-MIN KAVL 131425Z 35018G25KT 10SM CLR 18/09 A3006 2040 56 2900 350/18G25 RMK AO2 T01830094
03812KAVL AVL20160513093011005/13/16 09:30:31  5-MIN KAVL 131430Z 34016G25KT 10SM CLR 18/09 A3006 2040 54 2900 350/16G25 RMK AO2 T01830089
03812KAVL AVL20160513093511005/13/16 09:35:31  5-MIN KAVL 131435Z 33015G21KT 10SM CLR 18/09 A3006 2040 56 2900 340/15G21 RMK AO2 T01830094
03812KAVL AVL20160513094011005/13/16 09:40:31  5-MIN KAVL 131440Z 35011G21KT 10SM CLR 19/09 A3006 2040 54 3000 360/11G21 RMK AO2 T01890094
03812KAVL AVL20160513094511005/13/16 09:45:31  5-MIN KAVL 131445Z 35014G20KT 10SM CLR 19/09 A3006 2040 54 3000 350/14G20 RMK AO2 T01890094
03812KAVL AVL20160513095012305/13/16 09:50:31  5-MIN KAVL 131450Z 35014G22KT 10SM CLR 19/09 A3006 2040 52 3000 360/14G22 RMK AO2 SLP160 T01890089 51008
03812KAVL AVL20160513095511005/13/16 09:55:31  5-MIN KAVL 131455Z 35015G22KT 10SM CLR 18/09 A3006 2040 54 2900 350/15G22 RMK AO2 T01830089
03812KAVL AVL20160513100011005/13/16 10:00:31  5-MIN KAVL 131500Z 36012G20KT 10SM CLR 19/09 A3006 2040 54 3000 360/12G20 RMK AO2 T01890094
03812KAVL AVL20160513100510705/13/16 10:05:31  5-MIN KAVL 131505Z 36013KT 10SM FEW033 19/09 A3006 2040 54 3000 360/13 RMK AO2 T01890094
03812KAVL AVL20160513101011305/13/16 10:10:31  5-MIN KAVL 131510Z 35012G21KT 10SM FEW033 19/09 A3006 2040 54 3000 350/12G21 RMK AO2 T01890094
03812KAVL AVL20160513101511305/13/16 10:15:31  5-MIN KAVL 131515Z 35012G21KT 10SM FEW033 19/10 A3006 2040 56 3000 360/12G21 RMK AO2 T01890100
03812KAVL AVL20160513102010405/13/16 10:20:31  5-MIN KAVL 131520Z 35011KT 10SM CLR 19/10 A3006 2040 54 3100 360/11 RMK AO2 T01940100
03812KAVL AVL20160513102510405/13/16 10:25:31  5-MIN KAVL 131525Z 01012KT 10SM CLR 19/10 A3006 2040 54 3100 010/12 RMK AO2 T01940100
03812KAVL AVL20160513103011005/13/16 10:30:31  5-MIN KAVL 131530Z 34017G22KT 10SM CLR 20/10 A3006 2040 52 3100 350/17G22 RMK AO2 T02000100
03812KAVL AVL20160513103511005/13/16 10:35:31  5-MIN KAVL 131535Z 34018G25KT 10SM CLR 20/11 A3006 2040 54 3100 340/18G25 RMK AO2 T02000106
03812KAVL AVL20160513104011005/13/16 10:40:31  5-MIN KAVL 131540Z 33018G25KT 10SM CLR 19/11 A3006 2040 56 3100 340/18G25 RMK AO2 T01940106
03812KAVL AVL20160513104511005/13/16 10:45:31  5-MIN KAVL 131545Z 35018G25KT 10SM CLR 20/11 A3006 2040 54 3100 350/18G25 RMK AO2 T02000106
03812KAVL AVL20160513105011705/13/16 10:50:31  5-MIN KAVL 131550Z 35016G25KT 10SM CLR 19/10 A3007 2030 56 3000 360/16G25 RMK AO2 SLP161 T01890100
03812KAVL AVL20160513105511005/13/16 10:55:31  5-MIN KAVL 131555Z 35016G25KT 10SM CLR 19/10 A3007 2030 56 3000 360/16G25 RMK AO2 T01890100
03812KAVL AVL20160513110011005/13/16 11:00:31  5-MIN KAVL 131600Z 35017G25KT 10SM CLR 19/11 A3007 2030 58 3000 350/17G25 RMK AO2 T01890106
03812KAVL AVL20160513110511005/13/16 11:05:31  5-MIN KAVL 131605Z 35015G23KT 10SM CLR 19/10 A3007 2030 56 3000 360/15G23 RMK AO2 T01890100
03812KAVL AVL20160513111011005/13/16 11:10:31  5-MIN KAVL 131610Z 35015G25KT 10SM CLR 19/11 A3007 2030 58 3000 360/15G25 RMK AO2 T01890106
03812KAVL AVL20160513111511005/13/16 11:15:31  5-MIN KAVL 131615Z 36013G25KT 10SM CLR 19/11 A3007 2030 58 3000 010/13G25 RMK AO2 T01890106
03812KAVL AVL20160513112011005/13/16 11:20:31  5-MIN KAVL 131620Z 35013G21KT 10SM CLR 19/11 A3007 2030 58 3000 360/13G21 RMK AO2 T01890106
03812KAVL AVL20160513112511005/13/16 11:25:31  5-MIN KAVL 131625Z 36015G21KT 10SM CLR 19/11 A3007 2030 58 3000 360/15G21 RMK AO2 T01890106
03812KAVL AVL20160513113011005/13/16 11:30:31  5-MIN KAVL 131630Z 34018G24KT 10SM CLR 19/11 A3007 2030 58 3000 340/18G24 RMK AO2 T01890106
03812KAVL AVL20160513113511005/13/16 11:35:31  5-MIN KAVL 131635Z 36014G24KT 10SM CLR 19/10 A3007 2030 56 3000 360/14G24 RMK AO2 T01890100
03812KAVL AVL20160513114010405/13/16 11:40:31  5-MIN KAVL 131640Z 36015KT 10SM CLR 19/10 A3007 2030 56 3000 010/15 RMK AO2 T01890100
03812KAVL AVL20160513114511005/13/16 11:45:31  5-MIN KAVL 131645Z 36014G20KT 10SM CLR 19/10 A3007 2030 56 3000 360/14G20 RMK AO2 T01890100
03812KAVL AVL20160513115011705/13/16 11:50:31  5-MIN KAVL 131650Z 36012G19KT 10SM CLR 19/10 A3007 2030 54 3100 360/12G19 RMK AO2 SLP162 T01940100
03812KAVL AVL20160513115511005/13/16 11:55:31  5-MIN KAVL 131655Z 35012G19KT 10SM CLR 19/10 A3006 2040 54 3100 360/12G19 RMK AO2 T01940100
03812KAVL AVL20160513120011305/13/16 12:00:31  5-MIN KAVL 131700Z 35010G18KT 10SM FEW039 19/11 A3006 2040 56 3100 350/10G18 RMK AO2 T01940106
03812KAVL AVL20160513120510705/13/16 12:05:31  5-MIN KAVL 131705Z 35011KT 10SM FEW039 19/10 A3006 2040 54 3100 350/11 RMK AO2 T01940100
03812KAVL AVL20160513121011305/13/16 12:10:31  5-MIN KAVL 131710Z 34015G21KT 10SM FEW039 19/10 A3006 2040 54 3100 350/15G21 RMK AO2 T01940100
03812KAVL AVL20160513121511305/13/16 12:15:31  5-MIN KAVL 131715Z 34016G21KT 10SM FEW039 20/09 A3006 2040 50 3100 350/16G21 RMK AO2 T02000094
03812KAVL AVL20160513122012905/13/16 12:20:31  5-MIN KAVL 131720Z 34012G19KT 310V010 10SM FEW040 19/09 A3005 2050 52 3100 340/12G19 320V020 RMK AO2 T01940094
03812KAVL AVL20160513122511305/13/16 12:25:31  5-MIN KAVL 131725Z 35013G18KT 10SM FEW040 20/10 A3005 2050 52 3100 360/13G18 RMK AO2 T02000100
03812KAVL AVL20160513123011305/13/16 12:30:31  5-MIN KAVL 131730Z 36009G18KT 10SM SCT040 20/10 A3005 2050 52 3100 010/09G18 RMK AO2 T02000100
03812KAVL AVL20160513123512305/13/16 12:35:31  5-MIN KAVL 131735Z 36011KT 330V030 10SM SCT042 20/10 A3005 2050 52 3100 360/11 340V040 RMK AO2 T02000100
03812KAVL AVL20160513124010705/13/16 12:40:31  5-MIN KAVL 131740Z 36011KT 10SM SCT040 20/10 A3005 2050 52 3100 010/11 RMK AO2 T02000100
03812KAVL AVL20160513124511305/13/16 12:45:31  5-MIN KAVL 131745Z 01009G16KT 10SM SCT040 20/10 A3005 2050 52 3100 020/09G16 RMK AO2 T02000100
03812KAVL AVL20160513125013805/13/16 12:50:31  5-MIN KAVL 131750Z 36010G17KT 10SM SCT040 20/09 A3005 2050 50 3100 010/10G17 RMK AO2 SLP156 T02000094 10200 20161 50009
03812KAVL AVL20160513125511305/13/16 12:55:31  5-MIN KAVL 131755Z 02010G17KT 10SM SCT040 21/09 A3005 2050 48 3200 030/10G17 RMK AO2 T02060094
03812KAVL AVL20160513130010705/13/16 13:00:31  5-MIN KAVL 131800Z 35010KT 10SM SCT040 21/09 A3005 2050 48 3200 360/10 RMK AO2 T02060094
03812KAVL AVL20160513130511305/13/16 13:05:31  5-MIN KAVL 131805Z 35012G19KT 10SM SCT040 21/10 A3004 2050 48 3300 360/12G19 RMK AO2 T02110100
03812KAVL AVL20160513131011305/13/16 13:10:31  5-MIN KAVL 131810Z 35011G19KT 10SM FEW040 22/10 A3004 2050 47 3300 350/11G19 RMK AO2 T02170100
03812KAVL AVL20160513131511305/13/16 13:15:31  5-MIN KAVL 131815Z 36011G17KT 10SM FEW042 21/10 A3004 2050 48 3300 010/11G17 RMK AO2 T02110100
03812KAVL AVL20160513132010705/13/16 13:20:31  5-MIN KAVL 131820Z 01012KT 10SM FEW042 21/09 A3004 2050 47 3300 010/12 RMK AO2 T02110094
03812KAVL AVL20160513132511305/13/16 13:25:31  5-MIN KAVL 131825Z 36009G17KT 10SM FEW042 22/09 A3004 2050 45 3300 010/09G17 RMK AO2 T02170094
03812KAVL AVL20160513133011005/13/16 13:30:31  5-MIN KAVL 131830Z 01011G19KT 10SM CLR 22/09 A3004 2060 43 3300 010/11G19 RMK AO2 T02170089
03812KAVL AVL20160513133511005/13/16 13:35:31  5-MIN KAVL 131835Z 35010G19KT 10SM CLR 22/10 A3004 2060 47 3300 360/10G19 RMK AO2 T02170100
03812KAVL AVL20160513134012605/13/16 13:40:31  5-MIN KAVL 131840Z 35010G19KT 320V020 10SM CLR 22/10 A3004 2060 47 3300 360/10G19 330V030 RMK AO2 T02170100
03812KAVL AVL20160513134511005/13/16 13:45:31  5-MIN KAVL 131845Z 36012G17KT 10SM CLR 22/09 A3004 2060 43 3300 010/12G17 RMK AO2 T02170089
03812KAVL AVL20160513135011705/13/16 13:50:31  5-MIN KAVL 131850Z 36013G19KT 10SM CLR 22/08 A3004 2060 42 3300 010/13G19 RMK AO2 SLP152 T02170083
03812KAVL AVL20160513135510405/13/16 13:55:31  5-MIN KAVL 131855Z 36012KT 10SM CLR 22/08 A3004 2060 42 3300 010/12 RMK AO2 T02170083
03812KAVL AVL20160513140011005/13/16 14:00:31  5-MIN KAVL 131900Z 36011G18KT 10SM CLR 22/08 A3004 2060 40 3400 010/11G18 RMK AO2 T02220083
03812KAVL AVL20160513140511005/13/16 14:05:31  5-MIN KAVL 131905Z 35011G19KT 10SM CLR 22/08 A3004 2060 40 3400 360/11G19 RMK AO2 T02220083
03812KAVL AVL20160513141011005/13/16 14:10:31  5-MIN KAVL 131910Z 35009G19KT 10SM CLR 22/08 A3004 2060 40 3400 350/09G19 RMK AO2 T02220083
03812KAVL AVL20160513141511005/13/16 14:15:31  5-MIN KAVL 131915Z 35011G16KT 10SM CLR 22/09 A3004 2060 42 3400 360/11G16 RMK AO2 T02220089
03812KAVL AVL20160513142011505/13/16 14:20:31  5-MIN KAVL 131920Z AUTO 35014G19KT 10SM CLR 22/08 A3004 2060 39 3400 360/14G19 RMK AO2 T02220078
03812KAVL AVL20160513142511505/13/16 14:25:31  5-MIN KAVL 131925Z AUTO 34014G21KT 10SM CLR 22/08 A3004 2060 40 3400 340/14G21 RMK AO2 T02220083
03812KAVL AVL20160513143011505/13/16 14:30:31  5-MIN KAVL 131930Z AUTO 34012G21KT 10SM CLR 22/08 A3004 2060 40 3400 350/12G21 RMK AO2 T02220083
03812KAVL AVL20160513143511505/13/16 14:35:31  5-MIN KAVL 131935Z AUTO 01009G19KT 10SM CLR 22/09 A3004 2060 42 3400 010/09G19 RMK AO2 T02220089
03812KAVL AVL20160513144013105/13/16 14:40:31  5-MIN KAVL 131940Z AUTO 36010G20KT 330V050 10SM CLR 22/08 A3004 2060 42 3300 010/10G20 340V060 RMK AO2 T02170083
03812KAVL AVL20160513144511505/13/16 14:45:31  5-MIN KAVL 131945Z AUTO 35014G20KT 10SM CLR 22/08 A3004 2060 42 3300 360/14G20 RMK AO2 T02170083
03812KAVL AVL20160513145011705/13/16 14:50:31  5-MIN KAVL 131950Z 34015G20KT 10SM CLR 22/08 A3003 2060 40 3400 350/15G20 RMK AO2 SLP149 T02220083
03812KAVL AVL20160513145511005/13/16 14:55:31  5-MIN KAVL 131955Z 35012G20KT 10SM CLR 22/08 A3003 2060 39 3400 360/12G20 RMK AO2 T02220078
03812KAVL AVL20160513150010405/13/16 15:00:31  5-MIN KAVL 132000Z 36012KT 10SM CLR 22/08 A3003 2060 40 3400 010/12 RMK AO2 T02220083
03812KAVL AVL20160513150511005/13/16 15:05:31  5-MIN KAVL 132005Z 01011G19KT 10SM CLR 22/09 A3003 2070 43 3300 020/11G19 RMK AO2 T02170089
03812KAVL AVL20160513151012605/13/16 15:10:31  5-MIN KAVL 132010Z 01008G16KT 340V050 10SM CLR 22/08 A3003 2070 40 3400 010/08G16 350V060 RMK AO2 T02220083
03812KAVL AVL20160513151511005/13/16 15:15:31  5-MIN KAVL 132015Z 35014G19KT 10SM CLR 22/08 A3003 2070 42 3400 350/14G19 RMK AO2 T02170083
03812KAVL AVL20160513152011005/13/16 15:20:31  5-MIN KAVL 132020Z 36009G19KT 10SM CLR 22/08 A3003 2070 42 3400 010/09G19 RMK AO2 T02170083
03812KAVL AVL20160513152510405/13/16 15:25:31  5-MIN KAVL 132025Z 34010KT 10SM CLR 22/09 A3002 2070 42 3400 350/10 RMK AO2 T02220089
03812KAVL AVL20160513153010405/13/16 15:30:31  5-MIN KAVL 132030Z 35010KT 10SM CLR 22/08 A3002 2070 40 3400 360/10 RMK AO2 T02220083
03812KAVL AVL20160513153511005/13/16 15:35:31  5-MIN KAVL 132035Z 35013G19KT 10SM CLR 22/08 A3002 2070 40 3400 360/13G19 RMK AO2 T02220083
03812KAVL AVL20160513154011005/13/16 15:40:31  5-MIN KAVL 132040Z 36013G19KT 10SM CLR 22/08 A3002 2080 42 3400 360/13G19 RMK AO2 T02170083
03812KAVL AVL20160513154511005/13/16 15:45:31  5-MIN KAVL 132045Z 36009G17KT 10SM CLR 22/08 A3002 2080 42 3400 360/09G17 RMK AO2 T02170083
03812KAVL AVL20160513155013905/13/16 15:50:31  5-MIN KAVL 132050Z 36010G16KT 330V030 10SM CLR 22/08 A3002 2080 40 3400 010/10G16 340V040 RMK AO2 SLP143 T02220083 58004
03812KAVL AVL20160513155511005/13/16 15:55:31  5-MIN KAVL 132055Z 36009G17KT 10SM CLR 22/08 A3002 2080 40 3400 010/09G17 RMK AO2 T02220083
03812KAVL AVL20160513160011005/13/16 16:00:31  5-MIN KAVL 132100Z 36012G17KT 10SM CLR 22/08 A3002 2080 40 3400 010/12G17 RMK AO2 T02220083
03812KAVL AVL20160513160511005/13/16 16:05:31  5-MIN KAVL 132105Z 36011G17KT 10SM CLR 22/08 A3002 2080 39 3400 360/11G17 RMK AO2 T02220078
03812KAVL AVL20160513161011005/13/16 16:10:31  5-MIN KAVL 132110Z 36011G17KT 10SM CLR 22/08 A3002 2080 39 3400 010/11G17 RMK AO2 T02220078
03812KAVL AVL20160513161511005/13/16 16:15:31  5-MIN KAVL 132115Z 01011G18KT 10SM CLR 22/07 A3002 2080 39 3400 020/11G18 RMK AO2 T02170072
03812KAVL AVL20160513162011005/13/16 16:20:31  5-MIN KAVL 132120Z 35011G18KT 10SM CLR 22/08 A3002 2080 39 3400 360/11G18 RMK AO2 T02220078
03812KAVL AVL20160513162510405/13/16 16:25:31  5-MIN KAVL 132125Z 36009KT 10SM CLR 22/08 A3002 2080 39 3400 360/09 RMK AO2 T02220078
03812KAVL AVL20160513163010405/13/16 16:30:31  5-MIN KAVL 132130Z 36007KT 10SM CLR 22/08 A3002 2080 39 3400 010/07 RMK AO2 T02220078
03812KAVL AVL20160513163511005/13/16 16:35:31  5-MIN KAVL 132135Z 35011G17KT 10SM CLR 22/08 A3002 2080 39 3400 350/11G17 RMK AO2 T02220078
03812KAVL AVL20160513164011005/13/16 16:40:31  5-MIN KAVL 132140Z 36010G17KT 10SM CLR 22/08 A3002 2080 40 3400 360/10G17 RMK AO2 T02170078
03812KAVL AVL20160513164511005/13/16 16:45:31  5-MIN KAVL 132145Z 01012G17KT 10SM CLR 22/07 A3002 2080 37 3400 020/12G17 RMK AO2 T02170067
03812KAVL AVL20160513165011105/13/16 16:50:31  5-MIN KAVL 132150Z 01012KT 10SM CLR 22/07 A3002 2080 39 3400 010/12 RMK AO2 SLP145 T02170072
03812KAVL AVL20160513165510405/13/16 16:55:31  5-MIN KAVL 132155Z 36010KT 10SM CLR 22/07 A3002 2080 39 3400 010/10 RMK AO2 T02170072
03812KAVL AVL20160513170010405/13/16 17:00:31  5-MIN KAVL 132200Z 01010KT 10SM CLR 22/07 A3002 2080 39 3400 010/10 RMK AO2 T02170072
03812KAVL AVL20160513170510405/13/16 17:05:31  5-MIN KAVL 132205Z 34013KT 10SM CLR 22/07 A3001 2080 39 3400 350/13 RMK AO2 T02170072
03812KAVL AVL20160513171010405/13/16 17:10:31  5-MIN KAVL 132210Z 35013KT 10SM CLR 22/07 A3001 2080 39 3400 360/13 RMK AO2 T02170072
03812KAVL AVL20160513171510405/13/16 17:15:31  5-MIN KAVL 132215Z 35011KT 10SM CLR 21/07 A3001 2080 40 3300 360/11 RMK AO2 T02110072
03812KAVL AVL20160513172010405/13/16 17:20:31  5-MIN KAVL 132220Z 36012KT 10SM CLR 22/07 A3001 2080 37 3400 010/12 RMK AO2 T02170067
03812KAVL AVL20160513172510405/13/16 17:25:31  5-MIN KAVL 132225Z 35010KT 10SM CLR 21/07 A3002 2080 38 3300 360/10 RMK AO2 T02110067
03812KAVL AVL20160513173010405/13/16 17:30:31  5-MIN KAVL 132230Z 35011KT 10SM CLR 21/07 A3002 2080 38 3300 360/11 RMK AO2 T02110067
03812KAVL AVL20160513173511005/13/16 17:35:31  5-MIN KAVL 132235Z 35012G16KT 10SM CLR 21/07 A3002 2080 38 3300 350/12G16 RMK AO2 T02110067
03812KAVL AVL20160513174011005/13/16 17:40:31  5-MIN KAVL 132240Z 36008G16KT 10SM CLR 21/07 A3002 2080 38 3300 360/08G16 RMK AO2 T02110067
03812KAVL AVL20160513174511005/13/16 17:45:31  5-MIN KAVL 132245Z 34011G17KT 10SM CLR 21/06 A3002 2080 37 3300 350/11G17 RMK AO2 T02110061
03812KAVL AVL20160513175011705/13/16 17:50:31  5-MIN KAVL 132250Z 35011G17KT 10SM CLR 21/06 A3002 2080 37 3300 350/11G17 RMK AO2 SLP144 T02110061
03812KAVL AVL20160513175510405/13/16 17:55:31  5-MIN KAVL 132255Z 35010KT 10SM CLR 21/06 A3002 2080 36 3300 350/10 RMK AO2 T02110056
03812KAVL AVL20160513180010405/13/16 18:00:31  5-MIN KAVL 132300Z 34012KT 10SM CLR 21/06 A3002 2080 38 3200 350/12 RMK AO2 T02060061
03812KAVL AVL20160513180510405/13/16 18:05:31  5-MIN KAVL 132305Z 35009KT 10SM CLR 21/06 A3002 2080 37 3200 360/09 RMK AO2 T02060056
03812KAVL AVL20160513181010405/13/16 18:10:31  5-MIN KAVL 132310Z 35009KT 10SM CLR 21/06 A3002 2080 38 3200 360/09 RMK AO2 T02060061
03812KAVL AVL20160513181510405/13/16 18:15:31  5-MIN KAVL 132315Z 35012KT 10SM CLR 21/05 A3002 2080 35 3200 360/12 RMK AO2 T02060050
03812KAVL AVL20160513182011005/13/16 18:20:31  5-MIN KAVL 132320Z 36008G15KT 10SM CLR 21/05 A3002 2080 35 3200 010/08G15 RMK AO2 T02060050
03812KAVL AVL20160513182510405/13/16 18:25:31  5-MIN KAVL 132325Z 34010KT 10SM CLR 21/06 A3002 2080 37 3200 340/10 RMK AO2 T02060056
03812KAVL AVL20160513183010405/13/16 18:30:31  5-MIN KAVL 132330Z 35008KT 10SM CLR 20/06 A3002 2080 38 3200 350/08 RMK AO2 T02000056
03812KAVL AVL20160513183510405/13/16 18:35:31  5-MIN KAVL 132335Z 34008KT 10SM CLR 20/06 A3002 2080 38 3200 350/08 RMK AO2 T02000056
03812KAVL AVL20160513184010405/13/16 18:40:31  5-MIN KAVL 132340Z 34011KT 10SM CLR 20/06 A3002 2080 40 3200 340/11 RMK AO2 T02000061
03812KAVL AVL20160513184510405/13/16 18:45:31  5-MIN KAVL 132345Z 34009KT 10SM CLR 20/06 A3002 2080 38 3200 350/09 RMK AO2 T02000056
03812KAVL AVL20160513185012905/13/16 18:50:31  5-MIN KAVL 132350Z 34010KT 10SM CLR 19/06 A3002 2070 40 3100 350/10 RMK AO2 SLP147 T01940056 10222 20194 58009
03812KAVL AVL20160513185510405/13/16 18:55:31  5-MIN KAVL 132355Z 34010KT 10SM CLR 19/06 A3002 2080 40 3100 350/10 RMK AO2 T01940056
03812KAVL AVL20160513190010405/13/16 19:00:31  5-MIN KAVL 140000Z 34010KT 10SM CLR 19/06 A3002 2070 43 3000 340/10 RMK AO2 T01890061
03812KAVL AVL20160513190510405/13/16 19:05:31  5-MIN KAVL 140005Z 34009KT 10SM CLR 18/06 A3002 2070 44 3000 350/09 RMK AO2 T01830061
03812KAVL AVL20160513191010405/13/16 19:10:31  5-MIN KAVL 140010Z 34010KT 10SM CLR 19/06 A3002 2070 41 3000 340/10 RMK AO2 T01890056
03812KAVL AVL20160513191510405/13/16 19:15:31  5-MIN KAVL 140015Z 34009KT 10SM CLR 18/06 A3002 2070 42 3000 350/09 RMK AO2 T01830056
03812KAVL AVL20160513192010405/13/16 19:20:31  5-MIN KAVL 140020Z 33009KT 10SM CLR 18/06 A3002 2070 42 3000 340/09 RMK AO2 T01830056
03812KAVL AVL20160513192510405/13/16 19:25:31  5-MIN KAVL 140025Z 34009KT 10SM CLR 18/06 A3002 2070 44 2900 340/09 RMK AO2 T01780056
03812KAVL AVL20160513193010405/13/16 19:30:31  5-MIN KAVL 140030Z 34009KT 10SM CLR 18/06 A3003 2070 44 2900 340/09 RMK AO2 T01780056
03812KAVL AVL20160513193510405/13/16 19:35:31  5-MIN KAVL 140035Z 35009KT 10SM CLR 18/06 A3002 2070 44 2900 350/09 RMK AO2 T01780056
03812KAVL AVL20160513194010405/13/16 19:40:31  5-MIN KAVL 140040Z 34008KT 10SM CLR 18/06 A3002 2070 44 2900 350/08 RMK AO2 T01780056
03812KAVL AVL20160513194510405/13/16 19:45:31  5-MIN KAVL 140045Z 35009KT 10SM CLR 17/06 A3002 2070 47 2900 350/09 RMK AO2 T01720061
03812KAVL AVL20160513195011105/13/16 19:50:31  5-MIN KAVL 140050Z 35007KT 10SM CLR 17/06 A3003 2070 47 2800 360/07 RMK AO2 SLP150 T01720061
03812KAVL AVL20160513195510405/13/16 19:55:31  5-MIN KAVL 140055Z 01007KT 10SM CLR 17/06 A3003 2070 47 2800 020/07 RMK AO2 T01720061
03812KAVL AVL20160513200010405/13/16 20:00:31  5-MIN KAVL 140100Z 36008KT 10SM CLR 17/06 A3003 2070 47 2800 010/08 RMK AO2 T01720061
03812KAVL AVL20160513200510405/13/16 20:05:31  5-MIN KAVL 140105Z 36007KT 10SM CLR 17/06 A3003 2070 47 2800 010/07 RMK AO2 T01720061
03812KAVL AVL20160513201010405/13/16 20:10:31  5-MIN KAVL 140110Z 01009KT 10SM CLR 17/06 A3003 2070 47 2800 010/09 RMK AO2 T01720061
03812KAVL AVL20160513201510405/13/16 20:15:31  5-MIN KAVL 140115Z 36009KT 10SM CLR 17/06 A3002 2070 47 2800 010/09 RMK AO2 T01720061
03812KAVL AVL20160513202010405/13/16 20:20:31  5-MIN KAVL 140120Z 01008KT 10SM CLR 17/06 A3002 2070 49 2800 010/08 RMK AO2 T01670061
03812KAVL AVL20160513202510405/13/16 20:25:31  5-MIN KAVL 140125Z 01007KT 10SM CLR 17/06 A3002 2070 49 2800 010/07 RMK AO2 T01670061
03812KAVL AVL20160513203010405/13/16 20:30:31  5-MIN KAVL 140130Z 36006KT 10SM CLR 17/07 A3002 2070 51 2800 010/06 RMK AO2 T01670067
03812KAVL AVL20160513203510405/13/16 20:35:31  5-MIN KAVL 140135Z 35004KT 10SM CLR 17/06 A3002 2070 49 2800 350/04 RMK AO2 T01670061
03812KAVL AVL20160513204010405/13/16 20:40:31  5-MIN KAVL 140140Z 32006KT 10SM CLR 17/06 A3003 2070 49 2800 330/06 RMK AO2 T01670061
03812KAVL AVL20160513204510405/13/16 20:45:31  5-MIN KAVL 140145Z 30006KT 10SM CLR 16/07 A3003 2070 57 2700 310/06 RMK AO2 T01560072
03812KAVL AVL20160513205011105/13/16 20:50:31  5-MIN KAVL 140150Z 32007KT 10SM CLR 15/07 A3003 2070 59 2600 320/07 RMK AO2 SLP151 T01500072
03812KAVL AVL20160513205510405/13/16 20:55:31  5-MIN KAVL 140155Z 32008KT 10SM CLR 15/07 A3003 2070 57 2600 330/08 RMK AO2 T01500067
03812KAVL AVL20160513210010405/13/16 21:00:31  5-MIN KAVL 140200Z 33007KT 10SM CLR 15/07 A3003 2070 59 2600 330/07 RMK AO2 T01500072
03812KAVL AVL20160513210510405/13/16 21:05:31  5-MIN KAVL 140205Z 33006KT 10SM CLR 15/07 A3003 2070 59 2600 330/06 RMK AO2 T01500072
03812KAVL AVL20160513211010405/13/16 21:10:31  5-MIN KAVL 140210Z 32006KT 10SM CLR 14/07 A3003 2060 61 2500 330/06 RMK AO2 T01440072
03812KAVL AVL20160513211510405/13/16 21:15:31  5-MIN KAVL 140215Z 34005KT 10SM CLR 14/07 A3003 2060 61 2500 340/05 RMK AO2 T01440072
03812KAVL AVL20160513212010405/13/16 21:20:31  5-MIN KAVL 140220Z 01003KT 10SM CLR 15/07 A3004 2060 59 2600 010/03 RMK AO2 T01500072
03812KAVL AVL20160513212510405/13/16 21:25:31  5-MIN KAVL 140225Z 36004KT 10SM CLR 15/07 A3004 2060 57 2600 010/04 RMK AO2 T01500067
03812KAVL AVL20160513213010405/13/16 21:30:31  5-MIN KAVL 140230Z 36004KT 10SM CLR 15/07 A3004 2060 57 2600 360/04 RMK AO2 T01500067
03812KAVL AVL20160513213510405/13/16 21:35:31  5-MIN KAVL 140235Z 36005KT 10SM CLR 15/07 A3004 2060 57 2600 010/05 RMK AO2 T01500067
03812KAVL AVL20160513214010405/13/16 21:40:31  5-MIN KAVL 140240Z 36006KT 10SM CLR 15/07 A3004 2060 57 2600 360/06 RMK AO2 T01500067
03812KAVL AVL20160513214510405/13/16 21:45:31  5-MIN KAVL 140245Z 36006KT 10SM CLR 15/07 A3004 2060 57 2600 360/06 RMK AO2 T01500067
03812KAVL AVL20160513215011705/13/16 21:50:31  5-MIN KAVL 140250Z 36005KT 10SM CLR 15/07 A3004 2060 57 2600 360/05 RMK AO2 SLP153 T01500067 53001
03812KAVL AVL20160513215510905/13/16 21:55:31  5-MIN KAVL 140255Z AUTO 36005KT 10SM CLR 15/07 A3004 2060 59 2600 010/05 RMK AO2 T01500072
03812KAVL AVL20160513220010905/13/16 22:00:31  5-MIN KAVL 140300Z AUTO 36004KT 10SM CLR 14/07 A3004 2060 61 2500 010/04 RMK AO2 T01440072
03812KAVL AVL20160513220510905/13/16 22:05:31  5-MIN KAVL 140305Z AUTO 36004KT 10SM CLR 14/07 A3003 2060 61 2500 010/04 RMK AO2 T01440072
03812KAVL AVL20160513221010905/13/16 22:10:31  5-MIN KAVL 140310Z AUTO 36004KT 10SM CLR 14/07 A3003 2060 61 2500 010/04 RMK AO2 T01440072
03812KAVL AVL20160513221510905/13/16 22:15:31  5-MIN KAVL 140315Z AUTO 36006KT 10SM CLR 14/07 A3003 2060 61 2500 010/06 RMK AO2 T01440072
03812KAVL AVL20160513222010905/13/16 22:20:31  5-MIN KAVL 140320Z AUTO 36007KT 10SM CLR 14/07 A3003 2060 61 2500 360/07 RMK AO2 T01440072
03812KAVL AVL20160513222510905/13/16 22:25:31  5-MIN KAVL 140325Z AUTO 36007KT 10SM CLR 14/07 A3003 2060 61 2500 010/07 RMK AO2 T01440072
03812KAVL AVL20160513223010905/13/16 22:30:31  5-MIN KAVL 140330Z AUTO 36007KT 10SM CLR 14/07 A3003 2060 61 2500 360/07 RMK AO2 T01440072
03812KAVL AVL20160513223510905/13/16 22:35:31  5-MIN KAVL 140335Z AUTO 36007KT 10SM CLR 14/07 A3003 2060 61 2500 010/07 RMK AO2 T01440072
03812KAVL AVL20160513224010905/13/16 22:40:31  5-MIN KAVL 140340Z AUTO 36007KT 10SM CLR 14/07 A3004 2060 64 2400 360/07 RMK AO2 T01390072
03812KAVL AVL20160513224510905/13/16 22:45:31  5-MIN KAVL 140345Z AUTO 36006KT 10SM CLR 14/07 A3003 2060 64 2500 010/06 RMK AO2 T01390072
03812KAVL AVL20160513225011605/13/16 22:50:31  5-MIN KAVL 140350Z AUTO 36006KT 10SM CLR 14/07 A3003 2060 64 2500 010/06 RMK AO2 SLP153 T01390072
03812KAVL AVL20160513225510905/13/16 22:55:31  5-MIN KAVL 140355Z AUTO 36006KT 10SM CLR 14/07 A3003 2060 64 2500 360/06 RMK AO2 T01390072
03812KAVL AVL20160513230010905/13/16 23:00:31  5-MIN KAVL 140400Z AUTO 35006KT 10SM CLR 14/07 A3003 2070 64 2500 360/06 RMK AO2 T01390072
03812KAVL AVL20160513230510905/13/16 23:05:31  5-MIN KAVL 140405Z AUTO 35005KT 10SM CLR 13/07 A3003 2070 66 2400 360/05 RMK AO2 T01330072
03812KAVL AVL20160513231010905/13/16 23:10:31  5-MIN KAVL 140410Z AUTO 36005KT 10SM CLR 13/07 A3003 2070 66 2400 010/05 RMK AO2 T01330072
03812KAVL AVL20160513231510905/13/16 23:15:31  5-MIN KAVL 140415Z AUTO 01005KT 10SM CLR 13/07 A3003 2070 66 2400 010/05 RMK AO2 T01330072
03812KAVL AVL20160513232010905/13/16 23:20:31  5-MIN KAVL 140420Z AUTO VRB03KT 10SM CLR 13/07 A3003 2060 66 2400 VRB/03 RMK AO2 T01330072
03812KAVL AVL20160513232510905/13/16 23:25:31  5-MIN KAVL 140425Z AUTO 02005KT 10SM CLR 13/07 A3003 2060 66 2400 020/05 RMK AO2 T01330072
03812KAVL AVL20160513233010905/13/16 23:30:31  5-MIN KAVL 140430Z AUTO 01006KT 10SM CLR 13/07 A3003 2060 66 2400 020/06 RMK AO2 T01330072
03812KAVL AVL20160513233510905/13/16 23:35:31  5-MIN KAVL 140435Z AUTO 02005KT 10SM CLR 13/07 A3003 2070 66 2400 020/05 RMK AO2 T01330072
03812KAVL AVL20160513234010905/13/16 23:40:31  5-MIN KAVL 140440Z AUTO 01004KT 10SM CLR 13/07 A3003 2070 66 2400 020/04 RMK AO2 T01330072
03812KAVL AVL20160513234510905/13/16 23:45:31  5-MIN KAVL 140445Z AUTO 01006KT 10SM CLR 13/07 A3003 2070 66 2400 020/06 RMK AO2 T01330072
03812KAVL AVL20160513235012605/13/16 23:50:31  5-MIN KAVL 140450Z AUTO 01006KT 10SM CLR 14/07 A3003 2070 64 2500 020/06 RMK AO2 SLP151 T01390072 402220133
03812KAVL AVL20160513235510905/13/16 23:55:31  5-MIN KAVL 140455Z AUTO 36006KT 10SM CLR 14/07 A3003 2070 61 2500 360/06 RMK AO2 T01390067
03812KAVL AVL20160514000010905/14/16 00:00:31  5-MIN KAVL 140500Z AUTO 36005KT 10SM CLR 13/07 A3003 2070 64 2400 360/05 RMK AO2 T01330067
03812KAVL AVL20160514000510905/14/16 00:05:31  5-MIN KAVL 140505Z AUTO 36006KT 10SM CLR 13/07 A3003 2070 64 2400 360/06 RMK AO2 T01330067
03812KAVL AVL20160514001010905/14/16 00:10:31  5-MIN KAVL 140510Z AUTO 35005KT 10SM CLR 13/07 A3003 2070 64 2400 360/05 RMK AO2 T01330067
03812KAVL AVL20160514001510905/14/16 00:15:31  5-MIN KAVL 140515Z AUTO 36005KT 10SM CLR 13/07 A3003 2070 69 2300 360/05 RMK AO2 T01280072
03812KAVL AVL20160514002010905/14/16 00:20:31  5-MIN KAVL 140520Z AUTO 01004KT 10SM CLR 13/07 A3002 2070 69 2300 020/04 RMK AO2 T01280072
03812KAVL AVL20160514002510905/14/16 00:25:31  5-MIN KAVL 140525Z AUTO 00000KT 10SM CLR 13/07 A3002 2070 69 2300 000/00 RMK AO2 T01280072
03812KAVL AVL20160514003010905/14/16 00:30:31  5-MIN KAVL 140530Z AUTO 00000KT 10SM CLR 13/07 A3002 2070 69 2300 000/00 RMK AO2 T01280072
03812KAVL AVL20160514003510905/14/16 00:35:31  5-MIN KAVL 140535Z AUTO 00000KT 10SM CLR 13/07 A3002 2070 69 2300 000/00 RMK AO2 T01280072
03812KAVL AVL20160514004010905/14/16 00:40:31  5-MIN KAVL 140540Z AUTO 00000KT 10SM CLR 12/07 A3002 2070 71 2300 000/00 RMK AO2 T01220072
03812KAVL AVL20160514004510905/14/16 00:45:31  5-MIN KAVL 140545Z AUTO 00000KT 10SM CLR 12/07 A3002 2070 71 2300 000/00 RMK AO2 T01220072
03812KAVL AVL20160514005013405/14/16 00:50:31  5-MIN KAVL 140550Z AUTO 00000KT 10SM CLR 11/07 A3001 2080 77 2100 000/00 RMK AO2 SLP149 T01110072 10194 20111 52005
03812KAVL AVL20160514005510905/14/16 00:55:31  5-MIN KAVL 140555Z AUTO 00000KT 10SM CLR 11/07 A3002 2080 77 2100 000/00 RMK AO2 T01110072
03812KAVL AVL20160514010010905/14/16 01:00:31  5-MIN KAVL 140600Z AUTO 00000KT 10SM CLR 12/07 A3002 2080 74 2200 000/00 RMK AO2 T01170072
03812KAVL AVL20160514010510905/14/16 01:05:31  5-MIN KAVL 140605Z AUTO 00000KT 10SM CLR 11/07 A3001 2080 77 2200 000/00 RMK AO2 T01110072
03812KAVL AVL20160514011010905/14/16 01:10:31  5-MIN KAVL 140610Z AUTO 00000KT 10SM CLR 11/07 A3001 2090 77 2200 000/00 RMK AO2 T01110072
03812KAVL AVL20160514011510905/14/16 01:15:31  5-MIN KAVL 140615Z AUTO 00000KT 10SM CLR 11/07 A3001 2080 77 2200 000/00 RMK AO2 T01110072
03812KAVL AVL20160514012010905/14/16 01:20:31  5-MIN KAVL 140620Z AUTO 30003KT 10SM CLR 11/07 A3001 2080 77 2200 310/03 RMK AO2 T01110072
03812KAVL AVL20160514012510905/14/16 01:25:31  5-MIN KAVL 140625Z AUTO 32003KT 10SM CLR 11/07 A3001 2090 77 2200 320/03 RMK AO2 T01110072
03812KAVL AVL20160514013010905/14/16 01:30:31  5-MIN KAVL 140630Z AUTO 32003KT 10SM CLR 11/07 A3001 2090 77 2200 330/03 RMK AO2 T01110072
03812KAVL AVL20160514013510905/14/16 01:35:31  5-MIN KAVL 140635Z AUTO 31003KT 10SM CLR 11/07 A3001 2090 77 2200 310/03 RMK AO2 T01110072
03812KAVL AVL20160514014010905/14/16 01:40:31  5-MIN KAVL 140640Z AUTO 00000KT 10SM CLR 11/07 A3001 2090 80 2100 000/00 RMK AO2 T01060072
03812KAVL AVL20160514014510905/14/16 01:45:31  5-MIN KAVL 140645Z AUTO 00000KT 10SM CLR 11/07 A3000 2090 80 2100 000/00 RMK AO2 T01060072
03812KAVL AVL20160514015011605/14/16 01:50:31  5-MIN KAVL 140650Z AUTO 00000KT 10SM CLR 11/07 A3000 2090 80 2100 000/00 RMK AO2 SLP143 T01060072
03812KAVL AVL20160514015510905/14/16 01:55:31  5-MIN KAVL 140655Z AUTO 31003KT 10SM CLR 11/07 A3000 2090 77 2200 310/03 RMK AO2 T01110072
03812KAVL AVL20160514020010905/14/16 02:00:31  5-MIN KAVL 140700Z AUTO 32003KT 10SM CLR 10/07 A3000 2090 80 2000 320/03 RMK AO2 T01000067
03812KAVL AVL20160514020510905/14/16 02:05:31  5-MIN KAVL 140705Z AUTO 00000KT 10SM CLR 11/07 A3000 2100 77 2100 000/00 RMK AO2 T01060067
03812KAVL AVL20160514021010905/14/16 02:10:31  5-MIN KAVL 140710Z AUTO 00000KT 10SM CLR 10/07 A3000 2100 80 2000 000/00 RMK AO2 T01000067
03812KAVL AVL20160514021510905/14/16 02:15:31  5-MIN KAVL 140715Z AUTO 32004KT 10SM CLR 10/07 A3000 2100 80 2000 330/04 RMK AO2 T01000067
03812KAVL AVL20160514022010905/14/16 02:20:31  5-MIN KAVL 140720Z AUTO 33004KT 10SM CLR 10/07 A2999 2100 80 2000 330/04 RMK AO2 T01000067
03812KAVL AVL20160514022510905/14/16 02:25:31  5-MIN KAVL 140725Z AUTO 33003KT 10SM CLR 10/07 A2999 2100 80 2000 340/03 RMK AO2 T01000067
03812KAVL AVL20160514023010905/14/16 02:30:31  5-MIN KAVL 140730Z AUTO 30003KT 10SM CLR 10/07 A2999 2100 80 2000 310/03 RMK AO2 T01000067
03812KAVL AVL20160514023510905/14/16 02:35:31  5-MIN KAVL 140735Z AUTO 00000KT 10SM CLR 09/07 A2999 2100 83 2000 000/00 RMK AO2 T00940067
03812KAVL AVL20160514024010905/14/16 02:40:31  5-MIN KAVL 140740Z AUTO 00000KT 10SM CLR 09/07 A2999 2100 83 2000 000/00 RMK AO2 T00940067
03812KAVL AVL20160514024510905/14/16 02:45:31  5-MIN KAVL 140745Z AUTO 27003KT 10SM CLR 09/07 A2999 2100 86 1900 280/03 RMK AO2 T00890067
03812KAVL AVL20160514025011605/14/16 02:50:31  5-MIN KAVL 140750Z AUTO 29003KT 10SM CLR 09/07 A2999 2100 86 1900 290/03 RMK AO2 SLP141 T00890067
03812KAVL AVL20160514025510905/14/16 02:55:31  5-MIN KAVL 140755Z AUTO 29003KT 10SM CLR 09/07 A2999 2100 86 1900 300/03 RMK AO2 T00890067
03812KAVL AVL20160514030010905/14/16 03:00:31  5-MIN KAVL 140800Z AUTO 00000KT 10SM CLR 09/07 A2999 2100 86 1900 000/00 RMK AO2 T00890067
03812KAVL AVL20160514030510905/14/16 03:05:31  5-MIN KAVL 140805Z AUTO 00000KT 10SM CLR 09/07 A2999 2110 86 1900 000/00 RMK AO2 T00890067
03812KAVL AVL20160514031010905/14/16 03:10:31  5-MIN KAVL 140810Z AUTO 00000KT 10SM CLR 09/07 A2999 2110 86 1900 000/00 RMK AO2 T00890067
03812KAVL AVL20160514031510905/14/16 03:15:31  5-MIN KAVL 140815Z AUTO 00000KT 10SM CLR 09/07 A2999 2110 86 1900 000/00 RMK AO2 T00890067
03812KAVL AVL20160514032010905/14/16 03:20:31  5-MIN KAVL 140820Z AUTO 00000KT 10SM CLR 09/07 A2999 2110 86 1900 000/00 RMK AO2 T00890067
03812KAVL AVL20160514032510905/14/16 03:25:31  5-MIN KAVL 140825Z AUTO 29003KT 10SM CLR 08/07 A2999 2100 89 1800 300/03 RMK AO2 T00830067
03812KAVL AVL20160514033010905/14/16 03:30:31  5-MIN KAVL 140830Z AUTO 31003KT 10SM CLR 08/07 A2999 2100 89 1800 310/03 RMK AO2 T00830067
03812KAVL AVL20160514033510905/14/16 03:35:31  5-MIN KAVL 140835Z AUTO 32004KT 10SM CLR 08/07 A2999 2100 89 1800 320/04 RMK AO2 T00830067
03812KAVL AVL20160514034010905/14/16 03:40:31  5-MIN KAVL 140840Z AUTO 31003KT 10SM CLR 09/07 A2999 2100 86 1900 310/03 RMK AO2 T00890067
03812KAVL AVL20160514034510905/14/16 03:45:31  5-MIN KAVL 140845Z AUTO 30003KT 10SM CLR 09/07 A2999 2100 86 1900 300/03 RMK AO2 T00890067
03812KAVL AVL20160514035012205/14/16 03:50:31  5-MIN KAVL 140850Z AUTO 30003KT 10SM CLR 09/07 A2999 2100 86 1900 300/03 RMK AO2 SLP141 T00890067 58007
03812KAVL AVL20160514035510905/14/16 03:55:31  5-MIN KAVL 140855Z AUTO 00000KT 10SM CLR 09/07 A2999 2110 86 1900 000/00 RMK AO2 T00890067
03812KAVL AVL20160514040010905/14/16 04:00:31  5-MIN KAVL 140900Z AUTO 00000KT 10SM CLR 09/07 A2999 2110 86 1900 000/00 RMK AO2 T00890067
03812KAVL AVL20160514040510905/14/16 04:05:31  5-MIN KAVL 140905Z AUTO 00000KT 10SM CLR 09/06 A2999 2110 83 1900 000/00 RMK AO2 T00890061
03812KAVL AVL20160514041010905/14/16 04:10:31  5-MIN KAVL 140910Z AUTO VRB03KT 10SM CLR 09/06 A2999 2110 83 1900 VRB/03 RMK AO2 T00890061
03812KAVL AVL20160514041510905/14/16 04:15:31  5-MIN KAVL 140915Z AUTO 33004KT 10SM CLR 09/07 A2999 2110 86 1900 330/04 RMK AO2 T00890067
03812KAVL AVL20160514042010905/14/16 04:20:31  5-MIN KAVL 140920Z AUTO 34003KT 10SM CLR 09/07 A2998 2110 86 1900 350/03 RMK AO2 T00890067
03812KAVL AVL20160514042510905/14/16 04:25:31  5-MIN KAVL 140925Z AUTO 35003KT 10SM CLR 09/07 A2998 2110 86 1900 360/03 RMK AO2 T00890067
03812KAVL AVL20160514043010905/14/16 04:30:31  5-MIN KAVL 140930Z AUTO 34003KT 10SM CLR 09/07 A2998 2110 86 1900 340/03 RMK AO2 T00890067
03812KAVL AVL20160514043510905/14/16 04:35:31  5-MIN KAVL 140935Z AUTO 00000KT 10SM CLR 09/07 A2998 2110 86 1900 000/00 RMK AO2 T00890067
03812KAVL AVL20160514044010905/14/16 04:40:31  5-MIN KAVL 140940Z AUTO 36005KT 10SM CLR 09/07 A2998 2110 83 2000 010/05 RMK AO2 T00940067
03812KAVL AVL20160514044510905/14/16 04:45:31  5-MIN KAVL 140945Z AUTO 36004KT 10SM CLR 09/07 A2998 2110 83 2000 360/04 RMK AO2 T00940067
03812KAVL AVL20160514045011605/14/16 04:50:31  5-MIN KAVL 140950Z AUTO 00000KT 10SM CLR 09/07 A2998 2110 83 2000 000/00 RMK AO2 SLP138 T00940067
03812KAVL AVL20160514045510905/14/16 04:55:31  5-MIN KAVL 140955Z AUTO 00000KT 10SM CLR 09/07 A2998 2110 86 1900 000/00 RMK AO2 T00890067
03812KAVL AVL20160514050010905/14/16 05:00:31  5-MIN KAVL 141000Z AUTO 00000KT 10SM CLR 08/06 A2998 2110 86 1900 000/00 RMK AO2 T00830061
03812KAVL AVL20160514050510905/14/16 05:05:31  5-MIN KAVL 141005Z AUTO 00000KT 10SM CLR 08/06 A2998 2110 86 1900 000/00 RMK AO2 T00830061
03812KAVL AVL20160514051010905/14/16 05:10:31  5-MIN KAVL 141010Z AUTO 00000KT 10SM CLR 08/06 A2998 2110 86 1900 000/00 RMK AO2 T00830061
03812KAVL AVL20160514051510905/14/16 05:15:31  5-MIN KAVL 141015Z AUTO 25003KT 10SM CLR 08/06 A2999 2100 89 1800 250/03 RMK AO2 T00780061
03812KAVL AVL20160514052010405/14/16 05:20:31  5-MIN KAVL 141020Z 26003KT 10SM CLR 08/06 A2999 2100 86 1800 270/03 RMK AO2 T00780056
03812KAVL AVL20160514052510405/14/16 05:25:31  5-MIN KAVL 141025Z 23003KT 10SM CLR 08/06 A2999 2100 86 1800 230/03 RMK AO2 T00780056
03812KAVL AVL20160514053010405/14/16 05:30:31  5-MIN KAVL 141030Z 00000KT 10SM CLR 08/06 A2999 2100 89 1800 000/00 RMK AO2 T00780061
03812KAVL AVL20160514053510405/14/16 05:35:31  5-MIN KAVL 141035Z 00000KT 10SM CLR 07/06 A3000 2100 89 1700 000/00 RMK AO2 T00720056
03812KAVL AVL20160514054010405/14/16 05:40:31  5-MIN KAVL 141040Z 00000KT 10SM CLR 08/06 A3000 2100 86 1800 000/00 RMK AO2 T00780056
03812KAVL AVL20160514054510405/14/16 05:45:31  5-MIN KAVL 141045Z 00000KT 10SM CLR 07/06 A3000 2100 89 1700 000/00 RMK AO2 T00720056
03812KAVL AVL20160514055011105/14/16 05:50:31  5-MIN KAVL 141050Z 00000KT 10SM CLR 07/06 A3000 2100 89 1700 000/00 RMK AO2 SLP145 T00720056
03812KAVL AVL20160514055510405/14/16 05:55:31  5-MIN KAVL 141055Z 00000KT 10SM CLR 08/06 A3000 2090 89 1800 000/00 RMK AO2 T00780061
03812KAVL AVL20160514060010405/14/16 06:00:31  5-MIN KAVL 141100Z 00000KT 10SM CLR 08/06 A3000 2090 89 1800 000/00 RMK AO2 T00780061
03812KAVL AVL20160514060510405/14/16 06:05:31  5-MIN KAVL 141105Z 00000KT 10SM CLR 08/06 A3000 2090 89 1800 000/00 RMK AO2 T00780061
03812KAVL AVL20160514061010405/14/16 06:10:31  5-MIN KAVL 141110Z 00000KT 10SM CLR 08/07 A2999 2100 89 1800 000/00 RMK AO2 T00830067
03812KAVL AVL20160514061510405/14/16 06:15:31  5-MIN KAVL 141115Z 00000KT 10SM CLR 08/07 A2999 2100 89 1800 000/00 RMK AO2 T00830067
03812KAVL AVL20160514062010405/14/16 06:20:31  5-MIN KAVL 141120Z 17003KT 10SM CLR 08/07 A2999 2100 89 1800 180/03 RMK AO2 T00830067
03812KAVL AVL20160514062510405/14/16 06:25:31  5-MIN KAVL 141125Z 00000KT 10SM CLR 09/07 A3000 2100 86 1900 000/00 RMK AO2 T00890067
03812KAVL AVL20160514063010405/14/16 06:30:31  5-MIN KAVL 141130Z 00000KT 10SM CLR 09/07 A3000 2090 89 1900 000/00 RMK AO2 T00890072
03812KAVL AVL20160514063510405/14/16 06:35:31  5-MIN KAVL 141135Z 24003KT 10SM CLR 09/07 A3000 2090 89 1900 240/03 RMK AO2 T00890072
03812KAVL AVL20160514064010405/14/16 06:40:31  5-MIN KAVL 141140Z 00000KT 10SM CLR 09/07 A3000 2090 86 2000 000/00 RMK AO2 T00940072
03812KAVL AVL20160514064510405/14/16 06:45:31  5-MIN KAVL 141145Z 23003KT 10SM CLR 09/07 A3000 2090 86 2000 230/03 RMK AO2 T00940072
03812KAVL AVL20160514065012905/14/16 06:50:31  5-MIN KAVL 141150Z 24003KT 10SM CLR 10/07 A3000 2090 83 2000 240/03 RMK AO2 SLP145 T01000072 10117 20072 56008
03812KAVL AVL20160514065510405/14/16 06:55:31  5-MIN KAVL 141155Z 00000KT 10SM CLR 10/07 A3000 2090 83 2000 000/00 RMK AO2 T01000072
03812KAVL AVL20160514070010405/14/16 07:00:31  5-MIN KAVL 141200Z 00000KT 10SM CLR 11/07 A3000 2090 80 2100 000/00 RMK AO2 T01060072
03812KAVL AVL20160514070510405/14/16 07:05:31  5-MIN KAVL 141205Z 00000KT 10SM CLR 11/07 A3000 2100 77 2200 000/00 RMK AO2 T01110072
03812KAVL AVL20160514071010405/14/16 07:10:31  5-MIN KAVL 141210Z 00000KT 10SM CLR 11/08 A3000 2100 80 2200 000/00 RMK AO2 T01110078
03812KAVL AVL20160514071510405/14/16 07:15:31  5-MIN KAVL 141215Z 00000KT 10SM CLR 12/08 A3000 2100 77 2200 000/00 RMK AO2 T01170078
03812KAVL AVL20160514072010405/14/16 07:20:31  5-MIN KAVL 141220Z 29003KT 10SM CLR 12/08 A3000 2090 74 2300 300/03 RMK AO2 T01220078
03812KAVL AVL20160514072510405/14/16 07:25:31  5-MIN KAVL 141225Z 33003KT 10SM CLR 12/08 A3000 2090 74 2300 340/03 RMK AO2 T01220078
03812KAVL AVL20160514073010405/14/16 07:30:31  5-MIN KAVL 141230Z 32004KT 10SM CLR 12/08 A3000 2100 74 2300 320/04 RMK AO2 T01220078
03812KAVL AVL20160514073510405/14/16 07:35:31  5-MIN KAVL 141235Z 34004KT 10SM CLR 13/08 A3000 2100 74 2400 340/04 RMK AO2 T01280083
03812KAVL AVL20160514074010405/14/16 07:40:31  5-MIN KAVL 141240Z 33005KT 10SM CLR 13/08 A3000 2100 71 2400 340/05 RMK AO2 T01330083
03812KAVL AVL20160514074510405/14/16 07:45:31  5-MIN KAVL 141245Z 36004KT 10SM CLR 13/08 A3000 2100 71 2400 010/04 RMK AO2 T01330083
03812KAVL AVL20160514075011105/14/16 07:50:31  5-MIN KAVL 141250Z 34005KT 10SM CLR 13/08 A3000 2100 71 2400 350/05 RMK AO2 SLP143 T01330083
03812KAVL AVL20160514075510405/14/16 07:55:31  5-MIN KAVL 141255Z 35004KT 10SM CLR 14/08 A3000 2100 69 2500 350/04 RMK AO2 T01390083
03812KAVL AVL20160514080010405/14/16 08:00:31  5-MIN KAVL 141300Z 00000KT 10SM CLR 14/08 A2999 2100 69 2500 000/00 RMK AO2 T01390083
03812KAVL AVL20160514080510405/14/16 08:05:31  5-MIN KAVL 141305Z 00000KT 10SM CLR 14/08 A2999 2110 66 2600 000/00 RMK AO2 T01440083
03812KAVL AVL20160514081010405/14/16 08:10:31  5-MIN KAVL 141310Z 01003KT 10SM CLR 15/08 A2999 2110 64 2600 010/03 RMK AO2 T01500083
03812KAVL AVL20160514081510405/14/16 08:15:31  5-MIN KAVL 141315Z 35004KT 10SM CLR 16/08 A2998 2110 62 2700 360/04 RMK AO2 T01560083
03812KAVL AVL20160514082010405/14/16 08:20:31  5-MIN KAVL 141320Z 34004KT 10SM CLR 15/08 A2998 2110 62 2600 340/04 RMK AO2 T01500078
03812KAVL AVL20160514082510405/14/16 08:25:31  5-MIN KAVL 141325Z VRB04KT 10SM CLR 16/08 A2998 2110 62 2700 VRB/04 RMK AO2 T01560083
03812KAVL AVL20160514083010405/14/16 08:30:31  5-MIN KAVL 141330Z 33004KT 10SM CLR 16/08 A2998 2110 59 2800 340/04 RMK AO2 T01610083
03812KAVL AVL20160514083510405/14/16 08:35:31  5-MIN KAVL 141335Z 35005KT 10SM CLR 16/08 A2998 2120 59 2800 360/05 RMK AO2 T01610083
03812KAVL AVL20160514084010405/14/16 08:40:31  5-MIN KAVL 141340Z 35003KT 10SM CLR 16/08 A2997 2120 57 2800 350/03 RMK AO2 T01610078
03812KAVL AVL20160514084510405/14/16 08:45:31  5-MIN KAVL 141345Z 34005KT 10SM CLR 17/08 A2997 2120 57 2800 340/05 RMK AO2 T01670083
03812KAVL AVL20160514085011105/14/16 08:50:31  5-MIN KAVL 141350Z 34004KT 10SM CLR 17/08 A2997 2120 55 2900 350/04 RMK AO2 SLP132 T01720083
03812KAVL AVL20160514085510405/14/16 08:55:31  5-MIN KAVL 141355Z 34005KT 10SM CLR 17/08 A2997 2120 53 2900 350/05 RMK AO2 T01720078
03812KAVL AVL20160514090010405/14/16 09:00:31  5-MIN KAVL 141400Z 33005KT 10SM CLR 18/08 A2997 2120 53 3000 330/05 RMK AO2 T01780083
03812KAVL AVL20160514090510405/14/16 09:05:31  5-MIN KAVL 141405Z 35003KT 10SM CLR 18/08 A2996 2130 51 3000 360/03 RMK AO2 T01780078
03812KAVL AVL20160514091010405/14/16 09:10:31  5-MIN KAVL 141410Z VRB04KT 10SM CLR 18/08 A2996 2130 50 3000 VRB/04 RMK AO2 T01830078
03812KAVL AVL20160514091510405/14/16 09:15:31  5-MIN KAVL 141415Z 33003KT 10SM CLR 18/07 A2996 2130 49 3000 340/03 RMK AO2 T01780072
03812KAVL AVL20160514092010405/14/16 09:20:31  5-MIN KAVL 141420Z VRB04KT 10SM CLR 18/08 A2996 2140 50 3100 VRB/04 RMK AO2 T01830078
03812KAVL AVL20160514092510405/14/16 09:25:31  5-MIN KAVL 141425Z VRB03KT 10SM CLR 18/08 A2995 2140 50 3100 VRB/03 RMK AO2 T01830078
03812KAVL AVL20160514093010405/14/16 09:30:31  5-MIN KAVL 141430Z 31004KT 10SM CLR 18/08 A2995 2140 50 3100 310/04 RMK AO2 T01830078
03812KAVL AVL20160514093510405/14/16 09:35:31  5-MIN KAVL 141435Z 35004KT 10SM CLR 19/08 A2995 2140 48 3100 350/04 RMK AO2 T01890078
03812KAVL AVL20160514094010405/14/16 09:40:31  5-MIN KAVL 141440Z 32006KT 10SM CLR 19/08 A2995 2140 48 3100 320/06 RMK AO2 T01890078
03812KAVL AVL20160514094510405/14/16 09:45:31  5-MIN KAVL 141445Z 33004KT 10SM CLR 19/07 A2995 2140 44 3100 340/04 RMK AO2 T01890067
03812KAVL AVL20160514095011705/14/16 09:50:31  5-MIN KAVL 141450Z 35005KT 10SM CLR 19/07 A2995 2140 44 3200 360/05 RMK AO2 SLP123 T01940072 53004
03812KAVL AVL20160514095510405/14/16 09:55:31  5-MIN KAVL 141455Z VRB03KT 10SM CLR 19/07 A2995 2140 44 3200 VRB/03 RMK AO2 T01940072
03812KAVL AVL20160514100010405/14/16 10:00:31  5-MIN KAVL 141500Z 02004KT 10SM CLR 19/07 A2995 2140 44 3100 030/04 RMK AO2 T01890067
03812KAVL AVL20160514100510405/14/16 10:05:31  5-MIN KAVL 141505Z 00000KT 10SM CLR 19/06 A2995 2140 43 3100 000/00 RMK AO2 T01890061
03812KAVL AVL20160514101010405/14/16 10:10:31  5-MIN KAVL 141510Z 34005KT 10SM CLR 20/07 A2995 2140 41 3300 350/05 RMK AO2 T02000067
03812KAVL AVL20160514101510405/14/16 10:15:31  5-MIN KAVL 141515Z 00000KT 10SM CLR 20/07 A2995 2140 43 3300 000/00 RMK AO2 T02000072
03812KAVL AVL20160514102010405/14/16 10:20:31  5-MIN KAVL 141520Z VRB04KT 10SM CLR 20/07 A2995 2140 43 3300 VRB/04 RMK AO2 T02000072
03812KAVL AVL20160514102510405/14/16 10:25:31  5-MIN KAVL 141525Z VRB03KT 10SM CLR 19/07 A2994 2150 43 3200 VRB/03 RMK AO2 T01940067
03812KAVL AVL20160514103010405/14/16 10:30:31  5-MIN KAVL 141530Z 00000KT 10SM CLR 20/07 A2994 2150 41 3300 000/00 RMK AO2 T02000067
03812KAVL AVL20160514103510405/14/16 10:35:31  5-MIN KAVL 141535Z 02003KT 10SM CLR 21/07 A2994 2150 41 3300 030/03 RMK AO2 T02060072
03812KAVL AVL20160514104010405/14/16 10:40:31  5-MIN KAVL 141540Z 00000KT 10SM CLR 21/08 A2994 2150 43 3300 000/00 RMK AO2 T02060078
03812KAVL AVL20160514104510405/14/16 10:45:31  5-MIN KAVL 141545Z VRB03KT 10SM CLR 20/08 A2994 2150 45 3300 VRB/03 RMK AO2 T02000078
03812KAVL AVL20160514105011105/14/16 10:50:31  5-MIN KAVL 141550Z 00000KT 10SM CLR 20/07 A2994 2150 43 3300 000/00 RMK AO2 SLP119 T02000072
03812KAVL AVL20160514105510405/14/16 10:55:31  5-MIN KAVL 141555Z 12005KT 10SM CLR 21/07 A2993 2160 41 3300 130/05 RMK AO2 T02060072
03812KAVL AVL20160514110010405/14/16 11:00:31  5-MIN KAVL 141600Z VRB06KT 10SM CLR 21/08 A2994 2150 43 3300 VRB/06 RMK AO2 T02060078
03812KAVL AVL20160514110510405/14/16 11:05:31  5-MIN KAVL 141605Z VRB05KT 10SM CLR 21/08 A2994 2150 42 3400 VRB/05 RMK AO2 T02110078
03812KAVL AVL20160514111010405/14/16 11:10:31  5-MIN KAVL 141610Z VRB03KT 10SM CLR 21/08 A2993 2160 43 3300 VRB/03 RMK AO2 T02060078
03812KAVL AVL20160514111509405/14/16 11:15:31  5-MIN KAVL 141615Z 10SM CLR 21/08 A2993 2160 42 3400 M /M RMK AO2 T02110078
03812KAVL AVL20160514112010405/14/16 11:20:31  5-MIN KAVL 141620Z VRB04KT 10SM CLR 21/08 A2993 2160 42 3400 VRB/04 RMK AO2 T02110078
03812KAVL AVL20160514112510405/14/16 11:25:31  5-MIN KAVL 141625Z VRB03KT 10SM CLR 22/08 A2993 2160 40 3500 VRB/03 RMK AO2 T02170078
03812KAVL AVL20160514113010405/14/16 11:30:31  5-MIN KAVL 141630Z 15006KT 10SM CLR 22/08 A2993 2160 39 3500 150/06 RMK AO2 T02220078
03812KAVL AVL20160514113510405/14/16 11:35:31  5-MIN KAVL 141635Z 15004KT 10SM CLR 22/08 A2993 2160 40 3500 160/04 RMK AO2 T02170078
03812KAVL AVL20160514114010405/14/16 11:40:31  5-MIN KAVL 141640Z VRB03KT 10SM CLR 22/08 A2993 2160 39 3500 VRB/03 RMK AO2 T02220078
03812KAVL AVL20160514114510405/14/16 11:45:31  5-MIN KAVL 141645Z 00000KT 10SM CLR 22/08 A2993 2160 39 3500 000/00 RMK AO2 T02220078
03812KAVL AVL20160514115011105/14/16 11:50:31  5-MIN KAVL 141650Z 00000KT 10SM CLR 23/08 A2992 2160 37 3600 000/00 RMK AO2 SLP113 T02280078
03812KAVL AVL20160514115510705/14/16 11:55:31  5-MIN KAVL 141655Z VRB04KT 10SM FEW095 23/07 A2992 2170 33 3700 VRB/04 RMK AO2 T02330067
03812KAVL AVL20160514120009705/14/16 12:00:31  5-MIN KAVL 141700Z 10SM FEW095 24/07 A2992 2170 33 3800 M /M RMK AO2 T02440072
03812KAVL AVL20160514120510705/14/16 12:05:31  5-MIN KAVL 141705Z 29007KT 10SM FEW090 24/07 A2992 2170 32 3700 300/07 RMK AO2 T02390067
03812KAVL AVL20160514121011305/14/16 12:10:31  5-MIN KAVL 141710Z 29011G16KT 10SM FEW090 25/08 A2992 2170 33 3900 300/11G16 RMK AO2 T02500078
03812KAVL AVL20160514121512905/14/16 12:15:31  5-MIN KAVL 141715Z 30010G16KT 250V320 10SM SCT085 25/08 A2992 2170 33 3900 300/10G16 260V330 RMK AO2 T02500078
03812KAVL AVL20160514122011305/14/16 12:20:31  5-MIN KAVL 141720Z 32012G19KT 10SM FEW090 24/08 A2992 2170 34 3800 320/12G19 RMK AO2 T02440078
03812KAVL AVL20160514122511305/14/16 12:25:31  5-MIN KAVL 141725Z 29009G19KT 10SM SCT080 24/07 A2992 2170 33 3800 290/09G19 RMK AO2 T02440072
03812KAVL AVL20160514123011305/14/16 12:30:31  5-MIN KAVL 141730Z 33015G19KT 10SM BKN080 23/07 A2992 2170 36 3600 330/15G19 RMK AO2 T02280072
03812KAVL AVL20160514123511305/14/16 12:35:31  5-MIN KAVL 141735Z 31013G19KT 10SM BKN080 23/07 A2992 2170 36 3600 320/13G19 RMK AO2 T02280072
03812KAVL AVL20160514124010705/14/16 12:40:31  5-MIN KAVL 141740Z 33013KT 10SM BKN080 23/08 A2992 2170 37 3600 330/13 RMK AO2 T02280078
03812KAVL AVL20160514124511405/14/16 12:45:31  5-MIN KAVL 141745Z 33013KT 10SM BKN080 BKN100 23/08 A2992 2170 36 3700 330/13 RMK AO2 T02330078
03812KAVL AVL20160514125014505/14/16 12:50:31  5-MIN KAVL 141750Z 33011G18KT 10SM BKN075 OVC100 23/08 A2992 2170 37 3600 340/11G18 RMK AO2 SLP112 T02280078 10250 20100 58018
03812KAVL AVL20160514125512005/14/16 12:55:31  5-MIN KAVL 141755Z 33008G18KT 10SM BKN070 OVC085 23/08 A2991 2170 37 3600 330/08G18 RMK AO2 T02280078
03812KAVL AVL20160514130011405/14/16 13:00:31  5-MIN KAVL 141800Z 34010KT 10SM BKN070 OVC085 22/08 A2991 2170 39 3500 340/10 RMK AO2 T02220078
03812KAVL AVL20160514130511405/14/16 13:05:31  5-MIN KAVL 141805Z 32006KT 10SM BKN065 OVC085 23/08 A2991 2180 37 3600 330/06 RMK AO2 T02280078
03812KAVL AVL20160514131012005/14/16 13:10:31  5-MIN KAVL 141810Z 34011G15KT 10SM BKN070 OVC090 22/08 A2991 2180 39 3600 340/11G15 RMK AO2 T02220078
03812KAVL AVL20160514131512105/14/16 13:15:31  5-MIN KAVL 141815Z 34012KT 10SM BKN070 BKN080 OVC100 22/08 A2991 2180 39 3600 350/12 RMK AO2 T02220078
03812KAVL AVL20160514132012105/14/16 13:20:31  5-MIN KAVL 141820Z 35010KT 10SM BKN070 BKN080 OVC100 22/08 A2990 2180 39 3600 360/10 RMK AO2 T02220078
03812KAVL AVL20160514132511405/14/16 13:25:31  5-MIN KAVL 141825Z 34011KT 10SM BKN070 OVC090 22/08 A2990 2180 39 3600 350/11 RMK AO2 T02220078
03812KAVL AVL20160514133011405/14/16 13:30:31  5-MIN KAVL 141830Z 33006KT 10SM BKN070 OVC090 23/08 A2990 2190 38 3700 330/06 RMK AO2 T02330083
03812KAVL AVL20160514133511405/14/16 13:35:31  5-MIN KAVL 141835Z 31007KT 10SM BKN070 OVC090 23/09 A2990 2190 39 3700 320/07 RMK AO2 T02330089
03812KAVL AVL20160514134011405/14/16 13:40:31  5-MIN KAVL 141840Z 29009KT 10SM BKN070 BKN090 23/08 A2990 2190 39 3600 300/09 RMK AO2 T02280083
03812KAVL AVL20160514134513005/14/16 13:45:31  5-MIN KAVL 141845Z 35009KT 310V010 10SM BKN070 BKN085 23/08 A2989 2190 37 3600 350/09 320V020 RMK AO2 T02280078
03812KAVL AVL20160514135012705/14/16 13:50:31  5-MIN KAVL 141850Z 27008G15KT 10SM BKN070 OVC090 23/08 A2990 2190 36 3700 280/08G15 RMK AO2 SLP105 T02330078
03812KAVL AVL20160514135512005/14/16 13:55:31  5-MIN KAVL 141855Z 26015G23KT 10SM BKN075 BKN095 24/07 A2989 2190 34 3800 260/15G23 RMK AO2 T02390072
03812KAVL AVL20160514140012005/14/16 14:00:31  5-MIN KAVL 141900Z 27012G24KT 10SM BKN070 BKN090 23/07 A2989 2190 35 3700 280/12G24 RMK AO2 T02330072
03812KAVL AVL20160514140512005/14/16 14:05:31  5-MIN KAVL 141905Z 26014G24KT 10SM BKN075 BKN090 23/07 A2989 2190 33 3700 270/14G24 RMK AO2 T02330067
03812KAVL AVL20160514141012005/14/16 14:10:31  5-MIN KAVL 141910Z 26012G21KT 10SM BKN070 OVC090 23/07 A2989 2200 35 3600 270/12G21 RMK AO2 T02280067
03812KAVL AVL20160514141512005/14/16 14:15:31  5-MIN KAVL 141915Z 28012G21KT 10SM BKN070 BKN090 23/07 A2989 2200 35 3700 280/12G21 RMK AO2 T02330072
03812KAVL AVL20160514142014105/14/16 14:20:31  5-MIN KAVL 141920Z AUTO 26009G20KT 240V300 10SM BKN070 BKN085 24/07 A2988 2200 34 3800 270/09G20 250V310 RMK AO2 T02390072
03812KAVL AVL20160514142512505/14/16 14:25:31  5-MIN KAVL 141925Z AUTO 25010G21KT 10SM BKN070 BKN085 24/07 A2988 2200 33 3800 260/10G21 RMK AO2 T02440072
03812KAVL AVL20160514143014105/14/16 14:30:31  5-MIN KAVL 141930Z AUTO 26011G21KT 230V300 10SM BKN070 BKN085 24/07 A2989 2200 32 3800 270/11G21 240V310 RMK AO2 T02390067
03812KAVL AVL20160514143512505/14/16 14:35:31  5-MIN KAVL 141935Z AUTO 29009G18KT 10SM BKN070 BKN085 23/07 A2989 2200 35 3700 290/09G18 RMK AO2 T02330072
03812KAVL AVL20160514144014105/14/16 14:40:31  5-MIN KAVL 141940Z AUTO 29008G15KT 270V330 10SM BKN070 BKN085 23/07 A2988 2200 35 3700 300/08G15 280V340 RMK AO2 T02330072
03812KAVL AVL20160514144512005/14/16 14:45:31  5-MIN KAVL 141945Z 30011G18KT 10SM BKN070 BKN085 23/07 A2988 2210 36 3600 300/11G18 RMK AO2 T02280072
03812KAVL AVL20160514145012705/14/16 14:50:31  5-MIN KAVL 141950Z 27010G18KT 10SM BKN070 BKN090 23/07 A2988 2210 33 3700 270/10G18 RMK AO2 SLP101 T02330067
03812KAVL AVL20160514145512005/14/16 14:55:31  5-MIN KAVL 141955Z 28008G16KT 10SM BKN070 BKN085 23/07 A2988 2210 33 3700 290/08G16 RMK AO2 T02330067
03812KAVL AVL20160514150012005/14/16 15:00:31  5-MIN KAVL 142000Z 29013G18KT 10SM SCT070 BKN090 24/07 A2988 2210 34 3800 290/13G18 RMK AO2 T02390072
03812KAVL AVL20160514150512005/14/16 15:05:31  5-MIN KAVL 142005Z 31011G18KT 10SM SCT070 SCT090 23/07 A2987 2210 35 3700 320/11G18 RMK AO2 T02330072
03812KAVL AVL20160514151012905/14/16 15:10:31  5-MIN KAVL 142010Z 28014G22KT 240V310 10SM FEW070 23/06 A2987 2210 32 3700 290/14G22 250V320 RMK AO2 T02330061
03812KAVL AVL20160514151511305/14/16 15:15:31  5-MIN KAVL 142015Z 26010G22KT 10SM FEW065 24/06 A2987 2210 31 3800 270/10G22 RMK AO2 T02390061
03812KAVL AVL20160514152011005/14/16 15:20:31  5-MIN KAVL 142020Z 28009G20KT 10SM CLR 24/06 A2987 2220 31 3800 280/09G20 RMK AO2 T02390061
03812KAVL AVL20160514152511005/14/16 15:25:31  5-MIN KAVL 142025Z 28014G20KT 10SM CLR 24/06 A2987 2210 31 3800 280/14G20 RMK AO2 T02390061
03812KAVL AVL20160514153011005/14/16 15:30:31  5-MIN KAVL 142030Z 28013G20KT 10SM CLR 24/06 A2987 2220 30 3800 290/13G20 RMK AO2 T02390056
03812KAVL AVL20160514153512905/14/16 15:35:31  5-MIN KAVL 142035Z 28007G21KT 160V300 10SM FEW090 24/06 A2986 2220 30 3800 280/07G21 170V310 RMK AO2 T02390056
03812KAVL AVL20160514154011305/14/16 15:40:31  5-MIN KAVL 142040Z 30015G23KT 10SM FEW090 24/06 A2986 2220 30 3800 310/15G23 RMK AO2 T02390056
03812KAVL AVL20160514154511305/14/16 15:45:31  5-MIN KAVL 142045Z 31011G23KT 10SM FEW090 24/06 A2986 2220 29 3800 310/11G23 RMK AO2 T02440056
03812KAVL AVL20160514155012605/14/16 15:50:31  5-MIN KAVL 142050Z 27011G21KT 10SM FEW090 24/05 A2986 2220 29 3800 280/11G21 RMK AO2 SLP095 T02390050 56010
03812KAVL AVL20160514155511305/14/16 15:55:31  5-MIN KAVL 142055Z 30010G20KT 10SM FEW090 24/06 A2986 2230 30 3800 300/10G20 RMK AO2 T02390056
03812KAVL AVL20160514160011305/14/16 16:00:31  5-MIN KAVL 142100Z 30018G24KT 10SM FEW090 24/04 A2986 2220 27 3800 300/18G24 RMK AO2 T02390039
03812KAVL AVL20160514160511005/14/16 16:05:31  5-MIN KAVL 142105Z 27012G24KT 10SM CLR 24/04 A2986 2230 27 3800 280/12G24 RMK AO2 T02390039
03812KAVL AVL20160514161011305/14/16 16:10:31  5-MIN KAVL 142110Z 30015G22KT 10SM FEW085 24/04 A2986 2220 27 3800 310/15G22 RMK AO2 T02390039
03812KAVL AVL20160514161511305/14/16 16:15:31  5-MIN KAVL 142115Z 31015G24KT 10SM FEW085 24/04 A2986 2230 27 3800 310/15G24 RMK AO2 T02390039
03812KAVL AVL20160514162013105/14/16 16:20:31  5-MIN KAVL 142120Z 31016G29KT 10SM FEW085 24/03 A2986 2220 26 3800 320/16G29 RMK AO2 PK WND 32029/2119 T02390033
03812KAVL AVL20160514162512805/14/16 16:25:31  5-MIN KAVL 142125Z 29016G29KT 10SM CLR 24/02 A2986 2220 24 3800 300/16G29 RMK AO2 PK WND 32029/2119 T02390022
03812KAVL AVL20160514163012805/14/16 16:30:31  5-MIN KAVL 142130Z 31009G24KT 10SM CLR 24/03 A2986 2220 26 3800 310/09G24 RMK AO2 PK WND 32029/2119 T02390033
03812KAVL AVL20160514163512805/14/16 16:35:31  5-MIN KAVL 142135Z 30017G24KT 10SM CLR 23/02 A2987 2220 24 3700 310/17G24 RMK AO2 PK WND 32029/2119 T02330022
03812KAVL AVL20160514164012805/14/16 16:40:31  5-MIN KAVL 142140Z 32016G24KT 10SM CLR 23/02 A2987 2220 24 3700 330/16G24 RMK AO2 PK WND 32029/2119 T02330022
03812KAVL AVL20160514164512805/14/16 16:45:31  5-MIN KAVL 142145Z 31016G26KT 10SM CLR 23/02 A2987 2220 24 3700 320/16G26 RMK AO2 PK WND 32029/2119 T02280017
03812KAVL AVL20160514165013505/14/16 16:50:31  5-MIN KAVL 142150Z 32017G26KT 10SM CLR 23/02 A2987 2220 24 3700 330/17G26 RMK AO2 PK WND 32029/2119 SLP097 T02280017
03812KAVL AVL20160514165511005/14/16 16:55:31  5-MIN KAVL 142155Z 29016G25KT 10SM CLR 23/01 A2987 2210 23 3700 300/16G25 RMK AO2 T02280011
03812KAVL AVL20160514170011005/14/16 17:00:31  5-MIN KAVL 142200Z 31014G25KT 10SM CLR 23/02 A2987 2210 24 3700 310/14G25 RMK AO2 T02280017
03812KAVL AVL20160514170511005/14/16 17:05:31  5-MIN KAVL 142205Z 31012G23KT 10SM CLR 23/02 A2987 2210 25 3700 320/12G23 RMK AO2 T02280022
03812KAVL AVL20160514171011005/14/16 17:10:31  5-MIN KAVL 142210Z 31013G21KT 10SM CLR 22/03 A2987 2210 27 3600 320/13G21 RMK AO2 T02220028
03812KAVL AVL20160514171510405/14/16 17:15:31  5-MIN KAVL 142215Z 32013KT 10SM CLR 22/03 A2987 2210 27 3600 320/13 RMK AO2 T02220028
03812KAVL AVL20160514172011005/14/16 17:20:31  5-MIN KAVL 142220Z 31012G19KT 10SM CLR 22/03 A2987 2210 28 3600 320/12G19 RMK AO2 T02220033
03812KAVL AVL20160514172511005/14/16 17:25:31  5-MIN KAVL 142225Z 31016G21KT 10SM CLR 22/03 A2987 2210 29 3500 310/16G21 RMK AO2 T02170033
03812KAVL AVL20160514173011005/14/16 17:30:31  5-MIN KAVL 142230Z 32013G21KT 10SM CLR 22/03 A2988 2210 29 3500 330/13G21 RMK AO2 T02170033
03812KAVL AVL20160514173511005/14/16 17:35:31  5-MIN KAVL 142235Z 34013G20KT 10SM CLR 21/04 A2988 2210 33 3500 350/13G20 RMK AO2 T02110044
03812KAVL AVL20160514174011005/14/16 17:40:31  5-MIN KAVL 142240Z 34017G22KT 10SM CLR 21/06 A2988 2210 36 3500 350/17G22 RMK AO2 T02110056
03812KAVL AVL20160514174511005/14/16 17:45:31  5-MIN KAVL 142245Z 35013G22KT 10SM CLR 21/06 A2988 2200 37 3400 360/13G22 RMK AO2 T02060056
03812KAVL AVL20160514175011705/14/16 17:50:31  5-MIN KAVL 142250Z 36013G22KT 10SM CLR 20/06 A2989 2200 40 3300 360/13G22 RMK AO2 SLP106 T02000061
03812KAVL AVL20160514175511005/14/16 17:55:31  5-MIN KAVL 142255Z 36016G22KT 10SM CLR 19/07 A2989 2200 44 3300 360/16G22 RMK AO2 T01940072
03812KAVL AVL20160514180011005/14/16 18:00:31  5-MIN KAVL 142300Z 01013G22KT 10SM CLR 19/08 A2989 2200 48 3200 020/13G22 RMK AO2 T01890078
03812KAVL AVL20160514180511005/14/16 18:05:31  5-MIN KAVL 142305Z 36012G25KT 10SM CLR 19/07 A2989 2200 46 3200 010/12G25 RMK AO2 T01890072
03812KAVL AVL20160514181011005/14/16 18:10:31  5-MIN KAVL 142310Z 36015G25KT 10SM CLR 19/06 A2989 2190 43 3200 010/15G25 RMK AO2 T01890061
03812KAVL AVL20160514181511005/14/16 18:15:31  5-MIN KAVL 142315Z 36013G22KT 10SM CLR 19/06 A2990 2190 41 3200 360/13G22 RMK AO2 T01890056
03812KAVL AVL20160514182010405/14/16 18:20:31  5-MIN KAVL 142320Z 36014KT 10SM CLR 18/06 A2990 2190 42 3100 360/14 RMK AO2 T01830056
03812KAVL AVL20160514182511005/14/16 18:25:31  5-MIN KAVL 142325Z 36011G19KT 10SM CLR 18/05 A2990 2180 42 3100 360/11G19 RMK AO2 T01780050
03812KAVL AVL20160514183011005/14/16 18:30:31  5-MIN KAVL 142330Z 36016G21KT 10SM CLR 18/05 A2991 2180 42 3000 010/16G21 RMK AO2 T01780050
03812KAVL AVL20160514183511005/14/16 18:35:31  5-MIN KAVL 142335Z 35014G21KT 10SM CLR 17/05 A2991 2180 44 3000 360/14G21 RMK AO2 T01720050
03812KAVL AVL20160514184010405/14/16 18:40:31  5-MIN KAVL 142340Z 36015KT 10SM CLR 17/05 A2991 2180 44 3000 010/15 RMK AO2 T01720050
03812KAVL AVL20160514184512805/14/16 18:45:31  5-MIN KAVL 142345Z 36017G27KT 10SM CLR 17/05 A2991 2170 45 2900 360/17G27 RMK AO2 PK WND 36027/2341 T01670050
03812KAVL AVL20160514185015305/14/16 18:50:31  5-MIN KAVL 142350Z 35017G27KT 10SM CLR 17/05 A2992 2170 45 2900 360/17G27 RMK AO2 PK WND 36027/2341 SLP118 T01670050 10244 20167 56017
03812KAVL AVL20160514185511005/14/16 18:55:31  5-MIN KAVL 142355Z 36014G22KT 10SM CLR 17/05 A2992 2170 45 2900 360/14G22 RMK AO2 T01670050
03812KAVL AVL20160514190011005/14/16 19:00:31  5-MIN KAVL 150000Z 34016G22KT 10SM CLR 16/05 A2992 2160 47 2800 350/16G22 RMK AO2 T01610050
03812KAVL AVL20160514190511005/14/16 19:05:31  5-MIN KAVL 150005Z 35013G21KT 10SM CLR 16/05 A2993 2160 47 2800 350/13G21 RMK AO2 T01610050
03812KAVL AVL20160514191011005/14/16 19:10:31  5-MIN KAVL 150010Z 34016G21KT 10SM CLR 16/04 A2993 2160 45 2800 350/16G21 RMK AO2 T01610044
03812KAVL AVL20160514191511005/14/16 19:15:31  5-MIN KAVL 150015Z 35013G21KT 10SM CLR 16/04 A2993 2160 47 2800 360/13G21 RMK AO2 T01560044
03812KAVL AVL20160514192011005/14/16 19:20:31  5-MIN KAVL 150020Z 35016G22KT 10SM CLR 15/05 A2994 2150 51 2700 360/16G22 RMK AO2 T01500050
03812KAVL AVL20160514192511005/14/16 19:25:31  5-MIN KAVL 150025Z 36017G25KT 10SM CLR 14/06 A2994 2150 55 2600 360/17G25 RMK AO2 T01440056
03812KAVL AVL20160514193011705/14/16 19:30:31  5-MIN KAVL 150030Z 36015G25KT 10SM CLR 13/06 A2995 2140 61 2500 010/15G25 RMK AO2 PRESRR T01330061
03812KAVL AVL20160514193511005/14/16 19:35:31  5-MIN KAVL 150035Z 01018G25KT 10SM CLR 13/06 A2995 2140 59 2500 020/18G25 RMK AO2 T01330056
03812KAVL AVL20160514194011005/14/16 19:40:31  5-MIN KAVL 150040Z 01015G25KT 10SM CLR 13/05 A2996 2140 59 2400 010/15G25 RMK AO2 T01280050
03812KAVL AVL20160514194511005/14/16 19:45:31  5-MIN KAVL 150045Z 35014G25KT 10SM CLR 13/05 A2995 2140 59 2400 360/14G25 RMK AO2 T01280050
03812KAVL AVL20160514195013505/14/16 19:50:31  5-MIN KAVL 150050Z 35018G27KT 10SM CLR 13/04 A2996 2140 56 2400 360/18G27 RMK AO2 PK WND 34027/0046 SLP131 T01280044
03812KAVL AVL20160514195511005/14/16 19:55:31  5-MIN KAVL 150055Z 35015G27KT 10SM CLR 12/04 A2996 2130 59 2300 360/15G27 RMK AO2 T01220044
03812KAVL AVL20160514200011005/14/16 20:00:31  5-MIN KAVL 150100Z 34017G26KT 10SM CLR 12/04 A2996 2130 59 2300 340/17G26 RMK AO2 T01220044
03812KAVL AVL20160514200511005/14/16 20:05:31  5-MIN KAVL 150105Z 36012G23KT 10SM CLR 12/04 A2997 2130 59 2300 360/12G23 RMK AO2 T01220044
03812KAVL AVL20160514201011005/14/16 20:10:31  5-MIN KAVL 150110Z 35011G22KT 10SM CLR 12/04 A2997 2120 59 2300 360/11G22 RMK AO2 T01220044
03812KAVL AVL20160514201511005/14/16 20:15:31  5-MIN KAVL 150115Z 35009G17KT 10SM CLR 12/04 A2997 2120 58 2300 360/09G17 RMK AO2 T01170039
03812KAVL AVL20160514202010405/14/16 20:20:31  5-MIN KAVL 150120Z 36010KT 10SM CLR 12/04 A2997 2120 58 2300 360/10 RMK AO2 T01170039
03812KAVL AVL20160514202510405/14/16 20:25:31  5-MIN KAVL 150125Z 36007KT 10SM CLR 12/04 A2998 2120 58 2300 010/07 RMK AO2 T01170039
03812KAVL AVL20160514203012005/14/16 20:30:31  5-MIN KAVL 150130Z 36007KT 330V040 10SM CLR 12/04 A2998 2110 58 2300 360/07 340V050 RMK AO2 T01170039
03812KAVL AVL20160514203510405/14/16 20:35:31  5-MIN KAVL 150135Z 36008KT 10SM CLR 11/03 A2998 2110 58 2200 010/08 RMK AO2 T01110033
03812KAVL AVL20160514204010405/14/16 20:40:31  5-MIN KAVL 150140Z 36008KT 10SM CLR 11/03 A2998 2110 58 2200 360/08 RMK AO2 T01110033
03812KAVL AVL20160514204511005/14/16 20:45:31  5-MIN KAVL 150145Z 35012G16KT 10SM CLR 11/03 A2998 2110 58 2200 360/12G16 RMK AO2 T01110033
03812KAVL AVL20160514205011105/14/16 20:50:31  5-MIN KAVL 150150Z 35010KT 10SM CLR 11/03 A2998 2110 58 2200 350/10 RMK AO2 SLP139 T01110033
03812KAVL AVL20160514205510405/14/16 20:55:31  5-MIN KAVL 150155Z 34013KT 10SM CLR 11/03 A2999 2110 56 2200 350/13 RMK AO2 T01110028
03812KAVL AVL20160514210010405/14/16 21:00:31  5-MIN KAVL 150200Z 35011KT 10SM CLR 11/03 A2998 2110 56 2200 350/11 RMK AO2 T01110028
03812KAVL AVL20160514210510405/14/16 21:05:31  5-MIN KAVL 150205Z 36012KT 10SM CLR 11/03 A2998 2110 56 2200 010/12 RMK AO2 T01110028
03812KAVL AVL20160514211011005/14/16 21:10:31  5-MIN KAVL 150210Z 35013G18KT 10SM CLR 11/03 A2998 2110 56 2200 350/13G18 RMK AO2 T01110028
03812KAVL AVL20160514211510405/14/16 21:15:31  5-MIN KAVL 150215Z 35013KT 10SM CLR 11/03 A2998 2110 56 2200 350/13 RMK AO2 T01110028
03812KAVL AVL20160514212011005/14/16 21:20:31  5-MIN KAVL 150220Z 34018G22KT 10SM CLR 11/03 A2999 2110 56 2200 340/18G22 RMK AO2 T01110028
03812KAVL AVL20160514212511005/14/16 21:25:31  5-MIN KAVL 150225Z 35012G22KT 10SM CLR 11/02 A2999 2110 56 2100 360/12G22 RMK AO2 T01060022
03812KAVL AVL20160514213011005/14/16 21:30:31  5-MIN KAVL 150230Z 34019G25KT 10SM CLR 11/02 A2998 2110 56 2100 350/19G25 RMK AO2 T01060022
03812KAVL AVL20160514213511005/14/16 21:35:31  5-MIN KAVL 150235Z 35016G25KT 10SM CLR 11/02 A2999 2110 56 2100 360/16G25 RMK AO2 T01060022
03812KAVL AVL20160514214011005/14/16 21:40:31  5-MIN KAVL 150240Z 34019G24KT 10SM CLR 11/02 A2999 2100 56 2100 350/19G24 RMK AO2 T01060022
03812KAVL AVL20160514214511005/14/16 21:45:31  5-MIN KAVL 150245Z 35012G24KT 10SM CLR 11/02 A2999 2100 56 2100 350/12G24 RMK AO2 T01060022
03812KAVL AVL20160514215012805/14/16 21:50:31  5-MIN KAVL 150250Z AUTO 35015G20KT 10SM CLR 11/02 A2999 2110 56 2100 360/15G20 RMK AO2 SLP140 T01060022 53019
03812KAVL AVL20160514215511505/14/16 21:55:31  5-MIN KAVL 150255Z AUTO 35014G23KT 10SM CLR 11/02 A2999 2100 56 2100 360/14G23 RMK AO2 T01060022
03812KAVL AVL20160514220011505/14/16 22:00:31  5-MIN KAVL 150300Z AUTO 35016G23KT 10SM CLR 10/02 A3000 2100 58 2000 350/16G23 RMK AO2 T01000022
03812KAVL AVL20160514220511505/14/16 22:05:31  5-MIN KAVL 150305Z AUTO 35013G23KT 10SM CLR 10/02 A3000 2090 58 2000 360/13G23 RMK AO2 T01000022
03812KAVL AVL20160514221012205/14/16 22:10:31  5-MIN KAVL 150310Z AUTO 34013G23KT 10SM CLR 10/02 A3001 2090 58 2000 350/13G23 RMK AO2 PRESRR T01000022
03812KAVL AVL20160514221510905/14/16 22:15:31  5-MIN KAVL 150315Z AUTO 34011KT 10SM CLR 10/02 A3000 2090 58 2000 350/11 RMK AO2 T01000022
03812KAVL AVL20160514222011505/14/16 22:20:31  5-MIN KAVL 150320Z AUTO 35014G20KT 10SM CLR 10/02 A3000 2100 56 2000 350/14G20 RMK AO2 T01000017
03812KAVL AVL20160514222511505/14/16 22:25:31  5-MIN KAVL 150325Z AUTO 35014G20KT 10SM CLR 10/02 A3000 2100 56 2000 360/14G20 RMK AO2 T01000017
03812KAVL AVL20160514223011505/14/16 22:30:31  5-MIN KAVL 150330Z AUTO 35015G20KT 10SM CLR 10/02 A3000 2090 56 2000 350/15G20 RMK AO2 T01000017
03812KAVL AVL20160514223511505/14/16 22:35:31  5-MIN KAVL 150335Z AUTO 35015G23KT 10SM CLR 10/01 A3000 2090 54 2000 360/15G23 RMK AO2 T01000011
03812KAVL AVL20160514224011505/14/16 22:40:31  5-MIN KAVL 150340Z AUTO 34015G23KT 10SM CLR 09/01 A3000 2090 56 2000 350/15G23 RMK AO2 T00940011
03812KAVL AVL20160514224511505/14/16 22:45:31  5-MIN KAVL 150345Z AUTO 35016G23KT 10SM CLR 09/01 A3000 2090 56 2000 350/16G23 RMK AO2 T00940011
03812KAVL AVL20160514225012205/14/16 22:50:31  5-MIN KAVL 150350Z AUTO 35015G23KT 10SM CLR 09/01 A3000 2100 56 2000 360/15G23 RMK AO2 SLP144 T00940011
03812KAVL AVL20160514225511505/14/16 22:55:31  5-MIN KAVL 150355Z AUTO 34013G22KT 10SM CLR 09/01 A3000 2090 56 2000 350/13G22 RMK AO2 T00940011
03812KAVL AVL20160514230011505/14/16 23:00:31  5-MIN KAVL 150400Z AUTO 34018G22KT 10SM CLR 09/01 A3000 2090 56 2000 350/18G22 RMK AO2 T00940011
03812KAVL AVL20160514230511505/14/16 23:05:31  5-MIN KAVL 150405Z AUTO 34016G22KT 10SM CLR 09/01 A3000 2090 56 2000 350/16G22 RMK AO2 T00940011
03812KAVL AVL20160514231011505/14/16 23:10:31  5-MIN KAVL 150410Z AUTO 35015G21KT 10SM CLR 09/01 A3000 2090 56 2000 350/15G21 RMK AO2 T00940011
03812KAVL AVL20160514231511505/14/16 23:15:31  5-MIN KAVL 150415Z AUTO 34018G22KT 10SM CLR 09/01 A3000 2090 58 1900 350/18G22 RMK AO2 T00890011
03812KAVL AVL20160514232011505/14/16 23:20:31  5-MIN KAVL 150420Z AUTO 35014G22KT 10SM CLR 09/01 A3000 2100 58 1900 350/14G22 RMK AO2 T00890011
03812KAVL AVL20160514232511505/14/16 23:25:31  5-MIN KAVL 150425Z AUTO 35015G24KT 10SM CLR 09/01 A3000 2090 56 1900 350/15G24 RMK AO2 T00890006
03812KAVL AVL20160514233011505/14/16 23:30:31  5-MIN KAVL 150430Z AUTO 35015G24KT 10SM CLR 09/01 A3000 2090 56 1900 350/15G24 RMK AO2 T00890006
03812KAVL AVL20160514233511505/14/16 23:35:31  5-MIN KAVL 150435Z AUTO 34013G22KT 10SM CLR 09/01 A3001 2090 56 1900 350/13G22 RMK AO2 T00890006
03812KAVL AVL20160514234011505/14/16 23:40:31  5-MIN KAVL 150440Z AUTO 34016G21KT 10SM CLR 09/01 A3001 2080 56 1900 350/16G21 RMK AO2 T00890006
03812KAVL AVL20160514234511505/14/16 23:45:31  5-MIN KAVL 150445Z AUTO 34015G21KT 10SM CLR 09/01 A3001 2090 56 1900 350/15G21 RMK AO2 T00890006
03812KAVL AVL20160514235013205/14/16 23:50:31  5-MIN KAVL 150450Z AUTO 34017G21KT 10SM CLR 08/01 A3001 2090 58 1800 350/17G21 RMK AO2 SLP146 T00830006 402500072
03812KAVL AVL20160514235510905/14/16 23:55:31  5-MIN KAVL 150455Z AUTO 35013KT 10SM CLR 09/01 A3001 2090 56 1900 350/13 RMK AO2 T00890006
03812KAVL AVL20160515000010905/15/16 00:00:31  5-MIN KAVL 150500Z AUTO 34014KT 10SM CLR 08/01 A3001 2080 58 1800 350/14 RMK AO2 T00830006
03812KAVL AVL20160515000511505/15/16 00:05:31  5-MIN KAVL 150505Z AUTO 34015G20KT 10SM CLR 08/01 A3001 2080 58 1800 350/15G20 RMK AO2 T00830006
03812KAVL AVL20160515001011505/15/16 00:10:31  5-MIN KAVL 150510Z AUTO 35011G20KT 10SM CLR 08/01 A3001 2080 58 1800 350/11G20 RMK AO2 T00830006
03812KAVL AVL20160515001511505/15/16 00:15:31  5-MIN KAVL 150515Z AUTO 35014G21KT 10SM CLR 08/01 A3001 2080 58 1800 360/14G21 RMK AO2 T00830006
03812KAVL AVL20160515002011505/15/16 00:20:31  5-MIN KAVL 150520Z AUTO 35012G21KT 10SM CLR 08/01 A3001 2080 58 1800 360/12G21 RMK AO2 T00830006
03812KAVL AVL20160515002511505/15/16 00:25:31  5-MIN KAVL 150525Z AUTO 35014G22KT 10SM CLR 08/01 A3001 2080 58 1800 360/14G22 RMK AO2 T00830006
03812KAVL AVL20160515003011505/15/16 00:30:31  5-MIN KAVL 150530Z AUTO 35014G22KT 10SM CLR 08/01 A3001 2080 58 1800 350/14G22 RMK AO2 T00830006
03812KAVL AVL20160515003511505/15/16 00:35:31  5-MIN KAVL 150535Z AUTO 35012G19KT 10SM CLR 08/01 A3001 2080 60 1700 350/12G19 RMK AO2 T00780006
03812KAVL AVL20160515004010905/15/16 00:40:31  5-MIN KAVL 150540Z AUTO 35012KT 10SM CLR 08/01 A3001 2080 60 1800 360/12 RMK AO2 T00780006
03812KAVL AVL20160515004511505/15/16 00:45:31  5-MIN KAVL 150545Z AUTO 35016G19KT 10SM CLR 08/01 A3001 2080 62 1800 350/16G19 RMK AO2 T00780011
03812KAVL AVL20160515005014005/15/16 00:50:31  5-MIN KAVL 150550Z AUTO 35013G21KT 10SM CLR 08/01 A3001 2090 62 1800 360/13G21 RMK AO2 SLP146 T00780011 10167 20078 51023
03812KAVL AVL20160515005511505/15/16 00:55:31  5-MIN KAVL 150555Z AUTO 35012G22KT 10SM CLR 08/01 A3001 2090 62 1800 360/12G22 RMK AO2 T00780011
03812KAVL AVL20160515010011505/15/16 01:00:31  5-MIN KAVL 150600Z AUTO 35015G22KT 10SM CLR 08/01 A3001 2090 62 1800 360/15G22 RMK AO2 T00780011
03812KAVL AVL20160515010511505/15/16 01:05:31  5-MIN KAVL 150605Z AUTO 35013G21KT 10SM CLR 08/01 A3001 2080 62 1800 350/13G21 RMK AO2 T00780011
03812KAVL AVL20160515011010905/15/16 01:10:31  5-MIN KAVL 150610Z AUTO 34014KT 10SM CLR 08/01 A3001 2080 62 1800 350/14 RMK AO2 T00780011
03812KAVL AVL20160515011511505/15/16 01:15:31  5-MIN KAVL 150615Z AUTO 35014G20KT 10SM CLR 08/01 A3001 2080 62 1700 350/14G20 RMK AO2 T00780011
03812KAVL AVL20160515012011505/15/16 01:20:31  5-MIN KAVL 150620Z AUTO 35015G20KT 10SM CLR 08/01 A3002 2080 62 1700 350/15G20 RMK AO2 T00780011
03812KAVL AVL20160515012511505/15/16 01:25:31  5-MIN KAVL 150625Z AUTO 34015G20KT 10SM CLR 08/01 A3002 2080 62 1700 350/15G20 RMK AO2 T00780011
03812KAVL AVL20160515013011505/15/16 01:30:31  5-MIN KAVL 150630Z AUTO 35013G20KT 10SM CLR 08/01 A3002 2080 62 1700 350/13G20 RMK AO2 T00780011
03812KAVL AVL20160515013510905/15/16 01:35:31  5-MIN KAVL 150635Z AUTO 35012KT 10SM CLR 08/01 A3002 2080 62 1700 350/12 RMK AO2 T00780011
03812KAVL AVL20160515014010905/15/16 01:40:31  5-MIN KAVL 150640Z AUTO 35013KT 10SM CLR 08/01 A3002 2070 62 1700 350/13 RMK AO2 T00780011
03812KAVL AVL20160515014511505/15/16 01:45:31  5-MIN KAVL 150645Z AUTO 35011G20KT 10SM CLR 08/01 A3002 2080 62 1700 360/11G20 RMK AO2 T00780011
03812KAVL AVL20160515015012205/15/16 01:50:31  5-MIN KAVL 150650Z AUTO 35014G21KT 10SM CLR 08/01 A3002 2080 62 1700 350/14G21 RMK AO2 SLP149 T00780011
03812KAVL AVL20160515015511505/15/16 01:55:31  5-MIN KAVL 150655Z AUTO 35012G21KT 10SM CLR 07/01 A3002 2080 65 1700 350/12G21 RMK AO2 T00720011
03812KAVL AVL20160515020010905/15/16 02:00:31  5-MIN KAVL 150700Z AUTO 34012KT 10SM CLR 07/01 A3002 2070 65 1700 350/12 RMK AO2 T00720011
03812KAVL AVL20160515020511505/15/16 02:05:31  5-MIN KAVL 150705Z AUTO 35010G18KT 10SM CLR 07/01 A3003 2070 65 1700 350/10G18 RMK AO2 T00720011
03812KAVL AVL20160515021011505/15/16 02:10:31  5-MIN KAVL 150710Z AUTO 35009G18KT 10SM CLR 07/01 A3003 2070 65 1700 350/09G18 RMK AO2 T00720011
03812KAVL AVL20160515021511505/15/16 02:15:31  5-MIN KAVL 150715Z AUTO 35009G18KT 10SM CLR 07/01 A3003 2070 65 1700 360/09G18 RMK AO2 T00720011
03812KAVL AVL20160515022010905/15/16 02:20:31  5-MIN KAVL 150720Z AUTO 35008KT 10SM CLR 07/01 A3003 2070 65 1700 350/08 RMK AO2 T00720011
03812KAVL AVL20160515022510905/15/16 02:25:31  5-MIN KAVL 150725Z AUTO 35009KT 10SM CLR 07/01 A3003 2060 65 1700 350/09 RMK AO2 T00720011
03812KAVL AVL20160515023011505/15/16 02:30:31  5-MIN KAVL 150730Z AUTO 35008G15KT 10SM CLR 07/01 A3003 2060 65 1700 350/08G15 RMK AO2 T00720011
03812KAVL AVL20160515023511505/15/16 02:35:31  5-MIN KAVL 150735Z AUTO 34012G19KT 10SM CLR 07/01 A3003 2060 65 1700 350/12G19 RMK AO2 T00720011
03812KAVL AVL20160515024011505/15/16 02:40:31  5-MIN KAVL 150740Z AUTO 34014G19KT 10SM CLR 07/01 A3003 2060 65 1700 350/14G19 RMK AO2 T00720011
03812KAVL AVL20160515024510905/15/16 02:45:31  5-MIN KAVL 150745Z AUTO 34017KT 10SM CLR 07/01 A3003 2070 65 1700 350/17 RMK AO2 T00720011
03812KAVL AVL20160515025012205/15/16 02:50:31  5-MIN KAVL 150750Z AUTO 34017G23KT 10SM CLR 07/01 A3003 2070 65 1700 350/17G23 RMK AO2 SLP153 T00720011
03812KAVL AVL20160515025511505/15/16 02:55:31  5-MIN KAVL 150755Z AUTO 34017G23KT 10SM CLR 07/01 A3002 2070 62 1700 350/17G23 RMK AO2 T00720006
03812KAVL AVL20160515030011505/15/16 03:00:31  5-MIN KAVL 150800Z AUTO 35020G24KT 10SM CLR 07/01 A3002 2070 62 1700 350/20G24 RMK AO2 T00720006
03812KAVL AVL20160515030511505/15/16 03:05:31  5-MIN KAVL 150805Z AUTO 34018G24KT 10SM CLR 07/01 A3002 2070 62 1700 350/18G24 RMK AO2 T00720006
03812KAVL AVL20160515031013305/15/16 03:10:31  5-MIN KAVL 150810Z AUTO 34018G26KT 10SM CLR 07/01 A3002 2070 65 1600 350/18G26 RMK AO2 PK WND 34026/0807 T00670006
03812KAVL AVL20160515031513305/15/16 03:15:31  5-MIN KAVL 150815Z AUTO 34020G26KT 10SM CLR 07/01 A3002 2070 65 1600 350/20G26 RMK AO2 PK WND 34026/0807 T00670006
03812KAVL AVL20160515032012705/15/16 03:20:31  5-MIN KAVL 150820Z AUTO 34018KT 10SM CLR 07/01 A3002 2070 65 1600 340/18 RMK AO2 PK WND 34026/0807 T00670006
03812KAVL AVL20160515032513305/15/16 03:25:31  5-MIN KAVL 150825Z AUTO 34022G27KT 10SM CLR 07/01 A3002 2080 65 1600 340/22G27 RMK AO2 PK WND 33027/0824 T00670006
03812KAVL AVL20160515033013305/15/16 03:30:31  5-MIN KAVL 150830Z AUTO 34018G27KT 10SM CLR 07/01 A3002 2070 65 1600 350/18G27 RMK AO2 PK WND 33027/0824 T00670006
03812KAVL AVL20160515033513305/15/16 03:35:31  5-MIN KAVL 150835Z AUTO 34016G24KT 10SM CLR 06/01 A3002 2070 67 1500 350/16G24 RMK AO2 PK WND 33027/0824 T00610006
03812KAVL AVL20160515034013305/15/16 03:40:31  5-MIN KAVL 150840Z AUTO 34021G26KT 10SM CLR 06/01 A3002 2070 67 1500 350/21G26 RMK AO2 PK WND 33027/0824 T00610006
03812KAVL AVL20160515034513305/15/16 03:45:31  5-MIN KAVL 150845Z AUTO 34020G27KT 10SM CLR 06/00 A3002 2070 65 1500 340/20G27 RMK AO2 PK WND 34027/0845 T00610000
03812KAVL AVL20160515035014605/15/16 03:50:31  5-MIN KAVL 150850Z AUTO 34022G29KT 10SM CLR 06/00 A3003 2070 65 1500 340/22G29 RMK AO2 PK WND 34029/0849 SLP154 T00610000 51005
03812KAVL AVL20160515035511505/15/16 03:55:31  5-MIN KAVL 150855Z AUTO 34019G29KT 10SM CLR 06/00 A3003 2070 65 1500 340/19G29 RMK AO2 T00610000
03812KAVL AVL20160515040013305/15/16 04:00:31  5-MIN KAVL 150900Z AUTO 34018G27KT 10SM CLR 06/00 A3003 2070 65 1500 340/18G27 RMK AO2 PK WND 34027/0858 T00610000
03812KAVL AVL20160515040513305/15/16 04:05:31  5-MIN KAVL 150905Z AUTO 33022G27KT 10SM CLR 06/00 A3003 2070 65 1500 340/22G27 RMK AO2 PK WND 34027/0858 T00610000
03812KAVL AVL20160515041013405/15/16 04:10:31  5-MIN KAVL 150910Z AUTO 34020G27KT 10SM CLR 06/M01 A3003 2060 62 1500 340/20G27 RMK AO2 PK WND 34027/0909 T00611006
03812KAVL AVL20160515041513405/15/16 04:15:31  5-MIN KAVL 150915Z AUTO 34021G27KT 10SM CLR 06/M01 A3003 2060 65 1500 340/21G27 RMK AO2 PK WND 34027/0909 T00561006
03812KAVL AVL20160515042013405/15/16 04:20:31  5-MIN KAVL 150920Z AUTO 33017G26KT 10SM CLR 06/M01 A3004 2060 65 1500 340/17G26 RMK AO2 PK WND 34027/0909 T00561006
03812KAVL AVL20160515042513405/15/16 04:25:31  5-MIN KAVL 150925Z AUTO 34020G28KT 10SM CLR 06/M01 A3004 2060 65 1500 340/20G28 RMK AO2 PK WND 34028/0925 T00561006
03812KAVL AVL20160515043013405/15/16 04:30:31  5-MIN KAVL 150930Z AUTO 34021G30KT 10SM CLR 06/M01 A3004 2060 65 1500 350/21G30 RMK AO2 PK WND 33030/0926 T00561006
03812KAVL AVL20160515043513405/15/16 04:35:31  5-MIN KAVL 150935Z AUTO 34017G30KT 10SM CLR 06/M01 A3004 2060 62 1500 350/17G30 RMK AO2 PK WND 33030/0926 T00561011
03812KAVL AVL20160515044013405/15/16 04:40:31  5-MIN KAVL 150940Z AUTO 34019G26KT 10SM CLR 06/M01 A3004 2050 62 1400 340/19G26 RMK AO2 PK WND 33030/0926 T00561011
03812KAVL AVL20160515044513405/15/16 04:45:31  5-MIN KAVL 150945Z AUTO 34017G26KT 10SM CLR 06/M01 A3005 2050 62 1400 350/17G26 RMK AO2 PK WND 33030/0926 T00561011
03812KAVL AVL20160515045014105/15/16 04:50:31  5-MIN KAVL 150950Z AUTO 34019G26KT 10SM CLR 06/M01 A3005 2050 62 1400 350/19G26 RMK AO2 PK WND 33030/0926 SLP161 T00561011
03812KAVL AVL20160515045511605/15/16 04:55:31  5-MIN KAVL 150955Z AUTO 34016G26KT 10SM CLR 06/M01 A3005 2050 62 1400 350/16G26 RMK AO2 T00561011
03812KAVL AVL20160515050011605/15/16 05:00:31  5-MIN KAVL 151000Z AUTO 34017G22KT 10SM CLR 06/M01 A3005 2050 62 1400 350/17G22 RMK AO2 T00561011
03812KAVL AVL20160515050511605/15/16 05:05:31  5-MIN KAVL 151005Z AUTO 34017G23KT 10SM CLR 06/M01 A3005 2050 62 1400 350/17G23 RMK AO2 T00561011
03812KAVL AVL20160515051011605/15/16 05:10:31  5-MIN KAVL 151010Z AUTO 34018G24KT 10SM CLR 06/M01 A3005 2050 62 1400 350/18G24 RMK AO2 T00561011
03812KAVL AVL20160515051511105/15/16 05:15:31  5-MIN KAVL 151015Z 34016G24KT 10SM CLR 06/M01 A3005 2040 62 1400 350/16G24 RMK AO2 T00561011
03812KAVL AVL20160515052011105/15/16 05:20:31  5-MIN KAVL 151020Z 34018G25KT 10SM CLR 06/M01 A3006 2040 62 1400 350/18G25 RMK AO2 T00561011
03812KAVL AVL20160515052511105/15/16 05:25:31  5-MIN KAVL 151025Z 34018G25KT 10SM CLR 06/M01 A3006 2040 62 1400 340/18G25 RMK AO2 T00561011
03812KAVL AVL20160515053012905/15/16 05:30:31  5-MIN KAVL 151030Z 34017G27KT 10SM CLR 06/M02 A3006 2040 59 1400 340/17G27 RMK AO2 PK WND 33027/1028 T00561017
03812KAVL AVL20160515053512905/15/16 05:35:31  5-MIN KAVL 151035Z 34020G27KT 10SM CLR 05/M02 A3006 2040 62 1400 340/20G27 RMK AO2 PK WND 33027/1028 T00501017
03812KAVL AVL20160515054012905/15/16 05:40:31  5-MIN KAVL 151040Z 34019G26KT 10SM CLR 05/M02 A3006 2040 62 1400 350/19G26 RMK AO2 PK WND 33027/1028 T00501017
03812KAVL AVL20160515054512905/15/16 05:45:31  5-MIN KAVL 151045Z 34019G26KT 10SM CLR 06/M02 A3007 2030 59 1400 350/19G26 RMK AO2 PK WND 33027/1028 T00561017
03812KAVL AVL20160515055013605/15/16 05:50:31  5-MIN KAVL 151050Z 34020G29KT 10SM CLR 05/M02 A3007 2030 62 1300 350/20G29 RMK AO2 PK WND 34029/1048 SLP172 T00501017
03812KAVL AVL20160515055511105/15/16 05:55:31  5-MIN KAVL 151055Z 34019G29KT 10SM CLR 06/M02 A3008 2020 59 1400 350/19G29 RMK AO2 T00561017
03812KAVL AVL20160515060012905/15/16 06:00:31  5-MIN KAVL 151100Z 34019G26KT 10SM CLR 06/M02 A3008 2020 59 1400 350/19G26 RMK AO2 PK WND 33026/1058 T00561017
03812KAVL AVL20160515060512905/15/16 06:05:31  5-MIN KAVL 151105Z 34018G26KT 10SM CLR 06/M02 A3008 2020 59 1400 350/18G26 RMK AO2 PK WND 33026/1058 T00561017
03812KAVL AVL20160515061012905/15/16 06:10:31  5-MIN KAVL 151110Z 34016G24KT 10SM CLR 06/M02 A3008 2020 59 1400 350/16G24 RMK AO2 PK WND 33026/1058 T00561017
03812KAVL AVL20160515061512905/15/16 06:15:31  5-MIN KAVL 151115Z 34018G24KT 10SM CLR 06/M02 A3008 2020 59 1400 350/18G24 RMK AO2 PK WND 33026/1058 T00561017
03812KAVL AVL20160515062012905/15/16 06:20:31  5-MIN KAVL 151120Z 35018G27KT 10SM CLR 06/M02 A3009 2010 57 1500 350/18G27 RMK AO2 PK WND 35027/1120 T00611017
03812KAVL AVL20160515062512905/15/16 06:25:31  5-MIN KAVL 151125Z 35018G27KT 10SM CLR 06/M02 A3009 2010 57 1500 360/18G27 RMK AO2 PK WND 35027/1120 T00611017
03812KAVL AVL20160515063012905/15/16 06:30:31  5-MIN KAVL 151130Z 35018G27KT 10SM CLR 06/M01 A3009 2010 60 1500 350/18G27 RMK AO2 PK WND 35027/1120 T00611011
03812KAVL AVL20160515063512905/15/16 06:35:31  5-MIN KAVL 151135Z 35016G27KT 10SM CLR 06/M01 A3009 2010 60 1500 360/16G27 RMK AO2 PK WND 35027/1120 T00611011
03812KAVL AVL20160515064012905/15/16 06:40:31  5-MIN KAVL 151140Z 35017G26KT 10SM CLR 06/M02 A3009 2010 57 1500 360/17G26 RMK AO2 PK WND 35027/1120 T00611017
03812KAVL AVL20160515064512905/15/16 06:45:31  5-MIN KAVL 151145Z 35020G30KT 10SM CLR 06/M02 A3009 2010 57 1500 350/20G30 RMK AO2 PK WND 34030/1142 T00611017
03812KAVL AVL20160515065015405/15/16 06:50:31  5-MIN KAVL 151150Z 35021G32KT 10SM CLR 07/M02 A3009 2010 55 1500 350/21G32 RMK AO2 PK WND 34032/1150 SLP182 T00671017 10078 20050 51006
03812KAVL AVL20160515065512905/15/16 06:55:31  5-MIN KAVL 151155Z 35020G32KT 10SM CLR 07/M02 A3010 2010 55 1500 350/20G32 RMK AO2 PK WND 34027/1155 T00671017
03812KAVL AVL20160515070012905/15/16 07:00:31  5-MIN KAVL 151200Z 35019G32KT 10SM CLR 07/M02 A3010 2010 55 1500 350/19G32 RMK AO2 PK WND 34031/1157 T00671017
03812KAVL AVL20160515070512905/15/16 07:05:31  5-MIN KAVL 151205Z 34021G31KT 10SM CLR 07/M02 A3010 2000 55 1500 350/21G31 RMK AO2 PK WND 34031/1157 T00671017
03812KAVL AVL20160515071012905/15/16 07:10:31  5-MIN KAVL 151210Z 35018G27KT 10SM CLR 07/M02 A3010 2000 55 1500 360/18G27 RMK AO2 PK WND 34031/1157 T00671017
03812KAVL AVL20160515071512905/15/16 07:15:31  5-MIN KAVL 151215Z 34018G26KT 10SM CLR 07/M02 A3011 1990 55 1500 350/18G26 RMK AO2 PK WND 34031/1157 T00671017
03812KAVL AVL20160515072012905/15/16 07:20:31  5-MIN KAVL 151220Z 35022G30KT 10SM CLR 07/M02 A3012 1990 53 1600 360/22G30 RMK AO2 PK WND 34031/1157 T00721017
03812KAVL AVL20160515072512905/15/16 07:25:31  5-MIN KAVL 151225Z 34017G30KT 10SM CLR 07/M02 A3012 1980 53 1600 350/17G30 RMK AO2 PK WND 34031/1157 T00721017
03812KAVL AVL20160515073012905/15/16 07:30:31  5-MIN KAVL 151230Z 35010G24KT 10SM CLR 07/M02 A3012 1980 53 1600 360/10G24 RMK AO2 PK WND 34031/1157 T00721017
03812KAVL AVL20160515073512905/15/16 07:35:31  5-MIN KAVL 151235Z 35012G21KT 10SM CLR 08/M02 A3013 1980 51 1600 360/12G21 RMK AO2 PK WND 34031/1157 T00781017
03812KAVL AVL20160515074012905/15/16 07:40:31  5-MIN KAVL 151240Z 35015G27KT 10SM CLR 08/M02 A3013 1980 51 1600 360/15G27 RMK AO2 PK WND 34031/1157 T00781017
03812KAVL AVL20160515074512905/15/16 07:45:31  5-MIN KAVL 151245Z 35014G27KT 10SM CLR 08/M02 A3013 1980 51 1600 360/14G27 RMK AO2 PK WND 34031/1157 T00781017
03812KAVL AVL20160515075013605/15/16 07:50:31  5-MIN KAVL 151250Z 36011G21KT 10SM CLR 08/M02 A3013 1980 51 1600 360/11G21 RMK AO2 PK WND 34031/1157 SLP194 T00781017
03812KAVL AVL20160515075511105/15/16 07:55:31  5-MIN KAVL 151255Z 35011G21KT 10SM CLR 08/M01 A3013 1980 51 1700 350/11G21 RMK AO2 T00831011
03812KAVL AVL20160515080011105/15/16 08:00:31  5-MIN KAVL 151300Z 35013G20KT 10SM CLR 08/M01 A3013 1980 51 1700 350/13G20 RMK AO2 T00831011
03812KAVL AVL20160515080511105/15/16 08:05:31  5-MIN KAVL 151305Z 35013G22KT 10SM CLR 08/M01 A3013 1980 51 1700 360/13G22 RMK AO2 T00831011
03812KAVL AVL20160515081011105/15/16 08:10:31  5-MIN KAVL 151310Z 36014G22KT 10SM CLR 08/M01 A3013 1980 53 1600 010/14G22 RMK AO2 T00781011
03812KAVL AVL20160515081511105/15/16 08:15:31  5-MIN KAVL 151315Z 35015G21KT 10SM CLR 08/M01 A3012 1980 51 1700 360/15G21 RMK AO2 T00831011
03812KAVL AVL20160515082011105/15/16 08:20:31  5-MIN KAVL 151320Z 36015G21KT 10SM CLR 08/M02 A3012 1980 49 1700 360/15G21 RMK AO2 T00831017
03812KAVL AVL20160515082511105/15/16 08:25:31  5-MIN KAVL 151325Z 34017G22KT 10SM CLR 08/M01 A3012 1980 51 1700 340/17G22 RMK AO2 T00831011
03812KAVL AVL20160515083011105/15/16 08:30:31  5-MIN KAVL 151330Z 35013G22KT 10SM CLR 09/M01 A3012 1980 49 1800 350/13G22 RMK AO2 T00941006
03812KAVL AVL20160515083511105/15/16 08:35:31  5-MIN KAVL 151335Z 35015G21KT 10SM CLR 09/M01 A3012 1980 49 1800 360/15G21 RMK AO2 T00891011
03812KAVL AVL20160515084011105/15/16 08:40:31  5-MIN KAVL 151340Z 36015G22KT 10SM CLR 09/M01 A3012 1980 49 1800 360/15G22 RMK AO2 T00891011
03812KAVL AVL20160515084511105/15/16 08:45:31  5-MIN KAVL 151345Z 35013G22KT 10SM CLR 09/M01 A3013 1980 49 1800 360/13G22 RMK AO2 T00891011
03812KAVL AVL20160515085011805/15/16 08:50:31  5-MIN KAVL 151350Z 36011G21KT 10SM CLR 09/M01 A3012 1980 47 1800 010/11G21 RMK AO2 SLP194 T00941011
03812KAVL AVL20160515085511105/15/16 08:55:31  5-MIN KAVL 151355Z 34012G18KT 10SM CLR 09/M01 A3012 1980 49 1800 350/12G18 RMK AO2 T00941006
03812KAVL AVL20160515090011105/15/16 09:00:31  5-MIN KAVL 151400Z 36010G22KT 10SM CLR 10/M01 A3012 1980 47 1900 360/10G22 RMK AO2 T01001006
03812KAVL AVL20160515090511105/15/16 09:05:31  5-MIN KAVL 151405Z 36010G22KT 10SM CLR 09/M01 A3012 1980 49 1800 010/10G22 RMK AO2 T00941006
03812KAVL AVL20160515091011105/15/16 09:10:31  5-MIN KAVL 151410Z 35012G18KT 10SM CLR 09/M01 A3012 1980 47 1800 360/12G18 RMK AO2 T00941011
03812KAVL AVL20160515091511105/15/16 09:15:31  5-MIN KAVL 151415Z 36010G19KT 10SM CLR 09/M01 A3012 1980 49 1800 360/10G19 RMK AO2 T00941006
03812KAVL AVL20160515092011105/15/16 09:20:31  5-MIN KAVL 151420Z 35013G19KT 10SM CLR 10/M01 A3012 1980 47 1900 360/13G19 RMK AO2 T01001006
03812KAVL AVL20160515092511105/15/16 09:25:31  5-MIN KAVL 151425Z 35011G18KT 10SM CLR 11/M01 A3012 1980 46 2000 360/11G18 RMK AO2 T01061006
03812KAVL AVL20160515093011105/15/16 09:30:31  5-MIN KAVL 151430Z 36012G19KT 10SM CLR 10/M01 A3012 1980 47 1900 010/12G19 RMK AO2 T01001006
03812KAVL AVL20160515093510505/15/16 09:35:31  5-MIN KAVL 151435Z 35014KT 10SM CLR 11/M01 A3012 1980 46 2000 360/14 RMK AO2 T01061006
03812KAVL AVL20160515094010505/15/16 09:40:31  5-MIN KAVL 151440Z 34013KT 10SM CLR 11/M01 A3012 1980 46 2000 350/13 RMK AO2 T01061006
03812KAVL AVL20160515094510505/15/16 09:45:31  5-MIN KAVL 151445Z 36012KT 10SM CLR 11/M01 A3012 1980 44 2000 010/12 RMK AO2 T01111006
03812KAVL AVL20160515095012405/15/16 09:50:31  5-MIN KAVL 151450Z 33013G22KT 10SM CLR 11/M01 A3012 1990 44 2000 340/13G22 RMK AO2 SLP191 T01111006 53021
03812KAVL AVL20160515095511105/15/16 09:55:31  5-MIN KAVL 151455Z 36012G22KT 10SM CLR 11/M01 A3012 1980 44 2000 010/12G22 RMK AO2 T01111006
03812KAVL AVL20160515100011005/15/16 10:00:31  5-MIN KAVL 151500Z 32014G20KT 10SM CLR 11/00 A3012 1980 46 2000 330/14G20 RMK AO2 T01110000
03812KAVL AVL20160515100511105/15/16 10:05:31  5-MIN KAVL 151505Z 35018G21KT 10SM CLR 12/M01 A3012 1980 42 2100 350/18G21 RMK AO2 T01171006
03812KAVL AVL20160515101011105/15/16 10:10:31  5-MIN KAVL 151510Z 34014G22KT 10SM CLR 11/M01 A3012 1980 44 2000 350/14G22 RMK AO2 T01111006
03812KAVL AVL20160515101511105/15/16 10:15:31  5-MIN KAVL 151515Z 36013G22KT 10SM CLR 12/M01 A3012 1980 42 2100 010/13G22 RMK AO2 T01171006
03812KAVL AVL20160515102010505/15/16 10:20:31  5-MIN KAVL 151520Z 35012KT 10SM CLR 11/M01 A3012 1980 44 2000 360/12 RMK AO2 T01111006
03812KAVL AVL20160515102510505/15/16 10:25:31  5-MIN KAVL 151525Z 35014KT 10SM CLR 12/M01 A3013 1980 42 2100 360/14 RMK AO2 T01171006
03812KAVL AVL20160515103011105/15/16 10:30:31  5-MIN KAVL 151530Z 36014G21KT 10SM CLR 12/M01 A3013 1980 42 2100 360/14G21 RMK AO2 T01171006
03812KAVL AVL20160515103511105/15/16 10:35:31  5-MIN KAVL 151535Z 35013G21KT 10SM CLR 12/M01 A3012 1980 42 2100 350/13G21 RMK AO2 T01171006
03812KAVL AVL20160515104011005/15/16 10:40:31  5-MIN KAVL 151540Z 35016G21KT 10SM CLR 12/00 A3012 1980 43 2200 350/16G21 RMK AO2 T01220000
03812KAVL AVL20160515104511105/15/16 10:45:31  5-MIN KAVL 151545Z 35016G21KT 10SM CLR 12/M01 A3012 1980 41 2200 350/16G21 RMK AO2 T01221006
03812KAVL AVL20160515105011205/15/16 10:50:31  5-MIN KAVL 151550Z 36013KT 10SM CLR 12/M01 A3012 1980 41 2200 010/13 RMK AO2 SLP191 T01221006
03812KAVL AVL20160515105511005/15/16 10:55:31  5-MIN KAVL 151555Z 35012G21KT 10SM CLR 13/00 A3012 1990 41 2200 350/12G21 RMK AO2 T01280000
03812KAVL AVL20160515110011105/15/16 11:00:31  5-MIN KAVL 151600Z 35015G21KT 10SM CLR 13/M01 A3012 1990 39 2200 360/15G21 RMK AO2 T01281006
03812KAVL AVL20160515110510405/15/16 11:05:31  5-MIN KAVL 151605Z 34015KT 10SM CLR 13/00 A3012 1990 41 2200 340/15 RMK AO2 T01280000
03812KAVL AVL20160515111011105/15/16 11:10:31  5-MIN KAVL 151610Z 36013G21KT 10SM CLR 13/M01 A3012 1990 39 2200 360/13G21 RMK AO2 T01281006
03812KAVL AVL20160515111511105/15/16 11:15:31  5-MIN KAVL 151615Z 36012G21KT 10SM CLR 13/M01 A3011 1990 39 2200 360/12G21 RMK AO2 T01281006
03812KAVL AVL20160515112011105/15/16 11:20:31  5-MIN KAVL 151620Z 35014G19KT 10SM CLR 13/M01 A3011 1990 39 2200 360/14G19 RMK AO2 T01281006
03812KAVL AVL20160515112511105/15/16 11:25:31  5-MIN KAVL 151625Z 36012G19KT 10SM CLR 13/M01 A3011 1990 39 2200 010/12G19 RMK AO2 T01281006
03812KAVL AVL20160515113011005/15/16 11:30:31  5-MIN KAVL 151630Z 35014G19KT 10SM CLR 13/00 A3011 1990 40 2300 360/14G19 RMK AO2 T01330000
03812KAVL AVL20160515113511105/15/16 11:35:31  5-MIN KAVL 151635Z 01010G19KT 10SM CLR 13/M01 A3011 2000 38 2300 010/10G19 RMK AO2 T01331006
03812KAVL AVL20160515114010405/15/16 11:40:31  5-MIN KAVL 151640Z 35017KT 10SM CLR 14/00 A3010 2000 38 2400 360/17 RMK AO2 T01390000
03812KAVL AVL20160515114511105/15/16 11:45:31  5-MIN KAVL 151645Z 36015G19KT 10SM CLR 13/M01 A3010 2000 38 2300 360/15G19 RMK AO2 T01331006
03812KAVL AVL20160515115011805/15/16 11:50:31  5-MIN KAVL 151650Z 36016G20KT 10SM CLR 13/M01 A3010 2000 38 2300 360/16G20 RMK AO2 SLP185 T01331006
03812KAVL AVL20160515115511105/15/16 11:55:31  5-MIN KAVL 151655Z 35014G21KT 10SM CLR 14/M01 A3010 2000 37 2400 350/14G21 RMK AO2 T01391006
03812KAVL AVL20160515120011105/15/16 12:00:31  5-MIN KAVL 151700Z 35017G21KT 10SM CLR 14/M01 A3010 2000 37 2400 360/17G21 RMK AO2 T01391006
03812KAVL AVL20160515120511105/15/16 12:05:31  5-MIN KAVL 151705Z 35016G21KT 10SM CLR 14/M01 A3010 2000 37 2400 360/16G21 RMK AO2 T01391006
03812KAVL AVL20160515121010505/15/16 12:10:31  5-MIN KAVL 151710Z 36014KT 10SM CLR 14/M01 A3010 2000 37 2400 360/14 RMK AO2 T01391006
03812KAVL AVL20160515121511105/15/16 12:15:31  5-MIN KAVL 151715Z 36014G21KT 10SM CLR 14/M01 A3009 2010 35 2400 360/14G21 RMK AO2 T01441006
03812KAVL AVL20160515122011105/15/16 12:20:31  5-MIN KAVL 151720Z 36014G21KT 10SM CLR 14/M01 A3009 2010 35 2400 010/14G21 RMK AO2 T01441006
03812KAVL AVL20160515122511105/15/16 12:25:31  5-MIN KAVL 151725Z 36017G21KT 10SM CLR 14/M01 A3010 2010 35 2400 010/17G21 RMK AO2 T01441006
03812KAVL AVL20160515123011105/15/16 12:30:31  5-MIN KAVL 151730Z 35015G23KT 10SM CLR 15/M01 A3009 2010 34 2500 360/15G23 RMK AO2 T01501006
03812KAVL AVL20160515123511105/15/16 12:35:31  5-MIN KAVL 151735Z 35014G24KT 10SM CLR 15/M01 A3009 2010 34 2500 350/14G24 RMK AO2 T01501006
03812KAVL AVL20160515124011105/15/16 12:40:31  5-MIN KAVL 151740Z 34017G24KT 10SM CLR 15/M01 A3009 2010 34 2500 340/17G24 RMK AO2 T01501006
03812KAVL AVL20160515124511105/15/16 12:45:31  5-MIN KAVL 151745Z 01012G24KT 10SM CLR 15/M01 A3009 2010 34 2500 020/12G24 RMK AO2 T01501006
03812KAVL AVL20160515125013605/15/16 12:50:31  5-MIN KAVL 151750Z 35015G21KT 10SM CLR 15/M01 A3009 2010 33 2500 350/15G21 RMK AO2 SLP181 T01501011 10150 20067 50008
03812KAVL AVL20160515125510505/15/16 12:55:31  5-MIN KAVL 151755Z 36014KT 10SM CLR 15/M01 A3009 2010 34 2500 360/14 RMK AO2 T01501006
03812KAVL AVL20160515130011105/15/16 13:00:31  5-MIN KAVL 151800Z 36012G21KT 10SM CLR 15/M01 A3009 2010 33 2500 360/12G21 RMK AO2 T01501011
03812KAVL AVL20160515130511105/15/16 13:05:31  5-MIN KAVL 151805Z 35013G22KT 10SM CLR 15/M01 A3009 2010 33 2500 350/13G22 RMK AO2 T01501011
03812KAVL AVL20160515131011105/15/16 13:10:31  5-MIN KAVL 151810Z 36011G22KT 10SM CLR 16/M01 A3009 2010 31 2600 360/11G22 RMK AO2 T01561011
03812KAVL AVL20160515131511105/15/16 13:15:31  5-MIN KAVL 151815Z 35013G23KT 10SM CLR 16/M02 A3009 2010 30 2600 360/13G23 RMK AO2 T01561017
03812KAVL AVL20160515132011105/15/16 13:20:31  5-MIN KAVL 151820Z 35011G23KT 10SM CLR 15/M02 A3009 2020 31 2500 360/11G23 RMK AO2 T01501017
03812KAVL AVL20160515132511105/15/16 13:25:31  5-MIN KAVL 151825Z 34018G23KT 10SM CLR 16/M02 A3008 2020 30 2600 350/18G23 RMK AO2 T01561017
03812KAVL AVL20160515133011105/15/16 13:30:31  5-MIN KAVL 151830Z 01015G23KT 10SM CLR 16/M02 A3008 2020 30 2600 020/15G23 RMK AO2 T01561017
03812KAVL AVL20160515133511105/15/16 13:35:31  5-MIN KAVL 151835Z 35011G21KT 10SM CLR 16/M02 A3008 2020 29 2700 350/11G21 RMK AO2 T01611017
03812KAVL AVL20160515134011105/15/16 13:40:31  5-MIN KAVL 151840Z 34015G23KT 10SM CLR 17/M01 A3008 2020 29 2700 350/15G23 RMK AO2 T01671011
03812KAVL AVL20160515134511105/15/16 13:45:31  5-MIN KAVL 151845Z 34018G23KT 10SM CLR 17/M01 A3008 2020 29 2700 340/18G23 RMK AO2 T01671011
03812KAVL AVL20160515135011805/15/16 13:50:31  5-MIN KAVL 151850Z 35014G22KT 10SM CLR 16/M02 A3008 2020 29 2700 350/14G22 RMK AO2 SLP175 T01611017
03812KAVL AVL20160515135511105/15/16 13:55:31  5-MIN KAVL 151855Z 34019G23KT 10SM CLR 16/M02 A3008 2020 29 2700 340/19G23 RMK AO2 T01611017
03812KAVL AVL20160515140011105/15/16 14:00:31  5-MIN KAVL 151900Z 35015G24KT 10SM CLR 16/M02 A3008 2020 29 2700 360/15G24 RMK AO2 T01611017
03812KAVL AVL20160515140511105/15/16 14:05:31  5-MIN KAVL 151905Z 35015G24KT 10SM CLR 16/M02 A3008 2020 29 2700 360/15G24 RMK AO2 T01611017
03812KAVL AVL20160515141011105/15/16 14:10:31  5-MIN KAVL 151910Z 36011G21KT 10SM CLR 16/M02 A3008 2020 29 2600 360/11G21 RMK AO2 T01561022
03812KAVL AVL20160515141511605/15/16 14:15:31  5-MIN KAVL 151915Z AUTO 36014G18KT 10SM CLR 16/M02 A3007 2030 29 2700 010/14G18 RMK AO2 T01611017
03812KAVL AVL20160515142011605/15/16 14:20:31  5-MIN KAVL 151920Z AUTO 01013G25KT 10SM CLR 16/M02 A3007 2030 29 2700 020/13G25 RMK AO2 T01611017
03812KAVL AVL20160515142511605/15/16 14:25:31  5-MIN KAVL 151925Z AUTO 01015G25KT 10SM CLR 16/M02 A3007 2030 28 2700 010/15G25 RMK AO2 T01611022
03812KAVL AVL20160515143011605/15/16 14:30:31  5-MIN KAVL 151930Z AUTO 01016G23KT 10SM CLR 16/M02 A3007 2030 28 2700 010/16G23 RMK AO2 T01611022
03812KAVL AVL20160515143511605/15/16 14:35:31  5-MIN KAVL 151935Z AUTO 36015G23KT 10SM CLR 16/M02 A3007 2030 28 2700 010/15G23 RMK AO2 T01611022
03812KAVL AVL20160515144011005/15/16 14:40:31  5-MIN KAVL 151940Z AUTO 36015KT 10SM CLR 16/M03 A3007 2030 27 2700 010/15 RMK AO2 T01611028
03812KAVL AVL20160515144511605/15/16 14:45:31  5-MIN KAVL 151945Z AUTO 01013G23KT 10SM CLR 16/M02 A3007 2030 28 2700 010/13G23 RMK AO2 T01611022
03812KAVL AVL20160515145012305/15/16 14:50:31  5-MIN KAVL 151950Z AUTO 34019G25KT 10SM CLR 17/M02 A3007 2030 28 2700 350/19G25 RMK AO2 SLP171 T01671017
03812KAVL AVL20160515145511105/15/16 14:55:31  5-MIN KAVL 151955Z 36014G25KT 10SM CLR 16/M02 A3007 2030 28 2700 360/14G25 RMK AO2 T01611022
03812KAVL AVL20160515150011105/15/16 15:00:31  5-MIN KAVL 152000Z 36014G25KT 10SM CLR 17/M02 A3007 2030 28 2700 360/14G25 RMK AO2 T01671017
03812KAVL AVL20160515150511105/15/16 15:05:31  5-MIN KAVL 152005Z 35015G22KT 10SM CLR 17/M02 A3006 2030 28 2700 360/15G22 RMK AO2 T01671017
03812KAVL AVL20160515151011105/15/16 15:10:31  5-MIN KAVL 152010Z 01013G22KT 10SM CLR 17/M02 A3007 2030 27 2700 010/13G22 RMK AO2 T01671022
03812KAVL AVL20160515151511105/15/16 15:15:31  5-MIN KAVL 152015Z 35013G23KT 10SM CLR 17/M02 A3007 2030 27 2700 360/13G23 RMK AO2 T01671022
03812KAVL AVL20160515152011105/15/16 15:20:31  5-MIN KAVL 152020Z 36016G25KT 10SM CLR 16/M02 A3006 2040 28 2700 010/16G25 RMK AO2 T01611022
03812KAVL AVL20160515152511105/15/16 15:25:31  5-MIN KAVL 152025Z 01013G25KT 10SM CLR 16/M03 A3006 2040 27 2700 010/13G25 RMK AO2 T01611028
03812KAVL AVL20160515153011105/15/16 15:30:31  5-MIN KAVL 152030Z 36017G22KT 10SM CLR 17/M02 A3006 2040 27 2700 360/17G22 RMK AO2 T01671022
03812KAVL AVL20160515153511105/15/16 15:35:31  5-MIN KAVL 152035Z 01015G22KT 10SM CLR 17/M02 A3006 2040 27 2700 020/15G22 RMK AO2 T01671022
03812KAVL AVL20160515154011105/15/16 15:40:31  5-MIN KAVL 152040Z 01013G22KT 10SM CLR 17/M02 A3007 2030 27 2700 010/13G22 RMK AO2 T01671022
03812KAVL AVL20160515154511105/15/16 15:45:31  5-MIN KAVL 152045Z 35011G19KT 10SM CLR 17/M02 A3007 2030 27 2700 360/11G19 RMK AO2 T01671022
03812KAVL AVL20160515155012405/15/16 15:50:31  5-MIN KAVL 152050Z 34012G19KT 10SM CLR 17/M02 A3007 2030 28 2700 350/12G19 RMK AO2 SLP173 T01671017 58009
03812KAVL AVL20160515155511105/15/16 15:55:31  5-MIN KAVL 152055Z 36011G21KT 10SM CLR 17/M02 A3007 2030 27 2700 010/11G21 RMK AO2 T01671022
03812KAVL AVL20160515160011105/15/16 16:00:31  5-MIN KAVL 152100Z 01010G21KT 10SM CLR 17/M02 A3007 2030 27 2700 010/10G21 RMK AO2 T01671022
03812KAVL AVL20160515160510505/15/16 16:05:31  5-MIN KAVL 152105Z 35016KT 10SM CLR 17/M02 A3007 2030 27 2700 360/16 RMK AO2 T01671022
03812KAVL AVL20160515161011105/15/16 16:10:31  5-MIN KAVL 152110Z 35015G20KT 10SM CLR 17/M02 A3008 2020 27 2700 360/15G20 RMK AO2 T01671022
03812KAVL AVL20160515161511105/15/16 16:15:31  5-MIN KAVL 152115Z 35011G20KT 10SM CLR 16/M02 A3008 2020 28 2700 360/11G20 RMK AO2 T01611022
03812KAVL AVL20160515162011105/15/16 16:20:31  5-MIN KAVL 152120Z 35014G18KT 10SM CLR 17/M02 A3008 2020 28 2700 350/14G18 RMK AO2 T01671017
03812KAVL AVL20160515162511105/15/16 16:25:31  5-MIN KAVL 152125Z 36011G18KT 10SM CLR 16/M02 A3008 2020 28 2700 010/11G18 RMK AO2 T01611022
03812KAVL AVL20160515163011105/15/16 16:30:31  5-MIN KAVL 152130Z 36010G19KT 10SM CLR 16/M02 A3008 2020 28 2700 360/10G19 RMK AO2 T01611022
03812KAVL AVL20160515163511105/15/16 16:35:31  5-MIN KAVL 152135Z 35012G19KT 10SM CLR 16/M02 A3008 2020 28 2700 360/12G19 RMK AO2 T01611022
03812KAVL AVL20160515164011105/15/16 16:40:31  5-MIN KAVL 152140Z 35013G20KT 10SM CLR 16/M02 A3008 2020 28 2700 360/13G20 RMK AO2 T01611022
03812KAVL AVL20160515164511105/15/16 16:45:31  5-MIN KAVL 152145Z 34014G20KT 10SM CLR 16/M02 A3008 2020 29 2700 350/14G20 RMK AO2 T01611017
03812KAVL AVL20160515165011205/15/16 16:50:31  5-MIN KAVL 152150Z 01012KT 10SM CLR 16/M02 A3008 2020 28 2700 010/12 RMK AO2 SLP178 T01611022
03812KAVL AVL20160515165510505/15/16 16:55:31  5-MIN KAVL 152155Z 36012KT 10SM CLR 16/M02 A3008 2020 28 2700 010/12 RMK AO2 T01611022
03812KAVL AVL20160515170011105/15/16 17:00:31  5-MIN KAVL 152200Z 36013G19KT 10SM CLR 16/M02 A3008 2020 28 2700 360/13G19 RMK AO2 T01611022
03812KAVL AVL20160515170511105/15/16 17:05:31  5-MIN KAVL 152205Z 36010G19KT 10SM CLR 16/M02 A3008 2020 29 2600 010/10G19 RMK AO2 T01561022
03812KAVL AVL20160515171011105/15/16 17:10:31  5-MIN KAVL 152210Z 36010G17KT 10SM CLR 16/M02 A3008 2020 29 2600 010/10G17 RMK AO2 T01561022
03812KAVL AVL20160515171512705/15/16 17:15:31  5-MIN KAVL 152215Z 02009G17KT 350V060 10SM CLR 16/M02 A3008 2020 29 2600 030/09G17 360V070 RMK AO2 T01561022
03812KAVL AVL20160515172010505/15/16 17:20:31  5-MIN KAVL 152220Z 36008KT 10SM CLR 16/M02 A3008 2020 29 2600 010/08 RMK AO2 T01561022
03812KAVL AVL20160515172510505/15/16 17:25:31  5-MIN KAVL 152225Z 36007KT 10SM CLR 16/M02 A3008 2020 29 2700 360/07 RMK AO2 T01611017
03812KAVL AVL20160515173012705/15/16 17:30:31  5-MIN KAVL 152230Z 35009G16KT 310V020 10SM CLR 16/M02 A3008 2020 30 2600 350/09G16 320V030 RMK AO2 T01561017
03812KAVL AVL20160515173511105/15/16 17:35:31  5-MIN KAVL 152235Z 35011G19KT 10SM CLR 16/M02 A3009 2020 30 2600 360/11G19 RMK AO2 T01561017
03812KAVL AVL20160515174011105/15/16 17:40:31  5-MIN KAVL 152240Z 36010G19KT 10SM CLR 16/M02 A3009 2010 29 2600 360/10G19 RMK AO2 T01561022
03812KAVL AVL20160515174511105/15/16 17:45:31  5-MIN KAVL 152245Z 34012G17KT 10SM CLR 16/M02 A3009 2020 30 2600 340/12G17 RMK AO2 T01561017
03812KAVL AVL20160515175011205/15/16 17:50:31  5-MIN KAVL 152250Z 35012KT 10SM CLR 16/M02 A3009 2020 30 2600 350/12 RMK AO2 SLP180 T01561017
03812KAVL AVL20160515175510505/15/16 17:55:31  5-MIN KAVL 152255Z 36007KT 10SM CLR 16/M02 A3009 2010 30 2600 360/07 RMK AO2 T01561017
03812KAVL AVL20160515180010505/15/16 18:00:31  5-MIN KAVL 152300Z 35011KT 10SM CLR 16/M01 A3009 2020 31 2600 350/11 RMK AO2 T01561011
03812KAVL AVL20160515180511105/15/16 18:05:31  5-MIN KAVL 152305Z 35012G18KT 10SM CLR 15/M02 A3008 2020 31 2500 360/12G18 RMK AO2 T01501017
03812KAVL AVL20160515181011105/15/16 18:10:31  5-MIN KAVL 152310Z 35016G20KT 10SM CLR 15/M02 A3009 2020 31 2500 350/16G20 RMK AO2 T01501017
03812KAVL AVL20160515181511105/15/16 18:15:31  5-MIN KAVL 152315Z 35011G20KT 10SM CLR 15/M02 A3009 2010 31 2500 360/11G20 RMK AO2 T01501017
03812KAVL AVL20160515182011105/15/16 18:20:31  5-MIN KAVL 152320Z 36013G20KT 10SM CLR 15/M02 A3009 2010 31 2500 360/13G20 RMK AO2 T01501017
03812KAVL AVL20160515182510505/15/16 18:25:31  5-MIN KAVL 152325Z 36012KT 10SM CLR 15/M02 A3009 2010 31 2500 010/12 RMK AO2 T01501017
03812KAVL AVL20160515183010505/15/16 18:30:31  5-MIN KAVL 152330Z 35013KT 10SM CLR 14/M02 A3009 2010 33 2500 360/13 RMK AO2 T01441017
03812KAVL AVL20160515183510505/15/16 18:35:31  5-MIN KAVL 152335Z 36010KT 10SM CLR 14/M02 A3009 2010 33 2400 010/10 RMK AO2 T01441017
03812KAVL AVL20160515184011105/15/16 18:40:31  5-MIN KAVL 152340Z 35013G20KT 10SM CLR 14/M02 A3009 2010 33 2400 360/13G20 RMK AO2 T01441017
03812KAVL AVL20160515184510505/15/16 18:45:31  5-MIN KAVL 152345Z 36013KT 10SM CLR 14/M02 A3010 2000 33 2400 360/13 RMK AO2 T01441017
03812KAVL AVL20160515185013605/15/16 18:50:31  5-MIN KAVL 152350Z 34014G18KT 10SM CLR 14/M02 A3010 2000 33 2400 350/14G18 RMK AO2 SLP186 T01441017 10172 20144 55007
03812KAVL AVL20160515185511105/15/16 18:55:31  5-MIN KAVL 152355Z 34012G18KT 10SM CLR 14/M02 A3010 2000 34 2400 350/12G18 RMK AO2 T01391017
03812KAVL AVL20160515190010505/15/16 19:00:31  5-MIN KAVL 160000Z 35012KT 10SM CLR 14/M02 A3010 2000 34 2400 360/12 RMK AO2 T01391017
03812KAVL AVL20160515190511105/15/16 19:05:31  5-MIN KAVL 160005Z 34015G19KT 10SM CLR 14/M01 A3010 2000 35 2400 350/15G19 RMK AO2 T01391011
03812KAVL AVL20160515191010505/15/16 19:10:31  5-MIN KAVL 160010Z 34015KT 10SM CLR 13/M01 A3011 2000 36 2300 340/15 RMK AO2 T01331011
03812KAVL AVL20160515191510505/15/16 19:15:31  5-MIN KAVL 160015Z 34014KT 10SM CLR 13/M01 A3011 1990 36 2300 350/14 RMK AO2 T01331011
03812KAVL AVL20160515192010505/15/16 19:20:31  5-MIN KAVL 160020Z 35013KT 10SM CLR 13/M01 A3011 1990 36 2300 350/13 RMK AO2 T01331011
03812KAVL AVL20160515192510505/15/16 19:25:31  5-MIN KAVL 160025Z 34015KT 10SM CLR 13/M01 A3011 1990 38 2200 350/15 RMK AO2 T01281011
03812KAVL AVL20160515193010505/15/16 19:30:31  5-MIN KAVL 160030Z 34013KT 10SM CLR 13/M01 A3011 1990 38 2200 350/13 RMK AO2 T01281011
03812KAVL AVL20160515193510505/15/16 19:35:31  5-MIN KAVL 160035Z 34012KT 10SM CLR 13/M01 A3012 1980 38 2200 350/12 RMK AO2 T01281011
03812KAVL AVL20160515194010505/15/16 19:40:31  5-MIN KAVL 160040Z 35011KT 10SM CLR 13/M01 A3012 1980 38 2200 360/11 RMK AO2 T01281011
03812KAVL AVL20160515194511105/15/16 19:45:31  5-MIN KAVL 160045Z 35009G17KT 10SM CLR 13/M01 A3012 1980 38 2200 360/09G17 RMK AO2 T01281011
03812KAVL AVL20160515195011805/15/16 19:50:31  5-MIN KAVL 160050Z 35009G17KT 10SM CLR 12/M01 A3012 1980 39 2200 360/09G17 RMK AO2 SLP194 T01221011
03812KAVL AVL20160515195510505/15/16 19:55:31  5-MIN KAVL 160055Z 35008KT 10SM CLR 12/M01 A3012 1980 39 2200 360/08 RMK AO2 T01221011
03812KAVL AVL20160515200010505/15/16 20:00:31  5-MIN KAVL 160100Z 35008KT 10SM CLR 12/M01 A3013 1980 39 2100 360/08 RMK AO2 T01221011
03812KAVL AVL20160515200510505/15/16 20:05:31  5-MIN KAVL 160105Z 36005KT 10SM CLR 12/M01 A3013 1970 39 2100 360/05 RMK AO2 T01221011
03812KAVL AVL20160515201012105/15/16 20:10:31  5-MIN KAVL 160110Z 35008KT 320V020 10SM CLR 12/M01 A3014 1970 39 2100 360/08 330V030 RMK AO2 T01221011
03812KAVL AVL20160515201510505/15/16 20:15:31  5-MIN KAVL 160115Z VRB06KT 10SM CLR 12/M01 A3014 1970 39 2100 VRB/06 RMK AO2 T01221011
03812KAVL AVL20160515202010505/15/16 20:20:31  5-MIN KAVL 160120Z 36005KT 10SM CLR 12/M01 A3014 1970 39 2100 010/05 RMK AO2 T01221011
03812KAVL AVL20160515202510505/15/16 20:25:31  5-MIN KAVL 160125Z 34004KT 10SM CLR 12/M01 A3014 1960 41 2100 350/04 RMK AO2 T01171011
03812KAVL AVL20160515203010505/15/16 20:30:31  5-MIN KAVL 160130Z 00000KT 10SM CLR 12/M01 A3014 1960 41 2100 000/00 RMK AO2 T01171011
03812KAVL AVL20160515203510505/15/16 20:35:31  5-MIN KAVL 160135Z 34004KT 10SM CLR 12/M01 A3014 1960 41 2100 350/04 RMK AO2 T01171011
03812KAVL AVL20160515204010505/15/16 20:40:31  5-MIN KAVL 160140Z 36004KT 10SM CLR 12/M01 A3014 1960 41 2100 360/04 RMK AO2 T01171011
03812KAVL AVL20160515204510505/15/16 20:45:31  5-MIN KAVL 160145Z 36004KT 10SM CLR 12/M01 A3014 1960 41 2100 360/04 RMK AO2 T01171011
03812KAVL AVL20160515205011205/15/16 20:50:31  5-MIN KAVL 160150Z 34007KT 10SM CLR 11/M01 A3014 1960 44 2000 340/07 RMK AO2 SLP201 T01111006
03812KAVL AVL20160515205510505/15/16 20:55:31  5-MIN KAVL 160155Z 33008KT 10SM CLR 11/M01 A3015 1960 44 2000 330/08 RMK AO2 T01111006
03812KAVL AVL20160515210010505/15/16 21:00:31  5-MIN KAVL 160200Z 34008KT 10SM CLR 11/M01 A3015 1960 44 2000 350/08 RMK AO2 T01111006
03812KAVL AVL20160515210510505/15/16 21:05:31  5-MIN KAVL 160205Z 34008KT 10SM CLR 11/M01 A3015 1960 44 2000 350/08 RMK AO2 T01111006
03812KAVL AVL20160515211010505/15/16 21:10:31  5-MIN KAVL 160210Z 34008KT 10SM CLR 11/M01 A3015 1950 44 2000 350/08 RMK AO2 T01111006
03812KAVL AVL20160515211510505/15/16 21:15:31  5-MIN KAVL 160215Z 34009KT 10SM CLR 11/M01 A3016 1950 44 2000 350/09 RMK AO2 T01111006
03812KAVL AVL20160515212010505/15/16 21:20:31  5-MIN KAVL 160220Z 35007KT 10SM CLR 11/M01 A3016 1950 44 2000 350/07 RMK AO2 T01111006
03812KAVL AVL20160515212510505/15/16 21:25:31  5-MIN KAVL 160225Z 36006KT 10SM CLR 11/M01 A3016 1950 44 2000 010/06 RMK AO2 T01111006
03812KAVL AVL20160515213010505/15/16 21:30:31  5-MIN KAVL 160230Z VRB05KT 10SM CLR 11/M01 A3016 1950 44 2000 VRB/05 RMK AO2 T01111006
03812KAVL AVL20160515213510505/15/16 21:35:31  5-MIN KAVL 160235Z VRB03KT 10SM CLR 11/M01 A3016 1940 44 2000 VRB/03 RMK AO2 T01111006
03812KAVL AVL20160515214010505/15/16 21:40:31  5-MIN KAVL 160240Z 02003KT 10SM CLR 11/M01 A3017 1940 46 1900 030/03 RMK AO2 T01061006
03812KAVL AVL20160515214510505/15/16 21:45:31  5-MIN KAVL 160245Z 00000KT 10SM CLR 11/M01 A3017 1940 46 1900 000/00 RMK AO2 T01061006
03812KAVL AVL20160515215011805/15/16 21:50:31  5-MIN KAVL 160250Z 00000KT 10SM CLR 11/M01 A3017 1940 46 1900 000/00 RMK AO2 SLP208 T01061006 53010
03812KAVL AVL20160515215511005/15/16 21:55:31  5-MIN KAVL 160255Z AUTO 36004KT 10SM CLR 11/M01 A3017 1940 46 1900 360/04 RMK AO2 T01061006
03812KAVL AVL20160515220011005/15/16 22:00:31  5-MIN KAVL 160300Z AUTO 35005KT 10SM CLR 11/M01 A3017 1930 46 1900 360/05 RMK AO2 T01061006
03812KAVL AVL20160515220510905/15/16 22:05:31  5-MIN KAVL 160305Z AUTO 35007KT 10SM CLR 11/00 A3018 1930 48 1900 350/07 RMK AO2 T01060000
03812KAVL AVL20160515221010905/15/16 22:10:31  5-MIN KAVL 160310Z AUTO 35007KT 10SM CLR 10/00 A3018 1930 49 1800 350/07 RMK AO2 T01000000
03812KAVL AVL20160515221510905/15/16 22:15:31  5-MIN KAVL 160315Z AUTO 36005KT 10SM CLR 10/00 A3018 1930 49 1800 360/05 RMK AO2 T01000000
03812KAVL AVL20160515222010905/15/16 22:20:31  5-MIN KAVL 160320Z AUTO 36005KT 10SM CLR 11/00 A3018 1930 48 1900 360/05 RMK AO2 T01060000
03812KAVL AVL20160515222510905/15/16 22:25:31  5-MIN KAVL 160325Z AUTO 36005KT 10SM CLR 10/00 A3018 1930 49 1800 010/05 RMK AO2 T01000000
03812KAVL AVL20160515223010905/15/16 22:30:31  5-MIN KAVL 160330Z AUTO 36006KT 10SM CLR 11/00 A3018 1930 48 1900 360/06 RMK AO2 T01060000
03812KAVL AVL20160515223510905/15/16 22:35:31  5-MIN KAVL 160335Z AUTO 01005KT 10SM CLR 11/00 A3018 1930 48 1900 010/05 RMK AO2 T01060000
03812KAVL AVL20160515224010905/15/16 22:40:31  5-MIN KAVL 160340Z AUTO 00000KT 10SM CLR 10/00 A3018 1930 49 1800 000/00 RMK AO2 T01000000
03812KAVL AVL20160515224510905/15/16 22:45:31  5-MIN KAVL 160345Z AUTO 02003KT 10SM CLR 10/00 A3018 1920 49 1800 020/03 RMK AO2 T01000000
03812KAVL AVL20160515225011605/15/16 22:50:31  5-MIN KAVL 160350Z AUTO 36003KT 10SM CLR 10/00 A3019 1920 49 1800 010/03 RMK AO2 SLP214 T01000000
03812KAVL AVL20160515225510905/15/16 22:55:31  5-MIN KAVL 160355Z AUTO 36005KT 10SM CLR 10/00 A3019 1920 49 1800 010/05 RMK AO2 T01000000
03812KAVL AVL20160515230010905/15/16 23:00:31  5-MIN KAVL 160400Z AUTO 03003KT 10SM CLR 10/00 A3019 1920 49 1800 030/03 RMK AO2 T01000000
03812KAVL AVL20160515230510905/15/16 23:05:31  5-MIN KAVL 160405Z AUTO 00000KT 10SM CLR 10/00 A3019 1920 49 1800 000/00 RMK AO2 T01000000
03812KAVL AVL20160515231010905/15/16 23:10:31  5-MIN KAVL 160410Z AUTO 00000KT 10SM CLR 09/00 A3019 1920 51 1800 000/00 RMK AO2 T00940000
03812KAVL AVL20160515231510905/15/16 23:15:31  5-MIN KAVL 160415Z AUTO 12003KT 10SM CLR 09/01 A3019 1920 56 1700 130/03 RMK AO2 T00890006
03812KAVL AVL20160515232010905/15/16 23:20:31  5-MIN KAVL 160420Z AUTO 00000KT 10SM CLR 09/01 A3019 1920 56 1700 000/00 RMK AO2 T00890006
03812KAVL AVL20160515232510905/15/16 23:25:31  5-MIN KAVL 160425Z AUTO 00000KT 10SM CLR 09/01 A3019 1920 56 1700 000/00 RMK AO2 T00890006
03812KAVL AVL20160515233010905/15/16 23:30:31  5-MIN KAVL 160430Z AUTO 00000KT 10SM CLR 09/01 A3019 1920 56 1700 000/00 RMK AO2 T00890006
03812KAVL AVL20160515233510905/15/16 23:35:31  5-MIN KAVL 160435Z AUTO 00000KT 10SM CLR 08/01 A3020 1910 58 1600 000/00 RMK AO2 T00830006
03812KAVL AVL20160515234010905/15/16 23:40:31  5-MIN KAVL 160440Z AUTO 00000KT 10SM CLR 08/01 A3020 1910 58 1600 000/00 RMK AO2 T00830006
03812KAVL AVL20160515234510905/15/16 23:45:31  5-MIN KAVL 160445Z AUTO 00000KT 10SM CLR 08/01 A3020 1910 62 1500 000/00 RMK AO2 T00780011
03812KAVL AVL20160515235012605/15/16 23:50:31  5-MIN KAVL 160450Z AUTO 00000KT 10SM CLR 08/01 A3020 1910 58 1600 000/00 RMK AO2 SLP218 T00830006 401720050
03812KAVL AVL20160515235510905/15/16 23:55:31  5-MIN KAVL 160455Z AUTO 00000KT 10SM CLR 08/01 A3020 1910 62 1500 000/00 RMK AO2 T00780011
03812KAVL AVL20160516000010905/16/16 00:00:31  5-MIN KAVL 160500Z AUTO 05003KT 10SM CLR 08/01 A3020 1910 60 1500 060/03 RMK AO2 T00780006
03812KAVL AVL20160516000510905/16/16 00:05:31  5-MIN KAVL 160505Z AUTO 00000KT 10SM CLR 08/01 A3020 1910 62 1500 000/00 RMK AO2 T00780011
03812KAVL AVL20160516001010905/16/16 00:10:31  5-MIN KAVL 160510Z AUTO 00000KT 10SM CLR 07/01 A3020 1910 65 1500 000/00 RMK AO2 T00720011
03812KAVL AVL20160516001510905/16/16 00:15:31  5-MIN KAVL 160515Z AUTO 12003KT 10SM CLR 07/01 A3020 1910 65 1500 130/03 RMK AO2 T00720011
03812KAVL AVL20160516002010905/16/16 00:20:31  5-MIN KAVL 160520Z AUTO 00000KT 10SM CLR 07/01 A3020 1910 65 1500 000/00 RMK AO2 T00720011
03812KAVL AVL20160516002510905/16/16 00:25:31  5-MIN KAVL 160525Z AUTO 00000KT 10SM CLR 08/01 A3020 1910 62 1500 000/00 RMK AO2 T00780011
03812KAVL AVL20160516003010905/16/16 00:30:31  5-MIN KAVL 160530Z AUTO 00000KT 10SM CLR 07/01 A3020 1910 65 1500 000/00 RMK AO2 T00720011
03812KAVL AVL20160516003510905/16/16 00:35:31  5-MIN KAVL 160535Z AUTO 00000KT 10SM CLR 07/01 A3021 1900 65 1500 000/00 RMK AO2 T00720011
03812KAVL AVL20160516004010905/16/16 00:40:31  5-MIN KAVL 160540Z AUTO 00000KT 10SM CLR 07/01 A3021 1900 65 1500 000/00 RMK AO2 T00720011
03812KAVL AVL20160516004510905/16/16 00:45:31  5-MIN KAVL 160545Z AUTO 00000KT 10SM CLR 07/02 A3021 1900 70 1400 000/00 RMK AO2 T00670017
03812KAVL AVL20160516005013405/16/16 00:50:31  5-MIN KAVL 160550Z AUTO 00000KT 10SM CLR 07/02 A3020 1910 70 1400 000/00 RMK AO2 SLP220 T00670017 10139 20067 53022
03812KAVL AVL20160516005510905/16/16 00:55:31  5-MIN KAVL 160555Z AUTO 00000KT 10SM CLR 07/02 A3020 1910 68 1500 000/00 RMK AO2 T00720017
03812KAVL AVL20160516010010905/16/16 01:00:31  5-MIN KAVL 160600Z AUTO 00000KT 10SM CLR 07/02 A3020 1910 68 1500 000/00 RMK AO2 T00720017
03812KAVL AVL20160516010510905/16/16 01:05:31  5-MIN KAVL 160605Z AUTO 00000KT 10SM CLR 07/02 A3020 1910 68 1500 000/00 RMK AO2 T00720017
03812KAVL AVL20160516011010905/16/16 01:10:31  5-MIN KAVL 160610Z AUTO 00000KT 10SM CLR 07/02 A3020 1910 68 1500 000/00 RMK AO2 T00720017
03812KAVL AVL20160516011510905/16/16 01:15:31  5-MIN KAVL 160615Z AUTO 00000KT 10SM CLR 07/02 A3020 1910 68 1500 000/00 RMK AO2 T00720017
03812KAVL AVL20160516012010905/16/16 01:20:31  5-MIN KAVL 160620Z AUTO 00000KT 10SM CLR 07/02 A3020 1910 68 1500 000/00 RMK AO2 T00720017
03812KAVL AVL20160516012510905/16/16 01:25:31  5-MIN KAVL 160625Z AUTO 00000KT 10SM CLR 07/02 A3020 1910 68 1500 000/00 RMK AO2 T00720017
03812KAVL AVL20160516013010905/16/16 01:30:31  5-MIN KAVL 160630Z AUTO 00000KT 10SM CLR 07/01 A3020 1910 65 1500 000/00 RMK AO2 T00720011
03812KAVL AVL20160516013510905/16/16 01:35:31  5-MIN KAVL 160635Z AUTO 00000KT 10SM CLR 07/02 A3020 1910 70 1400 000/00 RMK AO2 T00670017
03812KAVL AVL20160516014010905/16/16 01:40:31  5-MIN KAVL 160640Z AUTO 00000KT 10SM CLR 07/01 A3020 1910 65 1500 000/00 RMK AO2 T00720011
03812KAVL AVL20160516014510905/16/16 01:45:31  5-MIN KAVL 160645Z AUTO 03003KT 10SM CLR 07/01 A3020 1910 65 1500 040/03 RMK AO2 T00720011
03812KAVL AVL20160516015011605/16/16 01:50:31  5-MIN KAVL 160650Z AUTO 02004KT 10SM CLR 07/01 A3020 1910 65 1500 030/04 RMK AO2 SLP219 T00720011
03812KAVL AVL20160516015510905/16/16 01:55:31  5-MIN KAVL 160655Z AUTO 02005KT 10SM CLR 08/01 A3020 1910 62 1500 030/05 RMK AO2 T00780011
03812KAVL AVL20160516020010905/16/16 02:00:31  5-MIN KAVL 160700Z AUTO 01006KT 10SM CLR 08/01 A3020 1910 62 1500 020/06 RMK AO2 T00780011
03812KAVL AVL20160516020510905/16/16 02:05:31  5-MIN KAVL 160705Z AUTO 36007KT 10SM CLR 08/02 A3020 1910 65 1500 010/07 RMK AO2 T00780017
03812KAVL AVL20160516021010905/16/16 02:10:31  5-MIN KAVL 160710Z AUTO 36008KT 10SM CLR 08/02 A3020 1910 65 1500 360/08 RMK AO2 T00780017
03812KAVL AVL20160516021510905/16/16 02:15:31  5-MIN KAVL 160715Z AUTO 35007KT 10SM CLR 08/01 A3020 1910 62 1500 360/07 RMK AO2 T00780011
03812KAVL AVL20160516022010905/16/16 02:20:31  5-MIN KAVL 160720Z AUTO 35005KT 10SM CLR 08/02 A3020 1910 65 1500 360/05 RMK AO2 T00780017
03812KAVL AVL20160516022510905/16/16 02:25:31  5-MIN KAVL 160725Z AUTO 00000KT 10SM CLR 08/02 A3020 1910 65 1500 000/00 RMK AO2 T00780017
03812KAVL AVL20160516023010905/16/16 02:30:31  5-MIN KAVL 160730Z AUTO 15004KT 10SM CLR 07/02 A3020 1910 70 1400 160/04 RMK AO2 T00670017
03812KAVL AVL20160516023510905/16/16 02:35:31  5-MIN KAVL 160735Z AUTO 15003KT 10SM CLR 07/02 A3020 1910 70 1400 150/03 RMK AO2 T00670017
03812KAVL AVL20160516024010905/16/16 02:40:31  5-MIN KAVL 160740Z AUTO 00000KT 10SM CLR 06/02 A3020 1910 73 1300 000/00 RMK AO2 T00610017
03812KAVL AVL20160516024510905/16/16 02:45:31  5-MIN KAVL 160745Z AUTO 31003KT 10SM CLR 06/02 A3020 1910 73 1300 320/03 RMK AO2 T00610017
03812KAVL AVL20160516025011605/16/16 02:50:31  5-MIN KAVL 160750Z AUTO 00000KT 10SM CLR 06/02 A3020 1910 76 1300 000/00 RMK AO2 SLP220 T00560017
03812KAVL AVL20160516025510905/16/16 02:55:31  5-MIN KAVL 160755Z AUTO 00000KT 10SM CLR 06/02 A3020 1910 73 1300 000/00 RMK AO2 T00610017
03812KAVL AVL20160516030010905/16/16 03:00:31  5-MIN KAVL 160800Z AUTO 00000KT 10SM CLR 06/02 A3020 1910 73 1300 000/00 RMK AO2 T00610017
03812KAVL AVL20160516030510905/16/16 03:05:31  5-MIN KAVL 160805Z AUTO 36004KT 10SM CLR 07/02 A3020 1910 70 1400 010/04 RMK AO2 T00670017
03812KAVL AVL20160516031010905/16/16 03:10:31  5-MIN KAVL 160810Z AUTO 36006KT 10SM CLR 07/01 A3020 1910 65 1500 010/06 RMK AO2 T00720011
03812KAVL AVL20160516031510905/16/16 03:15:31  5-MIN KAVL 160815Z AUTO 36008KT 10SM CLR 07/01 A3020 1910 65 1500 010/08 RMK AO2 T00720011
03812KAVL AVL20160516032010905/16/16 03:20:31  5-MIN KAVL 160820Z AUTO 36007KT 10SM CLR 07/01 A3020 1910 65 1500 010/07 RMK AO2 T00720011
03812KAVL AVL20160516032510905/16/16 03:25:31  5-MIN KAVL 160825Z AUTO 36004KT 10SM CLR 07/02 A3020 1910 68 1500 360/04 RMK AO2 T00720017
03812KAVL AVL20160516033010905/16/16 03:30:31  5-MIN KAVL 160830Z AUTO 00000KT 10SM CLR 07/02 A3020 1910 68 1500 000/00 RMK AO2 T00720017
03812KAVL AVL20160516033510905/16/16 03:35:31  5-MIN KAVL 160835Z AUTO 18004KT 10SM CLR 07/02 A3021 1900 70 1400 190/04 RMK AO2 T00670017
03812KAVL AVL20160516034010905/16/16 03:40:31  5-MIN KAVL 160840Z AUTO 00000KT 10SM CLR 06/02 A3020 1910 73 1300 000/00 RMK AO2 T00610017
03812KAVL AVL20160516034510905/16/16 03:45:31  5-MIN KAVL 160845Z AUTO VRB03KT 10SM CLR 07/02 A3020 1910 70 1400 VRB/03 RMK AO2 T00670017
03812KAVL AVL20160516035012205/16/16 03:50:31  5-MIN KAVL 160850Z AUTO 01003KT 10SM CLR 07/02 A3020 1910 70 1400 010/03 RMK AO2 SLP219 T00670017 51009
03812KAVL AVL20160516035510905/16/16 03:55:31  5-MIN KAVL 160855Z AUTO 02003KT 10SM CLR 07/02 A3020 1910 70 1400 030/03 RMK AO2 T00670017
03812KAVL AVL20160516040010905/16/16 04:00:31  5-MIN KAVL 160900Z AUTO 04003KT 10SM CLR 07/02 A3020 1910 70 1400 050/03 RMK AO2 T00670017
03812KAVL AVL20160516040510905/16/16 04:05:31  5-MIN KAVL 160905Z AUTO 00000KT 10SM CLR 07/02 A3020 1910 70 1400 000/00 RMK AO2 T00670017
03812KAVL AVL20160516041010905/16/16 04:10:31  5-MIN KAVL 160910Z AUTO 05003KT 10SM CLR 07/02 A3020 1910 70 1400 050/03 RMK AO2 T00670017
03812KAVL AVL20160516041510905/16/16 04:15:31  5-MIN KAVL 160915Z AUTO 04003KT 10SM CLR 07/02 A3020 1910 70 1400 050/03 RMK AO2 T00670017
03812KAVL AVL20160516042010905/16/16 04:20:31  5-MIN KAVL 160920Z AUTO 02004KT 10SM CLR 07/02 A3020 1910 70 1400 030/04 RMK AO2 T00670017
03812KAVL AVL20160516042510905/16/16 04:25:31  5-MIN KAVL 160925Z AUTO 01004KT 10SM CLR 07/02 A3020 1910 70 1400 010/04 RMK AO2 T00670017
03812KAVL AVL20160516043010905/16/16 04:30:31  5-MIN KAVL 160930Z AUTO 01004KT 10SM CLR 07/02 A3020 1910 70 1400 010/04 RMK AO2 T00670017
03812KAVL AVL20160516043510905/16/16 04:35:31  5-MIN KAVL 160935Z AUTO 01004KT 10SM CLR 07/02 A3020 1910 70 1400 010/04 RMK AO2 T00670017
03812KAVL AVL20160516044010905/16/16 04:40:31  5-MIN KAVL 160940Z AUTO 01005KT 10SM CLR 07/02 A3020 1910 70 1400 020/05 RMK AO2 T00670017
03812KAVL AVL20160516044510905/16/16 04:45:31  5-MIN KAVL 160945Z AUTO 01005KT 10SM CLR 07/02 A3021 1900 70 1400 010/05 RMK AO2 T00670017
03812KAVL AVL20160516045011605/16/16 04:50:31  5-MIN KAVL 160950Z AUTO 01004KT 10SM CLR 07/01 A3021 1900 67 1400 020/04 RMK AO2 SLP221 T00670011
03812KAVL AVL20160516045510905/16/16 04:55:31  5-MIN KAVL 160955Z AUTO VRB04KT 10SM CLR 07/01 A3021 1900 67 1400 VRB/04 RMK AO2 T00670011
03812KAVL AVL20160516050010905/16/16 05:00:31  5-MIN KAVL 161000Z AUTO VRB03KT 10SM CLR 07/01 A3021 1900 67 1400 VRB/03 RMK AO2 T00670011
03812KAVL AVL20160516050510905/16/16 05:05:31  5-MIN KAVL 161005Z AUTO VRB04KT 10SM CLR 07/01 A3021 1900 67 1400 VRB/04 RMK AO2 T00670011
03812KAVL AVL20160516051010905/16/16 05:10:31  5-MIN KAVL 161010Z AUTO 01005KT 10SM CLR 07/02 A3022 1890 70 1400 010/05 RMK AO2 T00670017
03812KAVL AVL20160516051510405/16/16 05:15:31  5-MIN KAVL 161015Z 01004KT 10SM CLR 07/02 A3022 1890 68 1400 020/04 RMK AO2 T00720017
03812KAVL AVL20160516052010405/16/16 05:20:31  5-MIN KAVL 161020Z 03004KT 10SM CLR 07/02 A3022 1890 70 1400 030/04 RMK AO2 T00670017
03812KAVL AVL20160516052510405/16/16 05:25:31  5-MIN KAVL 161025Z 01006KT 10SM CLR 07/02 A3022 1890 70 1400 010/06 RMK AO2 T00670017
03812KAVL AVL20160516053010405/16/16 05:30:31  5-MIN KAVL 161030Z VRB04KT 10SM CLR 07/02 A3022 1890 70 1400 VRB/04 RMK AO2 T00670017
03812KAVL AVL20160516053510405/16/16 05:35:31  5-MIN KAVL 161035Z VRB03KT 10SM CLR 06/02 A3023 1880 73 1300 VRB/03 RMK AO2 T00610017
03812KAVL AVL20160516054010405/16/16 05:40:31  5-MIN KAVL 161040Z 00000KT 10SM CLR 06/02 A3023 1880 73 1300 000/00 RMK AO2 T00610017
03812KAVL AVL20160516054510405/16/16 05:45:31  5-MIN KAVL 161045Z 00000KT 10SM CLR 06/02 A3023 1880 73 1300 000/00 RMK AO2 T00610017
03812KAVL AVL20160516055011105/16/16 05:50:31  5-MIN KAVL 161050Z 00000KT 10SM CLR 06/02 A3024 1880 73 1300 000/00 RMK AO2 SLP231 T00610017
03812KAVL AVL20160516055510405/16/16 05:55:31  5-MIN KAVL 161055Z 00000KT 10SM CLR 06/02 A3024 1870 73 1300 000/00 RMK AO2 T00610017
03812KAVL AVL20160516060010405/16/16 06:00:31  5-MIN KAVL 161100Z 00000KT 10SM CLR 06/02 A3024 1870 73 1300 000/00 RMK AO2 T00610017
03812KAVL AVL20160516060510405/16/16 06:05:31  5-MIN KAVL 161105Z 03003KT 10SM CLR 06/02 A3024 1870 73 1300 040/03 RMK AO2 T00610017
03812KAVL AVL20160516061010405/16/16 06:10:31  5-MIN KAVL 161110Z 00000KT 10SM CLR 07/02 A3024 1870 70 1400 000/00 RMK AO2 T00670017
03812KAVL AVL20160516061510405/16/16 06:15:31  5-MIN KAVL 161115Z 00000KT 10SM CLR 07/02 A3025 1870 70 1400 000/00 RMK AO2 T00670017
03812KAVL AVL20160516062010405/16/16 06:20:31  5-MIN KAVL 161120Z 35003KT 10SM CLR 07/02 A3025 1860 70 1400 350/03 RMK AO2 T00720022
03812KAVL AVL20160516062510405/16/16 06:25:31  5-MIN KAVL 161125Z 34003KT 10SM CLR 07/02 A3025 1860 70 1400 350/03 RMK AO2 T00720022
03812KAVL AVL20160516063010405/16/16 06:30:31  5-MIN KAVL 161130Z 35003KT 10SM CLR 07/02 A3025 1860 70 1400 360/03 RMK AO2 T00720022
03812KAVL AVL20160516063510405/16/16 06:35:31  5-MIN KAVL 161135Z 36003KT 10SM CLR 08/03 A3025 1860 70 1500 360/03 RMK AO2 T00780028
03812KAVL AVL20160516064010405/16/16 06:40:31  5-MIN KAVL 161140Z 00000KT 10SM CLR 08/02 A3026 1860 68 1500 000/00 RMK AO2 T00780022
03812KAVL AVL20160516064510405/16/16 06:45:31  5-MIN KAVL 161145Z 35004KT 10SM CLR 08/02 A3026 1860 65 1500 360/04 RMK AO2 T00830022
03812KAVL AVL20160516065012905/16/16 06:50:31  5-MIN KAVL 161150Z 34005KT 10SM CLR 08/02 A3026 1850 65 1500 350/05 RMK AO2 SLP239 T00830022 10083 20056 50000
03812KAVL AVL20160516065510405/16/16 06:55:31  5-MIN KAVL 161155Z 01005KT 10SM CLR 08/02 A3026 1850 65 1500 010/05 RMK AO2 T00830022
03812KAVL AVL20160516070010405/16/16 07:00:31  5-MIN KAVL 161200Z 01004KT 10SM CLR 08/02 A3026 1850 65 1500 010/04 RMK AO2 T00830022
03812KAVL AVL20160516070510405/16/16 07:05:31  5-MIN KAVL 161205Z VRB03KT 10SM CLR 09/02 A3026 1850 63 1600 VRB/03 RMK AO2 T00890022
03812KAVL AVL20160516071010405/16/16 07:10:31  5-MIN KAVL 161210Z 36004KT 10SM CLR 09/03 A3026 1850 63 1700 010/04 RMK AO2 T00940028
03812KAVL AVL20160516071510405/16/16 07:15:31  5-MIN KAVL 161215Z VRB04KT 10SM CLR 09/02 A3026 1850 60 1700 VRB/04 RMK AO2 T00940022
03812KAVL AVL20160516072010405/16/16 07:20:31  5-MIN KAVL 161220Z 34004KT 10SM CLR 10/03 A3027 1850 60 1700 350/04 RMK AO2 T01000028
03812KAVL AVL20160516072510405/16/16 07:25:31  5-MIN KAVL 161225Z 35004KT 10SM CLR 10/03 A3027 1850 60 1700 360/04 RMK AO2 T01000028
03812KAVL AVL20160516073010405/16/16 07:30:31  5-MIN KAVL 161230Z 35005KT 10SM CLR 11/03 A3027 1850 58 1800 360/05 RMK AO2 T01060028
03812KAVL AVL20160516073510405/16/16 07:35:31  5-MIN KAVL 161235Z 36004KT 10SM CLR 11/03 A3027 1850 58 1800 010/04 RMK AO2 T01060028
03812KAVL AVL20160516074010405/16/16 07:40:31  5-MIN KAVL 161240Z 01006KT 10SM CLR 11/02 A3026 1850 56 1800 020/06 RMK AO2 T01060022
03812KAVL AVL20160516074510405/16/16 07:45:31  5-MIN KAVL 161245Z 01005KT 10SM CLR 11/03 A3026 1850 58 1800 010/05 RMK AO2 T01060028
03812KAVL AVL20160516075011105/16/16 07:50:31  5-MIN KAVL 161250Z 35004KT 10SM CLR 11/02 A3026 1850 56 1800 360/04 RMK AO2 SLP239 T01060022
03812KAVL AVL20160516075510405/16/16 07:55:31  5-MIN KAVL 161255Z 34006KT 10SM CLR 11/02 A3026 1850 54 1900 340/06 RMK AO2 T01110022
03812KAVL AVL20160516080010405/16/16 08:00:31  5-MIN KAVL 161300Z 35005KT 10SM CLR 11/02 A3026 1850 54 1900 360/05 RMK AO2 T01110022
03812KAVL AVL20160516080510405/16/16 08:05:31  5-MIN KAVL 161305Z 33006KT 10SM CLR 12/02 A3027 1850 52 1900 330/06 RMK AO2 T01170022
03812KAVL AVL20160516081010405/16/16 08:10:31  5-MIN KAVL 161310Z 33007KT 10SM CLR 12/02 A3027 1850 52 1900 340/07 RMK AO2 T01170022
03812KAVL AVL20160516081510405/16/16 08:15:31  5-MIN KAVL 161315Z 35006KT 10SM CLR 12/02 A3027 1850 50 1900 350/06 RMK AO2 T01170017
03812KAVL AVL20160516082010405/16/16 08:20:31  5-MIN KAVL 161320Z 34005KT 10SM CLR 12/02 A3027 1850 50 1900 350/05 RMK AO2 T01170017
03812KAVL AVL20160516082510405/16/16 08:25:31  5-MIN KAVL 161325Z 36006KT 10SM CLR 12/02 A3027 1850 50 1900 360/06 RMK AO2 T01170017
03812KAVL AVL20160516083010405/16/16 08:30:31  5-MIN KAVL 161330Z 35005KT 10SM CLR 12/01 A3027 1850 48 1900 360/05 RMK AO2 T01170011
03812KAVL AVL20160516083510405/16/16 08:35:31  5-MIN KAVL 161335Z 34006KT 10SM CLR 12/02 A3028 1840 48 2000 340/06 RMK AO2 T01220017
03812KAVL AVL20160516084010405/16/16 08:40:31  5-MIN KAVL 161340Z 35006KT 10SM CLR 13/02 A3028 1840 46 2000 360/06 RMK AO2 T01280017
03812KAVL AVL20160516084510405/16/16 08:45:31  5-MIN KAVL 161345Z VRB04KT 10SM CLR 13/02 A3028 1840 46 2000 VRB/04 RMK AO2 T01280017
03812KAVL AVL20160516085011105/16/16 08:50:31  5-MIN KAVL 161350Z 00000KT 10SM CLR 13/02 A3027 1840 48 2000 000/00 RMK AO2 SLP243 T01280022
03812KAVL AVL20160516085510405/16/16 08:55:31  5-MIN KAVL 161355Z VRB04KT 10SM CLR 13/02 A3027 1840 48 2000 VRB/04 RMK AO2 T01280022
03812KAVL AVL20160516090010405/16/16 09:00:31  5-MIN KAVL 161400Z 31003KT 10SM CLR 13/02 A3027 1840 45 2100 320/03 RMK AO2 T01330017
03812KAVL AVL20160516090510405/16/16 09:05:31  5-MIN KAVL 161405Z VRB03KT 10SM CLR 13/02 A3027 1840 45 2100 VRB/03 RMK AO2 T01330017
03812KAVL AVL20160516091010405/16/16 09:10:31  5-MIN KAVL 161410Z 00000KT 10SM CLR 13/01 A3027 1850 43 2100 000/00 RMK AO2 T01330011
03812KAVL AVL20160516091510405/16/16 09:15:31  5-MIN KAVL 161415Z 00000KT 10SM CLR 14/02 A3027 1850 43 2200 000/00 RMK AO2 T01390017
03812KAVL AVL20160516092010405/16/16 09:20:31  5-MIN KAVL 161420Z VRB03KT 10SM CLR 14/02 A3027 1850 41 2300 VRB/03 RMK AO2 T01440017
03812KAVL AVL20160516092510405/16/16 09:25:31  5-MIN KAVL 161425Z 18006KT 10SM CLR 14/02 A3026 1850 43 2200 180/06 RMK AO2 T01390017
03812KAVL AVL20160516093010405/16/16 09:30:31  5-MIN KAVL 161430Z VRB03KT 10SM CLR 14/02 A3026 1850 43 2200 VRB/03 RMK AO2 T01390017
03812KAVL AVL20160516093510405/16/16 09:35:31  5-MIN KAVL 161435Z VRB03KT 10SM CLR 14/02 A3026 1850 43 2300 VRB/03 RMK AO2 T01440022
03812KAVL AVL20160516094010405/16/16 09:40:31  5-MIN KAVL 161440Z 17008KT 10SM CLR 14/02 A3026 1850 43 2300 170/08 RMK AO2 T01440022
03812KAVL AVL20160516094510405/16/16 09:45:31  5-MIN KAVL 161445Z 00000KT 10SM CLR 14/02 A3026 1850 43 2200 000/00 RMK AO2 T01390017
03812KAVL AVL20160516095011705/16/16 09:50:31  5-MIN KAVL 161450Z 19006KT 10SM CLR 15/03 A3026 1850 43 2300 200/06 RMK AO2 SLP238 T01500028 53019
03812KAVL AVL20160516095510405/16/16 09:55:31  5-MIN KAVL 161455Z VRB03KT 10SM CLR 14/02 A3026 1850 43 2300 VRB/03 RMK AO2 T01440022
03812KAVL AVL20160516100009405/16/16 10:00:31  5-MIN KAVL 161500Z 10SM CLR 15/02 A3026 1850 42 2300 M /M RMK AO2 T01500022
03812KAVL AVL20160516100510405/16/16 10:05:31  5-MIN KAVL 161505Z 18006KT 10SM CLR 15/02 A3026 1850 42 2300 190/06 RMK AO2 T01500022
03812KAVL AVL20160516101010405/16/16 10:10:31  5-MIN KAVL 161510Z 17008KT 10SM CLR 15/02 A3026 1860 42 2300 170/08 RMK AO2 T01500022
03812KAVL AVL20160516101510405/16/16 10:15:31  5-MIN KAVL 161515Z 19006KT 10SM CLR 16/02 A3026 1850 40 2400 200/06 RMK AO2 T01560022
03812KAVL AVL20160516102010405/16/16 10:20:31  5-MIN KAVL 161520Z 18007KT 10SM CLR 16/02 A3026 1860 40 2400 180/07 RMK AO2 T01560022
03812KAVL AVL20160516102510405/16/16 10:25:31  5-MIN KAVL 161525Z 19006KT 10SM CLR 16/02 A3026 1860 40 2400 200/06 RMK AO2 T01560022
03812KAVL AVL20160516103010405/16/16 10:30:31  5-MIN KAVL 161530Z VRB05KT 10SM CLR 16/02 A3026 1860 40 2400 VRB/05 RMK AO2 T01560022
03812KAVL AVL20160516103510405/16/16 10:35:31  5-MIN KAVL 161535Z VRB04KT 10SM CLR 16/02 A3026 1860 39 2400 VRB/04 RMK AO2 T01560017
03812KAVL AVL20160516104010405/16/16 10:40:31  5-MIN KAVL 161540Z 17006KT 10SM CLR 16/02 A3026 1860 40 2400 170/06 RMK AO2 T01560022
03812KAVL AVL20160516104510405/16/16 10:45:31  5-MIN KAVL 161545Z 15008KT 10SM CLR 16/02 A3026 1860 39 2400 150/08 RMK AO2 T01560017
03812KAVL AVL20160516105011105/16/16 10:50:31  5-MIN KAVL 161550Z VRB06KT 10SM CLR 16/02 A3026 1860 39 2400 VRB/06 RMK AO2 SLP236 T01560017
03812KAVL AVL20160516105510405/16/16 10:55:31  5-MIN KAVL 161555Z 14006KT 10SM CLR 16/02 A3026 1860 37 2500 150/06 RMK AO2 T01610017
03812KAVL AVL20160516110010405/16/16 11:00:31  5-MIN KAVL 161600Z VRB03KT 10SM CLR 16/02 A3026 1860 39 2500 VRB/03 RMK AO2 T01610022
03812KAVL AVL20160516110510405/16/16 11:05:31  5-MIN KAVL 161605Z 16008KT 10SM CLR 17/02 A3026 1860 37 2500 160/08 RMK AO2 T01670022
03812KAVL AVL20160516111010705/16/16 11:10:31  5-MIN KAVL 161610Z VRB05KT 10SM FEW110 16/02 A3026 1860 37 2500 VRB/05 RMK AO2 T01610017
03812KAVL AVL20160516111510705/16/16 11:15:31  5-MIN KAVL 161615Z 16006KT 10SM SCT110 16/02 A3026 1860 37 2500 170/06 RMK AO2 T01610017
03812KAVL AVL20160516112011305/16/16 11:20:31  5-MIN KAVL 161620Z 16010G14KT 10SM SCT110 17/02 A3025 1860 37 2500 160/10G14 RMK AO2 T01670022
03812KAVL AVL20160516112511305/16/16 11:25:31  5-MIN KAVL 161625Z VRB04G14KT 10SM FEW110 17/02 A3025 1860 37 2500 VRB/04G14 RMK AO2 T01670022
03812KAVL AVL20160516113010705/16/16 11:30:31  5-MIN KAVL 161630Z VRB04KT 10SM FEW110 17/03 A3025 1860 37 2600 VRB/04 RMK AO2 T01720028
03812KAVL AVL20160516113512305/16/16 11:35:31  5-MIN KAVL 161635Z 12007KT 090V150 10SM FEW110 18/03 A3025 1870 36 2700 130/07 100V160 RMK AO2 T01780028
03812KAVL AVL20160516114010705/16/16 11:40:31  5-MIN KAVL 161640Z VRB04KT 10SM FEW110 17/03 A3025 1870 37 2600 VRB/04 RMK AO2 T01720028
03812KAVL AVL20160516114510705/16/16 11:45:31  5-MIN KAVL 161645Z VRB05KT 10SM FEW110 18/03 A3024 1870 38 2700 VRB/05 RMK AO2 T01780033
03812KAVL AVL20160516115012105/16/16 11:50:31  5-MIN KAVL 161650Z VRB06KT 10SM FEW090 SCT110 18/03 A3024 1870 38 2700 VRB/06 RMK AO2 SLP230 T01780033
03812KAVL AVL20160516115511405/16/16 11:55:31  5-MIN KAVL 161655Z 11007KT 10SM FEW090 SCT100 18/03 A3024 1870 36 2700 110/07 RMK AO2 T01830033
03812KAVL AVL20160516120010705/16/16 12:00:31  5-MIN KAVL 161700Z 12008KT 10SM SCT100 18/03 A3024 1870 38 2700 120/08 RMK AO2 T01780033
03812KAVL AVL20160516120512305/16/16 12:05:31  5-MIN KAVL 161705Z 13007KT 100V160 10SM SCT110 18/03 A3024 1870 38 2700 130/07 110V170 RMK AO2 T01780033
03812KAVL AVL20160516121011305/16/16 12:10:31  5-MIN KAVL 161710Z 11006G15KT 10SM SCT110 18/03 A3024 1880 38 2700 120/06G15 RMK AO2 T01780033
03812KAVL AVL20160516121511305/16/16 12:15:31  5-MIN KAVL 161715Z 15007G15KT 10SM BKN110 18/03 A3024 1880 36 2700 160/07G15 RMK AO2 T01780028
03812KAVL AVL20160516122010705/16/16 12:20:31  5-MIN KAVL 161720Z 14008KT 10SM BKN110 18/03 A3024 1880 36 2700 150/08 RMK AO2 T01830033
03812KAVL AVL20160516122510705/16/16 12:25:31  5-MIN KAVL 161725Z 12006KT 10SM BKN110 18/03 A3023 1880 38 2700 120/06 RMK AO2 T01780033
03812KAVL AVL20160516123010705/16/16 12:30:31  5-MIN KAVL 161730Z 13009KT 10SM OVC110 18/03 A3023 1880 38 2700 140/09 RMK AO2 T01780033
03812KAVL AVL20160516123512305/16/16 12:35:31  5-MIN KAVL 161735Z 13008KT 070V150 10SM OVC110 18/03 A3023 1880 38 2700 130/08 080V160 RMK AO2 T01780033
03812KAVL AVL20160516124010705/16/16 12:40:31  5-MIN KAVL 161740Z 13007KT 10SM OVC110 18/03 A3023 1880 36 2700 140/07 RMK AO2 T01780028
03812KAVL AVL20160516124512305/16/16 12:45:31  5-MIN KAVL 161745Z 10007KT 070V130 10SM OVC110 17/03 A3023 1880 37 2600 110/07 080V140 RMK AO2 T01720028
03812KAVL AVL20160516125013205/16/16 12:50:31  5-MIN KAVL 161750Z VRB04KT 10SM OVC110 18/03 A3023 1880 36 2700 VRB/04 RMK AO2 SLP228 T01780028 10183 20083 50001
03812KAVL AVL20160516125511305/16/16 12:55:31  5-MIN KAVL 161755Z 16011G14KT 10SM OVC110 18/03 A3023 1880 36 2700 170/11G14 RMK AO2 T01780028
03812KAVL AVL20160516130011305/16/16 13:00:31  5-MIN KAVL 161800Z 14009G14KT 10SM OVC110 17/03 A3023 1880 37 2600 150/09G14 RMK AO2 T01720028
03812KAVL AVL20160516130510705/16/16 13:05:31  5-MIN KAVL 161805Z 15009KT 10SM OVC110 18/03 A3023 1890 36 2700 150/09 RMK AO2 T01780028
03812KAVL AVL20160516131010705/16/16 13:10:31  5-MIN KAVL 161810Z 13007KT 10SM OVC110 18/03 A3022 1890 38 2700 140/07 RMK AO2 T01780033
03812KAVL AVL20160516131510705/16/16 13:15:31  5-MIN KAVL 161815Z 11008KT 10SM OVC110 18/03 A3022 1890 36 2700 120/08 RMK AO2 T01780028
03812KAVL AVL20160516132010705/16/16 13:20:31  5-MIN KAVL 161820Z VRB06KT 10SM OVC110 18/03 A3023 1890 38 2700 VRB/06 RMK AO2 T01780033
03812KAVL AVL20160516132512305/16/16 13:25:31  5-MIN KAVL 161825Z 10007KT 070V140 10SM OVC110 18/03 A3023 1890 38 2700 100/07 080V150 RMK AO2 T01780033
03812KAVL AVL20160516133012305/16/16 13:30:31  5-MIN KAVL 161830Z 13008KT 090V170 10SM OVC110 18/03 A3022 1890 38 2700 140/08 100V180 RMK AO2 T01780033
03812KAVL AVL20160516133510705/16/16 13:35:31  5-MIN KAVL 161835Z 10009KT 10SM OVC110 18/04 A3022 1890 38 2800 110/09 RMK AO2 T01830039
03812KAVL AVL20160516134011305/16/16 13:40:31  5-MIN KAVL 161840Z 11008G14KT 10SM OVC110 18/04 A3022 1890 39 2700 110/08G14 RMK AO2 T01780039
03812KAVL AVL20160516134511305/16/16 13:45:31  5-MIN KAVL 161845Z 11007G15KT 10SM OVC110 17/03 A3022 1890 39 2600 120/07G15 RMK AO2 T01720033
03812KAVL AVL20160516135012005/16/16 13:50:31  5-MIN KAVL 161850Z 12011G15KT 10SM OVC110 17/03 A3022 1890 39 2600 120/11G15 RMK AO2 SLP225 T01720033
03812KAVL AVL20160516135512305/16/16 13:55:31  5-MIN KAVL 161855Z 11008KT 070V140 10SM OVC110 18/04 A3022 1890 39 2700 120/08 080V150 RMK AO2 T01780039
03812KAVL AVL20160516140012905/16/16 14:00:31  5-MIN KAVL 161900Z 12007G14KT 080V150 10SM BKN110 18/04 A3022 1890 38 2800 120/07G14 090V160 RMK AO2 T01830039
03812KAVL AVL20160516140510705/16/16 14:05:31  5-MIN KAVL 161905Z 13008KT 10SM BKN110 18/04 A3022 1890 38 2800 130/08 RMK AO2 T01830039
03812KAVL AVL20160516141012305/16/16 14:10:31  5-MIN KAVL 161910Z 12009KT 080V160 10SM BKN110 18/04 A3022 1890 38 2800 130/09 090V170 RMK AO2 T01830039
03812KAVL AVL20160516141513405/16/16 14:15:31  5-MIN KAVL 161915Z AUTO 11009G18KT 070V140 10SM SCT110 18/04 A3022 1900 38 2800 110/09G18 080V150 RMK AO2 T01830039
03812KAVL AVL20160516142013405/16/16 14:20:31  5-MIN KAVL 161920Z AUTO 10008G18KT 080V140 10SM FEW110 18/03 A3022 1890 38 2700 110/08G18 090V150 RMK AO2 T01780033
03812KAVL AVL20160516142511805/16/16 14:25:31  5-MIN KAVL 161925Z AUTO 16010G15KT 10SM FEW110 18/04 A3021 1900 39 2700 160/10G15 RMK AO2 T01780039
03812KAVL AVL20160516143011805/16/16 14:30:31  5-MIN KAVL 161930Z AUTO 16009G15KT 10SM FEW110 18/03 A3022 1890 38 2700 170/09G15 RMK AO2 T01780033
03812KAVL AVL20160516143512005/16/16 14:35:31  5-MIN KAVL 161935Z 13007KT 070V150 10SM CLR 18/03 A3022 1890 38 2700 130/07 080V160 RMK AO2 T01780033
03812KAVL AVL20160516144011005/16/16 14:40:31  5-MIN KAVL 161940Z 13009G15KT 10SM CLR 18/04 A3022 1890 38 2800 140/09G15 RMK AO2 T01830039
03812KAVL AVL20160516144511005/16/16 14:45:31  5-MIN KAVL 161945Z 10007G15KT 10SM CLR 18/03 A3021 1900 38 2700 110/07G15 RMK AO2 T01780033
03812KAVL AVL20160516145011105/16/16 14:50:31  5-MIN KAVL 161950Z 16010KT 10SM CLR 18/03 A3021 1900 36 2800 160/10 RMK AO2 SLP221 T01830033
03812KAVL AVL20160516145511005/16/16 14:55:31  5-MIN KAVL 161955Z 14009G14KT 10SM CLR 18/04 A3021 1900 38 2800 140/09G14 RMK AO2 T01830039
03812KAVL AVL20160516150010405/16/16 15:00:31  5-MIN KAVL 162000Z 15009KT 10SM CLR 18/04 A3020 1910 39 2700 160/09 RMK AO2 T01780039
03812KAVL AVL20160516150510405/16/16 15:05:31  5-MIN KAVL 162005Z 14008KT 10SM CLR 18/04 A3020 1910 38 2800 150/08 RMK AO2 T01830039
03812KAVL AVL20160516151010405/16/16 15:10:31  5-MIN KAVL 162010Z 16011KT 10SM CLR 18/04 A3020 1910 38 2800 160/11 RMK AO2 T01830039
03812KAVL AVL20160516151510405/16/16 15:15:31  5-MIN KAVL 162015Z 16010KT 10SM CLR 19/04 A3020 1910 36 2800 170/10 RMK AO2 T01890039
03812KAVL AVL20160516152010405/16/16 15:20:31  5-MIN KAVL 162020Z 14009KT 10SM CLR 19/04 A3020 1910 38 2800 150/09 RMK AO2 T01890044
03812KAVL AVL20160516152511005/16/16 15:25:31  5-MIN KAVL 162025Z 14009G15KT 10SM CLR 18/04 A3020 1910 38 2800 150/09G15 RMK AO2 T01830039
03812KAVL AVL20160516153012605/16/16 15:30:31  5-MIN KAVL 162030Z 13009G15KT 100V170 10SM CLR 18/03 A3020 1910 36 2800 140/09G15 110V180 RMK AO2 T01830033
03812KAVL AVL20160516153510405/16/16 15:35:31  5-MIN KAVL 162035Z 16009KT 10SM CLR 19/04 A3020 1910 36 2800 160/09 RMK AO2 T01890039
03812KAVL AVL20160516154011005/16/16 15:40:31  5-MIN KAVL 162040Z 14012G18KT 10SM CLR 19/03 A3020 1910 35 2800 150/12G18 RMK AO2 T01890033
03812KAVL AVL20160516154511005/16/16 15:45:31  5-MIN KAVL 162045Z 14006G18KT 10SM CLR 18/03 A3019 1920 36 2800 140/06G18 RMK AO2 T01830033
03812KAVL AVL20160516155011705/16/16 15:50:31  5-MIN KAVL 162050Z 13007KT 10SM CLR 18/03 A3019 1920 36 2800 140/07 RMK AO2 SLP211 T01830033 58010
03812KAVL AVL20160516155512605/16/16 15:55:31  5-MIN KAVL 162055Z 14007G14KT 100V180 10SM CLR 19/04 A3018 1920 36 2900 150/07G14 110V190 RMK AO2 T01890039
03812KAVL AVL20160516160010405/16/16 16:00:31  5-MIN KAVL 162100Z VRB05KT 10SM CLR 19/04 A3018 1930 36 2900 VRB/05 RMK AO2 T01890039
03812KAVL AVL20160516160510405/16/16 16:05:31  5-MIN KAVL 162105Z VRB05KT 10SM CLR 19/04 A3018 1930 35 2900 VRB/05 RMK AO2 T01940039
03812KAVL AVL20160516161012005/16/16 16:10:31  5-MIN KAVL 162110Z 13007KT 100V160 10SM CLR 19/04 A3018 1930 36 2900 130/07 110V170 RMK AO2 T01890039
03812KAVL AVL20160516161510405/16/16 16:15:31  5-MIN KAVL 162115Z 11007KT 10SM CLR 19/04 A3018 1930 36 2900 110/07 RMK AO2 T01890039
03812KAVL AVL20160516162010405/16/16 16:20:31  5-MIN KAVL 162120Z VRB04KT 10SM CLR 19/03 A3018 1930 35 2900 VRB/04 RMK AO2 T01890033
03812KAVL AVL20160516162510405/16/16 16:25:31  5-MIN KAVL 162125Z VRB06KT 10SM CLR 19/04 A3018 1930 36 2900 VRB/06 RMK AO2 T01890039
03812KAVL AVL20160516163010405/16/16 16:30:31  5-MIN KAVL 162130Z 15007KT 10SM CLR 19/04 A3018 1930 36 2900 160/07 RMK AO2 T01890039
03812KAVL AVL20160516163512605/16/16 16:35:31  5-MIN KAVL 162135Z 14009G15KT 110V170 10SM CLR 19/04 A3018 1930 36 2900 140/09G15 120V180 RMK AO2 T01890039
03812KAVL AVL20160516164012605/16/16 16:40:31  5-MIN KAVL 162140Z 12008G15KT 080V160 10SM CLR 18/03 A3018 1930 36 2800 130/08G15 090V170 RMK AO2 T01830033
03812KAVL AVL20160516164510405/16/16 16:45:31  5-MIN KAVL 162145Z 12006KT 10SM CLR 19/04 A3018 1930 36 2900 120/06 RMK AO2 T01890039
03812KAVL AVL20160516165011105/16/16 16:50:31  5-MIN KAVL 162150Z 12007KT 10SM CLR 18/04 A3018 1930 38 2800 130/07 RMK AO2 SLP209 T01830039
03812KAVL AVL20160516165510405/16/16 16:55:31  5-MIN KAVL 162155Z 12008KT 10SM CLR 19/04 A3018 1930 36 2900 120/08 RMK AO2 T01890039
03812KAVL AVL20160516170010405/16/16 17:00:31  5-MIN KAVL 162200Z 12008KT 10SM CLR 19/04 A3018 1920 36 2900 120/08 RMK AO2 T01890039
03812KAVL AVL20160516170512005/16/16 17:05:31  5-MIN KAVL 162205Z 14008KT 110V170 10SM CLR 19/04 A3018 1920 36 2900 150/08 120V180 RMK AO2 T01890039
03812KAVL AVL20160516171011005/16/16 17:10:31  5-MIN KAVL 162210Z 13007G17KT 10SM CLR 19/04 A3019 1920 36 2900 140/07G17 RMK AO2 T01890039
03812KAVL AVL20160516171511005/16/16 17:15:31  5-MIN KAVL 162215Z 16009G17KT 10SM CLR 19/04 A3019 1920 36 2900 170/09G17 RMK AO2 T01890039
03812KAVL AVL20160516172010405/16/16 17:20:31  5-MIN KAVL 162220Z 11007KT 10SM CLR 19/04 A3019 1920 36 2900 120/07 RMK AO2 T01890039
03812KAVL AVL20160516172510405/16/16 17:25:31  5-MIN KAVL 162225Z 14006KT 10SM CLR 19/04 A3019 1920 36 2900 140/06 RMK AO2 T01890039
03812KAVL AVL20160516173010405/16/16 17:30:31  5-MIN KAVL 162230Z 16010KT 10SM CLR 19/04 A3019 1920 38 2900 160/10 RMK AO2 T01890044
03812KAVL AVL20160516173510405/16/16 17:35:31  5-MIN KAVL 162235Z VRB03KT 10SM CLR 19/04 A3019 1920 38 2900 VRB/03 RMK AO2 T01890044
03812KAVL AVL20160516174010405/16/16 17:40:31  5-MIN KAVL 162240Z VRB06KT 10SM CLR 19/04 A3019 1920 38 2900 VRB/06 RMK AO2 T01890044
03812KAVL AVL20160516174510405/16/16 17:45:31  5-MIN KAVL 162245Z 14007KT 10SM CLR 19/04 A3019 1920 38 2900 140/07 RMK AO2 T01890044
03812KAVL AVL20160516175011105/16/16 17:50:31  5-MIN KAVL 162250Z 13006KT 10SM CLR 19/04 A3019 1920 38 2900 140/06 RMK AO2 SLP212 T01890044
03812KAVL AVL20160516175510405/16/16 17:55:31  5-MIN KAVL 162255Z 14007KT 10SM CLR 19/04 A3019 1920 38 2900 150/07 RMK AO2 T01890044
03812KAVL AVL20160516180010405/16/16 18:00:31  5-MIN KAVL 162300Z 16009KT 10SM CLR 18/04 A3019 1920 39 2800 160/09 RMK AO2 T01830044
03812KAVL AVL20160516180510405/16/16 18:05:31  5-MIN KAVL 162305Z 14009KT 10SM CLR 18/04 A3019 1920 39 2800 150/09 RMK AO2 T01830044
03812KAVL AVL20160516181010405/16/16 18:10:31  5-MIN KAVL 162310Z 15008KT 10SM CLR 18/04 A3019 1920 38 2800 160/08 RMK AO2 T01830039
03812KAVL AVL20160516181510405/16/16 18:15:31  5-MIN KAVL 162315Z 15008KT 10SM CLR 18/04 A3020 1910 39 2800 160/08 RMK AO2 T01830044
03812KAVL AVL20160516182010405/16/16 18:20:31  5-MIN KAVL 162320Z 14007KT 10SM CLR 18/04 A3020 1910 39 2800 150/07 RMK AO2 T01830044
03812KAVL AVL20160516182510405/16/16 18:25:31  5-MIN KAVL 162325Z 15008KT 10SM CLR 18/04 A3020 1910 41 2700 160/08 RMK AO2 T01780044
03812KAVL AVL20160516183010405/16/16 18:30:31  5-MIN KAVL 162330Z 16009KT 10SM CLR 18/04 A3020 1910 39 2700 170/09 RMK AO2 T01780039
03812KAVL AVL20160516183510405/16/16 18:35:31  5-MIN KAVL 162335Z 16007KT 10SM CLR 18/04 A3020 1910 39 2700 160/07 RMK AO2 T01780039
03812KAVL AVL20160516184010705/16/16 18:40:31  5-MIN KAVL 162340Z 14006KT 10SM FEW070 18/04 A3020 1910 41 2700 150/06 RMK AO2 T01780044
03812KAVL AVL20160516184510705/16/16 18:45:31  5-MIN KAVL 162345Z 16008KT 10SM FEW070 18/04 A3020 1910 41 2700 170/08 RMK AO2 T01780044
03812KAVL AVL20160516185013205/16/16 18:50:31  5-MIN KAVL 162350Z 15006KT 10SM SCT070 18/04 A3020 1910 41 2700 150/06 RMK AO2 SLP215 T01780044 10194 20172 58016
03812KAVL AVL20160516185510705/16/16 18:55:31  5-MIN KAVL 162355Z 15006KT 10SM BKN070 18/04 A3020 1910 41 2700 160/06 RMK AO2 T01780044
03812KAVL AVL20160516190010705/16/16 19:00:31  5-MIN KAVL 170000Z 15006KT 10SM BKN070 18/04 A3020 1910 41 2700 160/06 RMK AO2 T01780044
03812KAVL AVL20160516190510705/16/16 19:05:31  5-MIN KAVL 170005Z 16006KT 10SM BKN070 18/04 A3020 1910 41 2700 160/06 RMK AO2 T01780044
03812KAVL AVL20160516191010705/16/16 19:10:31  5-MIN KAVL 170010Z 16006KT 10SM BKN070 18/04 A3020 1910 41 2700 160/06 RMK AO2 T01780044
03812KAVL AVL20160516191510705/16/16 19:15:31  5-MIN KAVL 170015Z 15005KT 10SM BKN070 17/05 A3020 1910 44 2600 150/05 RMK AO2 T01720050
03812KAVL AVL20160516192010705/16/16 19:20:31  5-MIN KAVL 170020Z 16007KT 10SM SCT070 17/05 A3020 1910 44 2600 160/07 RMK AO2 T01720050
03812KAVL AVL20160516192510705/16/16 19:25:31  5-MIN KAVL 170025Z 16005KT 10SM SCT070 17/05 A3020 1910 44 2600 170/05 RMK AO2 T01720050
03812KAVL AVL20160516193010705/16/16 19:30:31  5-MIN KAVL 170030Z 16004KT 10SM FEW070 17/05 A3020 1910 45 2600 160/04 RMK AO2 T01670050
03812KAVL AVL20160516193510405/16/16 19:35:31  5-MIN KAVL 170035Z 16004KT 10SM CLR 17/05 A3020 1910 45 2600 160/04 RMK AO2 T01670050
03812KAVL AVL20160516194010405/16/16 19:40:31  5-MIN KAVL 170040Z 15003KT 10SM CLR 17/06 A3020 1910 47 2600 160/03 RMK AO2 T01670056
03812KAVL AVL20160516194510405/16/16 19:45:31  5-MIN KAVL 170045Z 15003KT 10SM CLR 16/06 A3020 1910 49 2500 160/03 RMK AO2 T01610056
03812KAVL AVL20160516195011405/16/16 19:50:31  5-MIN KAVL 170050Z 16003KT 10SM FEW080 16/06 A3021 1900 49 2500 170/03 RMK AO2 SLP217 T01610056
03812KAVL AVL20160516195510705/16/16 19:55:31  5-MIN KAVL 170055Z 15003KT 10SM SCT080 16/06 A3021 1900 51 2500 150/03 RMK AO2 T01560056
03812KAVL AVL20160516200010705/16/16 20:00:31  5-MIN KAVL 170100Z 00000KT 10SM BKN080 16/06 A3021 1900 49 2500 000/00 RMK AO2 T01610056
03812KAVL AVL20160516200510705/16/16 20:05:31  5-MIN KAVL 170105Z 15003KT 10SM BKN080 16/06 A3021 1900 49 2500 150/03 RMK AO2 T01610056
03812KAVL AVL20160516201010705/16/16 20:10:31  5-MIN KAVL 170110Z 16003KT 10SM BKN080 16/06 A3021 1900 51 2400 160/03 RMK AO2 T01560056
03812KAVL AVL20160516201510705/16/16 20:15:31  5-MIN KAVL 170115Z 13004KT 10SM OVC080 16/06 A3021 1900 51 2400 140/04 RMK AO2 T01560056
03812KAVL AVL20160516202010705/16/16 20:20:31  5-MIN KAVL 170120Z 13003KT 10SM OVC080 16/06 A3021 1900 51 2400 140/03 RMK AO2 T01560056
03812KAVL AVL20160516202510705/16/16 20:25:31  5-MIN KAVL 170125Z 15003KT 10SM OVC080 16/06 A3021 1900 53 2400 160/03 RMK AO2 T01560061
03812KAVL AVL20160516203010705/16/16 20:30:31  5-MIN KAVL 170130Z 16004KT 10SM BKN080 15/06 A3021 1900 55 2400 160/04 RMK AO2 T01500061
03812KAVL AVL20160516203510705/16/16 20:35:31  5-MIN KAVL 170135Z 16005KT 10SM BKN080 15/06 A3021 1900 55 2400 170/05 RMK AO2 T01500061
03812KAVL AVL20160516204010705/16/16 20:40:31  5-MIN KAVL 170140Z 17005KT 10SM BKN080 14/06 A3022 1900 57 2300 170/05 RMK AO2 T01440061
03812KAVL AVL20160516204510705/16/16 20:45:31  5-MIN KAVL 170145Z 15004KT 10SM BKN080 14/06 A3022 1900 57 2300 160/04 RMK AO2 T01440061
03812KAVL AVL20160516205011405/16/16 20:50:31  5-MIN KAVL 170150Z 00000KT 10SM SCT080 15/06 A3022 1890 55 2400 000/00 RMK AO2 SLP221 T01500061
03812KAVL AVL20160516205510705/16/16 20:55:31  5-MIN KAVL 170155Z 16004KT 10SM FEW080 15/06 A3022 1890 55 2400 170/04 RMK AO2 T01500061
03812KAVL AVL20160516210010705/16/16 21:00:31  5-MIN KAVL 170200Z 19005KT 10SM FEW080 14/06 A3022 1890 57 2300 200/05 RMK AO2 T01440061
03812KAVL AVL20160516210510705/16/16 21:05:31  5-MIN KAVL 170205Z 19004KT 10SM FEW080 14/06 A3022 1890 57 2300 200/04 RMK AO2 T01440061
03812KAVL AVL20160516211010705/16/16 21:10:31  5-MIN KAVL 170210Z 18003KT 10SM FEW110 14/06 A3022 1890 57 2300 190/03 RMK AO2 T01440061
03812KAVL AVL20160516211510705/16/16 21:15:31  5-MIN KAVL 170215Z 18003KT 10SM FEW110 14/07 A3022 1890 59 2300 180/03 RMK AO2 T01440067
03812KAVL AVL20160516212010705/16/16 21:20:31  5-MIN KAVL 170220Z 00000KT 10SM SCT110 14/07 A3022 1890 59 2300 000/00 RMK AO2 T01440067
03812KAVL AVL20160516212510705/16/16 21:25:31  5-MIN KAVL 170225Z 14003KT 10SM SCT110 14/06 A3023 1890 57 2300 150/03 RMK AO2 T01440061
03812KAVL AVL20160516213010705/16/16 21:30:31  5-MIN KAVL 170230Z 14003KT 10SM BKN110 15/06 A3023 1890 55 2400 140/03 RMK AO2 T01500061
03812KAVL AVL20160516213510705/16/16 21:35:31  5-MIN KAVL 170235Z 00000KT 10SM SCT110 14/07 A3023 1890 59 2300 000/00 RMK AO2 T01440067
03812KAVL AVL20160516214011405/16/16 21:40:31  5-MIN KAVL 170240Z 00000KT 10SM FEW080 BKN110 14/07 A3023 1890 61 2200 000/00 RMK AO2 T01390067
03812KAVL AVL20160516214511405/16/16 21:45:31  5-MIN KAVL 170245Z 00000KT 10SM SCT080 BKN110 14/07 A3023 1880 59 2300 000/00 RMK AO2 T01440067
03812KAVL AVL20160516215013205/16/16 21:50:31  5-MIN KAVL 170250Z AUTO 17003KT 10SM BKN085 BKN110 14/07 A3023 1880 61 2200 180/03 RMK AO2 SLP224 T01390067 53005
03812KAVL AVL20160516215511905/16/16 21:55:31  5-MIN KAVL 170255Z AUTO 00000KT 10SM BKN085 BKN110 14/07 A3023 1880 61 2200 000/00 RMK AO2 T01390067
03812KAVL AVL20160516220011205/16/16 22:00:31  5-MIN KAVL 170300Z AUTO 16003KT 10SM BKN085 14/07 A3023 1880 61 2200 170/03 RMK AO2 T01390067
03812KAVL AVL20160516220511205/16/16 22:05:31  5-MIN KAVL 170305Z AUTO 00000KT 10SM OVC090 13/07 A3023 1880 66 2200 000/00 RMK AO2 T01330072
03812KAVL AVL20160516221011205/16/16 22:10:31  5-MIN KAVL 170310Z AUTO 00000KT 10SM OVC090 14/07 A3023 1890 64 2200 000/00 RMK AO2 T01390072
03812KAVL AVL20160516221511205/16/16 22:15:31  5-MIN KAVL 170315Z AUTO 11003KT 10SM OVC090 14/07 A3023 1890 61 2200 110/03 RMK AO2 T01390067
03812KAVL AVL20160516222011205/16/16 22:20:31  5-MIN KAVL 170320Z AUTO 00000KT 10SM OVC095 14/07 A3022 1890 59 2300 000/00 RMK AO2 T01440067
03812KAVL AVL20160516222511205/16/16 22:25:31  5-MIN KAVL 170325Z AUTO 00000KT 10SM OVC095 14/07 A3022 1890 61 2300 000/00 RMK AO2 T01440072
03812KAVL AVL20160516223011205/16/16 22:30:31  5-MIN KAVL 170330Z AUTO 00000KT 10SM OVC100 14/07 A3022 1890 59 2300 000/00 RMK AO2 T01440067
03812KAVL AVL20160516223511205/16/16 22:35:31  5-MIN KAVL 170335Z AUTO 00000KT 10SM OVC100 14/07 A3022 1890 61 2300 000/00 RMK AO2 T01440072
03812KAVL AVL20160516224011205/16/16 22:40:31  5-MIN KAVL 170340Z AUTO 00000KT 10SM OVC100 14/07 A3022 1890 61 2300 000/00 RMK AO2 T01440072
03812KAVL AVL20160516224511205/16/16 22:45:31  5-MIN KAVL 170345Z AUTO 00000KT 10SM OVC100 14/07 A3022 1890 59 2300 000/00 RMK AO2 T01440067
03812KAVL AVL20160516225011905/16/16 22:50:31  5-MIN KAVL 170350Z AUTO 00000KT 10SM OVC100 14/07 A3022 1890 59 2300 000/00 RMK AO2 SLP220 T01440067
03812KAVL AVL20160516225511205/16/16 22:55:31  5-MIN KAVL 170355Z AUTO 00000KT 10SM OVC100 14/07 A3022 1890 61 2300 000/00 RMK AO2 T01440072
03812KAVL AVL20160516230011205/16/16 23:00:31  5-MIN KAVL 170400Z AUTO 12003KT 10SM OVC100 14/07 A3022 1890 59 2300 120/03 RMK AO2 T01440067
03812KAVL AVL20160516230511205/16/16 23:05:31  5-MIN KAVL 170405Z AUTO 00000KT 10SM OVC100 14/07 A3022 1890 59 2300 000/00 RMK AO2 T01440067
03812KAVL AVL20160516231011205/16/16 23:10:31  5-MIN KAVL 170410Z AUTO 00000KT 10SM OVC100 14/07 A3022 1890 59 2300 000/00 RMK AO2 T01440067
03812KAVL AVL20160516231511205/16/16 23:15:31  5-MIN KAVL 170415Z AUTO 00000KT 10SM OVC100 14/07 A3022 1890 64 2200 000/00 RMK AO2 T01390072
03812KAVL AVL20160516232011205/16/16 23:20:31  5-MIN KAVL 170420Z AUTO 00000KT 10SM OVC100 14/08 A3022 1890 66 2200 000/00 RMK AO2 T01390078
03812KAVL AVL20160516232511205/16/16 23:25:31  5-MIN KAVL 170425Z AUTO 00000KT 10SM OVC100 13/08 A3022 1890 69 2200 000/00 RMK AO2 T01330078
03812KAVL AVL20160516233011205/16/16 23:30:31  5-MIN KAVL 170430Z AUTO 00000KT 10SM OVC110 13/08 A3022 1890 69 2200 000/00 RMK AO2 T01330078
03812KAVL AVL20160516233511205/16/16 23:35:31  5-MIN KAVL 170435Z AUTO 00000KT 10SM OVC100 13/08 A3022 1890 69 2200 000/00 RMK AO2 T01330078
03812KAVL AVL20160516234011205/16/16 23:40:31  5-MIN KAVL 170440Z AUTO 00000KT 10SM OVC100 13/08 A3022 1890 69 2200 000/00 RMK AO2 T01330078
03812KAVL AVL20160516234511205/16/16 23:45:31  5-MIN KAVL 170445Z AUTO 17003KT 10SM OVC100 13/08 A3022 1900 69 2200 180/03 RMK AO2 T01330078
03812KAVL AVL20160516235012905/16/16 23:50:31  5-MIN KAVL 170450Z AUTO 15004KT 10SM OVC100 13/08 A3022 1890 71 2100 160/04 RMK AO2 SLP218 T01280078 401940056
03812KAVL AVL20160516235511905/16/16 23:55:31  5-MIN KAVL 170455Z AUTO 15004KT 10SM SCT090 OVC110 13/08 A3022 1890 69 2200 160/04 RMK AO2 T01330078
03812KAVL AVL20160517000011905/17/16 00:00:31  5-MIN KAVL 170500Z AUTO 16004KT 10SM SCT090 OVC110 13/07 A3022 1890 66 2200 160/04 RMK AO2 T01330072
03812KAVL AVL20160517000511905/17/16 00:05:31  5-MIN KAVL 170505Z AUTO 13003KT 10SM SCT090 OVC110 13/07 A3022 1890 66 2200 140/03 RMK AO2 T01330072
03812KAVL AVL20160517001012605/17/16 00:10:31  5-MIN KAVL 170510Z AUTO 14003KT 10SM FEW055 SCT090 OVC110 13/07 A3022 1890 66 2200 150/03 RMK AO2 T01330072
03812KAVL AVL20160517001511905/17/16 00:15:31  5-MIN KAVL 170515Z AUTO 00000KT 10SM FEW055 OVC100 13/07 A3022 1890 66 2200 000/00 RMK AO2 T01330072
03812KAVL AVL20160517002011905/17/16 00:20:31  5-MIN KAVL 170520Z AUTO 13004KT 10SM FEW090 OVC110 13/07 A3022 1890 66 2200 140/04 RMK AO2 T01330072
03812KAVL AVL20160517002511905/17/16 00:25:31  5-MIN KAVL 170525Z AUTO 14004KT 10SM FEW090 OVC110 13/07 A3022 1890 66 2200 140/04 RMK AO2 T01330072
03812KAVL AVL20160517003011905/17/16 00:30:31  5-MIN KAVL 170530Z AUTO 15004KT 10SM FEW090 OVC110 13/07 A3021 1900 66 2200 160/04 RMK AO2 T01330072
03812KAVL AVL20160517003511905/17/16 00:35:31  5-MIN KAVL 170535Z AUTO 15004KT 10SM FEW090 OVC110 13/07 A3021 1900 66 2200 160/04 RMK AO2 T01330072
03812KAVL AVL20160517004011205/17/16 00:40:31  5-MIN KAVL 170540Z AUTO 16004KT 10SM OVC110 13/07 A3021 1900 66 2200 170/04 RMK AO2 T01330072
03812KAVL AVL20160517004511205/17/16 00:45:31  5-MIN KAVL 170545Z AUTO 16004KT 10SM OVC110 13/08 A3021 1900 69 2200 170/04 RMK AO2 T01330078
03812KAVL AVL20160517005013705/17/16 00:50:31  5-MIN KAVL 170550Z AUTO 17005KT 10SM OVC110 13/08 A3021 1900 69 2200 170/05 RMK AO2 SLP216 T01330078 10178 20128 53009
03812KAVL AVL20160517005511205/17/16 00:55:31  5-MIN KAVL 170555Z AUTO 16004KT 10SM OVC110 13/08 A3021 1900 69 2200 160/04 RMK AO2 T01330078
03812KAVL AVL20160517010011205/17/16 01:00:31  5-MIN KAVL 170600Z AUTO 16005KT 10SM OVC110 13/08 A3021 1900 69 2200 170/05 RMK AO2 T01330078
03812KAVL AVL20160517010511205/17/16 01:05:31  5-MIN KAVL 170605Z AUTO 16005KT 10SM OVC110 13/08 A3020 1910 69 2200 170/05 RMK AO2 T01330078
03812KAVL AVL20160517011011205/17/16 01:10:31  5-MIN KAVL 170610Z AUTO 16004KT 10SM OVC110 13/08 A3020 1910 69 2200 170/04 RMK AO2 T01330078
03812KAVL AVL20160517011511205/17/16 01:15:31  5-MIN KAVL 170615Z AUTO 17005KT 10SM OVC110 13/08 A3020 1910 71 2100 170/05 RMK AO2 T01280078
03812KAVL AVL20160517012011205/17/16 01:20:31  5-MIN KAVL 170620Z AUTO 17005KT 10SM OVC110 13/08 A3020 1910 74 2100 180/05 RMK AO2 T01280083
03812KAVL AVL20160517012511905/17/16 01:25:31  5-MIN KAVL 170625Z AUTO 18003KT 10SM FEW050 OVC110 13/08 A3020 1910 74 2100 180/03 RMK AO2 T01280083
03812KAVL AVL20160517013011905/17/16 01:30:31  5-MIN KAVL 170630Z AUTO 18003KT 10SM SCT055 OVC110 13/08 A3020 1910 74 2100 180/03 RMK AO2 T01280083
03812KAVL AVL20160517013511905/17/16 01:35:31  5-MIN KAVL 170635Z AUTO 17003KT 10SM BKN055 OVC110 13/08 A3020 1910 74 2100 170/03 RMK AO2 T01280083
03812KAVL AVL20160517014012605/17/16 01:40:31  5-MIN KAVL 170640Z AUTO 15003KT 10SM FEW030 BKN055 OVC110 13/08 A3020 1910 71 2200 160/03 RMK AO2 T01330083
03812KAVL AVL20160517014512605/17/16 01:45:31  5-MIN KAVL 170645Z AUTO 15003KT 10SM SCT030 BKN055 OVC110 13/08 A3020 1910 69 2200 150/03 RMK AO2 T01330078
03812KAVL AVL20160517015012605/17/16 01:50:31  5-MIN KAVL 170650Z AUTO 15004KT 10SM BKN030 OVC055 13/08 A3020 1910 69 2200 160/04 RMK AO2 SLP211 T01330078
03812KAVL AVL20160517015511905/17/16 01:55:31  5-MIN KAVL 170655Z AUTO 16003KT 10SM BKN028 OVC055 14/08 A3020 1910 66 2300 160/03 RMK AO2 T01390078
03812KAVL AVL20160517020011905/17/16 02:00:31  5-MIN KAVL 170700Z AUTO 16004KT 10SM BKN028 OVC055 13/08 A3020 1910 69 2200 170/04 RMK AO2 T01330078
03812KAVL AVL20160517020511205/17/16 02:05:31  5-MIN KAVL 170705Z AUTO 15004KT 10SM OVC028 13/08 A3020 1910 69 2200 160/04 RMK AO2 T01330078
03812KAVL AVL20160517021011905/17/16 02:10:31  5-MIN KAVL 170710Z AUTO 15004KT 10SM BKN028 OVC110 13/08 A3020 1910 69 2200 160/04 RMK AO2 T01330078
03812KAVL AVL20160517021512605/17/16 02:15:31  5-MIN KAVL 170715Z AUTO 15004KT 10SM BKN028 BKN055 OVC110 14/07 A3019 1920 64 2300 160/04 RMK AO2 T01390072
03812KAVL AVL20160517022012605/17/16 02:20:31  5-MIN KAVL 170720Z AUTO 15004KT 10SM BKN027 BKN055 OVC100 14/07 A3019 1910 64 2300 150/04 RMK AO2 T01390072
03812KAVL AVL20160517022511905/17/16 02:25:31  5-MIN KAVL 170725Z AUTO 15004KT 10SM BKN027 OVC100 14/07 A3019 1920 64 2300 160/04 RMK AO2 T01390072
03812KAVL AVL20160517023012605/17/16 02:30:31  5-MIN KAVL 170730Z AUTO 16003KT 10SM FEW021 BKN025 OVC100 14/08 A3019 1920 66 2300 170/03 RMK AO2 T01390078
03812KAVL AVL20160517023512605/17/16 02:35:31  5-MIN KAVL 170735Z AUTO 16004KT 10SM BKN021 BKN026 OVC100 13/08 A3019 1920 69 2200 170/04 RMK AO2 T01330078
03812KAVL AVL20160517024012605/17/16 02:40:31  5-MIN KAVL 170740Z AUTO 15004KT 10SM BKN021 BKN025 OVC100 13/08 A3019 1920 69 2200 160/04 RMK AO2 T01330078
03812KAVL AVL20160517024511905/17/16 02:45:31  5-MIN KAVL 170745Z AUTO 15004KT 10SM BKN020 OVC025 14/08 A3019 1920 66 2300 160/04 RMK AO2 T01390078
03812KAVL AVL20160517025012605/17/16 02:50:31  5-MIN KAVL 170750Z AUTO 15005KT 10SM BKN020 OVC027 14/08 A3019 1920 66 2300 150/05 RMK AO2 SLP207 T01390078
03812KAVL AVL20160517025512905/17/16 02:55:31  5-MIN KAVL 170755Z AUTO 16004KT 10SM -RA BKN020 OVC027 14/08 A3019 1920 66 2300 160/04 RMK AO2 P0000 T01390078
03812KAVL AVL20160517030012205/17/16 03:00:31  5-MIN KAVL 170800Z AUTO 14005KT 10SM -RA OVC020 13/08 A3019 1920 69 2200 150/05 RMK AO2 P0000 T01330078
03812KAVL AVL20160517030512205/17/16 03:05:31  5-MIN KAVL 170805Z AUTO 15004KT 10SM -RA OVC020 13/08 A3019 1920 69 2200 150/04 RMK AO2 P0000 T01330078
03812KAVL AVL20160517031012205/17/16 03:10:31  5-MIN KAVL 170810Z AUTO 13003KT 10SM -RA OVC020 13/08 A3019 1920 71 2200 140/03 RMK AO2 P0000 T01330083
03812KAVL AVL20160517031512405/17/16 03:15:31  5-MIN KAVL 170815Z AUTO 15004KT 10SM OVC020 13/08 A3019 1920 71 2200 150/04 RMK AO2 RAE15 P0000 T01330083
03812KAVL AVL20160517032012405/17/16 03:20:31  5-MIN KAVL 170820Z AUTO 16003KT 10SM OVC020 14/08 A3019 1920 66 2300 160/03 RMK AO2 RAE15 P0000 T01390078
03812KAVL AVL20160517032512405/17/16 03:25:31  5-MIN KAVL 170825Z AUTO 18003KT 10SM OVC018 14/08 A3019 1920 66 2300 190/03 RMK AO2 RAE15 P0000 T01390078
03812KAVL AVL20160517033012405/17/16 03:30:31  5-MIN KAVL 170830Z AUTO 19003KT 10SM OVC018 13/08 A3019 1920 71 2200 200/03 RMK AO2 RAE15 P0000 T01330083
03812KAVL AVL20160517033512405/17/16 03:35:31  5-MIN KAVL 170835Z AUTO 17003KT 10SM OVC018 13/09 A3019 1920 74 2200 170/03 RMK AO2 RAE15 P0000 T01330089
03812KAVL AVL20160517034012405/17/16 03:40:31  5-MIN KAVL 170840Z AUTO 15003KT 10SM OVC017 13/09 A3019 1920 74 2200 150/03 RMK AO2 RAE15 P0000 T01330089
03812KAVL AVL20160517034512405/17/16 03:45:31  5-MIN KAVL 170845Z AUTO 14003KT 10SM OVC017 13/08 A3019 1920 71 2200 140/03 RMK AO2 RAE15 P0000 T01330083
03812KAVL AVL20160517035014305/17/16 03:50:31  5-MIN KAVL 170850Z AUTO 00000KT 10SM OVC017 13/08 A3019 1920 71 2200 000/00 RMK AO2 RAE15 SLP207 P0000 60000 T01330083 58007
03812KAVL AVL20160517035511205/17/16 03:55:31  5-MIN KAVL 170855Z AUTO 00000KT 10SM OVC017 13/08 A3019 1920 71 2200 000/00 RMK AO2 T01330083
03812KAVL AVL20160517040012805/17/16 04:00:31  5-MIN KAVL 170900Z AUTO 23004KT 10SM -RA OVC018 13/08 A3019 1920 71 2200 230/04 RMK AO2 RAB00 P0000 T01330083
03812KAVL AVL20160517040512805/17/16 04:05:31  5-MIN KAVL 170905Z AUTO 24003KT 10SM -RA OVC018 13/09 A3019 1920 77 2100 240/03 RMK AO2 RAB00 P0000 T01280089
03812KAVL AVL20160517041012805/17/16 04:10:31  5-MIN KAVL 170910Z AUTO 19003KT 10SM -RA OVC018 13/09 A3019 1920 80 2100 200/03 RMK AO2 RAB00 P0000 T01280094
03812KAVL AVL20160517041512705/17/16 04:15:31  5-MIN KAVL 170915Z AUTO 16003KT 10SM OVC019 13/09 A3019 1920 74 2200 160/03 RMK AO2 RAB00E14 P0000 T01330089
03812KAVL AVL20160517042012705/17/16 04:20:31  5-MIN KAVL 170920Z AUTO 00000KT 10SM OVC019 13/09 A3019 1920 74 2200 000/00 RMK AO2 RAB00E14 P0000 T01330089
03812KAVL AVL20160517042512705/17/16 04:25:31  5-MIN KAVL 170925Z AUTO 00000KT 10SM OVC019 13/09 A3019 1920 77 2200 000/00 RMK AO2 RAB00E14 P0000 T01330094
03812KAVL AVL20160517043012705/17/16 04:30:31  5-MIN KAVL 170930Z AUTO 00000KT 10SM OVC019 13/09 A3019 1920 77 2200 000/00 RMK AO2 RAB00E14 P0000 T01330094
03812KAVL AVL20160517043512705/17/16 04:35:31  5-MIN KAVL 170935Z AUTO 00000KT 10SM OVC019 13/09 A3019 1920 77 2200 000/00 RMK AO2 RAB00E14 P0000 T01330094
03812KAVL AVL20160517044013405/17/16 04:40:31  5-MIN KAVL 170940Z AUTO 00000KT 10SM -RA OVC019 13/09 A3019 1920 77 2200 000/00 RMK AO2 RAB00E14B40 P0000 T01330094
03812KAVL AVL20160517044513405/17/16 04:45:31  5-MIN KAVL 170945Z AUTO 00000KT 10SM -RA OVC019 13/09 A3019 1920 77 2200 000/00 RMK AO2 RAB00E14B40 P0000 T01330094
03812KAVL AVL20160517045014105/17/16 04:50:31  5-MIN KAVL 170950Z AUTO 00000KT 10SM -RA OVC019 13/09 A3019 1920 77 2200 000/00 RMK AO2 RAB00E14B40 SLP208 P0000 T01330094
03812KAVL AVL20160517045512205/17/16 04:55:31  5-MIN KAVL 170955Z AUTO 15003KT 10SM -RA OVC019 13/09 A3019 1920 77 2200 150/03 RMK AO2 P0000 T01330094
03812KAVL AVL20160517050012905/17/16 05:00:31  5-MIN KAVL 171000Z AUTO 15004KT 10SM -RA BKN018 OVC085 13/09 A3019 1920 77 2200 150/04 RMK AO2 P0000 T01330094
03812KAVL AVL20160517050512905/17/16 05:05:31  5-MIN KAVL 171005Z AUTO 16005KT 10SM -RA BKN018 OVC085 13/10 A3018 1920 83 2100 170/05 RMK AO2 P0000 T01280100
03812KAVL AVL20160517051013605/17/16 05:10:31  5-MIN KAVL 171010Z AUTO 16006KT 10SM -RA BKN018 BKN055 OVC085 13/10 A3019 1920 83 2100 170/06 RMK AO2 P0000 T01280100
03812KAVL AVL20160517051513105/17/16 05:15:31  5-MIN KAVL 171015Z 14006KT 10SM -RA BKN019 BKN055 OVC090 13/10 A3018 1930 83 2200 150/06 RMK AO2 P0000 T01280100
03812KAVL AVL20160517052013105/17/16 05:20:31  5-MIN KAVL 171020Z 14003KT 10SM -RA SCT019 SCT055 OVC090 13/10 A3018 1930 83 2200 150/03 RMK AO2 P0000 T01280100
03812KAVL AVL20160517052513105/17/16 05:25:31  5-MIN KAVL 171025Z 15004KT 10SM -RA FEW019 FEW055 OVC090 13/11 A3018 1930 86 2200 150/04 RMK AO2 P0000 T01280106
03812KAVL AVL20160517053012405/17/16 05:30:31  5-MIN KAVL 171030Z 17005KT 10SM -RA SCT019 OVC090 13/11 A3018 1930 86 2200 170/05 RMK AO2 P0000 T01280106
03812KAVL AVL20160517053513105/17/16 05:35:31  5-MIN KAVL 171035Z 18005KT 10SM -RA SCT017 SCT050 OVC090 12/10 A3018 1920 86 2100 190/05 RMK AO2 P0000 T01220100
03812KAVL AVL20160517054012405/17/16 05:40:31  5-MIN KAVL 171040Z 20003KT 10SM -RA SCT017 OVC090 12/10 A3019 1920 86 2100 210/03 RMK AO2 P0000 T01220100
03812KAVL AVL20160517054512405/17/16 05:45:31  5-MIN KAVL 171045Z 00000KT 10SM -RA SCT015 OVC090 12/11 A3019 1920 89 2100 000/00 RMK AO2 P0000 T01220106
03812KAVL AVL20160517055011405/17/16 05:50:31  5-MIN KAVL 171050Z 00000KT 10SM -RA BKN015 OVC085 13/11 A3019 1920 86 2100 000/00 RMK AO2 P0000
03812KAVL AVL20160517055512405/17/16 05:55:31  5-MIN KAVL 171055Z 00000KT 10SM -RA BKN015 OVC085 13/10 A3019 1920 83 2100 000/00 RMK AO2 P0000 T01280100
03812KAVL AVL20160517060012405/17/16 06:00:31  5-MIN KAVL 171100Z 00000KT 10SM -RA BKN015 OVC085 13/11 A3019 1920 86 2100 000/00 RMK AO2 P0000 T01280106
03812KAVL AVL20160517060511705/17/16 06:05:31  5-MIN KAVL 171105Z 16003KT 10SM -RA OVC015 13/11 A3020 1910 86 2100 160/03 RMK AO2 P0000 T01280106
03812KAVL AVL20160517061011705/17/16 06:10:31  5-MIN KAVL 171110Z 16004KT 10SM -RA OVC014 13/11 A3020 1910 86 2100 170/04 RMK AO2 P0000 T01280106
03812KAVL AVL20160517061511705/17/16 06:15:31  5-MIN KAVL 171115Z 17005KT 10SM -RA OVC014 13/11 A3020 1910 86 2100 170/05 RMK AO2 P0000 T01280106
03812KAVL AVL20160517062011705/17/16 06:20:31  5-MIN KAVL 171120Z 18005KT 10SM -RA OVC015 13/11 A3021 1900 86 2100 180/05 RMK AO2 P0000 T01280106
03812KAVL AVL20160517062511705/17/16 06:25:31  5-MIN KAVL 171125Z 18005KT 10SM -RA OVC015 13/11 A3021 1900 89 2100 190/05 RMK AO2 P0000 T01280111
03812KAVL AVL20160517063012405/17/16 06:30:31  5-MIN KAVL 171130Z 16004KT 10SM -RA BKN015 OVC085 13/11 A3021 1900 86 2100 170/04 RMK AO2 P0000 T01280106
03812KAVL AVL20160517063513105/17/16 06:35:31  5-MIN KAVL 171135Z 16003KT 10SM -RA BKN015 BKN026 OVC085 13/11 A3021 1900 89 2100 170/03 RMK AO2 P0000 T01280111
03812KAVL AVL20160517064013105/17/16 06:40:31  5-MIN KAVL 171140Z 16003KT 10SM -RA SCT016 BKN028 OVC090 13/11 A3021 1900 89 2100 170/03 RMK AO2 P0000 T01280111
03812KAVL AVL20160517064513005/17/16 06:45:31  5-MIN KAVL 171145Z 14003KT 8SM -RA FEW016 SCT029 OVC080 13/11 A3021 1900 89 2100 150/03 RMK AO2 P0000 T01280111
03812KAVL AVL20160517065017005/17/16 06:50:31  5-MIN KAVL 171150Z 14003KT 5SM -RA BR FEW015 SCT065 OVC085 13/11 A3021 1900 89 2100 150/03 RMK AO2 SLP217 P0001 60001 70001 T01280111 10139 20122 56007
03812KAVL AVL20160517065512505/17/16 06:55:31  5-MIN KAVL 171155Z 14003KT 4SM RA BR BKN065 OVC085 13/11 A3021 1900 89 2100 150/03 RMK AO2 P0001 T01280111
03812KAVL AVL20160517070012505/17/16 07:00:31  5-MIN KAVL 171200Z 14004KT 3SM RA BR SCT060 OVC080 13/11 A3021 1900 89 2100 150/04 RMK AO2 P0002 T01280111
03812KAVL AVL20160517070512505/17/16 07:05:31  5-MIN KAVL 171205Z 12003KT 3SM RA BR BKN070 OVC085 13/11 A3021 1900 89 2100 120/03 RMK AO2 P0003 T01280111
03812KAVL AVL20160517071012605/17/16 07:10:31  5-MIN KAVL 171210Z VRB03KT 5SM -RA BR BKN070 OVC080 13/11 A3021 1900 89 2100 VRB/03 RMK AO2 P0004 T01280111
03812KAVL AVL20160517071512605/17/16 07:15:31  5-MIN KAVL 171215Z 15003KT 6SM -RA BR SCT065 OVC080 13/12 A3021 1900 93 2100 150/03 RMK AO2 P0004 T01280117
03812KAVL AVL20160517072012305/17/16 07:20:31  5-MIN KAVL 171220Z 17005KT 9SM -RA FEW060 OVC080 13/12 A3022 1900 89 2200 170/05 RMK AO2 P0004 T01330117
03812KAVL AVL20160517072511905/17/16 07:25:31  5-MIN KAVL 171225Z 17004KT 10SM OVC075 13/11 A3022 1890 86 2200 180/04 RMK AO2 RAE25 P0004 T01330111
03812KAVL AVL20160517073011705/17/16 07:30:31  5-MIN KAVL 171230Z 17004KT 10SM -RA OVC075 13/12 A3022 1890 89 2200 170/04 RMK AO2 P0004 T01330117
03812KAVL AVL20160517073511705/17/16 07:35:31  5-MIN KAVL 171235Z 19003KT 10SM -RA OVC070 13/11 A3022 1890 86 2200 190/03 RMK AO2 P0004 T01330111
03812KAVL AVL20160517074011705/17/16 07:40:31  5-MIN KAVL 171240Z 00000KT 10SM -RA OVC075 13/11 A3022 1890 86 2200 000/00 RMK AO2 P0004 T01330111
03812KAVL AVL20160517074511705/17/16 07:45:31  5-MIN KAVL 171245Z 00000KT 10SM -RA OVC075 13/11 A3022 1890 86 2200 000/00 RMK AO2 P0004 T01330111
03812KAVL AVL20160517075012405/17/16 07:50:31  5-MIN KAVL 171250Z 00000KT 10SM -RA OVC075 13/11 A3022 1900 86 2200 000/00 RMK AO2 SLP219 P0004 T01330111
03812KAVL AVL20160517075511705/17/16 07:55:31  5-MIN KAVL 171255Z 00000KT 10SM -RA OVC075 13/11 A3022 1900 86 2200 000/00 RMK AO2 P0000 T01330111
03812KAVL AVL20160517080011705/17/16 08:00:31  5-MIN KAVL 171300Z 00000KT 10SM -RA OVC075 13/11 A3022 1900 86 2200 000/00 RMK AO2 P0000 T01330111
03812KAVL AVL20160517080512405/17/16 08:05:31  5-MIN KAVL 171305Z 00000KT 10SM -RA BKN075 OVC090 13/11 A3022 1890 86 2200 000/00 RMK AO2 P0000 T01330111
03812KAVL AVL20160517081011705/17/16 08:10:31  5-MIN KAVL 171310Z 00000KT 10SM -RA OVC075 13/12 A3022 1890 89 2200 000/00 RMK AO2 P0000 T01330117
03812KAVL AVL20160517081511605/17/16 08:15:31  5-MIN KAVL 171315Z 00000KT 9SM -RA OVC075 14/12 A3022 1900 86 2200 000/00 RMK AO2 P0000 T01390117
03812KAVL AVL20160517082011605/17/16 08:20:31  5-MIN KAVL 171320Z 00000KT 7SM -RA OVC070 14/12 A3021 1900 86 2200 000/00 RMK AO2 P0001 T01390117
03812KAVL AVL20160517082511605/17/16 08:25:31  5-MIN KAVL 171325Z 00000KT 7SM -RA OVC070 14/12 A3021 1900 90 2200 000/00 RMK AO2 P0001 T01390122
03812KAVL AVL20160517083012305/17/16 08:30:31  5-MIN KAVL 171330Z 00000KT 7SM -RA BKN070 OVC085 14/12 A3022 1890 90 2200 000/00 RMK AO2 P0001 T01390122
03812KAVL AVL20160517083511905/17/16 08:35:31  5-MIN KAVL 171335Z 00000KT 6SM -RA BR OVC070 14/12 A3022 1890 90 2200 000/00 RMK AO2 P0002 T01390122
03812KAVL AVL20160517084011805/17/16 08:40:31  5-MIN KAVL 171340Z 00000KT 5SM RA BR OVC070 14/12 A3022 1890 86 2200 000/00 RMK AO2 P0002 T01390117
03812KAVL AVL20160517084511805/17/16 08:45:31  5-MIN KAVL 171345Z 00000KT 4SM RA BR OVC070 14/12 A3022 1900 90 2200 000/00 RMK AO2 P0003 T01390122
03812KAVL AVL20160517085013205/17/16 08:50:31  5-MIN KAVL 171350Z 00000KT 5SM RA BR BKN065 OVC080 14/12 A3022 1890 90 2200 000/00 RMK AO2 SLP220 P0004 T01390122
03812KAVL AVL20160517085511605/17/16 08:55:31  5-MIN KAVL 171355Z 20003KT 7SM -RA OVC065 14/12 A3022 1890 90 2200 210/03 RMK AO2 P0000 T01390122
03812KAVL AVL20160517090012405/17/16 09:00:31  5-MIN KAVL 171400Z 23003KT 10SM -RA BKN065 OVC080 14/12 A3023 1890 86 2300 240/03 RMK AO2 P0001 T01440122
03812KAVL AVL20160517090512405/17/16 09:05:31  5-MIN KAVL 171405Z 00000KT 10SM -RA BKN065 OVC080 14/12 A3022 1890 90 2200 000/00 RMK AO2 P0001 T01390122
03812KAVL AVL20160517091012405/17/16 09:10:31  5-MIN KAVL 171410Z 29003KT 10SM -RA BKN065 OVC080 14/12 A3023 1880 90 2200 300/03 RMK AO2 P0001 T01390122
03812KAVL AVL20160517091513005/17/16 09:15:31  5-MIN KAVL 171415Z 00000KT 8SM -RA FEW010 BKN065 OVC080 14/12 A3023 1880 90 2200 000/00 RMK AO2 P0001 T01390122
03812KAVL AVL20160517092013205/17/16 09:20:31  5-MIN KAVL 171420Z 00000KT 5SM RA BR FEW010 BKN065 OVC080 14/12 A3024 1880 90 2200 000/00 RMK AO2 P0001 T01390122
03812KAVL AVL20160517092513205/17/16 09:25:31  5-MIN KAVL 171425Z 00000KT 4SM RA BR FEW010 BKN065 OVC080 14/12 A3024 1870 90 2200 000/00 RMK AO2 P0002 T01390122
03812KAVL AVL20160517093013205/17/16 09:30:31  5-MIN KAVL 171430Z 00000KT 5SM RA BR FEW010 BKN065 OVC080 14/12 A3024 1870 90 2200 000/00 RMK AO2 P0003 T01390122
03812KAVL AVL20160517093513305/17/16 09:35:31  5-MIN KAVL 171435Z 00000KT 2SM -RA BR FEW010 SCT050 OVC065 14/12 A3024 1870 90 2200 000/00 RMK AO2 P0003 T01390122
03812KAVL AVL20160517094013305/17/16 09:40:31  5-MIN KAVL 171440Z 00000KT 2SM -RA BR FEW010 SCT050 OVC065 14/12 A3024 1870 86 2300 000/00 RMK AO2 P0004 T01440122
03812KAVL AVL20160517094513305/17/16 09:45:31  5-MIN KAVL 171445Z 00000KT 2SM -RA BR FEW010 BKN050 OVC070 14/13 A3024 1870 93 2200 000/00 RMK AO2 P0004 T01390128
03812KAVL AVL20160517095012305/17/16 09:50:31  5-MIN KAVL 171450Z 00000KT 2SM -RA BR FEW008 BKN050 OVC070 14/13 A3024 1880 90 2300 000/00 RMK AO2 P0004
03812KAVL AVL20160517095513305/17/16 09:55:31  5-MIN KAVL 171455Z 00000KT 6SM -RA BR FEW004 BKN050 OVC075 14/13 A3024 1880 90 2300 000/00 RMK AO2 P0000 T01440128
03812KAVL AVL20160517100013005/17/16 10:00:31  5-MIN KAVL 171500Z 00000KT 7SM -RA FEW004 BKN065 OVC080 14/13 A3023 1880 90 2300 000/00 RMK AO2 P0000 T01440128
03812KAVL AVL20160517100513305/17/16 10:05:31  5-MIN KAVL 171505Z 16003KT 2SM -RA BR FEW008 BKN070 OVC080 15/13 A3024 1880 86 2400 170/03 RMK AO2 P0000 T01500128
03812KAVL AVL20160517101013305/17/16 10:10:31  5-MIN KAVL 171510Z 17003KT 2SM -RA BR FEW007 BKN070 OVC080 15/13 A3024 1880 86 2400 170/03 RMK AO2 P0000 T01500128
03812KAVL AVL20160517101513305/17/16 10:15:31  5-MIN KAVL 171515Z 16003KT 2SM -RA BR SCT005 BKN065 OVC080 15/13 A3023 1880 90 2400 160/03 RMK AO2 P0000 T01500133
03812KAVL AVL20160517102013305/17/16 10:20:31  5-MIN KAVL 171520Z 17005KT 2SM -RA BR SCT007 BKN065 OVC080 15/13 A3023 1880 90 2400 180/05 RMK AO2 P0000 T01500133
03812KAVL AVL20160517102513305/17/16 10:25:31  5-MIN KAVL 171525Z 17004KT 2SM -RA BR FEW007 SCT055 OVC070 15/13 A3023 1880 90 2400 170/04 RMK AO2 P0001 T01500133
03812KAVL AVL20160517103013305/17/16 10:30:31  5-MIN KAVL 171530Z 15005KT 2SM -RA BR FEW007 SCT060 OVC075 16/13 A3023 1880 86 2400 150/05 RMK AO2 P0001 T01560133
03812KAVL AVL20160517103513305/17/16 10:35:31  5-MIN KAVL 171535Z 14006KT 2SM -RA BR SCT009 BKN070 OVC080 16/13 A3023 1880 86 2400 150/06 RMK AO2 P0001 T01560133
03812KAVL AVL20160517104013305/17/16 10:40:31  5-MIN KAVL 171540Z 14006KT 2SM -RA BR SCT009 SCT060 OVC075 16/13 A3023 1880 86 2400 150/06 RMK AO2 P0001 T01560133
03812KAVL AVL20160517104512605/17/16 10:45:31  5-MIN KAVL 171545Z 14003KT 2SM -RA BR SCT009 OVC075 16/13 A3023 1890 86 2400 150/03 RMK AO2 P0001 T01560133
03812KAVL AVL20160517105011305/17/16 10:50:31  5-MIN KAVL 171550Z VRB03KT 2SM -RA BKN009 OVC075 16/13 A3022 1890 83 2500 VRB/03 RMK AO2 P0001
03812KAVL AVL20160517105513105/17/16 10:55:31  5-MIN KAVL 171555Z VRB04KT 10SM -RA BKN009 BKN036 OVC075 16/14 A3022 1890 86 2500 VRB/04 RMK AO2 P0000 T01610139
03812KAVL AVL20160517110012805/17/16 11:00:31  5-MIN KAVL 171600Z VRB03KT 2SM HZ BKN009 BKN075 17/14 A3022 1890 83 2600 VRB/03 RMK AO2 RAE00 P0000 T01670139
03812KAVL AVL20160517110512805/17/16 11:05:31  5-MIN KAVL 171605Z 19005KT 2SM HZ BKN009 BKN075 17/14 A3022 1890 83 2600 190/05 RMK AO2 RAE00 P0000 T01670139
03812KAVL AVL20160517111013505/17/16 11:10:31  5-MIN KAVL 171610Z 18005KT 2SM HZ SCT009 BKN012 BKN075 17/13 A3021 1900 80 2600 190/05 RMK AO2 RAE00 P0000 T01670133
03812KAVL AVL20160517111512805/17/16 11:15:31  5-MIN KAVL 171615Z 19003KT 2SM HZ SCT009 SCT012 17/13 A3021 1900 80 2600 200/03 RMK AO2 RAE00 P0000 T01670133
03812KAVL AVL20160517112012805/17/16 11:20:31  5-MIN KAVL 171620Z 00000KT 2SM HZ FEW008 BKN012 17/13 A3021 1900 80 2600 000/00 RMK AO2 RAE00 P0000 T01670133
03812KAVL AVL20160517112512805/17/16 11:25:31  5-MIN KAVL 171625Z 15004KT 2SM HZ FEW008 BKN012 18/14 A3020 1910 78 2700 160/04 RMK AO2 RAE00 P0000 T01780139
03812KAVL AVL20160517113012105/17/16 11:30:31  5-MIN KAVL 171630Z 00000KT 2SM HZ BKN013 17/13 A3020 1910 78 2700 000/00 RMK AO2 RAE00 P0000 T01720133
03812KAVL AVL20160517113512105/17/16 11:35:31  5-MIN KAVL 171635Z 00000KT 2SM HZ SCT013 17/13 A3020 1910 78 2700 000/00 RMK AO2 RAE00 P0000 T01720133
03812KAVL AVL20160517114012105/17/16 11:40:31  5-MIN KAVL 171640Z 00000KT 2SM HZ BKN013 17/13 A3019 1920 75 2700 000/00 RMK AO2 RAE00 P0000 T01720128
03812KAVL AVL20160517114512105/17/16 11:45:31  5-MIN KAVL 171645Z 16005KT 2SM HZ BKN013 17/13 A3020 1910 78 2700 170/05 RMK AO2 RAE00 P0000 T01720133
03812KAVL AVL20160517115011105/17/16 11:50:31  5-MIN KAVL 171650Z VRB03KT 4SM HZ BKN013 17/13 A3019 1920 78 2700 VRB/03 RMK AO2 RAE00 P0000
03812KAVL AVL20160517115511405/17/16 11:55:31  5-MIN KAVL 171655Z VRB03KT 10SM BKN013 BKN100 18/13 A3019 1920 75 2700 VRB/03 RMK AO2 T01780133
03812KAVL AVL20160517120011405/17/16 12:00:31  5-MIN KAVL 171700Z 21003KT 10SM BKN015 BKN100 18/13 A3019 1920 72 2800 220/03 RMK AO2 T01830133
03812KAVL AVL20160517120510705/17/16 12:05:31  5-MIN KAVL 171705Z VRB04KT 10SM OVC015 18/13 A3019 1920 75 2700 VRB/04 RMK AO2 T01780133
03812KAVL AVL20160517121011405/17/16 12:10:31  5-MIN KAVL 171710Z 15003KT 10SM BKN015 OVC095 18/13 A3018 1930 75 2700 150/03 RMK AO2 T01780133
03812KAVL AVL20160517121511405/17/16 12:15:31  5-MIN KAVL 171715Z 00000KT 10SM BKN014 OVC090 18/13 A3018 1930 75 2700 000/00 RMK AO2 T01780133
03812KAVL AVL20160517122011405/17/16 12:20:31  5-MIN KAVL 171720Z 00000KT 10SM SCT014 OVC095 18/13 A3018 1930 70 2800 000/00 RMK AO2 T01830128
03812KAVL AVL20160517122511405/17/16 12:25:31  5-MIN KAVL 171725Z 00000KT 10SM SCT015 OVC095 18/13 A3018 1930 75 2700 000/00 RMK AO2 T01780133
03812KAVL AVL20160517123011405/17/16 12:30:31  5-MIN KAVL 171730Z 17004KT 10SM FEW015 OVC090 18/13 A3018 1930 72 2800 180/04 RMK AO2 T01830133
03812KAVL AVL20160517123510705/17/16 12:35:31  5-MIN KAVL 171735Z 16003KT 10SM OVC090 18/13 A3018 1930 72 2800 160/03 RMK AO2 T01830133
03812KAVL AVL20160517124010705/17/16 12:40:31  5-MIN KAVL 171740Z VRB03KT 10SM OVC090 18/13 A3017 1940 72 2800 VRB/03 RMK AO2 T01830133
03812KAVL AVL20160517124510705/17/16 12:45:31  5-MIN KAVL 171745Z 18005KT 10SM OVC090 18/13 A3017 1940 72 2800 180/05 RMK AO2 T01830133
03812KAVL AVL20160517125013805/17/16 12:50:31  5-MIN KAVL 171750Z VRB04KT 10SM OVC090 18/13 A3017 1940 70 2800 VRB/04 RMK AO2 SLP200 60014 T01830128 10183 20128 51007
03812KAVL AVL20160517125510705/17/16 12:55:31  5-MIN KAVL 171755Z VRB03KT 10SM OVC085 18/13 A3016 1940 72 2800 VRB/03 RMK AO2 T01830133
03812KAVL AVL20160517130010705/17/16 13:00:31  5-MIN KAVL 171800Z 00000KT 10SM BKN085 18/13 A3016 1950 72 2800 000/00 RMK AO2 T01830133
03812KAVL AVL20160517130510705/17/16 13:05:31  5-MIN KAVL 171805Z 11003KT 10SM BKN085 18/13 A3016 1950 72 2800 120/03 RMK AO2 T01830133
03812KAVL AVL20160517131010705/17/16 13:10:31  5-MIN KAVL 171810Z VRB03KT 10SM SCT085 18/13 A3015 1960 70 2800 VRB/03 RMK AO2 T01830128
03812KAVL AVL20160517131510705/17/16 13:15:31  5-MIN KAVL 171815Z 13003KT 10SM SCT090 18/13 A3015 1960 72 2800 130/03 RMK AO2 T01830133
03812KAVL AVL20160517132010705/17/16 13:20:31  5-MIN KAVL 171820Z 14004KT 10SM FEW090 19/13 A3014 1960 70 2900 150/04 RMK AO2 T01890133
03812KAVL AVL20160517132510405/17/16 13:25:31  5-MIN KAVL 171825Z 00000KT 10SM CLR 19/13 A3014 1960 70 2900 000/00 RMK AO2 T01890133
03812KAVL AVL20160517133010405/17/16 13:30:31  5-MIN KAVL 171830Z VRB03KT 10SM CLR 19/13 A3014 1970 70 2900 VRB/03 RMK AO2 T01890133
03812KAVL AVL20160517133510405/17/16 13:35:31  5-MIN KAVL 171835Z 13003KT 10SM CLR 19/13 A3013 1970 70 2900 140/03 RMK AO2 T01890133
03812KAVL AVL20160517134010705/17/16 13:40:31  5-MIN KAVL 171840Z 00000KT 10SM FEW110 19/13 A3013 1970 67 3000 000/00 RMK AO2 T01940133
03812KAVL AVL20160517134511405/17/16 13:45:31  5-MIN KAVL 171845Z 00000KT 10SM FEW090 SCT110 19/13 A3013 1970 67 3000 000/00 RMK AO2 T01940133
03812KAVL AVL20160517135012105/17/16 13:50:31  5-MIN KAVL 171850Z VRB03KT 10SM FEW085 BKN110 19/13 A3013 1980 70 2900 VRB/03 RMK AO2 SLP186 T01890133
03812KAVL AVL20160517135512105/17/16 13:55:31  5-MIN KAVL 171855Z VRB03KT 10SM FEW055 FEW085 BKN110 19/13 A3013 1980 70 2900 VRB/03 RMK AO2 T01890133
03812KAVL AVL20160517140013905/17/16 14:00:31  5-MIN KAVL 171900Z 00000KT 10SM -RA FEW055 SCT080 BKN110 19/14 A3013 1980 70 3000 000/00 RMK AO2 RAB1857 P0000 T01940139
03812KAVL AVL20160517140513905/17/16 14:05:31  5-MIN KAVL 171905Z 00000KT 10SM -RA FEW033 BKN090 OVC110 19/14 A3013 1980 70 3000 000/00 RMK AO2 RAB1857 P0000 T01940139
03812KAVL AVL20160517141013905/17/16 14:10:31  5-MIN KAVL 171910Z 16003KT 10SM -RA FEW033 BKN085 OVC110 19/13 A3012 1980 70 2900 160/03 RMK AO2 RAB1857 P0000 T01890133
03812KAVL AVL20160517141514305/17/16 14:15:31  5-MIN KAVL 171915Z AUTO 18003KT 10SM SCT040 BKN080 OVC100 19/14 A3012 1980 70 3000 180/03 RMK AO2 RAB1857E15 P0000 T01940139
03812KAVL AVL20160517142014305/17/16 14:20:31  5-MIN KAVL 171920Z AUTO 09004KT 10SM FEW047 BKN090 OVC110 19/14 A3012 1980 70 3000 100/04 RMK AO2 RAB1857E15 P0000 T01940139
03812KAVL AVL20160517142514305/17/16 14:25:31  5-MIN KAVL 171925Z AUTO 14004KT 10SM FEW020 SCT042 OVC085 19/14 A3012 1980 70 3000 150/04 RMK AO2 RAB1857E15 P0000 T01940139
03812KAVL AVL20160517143014305/17/16 14:30:31  5-MIN KAVL 171930Z AUTO 13005KT 10SM SCT020 BKN035 OVC100 19/14 A3012 1980 70 3000 140/05 RMK AO2 RAB1857E15 P0000 T01940139
03812KAVL AVL20160517143514305/17/16 14:35:31  5-MIN KAVL 171935Z AUTO 14004KT 10SM SCT020 BKN037 OVC085 19/13 A3012 1990 67 3000 150/04 RMK AO2 RAB1857E15 P0000 T01940133
03812KAVL AVL20160517144015005/17/16 14:40:31  5-MIN KAVL 171940Z AUTO 13004KT 10SM -RA SCT022 BKN036 OVC085 21/14 A3011 1990 65 3100 130/04 RMK AO2 RAB1857E15B40 P0000 T02060139
03812KAVL AVL20160520185016405/20/16 18:50:31  5-MIN KAVL 202350Z 17005KT 2SM -RA BKN018 OVC025 13/12 A3012 1980 89 2300 170/05 RMK AO2 SFC VIS 7 SLP189 P0002 60022 T01330117 10144 20133 56020
03812KAVL AVL20160520185513305/20/16 18:55:31  5-MIN KAVL 202355Z 16005KT 2SM -RA BKN020 OVC025 13/12 A3012 1980 89 2300 160/05 RMK AO2 SFC VIS 8 P0000 T01330117
03812KAVL AVL20160520190012605/20/16 19:00:31  5-MIN KAVL 210000Z 16004KT 2SM -RA OVC020 13/12 A3012 1980 93 2200 160/04 RMK AO2 SFC VIS 7 P0000 T01280117
03812KAVL AVL20160520190512605/20/16 19:05:31  5-MIN KAVL 210005Z 16005KT 2SM -RA OVC020 13/12 A3012 1980 93 2200 170/05 RMK AO2 SFC VIS 9 P0000 T01280117
03812KAVL AVL20160520191013605/20/16 19:10:31  5-MIN KAVL 210010Z 17005KT 2SM BKN018 OVC024 13/11 A3012 1980 89 2200 180/05 RMK AO2 SFC VIS 10 RAE08 P0000 T01280111
03812KAVL AVL20160520191512905/20/16 19:15:31  5-MIN KAVL 210015Z 18005KT 2SM OVC018 13/12 A3012 1980 93 2200 180/05 RMK AO2 SFC VIS 10 RAE08 P0000 T01280117
03812KAVL AVL20160520192012905/20/16 19:20:31  5-MIN KAVL 210020Z 19008KT 2SM OVC018 13/12 A3013 1980 93 2200 190/08 RMK AO2 SFC VIS 10 RAE08 P0000 T01280117
03812KAVL AVL20160520192513505/20/16 19:25:31  5-MIN KAVL 210025Z 19006KT 2SM -RA OVC018 13/11 A3012 1980 89 2200 190/06 RMK AO2 SFC VIS 9 RAE08B25 P0000 T01280111
03812KAVL AVL20160520193013505/20/16 19:30:31  5-MIN KAVL 210030Z 18007KT 2SM -RA OVC016 13/11 A3012 1980 89 2200 180/07 RMK AO2 SFC VIS 8 RAE08B25 P0000 T01280111
03812KAVL AVL20160520193513605/20/16 19:35:31  5-MIN KAVL 210035Z 17005KT 2SM -RA OVC016 13/11 A3012 1980 89 2200 170/05 RMK AO2 SFC VIS 10 RAE08B25 P0000 T01280111
03812KAVL AVL20160520194013605/20/16 19:40:31  5-MIN KAVL 210040Z 18005KT 2SM -RA OVC016 13/12 A3012 1980 93 2200 190/05 RMK AO2 SFC VIS 10 RAE08B25 P0000 T01280117
03812KAVL AVL20160520194513505/20/16 19:45:31  5-MIN KAVL 210045Z 19004KT 2SM OVC016 13/12 A3012 1980 93 2200 190/04 RMK AO2 SFC VIS 10 RAE08B25E42 P0000 T01280117
03812KAVL AVL20160520195014305/20/16 19:50:31  5-MIN KAVL 210050Z 18005KT 2SM -RA OVC016 13/12 A3012 1980 93 2200 190/05 RMK AO2 SFC VIS 10 RAE08B25 SLP189 P0000 T01280117
03812KAVL AVL20160520195512705/20/16 19:55:31  5-MIN KAVL 210055Z 19006KT 2SM -RA OVC016 13/11 A3012 1980 89 2200 190/06 RMK AO2 SFC VIS 10 P0000 T01280111
03812KAVL AVL20160520200012705/20/16 20:00:31  5-MIN KAVL 210100Z 18006KT 2SM -RA OVC016 13/11 A3012 1980 89 2200 190/06 RMK AO2 SFC VIS 10 P0000 T01280111
03812KAVL AVL20160520200512605/20/16 20:05:31  5-MIN KAVL 210105Z 19007KT 2SM -RA OVC016 13/11 A3012 1980 89 2200 190/07 RMK AO2 SFC VIS 8 P0000 T01280111
03812KAVL AVL20160520201011905/20/16 20:10:31  5-MIN KAVL 210110Z 20006KT 2SM -RA BR OVC016 13/11 A3012 1980 89 2200 200/06 RMK AO2 P0000 T01280111
03812KAVL AVL20160520201511905/20/16 20:15:31  5-MIN KAVL 210115Z 20006KT 2SM -RA BR OVC016 13/11 A3012 1980 89 2200 210/06 RMK AO2 P0000 T01280111
03812KAVL AVL20160520202012105/20/16 20:20:31  5-MIN KAVL 210120Z 19006KT 2SM BR OVC016 13/11 A3012 1980 89 2200 200/06 RMK AO2 RAE17 P0000 T01280111
03812KAVL AVL20160520202512105/20/16 20:25:31  5-MIN KAVL 210125Z 18005KT 2SM BR OVC016 13/11 A3012 1990 89 2200 180/05 RMK AO2 RAE17 P0000 T01280111
03812KAVL AVL20160520203012105/20/16 20:30:31  5-MIN KAVL 210130Z 18006KT 2SM BR OVC015 13/11 A3012 1990 89 2200 180/06 RMK AO2 RAE17 P0000 T01280111
03812KAVL AVL20160520203512105/20/16 20:35:31  5-MIN KAVL 210135Z 19006KT 2SM BR OVC015 13/11 A3012 1980 89 2200 200/06 RMK AO2 RAE17 P0000 T01280111
03812KAVL AVL20160520204012105/20/16 20:40:31  5-MIN KAVL 210140Z 21005KT 2SM BR OVC015 12/11 A3012 1980 93 2200 210/05 RMK AO2 RAE17 P0000 T01220111
03812KAVL AVL20160520204512105/20/16 20:45:31  5-MIN KAVL 210145Z 20005KT 2SM BR OVC013 12/11 A3012 1980 93 2200 210/05 RMK AO2 RAE17 P0000 T01220111
03812KAVL AVL20160520205011805/20/16 20:50:31  5-MIN KAVL 210150Z 19004KT 2SM -RA BR OVC013 12/11 A3012 1990 93 2200 190/04 RMK AO2 RAE17B46 P0000
03812KAVL AVL20160520205511705/20/16 20:55:31  5-MIN KAVL 210155Z 19006KT 10SM -RA OVC013 13/11 A3012 1980 89 2200 190/06 RMK AO2 P0000 T01280111
03812KAVL AVL20160520210011605/20/16 21:00:31  5-MIN KAVL 210200Z 22006KT 7SM -RA OVC013 13/11 A3013 1980 89 2200 220/06 RMK AO2 P0000 T01280111
03812KAVL AVL20160520210511905/20/16 21:05:31  5-MIN KAVL 210205Z 21005KT 2SM +RA BR OVC013 12/11 A3012 1980 93 2200 210/05 RMK AO2 P0003 T01220111
03812KAVL AVL20160520211011905/20/16 21:10:31  5-MIN KAVL 210210Z 14003KT 2SM +RA BR OVC012 12/11 A3012 1980 93 2200 140/03 RMK AO2 P0005 T01220111
03812KAVL AVL20160520211511905/20/16 21:15:31  5-MIN KAVL 210215Z 18003KT 2SM +RA BR OVC012 12/11 A3012 1980 93 2200 190/03 RMK AO2 P0008 T01220111
03812KAVL AVL20160520212011805/20/16 21:20:31  5-MIN KAVL 210220Z 21004KT 2SM RA BR OVC012 12/11 A3013 1980 93 2200 220/04 RMK AO2 P0009 T01220111
03812KAVL AVL20160520212511905/20/16 21:25:31  5-MIN KAVL 210225Z 18003KT 2SM -RA BR OVC013 12/11 A3012 1980 93 2200 190/03 RMK AO2 P0010 T01220111
03812KAVL AVL20160520213012405/20/16 21:30:31  5-MIN KAVL 210230Z AUTO 17004KT 2SM -RA BR OVC013 12/11 A3013 1980 93 2200 180/04 RMK AO2 P0010 T01220111
03812KAVL AVL20160520213512405/20/16 21:35:31  5-MIN KAVL 210235Z AUTO 00000KT 2SM -RA BR OVC013 12/11 A3012 1980 93 2200 000/00 RMK AO2 P0010 T01220111
03812KAVL AVL20160520214012405/20/16 21:40:31  5-MIN KAVL 210240Z AUTO 17003KT 2SM -RA BR OVC013 12/11 A3012 1980 93 2200 180/03 RMK AO2 P0010 T01220111
03812KAVL AVL20160520214513105/20/16 21:45:31  5-MIN KAVL 210245Z AUTO 18003KT 2SM -RA BR FEW004 OVC013 12/11 A3012 1980 93 2200 180/03 RMK AO2 P0010 T01220111
03812KAVL AVL20160520215015005/20/16 21:50:31  5-MIN KAVL 210250Z AUTO 19003KT 2SM -RA BR FEW004 OVC013 12/11 A3012 1980 93 2200 200/03 RMK AO2 SLP189 P0011 60011 T01220111 53001
03812KAVL AVL20160520215513505/20/16 21:55:31  5-MIN KAVL 210255Z AUTO 17003KT 7SM -RA FEW004 BKN010 OVC014 12/11 A3012 1980 93 2200 180/03 RMK AO2 P0000 T01220111
03812KAVL AVL20160520220013505/20/16 22:00:31  5-MIN KAVL 210300Z AUTO 17003KT 7SM -RA FEW004 BKN010 OVC014 12/11 A3012 1980 93 2200 180/03 RMK AO2 P0000 T01220111
03812KAVL AVL20160520220513105/20/16 22:05:31  5-MIN KAVL 210305Z AUTO 18004KT 6SM -RA BR FEW004 OVC012 12/11 A3012 1980 93 2200 180/04 RMK AO2 P0000 T01220111
03812KAVL AVL20160520221013305/20/16 22:10:31  5-MIN KAVL 210310Z AUTO 18003KT 6SM BR FEW004 OVC012 12/11 A3012 1980 93 2200 190/03 RMK AO2 RAE07 P0000 T01220111
03812KAVL AVL20160520221513305/20/16 22:15:31  5-MIN KAVL 210315Z AUTO 19004KT 5SM BR FEW005 OVC012 12/11 A3012 1980 93 2200 200/04 RMK AO2 RAE07 P0000 T01220111
03812KAVL AVL20160520222013305/20/16 22:20:31  5-MIN KAVL 210320Z AUTO 20004KT 5SM BR FEW005 OVC012 12/11 A3012 1980 93 2200 210/04 RMK AO2 RAE07 P0000 T01220111
03812KAVL AVL20160520222512605/20/16 22:25:31  5-MIN KAVL 210325Z AUTO 18004KT 5SM BR OVC012 12/11 A3012 1980 93 2200 180/04 RMK AO2 RAE07 P0000 T01220111
03812KAVL AVL20160520223013305/20/16 22:30:31  5-MIN KAVL 210330Z AUTO 20003KT 5SM -RA BR OVC012 12/11 A3012 1980 93 2200 210/03 RMK AO2 RAE07B30 P0000 T01220111
03812KAVL AVL20160520223514005/20/16 22:35:31  5-MIN KAVL 210335Z AUTO 20004KT 6SM -RA BR BKN008 OVC012 13/11 A3012 1980 89 2200 210/04 RMK AO2 RAE07B30 P0000 T01280111
03812KAVL AVL20160520224014005/20/16 22:40:31  5-MIN KAVL 210340Z AUTO 19005KT 6SM -RA BR BKN008 OVC012 13/11 A3012 1980 89 2200 200/05 RMK AO2 RAE07B30 P0000 T01280111
03812KAVL AVL20160520224514005/20/16 22:45:31  5-MIN KAVL 210345Z AUTO 20005KT 5SM -RA BR BKN008 OVC012 13/11 A3012 1990 89 2200 200/05 RMK AO2 RAE07B30 P0000 T01280111
03812KAVL AVL20160520225012305/20/16 22:50:31  5-MIN KAVL 210350Z AUTO 19004KT 6SM -RA BR OVC010 13/11 A3012 1990 89 2200 190/04 RMK AO2 RAE07B30 P0001
03812KAVL AVL20160520225512105/20/16 22:55:31  5-MIN KAVL 210355Z AUTO 18005KT 8SM -RA OVC010 13/11 A3011 1990 89 2200 180/05 RMK AO2 P0000 T01280111
03812KAVL AVL20160520230012405/20/16 23:00:31  5-MIN KAVL 210400Z AUTO 17006KT 10SM OVC010 13/11 A3011 1990 89 2200 180/06 RMK AO2 RAE00 P0000 T01280111
03812KAVL AVL20160520230512305/20/16 23:05:31  5-MIN KAVL 210405Z AUTO 17005KT 8SM OVC010 13/11 A3011 1990 89 2200 180/05 RMK AO2 RAE00 P0000 T01280111
03812KAVL AVL20160520231012305/20/16 23:10:31  5-MIN KAVL 210410Z AUTO 18004KT 8SM OVC012 12/12 A3011 1990 96 2200 180/04 RMK AO2 RAE00 P0000 T01220117
03812KAVL AVL20160520231512405/20/16 23:15:31  5-MIN KAVL 210415Z AUTO 18004KT 10SM OVC012 12/11 A3011 2000 93 2200 190/04 RMK AO2 RAE00 P0000 T01220111
03812KAVL AVL20160520232012405/20/16 23:20:31  5-MIN KAVL 210420Z AUTO 17003KT 10SM OVC012 12/12 A3011 2000 96 2200 180/03 RMK AO2 RAE00 P0000 T01220117
03812KAVL AVL20160520232512405/20/16 23:25:31  5-MIN KAVL 210425Z AUTO 19003KT 10SM OVC012 12/11 A3011 2000 93 2200 200/03 RMK AO2 RAE00 P0000 T01220111
03812KAVL AVL20160520233012405/20/16 23:30:31  5-MIN KAVL 210430Z AUTO 18004KT 10SM OVC012 12/11 A3011 2000 93 2200 190/04 RMK AO2 RAE00 P0000 T01220111
03812KAVL AVL20160520233512405/20/16 23:35:31  5-MIN KAVL 210435Z AUTO 17004KT 10SM OVC012 12/11 A3010 2000 93 2200 170/04 RMK AO2 RAE00 P0000 T01220111
03812KAVL AVL20160520234012405/20/16 23:40:31  5-MIN KAVL 210440Z AUTO 15003KT 10SM OVC012 13/11 A3010 2000 89 2200 160/03 RMK AO2 RAE00 P0000 T01280111
03812KAVL AVL20160520234513105/20/16 23:45:31  5-MIN KAVL 210445Z AUTO 17003KT 10SM BKN012 OVC018 12/11 A3010 2000 93 2200 170/03 RMK AO2 RAE00 P0000 T01220111
03812KAVL AVL20160520235014805/20/16 23:50:31  5-MIN KAVL 210450Z AUTO 14003KT 10SM BKN012 OVC018 12/11 A3010 2010 93 2200 140/03 RMK AO2 RAE00 SLP179 P0000 T01220111 401440122
03812KAVL AVL20160520235511905/20/16 23:55:31  5-MIN KAVL 210455Z AUTO 16004KT 10SM SCT012 OVC018 12/11 A3009 2010 93 2200 160/04 RMK AO2 T01220111
03812KAVL AVL20160521000011905/21/16 00:00:31  5-MIN KAVL 210500Z AUTO 16004KT 10SM FEW012 OVC019 13/12 A3009 2010 93 2300 170/04 RMK AO2 T01280117
03812KAVL AVL20160521000511905/21/16 00:05:31  5-MIN KAVL 210505Z AUTO 15004KT 10SM FEW013 OVC019 13/12 A3009 2010 93 2300 150/04 RMK AO2 T01280117
03812KAVL AVL20160521001011205/21/16 00:10:31  5-MIN KAVL 210510Z AUTO 16003KT 10SM OVC019 12/11 A3009 2010 93 2200 170/03 RMK AO2 T01220111
03812KAVL AVL20160521001511205/21/16 00:15:31  5-MIN KAVL 210515Z AUTO 16004KT 10SM OVC018 13/12 A3009 2010 93 2300 160/04 RMK AO2 T01280117
03812KAVL AVL20160521002011205/21/16 00:20:31  5-MIN KAVL 210520Z AUTO 14005KT 10SM OVC018 13/11 A3009 2010 89 2300 150/05 RMK AO2 T01280111
03812KAVL AVL20160521002511205/21/16 00:25:31  5-MIN KAVL 210525Z AUTO 15004KT 10SM OVC018 13/11 A3009 2010 89 2300 160/04 RMK AO2 T01280111
03812KAVL AVL20160521003011205/21/16 00:30:31  5-MIN KAVL 210530Z AUTO 14003KT 10SM OVC018 13/11 A3009 2010 89 2300 140/03 RMK AO2 T01280111
03812KAVL AVL20160521003511905/21/16 00:35:31  5-MIN KAVL 210535Z AUTO 00000KT 10SM FEW002 OVC018 13/11 A3008 2020 89 2300 000/00 RMK AO2 T01280111
03812KAVL AVL20160521004011905/21/16 00:40:31  5-MIN KAVL 210540Z AUTO 16003KT 10SM FEW002 OVC018 13/11 A3008 2020 89 2300 160/03 RMK AO2 T01280111
03812KAVL AVL20160521004511905/21/16 00:45:31  5-MIN KAVL 210545Z AUTO 00000KT 10SM FEW002 OVC018 13/11 A3008 2020 89 2300 000/00 RMK AO2 T01280111
03812KAVL AVL20160521005015005/21/16 00:50:31  5-MIN KAVL 210550Z AUTO 00000KT 10SM SCT002 OVC018 13/11 A3008 2020 89 2300 000/00 RMK AO2 SLP172 60012 T01280111 10128 20122 56000
03812KAVL AVL20160521005511905/21/16 00:55:31  5-MIN KAVL 210555Z AUTO 00000KT 10SM BKN003 OVC018 13/12 A3007 2030 93 2300 000/00 RMK AO2 T01280117
03812KAVL AVL20160521010011905/21/16 01:00:31  5-MIN KAVL 210600Z AUTO 19003KT 10SM BKN003 OVC018 13/11 A3008 2020 89 2300 190/03 RMK AO2 T01280111
03812KAVL AVL20160521010511905/21/16 01:05:31  5-MIN KAVL 210605Z AUTO 18003KT 10SM BKN003 OVC018 13/11 A3007 2030 89 2300 190/03 RMK AO2 T01280111
03812KAVL AVL20160521011011905/21/16 01:10:31  5-MIN KAVL 210610Z AUTO 19003KT 10SM BKN003 OVC018 13/11 A3007 2030 89 2300 190/03 RMK AO2 T01280111
03812KAVL AVL20160521011511905/21/16 01:15:31  5-MIN KAVL 210615Z AUTO 00000KT 10SM BKN003 OVC018 13/11 A3007 2030 89 2300 000/00 RMK AO2 T01280111
03812KAVL AVL20160521012011905/21/16 01:20:31  5-MIN KAVL 210620Z AUTO 00000KT 10SM BKN003 OVC017 13/11 A3007 2030 89 2300 000/00 RMK AO2 T01280111
03812KAVL AVL20160521012511905/21/16 01:25:31  5-MIN KAVL 210625Z AUTO 00000KT 10SM BKN004 OVC017 13/11 A3007 2030 89 2300 000/00 RMK AO2 T01280111
03812KAVL AVL20160521013011905/21/16 01:30:31  5-MIN KAVL 210630Z AUTO 00000KT 10SM SCT004 OVC017 13/11 A3006 2040 89 2300 000/00 RMK AO2 T01280111
03812KAVL AVL20160521013511905/21/16 01:35:31  5-MIN KAVL 210635Z AUTO 18003KT 10SM FEW004 OVC016 13/11 A3006 2040 89 2300 180/03 RMK AO2 T01280111
03812KAVL AVL20160521014011905/21/16 01:40:31  5-MIN KAVL 210640Z AUTO 18003KT 10SM FEW005 OVC016 13/11 A3006 2040 89 2300 190/03 RMK AO2 T01280111
03812KAVL AVL20160521014511905/21/16 01:45:31  5-MIN KAVL 210645Z AUTO 00000KT 10SM FEW005 OVC015 13/11 A3006 2040 89 2300 000/00 RMK AO2 T01280111
03812KAVL AVL20160521015011905/21/16 01:50:31  5-MIN KAVL 210650Z AUTO 00000KT 10SM OVC015 13/11 A3006 2040 89 2300 000/00 RMK AO2 SLP165 T01280111
03812KAVL AVL20160521015511905/21/16 01:55:31  5-MIN KAVL 210655Z AUTO 00000KT 10SM FEW009 OVC014 13/11 A3005 2050 89 2300 000/00 RMK AO2 T01280111
03812KAVL AVL20160521020011905/21/16 02:00:31  5-MIN KAVL 210700Z AUTO 00000KT 10SM SCT009 OVC014 13/11 A3005 2050 89 2300 000/00 RMK AO2 T01280111
03812KAVL AVL20160521020511905/21/16 02:05:31  5-MIN KAVL 210705Z AUTO 00000KT 10SM SCT009 OVC014 13/11 A3004 2050 89 2300 000/00 RMK AO2 T01280111
03812KAVL AVL20160521021011905/21/16 02:10:31  5-MIN KAVL 210710Z AUTO 00000KT 10SM SCT005 OVC012 13/11 A3004 2060 89 2300 000/00 RMK AO2 T01280111
03812KAVL AVL20160521021511905/21/16 02:15:31  5-MIN KAVL 210715Z AUTO 00000KT 10SM BKN005 OVC012 13/11 A3004 2050 89 2300 000/00 RMK AO2 T01280111
03812KAVL AVL20160521022011905/21/16 02:20:31  5-MIN KAVL 210720Z AUTO 00000KT 10SM BKN005 OVC012 13/11 A3004 2050 89 2300 000/00 RMK AO2 T01280111
03812KAVL AVL20160521022511905/21/16 02:25:31  5-MIN KAVL 210725Z AUTO 00000KT 10SM BKN004 OVC011 13/11 A3004 2060 89 2300 000/00 RMK AO2 T01280111
03812KAVL AVL20160521023011905/21/16 02:30:31  5-MIN KAVL 210730Z AUTO 00000KT 10SM BKN004 OVC011 13/11 A3004 2060 89 2300 000/00 RMK AO2 T01280111
03812KAVL AVL20160521023511905/21/16 02:35:31  5-MIN KAVL 210735Z AUTO 00000KT 10SM SCT004 OVC011 13/11 A3004 2060 89 2300 000/00 RMK AO2 T01280111
03812KAVL AVL20160521024011905/21/16 02:40:31  5-MIN KAVL 210740Z AUTO 00000KT 10SM SCT004 OVC011 13/11 A3004 2060 89 2300 000/00 RMK AO2 T01280111
03812KAVL AVL20160521024511905/21/16 02:45:31  5-MIN KAVL 210745Z AUTO 00000KT 10SM FEW004 OVC011 13/11 A3004 2060 89 2300 000/00 RMK AO2 T01280111
03812KAVL AVL20160521025012605/21/16 02:50:31  5-MIN KAVL 210750Z AUTO 00000KT 10SM FEW006 OVC011 13/11 A3004 2060 89 2300 000/00 RMK AO2 SLP159 T01280111
03812KAVL AVL20160521025511205/21/16 02:55:31  5-MIN KAVL 210755Z AUTO 00000KT 10SM OVC011 13/11 A3004 2060 89 2300 000/00 RMK AO2 T01280111
03812KAVL AVL20160521030011205/21/16 03:00:31  5-MIN KAVL 210800Z AUTO 00000KT 10SM OVC010 13/11 A3003 2060 89 2300 000/00 RMK AO2 T01280111
03812KAVL AVL20160521030511205/21/16 03:05:31  5-MIN KAVL 210805Z AUTO 00000KT 10SM OVC010 13/11 A3003 2070 89 2300 000/00 RMK AO2 T01280111
03812KAVL AVL20160521031011905/21/16 03:10:31  5-MIN KAVL 210810Z AUTO 32005KT 10SM FEW003 OVC010 13/11 A3003 2060 89 2300 330/05 RMK AO2 T01280111
03812KAVL AVL20160521031511905/21/16 03:15:31  5-MIN KAVL 210815Z AUTO 34004KT 10SM FEW003 OVC010 13/11 A3003 2070 89 2300 350/04 RMK AO2 T01280111
03812KAVL AVL20160521032011905/21/16 03:20:31  5-MIN KAVL 210820Z AUTO 00000KT 10SM FEW003 OVC009 13/11 A3003 2070 89 2300 000/00 RMK AO2 T01280111
03812KAVL AVL20160521032511905/21/16 03:25:31  5-MIN KAVL 210825Z AUTO 00000KT 10SM FEW003 OVC009 13/12 A3003 2070 93 2300 000/00 RMK AO2 T01280117
03812KAVL AVL20160521033011905/21/16 03:30:31  5-MIN KAVL 210830Z AUTO 32003KT 10SM FEW003 OVC009 13/11 A3003 2060 89 2300 320/03 RMK AO2 T01280111
03812KAVL AVL20160521033511905/21/16 03:35:31  5-MIN KAVL 210835Z AUTO 33004KT 10SM FEW003 OVC009 13/11 A3003 2070 89 2300 330/04 RMK AO2 T01280111
03812KAVL AVL20160521034011205/21/16 03:40:31  5-MIN KAVL 210840Z AUTO 33003KT 10SM OVC009 13/11 A3003 2060 89 2300 330/03 RMK AO2 T01280111
03812KAVL AVL20160521034511205/21/16 03:45:31  5-MIN KAVL 210845Z AUTO 34003KT 10SM OVC009 13/11 A3003 2070 89 2300 350/03 RMK AO2 T01280111
03812KAVL AVL20160521035012505/21/16 03:50:31  5-MIN KAVL 210850Z AUTO 35003KT 10SM OVC009 13/11 A3003 2070 89 2300 350/03 RMK AO2 SLP156 T01280111 58016
03812KAVL AVL20160521035511205/21/16 03:55:31  5-MIN KAVL 210855Z AUTO 34003KT 10SM OVC009 13/11 A3003 2070 89 2300 340/03 RMK AO2 T01280111
03812KAVL AVL20160521040011205/21/16 04:00:31  5-MIN KAVL 210900Z AUTO 34004KT 10SM OVC008 13/11 A3003 2070 89 2300 340/04 RMK AO2 T01280111
03812KAVL AVL20160521040511205/21/16 04:05:31  5-MIN KAVL 210905Z AUTO 33005KT 10SM OVC008 13/11 A3003 2070 89 2300 340/05 RMK AO2 T01280111
03812KAVL AVL20160521041011205/21/16 04:10:31  5-MIN KAVL 210910Z AUTO 33004KT 10SM OVC006 13/11 A3003 2070 89 2300 340/04 RMK AO2 T01280111
03812KAVL AVL20160521041511205/21/16 04:15:31  5-MIN KAVL 210915Z AUTO 34005KT 10SM OVC006 12/11 A3003 2070 93 2300 350/05 RMK AO2 T01220111
03812KAVL AVL20160521042011205/21/16 04:20:31  5-MIN KAVL 210920Z AUTO 33005KT 10SM OVC006 12/11 A3003 2070 93 2300 340/05 RMK AO2 T01220111
03812KAVL AVL20160521042511205/21/16 04:25:31  5-MIN KAVL 210925Z AUTO 33005KT 10SM OVC006 12/11 A3003 2070 93 2300 340/05 RMK AO2 T01220111
03812KAVL AVL20160521043011205/21/16 04:30:31  5-MIN KAVL 210930Z AUTO 34006KT 10SM OVC006 12/11 A3003 2070 93 2300 340/06 RMK AO2 T01220111
03812KAVL AVL20160521043511205/21/16 04:35:31  5-MIN KAVL 210935Z AUTO 35007KT 10SM OVC006 12/11 A3003 2070 93 2300 350/07 RMK AO2 T01220111
03812KAVL AVL20160521044011205/21/16 04:40:31  5-MIN KAVL 210940Z AUTO 36004KT 10SM OVC005 12/11 A3003 2070 93 2300 360/04 RMK AO2 T01220111
03812KAVL AVL20160521044511205/21/16 04:45:31  5-MIN KAVL 210945Z AUTO 35005KT 10SM OVC005 13/11 A3003 2070 89 2300 360/05 RMK AO2 T01280111
03812KAVL AVL20160521045011905/21/16 04:50:31  5-MIN KAVL 210950Z AUTO 35003KT 10SM OVC005 12/11 A3003 2070 93 2300 360/03 RMK AO2 SLP156 T01220111
03812KAVL AVL20160521045511205/21/16 04:55:31  5-MIN KAVL 210955Z AUTO 01004KT 10SM OVC005 13/11 A3002 2070 89 2300 020/04 RMK AO2 T01280111
03812KAVL AVL20160521050011205/21/16 05:00:31  5-MIN KAVL 211000Z AUTO 36005KT 10SM OVC004 13/11 A3002 2070 89 2300 010/05 RMK AO2 T01280111
03812KAVL AVL20160521050511205/21/16 05:05:31  5-MIN KAVL 211005Z AUTO 35007KT 10SM OVC004 12/11 A3003 2070 93 2300 360/07 RMK AO2 T01220111
03812KAVL AVL20160521051011205/21/16 05:10:31  5-MIN KAVL 211010Z AUTO 35006KT 10SM OVC004 12/11 A3002 2070 93 2300 350/06 RMK AO2 T01220111
03812KAVL AVL20160521051510705/21/16 05:15:31  5-MIN KAVL 211015Z 35005KT 10SM OVC004 12/11 A3003 2070 93 2300 350/05 RMK AO2 T01220111
03812KAVL AVL20160521052010705/21/16 05:20:31  5-MIN KAVL 211020Z 34004KT 10SM OVC004 12/11 A3003 2070 93 2300 340/04 RMK AO2 T01220111
03812KAVL AVL20160521052510605/21/16 05:25:31  5-MIN KAVL 211025Z 35005KT 8SM OVC003 12/11 A3003 2070 93 2300 360/05 RMK AO2 T01220111
03812KAVL AVL20160521053010905/21/16 05:30:31  5-MIN KAVL 211030Z 35006KT 6SM BR OVC003 12/11 A3003 2060 93 2300 350/06 RMK AO2 T01220111
03812KAVL AVL20160521053510905/21/16 05:35:31  5-MIN KAVL 211035Z 01006KT 3SM BR OVC002 12/11 A3003 2070 93 2300 010/06 RMK AO2 T01220111
03812KAVL AVL20160521054011305/21/16 05:40:31  5-MIN KAVL 211040Z 01006KT 1 3/4SM BR OVC002 12/11 A3003 2070 93 2300 010/06 RMK AO2 T01220111
03812KAVL AVL20160521054510905/21/16 05:45:31  5-MIN KAVL 211045Z 36006KT 2SM BR OVC002 12/11 A3003 2070 93 2300 360/06 RMK AO2 T01220111
03812KAVL AVL20160521055012805/21/16 05:50:31  5-MIN KAVL 211050Z 36005KT 2 1/2SM BR OVC002 12/11 A3003 2070 93 2300 360/05 RMK AO2 VIS 2V4 SLP158 T01220111
03812KAVL AVL20160521055512105/21/16 05:55:31  5-MIN KAVL 211055Z 36006KT 2 1/2SM BR OVC002 12/11 A3003 2060 93 2300 360/06 RMK AO2 VIS 2V3 T01220111
03812KAVL AVL20160521060010905/21/16 06:00:31  5-MIN KAVL 211100Z 36007KT 3SM BR OVC002 12/11 A3003 2060 93 2300 010/07 RMK AO2 T01220111
03812KAVL AVL20160521060510905/21/16 06:05:31  5-MIN KAVL 211105Z 35006KT 4SM BR OVC002 12/11 A3003 2060 93 2300 360/06 RMK AO2 T01220111
03812KAVL AVL20160521061010905/21/16 06:10:31  5-MIN KAVL 211110Z 01006KT 4SM BR OVC002 12/11 A3004 2060 93 2300 020/06 RMK AO2 T01220111
03812KAVL AVL20160521061510905/21/16 06:15:31  5-MIN KAVL 211115Z 36006KT 4SM BR OVC002 12/11 A3004 2060 93 2300 010/06 RMK AO2 T01220111
03812KAVL AVL20160521062010905/21/16 06:20:31  5-MIN KAVL 211120Z 01005KT 4SM BR OVC002 12/11 A3004 2060 93 2200 010/05 RMK AO2 T01220111
03812KAVL AVL20160521062512505/21/16 06:25:31  5-MIN KAVL 211125Z 01003KT 2 1/2SM BR OVC002 12/11 A3004 2060 93 2300 010/03 RMK AO2 VIS 1 3/4V4 T01220111
03812KAVL AVL20160521063011305/21/16 06:30:31  5-MIN KAVL 211130Z 01004KT 2 1/2SM BR OVC002 12/11 A3003 2060 93 2300 020/04 RMK AO2 T01220111
03812KAVL AVL20160521063510905/21/16 06:35:31  5-MIN KAVL 211135Z 35006KT 4SM BR OVC002 12/11 A3004 2060 93 2300 360/06 RMK AO2 T01220111
03812KAVL AVL20160521064010905/21/16 06:40:31  5-MIN KAVL 211140Z 02004KT 6SM BR OVC002 12/11 A3003 2070 93 2300 020/04 RMK AO2 T01220111
03812KAVL AVL20160521064510605/21/16 06:45:31  5-MIN KAVL 211145Z 00000KT 8SM OVC002 13/11 A3003 2060 89 2300 000/00 RMK AO2 T01280111
03812KAVL AVL20160521065013705/21/16 06:50:31  5-MIN KAVL 211150Z 36004KT 9SM OVC002 13/11 A3004 2060 89 2300 360/04 RMK AO2 SLP159 70036 T01280111 10128 20122 56014
03812KAVL AVL20160521065510605/21/16 06:55:31  5-MIN KAVL 211155Z 35003KT 8SM OVC002 13/11 A3004 2060 89 2300 360/03 RMK AO2 T01280111
03812KAVL AVL20160521070010905/21/16 07:00:31  5-MIN KAVL 211200Z 36004KT 3SM BR OVC002 13/11 A3004 2060 89 2300 360/04 RMK AO2 T01280111
03812KAVL AVL20160521070511705/21/16 07:05:31  5-MIN KAVL 211205Z 00000KT 2SM BR OVC002 13/12 A3004 2060 93 2300 000/00 RMK AO2 VIS 1V5 T01280117
03812KAVL AVL20160521071012105/21/16 07:10:31  5-MIN KAVL 211210Z 00000KT 1 3/4SM BR OVC002 13/12 A3004 2060 93 2300 000/00 RMK AO2 VIS 1V3 T01280117
03812KAVL AVL20160521071510905/21/16 07:15:31  5-MIN KAVL 211215Z 00000KT 2SM BR OVC002 13/12 A3004 2060 93 2300 000/00 RMK AO2 T01280117
03812KAVL AVL20160521072011305/21/16 07:20:31  5-MIN KAVL 211220Z 00000KT 1 3/4SM BR OVC002 13/12 A3004 2060 93 2300 000/00 RMK AO2 T01280117
03812KAVL AVL20160521072511305/21/16 07:25:31  5-MIN KAVL 211225Z 01003KT 1 1/2SM BR OVC002 13/12 A3004 2060 93 2300 010/03 RMK AO2 T01280117
03812KAVL AVL20160521073011305/21/16 07:30:31  5-MIN KAVL 211230Z 35003KT 1 3/4SM BR OVC002 13/12 A3004 2060 93 2300 360/03 RMK AO2 T01280117
03812KAVL AVL20160521073511305/21/16 07:35:31  5-MIN KAVL 211235Z 35003KT 1 1/2SM BR OVC002 13/12 A3004 2060 93 2300 350/03 RMK AO2 T01280117
03812KAVL AVL20160521074011305/21/16 07:40:31  5-MIN KAVL 211240Z 00000KT 1 1/2SM BR OVC002 13/12 A3004 2060 89 2400 000/00 RMK AO2 T01330117
03812KAVL AVL20160521074510905/21/16 07:45:31  5-MIN KAVL 211245Z 36003KT 2SM BR OVC002 13/12 A3004 2050 93 2400 010/03 RMK AO2 T01330122
03812KAVL AVL20160521075009905/21/16 07:50:31  5-MIN KAVL 211250Z 00000KT 3SM BR OVC002 13/12 A3005 2050 93 2400 000/00 RMK AO2
03812KAVL AVL20160521075512105/21/16 07:55:31  5-MIN KAVL 211255Z 34004KT 2SM BR OVC002 13/12 A3005 2050 93 2400 350/04 RMK AO2 VIS 1 1/4V4 T01330122
03812KAVL AVL20160521080012505/21/16 08:00:31  5-MIN KAVL 211300Z 35003KT 1 3/4SM BR OVC002 13/12 A3004 2050 93 2400 360/03 RMK AO2 VIS 1 1/4V3 T01330122
03812KAVL AVL20160521080512505/21/16 08:05:31  5-MIN KAVL 211305Z 00000KT 2 1/2SM BR OVC002 14/12 A3005 2050 90 2400 000/00 RMK AO2 VIS 1 1/4V4 T01390122
03812KAVL AVL20160521081010905/21/16 08:10:31  5-MIN KAVL 211310Z VRB04KT 3SM BR OVC002 14/12 A3005 2050 90 2400 VRB/04 RMK AO2 T01390122
03812KAVL AVL20160521081510905/21/16 08:15:31  5-MIN KAVL 211315Z 34003KT 3SM BR OVC002 14/12 A3005 2050 90 2400 350/03 RMK AO2 T01390122
03812KAVL AVL20160521082010905/21/16 08:20:31  5-MIN KAVL 211320Z 34004KT 4SM BR OVC002 14/12 A3005 2050 90 2400 350/04 RMK AO2 T01390122
03812KAVL AVL20160521082510905/21/16 08:25:31  5-MIN KAVL 211325Z 33004KT 5SM BR OVC002 14/12 A3005 2050 90 2400 330/04 RMK AO2 T01390122
03812KAVL AVL20160521083010605/21/16 08:30:31  5-MIN KAVL 211330Z 32004KT 7SM OVC002 14/12 A3005 2050 86 2500 320/04 RMK AO2 T01440122
03812KAVL AVL20160521083510705/21/16 08:35:31  5-MIN KAVL 211335Z 32005KT 10SM OVC002 14/13 A3005 2050 90 2500 330/05 RMK AO2 T01440128
03812KAVL AVL20160521084010705/21/16 08:40:31  5-MIN KAVL 211340Z 34003KT 10SM OVC002 14/12 A3005 2050 86 2500 340/03 RMK AO2 T01440122
03812KAVL AVL20160521084510905/21/16 08:45:31  5-MIN KAVL 211345Z 32003KT 2SM BR OVC003 15/13 A3005 2050 86 2600 330/03 RMK AO2 T01500128
03812KAVL AVL20160521085011605/21/16 08:50:31  5-MIN KAVL 211350Z 33004KT 2SM HZ OVC003 16/13 A3005 2050 83 2600 340/04 RMK AO2 SLP162 T01560128
03812KAVL AVL20160521085510705/21/16 08:55:31  5-MIN KAVL 211355Z 32003KT 10SM OVC004 16/13 A3005 2050 83 2600 320/03 RMK AO2 T01560128
03812KAVL AVL20160521090010705/21/16 09:00:31  5-MIN KAVL 211400Z 00000KT 10SM OVC004 16/13 A3004 2060 86 2600 000/00 RMK AO2 T01560133
03812KAVL AVL20160521090510705/21/16 09:05:31  5-MIN KAVL 211405Z 35003KT 10SM OVC004 16/13 A3004 2060 83 2700 350/03 RMK AO2 T01610133
03812KAVL AVL20160521091010705/21/16 09:10:31  5-MIN KAVL 211410Z 34003KT 10SM BKN004 17/13 A3004 2060 80 2800 340/03 RMK AO2 T01670133
03812KAVL AVL20160521091510705/21/16 09:15:31  5-MIN KAVL 211415Z 00000KT 10SM SCT004 17/13 A3004 2060 80 2800 000/00 RMK AO2 T01670133
03812KAVL AVL20160521092010705/21/16 09:20:31  5-MIN KAVL 211420Z 29005KT 10SM SCT004 17/13 A3004 2060 78 2800 300/05 RMK AO2 T01720133
03812KAVL AVL20160521092510705/21/16 09:25:31  5-MIN KAVL 211425Z 00000KT 10SM FEW004 17/14 A3004 2060 80 2800 000/00 RMK AO2 T01720139
03812KAVL AVL20160521093010705/21/16 09:30:31  5-MIN KAVL 211430Z VRB03KT 10SM FEW005 18/14 A3004 2060 78 2900 VRB/03 RMK AO2 T01780139
03812KAVL AVL20160521093510405/21/16 09:35:31  5-MIN KAVL 211435Z 34004KT 10SM CLR 18/14 A3003 2060 78 2900 350/04 RMK AO2 T01780139
03812KAVL AVL20160521094010405/21/16 09:40:31  5-MIN KAVL 211440Z VRB03KT 10SM CLR 18/14 A3004 2060 75 3000 VRB/03 RMK AO2 T01830139
03812KAVL AVL20160521094510405/21/16 09:45:31  5-MIN KAVL 211445Z 34003KT 10SM CLR 18/14 A3003 2060 78 2900 350/03 RMK AO2 T01780139
03812KAVL AVL20160521095011705/21/16 09:50:31  5-MIN KAVL 211450Z 00000KT 10SM CLR 18/14 A3003 2060 75 3000 000/00 RMK AO2 SLP155 T01830139 53002
03812KAVL AVL20160521095510405/21/16 09:55:31  5-MIN KAVL 211455Z VRB03KT 10SM CLR 19/14 A3003 2070 75 3000 VRB/03 RMK AO2 T01890144
03812KAVL AVL20160521100010405/21/16 10:00:31  5-MIN KAVL 211500Z 32005KT 10SM CLR 19/14 A3003 2070 75 3000 330/05 RMK AO2 T01890144
03812KAVL AVL20160521100510405/21/16 10:05:31  5-MIN KAVL 211505Z 35004KT 10SM CLR 19/14 A3003 2070 72 3100 360/04 RMK AO2 T01940144
03812KAVL AVL20160521101010405/21/16 10:10:31  5-MIN KAVL 211510Z 33006KT 10SM CLR 19/14 A3003 2070 72 3100 330/06 RMK AO2 T01940144
03812KAVL AVL20160521101510705/21/16 10:15:31  5-MIN KAVL 211515Z 35003KT 10SM FEW085 20/14 A3002 2070 70 3200 360/03 RMK AO2 T02000144
03812KAVL AVL20160521102010705/21/16 10:20:31  5-MIN KAVL 211520Z 35004KT 10SM FEW085 21/15 A3002 2080 70 3200 350/04 RMK AO2 T02060150
03812KAVL AVL20160521102510705/21/16 10:25:31  5-MIN KAVL 211525Z 32006KT 10SM FEW085 21/15 A3002 2080 70 3200 330/06 RMK AO2 T02060150
03812KAVL AVL20160521103010705/21/16 10:30:31  5-MIN KAVL 211530Z 32004KT 10SM FEW085 21/14 A3002 2080 67 3200 320/04 RMK AO2 T02060144
03812KAVL AVL20160521103510705/21/16 10:35:31  5-MIN KAVL 211535Z VRB03KT 10SM SCT085 21/15 A3002 2080 68 3300 VRB/03 RMK AO2 T02110150
03812KAVL AVL20160521104011405/21/16 10:40:31  5-MIN KAVL 211540Z VRB03KT 10SM FEW070 BKN085 22/15 A3002 2080 65 3400 VRB/03 RMK AO2 T02170150
03812KAVL AVL20160521104511405/21/16 10:45:31  5-MIN KAVL 211545Z 00000KT 10SM FEW070 BKN090 21/14 A3002 2080 65 3300 000/00 RMK AO2 T02110144
03812KAVL AVL20160521105012105/21/16 10:50:31  5-MIN KAVL 211550Z 25005KT 10SM FEW070 BKN090 21/14 A3002 2080 67 3200 250/05 RMK AO2 SLP148 T02060144
03812KAVL AVL20160521105511405/21/16 10:55:31  5-MIN KAVL 211555Z 26003KT 10SM FEW070 BKN090 21/15 A3002 2080 68 3300 260/03 RMK AO2 T02110150
03812KAVL AVL20160521110012105/21/16 11:00:31  5-MIN KAVL 211600Z VRB03KT 10SM FEW060 FEW075 BKN090 21/14 A3002 2080 65 3300 VRB/03 RMK AO2 T02110144
03812KAVL AVL20160521110512105/21/16 11:05:31  5-MIN KAVL 211605Z 00000KT 10SM FEW055 SCT070 BKN085 21/14 A3001 2080 65 3200 000/00 RMK AO2 T02060139
03812KAVL AVL20160521111012105/21/16 11:10:31  5-MIN KAVL 211610Z 00000KT 10SM FEW050 SCT065 BKN080 21/15 A3001 2080 68 3300 000/00 RMK AO2 T02110150
03812KAVL AVL20160521111512105/21/16 11:15:31  5-MIN KAVL 211615Z 28003KT 10SM FEW050 SCT060 BKN080 21/14 A3001 2080 65 3300 280/03 RMK AO2 T02110144
03812KAVL AVL20160521112012105/21/16 11:20:31  5-MIN KAVL 211620Z 32003KT 10SM FEW050 SCT060 BKN080 22/14 A3001 2080 63 3400 330/03 RMK AO2 T02170144
03812KAVL AVL20160521112512105/21/16 11:25:31  5-MIN KAVL 211625Z 31004KT 10SM FEW050 SCT060 BKN080 22/15 A3001 2080 63 3400 320/04 RMK AO2 T02220150
03812KAVL AVL20160521113012105/21/16 11:30:31  5-MIN KAVL 211630Z VRB03KT 10SM FEW049 SCT060 BKN080 22/14 A3001 2090 63 3400 VRB/03 RMK AO2 T02170144
03812KAVL AVL20160521113512105/21/16 11:35:31  5-MIN KAVL 211635Z 34007KT 10SM FEW049 SCT060 BKN075 22/15 A3001 2090 63 3400 350/07 RMK AO2 T02220150
03812KAVL AVL20160521114012105/21/16 11:40:31  5-MIN KAVL 211640Z 34005KT 10SM FEW049 SCT060 SCT080 22/14 A3000 2090 61 3400 350/05 RMK AO2 T02220144
03812KAVL AVL20160521114511405/21/16 11:45:31  5-MIN KAVL 211645Z 33007KT 10SM FEW049 FEW060 22/15 A3000 2090 63 3400 340/07 RMK AO2 T02220150
03812KAVL AVL20160521115012105/21/16 11:50:31  5-MIN KAVL 211650Z 33007KT 10SM FEW049 SCT060 22/14 A3000 2100 61 3400 330/07 RMK AO2 SLP140 T02220144
03812KAVL AVL20160521115511405/21/16 11:55:31  5-MIN KAVL 211655Z 35006KT 10SM FEW049 FEW090 22/14 A2999 2100 61 3500 350/06 RMK AO2 T02220144
03812KAVL AVL20160521120013705/21/16 12:00:31  5-MIN KAVL 211700Z 33007KT 310V010 10SM FEW049 FEW070 SCT090 23/14 A2999 2100 59 3500 340/07 320V020 RMK AO2 T02280144
03812KAVL AVL20160521120512105/21/16 12:05:31  5-MIN KAVL 211705Z 01006KT 10SM FEW047 SCT070 SCT090 22/14 A2999 2100 59 3500 020/06 RMK AO2 T02220139
03812KAVL AVL20160521121012105/21/16 12:10:31  5-MIN KAVL 211710Z 33007KT 10SM FEW047 SCT065 BKN090 22/14 A2999 2100 59 3500 340/07 RMK AO2 T02220139
03812KAVL AVL20160521121512105/21/16 12:15:31  5-MIN KAVL 211715Z 36005KT 10SM SCT055 BKN070 BKN090 22/14 A2999 2110 61 3400 010/05 RMK AO2 T02170139
03812KAVL AVL20160521122012105/21/16 12:20:31  5-MIN KAVL 211720Z 36008KT 10SM FEW046 SCT055 BKN065 22/13 A2998 2110 58 3400 010/08 RMK AO2 T02170133
03812KAVL AVL20160521122512105/21/16 12:25:31  5-MIN KAVL 211725Z VRB05KT 10SM SCT044 BKN060 OVC090 22/13 A2998 2110 58 3400 VRB/05 RMK AO2 T02170133
03812KAVL AVL20160521123012105/21/16 12:30:31  5-MIN KAVL 211730Z 35007KT 10SM FEW044 BKN060 OVC090 22/13 A2998 2110 58 3400 360/07 RMK AO2 T02170133
03812KAVL AVL20160521123512105/21/16 12:35:31  5-MIN KAVL 211735Z 36007KT 10SM FEW045 BKN060 OVC075 22/13 A2998 2110 58 3400 010/07 RMK AO2 T02170133
03812KAVL AVL20160521124012105/21/16 12:40:31  5-MIN KAVL 211740Z 36008KT 10SM SCT047 BKN055 OVC070 21/13 A2998 2110 61 3300 360/08 RMK AO2 T02110133
03812KAVL AVL20160521124511405/21/16 12:45:31  5-MIN KAVL 211745Z 34009KT 10SM BKN046 OVC060 21/13 A2998 2110 61 3300 350/09 RMK AO2 T02110133
03812KAVL AVL20160521125014605/21/16 12:50:31  5-MIN KAVL 211750Z 35007KT 10SM SCT046 BKN055 OVC070 21/13 A2997 2120 58 3400 360/07 RMK AO2 SLP132 T02110128 10228 20128 58004
03812KAVL AVL20160521125512105/21/16 12:55:31  5-MIN KAVL 211755Z 36008KT 10SM SCT046 BKN060 OVC075 21/13 A2997 2120 58 3400 360/08 RMK AO2 T02110128
03812KAVL AVL20160521130012105/21/16 13:00:31  5-MIN KAVL 211800Z 34007KT 10SM FEW040 BKN048 OVC060 21/13 A2997 2120 58 3400 350/07 RMK AO2 T02110128
03812KAVL AVL20160521130512105/21/16 13:05:31  5-MIN KAVL 211805Z 33004KT 10SM BKN045 BKN055 OVC065 22/14 A2997 2120 59 3500 340/04 RMK AO2 T02220139
03812KAVL AVL20160521131011405/21/16 13:10:31  5-MIN KAVL 211810Z VRB05KT 10SM SCT045 BKN060 23/14 A2996 2130 57 3600 VRB/05 RMK AO2 T02280139
03812KAVL AVL20160521131511405/21/16 13:15:31  5-MIN KAVL 211815Z 36005KT 10SM FEW045 BKN060 23/13 A2996 2130 53 3600 010/05 RMK AO2 T02330133
03812KAVL AVL20160521132011405/21/16 13:20:31  5-MIN KAVL 211820Z VRB04KT 10SM FEW045 SCT060 24/14 A2996 2130 53 3700 VRB/04 RMK AO2 T02390139
03812KAVL AVL20160521132512105/21/16 13:25:31  5-MIN KAVL 211825Z 02008KT 10SM SCT040 SCT047 BKN055 23/14 A2996 2130 55 3600 020/08 RMK AO2 T02330139
03812KAVL AVL20160521133012105/21/16 13:30:31  5-MIN KAVL 211830Z 01010KT 10SM SCT037 SCT044 BKN090 22/13 A2996 2130 56 3500 010/10 RMK AO2 T02220133
03812KAVL AVL20160521133512105/21/16 13:35:31  5-MIN KAVL 211835Z 01007KT 10SM FEW037 SCT049 BKN080 22/13 A2996 2130 56 3400 010/07 RMK AO2 T02170128
03812KAVL AVL20160521134012105/21/16 13:40:31  5-MIN KAVL 211840Z 35008KT 10SM FEW039 SCT070 BKN080 22/13 A2996 2130 56 3400 350/08 RMK AO2 T02170128
03812KAVL AVL20160521134512105/21/16 13:45:31  5-MIN KAVL 211845Z 36009KT 10SM FEW039 SCT070 BKN085 22/13 A2995 2140 56 3400 010/09 RMK AO2 T02170128
03812KAVL AVL20160521135012805/21/16 13:50:31  5-MIN KAVL 211850Z 35009KT 10SM FEW037 SCT048 OVC085 22/13 A2995 2140 58 3400 350/09 RMK AO2 SLP124 T02170133
03812KAVL AVL20160521135512105/21/16 13:55:31  5-MIN KAVL 211855Z 35006KT 10SM FEW039 BKN080 OVC090 22/13 A2995 2140 56 3400 350/06 RMK AO2 T02170128
03812KAVL AVL20160521140012105/21/16 14:00:31  5-MIN KAVL 211900Z VRB04KT 10SM SCT048 BKN065 OVC085 22/13 A2995 2140 56 3500 VRB/04 RMK AO2 T02220133
03812KAVL AVL20160521140512105/21/16 14:05:31  5-MIN KAVL 211905Z VRB03KT 10SM SCT048 BKN065 BKN085 23/14 A2995 2140 55 3600 VRB/03 RMK AO2 T02330139
03812KAVL AVL20160521141011405/21/16 14:10:31  5-MIN KAVL 211910Z 35006KT 10SM SCT049 SCT090 23/13 A2995 2140 53 3600 350/06 RMK AO2 T02330133
03812KAVL AVL20160521141511205/21/16 14:15:31  5-MIN KAVL 211915Z AUTO 35006KT 10SM SCT049 23/13 A2994 2150 53 3600 360/06 RMK AO2 T02330133
03812KAVL AVL20160521142012605/21/16 14:20:31  5-MIN KAVL 211920Z AUTO 32007KT 10SM FEW045 FEW049 SCT100 23/13 A2994 2150 53 3600 330/07 RMK AO2 T02330133
03812KAVL AVL20160521142511905/21/16 14:25:31  5-MIN KAVL 211925Z AUTO 30005KT 10SM FEW049 SCT100 23/13 A2994 2150 53 3600 310/05 RMK AO2 T02330133
03812KAVL AVL20160521143011905/21/16 14:30:31  5-MIN KAVL 211930Z AUTO 00000KT 10SM FEW060 SCT100 24/13 A2993 2160 51 3700 000/00 RMK AO2 T02390133
03812KAVL AVL20160521143512605/21/16 14:35:31  5-MIN KAVL 211935Z AUTO 33004KT 10SM FEW044 SCT060 SCT100 23/13 A2993 2160 53 3600 340/04 RMK AO2 T02280128
03812KAVL AVL20160521144013205/21/16 14:40:31  5-MIN KAVL 211940Z AUTO 36015G21KT 10SM SCT041 BKN060 BKN100 23/13 A2993 2160 53 3600 360/15G21 RMK AO2 T02280128
03812KAVL AVL20160521144513205/21/16 14:45:31  5-MIN KAVL 211945Z AUTO 36014G21KT 10SM BKN041 BKN060 BKN100 21/13 A2994 2150 58 3400 010/14G21 RMK AO2 T02110128
03812KAVL AVL20160521145015005/21/16 14:50:31  5-MIN KAVL 211950Z AUTO 35012G21KT 10SM BKN041 BKN060 BKN100 21/13 A2994 2150 60 3300 360/12G21 RMK AO2 LTG DSNT E SLP121 T02060128
03812KAVL AVL20160521145514305/21/16 14:55:31  5-MIN KAVL 211955Z AUTO 36012G17KT 10SM SCT040 BKN047 OVC060 21/13 A2994 2150 60 3300 010/12G17 RMK AO2 LTG DSNT E T02060128
03812KAVL AVL20160521150014305/21/16 15:00:31  5-MIN KAVL 212000Z AUTO 36011G20KT 10SM SCT040 BKN049 OVC060 21/13 A2994 2150 60 3300 010/11G20 RMK AO2 LTG DSNT E T02060128
03812KAVL AVL20160521150513205/21/16 15:05:31  5-MIN KAVL 212005Z AUTO 01011G20KT 10SM SCT040 BKN047 OVC060 21/13 A2994 2150 58 3400 020/11G20 RMK AO2 T02110128
03812KAVL AVL20160521151013205/21/16 15:10:31  5-MIN KAVL 212010Z AUTO 36012G19KT 10SM FEW040 SCT047 OVC065 22/13 A2993 2160 56 3500 360/12G19 RMK AO2 T02170128
03812KAVL AVL20160521151513205/21/16 15:15:31  5-MIN KAVL 212015Z AUTO 36012G19KT 10SM FEW046 BKN065 BKN080 23/14 A2993 2160 57 3600 010/12G19 RMK AO2 T02280139
03812KAVL AVL20160521152013205/21/16 15:20:31  5-MIN KAVL 212020Z AUTO 33017G22KT 10SM FEW046 SCT065 BKN080 23/13 A2994 2150 55 3600 340/17G22 RMK AO2 T02280133
03812KAVL AVL20160521152513205/21/16 15:25:31  5-MIN KAVL 212025Z AUTO 35014G22KT 10SM SCT065 SCT080 BKN095 22/13 A2993 2160 54 3500 350/14G22 RMK AO2 T02220128
03812KAVL AVL20160521153011905/21/16 15:30:31  5-MIN KAVL 212030Z AUTO 35012KT 10SM FEW070 SCT090 22/13 A2994 2150 54 3500 350/12 RMK AO2 T02220128
03812KAVL AVL20160521153511405/21/16 15:35:31  5-MIN KAVL 212035Z 34013KT 10SM SCT075 BKN095 22/13 A2994 2150 58 3500 340/13 RMK AO2 T02170133
03812KAVL AVL20160521154011405/21/16 15:40:31  5-MIN KAVL 212040Z 33012KT 10SM BKN075 BKN095 22/12 A2994 2150 52 3500 340/12 RMK AO2 T02220122
03812KAVL AVL20160521154512005/21/16 15:45:31  5-MIN KAVL 212045Z 35012G20KT 10SM BKN080 BKN090 22/12 A2994 2150 52 3500 360/12G20 RMK AO2 T02220122
03812KAVL AVL20160521155012605/21/16 15:50:31  5-MIN KAVL 212050Z 34013G20KT 10SM BKN080 22/12 A2994 2150 51 3500 340/13G20 RMK AO2 SLP118 T02220117 58018
03812KAVL AVL20160521155511305/21/16 15:55:31  5-MIN KAVL 212055Z 36009G17KT 10SM BKN080 23/12 A2993 2150 49 3600 010/09G17 RMK AO2 T02280117
03812KAVL AVL20160521160011305/21/16 16:00:31  5-MIN KAVL 212100Z 34009G17KT 10SM BKN080 23/12 A2993 2160 51 3600 350/09G17 RMK AO2 T02280122
03812KAVL AVL20160521160511305/21/16 16:05:31  5-MIN KAVL 212105Z 35009G16KT 10SM BKN080 23/12 A2993 2160 51 3600 360/09G16 RMK AO2 T02280122
03812KAVL AVL20160521161011305/21/16 16:10:31  5-MIN KAVL 212110Z 36011G17KT 10SM SCT080 23/12 A2993 2160 49 3600 360/11G17 RMK AO2 T02280117
03812KAVL AVL20160521161511405/21/16 16:15:31  5-MIN KAVL 212115Z 36010KT 10SM FEW070 FEW085 23/12 A2993 2160 49 3600 010/10 RMK AO2 T02280117
03812KAVL AVL20160521162010705/21/16 16:20:31  5-MIN KAVL 212120Z 35009KT 10SM FEW070 23/12 A2993 2160 49 3600 360/09 RMK AO2 T02280117
03812KAVL AVL20160521162510405/21/16 16:25:31  5-MIN KAVL 212125Z 36011KT 10SM CLR 23/12 A2993 2160 49 3600 010/11 RMK AO2 T02280117
03812KAVL AVL20160521163010405/21/16 16:30:31  5-MIN KAVL 212130Z 36011KT 10SM CLR 23/12 A2993 2160 49 3600 010/11 RMK AO2 T02280117
03812KAVL AVL20160521163510705/21/16 16:35:31  5-MIN KAVL 212135Z 36013KT 10SM FEW046 23/12 A2993 2160 49 3600 360/13 RMK AO2 T02280117
03812KAVL AVL20160521164010705/21/16 16:40:31  5-MIN KAVL 212140Z 36013KT 10SM FEW046 21/12 A2993 2160 54 3400 360/13 RMK AO2 T02110117
03812KAVL AVL20160521164510705/21/16 16:45:31  5-MIN KAVL 212145Z 34014KT 10SM SCT045 21/12 A2993 2160 56 3400 350/14 RMK AO2 T02110122
03812KAVL AVL20160521165011405/21/16 16:50:31  5-MIN KAVL 212150Z 36010KT 10SM SCT045 22/12 A2993 2160 54 3500 010/10 RMK AO2 SLP116 T02170122
03812KAVL AVL20160521165513205/21/16 16:55:31  5-MIN KAVL 212155Z 36009G16KT 10SM SCT043 SCT050 22/12 A2993 2160 54 3500 010/09G16 RMK AO2 LTG DSNT SE T02170122
03812KAVL AVL20160521170013205/21/16 17:00:31  5-MIN KAVL 212200Z 35010G16KT 10SM SCT043 SCT090 22/12 A2993 2160 54 3500 350/10G16 RMK AO2 LTG DSNT SE T02170122
03812KAVL AVL20160521170511905/21/16 17:05:31  5-MIN KAVL 212205Z 34010KT 10SM SCT045 22/12 A2993 2160 54 3500 340/10 RMK AO2 LTG DSNT SE T02170122
03812KAVL AVL20160521171011405/21/16 17:10:31  5-MIN KAVL 212210Z 33009KT 10SM FEW043 SCT085 21/12 A2993 2160 58 3300 340/09 RMK AO2 T02060122
03812KAVL AVL20160521171511405/21/16 17:15:31  5-MIN KAVL 212215Z 01007KT 10SM FEW043 SCT085 21/13 A2993 2160 60 3300 010/07 RMK AO2 T02060128
03812KAVL AVL20160521172010705/21/16 17:20:31  5-MIN KAVL 212220Z 36009KT 10SM BKN080 22/13 A2993 2160 56 3500 360/09 RMK AO2 T02170128
03812KAVL AVL20160521172510705/21/16 17:25:31  5-MIN KAVL 212225Z 36012KT 10SM BKN080 22/12 A2993 2160 54 3500 010/12 RMK AO2 T02170122
03812KAVL AVL20160521173011305/21/16 17:30:31  5-MIN KAVL 212230Z 36014G20KT 10SM BKN080 21/12 A2993 2160 54 3400 360/14G20 RMK AO2 T02110117
03812KAVL AVL20160521173511305/21/16 17:35:31  5-MIN KAVL 212235Z 01013G20KT 10SM SCT080 21/12 A2993 2160 54 3400 010/13G20 RMK AO2 T02110117
03812KAVL AVL20160521174011305/21/16 17:40:31  5-MIN KAVL 212240Z 36011G20KT 10SM SCT080 21/12 A2993 2160 56 3400 010/11G20 RMK AO2 T02110122
03812KAVL AVL20160521174510705/21/16 17:45:31  5-MIN KAVL 212245Z 36011KT 10SM FEW080 21/12 A2993 2160 58 3300 360/11 RMK AO2 T02060122
03812KAVL AVL20160521175012005/21/16 17:50:31  5-MIN KAVL 212250Z 35013G19KT 10SM FEW080 19/12 A2993 2160 60 3200 360/13G19 RMK AO2 SLP117 T01940117
03812KAVL AVL20160521175511005/21/16 17:55:31  5-MIN KAVL 212255Z 36010G19KT 10SM CLR 19/12 A2993 2160 60 3200 360/10G19 RMK AO2 T01940117
03812KAVL AVL20160521180011005/21/16 18:00:31  5-MIN KAVL 212300Z 01008G17KT 10SM CLR 19/12 A2993 2160 60 3200 010/08G17 RMK AO2 T01940117
03812KAVL AVL20160521180511005/21/16 18:05:31  5-MIN KAVL 212305Z 35013G18KT 10SM CLR 19/12 A2993 2160 60 3200 350/13G18 RMK AO2 T01940117
03812KAVL AVL20160521181011005/21/16 18:10:31  5-MIN KAVL 212310Z 35009G18KT 10SM CLR 19/12 A2993 2160 60 3200 350/09G18 RMK AO2 T01940117
03812KAVL AVL20160521181511005/21/16 18:15:31  5-MIN KAVL 212315Z 34015G18KT 10SM CLR 19/12 A2993 2160 60 3200 350/15G18 RMK AO2 T01940117
03812KAVL AVL20160521182011005/21/16 18:20:31  5-MIN KAVL 212320Z 34015G23KT 10SM CLR 19/11 A2992 2160 58 3200 350/15G23 RMK AO2 T01940111
03812KAVL AVL20160521182511305/21/16 18:25:31  5-MIN KAVL 212325Z 34018G23KT 10SM FEW085 19/11 A2993 2160 58 3200 350/18G23 RMK AO2 T01940111
03812KAVL AVL20160521183011305/21/16 18:30:31  5-MIN KAVL 212330Z 34016G23KT 10SM SCT080 19/11 A2993 2160 60 3200 350/16G23 RMK AO2 T01890111
03812KAVL AVL20160521183510705/21/16 18:35:31  5-MIN KAVL 212335Z 34019KT 10SM BKN075 19/11 A2993 2160 60 3200 350/19 RMK AO2 T01890111
03812KAVL AVL20160521184011305/21/16 18:40:31  5-MIN KAVL 212340Z 34015G23KT 10SM BKN075 19/11 A2993 2160 60 3100 350/15G23 RMK AO2 T01890111
03812KAVL AVL20160521184511305/21/16 18:45:31  5-MIN KAVL 212345Z 35013G20KT 10SM BKN080 19/12 A2993 2150 62 3100 350/13G20 RMK AO2 T01890117
03812KAVL AVL20160521185013805/21/16 18:50:31  5-MIN KAVL 212350Z 34012G20KT 10SM SCT080 18/12 A2994 2150 65 3100 340/12G20 RMK AO2 SLP122 T01830117 10244 20183 56012
03812KAVL AVL20160521185510705/21/16 18:55:31  5-MIN KAVL 212355Z 34009KT 10SM BKN080 18/12 A2994 2150 65 3100 350/09 RMK AO2 T01830117
03812KAVL AVL20160521190011305/21/16 19:00:31  5-MIN KAVL 220000Z 35012G18KT 10SM BKN080 18/12 A2994 2150 65 3100 360/12G18 RMK AO2 T01830117
03812KAVL AVL20160521190511305/21/16 19:05:31  5-MIN KAVL 220005Z 36012G18KT 10SM BKN080 18/11 A2994 2150 62 3100 010/12G18 RMK AO2 T01830111
03812KAVL AVL20160521191011305/21/16 19:10:31  5-MIN KAVL 220010Z 35012G18KT 10SM BKN085 18/11 A2995 2140 62 3100 360/12G18 RMK AO2 T01830111
03812KAVL AVL20160521191511305/21/16 19:15:31  5-MIN KAVL 220015Z 35015G22KT 10SM BKN080 18/12 A2994 2150 65 3100 360/15G22 RMK AO2 T01830117
03812KAVL AVL20160521192011305/21/16 19:20:31  5-MIN KAVL 220020Z 35014G22KT 10SM BKN080 18/11 A2995 2140 62 3100 360/14G22 RMK AO2 T01830111
03812KAVL AVL20160521192511305/21/16 19:25:31  5-MIN KAVL 220025Z 35013G20KT 10SM BKN080 18/11 A2995 2140 64 3000 360/13G20 RMK AO2 T01780111
03812KAVL AVL20160521193011305/21/16 19:30:31  5-MIN KAVL 220030Z 35013G20KT 10SM OVC080 18/11 A2995 2140 62 3000 360/13G20 RMK AO2 T01780106
03812KAVL AVL20160521193511305/21/16 19:35:31  5-MIN KAVL 220035Z 36011G20KT 10SM OVC080 18/11 A2995 2140 62 3000 010/11G20 RMK AO2 T01780106
03812KAVL AVL20160521194011305/21/16 19:40:31  5-MIN KAVL 220040Z 35013G20KT 10SM OVC080 18/11 A2995 2140 62 3000 360/13G20 RMK AO2 T01780106
03812KAVL AVL20160521194511305/21/16 19:45:31  5-MIN KAVL 220045Z 36012G20KT 10SM OVC080 18/11 A2996 2130 62 3000 360/12G20 RMK AO2 T01780106
03812KAVL AVL20160521195012005/21/16 19:50:31  5-MIN KAVL 220050Z 36013G19KT 10SM OVC080 17/11 A2996 2130 64 2900 360/13G19 RMK AO2 SLP129 T01720106
03812KAVL AVL20160521195511305/21/16 19:55:31  5-MIN KAVL 220055Z 36012G20KT 10SM OVC080 17/11 A2996 2130 64 2900 010/12G20 RMK AO2 T01720106
03812KAVL AVL20160521200011305/21/16 20:00:31  5-MIN KAVL 220100Z 36011G20KT 10SM OVC080 17/11 A2997 2130 64 2900 360/11G20 RMK AO2 T01720106
03812KAVL AVL20160521200511305/21/16 20:05:31  5-MIN KAVL 220105Z 35013G20KT 10SM OVC080 17/11 A2997 2120 64 2900 360/13G20 RMK AO2 T01720106
03812KAVL AVL20160521201011305/21/16 20:10:31  5-MIN KAVL 220110Z 35014G20KT 10SM OVC080 17/11 A2997 2120 64 2900 360/14G20 RMK AO2 T01720106
03812KAVL AVL20160521201511305/21/16 20:15:31  5-MIN KAVL 220115Z 36013G20KT 10SM OVC080 17/11 A2997 2120 64 2900 360/13G20 RMK AO2 T01720106
03812KAVL AVL20160521202011305/21/16 20:20:31  5-MIN KAVL 220120Z 36011G19KT 10SM OVC075 17/10 A2997 2120 62 2900 360/11G19 RMK AO2 T01720100
03812KAVL AVL20160521202512005/21/16 20:25:31  5-MIN KAVL 220125Z 35012G19KT 10SM SCT065 OVC080 17/10 A2997 2120 64 2800 360/12G19 RMK AO2 T01670100
03812KAVL AVL20160521203011405/21/16 20:30:31  5-MIN KAVL 220130Z 36013KT 10SM BKN065 OVC080 17/10 A2997 2120 64 2800 360/13 RMK AO2 T01670100
03812KAVL AVL20160521203512005/21/16 20:35:31  5-MIN KAVL 220135Z 36011G18KT 10SM BKN065 OVC080 17/10 A2997 2120 64 2800 010/11G18 RMK AO2 T01670100
03812KAVL AVL20160521204012005/21/16 20:40:31  5-MIN KAVL 220140Z 36011G18KT 10SM BKN065 OVC075 17/10 A2997 2120 64 2800 360/11G18 RMK AO2 T01670100
03812KAVL AVL20160521204511305/21/16 20:45:31  5-MIN KAVL 220145Z 36009G18KT 10SM OVC065 17/10 A2997 2120 64 2800 010/09G18 RMK AO2 T01670100
03812KAVL AVL20160521205011405/21/16 20:50:31  5-MIN KAVL 220150Z 36007KT 10SM OVC065 17/10 A2998 2120 64 2800 360/07 RMK AO2 SLP134 T01670100
03812KAVL AVL20160521205510705/21/16 20:55:31  5-MIN KAVL 220155Z 36008KT 10SM OVC070 17/09 A2998 2120 62 2800 360/08 RMK AO2 T01670094
03812KAVL AVL20160521210010705/21/16 21:00:31  5-MIN KAVL 220200Z 36010KT 10SM OVC070 16/09 A2998 2110 64 2800 010/10 RMK AO2 T01610094
03812KAVL AVL20160521210511405/21/16 21:05:31  5-MIN KAVL 220205Z 36009KT 10SM FEW041 OVC070 16/09 A2998 2110 64 2800 360/09 RMK AO2 T01610094
03812KAVL AVL20160521211011405/21/16 21:10:31  5-MIN KAVL 220210Z 36010KT 10SM FEW041 BKN070 16/09 A2998 2110 64 2800 360/10 RMK AO2 T01610094
03812KAVL AVL20160521211511305/21/16 21:15:31  5-MIN KAVL 220215Z 35012G17KT 10SM BKN070 16/09 A2998 2110 64 2800 360/12G17 RMK AO2 T01610094
03812KAVL AVL20160521212011305/21/16 21:20:31  5-MIN KAVL 220220Z 35011G17KT 10SM BKN070 16/09 A2998 2110 64 2800 360/11G17 RMK AO2 T01610094
03812KAVL AVL20160521212510705/21/16 21:25:31  5-MIN KAVL 220225Z 36010KT 10SM BKN065 16/09 A2998 2110 64 2800 360/10 RMK AO2 T01610094
03812KAVL AVL20160521213010705/21/16 21:30:31  5-MIN KAVL 220230Z 35011KT 10SM BKN065 16/09 A2998 2110 64 2800 360/11 RMK AO2 T01610094
03812KAVL AVL20160521213510705/21/16 21:35:31  5-MIN KAVL 220235Z 36010KT 10SM BKN065 16/09 A2998 2110 64 2800 010/10 RMK AO2 T01610094
03812KAVL AVL20160521214010705/21/16 21:40:31  5-MIN KAVL 220240Z 36010KT 10SM SCT065 16/09 A2998 2110 62 2800 360/10 RMK AO2 T01610089
03812KAVL AVL20160521214510705/21/16 21:45:31  5-MIN KAVL 220245Z 35009KT 10SM SCT065 16/09 A2998 2110 64 2700 360/09 RMK AO2 T01560089
03812KAVL AVL20160521215012605/21/16 21:50:31  5-MIN KAVL 220250Z 36013G19KT 10SM FEW060 16/09 A2998 2110 64 2700 360/13G19 RMK AO2 SLP133 T01560089 53002
03812KAVL AVL20160521215511505/21/16 21:55:31  5-MIN KAVL 220255Z AUTO 35011G19KT 10SM CLR 16/09 A2998 2120 64 2700 360/11G19 RMK AO2 T01560089
03812KAVL AVL20160521220011505/21/16 22:00:31  5-MIN KAVL 220300Z AUTO 35013G17KT 10SM CLR 16/09 A2998 2120 64 2700 350/13G17 RMK AO2 T01560089
03812KAVL AVL20160521220511805/21/16 22:05:31  5-MIN KAVL 220305Z AUTO 35009G17KT 10SM FEW048 16/09 A2998 2120 64 2700 360/09G17 RMK AO2 T01560089
03812KAVL AVL20160521221011205/21/16 22:10:31  5-MIN KAVL 220310Z AUTO 35008KT 10SM SCT048 16/09 A2998 2110 64 2700 360/08 RMK AO2 T01560089
03812KAVL AVL20160521221511205/21/16 22:15:31  5-MIN KAVL 220315Z AUTO 34010KT 10SM BKN048 16/09 A2998 2120 64 2700 350/10 RMK AO2 T01560089
03812KAVL AVL20160521222011205/21/16 22:20:31  5-MIN KAVL 220320Z AUTO 35010KT 10SM BKN048 16/09 A2998 2120 64 2700 350/10 RMK AO2 T01560089
03812KAVL AVL20160521222511205/21/16 22:25:31  5-MIN KAVL 220325Z AUTO 35008KT 10SM BKN048 16/09 A2998 2120 64 2700 350/08 RMK AO2 T01560089
03812KAVL AVL20160521223011205/21/16 22:30:31  5-MIN KAVL 220330Z AUTO 34010KT 10SM BKN048 16/09 A2998 2120 67 2700 350/10 RMK AO2 T01560094
03812KAVL AVL20160521223511205/21/16 22:35:31  5-MIN KAVL 220335Z AUTO 35010KT 10SM OVC048 16/09 A2997 2120 67 2700 350/10 RMK AO2 T01560094
03812KAVL AVL20160521224011205/21/16 22:40:31  5-MIN KAVL 220340Z AUTO 34012KT 10SM BKN046 16/09 A2997 2120 67 2700 340/12 RMK AO2 T01560094
03812KAVL AVL20160521224511205/21/16 22:45:31  5-MIN KAVL 220345Z AUTO 35009KT 10SM BKN048 15/09 A2997 2120 69 2700 350/09 RMK AO2 T01500094
03812KAVL AVL20160521225011905/21/16 22:50:31  5-MIN KAVL 220350Z AUTO 35008KT 10SM BKN048 16/09 A2997 2120 67 2700 350/08 RMK AO2 SLP129 T01560094
03812KAVL AVL20160521225511205/21/16 22:55:31  5-MIN KAVL 220355Z AUTO 34009KT 10SM BKN048 16/09 A2997 2120 67 2700 350/09 RMK AO2 T01560094
03812KAVL AVL20160521230011205/21/16 23:00:31  5-MIN KAVL 220400Z AUTO 35009KT 10SM BKN050 16/09 A2997 2120 67 2700 360/09 RMK AO2 T01560094
03812KAVL AVL20160521230511205/21/16 23:05:31  5-MIN KAVL 220405Z AUTO 35011KT 10SM BKN050 16/09 A2997 2120 67 2700 350/11 RMK AO2 T01560094
03812KAVL AVL20160521231011205/21/16 23:10:31  5-MIN KAVL 220410Z AUTO 35009KT 10SM BKN050 16/09 A2997 2120 67 2700 360/09 RMK AO2 T01560094
03812KAVL AVL20160521231511205/21/16 23:15:31  5-MIN KAVL 220415Z AUTO 34010KT 10SM OVC050 15/09 A2997 2120 69 2600 350/10 RMK AO2 T01500094
03812KAVL AVL20160521232011205/21/16 23:20:31  5-MIN KAVL 220420Z AUTO 35009KT 10SM OVC050 15/09 A2997 2120 69 2700 350/09 RMK AO2 T01500094
03812KAVL AVL20160521232511205/21/16 23:25:31  5-MIN KAVL 220425Z AUTO 35010KT 10SM OVC050 15/09 A2997 2120 69 2600 350/10 RMK AO2 T01500094
03812KAVL AVL20160521233011205/21/16 23:30:31  5-MIN KAVL 220430Z AUTO 34012KT 10SM OVC050 15/09 A2997 2120 69 2600 350/12 RMK AO2 T01500094
03812KAVL AVL20160521233511205/21/16 23:35:31  5-MIN KAVL 220435Z AUTO 34013KT 10SM OVC050 15/09 A2997 2120 69 2700 350/13 RMK AO2 T01500094
03812KAVL AVL20160521234011205/21/16 23:40:31  5-MIN KAVL 220440Z AUTO 34013KT 10SM OVC048 15/09 A2997 2120 69 2700 350/13 RMK AO2 T01500094
03812KAVL AVL20160521234511205/21/16 23:45:31  5-MIN KAVL 220445Z AUTO 34013KT 10SM BKN048 15/09 A2997 2120 69 2700 340/13 RMK AO2 T01500094
03812KAVL AVL20160521235012905/21/16 23:50:31  5-MIN KAVL 220450Z AUTO 34011KT 10SM BKN048 15/09 A2996 2130 69 2700 340/11 RMK AO2 SLP126 T01500094 402440122
03812KAVL AVL20160521235511205/21/16 23:55:31  5-MIN KAVL 220455Z AUTO 34010KT 10SM SCT048 14/09 A2996 2130 72 2600 350/10 RMK AO2 T01440094
03812KAVL AVL20160522000011205/22/16 00:00:31  5-MIN KAVL 220500Z AUTO 34012KT 10SM SCT048 14/09 A2996 2130 72 2600 340/12 RMK AO2 T01440094
03812KAVL AVL20160522000511205/22/16 00:05:31  5-MIN KAVL 220505Z AUTO 34012KT 10SM FEW048 14/09 A2996 2130 69 2600 350/12 RMK AO2 T01440089
03812KAVL AVL20160522001011205/22/16 00:10:31  5-MIN KAVL 220510Z AUTO 35011KT 10SM FEW048 14/09 A2996 2130 69 2600 350/11 RMK AO2 T01440089
03812KAVL AVL20160522001510905/22/16 00:15:31  5-MIN KAVL 220515Z AUTO 34012KT 10SM CLR 14/09 A2996 2130 72 2600 350/12 RMK AO2 T01440094
03812KAVL AVL20160522002011205/22/16 00:20:31  5-MIN KAVL 220520Z AUTO 34012KT 10SM FEW028 14/09 A2996 2140 72 2600 350/12 RMK AO2 T01440094
03812KAVL AVL20160522002511205/22/16 00:25:31  5-MIN KAVL 220525Z AUTO 34013KT 10SM SCT028 14/09 A2995 2140 72 2600 350/13 RMK AO2 T01440094
03812KAVL AVL20160522003011205/22/16 00:30:31  5-MIN KAVL 220530Z AUTO 34015KT 10SM FEW028 14/09 A2995 2140 72 2600 350/15 RMK AO2 T01440094
03812KAVL AVL20160522003511805/22/16 00:35:31  5-MIN KAVL 220535Z AUTO 34011G19KT 10SM SCT028 14/09 A2994 2150 72 2600 340/11G19 RMK AO2 T01440094
03812KAVL AVL20160522004011205/22/16 00:40:31  5-MIN KAVL 220540Z AUTO 34014KT 10SM SCT028 14/09 A2994 2150 72 2600 340/14 RMK AO2 T01440094
03812KAVL AVL20160522004511805/22/16 00:45:31  5-MIN KAVL 220545Z AUTO 34013G19KT 10SM SCT028 14/09 A2994 2150 72 2600 340/13G19 RMK AO2 T01440094
03812KAVL AVL20160522005014305/22/16 00:50:31  5-MIN KAVL 220550Z AUTO 34011G19KT 10SM FEW028 14/09 A2995 2140 72 2600 350/11G19 RMK AO2 SLP121 T01440094 10183 20144 51012
03812KAVL AVL20160522005511805/22/16 00:55:31  5-MIN KAVL 220555Z AUTO 34010G18KT 10SM FEW028 14/09 A2995 2140 72 2600 340/10G18 RMK AO2 T01440094
03812KAVL AVL20160522010011805/22/16 01:00:31  5-MIN KAVL 220600Z AUTO 34010G18KT 10SM FEW028 14/09 A2994 2150 72 2600 340/10G18 RMK AO2 T01440094
03812KAVL AVL20160522010511505/22/16 01:05:31  5-MIN KAVL 220605Z AUTO 35010G18KT 10SM CLR 14/09 A2995 2140 72 2600 350/10G18 RMK AO2 T01440094
03812KAVL AVL20160522011010905/22/16 01:10:31  5-MIN KAVL 220610Z AUTO 34009KT 10SM CLR 14/09 A2995 2140 72 2600 350/09 RMK AO2 T01440094
03812KAVL AVL20160522011510905/22/16 01:15:31  5-MIN KAVL 220615Z AUTO 34011KT 10SM CLR 14/09 A2995 2140 72 2600 340/11 RMK AO2 T01440094
03812KAVL AVL20160522012010905/22/16 01:20:31  5-MIN KAVL 220620Z AUTO 34012KT 10SM CLR 14/09 A2994 2150 72 2600 350/12 RMK AO2 T01440094
03812KAVL AVL20160522012511205/22/16 01:25:31  5-MIN KAVL 220625Z AUTO 34007KT 10SM FEW025 14/09 A2994 2150 72 2600 350/07 RMK AO2 T01440094
03812KAVL AVL20160522013011205/22/16 01:30:31  5-MIN KAVL 220630Z AUTO 01007KT 10SM SCT025 14/09 A2994 2150 72 2600 010/07 RMK AO2 T01440094
03812KAVL AVL20160522013511205/22/16 01:35:31  5-MIN KAVL 220635Z AUTO 36007KT 10SM BKN025 14/09 A2994 2150 72 2600 360/07 RMK AO2 T01440094
03812KAVL AVL20160522014011205/22/16 01:40:31  5-MIN KAVL 220640Z AUTO VRB04KT 10SM BKN025 14/09 A2994 2150 72 2600 VRB/04 RMK AO2 T01440094
03812KAVL AVL20160522014511205/22/16 01:45:31  5-MIN KAVL 220645Z AUTO 33008KT 10SM BKN025 14/09 A2993 2150 72 2600 340/08 RMK AO2 T01440094
03812KAVL AVL20160522015012505/22/16 01:50:31  5-MIN KAVL 220650Z AUTO 34010G16KT 10SM OVC025 14/09 A2993 2160 72 2600 340/10G16 RMK AO2 SLP116 T01440094
03812KAVL AVL20160522015511805/22/16 01:55:31  5-MIN KAVL 220655Z AUTO 34012G16KT 10SM BKN025 14/09 A2993 2160 72 2600 350/12G16 RMK AO2 T01440094
03812KAVL AVL20160522020011805/22/16 02:00:31  5-MIN KAVL 220700Z AUTO 33012G18KT 10SM BKN026 14/09 A2993 2160 72 2600 340/12G18 RMK AO2 T01440094
03812KAVL AVL20160522020511805/22/16 02:05:31  5-MIN KAVL 220705Z AUTO 36008G19KT 10SM BKN026 14/09 A2993 2160 72 2600 360/08G19 RMK AO2 T01440094
03812KAVL AVL20160522021012505/22/16 02:10:31  5-MIN KAVL 220710Z AUTO 35010G19KT 10SM BKN026 BKN032 14/09 A2993 2160 72 2600 360/10G19 RMK AO2 T01440094
03812KAVL AVL20160522021511205/22/16 02:15:31  5-MIN KAVL 220715Z AUTO 34009KT 10SM BKN028 14/09 A2993 2160 72 2600 350/09 RMK AO2 T01440094
03812KAVL AVL20160522022011205/22/16 02:20:31  5-MIN KAVL 220720Z AUTO 36006KT 10SM BKN030 14/09 A2993 2160 72 2600 360/06 RMK AO2 T01440094
03812KAVL AVL20160522022511205/22/16 02:25:31  5-MIN KAVL 220725Z AUTO 36008KT 10SM BKN030 14/09 A2993 2160 72 2600 360/08 RMK AO2 T01440094
03812KAVL AVL20160522023011205/22/16 02:30:31  5-MIN KAVL 220730Z AUTO 34006KT 10SM BKN030 14/09 A2993 2160 72 2600 350/06 RMK AO2 T01440094
03812KAVL AVL20160522023511205/22/16 02:35:31  5-MIN KAVL 220735Z AUTO 34006KT 10SM BKN032 14/09 A2993 2160 74 2600 350/06 RMK AO2 T01390094
03812KAVL AVL20160522024011205/22/16 02:40:31  5-MIN KAVL 220740Z AUTO 34008KT 10SM BKN032 14/09 A2993 2160 69 2600 340/08 RMK AO2 T01440089
03812KAVL AVL20160522024511205/22/16 02:45:31  5-MIN KAVL 220745Z AUTO 34005KT 10SM BKN034 14/09 A2993 2160 71 2600 350/05 RMK AO2 T01390089
03812KAVL AVL20160522025011905/22/16 02:50:31  5-MIN KAVL 220750Z AUTO 36006KT 10SM BKN034 14/09 A2993 2160 71 2600 010/06 RMK AO2 SLP118 T01390089
03812KAVL AVL20160522025511205/22/16 02:55:31  5-MIN KAVL 220755Z AUTO 35009KT 10SM SCT034 14/09 A2994 2150 71 2600 350/09 RMK AO2 T01390089
03812KAVL AVL20160522030011205/22/16 03:00:31  5-MIN KAVL 220800Z AUTO 35007KT 10SM SCT034 14/09 A2994 2150 71 2600 350/07 RMK AO2 T01390089
03812KAVL AVL20160522030511205/22/16 03:05:31  5-MIN KAVL 220805Z AUTO 35007KT 10SM SCT034 14/09 A2994 2150 71 2600 360/07 RMK AO2 T01390089
03812KAVL AVL20160522031011205/22/16 03:10:31  5-MIN KAVL 220810Z AUTO 01005KT 10SM FEW036 14/09 A2994 2150 71 2600 020/05 RMK AO2 T01390089
03812KAVL AVL20160522031510905/22/16 03:15:31  5-MIN KAVL 220815Z AUTO VRB05KT 10SM CLR 14/09 A2994 2150 71 2600 VRB/05 RMK AO2 T01390089
03812KAVL AVL20160522032010905/22/16 03:20:31  5-MIN KAVL 220820Z AUTO 36006KT 10SM CLR 14/09 A2994 2150 71 2600 010/06 RMK AO2 T01390089
03812KAVL AVL20160522032510905/22/16 03:25:31  5-MIN KAVL 220825Z AUTO 01006KT 10SM CLR 14/09 A2994 2150 71 2600 010/06 RMK AO2 T01390089
03812KAVL AVL20160522033010905/22/16 03:30:31  5-MIN KAVL 220830Z AUTO 01004KT 10SM CLR 14/09 A2994 2150 71 2600 020/04 RMK AO2 T01390089
03812KAVL AVL20160522033510905/22/16 03:35:31  5-MIN KAVL 220835Z AUTO 01005KT 10SM CLR 14/09 A2994 2150 71 2600 010/05 RMK AO2 T01390089
03812KAVL AVL20160522034010905/22/16 03:40:31  5-MIN KAVL 220840Z AUTO 35005KT 10SM CLR 14/09 A2993 2150 71 2600 350/05 RMK AO2 T01390089
03812KAVL AVL20160522034510905/22/16 03:45:31  5-MIN KAVL 220845Z AUTO 02005KT 10SM CLR 14/09 A2994 2150 71 2600 030/05 RMK AO2 T01390089
03812KAVL AVL20160522035012205/22/16 03:50:31  5-MIN KAVL 220850Z AUTO 01006KT 10SM CLR 14/09 A2993 2160 71 2600 020/06 RMK AO2 SLP116 T01390089 58010
03812KAVL AVL20160522035510905/22/16 03:55:31  5-MIN KAVL 220855Z AUTO 01007KT 10SM CLR 14/08 A2993 2160 69 2600 020/07 RMK AO2 T01390083
03812KAVL AVL20160522040010905/22/16 04:00:31  5-MIN KAVL 220900Z AUTO 01006KT 10SM CLR 14/08 A2993 2160 69 2600 010/06 RMK AO2 T01390083
03812KAVL AVL20160522040510905/22/16 04:05:31  5-MIN KAVL 220905Z AUTO 36008KT 10SM CLR 13/08 A2994 2150 71 2500 360/08 RMK AO2 T01330083
03812KAVL AVL20160522041010905/22/16 04:10:31  5-MIN KAVL 220910Z AUTO 36006KT 10SM CLR 13/08 A2993 2150 71 2500 360/06 RMK AO2 T01330083
03812KAVL AVL20160522041510905/22/16 04:15:31  5-MIN KAVL 220915Z AUTO 35007KT 10SM CLR 13/08 A2993 2160 71 2500 360/07 RMK AO2 T01330083
03812KAVL AVL20160522042010905/22/16 04:20:31  5-MIN KAVL 220920Z AUTO 35008KT 10SM CLR 13/08 A2993 2150 71 2500 350/08 RMK AO2 T01330083
03812KAVL AVL20160522042510905/22/16 04:25:31  5-MIN KAVL 220925Z AUTO 35007KT 10SM CLR 13/08 A2993 2160 71 2500 360/07 RMK AO2 T01330083
03812KAVL AVL20160522043010905/22/16 04:30:31  5-MIN KAVL 220930Z AUTO 36008KT 10SM CLR 13/08 A2994 2150 71 2500 360/08 RMK AO2 T01330083
03812KAVL AVL20160522043510905/22/16 04:35:31  5-MIN KAVL 220935Z AUTO 36009KT 10SM CLR 13/08 A2994 2150 71 2500 360/09 RMK AO2 T01330083
03812KAVL AVL20160522044010905/22/16 04:40:31  5-MIN KAVL 220940Z AUTO 35008KT 10SM CLR 13/09 A2994 2150 74 2500 360/08 RMK AO2 T01330089
03812KAVL AVL20160522044510905/22/16 04:45:31  5-MIN KAVL 220945Z AUTO 35009KT 10SM CLR 13/09 A2994 2150 74 2500 360/09 RMK AO2 T01330089
03812KAVL AVL20160522045011605/22/16 04:50:31  5-MIN KAVL 220950Z AUTO 36011KT 10SM CLR 13/09 A2994 2150 74 2500 360/11 RMK AO2 SLP120 T01330089
03812KAVL AVL20160522045511205/22/16 04:55:31  5-MIN KAVL 220955Z AUTO 36007KT 10SM SCT029 13/09 A2994 2150 74 2500 010/07 RMK AO2 T01330089
03812KAVL AVL20160522050011905/22/16 05:00:31  5-MIN KAVL 221000Z AUTO 35009KT 10SM SCT029 BKN037 13/09 A2994 2150 74 2500 360/09 RMK AO2 T01330089
03812KAVL AVL20160522050511905/22/16 05:05:31  5-MIN KAVL 221005Z AUTO 35008KT 10SM SCT028 BKN037 13/09 A2995 2140 74 2500 350/08 RMK AO2 T01330089
03812KAVL AVL20160522051011905/22/16 05:10:31  5-MIN KAVL 221010Z AUTO 35010KT 10SM SCT028 BKN039 13/09 A2995 2140 74 2500 360/10 RMK AO2 T01330089
03812KAVL AVL20160522051511905/22/16 05:15:31  5-MIN KAVL 221015Z AUTO 36011KT 10SM SCT028 BKN039 14/09 A2995 2140 71 2500 010/11 RMK AO2 T01390089
03812KAVL AVL20160522052012505/22/16 05:20:31  5-MIN KAVL 221020Z AUTO 35012G18KT 10SM SCT028 OVC039 14/09 A2995 2140 71 2500 360/12G18 RMK AO2 T01390089
03812KAVL AVL20160522052512005/22/16 05:25:31  5-MIN KAVL 221025Z 35010G18KT 10SM SCT028 OVC039 14/09 A2995 2140 71 2500 360/10G18 RMK AO2 T01390089
03812KAVL AVL20160522053011405/22/16 05:30:31  5-MIN KAVL 221030Z 36011KT 10SM SCT028 OVC037 14/09 A2995 2140 71 2500 010/11 RMK AO2 T01390089
03812KAVL AVL20160522053512105/22/16 05:35:31  5-MIN KAVL 221035Z 36010KT 10SM FEW024 SCT028 OVC037 14/09 A2995 2140 71 2500 010/10 RMK AO2 T01390089
03812KAVL AVL20160522054012705/22/16 05:40:31  5-MIN KAVL 221040Z 35009G17KT 10SM SCT021 BKN029 OVC037 14/09 A2996 2130 71 2500 360/09G17 RMK AO2 T01390089
03812KAVL AVL20160522054512705/22/16 05:45:31  5-MIN KAVL 221045Z 35015G20KT 10SM SCT021 BKN029 OVC037 14/09 A2996 2130 71 2500 350/15G20 RMK AO2 T01390089
03812KAVL AVL20160522055015205/22/16 05:50:31  5-MIN KAVL 221050Z 34018G26KT 10SM BKN021 BKN029 OVC035 14/09 A2996 2130 71 2500 350/18G26 RMK AO2 PK WND 34026/1050 SLP128 T01390089
03812KAVL AVL20160522055512705/22/16 05:55:31  5-MIN KAVL 221055Z 35011G26KT 10SM BKN021 BKN027 OVC035 14/09 A2996 2130 71 2500 350/11G26 RMK AO2 T01390089
03812KAVL AVL20160522060012005/22/16 06:00:31  5-MIN KAVL 221100Z 35014G22KT 10SM BKN021 OVC027 13/09 A2997 2130 74 2500 360/14G22 RMK AO2 T01330089
03812KAVL AVL20160522060514505/22/16 06:05:31  5-MIN KAVL 221105Z 34012G26KT 10SM BKN021 BKN027 OVC031 13/09 A2997 2120 74 2500 350/12G26 RMK AO2 PK WND 34026/1101 T01330089
03812KAVL AVL20160522061013805/22/16 06:10:31  5-MIN KAVL 221110Z 36015G26KT 10SM BKN021 OVC028 13/08 A2997 2120 71 2500 010/15G26 RMK AO2 PK WND 34026/1101 T01330083
03812KAVL AVL20160522061513805/22/16 06:15:31  5-MIN KAVL 221115Z 34015G24KT 10SM SCT021 BKN028 13/08 A2997 2120 71 2500 350/15G24 RMK AO2 PK WND 34026/1101 T01330083
03812KAVL AVL20160522062013805/22/16 06:20:31  5-MIN KAVL 221120Z 34010G22KT 10SM FEW021 BKN028 13/08 A2997 2120 71 2500 350/10G22 RMK AO2 PK WND 34026/1101 T01330083
03812KAVL AVL20160522062513805/22/16 06:25:31  5-MIN KAVL 221125Z 34017G20KT 10SM SCT025 BKN030 13/08 A2996 2130 71 2500 350/17G20 RMK AO2 PK WND 34026/1101 T01330083
03812KAVL AVL20160522063013805/22/16 06:30:31  5-MIN KAVL 221130Z 34017G22KT 10SM SCT025 BKN031 13/08 A2996 2130 71 2500 350/17G22 RMK AO2 PK WND 34026/1101 T01330083
03812KAVL AVL20160522063513805/22/16 06:35:31  5-MIN KAVL 221135Z 34019G23KT 10SM SCT025 BKN031 13/08 A2996 2130 71 2500 340/19G23 RMK AO2 PK WND 34026/1101 T01330083
03812KAVL AVL20160522064013805/22/16 06:40:31  5-MIN KAVL 221140Z 34021G27KT 10SM SCT025 SCT031 13/08 A2996 2130 69 2500 350/21G27 RMK AO2 PK WND 35027/1139 T01330078
03812KAVL AVL20160522064513805/22/16 06:45:31  5-MIN KAVL 221145Z 36016G27KT 10SM FEW025 SCT031 13/08 A2997 2130 69 2500 360/16G27 RMK AO2 PK WND 35027/1139 T01330078
03812KAVL AVL20160522065016305/22/16 06:50:31  5-MIN KAVL 221150Z 35016G25KT 10SM FEW023 FEW031 13/08 A2997 2130 69 2500 350/16G25 RMK AO2 PK WND 35027/1139 SLP131 T01330078 10144 20133 56004
03812KAVL AVL20160522065511305/22/16 06:55:31  5-MIN KAVL 221155Z 34019G23KT 10SM FEW023 13/08 A2996 2130 69 2500 340/19G23 RMK AO2 T01330078
03812KAVL AVL20160522070010705/22/16 07:00:31  5-MIN KAVL 221200Z 33018KT 10SM FEW023 13/08 A2996 2130 69 2500 340/18 RMK AO2 T01330078
03812KAVL AVL20160522070512805/22/16 07:05:31  5-MIN KAVL 221205Z 34017G28KT 10SM CLR 14/08 A2996 2130 66 2500 340/17G28 RMK AO2 PK WND 33028/1203 T01390078
03812KAVL AVL20160522071012805/22/16 07:10:31  5-MIN KAVL 221210Z 34020G28KT 10SM CLR 14/08 A2996 2130 66 2500 340/20G28 RMK AO2 PK WND 33028/1203 T01390078
03812KAVL AVL20160522071512805/22/16 07:15:31  5-MIN KAVL 221215Z 33019G27KT 10SM CLR 14/08 A2996 2130 66 2500 340/19G27 RMK AO2 PK WND 33028/1203 T01390078
03812KAVL AVL20160522072012805/22/16 07:20:31  5-MIN KAVL 221220Z 34019G27KT 10SM CLR 14/08 A2996 2130 64 2600 340/19G27 RMK AO2 PK WND 33028/1203 T01440078
03812KAVL AVL20160522072512805/22/16 07:25:31  5-MIN KAVL 221225Z 34020G31KT 10SM CLR 14/08 A2996 2130 66 2500 340/20G31 RMK AO2 PK WND 32031/1223 T01390078
03812KAVL AVL20160522073012805/22/16 07:30:31  5-MIN KAVL 221230Z 35017G31KT 10SM CLR 14/08 A2996 2130 66 2500 350/17G31 RMK AO2 PK WND 32031/1223 T01390078
03812KAVL AVL20160522073512805/22/16 07:35:31  5-MIN KAVL 221235Z 34016G27KT 10SM CLR 14/08 A2997 2130 64 2600 350/16G27 RMK AO2 PK WND 32031/1223 T01440078
03812KAVL AVL20160522074012805/22/16 07:40:31  5-MIN KAVL 221240Z 34020G27KT 10SM CLR 14/08 A2997 2120 64 2600 350/20G27 RMK AO2 PK WND 32031/1223 T01440078
03812KAVL AVL20160522074512805/22/16 07:45:31  5-MIN KAVL 221245Z 34021G28KT 10SM CLR 14/08 A2997 2120 64 2600 350/21G28 RMK AO2 PK WND 32031/1223 T01440078
03812KAVL AVL20160522075013505/22/16 07:50:31  5-MIN KAVL 221250Z 34022G29KT 10SM CLR 15/08 A2997 2130 62 2700 350/22G29 RMK AO2 PK WND 32031/1223 SLP131 T01500078
03812KAVL AVL20160522075512805/22/16 07:55:31  5-MIN KAVL 221255Z 33025G33KT 10SM CLR 15/08 A2996 2130 62 2700 340/25G33 RMK AO2 PK WND 33029/1255 T01500078
03812KAVL AVL20160522080012805/22/16 08:00:31  5-MIN KAVL 221300Z 34022G33KT 10SM CLR 15/08 A2996 2130 62 2700 340/22G33 RMK AO2 PK WND 34032/1258 T01500078
03812KAVL AVL20160522080512805/22/16 08:05:31  5-MIN KAVL 221305Z 33022G34KT 10SM CLR 16/08 A2996 2130 59 2700 340/22G34 RMK AO2 PK WND 33034/1301 T01560078
03812KAVL AVL20160522081012805/22/16 08:10:31  5-MIN KAVL 221310Z 34022G34KT 10SM CLR 16/08 A2997 2120 59 2700 350/22G34 RMK AO2 PK WND 33034/1301 T01560078
03812KAVL AVL20160522081512805/22/16 08:15:31  5-MIN KAVL 221315Z 33025G31KT 10SM CLR 16/08 A2997 2120 59 2700 340/25G31 RMK AO2 PK WND 33034/1301 T01560078
03812KAVL AVL20160522082012805/22/16 08:20:31  5-MIN KAVL 221320Z 33024G30KT 10SM CLR 16/08 A2997 2120 59 2700 340/24G30 RMK AO2 PK WND 33034/1301 T01560078
03812KAVL AVL20160522082512805/22/16 08:25:31  5-MIN KAVL 221325Z 34027G34KT 10SM CLR 16/08 A2997 2120 59 2700 340/27G34 RMK AO2 PK WND 33034/1301 T01560078
03812KAVL AVL20160522083012805/22/16 08:30:31  5-MIN KAVL 221330Z 34023G34KT 10SM CLR 16/08 A2998 2120 59 2700 350/23G34 RMK AO2 PK WND 33034/1301 T01560078
03812KAVL AVL20160522083512805/22/16 08:35:31  5-MIN KAVL 221335Z 34016G29KT 10SM CLR 16/08 A2998 2110 59 2700 350/16G29 RMK AO2 PK WND 33034/1301 T01560078
03812KAVL AVL20160522084012805/22/16 08:40:31  5-MIN KAVL 221340Z 34020G29KT 10SM CLR 16/08 A2998 2110 57 2800 340/20G29 RMK AO2 PK WND 33034/1301 T01610078
03812KAVL AVL20160522084512805/22/16 08:45:31  5-MIN KAVL 221345Z 33021G29KT 10SM CLR 16/08 A2998 2110 57 2800 340/21G29 RMK AO2 PK WND 33034/1301 T01610078
03812KAVL AVL20160522085013505/22/16 08:50:31  5-MIN KAVL 221350Z 34020G29KT 10SM CLR 16/08 A2999 2100 57 2800 350/20G29 RMK AO2 PK WND 33034/1301 SLP138 T01610078
03812KAVL AVL20160522085511305/22/16 08:55:31  5-MIN KAVL 221355Z 34021G29KT 10SM FEW030 16/08 A2999 2100 59 2700 340/21G29 RMK AO2 T01560078
03812KAVL AVL20160522090013805/22/16 09:00:31  5-MIN KAVL 221400Z 35016G28KT 10SM FEW030 FEW037 16/07 A3000 2100 57 2700 350/16G28 RMK AO2 PK WND 34026/1356 T01560072
03812KAVL AVL20160522090513105/22/16 09:05:31  5-MIN KAVL 221405Z 34017G26KT 10SM SCT037 15/07 A3000 2090 59 2600 350/17G26 RMK AO2 PK WND 34026/1356 T01500072
03812KAVL AVL20160522091013105/22/16 09:10:31  5-MIN KAVL 221410Z 36014G22KT 10SM SCT035 15/07 A3000 2090 59 2600 010/14G22 RMK AO2 PK WND 34026/1356 T01500072
03812KAVL AVL20160522091513105/22/16 09:15:31  5-MIN KAVL 221415Z 36013G21KT 10SM SCT037 15/07 A3001 2090 59 2600 360/13G21 RMK AO2 PK WND 34026/1356 T01500072
03812KAVL AVL20160522092013105/22/16 09:20:31  5-MIN KAVL 221420Z 36012G23KT 10SM BKN037 15/07 A3000 2090 59 2600 010/12G23 RMK AO2 PK WND 34026/1356 T01500072
03812KAVL AVL20160522092513805/22/16 09:25:31  5-MIN KAVL 221425Z 36012G23KT 10SM BKN037 BKN046 16/07 A3001 2090 57 2700 010/12G23 RMK AO2 PK WND 34026/1356 T01560072
03812KAVL AVL20160522093013805/22/16 09:30:31  5-MIN KAVL 221430Z 01013G29KT 10SM BKN035 BKN043 15/07 A3001 2090 59 2600 010/13G29 RMK AO2 PK WND 33029/1426 T01500072
03812KAVL AVL20160522093513805/22/16 09:35:31  5-MIN KAVL 221435Z 36012G29KT 10SM BKN037 BKN044 16/07 A3001 2090 55 2700 010/12G29 RMK AO2 PK WND 33029/1426 T01560067
03812KAVL AVL20160522094014505/22/16 09:40:31  5-MIN KAVL 221440Z 33017G22KT 10SM FEW030 BKN038 BKN045 16/07 A3001 2090 55 2700 340/17G22 RMK AO2 PK WND 33029/1426 T01610072
03812KAVL AVL20160522094513805/22/16 09:45:31  5-MIN KAVL 221445Z 35014G22KT 10SM BKN035 BKN043 16/07 A3001 2090 57 2700 350/14G22 RMK AO2 PK WND 33029/1426 T01560072
03812KAVL AVL20160522095015105/22/16 09:50:31  5-MIN KAVL 221450Z 34016G21KT 10SM BKN037 BKN047 16/07 A3001 2090 55 2700 350/16G21 RMK AO2 PK WND 33029/1426 SLP145 T01610072 51010
03812KAVL AVL20160522095512005/22/16 09:55:31  5-MIN KAVL 221455Z 35015G21KT 10SM BKN037 BKN047 16/07 A3001 2080 55 2700 360/15G21 RMK AO2 T01610072
03812KAVL AVL20160522100012005/22/16 10:00:31  5-MIN KAVL 221500Z 36014G21KT 10SM BKN037 OVC047 16/07 A3001 2080 55 2700 360/14G21 RMK AO2 T01560067
03812KAVL AVL20160522100512705/22/16 10:05:31  5-MIN KAVL 221505Z 35011G21KT 10SM FEW030 BKN037 BKN047 16/07 A3001 2080 55 2700 360/11G21 RMK AO2 T01560067
03812KAVL AVL20160522101012005/22/16 10:10:31  5-MIN KAVL 221510Z 35016G21KT 10SM BKN039 OVC047 16/07 A3001 2080 53 2700 350/16G21 RMK AO2 T01610067
03812KAVL AVL20160522101512005/22/16 10:15:31  5-MIN KAVL 221515Z 35015G24KT 10SM BKN039 OVC047 17/07 A3001 2080 53 2800 350/15G24 RMK AO2 T01670072
03812KAVL AVL20160522102012005/22/16 10:20:31  5-MIN KAVL 221520Z 36018G24KT 10SM BKN039 OVC047 17/07 A3001 2080 51 2800 360/18G24 RMK AO2 T01670067
03812KAVL AVL20160522102512005/22/16 10:25:31  5-MIN KAVL 221525Z 35014G23KT 10SM BKN039 BKN047 17/07 A3001 2080 49 2900 350/14G23 RMK AO2 T01720067
03812KAVL AVL20160522103012005/22/16 10:30:31  5-MIN KAVL 221530Z 01013G20KT 10SM BKN039 BKN047 17/07 A3001 2080 51 2900 010/13G20 RMK AO2 T01720072
03812KAVL AVL20160522103512005/22/16 10:35:31  5-MIN KAVL 221535Z 35015G21KT 10SM BKN039 BKN047 17/07 A3001 2080 49 2900 360/15G21 RMK AO2 T01720067
03812KAVL AVL20160522104011305/22/16 10:40:31  5-MIN KAVL 221540Z 35014G21KT 10SM BKN039 17/07 A3001 2080 49 2900 360/14G21 RMK AO2 T01720067
03812KAVL AVL20160522104513105/22/16 10:45:31  5-MIN KAVL 221545Z 32020G26KT 10SM BKN039 17/07 A3001 2080 51 2900 330/20G26 RMK AO2 PK WND 32026/1545 T01720072
03812KAVL AVL20160522105013805/22/16 10:50:31  5-MIN KAVL 221550Z 33018G26KT 10SM BKN042 18/07 A3002 2080 49 2900 340/18G26 RMK AO2 PK WND 32026/1545 SLP147 T01780072
03812KAVL AVL20160522105511305/22/16 10:55:31  5-MIN KAVL 221555Z 33018G23KT 10SM BKN042 18/07 A3001 2080 48 3000 340/18G23 RMK AO2 T01830072
03812KAVL AVL20160522110011305/22/16 11:00:31  5-MIN KAVL 221600Z 34019G25KT 10SM BKN040 18/07 A3001 2080 48 2900 340/19G25 RMK AO2 T01780067
03812KAVL AVL20160522110511305/22/16 11:05:31  5-MIN KAVL 221605Z 35013G25KT 10SM BKN042 18/07 A3001 2080 48 2900 360/13G25 RMK AO2 T01780067
03812KAVL AVL20160522111012005/22/16 11:10:31  5-MIN KAVL 221610Z 33018G25KT 10SM BKN042 BKN048 18/07 A3001 2080 48 2900 330/18G25 RMK AO2 T01780067
03812KAVL AVL20160522111512005/22/16 11:15:31  5-MIN KAVL 221615Z 35016G25KT 10SM BKN041 BKN048 18/08 A3001 2080 50 3000 350/16G25 RMK AO2 T01830078
03812KAVL AVL20160522112012005/22/16 11:20:31  5-MIN KAVL 221620Z 35014G23KT 10SM BKN041 BKN048 18/07 A3001 2090 48 2900 360/14G23 RMK AO2 T01780067
03812KAVL AVL20160522112512005/22/16 11:25:31  5-MIN KAVL 221625Z 34017G23KT 10SM BKN043 BKN050 18/07 A3001 2080 48 2900 340/17G23 RMK AO2 T01780067
03812KAVL AVL20160522113012005/22/16 11:30:31  5-MIN KAVL 221630Z 35013G23KT 10SM BKN043 BKN050 18/07 A3001 2090 46 3000 360/13G23 RMK AO2 T01830067
03812KAVL AVL20160522113512005/22/16 11:35:31  5-MIN KAVL 221635Z 33017G23KT 10SM BKN041 BKN050 18/07 A3001 2090 48 2900 330/17G23 RMK AO2 T01780067
03812KAVL AVL20160522114012005/22/16 11:40:31  5-MIN KAVL 221640Z 33019G23KT 10SM BKN043 BKN050 18/07 A3001 2090 48 2900 340/19G23 RMK AO2 T01780067
03812KAVL AVL20160522114512005/22/16 11:45:31  5-MIN KAVL 221645Z 34015G25KT 10SM BKN042 BKN049 19/07 A3000 2090 46 3100 350/15G25 RMK AO2 T01890072
03812KAVL AVL20160522115012005/22/16 11:50:31  5-MIN KAVL 221650Z 34021G25KT 10SM BKN042 19/07 A3000 2090 46 3100 340/21G25 RMK AO2 SLP142 T01890072
03812KAVL AVL20160522115511305/22/16 11:55:31  5-MIN KAVL 221655Z 33017G25KT 10SM BKN042 19/07 A3000 2090 44 3100 340/17G25 RMK AO2 T01890067
03812KAVL AVL20160522120012005/22/16 12:00:31  5-MIN KAVL 221700Z 34017G22KT 10SM BKN042 BKN050 19/07 A3000 2090 46 3100 350/17G22 RMK AO2 T01890072
03812KAVL AVL20160522120512005/22/16 12:05:31  5-MIN KAVL 221705Z 34015G25KT 10SM BKN044 BKN050 18/07 A3000 2100 46 3000 350/15G25 RMK AO2 T01830067
03812KAVL AVL20160522121011305/22/16 12:10:31  5-MIN KAVL 221710Z 33018G25KT 10SM BKN044 19/07 A3000 2100 44 3100 340/18G25 RMK AO2 T01890067
03812KAVL AVL20160522121511305/22/16 12:15:31  5-MIN KAVL 221715Z 32019G24KT 10SM BKN044 19/07 A3000 2100 44 3100 330/19G24 RMK AO2 T01890067
03812KAVL AVL20160522122011305/22/16 12:20:31  5-MIN KAVL 221720Z 34011G23KT 10SM BKN046 19/07 A3000 2100 44 3100 350/11G23 RMK AO2 T01940072
03812KAVL AVL20160522122511305/22/16 12:25:31  5-MIN KAVL 221725Z 33016G22KT 10SM BKN046 19/07 A3000 2100 44 3100 340/16G22 RMK AO2 T01890067
03812KAVL AVL20160522123013805/22/16 12:30:31  5-MIN KAVL 221730Z 31020G26KT 10SM BKN046 BKN055 19/07 A2999 2100 44 3100 320/20G26 RMK AO2 PK WND 31026/1730 T01890067
03812KAVL AVL20160522123513105/22/16 12:35:31  5-MIN KAVL 221735Z 32014G26KT 10SM BKN046 19/07 A2999 2100 46 3100 320/14G26 RMK AO2 PK WND 31026/1730 T01890072
03812KAVL AVL20160522124013105/22/16 12:40:31  5-MIN KAVL 221740Z 33018G25KT 10SM BKN046 19/07 A2999 2100 44 3100 340/18G25 RMK AO2 PK WND 31026/1730 T01940072
03812KAVL AVL20160522124513105/22/16 12:45:31  5-MIN KAVL 221745Z 36015G29KT 10SM SCT046 19/07 A2999 2100 43 3100 360/15G29 RMK AO2 PK WND 33029/1742 T01940067
03812KAVL AVL20160522125015605/22/16 12:50:31  5-MIN KAVL 221750Z 34021G29KT 10SM SCT046 19/06 A2999 2100 41 3100 350/21G29 RMK AO2 PK WND 33029/1742 SLP139 T01940061 10194 20133 53015
03812KAVL AVL20160522125511305/22/16 12:55:31  5-MIN KAVL 221755Z 36017G27KT 10SM SCT048 19/06 A2999 2100 41 3100 360/17G27 RMK AO2 T01940061
03812KAVL AVL20160522130011305/22/16 13:00:31  5-MIN KAVL 221800Z 33017G24KT 10SM SCT048 19/06 A2999 2100 40 3100 340/17G24 RMK AO2 T01940056
03812KAVL AVL20160522130511305/22/16 13:05:31  5-MIN KAVL 221805Z 33019G24KT 10SM SCT050 19/06 A2999 2110 41 3100 340/19G24 RMK AO2 T01940061
03812KAVL AVL20160522131013105/22/16 13:10:31  5-MIN KAVL 221810Z 35019G26KT 10SM SCT050 20/06 A2999 2110 40 3200 350/19G26 RMK AO2 PK WND 36026/1809 T02000061
03812KAVL AVL20160522131513105/22/16 13:15:31  5-MIN KAVL 221815Z 34019G26KT 10SM SCT050 21/06 A2999 2110 38 3300 350/19G26 RMK AO2 PK WND 33026/1812 T02060061
03812KAVL AVL20160522132013105/22/16 13:20:31  5-MIN KAVL 221820Z 34017G26KT 10SM SCT050 20/06 A2998 2110 38 3200 340/17G26 RMK AO2 PK WND 33026/1812 T02000056
03812KAVL AVL20160522132513105/22/16 13:25:31  5-MIN KAVL 221825Z 34015G24KT 10SM SCT055 20/06 A2998 2110 38 3200 350/15G24 RMK AO2 PK WND 33026/1812 T02000056
03812KAVL AVL20160522133013105/22/16 13:30:31  5-MIN KAVL 221830Z 36017G24KT 10SM SCT055 20/06 A2998 2110 40 3200 360/17G24 RMK AO2 PK WND 33026/1812 T02000061
03812KAVL AVL20160522133513105/22/16 13:35:31  5-MIN KAVL 221835Z 33018G24KT 10SM SCT055 20/06 A2998 2110 40 3200 330/18G24 RMK AO2 PK WND 33026/1812 T02000061
03812KAVL AVL20160522134013105/22/16 13:40:31  5-MIN KAVL 221840Z 36012G23KT 10SM SCT055 21/06 A2998 2110 37 3300 010/12G23 RMK AO2 PK WND 33026/1812 T02060056
03812KAVL AVL20160522134513105/22/16 13:45:31  5-MIN KAVL 221845Z 33019G28KT 10SM FEW055 21/06 A2998 2110 38 3300 330/19G28 RMK AO2 PK WND 33028/1842 T02060061
03812KAVL AVL20160522135013805/22/16 13:50:31  5-MIN KAVL 221850Z 34017G28KT 10SM SCT055 21/06 A2998 2110 38 3300 350/17G28 RMK AO2 PK WND 33028/1842 SLP134 T02060061
03812KAVL AVL20160522135511305/22/16 13:55:31  5-MIN KAVL 221855Z 34017G25KT 10SM SCT055 20/05 A2998 2110 37 3200 350/17G25 RMK AO2 T02000050
03812KAVL AVL20160522140013105/22/16 14:00:31  5-MIN KAVL 221900Z 35018G27KT 10SM FEW055 21/05 A2998 2110 35 3300 350/18G27 RMK AO2 PK WND 33027/1858 T02060050
03812KAVL AVL20160522140513105/22/16 14:05:31  5-MIN KAVL 221905Z 34014G27KT 10SM FEW055 21/05 A2998 2110 35 3300 350/14G27 RMK AO2 PK WND 33027/1858 T02060050
03812KAVL AVL20160522141013105/22/16 14:10:31  5-MIN KAVL 221910Z 35017G25KT 10SM FEW055 21/06 A2998 2110 37 3300 350/17G25 RMK AO2 PK WND 33027/1858 T02060056
03812KAVL AVL20160522141513105/22/16 14:15:31  5-MIN KAVL 221915Z 34017G25KT 10SM SCT055 21/06 A2998 2110 37 3300 350/17G25 RMK AO2 PK WND 33027/1858 T02060056
03812KAVL AVL20160522142013105/22/16 14:20:31  5-MIN KAVL 221920Z 33018G28KT 10SM FEW055 21/05 A2998 2110 35 3300 340/18G28 RMK AO2 PK WND 34028/1917 T02060050
03812KAVL AVL20160522142513605/22/16 14:25:31  5-MIN KAVL 221925Z AUTO 33014G28KT 10SM FEW055 21/06 A2998 2110 36 3300 340/14G28 RMK AO2 PK WND 34028/1917 T02110056
03812KAVL AVL20160522143013605/22/16 14:30:31  5-MIN KAVL 221930Z AUTO 33015G27KT 10SM FEW055 20/05 A2998 2110 37 3200 330/15G27 RMK AO2 PK WND 34028/1917 T02000050
03812KAVL AVL20160522143513605/22/16 14:35:31  5-MIN KAVL 221935Z AUTO 36013G27KT 10SM SCT055 20/04 A2998 2110 35 3200 360/13G27 RMK AO2 PK WND 34028/1917 T02000044
03812KAVL AVL20160522144013005/22/16 14:40:31  5-MIN KAVL 221940Z AUTO 33013KT 10SM SCT060 20/05 A2998 2110 37 3200 340/13 RMK AO2 PK WND 34028/1917 T02000050
03812KAVL AVL20160522144513005/22/16 14:45:31  5-MIN KAVL 221945Z AUTO 34012KT 10SM SCT060 21/05 A2998 2110 35 3300 350/12 RMK AO2 PK WND 34028/1917 T02060050
03812KAVL AVL20160522145014305/22/16 14:50:31  5-MIN KAVL 221950Z AUTO 33014G20KT 10SM SCT060 21/06 A2998 2120 36 3300 340/14G20 RMK AO2 PK WND 34028/1917 SLP132 T02110056
03812KAVL AVL20160522145513105/22/16 14:55:31  5-MIN KAVL 221955Z 33016G26KT 10SM BKN060 21/06 A2998 2120 36 3300 340/16G26 RMK AO2 PK WND 32026/1955 T02110056
03812KAVL AVL20160522150013105/22/16 15:00:31  5-MIN KAVL 222000Z 35015G26KT 10SM BKN060 20/05 A2997 2120 37 3200 350/15G26 RMK AO2 PK WND 32026/1955 T02000050
03812KAVL AVL20160522150513105/22/16 15:05:31  5-MIN KAVL 222005Z 36014G20KT 10SM BKN065 21/05 A2997 2120 35 3300 360/14G20 RMK AO2 PK WND 32026/1955 T02060050
03812KAVL AVL20160522151013105/22/16 15:10:31  5-MIN KAVL 222010Z 34015G21KT 10SM SCT060 21/05 A2997 2120 35 3300 340/15G21 RMK AO2 PK WND 32026/1955 T02060050
03812KAVL AVL20160522151513105/22/16 15:15:31  5-MIN KAVL 222015Z 35012G21KT 10SM SCT060 21/05 A2997 2120 35 3300 350/12G21 RMK AO2 PK WND 32026/1955 T02060050
03812KAVL AVL20160522152013105/22/16 15:20:31  5-MIN KAVL 222020Z 33018G23KT 10SM SCT065 21/05 A2997 2120 35 3300 340/18G23 RMK AO2 PK WND 32026/1955 T02060050
03812KAVL AVL20160522152513105/22/16 15:25:31  5-MIN KAVL 222025Z 36011G23KT 10SM SCT065 20/04 A2997 2120 35 3200 360/11G23 RMK AO2 PK WND 32026/1955 T02000044
03812KAVL AVL20160522153013105/22/16 15:30:31  5-MIN KAVL 222030Z 36010G17KT 10SM SCT065 20/05 A2997 2130 37 3200 010/10G17 RMK AO2 PK WND 32026/1955 T02000050
03812KAVL AVL20160522153512505/22/16 15:35:31  5-MIN KAVL 222035Z 35008KT 10SM SCT065 20/05 A2996 2130 37 3200 360/08 RMK AO2 PK WND 32026/1955 T02000050
03812KAVL AVL20160522154013105/22/16 15:40:31  5-MIN KAVL 222040Z 33015G21KT 10SM SCT065 21/05 A2996 2130 35 3300 340/15G21 RMK AO2 PK WND 32026/1955 T02060050
03812KAVL AVL20160522154513105/22/16 15:45:31  5-MIN KAVL 222045Z 33011G22KT 10SM BKN060 21/06 A2996 2130 36 3400 340/11G22 RMK AO2 PK WND 32026/1955 T02110056
03812KAVL AVL20160522155014505/22/16 15:50:31  5-MIN KAVL 222050Z 34010KT 10SM SCT060 BKN070 21/06 A2996 2130 37 3300 340/10 RMK AO2 PK WND 32026/1955 SLP128 T02060056 58006
03812KAVL AVL20160522155511305/22/16 15:55:31  5-MIN KAVL 222055Z 33014G18KT 10SM BKN065 22/06 A2996 2130 34 3400 340/14G18 RMK AO2 T02170056
03812KAVL AVL20160522160013605/22/16 16:00:31  5-MIN KAVL 222100Z 34016G23KT 310V010 10SM BKN060 BKN075 22/06 A2996 2130 34 3400 350/16G23 320V020 RMK AO2 T02170056
03812KAVL AVL20160522160511305/22/16 16:05:31  5-MIN KAVL 222105Z 35013G23KT 10SM BKN060 21/04 A2996 2130 34 3300 350/13G23 RMK AO2 T02060044
03812KAVL AVL20160522161010705/22/16 16:10:31  5-MIN KAVL 222110Z 35014KT 10SM SCT065 21/04 A2996 2130 34 3300 360/14 RMK AO2 T02060044
03812KAVL AVL20160522161511305/22/16 16:15:31  5-MIN KAVL 222115Z 34020G24KT 10SM FEW060 21/04 A2996 2130 34 3300 350/20G24 RMK AO2 T02060044
03812KAVL AVL20160522162011305/22/16 16:20:31  5-MIN KAVL 222120Z 34014G24KT 10SM FEW065 21/04 A2996 2130 32 3400 350/14G24 RMK AO2 T02110039
03812KAVL AVL20160522162511305/22/16 16:25:31  5-MIN KAVL 222125Z 35014G20KT 10SM FEW060 21/04 A2996 2130 33 3400 350/14G20 RMK AO2 T02110044
03812KAVL AVL20160522163011005/22/16 16:30:31  5-MIN KAVL 222130Z 35011G21KT 10SM CLR 21/04 A2996 2130 33 3400 350/11G21 RMK AO2 T02110044
03812KAVL AVL20160522163511305/22/16 16:35:31  5-MIN KAVL 222135Z 36013G21KT 10SM FEW065 21/04 A2996 2130 33 3300 010/13G21 RMK AO2 T02060039
03812KAVL AVL20160522164011305/22/16 16:40:31  5-MIN KAVL 222140Z 36013G20KT 10SM FEW065 21/04 A2995 2140 33 3300 010/13G20 RMK AO2 T02060039
03812KAVL AVL20160522164511305/22/16 16:45:31  5-MIN KAVL 222145Z 01012G17KT 10SM FEW065 21/04 A2995 2140 33 3300 010/12G17 RMK AO2 T02060039
03812KAVL AVL20160522165012005/22/16 16:50:31  5-MIN KAVL 222150Z 34013G18KT 10SM FEW065 21/04 A2995 2140 33 3300 340/13G18 RMK AO2 SLP124 T02060039
03812KAVL AVL20160522165511005/22/16 16:55:31  5-MIN KAVL 222155Z 33015G21KT 10SM CLR 21/04 A2995 2140 33 3400 330/15G21 RMK AO2 T02110044
03812KAVL AVL20160522170011005/22/16 17:00:31  5-MIN KAVL 222200Z 33013G21KT 10SM CLR 21/04 A2995 2140 34 3300 340/13G21 RMK AO2 T02060044
03812KAVL AVL20160522170510405/22/16 17:05:31  5-MIN KAVL 222205Z 33011KT 10SM CLR 21/05 A2995 2140 35 3300 340/11 RMK AO2 T02060050
03812KAVL AVL20160522171011005/22/16 17:10:31  5-MIN KAVL 222210Z 34014G20KT 10SM CLR 21/04 A2995 2140 34 3300 350/14G20 RMK AO2 T02060044
03812KAVL AVL20160522171511005/22/16 17:15:31  5-MIN KAVL 222215Z 33013G20KT 10SM CLR 21/04 A2995 2140 33 3300 340/13G20 RMK AO2 T02060039
03812KAVL AVL20160522172011305/22/16 17:20:31  5-MIN KAVL 222220Z 33014G20KT 10SM FEW070 21/04 A2995 2140 34 3300 330/14G20 RMK AO2 T02060044
03812KAVL AVL20160522172511305/22/16 17:25:31  5-MIN KAVL 222225Z 33013G22KT 10SM FEW070 21/04 A2995 2140 33 3300 330/13G22 RMK AO2 T02060039
03812KAVL AVL20160522173011005/22/16 17:30:31  5-MIN KAVL 222230Z 33016G22KT 10SM CLR 21/04 A2995 2140 34 3300 330/16G22 RMK AO2 T02060044
03812KAVL AVL20160522173510705/22/16 17:35:31  5-MIN KAVL 222235Z 35014KT 10SM FEW080 21/04 A2995 2140 34 3300 360/14 RMK AO2 T02060044
03812KAVL AVL20160522174011305/22/16 17:40:31  5-MIN KAVL 222240Z 35010G19KT 10SM SCT075 21/04 A2995 2140 33 3300 360/10G19 RMK AO2 T02060039
03812KAVL AVL20160522174511305/22/16 17:45:31  5-MIN KAVL 222245Z 34011G18KT 10SM SCT070 21/04 A2995 2140 33 3300 350/11G18 RMK AO2 T02060039
03812KAVL AVL20160522175012705/22/16 17:50:31  5-MIN KAVL 222250Z 34011G18KT 10SM SCT070 BKN085 21/04 A2995 2140 33 3300 340/11G18 RMK AO2 SLP124 T02060039
03812KAVL AVL20160522175511405/22/16 17:55:31  5-MIN KAVL 222255Z 32009KT 10SM SCT065 BKN080 21/04 A2995 2140 34 3300 320/09 RMK AO2 T02060044
03812KAVL AVL20160522180011405/22/16 18:00:31  5-MIN KAVL 222300Z 33011KT 10SM SCT070 BKN085 21/04 A2995 2140 34 3300 340/11 RMK AO2 T02060044
03812KAVL AVL20160522180510705/22/16 18:05:31  5-MIN KAVL 222305Z 33009KT 10SM SCT070 21/04 A2995 2140 34 3300 330/09 RMK AO2 T02060044
03812KAVL AVL20160522181010705/22/16 18:10:31  5-MIN KAVL 222310Z 33008KT 10SM SCT070 21/05 A2995 2140 35 3300 340/08 RMK AO2 T02060050
03812KAVL AVL20160522181510705/22/16 18:15:31  5-MIN KAVL 222315Z 31011KT 10SM BKN070 20/04 A2995 2140 35 3300 320/11 RMK AO2 T02000044
03812KAVL AVL20160522182011405/22/16 18:20:31  5-MIN KAVL 222320Z 31009KT 10SM BKN070 BKN080 20/05 A2995 2140 37 3300 320/09 RMK AO2 T02000050
03812KAVL AVL20160522182510705/22/16 18:25:31  5-MIN KAVL 222325Z 32010KT 10SM SCT070 20/05 A2995 2140 37 3300 320/10 RMK AO2 T02000050
03812KAVL AVL20160522183010705/22/16 18:30:31  5-MIN KAVL 222330Z 32011KT 10SM SCT070 20/05 A2995 2140 37 3200 320/11 RMK AO2 T02000050
03812KAVL AVL20160522183510705/22/16 18:35:31  5-MIN KAVL 222335Z 32009KT 10SM FEW070 19/05 A2995 2140 38 3200 320/09 RMK AO2 T01940050
03812KAVL AVL20160522184010705/22/16 18:40:31  5-MIN KAVL 222340Z 32010KT 10SM FEW065 19/05 A2995 2140 38 3200 330/10 RMK AO2 T01940050
03812KAVL AVL20160522184510705/22/16 18:45:31  5-MIN KAVL 222345Z 31010KT 10SM FEW070 19/05 A2995 2140 39 3100 320/10 RMK AO2 T01890050
03812KAVL AVL20160522185012905/22/16 18:50:31  5-MIN KAVL 222350Z 32008KT 10SM CLR 19/05 A2995 2140 39 3100 330/08 RMK AO2 SLP125 T01890050 10217 20189 57009
03812KAVL AVL20160522185510405/22/16 18:55:31  5-MIN KAVL 222355Z 32007KT 10SM CLR 19/05 A2995 2140 39 3100 330/07 RMK AO2 T01890050
03812KAVL AVL20160522190010405/22/16 19:00:31  5-MIN KAVL 230000Z 32007KT 10SM CLR 19/05 A2995 2140 39 3100 330/07 RMK AO2 T01890050
03812KAVL AVL20160522190510405/22/16 19:05:31  5-MIN KAVL 230005Z 31006KT 10SM CLR 18/06 A2995 2140 42 3100 320/06 RMK AO2 T01830056
03812KAVL AVL20160522191010405/22/16 19:10:31  5-MIN KAVL 230010Z 31004KT 10SM CLR 18/06 A2996 2140 44 3000 320/04 RMK AO2 T01780056
03812KAVL AVL20160522191510405/22/16 19:15:31  5-MIN KAVL 230015Z 32004KT 10SM CLR 18/06 A2996 2140 44 3000 320/04 RMK AO2 T01780056
03812KAVL AVL20160522192010405/22/16 19:20:31  5-MIN KAVL 230020Z 31004KT 10SM CLR 17/06 A2996 2130 46 2900 310/04 RMK AO2 T01720056
03812KAVL AVL20160522192510405/22/16 19:25:31  5-MIN KAVL 230025Z 30004KT 10SM CLR 17/06 A2996 2130 47 2900 310/04 RMK AO2 T01720061
03812KAVL AVL20160522193010405/22/16 19:30:31  5-MIN KAVL 230030Z 31004KT 10SM CLR 17/06 A2996 2130 47 2900 320/04 RMK AO2 T01720061
03812KAVL AVL20160522193510405/22/16 19:35:31  5-MIN KAVL 230035Z 30003KT 10SM CLR 17/06 A2996 2130 47 2900 310/03 RMK AO2 T01720061
03812KAVL AVL20160522194010405/22/16 19:40:31  5-MIN KAVL 230040Z 29003KT 10SM CLR 17/06 A2996 2130 47 2900 300/03 RMK AO2 T01720061
03812KAVL AVL20160522194510405/22/16 19:45:31  5-MIN KAVL 230045Z 00000KT 10SM CLR 17/06 A2996 2130 46 2900 000/00 RMK AO2 T01720056
03812KAVL AVL20160522195011105/22/16 19:50:31  5-MIN KAVL 230050Z 00000KT 10SM CLR 17/06 A2996 2130 46 2900 000/00 RMK AO2 SLP130 T01720056
03812KAVL AVL20160522195510405/22/16 19:55:31  5-MIN KAVL 230055Z 00000KT 10SM CLR 17/06 A2996 2130 49 2900 000/00 RMK AO2 T01670061
03812KAVL AVL20160522200010405/22/16 20:00:31  5-MIN KAVL 230100Z 00000KT 10SM CLR 16/07 A2996 2130 53 2800 000/00 RMK AO2 T01610067
03812KAVL AVL20160522200510405/22/16 20:05:31  5-MIN KAVL 230105Z 00000KT 10SM CLR 16/07 A2996 2130 53 2800 000/00 RMK AO2 T01610067
03812KAVL AVL20160522201010405/22/16 20:10:31  5-MIN KAVL 230110Z 00000KT 10SM CLR 16/07 A2996 2130 53 2800 000/00 RMK AO2 T01610067
03812KAVL AVL20160522201510405/22/16 20:15:31  5-MIN KAVL 230115Z 00000KT 10SM CLR 16/07 A2996 2130 55 2700 000/00 RMK AO2 T01560067
03812KAVL AVL20160522202010405/22/16 20:20:31  5-MIN KAVL 230120Z 00000KT 10SM CLR 15/07 A2996 2130 59 2700 000/00 RMK AO2 T01500072
03812KAVL AVL20160522202510405/22/16 20:25:31  5-MIN KAVL 230125Z 00000KT 10SM CLR 15/07 A2997 2130 57 2700 000/00 RMK AO2 T01500067
03812KAVL AVL20160522203010405/22/16 20:30:31  5-MIN KAVL 230130Z 00000KT 10SM CLR 16/07 A2997 2130 55 2700 000/00 RMK AO2 T01560067
03812KAVL AVL20160522203510705/22/16 20:35:31  5-MIN KAVL 230135Z 00000KT 10SM FEW065 16/07 A2997 2130 55 2700 000/00 RMK AO2 T01560067
03812KAVL AVL20160522204010705/22/16 20:40:31  5-MIN KAVL 230140Z 00000KT 10SM FEW065 15/07 A2997 2120 57 2700 000/00 RMK AO2 T01500067
03812KAVL AVL20160522204510705/22/16 20:45:31  5-MIN KAVL 230145Z 00000KT 10SM FEW065 15/07 A2997 2120 59 2700 000/00 RMK AO2 T01500072
03812KAVL AVL20160522205011405/22/16 20:50:31  5-MIN KAVL 230150Z 00000KT 10SM FEW065 15/07 A2997 2120 59 2700 000/00 RMK AO2 SLP133 T01500072
03812KAVL AVL20160522205510705/22/16 20:55:31  5-MIN KAVL 230155Z 00000KT 10SM FEW065 15/07 A2997 2120 59 2700 000/00 RMK AO2 T01500072
03812KAVL AVL20160522210010705/22/16 21:00:31  5-MIN KAVL 230200Z 00000KT 10SM FEW065 15/07 A2997 2120 59 2700 000/00 RMK AO2 T01500072
03812KAVL AVL20160522210510405/22/16 21:05:31  5-MIN KAVL 230205Z 00000KT 10SM CLR 14/07 A2997 2120 61 2600 000/00 RMK AO2 T01440072
03812KAVL AVL20160522211010405/22/16 21:10:31  5-MIN KAVL 230210Z 00000KT 10SM CLR 15/07 A2997 2120 59 2600 000/00 RMK AO2 T01500072
03812KAVL AVL20160522211510705/22/16 21:15:31  5-MIN KAVL 230215Z 00000KT 10SM FEW100 15/07 A2998 2120 59 2600 000/00 RMK AO2 T01500072
03812KAVL AVL20160522212010705/22/16 21:20:31  5-MIN KAVL 230220Z 00000KT 10SM SCT100 14/07 A2998 2120 61 2600 000/00 RMK AO2 T01440072
03812KAVL AVL20160522212510705/22/16 21:25:31  5-MIN KAVL 230225Z 00000KT 10SM BKN100 14/07 A2998 2120 61 2600 000/00 RMK AO2 T01440072
03812KAVL AVL20160522213010705/22/16 21:30:31  5-MIN KAVL 230230Z 00000KT 10SM SCT100 14/07 A2998 2120 64 2500 000/00 RMK AO2 T01390072
03812KAVL AVL20160522213510705/22/16 21:35:31  5-MIN KAVL 230235Z 00000KT 10SM SCT100 14/07 A2998 2120 64 2500 000/00 RMK AO2 T01390072
03812KAVL AVL20160522214010705/22/16 21:40:31  5-MIN KAVL 230240Z 00000KT 10SM SCT100 14/07 A2998 2110 64 2500 000/00 RMK AO2 T01390072
03812KAVL AVL20160522214511405/22/16 21:45:31  5-MIN KAVL 230245Z 00000KT 10SM FEW075 SCT100 14/07 A2998 2110 64 2500 000/00 RMK AO2 T01390072
03812KAVL AVL20160522215012705/22/16 21:50:31  5-MIN KAVL 230250Z 00000KT 10SM SCT075 BKN095 14/08 A2998 2110 66 2500 000/00 RMK AO2 SLP137 T01390078 56005
03812KAVL AVL20160522215511905/22/16 21:55:31  5-MIN KAVL 230255Z AUTO 00000KT 10SM SCT075 BKN090 14/08 A2998 2110 66 2500 000/00 RMK AO2 T01390078
03812KAVL AVL20160522220011905/22/16 22:00:31  5-MIN KAVL 230300Z AUTO 00000KT 10SM FEW075 BKN090 14/08 A2999 2110 66 2500 000/00 RMK AO2 T01390078
03812KAVL AVL20160522220511905/22/16 22:05:31  5-MIN KAVL 230305Z AUTO 00000KT 10SM FEW075 BKN090 13/08 A2998 2110 69 2400 000/00 RMK AO2 T01330078
03812KAVL AVL20160522221011905/22/16 22:10:31  5-MIN KAVL 230310Z AUTO VRB03KT 10SM FEW075 BKN095 14/08 A2998 2110 66 2500 VRB/03 RMK AO2 T01390078
03812KAVL AVL20160522221511905/22/16 22:15:31  5-MIN KAVL 230315Z AUTO 00000KT 10SM FEW070 OVC100 13/07 A2998 2110 66 2400 000/00 RMK AO2 T01330072
03812KAVL AVL20160522222011205/22/16 22:20:31  5-MIN KAVL 230320Z AUTO 00000KT 10SM OVC100 13/07 A2998 2110 66 2400 000/00 RMK AO2 T01330072
03812KAVL AVL20160522222511205/22/16 22:25:31  5-MIN KAVL 230325Z AUTO 16003KT 10SM BKN100 13/08 A2998 2110 69 2400 170/03 RMK AO2 T01330078
03812KAVL AVL20160522223011905/22/16 22:30:31  5-MIN KAVL 230330Z AUTO VRB03KT 10SM BKN090 OVC120 13/08 A2998 2110 69 2400 VRB/03 RMK AO2 T01330078
03812KAVL AVL20160522223512605/22/16 22:35:31  5-MIN KAVL 230335Z AUTO 03008KT 10SM FEW055 SCT080 OVC100 14/08 A3000 2090 66 2500 040/08 RMK AO2 T01390078
03812KAVL AVL20160522224013505/22/16 22:40:31  5-MIN KAVL 230340Z AUTO VRB03KT 10SM -RA SCT055 OVC095 14/08 A2999 2100 66 2500 VRB/03 RMK AO2 RAB37 P0000 T01390078
03812KAVL AVL20160522224514205/22/16 22:45:31  5-MIN KAVL 230345Z AUTO 00000KT 10SM -RA FEW055 SCT080 BKN100 14/08 A2999 2100 66 2500 000/00 RMK AO2 RAB37 P0000 T01390078
03812KAVL AVL20160522225014805/22/16 22:50:31  5-MIN KAVL 230350Z AUTO 06003KT 10SM FEW055 FEW080 BKN100 14/08 A2999 2100 69 2500 070/03 RMK AO2 RAB37E48 SLP140 P0000 T01390083
03812KAVL AVL20160522225512605/22/16 22:55:31  5-MIN KAVL 230355Z AUTO 00000KT 10SM FEW055 FEW080 SCT100 14/08 A2999 2100 69 2500 000/00 RMK AO2 T01390083
03812KAVL AVL20160522230012605/22/16 23:00:31  5-MIN KAVL 230400Z AUTO 00000KT 10SM FEW055 FEW070 SCT100 13/08 A2999 2100 71 2400 000/00 RMK AO2 T01330083
03812KAVL AVL20160522230511905/22/16 23:05:31  5-MIN KAVL 230405Z AUTO 21005KT 10SM FEW090 SCT100 13/09 A2999 2100 74 2400 220/05 RMK AO2 T01330089
03812KAVL AVL20160522231011905/22/16 23:10:31  5-MIN KAVL 230410Z AUTO 20003KT 10SM FEW085 FEW110 12/09 A2999 2100 80 2300 200/03 RMK AO2 T01220089
03812KAVL AVL20160522231512605/22/16 23:15:31  5-MIN KAVL 230415Z AUTO 00000KT 10SM FEW065 FEW085 SCT110 13/09 A3000 2100 77 2400 000/00 RMK AO2 T01280089
03812KAVL AVL20160522232013305/22/16 23:20:31  5-MIN KAVL 230420Z AUTO 01006KT 10SM SCT060 SCT085 BKN110 13/09 A3001 2080 77 2300 020/06 RMK AO2 PRESRR T01280089
03812KAVL AVL20160522232514205/22/16 23:25:31  5-MIN KAVL 230425Z AUTO 02004KT 10SM -RA BKN050 BKN085 BKN110 13/09 A3001 2080 74 2400 030/04 RMK AO2 RAB23 P0000 T01330089
03812KAVL AVL20160522233014205/22/16 23:30:31  5-MIN KAVL 230430Z AUTO 36005KT 10SM -RA BKN050 BKN085 BKN110 14/09 A3002 2080 71 2500 010/05 RMK AO2 RAB23 P0000 T01390089
03812KAVL AVL20160522233514105/22/16 23:35:31  5-MIN KAVL 230435Z AUTO 02004KT 10SM BKN050 BKN080 BKN110 14/09 A3001 2080 71 2500 020/04 RMK AO2 RAB23E33 P0000 T01390089
03812KAVL AVL20160522234014105/22/16 23:40:31  5-MIN KAVL 230440Z AUTO 00000KT 10SM SCT050 BKN060 OVC075 14/08 A3001 2090 69 2500 000/00 RMK AO2 RAB23E33 P0000 T01390083
03812KAVL AVL20160522234513505/22/16 23:45:31  5-MIN KAVL 230445Z AUTO 01004KT 10SM -RA BKN050 OVC065 14/09 A3002 2080 71 2500 010/04 RMK AO2 RAB23 P0000 T01390089
03812KAVL AVL20160522235015205/22/16 23:50:31  5-MIN KAVL 230450Z AUTO 00000KT 10SM -RA BKN050 OVC065 14/09 A3002 2080 71 2500 000/00 RMK AO2 RAB23 SLP147 P0000 T01390089 402170122
03812KAVL AVL20160522235511905/22/16 23:55:31  5-MIN KAVL 230455Z AUTO 30006KT 10SM BKN050 OVC060 14/09 A3002 2070 71 2500 310/06 RMK AO2 T01390089
03812KAVL AVL20160523000014305/23/16 00:00:31  5-MIN KAVL 230500Z AUTO 31005KT 7SM -RA BKN050 BKN060 OVC075 13/09 A3002 2080 74 2400 310/05 RMK AO2 RAB0456 P0001 T01330089
03812KAVL AVL20160523000514305/23/16 00:05:31  5-MIN KAVL 230505Z AUTO 00000KT 8SM -RA SCT050 BKN065 OVC080 13/09 A3001 2080 74 2400 000/00 RMK AO2 RAB0456 P0001 T01330089
03812KAVL AVL20160523001014405/23/16 00:10:31  5-MIN KAVL 230510Z AUTO VRB03KT 10SM -RA SCT050 SCT060 OVC080 13/09 A3001 2090 74 2400 VRB/03 RMK AO2 RAB0456 P0001 T01330089
03812KAVL AVL20160523001514405/23/16 00:15:31  5-MIN KAVL 230515Z AUTO 13003KT 10SM -RA SCT050 BKN080 OVC095 13/09 A3001 2090 80 2400 130/03 RMK AO2 RAB0456 P0001 T01280094
03812KAVL AVL20160523002014305/23/16 00:20:31  5-MIN KAVL 230520Z AUTO 00000KT 10SM FEW048 BKN080 OVC090 13/09 A3000 2090 80 2400 000/00 RMK AO2 RAB0456E16 P0001 T01280094
03812KAVL AVL20160523002512905/23/16 00:25:31  5-MIN KAVL 230525Z AUTO 00000KT 10SM OVC090 13/09 A3000 2090 80 2400 000/00 RMK AO2 RAB0456E16 P0001 T01280094
03812KAVL AVL20160523003013605/23/16 00:30:31  5-MIN KAVL 230530Z AUTO 00000KT 10SM BKN090 BKN110 13/10 A3001 2090 83 2400 000/00 RMK AO2 RAB0456E16 P0001 T01280100
03812KAVL AVL20160523003512905/23/16 00:35:31  5-MIN KAVL 230535Z AUTO 00000KT 10SM BKN090 13/09 A3001 2090 80 2400 000/00 RMK AO2 RAB0456E16 P0001 T01280094
03812KAVL AVL20160523004012905/23/16 00:40:31  5-MIN KAVL 230540Z AUTO 00000KT 10SM BKN095 12/09 A3001 2090 83 2300 000/00 RMK AO2 RAB0456E16 P0001 T01220094
03812KAVL AVL20160523004512905/23/16 00:45:31  5-MIN KAVL 230545Z AUTO 00000KT 10SM BKN095 12/09 A3000 2090 83 2300 000/00 RMK AO2 RAB0456E16 P0001 T01220094
03812KAVL AVL20160523005016005/23/16 00:50:31  5-MIN KAVL 230550Z AUTO 00000KT 10SM SCT095 12/09 A3000 2090 83 2300 000/00 RMK AO2 RAB0456E16 SLP144 P0001 60001 T01220094 10189 20122 51010
03812KAVL AVL20160523005511205/23/16 00:55:31  5-MIN KAVL 230555Z AUTO 00000KT 10SM FEW100 12/09 A3000 2090 83 2300 000/00 RMK AO2 T01220094
03812KAVL AVL20160523010011205/23/16 01:00:31  5-MIN KAVL 230600Z AUTO 00000KT 10SM FEW100 12/09 A3000 2090 83 2300 000/00 RMK AO2 T01220094
03812KAVL AVL20160523010510905/23/16 01:05:31  5-MIN KAVL 230605Z AUTO 00000KT 10SM CLR 12/09 A3000 2090 86 2200 000/00 RMK AO2 T01170094
03812KAVL AVL20160523011010905/23/16 01:10:31  5-MIN KAVL 230610Z AUTO 00000KT 10SM CLR 12/09 A3000 2090 86 2200 000/00 RMK AO2 T01170094
03812KAVL AVL20160523011510905/23/16 01:15:31  5-MIN KAVL 230615Z AUTO 00000KT 10SM CLR 12/09 A3000 2100 86 2200 000/00 RMK AO2 T01170094
03812KAVL AVL20160523012010905/23/16 01:20:31  5-MIN KAVL 230620Z AUTO 00000KT 10SM CLR 11/09 A3000 2100 89 2200 000/00 RMK AO2 T01110094
03812KAVL AVL20160523012510905/23/16 01:25:31  5-MIN KAVL 230625Z AUTO 00000KT 10SM CLR 11/09 A3000 2100 89 2200 000/00 RMK AO2 T01110094
03812KAVL AVL20160523013010905/23/16 01:30:31  5-MIN KAVL 230630Z AUTO 00000KT 10SM CLR 11/09 A2999 2100 89 2200 000/00 RMK AO2 T01110094
03812KAVL AVL20160523013510905/23/16 01:35:31  5-MIN KAVL 230635Z AUTO 00000KT 10SM CLR 11/09 A2999 2100 89 2200 000/00 RMK AO2 T01110094
03812KAVL AVL20160523014010905/23/16 01:40:31  5-MIN KAVL 230640Z AUTO 00000KT 10SM CLR 11/09 A2999 2100 89 2200 000/00 RMK AO2 T01110094
03812KAVL AVL20160523014510905/23/16 01:45:31  5-MIN KAVL 230645Z AUTO 00000KT 10SM CLR 11/09 A2999 2110 89 2200 000/00 RMK AO2 T01110094
03812KAVL AVL20160523015011605/23/16 01:50:31  5-MIN KAVL 230650Z AUTO 00000KT 10SM CLR 11/09 A2998 2110 89 2100 000/00 RMK AO2 SLP138 T01060089
03812KAVL AVL20160523015510905/23/16 01:55:31  5-MIN KAVL 230655Z AUTO 00000KT 10SM CLR 11/09 A2998 2110 89 2100 000/00 RMK AO2 T01060089
03812KAVL AVL20160523020010905/23/16 02:00:31  5-MIN KAVL 230700Z AUTO 30003KT 10SM CLR 10/09 A2998 2110 93 2000 310/03 RMK AO2 T01000089
03812KAVL AVL20160523020510905/23/16 02:05:31  5-MIN KAVL 230705Z AUTO 33004KT 10SM CLR 10/08 A2998 2110 89 2100 330/04 RMK AO2 T01000083
03812KAVL AVL20160523021010905/23/16 02:10:31  5-MIN KAVL 230710Z AUTO 35004KT 10SM CLR 10/09 A2998 2110 93 2100 360/04 RMK AO2 T01000089
03812KAVL AVL20160523021510905/23/16 02:15:31  5-MIN KAVL 230715Z AUTO 35003KT 10SM CLR 11/09 A2998 2110 89 2100 350/03 RMK AO2 T01060089
03812KAVL AVL20160523022010905/23/16 02:20:31  5-MIN KAVL 230720Z AUTO 00000KT 10SM CLR 11/09 A2998 2110 89 2100 000/00 RMK AO2 T01060089
03812KAVL AVL20160523022510905/23/16 02:25:31  5-MIN KAVL 230725Z AUTO 00000KT 10SM CLR 10/09 A2998 2110 93 2100 000/00 RMK AO2 T01000089
03812KAVL AVL20160523023010805/23/16 02:30:31  5-MIN KAVL 230730Z AUTO 31003KT 9SM CLR 10/08 A2998 2110 89 2100 320/03 RMK AO2 T01000083
03812KAVL AVL20160523023510805/23/16 02:35:31  5-MIN KAVL 230735Z AUTO 00000KT 8SM CLR 09/08 A2998 2110 93 2000 000/00 RMK AO2 T00940083
03812KAVL AVL20160523024010805/23/16 02:40:31  5-MIN KAVL 230740Z AUTO 00000KT 9SM CLR 09/08 A2998 2120 93 2000 000/00 RMK AO2 T00940083
03812KAVL AVL20160523024510805/23/16 02:45:31  5-MIN KAVL 230745Z AUTO 00000KT 9SM CLR 10/08 A2998 2120 89 2100 000/00 RMK AO2 T01000083
03812KAVL AVL20160523025011505/23/16 02:50:31  5-MIN KAVL 230750Z AUTO 00000KT 9SM CLR 09/08 A2997 2120 93 2000 000/00 RMK AO2 SLP135 T00940083
03812KAVL AVL20160523025510905/23/16 02:55:31  5-MIN KAVL 230755Z AUTO 00000KT 10SM CLR 10/08 A2997 2120 89 2100 000/00 RMK AO2 T01000083
03812KAVL AVL20160523030010905/23/16 03:00:31  5-MIN KAVL 230800Z AUTO 00000KT 10SM CLR 10/08 A2997 2120 89 2100 000/00 RMK AO2 T01000083
03812KAVL AVL20160523030510905/23/16 03:05:31  5-MIN KAVL 230805Z AUTO 00000KT 10SM CLR 10/08 A2997 2120 89 2100 000/00 RMK AO2 T01000083
03812KAVL AVL20160523031010905/23/16 03:10:31  5-MIN KAVL 230810Z AUTO 00000KT 10SM CLR 09/08 A2998 2120 93 2000 000/00 RMK AO2 T00940083
03812KAVL AVL20160523031510905/23/16 03:15:31  5-MIN KAVL 230815Z AUTO 00000KT 10SM CLR 09/08 A2998 2120 89 2000 000/00 RMK AO2 T00940078
03812KAVL AVL20160523032010805/23/16 03:20:31  5-MIN KAVL 230820Z AUTO 00000KT 8SM CLR 09/08 A2998 2110 89 2000 000/00 RMK AO2 T00940078
03812KAVL AVL20160523032510805/23/16 03:25:31  5-MIN KAVL 230825Z AUTO 24003KT 7SM CLR 09/08 A2998 2110 93 1900 240/03 RMK AO2 T00890078
03812KAVL AVL20160523033011105/23/16 03:30:31  5-MIN KAVL 230830Z AUTO 24003KT 6SM BR CLR 09/08 A2998 2110 93 1900 250/03 RMK AO2 T00890078
03812KAVL AVL20160523033510805/23/16 03:35:31  5-MIN KAVL 230835Z AUTO 00000KT 7SM CLR 09/08 A2998 2110 93 1900 000/00 RMK AO2 T00890078
03812KAVL AVL20160523034010805/23/16 03:40:31  5-MIN KAVL 230840Z AUTO 00000KT 9SM CLR 09/08 A2998 2110 93 1900 000/00 RMK AO2 T00890078
03812KAVL AVL20160523034510805/23/16 03:45:31  5-MIN KAVL 230845Z AUTO 00000KT 8SM CLR 09/08 A2998 2110 93 1900 000/00 RMK AO2 T00890078
03812KAVL AVL20160523035012105/23/16 03:50:31  5-MIN KAVL 230850Z AUTO 00000KT 8SM CLR 09/08 A2998 2110 93 1900 000/00 RMK AO2 SLP138 T00890078 50007
03812KAVL AVL20160523035510805/23/16 03:55:31  5-MIN KAVL 230855Z AUTO 00000KT 9SM CLR 09/07 A2999 2110 89 1900 000/00 RMK AO2 T00890072
03812KAVL AVL20160523040010905/23/16 04:00:31  5-MIN KAVL 230900Z AUTO 00000KT 10SM CLR 09/07 A2999 2110 89 1900 000/00 RMK AO2 T00890072
03812KAVL AVL20160523040510805/23/16 04:05:31  5-MIN KAVL 230905Z AUTO 00000KT 9SM CLR 09/07 A2999 2100 89 1900 000/00 RMK AO2 T00890072
03812KAVL AVL20160523041010805/23/16 04:10:31  5-MIN KAVL 230910Z AUTO 00000KT 9SM CLR 09/08 A2999 2100 93 1900 000/00 RMK AO2 T00890078
03812KAVL AVL20160523041510805/23/16 04:15:31  5-MIN KAVL 230915Z AUTO 31003KT 8SM CLR 09/07 A2999 2100 89 1900 310/03 RMK AO2 T00890072
03812KAVL AVL20160523042010805/23/16 04:20:31  5-MIN KAVL 230920Z AUTO 32003KT 9SM CLR 08/07 A2999 2100 93 1800 320/03 RMK AO2 T00830072
03812KAVL AVL20160523042510905/23/16 04:25:31  5-MIN KAVL 230925Z AUTO 29003KT 10SM CLR 08/07 A3000 2100 93 1800 300/03 RMK AO2 T00830072
03812KAVL AVL20160523043010905/23/16 04:30:31  5-MIN KAVL 230930Z AUTO 30003KT 10SM CLR 08/07 A3000 2090 93 1800 310/03 RMK AO2 T00780067
03812KAVL AVL20160523043510905/23/16 04:35:31  5-MIN KAVL 230935Z AUTO 30003KT 10SM CLR 08/07 A3000 2090 89 1800 300/03 RMK AO2 T00830067
03812KAVL AVL20160523044010905/23/16 04:40:31  5-MIN KAVL 230940Z AUTO 31003KT 10SM CLR 08/07 A3000 2090 93 1800 310/03 RMK AO2 T00830072
03812KAVL AVL20160523044510905/23/16 04:45:31  5-MIN KAVL 230945Z AUTO 00000KT 10SM CLR 08/07 A3001 2090 93 1800 000/00 RMK AO2 T00830072
03812KAVL AVL20160523045011605/23/16 04:50:31  5-MIN KAVL 230950Z AUTO 00000KT 10SM CLR 08/07 A3001 2090 93 1800 000/00 RMK AO2 SLP148 T00830072
03812KAVL AVL20160523045510905/23/16 04:55:31  5-MIN KAVL 230955Z AUTO 00000KT 10SM CLR 08/07 A3001 2080 93 1800 000/00 RMK AO2 T00830072
03812KAVL AVL20160523050010905/23/16 05:00:31  5-MIN KAVL 231000Z AUTO 00000KT 10SM CLR 08/07 A3001 2080 89 1800 000/00 RMK AO2 T00830067
03812KAVL AVL20160523050512605/23/16 05:05:31  5-MIN KAVL 231005Z AUTO 00000KT 10SM R35/4000VP6000FT CLR 08/07 A3002 2080 93 1700 000/00 RMK AO2 T00780067
03812KAVL AVL20160523051012805/23/16 05:10:31  5-MIN KAVL 231010Z AUTO 18004KT 3SM R35/1400VP6000FT BR CLR 08/07 A3002 2080 93 1700 180/04 RMK AO2 T00780067
03812KAVL AVL20160523051513105/23/16 05:15:31  5-MIN KAVL 231015Z AUTO 18003KT 3/4SM R35/1000V3000FT BR VV002 08/07 A3002 2070 93 1700 190/03 RMK AO2 T00780067
03812KAVL AVL20160523052011605/23/16 05:20:31  5-MIN KAVL 231020Z 17003KT 1/4SM FG VV001 08/07 A3002 2070 93 1700 170/03 RMK AO2 T00780067 RVRNO
03812KAVL AVL20160523052511605/23/16 05:25:31  5-MIN KAVL 231025Z 00000KT 1/4SM FG VV001 08/07 A3003 2070 93 1700 000/00 RMK AO2 T00780067 RVRNO
03812KAVL AVL20160523053011705/23/16 05:30:31  5-MIN KAVL 231030Z 00000KT M1/4SM FG VV001 08/07 A3003 2070 93 1700 000/00 RMK AO2 T00780067 RVRNO
03812KAVL AVL20160523053511705/23/16 05:35:31  5-MIN KAVL 231035Z 00000KT M1/4SM FG VV001 08/07 A3003 2070 93 1700 000/00 RMK AO2 T00780067 RVRNO
03812KAVL AVL20160523054011705/23/16 05:40:31  5-MIN KAVL 231040Z 00000KT M1/4SM FG VV001 07/07 A3003 2070 96 1700 000/00 RMK AO2 T00720067 RVRNO
03812KAVL AVL20160523054511705/23/16 05:45:31  5-MIN KAVL 231045Z 00000KT M1/4SM FG VV001 07/07 A3003 2070 96 1700 000/00 RMK AO2 T00720067 RVRNO
03812KAVL AVL20160523055010605/23/16 05:50:31  5-MIN KAVL 231050Z 00000KT 1/4SM FG VV001 07/07 A3003 2070 96 1700 000/00 RMK AO2 RVRNO
03812KAVL AVL20160523055511605/23/16 05:55:31  5-MIN KAVL 231055Z 00000KT 1/4SM FG VV001 08/07 A3003 2070 93 1700 000/00 RMK AO2 T00780067 RVRNO
03812KAVL AVL20160523060010405/23/16 06:00:31  5-MIN KAVL 231100Z 00000KT 10SM CLR 08/07 A3003 2060 96 1700 000/00 RMK AO2 T00780072
03812KAVL AVL20160523060510405/23/16 06:05:31  5-MIN KAVL 231105Z 00000KT 10SM CLR 08/07 A3004 2060 93 1800 000/00 RMK AO2 T00830072
03812KAVL AVL20160523061010405/23/16 06:10:31  5-MIN KAVL 231110Z 00000KT 10SM CLR 08/07 A3004 2060 93 1800 000/00 RMK AO2 T00830072
03812KAVL AVL20160523061510905/23/16 06:15:31  5-MIN KAVL 231115Z VRB03KT 3SM BR BKN001 08/07 A3004 2060 96 1700 VRB/03 RMK AO2 T00780072
03812KAVL AVL20160523062012405/23/16 06:20:31  5-MIN KAVL 231120Z 00000KT 1SM BR VV001 08/07 A3004 2060 96 1700 000/00 RMK AO2 VIS 1/2V5 T00780072 RVRNO
03812KAVL AVL20160523062512405/23/16 06:25:31  5-MIN KAVL 231125Z 00000KT 3/4SM BR BKN001 BKN005 08/08 A3004 2060 96 1800 000/00 RMK AO2 T00830078 RVRNO
03812KAVL AVL20160523063012405/23/16 06:30:31  5-MIN KAVL 231130Z 00000KT 1/2SM FG BKN001 BKN006 08/08 A3004 2060 96 1800 000/00 RMK AO2 T00830078 RVRNO
03812KAVL AVL20160523063511605/23/16 06:35:31  5-MIN KAVL 231135Z 00000KT 1/4SM FG VV002 08/07 A3004 2050 93 1800 000/00 RMK AO2 T00830072 RVRNO
03812KAVL AVL20160523064011605/23/16 06:40:31  5-MIN KAVL 231140Z 00000KT 1/4SM FG VV002 08/08 A3004 2060 96 1800 000/00 RMK AO2 T00830078 RVRNO
03812KAVL AVL20160523064511705/23/16 06:45:31  5-MIN KAVL 231145Z 12003KT 1/4SM FG OVC002 09/08 A3005 2050 93 1800 120/03 RMK AO2 T00890078 RVRNO
03812KAVL AVL20160523065010705/23/16 06:50:31  5-MIN KAVL 231150Z 00000KT 1/2SM FG OVC002 09/08 A3005 2050 93 1800 000/00 RMK AO2 RVRNO
03812KAVL AVL20160523065511705/23/16 06:55:31  5-MIN KAVL 231155Z 00000KT 3/4SM BR OVC002 09/08 A3005 2050 96 1800 000/00 RMK AO2 T00890083 RVRNO
03812KAVL AVL20160523070011505/23/16 07:00:31  5-MIN KAVL 231200Z 00000KT 1SM BR OVC002 09/09 A3005 2050 96 1900 000/00 RMK AO2 T00940089 RVRNO
03812KAVL AVL20160523070511305/23/16 07:05:31  5-MIN KAVL 231205Z 00000KT 1 1/4SM BR OVC002 09/09 A3006 2040 96 1900 000/00 RMK AO2 T00940089
03812KAVL AVL20160523071011305/23/16 07:10:31  5-MIN KAVL 231210Z 00000KT 1 3/4SM BR OVC002 09/08 A3006 2040 93 1900 000/00 RMK AO2 T00940083
03812KAVL AVL20160523071511305/23/16 07:15:31  5-MIN KAVL 231215Z 00000KT 1 3/4SM BR OVC002 09/08 A3006 2040 93 1900 000/00 RMK AO2 T00940083
03812KAVL AVL20160523072011305/23/16 07:20:31  5-MIN KAVL 231220Z 00000KT 2 1/2SM BR OVC002 09/09 A3006 2040 96 1900 000/00 RMK AO2 T00940089
03812KAVL AVL20160523072510905/23/16 07:25:31  5-MIN KAVL 231225Z 00000KT 4SM BR BKN002 10/09 A3006 2040 93 2000 000/00 RMK AO2 T01000089
03812KAVL AVL20160523073010905/23/16 07:30:31  5-MIN KAVL 231230Z 00000KT 6SM BR BKN002 10/09 A3006 2040 93 2000 000/00 RMK AO2 T01000089
03812KAVL AVL20160523073510605/23/16 07:35:31  5-MIN KAVL 231235Z 00000KT 7SM SCT002 10/09 A3006 2040 93 2000 000/00 RMK AO2 T01000089
03812KAVL AVL20160523074010605/23/16 07:40:31  5-MIN KAVL 231240Z 00000KT 8SM FEW002 11/09 A3006 2040 89 2000 000/00 RMK AO2 T01060089
03812KAVL AVL20160523074510605/23/16 07:45:31  5-MIN KAVL 231245Z 34004KT 9SM FEW002 11/09 A3006 2040 89 2100 340/04 RMK AO2 T01110094
03812KAVL AVL20160523075011005/23/16 07:50:31  5-MIN KAVL 231250Z 34005KT 9SM CLR 12/09 A3006 2040 86 2200 340/05 RMK AO2 SLP167 T01170094
03812KAVL AVL20160523075510405/23/16 07:55:31  5-MIN KAVL 231255Z 34005KT 10SM CLR 12/09 A3006 2040 83 2200 350/05 RMK AO2 T01220094
03812KAVL AVL20160523080010405/23/16 08:00:31  5-MIN KAVL 231300Z 34006KT 10SM CLR 13/09 A3006 2040 80 2300 350/06 RMK AO2 T01280094
03812KAVL AVL20160523080510405/23/16 08:05:31  5-MIN KAVL 231305Z 34005KT 10SM CLR 13/09 A3006 2040 77 2400 350/05 RMK AO2 T01330094
03812KAVL AVL20160523081010405/23/16 08:10:31  5-MIN KAVL 231310Z 35005KT 10SM CLR 13/09 A3005 2040 77 2400 360/05 RMK AO2 T01330094
03812KAVL AVL20160523081510405/23/16 08:15:31  5-MIN KAVL 231315Z VRB05KT 10SM CLR 14/09 A3006 2040 74 2400 VRB/05 RMK AO2 T01390094
03812KAVL AVL20160523082010405/23/16 08:20:31  5-MIN KAVL 231320Z VRB05KT 10SM CLR 14/09 A3006 2040 74 2400 VRB/05 RMK AO2 T01390094
03812KAVL AVL20160523082510405/23/16 08:25:31  5-MIN KAVL 231325Z 35004KT 10SM CLR 14/09 A3006 2040 72 2500 360/04 RMK AO2 T01440094
03812KAVL AVL20160523083010405/23/16 08:30:31  5-MIN KAVL 231330Z VRB04KT 10SM CLR 14/09 A3006 2040 72 2500 VRB/04 RMK AO2 T01440094
03812KAVL AVL20160523083510405/23/16 08:35:31  5-MIN KAVL 231335Z 34006KT 10SM CLR 14/09 A3005 2040 72 2500 350/06 RMK AO2 T01440094
03812KAVL AVL20160523084010405/23/16 08:40:31  5-MIN KAVL 231340Z 34008KT 10SM CLR 14/10 A3005 2040 74 2500 340/08 RMK AO2 T01440100
03812KAVL AVL20160523084510405/23/16 08:45:31  5-MIN KAVL 231345Z 33008KT 10SM CLR 15/09 A3005 2040 69 2600 340/08 RMK AO2 T01500094
03812KAVL AVL20160523085011105/23/16 08:50:31  5-MIN KAVL 231350Z 34008KT 10SM CLR 15/09 A3005 2040 69 2600 350/08 RMK AO2 SLP163 T01500094
03812KAVL AVL20160523085511005/23/16 08:55:31  5-MIN KAVL 231355Z 33011G16KT 10SM CLR 16/09 A3005 2050 64 2600 330/11G16 RMK AO2 T01560089
03812KAVL AVL20160523090010405/23/16 09:00:31  5-MIN KAVL 231400Z 34013KT 10SM CLR 16/09 A3005 2050 62 2700 350/13 RMK AO2 T01610089
03812KAVL AVL20160523090510405/23/16 09:05:31  5-MIN KAVL 231405Z 34015KT 10SM CLR 16/09 A3005 2050 62 2700 340/15 RMK AO2 T01610089
03812KAVL AVL20160523091010405/23/16 09:10:31  5-MIN KAVL 231410Z 34014KT 10SM CLR 17/08 A3005 2050 57 2800 340/14 RMK AO2 T01670083
03812KAVL AVL20160523091511005/23/16 09:15:31  5-MIN KAVL 231415Z 34015G20KT 10SM CLR 17/08 A3004 2050 55 2800 350/15G20 RMK AO2 T01670078
03812KAVL AVL20160523092011005/23/16 09:20:31  5-MIN KAVL 231420Z 34013G20KT 10SM CLR 17/08 A3004 2060 53 2800 350/13G20 RMK AO2 T01720078
03812KAVL AVL20160523092511005/23/16 09:25:31  5-MIN KAVL 231425Z 34013G22KT 10SM CLR 17/08 A3004 2060 53 2800 350/13G22 RMK AO2 T01720078
03812KAVL AVL20160523093011005/23/16 09:30:31  5-MIN KAVL 231430Z 36012G22KT 10SM CLR 18/07 A3004 2060 49 2900 360/12G22 RMK AO2 T01780072
03812KAVL AVL20160523093511005/23/16 09:35:31  5-MIN KAVL 231435Z 35014G18KT 10SM CLR 17/07 A3004 2060 51 2800 350/14G18 RMK AO2 T01720072
03812KAVL AVL20160523094010405/23/16 09:40:31  5-MIN KAVL 231440Z 35014KT 10SM CLR 17/07 A3004 2060 51 2800 360/14 RMK AO2 T01720072
03812KAVL AVL20160523094510405/23/16 09:45:31  5-MIN KAVL 231445Z 33017KT 10SM CLR 18/07 A3004 2060 49 2900 340/17 RMK AO2 T01780072
03812KAVL AVL20160523095012305/23/16 09:50:31  5-MIN KAVL 231450Z 33017G22KT 10SM CLR 18/08 A3004 2060 51 2900 340/17G22 RMK AO2 SLP156 T01780078 51013
03812KAVL AVL20160523095511005/23/16 09:55:31  5-MIN KAVL 231455Z 35016G23KT 10SM CLR 18/07 A3004 2060 49 2900 350/16G23 RMK AO2 T01780072
03812KAVL AVL20160523100011005/23/16 10:00:31  5-MIN KAVL 231500Z 34015G23KT 10SM CLR 18/07 A3004 2060 48 2900 350/15G23 RMK AO2 T01780067
03812KAVL AVL20160523100511005/23/16 10:05:31  5-MIN KAVL 231505Z 35015G22KT 10SM CLR 18/07 A3004 2060 46 3000 350/15G22 RMK AO2 T01830067
03812KAVL AVL20160523101012805/23/16 10:10:31  5-MIN KAVL 231510Z 34019G26KT 10SM CLR 18/07 A3004 2060 46 3000 350/19G26 RMK AO2 PK WND 33026/1509 T01830067
03812KAVL AVL20160523101512805/23/16 10:15:31  5-MIN KAVL 231515Z 34019G27KT 10SM CLR 18/07 A3004 2060 46 3000 340/19G27 RMK AO2 PK WND 34027/1511 T01830067
03812KAVL AVL20160523102012805/23/16 10:20:31  5-MIN KAVL 231520Z 34021G27KT 10SM CLR 19/07 A3003 2060 44 3000 340/21G27 RMK AO2 PK WND 34027/1511 T01890067
03812KAVL AVL20160523102512805/23/16 10:25:31  5-MIN KAVL 231525Z 33020G25KT 10SM CLR 19/07 A3003 2060 44 3000 340/20G25 RMK AO2 PK WND 34027/1511 T01890067
03812KAVL AVL20160523103012805/23/16 10:30:31  5-MIN KAVL 231530Z 33013G21KT 10SM CLR 19/07 A3003 2060 44 3100 330/13G21 RMK AO2 PK WND 34027/1511 T01940072
03812KAVL AVL20160523103512805/23/16 10:35:31  5-MIN KAVL 231535Z 33016G25KT 10SM CLR 19/07 A3004 2060 44 3100 340/16G25 RMK AO2 PK WND 34027/1511 T01940072
03812KAVL AVL20160523104012805/23/16 10:40:31  5-MIN KAVL 231540Z 34018G25KT 10SM CLR 19/07 A3004 2060 43 3100 350/18G25 RMK AO2 PK WND 34027/1511 T01940067
03812KAVL AVL20160523104512805/23/16 10:45:31  5-MIN KAVL 231545Z 35014G23KT 10SM CLR 19/06 A3004 2050 41 3100 360/14G23 RMK AO2 PK WND 34027/1511 T01940061
03812KAVL AVL20160523105013505/23/16 10:50:31  5-MIN KAVL 231550Z 36011G21KT 10SM CLR 19/06 A3004 2050 41 3100 010/11G21 RMK AO2 PK WND 34027/1511 SLP157 T01940061
03812KAVL AVL20160523105511005/23/16 10:55:31  5-MIN KAVL 231555Z 36010G20KT 10SM CLR 19/06 A3004 2060 41 3100 010/10G20 RMK AO2 T01940061
03812KAVL AVL20160523110011005/23/16 11:00:31  5-MIN KAVL 231600Z 33016G22KT 10SM CLR 20/06 A3004 2060 40 3200 340/16G22 RMK AO2 T02000061
03812KAVL AVL20160523110511005/23/16 11:05:31  5-MIN KAVL 231605Z 35016G22KT 10SM CLR 19/06 A3004 2060 41 3100 350/16G22 RMK AO2 T01940061
03812KAVL AVL20160523111010405/23/16 11:10:31  5-MIN KAVL 231610Z 36013KT 10SM CLR 19/06 A3004 2060 41 3100 360/13 RMK AO2 T01940061
03812KAVL AVL20160523111510405/23/16 11:15:31  5-MIN KAVL 231615Z 32012KT 10SM CLR 21/07 A3004 2060 40 3200 330/12 RMK AO2 T02060067
03812KAVL AVL20160523195011405/23/16 19:50:31  5-MIN KAVL 240050Z 00000KT 10SM OVC070 19/08 A3006 2040 50 3000 000/00 RMK AO2 SLP165 T01890083
03812KAVL AVL20160523195511405/23/16 19:55:31  5-MIN KAVL 240055Z VRB04KT 10SM BKN065 OVC080 18/09 A3006 2040 54 2900 VRB/04 RMK AO2 T01830089
03812KAVL AVL20160523200011405/23/16 20:00:31  5-MIN KAVL 240100Z 15003KT 10SM BKN065 OVC085 18/08 A3006 2030 52 2900 150/03 RMK AO2 T01830083
03812KAVL AVL20160523200511405/23/16 20:05:31  5-MIN KAVL 240105Z 14004KT 10SM SCT060 OVC080 18/08 A3007 2030 52 2900 150/04 RMK AO2 T01830083
03812KAVL AVL20160523201011405/23/16 20:10:31  5-MIN KAVL 240110Z 15003KT 10SM SCT060 OVC080 18/09 A3007 2030 55 2900 160/03 RMK AO2 T01780089
03812KAVL AVL20160523201511405/23/16 20:15:31  5-MIN KAVL 240115Z 14003KT 10SM FEW060 BKN080 18/09 A3007 2030 55 2900 150/03 RMK AO2 T01780089
03812KAVL AVL20160523202011405/23/16 20:20:31  5-MIN KAVL 240120Z 14003KT 10SM FEW055 BKN080 17/09 A3007 2030 57 2800 140/03 RMK AO2 T01720089
03812KAVL AVL20160523202510705/23/16 20:25:31  5-MIN KAVL 240125Z 14003KT 10SM BKN080 18/09 A3007 2020 55 2900 140/03 RMK AO2 T01780089
03812KAVL AVL20160523203010705/23/16 20:30:31  5-MIN KAVL 240130Z 14003KT 10SM BKN080 18/09 A3008 2020 55 2900 140/03 RMK AO2 T01780089
03812KAVL AVL20160523203510705/23/16 20:35:31  5-MIN KAVL 240135Z 15003KT 10SM BKN080 18/09 A3008 2020 55 2900 150/03 RMK AO2 T01780089
03812KAVL AVL20160523204010705/23/16 20:40:31  5-MIN KAVL 240140Z 00000KT 10SM BKN080 17/09 A3008 2020 57 2800 000/00 RMK AO2 T01720089
03812KAVL AVL20160523204510705/23/16 20:45:31  5-MIN KAVL 240145Z 18003KT 10SM OVC075 17/09 A3008 2020 57 2800 190/03 RMK AO2 T01720089
03812KAVL AVL20160523205011405/23/16 20:50:31  5-MIN KAVL 240150Z 17003KT 10SM OVC075 17/09 A3008 2020 60 2800 180/03 RMK AO2 SLP171 T01720094
03812KAVL AVL20160523205510705/23/16 20:55:31  5-MIN KAVL 240155Z 17003KT 10SM OVC075 17/09 A3008 2020 60 2800 170/03 RMK AO2 T01720094
03812KAVL AVL20160523210010705/23/16 21:00:31  5-MIN KAVL 240200Z 15003KT 10SM BKN075 17/09 A3009 2020 62 2700 160/03 RMK AO2 T01670094
03812KAVL AVL20160523210510705/23/16 21:05:31  5-MIN KAVL 240205Z 15003KT 10SM BKN075 17/09 A3009 2010 62 2700 160/03 RMK AO2 T01670094
03812KAVL AVL20160523211010705/23/16 21:10:31  5-MIN KAVL 240210Z 15003KT 10SM SCT075 17/09 A3009 2010 62 2700 150/03 RMK AO2 T01670094
03812KAVL AVL20160523211510705/23/16 21:15:31  5-MIN KAVL 240215Z 14003KT 10SM SCT075 17/09 A3009 2010 62 2700 150/03 RMK AO2 T01670094
03812KAVL AVL20160523212010705/23/16 21:20:31  5-MIN KAVL 240220Z 00000KT 10SM FEW075 16/09 A3010 2010 64 2600 000/00 RMK AO2 T01610094
03812KAVL AVL20160523212510705/23/16 21:25:31  5-MIN KAVL 240225Z 17003KT 10SM FEW080 16/09 A3010 2010 64 2600 170/03 RMK AO2 T01610094
03812KAVL AVL20160523213010405/23/16 21:30:31  5-MIN KAVL 240230Z 15003KT 10SM CLR 16/09 A3010 2000 67 2600 160/03 RMK AO2 T01560094
03812KAVL AVL20160523213510405/23/16 21:35:31  5-MIN KAVL 240235Z 00000KT 10SM CLR 16/09 A3010 2000 67 2600 000/00 RMK AO2 T01560094
03812KAVL AVL20160523214010405/23/16 21:40:31  5-MIN KAVL 240240Z 00000KT 10SM CLR 16/09 A3010 2000 67 2600 000/00 RMK AO2 T01560094
03812KAVL AVL20160523214510405/23/16 21:45:31  5-MIN KAVL 240245Z 00000KT 10SM CLR 16/09 A3011 2000 67 2600 000/00 RMK AO2 T01560094
03812KAVL AVL20160523215011705/23/16 21:50:31  5-MIN KAVL 240250Z 00000KT 10SM CLR 16/09 A3011 2000 64 2600 000/00 RMK AO2 SLP178 T01610094 53010
03812KAVL AVL20160523215510905/23/16 21:55:31  5-MIN KAVL 240255Z AUTO 20003KT 10SM CLR 16/09 A3011 1990 67 2600 210/03 RMK AO2 T01560094
03812KAVL AVL20160523220010905/23/16 22:00:31  5-MIN KAVL 240300Z AUTO 24003KT 10SM CLR 14/10 A3011 1990 74 2400 250/03 RMK AO2 T01440100
03812KAVL AVL20160523220510905/23/16 22:05:31  5-MIN KAVL 240305Z AUTO 24003KT 10SM CLR 14/10 A3011 1990 77 2400 240/03 RMK AO2 T01390100
03812KAVL AVL20160523221010905/23/16 22:10:31  5-MIN KAVL 240310Z AUTO 23003KT 10SM CLR 14/10 A3012 1990 77 2400 240/03 RMK AO2 T01390100
03812KAVL AVL20160523221510905/23/16 22:15:31  5-MIN KAVL 240315Z AUTO 00000KT 10SM CLR 14/10 A3012 1980 77 2400 000/00 RMK AO2 T01390100
03812KAVL AVL20160523222010905/23/16 22:20:31  5-MIN KAVL 240320Z AUTO 00000KT 10SM CLR 14/10 A3012 1980 77 2400 000/00 RMK AO2 T01390100
03812KAVL AVL20160523222510905/23/16 22:25:31  5-MIN KAVL 240325Z AUTO 00000KT 10SM CLR 14/10 A3012 1980 77 2400 000/00 RMK AO2 T01390100
03812KAVL AVL20160523223010905/23/16 22:30:31  5-MIN KAVL 240330Z AUTO 00000KT 10SM CLR 14/10 A3012 1990 77 2400 000/00 RMK AO2 T01390100
03812KAVL AVL20160523223511205/23/16 22:35:31  5-MIN KAVL 240335Z AUTO 00000KT 10SM FEW070 14/10 A3012 1990 74 2400 000/00 RMK AO2 T01440100
03812KAVL AVL20160523224011205/23/16 22:40:31  5-MIN KAVL 240340Z AUTO 00000KT 10SM FEW075 14/10 A3012 1990 77 2400 000/00 RMK AO2 T01390100
03812KAVL AVL20160523224511205/23/16 22:45:31  5-MIN KAVL 240345Z AUTO 00000KT 10SM FEW075 14/10 A3012 1990 77 2400 000/00 RMK AO2 T01390100
03812KAVL AVL20160523225011905/23/16 22:50:31  5-MIN KAVL 240350Z AUTO 00000KT 10SM FEW070 14/10 A3011 1990 77 2400 000/00 RMK AO2 SLP181 T01390100
03812KAVL AVL20160523225511205/23/16 22:55:31  5-MIN KAVL 240355Z AUTO 00000KT 10SM FEW070 13/10 A3011 1990 80 2300 000/00 RMK AO2 T01330100
03812KAVL AVL20160523230011205/23/16 23:00:31  5-MIN KAVL 240400Z AUTO 00000KT 10SM FEW075 13/10 A3011 1990 80 2300 000/00 RMK AO2 T01330100
03812KAVL AVL20160523230510905/23/16 23:05:31  5-MIN KAVL 240405Z AUTO 00000KT 10SM CLR 13/10 A3011 1990 80 2300 000/00 RMK AO2 T01330100
03812KAVL AVL20160523231010905/23/16 23:10:31  5-MIN KAVL 240410Z AUTO 00000KT 10SM CLR 13/10 A3011 1990 80 2300 000/00 RMK AO2 T01330100
03812KAVL AVL20160523231510905/23/16 23:15:31  5-MIN KAVL 240415Z AUTO 15003KT 10SM CLR 13/10 A3011 1990 80 2300 160/03 RMK AO2 T01330100
03812KAVL AVL20160523232010905/23/16 23:20:31  5-MIN KAVL 240420Z AUTO 00000KT 10SM CLR 13/10 A3011 1990 83 2200 000/00 RMK AO2 T01280100
03812KAVL AVL20160523232510905/23/16 23:25:31  5-MIN KAVL 240425Z AUTO 00000KT 10SM CLR 13/09 A3011 1990 80 2200 000/00 RMK AO2 T01280094
03812KAVL AVL20160523233010905/23/16 23:30:31  5-MIN KAVL 240430Z AUTO 00000KT 10SM CLR 13/10 A3012 1990 80 2300 000/00 RMK AO2 T01330100
03812KAVL AVL20160523233510905/23/16 23:35:31  5-MIN KAVL 240435Z AUTO 00000KT 10SM CLR 13/09 A3012 1980 80 2200 000/00 RMK AO2 T01280094
03812KAVL AVL20160523234010905/23/16 23:40:31  5-MIN KAVL 240440Z AUTO 16003KT 10SM CLR 12/09 A3012 1980 83 2200 170/03 RMK AO2 T01220094
03812KAVL AVL20160523234510905/23/16 23:45:31  5-MIN KAVL 240445Z AUTO 00000KT 10SM CLR 12/10 A3012 1980 86 2200 000/00 RMK AO2 T01220100
03812KAVL AVL20160523235012605/23/16 23:50:31  5-MIN KAVL 240450Z AUTO 00000KT 10SM CLR 12/10 A3012 1990 86 2200 000/00 RMK AO2 SLP182 T01220100 402280072
03812KAVL AVL20160523235510905/23/16 23:55:31  5-MIN KAVL 240455Z AUTO 00000KT 10SM CLR 13/10 A3012 1990 83 2200 000/00 RMK AO2 T01280100
03812KAVL AVL20160524000011205/24/16 00:00:31  5-MIN KAVL 240500Z AUTO 00000KT 10SM FEW065 13/10 A3012 1980 83 2200 000/00 RMK AO2 T01280100
03812KAVL AVL20160524000511205/24/16 00:05:31  5-MIN KAVL 240505Z AUTO 00000KT 10SM SCT065 13/10 A3012 1980 83 2200 000/00 RMK AO2 T01280100
03812KAVL AVL20160524001011205/24/16 00:10:31  5-MIN KAVL 240510Z AUTO 00000KT 10SM BKN065 13/10 A3012 1980 83 2200 000/00 RMK AO2 T01280100
03812KAVL AVL20160524001511205/24/16 00:15:31  5-MIN KAVL 240515Z AUTO 00000KT 10SM BKN065 13/10 A3012 1980 83 2200 000/00 RMK AO2 T01280100
03812KAVL AVL20160524002011205/24/16 00:20:31  5-MIN KAVL 240520Z AUTO 00000KT 10SM BKN065 13/10 A3012 1980 83 2200 000/00 RMK AO2 T01280100
03812KAVL AVL20160524002511205/24/16 00:25:31  5-MIN KAVL 240525Z AUTO 00000KT 10SM OVC065 13/10 A3012 1980 83 2200 000/00 RMK AO2 T01280100
03812KAVL AVL20160524003011205/24/16 00:30:31  5-MIN KAVL 240530Z AUTO 00000KT 10SM OVC065 13/10 A3012 1990 83 2200 000/00 RMK AO2 T01280100
03812KAVL AVL20160524003511205/24/16 00:35:31  5-MIN KAVL 240535Z AUTO 17004KT 10SM BKN070 12/09 A3012 1980 83 2200 180/04 RMK AO2 T01220094
03812KAVL AVL20160524004011205/24/16 00:40:31  5-MIN KAVL 240540Z AUTO 14003KT 10SM SCT065 12/09 A3012 1980 83 2200 150/03 RMK AO2 T01220094
03812KAVL AVL20160524004511205/24/16 00:45:31  5-MIN KAVL 240545Z AUTO 00000KT 10SM SCT070 12/10 A3012 1980 86 2200 000/00 RMK AO2 T01220100
03812KAVL AVL20160524005013705/24/16 00:50:31  5-MIN KAVL 240550Z AUTO 00000KT 10SM FEW070 12/10 A3012 1980 86 2200 000/00 RMK AO2 SLP182 T01220100 10200 20122 53020
03812KAVL AVL20160524005511205/24/16 00:55:31  5-MIN KAVL 240555Z AUTO 17003KT 10SM FEW070 12/09 A3012 1980 86 2100 170/03 RMK AO2 T01170094
03812KAVL AVL20160524010010905/24/16 01:00:31  5-MIN KAVL 240600Z AUTO 19004KT 10SM CLR 11/09 A3012 1980 89 2000 200/04 RMK AO2 T01110094
03812KAVL AVL20160524010510905/24/16 01:05:31  5-MIN KAVL 240605Z AUTO 15003KT 10SM CLR 12/09 A3012 1980 86 2100 160/03 RMK AO2 T01170094
03812KAVL AVL20160524011010905/24/16 01:10:31  5-MIN KAVL 240610Z AUTO 00000KT 10SM CLR 11/09 A3012 1980 89 2000 000/00 RMK AO2 T01110094
03812KAVL AVL20160524011510905/24/16 01:15:31  5-MIN KAVL 240615Z AUTO 00000KT 10SM CLR 12/09 A3012 1980 86 2100 000/00 RMK AO2 T01170094
03812KAVL AVL20160524012010905/24/16 01:20:31  5-MIN KAVL 240620Z AUTO 00000KT 10SM CLR 12/09 A3012 1990 86 2100 000/00 RMK AO2 T01170094
03812KAVL AVL20160524012510905/24/16 01:25:31  5-MIN KAVL 240625Z AUTO 00000KT 10SM CLR 12/09 A3012 1990 86 2100 000/00 RMK AO2 T01170094
03812KAVL AVL20160524013010905/24/16 01:30:31  5-MIN KAVL 240630Z AUTO 00000KT 10SM CLR 12/09 A3012 1990 86 2100 000/00 RMK AO2 T01170094
03812KAVL AVL20160524013510905/24/16 01:35:31  5-MIN KAVL 240635Z AUTO 00000KT 10SM CLR 12/09 A3012 1990 86 2100 000/00 RMK AO2 T01170094
03812KAVL AVL20160524014011205/24/16 01:40:31  5-MIN KAVL 240640Z AUTO 00000KT 10SM FEW060 11/09 A3012 1990 89 2000 000/00 RMK AO2 T01110094
03812KAVL AVL20160524014511205/24/16 01:45:31  5-MIN KAVL 240645Z AUTO 00000KT 10SM SCT060 12/09 A3012 1990 86 2100 000/00 RMK AO2 T01170094
03812KAVL AVL20160524015011905/24/16 01:50:31  5-MIN KAVL 240650Z AUTO 00000KT 10SM BKN060 12/09 A3012 1990 86 2100 000/00 RMK AO2 SLP181 T01170094
03812KAVL AVL20160524015511205/24/16 01:55:31  5-MIN KAVL 240655Z AUTO 00000KT 10SM BKN060 12/09 A3012 1990 86 2100 000/00 RMK AO2 T01170094
03812KAVL AVL20160524020011205/24/16 02:00:31  5-MIN KAVL 240700Z AUTO 00000KT 10SM SCT060 12/09 A3012 1990 86 2100 000/00 RMK AO2 T01170094
03812KAVL AVL20160524020511205/24/16 02:05:31  5-MIN KAVL 240705Z AUTO 00000KT 10SM SCT060 12/09 A3012 1990 86 2100 000/00 RMK AO2 T01170094
03812KAVL AVL20160524021011205/24/16 02:10:31  5-MIN KAVL 240710Z AUTO 00000KT 10SM SCT060 12/09 A3012 1980 83 2100 000/00 RMK AO2 T01170089
03812KAVL AVL20160524021511205/24/16 02:15:31  5-MIN KAVL 240715Z AUTO 00000KT 10SM FEW065 11/09 A3012 1990 89 2000 000/00 RMK AO2 T01060089
03812KAVL AVL20160524022011205/24/16 02:20:31  5-MIN KAVL 240720Z AUTO 00000KT 10SM FEW065 11/09 A3012 1990 89 2000 000/00 RMK AO2 T01060089
03812KAVL AVL20160524022510905/24/16 02:25:31  5-MIN KAVL 240725Z AUTO 00000KT 10SM CLR 11/09 A3012 1980 89 2000 000/00 RMK AO2 T01060089
03812KAVL AVL20160524023010905/24/16 02:30:31  5-MIN KAVL 240730Z AUTO 00000KT 10SM CLR 11/09 A3012 1990 86 2000 000/00 RMK AO2 T01110089
03812KAVL AVL20160524023510905/24/16 02:35:31  5-MIN KAVL 240735Z AUTO 00000KT 10SM CLR 11/09 A3012 1990 89 2000 000/00 RMK AO2 T01060089
03812KAVL AVL20160524024010905/24/16 02:40:31  5-MIN KAVL 240740Z AUTO 00000KT 10SM CLR 11/09 A3012 1980 89 2000 000/00 RMK AO2 T01060089
03812KAVL AVL20160524024510905/24/16 02:45:31  5-MIN KAVL 240745Z AUTO 21003KT 10SM CLR 10/08 A3012 1980 89 1900 220/03 RMK AO2 T01000083
03812KAVL AVL20160524025011605/24/16 02:50:31  5-MIN KAVL 240750Z AUTO 00000KT 10SM CLR 10/09 A3012 1980 93 1900 000/00 RMK AO2 SLP183 T01000089
03812KAVL AVL20160524025510905/24/16 02:55:31  5-MIN KAVL 240755Z AUTO 00000KT 10SM CLR 11/09 A3012 1980 89 2000 000/00 RMK AO2 T01060089
03812KAVL AVL20160524030011205/24/16 03:00:31  5-MIN KAVL 240800Z AUTO 00000KT 10SM FEW060 11/09 A3012 1980 89 2000 000/00 RMK AO2 T01060089
03812KAVL AVL20160524030511205/24/16 03:05:31  5-MIN KAVL 240805Z AUTO 00000KT 10SM FEW060 10/09 A3012 1980 93 1900 000/00 RMK AO2 T01000089
03812KAVL AVL20160524031011205/24/16 03:10:31  5-MIN KAVL 240810Z AUTO 00000KT 10SM SCT060 10/09 A3013 1980 93 1900 000/00 RMK AO2 T01000089
03812KAVL AVL20160524031511205/24/16 03:15:31  5-MIN KAVL 240815Z AUTO 00000KT 10SM SCT060 11/09 A3012 1980 89 2000 000/00 RMK AO2 T01060089
03812KAVL AVL20160524032011905/24/16 03:20:31  5-MIN KAVL 240820Z AUTO 00000KT 10SM SCT060 BKN070 11/09 A3012 1980 89 2000 000/00 RMK AO2 T01060089
03812KAVL AVL20160524032511905/24/16 03:25:31  5-MIN KAVL 240825Z AUTO 00000KT 10SM SCT060 SCT070 11/09 A3012 1980 89 2000 000/00 RMK AO2 T01060089
03812KAVL AVL20160524033011905/24/16 03:30:31  5-MIN KAVL 240830Z AUTO 00000KT 10SM FEW060 SCT070 11/09 A3013 1980 89 2000 000/00 RMK AO2 T01060089
03812KAVL AVL20160524033511205/24/16 03:35:31  5-MIN KAVL 240835Z AUTO 00000KT 10SM SCT060 10/08 A3013 1980 89 1900 000/00 RMK AO2 T01000083
03812KAVL AVL20160524034011905/24/16 03:40:31  5-MIN KAVL 240840Z AUTO 00000KT 10SM FEW060 FEW070 10/08 A3013 1980 89 1900 000/00 RMK AO2 T01000083
03812KAVL AVL20160524034511205/24/16 03:45:31  5-MIN KAVL 240845Z AUTO 00000KT 10SM FEW070 10/08 A3013 1970 89 1900 000/00 RMK AO2 T01000083
03812KAVL AVL20160524035012205/24/16 03:50:31  5-MIN KAVL 240850Z AUTO 00000KT 10SM CLR 10/08 A3013 1970 89 1900 000/00 RMK AO2 SLP188 T01000083 51003
03812KAVL AVL20160524035510905/24/16 03:55:31  5-MIN KAVL 240855Z AUTO 00000KT 10SM CLR 10/08 A3013 1970 89 1900 000/00 RMK AO2 T01000083
03812KAVL AVL20160524040010905/24/16 04:00:31  5-MIN KAVL 240900Z AUTO 00000KT 10SM CLR 11/08 A3013 1970 86 1900 000/00 RMK AO2 T01060083
03812KAVL AVL20160524040510905/24/16 04:05:31  5-MIN KAVL 240905Z AUTO 00000KT 10SM CLR 10/08 A3014 1970 89 1900 000/00 RMK AO2 T01000083
03812KAVL AVL20160524041010905/24/16 04:10:31  5-MIN KAVL 240910Z AUTO 00000KT 10SM CLR 10/08 A3014 1970 89 1900 000/00 RMK AO2 T01000083
03812KAVL AVL20160524041510905/24/16 04:15:31  5-MIN KAVL 240915Z AUTO 25003KT 10SM CLR 09/08 A3014 1970 89 1800 250/03 RMK AO2 T00940078
03812KAVL AVL20160524042010905/24/16 04:20:31  5-MIN KAVL 240920Z AUTO 00000KT 10SM CLR 09/08 A3014 1970 89 1800 000/00 RMK AO2 T00940078
03812KAVL AVL20160524042510905/24/16 04:25:31  5-MIN KAVL 240925Z AUTO 00000KT 10SM CLR 10/08 A3014 1970 89 1900 000/00 RMK AO2 T01000083
03812KAVL AVL20160524043010905/24/16 04:30:31  5-MIN KAVL 240930Z AUTO 00000KT 10SM CLR 09/08 A3014 1970 89 1800 000/00 RMK AO2 T00940078
03812KAVL AVL20160524043510905/24/16 04:35:31  5-MIN KAVL 240935Z AUTO 00000KT 10SM CLR 10/08 A3014 1970 86 1900 000/00 RMK AO2 T01000078
03812KAVL AVL20160524044010905/24/16 04:40:31  5-MIN KAVL 240940Z AUTO 00000KT 10SM CLR 10/08 A3014 1970 86 1900 000/00 RMK AO2 T01000078
03812KAVL AVL20160524044510905/24/16 04:45:31  5-MIN KAVL 240945Z AUTO 00000KT 10SM CLR 09/08 A3014 1960 89 1800 000/00 RMK AO2 T00940078
03812KAVL AVL20160524045011605/24/16 04:50:31  5-MIN KAVL 240950Z AUTO 00000KT 10SM CLR 09/08 A3014 1960 89 1800 000/00 RMK AO2 SLP192 T00940078
03812KAVL AVL20160524045510905/24/16 04:55:31  5-MIN KAVL 240955Z AUTO 00000KT 10SM CLR 09/08 A3014 1960 89 1800 000/00 RMK AO2 T00940078
03812KAVL AVL20160524050010905/24/16 05:00:31  5-MIN KAVL 241000Z AUTO 00000KT 10SM CLR 09/08 A3014 1960 89 1800 000/00 RMK AO2 T00940078
03812KAVL AVL20160524050510905/24/16 05:05:31  5-MIN KAVL 241005Z AUTO 00000KT 10SM CLR 09/08 A3015 1960 89 1800 000/00 RMK AO2 T00940078
03812KAVL AVL20160524051010905/24/16 05:10:31  5-MIN KAVL 241010Z AUTO 00000KT 10SM CLR 09/07 A3015 1960 86 1800 000/00 RMK AO2 T00940072
03812KAVL AVL20160524051510905/24/16 05:15:31  5-MIN KAVL 241015Z AUTO 00000KT 10SM CLR 09/08 A3015 1960 89 1800 000/00 RMK AO2 T00940078
03812KAVL AVL20160524052010405/24/16 05:20:31  5-MIN KAVL 241020Z 00000KT 10SM CLR 09/07 A3015 1960 86 1800 000/00 RMK AO2 T00940072
03812KAVL AVL20160524052510405/24/16 05:25:31  5-MIN KAVL 241025Z 00000KT 10SM CLR 09/07 A3015 1950 86 1800 000/00 RMK AO2 T00940072
03812KAVL AVL20160524053010405/24/16 05:30:31  5-MIN KAVL 241030Z 00000KT 10SM CLR 09/07 A3015 1950 89 1700 000/00 RMK AO2 T00890072
03812KAVL AVL20160524053510305/24/16 05:35:31  5-MIN KAVL 241035Z 00000KT 8SM CLR 09/08 A3016 1950 93 1700 000/00 RMK AO2 T00890078
03812KAVL AVL20160524054011305/24/16 05:40:31  5-MIN KAVL 241040Z 00000KT 1 1/4SM BR FEW002 09/07 A3016 1940 89 1700 000/00 RMK AO2 T00890072
03812KAVL AVL20160524054511605/24/16 05:45:31  5-MIN KAVL 241045Z 00000KT 3/4SM BR VV002 09/08 A3017 1940 93 1700 000/00 RMK AO2 T00890078 RVRNO
03812KAVL AVL20160524055011605/24/16 05:50:31  5-MIN KAVL 241050Z 00000KT 2SM BR FEW002 09/08 A3017 1940 93 1700 000/00 RMK AO2 SLP202 T00890078
03812KAVL AVL20160524055510605/24/16 05:55:31  5-MIN KAVL 241055Z 00000KT 8SM FEW002 09/08 A3017 1930 93 1700 000/00 RMK AO2 T00890078
03812KAVL AVL20160524060010605/24/16 06:00:31  5-MIN KAVL 241100Z 00000KT 9SM FEW002 09/08 A3018 1930 93 1800 000/00 RMK AO2 T00940083
03812KAVL AVL20160524060510405/24/16 06:05:31  5-MIN KAVL 241105Z 00000KT 10SM CLR 09/09 A3018 1930 96 1800 000/00 RMK AO2 T00940089
03812KAVL AVL20160524061010405/24/16 06:10:31  5-MIN KAVL 241110Z 00000KT 10SM CLR 10/08 A3018 1930 89 1800 000/00 RMK AO2 T01000083
03812KAVL AVL20160524061510405/24/16 06:15:31  5-MIN KAVL 241115Z 00000KT 10SM CLR 10/08 A3018 1930 89 1800 000/00 RMK AO2 T01000083
03812KAVL AVL20160524062010405/24/16 06:20:31  5-MIN KAVL 241120Z 00000KT 10SM CLR 11/09 A3019 1920 89 1900 000/00 RMK AO2 T01060089
03812KAVL AVL20160524062510405/24/16 06:25:31  5-MIN KAVL 241125Z 00000KT 10SM CLR 11/09 A3018 1920 86 2000 000/00 RMK AO2 T01110089
03812KAVL AVL20160524063010405/24/16 06:30:31  5-MIN KAVL 241130Z 00000KT 10SM CLR 11/09 A3019 1920 86 2000 000/00 RMK AO2 T01110089
03812KAVL AVL20160524063510405/24/16 06:35:31  5-MIN KAVL 241135Z 33005KT 10SM CLR 12/09 A3019 1920 83 2000 340/05 RMK AO2 T01170089
03812KAVL AVL20160524064010405/24/16 06:40:31  5-MIN KAVL 241140Z 33005KT 10SM CLR 11/08 A3019 1920 86 1900 340/05 RMK AO2 T01060083
03812KAVL AVL20160524064510405/24/16 06:45:31  5-MIN KAVL 241145Z 33003KT 10SM CLR 11/09 A3019 1910 86 1900 330/03 RMK AO2 T01110089
03812KAVL AVL20160524065012905/24/16 06:50:31  5-MIN KAVL 241150Z 33003KT 10SM CLR 12/09 A3019 1910 86 2000 330/03 RMK AO2 SLP209 T01170094 10117 20089 53004
03812KAVL AVL20160524065510405/24/16 06:55:31  5-MIN KAVL 241155Z 33004KT 10SM CLR 12/09 A3019 1920 86 2000 340/04 RMK AO2 T01170094
03812KAVL AVL20160524070010405/24/16 07:00:31  5-MIN KAVL 241200Z 32003KT 10SM CLR 12/09 A3020 1910 83 2100 330/03 RMK AO2 T01220094
03812KAVL AVL20160524070510405/24/16 07:05:31  5-MIN KAVL 241205Z 00000KT 10SM CLR 12/10 A3020 1910 86 2100 000/00 RMK AO2 T01220100
03812KAVL AVL20160524071010405/24/16 07:10:31  5-MIN KAVL 241210Z 00000KT 10SM CLR 13/10 A3020 1910 83 2100 000/00 RMK AO2 T01280100
03812KAVL AVL20160524071510405/24/16 07:15:31  5-MIN KAVL 241215Z 24004KT 10SM CLR 13/10 A3021 1900 83 2100 240/04 RMK AO2 T01280100
03812KAVL AVL20160524072010405/24/16 07:20:31  5-MIN KAVL 241220Z 00000KT 10SM CLR 12/10 A3021 1900 86 2100 000/00 RMK AO2 T01220100
03812KAVL AVL20160524072510405/24/16 07:25:31  5-MIN KAVL 241225Z 00000KT 10SM CLR 13/10 A3021 1900 83 2100 000/00 RMK AO2 T01280100
03812KAVL AVL20160524073010405/24/16 07:30:31  5-MIN KAVL 241230Z 18003KT 10SM CLR 13/10 A3021 1900 83 2100 180/03 RMK AO2 T01280100
03812KAVL AVL20160524073510405/24/16 07:35:31  5-MIN KAVL 241235Z 00000KT 10SM CLR 13/10 A3021 1900 83 2100 000/00 RMK AO2 T01280100
03812KAVL AVL20160524074010405/24/16 07:40:31  5-MIN KAVL 241240Z 00000KT 10SM CLR 13/10 A3021 1900 80 2200 000/00 RMK AO2 T01330100
03812KAVL AVL20160524074510405/24/16 07:45:31  5-MIN KAVL 241245Z 00000KT 10SM CLR 13/10 A3021 1900 80 2200 000/00 RMK AO2 T01330100
03812KAVL AVL20160524075011105/24/16 07:50:31  5-MIN KAVL 241250Z 00000KT 10SM CLR 14/10 A3021 1900 77 2300 000/00 RMK AO2 SLP212 T01390100
03812KAVL AVL20160524075510405/24/16 07:55:31  5-MIN KAVL 241255Z 00000KT 10SM CLR 14/10 A3021 1900 77 2300 000/00 RMK AO2 T01390100
03812KAVL AVL20160524080010405/24/16 08:00:31  5-MIN KAVL 241300Z 00000KT 10SM CLR 14/10 A3021 1900 77 2300 000/00 RMK AO2 T01390100
03812KAVL AVL20160524080510405/24/16 08:05:31  5-MIN KAVL 241305Z 00000KT 10SM CLR 14/10 A3021 1900 74 2300 000/00 RMK AO2 T01440100
03812KAVL AVL20160524081010405/24/16 08:10:31  5-MIN KAVL 241310Z 00000KT 10SM CLR 15/10 A3021 1900 72 2400 000/00 RMK AO2 T01500100
03812KAVL AVL20160524081510405/24/16 08:15:31  5-MIN KAVL 241315Z 00000KT 10SM CLR 14/10 A3021 1900 74 2300 000/00 RMK AO2 T01440100
03812KAVL AVL20160524082010405/24/16 08:20:31  5-MIN KAVL 241320Z 20003KT 10SM CLR 16/10 A3021 1900 69 2400 210/03 RMK AO2 T01560100
03812KAVL AVL20160524082510405/24/16 08:25:31  5-MIN KAVL 241325Z 00000KT 10SM CLR 15/10 A3021 1900 72 2400 000/00 RMK AO2 T01500100
03812KAVL AVL20160524083010405/24/16 08:30:31  5-MIN KAVL 241330Z 00000KT 10SM CLR 16/10 A3021 1900 69 2400 000/00 RMK AO2 T01560100
03812KAVL AVL20160524083510405/24/16 08:35:31  5-MIN KAVL 241335Z 00000KT 10SM CLR 16/10 A3021 1900 67 2500 000/00 RMK AO2 T01610100
03812KAVL AVL20160524084010405/24/16 08:40:31  5-MIN KAVL 241340Z 00000KT 10SM CLR 17/11 A3021 1900 67 2600 000/00 RMK AO2 T01670106
03812KAVL AVL20160524084510405/24/16 08:45:31  5-MIN KAVL 241345Z 00000KT 10SM CLR 17/10 A3021 1900 64 2600 000/00 RMK AO2 T01670100
03812KAVL AVL20160524085011105/24/16 08:50:31  5-MIN KAVL 241350Z 16003KT 10SM CLR 17/10 A3021 1900 64 2600 160/03 RMK AO2 SLP214 T01670100
03812KAVL AVL20160524085510405/24/16 08:55:31  5-MIN KAVL 241355Z 00000KT 10SM CLR 17/10 A3021 1900 64 2600 000/00 RMK AO2 T01670100
03812KAVL AVL20160524090010405/24/16 09:00:31  5-MIN KAVL 241400Z 18004KT 10SM CLR 17/10 A3021 1900 62 2600 180/04 RMK AO2 T01720100
03812KAVL AVL20160524090510405/24/16 09:05:31  5-MIN KAVL 241405Z 00000KT 10SM CLR 18/10 A3021 1900 60 2700 000/00 RMK AO2 T01780100
03812KAVL AVL20160524091010405/24/16 09:10:31  5-MIN KAVL 241410Z VRB03KT 10SM CLR 18/11 A3021 1900 60 2800 VRB/03 RMK AO2 T01830106
03812KAVL AVL20160524091510405/24/16 09:15:31  5-MIN KAVL 241415Z 00000KT 10SM CLR 18/11 A3021 1900 60 2800 000/00 RMK AO2 T01830106
03812KAVL AVL20160524092010405/24/16 09:20:31  5-MIN KAVL 241420Z 00000KT 10SM CLR 19/11 A3021 1900 58 2800 000/00 RMK AO2 T01890106
03812KAVL AVL20160524092510405/24/16 09:25:31  5-MIN KAVL 241425Z 00000KT 10SM CLR 19/11 A3021 1900 58 2800 000/00 RMK AO2 T01890106
03812KAVL AVL20160524093010405/24/16 09:30:31  5-MIN KAVL 241430Z 08003KT 10SM CLR 19/11 A3021 1900 56 2900 090/03 RMK AO2 T01940106
03812KAVL AVL20160524093510405/24/16 09:35:31  5-MIN KAVL 241435Z 00000KT 10SM CLR 19/10 A3021 1910 56 2800 000/00 RMK AO2 T01890100
03812KAVL AVL20160524094010405/24/16 09:40:31  5-MIN KAVL 241440Z 00000KT 10SM CLR 20/10 A3021 1900 52 3000 000/00 RMK AO2 T02000100
03812KAVL AVL20160524094510405/24/16 09:45:31  5-MIN KAVL 241445Z 00000KT 10SM CLR 19/10 A3021 1900 54 2900 000/00 RMK AO2 T01940100
03812KAVL AVL20160524095011705/24/16 09:50:31  5-MIN KAVL 241450Z 06003KT 10SM CLR 20/10 A3020 1910 52 3000 070/03 RMK AO2 SLP209 T02000100 53020
03812KAVL AVL20160524095510405/24/16 09:55:31  5-MIN KAVL 241455Z VRB03KT 10SM CLR 20/09 A3020 1910 50 3000 VRB/03 RMK AO2 T02000094
03812KAVL AVL20160524100010405/24/16 10:00:31  5-MIN KAVL 241500Z 00000KT 10SM CLR 20/09 A3020 1910 50 3000 000/00 RMK AO2 T02000094
03812KAVL AVL20160524100510405/24/16 10:05:31  5-MIN KAVL 241505Z VRB03KT 10SM CLR 21/10 A3020 1910 50 3000 VRB/03 RMK AO2 T02060100
03812KAVL AVL20160524101010405/24/16 10:10:31  5-MIN KAVL 241510Z VRB03KT 10SM CLR 21/10 A3020 1910 48 3100 VRB/03 RMK AO2 T02110100
03812KAVL AVL20160524101510405/24/16 10:15:31  5-MIN KAVL 241515Z 00000KT 10SM CLR 21/09 A3020 1910 45 3100 000/00 RMK AO2 T02110089
03812KAVL AVL20160524102010405/24/16 10:20:31  5-MIN KAVL 241520Z VRB04KT 10SM CLR 22/09 A3021 1900 43 3200 VRB/04 RMK AO2 T02170089
03812KAVL AVL20160524102510405/24/16 10:25:31  5-MIN KAVL 241525Z 35005KT 10SM CLR 22/09 A3021 1900 43 3200 350/05 RMK AO2 T02220094
03812KAVL AVL20160524103010405/24/16 10:30:31  5-MIN KAVL 241530Z VRB04KT 10SM CLR 22/09 A3021 1900 43 3200 VRB/04 RMK AO2 T02170089
03812KAVL AVL20160524103510405/24/16 10:35:31  5-MIN KAVL 241535Z VRB03KT 10SM CLR 22/09 A3020 1910 43 3200 VRB/03 RMK AO2 T02170089
03812KAVL AVL20160524104010405/24/16 10:40:31  5-MIN KAVL 241540Z VRB04KT 10SM CLR 22/09 A3020 1910 42 3200 VRB/04 RMK AO2 T02220089
03812KAVL AVL20160524104510405/24/16 10:45:31  5-MIN KAVL 241545Z 33006KT 10SM CLR 22/09 A3020 1910 43 3200 330/06 RMK AO2 T02220094
03812KAVL AVL20160524105010105/24/16 10:50:31  5-MIN KAVL 241550Z 10SM CLR 22/08 A3020 1910 40 3200 M /M RMK AO2 SLP209 T02220083
03812KAVL AVL20160524105509405/24/16 10:55:31  5-MIN KAVL 241555Z 10SM CLR 22/08 A3020 1910 40 3200 M /M RMK AO2 T02220083
03812KAVL AVL20160524110010405/24/16 11:00:31  5-MIN KAVL 241600Z 30004KT 10SM CLR 22/08 A3020 1910 40 3200 310/04 RMK AO2 T02220083
03812KAVL AVL20160524110510405/24/16 11:05:31  5-MIN KAVL 241605Z 33009KT 10SM CLR 23/08 A3021 1900 39 3300 340/09 RMK AO2 T02280083
03812KAVL AVL20160524111010405/24/16 11:10:31  5-MIN KAVL 241610Z VRB04KT 10SM CLR 23/08 A3021 1900 39 3300 VRB/04 RMK AO2 T02280083
03812KAVL AVL20160524111510405/24/16 11:15:31  5-MIN KAVL 241615Z 01007KT 10SM CLR 23/08 A3021 1900 37 3300 010/07 RMK AO2 T02280078
03812KAVL AVL20160524112010405/24/16 11:20:31  5-MIN KAVL 241620Z 05004KT 10SM CLR 23/07 A3021 1900 36 3300 060/04 RMK AO2 T02280072
03812KAVL AVL20160524112510405/24/16 11:25:31  5-MIN KAVL 241625Z 02007KT 10SM CLR 23/07 A3021 1900 35 3300 030/07 RMK AO2 T02280067
03812KAVL AVL20160524113010405/24/16 11:30:31  5-MIN KAVL 241630Z VRB06KT 10SM CLR 23/08 A3021 1900 36 3300 VRB/06 RMK AO2 T02330078
03812KAVL AVL20160524113510405/24/16 11:35:31  5-MIN KAVL 241635Z VRB05KT 10SM CLR 23/08 A3021 1900 36 3300 VRB/05 RMK AO2 T02330078
03812KAVL AVL20160524114010405/24/16 11:40:31  5-MIN KAVL 241640Z 34010KT 10SM CLR 23/08 A3021 1900 36 3300 350/10 RMK AO2 T02330078
03812KAVL AVL20160524114510405/24/16 11:45:31  5-MIN KAVL 241645Z 35011KT 10SM CLR 23/08 A3021 1900 36 3300 350/11 RMK AO2 T02330078
03812KAVL AVL20160524115011105/24/16 11:50:31  5-MIN KAVL 241650Z 35008KT 10SM CLR 23/08 A3020 1910 36 3300 360/08 RMK AO2 SLP209 T02330078
03812KAVL AVL20160524115510405/24/16 11:55:31  5-MIN KAVL 241655Z VRB03KT 10SM CLR 23/08 A3020 1910 36 3300 VRB/03 RMK AO2 T02330078
03812KAVL AVL20160524120009405/24/16 12:00:31  5-MIN KAVL 241700Z 10SM CLR 24/07 A3020 1910 34 3400 M /M RMK AO2 T02390072
03812KAVL AVL20160524120512005/24/16 12:05:31  5-MIN KAVL 241705Z 36008KT 340V040 10SM CLR 24/08 A3020 1910 35 3400 010/08 350V050 RMK AO2 T02390078
03812KAVL AVL20160524121010405/24/16 12:10:31  5-MIN KAVL 241710Z 35010KT 10SM CLR 24/08 A3020 1910 35 3400 350/10 RMK AO2 T02390078
03812KAVL AVL20160524121510405/24/16 12:15:31  5-MIN KAVL 241715Z 01007KT 10SM CLR 23/07 A3020 1910 35 3400 020/07 RMK AO2 T02330072
03812KAVL AVL20160524122010405/24/16 12:20:31  5-MIN KAVL 241720Z VRB06KT 10SM CLR 23/07 A3019 1920 35 3400 VRB/06 RMK AO2 T02330072
03812KAVL AVL20160524122510405/24/16 12:25:31  5-MIN KAVL 241725Z 04006KT 10SM CLR 24/07 A3019 1920 34 3400 050/06 RMK AO2 T02390072
03812KAVL AVL20160524123012005/24/16 12:30:31  5-MIN KAVL 241730Z 33009KT 290V360 10SM CLR 24/07 A3019 1920 34 3400 330/09 300V010 RMK AO2 T02390072
03812KAVL AVL20160524123510405/24/16 12:35:31  5-MIN KAVL 241735Z VRB05KT 10SM CLR 24/08 A3019 1920 35 3400 VRB/05 RMK AO2 T02390078
03812KAVL AVL20160524124010405/24/16 12:40:31  5-MIN KAVL 241740Z 36010KT 10SM CLR 24/08 A3018 1920 34 3500 360/10 RMK AO2 T02440078
03812KAVL AVL20160524124510405/24/16 12:45:31  5-MIN KAVL 241745Z 02005KT 10SM CLR 24/07 A3018 1930 34 3400 030/05 RMK AO2 T02390072
03812KAVL AVL20160524125012905/24/16 12:50:31  5-MIN KAVL 241750Z VRB05KT 10SM CLR 24/08 A3018 1930 35 3400 VRB/05 RMK AO2 SLP200 T02390078 10244 20117 50003
03812KAVL AVL20160524125510405/24/16 12:55:31  5-MIN KAVL 241755Z 36007KT 10SM CLR 24/08 A3018 1930 34 3500 010/07 RMK AO2 T02440078
03812KAVL AVL20160524130012005/24/16 13:00:31  5-MIN KAVL 241800Z 01007KT 350V050 10SM CLR 24/07 A3018 1930 34 3400 020/07 360V060 RMK AO2 T02390072
03812KAVL AVL20160524130510405/24/16 13:05:31  5-MIN KAVL 241805Z 01009KT 10SM CLR 24/07 A3018 1930 33 3500 010/09 RMK AO2 T02440072
03812KAVL AVL20160524131010405/24/16 13:10:31  5-MIN KAVL 241810Z 03006KT 10SM CLR 24/07 A3017 1930 33 3500 030/06 RMK AO2 T02440072
03812KAVL AVL20160524131510405/24/16 13:15:31  5-MIN KAVL 241815Z VRB05KT 10SM CLR 24/08 A3017 1940 34 3500 VRB/05 RMK AO2 T02440078
03812KAVL AVL20160524132010405/24/16 13:20:31  5-MIN KAVL 241820Z VRB06KT 10SM CLR 24/07 A3017 1940 33 3500 VRB/06 RMK AO2 T02440072
03812KAVL AVL20160524132510405/24/16 13:25:31  5-MIN KAVL 241825Z VRB03KT 10SM CLR 25/08 A3017 1940 33 3600 VRB/03 RMK AO2 T02500078
03812KAVL AVL20160524133010405/24/16 13:30:31  5-MIN KAVL 241830Z 34006KT 10SM CLR 25/08 A3017 1940 33 3600 340/06 RMK AO2 T02500078
03812KAVL AVL20160524133509405/24/16 13:35:31  5-MIN KAVL 241835Z 10SM CLR 24/08 A3017 1940 34 3500 M /M RMK AO2 T02440078
03812KAVL AVL20160524134010405/24/16 13:40:31  5-MIN KAVL 241840Z VRB04KT 10SM CLR 25/07 A3017 1940 30 3600 VRB/04 RMK AO2 T02500067
03812KAVL AVL20160524134509405/24/16 13:45:31  5-MIN KAVL 241845Z 10SM CLR 25/07 A3017 1940 31 3600 M /M RMK AO2 T02500072
03812KAVL AVL20160524135011105/24/16 13:50:31  5-MIN KAVL 241850Z 01009KT 10SM CLR 25/07 A3017 1940 30 3600 020/09 RMK AO2 SLP197 T02500067
03812KAVL AVL20160524135510405/24/16 13:55:31  5-MIN KAVL 241855Z VRB04KT 10SM CLR 25/07 A3017 1940 31 3600 VRB/04 RMK AO2 T02500072
03812KAVL AVL20160524140010405/24/16 14:00:31  5-MIN KAVL 241900Z VRB04KT 10SM CLR 25/07 A3017 1940 31 3600 VRB/04 RMK AO2 T02500072
03812KAVL AVL20160524140510405/24/16 14:05:31  5-MIN KAVL 241905Z VRB06KT 10SM CLR 26/07 A3017 1940 30 3600 VRB/06 RMK AO2 T02560072
03812KAVL AVL20160524141010405/24/16 14:10:31  5-MIN KAVL 241910Z 34009KT 10SM CLR 26/07 A3017 1940 30 3600 350/09 RMK AO2 T02560072
03812KAVL AVL20160524141510405/24/16 14:15:31  5-MIN KAVL 241915Z 33007KT 10SM CLR 26/08 A3017 1940 32 3600 330/07 RMK AO2 T02560078
03812KAVL AVL20160524142010405/24/16 14:20:31  5-MIN KAVL 241920Z VRB06KT 10SM CLR 26/07 A3017 1940 29 3600 VRB/06 RMK AO2 T02560067
03812KAVL AVL20160524142510405/24/16 14:25:31  5-MIN KAVL 241925Z 02007KT 10SM CLR 26/07 A3017 1940 29 3600 030/07 RMK AO2 T02560067
03812KAVL AVL20160524143010405/24/16 14:30:31  5-MIN KAVL 241930Z 02004KT 10SM CLR 25/06 A3017 1940 29 3600 030/04 RMK AO2 T02500061
03812KAVL AVL20160524143510405/24/16 14:35:31  5-MIN KAVL 241935Z VRB04KT 10SM CLR 26/07 A3016 1940 29 3600 VRB/04 RMK AO2 T02560067
03812KAVL AVL20160524144010405/24/16 14:40:31  5-MIN KAVL 241940Z VRB04KT 10SM CLR 26/07 A3016 1940 29 3600 VRB/04 RMK AO2 T02560067
03812KAVL AVL20160524144510405/24/16 14:45:31  5-MIN KAVL 241945Z VRB03KT 10SM CLR 26/07 A3016 1950 29 3600 VRB/03 RMK AO2 T02560067
03812KAVL AVL20160524145011105/24/16 14:50:31  5-MIN KAVL 241950Z 00000KT 10SM CLR 25/06 A3016 1950 29 3600 000/00 RMK AO2 SLP194 T02500061
03812KAVL AVL20160524145509405/24/16 14:55:31  5-MIN KAVL 241955Z 10SM CLR 26/07 A3016 1950 30 3600 M /M RMK AO2 T02560072
03812KAVL AVL20160524150010905/24/16 15:00:31  5-MIN KAVL 242000Z AUTO VRB04KT 10SM CLR 26/07 A3016 1950 29 3600 VRB/04 RMK AO2 T02560067
03812KAVL AVL20160524150510405/24/16 15:05:31  5-MIN KAVL 242005Z 29006KT 10SM CLR 26/07 A3016 1950 30 3600 290/06 RMK AO2 T02560072
03812KAVL AVL20160524151010405/24/16 15:10:31  5-MIN KAVL 242010Z 36005KT 10SM CLR 26/07 A3016 1950 30 3600 010/05 RMK AO2 T02560072
03812KAVL AVL20160524151510405/24/16 15:15:31  5-MIN KAVL 242015Z 00000KT 10SM CLR 26/07 A3015 1950 29 3600 000/00 RMK AO2 T02560067
03812KAVL AVL20160524152009405/24/16 15:20:31  5-MIN KAVL 242020Z 10SM CLR 26/07 A3015 1950 28 3700 M /M RMK AO2 T02610067
03812KAVL AVL20160524184010705/24/16 18:40:31  5-MIN KAVL 242340Z 19006KT 10SM SCT075 23/12 A3017 1940 49 3300 190/06 RMK AO2 T02280117
03812KAVL AVL20160524184510705/24/16 18:45:31  5-MIN KAVL 242345Z 19005KT 10SM FEW075 22/12 A3017 1940 51 3300 190/05 RMK AO2 T02220117
03812KAVL AVL20160524185013205/24/16 18:50:31  5-MIN KAVL 242350Z 19006KT 10SM FEW075 23/12 A3017 1930 49 3300 200/06 RMK AO2 SLP200 T02280117 10267 20222 58010
03812KAVL AVL20160524185510705/24/16 18:55:31  5-MIN KAVL 242355Z 20007KT 10SM SCT075 23/11 A3017 1930 47 3300 200/07 RMK AO2 T02280111
03812KAVL AVL20160524190010705/24/16 19:00:31  5-MIN KAVL 250000Z 19005KT 10SM SCT075 22/11 A3017 1940 49 3300 190/05 RMK AO2 T02220111
03812KAVL AVL20160524190510705/24/16 19:05:31  5-MIN KAVL 250005Z 19004KT 10SM SCT075 22/12 A3017 1940 52 3200 190/04 RMK AO2 T02170117
03812KAVL AVL20160524191010705/24/16 19:10:31  5-MIN KAVL 250010Z 20005KT 10SM FEW075 22/12 A3017 1940 52 3200 210/05 RMK AO2 T02170117
03812KAVL AVL20160524191510705/24/16 19:15:31  5-MIN KAVL 250015Z 21006KT 10SM FEW075 22/12 A3017 1930 51 3300 220/06 RMK AO2 T02220117
03812KAVL AVL20160524192010705/24/16 19:20:31  5-MIN KAVL 250020Z 21004KT 10SM FEW075 22/12 A3017 1930 52 3200 220/04 RMK AO2 T02170117
03812KAVL AVL20160524192510705/24/16 19:25:31  5-MIN KAVL 250025Z 22003KT 10SM FEW075 22/11 A3017 1930 50 3200 230/03 RMK AO2 T02170111
03812KAVL AVL20160524193010405/24/16 19:30:31  5-MIN KAVL 250030Z 21003KT 10SM CLR 22/11 A3018 1930 50 3200 220/03 RMK AO2 T02170111
03812KAVL AVL20160524193510405/24/16 19:35:31  5-MIN KAVL 250035Z 00000KT 10SM CLR 22/11 A3018 1930 50 3200 000/00 RMK AO2 T02170111
03812KAVL AVL20160524194010405/24/16 19:40:31  5-MIN KAVL 250040Z 31004KT 10SM CLR 21/11 A3018 1930 52 3100 320/04 RMK AO2 T02110111
03812KAVL AVL20160524194510405/24/16 19:45:31  5-MIN KAVL 250045Z 33004KT 10SM CLR 21/12 A3018 1930 56 3100 330/04 RMK AO2 T02060117
03812KAVL AVL20160524195011105/24/16 19:50:31  5-MIN KAVL 250050Z 00000KT 10SM CLR 21/11 A3018 1930 52 3100 000/00 RMK AO2 SLP202 T02110111
03812KAVL AVL20160524195510405/24/16 19:55:31  5-MIN KAVL 250055Z 35004KT 10SM CLR 21/11 A3018 1920 52 3100 350/04 RMK AO2 T02110111
03812KAVL AVL20160524200010405/24/16 20:00:31  5-MIN KAVL 250100Z 00000KT 10SM CLR 22/11 A3019 1920 50 3200 000/00 RMK AO2 T02170111
03812KAVL AVL20160524200510705/24/16 20:05:31  5-MIN KAVL 250105Z 00000KT 10SM FEW055 22/11 A3019 1920 50 3200 000/00 RMK AO2 T02170111
03812KAVL AVL20160524201010705/24/16 20:10:31  5-MIN KAVL 250110Z 00000KT 10SM SCT055 22/11 A3019 1920 50 3200 000/00 RMK AO2 T02170111
03812KAVL AVL20160524201510705/24/16 20:15:31  5-MIN KAVL 250115Z 24003KT 10SM SCT050 21/12 A3019 1920 56 3000 250/03 RMK AO2 T02060117
03812KAVL AVL20160524202010705/24/16 20:20:31  5-MIN KAVL 250120Z 00000KT 10SM BKN050 20/12 A3019 1920 60 3000 000/00 RMK AO2 T02000122
03812KAVL AVL20160524202510705/24/16 20:25:31  5-MIN KAVL 250125Z 19003KT 10SM BKN050 21/12 A3020 1910 54 3100 190/03 RMK AO2 T02110117
03812KAVL AVL20160524203010705/24/16 20:30:31  5-MIN KAVL 250130Z VRB03KT 10SM BKN050 21/12 A3020 1910 58 3000 VRB/03 RMK AO2 T02060122
03812KAVL AVL20160524203510705/24/16 20:35:31  5-MIN KAVL 250135Z 00000KT 10SM OVC050 21/12 A3020 1910 56 3000 000/00 RMK AO2 T02060117
03812KAVL AVL20160524204010705/24/16 20:40:31  5-MIN KAVL 250140Z 00000KT 10SM OVC050 21/12 A3020 1910 56 3100 000/00 RMK AO2 T02110122
03812KAVL AVL20160524204510705/24/16 20:45:31  5-MIN KAVL 250145Z 26003KT 10SM OVC050 22/11 A3021 1910 50 3200 270/03 RMK AO2 T02170111
03812KAVL AVL20160524205011405/24/16 20:50:31  5-MIN KAVL 250150Z 29004KT 10SM OVC050 20/13 A3021 1900 63 3000 300/04 RMK AO2 SLP210 T02000128
03812KAVL AVL20160524205510705/24/16 20:55:31  5-MIN KAVL 250155Z 00000KT 10SM OVC050 20/12 A3021 1900 60 3000 000/00 RMK AO2 T02000122
03812KAVL AVL20160524210010705/24/16 21:00:31  5-MIN KAVL 250200Z 32004KT 10SM BKN050 21/11 A3021 1900 50 3100 320/04 RMK AO2 T02110106
03812KAVL AVL20160524210510705/24/16 21:05:31  5-MIN KAVL 250205Z 29003KT 10SM BKN050 19/12 A3021 1900 60 2900 300/03 RMK AO2 T01940117
03812KAVL AVL20160524211010705/24/16 21:10:31  5-MIN KAVL 250210Z 32003KT 10SM BKN050 19/12 A3022 1900 60 2900 320/03 RMK AO2 T01940117
03812KAVL AVL20160524211510705/24/16 21:15:31  5-MIN KAVL 250215Z 32003KT 10SM SCT049 20/12 A3022 1900 58 3000 330/03 RMK AO2 T02000117
03812KAVL AVL20160524212010705/24/16 21:20:31  5-MIN KAVL 250220Z 00000KT 10SM FEW049 19/12 A3022 1890 62 2800 000/00 RMK AO2 T01890117
03812KAVL AVL20160524212510705/24/16 21:25:31  5-MIN KAVL 250225Z 31004KT 10SM FEW049 19/12 A3022 1890 65 2800 320/04 RMK AO2 T01890122
03812KAVL AVL20160524213010405/24/16 21:30:31  5-MIN KAVL 250230Z 00000KT 10SM CLR 18/12 A3022 1890 67 2800 000/00 RMK AO2 T01830122
03812KAVL AVL20160524213510405/24/16 21:35:31  5-MIN KAVL 250235Z 00000KT 10SM CLR 18/12 A3022 1890 67 2800 000/00 RMK AO2 T01830122
03812KAVL AVL20160524214010405/24/16 21:40:31  5-MIN KAVL 250240Z 00000KT 10SM CLR 18/12 A3022 1890 67 2800 000/00 RMK AO2 T01830122
03812KAVL AVL20160524214510405/24/16 21:45:31  5-MIN KAVL 250245Z 00000KT 10SM CLR 18/12 A3022 1890 67 2800 000/00 RMK AO2 T01830122
03812KAVL AVL20160524215011705/24/16 21:50:31  5-MIN KAVL 250250Z 19003KT 10SM CLR 18/12 A3022 1890 69 2700 190/03 RMK AO2 SLP214 T01780122 53008
03812KAVL AVL20160524215511105/24/16 21:55:31  5-MIN KAVL 250255Z AUTO 00000KT 10SM CLR 18/12 A3022 1890 67 2800 000/00 RMK AO2 T01830122 $
03812KAVL AVL20160524220011105/24/16 22:00:31  5-MIN KAVL 250300Z AUTO 00000KT 10SM CLR 17/12 A3022 1890 72 2600 000/00 RMK AO2 T01720122 $
03812KAVL AVL20160524220511105/24/16 22:05:31  5-MIN KAVL 250305Z AUTO 00000KT 10SM CLR 17/13 A3022 1890 75 2600 000/00 RMK AO2 T01720128 $
03812KAVL AVL20160524221011105/24/16 22:10:31  5-MIN KAVL 250310Z AUTO 23003KT 10SM CLR 17/13 A3023 1880 77 2600 240/03 RMK AO2 T01670128 $
03812KAVL AVL20160524221511105/24/16 22:15:31  5-MIN KAVL 250315Z AUTO 00000KT 10SM CLR 17/13 A3023 1880 77 2600 000/00 RMK AO2 T01670128 $
03812KAVL AVL20160524222011105/24/16 22:20:31  5-MIN KAVL 250320Z AUTO 00000KT 10SM CLR 16/12 A3023 1880 77 2500 000/00 RMK AO2 T01610122 $
03812KAVL AVL20160524222511105/24/16 22:25:31  5-MIN KAVL 250325Z AUTO 00000KT 10SM CLR 17/12 A3023 1880 75 2600 000/00 RMK AO2 T01670122 $
03812KAVL AVL20160524223011105/24/16 22:30:31  5-MIN KAVL 250330Z AUTO 00000KT 10SM CLR 17/12 A3023 1880 75 2600 000/00 RMK AO2 T01670122 $
03812KAVL AVL20160524223511105/24/16 22:35:31  5-MIN KAVL 250335Z AUTO 00000KT 10SM CLR 17/12 A3023 1880 75 2600 000/00 RMK AO2 T01670122 $
03812KAVL AVL20160524224011105/24/16 22:40:31  5-MIN KAVL 250340Z AUTO 00000KT 10SM CLR 16/12 A3023 1880 77 2500 000/00 RMK AO2 T01610122 $
03812KAVL AVL20160524224511105/24/16 22:45:31  5-MIN KAVL 250345Z AUTO 00000KT 10SM CLR 16/12 A3023 1880 75 2500 000/00 RMK AO2 T01610117 $
03812KAVL AVL20160524225011805/24/16 22:50:31  5-MIN KAVL 250350Z AUTO 00000KT 10SM CLR 16/12 A3023 1880 77 2400 000/00 RMK AO2 SLP218 T01560117 $
03812KAVL AVL20160524225511105/24/16 22:55:31  5-MIN KAVL 250355Z AUTO 00000KT 10SM CLR 16/12 A3024 1880 80 2400 000/00 RMK AO2 T01560122 $
03812KAVL AVL20160524230011105/24/16 23:00:31  5-MIN KAVL 250400Z AUTO 00000KT 10SM CLR 16/12 A3024 1880 80 2400 000/00 RMK AO2 T01560122 $
03812KAVL AVL20160524230511105/24/16 23:05:31  5-MIN KAVL 250405Z AUTO 00000KT 10SM CLR 15/12 A3024 1880 83 2400 000/00 RMK AO2 T01500122 $
03812KAVL AVL20160524231011105/24/16 23:10:31  5-MIN KAVL 250410Z AUTO 00000KT 10SM CLR 15/12 A3023 1880 83 2400 000/00 RMK AO2 T01500122 $
03812KAVL AVL20160524231511105/24/16 23:15:31  5-MIN KAVL 250415Z AUTO 00000KT 10SM CLR 15/12 A3024 1880 80 2400 000/00 RMK AO2 T01500117 $
03812KAVL AVL20160524232011105/24/16 23:20:31  5-MIN KAVL 250420Z AUTO 00000KT 10SM CLR 16/12 A3024 1880 80 2400 000/00 RMK AO2 T01560122 $
03812KAVL AVL20160524232511105/24/16 23:25:31  5-MIN KAVL 250425Z AUTO 30004KT 10SM CLR 16/11 A3024 1880 72 2400 300/04 RMK AO2 T01560106 $
03812KAVL AVL20160524233011105/24/16 23:30:31  5-MIN KAVL 250430Z AUTO 32004KT 10SM CLR 14/11 A3023 1880 80 2300 320/04 RMK AO2 T01440111 $
03812KAVL AVL20160524233511105/24/16 23:35:31  5-MIN KAVL 250435Z AUTO 00000KT 10SM CLR 14/11 A3023 1880 80 2300 000/00 RMK AO2 T01440111 $
03812KAVL AVL20160524234011105/24/16 23:40:31  5-MIN KAVL 250440Z AUTO 23003KT 10SM CLR 14/11 A3024 1880 80 2300 240/03 RMK AO2 T01440111 $
03812KAVL AVL20160524234511105/24/16 23:45:31  5-MIN KAVL 250445Z AUTO 00000KT 10SM CLR 16/12 A3023 1880 75 2500 000/00 RMK AO2 T01610117 $
03812KAVL AVL20160524235012805/24/16 23:50:31  5-MIN KAVL 250450Z AUTO 00000KT 10SM CLR 14/12 A3023 1880 83 2300 000/00 RMK AO2 SLP218 T01440117 402670089 $
03812KAVL AVL20160524235511105/24/16 23:55:31  5-MIN KAVL 250455Z AUTO 00000KT 10SM CLR 14/11 A3024 1880 83 2200 000/00 RMK AO2 T01390111 $
03812KAVL AVL20160525000011105/25/16 00:00:31  5-MIN KAVL 250500Z AUTO 00000KT 10SM CLR 14/12 A3024 1870 86 2200 000/00 RMK AO2 T01390117 $
03812KAVL AVL20160525000511105/25/16 00:05:31  5-MIN KAVL 250505Z AUTO 00000KT 10SM CLR 14/11 A3024 1870 83 2200 000/00 RMK AO2 T01390111 $
03812KAVL AVL20160525001011105/25/16 00:10:31  5-MIN KAVL 250510Z AUTO 00000KT 10SM CLR 14/11 A3024 1870 83 2200 000/00 RMK AO2 T01390111 $
03812KAVL AVL20160525001511105/25/16 00:15:31  5-MIN KAVL 250515Z AUTO 00000KT 10SM CLR 14/11 A3024 1880 83 2200 000/00 RMK AO2 T01390111 $
03812KAVL AVL20160525002011105/25/16 00:20:31  5-MIN KAVL 250520Z AUTO 00000KT 10SM CLR 14/11 A3024 1880 83 2200 000/00 RMK AO2 T01390111 $
03812KAVL AVL20160525002511105/25/16 00:25:31  5-MIN KAVL 250525Z AUTO 00000KT 10SM CLR 14/11 A3024 1880 83 2200 000/00 RMK AO2 T01390111 $
03812KAVL AVL20160525003011105/25/16 00:30:31  5-MIN KAVL 250530Z AUTO 00000KT 10SM CLR 14/11 A3024 1880 83 2200 000/00 RMK AO2 T01390111 $
03812KAVL AVL20160525003511105/25/16 00:35:31  5-MIN KAVL 250535Z AUTO 00000KT 10SM CLR 14/11 A3024 1880 83 2200 000/00 RMK AO2 T01390111 $
03812KAVL AVL20160525004011105/25/16 00:40:31  5-MIN KAVL 250540Z AUTO 00000KT 10SM CLR 14/11 A3024 1880 83 2200 000/00 RMK AO2 T01390111 $
03812KAVL AVL20160525004511105/25/16 00:45:31  5-MIN KAVL 250545Z AUTO 00000KT 10SM CLR 14/11 A3024 1870 83 2200 000/00 RMK AO2 T01390111 $
03812KAVL AVL20160525005013605/25/16 00:50:31  5-MIN KAVL 250550Z AUTO 00000KT 10SM CLR 14/11 A3024 1880 83 2200 000/00 RMK AO2 SLP219 T01390111 10228 20139 53016 $
03812KAVL AVL20160525005511105/25/16 00:55:31  5-MIN KAVL 250555Z AUTO 22004KT 10SM CLR 13/11 A3024 1880 83 2200 220/04 RMK AO2 T01330106 $
03812KAVL AVL20160525010011105/25/16 01:00:31  5-MIN KAVL 250600Z AUTO 20003KT 10SM CLR 12/11 A3024 1870 89 2000 200/03 RMK AO2 T01220106 $
03812KAVL AVL20160525010511105/25/16 01:05:31  5-MIN KAVL 250605Z AUTO 00000KT 10SM CLR 12/11 A3024 1880 89 2000 000/00 RMK AO2 T01220106 $
03812KAVL AVL20160525011011105/25/16 01:10:31  5-MIN KAVL 250610Z AUTO 00000KT 10SM CLR 12/11 A3024 1870 89 2000 000/00 RMK AO2 T01220106 $
03812KAVL AVL20160525011511105/25/16 01:15:31  5-MIN KAVL 250615Z AUTO 00000KT 10SM CLR 12/11 A3024 1870 89 2000 000/00 RMK AO2 T01220106 $
03812KAVL AVL20160525012011105/25/16 01:20:31  5-MIN KAVL 250620Z AUTO 00000KT 10SM CLR 12/11 A3024 1870 89 2000 000/00 RMK AO2 T01220106 $
03812KAVL AVL20160525012511105/25/16 01:25:31  5-MIN KAVL 250625Z AUTO 00000KT 10SM CLR 13/11 A3024 1870 86 2100 000/00 RMK AO2 T01280106 $
03812KAVL AVL20160525013011105/25/16 01:30:31  5-MIN KAVL 250630Z AUTO 00000KT 10SM CLR 13/11 A3024 1870 86 2100 000/00 RMK AO2 T01280106 $
03812KAVL AVL20160525013511105/25/16 01:35:31  5-MIN KAVL 250635Z AUTO 00000KT 10SM CLR 12/10 A3024 1870 86 2000 000/00 RMK AO2 T01220100 $
03812KAVL AVL20160525014011105/25/16 01:40:31  5-MIN KAVL 250640Z AUTO 00000KT 10SM CLR 13/10 A3024 1870 83 2100 000/00 RMK AO2 T01280100 $
03812KAVL AVL20160525014511105/25/16 01:45:31  5-MIN KAVL 250645Z AUTO 00000KT 10SM CLR 12/10 A3024 1870 86 2000 000/00 RMK AO2 T01220100 $
03812KAVL AVL20160525015011805/25/16 01:50:31  5-MIN KAVL 250650Z AUTO 34005KT 10SM CLR 12/10 A3024 1870 86 2000 350/05 RMK AO2 SLP222 T01220100 $
03812KAVL AVL20160525015511105/25/16 01:55:31  5-MIN KAVL 250655Z AUTO 35003KT 10SM CLR 12/10 A3024 1870 86 2000 360/03 RMK AO2 T01220100 $
03812KAVL AVL20160525020011105/25/16 02:00:31  5-MIN KAVL 250700Z AUTO 35003KT 10SM CLR 12/10 A3024 1870 86 2000 360/03 RMK AO2 T01220100 $
03812KAVL AVL20160525020511105/25/16 02:05:31  5-MIN KAVL 250705Z AUTO 35003KT 10SM CLR 12/09 A3025 1870 86 2000 350/03 RMK AO2 T01170094 $
03812KAVL AVL20160525021011105/25/16 02:10:31  5-MIN KAVL 250710Z AUTO 00000KT 10SM CLR 12/09 A3024 1870 83 2000 000/00 RMK AO2 T01220094 $
03812KAVL AVL20160525021511105/25/16 02:15:31  5-MIN KAVL 250715Z AUTO 00000KT 10SM CLR 12/09 A3025 1870 83 2000 000/00 RMK AO2 T01220094 $
03812KAVL AVL20160525022011105/25/16 02:20:31  5-MIN KAVL 250720Z AUTO 26003KT 10SM CLR 12/09 A3025 1870 86 1900 270/03 RMK AO2 T01170094 $
03812KAVL AVL20160525022511105/25/16 02:25:31  5-MIN KAVL 250725Z AUTO 23004KT 10SM CLR 11/09 A3025 1870 89 1900 240/04 RMK AO2 T01110094 $
03812KAVL AVL20160525023011105/25/16 02:30:31  5-MIN KAVL 250730Z AUTO 00000KT 10SM CLR 11/09 A3025 1870 89 1900 000/00 RMK AO2 T01110094 $
03812KAVL AVL20160525023511105/25/16 02:35:31  5-MIN KAVL 250735Z AUTO 00000KT 10SM CLR 11/09 A3025 1870 89 1900 000/00 RMK AO2 T01110094 $
03812KAVL AVL20160525024011105/25/16 02:40:31  5-MIN KAVL 250740Z AUTO 00000KT 10SM CLR 11/09 A3025 1870 89 1900 000/00 RMK AO2 T01110094 $
03812KAVL AVL20160525024511105/25/16 02:45:31  5-MIN KAVL 250745Z AUTO 00000KT 10SM CLR 11/09 A3025 1870 89 1900 000/00 RMK AO2 T01110094 $
03812KAVL AVL20160525025011805/25/16 02:50:31  5-MIN KAVL 250750Z AUTO 00000KT 10SM CLR 12/09 A3024 1870 86 2000 000/00 RMK AO2 SLP223 T01170094 $
03812KAVL AVL20160525025511105/25/16 02:55:31  5-MIN KAVL 250755Z AUTO 00000KT 10SM CLR 12/09 A3024 1870 86 2000 000/00 RMK AO2 T01170094 $
03812KAVL AVL20160525030011105/25/16 03:00:31  5-MIN KAVL 250800Z AUTO 00000KT 10SM CLR 12/09 A3024 1870 86 2000 000/00 RMK AO2 T01170094 $
03812KAVL AVL20160525030511105/25/16 03:05:31  5-MIN KAVL 250805Z AUTO 00000KT 10SM CLR 12/09 A3024 1870 86 2000 000/00 RMK AO2 T01170094 $
03812KAVL AVL20160525031011105/25/16 03:10:31  5-MIN KAVL 250810Z AUTO 00000KT 10SM CLR 11/09 A3024 1870 89 1900 000/00 RMK AO2 T01110094 $
03812KAVL AVL20160525031511105/25/16 03:15:31  5-MIN KAVL 250815Z AUTO 00000KT 10SM CLR 11/09 A3024 1870 89 1900 000/00 RMK AO2 T01110094 $
03812KAVL AVL20160525032011105/25/16 03:20:31  5-MIN KAVL 250820Z AUTO 00000KT 10SM CLR 11/09 A3025 1870 89 1800 000/00 RMK AO2 T01060089 $
03812KAVL AVL20160525032511105/25/16 03:25:31  5-MIN KAVL 250825Z AUTO 00000KT 10SM CLR 11/09 A3025 1870 89 1800 000/00 RMK AO2 T01060089 $
03812KAVL AVL20160525033011105/25/16 03:30:31  5-MIN KAVL 250830Z AUTO 00000KT 10SM CLR 11/09 A3024 1870 89 1800 000/00 RMK AO2 T01060089 $
03812KAVL AVL20160525033511105/25/16 03:35:31  5-MIN KAVL 250835Z AUTO 00000KT 10SM CLR 11/09 A3024 1870 89 1800 000/00 RMK AO2 T01060089 $
03812KAVL AVL20160525034011105/25/16 03:40:31  5-MIN KAVL 250840Z AUTO 00000KT 10SM CLR 11/09 A3025 1870 89 1800 000/00 RMK AO2 T01060089 $
03812KAVL AVL20160525034511105/25/16 03:45:31  5-MIN KAVL 250845Z AUTO 00000KT 10SM CLR 11/09 A3025 1870 86 1900 000/00 RMK AO2 T01110089 $
03812KAVL AVL20160525035012405/25/16 03:50:31  5-MIN KAVL 250850Z AUTO 00000KT 10SM CLR 11/09 A3025 1860 86 1900 000/00 RMK AO2 SLP225 T01110089 51004 $
03812KAVL AVL20160525035511105/25/16 03:55:31  5-MIN KAVL 250855Z AUTO 00000KT 10SM CLR 11/09 A3025 1860 86 1900 000/00 RMK AO2 T01110089 $
03812KAVL AVL20160525040011105/25/16 04:00:31  5-MIN KAVL 250900Z AUTO 00000KT 10SM CLR 11/09 A3025 1860 89 1800 000/00 RMK AO2 T01060089 $
03812KAVL AVL20160525040511105/25/16 04:05:31  5-MIN KAVL 250905Z AUTO 00000KT 10SM CLR 11/08 A3025 1860 86 1800 000/00 RMK AO2 T01060083 $
03812KAVL AVL20160525041011105/25/16 04:10:31  5-MIN KAVL 250910Z AUTO 00000KT 10SM CLR 11/09 A3025 1860 89 1800 000/00 RMK AO2 T01060089 $
03812KAVL AVL20160525041511105/25/16 04:15:31  5-MIN KAVL 250915Z AUTO 00000KT 10SM CLR 11/09 A3026 1860 86 1900 000/00 RMK AO2 T01110089 $
03812KAVL AVL20160525042011105/25/16 04:20:31  5-MIN KAVL 250920Z AUTO 00000KT 10SM CLR 11/09 A3026 1850 89 1800 000/00 RMK AO2 T01060089 $
03812KAVL AVL20160525042511105/25/16 04:25:31  5-MIN KAVL 250925Z AUTO 00000KT 10SM CLR 11/09 A3026 1850 89 1800 000/00 RMK AO2 T01060089 $
03812KAVL AVL20160525043011105/25/16 04:30:31  5-MIN KAVL 250930Z AUTO 00000KT 10SM CLR 11/09 A3026 1860 89 1800 000/00 RMK AO2 T01060089 $
03812KAVL AVL20160525043511105/25/16 04:35:31  5-MIN KAVL 250935Z AUTO 00000KT 10SM CLR 11/08 A3026 1850 86 1800 000/00 RMK AO2 T01060083 $
03812KAVL AVL20160525044011105/25/16 04:40:31  5-MIN KAVL 250940Z AUTO 00000KT 10SM CLR 11/08 A3026 1850 86 1800 000/00 RMK AO2 T01060083 $
03812KAVL AVL20160525044511405/25/16 04:45:31  5-MIN KAVL 250945Z AUTO 00000KT 10SM FEW060 11/08 A3026 1850 86 1800 000/00 RMK AO2 T01060083 $
03812KAVL AVL20160525045012105/25/16 04:50:31  5-MIN KAVL 250950Z AUTO 00000KT 10SM SCT060 11/08 A3026 1850 86 1800 000/00 RMK AO2 SLP229 T01060083 $
03812KAVL AVL20160525045511405/25/16 04:55:31  5-MIN KAVL 250955Z AUTO 00000KT 10SM FEW055 11/08 A3026 1850 86 1800 000/00 RMK AO2 T01060083 $
03812KAVL AVL20160525050011405/25/16 05:00:31  5-MIN KAVL 251000Z AUTO 00000KT 10SM FEW060 11/08 A3026 1850 86 1800 000/00 RMK AO2 T01060083 $
03812KAVL AVL20160525050511405/25/16 05:05:31  5-MIN KAVL 251005Z AUTO 00000KT 10SM FEW060 11/08 A3026 1850 86 1800 000/00 RMK AO2 T01060083 $
03812KAVL AVL20160525051011405/25/16 05:10:31  5-MIN KAVL 251010Z AUTO 00000KT 10SM FEW060 11/08 A3027 1850 86 1800 000/00 RMK AO2 T01060083 $
03812KAVL AVL20160525051511105/25/16 05:15:31  5-MIN KAVL 251015Z AUTO 00000KT 10SM CLR 11/08 A3027 1850 86 1800 000/00 RMK AO2 T01060083 $
03812KAVL AVL20160525052010605/25/16 05:20:31  5-MIN KAVL 251020Z 00000KT 10SM CLR 11/09 A3027 1850 89 1800 000/00 RMK AO2 T01060089 $
03812KAVL AVL20160525052510605/25/16 05:25:31  5-MIN KAVL 251025Z 00000KT 10SM CLR 11/08 A3027 1850 86 1800 000/00 RMK AO2 T01060083 $
03812KAVL AVL20160525053010605/25/16 05:30:31  5-MIN KAVL 251030Z 00000KT 10SM CLR 11/09 A3027 1840 89 1800 000/00 RMK AO2 T01060089 $
03812KAVL AVL20160525053510605/25/16 05:35:31  5-MIN KAVL 251035Z 32003KT 10SM CLR 11/08 A3027 1840 83 1900 330/03 RMK AO2 T01110083 $
03812KAVL AVL20160525054010605/25/16 05:40:31  5-MIN KAVL 251040Z 34003KT 10SM CLR 11/08 A3028 1840 86 1800 340/03 RMK AO2 T01060083 $
03812KAVL AVL20160525054510605/25/16 05:45:31  5-MIN KAVL 251045Z 00000KT 10SM CLR 11/08 A3027 1840 86 1800 000/00 RMK AO2 T01060083 $
03812KAVL AVL20160525055011305/25/16 05:50:31  5-MIN KAVL 251050Z 28003KT 10SM CLR 11/08 A3028 1840 86 1800 290/03 RMK AO2 SLP236 T01060083 $
03812KAVL AVL20160525055510605/25/16 05:55:31  5-MIN KAVL 251055Z 00000KT 10SM CLR 10/08 A3028 1840 89 1700 000/00 RMK AO2 T01000083 $
03812KAVL AVL20160525060010605/25/16 06:00:31  5-MIN KAVL 251100Z 00000KT 10SM CLR 10/08 A3028 1840 89 1700 000/00 RMK AO2 T01000083 $
03812KAVL AVL20160525060510605/25/16 06:05:31  5-MIN KAVL 251105Z 00000KT 10SM CLR 10/09 A3029 1830 93 1700 000/00 RMK AO2 T01000089 $
03812KAVL AVL20160525061010605/25/16 06:10:31  5-MIN KAVL 251110Z 00000KT 10SM CLR 11/09 A3029 1830 89 1800 000/00 RMK AO2 T01060089 $
03812KAVL AVL20160525061510605/25/16 06:15:31  5-MIN KAVL 251115Z 00000KT 10SM CLR 11/09 A3029 1830 89 1800 000/00 RMK AO2 T01060089 $
03812KAVL AVL20160525062010605/25/16 06:20:31  5-MIN KAVL 251120Z 00000KT 10SM CLR 11/09 A3029 1830 86 1800 000/00 RMK AO2 T01110089 $
03812KAVL AVL20160525062510605/25/16 06:25:31  5-MIN KAVL 251125Z 00000KT 10SM CLR 12/09 A3029 1830 83 1900 000/00 RMK AO2 T01170089 $
03812KAVL AVL20160525063010605/25/16 06:30:31  5-MIN KAVL 251130Z 00000KT 10SM CLR 12/09 A3029 1830 86 1900 000/00 RMK AO2 T01170094 $
03812KAVL AVL20160525063510605/25/16 06:35:31  5-MIN KAVL 251135Z 00000KT 10SM CLR 12/09 A3029 1830 83 2000 000/00 RMK AO2 T01220094 $
03812KAVL AVL20160525064010605/25/16 06:40:31  5-MIN KAVL 251140Z 00000KT 10SM CLR 12/09 A3029 1830 83 2000 000/00 RMK AO2 T01220094 $
03812KAVL AVL20160525064510605/25/16 06:45:31  5-MIN KAVL 251145Z 00000KT 10SM CLR 12/10 A3029 1830 86 2000 000/00 RMK AO2 T01220100 $
03812KAVL AVL20160525065013105/25/16 06:50:31  5-MIN KAVL 251150Z 00000KT 10SM CLR 12/10 A3029 1830 89 1900 000/00 RMK AO2 SLP240 T01170100 10133 20100 53005 $
03812KAVL AVL20160525065510605/25/16 06:55:31  5-MIN KAVL 251155Z 22003KT 10SM CLR 12/10 A3029 1830 86 2000 230/03 RMK AO2 T01220100 $
03812KAVL AVL20160525070010605/25/16 07:00:31  5-MIN KAVL 251200Z 21003KT 10SM CLR 12/10 A3029 1830 86 2000 220/03 RMK AO2 T01220100 $
03812KAVL AVL20160525070510605/25/16 07:05:31  5-MIN KAVL 251205Z 23003KT 10SM CLR 13/10 A3030 1820 83 2000 240/03 RMK AO2 T01280100 $
03812KAVL AVL20160525071010605/25/16 07:10:31  5-MIN KAVL 251210Z 00000KT 10SM CLR 13/10 A3030 1820 83 2000 000/00 RMK AO2 T01280100 $
03812KAVL AVL20160525071510605/25/16 07:15:31  5-MIN KAVL 251215Z 00000KT 10SM CLR 13/10 A3029 1820 80 2100 000/00 RMK AO2 T01330100 $
03812KAVL AVL20160525072010605/25/16 07:20:31  5-MIN KAVL 251220Z 00000KT 10SM CLR 14/10 A3029 1820 77 2200 000/00 RMK AO2 T01390100 $
03812KAVL AVL20160525072510405/25/16 07:25:31  5-MIN KAVL 251225Z 00000KT 10SM CLR 14/10 A3029 1820 77 2200 000/00 RMK AO2 T01390100
03812KAVL AVL20160525073010405/25/16 07:30:31  5-MIN KAVL 251230Z 00000KT 10SM CLR 14/11 A3030 1820 77 2200 000/00 RMK AO2 T01440106
03812KAVL AVL20160525073510405/25/16 07:35:31  5-MIN KAVL 251235Z 00000KT 10SM CLR 16/11 A3030 1820 72 2300 000/00 RMK AO2 T01560106
03812KAVL AVL20160525074010405/25/16 07:40:31  5-MIN KAVL 251240Z 35003KT 10SM CLR 16/11 A3030 1820 72 2300 360/03 RMK AO2 T01560106
03812KAVL AVL20160525074510405/25/16 07:45:31  5-MIN KAVL 251245Z 00000KT 10SM CLR 16/11 A3030 1820 69 2400 000/00 RMK AO2 T01610106
03812KAVL AVL20160525075011105/25/16 07:50:31  5-MIN KAVL 251250Z 00000KT 10SM CLR 16/10 A3030 1820 67 2400 000/00 RMK AO2 SLP241 T01610100
03812KAVL AVL20160525075510405/25/16 07:55:31  5-MIN KAVL 251255Z 00000KT 10SM CLR 16/10 A3031 1810 67 2400 000/00 RMK AO2 T01610100
03812KAVL AVL20160525080010405/25/16 08:00:31  5-MIN KAVL 251300Z 00000KT 10SM CLR 17/11 A3031 1810 67 2500 000/00 RMK AO2 T01670106
03812KAVL AVL20160525080510405/25/16 08:05:31  5-MIN KAVL 251305Z 00000KT 10SM CLR 17/11 A3031 1810 67 2500 000/00 RMK AO2 T01670106
03812KAVL AVL20160525081010405/25/16 08:10:31  5-MIN KAVL 251310Z 00000KT 10SM CLR 17/11 A3031 1810 64 2500 000/00 RMK AO2 T01720106
03812KAVL AVL20160525081510405/25/16 08:15:31  5-MIN KAVL 251315Z 00000KT 10SM CLR 17/11 A3031 1810 67 2500 000/00 RMK AO2 T01720111
03812KAVL AVL20160525082010405/25/16 08:20:31  5-MIN KAVL 251320Z 00000KT 10SM CLR 17/11 A3031 1810 67 2500 000/00 RMK AO2 T01720111
03812KAVL AVL20160525082510705/25/16 08:25:31  5-MIN KAVL 251325Z 00000KT 10SM FEW060 18/11 A3031 1810 62 2600 000/00 RMK AO2 T01780106
03812KAVL AVL20160525083010705/25/16 08:30:31  5-MIN KAVL 251330Z 00000KT 10SM SCT060 18/11 A3031 1810 62 2700 000/00 RMK AO2 T01830111
03812KAVL AVL20160525083510705/25/16 08:35:31  5-MIN KAVL 251335Z 00000KT 10SM BKN060 18/11 A3031 1810 60 2700 000/00 RMK AO2 T01830106
03812KAVL AVL20160525084010705/25/16 08:40:31  5-MIN KAVL 251340Z 00000KT 10SM BKN060 18/11 A3031 1810 60 2700 000/00 RMK AO2 T01830106
03812KAVL AVL20160525084510705/25/16 08:45:31  5-MIN KAVL 251345Z 00000KT 10SM BKN060 18/10 A3031 1810 58 2700 000/00 RMK AO2 T01830100
03812KAVL AVL20160525085011405/25/16 08:50:31  5-MIN KAVL 251350Z 00000KT 10SM OVC060 19/11 A3031 1810 58 2700 000/00 RMK AO2 SLP244 T01890106
03812KAVL AVL20160525085510705/25/16 08:55:31  5-MIN KAVL 251355Z 00000KT 10SM OVC060 18/10 A3031 1810 58 2700 000/00 RMK AO2 T01830100
03812KAVL AVL20160525090010705/25/16 09:00:31  5-MIN KAVL 251400Z 00000KT 10SM BKN060 19/11 A3031 1810 56 2800 000/00 RMK AO2 T01940106
03812KAVL AVL20160525090510705/25/16 09:05:31  5-MIN KAVL 251405Z 00000KT 10SM BKN060 20/11 A3031 1810 56 2800 000/00 RMK AO2 T02000111
03812KAVL AVL20160525091010405/25/16 09:10:31  5-MIN KAVL 251410Z 00000KT 10SM CLR 19/11 A3031 1810 56 2800 000/00 RMK AO2 T01940106
03812KAVL AVL20160525091510405/25/16 09:15:31  5-MIN KAVL 251415Z 00000KT 10SM CLR 21/11 A3031 1810 54 2900 000/00 RMK AO2 T02060111
03812KAVL AVL20160525092010405/25/16 09:20:31  5-MIN KAVL 251420Z 00000KT 10SM CLR 21/11 A3031 1810 52 3000 000/00 RMK AO2 T02110111
03812KAVL AVL20160525092510405/25/16 09:25:31  5-MIN KAVL 251425Z 00000KT 10SM CLR 21/11 A3031 1810 52 2900 000/00 RMK AO2 T02060106
03812KAVL AVL20160525093010405/25/16 09:30:31  5-MIN KAVL 251430Z 00000KT 10SM CLR 21/11 A3031 1810 50 3000 000/00 RMK AO2 T02110106
03812KAVL AVL20160525093510405/25/16 09:35:31  5-MIN KAVL 251435Z 00000KT 10SM CLR 22/10 A3031 1810 47 3000 000/00 RMK AO2 T02170100
03812KAVL AVL20160525094010405/25/16 09:40:31  5-MIN KAVL 251440Z 00000KT 10SM CLR 22/10 A3031 1810 47 3000 000/00 RMK AO2 T02170100
03812KAVL AVL20160525094510405/25/16 09:45:31  5-MIN KAVL 251445Z 00000KT 10SM CLR 22/11 A3031 1810 47 3100 000/00 RMK AO2 T02220106
03812KAVL AVL20160525095011705/25/16 09:50:31  5-MIN KAVL 251450Z 00000KT 10SM CLR 22/09 A3031 1810 43 3100 000/00 RMK AO2 SLP243 T02220094 53012
03812KAVL AVL20160525095510405/25/16 09:55:31  5-MIN KAVL 251455Z 00000KT 10SM CLR 23/10 A3031 1810 44 3200 000/00 RMK AO2 T02280100
03812KAVL AVL20160525100010405/25/16 10:00:31  5-MIN KAVL 251500Z VRB03KT 10SM CLR 22/10 A3031 1810 45 3100 VRB/03 RMK AO2 T02220100
03812KAVL AVL20160525100510405/25/16 10:05:31  5-MIN KAVL 251505Z 00000KT 10SM CLR 23/10 A3031 1810 44 3200 000/00 RMK AO2 T02280100
03812KAVL AVL20160525101010405/25/16 10:10:31  5-MIN KAVL 251510Z 00000KT 10SM CLR 23/11 A3031 1810 44 3200 000/00 RMK AO2 T02330106
03812KAVL AVL20160525101510405/25/16 10:15:31  5-MIN KAVL 251515Z VRB03KT 10SM CLR 24/10 A3031 1810 41 3300 VRB/03 RMK AO2 T02390100
03812KAVL AVL20160525102010405/25/16 10:20:31  5-MIN KAVL 251520Z 25003KT 10SM CLR 24/11 A3031 1810 42 3300 260/03 RMK AO2 T02390106
03812KAVL AVL20160525102510405/25/16 10:25:31  5-MIN KAVL 251525Z 16004KT 10SM CLR 23/10 A3031 1810 42 3200 160/04 RMK AO2 T02330100
03812KAVL AVL20160525103010405/25/16 10:30:31  5-MIN KAVL 251530Z VRB03KT 10SM CLR 24/10 A3031 1810 41 3300 VRB/03 RMK AO2 T02390100
03812KAVL AVL20160525103510405/25/16 10:35:31  5-MIN KAVL 251535Z 16005KT 10SM CLR 24/10 A3031 1810 41 3300 170/05 RMK AO2 T02390100
03812KAVL AVL20160525104010405/25/16 10:40:31  5-MIN KAVL 251540Z VRB03KT 10SM CLR 24/10 A3031 1810 41 3300 VRB/03 RMK AO2 T02390100
03812KAVL AVL20160525104510405/25/16 10:45:31  5-MIN KAVL 251545Z 17003KT 10SM CLR 24/11 A3031 1810 41 3300 180/03 RMK AO2 T02440106
03812KAVL AVL20160525105011105/25/16 10:50:31  5-MIN KAVL 251550Z VRB03KT 10SM CLR 24/11 A3031 1810 41 3400 VRB/03 RMK AO2 SLP242 T02440106
03812KAVL AVL20160525105510405/25/16 10:55:31  5-MIN KAVL 251555Z 00000KT 10SM CLR 24/11 A3031 1810 41 3400 000/00 RMK AO2 T02440106
03812KAVL AVL20160525110010405/25/16 11:00:31  5-MIN KAVL 251600Z 00000KT 10SM CLR 25/11 A3031 1810 39 3400 000/00 RMK AO2 T02500106
03812KAVL AVL20160525110510405/25/16 11:05:31  5-MIN KAVL 251605Z 19003KT 10SM CLR 25/11 A3031 1810 39 3400 200/03 RMK AO2 T02500106
03812KAVL AVL20160525111010405/25/16 11:10:31  5-MIN KAVL 251610Z 00000KT 10SM CLR 25/11 A3030 1820 41 3400 000/00 RMK AO2 T02500111
03812KAVL AVL20160525111510405/25/16 11:15:31  5-MIN KAVL 251615Z 28003KT 10SM CLR 26/12 A3030 1820 40 3500 280/03 RMK AO2 T02610117
03812KAVL AVL20160525112010405/25/16 11:20:31  5-MIN KAVL 251620Z 00000KT 10SM CLR 25/11 A3030 1820 39 3400 000/00 RMK AO2 T02500106
03812KAVL AVL20160525112510405/25/16 11:25:31  5-MIN KAVL 251625Z 00000KT 10SM CLR 25/11 A3029 1820 39 3400 000/00 RMK AO2 T02500106
03812KAVL AVL20160525113010405/25/16 11:30:31  5-MIN KAVL 251630Z 00000KT 10SM CLR 26/11 A3029 1830 38 3500 000/00 RMK AO2 T02560106
03812KAVL AVL20160525113510405/25/16 11:35:31  5-MIN KAVL 251635Z VRB03KT 10SM CLR 26/11 A3029 1830 38 3500 VRB/03 RMK AO2 T02560106
03812KAVL AVL20160525114010405/25/16 11:40:31  5-MIN KAVL 251640Z 16005KT 10SM CLR 26/10 A3029 1830 37 3500 170/05 RMK AO2 T02560100
03812KAVL AVL20160525114510405/25/16 11:45:31  5-MIN KAVL 251645Z VRB03KT 10SM CLR 26/09 A3029 1830 35 3500 VRB/03 RMK AO2 T02560094
03812KAVL AVL20160525115011105/25/16 11:50:31  5-MIN KAVL 251650Z 05004KT 10SM CLR 26/10 A3029 1830 36 3600 050/04 RMK AO2 SLP233 T02610100
03812KAVL AVL20160525115510405/25/16 11:55:31  5-MIN KAVL 251655Z 24004KT 10SM CLR 26/10 A3028 1830 36 3600 240/04 RMK AO2 T02610100
03812KAVL AVL20160525120010405/25/16 12:00:31  5-MIN KAVL 251700Z 00000KT 10SM CLR 26/10 A3028 1830 36 3600 000/00 RMK AO2 T02610100
03812KAVL AVL20160525120510405/25/16 12:05:31  5-MIN KAVL 251705Z 19003KT 10SM CLR 26/11 A3028 1840 37 3600 200/03 RMK AO2 T02610106
03812KAVL AVL20160525121010405/25/16 12:10:31  5-MIN KAVL 251710Z 16005KT 10SM CLR 26/10 A3028 1840 36 3600 170/05 RMK AO2 T02610100
03812KAVL AVL20160525121510405/25/16 12:15:31  5-MIN KAVL 251715Z 00000KT 10SM CLR 27/10 A3027 1840 34 3600 000/00 RMK AO2 T02670100
03812KAVL AVL20160525122010405/25/16 12:20:31  5-MIN KAVL 251720Z VRB03KT 10SM CLR 26/09 A3027 1840 34 3600 VRB/03 RMK AO2 T02610094
03812KAVL AVL20160525122510405/25/16 12:25:31  5-MIN KAVL 251725Z VRB03KT 10SM CLR 27/10 A3027 1850 34 3600 VRB/03 RMK AO2 T02670100
03812KAVL AVL20160525123010405/25/16 12:30:31  5-MIN KAVL 251730Z 15005KT 10SM CLR 27/11 A3027 1850 36 3600 160/05 RMK AO2 T02670106
03812KAVL AVL20160525123510405/25/16 12:35:31  5-MIN KAVL 251735Z VRB06KT 10SM CLR 27/11 A3027 1850 36 3700 VRB/06 RMK AO2 T02720111
03812KAVL AVL20160525124010405/25/16 12:40:31  5-MIN KAVL 251740Z VRB05KT 10SM CLR 26/11 A3027 1850 37 3600 VRB/05 RMK AO2 T02610106
03812KAVL AVL20160525124510705/25/16 12:45:31  5-MIN KAVL 251745Z VRB03KT 10SM FEW055 27/11 A3027 1840 36 3600 VRB/03 RMK AO2 T02670106
03812KAVL AVL20160525125013205/25/16 12:50:31  5-MIN KAVL 251750Z VRB04KT 10SM SCT060 26/11 A3027 1850 37 3600 VRB/04 RMK AO2 SLP228 T02610106 10272 20122 51007
03812KAVL AVL20160525125510705/25/16 12:55:31  5-MIN KAVL 251755Z 00000KT 10SM SCT060 26/11 A3027 1850 37 3600 000/00 RMK AO2 T02610106
03812KAVL AVL20160525130010405/25/16 13:00:31  5-MIN KAVL 251800Z 10SM BKN060 BKN075 26/11 A3027 1850 38 3600 M /M RMK AO2 T02610111
03812KAVL AVL20160525130511405/25/16 13:05:31  5-MIN KAVL 251805Z 11004KT 10SM SCT060 BKN075 26/11 A3027 1850 38 3600 120/04 RMK AO2 T02610111
03812KAVL AVL20160525131011405/25/16 13:10:31  5-MIN KAVL 251810Z VRB04KT 10SM SCT060 BKN075 26/11 A3026 1850 37 3600 VRB/04 RMK AO2 T02610106
03812KAVL AVL20160525131511405/25/16 13:15:31  5-MIN KAVL 251815Z 16008KT 10SM FEW060 BKN075 26/11 A3026 1850 37 3600 160/08 RMK AO2 T02610106
03812KAVL AVL20160525132011405/25/16 13:20:31  5-MIN KAVL 251820Z 15005KT 10SM FEW060 OVC075 26/11 A3026 1850 37 3600 160/05 RMK AO2 T02610106
03812KAVL AVL20160525132510705/25/16 13:25:31  5-MIN KAVL 251825Z 18004KT 10SM BKN075 27/11 A3026 1860 36 3700 190/04 RMK AO2 T02720111
03812KAVL AVL20160525133010705/25/16 13:30:31  5-MIN KAVL 251830Z 16006KT 10SM BKN075 27/11 A3026 1860 36 3700 170/06 RMK AO2 T02670106
03812KAVL AVL20160525133511405/25/16 13:35:31  5-MIN KAVL 251835Z 17007KT 10SM FEW060 BKN075 26/11 A3026 1860 37 3600 180/07 RMK AO2 T02610106
03812KAVL AVL20160525134011405/25/16 13:40:31  5-MIN KAVL 251840Z 16009KT 10SM SCT060 BKN075 26/12 A3026 1860 41 3600 170/09 RMK AO2 T02610122
03812KAVL AVL20160525134511305/25/16 13:45:31  5-MIN KAVL 251845Z 17008KT 8SM BKN060 BKN080 26/12 A3026 1860 41 3600 170/08 RMK AO2 T02610122
03812KAVL AVL20160525135012005/25/16 13:50:31  5-MIN KAVL 251850Z 19006KT 8SM BKN060 OVC080 26/12 A3026 1860 41 3600 190/06 RMK AO2 SLP226 T02610122
03812KAVL AVL20160525135511305/25/16 13:55:31  5-MIN KAVL 251855Z 18007KT 9SM BKN060 OVC080 26/12 A3026 1860 41 3600 190/07 RMK AO2 T02610122
03812KAVL AVL20160525140010705/25/16 14:00:31  5-MIN KAVL 251900Z 17010KT 10SM BKN080 27/13 A3025 1860 41 3700 180/10 RMK AO2 T02670128
03812KAVL AVL20160525140510705/25/16 14:05:31  5-MIN KAVL 251905Z 18007KT 10SM BKN080 27/12 A3025 1860 40 3700 190/07 RMK AO2 T02670122
03812KAVL AVL20160525141012305/25/16 14:10:31  5-MIN KAVL 251910Z 19007KT 140V210 10SM BKN080 27/13 A3025 1870 40 3700 190/07 150V220 RMK AO2 T02720128
03812KAVL AVL20160525141510705/25/16 14:15:31  5-MIN KAVL 251915Z 15008KT 10SM BKN080 27/12 A3024 1870 39 3700 160/08 RMK AO2 T02720122
03812KAVL AVL20160525142012805/25/16 14:20:31  5-MIN KAVL 251920Z AUTO 18008KT 140V200 10SM BKN080 27/12 A3025 1870 39 3700 180/08 150V210 RMK AO2 T02720122
03812KAVL AVL20160525142511205/25/16 14:25:31  5-MIN KAVL 251925Z AUTO 16009KT 10SM BKN080 27/12 A3025 1870 40 3700 160/09 RMK AO2 T02670122
03812KAVL AVL20160525143011205/25/16 14:30:31  5-MIN KAVL 251930Z AUTO 15006KT 10SM BKN080 27/13 A3025 1870 41 3700 150/06 RMK AO2 T02670128
03812KAVL AVL20160525143511205/25/16 14:35:31  5-MIN KAVL 251935Z AUTO 18008KT 10SM BKN080 27/12 A3025 1870 40 3700 190/08 RMK AO2 T02670122
03812KAVL AVL20160525144011205/25/16 14:40:31  5-MIN KAVL 251940Z AUTO 12006KT 10SM BKN080 27/12 A3024 1870 40 3700 130/06 RMK AO2 T02670122
03812KAVL AVL20160525144511205/25/16 14:45:31  5-MIN KAVL 251945Z AUTO 18010KT 10SM BKN080 27/12 A3024 1870 40 3700 180/10 RMK AO2 T02670122
03812KAVL AVL20160525145011905/25/16 14:50:31  5-MIN KAVL 251950Z AUTO 17010KT 10SM BKN080 27/13 A3024 1870 41 3700 180/10 RMK AO2 SLP220 T02670128
03812KAVL AVL20160525145512105/25/16 14:55:31  5-MIN KAVL 251955Z 18009KT 10SM SCT055 BKN065 BKN095 26/13 A3024 1870 43 3600 190/09 RMK AO2 T02610128
03812KAVL AVL20160525150011405/25/16 15:00:31  5-MIN KAVL 252000Z 17009KT 10SM SCT060 OVC090 26/13 A3024 1880 43 3600 170/09 RMK AO2 T02610128
03812KAVL AVL20160525150511405/25/16 15:05:31  5-MIN KAVL 252005Z 17009KT 10SM SCT060 BKN090 26/13 A3024 1880 43 3600 180/09 RMK AO2 T02610128
03812KAVL AVL20160525151011405/25/16 15:10:31  5-MIN KAVL 252010Z 19009KT 10SM FEW060 BKN090 26/12 A3024 1880 41 3600 200/09 RMK AO2 T02610122
03812KAVL AVL20160525151512105/25/16 15:15:31  5-MIN KAVL 252015Z 19008KT 10SM FEW055 SCT075 BKN090 26/12 A3024 1880 43 3600 190/08 RMK AO2 T02560122
03812KAVL AVL20160525152012105/25/16 15:20:31  5-MIN KAVL 252020Z 18008KT 10SM FEW055 SCT080 OVC090 26/12 A3024 1880 43 3600 190/08 RMK AO2 T02560122
03812KAVL AVL20160525152511405/25/16 15:25:31  5-MIN KAVL 252025Z 18008KT 10SM FEW055 OVC085 26/12 A3024 1880 43 3600 190/08 RMK AO2 T02560122
03812KAVL AVL20160525153012105/25/16 15:30:31  5-MIN KAVL 252030Z 19007KT 10SM FEW055 FEW070 OVC085 26/13 A3024 1880 44 3600 200/07 RMK AO2 T02560128
03812KAVL AVL20160525153513705/25/16 15:35:31  5-MIN KAVL 252035Z 19006KT 10SM -RA FEW055 FEW070 OVC090 26/13 A3024 1880 44 3600 200/06 RMK AO2 RAB33 P0000 T02560128
03812KAVL AVL20160525154013705/25/16 15:40:31  5-MIN KAVL 252040Z 21005KT 10SM -RA FEW055 FEW070 OVC095 26/13 A3024 1880 44 3600 210/05 RMK AO2 RAB33 P0000 T02560128
03812KAVL AVL20160525154512905/25/16 15:45:31  5-MIN KAVL 252045Z 19004KT 10SM SCT070 OVC090 26/13 A3024 1880 44 3600 190/04 RMK AO2 RAB33E43 P0000 T02560128
03812KAVL AVL20160525155014805/25/16 15:50:31  5-MIN KAVL 252050Z 17007KT 10SM BKN070 OVC090 26/13 A3023 1880 44 3600 180/07 RMK AO2 RAB33E43 SLP219 P0000 60000 T02560128 58014
03812KAVL AVL20160525155511405/25/16 15:55:31  5-MIN KAVL 252055Z 19006KT 10SM BKN070 OVC095 26/13 A3023 1880 44 3600 200/06 RMK AO2 T02560128
03812KAVL AVL20160525160011405/25/16 16:00:31  5-MIN KAVL 252100Z 17006KT 10SM BKN070 OVC100 26/13 A3023 1880 44 3600 170/06 RMK AO2 T02560128
03812KAVL AVL20160525160511405/25/16 16:05:31  5-MIN KAVL 252105Z 18007KT 10SM BKN070 OVC085 26/13 A3023 1880 43 3600 190/07 RMK AO2 T02610128
03812KAVL AVL20160525161011405/25/16 16:10:31  5-MIN KAVL 252110Z 17008KT 10SM BKN070 OVC090 27/13 A3023 1880 41 3700 170/08 RMK AO2 T02670128
03812KAVL AVL20160525161511405/25/16 16:15:31  5-MIN KAVL 252115Z 19009KT 10SM SCT065 OVC085 26/12 A3023 1880 41 3600 200/09 RMK AO2 T02610122
03812KAVL AVL20160525162011405/25/16 16:20:31  5-MIN KAVL 252120Z 20008KT 10SM FEW065 OVC085 27/13 A3023 1880 41 3700 200/08 RMK AO2 T02670128
03812KAVL AVL20160525162511405/25/16 16:25:31  5-MIN KAVL 252125Z 18008KT 10SM FEW065 OVC080 27/13 A3023 1880 41 3700 190/08 RMK AO2 T02670128
03812KAVL AVL20160525163011405/25/16 16:30:31  5-MIN KAVL 252130Z 18009KT 10SM BKN080 OVC090 26/13 A3023 1880 43 3600 190/09 RMK AO2 T02610128
03812KAVL AVL20160525163510705/25/16 16:35:31  5-MIN KAVL 252135Z 18008KT 10SM OVC080 26/13 A3023 1890 43 3600 190/08 RMK AO2 T02610128
03812KAVL AVL20160525164010705/25/16 16:40:31  5-MIN KAVL 252140Z 19008KT 10SM BKN075 26/13 A3023 1890 43 3600 190/08 RMK AO2 T02610128
03812KAVL AVL20160525164510705/25/16 16:45:31  5-MIN KAVL 252145Z 17011KT 10SM BKN075 26/13 A3022 1890 44 3600 180/11 RMK AO2 T02560128
03812KAVL AVL20160525165011405/25/16 16:50:31  5-MIN KAVL 252150Z 17007KT 10SM SCT075 26/13 A3022 1890 44 3600 170/07 RMK AO2 SLP215 T02560128
03812KAVL AVL20160525165510705/25/16 16:55:31  5-MIN KAVL 252155Z 18008KT 10SM SCT075 26/13 A3022 1890 44 3600 190/08 RMK AO2 T02560128
03812KAVL AVL20160525170010705/25/16 17:00:31  5-MIN KAVL 252200Z 19009KT 10SM FEW075 26/13 A3022 1890 44 3600 200/09 RMK AO2 T02560128
03812KAVL AVL20160525170510705/25/16 17:05:31  5-MIN KAVL 252205Z 19007KT 10SM FEW070 26/13 A3022 1890 44 3600 190/07 RMK AO2 T02610133
03812KAVL AVL20160525171010705/25/16 17:10:31  5-MIN KAVL 252210Z 18009KT 10SM FEW070 26/13 A3022 1890 44 3600 180/09 RMK AO2 T02610133
03812KAVL AVL20160525171510705/25/16 17:15:31  5-MIN KAVL 252215Z 18009KT 10SM FEW070 26/13 A3022 1890 44 3600 190/09 RMK AO2 T02610133
03812KAVL AVL20160525172010705/25/16 17:20:31  5-MIN KAVL 252220Z 17012KT 10SM FEW070 26/13 A3022 1890 43 3600 180/12 RMK AO2 T02610128
03812KAVL AVL20160525172510705/25/16 17:25:31  5-MIN KAVL 252225Z 19013KT 10SM FEW070 26/13 A3022 1890 43 3600 190/13 RMK AO2 T02610128
03812KAVL AVL20160525173010705/25/16 17:30:31  5-MIN KAVL 252230Z 19012KT 10SM SCT070 26/13 A3022 1890 43 3600 190/12 RMK AO2 T02610128
03812KAVL AVL20160525173510705/25/16 17:35:31  5-MIN KAVL 252235Z 20010KT 10SM FEW070 26/13 A3022 1890 44 3600 200/10 RMK AO2 T02560128
03812KAVL AVL20160525174010705/25/16 17:40:31  5-MIN KAVL 252240Z 19010KT 10SM FEW065 26/13 A3022 1900 44 3600 200/10 RMK AO2 T02560128
03812KAVL AVL20160525174510705/25/16 17:45:31  5-MIN KAVL 252245Z 19010KT 10SM FEW065 26/13 A3021 1900 44 3600 190/10 RMK AO2 T02560128
03812KAVL AVL20160525175011405/25/16 17:50:31  5-MIN KAVL 252250Z 19010KT 10SM FEW065 25/13 A3021 1900 46 3500 200/10 RMK AO2 SLP213 T02500128
