94299KAAT AAT20160101000011001/01/16 00:00:31  5-MIN KAAT 010800Z AUTO 24003KT 10SM CLR M18/M19 A3027 4060 91 900 220/03 RMK AO2 T11831194
94299KAAT AAT20160101000511101/01/16 00:05:31  5-MIN KAAT 010805Z AUTO 00000KT 10SM CLR M18/M19 A3027 4060 87 1000 000/00 RMK AO2 T11781194
94299KAAT AAT20160101001011101/01/16 00:10:31  5-MIN KAAT 010810Z AUTO 00000KT 10SM CLR M17/M19 A3027 4060 87 1100 000/00 RMK AO2 T11721189
94299KAAT AAT20160101001511001/01/16 00:15:31  5-MIN KAAT 010815Z AUTO 21003KT 10SM CLR M19/M20 A3027 4060 91 900 200/03 RMK AO2 T11891200
94299KAAT AAT20160101002011001/01/16 00:20:31  5-MIN KAAT 010820Z AUTO 00000KT 10SM CLR M18/M21 A3026 4070 83 900 000/00 RMK AO2 T11831206
94299KAAT AAT20160101002511001/01/16 00:25:31  5-MIN KAAT 010825Z AUTO 20005KT 10SM CLR M18/M20 A3026 4070 87 900 180/05 RMK AO2 T11831200
94299KAAT AAT20160101003010001/01/16 00:30:31  5-MIN KAAT 010830Z AUTO 10SM CLR M19/M19 A3026 4060 95 900 M /M RMK AO2 T11891194
94299KAAT AAT20160101003511001/01/16 00:35:31  5-MIN KAAT 010835Z AUTO 32003KT 10SM CLR M19/M21 A3026 4070 91 800 300/03 RMK AO2 T11941206
94299KAAT AAT20160101004011101/01/16 00:40:31  5-MIN KAAT 010840Z AUTO 00000KT 10SM CLR M18/M20 A3026 4070 83 1000 000/00 RMK AO2 T11781200
94299KAAT AAT20160101004511001/01/16 00:45:31  5-MIN KAAT 010845Z AUTO 22003KT 10SM CLR M18/M19 A3026 4070 91 900 210/03 RMK AO2 T11831194
94299KAAT AAT20160101005012301/01/16 00:50:31  5-MIN KAAT 010850Z AUTO 00000KT 10SM CLR M19/M22 A3026 4070 83 800 000/00 RMK AO2 SLP327 T11941217 51001
94299KAAT AAT20160101005512301/01/16 00:55:31  5-MIN KAAT 010855Z AUTO 00000KT 10SM CLR M19/M22 A3026 4070 79 900 000/00 RMK AO2 SLP324 T11891217 58010
94299KAAT AAT20160101010011001/01/16 01:00:31  5-MIN KAAT 010900Z AUTO 00000KT 10SM CLR M18/M21 A3026 4070 83 900 000/00 RMK AO2 T11831206
94299KAAT AAT20160101010511001/01/16 01:05:31  5-MIN KAAT 010905Z AUTO 27004KT 10SM CLR M19/M20 A3025 4070 91 900 260/04 RMK AO2 T11891200
94299KAAT AAT20160101011011001/01/16 01:10:31  5-MIN KAAT 010910Z AUTO 33003KT 10SM CLR M21/M22 A3025 4070 91 600 310/03 RMK AO2 T12111222
94299KAAT AAT20160101011511001/01/16 01:15:31  5-MIN KAAT 010915Z AUTO 29004KT 10SM CLR M20/M23 A3026 4070 79 700 270/04 RMK AO2 T12001228
94299KAAT AAT20160101012011001/01/16 01:20:31  5-MIN KAAT 010920Z AUTO 00000KT 10SM CLR M21/M23 A3025 4070 83 600 000/00 RMK AO2 T12061228
94299KAAT AAT20160101012511001/01/16 01:25:31  5-MIN KAAT 010925Z AUTO 29004KT 10SM CLR M21/M22 A3025 4080 87 600 280/04 RMK AO2 T12061222
94299KAAT AAT20160101013011001/01/16 01:30:31  5-MIN KAAT 010930Z AUTO 27006KT 10SM CLR M19/M21 A3025 4080 87 800 250/06 RMK AO2 T11941211
94299KAAT AAT20160101013511001/01/16 01:35:31  5-MIN KAAT 010935Z AUTO 29005KT 10SM CLR M19/M21 A3025 4080 91 800 270/05 RMK AO2 T11941206
94299KAAT AAT20160101014011001/01/16 01:40:31  5-MIN KAAT 010940Z AUTO 29005KT 10SM CLR M19/M21 A3025 4080 87 800 270/05 RMK AO2 T11941211
94299KAAT AAT20160101014511001/01/16 01:45:31  5-MIN KAAT 010945Z AUTO 30005KT 10SM CLR M20/M22 A3025 4080 83 700 290/05 RMK AO2 T12001222
94299KAAT AAT20160101015011701/01/16 01:50:31  5-MIN KAAT 010950Z AUTO 31004KT 10SM CLR M21/M23 A3025 4080 83 600 300/04 RMK AO2 SLP323 T12061228
94299KAAT AAT20160101015511701/01/16 01:55:31  5-MIN KAAT 010955Z AUTO 30004KT 10SM CLR M21/M23 A3025 4080 83 700 280/04 RMK AO2 SLP322 T12061228
94299KAAT AAT20160101020011001/01/16 02:00:31  5-MIN KAAT 011000Z AUTO 29003KT 10SM CLR M21/M22 A3025 4080 91 600 270/03 RMK AO2 T12061217
94299KAAT AAT20160101020511001/01/16 02:05:31  5-MIN KAAT 011005Z AUTO 21003KT 10SM CLR M21/M22 A3025 4080 91 600 200/03 RMK AO2 T12061217
94299KAAT AAT20160101021011001/01/16 02:10:31  5-MIN KAAT 011010Z AUTO 23003KT 10SM CLR M22/M23 A3025 4080 87 500 220/03 RMK AO2 T12171233
94299KAAT AAT20160101021511001/01/16 02:15:31  5-MIN KAAT 011015Z AUTO 00000KT 10SM CLR M22/M24 A3025 4080 82 500 000/00 RMK AO2 T12171239
94299KAAT AAT20160101022011001/01/16 02:20:31  5-MIN KAAT 011020Z AUTO 00000KT 10SM CLR M21/M24 A3025 4080 79 600 000/00 RMK AO2 T12111239
94299KAAT AAT20160101022511001/01/16 02:25:31  5-MIN KAAT 011025Z AUTO 34003KT 10SM CLR M21/M23 A3025 4080 87 600 330/03 RMK AO2 T12111228
94299KAAT AAT20160101023011001/01/16 02:30:31  5-MIN KAAT 011030Z AUTO VRB03KT 10SM CLR M21/M22 A3025 4080 87 700 VRB/03 RMK AO2 T12061222
94299KAAT AAT20160101023510901/01/16 02:35:31  5-MIN KAAT 011035Z AUTO VRB04KT 8SM CLR M21/M22 A3025 4080 91 600 VRB/04 RMK AO2 T12111222
94299KAAT AAT20160101024010901/01/16 02:40:31  5-MIN KAAT 011040Z AUTO 00000KT 9SM CLR M21/M23 A3025 4080 87 600 000/00 RMK AO2 T12111228
94299KAAT AAT20160101024511001/01/16 02:45:31  5-MIN KAAT 011045Z AUTO 00000KT 10SM CLR M21/M23 A3025 4080 83 600 000/00 RMK AO2 T12111233
94299KAAT AAT20160101025011601/01/16 02:50:31  5-MIN KAAT 011050Z AUTO 00000KT 8SM CLR M21/M23 A3025 4080 83 600 000/00 RMK AO2 SLP319 T12111233
94299KAAT AAT20160101025511901/01/16 02:55:31  5-MIN KAAT 011055Z AUTO 20003KT 5SM BR CLR M21/M23 A3024 4080 83 700 180/03 RMK AO2 SLP317 T12061228
94299KAAT AAT20160101030011201/01/16 03:00:31  5-MIN KAAT 011100Z AUTO 21005KT 6SM BR CLR M21/M22 A3025 4080 91 700 190/05 RMK AO2 T12061217
94299KAAT AAT20160101030511001/01/16 03:05:31  5-MIN KAAT 011105Z AUTO VRB03KT 10SM CLR M21/M22 A3025 4080 91 600 VRB/03 RMK AO2 T12111222
94299KAAT AAT20160101031011001/01/16 03:10:31  5-MIN KAAT 011110Z AUTO 25003KT 10SM CLR M21/M22 A3024 4080 91 600 240/03 RMK AO2 T12111222
94299KAAT AAT20160101031511001/01/16 03:15:31  5-MIN KAAT 011115Z AUTO 30004KT 10SM CLR M22/M23 A3024 4090 87 500 290/04 RMK AO2 T12171233
94299KAAT AAT20160101032011001/01/16 03:20:31  5-MIN KAAT 011120Z AUTO 29004KT 10SM CLR M22/M24 A3024 4080 82 400 280/04 RMK AO2 T12221244
94299KAAT AAT20160101032511001/01/16 03:25:31  5-MIN KAAT 011125Z AUTO 28004KT 10SM CLR M23/M25 A3024 4090 86 300 270/04 RMK AO2 T12331250
94299KAAT AAT20160101033011001/01/16 03:30:31  5-MIN KAAT 011130Z AUTO 29004KT 10SM CLR M23/M25 A3024 4090 82 400 280/04 RMK AO2 T12281250
94299KAAT AAT20160101033511001/01/16 03:35:31  5-MIN KAAT 011135Z AUTO 32003KT 10SM CLR M23/M24 A3024 4090 91 300 310/03 RMK AO2 T12331244
94299KAAT AAT20160101034011001/01/16 03:40:31  5-MIN KAAT 011140Z AUTO 33004KT 10SM CLR M23/M24 A3024 4090 86 400 320/04 RMK AO2 T12281244
94299KAAT AAT20160101034511001/01/16 03:45:31  5-MIN KAAT 011145Z AUTO 30005KT 10SM CLR M22/M24 A3024 4090 86 400 290/05 RMK AO2 T12221239
94299KAAT AAT20160101035013501/01/16 03:50:31  5-MIN KAAT 011150Z AUTO 30004KT 10SM CLR M22/M23 A3023 4090 87 500 280/04 RMK AO2 SLP321 T12171233 11111 21233 58010
94299KAAT AAT20160101035513501/01/16 03:55:31  5-MIN KAAT 011155Z AUTO 32003KT 10SM CLR M22/M23 A3023 4090 87 500 300/03 RMK AO2 SLP320 T12171233 11111 21233 56007
94299KAAT AAT20160101040011001/01/16 04:00:31  5-MIN KAAT 011200Z AUTO 29004KT 10SM CLR M22/M23 A3023 4090 91 400 280/04 RMK AO2 T12221233
94299KAAT AAT20160101040511001/01/16 04:05:31  5-MIN KAAT 011205Z AUTO 29003KT 10SM CLR M23/M24 A3023 4090 91 400 280/03 RMK AO2 T12281239
94299KAAT AAT20160101041011001/01/16 04:10:31  5-MIN KAAT 011210Z AUTO 00000KT 10SM CLR M23/M24 A3023 4090 86 400 000/00 RMK AO2 T12281244
94299KAAT AAT20160101041511001/01/16 04:15:31  5-MIN KAAT 011215Z AUTO 00000KT 10SM CLR M23/M25 A3023 4090 82 400 000/00 RMK AO2 T12281250
94299KAAT AAT20160101042011001/01/16 04:20:31  5-MIN KAAT 011220Z AUTO 32006KT 10SM CLR M23/M25 A3023 4090 82 400 310/06 RMK AO2 T12281250
94299KAAT AAT20160101042511001/01/16 04:25:31  5-MIN KAAT 011225Z AUTO 31004KT 10SM CLR M22/M24 A3023 4100 86 400 290/04 RMK AO2 T12221239
94299KAAT AAT20160101043011001/01/16 04:30:31  5-MIN KAAT 011230Z AUTO 00000KT 10SM CLR M22/M24 A3023 4100 86 400 000/00 RMK AO2 T12221239
94299KAAT AAT20160101043511001/01/16 04:35:31  5-MIN KAAT 011235Z AUTO 00000KT 10SM CLR M22/M24 A3022 4100 86 500 000/00 RMK AO2 T12221239
94299KAAT AAT20160101044011001/01/16 04:40:31  5-MIN KAAT 011240Z AUTO 00000KT 10SM CLR M22/M24 A3023 4100 82 400 000/00 RMK AO2 T12221244
94299KAAT AAT20160101044511001/01/16 04:45:31  5-MIN KAAT 011245Z AUTO 00000KT 10SM CLR M23/M26 A3023 4100 78 400 000/00 RMK AO2 T12281256
94299KAAT AAT20160101045011701/01/16 04:50:31  5-MIN KAAT 011250Z AUTO 00000KT 10SM CLR M22/M25 A3023 4100 78 400 000/00 RMK AO2 SLP314 T12221250
94299KAAT AAT20160101045511701/01/16 04:55:31  5-MIN KAAT 011255Z AUTO 00000KT 10SM CLR M23/M25 A3023 4100 86 300 000/00 RMK AO2 SLP313 T12331250
94299KAAT AAT20160101050011001/01/16 05:00:31  5-MIN KAAT 011300Z AUTO 00000KT 10SM CLR M23/M25 A3023 4100 86 300 000/00 RMK AO2 T12331250
94299KAAT AAT20160101050510901/01/16 05:05:31  5-MIN KAAT 011305Z AUTO 00000KT 9SM CLR M24/M26 A3023 4100 86 200 000/00 RMK AO2 T12391256
94299KAAT AAT20160101051010901/01/16 05:10:31  5-MIN KAAT 011310Z AUTO 03004KT 9SM CLR M24/M27 A3022 4100 78 200 020/04 RMK AO2 T12391267
94299KAAT AAT20160101051510901/01/16 05:15:31  5-MIN KAAT 011315Z AUTO 03003KT 9SM CLR M23/M26 A3023 4100 78 300 020/03 RMK AO2 T12331261
94299KAAT AAT20160101052010901/01/16 05:20:31  5-MIN KAAT 011320Z AUTO 00000KT 8SM CLR M23/M26 A3023 4100 78 400 000/00 RMK AO2 T12281256
94299KAAT AAT20160101052510901/01/16 05:25:31  5-MIN KAAT 011325Z AUTO 00000KT 8SM CLR M24/M25 A3023 4100 91 200 000/00 RMK AO2 T12391250
94299KAAT AAT20160101053010701/01/16 05:30:31  5-MIN KAAT 011330Z AUTO 00000KT 9SM CLR M26/M27 A3023 4100 91 0 000/00 RMK AO2 T12561267
94299KAAT AAT20160101053511001/01/16 05:35:31  5-MIN KAAT 011335Z AUTO 19003KT 10SM CLR M25/M27 A3023 4100 82 100 170/03 RMK AO2 T12501272
94299KAAT AAT20160101054011001/01/16 05:40:31  5-MIN KAAT 011340Z AUTO 00000KT 10SM CLR M25/M28 A3023 4100 78 100 000/00 RMK AO2 T12501278
94299KAAT AAT20160101054511201/01/16 05:45:31  5-MIN KAAT 011345Z AUTO 00000KT 6SM HZ CLR M24/M27 A3023 4090 78 100 000/00 RMK AO2 T12441272
94299KAAT AAT20160101055011901/01/16 05:50:31  5-MIN KAAT 011350Z AUTO 00000KT 5SM BR CLR M24/M26 A3023 4090 82 200 000/00 RMK AO2 SLP315 T12391261
94299KAAT AAT20160101055511901/01/16 05:55:31  5-MIN KAAT 011355Z AUTO 00000KT 6SM BR CLR M24/M26 A3023 4100 91 100 000/00 RMK AO2 SLP314 T12441256
94299KAAT AAT20160101060010901/01/16 06:00:31  5-MIN KAAT 011400Z AUTO 00000KT 7SM CLR M25/M27 A3023 4100 86 100 000/00 RMK AO2 T12501267
94299KAAT AAT20160101060511201/01/16 06:05:31  5-MIN KAAT 011405Z AUTO 00000KT 6SM HZ CLR M24/M27 A3023 4100 74 200 000/00 RMK AO2 T12391272
94299KAAT AAT20160101061010901/01/16 06:10:31  5-MIN KAAT 011410Z AUTO 00000KT 7SM CLR M24/M26 A3023 4090 82 200 000/00 RMK AO2 T12391261
94299KAAT AAT20160101061510901/01/16 06:15:31  5-MIN KAAT 011415Z AUTO 00000KT 9SM CLR M25/M26 A3023 4100 91 100 000/00 RMK AO2 T12501261
94299KAAT AAT20160101062010701/01/16 06:20:31  5-MIN KAAT 011420Z AUTO 00000KT 9SM CLR M26/M27 A3023 4100 91 0 000/00 RMK AO2 T12611272
94299KAAT AAT20160101062510701/01/16 06:25:31  5-MIN KAAT 011425Z AUTO 00000KT 9SM CLR M26/M29 A3023 4100 78 0 000/00 RMK AO2 T12611289
94299KAAT AAT20160101063010801/01/16 06:30:31  5-MIN KAAT 011430Z AUTO 00000KT 10SM CLR M26/M29 A3023 4100 78 0 000/00 RMK AO2 T12611289
94299KAAT AAT20160101063510801/01/16 06:35:31  5-MIN KAAT 011435Z AUTO 00000KT 10SM CLR M26/M28 A3023 4100 82 0 000/00 RMK AO2 T12611283
94299KAAT AAT20160101064010801/01/16 06:40:31  5-MIN KAAT 011440Z AUTO 00000KT 10SM CLR M26/M28 A3023 4100 82 0 000/00 RMK AO2 T12561278
94299KAAT AAT20160101064510801/01/16 06:45:31  5-MIN KAAT 011445Z AUTO 00000KT 10SM CLR M26/M27 A3023 4100 86 0 000/00 RMK AO2 T12561272
94299KAAT AAT20160101065012301/01/16 06:50:31  5-MIN KAAT 011450Z AUTO 21003KT 10SM CLR M24/M27 A3023 4100 82 100 190/03 RMK AO2 SLP317 T12441267 56007
94299KAAT AAT20160101065512301/01/16 06:55:31  5-MIN KAAT 011455Z AUTO 00000KT 10SM CLR M24/M26 A3023 4100 86 100 000/00 RMK AO2 SLP319 T12441261 56001
94299KAAT AAT20160101070011001/01/16 07:00:31  5-MIN KAAT 011500Z AUTO 00000KT 10SM CLR M24/M27 A3023 4090 82 100 000/00 RMK AO2 T12441267
94299KAAT AAT20160101070511001/01/16 07:05:31  5-MIN KAAT 011505Z AUTO 00000KT 10SM CLR M24/M27 A3023 4100 82 100 000/00 RMK AO2 T12441267
94299KAAT AAT20160101071011001/01/16 07:10:31  5-MIN KAAT 011510Z AUTO 00000KT 10SM CLR M25/M27 A3023 4090 86 100 000/00 RMK AO2 T12501267
94299KAAT AAT20160101071511001/01/16 07:15:31  5-MIN KAAT 011515Z AUTO VRB03KT 10SM CLR M24/M27 A3023 4090 78 200 VRB/03 RMK AO2 T12391267
94299KAAT AAT20160101072010701/01/16 07:20:31  5-MIN KAAT 011520Z AUTO 36004KT 8SM CLR M26/M28 A3023 4090 78 0 350/04 RMK AO2 T12561283
94299KAAT AAT20160101072511201/01/16 07:25:31  5-MIN KAAT 011525Z AUTO 34006KT 4SM HZ CLR M25/M28 A3023 4100 78 100 330/06 RMK AO2 T12501278
94299KAAT AAT20160101073011201/01/16 07:30:31  5-MIN KAAT 011530Z AUTO 00000KT 3SM BR CLR M25/M27 A3023 4100 82 100 000/00 RMK AO2 T12501272
94299KAAT AAT20160101073510201/01/16 07:35:31  5-MIN KAAT 011535Z AUTO 5SM BR CLR M23/M26 A3023 4090 82 300 M /M RMK AO2 T12331256
94299KAAT AAT20160101074010901/01/16 07:40:31  5-MIN KAAT 011540Z AUTO 11004KT 7SM CLR M25/M26 A3023 4090 91 100 090/04 RMK AO2 T12501261
94299KAAT AAT20160101074511201/01/16 07:45:31  5-MIN KAAT 011545Z AUTO 00000KT 5SM BR CLR M25/M27 A3023 4090 86 100 000/00 RMK AO2 T12501267
94299KAAT AAT20160101075011901/01/16 07:50:31  5-MIN KAAT 011550Z AUTO 00000KT 5SM HZ CLR M25/M28 A3023 4100 74 100 000/00 RMK AO2 SLP322 T12501283
94299KAAT AAT20160101075511601/01/16 07:55:31  5-MIN KAAT 011555Z AUTO 00000KT 8SM CLR M24/M27 A3023 4090 78 100 000/00 RMK AO2 SLP322 T12441272
94299KAAT AAT20160101080010701/01/16 08:00:31  5-MIN KAAT 011600Z AUTO 18003KT 8SM CLR M26/M26 A3023 4090 95 0 170/03 RMK AO2 T12561261
94299KAAT AAT20160101080510901/01/16 08:05:31  5-MIN KAAT 011605Z AUTO 00000KT 8SM CLR M25/M26 A3023 4090 91 100 000/00 RMK AO2 T12501261
94299KAAT AAT20160101081010901/01/16 08:10:31  5-MIN KAAT 011610Z AUTO 00000KT 7SM CLR M24/M26 A3023 4090 82 200 000/00 RMK AO2 T12391261
94299KAAT AAT20160101081511201/01/16 08:15:31  5-MIN KAAT 011615Z AUTO 00000KT 6SM BR CLR M24/M26 A3024 4090 86 200 000/00 RMK AO2 T12391256
94299KAAT AAT20160101082010901/01/16 08:20:31  5-MIN KAAT 011620Z AUTO 04004KT 7SM CLR M24/M27 A3024 4090 78 200 030/04 RMK AO2 T12391267
94299KAAT AAT20160101082511201/01/16 08:25:31  5-MIN KAAT 011625Z AUTO 05003KT 5SM BR CLR M23/M25 A3024 4090 82 400 030/03 RMK AO2 T12281250
94299KAAT AAT20160101083011201/01/16 08:30:31  5-MIN KAAT 011630Z AUTO 00000KT 5SM BR CLR M22/M23 A3023 4090 87 500 000/00 RMK AO2 T12171233
94299KAAT AAT20160101083511201/01/16 08:35:31  5-MIN KAAT 011635Z AUTO 00000KT 5SM BR CLR M23/M24 A3023 4090 91 400 000/00 RMK AO2 T12281239
94299KAAT AAT20160101084010901/01/16 08:40:31  5-MIN KAAT 011640Z AUTO 18004KT 7SM CLR M23/M25 A3024 4090 86 300 160/04 RMK AO2 T12331250
94299KAAT AAT20160101084511001/01/16 08:45:31  5-MIN KAAT 011645Z AUTO 00000KT 10SM CLR M23/M24 A3024 4090 86 400 000/00 RMK AO2 T12281244
94299KAAT AAT20160101085011601/01/16 08:50:31  5-MIN KAAT 011650Z AUTO 00000KT 9SM CLR M22/M23 A3024 4090 91 400 000/00 RMK AO2 SLP322 T12221233
94299KAAT AAT20160101085511901/01/16 08:55:31  5-MIN KAAT 011655Z AUTO 00000KT 6SM BR CLR M21/M23 A3024 4090 87 600 000/00 RMK AO2 SLP317 T12111228
94299KAAT AAT20160101090011201/01/16 09:00:31  5-MIN KAAT 011700Z AUTO 30003KT 6SM BR CLR M22/M23 A3024 4090 87 500 280/03 RMK AO2 T12171233
94299KAAT AAT20160101090510901/01/16 09:05:31  5-MIN KAAT 011705Z AUTO 00000KT 8SM CLR M22/M24 A3024 4090 86 400 000/00 RMK AO2 T12221239
94299KAAT AAT20160101091010901/01/16 09:10:31  5-MIN KAAT 011710Z AUTO 00000KT 9SM CLR M21/M23 A3024 4090 83 600 000/00 RMK AO2 T12111233
94299KAAT AAT20160101091510901/01/16 09:15:31  5-MIN KAAT 011715Z AUTO 21003KT 9SM CLR M22/M23 A3024 4090 95 400 200/03 RMK AO2 T12221228
94299KAAT AAT20160101092010901/01/16 09:20:31  5-MIN KAAT 011720Z AUTO 00000KT 9SM CLR M21/M22 A3024 4090 91 600 000/00 RMK AO2 T12111222
94299KAAT AAT20160101092510901/01/16 09:25:31  5-MIN KAAT 011725Z AUTO 00000KT 8SM CLR M20/M21 A3024 4090 91 700 000/00 RMK AO2 T12001211
94299KAAT AAT20160101093011201/01/16 09:30:31  5-MIN KAAT 011730Z AUTO 00000KT 5SM BR CLR M19/M21 A3024 4090 91 800 000/00 RMK AO2 T11941206
94299KAAT AAT20160101093511201/01/16 09:35:31  5-MIN KAAT 011735Z AUTO 18003KT 4SM BR CLR M20/M21 A3024 4090 91 700 160/03 RMK AO2 T12001211
94299KAAT AAT20160101094010901/01/16 09:40:31  5-MIN KAAT 011740Z AUTO 00000KT 7SM CLR M19/M20 A3024 4090 95 800 000/00 RMK AO2 T11941200
94299KAAT AAT20160101094511001/01/16 09:45:31  5-MIN KAAT 011745Z AUTO 17003KT 10SM CLR M19/M20 A3024 4090 91 900 150/03 RMK AO2 T11891200
94299KAAT AAT20160101095013501/01/16 09:50:31  5-MIN KAAT 011750Z AUTO 00000KT 10SM CLR M19/M19 A3024 4090 95 900 000/00 RMK AO2 SLP317 T11891194 11189 21261 56001
94299KAAT AAT20160101095513601/01/16 09:55:31  5-MIN KAAT 011755Z AUTO 00000KT 10SM CLR M18/M19 A3024 4090 95 1000 000/00 RMK AO2 SLP314 T11831189 11183 21261 50002
94299KAAT AAT20160101100011101/01/16 10:00:31  5-MIN KAAT 011800Z AUTO 00000KT 10SM CLR M17/M18 A3023 4090 91 1100 000/00 RMK AO2 T11721183
94299KAAT AAT20160101100511101/01/16 10:05:31  5-MIN KAAT 011805Z AUTO 00000KT 10SM CLR M17/M18 A3023 4090 91 1100 000/00 RMK AO2 T11721183
94299KAAT AAT20160101101011101/01/16 10:10:31  5-MIN KAAT 011810Z AUTO 00000KT 10SM CLR M18/M18 A3023 4090 95 1000 000/00 RMK AO2 T11781183
94299KAAT AAT20160101101511101/01/16 10:15:31  5-MIN KAAT 011815Z AUTO 00000KT 10SM CLR M18/M18 A3023 4090 95 1000 000/00 RMK AO2 T11781183
94299KAAT AAT20160101102011101/01/16 10:20:31  5-MIN KAAT 011820Z AUTO 22003KT 10SM CLR M18/M18 A3023 4090 95 1000 200/03 RMK AO2 T11781183
94299KAAT AAT20160101102511101/01/16 10:25:31  5-MIN KAAT 011825Z AUTO 00000KT 10SM CLR M17/M18 A3023 4100 91 1100 000/00 RMK AO2 T11721183
94299KAAT AAT20160101103011101/01/16 10:30:31  5-MIN KAAT 011830Z AUTO 00000KT 10SM CLR M17/M18 A3023 4100 91 1200 000/00 RMK AO2 T11671178
94299KAAT AAT20160101103511101/01/16 10:35:31  5-MIN KAAT 011835Z AUTO 00000KT 10SM CLR M16/M18 A3023 4100 87 1300 000/00 RMK AO2 T11611178
94299KAAT AAT20160101104011101/01/16 10:40:31  5-MIN KAAT 011840Z AUTO 00000KT 10SM CLR M16/M17 A3023 4100 91 1300 000/00 RMK AO2 T11611172
94299KAAT AAT20160101104511101/01/16 10:45:31  5-MIN KAAT 011845Z AUTO 00000KT 10SM CLR M16/M17 A3023 4100 87 1300 000/00 RMK AO2 T11561172
94299KAAT AAT20160101105011801/01/16 10:50:31  5-MIN KAAT 011850Z AUTO 00000KT 10SM CLR M16/M17 A3023 4100 87 1300 000/00 RMK AO2 SLP308 T11561172
94299KAAT AAT20160101105511801/01/16 10:55:31  5-MIN KAAT 011855Z AUTO 00000KT 10SM CLR M16/M18 A3022 4100 83 1300 000/00 RMK AO2 SLP304 T11561178
94299KAAT AAT20160101110011101/01/16 11:00:31  5-MIN KAAT 011900Z AUTO 00000KT 10SM CLR M16/M18 A3022 4110 83 1300 000/00 RMK AO2 T11561178
94299KAAT AAT20160101110511101/01/16 11:05:31  5-MIN KAAT 011905Z AUTO 00000KT 10SM CLR M16/M17 A3022 4100 87 1300 000/00 RMK AO2 T11561172
94299KAAT AAT20160101111011101/01/16 11:10:31  5-MIN KAAT 011910Z AUTO 00000KT 10SM CLR M14/M17 A3022 4110 80 1500 000/00 RMK AO2 T11441172
94299KAAT AAT20160101111511101/01/16 11:15:31  5-MIN KAAT 011915Z AUTO 00000KT 10SM CLR M14/M17 A3022 4110 80 1500 000/00 RMK AO2 T11441172
94299KAAT AAT20160101112011101/01/16 11:20:31  5-MIN KAAT 011920Z AUTO 00000KT 10SM CLR M14/M17 A3022 4110 80 1500 000/00 RMK AO2 T11441172
94299KAAT AAT20160101112511101/01/16 11:25:31  5-MIN KAAT 011925Z AUTO 00000KT 10SM CLR M14/M17 A3022 4110 80 1500 000/00 RMK AO2 T11441172
94299KAAT AAT20160101113011101/01/16 11:30:31  5-MIN KAAT 011930Z AUTO 00000KT 10SM CLR M14/M17 A3022 4110 76 1600 000/00 RMK AO2 T11391172
94299KAAT AAT20160101113511101/01/16 11:35:31  5-MIN KAAT 011935Z AUTO 00000KT 10SM CLR M14/M17 A3022 4110 80 1600 000/00 RMK AO2 T11391167
94299KAAT AAT20160101114011101/01/16 11:40:31  5-MIN KAAT 011940Z AUTO 00000KT 10SM CLR M13/M17 A3021 4110 76 1600 000/00 RMK AO2 T11331167
94299KAAT AAT20160101114511101/01/16 11:45:31  5-MIN KAAT 011945Z AUTO 00000KT 10SM CLR M13/M17 A3021 4110 76 1600 000/00 RMK AO2 T11331167
94299KAAT AAT20160101115011801/01/16 11:50:31  5-MIN KAAT 011950Z AUTO 00000KT 10SM CLR M13/M17 A3021 4120 73 1700 000/00 RMK AO2 SLP304 T11281167
94299KAAT AAT20160101115511801/01/16 11:55:31  5-MIN KAAT 011955Z AUTO 00000KT 10SM CLR M13/M17 A3020 4120 76 1700 000/00 RMK AO2 SLP305 T11331167
94299KAAT AAT20160101120011101/01/16 12:00:31  5-MIN KAAT 012000Z AUTO 00000KT 10SM CLR M12/M17 A3020 4120 70 1800 000/00 RMK AO2 T11221167
94299KAAT AAT20160101120511101/01/16 12:05:31  5-MIN KAAT 012005Z AUTO 00000KT 10SM CLR M12/M17 A3020 4130 67 1900 000/00 RMK AO2 T11171167
94299KAAT AAT20160101121011101/01/16 12:10:31  5-MIN KAAT 012010Z AUTO 00000KT 10SM CLR M12/M17 A3020 4130 70 1800 000/00 RMK AO2 T11221167
94299KAAT AAT20160101121511101/01/16 12:15:31  5-MIN KAAT 012015Z AUTO 18003KT 10SM CLR M12/M16 A3020 4130 70 1900 170/03 RMK AO2 T11171161
94299KAAT AAT20160101122011101/01/16 12:20:31  5-MIN KAAT 012020Z AUTO 00000KT 10SM CLR M12/M17 A3020 4130 70 1800 000/00 RMK AO2 T11221167
94299KAAT AAT20160101122511101/01/16 12:25:31  5-MIN KAAT 012025Z AUTO 15003KT 10SM CLR M13/M17 A3019 4130 73 1700 130/03 RMK AO2 T11281167
94299KAAT AAT20160101123011101/01/16 12:30:31  5-MIN KAAT 012030Z AUTO 14003KT 10SM CLR M13/M16 A3019 4130 76 1700 130/03 RMK AO2 T11281161
94299KAAT AAT20160101123511101/01/16 12:35:31  5-MIN KAAT 012035Z AUTO 00000KT 10SM CLR M12/M16 A3019 4130 73 1800 000/00 RMK AO2 T11221161
94299KAAT AAT20160101124011101/01/16 12:40:31  5-MIN KAAT 012040Z AUTO 09003KT 10SM CLR M12/M16 A3019 4140 70 1900 080/03 RMK AO2 T11171161
94299KAAT AAT20160101124511101/01/16 12:45:31  5-MIN KAAT 012045Z AUTO 10003KT 10SM CLR M12/M16 A3019 4140 70 1900 090/03 RMK AO2 T11171161
94299KAAT AAT20160101125012401/01/16 12:50:31  5-MIN KAAT 012050Z AUTO 00000KT 10SM CLR M11/M16 A3018 4140 70 2000 000/00 RMK AO2 SLP296 T11111156 50002
94299KAAT AAT20160101125512401/01/16 12:55:31  5-MIN KAAT 012055Z AUTO 00000KT 10SM CLR M11/M16 A3018 4140 70 2000 000/00 RMK AO2 SLP295 T11111156 58016
94299KAAT AAT20160101130011101/01/16 13:00:31  5-MIN KAAT 012100Z AUTO 00000KT 10SM CLR M11/M16 A3018 4140 67 2000 000/00 RMK AO2 T11061156
94299KAAT AAT20160101130511101/01/16 13:05:31  5-MIN KAAT 012105Z AUTO 00000KT 10SM CLR M10/M16 A3018 4150 64 2100 000/00 RMK AO2 T11001156
94299KAAT AAT20160101131011101/01/16 13:10:31  5-MIN KAAT 012110Z AUTO 00000KT 10SM CLR M09/M15 A3017 4150 64 2200 000/00 RMK AO2 T10941150
94299KAAT AAT20160101131511101/01/16 13:15:31  5-MIN KAAT 012115Z AUTO 18005KT 10SM CLR M11/M16 A3018 4140 70 2000 170/05 RMK AO2 T11111156
94299KAAT AAT20160101132011101/01/16 13:20:31  5-MIN KAAT 012120Z AUTO 14003KT 10SM CLR M11/M16 A3017 4150 67 2000 120/03 RMK AO2 T11061156
94299KAAT AAT20160101132511101/01/16 13:25:31  5-MIN KAAT 012125Z AUTO 00000KT 10SM CLR M11/M16 A3017 4150 67 2100 000/00 RMK AO2 T11061156
94299KAAT AAT20160101133011101/01/16 13:30:31  5-MIN KAAT 012130Z AUTO 00000KT 10SM CLR M11/M15 A3017 4150 70 2100 000/00 RMK AO2 T11061150
94299KAAT AAT20160101133511101/01/16 13:35:31  5-MIN KAAT 012135Z AUTO 00000KT 10SM CLR M10/M15 A3017 4150 67 2100 000/00 RMK AO2 T11001150
94299KAAT AAT20160101134011101/01/16 13:40:31  5-MIN KAAT 012140Z AUTO 00000KT 10SM CLR M10/M16 A3017 4150 64 2100 000/00 RMK AO2 T11001156
94299KAAT AAT20160101134511101/01/16 13:45:31  5-MIN KAAT 012145Z AUTO 00000KT 10SM CLR M09/M16 A3017 4150 59 2300 000/00 RMK AO2 T10891156
94299KAAT AAT20160101135011801/01/16 13:50:31  5-MIN KAAT 012150Z AUTO 00000KT 10SM CLR M09/M16 A3017 4150 61 2200 000/00 RMK AO2 SLP290 T10941156
94299KAAT AAT20160101135511801/01/16 13:55:31  5-MIN KAAT 012155Z AUTO 00000KT 10SM CLR M09/M15 A3017 4150 64 2200 000/00 RMK AO2 SLP290 T10941150
94299KAAT AAT20160101140011101/01/16 14:00:31  5-MIN KAAT 012200Z AUTO 16003KT 10SM CLR M10/M16 A3017 4150 64 2100 150/03 RMK AO2 T11001156
94299KAAT AAT20160101140511101/01/16 14:05:31  5-MIN KAAT 012205Z AUTO 14003KT 10SM CLR M11/M15 A3017 4150 70 2100 120/03 RMK AO2 T11061150
94299KAAT AAT20160101141011101/01/16 14:10:31  5-MIN KAAT 012210Z AUTO 12003KT 10SM CLR M10/M15 A3016 4160 67 2100 110/03 RMK AO2 T11001150
94299KAAT AAT20160101141511101/01/16 14:15:31  5-MIN KAAT 012215Z AUTO 16004KT 10SM CLR M10/M15 A3016 4160 67 2100 140/04 RMK AO2 T11001150
94299KAAT AAT20160101142011101/01/16 14:20:31  5-MIN KAAT 012220Z AUTO 15003KT 10SM CLR M11/M15 A3016 4160 70 2100 130/03 RMK AO2 T11061150
94299KAAT AAT20160101142511101/01/16 14:25:31  5-MIN KAAT 012225Z AUTO 13004KT 10SM CLR M11/M15 A3016 4160 70 2100 120/04 RMK AO2 T11061150
94299KAAT AAT20160101143011101/01/16 14:30:31  5-MIN KAAT 012230Z AUTO 13003KT 10SM CLR M11/M15 A3016 4160 70 2100 120/03 RMK AO2 T11061150
94299KAAT AAT20160101143511101/01/16 14:35:31  5-MIN KAAT 012235Z AUTO 15003KT 10SM CLR M11/M15 A3016 4160 70 2100 130/03 RMK AO2 T11061150
94299KAAT AAT20160101144011101/01/16 14:40:31  5-MIN KAAT 012240Z AUTO 16006KT 10SM CLR M11/M15 A3016 4160 70 2100 140/06 RMK AO2 T11061150
94299KAAT AAT20160101144511101/01/16 14:45:31  5-MIN KAAT 012245Z AUTO 17004KT 10SM CLR M11/M15 A3016 4160 73 2000 150/04 RMK AO2 T11111150
94299KAAT AAT20160101145011801/01/16 14:50:31  5-MIN KAAT 012250Z AUTO 14003KT 10SM CLR M11/M15 A3016 4160 73 2000 130/03 RMK AO2 SLP291 T11111150
94299KAAT AAT20160101145511801/01/16 14:55:31  5-MIN KAAT 012255Z AUTO 13004KT 10SM CLR M11/M15 A3016 4160 73 2000 120/04 RMK AO2 SLP288 T11111150
94299KAAT AAT20160101150011101/01/16 15:00:31  5-MIN KAAT 012300Z AUTO 12003KT 10SM CLR M11/M15 A3016 4160 73 2000 100/03 RMK AO2 T11111150
94299KAAT AAT20160101150511101/01/16 15:05:31  5-MIN KAAT 012305Z AUTO 15005KT 10SM CLR M11/M15 A3016 4160 70 2100 130/05 RMK AO2 T11061150
94299KAAT AAT20160101151011101/01/16 15:10:31  5-MIN KAAT 012310Z AUTO 14004KT 10SM CLR M11/M15 A3016 4160 73 2000 130/04 RMK AO2 T11111150
94299KAAT AAT20160101151511101/01/16 15:15:31  5-MIN KAAT 012315Z AUTO 14003KT 10SM CLR M11/M15 A3016 4160 73 2000 120/03 RMK AO2 T11111150
94299KAAT AAT20160101152011101/01/16 15:20:31  5-MIN KAAT 012320Z AUTO 15003KT 10SM CLR M11/M15 A3016 4160 70 2100 130/03 RMK AO2 T11061150
94299KAAT AAT20160101152511101/01/16 15:25:31  5-MIN KAAT 012325Z AUTO 00000KT 10SM CLR M11/M15 A3016 4160 70 2100 000/00 RMK AO2 T11061150
94299KAAT AAT20160101153011101/01/16 15:30:31  5-MIN KAAT 012330Z AUTO 15003KT 10SM CLR M11/M15 A3016 4160 70 2100 140/03 RMK AO2 T11061150
94299KAAT AAT20160101153511101/01/16 15:35:31  5-MIN KAAT 012335Z AUTO 15003KT 10SM CLR M11/M15 A3016 4160 70 2100 130/03 RMK AO2 T11061150
94299KAAT AAT20160101154011101/01/16 15:40:31  5-MIN KAAT 012340Z AUTO 00000KT 10SM CLR M11/M15 A3016 4160 70 2100 000/00 RMK AO2 T11061150
94299KAAT AAT20160101154511101/01/16 15:45:31  5-MIN KAAT 012345Z AUTO 08003KT 10SM CLR M10/M15 A3016 4160 67 2100 060/03 RMK AO2 T11001150
94299KAAT AAT20160101155013601/01/16 15:50:31  5-MIN KAAT 012350Z AUTO 00000KT 10SM CLR M10/M15 A3016 4160 67 2100 000/00 RMK AO2 SLP288 T11001150 11089 21183 58016
94299KAAT AAT20160101155513601/01/16 15:55:31  5-MIN KAAT 012355Z AUTO 00000KT 10SM CLR M11/M15 A3015 4170 70 2100 000/00 RMK AO2 SLP290 T11061150 11089 21183 56008
94299KAAT AAT20160101160011101/01/16 16:00:31  5-MIN KAAT 020000Z AUTO 00000KT 10SM CLR M10/M15 A3015 4170 67 2100 000/00 RMK AO2 T11001150
94299KAAT AAT20160101160511101/01/16 16:05:31  5-MIN KAAT 020005Z AUTO 17003KT 10SM CLR M11/M16 A3015 4170 70 2000 150/03 RMK AO2 T11111156
94299KAAT AAT20160101161011101/01/16 16:10:31  5-MIN KAAT 020010Z AUTO 00000KT 10SM CLR M12/M16 A3015 4170 73 1900 000/00 RMK AO2 T11171156
94299KAAT AAT20160101161511101/01/16 16:15:31  5-MIN KAAT 020015Z AUTO 17004KT 10SM CLR M12/M16 A3015 4170 73 1900 160/04 RMK AO2 T11221161
94299KAAT AAT20160101162011101/01/16 16:20:31  5-MIN KAAT 020020Z AUTO 19005KT 10SM CLR M12/M16 A3015 4170 73 1900 170/05 RMK AO2 T11221161
94299KAAT AAT20160101162511101/01/16 16:25:31  5-MIN KAAT 020025Z AUTO 14003KT 10SM CLR M12/M16 A3015 4170 73 1900 130/03 RMK AO2 T11221161
94299KAAT AAT20160101163011101/01/16 16:30:31  5-MIN KAAT 020030Z AUTO 19004KT 10SM CLR M13/M17 A3015 4170 73 1800 170/04 RMK AO2 T11281167
94299KAAT AAT20160101163511101/01/16 16:35:31  5-MIN KAAT 020035Z AUTO 00000KT 10SM CLR M13/M17 A3015 4170 76 1700 000/00 RMK AO2 T11331167
94299KAAT AAT20160101164011101/01/16 16:40:31  5-MIN KAAT 020040Z AUTO 00000KT 10SM CLR M13/M17 A3014 4170 73 1800 000/00 RMK AO2 T11281167
94299KAAT AAT20160101164511001/01/16 16:45:31  5-MIN KAAT 020045Z AUTO 06005KT 9SM CLR M13/M17 A3014 4180 73 1700 050/05 RMK AO2 T11331172
94299KAAT AAT20160101165011701/01/16 16:50:31  5-MIN KAAT 020050Z AUTO 00000KT 7SM CLR M13/M17 A3015 4170 76 1700 000/00 RMK AO2 SLP294 T11331167
94299KAAT AAT20160101165512001/01/16 16:55:31  5-MIN KAAT 020055Z AUTO 03003KT 6SM BR CLR M15/M17 A3014 4180 83 1500 010/03 RMK AO2 SLP298 T11501172
94299KAAT AAT20160101170011301/01/16 17:00:31  5-MIN KAAT 020100Z AUTO 00000KT 6SM HZ CLR M14/M17 A3014 4180 80 1600 000/00 RMK AO2 T11441172
94299KAAT AAT20160101170511001/01/16 17:05:31  5-MIN KAAT 020105Z AUTO 00000KT 8SM CLR M16/M18 A3015 4170 87 1400 000/00 RMK AO2 T11611178
94299KAAT AAT20160101171011001/01/16 17:10:31  5-MIN KAAT 020110Z AUTO 00000KT 8SM CLR M17/M19 A3015 4170 83 1200 000/00 RMK AO2 T11721194
94299KAAT AAT20160101171511001/01/16 17:15:31  5-MIN KAAT 020115Z AUTO 00000KT 8SM CLR M17/M19 A3015 4170 83 1200 000/00 RMK AO2 T11721194
94299KAAT AAT20160101172011001/01/16 17:20:31  5-MIN KAAT 020120Z AUTO 00000KT 7SM CLR M17/M19 A3015 4170 83 1200 000/00 RMK AO2 T11721194
94299KAAT AAT20160101172511301/01/16 17:25:31  5-MIN KAAT 020125Z AUTO 00000KT 6SM HZ CLR M16/M18 A3015 4170 79 1400 000/00 RMK AO2 T11561183
94299KAAT AAT20160101173011301/01/16 17:30:31  5-MIN KAAT 020130Z AUTO 00000KT 5SM HZ CLR M14/M17 A3015 4170 80 1600 000/00 RMK AO2 T11441172
94299KAAT AAT20160101173511301/01/16 17:35:31  5-MIN KAAT 020135Z AUTO 00000KT 5SM BR CLR M15/M17 A3015 4170 87 1500 000/00 RMK AO2 T11501167
94299KAAT AAT20160101174011301/01/16 17:40:31  5-MIN KAAT 020140Z AUTO 02003KT 6SM BR CLR M18/M19 A3015 4170 87 1100 010/03 RMK AO2 T11781194
94299KAAT AAT20160101174511001/01/16 17:45:31  5-MIN KAAT 020145Z AUTO 03003KT 7SM CLR M17/M20 A3015 4170 79 1200 020/03 RMK AO2 T11721200
94299KAAT AAT20160101175012001/01/16 17:50:31  5-MIN KAAT 020150Z AUTO 04003KT 6SM BR CLR M16/M18 A3015 4170 83 1400 020/03 RMK AO2 SLP305 T11611183
94299KAAT AAT20160101175512001/01/16 17:55:31  5-MIN KAAT 020155Z AUTO 04003KT 6SM HZ CLR M14/M17 A3015 4170 80 1600 030/03 RMK AO2 SLP299 T11391167
94299KAAT AAT20160101180011001/01/16 18:00:31  5-MIN KAAT 020200Z AUTO 00000KT 7SM CLR M14/M16 A3015 4170 87 1600 000/00 RMK AO2 T11441161
94299KAAT AAT20160101180510901/01/16 18:05:31  5-MIN KAAT 020205Z AUTO 00000KT 8SM CLR M19/M21 A3015 4170 91 900 000/00 RMK AO2 T11941206
94299KAAT AAT20160101181011001/01/16 18:10:31  5-MIN KAAT 020210Z AUTO 00000KT 8SM CLR M19/M22 A3015 4170 79 1000 000/00 RMK AO2 T11891217
94299KAAT AAT20160101181511001/01/16 18:15:31  5-MIN KAAT 020215Z AUTO 00000KT 9SM CLR M18/M21 A3015 4170 79 1100 000/00 RMK AO2 T11781206
94299KAAT AAT20160101182011101/01/16 18:20:31  5-MIN KAAT 020220Z AUTO 00000KT 10SM CLR M18/M20 A3015 4170 83 1100 000/00 RMK AO2 T11781200
94299KAAT AAT20160101182511101/01/16 18:25:31  5-MIN KAAT 020225Z AUTO 00000KT 10SM CLR M18/M19 A3015 4170 91 1100 000/00 RMK AO2 T11831194
94299KAAT AAT20160101183011101/01/16 18:30:31  5-MIN KAAT 020230Z AUTO 00000KT 10SM CLR M18/M19 A3015 4170 87 1100 000/00 RMK AO2 T11781194
94299KAAT AAT20160101183511001/01/16 18:35:31  5-MIN KAAT 020235Z AUTO 00000KT 9SM CLR M18/M19 A3015 4170 87 1100 000/00 RMK AO2 T11781194
94299KAAT AAT20160101184011001/01/16 18:40:31  5-MIN KAAT 020240Z AUTO 00000KT 7SM CLR M17/M19 A3015 4170 83 1200 000/00 RMK AO2 T11721194
94299KAAT AAT20160101184511301/01/16 18:45:31  5-MIN KAAT 020245Z AUTO 00000KT 6SM BR CLR M18/M20 A3015 4170 83 1100 000/00 RMK AO2 T11781200
94299KAAT AAT20160101185012601/01/16 18:50:31  5-MIN KAAT 020250Z AUTO 00000KT 6SM BR CLR M18/M20 A3015 4170 87 1100 000/00 RMK AO2 SLP310 T11831200 56008
94299KAAT AAT20160101185512601/01/16 18:55:31  5-MIN KAAT 020255Z AUTO 00000KT 4SM BR CLR M19/M20 A3015 4170 91 1000 000/00 RMK AO2 SLP314 T11891200 55002
94299KAAT AAT20160101190011201/01/16 19:00:31  5-MIN KAAT 020300Z AUTO 01003KT 5SM BR CLR M21/M22 A3015 4170 91 800 360/03 RMK AO2 T12061217
94299KAAT AAT20160101190510901/01/16 19:05:31  5-MIN KAAT 020305Z AUTO 04003KT 8SM CLR M21/M23 A3015 4170 83 800 020/03 RMK AO2 T12061228
94299KAAT AAT20160101191010901/01/16 19:10:31  5-MIN KAAT 020310Z AUTO 03004KT 8SM CLR M20/M23 A3015 4170 79 800 010/04 RMK AO2 T12001228
94299KAAT AAT20160101191511201/01/16 19:15:31  5-MIN KAAT 020315Z AUTO 01003KT 5SM BR CLR M20/M22 A3015 4170 87 800 360/03 RMK AO2 T12001217
94299KAAT AAT20160101192011201/01/16 19:20:31  5-MIN KAAT 020320Z AUTO 03004KT 4SM BR CLR M20/M21 A3015 4170 91 800 010/04 RMK AO2 T12001211
94299KAAT AAT20160101192511201/01/16 19:25:31  5-MIN KAAT 020325Z AUTO 00000KT 4SM BR CLR M20/M22 A3015 4170 87 800 000/00 RMK AO2 T12001217
94299KAAT AAT20160101193011201/01/16 19:30:31  5-MIN KAAT 020330Z AUTO VRB03KT 4SM BR CLR M21/M22 A3015 4170 91 800 VRB/03 RMK AO2 T12061217
94299KAAT AAT20160101193511201/01/16 19:35:31  5-MIN KAAT 020335Z AUTO 00000KT 5SM BR CLR M21/M23 A3015 4170 83 700 000/00 RMK AO2 T12111233
94299KAAT AAT20160101194011201/01/16 19:40:31  5-MIN KAAT 020340Z AUTO 00000KT 5SM HZ CLR M21/M24 A3015 4170 79 700 000/00 RMK AO2 T12111239
94299KAAT AAT20160101194511201/01/16 19:45:31  5-MIN KAAT 020345Z AUTO 24004KT 5SM BR CLR M21/M23 A3015 4170 87 700 230/04 RMK AO2 T12111228
94299KAAT AAT20160101195011601/01/16 19:50:31  5-MIN KAAT 020350Z AUTO 00000KT 7SM CLR M22/M23 A3015 4170 91 500 000/00 RMK AO2 SLP322 T12221233
94299KAAT AAT20160101195511701/01/16 19:55:31  5-MIN KAAT 020355Z AUTO 00000KT 10SM CLR M21/M23 A3015 4170 87 700 000/00 RMK AO2 SLP319 T12111228
94299KAAT AAT20160101200011001/01/16 20:00:31  5-MIN KAAT 020400Z AUTO 00000KT 10SM CLR M21/M23 A3015 4170 83 700 000/00 RMK AO2 T12111233
94299KAAT AAT20160101200511001/01/16 20:05:31  5-MIN KAAT 020405Z AUTO 00000KT 10SM CLR M21/M23 A3015 4170 83 700 000/00 RMK AO2 T12111233
94299KAAT AAT20160101201011001/01/16 20:10:31  5-MIN KAAT 020410Z AUTO 00000KT 10SM CLR M21/M23 A3015 4170 79 800 000/00 RMK AO2 T12061233
94299KAAT AAT20160101201511001/01/16 20:15:31  5-MIN KAAT 020415Z AUTO 00000KT 10SM CLR M21/M22 A3015 4170 87 800 000/00 RMK AO2 T12061222
94299KAAT AAT20160101202010901/01/16 20:20:31  5-MIN KAAT 020420Z AUTO 00000KT 7SM CLR M19/M21 A3015 4170 87 900 000/00 RMK AO2 T11941211
94299KAAT AAT20160101202511201/01/16 20:25:31  5-MIN KAAT 020425Z AUTO 00000KT 6SM BR CLR M21/M22 A3015 4170 95 700 000/00 RMK AO2 T12111217
94299KAAT AAT20160101203010901/01/16 20:30:31  5-MIN KAAT 020430Z AUTO 00000KT 8SM CLR M22/M23 A3015 4170 87 600 000/00 RMK AO2 T12171233
94299KAAT AAT20160101203510901/01/16 20:35:31  5-MIN KAAT 020435Z AUTO 12003KT 8SM CLR M20/M23 A3015 4170 79 800 110/03 RMK AO2 T12001228
94299KAAT AAT20160101204011201/01/16 20:40:31  5-MIN KAAT 020440Z AUTO 12003KT 6SM HZ CLR M19/M22 A3015 4170 79 900 100/03 RMK AO2 T11941222
94299KAAT AAT20160101204511201/01/16 20:45:31  5-MIN KAAT 020445Z AUTO 00000KT 4SM BR CLR M19/M21 A3015 4170 91 900 000/00 RMK AO2 T11941206
94299KAAT AAT20160101205011901/01/16 20:50:31  5-MIN KAAT 020450Z AUTO 00000KT 3SM BR CLR M20/M21 A3015 4170 91 800 000/00 RMK AO2 SLP311 T12001211
94299KAAT AAT20160101205511901/01/16 20:55:31  5-MIN KAAT 020455Z AUTO 02003KT 5SM BR CLR M22/M23 A3015 4170 91 600 360/03 RMK AO2 SLP312 T12171228
94299KAAT AAT20160101210011201/01/16 21:00:31  5-MIN KAAT 020500Z AUTO 04004KT 5SM HZ CLR M22/M25 A3015 4170 78 500 030/04 RMK AO2 T12221250
94299KAAT AAT20160101210511201/01/16 21:05:31  5-MIN KAAT 020505Z AUTO 03004KT 3SM HZ CLR M22/M24 A3015 4170 79 600 020/04 RMK AO2 T12171244
94299KAAT AAT20160101211011601/01/16 21:10:31  5-MIN KAAT 020510Z AUTO 03005KT 2 1/2SM BR CLR M21/M23 A3015 4170 83 700 020/05 RMK AO2 T12111233
94299KAAT AAT20160101211511201/01/16 21:15:31  5-MIN KAAT 020515Z AUTO 02004KT 3SM BR CLR M21/M23 A3015 4170 83 800 360/04 RMK AO2 T12061228
94299KAAT AAT20160101212011201/01/16 21:20:31  5-MIN KAAT 020520Z AUTO 01004KT 3SM BR CLR M21/M22 A3015 4170 91 800 360/04 RMK AO2 T12061217
94299KAAT AAT20160101212511201/01/16 21:25:31  5-MIN KAAT 020525Z AUTO 00000KT 3SM BR CLR M21/M23 A3015 4170 87 700 000/00 RMK AO2 T12111228
94299KAAT AAT20160101213011201/01/16 21:30:31  5-MIN KAAT 020530Z AUTO 00000KT 3SM BR CLR M22/M24 A3015 4170 86 500 000/00 RMK AO2 T12221239
94299KAAT AAT20160101213511201/01/16 21:35:31  5-MIN KAAT 020535Z AUTO 00000KT 3SM BR CLR M23/M25 A3015 4170 82 500 000/00 RMK AO2 T12281250
94299KAAT AAT20160101214011201/01/16 21:40:31  5-MIN KAAT 020540Z AUTO 00000KT 4SM HZ CLR M23/M26 A3014 4180 78 500 000/00 RMK AO2 T12281256
94299KAAT AAT20160101214511201/01/16 21:45:31  5-MIN KAAT 020545Z AUTO 00000KT 5SM HZ CLR M22/M24 A3014 4170 79 600 000/00 RMK AO2 T12171244
94299KAAT AAT20160101215013701/01/16 21:50:31  5-MIN KAAT 020550Z AUTO 00000KT 4SM BR CLR M22/M23 A3014 4170 91 600 000/00 RMK AO2 SLP304 T12171228 11100 21228 55002
94299KAAT AAT20160101215513701/01/16 21:55:31  5-MIN KAAT 020555Z AUTO 00000KT 4SM BR CLR M21/M23 A3014 4180 87 700 000/00 RMK AO2 SLP301 T12111228 11100 21228 58001
94299KAAT AAT20160101220011201/01/16 22:00:31  5-MIN KAAT 020600Z AUTO 00000KT 3SM BR CLR M21/M23 A3014 4180 83 800 000/00 RMK AO2 T12061228
94299KAAT AAT20160101220511601/01/16 22:05:31  5-MIN KAAT 020605Z AUTO VRB03KT 2 1/2SM HZ CLR M21/M23 A3014 4180 79 800 VRB/03 RMK AO2 T12061233
94299KAAT AAT20160101221011601/01/16 22:10:31  5-MIN KAAT 020610Z AUTO 00000KT 2 1/2SM BR CLR M21/M23 A3014 4180 83 800 000/00 RMK AO2 T12061228
94299KAAT AAT20160101221511601/01/16 22:15:31  5-MIN KAAT 020615Z AUTO 00000KT 2 1/2SM BR CLR M21/M22 A3014 4180 91 700 000/00 RMK AO2 T12111222
94299KAAT AAT20160101222011201/01/16 22:20:31  5-MIN KAAT 020620Z AUTO 00000KT 2SM BR CLR M21/M23 A3014 4180 87 700 000/00 RMK AO2 T12111228
94299KAAT AAT20160101222511601/01/16 22:25:31  5-MIN KAAT 020625Z AUTO 00000KT 1 3/4SM BR CLR M21/M23 A3014 4180 83 700 000/00 RMK AO2 T12111233
94299KAAT AAT20160101223011601/01/16 22:30:31  5-MIN KAAT 020630Z AUTO 00000KT 2 1/2SM BR CLR M23/M25 A3014 4180 86 400 000/00 RMK AO2 T12331250
94299KAAT AAT20160101223511201/01/16 22:35:31  5-MIN KAAT 020635Z AUTO 00000KT 3SM HZ CLR M24/M27 A3014 4180 78 300 000/00 RMK AO2 T12391267
94299KAAT AAT20160101224011201/01/16 22:40:31  5-MIN KAAT 020640Z AUTO 02004KT 3SM HZ CLR M23/M26 A3014 4180 78 400 010/04 RMK AO2 T12331261
94299KAAT AAT20160101224511201/01/16 22:45:31  5-MIN KAAT 020645Z AUTO 03003KT 2SM BR CLR M22/M24 A3014 4180 82 500 010/03 RMK AO2 T12221244
94299KAAT AAT20160101225012301/01/16 22:50:31  5-MIN KAAT 020650Z AUTO 04005KT 1 3/4SM BR CLR M21/M22 A3014 4180 87 800 030/05 RMK AO2 SLP292 T12061222
94299KAAT AAT20160101225512301/01/16 22:55:31  5-MIN KAAT 020655Z AUTO 05005KT 1 3/4SM BR CLR M21/M22 A3014 4180 87 800 030/05 RMK AO2 SLP292 T12061222
94299KAAT AAT20160101230011601/01/16 23:00:31  5-MIN KAAT 020700Z AUTO 08003KT 2 1/2SM BR CLR M21/M23 A3014 4180 83 800 060/03 RMK AO2 T12061228
94299KAAT AAT20160101230511201/01/16 23:05:31  5-MIN KAAT 020705Z AUTO VRB03KT 3SM BR CLR M21/M23 A3014 4180 83 800 VRB/03 RMK AO2 T12061228
94299KAAT AAT20160101231011201/01/16 23:10:31  5-MIN KAAT 020710Z AUTO 00000KT 3SM BR CLR M23/M25 A3014 4180 82 500 000/00 RMK AO2 T12281250
94299KAAT AAT20160101231511201/01/16 23:15:31  5-MIN KAAT 020715Z AUTO 00000KT 3SM BR CLR M23/M25 A3014 4180 82 500 000/00 RMK AO2 T12281250
94299KAAT AAT20160101232011201/01/16 23:20:31  5-MIN KAAT 020720Z AUTO 00000KT 3SM BR CLR M23/M25 A3014 4180 86 400 000/00 RMK AO2 T12331250
94299KAAT AAT20160101232511201/01/16 23:25:31  5-MIN KAAT 020725Z AUTO 25003KT 3SM BR CLR M23/M26 A3014 4180 82 400 240/03 RMK AO2 T12331256
94299KAAT AAT20160101233011201/01/16 23:30:31  5-MIN KAAT 020730Z AUTO 00000KT 4SM BR CLR M23/M26 A3013 4180 82 400 000/00 RMK AO2 T12331256
94299KAAT AAT20160101233511201/01/16 23:35:31  5-MIN KAAT 020735Z AUTO 00000KT 5SM HZ CLR M23/M26 A3013 4190 78 400 000/00 RMK AO2 T12331261
94299KAAT AAT20160101234011201/01/16 23:40:31  5-MIN KAAT 020740Z AUTO 00000KT 6SM HZ CLR M23/M26 A3013 4190 78 500 000/00 RMK AO2 T12281256
94299KAAT AAT20160101234511201/01/16 23:45:31  5-MIN KAAT 020745Z AUTO 00000KT 6SM BR CLR M23/M24 A3013 4190 86 500 000/00 RMK AO2 T12281244
94299KAAT AAT20160101235012901/01/16 23:50:31  5-MIN KAAT 020750Z AUTO 16003KT 5SM BR CLR M22/M24 A3013 4190 86 600 150/03 RMK AO2 SLP286 T12221239 410891261
94299KAAT AAT20160101235512901/01/16 23:55:31  5-MIN KAAT 020755Z AUTO 17004KT 5SM BR CLR M22/M23 A3013 4190 87 600 150/04 RMK AO2 SLP286 T12171233 410891261
94299KAAT AAT20160102000011201/02/16 00:00:31  5-MIN KAAT 020800Z AUTO 17003KT 5SM BR CLR M22/M24 A3013 4190 86 600 160/03 RMK AO2 T12221239
94299KAAT AAT20160102000511201/02/16 00:05:31  5-MIN KAAT 020805Z AUTO 00000KT 5SM BR CLR M22/M24 A3013 4190 82 600 000/00 RMK AO2 T12221244
94299KAAT AAT20160102001011201/02/16 00:10:31  5-MIN KAAT 020810Z AUTO 00000KT 6SM HZ CLR M22/M25 A3012 4190 78 600 000/00 RMK AO2 T12221250
94299KAAT AAT20160102001511201/02/16 00:15:31  5-MIN KAAT 020815Z AUTO 00000KT 6SM BR CLR M23/M25 A3012 4190 82 500 000/00 RMK AO2 T12281250
94299KAAT AAT20160102002011201/02/16 00:20:31  5-MIN KAAT 020820Z AUTO 00000KT 6SM HZ CLR M22/M24 A3012 4200 79 600 000/00 RMK AO2 T12171244
94299KAAT AAT20160102002511201/02/16 00:25:31  5-MIN KAAT 020825Z AUTO VRB03KT 5SM BR CLR M22/M23 A3012 4200 87 700 VRB/03 RMK AO2 T12171233
94299KAAT AAT20160102003011201/02/16 00:30:31  5-MIN KAAT 020830Z AUTO 05004KT 5SM BR CLR M22/M24 A3012 4200 82 700 030/04 RMK AO2 T12171239
94299KAAT AAT20160102003511201/02/16 00:35:31  5-MIN KAAT 020835Z AUTO 33003KT 5SM BR CLR M22/M24 A3012 4200 82 600 320/03 RMK AO2 T12221244
94299KAAT AAT20160102004011201/02/16 00:40:31  5-MIN KAAT 020840Z AUTO 36003KT 5SM BR CLR M24/M26 A3012 4200 86 400 350/03 RMK AO2 T12391256
94299KAAT AAT20160102004511201/02/16 00:45:31  5-MIN KAAT 020845Z AUTO 35003KT 4SM HZ CLR M22/M25 A3012 4200 78 600 330/03 RMK AO2 T12221250
94299KAAT AAT20160102005012501/02/16 00:50:31  5-MIN KAAT 020850Z AUTO 00000KT 3SM BR CLR M22/M24 A3011 4200 82 700 000/00 RMK AO2 SLP275 T12171239 58001
94299KAAT AAT20160102005512501/02/16 00:55:31  5-MIN KAAT 020855Z AUTO 00000KT 4SM BR CLR M22/M23 A3011 4210 87 700 000/00 RMK AO2 SLP274 T12171233 58010
94299KAAT AAT20160102010011201/02/16 01:00:31  5-MIN KAAT 020900Z AUTO 00000KT 4SM BR CLR M23/M24 A3011 4210 86 500 000/00 RMK AO2 T12281244
94299KAAT AAT20160102010511201/02/16 01:05:31  5-MIN KAAT 020905Z AUTO 00000KT 5SM BR CLR M23/M25 A3011 4210 82 500 000/00 RMK AO2 T12281250
94299KAAT AAT20160102011011201/02/16 01:10:31  5-MIN KAAT 020910Z AUTO 00000KT 6SM BR CLR M22/M24 A3011 4210 82 600 000/00 RMK AO2 T12221244
94299KAAT AAT20160102011510901/02/16 01:15:31  5-MIN KAAT 020915Z AUTO 00000KT 7SM CLR M22/M24 A3011 4210 79 700 000/00 RMK AO2 T12171244
94299KAAT AAT20160102012010901/02/16 01:20:31  5-MIN KAAT 020920Z AUTO 00000KT 8SM CLR M22/M24 A3011 4210 86 600 000/00 RMK AO2 T12221239
94299KAAT AAT20160102012510901/02/16 01:25:31  5-MIN KAAT 020925Z AUTO VRB03KT 9SM CLR M23/M24 A3011 4210 86 500 VRB/03 RMK AO2 T12281244
94299KAAT AAT20160102013010901/02/16 01:30:31  5-MIN KAAT 020930Z AUTO VRB04KT 9SM CLR M23/M25 A3010 4210 82 500 VRB/04 RMK AO2 T12281250
94299KAAT AAT20160102013510901/02/16 01:35:31  5-MIN KAAT 020935Z AUTO 00000KT 9SM CLR M23/M25 A3010 4210 82 500 000/00 RMK AO2 T12281250
94299KAAT AAT20160102014011001/02/16 01:40:31  5-MIN KAAT 020940Z AUTO VRB03KT 10SM CLR M22/M24 A3011 4210 82 600 VRB/03 RMK AO2 T12221244
94299KAAT AAT20160102014511001/02/16 01:45:31  5-MIN KAAT 020945Z AUTO 00000KT 10SM CLR M22/M24 A3011 4210 82 700 000/00 RMK AO2 T12171239
94299KAAT AAT20160102015011701/02/16 01:50:31  5-MIN KAAT 020950Z AUTO 00000KT 10SM CLR M23/M24 A3010 4210 86 500 000/00 RMK AO2 SLP272 T12281244
94299KAAT AAT20160102015511701/02/16 01:55:31  5-MIN KAAT 020955Z AUTO 34004KT 10SM CLR M23/M24 A3010 4210 86 500 330/04 RMK AO2 SLP272 T12281244
94299KAAT AAT20160102020011001/02/16 02:00:31  5-MIN KAAT 021000Z AUTO VRB03KT 10SM CLR M22/M25 A3011 4210 78 600 VRB/03 RMK AO2 T12221250
94299KAAT AAT20160102020511001/02/16 02:05:31  5-MIN KAAT 021005Z AUTO VRB04KT 10SM CLR M23/M25 A3011 4210 82 500 VRB/04 RMK AO2 T12281250
94299KAAT AAT20160102021011001/02/16 02:10:31  5-MIN KAAT 021010Z AUTO 00000KT 10SM CLR M22/M25 A3011 4210 78 600 000/00 RMK AO2 T12221250
94299KAAT AAT20160102021511001/02/16 02:15:31  5-MIN KAAT 021015Z AUTO 00000KT 10SM CLR M23/M24 A3011 4210 86 500 000/00 RMK AO2 T12281244
94299KAAT AAT20160102022011001/02/16 02:20:31  5-MIN KAAT 021020Z AUTO 00000KT 10SM CLR M22/M24 A3011 4210 86 600 000/00 RMK AO2 T12221239
94299KAAT AAT20160102022511001/02/16 02:25:31  5-MIN KAAT 021025Z AUTO 00000KT 10SM CLR M22/M24 A3011 4210 86 600 000/00 RMK AO2 T12221239
94299KAAT AAT20160102023011001/02/16 02:30:31  5-MIN KAAT 021030Z AUTO 00000KT 10SM CLR M22/M24 A3011 4210 82 600 000/00 RMK AO2 T12221244
94299KAAT AAT20160102023511001/02/16 02:35:31  5-MIN KAAT 021035Z AUTO 00000KT 10SM CLR M23/M25 A3011 4210 82 500 000/00 RMK AO2 T12281250
94299KAAT AAT20160102024011001/02/16 02:40:31  5-MIN KAAT 021040Z AUTO 00000KT 10SM CLR M23/M26 A3011 4210 78 500 000/00 RMK AO2 T12281256
94299KAAT AAT20160102024511001/02/16 02:45:31  5-MIN KAAT 021045Z AUTO 18003KT 10SM CLR M22/M24 A3011 4200 79 700 170/03 RMK AO2 T12171244
94299KAAT AAT20160102025011701/02/16 02:50:31  5-MIN KAAT 021050Z AUTO 20004KT 10SM CLR M22/M24 A3011 4200 82 700 180/04 RMK AO2 SLP275 T12171239
94299KAAT AAT20160102025511701/02/16 02:55:31  5-MIN KAAT 021055Z AUTO 18003KT 10SM CLR M21/M23 A3011 4200 83 700 170/03 RMK AO2 SLP275 T12111233
94299KAAT AAT20160102030011001/02/16 03:00:31  5-MIN KAAT 021100Z AUTO 00000KT 10SM CLR M21/M23 A3011 4200 79 800 000/00 RMK AO2 T12061233
94299KAAT AAT20160102030511001/02/16 03:05:31  5-MIN KAAT 021105Z AUTO VRB04KT 10SM CLR M22/M24 A3011 4200 82 700 VRB/04 RMK AO2 T12171239
94299KAAT AAT20160102031011001/02/16 03:10:31  5-MIN KAAT 021110Z AUTO 07003KT 10SM CLR M20/M23 A3011 4200 79 900 050/03 RMK AO2 T12001228
94299KAAT AAT20160102031511001/02/16 03:15:31  5-MIN KAAT 021115Z AUTO 05006KT 10SM CLR M21/M22 A3011 4210 87 800 030/06 RMK AO2 T12061222
94299KAAT AAT20160102032011001/02/16 03:20:31  5-MIN KAAT 021120Z AUTO 00000KT 10SM CLR M23/M24 A3011 4200 91 400 000/00 RMK AO2 T12331244
94299KAAT AAT20160102032511001/02/16 03:25:31  5-MIN KAAT 021125Z AUTO 00000KT 10SM CLR M23/M26 A3011 4200 82 400 000/00 RMK AO2 T12331256
94299KAAT AAT20160102033011001/02/16 03:30:31  5-MIN KAAT 021130Z AUTO 00000KT 10SM CLR M23/M26 A3011 4210 78 500 000/00 RMK AO2 T12281256
94299KAAT AAT20160102033510901/02/16 03:35:31  5-MIN KAAT 021135Z AUTO 00000KT 9SM CLR M22/M25 A3011 4210 75 700 000/00 RMK AO2 T12171250
94299KAAT AAT20160102034010901/02/16 03:40:31  5-MIN KAAT 021140Z AUTO 00000KT 8SM CLR M22/M23 A3011 4210 87 700 000/00 RMK AO2 T12171233
94299KAAT AAT20160102034510901/02/16 03:45:31  5-MIN KAAT 021145Z AUTO 00000KT 9SM CLR M22/M23 A3011 4210 87 700 000/00 RMK AO2 T12171233
94299KAAT AAT20160102035013501/02/16 03:50:31  5-MIN KAAT 021150Z AUTO 00000KT 10SM CLR M22/M24 A3011 4210 82 600 000/00 RMK AO2 SLP273 T12221244 11200 21239 58010
94299KAAT AAT20160102035513501/02/16 03:55:31  5-MIN KAAT 021155Z AUTO 00000KT 10SM CLR M23/M25 A3011 4210 82 500 000/00 RMK AO2 SLP276 T12281250 11200 21239 56001
94299KAAT AAT20160102040011001/02/16 04:00:31  5-MIN KAAT 021200Z AUTO 00000KT 10SM CLR M22/M25 A3010 4210 78 600 000/00 RMK AO2 T12221250
94299KAAT AAT20160102040511001/02/16 04:05:31  5-MIN KAAT 021205Z AUTO 00000KT 10SM CLR M22/M24 A3010 4210 79 700 000/00 RMK AO2 T12171244
94299KAAT AAT20160102041011001/02/16 04:10:31  5-MIN KAAT 021210Z AUTO 00000KT 10SM CLR M21/M23 A3010 4210 87 700 000/00 RMK AO2 T12111228
94299KAAT AAT20160102041511001/02/16 04:15:31  5-MIN KAAT 021215Z AUTO 02003KT 10SM CLR M23/M25 A3010 4220 86 400 360/03 RMK AO2 T12331250
94299KAAT AAT20160102042011001/02/16 04:20:31  5-MIN KAAT 021220Z AUTO 36003KT 10SM CLR M24/M27 A3010 4220 78 400 350/03 RMK AO2 T12391267
94299KAAT AAT20160102042511001/02/16 04:25:31  5-MIN KAAT 021225Z AUTO 00000KT 10SM CLR M24/M27 A3010 4220 78 400 000/00 RMK AO2 T12391267
94299KAAT AAT20160102043010901/02/16 04:30:31  5-MIN KAAT 021230Z AUTO 00000KT 8SM CLR M21/M24 A3009 4220 75 800 000/00 RMK AO2 T12111244
94299KAAT AAT20160102043511201/02/16 04:35:31  5-MIN KAAT 021235Z AUTO 00000KT 6SM BR CLR M22/M23 A3010 4220 91 700 000/00 RMK AO2 T12171228
94299KAAT AAT20160102044010901/02/16 04:40:31  5-MIN KAAT 021240Z AUTO 00000KT 7SM CLR M24/M24 A3009 4220 95 400 000/00 RMK AO2 T12391244
94299KAAT AAT20160102044510901/02/16 04:45:31  5-MIN KAAT 021245Z AUTO 19003KT 9SM CLR M24/M27 A3009 4220 78 400 170/03 RMK AO2 T12391267
94299KAAT AAT20160102045011701/02/16 04:50:31  5-MIN KAAT 021250Z AUTO 00000KT 10SM CLR M23/M27 A3009 4220 74 500 000/00 RMK AO2 SLP277 T12331267
94299KAAT AAT20160102045511701/02/16 04:55:31  5-MIN KAAT 021255Z AUTO 00000KT 10SM CLR M23/M26 A3009 4220 78 500 000/00 RMK AO2 SLP280 T12281256
94299KAAT AAT20160102050011001/02/16 05:00:31  5-MIN KAAT 021300Z AUTO 00000KT 10SM CLR M22/M24 A3009 4220 82 600 000/00 RMK AO2 T12221244
94299KAAT AAT20160102050511001/02/16 05:05:31  5-MIN KAAT 021305Z AUTO 00000KT 10SM CLR M22/M23 A3009 4220 87 700 000/00 RMK AO2 T12171233
94299KAAT AAT20160102051011001/02/16 05:10:31  5-MIN KAAT 021310Z AUTO 00000KT 10SM CLR M23/M24 A3009 4220 86 500 000/00 RMK AO2 T12281244
94299KAAT AAT20160102051510901/02/16 05:15:31  5-MIN KAAT 021315Z AUTO 05004KT 8SM CLR M23/M26 A3009 4230 78 500 030/04 RMK AO2 T12281256
94299KAAT AAT20160102052011201/02/16 05:20:31  5-MIN KAAT 021320Z AUTO 03003KT 6SM BR CLR M23/M25 A3009 4230 82 500 010/03 RMK AO2 T12281250
94299KAAT AAT20160102052511201/02/16 05:25:31  5-MIN KAAT 021325Z AUTO 03004KT 6SM HZ CLR M23/M26 A3008 4230 78 500 010/04 RMK AO2 T12281256
94299KAAT AAT20160102053010901/02/16 05:30:31  5-MIN KAAT 021330Z AUTO 31003KT 8SM CLR M24/M26 A3009 4230 86 400 290/03 RMK AO2 T12391256
94299KAAT AAT20160102053510901/02/16 05:35:31  5-MIN KAAT 021335Z AUTO 00000KT 8SM CLR M23/M25 A3009 4230 82 500 000/00 RMK AO2 T12281250
94299KAAT AAT20160102054010901/02/16 05:40:31  5-MIN KAAT 021340Z AUTO 36003KT 8SM CLR M24/M26 A3008 4230 86 400 350/03 RMK AO2 T12391256
94299KAAT AAT20160102054510901/02/16 05:45:31  5-MIN KAAT 021345Z AUTO 00000KT 9SM CLR M24/M26 A3009 4230 86 400 000/00 RMK AO2 T12391256
94299KAAT AAT20160102055011601/02/16 05:50:31  5-MIN KAAT 021350Z AUTO 00000KT 9SM CLR M23/M26 A3009 4230 78 500 000/00 RMK AO2 SLP281 T12281256
94299KAAT AAT20160102055511601/02/16 05:55:31  5-MIN KAAT 021355Z AUTO 00000KT 9SM CLR M23/M26 A3009 4230 78 500 000/00 RMK AO2 SLP276 T12281256
94299KAAT AAT20160102060010901/02/16 06:00:31  5-MIN KAAT 021400Z AUTO 00000KT 9SM CLR M23/M26 A3009 4220 82 500 000/00 RMK AO2 T12331256
94299KAAT AAT20160102060510901/02/16 06:05:31  5-MIN KAAT 021405Z AUTO 00000KT 9SM CLR M24/M25 A3009 4220 91 400 000/00 RMK AO2 T12391250
94299KAAT AAT20160102061011001/02/16 06:10:31  5-MIN KAAT 021410Z AUTO 00000KT 10SM CLR M23/M26 A3009 4220 82 500 000/00 RMK AO2 T12331256
94299KAAT AAT20160102061511001/02/16 06:15:31  5-MIN KAAT 021415Z AUTO 00000KT 10SM CLR M23/M26 A3009 4230 75 500 000/00 RMK AO2 T12281261
94299KAAT AAT20160102062011001/02/16 06:20:31  5-MIN KAAT 021420Z AUTO 00000KT 10SM CLR M23/M26 A3009 4230 78 500 000/00 RMK AO2 T12281256
94299KAAT AAT20160102062511001/02/16 06:25:31  5-MIN KAAT 021425Z AUTO 00000KT 10SM CLR M23/M24 A3009 4230 86 500 000/00 RMK AO2 T12281244
94299KAAT AAT20160102063011001/02/16 06:30:31  5-MIN KAAT 021430Z AUTO VRB03KT 10SM CLR M23/M24 A3009 4230 86 500 VRB/03 RMK AO2 T12281244
94299KAAT AAT20160102063511001/02/16 06:35:31  5-MIN KAAT 021435Z AUTO 16003KT 10SM CLR M23/M25 A3009 4220 82 500 150/03 RMK AO2 T12281250
94299KAAT AAT20160102064011301/02/16 06:40:31  5-MIN KAAT 021440Z AUTO 00000KT 10SM FEW050 M23/M26 A3009 4220 78 500 000/00 RMK AO2 T12281256
94299KAAT AAT20160102064511301/02/16 06:45:31  5-MIN KAAT 021445Z AUTO 00000KT 10SM FEW050 M22/M25 A3009 4220 78 600 000/00 RMK AO2 T12221250
94299KAAT AAT20160102065012601/02/16 06:50:31  5-MIN KAAT 021450Z AUTO VRB04KT 10SM SCT050 M22/M24 A3009 4220 82 600 VRB/04 RMK AO2 SLP285 T12221244 56001
94299KAAT AAT20160102065512601/02/16 06:55:31  5-MIN KAAT 021455Z AUTO VRB03KT 10SM BKN050 M21/M23 A3009 4220 83 800 VRB/03 RMK AO2 SLP282 T12061228 55005
94299KAAT AAT20160102070011301/02/16 07:00:31  5-MIN KAAT 021500Z AUTO VRB04KT 10SM BKN050 M22/M23 A3009 4220 91 700 VRB/04 RMK AO2 T12171228
94299KAAT AAT20160102070511301/02/16 07:05:31  5-MIN KAAT 021505Z AUTO 00000KT 10SM BKN048 M21/M23 A3009 4220 83 800 000/00 RMK AO2 T12111233
94299KAAT AAT20160102071011301/02/16 07:10:31  5-MIN KAAT 021510Z AUTO 00000KT 10SM OVC048 M21/M23 A3009 4230 83 800 000/00 RMK AO2 T12111233
94299KAAT AAT20160102071511301/02/16 07:15:31  5-MIN KAAT 021515Z AUTO 21003KT 10SM OVC048 M21/M23 A3009 4230 83 800 200/03 RMK AO2 T12111233
94299KAAT AAT20160102072011301/02/16 07:20:31  5-MIN KAAT 021520Z AUTO 21003KT 10SM OVC048 M21/M23 A3009 4220 87 800 190/03 RMK AO2 T12111228
94299KAAT AAT20160102072511301/02/16 07:25:31  5-MIN KAAT 021525Z AUTO 19003KT 10SM OVC048 M21/M22 A3009 4220 87 800 170/03 RMK AO2 T12061222
94299KAAT AAT20160102073011301/02/16 07:30:31  5-MIN KAAT 021530Z AUTO 00000KT 10SM OVC046 M21/M22 A3009 4230 87 800 000/00 RMK AO2 T12061222
94299KAAT AAT20160102073511301/02/16 07:35:31  5-MIN KAAT 021535Z AUTO 00000KT 10SM OVC046 M20/M22 A3009 4230 83 900 000/00 RMK AO2 T12001222
94299KAAT AAT20160102074011301/02/16 07:40:31  5-MIN KAAT 021540Z AUTO 00000KT 10SM OVC046 M20/M22 A3009 4230 83 900 000/00 RMK AO2 T12001222
94299KAAT AAT20160102074511301/02/16 07:45:31  5-MIN KAAT 021545Z AUTO 00000KT 10SM OVC046 M20/M22 A3009 4230 83 900 000/00 RMK AO2 T12001222
94299KAAT AAT20160102075012101/02/16 07:50:31  5-MIN KAAT 021550Z AUTO 00000KT 10SM OVC046 M19/M22 A3009 4230 83 1000 000/00 RMK AO2 SLP286 T11941217
94299KAAT AAT20160102075512101/02/16 07:55:31  5-MIN KAAT 021555Z AUTO 00000KT 10SM OVC046 M19/M21 A3009 4220 87 1100 000/00 RMK AO2 SLP284 T11891206
94299KAAT AAT20160102080011401/02/16 08:00:31  5-MIN KAAT 021600Z AUTO 00000KT 10SM OVC046 M19/M21 A3009 4220 87 1100 000/00 RMK AO2 T11891206
94299KAAT AAT20160102080511401/02/16 08:05:31  5-MIN KAAT 021605Z AUTO 00000KT 10SM OVC046 M18/M21 A3009 4220 83 1100 000/00 RMK AO2 T11831206
94299KAAT AAT20160102081011401/02/16 08:10:31  5-MIN KAAT 021610Z AUTO 00000KT 10SM OVC046 M18/M20 A3009 4220 83 1200 000/00 RMK AO2 T11781200
94299KAAT AAT20160102081511301/02/16 08:15:31  5-MIN KAAT 021615Z AUTO 00000KT 8SM OVC046 M17/M19 A3009 4220 83 1300 000/00 RMK AO2 T11721194
94299KAAT AAT20160102082011601/02/16 08:20:31  5-MIN KAAT 021620Z AUTO 00000KT 6SM BR OVC044 M17/M18 A3009 4230 87 1400 000/00 RMK AO2 T11671183
94299KAAT AAT20160102082511601/02/16 08:25:31  5-MIN KAAT 021625Z AUTO 00000KT 5SM BR OVC042 M16/M18 A3009 4230 83 1400 000/00 RMK AO2 T11611183
94299KAAT AAT20160102083011601/02/16 08:30:31  5-MIN KAAT 021630Z AUTO 00000KT 6SM BR OVC042 M16/M18 A3009 4230 87 1400 000/00 RMK AO2 T11611178
94299KAAT AAT20160102083511301/02/16 08:35:31  5-MIN KAAT 021635Z AUTO 34003KT 7SM OVC042 M17/M18 A3009 4230 87 1400 330/03 RMK AO2 T11671183
94299KAAT AAT20160102084011301/02/16 08:40:31  5-MIN KAAT 021640Z AUTO 00000KT 8SM OVC042 M16/M18 A3009 4230 87 1400 000/00 RMK AO2 T11611178
94299KAAT AAT20160102084511301/02/16 08:45:31  5-MIN KAAT 021645Z AUTO 00000KT 7SM OVC041 M16/M18 A3009 4230 87 1400 000/00 RMK AO2 T11611178
94299KAAT AAT20160102085012301/02/16 08:50:31  5-MIN KAAT 021650Z AUTO 00000KT 6SM BR OVC041 M16/M17 A3009 4230 87 1500 000/00 RMK AO2 SLP273 T11561172
94299KAAT AAT20160102085512301/02/16 08:55:31  5-MIN KAAT 021655Z AUTO 00000KT 6SM BR OVC041 M16/M17 A3009 4230 87 1500 000/00 RMK AO2 SLP276 T11561172
94299KAAT AAT20160102090011301/02/16 09:00:31  5-MIN KAAT 021700Z AUTO 00000KT 8SM OVC041 M15/M17 A3009 4230 87 1600 000/00 RMK AO2 T11501167
94299KAAT AAT20160102090511301/02/16 09:05:31  5-MIN KAAT 021705Z AUTO 00000KT 7SM OVC041 M16/M17 A3009 4230 91 1500 000/00 RMK AO2 T11561167
94299KAAT AAT20160102091011301/02/16 09:10:31  5-MIN KAAT 021710Z AUTO 00000KT 7SM OVC039 M15/M16 A3009 4230 91 1600 000/00 RMK AO2 T11501161
94299KAAT AAT20160102091511301/02/16 09:15:31  5-MIN KAAT 021715Z AUTO 00000KT 8SM OVC037 M14/M16 A3009 4230 91 1600 000/00 RMK AO2 T11441156
94299KAAT AAT20160102092011301/02/16 09:20:31  5-MIN KAAT 021720Z AUTO 00000KT 8SM OVC037 M14/M15 A3009 4230 96 1600 000/00 RMK AO2 T11441150
94299KAAT AAT20160102092511301/02/16 09:25:31  5-MIN KAAT 021725Z AUTO 00000KT 8SM OVC035 M14/M14 A3009 4230 96 1700 000/00 RMK AO2 T11391144
94299KAAT AAT20160102093011301/02/16 09:30:31  5-MIN KAAT 021730Z AUTO 00000KT 8SM OVC035 M13/M14 A3009 4230 87 1900 000/00 RMK AO2 T11281144
94299KAAT AAT20160102093511301/02/16 09:35:31  5-MIN KAAT 021735Z AUTO 00000KT 8SM OVC035 M12/M14 A3008 4230 84 2000 000/00 RMK AO2 T11171139
94299KAAT AAT20160102094011301/02/16 09:40:31  5-MIN KAAT 021740Z AUTO 06003KT 9SM OVC033 M11/M14 A3008 4230 80 2100 050/03 RMK AO2 T11111139
94299KAAT AAT20160102094511401/02/16 09:45:31  5-MIN KAAT 021745Z AUTO 00000KT 10SM OVC033 M11/M14 A3008 4230 77 2100 000/00 RMK AO2 T11111144
94299KAAT AAT20160102095013901/02/16 09:50:31  5-MIN KAAT 021750Z AUTO 00000KT 10SM OVC033 M11/M13 A3008 4230 80 2200 000/00 RMK AO2 SLP264 T11061133 11106 21244 55005
94299KAAT AAT20160102095513901/02/16 09:55:31  5-MIN KAAT 021755Z AUTO 00000KT 10SM OVC033 M09/M13 A3008 4230 77 2300 000/00 RMK AO2 SLP259 T10941128 11094 21244 58003
94299KAAT AAT20160102100011401/02/16 10:00:31  5-MIN KAAT 021800Z AUTO 04003KT 10SM OVC033 M08/M12 A3008 4230 74 2400 030/03 RMK AO2 T10831122
94299KAAT AAT20160102100511401/02/16 10:05:31  5-MIN KAAT 021805Z AUTO 09003KT 10SM OVC035 M08/M12 A3008 4230 71 2500 080/03 RMK AO2 T10781122
94299KAAT AAT20160102101011401/02/16 10:10:31  5-MIN KAAT 021810Z AUTO 06003KT 10SM OVC035 M07/M12 A3008 4230 68 2600 040/03 RMK AO2 T10721122
94299KAAT AAT20160102101511401/02/16 10:15:31  5-MIN KAAT 021815Z AUTO 11004KT 10SM OVC035 M07/M13 A3008 4230 62 2700 100/04 RMK AO2 T10671128
94299KAAT AAT20160102102011401/02/16 10:20:31  5-MIN KAAT 021820Z AUTO 12003KT 10SM OVC037 M07/M13 A3008 4230 59 2700 100/03 RMK AO2 T10671133
94299KAAT AAT20160102102511401/02/16 10:25:31  5-MIN KAAT 021825Z AUTO 13004KT 10SM OVC037 M07/M13 A3008 4240 59 2700 110/04 RMK AO2 T10671133
94299KAAT AAT20160102103011401/02/16 10:30:31  5-MIN KAAT 021830Z AUTO 13005KT 10SM OVC037 M07/M13 A3008 4240 59 2700 110/05 RMK AO2 T10671133
94299KAAT AAT20160102103511401/02/16 10:35:31  5-MIN KAAT 021835Z AUTO 13004KT 10SM OVC038 M07/M13 A3008 4240 62 2600 120/04 RMK AO2 T10721133
94299KAAT AAT20160102104011401/02/16 10:40:31  5-MIN KAAT 021840Z AUTO 14004KT 10SM OVC038 M07/M13 A3007 4240 62 2600 120/04 RMK AO2 T10721133
94299KAAT AAT20160102104511401/02/16 10:45:31  5-MIN KAAT 021845Z AUTO 12005KT 10SM OVC038 M07/M14 A3007 4240 57 2700 100/05 RMK AO2 T10671139
94299KAAT AAT20160102105012101/02/16 10:50:31  5-MIN KAAT 021850Z AUTO 13004KT 10SM BKN038 M07/M14 A3007 4240 57 2700 110/04 RMK AO2 SLP247 T10671139
94299KAAT AAT20160102105512101/02/16 10:55:31  5-MIN KAAT 021855Z AUTO 13005KT 10SM BKN038 M07/M14 A3007 4250 57 2700 110/05 RMK AO2 SLP246 T10671139
94299KAAT AAT20160102110011401/02/16 11:00:31  5-MIN KAAT 021900Z AUTO 11005KT 10SM SCT038 M06/M14 A3006 4250 54 2700 100/05 RMK AO2 T10611139
94299KAAT AAT20160102110511401/02/16 11:05:31  5-MIN KAAT 021905Z AUTO 11004KT 10SM FEW038 M06/M14 A3006 4250 54 2700 090/04 RMK AO2 T10611139
94299KAAT AAT20160102111011401/02/16 11:10:31  5-MIN KAAT 021910Z AUTO VRB03KT 10SM FEW038 M06/M14 A3006 4250 54 2700 VRB/03 RMK AO2 T10611139
94299KAAT AAT20160102111511101/02/16 11:15:31  5-MIN KAAT 021915Z AUTO 13004KT 10SM CLR M06/M13 A3006 4260 54 2800 120/04 RMK AO2 T10561133
94299KAAT AAT20160102112011101/02/16 11:20:31  5-MIN KAAT 021920Z AUTO 14006KT 10SM CLR M06/M13 A3005 4260 54 2800 120/06 RMK AO2 T10561133
94299KAAT AAT20160102112511101/02/16 11:25:31  5-MIN KAAT 021925Z AUTO 13006KT 10SM CLR M06/M13 A3005 4260 57 2800 120/06 RMK AO2 T10561128
94299KAAT AAT20160102113011101/02/16 11:30:31  5-MIN KAAT 021930Z AUTO 14007KT 10SM CLR M06/M13 A3005 4260 57 2800 130/07 RMK AO2 T10561128
94299KAAT AAT20160102113511101/02/16 11:35:31  5-MIN KAAT 021935Z AUTO 12007KT 10SM CLR M05/M13 A3004 4270 55 2900 110/07 RMK AO2 T10501128
94299KAAT AAT20160102114011101/02/16 11:40:31  5-MIN KAAT 021940Z AUTO 13006KT 10SM CLR M05/M13 A3004 4270 55 2900 110/06 RMK AO2 T10501128
94299KAAT AAT20160102114511101/02/16 11:45:31  5-MIN KAAT 021945Z AUTO 12008KT 10SM CLR M05/M13 A3004 4270 55 2900 110/08 RMK AO2 T10501128
94299KAAT AAT20160102115011801/02/16 11:50:31  5-MIN KAAT 021950Z AUTO 12007KT 10SM CLR M05/M13 A3004 4270 55 2900 100/07 RMK AO2 SLP236 T10501128
94299KAAT AAT20160102115511801/02/16 11:55:31  5-MIN KAAT 021955Z AUTO 08006KT 10SM CLR M04/M12 A3003 4280 55 3000 070/06 RMK AO2 SLP233 T10441122
94299KAAT AAT20160102120010101/02/16 12:00:31  5-MIN KAAT 022000Z AUTO 10SM CLR M04/M12 A3003 4280 55 3000 M /M RMK AO2 T10441122
94299KAAT AAT20160102120510101/02/16 12:05:31  5-MIN KAAT 022005Z AUTO 10SM CLR M04/M12 A3003 4280 55 3100 M /M RMK AO2 T10391117
94299KAAT AAT20160102121010101/02/16 12:10:31  5-MIN KAAT 022010Z AUTO 10SM CLR M04/M11 A3003 4280 57 3100 M /M RMK AO2 T10391111
94299KAAT AAT20160102121510101/02/16 12:15:31  5-MIN KAAT 022015Z AUTO 10SM CLR M03/M11 A3002 4290 55 3100 M /M RMK AO2 T10331111
94299KAAT AAT20160102122010101/02/16 12:20:31  5-MIN KAAT 022020Z AUTO 10SM CLR M03/M11 A3002 4290 57 3100 M /M RMK AO2 T10331106
94299KAAT AAT20160102122511101/02/16 12:25:31  5-MIN KAAT 022025Z AUTO 13007KT 10SM CLR M03/M11 A3002 4290 55 3100 120/07 RMK AO2 T10331111
94299KAAT AAT20160102123011101/02/16 12:30:31  5-MIN KAAT 022030Z AUTO 13007KT 10SM CLR M03/M11 A3001 4290 55 3100 120/07 RMK AO2 T10331111
94299KAAT AAT20160102123511101/02/16 12:35:31  5-MIN KAAT 022035Z AUTO 12007KT 10SM CLR M03/M11 A3001 4300 55 3100 110/07 RMK AO2 T10331111
94299KAAT AAT20160102124011101/02/16 12:40:31  5-MIN KAAT 022040Z AUTO 14008KT 10SM CLR M03/M11 A3001 4300 55 3100 120/08 RMK AO2 T10331111
94299KAAT AAT20160102124511101/02/16 12:45:31  5-MIN KAAT 022045Z AUTO 14008KT 10SM CLR M03/M11 A3001 4300 57 3100 120/08 RMK AO2 T10331106
94299KAAT AAT20160102125012401/02/16 12:50:31  5-MIN KAAT 022050Z AUTO 13006KT 10SM CLR M03/M11 A3001 4300 57 3100 120/06 RMK AO2 SLP222 T10331106 58003
94299KAAT AAT20160102125512401/02/16 12:55:31  5-MIN KAAT 022055Z AUTO 14009KT 10SM CLR M03/M10 A3001 4300 60 3200 130/09 RMK AO2 SLP221 T10331100 58023
94299KAAT AAT20160102130011101/02/16 13:00:31  5-MIN KAAT 022100Z AUTO 14009KT 10SM CLR M03/M10 A3000 4300 58 3200 130/09 RMK AO2 T10281100
94299KAAT AAT20160102130511101/02/16 13:05:31  5-MIN KAAT 022105Z AUTO 13006KT 10SM CLR M03/M10 A3000 4300 58 3200 110/06 RMK AO2 T10281100
94299KAAT AAT20160102131011101/02/16 13:10:31  5-MIN KAAT 022110Z AUTO 12007KT 10SM CLR M03/M09 A3000 4310 60 3200 110/07 RMK AO2 T10281094
94299KAAT AAT20160102131511101/02/16 13:15:31  5-MIN KAAT 022115Z AUTO 12007KT 10SM CLR M03/M10 A3000 4310 58 3200 100/07 RMK AO2 T10281100
94299KAAT AAT20160102132011101/02/16 13:20:31  5-MIN KAAT 022120Z AUTO 15008KT 10SM CLR M02/M10 A3000 4310 55 3300 140/08 RMK AO2 T10221100
94299KAAT AAT20160102132511101/02/16 13:25:31  5-MIN KAAT 022125Z AUTO 15010KT 10SM CLR M02/M10 A2999 4310 55 3300 140/10 RMK AO2 T10221100
94299KAAT AAT20160102133011101/02/16 13:30:31  5-MIN KAAT 022130Z AUTO 16008KT 10SM CLR M02/M10 A2999 4310 55 3300 140/08 RMK AO2 T10221100
94299KAAT AAT20160102133511101/02/16 13:35:31  5-MIN KAAT 022135Z AUTO 15009KT 10SM CLR M02/M10 A2999 4310 55 3300 140/09 RMK AO2 T10221100
94299KAAT AAT20160102134011101/02/16 13:40:31  5-MIN KAAT 022140Z AUTO 16009KT 10SM CLR M02/M10 A2999 4310 55 3300 140/09 RMK AO2 T10221100
94299KAAT AAT20160102134511101/02/16 13:45:31  5-MIN KAAT 022145Z AUTO 15009KT 10SM CLR M02/M10 A2999 4310 55 3300 140/09 RMK AO2 T10221100
94299KAAT AAT20160102135011801/02/16 13:50:31  5-MIN KAAT 022150Z AUTO 15010KT 10SM CLR M02/M10 A2999 4320 55 3300 140/10 RMK AO2 SLP216 T10221100
94299KAAT AAT20160102135511801/02/16 13:55:31  5-MIN KAAT 022155Z AUTO 16011KT 10SM CLR M03/M10 A2999 4320 58 3200 140/11 RMK AO2 SLP218 T10281100
94299KAAT AAT20160102140011101/02/16 14:00:31  5-MIN KAAT 022200Z AUTO 16011KT 10SM CLR M03/M10 A2999 4320 58 3200 140/11 RMK AO2 T10281100
94299KAAT AAT20160102140511101/02/16 14:05:31  5-MIN KAAT 022205Z AUTO 16011KT 10SM CLR M03/M10 A2999 4320 58 3200 140/11 RMK AO2 T10281100
94299KAAT AAT20160102141011101/02/16 14:10:31  5-MIN KAAT 022210Z AUTO 15008KT 10SM CLR M02/M10 A2998 4330 55 3300 130/08 RMK AO2 T10221100
94299KAAT AAT20160102141511101/02/16 14:15:31  5-MIN KAAT 022215Z AUTO 15009KT 10SM CLR M02/M10 A2998 4330 55 3300 140/09 RMK AO2 T10221100
94299KAAT AAT20160102142011101/02/16 14:20:31  5-MIN KAAT 022220Z AUTO 16009KT 10SM CLR M03/M10 A2998 4330 58 3300 140/09 RMK AO2 T10281100
94299KAAT AAT20160102142511101/02/16 14:25:31  5-MIN KAAT 022225Z AUTO 15009KT 10SM CLR M03/M10 A2997 4330 58 3300 130/09 RMK AO2 T10281100
94299KAAT AAT20160102143011101/02/16 14:30:31  5-MIN KAAT 022230Z AUTO 15010KT 10SM CLR M02/M10 A2997 4340 55 3300 130/10 RMK AO2 T10221100
94299KAAT AAT20160102143511101/02/16 14:35:31  5-MIN KAAT 022235Z AUTO 15010KT 10SM CLR M02/M10 A2997 4330 53 3400 130/10 RMK AO2 T10171100
94299KAAT AAT20160102144011101/02/16 14:40:31  5-MIN KAAT 022240Z AUTO 15010KT 10SM CLR M02/M09 A2997 4330 55 3400 140/10 RMK AO2 T10171094
94299KAAT AAT20160102144511101/02/16 14:45:31  5-MIN KAAT 022245Z AUTO 16011KT 10SM CLR M02/M09 A2997 4330 58 3300 140/11 RMK AO2 T10221094
94299KAAT AAT20160102145011801/02/16 14:50:31  5-MIN KAAT 022250Z AUTO 15011KT 10SM CLR M02/M09 A2997 4330 55 3400 140/11 RMK AO2 SLP206 T10171094
94299KAAT AAT20160102145511801/02/16 14:55:31  5-MIN KAAT 022255Z AUTO 15010KT 10SM CLR M02/M09 A2997 4330 58 3400 140/10 RMK AO2 SLP204 T10171089
94299KAAT AAT20160102150011101/02/16 15:00:31  5-MIN KAAT 022300Z AUTO 15012KT 10SM CLR M02/M09 A2997 4340 58 3400 140/12 RMK AO2 T10171089
94299KAAT AAT20160102150511101/02/16 15:05:31  5-MIN KAAT 022305Z AUTO 16012KT 10SM CLR M02/M09 A2997 4330 60 3300 140/12 RMK AO2 T10221089
94299KAAT AAT20160102151011101/02/16 15:10:31  5-MIN KAAT 022310Z AUTO 16012KT 10SM CLR M03/M09 A2997 4330 60 3300 140/12 RMK AO2 T10281094
94299KAAT AAT20160102151511401/02/16 15:15:31  5-MIN KAAT 022315Z AUTO 16013KT 10SM FEW070 M03/M09 A2997 4340 60 3300 140/13 RMK AO2 T10281094
94299KAAT AAT20160102152011401/02/16 15:20:31  5-MIN KAAT 022320Z AUTO 16013KT 10SM BKN065 M03/M09 A2997 4330 63 3300 150/13 RMK AO2 T10281089
94299KAAT AAT20160102152511401/02/16 15:25:31  5-MIN KAAT 022325Z AUTO 16011KT 10SM BKN065 M02/M09 A2998 4330 58 3300 150/11 RMK AO2 T10221094
94299KAAT AAT20160102153012101/02/16 15:30:31  5-MIN KAAT 022330Z AUTO 17012KT 10SM BKN070 BKN085 M03/M09 A2998 4330 63 3300 150/12 RMK AO2 T10281089
94299KAAT AAT20160102153512101/02/16 15:35:31  5-MIN KAAT 022335Z AUTO 17011KT 10SM BKN070 OVC085 M02/M09 A2998 4330 58 3300 150/11 RMK AO2 T10221094
94299KAAT AAT20160102154012101/02/16 15:40:31  5-MIN KAAT 022340Z AUTO 17009KT 10SM BKN070 OVC090 M02/M09 A2998 4330 58 3300 150/09 RMK AO2 T10221094
94299KAAT AAT20160102154512101/02/16 15:45:31  5-MIN KAAT 022345Z AUTO 18009KT 10SM SCT070 OVC090 M02/M09 A2998 4330 58 3300 160/09 RMK AO2 T10221094
94299KAAT AAT20160102155014601/02/16 15:50:31  5-MIN KAAT 022350Z AUTO 17008KT 10SM FEW070 OVC085 M03/M09 A2998 4320 63 3200 160/08 RMK AO2 SLP212 T10281089 11017 21094 58023
94299KAAT AAT20160102155514601/02/16 15:55:31  5-MIN KAAT 022355Z AUTO 17010KT 10SM FEW070 OVC085 M03/M09 A2998 4330 63 3200 160/10 RMK AO2 SLP215 T10281089 11017 21094 55007
94299KAAT AAT20160102160011401/02/16 16:00:31  5-MIN KAAT 030000Z AUTO 17010KT 10SM OVC085 M03/M09 A2998 4330 60 3200 150/10 RMK AO2 T10281094
94299KAAT AAT20160102160511401/02/16 16:05:31  5-MIN KAAT 030005Z AUTO 17011KT 10SM OVC085 M03/M09 A2998 4320 60 3200 150/11 RMK AO2 T10281094
94299KAAT AAT20160102161011401/02/16 16:10:31  5-MIN KAAT 030010Z AUTO 17010KT 10SM OVC080 M03/M09 A2998 4320 60 3200 150/10 RMK AO2 T10281094
94299KAAT AAT20160102161511401/02/16 16:15:31  5-MIN KAAT 030015Z AUTO 16010KT 10SM OVC080 M03/M09 A2999 4320 63 3200 150/10 RMK AO2 T10281089
94299KAAT AAT20160102162011401/02/16 16:20:31  5-MIN KAAT 030020Z AUTO 17010KT 10SM OVC080 M03/M09 A2999 4320 63 3200 150/10 RMK AO2 T10281089
94299KAAT AAT20160102162511401/02/16 16:25:31  5-MIN KAAT 030025Z AUTO 17011KT 10SM OVC080 M03/M09 A2999 4320 63 3200 150/11 RMK AO2 T10281089
94299KAAT AAT20160102163011401/02/16 16:30:31  5-MIN KAAT 030030Z AUTO 17011KT 10SM OVC080 M03/M09 A2999 4320 63 3200 150/11 RMK AO2 T10281089
94299KAAT AAT20160102163511401/02/16 16:35:31  5-MIN KAAT 030035Z AUTO 16012KT 10SM OVC080 M03/M09 A2999 4320 65 3200 150/12 RMK AO2 T10331089
94299KAAT AAT20160102164011401/02/16 16:40:31  5-MIN KAAT 030040Z AUTO 16013KT 10SM OVC080 M03/M09 A2998 4320 65 3200 150/13 RMK AO2 T10331089
94299KAAT AAT20160102164511401/02/16 16:45:31  5-MIN KAAT 030045Z AUTO 17013KT 10SM OVC080 M03/M09 A2999 4320 65 3200 150/13 RMK AO2 T10331089
94299KAAT AAT20160102165012101/02/16 16:50:31  5-MIN KAAT 030050Z AUTO 16012KT 10SM OVC080 M03/M09 A2998 4320 65 3200 140/12 RMK AO2 SLP217 T10331089
94299KAAT AAT20160102165512101/02/16 16:55:31  5-MIN KAAT 030055Z AUTO 16014KT 10SM OVC080 M03/M09 A2998 4330 65 3200 150/14 RMK AO2 SLP215 T10331089
94299KAAT AAT20160102170011401/02/16 17:00:31  5-MIN KAAT 030100Z AUTO 16014KT 10SM OVC080 M03/M09 A2998 4320 63 3200 150/14 RMK AO2 T10331094
94299KAAT AAT20160102170511401/02/16 17:05:31  5-MIN KAAT 030105Z AUTO 16013KT 10SM OVC080 M03/M09 A2999 4320 63 3200 150/13 RMK AO2 T10331094
94299KAAT AAT20160102171011401/02/16 17:10:31  5-MIN KAAT 030110Z AUTO 16012KT 10SM OVC080 M03/M09 A2999 4310 65 3200 150/12 RMK AO2 T10331089
94299KAAT AAT20160102171511401/02/16 17:15:31  5-MIN KAAT 030115Z AUTO 16010KT 10SM OVC080 M03/M09 A2999 4320 63 3200 150/10 RMK AO2 T10331094
94299KAAT AAT20160102172011401/02/16 17:20:31  5-MIN KAAT 030120Z AUTO 16010KT 10SM OVC080 M03/M09 A2999 4310 63 3200 150/10 RMK AO2 T10331094
94299KAAT AAT20160102172511401/02/16 17:25:31  5-MIN KAAT 030125Z AUTO 17011KT 10SM OVC080 M03/M09 A3000 4310 63 3200 150/11 RMK AO2 T10331094
94299KAAT AAT20160102173011401/02/16 17:30:31  5-MIN KAAT 030130Z AUTO 16012KT 10SM OVC080 M03/M09 A3000 4310 63 3200 150/12 RMK AO2 T10331094
94299KAAT AAT20160102173511401/02/16 17:35:31  5-MIN KAAT 030135Z AUTO 16010KT 10SM OVC080 M04/M09 A3000 4310 65 3100 150/10 RMK AO2 T10391094
94299KAAT AAT20160102174011401/02/16 17:40:31  5-MIN KAAT 030140Z AUTO 16011KT 10SM OVC080 M03/M09 A2999 4320 63 3200 150/11 RMK AO2 T10331094
94299KAAT AAT20160102174511401/02/16 17:45:31  5-MIN KAAT 030145Z AUTO 16010KT 10SM OVC080 M04/M09 A2999 4310 68 3100 150/10 RMK AO2 T10391089
94299KAAT AAT20160102175012101/02/16 17:50:31  5-MIN KAAT 030150Z AUTO 16010KT 10SM OVC080 M04/M09 A3000 4310 65 3100 150/10 RMK AO2 SLP222 T10391094
94299KAAT AAT20160102175512101/02/16 17:55:31  5-MIN KAAT 030155Z AUTO 17009KT 10SM OVC080 M04/M09 A3000 4310 65 3100 150/09 RMK AO2 SLP223 T10391094
94299KAAT AAT20160102180011401/02/16 18:00:31  5-MIN KAAT 030200Z AUTO 18009KT 10SM OVC080 M04/M09 A3000 4310 68 3100 160/09 RMK AO2 T10391089
94299KAAT AAT20160102180511401/02/16 18:05:31  5-MIN KAAT 030205Z AUTO 18010KT 10SM OVC080 M04/M09 A3000 4310 68 3100 170/10 RMK AO2 T10391089
94299KAAT AAT20160102181012801/02/16 18:10:31  5-MIN KAAT 030210Z AUTO 19010KT 10SM FEW065 BKN080 OVC100 M04/M09 A3000 4310 68 3100 170/10 RMK AO2 T10391089
94299KAAT AAT20160102181512101/02/16 18:15:31  5-MIN KAAT 030215Z AUTO 18010KT 10SM FEW065 OVC085 M04/M09 A2999 4310 65 3100 160/10 RMK AO2 T10391094
94299KAAT AAT20160102182012801/02/16 18:20:31  5-MIN KAAT 030220Z AUTO 18011KT 10SM FEW065 BKN080 OVC100 M04/M09 A3000 4310 65 3100 170/11 RMK AO2 T10391094
94299KAAT AAT20160102182512801/02/16 18:25:31  5-MIN KAAT 030225Z AUTO 17012KT 10SM FEW065 BKN080 OVC120 M04/M09 A2999 4320 65 3100 160/12 RMK AO2 T10391094
94299KAAT AAT20160102183012801/02/16 18:30:31  5-MIN KAAT 030230Z AUTO 18008KT 10SM SCT070 BKN080 OVC120 M04/M09 A2999 4320 65 3100 160/08 RMK AO2 T10391094
94299KAAT AAT20160102183512801/02/16 18:35:31  5-MIN KAAT 030235Z AUTO 18013KT 10SM SCT070 BKN090 OVC110 M04/M09 A2999 4310 65 3100 170/13 RMK AO2 T10391094
94299KAAT AAT20160102184012801/02/16 18:40:31  5-MIN KAAT 030240Z AUTO 18012KT 10SM FEW065 BKN090 OVC110 M03/M09 A3000 4310 63 3200 160/12 RMK AO2 T10331094
94299KAAT AAT20160102184512801/02/16 18:45:31  5-MIN KAAT 030245Z AUTO 17012KT 10SM FEW065 FEW080 OVC100 M03/M09 A3000 4310 63 3200 160/12 RMK AO2 T10331094
94299KAAT AAT20160102185012701/02/16 18:50:31  5-MIN KAAT 030250Z AUTO 18008KT 10SM OVC100 M03/M09 A3000 4310 63 3200 160/08 RMK AO2 SLP222 T10331094 55007
94299KAAT AAT20160102185513401/02/16 18:55:31  5-MIN KAAT 030255Z AUTO 21003KT 10SM FEW070 OVC100 M04/M09 A3000 4300 68 3100 190/03 RMK AO2 SLP220 T10391089 53006
94299KAAT AAT20160102190012101/02/16 19:00:31  5-MIN KAAT 030300Z AUTO 00000KT 10SM FEW070 OVC100 M03/M09 A3000 4310 65 3200 000/00 RMK AO2 T10331089
94299KAAT AAT20160102190512101/02/16 19:05:31  5-MIN KAAT 030305Z AUTO 03004KT 10SM SCT070 OVC100 M03/M09 A3000 4310 65 3200 020/04 RMK AO2 T10331089
94299KAAT AAT20160102191012101/02/16 19:10:31  5-MIN KAAT 030310Z AUTO 04004KT 10SM BKN075 OVC100 M04/M09 A3000 4310 68 3100 020/04 RMK AO2 T10391089
94299KAAT AAT20160102191512101/02/16 19:15:31  5-MIN KAAT 030315Z AUTO 03003KT 10SM BKN080 OVC100 M04/M09 A3001 4300 68 3100 020/03 RMK AO2 T10391089
94299KAAT AAT20160102192012101/02/16 19:20:31  5-MIN KAAT 030320Z AUTO 06004KT 10SM SCT080 OVC100 M03/M09 A3000 4310 63 3200 040/04 RMK AO2 T10331094
94299KAAT AAT20160102192512101/02/16 19:25:31  5-MIN KAAT 030325Z AUTO 09004KT 10SM SCT075 OVC095 M04/M09 A3000 4310 68 3100 070/04 RMK AO2 T10391089
94299KAAT AAT20160102193012101/02/16 19:30:31  5-MIN KAAT 030330Z AUTO 10004KT 10SM BKN075 OVC095 M03/M09 A3000 4310 65 3200 080/04 RMK AO2 T10331089
94299KAAT AAT20160102193512801/02/16 19:35:31  5-MIN KAAT 030335Z AUTO VRB03KT 10SM BKN070 BKN090 OVC100 M03/M09 A3000 4310 65 3200 VRB/03 RMK AO2 T10331089
94299KAAT AAT20160102194012801/02/16 19:40:31  5-MIN KAAT 030340Z AUTO 07004KT 10SM SCT065 BKN090 OVC100 M03/M09 A3000 4310 65 3200 050/04 RMK AO2 T10331089
94299KAAT AAT20160102194512801/02/16 19:45:31  5-MIN KAAT 030345Z AUTO VRB04KT 10SM SCT070 BKN085 OVC100 M03/M09 A3000 4300 65 3200 VRB/04 RMK AO2 T10331089
94299KAAT AAT20160102195013501/02/16 19:50:31  5-MIN KAAT 030350Z AUTO 13004KT 10SM SCT070 BKN085 OVC100 M03/M09 A3000 4300 63 3200 110/04 RMK AO2 SLP216 T10281089
94299KAAT AAT20160102195512801/02/16 19:55:31  5-MIN KAAT 030355Z AUTO 12004KT 10SM BKN070 OVC085 M03/M09 A3000 4300 63 3200 110/04 RMK AO2 SLP213 T10281089
94299KAAT AAT20160102200012801/02/16 20:00:31  5-MIN KAAT 030400Z AUTO VRB03KT 10SM FEW065 BKN075 OVC100 M03/M09 A3001 4300 65 3100 VRB/03 RMK AO2 T10331089
94299KAAT AAT20160102200512101/02/16 20:05:31  5-MIN KAAT 030405Z AUTO 00000KT 10SM BKN075 OVC100 M03/M09 A3001 4300 63 3200 000/00 RMK AO2 T10281089
94299KAAT AAT20160102201011401/02/16 20:10:31  5-MIN KAAT 030410Z AUTO VRB03KT 10SM OVC075 M03/M09 A3000 4300 63 3200 VRB/03 RMK AO2 T10281089
94299KAAT AAT20160102201511401/02/16 20:15:31  5-MIN KAAT 030415Z AUTO 00000KT 10SM OVC075 M03/M09 A3001 4300 63 3200 000/00 RMK AO2 T10281089
94299KAAT AAT20160102202011401/02/16 20:20:31  5-MIN KAAT 030420Z AUTO 00000KT 10SM OVC075 M03/M08 A3000 4300 66 3200 000/00 RMK AO2 T10281083
94299KAAT AAT20160102202511401/02/16 20:25:31  5-MIN KAAT 030425Z AUTO 00000KT 10SM OVC075 M03/M08 A3001 4300 68 3200 000/00 RMK AO2 T10331083
94299KAAT AAT20160102203011401/02/16 20:30:31  5-MIN KAAT 030430Z AUTO 00000KT 10SM OVC075 M03/M08 A3000 4300 66 3200 000/00 RMK AO2 T10281083
94299KAAT AAT20160102203511401/02/16 20:35:31  5-MIN KAAT 030435Z AUTO 00000KT 10SM OVC075 M03/M08 A3000 4310 66 3200 000/00 RMK AO2 T10281083
94299KAAT AAT20160102204011401/02/16 20:40:31  5-MIN KAAT 030440Z AUTO 00000KT 10SM OVC070 M03/M08 A3000 4310 66 3200 000/00 RMK AO2 T10281083
94299KAAT AAT20160102204511401/02/16 20:45:31  5-MIN KAAT 030445Z AUTO 00000KT 10SM OVC070 M03/M09 A3000 4310 63 3200 000/00 RMK AO2 T10281089
94299KAAT AAT20160102205012101/02/16 20:50:31  5-MIN KAAT 030450Z AUTO 00000KT 10SM OVC070 M03/M08 A3000 4310 66 3200 000/00 RMK AO2 SLP206 T10281083
94299KAAT AAT20160102205512101/02/16 20:55:31  5-MIN KAAT 030455Z AUTO VRB03KT 10SM OVC070 M03/M08 A3000 4310 66 3200 VRB/03 RMK AO2 SLP207 T10281083
94299KAAT AAT20160102210011401/02/16 21:00:31  5-MIN KAAT 030500Z AUTO 03003KT 10SM OVC070 M03/M08 A3000 4310 66 3200 010/03 RMK AO2 T10281083
94299KAAT AAT20160102210511401/02/16 21:05:31  5-MIN KAAT 030505Z AUTO 09005KT 10SM OVC070 M03/M08 A3000 4300 66 3200 080/05 RMK AO2 T10281083
94299KAAT AAT20160102211011401/02/16 21:10:31  5-MIN KAAT 030510Z AUTO VRB04KT 10SM OVC070 M03/M08 A3001 4300 66 3200 VRB/04 RMK AO2 T10281083
94299KAAT AAT20160102211511401/02/16 21:15:31  5-MIN KAAT 030515Z AUTO VRB03KT 10SM OVC070 M03/M08 A3000 4300 66 3200 VRB/03 RMK AO2 T10281083
94299KAAT AAT20160102212011401/02/16 21:20:31  5-MIN KAAT 030520Z AUTO 18007KT 10SM OVC070 M03/M08 A3001 4300 66 3200 170/07 RMK AO2 T10281083
94299KAAT AAT20160102212511401/02/16 21:25:31  5-MIN KAAT 030525Z AUTO 17007KT 10SM OVC070 M03/M08 A3001 4300 66 3200 160/07 RMK AO2 T10281083
94299KAAT AAT20160102213011401/02/16 21:30:31  5-MIN KAAT 030530Z AUTO 17005KT 10SM OVC070 M03/M08 A3001 4300 66 3200 150/05 RMK AO2 T10281083
94299KAAT AAT20160102213511401/02/16 21:35:31  5-MIN KAAT 030535Z AUTO 17007KT 10SM OVC070 M03/M08 A3001 4300 66 3200 160/07 RMK AO2 T10281083
94299KAAT AAT20160102214011401/02/16 21:40:31  5-MIN KAAT 030540Z AUTO 17012KT 10SM OVC070 M03/M08 A3000 4310 66 3200 160/12 RMK AO2 T10281083
94299KAAT AAT20160102214511401/02/16 21:45:31  5-MIN KAAT 030545Z AUTO 16012KT 10SM OVC070 M02/M08 A3000 4310 63 3300 150/12 RMK AO2 T10221083
94299KAAT AAT20160102215013901/02/16 21:50:31  5-MIN KAAT 030550Z AUTO 17010KT 10SM OVC070 M03/M08 A3000 4310 66 3200 150/10 RMK AO2 SLP198 T10281083 11022 21039 53006
94299KAAT AAT20160102215513901/02/16 21:55:31  5-MIN KAAT 030555Z AUTO 16010KT 10SM OVC070 M03/M08 A3000 4310 66 3200 150/10 RMK AO2 SLP196 T10281083 11022 21039 58001
94299KAAT AAT20160102220011401/02/16 22:00:31  5-MIN KAAT 030600Z AUTO 17008KT 10SM OVC070 M03/M08 A3000 4310 66 3200 160/08 RMK AO2 T10281083
94299KAAT AAT20160102220511401/02/16 22:05:31  5-MIN KAAT 030605Z AUTO 16012KT 10SM OVC070 M03/M08 A3000 4310 66 3200 150/12 RMK AO2 T10281083
94299KAAT AAT20160102221011401/02/16 22:10:31  5-MIN KAAT 030610Z AUTO 17013KT 10SM OVC070 M03/M08 A3000 4310 66 3200 160/13 RMK AO2 T10281083
94299KAAT AAT20160102221511401/02/16 22:15:31  5-MIN KAAT 030615Z AUTO 17010KT 10SM OVC070 M03/M08 A3000 4310 66 3200 160/10 RMK AO2 T10281083
94299KAAT AAT20160102222011401/02/16 22:20:31  5-MIN KAAT 030620Z AUTO 17009KT 10SM OVC070 M03/M08 A3000 4300 66 3200 150/09 RMK AO2 T10281083
94299KAAT AAT20160102222511401/02/16 22:25:31  5-MIN KAAT 030625Z AUTO 18007KT 10SM OVC070 M03/M08 A3000 4310 66 3200 160/07 RMK AO2 T10281083
94299KAAT AAT20160102223011401/02/16 22:30:31  5-MIN KAAT 030630Z AUTO 17007KT 10SM OVC070 M03/M08 A3000 4310 66 3200 160/07 RMK AO2 T10281083
94299KAAT AAT20160102223511401/02/16 22:35:31  5-MIN KAAT 030635Z AUTO 17005KT 10SM OVC070 M03/M08 A3000 4300 66 3200 160/05 RMK AO2 T10281083
94299KAAT AAT20160102224011401/02/16 22:40:31  5-MIN KAAT 030640Z AUTO 15004KT 10SM OVC070 M03/M08 A3000 4310 66 3200 140/04 RMK AO2 T10281083
94299KAAT AAT20160102224511401/02/16 22:45:31  5-MIN KAAT 030645Z AUTO VRB04KT 10SM OVC070 M03/M08 A3000 4310 66 3200 VRB/04 RMK AO2 T10281083
94299KAAT AAT20160102225012101/02/16 22:50:31  5-MIN KAAT 030650Z AUTO 17005KT 10SM OVC070 M02/M08 A2999 4310 63 3300 160/05 RMK AO2 SLP187 T10221083
94299KAAT AAT20160102225512101/02/16 22:55:31  5-MIN KAAT 030655Z AUTO 19004KT 10SM OVC070 M02/M08 A2999 4310 63 3300 170/04 RMK AO2 SLP187 T10221083
94299KAAT AAT20160102230011401/02/16 23:00:31  5-MIN KAAT 030700Z AUTO 00000KT 10SM OVC070 M02/M08 A2999 4310 66 3300 000/00 RMK AO2 T10221078
94299KAAT AAT20160102230512101/02/16 23:05:31  5-MIN KAAT 030705Z AUTO 00000KT 10SM FEW060 OVC070 M03/M08 A3000 4310 68 3200 000/00 RMK AO2 T10281078
94299KAAT AAT20160102231012101/02/16 23:10:31  5-MIN KAAT 030710Z AUTO 30004KT 10SM SCT060 OVC070 M03/M08 A3000 4310 68 3200 280/04 RMK AO2 T10281078
94299KAAT AAT20160102231512101/02/16 23:15:31  5-MIN KAAT 030715Z AUTO 25004KT 10SM BKN060 OVC070 M03/M08 A3000 4310 68 3200 240/04 RMK AO2 T10281078
94299KAAT AAT20160102232011401/02/16 23:20:31  5-MIN KAAT 030720Z AUTO 21006KT 10SM OVC065 M03/M08 A3000 4310 68 3200 190/06 RMK AO2 T10281078
94299KAAT AAT20160102232512101/02/16 23:25:31  5-MIN KAAT 030725Z AUTO 20005KT 10SM BKN060 OVC070 M03/M08 A3000 4310 68 3200 190/05 RMK AO2 T10281078
94299KAAT AAT20160102233011401/02/16 23:30:31  5-MIN KAAT 030730Z AUTO 19007KT 10SM OVC060 M03/M07 A3000 4310 71 3200 180/07 RMK AO2 T10281072
94299KAAT AAT20160102233511401/02/16 23:35:31  5-MIN KAAT 030735Z AUTO 20008KT 10SM OVC060 M03/M08 A3000 4310 68 3200 180/08 RMK AO2 T10281078
94299KAAT AAT20160102234011401/02/16 23:40:31  5-MIN KAAT 030740Z AUTO 20008KT 10SM OVC060 M03/M08 A3000 4310 68 3200 180/08 RMK AO2 T10281078
94299KAAT AAT20160102234511401/02/16 23:45:31  5-MIN KAAT 030745Z AUTO 18007KT 10SM OVC060 M03/M08 A2999 4310 68 3200 170/07 RMK AO2 T10281078
94299KAAT AAT20160102235013101/02/16 23:50:31  5-MIN KAAT 030750Z AUTO 17006KT 10SM OVC060 M03/M08 A2999 4310 68 3200 150/06 RMK AO2 SLP185 T10281078 410171244
94299KAAT AAT20160102235513101/02/16 23:55:31  5-MIN KAAT 030755Z AUTO 15005KT 10SM OVC065 M03/M08 A3000 4310 68 3200 130/05 RMK AO2 SLP183 T10281078 410171244
94299KAAT AAT20160103000011401/03/16 00:00:31  5-MIN KAAT 030800Z AUTO 13006KT 10SM OVC065 M03/M07 A2999 4310 71 3200 120/06 RMK AO2 T10281072
94299KAAT AAT20160103000511401/03/16 00:05:31  5-MIN KAAT 030805Z AUTO 12007KT 10SM OVC065 M03/M07 A2999 4320 71 3200 110/07 RMK AO2 T10281072
94299KAAT AAT20160103001010401/03/16 00:10:31  5-MIN KAAT 030810Z AUTO 10SM OVC065 M02/M08 A2999 4320 66 3300 M /M RMK AO2 T10221078
94299KAAT AAT20160103001511401/03/16 00:15:31  5-MIN KAAT 030815Z AUTO 14006KT 10SM OVC065 M02/M08 A2999 4320 63 3400 130/06 RMK AO2 T10171078
94299KAAT AAT20160103002011401/03/16 00:20:31  5-MIN KAAT 030820Z AUTO 13005KT 10SM OVC065 M02/M08 A2998 4320 66 3300 120/05 RMK AO2 T10221078
94299KAAT AAT20160103002511401/03/16 00:25:31  5-MIN KAAT 030825Z AUTO 13007KT 10SM OVC065 M02/M07 A2998 4320 69 3300 110/07 RMK AO2 T10221072
94299KAAT AAT20160103003011401/03/16 00:30:31  5-MIN KAAT 030830Z AUTO 13007KT 10SM OVC065 M02/M08 A2999 4320 63 3400 110/07 RMK AO2 T10171078
94299KAAT AAT20160103003512001/03/16 00:35:31  5-MIN KAAT 030835Z AUTO 16011G16KT 10SM OVC060 M02/M08 A2998 4320 63 3400 140/11G16 RMK AO2 T10171078
94299KAAT AAT20160103004012001/03/16 00:40:31  5-MIN KAAT 030840Z AUTO 17013G17KT 10SM OVC060 M01/M08 A2998 4330 58 3500 160/13G17 RMK AO2 T10111083
94299KAAT AAT20160103004511401/03/16 00:45:31  5-MIN KAAT 030845Z AUTO 17012KT 10SM OVC060 M02/M08 A2998 4330 63 3400 150/12 RMK AO2 T10171078
94299KAAT AAT20160103005012701/03/16 00:50:31  5-MIN KAAT 030850Z AUTO 16009KT 10SM OVC060 M02/M08 A2998 4330 63 3400 140/09 RMK AO2 SLP174 T10171078 58001
94299KAAT AAT20160103005512701/03/16 00:55:31  5-MIN KAAT 030855Z AUTO 16009KT 10SM OVC060 M02/M08 A2998 4330 60 3400 140/09 RMK AO2 SLP173 T10171083 58008
94299KAAT AAT20160103010012001/03/16 01:00:31  5-MIN KAAT 030900Z AUTO 16009G15KT 10SM OVC060 M02/M08 A2997 4330 63 3400 150/09G15 RMK AO2 T10171078
94299KAAT AAT20160103010512001/03/16 01:05:31  5-MIN KAAT 030905Z AUTO 16009G15KT 10SM OVC060 M02/M08 A2997 4330 60 3400 150/09G15 RMK AO2 T10171083
94299KAAT AAT20160103011011401/03/16 01:10:31  5-MIN KAAT 030910Z AUTO 17007KT 10SM OVC060 M02/M08 A2997 4330 60 3400 150/07 RMK AO2 T10171083
94299KAAT AAT20160103011511401/03/16 01:15:31  5-MIN KAAT 030915Z AUTO 16006KT 10SM OVC065 M02/M08 A2998 4330 63 3400 150/06 RMK AO2 T10171078
94299KAAT AAT20160103012011401/03/16 01:20:31  5-MIN KAAT 030920Z AUTO 16006KT 10SM OVC065 M02/M08 A2997 4330 63 3400 150/06 RMK AO2 T10171078
94299KAAT AAT20160103012511401/03/16 01:25:31  5-MIN KAAT 030925Z AUTO 17007KT 10SM OVC065 M02/M08 A2997 4330 63 3400 150/07 RMK AO2 T10171078
94299KAAT AAT20160103013012101/03/16 01:30:31  5-MIN KAAT 030930Z AUTO 18007KT 10SM BKN065 OVC090 M02/M08 A2998 4330 63 3400 160/07 RMK AO2 T10171078
94299KAAT AAT20160103013512101/03/16 01:35:31  5-MIN KAAT 030935Z AUTO 17008KT 10SM BKN065 OVC090 M02/M07 A2998 4330 66 3400 150/08 RMK AO2 T10171072
94299KAAT AAT20160103014012101/03/16 01:40:31  5-MIN KAAT 030940Z AUTO 16009KT 10SM BKN065 OVC090 M02/M08 A2997 4340 63 3400 150/09 RMK AO2 T10171078
94299KAAT AAT20160103014512801/03/16 01:45:31  5-MIN KAAT 030945Z AUTO 14006KT 10SM SCT055 BKN070 OVC090 M01/M08 A2996 4350 60 3500 130/06 RMK AO2 T10111078
94299KAAT AAT20160103015013501/03/16 01:50:31  5-MIN KAAT 030950Z AUTO 15005KT 10SM BKN060 BKN075 OVC090 M02/M08 A2996 4340 63 3400 140/05 RMK AO2 SLP167 T10171078
94299KAAT AAT20160103015513501/03/16 01:55:31  5-MIN KAAT 030955Z AUTO 15005KT 10SM BKN060 BKN070 OVC090 M02/M08 A2997 4340 63 3400 140/05 RMK AO2 SLP169 T10171078
94299KAAT AAT20160103020011401/03/16 02:00:31  5-MIN KAAT 031000Z AUTO 15006KT 10SM OVC060 M02/M08 A2996 4340 63 3400 140/06 RMK AO2 T10171078
94299KAAT AAT20160103020511401/03/16 02:05:31  5-MIN KAAT 031005Z AUTO 16006KT 10SM OVC065 M02/M08 A2996 4340 63 3400 140/06 RMK AO2 T10171078
94299KAAT AAT20160103021011401/03/16 02:10:31  5-MIN KAAT 031010Z AUTO 16006KT 10SM OVC065 M01/M08 A2996 4340 60 3500 140/06 RMK AO2 T10111078
94299KAAT AAT20160103021511401/03/16 02:15:31  5-MIN KAAT 031015Z AUTO 16004KT 10SM OVC070 M01/M08 A2996 4340 60 3500 150/04 RMK AO2 T10111078
94299KAAT AAT20160103022011401/03/16 02:20:31  5-MIN KAAT 031020Z AUTO 15003KT 10SM OVC070 M01/M08 A2996 4340 60 3500 140/03 RMK AO2 T10111078
94299KAAT AAT20160103022512101/03/16 02:25:31  5-MIN KAAT 031025Z AUTO 13003KT 10SM BKN070 OVC085 M02/M07 A2996 4340 66 3400 120/03 RMK AO2 T10171072
94299KAAT AAT20160103023012101/03/16 02:30:31  5-MIN KAAT 031030Z AUTO 16004KT 10SM BKN075 OVC090 M01/M07 A2996 4340 63 3500 150/04 RMK AO2 T10111072
94299KAAT AAT20160103023512101/03/16 02:35:31  5-MIN KAAT 031035Z AUTO 10004KT 10SM BKN075 OVC090 M01/M08 A2996 4340 60 3500 090/04 RMK AO2 T10111078
94299KAAT AAT20160103024012101/03/16 02:40:31  5-MIN KAAT 031040Z AUTO 11003KT 10SM SCT075 OVC090 M02/M07 A2996 4350 66 3400 090/03 RMK AO2 T10171072
94299KAAT AAT20160103024512101/03/16 02:45:31  5-MIN KAAT 031045Z AUTO 10005KT 10SM SCT075 OVC095 M01/M07 A2996 4350 63 3500 090/05 RMK AO2 T10111072
94299KAAT AAT20160103025012801/03/16 02:50:31  5-MIN KAAT 031050Z AUTO 10004KT 10SM FEW080 OVC095 M01/M07 A2996 4350 63 3500 090/04 RMK AO2 SLP163 T10111072
94299KAAT AAT20160103025512801/03/16 02:55:31  5-MIN KAAT 031055Z AUTO 11004KT 10SM FEW080 OVC100 M02/M07 A2996 4350 66 3400 090/04 RMK AO2 SLP164 T10171072
94299KAAT AAT20160103030011401/03/16 03:00:31  5-MIN KAAT 031100Z AUTO 11005KT 10SM OVC100 M01/M07 A2995 4350 63 3500 100/05 RMK AO2 T10111072
94299KAAT AAT20160103030511401/03/16 03:05:31  5-MIN KAAT 031105Z AUTO 13006KT 10SM OVC100 M01/M07 A2995 4350 63 3500 110/06 RMK AO2 T10111072
94299KAAT AAT20160103031011401/03/16 03:10:31  5-MIN KAAT 031110Z AUTO 13006KT 10SM OVC100 M01/M08 A2995 4350 60 3500 120/06 RMK AO2 T10111078
94299KAAT AAT20160103031511401/03/16 03:15:31  5-MIN KAAT 031115Z AUTO 13007KT 10SM OVC100 M01/M07 A2995 4350 63 3500 120/07 RMK AO2 T10111072
94299KAAT AAT20160103032011401/03/16 03:20:31  5-MIN KAAT 031120Z AUTO 13006KT 10SM OVC100 M02/M07 A2995 4350 66 3400 110/06 RMK AO2 T10171072
94299KAAT AAT20160103032511401/03/16 03:25:31  5-MIN KAAT 031125Z AUTO 14007KT 10SM OVC100 M02/M07 A2995 4350 66 3400 120/07 RMK AO2 T10171072
94299KAAT AAT20160103033011401/03/16 03:30:31  5-MIN KAAT 031130Z AUTO 14006KT 10SM OVC100 M02/M07 A2995 4350 66 3400 130/06 RMK AO2 T10171072
94299KAAT AAT20160103033511401/03/16 03:35:31  5-MIN KAAT 031135Z AUTO 16006KT 10SM OVC095 M02/M07 A2995 4350 66 3400 150/06 RMK AO2 T10171072
94299KAAT AAT20160103034011401/03/16 03:40:31  5-MIN KAAT 031140Z AUTO 15008KT 10SM OVC095 M02/M07 A2995 4350 66 3400 140/08 RMK AO2 T10171072
94299KAAT AAT20160103034511401/03/16 03:45:31  5-MIN KAAT 031145Z AUTO 15007KT 10SM OVC100 M02/M07 A2995 4360 66 3400 140/07 RMK AO2 T10171072
94299KAAT AAT20160103035013901/03/16 03:50:31  5-MIN KAAT 031150Z AUTO 15007KT 10SM OVC100 M02/M07 A2994 4360 66 3400 130/07 RMK AO2 SLP160 T10171072 11011 21028 58008
94299KAAT AAT20160103035513901/03/16 03:55:31  5-MIN KAAT 031155Z AUTO 15007KT 10SM OVC100 M02/M07 A2994 4360 66 3400 130/07 RMK AO2 SLP160 T10171072 11011 21028 58010
94299KAAT AAT20160103040011401/03/16 04:00:31  5-MIN KAAT 031200Z AUTO 15009KT 10SM OVC100 M02/M07 A2994 4360 66 3400 130/09 RMK AO2 T10171072
94299KAAT AAT20160103040511401/03/16 04:05:31  5-MIN KAAT 031205Z AUTO 16008KT 10SM OVC100 M02/M07 A2994 4360 66 3400 140/08 RMK AO2 T10171072
94299KAAT AAT20160103041011401/03/16 04:10:31  5-MIN KAAT 031210Z AUTO 16008KT 10SM OVC100 M02/M07 A2994 4360 66 3400 150/08 RMK AO2 T10171072
94299KAAT AAT20160103041511401/03/16 04:15:31  5-MIN KAAT 031215Z AUTO 15008KT 10SM OVC100 M01/M07 A2994 4360 63 3500 140/08 RMK AO2 T10111072
94299KAAT AAT20160103042011401/03/16 04:20:31  5-MIN KAAT 031220Z AUTO 15008KT 10SM OVC100 M02/M07 A2994 4360 66 3400 140/08 RMK AO2 T10171072
94299KAAT AAT20160103042511401/03/16 04:25:31  5-MIN KAAT 031225Z AUTO 17006KT 10SM OVC095 M01/M07 A2994 4360 63 3500 150/06 RMK AO2 T10111072
94299KAAT AAT20160103043012101/03/16 04:30:31  5-MIN KAAT 031230Z AUTO 17008KT 10SM BKN090 OVC100 M02/M07 A2994 4360 66 3400 160/08 RMK AO2 T10171072
94299KAAT AAT20160103043512101/03/16 04:35:31  5-MIN KAAT 031235Z AUTO 18009KT 10SM BKN075 OVC100 M02/M07 A2995 4360 69 3400 170/09 RMK AO2 T10171067
94299KAAT AAT20160103044012101/03/16 04:40:31  5-MIN KAAT 031240Z AUTO 18009KT 10SM BKN080 OVC100 M01/M08 A2995 4360 60 3500 160/09 RMK AO2 T10111078
94299KAAT AAT20160103044512101/03/16 04:45:31  5-MIN KAAT 031245Z AUTO 16008KT 10SM BKN080 OVC100 M01/M08 A2994 4360 60 3500 150/08 RMK AO2 T10111078
94299KAAT AAT20160103045012101/03/16 04:50:31  5-MIN KAAT 031250Z AUTO 16009KT 10SM OVC080 M01/M08 A2994 4370 60 3500 140/09 RMK AO2 SLP159 T10111078
94299KAAT AAT20160103045512101/03/16 04:55:31  5-MIN KAAT 031255Z AUTO 15011KT 10SM OVC080 M01/M08 A2994 4370 60 3500 130/11 RMK AO2 SLP159 T10111078
94299KAAT AAT20160103050013001/03/16 05:00:31  5-MIN KAAT 031300Z AUTO 12012KT 360V140 10SM OVC080 M01/M07 A2993 4370 63 3500 110/12 350V130 RMK AO2 T10111072
94299KAAT AAT20160103050512001/03/16 05:05:31  5-MIN KAAT 031305Z AUTO 14013G17KT 10SM OVC080 M01/M08 A2993 4370 60 3500 120/13G17 RMK AO2 T10111078
94299KAAT AAT20160103051011401/03/16 05:10:31  5-MIN KAAT 031310Z AUTO 14010KT 10SM OVC075 M01/M07 A2994 4370 63 3500 130/10 RMK AO2 T10111072
94299KAAT AAT20160103051511401/03/16 05:15:31  5-MIN KAAT 031315Z AUTO 15008KT 10SM OVC070 M01/M07 A2994 4360 66 3500 130/08 RMK AO2 T10111067
94299KAAT AAT20160103052011401/03/16 05:20:31  5-MIN KAAT 031320Z AUTO 16008KT 10SM OVC070 M01/M07 A2994 4360 63 3500 150/08 RMK AO2 T10111072
94299KAAT AAT20160103052511401/03/16 05:25:31  5-MIN KAAT 031325Z AUTO 19008KT 10SM OVC070 M01/M07 A2994 4360 66 3500 170/08 RMK AO2 T10111067
94299KAAT AAT20160103053011401/03/16 05:30:31  5-MIN KAAT 031330Z AUTO 18011KT 10SM OVC070 M01/M07 A2994 4360 66 3500 170/11 RMK AO2 T10111067
94299KAAT AAT20160103053512101/03/16 05:35:31  5-MIN KAAT 031335Z AUTO 18011KT 10SM BKN070 OVC095 M01/M07 A2994 4360 66 3500 160/11 RMK AO2 T10111067
94299KAAT AAT20160103054012801/03/16 05:40:31  5-MIN KAAT 031340Z AUTO 17011KT 10SM BKN070 BKN090 OVC110 M02/M07 A2994 4370 69 3400 150/11 RMK AO2 T10171067
94299KAAT AAT20160103054512801/03/16 05:45:31  5-MIN KAAT 031345Z AUTO 17013KT 10SM SCT070 BKN090 OVC110 M02/M07 A2993 4370 66 3400 150/13 RMK AO2 T10171072
94299KAAT AAT20160103055013501/03/16 05:50:31  5-MIN KAAT 031350Z AUTO 16013KT 10SM SCT070 BKN085 OVC110 M02/M07 A2993 4370 69 3400 150/13 RMK AO2 SLP159 T10171067
94299KAAT AAT20160103055513501/03/16 05:55:31  5-MIN KAAT 031355Z AUTO 17012KT 10SM BKN070 BKN090 OVC100 M02/M07 A2993 4370 66 3400 150/12 RMK AO2 SLP160 T10171072
94299KAAT AAT20160103060012801/03/16 06:00:31  5-MIN KAAT 031400Z AUTO 17012KT 10SM BKN065 BKN090 OVC100 M02/M07 A2994 4370 66 3400 150/12 RMK AO2 T10171072
94299KAAT AAT20160103060512801/03/16 06:05:31  5-MIN KAAT 031405Z AUTO 17012KT 10SM BKN065 BKN085 OVC110 M02/M07 A2994 4370 69 3400 160/12 RMK AO2 T10171067
94299KAAT AAT20160103061012101/03/16 06:10:31  5-MIN KAAT 031410Z AUTO 17013KT 10SM BKN065 OVC085 M02/M07 A2994 4360 69 3400 160/13 RMK AO2 T10171067
94299KAAT AAT20160103061511401/03/16 06:15:31  5-MIN KAAT 031415Z AUTO 17012KT 10SM OVC065 M02/M07 A2994 4360 69 3400 150/12 RMK AO2 T10171067
94299KAAT AAT20160103062011401/03/16 06:20:31  5-MIN KAAT 031420Z AUTO 17012KT 10SM OVC065 M02/M07 A2994 4360 69 3400 160/12 RMK AO2 T10171067
94299KAAT AAT20160103062511401/03/16 06:25:31  5-MIN KAAT 031425Z AUTO 17012KT 10SM OVC065 M02/M07 A2994 4360 69 3400 160/12 RMK AO2 T10221072
94299KAAT AAT20160103063011401/03/16 06:30:31  5-MIN KAAT 031430Z AUTO 18012KT 10SM OVC065 M02/M07 A2995 4360 72 3400 160/12 RMK AO2 T10221067
94299KAAT AAT20160103063511401/03/16 06:35:31  5-MIN KAAT 031435Z AUTO 18011KT 10SM OVC065 M02/M07 A2995 4350 72 3400 160/11 RMK AO2 T10221067
94299KAAT AAT20160103064011401/03/16 06:40:31  5-MIN KAAT 031440Z AUTO 18013KT 10SM OVC065 M02/M07 A2995 4350 72 3300 170/13 RMK AO2 T10221067
94299KAAT AAT20160103064511401/03/16 06:45:31  5-MIN KAAT 031445Z AUTO 19010KT 10SM OVC065 M02/M07 A2996 4350 72 3300 170/10 RMK AO2 T10221067
94299KAAT AAT20160103065012701/03/16 06:50:31  5-MIN KAAT 031450Z AUTO 18009KT 10SM OVC065 M02/M07 A2996 4350 72 3300 170/09 RMK AO2 SLP168 T10221067 58010
94299KAAT AAT20160103065512701/03/16 06:55:31  5-MIN KAAT 031455Z AUTO 19009KT 10SM OVC065 M02/M07 A2996 4350 72 3300 170/09 RMK AO2 SLP167 T10221067 53005
94299KAAT AAT20160103070011401/03/16 07:00:31  5-MIN KAAT 031500Z AUTO 19007KT 10SM OVC060 M02/M07 A2996 4350 72 3300 170/07 RMK AO2 T10221067
94299KAAT AAT20160103070511401/03/16 07:05:31  5-MIN KAAT 031505Z AUTO 20007KT 10SM OVC060 M02/M07 A2996 4350 72 3300 190/07 RMK AO2 T10221067
94299KAAT AAT20160103071011401/03/16 07:10:31  5-MIN KAAT 031510Z AUTO 19005KT 10SM OVC060 M02/M07 A2996 4350 72 3300 180/05 RMK AO2 T10221067
94299KAAT AAT20160103071512101/03/16 07:15:31  5-MIN KAAT 031515Z AUTO 21007KT 10SM BKN060 OVC075 M02/M07 A2996 4340 72 3300 200/07 RMK AO2 T10221067
94299KAAT AAT20160103072012101/03/16 07:20:31  5-MIN KAAT 031520Z AUTO 21007KT 10SM BKN060 OVC075 M02/M07 A2996 4340 72 3300 190/07 RMK AO2 T10221067
94299KAAT AAT20160103072512101/03/16 07:25:31  5-MIN KAAT 031525Z AUTO 19005KT 10SM BKN060 OVC075 M02/M07 A2997 4340 72 3300 180/05 RMK AO2 T10221067
94299KAAT AAT20160103073012101/03/16 07:30:31  5-MIN KAAT 031530Z AUTO 17004KT 10SM BKN060 OVC075 M02/M07 A2997 4340 72 3300 160/04 RMK AO2 T10221067
94299KAAT AAT20160103073512101/03/16 07:35:31  5-MIN KAAT 031535Z AUTO 17004KT 10SM BKN060 OVC075 M02/M07 A2997 4330 69 3400 160/04 RMK AO2 T10171067
94299KAAT AAT20160103074011401/03/16 07:40:31  5-MIN KAAT 031540Z AUTO 14003KT 10SM OVC060 M02/M07 A2997 4330 69 3400 130/03 RMK AO2 T10171067
94299KAAT AAT20160103074511401/03/16 07:45:31  5-MIN KAAT 031545Z AUTO 00000KT 10SM OVC060 M02/M07 A2997 4330 69 3400 000/00 RMK AO2 T10171067
94299KAAT AAT20160103075012101/03/16 07:50:31  5-MIN KAAT 031550Z AUTO 00000KT 10SM OVC060 M01/M07 A2998 4330 66 3500 000/00 RMK AO2 SLP171 T10111067
94299KAAT AAT20160103075512101/03/16 07:55:31  5-MIN KAAT 031555Z AUTO 00000KT 10SM OVC060 M01/M07 A2997 4330 66 3500 000/00 RMK AO2 SLP171 T10111067
94299KAAT AAT20160103080011301/03/16 08:00:31  5-MIN KAAT 031600Z AUTO 00000KT 8SM BKN060 M02/M06 A2998 4330 72 3400 000/00 RMK AO2 T10171061
94299KAAT AAT20160103080511301/03/16 08:05:31  5-MIN KAAT 031605Z AUTO 14003KT 8SM BKN060 M01/M07 A2997 4330 63 3500 120/03 RMK AO2 T10111072
94299KAAT AAT20160103081011401/03/16 08:10:31  5-MIN KAAT 031610Z AUTO 00000KT 10SM SCT060 M01/M07 A2997 4340 63 3500 000/00 RMK AO2 T10111072
94299KAAT AAT20160103081511401/03/16 08:15:31  5-MIN KAAT 031615Z AUTO 00000KT 10SM SCT065 M01/M07 A2997 4340 63 3500 000/00 RMK AO2 T10111072
94299KAAT AAT20160103082011301/03/16 08:20:31  5-MIN KAAT 031620Z AUTO 00000KT 9SM BKN070 M01/M07 A2997 4340 66 3500 000/00 RMK AO2 T10111067
94299KAAT AAT20160103082512001/03/16 08:25:31  5-MIN KAAT 031625Z AUTO 00000KT 9SM SCT070 BKN110 M01/M07 A2997 4340 66 3500 000/00 RMK AO2 T10111067
94299KAAT AAT20160103083012001/03/16 08:30:31  5-MIN KAAT 031630Z AUTO 00000KT 9SM SCT075 BKN110 M01/M07 A2996 4340 61 3500 000/00 RMK AO2 T10061072
94299KAAT AAT20160103083512101/03/16 08:35:31  5-MIN KAAT 031635Z AUTO 00000KT 10SM BKN080 BKN110 M01/M07 A2996 4340 66 3500 000/00 RMK AO2 T10111067
94299KAAT AAT20160103084012101/03/16 08:40:31  5-MIN KAAT 031640Z AUTO 18004KT 10SM BKN080 BKN110 M01/M07 A2996 4340 61 3500 160/04 RMK AO2 T10061072
94299KAAT AAT20160103084512001/03/16 08:45:31  5-MIN KAAT 031645Z AUTO 18004KT 10SM SCT080 BKN110 00/M08 A2996 4340 56 3600 170/04 RMK AO2 T00001078
94299KAAT AAT20160103085012701/03/16 08:50:31  5-MIN KAAT 031650Z AUTO 19003KT 10SM FEW080 SCT110 00/M07 A2996 4340 58 3600 180/03 RMK AO2 SLP166 T00001072
94299KAAT AAT20160103085512701/03/16 08:55:31  5-MIN KAAT 031655Z AUTO 20004KT 10SM FEW080 BKN100 00/M07 A2996 4340 58 3600 180/04 RMK AO2 SLP165 T00001072
94299KAAT AAT20160103090012001/03/16 09:00:31  5-MIN KAAT 031700Z AUTO VRB04KT 10SM FEW080 BKN110 00/M07 A2996 4340 58 3600 VRB/04 RMK AO2 T00001072
94299KAAT AAT20160103090511301/03/16 09:05:31  5-MIN KAAT 031705Z AUTO 24005KT 10SM BKN110 00/M07 A2996 4340 58 3600 230/05 RMK AO2 T00001072
94299KAAT AAT20160103091011301/03/16 09:10:31  5-MIN KAAT 031710Z AUTO VRB04KT 10SM BKN110 00/M08 A2996 4340 56 3600 VRB/04 RMK AO2 T00001078
94299KAAT AAT20160103091511301/03/16 09:15:31  5-MIN KAAT 031715Z AUTO 22004KT 10SM BKN110 00/M07 A2996 4350 58 3600 210/04 RMK AO2 T00001072
94299KAAT AAT20160103092011301/03/16 09:20:31  5-MIN KAAT 031720Z AUTO 22005KT 10SM BKN110 00/M07 A2996 4350 58 3600 200/05 RMK AO2 T00001072
94299KAAT AAT20160103092511301/03/16 09:25:31  5-MIN KAAT 031725Z AUTO 20005KT 10SM SCT110 00/M07 A2996 4350 58 3600 190/05 RMK AO2 T00001072
94299KAAT AAT20160103093011301/03/16 09:30:31  5-MIN KAAT 031730Z AUTO 18005KT 10SM FEW110 00/M07 A2996 4350 58 3600 170/05 RMK AO2 T00001072
94299KAAT AAT20160103093511301/03/16 09:35:31  5-MIN KAAT 031735Z AUTO 18003KT 10SM FEW110 00/M07 A2996 4340 61 3600 170/03 RMK AO2 T00001067
94299KAAT AAT20160103094011001/03/16 09:40:31  5-MIN KAAT 031740Z AUTO 00000KT 10SM CLR 01/M07 A2996 4340 58 3700 000/00 RMK AO2 T00061067
94299KAAT AAT20160103094511001/03/16 09:45:31  5-MIN KAAT 031745Z AUTO VRB05KT 10SM CLR 01/M08 A2996 4350 51 3800 VRB/05 RMK AO2 T00111078
94299KAAT AAT20160103095013501/03/16 09:50:31  5-MIN KAAT 031750Z AUTO 19005KT 10SM CLR 01/M08 A2996 4340 51 3700 180/05 RMK AO2 SLP162 T00111078 10011 21022 53005
94299KAAT AAT20160103095513501/03/16 09:55:31  5-MIN KAAT 031755Z AUTO VRB03KT 10SM CLR 01/M07 A2996 4340 54 3700 VRB/03 RMK AO2 SLP162 T00111072 10011 21022 50002
94299KAAT AAT20160103100011001/03/16 10:00:31  5-MIN KAAT 031800Z AUTO 22006KT 10SM CLR 02/M07 A2996 4340 52 3800 200/06 RMK AO2 T00171072
94299KAAT AAT20160103100511001/03/16 10:05:31  5-MIN KAAT 031805Z AUTO 23004KT 10SM CLR 02/M07 A2996 4340 52 3800 210/04 RMK AO2 T00171072
94299KAAT AAT20160103101011301/03/16 10:10:31  5-MIN KAAT 031810Z AUTO 00000KT 10SM FEW120 02/M07 A2996 4340 52 3800 000/00 RMK AO2 T00171072
94299KAAT AAT20160103101511001/03/16 10:15:31  5-MIN KAAT 031815Z AUTO 00000KT 10SM CLR 02/M07 A2996 4340 52 3800 000/00 RMK AO2 T00171072
94299KAAT AAT20160103102011001/03/16 10:20:31  5-MIN KAAT 031820Z AUTO 00000KT 10SM CLR 02/M07 A2996 4340 50 3900 000/00 RMK AO2 T00221072
94299KAAT AAT20160103102511001/03/16 10:25:31  5-MIN KAAT 031825Z AUTO 31004KT 10SM CLR 02/M07 A2996 4340 50 3900 290/04 RMK AO2 T00221072
94299KAAT AAT20160103103011001/03/16 10:30:31  5-MIN KAAT 031830Z AUTO 28005KT 10SM CLR 02/M07 A2996 4340 52 3900 270/05 RMK AO2 T00221067
94299KAAT AAT20160103103511001/03/16 10:35:31  5-MIN KAAT 031835Z AUTO 26004KT 10SM CLR 02/M07 A2996 4350 54 3800 240/04 RMK AO2 T00171067
94299KAAT AAT20160103104011001/03/16 10:40:31  5-MIN KAAT 031840Z AUTO 00000KT 10SM CLR 02/M07 A2996 4350 52 3900 000/00 RMK AO2 T00221067
94299KAAT AAT20160103104511001/03/16 10:45:31  5-MIN KAAT 031845Z AUTO VRB04KT 10SM CLR 02/M07 A2996 4350 52 3900 VRB/04 RMK AO2 T00221067
94299KAAT AAT20160103105013301/03/16 10:50:31  5-MIN KAAT 031850Z AUTO 22007KT 180V270 10SM CLR 03/M07 A2996 4350 50 4000 210/07 170V260 RMK AO2 SLP157 T00281067
94299KAAT AAT20160103105511701/03/16 10:55:31  5-MIN KAAT 031855Z AUTO 16006KT 10SM CLR 03/M06 A2996 4350 50 4000 150/06 RMK AO2 SLP157 T00331061
94299KAAT AAT20160103110011001/03/16 11:00:31  5-MIN KAAT 031900Z AUTO 00000KT 10SM CLR 03/M06 A2995 4350 52 4000 000/00 RMK AO2 T00331056
94299KAAT AAT20160103110511001/03/16 11:05:31  5-MIN KAAT 031905Z AUTO 00000KT 10SM CLR 03/M06 A2995 4360 50 4000 000/00 RMK AO2 T00331061
94299KAAT AAT20160103111011001/03/16 11:10:31  5-MIN KAAT 031910Z AUTO 00000KT 10SM CLR 03/M07 A2995 4360 48 4000 000/00 RMK AO2 T00331067
94299KAAT AAT20160103111511001/03/16 11:15:31  5-MIN KAAT 031915Z AUTO VRB03KT 10SM CLR 04/M07 A2994 4360 46 4100 VRB/03 RMK AO2 T00391067
94299KAAT AAT20160103112011001/03/16 11:20:31  5-MIN KAAT 031920Z AUTO 08003KT 10SM CLR 04/M07 A2994 4360 46 4100 070/03 RMK AO2 T00391067
94299KAAT AAT20160103112511001/03/16 11:25:31  5-MIN KAAT 031925Z AUTO 00000KT 10SM CLR 04/M06 A2994 4370 48 4100 000/00 RMK AO2 T00391061
94299KAAT AAT20160103113011001/03/16 11:30:31  5-MIN KAAT 031930Z AUTO 00000KT 10SM CLR 03/M06 A2993 4370 50 4000 000/00 RMK AO2 T00331061
94299KAAT AAT20160103113511001/03/16 11:35:31  5-MIN KAAT 031935Z AUTO 33004KT 10SM CLR 03/M06 A2993 4370 50 4000 320/04 RMK AO2 T00331061
94299KAAT AAT20160103114011001/03/16 11:40:31  5-MIN KAAT 031940Z AUTO 36004KT 10SM CLR 03/M06 A2993 4370 52 4100 350/04 RMK AO2 T00331056
94299KAAT AAT20160103114511001/03/16 11:45:31  5-MIN KAAT 031945Z AUTO 05004KT 10SM CLR 04/M06 A2993 4370 46 4200 030/04 RMK AO2 T00441061
94299KAAT AAT20160103115011701/03/16 11:50:31  5-MIN KAAT 031950Z AUTO 08003KT 10SM CLR 04/M06 A2993 4380 48 4100 060/03 RMK AO2 SLP147 T00391061
94299KAAT AAT20160103115511701/03/16 11:55:31  5-MIN KAAT 031955Z AUTO 05004KT 10SM CLR 04/M06 A2992 4380 46 4200 040/04 RMK AO2 SLP143 T00441061
94299KAAT AAT20160103120011001/03/16 12:00:31  5-MIN KAAT 032000Z AUTO 07003KT 10SM CLR 04/M06 A2992 4380 48 4200 060/03 RMK AO2 T00441056
94299KAAT AAT20160103120511001/03/16 12:05:31  5-MIN KAAT 032005Z AUTO 00000KT 10SM CLR 04/M06 A2992 4380 48 4200 000/00 RMK AO2 T00441056
94299KAAT AAT20160103121011001/03/16 12:10:31  5-MIN KAAT 032010Z AUTO 00000KT 10SM CLR 04/M06 A2992 4380 48 4200 000/00 RMK AO2 T00441056
94299KAAT AAT20160103121511001/03/16 12:15:31  5-MIN KAAT 032015Z AUTO 12003KT 10SM CLR 04/M06 A2992 4380 50 4100 110/03 RMK AO2 T00391056
94299KAAT AAT20160103122011001/03/16 12:20:31  5-MIN KAAT 032020Z AUTO 12003KT 10SM CLR 04/M06 A2992 4380 50 4100 110/03 RMK AO2 T00391056
94299KAAT AAT20160103122511001/03/16 12:25:31  5-MIN KAAT 032025Z AUTO 15004KT 10SM CLR 04/M06 A2992 4380 50 4100 130/04 RMK AO2 T00391056
94299KAAT AAT20160103123011301/03/16 12:30:31  5-MIN KAAT 032030Z AUTO 12004KT 10SM FEW110 03/M06 A2991 4390 52 4100 100/04 RMK AO2 T00331056
94299KAAT AAT20160103123511301/03/16 12:35:31  5-MIN KAAT 032035Z AUTO 12004KT 10SM SCT110 03/M06 A2991 4390 52 4100 100/04 RMK AO2 T00331056
94299KAAT AAT20160103124011301/03/16 12:40:31  5-MIN KAAT 032040Z AUTO 13004KT 10SM SCT110 03/M05 A2991 4390 54 4100 120/04 RMK AO2 T00331050
94299KAAT AAT20160103124511301/03/16 12:45:31  5-MIN KAAT 032045Z AUTO 14004KT 10SM BKN110 03/M06 A2990 4400 52 4100 130/04 RMK AO2 T00331056
94299KAAT AAT20160103125012601/03/16 12:50:31  5-MIN KAAT 032050Z AUTO 16003KT 10SM BKN110 03/M06 A2990 4400 52 4100 140/03 RMK AO2 SLP136 T00331056 50002
94299KAAT AAT20160103125512601/03/16 12:55:31  5-MIN KAAT 032055Z AUTO 15003KT 10SM BKN110 03/M05 A2990 4400 54 4100 130/03 RMK AO2 SLP135 T00331050 58018
94299KAAT AAT20160103130011301/03/16 13:00:31  5-MIN KAAT 032100Z AUTO 14004KT 10SM BKN110 03/M05 A2990 4400 54 4100 130/04 RMK AO2 T00331050
94299KAAT AAT20160103130511301/03/16 13:05:31  5-MIN KAAT 032105Z AUTO 14006KT 10SM BKN100 04/M05 A2989 4400 52 4200 130/06 RMK AO2 T00391050
94299KAAT AAT20160103131011301/03/16 13:10:31  5-MIN KAAT 032110Z AUTO 14005KT 10SM BKN100 03/M04 A2989 4410 57 4100 120/05 RMK AO2 T00331044
94299KAAT AAT20160103131511301/03/16 13:15:31  5-MIN KAAT 032115Z AUTO 15003KT 10SM SCT100 04/M04 A2990 4400 54 4200 140/03 RMK AO2 T00391044
94299KAAT AAT20160103132011301/03/16 13:20:31  5-MIN KAAT 032120Z AUTO 14003KT 10SM SCT100 04/M04 A2989 4410 54 4200 130/03 RMK AO2 T00391044
94299KAAT AAT20160103132511301/03/16 13:25:31  5-MIN KAAT 032125Z AUTO 00000KT 10SM FEW100 04/M04 A2989 4410 54 4200 000/00 RMK AO2 T00391044
94299KAAT AAT20160103133011301/03/16 13:30:31  5-MIN KAAT 032130Z AUTO 00000KT 10SM FEW110 04/M04 A2989 4410 54 4200 000/00 RMK AO2 T00391044
94299KAAT AAT20160103133511001/03/16 13:35:31  5-MIN KAAT 032135Z AUTO VRB04KT 10SM CLR 04/M04 A2989 4410 57 4200 VRB/04 RMK AO2 T00391039
94299KAAT AAT20160103134010001/03/16 13:40:31  5-MIN KAAT 032140Z AUTO 10SM CLR 04/M04 A2989 4410 57 4200 M /M RMK AO2 T00391039
94299KAAT AAT20160103134511001/03/16 13:45:31  5-MIN KAAT 032145Z AUTO 17008KT 10SM CLR 04/M04 A2989 4410 54 4200 150/08 RMK AO2 T00391044
94299KAAT AAT20160103135011701/03/16 13:50:31  5-MIN KAAT 032150Z AUTO 17012KT 10SM CLR 03/M04 A2989 4410 57 4100 160/12 RMK AO2 SLP131 T00331044
94299KAAT AAT20160103135511701/03/16 13:55:31  5-MIN KAAT 032155Z AUTO 18014KT 10SM CLR 03/M04 A2988 4410 57 4100 160/14 RMK AO2 SLP130 T00331044
94299KAAT AAT20160103140011001/03/16 14:00:31  5-MIN KAAT 032200Z AUTO 18013KT 10SM CLR 03/M04 A2988 4410 59 4100 160/13 RMK AO2 T00331039
94299KAAT AAT20160103140511001/03/16 14:05:31  5-MIN KAAT 032205Z AUTO 18012KT 10SM CLR 03/M04 A2988 4410 59 4100 170/12 RMK AO2 T00331039
94299KAAT AAT20160103141011301/03/16 14:10:31  5-MIN KAAT 032210Z AUTO 18013KT 10SM FEW120 03/M04 A2988 4420 59 4100 170/13 RMK AO2 T00331039
94299KAAT AAT20160103141511301/03/16 14:15:31  5-MIN KAAT 032215Z AUTO 18013KT 10SM FEW120 03/M04 A2988 4420 59 4100 160/13 RMK AO2 T00331039
94299KAAT AAT20160103142011301/03/16 14:20:31  5-MIN KAAT 032220Z AUTO 18013KT 10SM SCT110 03/M04 A2988 4410 59 4100 160/13 RMK AO2 T00331039
94299KAAT AAT20160103142511301/03/16 14:25:31  5-MIN KAAT 032225Z AUTO 18014KT 10SM SCT110 03/M04 A2989 4410 59 4100 170/14 RMK AO2 T00331039
94299KAAT AAT20160103143011301/03/16 14:30:31  5-MIN KAAT 032230Z AUTO 18012KT 10SM SCT110 03/M04 A2989 4410 59 4100 160/12 RMK AO2 T00331039
94299KAAT AAT20160103143511301/03/16 14:35:31  5-MIN KAAT 032235Z AUTO 17011KT 10SM SCT110 03/M04 A2989 4410 59 4100 150/11 RMK AO2 T00331039
94299KAAT AAT20160103144011301/03/16 14:40:31  5-MIN KAAT 032240Z AUTO 17010KT 10SM FEW110 03/M04 A2989 4410 57 4100 160/10 RMK AO2 T00331044
94299KAAT AAT20160103144511301/03/16 14:45:31  5-MIN KAAT 032245Z AUTO 17013KT 10SM FEW110 03/M04 A2989 4410 59 4100 160/13 RMK AO2 T00331039
94299KAAT AAT20160103145011701/03/16 14:50:31  5-MIN KAAT 032250Z AUTO 17011KT 10SM CLR 03/M04 A2989 4410 59 4100 150/11 RMK AO2 SLP131 T00331039
94299KAAT AAT20160103145512001/03/16 14:55:31  5-MIN KAAT 032255Z AUTO 16009KT 10SM FEW095 03/M04 A2989 4410 57 4100 150/09 RMK AO2 SLP131 T00331044
94299KAAT AAT20160103150011301/03/16 15:00:31  5-MIN KAAT 032300Z AUTO 16008KT 10SM FEW095 03/M04 A2989 4410 61 4000 150/08 RMK AO2 T00281039
94299KAAT AAT20160103150511001/03/16 15:05:31  5-MIN KAAT 032305Z AUTO 18009KT 10SM CLR 03/M04 A2989 4410 61 4000 160/09 RMK AO2 T00281039
94299KAAT AAT20160103151011001/03/16 15:10:31  5-MIN KAAT 032310Z AUTO 17010KT 10SM CLR 03/M03 A2989 4410 64 4000 160/10 RMK AO2 T00281033
94299KAAT AAT20160103151511301/03/16 15:15:31  5-MIN KAAT 032315Z AUTO 18010KT 10SM FEW120 03/M04 A2989 4410 61 4000 160/10 RMK AO2 T00281039
94299KAAT AAT20160103152011301/03/16 15:20:31  5-MIN KAAT 032320Z AUTO 17012KT 10SM FEW120 03/M04 A2989 4410 61 4000 160/12 RMK AO2 T00281039
94299KAAT AAT20160103152511301/03/16 15:25:31  5-MIN KAAT 032325Z AUTO 17012KT 10SM SCT120 03/M04 A2989 4410 59 4000 160/12 RMK AO2 T00281044
94299KAAT AAT20160103153011301/03/16 15:30:31  5-MIN KAAT 032330Z AUTO 17009KT 10SM BKN120 03/M04 A2989 4410 59 4000 150/09 RMK AO2 T00281044
94299KAAT AAT20160103153511301/03/16 15:35:31  5-MIN KAAT 032335Z AUTO 17010KT 10SM BKN120 03/M04 A2989 4410 61 4000 160/10 RMK AO2 T00281039
94299KAAT AAT20160103154011301/03/16 15:40:31  5-MIN KAAT 032340Z AUTO 16008KT 10SM BKN110 03/M04 A2989 4410 61 4000 150/08 RMK AO2 T00281039
94299KAAT AAT20160103154511301/03/16 15:45:31  5-MIN KAAT 032345Z AUTO 15007KT 10SM OVC110 03/M04 A2989 4410 61 4000 140/07 RMK AO2 T00281039
94299KAAT AAT20160103155013801/03/16 15:50:31  5-MIN KAAT 032350Z AUTO 13005KT 10SM OVC110 03/M04 A2989 4410 61 4000 120/05 RMK AO2 SLP135 T00281039 10044 20011 58018
94299KAAT AAT20160103155513801/03/16 15:55:31  5-MIN KAAT 032355Z AUTO 13003KT 10SM OVC110 03/M04 A2989 4410 61 4000 120/03 RMK AO2 SLP135 T00281039 10044 20011 55002
94299KAAT AAT20160103160011301/03/16 16:00:31  5-MIN KAAT 040000Z AUTO 00000KT 10SM OVC110 03/M04 A2989 4410 61 4000 000/00 RMK AO2 T00281039
94299KAAT AAT20160103160511301/03/16 16:05:31  5-MIN KAAT 040005Z AUTO 12005KT 10SM OVC110 03/M04 A2990 4400 61 4000 100/05 RMK AO2 T00281039
94299KAAT AAT20160103161011301/03/16 16:10:31  5-MIN KAAT 040010Z AUTO 12004KT 10SM OVC110 02/M04 A2989 4410 64 4000 100/04 RMK AO2 T00221039
94299KAAT AAT20160103161511301/03/16 16:15:31  5-MIN KAAT 040015Z AUTO 13003KT 10SM OVC100 02/M04 A2989 4410 64 4000 110/03 RMK AO2 T00221039
94299KAAT AAT20160103162011301/03/16 16:20:31  5-MIN KAAT 040020Z AUTO 14003KT 10SM OVC100 02/M03 A2989 4410 67 4000 120/03 RMK AO2 T00221033
94299KAAT AAT20160103162512001/03/16 16:25:31  5-MIN KAAT 040025Z AUTO 17006KT 10SM BKN100 OVC110 02/M04 A2989 4410 64 4000 150/06 RMK AO2 T00221039
94299KAAT AAT20160103163011301/03/16 16:30:31  5-MIN KAAT 040030Z AUTO 14006KT 10SM OVC100 02/M04 A2989 4410 61 4000 120/06 RMK AO2 T00221044
94299KAAT AAT20160103163511301/03/16 16:35:31  5-MIN KAAT 040035Z AUTO 13005KT 10SM OVC095 02/M04 A2989 4410 64 4000 120/05 RMK AO2 T00221039
94299KAAT AAT20160103164011301/03/16 16:40:31  5-MIN KAAT 040040Z AUTO 14004KT 10SM OVC090 02/M04 A2989 4410 64 4000 120/04 RMK AO2 T00221039
94299KAAT AAT20160103164511301/03/16 16:45:31  5-MIN KAAT 040045Z AUTO 15005KT 10SM OVC095 02/M04 A2989 4410 64 4000 140/05 RMK AO2 T00221039
94299KAAT AAT20160103165012001/03/16 16:50:31  5-MIN KAAT 040050Z AUTO 13004KT 10SM OVC090 02/M04 A2990 4400 61 4000 120/04 RMK AO2 SLP136 T00221044
94299KAAT AAT20160103165512001/03/16 16:55:31  5-MIN KAAT 040055Z AUTO 14004KT 10SM OVC095 02/M04 A2990 4400 61 4000 120/04 RMK AO2 SLP136 T00221044
94299KAAT AAT20160103170011301/03/16 17:00:31  5-MIN KAAT 040100Z AUTO 13003KT 10SM OVC095 02/M04 A2990 4400 61 4000 110/03 RMK AO2 T00221044
94299KAAT AAT20160103170511301/03/16 17:05:31  5-MIN KAAT 040105Z AUTO VRB04KT 10SM OVC090 02/M04 A2990 4400 61 4000 VRB/04 RMK AO2 T00221044
94299KAAT AAT20160103171011301/03/16 17:10:31  5-MIN KAAT 040110Z AUTO 08003KT 10SM OVC090 02/M04 A2990 4400 64 4000 060/03 RMK AO2 T00221039
94299KAAT AAT20160103171511301/03/16 17:15:31  5-MIN KAAT 040115Z AUTO VRB04KT 10SM OVC090 02/M04 A2990 4400 66 3900 VRB/04 RMK AO2 T00171039
94299KAAT AAT20160103172011301/03/16 17:20:31  5-MIN KAAT 040120Z AUTO 11004KT 10SM OVC090 02/M04 A2990 4400 66 3900 090/04 RMK AO2 T00171039
94299KAAT AAT20160103172511901/03/16 17:25:31  5-MIN KAAT 040125Z AUTO 14008G14KT 10SM OVC085 02/M04 A2990 4400 61 4000 120/08G14 RMK AO2 T00221044
94299KAAT AAT20160103173011301/03/16 17:30:31  5-MIN KAAT 040130Z AUTO 14008KT 10SM OVC090 02/M04 A2990 4400 61 4000 120/08 RMK AO2 T00221044
94299KAAT AAT20160103173511301/03/16 17:35:31  5-MIN KAAT 040135Z AUTO 14009KT 10SM OVC090 02/M05 A2990 4400 59 4000 120/09 RMK AO2 T00221050
94299KAAT AAT20160103174011301/03/16 17:40:31  5-MIN KAAT 040140Z AUTO 14009KT 10SM OVC090 02/M04 A2990 4400 64 3900 130/09 RMK AO2 T00171044
94299KAAT AAT20160103174511301/03/16 17:45:31  5-MIN KAAT 040145Z AUTO 15009KT 10SM OVC095 02/M05 A2990 4400 61 3900 140/09 RMK AO2 T00171050
94299KAAT AAT20160103175012001/03/16 17:50:31  5-MIN KAAT 040150Z AUTO 16009KT 10SM OVC090 02/M05 A2990 4400 61 3900 140/09 RMK AO2 SLP139 T00171050
94299KAAT AAT20160103175512001/03/16 17:55:31  5-MIN KAAT 040155Z AUTO 16008KT 10SM OVC090 02/M05 A2990 4400 61 3900 140/08 RMK AO2 SLP138 T00171050
94299KAAT AAT20160103180011301/03/16 18:00:31  5-MIN KAAT 040200Z AUTO 16009KT 10SM OVC095 02/M05 A2990 4400 61 3900 140/09 RMK AO2 T00171050
94299KAAT AAT20160103180511301/03/16 18:05:31  5-MIN KAAT 040205Z AUTO 16008KT 10SM OVC095 02/M05 A2990 4400 61 3900 150/08 RMK AO2 T00171050
94299KAAT AAT20160103181011301/03/16 18:10:31  5-MIN KAAT 040210Z AUTO 16008KT 10SM OVC090 02/M05 A2990 4400 61 3900 140/08 RMK AO2 T00171050
94299KAAT AAT20160103181512001/03/16 18:15:31  5-MIN KAAT 040215Z AUTO 17009KT 10SM FEW080 OVC090 02/M05 A2990 4400 61 3900 150/09 RMK AO2 T00171050
94299KAAT AAT20160103182012001/03/16 18:20:31  5-MIN KAAT 040220Z AUTO 17007KT 10SM FEW070 OVC090 02/M05 A2990 4400 61 3900 160/07 RMK AO2 T00171050
94299KAAT AAT20160103182512001/03/16 18:25:31  5-MIN KAAT 040225Z AUTO 17005KT 10SM FEW070 OVC090 02/M04 A2990 4400 64 3900 150/05 RMK AO2 T00171044
94299KAAT AAT20160103183011301/03/16 18:30:31  5-MIN KAAT 040230Z AUTO 13003KT 10SM OVC085 02/M04 A2990 4400 64 3900 110/03 RMK AO2 T00171044
94299KAAT AAT20160103183511301/03/16 18:35:31  5-MIN KAAT 040235Z AUTO 00000KT 10SM OVC085 02/M04 A2990 4400 64 3900 000/00 RMK AO2 T00171044
94299KAAT AAT20160103184011301/03/16 18:40:31  5-MIN KAAT 040240Z AUTO 08005KT 10SM OVC085 02/M04 A2990 4400 64 3900 070/05 RMK AO2 T00171044
94299KAAT AAT20160103184511301/03/16 18:45:31  5-MIN KAAT 040245Z AUTO 07004KT 10SM OVC090 02/M05 A2990 4400 61 3900 050/04 RMK AO2 T00171050
94299KAAT AAT20160103185012601/03/16 18:50:31  5-MIN KAAT 040250Z AUTO 09005KT 10SM OVC090 02/M05 A2990 4400 61 3900 070/05 RMK AO2 SLP139 T00171050 55002
94299KAAT AAT20160103185512601/03/16 18:55:31  5-MIN KAAT 040255Z AUTO 13004KT 10SM OVC090 02/M05 A2990 4400 61 3900 120/04 RMK AO2 SLP139 T00171050 51001
94299KAAT AAT20160103190011301/03/16 19:00:31  5-MIN KAAT 040300Z AUTO 12003KT 10SM OVC085 02/M06 A2990 4400 56 4000 100/03 RMK AO2 T00221056
94299KAAT AAT20160103190511301/03/16 19:05:31  5-MIN KAAT 040305Z AUTO 12004KT 10SM OVC090 02/M06 A2990 4400 59 3900 100/04 RMK AO2 T00171056
94299KAAT AAT20160103191011301/03/16 19:10:31  5-MIN KAAT 040310Z AUTO 09003KT 10SM OVC090 02/M05 A2990 4400 61 3900 080/03 RMK AO2 T00171050
94299KAAT AAT20160103191511301/03/16 19:15:31  5-MIN KAAT 040315Z AUTO 09004KT 10SM OVC095 01/M05 A2990 4400 64 3800 070/04 RMK AO2 T00111050
94299KAAT AAT20160103192011301/03/16 19:20:31  5-MIN KAAT 040320Z AUTO 12003KT 10SM OVC090 01/M05 A2990 4400 64 3800 110/03 RMK AO2 T00111050
94299KAAT AAT20160103192511301/03/16 19:25:31  5-MIN KAAT 040325Z AUTO 12005KT 10SM OVC090 02/M06 A2989 4410 59 3900 110/05 RMK AO2 T00171056
94299KAAT AAT20160103193011301/03/16 19:30:31  5-MIN KAAT 040330Z AUTO 10005KT 10SM OVC090 01/M06 A2989 4410 61 3800 090/05 RMK AO2 T00111056
94299KAAT AAT20160103193511301/03/16 19:35:31  5-MIN KAAT 040335Z AUTO 08005KT 10SM OVC090 01/M05 A2989 4410 66 3800 070/05 RMK AO2 T00061050
94299KAAT AAT20160103194011301/03/16 19:40:31  5-MIN KAAT 040340Z AUTO 05003KT 10SM OVC090 01/M05 A2989 4410 66 3800 040/03 RMK AO2 T00061050
94299KAAT AAT20160103194511301/03/16 19:45:31  5-MIN KAAT 040345Z AUTO 09004KT 10SM OVC090 00/M05 A2989 4410 69 3700 080/04 RMK AO2 T00001050
94299KAAT AAT20160103195012001/03/16 19:50:31  5-MIN KAAT 040350Z AUTO 12005KT 10SM OVC095 01/M06 A2989 4410 63 3800 100/05 RMK AO2 SLP135 T00061056
94299KAAT AAT20160103195512001/03/16 19:55:31  5-MIN KAAT 040355Z AUTO 09006KT 10SM OVC100 02/M06 A2988 4420 59 3900 070/06 RMK AO2 SLP132 T00171056
94299KAAT AAT20160103200011301/03/16 20:00:31  5-MIN KAAT 040400Z AUTO 09004KT 10SM BKN100 01/M06 A2988 4420 61 3800 070/04 RMK AO2 T00111056
94299KAAT AAT20160103200511301/03/16 20:05:31  5-MIN KAAT 040405Z AUTO 00000KT 10SM BKN100 01/M06 A2988 4410 63 3800 000/00 RMK AO2 T00061056
94299KAAT AAT20160103201011301/03/16 20:10:31  5-MIN KAAT 040410Z AUTO 00000KT 10SM OVC100 01/M06 A2988 4420 61 3800 000/00 RMK AO2 T00111056
94299KAAT AAT20160103201512001/03/16 20:15:31  5-MIN KAAT 040415Z AUTO 07004KT 10SM BKN090 OVC110 00/M06 A2987 4420 66 3700 060/04 RMK AO2 T00001056
94299KAAT AAT20160103202012001/03/16 20:20:31  5-MIN KAAT 040420Z AUTO 09004KT 10SM BKN090 OVC110 00/M06 A2988 4420 66 3700 080/04 RMK AO2 T00001056
94299KAAT AAT20160103202511301/03/16 20:25:31  5-MIN KAAT 040425Z AUTO 08004KT 10SM OVC090 00/M06 A2987 4420 66 3700 060/04 RMK AO2 T00001056
94299KAAT AAT20160103203011401/03/16 20:30:31  5-MIN KAAT 040430Z AUTO 09005KT 10SM OVC090 M01/M06 A2987 4420 72 3600 070/05 RMK AO2 T10111056
94299KAAT AAT20160103203511401/03/16 20:35:31  5-MIN KAAT 040435Z AUTO 07005KT 10SM BKN090 M01/M06 A2987 4430 72 3600 050/05 RMK AO2 T10111056
94299KAAT AAT20160103204011401/03/16 20:40:31  5-MIN KAAT 040440Z AUTO 08006KT 10SM BKN090 M01/M06 A2987 4430 72 3600 060/06 RMK AO2 T10111056
94299KAAT AAT20160103204511401/03/16 20:45:31  5-MIN KAAT 040445Z AUTO 07007KT 10SM SCT090 M02/M06 A2987 4430 75 3500 060/07 RMK AO2 T10171056
94299KAAT AAT20160103205012101/03/16 20:50:31  5-MIN KAAT 040450Z AUTO 08005KT 10SM SCT090 M02/M06 A2987 4430 75 3500 070/05 RMK AO2 SLP130 T10171056
94299KAAT AAT20160103205512101/03/16 20:55:31  5-MIN KAAT 040455Z AUTO 08005KT 10SM SCT100 M02/M06 A2987 4430 75 3500 070/05 RMK AO2 SLP130 T10171056
94299KAAT AAT20160103210011301/03/16 21:00:31  5-MIN KAAT 040500Z AUTO 09004KT 7SM SCT100 M02/M06 A2987 4430 75 3400 070/04 RMK AO2 T10221061
94299KAAT AAT20160103210511601/03/16 21:05:31  5-MIN KAAT 040505Z AUTO 08006KT 5SM HZ FEW100 M02/M06 A2987 4430 75 3400 060/06 RMK AO2 T10221061
94299KAAT AAT20160103211011601/03/16 21:10:31  5-MIN KAAT 040510Z AUTO 10005KT 6SM HZ FEW100 M02/M06 A2986 4430 75 3500 080/05 RMK AO2 T10221061
94299KAAT AAT20160103211511301/03/16 21:15:31  5-MIN KAAT 040515Z AUTO 10005KT 9SM FEW100 M02/M06 A2986 4430 75 3500 090/05 RMK AO2 T10221061
94299KAAT AAT20160103212011401/03/16 21:20:31  5-MIN KAAT 040520Z AUTO 10005KT 10SM FEW100 M02/M06 A2986 4430 72 3500 080/05 RMK AO2 T10171061
94299KAAT AAT20160103212511101/03/16 21:25:31  5-MIN KAAT 040525Z AUTO 11005KT 10SM CLR M02/M06 A2986 4430 75 3500 090/05 RMK AO2 T10221061
94299KAAT AAT20160103213011001/03/16 21:30:31  5-MIN KAAT 040530Z AUTO 10005KT 9SM CLR M02/M06 A2986 4430 75 3500 080/05 RMK AO2 T10221061
94299KAAT AAT20160103213511001/03/16 21:35:31  5-MIN KAAT 040535Z AUTO 12004KT 9SM CLR M02/M06 A2986 4430 75 3500 100/04 RMK AO2 T10221061
94299KAAT AAT20160103214011101/03/16 21:40:31  5-MIN KAAT 040540Z AUTO VRB03KT 10SM CLR M03/M07 A2986 4430 75 3400 VRB/03 RMK AO2 T10281067
94299KAAT AAT20160103214511301/03/16 21:45:31  5-MIN KAAT 040545Z AUTO 00000KT 9SM FEW120 M04/M07 A2986 4430 78 3200 000/00 RMK AO2 T10391072
94299KAAT AAT20160103215013801/03/16 21:50:31  5-MIN KAAT 040550Z AUTO 00000KT 9SM FEW120 M04/M07 A2986 4430 78 3200 000/00 RMK AO2 SLP130 T10391072 10028 21050 51001
94299KAAT AAT20160103215513801/03/16 21:55:31  5-MIN KAAT 040555Z AUTO 00000KT 9SM SCT120 M04/M07 A2986 4430 81 3200 000/00 RMK AO2 SLP132 T10441072 10028 21050 56010
94299KAAT AAT20160103220011301/03/16 22:00:31  5-MIN KAAT 040600Z AUTO 00000KT 7SM SCT120 M05/M07 A2986 4430 84 3100 000/00 RMK AO2 T10501072
94299KAAT AAT20160103220511601/03/16 22:05:31  5-MIN KAAT 040605Z AUTO 10003KT 6SM BR SCT120 M06/M08 A2986 4430 84 3000 080/03 RMK AO2 T10561078
94299KAAT AAT20160103221011301/03/16 22:10:31  5-MIN KAAT 040610Z AUTO 10004KT 7SM FEW120 M06/M08 A2986 4430 81 3000 080/04 RMK AO2 T10561083
94299KAAT AAT20160103221511601/03/16 22:15:31  5-MIN KAAT 040615Z AUTO 08006KT 6SM HZ FEW120 M04/M07 A2986 4440 81 3200 060/06 RMK AO2 T10441072
94299KAAT AAT20160103222011601/03/16 22:20:31  5-MIN KAAT 040620Z AUTO 09006KT 6SM HZ FEW120 M04/M07 A2986 4440 81 3200 070/06 RMK AO2 T10391067
94299KAAT AAT20160103222511001/03/16 22:25:31  5-MIN KAAT 040625Z AUTO 07007KT 8SM CLR M03/M06 A2986 4440 81 3300 060/07 RMK AO2 T10331061
94299KAAT AAT20160103223011101/03/16 22:30:31  5-MIN KAAT 040630Z AUTO 07008KT 10SM CLR M04/M07 A2986 4440 81 3200 050/08 RMK AO2 T10391067
94299KAAT AAT20160103223511101/03/16 22:35:31  5-MIN KAAT 040635Z AUTO 06008KT 10SM CLR M04/M07 A2986 4440 81 3200 040/08 RMK AO2 T10391067
94299KAAT AAT20160103224011101/03/16 22:40:31  5-MIN KAAT 040640Z AUTO 05007KT 10SM CLR M04/M07 A2986 4440 81 3300 040/07 RMK AO2 T10391067
94299KAAT AAT20160103224511101/03/16 22:45:31  5-MIN KAAT 040645Z AUTO 00000KT 10SM CLR M04/M06 A2986 4440 85 3300 000/00 RMK AO2 T10391061
94299KAAT AAT20160103225011801/03/16 22:50:31  5-MIN KAAT 040650Z AUTO 05005KT 10SM CLR M05/M07 A2985 4440 84 3100 030/05 RMK AO2 SLP127 T10501072
94299KAAT AAT20160103225511701/03/16 22:55:31  5-MIN KAAT 040655Z AUTO 05007KT 9SM CLR M04/M07 A2985 4440 81 3300 030/07 RMK AO2 SLP123 T10391067
94299KAAT AAT20160103230011001/03/16 23:00:31  5-MIN KAAT 040700Z AUTO 05006KT 9SM CLR M03/M07 A2985 4450 75 3400 040/06 RMK AO2 T10281067
94299KAAT AAT20160103230511101/03/16 23:05:31  5-MIN KAAT 040705Z AUTO 05006KT 10SM CLR M03/M07 A2985 4450 75 3400 040/06 RMK AO2 T10281067
94299KAAT AAT20160103231011101/03/16 23:10:31  5-MIN KAAT 040710Z AUTO 04006KT 10SM CLR M03/M07 A2985 4450 75 3400 030/06 RMK AO2 T10281067
94299KAAT AAT20160103231511401/03/16 23:15:31  5-MIN KAAT 040715Z AUTO VRB03KT 10SM FEW110 M03/M07 A2985 4450 78 3300 VRB/03 RMK AO2 T10331067
94299KAAT AAT20160103232011301/03/16 23:20:31  5-MIN KAAT 040720Z AUTO 00000KT 9SM FEW120 M04/M07 A2985 4450 81 3300 000/00 RMK AO2 T10391067
94299KAAT AAT20160103232511301/03/16 23:25:31  5-MIN KAAT 040725Z AUTO 00000KT 9SM FEW120 M04/M07 A2985 4450 81 3200 000/00 RMK AO2 T10441072
94299KAAT AAT20160103233011301/03/16 23:30:31  5-MIN KAAT 040730Z AUTO 00000KT 8SM SCT120 M04/M07 A2985 4450 81 3200 000/00 RMK AO2 T10441072
94299KAAT AAT20160103233511301/03/16 23:35:31  5-MIN KAAT 040735Z AUTO 07004KT 7SM BKN120 M04/M07 A2985 4450 78 3300 050/04 RMK AO2 T10391072
94299KAAT AAT20160103234011301/03/16 23:40:31  5-MIN KAAT 040740Z AUTO 00000KT 8SM BKN120 M04/M07 A2984 4450 81 3300 000/00 RMK AO2 T10391067
94299KAAT AAT20160103234511301/03/16 23:45:31  5-MIN KAAT 040745Z AUTO 07004KT 8SM BKN120 M04/M07 A2984 4450 81 3300 060/04 RMK AO2 T10391067
94299KAAT AAT20160103235013001/03/16 23:50:31  5-MIN KAAT 040750Z AUTO 07004KT 7SM BKN120 M04/M07 A2984 4450 81 3300 060/04 RMK AO2 SLP120 T10391067 400441056
94299KAAT AAT20160103235513001/03/16 23:55:31  5-MIN KAAT 040755Z AUTO 07004KT 7SM OVC120 M04/M07 A2984 4450 81 3300 060/04 RMK AO2 SLP118 T10391067 400441056
94299KAAT AAT20160104000011601/04/16 00:00:31  5-MIN KAAT 040800Z AUTO 06004KT 6SM HZ OVC120 M04/M07 A2984 4450 81 3300 050/04 RMK AO2 T10391067
94299KAAT AAT20160104000511601/04/16 00:05:31  5-MIN KAAT 040805Z AUTO 06004KT 6SM HZ OVC120 M04/M07 A2984 4460 78 3300 040/04 RMK AO2 T10391072
94299KAAT AAT20160104001011301/04/16 00:10:31  5-MIN KAAT 040810Z AUTO 00000KT 8SM OVC120 M04/M07 A2984 4460 78 3300 000/00 RMK AO2 T10391072
94299KAAT AAT20160104001511301/04/16 00:15:31  5-MIN KAAT 040815Z AUTO 00000KT 9SM OVC110 M03/M07 A2984 4460 78 3300 000/00 RMK AO2 T10331067
94299KAAT AAT20160104002011401/04/16 00:20:31  5-MIN KAAT 040820Z AUTO 05004KT 10SM OVC110 M03/M07 A2984 4460 78 3300 030/04 RMK AO2 T10331067
94299KAAT AAT20160104002511401/04/16 00:25:31  5-MIN KAAT 040825Z AUTO 05003KT 10SM OVC110 M03/M07 A2983 4460 78 3300 040/03 RMK AO2 T10331067
94299KAAT AAT20160104003011401/04/16 00:30:31  5-MIN KAAT 040830Z AUTO 06003KT 10SM OVC110 M03/M07 A2983 4460 78 3400 040/03 RMK AO2 T10331067
94299KAAT AAT20160104003511401/04/16 00:35:31  5-MIN KAAT 040835Z AUTO 07007KT 10SM OVC110 M03/M07 A2983 4460 78 3400 060/07 RMK AO2 T10331067
94299KAAT AAT20160104004011401/04/16 00:40:31  5-MIN KAAT 040840Z AUTO 07005KT 10SM OVC110 M03/M07 A2983 4460 75 3400 050/05 RMK AO2 T10281067
94299KAAT AAT20160104004511401/04/16 00:45:31  5-MIN KAAT 040845Z AUTO 06005KT 10SM OVC100 M03/M07 A2983 4470 78 3400 040/05 RMK AO2 T10331067
94299KAAT AAT20160104005012701/04/16 00:50:31  5-MIN KAAT 040850Z AUTO 07006KT 10SM OVC100 M03/M07 A2983 4470 78 3400 050/06 RMK AO2 SLP114 T10331067 56010
94299KAAT AAT20160104005512701/04/16 00:55:31  5-MIN KAAT 040855Z AUTO 07007KT 10SM OVC100 M03/M07 A2982 4470 78 3400 050/07 RMK AO2 SLP113 T10331067 58012
94299KAAT AAT20160104010011401/04/16 01:00:31  5-MIN KAAT 040900Z AUTO 06009KT 10SM OVC100 M03/M07 A2982 4470 75 3400 050/09 RMK AO2 T10281067
94299KAAT AAT20160104010511401/04/16 01:05:31  5-MIN KAAT 040905Z AUTO 06009KT 10SM OVC100 M03/M06 A2982 4470 78 3400 050/09 RMK AO2 T10281061
94299KAAT AAT20160104011011401/04/16 01:10:31  5-MIN KAAT 040910Z AUTO 06008KT 10SM OVC100 M03/M07 A2982 4470 78 3400 050/08 RMK AO2 T10331067
94299KAAT AAT20160104011511401/04/16 01:15:31  5-MIN KAAT 040915Z AUTO 05009KT 10SM OVC100 M03/M07 A2982 4470 75 3400 040/09 RMK AO2 T10281067
94299KAAT AAT20160104012011401/04/16 01:20:31  5-MIN KAAT 040920Z AUTO 06008KT 10SM OVC100 M03/M07 A2982 4470 75 3400 040/08 RMK AO2 T10281067
94299KAAT AAT20160104012511401/04/16 01:25:31  5-MIN KAAT 040925Z AUTO 06008KT 10SM OVC100 M03/M06 A2982 4470 78 3400 040/08 RMK AO2 T10281061
94299KAAT AAT20160104013011401/04/16 01:30:31  5-MIN KAAT 040930Z AUTO 06008KT 10SM OVC100 M03/M06 A2982 4470 78 3400 040/08 RMK AO2 T10281061
94299KAAT AAT20160104013511401/04/16 01:35:31  5-MIN KAAT 040935Z AUTO 06008KT 10SM OVC100 M02/M06 A2982 4470 75 3500 040/08 RMK AO2 T10221061
94299KAAT AAT20160104014011401/04/16 01:40:31  5-MIN KAAT 040940Z AUTO 06007KT 10SM OVC100 M03/M06 A2982 4470 78 3400 050/07 RMK AO2 T10281061
94299KAAT AAT20160104014511401/04/16 01:45:31  5-MIN KAAT 040945Z AUTO 07004KT 10SM OVC100 M03/M06 A2983 4470 78 3400 050/04 RMK AO2 T10281061
94299KAAT AAT20160104015012101/04/16 01:50:31  5-MIN KAAT 040950Z AUTO 08003KT 10SM OVC100 M03/M06 A2982 4470 78 3400 060/03 RMK AO2 SLP112 T10281061
94299KAAT AAT20160104015512101/04/16 01:55:31  5-MIN KAAT 040955Z AUTO 08003KT 10SM OVC100 M02/M06 A2982 4470 75 3500 060/03 RMK AO2 SLP111 T10221061
94299KAAT AAT20160104020011401/04/16 02:00:31  5-MIN KAAT 041000Z AUTO 09003KT 10SM OVC100 M02/M06 A2983 4470 75 3500 070/03 RMK AO2 T10221061
94299KAAT AAT20160104020511401/04/16 02:05:31  5-MIN KAAT 041005Z AUTO 08006KT 10SM OVC100 M02/M06 A2983 4470 75 3500 060/06 RMK AO2 T10221061
94299KAAT AAT20160104021011401/04/16 02:10:31  5-MIN KAAT 041010Z AUTO 00000KT 10SM OVC100 M02/M06 A2983 4470 75 3500 000/00 RMK AO2 T10221061
94299KAAT AAT20160104021511401/04/16 02:15:31  5-MIN KAAT 041015Z AUTO 00000KT 10SM OVC100 M03/M06 A2983 4470 78 3400 000/00 RMK AO2 T10281061
94299KAAT AAT20160104022011401/04/16 02:20:31  5-MIN KAAT 041020Z AUTO 00000KT 10SM OVC110 M03/M06 A2982 4470 78 3400 000/00 RMK AO2 T10281061
94299KAAT AAT20160104022511401/04/16 02:25:31  5-MIN KAAT 041025Z AUTO 05003KT 10SM OVC100 M03/M06 A2983 4470 78 3400 040/03 RMK AO2 T10281061
94299KAAT AAT20160104023011401/04/16 02:30:31  5-MIN KAAT 041030Z AUTO 06003KT 10SM BKN110 M03/M06 A2983 4470 78 3400 050/03 RMK AO2 T10281061
94299KAAT AAT20160104023511401/04/16 02:35:31  5-MIN KAAT 041035Z AUTO 08006KT 10SM BKN110 M03/M06 A2983 4470 78 3400 060/06 RMK AO2 T10281061
94299KAAT AAT20160104024011401/04/16 02:40:31  5-MIN KAAT 041040Z AUTO 07006KT 10SM SCT110 M03/M06 A2983 4470 78 3400 060/06 RMK AO2 T10281061
94299KAAT AAT20160104024511401/04/16 02:45:31  5-MIN KAAT 041045Z AUTO 07006KT 10SM SCT110 M03/M06 A2983 4470 78 3400 050/06 RMK AO2 T10281061
94299KAAT AAT20160104025012101/04/16 02:50:31  5-MIN KAAT 041050Z AUTO 07005KT 10SM SCT110 M03/M06 A2982 4470 78 3400 050/05 RMK AO2 SLP111 T10281061
94299KAAT AAT20160104025512101/04/16 02:55:31  5-MIN KAAT 041055Z AUTO 09005KT 10SM SCT110 M03/M06 A2982 4470 78 3400 070/05 RMK AO2 SLP111 T10281061
94299KAAT AAT20160104030011401/04/16 03:00:31  5-MIN KAAT 041100Z AUTO 09005KT 10SM BKN100 M02/M06 A2982 4470 75 3500 070/05 RMK AO2 T10221061
94299KAAT AAT20160104030512101/04/16 03:05:31  5-MIN KAAT 041105Z AUTO 08004KT 10SM BKN100 BKN110 M02/M06 A2982 4470 72 3600 060/04 RMK AO2 T10171061
94299KAAT AAT20160104031012101/04/16 03:10:31  5-MIN KAAT 041110Z AUTO 07004KT 10SM BKN095 BKN110 M02/M06 A2982 4470 72 3600 060/04 RMK AO2 T10171061
94299KAAT AAT20160104031512101/04/16 03:15:31  5-MIN KAAT 041115Z AUTO 08005KT 10SM BKN095 OVC110 M02/M06 A2982 4470 72 3600 060/05 RMK AO2 T10171061
94299KAAT AAT20160104032011401/04/16 03:20:31  5-MIN KAAT 041120Z AUTO 08005KT 10SM OVC095 M02/M06 A2982 4480 72 3600 070/05 RMK AO2 T10171061
94299KAAT AAT20160104032511401/04/16 03:25:31  5-MIN KAAT 041125Z AUTO 08005KT 10SM OVC090 M02/M06 A2982 4480 72 3600 070/05 RMK AO2 T10171061
94299KAAT AAT20160104033011401/04/16 03:30:31  5-MIN KAAT 041130Z AUTO 07004KT 10SM OVC090 M02/M06 A2982 4480 72 3600 050/04 RMK AO2 T10171061
94299KAAT AAT20160104033511401/04/16 03:35:31  5-MIN KAAT 041135Z AUTO 00000KT 10SM OVC090 M02/M06 A2981 4480 75 3500 000/00 RMK AO2 T10221061
94299KAAT AAT20160104034011401/04/16 03:40:31  5-MIN KAAT 041140Z AUTO 04005KT 10SM OVC090 M02/M06 A2981 4480 75 3500 030/05 RMK AO2 T10221061
94299KAAT AAT20160104034511401/04/16 03:45:31  5-MIN KAAT 041145Z AUTO 06004KT 10SM OVC090 M02/M06 A2981 4480 75 3500 040/04 RMK AO2 T10221061
94299KAAT AAT20160104035013901/04/16 03:50:31  5-MIN KAAT 041150Z AUTO 05005KT 10SM OVC085 M02/M06 A2981 4480 75 3500 040/05 RMK AO2 SLP106 T10221061 11011 21056 58012
94299KAAT AAT20160104035513901/04/16 03:55:31  5-MIN KAAT 041155Z AUTO 07006KT 10SM OVC085 M02/M06 A2981 4490 72 3600 060/06 RMK AO2 SLP105 T10171061 11011 21056 58005
94299KAAT AAT20160104040011401/04/16 04:00:31  5-MIN KAAT 041200Z AUTO 08006KT 10SM OVC085 M02/M06 A2980 4490 75 3600 070/06 RMK AO2 T10171056
94299KAAT AAT20160104040511401/04/16 04:05:31  5-MIN KAAT 041205Z AUTO 08005KT 10SM OVC085 M01/M06 A2980 4490 72 3700 070/05 RMK AO2 T10111056
94299KAAT AAT20160104041011401/04/16 04:10:31  5-MIN KAAT 041210Z AUTO 07005KT 10SM OVC085 M02/M06 A2980 4490 75 3600 060/05 RMK AO2 T10171056
94299KAAT AAT20160104041511401/04/16 04:15:31  5-MIN KAAT 041215Z AUTO 05004KT 10SM OVC085 M02/M06 A2980 4490 75 3600 040/04 RMK AO2 T10171056
94299KAAT AAT20160104042011401/04/16 04:20:31  5-MIN KAAT 041220Z AUTO 06004KT 10SM OVC085 M02/M06 A2980 4490 75 3600 050/04 RMK AO2 T10171056
94299KAAT AAT20160104042511401/04/16 04:25:31  5-MIN KAAT 041225Z AUTO 07005KT 10SM OVC080 M01/M06 A2980 4490 72 3700 050/05 RMK AO2 T10111056
94299KAAT AAT20160104043011401/04/16 04:30:31  5-MIN KAAT 041230Z AUTO 06006KT 10SM OVC080 M01/M06 A2980 4490 72 3700 050/06 RMK AO2 T10111056
94299KAAT AAT20160104043511401/04/16 04:35:31  5-MIN KAAT 041235Z AUTO 06006KT 10SM OVC080 M02/M06 A2980 4490 75 3600 050/06 RMK AO2 T10171056
94299KAAT AAT20160104044011401/04/16 04:40:31  5-MIN KAAT 041240Z AUTO 06007KT 10SM OVC080 M02/M06 A2980 4490 78 3500 040/07 RMK AO2 T10221056
94299KAAT AAT20160104044511401/04/16 04:45:31  5-MIN KAAT 041245Z AUTO 06007KT 10SM OVC085 M02/M06 A2980 4500 75 3500 040/07 RMK AO2 T10221061
94299KAAT AAT20160104045012101/04/16 04:50:31  5-MIN KAAT 041250Z AUTO 06007KT 10SM OVC080 M02/M06 A2980 4500 78 3500 050/07 RMK AO2 SLP103 T10221056
94299KAAT AAT20160104045512101/04/16 04:55:31  5-MIN KAAT 041255Z AUTO 08006KT 10SM OVC080 M02/M06 A2980 4500 78 3500 060/06 RMK AO2 SLP103 T10221056
94299KAAT AAT20160104050011401/04/16 05:00:31  5-MIN KAAT 041300Z AUTO 06007KT 10SM OVC080 M02/M06 A2980 4500 75 3600 040/07 RMK AO2 T10171056
94299KAAT AAT20160104050511401/04/16 05:05:31  5-MIN KAAT 041305Z AUTO 05007KT 10SM OVC085 M02/M06 A2979 4500 75 3600 030/07 RMK AO2 T10171056
94299KAAT AAT20160104051011401/04/16 05:10:31  5-MIN KAAT 041310Z AUTO 05006KT 10SM OVC085 M02/M06 A2979 4500 75 3600 040/06 RMK AO2 T10171056
94299KAAT AAT20160104051511401/04/16 05:15:31  5-MIN KAAT 041315Z AUTO 06006KT 10SM OVC085 M02/M06 A2979 4500 75 3600 040/06 RMK AO2 T10171056
94299KAAT AAT20160104052011401/04/16 05:20:31  5-MIN KAAT 041320Z AUTO 07006KT 10SM OVC085 M02/M06 A2979 4500 75 3600 050/06 RMK AO2 T10171056
94299KAAT AAT20160104052511401/04/16 05:25:31  5-MIN KAAT 041325Z AUTO 07007KT 10SM OVC085 M01/M06 A2979 4500 72 3700 050/07 RMK AO2 T10111056
94299KAAT AAT20160104053011401/04/16 05:30:31  5-MIN KAAT 041330Z AUTO 06007KT 10SM OVC085 M01/M06 A2979 4500 72 3700 050/07 RMK AO2 T10111056
94299KAAT AAT20160104053511401/04/16 05:35:31  5-MIN KAAT 041335Z AUTO 07006KT 10SM OVC085 M01/M06 A2979 4500 72 3700 050/06 RMK AO2 T10111056
94299KAAT AAT20160104054011401/04/16 05:40:31  5-MIN KAAT 041340Z AUTO 06006KT 10SM OVC085 M01/M06 A2979 4510 72 3700 040/06 RMK AO2 T10111056
94299KAAT AAT20160104054511401/04/16 05:45:31  5-MIN KAAT 041345Z AUTO 06005KT 10SM OVC085 M01/M06 A2979 4500 72 3700 040/05 RMK AO2 T10111056
94299KAAT AAT20160104055012101/04/16 05:50:31  5-MIN KAAT 041350Z AUTO 04003KT 10SM OVC085 M01/M05 A2979 4500 75 3700 030/03 RMK AO2 SLP099 T10111050
94299KAAT AAT20160104055512101/04/16 05:55:31  5-MIN KAAT 041355Z AUTO 00000KT 10SM OVC085 M01/M05 A2979 4500 75 3700 000/00 RMK AO2 SLP099 T10111050
94299KAAT AAT20160104060011401/04/16 06:00:31  5-MIN KAAT 041400Z AUTO 05003KT 10SM OVC085 M01/M05 A2979 4500 75 3700 030/03 RMK AO2 T10111050
94299KAAT AAT20160104060511401/04/16 06:05:31  5-MIN KAAT 041405Z AUTO 05003KT 10SM OVC085 M01/M05 A2979 4500 75 3700 040/03 RMK AO2 T10111050
94299KAAT AAT20160104061011401/04/16 06:10:31  5-MIN KAAT 041410Z AUTO 05003KT 10SM OVC085 M01/M05 A2978 4510 75 3700 030/03 RMK AO2 T10111050
94299KAAT AAT20160104061511401/04/16 06:15:31  5-MIN KAAT 041415Z AUTO VRB03KT 10SM OVC085 M01/M05 A2978 4510 75 3700 VRB/03 RMK AO2 T10111050
94299KAAT AAT20160104062011401/04/16 06:20:31  5-MIN KAAT 041420Z AUTO 07003KT 10SM OVC090 M01/M05 A2978 4510 75 3700 060/03 RMK AO2 T10111050
94299KAAT AAT20160104062511401/04/16 06:25:31  5-MIN KAAT 041425Z AUTO 05004KT 10SM OVC090 M01/M05 A2978 4510 75 3700 040/04 RMK AO2 T10111050
94299KAAT AAT20160104063011401/04/16 06:30:31  5-MIN KAAT 041430Z AUTO 05003KT 10SM OVC095 M01/M05 A2978 4510 75 3700 030/03 RMK AO2 T10111050
94299KAAT AAT20160104063511401/04/16 06:35:31  5-MIN KAAT 041435Z AUTO 05003KT 10SM OVC095 M01/M05 A2978 4510 75 3700 030/03 RMK AO2 T10111050
94299KAAT AAT20160104064011401/04/16 06:40:31  5-MIN KAAT 041440Z AUTO 03003KT 10SM OVC100 M02/M05 A2978 4510 78 3600 010/03 RMK AO2 T10171050
94299KAAT AAT20160104064511301/04/16 06:45:31  5-MIN KAAT 041445Z AUTO 05003KT 7SM OVC095 M02/M05 A2978 4510 78 3600 030/03 RMK AO2 T10171050
94299KAAT AAT20160104065012601/04/16 06:50:31  5-MIN KAAT 041450Z AUTO 07004KT 7SM OVC095 M01/M05 A2978 4510 75 3700 060/04 RMK AO2 SLP095 T10111050 58005
94299KAAT AAT20160104065512701/04/16 06:55:31  5-MIN KAAT 041455Z AUTO 07005KT 10SM OVC095 M02/M05 A2978 4510 78 3600 060/05 RMK AO2 SLP097 T10171050 57008
94299KAAT AAT20160104070011401/04/16 07:00:31  5-MIN KAAT 041500Z AUTO 05005KT 10SM OVC095 M02/M05 A2978 4510 78 3600 040/05 RMK AO2 T10171050
94299KAAT AAT20160104070511401/04/16 07:05:31  5-MIN KAAT 041505Z AUTO 05006KT 10SM OVC095 M02/M05 A2978 4510 78 3600 040/06 RMK AO2 T10171050
94299KAAT AAT20160104071011401/04/16 07:10:31  5-MIN KAAT 041510Z AUTO 07006KT 10SM OVC095 M01/M05 A2978 4510 75 3700 050/06 RMK AO2 T10111050
94299KAAT AAT20160104071511401/04/16 07:15:31  5-MIN KAAT 041515Z AUTO 07007KT 10SM OVC100 M01/M05 A2978 4510 75 3700 060/07 RMK AO2 T10111050
94299KAAT AAT20160104072011401/04/16 07:20:31  5-MIN KAAT 041520Z AUTO 06008KT 10SM OVC100 M01/M05 A2978 4510 75 3700 050/08 RMK AO2 T10111050
94299KAAT AAT20160104072511401/04/16 07:25:31  5-MIN KAAT 041525Z AUTO 05008KT 10SM OVC100 M02/M05 A2978 4510 78 3600 040/08 RMK AO2 T10171050
94299KAAT AAT20160104073011301/04/16 07:30:31  5-MIN KAAT 041530Z AUTO 06008KT 9SM OVC100 M02/M05 A2978 4510 78 3600 040/08 RMK AO2 T10171050
94299KAAT AAT20160104073511301/04/16 07:35:31  5-MIN KAAT 041535Z AUTO 07007KT 9SM OVC100 M02/M05 A2978 4510 78 3600 050/07 RMK AO2 T10171050
94299KAAT AAT20160104074011401/04/16 07:40:31  5-MIN KAAT 041540Z AUTO 07007KT 10SM OVC100 M02/M06 A2978 4510 75 3600 050/07 RMK AO2 T10171056
94299KAAT AAT20160104074511401/04/16 07:45:31  5-MIN KAAT 041545Z AUTO 06007KT 10SM OVC100 M02/M06 A2978 4510 75 3600 050/07 RMK AO2 T10171056
94299KAAT AAT20160104075012101/04/16 07:50:31  5-MIN KAAT 041550Z AUTO 05006KT 10SM OVC100 M02/M06 A2978 4510 75 3600 040/06 RMK AO2 SLP099 T10171056
94299KAAT AAT20160104075512801/04/16 07:55:31  5-MIN KAAT 041555Z AUTO 05006KT 10SM BKN100 OVC110 M02/M06 A2978 4510 75 3600 040/06 RMK AO2 SLP097 T10171056
94299KAAT AAT20160104080012101/04/16 08:00:31  5-MIN KAAT 041600Z AUTO 06006KT 10SM BKN090 OVC110 M01/M05 A2978 4510 75 3700 040/06 RMK AO2 T10111050
94299KAAT AAT20160104080512101/04/16 08:05:31  5-MIN KAAT 041605Z AUTO 07007KT 10SM BKN090 OVC110 M02/M05 A2978 4520 78 3600 050/07 RMK AO2 T10171050
94299KAAT AAT20160104081011401/04/16 08:10:31  5-MIN KAAT 041610Z AUTO 09006KT 10SM OVC090 M02/M05 A2977 4520 78 3600 070/06 RMK AO2 T10171050
94299KAAT AAT20160104081511401/04/16 08:15:31  5-MIN KAAT 041615Z AUTO 09006KT 10SM OVC090 M01/M05 A2977 4520 75 3700 080/06 RMK AO2 T10111050
94299KAAT AAT20160104082011401/04/16 08:20:31  5-MIN KAAT 041620Z AUTO 09005KT 10SM OVC090 M01/M05 A2978 4510 72 3800 070/05 RMK AO2 T10061050
94299KAAT AAT20160104082511401/04/16 08:25:31  5-MIN KAAT 041625Z AUTO 06003KT 10SM OVC090 M01/M05 A2978 4510 72 3800 050/03 RMK AO2 T10061050
94299KAAT AAT20160104083011401/04/16 08:30:31  5-MIN KAAT 041630Z AUTO 04005KT 10SM OVC090 M01/M05 A2978 4510 75 3700 020/05 RMK AO2 T10111050
94299KAAT AAT20160104083512101/04/16 08:35:31  5-MIN KAAT 041635Z AUTO 04006KT 10SM BKN090 OVC110 M02/M05 A2978 4510 78 3600 020/06 RMK AO2 T10171050
94299KAAT AAT20160104084012101/04/16 08:40:31  5-MIN KAAT 041640Z AUTO 06005KT 10SM BKN090 OVC110 M01/M05 A2978 4510 75 3700 050/05 RMK AO2 T10111050
94299KAAT AAT20160104084512101/04/16 08:45:31  5-MIN KAAT 041645Z AUTO 08005KT 10SM BKN090 OVC110 M01/M05 A2978 4510 75 3700 060/05 RMK AO2 T10111050
94299KAAT AAT20160104085012801/04/16 08:50:31  5-MIN KAAT 041650Z AUTO 07005KT 10SM SCT090 OVC110 M01/M05 A2978 4510 72 3800 060/05 RMK AO2 SLP100 T10061050
94299KAAT AAT20160104085512101/04/16 08:55:31  5-MIN KAAT 041655Z AUTO 06005KT 10SM OVC100 M01/M05 A2978 4510 75 3700 040/05 RMK AO2 SLP100 T10111050
94299KAAT AAT20160104090011401/04/16 09:00:31  5-MIN KAAT 041700Z AUTO 06006KT 10SM OVC100 M01/M05 A2978 4520 75 3700 040/06 RMK AO2 T10111050
94299KAAT AAT20160104090511401/04/16 09:05:31  5-MIN KAAT 041705Z AUTO 05005KT 10SM OVC100 M01/M05 A2978 4510 75 3700 040/05 RMK AO2 T10111050
94299KAAT AAT20160104091011401/04/16 09:10:31  5-MIN KAAT 041710Z AUTO 05006KT 10SM OVC100 M01/M05 A2978 4520 72 3800 030/06 RMK AO2 T10061050
94299KAAT AAT20160104091511401/04/16 09:15:31  5-MIN KAAT 041715Z AUTO 05006KT 10SM OVC100 M01/M05 A2977 4520 75 3700 030/06 RMK AO2 T10111050
94299KAAT AAT20160104092011401/04/16 09:20:31  5-MIN KAAT 041720Z AUTO 05004KT 10SM OVC100 M01/M05 A2977 4520 75 3700 030/04 RMK AO2 T10111050
94299KAAT AAT20160104092511401/04/16 09:25:31  5-MIN KAAT 041725Z AUTO 06004KT 10SM OVC100 M01/M04 A2978 4520 75 3800 040/04 RMK AO2 T10061044
94299KAAT AAT20160104093011401/04/16 09:30:31  5-MIN KAAT 041730Z AUTO 06004KT 10SM OVC100 M01/M05 A2978 4510 72 3800 050/04 RMK AO2 T10061050
94299KAAT AAT20160104093511401/04/16 09:35:31  5-MIN KAAT 041735Z AUTO 00000KT 10SM OVC100 M01/M04 A2978 4510 75 3800 000/00 RMK AO2 T10061044
94299KAAT AAT20160104094011301/04/16 09:40:31  5-MIN KAAT 041740Z AUTO 00000KT 10SM OVC100 00/M04 A2978 4510 72 3800 000/00 RMK AO2 T00001044
94299KAAT AAT20160104094511301/04/16 09:45:31  5-MIN KAAT 041745Z AUTO 07003KT 10SM OVC100 01/M04 A2978 4510 69 3900 060/03 RMK AO2 T00061044
94299KAAT AAT20160104095013801/04/16 09:50:31  5-MIN KAAT 041750Z AUTO 08004KT 10SM OVC100 01/M04 A2978 4510 72 3900 070/04 RMK AO2 SLP101 T00061039 10006 21022 57008
94299KAAT AAT20160104095513701/04/16 09:55:31  5-MIN KAAT 041755Z AUTO 08004KT 9SM OVC100 01/M04 A2978 4510 72 3900 060/04 RMK AO2 SLP102 T00061039 10006 21022 57001
94299KAAT AAT20160104100011201/04/16 10:00:31  5-MIN KAAT 041800Z AUTO 08004KT 9SM OVC100 01/M04 A2978 4510 72 3900 060/04 RMK AO2 T00061039
94299KAAT AAT20160104100511301/04/16 10:05:31  5-MIN KAAT 041805Z AUTO 05003KT 10SM OVC100 01/M04 A2978 4510 69 4000 040/03 RMK AO2 T00111039
94299KAAT AAT20160104101011301/04/16 10:10:31  5-MIN KAAT 041810Z AUTO 08004KT 10SM OVC100 02/M03 A2978 4510 69 4000 060/04 RMK AO2 T00171033
94299KAAT AAT20160104101511301/04/16 10:15:31  5-MIN KAAT 041815Z AUTO 09003KT 10SM OVC095 01/M04 A2977 4520 69 4000 080/03 RMK AO2 T00111039
94299KAAT AAT20160104102011301/04/16 10:20:31  5-MIN KAAT 041820Z AUTO 10005KT 10SM OVC090 02/M04 A2977 4520 64 4100 080/05 RMK AO2 T00221039
94299KAAT AAT20160104102511301/04/16 10:25:31  5-MIN KAAT 041825Z AUTO 07005KT 10SM OVC090 03/M04 A2977 4520 61 4200 060/05 RMK AO2 T00281039
94299KAAT AAT20160104103011301/04/16 10:30:31  5-MIN KAAT 041830Z AUTO 07005KT 10SM OVC090 02/M04 A2977 4520 64 4100 050/05 RMK AO2 T00221039
94299KAAT AAT20160104103511301/04/16 10:35:31  5-MIN KAAT 041835Z AUTO 08004KT 10SM OVC090 02/M04 A2977 4520 66 4000 060/04 RMK AO2 T00171039
94299KAAT AAT20160104104011301/04/16 10:40:31  5-MIN KAAT 041840Z AUTO 08004KT 10SM OVC090 02/M04 A2977 4520 66 4000 060/04 RMK AO2 T00171039
94299KAAT AAT20160104104511301/04/16 10:45:31  5-MIN KAAT 041845Z AUTO 08005KT 10SM OVC085 02/M04 A2977 4520 64 4100 060/05 RMK AO2 T00221039
94299KAAT AAT20160104105012001/04/16 10:50:31  5-MIN KAAT 041850Z AUTO 07005KT 10SM OVC085 02/M04 A2977 4520 61 4100 060/05 RMK AO2 SLP097 T00221044
94299KAAT AAT20160104105512701/04/16 10:55:31  5-MIN KAAT 041855Z AUTO 06004KT 10SM BKN080 OVC095 02/M04 A2977 4520 64 4100 050/04 RMK AO2 SLP095 T00221039
94299KAAT AAT20160104110012001/04/16 11:00:31  5-MIN KAAT 041900Z AUTO 06005KT 10SM FEW065 OVC085 02/M04 A2977 4520 64 4100 040/05 RMK AO2 T00221039
94299KAAT AAT20160104110512001/04/16 11:05:31  5-MIN KAAT 041905Z AUTO 06004KT 10SM SCT065 OVC080 03/M04 A2977 4520 61 4200 040/04 RMK AO2 T00281039
94299KAAT AAT20160104111012001/04/16 11:10:31  5-MIN KAAT 041910Z AUTO 06003KT 10SM BKN070 OVC085 03/M04 A2976 4530 61 4200 040/03 RMK AO2 T00281039
94299KAAT AAT20160104111511301/04/16 11:15:31  5-MIN KAAT 041915Z AUTO 04004KT 10SM OVC075 03/M04 A2976 4530 59 4200 030/04 RMK AO2 T00331039
94299KAAT AAT20160104112011301/04/16 11:20:31  5-MIN KAAT 041920Z AUTO 05004KT 10SM OVC075 03/M04 A2976 4530 59 4200 040/04 RMK AO2 T00331039
94299KAAT AAT20160104112511301/04/16 11:25:31  5-MIN KAAT 041925Z AUTO 06003KT 10SM OVC075 03/M04 A2976 4530 59 4200 040/03 RMK AO2 T00331039
94299KAAT AAT20160104113011301/04/16 11:30:31  5-MIN KAAT 041930Z AUTO 00000KT 10SM OVC070 03/M04 A2975 4540 59 4300 000/00 RMK AO2 T00331039
94299KAAT AAT20160104113511301/04/16 11:35:31  5-MIN KAAT 041935Z AUTO 00000KT 10SM OVC075 04/M03 A2975 4540 59 4300 000/00 RMK AO2 T00391033
94299KAAT AAT20160104114011301/04/16 11:40:31  5-MIN KAAT 041940Z AUTO 00000KT 10SM OVC080 04/M03 A2975 4540 59 4300 000/00 RMK AO2 T00391033
94299KAAT AAT20160104114511301/04/16 11:45:31  5-MIN KAAT 041945Z AUTO VRB04KT 10SM OVC080 04/M04 A2975 4540 57 4300 VRB/04 RMK AO2 T00391039
94299KAAT AAT20160104115012701/04/16 11:50:31  5-MIN KAAT 041950Z AUTO 13003KT 10SM BKN070 OVC085 04/M04 A2975 4540 55 4400 110/03 RMK AO2 SLP084 T00441039
94299KAAT AAT20160104115512701/04/16 11:55:31  5-MIN KAAT 041955Z AUTO 00000KT 10SM BKN070 OVC080 04/M04 A2974 4550 55 4400 000/00 RMK AO2 SLP083 T00441039
94299KAAT AAT20160104120011301/04/16 12:00:31  5-MIN KAAT 042000Z AUTO 00000KT 10SM OVC070 04/M04 A2974 4550 55 4400 000/00 RMK AO2 T00441039
94299KAAT AAT20160104120512001/04/16 12:05:31  5-MIN KAAT 042005Z AUTO 11004KT 10SM BKN065 OVC080 04/M04 A2974 4550 55 4400 090/04 RMK AO2 T00441039
94299KAAT AAT20160104121011301/04/16 12:10:31  5-MIN KAAT 042010Z AUTO 12003KT 10SM OVC070 04/M03 A2974 4550 59 4300 100/03 RMK AO2 T00391033
94299KAAT AAT20160104121511301/04/16 12:15:31  5-MIN KAAT 042015Z AUTO 12003KT 10SM OVC070 04/M03 A2973 4550 59 4300 100/03 RMK AO2 T00391033
94299KAAT AAT20160104122011301/04/16 12:20:31  5-MIN KAAT 042020Z AUTO 14003KT 10SM OVC070 04/M04 A2973 4560 57 4300 120/03 RMK AO2 T00391039
94299KAAT AAT20160104122511301/04/16 12:25:31  5-MIN KAAT 042025Z AUTO 10004KT 10SM OVC070 04/M03 A2973 4560 59 4300 080/04 RMK AO2 T00391033
94299KAAT AAT20160104123011301/04/16 12:30:31  5-MIN KAAT 042030Z AUTO 10004KT 10SM OVC065 04/M03 A2973 4560 59 4400 080/04 RMK AO2 T00391033
94299KAAT AAT20160104123512001/04/16 12:35:31  5-MIN KAAT 042035Z AUTO 08005KT 10SM BKN055 OVC070 04/M03 A2973 4560 59 4400 070/05 RMK AO2 T00391033
94299KAAT AAT20160104124012001/04/16 12:40:31  5-MIN KAAT 042040Z AUTO 06004KT 10SM BKN050 OVC070 04/M03 A2972 4560 57 4400 050/04 RMK AO2 T00441033
94299KAAT AAT20160104124512001/04/16 12:45:31  5-MIN KAAT 042045Z AUTO 05006KT 10SM BKN050 OVC070 04/M03 A2972 4570 59 4400 040/06 RMK AO2 T00391033
94299KAAT AAT20160104125012601/04/16 12:50:31  5-MIN KAAT 042050Z AUTO 06006KT 10SM OVC050 03/M03 A2972 4570 61 4300 050/06 RMK AO2 SLP076 T00331033 57001
94299KAAT AAT20160104125512601/04/16 12:55:31  5-MIN KAAT 042055Z AUTO 05004KT 10SM OVC055 04/M03 A2972 4570 59 4400 040/04 RMK AO2 SLP074 T00391033 58017
94299KAAT AAT20160104130011301/04/16 13:00:31  5-MIN KAAT 042100Z AUTO 04003KT 10SM OVC055 04/M03 A2972 4570 59 4400 030/03 RMK AO2 T00391033
94299KAAT AAT20160104130511301/04/16 13:05:31  5-MIN KAAT 042105Z AUTO 04003KT 10SM OVC050 04/M03 A2972 4570 59 4400 030/03 RMK AO2 T00391033
94299KAAT AAT20160104131012001/04/16 13:10:31  5-MIN KAAT 042110Z AUTO 00000KT 10SM BKN050 OVC065 04/M03 A2972 4570 57 4400 000/00 RMK AO2 T00441033
94299KAAT AAT20160104131512001/04/16 13:15:31  5-MIN KAAT 042115Z AUTO 06003KT 10SM BKN050 OVC065 04/M03 A2972 4570 57 4400 050/03 RMK AO2 T00441033
94299KAAT AAT20160104132012001/04/16 13:20:31  5-MIN KAAT 042120Z AUTO 06003KT 10SM BKN048 OVC060 04/M03 A2971 4570 57 4400 040/03 RMK AO2 T00441033
94299KAAT AAT20160104132511301/04/16 13:25:31  5-MIN KAAT 042125Z AUTO 00000KT 10SM OVC046 04/M03 A2971 4570 57 4400 000/00 RMK AO2 T00441033
94299KAAT AAT20160104133011301/04/16 13:30:31  5-MIN KAAT 042130Z AUTO 10005KT 10SM OVC046 05/M04 A2971 4580 52 4500 080/05 RMK AO2 T00501039
94299KAAT AAT20160104133511301/04/16 13:35:31  5-MIN KAAT 042135Z AUTO VRB03KT 10SM OVC046 04/M03 A2970 4580 57 4400 VRB/03 RMK AO2 T00441033
94299KAAT AAT20160104134011301/04/16 13:40:31  5-MIN KAAT 042140Z AUTO VRB03KT 10SM OVC047 05/M03 A2970 4580 55 4500 VRB/03 RMK AO2 T00501033
94299KAAT AAT20160104134512001/04/16 13:45:31  5-MIN KAAT 042145Z AUTO 00000KT 10SM BKN047 OVC060 06/M03 A2970 4580 55 4600 000/00 RMK AO2 T00561028
94299KAAT AAT20160104135012701/04/16 13:50:31  5-MIN KAAT 042150Z AUTO 00000KT 10SM BKN047 OVC060 05/M03 A2970 4590 55 4500 000/00 RMK AO2 SLP065 T00501033
94299KAAT AAT20160104135512701/04/16 13:55:31  5-MIN KAAT 042155Z AUTO 00000KT 10SM BKN047 OVC060 04/M03 A2970 4590 59 4400 000/00 RMK AO2 SLP065 T00441028
94299KAAT AAT20160104140012001/04/16 14:00:31  5-MIN KAAT 042200Z AUTO 31003KT 10SM BKN047 OVC060 05/M03 A2970 4590 57 4500 300/03 RMK AO2 T00501028
94299KAAT AAT20160104140512001/04/16 14:05:31  5-MIN KAAT 042205Z AUTO 32003KT 10SM BKN049 OVC060 04/M02 A2970 4590 62 4400 310/03 RMK AO2 T00441022
94299KAAT AAT20160104141012001/04/16 14:10:31  5-MIN KAAT 042210Z AUTO 00000KT 10SM BKN049 OVC060 04/M02 A2970 4590 62 4400 000/00 RMK AO2 T00441022
94299KAAT AAT20160104141512001/04/16 14:15:31  5-MIN KAAT 042215Z AUTO 31005KT 10SM BKN049 OVC060 04/M03 A2970 4590 62 4400 300/05 RMK AO2 T00391028
94299KAAT AAT20160104142012001/04/16 14:20:31  5-MIN KAAT 042220Z AUTO 30004KT 10SM BKN049 OVC060 04/M03 A2970 4590 62 4400 280/04 RMK AO2 T00391028
94299KAAT AAT20160104142512001/04/16 14:25:31  5-MIN KAAT 042225Z AUTO 31003KT 10SM BKN049 OVC060 04/M02 A2970 4590 64 4400 300/03 RMK AO2 T00391022
94299KAAT AAT20160104143012001/04/16 14:30:31  5-MIN KAAT 042230Z AUTO 32004KT 10SM BKN055 OVC070 04/M02 A2969 4590 64 4400 300/04 RMK AO2 T00391022
94299KAAT AAT20160104143512001/04/16 14:35:31  5-MIN KAAT 042235Z AUTO 31005KT 10SM BKN055 OVC070 04/M02 A2969 4590 64 4400 300/05 RMK AO2 T00391022
94299KAAT AAT20160104144011301/04/16 14:40:31  5-MIN KAAT 042240Z AUTO 31004KT 10SM OVC060 04/M02 A2969 4590 67 4400 290/04 RMK AO2 T00391017
94299KAAT AAT20160104144511301/04/16 14:45:31  5-MIN KAAT 042245Z AUTO 31003KT 10SM OVC060 03/M02 A2969 4590 70 4300 290/03 RMK AO2 T00331017
94299KAAT AAT20160104145012001/04/16 14:50:31  5-MIN KAAT 042250Z AUTO 00000KT 10SM OVC060 04/M01 A2970 4590 70 4400 000/00 RMK AO2 SLP066 T00391011
94299KAAT AAT20160104145512001/04/16 14:55:31  5-MIN KAAT 042255Z AUTO 00000KT 10SM OVC060 04/M01 A2970 4590 70 4400 000/00 RMK AO2 SLP066 T00391011
94299KAAT AAT20160104150011301/04/16 15:00:31  5-MIN KAAT 042300Z AUTO 03003KT 10SM OVC060 04/M01 A2970 4590 70 4400 010/03 RMK AO2 T00391011
94299KAAT AAT20160104150511301/04/16 15:05:31  5-MIN KAAT 042305Z AUTO 00000KT 10SM OVC060 04/M01 A2970 4590 67 4500 000/00 RMK AO2 T00441011
94299KAAT AAT20160104151011301/04/16 15:10:31  5-MIN KAAT 042310Z AUTO 00000KT 10SM OVC060 04/M02 A2970 4590 64 4500 000/00 RMK AO2 T00441017
94299KAAT AAT20160104151511301/04/16 15:15:31  5-MIN KAAT 042315Z AUTO 00000KT 10SM OVC060 04/M02 A2970 4590 64 4500 000/00 RMK AO2 T00441017
94299KAAT AAT20160104152011301/04/16 15:20:31  5-MIN KAAT 042320Z AUTO 31003KT 10SM OVC060 04/M02 A2970 4590 67 4400 290/03 RMK AO2 T00391017
94299KAAT AAT20160104152511301/04/16 15:25:31  5-MIN KAAT 042325Z AUTO 00000KT 10SM OVC060 04/M01 A2970 4590 70 4400 000/00 RMK AO2 T00391011
94299KAAT AAT20160104153011301/04/16 15:30:31  5-MIN KAAT 042330Z AUTO 00000KT 10SM OVC055 04/M01 A2970 4590 70 4400 000/00 RMK AO2 T00391011
94299KAAT AAT20160104153511301/04/16 15:35:31  5-MIN KAAT 042335Z AUTO 00000KT 10SM OVC055 04/M02 A2970 4580 64 4400 000/00 RMK AO2 T00441017
94299KAAT AAT20160104154011301/04/16 15:40:31  5-MIN KAAT 042340Z AUTO 00000KT 10SM OVC055 04/M02 A2970 4580 64 4400 000/00 RMK AO2 T00441017
94299KAAT AAT20160104154511301/04/16 15:45:31  5-MIN KAAT 042345Z AUTO 00000KT 10SM OVC055 04/M02 A2970 4580 67 4400 000/00 RMK AO2 T00391017
94299KAAT AAT20160104155013801/04/16 15:50:31  5-MIN KAAT 042350Z AUTO 00000KT 10SM OVC050 04/M02 A2971 4580 67 4400 000/00 RMK AO2 SLP067 T00391017 10056 20006 58017
94299KAAT AAT20160104155513801/04/16 15:55:31  5-MIN KAAT 042355Z AUTO 00000KT 10SM OVC050 04/M02 A2971 4580 67 4400 000/00 RMK AO2 SLP067 T00391017 10056 20006 55004
94299KAAT AAT20160104160011301/04/16 16:00:31  5-MIN KAAT 050000Z AUTO 00000KT 10SM OVC050 04/M02 A2971 4580 67 4400 000/00 RMK AO2 T00391017
94299KAAT AAT20160104160511301/04/16 16:05:31  5-MIN KAAT 050005Z AUTO 20003KT 10SM OVC050 03/M01 A2971 4580 72 4300 180/03 RMK AO2 T00331011
94299KAAT AAT20160104161012001/04/16 16:10:31  5-MIN KAAT 050010Z AUTO 18003KT 10SM SCT043 OVC050 03/M01 A2971 4580 75 4200 170/03 RMK AO2 T00281011
94299KAAT AAT20160104161512001/04/16 16:15:31  5-MIN KAAT 050015Z AUTO 19005KT 10SM SCT043 OVC050 03/M01 A2970 4580 72 4300 180/05 RMK AO2 T00331011
94299KAAT AAT20160104162011301/04/16 16:20:31  5-MIN KAAT 050020Z AUTO 19006KT 10SM OVC049 04/M02 A2970 4580 64 4400 170/06 RMK AO2 T00391022
94299KAAT AAT20160104162512001/04/16 16:25:31  5-MIN KAAT 050025Z AUTO 17006KT 10SM BKN047 OVC055 04/M02 A2970 4580 64 4400 160/06 RMK AO2 T00391022
94299KAAT AAT20160104163012001/04/16 16:30:31  5-MIN KAAT 050030Z AUTO 16005KT 10SM BKN045 OVC055 04/M03 A2970 4590 62 4400 150/05 RMK AO2 T00391028
94299KAAT AAT20160104163511301/04/16 16:35:31  5-MIN KAAT 050035Z AUTO 15005KT 10SM OVC045 04/M03 A2970 4580 62 4400 140/05 RMK AO2 T00391028
94299KAAT AAT20160104164011301/04/16 16:40:31  5-MIN KAAT 050040Z AUTO 17004KT 10SM OVC045 03/M02 A2970 4580 67 4300 150/04 RMK AO2 T00331022
94299KAAT AAT20160104164511301/04/16 16:45:31  5-MIN KAAT 050045Z AUTO 18005KT 10SM OVC045 03/M02 A2971 4580 69 4200 160/05 RMK AO2 T00281022
94299KAAT AAT20160104165012001/04/16 16:50:31  5-MIN KAAT 050050Z AUTO 19006KT 10SM BKN045 03/M02 A2971 4580 72 4200 170/06 RMK AO2 SLP070 T00281017
94299KAAT AAT20160104165512701/04/16 16:55:31  5-MIN KAAT 050055Z AUTO 18006KT 10SM BKN045 OVC065 02/M02 A2971 4580 75 4200 160/06 RMK AO2 SLP072 T00221017
94299KAAT AAT20160104170012001/04/16 17:00:31  5-MIN KAAT 050100Z AUTO 18006KT 10SM BKN045 OVC065 03/M02 A2971 4580 69 4200 160/06 RMK AO2 T00281022
94299KAAT AAT20160104170512001/04/16 17:05:31  5-MIN KAAT 050105Z AUTO 20005KT 10SM SCT044 BKN060 02/M02 A2971 4580 72 4200 180/05 RMK AO2 T00221022
94299KAAT AAT20160104171012001/04/16 17:10:31  5-MIN KAAT 050110Z AUTO 19003KT 10SM SCT044 BKN060 02/M02 A2970 4580 72 4200 180/03 RMK AO2 T00221022
94299KAAT AAT20160105031011301/05/16 03:10:31  5-MIN KAAT 051110Z AUTO 00000KT 10SM OVC110 01/M03 A2961 4670 75 4100 000/00 RMK AO2 T00111028
94299KAAT AAT20160105031511301/05/16 03:15:31  5-MIN KAAT 051115Z AUTO 12003KT 10SM OVC110 01/M03 A2961 4670 75 4100 100/03 RMK AO2 T00111028
94299KAAT AAT20160105032011301/05/16 03:20:31  5-MIN KAAT 051120Z AUTO 13005KT 10SM OVC110 02/M02 A2961 4670 75 4200 120/05 RMK AO2 T00171022
94299KAAT AAT20160105032511301/05/16 03:25:31  5-MIN KAAT 051125Z AUTO 13004KT 10SM OVC100 02/M02 A2960 4680 72 4300 110/04 RMK AO2 T00221022
94299KAAT AAT20160105033011301/05/16 03:30:31  5-MIN KAAT 051130Z AUTO 12004KT 10SM OVC100 02/M02 A2961 4670 75 4200 110/04 RMK AO2 T00171022
94299KAAT AAT20160105033511301/05/16 03:35:31  5-MIN KAAT 051135Z AUTO 00000KT 10SM OVC100 02/M02 A2961 4670 75 4200 000/00 RMK AO2 T00171022
94299KAAT AAT20160105034011301/05/16 03:40:31  5-MIN KAAT 051140Z AUTO 00000KT 10SM OVC095 01/M02 A2961 4670 78 4200 000/00 RMK AO2 T00111022
94299KAAT AAT20160105034512001/05/16 03:45:31  5-MIN KAAT 051145Z AUTO 00000KT 10SM FEW070 OVC090 00/M03 A2960 4680 81 4000 000/00 RMK AO2 T00001028
94299KAAT AAT20160105035014401/05/16 03:50:31  5-MIN KAAT 051150Z AUTO 00000KT 9SM SCT070 OVC090 00/M03 A2960 4680 81 4000 000/00 RMK AO2 SLP027 T00001028 10022 21011 58010
94299KAAT AAT20160105035514401/05/16 03:55:31  5-MIN KAAT 051155Z AUTO 00000KT 9SM BKN070 OVC090 00/M03 A2960 4680 81 4000 000/00 RMK AO2 SLP026 T00001028 10022 21011 58014
94299KAAT AAT20160105040012001/05/16 04:00:31  5-MIN KAAT 051200Z AUTO 00000KT 10SM BKN070 OVC085 01/M03 A2959 4680 78 4100 000/00 RMK AO2 T00061028
94299KAAT AAT20160105040512001/05/16 04:05:31  5-MIN KAAT 051205Z AUTO 00000KT 10SM BKN070 OVC085 01/M02 A2959 4690 82 4100 000/00 RMK AO2 T00061022
94299KAAT AAT20160105041011301/05/16 04:10:31  5-MIN KAAT 051210Z AUTO 00000KT 10SM OVC070 01/M02 A2959 4690 78 4200 000/00 RMK AO2 T00111022
94299KAAT AAT20160105041511301/05/16 04:15:31  5-MIN KAAT 051215Z AUTO 00000KT 10SM OVC070 02/M02 A2959 4690 75 4200 000/00 RMK AO2 T00171022
94299KAAT AAT20160105042012001/05/16 04:20:31  5-MIN KAAT 051220Z AUTO 00000KT 10SM BKN070 OVC080 02/M02 A2959 4690 75 4200 000/00 RMK AO2 T00171022
94299KAAT AAT20160105042512001/05/16 04:25:31  5-MIN KAAT 051225Z AUTO 00000KT 10SM BKN070 OVC080 01/M02 A2959 4690 78 4200 000/00 RMK AO2 T00111022
94299KAAT AAT20160105043012001/05/16 04:30:31  5-MIN KAAT 051230Z AUTO 00000KT 10SM BKN070 OVC085 01/M02 A2959 4690 78 4200 000/00 RMK AO2 T00111022
94299KAAT AAT20160105043512001/05/16 04:35:31  5-MIN KAAT 051235Z AUTO 00000KT 10SM BKN075 OVC090 01/M02 A2959 4690 78 4200 000/00 RMK AO2 T00111022
94299KAAT AAT20160105044012001/05/16 04:40:31  5-MIN KAAT 051240Z AUTO 00000KT 10SM FEW065 OVC080 01/M02 A2959 4690 78 4200 000/00 RMK AO2 T00111022
94299KAAT AAT20160105044512001/05/16 04:45:31  5-MIN KAAT 051245Z AUTO 00000KT 10SM BKN080 OVC090 01/M02 A2958 4690 78 4200 000/00 RMK AO2 T00111022
94299KAAT AAT20160105045012001/05/16 04:50:31  5-MIN KAAT 051250Z AUTO 00000KT 10SM OVC085 02/M02 A2958 4690 75 4200 000/00 RMK AO2 SLP021 T00171022
94299KAAT AAT20160105045512001/05/16 04:55:31  5-MIN KAAT 051255Z AUTO 00000KT 10SM OVC085 01/M02 A2958 4700 78 4200 000/00 RMK AO2 SLP022 T00111022
94299KAAT AAT20160105050011301/05/16 05:00:31  5-MIN KAAT 051300Z AUTO 00000KT 10SM OVC090 01/M02 A2958 4700 78 4200 000/00 RMK AO2 T00111022
94299KAAT AAT20160105050511301/05/16 05:05:31  5-MIN KAAT 051305Z AUTO 01003KT 10SM OVC085 01/M02 A2957 4700 82 4200 350/03 RMK AO2 T00111017
94299KAAT AAT20160105051011301/05/16 05:10:31  5-MIN KAAT 051310Z AUTO 02003KT 10SM OVC085 02/M02 A2957 4700 78 4300 360/03 RMK AO2 T00171017
94299KAAT AAT20160105051511301/05/16 05:15:31  5-MIN KAAT 051315Z AUTO 00000KT 10SM OVC090 02/M02 A2957 4700 78 4300 000/00 RMK AO2 T00171017
94299KAAT AAT20160105052012001/05/16 05:20:31  5-MIN KAAT 051320Z AUTO 31003KT 10SM BKN090 OVC100 02/M02 A2957 4700 78 4300 300/03 RMK AO2 T00171017
94299KAAT AAT20160105052511301/05/16 05:25:31  5-MIN KAAT 051325Z AUTO 27003KT 10SM OVC095 01/M02 A2958 4700 82 4200 250/03 RMK AO2 T00111017
94299KAAT AAT20160105053011301/05/16 05:30:31  5-MIN KAAT 051330Z AUTO VRB05KT 10SM OVC095 02/M02 A2958 4700 78 4300 VRB/05 RMK AO2 T00171017
94299KAAT AAT20160105053512001/05/16 05:35:31  5-MIN KAAT 051335Z AUTO VRB03KT 10SM FEW080 OVC100 02/M02 A2957 4700 78 4300 VRB/03 RMK AO2 T00171017
94299KAAT AAT20160105054011301/05/16 05:40:31  5-MIN KAAT 051340Z AUTO 19008KT 10SM OVC100 02/M02 A2958 4700 72 4300 170/08 RMK AO2 T00221022
94299KAAT AAT20160105054511301/05/16 05:45:31  5-MIN KAAT 051345Z AUTO 18011KT 10SM OVC110 02/M02 A2957 4710 72 4300 170/11 RMK AO2 T00221022
94299KAAT AAT20160105055012001/05/16 05:50:31  5-MIN KAAT 051350Z AUTO 18012KT 10SM BKN110 02/M02 A2957 4710 72 4300 170/12 RMK AO2 SLP017 T00221022
94299KAAT AAT20160105055512001/05/16 05:55:31  5-MIN KAAT 051355Z AUTO 18011KT 10SM BKN110 03/M02 A2957 4700 69 4400 170/11 RMK AO2 SLP018 T00281022
94299KAAT AAT20160105060012001/05/16 06:00:31  5-MIN KAAT 051400Z AUTO 18012KT 10SM BKN100 BKN120 03/M02 A2958 4700 69 4400 170/12 RMK AO2 T00281022
94299KAAT AAT20160105060512001/05/16 06:05:31  5-MIN KAAT 051405Z AUTO 19011KT 10SM SCT090 BKN110 03/M02 A2958 4700 69 4400 170/11 RMK AO2 T00281022
94299KAAT AAT20160105061012001/05/16 06:10:31  5-MIN KAAT 051410Z AUTO 18012KT 10SM BKN095 BKN120 03/M02 A2958 4700 69 4400 170/12 RMK AO2 T00281022
94299KAAT AAT20160105061511301/05/16 06:15:31  5-MIN KAAT 051415Z AUTO 18010KT 10SM BKN095 03/M02 A2958 4700 69 4400 170/10 RMK AO2 T00281022
94299KAAT AAT20160105062012001/05/16 06:20:31  5-MIN KAAT 051420Z AUTO 19014KT 10SM BKN085 OVC100 03/M02 A2958 4700 69 4400 170/14 RMK AO2 T00281022
94299KAAT AAT20160105062511301/05/16 06:25:31  5-MIN KAAT 051425Z AUTO 19012KT 10SM OVC085 03/M02 A2958 4700 69 4400 180/12 RMK AO2 T00281022
94299KAAT AAT20160105063011301/05/16 06:30:31  5-MIN KAAT 051430Z AUTO 19012KT 10SM OVC085 03/M02 A2958 4700 69 4400 170/12 RMK AO2 T00281022
94299KAAT AAT20160105063511301/05/16 06:35:31  5-MIN KAAT 051435Z AUTO 18012KT 10SM OVC085 03/M02 A2958 4700 72 4400 170/12 RMK AO2 T00281017
94299KAAT AAT20160105064011301/05/16 06:40:31  5-MIN KAAT 051440Z AUTO 18012KT 10SM OVC085 03/M02 A2957 4700 72 4400 160/12 RMK AO2 T00281017
94299KAAT AAT20160105064511301/05/16 06:45:31  5-MIN KAAT 051445Z AUTO 18014KT 10SM OVC085 03/M02 A2957 4710 72 4400 160/14 RMK AO2 T00281017
94299KAAT AAT20160105065012601/05/16 06:50:31  5-MIN KAAT 051450Z AUTO 18015KT 10SM OVC080 03/M02 A2957 4700 72 4400 160/15 RMK AO2 SLP017 T00281017 58014
94299KAAT AAT20160105065513301/05/16 06:55:31  5-MIN KAAT 051455Z AUTO 18016KT 10SM BKN075 OVC090 03/M02 A2958 4700 72 4400 160/16 RMK AO2 SLP018 T00281017 55007
94299KAAT AAT20160105070012001/05/16 07:00:31  5-MIN KAAT 051500Z AUTO 18014KT 10SM BKN075 OVC090 03/M02 A2958 4700 72 4400 170/14 RMK AO2 T00281017
94299KAAT AAT20160105070512001/05/16 07:05:31  5-MIN KAAT 051505Z AUTO 18014KT 10SM BKN075 OVC090 03/M02 A2958 4690 72 4400 170/14 RMK AO2 T00281017
94299KAAT AAT20160105071011301/05/16 07:10:31  5-MIN KAAT 051510Z AUTO 18012KT 10SM OVC075 03/M02 A2958 4690 72 4400 170/12 RMK AO2 T00281017
94299KAAT AAT20160105071511301/05/16 07:15:31  5-MIN KAAT 051515Z AUTO 18010KT 10SM OVC070 03/M02 A2959 4690 72 4400 170/10 RMK AO2 T00281017
94299KAAT AAT20160105072011301/05/16 07:20:31  5-MIN KAAT 051520Z AUTO 18010KT 10SM OVC070 03/M02 A2958 4690 72 4400 170/10 RMK AO2 T00281017
94299KAAT AAT20160105072511301/05/16 07:25:31  5-MIN KAAT 051525Z AUTO 18012KT 10SM OVC070 03/M02 A2958 4700 72 4400 170/12 RMK AO2 T00281017
94299KAAT AAT20160105073011301/05/16 07:30:31  5-MIN KAAT 051530Z AUTO 18014KT 10SM OVC070 03/M02 A2958 4700 72 4400 170/14 RMK AO2 T00281017
94299KAAT AAT20160105073511301/05/16 07:35:31  5-MIN KAAT 051535Z AUTO 18015KT 10SM OVC075 03/M02 A2958 4700 72 4400 170/15 RMK AO2 T00281017
94299KAAT AAT20160105074011301/05/16 07:40:31  5-MIN KAAT 051540Z AUTO 18015KT 10SM OVC075 03/M02 A2958 4700 72 4400 160/15 RMK AO2 T00281017
94299KAAT AAT20160105074511301/05/16 07:45:31  5-MIN KAAT 051545Z AUTO 18015KT 10SM OVC075 03/M02 A2958 4700 72 4400 160/15 RMK AO2 T00281017
94299KAAT AAT20160105075012001/05/16 07:50:31  5-MIN KAAT 051550Z AUTO 18015KT 10SM OVC075 02/M02 A2958 4700 75 4300 160/15 RMK AO2 SLP020 T00221017
94299KAAT AAT20160105075512001/05/16 07:55:31  5-MIN KAAT 051555Z AUTO 18016KT 10SM OVC075 02/M02 A2958 4700 75 4300 160/16 RMK AO2 SLP019 T00221017
94299KAAT AAT20160105080011301/05/16 08:00:31  5-MIN KAAT 051600Z AUTO 18016KT 10SM OVC075 02/M02 A2958 4690 75 4300 160/16 RMK AO2 T00221017
94299KAAT AAT20160105080511901/05/16 08:05:31  5-MIN KAAT 051605Z AUTO 17016G23KT 10SM OVC070 02/M02 A2958 4700 75 4300 160/16G23 RMK AO2 T00221017
94299KAAT AAT20160105081012601/05/16 08:10:31  5-MIN KAAT 051610Z AUTO 18017G23KT 10SM BKN070 OVC110 03/M02 A2958 4690 72 4400 160/17G23 RMK AO2 T00281017
94299KAAT AAT20160105081512601/05/16 08:15:31  5-MIN KAAT 051615Z AUTO 17017G23KT 10SM BKN070 OVC110 03/M02 A2958 4700 72 4400 160/17G23 RMK AO2 T00281017
94299KAAT AAT20160105082013301/05/16 08:20:31  5-MIN KAAT 051620Z AUTO 18017G23KT 10SM SCT070 BKN090 OVC110 03/M02 A2959 4690 72 4400 160/17G23 RMK AO2 T00281017
94299KAAT AAT20160105082513301/05/16 08:25:31  5-MIN KAAT 051625Z AUTO 17017G23KT 10SM FEW070 BKN090 OVC110 03/M02 A2959 4690 72 4400 160/17G23 RMK AO2 T00281017
94299KAAT AAT20160105083012701/05/16 08:30:31  5-MIN KAAT 051630Z AUTO 18017KT 10SM FEW070 BKN090 OVC110 03/M02 A2960 4680 72 4400 160/17 RMK AO2 T00281017
94299KAAT AAT20160105083513301/05/16 08:35:31  5-MIN KAAT 051635Z AUTO 18019G24KT 10SM SCT070 BKN090 OVC110 03/M02 A2960 4680 72 4400 160/19G24 RMK AO2 T00281017
94299KAAT AAT20160105084013301/05/16 08:40:31  5-MIN KAAT 051640Z AUTO 18019G25KT 10SM BKN070 BKN090 OVC110 03/M02 A2960 4680 72 4400 170/19G25 RMK AO2 T00281017
94299KAAT AAT20160105084514401/05/16 08:45:31  5-MIN KAAT 051645Z AUTO 18021G26KT 10SM BKN065 OVC095 03/M02 A2960 4680 72 4400 160/21G26 RMK AO2 PK WND 18026/1641 T00281017
94299KAAT AAT20160105085015801/05/16 08:50:31  5-MIN KAAT 051650Z AUTO 18018G26KT 10SM BKN065 BKN080 OVC090 03/M02 A2961 4670 72 4400 170/18G26 RMK AO2 PK WND 18026/1641 SLP026 T00281017
94299KAAT AAT20160105085515101/05/16 08:55:31  5-MIN KAAT 051655Z AUTO 19017G25KT 10SM BKN065 OVC075 03/M02 A2961 4670 72 4400 170/17G25 RMK AO2 PK WND 18026/1641 SLP029 T00281017
94299KAAT AAT20160105090012601/05/16 09:00:31  5-MIN KAAT 051700Z AUTO 19018G23KT 10SM BKN055 OVC070 03/M02 A2962 4660 72 4300 170/18G23 RMK AO2 T00281017
94299KAAT AAT20160105090512701/05/16 09:05:31  5-MIN KAAT 051705Z AUTO 18018KT 10SM BKN055 BKN070 OVC090 03/M02 A2962 4660 72 4300 170/18 RMK AO2 T00281017
94299KAAT AAT20160105091012001/05/16 09:10:31  5-MIN KAAT 051710Z AUTO 19016KT 10SM BKN055 OVC075 03/M02 A2962 4660 72 4300 170/16 RMK AO2 T00281017
94299KAAT AAT20160105091512601/05/16 09:15:31  5-MIN KAAT 051715Z AUTO 19015G22KT 10SM BKN055 OVC075 03/M02 A2962 4660 72 4300 180/15G22 RMK AO2 T00281017
94299KAAT AAT20160105092011901/05/16 09:20:31  5-MIN KAAT 051720Z AUTO 19014G22KT 10SM OVC050 03/M02 A2963 4650 72 4300 170/14G22 RMK AO2 T00281017
94299KAAT AAT20160105092511301/05/16 09:25:31  5-MIN KAAT 051725Z AUTO 19014KT 10SM OVC055 03/M02 A2963 4660 72 4300 170/14 RMK AO2 T00281017
94299KAAT AAT20160105093011301/05/16 09:30:31  5-MIN KAAT 051730Z AUTO 19014KT 10SM OVC055 03/M01 A2963 4660 75 4300 170/14 RMK AO2 T00281011
94299KAAT AAT20160105093511301/05/16 09:35:31  5-MIN KAAT 051735Z AUTO 19014KT 10SM OVC055 03/M01 A2962 4660 75 4300 180/14 RMK AO2 T00281011
94299KAAT AAT20160105094011301/05/16 09:40:31  5-MIN KAAT 051740Z AUTO 19015KT 10SM OVC060 03/M01 A2962 4660 75 4300 170/15 RMK AO2 T00281011
94299KAAT AAT20160105094511301/05/16 09:45:31  5-MIN KAAT 051745Z AUTO 19014KT 10SM OVC060 03/M01 A2962 4660 75 4300 180/14 RMK AO2 T00281011
94299KAAT AAT20160105095013801/05/16 09:50:31  5-MIN KAAT 051750Z AUTO 19016KT 10SM OVC060 03/M01 A2962 4660 75 4300 170/16 RMK AO2 SLP031 T00281011 10028 20000 55007
94299KAAT AAT20160105095515101/05/16 09:55:31  5-MIN KAAT 051755Z AUTO 19016G22KT 10SM BKN060 OVC095 03/M01 A2962 4660 75 4300 170/16G22 RMK AO2 SLP031 T00281011 10028 20000 52013
94299KAAT AAT20160105100012001/05/16 10:00:31  5-MIN KAAT 051800Z AUTO 20015KT 10SM BKN060 OVC095 03/M01 A2962 4660 75 4300 180/15 RMK AO2 T00281011
94299KAAT AAT20160105100511901/05/16 10:05:31  5-MIN KAAT 051805Z AUTO 20015G21KT 10SM OVC060 03/M01 A2962 4660 75 4300 190/15G21 RMK AO2 T00281011
94299KAAT AAT20160105101011901/05/16 10:10:31  5-MIN KAAT 051810Z AUTO 20014G21KT 10SM OVC060 03/M01 A2963 4660 75 4300 190/14G21 RMK AO2 T00281011
94299KAAT AAT20160105101511301/05/16 10:15:31  5-MIN KAAT 051815Z AUTO 20015KT 10SM OVC060 03/M01 A2963 4650 75 4300 190/15 RMK AO2 T00281011
94299KAAT AAT20160105102011301/05/16 10:20:31  5-MIN KAAT 051820Z AUTO 21013KT 10SM OVC060 03/M01 A2963 4650 72 4400 190/13 RMK AO2 T00331011
94299KAAT AAT20160105102511301/05/16 10:25:31  5-MIN KAAT 051825Z AUTO 20012KT 10SM OVC065 03/M01 A2963 4650 72 4400 190/12 RMK AO2 T00331011
94299KAAT AAT20160105103011301/05/16 10:30:31  5-MIN KAAT 051830Z AUTO 21012KT 10SM OVC065 03/M01 A2963 4650 72 4400 190/12 RMK AO2 T00331011
94299KAAT AAT20160105103511301/05/16 10:35:31  5-MIN KAAT 051835Z AUTO 19011KT 10SM OVC070 03/M01 A2962 4660 72 4400 170/11 RMK AO2 T00331011
94299KAAT AAT20160105104011901/05/16 10:40:31  5-MIN KAAT 051840Z AUTO 18013G18KT 10SM OVC070 03/M01 A2962 4660 72 4400 170/13G18 RMK AO2 T00331011
94299KAAT AAT20160105104511301/05/16 10:45:31  5-MIN KAAT 051845Z AUTO 18013KT 10SM OVC070 03/M01 A2962 4660 72 4400 170/13 RMK AO2 T00331011
94299KAAT AAT20160105105012001/05/16 10:50:31  5-MIN KAAT 051850Z AUTO 18014KT 10SM OVC070 03/M01 A2961 4670 72 4400 160/14 RMK AO2 SLP032 T00331011
94299KAAT AAT20160105105512001/05/16 10:55:31  5-MIN KAAT 051855Z AUTO 17012KT 10SM OVC075 03/M01 A2961 4670 72 4400 160/12 RMK AO2 SLP034 T00331011
94299KAAT AAT20160105110011301/05/16 11:00:31  5-MIN KAAT 051900Z AUTO 18010KT 10SM OVC075 03/M01 A2961 4670 72 4400 170/10 RMK AO2 T00331011
94299KAAT AAT20160105110511301/05/16 11:05:31  5-MIN KAAT 051905Z AUTO 18007KT 10SM OVC075 03/M01 A2961 4670 76 4400 170/07 RMK AO2 T00331006
94299KAAT AAT20160105111011301/05/16 11:10:31  5-MIN KAAT 051910Z AUTO 19007KT 10SM OVC075 03/M01 A2961 4670 76 4400 170/07 RMK AO2 T00331006
94299KAAT AAT20160105111511301/05/16 11:15:31  5-MIN KAAT 051915Z AUTO 19007KT 10SM OVC075 03/M01 A2961 4670 76 4400 170/07 RMK AO2 T00331006
94299KAAT AAT20160105112011301/05/16 11:20:31  5-MIN KAAT 051920Z AUTO 18007KT 10SM OVC075 03/M01 A2961 4670 76 4400 170/07 RMK AO2 T00331006
94299KAAT AAT20160105112512001/05/16 11:25:31  5-MIN KAAT 051925Z AUTO 18007KT 10SM FEW038 OVC075 03/M01 A2961 4670 76 4400 170/07 RMK AO2 T00331006
94299KAAT AAT20160105113012701/05/16 11:30:31  5-MIN KAAT 051930Z AUTO 18008KT 10SM FEW038 SCT055 OVC070 04/M01 A2961 4670 73 4500 160/08 RMK AO2 T00391006
94299KAAT AAT20160105113512701/05/16 11:35:31  5-MIN KAAT 051935Z AUTO 18009KT 10SM FEW038 SCT050 OVC070 04/M01 A2960 4670 73 4500 170/09 RMK AO2 T00391006
94299KAAT AAT20160105114012701/05/16 11:40:31  5-MIN KAAT 051940Z AUTO 18009KT 10SM FEW038 SCT050 OVC065 04/M01 A2961 4670 73 4500 160/09 RMK AO2 T00391006
94299KAAT AAT20160105114512701/05/16 11:45:31  5-MIN KAAT 051945Z AUTO 18011KT 10SM FEW038 BKN050 OVC065 04/M01 A2960 4680 73 4500 170/11 RMK AO2 T00391006
94299KAAT AAT20160105115013401/05/16 11:50:31  5-MIN KAAT 051950Z AUTO 19010KT 10SM FEW038 BKN047 OVC060 04/M01 A2960 4680 73 4500 170/10 RMK AO2 SLP028 T00391006
94299KAAT AAT20160105115512701/05/16 11:55:31  5-MIN KAAT 051955Z AUTO 20008KT 10SM BKN047 OVC060 04/M01 A2960 4680 73 4500 180/08 RMK AO2 SLP028 T00391006
94299KAAT AAT20160105120012001/05/16 12:00:31  5-MIN KAAT 052000Z AUTO 19009KT 10SM BKN047 OVC055 04/M01 A2960 4680 73 4500 180/09 RMK AO2 T00391006
94299KAAT AAT20160105120511301/05/16 12:05:31  5-MIN KAAT 052005Z AUTO 19008KT 10SM OVC047 04/M01 A2960 4680 73 4500 180/08 RMK AO2 T00391006
94299KAAT AAT20160105121011301/05/16 12:10:31  5-MIN KAAT 052010Z AUTO 20009KT 10SM OVC047 04/M01 A2960 4680 73 4500 190/09 RMK AO2 T00391006
94299KAAT AAT20160105121511301/05/16 12:15:31  5-MIN KAAT 052015Z AUTO 20008KT 10SM OVC047 04/M01 A2960 4680 73 4500 190/08 RMK AO2 T00391006
94299KAAT AAT20160105122011301/05/16 12:20:31  5-MIN KAAT 052020Z AUTO 19009KT 10SM OVC049 04/M01 A2960 4680 73 4500 180/09 RMK AO2 T00391006
94299KAAT AAT20160105122511301/05/16 12:25:31  5-MIN KAAT 052025Z AUTO 19009KT 10SM OVC049 04/M01 A2959 4690 73 4500 170/09 RMK AO2 T00391006
94299KAAT AAT20160105123011301/05/16 12:30:31  5-MIN KAAT 052030Z AUTO 18011KT 10SM OVC049 04/M01 A2959 4690 73 4500 160/11 RMK AO2 T00391006
94299KAAT AAT20160105123511301/05/16 12:35:31  5-MIN KAAT 052035Z AUTO 17012KT 10SM OVC049 04/M01 A2959 4690 73 4500 160/12 RMK AO2 T00391006
94299KAAT AAT20160105124011301/05/16 12:40:31  5-MIN KAAT 052040Z AUTO 17012KT 10SM OVC049 04/M01 A2959 4690 73 4500 160/12 RMK AO2 T00391006
94299KAAT AAT20160105124511301/05/16 12:45:31  5-MIN KAAT 052045Z AUTO 17011KT 10SM OVC050 04/M01 A2958 4690 73 4500 160/11 RMK AO2 T00391006
94299KAAT AAT20160105125012501/05/16 12:50:31  5-MIN KAAT 052050Z AUTO 17010KT 10SM OVC050 03/00 A2958 4690 79 4400 160/10 RMK AO2 SLP022 T00330000 52013
94299KAAT AAT20160105125512501/05/16 12:55:31  5-MIN KAAT 052055Z AUTO 17011KT 10SM OVC048 03/00 A2958 4690 79 4400 160/11 RMK AO2 SLP021 T00330000 58010
94299KAAT AAT20160105130011201/05/16 13:00:31  5-MIN KAAT 052100Z AUTO 18009KT 10SM OVC047 03/00 A2959 4690 79 4400 160/09 RMK AO2 T00330000
94299KAAT AAT20160105130511201/05/16 13:05:31  5-MIN KAAT 052105Z AUTO 18006KT 10SM OVC049 03/00 A2959 4690 79 4400 170/06 RMK AO2 T00330000
94299KAAT AAT20160105131011901/05/16 13:10:31  5-MIN KAAT 052110Z AUTO 18007KT 10SM BKN049 OVC060 03/00 A2959 4690 79 4400 160/07 RMK AO2 T00330000
94299KAAT AAT20160105131511901/05/16 13:15:31  5-MIN KAAT 052115Z AUTO 18007KT 10SM BKN049 OVC060 04/00 A2959 4690 76 4500 170/07 RMK AO2 T00390000
94299KAAT AAT20160105132011201/05/16 13:20:31  5-MIN KAAT 052120Z AUTO 18006KT 10SM OVC055 03/00 A2959 4690 79 4400 170/06 RMK AO2 T00330000
94299KAAT AAT20160105132511201/05/16 13:25:31  5-MIN KAAT 052125Z AUTO 19006KT 10SM OVC060 03/00 A2959 4690 79 4400 170/06 RMK AO2 T00330000
94299KAAT AAT20160105133011901/05/16 13:30:31  5-MIN KAAT 052130Z AUTO 18007KT 10SM BKN060 OVC070 04/00 A2959 4690 76 4500 160/07 RMK AO2 T00390000
94299KAAT AAT20160105133511201/05/16 13:35:31  5-MIN KAAT 052135Z AUTO 17009KT 10SM OVC060 04/00 A2958 4690 76 4500 150/09 RMK AO2 T00390000
94299KAAT AAT20160105134011201/05/16 13:40:31  5-MIN KAAT 052140Z AUTO 17007KT 10SM OVC065 04/00 A2958 4700 76 4500 160/07 RMK AO2 T00390000
94299KAAT AAT20160105134511201/05/16 13:45:31  5-MIN KAAT 052145Z AUTO 17006KT 10SM OVC065 04/00 A2958 4690 76 4500 160/06 RMK AO2 T00390000
94299KAAT AAT20160105135011901/05/16 13:50:31  5-MIN KAAT 052150Z AUTO 17006KT 10SM OVC065 04/00 A2958 4690 76 4500 150/06 RMK AO2 SLP021 T00390000
94299KAAT AAT20160105135511901/05/16 13:55:31  5-MIN KAAT 052155Z AUTO 17004KT 10SM OVC065 04/00 A2958 4690 76 4500 150/04 RMK AO2 SLP021 T00390000
94299KAAT AAT20160105140011201/05/16 14:00:31  5-MIN KAAT 052200Z AUTO 00000KT 10SM OVC065 04/00 A2958 4690 76 4500 000/00 RMK AO2 T00390000
94299KAAT AAT20160105140511201/05/16 14:05:31  5-MIN KAAT 052205Z AUTO 17005KT 10SM OVC065 04/00 A2958 4700 76 4500 160/05 RMK AO2 T00390000
94299KAAT AAT20160105141011201/05/16 14:10:31  5-MIN KAAT 052210Z AUTO 16007KT 10SM OVC065 04/00 A2958 4700 76 4500 150/07 RMK AO2 T00390000
94299KAAT AAT20160105141511201/05/16 14:15:31  5-MIN KAAT 052215Z AUTO 16009KT 10SM OVC070 04/00 A2958 4700 76 4500 150/09 RMK AO2 T00390000
94299KAAT AAT20160105142011201/05/16 14:20:31  5-MIN KAAT 052220Z AUTO 16010KT 10SM OVC070 04/00 A2958 4700 76 4500 150/10 RMK AO2 T00390000
94299KAAT AAT20160105142511201/05/16 14:25:31  5-MIN KAAT 052225Z AUTO 16009KT 10SM OVC070 04/00 A2958 4700 76 4500 150/09 RMK AO2 T00390000
94299KAAT AAT20160105143011201/05/16 14:30:31  5-MIN KAAT 052230Z AUTO 16007KT 10SM OVC075 04/00 A2958 4690 76 4500 140/07 RMK AO2 T00390000
94299KAAT AAT20160105143511201/05/16 14:35:31  5-MIN KAAT 052235Z AUTO 16008KT 10SM OVC075 04/00 A2959 4690 76 4500 140/08 RMK AO2 T00390000
94299KAAT AAT20160105144011201/05/16 14:40:31  5-MIN KAAT 052240Z AUTO 16008KT 10SM OVC070 04/00 A2958 4690 76 4500 140/08 RMK AO2 T00390000
94299KAAT AAT20160105144511201/05/16 14:45:31  5-MIN KAAT 052245Z AUTO 16008KT 10SM OVC070 03/00 A2958 4690 79 4400 140/08 RMK AO2 T00330000
94299KAAT AAT20160105145012601/05/16 14:50:31  5-MIN KAAT 052250Z AUTO 16007KT 10SM BKN070 OVC080 04/00 A2958 4690 76 4500 150/07 RMK AO2 SLP023 T00390000
94299KAAT AAT20160105145512601/05/16 14:55:31  5-MIN KAAT 052255Z AUTO 16006KT 10SM BKN070 OVC085 04/00 A2959 4690 76 4500 150/06 RMK AO2 SLP023 T00390000
94299KAAT AAT20160105150012601/05/16 15:00:31  5-MIN KAAT 052300Z AUTO 17006KT 10SM SCT060 BKN070 OVC090 04/00 A2958 4690 76 4500 150/06 RMK AO2 T00390000
94299KAAT AAT20160105150511901/05/16 15:05:31  5-MIN KAAT 052305Z AUTO 16006KT 10SM BKN065 BKN090 04/00 A2958 4690 76 4500 150/06 RMK AO2 T00390000
94299KAAT AAT20160105151011901/05/16 15:10:31  5-MIN KAAT 052310Z AUTO 16007KT 10SM BKN065 BKN090 04/00 A2959 4690 76 4500 150/07 RMK AO2 T00390000
94299KAAT AAT20160105151511901/05/16 15:15:31  5-MIN KAAT 052315Z AUTO 17009KT 10SM SCT065 BKN090 04/00 A2959 4690 76 4500 150/09 RMK AO2 T00390000
94299KAAT AAT20160105152011901/05/16 15:20:31  5-MIN KAAT 052320Z AUTO 17007KT 10SM FEW060 BKN090 04/00 A2959 4690 76 4500 150/07 RMK AO2 T00390000
94299KAAT AAT20160105152512601/05/16 15:25:31  5-MIN KAAT 052325Z AUTO 17007KT 10SM FEW060 SCT075 BKN100 04/00 A2959 4690 76 4500 150/07 RMK AO2 T00390000
94299KAAT AAT20160105153012601/05/16 15:30:31  5-MIN KAAT 052330Z AUTO 17005KT 10SM FEW040 BKN100 BKN110 03/00 A2959 4690 79 4400 150/05 RMK AO2 T00330000
94299KAAT AAT20160105153512601/05/16 15:35:31  5-MIN KAAT 052335Z AUTO 17004KT 10SM SCT040 SCT065 BKN100 03/00 A2960 4680 79 4400 150/04 RMK AO2 T00330000
94299KAAT AAT20160105154012601/05/16 15:40:31  5-MIN KAAT 052340Z AUTO 16003KT 10SM BKN039 BKN100 BKN110 03/00 A2960 4680 79 4400 150/03 RMK AO2 T00330000
94299KAAT AAT20160105154512601/05/16 15:45:31  5-MIN KAAT 052345Z AUTO 17003KT 10SM BKN039 BKN100 OVC110 03/00 A2960 4680 79 4400 160/03 RMK AO2 T00330000
94299KAAT AAT20160105155014401/05/16 15:50:31  5-MIN KAAT 052350Z AUTO 19003KT 10SM BKN039 OVC100 03/00 A2960 4680 79 4400 170/03 RMK AO2 SLP029 T00330000 10039 20028 58010
94299KAAT AAT20160105155513701/05/16 15:55:31  5-MIN KAAT 052355Z AUTO 00000KT 10SM OVC039 03/00 A2960 4680 79 4400 000/00 RMK AO2 SLP030 T00330000 10039 20028 53006
94299KAAT AAT20160105160011201/05/16 16:00:31  5-MIN KAAT 060000Z AUTO 00000KT 10SM OVC041 03/00 A2961 4670 79 4400 000/00 RMK AO2 T00330000
94299KAAT AAT20160105160511201/05/16 16:05:31  5-MIN KAAT 060005Z AUTO 00000KT 10SM OVC041 03/00 A2960 4670 79 4400 000/00 RMK AO2 T00330000
94299KAAT AAT20160105161011201/05/16 16:10:31  5-MIN KAAT 060010Z AUTO 00000KT 10SM OVC041 03/00 A2960 4670 79 4400 000/00 RMK AO2 T00330000
94299KAAT AAT20160105161511201/05/16 16:15:31  5-MIN KAAT 060015Z AUTO 17004KT 10SM OVC043 03/00 A2961 4670 79 4400 150/04 RMK AO2 T00330000
94299KAAT AAT20160105162011201/05/16 16:20:31  5-MIN KAAT 060020Z AUTO 17004KT 10SM OVC041 03/00 A2961 4670 79 4400 150/04 RMK AO2 T00330000
94299KAAT AAT20160105162511901/05/16 16:25:31  5-MIN KAAT 060025Z AUTO 17005KT 10SM SCT034 OVC043 03/00 A2961 4670 79 4400 160/05 RMK AO2 T00330000
94299KAAT AAT20160105163011901/05/16 16:30:31  5-MIN KAAT 060030Z AUTO 17006KT 10SM BKN034 OVC043 03/00 A2961 4670 79 4400 160/06 RMK AO2 T00330000
94299KAAT AAT20160105163511901/05/16 16:35:31  5-MIN KAAT 060035Z AUTO 18006KT 10SM BKN034 OVC044 03/00 A2961 4670 79 4400 160/06 RMK AO2 T00330000
94299KAAT AAT20160105164011901/05/16 16:40:31  5-MIN KAAT 060040Z AUTO 17007KT 10SM BKN034 OVC044 03/00 A2961 4670 82 4400 160/07 RMK AO2 T00280000
94299KAAT AAT20160105164511201/05/16 16:45:31  5-MIN KAAT 060045Z AUTO 17008KT 10SM OVC034 03/00 A2961 4670 82 4400 160/08 RMK AO2 T00280000
94299KAAT AAT20160105165011901/05/16 16:50:31  5-MIN KAAT 060050Z AUTO 17008KT 10SM OVC033 03/00 A2961 4670 82 4300 160/08 RMK AO2 SLP031 T00280000
94299KAAT AAT20160105165511901/05/16 16:55:31  5-MIN KAAT 060055Z AUTO 17008KT 10SM OVC033 03/00 A2961 4670 82 4300 160/08 RMK AO2 SLP032 T00280000
94299KAAT AAT20160105170011201/05/16 17:00:31  5-MIN KAAT 060100Z AUTO 17007KT 10SM OVC033 03/00 A2961 4670 82 4300 160/07 RMK AO2 T00280000
94299KAAT AAT20160105170511201/05/16 17:05:31  5-MIN KAAT 060105Z AUTO 18007KT 10SM OVC035 03/00 A2962 4660 82 4300 160/07 RMK AO2 T00280000
94299KAAT AAT20160105171011201/05/16 17:10:31  5-MIN KAAT 060110Z AUTO 18007KT 10SM OVC035 03/00 A2962 4660 82 4300 160/07 RMK AO2 T00280000
94299KAAT AAT20160105171511201/05/16 17:15:31  5-MIN KAAT 060115Z AUTO 18006KT 10SM OVC036 02/00 A2962 4660 85 4300 160/06 RMK AO2 T00220000
94299KAAT AAT20160105172011901/05/16 17:20:31  5-MIN KAAT 060120Z AUTO 18006KT 10SM BKN034 OVC041 02/00 A2962 4660 85 4300 170/06 RMK AO2 T00220000
94299KAAT AAT20160105172511901/05/16 17:25:31  5-MIN KAAT 060125Z AUTO 19006KT 10SM BKN034 OVC041 02/00 A2962 4660 85 4300 170/06 RMK AO2 T00220000
94299KAAT AAT20160105173011901/05/16 17:30:31  5-MIN KAAT 060130Z AUTO 21007KT 10SM BKN028 OVC036 02/00 A2963 4650 85 4300 190/07 RMK AO2 T00220000
94299KAAT AAT20160105173512601/05/16 17:35:31  5-MIN KAAT 060135Z AUTO 23006KT 10SM BKN026 BKN033 OVC040 02/00 A2963 4650 85 4300 210/06 RMK AO2 T00220000
94299KAAT AAT20160105174011901/05/16 17:40:31  5-MIN KAAT 060140Z AUTO 24007KT 10SM BKN026 OVC033 03/00 A2963 4650 82 4300 230/07 RMK AO2 T00280000
94299KAAT AAT20160105174511901/05/16 17:45:31  5-MIN KAAT 060145Z AUTO 25007KT 10SM BKN026 OVC033 02/01 A2963 4650 89 4300 240/07 RMK AO2 T00220006
94299KAAT AAT20160105175011901/05/16 17:50:31  5-MIN KAAT 060150Z AUTO 25008KT 10SM OVC026 02/01 A2963 4650 89 4300 240/08 RMK AO2 SLP039 T00220006
94299KAAT AAT20160105175511901/05/16 17:55:31  5-MIN KAAT 060155Z AUTO 25009KT 10SM OVC026 02/01 A2963 4650 89 4300 230/09 RMK AO2 SLP037 T00220006
94299KAAT AAT20160105180011901/05/16 18:00:31  5-MIN KAAT 060200Z AUTO 25010KT 10SM BKN026 OVC031 02/01 A2964 4650 89 4300 240/10 RMK AO2 T00220006
94299KAAT AAT20160105180511901/05/16 18:05:31  5-MIN KAAT 060205Z AUTO 26008KT 10SM BKN026 OVC031 02/01 A2964 4640 92 4200 240/08 RMK AO2 T00170006
94299KAAT AAT20160105181012701/05/16 18:10:31  5-MIN KAAT 060210Z AUTO 25008KT 10SM UP OVC026 02/01 A2964 4640 92 4200 240/08 RMK AO2 UPB10 P0000 T00170006
94299KAAT AAT20160105181512701/05/16 18:15:31  5-MIN KAAT 060215Z AUTO 26009KT 10SM UP OVC024 02/01 A2964 4640 92 4200 250/09 RMK AO2 UPB10 P0000 T00170006
94299KAAT AAT20160105182014101/05/16 18:20:31  5-MIN KAAT 060220Z AUTO 26008KT 10SM UP SCT021 BKN026 OVC037 02/01 A2964 4640 92 4200 240/08 RMK AO2 UPB10 P0000 T00170006
94299KAAT AAT20160105182515001/05/16 18:25:31  5-MIN KAAT 060225Z AUTO 24005KT 10SM -RA SCT020 BKN026 OVC037 01/01 A2964 4640 96 4100 230/05 RMK AO2 UPB10E25RAB25 P0000 T00110006
94299KAAT AAT20160105183014901/05/16 18:30:31  5-MIN KAAT 060230Z AUTO 27004KT 10SM FEW014 BKN024 OVC042 01/01 A2964 4640 96 4100 250/04 RMK AO2 UPB10E25RAB25E27 P0000 T00110006
94299KAAT AAT20160105183514901/05/16 18:35:31  5-MIN KAAT 060235Z AUTO 25003KT 10SM SCT014 BKN022 OVC049 01/01 A2964 4640 96 4100 230/03 RMK AO2 UPB10E25RAB25E27 P0000 T00110006
94299KAAT AAT20160105184014901/05/16 18:40:31  5-MIN KAAT 060240Z AUTO 26004KT 10SM FEW014 BKN038 OVC049 01/01 A2964 4640 96 4100 240/04 RMK AO2 UPB10E25RAB25E27 P0000 T00110006
94299KAAT AAT20160105184514901/05/16 18:45:31  5-MIN KAAT 060245Z AUTO 26003KT 10SM FEW013 BKN038 OVC049 01/01 A2964 4640 96 4100 250/03 RMK AO2 UPB10E25RAB25E27 P0000 T00110006
94299KAAT AAT20160105185016801/05/16 18:50:31  5-MIN KAAT 060250Z AUTO 25003KT 10SM FEW013 BKN039 OVC050 01/01 A2964 4640 96 4100 230/03 RMK AO2 UPB10E25RAB25E27 SLP040 P0000 60000 T00110006 53006
94299KAAT AAT20160105185516901/05/16 18:55:31  5-MIN KAAT 060255Z AUTO 25004KT 10SM FEW015 BKN039 OVC050 01/01 A2964 4640 100 4000 240/04 RMK AO2 UPB10E25RAB25E27 SLP042 P0000 60000 T00060006 51011
94299KAAT AAT20160105190012001/05/16 19:00:31  5-MIN KAAT 060300Z AUTO 22004KT 10SM BKN037 OVC050 01/01 A2964 4640 100 4000 210/04 RMK AO2 T00060006
94299KAAT AAT20160105190511901/05/16 19:05:31  5-MIN KAAT 060305Z AUTO 23004KT 10SM BKN037 OVC050 01/01 A2964 4640 96 4100 210/04 RMK AO2 T00110006
94299KAAT AAT20160105191011301/05/16 19:10:31  5-MIN KAAT 060310Z AUTO 21005KT 10SM OVC037 01/01 A2965 4640 100 4000 200/05 RMK AO2 T00060006
94299KAAT AAT20160105191511201/05/16 19:15:31  5-MIN KAAT 060315Z AUTO 20005KT 10SM OVC035 01/01 A2965 4630 96 4100 180/05 RMK AO2 T00110006
94299KAAT AAT20160105192011201/05/16 19:20:31  5-MIN KAAT 060320Z AUTO 21004KT 10SM OVC033 01/01 A2965 4630 96 4100 200/04 RMK AO2 T00110006
94299KAAT AAT20160105192511901/05/16 19:25:31  5-MIN KAAT 060325Z AUTO 21004KT 10SM SCT027 OVC034 01/01 A2965 4630 96 4100 200/04 RMK AO2 T00110006
94299KAAT AAT20160105193011901/05/16 19:30:31  5-MIN KAAT 060330Z AUTO 21004KT 10SM SCT025 OVC034 01/01 A2965 4630 96 4100 200/04 RMK AO2 T00110006
94299KAAT AAT20160105193511901/05/16 19:35:31  5-MIN KAAT 060335Z AUTO 22004KT 10SM BKN027 OVC034 01/01 A2966 4630 96 4100 210/04 RMK AO2 T00110006
94299KAAT AAT20160105194011901/05/16 19:40:31  5-MIN KAAT 060340Z AUTO 24003KT 10SM SCT025 OVC032 01/01 A2966 4630 96 4100 220/03 RMK AO2 T00110006
94299KAAT AAT20160105194510901/05/16 19:45:31  5-MIN KAAT 060345Z AUTO 10SM BKN027 OVC034 01/01 A2966 4630 96 4100 M /M RMK AO2 T00110006
94299KAAT AAT20160105195009901/05/16 19:50:31  5-MIN KAAT 060350Z AUTO 10SM SCT027 OVC034 01/01 A2966 4630 96 4100 M /M RMK AO2
94299KAAT AAT20160105195512601/05/16 19:55:31  5-MIN KAAT 060355Z AUTO 25003KT 10SM BKN027 OVC034 01/01 A2966 4620 96 4100 240/03 RMK AO2 SLP049 T00110006
94299KAAT AAT20160105200011901/05/16 20:00:31  5-MIN KAAT 060400Z AUTO 00000KT 10SM BKN029 OVC036 01/01 A2966 4620 96 4100 000/00 RMK AO2 T00110006
94299KAAT AAT20160105200511901/05/16 20:05:31  5-MIN KAAT 060405Z AUTO 00000KT 10SM BKN029 OVC035 01/01 A2966 4620 96 4100 000/00 RMK AO2 T00110006
94299KAAT AAT20160105201011901/05/16 20:10:31  5-MIN KAAT 060410Z AUTO 00000KT 10SM BKN029 OVC035 01/01 A2966 4620 96 4100 000/00 RMK AO2 T00110006
94299KAAT AAT20160105201511901/05/16 20:15:31  5-MIN KAAT 060415Z AUTO 00000KT 10SM BKN029 OVC039 01/01 A2966 4620 96 4100 000/00 RMK AO2 T00110006
94299KAAT AAT20160105202011901/05/16 20:20:31  5-MIN KAAT 060420Z AUTO 00000KT 10SM SCT029 OVC041 01/01 A2966 4620 96 4100 000/00 RMK AO2 T00110006
94299KAAT AAT20160105202512601/05/16 20:25:31  5-MIN KAAT 060425Z AUTO 00000KT 10SM SCT029 SCT033 OVC043 01/01 A2966 4620 96 4100 000/00 RMK AO2 T00110006
94299KAAT AAT20160105203012601/05/16 20:30:31  5-MIN KAAT 060430Z AUTO 00000KT 10SM FEW028 FEW035 OVC045 01/01 A2966 4620 96 4100 000/00 RMK AO2 T00110006
94299KAAT AAT20160105203511901/05/16 20:35:31  5-MIN KAAT 060435Z AUTO 00000KT 10SM FEW028 OVC045 01/00 A2966 4620 96 4000 000/00 RMK AO2 T00060000
94299KAAT AAT20160105204011201/05/16 20:40:31  5-MIN KAAT 060440Z AUTO 00000KT 10SM OVC046 01/00 A2966 4620 92 4100 000/00 RMK AO2 T00110000
94299KAAT AAT20160105204511101/05/16 20:45:31  5-MIN KAAT 060445Z AUTO 01003KT 8SM OVC046 01/00 A2966 4620 96 4000 350/03 RMK AO2 T00060000
94299KAAT AAT20160105205013201/05/16 20:50:31  5-MIN KAAT 060450Z AUTO 00000KT 8SM FEW028 SCT032 OVC046 01/00 A2967 4620 96 4000 000/00 RMK AO2 SLP051 T00060000
94299KAAT AAT20160105205513301/05/16 20:55:31  5-MIN KAAT 060455Z AUTO 00000KT 9SM SCT028 BKN041 OVC048 01/01 A2967 4620 100 4000 000/00 RMK AO2 SLP052 T00060006
94299KAAT AAT20160105210012501/05/16 21:00:31  5-MIN KAAT 060500Z AUTO 35003KT 9SM BKN028 BKN033 OVC048 01/01 A2967 4620 96 4100 340/03 RMK AO2 T00110006
94299KAAT AAT20160105210512501/05/16 21:05:31  5-MIN KAAT 060505Z AUTO 00000KT 9SM BKN026 BKN036 OVC048 01/01 A2967 4620 96 4100 000/00 RMK AO2 T00110006
94299KAAT AAT20160105211013301/05/16 21:10:31  5-MIN KAAT 060510Z AUTO 00000KT 8SM UP BKN026 OVC036 01/01 A2967 4610 96 4100 000/00 RMK AO2 UPB08 P0000 T00110006
94299KAAT AAT20160105211512601/05/16 21:15:31  5-MIN KAAT 060515Z AUTO 00000KT 7SM UP OVC027 01/01 A2967 4610 96 4100 000/00 RMK AO2 UPB08 P0000 T00110006
94299KAAT AAT20160105212012701/05/16 21:20:31  5-MIN KAAT 060520Z AUTO 00000KT 7SM OVC025 01/01 A2967 4610 100 4000 000/00 RMK AO2 UPB08E19 P0000 T00060006
94299KAAT AAT20160105212513001/05/16 21:25:31  5-MIN KAAT 060525Z AUTO 00000KT 6SM BR OVC025 01/01 A2967 4610 100 4000 000/00 RMK AO2 UPB08E19 P0000 T00060006
94299KAAT AAT20160105213013301/05/16 21:30:31  5-MIN KAAT 060530Z AUTO 00000KT 7SM BKN025 OVC029 01/01 A2967 4620 96 4100 000/00 RMK AO2 UPB08E19 P0000 T00110006
94299KAAT AAT20160105213512601/05/16 21:35:31  5-MIN KAAT 060535Z AUTO 00000KT 7SM OVC023 01/01 A2967 4610 96 4100 000/00 RMK AO2 UPB08E19 P0000 T00110006
94299KAAT AAT20160105214013701/05/16 21:40:31  5-MIN KAAT 060540Z AUTO 00000KT 5SM BR BKN023 OVC029 01/01 A2967 4610 100 4000 000/00 RMK AO2 UPB08E19 P0000 T00060006
94299KAAT AAT20160105214513001/05/16 21:45:31  5-MIN KAAT 060545Z AUTO 00000KT 4SM BR OVC023 01/01 A2967 4610 100 4000 000/00 RMK AO2 UPB08E19 P0000 T00060006
94299KAAT AAT20160105215016801/05/16 21:50:31  5-MIN KAAT 060550Z AUTO 00000KT 3SM BR BKN023 OVC030 01/01 A2967 4610 100 4000 000/00 RMK AO2 UPB08E19 SLP053 P0000 60000 T00060006 10033 20006 51011
94299KAAT AAT20160105215516701/05/16 21:55:31  5-MIN KAAT 060555Z AUTO 00000KT 4SM BR BKN023 OVC030 01/00 A2967 4610 96 4000 000/00 RMK AO2 UPB08E19 SLP053 P0000 60000 T00060000 10033 20006 53004
94299KAAT AAT20160105220012201/05/16 22:00:31  5-MIN KAAT 060600Z AUTO 00000KT 4SM BR BKN023 OVC030 00/00 A2967 4610 100 3900 000/00 RMK AO2 T00000000
94299KAAT AAT20160105220512901/05/16 22:05:31  5-MIN KAAT 060605Z AUTO 00000KT 3SM BR FEW017 BKN023 OVC030 00/00 A2967 4610 100 3900 000/00 RMK AO2 T00000000
94299KAAT AAT20160105221012901/05/16 22:10:31  5-MIN KAAT 060610Z AUTO 00000KT 3SM BR FEW017 BKN023 BKN030 00/00 A2967 4610 100 3900 000/00 RMK AO2 T00000000
94299KAAT AAT20160105221512901/05/16 22:15:31  5-MIN KAAT 060615Z AUTO 00000KT 3SM BR FEW017 BKN023 BKN030 00/M01 A2967 4610 96 3900 000/00 RMK AO2 T00001006
94299KAAT AAT20160105222012201/05/16 22:20:31  5-MIN KAAT 060620Z AUTO 00000KT 3SM BR SCT019 SCT024 00/M01 A2967 4610 96 3900 000/00 RMK AO2 T00001006
94299KAAT AAT20160105222512701/05/16 22:25:31  5-MIN KAAT 060625Z AUTO 30004KT 2 1/2SM BR SCT021 SCT025 M01/M01 A2967 4610 96 3900 280/04 RMK AO2 T10061011
94299KAAT AAT20160105223012701/05/16 22:30:31  5-MIN KAAT 060630Z AUTO 30003KT 2 1/2SM BR SCT019 SCT035 M01/M01 A2967 4610 96 3900 280/03 RMK AO2 T10061011
94299KAAT AAT20160105223513101/05/16 22:35:31  5-MIN KAAT 060635Z AUTO 29003KT 4SM BR FEW014 SCT019 SCT025 M01/M01 A2967 4610 100 3900 280/03 RMK AO2 T10061006
94299KAAT AAT20160105224013101/05/16 22:40:31  5-MIN KAAT 060640Z AUTO 33003KT 6SM BR FEW012 SCT019 BKN024 M01/M01 A2967 4610 100 3900 320/03 RMK AO2 T10061006
94299KAAT AAT20160105224512801/05/16 22:45:31  5-MIN KAAT 060645Z AUTO 00000KT 8SM SCT012 SCT018 BKN024 M01/M01 A2968 4610 100 3900 000/00 RMK AO2 T10061006
94299KAAT AAT20160105225013601/05/16 22:50:31  5-MIN KAAT 060650Z AUTO 27003KT 10SM SCT012 BKN018 BKN025 M01/M01 A2968 4600 100 3900 260/03 RMK AO2 SLP056 T10061006
94299KAAT AAT20160105225512201/05/16 22:55:31  5-MIN KAAT 060655Z AUTO 25003KT 10SM BKN015 M01/M01 A2968 4610 100 3900 240/03 RMK AO2 SLP056 T10061006
94299KAAT AAT20160105230012201/05/16 23:00:31  5-MIN KAAT 060700Z AUTO 24004KT 10SM BKN015 OVC023 M01/M01 A2968 4600 100 3900 220/04 RMK AO2 T10061006
94299KAAT AAT20160105230512701/05/16 23:05:31  5-MIN KAAT 060705Z AUTO 25003KT 10SM BKN015 BKN023 OVC050 00/M01 A2968 4610 96 3900 240/03 RMK AO2 T00001006
94299KAAT AAT20160105231012701/05/16 23:10:31  5-MIN KAAT 060710Z AUTO 00000KT 10SM SCT014 BKN021 OVC050 00/00 A2968 4610 100 3900 000/00 RMK AO2 T00000000
94299KAAT AAT20160105231512001/05/16 23:15:31  5-MIN KAAT 060715Z AUTO 00000KT 10SM SCT014 OVC050 00/00 A2968 4610 100 3900 000/00 RMK AO2 T00000000
94299KAAT AAT20160105232012001/05/16 23:20:31  5-MIN KAAT 060720Z AUTO 00000KT 10SM FEW014 OVC050 00/M01 A2968 4610 96 3900 000/00 RMK AO2 T00001006
94299KAAT AAT20160105232511901/05/16 23:25:31  5-MIN KAAT 060725Z AUTO 00000KT 9SM FEW014 OVC050 00/M01 A2968 4610 96 3900 000/00 RMK AO2 T00001006
94299KAAT AAT20160105233011701/05/16 23:30:31  5-MIN KAAT 060730Z AUTO 00000KT 5SM BR OVC050 M01/M01 A2968 4610 100 3900 000/00 RMK AO2 T10061006
94299KAAT AAT20160105233511601/05/16 23:35:31  5-MIN KAAT 060735Z AUTO 00000KT 4SM BR OVC049 M01/M01 A2968 4600 96 3900 000/00 RMK AO2 T10061011
94299KAAT AAT20160105234011601/05/16 23:40:31  5-MIN KAAT 060740Z AUTO 12005KT 6SM BR OVC047 M01/M01 A2968 4610 96 3900 110/05 RMK AO2 T10061011
94299KAAT AAT20160105234511601/05/16 23:45:31  5-MIN KAAT 060745Z AUTO 13005KT 5SM BR OVC047 M01/M01 A2967 4610 96 3900 110/05 RMK AO2 T10061011
94299KAAT AAT20160105235013301/05/16 23:50:31  5-MIN KAAT 060750Z AUTO 13004KT 4SM BR OVC047 M01/M01 A2967 4610 96 3900 120/04 RMK AO2 SLP054 T10061011 400391011
94299KAAT AAT20160105235513301/05/16 23:55:31  5-MIN KAAT 060755Z AUTO 12005KT 4SM BR OVC047 M01/M01 A2967 4610 96 3900 110/05 RMK AO2 SLP054 T10061011 400391011
94299KAAT AAT20160106000011601/06/16 00:00:31  5-MIN KAAT 060800Z AUTO 12005KT 5SM BR BKN047 M01/M01 A2967 4610 96 3900 110/05 RMK AO2 T10061011
94299KAAT AAT20160106000511601/06/16 00:05:31  5-MIN KAAT 060805Z AUTO 10003KT 5SM BR BKN047 M01/M01 A2967 4610 96 3900 090/03 RMK AO2 T10061011
94299KAAT AAT20160106001012001/06/16 00:10:31  5-MIN KAAT 060810Z AUTO 00000KT 2 1/2SM BR BKN046 M01/M02 A2967 4610 96 3800 000/00 RMK AO2 T10111017
94299KAAT AAT20160106001511701/06/16 00:15:31  5-MIN KAAT 060815Z AUTO 00000KT 1SM BR SCT046 M02/M02 A2967 4610 100 3700 000/00 RMK AO2 T10171017
94299KAAT AAT20160106002011901/06/16 00:20:31  5-MIN KAAT 060820Z AUTO 00000KT 3/4SM BR FEW046 M02/M02 A2967 4610 100 3700 000/00 RMK AO2 T10171017
94299KAAT AAT20160106002512801/06/16 00:25:31  5-MIN KAAT 060825Z AUTO 00000KT 1/2SM FZFG FEW001 FEW044 M02/M02 A2968 4610 100 3700 000/00 RMK AO2 T10221022
94299KAAT AAT20160106003012701/06/16 00:30:31  5-MIN KAAT 060830Z AUTO 00000KT 1/4SM FZFG SCT001 SCT044 M02/M03 A2968 4600 96 3700 000/00 RMK AO2 T10221028
94299KAAT AAT20160106003511901/06/16 00:35:31  5-MIN KAAT 060835Z AUTO 00000KT 1/4SM FZFG VV001 M03/M03 A2968 4610 96 3600 000/00 RMK AO2 T10281033
94299KAAT AAT20160106004011901/06/16 00:40:31  5-MIN KAAT 060840Z AUTO 00000KT 1/4SM FZFG VV001 M02/M03 A2967 4610 92 3700 000/00 RMK AO2 T10221033
94299KAAT AAT20160106004511901/06/16 00:45:31  5-MIN KAAT 060845Z AUTO 00000KT 1/4SM FZFG VV001 M02/M03 A2968 4610 96 3700 000/00 RMK AO2 T10221028
94299KAAT AAT20160106005013201/06/16 00:50:31  5-MIN KAAT 060850Z AUTO 00000KT 1/4SM FZFG VV001 M02/M03 A2968 4610 96 3700 000/00 RMK AO2 SLP060 T10221028 53004
94299KAAT AAT20160106005513301/06/16 00:55:31  5-MIN KAAT 060855Z AUTO 00000KT 1/4SM FZFG VV001 M03/M03 A2968 4610 100 3600 000/00 RMK AO2 SLP059 T10281028 51002
94299KAAT AAT20160106010011901/06/16 01:00:31  5-MIN KAAT 060900Z AUTO 00000KT 1/4SM FZFG VV001 M03/M03 A2968 4610 96 3600 000/00 RMK AO2 T10281033
94299KAAT AAT20160106010512001/06/16 01:05:31  5-MIN KAAT 060905Z AUTO 35004KT 1/4SM FZFG VV001 M04/M04 A2968 4610 100 3500 340/04 RMK AO2 T10391039
94299KAAT AAT20160106011011901/06/16 01:10:31  5-MIN KAAT 060910Z AUTO 36003KT 1/4SM FZFG VV001 M03/M04 A2968 4610 96 3500 340/03 RMK AO2 T10331039
94299KAAT AAT20160106011512701/06/16 01:15:31  5-MIN KAAT 060915Z AUTO 00000KT 1/4SM FZFG BKN001 OVC037 M03/M03 A2968 4610 96 3600 000/00 RMK AO2 T10281033
94299KAAT AAT20160106012012701/06/16 01:20:31  5-MIN KAAT 060920Z AUTO 00000KT 1/4SM FZFG BKN001 OVC037 M02/M03 A2968 4610 96 3700 000/00 RMK AO2 T10221028
94299KAAT AAT20160106012512801/06/16 01:25:31  5-MIN KAAT 060925Z AUTO 00000KT 1/4SM FZFG BKN001 OVC037 M03/M03 A2968 4610 100 3600 000/00 RMK AO2 T10281028
94299KAAT AAT20160106013012801/06/16 01:30:31  5-MIN KAAT 060930Z AUTO 00000KT 1/4SM FZFG BKN001 OVC037 M04/M04 A2968 4610 100 3500 000/00 RMK AO2 T10391039
94299KAAT AAT20160106013512701/06/16 01:35:31  5-MIN KAAT 060935Z AUTO 00000KT 1/4SM FZFG BKN001 OVC037 M03/M03 A2968 4610 96 3600 000/00 RMK AO2 T10281033
94299KAAT AAT20160106014012801/06/16 01:40:31  5-MIN KAAT 060940Z AUTO 00000KT 1/4SM FZFG BKN001 OVC038 M04/M04 A2968 4610 100 3500 000/00 RMK AO2 T10391039
94299KAAT AAT20160106014512701/06/16 01:45:31  5-MIN KAAT 060945Z AUTO 00000KT 1/4SM FZFG BKN001 OVC038 M04/M04 A2968 4610 96 3500 000/00 RMK AO2 T10391044
94299KAAT AAT20160106015013401/06/16 01:50:31  5-MIN KAAT 060950Z AUTO 17004KT 1/4SM FZFG BKN001 BKN038 M04/M05 A2968 4610 96 3400 150/04 RMK AO2 SLP062 T10441050
94299KAAT AAT20160106015513201/06/16 01:55:31  5-MIN KAAT 060955Z AUTO 13003KT 3/4SM BR BKN001 BKN038 M05/M06 A2968 4610 96 3300 120/03 RMK AO2 SLP063 T10501056
94299KAAT AAT20160106020011601/06/16 02:00:31  5-MIN KAAT 061000Z AUTO 13003KT 3SM BR SCT001 M03/M04 A2967 4610 92 3500 110/03 RMK AO2 T10331044
94299KAAT AAT20160106020511601/06/16 02:05:31  5-MIN KAAT 061005Z AUTO 00000KT 5SM BR SCT001 M03/M04 A2968 4610 96 3500 000/00 RMK AO2 T10331039
94299KAAT AAT20160106021012101/06/16 02:10:31  5-MIN KAAT 061010Z AUTO 00000KT 2 1/2SM BR FEW001 M05/M05 A2967 4610 100 3300 000/00 RMK AO2 T10501050
94299KAAT AAT20160106021511701/06/16 02:15:31  5-MIN KAAT 061015Z AUTO 00000KT 3/4SM BR VV001 M06/M06 A2967 4610 96 3300 000/00 RMK AO2 T10561061
94299KAAT AAT20160106022011901/06/16 02:20:31  5-MIN KAAT 061020Z AUTO 00000KT 1/2SM FZFG VV001 M06/M07 A2967 4610 92 3300 000/00 RMK AO2 T10561067
94299KAAT AAT20160106022511501/06/16 02:25:31  5-MIN KAAT 061025Z AUTO 16004KT 1SM BR VV001 M05/M06 A2967 4620 92 3300 150/04 RMK AO2 T10501061
94299KAAT AAT20160106023011601/06/16 02:30:31  5-MIN KAAT 061030Z AUTO 19004KT 4SM BR FEW001 M05/M06 A2967 4620 96 3300 180/04 RMK AO2 T10501056
94299KAAT AAT20160106023511701/06/16 02:35:31  5-MIN KAAT 061035Z AUTO 17006KT 4SM BR FEW001 M06/M06 A2967 4620 100 3300 160/06 RMK AO2 T10561056
94299KAAT AAT20160106024011601/06/16 02:40:31  5-MIN KAAT 061040Z AUTO 19005KT 4SM BR FEW001 M05/M06 A2967 4620 96 3300 170/05 RMK AO2 T10501056
94299KAAT AAT20160106024511401/06/16 02:45:31  5-MIN KAAT 061045Z AUTO 17007KT 5SM BR CLR M06/M06 A2967 4620 100 3200 150/07 RMK AO2 T10611061
94299KAAT AAT20160106025012001/06/16 02:50:31  5-MIN KAAT 061050Z AUTO 17009KT 5SM BR CLR M04/M06 A2967 4620 88 3400 150/09 RMK AO2 SLP058 T10441061
94299KAAT AAT20160106025512101/06/16 02:55:31  5-MIN KAAT 061055Z AUTO 16008KT 10SM FEW040 M03/M04 A2967 4610 92 3600 150/08 RMK AO2 SLP058 T10281039
94299KAAT AAT20160106030011401/06/16 03:00:31  5-MIN KAAT 061100Z AUTO 17008KT 10SM SCT040 M02/M03 A2967 4610 92 3700 150/08 RMK AO2 T10221033
94299KAAT AAT20160106030511401/06/16 03:05:31  5-MIN KAAT 061105Z AUTO 16007KT 10SM BKN040 M02/M03 A2967 4620 96 3700 150/07 RMK AO2 T10221028
94299KAAT AAT20160106031011401/06/16 03:10:31  5-MIN KAAT 061110Z AUTO 15010KT 10SM BKN038 M02/M03 A2966 4620 92 3800 140/10 RMK AO2 T10171028
94299KAAT AAT20160106031511401/06/16 03:15:31  5-MIN KAAT 061115Z AUTO 15009KT 10SM BKN038 M02/M03 A2966 4620 92 3800 140/09 RMK AO2 T10171028
94299KAAT AAT20160106032011401/06/16 03:20:31  5-MIN KAAT 061120Z AUTO 15007KT 10SM BKN038 M02/M03 A2966 4620 92 3800 140/07 RMK AO2 T10171028
94299KAAT AAT20160106032511401/06/16 03:25:31  5-MIN KAAT 061125Z AUTO 16008KT 10SM BKN039 M02/M03 A2966 4620 92 3800 150/08 RMK AO2 T10171028
94299KAAT AAT20160106033011401/06/16 03:30:31  5-MIN KAAT 061130Z AUTO 18010KT 10SM SCT039 M02/M03 A2966 4620 92 3800 160/10 RMK AO2 T10171028
94299KAAT AAT20160106033511401/06/16 03:35:31  5-MIN KAAT 061135Z AUTO 17010KT 10SM FEW039 M02/M03 A2966 4630 88 3800 160/10 RMK AO2 T10171033
94299KAAT AAT20160106034011401/06/16 03:40:31  5-MIN KAAT 061140Z AUTO 17008KT 10SM FEW039 M02/M03 A2965 4630 88 3800 160/08 RMK AO2 T10171033
94299KAAT AAT20160106034511101/06/16 03:45:31  5-MIN KAAT 061145Z AUTO 18007KT 10SM CLR M02/M03 A2965 4630 88 3800 170/07 RMK AO2 T10171033
94299KAAT AAT20160106035013601/06/16 03:50:31  5-MIN KAAT 061150Z AUTO 17007KT 10SM CLR M02/M03 A2965 4630 92 3700 160/07 RMK AO2 SLP051 T10221033 10006 21061 51002
94299KAAT AAT20160106035513901/06/16 03:55:31  5-MIN KAAT 061155Z AUTO 17007KT 10SM FEW046 M02/M03 A2965 4630 88 3800 160/07 RMK AO2 SLP049 T10171033 10006 21061 58007
94299KAAT AAT20160106040011401/06/16 04:00:31  5-MIN KAAT 061200Z AUTO 16008KT 10SM SCT046 M02/M03 A2965 4630 88 3800 150/08 RMK AO2 T10171033
94299KAAT AAT20160106040511401/06/16 04:05:31  5-MIN KAAT 061205Z AUTO 16006KT 10SM BKN046 M01/M03 A2965 4630 88 3800 150/06 RMK AO2 T10111028
94299KAAT AAT20160106041011401/06/16 04:10:31  5-MIN KAAT 061210Z AUTO 17007KT 10SM BKN044 M01/M03 A2965 4630 88 3800 160/07 RMK AO2 T10111028
94299KAAT AAT20160106041511401/06/16 04:15:31  5-MIN KAAT 061215Z AUTO 17008KT 10SM BKN044 M01/M03 A2965 4630 88 3800 150/08 RMK AO2 T10111028
94299KAAT AAT20160106042011401/06/16 04:20:31  5-MIN KAAT 061220Z AUTO 16007KT 10SM OVC042 M01/M03 A2965 4630 85 3900 140/07 RMK AO2 T10061028
94299KAAT AAT20160106042511401/06/16 04:25:31  5-MIN KAAT 061225Z AUTO 17008KT 10SM OVC042 M01/M03 A2965 4630 85 3900 150/08 RMK AO2 T10061028
94299KAAT AAT20160106043011401/06/16 04:30:31  5-MIN KAAT 061230Z AUTO 14007KT 10SM OVC040 M01/M03 A2965 4640 85 3900 130/07 RMK AO2 T10061028
94299KAAT AAT20160106043511401/06/16 04:35:31  5-MIN KAAT 061235Z AUTO 15007KT 10SM OVC040 M01/M03 A2964 4640 85 3900 130/07 RMK AO2 T10061028
94299KAAT AAT20160106044011401/06/16 04:40:31  5-MIN KAAT 061240Z AUTO 15006KT 10SM OVC038 M01/M03 A2964 4640 85 3900 140/06 RMK AO2 T10061028
94299KAAT AAT20160106044511401/06/16 04:45:31  5-MIN KAAT 061245Z AUTO 13005KT 10SM OVC038 M01/M03 A2964 4640 85 3900 110/05 RMK AO2 T10061028
94299KAAT AAT20160106045012101/06/16 04:50:31  5-MIN KAAT 061250Z AUTO 12004KT 10SM OVC038 M01/M03 A2964 4640 85 3900 110/04 RMK AO2 SLP043 T10061028
94299KAAT AAT20160106045512101/06/16 04:55:31  5-MIN KAAT 061255Z AUTO 12004KT 10SM OVC038 M01/M03 A2963 4650 85 3900 110/04 RMK AO2 SLP042 T10061028
94299KAAT AAT20160106050011401/06/16 05:00:31  5-MIN KAAT 061300Z AUTO 12004KT 10SM BKN038 M01/M03 A2963 4650 85 3900 100/04 RMK AO2 T10061028
94299KAAT AAT20160106050511401/06/16 05:05:31  5-MIN KAAT 061305Z AUTO 00000KT 10SM BKN038 M01/M03 A2963 4650 85 3900 000/00 RMK AO2 T10061028
94299KAAT AAT20160106051011401/06/16 05:10:31  5-MIN KAAT 061310Z AUTO 17003KT 10SM SCT038 M01/M03 A2963 4650 85 3900 150/03 RMK AO2 T10111033
94299KAAT AAT20160106051511401/06/16 05:15:31  5-MIN KAAT 061315Z AUTO 16003KT 10SM SCT038 M01/M03 A2963 4650 85 3900 140/03 RMK AO2 T10111033
94299KAAT AAT20160106052011401/06/16 05:20:31  5-MIN KAAT 061320Z AUTO 18004KT 10SM SCT038 M01/M03 A2963 4650 85 3900 170/04 RMK AO2 T10111033
94299KAAT AAT20160106052511401/06/16 05:25:31  5-MIN KAAT 061325Z AUTO 00000KT 10SM SCT036 M01/M04 A2963 4650 81 3900 000/00 RMK AO2 T10111039
94299KAAT AAT20160106053011401/06/16 05:30:31  5-MIN KAAT 061330Z AUTO 00000KT 10SM FEW036 M02/M04 A2963 4650 85 3800 000/00 RMK AO2 T10171039
94299KAAT AAT20160106053511401/06/16 05:35:31  5-MIN KAAT 061335Z AUTO 00000KT 10SM FEW036 M02/M04 A2963 4650 85 3800 000/00 RMK AO2 T10171039
94299KAAT AAT20160106054011401/06/16 05:40:31  5-MIN KAAT 061340Z AUTO 15004KT 10SM FEW036 M02/M04 A2963 4650 81 3800 130/04 RMK AO2 T10171044
94299KAAT AAT20160106054511401/06/16 05:45:31  5-MIN KAAT 061345Z AUTO 18003KT 10SM FEW036 M02/M04 A2963 4650 81 3800 170/03 RMK AO2 T10171044
94299KAAT AAT20160106055011801/06/16 05:50:31  5-MIN KAAT 061350Z AUTO 18004KT 10SM CLR M02/M04 A2963 4660 81 3800 170/04 RMK AO2 SLP042 T10171044
94299KAAT AAT20160106055511801/06/16 05:55:31  5-MIN KAAT 061355Z AUTO 19004KT 10SM CLR M02/M04 A2963 4660 81 3800 180/04 RMK AO2 SLP042 T10171044
94299KAAT AAT20160106060011101/06/16 06:00:31  5-MIN KAAT 061400Z AUTO 20005KT 10SM CLR M02/M04 A2962 4660 81 3800 180/05 RMK AO2 T10171044
94299KAAT AAT20160106060511101/06/16 06:05:31  5-MIN KAAT 061405Z AUTO 18004KT 10SM CLR M02/M04 A2963 4650 81 3800 170/04 RMK AO2 T10171044
94299KAAT AAT20160106061011401/06/16 06:10:31  5-MIN KAAT 061410Z AUTO 18003KT 10SM FEW041 M02/M04 A2963 4650 85 3800 160/03 RMK AO2 T10171039
94299KAAT AAT20160106061511401/06/16 06:15:31  5-MIN KAAT 061415Z AUTO 15003KT 10SM SCT041 M01/M04 A2963 4650 81 3900 140/03 RMK AO2 T10111039
94299KAAT AAT20160106062011401/06/16 06:20:31  5-MIN KAAT 061420Z AUTO 16003KT 10SM BKN039 M01/M04 A2963 4650 81 3900 150/03 RMK AO2 T10111039
94299KAAT AAT20160106062511401/06/16 06:25:31  5-MIN KAAT 061425Z AUTO 00000KT 10SM BKN039 M01/M04 A2963 4650 78 3900 000/00 RMK AO2 T10061039
94299KAAT AAT20160106063011401/06/16 06:30:31  5-MIN KAAT 061430Z AUTO 00000KT 10SM SCT039 M02/M04 A2963 4650 85 3700 000/00 RMK AO2 T10221044
94299KAAT AAT20160106063511401/06/16 06:35:31  5-MIN KAAT 061435Z AUTO 00000KT 10SM SCT039 M03/M05 A2963 4650 88 3600 000/00 RMK AO2 T10331050
94299KAAT AAT20160106064011401/06/16 06:40:31  5-MIN KAAT 061440Z AUTO 00000KT 10SM BKN039 M03/M05 A2963 4650 85 3700 000/00 RMK AO2 T10281050
94299KAAT AAT20160106064511401/06/16 06:45:31  5-MIN KAAT 061445Z AUTO 00000KT 10SM SCT039 M02/M04 A2963 4650 85 3700 000/00 RMK AO2 T10221044
94299KAAT AAT20160106065013401/06/16 06:50:31  5-MIN KAAT 061450Z AUTO 00000KT 10SM FEW038 SCT110 M02/M04 A2963 4650 81 3800 000/00 RMK AO2 SLP046 T10171044 58007
94299KAAT AAT20160106065513401/06/16 06:55:31  5-MIN KAAT 061455Z AUTO 00000KT 10SM FEW038 SCT110 M02/M04 A2963 4650 81 3800 000/00 RMK AO2 SLP046 T10171044 55007
94299KAAT AAT20160106070012101/06/16 07:00:31  5-MIN KAAT 061500Z AUTO 16003KT 10SM FEW038 FEW110 M02/M04 A2963 4650 81 3800 150/03 RMK AO2 T10171044
94299KAAT AAT20160106070512101/06/16 07:05:31  5-MIN KAAT 061505Z AUTO 17003KT 10SM FEW038 FEW110 M02/M04 A2963 4650 81 3800 160/03 RMK AO2 T10171044
94299KAAT AAT20160106071011401/06/16 07:10:31  5-MIN KAAT 061510Z AUTO 00000KT 10SM FEW110 M02/M04 A2963 4650 81 3800 000/00 RMK AO2 T10171044
94299KAAT AAT20160106071511401/06/16 07:15:31  5-MIN KAAT 061515Z AUTO 00000KT 10SM FEW110 M03/M05 A2963 4650 85 3700 000/00 RMK AO2 T10281050
94299KAAT AAT20160106072011001/06/16 07:20:31  5-MIN KAAT 061520Z AUTO 00000KT 9SM CLR M03/M05 A2963 4650 88 3600 000/00 RMK AO2 T10331050
94299KAAT AAT20160106072511301/06/16 07:25:31  5-MIN KAAT 061525Z AUTO 00000KT 5SM BR CLR M03/M05 A2963 4650 88 3600 000/00 RMK AO2 T10331050
94299KAAT AAT20160106073011601/06/16 07:30:31  5-MIN KAAT 061530Z AUTO 00000KT 5SM BR FEW110 M03/M04 A2963 4650 88 3700 000/00 RMK AO2 T10281044
94299KAAT AAT20160106073512001/06/16 07:35:31  5-MIN KAAT 061535Z AUTO 00000KT 7SM FEW038 SCT110 M03/M04 A2963 4650 88 3700 000/00 RMK AO2 T10281044
94299KAAT AAT20160106074012101/06/16 07:40:31  5-MIN KAAT 061540Z AUTO 00000KT 10SM FEW038 BKN110 M02/M04 A2963 4650 85 3700 000/00 RMK AO2 T10221044
94299KAAT AAT20160106074511301/06/16 07:45:31  5-MIN KAAT 061545Z AUTO 02003KT 8SM BKN110 M03/M05 A2963 4650 88 3600 010/03 RMK AO2 T10331050
94299KAAT AAT20160106075012301/06/16 07:50:31  5-MIN KAAT 061550Z AUTO 03003KT 6SM BR BKN110 M03/M05 A2963 4650 88 3600 010/03 RMK AO2 SLP047 T10331050
94299KAAT AAT20160106075513001/06/16 07:55:31  5-MIN KAAT 061555Z AUTO 03003KT 6SM BR FEW039 OVC110 M03/M04 A2963 4650 88 3700 010/03 RMK AO2 SLP046 T10281044
94299KAAT AAT20160106080012001/06/16 08:00:31  5-MIN KAAT 061600Z AUTO 03003KT 7SM FEW039 OVC100 M03/M04 A2963 4650 88 3700 010/03 RMK AO2 T10281044
94299KAAT AAT20160106080512001/06/16 08:05:31  5-MIN KAAT 061605Z AUTO 00000KT 7SM SCT085 OVC110 M02/M04 A2963 4650 88 3700 000/00 RMK AO2 T10221039
94299KAAT AAT20160106081012701/06/16 08:10:31  5-MIN KAAT 061610Z AUTO 00000KT 8SM SCT070 BKN090 OVC110 M02/M04 A2963 4650 85 3800 000/00 RMK AO2 T10171039
94299KAAT AAT20160106081512701/06/16 08:15:31  5-MIN KAAT 061615Z AUTO 00000KT 9SM BKN070 BKN090 OVC110 M01/M04 A2964 4650 78 3900 000/00 RMK AO2 T10061039
94299KAAT AAT20160106082012701/06/16 08:20:31  5-MIN KAAT 061620Z AUTO 00000KT 10SM BKN070 BKN090 OVC110 00/M04 A2964 4640 75 4000 000/00 RMK AO2 T00001039
94299KAAT AAT20160106082512701/06/16 08:25:31  5-MIN KAAT 061625Z AUTO 19003KT 10SM FEW048 BKN070 OVC090 00/M04 A2964 4640 75 4000 180/03 RMK AO2 T00001039
94299KAAT AAT20160106083012101/06/16 08:30:31  5-MIN KAAT 061630Z AUTO 16003KT 10SM BKN060 OVC080 M02/M04 A2964 4640 85 3800 140/03 RMK AO2 T10171039
94299KAAT AAT20160106083512801/06/16 08:35:31  5-MIN KAAT 061635Z AUTO 17004KT 10SM FEW050 BKN055 OVC070 M01/M04 A2964 4640 81 3800 160/04 RMK AO2 T10111039
94299KAAT AAT20160106084012101/06/16 08:40:31  5-MIN KAAT 061640Z AUTO 17003KT 10SM BKN050 OVC070 M01/M04 A2964 4640 81 3800 160/03 RMK AO2 T10111039
94299KAAT AAT20160106084512101/06/16 08:45:31  5-MIN KAAT 061645Z AUTO 18003KT 10SM BKN046 OVC070 M01/M03 A2965 4640 81 3900 170/03 RMK AO2 T10061033
94299KAAT AAT20160106085012801/06/16 08:50:31  5-MIN KAAT 061650Z AUTO 21003KT 10SM BKN040 OVC050 M01/M04 A2965 4630 78 3900 190/03 RMK AO2 SLP052 T10061039
94299KAAT AAT20160106085512701/06/16 08:55:31  5-MIN KAAT 061655Z AUTO 25004KT 9SM BKN034 OVC048 M01/M03 A2965 4630 85 3800 230/04 RMK AO2 SLP054 T10111033
94299KAAT AAT20160106090014101/06/16 09:00:31  5-MIN KAAT 061700Z AUTO 28004KT 5SM -SN BR BKN030 OVC048 M01/M03 A2966 4630 85 3800 270/04 RMK AO2 SNB1656 P0000 T10111033
94299KAAT AAT20160106090513401/06/16 09:05:31  5-MIN KAAT 061705Z AUTO 26004KT 4SM -SN BR OVC028 M01/M03 A2966 4630 85 3800 250/04 RMK AO2 SNB1656 P0000 T10111033
94299KAAT AAT20160106091013001/06/16 09:10:31  5-MIN KAAT 061710Z AUTO VRB04KT 4SM -SN OVC026 00/M03 A2966 4620 81 4000 VRB/04 RMK AO2 SNB1656 P0000 T00001028
94299KAAT AAT20160106091514701/06/16 09:15:31  5-MIN KAAT 061715Z AUTO VRB05KT 1 3/4SM -SN BR OVC022 00/M02 A2967 4620 85 4000 VRB/05 RMK AO2 VIS 3/4V5 SNB1656 P0000 T00001022
94299KAAT AAT20160106092013401/06/16 09:20:31  5-MIN KAAT 061720Z AUTO 18006KT 1 1/4SM -SN OVC018 01/M02 A2967 4620 82 4000 160/06 RMK AO2 SNB1656 P0000 T00061022
94299KAAT AAT20160106092513701/06/16 09:25:31  5-MIN KAAT 061725Z AUTO VRB06KT 1 1/2SM -SN BR OVC018 01/M02 A2966 4620 85 4000 VRB/06 RMK AO2 SNB1656 P0000 T00061017
94299KAAT AAT20160106093013301/06/16 09:30:31  5-MIN KAAT 061730Z AUTO 17006KT 2SM -SN BR OVC018 01/M02 A2966 4620 85 4000 160/06 RMK AO2 SNB1656 P0000 T00061017
94299KAAT AAT20160106093513701/06/16 09:35:31  5-MIN KAAT 061735Z AUTO 18007KT 2 1/2SM -SN BR OVC019 01/M02 A2967 4620 85 4000 170/07 RMK AO2 SNB1656 P0000 T00061017
94299KAAT AAT20160106094013701/06/16 09:40:31  5-MIN KAAT 061740Z AUTO 16005KT 2 1/2SM -SN BR OVC019 01/M02 A2967 4620 85 4000 150/05 RMK AO2 SNB1656 P0000 T00061017
94299KAAT AAT20160106094513701/06/16 09:45:31  5-MIN KAAT 061745Z AUTO 14009KT 1 3/4SM -SN BR OVC019 01/M02 A2967 4620 85 4000 130/09 RMK AO2 SNB1656 P0000 T00061017
94299KAAT AAT20160106095012701/06/16 09:50:31  5-MIN KAAT 061750Z AUTO 13006KT 1 1/2SM -SN BR OVC019 01/M02 A2967 4620 85 4000 120/06 RMK AO2 SNB1656 P0000
94299KAAT AAT20160106095516401/06/16 09:55:31  5-MIN KAAT 061755Z AUTO 14006KT 2SM -SN BR OVC021 01/M02 A2967 4610 85 4000 130/06 RMK AO2 SNB1656 SLP057 P0000 60000 T00061017 10006 21033 51013
94299KAAT AAT20160106100013201/06/16 10:00:31  5-MIN KAAT 061800Z AUTO 13003KT 3SM -SN BR BKN023 OVC034 01/M01 A2967 4610 89 4000 110/03 RMK AO2 P0000 T00061011
94299KAAT AAT20160106100513201/06/16 10:05:31  5-MIN KAAT 061805Z AUTO 00000KT 3SM -SN BR BKN023 OVC033 01/M01 A2967 4620 89 4000 000/00 RMK AO2 P0000 T00061011
94299KAAT AAT20160106101013201/06/16 10:10:31  5-MIN KAAT 061810Z AUTO 08003KT 5SM -SN BR BKN025 OVC035 01/M01 A2967 4620 85 4100 070/03 RMK AO2 P0000 T00111011
94299KAAT AAT20160106101513901/06/16 10:15:31  5-MIN KAAT 061815Z AUTO 11004KT 5SM -SN BR FEW019 BKN025 OVC035 01/M01 A2967 4610 85 4100 100/04 RMK AO2 P0000 T00111011
94299KAAT AAT20160106102014401/06/16 10:20:31  5-MIN KAAT 061820Z AUTO 14007KT 2SM -SN FEW019 BKN025 OVC035 01/M02 A2967 4610 82 4100 130/07 RMK AO2 VIS 1V5 P0000 T00111017
94299KAAT AAT20160106102513901/06/16 10:25:31  5-MIN KAAT 061825Z AUTO 15008KT 1SM -SN BR BKN021 BKN030 OVC037 01/M01 A2967 4610 89 4000 130/08 RMK AO2 P0000 T00061011
94299KAAT AAT20160106103013401/06/16 10:30:31  5-MIN KAAT 061830Z AUTO 14008KT 3/4SM -SN BR BKN019 OVC034 00/M01 A2967 4610 92 3900 130/08 RMK AO2 P0001 T00001011
94299KAAT AAT20160106103512501/06/16 10:35:31  5-MIN KAAT 061835Z AUTO 14005KT 1/2SM SN FG VV016 00/M01 A2967 4620 96 3900 120/05 RMK AO2 P0001 T00001006
94299KAAT AAT20160106104012401/06/16 10:40:31  5-MIN KAAT 061840Z AUTO 00000KT 1SM -SN BR VV017 00/M01 A2967 4620 96 3900 000/00 RMK AO2 P0001 T00001006
94299KAAT AAT20160106104512901/06/16 10:45:31  5-MIN KAAT 061845Z AUTO 13004KT 1 1/4SM -SN BR OVC017 00/M01 A2967 4620 96 3900 110/04 RMK AO2 P0001 T00001006
94299KAAT AAT20160106105013601/06/16 10:50:31  5-MIN KAAT 061850Z AUTO 14007KT 1 1/2SM -SN BR OVC017 01/M01 A2967 4620 89 4000 130/07 RMK AO2 SLP057 P0001 T00061011
94299KAAT AAT20160106105513601/06/16 10:55:31  5-MIN KAAT 061855Z AUTO 16008KT 1 1/2SM -SN BR OVC017 01/M01 A2966 4620 89 4000 150/08 RMK AO2 SLP056 P0001 T00061011
94299KAAT AAT20160106110013201/06/16 11:00:31  5-MIN KAAT 061900Z AUTO 16007KT 2SM -SN BR BKN021 OVC036 01/M01 A2966 4630 89 4000 140/07 RMK AO2 P0001 T00061011
94299KAAT AAT20160106110514301/06/16 11:05:31  5-MIN KAAT 061905Z AUTO 16006KT 2 1/2SM -SN BR FEW018 BKN023 OVC031 01/M01 A2966 4630 89 4000 140/06 RMK AO2 P0001 T00061011
94299KAAT AAT20160106111014301/06/16 11:10:31  5-MIN KAAT 061910Z AUTO 16006KT 2 1/2SM -SN BR FEW018 BKN028 OVC038 01/M01 A2965 4630 89 4000 150/06 RMK AO2 P0001 T00061011
94299KAAT AAT20160106111513901/06/16 11:15:31  5-MIN KAAT 061915Z AUTO 15005KT 4SM -SN BR BKN030 BKN038 OVC049 01/M01 A2965 4630 89 4000 140/05 RMK AO2 P0001 T00061011
94299KAAT AAT20160106112012901/06/16 11:20:31  5-MIN KAAT 061920Z AUTO 14004KT 7SM -SN BKN034 OVC049 01/M01 A2965 4640 85 4100 130/04 RMK AO2 P0001 T00111011
94299KAAT AAT20160106112513901/06/16 11:25:31  5-MIN KAAT 061925Z AUTO 14003KT 5SM -SN BR BKN034 BKN042 OVC070 01/M01 A2964 4640 85 4100 120/03 RMK AO2 P0001 T00111011
94299KAAT AAT20160106113013901/06/16 11:30:31  5-MIN KAAT 061930Z AUTO 11003KT 5SM -SN BR SCT036 BKN049 OVC070 01/M01 A2964 4640 85 4100 100/03 RMK AO2 P0001 T00111011
94299KAAT AAT20160106113513601/06/16 11:35:31  5-MIN KAAT 061935Z AUTO 00000KT 8SM -SN SCT044 BKN055 OVC070 01/M01 A2964 4640 85 4100 000/00 RMK AO2 P0001 T00111011
94299KAAT AAT20160106114013801/06/16 11:40:31  5-MIN KAAT 061940Z AUTO 00000KT 9SM SCT044 SCT055 OVC075 01/M01 A2963 4650 89 4100 000/00 RMK AO2 SNE38 P0001 T00111006
94299KAAT AAT20160106114513901/06/16 11:45:31  5-MIN KAAT 061945Z AUTO 13004KT 10SM FEW042 BKN070 OVC085 02/M01 A2963 4650 82 4200 120/04 RMK AO2 SNE38 P0001 T00171011
94299KAAT AAT20160106115014601/06/16 11:50:31  5-MIN KAAT 061950Z AUTO 13004KT 10SM FEW055 BKN070 OVC090 01/M01 A2963 4650 85 4100 120/04 RMK AO2 SNE38 SLP042 P0001 T00111011
94299KAAT AAT20160106115514601/06/16 11:55:31  5-MIN KAAT 061955Z AUTO 00000KT 10SM FEW055 BKN085 OVC100 02/M01 A2962 4660 82 4200 000/00 RMK AO2 SNE38 SLP041 P0001 T00171011
94299KAAT AAT20160106120012701/06/16 12:00:31  5-MIN KAAT 062000Z AUTO 00000KT 10SM FEW060 SCT075 OVC100 02/M01 A2962 4660 82 4200 000/00 RMK AO2 T00171011
94299KAAT AAT20160106120512701/06/16 12:05:31  5-MIN KAAT 062005Z AUTO 00000KT 10SM FEW055 BKN090 BKN110 02/M01 A2962 4660 82 4200 000/00 RMK AO2 T00171011
94299KAAT AAT20160106121012001/06/16 12:10:31  5-MIN KAAT 062010Z AUTO 00000KT 10SM BKN090 BKN110 02/M01 A2962 4660 78 4300 000/00 RMK AO2 T00221011
94299KAAT AAT20160106121512001/06/16 12:15:31  5-MIN KAAT 062015Z AUTO 34003KT 10SM FEW060 BKN100 02/M01 A2962 4660 82 4200 320/03 RMK AO2 T00171011
94299KAAT AAT20160106122012001/06/16 12:20:31  5-MIN KAAT 062020Z AUTO 35003KT 10SM SCT060 BKN100 01/M01 A2961 4670 85 4100 330/03 RMK AO2 T00111011
94299KAAT AAT20160106122512001/06/16 12:25:31  5-MIN KAAT 062025Z AUTO 34003KT 10SM BKN060 BKN100 02/M01 A2961 4670 82 4200 320/03 RMK AO2 T00171011
94299KAAT AAT20160106123012001/06/16 12:30:31  5-MIN KAAT 062030Z AUTO 00000KT 10SM BKN060 BKN100 01/M01 A2961 4670 85 4100 000/00 RMK AO2 T00111011
94299KAAT AAT20160106123512001/06/16 12:35:31  5-MIN KAAT 062035Z AUTO 00000KT 10SM BKN060 OVC100 02/M01 A2961 4670 82 4200 000/00 RMK AO2 T00171011
94299KAAT AAT20160106124011301/06/16 12:40:31  5-MIN KAAT 062040Z AUTO 00000KT 10SM OVC060 02/M01 A2961 4670 82 4200 000/00 RMK AO2 T00171011
94299KAAT AAT20160106124511301/06/16 12:45:31  5-MIN KAAT 062045Z AUTO 01003KT 10SM OVC055 02/M01 A2961 4670 78 4300 360/03 RMK AO2 T00221011
94299KAAT AAT20160106125013201/06/16 12:50:31  5-MIN KAAT 062050Z AUTO 00000KT 10SM OVC060 02/M01 A2961 4670 78 4300 000/00 RMK AO2 SLP037 60002 T00221011 51013
94299KAAT AAT20160106125513201/06/16 12:55:31  5-MIN KAAT 062055Z AUTO 00000KT 10SM OVC060 02/M01 A2961 4670 78 4300 000/00 RMK AO2 SLP036 60002 T00221011 58019
94299KAAT AAT20160106130011301/06/16 13:00:31  5-MIN KAAT 062100Z AUTO 35003KT 10SM OVC060 02/M02 A2960 4680 75 4300 340/03 RMK AO2 T00221017
94299KAAT AAT20160106130512001/06/16 13:05:31  5-MIN KAAT 062105Z AUTO 34003KT 10SM FEW018 OVC060 02/M01 A2960 4680 78 4300 330/03 RMK AO2 T00221011
94299KAAT AAT20160106131012001/06/16 13:10:31  5-MIN KAAT 062110Z AUTO 03003KT 10SM FEW018 OVC060 02/M02 A2960 4680 75 4300 010/03 RMK AO2 T00221017
94299KAAT AAT20160106131511301/06/16 13:15:31  5-MIN KAAT 062115Z AUTO 03005KT 10SM OVC060 02/M02 A2960 4680 75 4300 010/05 RMK AO2 T00221017
94299KAAT AAT20160106132011301/06/16 13:20:31  5-MIN KAAT 062120Z AUTO 02004KT 10SM OVC060 03/M02 A2960 4680 72 4400 360/04 RMK AO2 T00281017
94299KAAT AAT20160106132512001/06/16 13:25:31  5-MIN KAAT 062125Z AUTO 36004KT 10SM FEW043 OVC060 03/M02 A2960 4680 72 4400 340/04 RMK AO2 T00281017
94299KAAT AAT20160106133011301/06/16 13:30:31  5-MIN KAAT 062130Z AUTO 02004KT 10SM OVC060 03/M02 A2959 4690 72 4400 010/04 RMK AO2 T00281017
94299KAAT AAT20160106133512001/06/16 13:35:31  5-MIN KAAT 062135Z AUTO 04005KT 10SM BKN060 OVC120 03/M02 A2959 4690 72 4400 020/05 RMK AO2 T00281017
94299KAAT AAT20160106134012001/06/16 13:40:31  5-MIN KAAT 062140Z AUTO 00000KT 10SM BKN060 OVC110 03/M02 A2959 4690 72 4400 000/00 RMK AO2 T00281017
94299KAAT AAT20160106134512001/06/16 13:45:31  5-MIN KAAT 062145Z AUTO 00000KT 10SM SCT060 BKN110 03/M02 A2959 4690 70 4400 000/00 RMK AO2 T00331017
94299KAAT AAT20160106135013401/06/16 13:50:31  5-MIN KAAT 062150Z AUTO 02004KT 10SM SCT060 BKN075 BKN120 03/M02 A2959 4690 70 4400 360/04 RMK AO2 SLP034 T00331017
94299KAAT AAT20160106135513401/06/16 13:55:31  5-MIN KAAT 062155Z AUTO 03003KT 10SM SCT060 BKN075 OVC120 03/M02 A2959 4690 67 4400 020/03 RMK AO2 SLP034 T00331022
94299KAAT AAT20160106140012701/06/16 14:00:31  5-MIN KAAT 062200Z AUTO 01004KT 10SM BKN055 BKN075 BKN120 03/M02 A2959 4690 69 4400 360/04 RMK AO2 T00281022
94299KAAT AAT20160106140512701/06/16 14:05:31  5-MIN KAAT 062205Z AUTO 01004KT 10SM BKN055 BKN075 OVC110 03/M02 A2959 4690 69 4400 360/04 RMK AO2 T00281022
94299KAAT AAT20160106141012701/06/16 14:10:31  5-MIN KAAT 062210Z AUTO 36004KT 10SM BKN055 BKN075 BKN120 03/M02 A2959 4690 69 4400 340/04 RMK AO2 T00281022
94299KAAT AAT20160106141512701/06/16 14:15:31  5-MIN KAAT 062215Z AUTO 00000KT 10SM BKN060 BKN080 BKN120 03/M02 A2959 4690 72 4400 000/00 RMK AO2 T00281017
94299KAAT AAT20160106142012001/06/16 14:20:31  5-MIN KAAT 062220Z AUTO 00000KT 10SM BKN060 BKN080 03/M02 A2959 4690 70 4400 000/00 RMK AO2 T00331017
94299KAAT AAT20160106142512001/06/16 14:25:31  5-MIN KAAT 062225Z AUTO VRB03KT 10SM BKN060 BKN070 03/M02 A2959 4690 67 4400 VRB/03 RMK AO2 T00331022
94299KAAT AAT20160106143012001/06/16 14:30:31  5-MIN KAAT 062230Z AUTO VRB04KT 10SM SCT055 BKN070 03/M02 A2959 4690 67 4400 VRB/04 RMK AO2 T00331022
94299KAAT AAT20160106143512001/06/16 14:35:31  5-MIN KAAT 062235Z AUTO VRB05KT 10SM BKN055 BKN070 03/M02 A2959 4690 67 4400 VRB/05 RMK AO2 T00331022
94299KAAT AAT20160106144012001/06/16 14:40:31  5-MIN KAAT 062240Z AUTO 12006KT 10SM BKN055 OVC070 03/M02 A2959 4690 67 4400 100/06 RMK AO2 T00331022
94299KAAT AAT20160106144512001/06/16 14:45:31  5-MIN KAAT 062245Z AUTO 13005KT 10SM BKN050 OVC070 03/M02 A2959 4690 67 4400 110/05 RMK AO2 T00331022
94299KAAT AAT20160106145012701/06/16 14:50:31  5-MIN KAAT 062250Z AUTO 12006KT 10SM BKN050 OVC070 03/M02 A2959 4690 67 4400 100/06 RMK AO2 SLP033 T00331022
94299KAAT AAT20160106145512701/06/16 14:55:31  5-MIN KAAT 062255Z AUTO VRB05KT 10SM BKN050 OVC060 03/M02 A2959 4690 67 4400 VRB/05 RMK AO2 SLP030 T00331022
94299KAAT AAT20160106150011301/06/16 15:00:31  5-MIN KAAT 062300Z AUTO 14007KT 10SM OVC050 03/M02 A2959 4690 67 4400 130/07 RMK AO2 T00331022
94299KAAT AAT20160106150511301/06/16 15:05:31  5-MIN KAAT 062305Z AUTO 17007KT 10SM OVC050 03/M02 A2959 4690 69 4400 160/07 RMK AO2 T00281022
94299KAAT AAT20160106151011301/06/16 15:10:31  5-MIN KAAT 062310Z AUTO 15008KT 10SM OVC050 03/M02 A2959 4690 67 4400 130/08 RMK AO2 T00331022
94299KAAT AAT20160106151512001/06/16 15:15:31  5-MIN KAAT 062315Z AUTO 16005KT 10SM BKN050 OVC070 03/M02 A2959 4690 72 4400 140/05 RMK AO2 T00281017
94299KAAT AAT20160106152012701/06/16 15:20:31  5-MIN KAAT 062320Z AUTO 18005KT 10SM BKN050 BKN060 OVC070 03/M02 A2959 4690 72 4400 160/05 RMK AO2 T00281017
94299KAAT AAT20160106152513301/06/16 15:25:31  5-MIN KAAT 062325Z AUTO 17011G15KT 10SM BKN050 BKN065 OVC075 03/M02 A2959 4690 69 4400 150/11G15 RMK AO2 T00281022
94299KAAT AAT20160106153013301/06/16 15:30:31  5-MIN KAAT 062330Z AUTO 17007G15KT 10SM SCT050 BKN060 OVC095 03/M02 A2959 4690 72 4400 150/07G15 RMK AO2 T00281017
94299KAAT AAT20160106153512701/06/16 15:35:31  5-MIN KAAT 062335Z AUTO 16009KT 10SM FEW050 BKN060 OVC095 03/M02 A2959 4690 70 4400 150/09 RMK AO2 T00331017
94299KAAT AAT20160106154012701/06/16 15:40:31  5-MIN KAAT 062340Z AUTO 16009KT 10SM SCT060 BKN075 BKN095 03/M02 A2959 4690 72 4400 150/09 RMK AO2 T00281017
94299KAAT AAT20160106154512701/06/16 15:45:31  5-MIN KAAT 062345Z AUTO 16009KT 10SM FEW060 BKN075 OVC110 03/M02 A2959 4690 70 4400 150/09 RMK AO2 T00331017
94299KAAT AAT20160106155015801/06/16 15:50:31  5-MIN KAAT 062350Z AUTO 16008KT 10SM SCT055 BKN090 OVC110 03/M02 A2960 4680 70 4400 140/08 RMK AO2 SLP032 60002 T00331017 10033 20000 58019
94299KAAT AAT20160106155515801/06/16 15:55:31  5-MIN KAAT 062355Z AUTO 16008KT 10SM FEW055 BKN090 OVC110 03/M02 A2960 4680 72 4400 150/08 RMK AO2 SLP032 60002 T00281017 10033 20000 55002
94299KAAT AAT20160106160012701/06/16 16:00:31  5-MIN KAAT 070000Z AUTO 16009KT 10SM FEW055 BKN085 OVC110 03/M02 A2960 4680 72 4400 140/09 RMK AO2 T00281017
94299KAAT AAT20160106160512701/06/16 16:05:31  5-MIN KAAT 070005Z AUTO 16008KT 10SM FEW055 BKN085 OVC110 03/M02 A2960 4680 72 4400 140/08 RMK AO2 T00281017
94299KAAT AAT20160106161012701/06/16 16:10:31  5-MIN KAAT 070010Z AUTO 16008KT 10SM SCT055 BKN080 OVC110 03/M02 A2960 4680 72 4400 140/08 RMK AO2 T00281017
94299KAAT AAT20160106161512001/06/16 16:15:31  5-MIN KAAT 070015Z AUTO 17009KT 10SM BKN050 OVC085 03/M02 A2960 4680 72 4400 150/09 RMK AO2 T00281017
94299KAAT AAT20160106162012001/06/16 16:20:31  5-MIN KAAT 070020Z AUTO 17009KT 10SM BKN050 OVC080 02/M02 A2960 4680 75 4300 160/09 RMK AO2 T00221017
94299KAAT AAT20160106162512001/06/16 16:25:31  5-MIN KAAT 070025Z AUTO 17010KT 10SM BKN055 OVC080 02/M02 A2960 4680 75 4300 160/10 RMK AO2 T00221017
94299KAAT AAT20160106163012001/06/16 16:30:31  5-MIN KAAT 070030Z AUTO 17008KT 10SM BKN055 OVC080 02/M02 A2960 4680 75 4300 160/08 RMK AO2 T00221017
94299KAAT AAT20160106163511301/06/16 16:35:31  5-MIN KAAT 070035Z AUTO 18010KT 10SM OVC050 02/M02 A2960 4680 78 4200 160/10 RMK AO2 T00171017
94299KAAT AAT20160106164011301/06/16 16:40:31  5-MIN KAAT 070040Z AUTO 18009KT 10SM OVC050 02/M02 A2960 4680 78 4200 160/09 RMK AO2 T00171017
94299KAAT AAT20160106164511301/06/16 16:45:31  5-MIN KAAT 070045Z AUTO 18009KT 10SM OVC055 02/M02 A2960 4670 78 4200 170/09 RMK AO2 T00171017
94299KAAT AAT20160106165012001/06/16 16:50:31  5-MIN KAAT 070050Z AUTO 18007KT 10SM OVC055 02/M02 A2961 4670 78 4200 170/07 RMK AO2 SLP035 T00171017
94299KAAT AAT20160106165512001/06/16 16:55:31  5-MIN KAAT 070055Z AUTO 19006KT 10SM BKN055 02/M02 A2961 4670 78 4200 170/06 RMK AO2 SLP036 T00171017
94299KAAT AAT20160106170011301/06/16 17:00:31  5-MIN KAAT 070100Z AUTO 18006KT 10SM BKN055 02/M02 A2961 4670 78 4200 170/06 RMK AO2 T00171017
94299KAAT AAT20160106170511301/06/16 17:05:31  5-MIN KAAT 070105Z AUTO 19005KT 10SM OVC060 02/M02 A2961 4670 78 4200 170/05 RMK AO2 T00171017
94299KAAT AAT20160106171011301/06/16 17:10:31  5-MIN KAAT 070110Z AUTO 19006KT 10SM OVC060 02/M02 A2961 4670 78 4200 170/06 RMK AO2 T00171017
94299KAAT AAT20160106171511301/06/16 17:15:31  5-MIN KAAT 070115Z AUTO 18006KT 10SM OVC060 02/M02 A2961 4670 78 4200 170/06 RMK AO2 T00171017
94299KAAT AAT20160106172011301/06/16 17:20:31  5-MIN KAAT 070120Z AUTO 18007KT 10SM OVC060 02/M02 A2961 4670 78 4200 170/07 RMK AO2 T00171017
94299KAAT AAT20160106172510301/06/16 17:25:31  5-MIN KAAT 070125Z AUTO 10SM OVC055 01/M02 A2961 4660 82 4100 M /M RMK AO2 T00111017
94299KAAT AAT20160106173011301/06/16 17:30:31  5-MIN KAAT 070130Z AUTO 18008KT 10SM OVC060 02/M02 A2962 4660 78 4200 170/08 RMK AO2 T00171017
94299KAAT AAT20160106173511301/06/16 17:35:31  5-MIN KAAT 070135Z AUTO 19008KT 10SM OVC060 01/M02 A2962 4660 82 4100 170/08 RMK AO2 T00111017
94299KAAT AAT20160106174011301/06/16 17:40:31  5-MIN KAAT 070140Z AUTO 18009KT 10SM OVC060 01/M02 A2962 4660 82 4100 170/09 RMK AO2 T00111017
94299KAAT AAT20160106174511301/06/16 17:45:31  5-MIN KAAT 070145Z AUTO 18010KT 10SM OVC060 01/M02 A2962 4660 82 4100 170/10 RMK AO2 T00111017
94299KAAT AAT20160106175012001/06/16 17:50:31  5-MIN KAAT 070150Z AUTO 18009KT 10SM OVC060 01/M02 A2962 4660 82 4100 170/09 RMK AO2 SLP042 T00111017
94299KAAT AAT20160106175512001/06/16 17:55:31  5-MIN KAAT 070155Z AUTO 18010KT 10SM OVC060 01/M02 A2962 4660 82 4100 170/10 RMK AO2 SLP042 T00111017
94299KAAT AAT20160106180011301/06/16 18:00:31  5-MIN KAAT 070200Z AUTO 18010KT 10SM OVC060 01/M02 A2962 4660 82 4100 170/10 RMK AO2 T00111017
94299KAAT AAT20160106180511301/06/16 18:05:31  5-MIN KAAT 070205Z AUTO 18011KT 10SM OVC060 01/M02 A2962 4660 82 4100 170/11 RMK AO2 T00111017
94299KAAT AAT20160106181011301/06/16 18:10:31  5-MIN KAAT 070210Z AUTO 18010KT 10SM OVC060 01/M02 A2962 4660 82 4100 160/10 RMK AO2 T00111017
94299KAAT AAT20160106181511301/06/16 18:15:31  5-MIN KAAT 070215Z AUTO 18009KT 10SM OVC060 01/M02 A2963 4650 82 4100 170/09 RMK AO2 T00111017
94299KAAT AAT20160106182011301/06/16 18:20:31  5-MIN KAAT 070220Z AUTO 18009KT 10SM OVC060 01/M02 A2963 4650 82 4100 170/09 RMK AO2 T00111017
94299KAAT AAT20160106182511301/06/16 18:25:31  5-MIN KAAT 070225Z AUTO 18008KT 10SM OVC065 01/M02 A2963 4650 82 4100 170/08 RMK AO2 T00111017
94299KAAT AAT20160106183011301/06/16 18:30:31  5-MIN KAAT 070230Z AUTO 18007KT 10SM OVC065 01/M02 A2963 4650 82 4100 170/07 RMK AO2 T00111017
94299KAAT AAT20160106183512001/06/16 18:35:31  5-MIN KAAT 070235Z AUTO 18006KT 10SM BKN065 OVC095 01/M02 A2963 4650 82 4100 170/06 RMK AO2 T00111017
94299KAAT AAT20160106184012001/06/16 18:40:31  5-MIN KAAT 070240Z AUTO 18007KT 10SM BKN065 OVC095 01/M02 A2963 4650 82 4100 170/07 RMK AO2 T00111017
94299KAAT AAT20160106184512001/06/16 18:45:31  5-MIN KAAT 070245Z AUTO 18008KT 10SM SCT065 OVC090 01/M02 A2964 4650 82 4100 160/08 RMK AO2 T00111017
94299KAAT AAT20160106185013301/06/16 18:50:31  5-MIN KAAT 070250Z AUTO 18007KT 10SM BKN070 OVC085 01/M02 A2964 4640 82 4100 160/07 RMK AO2 SLP047 T00111017 55002
94299KAAT AAT20160106185514001/06/16 18:55:31  5-MIN KAAT 070255Z AUTO 18008KT 10SM FEW040 BKN075 OVC095 01/M02 A2964 4640 82 4100 160/08 RMK AO2 SLP047 T00111017 53012
94299KAAT AAT20160106190012701/06/16 19:00:31  5-MIN KAAT 070300Z AUTO 18007KT 10SM BKN038 BKN080 OVC095 01/M02 A2964 4640 82 4100 160/07 RMK AO2 T00111017
94299KAAT AAT20160106190512701/06/16 19:05:31  5-MIN KAAT 070305Z AUTO 18007KT 10SM BKN038 BKN075 OVC090 01/M02 A2964 4640 82 4100 170/07 RMK AO2 T00111017
94299KAAT AAT20160106191012001/06/16 19:10:31  5-MIN KAAT 070310Z AUTO 18007KT 10SM BKN040 OVC075 01/M02 A2964 4640 82 4100 170/07 RMK AO2 T00111017
94299KAAT AAT20160106191512701/06/16 19:15:31  5-MIN KAAT 070315Z AUTO 18007KT 10SM BKN040 BKN047 OVC070 01/M02 A2964 4640 82 4100 170/07 RMK AO2 T00111017
94299KAAT AAT20160106192011301/06/16 19:20:31  5-MIN KAAT 070320Z AUTO 19007KT 10SM OVC040 01/M02 A2964 4640 82 4100 170/07 RMK AO2 T00111017
94299KAAT AAT20160106192511301/06/16 19:25:31  5-MIN KAAT 070325Z AUTO 19006KT 10SM OVC039 01/M02 A2964 4640 82 4100 170/06 RMK AO2 T00111017
94299KAAT AAT20160106193011301/06/16 19:30:31  5-MIN KAAT 070330Z AUTO 19006KT 10SM OVC041 01/M02 A2964 4640 82 4100 180/06 RMK AO2 T00111017
94299KAAT AAT20160106193512001/06/16 19:35:31  5-MIN KAAT 070335Z AUTO 19005KT 10SM BKN039 OVC046 01/M02 A2964 4640 82 4100 180/05 RMK AO2 T00111017
94299KAAT AAT20160106194011301/06/16 19:40:31  5-MIN KAAT 070340Z AUTO 19005KT 10SM OVC042 01/M02 A2965 4640 82 4100 170/05 RMK AO2 T00111017
94299KAAT AAT20160106194511301/06/16 19:45:31  5-MIN KAAT 070345Z AUTO 18004KT 10SM OVC042 01/M02 A2965 4640 82 4100 170/04 RMK AO2 T00111017
94299KAAT AAT20160106195012001/06/16 19:50:31  5-MIN KAAT 070350Z AUTO 19004KT 10SM OVC042 01/M02 A2965 4630 82 4100 170/04 RMK AO2 SLP055 T00111017
94299KAAT AAT20160106195512001/06/16 19:55:31  5-MIN KAAT 070355Z AUTO 18003KT 10SM OVC042 01/M02 A2965 4630 82 4100 170/03 RMK AO2 SLP053 T00111017
94299KAAT AAT20160106200011301/06/16 20:00:31  5-MIN KAAT 070400Z AUTO 18003KT 10SM OVC040 01/M02 A2965 4630 82 4100 170/03 RMK AO2 T00111017
94299KAAT AAT20160106200511301/06/16 20:05:31  5-MIN KAAT 070405Z AUTO 00000KT 10SM OVC044 01/M02 A2965 4630 82 4100 000/00 RMK AO2 T00111017
94299KAAT AAT20160106201011301/06/16 20:10:31  5-MIN KAAT 070410Z AUTO 00000KT 10SM OVC044 01/M02 A2965 4630 82 4100 000/00 RMK AO2 T00111017
94299KAAT AAT20160106201511301/06/16 20:15:31  5-MIN KAAT 070415Z AUTO 00000KT 10SM OVC044 01/M02 A2965 4630 82 4000 000/00 RMK AO2 T00061022
94299KAAT AAT20160106202011301/06/16 20:20:31  5-MIN KAAT 070420Z AUTO 00000KT 10SM OVC043 01/M02 A2965 4630 82 4000 000/00 RMK AO2 T00061022
94299KAAT AAT20160106202511301/06/16 20:25:31  5-MIN KAAT 070425Z AUTO 00000KT 10SM OVC045 01/M02 A2965 4630 82 4000 000/00 RMK AO2 T00061022
94299KAAT AAT20160106203011301/06/16 20:30:31  5-MIN KAAT 070430Z AUTO 00000KT 10SM OVC042 00/M02 A2965 4630 85 4000 000/00 RMK AO2 T00001022
94299KAAT AAT20160106203511301/06/16 20:35:31  5-MIN KAAT 070435Z AUTO 00000KT 10SM OVC040 01/M02 A2966 4630 82 4000 000/00 RMK AO2 T00061022
94299KAAT AAT20160106204011301/06/16 20:40:31  5-MIN KAAT 070440Z AUTO 00000KT 10SM OVC040 01/M02 A2966 4630 82 4000 000/00 RMK AO2 T00061022
94299KAAT AAT20160106204511301/06/16 20:45:31  5-MIN KAAT 070445Z AUTO 00000KT 10SM OVC040 01/M02 A2966 4630 82 4000 000/00 RMK AO2 T00061022
94299KAAT AAT20160106205012001/06/16 20:50:31  5-MIN KAAT 070450Z AUTO 00000KT 10SM OVC038 00/M02 A2966 4620 85 4000 000/00 RMK AO2 SLP055 T00001022
94299KAAT AAT20160106205512701/06/16 20:55:31  5-MIN KAAT 070455Z AUTO 15003KT 10SM BKN040 OVC055 00/M02 A2966 4620 85 4000 130/03 RMK AO2 SLP057 T00001022
94299KAAT AAT20160106210012701/06/16 21:00:31  5-MIN KAAT 070500Z AUTO 13003KT 10SM BKN038 BKN045 BKN055 00/M02 A2966 4620 85 4000 110/03 RMK AO2 T00001022
94299KAAT AAT20160106210512001/06/16 21:05:31  5-MIN KAAT 070505Z AUTO 12003KT 10SM BKN036 BKN043 00/M02 A2966 4620 85 4000 110/03 RMK AO2 T00001022
94299KAAT AAT20160106211011201/06/16 21:10:31  5-MIN KAAT 070510Z AUTO 10003KT 9SM BKN038 00/M02 A2966 4620 85 4000 090/03 RMK AO2 T00001022
94299KAAT AAT20160106211511301/06/16 21:15:31  5-MIN KAAT 070515Z AUTO 08003KT 9SM BKN036 M01/M02 A2966 4620 88 3900 060/03 RMK AO2 T10061022
94299KAAT AAT20160106212011301/06/16 21:20:31  5-MIN KAAT 070520Z AUTO 08004KT 9SM BKN036 M01/M02 A2966 4620 88 3900 070/04 RMK AO2 T10061022
94299KAAT AAT20160106212511201/06/16 21:25:31  5-MIN KAAT 070525Z AUTO VRB03KT 9SM OVC036 00/M02 A2966 4620 85 4000 VRB/03 RMK AO2 T00001022
94299KAAT AAT20160106213011301/06/16 21:30:31  5-MIN KAAT 070530Z AUTO 14004KT 10SM OVC036 00/M02 A2966 4620 88 4000 120/04 RMK AO2 T00001017
94299KAAT AAT20160106213511301/06/16 21:35:31  5-MIN KAAT 070535Z AUTO 14005KT 10SM OVC038 00/M02 A2966 4620 85 4000 130/05 RMK AO2 T00001022
94299KAAT AAT20160106214011301/06/16 21:40:31  5-MIN KAAT 070540Z AUTO 00000KT 10SM OVC038 00/M02 A2967 4620 85 4000 000/00 RMK AO2 T00001022
94299KAAT AAT20160106214511301/06/16 21:45:31  5-MIN KAAT 070545Z AUTO 15003KT 10SM OVC038 00/M02 A2967 4610 88 3900 140/03 RMK AO2 T00001017
94299KAAT AAT20160106215013801/06/16 21:50:31  5-MIN KAAT 070550Z AUTO 00000KT 10SM OVC038 00/M02 A2967 4610 88 3900 000/00 RMK AO2 SLP058 T00001017 10028 21006 53012
94299KAAT AAT20160106215513801/06/16 21:55:31  5-MIN KAAT 070555Z AUTO 05003KT 10SM OVC036 00/M02 A2967 4610 85 3900 040/03 RMK AO2 SLP058 T00001022 10028 21006 53010
94299KAAT AAT20160106220011301/06/16 22:00:31  5-MIN KAAT 070600Z AUTO 00000KT 9SM OVC036 M01/M02 A2967 4610 88 3900 000/00 RMK AO2 T10061022
94299KAAT AAT20160106220511401/06/16 22:05:31  5-MIN KAAT 070605Z AUTO 00000KT 10SM OVC034 M01/M02 A2967 4610 92 3900 000/00 RMK AO2 T10061017
94299KAAT AAT20160106221011301/06/16 22:10:31  5-MIN KAAT 070610Z AUTO VRB03KT 10SM OVC034 00/M02 A2968 4610 88 3900 VRB/03 RMK AO2 T00001017
94299KAAT AAT20160106221511301/06/16 22:15:31  5-MIN KAAT 070615Z AUTO 14003KT 10SM OVC034 00/M02 A2968 4610 85 3900 120/03 RMK AO2 T00001022
94299KAAT AAT20160106222011301/06/16 22:20:31  5-MIN KAAT 070620Z AUTO VRB03KT 10SM OVC033 00/M02 A2968 4610 85 3900 VRB/03 RMK AO2 T00001022
94299KAAT AAT20160106222511301/06/16 22:25:31  5-MIN KAAT 070625Z AUTO VRB04KT 10SM OVC033 00/M02 A2968 4610 85 3900 VRB/04 RMK AO2 T00001022
94299KAAT AAT20160106223010301/06/16 22:30:31  5-MIN KAAT 070630Z AUTO 10SM OVC033 01/M02 A2968 4600 82 4000 M /M RMK AO2 T00061022
94299KAAT AAT20160106223511301/06/16 22:35:31  5-MIN KAAT 070635Z AUTO 16004KT 10SM OVC035 00/M02 A2968 4600 85 3900 140/04 RMK AO2 T00001022
94299KAAT AAT20160106224011301/06/16 22:40:31  5-MIN KAAT 070640Z AUTO 00000KT 10SM OVC035 00/M02 A2968 4600 85 3900 000/00 RMK AO2 T00001022
94299KAAT AAT20160106224511301/06/16 22:45:31  5-MIN KAAT 070645Z AUTO 00000KT 10SM OVC035 00/M02 A2968 4600 85 3900 000/00 RMK AO2 T00001022
94299KAAT AAT20160106225012101/06/16 22:50:31  5-MIN KAAT 070650Z AUTO 04003KT 10SM OVC037 M01/M02 A2968 4600 88 3900 020/03 RMK AO2 SLP064 T10061022
94299KAAT AAT20160106225512101/06/16 22:55:31  5-MIN KAAT 070655Z AUTO 04004KT 10SM OVC037 M01/M03 A2969 4600 88 3800 020/04 RMK AO2 SLP065 T10111028
94299KAAT AAT20160106230011301/06/16 23:00:31  5-MIN KAAT 070700Z AUTO 05004KT 9SM OVC037 M01/M03 A2969 4600 88 3800 030/04 RMK AO2 T10111028
94299KAAT AAT20160106230511301/06/16 23:05:31  5-MIN KAAT 070705Z AUTO 07003KT 9SM OVC039 M01/M03 A2969 4600 85 3900 060/03 RMK AO2 T10061028
94299KAAT AAT20160106231011301/06/16 23:10:31  5-MIN KAAT 070710Z AUTO 12003KT 9SM OVC039 M01/M02 A2969 4600 88 3900 100/03 RMK AO2 T10061022
94299KAAT AAT20160106231511301/06/16 23:15:31  5-MIN KAAT 070715Z AUTO 13003KT 9SM OVC037 M01/M02 A2969 4590 88 3900 110/03 RMK AO2 T10061022
94299KAAT AAT20160106232011301/06/16 23:20:31  5-MIN KAAT 070720Z AUTO 00000KT 10SM OVC037 00/M02 A2969 4590 85 3900 000/00 RMK AO2 T00001022
94299KAAT AAT20160106232511401/06/16 23:25:31  5-MIN KAAT 070725Z AUTO 36003KT 10SM OVC037 M01/M02 A2969 4590 88 3900 350/03 RMK AO2 T10061022
94299KAAT AAT20160106233011401/06/16 23:30:31  5-MIN KAAT 070730Z AUTO 05003KT 10SM OVC037 M01/M02 A2970 4590 88 3800 040/03 RMK AO2 T10061022
94299KAAT AAT20160106233511301/06/16 23:35:31  5-MIN KAAT 070735Z AUTO 06003KT 9SM OVC037 M01/M02 A2970 4590 88 3800 040/03 RMK AO2 T10061022
94299KAAT AAT20160106234011301/06/16 23:40:31  5-MIN KAAT 070740Z AUTO 06003KT 9SM OVC037 M01/M02 A2970 4590 88 3800 040/03 RMK AO2 T10061022
94299KAAT AAT20160106234511301/06/16 23:45:31  5-MIN KAAT 070745Z AUTO 00000KT 10SM OVC037 00/M02 A2970 4590 85 3900 000/00 RMK AO2 T00001022
94299KAAT AAT20160106235013001/06/16 23:50:31  5-MIN KAAT 070750Z AUTO 00000KT 10SM OVC037 00/M02 A2970 4590 85 3900 000/00 RMK AO2 SLP067 T00001022 400331061
94299KAAT AAT20160106235513001/06/16 23:55:31  5-MIN KAAT 070755Z AUTO 00000KT 9SM OVC036 M01/M02 A2970 4590 88 3800 000/00 RMK AO2 SLP067 T10061022 400331061
94299KAAT AAT20160107000011301/07/16 00:00:31  5-MIN KAAT 070800Z AUTO 00000KT 8SM OVC036 M01/M02 A2970 4590 88 3800 000/00 RMK AO2 T10061022
94299KAAT AAT20160107000511301/07/16 00:05:31  5-MIN KAAT 070805Z AUTO 00000KT 9SM OVC036 M01/M02 A2970 4590 88 3800 000/00 RMK AO2 T10061022
94299KAAT AAT20160107001011401/07/16 00:10:31  5-MIN KAAT 070810Z AUTO 00000KT 10SM OVC036 M01/M02 A2970 4590 88 3800 000/00 RMK AO2 T10061022
94299KAAT AAT20160107101511301/07/16 10:15:31  5-MIN KAAT 071815Z AUTO 14003KT 10SM OVC050 00/M01 A2987 4430 92 3700 120/03 RMK AO2 T00001011
94299KAAT AAT20160107102011301/07/16 10:20:31  5-MIN KAAT 071820Z AUTO 13003KT 10SM OVC050 00/M01 A2987 4430 92 3700 120/03 RMK AO2 T00001011
94299KAAT AAT20160107102511301/07/16 10:25:31  5-MIN KAAT 071825Z AUTO 15003KT 10SM OVC050 01/M01 A2987 4430 89 3800 130/03 RMK AO2 T00061011
94299KAAT AAT20160107103011301/07/16 10:30:31  5-MIN KAAT 071830Z AUTO 19003KT 10SM OVC050 01/M01 A2987 4430 89 3800 170/03 RMK AO2 T00061011
94299KAAT AAT20160107103511301/07/16 10:35:31  5-MIN KAAT 071835Z AUTO 21003KT 10SM OVC050 01/M01 A2987 4430 89 3800 200/03 RMK AO2 T00061011
94299KAAT AAT20160107104011301/07/16 10:40:31  5-MIN KAAT 071840Z AUTO 00000KT 10SM OVC050 01/M01 A2987 4420 85 3800 000/00 RMK AO2 T00111011
94299KAAT AAT20160107104511301/07/16 10:45:31  5-MIN KAAT 071845Z AUTO 21003KT 10SM OVC050 01/M01 A2987 4420 85 3800 200/03 RMK AO2 T00111011
94299KAAT AAT20160107105012001/07/16 10:50:31  5-MIN KAAT 071850Z AUTO 00000KT 10SM OVC050 01/M01 A2988 4420 85 3800 000/00 RMK AO2 SLP129 T00111011
94299KAAT AAT20160107105512001/07/16 10:55:31  5-MIN KAAT 071855Z AUTO 00000KT 10SM OVC050 01/M01 A2988 4420 85 3800 000/00 RMK AO2 SLP131 T00111011
94299KAAT AAT20160107110012001/07/16 11:00:31  5-MIN KAAT 071900Z AUTO 00000KT 10SM FEW013 OVC050 01/M01 A2988 4420 85 3800 000/00 RMK AO2 T00111011
94299KAAT AAT20160107110512001/07/16 11:05:31  5-MIN KAAT 071905Z AUTO 00000KT 10SM FEW013 OVC050 01/M01 A2988 4420 85 3800 000/00 RMK AO2 T00111011
94299KAAT AAT20160107111012001/07/16 11:10:31  5-MIN KAAT 071910Z AUTO 00000KT 10SM FEW013 OVC050 01/M01 A2987 4420 85 3800 000/00 RMK AO2 T00111011
94299KAAT AAT20160107111512001/07/16 11:15:31  5-MIN KAAT 071915Z AUTO 00000KT 10SM FEW013 OVC050 01/M01 A2987 4420 85 3800 000/00 RMK AO2 T00111011
94299KAAT AAT20160107112012001/07/16 11:20:31  5-MIN KAAT 071920Z AUTO 00000KT 10SM SCT013 OVC050 02/M01 A2987 4420 82 3900 000/00 RMK AO2 T00171011
94299KAAT AAT20160107112512001/07/16 11:25:31  5-MIN KAAT 071925Z AUTO 00000KT 10SM BKN013 OVC050 02/M01 A2987 4420 82 3900 000/00 RMK AO2 T00171011
94299KAAT AAT20160107113012001/07/16 11:30:31  5-MIN KAAT 071930Z AUTO 00000KT 10SM BKN013 OVC050 02/M01 A2987 4430 82 3900 000/00 RMK AO2 T00171011
94299KAAT AAT20160107113512001/07/16 11:35:31  5-MIN KAAT 071935Z AUTO 25005KT 10SM BKN013 OVC050 02/M02 A2987 4430 78 3900 240/05 RMK AO2 T00171017
94299KAAT AAT20160107114012001/07/16 11:40:31  5-MIN KAAT 071940Z AUTO 24005KT 10SM SCT014 OVC050 02/M02 A2987 4430 78 3900 230/05 RMK AO2 T00171017
94299KAAT AAT20160107114512001/07/16 11:45:31  5-MIN KAAT 071945Z AUTO 25006KT 10SM SCT014 OVC050 02/M02 A2987 4430 78 3900 230/06 RMK AO2 T00171017
94299KAAT AAT20160107115012701/07/16 11:50:31  5-MIN KAAT 071950Z AUTO 27005KT 10SM FEW014 OVC050 02/M02 A2987 4430 78 3900 250/05 RMK AO2 SLP123 T00171017
94299KAAT AAT20160107115512701/07/16 11:55:31  5-MIN KAAT 071955Z AUTO 25006KT 10SM FEW014 OVC050 02/M02 A2986 4430 78 3900 240/06 RMK AO2 SLP125 T00171017
94299KAAT AAT20160107120011301/07/16 12:00:31  5-MIN KAAT 072000Z AUTO 25006KT 10SM OVC050 02/M02 A2986 4430 78 3900 230/06 RMK AO2 T00171017
94299KAAT AAT20160107120512001/07/16 12:05:31  5-MIN KAAT 072005Z AUTO 25006KT 10SM FEW029 OVC050 02/M02 A2986 4430 78 3900 230/06 RMK AO2 T00171017
94299KAAT AAT20160107121012001/07/16 12:10:31  5-MIN KAAT 072010Z AUTO 24004KT 10SM FEW029 OVC050 02/M02 A2986 4440 78 3900 220/04 RMK AO2 T00171017
94299KAAT AAT20160107121512001/07/16 12:15:31  5-MIN KAAT 072015Z AUTO 24004KT 10SM FEW029 OVC050 02/M02 A2986 4440 78 3900 230/04 RMK AO2 T00171017
94299KAAT AAT20160107122012001/07/16 12:20:31  5-MIN KAAT 072020Z AUTO 23004KT 10SM FEW029 OVC050 02/M02 A2986 4440 78 3900 210/04 RMK AO2 T00171017
94299KAAT AAT20160107122512001/07/16 12:25:31  5-MIN KAAT 072025Z AUTO 21004KT 10SM FEW029 OVC050 02/M02 A2986 4440 78 3900 190/04 RMK AO2 T00171017
94299KAAT AAT20160107123011301/07/16 12:30:31  5-MIN KAAT 072030Z AUTO 22006KT 10SM OVC050 02/M02 A2986 4440 75 4000 210/06 RMK AO2 T00221017
94299KAAT AAT20160107123511301/07/16 12:35:31  5-MIN KAAT 072035Z AUTO 23005KT 10SM OVC050 02/M02 A2986 4440 75 4000 220/05 RMK AO2 T00221017
94299KAAT AAT20160107124011301/07/16 12:40:31  5-MIN KAAT 072040Z AUTO 24004KT 10SM OVC050 02/M02 A2986 4440 75 4000 220/04 RMK AO2 T00221017
94299KAAT AAT20160107124511301/07/16 12:45:31  5-MIN KAAT 072045Z AUTO 23004KT 10SM OVC050 02/M02 A2986 4440 75 4000 220/04 RMK AO2 T00221017
94299KAAT AAT20160107125013301/07/16 12:50:31  5-MIN KAAT 072050Z AUTO 25003KT 10SM FEW038 OVC050 02/M02 A2985 4440 75 4000 240/03 RMK AO2 SLP119 T00221017 53020
94299KAAT AAT20160107125513301/07/16 12:55:31  5-MIN KAAT 072055Z AUTO VRB03KT 10SM FEW038 OVC049 02/M02 A2985 4440 75 4000 VRB/03 RMK AO2 SLP119 T00221017 58003
94299KAAT AAT20160107130012001/07/16 13:00:31  5-MIN KAAT 072100Z AUTO 00000KT 10SM FEW039 OVC049 02/M02 A2985 4440 75 4000 000/00 RMK AO2 T00221017
94299KAAT AAT20160107130512001/07/16 13:05:31  5-MIN KAAT 072105Z AUTO 25004KT 10SM FEW036 OVC049 02/M02 A2986 4440 75 4000 230/04 RMK AO2 T00221017
94299KAAT AAT20160107131012001/07/16 13:10:31  5-MIN KAAT 072110Z AUTO 23004KT 10SM FEW036 OVC049 02/M02 A2986 4440 72 4000 220/04 RMK AO2 T00221022
94299KAAT AAT20160107131512001/07/16 13:15:31  5-MIN KAAT 072115Z AUTO 23004KT 10SM FEW037 OVC049 02/M02 A2985 4440 72 4000 210/04 RMK AO2 T00221022
94299KAAT AAT20160107132011301/07/16 13:20:31  5-MIN KAAT 072120Z AUTO 22003KT 10SM OVC049 02/M02 A2986 4440 72 4000 210/03 RMK AO2 T00221022
94299KAAT AAT20160107132511301/07/16 13:25:31  5-MIN KAAT 072125Z AUTO 22003KT 10SM OVC049 03/M02 A2985 4440 69 4100 200/03 RMK AO2 T00281022
94299KAAT AAT20160107133011301/07/16 13:30:31  5-MIN KAAT 072130Z AUTO 25003KT 10SM OVC049 03/M02 A2985 4440 69 4100 240/03 RMK AO2 T00281022
94299KAAT AAT20160107133511301/07/16 13:35:31  5-MIN KAAT 072135Z AUTO 00000KT 10SM OVC049 03/M02 A2985 4440 69 4100 000/00 RMK AO2 T00281022
94299KAAT AAT20160107134011301/07/16 13:40:31  5-MIN KAAT 072140Z AUTO 00000KT 10SM OVC047 03/M02 A2986 4440 69 4100 000/00 RMK AO2 T00281022
94299KAAT AAT20160107134511301/07/16 13:45:31  5-MIN KAAT 072145Z AUTO 12003KT 10SM OVC047 03/M02 A2986 4440 72 4100 100/03 RMK AO2 T00281017
94299KAAT AAT20160107135012001/07/16 13:50:31  5-MIN KAAT 072150Z AUTO 12003KT 10SM OVC047 03/M02 A2986 4440 72 4100 100/03 RMK AO2 SLP120 T00281017
94299KAAT AAT20160107135512001/07/16 13:55:31  5-MIN KAAT 072155Z AUTO 11003KT 10SM OVC047 02/M01 A2986 4440 78 4000 100/03 RMK AO2 SLP122 T00221011
94299KAAT AAT20160107140011301/07/16 14:00:31  5-MIN KAAT 072200Z AUTO 00000KT 10SM OVC047 03/M01 A2986 4440 75 4100 000/00 RMK AO2 T00281011
94299KAAT AAT20160107140511301/07/16 14:05:31  5-MIN KAAT 072205Z AUTO 11003KT 10SM OVC047 03/M01 A2986 4440 75 4100 100/03 RMK AO2 T00281011
94299KAAT AAT20160107141011301/07/16 14:10:31  5-MIN KAAT 072210Z AUTO 14003KT 10SM OVC047 03/M01 A2986 4440 75 4100 120/03 RMK AO2 T00281011
94299KAAT AAT20160107141511301/07/16 14:15:31  5-MIN KAAT 072215Z AUTO 12004KT 10SM OVC046 03/M01 A2986 4440 75 4100 100/04 RMK AO2 T00281011
94299KAAT AAT20160107142011301/07/16 14:20:31  5-MIN KAAT 072220Z AUTO 11004KT 10SM OVC046 02/M01 A2986 4440 78 4000 100/04 RMK AO2 T00221011
94299KAAT AAT20160107142511301/07/16 14:25:31  5-MIN KAAT 072225Z AUTO 13003KT 10SM OVC046 02/M01 A2986 4440 78 4000 120/03 RMK AO2 T00221011
94299KAAT AAT20160107143011301/07/16 14:30:31  5-MIN KAAT 072230Z AUTO 00000KT 10SM OVC045 02/M01 A2986 4440 78 4000 000/00 RMK AO2 T00221011
94299KAAT AAT20160107143511301/07/16 14:35:31  5-MIN KAAT 072235Z AUTO 00000KT 10SM OVC045 02/M01 A2986 4430 78 4000 000/00 RMK AO2 T00221011
94299KAAT AAT20160107144011301/07/16 14:40:31  5-MIN KAAT 072240Z AUTO 00000KT 10SM OVC043 02/M01 A2987 4430 78 4000 000/00 RMK AO2 T00221011
94299KAAT AAT20160107144512001/07/16 14:45:31  5-MIN KAAT 072245Z AUTO 04003KT 10SM FEW032 OVC043 03/M01 A2987 4430 75 4100 030/03 RMK AO2 T00281011
94299KAAT AAT20160107145012001/07/16 14:50:31  5-MIN KAAT 072250Z AUTO 10003KT 10SM OVC041 03/M01 A2987 4430 75 4100 090/03 RMK AO2 SLP124 T00281011
94299KAAT AAT20160107145513501/07/16 14:55:31  5-MIN KAAT 072255Z AUTO 09003KT 10SM UP OVC040 03/M01 A2987 4430 75 4100 080/03 RMK AO2 UPB54 SLP124 P0000 T00281011
94299KAAT AAT20160107150012701/07/16 15:00:31  5-MIN KAAT 072300Z AUTO 09003KT 10SM OVC038 02/M01 A2987 4430 78 4000 080/03 RMK AO2 UPE2257 P0000 T00221011
94299KAAT AAT20160107150513401/07/16 15:05:31  5-MIN KAAT 072305Z AUTO 08004KT 10SM BKN038 OVC047 02/M01 A2987 4430 78 4000 060/04 RMK AO2 UPE2257 P0000 T00221011
94299KAAT AAT20160107151013401/07/16 15:10:31  5-MIN KAAT 072310Z AUTO 10003KT 10SM BKN038 OVC047 02/M02 A2987 4430 75 4000 080/03 RMK AO2 UPE2257 P0000 T00221017
94299KAAT AAT20160107151513401/07/16 15:15:31  5-MIN KAAT 072315Z AUTO 00000KT 10SM SCT036 OVC047 02/M02 A2987 4420 75 4000 000/00 RMK AO2 UPE2257 P0000 T00221017
94299KAAT AAT20160107152013401/07/16 15:20:31  5-MIN KAAT 072320Z AUTO 14003KT 10SM FEW036 OVC047 02/M02 A2988 4420 75 4000 130/03 RMK AO2 UPE2257 P0000 T00221017
94299KAAT AAT20160107152513401/07/16 15:25:31  5-MIN KAAT 072325Z AUTO 15003KT 10SM FEW036 OVC047 02/M01 A2988 4420 78 4000 140/03 RMK AO2 UPE2257 P0000 T00221011
94299KAAT AAT20160107153012701/07/16 15:30:31  5-MIN KAAT 072330Z AUTO 00000KT 10SM OVC047 02/M01 A2988 4420 78 4000 000/00 RMK AO2 UPE2257 P0000 T00221011
94299KAAT AAT20160107153513401/07/16 15:35:31  5-MIN KAAT 072335Z AUTO 00000KT 10SM SCT040 OVC047 02/M02 A2988 4420 75 4000 000/00 RMK AO2 UPE2257 P0000 T00221017
94299KAAT AAT20160107154013401/07/16 15:40:31  5-MIN KAAT 072340Z AUTO 17003KT 10SM BKN040 OVC047 02/M01 A2988 4420 82 3900 160/03 RMK AO2 UPE2257 P0000 T00171011
94299KAAT AAT20160107154513401/07/16 15:45:31  5-MIN KAAT 072345Z AUTO 17003KT 10SM BKN039 OVC047 02/M01 A2988 4420 82 3900 160/03 RMK AO2 UPE2257 P0000 T00171011
94299KAAT AAT20160107155016501/07/16 15:50:31  5-MIN KAAT 072350Z AUTO 17003KT 10SM BKN039 OVC047 02/M01 A2988 4420 82 3900 160/03 RMK AO2 UPE2257 SLP133 P0000 60000 T00171011 10028 20000 58003
94299KAAT AAT20160107155515801/07/16 15:55:31  5-MIN KAAT 072355Z AUTO 17003KT 10SM OVC039 02/M01 A2988 4420 82 3900 160/03 RMK AO2 UPE2257 SLP134 P0000 60000 T00171011 10028 20000 53008
94299KAAT AAT20160107160011301/07/16 16:00:31  5-MIN KAAT 080000Z AUTO 18004KT 10SM OVC039 02/M01 A2989 4410 82 3900 160/04 RMK AO2 T00171011
94299KAAT AAT20160107160511301/07/16 16:05:31  5-MIN KAAT 080005Z AUTO 17003KT 10SM OVC039 02/M01 A2989 4410 82 3900 150/03 RMK AO2 T00171011
94299KAAT AAT20160107161011301/07/16 16:10:31  5-MIN KAAT 080010Z AUTO 00000KT 10SM OVC039 02/M01 A2989 4410 82 3900 000/00 RMK AO2 T00171011
94299KAAT AAT20160107161511301/07/16 16:15:31  5-MIN KAAT 080015Z AUTO 00000KT 10SM OVC039 02/M02 A2989 4410 78 3900 000/00 RMK AO2 T00171017
94299KAAT AAT20160107162011301/07/16 16:20:31  5-MIN KAAT 080020Z AUTO 11003KT 10SM OVC041 02/M02 A2989 4410 75 4000 100/03 RMK AO2 T00221017
94299KAAT AAT20160107162511301/07/16 16:25:31  5-MIN KAAT 080025Z AUTO 00000KT 10SM OVC041 02/M02 A2989 4410 75 4000 000/00 RMK AO2 T00221017
94299KAAT AAT20160107163012001/07/16 16:30:31  5-MIN KAAT 080030Z AUTO 14003KT 10SM BKN041 OVC049 02/M02 A2989 4410 78 3900 130/03 RMK AO2 T00171017
94299KAAT AAT20160107163512001/07/16 16:35:31  5-MIN KAAT 080035Z AUTO 15003KT 10SM SCT042 OVC049 02/M02 A2989 4410 78 3900 130/03 RMK AO2 T00171017
94299KAAT AAT20160107164011301/07/16 16:40:31  5-MIN KAAT 080040Z AUTO 00000KT 10SM OVC046 02/M02 A2989 4410 78 3900 000/00 RMK AO2 T00171017
94299KAAT AAT20160107164511301/07/16 16:45:31  5-MIN KAAT 080045Z AUTO 19003KT 10SM OVC048 01/M02 A2989 4410 82 3800 170/03 RMK AO2 T00111017
94299KAAT AAT20160107165012001/07/16 16:50:31  5-MIN KAAT 080050Z AUTO 21003KT 10SM OVC048 01/M01 A2989 4410 85 3800 200/03 RMK AO2 SLP137 T00111011
94299KAAT AAT20160107165512001/07/16 16:55:31  5-MIN KAAT 080055Z AUTO 21003KT 10SM OVC048 01/M01 A2989 4410 85 3800 190/03 RMK AO2 SLP138 T00111011
94299KAAT AAT20160107170011301/07/16 17:00:31  5-MIN KAAT 080100Z AUTO 22003KT 10SM OVC048 01/M01 A2990 4400 85 3800 200/03 RMK AO2 T00111011
94299KAAT AAT20160107170511301/07/16 17:05:31  5-MIN KAAT 080105Z AUTO 00000KT 10SM OVC048 01/M02 A2990 4400 82 3800 000/00 RMK AO2 T00111017
94299KAAT AAT20160107171011301/07/16 17:10:31  5-MIN KAAT 080110Z AUTO 25003KT 10SM OVC047 01/M02 A2990 4400 82 3800 240/03 RMK AO2 T00111017
94299KAAT AAT20160107171512001/07/16 17:15:31  5-MIN KAAT 080115Z AUTO 27005KT 10SM FEW027 OVC047 01/M02 A2990 4400 82 3800 260/05 RMK AO2 T00111017
94299KAAT AAT20160107172012001/07/16 17:20:31  5-MIN KAAT 080120Z AUTO 28005KT 10SM FEW027 OVC045 01/M02 A2990 4400 82 3800 270/05 RMK AO2 T00111017
94299KAAT AAT20160107172511301/07/16 17:25:31  5-MIN KAAT 080125Z AUTO 28006KT 10SM OVC045 01/M02 A2990 4400 82 3800 270/06 RMK AO2 T00111017
94299KAAT AAT20160107173011301/07/16 17:30:31  5-MIN KAAT 080130Z AUTO 29005KT 10SM OVC045 01/M02 A2990 4400 82 3800 280/05 RMK AO2 T00111017
94299KAAT AAT20160107173512001/07/16 17:35:31  5-MIN KAAT 080135Z AUTO 31004KT 10SM FEW027 OVC045 01/M02 A2990 4400 82 3800 290/04 RMK AO2 T00111017
94299KAAT AAT20160107174012001/07/16 17:40:31  5-MIN KAAT 080140Z AUTO 33003KT 10SM SCT025 OVC046 01/M02 A2990 4400 82 3800 310/03 RMK AO2 T00111017
94299KAAT AAT20160107174512001/07/16 17:45:31  5-MIN KAAT 080145Z AUTO 31003KT 10SM BKN025 OVC046 01/M01 A2991 4400 85 3800 300/03 RMK AO2 T00111011
94299KAAT AAT20160107175012701/07/16 17:50:31  5-MIN KAAT 080150Z AUTO 31003KT 10SM SCT025 OVC048 01/M01 A2991 4390 89 3700 290/03 RMK AO2 SLP144 T00061011
94299KAAT AAT20160107175512701/07/16 17:55:31  5-MIN KAAT 080155Z AUTO 32003KT 10SM SCT025 OVC048 01/M01 A2991 4390 89 3700 300/03 RMK AO2 SLP145 T00061011
94299KAAT AAT20160107180011001/07/16 18:00:31  5-MIN KAAT 080200Z AUTO 10SM SCT025 OVC048 01/M01 A2991 4390 89 3700 M /M RMK AO2 T00061011
94299KAAT AAT20160107180512001/07/16 18:05:31  5-MIN KAAT 080205Z AUTO 29003KT 10SM FEW025 OVC049 01/M01 A2991 4390 89 3700 280/03 RMK AO2 T00061011
94299KAAT AAT20160107181012001/07/16 18:10:31  5-MIN KAAT 080210Z AUTO 00000KT 10SM FEW025 OVC049 01/M01 A2992 4390 89 3700 000/00 RMK AO2 T00061011
94299KAAT AAT20160107181511301/07/16 18:15:31  5-MIN KAAT 080215Z AUTO 28003KT 10SM OVC049 01/M01 A2992 4380 89 3700 270/03 RMK AO2 T00061011
94299KAAT AAT20160107182011301/07/16 18:20:31  5-MIN KAAT 080220Z AUTO 28003KT 10SM OVC049 01/M01 A2992 4380 89 3700 270/03 RMK AO2 T00061011
94299KAAT AAT20160107182511301/07/16 18:25:31  5-MIN KAAT 080225Z AUTO 00000KT 10SM OVC049 01/M02 A2992 4380 85 3700 000/00 RMK AO2 T00061017
94299KAAT AAT20160107183010301/07/16 18:30:31  5-MIN KAAT 080230Z AUTO 10SM OVC049 01/M02 A2992 4380 85 3700 M /M RMK AO2 T00061017
94299KAAT AAT20160107183511301/07/16 18:35:31  5-MIN KAAT 080235Z AUTO 27003KT 10SM OVC049 01/M02 A2992 4380 82 3700 250/03 RMK AO2 T00061022
94299KAAT AAT20160107184011301/07/16 18:40:31  5-MIN KAAT 080240Z AUTO 27003KT 10SM OVC049 01/M02 A2992 4380 82 3700 250/03 RMK AO2 T00061022
94299KAAT AAT20160107184511301/07/16 18:45:31  5-MIN KAAT 080245Z AUTO 27004KT 10SM OVC050 01/M02 A2992 4380 82 3700 260/04 RMK AO2 T00061022
94299KAAT AAT20160107185012601/07/16 18:50:31  5-MIN KAAT 080250Z AUTO 28004KT 10SM OVC050 01/M02 A2992 4380 82 3700 270/04 RMK AO2 SLP149 T00061022 53008
94299KAAT AAT20160107185512601/07/16 18:55:31  5-MIN KAAT 080255Z AUTO 30003KT 10SM OVC050 01/M02 A2992 4380 82 3700 280/03 RMK AO2 SLP149 T00061022 53012
94299KAAT AAT20160107190011301/07/16 19:00:31  5-MIN KAAT 080300Z AUTO 30003KT 10SM OVC050 01/M02 A2992 4380 82 3700 280/03 RMK AO2 T00061022
94299KAAT AAT20160107190511301/07/16 19:05:31  5-MIN KAAT 080305Z AUTO 27005KT 10SM OVC050 01/M02 A2992 4380 82 3700 260/05 RMK AO2 T00061022
94299KAAT AAT20160107191011301/07/16 19:10:31  5-MIN KAAT 080310Z AUTO 28004KT 10SM OVC050 01/M02 A2992 4380 82 3700 270/04 RMK AO2 T00061022
94299KAAT AAT20160107191511301/07/16 19:15:31  5-MIN KAAT 080315Z AUTO 35004KT 10SM OVC050 01/M02 A2992 4380 82 3700 330/04 RMK AO2 T00061022
94299KAAT AAT20160107192011301/07/16 19:20:31  5-MIN KAAT 080320Z AUTO 00000KT 10SM OVC050 01/M02 A2992 4380 82 3700 000/00 RMK AO2 T00061022
94299KAAT AAT20160107192511301/07/16 19:25:31  5-MIN KAAT 080325Z AUTO 00000KT 10SM OVC050 01/M02 A2992 4380 82 3700 000/00 RMK AO2 T00061022
94299KAAT AAT20160107193011301/07/16 19:30:31  5-MIN KAAT 080330Z AUTO 00000KT 10SM OVC050 01/M02 A2993 4380 82 3700 000/00 RMK AO2 T00061022
94299KAAT AAT20160107193511301/07/16 19:35:31  5-MIN KAAT 080335Z AUTO 00000KT 10SM OVC050 01/M02 A2993 4380 82 3700 000/00 RMK AO2 T00061022
94299KAAT AAT20160107194010301/07/16 19:40:31  5-MIN KAAT 080340Z AUTO 10SM OVC050 01/M02 A2993 4380 82 3700 M /M RMK AO2 T00061022
94299KAAT AAT20160107194510301/07/16 19:45:31  5-MIN KAAT 080345Z AUTO 10SM OVC050 01/M02 A2993 4380 82 3700 M /M RMK AO2 T00061022
94299KAAT AAT20160107195012001/07/16 19:50:31  5-MIN KAAT 080350Z AUTO 00000KT 10SM OVC050 00/M02 A2993 4380 85 3700 000/00 RMK AO2 SLP152 T00001022
94299KAAT AAT20160107195512001/07/16 19:55:31  5-MIN KAAT 080355Z AUTO 00000KT 10SM OVC050 00/M02 A2993 4380 85 3700 000/00 RMK AO2 SLP152 T00001022
94299KAAT AAT20160107200011301/07/16 20:00:31  5-MIN KAAT 080400Z AUTO 00000KT 10SM OVC050 00/M02 A2993 4370 85 3600 000/00 RMK AO2 T00001022
94299KAAT AAT20160107200511301/07/16 20:05:31  5-MIN KAAT 080405Z AUTO 00000KT 10SM OVC050 00/M02 A2993 4370 85 3600 000/00 RMK AO2 T00001022
94299KAAT AAT20160107201011301/07/16 20:10:31  5-MIN KAAT 080410Z AUTO 00000KT 10SM OVC050 00/M02 A2993 4370 85 3600 000/00 RMK AO2 T00001022
94299KAAT AAT20160107201511301/07/16 20:15:31  5-MIN KAAT 080415Z AUTO 00000KT 10SM OVC055 00/M02 A2993 4370 85 3600 000/00 RMK AO2 T00001022
94299KAAT AAT20160107202011301/07/16 20:20:31  5-MIN KAAT 080420Z AUTO 00000KT 10SM OVC050 00/M02 A2993 4370 85 3600 000/00 RMK AO2 T00001022
94299KAAT AAT20160107202511301/07/16 20:25:31  5-MIN KAAT 080425Z AUTO 00000KT 10SM OVC050 00/M02 A2993 4370 85 3600 000/00 RMK AO2 T00001022
94299KAAT AAT20160107203011201/07/16 20:30:31  5-MIN KAAT 080430Z AUTO 00000KT 8SM OVC050 00/M02 A2993 4370 85 3600 000/00 RMK AO2 T00001022
94299KAAT AAT20160107203511201/07/16 20:35:31  5-MIN KAAT 080435Z AUTO 16003KT 8SM OVC050 00/M02 A2993 4370 85 3600 150/03 RMK AO2 T00001022
94299KAAT AAT20160107204011301/07/16 20:40:31  5-MIN KAAT 080440Z AUTO 00000KT 10SM OVC050 00/M02 A2993 4370 85 3600 000/00 RMK AO2 T00001022
94299KAAT AAT20160107204511301/07/16 20:45:31  5-MIN KAAT 080445Z AUTO 00000KT 10SM OVC050 00/M02 A2993 4370 85 3600 000/00 RMK AO2 T00001022
94299KAAT AAT20160107205012001/07/16 20:50:31  5-MIN KAAT 080450Z AUTO 00000KT 10SM OVC050 00/M02 A2994 4370 85 3600 000/00 RMK AO2 SLP154 T00001022
94299KAAT AAT20160107205512001/07/16 20:55:31  5-MIN KAAT 080455Z AUTO 00000KT 10SM OVC050 00/M02 A2994 4370 85 3600 000/00 RMK AO2 SLP154 T00001022
94299KAAT AAT20160107210011301/07/16 21:00:31  5-MIN KAAT 080500Z AUTO 00000KT 10SM OVC050 00/M02 A2994 4360 85 3600 000/00 RMK AO2 T00001022
94299KAAT AAT20160107210511301/07/16 21:05:31  5-MIN KAAT 080505Z AUTO 00000KT 10SM OVC050 00/M02 A2994 4360 85 3600 000/00 RMK AO2 T00001022
94299KAAT AAT20160107211011401/07/16 21:10:31  5-MIN KAAT 080510Z AUTO 00000KT 10SM OVC050 M01/M02 A2994 4360 88 3600 000/00 RMK AO2 T10061022
94299KAAT AAT20160107211511401/07/16 21:15:31  5-MIN KAAT 080515Z AUTO 00000KT 10SM OVC050 M01/M02 A2994 4360 88 3600 000/00 RMK AO2 T10061022
94299KAAT AAT20160107212011401/07/16 21:20:31  5-MIN KAAT 080520Z AUTO 00000KT 10SM OVC050 M01/M02 A2994 4360 88 3600 000/00 RMK AO2 T10061022
94299KAAT AAT20160107212511401/07/16 21:25:31  5-MIN KAAT 080525Z AUTO 00000KT 10SM OVC050 M01/M02 A2994 4360 88 3600 000/00 RMK AO2 T10061022
94299KAAT AAT20160107213011401/07/16 21:30:31  5-MIN KAAT 080530Z AUTO 00000KT 10SM OVC050 M01/M02 A2994 4360 88 3600 000/00 RMK AO2 T10061022
94299KAAT AAT20160107213511401/07/16 21:35:31  5-MIN KAAT 080535Z AUTO 00000KT 10SM OVC050 M01/M02 A2994 4360 88 3600 000/00 RMK AO2 T10061022
94299KAAT AAT20160107214011401/07/16 21:40:31  5-MIN KAAT 080540Z AUTO 00000KT 10SM OVC050 M01/M02 A2994 4360 88 3600 000/00 RMK AO2 T10061022
94299KAAT AAT20160107214511401/07/16 21:45:31  5-MIN KAAT 080545Z AUTO 00000KT 10SM OVC050 M01/M02 A2995 4360 88 3600 000/00 RMK AO2 T10061022
94299KAAT AAT20160107215013701/07/16 21:50:31  5-MIN KAAT 080550Z AUTO 00000KT 8SM OVC050 00/M02 A2995 4360 85 3600 000/00 RMK AO2 SLP156 T00001022 10022 21006 53012
94299KAAT AAT20160107215513801/07/16 21:55:31  5-MIN KAAT 080555Z AUTO 00000KT 7SM OVC050 M01/M02 A2995 4350 92 3600 000/00 RMK AO2 SLP157 T10061017 10022 21006 53008
94299KAAT AAT20160107220011601/07/16 22:00:31  5-MIN KAAT 080600Z AUTO 00000KT 5SM BR OVC050 M01/M02 A2995 4350 92 3600 000/00 RMK AO2 T10061017
94299KAAT AAT20160107220511601/07/16 22:05:31  5-MIN KAAT 080605Z AUTO 00000KT 4SM BR OVC050 M01/M02 A2995 4350 92 3600 000/00 RMK AO2 T10061017
94299KAAT AAT20160107221011601/07/16 22:10:31  5-MIN KAAT 080610Z AUTO 00000KT 4SM BR OVC050 M01/M02 A2995 4350 92 3600 000/00 RMK AO2 T10061017
94299KAAT AAT20160107221511601/07/16 22:15:31  5-MIN KAAT 080615Z AUTO 00000KT 3SM BR OVC050 M01/M02 A2995 4350 92 3600 000/00 RMK AO2 T10061017
94299KAAT AAT20160107222011601/07/16 22:20:31  5-MIN KAAT 080620Z AUTO 00000KT 3SM BR OVC050 M01/M02 A2995 4350 92 3600 000/00 RMK AO2 T10061017
94299KAAT AAT20160107222511601/07/16 22:25:31  5-MIN KAAT 080625Z AUTO 00000KT 4SM BR OVC050 M01/M02 A2996 4350 88 3600 000/00 RMK AO2 T10061022
94299KAAT AAT20160107223011601/07/16 22:30:31  5-MIN KAAT 080630Z AUTO 00000KT 4SM BR OVC050 M01/M02 A2996 4350 88 3500 000/00 RMK AO2 T10061022
94299KAAT AAT20160107223511601/07/16 22:35:31  5-MIN KAAT 080635Z AUTO 00000KT 4SM BR OVC050 M01/M02 A2996 4350 88 3500 000/00 RMK AO2 T10061022
94299KAAT AAT20160107224011601/07/16 22:40:31  5-MIN KAAT 080640Z AUTO 00000KT 4SM BR OVC050 M01/M02 A2996 4350 92 3500 000/00 RMK AO2 T10111022
94299KAAT AAT20160107224511601/07/16 22:45:31  5-MIN KAAT 080645Z AUTO 00000KT 5SM BR OVC050 M01/M02 A2996 4350 92 3500 000/00 RMK AO2 T10111022
94299KAAT AAT20160107225012301/07/16 22:50:31  5-MIN KAAT 080650Z AUTO 24003KT 6SM BR OVC050 M01/M02 A2996 4350 92 3500 220/03 RMK AO2 SLP160 T10111022
94299KAAT AAT20160107225512001/07/16 22:55:31  5-MIN KAAT 080655Z AUTO 25003KT 9SM OVC050 M01/M02 A2996 4350 92 3500 230/03 RMK AO2 SLP160 T10111022
94299KAAT AAT20160107230011401/07/16 23:00:31  5-MIN KAAT 080700Z AUTO 00000KT 10SM OVC050 M01/M02 A2996 4350 92 3500 000/00 RMK AO2 T10111022
94299KAAT AAT20160107230511401/07/16 23:05:31  5-MIN KAAT 080705Z AUTO 00000KT 10SM OVC050 M01/M02 A2996 4350 92 3500 000/00 RMK AO2 T10111022
94299KAAT AAT20160107231011401/07/16 23:10:31  5-MIN KAAT 080710Z AUTO 00000KT 10SM OVC050 M01/M02 A2996 4350 92 3500 000/00 RMK AO2 T10111022
94299KAAT AAT20160107231511401/07/16 23:15:31  5-MIN KAAT 080715Z AUTO 00000KT 10SM OVC050 M01/M02 A2996 4340 92 3500 000/00 RMK AO2 T10111022
94299KAAT AAT20160107232011401/07/16 23:20:31  5-MIN KAAT 080720Z AUTO 00000KT 10SM OVC050 M01/M02 A2996 4340 92 3500 000/00 RMK AO2 T10111022
94299KAAT AAT20160107232511401/07/16 23:25:31  5-MIN KAAT 080725Z AUTO 00000KT 10SM OVC050 M01/M02 A2996 4340 92 3500 000/00 RMK AO2 T10111022
94299KAAT AAT20160107233011401/07/16 23:30:31  5-MIN KAAT 080730Z AUTO 00000KT 10SM OVC050 M01/M02 A2996 4340 92 3500 000/00 RMK AO2 T10111022
94299KAAT AAT20160107233511401/07/16 23:35:31  5-MIN KAAT 080735Z AUTO 00000KT 10SM OVC050 M01/M03 A2996 4340 88 3500 000/00 RMK AO2 T10111028
94299KAAT AAT20160107234011401/07/16 23:40:31  5-MIN KAAT 080740Z AUTO 00000KT 10SM OVC050 M01/M03 A2996 4340 88 3500 000/00 RMK AO2 T10111028
94299KAAT AAT20160107234511401/07/16 23:45:31  5-MIN KAAT 080745Z AUTO 04003KT 10SM OVC050 M01/M03 A2996 4340 88 3500 030/03 RMK AO2 T10111028
94299KAAT AAT20160107235013101/07/16 23:50:31  5-MIN KAAT 080750Z AUTO 00000KT 10SM OVC049 M01/M02 A2996 4340 92 3500 000/00 RMK AO2 SLP159 T10111022 400281022
94299KAAT AAT20160107235513101/07/16 23:55:31  5-MIN KAAT 080755Z AUTO 00000KT 10SM OVC049 M01/M02 A2996 4350 92 3500 000/00 RMK AO2 SLP158 T10111022 400281022
94299KAAT AAT20160108000011301/08/16 00:00:31  5-MIN KAAT 080800Z AUTO 02003KT 9SM OVC049 M01/M02 A2996 4340 92 3500 360/03 RMK AO2 T10111022
94299KAAT AAT20160108000511301/08/16 00:05:31  5-MIN KAAT 080805Z AUTO 00000KT 8SM OVC050 M01/M02 A2996 4350 92 3500 000/00 RMK AO2 T10111022
94299KAAT AAT20160108001011301/08/16 00:10:31  5-MIN KAAT 080810Z AUTO 00000KT 8SM OVC050 M01/M02 A2996 4350 92 3500 000/00 RMK AO2 T10111022
94299KAAT AAT20160108001511301/08/16 00:15:31  5-MIN KAAT 080815Z AUTO 00000KT 8SM OVC050 M01/M02 A2996 4350 92 3500 000/00 RMK AO2 T10111022
94299KAAT AAT20160108002011301/08/16 00:20:31  5-MIN KAAT 080820Z AUTO 00000KT 9SM OVC050 M01/M02 A2995 4350 92 3500 000/00 RMK AO2 T10111022
94299KAAT AAT20160108002511401/08/16 00:25:31  5-MIN KAAT 080825Z AUTO 00000KT 10SM OVC050 M01/M02 A2995 4350 92 3500 000/00 RMK AO2 T10111022
94299KAAT AAT20160108003011301/08/16 00:30:31  5-MIN KAAT 080830Z AUTO 00000KT 9SM OVC050 M01/M02 A2995 4350 92 3500 000/00 RMK AO2 T10111022
94299KAAT AAT20160108003511601/08/16 00:35:31  5-MIN KAAT 080835Z AUTO 00000KT 6SM BR OVC050 M01/M02 A2995 4350 92 3500 000/00 RMK AO2 T10111022
94299KAAT AAT20160108004011601/08/16 00:40:31  5-MIN KAAT 080840Z AUTO 00000KT 5SM BR OVC050 M02/M03 A2995 4350 92 3400 000/00 RMK AO2 T10171028
94299KAAT AAT20160108004511601/08/16 00:45:31  5-MIN KAAT 080845Z AUTO 22003KT 5SM BR OVC050 M02/M03 A2996 4350 92 3400 200/03 RMK AO2 T10171028
94299KAAT AAT20160108005012901/08/16 00:50:31  5-MIN KAAT 080850Z AUTO 00000KT 5SM BR OVC050 M02/M03 A2996 4350 96 3300 000/00 RMK AO2 SLP159 T10221028 53008
94299KAAT AAT20160108005512601/08/16 00:55:31  5-MIN KAAT 080855Z AUTO 13003KT 7SM OVC050 M02/M03 A2995 4350 96 3300 120/03 RMK AO2 SLP158 T10221028 50001
94299KAAT AAT20160108010011301/08/16 01:00:31  5-MIN KAAT 080900Z AUTO 14004KT 8SM OVC050 M02/M03 A2995 4350 92 3400 130/04 RMK AO2 T10171028
94299KAAT AAT20160108010511301/08/16 01:05:31  5-MIN KAAT 080905Z AUTO 16003KT 9SM OVC050 M02/M03 A2995 4350 92 3400 140/03 RMK AO2 T10171028
94299KAAT AAT20160108011011401/08/16 01:10:31  5-MIN KAAT 080910Z AUTO 17003KT 10SM OVC050 M02/M02 A2995 4350 96 3400 160/03 RMK AO2 T10171022
94299KAAT AAT20160108011511401/08/16 01:15:31  5-MIN KAAT 080915Z AUTO 19004KT 10SM OVC050 M02/M02 A2995 4350 96 3400 170/04 RMK AO2 T10171022
94299KAAT AAT20160108012011401/08/16 01:20:31  5-MIN KAAT 080920Z AUTO 20003KT 10SM OVC050 M02/M03 A2996 4350 96 3300 180/03 RMK AO2 T10221028
94299KAAT AAT20160108012511401/08/16 01:25:31  5-MIN KAAT 080925Z AUTO 00000KT 10SM OVC050 M02/M03 A2996 4350 96 3300 000/00 RMK AO2 T10221028
94299KAAT AAT20160108013011401/08/16 01:30:31  5-MIN KAAT 080930Z AUTO 00000KT 10SM OVC050 M02/M03 A2996 4340 96 3300 000/00 RMK AO2 T10221028
94299KAAT AAT20160108013511401/08/16 01:35:31  5-MIN KAAT 080935Z AUTO 00000KT 10SM OVC050 M02/M03 A2996 4340 92 3300 000/00 RMK AO2 T10221033
94299KAAT AAT20160108014011401/08/16 01:40:31  5-MIN KAAT 080940Z AUTO 00000KT 10SM OVC050 M02/M03 A2996 4340 92 3300 000/00 RMK AO2 T10221033
94299KAAT AAT20160108014511401/08/16 01:45:31  5-MIN KAAT 080945Z AUTO 00000KT 10SM OVC050 M02/M03 A2996 4340 92 3300 000/00 RMK AO2 T10221033
94299KAAT AAT20160108015012101/08/16 01:50:31  5-MIN KAAT 080950Z AUTO 31003KT 10SM OVC050 M02/M03 A2997 4340 92 3300 300/03 RMK AO2 SLP161 T10221033
94299KAAT AAT20160108015512101/08/16 01:55:31  5-MIN KAAT 080955Z AUTO 33003KT 10SM OVC050 M02/M03 A2997 4340 96 3300 320/03 RMK AO2 SLP163 T10221028
94299KAAT AAT20160108020011401/08/16 02:00:31  5-MIN KAAT 081000Z AUTO 00000KT 10SM OVC050 M02/M03 A2997 4340 96 3300 000/00 RMK AO2 T10221028
94299KAAT AAT20160108020511401/08/16 02:05:31  5-MIN KAAT 081005Z AUTO 00000KT 10SM OVC050 M02/M03 A2997 4340 96 3300 000/00 RMK AO2 T10221028
94299KAAT AAT20160108021011401/08/16 02:10:31  5-MIN KAAT 081010Z AUTO 00000KT 10SM OVC050 M02/M03 A2997 4340 96 3300 000/00 RMK AO2 T10221028
94299KAAT AAT20160108021511401/08/16 02:15:31  5-MIN KAAT 081015Z AUTO 00000KT 10SM OVC050 M02/M03 A2997 4330 92 3400 000/00 RMK AO2 T10171028
94299KAAT AAT20160108022011401/08/16 02:20:31  5-MIN KAAT 081020Z AUTO 00000KT 10SM OVC050 M02/M03 A2998 4330 92 3400 000/00 RMK AO2 T10171028
94299KAAT AAT20160108022511401/08/16 02:25:31  5-MIN KAAT 081025Z AUTO 00000KT 10SM OVC050 M02/M03 A2998 4330 96 3300 000/00 RMK AO2 T10221028
94299KAAT AAT20160108023011401/08/16 02:30:31  5-MIN KAAT 081030Z AUTO 00000KT 10SM OVC050 M02/M03 A2998 4330 96 3300 000/00 RMK AO2 T10221028
94299KAAT AAT20160108023511401/08/16 02:35:31  5-MIN KAAT 081035Z AUTO 34003KT 10SM OVC050 M02/M03 A2998 4330 92 3400 330/03 RMK AO2 T10171028
94299KAAT AAT20160108024011401/08/16 02:40:31  5-MIN KAAT 081040Z AUTO 00000KT 10SM OVC050 M02/M03 A2998 4330 92 3400 000/00 RMK AO2 T10171028
94299KAAT AAT20160108024511401/08/16 02:45:31  5-MIN KAAT 081045Z AUTO 31003KT 10SM OVC050 M02/M03 A2998 4330 96 3300 290/03 RMK AO2 T10221028
94299KAAT AAT20160108025012101/08/16 02:50:31  5-MIN KAAT 081050Z AUTO 00000KT 10SM OVC050 M02/M03 A2998 4330 96 3300 000/00 RMK AO2 SLP166 T10221028
94299KAAT AAT20160108025512101/08/16 02:55:31  5-MIN KAAT 081055Z AUTO 00000KT 10SM OVC050 M02/M03 A2998 4330 96 3300 000/00 RMK AO2 SLP166 T10221028
94299KAAT AAT20160108030011401/08/16 03:00:31  5-MIN KAAT 081100Z AUTO 00000KT 10SM OVC050 M02/M03 A2998 4330 96 3300 000/00 RMK AO2 T10221028
94299KAAT AAT20160108030511401/08/16 03:05:31  5-MIN KAAT 081105Z AUTO 00000KT 10SM OVC050 M02/M03 A2998 4330 96 3300 000/00 RMK AO2 T10221028
94299KAAT AAT20160108031011401/08/16 03:10:31  5-MIN KAAT 081110Z AUTO 00000KT 10SM OVC050 M02/M03 A2998 4330 96 3300 000/00 RMK AO2 T10221028
94299KAAT AAT20160108031511401/08/16 03:15:31  5-MIN KAAT 081115Z AUTO 00000KT 10SM OVC050 M02/M03 A2998 4330 92 3400 000/00 RMK AO2 T10171028
94299KAAT AAT20160108032011401/08/16 03:20:31  5-MIN KAAT 081120Z AUTO 00000KT 10SM OVC050 M02/M03 A2998 4330 92 3400 000/00 RMK AO2 T10171028
94299KAAT AAT20160108032511401/08/16 03:25:31  5-MIN KAAT 081125Z AUTO 00000KT 10SM OVC050 M02/M03 A2998 4330 92 3300 000/00 RMK AO2 T10221033
94299KAAT AAT20160108033011401/08/16 03:30:31  5-MIN KAAT 081130Z AUTO 00000KT 10SM OVC050 M02/M03 A2998 4330 92 3400 000/00 RMK AO2 T10171028
94299KAAT AAT20160108033511401/08/16 03:35:31  5-MIN KAAT 081135Z AUTO 00000KT 10SM OVC050 M02/M03 A2998 4330 92 3400 000/00 RMK AO2 T10171028
94299KAAT AAT20160108034011401/08/16 03:40:31  5-MIN KAAT 081140Z AUTO 05003KT 10SM OVC050 M02/M03 A2998 4320 92 3400 040/03 RMK AO2 T10171028
94299KAAT AAT20160108034511401/08/16 03:45:31  5-MIN KAAT 081145Z AUTO 00000KT 10SM OVC050 M02/M03 A2998 4330 92 3400 000/00 RMK AO2 T10171028
94299KAAT AAT20160108035013901/08/16 03:50:31  5-MIN KAAT 081150Z AUTO 00000KT 10SM OVC050 M02/M03 A2998 4330 92 3400 000/00 RMK AO2 SLP167 T10171028 11006 21022 50001
94299KAAT AAT20160108035513901/08/16 03:55:31  5-MIN KAAT 081155Z AUTO 11003KT 10SM OVC050 M02/M03 A2998 4330 92 3400 100/03 RMK AO2 SLP168 T10171028 11006 21022 51008
94299KAAT AAT20160108040011401/08/16 04:00:31  5-MIN KAAT 081200Z AUTO 00000KT 10SM OVC050 M02/M03 A2998 4320 92 3400 000/00 RMK AO2 T10171028
94299KAAT AAT20160108040511401/08/16 04:05:31  5-MIN KAAT 081205Z AUTO 00000KT 10SM OVC050 M02/M03 A2998 4320 96 3300 000/00 RMK AO2 T10221028
94299KAAT AAT20160108041011401/08/16 04:10:31  5-MIN KAAT 081210Z AUTO 12003KT 10SM OVC050 M02/M03 A2998 4330 92 3300 100/03 RMK AO2 T10221033
94299KAAT AAT20160108041511301/08/16 04:15:31  5-MIN KAAT 081215Z AUTO 00000KT 9SM OVC050 M02/M03 A2998 4330 96 3300 000/00 RMK AO2 T10221028
94299KAAT AAT20160108042011301/08/16 04:20:31  5-MIN KAAT 081220Z AUTO 00000KT 9SM OVC050 M02/M03 A2998 4320 96 3300 000/00 RMK AO2 T10221028
94299KAAT AAT20160108042511301/08/16 04:25:31  5-MIN KAAT 081225Z AUTO 00000KT 8SM OVC050 M02/M03 A2998 4320 96 3300 000/00 RMK AO2 T10221028
94299KAAT AAT20160108043011301/08/16 04:30:31  5-MIN KAAT 081230Z AUTO 00000KT 8SM OVC050 M02/M03 A2998 4320 96 3300 000/00 RMK AO2 T10221028
94299KAAT AAT20160108043511301/08/16 04:35:31  5-MIN KAAT 081235Z AUTO 00000KT 8SM OVC050 M02/M03 A2998 4320 96 3300 000/00 RMK AO2 T10221028
94299KAAT AAT20160108044011301/08/16 04:40:31  5-MIN KAAT 081240Z AUTO 00000KT 9SM OVC050 M02/M03 A2998 4320 96 3300 000/00 RMK AO2 T10221028
94299KAAT AAT20160108044511301/08/16 04:45:31  5-MIN KAAT 081245Z AUTO 00000KT 9SM OVC050 M02/M03 A2999 4320 96 3300 000/00 RMK AO2 T10221028
94299KAAT AAT20160108045012001/08/16 04:50:31  5-MIN KAAT 081250Z AUTO 00000KT 9SM OVC050 M03/M03 A2998 4320 96 3200 000/00 RMK AO2 SLP171 T10281033
94299KAAT AAT20160108045512001/08/16 04:55:31  5-MIN KAAT 081255Z AUTO 00000KT 9SM OVC050 M03/M03 A2999 4320 96 3200 000/00 RMK AO2 SLP171 T10281033
94299KAAT AAT20160108050011301/08/16 05:00:31  5-MIN KAAT 081300Z AUTO 00000KT 9SM OVC050 M03/M03 A2999 4320 96 3200 000/00 RMK AO2 T10281033
94299KAAT AAT20160108050511301/08/16 05:05:31  5-MIN KAAT 081305Z AUTO 00000KT 9SM OVC050 M02/M03 A2999 4320 92 3300 000/00 RMK AO2 T10221033
94299KAAT AAT20160108051011301/08/16 05:10:31  5-MIN KAAT 081310Z AUTO 00000KT 8SM OVC050 M03/M03 A2998 4320 96 3200 000/00 RMK AO2 T10281033
94299KAAT AAT20160108051511301/08/16 05:15:31  5-MIN KAAT 081315Z AUTO 00000KT 8SM OVC050 M03/M03 A2999 4320 96 3200 000/00 RMK AO2 T10281033
94299KAAT AAT20160108052011301/08/16 05:20:31  5-MIN KAAT 081320Z AUTO 00000KT 9SM OVC050 M03/M03 A2999 4320 96 3200 000/00 RMK AO2 T10281033
94299KAAT AAT20160108052511301/08/16 05:25:31  5-MIN KAAT 081325Z AUTO 00000KT 9SM OVC050 M03/M03 A2999 4320 96 3200 000/00 RMK AO2 T10281033
94299KAAT AAT20160108053011401/08/16 05:30:31  5-MIN KAAT 081330Z AUTO 00000KT 10SM OVC050 M03/M03 A2999 4320 96 3200 000/00 RMK AO2 T10281033
94299KAAT AAT20160108053511501/08/16 05:35:31  5-MIN KAAT 081335Z AUTO 00000KT 10SM OVC050 M03/M03 A2999 4320 100 3200 000/00 RMK AO2 T10331033
94299KAAT AAT20160108054011401/08/16 05:40:31  5-MIN KAAT 081340Z AUTO 00000KT 10SM OVC050 M03/M03 A2999 4320 96 3200 000/00 RMK AO2 T10281033
94299KAAT AAT20160108054511301/08/16 05:45:31  5-MIN KAAT 081345Z AUTO 00000KT 9SM OVC050 M03/M04 A2999 4310 96 3200 000/00 RMK AO2 T10331039
94299KAAT AAT20160108055012001/08/16 05:50:31  5-MIN KAAT 081350Z AUTO 00000KT 8SM OVC050 M03/M03 A2999 4310 96 3200 000/00 RMK AO2 SLP176 T10281033
94299KAAT AAT20160108055512001/08/16 05:55:31  5-MIN KAAT 081355Z AUTO 00000KT 8SM OVC050 M03/M04 A2999 4310 96 3200 000/00 RMK AO2 SLP176 T10331039
94299KAAT AAT20160108060011301/08/16 06:00:31  5-MIN KAAT 081400Z AUTO 00000KT 7SM OVC050 M03/M04 A2999 4310 96 3200 000/00 RMK AO2 T10331039
94299KAAT AAT20160108060511301/08/16 06:05:31  5-MIN KAAT 081405Z AUTO 00000KT 8SM OVC050 M04/M04 A2999 4310 96 3100 000/00 RMK AO2 T10391044
94299KAAT AAT20160108061011301/08/16 06:10:31  5-MIN KAAT 081410Z AUTO 00000KT 9SM OVC050 M04/M04 A2999 4310 96 3100 000/00 RMK AO2 T10391044
94299KAAT AAT20160108061511401/08/16 06:15:31  5-MIN KAAT 081415Z AUTO 00000KT 10SM OVC050 M04/M04 A3000 4310 96 3100 000/00 RMK AO2 T10391044
94299KAAT AAT20160108062011301/08/16 06:20:31  5-MIN KAAT 081420Z AUTO 00000KT 9SM OVC050 M04/M04 A3000 4310 96 3100 000/00 RMK AO2 T10391044
94299KAAT AAT20160108062511301/08/16 06:25:31  5-MIN KAAT 081425Z AUTO 00000KT 8SM OVC050 M04/M04 A3000 4310 96 3100 000/00 RMK AO2 T10391044
94299KAAT AAT20160108063011601/08/16 06:30:31  5-MIN KAAT 081430Z AUTO 00000KT 6SM BR BKN050 M04/M04 A3000 4310 96 3100 000/00 RMK AO2 T10391044
94299KAAT AAT20160108063511601/08/16 06:35:31  5-MIN KAAT 081435Z AUTO 00000KT 3SM BR BKN050 M04/M04 A3000 4310 96 3100 000/00 RMK AO2 T10391044
94299KAAT AAT20160108064013201/08/16 06:40:31  5-MIN KAAT 081440Z AUTO 00000KT 2 1/2SM BR BKN050 M04/M04 A3000 4310 96 3100 000/00 RMK AO2 VIS 1 1/4V5 T10391044
94299KAAT AAT20160108064511601/08/16 06:45:31  5-MIN KAAT 081445Z AUTO 00000KT 1SM BR BKN050 M04/M05 A3000 4310 96 3000 000/00 RMK AO2 T10441050
94299KAAT AAT20160108065011001/08/16 06:50:31  5-MIN KAAT 081450Z AUTO 00000KT 1/2SM FZFG BKN050 M04/M05 A3000 4300 96 3000 000/00 RMK AO2
94299KAAT AAT20160108065513301/08/16 06:55:31  5-MIN KAAT 081455Z AUTO 00000KT 1/2SM FZFG BKN050 M04/M05 A3001 4300 96 3000 000/00 RMK AO2 SLP182 T10441050 51006
94299KAAT AAT20160108070011801/08/16 07:00:31  5-MIN KAAT 081500Z AUTO 00000KT 3/4SM BR BKN050 M04/M05 A3001 4300 96 3000 000/00 RMK AO2 T10441050
94299KAAT AAT20160108070511901/08/16 07:05:31  5-MIN KAAT 081505Z AUTO 00000KT 3/4SM BR BKN050 M06/M06 A3001 4300 100 2900 000/00 RMK AO2 T10561056
94299KAAT AAT20160108071012701/08/16 07:10:31  5-MIN KAAT 081510Z AUTO 00000KT 1/2SM FZFG FEW002 BKN050 M05/M06 A3000 4300 92 2900 000/00 RMK AO2 T10501061
94299KAAT AAT20160108071512801/08/16 07:15:31  5-MIN KAAT 081515Z AUTO 00000KT 1/4SM FZFG SCT002 BKN050 M06/M06 A3001 4300 100 2900 000/00 RMK AO2 T10561056
94299KAAT AAT20160108072012701/08/16 07:20:31  5-MIN KAAT 081520Z AUTO 00000KT 1/4SM FZFG SCT002 BKN050 M06/M06 A3001 4300 96 2900 000/00 RMK AO2 T10561061
94299KAAT AAT20160108072512701/08/16 07:25:31  5-MIN KAAT 081525Z AUTO 00000KT 1/4SM FZFG FEW001 BKN050 M06/M06 A3001 4300 96 2900 000/00 RMK AO2 T10561061
94299KAAT AAT20160108073012701/08/16 07:30:31  5-MIN KAAT 081530Z AUTO 00000KT 1/4SM FZFG FEW001 BKN050 M06/M06 A3001 4300 96 2900 000/00 RMK AO2 T10561061
94299KAAT AAT20160108073512701/08/16 07:35:31  5-MIN KAAT 081535Z AUTO 00000KT 1/2SM FZFG FEW001 BKN049 M06/M06 A3001 4300 96 2900 000/00 RMK AO2 T10561061
94299KAAT AAT20160108074006301/08/16 07:40:31  5-MIN KAAT 081540Z AUTO M M M M /M RMK AO2 $
94299KAAT AAT20160108074510401/08/16 07:45:31  5-MIN KAAT 081545Z AUTO 00000KT M06/M06 A3001 4300 96 2900 000/00 RMK AO2 T10561061 $
94299KAAT AAT20160108075010501/08/16 07:50:31  5-MIN KAAT 081550Z AUTO 00000KT 1/4SM FZFG M05/M06 A3001 4290 92 2900 000/00 RMK AO2 $
94299KAAT AAT20160108075512301/08/16 07:55:31  5-MIN KAAT 081555Z AUTO 00000KT 1/4SM FZFG M06/M06 A3002 4290 100 2900 000/00 RMK AO2 SLP189 T10561056 $
94299KAAT AAT20160108080011601/08/16 08:00:31  5-MIN KAAT 081600Z AUTO 00000KT 1/4SM FZFG M06/M06 A3002 4290 100 2900 000/00 RMK AO2 T10561056 $
94299KAAT AAT20160108080511601/08/16 08:05:31  5-MIN KAAT 081605Z AUTO 00000KT 1/2SM FZFG M06/M06 A3002 4290 100 2800 000/00 RMK AO2 T10611061 $
94299KAAT AAT20160108081012001/08/16 08:10:31  5-MIN KAAT 081610Z AUTO 00000KT 3/4SM BR OVC049 M06/M06 A3002 4290 96 2900 000/00 RMK AO2 T10561061 $
94299KAAT AAT20160108081512201/08/16 08:15:31  5-MIN KAAT 081615Z AUTO 00000KT 1 1/4SM BR OVC049 M05/M06 A3002 4290 96 2900 000/00 RMK AO2 T10501056 $
94299KAAT AAT20160108082011801/08/16 08:20:31  5-MIN KAAT 081620Z AUTO 00000KT 2SM BR OVC049 M05/M06 A3002 4290 96 2900 000/00 RMK AO2 T10501056 $
94299KAAT AAT20160108082511801/08/16 08:25:31  5-MIN KAAT 081625Z AUTO 00000KT 4SM BR OVC049 M04/M05 A3002 4280 96 3000 000/00 RMK AO2 T10441050 $
94299KAAT AAT20160108083011501/08/16 08:30:31  5-MIN KAAT 081630Z AUTO 00000KT 7SM OVC049 M04/M05 A3003 4280 96 3000 000/00 RMK AO2 T10441050 $
94299KAAT AAT20160108083511601/08/16 08:35:31  5-MIN KAAT 081635Z AUTO 00000KT 9SM OVC049 M05/M05 A3003 4280 100 2900 000/00 RMK AO2 T10501050 $
94299KAAT AAT20160108084011601/08/16 08:40:31  5-MIN KAAT 081640Z AUTO 00000KT 9SM OVC049 M05/M05 A3003 4280 100 2900 000/00 RMK AO2 T10501050 $
94299KAAT AAT20160108084511601/08/16 08:45:31  5-MIN KAAT 081645Z AUTO 00000KT 9SM OVC049 M05/M05 A3004 4280 100 2900 000/00 RMK AO2 T10501050 $
94299KAAT AAT20160108085012301/08/16 08:50:31  5-MIN KAAT 081650Z AUTO 00000KT 9SM OVC049 M04/M04 A3004 4270 100 3000 000/00 RMK AO2 SLP194 T10441044 $
94299KAAT AAT20160108085512201/08/16 08:55:31  5-MIN KAAT 081655Z AUTO 00000KT 10SM OVC049 M04/M04 A3004 4270 100 3000 000/00 RMK AO2 SLP193 T10391039
94299KAAT AAT20160108090011501/08/16 09:00:31  5-MIN KAAT 081700Z AUTO 00000KT 10SM OVC049 M03/M03 A3004 4270 100 3100 000/00 RMK AO2 T10331033
94299KAAT AAT20160108090511501/08/16 09:05:31  5-MIN KAAT 081705Z AUTO 00000KT 10SM OVC049 M03/M03 A3004 4270 100 3100 000/00 RMK AO2 T10331033
94299KAAT AAT20160108091011301/08/16 09:10:31  5-MIN KAAT 081710Z AUTO 00000KT 9SM OVC049 M03/M03 A3004 4270 96 3200 000/00 RMK AO2 T10281033
94299KAAT AAT20160108091511301/08/16 09:15:31  5-MIN KAAT 081715Z AUTO 00000KT 8SM OVC049 M02/M03 A3004 4270 96 3200 000/00 RMK AO2 T10221028
94299KAAT AAT20160108092011301/08/16 09:20:31  5-MIN KAAT 081720Z AUTO 00000KT 8SM OVC049 M02/M03 A3004 4270 96 3200 000/00 RMK AO2 T10221028
94299KAAT AAT20160108092511401/08/16 09:25:31  5-MIN KAAT 081725Z AUTO 00000KT 10SM OVC049 M02/M03 A3005 4260 92 3300 000/00 RMK AO2 T10171028
94299KAAT AAT20160108093011401/08/16 09:30:31  5-MIN KAAT 081730Z AUTO 00000KT 10SM BKN049 M02/M03 A3005 4260 92 3300 000/00 RMK AO2 T10171028
94299KAAT AAT20160108093511401/08/16 09:35:31  5-MIN KAAT 081735Z AUTO 00000KT 10SM BKN049 M02/M03 A3005 4260 92 3300 000/00 RMK AO2 T10171028
94299KAAT AAT20160108094011401/08/16 09:40:31  5-MIN KAAT 081740Z AUTO 00000KT 10SM SCT049 M02/M03 A3005 4260 92 3300 000/00 RMK AO2 T10171028
94299KAAT AAT20160108094511401/08/16 09:45:31  5-MIN KAAT 081745Z AUTO 00000KT 10SM FEW049 M02/M03 A3005 4260 92 3300 000/00 RMK AO2 T10171028
94299KAAT AAT20160108095013301/08/16 09:50:31  5-MIN KAAT 081750Z AUTO 00000KT 10SM FEW049 M01/M03 A3005 4260 88 3400 000/00 RMK AO2 SLP195 T10111028 11011 21061
94299KAAT AAT20160108095513001/08/16 09:55:31  5-MIN KAAT 081755Z AUTO 00000KT 10SM CLR M01/M03 A3005 4260 85 3400 000/00 RMK AO2 SLP194 T10061028 11006 21061
94299KAAT AAT20160108100011101/08/16 10:00:31  5-MIN KAAT 081800Z AUTO 00000KT 10SM CLR M01/M03 A3005 4260 85 3400 000/00 RMK AO2 T10061028
94299KAAT AAT20160108100511001/08/16 10:05:31  5-MIN KAAT 081805Z AUTO 00000KT 10SM CLR 00/M02 A3005 4260 85 3500 000/00 RMK AO2 T00001022
94299KAAT AAT20160108101011001/08/16 10:10:31  5-MIN KAAT 081810Z AUTO 00000KT 10SM CLR 01/M03 A3005 4260 78 3600 000/00 RMK AO2 T00061028
94299KAAT AAT20160108101511001/08/16 10:15:31  5-MIN KAAT 081815Z AUTO 19003KT 10SM CLR 01/M03 A3005 4260 78 3600 170/03 RMK AO2 T00061028
94299KAAT AAT20160108102011001/08/16 10:20:31  5-MIN KAAT 081820Z AUTO 00000KT 10SM CLR 00/M03 A3005 4260 81 3500 000/00 RMK AO2 T00001028
94299KAAT AAT20160108102511001/08/16 10:25:31  5-MIN KAAT 081825Z AUTO 19003KT 10SM CLR 01/M03 A3005 4260 78 3600 180/03 RMK AO2 T00061028
94299KAAT AAT20160108103011001/08/16 10:30:31  5-MIN KAAT 081830Z AUTO 18003KT 10SM CLR 01/M03 A3005 4260 78 3600 170/03 RMK AO2 T00061028
94299KAAT AAT20160108103511001/08/16 10:35:31  5-MIN KAAT 081835Z AUTO 18003KT 10SM CLR 01/M03 A3005 4260 78 3600 170/03 RMK AO2 T00061028
94299KAAT AAT20160108104011001/08/16 10:40:31  5-MIN KAAT 081840Z AUTO 19003KT 10SM CLR 01/M03 A3005 4260 75 3600 170/03 RMK AO2 T00061033
94299KAAT AAT20160108104511001/08/16 10:45:31  5-MIN KAAT 081845Z AUTO 18003KT 10SM CLR 01/M04 A3005 4260 72 3600 170/03 RMK AO2 T00061039
94299KAAT AAT20160108105011701/08/16 10:50:31  5-MIN KAAT 081850Z AUTO 00000KT 10SM CLR 01/M04 A3005 4260 69 3600 000/00 RMK AO2 SLP193 T00111039
94299KAAT AAT20160108105511701/08/16 10:55:31  5-MIN KAAT 081855Z AUTO 15003KT 10SM CLR 01/M04 A3005 4260 66 3600 140/03 RMK AO2 SLP193 T00111044
94299KAAT AAT20160108110011001/08/16 11:00:31  5-MIN KAAT 081900Z AUTO 00000KT 10SM CLR 01/M05 A3005 4260 64 3600 000/00 RMK AO2 T00111050
94299KAAT AAT20160108110511001/08/16 11:05:31  5-MIN KAAT 081905Z AUTO 00000KT 10SM CLR 02/M04 A3005 4260 64 3700 000/00 RMK AO2 T00171044
94299KAAT AAT20160108111011001/08/16 11:10:31  5-MIN KAAT 081910Z AUTO 00000KT 10SM CLR 02/M04 A3005 4260 64 3700 000/00 RMK AO2 T00171044
94299KAAT AAT20160108111511001/08/16 11:15:31  5-MIN KAAT 081915Z AUTO 00000KT 10SM CLR 02/M05 A3005 4260 61 3700 000/00 RMK AO2 T00171050
94299KAAT AAT20160108112011001/08/16 11:20:31  5-MIN KAAT 081920Z AUTO 00000KT 10SM CLR 02/M06 A3005 4260 59 3700 000/00 RMK AO2 T00171056
94299KAAT AAT20160108112511001/08/16 11:25:31  5-MIN KAAT 081925Z AUTO 00000KT 10SM CLR 02/M05 A3005 4260 59 3800 000/00 RMK AO2 T00221050
94299KAAT AAT20160108113011001/08/16 11:30:31  5-MIN KAAT 081930Z AUTO 19003KT 10SM CLR 02/M05 A3005 4260 61 3700 170/03 RMK AO2 T00171050
94299KAAT AAT20160108113511001/08/16 11:35:31  5-MIN KAAT 081935Z AUTO 18003KT 10SM CLR 02/M05 A3005 4270 59 3800 170/03 RMK AO2 T00221050
94299KAAT AAT20160108114011001/08/16 11:40:31  5-MIN KAAT 081940Z AUTO 00000KT 10SM CLR 02/M05 A3004 4270 59 3800 000/00 RMK AO2 T00221050
94299KAAT AAT20160108114511001/08/16 11:45:31  5-MIN KAAT 081945Z AUTO 16003KT 10SM CLR 02/M05 A3004 4270 59 3800 150/03 RMK AO2 T00221050
94299KAAT AAT20160108115011701/08/16 11:50:31  5-MIN KAAT 081950Z AUTO 00000KT 10SM CLR 02/M06 A3004 4270 56 3800 000/00 RMK AO2 SLP187 T00221056
94299KAAT AAT20160108115511701/08/16 11:55:31  5-MIN KAAT 081955Z AUTO 00000KT 10SM CLR 02/M06 A3004 4270 56 3800 000/00 RMK AO2 SLP186 T00221056
94299KAAT AAT20160108120011001/08/16 12:00:31  5-MIN KAAT 082000Z AUTO 00000KT 10SM CLR 03/M06 A3004 4270 54 3900 000/00 RMK AO2 T00281056
94299KAAT AAT20160108120511001/08/16 12:05:31  5-MIN KAAT 082005Z AUTO 00000KT 10SM CLR 03/M06 A3004 4280 54 3900 000/00 RMK AO2 T00281056
94299KAAT AAT20160108121011001/08/16 12:10:31  5-MIN KAAT 082010Z AUTO 00000KT 10SM CLR 03/M06 A3003 4280 54 3900 000/00 RMK AO2 T00281056
94299KAAT AAT20160108121511001/08/16 12:15:31  5-MIN KAAT 082015Z AUTO 11003KT 10SM CLR 03/M06 A3003 4280 54 3900 090/03 RMK AO2 T00281056
94299KAAT AAT20160108122011001/08/16 12:20:31  5-MIN KAAT 082020Z AUTO 00000KT 10SM CLR 03/M06 A3003 4280 52 3900 000/00 RMK AO2 T00331056
94299KAAT AAT20160108122511001/08/16 12:25:31  5-MIN KAAT 082025Z AUTO VRB03KT 10SM CLR 03/M06 A3003 4280 52 3900 VRB/03 RMK AO2 T00331056
94299KAAT AAT20160108123011001/08/16 12:30:31  5-MIN KAAT 082030Z AUTO 00000KT 10SM CLR 03/M06 A3003 4280 52 3900 000/00 RMK AO2 T00331056
94299KAAT AAT20160108123511001/08/16 12:35:31  5-MIN KAAT 082035Z AUTO 09004KT 10SM CLR 03/M06 A3003 4280 52 3900 080/04 RMK AO2 T00331056
94299KAAT AAT20160108124011001/08/16 12:40:31  5-MIN KAAT 082040Z AUTO 09004KT 10SM CLR 04/M06 A3002 4280 50 4000 070/04 RMK AO2 T00391056
94299KAAT AAT20160108124511001/08/16 12:45:31  5-MIN KAAT 082045Z AUTO 09004KT 10SM CLR 04/M06 A3002 4290 50 4000 070/04 RMK AO2 T00391056
94299KAAT AAT20160108125011701/08/16 12:50:31  5-MIN KAAT 082050Z AUTO VRB03KT 10SM CLR 04/M06 A3002 4290 48 4000 VRB/03 RMK AO2 SLP178 T00391061
94299KAAT AAT20160108125512301/08/16 12:55:31  5-MIN KAAT 082055Z AUTO 08004KT 10SM CLR 04/M06 A3002 4290 48 4000 060/04 RMK AO2 SLP177 T00391061 58009
94299KAAT AAT20160108130011001/08/16 13:00:31  5-MIN KAAT 082100Z AUTO 11004KT 10SM CLR 03/M07 A3002 4290 48 3900 100/04 RMK AO2 T00331067
94299KAAT AAT20160108130511001/08/16 13:05:31  5-MIN KAAT 082105Z AUTO VRB04KT 10SM CLR 03/M07 A3002 4290 48 4000 VRB/04 RMK AO2 T00331067
94299KAAT AAT20160108131011001/08/16 13:10:31  5-MIN KAAT 082110Z AUTO 09004KT 10SM CLR 04/M07 A3002 4290 46 4000 070/04 RMK AO2 T00391067
94299KAAT AAT20160108131511001/08/16 13:15:31  5-MIN KAAT 082115Z AUTO 08003KT 10SM CLR 04/M06 A3002 4290 48 4000 060/03 RMK AO2 T00391061
94299KAAT AAT20160108132011001/08/16 13:20:31  5-MIN KAAT 082120Z AUTO 00000KT 10SM CLR 04/M06 A3002 4290 46 4100 000/00 RMK AO2 T00441061
94299KAAT AAT20160108132511001/08/16 13:25:31  5-MIN KAAT 082125Z AUTO 12004KT 10SM CLR 04/M07 A3002 4290 46 4000 100/04 RMK AO2 T00391067
94299KAAT AAT20160108133011001/08/16 13:30:31  5-MIN KAAT 082130Z AUTO 11004KT 10SM CLR 04/M07 A3002 4290 46 4000 090/04 RMK AO2 T00391067
94299KAAT AAT20160108133511001/08/16 13:35:31  5-MIN KAAT 082135Z AUTO 13003KT 10SM CLR 04/M07 A3002 4290 46 4000 120/03 RMK AO2 T00391067
94299KAAT AAT20160108134011001/08/16 13:40:31  5-MIN KAAT 082140Z AUTO VRB03KT 10SM CLR 04/M07 A3002 4290 46 4000 VRB/03 RMK AO2 T00391067
94299KAAT AAT20160108134511001/08/16 13:45:31  5-MIN KAAT 082145Z AUTO 11005KT 10SM CLR 04/M07 A3002 4290 46 4000 100/05 RMK AO2 T00391067
94299KAAT AAT20160108135011701/08/16 13:50:31  5-MIN KAAT 082150Z AUTO 13003KT 10SM CLR 04/M06 A3002 4290 48 4000 110/03 RMK AO2 SLP175 T00391061
94299KAAT AAT20160108135511701/08/16 13:55:31  5-MIN KAAT 082155Z AUTO 15004KT 10SM CLR 04/M06 A3001 4290 48 4000 140/04 RMK AO2 SLP175 T00391061
94299KAAT AAT20160108140011001/08/16 14:00:31  5-MIN KAAT 082200Z AUTO 17006KT 10SM CLR 04/M06 A3001 4300 48 4000 150/06 RMK AO2 T00391061
94299KAAT AAT20160108140511001/08/16 14:05:31  5-MIN KAAT 082205Z AUTO 17007KT 10SM CLR 04/M06 A3001 4300 48 4000 160/07 RMK AO2 T00391061
94299KAAT AAT20160108141011001/08/16 14:10:31  5-MIN KAAT 082210Z AUTO 17005KT 10SM CLR 04/M06 A3001 4300 48 4000 150/05 RMK AO2 T00391061
94299KAAT AAT20160108141511001/08/16 14:15:31  5-MIN KAAT 082215Z AUTO 16009KT 10SM CLR 04/M06 A3001 4300 48 4000 150/09 RMK AO2 T00391061
94299KAAT AAT20160108142011001/08/16 14:20:31  5-MIN KAAT 082220Z AUTO 17009KT 10SM CLR 04/M06 A3001 4300 48 4000 160/09 RMK AO2 T00391061
94299KAAT AAT20160108142511001/08/16 14:25:31  5-MIN KAAT 082225Z AUTO 17007KT 10SM CLR 03/M06 A3001 4300 50 4000 160/07 RMK AO2 T00331061
94299KAAT AAT20160108143011001/08/16 14:30:31  5-MIN KAAT 082230Z AUTO 16007KT 10SM CLR 04/M06 A3001 4300 48 4000 150/07 RMK AO2 T00391061
94299KAAT AAT20160108143511001/08/16 14:35:31  5-MIN KAAT 082235Z AUTO 16006KT 10SM CLR 04/M06 A3001 4300 50 4000 150/06 RMK AO2 T00391056
94299KAAT AAT20160108144011001/08/16 14:40:31  5-MIN KAAT 082240Z AUTO 16007KT 10SM CLR 03/M06 A3000 4300 50 4000 150/07 RMK AO2 T00331061
94299KAAT AAT20160108144511001/08/16 14:45:31  5-MIN KAAT 082245Z AUTO 16008KT 10SM CLR 03/M06 A3001 4300 50 4000 140/08 RMK AO2 T00331061
94299KAAT AAT20160108145011701/08/16 14:50:31  5-MIN KAAT 082250Z AUTO 16009KT 10SM CLR 03/M06 A3001 4300 50 4000 150/09 RMK AO2 SLP175 T00331061
94299KAAT AAT20160108145511701/08/16 14:55:31  5-MIN KAAT 082255Z AUTO 17007KT 10SM CLR 03/M06 A3000 4300 50 4000 150/07 RMK AO2 SLP174 T00331061
94299KAAT AAT20160108150011001/08/16 15:00:31  5-MIN KAAT 082300Z AUTO 17008KT 10SM CLR 03/M06 A3000 4300 52 4000 150/08 RMK AO2 T00331056
94299KAAT AAT20160108150511001/08/16 15:05:31  5-MIN KAAT 082305Z AUTO 16007KT 10SM CLR 03/M06 A3000 4300 52 4000 150/07 RMK AO2 T00331056
94299KAAT AAT20160108151011001/08/16 15:10:31  5-MIN KAAT 082310Z AUTO 16007KT 10SM CLR 03/M06 A3000 4300 52 4000 150/07 RMK AO2 T00331056
94299KAAT AAT20160108151511001/08/16 15:15:31  5-MIN KAAT 082315Z AUTO 17006KT 10SM CLR 03/M06 A3000 4300 52 4000 150/06 RMK AO2 T00331056
94299KAAT AAT20160108152011001/08/16 15:20:31  5-MIN KAAT 082320Z AUTO 17007KT 10SM CLR 03/M06 A3001 4300 52 4000 150/07 RMK AO2 T00331056
94299KAAT AAT20160108152511001/08/16 15:25:31  5-MIN KAAT 082325Z AUTO 17007KT 10SM CLR 03/M06 A3001 4300 52 4000 150/07 RMK AO2 T00331056
94299KAAT AAT20160108153011001/08/16 15:30:31  5-MIN KAAT 082330Z AUTO 17008KT 10SM CLR 03/M06 A3001 4300 52 4000 160/08 RMK AO2 T00331056
94299KAAT AAT20160108153511001/08/16 15:35:31  5-MIN KAAT 082335Z AUTO 17008KT 10SM CLR 03/M06 A3001 4300 54 3900 160/08 RMK AO2 T00281056
94299KAAT AAT20160108154011001/08/16 15:40:31  5-MIN KAAT 082340Z AUTO 17008KT 10SM CLR 03/M05 A3001 4300 56 3900 160/08 RMK AO2 T00281050
94299KAAT AAT20160108154511001/08/16 15:45:31  5-MIN KAAT 082345Z AUTO 16007KT 10SM CLR 03/M05 A3001 4290 56 3900 150/07 RMK AO2 T00281050
94299KAAT AAT20160108155013501/08/16 15:50:31  5-MIN KAAT 082350Z AUTO 16008KT 10SM CLR 03/M05 A3001 4290 56 3900 150/08 RMK AO2 SLP178 T00281050 10044 21006 58009
94299KAAT AAT20160108155513501/08/16 15:55:31  5-MIN KAAT 082355Z AUTO 16005KT 10SM CLR 02/M04 A3002 4290 61 3800 140/05 RMK AO2 SLP178 T00221044 10044 21006 55002
94299KAAT AAT20160108160011001/08/16 16:00:31  5-MIN KAAT 090000Z AUTO 16006KT 10SM CLR 02/M04 A3002 4290 61 3800 150/06 RMK AO2 T00221044
94299KAAT AAT20160108160511001/08/16 16:05:31  5-MIN KAAT 090005Z AUTO 16006KT 10SM CLR 02/M05 A3002 4290 61 3800 140/06 RMK AO2 T00171050
94299KAAT AAT20160108161011001/08/16 16:10:31  5-MIN KAAT 090010Z AUTO 16006KT 10SM CLR 01/M05 A3001 4290 64 3700 140/06 RMK AO2 T00111050
94299KAAT AAT20160108161511001/08/16 16:15:31  5-MIN KAAT 090015Z AUTO 15007KT 10SM CLR 01/M05 A3001 4290 64 3700 140/07 RMK AO2 T00111050
94299KAAT AAT20160108162011001/08/16 16:20:31  5-MIN KAAT 090020Z AUTO 15007KT 10SM CLR 01/M05 A3001 4290 64 3700 140/07 RMK AO2 T00111050
94299KAAT AAT20160108162511001/08/16 16:25:31  5-MIN KAAT 090025Z AUTO 15007KT 10SM CLR 01/M05 A3001 4290 64 3700 140/07 RMK AO2 T00111050
94299KAAT AAT20160108163011001/08/16 16:30:31  5-MIN KAAT 090030Z AUTO 15007KT 10SM CLR 01/M05 A3001 4290 66 3600 140/07 RMK AO2 T00061050
94299KAAT AAT20160108163511001/08/16 16:35:31  5-MIN KAAT 090035Z AUTO 15008KT 10SM CLR 00/M05 A3001 4290 69 3600 140/08 RMK AO2 T00001050
94299KAAT AAT20160108164011001/08/16 16:40:31  5-MIN KAAT 090040Z AUTO 15008KT 10SM CLR 00/M06 A3001 4290 66 3600 140/08 RMK AO2 T00001056
94299KAAT AAT20160108164511001/08/16 16:45:31  5-MIN KAAT 090045Z AUTO 16008KT 10SM CLR 00/M06 A3001 4300 66 3600 140/08 RMK AO2 T00001056
94299KAAT AAT20160108165011701/08/16 16:50:31  5-MIN KAAT 090050Z AUTO 16007KT 10SM CLR 00/M06 A3001 4290 66 3600 150/07 RMK AO2 SLP183 T00001056
94299KAAT AAT20160108165511801/08/16 16:55:31  5-MIN KAAT 090055Z AUTO 17005KT 10SM CLR M01/M06 A3002 4290 69 3500 150/05 RMK AO2 SLP185 T10061056
94299KAAT AAT20160108170011101/08/16 17:00:31  5-MIN KAAT 090100Z AUTO 16005KT 10SM CLR M01/M06 A3002 4290 69 3400 150/05 RMK AO2 T10111061
94299KAAT AAT20160108170511101/08/16 17:05:31  5-MIN KAAT 090105Z AUTO 17005KT 10SM CLR M02/M06 A3002 4290 72 3300 150/05 RMK AO2 T10171061
94299KAAT AAT20160108171011101/08/16 17:10:31  5-MIN KAAT 090110Z AUTO 16005KT 10SM CLR M02/M06 A3002 4290 72 3300 150/05 RMK AO2 T10171061
94299KAAT AAT20160108171511101/08/16 17:15:31  5-MIN KAAT 090115Z AUTO 16005KT 10SM CLR M02/M06 A3002 4290 72 3300 140/05 RMK AO2 T10171061
94299KAAT AAT20160108172011101/08/16 17:20:31  5-MIN KAAT 090120Z AUTO 16006KT 10SM CLR M02/M06 A3002 4290 72 3300 140/06 RMK AO2 T10171061
94299KAAT AAT20160108172511101/08/16 17:25:31  5-MIN KAAT 090125Z AUTO 15006KT 10SM CLR M02/M06 A3002 4290 75 3300 140/06 RMK AO2 T10221061
94299KAAT AAT20160108173011101/08/16 17:30:31  5-MIN KAAT 090130Z AUTO 15006KT 10SM CLR M02/M06 A3002 4290 75 3300 140/06 RMK AO2 T10221061
94299KAAT AAT20160108173511101/08/16 17:35:31  5-MIN KAAT 090135Z AUTO 15005KT 10SM CLR M02/M06 A3002 4290 75 3300 130/05 RMK AO2 T10221061
94299KAAT AAT20160108174010101/08/16 17:40:31  5-MIN KAAT 090140Z AUTO 10SM CLR M02/M06 A3002 4290 75 3300 M /M RMK AO2 T10221061
94299KAAT AAT20160108174510101/08/16 17:45:31  5-MIN KAAT 090145Z AUTO 10SM CLR M02/M06 A3002 4290 75 3300 M /M RMK AO2 T10221061
94299KAAT AAT20160108175010801/08/16 17:50:31  5-MIN KAAT 090150Z AUTO 10SM CLR M02/M06 A3002 4290 75 3300 M /M RMK AO2 SLP189 T10221061
94299KAAT AAT20160108175511801/08/16 17:55:31  5-MIN KAAT 090155Z AUTO 13005KT 10SM CLR M03/M06 A3002 4290 78 3200 120/05 RMK AO2 SLP191 T10281061
94299KAAT AAT20160108180011101/08/16 18:00:31  5-MIN KAAT 090200Z AUTO 14004KT 10SM CLR M03/M06 A3002 4290 78 3200 130/04 RMK AO2 T10281061
94299KAAT AAT20160108180511101/08/16 18:05:31  5-MIN KAAT 090205Z AUTO 15006KT 10SM CLR M03/M07 A3002 4290 78 3100 130/06 RMK AO2 T10331067
94299KAAT AAT20160108181011101/08/16 18:10:31  5-MIN KAAT 090210Z AUTO 15005KT 10SM CLR M03/M07 A3002 4290 78 3100 130/05 RMK AO2 T10331067
94299KAAT AAT20160108181511101/08/16 18:15:31  5-MIN KAAT 090215Z AUTO 16003KT 10SM CLR M03/M07 A3002 4280 75 3200 140/03 RMK AO2 T10281067
94299KAAT AAT20160108182011101/08/16 18:20:31  5-MIN KAAT 090220Z AUTO 00000KT 10SM CLR M03/M07 A3002 4290 78 3100 000/00 RMK AO2 T10331067
94299KAAT AAT20160108182511101/08/16 18:25:31  5-MIN KAAT 090225Z AUTO 00000KT 10SM CLR M04/M07 A3002 4290 81 3100 000/00 RMK AO2 T10391067
94299KAAT AAT20160108183011101/08/16 18:30:31  5-MIN KAAT 090230Z AUTO 00000KT 10SM CLR M03/M07 A3003 4280 78 3100 000/00 RMK AO2 T10331067
94299KAAT AAT20160108183511001/08/16 18:35:31  5-MIN KAAT 090235Z AUTO 00000KT 9SM CLR M04/M07 A3003 4280 78 3100 000/00 RMK AO2 T10391072
94299KAAT AAT20160108184011001/08/16 18:40:31  5-MIN KAAT 090240Z AUTO 00000KT 9SM CLR M04/M07 A3003 4280 78 3100 000/00 RMK AO2 T10391072
94299KAAT AAT20160108184511001/08/16 18:45:31  5-MIN KAAT 090245Z AUTO 00000KT 9SM CLR M04/M07 A3003 4280 78 3100 000/00 RMK AO2 T10391072
94299KAAT AAT20160108185012401/08/16 18:50:31  5-MIN KAAT 090250Z AUTO 00000KT 10SM CLR M04/M07 A3003 4280 78 3100 000/00 RMK AO2 SLP197 T10391072 55002
94299KAAT AAT20160108185512401/08/16 18:55:31  5-MIN KAAT 090255Z AUTO 00000KT 10SM CLR M04/M07 A3003 4280 78 3100 000/00 RMK AO2 SLP197 T10391072 53004
94299KAAT AAT20160108190011101/08/16 19:00:31  5-MIN KAAT 090300Z AUTO 00000KT 10SM CLR M03/M07 A3003 4280 74 3100 000/00 RMK AO2 T10331072
94299KAAT AAT20160108190511101/08/16 19:05:31  5-MIN KAAT 090305Z AUTO 00000KT 10SM CLR M03/M07 A3003 4280 74 3100 000/00 RMK AO2 T10331072
94299KAAT AAT20160108191011101/08/16 19:10:31  5-MIN KAAT 090310Z AUTO 00000KT 10SM CLR M03/M07 A3003 4280 74 3100 000/00 RMK AO2 T10331072
94299KAAT AAT20160108191511101/08/16 19:15:31  5-MIN KAAT 090315Z AUTO 19005KT 10SM CLR M03/M07 A3003 4280 74 3100 170/05 RMK AO2 T10331072
94299KAAT AAT20160108192011101/08/16 19:20:31  5-MIN KAAT 090320Z AUTO 18007KT 10SM CLR M03/M07 A3003 4280 74 3100 170/07 RMK AO2 T10331072
94299KAAT AAT20160108192511101/08/16 19:25:31  5-MIN KAAT 090325Z AUTO 18006KT 10SM CLR M03/M07 A3003 4280 71 3200 160/06 RMK AO2 T10281072
94299KAAT AAT20160108193011101/08/16 19:30:31  5-MIN KAAT 090330Z AUTO 18006KT 10SM CLR M03/M07 A3004 4270 71 3200 160/06 RMK AO2 T10281072
94299KAAT AAT20160108193511101/08/16 19:35:31  5-MIN KAAT 090335Z AUTO 16006KT 10SM CLR M03/M07 A3004 4270 71 3200 150/06 RMK AO2 T10281072
94299KAAT AAT20160108194011101/08/16 19:40:31  5-MIN KAAT 090340Z AUTO 15006KT 10SM CLR M02/M07 A3004 4280 72 3300 140/06 RMK AO2 T10221067
94299KAAT AAT20160108194511101/08/16 19:45:31  5-MIN KAAT 090345Z AUTO 15005KT 10SM CLR M02/M07 A3004 4270 72 3300 140/05 RMK AO2 T10221067
94299KAAT AAT20160108195011801/08/16 19:50:31  5-MIN KAAT 090350Z AUTO 15004KT 10SM CLR M03/M07 A3004 4270 75 3200 130/04 RMK AO2 SLP200 T10281067
94299KAAT AAT20160108195511801/08/16 19:55:31  5-MIN KAAT 090355Z AUTO 15005KT 10SM CLR M03/M07 A3004 4270 75 3200 140/05 RMK AO2 SLP201 T10281067
94299KAAT AAT20160108200011101/08/16 20:00:31  5-MIN KAAT 090400Z AUTO 15004KT 10SM CLR M03/M07 A3004 4270 75 3200 130/04 RMK AO2 T10281067
94299KAAT AAT20160108200511101/08/16 20:05:31  5-MIN KAAT 090405Z AUTO VRB03KT 10SM CLR M03/M07 A3003 4280 75 3200 VRB/03 RMK AO2 T10281067
94299KAAT AAT20160108201011101/08/16 20:10:31  5-MIN KAAT 090410Z AUTO 13003KT 10SM CLR M03/M07 A3003 4280 75 3200 120/03 RMK AO2 T10281067
94299KAAT AAT20160108201511101/08/16 20:15:31  5-MIN KAAT 090415Z AUTO 10003KT 10SM CLR M03/M07 A3003 4280 78 3100 080/03 RMK AO2 T10331067
94299KAAT AAT20160108202011101/08/16 20:20:31  5-MIN KAAT 090420Z AUTO 11004KT 10SM CLR M03/M07 A3003 4280 74 3100 090/04 RMK AO2 T10331072
94299KAAT AAT20160108202511101/08/16 20:25:31  5-MIN KAAT 090425Z AUTO 12005KT 10SM CLR M03/M07 A3003 4280 75 3200 100/05 RMK AO2 T10281067
94299KAAT AAT20160108203011101/08/16 20:30:31  5-MIN KAAT 090430Z AUTO 10004KT 10SM CLR M03/M07 A3003 4280 78 3100 090/04 RMK AO2 T10331067
94299KAAT AAT20160108203511101/08/16 20:35:31  5-MIN KAAT 090435Z AUTO 10004KT 10SM CLR M03/M07 A3003 4280 78 3100 080/04 RMK AO2 T10331067
94299KAAT AAT20160108204011101/08/16 20:40:31  5-MIN KAAT 090440Z AUTO 07003KT 10SM CLR M03/M07 A3002 4290 74 3100 060/03 RMK AO2 T10331072
94299KAAT AAT20160108204511001/08/16 20:45:31  5-MIN KAAT 090445Z AUTO 05004KT 8SM CLR M04/M07 A3002 4290 78 3100 040/04 RMK AO2 T10391072
94299KAAT AAT20160108205011701/08/16 20:50:31  5-MIN KAAT 090450Z AUTO 05005KT 8SM CLR M04/M07 A3002 4290 78 3100 040/05 RMK AO2 SLP194 T10391072
94299KAAT AAT20160108205511701/08/16 20:55:31  5-MIN KAAT 090455Z AUTO 06004KT 9SM CLR M04/M07 A3002 4290 81 3000 050/04 RMK AO2 SLP195 T10441072
94299KAAT AAT20160108210011001/08/16 21:00:31  5-MIN KAAT 090500Z AUTO 00000KT 8SM CLR M04/M07 A3002 4280 81 3000 000/00 RMK AO2 T10441072
94299KAAT AAT20160108210511001/08/16 21:05:31  5-MIN KAAT 090505Z AUTO 00000KT 8SM CLR M04/M07 A3003 4280 81 3000 000/00 RMK AO2 T10441072
94299KAAT AAT20160108211011001/08/16 21:10:31  5-MIN KAAT 090510Z AUTO 00000KT 9SM CLR M06/M08 A3002 4290 84 2900 000/00 RMK AO2 T10561078
94299KAAT AAT20160108211511101/08/16 21:15:31  5-MIN KAAT 090515Z AUTO 00000KT 10SM CLR M06/M08 A3002 4280 84 2900 000/00 RMK AO2 T10561078
94299KAAT AAT20160108212011101/08/16 21:20:31  5-MIN KAAT 090520Z AUTO 00000KT 10SM CLR M06/M08 A3002 4290 81 2900 000/00 RMK AO2 T10561083
94299KAAT AAT20160108212511101/08/16 21:25:31  5-MIN KAAT 090525Z AUTO 00000KT 10SM CLR M06/M08 A3002 4290 84 2900 000/00 RMK AO2 T10561078
94299KAAT AAT20160108213011101/08/16 21:30:31  5-MIN KAAT 090530Z AUTO 00000KT 10SM CLR M05/M07 A3002 4290 84 2900 000/00 RMK AO2 T10501072
94299KAAT AAT20160108213511101/08/16 21:35:31  5-MIN KAAT 090535Z AUTO 00000KT 10SM CLR M05/M07 A3002 4290 84 2900 000/00 RMK AO2 T10501072
94299KAAT AAT20160108214011101/08/16 21:40:31  5-MIN KAAT 090540Z AUTO 00000KT 10SM CLR M05/M07 A3002 4290 84 2900 000/00 RMK AO2 T10501072
94299KAAT AAT20160108214511001/08/16 21:45:31  5-MIN KAAT 090545Z AUTO 00000KT 9SM CLR M05/M07 A3002 4290 84 2900 000/00 RMK AO2 T10501072
94299KAAT AAT20160108215013501/08/16 21:50:31  5-MIN KAAT 090550Z AUTO 15003KT 8SM CLR M04/M07 A3002 4290 81 3000 140/03 RMK AO2 SLP189 T10441072 10022 21056 53004
94299KAAT AAT20160108215513501/08/16 21:55:31  5-MIN KAAT 090555Z AUTO 14004KT 9SM CLR M03/M07 A3002 4290 78 3100 120/04 RMK AO2 SLP186 T10331067 10022 21056 58003
94299KAAT AAT20160108220011101/08/16 22:00:31  5-MIN KAAT 090600Z AUTO 14003KT 10SM CLR M03/M07 A3002 4290 78 3100 120/03 RMK AO2 T10331067
94299KAAT AAT20160108220511101/08/16 22:05:31  5-MIN KAAT 090605Z AUTO 00000KT 10SM CLR M03/M07 A3002 4290 78 3100 000/00 RMK AO2 T10331067
94299KAAT AAT20160108221011301/08/16 22:10:31  5-MIN KAAT 090610Z AUTO 00000KT 5SM BR CLR M05/M07 A3002 4290 84 2900 000/00 RMK AO2 T10501072
94299KAAT AAT20160108221511301/08/16 22:15:31  5-MIN KAAT 090615Z AUTO 00000KT 5SM BR CLR M05/M07 A3002 4290 84 2900 000/00 RMK AO2 T10501072
94299KAAT AAT20160108222011001/08/16 22:20:31  5-MIN KAAT 090620Z AUTO 00000KT 7SM CLR M04/M07 A3002 4290 81 3000 000/00 RMK AO2 T10441072
94299KAAT AAT20160108222511001/08/16 22:25:31  5-MIN KAAT 090625Z AUTO 00000KT 8SM CLR M05/M07 A3002 4290 84 2900 000/00 RMK AO2 T10501072
94299KAAT AAT20160108223011001/08/16 22:30:31  5-MIN KAAT 090630Z AUTO 33003KT 7SM CLR M05/M08 A3002 4290 81 2900 310/03 RMK AO2 T10501078
94299KAAT AAT20160108223511001/08/16 22:35:31  5-MIN KAAT 090635Z AUTO 32003KT 8SM CLR M05/M08 A3002 4290 81 2900 310/03 RMK AO2 T10501078
94299KAAT AAT20160108224011001/08/16 22:40:31  5-MIN KAAT 090640Z AUTO 00000KT 9SM CLR M05/M07 A3002 4280 84 2900 000/00 RMK AO2 T10501072
94299KAAT AAT20160108224511101/08/16 22:45:31  5-MIN KAAT 090645Z AUTO 00000KT 10SM CLR M04/M07 A3003 4280 81 3000 000/00 RMK AO2 T10441072
94299KAAT AAT20160108225011801/08/16 22:50:31  5-MIN KAAT 090650Z AUTO 00000KT 10SM CLR M04/M07 A3003 4280 81 3100 000/00 RMK AO2 SLP187 T10391067
94299KAAT AAT20160108225511801/08/16 22:55:31  5-MIN KAAT 090655Z AUTO 31003KT 10SM CLR M04/M07 A3003 4280 81 3000 300/03 RMK AO2 SLP189 T10441072
94299KAAT AAT20160108230011101/08/16 23:00:31  5-MIN KAAT 090700Z AUTO 32004KT 10SM CLR M04/M07 A3003 4280 81 3000 310/04 RMK AO2 T10441072
94299KAAT AAT20160108230511101/08/16 23:05:31  5-MIN KAAT 090705Z AUTO 00000KT 10SM CLR M04/M07 A3003 4280 81 3000 000/00 RMK AO2 T10441072
94299KAAT AAT20160108231011101/08/16 23:10:31  5-MIN KAAT 090710Z AUTO 00000KT 10SM CLR M04/M07 A3003 4280 81 3000 000/00 RMK AO2 T10441072
94299KAAT AAT20160108231511101/08/16 23:15:31  5-MIN KAAT 090715Z AUTO 00000KT 10SM CLR M04/M07 A3003 4280 81 3000 000/00 RMK AO2 T10441072
94299KAAT AAT20160108232011101/08/16 23:20:31  5-MIN KAAT 090720Z AUTO 00000KT 10SM CLR M04/M07 A3003 4280 78 3100 000/00 RMK AO2 T10391072
94299KAAT AAT20160108232511401/08/16 23:25:31  5-MIN KAAT 090725Z AUTO 00000KT 10SM FEW120 M04/M07 A3003 4280 81 3000 000/00 RMK AO2 T10441072
94299KAAT AAT20160108233011401/08/16 23:30:31  5-MIN KAAT 090730Z AUTO 00000KT 10SM SCT110 M03/M07 A3003 4280 78 3100 000/00 RMK AO2 T10331067
94299KAAT AAT20160108233511401/08/16 23:35:31  5-MIN KAAT 090735Z AUTO 00000KT 10SM BKN110 M04/M07 A3003 4280 81 3100 000/00 RMK AO2 T10391067
94299KAAT AAT20160108234011401/08/16 23:40:31  5-MIN KAAT 090740Z AUTO 00000KT 10SM BKN110 M03/M07 A3003 4280 78 3100 000/00 RMK AO2 T10331067
94299KAAT AAT20160108234511301/08/16 23:45:31  5-MIN KAAT 090745Z AUTO 00000KT 9SM BKN100 M04/M07 A3003 4280 81 3100 000/00 RMK AO2 T10391067
94299KAAT AAT20160108235013001/08/16 23:50:31  5-MIN KAAT 090750Z AUTO 00000KT 9SM OVC100 M03/M07 A3003 4280 78 3100 000/00 RMK AO2 SLP187 T10331067 400441061
94299KAAT AAT20160108235513101/08/16 23:55:31  5-MIN KAAT 090755Z AUTO 00000KT 10SM OVC100 M03/M07 A3003 4280 78 3100 000/00 RMK AO2 SLP187 T10331067 400441061
94299KAAT AAT20160109000011301/09/16 00:00:31  5-MIN KAAT 090800Z AUTO 00000KT 7SM OVC100 M04/M07 A3003 4280 84 3000 000/00 RMK AO2 T10441067
94299KAAT AAT20160109000511601/09/16 00:05:31  5-MIN KAAT 090805Z AUTO 00000KT 4SM HZ OVC100 M04/M07 A3003 4280 81 3100 000/00 RMK AO2 T10391067
94299KAAT AAT20160109001011601/09/16 00:10:31  5-MIN KAAT 090810Z AUTO 00000KT 5SM HZ OVC100 M03/M06 A3003 4280 78 3200 000/00 RMK AO2 T10281061
94299KAAT AAT20160109001511301/09/16 00:15:31  5-MIN KAAT 090815Z AUTO 00000KT 9SM OVC100 M03/M06 A3002 4280 78 3200 000/00 RMK AO2 T10281061
94299KAAT AAT20160109002011301/09/16 00:20:31  5-MIN KAAT 090820Z AUTO 17003KT 9SM OVC095 M02/M06 A3002 4290 75 3300 150/03 RMK AO2 T10221061
94299KAAT AAT20160109002511401/09/16 00:25:31  5-MIN KAAT 090825Z AUTO 00000KT 10SM OVC090 M02/M06 A3002 4290 75 3300 000/00 RMK AO2 T10221061
94299KAAT AAT20160109003011401/09/16 00:30:31  5-MIN KAAT 090830Z AUTO 00000KT 10SM OVC090 M02/M06 A3002 4290 78 3300 000/00 RMK AO2 T10221056
94299KAAT AAT20160109003511301/09/16 00:35:31  5-MIN KAAT 090835Z AUTO 00000KT 9SM OVC090 M02/M06 A3002 4290 78 3300 000/00 RMK AO2 T10221056
94299KAAT AAT20160109004011301/09/16 00:40:31  5-MIN KAAT 090840Z AUTO 00000KT 9SM OVC090 M03/M06 A3002 4290 81 3200 000/00 RMK AO2 T10281056
94299KAAT AAT20160109004511401/09/16 00:45:31  5-MIN KAAT 090845Z AUTO 13003KT 10SM OVC085 M02/M06 A3002 4290 75 3300 120/03 RMK AO2 T10171056
94299KAAT AAT20160109005012601/09/16 00:50:31  5-MIN KAAT 090850Z AUTO 09003KT 7SM OVC090 M02/M06 A3002 4290 78 3300 080/03 RMK AO2 SLP177 T10221056 58003
94299KAAT AAT20160109005512901/09/16 00:55:31  5-MIN KAAT 090855Z AUTO 08003KT 5SM HZ OVC085 M03/M06 A3002 4290 78 3200 070/03 RMK AO2 SLP179 T10281061 50000
94299KAAT AAT20160109010011601/09/16 01:00:31  5-MIN KAAT 090900Z AUTO 10003KT 5SM HZ OVC085 M03/M06 A3002 4290 81 3100 090/03 RMK AO2 T10331061
94299KAAT AAT20160109010511301/09/16 01:05:31  5-MIN KAAT 090905Z AUTO 00000KT 8SM OVC080 M03/M06 A3002 4290 78 3200 000/00 RMK AO2 T10281061
94299KAAT AAT20160109011011301/09/16 01:10:31  5-MIN KAAT 090910Z AUTO 06003KT 9SM OVC080 M03/M06 A3002 4290 78 3200 040/03 RMK AO2 T10281061
94299KAAT AAT20160109011511301/09/16 01:15:31  5-MIN KAAT 090915Z AUTO 06003KT 9SM OVC080 M03/M06 A3002 4290 81 3100 040/03 RMK AO2 T10331061
94299KAAT AAT20160109012011301/09/16 01:20:31  5-MIN KAAT 090920Z AUTO 05003KT 9SM OVC080 M04/M07 A3002 4290 81 3100 040/03 RMK AO2 T10391067
94299KAAT AAT20160109012511401/09/16 01:25:31  5-MIN KAAT 090925Z AUTO 00000KT 10SM OVC080 M04/M07 A3002 4290 81 3100 000/00 RMK AO2 T10391067
94299KAAT AAT20160109013011401/09/16 01:30:31  5-MIN KAAT 090930Z AUTO 06003KT 10SM OVC080 M04/M07 A3002 4290 81 3100 040/03 RMK AO2 T10391067
94299KAAT AAT20160109013511401/09/16 01:35:31  5-MIN KAAT 090935Z AUTO 06004KT 10SM OVC080 M04/M07 A3002 4290 81 3100 040/04 RMK AO2 T10391067
94299KAAT AAT20160109014011401/09/16 01:40:31  5-MIN KAAT 090940Z AUTO 07003KT 10SM OVC080 M04/M07 A3002 4290 81 3100 050/03 RMK AO2 T10391067
94299KAAT AAT20160109014511401/09/16 01:45:31  5-MIN KAAT 090945Z AUTO 07004KT 10SM OVC080 M04/M07 A3002 4290 81 3100 050/04 RMK AO2 T10391067
94299KAAT AAT20160109015012101/09/16 01:50:31  5-MIN KAAT 090950Z AUTO 07003KT 10SM OVC080 M03/M07 A3002 4290 78 3100 060/03 RMK AO2 SLP179 T10331067
94299KAAT AAT20160109015512101/09/16 01:55:31  5-MIN KAAT 090955Z AUTO 00000KT 10SM OVC080 M03/M06 A3002 4290 81 3100 000/00 RMK AO2 SLP179 T10331061
94299KAAT AAT20160109020011401/09/16 02:00:31  5-MIN KAAT 091000Z AUTO 06003KT 10SM OVC070 M03/M06 A3002 4290 81 3100 050/03 RMK AO2 T10331061
94299KAAT AAT20160109020511401/09/16 02:05:31  5-MIN KAAT 091005Z AUTO 06005KT 10SM OVC070 M03/M06 A3002 4290 81 3100 050/05 RMK AO2 T10331061
94299KAAT AAT20160109021011401/09/16 02:10:31  5-MIN KAAT 091010Z AUTO 06005KT 10SM OVC070 M03/M06 A3002 4290 81 3100 050/05 RMK AO2 T10331061
94299KAAT AAT20160109021511401/09/16 02:15:31  5-MIN KAAT 091015Z AUTO 05004KT 10SM OVC070 M03/M06 A3002 4290 81 3100 040/04 RMK AO2 T10331061
94299KAAT AAT20160109022011401/09/16 02:20:31  5-MIN KAAT 091020Z AUTO 00000KT 10SM OVC070 M03/M06 A3002 4290 81 3100 000/00 RMK AO2 T10331061
94299KAAT AAT20160109022512101/09/16 02:25:31  5-MIN KAAT 091025Z AUTO 00000KT 10SM SCT055 OVC070 M03/M06 A3002 4290 81 3100 000/00 RMK AO2 T10331061
94299KAAT AAT20160109023012101/09/16 02:30:31  5-MIN KAAT 091030Z AUTO 00000KT 10SM BKN048 OVC070 M03/M06 A3002 4280 81 3100 000/00 RMK AO2 T10331061
94299KAAT AAT20160109023512101/09/16 02:35:31  5-MIN KAAT 091035Z AUTO 09003KT 10SM BKN044 OVC070 M03/M06 A3003 4280 81 3100 070/03 RMK AO2 T10331061
94299KAAT AAT20160109024012101/09/16 02:40:31  5-MIN KAAT 091040Z AUTO 05003KT 10SM BKN042 OVC070 M03/M06 A3003 4280 81 3100 040/03 RMK AO2 T10331061
94299KAAT AAT20160109024511401/09/16 02:45:31  5-MIN KAAT 091045Z AUTO 00000KT 10SM OVC040 M03/M06 A3003 4280 78 3200 000/00 RMK AO2 T10281061
94299KAAT AAT20160109025012101/09/16 02:50:31  5-MIN KAAT 091050Z AUTO 00000KT 10SM OVC038 M03/M06 A3003 4280 81 3200 000/00 RMK AO2 SLP183 T10281056
94299KAAT AAT20160109025512101/09/16 02:55:31  5-MIN KAAT 091055Z AUTO 00000KT 10SM OVC038 M03/M06 A3003 4280 81 3200 000/00 RMK AO2 SLP183 T10281056
94299KAAT AAT20160109030013101/09/16 03:00:31  5-MIN KAAT 091100Z AUTO 00000KT 8SM -SN OVC040 M03/M06 A3003 4280 85 3100 000/00 RMK AO2 SNB1056 P0000 T10331056
94299KAAT AAT20160109030513101/09/16 03:05:31  5-MIN KAAT 091105Z AUTO 00000KT 8SM -SN OVC042 M03/M06 A3003 4280 85 3100 000/00 RMK AO2 SNB1056 P0000 T10331056
94299KAAT AAT20160109031013101/09/16 03:10:31  5-MIN KAAT 091110Z AUTO 00000KT 9SM -SN OVC044 M03/M06 A3003 4280 85 3100 000/00 RMK AO2 SNB1056 P0000 T10331056
94299KAAT AAT20160109031513001/09/16 03:15:31  5-MIN KAAT 091115Z AUTO 00000KT 9SM OVC046 M03/M06 A3003 4280 81 3200 000/00 RMK AO2 SNB1056E11 P0000 T10281056
94299KAAT AAT20160109032013401/09/16 03:20:31  5-MIN KAAT 091120Z AUTO 00000KT 4SM -SN BR OVC041 M03/M05 A3003 4280 85 3200 000/00 RMK AO2 SNB1056 P0000 T10281050
94299KAAT AAT20160109032513801/09/16 03:25:31  5-MIN KAAT 091125Z AUTO 00000KT 2 1/2SM -SN BR OVC035 M03/M05 A3003 4280 85 3200 000/00 RMK AO2 SNB1056 P0000 T10281050
94299KAAT AAT20160109033013101/09/16 03:30:31  5-MIN KAAT 091130Z AUTO 00000KT 2SM -SN OVC033 M02/M05 A3003 4280 81 3300 000/00 RMK AO2 SNB1056 P0000 T10221050
94299KAAT AAT20160109033513401/09/16 03:35:31  5-MIN KAAT 091135Z AUTO 00000KT 2SM -SN BR OVC031 M03/M04 A3003 4280 88 3200 000/00 RMK AO2 SNB1056 P0000 T10281044
94299KAAT AAT20160109034013801/09/16 03:40:31  5-MIN KAAT 091140Z AUTO 00000KT 1 3/4SM -SN BR OVC027 M03/M04 A3003 4280 88 3200 000/00 RMK AO2 SNB1056 P0000 T10281044
94299KAAT AAT20160109034513801/09/16 03:45:31  5-MIN KAAT 091145Z AUTO 00000KT 1 1/2SM -SN BR OVC025 M03/M04 A3004 4270 88 3200 000/00 RMK AO2 SNB1056 P0000 T10281044
94299KAAT AAT20160109035016901/09/16 03:50:31  5-MIN KAAT 091150Z AUTO 00000KT 1 3/4SM -SN BR OVC025 M03/M04 A3004 4270 92 3200 000/00 RMK AO2 SNB1056 SLP188 P0000 60000 T10281039 11017 21050 50000
94299KAAT AAT20160109035517501/09/16 03:55:31  5-MIN KAAT 091155Z AUTO 00000KT 1 3/4SM -SN BR OVC025 M03/M04 A3004 4270 92 3200 000/00 RMK AO2 SNB1056 SLP188 P0001 60001 70001 T10281039 11017 21050 53006
94299KAAT AAT20160109040013701/09/16 04:00:31  5-MIN KAAT 091200Z AUTO 00000KT 1 3/4SM -SN BR FEW019 OVC025 M03/M04 A3004 4270 92 3200 000/00 RMK AO2 P0000 T10281039
94299KAAT AAT20160109040514001/09/16 04:05:31  5-MIN KAAT 091205Z AUTO 00000KT 2SM -SN BR FEW017 BKN023 OVC030 M03/M04 A3004 4270 92 3200 000/00 RMK AO2 P0000 T10281039
94299KAAT AAT20160109041013701/09/16 04:10:31  5-MIN KAAT 091210Z AUTO 00000KT 1 3/4SM -SN BR SCT017 OVC023 M03/M04 A3004 4270 92 3200 000/00 RMK AO2 P0000 T10281039
94299KAAT AAT20160109041514401/09/16 04:15:31  5-MIN KAAT 091215Z AUTO 08003KT 1 1/2SM -SN BR SCT015 BKN021 OVC030 M03/M04 A3004 4270 92 3200 060/03 RMK AO2 P0000 T10281039
94299KAAT AAT20160109042014401/09/16 04:20:31  5-MIN KAAT 091220Z AUTO 07004KT 1 3/4SM -SN BR BKN015 BKN021 OVC030 M03/M04 A3004 4270 92 3200 050/04 RMK AO2 P0000 T10281039
94299KAAT AAT20160109042513301/09/16 04:25:31  5-MIN KAAT 091225Z AUTO 07003KT 2SM -SN BR SCT015 OVC027 M03/M04 A3004 4270 92 3200 060/03 RMK AO2 P0000 T10281039
94299KAAT AAT20160109043014401/09/16 04:30:31  5-MIN KAAT 091230Z AUTO 08003KT 2 1/2SM -SN BR FEW006 SCT015 OVC029 M03/M04 A3004 4270 92 3200 070/03 RMK AO2 P0000 T10281039
94299KAAT AAT20160109043514401/09/16 04:35:31  5-MIN KAAT 091235Z AUTO 00000KT 2 1/2SM -SN BR SCT006 BKN015 OVC029 M03/M04 A3004 4270 92 3200 000/00 RMK AO2 P0000 T10281039
94299KAAT AAT20160109044014001/09/16 04:40:31  5-MIN KAAT 091240Z AUTO 00000KT 2SM -SN BR SCT005 BKN015 OVC029 M03/M03 A3004 4270 96 3200 000/00 RMK AO2 P0001 T10281033
94299KAAT AAT20160109044514001/09/16 04:45:31  5-MIN KAAT 091245Z AUTO 00000KT 2SM -SN BR SCT005 BKN015 OVC027 M03/M03 A3004 4270 96 3200 000/00 RMK AO2 P0001 T10281033
94299KAAT AAT20160109045012701/09/16 04:50:31  5-MIN KAAT 091250Z AUTO 00000KT 1 1/2SM -SN BR SCT005 OVC025 M02/M03 A3004 4270 92 3200 000/00 RMK AO2 P0001
94299KAAT AAT20160109045514001/09/16 04:55:31  5-MIN KAAT 091255Z AUTO 00000KT 1SM -SN BR SCT005 OVC018 M03/M03 A3004 4270 96 3200 000/00 RMK AO2 SLP195 P0001 T10281033
94299KAAT AAT20160109050013501/09/16 05:00:31  5-MIN KAAT 091300Z AUTO 00000KT 3/4SM -SN BR SCT005 OVC013 M03/M03 A3004 4270 96 3200 000/00 RMK AO2 P0001 T10281033
94299KAAT AAT20160109050513601/09/16 05:05:31  5-MIN KAAT 091305Z AUTO 00000KT 1/2SM SN FZFG FEW005 OVC011 M02/M03 A3004 4270 92 3200 000/00 RMK AO2 P0002 T10221033
94299KAAT AAT20160109051012801/09/16 05:10:31  5-MIN KAAT 091310Z AUTO 00000KT 1/2SM SN FZFG VV010 M02/M03 A3004 4270 96 3200 000/00 RMK AO2 P0002 T10221028
94299KAAT AAT20160109051512801/09/16 05:15:31  5-MIN KAAT 091315Z AUTO 00000KT 1/2SM SN FZFG VV008 M02/M03 A3004 4270 96 3200 000/00 RMK AO2 P0003 T10221028
94299KAAT AAT20160109052012701/09/16 05:20:31  5-MIN KAAT 091320Z AUTO 00000KT 3/4SM -SN BR VV008 M02/M03 A3004 4270 96 3200 000/00 RMK AO2 P0004 T10221028
94299KAAT AAT20160109052512701/09/16 05:25:31  5-MIN KAAT 091325Z AUTO 00000KT 3/4SM -SN BR VV008 M02/M03 A3004 4270 96 3200 000/00 RMK AO2 P0005 T10221028
94299KAAT AAT20160109053012701/09/16 05:30:31  5-MIN KAAT 091330Z AUTO 00000KT 3/4SM -SN BR VV008 M02/M03 A3004 4270 96 3200 000/00 RMK AO2 P0005 T10221028
94299KAAT AAT20160109053512701/09/16 05:35:31  5-MIN KAAT 091335Z AUTO 00000KT 3/4SM -SN BR VV009 M02/M03 A3004 4270 96 3200 000/00 RMK AO2 P0006 T10221028
94299KAAT AAT20160109054012501/09/16 05:40:31  5-MIN KAAT 091340Z AUTO 00000KT 1SM -SN BR VV013 M02/M03 A3004 4270 96 3200 000/00 RMK AO2 P0006 T10221028
94299KAAT AAT20160109054513001/09/16 05:45:31  5-MIN KAAT 091345Z AUTO 00000KT 1 1/2SM -SN BR OVC018 M02/M03 A3004 4270 96 3200 000/00 RMK AO2 P0006 T10221028
94299KAAT AAT20160109055013701/09/16 05:50:31  5-MIN KAAT 091350Z AUTO 00000KT 2 1/2SM -SN BR OVC024 M02/M03 A3004 4270 96 3200 000/00 RMK AO2 SLP196 P0007 T10221028
94299KAAT AAT20160109055514001/09/16 05:55:31  5-MIN KAAT 091355Z AUTO 00000KT 3SM -SN BR FEW010 OVC026 M02/M03 A3004 4270 96 3200 000/00 RMK AO2 SLP196 P0007 T10221028
94299KAAT AAT20160109060014001/09/16 06:00:31  5-MIN KAAT 091400Z AUTO 00000KT 4SM -SN BR FEW003 SCT010 OVC028 M02/M03 A3004 4270 96 3200 000/00 RMK AO2 P0000 T10221028
94299KAAT AAT20160109060514001/09/16 06:05:31  5-MIN KAAT 091405Z AUTO 00000KT 5SM -SN BR SCT005 BKN010 OVC032 M02/M03 A3004 4270 96 3200 000/00 RMK AO2 P0000 T10221028
94299KAAT AAT20160109061013701/09/16 06:10:31  5-MIN KAAT 091410Z AUTO 00000KT 8SM -SN BKN003 BKN010 OVC036 M02/M03 A3004 4270 96 3200 000/00 RMK AO2 P0000 T10221028
94299KAAT AAT20160109061513901/09/16 06:15:31  5-MIN KAAT 091415Z AUTO 00000KT 9SM BKN003 BKN009 OVC038 M02/M03 A3004 4270 96 3200 000/00 RMK AO2 SNE11 P0000 T10221028
94299KAAT AAT20160109062013301/09/16 06:20:31  5-MIN KAAT 091420Z AUTO 00000KT 10SM BKN003 OVC009 M02/M03 A3004 4270 96 3200 000/00 RMK AO2 SNE11 P0000 T10221028
94299KAAT AAT20160109062512501/09/16 06:25:31  5-MIN KAAT 091425Z AUTO 00000KT 9SM OVC003 M02/M03 A3005 4260 96 3200 000/00 RMK AO2 SNE11 P0000 T10221028
94299KAAT AAT20160109063013501/09/16 06:30:31  5-MIN KAAT 091430Z AUTO 00000KT 6SM -SN BR OVC003 M02/M03 A3005 4260 96 3200 000/00 RMK AO2 SNE11B29 P0000 T10221028
94299KAAT AAT20160109063513501/09/16 06:35:31  5-MIN KAAT 091435Z AUTO 00000KT 3SM -SN BR OVC004 M02/M03 A3005 4260 92 3300 000/00 RMK AO2 SNE11B29 P0000 T10171028
94299KAAT AAT20160109064014201/09/16 06:40:31  5-MIN KAAT 091440Z AUTO 00000KT 2SM -SN BR BKN004 OVC023 M02/M03 A3005 4260 92 3300 000/00 RMK AO2 SNE11B29 P0000 T10171028
94299KAAT AAT20160109064514601/09/16 06:45:31  5-MIN KAAT 091445Z AUTO 00000KT 1 3/4SM -SN BR BKN004 OVC023 M02/M03 A3005 4260 92 3300 000/00 RMK AO2 SNE11B29 P0000 T10171028
94299KAAT AAT20160109065016501/09/16 06:50:31  5-MIN KAAT 091450Z AUTO 00000KT 1 1/2SM -SN BR SCT004 OVC021 M02/M03 A3005 4260 92 3300 000/00 RMK AO2 SNE11B29 SLP200 P0000 60008 T10171028 53006
94299KAAT AAT20160109065516501/09/16 06:55:31  5-MIN KAAT 091455Z AUTO 00000KT 1 1/2SM -SN BR SCT004 OVC023 M02/M02 A3005 4260 96 3300 000/00 RMK AO2 SNE11B29 SLP201 P0000 60008 T10171022 53002
94299KAAT AAT20160109070013301/09/16 07:00:31  5-MIN KAAT 091500Z AUTO 00000KT 2SM -SN BR FEW004 OVC025 M02/M02 A3005 4260 96 3300 000/00 RMK AO2 P0000 T10171022
94299KAAT AAT20160109070513001/09/16 07:05:31  5-MIN KAAT 091505Z AUTO 00000KT 2 1/2SM -SN BR OVC027 M02/M02 A3005 4260 96 3300 000/00 RMK AO2 P0001 T10171022
94299KAAT AAT20160109071013001/09/16 07:10:31  5-MIN KAAT 091510Z AUTO 00000KT 2 1/2SM -SN BR OVC027 M02/M02 A3005 4260 96 3300 000/00 RMK AO2 P0001 T10171022
94299KAAT AAT20160109071512601/09/16 07:15:31  5-MIN KAAT 091515Z AUTO 00000KT 2SM -SN BR OVC027 M02/M02 A3005 4260 96 3300 000/00 RMK AO2 P0001 T10171022
94299KAAT AAT20160109072012601/09/16 07:20:31  5-MIN KAAT 091520Z AUTO 00000KT 2SM -SN BR OVC027 M02/M02 A3005 4260 96 3300 000/00 RMK AO2 P0001 T10171022
94299KAAT AAT20160109072512601/09/16 07:25:31  5-MIN KAAT 091525Z AUTO 00000KT 2SM -SN BR OVC027 M02/M02 A3006 4260 96 3300 000/00 RMK AO2 P0001 T10171022
94299KAAT AAT20160109073012601/09/16 07:30:31  5-MIN KAAT 091530Z AUTO 00000KT 2SM -SN BR OVC027 M02/M02 A3005 4260 96 3300 000/00 RMK AO2 P0001 T10171022
94299KAAT AAT20160109073512601/09/16 07:35:31  5-MIN KAAT 091535Z AUTO 00000KT 2SM -SN BR OVC027 M02/M02 A3006 4260 96 3300 000/00 RMK AO2 P0001 T10171022
94299KAAT AAT20160109074013701/09/16 07:40:31  5-MIN KAAT 091540Z AUTO 00000KT 1 1/2SM -SN BR BKN025 OVC040 M02/M02 A3006 4260 96 3300 000/00 RMK AO2 P0001 T10171022
94299KAAT AAT20160109074513701/09/16 07:45:31  5-MIN KAAT 091545Z AUTO 00000KT 1 1/4SM -SN BR BKN025 OVC040 M02/M02 A3006 4250 96 3300 000/00 RMK AO2 P0001 T10171022
94299KAAT AAT20160109075012701/09/16 07:50:31  5-MIN KAAT 091550Z AUTO 00000KT 1 3/4SM -SN BR SCT025 OVC039 M02/M02 A3006 4250 96 3300 000/00 RMK AO2 P0001
94299KAAT AAT20160109075514001/09/16 07:55:31  5-MIN KAAT 091555Z AUTO 00000KT 3SM -SN BR SCT029 OVC039 M02/M02 A3006 4250 96 3300 000/00 RMK AO2 SLP202 P0001 T10171022
94299KAAT AAT20160109080013501/09/16 08:00:31  5-MIN KAAT 091600Z AUTO 00000KT 6SM BR FEW029 OVC039 M02/M02 A3006 4250 96 3300 000/00 RMK AO2 SNE00 P0000 T10171022
94299KAAT AAT20160109080512501/09/16 08:05:31  5-MIN KAAT 091605Z AUTO 00000KT 9SM OVC039 M02/M02 A3006 4250 96 3300 000/00 RMK AO2 SNE00 P0000 T10171022
94299KAAT AAT20160109081012601/09/16 08:10:31  5-MIN KAAT 091610Z AUTO 00000KT 10SM OVC037 M02/M02 A3006 4250 96 3300 000/00 RMK AO2 SNE00 P0000 T10171022
94299KAAT AAT20160109081512601/09/16 08:15:31  5-MIN KAAT 091615Z AUTO 00000KT 10SM OVC037 M01/M02 A3006 4250 96 3400 000/00 RMK AO2 SNE00 P0000 T10111017
94299KAAT AAT20160109082012601/09/16 08:20:31  5-MIN KAAT 091620Z AUTO 00000KT 10SM OVC039 M01/M02 A3006 4250 92 3400 000/00 RMK AO2 SNE00 P0000 T10111022
94299KAAT AAT20160109082512501/09/16 08:25:31  5-MIN KAAT 091625Z AUTO 00000KT 9SM OVC037 M01/M02 A3007 4250 92 3400 000/00 RMK AO2 SNE00 P0000 T10111022
94299KAAT AAT20160109083012501/09/16 08:30:31  5-MIN KAAT 091630Z AUTO 00000KT 9SM OVC035 M01/M02 A3007 4240 92 3400 000/00 RMK AO2 SNE00 P0000 T10111022
94299KAAT AAT20160109083512501/09/16 08:35:31  5-MIN KAAT 091635Z AUTO 00000KT 8SM OVC035 M01/M02 A3007 4240 92 3400 000/00 RMK AO2 SNE00 P0000 T10111022
94299KAAT AAT20160109084012501/09/16 08:40:31  5-MIN KAAT 091640Z AUTO 00000KT 7SM OVC035 M01/M02 A3007 4240 96 3400 000/00 RMK AO2 SNE00 P0000 T10111017
94299KAAT AAT20160109084513501/09/16 08:45:31  5-MIN KAAT 091645Z AUTO 00000KT 5SM -SN BR OVC035 M01/M02 A3007 4240 96 3400 000/00 RMK AO2 SNE00B44 P0000 T10111017
94299KAAT AAT20160109085014201/09/16 08:50:31  5-MIN KAAT 091650Z AUTO 00000KT 4SM -SN BR OVC035 M01/M02 A3007 4240 96 3400 000/00 RMK AO2 SNE00B44 SLP206 P0000 T10111017
94299KAAT AAT20160109085514901/09/16 08:55:31  5-MIN KAAT 091655Z AUTO 00000KT 6SM -SN BR BKN035 OVC045 M01/M02 A3007 4240 96 3400 000/00 RMK AO2 SNE00B44 SLP207 P0000 T10111017
94299KAAT AAT20160109090014101/09/16 09:00:31  5-MIN KAAT 091700Z AUTO 00000KT 9SM BKN033 BKN045 OVC060 M01/M02 A3007 4240 96 3400 000/00 RMK AO2 SNE1657 P0000 T10111017
94299KAAT AAT20160109090514201/09/16 09:05:31  5-MIN KAAT 091705Z AUTO 00000KT 10SM BKN033 BKN043 OVC060 M01/M02 A3007 4240 92 3400 000/00 RMK AO2 SNE1657 P0000 T10061017
94299KAAT AAT20160109091014201/09/16 09:10:31  5-MIN KAAT 091710Z AUTO 00000KT 10SM SCT033 SCT046 OVC060 M01/M02 A3007 4240 92 3400 000/00 RMK AO2 SNE1657 P0000 T10061017
94299KAAT AAT20160109091514201/09/16 09:15:31  5-MIN KAAT 091715Z AUTO 00000KT 10SM SCT033 BKN060 OVC075 M01/M02 A3007 4240 92 3400 000/00 RMK AO2 SNE1657 P0000 T10061017
94299KAAT AAT20160109092014201/09/16 09:20:31  5-MIN KAAT 091720Z AUTO 00000KT 10SM FEW033 BKN060 OVC075 M01/M02 A3007 4240 92 3400 000/00 RMK AO2 SNE1657 P0000 T10061017
94299KAAT AAT20160109092514201/09/16 09:25:31  5-MIN KAAT 091725Z AUTO 34003KT 10SM FEW031 BKN060 OVC075 M01/M02 A3007 4240 92 3400 330/03 RMK AO2 SNE1657 P0000 T10061017
94299KAAT AAT20160109093013501/09/16 09:30:31  5-MIN KAAT 091730Z AUTO 00000KT 10SM BKN055 OVC070 M01/M02 A3007 4240 92 3400 000/00 RMK AO2 SNE1657 P0000 T10061017
94299KAAT AAT20160109093514201/09/16 09:35:31  5-MIN KAAT 091735Z AUTO 00000KT 10SM SCT045 BKN060 OVC075 M01/M02 A3007 4240 92 3400 000/00 RMK AO2 SNE1657 P0000 T10061017
94299KAAT AAT20160109094014201/09/16 09:40:31  5-MIN KAAT 091740Z AUTO 00000KT 10SM FEW034 BKN043 OVC075 M01/M02 A3007 4240 92 3400 000/00 RMK AO2 SNE1657 P0000 T10061017
94299KAAT AAT20160109094515101/09/16 09:45:31  5-MIN KAAT 091745Z AUTO 00000KT 6SM -SN BR BKN038 BKN047 OVC060 M01/M02 A3008 4240 92 3400 000/00 RMK AO2 SNE1657B42 P0000 T10061017
94299KAAT AAT20160109095017401/09/16 09:50:31  5-MIN KAAT 091750Z AUTO 00000KT 4SM -SN BR BKN038 OVC049 00/M02 A3008 4230 88 3500 000/00 RMK AO2 SNE1657B42 SLP209 P0000 60009 T00001017 10000 21028 53002
94299KAAT AAT20160109095518101/09/16 09:55:31  5-MIN KAAT 091755Z AUTO 00000KT 4SM -SN BR BKN039 BKN049 OVC060 00/M01 A3008 4240 92 3500 000/00 RMK AO2 SNE1657B42 SLP207 P0000 60009 T00001011 10000 21028 51008
94299KAAT AAT20160109100013901/09/16 10:00:31  5-MIN KAAT 091800Z AUTO 00000KT 6SM -SN BR BKN039 BKN049 OVC055 01/M01 A3008 4230 89 3500 000/00 RMK AO2 P0000 T00061011
94299KAAT AAT20160109100513101/09/16 10:05:31  5-MIN KAAT 091805Z AUTO 00000KT 9SM BKN041 OVC055 00/M01 A3008 4230 92 3500 000/00 RMK AO2 SNE03 P0000 T00001011
94299KAAT AAT20160109101013901/09/16 10:10:31  5-MIN KAAT 091810Z AUTO 00000KT 10SM BKN041 BKN048 OVC060 00/M02 A3008 4230 88 3500 000/00 RMK AO2 SNE03 P0000 T00001017
94299KAAT AAT20160109101513901/09/16 10:15:31  5-MIN KAAT 091815Z AUTO 00000KT 10SM BKN041 BKN048 OVC060 01/M01 A3008 4230 89 3500 000/00 RMK AO2 SNE03 P0000 T00061011
94299KAAT AAT20160109102013801/09/16 10:20:31  5-MIN KAAT 091820Z AUTO 00000KT 9SM BKN041 BKN048 OVC060 01/M01 A3008 4230 89 3500 000/00 RMK AO2 SNE03 P0000 T00061011
94299KAAT AAT20160109102514501/09/16 10:25:31  5-MIN KAAT 091825Z AUTO 00000KT 7SM -SN FEW027 BKN038 OVC049 01/M02 A3009 4230 85 3500 000/00 RMK AO2 SNE03B22 P0000 T00061017
94299KAAT AAT20160109103014801/09/16 10:30:31  5-MIN KAAT 091830Z AUTO 00000KT 6SM -SN BR FEW024 BKN033 OVC040 01/M02 A3009 4230 85 3500 000/00 RMK AO2 SNE03B22 P0000 T00061017
94299KAAT AAT20160109103514101/09/16 10:35:31  5-MIN KAAT 091835Z AUTO 00000KT 6SM -SN BR BKN027 OVC037 01/M02 A3009 4230 85 3500 000/00 RMK AO2 SNE03B22 P0000 T00061017
94299KAAT AAT20160109104014501/09/16 10:40:31  5-MIN KAAT 091840Z AUTO 00000KT 2 1/2SM -SN BR BKN025 OVC040 01/M01 A3009 4230 89 3500 000/00 RMK AO2 SNE03B22 P0000 T00061011
94299KAAT AAT20160109104514501/09/16 10:45:31  5-MIN KAAT 091845Z AUTO 00000KT 1 1/4SM -SN BR BKN023 OVC032 01/M01 A3009 4230 89 3500 000/00 RMK AO2 SNE03B22 P0000 T00061011
94299KAAT AAT20160109105014801/09/16 10:50:31  5-MIN KAAT 091850Z AUTO 00000KT 1SM -SN BR BKN023 OVC030 01/M01 A3009 4230 89 3500 000/00 RMK AO2 SNE03B22 SLP211 P0001 T00061011
94299KAAT AAT20160109105514501/09/16 10:55:31  5-MIN KAAT 091855Z AUTO 00000KT 1 1/4SM -SN BR OVC023 01/M01 A3009 4230 92 3500 000/00 RMK AO2 SNE03B22 SLP211 P0001 T00061006
94299KAAT AAT20160109110013601/09/16 11:00:31  5-MIN KAAT 091900Z AUTO 00000KT 1 3/4SM -SN BR FEW010 OVC023 00/M01 A3009 4230 92 3500 000/00 RMK AO2 P0000 T00001011
94299KAAT AAT20160109110513901/09/16 11:05:31  5-MIN KAAT 091905Z AUTO 00000KT 1SM -SN BR SCT008 BKN019 OVC024 00/M01 A3009 4220 96 3500 000/00 RMK AO2 P0000 T00001006
94299KAAT AAT20160109111013401/09/16 11:10:31  5-MIN KAAT 091910Z AUTO 18003KT 3/4SM -SN BR SCT006 OVC019 01/M01 A3009 4230 92 3500 170/03 RMK AO2 P0000 T00061006
94299KAAT AAT20160109111514101/09/16 11:15:31  5-MIN KAAT 091915Z AUTO VRB03KT 3/4SM -SN BR BKN006 BKN010 OVC019 01/M01 A3009 4220 92 3500 VRB/03 RMK AO2 P0000 T00061006
94299KAAT AAT20160109112014001/09/16 11:20:31  5-MIN KAAT 091920Z AUTO 00000KT 3/4SM -SN BR BKN006 BKN009 OVC019 01/00 A3009 4230 96 3500 000/00 RMK AO2 P0001 T00060000
94299KAAT AAT20160109112513201/09/16 11:25:31  5-MIN KAAT 091925Z AUTO 17004KT 1/2SM SN FG BKN006 OVC011 01/00 A3009 4230 96 3500 160/04 RMK AO2 P0001 T00060000
94299KAAT AAT20160109113013201/09/16 11:30:31  5-MIN KAAT 091930Z AUTO 16005KT 1/2SM SN FG BKN005 OVC013 01/00 A3009 4230 96 3500 140/05 RMK AO2 P0001 T00060000
94299KAAT AAT20160109113513301/09/16 11:35:31  5-MIN KAAT 091935Z AUTO 16004KT 3/4SM -SN BR BKN005 OVC013 01/00 A3009 4230 96 3500 150/04 RMK AO2 P0002 T00060000
94299KAAT AAT20160109114013301/09/16 11:40:31  5-MIN KAAT 091940Z AUTO 16005KT 3/4SM -SN BR SCT005 OVC013 01/00 A3008 4230 96 3500 150/05 RMK AO2 P0002 T00060000
94299KAAT AAT20160109114514001/09/16 11:45:31  5-MIN KAAT 091945Z AUTO 16004KT 3/4SM -SN BR SCT005 BKN014 OVC025 01/00 A3008 4230 96 3500 150/04 RMK AO2 P0002 T00060000
94299KAAT AAT20160109115012901/09/16 11:50:31  5-MIN KAAT 091950Z AUTO 16004KT 1SM -SN BR SCT005 BKN014 OVC025 01/01 A3008 4230 100 3500 150/04 RMK AO2 P0002
94299KAAT AAT20160109115514901/09/16 11:55:31  5-MIN KAAT 091955Z AUTO 17003KT 1 1/4SM -SN BR BKN005 BKN014 OVC025 01/01 A3008 4230 96 3600 150/03 RMK AO2 SLP206 P0002 T00110006
94299KAAT AAT20160109120014301/09/16 12:00:31  5-MIN KAAT 092000Z AUTO 18005KT 1 1/2SM -SN BR BKN005 BKN017 OVC025 01/01 A3008 4240 100 3500 160/05 RMK AO2 P0001 T00060006
94299KAAT AAT20160109120514201/09/16 12:05:31  5-MIN KAAT 092005Z AUTO 17006KT 1 1/2SM -SN BR BKN005 BKN017 OVC025 01/00 A3008 4240 96 3500 160/06 RMK AO2 P0001 T00060000
94299KAAT AAT20160109121014301/09/16 12:10:31  5-MIN KAAT 092010Z AUTO 18005KT 1 1/2SM -SN BR BKN005 BKN021 OVC036 01/01 A3008 4240 100 3500 160/05 RMK AO2 P0001 T00060006
94299KAAT AAT20160109121513501/09/16 12:15:31  5-MIN KAAT 092015Z AUTO 17004KT 1 3/4SM -SN BR BKN005 OVC021 01/01 A3008 4230 96 3600 150/04 RMK AO2 P0001 T00110006
94299KAAT AAT20160109122013501/09/16 12:20:31  5-MIN KAAT 092020Z AUTO 17004KT 1 1/2SM -SN BR BKN005 OVC021 01/01 A3008 4230 96 3600 160/04 RMK AO2 P0001 T00110006
94299KAAT AAT20160109122513501/09/16 12:25:31  5-MIN KAAT 092025Z AUTO 17005KT 1 1/2SM -SN BR BKN005 OVC021 01/01 A3008 4240 96 3600 150/05 RMK AO2 P0001 T00110006
94299KAAT AAT20160109123013101/09/16 12:30:31  5-MIN KAAT 092030Z AUTO 16005KT 2SM -SN BR BKN005 OVC024 01/01 A3008 4240 96 3600 150/05 RMK AO2 P0001 T00110006
94299KAAT AAT20160109123513501/09/16 12:35:31  5-MIN KAAT 092035Z AUTO 17005KT 2 1/2SM -SN BR BKN007 OVC026 01/01 A3007 4240 96 3600 150/05 RMK AO2 P0001 T00110006
94299KAAT AAT20160109124013501/09/16 12:40:31  5-MIN KAAT 092040Z AUTO 17006KT 2 1/2SM -SN BR BKN007 OVC028 01/01 A3007 4240 96 3600 150/06 RMK AO2 P0001 T00110006
94299KAAT AAT20160109124513101/09/16 12:45:31  5-MIN KAAT 092045Z AUTO 17005KT 3SM -SN BR BKN006 OVC035 01/01 A3007 4240 96 3600 160/05 RMK AO2 P0001 T00110006
94299KAAT AAT20160109125012101/09/16 12:50:31  5-MIN KAAT 092050Z AUTO 16004KT 4SM -SN BR BKN006 OVC035 01/01 A3007 4240 96 3600 140/04 RMK AO2 P0001
94299KAAT AAT20160109125515001/09/16 12:55:31  5-MIN KAAT 092055Z AUTO 18005KT 4SM -SN BR BKN006 OVC037 01/00 A3007 4240 92 3600 170/05 RMK AO2 SLP201 P0001 60004 T00110000 56003
94299KAAT AAT20160109130013101/09/16 13:00:31  5-MIN KAAT 092100Z AUTO 19004KT 4SM -SN BR BKN006 OVC037 01/00 A3007 4240 92 3600 170/04 RMK AO2 P0000 T00110000
94299KAAT AAT20160109130513101/09/16 13:05:31  5-MIN KAAT 092105Z AUTO 17004KT 4SM -SN BR SCT006 OVC035 01/00 A3007 4240 92 3600 160/04 RMK AO2 P0000 T00110000
94299KAAT AAT20160109131013101/09/16 13:10:31  5-MIN KAAT 092110Z AUTO 18004KT 4SM -SN BR SCT006 OVC035 01/00 A3007 4240 92 3600 170/04 RMK AO2 P0000 T00110000
94299KAAT AAT20160109131513101/09/16 13:15:31  5-MIN KAAT 092115Z AUTO 20003KT 3SM -SN BR FEW006 OVC035 01/00 A3007 4240 92 3600 180/03 RMK AO2 P0000 T00110000
94299KAAT AAT20160109132013501/09/16 13:20:31  5-MIN KAAT 092120Z AUTO 19004KT 2 1/2SM -SN BR FEW006 OVC035 01/01 A3007 4240 96 3600 170/04 RMK AO2 P0000 T00110006
94299KAAT AAT20160109132513101/09/16 13:25:31  5-MIN KAAT 092125Z AUTO 20003KT 3SM -SN BR FEW006 OVC035 01/01 A3007 4240 96 3600 180/03 RMK AO2 P0001 T00110006
94299KAAT AAT20160109133013101/09/16 13:30:31  5-MIN KAAT 092130Z AUTO 21003KT 3SM -SN BR FEW006 OVC035 01/01 A3007 4240 96 3600 200/03 RMK AO2 P0001 T00110006
94299KAAT AAT20160109133513101/09/16 13:35:31  5-MIN KAAT 092135Z AUTO 00000KT 3SM -SN BR FEW006 OVC035 01/01 A3007 4240 96 3600 000/00 RMK AO2 P0001 T00110006
94299KAAT AAT20160109134013101/09/16 13:40:31  5-MIN KAAT 092140Z AUTO 00000KT 4SM -SN BR FEW006 OVC037 01/01 A3007 4240 96 3600 000/00 RMK AO2 P0001 T00110006
94299KAAT AAT20160109134513101/09/16 13:45:31  5-MIN KAAT 092145Z AUTO 00000KT 5SM -SN BR FEW006 OVC037 01/01 A3007 4240 96 3600 000/00 RMK AO2 P0001 T00110006
94299KAAT AAT20160109135014501/09/16 13:50:31  5-MIN KAAT 092150Z AUTO 22003KT 5SM -SN BR SCT006 SCT030 OVC037 01/01 A3007 4240 96 3600 200/03 RMK AO2 SLP202 P0001 T00110006
94299KAAT AAT20160109135514201/09/16 13:55:31  5-MIN KAAT 092155Z AUTO 00000KT 2 1/2SM -SN BR SCT006 OVC035 01/01 A3007 4240 96 3600 000/00 RMK AO2 SLP203 P0001 T00110006
94299KAAT AAT20160109140014201/09/16 14:00:31  5-MIN KAAT 092200Z AUTO 00000KT 1 3/4SM -SN BR SCT006 BKN028 OVC037 01/01 A3007 4240 96 3600 000/00 RMK AO2 P0000 T00110006
94299KAAT AAT20160109140514201/09/16 14:05:31  5-MIN KAAT 092205Z AUTO 20003KT 1 3/4SM -SN BR SCT005 BKN028 OVC037 01/01 A3007 4240 96 3600 190/03 RMK AO2 P0000 T00110006
94299KAAT AAT20160109141013801/09/16 14:10:31  5-MIN KAAT 092210Z AUTO 19003KT 2SM -SN BR SCT007 BKN026 OVC036 01/01 A3007 4240 96 3600 180/03 RMK AO2 P0000 T00110006
94299KAAT AAT20160109141513801/09/16 14:15:31  5-MIN KAAT 092215Z AUTO 20004KT 2SM -SN BR BKN005 BKN009 OVC036 01/01 A3007 4240 96 3600 190/04 RMK AO2 P0000 T00110006
94299KAAT AAT20160109142013101/09/16 14:20:31  5-MIN KAAT 092220Z AUTO 19003KT 2SM -SN BR BKN005 OVC025 01/01 A3007 4240 96 3600 180/03 RMK AO2 P0000 T00110006
94299KAAT AAT20160109142513501/09/16 14:25:31  5-MIN KAAT 092225Z AUTO 00000KT 1 1/2SM -SN BR SCT005 OVC021 01/01 A3007 4240 96 3600 000/00 RMK AO2 P0000 T00110006
94299KAAT AAT20160109143013501/09/16 14:30:31  5-MIN KAAT 092230Z AUTO 18003KT 1 1/4SM -SN BR BKN005 OVC021 01/01 A3007 4240 96 3600 170/03 RMK AO2 P0001 T00110006
94299KAAT AAT20160109143514201/09/16 14:35:31  5-MIN KAAT 092235Z AUTO 00000KT 1 1/2SM -SN BR BKN005 BKN008 OVC019 01/01 A3007 4240 96 3600 000/00 RMK AO2 P0001 T00110006
94299KAAT AAT20160109144014201/09/16 14:40:31  5-MIN KAAT 092240Z AUTO 19003KT 1 3/4SM -SN BR BKN005 BKN019 OVC034 01/01 A3007 4240 96 3600 170/03 RMK AO2 P0001 T00110006
94299KAAT AAT20160109144514201/09/16 14:45:31  5-MIN KAAT 092245Z AUTO 00000KT 1 3/4SM -SN BR BKN004 BKN021 OVC034 01/01 A3007 4240 96 3600 000/00 RMK AO2 P0001 T00110006
94299KAAT AAT20160109145014501/09/16 14:50:31  5-MIN KAAT 092250Z AUTO 00000KT 2SM -SN BR SCT004 BKN023 OVC033 01/01 A3008 4240 96 3600 000/00 RMK AO2 SLP203 P0001 T00110006
94299KAAT AAT20160109145515001/09/16 14:55:31  5-MIN KAAT 092255Z AUTO 00000KT 1 3/4SM -SN BR SCT004 BKN023 OVC033 01/01 A3008 4240 100 3500 000/00 RMK AO2 SLP205 P0001 T00060006
94299KAAT AAT20160109150014301/09/16 15:00:31  5-MIN KAAT 092300Z AUTO 00000KT 1 1/2SM -SN BR SCT004 BKN023 OVC033 01/01 A3008 4240 100 3500 000/00 RMK AO2 P0000 T00060006
94299KAAT AAT20160109150514301/09/16 15:05:31  5-MIN KAAT 092305Z AUTO 00000KT 1 1/2SM -SN BR FEW004 BKN021 OVC032 01/01 A3008 4240 100 3500 000/00 RMK AO2 P0000 T00060006
94299KAAT AAT20160109151014301/09/16 15:10:31  5-MIN KAAT 092310Z AUTO 00000KT 1 1/2SM -SN BR FEW003 BKN021 OVC030 01/01 A3008 4230 100 3500 000/00 RMK AO2 P0001 T00060006
94299KAAT AAT20160109151513601/09/16 15:15:31  5-MIN KAAT 092315Z AUTO 00000KT 1 3/4SM -SN BR SCT003 OVC021 01/01 A3008 4230 100 3500 000/00 RMK AO2 P0001 T00060006
94299KAAT AAT20160109152013601/09/16 15:20:31  5-MIN KAAT 092320Z AUTO 00000KT 1 3/4SM -SN BR SCT003 OVC022 01/01 A3008 4230 100 3500 000/00 RMK AO2 P0001 T00060006
94299KAAT AAT20160109152513601/09/16 15:25:31  5-MIN KAAT 092325Z AUTO 00000KT 1 3/4SM -SN BR FEW003 OVC022 01/01 A3008 4230 100 3500 000/00 RMK AO2 P0001 T00060006
94299KAAT AAT20160109153013601/09/16 15:30:31  5-MIN KAAT 092330Z AUTO 00000KT 1 1/2SM -SN BR SCT003 OVC020 01/01 A3008 4230 100 3500 000/00 RMK AO2 P0001 T00060006
94299KAAT AAT20160109153513301/09/16 15:35:31  5-MIN KAAT 092335Z AUTO 00000KT 3/4SM -SN BR FEW003 OVC016 01/00 A3008 4230 96 3500 000/00 RMK AO2 P0001 T00060000
94299KAAT AAT20160109154013301/09/16 15:40:31  5-MIN KAAT 092340Z AUTO 00000KT 3/4SM -SN BR FEW003 OVC016 01/00 A3008 4230 96 3500 000/00 RMK AO2 P0002 T00060000
94299KAAT AAT20160109154512301/09/16 15:45:31  5-MIN KAAT 092345Z AUTO 00000KT 1SM -SN BR VV016 01/00 A3008 4230 96 3500 000/00 RMK AO2 P0002 T00060000
94299KAAT AAT20160109155012201/09/16 15:50:31  5-MIN KAAT 092350Z AUTO 00000KT 1SM -SN BR FEW003 OVC017 01/01 A3008 4230 100 3500 000/00 RMK AO2 P0002
94299KAAT AAT20160109155516301/09/16 15:55:31  5-MIN KAAT 092355Z AUTO 00000KT 1SM -SN BR FEW003 OVC017 01/01 A3009 4230 100 3500 000/00 RMK AO2 SLP208 P0002 60008 T00060006 10011 20000 51004
94299KAAT AAT20160109160013601/09/16 16:00:31  5-MIN KAAT 100000Z AUTO 00000KT 1 1/4SM -SN BR FEW003 OVC016 01/01 A3009 4230 100 3500 000/00 RMK AO2 P0000 T00060006
94299KAAT AAT20160109160513601/09/16 16:05:31  5-MIN KAAT 100005Z AUTO 00000KT 1 1/4SM -SN BR FEW003 OVC018 01/01 A3009 4230 100 3500 000/00 RMK AO2 P0000 T00060006
94299KAAT AAT20160109161013601/09/16 16:10:31  5-MIN KAAT 100010Z AUTO 00000KT 1 1/2SM -SN BR FEW003 OVC018 01/01 A3009 4230 100 3500 000/00 RMK AO2 P0000 T00060006
94299KAAT AAT20160109161513601/09/16 16:15:31  5-MIN KAAT 100015Z AUTO 00000KT 1 1/2SM -SN BR FEW003 OVC019 01/01 A3009 4230 100 3500 000/00 RMK AO2 P0001 T00060006
94299KAAT AAT20160109162013201/09/16 16:20:31  5-MIN KAAT 100020Z AUTO 00000KT 2SM -SN BR FEW003 OVC019 01/01 A3009 4230 100 3500 000/00 RMK AO2 P0001 T00060006
94299KAAT AAT20160109162513201/09/16 16:25:31  5-MIN KAAT 100025Z AUTO 00000KT 4SM -SN BR FEW003 OVC019 01/01 A3009 4230 100 3500 000/00 RMK AO2 P0001 T00060006
94299KAAT AAT20160109163013801/09/16 16:30:31  5-MIN KAAT 100030Z AUTO 00000KT 4SM -SN BR FEW003 BKN019 OVC041 01/00 A3009 4230 96 3500 000/00 RMK AO2 P0001 T00060000
94299KAAT AAT20160109163513801/09/16 16:35:31  5-MIN KAAT 100035Z AUTO 00000KT 3SM -SN BR FEW003 BKN019 OVC047 01/00 A3009 4230 96 3500 000/00 RMK AO2 P0001 T00060000
94299KAAT AAT20160109164014201/09/16 16:40:31  5-MIN KAAT 100040Z AUTO 00000KT 2 1/2SM -SN BR FEW003 SCT019 OVC047 01/00 A3009 4230 96 3500 000/00 RMK AO2 P0001 T00060000
94299KAAT AAT20160109164513501/09/16 16:45:31  5-MIN KAAT 100045Z AUTO 00000KT 2 1/2SM -SN BR FEW019 OVC047 01/00 A3009 4230 96 3500 000/00 RMK AO2 P0001 T00060000
94299KAAT AAT20160109165014201/09/16 16:50:31  5-MIN KAAT 100050Z AUTO 00000KT 2 1/2SM -SN BR FEW019 OVC047 01/00 A3009 4230 96 3500 000/00 RMK AO2 SLP206 P0001 T00060000
94299KAAT AAT20160109165513101/09/16 16:55:31  5-MIN KAAT 100055Z AUTO 00000KT 2SM -SN BR OVC047 01/00 A3009 4230 96 3500 000/00 RMK AO2 SLP208 P0001 T00060000
94299KAAT AAT20160109170012401/09/16 17:00:31  5-MIN KAAT 100100Z AUTO 00000KT 2SM -SN BR OVC047 01/00 A3009 4230 96 3500 000/00 RMK AO2 P0000 T00060000
94299KAAT AAT20160109170512401/09/16 17:05:31  5-MIN KAAT 100105Z AUTO 00000KT 2SM -SN BR OVC045 01/00 A3009 4230 96 3500 000/00 RMK AO2 P0000 T00060000
94299KAAT AAT20160109171013101/09/16 17:10:31  5-MIN KAAT 100110Z AUTO 00000KT 2SM -SN BR BKN039 OVC050 01/00 A3009 4230 96 3500 000/00 RMK AO2 P0001 T00060000
94299KAAT AAT20160109171513501/09/16 17:15:31  5-MIN KAAT 100115Z AUTO 00000KT 1 3/4SM -SN BR BKN037 OVC050 01/00 A3009 4230 96 3500 000/00 RMK AO2 P0001 T00060000
94299KAAT AAT20160109172013501/09/16 17:20:31  5-MIN KAAT 100120Z AUTO 00000KT 1 1/4SM -SN BR BKN035 OVC049 01/00 A3009 4220 96 3500 000/00 RMK AO2 P0001 T00060000
94299KAAT AAT20160109172513101/09/16 17:25:31  5-MIN KAAT 100125Z AUTO 00000KT 1SM -SN BR BKN031 OVC039 01/00 A3009 4220 96 3500 000/00 RMK AO2 P0001 T00060000
94299KAAT AAT20160109173013501/09/16 17:30:31  5-MIN KAAT 100130Z AUTO 00000KT 1 1/4SM -SN BR BKN027 OVC039 01/00 A3009 4220 96 3500 000/00 RMK AO2 P0001 T00060000
94299KAAT AAT20160109173512401/09/16 17:35:31  5-MIN KAAT 100135Z AUTO 00000KT 1SM -SN BR OVC025 01/00 A3009 4220 96 3500 000/00 RMK AO2 P0001 T00060000
94299KAAT AAT20160109174012401/09/16 17:40:31  5-MIN KAAT 100140Z AUTO 00000KT 1SM -SN BR OVC023 01/00 A3009 4220 96 3500 000/00 RMK AO2 P0001 T00060000
94299KAAT AAT20160109174512301/09/16 17:45:31  5-MIN KAAT 100145Z AUTO 00000KT 1SM -SN BR VV019 01/00 A3010 4220 96 3500 000/00 RMK AO2 P0002 T00060000
94299KAAT AAT20160109175012201/09/16 17:50:31  5-MIN KAAT 100150Z AUTO 00000KT 1SM -SN BR FEW009 OVC017 00/00 A3009 4220 100 3500 000/00 RMK AO2 P0002
94299KAAT AAT20160109175513901/09/16 17:55:31  5-MIN KAAT 100155Z AUTO 00000KT 1SM -SN BR SCT009 OVC017 00/00 A3009 4220 100 3500 000/00 RMK AO2 SLP211 P0002 T00000000
94299KAAT AAT20160109180013401/09/16 18:00:31  5-MIN KAAT 100200Z AUTO 00000KT 3/4SM -SN BR SCT009 OVC015 00/00 A3010 4220 100 3500 000/00 RMK AO2 P0001 T00000000
94299KAAT AAT20160109180514101/09/16 18:05:31  5-MIN KAAT 100205Z AUTO 00000KT 3/4SM -SN BR SCT005 SCT010 OVC015 00/00 A3010 4220 100 3500 000/00 RMK AO2 P0001 T00000000
94299KAAT AAT20160109181014101/09/16 18:10:31  5-MIN KAAT 100210Z AUTO 00000KT 3/4SM -SN BR BKN005 BKN010 OVC013 00/00 A3010 4220 100 3500 000/00 RMK AO2 P0001 T00000000
94299KAAT AAT20160109181513401/09/16 18:15:31  5-MIN KAAT 100215Z AUTO 00000KT 3/4SM -SN BR BKN007 OVC020 00/00 A3010 4220 100 3500 000/00 RMK AO2 P0001 T00000000
94299KAAT AAT20160109182014101/09/16 18:20:31  5-MIN KAAT 100220Z AUTO 00000KT 3/4SM -SN BR SCT005 SCT010 OVC026 00/00 A3010 4220 100 3500 000/00 RMK AO2 P0001 T00000000
94299KAAT AAT20160109182513201/09/16 18:25:31  5-MIN KAAT 100225Z AUTO 00000KT 1SM -SN BR SCT005 OVC031 00/00 A3010 4220 100 3500 000/00 RMK AO2 P0001 T00000000
94299KAAT AAT20160109183013601/09/16 18:30:31  5-MIN KAAT 100230Z AUTO 00000KT 1 1/4SM -SN BR SCT005 OVC037 00/00 A3010 4220 100 3500 000/00 RMK AO2 P0001 T00000000
94299KAAT AAT20160109183513601/09/16 18:35:31  5-MIN KAAT 100235Z AUTO 00000KT 1 1/4SM -SN BR FEW005 OVC039 00/00 A3010 4220 100 3500 000/00 RMK AO2 P0001 T00000000
94299KAAT AAT20160109184012901/09/16 18:40:31  5-MIN KAAT 100240Z AUTO 00000KT 1 1/4SM -SN BR OVC041 00/00 A3010 4210 100 3500 000/00 RMK AO2 P0001 T00000000
94299KAAT AAT20160109184512901/09/16 18:45:31  5-MIN KAAT 100245Z AUTO 00000KT 1 1/2SM -SN BR OVC045 00/00 A3010 4210 100 3500 000/00 RMK AO2 P0001 T00000000
94299KAAT AAT20160109185011501/09/16 18:50:31  5-MIN KAAT 100250Z AUTO 00000KT 2SM -SN BR OVC045 00/00 A3010 4210 100 3400 000/00 RMK AO2 P0001
94299KAAT AAT20160109185514401/09/16 18:55:31  5-MIN KAAT 100255Z AUTO 06003KT 2SM -SN BR OVC045 00/00 A3011 4210 100 3400 040/03 RMK AO2 SLP213 P0001 60004 T00000000 53005
94299KAAT AAT20160109190012901/09/16 19:00:31  5-MIN KAAT 100300Z AUTO 00000KT 1 3/4SM -SN BR OVC045 00/00 A3011 4210 100 3400 000/00 RMK AO2 P0001 T00000000
94299KAAT AAT20160109190512901/09/16 19:05:31  5-MIN KAAT 100305Z AUTO 00000KT 1 3/4SM -SN BR OVC045 00/00 A3011 4210 100 3400 000/00 RMK AO2 P0001 T00000000
94299KAAT AAT20160109191012901/09/16 19:10:31  5-MIN KAAT 100310Z AUTO 00000KT 1 3/4SM -SN BR OVC045 00/00 A3011 4210 100 3400 000/00 RMK AO2 P0001 T00000000
94299KAAT AAT20160109191512901/09/16 19:15:31  5-MIN KAAT 100315Z AUTO 00000KT 1 1/2SM -SN BR OVC045 00/00 A3011 4200 100 3400 000/00 RMK AO2 P0001 T00000000
94299KAAT AAT20160109192012901/09/16 19:20:31  5-MIN KAAT 100320Z AUTO 00000KT 3/4SM -SN BR OVC043 M01/M01 A3011 4200 100 3400 000/00 RMK AO2 P0001 T10061006
94299KAAT AAT20160109192513101/09/16 19:25:31  5-MIN KAAT 100325Z AUTO 00000KT 1/2SM -SN FZFG OVC041 M01/M01 A3011 4200 100 3400 000/00 RMK AO2 P0001 T10061006
94299KAAT AAT20160109193012901/09/16 19:30:31  5-MIN KAAT 100330Z AUTO 00000KT 3/4SM -SN BR OVC041 M01/M01 A3012 4200 100 3400 000/00 RMK AO2 P0001 T10061006
94299KAAT AAT20160109193512901/09/16 19:35:31  5-MIN KAAT 100335Z AUTO 00000KT 3/4SM -SN BR OVC039 M01/M01 A3012 4200 100 3400 000/00 RMK AO2 P0001 T10061006
94299KAAT AAT20160109194013101/09/16 19:40:31  5-MIN KAAT 100340Z AUTO 00000KT 3/4SM BR OVC039 M01/M01 A3012 4200 100 3400 000/00 RMK AO2 SNE38 P0001 T10061006
94299KAAT AAT20160109194512901/09/16 19:45:31  5-MIN KAAT 100345Z AUTO 25003KT 3/4SM -SN BR OVC037 M01/M01 A3012 4200 100 3400 240/03 RMK AO2 P0001 T10061006
94299KAAT AAT20160109195013601/09/16 19:50:31  5-MIN KAAT 100350Z AUTO 23003KT 3/4SM -SN BR OVC037 M01/M01 A3012 4200 100 3400 210/03 RMK AO2 SLP220 P0001 T10061006
94299KAAT AAT20160109195513801/09/16 19:55:31  5-MIN KAAT 100355Z AUTO 20003KT 1/2SM -SN FZFG OVC037 M01/M01 A3012 4200 100 3400 190/03 RMK AO2 SLP220 P0001 T10061006
94299KAAT AAT20160109200013301/09/16 20:00:31  5-MIN KAAT 100400Z AUTO 20003KT 1/2SM FZFG OVC037 M01/M01 A3012 4200 100 3400 180/03 RMK AO2 SNE00 P0000 T10061006
94299KAAT AAT20160109200513101/09/16 20:05:31  5-MIN KAAT 100405Z AUTO 18003KT 3/4SM BR OVC041 M01/M01 A3012 4200 100 3400 170/03 RMK AO2 SNE00 P0000 T10061006
94299KAAT AAT20160109201013601/09/16 20:10:31  5-MIN KAAT 100410Z AUTO 18003KT 1SM BR FEW035 OVC043 M01/M01 A3012 4190 100 3400 170/03 RMK AO2 SNE00 P0000 T10061006
94299KAAT AAT20160109201512901/09/16 20:15:31  5-MIN KAAT 100415Z AUTO 00000KT 2SM BR OVC043 M01/M01 A3013 4190 100 3400 000/00 RMK AO2 SNE00 P0000 T10061006
94299KAAT AAT20160109202012901/09/16 20:20:31  5-MIN KAAT 100420Z AUTO 00000KT 3SM BR OVC045 M01/M01 A3013 4190 100 3400 000/00 RMK AO2 SNE00 P0000 T10061006
94299KAAT AAT20160109202512901/09/16 20:25:31  5-MIN KAAT 100425Z AUTO 00000KT 3SM BR OVC045 M01/M01 A3013 4190 100 3300 000/00 RMK AO2 SNE00 P0000 T10061006
94299KAAT AAT20160109203013601/09/16 20:30:31  5-MIN KAAT 100430Z AUTO 00000KT 3SM BR FEW037 OVC045 M01/M01 A3013 4180 100 3300 000/00 RMK AO2 SNE00 P0000 T10061006
94299KAAT AAT20160109203513601/09/16 20:35:31  5-MIN KAAT 100435Z AUTO 00000KT 2SM BR SCT037 OVC045 M01/M01 A3014 4180 100 3300 000/00 RMK AO2 SNE00 P0000 T10061006
94299KAAT AAT20160109204013601/09/16 20:40:31  5-MIN KAAT 100440Z AUTO 30003KT 1SM BR SCT036 OVC045 M01/M01 A3014 4180 100 3300 280/03 RMK AO2 SNE00 P0000 T10111011
94299KAAT AAT20160109204513601/09/16 20:45:31  5-MIN KAAT 100445Z AUTO 33003KT 1SM BR SCT036 OVC047 M01/M01 A3014 4180 100 3300 320/03 RMK AO2 SNE00 P0000 T10111011
94299KAAT AAT20160109205014601/09/16 20:50:31  5-MIN KAAT 100450Z AUTO 00000KT 1 1/2SM BR BKN034 OVC047 M01/M01 A3014 4180 96 3300 000/00 RMK AO2 SNE00 SLP224 P0000 T10061011
94299KAAT AAT20160109205514701/09/16 20:55:31  5-MIN KAAT 100455Z AUTO 00000KT 1 1/4SM BR BKN034 OVC047 M01/M01 A3014 4180 100 3300 000/00 RMK AO2 SNE00 SLP225 P0000 T10061006
94299KAAT AAT20160109210013501/09/16 21:00:31  5-MIN KAAT 100500Z AUTO 00000KT 1 1/4SM BR FEW030 SCT036 OVC047 M01/M01 A3014 4180 100 3300 000/00 RMK AO2 T10061006
94299KAAT AAT20160109210512801/09/16 21:05:31  5-MIN KAAT 100505Z AUTO 00000KT 1 1/4SM BR FEW033 OVC049 M01/M01 A3014 4180 100 3300 000/00 RMK AO2 T10061006
94299KAAT AAT20160109211013501/09/16 21:10:31  5-MIN KAAT 100510Z AUTO 00000KT 1 3/4SM BR FEW031 FEW038 OVC049 M01/M01 A3014 4180 100 3300 000/00 RMK AO2 T10061006
94299KAAT AAT20160109211512401/09/16 21:15:31  5-MIN KAAT 100515Z AUTO 00000KT 2SM BR FEW031 OVC047 M01/M01 A3014 4180 100 3300 000/00 RMK AO2 T10061006
94299KAAT AAT20160109212012801/09/16 21:20:31  5-MIN KAAT 100520Z AUTO 00000KT 1 3/4SM BR SCT034 OVC047 M01/M01 A3014 4180 100 3300 000/00 RMK AO2 T10061006
94299KAAT AAT20160109212512701/09/16 21:25:31  5-MIN KAAT 100525Z AUTO 00000KT 1 1/2SM BR FEW034 OVC047 M01/M01 A3014 4180 96 3300 000/00 RMK AO2 T10061011
94299KAAT AAT20160109213012801/09/16 21:30:31  5-MIN KAAT 100530Z AUTO 00000KT 1 1/4SM BR FEW034 OVC045 M01/M01 A3014 4180 100 3300 000/00 RMK AO2 T10061006
94299KAAT AAT20160109213512601/09/16 21:35:31  5-MIN KAAT 100535Z AUTO 00000KT 3/4SM BR FEW034 OVC045 M01/M01 A3013 4180 100 3300 000/00 RMK AO2 T10061006
94299KAAT AAT20160109214012801/09/16 21:40:31  5-MIN KAAT 100540Z AUTO 00000KT 1/2SM FZFG FEW032 OVC047 M01/M01 A3013 4180 100 3300 000/00 RMK AO2 T10061006
94299KAAT AAT20160109214512801/09/16 21:45:31  5-MIN KAAT 100545Z AUTO 00000KT 1/2SM FZFG FEW033 OVC047 M01/M01 A3013 4190 100 3300 000/00 RMK AO2 T10061006
94299KAAT AAT20160109215015201/09/16 21:50:31  5-MIN KAAT 100550Z AUTO 00000KT 1/4SM FZFG OVC047 M01/M01 A3013 4190 100 3300 000/00 RMK AO2 SLP223 60005 T10111011 10006 21011 53005
94299KAAT AAT20160109215515801/09/16 21:55:31  5-MIN KAAT 100555Z AUTO 00000KT 1/2SM FZFG FEW004 OVC047 M01/M01 A3013 4180 96 3300 000/00 RMK AO2 SLP221 60005 T10061011 10006 21011 50008
94299KAAT AAT20160109220012701/09/16 22:00:31  5-MIN KAAT 100600Z AUTO 00000KT 1/2SM FZFG SCT004 OVC047 M01/M01 A3013 4180 96 3300 000/00 RMK AO2 T10061011
94299KAAT AAT20160109220512601/09/16 22:05:31  5-MIN KAAT 100605Z AUTO 00000KT 3/4SM BR BKN005 OVC047 M01/M01 A3013 4190 100 3300 000/00 RMK AO2 T10111011
94299KAAT AAT20160109221012801/09/16 22:10:31  5-MIN KAAT 100610Z AUTO 13003KT 1/2SM FZFG BKN005 OVC047 M01/M01 A3013 4190 100 3300 110/03 RMK AO2 T10111011
94299KAAT AAT20160109221513501/09/16 22:15:31  5-MIN KAAT 100615Z AUTO 00000KT 1/2SM FZFG BKN005 BKN013 OVC047 M01/M01 A3013 4190 100 3300 000/00 RMK AO2 T10111011
94299KAAT AAT20160109222012101/09/16 22:20:31  5-MIN KAAT 100620Z AUTO 00000KT 1/2SM FZFG OVC005 M01/M01 A3013 4190 100 3300 000/00 RMK AO2 T10111011
94299KAAT AAT20160109222512001/09/16 22:25:31  5-MIN KAAT 100625Z AUTO 00000KT 1/2SM FZFG OVC004 M01/M01 A3013 4190 96 3400 000/00 RMK AO2 T10061011
94299KAAT AAT20160109223012001/09/16 22:30:31  5-MIN KAAT 100630Z AUTO 00000KT 1/2SM FZFG OVC004 M01/M01 A3013 4190 96 3400 000/00 RMK AO2 T10061011
94299KAAT AAT20160109223512001/09/16 22:35:31  5-MIN KAAT 100635Z AUTO 00000KT 1/4SM FZFG VV004 M01/M01 A3013 4190 100 3300 000/00 RMK AO2 T10061006
94299KAAT AAT20160109224012001/09/16 22:40:31  5-MIN KAAT 100640Z AUTO 00000KT 1/4SM FZFG VV003 M01/M01 A3013 4190 100 3300 000/00 RMK AO2 T10061006
94299KAAT AAT20160109224512001/09/16 22:45:31  5-MIN KAAT 100645Z AUTO 00000KT 1/4SM FZFG VV003 M01/M01 A3013 4190 100 3300 000/00 RMK AO2 T10111011
94299KAAT AAT20160109225012701/09/16 22:50:31  5-MIN KAAT 100650Z AUTO 21003KT 1/4SM FZFG VV003 M01/M01 A3013 4190 100 3300 200/03 RMK AO2 SLP221 T10111011
94299KAAT AAT20160109225512701/09/16 22:55:31  5-MIN KAAT 100655Z AUTO 22003KT 1/4SM FZFG VV003 M01/M01 A3013 4190 100 3300 200/03 RMK AO2 SLP221 T10111011
94299KAAT AAT20160109230012001/09/16 23:00:31  5-MIN KAAT 100700Z AUTO 00000KT 1/4SM FZFG VV003 M01/M01 A3013 4180 100 3300 000/00 RMK AO2 T10111011
94299KAAT AAT20160109230512001/09/16 23:05:31  5-MIN KAAT 100705Z AUTO 00000KT 1/4SM FZFG VV003 M01/M01 A3014 4180 100 3300 000/00 RMK AO2 T10111011
94299KAAT AAT20160109231012001/09/16 23:10:31  5-MIN KAAT 100710Z AUTO 00000KT 1/4SM FZFG VV003 M01/M01 A3014 4180 100 3300 000/00 RMK AO2 T10111011
94299KAAT AAT20160109231512001/09/16 23:15:31  5-MIN KAAT 100715Z AUTO 00000KT 1/4SM FZFG VV003 M01/M01 A3014 4180 100 3300 000/00 RMK AO2 T10111011
94299KAAT AAT20160109232012001/09/16 23:20:31  5-MIN KAAT 100720Z AUTO 00000KT 1/2SM FZFG VV002 M01/M01 A3014 4180 100 3300 000/00 RMK AO2 T10111011
94299KAAT AAT20160109232512001/09/16 23:25:31  5-MIN KAAT 100725Z AUTO 20003KT 1/2SM FZFG VV002 M01/M01 A3014 4180 100 3300 180/03 RMK AO2 T10061006
94299KAAT AAT20160109233012001/09/16 23:30:31  5-MIN KAAT 100730Z AUTO 00000KT 1/2SM FZFG VV003 M01/M01 A3014 4170 100 3300 000/00 RMK AO2 T10061006
94299KAAT AAT20160109233512001/09/16 23:35:31  5-MIN KAAT 100735Z AUTO 00000KT 1/2SM FZFG VV003 M01/M01 A3014 4180 100 3300 000/00 RMK AO2 T10061006
94299KAAT AAT20160109234011901/09/16 23:40:31  5-MIN KAAT 100740Z AUTO 00000KT 1/2SM FZFG VV002 M01/M01 A3014 4180 96 3300 000/00 RMK AO2 T10061011
94299KAAT AAT20160109234512001/09/16 23:45:31  5-MIN KAAT 100745Z AUTO 17003KT 1/2SM FZFG VV002 M01/M01 A3014 4170 100 3300 150/03 RMK AO2 T10111011
94299KAAT AAT20160109235013701/09/16 23:50:31  5-MIN KAAT 100750Z AUTO 17003KT 1/4SM FZFG VV002 M01/M01 A3015 4170 100 3300 160/03 RMK AO2 SLP225 T10111011 400111044
94299KAAT AAT20160109235513701/09/16 23:55:31  5-MIN KAAT 100755Z AUTO 17003KT 1/4SM FZFG VV002 M01/M01 A3015 4170 100 3300 160/03 RMK AO2 SLP225 T10111011 400111044
94299KAAT AAT20160110000012001/10/16 00:00:31  5-MIN KAAT 100800Z AUTO 18003KT 1/4SM FZFG VV002 M01/M01 A3014 4170 100 3300 160/03 RMK AO2 T10111011
94299KAAT AAT20160110000512001/10/16 00:05:31  5-MIN KAAT 100805Z AUTO 17004KT 1/4SM FZFG VV002 M01/M01 A3014 4180 100 3300 160/04 RMK AO2 T10111011
94299KAAT AAT20160110001012001/10/16 00:10:31  5-MIN KAAT 100810Z AUTO 17004KT 1/4SM FZFG VV002 M01/M01 A3014 4180 100 3300 160/04 RMK AO2 T10111011
94299KAAT AAT20160110001512001/10/16 00:15:31  5-MIN KAAT 100815Z AUTO 17003KT 1/4SM FZFG VV002 M01/M01 A3014 4180 100 3300 160/03 RMK AO2 T10111011
94299KAAT AAT20160110002012001/10/16 00:20:31  5-MIN KAAT 100820Z AUTO 16004KT 1/4SM FZFG VV002 M01/M01 A3014 4180 100 3300 150/04 RMK AO2 T10111011
94299KAAT AAT20160110002511901/10/16 00:25:31  5-MIN KAAT 100825Z AUTO 16004KT 1/4SM FZFG VV002 M01/M02 A3014 4180 96 3300 150/04 RMK AO2 T10111017
94299KAAT AAT20160110003012001/10/16 00:30:31  5-MIN KAAT 100830Z AUTO 16004KT 1/2SM FZFG VV002 M02/M02 A3014 4180 100 3200 150/04 RMK AO2 T10171017
94299KAAT AAT20160110003512001/10/16 00:35:31  5-MIN KAAT 100835Z AUTO 15004KT 1/2SM FZFG VV002 M02/M02 A3014 4180 100 3200 130/04 RMK AO2 T10171017
94299KAAT AAT20160110004012001/10/16 00:40:31  5-MIN KAAT 100840Z AUTO 13003KT 1/2SM FZFG VV003 M02/M02 A3014 4180 100 3200 120/03 RMK AO2 T10171017
94299KAAT AAT20160110004512001/10/16 00:45:31  5-MIN KAAT 100845Z AUTO 13003KT 1/4SM FZFG VV003 M02/M02 A3014 4180 100 3200 110/03 RMK AO2 T10171017
94299KAAT AAT20160110005013301/10/16 00:50:31  5-MIN KAAT 100850Z AUTO 15003KT 1/4SM FZFG VV003 M02/M02 A3014 4180 100 3200 130/03 RMK AO2 SLP224 T10171017 50008
94299KAAT AAT20160110005513301/10/16 00:55:31  5-MIN KAAT 100855Z AUTO 16003KT 1/4SM FZFG VV003 M02/M02 A3014 4170 100 3200 140/03 RMK AO2 SLP225 T10171017 52003
94299KAAT AAT20160110010012001/10/16 01:00:31  5-MIN KAAT 100900Z AUTO 00000KT 1/4SM FZFG VV002 M02/M02 A3015 4170 100 3200 000/00 RMK AO2 T10171017
94299KAAT AAT20160110010512001/10/16 01:05:31  5-MIN KAAT 100905Z AUTO 00000KT 1/4SM FZFG VV003 M02/M02 A3015 4170 100 3200 000/00 RMK AO2 T10171017
94299KAAT AAT20160110011012001/10/16 01:10:31  5-MIN KAAT 100910Z AUTO 21003KT 1/4SM FZFG VV003 M02/M02 A3015 4170 100 3200 200/03 RMK AO2 T10171017
94299KAAT AAT20160110011512001/10/16 01:15:31  5-MIN KAAT 100915Z AUTO 00000KT 1/2SM FZFG VV003 M02/M02 A3015 4170 100 3200 000/00 RMK AO2 T10171017
94299KAAT AAT20160110012012001/10/16 01:20:31  5-MIN KAAT 100920Z AUTO 20003KT 1/2SM FZFG VV003 M02/M02 A3015 4170 100 3200 190/03 RMK AO2 T10171017
94299KAAT AAT20160110012512001/10/16 01:25:31  5-MIN KAAT 100925Z AUTO 00000KT 1/2SM FZFG VV003 M02/M02 A3015 4170 100 3200 000/00 RMK AO2 T10171017
94299KAAT AAT20160110013011801/10/16 01:30:31  5-MIN KAAT 100930Z AUTO 00000KT 3/4SM BR VV003 M02/M02 A3015 4170 100 3200 000/00 RMK AO2 T10171017
94299KAAT AAT20160110013511601/10/16 01:35:31  5-MIN KAAT 100935Z AUTO 00000KT 1SM BR VV003 M02/M02 A3015 4170 100 3200 000/00 RMK AO2 T10171017
94299KAAT AAT20160110014011601/10/16 01:40:31  5-MIN KAAT 100940Z AUTO 00000KT 1SM BR VV003 M02/M02 A3015 4170 100 3200 000/00 RMK AO2 T10171017
94299KAAT AAT20160110014511601/10/16 01:45:31  5-MIN KAAT 100945Z AUTO 00000KT 1SM BR VV003 M02/M02 A3016 4160 100 3200 000/00 RMK AO2 T10171017
94299KAAT AAT20160110015012301/10/16 01:50:31  5-MIN KAAT 100950Z AUTO 00000KT 1SM BR VV003 M02/M02 A3016 4160 100 3200 000/00 RMK AO2 SLP230 T10171017
94299KAAT AAT20160110015512301/10/16 01:55:31  5-MIN KAAT 100955Z AUTO 00000KT 1SM BR VV003 M02/M02 A3016 4160 100 3200 000/00 RMK AO2 SLP230 T10171017
94299KAAT AAT20160110020011801/10/16 02:00:31  5-MIN KAAT 101000Z AUTO 00000KT 3/4SM BR VV003 M02/M02 A3016 4160 100 3200 000/00 RMK AO2 T10171017
94299KAAT AAT20160110020511801/10/16 02:05:31  5-MIN KAAT 101005Z AUTO 00000KT 3/4SM BR VV003 M02/M02 A3016 4160 100 3200 000/00 RMK AO2 T10171017
94299KAAT AAT20160110021011801/10/16 02:10:31  5-MIN KAAT 101010Z AUTO 00000KT 3/4SM BR VV003 M02/M02 A3016 4160 100 3200 000/00 RMK AO2 T10171017
94299KAAT AAT20160110021511801/10/16 02:15:31  5-MIN KAAT 101015Z AUTO 03003KT 3/4SM BR VV003 M02/M02 A3017 4160 100 3200 010/03 RMK AO2 T10171017
94299KAAT AAT20160110022011801/10/16 02:20:31  5-MIN KAAT 101020Z AUTO 00000KT 3/4SM BR VV003 M02/M02 A3017 4150 100 3200 000/00 RMK AO2 T10171017
94299KAAT AAT20160110022511801/10/16 02:25:31  5-MIN KAAT 101025Z AUTO 08003KT 3/4SM BR VV003 M02/M02 A3017 4150 100 3200 060/03 RMK AO2 T10171017
94299KAAT AAT20160110023011901/10/16 02:30:31  5-MIN KAAT 101030Z AUTO 09004KT 1/2SM FZFG VV003 M02/M02 A3017 4150 96 3200 080/04 RMK AO2 T10171022
94299KAAT AAT20160110023511901/10/16 02:35:31  5-MIN KAAT 101035Z AUTO 10003KT 1/2SM FZFG VV003 M02/M02 A3017 4150 96 3200 080/03 RMK AO2 T10171022
94299KAAT AAT20160110024011901/10/16 02:40:31  5-MIN KAAT 101040Z AUTO 11004KT 1/2SM FZFG VV003 M02/M02 A3017 4150 96 3200 100/04 RMK AO2 T10171022
94299KAAT AAT20160110024511901/10/16 02:45:31  5-MIN KAAT 101045Z AUTO 10004KT 1/2SM FZFG VV003 M02/M02 A3017 4150 96 3200 090/04 RMK AO2 T10171022
94299KAAT AAT20160110025012601/10/16 02:50:31  5-MIN KAAT 101050Z AUTO 10003KT 1/2SM FZFG VV002 M02/M02 A3017 4150 96 3200 090/03 RMK AO2 SLP235 T10171022
94299KAAT AAT20160110025512701/10/16 02:55:31  5-MIN KAAT 101055Z AUTO 09003KT 1/2SM FZFG VV002 M02/M02 A3017 4150 100 3100 070/03 RMK AO2 SLP237 T10221022
94299KAAT AAT20160110030011901/10/16 03:00:31  5-MIN KAAT 101100Z AUTO 00000KT 1/2SM FZFG VV002 M02/M02 A3017 4150 96 3200 000/00 RMK AO2 T10171022
94299KAAT AAT20160110030511701/10/16 03:05:31  5-MIN KAAT 101105Z AUTO 09003KT 3/4SM BR VV003 M02/M02 A3017 4150 96 3200 070/03 RMK AO2 T10171022
94299KAAT AAT20160110031011501/10/16 03:10:31  5-MIN KAAT 101110Z AUTO 06003KT 1SM BR VV003 M02/M02 A3017 4150 96 3200 050/03 RMK AO2 T10171022
94299KAAT AAT20160110031512001/10/16 03:15:31  5-MIN KAAT 101115Z AUTO 00000KT 1 3/4SM BR OVC003 M02/M02 A3017 4150 96 3200 000/00 RMK AO2 T10171022
94299KAAT AAT20160110032011701/10/16 03:20:31  5-MIN KAAT 101120Z AUTO 00000KT 3SM BR OVC003 M02/M02 A3017 4150 100 3100 000/00 RMK AO2 T10221022
94299KAAT AAT20160110032511701/10/16 03:25:31  5-MIN KAAT 101125Z AUTO 00000KT 3SM BR OVC003 M02/M02 A3017 4150 100 3100 000/00 RMK AO2 T10221022
94299KAAT AAT20160110033011601/10/16 03:30:31  5-MIN KAAT 101130Z AUTO 00000KT 2SM BR OVC003 M02/M02 A3017 4150 96 3200 000/00 RMK AO2 T10171022
94299KAAT AAT20160110033512101/10/16 03:35:31  5-MIN KAAT 101135Z AUTO 00000KT 2 1/2SM BR OVC002 M02/M02 A3017 4150 100 3100 000/00 RMK AO2 T10221022
94299KAAT AAT20160110034011701/10/16 03:40:31  5-MIN KAAT 101140Z AUTO 00000KT 3SM BR OVC002 M02/M02 A3017 4150 100 3100 000/00 RMK AO2 T10221022
94299KAAT AAT20160110034511701/10/16 03:45:31  5-MIN KAAT 101145Z AUTO 09003KT 3SM BR OVC003 M02/M02 A3017 4150 100 3100 080/03 RMK AO2 T10221022
94299KAAT AAT20160110035014801/10/16 03:50:31  5-MIN KAAT 101150Z AUTO 09004KT 4SM BR OVC003 M02/M02 A3017 4150 100 3100 080/04 RMK AO2 SLP235 70022 T10221022 11006 21022 52003
94299KAAT AAT20160110035514501/10/16 03:55:31  5-MIN KAAT 101155Z AUTO 00000KT 7SM OVC003 M02/M02 A3017 4150 100 3100 000/00 RMK AO2 SLP235 70022 T10221022 11006 21022 50007
94299KAAT AAT20160110040011401/10/16 04:00:31  5-MIN KAAT 101200Z AUTO 08003KT 7SM OVC003 M02/M02 A3017 4150 100 3100 070/03 RMK AO2 T10221022
94299KAAT AAT20160110040511701/10/16 04:05:31  5-MIN KAAT 101205Z AUTO 00000KT 5SM BR OVC003 M02/M02 A3017 4150 100 3100 000/00 RMK AO2 T10221022
94299KAAT AAT20160110041011701/10/16 04:10:31  5-MIN KAAT 101210Z AUTO 09003KT 5SM BR OVC003 M02/M02 A3017 4150 100 3100 070/03 RMK AO2 T10221022
94299KAAT AAT20160110041511601/10/16 04:15:31  5-MIN KAAT 101215Z AUTO 06003KT 6SM BR OVC003 M02/M03 A3017 4150 96 3100 040/03 RMK AO2 T10221028
94299KAAT AAT20160110042011301/10/16 04:20:31  5-MIN KAAT 101220Z AUTO 06004KT 7SM OVC003 M02/M03 A3017 4150 96 3100 040/04 RMK AO2 T10221028
94299KAAT AAT20160110042511301/10/16 04:25:31  5-MIN KAAT 101225Z AUTO 00000KT 8SM OVC003 M02/M03 A3017 4150 96 3100 000/00 RMK AO2 T10221028
94299KAAT AAT20160110043011301/10/16 04:30:31  5-MIN KAAT 101230Z AUTO 00000KT 9SM OVC003 M02/M03 A3017 4150 96 3100 000/00 RMK AO2 T10221028
94299KAAT AAT20160110043511401/10/16 04:35:31  5-MIN KAAT 101235Z AUTO 15003KT 8SM OVC003 M03/M03 A3017 4150 100 3000 140/03 RMK AO2 T10281028
94299KAAT AAT20160110044011401/10/16 04:40:31  5-MIN KAAT 101240Z AUTO 10003KT 8SM OVC003 M03/M03 A3017 4150 100 3000 090/03 RMK AO2 T10281028
94299KAAT AAT20160110044511401/10/16 04:45:31  5-MIN KAAT 101245Z AUTO 12003KT 7SM OVC003 M03/M03 A3017 4150 100 3000 100/03 RMK AO2 T10281028
94299KAAT AAT20160110045012301/10/16 04:50:31  5-MIN KAAT 101250Z AUTO 00000KT 5SM BR OVC003 M03/M03 A3017 4150 96 3000 000/00 RMK AO2 SLP239 T10281033
94299KAAT AAT20160110045512401/10/16 04:55:31  5-MIN KAAT 101255Z AUTO 00000KT 5SM BR OVC003 M03/M03 A3018 4150 100 3000 000/00 RMK AO2 SLP239 T10281028
94299KAAT AAT20160110050011601/10/16 05:00:31  5-MIN KAAT 101300Z AUTO 07004KT 5SM BR OVC003 M03/M03 A3017 4150 96 3000 050/04 RMK AO2 T10281033
94299KAAT AAT20160110050511601/10/16 05:05:31  5-MIN KAAT 101305Z AUTO 10003KT 5SM BR OVC003 M03/M03 A3017 4150 96 3000 090/03 RMK AO2 T10281033
94299KAAT AAT20160110051011601/10/16 05:10:31  5-MIN KAAT 101310Z AUTO 00000KT 4SM BR OVC003 M03/M03 A3018 4150 96 3000 000/00 RMK AO2 T10281033
94299KAAT AAT20160110051511701/10/16 05:15:31  5-MIN KAAT 101315Z AUTO 07003KT 3SM BR OVC003 M03/M03 A3018 4150 100 3000 060/03 RMK AO2 T10331033
94299KAAT AAT20160110052012001/10/16 05:20:31  5-MIN KAAT 101320Z AUTO 00000KT 2 1/2SM BR OVC003 M03/M03 A3018 4150 96 3000 000/00 RMK AO2 T10281033
94299KAAT AAT20160110052511601/10/16 05:25:31  5-MIN KAAT 101325Z AUTO 08003KT 2SM BR OVC002 M03/M03 A3018 4140 96 3000 060/03 RMK AO2 T10281033
94299KAAT AAT20160110053012001/10/16 05:30:31  5-MIN KAAT 101330Z AUTO 00000KT 1 1/4SM BR OVC002 M03/M03 A3018 4150 96 3000 000/00 RMK AO2 T10281033
94299KAAT AAT20160110053511601/10/16 05:35:31  5-MIN KAAT 101335Z AUTO 06003KT 1SM BR OVC002 M03/M03 A3018 4150 96 3000 050/03 RMK AO2 T10281033
94299KAAT AAT20160110054012001/10/16 05:40:31  5-MIN KAAT 101340Z AUTO 00000KT 1 1/2SM BR OVC002 M03/M03 A3018 4150 96 3000 000/00 RMK AO2 T10281033
94299KAAT AAT20160110054512001/10/16 05:45:31  5-MIN KAAT 101345Z AUTO 00000KT 2 1/2SM BR OVC002 M03/M03 A3018 4140 96 3000 000/00 RMK AO2 T10281033
94299KAAT AAT20160110055012701/10/16 05:50:31  5-MIN KAAT 101350Z AUTO 00000KT 1 3/4SM BR OVC002 M03/M03 A3018 4140 96 3000 000/00 RMK AO2 SLP241 T10281033
94299KAAT AAT20160110055512701/10/16 05:55:31  5-MIN KAAT 101355Z AUTO 00000KT 1 1/2SM BR OVC002 M03/M03 A3018 4140 96 3000 000/00 RMK AO2 SLP243 T10281033
94299KAAT AAT20160110060012001/10/16 06:00:31  5-MIN KAAT 101400Z AUTO 08003KT 1 3/4SM BR OVC002 M03/M03 A3019 4140 96 3000 060/03 RMK AO2 T10281033
94299KAAT AAT20160110060512001/10/16 06:05:31  5-MIN KAAT 101405Z AUTO 00000KT 1 1/2SM BR OVC002 M03/M03 A3019 4130 96 3000 000/00 RMK AO2 T10281033
94299KAAT AAT20160110061012001/10/16 06:10:31  5-MIN KAAT 101410Z AUTO 00000KT 1 1/2SM BR OVC002 M03/M03 A3019 4130 96 3000 000/00 RMK AO2 T10281033
94299KAAT AAT20160110061512101/10/16 06:15:31  5-MIN KAAT 101415Z AUTO 07003KT 1 1/2SM BR OVC002 M03/M03 A3019 4130 100 2900 050/03 RMK AO2 T10331033
94299KAAT AAT20160110062012101/10/16 06:20:31  5-MIN KAAT 101420Z AUTO 07003KT 1 1/4SM BR OVC002 M03/M03 A3019 4130 100 2900 050/03 RMK AO2 T10331033
94299KAAT AAT20160110062512101/10/16 06:25:31  5-MIN KAAT 101425Z AUTO 04003KT 1 1/4SM BR OVC002 M03/M03 A3019 4130 100 2900 020/03 RMK AO2 T10331033
94299KAAT AAT20160110063012101/10/16 06:30:31  5-MIN KAAT 101430Z AUTO 07003KT 1 1/2SM BR OVC002 M03/M03 A3019 4130 100 2900 060/03 RMK AO2 T10331033
94299KAAT AAT20160110063512001/10/16 06:35:31  5-MIN KAAT 101435Z AUTO 00000KT 2 1/2SM BR OVC002 M03/M04 A3019 4130 96 2900 000/00 RMK AO2 T10331039
94299KAAT AAT20160110064011701/10/16 06:40:31  5-MIN KAAT 101440Z AUTO 00000KT 4SM BR OVC002 M03/M03 A3019 4130 100 2900 000/00 RMK AO2 T10331033
94299KAAT AAT20160110064511701/10/16 06:45:31  5-MIN KAAT 101445Z AUTO 00000KT 3SM BR OVC003 M03/M03 A3019 4130 100 2900 000/00 RMK AO2 T10331033
94299KAAT AAT20160110065013001/10/16 06:50:31  5-MIN KAAT 101450Z AUTO 00000KT 3SM BR OVC003 M03/M03 A3020 4130 100 2900 000/00 RMK AO2 SLP248 T10331033 50007
94299KAAT AAT20160110065513001/10/16 06:55:31  5-MIN KAAT 101455Z AUTO 00000KT 4SM BR OVC003 M03/M03 A3020 4130 100 2900 000/00 RMK AO2 SLP249 T10331033 53009
94299KAAT AAT20160110070012001/10/16 07:00:31  5-MIN KAAT 101500Z AUTO 14004KT 1 1/2SM BR OVC003 M03/M04 A3020 4130 96 2900 130/04 RMK AO2 T10331039
94299KAAT AAT20160110070511601/10/16 07:05:31  5-MIN KAAT 101505Z AUTO 13004KT 1SM BR OVC003 M03/M04 A3020 4130 96 2900 110/04 RMK AO2 T10331039
94299KAAT AAT20160110071011601/10/16 07:10:31  5-MIN KAAT 101510Z AUTO 12004KT 1SM BR OVC003 M03/M04 A3020 4120 96 2900 100/04 RMK AO2 T10331039
94299KAAT AAT20160110071511501/10/16 07:15:31  5-MIN KAAT 101515Z AUTO 10005KT 1SM BR VV003 M03/M04 A3020 4120 96 2900 080/05 RMK AO2 T10331039
94299KAAT AAT20160110072012101/10/16 07:20:31  5-MIN KAAT 101520Z AUTO 08005KT 1 1/4SM BR OVC003 M04/M04 A3021 4120 100 2900 070/05 RMK AO2 T10391039
94299KAAT AAT20160110072512101/10/16 07:25:31  5-MIN KAAT 101525Z AUTO 09004KT 1 1/2SM BR OVC003 M04/M04 A3021 4120 100 2800 070/04 RMK AO2 T10391039
94299KAAT AAT20160110073011701/10/16 07:30:31  5-MIN KAAT 101530Z AUTO 07003KT 1SM BR OVC003 M04/M04 A3021 4110 100 2800 050/03 RMK AO2 T10391039
94299KAAT AAT20160110073511901/10/16 07:35:31  5-MIN KAAT 101535Z AUTO 08004KT 3/4SM BR OVC003 M04/M04 A3021 4110 100 2800 070/04 RMK AO2 T10391039
94299KAAT AAT20160110074012001/10/16 07:40:31  5-MIN KAAT 101540Z AUTO 09004KT 1/2SM FZFG OVC002 M04/M04 A3021 4110 96 2800 070/04 RMK AO2 T10391044
94299KAAT AAT20160110074512001/10/16 07:45:31  5-MIN KAAT 101545Z AUTO 09003KT 1/2SM FZFG OVC002 M04/M04 A3022 4110 96 2800 070/03 RMK AO2 T10391044
94299KAAT AAT20160110075012801/10/16 07:50:31  5-MIN KAAT 101550Z AUTO 12003KT 1/2SM FZFG OVC002 M04/M04 A3022 4110 100 2800 100/03 RMK AO2 SLP258 T10391039
94299KAAT AAT20160110075512701/10/16 07:55:31  5-MIN KAAT 101555Z AUTO 11003KT 1/2SM FZFG VV003 M04/M04 A3022 4100 100 2800 090/03 RMK AO2 SLP260 T10441044
94299KAAT AAT20160110080012101/10/16 08:00:31  5-MIN KAAT 101600Z AUTO 13003KT 1/2SM FZFG OVC002 M04/M04 A3023 4100 100 2800 120/03 RMK AO2 T10441044
94299KAAT AAT20160110080511901/10/16 08:05:31  5-MIN KAAT 101605Z AUTO 00000KT 3/4SM BR OVC002 M04/M04 A3023 4100 100 2800 000/00 RMK AO2 T10441044
94299KAAT AAT20160110081011901/10/16 08:10:31  5-MIN KAAT 101610Z AUTO 00000KT 3/4SM BR OVC002 M04/M04 A3023 4090 100 2800 000/00 RMK AO2 T10441044
94299KAAT AAT20160110081511801/10/16 08:15:31  5-MIN KAAT 101615Z AUTO 10003KT 3/4SM BR OVC002 M04/M04 A3023 4100 96 2800 090/03 RMK AO2 T10391044
94299KAAT AAT20160110082011801/10/16 08:20:31  5-MIN KAAT 101620Z AUTO 08003KT 3/4SM BR OVC002 M04/M04 A3023 4100 96 2800 070/03 RMK AO2 T10391044
94299KAAT AAT20160110082511901/10/16 08:25:31  5-MIN KAAT 101625Z AUTO 09004KT 3/4SM BR OVC002 M04/M04 A3023 4090 100 2800 080/04 RMK AO2 T10441044
94299KAAT AAT20160110083011701/10/16 08:30:31  5-MIN KAAT 101630Z AUTO 10003KT 1SM BR OVC002 M04/M04 A3024 4090 100 2700 090/03 RMK AO2 T10441044
94299KAAT AAT20160110083512101/10/16 08:35:31  5-MIN KAAT 101635Z AUTO 09003KT 1 1/4SM BR OVC002 M04/M04 A3024 4090 100 2700 080/03 RMK AO2 T10441044
94299KAAT AAT20160110084011801/10/16 08:40:31  5-MIN KAAT 101640Z AUTO 11004KT 3/4SM BR OVC002 M04/M04 A3024 4090 96 2800 090/04 RMK AO2 T10391044
94299KAAT AAT20160110084511901/10/16 08:45:31  5-MIN KAAT 101645Z AUTO 10004KT 3/4SM BR OVC002 M04/M04 A3024 4080 100 2700 090/04 RMK AO2 T10441044
94299KAAT AAT20160110085011101/10/16 08:50:31  5-MIN KAAT 101650Z AUTO 10003KT 1 1/4SM BR OVC002 M04/M04 A3025 4080 100 2700 090/03 RMK AO2
94299KAAT AAT20160110085512701/10/16 08:55:31  5-MIN KAAT 101655Z AUTO 10004KT 1 1/4SM BR OVC002 M04/M05 A3025 4080 96 2700 080/04 RMK AO2 SLP268 T10441050
94299KAAT AAT20160110090012001/10/16 09:00:31  5-MIN KAAT 101700Z AUTO 10004KT 1 1/4SM BR OVC003 M04/M05 A3025 4080 96 2700 090/04 RMK AO2 T10441050
94299KAAT AAT20160110090511601/10/16 09:05:31  5-MIN KAAT 101705Z AUTO 09003KT 2SM BR OVC003 M04/M05 A3025 4080 96 2700 080/03 RMK AO2 T10441050
94299KAAT AAT20160110091011601/10/16 09:10:31  5-MIN KAAT 101710Z AUTO 10003KT 4SM BR OVC003 M04/M05 A3025 4080 96 2700 090/03 RMK AO2 T10441050
94299KAAT AAT20160110091512001/10/16 09:15:31  5-MIN KAAT 101715Z AUTO 00000KT 2 1/2SM BR OVC003 M04/M05 A3025 4070 96 2700 000/00 RMK AO2 T10441050
94299KAAT AAT20160110092013601/10/16 09:20:31  5-MIN KAAT 101720Z AUTO 07003KT 1 3/4SM BR OVC003 M04/M05 A3026 4070 96 2700 050/03 RMK AO2 VIS 1 1/4V2 1/2 T10441050
94299KAAT AAT20160110092512001/10/16 09:25:31  5-MIN KAAT 101725Z AUTO 00000KT 1 1/4SM BR OVC003 M04/M05 A3026 4070 96 2700 000/00 RMK AO2 T10441050
94299KAAT AAT20160110093011601/10/16 09:30:31  5-MIN KAAT 101730Z AUTO 00000KT 1SM BR OVC003 M04/M05 A3026 4070 96 2700 000/00 RMK AO2 T10441050
94299KAAT AAT20160110093512001/10/16 09:35:31  5-MIN KAAT 101735Z AUTO 00000KT 1 1/4SM BR OVC003 M04/M05 A3026 4070 96 2700 000/00 RMK AO2 T10441050
94299KAAT AAT20160110094012001/10/16 09:40:31  5-MIN KAAT 101740Z AUTO 10003KT 1 1/4SM BR OVC002 M04/M05 A3026 4070 96 2700 090/03 RMK AO2 T10441050
94299KAAT AAT20160110094512101/10/16 09:45:31  5-MIN KAAT 101745Z AUTO 00000KT 1 1/4SM BR OVC002 M05/M05 A3026 4060 100 2600 000/00 RMK AO2 T10501050
94299KAAT AAT20160110095014201/10/16 09:50:31  5-MIN KAAT 101750Z AUTO 00000KT 1SM BR OVC002 M05/M05 A3027 4060 100 2600 000/00 RMK AO2 SLP277 T10501050 11028 21050 53009
94299KAAT AAT20160110095514201/10/16 09:55:31  5-MIN KAAT 101755Z AUTO 00000KT 1SM BR OVC002 M05/M05 A3027 4060 100 2600 000/00 RMK AO2 SLP278 T10501050 11028 21050 53014
94299KAAT AAT20160110100011701/10/16 10:00:31  5-MIN KAAT 101800Z AUTO 00000KT 1SM BR OVC002 M05/M05 A3027 4060 100 2600 000/00 RMK AO2 T10501050
94299KAAT AAT20160110100511701/10/16 10:05:31  5-MIN KAAT 101805Z AUTO 00000KT 1SM BR OVC002 M05/M05 A3027 4060 100 2600 000/00 RMK AO2 T10501050
94299KAAT AAT20160110101012101/10/16 10:10:31  5-MIN KAAT 101810Z AUTO 00000KT 1 1/4SM BR OVC002 M04/M04 A3027 4060 100 2700 000/00 RMK AO2 T10441044
94299KAAT AAT20160110101511701/10/16 10:15:31  5-MIN KAAT 101815Z AUTO 00000KT 1SM BR OVC002 M04/M04 A3026 4060 100 2700 000/00 RMK AO2 T10441044
94299KAAT AAT20160110102011901/10/16 10:20:31  5-MIN KAAT 101820Z AUTO 00000KT 3/4SM BR OVC002 M04/M04 A3026 4070 100 2700 000/00 RMK AO2 T10441044
94299KAAT AAT20160110102512001/10/16 10:25:31  5-MIN KAAT 101825Z AUTO 00000KT 1/2SM FZFG VV002 M04/M04 A3026 4070 100 2700 000/00 RMK AO2 T10441044
94299KAAT AAT20160110103012001/10/16 10:30:31  5-MIN KAAT 101830Z AUTO 00000KT 1/2SM FZFG VV002 M04/M04 A3026 4070 100 2700 000/00 RMK AO2 T10441044
94299KAAT AAT20160110103512001/10/16 10:35:31  5-MIN KAAT 101835Z AUTO 00000KT 1/2SM FZFG VV003 M04/M04 A3026 4070 100 2700 000/00 RMK AO2 T10441044
94299KAAT AAT20160110104012001/10/16 10:40:31  5-MIN KAAT 101840Z AUTO 00000KT 1/2SM FZFG VV003 M04/M04 A3026 4070 100 2700 000/00 RMK AO2 T10441044
94299KAAT AAT20160110104512001/10/16 10:45:31  5-MIN KAAT 101845Z AUTO 00000KT 1/2SM FZFG VV003 M04/M04 A3025 4070 100 2700 000/00 RMK AO2 T10441044
94299KAAT AAT20160110105012601/10/16 10:50:31  5-MIN KAAT 101850Z AUTO 00000KT 1/2SM FZFG VV003 M04/M04 A3025 4070 96 2800 000/00 RMK AO2 SLP270 T10391044
94299KAAT AAT20160110105512701/10/16 10:55:31  5-MIN KAAT 101855Z AUTO 00000KT 1/4SM FZFG VV003 M04/M04 A3025 4070 100 2800 000/00 RMK AO2 SLP270 T10391039
94299KAAT AAT20160110110012001/10/16 11:00:31  5-MIN KAAT 101900Z AUTO VRB03KT 1/2SM FZFG VV003 M04/M04 A3025 4080 100 2800 VRB/03 RMK AO2 T10391039
94299KAAT AAT20160110110512001/10/16 11:05:31  5-MIN KAAT 101905Z AUTO 00000KT 1/2SM FZFG VV003 M04/M04 A3025 4080 100 2700 000/00 RMK AO2 T10441044
94299KAAT AAT20160110111011701/10/16 11:10:31  5-MIN KAAT 101910Z AUTO 13003KT 3/4SM BR VV003 M04/M04 A3025 4080 96 2800 110/03 RMK AO2 T10391044
94299KAAT AAT20160110111512001/10/16 11:15:31  5-MIN KAAT 101915Z AUTO 00000KT 1/2SM FZFG OVC003 M04/M05 A3025 4080 96 2700 000/00 RMK AO2 T10441050
94299KAAT AAT20160110112011601/10/16 11:20:31  5-MIN KAAT 101920Z AUTO 00000KT 1SM BR OVC003 M04/M05 A3025 4080 96 2700 000/00 RMK AO2 T10441050
94299KAAT AAT20160110112512001/10/16 11:25:31  5-MIN KAAT 101925Z AUTO 11003KT 1 1/4SM BR OVC003 M04/M04 A3025 4080 96 2800 100/03 RMK AO2 T10391044
94299KAAT AAT20160110113011801/10/16 11:30:31  5-MIN KAAT 101930Z AUTO 05003KT 3/4SM BR OVC003 M04/M04 A3025 4080 96 2800 040/03 RMK AO2 T10391044
94299KAAT AAT20160110113511601/10/16 11:35:31  5-MIN KAAT 101935Z AUTO 00000KT 1SM BR OVC002 M04/M04 A3025 4080 96 2800 000/00 RMK AO2 T10391044
94299KAAT AAT20160110114012001/10/16 11:40:31  5-MIN KAAT 101940Z AUTO 04004KT 1 1/4SM BR OVC002 M04/M04 A3025 4080 96 2800 020/04 RMK AO2 T10391044
94299KAAT AAT20160110114511801/10/16 11:45:31  5-MIN KAAT 101945Z AUTO 02003KT 3/4SM BR OVC002 M03/M04 A3025 4080 92 2900 010/03 RMK AO2 T10331044
94299KAAT AAT20160110115010801/10/16 11:50:31  5-MIN KAAT 101950Z AUTO 00000KT 3/4SM BR OVC002 M04/M04 A3024 4080 96 2800 000/00 RMK AO2
94299KAAT AAT20160110115512701/10/16 11:55:31  5-MIN KAAT 101955Z AUTO 01003KT 1/2SM FZFG OVC002 M04/M04 A3024 4090 96 2800 360/03 RMK AO2 SLP266 T10391044
94299KAAT AAT20160110120012001/10/16 12:00:31  5-MIN KAAT 102000Z AUTO 03003KT 1/2SM FZFG OVC002 M04/M04 A3024 4090 96 2800 010/03 RMK AO2 T10391044
94299KAAT AAT20160110120511801/10/16 12:05:31  5-MIN KAAT 102005Z AUTO 00000KT 3/4SM BR OVC002 M03/M04 A3024 4090 96 2900 000/00 RMK AO2 T10331039
94299KAAT AAT20160110121011601/10/16 12:10:31  5-MIN KAAT 102010Z AUTO 00000KT 1SM BR OVC002 M03/M04 A3023 4090 96 2900 000/00 RMK AO2 T10331039
94299KAAT AAT20160110121512001/10/16 12:15:31  5-MIN KAAT 102015Z AUTO 00000KT 1 1/2SM BR OVC002 M03/M04 A3023 4100 96 2900 000/00 RMK AO2 T10331039
94299KAAT AAT20160110122011601/10/16 12:20:31  5-MIN KAAT 102020Z AUTO 00000KT 2SM BR OVC002 M03/M04 A3023 4100 92 3000 000/00 RMK AO2 T10281039
94299KAAT AAT20160110122511601/10/16 12:25:31  5-MIN KAAT 102025Z AUTO 00000KT 3SM BR BKN002 M03/M03 A3023 4100 96 3000 000/00 RMK AO2 T10281033
94299KAAT AAT20160110123011301/10/16 12:30:31  5-MIN KAAT 102030Z AUTO 00000KT 7SM BKN002 M03/M03 A3022 4100 96 3000 000/00 RMK AO2 T10281033
94299KAAT AAT20160110123511301/10/16 12:35:31  5-MIN KAAT 102035Z AUTO 00000KT 8SM SCT002 M03/M03 A3022 4100 96 3000 000/00 RMK AO2 T10281033
94299KAAT AAT20160110124011301/10/16 12:40:31  5-MIN KAAT 102040Z AUTO 00000KT 9SM FEW002 M02/M03 A3022 4100 92 3000 000/00 RMK AO2 T10221033
94299KAAT AAT20160110124511301/10/16 12:45:31  5-MIN KAAT 102045Z AUTO 16004KT 9SM FEW002 M02/M03 A3022 4100 92 3000 140/04 RMK AO2 T10221033
94299KAAT AAT20160110125012301/10/16 12:50:31  5-MIN KAAT 102050Z AUTO 15003KT 8SM CLR M03/M03 A3022 4110 96 3000 140/03 RMK AO2 SLP258 T10281033 53014
94299KAAT AAT20160110125512301/10/16 12:55:31  5-MIN KAAT 102055Z AUTO 15003KT 8SM CLR M02/M03 A3021 4110 96 3000 130/03 RMK AO2 SLP255 T10221028 58012
94299KAAT AAT20160110130011001/10/16 13:00:31  5-MIN KAAT 102100Z AUTO 16003KT 7SM CLR M02/M03 A3021 4110 96 3100 150/03 RMK AO2 T10221028
94299KAAT AAT20160110130511001/10/16 13:05:31  5-MIN KAAT 102105Z AUTO 00000KT 8SM CLR M02/M03 A3021 4110 96 3100 000/00 RMK AO2 T10221028
94299KAAT AAT20160110131011101/10/16 13:10:31  5-MIN KAAT 102110Z AUTO 00000KT 10SM CLR M02/M03 A3021 4110 92 3100 000/00 RMK AO2 T10171028
94299KAAT AAT20160110131511101/10/16 13:15:31  5-MIN KAAT 102115Z AUTO 00000KT 10SM CLR M01/M03 A3021 4110 88 3200 000/00 RMK AO2 T10111028
94299KAAT AAT20160110132011101/10/16 13:20:31  5-MIN KAAT 102120Z AUTO 00000KT 10SM CLR M02/M03 A3021 4110 92 3100 000/00 RMK AO2 T10171028
94299KAAT AAT20160110132511101/10/16 13:25:31  5-MIN KAAT 102125Z AUTO 00000KT 10SM CLR M02/M03 A3021 4110 92 3100 000/00 RMK AO2 T10171028
94299KAAT AAT20160110133011101/10/16 13:30:31  5-MIN KAAT 102130Z AUTO 00000KT 10SM CLR M01/M02 A3021 4110 92 3200 000/00 RMK AO2 T10111022
94299KAAT AAT20160110133511101/10/16 13:35:31  5-MIN KAAT 102135Z AUTO 00000KT 10SM CLR M01/M02 A3021 4120 92 3200 000/00 RMK AO2 T10111022
94299KAAT AAT20160110134011101/10/16 13:40:31  5-MIN KAAT 102140Z AUTO 00000KT 10SM CLR M01/M03 A3021 4120 88 3200 000/00 RMK AO2 T10111028
94299KAAT AAT20160110134511101/10/16 13:45:31  5-MIN KAAT 102145Z AUTO 00000KT 10SM CLR M01/M02 A3021 4120 92 3200 000/00 RMK AO2 T10111022
94299KAAT AAT20160110135012101/10/16 13:50:31  5-MIN KAAT 102150Z AUTO 00000KT 10SM FEW031 M01/M02 A3021 4110 92 3200 000/00 RMK AO2 SLP251 T10111022
94299KAAT AAT20160110135512101/10/16 13:55:31  5-MIN KAAT 102155Z AUTO 00000KT 10SM SCT031 M01/M02 A3021 4110 92 3200 000/00 RMK AO2 SLP252 T10111022
94299KAAT AAT20160110140011401/10/16 14:00:31  5-MIN KAAT 102200Z AUTO 00000KT 10SM SCT031 M01/M02 A3021 4110 96 3200 000/00 RMK AO2 T10111017
94299KAAT AAT20160110140511401/10/16 14:05:31  5-MIN KAAT 102205Z AUTO 00000KT 10SM BKN031 M01/M02 A3021 4110 92 3300 000/00 RMK AO2 T10061017
94299KAAT AAT20160110141011401/10/16 14:10:31  5-MIN KAAT 102210Z AUTO 00000KT 10SM BKN031 M01/M02 A3021 4110 92 3300 000/00 RMK AO2 T10061017
94299KAAT AAT20160110141511301/10/16 14:15:31  5-MIN KAAT 102215Z AUTO 00000KT 10SM SCT031 00/M02 A3021 4120 88 3300 000/00 RMK AO2 T00001017
94299KAAT AAT20160110142011301/10/16 14:20:31  5-MIN KAAT 102220Z AUTO 00000KT 10SM BKN031 00/M01 A3021 4120 92 3300 000/00 RMK AO2 T00001011
94299KAAT AAT20160110142511301/10/16 14:25:31  5-MIN KAAT 102225Z AUTO 00000KT 10SM BKN031 00/M01 A3021 4120 92 3300 000/00 RMK AO2 T00001011
94299KAAT AAT20160110143011301/10/16 14:30:31  5-MIN KAAT 102230Z AUTO 00000KT 10SM BKN031 00/M01 A3021 4110 92 3300 000/00 RMK AO2 T00001011
94299KAAT AAT20160110143511301/10/16 14:35:31  5-MIN KAAT 102235Z AUTO 11003KT 10SM BKN031 00/M01 A3021 4110 92 3300 100/03 RMK AO2 T00001011
94299KAAT AAT20160110144011301/10/16 14:40:31  5-MIN KAAT 102240Z AUTO 12003KT 10SM BKN031 00/M01 A3021 4110 92 3300 110/03 RMK AO2 T00001011
94299KAAT AAT20160110144511301/10/16 14:45:31  5-MIN KAAT 102245Z AUTO 14005KT 10SM OVC031 00/M02 A3021 4110 88 3300 120/05 RMK AO2 T00001017
94299KAAT AAT20160110145012101/10/16 14:50:31  5-MIN KAAT 102250Z AUTO 13004KT 10SM OVC031 M01/M02 A3021 4110 92 3200 110/04 RMK AO2 SLP252 T10111022
94299KAAT AAT20160110145512101/10/16 14:55:31  5-MIN KAAT 102255Z AUTO 12005KT 10SM BKN031 M02/M03 A3021 4110 92 3100 100/05 RMK AO2 SLP254 T10171028
94299KAAT AAT20160110150011401/10/16 15:00:31  5-MIN KAAT 102300Z AUTO 11005KT 10SM BKN031 M02/M03 A3021 4110 92 3100 100/05 RMK AO2 T10171028
94299KAAT AAT20160110150511401/10/16 15:05:31  5-MIN KAAT 102305Z AUTO 10004KT 10SM BKN031 M02/M03 A3021 4110 96 3000 090/04 RMK AO2 T10221028
94299KAAT AAT20160110151011401/10/16 15:10:31  5-MIN KAAT 102310Z AUTO 12005KT 10SM BKN031 M02/M03 A3021 4110 92 3000 110/05 RMK AO2 T10221033
94299KAAT AAT20160110151511401/10/16 15:15:31  5-MIN KAAT 102315Z AUTO 10005KT 10SM SCT031 M02/M03 A3021 4110 92 3100 090/05 RMK AO2 T10221033
94299KAAT AAT20160110152011401/10/16 15:20:31  5-MIN KAAT 102320Z AUTO 11004KT 10SM FEW031 M02/M03 A3021 4110 92 3100 090/04 RMK AO2 T10171028
94299KAAT AAT20160110152511401/10/16 15:25:31  5-MIN KAAT 102325Z AUTO 11004KT 10SM FEW030 M02/M03 A3021 4110 92 3100 090/04 RMK AO2 T10171028
94299KAAT AAT20160110153011401/10/16 15:30:31  5-MIN KAAT 102330Z AUTO 10004KT 10SM FEW030 M01/M02 A3021 4110 92 3200 090/04 RMK AO2 T10111022
94299KAAT AAT20160110153511101/10/16 15:35:31  5-MIN KAAT 102335Z AUTO 11004KT 10SM CLR M01/M03 A3022 4110 88 3200 100/04 RMK AO2 T10111028
94299KAAT AAT20160110154011101/10/16 15:40:31  5-MIN KAAT 102340Z AUTO 11004KT 10SM CLR M02/M03 A3022 4110 92 3100 100/04 RMK AO2 T10171028
94299KAAT AAT20160110154511101/10/16 15:45:31  5-MIN KAAT 102345Z AUTO 09003KT 10SM CLR M01/M02 A3022 4110 92 3200 070/03 RMK AO2 T10111022
94299KAAT AAT20160110155013601/10/16 15:50:31  5-MIN KAAT 102350Z AUTO 09004KT 10SM CLR M01/M02 A3022 4110 88 3200 080/04 RMK AO2 SLP254 T10061022 10000 21050 58012
94299KAAT AAT20160110155513601/10/16 15:55:31  5-MIN KAAT 102355Z AUTO 09004KT 10SM CLR M01/M02 A3022 4110 88 3300 070/04 RMK AO2 SLP254 T10061022 10000 21050 53001
94299KAAT AAT20160110160011001/10/16 16:00:31  5-MIN KAAT 110000Z AUTO 08003KT 10SM CLR 00/M02 A3022 4110 88 3300 060/03 RMK AO2 T00001017
94299KAAT AAT20160110160511001/10/16 16:05:31  5-MIN KAAT 110005Z AUTO 09004KT 10SM CLR 00/M02 A3022 4110 85 3300 070/04 RMK AO2 T00001022
94299KAAT AAT20160110161011001/10/16 16:10:31  5-MIN KAAT 110010Z AUTO 07003KT 10SM CLR 00/M02 A3022 4110 85 3300 060/03 RMK AO2 T00001022
94299KAAT AAT20160110161511001/10/16 16:15:31  5-MIN KAAT 110015Z AUTO 09003KT 10SM CLR 00/M02 A3022 4110 85 3300 080/03 RMK AO2 T00001022
94299KAAT AAT20160110162011001/10/16 16:20:31  5-MIN KAAT 110020Z AUTO 12003KT 10SM CLR 00/M02 A3022 4110 85 3300 100/03 RMK AO2 T00001022
94299KAAT AAT20160110162511001/10/16 16:25:31  5-MIN KAAT 110025Z AUTO 12005KT 10SM CLR 00/M02 A3022 4110 85 3300 110/05 RMK AO2 T00001022
94299KAAT AAT20160110163011101/10/16 16:30:31  5-MIN KAAT 110030Z AUTO 13005KT 10SM CLR M01/M03 A3022 4100 85 3200 110/05 RMK AO2 T10061028
94299KAAT AAT20160110163511101/10/16 16:35:31  5-MIN KAAT 110035Z AUTO 13005KT 10SM CLR M01/M03 A3022 4100 85 3200 110/05 RMK AO2 T10061028
94299KAAT AAT20160110164011101/10/16 16:40:31  5-MIN KAAT 110040Z AUTO 14005KT 10SM CLR M01/M03 A3022 4100 85 3200 120/05 RMK AO2 T10111033
94299KAAT AAT20160110164511101/10/16 16:45:31  5-MIN KAAT 110045Z AUTO 13005KT 10SM CLR M01/M03 A3022 4100 85 3200 120/05 RMK AO2 T10111033
94299KAAT AAT20160110165011801/10/16 16:50:31  5-MIN KAAT 110050Z AUTO 13005KT 10SM CLR M02/M04 A3022 4100 85 3100 110/05 RMK AO2 SLP259 T10171039
94299KAAT AAT20160110165511801/10/16 16:55:31  5-MIN KAAT 110055Z AUTO 14004KT 10SM CLR M02/M04 A3022 4100 88 3000 120/04 RMK AO2 SLP259 T10221039
94299KAAT AAT20160110170011101/10/16 17:00:31  5-MIN KAAT 110100Z AUTO 13004KT 10SM CLR M02/M04 A3022 4100 88 3000 120/04 RMK AO2 T10221039
94299KAAT AAT20160110170511101/10/16 17:05:31  5-MIN KAAT 110105Z AUTO 13004KT 10SM CLR M02/M04 A3022 4100 85 3000 120/04 RMK AO2 T10221044
94299KAAT AAT20160110171011101/10/16 17:10:31  5-MIN KAAT 110110Z AUTO 12004KT 10SM CLR M02/M04 A3022 4100 88 3000 110/04 RMK AO2 T10221039
94299KAAT AAT20160110171511101/10/16 17:15:31  5-MIN KAAT 110115Z AUTO 13003KT 10SM CLR M02/M04 A3022 4100 85 3000 110/03 RMK AO2 T10221044
94299KAAT AAT20160110172011101/10/16 17:20:31  5-MIN KAAT 110120Z AUTO 10003KT 10SM CLR M03/M04 A3023 4100 88 3000 090/03 RMK AO2 T10281044
94299KAAT AAT20160110172511101/10/16 17:25:31  5-MIN KAAT 110125Z AUTO 09003KT 10SM CLR M03/M04 A3023 4100 88 3000 080/03 RMK AO2 T10281044
94299KAAT AAT20160110173011101/10/16 17:30:31  5-MIN KAAT 110130Z AUTO VRB03KT 10SM CLR M03/M05 A3023 4100 88 2900 VRB/03 RMK AO2 T10331050
94299KAAT AAT20160110173511101/10/16 17:35:31  5-MIN KAAT 110135Z AUTO VRB03KT 10SM CLR M03/M05 A3023 4100 85 3000 VRB/03 RMK AO2 T10281050
94299KAAT AAT20160110174011101/10/16 17:40:31  5-MIN KAAT 110140Z AUTO VRB03KT 10SM CLR M03/M05 A3023 4100 88 2900 VRB/03 RMK AO2 T10331050
94299KAAT AAT20160110174511101/10/16 17:45:31  5-MIN KAAT 110145Z AUTO 14004KT 10SM CLR M03/M05 A3023 4100 85 3000 130/04 RMK AO2 T10281050
94299KAAT AAT20160110175011801/10/16 17:50:31  5-MIN KAAT 110150Z AUTO 12004KT 10SM CLR M03/M05 A3023 4090 85 3000 100/04 RMK AO2 SLP264 T10281050
94299KAAT AAT20160110175511801/10/16 17:55:31  5-MIN KAAT 110155Z AUTO 00000KT 10SM CLR M03/M05 A3023 4090 85 3000 000/00 RMK AO2 SLP265 T10281050
94299KAAT AAT20160110180011101/10/16 18:00:31  5-MIN KAAT 110200Z AUTO 00000KT 10SM CLR M03/M05 A3023 4090 88 2900 000/00 RMK AO2 T10331050
94299KAAT AAT20160110180511101/10/16 18:05:31  5-MIN KAAT 110205Z AUTO 00000KT 10SM CLR M05/M06 A3023 4090 92 2700 000/00 RMK AO2 T10501061
94299KAAT AAT20160110181011101/10/16 18:10:31  5-MIN KAAT 110210Z AUTO 00000KT 10SM CLR M06/M07 A3023 4090 92 2500 000/00 RMK AO2 T10611072
94299KAAT AAT20160110181511101/10/16 18:15:31  5-MIN KAAT 110215Z AUTO 00000KT 10SM CLR M06/M08 A3023 4100 88 2500 000/00 RMK AO2 T10611078
94299KAAT AAT20160110182011101/10/16 18:20:31  5-MIN KAAT 110220Z AUTO 00000KT 10SM CLR M06/M07 A3023 4100 92 2500 000/00 RMK AO2 T10611072
94299KAAT AAT20160110182511101/10/16 18:25:31  5-MIN KAAT 110225Z AUTO 00000KT 10SM CLR M06/M07 A3023 4100 92 2600 000/00 RMK AO2 T10561067
94299KAAT AAT20160110183011101/10/16 18:30:31  5-MIN KAAT 110230Z AUTO 00000KT 10SM CLR M06/M07 A3023 4090 96 2500 000/00 RMK AO2 T10611067
94299KAAT AAT20160110183511101/10/16 18:35:31  5-MIN KAAT 110235Z AUTO 00000KT 10SM CLR M07/M08 A3023 4090 92 2500 000/00 RMK AO2 T10671078
94299KAAT AAT20160110184011101/10/16 18:40:31  5-MIN KAAT 110240Z AUTO VRB03KT 10SM CLR M06/M07 A3023 4100 88 2600 VRB/03 RMK AO2 T10561072
94299KAAT AAT20160110184511101/10/16 18:45:31  5-MIN KAAT 110245Z AUTO 16004KT 10SM CLR M03/M06 A3023 4090 81 3000 140/04 RMK AO2 T10281056
94299KAAT AAT20160110185012401/10/16 18:50:31  5-MIN KAAT 110250Z AUTO 16004KT 10SM CLR M04/M06 A3023 4090 88 2800 140/04 RMK AO2 SLP267 T10391056 53001
94299KAAT AAT20160110185512401/10/16 18:55:31  5-MIN KAAT 110255Z AUTO 00000KT 10SM CLR M04/M06 A3023 4100 88 2800 000/00 RMK AO2 SLP268 T10441061 50004
94299KAAT AAT20160110190011101/10/16 19:00:31  5-MIN KAAT 110300Z AUTO 09003KT 10SM CLR M04/M06 A3023 4090 88 2800 080/03 RMK AO2 T10441061
94299KAAT AAT20160110190511101/10/16 19:05:31  5-MIN KAAT 110305Z AUTO 00000KT 10SM CLR M06/M07 A3023 4090 92 2600 000/00 RMK AO2 T10561067
94299KAAT AAT20160110191011101/10/16 19:10:31  5-MIN KAAT 110310Z AUTO 07003KT 10SM CLR M05/M07 A3023 4090 84 2700 050/03 RMK AO2 T10501072
94299KAAT AAT20160110191511101/10/16 19:15:31  5-MIN KAAT 110315Z AUTO 10005KT 10SM CLR M04/M07 A3023 4090 84 2800 080/05 RMK AO2 T10441067
94299KAAT AAT20160110192011101/10/16 19:20:31  5-MIN KAAT 110320Z AUTO 12006KT 10SM CLR M04/M06 A3023 4090 85 2800 110/06 RMK AO2 T10391061
94299KAAT AAT20160110192511101/10/16 19:25:31  5-MIN KAAT 110325Z AUTO 14006KT 10SM CLR M04/M06 A3023 4090 85 2800 120/06 RMK AO2 T10391061
94299KAAT AAT20160110193011101/10/16 19:30:31  5-MIN KAAT 110330Z AUTO 14006KT 10SM CLR M04/M06 A3023 4090 88 2800 120/06 RMK AO2 T10441061
94299KAAT AAT20160110193511101/10/16 19:35:31  5-MIN KAAT 110335Z AUTO 14009KT 10SM CLR M03/M06 A3023 4090 81 2900 130/09 RMK AO2 T10331061
94299KAAT AAT20160110194011701/10/16 19:40:31  5-MIN KAAT 110340Z AUTO 14011G15KT 10SM CLR M03/M06 A3024 4090 81 3000 130/11G15 RMK AO2 T10281056
94299KAAT AAT20160110194511101/10/16 19:45:31  5-MIN KAAT 110345Z AUTO 14009KT 10SM CLR M03/M05 A3024 4090 85 3000 130/09 RMK AO2 T10281050
94299KAAT AAT20160110195012401/10/16 19:50:31  5-MIN KAAT 110350Z AUTO 14010G17KT 10SM CLR M02/M05 A3024 4090 81 3000 120/10G17 RMK AO2 SLP267 T10221050
94299KAAT AAT20160110195512401/10/16 19:55:31  5-MIN KAAT 110355Z AUTO 13007G17KT 10SM CLR M02/M05 A3024 4090 81 3000 110/07G17 RMK AO2 SLP269 T10221050
94299KAAT AAT20160110200011701/10/16 20:00:31  5-MIN KAAT 110400Z AUTO 09005G15KT 10SM CLR M03/M05 A3024 4090 85 3000 080/05G15 RMK AO2 T10281050
94299KAAT AAT20160110200511101/10/16 20:05:31  5-MIN KAAT 110405Z AUTO 11006KT 10SM CLR M03/M06 A3024 4090 81 2900 100/06 RMK AO2 T10331061
94299KAAT AAT20160110201011101/10/16 20:10:31  5-MIN KAAT 110410Z AUTO 13006KT 10SM CLR M03/M06 A3025 4080 81 2900 120/06 RMK AO2 T10331061
94299KAAT AAT20160110201511101/10/16 20:15:31  5-MIN KAAT 110415Z AUTO 08004KT 10SM CLR M04/M06 A3025 4080 85 2800 070/04 RMK AO2 T10391061
94299KAAT AAT20160110202011101/10/16 20:20:31  5-MIN KAAT 110420Z AUTO 06003KT 10SM CLR M04/M06 A3025 4070 88 2700 040/03 RMK AO2 T10441061
94299KAAT AAT20160110202511101/10/16 20:25:31  5-MIN KAAT 110425Z AUTO 05004KT 10SM CLR M04/M06 A3025 4080 88 2700 040/04 RMK AO2 T10441061
94299KAAT AAT20160110203011101/10/16 20:30:31  5-MIN KAAT 110430Z AUTO 09004KT 10SM CLR M04/M07 A3025 4070 84 2700 080/04 RMK AO2 T10441067
94299KAAT AAT20160110203511101/10/16 20:35:31  5-MIN KAAT 110435Z AUTO 10005KT 10SM CLR M04/M06 A3025 4070 88 2700 090/05 RMK AO2 T10441061
94299KAAT AAT20160110204011101/10/16 20:40:31  5-MIN KAAT 110440Z AUTO 06003KT 10SM CLR M04/M06 A3026 4070 88 2700 050/03 RMK AO2 T10441061
94299KAAT AAT20160110204511001/10/16 20:45:31  5-MIN KAAT 110445Z AUTO 04006KT 9SM CLR M06/M07 A3026 4070 92 2500 030/06 RMK AO2 T10611072
94299KAAT AAT20160110205011701/10/16 20:50:31  5-MIN KAAT 110450Z AUTO 05007KT 9SM CLR M07/M08 A3025 4070 92 2400 030/07 RMK AO2 SLP282 T10721083
94299KAAT AAT20160110205511801/10/16 20:55:31  5-MIN KAAT 110455Z AUTO 06006KT 10SM CLR M07/M09 A3026 4070 88 2400 040/06 RMK AO2 SLP282 T10721089
94299KAAT AAT20160110210011101/10/16 21:00:31  5-MIN KAAT 110500Z AUTO 07005KT 10SM CLR M07/M08 A3026 4070 92 2400 050/05 RMK AO2 T10721083
94299KAAT AAT20160110210511101/10/16 21:05:31  5-MIN KAAT 110505Z AUTO 10004KT 10SM CLR M07/M08 A3026 4070 92 2400 080/04 RMK AO2 T10671078
94299KAAT AAT20160110211011001/10/16 21:10:31  5-MIN KAAT 110510Z AUTO 08003KT 9SM CLR M07/M08 A3026 4070 92 2400 070/03 RMK AO2 T10721083
94299KAAT AAT20160110211511001/10/16 21:15:31  5-MIN KAAT 110515Z AUTO 05007KT 9SM CLR M07/M08 A3026 4070 92 2400 030/07 RMK AO2 T10721083
94299KAAT AAT20160110212011101/10/16 21:20:31  5-MIN KAAT 110520Z AUTO VRB03KT 10SM CLR M08/M09 A3026 4070 96 2200 VRB/03 RMK AO2 T10831089
94299KAAT AAT20160110212511001/10/16 21:25:31  5-MIN KAAT 110525Z AUTO VRB03KT 9SM CLR M08/M09 A3026 4070 88 2300 VRB/03 RMK AO2 T10781094
94299KAAT AAT20160110213011001/10/16 21:30:31  5-MIN KAAT 110530Z AUTO 06003KT 7SM CLR M08/M09 A3026 4070 92 2300 040/03 RMK AO2 T10781089
94299KAAT AAT20160110213511001/10/16 21:35:31  5-MIN KAAT 110535Z AUTO 00000KT 8SM CLR M08/M09 A3026 4070 92 2300 000/00 RMK AO2 T10781089
94299KAAT AAT20160110214011101/10/16 21:40:31  5-MIN KAAT 110540Z AUTO 00000KT 10SM CLR M08/M09 A3026 4070 92 2200 000/00 RMK AO2 T10831094
94299KAAT AAT20160110214511101/10/16 21:45:31  5-MIN KAAT 110545Z AUTO 00000KT 10SM CLR M09/M10 A3026 4070 96 2100 000/00 RMK AO2 T10941100
94299KAAT AAT20160110215013601/10/16 21:50:31  5-MIN KAAT 110550Z AUTO 00000KT 10SM CLR M09/M11 A3025 4070 92 2100 000/00 RMK AO2 SLP288 T10941106 10000 21094 50004
94299KAAT AAT20160110215513601/10/16 21:55:31  5-MIN KAAT 110555Z AUTO 00000KT 10SM CLR M09/M11 A3025 4070 92 2100 000/00 RMK AO2 SLP288 T10941106 10000 21094 50007
94299KAAT AAT20160110220011101/10/16 22:00:31  5-MIN KAAT 110600Z AUTO 00000KT 10SM CLR M09/M10 A3025 4070 92 2200 000/00 RMK AO2 T10891100
94299KAAT AAT20160110220511101/10/16 22:05:31  5-MIN KAAT 110605Z AUTO 05004KT 10SM CLR M08/M09 A3025 4070 88 2300 030/04 RMK AO2 T10781094
94299KAAT AAT20160110221011001/10/16 22:10:31  5-MIN KAAT 110610Z AUTO 05005KT 8SM CLR M08/M09 A3025 4070 92 2200 040/05 RMK AO2 T10831094
94299KAAT AAT20160110221511001/10/16 22:15:31  5-MIN KAAT 110615Z AUTO 04005KT 8SM CLR M09/M10 A3025 4080 92 2200 020/05 RMK AO2 T10891100
94299KAAT AAT20160110222011001/10/16 22:20:31  5-MIN KAAT 110620Z AUTO 04006KT 9SM CLR M09/M11 A3025 4080 88 2100 030/06 RMK AO2 T10941111
94299KAAT AAT20160110222511101/10/16 22:25:31  5-MIN KAAT 110625Z AUTO 06008KT 10SM CLR M09/M11 A3024 4090 92 2100 040/08 RMK AO2 T10941106
94299KAAT AAT20160110223011101/10/16 22:30:31  5-MIN KAAT 110630Z AUTO 06008KT 10SM CLR M09/M10 A3024 4090 92 2200 050/08 RMK AO2 T10891100
94299KAAT AAT20160110223511101/10/16 22:35:31  5-MIN KAAT 110635Z AUTO 08008KT 10SM CLR M08/M09 A3023 4090 92 2300 060/08 RMK AO2 T10831094
94299KAAT AAT20160110224011101/10/16 22:40:31  5-MIN KAAT 110640Z AUTO 08006KT 10SM CLR M08/M09 A3023 4090 92 2300 070/06 RMK AO2 T10781089
94299KAAT AAT20160110224511101/10/16 22:45:31  5-MIN KAAT 110645Z AUTO 12007KT 10SM CLR M07/M08 A3023 4100 88 2500 100/07 RMK AO2 T10671083
94299KAAT AAT20160110225011701/10/16 22:50:31  5-MIN KAAT 110650Z AUTO 07005KT 9SM CLR M07/M08 A3023 4100 92 2400 050/05 RMK AO2 SLP273 T10721083
94299KAAT AAT20160110225511701/10/16 22:55:31  5-MIN KAAT 110655Z AUTO 06004KT 8SM CLR M08/M09 A3023 4100 92 2300 040/04 RMK AO2 SLP274 T10781089
94299KAAT AAT20160110230011301/10/16 23:00:31  5-MIN KAAT 110700Z AUTO 00000KT 6SM BR CLR M09/M10 A3023 4090 92 2200 000/00 RMK AO2 T10891100
94299KAAT AAT20160110230511301/10/16 23:05:31  5-MIN KAAT 110705Z AUTO 00000KT 6SM BR CLR M09/M11 A3024 4090 88 2100 000/00 RMK AO2 T10941111
94299KAAT AAT20160110231011001/10/16 23:10:31  5-MIN KAAT 110710Z AUTO 23004KT 8SM CLR M09/M11 A3024 4090 92 2100 210/04 RMK AO2 T10941106
94299KAAT AAT20160110231511101/10/16 23:15:31  5-MIN KAAT 110715Z AUTO 24003KT 10SM CLR M11/M11 A3024 4080 96 2000 230/03 RMK AO2 T11061111
94299KAAT AAT20160110232011101/10/16 23:20:31  5-MIN KAAT 110720Z AUTO 00000KT 10SM CLR M11/M12 A3025 4080 92 2000 000/00 RMK AO2 T11061117
94299KAAT AAT20160110232511101/10/16 23:25:31  5-MIN KAAT 110725Z AUTO 25003KT 10SM CLR M09/M11 A3025 4080 84 2200 240/03 RMK AO2 T10891111
94299KAAT AAT20160110233011101/10/16 23:30:31  5-MIN KAAT 110730Z AUTO VRB03KT 10SM CLR M08/M10 A3025 4080 88 2200 VRB/03 RMK AO2 T10831100
94299KAAT AAT20160110233511101/10/16 23:35:31  5-MIN KAAT 110735Z AUTO 00000KT 10SM CLR M08/M09 A3025 4080 88 2300 000/00 RMK AO2 T10781094
94299KAAT AAT20160110234011101/10/16 23:40:31  5-MIN KAAT 110740Z AUTO 00000KT 10SM CLR M07/M09 A3025 4080 84 2500 000/00 RMK AO2 T10671089
94299KAAT AAT20160110234511101/10/16 23:45:31  5-MIN KAAT 110745Z AUTO 00000KT 10SM CLR M06/M08 A3025 4080 84 2500 000/00 RMK AO2 T10611083
94299KAAT AAT20160110235012801/10/16 23:50:31  5-MIN KAAT 110750Z AUTO 00000KT 10SM CLR M07/M08 A3025 4070 88 2400 000/00 RMK AO2 SLP280 T10671083 400001106
94299KAAT AAT20160110235512701/10/16 23:55:31  5-MIN KAAT 110755Z AUTO 02004KT 8SM CLR M09/M11 A3026 4070 88 2200 360/04 RMK AO2 SLP285 T10891106 400001106
94299KAAT AAT20160111000011001/11/16 00:00:31  5-MIN KAAT 110800Z AUTO 03005KT 7SM CLR M09/M11 A3026 4070 84 2200 010/05 RMK AO2 T10891111
94299KAAT AAT20160111000511001/11/16 00:05:31  5-MIN KAAT 110805Z AUTO 04006KT 7SM CLR M08/M10 A3026 4070 84 2300 020/06 RMK AO2 T10781100
94299KAAT AAT20160111001011001/11/16 00:10:31  5-MIN KAAT 110810Z AUTO 05007KT 9SM CLR M07/M09 A3026 4070 88 2400 030/07 RMK AO2 T10721089
94299KAAT AAT20160111001511001/11/16 00:15:31  5-MIN KAAT 110815Z AUTO 06008KT 9SM CLR M07/M08 A3026 4070 92 2400 050/08 RMK AO2 T10721083
94299KAAT AAT20160111002011001/11/16 00:20:31  5-MIN KAAT 110820Z AUTO 06009KT 8SM CLR M08/M09 A3026 4070 92 2300 040/09 RMK AO2 T10781089
94299KAAT AAT20160111002511001/11/16 00:25:31  5-MIN KAAT 110825Z AUTO 05007KT 9SM CLR M07/M08 A3026 4070 92 2400 040/07 RMK AO2 T10721083
94299KAAT AAT20160111003011101/11/16 00:30:31  5-MIN KAAT 110830Z AUTO 05007KT 10SM CLR M07/M08 A3026 4070 92 2400 040/07 RMK AO2 T10721083
94299KAAT AAT20160111003511101/11/16 00:35:31  5-MIN KAAT 110835Z AUTO 03006KT 10SM CLR M07/M08 A3026 4070 92 2400 020/06 RMK AO2 T10721083
94299KAAT AAT20160111004011001/11/16 00:40:31  5-MIN KAAT 110840Z AUTO 04005KT 9SM CLR M08/M09 A3025 4070 92 2200 020/05 RMK AO2 T10831094
94299KAAT AAT20160111004511001/11/16 00:45:31  5-MIN KAAT 110845Z AUTO 05004KT 9SM CLR M07/M09 A3025 4080 84 2400 040/04 RMK AO2 T10721094
94299KAAT AAT20160111005012301/11/16 00:50:31  5-MIN KAAT 110850Z AUTO 00000KT 9SM CLR M07/M08 A3026 4070 88 2400 000/00 RMK AO2 SLP279 T10671083 50007
94299KAAT AAT20160111005512301/11/16 00:55:31  5-MIN KAAT 110855Z AUTO 03003KT 9SM CLR M08/M09 A3025 4080 96 2200 020/03 RMK AO2 SLP279 T10831089 56001
94299KAAT AAT20160111010011001/11/16 01:00:31  5-MIN KAAT 110900Z AUTO 35004KT 9SM CLR M09/M11 A3025 4080 92 2100 340/04 RMK AO2 T10941106
94299KAAT AAT20160111010511001/11/16 01:05:31  5-MIN KAAT 110905Z AUTO 36004KT 8SM CLR M08/M10 A3025 4080 88 2200 350/04 RMK AO2 T10831100
94299KAAT AAT20160111011011001/11/16 01:10:31  5-MIN KAAT 110910Z AUTO VRB03KT 8SM CLR M07/M09 A3025 4080 84 2500 VRB/03 RMK AO2 T10671089
94299KAAT AAT20160111011511001/11/16 01:15:31  5-MIN KAAT 110915Z AUTO 00000KT 8SM CLR M06/M07 A3025 4070 88 2600 000/00 RMK AO2 T10561072
94299KAAT AAT20160111012011101/11/16 01:20:31  5-MIN KAAT 110920Z AUTO 00000KT 10SM CLR M06/M07 A3025 4080 92 2500 000/00 RMK AO2 T10611072
94299KAAT AAT20160111012511101/11/16 01:25:31  5-MIN KAAT 110925Z AUTO 00000KT 10SM CLR M08/M09 A3025 4080 92 2200 000/00 RMK AO2 T10831094
94299KAAT AAT20160111013011101/11/16 01:30:31  5-MIN KAAT 110930Z AUTO 36004KT 10SM CLR M07/M09 A3026 4070 84 2400 340/04 RMK AO2 T10721094
94299KAAT AAT20160111013511101/11/16 01:35:31  5-MIN KAAT 110935Z AUTO VRB03KT 10SM CLR M08/M09 A3026 4070 92 2200 VRB/03 RMK AO2 T10831094
94299KAAT AAT20160111014011101/11/16 01:40:31  5-MIN KAAT 110940Z AUTO 00000KT 10SM CLR M10/M11 A3026 4070 92 2000 000/00 RMK AO2 T11001111
94299KAAT AAT20160111014511101/11/16 01:45:31  5-MIN KAAT 110945Z AUTO 29003KT 10SM CLR M08/M10 A3026 4070 88 2200 280/03 RMK AO2 T10831100
94299KAAT AAT20160111015011801/11/16 01:50:31  5-MIN KAAT 110950Z AUTO 27003KT 10SM CLR M09/M10 A3026 4070 92 2200 260/03 RMK AO2 SLP283 T10891100
94299KAAT AAT20160111015511801/11/16 01:55:31  5-MIN KAAT 110955Z AUTO 27004KT 10SM CLR M09/M11 A3027 4060 92 2100 250/04 RMK AO2 SLP285 T10941106
94299KAAT AAT20160111020011101/11/16 02:00:31  5-MIN KAAT 111000Z AUTO 00000KT 10SM CLR M09/M11 A3026 4070 92 2100 000/00 RMK AO2 T10941106
94299KAAT AAT20160111020511101/11/16 02:05:31  5-MIN KAAT 111005Z AUTO 00000KT 10SM CLR M08/M09 A3027 4060 88 2300 000/00 RMK AO2 T10781094
94299KAAT AAT20160111021011101/11/16 02:10:31  5-MIN KAAT 111010Z AUTO 00000KT 10SM CLR M07/M08 A3026 4070 88 2400 000/00 RMK AO2 T10671083
94299KAAT AAT20160111021511101/11/16 02:15:31  5-MIN KAAT 111015Z AUTO 00000KT 10SM CLR M07/M08 A3027 4060 92 2400 000/00 RMK AO2 T10671078
94299KAAT AAT20160111022011101/11/16 02:20:31  5-MIN KAAT 111020Z AUTO 00000KT 10SM CLR M09/M11 A3026 4060 92 2100 000/00 RMK AO2 T10941106
94299KAAT AAT20160111022511101/11/16 02:25:31  5-MIN KAAT 111025Z AUTO 18003KT 10SM CLR M08/M11 A3026 4070 84 2200 170/03 RMK AO2 T10831106
94299KAAT AAT20160111023011101/11/16 02:30:31  5-MIN KAAT 111030Z AUTO 00000KT 10SM CLR M06/M08 A3026 4070 84 2500 000/00 RMK AO2 T10611083
94299KAAT AAT20160111023511101/11/16 02:35:31  5-MIN KAAT 111035Z AUTO 00000KT 10SM CLR M06/M08 A3026 4060 88 2500 000/00 RMK AO2 T10611078
94299KAAT AAT20160111024011101/11/16 02:40:31  5-MIN KAAT 111040Z AUTO 13003KT 10SM CLR M07/M08 A3027 4060 92 2400 120/03 RMK AO2 T10671078
94299KAAT AAT20160111024511001/11/16 02:45:31  5-MIN KAAT 111045Z AUTO 08005KT 9SM CLR M07/M08 A3027 4060 88 2400 070/05 RMK AO2 T10671083
94299KAAT AAT20160111025011701/11/16 02:50:31  5-MIN KAAT 111050Z AUTO 09007KT 8SM CLR M08/M09 A3026 4060 92 2300 080/07 RMK AO2 SLP282 T10781089
94299KAAT AAT20160111025511701/11/16 02:55:31  5-MIN KAAT 111055Z AUTO 09007KT 8SM CLR M08/M09 A3026 4060 92 2300 080/07 RMK AO2 SLP282 T10781089
94299KAAT AAT20160111030011001/11/16 03:00:31  5-MIN KAAT 111100Z AUTO 07007KT 9SM CLR M08/M09 A3026 4070 88 2300 060/07 RMK AO2 T10781094
94299KAAT AAT20160111030511101/11/16 03:05:31  5-MIN KAAT 111105Z AUTO 06011KT 10SM CLR M09/M11 A3026 4070 92 2100 040/11 RMK AO2 T10941106
94299KAAT AAT20160111031011101/11/16 03:10:31  5-MIN KAAT 111110Z AUTO 07009KT 10SM CLR M09/M11 A3026 4070 88 2200 060/09 RMK AO2 T10891106
94299KAAT AAT20160111031511101/11/16 03:15:31  5-MIN KAAT 111115Z AUTO 07007KT 10SM CLR M09/M10 A3026 4070 92 2200 060/07 RMK AO2 T10891100
94299KAAT AAT20160111032011101/11/16 03:20:31  5-MIN KAAT 111120Z AUTO 07008KT 10SM CLR M09/M11 A3026 4070 92 2100 060/08 RMK AO2 T10941106
94299KAAT AAT20160111032511101/11/16 03:25:31  5-MIN KAAT 111125Z AUTO 07007KT 10SM CLR M09/M10 A3025 4070 92 2200 060/07 RMK AO2 T10891100
94299KAAT AAT20160111033011101/11/16 03:30:31  5-MIN KAAT 111130Z AUTO 07006KT 10SM CLR M09/M10 A3025 4070 92 2200 050/06 RMK AO2 T10891100
94299KAAT AAT20160111033511101/11/16 03:35:31  5-MIN KAAT 111135Z AUTO 10004KT 10SM CLR M09/M11 A3025 4080 92 2100 090/04 RMK AO2 T10941106
94299KAAT AAT20160111034011101/11/16 03:40:31  5-MIN KAAT 111140Z AUTO 07005KT 10SM CLR M08/M11 A3025 4080 84 2200 050/05 RMK AO2 T10831106
94299KAAT AAT20160111034511101/11/16 03:45:31  5-MIN KAAT 111145Z AUTO 00000KT 10SM CLR M10/M11 A3025 4080 92 2000 000/00 RMK AO2 T11001111
94299KAAT AAT20160111035013601/11/16 03:50:31  5-MIN KAAT 111150Z AUTO VRB04KT 10SM CLR M11/M12 A3025 4080 92 2000 VRB/04 RMK AO2 SLP280 T11061117 11050 21106 56001
94299KAAT AAT20160111035513601/11/16 03:55:31  5-MIN KAAT 111155Z AUTO 06009KT 10SM CLR M10/M12 A3025 4080 88 2000 050/09 RMK AO2 SLP278 T11001117 11050 21106 58001
94299KAAT AAT20160111040011101/11/16 04:00:31  5-MIN KAAT 111200Z AUTO 07007KT 10SM CLR M09/M11 A3024 4080 88 2200 060/07 RMK AO2 T10891106
94299KAAT AAT20160111040511101/11/16 04:05:31  5-MIN KAAT 111205Z AUTO 07004KT 10SM CLR M08/M10 A3025 4080 88 2200 050/04 RMK AO2 T10831100
94299KAAT AAT20160111041011101/11/16 04:10:31  5-MIN KAAT 111210Z AUTO VRB03KT 10SM CLR M09/M11 A3025 4080 92 2100 VRB/03 RMK AO2 T10941106
94299KAAT AAT20160111041511101/11/16 04:15:31  5-MIN KAAT 111215Z AUTO 05006KT 10SM CLR M10/M11 A3025 4080 92 2000 040/06 RMK AO2 T11001111
94299KAAT AAT20160111042011101/11/16 04:20:31  5-MIN KAAT 111220Z AUTO 07005KT 10SM CLR M09/M12 A3024 4080 84 2100 050/05 RMK AO2 T10941117
94299KAAT AAT20160111042511101/11/16 04:25:31  5-MIN KAAT 111225Z AUTO 08006KT 10SM CLR M08/M10 A3024 4080 84 2300 070/06 RMK AO2 T10781100
94299KAAT AAT20160111043011101/11/16 04:30:31  5-MIN KAAT 111230Z AUTO 08003KT 10SM CLR M09/M10 A3024 4080 92 2200 070/03 RMK AO2 T10891100
94299KAAT AAT20160111043511101/11/16 04:35:31  5-MIN KAAT 111235Z AUTO 03003KT 10SM CLR M09/M10 A3025 4080 92 2200 010/03 RMK AO2 T10891100
94299KAAT AAT20160111044011101/11/16 04:40:31  5-MIN KAAT 111240Z AUTO 05003KT 10SM CLR M09/M11 A3025 4080 84 2200 040/03 RMK AO2 T10891111
94299KAAT AAT20160111044511101/11/16 04:45:31  5-MIN KAAT 111245Z AUTO 07004KT 10SM CLR M09/M11 A3025 4080 84 2200 060/04 RMK AO2 T10891111
94299KAAT AAT20160111045011801/11/16 04:50:31  5-MIN KAAT 111250Z AUTO 07004KT 10SM CLR M08/M10 A3025 4080 84 2300 060/04 RMK AO2 SLP275 T10781100
94299KAAT AAT20160111045511801/11/16 04:55:31  5-MIN KAAT 111255Z AUTO 08003KT 10SM CLR M07/M09 A3024 4080 84 2500 060/03 RMK AO2 SLP275 T10671089
94299KAAT AAT20160111050011101/11/16 05:00:31  5-MIN KAAT 111300Z AUTO VRB04KT 10SM CLR M07/M08 A3025 4080 88 2500 VRB/04 RMK AO2 T10671083
94299KAAT AAT20160111050511101/11/16 05:05:31  5-MIN KAAT 111305Z AUTO 00000KT 10SM CLR M07/M09 A3025 4080 88 2400 000/00 RMK AO2 T10721089
94299KAAT AAT20160111051011101/11/16 05:10:31  5-MIN KAAT 111310Z AUTO VRB03KT 10SM CLR M09/M11 A3025 4080 92 2100 VRB/03 RMK AO2 T10941106
94299KAAT AAT20160111051511101/11/16 05:15:31  5-MIN KAAT 111315Z AUTO 06003KT 10SM CLR M09/M11 A3025 4080 88 2100 050/03 RMK AO2 T10941111
94299KAAT AAT20160111052011101/11/16 05:20:31  5-MIN KAAT 111320Z AUTO 00000KT 10SM CLR M09/M12 A3025 4080 84 2100 000/00 RMK AO2 T10941117
94299KAAT AAT20160111052511101/11/16 05:25:31  5-MIN KAAT 111325Z AUTO 05005KT 10SM CLR M09/M11 A3025 4070 88 2200 030/05 RMK AO2 T10891106
94299KAAT AAT20160111053011101/11/16 05:30:31  5-MIN KAAT 111330Z AUTO 04003KT 10SM CLR M09/M11 A3026 4070 88 2200 030/03 RMK AO2 T10891106
94299KAAT AAT20160111053511101/11/16 05:35:31  5-MIN KAAT 111335Z AUTO 00000KT 10SM CLR M10/M11 A3026 4070 96 2000 000/00 RMK AO2 T11001106
94299KAAT AAT20160111054011101/11/16 05:40:31  5-MIN KAAT 111340Z AUTO 00000KT 10SM CLR M10/M11 A3026 4070 92 2000 000/00 RMK AO2 T11001111
94299KAAT AAT20160111054511101/11/16 05:45:31  5-MIN KAAT 111345Z AUTO 00000KT 10SM CLR M11/M12 A3026 4070 92 1900 000/00 RMK AO2 T11061117
94299KAAT AAT20160111055011801/11/16 05:50:31  5-MIN KAAT 111350Z AUTO 00000KT 10SM CLR M11/M12 A3026 4060 88 1900 000/00 RMK AO2 SLP290 T11061122
94299KAAT AAT20160111055511801/11/16 05:55:31  5-MIN KAAT 111355Z AUTO 00000KT 10SM CLR M11/M12 A3027 4060 92 1900 000/00 RMK AO2 SLP291 T11061117
94299KAAT AAT20160111060011101/11/16 06:00:31  5-MIN KAAT 111400Z AUTO 00000KT 10SM CLR M11/M12 A3027 4060 92 1900 000/00 RMK AO2 T11061117
94299KAAT AAT20160111060511001/11/16 06:05:31  5-MIN KAAT 111405Z AUTO VRB04KT 9SM CLR M09/M11 A3027 4060 88 2100 VRB/04 RMK AO2 T10941111
94299KAAT AAT20160111061011001/11/16 06:10:31  5-MIN KAAT 111410Z AUTO 09006KT 8SM CLR M09/M11 A3027 4060 88 2200 070/06 RMK AO2 T10891106
94299KAAT AAT20160111061511001/11/16 06:15:31  5-MIN KAAT 111415Z AUTO 08006KT 8SM CLR M08/M10 A3027 4060 88 2200 060/06 RMK AO2 T10831100
94299KAAT AAT20160111062011101/11/16 06:20:31  5-MIN KAAT 111420Z AUTO 07007KT 10SM CLR M09/M10 A3027 4060 92 2200 060/07 RMK AO2 T10891100
94299KAAT AAT20160111062511401/11/16 06:25:31  5-MIN KAAT 111425Z AUTO 07008KT 10SM FEW042 M09/M11 A3027 4060 88 2200 060/08 RMK AO2 T10891106
94299KAAT AAT20160111063011401/11/16 06:30:31  5-MIN KAAT 111430Z AUTO 07009KT 10SM FEW042 M09/M11 A3027 4060 88 2100 050/09 RMK AO2 T10891106
94299KAAT AAT20160111063511401/11/16 06:35:31  5-MIN KAAT 111435Z AUTO 08008KT 10SM FEW043 M09/M11 A3027 4060 88 2100 060/08 RMK AO2 T10941111
94299KAAT AAT20160111064011401/11/16 06:40:31  5-MIN KAAT 111440Z AUTO 06008KT 10SM FEW043 M09/M11 A3027 4060 88 2100 050/08 RMK AO2 T10941111
94299KAAT AAT20160111064511401/11/16 06:45:31  5-MIN KAAT 111445Z AUTO 07007KT 10SM FEW043 M09/M11 A3027 4060 84 2100 050/07 RMK AO2 T10891111
94299KAAT AAT20160111065012401/11/16 06:50:31  5-MIN KAAT 111450Z AUTO 00000KT 10SM CLR M09/M11 A3028 4050 88 2100 000/00 RMK AO2 SLP293 T10891106 58001
94299KAAT AAT20160111065512401/11/16 06:55:31  5-MIN KAAT 111455Z AUTO 08006KT 10SM CLR M09/M11 A3028 4050 88 2100 060/06 RMK AO2 SLP294 T10891106 53008
94299KAAT AAT20160111070011101/11/16 07:00:31  5-MIN KAAT 111500Z AUTO 07005KT 10SM CLR M09/M11 A3028 4050 84 2100 060/05 RMK AO2 T10891111
94299KAAT AAT20160111070511101/11/16 07:05:31  5-MIN KAAT 111505Z AUTO 00000KT 10SM CLR M09/M11 A3028 4050 88 2100 000/00 RMK AO2 T10891106
94299KAAT AAT20160111071011101/11/16 07:10:31  5-MIN KAAT 111510Z AUTO 00000KT 10SM CLR M09/M11 A3028 4050 92 2100 000/00 RMK AO2 T10941106
94299KAAT AAT20160112041511101/12/16 04:15:31  5-MIN KAAT 121215Z AUTO 02004KT 10SM CLR M04/M06 A3025 4080 92 2700 010/04 RMK AO2 T10441056
94299KAAT AAT20160112042011101/12/16 04:20:31  5-MIN KAAT 121220Z AUTO 36005KT 10SM CLR M04/M05 A3025 4080 96 2700 350/05 RMK AO2 T10441050
94299KAAT AAT20160112042511101/12/16 04:25:31  5-MIN KAAT 121225Z AUTO VRB03KT 10SM CLR M04/M04 A3025 4080 96 2800 VRB/03 RMK AO2 T10391044
94299KAAT AAT20160112043011101/12/16 04:30:31  5-MIN KAAT 121230Z AUTO 00000KT 10SM CLR M03/M04 A3025 4080 92 2900 000/00 RMK AO2 T10281039
94299KAAT AAT20160112043511101/12/16 04:35:31  5-MIN KAAT 121235Z AUTO 35003KT 10SM CLR M02/M03 A3025 4080 96 3000 340/03 RMK AO2 T10221028
94299KAAT AAT20160112044011101/12/16 04:40:31  5-MIN KAAT 121240Z AUTO 33003KT 10SM CLR M03/M03 A3024 4080 96 2900 320/03 RMK AO2 T10281033
94299KAAT AAT20160112044511101/12/16 04:45:31  5-MIN KAAT 121245Z AUTO 00000KT 10SM CLR M03/M04 A3024 4080 96 2900 000/00 RMK AO2 T10331039
94299KAAT AAT20160112045011801/12/16 04:50:31  5-MIN KAAT 121250Z AUTO 30003KT 10SM CLR M03/M04 A3025 4080 92 2900 290/03 RMK AO2 SLP259 T10281039
94299KAAT AAT20160112045511801/12/16 04:55:31  5-MIN KAAT 121255Z AUTO 30003KT 10SM CLR M02/M04 A3025 4080 88 3000 280/03 RMK AO2 SLP259 T10221039
94299KAAT AAT20160112050011101/12/16 05:00:31  5-MIN KAAT 121300Z AUTO 28003KT 10SM CLR M03/M04 A3025 4080 92 2900 260/03 RMK AO2 T10281039
94299KAAT AAT20160112050511101/12/16 05:05:31  5-MIN KAAT 121305Z AUTO 23004KT 10SM CLR M03/M04 A3025 4080 92 2900 210/04 RMK AO2 T10281039
94299KAAT AAT20160112051011101/12/16 05:10:31  5-MIN KAAT 121310Z AUTO 24003KT 10SM CLR M02/M03 A3024 4080 92 3100 220/03 RMK AO2 T10171028
94299KAAT AAT20160112051511101/12/16 05:15:31  5-MIN KAAT 121315Z AUTO 00000KT 10SM CLR M02/M03 A3024 4090 92 3100 000/00 RMK AO2 T10171028
94299KAAT AAT20160112052011101/12/16 05:20:31  5-MIN KAAT 121320Z AUTO 16003KT 10SM CLR M01/M02 A3024 4090 92 3200 140/03 RMK AO2 T10111022
94299KAAT AAT20160112052511101/12/16 05:25:31  5-MIN KAAT 121325Z AUTO VRB03KT 10SM CLR M01/M02 A3023 4090 88 3200 VRB/03 RMK AO2 T10061022
94299KAAT AAT20160112053011001/12/16 05:30:31  5-MIN KAAT 121330Z AUTO 11004KT 10SM CLR 00/M02 A3023 4100 88 3300 100/04 RMK AO2 T00001017
94299KAAT AAT20160112053511001/12/16 05:35:31  5-MIN KAAT 121335Z AUTO VRB04KT 10SM CLR 00/M02 A3023 4100 88 3300 VRB/04 RMK AO2 T00001017
94299KAAT AAT20160112054011001/12/16 05:40:31  5-MIN KAAT 121340Z AUTO VRB03KT 10SM CLR 00/M02 A3023 4090 88 3300 VRB/03 RMK AO2 T00001017
94299KAAT AAT20160112054511401/12/16 05:45:31  5-MIN KAAT 121345Z AUTO 08003KT 10SM FEW120 M01/M02 A3023 4100 92 3200 060/03 RMK AO2 T10061017
94299KAAT AAT20160112055012101/12/16 05:50:31  5-MIN KAAT 121350Z AUTO 10003KT 10SM FEW120 M01/M02 A3023 4100 88 3200 080/03 RMK AO2 SLP249 T10061022
94299KAAT AAT20160112055512101/12/16 05:55:31  5-MIN KAAT 121355Z AUTO VRB03KT 10SM SCT120 M01/M02 A3022 4100 88 3200 VRB/03 RMK AO2 SLP248 T10061022
94299KAAT AAT20160112060011401/12/16 06:00:31  5-MIN KAAT 121400Z AUTO 08003KT 10SM SCT120 M01/M03 A3022 4100 88 3200 070/03 RMK AO2 T10111028
94299KAAT AAT20160112060511401/12/16 06:05:31  5-MIN KAAT 121405Z AUTO 08003KT 10SM FEW120 M02/M03 A3022 4110 88 3100 070/03 RMK AO2 T10171033
94299KAAT AAT20160112061011401/12/16 06:10:31  5-MIN KAAT 121410Z AUTO 08003KT 10SM FEW120 M02/M03 A3022 4100 88 3100 060/03 RMK AO2 T10171033
94299KAAT AAT20160112061511401/12/16 06:15:31  5-MIN KAAT 121415Z AUTO 07003KT 10SM SCT110 M02/M03 A3022 4100 88 3100 050/03 RMK AO2 T10171033
94299KAAT AAT20160112062011401/12/16 06:20:31  5-MIN KAAT 121420Z AUTO 11003KT 10SM SCT120 M02/M03 A3022 4100 88 3100 100/03 RMK AO2 T10171033
94299KAAT AAT20160112062511401/12/16 06:25:31  5-MIN KAAT 121425Z AUTO 14006KT 10SM FEW120 M01/M03 A3022 4100 85 3200 120/06 RMK AO2 T10061028
94299KAAT AAT20160112063011301/12/16 06:30:31  5-MIN KAAT 121430Z AUTO 14006KT 10SM FEW110 01/M02 A3022 4100 82 3400 130/06 RMK AO2 T00061022
94299KAAT AAT20160112063511301/12/16 06:35:31  5-MIN KAAT 121435Z AUTO 18004KT 10SM FEW110 01/M02 A3022 4100 82 3400 160/04 RMK AO2 T00061022
94299KAAT AAT20160112064011301/12/16 06:40:31  5-MIN KAAT 121440Z AUTO 15004KT 10SM FEW110 01/M02 A3022 4110 82 3400 130/04 RMK AO2 T00061022
94299KAAT AAT20160112064510301/12/16 06:45:31  5-MIN KAAT 121445Z AUTO 10SM FEW120 01/M02 A3021 4110 82 3400 M /M RMK AO2 T00061022
94299KAAT AAT20160112065012301/12/16 06:50:31  5-MIN KAAT 121450Z AUTO 00000KT 10SM CLR 01/M02 A3021 4110 82 3400 000/00 RMK AO2 SLP242 T00061022 58009
94299KAAT AAT20160112065512301/12/16 06:55:31  5-MIN KAAT 121455Z AUTO 17003KT 10SM CLR 00/M02 A3021 4120 85 3300 160/03 RMK AO2 SLP241 T00001022 58013
94299KAAT AAT20160112070011601/12/16 07:00:31  5-MIN KAAT 121500Z AUTO 17010G16KT 10SM CLR 01/M02 A3021 4120 82 3400 160/10G16 RMK AO2 T00061022
94299KAAT AAT20160112070511601/12/16 07:05:31  5-MIN KAAT 121505Z AUTO 17011G16KT 10SM CLR 01/M02 A3020 4120 78 3500 160/11G16 RMK AO2 T00111022
94299KAAT AAT20160112071011001/12/16 07:10:31  5-MIN KAAT 121510Z AUTO 17013KT 10SM CLR 01/M02 A3020 4120 78 3500 160/13 RMK AO2 T00111022
94299KAAT AAT20160112071511001/12/16 07:15:31  5-MIN KAAT 121515Z AUTO 17012KT 10SM CLR 01/M02 A3020 4120 78 3500 160/12 RMK AO2 T00111022
94299KAAT AAT20160112072011001/12/16 07:20:31  5-MIN KAAT 121520Z AUTO 18013KT 10SM CLR 01/M02 A3020 4130 78 3500 160/13 RMK AO2 T00111022
94299KAAT AAT20160112072511001/12/16 07:25:31  5-MIN KAAT 121525Z AUTO 18013KT 10SM CLR 01/M02 A3019 4130 78 3500 160/13 RMK AO2 T00111022
94299KAAT AAT20160112073011001/12/16 07:30:31  5-MIN KAAT 121530Z AUTO 18013KT 10SM CLR 01/M03 A3019 4130 75 3500 160/13 RMK AO2 T00111028
94299KAAT AAT20160112073511001/12/16 07:35:31  5-MIN KAAT 121535Z AUTO 17012KT 10SM CLR 01/M03 A3019 4130 75 3500 150/12 RMK AO2 T00111028
94299KAAT AAT20160112074011001/12/16 07:40:31  5-MIN KAAT 121540Z AUTO 18014KT 10SM CLR 01/M03 A3019 4130 75 3500 160/14 RMK AO2 T00111028
94299KAAT AAT20160112074511001/12/16 07:45:31  5-MIN KAAT 121545Z AUTO 18013KT 10SM CLR 01/M03 A3019 4130 75 3500 160/13 RMK AO2 T00111028
94299KAAT AAT20160112075011701/12/16 07:50:31  5-MIN KAAT 121550Z AUTO 18012KT 10SM CLR 01/M03 A3019 4130 75 3500 160/12 RMK AO2 SLP237 T00111028
94299KAAT AAT20160112075511701/12/16 07:55:31  5-MIN KAAT 121555Z AUTO 18011KT 10SM CLR 01/M03 A3019 4140 75 3500 160/11 RMK AO2 SLP235 T00111028
94299KAAT AAT20160112080011001/12/16 08:00:31  5-MIN KAAT 121600Z AUTO 18012KT 10SM CLR 01/M03 A3018 4140 78 3400 160/12 RMK AO2 T00061028
94299KAAT AAT20160112080511001/12/16 08:05:31  5-MIN KAAT 121605Z AUTO 18012KT 10SM CLR 01/M03 A3018 4140 75 3500 160/12 RMK AO2 T00111028
94299KAAT AAT20160112081011001/12/16 08:10:31  5-MIN KAAT 121610Z AUTO 18009KT 10SM CLR 01/M03 A3018 4140 78 3400 170/09 RMK AO2 T00061028
94299KAAT AAT20160112081511001/12/16 08:15:31  5-MIN KAAT 121615Z AUTO 18009KT 10SM CLR 01/M03 A3018 4140 75 3500 160/09 RMK AO2 T00111028
94299KAAT AAT20160112082011001/12/16 08:20:31  5-MIN KAAT 121620Z AUTO 18012KT 10SM CLR 01/M03 A3018 4140 75 3500 170/12 RMK AO2 T00111028
94299KAAT AAT20160112082511001/12/16 08:25:31  5-MIN KAAT 121625Z AUTO 18010KT 10SM CLR 01/M03 A3018 4140 75 3500 170/10 RMK AO2 T00111028
94299KAAT AAT20160112083011001/12/16 08:30:31  5-MIN KAAT 121630Z AUTO 18008KT 10SM CLR 01/M03 A3019 4140 75 3500 170/08 RMK AO2 T00111028
94299KAAT AAT20160112083511001/12/16 08:35:31  5-MIN KAAT 121635Z AUTO 19009KT 10SM CLR 01/M03 A3019 4140 75 3500 180/09 RMK AO2 T00111028
94299KAAT AAT20160112084011001/12/16 08:40:31  5-MIN KAAT 121640Z AUTO 20009KT 10SM CLR 02/M03 A3019 4130 72 3600 180/09 RMK AO2 T00171028
94299KAAT AAT20160112084511001/12/16 08:45:31  5-MIN KAAT 121645Z AUTO 19009KT 10SM CLR 02/M02 A3019 4130 75 3600 180/09 RMK AO2 T00171022
94299KAAT AAT20160112085011701/12/16 08:50:31  5-MIN KAAT 121650Z AUTO 19008KT 10SM CLR 02/M03 A3019 4130 72 3600 180/08 RMK AO2 SLP234 T00171028
94299KAAT AAT20160112085511701/12/16 08:55:31  5-MIN KAAT 121655Z AUTO 18008KT 10SM CLR 02/M02 A3019 4140 75 3600 170/08 RMK AO2 SLP234 T00171022
94299KAAT AAT20160112090011001/12/16 09:00:31  5-MIN KAAT 121700Z AUTO 19008KT 10SM CLR 02/M02 A3019 4130 75 3600 180/08 RMK AO2 T00171022
94299KAAT AAT20160112090511001/12/16 09:05:31  5-MIN KAAT 121705Z AUTO 20009KT 10SM CLR 02/M02 A3019 4130 75 3600 180/09 RMK AO2 T00171022
94299KAAT AAT20160112091011001/12/16 09:10:31  5-MIN KAAT 121710Z AUTO 20008KT 10SM CLR 02/M03 A3019 4130 72 3600 180/08 RMK AO2 T00171028
94299KAAT AAT20160112091511001/12/16 09:15:31  5-MIN KAAT 121715Z AUTO 20008KT 10SM CLR 02/M02 A3019 4140 72 3600 180/08 RMK AO2 T00221022
94299KAAT AAT20160112092011001/12/16 09:20:31  5-MIN KAAT 121720Z AUTO 19010KT 10SM CLR 02/M02 A3018 4140 72 3600 170/10 RMK AO2 T00221022
94299KAAT AAT20160112092511001/12/16 09:25:31  5-MIN KAAT 121725Z AUTO 19011KT 10SM CLR 02/M02 A3018 4140 72 3600 180/11 RMK AO2 T00221022
94299KAAT AAT20160112093011001/12/16 09:30:31  5-MIN KAAT 121730Z AUTO 20009KT 10SM CLR 03/M03 A3018 4140 67 3700 180/09 RMK AO2 T00281028
94299KAAT AAT20160112093511001/12/16 09:35:31  5-MIN KAAT 121735Z AUTO 19008KT 10SM CLR 03/M02 A3019 4140 69 3700 170/08 RMK AO2 T00281022
94299KAAT AAT20160112094011001/12/16 09:40:31  5-MIN KAAT 121740Z AUTO 18006KT 10SM CLR 03/M02 A3019 4130 69 3700 160/06 RMK AO2 T00281022
94299KAAT AAT20160112094511001/12/16 09:45:31  5-MIN KAAT 121745Z AUTO 18007KT 10SM CLR 03/M02 A3019 4130 67 3800 160/07 RMK AO2 T00331022
94299KAAT AAT20160112095013501/12/16 09:50:31  5-MIN KAAT 121750Z AUTO 18007KT 10SM CLR 03/M02 A3019 4130 67 3800 170/07 RMK AO2 SLP233 T00331022 10033 21050 58013
94299KAAT AAT20160112095513501/12/16 09:55:31  5-MIN KAAT 121755Z AUTO 15006KT 10SM CLR 03/M03 A3019 4130 64 3800 140/06 RMK AO2 SLP233 T00331028 10033 21050 55005
94299KAAT AAT20160112100011001/12/16 10:00:31  5-MIN KAAT 121800Z AUTO 17006KT 10SM CLR 03/M02 A3019 4130 67 3800 160/06 RMK AO2 T00331022
94299KAAT AAT20160112100511001/12/16 10:05:31  5-MIN KAAT 121805Z AUTO 17007KT 10SM CLR 03/M03 A3019 4130 64 3700 160/07 RMK AO2 T00331028
94299KAAT AAT20160112101011001/12/16 10:10:31  5-MIN KAAT 121810Z AUTO 17007KT 10SM CLR 03/M03 A3019 4130 64 3700 160/07 RMK AO2 T00331028
94299KAAT AAT20160112101511001/12/16 10:15:31  5-MIN KAAT 121815Z AUTO 18009KT 10SM CLR 03/M03 A3019 4130 64 3700 160/09 RMK AO2 T00331028
94299KAAT AAT20160112102011001/12/16 10:20:31  5-MIN KAAT 121820Z AUTO 17010KT 10SM CLR 03/M03 A3019 4130 64 3800 160/10 RMK AO2 T00331028
94299KAAT AAT20160112102511001/12/16 10:25:31  5-MIN KAAT 121825Z AUTO 17010KT 10SM CLR 04/M03 A3019 4130 62 3800 150/10 RMK AO2 T00391028
94299KAAT AAT20160112103011001/12/16 10:30:31  5-MIN KAAT 121830Z AUTO 17011KT 10SM CLR 04/M02 A3019 4130 62 3900 150/11 RMK AO2 T00441022
94299KAAT AAT20160112103511001/12/16 10:35:31  5-MIN KAAT 121835Z AUTO 17011KT 10SM CLR 04/M03 A3019 4130 59 3900 150/11 RMK AO2 T00441028
94299KAAT AAT20160112104011001/12/16 10:40:31  5-MIN KAAT 121840Z AUTO 16011KT 10SM CLR 04/M02 A3019 4130 62 3900 150/11 RMK AO2 T00441022
94299KAAT AAT20160112104511001/12/16 10:45:31  5-MIN KAAT 121845Z AUTO 16011KT 10SM CLR 04/M03 A3019 4130 59 3900 140/11 RMK AO2 T00441028
94299KAAT AAT20160112105011701/12/16 10:50:31  5-MIN KAAT 121850Z AUTO 15011KT 10SM CLR 04/M03 A3019 4130 59 3900 140/11 RMK AO2 SLP233 T00441028
94299KAAT AAT20160112105511701/12/16 10:55:31  5-MIN KAAT 121855Z AUTO 15011KT 10SM CLR 05/M03 A3019 4130 57 3900 140/11 RMK AO2 SLP233 T00501028
94299KAAT AAT20160112110011001/12/16 11:00:31  5-MIN KAAT 121900Z AUTO 15010KT 10SM CLR 04/M03 A3019 4130 59 3900 130/10 RMK AO2 T00441028
94299KAAT AAT20160112110511301/12/16 11:05:31  5-MIN KAAT 121905Z AUTO 15009KT 10SM FEW090 04/M03 A3020 4130 59 3900 140/09 RMK AO2 T00441028
94299KAAT AAT20160112111011301/12/16 11:10:31  5-MIN KAAT 121910Z AUTO 15008KT 10SM SCT090 04/M03 A3019 4130 59 3900 130/08 RMK AO2 T00441028
94299KAAT AAT20160112111511301/12/16 11:15:31  5-MIN KAAT 121915Z AUTO 15009KT 10SM BKN090 04/M03 A3019 4130 59 3900 130/09 RMK AO2 T00441028
94299KAAT AAT20160112112011301/12/16 11:20:31  5-MIN KAAT 121920Z AUTO 15009KT 10SM BKN090 04/M03 A3018 4140 59 3900 130/09 RMK AO2 T00441028
94299KAAT AAT20160112112511301/12/16 11:25:31  5-MIN KAAT 121925Z AUTO 15008KT 10SM BKN090 04/M03 A3018 4140 59 3900 130/08 RMK AO2 T00441028
94299KAAT AAT20160112113011301/12/16 11:30:31  5-MIN KAAT 121930Z AUTO 14008KT 10SM BKN090 04/M03 A3017 4150 59 3900 130/08 RMK AO2 T00441028
94299KAAT AAT20160112113511301/12/16 11:35:31  5-MIN KAAT 121935Z AUTO 15010KT 10SM SCT090 04/M03 A3017 4150 59 3900 130/10 RMK AO2 T00441028
94299KAAT AAT20160112114011301/12/16 11:40:31  5-MIN KAAT 121940Z AUTO 14008KT 10SM FEW090 04/M03 A3017 4150 59 3900 130/08 RMK AO2 T00441028
94299KAAT AAT20160112114511301/12/16 11:45:31  5-MIN KAAT 121945Z AUTO 15008KT 10SM FEW085 05/M03 A3017 4150 57 4000 130/08 RMK AO2 T00501028
94299KAAT AAT20160112115012001/12/16 11:50:31  5-MIN KAAT 121950Z AUTO 15008KT 10SM SCT085 05/M03 A3016 4160 57 4000 140/08 RMK AO2 SLP220 T00501028
94299KAAT AAT20160112115512001/12/16 11:55:31  5-MIN KAAT 121955Z AUTO 16009KT 10SM SCT085 05/M03 A3016 4160 57 4000 140/09 RMK AO2 SLP220 T00501028
94299KAAT AAT20160112120011301/12/16 12:00:31  5-MIN KAAT 122000Z AUTO 16009KT 10SM FEW085 05/M03 A3016 4160 55 4000 140/09 RMK AO2 T00501033
94299KAAT AAT20160112120511301/12/16 12:05:31  5-MIN KAAT 122005Z AUTO 17008KT 10SM FEW085 05/M03 A3016 4160 57 4000 150/08 RMK AO2 T00501028
94299KAAT AAT20160112121011301/12/16 12:10:31  5-MIN KAAT 122010Z AUTO 17011KT 10SM SCT090 04/M03 A3015 4170 59 3900 160/11 RMK AO2 T00441028
94299KAAT AAT20160112121511301/12/16 12:15:31  5-MIN KAAT 122015Z AUTO 18010KT 10SM BKN090 04/M03 A3015 4170 59 3900 160/10 RMK AO2 T00441028
94299KAAT AAT20160112122011301/12/16 12:20:31  5-MIN KAAT 122020Z AUTO 18010KT 10SM SCT090 04/M03 A3015 4170 59 3900 160/10 RMK AO2 T00441028
94299KAAT AAT20160112122511301/12/16 12:25:31  5-MIN KAAT 122025Z AUTO 17010KT 10SM SCT090 05/M03 A3014 4180 57 4000 160/10 RMK AO2 T00501028
94299KAAT AAT20160112123011301/12/16 12:30:31  5-MIN KAAT 122030Z AUTO 18010KT 10SM SCT090 05/M03 A3014 4180 57 4000 160/10 RMK AO2 T00501028
94299KAAT AAT20160112123511301/12/16 12:35:31  5-MIN KAAT 122035Z AUTO 17009KT 10SM FEW090 06/M03 A3013 4190 55 4100 160/09 RMK AO2 T00561028
94299KAAT AAT20160112124011301/12/16 12:40:31  5-MIN KAAT 122040Z AUTO 17011KT 10SM FEW090 04/M03 A3013 4190 59 4000 160/11 RMK AO2 T00441028
94299KAAT AAT20160112124511001/12/16 12:45:31  5-MIN KAAT 122045Z AUTO 17009KT 10SM CLR 04/M03 A3012 4190 59 4000 160/09 RMK AO2 T00441028
94299KAAT AAT20160112125012301/12/16 12:50:31  5-MIN KAAT 122050Z AUTO 17011KT 10SM CLR 04/M03 A3012 4200 59 4000 160/11 RMK AO2 SLP207 T00441028 55005
94299KAAT AAT20160112125512301/12/16 12:55:31  5-MIN KAAT 122055Z AUTO 17011KT 10SM CLR 04/M03 A3012 4200 57 4000 160/11 RMK AO2 SLP206 T00441033 58022
94299KAAT AAT20160112130011001/12/16 13:00:31  5-MIN KAAT 122100Z AUTO 17012KT 10SM CLR 04/M03 A3011 4200 57 4000 160/12 RMK AO2 T00441033
94299KAAT AAT20160112130511001/12/16 13:05:31  5-MIN KAAT 122105Z AUTO 17011KT 10SM CLR 04/M03 A3011 4210 57 4000 160/11 RMK AO2 T00441033
94299KAAT AAT20160112131011001/12/16 13:10:31  5-MIN KAAT 122110Z AUTO 17011KT 10SM CLR 05/M03 A3010 4210 55 4100 160/11 RMK AO2 T00501033
94299KAAT AAT20160112131511001/12/16 13:15:31  5-MIN KAAT 122115Z AUTO 17011KT 10SM CLR 05/M03 A3010 4220 55 4100 160/11 RMK AO2 T00501033
94299KAAT AAT20160112132011001/12/16 13:20:31  5-MIN KAAT 122120Z AUTO 17011KT 10SM CLR 05/M03 A3009 4220 55 4100 150/11 RMK AO2 T00501033
94299KAAT AAT20160112132511001/12/16 13:25:31  5-MIN KAAT 122125Z AUTO 17009KT 10SM CLR 05/M04 A3009 4220 52 4100 160/09 RMK AO2 T00501039
94299KAAT AAT20160112133011001/12/16 13:30:31  5-MIN KAAT 122130Z AUTO 18008KT 10SM CLR 05/M03 A3009 4230 55 4100 160/08 RMK AO2 T00501033
94299KAAT AAT20160112133511001/12/16 13:35:31  5-MIN KAAT 122135Z AUTO 18008KT 10SM CLR 05/M03 A3009 4230 55 4100 160/08 RMK AO2 T00501033
94299KAAT AAT20160112134011001/12/16 13:40:31  5-MIN KAAT 122140Z AUTO 17008KT 10SM CLR 05/M03 A3009 4230 55 4100 160/08 RMK AO2 T00501033
94299KAAT AAT20160112134511001/12/16 13:45:31  5-MIN KAAT 122145Z AUTO 17007KT 10SM CLR 06/M03 A3008 4230 53 4100 150/07 RMK AO2 T00561033
94299KAAT AAT20160112135011701/12/16 13:50:31  5-MIN KAAT 122150Z AUTO 16007KT 10SM CLR 06/M03 A3008 4230 53 4100 140/07 RMK AO2 SLP193 T00561033
94299KAAT AAT20160112135511701/12/16 13:55:31  5-MIN KAAT 122155Z AUTO 16010KT 10SM CLR 06/M04 A3008 4240 50 4100 140/10 RMK AO2 SLP192 T00561039
94299KAAT AAT20160112140011001/12/16 14:00:31  5-MIN KAAT 122200Z AUTO 15011KT 10SM CLR 06/M03 A3007 4240 53 4200 140/11 RMK AO2 T00561033
94299KAAT AAT20160112140511001/12/16 14:05:31  5-MIN KAAT 122205Z AUTO 15012KT 10SM CLR 06/M03 A3007 4250 53 4200 130/12 RMK AO2 T00561033
94299KAAT AAT20160112141011001/12/16 14:10:31  5-MIN KAAT 122210Z AUTO 15009KT 10SM CLR 05/M03 A3007 4250 55 4100 140/09 RMK AO2 T00501033
94299KAAT AAT20160112141511001/12/16 14:15:31  5-MIN KAAT 122215Z AUTO 15010KT 10SM CLR 05/M03 A3006 4250 55 4100 130/10 RMK AO2 T00501033
94299KAAT AAT20160112142011001/12/16 14:20:31  5-MIN KAAT 122220Z AUTO 15009KT 10SM CLR 05/M03 A3006 4250 55 4100 130/09 RMK AO2 T00501033
94299KAAT AAT20160112142511001/12/16 14:25:31  5-MIN KAAT 122225Z AUTO 15010KT 10SM CLR 05/M03 A3006 4250 55 4100 140/10 RMK AO2 T00501033
94299KAAT AAT20160112143011001/12/16 14:30:31  5-MIN KAAT 122230Z AUTO 15009KT 10SM CLR 05/M03 A3006 4260 55 4100 130/09 RMK AO2 T00501033
94299KAAT AAT20160112143511001/12/16 14:35:31  5-MIN KAAT 122235Z AUTO 15008KT 10SM CLR 05/M03 A3006 4250 57 4100 140/08 RMK AO2 T00501028
94299KAAT AAT20160112144011001/12/16 14:40:31  5-MIN KAAT 122240Z AUTO 15010KT 10SM CLR 05/M03 A3006 4260 57 4100 130/10 RMK AO2 T00501028
94299KAAT AAT20160112144511001/12/16 14:45:31  5-MIN KAAT 122245Z AUTO 15009KT 10SM CLR 05/M03 A3006 4260 57 4100 140/09 RMK AO2 T00501028
94299KAAT AAT20160112145011701/12/16 14:50:31  5-MIN KAAT 122250Z AUTO 15008KT 10SM CLR 05/M03 A3006 4260 57 4100 130/08 RMK AO2 SLP188 T00501028
94299KAAT AAT20160112145511701/12/16 14:55:31  5-MIN KAAT 122255Z AUTO 15008KT 10SM CLR 05/M03 A3005 4260 57 4100 140/08 RMK AO2 SLP187 T00501028
94299KAAT AAT20160112150011001/12/16 15:00:31  5-MIN KAAT 122300Z AUTO 15007KT 10SM CLR 05/M03 A3005 4260 57 4100 130/07 RMK AO2 T00501028
94299KAAT AAT20160112150511001/12/16 15:05:31  5-MIN KAAT 122305Z AUTO 14008KT 10SM CLR 05/M03 A3005 4260 57 4100 120/08 RMK AO2 T00501028
94299KAAT AAT20160112151011001/12/16 15:10:31  5-MIN KAAT 122310Z AUTO 15007KT 10SM CLR 04/M03 A3005 4270 59 4100 130/07 RMK AO2 T00441028
94299KAAT AAT20160112151511001/12/16 15:15:31  5-MIN KAAT 122315Z AUTO 16009KT 10SM CLR 04/M03 A3004 4270 59 4100 140/09 RMK AO2 T00441028
94299KAAT AAT20160112152011601/12/16 15:20:31  5-MIN KAAT 122320Z AUTO 17013G17KT 10SM CLR 04/M03 A3004 4270 59 4100 150/13G17 RMK AO2 T00441028
94299KAAT AAT20160112152511001/12/16 15:25:31  5-MIN KAAT 122325Z AUTO 17012KT 10SM CLR 04/M03 A3004 4270 57 4100 150/12 RMK AO2 T00441033
94299KAAT AAT20160112153011001/12/16 15:30:31  5-MIN KAAT 122330Z AUTO 17010KT 10SM CLR 04/M03 A3004 4270 59 4100 150/10 RMK AO2 T00441028
94299KAAT AAT20160112153511001/12/16 15:35:31  5-MIN KAAT 122335Z AUTO 17012KT 10SM CLR 04/M03 A3004 4270 62 4000 150/12 RMK AO2 T00391028
94299KAAT AAT20160112154011001/12/16 15:40:31  5-MIN KAAT 122340Z AUTO 17013KT 10SM CLR 04/M03 A3004 4270 62 4000 160/13 RMK AO2 T00391028
94299KAAT AAT20160112154511001/12/16 15:45:31  5-MIN KAAT 122345Z AUTO 17014KT 10SM CLR 04/M03 A3004 4270 62 4000 150/14 RMK AO2 T00391028
94299KAAT AAT20160112155014101/12/16 15:50:31  5-MIN KAAT 122350Z AUTO 17016G20KT 10SM CLR 04/M03 A3004 4270 62 4000 160/16G20 RMK AO2 SLP183 T00391028 10056 20033 58022
94299KAAT AAT20160112155513501/12/16 15:55:31  5-MIN KAAT 122355Z AUTO 17017KT 10SM CLR 04/M03 A3003 4280 57 4100 160/17 RMK AO2 SLP182 T00441033 10056 20033 56025
94299KAAT AAT20160112160011001/12/16 16:00:31  5-MIN KAAT 130000Z AUTO 17017KT 10SM CLR 04/M03 A3003 4280 57 4100 160/17 RMK AO2 T00441033
94299KAAT AAT20160112160511001/12/16 16:05:31  5-MIN KAAT 130005Z AUTO 17018KT 10SM CLR 04/M03 A3003 4280 57 4100 160/18 RMK AO2 T00441033
94299KAAT AAT20160112161011001/12/16 16:10:31  5-MIN KAAT 130010Z AUTO 18017KT 10SM CLR 04/M03 A3003 4280 59 4000 160/17 RMK AO2 T00391033
94299KAAT AAT20160112181511001/12/16 18:15:31  5-MIN KAAT 130215Z AUTO 18013KT 10SM CLR 03/M04 A3002 4290 59 3900 170/13 RMK AO2 T00331039
94299KAAT AAT20160112182011001/12/16 18:20:31  5-MIN KAAT 130220Z AUTO 19013KT 10SM CLR 04/M04 A3002 4290 57 4000 170/13 RMK AO2 T00391039
94299KAAT AAT20160112182511001/12/16 18:25:31  5-MIN KAAT 130225Z AUTO 19012KT 10SM CLR 03/M04 A3002 4290 59 3900 170/12 RMK AO2 T00331039
94299KAAT AAT20160112183011001/12/16 18:30:31  5-MIN KAAT 130230Z AUTO 19011KT 10SM CLR 03/M04 A3002 4290 59 3900 170/11 RMK AO2 T00331039
94299KAAT AAT20160112183511001/12/16 18:35:31  5-MIN KAAT 130235Z AUTO 20010KT 10SM CLR 03/M04 A3002 4290 59 3900 180/10 RMK AO2 T00331039
94299KAAT AAT20160112184011001/12/16 18:40:31  5-MIN KAAT 130240Z AUTO 20009KT 10SM CLR 03/M04 A3002 4290 59 3900 180/09 RMK AO2 T00331039
94299KAAT AAT20160112184511001/12/16 18:45:31  5-MIN KAAT 130245Z AUTO 20009KT 10SM CLR 03/M03 A3002 4290 64 3900 190/09 RMK AO2 T00281033
94299KAAT AAT20160112185012301/12/16 18:50:31  5-MIN KAAT 130250Z AUTO 20009KT 10SM CLR 03/M03 A3002 4290 64 3900 190/09 RMK AO2 SLP175 T00281033 56025
94299KAAT AAT20160112185512301/12/16 18:55:31  5-MIN KAAT 130255Z AUTO 19008KT 10SM CLR 02/M03 A3002 4290 67 3800 180/08 RMK AO2 SLP176 T00221033 56005
94299KAAT AAT20160112190011001/12/16 19:00:31  5-MIN KAAT 130300Z AUTO 20008KT 10SM CLR 02/M03 A3002 4290 67 3800 180/08 RMK AO2 T00221033
94299KAAT AAT20160112190511001/12/16 19:05:31  5-MIN KAAT 130305Z AUTO 19009KT 10SM CLR 03/M03 A3002 4290 64 3900 170/09 RMK AO2 T00281033
94299KAAT AAT20160112191011001/12/16 19:10:31  5-MIN KAAT 130310Z AUTO 18009KT 10SM CLR 03/M03 A3001 4290 64 3900 170/09 RMK AO2 T00281033
94299KAAT AAT20160112191511001/12/16 19:15:31  5-MIN KAAT 130315Z AUTO 17009KT 10SM CLR 03/M03 A3001 4300 64 3900 160/09 RMK AO2 T00281033
94299KAAT AAT20160112192011001/12/16 19:20:31  5-MIN KAAT 130320Z AUTO 17009KT 10SM CLR 03/M03 A3001 4300 64 3900 160/09 RMK AO2 T00281033
94299KAAT AAT20160112192511001/12/16 19:25:31  5-MIN KAAT 130325Z AUTO 17010KT 10SM CLR 03/M03 A3001 4300 64 3900 160/10 RMK AO2 T00281033
94299KAAT AAT20160112193011001/12/16 19:30:31  5-MIN KAAT 130330Z AUTO 17011KT 10SM CLR 03/M04 A3001 4300 59 4000 160/11 RMK AO2 T00331039
94299KAAT AAT20160112193511001/12/16 19:35:31  5-MIN KAAT 130335Z AUTO 17009KT 10SM CLR 03/M04 A3001 4300 59 4000 160/09 RMK AO2 T00331039
94299KAAT AAT20160112194011001/12/16 19:40:31  5-MIN KAAT 130340Z AUTO 17011KT 10SM CLR 03/M03 A3000 4300 61 4000 160/11 RMK AO2 T00331033
94299KAAT AAT20160112194511001/12/16 19:45:31  5-MIN KAAT 130345Z AUTO 19009KT 10SM CLR 03/M03 A3001 4300 61 4000 180/09 RMK AO2 T00331033
94299KAAT AAT20160112195011701/12/16 19:50:31  5-MIN KAAT 130350Z AUTO 19010KT 10SM CLR 03/M03 A3001 4300 61 4000 170/10 RMK AO2 SLP169 T00331033
94299KAAT AAT20160112195511701/12/16 19:55:31  5-MIN KAAT 130355Z AUTO 19010KT 10SM CLR 03/M03 A3001 4300 61 4000 180/10 RMK AO2 SLP170 T00331033
94299KAAT AAT20160112200011001/12/16 20:00:31  5-MIN KAAT 130400Z AUTO 18010KT 10SM CLR 03/M03 A3001 4300 61 4000 170/10 RMK AO2 T00331033
94299KAAT AAT20160112200511601/12/16 20:05:31  5-MIN KAAT 130405Z AUTO 17012G19KT 10SM CLR 03/M03 A3000 4300 64 3900 160/12G19 RMK AO2 T00281033
94299KAAT AAT20160112201011001/12/16 20:10:31  5-MIN KAAT 130410Z AUTO 18013KT 10SM CLR 04/M04 A3000 4300 57 4000 160/13 RMK AO2 T00391039
94299KAAT AAT20160112201511001/12/16 20:15:31  5-MIN KAAT 130415Z AUTO 18012KT 10SM CLR 03/M04 A3000 4310 59 4000 160/12 RMK AO2 T00331039
94299KAAT AAT20160112202011001/12/16 20:20:31  5-MIN KAAT 130420Z AUTO 18012KT 10SM CLR 03/M03 A3000 4300 61 4000 170/12 RMK AO2 T00331033
94299KAAT AAT20160112202511001/12/16 20:25:31  5-MIN KAAT 130425Z AUTO 18012KT 10SM CLR 03/M03 A3000 4310 61 4000 160/12 RMK AO2 T00331033
94299KAAT AAT20160112203011001/12/16 20:30:31  5-MIN KAAT 130430Z AUTO 18010KT 10SM CLR 03/M03 A3000 4300 61 4000 170/10 RMK AO2 T00331033
94299KAAT AAT20160112203511001/12/16 20:35:31  5-MIN KAAT 130435Z AUTO 18011KT 10SM CLR 04/M04 A3000 4310 57 4000 170/11 RMK AO2 T00391039
94299KAAT AAT20160112204011001/12/16 20:40:31  5-MIN KAAT 130440Z AUTO 19012KT 10SM CLR 04/M04 A3001 4300 57 4000 170/12 RMK AO2 T00391039
94299KAAT AAT20160112204511001/12/16 20:45:31  5-MIN KAAT 130445Z AUTO 19011KT 10SM CLR 04/M04 A3000 4310 54 4000 180/11 RMK AO2 T00391044
94299KAAT AAT20160112205011701/12/16 20:50:31  5-MIN KAAT 130450Z AUTO 18010KT 10SM CLR 04/M04 A3000 4310 54 4000 160/10 RMK AO2 SLP164 T00391044
94299KAAT AAT20160112205511701/12/16 20:55:31  5-MIN KAAT 130455Z AUTO 17014KT 10SM CLR 04/M04 A3000 4310 52 4100 160/14 RMK AO2 SLP163 T00441044
94299KAAT AAT20160112210011001/12/16 21:00:31  5-MIN KAAT 130500Z AUTO 17014KT 10SM CLR 04/M04 A2999 4310 52 4100 150/14 RMK AO2 T00441044
94299KAAT AAT20160112210511001/12/16 21:05:31  5-MIN KAAT 130505Z AUTO 16013KT 10SM CLR 05/M04 A2998 4320 50 4200 150/13 RMK AO2 T00501044
94299KAAT AAT20160112211011301/12/16 21:10:31  5-MIN KAAT 130510Z AUTO 17015KT 10SM FEW050 04/M04 A3000 4310 52 4100 150/15 RMK AO2 T00441044
94299KAAT AAT20160112211511301/12/16 21:15:31  5-MIN KAAT 130515Z AUTO 16012KT 10SM SCT050 04/M04 A3000 4310 55 4100 140/12 RMK AO2 T00441039
94299KAAT AAT20160112212011301/12/16 21:20:31  5-MIN KAAT 130520Z AUTO 16009KT 10SM SCT050 04/M03 A2999 4320 59 4000 140/09 RMK AO2 T00391033
94299KAAT AAT20160112212511301/12/16 21:25:31  5-MIN KAAT 130525Z AUTO 14013KT 10SM BKN050 04/M04 A2999 4310 57 4000 130/13 RMK AO2 T00391039
94299KAAT AAT20160112213011301/12/16 21:30:31  5-MIN KAAT 130530Z AUTO 14012KT 10SM BKN049 04/M04 A2999 4320 57 4000 130/12 RMK AO2 T00391039
94299KAAT AAT20160112213511301/12/16 21:35:31  5-MIN KAAT 130535Z AUTO 15013KT 10SM BKN049 04/M04 A2999 4320 57 4100 130/13 RMK AO2 T00391039
94299KAAT AAT20160112214011301/12/16 21:40:31  5-MIN KAAT 130540Z AUTO 16014KT 10SM BKN049 04/M04 A2999 4320 55 4100 150/14 RMK AO2 T00441039
94299KAAT AAT20160112214512001/12/16 21:45:31  5-MIN KAAT 130545Z AUTO 16015KT 10SM BKN049 BKN055 05/M04 A2999 4320 52 4200 150/15 RMK AO2 T00501039
94299KAAT AAT20160112215013801/12/16 21:50:31  5-MIN KAAT 130550Z AUTO 16013KT 10SM BKN049 05/M04 A2999 4320 52 4200 140/13 RMK AO2 SLP155 T00501039 10050 20022 56005
94299KAAT AAT20160112215513801/12/16 21:55:31  5-MIN KAAT 130555Z AUTO 16015KT 10SM BKN050 05/M04 A2999 4320 52 4200 150/15 RMK AO2 SLP155 T00501039 10050 20022 58009
94299KAAT AAT20160112220011901/12/16 22:00:31  5-MIN KAAT 130600Z AUTO 16015G20KT 10SM BKN050 05/M04 A2998 4320 52 4200 150/15G20 RMK AO2 T00501039
94299KAAT AAT20160112220511901/12/16 22:05:31  5-MIN KAAT 130605Z AUTO 17014G20KT 10SM BKN050 05/M04 A2999 4320 52 4200 150/14G20 RMK AO2 T00501039
94299KAAT AAT20160112221011301/12/16 22:10:31  5-MIN KAAT 130610Z AUTO 16016KT 10SM OVC050 05/M04 A2998 4330 52 4200 150/16 RMK AO2 T00501039
94299KAAT AAT20160112221512001/12/16 22:15:31  5-MIN KAAT 130615Z AUTO 16017KT 10SM BKN050 OVC060 05/M04 A2998 4330 52 4200 140/17 RMK AO2 T00501039
94299KAAT AAT20160112222012601/12/16 22:20:31  5-MIN KAAT 130620Z AUTO 15013G21KT 10SM BKN050 OVC060 05/M03 A2998 4330 55 4200 130/13G21 RMK AO2 T00501033
94299KAAT AAT20160112222511901/12/16 22:25:31  5-MIN KAAT 130625Z AUTO 12010G18KT 10SM OVC048 04/M04 A2998 4330 55 4100 110/10G18 RMK AO2 T00441039
94299KAAT AAT20160112223011901/12/16 22:30:31  5-MIN KAAT 130630Z AUTO 14012G18KT 10SM OVC048 04/M04 A2998 4330 55 4100 120/12G18 RMK AO2 T00441039
94299KAAT AAT20160112223511301/12/16 22:35:31  5-MIN KAAT 130635Z AUTO 15012KT 10SM OVC048 04/M04 A2997 4330 55 4100 130/12 RMK AO2 T00441039
94299KAAT AAT20160112224011901/12/16 22:40:31  5-MIN KAAT 130640Z AUTO 15011G21KT 10SM OVC046 04/M03 A2997 4330 57 4100 140/11G21 RMK AO2 T00441033
94299KAAT AAT20160112224511901/12/16 22:45:31  5-MIN KAAT 130645Z AUTO 14014G21KT 10SM OVC046 04/M03 A2997 4340 62 4100 130/14G21 RMK AO2 T00391028
94299KAAT AAT20160112225012601/12/16 22:50:31  5-MIN KAAT 130650Z AUTO 14013G19KT 10SM OVC046 04/M03 A2997 4340 59 4100 130/13G19 RMK AO2 SLP149 T00391033
94299KAAT AAT20160112225512001/12/16 22:55:31  5-MIN KAAT 130655Z AUTO 15014KT 10SM OVC046 04/M03 A2996 4340 59 4100 140/14 RMK AO2 SLP147 T00391033
94299KAAT AAT20160112230011901/12/16 23:00:31  5-MIN KAAT 130700Z AUTO 16017G23KT 10SM OVC046 05/M03 A2996 4340 55 4200 140/17G23 RMK AO2 T00501033
94299KAAT AAT20160112230511901/12/16 23:05:31  5-MIN KAAT 130705Z AUTO 16015G24KT 10SM OVC048 05/M03 A2996 4340 55 4200 150/15G24 RMK AO2 T00501033
94299KAAT AAT20160112231012601/12/16 23:10:31  5-MIN KAAT 130710Z AUTO 16019G24KT 10SM BKN048 OVC060 05/M03 A2996 4340 55 4200 140/19G24 RMK AO2 T00501033
94299KAAT AAT20160112231514401/12/16 23:15:31  5-MIN KAAT 130715Z AUTO 17019G26KT 10SM BKN045 OVC060 04/M03 A2996 4350 57 4200 150/19G26 RMK AO2 PK WND 17026/0711 T00441033
94299KAAT AAT20160112232015101/12/16 23:20:31  5-MIN KAAT 130720Z AUTO 17024G33KT 10SM SCT040 BKN047 OVC055 04/M03 A2995 4350 59 4200 160/24G33 RMK AO2 PK WND 17033/0720 T00441028
94299KAAT AAT20160112232515101/12/16 23:25:31  5-MIN KAAT 130725Z AUTO 17018G33KT 10SM FEW041 BKN050 OVC070 04/M03 A2995 4350 59 4200 150/18G33 RMK AO2 PK WND 17033/0720 T00441028
94299KAAT AAT20160112233015101/12/16 23:30:31  5-MIN KAAT 130730Z AUTO 17019G31KT 10SM SCT044 BKN060 OVC070 04/M03 A2995 4350 59 4200 160/19G31 RMK AO2 PK WND 17033/0720 T00441028
94299KAAT AAT20160112233515101/12/16 23:35:31  5-MIN KAAT 130735Z AUTO 17022G28KT 10SM FEW041 BKN060 OVC070 04/M03 A2994 4360 59 4200 160/22G28 RMK AO2 PK WND 17033/0720 T00441028
94299KAAT AAT20160112234015101/12/16 23:40:31  5-MIN KAAT 130740Z AUTO 17024G31KT 10SM FEW041 BKN060 OVC075 04/M03 A2994 4370 59 4200 160/24G31 RMK AO2 PK WND 17033/0720 T00441028
94299KAAT AAT20160112234515101/12/16 23:45:31  5-MIN KAAT 130745Z AUTO 17019G31KT 10SM FEW045 BKN055 OVC070 04/M03 A2994 4360 59 4200 160/19G31 RMK AO2 PK WND 17033/0720 T00441028
94299KAAT AAT20160112235016801/12/16 23:50:31  5-MIN KAAT 130750Z AUTO 17023G29KT 10SM BKN048 BKN055 OVC070 04/M02 A2994 4370 62 4200 160/23G29 RMK AO2 PK WND 17033/0720 SLP137 T00441022 400561050
94299KAAT AAT20160112235516101/12/16 23:55:31  5-MIN KAAT 130755Z AUTO 17019G29KT 10SM FEW042 OVC050 04/M02 A2994 4370 62 4200 160/19G29 RMK AO2 PK WND 17033/0720 SLP136 T00441022 400561050
94299KAAT AAT20160113000012001/13/16 00:00:31  5-MIN KAAT 130800Z AUTO 17015KT 10SM FEW040 OVC050 04/M02 A2994 4360 62 4200 150/15 RMK AO2 T00441022
94299KAAT AAT20160113000512601/13/16 00:05:31  5-MIN KAAT 130805Z AUTO 16019G25KT 10SM BKN050 OVC060 04/M02 A2994 4370 62 4200 150/19G25 RMK AO2 T00441022
94299KAAT AAT20160113001014401/13/16 00:10:31  5-MIN KAAT 130810Z AUTO 16017G26KT 10SM BKN047 OVC060 04/M02 A2994 4370 64 4200 150/17G26 RMK AO2 PK WND 16026/0806 T00441017
94299KAAT AAT20160113001513701/13/16 00:15:31  5-MIN KAAT 130815Z AUTO 17017G26KT 10SM OVC047 04/M02 A2994 4360 64 4200 150/17G26 RMK AO2 PK WND 16026/0806 T00441017
94299KAAT AAT20160113002014401/13/16 00:20:31  5-MIN KAAT 130820Z AUTO 17014G25KT 10SM BKN047 OVC060 04/M02 A2994 4370 67 4100 160/14G25 RMK AO2 PK WND 16026/0806 T00391017
94299KAAT AAT20160113002515101/13/16 00:25:31  5-MIN KAAT 130825Z AUTO 17014G24KT 10SM SCT038 BKN047 OVC060 04/M02 A2994 4360 67 4100 150/14G24 RMK AO2 PK WND 16026/0806 T00391017
94299KAAT AAT20160113003014401/13/16 00:30:31  5-MIN KAAT 130830Z AUTO 17011G24KT 10SM BKN040 OVC055 04/M02 A2994 4370 67 4100 150/11G24 RMK AO2 PK WND 16026/0806 T00391017
94299KAAT AAT20160113003515101/13/16 00:35:31  5-MIN KAAT 130835Z AUTO 17011G19KT 10SM BKN040 BKN046 OVC055 04/M02 A2993 4370 67 4100 150/11G19 RMK AO2 PK WND 16026/0806 T00391017
94299KAAT AAT20160113004013801/13/16 00:40:31  5-MIN KAAT 130840Z AUTO 16013KT 10SM BKN041 OVC050 04/M02 A2993 4370 67 4100 150/13 RMK AO2 PK WND 16026/0806 T00391017
94299KAAT AAT20160113004513801/13/16 00:45:31  5-MIN KAAT 130845Z AUTO 16014KT 10SM BKN038 OVC048 04/M02 A2993 4370 67 4100 150/14 RMK AO2 PK WND 16026/0806 T00391017
94299KAAT AAT20160113005015701/13/16 00:50:31  5-MIN KAAT 130850Z AUTO 17016G22KT 10SM SCT038 OVC050 04/M02 A2993 4370 67 4100 150/16G22 RMK AO2 PK WND 16026/0806 SLP135 T00391017 58009
94299KAAT AAT20160113005515701/13/16 00:55:31  5-MIN KAAT 130855Z AUTO 16015G22KT 10SM SCT038 OVC046 04/M01 A2992 4380 70 4100 150/15G22 RMK AO2 PK WND 16026/0806 SLP133 T00391011 56019
94299KAAT AAT20160113010012001/13/16 01:00:31  5-MIN KAAT 130900Z AUTO 17014KT 10SM FEW038 OVC046 04/M01 A2992 4380 70 4100 150/14 RMK AO2 T00391011
94299KAAT AAT20160113010512001/13/16 01:05:31  5-MIN KAAT 130905Z AUTO 17013KT 10SM BKN043 OVC050 04/M01 A2992 4380 70 4100 150/13 RMK AO2 T00391011
94299KAAT AAT20160113011011301/13/16 01:10:31  5-MIN KAAT 130910Z AUTO 16010KT 10SM OVC048 04/M01 A2992 4390 70 4100 150/10 RMK AO2 T00391011
94299KAAT AAT20160113011511301/13/16 01:15:31  5-MIN KAAT 130915Z AUTO 17013KT 10SM OVC048 03/M01 A2991 4390 72 4100 150/13 RMK AO2 T00331011
94299KAAT AAT20160113012011301/13/16 01:20:31  5-MIN KAAT 130920Z AUTO 16014KT 10SM OVC048 04/M01 A2991 4390 70 4100 150/14 RMK AO2 T00391011
94299KAAT AAT20160113012512001/13/16 01:25:31  5-MIN KAAT 130925Z AUTO 16014KT 10SM BKN048 OVC090 04/M01 A2990 4400 70 4100 140/14 RMK AO2 T00391011
94299KAAT AAT20160113013012001/13/16 01:30:31  5-MIN KAAT 130930Z AUTO 17015KT 10SM BKN048 BKN090 04/M01 A2991 4390 70 4100 160/15 RMK AO2 T00391011
94299KAAT AAT20160113013512001/13/16 01:35:31  5-MIN KAAT 130935Z AUTO 17012KT 10SM BKN048 BKN090 03/M01 A2991 4390 76 4100 160/12 RMK AO2 T00331006
94299KAAT AAT20160113014012001/13/16 01:40:31  5-MIN KAAT 130940Z AUTO 17010KT 10SM SCT048 OVC090 03/M01 A2991 4390 76 4100 160/10 RMK AO2 T00331006
94299KAAT AAT20160113014512001/13/16 01:45:31  5-MIN KAAT 130945Z AUTO 17009KT 10SM FEW048 BKN090 03/M01 A2990 4400 76 4100 160/09 RMK AO2 T00331006
94299KAAT AAT20160113015013401/13/16 01:50:31  5-MIN KAAT 130950Z AUTO 17011KT 10SM FEW050 SCT060 BKN090 03/M01 A2990 4400 76 4100 150/11 RMK AO2 SLP124 T00331006
94299KAAT AAT20160113015513401/13/16 01:55:31  5-MIN KAAT 130955Z AUTO 17010KT 10SM SCT050 BKN060 OVC090 03/M01 A2989 4410 76 4100 150/10 RMK AO2 SLP122 T00331006
94299KAAT AAT20160113020012001/13/16 02:00:31  5-MIN KAAT 131000Z AUTO 17010KT 10SM BKN055 OVC090 03/M01 A2989 4410 76 4100 150/10 RMK AO2 T00331006
94299KAAT AAT20160113020512701/13/16 02:05:31  5-MIN KAAT 131005Z AUTO 16008KT 10SM FEW049 BKN060 OVC090 03/M01 A2989 4410 79 4000 150/08 RMK AO2 T00281006
94299KAAT AAT20160113021012701/13/16 02:10:31  5-MIN KAAT 131010Z AUTO 16007KT 10SM FEW049 BKN055 OVC070 03/M01 A2989 4410 79 4000 150/07 RMK AO2 T00281006
94299KAAT AAT20160113021511301/13/16 02:15:31  5-MIN KAAT 131015Z AUTO 16008KT 10SM OVC055 03/M01 A2989 4410 76 4100 150/08 RMK AO2 T00331006
94299KAAT AAT20160113022011301/13/16 02:20:31  5-MIN KAAT 131020Z AUTO 17008KT 10SM OVC055 03/M01 A2989 4410 76 4100 150/08 RMK AO2 T00331006
94299KAAT AAT20160113022511301/13/16 02:25:31  5-MIN KAAT 131025Z AUTO 17009KT 10SM OVC055 03/M01 A2990 4400 72 4100 150/09 RMK AO2 T00331011
94299KAAT AAT20160113023011301/13/16 02:30:31  5-MIN KAAT 131030Z AUTO 17008KT 10SM OVC055 03/M01 A2989 4410 72 4100 150/08 RMK AO2 T00331011
94299KAAT AAT20160113023511301/13/16 02:35:31  5-MIN KAAT 131035Z AUTO 17007KT 10SM OVC055 03/M01 A2989 4410 72 4100 150/07 RMK AO2 T00331011
94299KAAT AAT20160113024011301/13/16 02:40:31  5-MIN KAAT 131040Z AUTO 17010KT 10SM OVC055 03/M01 A2989 4410 72 4100 150/10 RMK AO2 T00331011
94299KAAT AAT20160113024511301/13/16 02:45:31  5-MIN KAAT 131045Z AUTO 17010KT 10SM OVC055 04/M01 A2989 4410 70 4200 150/10 RMK AO2 T00391011
94299KAAT AAT20160113025012001/13/16 02:50:31  5-MIN KAAT 131050Z AUTO 17011KT 10SM OVC050 04/M01 A2989 4410 70 4200 160/11 RMK AO2 SLP121 T00391011
94299KAAT AAT20160113025512701/13/16 02:55:31  5-MIN KAAT 131055Z AUTO 18009KT 10SM BKN050 OVC055 03/M01 A2988 4410 72 4100 160/09 RMK AO2 SLP119 T00331011
94299KAAT AAT20160113030012701/13/16 03:00:31  5-MIN KAAT 131100Z AUTO 17009KT 10SM FEW032 BKN047 OVC055 03/M01 A2988 4420 72 4100 160/09 RMK AO2 T00331011
94299KAAT AAT20160113030512701/13/16 03:05:31  5-MIN KAAT 131105Z AUTO 18009KT 10SM FEW032 BKN049 OVC055 03/M01 A2987 4420 72 4100 170/09 RMK AO2 T00331011
94299KAAT AAT20160113031012001/13/16 03:10:31  5-MIN KAAT 131110Z AUTO 19008KT 10SM FEW033 OVC049 03/M01 A2987 4420 72 4100 170/08 RMK AO2 T00331011
94299KAAT AAT20160113031512001/13/16 03:15:31  5-MIN KAAT 131115Z AUTO 19009KT 10SM FEW033 OVC050 03/M01 A2988 4420 76 4100 170/09 RMK AO2 T00331006
94299KAAT AAT20160113032012001/13/16 03:20:31  5-MIN KAAT 131120Z AUTO 19008KT 10SM FEW033 OVC048 03/M01 A2987 4420 79 4000 170/08 RMK AO2 T00281006
94299KAAT AAT20160113032512001/13/16 03:25:31  5-MIN KAAT 131125Z AUTO 18007KT 10SM FEW033 OVC048 03/M01 A2987 4430 79 4100 170/07 RMK AO2 T00281006
94299KAAT AAT20160113033011301/13/16 03:30:31  5-MIN KAAT 131130Z AUTO 18008KT 10SM OVC055 03/M01 A2986 4430 79 4100 170/08 RMK AO2 T00281006
94299KAAT AAT20160113033512001/13/16 03:35:31  5-MIN KAAT 131135Z AUTO 18009KT 10SM FEW042 OVC055 03/M01 A2986 4440 75 4100 160/09 RMK AO2 T00281011
94299KAAT AAT20160113034012001/13/16 03:40:31  5-MIN KAAT 131140Z AUTO 17009KT 10SM BKN050 OVC070 03/M01 A2986 4440 75 4100 160/09 RMK AO2 T00281011
94299KAAT AAT20160113034512001/13/16 03:45:31  5-MIN KAAT 131145Z AUTO 17009KT 10SM BKN050 OVC070 03/M01 A2986 4440 75 4100 160/09 RMK AO2 T00281011
94299KAAT AAT20160113035013801/13/16 03:50:31  5-MIN KAAT 131150Z AUTO 17009KT 10SM OVC050 03/M01 A2986 4440 72 4100 160/09 RMK AO2 SLP111 T00331011 10050 20028 56019
94299KAAT AAT20160113035513801/13/16 03:55:31  5-MIN KAAT 131155Z AUTO 19007KT 10SM OVC050 03/M01 A2986 4440 75 4100 170/07 RMK AO2 SLP111 T00281011 10050 20028 56020
94299KAAT AAT20160113040011301/13/16 04:00:31  5-MIN KAAT 131200Z AUTO 19009KT 10SM OVC048 03/M01 A2985 4450 79 4100 170/09 RMK AO2 T00281006
94299KAAT AAT20160113040511301/13/16 04:05:31  5-MIN KAAT 131205Z AUTO 18010KT 10SM OVC046 03/M01 A2985 4450 79 4100 160/10 RMK AO2 T00281006
94299KAAT AAT20160113041011301/13/16 04:10:31  5-MIN KAAT 131210Z AUTO 18011KT 10SM OVC044 03/M01 A2984 4460 79 4100 170/11 RMK AO2 T00281006
94299KAAT AAT20160113041511301/13/16 04:15:31  5-MIN KAAT 131215Z AUTO 18012KT 10SM OVC044 03/M01 A2984 4450 75 4100 170/12 RMK AO2 T00281011
94299KAAT AAT20160113042011301/13/16 04:20:31  5-MIN KAAT 131220Z AUTO 19011KT 10SM OVC040 03/M01 A2984 4450 75 4100 170/11 RMK AO2 T00281011
94299KAAT AAT20160113042512801/13/16 04:25:31  5-MIN KAAT 131225Z AUTO 18013KT 10SM UP OVC040 03/M01 A2985 4450 75 4100 170/13 RMK AO2 UPB23 P0000 T00281011
94299KAAT AAT20160113043012801/13/16 04:30:31  5-MIN KAAT 131230Z AUTO 18012KT 10SM UP OVC040 03/M01 A2984 4460 79 4100 160/12 RMK AO2 UPB23 P0000 T00281006
94299KAAT AAT20160113043513501/13/16 04:35:31  5-MIN KAAT 131235Z AUTO 19011KT 10SM UP BKN038 OVC080 03/M01 A2984 4460 79 4100 170/11 RMK AO2 UPB23 P0000 T00281006
94299KAAT AAT20160113044013501/13/16 04:40:31  5-MIN KAAT 131240Z AUTO 18010KT 10SM UP BKN036 OVC075 03/M01 A2984 4460 79 4100 170/10 RMK AO2 UPB23 P0000 T00281006
94299KAAT AAT20160113044513501/13/16 04:45:31  5-MIN KAAT 131245Z AUTO 18008KT 10SM BKN036 OVC075 03/M01 A2983 4460 79 4100 160/08 RMK AO2 UPB23E45 P0000 T00281006
94299KAAT AAT20160113045014201/13/16 04:50:31  5-MIN KAAT 131250Z AUTO 18012KT 10SM BKN038 OVC075 03/M01 A2983 4460 79 4100 160/12 RMK AO2 UPB23E45 SLP105 P0000 T00281006
94299KAAT AAT20160113045514201/13/16 04:55:31  5-MIN KAAT 131255Z AUTO 18011KT 10SM BKN040 OVC075 03/M01 A2984 4460 79 4100 170/11 RMK AO2 UPB23E45 SLP107 P0000 T00281006
94299KAAT AAT20160113050013601/13/16 05:00:31  5-MIN KAAT 131300Z AUTO 18011KT 10SM UP BKN037 OVC075 03/00 A2984 4460 82 4100 160/11 RMK AO2 UPB1258 P0000 T00280000
94299KAAT AAT20160113050514201/13/16 05:05:31  5-MIN KAAT 131305Z AUTO 18013G19KT 10SM UP BKN035 OVC075 03/00 A2984 4460 82 4100 160/13G19 RMK AO2 UPB1258 P0000 T00280000
94299KAAT AAT20160113051014301/13/16 05:10:31  5-MIN KAAT 131310Z AUTO 18013G19KT 10SM UP FEW028 OVC035 03/M01 A2984 4450 79 4100 160/13G19 RMK AO2 UPB1258 P0000 T00281006
94299KAAT AAT20160113051514401/13/16 05:15:31  5-MIN KAAT 131315Z AUTO 17017G20KT 10SM OVC035 03/M01 A2984 4450 79 4100 160/17G20 RMK AO2 UPB1258E13RAB13E15 P0000 T00281006
94299KAAT AAT20160113052013801/13/16 05:20:31  5-MIN KAAT 131320Z AUTO 17014KT 10SM UP OVC033 03/M01 A2984 4460 79 4100 160/14 RMK AO2 UPB1258RAB13E18 P0000 T00281006
94299KAAT AAT20160113052515101/13/16 05:25:31  5-MIN KAAT 131325Z AUTO 17014G22KT 10SM UP FEW031 OVC038 03/M01 A2984 4460 79 4100 160/14G22 RMK AO2 UPB1258RAB13E18 P0000 T00281006
94299KAAT AAT20160113053015101/13/16 05:30:31  5-MIN KAAT 131330Z AUTO 16015G22KT 10SM UP FEW029 OVC041 03/M01 A2984 4460 79 4100 150/15G22 RMK AO2 UPB1258RAB13E18 P0000 T00281006
94299KAAT AAT20160113053515701/13/16 05:35:31  5-MIN KAAT 131335Z AUTO 17013G21KT 10SM UP FEW032 BKN043 OVC075 03/00 A2984 4460 82 4100 150/13G21 RMK AO2 UPB1258RAB13E18 P0000 T00280000
94299KAAT AAT20160113054015801/13/16 05:40:31  5-MIN KAAT 131340Z AUTO 16014G21KT 10SM FEW032 BKN043 OVC065 03/M01 A2984 4450 79 4100 150/14G21 RMK AO2 UPB1258E40RAB13E18 P0000 T00281006
94299KAAT AAT20160113054515701/13/16 05:45:31  5-MIN KAAT 131345Z AUTO 17014G21KT 10SM FEW032 BKN041 OVC070 03/00 A2985 4450 82 4100 150/14G21 RMK AO2 UPB1258E40RAB13E18 P0000 T00280000
94299KAAT AAT20160113055015101/13/16 05:50:31  5-MIN KAAT 131350Z AUTO 16014KT 10SM UP BKN039 OVC065 03/00 A2985 4450 82 4100 150/14 RMK AO2 UPB1258RAB13E18 SLP110 P0000 T00280000
94299KAAT AAT20160113055515101/13/16 05:55:31  5-MIN KAAT 131355Z AUTO 16014KT 10SM UP BKN037 OVC065 03/00 A2985 4450 82 4100 150/14 RMK AO2 UPB1258RAB13E18 SLP110 P0000 T00280000
94299KAAT AAT20160113060013701/13/16 06:00:31  5-MIN KAAT 131400Z AUTO 16012G20KT 10SM BKN035 OVC070 03/00 A2985 4450 82 4100 150/12G20 RMK AO2 UPE00 P0000 T00280000
94299KAAT AAT20160113060513901/13/16 06:05:31  5-MIN KAAT 131405Z AUTO 16014G20KT 10SM -RA OVC033 03/00 A2984 4450 82 4100 140/14G20 RMK AO2 UPE05RAB03 P0000 T00280000
94299KAAT AAT20160113061013701/13/16 06:10:31  5-MIN KAAT 131410Z AUTO 16015G22KT 8SM RA OVC029 03/01 A2984 4450 85 4100 150/15G22 RMK AO2 UPE05RAB03 P0001 T00280006
94299KAAT AAT20160113061515201/13/16 06:15:31  5-MIN KAAT 131415Z AUTO 17011G22KT 8SM -RA FEW022 BKN029 OVC055 03/01 A2985 4450 85 4100 150/11G22 RMK AO2 UPE05RAB03 P0002 T00280006
94299KAAT AAT20160113062014001/13/16 06:20:31  5-MIN KAAT 131420Z AUTO 16009KT 10SM -RA BKN031 OVC055 03/01 A2984 4450 85 4100 150/09 RMK AO2 UPE05RAB03 P0002 T00280006
94299KAAT AAT20160113062515801/13/16 06:25:31  5-MIN KAAT 131425Z AUTO 17011KT 10SM FEW025 BKN033 OVC055 03/01 A2984 4450 85 4100 150/11 RMK AO2 UPE05B23E24RAB03E23B24E25 P0002 T00280006
94299KAAT AAT20160113063016401/13/16 06:30:31  5-MIN KAAT 131430Z AUTO 17013G21KT 10SM FEW025 BKN035 OVC055 03/01 A2985 4450 82 4100 150/13G21 RMK AO2 UPE05B23E24RAB03E23B24E25 P0002 T00330006
94299KAAT AAT20160113063516401/13/16 06:35:31  5-MIN KAAT 131435Z AUTO 17013G21KT 10SM FEW025 SCT040 OVC055 03/01 A2984 4450 82 4200 160/13G21 RMK AO2 UPE05B23E24RAB03E23B24E25 P0002 T00330006
94299KAAT AAT20160113064015801/13/16 06:40:31  5-MIN KAAT 131440Z AUTO 17011KT 10SM FEW025 SCT037 OVC055 03/01 A2984 4460 85 4100 160/11 RMK AO2 UPE05B23E24RAB03E23B24E25 P0002 T00280006
94299KAAT AAT20160113064515801/13/16 06:45:31  5-MIN KAAT 131445Z AUTO 17011KT 10SM FEW025 FEW032 OVC055 03/01 A2984 4450 82 4200 150/11 RMK AO2 UPE05B23E24RAB03E23B24E25 P0002 T00330006
94299KAAT AAT20160113065017701/13/16 06:50:31  5-MIN KAAT 131450Z AUTO 17014KT 10SM FEW025 FEW037 OVC055 03/01 A2984 4450 85 4100 160/14 RMK AO2 UPE05B23E24RAB03E23B24E25 SLP110 P0002 60002 T00280006 56020
94299KAAT AAT20160113065517601/13/16 06:55:31  5-MIN KAAT 131455Z AUTO 17013G18KT 10SM FEW037 BKN055 03/00 A2985 4450 82 4100 160/13G18 RMK AO2 UPE05B23E24RAB03E23B24E25 SLP111 P0002 60002 T00280000 56003
94299KAAT AAT20160113070012501/13/16 07:00:31  5-MIN KAAT 131500Z AUTO 17016G21KT 10SM BKN050 BKN065 03/00 A2984 4450 82 4100 160/16G21 RMK AO2 T00280000
94299KAAT AAT20160113070511801/13/16 07:05:31  5-MIN KAAT 131505Z AUTO 17015G21KT 10SM OVC055 03/00 A2984 4450 79 4200 150/15G21 RMK AO2 T00330000
94299KAAT AAT20160113071011901/13/16 07:10:31  5-MIN KAAT 131510Z AUTO 17015KT 10SM BKN050 OVC060 03/00 A2984 4450 82 4100 150/15 RMK AO2 T00280000
94299KAAT AAT20160113071515001/13/16 07:15:31  5-MIN KAAT 131515Z AUTO 17018G26KT 10SM BKN050 BKN060 BKN075 03/00 A2984 4460 82 4100 150/18G26 RMK AO2 PK WND 17026/1515 T00280000
94299KAAT AAT20160113072014301/13/16 07:20:31  5-MIN KAAT 131520Z AUTO 18019G26KT 10SM BKN050 BKN070 03/00 A2984 4460 79 4200 160/19G26 RMK AO2 PK WND 17026/1515 T00330000
94299KAAT AAT20160113072514301/13/16 07:25:31  5-MIN KAAT 131525Z AUTO 17018G26KT 10SM SCT050 OVC065 03/00 A2984 4460 79 4200 150/18G26 RMK AO2 PK WND 17026/1515 T00330000
94299KAAT AAT20160113073015001/13/16 07:30:31  5-MIN KAAT 131530Z AUTO 17014G24KT 10SM FEW040 SCT050 OVC065 03/00 A2985 4450 82 4100 160/14G24 RMK AO2 PK WND 17026/1515 T00280000
94299KAAT AAT20160113073514401/13/16 07:35:31  5-MIN KAAT 131535Z AUTO 18015KT 10SM SCT038 BKN048 OVC065 03/00 A2985 4450 82 4100 160/15 RMK AO2 PK WND 17026/1515 T00280000
94299KAAT AAT20160113074014401/13/16 07:40:31  5-MIN KAAT 131540Z AUTO 18012KT 10SM FEW028 BKN036 OVC065 03/00 A2986 4440 82 4100 170/12 RMK AO2 PK WND 17026/1515 T00280000
94299KAAT AAT20160113074516001/13/16 07:45:31  5-MIN KAAT 131545Z AUTO 18013KT 10SM -RA FEW023 BKN030 OVC065 03/00 A2986 4440 82 4100 170/13 RMK AO2 PK WND 17026/1515 RAB45 P0000 T00280000
94299KAAT AAT20160113075015001/13/16 07:50:31  5-MIN KAAT 131550Z AUTO 20011KT 10SM -RA BKN025 BKN038 OVC065 03/01 A2986 4440 85 4100 180/11 RMK AO2 PK WND 17026/1515 RAB45 P0000
94299KAAT AAT20160113075516001/13/16 07:55:31  5-MIN KAAT 131555Z AUTO 21008KT 10SM -RA BKN025 OVC038 02/01 A2986 4430 89 4000 200/08 RMK AO2 PK WND 17026/1515 RAB45 SLP118 P0000 T00220006
94299KAAT AAT20160113080012901/13/16 08:00:31  5-MIN KAAT 131600Z AUTO 21009KT 10SM -RA FEW020 OVC026 02/01 A2987 4430 89 4000 190/09 RMK AO2 P0000 T00220006
94299KAAT AAT20160113080512201/13/16 08:05:31  5-MIN KAAT 131605Z AUTO 20010KT 10SM -RA OVC022 03/01 A2986 4430 85 4100 180/10 RMK AO2 P0000 T00280006
94299KAAT AAT20160113081012201/13/16 08:10:31  5-MIN KAAT 131610Z AUTO 19012KT 10SM -RA OVC020 02/01 A2987 4430 89 4000 170/12 RMK AO2 P0001 T00220006
94299KAAT AAT20160113081512201/13/16 08:15:31  5-MIN KAAT 131615Z AUTO 18011KT 10SM -RA OVC020 02/01 A2987 4430 89 4000 170/11 RMK AO2 P0001 T00220006
94299KAAT AAT20160113082013201/13/16 08:20:31  5-MIN KAAT 131620Z AUTO 18010KT 10SM OVC020 02/01 A2987 4430 89 4000 170/10 RMK AO2 RAE16UPB16E18 P0001 T00220006
94299KAAT AAT20160113082514601/13/16 08:25:31  5-MIN KAAT 131625Z AUTO 18009KT 10SM SCT020 BKN024 OVC032 02/01 A2987 4430 89 4000 170/09 RMK AO2 RAE16UPB16E18 P0001 T00220006
94299KAAT AAT20160113083013901/13/16 08:30:31  5-MIN KAAT 131630Z AUTO 17011KT 10SM BKN020 OVC029 02/01 A2987 4430 89 4000 160/11 RMK AO2 RAE16UPB16E18 P0001 T00220006
94299KAAT AAT20160113083514601/13/16 08:35:31  5-MIN KAAT 131635Z AUTO 17011KT 10SM SCT020 BKN025 OVC030 02/01 A2987 4430 89 4000 160/11 RMK AO2 RAE16UPB16E18 P0001 T00220006
94299KAAT AAT20160113084014601/13/16 08:40:31  5-MIN KAAT 131640Z AUTO 18010KT 10SM FEW020 BKN027 OVC060 02/01 A2987 4420 89 4000 160/10 RMK AO2 RAE16UPB16E18 P0001 T00220006
94299KAAT AAT20160113084514601/13/16 08:45:31  5-MIN KAAT 131645Z AUTO 18009KT 10SM FEW020 BKN027 OVC120 02/01 A2987 4430 89 4000 170/09 RMK AO2 RAE16UPB16E18 P0001 T00220006
94299KAAT AAT20160113085015301/13/16 08:50:31  5-MIN KAAT 131650Z AUTO 17008KT 10SM BKN028 BKN034 BKN120 02/01 A2987 4430 89 4000 150/08 RMK AO2 RAE16UPB16E18 SLP116 P0001 T00220006
94299KAAT AAT20160113085514601/13/16 08:55:31  5-MIN KAAT 131655Z AUTO 18006KT 10SM BKN028 BKN120 03/01 A2987 4430 85 4100 160/06 RMK AO2 RAE16UPB16E18 SLP116 P0001 T00280006
94299KAAT AAT20160113090011901/13/16 09:00:31  5-MIN KAAT 131700Z AUTO 18008KT 10SM SCT028 BKN120 03/01 A2988 4420 85 4000 160/08 RMK AO2 T00280006
94299KAAT AAT20160113090511901/13/16 09:05:31  5-MIN KAAT 131705Z AUTO 17006KT 10SM SCT028 SCT120 03/01 A2988 4420 85 4000 150/06 RMK AO2 T00280006
94299KAAT AAT20160113091011901/13/16 09:10:31  5-MIN KAAT 131710Z AUTO 17007KT 10SM FEW028 SCT120 03/01 A2988 4410 85 4000 160/07 RMK AO2 T00280006
94299KAAT AAT20160113091511201/13/16 09:15:31  5-MIN KAAT 131715Z AUTO 18008KT 10SM FEW030 03/01 A2988 4420 85 4000 160/08 RMK AO2 T00280006
94299KAAT AAT20160113092011901/13/16 09:20:31  5-MIN KAAT 131720Z AUTO 20006KT 10SM FEW027 FEW032 03/00 A2988 4410 82 4000 190/06 RMK AO2 T00280000
94299KAAT AAT20160113092511901/13/16 09:25:31  5-MIN KAAT 131725Z AUTO 21005KT 10SM FEW028 SCT035 03/01 A2988 4410 85 4000 190/05 RMK AO2 T00280006
94299KAAT AAT20160113093011201/13/16 09:30:31  5-MIN KAAT 131730Z AUTO 17006KT 10SM SCT033 03/00 A2988 4420 79 4100 160/06 RMK AO2 T00330000
94299KAAT AAT20160113093511901/13/16 09:35:31  5-MIN KAAT 131735Z AUTO 20004KT 10SM SCT033 BKN090 03/00 A2989 4410 79 4100 180/04 RMK AO2 T00330000
94299KAAT AAT20160113094011901/13/16 09:40:31  5-MIN KAAT 131740Z AUTO 21004KT 10SM FEW033 BKN090 04/00 A2989 4410 76 4200 190/04 RMK AO2 T00390000
94299KAAT AAT20160113094512601/13/16 09:45:31  5-MIN KAAT 131745Z AUTO 17003KT 10SM FEW033 BKN080 BKN095 04/00 A2990 4400 76 4200 160/03 RMK AO2 T00390000
94299KAAT AAT20160113095015701/13/16 09:50:31  5-MIN KAAT 131750Z AUTO 14003KT 10SM FEW033 BKN080 OVC095 04/00 A2990 4400 76 4200 120/03 RMK AO2 SLP123 60003 T00390000 10039 20022 56003
94299KAAT AAT20160113095514701/13/16 09:55:31  5-MIN KAAT 131755Z AUTO 10SM FEW033 SCT075 BKN090 04/00 A2990 4400 76 4200 M /M RMK AO2 SLP125 60003 T00390000 10039 20022 53011
94299KAAT AAT20160113100012001/13/16 10:00:31  5-MIN KAAT 131800Z AUTO 22008KT 10SM FEW045 BKN085 04/M01 A2990 4400 70 4200 210/08 RMK AO2 T00441006
94299KAAT AAT20160113100512001/13/16 10:05:31  5-MIN KAAT 131805Z AUTO 22007KT 10SM SCT043 BKN085 04/M01 A2990 4400 67 4200 200/07 RMK AO2 T00441011
94299KAAT AAT20160113101012001/13/16 10:10:31  5-MIN KAAT 131810Z AUTO 22012KT 10SM SCT040 BKN080 04/M01 A2990 4400 67 4200 200/12 RMK AO2 T00441011
94299KAAT AAT20160113101512001/13/16 10:15:31  5-MIN KAAT 131815Z AUTO 22011KT 10SM BKN040 BKN090 04/M01 A2990 4400 67 4200 200/11 RMK AO2 T00441011
94299KAAT AAT20160113102012701/13/16 10:20:31  5-MIN KAAT 131820Z AUTO 21013KT 10SM SCT038 BKN045 BKN090 04/M01 A2990 4400 67 4200 200/13 RMK AO2 T00441011
94299KAAT AAT20160113102512601/13/16 10:25:31  5-MIN KAAT 131825Z AUTO 20015G21KT 10SM BKN038 BKN047 04/M01 A2990 4400 67 4200 190/15G21 RMK AO2 T00441011
94299KAAT AAT20160113103012601/13/16 10:30:31  5-MIN KAAT 131830Z AUTO 19009G21KT 10SM BKN037 OVC047 04/M01 A2990 4400 67 4200 180/09G21 RMK AO2 T00441011
94299KAAT AAT20160113103512001/13/16 10:35:31  5-MIN KAAT 131835Z AUTO 20008KT 10SM BKN037 OVC047 04/M01 A2990 4400 70 4200 190/08 RMK AO2 T00441006
94299KAAT AAT20160113104012601/13/16 10:40:31  5-MIN KAAT 131840Z AUTO 20014G18KT 10SM BKN037 OVC047 04/M01 A2990 4400 67 4200 190/14G18 RMK AO2 T00441011
94299KAAT AAT20160113104512601/13/16 10:45:31  5-MIN KAAT 131845Z AUTO 21014G18KT 10SM BKN039 OVC047 05/M01 A2990 4400 64 4300 200/14G18 RMK AO2 T00501011
94299KAAT AAT20160113105012701/13/16 10:50:31  5-MIN KAAT 131850Z AUTO 23011KT 10SM BKN039 OVC047 04/M01 A2990 4400 67 4200 210/11 RMK AO2 SLP124 T00441011
94299KAAT AAT20160113105512701/13/16 10:55:31  5-MIN KAAT 131855Z AUTO 21014KT 10SM BKN039 OVC046 04/M01 A2990 4400 67 4200 200/14 RMK AO2 SLP123 T00441011
94299KAAT AAT20160113110012001/13/16 11:00:31  5-MIN KAAT 131900Z AUTO 23014KT 10SM BKN037 OVC046 04/M01 A2989 4410 67 4200 220/14 RMK AO2 T00441011
94299KAAT AAT20160113110512001/13/16 11:05:31  5-MIN KAAT 131905Z AUTO 22014KT 10SM BKN037 OVC045 04/M01 A2989 4410 67 4200 210/14 RMK AO2 T00441011
94299KAAT AAT20160113111012601/13/16 11:10:31  5-MIN KAAT 131910Z AUTO 22015G21KT 10SM BKN039 OVC046 04/M01 A2990 4400 67 4200 210/15G21 RMK AO2 T00441011
94299KAAT AAT20160113111512601/13/16 11:15:31  5-MIN KAAT 131915Z AUTO 22018G23KT 10SM BKN039 OVC048 04/M01 A2989 4410 67 4200 210/18G23 RMK AO2 T00441011
94299KAAT AAT20160113112012001/13/16 11:20:31  5-MIN KAAT 131920Z AUTO 22018KT 10SM BKN039 OVC048 04/M01 A2989 4410 67 4200 200/18 RMK AO2 T00441011
94299KAAT AAT20160113112512601/13/16 11:25:31  5-MIN KAAT 131925Z AUTO 22015G22KT 10SM BKN039 OVC048 05/M01 A2989 4410 64 4300 210/15G22 RMK AO2 T00501011
94299KAAT AAT20160113113012001/13/16 11:30:31  5-MIN KAAT 131930Z AUTO 23016KT 10SM BKN040 BKN048 05/M01 A2988 4410 64 4300 210/16 RMK AO2 T00501011
94299KAAT AAT20160113113512601/13/16 11:35:31  5-MIN KAAT 131935Z AUTO 22012G20KT 10SM BKN040 BKN049 04/M01 A2988 4420 67 4200 210/12G20 RMK AO2 T00441011
94299KAAT AAT20160113114012001/13/16 11:40:31  5-MIN KAAT 131940Z AUTO 22013KT 10SM BKN040 OVC049 05/M01 A2988 4420 67 4300 210/13 RMK AO2 T00501006
94299KAAT AAT20160113114511901/13/16 11:45:31  5-MIN KAAT 131945Z AUTO 23010G19KT 10SM BKN040 05/M01 A2988 4420 64 4300 210/10G19 RMK AO2 T00501011
94299KAAT AAT20160113115012601/13/16 11:50:31  5-MIN KAAT 131950Z AUTO 23008G19KT 10SM BKN040 05/M01 A2987 4430 67 4300 220/08G19 RMK AO2 SLP114 T00501006
94299KAAT AAT20160113115512701/13/16 11:55:31  5-MIN KAAT 131955Z AUTO 23011KT 10SM BKN040 OVC048 05/M01 A2987 4430 64 4300 220/11 RMK AO2 SLP114 T00501011
94299KAAT AAT20160113120012601/13/16 12:00:31  5-MIN KAAT 132000Z AUTO 23010G17KT 10SM BKN040 OVC048 05/M01 A2987 4430 64 4300 220/10G17 RMK AO2 T00501011
94299KAAT AAT20160113120512001/13/16 12:05:31  5-MIN KAAT 132005Z AUTO 23009KT 10SM BKN040 OVC048 05/M01 A2987 4430 64 4300 220/09 RMK AO2 T00501011
94299KAAT AAT20160113121012001/13/16 12:10:31  5-MIN KAAT 132010Z AUTO 23007KT 10SM BKN044 OVC060 05/M01 A2986 4430 64 4300 210/07 RMK AO2 T00501011
94299KAAT AAT20160113121512001/13/16 12:15:31  5-MIN KAAT 132015Z AUTO 20007KT 10SM BKN044 OVC050 05/M01 A2986 4430 64 4300 190/07 RMK AO2 T00501011
94299KAAT AAT20160113122012601/13/16 12:20:31  5-MIN KAAT 132020Z AUTO 22012G17KT 10SM BKN044 OVC055 06/M01 A2986 4430 62 4400 200/12G17 RMK AO2 T00561011
94299KAAT AAT20160113122512601/13/16 12:25:31  5-MIN KAAT 132025Z AUTO 21014G17KT 10SM BKN044 OVC055 06/M02 A2986 4430 59 4400 200/14G17 RMK AO2 T00561017
94299KAAT AAT20160113123012001/13/16 12:30:31  5-MIN KAAT 132030Z AUTO 22013KT 10SM BKN044 OVC055 06/M02 A2986 4430 59 4400 200/13 RMK AO2 T00561017
94299KAAT AAT20160113123512001/13/16 12:35:31  5-MIN KAAT 132035Z AUTO 22010KT 10SM BKN044 OVC055 05/M02 A2986 4440 62 4300 200/10 RMK AO2 T00501017
94299KAAT AAT20160113124011301/13/16 12:40:31  5-MIN KAAT 132040Z AUTO 21012KT 10SM OVC044 05/M02 A2986 4440 62 4300 200/12 RMK AO2 T00501017
94299KAAT AAT20160113124512001/13/16 12:45:31  5-MIN KAAT 132045Z AUTO 21011KT 10SM BKN042 OVC050 05/M02 A2986 4440 62 4300 190/11 RMK AO2 T00501017
94299KAAT AAT20160113125013301/13/16 12:50:31  5-MIN KAAT 132050Z AUTO 20010KT 10SM BKN042 OVC055 05/M02 A2986 4440 62 4300 180/10 RMK AO2 SLP109 T00501017 53011
94299KAAT AAT20160113125513301/13/16 12:55:31  5-MIN KAAT 132055Z AUTO 18008KT 10SM BKN039 OVC048 05/M02 A2985 4450 62 4300 160/08 RMK AO2 SLP107 T00501017 58015
94299KAAT AAT20160113130011301/13/16 13:00:31  5-MIN KAAT 132100Z AUTO 19016KT 10SM OVC039 05/M01 A2985 4450 64 4300 170/16 RMK AO2 T00501011
94299KAAT AAT20160113130512601/13/16 13:05:31  5-MIN KAAT 132105Z AUTO 20018G23KT 10SM BKN039 OVC048 05/M02 A2986 4440 62 4300 190/18G23 RMK AO2 T00501017
94299KAAT AAT20160113131016001/13/16 13:10:31  5-MIN KAAT 132110Z AUTO 22023G29KT 10SM -RA BKN035 OVC046 04/M01 A2986 4440 73 4200 200/23G29 RMK AO2 PK WND 20029/2106 RAB07 P0000 T00391006
94299KAAT AAT20160113131515901/13/16 13:15:31  5-MIN KAAT 132115Z AUTO 22016G29KT 10SM -RA SCT023 OVC038 03/00 A2986 4440 82 4100 200/16G29 RMK AO2 PK WND 20029/2106 RAB07 P0000 T00280000
94299KAAT AAT20160113132016601/13/16 13:20:31  5-MIN KAAT 132120Z AUTO 21012G27KT 10SM -RA SCT023 BKN038 OVC048 03/01 A2986 4440 85 4100 200/12G27 RMK AO2 PK WND 20029/2106 RAB07 P0000 T00280006
94299KAAT AAT20160113132516001/13/16 13:25:31  5-MIN KAAT 132125Z AUTO 21008KT 10SM -RA SCT026 BKN038 OVC050 03/01 A2985 4440 89 4100 190/08 RMK AO2 PK WND 20029/2106 RAB07 P0000 T00280011
94299KAAT AAT20160113133015201/13/16 13:30:31  5-MIN KAAT 132130Z AUTO 20007KT 10SM BKN034 OVC050 03/01 A2985 4450 82 4100 180/07 RMK AO2 PK WND 20029/2106 RAB07E29 P0000 T00330006
94299KAAT AAT20160113133515201/13/16 13:35:31  5-MIN KAAT 132135Z AUTO 19010KT 10SM SCT034 OVC055 03/01 A2985 4450 82 4100 170/10 RMK AO2 PK WND 20029/2106 RAB07E29 P0000 T00330006
94299KAAT AAT20160113134015201/13/16 13:40:31  5-MIN KAAT 132140Z AUTO 19008KT 10SM SCT038 OVC050 03/01 A2984 4450 82 4100 180/08 RMK AO2 PK WND 20029/2106 RAB07E29 P0000 T00330006
94299KAAT AAT20160113134514501/13/16 13:45:31  5-MIN KAAT 132145Z AUTO 19008KT 10SM OVC050 04/01 A2984 4450 79 4200 170/08 RMK AO2 PK WND 20029/2106 RAB07E29 P0000 T00390006
94299KAAT AAT20160113135015201/13/16 13:50:31  5-MIN KAAT 132150Z AUTO 18008KT 10SM OVC050 03/01 A2984 4450 82 4200 160/08 RMK AO2 PK WND 20029/2106 RAB07E29 SLP108 P0000 T00330006
94299KAAT AAT20160113135515201/13/16 13:55:31  5-MIN KAAT 132155Z AUTO 17005KT 10SM OVC050 04/01 A2984 4450 79 4200 160/05 RMK AO2 PK WND 20029/2106 RAB07E29 SLP107 P0000 T00390006
94299KAAT AAT20160113140011201/13/16 14:00:31  5-MIN KAAT 132200Z AUTO 17005KT 10SM OVC050 04/01 A2984 4450 79 4200 160/05 RMK AO2 T00390006
94299KAAT AAT20160113140511901/13/16 14:05:31  5-MIN KAAT 132205Z AUTO 19005KT 10SM SCT037 OVC050 04/01 A2984 4460 79 4200 170/05 RMK AO2 T00390006
94299KAAT AAT20160113141012601/13/16 14:10:31  5-MIN KAAT 132210Z AUTO 19004KT 10SM SCT035 BKN048 OVC055 04/01 A2984 4450 79 4200 170/04 RMK AO2 T00390006
94299KAAT AAT20160113141511901/13/16 14:15:31  5-MIN KAAT 132215Z AUTO 17003KT 10SM SCT035 OVC045 04/01 A2984 4460 79 4200 150/03 RMK AO2 T00390006
94299KAAT AAT20160113142011901/13/16 14:20:31  5-MIN KAAT 132220Z AUTO 00000KT 10SM BKN037 OVC046 04/01 A2984 4460 79 4200 000/00 RMK AO2 T00390006
94299KAAT AAT20160113142511201/13/16 14:25:31  5-MIN KAAT 132225Z AUTO 00000KT 10SM OVC037 04/01 A2984 4460 79 4200 000/00 RMK AO2 T00390006
94299KAAT AAT20160113143011201/13/16 14:30:31  5-MIN KAAT 132230Z AUTO 00000KT 10SM OVC037 04/01 A2984 4460 79 4200 000/00 RMK AO2 T00390006
94299KAAT AAT20160113143511901/13/16 14:35:31  5-MIN KAAT 132235Z AUTO 14003KT 10SM BKN037 OVC043 04/01 A2984 4460 79 4200 130/03 RMK AO2 T00390006
94299KAAT AAT20160113144011201/13/16 14:40:31  5-MIN KAAT 132240Z AUTO 15004KT 10SM OVC037 04/01 A2983 4460 79 4200 130/04 RMK AO2 T00390006
94299KAAT AAT20160113144511201/13/16 14:45:31  5-MIN KAAT 132245Z AUTO 16005KT 10SM OVC037 04/01 A2983 4460 79 4200 140/05 RMK AO2 T00390006
94299KAAT AAT20160113145011901/13/16 14:50:31  5-MIN KAAT 132250Z AUTO 16009KT 10SM OVC037 04/00 A2983 4470 76 4200 140/09 RMK AO2 SLP101 T00390000
94299KAAT AAT20160113145512601/13/16 14:55:31  5-MIN KAAT 132255Z AUTO 17008KT 10SM BKN039 OVC047 04/00 A2983 4470 76 4200 150/08 RMK AO2 SLP102 T00390000
94299KAAT AAT20160113150011901/13/16 15:00:31  5-MIN KAAT 132300Z AUTO 16006KT 10SM BKN039 OVC047 04/00 A2983 4470 76 4200 140/06 RMK AO2 T00390000
94299KAAT AAT20160113150511901/13/16 15:05:31  5-MIN KAAT 132305Z AUTO 16007KT 10SM BKN039 OVC047 04/00 A2983 4470 76 4200 150/07 RMK AO2 T00390000
94299KAAT AAT20160113151011901/13/16 15:10:31  5-MIN KAAT 132310Z AUTO 16008KT 10SM BKN039 OVC048 04/00 A2983 4470 76 4200 150/08 RMK AO2 T00390000
94299KAAT AAT20160113151511901/13/16 15:15:31  5-MIN KAAT 132315Z AUTO 17007KT 10SM BKN039 OVC048 03/00 A2983 4470 79 4200 160/07 RMK AO2 T00330000
94299KAAT AAT20160113152011901/13/16 15:20:31  5-MIN KAAT 132320Z AUTO 19005KT 10SM BKN034 OVC041 03/00 A2983 4470 79 4200 180/05 RMK AO2 T00330000
94299KAAT AAT20160113152513501/13/16 15:25:31  5-MIN KAAT 132325Z AUTO 17004KT 10SM -RA BKN036 OVC046 03/00 A2983 4470 79 4200 160/04 RMK AO2 RAB23 P0000 T00330000
94299KAAT AAT20160113153012801/13/16 15:30:31  5-MIN KAAT 132330Z AUTO 17010KT 10SM -RA OVC036 04/00 A2983 4470 76 4200 150/10 RMK AO2 RAB23 P0000 T00390000
94299KAAT AAT20160113153513501/13/16 15:35:31  5-MIN KAAT 132335Z AUTO 19011KT 10SM -RA FEW027 OVC036 04/00 A2983 4470 76 4200 180/11 RMK AO2 RAB23 P0000 T00390000
94299KAAT AAT20160113154013501/13/16 15:40:31  5-MIN KAAT 132340Z AUTO 18012KT 10SM -RA SCT030 OVC036 03/00 A2983 4470 79 4200 160/12 RMK AO2 RAB23 P0000 T00330000
94299KAAT AAT20160113154514101/13/16 15:45:31  5-MIN KAAT 132345Z AUTO 17011G19KT 10SM -RA BKN030 OVC036 03/00 A2983 4460 79 4200 160/11G19 RMK AO2 RAB23 P0000 T00330000
94299KAAT AAT20160113155013701/13/16 15:50:31  5-MIN KAAT 132350Z AUTO 22010G19KT 8SM -RA BKN025 OVC037 03/01 A2985 4450 82 4100 210/10G19 RMK AO2 RAB23 PRESRR P0000
94299KAAT AAT20160113155520301/13/16 15:55:31  5-MIN KAAT 132355Z AUTO 22019G30KT 7SM -RA FEW016 BKN027 OVC037 03/01 A2986 4440 85 4100 210/19G30 RMK AO2 PK WND 21030/2353 RAB23 PRESRR SLP116 P0001 60001 T00280006 10056 20028 53003
94299KAAT AAT20160113160015901/13/16 16:00:31  5-MIN KAAT 140000Z AUTO 21019G30KT 7SM -RA FEW016 BKN024 OVC029 02/01 A2986 4440 89 4000 200/19G30 RMK AO2 PK WND 21029/2357 P0000 T00220006
94299KAAT AAT20160113160515901/13/16 16:05:31  5-MIN KAAT 140005Z AUTO 21017G29KT 8SM -RA FEW016 BKN027 OVC046 02/01 A2986 4440 89 4000 190/17G29 RMK AO2 PK WND 21029/2357 P0000 T00220006
94299KAAT AAT20160113161017001/13/16 16:10:31  5-MIN KAAT 140010Z AUTO 21012G24KT 10SM UP FEW016 BKN035 OVC046 02/01 A2986 4440 89 4000 200/12G24 RMK AO2 PK WND 21029/2357 RAE09UPB09 P0000 T00220006
94299KAAT AAT20160113161516401/13/16 16:15:31  5-MIN KAAT 140015Z AUTO 22010KT 10SM UP FEW016 BKN037 OVC046 02/01 A2986 4440 89 4000 200/10 RMK AO2 PK WND 21029/2357 RAE09UPB09 P0000 T00220006
94299KAAT AAT20160113162016401/13/16 16:20:31  5-MIN KAAT 140020Z AUTO 22010KT 10SM UP FEW016 BKN035 OVC046 02/01 A2986 4440 89 4000 210/10 RMK AO2 PK WND 21029/2357 RAE09UPB09 P0000 T00220006
94299KAAT AAT20160113162516401/13/16 16:25:31  5-MIN KAAT 140025Z AUTO 22010KT 10SM FEW025 BKN035 OVC046 02/01 A2987 4430 92 4000 200/10 RMK AO2 PK WND 21029/2357 RAE09UPB09E22 P0000 T00220011
94299KAAT AAT20160113163016401/13/16 16:30:31  5-MIN KAAT 140030Z AUTO 22010KT 10SM SCT025 BKN038 OVC046 02/01 A2987 4420 92 4000 210/10 RMK AO2 PK WND 21029/2357 RAE09UPB09E22 P0000 T00220011
94299KAAT AAT20160113163516401/13/16 16:35:31  5-MIN KAAT 140035Z AUTO 26011KT 10SM FEW016 BKN031 OVC046 02/01 A2988 4420 89 4000 240/11 RMK AO2 PK WND 21029/2357 RAE09UPB09E22 P0000 T00220006
94299KAAT AAT20160113164017701/13/16 16:40:31  5-MIN KAAT 140040Z AUTO 25013G19KT 10SM FEW016 BKN025 OVC031 02/01 A2989 4410 89 4000 240/13G19 RMK AO2 PK WND 21029/2357 RAE09UPB09E22 PRESRR P0000 T00220006
94299KAAT AAT20160113164518301/13/16 16:45:31  5-MIN KAAT 140045Z AUTO 26015G24KT 8SM -RA FEW016 BKN021 OVC026 02/01 A2990 4400 92 3900 240/15G24 RMK AO2 PK WND 21029/2357 RAE09B41UPB09E22 PRESRR P0000 T00170006
94299KAAT AAT20160113165017901/13/16 16:50:31  5-MIN KAAT 140050Z AUTO 25016G24KT 5SM -RA BR BKN018 OVC024 02/01 A2990 4400 92 3900 240/16G24 RMK AO2 PK WND 21029/2357 RAE09B41UPB09E22 SLP131 P0000 T00170006
94299KAAT AAT20160113165518101/13/16 16:55:31  5-MIN KAAT 140055Z AUTO 26015KT 4SM -SN BR BKN018 OVC024 01/01 A2990 4400 96 3800 240/15 RMK AO2 PK WND 21029/2357 RAE09B41E51UPB09E22SNB51 SLP133 P0001 T00110006
94299KAAT AAT20160113170012801/13/16 17:00:31  5-MIN KAAT 140100Z AUTO 25013KT 2 1/2SM -SN BR OVC016 01/01 A2991 4390 96 3800 240/13 RMK AO2 P0000 T00110006
94299KAAT AAT20160113170512901/13/16 17:05:31  5-MIN KAAT 140105Z AUTO 25011KT 2 1/2SM -SN BR OVC016 01/01 A2991 4390 100 3700 240/11 RMK AO2 P0000 T00060006
94299KAAT AAT20160113171012401/13/16 17:10:31  5-MIN KAAT 140110Z AUTO 25011KT 5SM -SN BR OVC018 01/01 A2991 4390 96 3800 240/11 RMK AO2 P0001 T00110006
94299KAAT AAT20160113171513001/13/16 17:15:31  5-MIN KAAT 140115Z AUTO 26010G18KT 6SM -SN BR OVC018 01/01 A2992 4380 96 3800 240/10G18 RMK AO2 P0001 T00110006
94299KAAT AAT20160113172012101/13/16 17:20:31  5-MIN KAAT 140120Z AUTO 26012KT 9SM -SN OVC022 01/01 A2992 4380 96 3800 240/12 RMK AO2 P0001 T00110006
94299KAAT AAT20160113172513101/13/16 17:25:31  5-MIN KAAT 140125Z AUTO 26013KT 9SM UP BKN026 01/01 A2993 4370 96 3800 250/13 RMK AO2 UPB24SNE22 P0001 T00110006
94299KAAT AAT20160113173014601/13/16 17:30:31  5-MIN KAAT 140130Z AUTO 26010KT 10SM UP FEW018 BKN028 OVC085 01/01 A2993 4370 96 3800 250/10 RMK AO2 UPB24SNE22 P0001 T00110006
94299KAAT AAT20160113173514601/13/16 17:35:31  5-MIN KAAT 140135Z AUTO 28010KT 10SM FEW018 BKN028 OVC090 01/01 A2994 4370 96 3800 260/10 RMK AO2 UPB24E35SNE22 P0001 T00110006
94299KAAT AAT20160113174014601/13/16 17:40:31  5-MIN KAAT 140140Z AUTO 26009KT 10SM FEW020 BKN032 OVC090 01/01 A2994 4360 96 3800 250/09 RMK AO2 UPB24E35SNE22 P0001 T00110006
94299KAAT AAT20160113174514601/13/16 17:45:31  5-MIN KAAT 140145Z AUTO 26010KT 10SM FEW020 BKN038 OVC090 01/01 A2995 4360 96 3800 250/10 RMK AO2 UPB24E35SNE22 P0001 T00110006
94299KAAT AAT20160113175015301/13/16 17:50:31  5-MIN KAAT 140150Z AUTO 27009KT 10SM SCT024 BKN040 OVC090 01/00 A2995 4350 92 3800 250/09 RMK AO2 UPB24E35SNE22 SLP150 P0001 T00110000
94299KAAT AAT20160113175515301/13/16 17:55:31  5-MIN KAAT 140155Z AUTO 27011KT 10SM BKN024 BKN060 OVC090 01/00 A2996 4350 92 3700 250/11 RMK AO2 UPB24E35SNE22 SLP152 P0001 T00110000
94299KAAT AAT20160113180012601/13/16 18:00:31  5-MIN KAAT 140200Z AUTO 26007KT 10SM SCT024 BKN065 OVC090 01/00 A2996 4350 92 3700 250/07 RMK AO2 T00110000
94299KAAT AAT20160113180512601/13/16 18:05:31  5-MIN KAAT 140205Z AUTO 27006KT 10SM SCT024 SCT060 OVC070 01/00 A2997 4340 92 3700 250/06 RMK AO2 T00110000
94299KAAT AAT20160113181011901/13/16 18:10:31  5-MIN KAAT 140210Z AUTO 26006KT 10SM FEW024 BKN070 01/00 A2997 4330 96 3700 250/06 RMK AO2 T00060000
94299KAAT AAT20160113181512601/13/16 18:15:31  5-MIN KAAT 140215Z AUTO 27005KT 10SM FEW024 BKN065 BKN075 01/00 A2998 4330 96 3700 250/05 RMK AO2 T00060000
94299KAAT AAT20160113182012701/13/16 18:20:31  5-MIN KAAT 140220Z AUTO 28006KT 10SM FEW024 BKN060 BKN075 01/M01 A2998 4320 92 3700 260/06 RMK AO2 T00061006
94299KAAT AAT20160113182513401/13/16 18:25:31  5-MIN KAAT 140225Z AUTO 27010KT 10SM FEW024 BKN065 BKN075 01/M01 A2999 4320 85 3700 260/10 RMK AO2 PRESRR T00111011
94299KAAT AAT20160113183013401/13/16 18:30:31  5-MIN KAAT 140230Z AUTO 28011KT 10SM FEW024 BKN065 BKN075 01/M01 A3000 4310 85 3700 260/11 RMK AO2 PRESRR T00111011
94299KAAT AAT20160113183512701/13/16 18:35:31  5-MIN KAAT 140235Z AUTO 27010KT 10SM FEW024 BKN060 BKN075 01/M01 A3000 4310 85 3700 260/10 RMK AO2 T00111011
94299KAAT AAT20160113184013301/13/16 18:40:31  5-MIN KAAT 140240Z AUTO 27007G16KT 10SM SCT024 BKN060 OVC075 01/M01 A3000 4300 85 3700 250/07G16 RMK AO2 T00111011
94299KAAT AAT20160113184512701/13/16 18:45:31  5-MIN KAAT 140245Z AUTO 27006KT 10SM SCT024 BKN060 BKN120 01/M01 A3000 4300 89 3600 250/06 RMK AO2 T00061011
94299KAAT AAT20160113185014601/13/16 18:50:31  5-MIN KAAT 140250Z AUTO 26006KT 10SM SCT024 BKN060 OVC120 01/M01 A3001 4300 92 3600 240/06 RMK AO2 SLP172 60002 T00061006 53003
94299KAAT AAT20160113185514601/13/16 18:55:31  5-MIN KAAT 140255Z AUTO 27006KT 10SM FEW024 BKN050 OVC120 01/M01 A3002 4290 92 3600 250/06 RMK AO2 SLP175 60002 T00061006 53047
94299KAAT AAT20160113190012701/13/16 19:00:31  5-MIN KAAT 140300Z AUTO 27007KT 10SM SCT024 BKN050 OVC120 01/M01 A3002 4290 92 3600 260/07 RMK AO2 T00061006
94299KAAT AAT20160113190512701/13/16 19:05:31  5-MIN KAAT 140305Z AUTO 28005KT 10SM BKN025 BKN049 OVC120 01/M01 A3002 4290 92 3600 270/05 RMK AO2 T00061006
94299KAAT AAT20160113191012701/13/16 19:10:31  5-MIN KAAT 140310Z AUTO 29007KT 10SM BKN025 BKN033 OVC049 01/M01 A3003 4280 89 3600 270/07 RMK AO2 T00061011
94299KAAT AAT20160113191514501/13/16 19:15:31  5-MIN KAAT 140315Z AUTO 29007KT 3SM -SN BR SCT017 BKN025 OVC049 01/M01 A3004 4270 89 3600 270/07 RMK AO2 SNB12 P0000 T00061011
94299KAAT AAT20160113192014901/13/16 19:20:31  5-MIN KAAT 140320Z AUTO 26006KT 1 1/2SM -SN BR FEW007 BKN016 OVC025 01/M01 A3004 4270 92 3600 240/06 RMK AO2 SNB12 P0000 T00061006
94299KAAT AAT20160113192514901/13/16 19:25:31  5-MIN KAAT 140325Z AUTO 27008KT 1 1/2SM -SN BR SCT007 BKN020 OVC025 00/M01 A3004 4270 96 3500 250/08 RMK AO2 SNB12 P0001 T00001006
94299KAAT AAT20160113193014501/13/16 19:30:31  5-MIN KAAT 140330Z AUTO 27006KT 3SM -SN BR FEW007 BKN034 OVC070 00/00 A3005 4260 100 3500 250/06 RMK AO2 SNB12 P0001 T00000000
94299KAAT AAT20160113193514101/13/16 19:35:31  5-MIN KAAT 140335Z AUTO 29007KT 9SM FEW008 BKN032 OVC050 00/M01 A3005 4260 96 3500 270/07 RMK AO2 SNB12E35 P0001 T00001006
94299KAAT AAT20160113194014101/13/16 19:40:31  5-MIN KAAT 140340Z AUTO 29007KT 9SM FEW008 BKN027 OVC060 01/M01 A3006 4260 92 3600 280/07 RMK AO2 SNB12E35 P0001 T00061006
94299KAAT AAT20160113194514201/13/16 19:45:31  5-MIN KAAT 140345Z AUTO 27006KT 10SM FEW008 BKN027 OVC060 01/M01 A3006 4250 89 3600 250/06 RMK AO2 SNB12E35 P0001 T00061011
94299KAAT AAT20160113195014901/13/16 19:50:31  5-MIN KAAT 140350Z AUTO 27005KT 10SM SCT027 BKN050 OVC070 00/M01 A3006 4250 92 3500 250/05 RMK AO2 SNB12E35 SLP190 P0001 T00001011
94299KAAT AAT20160113195514901/13/16 19:55:31  5-MIN KAAT 140355Z AUTO 28005KT 10SM SCT025 BKN060 OVC070 00/M01 A3006 4250 92 3500 260/05 RMK AO2 SNB12E35 SLP192 P0001 T00001011
94299KAAT AAT20160113200012001/13/16 20:00:31  5-MIN KAAT 140400Z AUTO 28004KT 10SM BKN027 OVC060 00/M01 A3006 4250 92 3500 260/04 RMK AO2 T00001011
94299KAAT AAT20160113200512701/13/16 20:05:31  5-MIN KAAT 140405Z AUTO 29004KT 10SM SCT024 BKN060 OVC075 00/M01 A3007 4250 92 3500 270/04 RMK AO2 T00001011
94299KAAT AAT20160113201012701/13/16 20:10:31  5-MIN KAAT 140410Z AUTO VRB06KT 10SM FEW024 SCT028 OVC070 00/M01 A3007 4240 92 3500 VRB/06 RMK AO2 T00001011
94299KAAT AAT20160113201512001/13/16 20:15:31  5-MIN KAAT 140415Z AUTO 30008KT 10SM FEW024 OVC065 01/M01 A3007 4240 89 3600 280/08 RMK AO2 T00061011
94299KAAT AAT20160113202012601/13/16 20:20:31  5-MIN KAAT 140420Z AUTO 30010G16KT 10SM FEW024 OVC065 01/M02 A3007 4240 85 3500 280/10G16 RMK AO2 T00061017
94299KAAT AAT20160113202512601/13/16 20:25:31  5-MIN KAAT 140425Z AUTO 30010G16KT 10SM FEW024 OVC070 01/M02 A3008 4240 82 3500 280/10G16 RMK AO2 T00061022
94299KAAT AAT20160113203011301/13/16 20:30:31  5-MIN KAAT 140430Z AUTO 29008KT 10SM OVC070 01/M02 A3008 4240 82 3500 280/08 RMK AO2 T00061022
94299KAAT AAT20160113203511301/13/16 20:35:31  5-MIN KAAT 140435Z AUTO 30008KT 10SM OVC065 01/M02 A3008 4240 82 3500 280/08 RMK AO2 T00061022
94299KAAT AAT20160113204011301/13/16 20:40:31  5-MIN KAAT 140440Z AUTO 31009KT 10SM OVC070 01/M02 A3008 4240 82 3500 290/09 RMK AO2 T00061022
94299KAAT AAT20160113204511301/13/16 20:45:31  5-MIN KAAT 140445Z AUTO 30008KT 10SM OVC070 00/M02 A3008 4240 85 3500 290/08 RMK AO2 T00001022
94299KAAT AAT20160113205012701/13/16 20:50:31  5-MIN KAAT 140450Z AUTO 30008KT 10SM BKN070 OVC080 00/M03 A3008 4230 81 3500 290/08 RMK AO2 SLP198 T00001028
94299KAAT AAT20160113205513401/13/16 20:55:31  5-MIN KAAT 140455Z AUTO 31008KT 10SM FEW028 BKN070 OVC080 00/M03 A3008 4230 81 3500 290/08 RMK AO2 SLP197 T00001028
94299KAAT AAT20160113210012701/13/16 21:00:31  5-MIN KAAT 140500Z AUTO 31008KT 10SM SCT028 BKN070 OVC085 00/M03 A3008 4230 81 3500 300/08 RMK AO2 T00001028
94299KAAT AAT20160113210512701/13/16 21:05:31  5-MIN KAAT 140505Z AUTO 32011KT 10SM SCT028 BKN035 OVC075 00/M03 A3008 4230 81 3500 310/11 RMK AO2 T00001028
94299KAAT AAT20160113211012701/13/16 21:10:31  5-MIN KAAT 140510Z AUTO 32009KT 10SM BKN027 BKN033 OVC080 00/M03 A3008 4230 81 3500 310/09 RMK AO2 T00001028
94299KAAT AAT20160113211512701/13/16 21:15:31  5-MIN KAAT 140515Z AUTO 31007KT 10SM BKN027 BKN033 OVC080 00/M03 A3008 4230 81 3500 300/07 RMK AO2 T00001028
94299KAAT AAT20160113212012001/13/16 21:20:31  5-MIN KAAT 140520Z AUTO 31009KT 10SM SCT027 OVC033 00/M03 A3009 4230 81 3500 300/09 RMK AO2 T00001028
94299KAAT AAT20160113212512001/13/16 21:25:31  5-MIN KAAT 140525Z AUTO 31009KT 10SM SCT027 OVC033 00/M03 A3009 4230 81 3500 300/09 RMK AO2 T00001028
94299KAAT AAT20160113213012701/13/16 21:30:31  5-MIN KAAT 140530Z AUTO 32009KT 10SM FEW027 BKN033 OVC046 00/M03 A3009 4230 81 3500 300/09 RMK AO2 T00001028
94299KAAT AAT20160113213512701/13/16 21:35:31  5-MIN KAAT 140535Z AUTO 32008KT 10SM FEW027 BKN033 OVC046 00/M03 A3009 4220 81 3500 300/08 RMK AO2 T00001028
94299KAAT AAT20160113214012001/13/16 21:40:31  5-MIN KAAT 140540Z AUTO 32006KT 10SM SCT033 OVC047 00/M03 A3009 4220 81 3500 310/06 RMK AO2 T00001028
94299KAAT AAT20160113214512001/13/16 21:45:31  5-MIN KAAT 140545Z AUTO 32006KT 10SM SCT033 OVC047 00/M03 A3009 4220 81 3500 300/06 RMK AO2 T00001028
94299KAAT AAT20160113215015901/13/16 21:50:31  5-MIN KAAT 140550Z AUTO 29003KT 10SM FEW021 FEW033 OVC047 M01/M03 A3010 4220 85 3400 280/03 RMK AO2 SLP202 60003 T10061028 10028 21006 53047
94299KAAT AAT20160113215515201/13/16 21:55:31  5-MIN KAAT 140555Z AUTO 25003KT 10SM FEW021 BKN047 M01/M03 A3010 4220 85 3400 240/03 RMK AO2 SLP203 60003 T10061028 10028 21006 51024
94299KAAT AAT20160113220012801/13/16 22:00:31  5-MIN KAAT 140600Z AUTO 00000KT 10SM FEW020 BKN047 OVC090 M01/M03 A3010 4210 85 3400 000/00 RMK AO2 T10061028
94299KAAT AAT20160113220512801/13/16 22:05:31  5-MIN KAAT 140605Z AUTO 00000KT 10SM FEW020 BKN047 OVC090 M01/M03 A3010 4210 85 3400 000/00 RMK AO2 T10061028
94299KAAT AAT20160113221012801/13/16 22:10:31  5-MIN KAAT 140610Z AUTO 00000KT 10SM FEW019 SCT047 BKN090 M01/M03 A3011 4210 81 3400 000/00 RMK AO2 T10061033
94299KAAT AAT20160113221512801/13/16 22:15:31  5-MIN KAAT 140615Z AUTO 00000KT 10SM FEW025 SCT047 BKN090 M01/M03 A3011 4210 85 3300 000/00 RMK AO2 T10111033
94299KAAT AAT20160113222012801/13/16 22:20:31  5-MIN KAAT 140620Z AUTO 00000KT 10SM FEW025 FEW047 BKN090 M01/M03 A3011 4210 85 3300 000/00 RMK AO2 T10111033
94299KAAT AAT20160113222512101/13/16 22:25:31  5-MIN KAAT 140625Z AUTO 00000KT 10SM FEW025 SCT090 M02/M03 A3011 4210 88 3200 000/00 RMK AO2 T10171033
94299KAAT AAT20160113223012101/13/16 22:30:31  5-MIN KAAT 140630Z AUTO 00000KT 10SM FEW025 FEW090 M02/M03 A3011 4210 88 3200 000/00 RMK AO2 T10171033
94299KAAT AAT20160113223511401/13/16 22:35:31  5-MIN KAAT 140635Z AUTO 00000KT 10SM FEW025 M02/M04 A3011 4210 88 3200 000/00 RMK AO2 T10221039
94299KAAT AAT20160113224011401/13/16 22:40:31  5-MIN KAAT 140640Z AUTO 00000KT 10SM FEW025 M02/M04 A3011 4210 88 3200 000/00 RMK AO2 T10221039
94299KAAT AAT20160113224511101/13/16 22:45:31  5-MIN KAAT 140645Z AUTO 00000KT 10SM CLR M02/M03 A3011 4200 92 3200 000/00 RMK AO2 T10221033
94299KAAT AAT20160113225011801/13/16 22:50:31  5-MIN KAAT 140650Z AUTO 36003KT 10SM CLR M02/M04 A3011 4200 88 3200 350/03 RMK AO2 SLP210 T10221039
94299KAAT AAT20160113225511701/13/16 22:55:31  5-MIN KAAT 140655Z AUTO 00000KT 8SM CLR M03/M04 A3012 4200 92 3100 000/00 RMK AO2 SLP211 T10281039
94299KAAT AAT20160113230011301/13/16 23:00:31  5-MIN KAAT 140700Z AUTO 00000KT 6SM BR CLR M03/M04 A3012 4200 92 3100 000/00 RMK AO2 T10281039
94299KAAT AAT20160113230511001/13/16 23:05:31  5-MIN KAAT 140705Z AUTO 00000KT 7SM CLR M03/M04 A3012 4200 92 3000 000/00 RMK AO2 T10331044
94299KAAT AAT20160113231011101/13/16 23:10:31  5-MIN KAAT 140710Z AUTO 00000KT 10SM CLR M03/M04 A3012 4200 92 3000 000/00 RMK AO2 T10331044
94299KAAT AAT20160113231511101/13/16 23:15:31  5-MIN KAAT 140715Z AUTO 00000KT 10SM CLR M04/M04 A3012 4200 96 2900 000/00 RMK AO2 T10391044
94299KAAT AAT20160113232011101/13/16 23:20:31  5-MIN KAAT 140720Z AUTO 00000KT 10SM CLR M03/M04 A3012 4190 92 3000 000/00 RMK AO2 T10331044
94299KAAT AAT20160113232511001/13/16 23:25:31  5-MIN KAAT 140725Z AUTO 00000KT 9SM CLR M03/M04 A3013 4190 92 3000 000/00 RMK AO2 T10331044
94299KAAT AAT20160113233011001/13/16 23:30:31  5-MIN KAAT 140730Z AUTO 18004KT 8SM CLR M03/M04 A3013 4190 92 3000 160/04 RMK AO2 T10331044
94299KAAT AAT20160113233511301/13/16 23:35:31  5-MIN KAAT 140735Z AUTO 17003KT 9SM FEW043 M03/M04 A3013 4190 92 3000 150/03 RMK AO2 T10331044
94299KAAT AAT20160113234011401/13/16 23:40:31  5-MIN KAAT 140740Z AUTO 00000KT 10SM SCT043 M04/M05 A3013 4190 92 2900 000/00 RMK AO2 T10391050
94299KAAT AAT20160113234511301/13/16 23:45:31  5-MIN KAAT 140745Z AUTO 13004KT 8SM FEW043 M03/M04 A3013 4190 92 3000 120/04 RMK AO2 T10331044
94299KAAT AAT20160113235013001/13/16 23:50:31  5-MIN KAAT 140750Z AUTO 00000KT 7SM FEW043 M03/M04 A3013 4190 92 3000 000/00 RMK AO2 SLP214 T10331044 400561039
94299KAAT AAT20160113235513001/13/16 23:55:31  5-MIN KAAT 140755Z AUTO 00000KT 8SM FEW043 M03/M04 A3012 4190 96 3000 000/00 RMK AO2 SLP214 T10331039 400561039
94299KAAT AAT20160114000011401/14/16 00:00:31  5-MIN KAAT 140800Z AUTO 09003KT 10SM FEW043 M03/M04 A3012 4190 92 3100 080/03 RMK AO2 T10281039
94299KAAT AAT20160114000511401/14/16 00:05:31  5-MIN KAAT 140805Z AUTO 00000KT 10SM FEW043 M03/M04 A3012 4200 92 3000 000/00 RMK AO2 T10331044
94299KAAT AAT20160114001011001/14/16 00:10:31  5-MIN KAAT 140810Z AUTO 19004KT 8SM CLR M03/M04 A3012 4200 92 3000 180/04 RMK AO2 T10331044
94299KAAT AAT20160114001511101/14/16 00:15:31  5-MIN KAAT 140815Z AUTO 17005KT 8SM CLR M06/M06 A3012 4200 100 2700 150/05 RMK AO2 T10561056
94299KAAT AAT20160114002011101/14/16 00:20:31  5-MIN KAAT 140820Z AUTO 15003KT 10SM CLR M05/M06 A3012 4200 92 2800 130/03 RMK AO2 T10501061
94299KAAT AAT20160114002511001/14/16 00:25:31  5-MIN KAAT 140825Z AUTO 11004KT 8SM CLR M06/M06 A3012 4200 96 2700 100/04 RMK AO2 T10561061
94299KAAT AAT20160114003011001/14/16 00:30:31  5-MIN KAAT 140830Z AUTO 14004KT 7SM CLR M05/M06 A3012 4200 92 2800 130/04 RMK AO2 T10501061
94299KAAT AAT20160114003511301/14/16 00:35:31  5-MIN KAAT 140835Z AUTO 14004KT 8SM FEW023 M04/M05 A3012 4200 96 2900 120/04 RMK AO2 T10441050
94299KAAT AAT20160114004011401/14/16 00:40:31  5-MIN KAAT 140840Z AUTO 14005KT 10SM FEW023 M04/M05 A3012 4200 92 3000 130/05 RMK AO2 T10391050
94299KAAT AAT20160114004511401/14/16 00:45:31  5-MIN KAAT 140845Z AUTO 14005KT 10SM FEW023 M04/M04 A3012 4200 96 3000 130/05 RMK AO2 T10391044
94299KAAT AAT20160114005012701/14/16 00:50:31  5-MIN KAAT 140850Z AUTO 15005KT 10SM SCT023 M04/M04 A3012 4200 96 3000 140/05 RMK AO2 SLP214 T10391044 51024
94299KAAT AAT20160114005512801/14/16 00:55:31  5-MIN KAAT 140855Z AUTO 17004KT 10SM BKN023 M04/M04 A3012 4200 100 2900 160/04 RMK AO2 SLP215 T10441044 50006
94299KAAT AAT20160114010011501/14/16 01:00:31  5-MIN KAAT 140900Z AUTO 00000KT 10SM BKN023 M05/M05 A3012 4200 100 2800 000/00 RMK AO2 T10501050
94299KAAT AAT20160114010511401/14/16 01:05:31  5-MIN KAAT 140905Z AUTO 00000KT 10SM BKN023 M05/M06 A3012 4200 96 2800 000/00 RMK AO2 T10501056
94299KAAT AAT20160114011011401/14/16 01:10:31  5-MIN KAAT 140910Z AUTO 00000KT 10SM BKN023 M05/M06 A3012 4200 92 2800 000/00 RMK AO2 T10501061
94299KAAT AAT20160114011511401/14/16 01:15:31  5-MIN KAAT 140915Z AUTO 00000KT 10SM BKN023 M05/M06 A3012 4200 92 2800 000/00 RMK AO2 T10501061
94299KAAT AAT20160114012011401/14/16 01:20:31  5-MIN KAAT 140920Z AUTO 35003KT 10SM BKN023 M04/M06 A3012 4200 88 2900 340/03 RMK AO2 T10441061
94299KAAT AAT20160114012511401/14/16 01:25:31  5-MIN KAAT 140925Z AUTO 00000KT 10SM BKN023 M04/M04 A3012 4200 96 3000 000/00 RMK AO2 T10391044
94299KAAT AAT20160114013011301/14/16 01:30:31  5-MIN KAAT 140930Z AUTO 35003KT 9SM BKN023 M04/M04 A3012 4200 96 3000 330/03 RMK AO2 T10391044
94299KAAT AAT20160114013512101/14/16 01:35:31  5-MIN KAAT 140935Z AUTO 06003KT 8SM BKN021 OVC031 M04/M04 A3011 4200 100 3000 040/03 RMK AO2 T10391039
94299KAAT AAT20160114014012001/14/16 01:40:31  5-MIN KAAT 140940Z AUTO 00000KT 7SM BKN021 OVC031 M03/M04 A3011 4200 92 3000 000/00 RMK AO2 T10331044
94299KAAT AAT20160114014512701/14/16 01:45:31  5-MIN KAAT 140945Z AUTO 00000KT 7SM BKN021 BKN025 OVC033 M04/M04 A3011 4210 96 3000 000/00 RMK AO2 T10391044
94299KAAT AAT20160114015012701/14/16 01:50:31  5-MIN KAAT 140950Z AUTO 06003KT 8SM BKN022 OVC033 M03/M04 A3010 4210 92 3000 050/03 RMK AO2 SLP211 T10331044
94299KAAT AAT20160114015513501/14/16 01:55:31  5-MIN KAAT 140955Z AUTO 00000KT 10SM FEW019 SCT024 OVC033 M03/M04 A3011 4210 92 3000 000/00 RMK AO2 SLP210 T10331044
94299KAAT AAT20160114020012001/14/16 02:00:31  5-MIN KAAT 141000Z AUTO 00000KT 9SM FEW021 OVC033 M04/M04 A3011 4210 96 3000 000/00 RMK AO2 T10391044
94299KAAT AAT20160114020512101/14/16 02:05:31  5-MIN KAAT 141005Z AUTO 00000KT 10SM FEW021 OVC033 M04/M04 A3011 4210 96 3000 000/00 RMK AO2 T10391044
94299KAAT AAT20160114021011401/14/16 02:10:31  5-MIN KAAT 141010Z AUTO 00000KT 10SM OVC033 M04/M04 A3011 4210 96 3000 000/00 RMK AO2 T10391044
94299KAAT AAT20160114021511401/14/16 02:15:31  5-MIN KAAT 141015Z AUTO 00000KT 10SM OVC033 M04/M04 A3011 4210 96 3000 000/00 RMK AO2 T10391044
94299KAAT AAT20160114022011401/14/16 02:20:31  5-MIN KAAT 141020Z AUTO 00000KT 10SM OVC033 M04/M04 A3011 4210 96 3000 000/00 RMK AO2 T10391044
94299KAAT AAT20160114022511401/14/16 02:25:31  5-MIN KAAT 141025Z AUTO 00000KT 10SM BKN033 M04/M04 A3011 4210 96 3000 000/00 RMK AO2 T10391044
94299KAAT AAT20160114023011401/14/16 02:30:31  5-MIN KAAT 141030Z AUTO 00000KT 10SM BKN033 M04/M04 A3011 4210 96 3000 000/00 RMK AO2 T10391044
94299KAAT AAT20160114023511401/14/16 02:35:31  5-MIN KAAT 141035Z AUTO 00000KT 10SM BKN033 M04/M05 A3011 4210 92 3000 000/00 RMK AO2 T10391050
94299KAAT AAT20160114024011401/14/16 02:40:31  5-MIN KAAT 141040Z AUTO 00000KT 10SM BKN032 M04/M05 A3011 4210 92 3000 000/00 RMK AO2 T10391050
94299KAAT AAT20160114024511301/14/16 02:45:31  5-MIN KAAT 141045Z AUTO 00000KT 8SM OVC032 M04/M05 A3011 4210 92 3000 000/00 RMK AO2 T10391050
94299KAAT AAT20160114025012001/14/16 02:50:31  5-MIN KAAT 141050Z AUTO 00000KT 8SM OVC032 M04/M04 A3011 4200 96 3000 000/00 RMK AO2 SLP214 T10391044
94299KAAT AAT20160114025512001/14/16 02:55:31  5-MIN KAAT 141055Z AUTO 00000KT 7SM OVC030 M04/M04 A3011 4200 96 3000 000/00 RMK AO2 SLP214 T10391044
94299KAAT AAT20160114030011601/14/16 03:00:31  5-MIN KAAT 141100Z AUTO 00000KT 6SM BR OVC030 M03/M04 A3011 4210 92 3000 000/00 RMK AO2 T10331044
94299KAAT AAT20160114030511601/14/16 03:05:31  5-MIN KAAT 141105Z AUTO 00000KT 6SM BR OVC030 M03/M04 A3011 4210 92 3000 000/00 RMK AO2 T10331044
94299KAAT AAT20160114031011601/14/16 03:10:31  5-MIN KAAT 141110Z AUTO 10004KT 6SM BR OVC030 M03/M04 A3011 4210 92 3000 090/04 RMK AO2 T10331044
94299KAAT AAT20160114031511601/14/16 03:15:31  5-MIN KAAT 141115Z AUTO 00000KT 5SM BR OVC030 M03/M04 A3011 4210 92 3100 000/00 RMK AO2 T10281039
94299KAAT AAT20160114032011601/14/16 03:20:31  5-MIN KAAT 141120Z AUTO 00000KT 5SM BR OVC030 M03/M04 A3010 4210 96 3000 000/00 RMK AO2 T10331039
94299KAAT AAT20160114032511601/14/16 03:25:31  5-MIN KAAT 141125Z AUTO 00000KT 6SM BR BKN029 M03/M04 A3010 4220 96 3000 000/00 RMK AO2 T10331039
94299KAAT AAT20160114033011601/14/16 03:30:31  5-MIN KAAT 141130Z AUTO 00000KT 6SM BR BKN029 M03/M04 A3010 4220 96 3000 000/00 RMK AO2 T10331039
94299KAAT AAT20160114033511601/14/16 03:35:31  5-MIN KAAT 141135Z AUTO 00000KT 6SM BR BKN029 M03/M04 A3010 4220 92 3000 000/00 RMK AO2 T10331044
94299KAAT AAT20160114034011601/14/16 03:40:31  5-MIN KAAT 141140Z AUTO 00000KT 6SM BR BKN029 M04/M04 A3010 4220 96 3000 000/00 RMK AO2 T10391044
94299KAAT AAT20160114034511301/14/16 03:45:31  5-MIN KAAT 141145Z AUTO 00000KT 7SM SCT027 M04/M06 A3010 4220 92 2900 000/00 RMK AO2 T10441056
94299KAAT AAT20160114035014401/14/16 03:50:31  5-MIN KAAT 141150Z AUTO 00000KT 8SM FEW027 M05/M06 A3009 4220 96 2800 000/00 RMK AO2 SLP209 70007 T10501056 11006 21056 50006
94299KAAT AAT20160114035514401/14/16 03:55:31  5-MIN KAAT 141155Z AUTO 00000KT 8SM SCT027 M05/M06 A3009 4220 92 2800 000/00 RMK AO2 SLP210 70007 T10501061 11006 21056 58008
94299KAAT AAT20160114040011301/14/16 04:00:31  5-MIN KAAT 141200Z AUTO 00000KT 8SM SCT027 M05/M06 A3009 4230 96 2900 000/00 RMK AO2 T10501056
94299KAAT AAT20160114040511301/14/16 04:05:31  5-MIN KAAT 141205Z AUTO 12003KT 8SM SCT027 M05/M06 A3009 4230 92 2900 100/03 RMK AO2 T10501061
94299KAAT AAT20160114041011601/14/16 04:10:31  5-MIN KAAT 141210Z AUTO 00000KT 6SM BR FEW027 M06/M07 A3009 4230 96 2700 000/00 RMK AO2 T10611067
94299KAAT AAT20160114041511601/14/16 04:15:31  5-MIN KAAT 141215Z AUTO 00000KT 6SM BR FEW027 M06/M07 A3009 4230 92 2800 000/00 RMK AO2 T10561067
94299KAAT AAT20160114042011601/14/16 04:20:31  5-MIN KAAT 141220Z AUTO 00000KT 6SM BR FEW027 M06/M06 A3008 4230 96 2800 000/00 RMK AO2 T10561061
94299KAAT AAT20160114042511601/14/16 04:25:31  5-MIN KAAT 141225Z AUTO 00000KT 6SM BR FEW027 M06/M06 A3008 4230 96 2800 000/00 RMK AO2 T10561061
94299KAAT AAT20160114043011301/14/16 04:30:31  5-MIN KAAT 141230Z AUTO 00000KT 5SM BR CLR M06/M07 A3008 4230 96 2700 000/00 RMK AO2 T10611067
94299KAAT AAT20160114043511301/14/16 04:35:31  5-MIN KAAT 141235Z AUTO 00000KT 5SM BR CLR M06/M06 A3008 4230 96 2800 000/00 RMK AO2 T10561061
94299KAAT AAT20160114044011001/14/16 04:40:31  5-MIN KAAT 141240Z AUTO 00000KT 7SM CLR M05/M06 A3008 4230 92 2900 000/00 RMK AO2 T10501061
94299KAAT AAT20160114044511101/14/16 04:45:31  5-MIN KAAT 141245Z AUTO 00000KT 9SM CLR M06/M06 A3008 4230 100 2800 000/00 RMK AO2 T10561056
94299KAAT AAT20160114045011801/14/16 04:50:31  5-MIN KAAT 141250Z AUTO 00000KT 10SM CLR M06/M06 A3008 4240 96 2800 000/00 RMK AO2 SLP207 T10561061
94299KAAT AAT20160114045511801/14/16 04:55:31  5-MIN KAAT 141255Z AUTO 00000KT 10SM CLR M06/M06 A3008 4240 96 2800 000/00 RMK AO2 SLP208 T10561061
94299KAAT AAT20160114050011101/14/16 05:00:31  5-MIN KAAT 141300Z AUTO 00000KT 10SM CLR M05/M06 A3008 4240 92 2900 000/00 RMK AO2 T10501061
94299KAAT AAT20160114050511101/14/16 05:05:31  5-MIN KAAT 141305Z AUTO 00000KT 10SM CLR M06/M06 A3008 4240 96 2800 000/00 RMK AO2 T10561061
94299KAAT AAT20160114051011101/14/16 05:10:31  5-MIN KAAT 141310Z AUTO 14003KT 10SM CLR M06/M07 A3008 4240 92 2800 120/03 RMK AO2 T10561067
94299KAAT AAT20160114051511101/14/16 05:15:31  5-MIN KAAT 141315Z AUTO 13003KT 10SM CLR M06/M07 A3008 4240 92 2800 120/03 RMK AO2 T10561067
94299KAAT AAT20160114052011101/14/16 05:20:31  5-MIN KAAT 141320Z AUTO 00000KT 10SM CLR M06/M07 A3007 4240 92 2800 000/00 RMK AO2 T10561067
94299KAAT AAT20160114052511101/14/16 05:25:31  5-MIN KAAT 141325Z AUTO 00000KT 10SM CLR M06/M07 A3007 4240 96 2700 000/00 RMK AO2 T10611067
94299KAAT AAT20160114053011001/14/16 05:30:31  5-MIN KAAT 141330Z AUTO 00000KT 8SM CLR M06/M07 A3007 4240 96 2700 000/00 RMK AO2 T10611067
94299KAAT AAT20160114053511301/14/16 05:35:31  5-MIN KAAT 141335Z AUTO 00000KT 5SM BR CLR M06/M07 A3007 4240 92 2700 000/00 RMK AO2 T10611072
94299KAAT AAT20160114054011301/14/16 05:40:31  5-MIN KAAT 141340Z AUTO 00000KT 4SM BR CLR M06/M07 A3007 4240 92 2700 000/00 RMK AO2 T10611072
94299KAAT AAT20160114054511301/14/16 05:45:31  5-MIN KAAT 141345Z AUTO 00000KT 5SM BR CLR M06/M07 A3007 4240 96 2700 000/00 RMK AO2 T10611067
94299KAAT AAT20160114055012001/14/16 05:50:31  5-MIN KAAT 141350Z AUTO 00000KT 6SM BR CLR M06/M07 A3007 4250 92 2700 000/00 RMK AO2 SLP205 T10611072
94299KAAT AAT20160114055511701/14/16 05:55:31  5-MIN KAAT 141355Z AUTO VRB03KT 8SM CLR M06/M07 A3007 4250 92 2800 VRB/03 RMK AO2 SLP205 T10561067
94299KAAT AAT20160114060011101/14/16 06:00:31  5-MIN KAAT 141400Z AUTO 11003KT 10SM CLR M06/M07 A3006 4250 92 2800 100/03 RMK AO2 T10561067
94299KAAT AAT20160114060511101/14/16 06:05:31  5-MIN KAAT 141405Z AUTO 00000KT 10SM CLR M05/M07 A3006 4250 88 2900 000/00 RMK AO2 T10501067
94299KAAT AAT20160114061011101/14/16 06:10:31  5-MIN KAAT 141410Z AUTO 13003KT 10SM CLR M05/M07 A3006 4250 88 2900 120/03 RMK AO2 T10501067
94299KAAT AAT20160114061511101/14/16 06:15:31  5-MIN KAAT 141415Z AUTO 00000KT 10SM CLR M05/M07 A3006 4250 88 2900 000/00 RMK AO2 T10501067
94299KAAT AAT20160114062011101/14/16 06:20:31  5-MIN KAAT 141420Z AUTO 00000KT 10SM CLR M06/M07 A3006 4250 92 2800 000/00 RMK AO2 T10561067
94299KAAT AAT20160114062511101/14/16 06:25:31  5-MIN KAAT 141425Z AUTO 00000KT 10SM CLR M06/M07 A3006 4250 88 2800 000/00 RMK AO2 T10561072
94299KAAT AAT20160114063011101/14/16 06:30:31  5-MIN KAAT 141430Z AUTO 00000KT 10SM CLR M06/M07 A3006 4250 88 2800 000/00 RMK AO2 T10561072
94299KAAT AAT20160114063511101/14/16 06:35:31  5-MIN KAAT 141435Z AUTO 00000KT 10SM CLR M06/M07 A3006 4250 88 2800 000/00 RMK AO2 T10561072
94299KAAT AAT20160114064011101/14/16 06:40:31  5-MIN KAAT 141440Z AUTO 00000KT 10SM CLR M05/M07 A3006 4250 88 2900 000/00 RMK AO2 T10501067
94299KAAT AAT20160114064511101/14/16 06:45:31  5-MIN KAAT 141445Z AUTO 00000KT 10SM CLR M05/M06 A3007 4250 92 2900 000/00 RMK AO2 T10501061
94299KAAT AAT20160114065012701/14/16 06:50:31  5-MIN KAAT 141450Z AUTO 00000KT 10SM FEW120 M04/M06 A3006 4250 88 2900 000/00 RMK AO2 SLP202 T10441061 58008
94299KAAT AAT20160114065512401/14/16 06:55:31  5-MIN KAAT 141455Z AUTO 00000KT 10SM CLR M04/M06 A3006 4250 88 2900 000/00 RMK AO2 SLP202 T10441061 56008
94299KAAT AAT20160114070011101/14/16 07:00:31  5-MIN KAAT 141500Z AUTO 00000KT 10SM CLR M04/M06 A3007 4250 88 2900 000/00 RMK AO2 T10441061
94299KAAT AAT20160114070511101/14/16 07:05:31  5-MIN KAAT 141505Z AUTO 00000KT 10SM CLR M04/M06 A3007 4250 88 2900 000/00 RMK AO2 T10441061
94299KAAT AAT20160114071011401/14/16 07:10:31  5-MIN KAAT 141510Z AUTO 00000KT 10SM FEW120 M04/M06 A3007 4240 88 2900 000/00 RMK AO2 T10441061
94299KAAT AAT20160114071511401/14/16 07:15:31  5-MIN KAAT 141515Z AUTO 00000KT 10SM FEW120 M04/M06 A3007 4240 88 2900 000/00 RMK AO2 T10441061
94299KAAT AAT20160114072011401/14/16 07:20:31  5-MIN KAAT 141520Z AUTO VRB03KT 10SM FEW120 M04/M06 A3007 4240 88 2900 VRB/03 RMK AO2 T10441061
94299KAAT AAT20160114072511401/14/16 07:25:31  5-MIN KAAT 141525Z AUTO 18004KT 10SM FEW120 M04/M06 A3007 4240 88 3000 160/04 RMK AO2 T10391056
94299KAAT AAT20160114073011401/14/16 07:30:31  5-MIN KAAT 141530Z AUTO 00000KT 10SM SCT110 M04/M06 A3007 4240 88 3000 000/00 RMK AO2 T10391056
94299KAAT AAT20160114073511401/14/16 07:35:31  5-MIN KAAT 141535Z AUTO 19003KT 10SM BKN110 M04/M06 A3007 4240 88 3000 170/03 RMK AO2 T10391056
94299KAAT AAT20160114074011401/14/16 07:40:31  5-MIN KAAT 141540Z AUTO 00000KT 10SM BKN100 M03/M06 A3007 4240 85 3100 000/00 RMK AO2 T10331056
94299KAAT AAT20160114074511401/14/16 07:45:31  5-MIN KAAT 141545Z AUTO 00000KT 10SM BKN100 M04/M05 A3008 4230 92 3000 000/00 RMK AO2 T10391050
94299KAAT AAT20160114075012101/14/16 07:50:31  5-MIN KAAT 141550Z AUTO 00000KT 10SM BKN100 M04/M05 A3008 4240 92 3000 000/00 RMK AO2 SLP207 T10391050
94299KAAT AAT20160114075512101/14/16 07:55:31  5-MIN KAAT 141555Z AUTO 00000KT 10SM OVC110 M04/M05 A3008 4240 92 3000 000/00 RMK AO2 SLP206 T10391050
94299KAAT AAT20160114080011401/14/16 08:00:31  5-MIN KAAT 141600Z AUTO 00000KT 10SM OVC110 M03/M05 A3007 4240 88 3100 000/00 RMK AO2 T10331050
94299KAAT AAT20160114080511401/14/16 08:05:31  5-MIN KAAT 141605Z AUTO 00000KT 10SM OVC110 M03/M05 A3007 4240 88 3100 000/00 RMK AO2 T10331050
94299KAAT AAT20160114081011401/14/16 08:10:31  5-MIN KAAT 141610Z AUTO 00000KT 10SM OVC110 M03/M05 A3007 4240 88 3100 000/00 RMK AO2 T10331050
94299KAAT AAT20160114081511401/14/16 08:15:31  5-MIN KAAT 141615Z AUTO 00000KT 10SM OVC110 M03/M05 A3008 4240 88 3100 000/00 RMK AO2 T10331050
94299KAAT AAT20160114082012101/14/16 08:20:31  5-MIN KAAT 141620Z AUTO 00000KT 10SM SCT085 OVC110 M03/M05 A3008 4240 88 3100 000/00 RMK AO2 T10331050
94299KAAT AAT20160114082512101/14/16 08:25:31  5-MIN KAAT 141625Z AUTO 00000KT 10SM BKN085 OVC110 M03/M05 A3008 4240 88 3100 000/00 RMK AO2 T10331050
94299KAAT AAT20160114083012101/14/16 08:30:31  5-MIN KAAT 141630Z AUTO 35003KT 10SM BKN085 OVC110 M03/M04 A3008 4240 92 3100 340/03 RMK AO2 T10331044
94299KAAT AAT20160114083512101/14/16 08:35:31  5-MIN KAAT 141635Z AUTO 36003KT 10SM BKN085 OVC110 M03/M04 A3008 4230 92 3100 350/03 RMK AO2 T10331044
94299KAAT AAT20160114084012101/14/16 08:40:31  5-MIN KAAT 141640Z AUTO 00000KT 10SM BKN090 OVC110 M03/M04 A3008 4230 88 3100 000/00 RMK AO2 T10281044
94299KAAT AAT20160114084511401/14/16 08:45:31  5-MIN KAAT 141645Z AUTO 00000KT 10SM OVC090 M03/M04 A3008 4230 88 3100 000/00 RMK AO2 T10281044
94299KAAT AAT20160114085012101/14/16 08:50:31  5-MIN KAAT 141650Z AUTO 00000KT 10SM OVC095 M03/M04 A3008 4240 88 3100 000/00 RMK AO2 SLP205 T10281044
94299KAAT AAT20160114085512101/14/16 08:55:31  5-MIN KAAT 141655Z AUTO 00000KT 10SM OVC095 M03/M04 A3008 4230 88 3100 000/00 RMK AO2 SLP207 T10281044
94299KAAT AAT20160114090011401/14/16 09:00:31  5-MIN KAAT 141700Z AUTO 00000KT 10SM BKN095 M03/M04 A3008 4240 92 3100 000/00 RMK AO2 T10281039
94299KAAT AAT20160114090512101/14/16 09:05:31  5-MIN KAAT 141705Z AUTO 08003KT 10SM SCT095 BKN120 M02/M04 A3007 4250 88 3200 070/03 RMK AO2 T10221039
94299KAAT AAT20160114091012101/14/16 09:10:31  5-MIN KAAT 141710Z AUTO 08003KT 10SM SCT095 BKN120 M02/M04 A3006 4250 88 3200 060/03 RMK AO2 T10221039
94299KAAT AAT20160114091512101/14/16 09:15:31  5-MIN KAAT 141715Z AUTO 00000KT 10SM FEW100 BKN120 M02/M04 A3006 4250 88 3200 000/00 RMK AO2 T10221039
94299KAAT AAT20160114092012101/14/16 09:20:31  5-MIN KAAT 141720Z AUTO 07003KT 10SM FEW100 BKN120 M02/M04 A3007 4250 85 3300 050/03 RMK AO2 T10171039
94299KAAT AAT20160114092511401/14/16 09:25:31  5-MIN KAAT 141725Z AUTO 00000KT 10SM BKN120 M02/M04 A3007 4240 85 3300 000/00 RMK AO2 T10171039
94299KAAT AAT20160114093011401/14/16 09:30:31  5-MIN KAAT 141730Z AUTO 00000KT 10SM BKN120 M02/M04 A3007 4240 85 3300 000/00 RMK AO2 T10171039
94299KAAT AAT20160114093511401/14/16 09:35:31  5-MIN KAAT 141735Z AUTO 05004KT 10SM OVC110 M02/M04 A3007 4240 85 3300 040/04 RMK AO2 T10171039
94299KAAT AAT20160114094011401/14/16 09:40:31  5-MIN KAAT 141740Z AUTO 07005KT 10SM OVC110 M02/M04 A3006 4250 88 3200 050/05 RMK AO2 T10221039
94299KAAT AAT20160114094511401/14/16 09:45:31  5-MIN KAAT 141745Z AUTO 06004KT 10SM OVC110 M02/M04 A3006 4250 88 3200 050/04 RMK AO2 T10221039
94299KAAT AAT20160114095013901/14/16 09:50:31  5-MIN KAAT 141750Z AUTO 05005KT 10SM OVC110 M02/M04 A3006 4250 85 3200 040/05 RMK AO2 SLP200 T10221044 11017 21067 56008
94299KAAT AAT20160114095513901/14/16 09:55:31  5-MIN KAAT 141755Z AUTO 06004KT 10SM OVC110 M02/M04 A3006 4250 85 3300 040/04 RMK AO2 SLP200 T10171039 11017 21067 50001
94299KAAT AAT20160114100011401/14/16 10:00:31  5-MIN KAAT 141800Z AUTO 05004KT 10SM OVC110 M02/M04 A3006 4250 85 3300 040/04 RMK AO2 T10171039
94299KAAT AAT20160114100511401/14/16 10:05:31  5-MIN KAAT 141805Z AUTO 07003KT 10SM OVC100 M02/M04 A3005 4260 85 3300 050/03 RMK AO2 T10171039
94299KAAT AAT20160114101011401/14/16 10:10:31  5-MIN KAAT 141810Z AUTO 00000KT 10SM OVC100 M02/M04 A3005 4260 85 3300 000/00 RMK AO2 T10171039
94299KAAT AAT20160114101511401/14/16 10:15:31  5-MIN KAAT 141815Z AUTO 00000KT 10SM OVC100 M01/M04 A3005 4260 81 3400 000/00 RMK AO2 T10111039
94299KAAT AAT20160114102011401/14/16 10:20:31  5-MIN KAAT 141820Z AUTO 00000KT 10SM OVC100 M01/M04 A3004 4270 81 3400 000/00 RMK AO2 T10111039
94299KAAT AAT20160114102512101/14/16 10:25:31  5-MIN KAAT 141825Z AUTO 08003KT 10SM FEW075 OVC100 M01/M04 A3004 4270 81 3400 060/03 RMK AO2 T10111039
94299KAAT AAT20160114103012101/14/16 10:30:31  5-MIN KAAT 141830Z AUTO 26003KT 10SM BKN090 OVC110 M01/M04 A3006 4250 81 3400 240/03 RMK AO2 T10111039
94299KAAT AAT20160114103512101/14/16 10:35:31  5-MIN KAAT 141835Z AUTO 00000KT 10SM SCT075 OVC095 M01/M04 A3006 4260 81 3400 000/00 RMK AO2 T10111039
94299KAAT AAT20160114104012101/14/16 10:40:31  5-MIN KAAT 141840Z AUTO 00000KT 10SM SCT075 OVC095 M01/M04 A3005 4260 81 3400 000/00 RMK AO2 T10111039
94299KAAT AAT20160114104512101/14/16 10:45:31  5-MIN KAAT 141845Z AUTO 00000KT 10SM FEW075 OVC090 M01/M03 A3006 4250 85 3400 000/00 RMK AO2 T10111033
94299KAAT AAT20160114105012101/14/16 10:50:31  5-MIN KAAT 141850Z AUTO 00000KT 10SM OVC085 M01/M03 A3005 4260 85 3400 000/00 RMK AO2 SLP198 T10111033
94299KAAT AAT20160114105512801/14/16 10:55:31  5-MIN KAAT 141855Z AUTO 20003KT 10SM BKN080 OVC095 M01/M03 A3005 4260 85 3400 190/03 RMK AO2 SLP197 T10111033
94299KAAT AAT20160114110012801/14/16 11:00:31  5-MIN KAAT 141900Z AUTO 16003KT 10SM FEW060 BKN075 OVC090 M01/M03 A3004 4270 85 3400 140/03 RMK AO2 T10111033
94299KAAT AAT20160114110513501/14/16 11:05:31  5-MIN KAAT 141905Z AUTO 12003KT 10SM SCT060 BKN080 OVC090 M01/M03 A3003 4280 85 3400 100/03 RMK AO2 PRESFR T10111033
94299KAAT AAT20160114111012801/14/16 11:10:31  5-MIN KAAT 141910Z AUTO 09005KT 10SM BKN060 OVC085 M01/M03 A3002 4290 85 3400 080/05 RMK AO2 PRESFR T10111033
94299KAAT AAT20160114111512101/14/16 11:15:31  5-MIN KAAT 141915Z AUTO 10004KT 10SM BKN060 OVC085 M01/M03 A3002 4290 81 3500 080/04 RMK AO2 T10061033
94299KAAT AAT20160114112012101/14/16 11:20:31  5-MIN KAAT 141920Z AUTO 11005KT 10SM OVC060 M01/M03 A3001 4300 81 3500 100/05 RMK AO2 PRESFR T10061033
94299KAAT AAT20160114112512101/14/16 11:25:31  5-MIN KAAT 141925Z AUTO 09004KT 10SM OVC060 M01/M03 A3000 4310 81 3500 070/04 RMK AO2 PRESFR T10061033
94299KAAT AAT20160114113012101/14/16 11:30:31  5-MIN KAAT 141930Z AUTO VRB04KT 10SM OVC060 M01/M03 A2999 4310 81 3500 VRB/04 RMK AO2 PRESFR T10061033
94299KAAT AAT20160114113512101/14/16 11:35:31  5-MIN KAAT 141935Z AUTO 10005KT 10SM OVC060 M01/M03 A2999 4320 81 3500 080/05 RMK AO2 PRESFR T10061033
94299KAAT AAT20160114114012801/14/16 11:40:31  5-MIN KAAT 141940Z AUTO 07008KT 10SM BKN060 OVC075 M01/M03 A2998 4330 81 3500 050/08 RMK AO2 PRESFR T10061033
94299KAAT AAT20160114114512801/14/16 11:45:31  5-MIN KAAT 141945Z AUTO 00000KT 10SM SCT055 BKN070 OVC085 M01/M03 A2998 4330 81 3500 000/00 RMK AO2 T10061033
94299KAAT AAT20160114115012801/14/16 11:50:31  5-MIN KAAT 141950Z AUTO 05003KT 10SM BKN060 OVC080 M01/M03 A2997 4330 81 3500 030/03 RMK AO2 SLP170 T10061033
94299KAAT AAT20160114115512701/14/16 11:55:31  5-MIN KAAT 141955Z AUTO 05003KT 10SM BKN055 OVC070 00/M03 A2996 4340 81 3600 040/03 RMK AO2 SLP166 T00001028
94299KAAT AAT20160114120012101/14/16 12:00:31  5-MIN KAAT 142000Z AUTO 06003KT 10SM BKN055 OVC070 M01/M03 A2995 4350 81 3600 040/03 RMK AO2 T10061033
94299KAAT AAT20160114120512101/14/16 12:05:31  5-MIN KAAT 142005Z AUTO 00000KT 10SM BKN060 OVC075 M01/M03 A2995 4350 85 3600 000/00 RMK AO2 T10061028
94299KAAT AAT20160114121012701/14/16 12:10:31  5-MIN KAAT 142010Z AUTO 00000KT 10SM FEW050 BKN060 OVC075 00/M03 A2995 4360 81 3600 000/00 RMK AO2 T00001028
94299KAAT AAT20160114121512001/14/16 12:15:31  5-MIN KAAT 142015Z AUTO 00000KT 10SM BKN060 OVC090 01/M03 A2995 4360 78 3700 000/00 RMK AO2 T00061028
94299KAAT AAT20160114122012701/14/16 12:20:31  5-MIN KAAT 142020Z AUTO 33004KT 10SM BKN060 BKN080 OVC090 00/M03 A2995 4360 81 3600 320/04 RMK AO2 T00001028
94299KAAT AAT20160114122512801/14/16 12:25:31  5-MIN KAAT 142025Z AUTO 35004KT 10SM BKN060 BKN080 OVC090 M01/M03 A2994 4360 81 3600 340/04 RMK AO2 T10061033
94299KAAT AAT20160114123012101/14/16 12:30:31  5-MIN KAAT 142030Z AUTO 34005KT 10SM BKN060 OVC090 M01/M03 A2994 4360 81 3600 320/05 RMK AO2 T10061033
94299KAAT AAT20160114123512001/14/16 12:35:31  5-MIN KAAT 142035Z AUTO 34005KT 10SM BKN060 OVC075 00/M03 A2994 4370 78 3600 330/05 RMK AO2 T00001033
94299KAAT AAT20160114124012001/14/16 12:40:31  5-MIN KAAT 142040Z AUTO VRB03KT 10SM BKN055 OVC075 01/M03 A2994 4360 75 3700 VRB/03 RMK AO2 T00061033
94299KAAT AAT20160114124512001/14/16 12:45:31  5-MIN KAAT 142045Z AUTO 00000KT 10SM BKN055 OVC070 01/M03 A2994 4370 78 3700 000/00 RMK AO2 T00061028
94299KAAT AAT20160114125013301/14/16 12:50:31  5-MIN KAAT 142050Z AUTO 00000KT 10SM BKN060 OVC075 01/M03 A2993 4370 75 3800 000/00 RMK AO2 SLP155 T00111028 50001
94299KAAT AAT20160114125513301/14/16 12:55:31  5-MIN KAAT 142055Z AUTO 00000KT 10SM BKN060 OVC070 01/M03 A2993 4370 75 3800 000/00 RMK AO2 SLP157 T00111028 58039
94299KAAT AAT20160114130012001/14/16 13:00:31  5-MIN KAAT 142100Z AUTO 00000KT 10SM BKN055 OVC070 01/M03 A2993 4370 75 3800 000/00 RMK AO2 T00111028
94299KAAT AAT20160114130512001/14/16 13:05:31  5-MIN KAAT 142105Z AUTO 19006KT 10SM BKN055 OVC070 01/M03 A2993 4370 75 3800 170/06 RMK AO2 T00111028
94299KAAT AAT20160114131012701/14/16 13:10:31  5-MIN KAAT 142110Z AUTO 18009KT 10SM FEW044 BKN050 OVC060 01/M02 A2992 4380 78 3800 170/09 RMK AO2 T00111022
94299KAAT AAT20160114131512001/14/16 13:15:31  5-MIN KAAT 142115Z AUTO 18009KT 10SM BKN049 OVC060 01/M03 A2992 4380 75 3800 160/09 RMK AO2 T00111028
94299KAAT AAT20160114132012701/14/16 13:20:31  5-MIN KAAT 142120Z AUTO 17010KT 10SM BKN045 OVC055 02/M03 A2991 4390 72 3900 160/10 RMK AO2 PRESFR T00171028
94299KAAT AAT20160114132512001/14/16 13:25:31  5-MIN KAAT 142125Z AUTO 17010KT 10SM BKN040 OVC050 02/M03 A2991 4390 72 3900 160/10 RMK AO2 T00171028
94299KAAT AAT20160114133013501/14/16 13:30:31  5-MIN KAAT 142130Z AUTO 17009KT 9SM -SN BKN036 OVC047 02/M03 A2990 4400 72 3900 160/09 RMK AO2 SNB27 P0000 T00171028
94299KAAT AAT20160114133514201/14/16 13:35:31  5-MIN KAAT 142135Z AUTO 16011KT 7SM -SN BKN034 BKN042 OVC049 02/M03 A2990 4400 72 3900 150/11 RMK AO2 SNB27 P0000 T00171028
94299KAAT AAT20160114134014201/14/16 13:40:31  5-MIN KAAT 142140Z AUTO 17010KT 7SM -SN BKN036 BKN042 OVC065 02/M03 A2990 4400 72 3900 150/10 RMK AO2 SNB27 P0000 T00171028
94299KAAT AAT20160114134514201/14/16 13:45:31  5-MIN KAAT 142145Z AUTO 17011KT 9SM -SN SCT035 BKN043 OVC065 01/M03 A2989 4410 75 3800 160/11 RMK AO2 SNB27 P0000 T00111028
94299KAAT AAT20160114135014801/14/16 13:50:31  5-MIN KAAT 142150Z AUTO 18009KT 9SM BKN037 BKN045 OVC060 01/M03 A2989 4410 75 3800 160/09 RMK AO2 SNB27E46 SLP138 P0000 T00111028
94299KAAT AAT20160114135514901/14/16 13:55:31  5-MIN KAAT 142155Z AUTO 18008KT 10SM SCT037 BKN045 OVC065 01/M03 A2988 4420 75 3800 160/08 RMK AO2 SNB27E46 SLP136 P0000 T00111028
94299KAAT AAT20160114140012601/14/16 14:00:31  5-MIN KAAT 142200Z AUTO 17013G18KT 10SM BKN041 OVC060 02/M03 A2988 4420 72 3900 150/13G18 RMK AO2 T00171028
94299KAAT AAT20160114140512001/14/16 14:05:31  5-MIN KAAT 142205Z AUTO 19015KT 10SM SCT043 OVC060 02/M03 A2988 4420 72 3900 170/15 RMK AO2 T00171028
94299KAAT AAT20160114141012701/14/16 14:10:31  5-MIN KAAT 142210Z AUTO 18012KT 10SM FEW043 SCT050 OVC060 02/M03 A2988 4420 72 3900 170/12 RMK AO2 T00171028
94299KAAT AAT20160114141512001/14/16 14:15:31  5-MIN KAAT 142215Z AUTO 18012KT 10SM FEW045 OVC055 02/M03 A2988 4420 72 3900 160/12 RMK AO2 T00171028
94299KAAT AAT20160114142012001/14/16 14:20:31  5-MIN KAAT 142220Z AUTO 17012KT 10SM SCT045 OVC055 01/M02 A2988 4420 78 3800 160/12 RMK AO2 T00111022
94299KAAT AAT20160114142512701/14/16 14:25:31  5-MIN KAAT 142225Z AUTO 18011KT 10SM FEW038 SCT047 OVC055 01/M02 A2988 4420 78 3800 160/11 RMK AO2 T00111022
94299KAAT AAT20160114143012701/14/16 14:30:31  5-MIN KAAT 142230Z AUTO 18011KT 10SM FEW040 BKN047 OVC055 01/M03 A2989 4410 75 3800 170/11 RMK AO2 T00111028
94299KAAT AAT20160114143513601/14/16 14:35:31  5-MIN KAAT 142235Z AUTO 18009KT 10SM -SN BKN044 OVC055 01/M03 A2988 4420 75 3800 170/09 RMK AO2 SNB35 P0000 T00111028
94299KAAT AAT20160114144013501/14/16 14:40:31  5-MIN KAAT 142240Z AUTO 17013KT 9SM -SN BKN046 OVC055 01/M02 A2988 4420 78 3800 160/13 RMK AO2 SNB35 P0000 T00111022
94299KAAT AAT20160114144513501/14/16 14:45:31  5-MIN KAAT 142245Z AUTO 17011KT 9SM -SN BKN046 OVC055 01/M02 A2988 4420 78 3800 160/11 RMK AO2 SNB35 P0000 T00111022
94299KAAT AAT20160114145014201/14/16 14:50:31  5-MIN KAAT 142250Z AUTO 16013KT 8SM -SN BKN044 OVC055 01/M02 A2987 4430 82 3800 150/13 RMK AO2 SNB35 SLP134 P0000 T00061022
94299KAAT AAT20160114145513501/14/16 14:55:31  5-MIN KAAT 142255Z AUTO 16011KT 8SM -SN OVC044 01/M02 A2987 4430 85 3800 150/11 RMK AO2 SNB35 SLP134 P0000 T00061017
94299KAAT AAT20160114150013201/14/16 15:00:31  5-MIN KAAT 142300Z AUTO 16010KT 6SM -SN BR BKN042 OVC050 01/M02 A2987 4430 85 3800 150/10 RMK AO2 P0000 T00061017
94299KAAT AAT20160114150512901/14/16 15:05:31  5-MIN KAAT 142305Z AUTO 16012KT 2 1/2SM -SN BR OVC042 01/M02 A2987 4430 85 3800 150/12 RMK AO2 P0000 T00061017
94299KAAT AAT20160114151012501/14/16 15:10:31  5-MIN KAAT 142310Z AUTO 16009KT 2SM -SN BR OVC040 01/M02 A2987 4430 85 3800 140/09 RMK AO2 P0000 T00061017
94299KAAT AAT20160114151512901/14/16 15:15:31  5-MIN KAAT 142315Z AUTO 16011KT 2 1/2SM -SN BR OVC042 00/M02 A2987 4430 88 3700 150/11 RMK AO2 P0000 T00001017
94299KAAT AAT20160114152012501/14/16 15:20:31  5-MIN KAAT 142320Z AUTO 16012KT 3SM -SN BR OVC042 00/M02 A2986 4430 88 3700 150/12 RMK AO2 P0000 T00001017
94299KAAT AAT20160114152513201/14/16 15:25:31  5-MIN KAAT 142325Z AUTO 16010KT 3SM -SN BR BKN042 OVC055 00/M02 A2986 4440 88 3700 150/10 RMK AO2 P0000 T00001017
94299KAAT AAT20160114153013201/14/16 15:30:31  5-MIN KAAT 142330Z AUTO 16011KT 3SM -SN BR BKN042 OVC060 00/M01 A2986 4440 92 3700 150/11 RMK AO2 P0000 T00001011
94299KAAT AAT20160114153513201/14/16 15:35:31  5-MIN KAAT 142335Z AUTO 16012KT 5SM -SN BR BKN045 OVC060 00/M02 A2986 4440 88 3700 140/12 RMK AO2 P0000 T00001017
94299KAAT AAT20160114154013201/14/16 15:40:31  5-MIN KAAT 142340Z AUTO 16012KT 5SM -SN BR BKN045 OVC060 00/M02 A2985 4440 88 3700 150/12 RMK AO2 P0000 T00001017
94299KAAT AAT20160114154513901/14/16 15:45:31  5-MIN KAAT 142345Z AUTO 16011KT 5SM -SN BR FEW039 BKN049 OVC060 01/M01 A2985 4440 89 3800 150/11 RMK AO2 P0000 T00061011
94299KAAT AAT20160114155017601/14/16 15:50:31  5-MIN KAAT 142350Z AUTO 16012G19KT 4SM -SN BR FEW039 BKN049 OVC060 01/M02 A2985 4450 85 3800 140/12G19 RMK AO2 SLP129 P0000 60000 T00061017 10017 21017 58039
94299KAAT AAT20160114155517601/14/16 15:55:31  5-MIN KAAT 142355Z AUTO 16011G19KT 4SM -SN BR FEW038 BKN050 OVC060 01/M02 A2985 4440 85 3800 150/11G19 RMK AO2 SLP130 P0000 60000 T00061017 10017 21017 56024
94299KAAT AAT20160114160013601/14/16 16:00:31  5-MIN KAAT 150000Z AUTO 16011KT 7SM -SN FEW036 BKN043 OVC055 01/M02 A2985 4450 85 3800 150/11 RMK AO2 P0000 T00061017
94299KAAT AAT20160114160513501/14/16 16:05:31  5-MIN KAAT 150005Z AUTO 16011G18KT 9SM -SN BKN040 OVC050 01/M02 A2985 4450 85 3800 150/11G18 RMK AO2 P0000 T00061017
94299KAAT AAT20160114161013701/14/16 16:10:31  5-MIN KAAT 150010Z AUTO 16010G19KT 9SM SCT036 OVC045 01/M02 A2984 4450 85 3800 150/10G19 RMK AO2 SNE08 P0000 T00061017
94299KAAT AAT20160114161513201/14/16 16:15:31  5-MIN KAAT 150015Z AUTO 16010KT 10SM SCT036 OVC043 01/M02 A2984 4450 85 3800 150/10 RMK AO2 SNE08 P0000 T00061017
94299KAAT AAT20160114162012501/14/16 16:20:31  5-MIN KAAT 150020Z AUTO 16010KT 10SM OVC036 01/M02 A2984 4450 85 3800 140/10 RMK AO2 SNE08 P0000 T00061017
94299KAAT AAT20160114162512501/14/16 16:25:31  5-MIN KAAT 150025Z AUTO 16010KT 10SM OVC036 01/M02 A2984 4450 85 3800 150/10 RMK AO2 SNE08 P0000 T00061017
94299KAAT AAT20160114163013401/14/16 16:30:31  5-MIN KAAT 150030Z AUTO 16010KT 6SM -SN BR OVC034 01/M02 A2984 4450 85 3800 150/10 RMK AO2 SNE08B27 P0000 T00061017
94299KAAT AAT20160114163513401/14/16 16:35:31  5-MIN KAAT 150035Z AUTO 16009KT 3SM -SN BR OVC032 01/M02 A2984 4450 85 3800 150/09 RMK AO2 SNE08B27 P0000 T00061017
94299KAAT AAT20160114164013801/14/16 16:40:31  5-MIN KAAT 150040Z AUTO 16009KT 2 1/2SM -SN BR OVC032 01/M02 A2984 4450 85 3800 150/09 RMK AO2 SNE08B27 P0000 T00061017
94299KAAT AAT20160114164513801/14/16 16:45:31  5-MIN KAAT 150045Z AUTO 16008KT 2 1/2SM -SN BR OVC032 01/M01 A2984 4460 89 3800 140/08 RMK AO2 SNE08B27 P0000 T00061011
94299KAAT AAT20160114165012401/14/16 16:50:31  5-MIN KAAT 150050Z AUTO 16009KT 3SM -SN BR OVC032 01/M01 A2983 4460 89 3800 140/09 RMK AO2 SNE08B27 P0000
94299KAAT AAT20160114165514101/14/16 16:55:31  5-MIN KAAT 150055Z AUTO 16009KT 4SM -SN BR OVC034 01/M02 A2983 4460 85 3800 140/09 RMK AO2 SNE08B27 SLP122 P0000 T00061017
94299KAAT AAT20160114170012501/14/16 17:00:31  5-MIN KAAT 150100Z AUTO 16007KT 5SM -SN BR OVC034 01/M01 A2983 4470 89 3800 150/07 RMK AO2 P0000 T00061011
94299KAAT AAT20160114170512201/14/16 17:05:31  5-MIN KAAT 150105Z AUTO 16007KT 8SM -SN OVC034 01/M02 A2983 4470 85 3800 150/07 RMK AO2 P0000 T00061017
94299KAAT AAT20160114171012401/14/16 17:10:31  5-MIN KAAT 150110Z AUTO 16007KT 9SM OVC034 01/M02 A2983 4470 85 3800 150/07 RMK AO2 SNE07 P0000 T00061017
94299KAAT AAT20160114171512501/14/16 17:15:31  5-MIN KAAT 150115Z AUTO 17009KT 10SM OVC032 01/M02 A2982 4470 85 3800 150/09 RMK AO2 SNE07 P0000 T00061017
94299KAAT AAT20160114172012501/14/16 17:20:31  5-MIN KAAT 150120Z AUTO 16009KT 10SM OVC032 01/M02 A2982 4480 85 3800 150/09 RMK AO2 SNE07 P0000 T00061017
94299KAAT AAT20160114172512501/14/16 17:25:31  5-MIN KAAT 150125Z AUTO 16008KT 10SM OVC032 01/M02 A2982 4480 85 3800 140/08 RMK AO2 SNE07 P0000 T00061017
94299KAAT AAT20160114173012501/14/16 17:30:31  5-MIN KAAT 150130Z AUTO 16006KT 10SM OVC032 01/M02 A2982 4480 85 3800 150/06 RMK AO2 SNE07 P0000 T00061017
94299KAAT AAT20160114173512501/14/16 17:35:31  5-MIN KAAT 150135Z AUTO 16008KT 10SM OVC029 01/M02 A2981 4480 85 3800 150/08 RMK AO2 SNE07 P0000 T00061017
94299KAAT AAT20160114174012501/14/16 17:40:31  5-MIN KAAT 150140Z AUTO 17010KT 10SM OVC029 01/M02 A2981 4480 85 3900 150/10 RMK AO2 SNE07 P0000 T00061017
94299KAAT AAT20160114174512501/14/16 17:45:31  5-MIN KAAT 150145Z AUTO 16009KT 10SM OVC029 01/M02 A2981 4480 85 3800 150/09 RMK AO2 SNE07 P0000 T00061017
94299KAAT AAT20160114175013201/14/16 17:50:31  5-MIN KAAT 150150Z AUTO 17008KT 10SM OVC029 01/M02 A2982 4480 85 3800 150/08 RMK AO2 SNE07 SLP118 P0000 T00061017
94299KAAT AAT20160114175513201/14/16 17:55:31  5-MIN KAAT 150155Z AUTO 18008KT 10SM OVC028 01/M02 A2982 4480 85 3800 170/08 RMK AO2 SNE07 SLP117 P0000 T00061017
94299KAAT AAT20160114180013001/14/16 18:00:31  5-MIN KAAT 150200Z AUTO 18006KT 10SM UP OVC028 01/M02 A2981 4480 85 3800 170/06 RMK AO2 UPB0158 P0000 T00061017
94299KAAT AAT20160114180513701/14/16 18:05:31  5-MIN KAAT 150205Z AUTO 18006KT 10SM UP FEW025 OVC030 01/M02 A2981 4480 85 3800 160/06 RMK AO2 UPB0158 P0000 T00061017
94299KAAT AAT20160114181013701/14/16 18:10:31  5-MIN KAAT 150210Z AUTO 18006KT 10SM UP FEW025 OVC032 01/M02 A2981 4480 85 3800 170/06 RMK AO2 UPB0158 P0000 T00061017
94299KAAT AAT20160114181513701/14/16 18:15:31  5-MIN KAAT 150215Z AUTO 19005KT 10SM FEW025 OVC032 00/M01 A2981 4480 92 3800 170/05 RMK AO2 UPB0158E11 P0000 T00001011
94299KAAT AAT20160114182013701/14/16 18:20:31  5-MIN KAAT 150220Z AUTO 18005KT 10SM FEW025 OVC030 00/M01 A2981 4480 92 3800 170/05 RMK AO2 UPB0158E11 P0000 T00001011
94299KAAT AAT20160114182513001/14/16 18:25:31  5-MIN KAAT 150225Z AUTO 18004KT 10SM OVC032 00/M01 A2981 4480 92 3800 160/04 RMK AO2 UPB0158E11 P0000 T00001011
94299KAAT AAT20160114183013801/14/16 18:30:31  5-MIN KAAT 150230Z AUTO 17005KT 8SM -SN OVC034 00/M01 A2981 4480 92 3800 160/05 RMK AO2 UPB0158E11SNB26 P0000 T00001011
94299KAAT AAT20160114183513801/14/16 18:35:31  5-MIN KAAT 150235Z AUTO 17004KT 7SM -SN OVC034 00/M01 A2981 4490 92 3800 150/04 RMK AO2 UPB0158E11SNB26 P0000 T00001011
94299KAAT AAT20160114184014101/14/16 18:40:31  5-MIN KAAT 150240Z AUTO 17004KT 6SM -SN BR OVC036 00/M01 A2981 4490 92 3800 160/04 RMK AO2 UPB0158E11SNB26 P0000 T00001011
94299KAAT AAT20160114184514101/14/16 18:45:31  5-MIN KAAT 150245Z AUTO 18003KT 5SM -SN BR OVC036 00/M01 A2981 4490 92 3800 160/03 RMK AO2 UPB0158E11SNB26 P0000 T00001011
94299KAAT AAT20160114185016701/14/16 18:50:31  5-MIN KAAT 150250Z AUTO 19003KT 4SM -SN BR FEW020 OVC036 00/M01 A2981 4480 92 3800 180/03 RMK AO2 UPB0158E11SNB26 SLP115 P0000 60000 T00001011 56024
94299KAAT AAT20160114185516701/14/16 18:55:31  5-MIN KAAT 150255Z AUTO 20003KT 4SM -SN BR FEW020 OVC032 00/M01 A2981 4480 92 3800 180/03 RMK AO2 UPB0158E11SNB26 SLP115 P0000 60000 T00001011 56013
94299KAAT AAT20160114190013201/14/16 19:00:31  5-MIN KAAT 150300Z AUTO 00000KT 3SM -SN BR FEW020 OVC030 00/M01 A2981 4480 92 3800 000/00 RMK AO2 P0000 T00001011
94299KAAT AAT20160114190513601/14/16 19:05:31  5-MIN KAAT 150305Z AUTO 00000KT 2 1/2SM -SN BR FEW020 OVC026 00/M01 A2981 4480 92 3800 000/00 RMK AO2 P0000 T00001011
94299KAAT AAT20160114191012501/14/16 19:10:31  5-MIN KAAT 150310Z AUTO 00000KT 2SM -SN BR OVC022 00/M01 A2981 4480 96 3800 000/00 RMK AO2 P0000 T00001006
94299KAAT AAT20160114191512901/14/16 19:15:31  5-MIN KAAT 150315Z AUTO 00000KT 1 3/4SM -SN BR OVC020 00/M01 A2982 4480 96 3800 000/00 RMK AO2 P0001 T00001006
94299KAAT AAT20160114192012901/14/16 19:20:31  5-MIN KAAT 150320Z AUTO 00000KT 1 1/2SM -SN BR OVC018 00/M01 A2982 4480 96 3800 000/00 RMK AO2 P0001 T00001006
94299KAAT AAT20160114192512901/14/16 19:25:31  5-MIN KAAT 150325Z AUTO 00000KT 1 1/4SM -SN BR OVC018 00/M01 A2982 4480 96 3800 000/00 RMK AO2 P0001 T00001006
94299KAAT AAT20160114193013601/14/16 19:30:31  5-MIN KAAT 150330Z AUTO 00000KT 1 3/4SM -SN BR FEW008 OVC018 00/M01 A2982 4470 96 3800 000/00 RMK AO2 P0001 T00001006
94299KAAT AAT20160114193513201/14/16 19:35:31  5-MIN KAAT 150335Z AUTO 00000KT 3SM -SN BR SCT010 OVC016 00/M01 A2982 4470 96 3800 000/00 RMK AO2 P0001 T00001006
94299KAAT AAT20160114194013201/14/16 19:40:31  5-MIN KAAT 150340Z AUTO 00000KT 5SM -SN BR SCT010 OVC014 00/M01 A2982 4480 96 3800 000/00 RMK AO2 P0001 T00001006
94299KAAT AAT20160114194513201/14/16 19:45:31  5-MIN KAAT 150345Z AUTO 00000KT 5SM -SN BR BKN008 OVC014 00/M01 A2982 4470 96 3800 000/00 RMK AO2 P0001 T00001006
94299KAAT AAT20160114195014101/14/16 19:50:31  5-MIN KAAT 150350Z AUTO 00000KT 3SM -SN BR BKN008 OVC014 M01/M01 A2982 4470 100 3700 000/00 RMK AO2 SLP118 P0002 T10061006
94299KAAT AAT20160114195514101/14/16 19:55:31  5-MIN KAAT 150355Z AUTO 00000KT 3SM -SN BR BKN008 OVC014 M01/M01 A2982 4470 100 3700 000/00 RMK AO2 SLP119 P0002 T10061006
94299KAAT AAT20160114200013801/14/16 20:00:31  5-MIN KAAT 150400Z AUTO 00000KT 2 1/2SM -SN BR BKN008 OVC012 M01/M01 A2982 4470 100 3700 000/00 RMK AO2 P0000 T10061006
94299KAAT AAT20160114200513801/14/16 20:05:31  5-MIN KAAT 150405Z AUTO 00000KT 2 1/2SM -SN BR BKN008 OVC014 M01/M01 A2982 4470 100 3700 000/00 RMK AO2 P0000 T10061006
94299KAAT AAT20160114201013801/14/16 20:10:31  5-MIN KAAT 150410Z AUTO 00000KT 2 1/2SM -SN BR BKN008 OVC014 M01/M01 A2982 4470 100 3700 000/00 RMK AO2 P0000 T10061006
94299KAAT AAT20160114201513401/14/16 20:15:31  5-MIN KAAT 150415Z AUTO 00000KT 2SM -SN BR BKN008 OVC014 M01/M01 A2982 4470 100 3700 000/00 RMK AO2 P0000 T10061006
94299KAAT AAT20160114202013801/14/16 20:20:31  5-MIN KAAT 150420Z AUTO 00000KT 2 1/2SM -SN BR BKN008 OVC014 M01/M01 A2982 4470 100 3700 000/00 RMK AO2 P0000 T10061006
94299KAAT AAT20160114202513801/14/16 20:25:31  5-MIN KAAT 150425Z AUTO 00000KT 2 1/2SM -SN BR BKN008 OVC014 M01/M01 A2982 4480 100 3700 000/00 RMK AO2 P0000 T10061006
94299KAAT AAT20160114203013401/14/16 20:30:31  5-MIN KAAT 150430Z AUTO 24003KT 3SM -SN BR BKN008 OVC014 M01/M01 A2982 4480 100 3700 230/03 RMK AO2 P0000 T10061006
94299KAAT AAT20160114203513401/14/16 20:35:31  5-MIN KAAT 150435Z AUTO 24003KT 4SM -SN BR BKN007 OVC012 M01/M01 A2982 4480 100 3700 230/03 RMK AO2 P0000 T10061006
94299KAAT AAT20160114204013501/14/16 20:40:31  5-MIN KAAT 150440Z AUTO 7SM BKN007 OVC012 M01/M01 A2982 4480 100 3700 M /M RMK AO2 SNE36 CIG 005V011 P0000 T10061006
94299KAAT AAT20160114204512401/14/16 20:45:31  5-MIN KAAT 150445Z AUTO 10SM SCT007 OVC012 M01/M01 A2982 4480 100 3700 M /M RMK AO2 SNE36 P0000 T10061006
94299KAAT AAT20160114205013101/14/16 20:50:31  5-MIN KAAT 150450Z AUTO 10SM SCT007 OVC014 M01/M01 A2982 4480 100 3700 M /M RMK AO2 SNE36 SLP115 P0000 T10061006
94299KAAT AAT20160114205513101/14/16 20:55:31  5-MIN KAAT 150455Z AUTO 10SM FEW007 OVC014 M01/M01 A2982 4480 100 3700 M /M RMK AO2 SNE36 SLP116 P0000 T10061006
94299KAAT AAT20160114210012101/14/16 21:00:31  5-MIN KAAT 150500Z AUTO 00000KT 10SM FEW007 OVC014 M01/M01 A2981 4480 96 3700 000/00 RMK AO2 T10061011
94299KAAT AAT20160114210513701/14/16 21:05:31  5-MIN KAAT 150505Z AUTO 00000KT 10SM -SN BKN014 OVC034 M01/M01 A2981 4480 96 3700 000/00 RMK AO2 SNB05 P0000 T10061011
94299KAAT AAT20160114211013601/14/16 21:10:31  5-MIN KAAT 150510Z AUTO 00000KT 9SM -SN BKN014 OVC034 M01/M01 A2981 4480 96 3700 000/00 RMK AO2 SNB05 P0000 T10061011
94299KAAT AAT20160114211513901/14/16 21:15:31  5-MIN KAAT 150515Z AUTO 00000KT 6SM -SN BR BKN015 OVC031 M01/M01 A2981 4480 96 3700 000/00 RMK AO2 SNB05 P0000 T10061011
94299KAAT AAT20160114212013901/14/16 21:20:31  5-MIN KAAT 150520Z AUTO 00000KT 4SM -SN BR BKN015 OVC031 M01/M01 A2981 4480 96 3700 000/00 RMK AO2 SNB05 P0000 T10061011
94299KAAT AAT20160114212513901/14/16 21:25:31  5-MIN KAAT 150525Z AUTO 00000KT 3SM -SN BR BKN015 OVC031 M01/M01 A2982 4480 96 3700 000/00 RMK AO2 SNB05 P0000 T10061011
94299KAAT AAT20160114213013901/14/16 21:30:31  5-MIN KAAT 150530Z AUTO 29003KT 3SM -SN BR BKN017 OVC029 M01/M01 A2982 4480 96 3700 280/03 RMK AO2 SNB05 P0000 T10061011
94299KAAT AAT20160114213513201/14/16 21:35:31  5-MIN KAAT 150535Z AUTO 30004KT 3SM -SN BR OVC017 M01/M01 A2982 4470 96 3700 280/04 RMK AO2 SNB05 P0000 T10061011
94299KAAT AAT20160114214013901/14/16 21:40:31  5-MIN KAAT 150540Z AUTO 29003KT 2SM -SN BR BKN017 OVC024 M01/M01 A2982 4470 96 3700 270/03 RMK AO2 SNB05 P0000 T10061011
94299KAAT AAT20160114214513901/14/16 21:45:31  5-MIN KAAT 150545Z AUTO 29003KT 2SM -SN BR BKN018 OVC024 M01/M01 A2982 4480 96 3700 280/03 RMK AO2 SNB05 P0000 T10061011
94299KAAT AAT20160114215018101/14/16 21:50:31  5-MIN KAAT 150550Z AUTO 32003KT 2 1/2SM -SN BR BKN018 BKN024 OVC034 M01/M01 A2982 4480 96 3700 310/03 RMK AO2 SNB05 SLP113 P0001 60003 T10061011 10006 21006 56013
94299KAAT AAT20160114215517001/14/16 21:55:31  5-MIN KAAT 150555Z AUTO 00000KT 3SM -SN BR BKN020 OVC032 M01/M01 A2982 4480 96 3700 000/00 RMK AO2 SNB05 SLP113 P0001 60003 T10061011 10006 21006 50002
94299KAAT AAT20160114220014001/14/16 22:00:31  5-MIN KAAT 150600Z AUTO 30003KT 4SM -SN BR FEW017 BKN022 OVC032 M01/M01 A2982 4480 96 3700 280/03 RMK AO2 P0000 T10061011
94299KAAT AAT20160114220513701/14/16 22:05:31  5-MIN KAAT 150605Z AUTO 30003KT 7SM -SN SCT018 BKN024 OVC032 M01/M01 A2982 4480 96 3700 290/03 RMK AO2 P0000 T10061011
94299KAAT AAT20160114221013901/14/16 22:10:31  5-MIN KAAT 150610Z AUTO 30004KT 9SM SCT018 BKN024 OVC032 M01/M01 A2982 4480 96 3700 280/04 RMK AO2 SNE09 P0000 T10061011
94299KAAT AAT20160114221513901/14/16 22:15:31  5-MIN KAAT 150615Z AUTO 29005KT 9SM BKN018 BKN029 OVC035 M01/M01 A2982 4470 96 3700 270/05 RMK AO2 SNE09 P0000 T10061011
94299KAAT AAT20160114222013001/14/16 22:20:31  5-MIN KAAT 150620Z AUTO 28004KT 8SM -SN BKN018 OVC032 M01/M01 A2982 4470 96 3700 260/04 RMK AO2 P0000 T10061011
94299KAAT AAT20160114222513701/14/16 22:25:31  5-MIN KAAT 150625Z AUTO 00000KT 8SM -SN BKN018 BKN024 OVC032 M01/M01 A2982 4470 96 3700 000/00 RMK AO2 P0000 T10061011
94299KAAT AAT20160114223013001/14/16 22:30:31  5-MIN KAAT 150630Z AUTO 00000KT 7SM -SN BKN018 OVC024 M01/M01 A2982 4480 96 3700 000/00 RMK AO2 P0000 T10061011
94299KAAT AAT20160114223512601/14/16 22:35:31  5-MIN KAAT 150635Z AUTO 00000KT 5SM -SN BR OVC018 M01/M01 A2982 4470 96 3700 000/00 RMK AO2 P0000 T10061011
94299KAAT AAT20160114224012701/14/16 22:40:31  5-MIN KAAT 150640Z AUTO 24003KT 4SM -SN BR OVC017 M01/M01 A2982 4470 100 3600 220/03 RMK AO2 P0000 T10111011
94299KAAT AAT20160114224512701/14/16 22:45:31  5-MIN KAAT 150645Z AUTO 00000KT 4SM -SN BR OVC017 M01/M01 A2983 4470 100 3600 000/00 RMK AO2 P0000 T10111011
94299KAAT AAT20160114225013401/14/16 22:50:31  5-MIN KAAT 150650Z AUTO 27003KT 3SM -SN BR OVC017 M01/M01 A2983 4470 100 3600 250/03 RMK AO2 SLP118 P0000 T10111011
94299KAAT AAT20160114225513401/14/16 22:55:31  5-MIN KAAT 150655Z AUTO 27003KT 3SM -SN BR OVC017 M01/M01 A2983 4460 100 3600 260/03 RMK AO2 SLP120 P0000 T10111011
94299KAAT AAT20160114230012601/14/16 23:00:31  5-MIN KAAT 150700Z AUTO 26003KT 3SM -SN BR OVC018 M01/M02 A2984 4460 96 3600 250/03 RMK AO2 P0000 T10111017
94299KAAT AAT20160114230512601/14/16 23:05:31  5-MIN KAAT 150705Z AUTO 27004KT 3SM -SN BR OVC018 M01/M02 A2984 4460 96 3600 250/04 RMK AO2 P0000 T10111017
94299KAAT AAT20160114231013101/14/16 23:10:31  5-MIN KAAT 150710Z AUTO 25004KT 1 3/4SM -SN BR OVC016 M01/M01 A2984 4460 100 3600 240/04 RMK AO2 P0000 T10111011
94299KAAT AAT20160114231512601/14/16 23:15:31  5-MIN KAAT 150715Z AUTO 27005KT 1SM -SN BR VV014 M01/M01 A2984 4460 100 3600 260/05 RMK AO2 P0000 T10111011
94299KAAT AAT20160114232012501/14/16 23:20:31  5-MIN KAAT 150720Z AUTO 28004KT 1SM -SN BR VV013 M01/M02 A2984 4460 96 3600 260/04 RMK AO2 P0001 T10111017
94299KAAT AAT20160114232512501/14/16 23:25:31  5-MIN KAAT 150725Z AUTO 00000KT 1SM -SN BR VV013 M01/M02 A2983 4460 96 3600 000/00 RMK AO2 P0002 T10111017
94299KAAT AAT20160114233013801/14/16 23:30:31  5-MIN KAAT 150730Z AUTO 28004KT 1 1/2SM -SN BR BKN014 OVC032 M01/M01 A2984 4460 100 3600 260/04 RMK AO2 P0002 T10111011
94299KAAT AAT20160114233513401/14/16 23:35:31  5-MIN KAAT 150735Z AUTO 00000KT 4SM -SN BR BKN016 OVC032 M01/M01 A2984 4460 100 3600 000/00 RMK AO2 P0002 T10111011
94299KAAT AAT20160114234012701/14/16 23:40:31  5-MIN KAAT 150740Z AUTO 00000KT 3SM -SN BR OVC016 M01/M01 A2984 4450 100 3600 000/00 RMK AO2 P0002 T10111011
94299KAAT AAT20160114234513101/14/16 23:45:31  5-MIN KAAT 150745Z AUTO 29003KT 1 1/4SM -SN BR OVC016 M01/M01 A2984 4450 100 3600 270/03 RMK AO2 P0002 T10111011
94299KAAT AAT20160114235014301/14/16 23:50:31  5-MIN KAAT 150750Z AUTO 30004KT 1SM -SN BR VV016 M01/M01 A2985 4450 100 3600 290/04 RMK AO2 SLP123 P0003 T10111011 400171067
94299KAAT AAT20160114235514801/14/16 23:55:31  5-MIN KAAT 150755Z AUTO 30004KT 1 1/4SM -SN BR OVC017 M01/M01 A2985 4450 100 3600 290/04 RMK AO2 SLP123 P0003 T10111011 400171067
94299KAAT AAT20160115000013101/15/16 00:00:31  5-MIN KAAT 150800Z AUTO 30005KT 1 1/2SM -SN BR OVC017 M01/M01 A2985 4450 100 3600 280/05 RMK AO2 P0000 T10111011
94299KAAT AAT20160115000513001/15/16 00:05:31  5-MIN KAAT 150805Z AUTO 30004KT 1 1/2SM -SN BR OVC017 M01/M02 A2985 4450 96 3600 280/04 RMK AO2 P0000 T10111017
94299KAAT AAT20160115001013101/15/16 00:10:31  5-MIN KAAT 150810Z AUTO 29005KT 1 1/2SM -SN BR OVC015 M01/M01 A2985 4450 100 3600 280/05 RMK AO2 P0001 T10111011
94299KAAT AAT20160115001513101/15/16 00:15:31  5-MIN KAAT 150815Z AUTO 28004KT 1 1/4SM -SN BR OVC015 M01/M01 A2985 4450 100 3600 270/04 RMK AO2 P0001 T10111011
94299KAAT AAT20160115002013001/15/16 00:20:31  5-MIN KAAT 150820Z AUTO 28004KT 1 1/2SM -SN BR OVC015 M01/M02 A2985 4450 96 3600 260/04 RMK AO2 P0001 T10111017
94299KAAT AAT20160115002513101/15/16 00:25:31  5-MIN KAAT 150825Z AUTO 29004KT 1 1/2SM -SN BR OVC015 M01/M01 A2985 4440 100 3600 270/04 RMK AO2 P0002 T10111011
94299KAAT AAT20160115003013101/15/16 00:30:31  5-MIN KAAT 150830Z AUTO 28003KT 1 1/2SM -SN BR OVC017 M01/M01 A2985 4440 100 3600 260/03 RMK AO2 P0002 T10111011
94299KAAT AAT20160115003512701/15/16 00:35:31  5-MIN KAAT 150835Z AUTO 27003KT 2SM -SN BR OVC019 M01/M01 A2985 4450 100 3600 250/03 RMK AO2 P0002 T10111011
94299KAAT AAT20160115004013101/15/16 00:40:31  5-MIN KAAT 150840Z AUTO VRB03KT 2 1/2SM -SN BR OVC021 M01/M01 A2985 4440 100 3600 VRB/03 RMK AO2 P0002 T10111011
94299KAAT AAT20160115004513001/15/16 00:45:31  5-MIN KAAT 150845Z AUTO 26005KT 2 1/2SM -SN BR OVC025 M01/M02 A2985 4440 96 3600 250/05 RMK AO2 P0002 T10111017
94299KAAT AAT20160115005014501/15/16 00:50:31  5-MIN KAAT 150850Z AUTO 25004KT 4SM -SN BR OVC031 M01/M02 A2986 4440 96 3600 240/04 RMK AO2 SLP125 P0002 60005 T10111017 50002
94299KAAT AAT20160115005514501/15/16 00:55:31  5-MIN KAAT 150855Z AUTO 25004KT 5SM -SN BR OVC033 M01/M02 A2986 4440 96 3600 230/04 RMK AO2 SLP125 P0002 60005 T10111017 51013
94299KAAT AAT20160115010012601/15/16 01:00:31  5-MIN KAAT 150900Z AUTO 25004KT 5SM -SN BR OVC033 M01/M02 A2986 4440 96 3600 240/04 RMK AO2 P0000 T10111017
94299KAAT AAT20160115010512601/15/16 01:05:31  5-MIN KAAT 150905Z AUTO 00000KT 3SM -SN BR OVC033 M01/M02 A2986 4430 96 3600 000/00 RMK AO2 P0000 T10111017
94299KAAT AAT20160115011012601/15/16 01:10:31  5-MIN KAAT 150910Z AUTO 00000KT 3SM -SN BR OVC032 M01/M02 A2987 4430 96 3600 000/00 RMK AO2 P0000 T10111017
94299KAAT AAT20160115011513001/15/16 01:15:31  5-MIN KAAT 150915Z AUTO 00000KT 2 1/2SM -SN BR OVC030 M01/M02 A2987 4430 96 3600 000/00 RMK AO2 P0000 T10111017
94299KAAT AAT20160115012012601/15/16 01:20:31  5-MIN KAAT 150920Z AUTO 00000KT 3SM -SN BR OVC030 M01/M02 A2987 4430 96 3600 000/00 RMK AO2 P0000 T10111017
94299KAAT AAT20160115012512601/15/16 01:25:31  5-MIN KAAT 150925Z AUTO 00000KT 4SM -SN BR OVC030 M01/M02 A2987 4420 96 3600 000/00 RMK AO2 P0000 T10111017
94299KAAT AAT20160115013013301/15/16 01:30:31  5-MIN KAAT 150930Z AUTO 00000KT 3SM -SN BR BKN028 OVC044 M01/M02 A2988 4420 92 3600 000/00 RMK AO2 P0000 T10111022
94299KAAT AAT20160115013514001/15/16 01:35:31  5-MIN KAAT 150935Z AUTO 00000KT 3SM -SN BR BKN030 BKN037 OVC046 M01/M02 A2988 4420 96 3600 000/00 RMK AO2 P0000 T10111017
94299KAAT AAT20160115014013301/15/16 01:40:31  5-MIN KAAT 150940Z AUTO 00000KT 4SM -SN BR BKN030 OVC035 M01/M02 A2988 4410 96 3600 000/00 RMK AO2 P0000 T10111017
94299KAAT AAT20160115014513701/15/16 01:45:31  5-MIN KAAT 150945Z AUTO 00000KT 2 1/2SM -SN BR BKN028 OVC035 M01/M02 A2989 4410 96 3600 000/00 RMK AO2 P0001 T10111017
94299KAAT AAT20160115015012801/15/16 01:50:31  5-MIN KAAT 150950Z AUTO 00000KT 1 1/2SM -SN BR BKN021 OVC035 M01/M01 A2989 4410 100 3600 000/00 RMK AO2 P0001
94299KAAT AAT20160115015514501/15/16 01:55:31  5-MIN KAAT 150955Z AUTO 00000KT 1 1/4SM -SN BR BKN019 OVC036 M01/M01 A2989 4410 100 3600 000/00 RMK AO2 SLP137 P0001 T10111011
94299KAAT AAT20160115020014501/15/16 02:00:31  5-MIN KAAT 151000Z AUTO 00000KT 1 1/4SM -SN BR FEW012 BKN019 OVC034 M01/M01 A2989 4410 100 3600 000/00 RMK AO2 P0000 T10111011
94299KAAT AAT20160115020514001/15/16 02:05:31  5-MIN KAAT 151005Z AUTO 00000KT 2SM -SN BR FEW012 BKN019 OVC032 M01/M02 A2989 4410 96 3600 000/00 RMK AO2 P0000 T10111017
94299KAAT AAT20160115021013301/15/16 02:10:31  5-MIN KAAT 151010Z AUTO 12003KT 4SM -SN BR BKN019 OVC032 M01/M02 A2990 4400 96 3600 100/03 RMK AO2 P0000 T10111017
94299KAAT AAT20160115021514001/15/16 02:15:31  5-MIN KAAT 151015Z AUTO 11003KT 5SM -SN BR FEW012 BKN017 OVC032 M01/M02 A2990 4400 96 3500 100/03 RMK AO2 P0000 T10111017
94299KAAT AAT20160115022014201/15/16 02:20:31  5-MIN KAAT 151020Z AUTO 11003KT 4SM BR FEW012 BKN027 OVC032 M02/M02 A2990 4400 96 3500 100/03 RMK AO2 SNE17 P0000 T10171022
94299KAAT AAT20160115022514201/15/16 02:25:31  5-MIN KAAT 151025Z AUTO 00000KT 4SM BR FEW016 FEW023 OVC030 M02/M02 A2990 4400 96 3500 000/00 RMK AO2 SNE17 P0000 T10171022
94299KAAT AAT20160115023013601/15/16 02:30:31  5-MIN KAAT 151030Z AUTO 00000KT 6SM BR FEW016 OVC032 M02/M02 A2990 4400 100 3400 000/00 RMK AO2 SNE17 P0001 T10221022
94299KAAT AAT20160115023513201/15/16 02:35:31  5-MIN KAAT 151035Z AUTO 00000KT 9SM FEW016 BKN030 M02/M03 A2990 4400 96 3400 000/00 RMK AO2 SNE17 P0001 T10221028
94299KAAT AAT20160115024014001/15/16 02:40:31  5-MIN KAAT 151040Z AUTO 00000KT 7SM FEW016 FEW025 BKN030 M03/M03 A2990 4400 100 3300 000/00 RMK AO2 SNE17 P0001 T10281028
94299KAAT AAT20160115024513601/15/16 02:45:31  5-MIN KAAT 151045Z AUTO 00000KT 6SM BR FEW024 SCT030 M03/M03 A2991 4390 100 3300 000/00 RMK AO2 SNE17 P0001 T10281028
94299KAAT AAT20160115025014201/15/16 02:50:31  5-MIN KAAT 151050Z AUTO 22003KT 6SM BR SCT022 SCT031 M03/M04 A2990 4400 96 3300 210/03 RMK AO2 SNE17 SLP143 P0001 T10331039
94299KAAT AAT20160115025514301/15/16 02:55:31  5-MIN KAAT 151055Z AUTO 20004KT 3SM BR SCT022 BKN031 M03/M03 A2990 4400 100 3300 190/04 RMK AO2 SNE17 SLP143 P0001 T10331033
94299KAAT AAT20160115030012101/15/16 03:00:31  5-MIN KAAT 151100Z AUTO 19003KT 1 1/2SM BR BKN022 M04/M04 A2991 4390 100 3200 180/03 RMK AO2 T10391039
94299KAAT AAT20160115030512001/15/16 03:05:31  5-MIN KAAT 151105Z AUTO 10003KT 1 1/2SM BR BKN021 M03/M04 A2991 4390 96 3300 080/03 RMK AO2 T10331039
94299KAAT AAT20160115031011601/15/16 03:10:31  5-MIN KAAT 151110Z AUTO 10004KT 4SM BR BKN021 M03/M04 A2991 4390 96 3300 090/04 RMK AO2 T10331039
94299KAAT AAT20160115031511301/15/16 03:15:31  5-MIN KAAT 151115Z AUTO 12005KT 8SM OVC020 M03/M03 A2991 4390 96 3300 100/05 RMK AO2 T10281033
94299KAAT AAT20160115032011301/15/16 03:20:31  5-MIN KAAT 151120Z AUTO 11006KT 7SM OVC020 M03/M03 A2991 4390 96 3300 090/06 RMK AO2 T10281033
94299KAAT AAT20160115032511301/15/16 03:25:31  5-MIN KAAT 151125Z AUTO 13004KT 7SM OVC020 M03/M03 A2992 4390 96 3300 110/04 RMK AO2 T10281033
94299KAAT AAT20160115033012001/15/16 03:30:31  5-MIN KAAT 151130Z AUTO 13004KT 8SM FEW010 OVC019 M02/M03 A2992 4380 96 3400 120/04 RMK AO2 T10221028
94299KAAT AAT20160115033512201/15/16 03:35:31  5-MIN KAAT 151135Z AUTO 17003KT 10SM SCT008 OVC019 M03/M03 A2993 4380 100 3300 160/03 RMK AO2 T10281028
94299KAAT AAT20160115034012201/15/16 03:40:31  5-MIN KAAT 151140Z AUTO 00000KT 10SM SCT008 OVC019 M03/M03 A2993 4380 100 3200 000/00 RMK AO2 T10331033
94299KAAT AAT20160115034512101/15/16 03:45:31  5-MIN KAAT 151145Z AUTO 00000KT 10SM FEW008 OVC019 M03/M04 A2993 4380 96 3200 000/00 RMK AO2 T10331039
94299KAAT AAT20160115035015801/15/16 03:50:31  5-MIN KAAT 151150Z AUTO 00000KT 10SM FEW009 OVC018 M03/M04 A2994 4370 96 3200 000/00 RMK AO2 SLP155 60007 70010 T10331039 11006 21039 51013
94299KAAT AAT20160115035515901/15/16 03:55:31  5-MIN KAAT 151155Z AUTO 00000KT 10SM FEW009 OVC018 M04/M04 A2994 4360 100 3200 000/00 RMK AO2 SLP159 60007 70010 T10391039 11006 21039 53014
94299KAAT AAT20160115040012901/15/16 04:00:31  5-MIN KAAT 151200Z AUTO 00000KT 10SM FEW009 OVC018 M04/M04 A2995 4350 100 3100 000/00 RMK AO2 PRESRR T10391039
94299KAAT AAT20160115040512201/15/16 04:05:31  5-MIN KAAT 151205Z AUTO 00000KT 10SM OVC018 M04/M04 A2995 4350 100 3100 000/00 RMK AO2 PRESRR T10391039
94299KAAT AAT20160115041012801/15/16 04:10:31  5-MIN KAAT 151210Z AUTO 00000KT 10SM BKN018 OVC026 M04/M04 A2996 4340 96 3100 000/00 RMK AO2 PRESRR T10391044
94299KAAT AAT20160115041512101/15/16 04:15:31  5-MIN KAAT 151215Z AUTO 00000KT 10SM BKN018 OVC024 M04/M04 A2997 4340 96 3100 000/00 RMK AO2 T10391044
94299KAAT AAT20160115042012201/15/16 04:20:31  5-MIN KAAT 151220Z AUTO 05003KT 10SM BKN020 OVC026 M04/M04 A2997 4330 100 3100 040/03 RMK AO2 T10391039
94299KAAT AAT20160115042511301/15/16 04:25:31  5-MIN KAAT 151225Z AUTO 06005KT 9SM OVC022 M03/M04 A2997 4330 96 3200 040/05 RMK AO2 T10331039
94299KAAT AAT20160115043012701/15/16 04:30:31  5-MIN KAAT 151230Z AUTO 05004KT 8SM BKN020 BKN025 OVC032 M03/M03 A2998 4330 96 3300 040/04 RMK AO2 T10281033
94299KAAT AAT20160115043512701/15/16 04:35:31  5-MIN KAAT 151235Z AUTO 04004KT 9SM BKN022 BKN027 OVC032 M02/M03 A2998 4330 96 3300 030/04 RMK AO2 T10221028
94299KAAT AAT20160115044012101/15/16 04:40:31  5-MIN KAAT 151240Z AUTO 00000KT 10SM BKN024 OVC032 M02/M03 A2998 4330 92 3400 000/00 RMK AO2 T10171028
94299KAAT AAT20160115044512101/15/16 04:45:31  5-MIN KAAT 151245Z AUTO 00000KT 10SM BKN024 OVC030 M02/M02 A2998 4330 96 3400 000/00 RMK AO2 T10171022
94299KAAT AAT20160115045012801/15/16 04:50:31  5-MIN KAAT 151250Z AUTO 36003KT 10SM BKN024 OVC030 M02/M02 A2998 4320 96 3400 340/03 RMK AO2 SLP170 T10171022
94299KAAT AAT20160115045512101/15/16 04:55:31  5-MIN KAAT 151255Z AUTO 00000KT 10SM OVC027 M02/M02 A2999 4320 96 3400 000/00 RMK AO2 SLP171 T10171022
94299KAAT AAT20160115050011401/15/16 05:00:31  5-MIN KAAT 151300Z AUTO 00000KT 10SM OVC027 M01/M02 A2999 4310 92 3400 000/00 RMK AO2 T10111022
94299KAAT AAT20160115050511401/15/16 05:05:31  5-MIN KAAT 151305Z AUTO 33003KT 10SM OVC029 M01/M03 A3000 4310 88 3400 310/03 RMK AO2 T10111028
94299KAAT AAT20160115051011401/15/16 05:10:31  5-MIN KAAT 151310Z AUTO 00000KT 10SM OVC029 M02/M03 A3000 4310 92 3400 000/00 RMK AO2 T10171028
94299KAAT AAT20160115051512101/15/16 05:15:31  5-MIN KAAT 151315Z AUTO 00000KT 10SM FEW023 OVC029 M02/M03 A3000 4310 88 3400 000/00 RMK AO2 T10171033
94299KAAT AAT20160115052012101/15/16 05:20:31  5-MIN KAAT 151320Z AUTO 00000KT 10SM FEW021 OVC030 M02/M03 A3001 4300 92 3300 000/00 RMK AO2 T10221033
94299KAAT AAT20160115052512101/15/16 05:25:31  5-MIN KAAT 151325Z AUTO 00000KT 10SM FEW021 OVC030 M02/M03 A3001 4300 96 3300 000/00 RMK AO2 T10221028
94299KAAT AAT20160115053012101/15/16 05:30:31  5-MIN KAAT 151330Z AUTO 00000KT 10SM SCT021 OVC030 M02/M03 A3001 4300 96 3300 000/00 RMK AO2 T10221028
94299KAAT AAT20160115053512101/15/16 05:35:31  5-MIN KAAT 151335Z AUTO 00000KT 10SM BKN023 OVC032 M02/M03 A3001 4300 92 3400 000/00 RMK AO2 T10171028
94299KAAT AAT20160115054012101/15/16 05:40:31  5-MIN KAAT 151340Z AUTO 00000KT 10SM BKN023 OVC030 M01/M02 A3001 4300 92 3400 000/00 RMK AO2 T10111022
94299KAAT AAT20160115054511401/15/16 05:45:31  5-MIN KAAT 151345Z AUTO 00000KT 10SM OVC023 M02/M03 A3001 4300 92 3400 000/00 RMK AO2 T10171028
94299KAAT AAT20160115055012101/15/16 05:50:31  5-MIN KAAT 151350Z AUTO 00000KT 10SM OVC023 M02/M03 A3000 4310 96 3300 000/00 RMK AO2 SLP177 T10221028
94299KAAT AAT20160115055512101/15/16 05:55:31  5-MIN KAAT 151355Z AUTO 00000KT 10SM OVC023 M02/M03 A3000 4310 96 3300 000/00 RMK AO2 SLP177 T10221028
94299KAAT AAT20160115060011401/15/16 06:00:31  5-MIN KAAT 151400Z AUTO 26003KT 10SM OVC023 M02/M03 A3001 4300 92 3300 240/03 RMK AO2 T10221033
94299KAAT AAT20160115060511401/15/16 06:05:31  5-MIN KAAT 151405Z AUTO 00000KT 10SM OVC025 M03/M03 A3000 4310 96 3200 000/00 RMK AO2 T10281033
94299KAAT AAT20160115061011401/15/16 06:10:31  5-MIN KAAT 151410Z AUTO 00000KT 10SM OVC025 M03/M03 A3000 4310 96 3200 000/00 RMK AO2 T10281033
94299KAAT AAT20160115061511401/15/16 06:15:31  5-MIN KAAT 151415Z AUTO 00000KT 10SM OVC025 M03/M03 A3000 4310 96 3200 000/00 RMK AO2 T10281033
94299KAAT AAT20160115062011401/15/16 06:20:31  5-MIN KAAT 151420Z AUTO 00000KT 10SM OVC027 M03/M04 A3000 4310 92 3200 000/00 RMK AO2 T10281039
94299KAAT AAT20160115062511401/15/16 06:25:31  5-MIN KAAT 151425Z AUTO 00000KT 10SM OVC027 M03/M03 A3001 4300 96 3200 000/00 RMK AO2 T10281033
94299KAAT AAT20160115063011401/15/16 06:30:31  5-MIN KAAT 151430Z AUTO 00000KT 10SM OVC027 M02/M03 A3001 4300 88 3400 000/00 RMK AO2 T10171033
94299KAAT AAT20160115063511401/15/16 06:35:31  5-MIN KAAT 151435Z AUTO 00000KT 10SM OVC028 M02/M03 A3001 4300 88 3400 000/00 RMK AO2 T10171033
94299KAAT AAT20160115064011401/15/16 06:40:31  5-MIN KAAT 151440Z AUTO 00000KT 10SM OVC028 M02/M03 A3001 4300 92 3300 000/00 RMK AO2 T10221033
94299KAAT AAT20160115064511301/15/16 06:45:31  5-MIN KAAT 151445Z AUTO 00000KT 9SM OVC028 M02/M03 A3000 4300 92 3300 000/00 RMK AO2 T10221033
94299KAAT AAT20160115065012601/15/16 06:50:31  5-MIN KAAT 151450Z AUTO 17003KT 8SM OVC028 M03/M03 A3001 4300 96 3200 150/03 RMK AO2 SLP180 T10281033 53014
94299KAAT AAT20160115065512601/15/16 06:55:31  5-MIN KAAT 151455Z AUTO 19003KT 9SM OVC028 M03/M03 A3001 4300 96 3200 170/03 RMK AO2 SLP180 T10281033 51019
94299KAAT AAT20160115070011401/15/16 07:00:31  5-MIN KAAT 151500Z AUTO 14003KT 10SM OVC028 M03/M03 A3001 4300 96 3200 120/03 RMK AO2 T10281033
94299KAAT AAT20160115070511401/15/16 07:05:31  5-MIN KAAT 151505Z AUTO 00000KT 10SM OVC028 M02/M03 A3001 4300 92 3300 000/00 RMK AO2 T10221033
94299KAAT AAT20160115071011401/15/16 07:10:31  5-MIN KAAT 151510Z AUTO 00000KT 10SM OVC028 M03/M03 A3001 4300 96 3200 000/00 RMK AO2 T10281033
94299KAAT AAT20160115071511301/15/16 07:15:31  5-MIN KAAT 151515Z AUTO 12005KT 9SM OVC028 M03/M03 A3001 4300 96 3200 100/05 RMK AO2 T10281033
94299KAAT AAT20160115072011301/15/16 07:20:31  5-MIN KAAT 151520Z AUTO 11004KT 7SM OVC028 M02/M03 A3001 4300 92 3300 100/04 RMK AO2 T10221033
94299KAAT AAT20160115072511301/15/16 07:25:31  5-MIN KAAT 151525Z AUTO 14004KT 7SM OVC028 M03/M03 A3001 4300 96 3200 130/04 RMK AO2 T10281033
94299KAAT AAT20160115073011401/15/16 07:30:31  5-MIN KAAT 151530Z AUTO 14004KT 10SM OVC028 M03/M03 A3001 4300 96 3200 130/04 RMK AO2 T10281033
94299KAAT AAT20160115073511401/15/16 07:35:31  5-MIN KAAT 151535Z AUTO 14004KT 10SM OVC028 M03/M03 A3000 4300 96 3200 120/04 RMK AO2 T10281033
94299KAAT AAT20160115074011401/15/16 07:40:31  5-MIN KAAT 151540Z AUTO 15004KT 10SM OVC028 M03/M03 A3000 4310 96 3200 140/04 RMK AO2 T10281033
94299KAAT AAT20160115074511401/15/16 07:45:31  5-MIN KAAT 151545Z AUTO 17004KT 10SM OVC028 M03/M03 A3000 4310 96 3200 160/04 RMK AO2 T10281033
94299KAAT AAT20160115075012101/15/16 07:50:31  5-MIN KAAT 151550Z AUTO 18004KT 10SM OVC028 M03/M03 A3000 4310 96 3200 170/04 RMK AO2 SLP178 T10281033
94299KAAT AAT20160115075512101/15/16 07:55:31  5-MIN KAAT 151555Z AUTO 18003KT 10SM OVC028 M03/M03 A2999 4310 96 3200 170/03 RMK AO2 SLP178 T10281033
94299KAAT AAT20160115080011401/15/16 08:00:31  5-MIN KAAT 151600Z AUTO 19004KT 10SM OVC027 M03/M03 A3000 4310 96 3200 170/04 RMK AO2 T10281033
94299KAAT AAT20160115080511401/15/16 08:05:31  5-MIN KAAT 151605Z AUTO 19005KT 10SM OVC027 M03/M03 A3000 4310 96 3200 180/05 RMK AO2 T10281033
94299KAAT AAT20160115081011401/15/16 08:10:31  5-MIN KAAT 151610Z AUTO 20004KT 10SM OVC027 M03/M03 A3000 4310 96 3200 180/04 RMK AO2 T10281033
94299KAAT AAT20160115081511401/15/16 08:15:31  5-MIN KAAT 151615Z AUTO 20005KT 10SM OVC027 M03/M03 A3000 4310 96 3200 180/05 RMK AO2 T10281033
94299KAAT AAT20160115082011501/15/16 08:20:31  5-MIN KAAT 151620Z AUTO 21005KT 10SM OVC027 M03/M03 A3000 4300 100 3200 200/05 RMK AO2 T10281028
94299KAAT AAT20160115082511401/15/16 08:25:31  5-MIN KAAT 151625Z AUTO 21006KT 10SM OVC027 M02/M03 A3001 4300 96 3300 190/06 RMK AO2 T10221028
94299KAAT AAT20160115083011401/15/16 08:30:31  5-MIN KAAT 151630Z AUTO 23005KT 10SM OVC027 M02/M03 A3001 4300 96 3300 210/05 RMK AO2 T10221028
94299KAAT AAT20160115083511401/15/16 08:35:31  5-MIN KAAT 151635Z AUTO 24005KT 10SM OVC026 M02/M03 A3001 4300 96 3300 220/05 RMK AO2 T10221028
94299KAAT AAT20160115084011401/15/16 08:40:31  5-MIN KAAT 151640Z AUTO 22003KT 10SM BKN026 M02/M03 A3001 4300 96 3300 210/03 RMK AO2 T10221028
94299KAAT AAT20160115084511401/15/16 08:45:31  5-MIN KAAT 151645Z AUTO 00000KT 10SM BKN026 M02/M02 A3001 4300 96 3300 000/00 RMK AO2 T10171022
94299KAAT AAT20160115085012101/15/16 08:50:31  5-MIN KAAT 151650Z AUTO 21005KT 10SM OVC024 M01/M02 A3002 4290 92 3400 190/05 RMK AO2 SLP182 T10111022
94299KAAT AAT20160115085512101/15/16 08:55:31  5-MIN KAAT 151655Z AUTO 20003KT 10SM OVC024 M02/M02 A3002 4290 96 3300 190/03 RMK AO2 SLP185 T10171022
94299KAAT AAT20160115090011401/15/16 09:00:31  5-MIN KAAT 151700Z AUTO 20006KT 10SM OVC024 M02/M02 A3002 4280 96 3300 180/06 RMK AO2 T10171022
94299KAAT AAT20160115090511401/15/16 09:05:31  5-MIN KAAT 151705Z AUTO 18005KT 10SM OVC024 M02/M02 A3003 4280 96 3300 160/05 RMK AO2 T10171022
94299KAAT AAT20160115091011401/15/16 09:10:31  5-MIN KAAT 151710Z AUTO 17005KT 10SM OVC024 M01/M02 A3003 4280 92 3400 150/05 RMK AO2 T10111022
94299KAAT AAT20160115091511401/15/16 09:15:31  5-MIN KAAT 151715Z AUTO 17006KT 10SM OVC024 M01/M02 A3003 4280 92 3400 150/06 RMK AO2 T10111022
94299KAAT AAT20160115092011401/15/16 09:20:31  5-MIN KAAT 151720Z AUTO 17005KT 10SM OVC024 M01/M02 A3003 4280 92 3400 160/05 RMK AO2 T10111022
94299KAAT AAT20160115092511401/15/16 09:25:31  5-MIN KAAT 151725Z AUTO 18006KT 10SM OVC024 M01/M02 A3003 4280 92 3400 160/06 RMK AO2 T10111022
94299KAAT AAT20160115093011401/15/16 09:30:31  5-MIN KAAT 151730Z AUTO 17006KT 10SM BKN024 M01/M02 A3004 4270 92 3400 160/06 RMK AO2 T10111022
94299KAAT AAT20160115093511401/15/16 09:35:31  5-MIN KAAT 151735Z AUTO 18004KT 10SM BKN024 M01/M02 A3004 4270 92 3400 160/04 RMK AO2 T10111022
94299KAAT AAT20160115094011401/15/16 09:40:31  5-MIN KAAT 151740Z AUTO 18004KT 10SM SCT024 M01/M02 A3005 4260 88 3400 160/04 RMK AO2 T10061022
94299KAAT AAT20160115094511401/15/16 09:45:31  5-MIN KAAT 151745Z AUTO 17005KT 10SM FEW024 M01/M02 A3006 4250 88 3400 150/05 RMK AO2 T10061022
94299KAAT AAT20160115095013901/15/16 09:50:31  5-MIN KAAT 151750Z AUTO 16005KT 10SM FEW024 M01/M02 A3006 4250 88 3400 150/05 RMK AO2 SLP198 T10061022 11006 21039 51019
94299KAAT AAT20160115095513601/15/16 09:55:31  5-MIN KAAT 151755Z AUTO 17006KT 10SM CLR M01/M02 A3006 4250 88 3400 150/06 RMK AO2 SLP198 T10061022 11006 21039 53017
94299KAAT AAT20160115100011101/15/16 10:00:31  5-MIN KAAT 151800Z AUTO 16006KT 10SM CLR M01/M02 A3006 4250 88 3400 150/06 RMK AO2 T10061022
94299KAAT AAT20160115100511101/15/16 10:05:31  5-MIN KAAT 151805Z AUTO 16005KT 10SM CLR M01/M02 A3007 4250 88 3400 140/05 RMK AO2 T10061022
94299KAAT AAT20160115101011101/15/16 10:10:31  5-MIN KAAT 151810Z AUTO 16008KT 10SM CLR M01/M03 A3007 4240 85 3400 140/08 RMK AO2 T10061028
94299KAAT AAT20160115101511101/15/16 10:15:31  5-MIN KAAT 151815Z AUTO 16006KT 10SM CLR M01/M03 A3007 4240 85 3400 150/06 RMK AO2 T10061028
94299KAAT AAT20160115102011101/15/16 10:20:31  5-MIN KAAT 151820Z AUTO 17006KT 10SM CLR M01/M03 A3008 4240 85 3400 150/06 RMK AO2 T10061028
94299KAAT AAT20160115102511001/15/16 10:25:31  5-MIN KAAT 151825Z AUTO 17007KT 10SM CLR 00/M03 A3008 4230 81 3500 160/07 RMK AO2 T00001028
94299KAAT AAT20160115103011001/15/16 10:30:31  5-MIN KAAT 151830Z AUTO 18006KT 10SM CLR 00/M03 A3008 4230 81 3500 160/06 RMK AO2 T00001028
94299KAAT AAT20160115103511001/15/16 10:35:31  5-MIN KAAT 151835Z AUTO 19007KT 10SM CLR 00/M03 A3008 4230 81 3500 180/07 RMK AO2 T00001028
94299KAAT AAT20160115104011001/15/16 10:40:31  5-MIN KAAT 151840Z AUTO 20006KT 10SM CLR 00/M03 A3009 4230 81 3500 190/06 RMK AO2 T00001028
94299KAAT AAT20160115104511001/15/16 10:45:31  5-MIN KAAT 151845Z AUTO 19006KT 10SM CLR 00/M02 A3009 4230 85 3500 170/06 RMK AO2 T00001022
94299KAAT AAT20160115105011701/15/16 10:50:31  5-MIN KAAT 151850Z AUTO 19006KT 10SM CLR 00/M02 A3008 4230 85 3500 170/06 RMK AO2 SLP206 T00001022
94299KAAT AAT20160115105511701/15/16 10:55:31  5-MIN KAAT 151855Z AUTO 18005KT 10SM CLR 00/M03 A3009 4230 81 3500 170/05 RMK AO2 SLP206 T00001028
94299KAAT AAT20160115110011001/15/16 11:00:31  5-MIN KAAT 151900Z AUTO 18007KT 10SM CLR 00/M03 A3008 4230 81 3500 170/07 RMK AO2 T00001028
94299KAAT AAT20160115110511001/15/16 11:05:31  5-MIN KAAT 151905Z AUTO 18006KT 10SM CLR 00/M03 A3008 4230 81 3500 160/06 RMK AO2 T00001028
94299KAAT AAT20160115111011001/15/16 11:10:31  5-MIN KAAT 151910Z AUTO 18005KT 10SM CLR 00/M03 A3008 4230 81 3500 170/05 RMK AO2 T00001028
94299KAAT AAT20160115111511001/15/16 11:15:31  5-MIN KAAT 151915Z AUTO 18005KT 10SM CLR 00/M03 A3009 4230 81 3500 170/05 RMK AO2 T00001028
94299KAAT AAT20160115112011001/15/16 11:20:31  5-MIN KAAT 151920Z AUTO 18004KT 10SM CLR 01/M03 A3009 4230 78 3500 160/04 RMK AO2 T00061028
94299KAAT AAT20160115112511001/15/16 11:25:31  5-MIN KAAT 151925Z AUTO 18004KT 10SM CLR 01/M03 A3009 4220 78 3500 160/04 RMK AO2 T00061028
94299KAAT AAT20160115113011001/15/16 11:30:31  5-MIN KAAT 151930Z AUTO 17003KT 10SM CLR 01/M02 A3009 4220 82 3500 150/03 RMK AO2 T00061022
94299KAAT AAT20160115113511001/15/16 11:35:31  5-MIN KAAT 151935Z AUTO 15004KT 10SM CLR 01/M03 A3009 4230 78 3500 140/04 RMK AO2 T00061028
94299KAAT AAT20160115114011001/15/16 11:40:31  5-MIN KAAT 151940Z AUTO 17003KT 10SM CLR 01/M03 A3009 4220 78 3500 150/03 RMK AO2 T00061028
94299KAAT AAT20160115114511001/15/16 11:45:31  5-MIN KAAT 151945Z AUTO 17003KT 10SM CLR 01/M03 A3009 4220 78 3500 150/03 RMK AO2 T00061028
94299KAAT AAT20160115115011701/15/16 11:50:31  5-MIN KAAT 151950Z AUTO 00000KT 10SM CLR 01/M03 A3009 4220 75 3600 000/00 RMK AO2 SLP207 T00111028
94299KAAT AAT20160115115511701/15/16 11:55:31  5-MIN KAAT 151955Z AUTO 15003KT 10SM CLR 01/M03 A3009 4220 75 3600 140/03 RMK AO2 SLP207 T00111028
94299KAAT AAT20160115120011001/15/16 12:00:31  5-MIN KAAT 152000Z AUTO 16003KT 10SM CLR 01/M03 A3010 4220 75 3600 140/03 RMK AO2 T00111028
94299KAAT AAT20160115120511001/15/16 12:05:31  5-MIN KAAT 152005Z AUTO 00000KT 10SM CLR 01/M03 A3009 4220 75 3600 000/00 RMK AO2 T00111028
94299KAAT AAT20160115121011001/15/16 12:10:31  5-MIN KAAT 152010Z AUTO 00000KT 10SM CLR 02/M03 A3009 4220 69 3700 000/00 RMK AO2 T00171033
94299KAAT AAT20160115121511001/15/16 12:15:31  5-MIN KAAT 152015Z AUTO 16003KT 10SM CLR 02/M03 A3009 4220 72 3700 150/03 RMK AO2 T00171028
94299KAAT AAT20160115122011001/15/16 12:20:31  5-MIN KAAT 152020Z AUTO 00000KT 10SM CLR 01/M03 A3009 4230 75 3600 000/00 RMK AO2 T00111028
94299KAAT AAT20160115122511001/15/16 12:25:31  5-MIN KAAT 152025Z AUTO 00000KT 10SM CLR 02/M03 A3009 4230 72 3700 000/00 RMK AO2 T00171028
94299KAAT AAT20160115123011001/15/16 12:30:31  5-MIN KAAT 152030Z AUTO 00000KT 10SM CLR 02/M03 A3008 4230 69 3700 000/00 RMK AO2 T00221028
94299KAAT AAT20160115123511001/15/16 12:35:31  5-MIN KAAT 152035Z AUTO 00000KT 10SM CLR 02/M03 A3008 4230 72 3700 000/00 RMK AO2 T00171028
94299KAAT AAT20160115124011001/15/16 12:40:31  5-MIN KAAT 152040Z AUTO 12003KT 10SM CLR 02/M03 A3008 4230 72 3700 110/03 RMK AO2 T00171028
94299KAAT AAT20160115124511001/15/16 12:45:31  5-MIN KAAT 152045Z AUTO 00000KT 10SM CLR 02/M03 A3008 4240 69 3700 000/00 RMK AO2 T00221028
94299KAAT AAT20160115125012301/15/16 12:50:31  5-MIN KAAT 152050Z AUTO 00000KT 10SM CLR 02/M03 A3008 4240 69 3700 000/00 RMK AO2 SLP200 T00221028 53017
94299KAAT AAT20160115125512301/15/16 12:55:31  5-MIN KAAT 152055Z AUTO 00000KT 10SM CLR 02/M03 A3008 4240 72 3700 000/00 RMK AO2 SLP199 T00171028 50004
94299KAAT AAT20160115130011001/15/16 13:00:31  5-MIN KAAT 152100Z AUTO 15003KT 10SM CLR 02/M03 A3007 4240 69 3800 130/03 RMK AO2 T00221028
94299KAAT AAT20160115130511001/15/16 13:05:31  5-MIN KAAT 152105Z AUTO 16003KT 10SM CLR 02/M03 A3007 4240 69 3800 150/03 RMK AO2 T00221028
94299KAAT AAT20160115131011001/15/16 13:10:31  5-MIN KAAT 152110Z AUTO 15003KT 10SM CLR 02/M03 A3007 4250 69 3800 130/03 RMK AO2 T00221028
94299KAAT AAT20160115131511001/15/16 13:15:31  5-MIN KAAT 152115Z AUTO 00000KT 10SM CLR 02/M03 A3007 4250 69 3700 000/00 RMK AO2 T00171033
94299KAAT AAT20160115132011001/15/16 13:20:31  5-MIN KAAT 152120Z AUTO 00000KT 10SM CLR 02/M03 A3006 4250 69 3800 000/00 RMK AO2 T00221028
94299KAAT AAT20160115132511001/15/16 13:25:31  5-MIN KAAT 152125Z AUTO 00000KT 10SM CLR 02/M03 A3006 4250 67 3800 000/00 RMK AO2 T00221033
94299KAAT AAT20160115133011001/15/16 13:30:31  5-MIN KAAT 152130Z AUTO 00000KT 10SM CLR 02/M03 A3006 4260 69 3800 000/00 RMK AO2 T00221028
94299KAAT AAT20160115133511001/15/16 13:35:31  5-MIN KAAT 152135Z AUTO 00000KT 10SM CLR 02/M03 A3005 4260 69 3800 000/00 RMK AO2 T00221028
94299KAAT AAT20160115134011001/15/16 13:40:31  5-MIN KAAT 152140Z AUTO 00000KT 10SM CLR 02/M03 A3005 4260 67 3800 000/00 RMK AO2 T00221033
94299KAAT AAT20160115134511001/15/16 13:45:31  5-MIN KAAT 152145Z AUTO 00000KT 10SM CLR 02/M03 A3005 4260 67 3800 000/00 RMK AO2 T00221033
94299KAAT AAT20160115135011701/15/16 13:50:31  5-MIN KAAT 152150Z AUTO 00000KT 10SM CLR 02/M03 A3005 4260 69 3700 000/00 RMK AO2 SLP190 T00171033
94299KAAT AAT20160115135511701/15/16 13:55:31  5-MIN KAAT 152155Z AUTO 00000KT 10SM CLR 02/M03 A3004 4270 67 3800 000/00 RMK AO2 SLP188 T00221033
94299KAAT AAT20160115140011001/15/16 14:00:31  5-MIN KAAT 152200Z AUTO 00000KT 10SM CLR 02/M03 A3004 4270 67 3800 000/00 RMK AO2 T00221033
94299KAAT AAT20160115140511001/15/16 14:05:31  5-MIN KAAT 152205Z AUTO 00000KT 10SM CLR 02/M03 A3004 4270 67 3800 000/00 RMK AO2 T00221033
94299KAAT AAT20160115141011001/15/16 14:10:31  5-MIN KAAT 152210Z AUTO 00000KT 10SM CLR 02/M03 A3004 4270 67 3800 000/00 RMK AO2 T00221033
94299KAAT AAT20160115141511001/15/16 14:15:31  5-MIN KAAT 152215Z AUTO 00000KT 10SM CLR 02/M03 A3004 4270 67 3800 000/00 RMK AO2 T00221033
94299KAAT AAT20160115142011001/15/16 14:20:31  5-MIN KAAT 152220Z AUTO 32003KT 10SM CLR 02/M03 A3004 4270 67 3800 300/03 RMK AO2 T00221033
94299KAAT AAT20160115142511001/15/16 14:25:31  5-MIN KAAT 152225Z AUTO 00000KT 10SM CLR 02/M03 A3003 4280 72 3700 000/00 RMK AO2 T00171028
94299KAAT AAT20160115143011001/15/16 14:30:31  5-MIN KAAT 152230Z AUTO 00000KT 10SM CLR 02/M03 A3003 4280 69 3800 000/00 RMK AO2 T00221028
94299KAAT AAT20160115143511001/15/16 14:35:31  5-MIN KAAT 152235Z AUTO 32003KT 10SM CLR 02/M03 A3003 4280 72 3700 300/03 RMK AO2 T00171028
94299KAAT AAT20160115144011001/15/16 14:40:31  5-MIN KAAT 152240Z AUTO 31003KT 10SM CLR 02/M03 A3003 4280 72 3700 300/03 RMK AO2 T00171028
94299KAAT AAT20160115144511001/15/16 14:45:31  5-MIN KAAT 152245Z AUTO 32003KT 10SM CLR 02/M03 A3003 4280 72 3700 310/03 RMK AO2 T00171028
94299KAAT AAT20160115145011701/15/16 14:50:31  5-MIN KAAT 152250Z AUTO 32003KT 10SM CLR 02/M03 A3003 4280 72 3700 310/03 RMK AO2 SLP187 T00171028
94299KAAT AAT20160115145511701/15/16 14:55:31  5-MIN KAAT 152255Z AUTO 00000KT 10SM CLR 02/M03 A3003 4280 72 3700 000/00 RMK AO2 SLP186 T00171028
94299KAAT AAT20160115150011001/15/16 15:00:31  5-MIN KAAT 152300Z AUTO 00000KT 10SM CLR 02/M03 A3003 4280 72 3700 000/00 RMK AO2 T00171028
94299KAAT AAT20160115150511001/15/16 15:05:31  5-MIN KAAT 152305Z AUTO 00000KT 10SM CLR 02/M03 A3003 4280 72 3700 000/00 RMK AO2 T00171028
94299KAAT AAT20160115151011001/15/16 15:10:31  5-MIN KAAT 152310Z AUTO 00000KT 10SM CLR 02/M03 A3003 4280 72 3700 000/00 RMK AO2 T00171028
94299KAAT AAT20160115151511001/15/16 15:15:31  5-MIN KAAT 152315Z AUTO 00000KT 10SM CLR 02/M03 A3003 4280 72 3700 000/00 RMK AO2 T00171028
94299KAAT AAT20160115152011001/15/16 15:20:31  5-MIN KAAT 152320Z AUTO 30003KT 10SM CLR 02/M03 A3004 4270 72 3700 280/03 RMK AO2 T00171028
94299KAAT AAT20160115152511001/15/16 15:25:31  5-MIN KAAT 152325Z AUTO 29003KT 10SM CLR 02/M03 A3004 4270 72 3700 280/03 RMK AO2 T00171028
94299KAAT AAT20160115153011001/15/16 15:30:31  5-MIN KAAT 152330Z AUTO 00000KT 10SM CLR 02/M03 A3004 4270 72 3700 000/00 RMK AO2 T00171028
94299KAAT AAT20160115153511001/15/16 15:35:31  5-MIN KAAT 152335Z AUTO 29003KT 10SM CLR 01/M03 A3004 4270 75 3700 270/03 RMK AO2 T00111028
94299KAAT AAT20160115154011001/15/16 15:40:31  5-MIN KAAT 152340Z AUTO 00000KT 10SM CLR 02/M02 A3004 4270 75 3700 000/00 RMK AO2 T00171022
94299KAAT AAT20160115154511001/15/16 15:45:31  5-MIN KAAT 152345Z AUTO 00000KT 10SM CLR 02/M03 A3004 4270 72 3700 000/00 RMK AO2 T00171028
94299KAAT AAT20160115155013501/15/16 15:50:31  5-MIN KAAT 152350Z AUTO 00000KT 10SM CLR 02/M03 A3005 4270 72 3700 000/00 RMK AO2 SLP192 T00171028 10028 21006 50004
94299KAAT AAT20160115155513501/15/16 15:55:31  5-MIN KAAT 152355Z AUTO 00000KT 10SM CLR 02/M03 A3004 4270 72 3700 000/00 RMK AO2 SLP193 T00171028 10028 21006 55010
94299KAAT AAT20160115160011001/15/16 16:00:31  5-MIN KAAT 160000Z AUTO 00000KT 10SM CLR 02/M03 A3004 4270 72 3700 000/00 RMK AO2 T00171028
94299KAAT AAT20160115160511001/15/16 16:05:31  5-MIN KAAT 160005Z AUTO 00000KT 10SM CLR 02/M03 A3005 4270 72 3700 000/00 RMK AO2 T00171028
94299KAAT AAT20160115161011001/15/16 16:10:31  5-MIN KAAT 160010Z AUTO 00000KT 10SM CLR 02/M03 A3005 4270 72 3700 000/00 RMK AO2 T00171028
94299KAAT AAT20160115161511001/15/16 16:15:31  5-MIN KAAT 160015Z AUTO 00000KT 10SM CLR 01/M03 A3004 4270 75 3700 000/00 RMK AO2 T00111028
94299KAAT AAT20160115162011001/15/16 16:20:31  5-MIN KAAT 160020Z AUTO 00000KT 10SM CLR 01/M03 A3004 4270 75 3700 000/00 RMK AO2 T00111028
94299KAAT AAT20160115162511001/15/16 16:25:31  5-MIN KAAT 160025Z AUTO 00000KT 10SM CLR 01/M03 A3004 4270 75 3700 000/00 RMK AO2 T00111028
94299KAAT AAT20160115163011001/15/16 16:30:31  5-MIN KAAT 160030Z AUTO 00000KT 10SM CLR 01/M03 A3004 4270 75 3700 000/00 RMK AO2 T00111028
94299KAAT AAT20160115163511001/15/16 16:35:31  5-MIN KAAT 160035Z AUTO 00000KT 10SM CLR 01/M03 A3005 4270 75 3700 000/00 RMK AO2 T00111028
94299KAAT AAT20160115164011001/15/16 16:40:31  5-MIN KAAT 160040Z AUTO 00000KT 10SM CLR 01/M03 A3004 4270 75 3700 000/00 RMK AO2 T00111028
94299KAAT AAT20160115164511001/15/16 16:45:31  5-MIN KAAT 160045Z AUTO 00000KT 10SM CLR 01/M03 A3004 4270 78 3600 000/00 RMK AO2 T00061028
94299KAAT AAT20160115165011701/15/16 16:50:31  5-MIN KAAT 160050Z AUTO 00000KT 10SM CLR 01/M03 A3004 4270 78 3600 000/00 RMK AO2 SLP192 T00061028
94299KAAT AAT20160115165511701/15/16 16:55:31  5-MIN KAAT 160055Z AUTO 11003KT 10SM CLR 01/M03 A3004 4270 78 3600 100/03 RMK AO2 SLP191 T00061028
94299KAAT AAT20160115170010901/15/16 17:00:31  5-MIN KAAT 160100Z AUTO 10003KT 7SM CLR 01/M03 A3004 4270 78 3600 090/03 RMK AO2 T00061028
94299KAAT AAT20160115170510901/15/16 17:05:31  5-MIN KAAT 160105Z AUTO 00000KT 7SM CLR 01/M03 A3004 4270 78 3600 000/00 RMK AO2 T00061028
94299KAAT AAT20160115171010901/15/16 17:10:31  5-MIN KAAT 160110Z AUTO 00000KT 9SM CLR 00/M03 A3004 4270 81 3500 000/00 RMK AO2 T00001028
94299KAAT AAT20160115171511301/15/16 17:15:31  5-MIN KAAT 160115Z AUTO 12003KT 9SM FEW120 M01/M03 A3005 4270 85 3400 100/03 RMK AO2 T10061028
94299KAAT AAT20160115172011401/15/16 17:20:31  5-MIN KAAT 160120Z AUTO 00000KT 10SM FEW120 M01/M03 A3005 4260 85 3400 000/00 RMK AO2 T10061028
94299KAAT AAT20160115172511401/15/16 17:25:31  5-MIN KAAT 160125Z AUTO 16003KT 10SM FEW070 M01/M03 A3005 4260 85 3400 150/03 RMK AO2 T10061028
94299KAAT AAT20160115173011401/15/16 17:30:31  5-MIN KAAT 160130Z AUTO 00000KT 10SM SCT065 M01/M03 A3005 4260 85 3400 000/00 RMK AO2 T10061028
94299KAAT AAT20160115173511401/15/16 17:35:31  5-MIN KAAT 160135Z AUTO 00000KT 10SM BKN065 M01/M03 A3005 4270 85 3400 000/00 RMK AO2 T10061028
94299KAAT AAT20160115174011401/15/16 17:40:31  5-MIN KAAT 160140Z AUTO 00000KT 10SM BKN070 M01/M03 A3005 4260 85 3400 000/00 RMK AO2 T10061028
94299KAAT AAT20160115174512101/15/16 17:45:31  5-MIN KAAT 160145Z AUTO 00000KT 10SM BKN070 BKN100 M01/M03 A3005 4270 85 3400 000/00 RMK AO2 T10061028
94299KAAT AAT20160115175012801/15/16 17:50:31  5-MIN KAAT 160150Z AUTO 00000KT 10SM BKN070 OVC110 M01/M03 A3004 4270 85 3400 000/00 RMK AO2 SLP193 T10061028
94299KAAT AAT20160115175512801/15/16 17:55:31  5-MIN KAAT 160155Z AUTO 00000KT 10SM SCT070 OVC100 M01/M02 A3005 4270 88 3400 000/00 RMK AO2 SLP194 T10061022
94299KAAT AAT20160115180012101/15/16 18:00:31  5-MIN KAAT 160200Z AUTO 00000KT 10SM SCT070 OVC100 M01/M02 A3005 4260 88 3400 000/00 RMK AO2 T10061022
94299KAAT AAT20160115180512101/15/16 18:05:31  5-MIN KAAT 160205Z AUTO 00000KT 10SM FEW070 OVC100 M01/M03 A3005 4260 88 3400 000/00 RMK AO2 T10111028
94299KAAT AAT20160115181012101/15/16 18:10:31  5-MIN KAAT 160210Z AUTO 00000KT 10SM FEW070 OVC100 M01/M03 A3005 4260 88 3400 000/00 RMK AO2 T10111028
94299KAAT AAT20160115181511401/15/16 18:15:31  5-MIN KAAT 160215Z AUTO 00000KT 10SM OVC100 M01/M03 A3005 4260 85 3400 000/00 RMK AO2 T10061028
94299KAAT AAT20160115182011401/15/16 18:20:31  5-MIN KAAT 160220Z AUTO 00000KT 10SM OVC100 M01/M03 A3005 4270 88 3400 000/00 RMK AO2 T10111028
94299KAAT AAT20160115182512101/15/16 18:25:31  5-MIN KAAT 160225Z AUTO 30003KT 10SM BKN100 OVC120 M01/M02 A3005 4260 92 3400 280/03 RMK AO2 T10111022
94299KAAT AAT20160115183012801/15/16 18:30:31  5-MIN KAAT 160230Z AUTO 00000KT 10SM FEW065 BKN100 OVC120 M01/M02 A3005 4260 88 3400 000/00 RMK AO2 T10061022
94299KAAT AAT20160115183512801/15/16 18:35:31  5-MIN KAAT 160235Z AUTO 00000KT 10SM SCT065 BKN100 OVC120 M01/M02 A3005 4260 88 3400 000/00 RMK AO2 T10061022
94299KAAT AAT20160115184012801/15/16 18:40:31  5-MIN KAAT 160240Z AUTO 00000KT 10SM BKN065 BKN095 OVC120 M01/M02 A3005 4260 92 3400 000/00 RMK AO2 T10111022
94299KAAT AAT20160115184512801/15/16 18:45:31  5-MIN KAAT 160245Z AUTO 00000KT 10SM BKN065 BKN095 OVC120 M01/M02 A3005 4260 88 3400 000/00 RMK AO2 T10061022
94299KAAT AAT20160115185013401/15/16 18:50:31  5-MIN KAAT 160250Z AUTO 00000KT 10SM BKN060 OVC120 M01/M02 A3005 4260 88 3400 000/00 RMK AO2 SLP198 T10061022 55010
94299KAAT AAT20160115185512701/15/16 18:55:31  5-MIN KAAT 160255Z AUTO 00000KT 10SM OVC060 M01/M02 A3005 4260 88 3400 000/00 RMK AO2 SLP199 T10061022 53004
94299KAAT AAT20160115190012101/15/16 19:00:31  5-MIN KAAT 160300Z AUTO 00000KT 10SM BKN060 OVC100 M01/M02 A3005 4260 88 3400 000/00 RMK AO2 T10061022
94299KAAT AAT20160115190512101/15/16 19:05:31  5-MIN KAAT 160305Z AUTO 29003KT 10SM BKN060 OVC100 M01/M02 A3006 4260 88 3400 270/03 RMK AO2 T10061022
94299KAAT AAT20160115191012101/15/16 19:10:31  5-MIN KAAT 160310Z AUTO 00000KT 10SM BKN060 OVC100 M01/M02 A3005 4260 88 3400 000/00 RMK AO2 T10061022
94299KAAT AAT20160115191512101/15/16 19:15:31  5-MIN KAAT 160315Z AUTO 00000KT 10SM BKN060 OVC100 M01/M02 A3005 4260 88 3400 000/00 RMK AO2 T10061022
94299KAAT AAT20160115192012101/15/16 19:20:31  5-MIN KAAT 160320Z AUTO 00000KT 10SM BKN060 OVC100 M01/M02 A3005 4260 88 3400 000/00 RMK AO2 T10061022
94299KAAT AAT20160115192512001/15/16 19:25:31  5-MIN KAAT 160325Z AUTO 00000KT 10SM BKN060 OVC100 00/M02 A3005 4260 85 3500 000/00 RMK AO2 T00001022
94299KAAT AAT20160115193011301/15/16 19:30:31  5-MIN KAAT 160330Z AUTO 00000KT 10SM OVC060 00/M02 A3005 4260 85 3500 000/00 RMK AO2 T00001022
94299KAAT AAT20160115193511301/15/16 19:35:31  5-MIN KAAT 160335Z AUTO 00000KT 10SM OVC060 00/M02 A3005 4260 85 3500 000/00 RMK AO2 T00001022
94299KAAT AAT20160115194012101/15/16 19:40:31  5-MIN KAAT 160340Z AUTO 00000KT 10SM BKN060 OVC080 M01/M02 A3005 4260 88 3400 000/00 RMK AO2 T10061022
94299KAAT AAT20160115194512801/15/16 19:45:31  5-MIN KAAT 160345Z AUTO 00000KT 10SM BKN060 BKN080 OVC095 M01/M02 A3005 4260 88 3400 000/00 RMK AO2 T10061022
94299KAAT AAT20160115195012801/15/16 19:50:31  5-MIN KAAT 160350Z AUTO 00000KT 10SM SCT060 OVC090 M01/M02 A3005 4260 88 3400 000/00 RMK AO2 SLP197 T10061022
94299KAAT AAT20160115195512801/15/16 19:55:31  5-MIN KAAT 160355Z AUTO 28003KT 10SM SCT060 OVC085 M01/M02 A3004 4270 88 3400 270/03 RMK AO2 SLP195 T10061022
94299KAAT AAT20160115200012801/15/16 20:00:31  5-MIN KAAT 160400Z AUTO 00000KT 10SM SCT065 BKN080 OVC095 M01/M02 A3004 4270 88 3500 000/00 RMK AO2 T10061022
94299KAAT AAT20160115200512101/15/16 20:05:31  5-MIN KAAT 160405Z AUTO 00000KT 10SM BKN075 OVC090 M01/M02 A3004 4270 88 3500 000/00 RMK AO2 T10061022
94299KAAT AAT20160115201012001/15/16 20:10:31  5-MIN KAAT 160410Z AUTO 00000KT 10SM BKN080 OVC090 00/M02 A3004 4270 85 3500 000/00 RMK AO2 T00001022
94299KAAT AAT20160115201512001/15/16 20:15:31  5-MIN KAAT 160415Z AUTO 00000KT 10SM BKN075 OVC085 00/M02 A3004 4270 85 3500 000/00 RMK AO2 T00001022
94299KAAT AAT20160115202011301/15/16 20:20:31  5-MIN KAAT 160420Z AUTO 00000KT 10SM OVC070 00/M02 A3004 4270 85 3500 000/00 RMK AO2 T00001022
94299KAAT AAT20160115202511301/15/16 20:25:31  5-MIN KAAT 160425Z AUTO 24003KT 10SM OVC070 00/M02 A3004 4270 88 3500 230/03 RMK AO2 T00001017
94299KAAT AAT20160115203012001/15/16 20:30:31  5-MIN KAAT 160430Z AUTO 24003KT 10SM BKN070 OVC085 00/M02 A3004 4270 88 3500 230/03 RMK AO2 T00001017
94299KAAT AAT20160115203512701/15/16 20:35:31  5-MIN KAAT 160435Z AUTO 25005KT 10SM SCT055 BKN070 OVC085 00/M02 A3005 4260 85 3500 240/05 RMK AO2 T00001022
94299KAAT AAT20160115204012701/15/16 20:40:31  5-MIN KAAT 160440Z AUTO 25005KT 10SM SCT055 BKN070 OVC085 01/M02 A3005 4260 82 3600 240/05 RMK AO2 T00061022
94299KAAT AAT20160115204512701/15/16 20:45:31  5-MIN KAAT 160445Z AUTO 24004KT 10SM BKN055 BKN070 OVC085 01/M02 A3005 4260 82 3600 230/04 RMK AO2 T00061022
94299KAAT AAT20160115205013401/15/16 20:50:31  5-MIN KAAT 160450Z AUTO 24005KT 10SM BKN055 BKN070 OVC085 01/M02 A3005 4260 82 3600 230/05 RMK AO2 SLP191 T00061022
94299KAAT AAT20160115205513401/15/16 20:55:31  5-MIN KAAT 160455Z AUTO 24005KT 10SM BKN055 BKN070 OVC085 01/M02 A3005 4260 82 3600 230/05 RMK AO2 SLP192 T00061022
94299KAAT AAT20160115210012701/15/16 21:00:31  5-MIN KAAT 160500Z AUTO 25004KT 10SM BKN055 BKN070 OVC090 01/M02 A3004 4270 82 3600 230/04 RMK AO2 T00061022
94299KAAT AAT20160115210512701/15/16 21:05:31  5-MIN KAAT 160505Z AUTO 24004KT 10SM SCT055 BKN070 OVC090 01/M02 A3005 4270 85 3600 220/04 RMK AO2 T00061017
94299KAAT AAT20160115211012701/15/16 21:10:31  5-MIN KAAT 160510Z AUTO 25004KT 10SM BKN055 BKN070 OVC090 01/M02 A3005 4260 82 3600 240/04 RMK AO2 T00061022
94299KAAT AAT20160115211512701/15/16 21:15:31  5-MIN KAAT 160515Z AUTO 25004KT 10SM FEW048 BKN055 OVC090 01/M02 A3005 4260 85 3600 240/04 RMK AO2 T00061017
94299KAAT AAT20160115212012701/15/16 21:20:31  5-MIN KAAT 160520Z AUTO 27004KT 10SM SCT048 BKN055 OVC090 01/M02 A3005 4260 85 3600 260/04 RMK AO2 T00061017
94299KAAT AAT20160115212512701/15/16 21:25:31  5-MIN KAAT 160525Z AUTO 27004KT 10SM BKN048 BKN060 OVC090 01/M02 A3005 4260 85 3600 250/04 RMK AO2 T00061017
94299KAAT AAT20160115213012701/15/16 21:30:31  5-MIN KAAT 160530Z AUTO 26005KT 10SM BKN046 BKN055 OVC090 01/M02 A3005 4260 85 3600 240/05 RMK AO2 T00061017
94299KAAT AAT20160115213511701/15/16 21:35:31  5-MIN KAAT 160535Z AUTO 10SM FEW034 BKN046 OVC060 01/M02 A3006 4250 85 3600 M /M RMK AO2 T00061017
94299KAAT AAT20160115214012001/15/16 21:40:31  5-MIN KAAT 160540Z AUTO 26006KT 10SM SCT034 OVC046 01/M02 A3006 4250 85 3600 240/06 RMK AO2 T00061017
94299KAAT AAT20160115214513601/15/16 21:45:31  5-MIN KAAT 160545Z AUTO 25005KT 10SM -SN BKN033 OVC046 01/M02 A3006 4250 85 3600 230/05 RMK AO2 SNB44 P0000 T00061017
94299KAAT AAT20160115215017301/15/16 21:50:31  5-MIN KAAT 160550Z AUTO 23005KT 7SM -SN SCT027 BKN033 OVC046 01/M02 A3006 4250 85 3600 210/05 RMK AO2 SNB44 SLP196 P0000 60000 T00061017 10017 21011 53004
94299KAAT AAT20160115215517601/15/16 21:55:31  5-MIN KAAT 160555Z AUTO 24007KT 3SM -SN BR BKN023 BKN033 OVC046 01/M01 A3007 4250 89 3600 220/07 RMK AO2 SNB44 SLP197 P0000 60000 T00061011 10017 21011 53003
94299KAAT AAT20160115220013601/15/16 22:00:31  5-MIN KAAT 160600Z AUTO 24006KT 1 3/4SM -SN BR BKN023 OVC033 01/M01 A3007 4240 89 3600 220/06 RMK AO2 P0000 T00061011
94299KAAT AAT20160115220513601/15/16 22:05:31  5-MIN KAAT 160605Z AUTO 25004KT 1 3/4SM -SN BR BKN021 OVC032 00/M01 A3007 4240 96 3500 230/04 RMK AO2 P0000 T00001006
94299KAAT AAT20160115221012601/15/16 22:10:31  5-MIN KAAT 160610Z AUTO 1 1/2SM -SN BR BKN019 OVC032 00/M01 A3007 4240 96 3500 M /M RMK AO2 P0000 T00001006
94299KAAT AAT20160115221511901/15/16 22:15:31  5-MIN KAAT 160615Z AUTO 1 1/4SM -SN BR OVC017 00/M01 A3007 4240 96 3500 M /M RMK AO2 P0001 T00001006
94299KAAT AAT20160115222012401/15/16 22:20:31  5-MIN KAAT 160620Z AUTO 25004KT 1SM -SN BR VV015 00/M01 A3008 4240 96 3500 230/04 RMK AO2 P0001 T00001006
94299KAAT AAT20160115222512401/15/16 22:25:31  5-MIN KAAT 160625Z AUTO 26003KT 1SM -SN BR VV014 00/M01 A3008 4240 96 3500 240/03 RMK AO2 P0002 T00001006
94299KAAT AAT20160115223012401/15/16 22:30:31  5-MIN KAAT 160630Z AUTO 00000KT 1SM -SN BR VV012 00/00 A3008 4240 100 3500 000/00 RMK AO2 P0003 T00000000
94299KAAT AAT20160115223512401/15/16 22:35:31  5-MIN KAAT 160635Z AUTO 00000KT 1SM -SN BR VV011 00/00 A3008 4240 100 3500 000/00 RMK AO2 P0003 T00000000
94299KAAT AAT20160115224012901/15/16 22:40:31  5-MIN KAAT 160640Z AUTO 00000KT 1 1/4SM -SN BR OVC011 00/00 A3007 4240 100 3500 000/00 RMK AO2 P0004 T00000000
94299KAAT AAT20160115224513601/15/16 22:45:31  5-MIN KAAT 160645Z AUTO 00000KT 1 1/4SM -SN BR FEW005 OVC011 00/00 A3008 4240 100 3500 000/00 RMK AO2 P0004 T00000000
94299KAAT AAT20160115225013601/15/16 22:50:31  5-MIN KAAT 160650Z AUTO 00000KT 1 1/4SM -SN BR OVC009 00/00 A3008 4240 100 3500 000/00 RMK AO2 SLP201 P0005 T00000000
94299KAAT AAT20160115225513101/15/16 22:55:31  5-MIN KAAT 160655Z AUTO 00000KT 1SM -SN BR VV008 00/00 A3008 4240 100 3500 000/00 RMK AO2 SLP201 P0006 T00000000
94299KAAT AAT20160115230012401/15/16 23:00:31  5-MIN KAAT 160700Z AUTO 00000KT 1SM -SN BR VV008 00/00 A3008 4240 100 3500 000/00 RMK AO2 P0001 T00000000
94299KAAT AAT20160115230512401/15/16 23:05:31  5-MIN KAAT 160705Z AUTO 00000KT 1SM -SN BR VV007 00/00 A3008 4240 100 3500 000/00 RMK AO2 P0001 T00000000
94299KAAT AAT20160115231012901/15/16 23:10:31  5-MIN KAAT 160710Z AUTO 00000KT 1 1/4SM -SN BR OVC008 00/00 A3007 4240 100 3500 000/00 RMK AO2 P0002 T00000000
94299KAAT AAT20160115231513601/15/16 23:15:31  5-MIN KAAT 160715Z AUTO 12003KT 1 1/4SM -SN BR BKN008 OVC030 00/00 A3007 4240 100 3500 100/03 RMK AO2 P0002 T00000000
94299KAAT AAT20160115232013601/15/16 23:20:31  5-MIN KAAT 160720Z AUTO 12004KT 1 1/2SM -SN BR BKN008 OVC030 00/00 A3007 4240 100 3500 110/04 RMK AO2 P0002 T00000000
94299KAAT AAT20160115232513601/15/16 23:25:31  5-MIN KAAT 160725Z AUTO 13004KT 1 3/4SM -SN BR SCT009 OVC031 00/00 A3007 4250 100 3500 120/04 RMK AO2 P0003 T00000000
94299KAAT AAT20160115233013901/15/16 23:30:31  5-MIN KAAT 160730Z AUTO 13004KT 2SM -SN BR SCT009 BKN031 OVC038 00/00 A3006 4250 100 3500 120/04 RMK AO2 P0003 T00000000
94299KAAT AAT20160115233513801/15/16 23:35:31  5-MIN KAAT 160735Z AUTO 14004KT 2SM -SN BR FEW011 BKN031 OVC038 01/00 A3006 4250 96 3600 130/04 RMK AO2 P0004 T00060000
94299KAAT AAT20160115234013801/15/16 23:40:31  5-MIN KAAT 160740Z AUTO 15005KT 3SM -SN BR FEW013 BKN030 OVC037 01/00 A3006 4250 96 3600 140/05 RMK AO2 P0004 T00060000
94299KAAT AAT20160115234513101/15/16 23:45:31  5-MIN KAAT 160745Z AUTO 16005KT 4SM -SN BR FEW026 OVC033 01/00 A3006 4250 96 3600 150/05 RMK AO2 P0004 T00060000
94299KAAT AAT20160115235012101/15/16 23:50:31  5-MIN KAAT 160750Z AUTO 17004KT 4SM -SN BR BKN028 OVC036 01/00 A3006 4250 96 3600 150/04 RMK AO2 P0004
94299KAAT AAT20160115235514901/15/16 23:55:31  5-MIN KAAT 160755Z AUTO 19003KT 4SM -SN BR BKN028 OVC036 01/01 A3006 4250 100 3600 170/03 RMK AO2 SLP191 P0004 T00060006 400281039
94299KAAT AAT20160116000013901/16/16 00:00:31  5-MIN KAAT 160800Z AUTO 18004KT 4SM -SN BR FEW022 BKN028 OVC036 01/01 A3006 4250 100 3600 160/04 RMK AO2 P0000 T00060006
94299KAAT AAT20160116000513601/16/16 00:05:31  5-MIN KAAT 160805Z AUTO 20004KT 2 1/2SM -SN BR BKN026 OVC034 01/01 A3006 4260 100 3600 180/04 RMK AO2 P0001 T00060006
94299KAAT AAT20160116001013201/16/16 00:10:31  5-MIN KAAT 160810Z AUTO 18003KT 2SM -SN BR BKN026 OVC034 01/01 A3006 4260 100 3600 170/03 RMK AO2 P0001 T00060006
94299KAAT AAT20160116001514801/16/16 00:15:31  5-MIN KAAT 160815Z AUTO 19004KT 2 1/2SM -SN BR BKN028 OVC034 01/01 A3006 4260 100 3600 170/04 RMK AO2 VIS 1 1/2V3 P0001 T00060006
94299KAAT AAT20160116002013201/16/16 00:20:31  5-MIN KAAT 160820Z AUTO 20004KT 3SM -SN BR BKN026 OVC034 01/01 A3006 4250 100 3600 180/04 RMK AO2 P0001 T00060006
94299KAAT AAT20160116002513901/16/16 00:25:31  5-MIN KAAT 160825Z AUTO 20004KT 3SM -SN BR FEW018 BKN026 OVC032 01/01 A3006 4250 100 3600 180/04 RMK AO2 P0002 T00060006
94299KAAT AAT20160116003014301/16/16 00:30:31  5-MIN KAAT 160830Z AUTO 20004KT 2 1/2SM -SN BR FEW019 SCT026 OVC030 01/01 A3006 4260 100 3600 190/04 RMK AO2 P0002 T00060006
94299KAAT AAT20160116003514301/16/16 00:35:31  5-MIN KAAT 160835Z AUTO 21004KT 2 1/2SM -SN BR FEW019 SCT026 OVC030 01/01 A3006 4260 100 3600 190/04 RMK AO2 P0002 T00060006
94299KAAT AAT20160116004013101/16/16 00:40:31  5-MIN KAAT 160840Z AUTO 22003KT 4SM -SN BR FEW022 OVC031 01/00 A3005 4260 96 3600 210/03 RMK AO2 P0002 T00060000
94299KAAT AAT20160116004512801/16/16 00:45:31  5-MIN KAAT 160845Z AUTO 22003KT 7SM -SN FEW021 OVC029 01/00 A3005 4260 96 3600 200/03 RMK AO2 P0002 T00060000
94299KAAT AAT20160116005015101/16/16 00:50:31  5-MIN KAAT 160850Z AUTO 00000KT 5SM -SN BR SCT021 OVC029 01/01 A3005 4260 100 3600 000/00 RMK AO2 SLP187 P0003 60013 T00060006 53003
94299KAAT AAT20160116005515501/16/16 00:55:31  5-MIN KAAT 160855Z AUTO 00000KT 2 1/2SM -SN BR BKN021 OVC029 01/01 A3005 4260 100 3600 000/00 RMK AO2 SLP189 P0003 60013 T00060006 56006
94299KAAT AAT20160116010013601/16/16 01:00:31  5-MIN KAAT 160900Z AUTO 00000KT 2 1/2SM -SN BR BKN019 OVC029 01/01 A3005 4260 100 3600 000/00 RMK AO2 P0000 T00060006
94299KAAT AAT20160116010513101/16/16 01:05:31  5-MIN KAAT 160905Z AUTO 00000KT 3SM -SN BR BKN019 OVC027 01/00 A3005 4260 96 3600 000/00 RMK AO2 P0001 T00060000
94299KAAT AAT20160116011013101/16/16 01:10:31  5-MIN KAAT 160910Z AUTO 00000KT 5SM -SN BR BKN019 OVC027 01/00 A3004 4270 96 3600 000/00 RMK AO2 P0001 T00060000
94299KAAT AAT20160116011512801/16/16 01:15:31  5-MIN KAAT 160915Z AUTO 00000KT 8SM -SN BKN019 OVC027 01/00 A3005 4260 96 3600 000/00 RMK AO2 P0001 T00060000
94299KAAT AAT20160116012013001/16/16 01:20:31  5-MIN KAAT 160920Z AUTO 00000KT 9SM BKN019 OVC027 01/00 A3004 4270 96 3600 000/00 RMK AO2 SNE17 P0001 T00060000
94299KAAT AAT20160116012513101/16/16 01:25:31  5-MIN KAAT 160925Z AUTO 00000KT 10SM BKN019 OVC027 01/00 A3004 4270 96 3600 000/00 RMK AO2 SNE17 P0001 T00060000
94299KAAT AAT20160116013013101/16/16 01:30:31  5-MIN KAAT 160930Z AUTO 00000KT 10SM BKN021 OVC026 01/00 A3004 4270 96 3600 000/00 RMK AO2 SNE17 P0001 T00060000
94299KAAT AAT20160116013512401/16/16 01:35:31  5-MIN KAAT 160935Z AUTO 19003KT 10SM OVC021 01/00 A3003 4280 96 3600 170/03 RMK AO2 SNE17 P0001 T00060000
94299KAAT AAT20160116014012401/16/16 01:40:31  5-MIN KAAT 160940Z AUTO 19003KT 10SM OVC021 01/00 A3004 4280 96 3600 180/03 RMK AO2 SNE17 P0001 T00060000
94299KAAT AAT20160116014512401/16/16 01:45:31  5-MIN KAAT 160945Z AUTO 00000KT 10SM OVC022 01/00 A3004 4270 96 3600 000/00 RMK AO2 SNE17 P0001 T00060000
94299KAAT AAT20160116015013101/16/16 01:50:31  5-MIN KAAT 160950Z AUTO 00000KT 10SM OVC022 01/00 A3003 4280 96 3600 000/00 RMK AO2 SNE17 SLP182 P0001 T00060000
94299KAAT AAT20160116015513101/16/16 01:55:31  5-MIN KAAT 160955Z AUTO 00000KT 10SM OVC022 01/00 A3004 4270 96 3600 000/00 RMK AO2 SNE17 SLP181 P0001 T00060000
94299KAAT AAT20160116020011201/16/16 02:00:31  5-MIN KAAT 161000Z AUTO 00000KT 10SM OVC022 01/00 A3003 4280 96 3600 000/00 RMK AO2 T00060000
94299KAAT AAT20160116020511201/16/16 02:05:31  5-MIN KAAT 161005Z AUTO 00000KT 10SM OVC022 01/00 A3004 4280 96 3600 000/00 RMK AO2 T00060000
94299KAAT AAT20160116021011201/16/16 02:10:31  5-MIN KAAT 161010Z AUTO 00000KT 10SM OVC022 01/00 A3003 4280 96 3600 000/00 RMK AO2 T00060000
94299KAAT AAT20160116021511901/16/16 02:15:31  5-MIN KAAT 161015Z AUTO 20005KT 10SM BKN022 OVC028 01/00 A3004 4270 96 3600 180/05 RMK AO2 T00060000
94299KAAT AAT20160116022011901/16/16 02:20:31  5-MIN KAAT 161020Z AUTO 19005KT 10SM BKN023 OVC028 01/00 A3004 4270 92 3700 170/05 RMK AO2 T00110000
94299KAAT AAT20160116022511901/16/16 02:25:31  5-MIN KAAT 161025Z AUTO 19004KT 10SM SCT023 OVC028 01/00 A3004 4270 92 3700 170/04 RMK AO2 T00110000
94299KAAT AAT20160116023011201/16/16 02:30:31  5-MIN KAAT 161030Z AUTO 20004KT 10SM OVC026 01/00 A3004 4270 92 3700 180/04 RMK AO2 T00110000
94299KAAT AAT20160116023511201/16/16 02:35:31  5-MIN KAAT 161035Z AUTO 20004KT 10SM OVC026 01/00 A3004 4270 96 3600 190/04 RMK AO2 T00060000
94299KAAT AAT20160116024011201/16/16 02:40:31  5-MIN KAAT 161040Z AUTO 20005KT 10SM OVC026 01/00 A3004 4270 96 3600 180/05 RMK AO2 T00060000
94299KAAT AAT20160116024511201/16/16 02:45:31  5-MIN KAAT 161045Z AUTO 18004KT 10SM OVC027 01/00 A3003 4280 92 3700 170/04 RMK AO2 T00110000
94299KAAT AAT20160116025011901/16/16 02:50:31  5-MIN KAAT 161050Z AUTO 18004KT 10SM OVC027 01/00 A3003 4280 92 3700 170/04 RMK AO2 SLP178 T00110000
94299KAAT AAT20160116025511901/16/16 02:55:31  5-MIN KAAT 161055Z AUTO 19005KT 10SM OVC027 01/00 A3003 4280 96 3600 170/05 RMK AO2 SLP181 T00060000
94299KAAT AAT20160116030011201/16/16 03:00:31  5-MIN KAAT 161100Z AUTO 17005KT 10SM OVC027 01/00 A3002 4290 96 3600 160/05 RMK AO2 T00060000
94299KAAT AAT20160116030511201/16/16 03:05:31  5-MIN KAAT 161105Z AUTO 17005KT 10SM OVC027 01/00 A3003 4280 92 3700 160/05 RMK AO2 T00110000
94299KAAT AAT20160116031011901/16/16 03:10:31  5-MIN KAAT 161110Z AUTO 15004KT 10SM BKN027 OVC055 01/00 A3002 4290 92 3700 140/04 RMK AO2 T00110000
94299KAAT AAT20160116031511901/16/16 03:15:31  5-MIN KAAT 161115Z AUTO 00000KT 10SM BKN027 OVC050 01/00 A3003 4280 92 3700 000/00 RMK AO2 T00110000
94299KAAT AAT20160116032011901/16/16 03:20:31  5-MIN KAAT 161120Z AUTO 30003KT 10SM BKN027 OVC050 01/00 A3003 4280 96 3600 280/03 RMK AO2 T00060000
94299KAAT AAT20160116032511901/16/16 03:25:31  5-MIN KAAT 161125Z AUTO 30003KT 10SM BKN027 OVC050 01/00 A3003 4280 96 3600 290/03 RMK AO2 T00060000
94299KAAT AAT20160116033012601/16/16 03:30:31  5-MIN KAAT 161130Z AUTO 33003KT 10SM BKN029 BKN039 OVC050 01/00 A3002 4290 96 3600 310/03 RMK AO2 T00060000
94299KAAT AAT20160116033512701/16/16 03:35:31  5-MIN KAAT 161135Z AUTO 00000KT 10SM BKN029 BKN039 OVC050 01/01 A3002 4290 100 3600 000/00 RMK AO2 T00060006
94299KAAT AAT20160116034012001/16/16 03:40:31  5-MIN KAAT 161140Z AUTO 00000KT 10SM BKN029 OVC050 01/01 A3002 4290 100 3600 000/00 RMK AO2 T00060006
94299KAAT AAT20160116034511901/16/16 03:45:31  5-MIN KAAT 161145Z AUTO 00000KT 10SM BKN027 OVC035 01/00 A3002 4290 96 3600 000/00 RMK AO2 T00060000
94299KAAT AAT20160116035014901/16/16 03:50:31  5-MIN KAAT 161150Z AUTO 00000KT 10SM OVC027 01/00 A3002 4290 96 3600 000/00 RMK AO2 SLP175 60014 70014 T00060000 10011 20000 56006
94299KAAT AAT20160116035515601/16/16 03:55:31  5-MIN KAAT 161155Z AUTO 00000KT 10SM BKN027 OVC033 01/00 A3002 4290 96 3600 000/00 RMK AO2 SLP176 60014 70014 T00060000 10011 20000 56011
94299KAAT AAT20160116040011201/16/16 04:00:31  5-MIN KAAT 161200Z AUTO 27004KT 10SM OVC029 01/00 A3002 4290 96 3600 250/04 RMK AO2 T00060000
94299KAAT AAT20160116040511201/16/16 04:05:31  5-MIN KAAT 161205Z AUTO 27004KT 10SM OVC029 01/00 A3002 4290 96 3600 260/04 RMK AO2 T00060000
94299KAAT AAT20160116041011301/16/16 04:10:31  5-MIN KAAT 161210Z AUTO 26004KT 10SM OVC029 01/01 A3002 4290 100 3600 250/04 RMK AO2 T00060006
94299KAAT AAT20160116041511201/16/16 04:15:31  5-MIN KAAT 161215Z AUTO 26005KT 10SM OVC029 01/00 A3002 4290 96 3600 240/05 RMK AO2 T00060000
94299KAAT AAT20160116042011201/16/16 04:20:31  5-MIN KAAT 161220Z AUTO 24005KT 10SM OVC029 01/00 A3002 4290 96 3600 230/05 RMK AO2 T00060000
94299KAAT AAT20160116042511201/16/16 04:25:31  5-MIN KAAT 161225Z AUTO 24007KT 10SM OVC029 01/00 A3002 4290 96 3600 230/07 RMK AO2 T00060000
94299KAAT AAT20160116043011201/16/16 04:30:31  5-MIN KAAT 161230Z AUTO 23007KT 10SM OVC027 01/00 A3001 4300 92 3700 220/07 RMK AO2 T00110000
94299KAAT AAT20160116043511201/16/16 04:35:31  5-MIN KAAT 161235Z AUTO 23008KT 10SM OVC027 01/00 A3001 4300 92 3700 220/08 RMK AO2 T00110000
94299KAAT AAT20160116044012601/16/16 04:40:31  5-MIN KAAT 161240Z AUTO 21008KT 10SM BKN027 OVC065 01/00 A3000 4310 92 3700 200/08 RMK AO2 PRESFR T00110000
94299KAAT AAT20160116044511901/16/16 04:45:31  5-MIN KAAT 161245Z AUTO 22007KT 10SM BKN027 BKN065 01/00 A3001 4300 96 3600 210/07 RMK AO2 T00060000
94299KAAT AAT20160116045011601/16/16 04:50:31  5-MIN KAAT 161250Z AUTO 28007KT 10SM SCT027 BKN055 BKN070 01/00 A3002 4290 96 3600 270/07 RMK AO2
94299KAAT AAT20160116045513301/16/16 04:55:31  5-MIN KAAT 161255Z AUTO 30006KT 10SM BKN023 BKN055 BKN070 01/00 A3002 4290 96 3600 280/06 RMK AO2 SLP179 T00060000
94299KAAT AAT20160116050012601/16/16 05:00:31  5-MIN KAAT 161300Z AUTO 29005KT 10SM SCT021 BKN026 BKN055 01/00 A3001 4290 96 3600 280/05 RMK AO2 T00060000
94299KAAT AAT20160116050512601/16/16 05:05:31  5-MIN KAAT 161305Z AUTO 29003KT 10SM BKN021 BKN055 BKN070 01/00 A3001 4290 96 3600 270/03 RMK AO2 T00060000
94299KAAT AAT20160116051012601/16/16 05:10:31  5-MIN KAAT 161310Z AUTO 34004KT 10SM FEW015 BKN021 BKN070 01/00 A3001 4300 96 3600 320/04 RMK AO2 T00060000
94299KAAT AAT20160116051512601/16/16 05:15:31  5-MIN KAAT 161315Z AUTO 00000KT 10SM FEW015 BKN021 OVC070 01/00 A3001 4300 96 3600 000/00 RMK AO2 T00060000
94299KAAT AAT20160116052012601/16/16 05:20:31  5-MIN KAAT 161320Z AUTO 00000KT 10SM FEW015 BKN021 OVC037 01/00 A3000 4310 96 3600 000/00 RMK AO2 T00060000
94299KAAT AAT20160116052512601/16/16 05:25:31  5-MIN KAAT 161325Z AUTO 00000KT 10SM FEW015 BKN021 OVC037 01/00 A3000 4310 96 3600 000/00 RMK AO2 T00060000
94299KAAT AAT20160116053012601/16/16 05:30:31  5-MIN KAAT 161330Z AUTO 19003KT 10SM FEW015 SCT021 OVC035 01/00 A3000 4310 96 3600 180/03 RMK AO2 T00060000
94299KAAT AAT20160116053512601/16/16 05:35:31  5-MIN KAAT 161335Z AUTO 00000KT 10SM FEW016 SCT021 OVC035 01/00 A3000 4310 96 3600 000/00 RMK AO2 T00060000
94299KAAT AAT20160116054012601/16/16 05:40:31  5-MIN KAAT 161340Z AUTO 00000KT 10SM FEW016 BKN033 OVC055 01/00 A2999 4310 96 3600 000/00 RMK AO2 T00060000
94299KAAT AAT20160116054512601/16/16 05:45:31  5-MIN KAAT 161345Z AUTO 00000KT 10SM BKN030 BKN036 OVC055 01/00 A2999 4320 96 3600 000/00 RMK AO2 T00060000
94299KAAT AAT20160116055013301/16/16 05:50:31  5-MIN KAAT 161350Z AUTO 00000KT 10SM BKN030 BKN036 OVC060 01/00 A3000 4310 96 3600 000/00 RMK AO2 SLP173 T00060000
94299KAAT AAT20160116055513301/16/16 05:55:31  5-MIN KAAT 161355Z AUTO 00000KT 10SM BKN030 BKN036 OVC060 01/00 A3000 4310 96 3600 000/00 RMK AO2 SLP174 T00060000
94299KAAT AAT20160116060012001/16/16 06:00:31  5-MIN KAAT 161400Z AUTO 22003KT 10SM SCT030 OVC044 00/00 A3000 4310 100 3600 200/03 RMK AO2 T00000000
94299KAAT AAT20160116060511901/16/16 06:05:31  5-MIN KAAT 161405Z AUTO 00000KT 10SM SCT030 OVC044 01/00 A2999 4310 96 3600 000/00 RMK AO2 T00060000
94299KAAT AAT20160116061012001/16/16 06:10:31  5-MIN KAAT 161410Z AUTO 00000KT 10SM SCT030 OVC044 00/00 A2999 4310 100 3600 000/00 RMK AO2 T00000000
94299KAAT AAT20160116061512701/16/16 06:15:31  5-MIN KAAT 161415Z AUTO 00000KT 10SM SCT028 BKN036 OVC044 00/00 A2999 4320 100 3600 000/00 RMK AO2 T00000000
94299KAAT AAT20160116062012701/16/16 06:20:31  5-MIN KAAT 161420Z AUTO 26003KT 10SM FEW028 BKN035 OVC044 00/00 A2999 4310 100 3600 240/03 RMK AO2 T00000000
94299KAAT AAT20160116062512001/16/16 06:25:31  5-MIN KAAT 161425Z AUTO 30005KT 10SM SCT030 OVC038 00/M01 A3000 4310 96 3600 280/05 RMK AO2 T00001006
94299KAAT AAT20160116063012001/16/16 06:30:31  5-MIN KAAT 161430Z AUTO 30004KT 10SM BKN030 OVC036 00/M01 A3000 4310 96 3600 290/04 RMK AO2 T00001006
94299KAAT AAT20160116063512001/16/16 06:35:31  5-MIN KAAT 161435Z AUTO 00000KT 10SM BKN028 OVC034 00/00 A2999 4310 100 3600 000/00 RMK AO2 T00000000
94299KAAT AAT20160116064012701/16/16 06:40:31  5-MIN KAAT 161440Z AUTO 33006KT 10SM BKN028 BKN034 OVC046 00/00 A2999 4310 100 3600 320/06 RMK AO2 T00000000
94299KAAT AAT20160116064512001/16/16 06:45:31  5-MIN KAAT 161445Z AUTO 34005KT 10SM BKN028 OVC038 00/00 A2999 4320 100 3600 320/05 RMK AO2 T00000000
94299KAAT AAT20160116065010901/16/16 06:50:31  5-MIN KAAT 161450Z AUTO 29003KT 10SM BKN030 OVC039 01/00 A2999 4320 96 3600 280/03 RMK AO2
94299KAAT AAT20160116065513201/16/16 06:55:31  5-MIN KAAT 161455Z AUTO 23006KT 10SM BKN028 OVC035 01/00 A2999 4320 96 3600 210/06 RMK AO2 SLP171 T00060000 58009
94299KAAT AAT20160116070011901/16/16 07:00:31  5-MIN KAAT 161500Z AUTO 25007KT 10SM BKN028 OVC037 02/01 A3000 4310 92 3800 240/07 RMK AO2 T00170006
94299KAAT AAT20160116070511901/16/16 07:05:31  5-MIN KAAT 161505Z AUTO 27007KT 10SM BKN026 OVC033 01/00 A3001 4300 96 3600 260/07 RMK AO2 T00060000
94299KAAT AAT20160116071011901/16/16 07:10:31  5-MIN KAAT 161510Z AUTO 26006KT 10SM BKN026 OVC033 01/00 A3000 4300 96 3600 240/06 RMK AO2 T00060000
94299KAAT AAT20160116071511301/16/16 07:15:31  5-MIN KAAT 161515Z AUTO 25007KT 10SM OVC028 01/01 A3001 4300 100 3600 230/07 RMK AO2 T00060006
94299KAAT AAT20160116072011201/16/16 07:20:31  5-MIN KAAT 161520Z AUTO 25008KT 10SM OVC028 01/00 A3002 4290 92 3700 230/08 RMK AO2 T00110000
94299KAAT AAT20160116072511101/16/16 07:25:31  5-MIN KAAT 161525Z AUTO 25009KT 9SM OVC026 01/00 A3002 4290 96 3600 230/09 RMK AO2 T00060000
94299KAAT AAT20160116073011801/16/16 07:30:31  5-MIN KAAT 161530Z AUTO 25007KT 8SM FEW022 OVC026 01/00 A3003 4280 96 3600 230/07 RMK AO2 T00060000
94299KAAT AAT20160116073513601/16/16 07:35:31  5-MIN KAAT 161535Z AUTO 25007KT 6SM UP BR SCT020 OVC026 01/00 A3003 4280 96 3600 230/07 RMK AO2 UPB34 P0000 T00060000
94299KAAT AAT20160116074013801/16/16 07:40:31  5-MIN KAAT 161540Z AUTO 26010KT 4SM -RA BR OVC024 01/00 A3003 4280 96 3600 240/10 RMK AO2 UPB34E36RAB36 P0000 T00060000
94299KAAT AAT20160116074513801/16/16 07:45:31  5-MIN KAAT 161545Z AUTO 25008KT 4SM -RA BR OVC022 01/00 A3003 4280 96 3600 240/08 RMK AO2 UPB34E36RAB36 P0000 T00060000
94299KAAT AAT20160116075014601/16/16 07:50:31  5-MIN KAAT 161550Z AUTO 25008KT 5SM -RA BR OVC020 01/01 A3003 4280 100 3600 240/08 RMK AO2 UPB34E36RAB36 SLP184 P0000 T00060006
94299KAAT AAT20160116075515101/16/16 07:55:31  5-MIN KAAT 161555Z AUTO 24007KT 6SM UP BR OVC020 01/01 A3003 4280 100 3600 220/07 RMK AO2 UPB34E36B55RAB36E55 SLP184 P0000 T00060006
94299KAAT AAT20160116080015101/16/16 08:00:31  5-MIN KAAT 161600Z AUTO 22006KT 8SM -SN FEW014 BKN021 OVC026 01/01 A3002 4290 100 3600 210/06 RMK AO2 UPE1559SNB1559 P0000 T00060006
94299KAAT AAT20160116080514701/16/16 08:05:31  5-MIN KAAT 161605Z AUTO 23006KT 6SM -SN BR BKN019 OVC026 01/01 A3002 4290 100 3600 210/06 RMK AO2 UPE1559SNB1559 P0000 T00060006
94299KAAT AAT20160116081015401/16/16 08:10:31  5-MIN KAAT 161610Z AUTO 22005KT 4SM -SN BR FEW014 BKN026 OVC047 01/01 A3001 4290 100 3600 210/05 RMK AO2 UPE1559SNB1559 P0001 T00060006
94299KAAT AAT20160116081515401/16/16 08:15:31  5-MIN KAAT 161615Z AUTO 23005KT 6SM -SN BR FEW017 BKN026 OVC045 01/01 A3001 4290 100 3600 220/05 RMK AO2 UPE1559SNB1559 P0001 T00060006
94299KAAT AAT20160116082015001/16/16 08:20:31  5-MIN KAAT 161620Z AUTO 25006KT 9SM -SN FEW016 SCT026 OVC041 01/00 A3002 4290 96 3600 230/06 RMK AO2 UPE1559SNB1559 P0001 T00060000
94299KAAT AAT20160116082514801/16/16 08:25:31  5-MIN KAAT 161625Z AUTO 24006KT 9SM FEW016 OVC039 01/00 A3002 4290 96 3600 220/06 RMK AO2 UPE1559B21E23SNB1559E21 P0001 T00060000
94299KAAT AAT20160116083015701/16/16 08:30:31  5-MIN KAAT 161630Z AUTO 26004KT 10SM FEW027 BKN036 OVC046 01/01 A3002 4290 100 3600 240/04 RMK AO2 UPE1559B21E23SNB1559E21 P0001 T00060006
94299KAAT AAT20160116083515001/16/16 08:35:31  5-MIN KAAT 161635Z AUTO 26007KT 10SM FEW022 OVC038 01/01 A3002 4290 100 3600 250/07 RMK AO2 UPE1559B21E23SNB1559E21 P0001 T00060006
94299KAAT AAT20160116084014301/16/16 08:40:31  5-MIN KAAT 161640Z AUTO 26006KT 10SM OVC038 01/01 A3002 4290 100 3600 250/06 RMK AO2 UPE1559B21E23SNB1559E21 P0001 T00060006
94299KAAT AAT20160116084514301/16/16 08:45:31  5-MIN KAAT 161645Z AUTO 26003KT 10SM OVC038 01/01 A3001 4300 100 3600 240/03 RMK AO2 UPE1559B21E23SNB1559E21 P0001 T00060006
94299KAAT AAT20160116085015001/16/16 08:50:31  5-MIN KAAT 161650Z AUTO 00000KT 10SM OVC037 01/01 A3002 4290 100 3600 000/00 RMK AO2 UPE1559B21E23SNB1559E21 SLP179 P0001 T00060006
94299KAAT AAT20160116085515701/16/16 08:55:31  5-MIN KAAT 161655Z AUTO 26003KT 10SM BKN034 OVC041 01/01 A3002 4290 100 3600 240/03 RMK AO2 UPE1559B21E23SNB1559E21 SLP179 P0001 T00060006
94299KAAT AAT20160116090011901/16/16 09:00:31  5-MIN KAAT 161700Z AUTO VRB03KT 10SM BKN032 OVC041 01/00 A3002 4290 96 3600 VRB/03 RMK AO2 T00060000
94299KAAT AAT20160116090511901/16/16 09:05:31  5-MIN KAAT 161705Z AUTO 00000KT 10SM BKN030 OVC039 01/01 A3002 4290 96 3700 000/00 RMK AO2 T00110006
94299KAAT AAT20160116091011901/16/16 09:10:31  5-MIN KAAT 161710Z AUTO 00000KT 10SM BKN030 OVC039 01/01 A3002 4290 96 3700 000/00 RMK AO2 T00110006
94299KAAT AAT20160116091511201/16/16 09:15:31  5-MIN KAAT 161715Z AUTO 00000KT 10SM OVC028 01/01 A3003 4280 96 3700 000/00 RMK AO2 T00110006
94299KAAT AAT20160116092011201/16/16 09:20:31  5-MIN KAAT 161720Z AUTO 29004KT 10SM OVC028 01/01 A3003 4280 96 3700 280/04 RMK AO2 T00110006
94299KAAT AAT20160116092511201/16/16 09:25:31  5-MIN KAAT 161725Z AUTO 29005KT 10SM OVC026 01/01 A3004 4270 96 3700 270/05 RMK AO2 T00110006
94299KAAT AAT20160116093011901/16/16 09:30:31  5-MIN KAAT 161730Z AUTO 32005KT 10SM FEW020 OVC026 01/01 A3003 4280 96 3700 310/05 RMK AO2 T00110006
94299KAAT AAT20160116093511901/16/16 09:35:31  5-MIN KAAT 161735Z AUTO 31003KT 10SM FEW020 OVC028 01/01 A3003 4280 96 3700 300/03 RMK AO2 T00110006
94299KAAT AAT20160116094011901/16/16 09:40:31  5-MIN KAAT 161740Z AUTO 27005KT 10SM FEW019 OVC028 01/01 A3005 4270 96 3700 250/05 RMK AO2 T00110006
94299KAAT AAT20160116094511901/16/16 09:45:31  5-MIN KAAT 161745Z AUTO 32004KT 10SM FEW019 OVC028 01/01 A3004 4270 96 3700 300/04 RMK AO2 T00110006
94299KAAT AAT20160116095015701/16/16 09:50:31  5-MIN KAAT 161750Z AUTO 30006KT 10SM FEW019 BKN027 OVC032 01/01 A3005 4260 96 3600 290/06 RMK AO2 SLP187 60001 T00110006 10017 20000 58009
94299KAAT AAT20160116095515001/16/16 09:55:31  5-MIN KAAT 161755Z AUTO 33003KT 10SM FEW019 OVC029 01/01 A3004 4270 96 3700 310/03 RMK AO2 SLP185 60001 T00110006 10017 20000 51016
94299KAAT AAT20160116100012001/16/16 10:00:31  5-MIN KAAT 161800Z AUTO 00000KT 10SM BKN029 OVC036 01/01 A3004 4270 100 3700 000/00 RMK AO2 T00110011
94299KAAT AAT20160116100511901/16/16 10:05:31  5-MIN KAAT 161805Z AUTO 01004KT 10SM BKN029 OVC036 02/01 A3003 4280 92 3700 350/04 RMK AO2 T00170006
94299KAAT AAT20160116101011901/16/16 10:10:31  5-MIN KAAT 161810Z AUTO 00000KT 10SM BKN029 OVC036 02/01 A3004 4270 96 3700 000/00 RMK AO2 T00170011
94299KAAT AAT20160116101511201/16/16 10:15:31  5-MIN KAAT 161815Z AUTO 00000KT 10SM OVC029 02/01 A3004 4270 96 3700 000/00 RMK AO2 T00170011
94299KAAT AAT20160116102011901/16/16 10:20:31  5-MIN KAAT 161820Z AUTO 00000KT 10SM BKN029 OVC037 02/01 A3004 4270 96 3700 000/00 RMK AO2 T00170011
94299KAAT AAT20160116102511901/16/16 10:25:31  5-MIN KAAT 161825Z AUTO 00000KT 10SM BKN027 OVC033 02/01 A3004 4270 92 3800 000/00 RMK AO2 T00220011
94299KAAT AAT20160116103011901/16/16 10:30:31  5-MIN KAAT 161830Z AUTO 00000KT 10SM BKN027 OVC033 02/01 A3004 4270 96 3700 000/00 RMK AO2 T00170011
94299KAAT AAT20160116103511901/16/16 10:35:31  5-MIN KAAT 161835Z AUTO 00000KT 10SM BKN027 OVC033 02/02 A3004 4270 96 3800 000/00 RMK AO2 T00220017
94299KAAT AAT20160116104011201/16/16 10:40:31  5-MIN KAAT 161840Z AUTO 25003KT 10SM OVC028 02/02 A3004 4270 96 3800 240/03 RMK AO2 T00220017
94299KAAT AAT20160116104511901/16/16 10:45:31  5-MIN KAAT 161845Z AUTO 00000KT 10SM BKN028 OVC036 02/02 A3003 4280 96 3800 000/00 RMK AO2 T00220017
94299KAAT AAT20160116105012601/16/16 10:50:31  5-MIN KAAT 161850Z AUTO 00000KT 10SM BKN028 OVC038 02/02 A3003 4280 96 3800 000/00 RMK AO2 SLP182 T00220017
94299KAAT AAT20160116105512601/16/16 10:55:31  5-MIN KAAT 161855Z AUTO 00000KT 10SM BKN030 OVC038 02/02 A3003 4280 96 3800 000/00 RMK AO2 SLP181 T00220017
94299KAAT AAT20160116110011201/16/16 11:00:31  5-MIN KAAT 161900Z AUTO 00000KT 10SM OVC030 02/02 A3003 4280 96 3800 000/00 RMK AO2 T00220017
94299KAAT AAT20160116110511201/16/16 11:05:31  5-MIN KAAT 161905Z AUTO 00000KT 10SM OVC030 02/02 A3003 4280 96 3800 000/00 RMK AO2 T00220017
94299KAAT AAT20160116111011201/16/16 11:10:31  5-MIN KAAT 161910Z AUTO 00000KT 10SM OVC030 03/02 A3003 4280 92 3900 000/00 RMK AO2 T00280017
94299KAAT AAT20160116111511201/16/16 11:15:31  5-MIN KAAT 161915Z AUTO 00000KT 10SM OVC030 02/02 A3003 4280 96 3800 000/00 RMK AO2 T00220017
94299KAAT AAT20160116112011201/16/16 11:20:31  5-MIN KAAT 161920Z AUTO 00000KT 10SM OVC030 02/02 A3003 4280 96 3800 000/00 RMK AO2 T00220017
94299KAAT AAT20160116112511201/16/16 11:25:31  5-MIN KAAT 161925Z AUTO 00000KT 10SM OVC030 02/02 A3003 4280 96 3800 000/00 RMK AO2 T00220017
94299KAAT AAT20160116113011201/16/16 11:30:31  5-MIN KAAT 161930Z AUTO 20003KT 10SM OVC030 02/02 A3003 4280 96 3800 180/03 RMK AO2 T00220017
94299KAAT AAT20160116113511201/16/16 11:35:31  5-MIN KAAT 161935Z AUTO 23004KT 10SM OVC030 02/02 A3002 4290 96 3800 210/04 RMK AO2 T00220017
94299KAAT AAT20160116114011201/16/16 11:40:31  5-MIN KAAT 161940Z AUTO 22005KT 10SM OVC030 03/02 A3002 4290 92 3900 210/05 RMK AO2 T00280017
94299KAAT AAT20160116114511201/16/16 11:45:31  5-MIN KAAT 161945Z AUTO VRB05KT 10SM OVC030 03/02 A3002 4290 96 3900 VRB/05 RMK AO2 T00280022
94299KAAT AAT20160116115010901/16/16 11:50:31  5-MIN KAAT 161950Z AUTO 21006KT 10SM BKN028 OVC032 03/02 A3002 4290 92 3900 200/06 RMK AO2
94299KAAT AAT20160116115511901/16/16 11:55:31  5-MIN KAAT 161955Z AUTO 23004KT 10SM OVC028 03/02 A3002 4290 92 4000 210/04 RMK AO2 SLP173 T00330022
94299KAAT AAT20160116120011901/16/16 12:00:31  5-MIN KAAT 162000Z AUTO 00000KT 10SM BKN028 OVC037 03/02 A3002 4290 92 4000 000/00 RMK AO2 T00330022
94299KAAT AAT20160116120511901/16/16 12:05:31  5-MIN KAAT 162005Z AUTO VRB05KT 10SM BKN028 OVC035 04/03 A3002 4290 92 4000 VRB/05 RMK AO2 T00390028
94299KAAT AAT20160116121011901/16/16 12:10:31  5-MIN KAAT 162010Z AUTO 24004KT 10SM BKN028 OVC032 04/02 A3002 4290 89 4000 230/04 RMK AO2 T00390022
94299KAAT AAT20160116121511901/16/16 12:15:31  5-MIN KAAT 162015Z AUTO 24004KT 10SM BKN027 OVC032 04/03 A3001 4290 89 4100 230/04 RMK AO2 T00440028
94299KAAT AAT20160116122011901/16/16 12:20:31  5-MIN KAAT 162020Z AUTO 26005KT 10SM BKN027 OVC032 05/03 A3002 4290 85 4100 250/05 RMK AO2 T00500028
94299KAAT AAT20160116122511901/16/16 12:25:31  5-MIN KAAT 162025Z AUTO 26006KT 10SM BKN027 OVC032 05/02 A3002 4290 82 4200 240/06 RMK AO2 T00500022
94299KAAT AAT20160116123011901/16/16 12:30:31  5-MIN KAAT 162030Z AUTO 26008KT 10SM BKN027 OVC034 04/02 A3002 4290 85 4100 250/08 RMK AO2 T00440022
94299KAAT AAT20160116123511901/16/16 12:35:31  5-MIN KAAT 162035Z AUTO 25008KT 10SM BKN027 BKN032 04/02 A3002 4290 85 4100 230/08 RMK AO2 T00440022
94299KAAT AAT20160116124012601/16/16 12:40:31  5-MIN KAAT 162040Z AUTO 26006KT 10SM BKN027 BKN034 BKN042 04/02 A3002 4290 82 4100 250/06 RMK AO2 T00440017
94299KAAT AAT20160116124512601/16/16 12:45:31  5-MIN KAAT 162045Z AUTO 26007KT 10SM BKN027 BKN034 BKN042 04/02 A3003 4280 82 4100 250/07 RMK AO2 T00440017
94299KAAT AAT20160116125013201/16/16 12:50:31  5-MIN KAAT 162050Z AUTO 26007KT 10SM BKN027 BKN034 04/02 A3003 4280 85 4000 250/07 RMK AO2 SLP176 T00390017 51016
94299KAAT AAT20160116125513901/16/16 12:55:31  5-MIN KAAT 162055Z AUTO 26008KT 10SM FEW021 BKN029 BKN034 04/02 A3002 4290 85 4000 250/08 RMK AO2 SLP175 T00390017 55005
94299KAAT AAT20160116130012601/16/16 13:00:31  5-MIN KAAT 162100Z AUTO 25007KT 10SM FEW021 BKN034 OVC041 04/02 A3003 4280 85 4000 230/07 RMK AO2 T00390017
94299KAAT AAT20160116130511901/16/16 13:05:31  5-MIN KAAT 162105Z AUTO 26006KT 10SM FEW024 OVC034 04/02 A3003 4280 89 4000 240/06 RMK AO2 T00390022
94299KAAT AAT20160116131011901/16/16 13:10:31  5-MIN KAAT 162110Z AUTO 26006KT 10SM FEW022 OVC034 04/02 A3003 4280 89 4000 240/06 RMK AO2 T00390022
94299KAAT AAT20160116131511901/16/16 13:15:31  5-MIN KAAT 162115Z AUTO VRB04KT 10SM BKN032 OVC040 04/02 A3003 4280 89 4000 VRB/04 RMK AO2 T00390022
94299KAAT AAT20160116132011901/16/16 13:20:31  5-MIN KAAT 162120Z AUTO 29004KT 10SM BKN030 OVC038 04/02 A3003 4280 85 4100 270/04 RMK AO2 T00440022
94299KAAT AAT20160116132511901/16/16 13:25:31  5-MIN KAAT 162125Z AUTO 29004KT 10SM SCT027 OVC035 05/02 A3003 4280 82 4100 270/04 RMK AO2 T00500022
94299KAAT AAT20160116133011901/16/16 13:30:31  5-MIN KAAT 162130Z AUTO 33004KT 10SM BKN030 OVC038 05/02 A3004 4270 82 4100 310/04 RMK AO2 T00500022
94299KAAT AAT20160116133513501/16/16 13:35:31  5-MIN KAAT 162135Z AUTO 28007KT 250V320 10SM BKN029 OVC037 05/02 A3004 4270 82 4100 270/07 240V310 RMK AO2 T00500022
94299KAAT AAT20160116134011901/16/16 13:40:31  5-MIN KAAT 162140Z AUTO 27007KT 10SM BKN029 OVC039 05/02 A3004 4270 82 4100 260/07 RMK AO2 T00500022
94299KAAT AAT20160116134511901/16/16 13:45:31  5-MIN KAAT 162145Z AUTO 28006KT 10SM SCT029 OVC036 04/02 A3004 4270 82 4100 260/06 RMK AO2 T00440017
94299KAAT AAT20160116135010901/16/16 13:50:31  5-MIN KAAT 162150Z AUTO 27006KT 10SM BKN029 OVC037 04/02 A3005 4260 82 4000 260/06 RMK AO2
94299KAAT AAT20160116135512601/16/16 13:55:31  5-MIN KAAT 162155Z AUTO 27006KT 10SM BKN032 OVC040 04/02 A3005 4260 82 4000 250/06 RMK AO2 SLP184 T00440017
94299KAAT AAT20160116140011901/16/16 14:00:31  5-MIN KAAT 162200Z AUTO 28006KT 10SM SCT029 OVC036 04/02 A3005 4260 82 4000 260/06 RMK AO2 T00440017
94299KAAT AAT20160116140511901/16/16 14:05:31  5-MIN KAAT 162205Z AUTO 28004KT 10SM SCT029 OVC037 04/02 A3005 4260 85 4000 260/04 RMK AO2 T00390017
94299KAAT AAT20160129151013701/29/16 15:10:31  5-MIN KAAT 292310Z AUTO 25006KT 5SM RA BR FEW012 SCT017 OVC023 06/04 A2989 4410 92 4400 240/06 RMK AO2 P0003 T00560044
94299KAAT AAT20160129151513001/29/16 15:15:31  5-MIN KAAT 292315Z AUTO 26006KT 5SM RA BR SCT012 OVC021 06/05 A2989 4410 96 4400 240/06 RMK AO2 P0004 T00560050
94299KAAT AAT20160129152013001/29/16 15:20:31  5-MIN KAAT 292320Z AUTO 25006KT 5SM RA BR BKN012 OVC021 06/05 A2989 4410 96 4400 240/06 RMK AO2 P0005 T00560050
94299KAAT AAT20160129152513101/29/16 15:25:31  5-MIN KAAT 292325Z AUTO 26008KT 6SM -RA BR BKN012 OVC019 06/05 A2989 4410 96 4400 250/08 RMK AO2 P0006 T00560050
94299KAAT AAT20160129153012801/29/16 15:30:31  5-MIN KAAT 292330Z AUTO 26010KT 7SM -RA BKN012 OVC021 06/04 A2990 4400 92 4400 250/10 RMK AO2 P0006 T00560044
94299KAAT AAT20160129153513001/29/16 15:35:31  5-MIN KAAT 292335Z AUTO 27009KT 6SM RA BR BKN012 OVC019 06/04 A2990 4400 92 4400 250/09 RMK AO2 P0007 T00560044
94299KAAT AAT20160129154014301/29/16 15:40:31  5-MIN KAAT 292340Z AUTO 31020G23KT 5SM RA BR BKN012 OVC019 05/04 A2991 4390 92 4300 300/20G23 RMK AO2 PRESRR P0008 T00500039
94299KAAT AAT20160129154515001/29/16 15:45:31  5-MIN KAAT 292345Z AUTO 32016G24KT 4SM RA BR FEW010 BKN015 OVC021 02/01 A2992 4380 92 3900 310/16G24 RMK AO2 PRESRR P0010 T00220011
94299KAAT AAT20160129155015601/29/16 15:50:31  5-MIN KAAT 292350Z AUTO 32015G24KT 4SM -SN BR BKN013 OVC021 02/01 A2993 4380 92 3900 300/15G24 RMK AO2 WSHFT 2336 RAE48SNB48 PRESRR P0010
94299KAAT AAT20160129155518401/29/16 15:55:31  5-MIN KAAT 292355Z AUTO 31014KT 6SM -SN BR SCT013 OVC021 02/01 A2993 4380 92 3900 300/14 RMK AO2 WSHFT 2336 RAE48SNB48 SLP137 P0011 60024 T00220011 10072 20022 53007
94299KAAT AAT20160129160013001/29/16 16:00:31  5-MIN KAAT 300000Z AUTO 32015G20KT 5SM -SN BR OVC018 02/01 A2992 4380 96 3900 310/15G20 RMK AO2 P0001 T00170011
94299KAAT AAT20160129160513001/29/16 16:05:31  5-MIN KAAT 300005Z AUTO 33013G20KT 4SM -SN BR OVC018 02/01 A2993 4370 92 3800 310/13G20 RMK AO2 P0001 T00170006
94299KAAT AAT20160129161012401/29/16 16:10:31  5-MIN KAAT 300010Z AUTO 33012KT 3SM -SN BR OVC018 02/01 A2993 4380 92 3900 320/12 RMK AO2 P0002 T00170006
94299KAAT AAT20160129161512401/29/16 16:15:31  5-MIN KAAT 300015Z AUTO 33015KT 3SM -SN BR OVC018 02/01 A2993 4370 92 3900 320/15 RMK AO2 P0002 T00170006
94299KAAT AAT20160129162012401/29/16 16:20:31  5-MIN KAAT 300020Z AUTO 33012KT 3SM -SN BR OVC018 02/01 A2993 4370 92 3900 320/12 RMK AO2 P0003 T00170006
94299KAAT AAT20160129162512401/29/16 16:25:31  5-MIN KAAT 300025Z AUTO 33012KT 3SM -SN BR OVC018 01/01 A2992 4380 96 3800 310/12 RMK AO2 P0003 T00110006
94299KAAT AAT20160129163013001/29/16 16:30:31  5-MIN KAAT 300030Z AUTO 33010G19KT 4SM -SN BR OVC020 02/01 A2993 4370 92 3800 310/10G19 RMK AO2 P0003 T00170006
94299KAAT AAT20160129163512401/29/16 16:35:31  5-MIN KAAT 300035Z AUTO 32011KT 6SM -SN BR OVC020 02/01 A2995 4360 92 3800 300/11 RMK AO2 P0004 T00170006
94299KAAT AAT20160129164012101/29/16 16:40:31  5-MIN KAAT 300040Z AUTO 33010KT 8SM -SN OVC020 02/01 A2994 4360 92 3800 310/10 RMK AO2 P0004 T00170006
94299KAAT AAT20160129164512401/29/16 16:45:31  5-MIN KAAT 300045Z AUTO 33007KT 5SM -SN BR OVC021 02/01 A2994 4360 92 3800 320/07 RMK AO2 P0004 T00170006
94299KAAT AAT20160129165013101/29/16 16:50:31  5-MIN KAAT 300050Z AUTO 34008KT 5SM -SN BR OVC021 02/01 A2994 4360 92 3800 330/08 RMK AO2 SLP140 P0004 T00170006
94299KAAT AAT20160129165513101/29/16 16:55:31  5-MIN KAAT 300055Z AUTO 00000KT 6SM -SN BR OVC021 02/01 A2994 4360 92 3800 000/00 RMK AO2 SLP141 P0004 T00170006
94299KAAT AAT20160129170013101/29/16 17:00:31  5-MIN KAAT 300100Z AUTO VRB03KT 5SM -SN BR FEW012 OVC021 01/01 A2994 4370 96 3800 VRB/03 RMK AO2 P0001 T00110006
94299KAAT AAT20160129170513101/29/16 17:05:31  5-MIN KAAT 300105Z AUTO VRB03KT 4SM -SN BR SCT012 OVC021 01/00 A2994 4360 92 3800 VRB/03 RMK AO2 P0001 T00110000
94299KAAT AAT20160129171013101/29/16 17:10:31  5-MIN KAAT 300110Z AUTO 02003KT 4SM -SN BR SCT012 OVC018 01/00 A2994 4370 92 3800 360/03 RMK AO2 P0001 T00110000
94299KAAT AAT20160129171512401/29/16 17:15:31  5-MIN KAAT 300115Z AUTO 34004KT 3SM -SN BR OVC014 01/00 A2994 4370 92 3800 320/04 RMK AO2 P0001 T00110000
94299KAAT AAT20160129172012801/29/16 17:20:31  5-MIN KAAT 300120Z AUTO 00000KT 2 1/2SM -SN BR OVC014 01/00 A2994 4370 92 3800 000/00 RMK AO2 P0001 T00110000
94299KAAT AAT20160129172512901/29/16 17:25:31  5-MIN KAAT 300125Z AUTO 16004KT 1 3/4SM -SN BR OVC012 01/01 A2994 4360 100 3700 150/04 RMK AO2 P0002 T00060006
94299KAAT AAT20160129173012801/29/16 17:30:31  5-MIN KAAT 300130Z AUTO 15004KT 1 1/2SM -SN BR OVC012 01/00 A2994 4360 96 3700 130/04 RMK AO2 P0002 T00060000
94299KAAT AAT20160129173512801/29/16 17:35:31  5-MIN KAAT 300135Z AUTO 14004KT 1 1/4SM -SN BR OVC012 01/00 A2993 4370 96 3700 130/04 RMK AO2 P0003 T00060000
94299KAAT AAT20160129174013101/29/16 17:40:31  5-MIN KAAT 300140Z AUTO 16004KT 1SM -SN BR FEW008 OVC012 01/00 A2994 4360 96 3700 150/04 RMK AO2 P0003 T00060000
94299KAAT AAT20160129174512401/29/16 17:45:31  5-MIN KAAT 300145Z AUTO 15004KT 1SM -SN BR VV010 01/01 A2993 4370 100 3700 130/04 RMK AO2 P0004 T00060006
94299KAAT AAT20160129175013101/29/16 17:50:31  5-MIN KAAT 300150Z AUTO 15004KT 1SM -SN BR VV010 00/00 A2994 4370 100 3600 140/04 RMK AO2 SLP143 P0005 T00000000
94299KAAT AAT20160129175513301/29/16 17:55:31  5-MIN KAAT 300155Z AUTO 16004KT 3/4SM -SN BR VV009 00/00 A2994 4360 100 3600 150/04 RMK AO2 SLP144 P0006 T00000000
94299KAAT AAT20160129180012601/29/16 18:00:31  5-MIN KAAT 300200Z AUTO 18003KT 3/4SM -SN BR VV007 00/00 A2995 4360 100 3600 160/03 RMK AO2 P0000 T00000000
94299KAAT AAT20160129180512601/29/16 18:05:31  5-MIN KAAT 300205Z AUTO 17003KT 3/4SM -SN BR VV007 00/00 A2995 4360 100 3600 160/03 RMK AO2 P0001 T00000000
94299KAAT AAT20160129181012601/29/16 18:10:31  5-MIN KAAT 300210Z AUTO 00000KT 3/4SM -SN BR VV007 00/00 A2995 4350 100 3600 000/00 RMK AO2 P0002 T00000000
94299KAAT AAT20160129181512601/29/16 18:15:31  5-MIN KAAT 300215Z AUTO 00000KT 3/4SM -SN BR VV007 00/00 A2995 4360 100 3600 000/00 RMK AO2 P0003 T00000000
94299KAAT AAT20160129182012601/29/16 18:20:31  5-MIN KAAT 300220Z AUTO 00000KT 3/4SM -SN BR VV007 00/00 A2995 4360 100 3600 000/00 RMK AO2 P0004 T00000000
94299KAAT AAT20160129182513401/29/16 18:25:31  5-MIN KAAT 300225Z AUTO 00000KT 3/4SM -SN BR FEW004 OVC008 00/00 A2994 4360 100 3600 000/00 RMK AO2 P0005 T00000000
94299KAAT AAT20160129183012401/29/16 18:30:31  5-MIN KAAT 300230Z AUTO 00000KT 1SM -SN BR VV009 00/00 A2995 4360 100 3600 000/00 RMK AO2 P0006 T00000000
94299KAAT AAT20160129183512401/29/16 18:35:31  5-MIN KAAT 300235Z AUTO 00000KT 1SM -SN BR VV010 00/00 A2994 4360 100 3600 000/00 RMK AO2 P0007 T00000000
94299KAAT AAT20160129184012401/29/16 18:40:31  5-MIN KAAT 300240Z AUTO 00000KT 1SM -SN BR VV009 00/00 A2995 4360 100 3600 000/00 RMK AO2 P0007 T00000000
94299KAAT AAT20160129184512401/29/16 18:45:31  5-MIN KAAT 300245Z AUTO 00000KT 1SM -SN BR VV009 00/00 A2995 4350 100 3600 000/00 RMK AO2 P0008 T00000000
94299KAAT AAT20160129185011401/29/16 18:50:31  5-MIN KAAT 300250Z AUTO 00000KT 1SM -SN BR VV010 00/00 A2995 4350 100 3600 000/00 RMK AO2 P0009
94299KAAT AAT20160129185514201/29/16 18:55:31  5-MIN KAAT 300255Z AUTO 00000KT 1SM -SN BR VV010 01/00 A2996 4350 96 3700 000/00 RMK AO2 SLP151 P0009 60019 T00060000 53004
94299KAAT AAT20160129190012501/29/16 19:00:31  5-MIN KAAT 300300Z AUTO 00000KT 3/4SM -SN BR VV010 01/00 A2996 4350 96 3700 000/00 RMK AO2 P0001 T00060000
94299KAAT AAT20160129190512601/29/16 19:05:31  5-MIN KAAT 300305Z AUTO 00000KT 3/4SM -SN BR VV009 00/00 A2996 4350 100 3600 000/00 RMK AO2 P0002 T00000000
94299KAAT AAT20160129191012601/29/16 19:10:31  5-MIN KAAT 300310Z AUTO 00000KT 3/4SM -SN BR VV010 00/00 A2996 4350 100 3600 000/00 RMK AO2 P0003 T00000000
94299KAAT AAT20160129191512601/29/16 19:15:31  5-MIN KAAT 300315Z AUTO 00000KT 3/4SM -SN BR VV009 01/01 A2995 4360 100 3700 000/00 RMK AO2 P0004 T00060006
94299KAAT AAT20160129192012501/29/16 19:20:31  5-MIN KAAT 300320Z AUTO 00000KT 1/2SM SN FG VV008 01/01 A2995 4350 100 3700 000/00 RMK AO2 P0004 T00060006
94299KAAT AAT20160129192512501/29/16 19:25:31  5-MIN KAAT 300325Z AUTO 00000KT 1/2SM SN FG VV007 00/00 A2995 4360 100 3600 000/00 RMK AO2 P0006 T00000000
94299KAAT AAT20160129193012501/29/16 19:30:31  5-MIN KAAT 300330Z AUTO 00000KT 1/2SM SN FG VV007 00/00 A2995 4360 100 3600 000/00 RMK AO2 P0007 T00000000
94299KAAT AAT20160129193512501/29/16 19:35:31  5-MIN KAAT 300335Z AUTO 00000KT 1/2SM SN FG VV007 00/00 A2995 4360 100 3600 000/00 RMK AO2 P0007 T00000000
94299KAAT AAT20160129194012501/29/16 19:40:31  5-MIN KAAT 300340Z AUTO 00000KT 3/4SM -SN BR VV007 01/00 A2995 4360 96 3700 000/00 RMK AO2 P0008 T00060000
94299KAAT AAT20160129194512601/29/16 19:45:31  5-MIN KAAT 300345Z AUTO 00000KT 3/4SM -SN BR VV007 00/00 A2994 4360 100 3600 000/00 RMK AO2 P0009 T00000000
94299KAAT AAT20160129195013201/29/16 19:50:31  5-MIN KAAT 300350Z AUTO 00000KT 3/4SM -SN BR VV007 01/00 A2994 4370 96 3700 000/00 RMK AO2 SLP143 P0010 T00060000
94299KAAT AAT20160129195513901/29/16 19:55:31  5-MIN KAAT 300355Z AUTO 00000KT 1/2SM SN FG FEW002 OVC007 01/00 A2994 4360 96 3700 000/00 RMK AO2 SLP143 P0011 T00060000
94299KAAT AAT20160129200012401/29/16 20:00:31  5-MIN KAAT 300400Z AUTO 04003KT 1/2SM SN FG VV006 01/00 A2994 4370 96 3700 020/03 RMK AO2 P0001 T00060000
94299KAAT AAT20160129200512501/29/16 20:05:31  5-MIN KAAT 300405Z AUTO 04003KT 1/2SM SN FG VV007 00/00 A2994 4370 100 3600 030/03 RMK AO2 P0002 T00000000
94299KAAT AAT20160129201012501/29/16 20:10:31  5-MIN KAAT 300410Z AUTO 00000KT 1/2SM SN FG VV007 00/00 A2994 4360 100 3600 000/00 RMK AO2 P0003 T00000000
94299KAAT AAT20160129201512501/29/16 20:15:31  5-MIN KAAT 300415Z AUTO 00000KT 1/2SM SN FG VV007 00/00 A2994 4370 100 3600 000/00 RMK AO2 P0004 T00000000
94299KAAT AAT20160129202012501/29/16 20:20:31  5-MIN KAAT 300420Z AUTO 00000KT 1/2SM SN FG VV006 00/00 A2994 4360 100 3600 000/00 RMK AO2 P0005 T00000000
94299KAAT AAT20160129202512501/29/16 20:25:31  5-MIN KAAT 300425Z AUTO 00000KT 1/2SM SN FG VV006 00/00 A2994 4360 100 3600 000/00 RMK AO2 P0006 T00000000
94299KAAT AAT20160129203012501/29/16 20:30:31  5-MIN KAAT 300430Z AUTO 00000KT 1/2SM SN FG VV007 00/00 A2994 4360 100 3600 000/00 RMK AO2 P0007 T00000000
94299KAAT AAT20160129203512501/29/16 20:35:31  5-MIN KAAT 300435Z AUTO 00000KT 1/2SM SN FG VV007 00/00 A2994 4370 100 3600 000/00 RMK AO2 P0008 T00000000
94299KAAT AAT20160129204012501/29/16 20:40:31  5-MIN KAAT 300440Z AUTO 00000KT 1/2SM SN FG VV007 00/00 A2994 4360 100 3600 000/00 RMK AO2 P0009 T00000000
94299KAAT AAT20160129204512601/29/16 20:45:31  5-MIN KAAT 300445Z AUTO 11003KT 3/4SM -SN BR VV008 00/00 A2993 4370 100 3600 090/03 RMK AO2 P0010 T00000000
94299KAAT AAT20160129205013301/29/16 20:50:31  5-MIN KAAT 300450Z AUTO 00000KT 3/4SM -SN BR VV008 00/00 A2992 4380 100 3700 000/00 RMK AO2 SLP140 P0010 T00000000
94299KAAT AAT20160129205513301/29/16 20:55:31  5-MIN KAAT 300455Z AUTO 11003KT 3/4SM -SN BR VV008 00/00 A2992 4380 100 3700 100/03 RMK AO2 SLP138 P0011 T00000000
94299KAAT AAT20160129210012601/29/16 21:00:31  5-MIN KAAT 300500Z AUTO 00000KT 3/4SM -SN BR VV008 00/00 A2992 4380 100 3700 000/00 RMK AO2 P0001 T00000000
94299KAAT AAT20160129210512501/29/16 21:05:31  5-MIN KAAT 300505Z AUTO 00000KT 1/2SM SN FG VV008 00/00 A2993 4380 100 3700 000/00 RMK AO2 P0002 T00000000
94299KAAT AAT20160129211012601/29/16 21:10:31  5-MIN KAAT 300510Z AUTO 00000KT 3/4SM -SN BR VV010 00/00 A2993 4370 100 3600 000/00 RMK AO2 P0003 T00000000
94299KAAT AAT20160129211512401/29/16 21:15:31  5-MIN KAAT 300515Z AUTO 00000KT 1SM -SN BR VV011 00/00 A2993 4370 100 3600 000/00 RMK AO2 P0003 T00000000
94299KAAT AAT20160129212012401/29/16 21:20:31  5-MIN KAAT 300520Z AUTO 00000KT 1SM -SN BR VV011 00/00 A2994 4360 100 3600 000/00 RMK AO2 P0004 T00000000
94299KAAT AAT20160129212513201/29/16 21:25:31  5-MIN KAAT 300525Z AUTO 00000KT 1SM -SN BR FEW003 OVC011 00/00 A2994 4360 100 3600 000/00 RMK AO2 P0004 T00000000
94299KAAT AAT20160129213013201/29/16 21:30:31  5-MIN KAAT 300530Z AUTO 04003KT 1SM -SN BR FEW003 OVC013 00/00 A2993 4380 100 3700 020/03 RMK AO2 P0004 T00000000
94299KAAT AAT20160129213513201/29/16 21:35:31  5-MIN KAAT 300535Z AUTO 03003KT 1SM -SN BR FEW003 OVC013 00/00 A2993 4380 100 3700 020/03 RMK AO2 P0005 T00000000
94299KAAT AAT20160129214013201/29/16 21:40:31  5-MIN KAAT 300540Z AUTO 03004KT 1SM -SN BR FEW003 OVC013 00/00 A2992 4380 100 3700 010/04 RMK AO2 P0005 T00000000
94299KAAT AAT20160129214513201/29/16 21:45:31  5-MIN KAAT 300545Z AUTO 03004KT 1SM -SN BR FEW003 OVC013 00/00 A2992 4380 100 3700 010/04 RMK AO2 P0005 T00000000
94299KAAT AAT20160129215012601/29/16 21:50:31  5-MIN KAAT 300550Z AUTO 03003KT 1 1/4SM -SN BR FEW003 OVC015 00/00 A2992 4380 100 3700 020/03 RMK AO2 P0006
94299KAAT AAT20160129215515501/29/16 21:55:31  5-MIN KAAT 300555Z AUTO 04003KT 1SM -SN BR VV014 00/00 A2992 4380 100 3700 020/03 RMK AO2 SLP136 P0006 60047 T00000000 10022 20000 56012
94299KAAT AAT20160129220012401/29/16 22:00:31  5-MIN KAAT 300600Z AUTO 00000KT 1SM -SN BR VV014 00/00 A2992 4380 100 3700 000/00 RMK AO2 P0000 T00000000
94299KAAT AAT20160129220512401/29/16 22:05:31  5-MIN KAAT 300605Z AUTO 00000KT 1SM -SN BR VV014 00/00 A2993 4380 100 3700 000/00 RMK AO2 P0001 T00000000
94299KAAT AAT20160129221012901/29/16 22:10:31  5-MIN KAAT 300610Z AUTO 01003KT 1 1/4SM -SN BR OVC017 00/00 A2994 4360 100 3600 350/03 RMK AO2 P0001 T00000000
94299KAAT AAT20160129221512901/29/16 22:15:31  5-MIN KAAT 300615Z AUTO 00000KT 1 3/4SM -SN BR OVC019 00/00 A2994 4370 100 3600 000/00 RMK AO2 P0001 T00000000
94299KAAT AAT20160129222013201/29/16 22:20:31  5-MIN KAAT 300620Z AUTO 00000KT 2SM -SN BR BKN019 OVC027 00/00 A2993 4370 100 3600 000/00 RMK AO2 P0001 T00000000
94299KAAT AAT20160129222513201/29/16 22:25:31  5-MIN KAAT 300625Z AUTO 00000KT 2SM -SN BR BKN021 OVC026 00/00 A2993 4370 100 3600 000/00 RMK AO2 P0001 T00000000
94299KAAT AAT20160129223012901/29/16 22:30:31  5-MIN KAAT 300630Z AUTO 00000KT 1 3/4SM -SN BR OVC021 00/00 A2994 4360 100 3600 000/00 RMK AO2 P0001 T00000000
94299KAAT AAT20160129223512901/29/16 22:35:31  5-MIN KAAT 300635Z AUTO 00000KT 1 1/2SM -SN BR OVC021 00/00 A2993 4370 100 3700 000/00 RMK AO2 P0002 T00000000
94299KAAT AAT20160129224013601/29/16 22:40:31  5-MIN KAAT 300640Z AUTO 00000KT 1 1/4SM -SN BR BKN019 OVC026 00/00 A2993 4370 100 3600 000/00 RMK AO2 P0002 T00000000
94299KAAT AAT20160129224513201/29/16 22:45:31  5-MIN KAAT 300645Z AUTO 00000KT 1SM -SN BR BKN017 OVC024 00/00 A2995 4360 100 3600 000/00 RMK AO2 P0002 T00000000
94299KAAT AAT20160129225013901/29/16 22:50:31  5-MIN KAAT 300650Z AUTO 00000KT 1SM -SN BR BKN015 OVC022 00/00 A2994 4360 100 3600 000/00 RMK AO2 SLP140 P0003 T00000000
94299KAAT AAT20160129225513101/29/16 22:55:31  5-MIN KAAT 300655Z AUTO 02003KT 1SM -SN BR VV015 00/00 A2994 4360 100 3600 360/03 RMK AO2 SLP141 P0003 T00000000
94299KAAT AAT20160129230012901/29/16 23:00:31  5-MIN KAAT 300700Z AUTO 04003KT 1 1/4SM -SN BR OVC017 00/00 A2994 4370 100 3600 020/03 RMK AO2 P0000 T00000000
94299KAAT AAT20160129230512901/29/16 23:05:31  5-MIN KAAT 300705Z AUTO 00000KT 1 1/2SM -SN BR OVC019 00/00 A2993 4370 100 3600 000/00 RMK AO2 P0001 T00000000
94299KAAT AAT20160129231012501/29/16 23:10:31  5-MIN KAAT 300710Z AUTO 00000KT 2SM -SN BR OVC021 00/00 A2994 4370 100 3600 000/00 RMK AO2 P0001 T00000000
94299KAAT AAT20160129231512501/29/16 23:15:31  5-MIN KAAT 300715Z AUTO 03003KT 2SM -SN BR OVC021 00/00 A2994 4360 100 3600 010/03 RMK AO2 P0001 T00000000
94299KAAT AAT20160129232012401/29/16 23:20:31  5-MIN KAAT 300720Z AUTO VRB05KT 1 1/2SM -SN BR 00/M01 A2994 4370 96 3600 VRB/05 RMK AO2 P0001 T00001006 $
94299KAAT AAT20160129232512401/29/16 23:25:31  5-MIN KAAT 300725Z AUTO VRB03KT 1 1/2SM -SN BR 00/M01 A2993 4370 96 3600 VRB/03 RMK AO2 P0001 T00001006 $
94299KAAT AAT20160129233012401/29/16 23:30:31  5-MIN KAAT 300730Z AUTO VRB03KT 1 3/4SM -SN BR 00/M01 A2993 4370 96 3600 VRB/03 RMK AO2 P0001 T00001006 $
94299KAAT AAT20160129233512001/29/16 23:35:31  5-MIN KAAT 300735Z AUTO VRB03KT 2SM -SN BR 00/M01 A2992 4380 96 3700 VRB/03 RMK AO2 P0001 T00001006 $
94299KAAT AAT20160129234012401/29/16 23:40:31  5-MIN KAAT 300740Z AUTO 26004KT 2 1/2SM -SN BR 00/M01 A2993 4370 96 3600 240/04 RMK AO2 P0001 T00001006 $
94299KAAT AAT20160129234512001/29/16 23:45:31  5-MIN KAAT 300745Z AUTO 29009KT 4SM -SN BR 00/M02 A2992 4380 88 3700 270/09 RMK AO2 P0001 T00001017 $
94299KAAT AAT20160129235012401/29/16 23:50:31  5-MIN KAAT 300750Z AUTO 26006KT 6SM -SN BR FEW006 OVC031 00/M01 A2992 4380 92 3700 250/06 RMK AO2 P0001 $
94299KAAT AAT20160129235514301/29/16 23:55:31  5-MIN KAAT 300755Z AUTO 26005KT 8SM OVC031 00/M01 A2992 4380 92 3700 250/05 RMK AO2 SNE53 SLP136 P0001 T00001011 400720000 $
94299KAAT AAT20160130000011401/30/16 00:00:31  5-MIN KAAT 300800Z AUTO 27005KT 9SM OVC031 00/M01 A2992 4380 92 3700 260/05 RMK AO2 T00001011 $
94299KAAT AAT20160130000513301/30/16 00:05:31  5-MIN KAAT 300805Z AUTO 27004KT 6SM -SN BR OVC031 00/M01 A2992 4380 92 3700 260/04 RMK AO2 SNB02 P0000 T00001011 $
94299KAAT AAT20160130001013301/30/16 00:10:31  5-MIN KAAT 300810Z AUTO VRB03KT 5SM -SN BR OVC031 00/M01 A2991 4390 92 3700 VRB/03 RMK AO2 SNB02 P0000 T00001011 $
94299KAAT AAT20160130001513301/30/16 00:15:31  5-MIN KAAT 300815Z AUTO 20004KT 5SM -SN BR OVC031 00/M01 A2991 4390 92 3700 190/04 RMK AO2 SNB02 P0000 T00001011 $
94299KAAT AAT20160130002013001/30/16 00:20:31  5-MIN KAAT 300820Z AUTO 21004KT 7SM -SN OVC031 00/M01 A2991 4390 92 3700 190/04 RMK AO2 SNB02 P0000 T00001011 $
94299KAAT AAT20160130002513301/30/16 00:25:31  5-MIN KAAT 300825Z AUTO 23005KT 6SM -SN BR OVC031 00/M01 A2991 4390 92 3700 210/05 RMK AO2 SNB02 P0000 T00001011 $
94299KAAT AAT20160130003013301/30/16 00:30:31  5-MIN KAAT 300830Z AUTO 24005KT 6SM -SN BR OVC033 00/M01 A2991 4390 92 3700 230/05 RMK AO2 SNB02 P0000 T00001011 $
94299KAAT AAT20160130003514701/30/16 00:35:31  5-MIN KAAT 300835Z AUTO 26004KT 6SM -SN BR FEW030 BKN035 OVC042 00/M01 A2991 4390 92 3700 240/04 RMK AO2 SNB02 P0000 T00001011 $
94299KAAT AAT20160130004014401/30/16 00:40:31  5-MIN KAAT 300840Z AUTO 26004KT 8SM -SN FEW030 BKN037 OVC065 00/M01 A2991 4390 92 3700 250/04 RMK AO2 SNB02 P0000 T00001011 $
94299KAAT AAT20160130004514401/30/16 00:45:31  5-MIN KAAT 300845Z AUTO 26003KT 9SM SCT028 BKN040 OVC070 M01/M01 A2991 4390 96 3600 240/03 RMK AO2 SNB02E41 P0000 T10061011 $
94299KAAT AAT20160130005016401/30/16 00:50:31  5-MIN KAAT 300850Z AUTO 25003KT 10SM SCT025 BKN031 OVC055 M01/M01 A2991 4390 96 3600 240/03 RMK AO2 SNB02E41 SLP135 P0000 60004 T10061011 56012 $
94299KAAT AAT20160130005516401/30/16 00:55:31  5-MIN KAAT 300855Z AUTO 00000KT 10SM FEW013 BKN025 OVC055 M01/M01 A2991 4390 96 3600 000/00 RMK AO2 SNB02E41 SLP134 P0000 60004 T10061011 58002 $
94299KAAT AAT20160130010013001/30/16 01:00:31  5-MIN KAAT 300900Z AUTO 00000KT 10SM SCT013 BKN025 OVC070 M01/M01 A2991 4390 96 3600 000/00 RMK AO2 T10061011 $
94299KAAT AAT20160130010513001/30/16 01:05:31  5-MIN KAAT 300905Z AUTO 00000KT 10SM BKN013 BKN025 OVC055 M01/M01 A2991 4390 96 3600 000/00 RMK AO2 T10061011 $
94299KAAT AAT20160130011012301/30/16 01:10:31  5-MIN KAAT 300910Z AUTO 00000KT 10SM BKN013 OVC025 M01/M01 A2990 4400 96 3600 000/00 RMK AO2 T10061011 $
94299KAAT AAT20160130011512301/30/16 01:15:31  5-MIN KAAT 300915Z AUTO 01003KT 10SM BKN013 OVC025 M01/M01 A2990 4400 96 3600 360/03 RMK AO2 T10061011 $
94299KAAT AAT20160130012012201/30/16 01:20:31  5-MIN KAAT 300920Z AUTO 00000KT 8SM BKN013 OVC022 M01/M01 A2990 4400 96 3600 000/00 RMK AO2 T10061011 $
94299KAAT AAT20160130012512201/30/16 01:25:31  5-MIN KAAT 300925Z AUTO 00000KT 7SM BKN015 OVC022 M01/M01 A2991 4390 96 3600 000/00 RMK AO2 T10061011 $
94299KAAT AAT20160130013011501/30/16 01:30:31  5-MIN KAAT 300930Z AUTO 00000KT 7SM OVC015 M01/M01 A2990 4400 96 3600 000/00 RMK AO2 T10061011 $
94299KAAT AAT20160130013512901/30/16 01:35:31  5-MIN KAAT 300935Z AUTO 00000KT 8SM FEW012 BKN017 OVC100 M01/M01 A2990 4400 96 3600 000/00 RMK AO2 T10061011 $
94299KAAT AAT20160130014012901/30/16 01:40:31  5-MIN KAAT 300940Z AUTO 00000KT 9SM FEW012 BKN017 OVC100 M01/M01 A2991 4400 96 3600 000/00 RMK AO2 T10061011 $
94299KAAT AAT20160130014512201/30/16 01:45:31  5-MIN KAAT 300945Z AUTO 00000KT 9SM SCT017 OVC100 M01/M02 A2991 4390 96 3500 000/00 RMK AO2 T10111017 $
94299KAAT AAT20160130015012901/30/16 01:50:31  5-MIN KAAT 300950Z AUTO 00000KT 9SM FEW017 OVC095 M01/M02 A2991 4390 96 3500 000/00 RMK AO2 SLP132 T10111017 $
94299KAAT AAT20160130015513201/30/16 01:55:31  5-MIN KAAT 300955Z AUTO 01003KT 6SM BR FEW017 OVC095 M01/M02 A2991 4390 92 3500 360/03 RMK AO2 SLP134 T10111022 $
94299KAAT AAT20160130020011801/30/16 02:00:31  5-MIN KAAT 301000Z AUTO 03003KT 3SM BR OVC095 M02/M02 A2990 4400 96 3500 010/03 RMK AO2 T10171022 $
94299KAAT AAT20160130020511801/30/16 02:05:31  5-MIN KAAT 301005Z AUTO 00000KT 3SM BR OVC095 M01/M02 A2991 4400 96 3500 000/00 RMK AO2 T10111017 $
94299KAAT AAT20160130021012501/30/16 02:10:31  5-MIN KAAT 301010Z AUTO 02003KT 4SM BR FEW015 OVC095 M01/M02 A2991 4390 96 3500 010/03 RMK AO2 T10111017 $
94299KAAT AAT20160130021512501/30/16 02:15:31  5-MIN KAAT 301015Z AUTO 00000KT 4SM BR SCT015 OVC095 M01/M02 A2991 4390 96 3500 000/00 RMK AO2 T10111017 $
94299KAAT AAT20160130022012501/30/16 02:20:31  5-MIN KAAT 301020Z AUTO 00000KT 4SM BR SCT017 OVC095 M01/M02 A2991 4390 96 3500 000/00 RMK AO2 T10111017 $
94299KAAT AAT20160130022512501/30/16 02:25:31  5-MIN KAAT 301025Z AUTO 00000KT 4SM BR SCT017 OVC100 M01/M02 A2991 4390 96 3500 000/00 RMK AO2 T10111017 $
94299KAAT AAT20160130023013201/30/16 02:30:31  5-MIN KAAT 301030Z AUTO 00000KT 5SM BR SCT016 SCT060 OVC100 M01/M02 A2991 4390 96 3500 000/00 RMK AO2 T10111017 $
94299KAAT AAT20160130023513301/30/16 02:35:31  5-MIN KAAT 301035Z AUTO 00000KT 6SM BR SCT016 BKN060 OVC100 M02/M02 A2991 4390 100 3500 000/00 RMK AO2 T10171017 $
94299KAAT AAT20160130024013301/30/16 02:40:31  5-MIN KAAT 301040Z AUTO 00000KT 4SM BR FEW016 SCT060 OVC100 M02/M02 A2991 4390 100 3400 000/00 RMK AO2 T10221022 $
94299KAAT AAT20160130024513201/30/16 02:45:31  5-MIN KAAT 301045Z AUTO 16003KT 4SM BR FEW018 SCT060 OVC100 M02/M03 A2991 4390 96 3400 140/03 RMK AO2 T10221028 $
94299KAAT AAT20160130025014001/30/16 02:50:31  5-MIN KAAT 301050Z AUTO 13003KT 5SM BR SCT018 BKN060 OVC100 M02/M02 A2991 4390 100 3400 120/03 RMK AO2 SLP138 T10221022 $
94299KAAT AAT20160130025513901/30/16 02:55:31  5-MIN KAAT 301055Z AUTO 14004KT 5SM BR BKN018 BKN060 OVC100 M02/M02 A2992 4390 96 3500 130/04 RMK AO2 SLP137 T10171022 $
94299KAAT AAT20160130030013201/30/16 03:00:31  5-MIN KAAT 301100Z AUTO 16003KT 6SM BR BKN018 BKN055 OVC100 M02/M02 A2992 4380 96 3500 150/03 RMK AO2 T10171022 $
94299KAAT AAT20160130030513201/30/16 03:05:31  5-MIN KAAT 301105Z AUTO 16003KT 6SM BR BKN018 BKN055 OVC100 M02/M02 A2992 4380 96 3500 150/03 RMK AO2 T10171022 $
94299KAAT AAT20160130031012201/30/16 03:10:31  5-MIN KAAT 301110Z AUTO 18003KT 7SM BKN018 OVC055 M02/M02 A2992 4380 96 3500 170/03 RMK AO2 T10171022 $
94299KAAT AAT20160130031511501/30/16 03:15:31  5-MIN KAAT 301115Z AUTO 18003KT 7SM OVC018 M02/M02 A2992 4380 96 3500 160/03 RMK AO2 T10171022 $
94299KAAT AAT20160130032012301/30/16 03:20:31  5-MIN KAAT 301120Z AUTO 19004KT 8SM BKN018 OVC060 M02/M02 A2992 4390 100 3500 180/04 RMK AO2 T10171017 $
94299KAAT AAT20160130032511501/30/16 03:25:31  5-MIN KAAT 301125Z AUTO 22003KT 9SM OVC018 M02/M02 A2992 4380 96 3500 200/03 RMK AO2 T10171022 $
94299KAAT AAT20160130033012301/30/16 03:30:31  5-MIN KAAT 301130Z AUTO 00000KT 9SM BKN018 OVC060 M02/M02 A2991 4390 100 3400 000/00 RMK AO2 T10221022 $
94299KAAT AAT20160130033512201/30/16 03:35:31  5-MIN KAAT 301135Z AUTO 00000KT 9SM BKN018 OVC065 M02/M03 A2991 4390 96 3400 000/00 RMK AO2 T10221028 $
94299KAAT AAT20160130034011601/30/16 03:40:31  5-MIN KAAT 301140Z AUTO 00000KT 9SM OVC018 M03/M03 A2991 4390 100 3300 000/00 RMK AO2 T10281028 $
94299KAAT AAT20160130034512201/30/16 03:45:31  5-MIN KAAT 301145Z AUTO 00000KT 8SM BKN018 OVC065 M03/M03 A2991 4390 96 3300 000/00 RMK AO2 T10281033 $
94299KAAT AAT20160130035016001/30/16 03:50:31  5-MIN KAAT 301150Z AUTO 00000KT 7SM BKN018 OVC065 M03/M03 A2991 4390 100 3300 000/00 RMK AO2 SLP145 60004 70080 T10331033 10000 21033 58002 $
94299KAAT AAT20160130035516301/30/16 03:55:31  5-MIN KAAT 301155Z AUTO 33003KT 6SM BR BKN016 OVC065 M03/M03 A2991 4390 100 3300 310/03 RMK AO2 SLP144 60004 70080 T10331033 10000 21033 58001 $
94299KAAT AAT20160130040012501/30/16 04:00:31  5-MIN KAAT 301200Z AUTO 34004KT 5SM BR BKN016 BKN065 M03/M04 A2991 4400 96 3300 330/04 RMK AO2 T10331039 $
94299KAAT AAT20160130040512501/30/16 04:05:31  5-MIN KAAT 301205Z AUTO 02003KT 5SM BR SCT016 BKN065 M03/M04 A2990 4400 96 3300 360/03 RMK AO2 T10331039 $
94299KAAT AAT20160130041012501/30/16 04:10:31  5-MIN KAAT 301210Z AUTO 02003KT 4SM BR SCT016 BKN060 M03/M04 A2990 4400 92 3300 010/03 RMK AO2 T10331044 $
94299KAAT AAT20160130041512501/30/16 04:15:31  5-MIN KAAT 301215Z AUTO 03003KT 3SM BR FEW016 BKN060 M04/M04 A2990 4400 96 3200 010/03 RMK AO2 T10391044 $
94299KAAT AAT20160130042012501/30/16 04:20:31  5-MIN KAAT 301220Z AUTO 02003KT 2SM BR FEW015 SCT060 M04/M04 A2990 4400 96 3200 010/03 RMK AO2 T10391044 $
94299KAAT AAT20160130042512201/30/16 04:25:31  5-MIN KAAT 301225Z AUTO 00000KT 1 1/2SM BR SCT060 M04/M04 A2991 4390 96 3200 000/00 RMK AO2 T10391044 $
94299KAAT AAT20160130043011801/30/16 04:30:31  5-MIN KAAT 301230Z AUTO 00000KT 1SM BR SCT060 M03/M04 A2991 4390 96 3300 000/00 RMK AO2 T10331039 $
94299KAAT AAT20160130043512001/30/16 04:35:31  5-MIN KAAT 301235Z AUTO 00000KT 3/4SM BR BKN055 M04/M05 A2991 4390 96 3100 000/00 RMK AO2 T10441050 $
94299KAAT AAT20160130044013001/30/16 04:40:31  5-MIN KAAT 301240Z AUTO 00000KT 1/2SM FZFG BKN050 BKN055 M06/M06 A2991 4390 100 3000 000/00 RMK AO2 T10561056 $
94299KAAT AAT20160130044513001/30/16 04:45:31  5-MIN KAAT 301245Z AUTO 00000KT 1/4SM FZFG BKN047 BKN055 M06/M06 A2992 4380 100 3000 000/00 RMK AO2 T10561056 $
94299KAAT AAT20160130045013701/30/16 04:50:31  5-MIN KAAT 301250Z AUTO 00000KT 1/4SM FZFG BKN047 BKN055 M06/M06 A2992 4380 100 3000 000/00 RMK AO2 SLP151 T10561056 $
94299KAAT AAT20160130045514301/30/16 04:55:31  5-MIN KAAT 301255Z AUTO 18003KT 1/4SM FZFG FEW005 BKN047 OVC055 M05/M06 A2991 4390 96 3000 170/03 RMK AO2 SLP150 T10501056 $
94299KAAT AAT20160130050012901/30/16 05:00:31  5-MIN KAAT 301300Z AUTO 18003KT 1/2SM FZFG SCT003 OVC047 M05/M06 A2992 4390 96 3000 170/03 RMK AO2 T10501056 $
94299KAAT AAT20160130050512901/30/16 05:05:31  5-MIN KAAT 301305Z AUTO 00000KT 1/2SM FZFG BKN003 OVC045 M04/M06 A2992 4390 92 3100 000/00 RMK AO2 T10441056 $
94299KAAT AAT20160130051012901/30/16 05:10:31  5-MIN KAAT 301310Z AUTO 00000KT 1/2SM FZFG BKN003 OVC045 M04/M05 A2992 4380 96 3100 000/00 RMK AO2 T10441050 $
94299KAAT AAT20160130051513001/30/16 05:15:31  5-MIN KAAT 301315Z AUTO 00000KT 1/2SM FZFG SCT005 OVC045 M04/M04 A2992 4380 100 3100 000/00 RMK AO2 T10441044 $
94299KAAT AAT20160130052013001/30/16 05:20:31  5-MIN KAAT 301320Z AUTO 00000KT 1/4SM FZFG BKN003 OVC045 M04/M04 A2992 4380 100 3100 000/00 RMK AO2 T10441044 $
94299KAAT AAT20160130052513001/30/16 05:25:31  5-MIN KAAT 301325Z AUTO 00000KT 1/4SM FZFG BKN003 OVC045 M04/M04 A2992 4380 100 3100 000/00 RMK AO2 T10441044 $
94299KAAT AAT20160130053012901/30/16 05:30:31  5-MIN KAAT 301330Z AUTO 00000KT 1/4SM FZFG BKN003 OVC045 M04/M05 A2992 4380 96 3100 000/00 RMK AO2 T10441050 $
94299KAAT AAT20160130053512901/30/16 05:35:31  5-MIN KAAT 301335Z AUTO 00000KT 1/4SM FZFG BKN003 OVC046 M04/M05 A2992 4380 92 3200 000/00 RMK AO2 T10391050 $
94299KAAT AAT20160130054012101/30/16 05:40:31  5-MIN KAAT 301340Z AUTO 00000KT 1/4SM FZFG VV002 M04/M04 A2992 4380 96 3200 000/00 RMK AO2 T10391044 $
94299KAAT AAT20160130054512101/30/16 05:45:31  5-MIN KAAT 301345Z AUTO 00000KT 1/4SM FZFG VV002 M04/M04 A2992 4380 96 3200 000/00 RMK AO2 T10391044 $
94299KAAT AAT20160130055013601/30/16 05:50:31  5-MIN KAAT 301350Z AUTO 00000KT 1/4SM FZFG BKN002 OVC020 M04/M04 A2992 4380 96 3200 000/00 RMK AO2 SLP152 T10391044 $
94299KAAT AAT20160130055513701/30/16 05:55:31  5-MIN KAAT 301355Z AUTO 00000KT 1/4SM FZFG BKN002 OVC020 M04/M04 A2992 4380 100 3100 000/00 RMK AO2 SLP154 T10441044 $
94299KAAT AAT20160130060012101/30/16 06:00:31  5-MIN KAAT 301400Z AUTO 00000KT 1/4SM FZFG VV001 M05/M06 A2992 4380 96 3000 000/00 RMK AO2 T10501056 $
94299KAAT AAT20160130060512201/30/16 06:05:31  5-MIN KAAT 301405Z AUTO 00000KT 1/4SM FZFG VV001 M06/M06 A2992 4380 100 3000 000/00 RMK AO2 T10561056 $
94299KAAT AAT20160130061013601/30/16 06:10:31  5-MIN KAAT 301410Z AUTO 00000KT 1/4SM FZFG BKN002 BKN020 OVC045 M06/M07 A2993 4370 96 2900 000/00 RMK AO2 T10611067 $
94299KAAT AAT20160130061513701/30/16 06:15:31  5-MIN KAAT 301415Z AUTO 00000KT 1/4SM FZFG BKN002 BKN020 OVC045 M07/M07 A2993 4370 100 2800 000/00 RMK AO2 T10671067 $
94299KAAT AAT20160130062013001/30/16 06:20:31  5-MIN KAAT 301420Z AUTO 00000KT 1/4SM FZFG BKN001 OVC027 M07/M07 A2993 4370 100 2800 000/00 RMK AO2 T10671067 $
94299KAAT AAT20160130062513001/30/16 06:25:31  5-MIN KAAT 301425Z AUTO 00000KT 1/4SM FZFG BKN001 OVC047 M07/M07 A2993 4370 100 2800 000/00 RMK AO2 T10671067 $
94299KAAT AAT20160130063013001/30/16 06:30:31  5-MIN KAAT 301430Z AUTO 00000KT 1/4SM FZFG BKN001 OVC047 M07/M07 A2993 4370 100 2800 000/00 RMK AO2 T10671067 $
94299KAAT AAT20160130063512901/30/16 06:35:31  5-MIN KAAT 301435Z AUTO 00000KT 1/4SM FZFG BKN001 OVC047 M06/M07 A2993 4370 96 2900 000/00 RMK AO2 T10611067 $
94299KAAT AAT20160130064012901/30/16 06:40:31  5-MIN KAAT 301440Z AUTO 00000KT 1/4SM FZFG BKN001 OVC045 M06/M07 A2994 4370 96 2900 000/00 RMK AO2 T10611067 $
94299KAAT AAT20160130064512901/30/16 06:45:31  5-MIN KAAT 301445Z AUTO 00000KT 1/4SM FZFG SCT004 OVC045 M06/M07 A2994 4360 96 2900 000/00 RMK AO2 T10611067 $
94299KAAT AAT20160130065014201/30/16 06:50:31  5-MIN KAAT 301450Z AUTO 00000KT 1/4SM FZFG SCT016 OVC045 M06/M07 A2994 4370 96 2900 000/00 RMK AO2 SLP161 T10611067 58001 $
94299KAAT AAT20160130065514201/30/16 06:55:31  5-MIN KAAT 301455Z AUTO 00000KT 1/2SM FZFG SCT027 OVC045 M06/M07 A2994 4360 96 2900 000/00 RMK AO2 SLP162 T10611067 53009 $
94299KAAT AAT20160130070012201/30/16 07:00:31  5-MIN KAAT 301500Z AUTO 00000KT 1/2SM FZFG OVC042 M06/M06 A2994 4360 96 3000 000/00 RMK AO2 T10561061 $
94299KAAT AAT20160130070512701/30/16 07:05:31  5-MIN KAAT 301505Z AUTO 00000KT 3/4SM BR FEW001 OVC042 M06/M06 A2994 4360 96 3000 000/00 RMK AO2 T10561061 $
94299KAAT AAT20160130071012501/30/16 07:10:31  5-MIN KAAT 301510Z AUTO 00000KT 2SM BR SCT001 OVC042 M06/M06 A2994 4360 96 2900 000/00 RMK AO2 T10561061 $
94299KAAT AAT20160130071512501/30/16 07:15:31  5-MIN KAAT 301515Z AUTO 00000KT 4SM BR SCT001 OVC043 M06/M06 A2994 4360 96 2900 000/00 RMK AO2 T10561061 $
94299KAAT AAT20160130072012501/30/16 07:20:31  5-MIN KAAT 301520Z AUTO 00000KT 4SM BR SCT001 OVC043 M06/M06 A2994 4360 96 2900 000/00 RMK AO2 T10561061 $
94299KAAT AAT20160130072513201/30/16 07:25:31  5-MIN KAAT 301525Z AUTO 00000KT 3SM BR FEW001 SCT020 OVC041 M06/M06 A2994 4360 96 2900 000/00 RMK AO2 T10561061 $
94299KAAT AAT20160130073013601/30/16 07:30:31  5-MIN KAAT 301530Z AUTO 00000KT 1 1/4SM BR FEW001 BKN040 OVC048 M06/M06 A2995 4360 96 2900 000/00 RMK AO2 T10561061 $
94299KAAT AAT20160130073513601/30/16 07:35:31  5-MIN KAAT 301535Z AUTO 00000KT 1 1/4SM BR FEW001 BKN032 OVC046 M06/M06 A2995 4360 96 2900 000/00 RMK AO2 T10561061 $
94299KAAT AAT20160130074013601/30/16 07:40:31  5-MIN KAAT 301540Z AUTO 00000KT 2 1/2SM BR FEW001 BKN037 OVC049 M06/M06 A2995 4350 96 2900 000/00 RMK AO2 T10561061 $
94299KAAT AAT20160130074513201/30/16 07:45:31  5-MIN KAAT 301545Z AUTO 00000KT 3SM BR FEW020 SCT041 OVC049 M06/M06 A2995 4350 96 2900 000/00 RMK AO2 T10561061 $
94299KAAT AAT20160130075013901/30/16 07:50:31  5-MIN KAAT 301550Z AUTO 00000KT 3SM BR FEW034 BKN047 OVC095 M06/M06 A2995 4350 96 2900 000/00 RMK AO2 SLP165 T10561061 $
94299KAAT AAT20160130075513901/30/16 07:55:31  5-MIN KAAT 301555Z AUTO 00000KT 4SM BR FEW028 BKN047 OVC095 M05/M06 A2996 4350 96 3000 000/00 RMK AO2 SLP166 T10501056 $
94299KAAT AAT20160130080012501/30/16 08:00:31  5-MIN KAAT 301600Z AUTO 00000KT 4SM BR BKN047 OVC095 M05/M06 A2996 4350 96 3000 000/00 RMK AO2 T10501056 $
94299KAAT AAT20160130080512501/30/16 08:05:31  5-MIN KAAT 301605Z AUTO 00000KT 4SM BR BKN047 OVC095 M05/M06 A2995 4350 96 3000 000/00 RMK AO2 T10501056 $
94299KAAT AAT20160130081011801/30/16 08:10:31  5-MIN KAAT 301610Z AUTO 00000KT 4SM BR OVC047 M05/M06 A2996 4350 92 3000 000/00 RMK AO2 T10501061 $
94299KAAT AAT20160130081511801/30/16 08:15:31  5-MIN KAAT 301615Z AUTO 17004KT 4SM BR BKN047 M05/M06 A2996 4350 96 3000 150/04 RMK AO2 T10501056 $
94299KAAT AAT20160130082012501/30/16 08:20:31  5-MIN KAAT 301620Z AUTO 17004KT 4SM BR BKN045 OVC100 M05/M06 A2996 4350 96 3000 150/04 RMK AO2 T10501056 $
94299KAAT AAT20160130082513601/30/16 08:25:31  5-MIN KAAT 301625Z AUTO 18003KT 2 1/2SM BR FEW005 BKN045 OVC100 M05/M06 A2996 4350 96 3000 170/03 RMK AO2 T10501056 $
94299KAAT AAT20160130083013001/30/16 08:30:31  5-MIN KAAT 301630Z AUTO 00000KT 2 1/2SM BR SCT005 OVC045 M05/M05 A2996 4350 100 3000 000/00 RMK AO2 T10501050 $
94299KAAT AAT20160130083513201/30/16 08:35:31  5-MIN KAAT 301635Z AUTO 00000KT 4SM BR SCT003 BKN009 OVC045 M05/M06 A2996 4350 96 3000 000/00 RMK AO2 T10501056 $
94299KAAT AAT20160130084012601/30/16 08:40:31  5-MIN KAAT 301640Z AUTO 00000KT 5SM BR BKN003 OVC045 M05/M05 A2996 4350 100 3000 000/00 RMK AO2 T10501050 $
94299KAAT AAT20160130084512501/30/16 08:45:31  5-MIN KAAT 301645Z AUTO 00000KT 5SM BR BKN003 OVC045 M04/M05 A2996 4350 96 3100 000/00 RMK AO2 T10441050 $
94299KAAT AAT20160130085013301/30/16 08:50:31  5-MIN KAAT 301650Z AUTO 00000KT 5SM BR BKN003 OVC021 M04/M04 A2996 4350 100 3100 000/00 RMK AO2 SLP166 T10441044 $
94299KAAT AAT20160130085512601/30/16 08:55:31  5-MIN KAAT 301655Z AUTO 00000KT 4SM BR OVC003 M04/M04 A2995 4350 100 3100 000/00 RMK AO2 SLP164 T10391039 $
94299KAAT AAT20160130090012201/30/16 09:00:31  5-MIN KAAT 301700Z AUTO 00000KT 2 1/2SM BR OVC003 M03/M04 A2996 4350 96 3200 000/00 RMK AO2 T10331039 $
94299KAAT AAT20160130090513001/30/16 09:05:31  5-MIN KAAT 301705Z AUTO 17003KT 2 1/2SM BR BKN003 OVC047 M03/M03 A2996 4350 100 3200 150/03 RMK AO2 T10331033 $
94299KAAT AAT20160130091012601/30/16 09:10:31  5-MIN KAAT 301710Z AUTO 00000KT 3SM BR BKN003 OVC047 M04/M04 A2996 4350 100 3100 000/00 RMK AO2 T10391039 $
94299KAAT AAT20160130091512601/30/16 09:15:31  5-MIN KAAT 301715Z AUTO 00000KT 3SM BR SCT003 OVC049 M04/M04 A2996 4340 100 3100 000/00 RMK AO2 T10391039 $
94299KAAT AAT20160130092012501/30/16 09:20:31  5-MIN KAAT 301720Z AUTO 00000KT 2SM BR SCT003 OVC049 M03/M04 A2996 4340 96 3200 000/00 RMK AO2 T10331039 $
94299KAAT AAT20160130092512501/30/16 09:25:31  5-MIN KAAT 301725Z AUTO 00000KT 2SM BR FEW003 OVC049 M03/M04 A2997 4340 96 3200 000/00 RMK AO2 T10331039 $
94299KAAT AAT20160130093012501/30/16 09:30:31  5-MIN KAAT 301730Z AUTO 00000KT 2SM BR FEW003 OVC050 M03/M04 A2997 4340 96 3200 000/00 RMK AO2 T10331039 $
94299KAAT AAT20160130093513001/30/16 09:35:31  5-MIN KAAT 301735Z AUTO 00000KT 2 1/2SM BR SCT001 OVC050 M03/M03 A2997 4340 100 3200 000/00 RMK AO2 T10331033 $
94299KAAT AAT20160130094012901/30/16 09:40:31  5-MIN KAAT 301740Z AUTO 00000KT 2 1/2SM BR SCT001 OVC050 M03/M04 A2997 4340 96 3200 000/00 RMK AO2 T10331039 $
94299KAAT AAT20160130094512901/30/16 09:45:31  5-MIN KAAT 301745Z AUTO 00000KT 1 1/4SM BR SCT001 OVC050 M03/M04 A2997 4340 96 3200 000/00 RMK AO2 T10331039 $
94299KAAT AAT20160130095011801/30/16 09:50:31  5-MIN KAAT 301750Z AUTO 00000KT 3/4SM BR BKN001 OVC050 M03/M03 A2997 4340 100 3200 000/00 RMK AO2 $
94299KAAT AAT20160130095515501/30/16 09:55:31  5-MIN KAAT 301755Z AUTO 00000KT 1/2SM FZFG BKN002 OVC050 M03/M03 A2996 4340 100 3200 000/00 RMK AO2 SLP167 T10331033 11033 21067 53002 $
94299KAAT AAT20160130100011801/30/16 10:00:31  5-MIN KAAT 301800Z AUTO 07003KT 1SM BR OVC002 M03/M03 A2996 4340 96 3300 050/03 RMK AO2 T10281033 $
94299KAAT AAT20160130100511801/30/16 10:05:31  5-MIN KAAT 301805Z AUTO 00000KT 1SM BR OVC002 M02/M03 A2997 4340 96 3300 000/00 RMK AO2 T10221028 $
94299KAAT AAT20160130101011801/30/16 10:10:31  5-MIN KAAT 301810Z AUTO 02003KT 1SM BR OVC002 M02/M03 A2997 4340 92 3400 010/03 RMK AO2 T10171028 $
94299KAAT AAT20160130101512201/30/16 10:15:31  5-MIN KAAT 301815Z AUTO 00000KT 1 1/4SM BR OVC002 M02/M03 A2997 4340 96 3300 000/00 RMK AO2 T10221028 $
94299KAAT AAT20160130102012001/30/16 10:20:31  5-MIN KAAT 301820Z AUTO 00000KT 3/4SM BR OVC002 M02/M03 A2997 4340 96 3300 000/00 RMK AO2 T10221028 $
94299KAAT AAT20160130102512201/30/16 10:25:31  5-MIN KAAT 301825Z AUTO 00000KT 1/2SM FZFG OVC002 M02/M03 A2997 4340 96 3300 000/00 RMK AO2 T10221028 $
94299KAAT AAT20160130103012301/30/16 10:30:31  5-MIN KAAT 301830Z AUTO 00000KT 1/2SM FZFG OVC002 M02/M02 A2997 4340 100 3300 000/00 RMK AO2 T10221022 $
94299KAAT AAT20160130103512301/30/16 10:35:31  5-MIN KAAT 301835Z AUTO 00000KT 1/2SM FZFG OVC002 M02/M02 A2997 4340 100 3300 000/00 RMK AO2 T10221022 $
94299KAAT AAT20160130104012301/30/16 10:40:31  5-MIN KAAT 301840Z AUTO 00000KT 1/2SM FZFG OVC002 M02/M02 A2997 4340 100 3300 000/00 RMK AO2 T10221022 $
94299KAAT AAT20160130104512201/30/16 10:45:31  5-MIN KAAT 301845Z AUTO 00000KT 1/4SM FZFG VV002 M02/M02 A2997 4340 100 3300 000/00 RMK AO2 T10221022 $
94299KAAT AAT20160130105012901/30/16 10:50:31  5-MIN KAAT 301850Z AUTO 17003KT 1/4SM FZFG VV002 M02/M02 A2997 4330 100 3300 160/03 RMK AO2 SLP168 T10221022 $
94299KAAT AAT20160130105512901/30/16 10:55:31  5-MIN KAAT 301855Z AUTO 18003KT 1/4SM FZFG VV002 M02/M02 A2997 4330 100 3300 160/03 RMK AO2 SLP168 T10221022 $
94299KAAT AAT20160130110012901/30/16 11:00:31  5-MIN KAAT 301900Z AUTO 15003KT 1/4SM FZFG BKN002 OVC050 M02/M03 A2997 4330 96 3300 130/03 RMK AO2 T10221028 $
94299KAAT AAT20160130110513701/30/16 11:05:31  5-MIN KAAT 301905Z AUTO 15003KT 1/4SM FZFG FEW002 BKN007 OVC050 M02/M02 A2997 4330 100 3300 130/03 RMK AO2 T10221022 $
94299KAAT AAT20160130111013001/30/16 11:10:31  5-MIN KAAT 301910Z AUTO 00000KT 1/2SM FZFG BKN009 OVC055 M02/M02 A2997 4330 100 3300 000/00 RMK AO2 T10221022 $
94299KAAT AAT20160130111512701/30/16 11:15:31  5-MIN KAAT 301915Z AUTO 00000KT 3/4SM BR SCT006 OVC055 M02/M02 A2997 4330 96 3400 000/00 RMK AO2 T10171022 $
94299KAAT AAT20160130112013701/30/16 11:20:31  5-MIN KAAT 301920Z AUTO 00000KT 1 1/2SM BR SCT018 BKN050 OVC060 M02/M02 A2997 4340 100 3400 000/00 RMK AO2 T10171017 $
94299KAAT AAT20160130112513201/30/16 11:25:31  5-MIN KAAT 301925Z AUTO 15003KT 3SM BR FEW024 SCT049 OVC055 M02/M02 A2997 4340 96 3400 130/03 RMK AO2 T10171022 $
94299KAAT AAT20160130113012601/30/16 11:30:31  5-MIN KAAT 301930Z AUTO 17003KT 4SM BR FEW046 OVC055 M02/M02 A2997 4340 100 3300 150/03 RMK AO2 T10221022 $
94299KAAT AAT20160130113511901/30/16 11:35:31  5-MIN KAAT 301935Z AUTO 16004KT 5SM BR BKN050 M02/M02 A2997 4340 100 3400 140/04 RMK AO2 T10171017 $
94299KAAT AAT20160130114012201/30/16 11:40:31  5-MIN KAAT 301940Z AUTO 16003KT 8SM BKN055 BKN070 M01/M02 A2997 4340 96 3500 140/03 RMK AO2 T10111017 $
94299KAAT AAT20160130114513001/30/16 11:45:31  5-MIN KAAT 301945Z AUTO 13003KT 10SM FEW035 BKN055 OVC070 M01/M02 A2997 4340 96 3500 120/03 RMK AO2 T10111017 $
94299KAAT AAT20160130115013701/30/16 11:50:31  5-MIN KAAT 301950Z AUTO 09003KT 10SM SCT035 BKN055 OVC070 M01/M02 A2997 4340 96 3500 080/03 RMK AO2 SLP165 T10111017 $
94299KAAT AAT20160130115513701/30/16 11:55:31  5-MIN KAAT 301955Z AUTO 08003KT 10SM BKN035 BKN048 OVC070 M01/M02 A2997 4340 92 3500 060/03 RMK AO2 SLP163 T10061017 $
94299KAAT AAT20160130120014301/30/16 12:00:31  5-MIN KAAT 302000Z AUTO 00000KT 5SM -SN BR BKN035 BKN070 M01/M02 A2997 4340 96 3500 000/00 RMK AO2 SNB1958 P0000 T10111017 $
94299KAAT AAT20160130120515401/30/16 12:05:31  5-MIN KAAT 302005Z AUTO 00000KT 1 1/4SM -SN BR BKN023 BKN035 OVC070 M01/M02 A2997 4340 96 3500 000/00 RMK AO2 SNB1958 P0000 T10111017 $
94299KAAT AAT20160130121014601/30/16 12:10:31  5-MIN KAAT 302010Z AUTO 00000KT 1/2SM SN FZFG BKN015 OVC035 M01/M02 A2997 4340 96 3500 000/00 RMK AO2 SNB1958 P0001 T10111017 $
94299KAAT AAT20160130121514601/30/16 12:15:31  5-MIN KAAT 302015Z AUTO 00000KT 1/4SM SN FZFG BKN011 OVC034 M01/M02 A2996 4340 96 3500 000/00 RMK AO2 SNB1958 P0002 T10111017 $
94299KAAT AAT20160130122014601/30/16 12:20:31  5-MIN KAAT 302020Z AUTO VRB03KT 1/4SM SN FZFG BKN011 OVC015 M01/M02 A2996 4350 96 3500 VRB/03 RMK AO2 SNB1958 P0003 T10111017 $
94299KAAT AAT20160130122514601/30/16 12:25:31  5-MIN KAAT 302025Z AUTO 19003KT 1/2SM SN FZFG BKN012 OVC029 M02/M02 A2995 4350 96 3400 170/03 RMK AO2 SNB1958 P0003 T10171022 $
94299KAAT AAT20160130123014701/30/16 12:30:31  5-MIN KAAT 302030Z AUTO 18003KT 1 3/4SM -SN BR BKN012 OVC045 M02/M02 A2995 4350 96 3400 160/03 RMK AO2 SNB1958 P0003 T10171022 $
94299KAAT AAT20160130123514001/30/16 12:35:31  5-MIN KAAT 302035Z AUTO 00000KT 7SM -SN SCT009 BKN045 M01/M02 A2995 4350 96 3500 000/00 RMK AO2 SNB1958 P0003 T10111017 $
94299KAAT AAT20160130124013901/30/16 12:40:31  5-MIN KAAT 302040Z AUTO 00000KT 9SM SCT011 BKN044 M01/M02 A2995 4360 96 3500 000/00 RMK AO2 SNB1958E37 P0003 T10111017 $
94299KAAT AAT20160130124514001/30/16 12:45:31  5-MIN KAAT 302045Z AUTO 19003KT 10SM FEW015 SCT044 M01/M02 A2995 4360 92 3500 170/03 RMK AO2 SNB1958E37 P0003 T10111022 $
94299KAAT AAT20160130125015201/30/16 12:50:31  5-MIN KAAT 302050Z AUTO 18003KT 10SM FEW044 M01/M02 A2994 4360 92 3500 170/03 RMK AO2 SNB1958E37 SLP157 P0003 60003 T10111022 53002 $
94299KAAT AAT20160130125515201/30/16 12:55:31  5-MIN KAAT 302055Z AUTO 16003KT 10SM FEW044 M01/M02 A2994 4360 92 3500 140/03 RMK AO2 SNB1958E37 SLP156 P0003 60003 T10111022 58007 $
94299KAAT AAT20160130130011301/30/16 13:00:31  5-MIN KAAT 302100Z AUTO 00000KT 10SM CLR M01/M02 A2994 4360 96 3500 000/00 RMK AO2 T10111017 $
94299KAAT AAT20160130130511301/30/16 13:05:31  5-MIN KAAT 302105Z AUTO 00000KT 10SM CLR M01/M02 A2994 4360 92 3500 000/00 RMK AO2 T10111022 $
94299KAAT AAT20160130131011601/30/16 13:10:31  5-MIN KAAT 302110Z AUTO 00000KT 10SM FEW110 M01/M02 A2994 4360 92 3500 000/00 RMK AO2 T10111022 $
94299KAAT AAT20160130131511601/30/16 13:15:31  5-MIN KAAT 302115Z AUTO 00000KT 10SM FEW110 M01/M02 A2994 4360 92 3500 000/00 RMK AO2 T10111022 $
94299KAAT AAT20160130132011601/30/16 13:20:31  5-MIN KAAT 302120Z AUTO 00000KT 10SM FEW110 M01/M02 A2994 4360 92 3500 000/00 RMK AO2 T10111022 $
94299KAAT AAT20160130132511601/30/16 13:25:31  5-MIN KAAT 302125Z AUTO 00000KT 10SM FEW110 M01/M02 A2994 4370 92 3600 000/00 RMK AO2 T10061017 $
94299KAAT AAT20160130133011601/30/16 13:30:31  5-MIN KAAT 302130Z AUTO 00000KT 10SM FEW110 M01/M02 A2994 4370 92 3600 000/00 RMK AO2 T10061017 $
94299KAAT AAT20160130133511601/30/16 13:35:31  5-MIN KAAT 302135Z AUTO 00000KT 10SM FEW110 M01/M02 A2993 4370 92 3600 000/00 RMK AO2 T10061017 $
94299KAAT AAT20160130134011501/30/16 13:40:31  5-MIN KAAT 302140Z AUTO 00000KT 10SM SCT060 00/M02 A2993 4370 85 3600 000/00 RMK AO2 T00001022 $
94299KAAT AAT20160130134511601/30/16 13:45:31  5-MIN KAAT 302145Z AUTO 16004KT 10SM SCT060 M01/M02 A2994 4370 88 3600 150/04 RMK AO2 T10061022 $
94299KAAT AAT20160130135012301/30/16 13:50:31  5-MIN KAAT 302150Z AUTO 15004KT 10SM SCT060 M01/M02 A2994 4370 92 3500 140/04 RMK AO2 SLP155 T10111022 $
94299KAAT AAT20160130135512301/30/16 13:55:31  5-MIN KAAT 302155Z AUTO 15004KT 10SM BKN060 M01/M02 A2993 4370 96 3500 140/04 RMK AO2 SLP155 T10111017 $
94299KAAT AAT20160130140011601/30/16 14:00:31  5-MIN KAAT 302200Z AUTO 16005KT 10SM BKN060 M01/M02 A2993 4370 92 3600 140/05 RMK AO2 T10061017 $
94299KAAT AAT20160130140511601/30/16 14:05:31  5-MIN KAAT 302205Z AUTO 15004KT 10SM BKN060 M01/M02 A2993 4370 92 3500 130/04 RMK AO2 T10111022 $
94299KAAT AAT20160130141011601/30/16 14:10:31  5-MIN KAAT 302210Z AUTO 12003KT 10SM SCT060 M01/M02 A2993 4370 92 3600 100/03 RMK AO2 T10061017 $
94299KAAT AAT20160130141512901/30/16 14:15:31  5-MIN KAAT 302215Z AUTO 06003KT 10SM FEW028 FEW036 BKN060 00/M02 A2993 4370 85 3600 050/03 RMK AO2 T00001022 $
94299KAAT AAT20160130142012901/30/16 14:20:31  5-MIN KAAT 302220Z AUTO 00000KT 10SM FEW031 SCT040 BKN060 00/M02 A2993 4370 88 3600 000/00 RMK AO2 T00001017 $
94299KAAT AAT20160130142512901/30/16 14:25:31  5-MIN KAAT 302225Z AUTO 13003KT 10SM FEW031 SCT040 BKN055 00/M02 A2993 4380 88 3700 120/03 RMK AO2 T00001017 $
94299KAAT AAT20160130143014501/30/16 14:30:31  5-MIN KAAT 302230Z AUTO 14003KT 8SM -SN FEW024 SCT035 BKN055 M01/M02 A2992 4380 88 3600 130/03 RMK AO2 SNB26 P0000 T10061022 $
94299KAAT AAT20160130143514501/30/16 14:35:31  5-MIN KAAT 302235Z AUTO 09003KT 7SM -SN SCT022 BKN046 OVC065 M01/M02 A2993 4380 88 3600 070/03 RMK AO2 SNB26 P0000 T10061022 $
94299KAAT AAT20160130144014501/30/16 14:40:31  5-MIN KAAT 302240Z AUTO 11004KT 9SM -SN SCT022 BKN033 OVC055 M01/M02 A2993 4370 88 3600 090/04 RMK AO2 SNB26 P0000 T10061022 $
94299KAAT AAT20160130144514401/30/16 14:45:31  5-MIN KAAT 302245Z AUTO 11003KT 9SM BKN021 BKN042 BKN075 M01/M02 A2993 4370 88 3600 100/03 RMK AO2 SNB26E41 P0000 T10061022 $
94299KAAT AAT20160130145015201/30/16 14:50:31  5-MIN KAAT 302250Z AUTO 15005KT 10SM SCT021 BKN044 BKN055 M01/M02 A2994 4360 92 3500 140/05 RMK AO2 SNB26E41 SLP158 P0000 T10111022 $
94299KAAT AAT20160130145514501/30/16 14:55:31  5-MIN KAAT 302255Z AUTO 16004KT 10SM SCT021 SCT046 M01/M02 A2994 4360 92 3500 150/04 RMK AO2 SNB26E41 SLP159 P0000 T10111022 $
94299KAAT AAT20160130150012301/30/16 15:00:31  5-MIN KAAT 302300Z AUTO 17006KT 10SM SCT021 BKN110 M01/M02 A2994 4360 92 3500 160/06 RMK AO2 T10111022 $
94299KAAT AAT20160130150513001/30/16 15:05:31  5-MIN KAAT 302305Z AUTO 17006KT 10SM SCT021 SCT090 BKN110 M01/M02 A2994 4370 96 3500 160/06 RMK AO2 T10111017 $
94299KAAT AAT20160130151013001/30/16 15:10:31  5-MIN KAAT 302310Z AUTO 17005KT 10SM FEW023 SCT090 BKN110 M02/M02 A2994 4370 96 3400 150/05 RMK AO2 T10171022 $
94299KAAT AAT20160130151507301/30/16 15:15:31  5-MIN KAAT 302315Z AUTO 17005KT M M M 150/05 RMK AO2 $
94299KAAT AAT20160130152010401/30/16 15:20:31  5-MIN KAAT 302320Z AUTO 16005KT M02/M02 A2994 4370 96 3400 150/05 RMK AO2 T10171022 $
94299KAAT AAT20160130152510901/30/16 15:25:31  5-MIN KAAT 302325Z AUTO 16005KT 10SM M02/M02 A2994 4370 96 3400 150/05 RMK AO2 T10171022 $
94299KAAT AAT20160130153010901/30/16 15:30:31  5-MIN KAAT 302330Z AUTO 16004KT 10SM M02/M02 A2994 4370 96 3400 150/04 RMK AO2 T10171022 $
94299KAAT AAT20160130153510901/30/16 15:35:31  5-MIN KAAT 302335Z AUTO 15004KT 10SM M02/M02 A2993 4370 96 3400 140/04 RMK AO2 T10171022 $
94299KAAT AAT20160130154010901/30/16 15:40:31  5-MIN KAAT 302340Z AUTO 15005KT 10SM M02/M02 A2994 4370 96 3400 140/05 RMK AO2 T10171022 $
94299KAAT AAT20160130154513001/30/16 15:45:31  5-MIN KAAT 302345Z AUTO 16004KT 10SM FEW024 BKN035 OVC050 M02/M02 A2994 4370 96 3400 150/04 RMK AO2 T10171022 $
94299KAAT AAT20160130155015501/30/16 15:50:31  5-MIN KAAT 302350Z AUTO 16005KT 10SM FEW024 BKN038 OVC075 M02/M02 A2993 4370 96 3400 140/05 RMK AO2 SLP158 60003 T10171022 10000 21033 $
94299KAAT AAT20160130155517001/30/16 15:55:31  5-MIN KAAT 302355Z AUTO 16004KT 9SM -SN SCT038 BKN075 OVC085 M02/M02 A2993 4370 96 3400 140/04 RMK AO2 SNB53 SLP157 P0000 60003 T10171022 10000 21033 $
94299KAAT AAT20160130160014001/30/16 16:00:31  5-MIN KAAT 310000Z AUTO 16004KT 8SM -SN SCT039 BKN080 OVC090 M02/M02 A2993 4370 100 3400 140/04 RMK AO2 P0000 T10221022 $
94299KAAT AAT20160130160513901/30/16 16:05:31  5-MIN KAAT 310005Z AUTO 17005KT 8SM -SN FEW039 SCT065 OVC090 M02/M03 A2994 4360 96 3400 160/05 RMK AO2 P0000 T10221028 $
94299KAAT AAT20160130161014101/30/16 16:10:31  5-MIN KAAT 310010Z AUTO 17004KT 9SM FEW045 SCT075 OVC090 M02/M03 A2994 4360 96 3400 150/04 RMK AO2 SNE08 P0000 T10221028 $
94299KAAT AAT20160130161513501/30/16 16:15:31  5-MIN KAAT 310015Z AUTO 15004KT 10SM FEW075 OVC090 M02/M03 A2994 4360 96 3400 140/04 RMK AO2 SNE08 P0000 T10221028 $
94299KAAT AAT20160130162012801/30/16 16:20:31  5-MIN KAAT 310020Z AUTO 15004KT 10SM OVC090 M02/M03 A2994 4360 96 3400 130/04 RMK AO2 SNE08 P0000 T10221028 $
94299KAAT AAT20160130162513501/30/16 16:25:31  5-MIN KAAT 310025Z AUTO 16004KT 10SM SCT004 OVC090 M02/M03 A2994 4360 96 3400 140/04 RMK AO2 SNE08 P0000 T10221028 $
94299KAAT AAT20160130163013601/30/16 16:30:31  5-MIN KAAT 310030Z AUTO 17004KT 10SM BKN004 OVC090 M03/M03 A2994 4360 100 3300 160/04 RMK AO2 SNE08 P0000 T10281028 $
94299KAAT AAT20160130163513601/30/16 16:35:31  5-MIN KAAT 310035Z AUTO 19003KT 10SM SCT005 OVC090 M03/M03 A2994 4360 100 3300 170/03 RMK AO2 SNE08 P0000 T10281028 $
94299KAAT AAT20160130164013601/30/16 16:40:31  5-MIN KAAT 310040Z AUTO 00000KT 10SM SCT005 OVC095 M03/M03 A2995 4360 100 3300 000/00 RMK AO2 SNE08 P0000 T10281028 $
94299KAAT AAT20160130164513601/30/16 16:45:31  5-MIN KAAT 310045Z AUTO 00000KT 10SM SCT005 BKN095 M03/M03 A2995 4360 100 3300 000/00 RMK AO2 SNE08 P0000 T10281028 $
94299KAAT AAT20160130165014101/30/16 16:50:31  5-MIN KAAT 310050Z AUTO 00000KT 8SM SCT005 BKN095 M03/M03 A2995 4350 96 3300 000/00 RMK AO2 SNE08 SLP170 P0000 T10281033 $
94299KAAT AAT20160130165515501/30/16 16:55:31  5-MIN KAAT 310055Z AUTO 00000KT 1 1/2SM BR FEW005 BKN095 BKN110 M03/M03 A2995 4350 96 3300 000/00 RMK AO2 SNE08 SLP170 P0000 T10281033 $
94299KAAT AAT20160130170012701/30/16 17:00:31  5-MIN KAAT 310100Z AUTO 00000KT 3/4SM BR BKN095 BKN110 M03/M03 A2995 4350 96 3300 000/00 RMK AO2 T10281033 $
94299KAAT AAT20160130170512201/30/16 17:05:31  5-MIN KAAT 310105Z AUTO 04003KT 1 1/2SM BR BKN095 M03/M03 A2995 4350 96 3300 020/03 RMK AO2 T10281033 $
94299KAAT AAT20160130171011801/30/16 17:10:31  5-MIN KAAT 310110Z AUTO 00000KT 6SM BR BKN095 M03/M03 A2995 4350 96 3300 000/00 RMK AO2 T10281033 $
94299KAAT AAT20160130171512301/30/16 17:15:31  5-MIN KAAT 310115Z AUTO 00000KT 9SM FEW034 OVC095 M03/M03 A2995 4350 100 3300 000/00 RMK AO2 T10281028 $
94299KAAT AAT20160130172013101/30/16 17:20:31  5-MIN KAAT 310120Z AUTO 17004KT 10SM FEW034 BKN100 OVC120 M03/M03 A2995 4350 100 3300 160/04 RMK AO2 T10281028 $
94299KAAT AAT20160130172513001/30/16 17:25:31  5-MIN KAAT 310125Z AUTO 18004KT 10SM FEW034 BKN100 OVC120 M03/M03 A2995 4350 96 3300 170/04 RMK AO2 T10281033 $
94299KAAT AAT20160130173013101/30/16 17:30:31  5-MIN KAAT 310130Z AUTO 19004KT 10SM FEW033 BKN100 OVC120 M03/M03 A2995 4360 100 3200 170/04 RMK AO2 T10331033 $
94299KAAT AAT20160130173513101/30/16 17:35:31  5-MIN KAAT 310135Z AUTO 20003KT 10SM FEW033 SCT100 OVC120 M03/M03 A2995 4350 100 3200 180/03 RMK AO2 T10331033 $
94299KAAT AAT20160130174012301/30/16 17:40:31  5-MIN KAAT 310140Z AUTO 00000KT 10SM FEW033 OVC120 M03/M04 A2995 4360 96 3200 000/00 RMK AO2 T10331039 $
94299KAAT AAT20160130174511601/30/16 17:45:31  5-MIN KAAT 310145Z AUTO 00000KT 10SM OVC120 M04/M04 A2995 4360 96 3200 000/00 RMK AO2 T10391044 $
94299KAAT AAT20160130175012301/30/16 17:50:31  5-MIN KAAT 310150Z AUTO 00000KT 10SM OVC120 M04/M04 A2995 4360 96 3200 000/00 RMK AO2 SLP168 T10391044 $
94299KAAT AAT20160130175512301/30/16 17:55:31  5-MIN KAAT 310155Z AUTO 00000KT 10SM OVC120 M03/M04 A2995 4360 96 3200 000/00 RMK AO2 SLP169 T10331039 $
94299KAAT AAT20160130180011601/30/16 18:00:31  5-MIN KAAT 310200Z AUTO 00000KT 10SM OVC110 M03/M04 A2995 4360 92 3200 000/00 RMK AO2 T10331044 $
94299KAAT AAT20160130180511601/30/16 18:05:31  5-MIN KAAT 310205Z AUTO 00000KT 10SM OVC110 M03/M04 A2995 4360 92 3200 000/00 RMK AO2 T10331044 $
94299KAAT AAT20160130181011601/30/16 18:10:31  5-MIN KAAT 310210Z AUTO 00000KT 10SM OVC110 M03/M04 A2994 4360 92 3200 000/00 RMK AO2 T10331044 $
94299KAAT AAT20160130181511601/30/16 18:15:31  5-MIN KAAT 310215Z AUTO 00000KT 10SM OVC110 M03/M04 A2994 4360 92 3300 000/00 RMK AO2 T10281039 $
94299KAAT AAT20160130182011601/30/16 18:20:31  5-MIN KAAT 310220Z AUTO 00000KT 10SM OVC110 M03/M04 A2995 4350 92 3300 000/00 RMK AO2 T10281039 $
94299KAAT AAT20160130182511601/30/16 18:25:31  5-MIN KAAT 310225Z AUTO 00000KT 10SM OVC110 M03/M04 A2995 4350 96 3200 000/00 RMK AO2 T10331039 $
94299KAAT AAT20160130183011601/30/16 18:30:31  5-MIN KAAT 310230Z AUTO 00000KT 10SM OVC110 M03/M04 A2995 4350 96 3200 000/00 RMK AO2 T10331039 $
94299KAAT AAT20160130183511601/30/16 18:35:31  5-MIN KAAT 310235Z AUTO 00000KT 10SM OVC110 M03/M04 A2995 4350 92 3300 000/00 RMK AO2 T10281039 $
94299KAAT AAT20160130184011601/30/16 18:40:31  5-MIN KAAT 310240Z AUTO 00000KT 10SM OVC110 M03/M04 A2995 4350 96 3200 000/00 RMK AO2 T10331039 $
94299KAAT AAT20160130184511601/30/16 18:45:31  5-MIN KAAT 310245Z AUTO 00000KT 10SM OVC100 M03/M04 A2996 4350 96 3200 000/00 RMK AO2 T10331039 $
94299KAAT AAT20160130185012901/30/16 18:50:31  5-MIN KAAT 310250Z AUTO 00000KT 10SM OVC100 M03/M04 A2996 4350 96 3200 000/00 RMK AO2 SLP176 60000 T10331039 $
94299KAAT AAT20160130185513501/30/16 18:55:31  5-MIN KAAT 310255Z AUTO 00000KT 10SM OVC110 M04/M04 A2995 4350 96 3100 000/00 RMK AO2 SLP175 60000 T10391044 51007 $
94299KAAT AAT20160130190011601/30/16 19:00:31  5-MIN KAAT 310300Z AUTO 00000KT 10SM OVC110 M04/M04 A2995 4350 96 3100 000/00 RMK AO2 T10391044 $
94299KAAT AAT20160130190511601/30/16 19:05:31  5-MIN KAAT 310305Z AUTO 11003KT 10SM OVC110 M03/M04 A2995 4350 92 3200 100/03 RMK AO2 T10331044 $
94299KAAT AAT20160130191011601/30/16 19:10:31  5-MIN KAAT 310310Z AUTO 13003KT 10SM OVC100 M03/M04 A2996 4350 96 3200 110/03 RMK AO2 T10331039 $
94299KAAT AAT20160130191512301/30/16 19:15:31  5-MIN KAAT 310315Z AUTO 00000KT 10SM FEW005 OVC100 M03/M04 A2995 4350 96 3200 000/00 RMK AO2 T10331039 $
94299KAAT AAT20160130192012201/30/16 19:20:31  5-MIN KAAT 310320Z AUTO 14004KT 8SM SCT005 OVC110 M03/M04 A2995 4350 96 3200 120/04 RMK AO2 T10331039 $
94299KAAT AAT20160130192512201/30/16 19:25:31  5-MIN KAAT 310325Z AUTO 16004KT 9SM BKN005 OVC110 M03/M04 A2995 4350 96 3200 150/04 RMK AO2 T10331039 $
94299KAAT AAT20160130193012301/30/16 19:30:31  5-MIN KAAT 310330Z AUTO 00000KT 10SM BKN005 OVC100 M03/M04 A2995 4350 96 3200 000/00 RMK AO2 T10331039 $
94299KAAT AAT20160130193512301/30/16 19:35:31  5-MIN KAAT 310335Z AUTO 00000KT 10SM SCT004 OVC100 M03/M04 A2996 4350 96 3200 000/00 RMK AO2 T10331039 $
94299KAAT AAT20160130194012301/30/16 19:40:31  5-MIN KAAT 310340Z AUTO 00000KT 10SM SCT004 OVC100 M04/M04 A2996 4350 96 3100 000/00 RMK AO2 T10391044 $
94299KAAT AAT20160130194512301/30/16 19:45:31  5-MIN KAAT 310345Z AUTO 00000KT 10SM FEW004 OVC095 M04/M04 A2995 4350 96 3100 000/00 RMK AO2 T10391044 $
94299KAAT AAT20160130195013001/30/16 19:50:31  5-MIN KAAT 310350Z AUTO 00000KT 10SM FEW004 OVC100 M04/M04 A2995 4350 96 3100 000/00 RMK AO2 SLP172 T10391044 $
94299KAAT AAT20160130195512201/30/16 19:55:31  5-MIN KAAT 310355Z AUTO 00000KT 8SM BKN095 M04/M04 A2995 4360 96 3100 000/00 RMK AO2 SLP171 T10391044 $
94299KAAT AAT20160130200012301/30/16 20:00:31  5-MIN KAAT 310400Z AUTO 00000KT 7SM BKN095 OVC110 M04/M04 A2995 4350 100 3100 000/00 RMK AO2 T10441044 $
94299KAAT AAT20160130200512501/30/16 20:05:31  5-MIN KAAT 310405Z AUTO 00000KT 6SM BR SCT095 BKN110 M04/M05 A2995 4350 92 3100 000/00 RMK AO2 T10391050 $
94299KAAT AAT20160130201012501/30/16 20:10:31  5-MIN KAAT 310410Z AUTO 02003KT 6SM BR SCT095 BKN110 M04/M05 A2995 4350 96 3100 010/03 RMK AO2 T10441050 $
94299KAAT AAT20160130201512501/30/16 20:15:31  5-MIN KAAT 310415Z AUTO 05003KT 6SM BR FEW090 BKN110 M05/M06 A2995 4360 96 3000 030/03 RMK AO2 T10501056 $
94299KAAT AAT20160130202012501/30/16 20:20:31  5-MIN KAAT 310420Z AUTO 08003KT 3SM BR FEW090 SCT110 M04/M06 A2995 4360 92 3100 070/03 RMK AO2 T10441056 $
94299KAAT AAT20160130202512201/30/16 20:25:31  5-MIN KAAT 310425Z AUTO 07003KT 2 1/2SM BR FEW110 M04/M05 A2994 4360 96 3100 050/03 RMK AO2 T10441050 $
94299KAAT AAT20160130203012201/30/16 20:30:31  5-MIN KAAT 310430Z AUTO 05003KT 2 1/2SM BR FEW120 M04/M05 A2995 4360 96 3100 040/03 RMK AO2 T10441050 $
94299KAAT AAT20160130203512201/30/16 20:35:31  5-MIN KAAT 310435Z AUTO 36003KT 1 1/2SM BR SCT120 M05/M06 A2995 4360 96 3000 350/03 RMK AO2 T10501056 $
94299KAAT AAT20160130204012901/30/16 20:40:31  5-MIN KAAT 310440Z AUTO 00000KT 1/2SM FZFG SCT002 BKN120 M06/M06 A2995 4360 96 2900 000/00 RMK AO2 T10561061 $
94299KAAT AAT20160130204513601/30/16 20:45:31  5-MIN KAAT 310445Z AUTO 03003KT 1/4SM FZFG SCT002 SCT085 BKN120 M05/M06 A2994 4360 96 3000 020/03 RMK AO2 T10501056 $
94299KAAT AAT20160130205014301/30/16 20:50:31  5-MIN KAAT 310450Z AUTO 00000KT 1/4SM FZFG FEW002 BKN090 BKN120 M06/M06 A2994 4360 96 2900 000/00 RMK AO2 SLP172 T10561061 $
94299KAAT AAT20160130205514301/30/16 20:55:31  5-MIN KAAT 310455Z AUTO 00000KT 1/4SM FZFG FEW002 BKN085 OVC120 M06/M07 A2995 4360 96 2900 000/00 RMK AO2 SLP172 T10611067 $
94299KAAT AAT20160130210013601/30/16 21:00:31  5-MIN KAAT 310500Z AUTO 00000KT 1/4SM FZFG SCT002 BKN085 OVC120 M06/M07 A2994 4360 96 2900 000/00 RMK AO2 T10611067 $
94299KAAT AAT20160130210512901/30/16 21:05:31  5-MIN KAAT 310505Z AUTO 00000KT 1/4SM FZFG BKN002 OVC085 M06/M07 A2994 4360 96 2900 000/00 RMK AO2 T10611067 $
94299KAAT AAT20160130211012901/30/16 21:10:31  5-MIN KAAT 310510Z AUTO 00000KT 1/4SM FZFG BKN001 OVC085 M06/M07 A2995 4360 96 2900 000/00 RMK AO2 T10611067 $
94299KAAT AAT20160130211513001/30/16 21:15:31  5-MIN KAAT 310515Z AUTO 00000KT 1/4SM FZFG BKN001 OVC085 M07/M07 A2994 4360 100 2800 000/00 RMK AO2 T10671067 $
94299KAAT AAT20160130212012901/30/16 21:20:31  5-MIN KAAT 310520Z AUTO 00000KT 1/2SM FZFG BKN001 OVC085 M06/M07 A2994 4360 96 2900 000/00 RMK AO2 T10611067 $
94299KAAT AAT20160130212512101/30/16 21:25:31  5-MIN KAAT 310525Z AUTO 27003KT 1/4SM FZFG VV001 M06/M07 A2994 4360 96 2900 250/03 RMK AO2 T10611067 $
94299KAAT AAT20160130213013001/30/16 21:30:31  5-MIN KAAT 310530Z AUTO 00000KT 1/2SM FZFG BKN001 OVC085 M06/M06 A2994 4360 100 2900 000/00 RMK AO2 T10611061 $
94299KAAT AAT20160130213513601/30/16 21:35:31  5-MIN KAAT 310535Z AUTO 00000KT 1/2SM FZFG BKN001 BKN085 OVC110 M06/M07 A2994 4360 92 2900 000/00 RMK AO2 T10561067 $
94299KAAT AAT20160130214012101/30/16 21:40:31  5-MIN KAAT 310540Z AUTO 00000KT 1/2SM FZFG VV001 M05/M06 A2994 4360 92 3000 000/00 RMK AO2 T10501061 $
94299KAAT AAT20160130214512901/30/16 21:45:31  5-MIN KAAT 310545Z AUTO 00000KT 1/2SM FZFG BKN001 OVC036 M05/M06 A2994 4360 96 3000 000/00 RMK AO2 T10501056 $
94299KAAT AAT20160130215016101/30/16 21:50:31  5-MIN KAAT 310550Z AUTO 00000KT 1/2SM FZFG BKN001 OVC036 M06/M06 A2994 4360 100 2900 000/00 RMK AO2 SLP169 60000 T10561056 11017 21067 51007 $
94299KAAT AAT20160130215515301/30/16 21:55:31  5-MIN KAAT 310555Z AUTO 00000KT 1/2SM FZFG VV001 M06/M06 A2994 4360 100 2900 000/00 RMK AO2 SLP169 60000 T10561056 11017 21067 56003 $
94299KAAT AAT20160130220012901/30/16 22:00:31  5-MIN KAAT 310600Z AUTO 00000KT 1/4SM FZFG BKN001 OVC036 M05/M06 A2994 4360 96 3000 000/00 RMK AO2 T10501056 $
94299KAAT AAT20160130220512901/30/16 22:05:31  5-MIN KAAT 310605Z AUTO 00000KT 1/4SM FZFG BKN001 OVC036 M05/M06 A2994 4360 96 3000 000/00 RMK AO2 T10501056 $
94299KAAT AAT20160130221013001/30/16 22:10:31  5-MIN KAAT 310610Z AUTO 00000KT 1/2SM FZFG SCT001 OVC036 M05/M05 A2994 4370 100 3000 000/00 RMK AO2 T10501050 $
94299KAAT AAT20160130221512901/30/16 22:15:31  5-MIN KAAT 310615Z AUTO 00000KT 1/2SM FZFG SCT001 OVC036 M04/M05 A2994 4370 96 3100 000/00 RMK AO2 T10441050 $
94299KAAT AAT20160130222013501/30/16 22:20:31  5-MIN KAAT 310620Z AUTO 00000KT 3/4SM BR FEW001 BKN036 OVC110 M05/M05 A2994 4370 100 3000 000/00 RMK AO2 T10501050 $
94299KAAT AAT20160130222513501/30/16 22:25:31  5-MIN KAAT 310625Z AUTO 00000KT 1SM BR BKN036 OVC110 M04/M06 A2994 4370 92 3100 000/00 RMK AO2 VIS 3/4V3 T10441056 $
94299KAAT AAT20160130223013301/30/16 22:30:31  5-MIN KAAT 310630Z AUTO 00000KT 2SM BR BKN036 OVC110 M04/M05 A2994 4370 96 3100 000/00 RMK AO2 VIS 1V3 T10441050 $
94299KAAT AAT20160130223512501/30/16 22:35:31  5-MIN KAAT 310635Z AUTO 10003KT 2SM BR BKN036 OVC110 M05/M06 A2994 4370 96 3000 090/03 RMK AO2 T10501056 $
94299KAAT AAT20160130224012901/30/16 22:40:31  5-MIN KAAT 310640Z AUTO 12004KT 1 3/4SM BR SCT037 OVC110 M05/M06 A2994 4370 96 3000 100/04 RMK AO2 T10501056 $
94299KAAT AAT20160130224513201/30/16 22:45:31  5-MIN KAAT 310645Z AUTO 10003KT 2SM BR FEW002 SCT037 OVC110 M05/M06 A2994 4360 96 3000 090/03 RMK AO2 T10501056 $
94299KAAT AAT20160130225014301/30/16 22:50:31  5-MIN KAAT 310650Z AUTO 10004KT 2 1/2SM BR SCT002 BKN037 OVC110 M04/M06 A2994 4370 92 3100 080/04 RMK AO2 SLP163 T10441056 $
94299KAAT AAT20160130225514301/30/16 22:55:31  5-MIN KAAT 310655Z AUTO 10003KT 2 1/2SM BR BKN002 BKN037 OVC110 M04/M05 A2994 4370 96 3100 090/03 RMK AO2 SLP163 T10441050 $
94299KAAT AAT20160130230012501/30/16 23:00:31  5-MIN KAAT 310700Z AUTO 10003KT 3SM BR BKN001 OVC110 M04/M05 A2994 4370 96 3100 080/03 RMK AO2 T10441050 $
94299KAAT AAT20160130230512501/30/16 23:05:31  5-MIN KAAT 310705Z AUTO 00000KT 4SM BR BKN001 OVC110 M04/M05 A2994 4370 96 3100 000/00 RMK AO2 T10441050 $
94299KAAT AAT20160130231011801/30/16 23:10:31  5-MIN KAAT 310710Z AUTO 00000KT 6SM BR OVC001 M04/M05 A2993 4370 96 3100 000/00 RMK AO2 T10441050 $
94299KAAT AAT20160130231511801/30/16 23:15:31  5-MIN KAAT 310715Z AUTO 00000KT 5SM BR OVC002 M04/M05 A2993 4370 96 3100 000/00 RMK AO2 T10441050 $
94299KAAT AAT20160130232012601/30/16 23:20:31  5-MIN KAAT 310720Z AUTO 00000KT 4SM BR BKN002 OVC100 M06/M06 A2993 4370 100 3000 000/00 RMK AO2 T10561056 $
94299KAAT AAT20160130232513201/30/16 23:25:31  5-MIN KAAT 310725Z AUTO 00000KT 5SM BR SCT002 BKN007 OVC100 M05/M06 A2993 4370 96 3000 000/00 RMK AO2 T10501056 $
94299KAAT AAT20160130233013201/30/16 23:30:31  5-MIN KAAT 310730Z AUTO 07004KT 6SM BR SCT002 BKN007 OVC100 M05/M06 A2993 4370 96 3000 060/04 RMK AO2 T10501056 $
94299KAAT AAT20160130233512901/30/16 23:35:31  5-MIN KAAT 310735Z AUTO 07003KT 7SM FEW003 SCT007 OVC100 M05/M06 A2993 4370 96 3000 060/03 RMK AO2 T10501056 $
94299KAAT AAT20160130234013201/30/16 23:40:31  5-MIN KAAT 310740Z AUTO 00000KT 6SM BR FEW003 SCT007 OVC100 M04/M06 A2993 4370 92 3100 000/00 RMK AO2 T10441056 $
94299KAAT AAT20160130234512501/30/16 23:45:31  5-MIN KAAT 310745Z AUTO 00000KT 5SM BR SCT007 OVC100 M04/M06 A2993 4370 92 3100 000/00 RMK AO2 T10441056 $
94299KAAT AAT20160130235014201/30/16 23:50:31  5-MIN KAAT 310750Z AUTO 00000KT 5SM BR SCT007 OVC100 M04/M05 A2993 4370 96 3100 000/00 RMK AO2 SLP159 T10441050 400001067 $
94299KAAT AAT20160130235514201/30/16 23:55:31  5-MIN KAAT 310755Z AUTO 00000KT 6SM BR SCT007 OVC100 M05/M06 A2993 4370 96 3000 000/00 RMK AO2 SLP158 T10501056 400001067 $
94299KAAT AAT20160131000012601/31/16 00:00:31  5-MIN KAAT 310800Z AUTO 00000KT 6SM BR BKN009 OVC100 M06/M06 A2993 4370 100 3000 000/00 RMK AO2 T10561056 $
94299KAAT AAT20160131000513201/31/16 00:05:31  5-MIN KAAT 310805Z AUTO 00000KT 5SM BR BKN009 BKN080 OVC100 M05/M06 A2993 4380 92 3000 000/00 RMK AO2 T10501061 $
94299KAAT AAT20160131001013201/31/16 00:10:31  5-MIN KAAT 310810Z AUTO 00000KT 5SM BR SCT009 BKN080 OVC100 M06/M06 A2993 4380 96 3000 000/00 RMK AO2 T10561061 $
94299KAAT AAT20160131001512501/31/16 00:15:31  5-MIN KAAT 310815Z AUTO 00000KT 4SM BR BKN009 OVC100 M06/M06 A2992 4380 96 3000 000/00 RMK AO2 T10561061 $
94299KAAT AAT20160131002012501/31/16 00:20:31  5-MIN KAAT 310820Z AUTO 00000KT 4SM BR BKN009 OVC100 M06/M06 A2992 4380 96 3000 000/00 RMK AO2 T10561061 $
94299KAAT AAT20160131002513201/31/16 00:25:31  5-MIN KAAT 310825Z AUTO 00000KT 3SM BR SCT009 BKN080 OVC100 M05/M06 A2992 4380 92 3000 000/00 RMK AO2 T10501061 $
94299KAAT AAT20160131003013201/31/16 00:30:31  5-MIN KAAT 310830Z AUTO 00000KT 1SM BR FEW009 BKN075 OVC100 M05/M06 A2992 4380 96 3000 000/00 RMK AO2 T10501056 $
94299KAAT AAT20160131003513501/31/16 00:35:31  5-MIN KAAT 310835Z AUTO 00000KT 3/4SM BR FEW009 BKN070 OVC100 M06/M06 A2992 4380 100 3000 000/00 RMK AO2 T10561056 $
94299KAAT AAT20160131004013501/31/16 00:40:31  5-MIN KAAT 310840Z AUTO 00000KT 3/4SM BR FEW009 BKN075 OVC100 M06/M06 A2992 4380 100 3000 000/00 RMK AO2 T10561056 $
94299KAAT AAT20160131004513701/31/16 00:45:31  5-MIN KAAT 310845Z AUTO 00000KT 1/2SM FZFG BKN070 BKN085 OVC100 M06/M06 A2992 4380 100 3000 000/00 RMK AO2 T10561056 $
94299KAAT AAT20160131005014301/31/16 00:50:31  5-MIN KAAT 310850Z AUTO 00000KT 1/2SM FZFG BKN070 OVC090 M06/M06 A2992 4380 100 3000 000/00 RMK AO2 SLP156 T10561056 56003 $
94299KAAT AAT20160131005513601/31/16 00:55:31  5-MIN KAAT 310855Z AUTO 00000KT 1/2SM FZFG OVC070 M06/M06 A2992 4390 100 3000 000/00 RMK AO2 SLP155 T10561056 58007 $
94299KAAT AAT20160131010011801/31/16 01:00:31  5-MIN KAAT 310900Z AUTO 00000KT 1SM BR OVC070 M05/M06 A2991 4390 96 3100 000/00 RMK AO2 T10501056 $
94299KAAT AAT20160131010512201/31/16 01:05:31  5-MIN KAAT 310905Z AUTO 00000KT 1 1/2SM BR OVC070 M05/M06 A2991 4390 96 3100 000/00 RMK AO2 T10501056 $
94299KAAT AAT20160131011011801/31/16 01:10:31  5-MIN KAAT 310910Z AUTO 00000KT 2SM BR OVC070 M05/M06 A2991 4390 96 3100 000/00 RMK AO2 T10501056 $
94299KAAT AAT20160131011513401/31/16 01:15:31  5-MIN KAAT 310915Z AUTO 00000KT 4SM -SN BR OVC070 M05/M06 A2991 4390 96 3100 000/00 RMK AO2 SNB15 P0000 T10501056 $
94299KAAT AAT20160131012013401/31/16 01:20:31  5-MIN KAAT 310920Z AUTO 00000KT 6SM -SN BR OVC070 M05/M06 A2991 4390 96 3100 000/00 RMK AO2 SNB15 P0000 T10501056 $
94299KAAT AAT20160131012513401/31/16 01:25:31  5-MIN KAAT 310925Z AUTO 00000KT 5SM -SN BR OVC070 M05/M06 A2991 4390 96 3100 000/00 RMK AO2 SNB15 P0000 T10501056 $
94299KAAT AAT20160131013013401/31/16 01:30:31  5-MIN KAAT 310930Z AUTO 00000KT 5SM -SN BR OVC070 M05/M06 A2990 4400 96 3100 000/00 RMK AO2 SNB15 P0000 T10501056 $
94299KAAT AAT20160131013513401/31/16 01:35:31  5-MIN KAAT 310935Z AUTO 02003KT 5SM -SN BR OVC070 M04/M06 A2990 4400 92 3100 010/03 RMK AO2 SNB15 P0000 T10441056 $
94299KAAT AAT20160131014014001/31/16 01:40:31  5-MIN KAAT 310940Z AUTO 02003KT 4SM BR BKN070 OVC085 M04/M06 A2990 4400 92 3100 010/03 RMK AO2 SNB15E38 P0000 T10441056 $
94299KAAT AAT20160131014513401/31/16 01:45:31  5-MIN KAAT 310945Z AUTO 35003KT 3SM -SN BR OVC075 M05/M06 A2991 4390 96 3100 340/03 RMK AO2 SNB15 P0000 T10501056 $
94299KAAT AAT20160131015014101/31/16 01:50:31  5-MIN KAAT 310950Z AUTO 00000KT 3SM -SN BR OVC075 M04/M06 A2990 4400 92 3100 000/00 RMK AO2 SNB15 SLP150 P0000 T10441056 $
94299KAAT AAT20160131015515501/31/16 01:55:31  5-MIN KAAT 310955Z AUTO 00000KT 3SM -SN BR BKN070 BKN080 OVC110 M05/M06 A2990 4400 96 3100 000/00 RMK AO2 SNB15 SLP149 P0000 T10501056 $
94299KAAT AAT20160131020014601/31/16 02:00:31  5-MIN KAAT 311000Z AUTO 36003KT 3SM BR SCT065 BKN080 OVC110 M05/M06 A2990 4400 96 3100 350/03 RMK AO2 SNE0959 P0000 T10501056 $
94299KAAT AAT20160131020514601/31/16 02:05:31  5-MIN KAAT 311005Z AUTO 00000KT 3SM BR FEW060 BKN080 BKN110 M05/M06 A2990 4400 92 3100 000/00 RMK AO2 SNE0959 P0000 T10501061 $
94299KAAT AAT20160131021014601/31/16 02:10:31  5-MIN KAAT 311010Z AUTO 00000KT 3SM BR FEW060 SCT080 BKN110 M06/M06 A2990 4400 96 3000 000/00 RMK AO2 SNE0959 P0000 T10561061 $
94299KAAT AAT20160131021514601/31/16 02:15:31  5-MIN KAAT 311015Z AUTO 00000KT 4SM BR FEW060 FEW080 SCT110 M05/M06 A2989 4410 92 3100 000/00 RMK AO2 SNE0959 P0000 T10501061 $
94299KAAT AAT20160131022013901/31/16 02:20:31  5-MIN KAAT 311020Z AUTO 00000KT 3SM BR FEW060 SCT110 M06/M06 A2989 4410 96 3000 000/00 RMK AO2 SNE0959 P0000 T10561061 $
94299KAAT AAT20160131022513601/31/16 02:25:31  5-MIN KAAT 311025Z AUTO 00000KT 2 1/2SM BR SCT110 M06/M07 A2988 4420 92 3000 000/00 RMK AO2 SNE0959 P0000 T10561067 $
94299KAAT AAT20160131023013201/31/16 02:30:31  5-MIN KAAT 311030Z AUTO 00000KT 3SM BR BKN110 M06/M06 A2989 4410 96 3000 000/00 RMK AO2 SNE0959 P0000 T10561061 $
94299KAAT AAT20160131023513201/31/16 02:35:31  5-MIN KAAT 311035Z AUTO 00000KT 3SM BR BKN110 M06/M06 A2988 4410 96 3000 000/00 RMK AO2 SNE0959 P0000 T10561061 $
94299KAAT AAT20160131024014001/31/16 02:40:31  5-MIN KAAT 311040Z AUTO 19004KT 1SM BR FEW001 BKN110 M07/M07 A2988 4420 100 2900 170/04 RMK AO2 SNE0959 P0000 T10671067 $
94299KAAT AAT20160131024514301/31/16 02:45:31  5-MIN KAAT 311045Z AUTO 00000KT 1/2SM FZFG SCT001 OVC110 M07/M08 A2988 4420 96 2800 000/00 RMK AO2 SNE0959 P0000 T10721078 $
94299KAAT AAT20160131025013301/31/16 02:50:31  5-MIN KAAT 311050Z AUTO 20003KT 1/4SM FZFG BKN001 OVC110 M07/M08 A2988 4420 96 2800 190/03 RMK AO2 SNE0959 P0000 $
94299KAAT AAT20160131025515001/31/16 02:55:31  5-MIN KAAT 311055Z AUTO 20004KT 1/4SM FZFG BKN001 OVC110 M07/M08 A2987 4420 96 2800 190/04 RMK AO2 SNE0959 SLP143 P0000 T10721078 $
94299KAAT AAT20160131030012701/31/16 03:00:31  5-MIN KAAT 311100Z AUTO 20006KT 3/4SM BR BKN001 OVC110 M07/M08 A2988 4420 96 2800 180/06 RMK AO2 T10721078 $
94299KAAT AAT20160131030512901/31/16 03:05:31  5-MIN KAAT 311105Z AUTO 19005KT 2 1/2SM BR BKN001 OVC013 M07/M08 A2987 4420 96 2800 180/05 RMK AO2 T10721078 $
94299KAAT AAT20160131031012201/31/16 03:10:31  5-MIN KAAT 311110Z AUTO 00000KT 9SM BKN001 OVC013 M07/M08 A2987 4430 92 2900 000/00 RMK AO2 T10671078 $
94299KAAT AAT20160131031513001/31/16 03:15:31  5-MIN KAAT 311115Z AUTO 00000KT 10SM SCT001 BKN013 OVC085 M07/M07 A2987 4430 96 2900 000/00 RMK AO2 T10671072 $
94299KAAT AAT20160131032013001/31/16 03:20:31  5-MIN KAAT 311120Z AUTO 18003KT 10SM FEW001 BKN013 OVC085 M06/M07 A2986 4430 92 3000 170/03 RMK AO2 T10611072 $
94299KAAT AAT20160131032513001/31/16 03:25:31  5-MIN KAAT 311125Z AUTO 00000KT 10SM FEW001 SCT013 OVC070 M06/M07 A2986 4430 96 3000 000/00 RMK AO2 T10611067 $
94299KAAT AAT20160131033012301/31/16 03:30:31  5-MIN KAAT 311130Z AUTO 00000KT 10SM SCT013 OVC070 M06/M07 A2986 4430 96 3000 000/00 RMK AO2 T10611067 $
94299KAAT AAT20160131033512301/31/16 03:35:31  5-MIN KAAT 311135Z AUTO 00000KT 10SM FEW013 OVC070 M06/M07 A2986 4430 96 3000 000/00 RMK AO2 T10611067 $
94299KAAT AAT20160131034012301/31/16 03:40:31  5-MIN KAAT 311140Z AUTO 00000KT 10SM BKN070 OVC085 M06/M07 A2986 4430 96 3000 000/00 RMK AO2 T10611067 $
94299KAAT AAT20160131034511601/31/16 03:45:31  5-MIN KAAT 311145Z AUTO 00000KT 10SM OVC070 M06/M07 A2986 4430 92 3000 000/00 RMK AO2 T10561067 $
94299KAAT AAT20160131035015201/31/16 03:50:31  5-MIN KAAT 311150Z AUTO 00000KT 8SM OVC070 M06/M07 A2986 4440 92 3000 000/00 RMK AO2 SLP136 60000 70003 T10561067 11044 21072 58007 $
94299KAAT AAT20160131035516201/31/16 03:55:31  5-MIN KAAT 311155Z AUTO 00000KT 6SM BR FEW011 OVC070 M06/M06 A2986 4430 96 3000 000/00 RMK AO2 SLP137 60000 70003 T10561061 11044 21072 56012 $
94299KAAT AAT20160131040012501/31/16 04:00:31  5-MIN KAAT 311200Z AUTO 00000KT 6SM BR BKN011 OVC070 M06/M06 A2986 4440 96 3000 000/00 RMK AO2 T10561061 $
94299KAAT AAT20160131040512501/31/16 04:05:31  5-MIN KAAT 311205Z AUTO 00000KT 6SM BR BKN011 OVC070 M06/M06 A2986 4440 96 3000 000/00 RMK AO2 T10561061 $
94299KAAT AAT20160131041012501/31/16 04:10:31  5-MIN KAAT 311210Z AUTO 00000KT 5SM BR BKN011 OVC070 M06/M06 A2986 4440 96 3000 000/00 RMK AO2 T10561061 $
94299KAAT AAT20160131041511801/31/16 04:15:31  5-MIN KAAT 311215Z AUTO 15003KT 5SM BR OVC010 M06/M06 A2986 4440 96 3000 140/03 RMK AO2 T10561061 $
94299KAAT AAT20160131042011801/31/16 04:20:31  5-MIN KAAT 311220Z AUTO 14004KT 6SM BR OVC010 M06/M06 A2986 4440 96 3000 130/04 RMK AO2 T10561061 $
94299KAAT AAT20160131042511501/31/16 04:25:31  5-MIN KAAT 311225Z AUTO 16005KT 7SM OVC010 M06/M06 A2986 4440 96 3000 140/05 RMK AO2 T10561061 $
94299KAAT AAT20160131043011501/31/16 04:30:31  5-MIN KAAT 311230Z AUTO 15004KT 7SM OVC010 M05/M06 A2986 4430 96 3100 130/04 RMK AO2 T10501056 $
94299KAAT AAT20160131043511601/31/16 04:35:31  5-MIN KAAT 311235Z AUTO 17003KT 7SM OVC010 M06/M06 A2986 4440 100 3000 160/03 RMK AO2 T10561056 $
94299KAAT AAT20160131044011601/31/16 04:40:31  5-MIN KAAT 311240Z AUTO 00000KT 7SM OVC011 M06/M06 A2986 4440 100 3000 000/00 RMK AO2 T10561056 $
94299KAAT AAT20160131044511501/31/16 04:45:31  5-MIN KAAT 311245Z AUTO 00000KT 8SM OVC011 M05/M06 A2986 4440 96 3100 000/00 RMK AO2 T10501056 $
94299KAAT AAT20160131045012201/31/16 04:50:31  5-MIN KAAT 311250Z AUTO 00000KT 8SM OVC011 M05/M06 A2986 4440 96 3100 000/00 RMK AO2 SLP137 T10501056 $
94299KAAT AAT20160131045512201/31/16 04:55:31  5-MIN KAAT 311255Z AUTO 00000KT 9SM OVC011 M05/M06 A2985 4440 92 3100 000/00 RMK AO2 SLP137 T10501061 $
94299KAAT AAT20160131050011501/31/16 05:00:31  5-MIN KAAT 311300Z AUTO 00000KT 9SM OVC011 M05/M06 A2985 4440 96 3100 000/00 RMK AO2 T10501056 $
94299KAAT AAT20160131050511601/31/16 05:05:31  5-MIN KAAT 311305Z AUTO 10003KT 10SM OVC011 M05/M06 A2985 4450 96 3100 090/03 RMK AO2 T10501056 $
94299KAAT AAT20160131051012801/31/16 05:10:31  5-MIN KAAT 311310Z AUTO 09003KT 10SM OVC010 M05/M06 A2985 4450 96 3100 070/03 RMK AO2 CIG 007V011 T10501056 $
94299KAAT AAT20160131051512801/31/16 05:15:31  5-MIN KAAT 311315Z AUTO 11003KT 10SM OVC010 M04/M06 A2985 4450 92 3200 090/03 RMK AO2 CIG 006V011 T10441056 $
94299KAAT AAT20160131052012801/31/16 05:20:31  5-MIN KAAT 311320Z AUTO 13003KT 10SM OVC008 M04/M06 A2985 4450 92 3200 110/03 RMK AO2 CIG 006V011 T10441056 $
94299KAAT AAT20160131052513501/31/16 05:25:31  5-MIN KAAT 311325Z AUTO 12003KT 10SM BKN006 OVC010 M04/M05 A2985 4450 96 3200 110/03 RMK AO2 CIG 006V009 T10441050 $
94299KAAT AAT20160131053011601/31/16 05:30:31  5-MIN KAAT 311330Z AUTO 15003KT 10SM OVC006 M04/M05 A2985 4450 96 3200 130/03 RMK AO2 T10441050 $
94299KAAT AAT20160131053513901/31/16 05:35:31  5-MIN KAAT 311335Z AUTO 14003KT 10SM -SN BKN006 OVC011 M04/M05 A2984 4450 96 3200 130/03 RMK AO2 SNB35 P0000 T10441050 $
94299KAAT AAT20160131054015001/31/16 05:40:31  5-MIN KAAT 311340Z AUTO 00000KT 9SM -SN BKN006 OVC011 M04/M05 A2984 4450 96 3200 000/00 RMK AO2 SNB35 CIG 005V010 P0000 T10441050 $
94299KAAT AAT20160131054513801/31/16 05:45:31  5-MIN KAAT 311345Z AUTO 00000KT 8SM -SN BKN006 OVC011 M04/M05 A2984 4450 96 3200 000/00 RMK AO2 SNB35 P0000 T10441050 $
94299KAAT AAT20160131055014501/31/16 05:50:31  5-MIN KAAT 311350Z AUTO 00000KT 9SM -SN BKN006 OVC012 M04/M05 A2984 4450 96 3200 000/00 RMK AO2 SNB35 SLP132 P0000 T10441050 $
94299KAAT AAT20160131055514501/31/16 05:55:31  5-MIN KAAT 311355Z AUTO 00000KT 9SM -SN BKN006 OVC012 M04/M05 A2984 4450 96 3200 000/00 RMK AO2 SNB35 SLP133 P0000 T10441050 $
94299KAAT AAT20160131060013201/31/16 06:00:31  5-MIN KAAT 311400Z AUTO 00000KT 8SM -SN SCT006 OVC010 M04/M06 A2985 4450 92 3200 000/00 RMK AO2 P0000 T10441056 $
94299KAAT AAT20160131060513201/31/16 06:05:31  5-MIN KAAT 311405Z AUTO 00000KT 7SM -SN BKN006 OVC012 M04/M06 A2985 4450 92 3200 000/00 RMK AO2 P0000 T10441056 $
94299KAAT AAT20160131061014201/31/16 06:10:31  5-MIN KAAT 311410Z AUTO 00000KT 5SM -SN BR SCT006 BKN012 OVC045 M04/M05 A2984 4450 96 3200 000/00 RMK AO2 P0000 T10441050 $
94299KAAT AAT20160131061514201/31/16 06:15:31  5-MIN KAAT 311415Z AUTO 00000KT 4SM -SN BR SCT006 BKN012 OVC045 M04/M05 A2984 4450 96 3200 000/00 RMK AO2 P0000 T10441050 $
94299KAAT AAT20160131062014201/31/16 06:20:31  5-MIN KAAT 311420Z AUTO 00000KT 4SM -SN BR FEW006 SCT012 OVC045 M04/M05 A2984 4460 96 3200 000/00 RMK AO2 P0000 T10441050 $
94299KAAT AAT20160131062514201/31/16 06:25:31  5-MIN KAAT 311425Z AUTO 00000KT 5SM -SN BR FEW008 SCT012 OVC045 M04/M05 A2984 4460 96 3200 000/00 RMK AO2 P0000 T10441050 $
94299KAAT AAT20160131063014201/31/16 06:30:31  5-MIN KAAT 311430Z AUTO 00000KT 6SM -SN BR FEW008 FEW014 OVC049 M04/M05 A2984 4460 96 3200 000/00 RMK AO2 P0000 T10441050 $
94299KAAT AAT20160131063513501/31/16 06:35:31  5-MIN KAAT 311435Z AUTO 00000KT 6SM -SN BR BKN049 OVC070 M04/M05 A2984 4460 96 3200 000/00 RMK AO2 P0000 T10441050 $
94299KAAT AAT20160131064013201/31/16 06:40:31  5-MIN KAAT 311440Z AUTO 00000KT 7SM -SN BKN049 OVC070 M04/M05 A2984 4460 96 3200 000/00 RMK AO2 P0000 T10441050 $
94299KAAT AAT20160131064513401/31/16 06:45:31  5-MIN KAAT 311445Z AUTO 00000KT 8SM SCT049 OVC070 M04/M06 A2984 4460 92 3200 000/00 RMK AO2 SNE43 P0000 T10441056 $
94299KAAT AAT20160131065015401/31/16 06:50:31  5-MIN KAAT 311450Z AUTO 00000KT 10SM FEW049 OVC070 M04/M06 A2983 4460 92 3200 000/00 RMK AO2 SNE43 SLP129 P0000 60000 T10441056 56012 $
94299KAAT AAT20160131065515401/31/16 06:55:31  5-MIN KAAT 311455Z AUTO 00000KT 10SM FEW060 OVC070 M04/M06 A2983 4460 92 3200 000/00 RMK AO2 SNE43 SLP128 P0000 60000 T10441056 58009 $
94299KAAT AAT20160131070011601/31/16 07:00:31  5-MIN KAAT 311500Z AUTO 00000KT 10SM OVC070 M04/M05 A2983 4470 96 3200 000/00 RMK AO2 T10441050 $
94299KAAT AAT20160131070511601/31/16 07:05:31  5-MIN KAAT 311505Z AUTO 00000KT 10SM OVC070 M04/M05 A2983 4470 96 3200 000/00 RMK AO2 T10441050 $
94299KAAT AAT20160131071011601/31/16 07:10:31  5-MIN KAAT 311510Z AUTO 00000KT 10SM OVC070 M04/M05 A2983 4470 96 3200 000/00 RMK AO2 T10441050 $
94299KAAT AAT20160131071512201/31/16 07:15:31  5-MIN KAAT 311515Z AUTO 00000KT 9SM FEW060 OVC075 M04/M06 A2983 4470 92 3200 000/00 RMK AO2 T10441056 $
94299KAAT AAT20160131072012201/31/16 07:20:31  5-MIN KAAT 311520Z AUTO 35003KT 7SM SCT060 OVC075 M04/M06 A2983 4470 92 3200 330/03 RMK AO2 T10441056 $
94299KAAT AAT20160131072512201/31/16 07:25:31  5-MIN KAAT 311525Z AUTO 00000KT 7SM BKN060 OVC075 M04/M05 A2983 4470 96 3200 000/00 RMK AO2 T10441050 $
94299KAAT AAT20160131073012201/31/16 07:30:31  5-MIN KAAT 311530Z AUTO 32003KT 7SM BKN060 OVC075 M04/M05 A2982 4470 96 3200 310/03 RMK AO2 T10441050 $
94299KAAT AAT20160131073512201/31/16 07:35:31  5-MIN KAAT 311535Z AUTO 32003KT 7SM BKN060 OVC075 M04/M05 A2982 4470 96 3200 300/03 RMK AO2 T10441050 $
94299KAAT AAT20160131074012201/31/16 07:40:31  5-MIN KAAT 311540Z AUTO 00000KT 8SM SCT060 OVC075 M04/M05 A2982 4470 96 3200 000/00 RMK AO2 T10441050 $
94299KAAT AAT20160131074512301/31/16 07:45:31  5-MIN KAAT 311545Z AUTO 00000KT 10SM SCT060 OVC080 M04/M05 A2982 4470 96 3200 000/00 RMK AO2 T10441050 $
94299KAAT AAT20160131075013001/31/16 07:50:31  5-MIN KAAT 311550Z AUTO 00000KT 10SM FEW060 OVC075 M04/M05 A2982 4470 96 3200 000/00 RMK AO2 SLP125 T10441050 $
94299KAAT AAT20160131075513001/31/16 07:55:31  5-MIN KAAT 311555Z AUTO 00000KT 10SM FEW055 OVC075 M04/M05 A2982 4470 96 3200 000/00 RMK AO2 SLP125 T10441050 $
94299KAAT AAT20160131080012301/31/16 08:00:31  5-MIN KAAT 311600Z AUTO 00000KT 10SM SCT050 OVC075 M04/M05 A2982 4470 96 3200 000/00 RMK AO2 T10441050 $
94299KAAT AAT20160131080512301/31/16 08:05:31  5-MIN KAAT 311605Z AUTO 00000KT 10SM SCT055 OVC075 M04/M05 A2982 4480 96 3200 000/00 RMK AO2 T10441050 $
94299KAAT AAT20160131081012301/31/16 08:10:31  5-MIN KAAT 311610Z AUTO 00000KT 10SM SCT055 OVC070 M04/M05 A2982 4480 96 3200 000/00 RMK AO2 T10441050 $
94299KAAT AAT20160131081512401/31/16 08:15:31  5-MIN KAAT 311615Z AUTO 00000KT 10SM BKN060 OVC075 M04/M04 A2982 4480 100 3200 000/00 RMK AO2 T10441044 $
94299KAAT AAT20160131082012401/31/16 08:20:31  5-MIN KAAT 311620Z AUTO 00000KT 10SM SCT060 OVC070 M04/M04 A2982 4480 100 3200 000/00 RMK AO2 T10441044 $
94299KAAT AAT20160131082511601/31/16 08:25:31  5-MIN KAAT 311625Z AUTO 00000KT 10SM OVC065 M04/M04 A2982 4480 96 3300 000/00 RMK AO2 T10391044 $
94299KAAT AAT20160131083011601/31/16 08:30:31  5-MIN KAAT 311630Z AUTO 36005KT 10SM OVC070 M04/M04 A2982 4470 96 3300 350/05 RMK AO2 T10391044 $
94299KAAT AAT20160131083511601/31/16 08:35:31  5-MIN KAAT 311635Z AUTO 01005KT 10SM OVC070 M03/M04 A2982 4470 92 3400 360/05 RMK AO2 T10331044 $
94299KAAT AAT20160131084011601/31/16 08:40:31  5-MIN KAAT 311640Z AUTO 03005KT 10SM OVC070 M03/M04 A2982 4470 92 3400 010/05 RMK AO2 T10331044 $
94299KAAT AAT20160131084511601/31/16 08:45:31  5-MIN KAAT 311645Z AUTO 03004KT 10SM OVC065 M03/M04 A2982 4480 92 3400 010/04 RMK AO2 T10331044 $
94299KAAT AAT20160131085013001/31/16 08:50:31  5-MIN KAAT 311650Z AUTO 03005KT 10SM BKN060 OVC075 M03/M04 A2982 4480 92 3400 020/05 RMK AO2 SLP125 T10331044 $
94299KAAT AAT20160131085512301/31/16 08:55:31  5-MIN KAAT 311655Z AUTO 02006KT 10SM OVC060 M03/M04 A2982 4480 92 3400 360/06 RMK AO2 SLP125 T10331044 $
94299KAAT AAT20160131090011601/31/16 09:00:31  5-MIN KAAT 311700Z AUTO 01008KT 10SM OVC060 M03/M04 A2982 4480 92 3400 350/08 RMK AO2 T10331044 $
94299KAAT AAT20160131090511601/31/16 09:05:31  5-MIN KAAT 311705Z AUTO 01009KT 10SM OVC060 M03/M04 A2982 4480 92 3400 350/09 RMK AO2 T10331044 $
94299KAAT AAT20160131091011601/31/16 09:10:31  5-MIN KAAT 311710Z AUTO 36008KT 10SM OVC060 M03/M04 A2982 4480 88 3400 350/08 RMK AO2 T10281044 $
94299KAAT AAT20160131091511601/31/16 09:15:31  5-MIN KAAT 311715Z AUTO 01008KT 10SM OVC055 M03/M04 A2982 4480 88 3400 360/08 RMK AO2 T10281044 $
94299KAAT AAT20160131092011601/31/16 09:20:31  5-MIN KAAT 311720Z AUTO 01008KT 10SM OVC055 M03/M04 A2982 4480 88 3400 350/08 RMK AO2 T10281044 $
94299KAAT AAT20160131092511601/31/16 09:25:31  5-MIN KAAT 311725Z AUTO 01008KT 10SM OVC060 M03/M04 A2982 4480 88 3400 360/08 RMK AO2 T10281044 $
94299KAAT AAT20160131093011601/31/16 09:30:31  5-MIN KAAT 311730Z AUTO 01008KT 10SM OVC055 M03/M04 A2982 4480 88 3400 350/08 RMK AO2 T10281044 $
94299KAAT AAT20160131093511601/31/16 09:35:31  5-MIN KAAT 311735Z AUTO 01008KT 10SM OVC055 M02/M04 A2982 4480 85 3500 350/08 RMK AO2 T10221044 $
94299KAAT AAT20160131094011601/31/16 09:40:31  5-MIN KAAT 311740Z AUTO 01008KT 10SM OVC060 M02/M04 A2982 4480 85 3500 360/08 RMK AO2 T10221044 $
94299KAAT AAT20160131094511601/31/16 09:45:31  5-MIN KAAT 311745Z AUTO 01009KT 10SM OVC060 M02/M04 A2982 4480 85 3500 360/09 RMK AO2 T10221044 $
94299KAAT AAT20160131095014701/31/16 09:50:31  5-MIN KAAT 311750Z AUTO 01009KT 10SM OVC060 M02/M04 A2982 4470 85 3500 350/09 RMK AO2 SLP124 60000 T10221044 11022 21056 58009 $
94299KAAT AAT20160131095514701/31/16 09:55:31  5-MIN KAAT 311755Z AUTO 01007KT 10SM OVC060 M02/M04 A2982 4480 85 3500 360/07 RMK AO2 SLP124 60000 T10221044 11022 21056 55003 $
94299KAAT AAT20160131100011601/31/16 10:00:31  5-MIN KAAT 311800Z AUTO 01010KT 10SM OVC060 M02/M04 A2982 4470 81 3600 350/10 RMK AO2 T10171044 $
94299KAAT AAT20160131100511601/31/16 10:05:31  5-MIN KAAT 311805Z AUTO 01010KT 10SM OVC060 M02/M04 A2982 4470 81 3600 360/10 RMK AO2 T10171044 $
94299KAAT AAT20160131101011601/31/16 10:10:31  5-MIN KAAT 311810Z AUTO 01010KT 10SM OVC065 M02/M04 A2982 4470 81 3600 350/10 RMK AO2 T10171044 $
94299KAAT AAT20160131101511601/31/16 10:15:31  5-MIN KAAT 311815Z AUTO 02009KT 10SM OVC060 M02/M04 A2982 4470 81 3600 360/09 RMK AO2 T10171044 $
94299KAAT AAT20160131102011601/31/16 10:20:31  5-MIN KAAT 311820Z AUTO 01009KT 10SM OVC065 M02/M04 A2982 4470 81 3600 360/09 RMK AO2 T10171044 $
94299KAAT AAT20160131102511601/31/16 10:25:31  5-MIN KAAT 311825Z AUTO 01011KT 10SM OVC065 M02/M04 A2982 4470 81 3600 360/11 RMK AO2 T10171044 $
94299KAAT AAT20160131103011601/31/16 10:30:31  5-MIN KAAT 311830Z AUTO 01010KT 10SM OVC070 M02/M05 A2982 4480 78 3600 360/10 RMK AO2 T10171050 $
94299KAAT AAT20160131103511601/31/16 10:35:31  5-MIN KAAT 311835Z AUTO 01008KT 10SM OVC070 M01/M04 A2982 4470 78 3600 350/08 RMK AO2 T10111044 $
94299KAAT AAT20160131104011601/31/16 10:40:31  5-MIN KAAT 311840Z AUTO 01011KT 10SM OVC070 M01/M05 A2982 4470 75 3600 360/11 RMK AO2 T10111050 $
94299KAAT AAT20160131104511601/31/16 10:45:31  5-MIN KAAT 311845Z AUTO 02010KT 10SM OVC065 M01/M05 A2982 4480 75 3600 360/10 RMK AO2 T10111050 $
94299KAAT AAT20160131105012301/31/16 10:50:31  5-MIN KAAT 311850Z AUTO 01009KT 10SM OVC070 M01/M05 A2982 4480 75 3600 350/09 RMK AO2 SLP119 T10111050 $
94299KAAT AAT20160131105512301/31/16 10:55:31  5-MIN KAAT 311855Z AUTO 01009KT 10SM OVC065 M01/M04 A2982 4480 78 3600 360/09 RMK AO2 SLP119 T10111044 $
94299KAAT AAT20160131110011601/31/16 11:00:31  5-MIN KAAT 311900Z AUTO 01011KT 10SM OVC065 M01/M05 A2981 4480 75 3600 360/11 RMK AO2 T10111050 $
94299KAAT AAT20160131110511601/31/16 11:05:31  5-MIN KAAT 311905Z AUTO 01012KT 10SM OVC065 M01/M05 A2981 4480 75 3600 360/12 RMK AO2 T10111050 $
94299KAAT AAT20160131111011601/31/16 11:10:31  5-MIN KAAT 311910Z AUTO 01009KT 10SM OVC065 M01/M05 A2981 4490 75 3700 360/09 RMK AO2 T10111050 $
94299KAAT AAT20160131111511601/31/16 11:15:31  5-MIN KAAT 311915Z AUTO 01010KT 10SM OVC065 M01/M05 A2981 4490 75 3700 360/10 RMK AO2 T10111050 $
94299KAAT AAT20160131112011601/31/16 11:20:31  5-MIN KAAT 311920Z AUTO 01011KT 10SM OVC070 M01/M05 A2980 4490 75 3700 350/11 RMK AO2 T10111050 $
94299KAAT AAT20160131112511601/31/16 11:25:31  5-MIN KAAT 311925Z AUTO 01011KT 10SM OVC070 M01/M04 A2980 4490 78 3700 350/11 RMK AO2 T10111044 $
94299KAAT AAT20160131113011601/31/16 11:30:31  5-MIN KAAT 311930Z AUTO 01010KT 10SM OVC070 M01/M05 A2980 4490 75 3700 350/10 RMK AO2 T10111050 $
94299KAAT AAT20160131113511601/31/16 11:35:31  5-MIN KAAT 311935Z AUTO 36010KT 10SM OVC070 M01/M05 A2980 4490 75 3700 350/10 RMK AO2 T10111050 $
94299KAAT AAT20160131114011601/31/16 11:40:31  5-MIN KAAT 311940Z AUTO 01012KT 10SM OVC070 M01/M05 A2980 4490 75 3700 360/12 RMK AO2 T10111050 $
94299KAAT AAT20160131114511601/31/16 11:45:31  5-MIN KAAT 311945Z AUTO 36009KT 10SM OVC070 M01/M05 A2980 4490 75 3700 340/09 RMK AO2 T10111050 $
94299KAAT AAT20160131115012301/31/16 11:50:31  5-MIN KAAT 311950Z AUTO 01012KT 10SM OVC070 M01/M05 A2980 4490 75 3700 350/12 RMK AO2 SLP113 T10111050 $
94299KAAT AAT20160131115512301/31/16 11:55:31  5-MIN KAAT 311955Z AUTO 36012KT 10SM OVC070 M01/M05 A2980 4500 75 3700 350/12 RMK AO2 SLP112 T10111050 $
94299KAAT AAT20160131120011601/31/16 12:00:31  5-MIN KAAT 312000Z AUTO 01013KT 10SM OVC070 M01/M05 A2980 4500 75 3700 350/13 RMK AO2 T10111050 $
94299KAAT AAT20160131120511601/31/16 12:05:31  5-MIN KAAT 312005Z AUTO 01012KT 10SM OVC065 M01/M05 A2979 4500 75 3700 360/12 RMK AO2 T10111050 $
94299KAAT AAT20160131121011601/31/16 12:10:31  5-MIN KAAT 312010Z AUTO 01011KT 10SM OVC065 M01/M05 A2979 4500 75 3700 360/11 RMK AO2 T10111050 $
94299KAAT AAT20160131121511601/31/16 12:15:31  5-MIN KAAT 312015Z AUTO 01012KT 10SM OVC060 M01/M05 A2979 4500 75 3700 360/12 RMK AO2 T10111050 $
94299KAAT AAT20160131122011601/31/16 12:20:31  5-MIN KAAT 312020Z AUTO 36011KT 10SM OVC055 M01/M05 A2979 4500 75 3700 350/11 RMK AO2 T10111050 $
94299KAAT AAT20160131122511601/31/16 12:25:31  5-MIN KAAT 312025Z AUTO 36013KT 10SM OVC055 M01/M05 A2979 4500 75 3700 340/13 RMK AO2 T10111050 $
94299KAAT AAT20160131123011601/31/16 12:30:31  5-MIN KAAT 312030Z AUTO 01015KT 10SM OVC055 M01/M05 A2979 4510 75 3700 350/15 RMK AO2 T10111050 $
94299KAAT AAT20160131123512301/31/16 12:35:31  5-MIN KAAT 312035Z AUTO 01014KT 10SM BKN050 OVC060 M02/M06 A2978 4510 75 3600 350/14 RMK AO2 T10171056 $
94299KAAT AAT20160131124011601/31/16 12:40:31  5-MIN KAAT 312040Z AUTO 36013KT 10SM OVC050 M02/M06 A2978 4510 75 3600 350/13 RMK AO2 T10171056 $
94299KAAT AAT20160131124511601/31/16 12:45:31  5-MIN KAAT 312045Z AUTO 01014KT 10SM OVC050 M02/M06 A2978 4510 75 3600 360/14 RMK AO2 T10171056 $
94299KAAT AAT20160131125013501/31/16 12:50:31  5-MIN KAAT 312050Z AUTO 01012G19KT 10SM OVC050 M01/M06 A2978 4510 72 3700 360/12G19 RMK AO2 SLP107 T10111056 55003 $
94299KAAT AAT20160131125512901/31/16 12:55:31  5-MIN KAAT 312055Z AUTO 36013KT 10SM OVC050 M01/M06 A2977 4520 72 3700 350/13 RMK AO2 SLP106 T10111056 58013 $
94299KAAT AAT20160131130011601/31/16 13:00:31  5-MIN KAAT 312100Z AUTO 01013KT 10SM OVC055 M01/M06 A2977 4520 72 3700 350/13 RMK AO2 T10111056 $
94299KAAT AAT20160131130511601/31/16 13:05:31  5-MIN KAAT 312105Z AUTO 01013KT 10SM OVC055 M01/M06 A2977 4520 72 3700 350/13 RMK AO2 T10111056 $
94299KAAT AAT20160131131012301/31/16 13:10:31  5-MIN KAAT 312110Z AUTO 01011KT 10SM BKN055 OVC070 M01/M06 A2977 4520 72 3700 350/11 RMK AO2 T10111056 $
94299KAAT AAT20160131131512301/31/16 13:15:31  5-MIN KAAT 312115Z AUTO 01012KT 10SM FEW048 OVC060 M01/M05 A2977 4520 75 3700 360/12 RMK AO2 T10111050 $
94299KAAT AAT20160131132012301/31/16 13:20:31  5-MIN KAAT 312120Z AUTO 01012KT 10SM BKN060 OVC070 M01/M06 A2977 4520 72 3700 350/12 RMK AO2 T10111056 $
94299KAAT AAT20160131132511601/31/16 13:25:31  5-MIN KAAT 312125Z AUTO 01011KT 10SM OVC065 M01/M06 A2977 4520 72 3700 360/11 RMK AO2 T10111056 $
94299KAAT AAT20160131133012301/31/16 13:30:31  5-MIN KAAT 312130Z AUTO 01010KT 10SM BKN065 OVC075 M01/M06 A2976 4530 72 3700 360/10 RMK AO2 T10111056 $
94299KAAT AAT20160131133511601/31/16 13:35:31  5-MIN KAAT 312135Z AUTO 01012KT 10SM OVC070 M01/M06 A2976 4530 72 3700 350/12 RMK AO2 T10111056 $
94299KAAT AAT20160131134011601/31/16 13:40:31  5-MIN KAAT 312140Z AUTO 01012KT 10SM OVC070 M01/M06 A2976 4530 72 3700 350/12 RMK AO2 T10111056 $
94299KAAT AAT20160131134512201/31/16 13:45:31  5-MIN KAAT 312145Z AUTO 36009G17KT 10SM OVC070 M01/M06 A2976 4530 72 3700 350/09G17 RMK AO2 T10111056 $
94299KAAT AAT20160131135012901/31/16 13:50:31  5-MIN KAAT 312150Z AUTO 01012G17KT 10SM OVC070 M01/M06 A2976 4530 72 3700 350/12G17 RMK AO2 SLP100 T10111056 $
94299KAAT AAT20160131135512301/31/16 13:55:31  5-MIN KAAT 312155Z AUTO 01013KT 10SM OVC070 M01/M06 A2976 4530 72 3700 350/13 RMK AO2 SLP100 T10111056 $
94299KAAT AAT20160131140011601/31/16 14:00:31  5-MIN KAAT 312200Z AUTO 01012KT 10SM OVC065 M01/M06 A2976 4530 72 3700 360/12 RMK AO2 T10111056 $
94299KAAT AAT20160131140511601/31/16 14:05:31  5-MIN KAAT 312205Z AUTO 01012KT 10SM OVC065 M01/M06 A2976 4530 72 3700 350/12 RMK AO2 T10111056 $
94299KAAT AAT20160131141011601/31/16 14:10:31  5-MIN KAAT 312210Z AUTO 36013KT 10SM OVC065 M01/M06 A2976 4530 72 3700 350/13 RMK AO2 T10111056 $
94299KAAT AAT20160131141511601/31/16 14:15:31  5-MIN KAAT 312215Z AUTO 01014KT 10SM OVC065 M01/M06 A2976 4530 72 3700 350/14 RMK AO2 T10111056 $
94299KAAT AAT20160131142012201/31/16 14:20:31  5-MIN KAAT 312220Z AUTO 36011G19KT 10SM OVC065 M01/M06 A2976 4530 72 3700 350/11G19 RMK AO2 T10111056 $
94299KAAT AAT20160131142511601/31/16 14:25:31  5-MIN KAAT 312225Z AUTO 36010KT 10SM OVC065 M01/M05 A2976 4530 72 3800 340/10 RMK AO2 T10061050 $
94299KAAT AAT20160131143011601/31/16 14:30:31  5-MIN KAAT 312230Z AUTO 01013KT 10SM OVC060 M01/M06 A2976 4530 69 3800 350/13 RMK AO2 T10061056 $
94299KAAT AAT20160131143511601/31/16 14:35:31  5-MIN KAAT 312235Z AUTO 01010KT 10SM OVC060 M01/M06 A2976 4530 69 3800 350/10 RMK AO2 T10061056 $
94299KAAT AAT20160131144011601/31/16 14:40:31  5-MIN KAAT 312240Z AUTO 02013KT 10SM OVC060 M01/M05 A2977 4520 72 3800 360/13 RMK AO2 T10061050 $
94299KAAT AAT20160131144512901/31/16 14:45:31  5-MIN KAAT 312245Z AUTO 02014G20KT 10SM FEW049 OVC060 M01/M06 A2977 4520 69 3800 360/14G20 RMK AO2 T10061056 $
94299KAAT AAT20160131145013601/31/16 14:50:31  5-MIN KAAT 312250Z AUTO 01015G21KT 10SM BKN055 OVC070 M01/M06 A2977 4520 69 3700 350/15G21 RMK AO2 SLP107 T10111061 $
94299KAAT AAT20160131145514301/31/16 14:55:31  5-MIN KAAT 312255Z AUTO 36013G21KT 10SM BKN047 BKN060 OVC075 M01/M06 A2977 4520 69 3700 350/13G21 RMK AO2 SLP107 T10111061 $
94299KAAT AAT20160131150013601/31/16 15:00:31  5-MIN KAAT 312300Z AUTO 01012G21KT 10SM SCT041 BKN055 OVC075 M01/M06 A2977 4520 69 3700 350/12G21 RMK AO2 T10111061 $
94299KAAT AAT20160131150513001/31/16 15:05:31  5-MIN KAAT 312305Z AUTO 01012KT 10SM SCT039 BKN050 OVC070 M01/M06 A2977 4520 66 3800 350/12 RMK AO2 T10061061 $
94299KAAT AAT20160131151013601/31/16 15:10:31  5-MIN KAAT 312310Z AUTO 01016G23KT 10SM BKN038 BKN048 OVC075 M01/M06 A2977 4520 66 3800 360/16G23 RMK AO2 T10061061 $
94299KAAT AAT20160131151512901/31/16 15:15:31  5-MIN KAAT 312315Z AUTO 01015G23KT 10SM BKN040 OVC075 M01/M06 A2977 4520 66 3800 360/15G23 RMK AO2 T10061061 $
94299KAAT AAT20160131152013601/31/16 15:20:31  5-MIN KAAT 312320Z AUTO 01011G20KT 10SM SCT031 BKN042 OVC075 M01/M06 A2977 4520 69 3700 360/11G20 RMK AO2 T10111061 $
94299KAAT AAT20160131152513001/31/16 15:25:31  5-MIN KAAT 312325Z AUTO 01011KT 10SM SCT031 BKN045 OVC100 M01/M06 A2977 4520 66 3800 360/11 RMK AO2 T10061061 $
94299KAAT AAT20160131153013601/31/16 15:30:31  5-MIN KAAT 312330Z AUTO 01015G21KT 10SM SCT034 SCT044 OVC100 M01/M06 A2978 4510 69 3700 350/15G21 RMK AO2 T10111061 $
94299KAAT AAT20160131153513601/31/16 15:35:31  5-MIN KAAT 312335Z AUTO 01009G21KT 10SM FEW032 SCT043 OVC100 M01/M06 A2978 4510 66 3800 360/09G21 RMK AO2 T10061061 $
94299KAAT AAT20160131154013001/31/16 15:40:31  5-MIN KAAT 312340Z AUTO 01012KT 10SM FEW031 SCT046 OVC100 M01/M06 A2978 4510 66 3800 360/12 RMK AO2 T10061061 $
94299KAAT AAT20160131154513601/31/16 15:45:31  5-MIN KAAT 312345Z AUTO 02011G20KT 10SM FEW025 SCT055 OVC100 M01/M06 A2978 4510 66 3800 360/11G20 RMK AO2 T10061061 $
94299KAAT AAT20160131155016101/31/16 15:50:31  5-MIN KAAT 312350Z AUTO 02016G20KT 10SM FEW046 SCT055 OVC100 M01/M07 A2978 4510 63 3800 360/16G20 RMK AO2 SLP106 T10061067 11006 21022 58013 $
94299KAAT AAT20160131155516101/31/16 15:55:31  5-MIN KAAT 312355Z AUTO 01010G20KT 10SM FEW046 SCT055 OVC100 M01/M06 A2978 4510 69 3700 360/10G20 RMK AO2 SLP109 T10111061 11006 21022 53002 $
94299KAAT AAT20160131160013001/31/16 16:00:31  5-MIN KAAT 010000Z AUTO 02012KT 10SM FEW047 SCT055 OVC100 M01/M06 A2979 4510 69 3700 010/12 RMK AO2 T10111061 $
94299KAAT AAT20160131160512901/31/16 16:05:31  5-MIN KAAT 010005Z AUTO 02014G22KT 10SM FEW055 OVC100 M01/M06 A2979 4500 69 3700 360/14G22 RMK AO2 T10111061 $
94299KAAT AAT20160131161013601/31/16 16:10:31  5-MIN KAAT 010010Z AUTO 01014G22KT 10SM FEW049 SCT055 OVC100 M01/M06 A2979 4500 69 3700 360/14G22 RMK AO2 T10111061 $
94299KAAT AAT20160131161512901/31/16 16:15:31  5-MIN KAAT 010015Z AUTO 02011G19KT 10SM BKN055 OVC100 M01/M06 A2979 4500 69 3700 360/11G19 RMK AO2 T10111061 $
94299KAAT AAT20160131162012901/31/16 16:20:31  5-MIN KAAT 010020Z AUTO 02012G18KT 10SM BKN055 OVC100 M01/M06 A2980 4500 69 3700 010/12G18 RMK AO2 T10061056 $
94299KAAT AAT20160131162512901/31/16 16:25:31  5-MIN KAAT 010025Z AUTO 04012G18KT 10SM BKN055 OVC100 M01/M06 A2980 4490 66 3700 020/12G18 RMK AO2 T10061061 $
94299KAAT AAT20160131163015201/31/16 16:30:31  5-MIN KAAT 010030Z AUTO 02014G19KT 10SM -SN BKN050 BKN060 OVC100 M01/M06 A2980 4490 72 3700 010/14G19 RMK AO2 SNB28 P0000 T10111056 $
94299KAAT AAT20160131163514401/31/16 16:35:31  5-MIN KAAT 010035Z AUTO 02010G19KT 9SM -SN BKN050 OVC060 M01/M06 A2980 4490 66 3700 360/10G19 RMK AO2 SNB28 P0000 T10061061 $
94299KAAT AAT20160131164013001/31/16 16:40:31  5-MIN KAAT 010040Z AUTO 02010KT 9SM OVC055 M01/M06 A2980 4490 69 3700 360/10 RMK AO2 SNB28E37 P0000 T10111061 $
94299KAAT AAT20160131164514501/31/16 16:45:31  5-MIN KAAT 010045Z AUTO 01011KT 10SM SCT050 BKN060 OVC100 M01/M06 A2981 4490 69 3700 350/11 RMK AO2 SNB28E37 P0000 T10111061 $
94299KAAT AAT20160131165015201/31/16 16:50:31  5-MIN KAAT 010050Z AUTO 01011KT 10SM FEW050 BKN060 OVC095 M02/M07 A2981 4490 69 3600 350/11 RMK AO2 SNB28E37 SLP118 P0000 T10171067 $
94299KAAT AAT20160131165515201/31/16 16:55:31  5-MIN KAAT 010055Z AUTO 01011KT 10SM FEW050 SCT060 OVC090 M02/M07 A2981 4480 69 3600 350/11 RMK AO2 SNB28E37 SLP119 P0000 T10171067 $
94299KAAT AAT20160131170012301/31/16 17:00:31  5-MIN KAAT 010100Z AUTO 36013KT 10SM SCT060 BKN090 M02/M07 A2981 4480 69 3600 350/13 RMK AO2 T10171067 $
94299KAAT AAT20160131170513001/31/16 17:05:31  5-MIN KAAT 010105Z AUTO 36012KT 10SM SCT060 BKN090 BKN120 M02/M07 A2982 4480 69 3600 350/12 RMK AO2 T10171067 $
94299KAAT AAT20160131171012301/31/16 17:10:31  5-MIN KAAT 010110Z AUTO 01011KT 10SM SCT060 BKN090 M02/M07 A2982 4480 69 3600 350/11 RMK AO2 T10171067 $
94299KAAT AAT20160131171513601/31/16 17:15:31  5-MIN KAAT 010115Z AUTO 01013G18KT 10SM SCT060 BKN090 BKN120 M02/M06 A2982 4480 72 3600 350/13G18 RMK AO2 T10171061 $
94299KAAT AAT20160131172013601/31/16 17:20:31  5-MIN KAAT 010120Z AUTO 36011G19KT 10SM BKN060 BKN090 BKN120 M02/M06 A2982 4470 75 3500 350/11G19 RMK AO2 T10221061 $
94299KAAT AAT20160131172512901/31/16 17:25:31  5-MIN KAAT 010125Z AUTO 36014G19KT 10SM BKN060 BKN120 M02/M06 A2982 4470 75 3500 350/14G19 RMK AO2 T10221061 $
94299KAAT AAT20160131173012201/31/16 17:30:31  5-MIN KAAT 010130Z AUTO 01015G19KT 10SM OVC060 M02/M06 A2983 4470 75 3600 360/15G19 RMK AO2 T10171056 $
94299KAAT AAT20160131173511601/31/16 17:35:31  5-MIN KAAT 010135Z AUTO 01013KT 10SM OVC060 M02/M06 A2983 4470 78 3500 350/13 RMK AO2 T10221056 $
94299KAAT AAT20160131174012201/31/16 17:40:31  5-MIN KAAT 010140Z AUTO 36013G23KT 10SM OVC060 M02/M06 A2983 4470 75 3500 350/13G23 RMK AO2 T10221061 $
94299KAAT AAT20160131174512201/31/16 17:45:31  5-MIN KAAT 010145Z AUTO 36010G23KT 10SM BKN065 M02/M06 A2983 4460 75 3500 350/10G23 RMK AO2 T10221061 $
94299KAAT AAT20160131175012301/31/16 17:50:31  5-MIN KAAT 010150Z AUTO 01011KT 10SM BKN060 M02/M06 A2983 4460 75 3500 350/11 RMK AO2 SLP126 T10221061 $
94299KAAT AAT20160131175511301/31/16 17:55:31  5-MIN KAAT 010155Z AUTO 10SM SCT065 M03/M07 A2983 4460 75 3400 M /M RMK AO2 SLP127 T10281067 $
94299KAAT AAT20160131180011601/31/16 18:00:31  5-MIN KAAT 010200Z AUTO 01010KT 10SM SCT060 M03/M07 A2984 4460 75 3400 360/10 RMK AO2 T10281067 $
94299KAAT AAT20160131180511601/31/16 18:05:31  5-MIN KAAT 010205Z AUTO 01008KT 10SM SCT060 M03/M07 A2984 4460 75 3400 350/08 RMK AO2 T10281067 $
94299KAAT AAT20160131181011601/31/16 18:10:31  5-MIN KAAT 010210Z AUTO 01008KT 10SM FEW060 M03/M07 A2984 4460 75 3400 350/08 RMK AO2 T10281067 $
94299KAAT AAT20160131181511601/31/16 18:15:31  5-MIN KAAT 010215Z AUTO 36007KT 10SM FEW060 M03/M07 A2984 4450 78 3300 340/07 RMK AO2 T10331067 $
94299KAAT AAT20160131182011601/31/16 18:20:31  5-MIN KAAT 010220Z AUTO 36009KT 10SM FEW060 M03/M07 A2984 4450 75 3400 340/09 RMK AO2 T10281067 $
94299KAAT AAT20160131182511601/31/16 18:25:31  5-MIN KAAT 010225Z AUTO 36009KT 10SM FEW060 M03/M07 A2985 4450 75 3400 340/09 RMK AO2 T10281067 $
94299KAAT AAT20160131183012301/31/16 18:30:31  5-MIN KAAT 010230Z AUTO 36010KT 10SM FEW060 FEW120 M03/M07 A2985 4450 75 3400 350/10 RMK AO2 T10281067 $
94299KAAT AAT20160131183512301/31/16 18:35:31  5-MIN KAAT 010235Z AUTO 36010KT 10SM FEW060 FEW120 M03/M07 A2985 4440 74 3300 340/10 RMK AO2 T10331072 $
94299KAAT AAT20160131184011601/31/16 18:40:31  5-MIN KAAT 010240Z AUTO 36010KT 10SM FEW060 M03/M07 A2985 4440 71 3400 340/10 RMK AO2 T10281072 $
94299KAAT AAT20160131184511601/31/16 18:45:31  5-MIN KAAT 010245Z AUTO 01011KT 10SM SCT060 M03/M07 A2986 4440 74 3300 350/11 RMK AO2 T10331072 $
94299KAAT AAT20160131185013501/31/16 18:50:31  5-MIN KAAT 010250Z AUTO 36010KT 10SM BKN060 M03/M07 A2986 4440 71 3400 350/10 RMK AO2 SLP135 60000 T10281072 53002 $
94299KAAT AAT20160131185513501/31/16 18:55:31  5-MIN KAAT 010255Z AUTO 35011KT 10SM BKN060 M03/M07 A2986 4440 71 3400 340/11 RMK AO2 SLP136 60000 T10281072 51023 $
94299KAAT AAT20160131190011601/31/16 19:00:31  5-MIN KAAT 010300Z AUTO 36008KT 10SM BKN060 M03/M07 A2986 4440 74 3300 350/08 RMK AO2 T10331072 $
94299KAAT AAT20160131190511601/31/16 19:05:31  5-MIN KAAT 010305Z AUTO 36008KT 10SM OVC060 M03/M07 A2986 4440 74 3300 350/08 RMK AO2 T10331072 $
94299KAAT AAT20160131191011601/31/16 19:10:31  5-MIN KAAT 010310Z AUTO 36008KT 10SM OVC060 M03/M07 A2986 4430 74 3300 350/08 RMK AO2 T10331072 $
94299KAAT AAT20160131191511601/31/16 19:15:31  5-MIN KAAT 010315Z AUTO 36008KT 10SM BKN060 M03/M07 A2987 4430 74 3300 350/08 RMK AO2 T10331072 $
94299KAAT AAT20160131192011601/31/16 19:20:31  5-MIN KAAT 010320Z AUTO 36007KT 10SM BKN060 M04/M07 A2987 4430 78 3200 350/07 RMK AO2 T10391072 $
94299KAAT AAT20160131192511601/31/16 19:25:31  5-MIN KAAT 010325Z AUTO 01008KT 10SM SCT060 M04/M07 A2987 4430 78 3200 350/08 RMK AO2 T10391072 $
94299KAAT AAT20160131193011601/31/16 19:30:31  5-MIN KAAT 010330Z AUTO 01008KT 10SM BKN060 M03/M07 A2987 4430 74 3300 360/08 RMK AO2 T10331072 $
94299KAAT AAT20160131193511601/31/16 19:35:31  5-MIN KAAT 010335Z AUTO 01008KT 10SM BKN055 M03/M07 A2987 4420 74 3300 360/08 RMK AO2 T10331072 $
94299KAAT AAT20160131194011601/31/16 19:40:31  5-MIN KAAT 010340Z AUTO 01007KT 10SM SCT055 M04/M07 A2988 4420 78 3200 350/07 RMK AO2 T10391072 $
94299KAAT AAT20160131194511601/31/16 19:45:31  5-MIN KAAT 010345Z AUTO 36005KT 10SM SCT055 M04/M07 A2988 4420 78 3200 350/05 RMK AO2 T10391072 $
94299KAAT AAT20160131195012301/31/16 19:50:31  5-MIN KAAT 010350Z AUTO 36005KT 10SM BKN055 M04/M08 A2988 4420 74 3200 350/05 RMK AO2 SLP145 T10391078 $
94299KAAT AAT20160131195512301/31/16 19:55:31  5-MIN KAAT 010355Z AUTO 35008KT 10SM BKN055 M04/M08 A2988 4420 74 3200 340/08 RMK AO2 SLP145 T10391078 $
94299KAAT AAT20160131200011601/31/16 20:00:31  5-MIN KAAT 010400Z AUTO 36009KT 10SM BKN055 M04/M08 A2988 4420 74 3200 340/09 RMK AO2 T10391078 $
94299KAAT AAT20160131200511601/31/16 20:05:31  5-MIN KAAT 010405Z AUTO 35007KT 10SM SCT055 M04/M08 A2988 4420 74 3200 340/07 RMK AO2 T10391078 $
94299KAAT AAT20160131201011601/31/16 20:10:31  5-MIN KAAT 010410Z AUTO 35008KT 10SM SCT055 M04/M08 A2988 4420 74 3200 330/08 RMK AO2 T10391078 $
94299KAAT AAT20160131201511601/31/16 20:15:31  5-MIN KAAT 010415Z AUTO 34009KT 10SM FEW055 M04/M08 A2988 4420 74 3200 330/09 RMK AO2 T10391078 $
94299KAAT AAT20160131202011601/31/16 20:20:31  5-MIN KAAT 010420Z AUTO 35007KT 10SM FEW055 M04/M08 A2988 4420 78 3200 340/07 RMK AO2 T10441078 $
94299KAAT AAT20160131202511301/31/16 20:25:31  5-MIN KAAT 010425Z AUTO 35008KT 10SM CLR M04/M08 A2988 4410 74 3200 340/08 RMK AO2 T10391078 $
94299KAAT AAT20160131203011301/31/16 20:30:31  5-MIN KAAT 010430Z AUTO 34006KT 10SM CLR M04/M08 A2989 4410 78 3200 330/06 RMK AO2 T10441078 $
94299KAAT AAT20160131203511301/31/16 20:35:31  5-MIN KAAT 010435Z AUTO 34007KT 10SM CLR M04/M08 A2989 4410 78 3100 330/07 RMK AO2 T10441078 $
94299KAAT AAT20160131204011301/31/16 20:40:31  5-MIN KAAT 010440Z AUTO 35006KT 10SM CLR M05/M08 A2989 4410 81 3100 330/06 RMK AO2 T10501078 $
94299KAAT AAT20160131204511301/31/16 20:45:31  5-MIN KAAT 010445Z AUTO 36007KT 10SM CLR M04/M08 A2989 4410 78 3100 340/07 RMK AO2 T10441078 $
94299KAAT AAT20160131205012001/31/16 20:50:31  5-MIN KAAT 010450Z AUTO 35007KT 10SM CLR M04/M08 A2989 4410 78 3100 330/07 RMK AO2 SLP149 T10441078 $
94299KAAT AAT20160131205512001/31/16 20:55:31  5-MIN KAAT 010455Z AUTO 35006KT 10SM CLR M04/M08 A2989 4410 78 3100 340/06 RMK AO2 SLP149 T10441078 $
94299KAAT AAT20160131210011301/31/16 21:00:31  5-MIN KAAT 010500Z AUTO 35007KT 10SM CLR M05/M08 A2989 4410 77 3100 330/07 RMK AO2 T10501083 $
94299KAAT AAT20160131210511301/31/16 21:05:31  5-MIN KAAT 010505Z AUTO 32007KT 10SM CLR M05/M08 A2989 4410 77 3100 310/07 RMK AO2 T10501083 $
94299KAAT AAT20160131211011301/31/16 21:10:31  5-MIN KAAT 010510Z AUTO 33009KT 10SM CLR M06/M09 A2989 4410 81 2900 320/09 RMK AO2 T10611089 $
94299KAAT AAT20160131211511301/31/16 21:15:31  5-MIN KAAT 010515Z AUTO 34008KT 10SM CLR M05/M08 A2990 4400 81 3100 330/08 RMK AO2 T10501078 $
94299KAAT AAT20160131212011301/31/16 21:20:31  5-MIN KAAT 010520Z AUTO 34007KT 10SM CLR M05/M08 A2990 4400 81 3100 320/07 RMK AO2 T10501078 $
94299KAAT AAT20160131212511301/31/16 21:25:31  5-MIN KAAT 010525Z AUTO 34008KT 10SM CLR M05/M08 A2990 4400 81 3100 320/08 RMK AO2 T10501078 $
94299KAAT AAT20160131213011301/31/16 21:30:31  5-MIN KAAT 010530Z AUTO 34009KT 10SM CLR M05/M08 A2990 4400 77 3100 330/09 RMK AO2 T10501083 $
94299KAAT AAT20160131213510301/31/16 21:35:31  5-MIN KAAT 010535Z AUTO 10SM CLR M04/M08 A2990 4400 74 3100 M /M RMK AO2 T10441083 $
94299KAAT AAT20160131214010301/31/16 21:40:31  5-MIN KAAT 010540Z AUTO 10SM CLR M04/M08 A2990 4400 74 3100 M /M RMK AO2 T10441083 $
94299KAAT AAT20160131214510301/31/16 21:45:31  5-MIN KAAT 010545Z AUTO 10SM CLR M04/M08 A2991 4390 74 3100 M /M RMK AO2 T10441083 $
94299KAAT AAT20160131215014401/31/16 21:50:31  5-MIN KAAT 010550Z AUTO 35007KT 10SM CLR M04/M08 A2991 4390 74 3100 330/07 RMK AO2 SLP153 60000 T10441083 11006 21061 51023 $
94299KAAT AAT20160131215514401/31/16 21:55:31  5-MIN KAAT 010555Z AUTO 35008KT 10SM CLR M05/M08 A2991 4390 77 3100 330/08 RMK AO2 SLP155 60000 T10501083 11006 21061 53016 $
94299KAAT AAT20160131220011301/31/16 22:00:31  5-MIN KAAT 010600Z AUTO 34008KT 10SM CLR M05/M08 A2991 4390 77 3000 330/08 RMK AO2 T10501083 $
94299KAAT AAT20160131220511301/31/16 22:05:31  5-MIN KAAT 010605Z AUTO 34010KT 10SM CLR M05/M08 A2992 4390 77 3000 330/10 RMK AO2 T10501083 $
94299KAAT AAT20160131221011301/31/16 22:10:31  5-MIN KAAT 010610Z AUTO 35011KT 10SM CLR M04/M08 A2992 4390 74 3100 330/11 RMK AO2 T10441083 $
94299KAAT AAT20160131221511301/31/16 22:15:31  5-MIN KAAT 010615Z AUTO 35007KT 10SM CLR M04/M08 A2992 4380 74 3100 340/07 RMK AO2 T10441083 $
94299KAAT AAT20160131222011301/31/16 22:20:31  5-MIN KAAT 010620Z AUTO 36008KT 10SM CLR M04/M08 A2992 4380 74 3100 350/08 RMK AO2 T10441083 $
94299KAAT AAT20160131222511301/31/16 22:25:31  5-MIN KAAT 010625Z AUTO 36009KT 10SM CLR M05/M09 A2992 4380 74 3000 350/09 RMK AO2 T10501089 $
94299KAAT AAT20160131223011301/31/16 22:30:31  5-MIN KAAT 010630Z AUTO 36009KT 10SM CLR M04/M08 A2992 4380 74 3100 340/09 RMK AO2 T10441083 $
94299KAAT AAT20160131223511301/31/16 22:35:31  5-MIN KAAT 010635Z AUTO 36008KT 10SM CLR M04/M08 A2992 4380 74 3100 340/08 RMK AO2 T10441083 $
94299KAAT AAT20160131224011301/31/16 22:40:31  5-MIN KAAT 010640Z AUTO 36009KT 10SM CLR M04/M08 A2992 4380 74 3100 350/09 RMK AO2 T10441083 $
94299KAAT AAT20160131224511301/31/16 22:45:31  5-MIN KAAT 010645Z AUTO 36011KT 10SM CLR M04/M08 A2993 4380 74 3100 350/11 RMK AO2 T10441083 $
94299KAAT AAT20160131225012001/31/16 22:50:31  5-MIN KAAT 010650Z AUTO 36008KT 10SM CLR M04/M09 A2993 4370 71 3100 350/08 RMK AO2 SLP158 T10441089 $
94299KAAT AAT20160131225512001/31/16 22:55:31  5-MIN KAAT 010655Z AUTO 36010KT 10SM CLR M04/M09 A2993 4370 71 3100 340/10 RMK AO2 SLP158 T10441089 $
94299KAAT AAT20160131230011301/31/16 23:00:31  5-MIN KAAT 010700Z AUTO 01009KT 10SM CLR M05/M09 A2993 4370 74 3000 350/09 RMK AO2 T10501089 $
94299KAAT AAT20160131230511301/31/16 23:05:31  5-MIN KAAT 010705Z AUTO 01007KT 10SM CLR M05/M09 A2993 4370 74 3000 350/07 RMK AO2 T10501089 $
94299KAAT AAT20160131231011301/31/16 23:10:31  5-MIN KAAT 010710Z AUTO 36006KT 10SM CLR M05/M09 A2993 4370 74 3000 350/06 RMK AO2 T10501089 $
94299KAAT AAT20160131231511301/31/16 23:15:31  5-MIN KAAT 010715Z AUTO 36006KT 10SM CLR M06/M09 A2994 4370 77 3000 350/06 RMK AO2 T10561089 $
94299KAAT AAT20160131232011301/31/16 23:20:31  5-MIN KAAT 010720Z AUTO 35008KT 10SM CLR M05/M09 A2994 4360 74 3000 340/08 RMK AO2 T10501089 $
94299KAAT AAT20160131232511301/31/16 23:25:31  5-MIN KAAT 010725Z AUTO 34007KT 10SM CLR M05/M09 A2994 4360 74 3000 330/07 RMK AO2 T10501089 $
94299KAAT AAT20160131233011301/31/16 23:30:31  5-MIN KAAT 010730Z AUTO 34006KT 10SM CLR M05/M09 A2994 4360 74 3000 330/06 RMK AO2 T10501089 $
94299KAAT AAT20160131233511301/31/16 23:35:31  5-MIN KAAT 010735Z AUTO 34005KT 10SM CLR M06/M09 A2994 4360 74 2900 330/05 RMK AO2 T10561094 $
94299KAAT AAT20160131234011301/31/16 23:40:31  5-MIN KAAT 010740Z AUTO 34005KT 10SM CLR M06/M09 A2995 4360 74 2900 330/05 RMK AO2 T10561094 $
94299KAAT AAT20160131234511301/31/16 23:45:31  5-MIN KAAT 010745Z AUTO 34004KT 10SM CLR M06/M09 A2995 4360 77 2900 330/04 RMK AO2 T10611094 $
94299KAAT AAT20160131235013001/31/16 23:50:31  5-MIN KAAT 010750Z AUTO 33003KT 10SM CLR M06/M09 A2995 4350 77 2900 320/03 RMK AO2 SLP167 T10611094 410061072 $
94299KAAT AAT20160131235513001/31/16 23:55:31  5-MIN KAAT 010755Z AUTO 32004KT 10SM CLR M07/M09 A2995 4350 81 2800 300/04 RMK AO2 SLP170 T10671094 410061072 $
