13873KAHN AHN20160503044512505/03/16 04:45:31  5-MIN KAHN 030945Z AUTO 00000KT 10SM BKN027 OVC038 19/18 A2988 850 93 1500 000/00 RMK AO2 SLP111 T01890178
13873KAHN AHN20160503045012505/03/16 04:50:31  5-MIN KAHN 030950Z AUTO 00000KT 10SM BKN027 OVC038 19/18 A2987 850 93 1500 000/00 RMK AO2 SLP111 T01890178
13873KAHN AHN20160503045512505/03/16 04:55:31  5-MIN KAHN 030955Z AUTO 25003KT 10SM BKN025 BKN030 OVC060 18/18 A2987 850 96 1500 260/03 RMK AO2 T01830178
13873KAHN AHN20160503050012505/03/16 05:00:31  5-MIN KAHN 031000Z AUTO 00000KT 10SM SCT025 BKN038 OVC065 18/18 A2987 850 96 1500 000/00 RMK AO2 T01830178
13873KAHN AHN20160503050512505/03/16 05:05:31  5-MIN KAHN 031005Z AUTO 25003KT 10SM BKN025 BKN038 OVC065 18/18 A2987 850 96 1500 260/03 RMK AO2 T01830178
13873KAHN AHN20160503051012505/03/16 05:10:31  5-MIN KAHN 031010Z AUTO 00000KT 10SM BKN025 BKN038 OVC065 18/18 A2987 850 96 1500 000/00 RMK AO2 T01830178
13873KAHN AHN20160503051511805/03/16 05:15:31  5-MIN KAHN 031015Z AUTO 00000KT 10SM BKN023 OVC065 18/18 A2987 850 96 1500 000/00 RMK AO2 T01830178
13873KAHN AHN20160503052011805/03/16 05:20:31  5-MIN KAHN 031020Z AUTO 22003KT 10SM SCT023 BKN065 18/18 A2987 850 96 1500 230/03 RMK AO2 T01830178
13873KAHN AHN20160503052511805/03/16 05:25:31  5-MIN KAHN 031025Z AUTO 00000KT 10SM SCT023 BKN065 18/18 A2988 850 96 1500 000/00 RMK AO2 T01830178
13873KAHN AHN20160503053011905/03/16 05:30:31  5-MIN KAHN 031030Z AUTO 00000KT 10SM SCT023 SCT065 18/18 A2987 850 100 1400 000/00 RMK AO2 T01780178
13873KAHN AHN20160503053511805/03/16 05:35:31  5-MIN KAHN 031035Z AUTO 00000KT 10SM SCT023 SCT065 18/17 A2987 850 96 1400 000/00 RMK AO2 T01780172
13873KAHN AHN20160503054011805/03/16 05:40:31  5-MIN KAHN 031040Z AUTO 00000KT 10SM FEW021 FEW065 18/17 A2987 850 96 1400 000/00 RMK AO2 T01780172
13873KAHN AHN20160503054511805/03/16 05:45:31  5-MIN KAHN 031045Z AUTO 00000KT 10SM FEW021 18/17 A2988 850 96 1400 000/00 RMK AO2 SLP111 T01780172
13873KAHN AHN20160503055011505/03/16 05:50:31  5-MIN KAHN 031050Z AUTO 00000KT 10SM CLR 18/17 A2988 850 96 1400 000/00 RMK AO2 SLP111 T01780172
13873KAHN AHN20160503055510805/03/16 05:55:31  5-MIN KAHN 031055Z AUTO 00000KT 10SM CLR 18/17 A2988 850 96 1400 000/00 RMK AO2 T01780172
13873KAHN AHN20160503060010805/03/16 06:00:31  5-MIN KAHN 031100Z AUTO 00000KT 10SM CLR 18/17 A2988 850 96 1400 000/00 RMK AO2 T01780172
13873KAHN AHN20160503060510805/03/16 06:05:31  5-MIN KAHN 031105Z AUTO 00000KT 10SM CLR 18/17 A2988 850 96 1400 000/00 RMK AO2 T01780172
13873KAHN AHN20160503061011205/03/16 06:10:31  5-MIN KAHN 031110Z AUTO 25003KT 10SM FEW065 18/18 A2988 840 100 1400 250/03 RMK AO2 T01780178
13873KAHN AHN20160503061511205/03/16 06:15:31  5-MIN KAHN 031115Z AUTO 25003KT 10SM FEW070 18/18 A2989 840 100 1400 250/03 RMK AO2 T01780178
13873KAHN AHN20160503062011205/03/16 06:20:31  5-MIN KAHN 031120Z AUTO 23003KT 10SM FEW070 18/18 A2989 840 100 1400 240/03 RMK AO2 T01780178
13873KAHN AHN20160503062511105/03/16 06:25:31  5-MIN KAHN 031125Z AUTO 23003KT 10SM FEW070 18/18 A2989 840 96 1500 240/03 RMK AO2 T01830178
13873KAHN AHN20160503063011105/03/16 06:30:31  5-MIN KAHN 031130Z AUTO 23003KT 10SM FEW070 18/18 A2989 840 96 1500 240/03 RMK AO2 T01830178
13873KAHN AHN20160503063511105/03/16 06:35:31  5-MIN KAHN 031135Z AUTO 23003KT 10SM FEW070 18/18 A2989 840 96 1500 240/03 RMK AO2 T01830178
13873KAHN AHN20160503064010605/03/16 06:40:31  5-MIN KAHN 031140Z 24003KT 10SM FEW070 18/18 A2989 840 96 1500 250/03 RMK AO2 T01830178
13873KAHN AHN20160503064513705/03/16 06:45:31  5-MIN KAHN 031145Z 26003KT 10SM SCT070 19/18 A2990 830 97 1500 260/03 RMK AO2 SLP118 60000 T01890183 10194 20178 55007
13873KAHN AHN20160503065014405/03/16 06:50:31  5-MIN KAHN 031150Z 26003KT 10SM FEW018 SCT070 19/18 A2990 830 97 1500 270/03 RMK AO2 SLP120 60000 T01890183 10194 20178 55007
13873KAHN AHN20160503065511305/03/16 06:55:31  5-MIN KAHN 031155Z 00000KT 10SM SCT018 BKN070 19/18 A2990 830 97 1500 000/00 RMK AO2 T01890183
13873KAHN AHN20160503070011305/03/16 07:00:31  5-MIN KAHN 031200Z 00000KT 10SM SCT018 BKN070 19/18 A2990 830 97 1500 000/00 RMK AO2 T01890183
13873KAHN AHN20160503070512005/03/16 07:05:31  5-MIN KAHN 031205Z 00000KT 10SM FEW018 SCT055 BKN070 19/18 A2990 830 97 1500 000/00 RMK AO2 T01890183
13873KAHN AHN20160503071012005/03/16 07:10:31  5-MIN KAHN 031210Z 00000KT 10SM FEW018 FEW055 OVC070 19/18 A2989 840 97 1500 000/00 RMK AO2 T01890183
13873KAHN AHN20160503071511305/03/16 07:15:31  5-MIN KAHN 031215Z 27004KT 10SM FEW018 BKN070 19/18 A2989 830 97 1500 270/04 RMK AO2 T01890183
13873KAHN AHN20160503072011305/03/16 07:20:31  5-MIN KAHN 031220Z VRB03KT 10SM FEW018 SCT070 20/18 A2990 830 90 1600 VRB/03 RMK AO2 T02000183
13873KAHN AHN20160503072510605/03/16 07:25:31  5-MIN KAHN 031225Z 23004KT 10SM SCT070 19/18 A2989 830 93 1600 240/04 RMK AO2 T01940183
13873KAHN AHN20160503073011305/03/16 07:30:31  5-MIN KAHN 031230Z 26003KT 10SM FEW009 SCT070 20/18 A2990 830 90 1600 270/03 RMK AO2 T02000183
13873KAHN AHN20160503073511305/03/16 07:35:31  5-MIN KAHN 031235Z VRB04KT 10SM FEW009 FEW070 21/18 A2990 830 87 1700 VRB/04 RMK AO2 T02060183
13873KAHN AHN20160503074011305/03/16 07:40:31  5-MIN KAHN 031240Z VRB03KT 10SM FEW009 FEW050 21/19 A2990 830 90 1700 VRB/03 RMK AO2 T02060189
13873KAHN AHN20160503074512005/03/16 07:45:31  5-MIN KAHN 031245Z VRB04KT 10SM FEW009 SCT055 21/19 A2990 830 87 1800 VRB/04 RMK AO2 SLP118 T02110189
13873KAHN AHN20160503075012005/03/16 07:50:31  5-MIN KAHN 031250Z 22004KT 10SM FEW009 BKN055 21/19 A2989 830 87 1800 230/04 RMK AO2 SLP117 T02110189
13873KAHN AHN20160503075511305/03/16 07:55:31  5-MIN KAHN 031255Z 23005KT 10SM FEW009 BKN060 21/18 A2990 830 84 1800 240/05 RMK AO2 T02110183
13873KAHN AHN20160503080011305/03/16 08:00:31  5-MIN KAHN 031300Z VRB03KT 10SM FEW009 BKN060 21/18 A2990 830 84 1800 VRB/03 RMK AO2 T02110183
13873KAHN AHN20160503080510605/03/16 08:05:31  5-MIN KAHN 031305Z VRB04KT 10SM BKN060 21/18 A2989 830 84 1800 VRB/04 RMK AO2 T02110183
13873KAHN AHN20160503081012005/03/16 08:10:31  5-MIN KAHN 031310Z 24003KT 10SM FEW012 BKN060 BKN110 21/18 A2989 840 87 1700 250/03 RMK AO2 T02060183
13873KAHN AHN20160503081512005/03/16 08:15:31  5-MIN KAHN 031315Z VRB04KT 10SM FEW012 BKN060 BKN110 21/18 A2989 840 84 1800 VRB/04 RMK AO2 T02110183
13873KAHN AHN20160503082012005/03/16 08:20:31  5-MIN KAHN 031320Z VRB05KT 10SM FEW013 BKN065 BKN110 22/18 A2990 830 81 1800 VRB/05 RMK AO2 T02170183
13873KAHN AHN20160503082512005/03/16 08:25:31  5-MIN KAHN 031325Z VRB05KT 10SM SCT013 BKN065 BKN110 22/18 A2990 830 81 1800 VRB/05 RMK AO2 T02170183
13873KAHN AHN20160503083012005/03/16 08:30:31  5-MIN KAHN 031330Z VRB04KT 10SM SCT015 BKN060 BKN110 22/18 A2990 830 81 1800 VRB/04 RMK AO2 T02170183
13873KAHN AHN20160503083512005/03/16 08:35:31  5-MIN KAHN 031335Z VRB04KT 10SM SCT015 BKN060 BKN110 22/18 A2989 840 81 1800 VRB/04 RMK AO2 T02170183
13873KAHN AHN20160503084011305/03/16 08:40:31  5-MIN KAHN 031340Z VRB04KT 10SM SCT015 BKN060 22/18 A2989 840 81 1900 VRB/04 RMK AO2 T02170183
13873KAHN AHN20160503084512005/03/16 08:45:31  5-MIN KAHN 031345Z VRB03KT 10SM SCT015 SCT060 22/18 A2988 840 78 1900 VRB/03 RMK AO2 SLP113 T02220183
13873KAHN AHN20160503085012005/03/16 08:50:31  5-MIN KAHN 031350Z VRB03KT 10SM SCT015 SCT060 23/18 A2989 840 76 2000 VRB/03 RMK AO2 SLP114 T02280183
13873KAHN AHN20160503085510605/03/16 08:55:31  5-MIN KAHN 031355Z 24005KT 10SM SCT015 22/18 A2989 840 78 1900 240/05 RMK AO2 T02220183
13873KAHN AHN20160503090010605/03/16 09:00:31  5-MIN KAHN 031400Z 25003KT 10SM SCT015 22/18 A2989 840 81 1800 260/03 RMK AO2 T02170183
13873KAHN AHN20160503090510605/03/16 09:05:31  5-MIN KAHN 031405Z VRB04KT 10SM SCT015 22/18 A2990 830 78 1900 VRB/04 RMK AO2 T02220183
13873KAHN AHN20160503091011305/03/16 09:10:31  5-MIN KAHN 031410Z 25005KT 10SM SCT016 SCT022 22/18 A2990 830 78 1900 250/05 RMK AO2 T02220183
13873KAHN AHN20160503091511305/03/16 09:15:31  5-MIN KAHN 031415Z 24005KT 10SM SCT016 SCT022 23/18 A2990 830 76 2000 250/05 RMK AO2 T02280183
13873KAHN AHN20160503092011305/03/16 09:20:31  5-MIN KAHN 031420Z 22006KT 10SM SCT016 SCT022 23/18 A2989 840 76 2000 230/06 RMK AO2 T02280183
13873KAHN AHN20160503092511305/03/16 09:25:31  5-MIN KAHN 031425Z VRB04KT 10SM SCT016 SCT024 23/18 A2989 840 76 2000 VRB/04 RMK AO2 T02280183
13873KAHN AHN20160503093010605/03/16 09:30:31  5-MIN KAHN 031430Z VRB05KT 10SM BKN020 23/18 A2989 840 73 2000 VRB/05 RMK AO2 T02330183
13873KAHN AHN20160503093510605/03/16 09:35:31  5-MIN KAHN 031435Z 29008KT 10SM BKN020 23/18 A2989 830 76 2000 290/08 RMK AO2 T02280183
13873KAHN AHN20160503094011305/03/16 09:40:31  5-MIN KAHN 031440Z 29009KT 10SM FEW017 BKN024 23/18 A2990 830 70 2000 300/09 RMK AO2 T02330178
13873KAHN AHN20160503094513305/03/16 09:45:31  5-MIN KAHN 031445Z 28008KT 10SM FEW017 BKN024 BKN029 23/18 A2990 830 70 2000 290/08 RMK AO2 SLP118 T02330178 53007
13873KAHN AHN20160503095013305/03/16 09:50:31  5-MIN KAHN 031450Z 28007KT 10SM FEW017 BKN024 BKN031 23/18 A2990 830 70 2000 290/07 RMK AO2 SLP118 T02330178 53007
13873KAHN AHN20160503095511905/03/16 09:55:31  5-MIN KAHN 031455Z 27010G15KT 10SM BKN024 BKN033 23/18 A2990 830 70 2000 270/10G15 RMK AO2 T02330178
13873KAHN AHN20160503100013505/03/16 10:00:31  5-MIN KAHN 031500Z 28007G15KT 240V310 10SM SCT024 BKN033 23/18 A2990 830 70 2000 290/07G15 250V320 RMK AO2 T02330178
13873KAHN AHN20160503100511905/03/16 10:05:31  5-MIN KAHN 031505Z 27009G16KT 10SM BKN025 BKN033 23/17 A2990 830 70 2000 270/09G16 RMK AO2 T02280172
13873KAHN AHN20160503101014205/03/16 10:10:31  5-MIN KAHN 031510Z 27007G16KT 250V310 10SM SCT027 BKN035 OVC048 23/17 A2990 830 70 2000 280/07G16 260V320 RMK AO2 T02280172
13873KAHN AHN20160503101512005/03/16 10:15:31  5-MIN KAHN 031515Z VRB06KT 10SM FEW027 BKN035 OVC045 23/17 A2990 830 70 2000 VRB/06 RMK AO2 T02280172
13873KAHN AHN20160503102013605/03/16 10:20:31  5-MIN KAHN 031520Z 28007KT 250V310 10SM FEW027 BKN035 OVC100 24/18 A2990 830 68 2100 280/07 260V320 RMK AO2 T02390178
13873KAHN AHN20160503102512005/03/16 10:25:31  5-MIN KAHN 031525Z 26007KT 10SM FEW025 BKN041 OVC100 24/18 A2990 830 68 2100 260/07 RMK AO2 T02390178
13873KAHN AHN20160503103012005/03/16 10:30:31  5-MIN KAHN 031530Z 28009KT 10SM FEW025 BKN036 OVC100 24/18 A2990 830 68 2100 290/09 RMK AO2 T02390178
13873KAHN AHN20160503103513605/03/16 10:35:31  5-MIN KAHN 031535Z 27007KT 230V290 10SM SCT025 BKN035 BKN046 23/17 A2990 830 68 2000 270/07 240V300 RMK AO2 T02330172
13873KAHN AHN20160503104012005/03/16 10:40:31  5-MIN KAHN 031540Z 27006KT 10SM SCT026 BKN038 BKN046 23/17 A2990 830 68 2000 280/06 RMK AO2 T02330172
13873KAHN AHN20160503104512705/03/16 10:45:31  5-MIN KAHN 031545Z VRB05KT 10SM FEW026 SCT037 BKN044 23/17 A2990 830 68 2000 VRB/05 RMK AO2 SLP117 T02330172
13873KAHN AHN20160503105012705/03/16 10:50:31  5-MIN KAHN 031550Z VRB06KT 10SM FEW027 SCT043 BKN100 24/18 A2989 830 66 2200 VRB/06 RMK AO2 SLP116 T02440178
13873KAHN AHN20160503105511305/03/16 10:55:31  5-MIN KAHN 031555Z VRB05KT 10SM FEW027 BKN100 24/18 A2990 830 68 2200 VRB/05 RMK AO2 T02440183
13873KAHN AHN20160503110011305/03/16 11:00:31  5-MIN KAHN 031600Z VRB03KT 10SM FEW028 BKN100 25/18 A2989 830 64 2200 VRB/03 RMK AO2 T02500178
13873KAHN AHN20160503110512605/03/16 11:05:31  5-MIN KAHN 031605Z 28009G14KT 10SM FEW026 SCT034 BKN100 26/18 A2989 840 62 2300 280/09G14 RMK AO2 T02610183
13873KAHN AHN20160503111012605/03/16 11:10:31  5-MIN KAHN 031610Z 26005G14KT 10SM FEW028 SCT034 BKN100 26/17 A2989 840 59 2300 270/05G14 RMK AO2 T02560172
13873KAHN AHN20160503111512005/03/16 11:15:31  5-MIN KAHN 031615Z 27006KT 10SM SCT030 SCT036 BKN100 25/17 A2989 840 61 2200 280/06 RMK AO2 T02500172
13873KAHN AHN20160503112012005/03/16 11:20:31  5-MIN KAHN 031620Z VRB05KT 10SM SCT030 BKN035 BKN100 26/18 A2989 840 61 2300 VRB/05 RMK AO2 T02560178
13873KAHN AHN20160503112512005/03/16 11:25:31  5-MIN KAHN 031625Z VRB05KT 10SM FEW027 BKN033 BKN039 26/18 A2989 840 61 2300 VRB/05 RMK AO2 T02560178
13873KAHN AHN20160503113013505/03/16 11:30:31  5-MIN KAHN 031630Z 29010G15KT 250V320 10SM BKN033 BKN100 26/17 A2989 840 59 2300 290/10G15 260V330 RMK AO2 T02560172
13873KAHN AHN20160503113512605/03/16 11:35:31  5-MIN KAHN 031635Z 29010G15KT 10SM SCT033 SCT044 BKN055 26/17 A2989 840 59 2300 290/10G15 RMK AO2 T02560172
13873KAHN AHN20160503114012605/03/16 11:40:31  5-MIN KAHN 031640Z 29009G15KT 10SM SCT033 SCT044 BKN055 25/17 A2988 840 61 2200 300/09G15 RMK AO2 T02500172
13873KAHN AHN20160503114513305/03/16 11:45:31  5-MIN KAHN 031645Z 29009G15KT 10SM FEW033 SCT042 BKN050 24/17 A2988 850 61 2200 300/09G15 RMK AO2 SLP112 T02440167
13873KAHN AHN20160503115012705/03/16 11:50:31  5-MIN KAHN 031650Z 29009KT 10SM FEW033 SCT042 BKN100 26/17 A2988 850 57 2400 290/09 RMK AO2 SLP111 T02610172
13873KAHN AHN20160503115512005/03/16 11:55:31  5-MIN KAHN 031655Z 30008KT 10SM FEW035 SCT043 BKN080 26/17 A2987 850 57 2400 300/08 RMK AO2 T02610172
13873KAHN AHN20160503120012005/03/16 12:00:31  5-MIN KAHN 031700Z 29008KT 10SM SCT038 BKN050 BKN080 26/17 A2987 850 57 2300 300/08 RMK AO2 T02560167
13873KAHN AHN20160503120512005/03/16 12:05:31  5-MIN KAHN 031705Z 28006KT 10SM BKN036 BKN050 BKN095 24/17 A2987 850 61 2200 280/06 RMK AO2 T02440167
13873KAHN AHN20160503121012005/03/16 12:10:31  5-MIN KAHN 031710Z 27006KT 10SM BKN036 BKN048 BKN080 24/17 A2987 850 63 2100 270/06 RMK AO2 T02390167
13873KAHN AHN20160503121512605/03/16 12:15:31  5-MIN KAHN 031715Z 28009G15KT 10SM SCT036 BKN048 OVC080 24/17 A2987 850 61 2200 280/09G15 RMK AO2 T02440167
13873KAHN AHN20160503122012005/03/16 12:20:31  5-MIN KAHN 031720Z 29009KT 10SM SCT036 BKN048 OVC060 24/17 A2987 860 61 2200 290/09 RMK AO2 T02440167
13873KAHN AHN20160503122514205/03/16 12:25:31  5-MIN KAHN 031725Z 26007G14KT 230V290 10SM SCT036 SCT049 BKN060 26/17 A2987 860 59 2300 270/07G14 240V300 RMK AO2 T02560172
13873KAHN AHN20160503123012605/03/16 12:30:31  5-MIN KAHN 031730Z 27012G18KT 10SM FEW036 SCT049 BKN065 26/17 A2987 860 57 2400 280/12G18 RMK AO2 T02610172
13873KAHN AHN20160503123514205/03/16 12:35:31  5-MIN KAHN 031735Z 28008G18KT 250V310 10SM FEW038 FEW049 BKN070 26/17 A2986 860 57 2300 280/08G18 260V320 RMK AO2 T02560167
13873KAHN AHN20160503124011205/03/16 12:40:31  5-MIN KAHN 031740Z 28009G16KT 10SM BKN065 26/17 A2986 860 57 2300 290/09G16 RMK AO2 T02560167
13873KAHN AHN20160503124515305/03/16 12:45:31  5-MIN KAHN 031745Z 26007G16KT 240V320 10SM BKN070 26/17 A2986 860 57 2400 270/07G16 250V330 RMK AO2 SLP106 T02610172 10261 20189 55001
13873KAHN AHN20160503125015405/03/16 12:50:31  5-MIN KAHN 031750Z 27007KT 250V320 10SM FEW035 SCT070 27/17 A2986 860 55 2400 280/07 260V330 RMK AO2 SLP105 T02670172 10267 20189 55001
13873KAHN AHN20160503125512805/03/16 12:55:31  5-MIN KAHN 031755Z 27009G15KT 240V300 10SM SCT070 27/17 A2986 870 55 2400 280/09G15 250V310 RMK AO2 T02670172
13873KAHN AHN20160503130012805/03/16 13:00:31  5-MIN KAHN 031800Z 28008G16KT 260V010 10SM SCT070 27/17 A2986 870 53 2500 290/08G16 270V020 RMK AO2 T02670167
13873KAHN AHN20160503130512005/03/16 13:05:31  5-MIN KAHN 031805Z 29008KT 10SM FEW037 SCT050 SCT065 26/17 A2985 870 57 2400 300/08 RMK AO2 T02610172
13873KAHN AHN20160503131011305/03/16 13:10:31  5-MIN KAHN 031810Z 30008KT 10SM FEW037 SCT048 26/17 A2985 870 57 2300 300/08 RMK AO2 T02560167
13873KAHN AHN20160503131512005/03/16 13:15:31  5-MIN KAHN 031815Z 29006KT 10SM FEW039 BKN048 BKN060 25/17 A2985 880 59 2300 300/06 RMK AO2 T02500167
13873KAHN AHN20160503132013605/03/16 13:20:31  5-MIN KAHN 031820Z 29007KT 250V310 10SM FEW040 BKN048 BKN060 24/17 A2985 870 61 2200 290/07 260V320 RMK AO2 T02440167
13873KAHN AHN20160503132513605/03/16 13:25:31  5-MIN KAHN 031825Z 28007KT 260V320 10SM FEW040 SCT048 BKN055 26/17 A2985 880 57 2400 290/07 270V330 RMK AO2 T02610172
13873KAHN AHN20160503133013605/03/16 13:30:31  5-MIN KAHN 031830Z 26007KT 210V290 10SM FEW040 SCT048 SCT055 26/17 A2984 880 57 2300 270/07 220V300 RMK AO2 T02560167
13873KAHN AHN20160503133512005/03/16 13:35:31  5-MIN KAHN 031835Z 29009KT 10SM FEW040 FEW048 SCT055 26/17 A2984 880 55 2400 300/09 RMK AO2 T02610167
13873KAHN AHN20160503134011905/03/16 13:40:31  5-MIN KAHN 031840Z 27006G14KT 10SM FEW045 FEW055 27/17 A2984 890 55 2500 270/06G14 RMK AO2 T02670172
13873KAHN AHN20160503134512605/03/16 13:45:31  5-MIN KAHN 031845Z 31012G18KT 10SM FEW039 FEW050 26/17 A2983 890 57 2400 310/12G18 RMK AO2 SLP096 T02610172
13873KAHN AHN20160503135011905/03/16 13:50:31  5-MIN KAHN 031850Z 28010G18KT 10SM FEW037 27/17 A2983 890 53 2500 290/10G18 RMK AO2 SLP095 T02670167
13873KAHN AHN20160503135510905/03/16 13:55:31  5-MIN KAHN 031855Z 29009G18KT 10SM CLR 26/16 A2983 890 53 2400 300/09G18 RMK AO2 T02610161
13873KAHN AHN20160503140011205/03/16 14:00:31  5-MIN KAHN 031900Z 29010G16KT 10SM FEW039 27/17 A2983 890 53 2500 300/10G16 RMK AO2 T02670167
13873KAHN AHN20160503140511305/03/16 14:05:31  5-MIN KAHN 031905Z 27006KT 10SM SCT039 SCT048 26/16 A2983 890 55 2400 270/06 RMK AO2 T02560161
13873KAHN AHN20160503141011905/03/16 14:10:31  5-MIN KAHN 031910Z 31009G17KT 10SM SCT039 BKN048 25/17 A2983 890 59 2300 320/09G17 RMK AO2 T02500167
13873KAHN AHN20160503141512605/03/16 14:15:31  5-MIN KAHN 031915Z 28007G17KT 10SM SCT041 BKN050 BKN060 24/17 A2984 890 61 2200 280/07G17 RMK AO2 T02440167
13873KAHN AHN20160503142012605/03/16 14:20:31  5-MIN KAHN 031920Z VRB05G15KT 10SM SCT041 BKN050 BKN065 25/17 A2983 890 59 2300 VRB/05G15 RMK AO2 T02500167
13873KAHN AHN20160503142512005/03/16 14:25:31  5-MIN KAHN 031925Z 30008KT 10SM SCT041 SCT050 BKN065 27/17 A2983 900 55 2500 300/08 RMK AO2 T02670172
13873KAHN AHN20160503143013605/03/16 14:30:31  5-MIN KAHN 031930Z 29007KT 240V330 10SM FEW041 SCT049 SCT065 27/17 A2982 900 55 2500 290/07 250V340 RMK AO2 T02670172
13873KAHN AHN20160503143511905/03/16 14:35:31  5-MIN KAHN 031935Z 26008G16KT 10SM FEW041 SCT060 27/17 A2982 910 53 2500 270/08G16 RMK AO2 T02670167
13873KAHN AHN20160503144011905/03/16 14:40:31  5-MIN KAHN 031940Z 28008G16KT 10SM FEW041 FEW060 27/17 A2982 910 53 2500 280/08G16 RMK AO2 T02670167
13873KAHN AHN20160503144512005/03/16 14:45:31  5-MIN KAHN 031945Z 29007KT 10SM FEW041 FEW065 27/17 A2981 910 54 2600 290/07 RMK AO2 SLP090 T02720172
13873KAHN AHN20160503145011905/03/16 14:50:31  5-MIN KAHN 031950Z 27010G16KT 10SM FEW041 27/17 A2982 910 53 2500 280/10G16 RMK AO2 SLP090 T02670167
13873KAHN AHN20160503145511905/03/16 14:55:31  5-MIN KAHN 031955Z 26012G18KT 10SM FEW043 FEW070 27/16 A2981 910 52 2500 270/12G18 RMK AO2 T02670161
13873KAHN AHN20160503150011905/03/16 15:00:31  5-MIN KAHN 032000Z 27009G18KT 10SM FEW044 SCT070 26/16 A2981 910 53 2400 280/09G18 RMK AO2 T02610161
13873KAHN AHN20160503150513505/03/16 15:05:31  5-MIN KAHN 032005Z 26007G16KT 220V290 10SM FEW042 SCT049 26/16 A2981 910 53 2400 260/07G16 230V300 RMK AO2 T02610161
13873KAHN AHN20160503151013505/03/16 15:10:31  5-MIN KAHN 032010Z 29008G14KT 250V330 10SM SCT042 SCT049 26/17 A2981 910 57 2400 300/08G14 260V340 RMK AO2 T02560167
13873KAHN AHN20160503151511205/03/16 15:15:31  5-MIN KAHN 032015Z 30011G17KT 10SM BKN044 26/16 A2981 910 53 2400 300/11G17 RMK AO2 T02610161
13873KAHN AHN20160503152011205/03/16 15:20:31  5-MIN KAHN 032020Z 29011G18KT 10SM SCT044 26/16 A2980 920 55 2400 290/11G18 RMK AO2 T02560161
13873KAHN AHN20160503152511905/03/16 15:25:31  5-MIN KAHN 032025Z 29011G18KT 10SM FEW044 SCT050 26/16 A2980 920 55 2400 300/11G18 RMK AO2 T02560161
13873KAHN AHN20160503153011905/03/16 15:30:31  5-MIN KAHN 032030Z 29007G18KT 10SM FEW044 SCT050 26/16 A2980 920 55 2400 290/07G18 RMK AO2 T02560161
13873KAHN AHN20160503153511905/03/16 15:35:31  5-MIN KAHN 032035Z 28007G16KT 10SM FEW043 FEW050 26/16 A2980 920 55 2400 280/07G16 RMK AO2 T02560161
13873KAHN AHN20160503154011205/03/16 15:40:31  5-MIN KAHN 032040Z 27010G14KT 10SM FEW050 26/16 A2980 920 53 2400 280/10G14 RMK AO2 T02610161
13873KAHN AHN20160503154512205/03/16 15:45:31  5-MIN KAHN 032045Z 28010G17KT 10SM CLR 26/16 A2980 920 51 2400 280/10G17 RMK AO2 SLP086 T02610156 58013
13873KAHN AHN20160503155012205/03/16 15:50:31  5-MIN KAHN 032050Z 26008G17KT 10SM CLR 26/16 A2980 920 51 2400 260/08G17 RMK AO2 SLP085 T02610156 58013
13873KAHN AHN20160503155510905/03/16 15:55:31  5-MIN KAHN 032055Z 28009G17KT 10SM CLR 26/16 A2980 920 53 2400 280/09G17 RMK AO2 T02610161
13873KAHN AHN20160503160011205/03/16 16:00:31  5-MIN KAHN 032100Z 26009G17KT 10SM FEW050 26/16 A2980 920 51 2400 270/09G17 RMK AO2 T02610156
13873KAHN AHN20160503160512505/03/16 16:05:31  5-MIN KAHN 032105Z 26008G14KT 220V300 10SM CLR 26/16 A2980 920 51 2400 260/08G14 230V310 RMK AO2 T02610156
13873KAHN AHN20160503161013505/03/16 16:10:31  5-MIN KAHN 032110Z 26010G16KT 230V300 10SM FEW045 FEW120 26/16 A2980 920 51 2500 270/10G16 240V310 RMK AO2 T02610156
13873KAHN AHN20160503161511905/03/16 16:15:31  5-MIN KAHN 032115Z 27011G18KT 10SM FEW045 FEW120 26/14 A2980 920 49 2400 280/11G18 RMK AO2 T02560144
13873KAHN AHN20160503162013505/03/16 16:20:31  5-MIN KAHN 032120Z 26008G18KT 220V300 10SM FEW045 FEW120 26/15 A2980 930 51 2400 270/08G18 230V310 RMK AO2 T02560150
13873KAHN AHN20160503162511905/03/16 16:25:31  5-MIN KAHN 032125Z 27008G15KT 10SM FEW047 FEW120 26/14 A2980 920 49 2400 280/08G15 RMK AO2 T02560144
13873KAHN AHN20160503163011905/03/16 16:30:31  5-MIN KAHN 032130Z 29011G16KT 10SM SCT047 SCT120 26/15 A2980 920 50 2500 300/11G16 RMK AO2 T02610150
13873KAHN AHN20160503163511905/03/16 16:35:31  5-MIN KAHN 032135Z 29008G16KT 10SM SCT047 SCT120 26/15 A2980 920 51 2400 290/08G16 RMK AO2 T02560150
13873KAHN AHN20160503164012805/03/16 16:40:31  5-MIN KAHN 032140Z 28009G16KT 240V310 10SM SCT048 26/15 A2980 920 51 2400 290/09G16 250V320 RMK AO2 T02560150
13873KAHN AHN20160504024511505/04/16 02:45:31  5-MIN KAHN 040745Z AUTO 30005KT 10SM CLR 14/11 A2979 930 83 1100 300/05 RMK AO2 SLP084 T01390111
13873KAHN AHN20160504025011505/04/16 02:50:31  5-MIN KAHN 040750Z AUTO 30004KT 10SM CLR 14/11 A2979 930 83 1100 300/04 RMK AO2 SLP084 T01390111
13873KAHN AHN20160504025510805/04/16 02:55:31  5-MIN KAHN 040755Z AUTO 29003KT 10SM CLR 13/11 A2980 930 86 1000 290/03 RMK AO2 T01330111
13873KAHN AHN20160504030011105/04/16 03:00:31  5-MIN KAHN 040800Z AUTO 29004KT 10SM FEW060 13/11 A2980 930 86 1000 290/04 RMK AO2 T01330111
13873KAHN AHN20160504030511105/04/16 03:05:31  5-MIN KAHN 040805Z AUTO 29004KT 10SM FEW060 13/11 A2980 930 86 1000 300/04 RMK AO2 T01330111
13873KAHN AHN20160504031011105/04/16 03:10:31  5-MIN KAHN 040810Z AUTO 30005KT 10SM FEW060 13/11 A2980 920 86 1000 300/05 RMK AO2 T01330111
13873KAHN AHN20160504031511105/04/16 03:15:31  5-MIN KAHN 040815Z AUTO 30005KT 10SM FEW060 13/11 A2980 920 86 1000 300/05 RMK AO2 T01330111
13873KAHN AHN20160504032011105/04/16 03:20:31  5-MIN KAHN 040820Z AUTO 29004KT 10SM FEW060 13/11 A2980 930 86 1000 300/04 RMK AO2 T01330111
13873KAHN AHN20160504032511105/04/16 03:25:31  5-MIN KAHN 040825Z AUTO 30005KT 10SM FEW060 13/11 A2980 930 86 1000 300/05 RMK AO2 T01330111
13873KAHN AHN20160504033011105/04/16 03:30:31  5-MIN KAHN 040830Z AUTO 29006KT 10SM SCT060 13/11 A2980 920 86 1000 300/06 RMK AO2 T01330111
13873KAHN AHN20160504033511105/04/16 03:35:31  5-MIN KAHN 040835Z AUTO 30005KT 10SM SCT060 14/11 A2980 920 80 1000 310/05 RMK AO2 T01390106
13873KAHN AHN20160504034011105/04/16 03:40:31  5-MIN KAHN 040840Z AUTO 30005KT 10SM FEW060 13/11 A2980 920 83 1000 300/05 RMK AO2 T01330106
13873KAHN AHN20160504034512405/04/16 03:45:31  5-MIN KAHN 040845Z AUTO 31005KT 10SM SCT060 14/11 A2980 920 80 1000 310/05 RMK AO2 SLP087 T01390106 56008
13873KAHN AHN20160504035012405/04/16 03:50:31  5-MIN KAHN 040850Z AUTO VRB06KT 10SM SCT060 14/11 A2980 920 80 1000 VRB/06 RMK AO2 SLP087 T01390106 56008
13873KAHN AHN20160504035511105/04/16 03:55:31  5-MIN KAHN 040855Z AUTO 31005KT 10SM BKN065 14/11 A2980 920 80 1000 310/05 RMK AO2 T01390106
13873KAHN AHN20160504040011105/04/16 04:00:31  5-MIN KAHN 040900Z AUTO 30005KT 10SM BKN065 13/11 A2980 920 83 1000 300/05 RMK AO2 T01330106
13873KAHN AHN20160504040511105/04/16 04:05:31  5-MIN KAHN 040905Z AUTO 30005KT 10SM BKN065 13/11 A2980 920 83 1000 300/05 RMK AO2 T01330106
13873KAHN AHN20160504041011105/04/16 04:10:31  5-MIN KAHN 040910Z AUTO 30004KT 10SM BKN065 13/11 A2980 920 83 1000 300/04 RMK AO2 T01330106
13873KAHN AHN20160504041511105/04/16 04:15:31  5-MIN KAHN 040915Z AUTO 30004KT 10SM SCT065 13/11 A2980 920 83 1000 300/04 RMK AO2 T01330106
13873KAHN AHN20160504042011105/04/16 04:20:31  5-MIN KAHN 040920Z AUTO 29004KT 10SM SCT065 13/11 A2980 920 83 1000 300/04 RMK AO2 T01330106
13873KAHN AHN20160504042511005/04/16 04:25:31  5-MIN KAHN 040925Z AUTO 28003KT 10SM FEW065 13/11 A2980 920 86 900 290/03 RMK AO2 T01280106
13873KAHN AHN20160504043011005/04/16 04:30:31  5-MIN KAHN 040930Z AUTO 28004KT 10SM FEW065 13/11 A2980 930 86 900 290/04 RMK AO2 T01280106
13873KAHN AHN20160504043511005/04/16 04:35:31  5-MIN KAHN 040935Z AUTO 29004KT 10SM FEW065 13/10 A2980 920 83 900 290/04 RMK AO2 T01280100
13873KAHN AHN20160504044011005/04/16 04:40:31  5-MIN KAHN 040940Z AUTO 29003KT 10SM FEW065 12/10 A2980 920 86 900 290/03 RMK AO2 T01220100
13873KAHN AHN20160504044511405/04/16 04:45:31  5-MIN KAHN 040945Z AUTO 27003KT 10SM CLR 12/10 A2980 930 86 900 280/03 RMK AO2 SLP085 T01220100
13873KAHN AHN20160504045011405/04/16 04:50:31  5-MIN KAHN 040950Z AUTO 00000KT 10SM CLR 12/10 A2980 930 86 900 000/00 RMK AO2 SLP085 T01220100
13873KAHN AHN20160504045510705/04/16 04:55:31  5-MIN KAHN 040955Z AUTO 28003KT 10SM CLR 12/10 A2980 920 86 900 280/03 RMK AO2 T01220100
13873KAHN AHN20160504050010705/04/16 05:00:31  5-MIN KAHN 041000Z AUTO 28003KT 10SM CLR 12/10 A2980 930 86 900 280/03 RMK AO2 T01220100
13873KAHN AHN20160504050510705/04/16 05:05:31  5-MIN KAHN 041005Z AUTO 28003KT 10SM CLR 12/10 A2980 920 89 800 280/03 RMK AO2 T01170100
13873KAHN AHN20160504051010705/04/16 05:10:31  5-MIN KAHN 041010Z AUTO 28004KT 10SM CLR 12/10 A2980 920 89 800 280/04 RMK AO2 T01170100
13873KAHN AHN20160504051510705/04/16 05:15:31  5-MIN KAHN 041015Z AUTO VRB04KT 10SM CLR 12/10 A2980 920 89 800 VRB/04 RMK AO2 T01170100
13873KAHN AHN20160504052010705/04/16 05:20:31  5-MIN KAHN 041020Z AUTO 28004KT 10SM CLR 12/10 A2980 920 89 800 290/04 RMK AO2 T01170100
13873KAHN AHN20160504052510705/04/16 05:25:31  5-MIN KAHN 041025Z AUTO VRB04KT 10SM CLR 12/10 A2980 920 89 800 VRB/04 RMK AO2 T01170100
13873KAHN AHN20160504053010705/04/16 05:30:31  5-MIN KAHN 041030Z AUTO 29004KT 10SM CLR 12/10 A2980 920 89 800 290/04 RMK AO2 T01170100
13873KAHN AHN20160504053510705/04/16 05:35:31  5-MIN KAHN 041035Z AUTO 29004KT 10SM CLR 12/10 A2980 920 86 800 300/04 RMK AO2 T01220100
13873KAHN AHN20160504054010705/04/16 05:40:31  5-MIN KAHN 041040Z AUTO 28003KT 10SM CLR 12/10 A2980 920 86 800 290/03 RMK AO2 T01220100
13873KAHN AHN20160504054511405/04/16 05:45:31  5-MIN KAHN 041045Z AUTO 27003KT 10SM CLR 12/10 A2980 920 89 800 270/03 RMK AO2 SLP088 T01170100
13873KAHN AHN20160504055011405/04/16 05:50:31  5-MIN KAHN 041050Z AUTO 27003KT 10SM CLR 12/10 A2980 920 89 800 280/03 RMK AO2 SLP088 T01170100
13873KAHN AHN20160504055510705/04/16 05:55:31  5-MIN KAHN 041055Z AUTO 28004KT 10SM CLR 12/10 A2980 920 89 800 290/04 RMK AO2 T01170100
13873KAHN AHN20160504060010705/04/16 06:00:31  5-MIN KAHN 041100Z AUTO 28004KT 10SM CLR 12/10 A2980 920 89 800 290/04 RMK AO2 T01170100
13873KAHN AHN20160504060510705/04/16 06:05:31  5-MIN KAHN 041105Z AUTO 29006KT 10SM CLR 12/10 A2980 920 89 800 300/06 RMK AO2 T01170100
13873KAHN AHN20160504061010705/04/16 06:10:31  5-MIN KAHN 041110Z AUTO 30006KT 10SM CLR 12/10 A2980 920 86 800 300/06 RMK AO2 T01220100
13873KAHN AHN20160504061510705/04/16 06:15:31  5-MIN KAHN 041115Z AUTO 30006KT 10SM CLR 12/10 A2980 920 86 800 310/06 RMK AO2 T01220100
13873KAHN AHN20160504062010705/04/16 06:20:31  5-MIN KAHN 041120Z AUTO 30006KT 10SM CLR 13/10 A2980 920 83 900 300/06 RMK AO2 T01280100
13873KAHN AHN20160504062510705/04/16 06:25:31  5-MIN KAHN 041125Z AUTO 30007KT 10SM CLR 13/10 A2980 920 83 900 310/07 RMK AO2 T01280100
13873KAHN AHN20160504063010705/04/16 06:30:31  5-MIN KAHN 041130Z AUTO 30005KT 10SM CLR 13/10 A2980 920 83 900 310/05 RMK AO2 T01280100
13873KAHN AHN20160504063510805/04/16 06:35:31  5-MIN KAHN 041135Z AUTO 30006KT 10SM CLR 13/10 A2980 920 80 1000 310/06 RMK AO2 T01330100
13873KAHN AHN20160504064010805/04/16 06:40:31  5-MIN KAHN 041140Z AUTO 30005KT 10SM CLR 13/10 A2980 920 80 1000 310/05 RMK AO2 T01330100
13873KAHN AHN20160504064512805/04/16 06:45:31  5-MIN KAHN 041145Z 30006KT 10SM CLR 13/10 A2980 920 80 1000 300/06 RMK AO2 SLP089 T01330100 10156 20117 55001
13873KAHN AHN20160504065012805/04/16 06:50:31  5-MIN KAHN 041150Z 29004KT 10SM CLR 14/10 A2980 920 77 1000 300/04 RMK AO2 SLP088 T01390100 10156 20117 55001
13873KAHN AHN20160504065510305/04/16 06:55:31  5-MIN KAHN 041155Z 30007KT 10SM CLR 14/10 A2980 920 77 1000 310/07 RMK AO2 T01390100
13873KAHN AHN20160504070010305/04/16 07:00:31  5-MIN KAHN 041200Z 31008KT 10SM CLR 14/10 A2980 920 77 1000 310/08 RMK AO2 T01390100
13873KAHN AHN20160504070510305/04/16 07:05:31  5-MIN KAHN 041205Z 31007KT 10SM CLR 14/10 A2980 920 74 1100 320/07 RMK AO2 T01440100
13873KAHN AHN20160504071010305/04/16 07:10:31  5-MIN KAHN 041210Z 30010KT 10SM CLR 14/09 A2980 920 72 1100 310/10 RMK AO2 T01440094
13873KAHN AHN20160504071510305/04/16 07:15:31  5-MIN KAHN 041215Z 31008KT 10SM CLR 14/09 A2980 920 72 1100 310/08 RMK AO2 T01440094
13873KAHN AHN20160504072010305/04/16 07:20:31  5-MIN KAHN 041220Z 31007KT 10SM CLR 14/09 A2980 920 72 1100 310/07 RMK AO2 T01440094
13873KAHN AHN20160504072510305/04/16 07:25:31  5-MIN KAHN 041225Z 30008KT 10SM CLR 15/09 A2980 920 69 1200 310/08 RMK AO2 T01500094
13873KAHN AHN20160504073010305/04/16 07:30:31  5-MIN KAHN 041230Z 30007KT 10SM CLR 15/09 A2980 920 69 1200 310/07 RMK AO2 T01500094
13873KAHN AHN20160504073510305/04/16 07:35:31  5-MIN KAHN 041235Z VRB05KT 10SM CLR 15/09 A2980 920 69 1200 VRB/05 RMK AO2 T01500094
13873KAHN AHN20160504074010305/04/16 07:40:31  5-MIN KAHN 041240Z 31008KT 10SM CLR 15/09 A2980 920 69 1200 310/08 RMK AO2 T01500094
13873KAHN AHN20160504074511005/04/16 07:45:31  5-MIN KAHN 041245Z 31007KT 10SM CLR 16/09 A2980 920 67 1200 310/07 RMK AO2 SLP089 T01560094
13873KAHN AHN20160504075011005/04/16 07:50:31  5-MIN KAHN 041250Z 31007KT 10SM CLR 16/09 A2980 920 64 1300 320/07 RMK AO2 SLP088 T01610094
13873KAHN AHN20160504075511905/04/16 07:55:31  5-MIN KAHN 041255Z 30008KT 260V330 10SM CLR 16/09 A2980 920 62 1300 310/08 270V340 RMK AO2 T01610089
13873KAHN AHN20160504080010305/04/16 08:00:31  5-MIN KAHN 041300Z 32006KT 10SM CLR 16/09 A2980 920 62 1300 320/06 RMK AO2 T01610089
13873KAHN AHN20160504080510905/04/16 08:05:31  5-MIN KAHN 041305Z 31007G14KT 10SM CLR 16/09 A2980 920 62 1300 320/07G14 RMK AO2 T01610089
13873KAHN AHN20160504081010305/04/16 08:10:31  5-MIN KAHN 041310Z 32007KT 10SM CLR 17/09 A2980 920 60 1400 320/07 RMK AO2 T01670089
13873KAHN AHN20160504081510305/04/16 08:15:31  5-MIN KAHN 041315Z 32008KT 10SM CLR 17/09 A2980 920 60 1400 330/08 RMK AO2 T01670089
13873KAHN AHN20160504082010305/04/16 08:20:31  5-MIN KAHN 041320Z 32010KT 10SM CLR 17/08 A2980 920 57 1400 320/10 RMK AO2 T01670083
13873KAHN AHN20160504082510305/04/16 08:25:31  5-MIN KAHN 041325Z 31011KT 10SM CLR 16/08 A2980 920 59 1300 310/11 RMK AO2 T01610083
13873KAHN AHN20160504083010305/04/16 08:30:31  5-MIN KAHN 041330Z 33008KT 10SM CLR 17/08 A2980 920 57 1400 330/08 RMK AO2 T01670083
13873KAHN AHN20160504083510905/04/16 08:35:31  5-MIN KAHN 041335Z 32007G15KT 10SM CLR 17/08 A2980 920 57 1400 330/07G15 RMK AO2 T01670083
13873KAHN AHN20160504084010905/04/16 08:40:31  5-MIN KAHN 041340Z 31009G15KT 10SM CLR 17/08 A2980 920 55 1400 320/09G15 RMK AO2 T01670078
13873KAHN AHN20160504084511005/04/16 08:45:31  5-MIN KAHN 041345Z 31008KT 10SM CLR 17/08 A2980 920 53 1400 320/08 RMK AO2 SLP086 T01720078
13873KAHN AHN20160504085011005/04/16 08:50:31  5-MIN KAHN 041350Z 33007KT 10SM CLR 17/08 A2980 920 53 1400 330/07 RMK AO2 SLP086 T01720078
13873KAHN AHN20160504085510305/04/16 08:55:31  5-MIN KAHN 041355Z 33006KT 10SM CLR 17/08 A2980 920 53 1400 340/06 RMK AO2 T01720078
13873KAHN AHN20160504090010305/04/16 09:00:31  5-MIN KAHN 041400Z 32006KT 10SM CLR 17/08 A2980 920 53 1400 320/06 RMK AO2 T01720078
13873KAHN AHN20160504090511905/04/16 09:05:31  5-MIN KAHN 041405Z 34008KT 310V030 10SM CLR 18/07 A2980 930 49 1500 340/08 320V040 RMK AO2 T01780072
13873KAHN AHN20160504091010905/04/16 09:10:31  5-MIN KAHN 041410Z 34005G15KT 10SM CLR 18/07 A2980 920 48 1500 350/05G15 RMK AO2 T01780067
13873KAHN AHN20160504091510905/04/16 09:15:31  5-MIN KAHN 041415Z 32008G15KT 10SM CLR 18/07 A2980 930 49 1500 320/08G15 RMK AO2 T01780072
13873KAHN AHN20160504092010305/04/16 09:20:31  5-MIN KAHN 041420Z 31006KT 10SM CLR 18/07 A2980 920 46 1600 320/06 RMK AO2 T01830067
13873KAHN AHN20160504092510305/04/16 09:25:31  5-MIN KAHN 041425Z 30009KT 10SM CLR 18/07 A2980 930 48 1600 310/09 RMK AO2 T01830072
13873KAHN AHN20160504093011905/04/16 09:30:31  5-MIN KAHN 041430Z 33007KT 300V360 10SM CLR 18/07 A2980 920 48 1600 330/07 310V010 RMK AO2 T01830072
13873KAHN AHN20160504093510305/04/16 09:35:31  5-MIN KAHN 041435Z 34006KT 10SM CLR 19/08 A2980 920 48 1600 350/06 RMK AO2 T01890078
13873KAHN AHN20160504094010305/04/16 09:40:31  5-MIN KAHN 041440Z VRB06KT 10SM CLR 19/08 A2980 930 48 1600 VRB/06 RMK AO2 T01890078
13873KAHN AHN20160504094511605/04/16 09:45:31  5-MIN KAHN 041445Z 31008KT 10SM CLR 19/07 A2979 930 46 1600 320/08 RMK AO2 SLP085 T01890072 53000
13873KAHN AHN20160504095011605/04/16 09:50:31  5-MIN KAHN 041450Z 32006KT 10SM CLR 19/07 A2979 930 44 1700 330/06 RMK AO2 SLP085 T01940072 53000
13873KAHN AHN20160504095510305/04/16 09:55:31  5-MIN KAHN 041455Z 33008KT 10SM CLR 19/07 A2980 930 46 1600 340/08 RMK AO2 T01890072
13873KAHN AHN20160504100010905/04/16 10:00:31  5-MIN KAHN 041500Z 31009G15KT 10SM CLR 19/07 A2980 920 44 1600 310/09G15 RMK AO2 T01890067
13873KAHN AHN20160504100510905/04/16 10:05:31  5-MIN KAHN 041505Z 30007G15KT 10SM CLR 19/07 A2980 920 46 1600 310/07G15 RMK AO2 T01890072
13873KAHN AHN20160504101011905/04/16 10:10:31  5-MIN KAHN 041510Z 30007KT 270V340 10SM CLR 20/07 A2980 920 43 1800 310/07 280V350 RMK AO2 T02000072
13873KAHN AHN20160504101511905/04/16 10:15:31  5-MIN KAHN 041515Z 35007KT 320V070 10SM CLR 20/07 A2980 920 43 1800 350/07 330V080 RMK AO2 T02000072
13873KAHN AHN20160504102010305/04/16 10:20:31  5-MIN KAHN 041520Z VRB06KT 10SM CLR 20/07 A2980 930 43 1800 VRB/06 RMK AO2 T02000072
13873KAHN AHN20160504102511905/04/16 10:25:31  5-MIN KAHN 041525Z 30007KT 260V320 10SM CLR 21/07 A2980 930 41 1800 300/07 270V330 RMK AO2 T02060072
13873KAHN AHN20160504103010905/04/16 10:30:31  5-MIN KAHN 041530Z 30011G16KT 10SM CLR 21/07 A2980 930 40 1800 300/11G16 RMK AO2 T02060067
13873KAHN AHN20160504103510905/04/16 10:35:31  5-MIN KAHN 041535Z 30011G16KT 10SM CLR 20/06 A2979 930 40 1800 300/11G16 RMK AO2 T02000061
13873KAHN AHN20160504104010905/04/16 10:40:31  5-MIN KAHN 041540Z 32005G16KT 10SM CLR 19/07 A2979 930 43 1700 330/05G16 RMK AO2 T01940067
13873KAHN AHN20160504104513205/04/16 10:45:31  5-MIN KAHN 041545Z 31008G17KT 270V330 10SM CLR 20/07 A2979 930 41 1800 310/08G17 280V340 RMK AO2 SLP084 T02000067
13873KAHN AHN20160504105011605/04/16 10:50:31  5-MIN KAHN 041550Z 32007G18KT 10SM CLR 20/06 A2980 930 40 1800 330/07G18 RMK AO2 SLP085 T02000061
13873KAHN AHN20160504105512505/04/16 10:55:31  5-MIN KAHN 041555Z 32008G18KT 290V350 10SM CLR 21/07 A2979 930 40 1800 330/08G18 300V360 RMK AO2 T02060067
13873KAHN AHN20160504110011905/04/16 11:00:31  5-MIN KAHN 041600Z 30008KT 280V350 10SM CLR 20/06 A2979 930 40 1800 300/08 290V360 RMK AO2 T02000061
13873KAHN AHN20160504110510905/04/16 11:05:31  5-MIN KAHN 041605Z 30011G15KT 10SM CLR 21/07 A2979 930 38 1900 300/11G15 RMK AO2 T02110067
13873KAHN AHN20160504111011205/04/16 11:10:31  5-MIN KAHN 041610Z 30006G15KT 10SM FEW055 21/07 A2979 930 40 1800 310/06G15 RMK AO2 T02060067
13873KAHN AHN20160504111510605/04/16 11:15:31  5-MIN KAHN 041615Z 32009KT 10SM SCT055 21/07 A2979 930 40 1900 330/09 RMK AO2 T02110072
13873KAHN AHN20160504112012805/04/16 11:20:31  5-MIN KAHN 041620Z 30009G15KT 260V320 10SM FEW055 21/07 A2979 930 40 1900 310/09G15 270V330 RMK AO2 T02110072
13873KAHN AHN20160504112512805/04/16 11:25:31  5-MIN KAHN 041625Z 30008G15KT 260V320 10SM FEW055 21/07 A2979 930 40 1900 300/08G15 270V330 RMK AO2 T02110072
13873KAHN AHN20160504113012205/04/16 11:30:31  5-MIN KAHN 041630Z 31008KT 260V330 10SM SCT055 22/07 A2979 930 37 2000 310/08 270V340 RMK AO2 T02170067
13873KAHN AHN20160504113510605/04/16 11:35:31  5-MIN KAHN 041635Z VRB06KT 10SM SCT060 22/07 A2979 930 39 2000 VRB/06 RMK AO2 T02170072
13873KAHN AHN20160504114011205/04/16 11:40:31  5-MIN KAHN 041640Z 30009G14KT 10SM SCT060 22/07 A2979 930 37 2000 300/09G14 RMK AO2 T02170067
13873KAHN AHN20160504114513505/04/16 11:45:31  5-MIN KAHN 041645Z 32007G14KT 280V360 10SM BKN060 21/07 A2979 930 40 1800 330/07G14 290V010 RMK AO2 SLP082 T02060067
13873KAHN AHN20160504115011305/04/16 11:50:31  5-MIN KAHN 041650Z 28004KT 10SM BKN060 21/06 A2978 940 37 1800 290/04 RMK AO2 SLP081 T02060056
13873KAHN AHN20160504115510605/04/16 11:55:31  5-MIN KAHN 041655Z 30008KT 10SM BKN060 19/06 A2978 940 41 1700 300/08 RMK AO2 T01940061
13873KAHN AHN20160504120010605/04/16 12:00:31  5-MIN KAHN 041700Z 33006KT 10SM BKN060 19/06 A2978 940 41 1700 330/06 RMK AO2 T01940061
13873KAHN AHN20160504120510605/04/16 12:05:31  5-MIN KAHN 041705Z VRB06KT 10SM OVC060 21/07 A2978 940 38 1900 VRB/06 RMK AO2 T02110067
13873KAHN AHN20160504121011205/04/16 12:10:31  5-MIN KAHN 041710Z 31008G15KT 10SM OVC060 21/07 A2978 940 38 1900 310/08G15 RMK AO2 T02110067
13873KAHN AHN20160504121511205/04/16 12:15:31  5-MIN KAHN 041715Z 29009G15KT 10SM OVC060 20/06 A2978 940 40 1800 300/09G15 RMK AO2 T02000061
13873KAHN AHN20160504122011205/04/16 12:20:31  5-MIN KAHN 041720Z 28007G15KT 10SM BKN060 21/06 A2977 950 37 1900 280/07G15 RMK AO2 T02110061
13873KAHN AHN20160504122512805/04/16 12:25:31  5-MIN KAHN 041725Z 27007G15KT 230V310 10SM BKN060 22/06 A2977 950 36 2000 270/07G15 240V320 RMK AO2 T02170061
13873KAHN AHN20160504123012205/04/16 12:30:31  5-MIN KAHN 041730Z 28007KT 250V310 10SM BKN060 22/06 A2977 950 35 2000 290/07 260V320 RMK AO2 T02220061
13873KAHN AHN20160504123512205/04/16 12:35:31  5-MIN KAHN 041735Z 29007KT 240V310 10SM BKN060 22/07 A2977 950 37 2000 290/07 250V320 RMK AO2 T02220072
13873KAHN AHN20160504124010605/04/16 12:40:31  5-MIN KAHN 041740Z VRB06KT 10SM BKN060 22/06 A2977 950 36 2000 VRB/06 RMK AO2 T02170061
13873KAHN AHN20160504124513105/04/16 12:45:31  5-MIN KAHN 041745Z 28008KT 10SM BKN060 21/06 A2976 950 38 1900 280/08 RMK AO2 SLP075 T02060061 10222 20139 58002
13873KAHN AHN20160504125013105/04/16 12:50:31  5-MIN KAHN 041750Z VRB06KT 10SM BKN060 20/06 A2976 960 40 1800 VRB/06 RMK AO2 SLP074 T02000061 10222 20139 58002
13873KAHN AHN20160504125510605/04/16 12:55:31  5-MIN KAHN 041755Z 26008KT 10SM BKN060 22/07 A2976 960 37 2000 270/08 RMK AO2 T02170067
13873KAHN AHN20160504130010605/04/16 13:00:31  5-MIN KAHN 041800Z VRB06KT 10SM BKN060 21/06 A2976 960 37 1900 VRB/06 RMK AO2 T02110061
13873KAHN AHN20160504130510605/04/16 13:05:31  5-MIN KAHN 041805Z 30004KT 10SM BKN060 21/06 A2975 960 37 1900 300/04 RMK AO2 T02110061
13873KAHN AHN20160504131012805/04/16 13:10:31  5-MIN KAHN 041810Z 28009G17KT 250V310 10SM BKN060 22/07 A2975 970 37 2000 290/09G17 260V320 RMK AO2 T02170067
13873KAHN AHN20160504131511205/04/16 13:15:31  5-MIN KAHN 041815Z VRB06G17KT 10SM BKN060 22/06 A2975 970 35 2100 VRB/06G17 RMK AO2 T02220061
13873KAHN AHN20160504132011205/04/16 13:20:31  5-MIN KAHN 041820Z 29009G14KT 10SM SCT060 22/06 A2975 970 36 2000 300/09G14 RMK AO2 T02170061
13873KAHN AHN20160504132510605/04/16 13:25:31  5-MIN KAHN 041825Z VRB06KT 10SM SCT060 22/06 A2975 970 34 2000 VRB/06 RMK AO2 T02170056
13873KAHN AHN20160504133010605/04/16 13:30:31  5-MIN KAHN 041830Z VRB06KT 10SM FEW060 22/07 A2974 970 37 2000 VRB/06 RMK AO2 T02170067
13873KAHN AHN20160504133512805/04/16 13:35:31  5-MIN KAHN 041835Z 30007G15KT 270V330 10SM FEW060 22/07 A2974 970 37 2000 310/07G15 280V340 RMK AO2 T02170067
13873KAHN AHN20160504134011205/04/16 13:40:31  5-MIN KAHN 041840Z 30008G15KT 10SM SCT060 21/07 A2974 980 40 1900 310/08G15 RMK AO2 T02060067
13873KAHN AHN20160504134511905/04/16 13:45:31  5-MIN KAHN 041845Z 28008G14KT 10SM SCT060 22/07 A2974 980 37 2000 290/08G14 RMK AO2 SLP067 T02170067
13873KAHN AHN20160504135013505/04/16 13:50:31  5-MIN KAHN 041850Z 26008G15KT 230V290 10SM SCT060 22/06 A2974 980 35 2100 260/08G15 240V300 RMK AO2 SLP066 T02220061
13873KAHN AHN20160504135512805/04/16 13:55:31  5-MIN KAHN 041855Z 27007G15KT 230V290 10SM SCT060 22/06 A2973 980 33 2100 270/07G15 240V300 RMK AO2 T02220056
13873KAHN AHN20160504140012805/04/16 14:00:31  5-MIN KAHN 041900Z 28010G16KT 250V320 10SM SCT060 22/06 A2973 990 33 2100 280/10G16 260V330 RMK AO2 T02220056
13873KAHN AHN20160504140511205/04/16 14:05:31  5-MIN KAHN 041905Z 29009G16KT 10SM SCT060 22/06 A2973 990 35 2100 300/09G16 RMK AO2 T02220061
13873KAHN AHN20160504141010605/04/16 14:10:31  5-MIN KAHN 041910Z 31009KT 10SM SCT065 22/06 A2972 990 35 2100 320/09 RMK AO2 T02220061
13873KAHN AHN20160504141511205/04/16 14:15:31  5-MIN KAHN 041915Z 30008G17KT 10SM SCT065 22/06 A2972 990 36 2000 310/08G17 RMK AO2 T02170061
13873KAHN AHN20160504142011305/04/16 14:20:31  5-MIN KAHN 041920Z 28008G17KT 10SM SCT065 23/07 A2972 1000 35 2200 290/08G17 RMK AO2 T02280067
13873KAHN AHN20160504142512305/04/16 14:25:31  5-MIN KAHN 041925Z 27008KT 210V310 10SM SCT065 23/06 A2971 1000 33 2200 280/08 220V320 RMK AO2 T02280061
13873KAHN AHN20160504143011305/04/16 14:30:31  5-MIN KAHN 041930Z 30011G17KT 10SM SCT065 22/06 A2972 1000 35 2100 310/11G17 RMK AO2 T02220061
13873KAHN AHN20160504143511305/04/16 14:35:31  5-MIN KAHN 041935Z 31008G18KT 10SM SCT065 22/06 A2971 1000 34 2000 310/08G18 RMK AO2 T02170056
13873KAHN AHN20160504144011305/04/16 14:40:31  5-MIN KAHN 041940Z 27009G15KT 10SM SCT065 22/06 A2971 1010 36 2100 280/09G15 RMK AO2 T02170061
13873KAHN AHN20160504144513605/04/16 14:45:31  5-MIN KAHN 041945Z 30009G15KT 270V340 10SM SCT065 22/06 A2971 1010 35 2100 310/09G15 280V350 RMK AO2 SLP055 T02220061
13873KAHN AHN20160504145012005/04/16 14:50:31  5-MIN KAHN 041950Z 28010G15KT 10SM SCT065 23/06 A2970 1010 33 2200 280/10G15 RMK AO2 SLP055 T02280061
13873KAHN AHN20160504145511305/04/16 14:55:31  5-MIN KAHN 041955Z 28011G17KT 10SM SCT065 23/06 A2971 1010 32 2200 290/11G17 RMK AO2 T02280056
13873KAHN AHN20160504150012905/04/16 15:00:31  5-MIN KAHN 042000Z 29007G17KT 210V330 10SM SCT065 22/06 A2970 1010 33 2100 290/07G17 220V340 RMK AO2 T02220056
13873KAHN AHN20160504150511305/04/16 15:05:31  5-MIN KAHN 042005Z 30012G18KT 10SM FEW065 23/06 A2970 1010 33 2200 300/12G18 RMK AO2 T02280061
13873KAHN AHN20160504151012905/04/16 15:10:31  5-MIN KAHN 042010Z 26009G18KT 230V290 10SM FEW065 22/06 A2970 1010 33 2100 270/09G18 240V300 RMK AO2 T02220056
13873KAHN AHN20160504151511305/04/16 15:15:31  5-MIN KAHN 042015Z 29009G18KT 10SM FEW065 22/06 A2970 1020 35 2100 300/09G18 RMK AO2 T02220061
13873KAHN AHN20160504152011305/04/16 15:20:31  5-MIN KAHN 042020Z 31013G19KT 10SM FEW065 22/05 A2970 1020 32 2100 310/13G19 RMK AO2 T02220050
13873KAHN AHN20160504152511305/04/16 15:25:31  5-MIN KAHN 042025Z 29012G19KT 10SM FEW070 22/06 A2970 1020 33 2100 300/12G19 RMK AO2 T02220056
13873KAHN AHN20160504153012905/04/16 15:30:31  5-MIN KAHN 042030Z 29011G17KT 250V320 10SM SCT070 22/06 A2970 1020 33 2100 300/11G17 260V330 RMK AO2 T02220056
13873KAHN AHN20160504153511305/04/16 15:35:31  5-MIN KAHN 042035Z 31009G18KT 10SM FEW070 22/06 A2970 1020 33 2100 310/09G18 RMK AO2 T02220056
13873KAHN AHN20160504154011305/04/16 15:40:31  5-MIN KAHN 042040Z 28008G18KT 10SM FEW070 22/06 A2969 1020 33 2100 290/08G18 RMK AO2 T02220056
13873KAHN AHN20160504154512605/04/16 15:45:31  5-MIN KAHN 042045Z 27010G17KT 10SM FEW070 22/06 A2970 1020 34 2100 280/10G17 RMK AO2 SLP052 T02170056 58011
13873KAHN AHN20160504155012605/04/16 15:50:31  5-MIN KAHN 042050Z 30009G17KT 10SM FEW070 21/06 A2969 1020 36 2000 300/09G17 RMK AO2 SLP052 T02110056 58011
13873KAHN AHN20160504155511305/04/16 15:55:31  5-MIN KAHN 042055Z 30015G21KT 10SM FEW070 22/06 A2969 1020 35 2100 300/15G21 RMK AO2 T02220061
13873KAHN AHN20160504160011305/04/16 16:00:31  5-MIN KAHN 042100Z 30010G21KT 10SM FEW070 22/04 A2969 1020 32 2100 310/10G21 RMK AO2 T02170044
13873KAHN AHN20160504160511305/04/16 16:05:31  5-MIN KAHN 042105Z 31010G21KT 10SM FEW070 22/05 A2969 1020 33 2100 320/10G21 RMK AO2 T02170050
13873KAHN AHN20160504161012905/04/16 16:10:31  5-MIN KAHN 042110Z 27009G20KT 230V310 10SM FEW070 22/06 A2969 1020 34 2100 280/09G20 240V320 RMK AO2 T02170056
13873KAHN AHN20160504161511305/04/16 16:15:31  5-MIN KAHN 042115Z 28009G20KT 10SM FEW070 22/05 A2969 1020 33 2100 290/09G20 RMK AO2 T02170050
13873KAHN AHN20160504162012905/04/16 16:20:31  5-MIN KAHN 042120Z 27009G20KT 230V300 10SM FEW070 22/06 A2969 1020 34 2100 270/09G20 240V310 RMK AO2 T02170056
13873KAHN AHN20160504162511305/04/16 16:25:31  5-MIN KAHN 042125Z VRB06G17KT 10SM FEW070 22/06 A2969 1030 34 2100 VRB/06G17 RMK AO2 T02170056
13873KAHN AHN20160504163011305/04/16 16:30:31  5-MIN KAHN 042130Z 28011G17KT 10SM FEW070 22/06 A2969 1020 34 2100 290/11G17 RMK AO2 T02170056
13873KAHN AHN20160504163511305/04/16 16:35:31  5-MIN KAHN 042135Z 28008G17KT 10SM FEW070 21/05 A2969 1020 34 2000 280/08G17 RMK AO2 T02110050
13873KAHN AHN20160504164011305/04/16 16:40:31  5-MIN KAHN 042140Z 30010G17KT 10SM FEW070 22/06 A2969 1020 34 2100 300/10G17 RMK AO2 T02170056
13873KAHN AHN20160504164512005/04/16 16:45:31  5-MIN KAHN 042145Z VRB06G17KT 10SM FEW070 22/06 A2969 1030 34 2100 VRB/06G17 RMK AO2 SLP049 T02170056
13873KAHN AHN20160504165013605/04/16 16:50:31  5-MIN KAHN 042150Z 28007G14KT 250V310 10SM FEW070 22/06 A2969 1030 36 2100 280/07G14 260V320 RMK AO2 SLP049 T02170061
13873KAHN AHN20160504165511305/04/16 16:55:31  5-MIN KAHN 042155Z 31009G16KT 10SM FEW070 22/06 A2969 1020 34 2100 310/09G16 RMK AO2 T02170056
13873KAHN AHN20160504170012605/04/16 17:00:31  5-MIN KAHN 042200Z 30009G16KT 250V330 10SM CLR 21/05 A2969 1030 34 2000 310/09G16 260V340 RMK AO2 T02110050
13873KAHN AHN20160504170511005/04/16 17:05:31  5-MIN KAHN 042205Z 31008G17KT 10SM CLR 22/05 A2969 1030 33 2100 320/08G17 RMK AO2 T02170050
13873KAHN AHN20160504171011005/04/16 17:10:31  5-MIN KAHN 042210Z VRB05G17KT 10SM CLR 22/06 A2968 1030 34 2100 VRB/05G17 RMK AO2 T02170056
13873KAHN AHN20160504171511305/04/16 17:15:31  5-MIN KAHN 042215Z 27009G16KT 10SM FEW070 22/06 A2968 1030 34 2100 270/09G16 RMK AO2 T02170056
13873KAHN AHN20160504172011305/04/16 17:20:31  5-MIN KAHN 042220Z 28008G16KT 10SM FEW070 21/06 A2969 1030 36 2000 280/08G16 RMK AO2 T02110056
13873KAHN AHN20160504172511305/04/16 17:25:31  5-MIN KAHN 042225Z 26008G16KT 10SM FEW070 21/06 A2969 1030 36 2000 270/08G16 RMK AO2 T02110056
13873KAHN AHN20160504173010705/04/16 17:30:31  5-MIN KAHN 042230Z 27008KT 10SM FEW070 21/06 A2969 1030 36 2000 270/08 RMK AO2 T02110056
13873KAHN AHN20160504173511305/04/16 17:35:31  5-MIN KAHN 042235Z 30010G17KT 10SM FEW070 21/06 A2968 1030 37 2000 300/10G17 RMK AO2 T02060056
13873KAHN AHN20160504174011305/04/16 17:40:31  5-MIN KAHN 042240Z 30008G16KT 10SM FEW070 21/06 A2969 1030 37 2000 300/08G16 RMK AO2 T02060056
13873KAHN AHN20160504174511105/04/16 17:45:31  5-MIN KAHN 042245Z 28008KT 10SM CLR 21/06 A2969 1030 37 1900 290/08 RMK AO2 SLP050 T02060056
13873KAHN AHN20160504175011105/04/16 17:50:31  5-MIN KAHN 042250Z 31008KT 10SM CLR 21/06 A2969 1030 37 1900 310/08 RMK AO2 SLP050 T02060056
13873KAHN AHN20160504175510405/04/16 17:55:31  5-MIN KAHN 042255Z 28009KT 10SM CLR 21/06 A2969 1030 37 1900 290/09 RMK AO2 T02060056
13873KAHN AHN20160504180010405/04/16 18:00:31  5-MIN KAHN 042300Z 30007KT 10SM CLR 21/06 A2969 1030 37 1900 300/07 RMK AO2 T02060056
13873KAHN AHN20160504180510405/04/16 18:05:31  5-MIN KAHN 042305Z 29007KT 10SM CLR 21/06 A2969 1030 38 1900 290/07 RMK AO2 T02060061
13873KAHN AHN20160504181010405/04/16 18:10:31  5-MIN KAHN 042310Z VRB06KT 10SM CLR 20/06 A2969 1030 40 1900 VRB/06 RMK AO2 T02000061
13873KAHN AHN20160504181510405/04/16 18:15:31  5-MIN KAHN 042315Z 29006KT 10SM CLR 20/06 A2969 1030 40 1900 290/06 RMK AO2 T02000061
13873KAHN AHN20160504182010405/04/16 18:20:31  5-MIN KAHN 042320Z 28009KT 10SM CLR 20/06 A2969 1030 40 1900 290/09 RMK AO2 T02000061
13873KAHN AHN20160504182510405/04/16 18:25:31  5-MIN KAHN 042325Z 28007KT 10SM CLR 20/06 A2969 1030 38 1900 280/07 RMK AO2 T02000056
13873KAHN AHN20160504183010405/04/16 18:30:31  5-MIN KAHN 042330Z 27007KT 10SM CLR 19/06 A2968 1030 40 1800 280/07 RMK AO2 T01940056
13873KAHN AHN20160504183510405/04/16 18:35:31  5-MIN KAHN 042335Z 28006KT 10SM CLR 19/06 A2968 1030 40 1800 280/06 RMK AO2 T01940056
13873KAHN AHN20160504184010405/04/16 18:40:31  5-MIN KAHN 042340Z VRB05KT 10SM CLR 19/06 A2968 1030 41 1800 VRB/05 RMK AO2 T01940061
13873KAHN AHN20160504184512905/04/16 18:45:31  5-MIN KAHN 042345Z 28005KT 10SM CLR 19/06 A2968 1030 43 1800 290/05 RMK AO2 SLP049 T01890061 10228 20189 56022
13873KAHN AHN20160504185012905/04/16 18:50:31  5-MIN KAHN 042350Z 28004KT 10SM CLR 19/06 A2968 1030 43 1800 280/04 RMK AO2 SLP049 T01890061 10228 20189 56022
13873KAHN AHN20160504185510405/04/16 18:55:31  5-MIN KAHN 042355Z 27006KT 10SM CLR 18/06 A2968 1030 44 1700 280/06 RMK AO2 T01830061
13873KAHN AHN20160504190010405/04/16 19:00:31  5-MIN KAHN 050000Z 28004KT 10SM CLR 18/06 A2968 1030 44 1700 280/04 RMK AO2 T01830061
13873KAHN AHN20160504190510905/04/16 19:05:31  5-MIN KAHN 050005Z AUTO 26003KT 10SM CLR 18/06 A2968 1030 46 1600 270/03 RMK AO2 T01780061
13873KAHN AHN20160504191010905/04/16 19:10:31  5-MIN KAHN 050010Z AUTO 26004KT 10SM CLR 18/07 A2968 1030 48 1600 260/04 RMK AO2 T01780067
13873KAHN AHN20160504191510905/04/16 19:15:31  5-MIN KAHN 050015Z AUTO 24003KT 10SM CLR 18/07 A2968 1030 48 1600 250/03 RMK AO2 T01780067
13873KAHN AHN20160504192010905/04/16 19:20:31  5-MIN KAHN 050020Z AUTO 24003KT 10SM CLR 17/07 A2968 1030 49 1600 240/03 RMK AO2 T01720067
13873KAHN AHN20160504192510905/04/16 19:25:31  5-MIN KAHN 050025Z AUTO 25003KT 10SM CLR 17/07 A2968 1030 49 1600 260/03 RMK AO2 T01720067
13873KAHN AHN20160504193010905/04/16 19:30:31  5-MIN KAHN 050030Z AUTO 25004KT 10SM CLR 17/07 A2968 1030 49 1600 250/04 RMK AO2 T01720067
13873KAHN AHN20160504193510905/04/16 19:35:31  5-MIN KAHN 050035Z AUTO 25003KT 10SM CLR 17/07 A2969 1030 49 1600 250/03 RMK AO2 T01720067
13873KAHN AHN20160504194010905/04/16 19:40:31  5-MIN KAHN 050040Z AUTO 24003KT 10SM CLR 17/07 A2969 1030 51 1500 240/03 RMK AO2 T01670067
13873KAHN AHN20160504194511905/04/16 19:45:31  5-MIN KAHN 050045Z AUTO 24003KT 10SM FEW100 17/07 A2969 1030 53 1500 240/03 RMK AO2 SLP050 T01670072
13873KAHN AHN20160504195011905/04/16 19:50:31  5-MIN KAHN 050050Z AUTO 25003KT 10SM SCT100 17/07 A2969 1030 53 1500 250/03 RMK AO2 SLP050 T01670072
13873KAHN AHN20160504195511205/04/16 19:55:31  5-MIN KAHN 050055Z AUTO 25003KT 10SM BKN100 17/07 A2969 1020 51 1600 260/03 RMK AO2 T01720072
13873KAHN AHN20160504200011205/04/16 20:00:31  5-MIN KAHN 050100Z AUTO 25003KT 10SM BKN100 17/07 A2969 1020 51 1600 250/03 RMK AO2 T01720072
13873KAHN AHN20160504200511205/04/16 20:05:31  5-MIN KAHN 050105Z AUTO 25003KT 10SM BKN095 17/07 A2969 1020 51 1600 260/03 RMK AO2 T01720072
13873KAHN AHN20160504201011205/04/16 20:10:31  5-MIN KAHN 050110Z AUTO 25003KT 10SM OVC095 17/07 A2970 1020 51 1600 260/03 RMK AO2 T01720072
13873KAHN AHN20160504201511205/04/16 20:15:31  5-MIN KAHN 050115Z AUTO 24003KT 10SM OVC095 17/07 A2970 1020 51 1600 250/03 RMK AO2 T01720072
13873KAHN AHN20160504202011205/04/16 20:20:31  5-MIN KAHN 050120Z AUTO 24003KT 10SM OVC090 17/07 A2970 1020 51 1600 250/03 RMK AO2 T01720072
13873KAHN AHN20160504202511205/04/16 20:25:31  5-MIN KAHN 050125Z AUTO 24003KT 10SM OVC085 17/08 A2970 1020 53 1600 240/03 RMK AO2 T01720078
13873KAHN AHN20160504203011905/04/16 20:30:31  5-MIN KAHN 050130Z AUTO 24003KT 10SM BKN080 OVC095 17/08 A2970 1020 53 1600 250/03 RMK AO2 T01720078
13873KAHN AHN20160504203511205/04/16 20:35:31  5-MIN KAHN 050135Z AUTO 23003KT 10SM OVC080 17/08 A2970 1010 53 1600 240/03 RMK AO2 T01720078
13873KAHN AHN20160504204011205/04/16 20:40:31  5-MIN KAHN 050140Z AUTO 25003KT 10SM OVC080 17/08 A2970 1010 53 1500 250/03 RMK AO2 T01720078
13873KAHN AHN20160504204511905/04/16 20:45:31  5-MIN KAHN 050145Z AUTO 25004KT 10SM OVC075 17/08 A2970 1010 53 1500 250/04 RMK AO2 SLP055 T01720078
13873KAHN AHN20160504205011905/04/16 20:50:31  5-MIN KAHN 050150Z AUTO 26003KT 10SM OVC070 17/08 A2971 1010 53 1500 260/03 RMK AO2 SLP055 T01720078
13873KAHN AHN20160504205511205/04/16 20:55:31  5-MIN KAHN 050155Z AUTO 27005KT 10SM OVC070 17/08 A2971 1000 53 1500 270/05 RMK AO2 T01720078
13873KAHN AHN20160504210013605/04/16 21:00:31  5-MIN KAHN 050200Z AUTO 29011G16KT 10SM -RA OVC070 17/08 A2972 1000 55 1500 300/11G16 RMK AO2 RAB0157 P0000 T01720083
13873KAHN AHN20160504210514205/04/16 21:05:31  5-MIN KAHN 050205Z AUTO 29011G19KT 10SM -RA OVC065 17/09 A2973 990 60 1500 300/11G19 RMK AO2 RAB0157 PRESRR P0000 T01670089
13873KAHN AHN20160504211016005/04/16 21:10:31  5-MIN KAHN 050210Z AUTO 31016G26KT 10SM -RA OVC065 17/09 A2974 980 60 1400 320/16G26 RMK AO2 PK WND 33026/0209 RAB0157 PRESRR P0000 T01670089
13873KAHN AHN20160504211515205/04/16 21:15:31  5-MIN KAHN 050215Z AUTO 31016G26KT 10SM OVC060 16/09 A2974 980 62 1400 320/16G26 RMK AO2 PK WND 33026/0209 RAB0157E15 P0000 T01610089
13873KAHN AHN20160504212015305/04/16 21:20:31  5-MIN KAHN 050220Z AUTO 32015G26KT 10SM -RA OVC060 16/09 A2974 980 67 1300 320/15G26 RMK AO2 PK WND 32026/0217 RAB0157 P0000 T01560094
13873KAHN AHN20160504212515305/04/16 21:25:31  5-MIN KAHN 050225Z AUTO 32011G26KT 10SM -RA OVC060 15/09 A2974 970 69 1200 330/11G26 RMK AO2 PK WND 32026/0217 RAB0157 P0000 T01500094
13873KAHN AHN20160504213015305/04/16 21:30:31  5-MIN KAHN 050230Z AUTO 32011G25KT 10SM -RA OVC060 15/10 A2975 970 72 1200 330/11G25 RMK AO2 PK WND 32026/0217 RAB0157 P0000 T01500100
13873KAHN AHN20160504213515205/04/16 21:35:31  5-MIN KAHN 050235Z AUTO 33010G22KT 8SM -RA OVC060 14/11 A2975 970 80 1100 330/10G22 RMK AO2 PK WND 32026/0217 RAB0157 P0000 T01390106
13873KAHN AHN20160504214015205/04/16 21:40:31  5-MIN KAHN 050240Z AUTO VRB06G22KT 8SM -RA OVC060 13/11 A2974 970 83 1000 VRB/06G22 RMK AO2 PK WND 32026/0217 RAB0157 P0000 T01330106
13873KAHN AHN20160504214516605/04/16 21:45:31  5-MIN KAHN 050245Z AUTO 31007KT 10SM -RA OVC060 13/11 A2974 970 86 1000 310/07 RMK AO2 PK WND 32026/0217 RAB0157 SLP069 P0000 60000 T01330111 56003
13873KAHN AHN20160504215016605/04/16 21:50:31  5-MIN KAHN 050250Z AUTO 33004KT 10SM -RA OVC065 13/11 A2974 980 86 1100 340/04 RMK AO2 PK WND 32026/0217 RAB0157 SLP067 P0000 60000 T01330111 56003
13873KAHN AHN20160504215512805/04/16 21:55:31  5-MIN KAHN 050255Z AUTO 00000KT 10SM -RA BKN065 OVC080 13/11 A2974 980 86 1100 000/00 RMK AO2 P0000 T01330111
13873KAHN AHN20160504220012805/04/16 22:00:31  5-MIN KAHN 050300Z AUTO 00000KT 10SM -RA BKN065 OVC085 13/11 A2974 980 86 1100 000/00 RMK AO2 P0000 T01330111
13873KAHN AHN20160504220513005/04/16 22:05:31  5-MIN KAHN 050305Z AUTO 00000KT 10SM SCT065 OVC090 13/11 A2974 980 86 1100 000/00 RMK AO2 RAE02 P0000 T01330111
13873KAHN AHN20160504221013005/04/16 22:10:31  5-MIN KAHN 050310Z AUTO 00000KT 10SM SCT070 OVC090 13/12 A2974 980 93 1000 000/00 RMK AO2 RAE02 P0000 T01280117
13873KAHN AHN20160504221513005/04/16 22:15:31  5-MIN KAHN 050315Z AUTO 25003KT 10SM SCT075 OVC100 13/12 A2974 980 93 1000 260/03 RMK AO2 RAE02 P0000 T01280117
13873KAHN AHN20160504222013705/04/16 22:20:31  5-MIN KAHN 050320Z AUTO 00000KT 10SM FEW075 BKN100 BKN120 13/12 A2973 980 93 1000 000/00 RMK AO2 RAE02 P0000 T01280117
13873KAHN AHN20160504222513705/04/16 22:25:31  5-MIN KAHN 050325Z AUTO 00000KT 10SM FEW060 BKN100 BKN120 13/12 A2973 990 93 1000 000/00 RMK AO2 RAE02 P0000 T01280117
13873KAHN AHN20160504223013705/04/16 22:30:31  5-MIN KAHN 050330Z AUTO 00000KT 10SM FEW060 BKN100 BKN120 13/12 A2973 990 93 1000 000/00 RMK AO2 RAE02 P0000 T01280117
13873KAHN AHN20160504223513005/04/16 22:35:31  5-MIN KAHN 050335Z AUTO 00000KT 10SM FEW060 SCT110 13/11 A2973 990 89 1000 000/00 RMK AO2 RAE02 P0000 T01280111
13873KAHN AHN20160504224012905/04/16 22:40:31  5-MIN KAHN 050340Z AUTO 00000KT 10SM FEW060 SCT110 12/11 A2973 990 93 900 000/00 RMK AO2 RAE02 P0000 T01220111
13873KAHN AHN20160504224513605/04/16 22:45:31  5-MIN KAHN 050345Z AUTO 28003KT 10SM FEW060 SCT120 12/11 A2973 980 93 900 290/03 RMK AO2 RAE02 SLP065 P0000 T01220111
13873KAHN AHN20160504225013605/04/16 22:50:31  5-MIN KAHN 050350Z AUTO 29003KT 10SM FEW065 SCT110 12/11 A2973 980 93 900 290/03 RMK AO2 RAE02 SLP066 P0000 T01220111
13873KAHN AHN20160504225511705/04/16 22:55:31  5-MIN KAHN 050355Z AUTO 28003KT 10SM FEW070 FEW120 12/11 A2973 980 93 900 280/03 RMK AO2 T01220111
13873KAHN AHN20160504230011005/04/16 23:00:31  5-MIN KAHN 050400Z AUTO 29003KT 10SM FEW120 12/11 A2973 980 93 900 290/03 RMK AO2 T01220111
13873KAHN AHN20160504230511005/04/16 23:05:31  5-MIN KAHN 050405Z AUTO 27004KT 10SM FEW120 12/11 A2974 980 93 900 280/04 RMK AO2 T01220111
13873KAHN AHN20160504231011005/04/16 23:10:31  5-MIN KAHN 050410Z AUTO 27005KT 10SM FEW120 12/11 A2974 980 93 900 280/05 RMK AO2 T01220111
13873KAHN AHN20160504231511005/04/16 23:15:31  5-MIN KAHN 050415Z AUTO 28004KT 10SM SCT110 12/11 A2974 980 93 900 290/04 RMK AO2 T01220111
13873KAHN AHN20160504232011105/04/16 23:20:31  5-MIN KAHN 050420Z AUTO 30005KT 10SM BKN110 13/11 A2973 990 89 1000 300/05 RMK AO2 T01280111
13873KAHN AHN20160504232511105/04/16 23:25:31  5-MIN KAHN 050425Z AUTO VRB05KT 10SM BKN110 13/11 A2972 990 89 1000 VRB/05 RMK AO2 T01280111
13873KAHN AHN20160504233011905/04/16 23:30:31  5-MIN KAHN 050430Z AUTO 32003KT 10SM BKN110 13/11 A2971 1000 89 1000 320/03 RMK AO2 PRESFR T01280111
13873KAHN AHN20160504233511905/04/16 23:35:31  5-MIN KAHN 050435Z AUTO 31005KT 10SM BKN110 13/11 A2971 1010 89 1000 320/05 RMK AO2 PRESFR T01280111
13873KAHN AHN20160504234011205/04/16 23:40:31  5-MIN KAHN 050440Z AUTO 29005KT 10SM BKN110 13/11 A2971 1010 89 1000 300/05 RMK AO2 T01280111
13873KAHN AHN20160504234512905/04/16 23:45:31  5-MIN KAHN 050445Z AUTO 30005KT 10SM BKN110 13/11 A2971 1000 89 1000 300/05 RMK AO2 SLP058 T01280111 402280117
13873KAHN AHN20160504235012805/04/16 23:50:31  5-MIN KAHN 050450Z AUTO 28005KT 10SM SCT110 12/11 A2971 1000 93 900 290/05 RMK AO2 SLP059 T01220111 402280117
13873KAHN AHN20160504235511105/04/16 23:55:31  5-MIN KAHN 050455Z AUTO 29005KT 10SM FEW110 12/11 A2971 1000 93 900 290/05 RMK AO2 T01220111
13873KAHN AHN20160505000011105/05/16 00:00:31  5-MIN KAHN 050500Z AUTO 28004KT 10SM FEW100 12/11 A2971 1000 93 900 280/04 RMK AO2 T01220111
13873KAHN AHN20160505000510805/05/16 00:05:31  5-MIN KAHN 050505Z AUTO 27003KT 10SM CLR 12/11 A2971 1000 96 900 270/03 RMK AO2 T01170111
13873KAHN AHN20160505001010805/05/16 00:10:31  5-MIN KAHN 050510Z AUTO 27004KT 10SM CLR 12/11 A2971 1000 96 900 280/04 RMK AO2 T01170111
13873KAHN AHN20160505001510805/05/16 00:15:31  5-MIN KAHN 050515Z AUTO 28005KT 10SM CLR 12/11 A2971 1000 96 900 290/05 RMK AO2 T01170111
13873KAHN AHN20160505002010805/05/16 00:20:31  5-MIN KAHN 050520Z AUTO 29006KT 10SM CLR 12/11 A2972 1000 93 900 290/06 RMK AO2 T01220111
13873KAHN AHN20160505002510805/05/16 00:25:31  5-MIN KAHN 050525Z AUTO 29005KT 10SM CLR 12/11 A2972 1000 93 900 290/05 RMK AO2 T01220111
13873KAHN AHN20160505003010805/05/16 00:30:31  5-MIN KAHN 050530Z AUTO 29006KT 10SM CLR 12/11 A2971 1000 93 900 290/06 RMK AO2 T01220111
13873KAHN AHN20160505003511105/05/16 00:35:31  5-MIN KAHN 050535Z AUTO 29005KT 10SM FEW110 12/11 A2971 1000 93 900 290/05 RMK AO2 T01220111
13873KAHN AHN20160505004011205/05/16 00:40:31  5-MIN KAHN 050540Z AUTO 29006KT 10SM SCT110 12/11 A2971 1010 93 1000 290/06 RMK AO2 T01220111
13873KAHN AHN20160505004514305/05/16 00:45:31  5-MIN KAHN 050545Z AUTO 29008KT 10SM BKN110 12/11 A2971 1010 93 1000 300/08 RMK AO2 SLP058 60000 T01220111 10183 20117 53018
13873KAHN AHN20160505005014305/05/16 00:50:31  5-MIN KAHN 050550Z AUTO 29007KT 10SM BKN110 12/11 A2971 1000 93 1000 290/07 RMK AO2 SLP058 60000 T01220111 10183 20117 53018
13873KAHN AHN20160505005511205/05/16 00:55:31  5-MIN KAHN 050555Z AUTO 29008KT 10SM BKN110 12/11 A2971 1010 93 1000 300/08 RMK AO2 T01220111
13873KAHN AHN20160505010011205/05/16 01:00:31  5-MIN KAHN 050600Z AUTO 30008KT 10SM BKN110 12/11 A2971 1010 89 1000 300/08 RMK AO2 T01220106
13873KAHN AHN20160505010511205/05/16 01:05:31  5-MIN KAHN 050605Z AUTO 30010KT 10SM BKN100 12/11 A2971 1010 89 1000 300/10 RMK AO2 T01220106
13873KAHN AHN20160505011011205/05/16 01:10:31  5-MIN KAHN 050610Z AUTO 29009KT 10SM BKN100 12/11 A2971 1010 89 1000 300/09 RMK AO2 T01220106
13873KAHN AHN20160505011511205/05/16 01:15:31  5-MIN KAHN 050615Z AUTO 29007KT 10SM SCT100 12/11 A2970 1010 89 1000 300/07 RMK AO2 T01220106
13873KAHN AHN20160505012011805/05/16 01:20:31  5-MIN KAHN 050620Z AUTO 30010G18KT 10SM SCT100 12/10 A2970 1010 86 1000 310/10G18 RMK AO2 T01220100
13873KAHN AHN20160505012511705/05/16 01:25:31  5-MIN KAHN 050625Z AUTO 29009G18KT 10SM FEW100 12/10 A2970 1020 89 900 300/09G18 RMK AO2 T01170100
13873KAHN AHN20160505013011105/05/16 01:30:31  5-MIN KAHN 050630Z AUTO 30010KT 10SM FEW100 12/10 A2970 1020 89 900 300/10 RMK AO2 T01170100
13873KAHN AHN20160505013510805/05/16 01:35:31  5-MIN KAHN 050635Z AUTO 30010KT 10SM CLR 12/10 A2970 1020 89 900 300/10 RMK AO2 T01170100
13873KAHN AHN20160505014010805/05/16 01:40:31  5-MIN KAHN 050640Z AUTO 29009KT 10SM CLR 12/10 A2969 1020 89 900 300/09 RMK AO2 T01170100
13873KAHN AHN20160505014511505/05/16 01:45:31  5-MIN KAHN 050645Z AUTO 30007KT 10SM CLR 12/10 A2969 1020 89 900 300/07 RMK AO2 SLP052 T01170100
13873KAHN AHN20160505015012105/05/16 01:50:31  5-MIN KAHN 050650Z AUTO 30009G15KT 10SM CLR 12/10 A2969 1020 89 900 300/09G15 RMK AO2 SLP050 T01170100
13873KAHN AHN20160505015510805/05/16 01:55:31  5-MIN KAHN 050655Z AUTO 29010KT 10SM CLR 12/10 A2969 1030 89 900 300/10 RMK AO2 T01170100
13873KAHN AHN20160505020010805/05/16 02:00:31  5-MIN KAHN 050700Z AUTO 30010KT 10SM CLR 12/10 A2969 1030 89 900 310/10 RMK AO2 T01170100
13873KAHN AHN20160505020510805/05/16 02:05:31  5-MIN KAHN 050705Z AUTO 30008KT 10SM CLR 12/09 A2969 1030 86 900 310/08 RMK AO2 T01170094
13873KAHN AHN20160505021010805/05/16 02:10:31  5-MIN KAHN 050710Z AUTO 30008KT 10SM CLR 12/09 A2969 1030 86 900 300/08 RMK AO2 T01170094
13873KAHN AHN20160505021510805/05/16 02:15:31  5-MIN KAHN 050715Z AUTO 30008KT 10SM CLR 12/09 A2969 1030 86 900 310/08 RMK AO2 T01170094
13873KAHN AHN20160505022010805/05/16 02:20:31  5-MIN KAHN 050720Z AUTO 29009KT 10SM CLR 11/09 A2969 1030 89 800 300/09 RMK AO2 T01110094
13873KAHN AHN20160505022510805/05/16 02:25:31  5-MIN KAHN 050725Z AUTO 29008KT 10SM CLR 11/09 A2969 1030 89 800 300/08 RMK AO2 T01110094
13873KAHN AHN20160505023010805/05/16 02:30:31  5-MIN KAHN 050730Z AUTO 30009KT 10SM CLR 11/09 A2969 1030 89 800 300/09 RMK AO2 T01110094
13873KAHN AHN20160505023510805/05/16 02:35:31  5-MIN KAHN 050735Z AUTO 30007KT 10SM CLR 11/09 A2968 1030 86 800 300/07 RMK AO2 T01110089
13873KAHN AHN20160505024010805/05/16 02:40:31  5-MIN KAHN 050740Z AUTO 30008KT 10SM CLR 11/09 A2968 1030 86 800 310/08 RMK AO2 T01110089
13873KAHN AHN20160505024511505/05/16 02:45:31  5-MIN KAHN 050745Z AUTO 30007KT 10SM CLR 11/09 A2968 1030 86 800 310/07 RMK AO2 SLP049 T01110089
13873KAHN AHN20160505025011505/05/16 02:50:31  5-MIN KAHN 050750Z AUTO 29007KT 10SM CLR 11/09 A2968 1030 86 800 300/07 RMK AO2 SLP048 T01110089
13873KAHN AHN20160505025510805/05/16 02:55:31  5-MIN KAHN 050755Z AUTO 30008KT 10SM CLR 11/09 A2968 1030 86 800 310/08 RMK AO2 T01110089
13873KAHN AHN20160505030010805/05/16 03:00:31  5-MIN KAHN 050800Z AUTO 29007KT 10SM CLR 11/09 A2968 1030 86 900 300/07 RMK AO2 T01110089
13873KAHN AHN20160505030510805/05/16 03:05:31  5-MIN KAHN 050805Z AUTO 29007KT 10SM CLR 11/09 A2968 1030 86 900 300/07 RMK AO2 T01110089
13873KAHN AHN20160505031010805/05/16 03:10:31  5-MIN KAHN 050810Z AUTO 30006KT 10SM CLR 11/09 A2968 1030 89 800 300/06 RMK AO2 T01060089
13873KAHN AHN20160505031510805/05/16 03:15:31  5-MIN KAHN 050815Z AUTO 29008KT 10SM CLR 11/09 A2968 1030 89 800 300/08 RMK AO2 T01060089
13873KAHN AHN20160505032010805/05/16 03:20:31  5-MIN KAHN 050820Z AUTO 29007KT 10SM CLR 11/09 A2968 1030 89 800 300/07 RMK AO2 T01060089
13873KAHN AHN20160505032510805/05/16 03:25:31  5-MIN KAHN 050825Z AUTO 29008KT 10SM CLR 11/09 A2968 1030 89 800 300/08 RMK AO2 T01060089
13873KAHN AHN20160505033010805/05/16 03:30:31  5-MIN KAHN 050830Z AUTO 29008KT 10SM CLR 11/09 A2968 1030 89 800 290/08 RMK AO2 T01060089
13873KAHN AHN20160505033510805/05/16 03:35:31  5-MIN KAHN 050835Z AUTO 29006KT 10SM CLR 11/09 A2968 1030 89 800 300/06 RMK AO2 T01060089
13873KAHN AHN20160505034010805/05/16 03:40:31  5-MIN KAHN 050840Z AUTO 29008KT 10SM CLR 11/09 A2968 1030 89 800 300/08 RMK AO2 T01060089
13873KAHN AHN20160505034512105/05/16 03:45:31  5-MIN KAHN 050845Z AUTO 30007KT 10SM CLR 11/09 A2968 1030 89 800 300/07 RMK AO2 SLP048 T01060089 57009
13873KAHN AHN20160505035013705/05/16 03:50:31  5-MIN KAHN 050850Z AUTO 29007KT 250V320 10SM CLR 11/09 A2968 1030 89 800 300/07 260V330 RMK AO2 SLP048 T01060089 57009
13873KAHN AHN20160505035510805/05/16 03:55:31  5-MIN KAHN 050855Z AUTO 30008KT 10SM CLR 11/09 A2968 1030 89 800 300/08 RMK AO2 T01060089
13873KAHN AHN20160505040010805/05/16 04:00:31  5-MIN KAHN 050900Z AUTO 30009KT 10SM CLR 11/09 A2968 1040 89 800 300/09 RMK AO2 T01060089
13873KAHN AHN20160505040510805/05/16 04:05:31  5-MIN KAHN 050905Z AUTO 30007KT 10SM CLR 11/09 A2968 1040 89 800 300/07 RMK AO2 T01060089
13873KAHN AHN20160505041011405/05/16 04:10:31  5-MIN KAHN 050910Z AUTO 30009G14KT 10SM CLR 10/09 A2968 1040 93 700 310/09G14 RMK AO2 T01000089
13873KAHN AHN20160505041510805/05/16 04:15:31  5-MIN KAHN 050915Z AUTO 30010KT 10SM CLR 11/09 A2968 1040 89 800 300/10 RMK AO2 T01060089
13873KAHN AHN20160505042010805/05/16 04:20:31  5-MIN KAHN 050920Z AUTO 29009KT 10SM CLR 11/08 A2968 1030 86 800 300/09 RMK AO2 T01060083
13873KAHN AHN20160505042510805/05/16 04:25:31  5-MIN KAHN 050925Z AUTO 29009KT 10SM CLR 10/08 A2968 1030 89 700 300/09 RMK AO2 T01000083
13873KAHN AHN20160505043010805/05/16 04:30:31  5-MIN KAHN 050930Z AUTO 30008KT 10SM CLR 10/08 A2968 1030 89 700 310/08 RMK AO2 T01000083
13873KAHN AHN20160505043510805/05/16 04:35:31  5-MIN KAHN 050935Z AUTO 30008KT 10SM CLR 10/08 A2968 1030 89 700 300/08 RMK AO2 T01000083
13873KAHN AHN20160505044010805/05/16 04:40:31  5-MIN KAHN 050940Z AUTO 29006KT 10SM CLR 10/08 A2968 1030 89 700 300/06 RMK AO2 T01000083
13873KAHN AHN20160505044511505/05/16 04:45:31  5-MIN KAHN 050945Z AUTO 29007KT 10SM CLR 10/08 A2969 1030 89 700 300/07 RMK AO2 SLP049 T01000083
13873KAHN AHN20160505045011505/05/16 04:50:31  5-MIN KAHN 050950Z AUTO 30007KT 10SM CLR 10/08 A2969 1030 89 700 310/07 RMK AO2 SLP050 T01000083
13873KAHN AHN20160505045510805/05/16 04:55:31  5-MIN KAHN 050955Z AUTO 29006KT 10SM CLR 10/08 A2969 1030 86 700 300/06 RMK AO2 T01000078
13873KAHN AHN20160505050010805/05/16 05:00:31  5-MIN KAHN 051000Z AUTO 29006KT 10SM CLR 10/08 A2969 1030 86 700 290/06 RMK AO2 T01000078
13873KAHN AHN20160505050510805/05/16 05:05:31  5-MIN KAHN 051005Z AUTO 29006KT 10SM CLR 10/08 A2969 1030 86 700 300/06 RMK AO2 T01000078
13873KAHN AHN20160505051010805/05/16 05:10:31  5-MIN KAHN 051010Z AUTO 29006KT 10SM CLR 10/08 A2969 1030 86 700 290/06 RMK AO2 T01000078
13873KAHN AHN20160505051510805/05/16 05:15:31  5-MIN KAHN 051015Z AUTO 29006KT 10SM CLR 10/08 A2969 1030 86 700 300/06 RMK AO2 T01000078
13873KAHN AHN20160505052010805/05/16 05:20:31  5-MIN KAHN 051020Z AUTO 30007KT 10SM CLR 10/08 A2969 1030 86 700 300/07 RMK AO2 T01000078
13873KAHN AHN20160505052510805/05/16 05:25:31  5-MIN KAHN 051025Z AUTO 29007KT 10SM CLR 10/08 A2969 1030 86 700 300/07 RMK AO2 T01000078
13873KAHN AHN20160505053010805/05/16 05:30:31  5-MIN KAHN 051030Z AUTO 29007KT 10SM CLR 10/08 A2969 1030 86 700 290/07 RMK AO2 T01000078
13873KAHN AHN20160505053510805/05/16 05:35:31  5-MIN KAHN 051035Z AUTO 29006KT 10SM CLR 10/08 A2969 1030 89 700 300/06 RMK AO2 T01000083
13873KAHN AHN20160505054010805/05/16 05:40:31  5-MIN KAHN 051040Z AUTO 29007KT 10SM CLR 10/08 A2969 1020 89 700 290/07 RMK AO2 T01000083
13873KAHN AHN20160505054511505/05/16 05:45:31  5-MIN KAHN 051045Z AUTO 28006KT 10SM CLR 10/08 A2969 1020 89 700 290/06 RMK AO2 SLP051 T01000083
13873KAHN AHN20160505055011505/05/16 05:50:31  5-MIN KAHN 051050Z AUTO 29007KT 10SM CLR 10/08 A2969 1020 89 700 300/07 RMK AO2 SLP052 T01000083
13873KAHN AHN20160505055512405/05/16 05:55:31  5-MIN KAHN 051055Z AUTO 28008KT 250V320 10SM CLR 10/08 A2969 1020 89 700 290/08 260V330 RMK AO2 T01000083
13873KAHN AHN20160505060010805/05/16 06:00:31  5-MIN KAHN 051100Z AUTO 30007KT 10SM CLR 10/08 A2970 1020 86 700 310/07 RMK AO2 T01000078
13873KAHN AHN20160505060510805/05/16 06:05:31  5-MIN KAHN 051105Z AUTO 30007KT 10SM CLR 10/08 A2970 1020 89 700 310/07 RMK AO2 T01000083
13873KAHN AHN20160505061010805/05/16 06:10:31  5-MIN KAHN 051110Z AUTO 29008KT 10SM CLR 10/08 A2970 1020 86 700 300/08 RMK AO2 T01000078
13873KAHN AHN20160505061511405/05/16 06:15:31  5-MIN KAHN 051115Z AUTO 30006G15KT 10SM CLR 10/08 A2970 1020 86 700 300/06G15 RMK AO2 T01000078
13873KAHN AHN20160505062010805/05/16 06:20:31  5-MIN KAHN 051120Z AUTO 29007KT 10SM CLR 10/08 A2970 1010 89 700 300/07 RMK AO2 T01000083
13873KAHN AHN20160505062510805/05/16 06:25:31  5-MIN KAHN 051125Z AUTO 29006KT 10SM CLR 10/08 A2970 1010 89 700 300/06 RMK AO2 T01000083
13873KAHN AHN20160505063010805/05/16 06:30:31  5-MIN KAHN 051130Z AUTO 30007KT 10SM CLR 10/08 A2970 1010 89 700 300/07 RMK AO2 T01000083
13873KAHN AHN20160505063510805/05/16 06:35:31  5-MIN KAHN 051135Z AUTO 30007KT 10SM CLR 11/08 A2971 1010 86 800 300/07 RMK AO2 T01060083
13873KAHN AHN20160505064010805/05/16 06:40:31  5-MIN KAHN 051140Z AUTO 29007KT 10SM CLR 11/08 A2971 1010 86 800 300/07 RMK AO2 T01060083
13873KAHN AHN20160505064512805/05/16 06:45:31  5-MIN KAHN 051145Z 31007KT 10SM CLR 11/08 A2971 1010 83 800 310/07 RMK AO2 SLP058 T01060078 10122 20094 56009
13873KAHN AHN20160505065012805/05/16 06:50:31  5-MIN KAHN 051150Z 30006KT 10SM CLR 11/08 A2971 1010 80 800 310/06 RMK AO2 SLP059 T01110078 10122 20094 56009
13873KAHN AHN20160505065510305/05/16 06:55:31  5-MIN KAHN 051155Z 30007KT 10SM CLR 11/08 A2971 1000 80 800 310/07 RMK AO2 T01110078
13873KAHN AHN20160505070010305/05/16 07:00:31  5-MIN KAHN 051200Z 30009KT 10SM CLR 11/08 A2971 1000 80 800 300/09 RMK AO2 T01110078
13873KAHN AHN20160505070510305/05/16 07:05:31  5-MIN KAHN 051205Z 29008KT 10SM CLR 11/08 A2972 1000 80 800 300/08 RMK AO2 T01110078
13873KAHN AHN20160505071010305/05/16 07:10:31  5-MIN KAHN 051210Z 29007KT 10SM CLR 11/08 A2972 1000 80 800 290/07 RMK AO2 T01110078
13873KAHN AHN20160505071510305/05/16 07:15:31  5-MIN KAHN 051215Z 29009KT 10SM CLR 12/08 A2972 1000 77 900 300/09 RMK AO2 T01170078
13873KAHN AHN20160505072010305/05/16 07:20:31  5-MIN KAHN 051220Z 29008KT 10SM CLR 12/08 A2972 1000 77 900 300/08 RMK AO2 T01170078
13873KAHN AHN20160505072510205/05/16 07:25:31  5-MIN KAHN 051225Z 29008KT 10SM CLR 12/08 A2972 990 77 900 290/08 RMK AO2 T01170078
13873KAHN AHN20160505073010205/05/16 07:30:31  5-MIN KAHN 051230Z 31009KT 10SM CLR 12/08 A2972 990 74 900 310/09 RMK AO2 T01220078
13873KAHN AHN20160505073510205/05/16 07:35:31  5-MIN KAHN 051235Z 30008KT 10SM CLR 12/08 A2973 990 74 900 300/08 RMK AO2 T01220078
13873KAHN AHN20160505074010805/05/16 07:40:31  5-MIN KAHN 051240Z 31009G15KT 10SM CLR 12/08 A2972 990 74 900 310/09G15 RMK AO2 T01220078
13873KAHN AHN20160505074511505/05/16 07:45:31  5-MIN KAHN 051245Z 31009G15KT 10SM CLR 12/07 A2973 990 71 900 310/09G15 RMK AO2 SLP065 T01220072
13873KAHN AHN20160505075011505/05/16 07:50:31  5-MIN KAHN 051250Z 30011G18KT 10SM CLR 12/07 A2973 990 71 900 310/11G18 RMK AO2 SLP065 T01220072
13873KAHN AHN20160505075510905/05/16 07:55:31  5-MIN KAHN 051255Z 31007G18KT 10SM CLR 13/07 A2973 990 69 1000 320/07G18 RMK AO2 T01280072
13873KAHN AHN20160505080010905/05/16 08:00:31  5-MIN KAHN 051300Z 29011G16KT 10SM CLR 13/07 A2973 990 69 1000 290/11G16 RMK AO2 T01280072
13873KAHN AHN20160505080510905/05/16 08:05:31  5-MIN KAHN 051305Z 30010G16KT 10SM CLR 13/07 A2973 990 69 1000 310/10G16 RMK AO2 T01280072
13873KAHN AHN20160505081010905/05/16 08:10:31  5-MIN KAHN 051310Z 30012G20KT 10SM CLR 13/07 A2973 990 69 1000 310/12G20 RMK AO2 T01280072
13873KAHN AHN20160505081510905/05/16 08:15:31  5-MIN KAHN 051315Z 31008G20KT 10SM CLR 13/07 A2973 980 66 1100 310/08G20 RMK AO2 T01330072
13873KAHN AHN20160505082010905/05/16 08:20:31  5-MIN KAHN 051320Z 31012G18KT 10SM CLR 14/07 A2973 990 64 1100 320/12G18 RMK AO2 T01390072
13873KAHN AHN20160505082510905/05/16 08:25:31  5-MIN KAHN 051325Z 31011G18KT 10SM CLR 13/07 A2973 980 64 1100 320/11G18 RMK AO2 T01330067
13873KAHN AHN20160505083012505/05/16 08:30:31  5-MIN KAHN 051330Z 31008G17KT 280V350 10SM CLR 13/07 A2974 980 64 1100 320/08G17 290V360 RMK AO2 T01330067
13873KAHN AHN20160505083510905/05/16 08:35:31  5-MIN KAHN 051335Z VRB06G16KT 10SM CLR 14/07 A2974 980 61 1100 VRB/06G16 RMK AO2 T01390067
13873KAHN AHN20160505084010305/05/16 08:40:31  5-MIN KAHN 051340Z 31008KT 10SM CLR 14/07 A2974 980 59 1200 320/08 RMK AO2 T01440067
13873KAHN AHN20160505084511605/05/16 08:45:31  5-MIN KAHN 051345Z 30012G17KT 10SM CLR 14/07 A2974 980 61 1100 310/12G17 RMK AO2 SLP067 T01390067
13873KAHN AHN20160505085011605/05/16 08:50:31  5-MIN KAHN 051350Z 30010G20KT 10SM CLR 14/06 A2974 980 57 1200 310/10G20 RMK AO2 SLP067 T01440061
13873KAHN AHN20160505085510905/05/16 08:55:31  5-MIN KAHN 051355Z 32014G21KT 10SM CLR 14/06 A2974 980 57 1100 320/14G21 RMK AO2 T01390056
13873KAHN AHN20160505090010905/05/16 09:00:31  5-MIN KAHN 051400Z 30011G21KT 10SM CLR 14/06 A2974 980 55 1200 310/11G21 RMK AO2 T01440056
13873KAHN AHN20160505090510905/05/16 09:05:31  5-MIN KAHN 051405Z 31009G19KT 10SM CLR 14/06 A2974 980 55 1200 310/09G19 RMK AO2 T01440056
13873KAHN AHN20160505091012505/05/16 09:10:31  5-MIN KAHN 051410Z 31013G19KT 270V330 10SM CLR 15/06 A2974 980 53 1200 310/13G19 280V340 RMK AO2 T01500056
13873KAHN AHN20160505091510905/05/16 09:15:31  5-MIN KAHN 051415Z 31009G24KT 10SM CLR 15/06 A2974 980 53 1200 310/09G24 RMK AO2 T01500056
13873KAHN AHN20160505092010805/05/16 09:20:31  5-MIN KAHN 051420Z 30012G24KT 9SM CLR 15/05 A2974 980 51 1200 310/12G24 RMK AO2 T01500050
13873KAHN AHN20160505092510905/05/16 09:25:31  5-MIN KAHN 051425Z 33011G20KT 10SM CLR 15/05 A2974 980 51 1200 340/11G20 RMK AO2 T01500050
13873KAHN AHN20160505093010905/05/16 09:30:31  5-MIN KAHN 051430Z 33011G19KT 10SM CLR 15/05 A2974 980 51 1200 330/11G19 RMK AO2 T01500050
13873KAHN AHN20160505093510905/05/16 09:35:31  5-MIN KAHN 051435Z 30010G17KT 10SM CLR 16/05 A2974 970 49 1300 310/10G17 RMK AO2 T01560050
13873KAHN AHN20160505094010905/05/16 09:40:31  5-MIN KAHN 051440Z 32012G19KT 10SM CLR 16/04 A2974 970 47 1300 320/12G19 RMK AO2 T01560044
13873KAHN AHN20160505094513805/05/16 09:45:31  5-MIN KAHN 051445Z 30009G19KT 250V340 10SM CLR 16/05 A2974 980 49 1300 310/09G19 260V350 RMK AO2 SLP069 T01560050 53010
13873KAHN AHN20160505095013805/05/16 09:50:31  5-MIN KAHN 051450Z 33009G18KT 290V020 10SM CLR 16/06 A2974 970 49 1400 330/09G18 300V030 RMK AO2 SLP070 T01610056 53010
13873KAHN AHN20160505095510905/05/16 09:55:31  5-MIN KAHN 051455Z 31012G23KT 10SM CLR 16/04 A2975 970 47 1300 320/12G23 RMK AO2 T01560044
13873KAHN AHN20160505100010905/05/16 10:00:31  5-MIN KAHN 051500Z 32013G23KT 10SM CLR 16/04 A2975 970 45 1400 330/13G23 RMK AO2 T01610044
13873KAHN AHN20160505100510905/05/16 10:05:31  5-MIN KAHN 051505Z 32010G21KT 10SM CLR 16/04 A2974 970 45 1400 330/10G21 RMK AO2 T01610044
13873KAHN AHN20160505101010905/05/16 10:10:31  5-MIN KAHN 051510Z 30016G22KT 10SM CLR 16/04 A2975 970 45 1400 300/16G22 RMK AO2 T01610044
13873KAHN AHN20160505101512705/05/16 10:15:31  5-MIN KAHN 051515Z 30011G22KT 260V330 9SM FEW048 17/04 A2975 970 44 1400 310/11G22 270V340 RMK AO2 T01670044
13873KAHN AHN20160505102011105/05/16 10:20:31  5-MIN KAHN 051520Z 30012G18KT 8SM FEW050 17/05 A2975 970 45 1400 310/12G18 RMK AO2 T01670050
13873KAHN AHN20160505102511805/05/16 10:25:31  5-MIN KAHN 051525Z 32014G23KT 9SM FEW048 FEW060 16/04 A2975 970 45 1300 320/14G23 RMK AO2 T01560039
13873KAHN AHN20160505103013405/05/16 10:30:31  5-MIN KAHN 051530Z 32009G23KT 280V350 9SM SCT050 SCT060 16/04 A2975 970 47 1300 320/09G23 290V360 RMK AO2 T01560044
13873KAHN AHN20160505103511805/05/16 10:35:31  5-MIN KAHN 051535Z 31010G23KT 8SM SCT050 SCT060 16/04 A2975 970 45 1300 310/10G23 RMK AO2 T01560039
13873KAHN AHN20160505104013405/05/16 10:40:31  5-MIN KAHN 051540Z 30009G23KT 270V330 8SM SCT050 SCT060 17/04 A2975 970 41 1500 310/09G23 280V340 RMK AO2 T01720039
13873KAHN AHN20160505104512605/05/16 10:45:31  5-MIN KAHN 051545Z 30010G21KT 10SM SCT050 BKN060 16/04 A2975 970 45 1400 310/10G21 RMK AO2 SLP073 T01610044
13873KAHN AHN20160505105012605/05/16 10:50:31  5-MIN KAHN 051550Z 29012G18KT 10SM SCT050 BKN060 16/04 A2975 970 44 1400 300/12G18 RMK AO2 SLP073 T01610039
13873KAHN AHN20160505105513505/05/16 10:55:31  5-MIN KAHN 051555Z 32011G20KT 290V350 10SM SCT050 BKN060 17/03 A2975 970 40 1400 320/11G20 300V360 RMK AO2 T01670033
13873KAHN AHN20160505110011905/05/16 11:00:31  5-MIN KAHN 051600Z 29013G20KT 10SM FEW048 BKN060 16/03 A2975 970 43 1300 300/13G20 RMK AO2 T01560033
13873KAHN AHN20160505110511905/05/16 11:05:31  5-MIN KAHN 051605Z 32010G19KT 10SM SCT055 BKN070 16/03 A2975 970 42 1400 330/10G19 RMK AO2 T01610033
13873KAHN AHN20160505111011905/05/16 11:10:31  5-MIN KAHN 051610Z 31010G16KT 10SM SCT055 BKN075 17/04 A2975 970 41 1500 310/10G16 RMK AO2 T01720039
13873KAHN AHN20160505111511905/05/16 11:15:31  5-MIN KAHN 051615Z 30014G19KT 10SM SCT055 BKN075 16/03 A2975 970 42 1400 310/14G19 RMK AO2 T01610033
13873KAHN AHN20160505112011905/05/16 11:20:31  5-MIN KAHN 051620Z 31012G19KT 10SM SCT055 BKN075 16/04 A2975 970 44 1400 310/12G19 RMK AO2 T01610039
13873KAHN AHN20160505112511905/05/16 11:25:31  5-MIN KAHN 051625Z 32009G20KT 10SM FEW055 BKN075 17/04 A2975 970 42 1400 320/09G20 RMK AO2 T01670039
13873KAHN AHN20160505113013505/05/16 11:30:31  5-MIN KAHN 051630Z 33011G21KT 290V010 10SM FEW055 BKN080 17/04 A2975 970 41 1500 340/11G21 300V020 RMK AO2 T01720039
13873KAHN AHN20160505113511905/05/16 11:35:31  5-MIN KAHN 051635Z 32011G25KT 10SM SCT055 BKN080 17/03 A2974 980 39 1400 320/11G25 RMK AO2 T01670028
13873KAHN AHN20160505114011905/05/16 11:40:31  5-MIN KAHN 051640Z 31012G25KT 10SM SCT055 BKN080 17/03 A2974 980 39 1400 320/12G25 RMK AO2 T01670028
13873KAHN AHN20160505114512605/05/16 11:45:31  5-MIN KAHN 051645Z 31009G19KT 10SM SCT060 BKN080 17/03 A2974 980 40 1400 320/09G19 RMK AO2 SLP068 T01670033
13873KAHN AHN20160505115014205/05/16 11:50:31  5-MIN KAHN 051650Z 30012G20KT 270V330 10SM SCT060 BKN075 18/04 A2974 980 39 1600 310/12G20 280V340 RMK AO2 SLP069 T01780039
13873KAHN AHN20160505115513405/05/16 11:55:31  5-MIN KAHN 051655Z 31012G25KT 280V340 8SM BKN060 BKN075 17/03 A2974 980 37 1500 320/12G25 290V350 RMK AO2 T01720028
13873KAHN AHN20160505120011105/05/16 12:00:31  5-MIN KAHN 051700Z 28012G25KT 8SM BKN060 16/03 A2974 980 42 1400 280/12G25 RMK AO2 T01610033
13873KAHN AHN20160505120511905/05/16 12:05:31  5-MIN KAHN 051705Z 29011G22KT 10SM BKN060 BKN075 16/03 A2974 980 43 1300 290/11G22 RMK AO2 T01560033
13873KAHN AHN20160505121012605/05/16 12:10:31  5-MIN KAHN 051710Z 31014G21KT 10SM BKN060 BKN070 BKN090 16/03 A2974 980 43 1300 320/14G21 RMK AO2 T01560033
13873KAHN AHN20160505121513505/05/16 12:15:31  5-MIN KAHN 051715Z 30012G20KT 270V330 10SM BKN065 BKN095 17/04 A2974 980 42 1400 310/12G20 280V340 RMK AO2 T01670039
13873KAHN AHN20160505122012605/05/16 12:20:31  5-MIN KAHN 051720Z 31014G20KT 10SM SCT060 BKN070 OVC090 17/03 A2974 980 40 1400 320/14G20 RMK AO2 T01670033
13873KAHN AHN20160505122512605/05/16 12:25:31  5-MIN KAHN 051725Z 30014G21KT 10SM BKN060 BKN075 OVC090 16/03 A2974 980 42 1400 310/14G21 RMK AO2 T01610033
13873KAHN AHN20160505123012505/05/16 12:30:31  5-MIN KAHN 051730Z 30016G24KT 8SM BKN060 BKN075 OVC090 16/03 A2974 970 43 1300 310/16G24 RMK AO2 T01560033
13873KAHN AHN20160505123512505/05/16 12:35:31  5-MIN KAHN 051735Z 32010G24KT 7SM BKN060 BKN075 OVC090 16/04 A2974 980 47 1300 320/10G24 RMK AO2 T01560044
13873KAHN AHN20160505124011805/05/16 12:40:31  5-MIN KAHN 051740Z 31011G19KT 9SM BKN065 OVC090 16/03 A2974 980 42 1400 310/11G19 RMK AO2 T01610033
13873KAHN AHN20160505124515105/05/16 12:45:31  5-MIN KAHN 051745Z 31014G25KT 10SM SCT060 BKN075 OVC090 16/03 A2974 980 40 1400 310/14G25 RMK AO2 SLP069 T01610028 10178 20111 51010
13873KAHN AHN20160505125014305/05/16 12:50:31  5-MIN KAHN 051750Z 31013G25KT 9SM SCT060 OVC075 16/03 A2974 980 43 1300 310/13G25 RMK AO2 SLP070 T01560033 10178 20111 51010
13873KAHN AHN20160505125512505/05/16 12:55:31  5-MIN KAHN 051755Z 32012G21KT 9SM FEW060 BKN080 BKN090 17/03 A2974 980 40 1400 330/12G21 RMK AO2 T01670033
13873KAHN AHN20160505130011905/05/16 13:00:31  5-MIN KAHN 051800Z 30011G21KT 10SM BKN075 BKN090 17/03 A2974 980 39 1500 310/11G21 RMK AO2 T01720033
13873KAHN AHN20160505130512805/05/16 13:05:31  5-MIN KAHN 051805Z 30012G20KT 280V340 10SM SCT075 17/03 A2974 980 39 1500 310/12G20 290V350 RMK AO2 T01720033
13873KAHN AHN20160505131011205/05/16 13:10:31  5-MIN KAHN 051810Z 30010G18KT 10SM FEW080 18/04 A2973 980 38 1600 300/10G18 RMK AO2 T01830039
13873KAHN AHN20160505131511205/05/16 13:15:31  5-MIN KAHN 051815Z 29015G22KT 10SM FEW085 18/04 A2973 980 38 1600 290/15G22 RMK AO2 T01830039
13873KAHN AHN20160505132012805/05/16 13:20:31  5-MIN KAHN 051820Z 28012G22KT 250V320 10SM FEW055 18/04 A2973 990 38 1600 290/12G22 260V330 RMK AO2 T01830039
13873KAHN AHN20160505132513505/05/16 13:25:31  5-MIN KAHN 051825Z 33012G22KT 300V020 10SM FEW060 SCT080 18/03 A2973 990 36 1600 340/12G22 310V030 RMK AO2 T01830033
13873KAHN AHN20160505133011905/05/16 13:30:31  5-MIN KAHN 051830Z 30014G22KT 10SM FEW060 BKN080 18/03 A2973 990 38 1600 300/14G22 RMK AO2 T01780033
13873KAHN AHN20160505133512505/05/16 13:35:31  5-MIN KAHN 051835Z 32012G22KT 9SM FEW060 SCT075 BKN090 18/03 A2973 980 38 1600 330/12G22 RMK AO2 T01780033
13873KAHN AHN20160505134014205/05/16 13:40:31  5-MIN KAHN 051840Z 30008G21KT 250V330 10SM FEW060 SCT075 BKN090 18/04 A2973 990 38 1600 310/08G21 260V340 RMK AO2 T01830039
13873KAHN AHN20160505134514205/05/16 13:45:31  5-MIN KAHN 051845Z 31010G19KT 280V340 10SM FEW060 BKN080 18/04 A2973 990 39 1600 310/10G19 290V350 RMK AO2 SLP065 T01780039
13873KAHN AHN20160505135012605/05/16 13:50:31  5-MIN KAHN 051850Z 31013G19KT 10SM FEW060 BKN080 17/03 A2973 990 39 1500 310/13G19 RMK AO2 SLP064 T01720033
13873KAHN AHN20160505135512605/05/16 13:55:31  5-MIN KAHN 051855Z 32010G19KT 10SM FEW060 SCT080 BKN090 18/03 A2973 990 38 1600 320/10G19 RMK AO2 T01780033
13873KAHN AHN20160505140011905/05/16 14:00:31  5-MIN KAHN 051900Z 32009G21KT 10SM SCT065 BKN085 17/03 A2972 990 39 1500 320/09G21 RMK AO2 T01670028
13873KAHN AHN20160505140515105/05/16 14:05:31  5-MIN KAHN 051905Z 31011G21KT 280V340 10SM -RA SCT065 BKN085 17/03 A2973 990 40 1500 310/11G21 290V350 RMK AO2 RAB03 P0000 T01670033
13873KAHN AHN20160505141013505/05/16 14:10:31  5-MIN KAHN 051910Z 29015G22KT 10SM -RA SCT065 BKN085 17/03 A2973 990 39 1500 300/15G22 RMK AO2 RAB03 P0000 T01720033
13873KAHN AHN20160505141514005/05/16 14:15:31  5-MIN KAHN 051915Z 30011G22KT 9SM FEW065 BKN085 BKN100 18/03 A2973 990 38 1600 310/11G22 RMK AO2 RAB03E14 P0000 T01780033
13873KAHN AHN20160505142014005/05/16 14:20:31  5-MIN KAHN 051920Z 31013G21KT 8SM FEW065 SCT085 BKN100 18/03 A2973 990 36 1600 310/13G21 RMK AO2 RAB03E14 P0000 T01830033
13873KAHN AHN20160505142514005/05/16 14:25:31  5-MIN KAHN 051925Z 31011G21KT 9SM FEW065 FEW080 BKN090 17/03 A2972 990 39 1500 320/11G21 RMK AO2 RAB03E14 P0000 T01720033
13873KAHN AHN20160505143013305/05/16 14:30:31  5-MIN KAHN 051930Z 33011G21KT 9SM FEW080 BKN095 17/03 A2973 990 39 1500 330/11G21 RMK AO2 RAB03E14 P0000 T01720033
13873KAHN AHN20160505143513405/05/16 14:35:31  5-MIN KAHN 051935Z 31012G21KT 10SM FEW070 BKN090 17/03 A2973 980 39 1400 320/12G21 RMK AO2 RAB03E14 P0000 T01670028
13873KAHN AHN20160505144013405/05/16 14:40:31  5-MIN KAHN 051940Z 32012G21KT 10SM SCT065 BKN090 16/03 A2974 980 42 1300 320/12G21 RMK AO2 RAB03E14 P0000 T01560028
13873KAHN AHN20160505144517305/05/16 14:45:31  5-MIN KAHN 051945Z 28017G29KT 10SM FEW046 BKN070 OVC090 15/03 A2975 970 45 1200 290/17G29 RMK AO2 PK WND 32029/1942 RAB03E14 PRESRR SLP074 P0000 T01500033
13873KAHN AHN20160505145017805/05/16 14:50:31  5-MIN KAHN 051950Z 31020G30KT 2SM +RA FEW027 BKN050 OVC090 11/07 A2977 950 77 800 310/20G30 RMK AO2 PK WND 31030/1950 RAB03E14B46 PRESRR SLP081 P0001 T01110072
13873KAHN AHN20160505145517305/05/16 14:55:31  5-MIN KAHN 051955Z 31015G30KT 1 1/4SM RA BR SCT032 BKN050 OVC090 10/08 A2977 950 86 600 310/15G30 RMK AO2 PK WND 32026/1953 VIS 1V2 PRESRR P0003 T01000078
13873KAHN AHN20160505150015505/05/16 15:00:31  5-MIN KAHN 052000Z 33010G26KT 1 3/4SM RA SCT034 BKN045 OVC070 10/07 A2977 950 83 600 330/10G26 RMK AO2 PK WND 32026/1953 P0005 T01000072
13873KAHN AHN20160505150515205/05/16 15:05:31  5-MIN KAHN 052005Z 33012G22KT 3SM -RA BKN042 BKN050 OVC070 10/07 A2977 950 83 600 340/12G22 RMK AO2 PK WND 32026/1953 P0005 T01000072
13873KAHN AHN20160505151014505/05/16 15:10:31  5-MIN KAHN 052010Z 33010G22KT 8SM -RA BKN046 OVC060 10/08 A2977 950 86 600 330/10G22 RMK AO2 PK WND 32026/1953 P0005 T01000078
13873KAHN AHN20160505151514505/05/16 15:15:31  5-MIN KAHN 052015Z 31008G20KT 9SM -RA BKN042 OVC049 10/08 A2977 950 86 600 320/08G20 RMK AO2 PK WND 32026/1953 P0005 T01000078
13873KAHN AHN20160505152015205/05/16 15:20:31  5-MIN KAHN 052020Z 32007G17KT 9SM -RA BKN046 BKN065 OVC080 10/08 A2976 960 86 600 320/07G17 RMK AO2 PK WND 32026/1953 P0005 T01000078
13873KAHN AHN20160505152515305/05/16 15:25:31  5-MIN KAHN 052025Z 31010G17KT 10SM -RA BKN050 BKN065 OVC080 10/08 A2978 940 86 600 320/10G17 RMK AO2 PK WND 32026/1953 P0005 T01000078
13873KAHN AHN20160505153014605/05/16 15:30:31  5-MIN KAHN 052030Z 30011G17KT 10SM -RA BKN050 OVC065 10/08 A2978 940 89 600 300/11G17 RMK AO2 PK WND 32026/1953 P0005 T01000083
13873KAHN AHN20160505153514705/05/16 15:35:31  5-MIN KAHN 052035Z 27009G17KT 4SM RA BR BKN043 OVC060 09/08 A2977 950 93 500 270/09G17 RMK AO2 PK WND 32026/1953 P0005 T00940083
13873KAHN AHN20160505154017005/05/16 15:40:31  5-MIN KAHN 052040Z 25007G17KT 170V360 2SM RA BR BKN041 OVC055 09/08 A2974 980 93 600 260/07G17 180V010 RMK AO2 PK WND 32026/1953 PRESFR P0009 T00940083
13873KAHN AHN20160505154517105/05/16 15:45:31  5-MIN KAHN 052045Z 30010G16KT 4SM -RA BKN041 BKN055 OVC075 10/07 A2974 980 83 700 310/10G16 RMK AO2 PK WND 32026/1953 SLP071 P0010 60012 T01000072 58000
13873KAHN AHN20160505155017405/05/16 15:50:31  5-MIN KAHN 052050Z 27006G16KT 4SM -RA BR SCT043 BKN060 BKN075 11/08 A2975 970 86 700 280/06G16 RMK AO2 PK WND 32026/1953 SLP074 P0010 60012 T01060083 58000
13873KAHN AHN20160505155512505/05/16 15:55:31  5-MIN KAHN 052055Z 27006G15KT 10SM SCT041 BKN090 BKN110 12/09 A2975 970 83 800 280/06G15 RMK AO2 T01170089
13873KAHN AHN20160505160011905/05/16 16:00:31  5-MIN KAHN 052100Z 30006KT 10SM FEW041 SCT075 BKN090 12/09 A2975 970 83 900 300/06 RMK AO2 T01220094
13873KAHN AHN20160505160511905/05/16 16:05:31  5-MIN KAHN 052105Z 30006KT 10SM FEW041 SCT090 BKN110 12/09 A2975 970 83 900 300/06 RMK AO2 T01220094
13873KAHN AHN20160505161011305/05/16 16:10:31  5-MIN KAHN 052110Z VRB06KT 10SM FEW085 SCT110 13/10 A2975 970 83 1000 VRB/06 RMK AO2 T01280100
13873KAHN AHN20160505161510605/05/16 16:15:31  5-MIN KAHN 052115Z 32009KT 10SM SCT085 13/09 A2975 970 77 1000 320/09 RMK AO2 T01330094
13873KAHN AHN20160505162011205/05/16 16:20:31  5-MIN KAHN 052120Z 31009G16KT 10SM SCT080 13/09 A2975 970 77 1000 310/09G16 RMK AO2 T01330094
13873KAHN AHN20160505162511205/05/16 16:25:31  5-MIN KAHN 052125Z 29007G16KT 10SM SCT080 13/09 A2975 970 77 1000 290/07G16 RMK AO2 T01330094
13873KAHN AHN20160505163010605/05/16 16:30:31  5-MIN KAHN 052130Z 28007KT 10SM FEW080 13/09 A2975 970 77 1000 290/07 RMK AO2 T01330094
13873KAHN AHN20160505163510605/05/16 16:35:31  5-MIN KAHN 052135Z 31007KT 10SM FEW080 13/09 A2975 970 77 1000 310/07 RMK AO2 T01330094
13873KAHN AHN20160505164010605/05/16 16:40:31  5-MIN KAHN 052140Z 31007KT 10SM FEW080 13/09 A2975 970 77 1000 310/07 RMK AO2 T01330094
13873KAHN AHN20160505164511005/05/16 16:45:31  5-MIN KAHN 052145Z VRB06KT 10SM CLR 14/10 A2975 970 77 1100 VRB/06 RMK AO2 SLP072 T01390100
13873KAHN AHN20160505165011305/05/16 16:50:31  5-MIN KAHN 052150Z 29007KT 10SM FEW120 14/11 A2975 970 77 1200 290/07 RMK AO2 SLP072 T01440106
13873KAHN AHN20160505165512905/05/16 16:55:31  5-MIN KAHN 052155Z 29007KT 260V320 10SM FEW024 FEW120 15/11 A2974 980 74 1200 300/07 270V330 RMK AO2 T01500106
13873KAHN AHN20160505170012905/05/16 17:00:31  5-MIN KAHN 052200Z 27007KT 230V310 10SM FEW024 FEW120 14/09 A2974 970 72 1200 280/07 240V320 RMK AO2 T01440094
13873KAHN AHN20160505170511905/05/16 17:05:31  5-MIN KAHN 052205Z 30008G15KT 10SM FEW024 FEW120 14/09 A2975 970 71 1100 300/08G15 RMK AO2 T01390089
13873KAHN AHN20160505171013505/05/16 17:10:31  5-MIN KAHN 052210Z 30008G16KT 270V340 10SM FEW024 FEW120 14/08 A2975 970 66 1100 310/08G16 280V350 RMK AO2 T01390078
13873KAHN AHN20160505171511905/05/16 17:15:31  5-MIN KAHN 052215Z 32011G19KT 10SM FEW023 FEW120 14/07 A2974 970 64 1100 320/11G19 RMK AO2 T01390072
13873KAHN AHN20160505172011205/05/16 17:20:31  5-MIN KAHN 052220Z 30008G19KT 10SM FEW023 14/07 A2975 970 61 1100 310/08G19 RMK AO2 T01390067
13873KAHN AHN20160505172510905/05/16 17:25:31  5-MIN KAHN 052225Z 30009G17KT 10SM CLR 14/07 A2974 980 64 1100 300/09G17 RMK AO2 T01390072
13873KAHN AHN20160505173010905/05/16 17:30:31  5-MIN KAHN 052230Z 29009G16KT 10SM CLR 14/07 A2974 980 64 1100 300/09G16 RMK AO2 T01390072
13873KAHN AHN20160505173510905/05/16 17:35:31  5-MIN KAHN 052235Z 30011G16KT 10SM CLR 14/07 A2974 980 64 1100 300/11G16 RMK AO2 T01390072
13873KAHN AHN20160505174010905/05/16 17:40:31  5-MIN KAHN 052240Z 30009G17KT 10SM CLR 14/07 A2974 970 64 1100 310/09G17 RMK AO2 T01390072
13873KAHN AHN20160505174511605/05/16 17:45:31  5-MIN KAHN 052245Z 31009G17KT 10SM CLR 14/07 A2974 970 64 1100 310/09G17 RMK AO2 SLP071 T01390072
13873KAHN AHN20160505175011605/05/16 17:50:31  5-MIN KAHN 052250Z 30009G17KT 10SM CLR 14/07 A2974 970 64 1100 300/09G17 RMK AO2 SLP071 T01390072
13873KAHN AHN20160505175510905/05/16 17:55:31  5-MIN KAHN 052255Z 31011G20KT 10SM CLR 13/07 A2974 970 64 1000 310/11G20 RMK AO2 T01330067
13873KAHN AHN20160505180010905/05/16 18:00:31  5-MIN KAHN 052300Z 30009G20KT 10SM CLR 13/07 A2975 970 64 1000 300/09G20 RMK AO2 T01330067
13873KAHN AHN20160505180510305/05/16 18:05:31  5-MIN KAHN 052305Z 31010KT 10SM CLR 13/07 A2975 970 64 1000 320/10 RMK AO2 T01330067
13873KAHN AHN20160505181010905/05/16 18:10:31  5-MIN KAHN 052310Z 31008G15KT 10SM CLR 13/07 A2975 970 66 1000 320/08G15 RMK AO2 T01330072
13873KAHN AHN20160505181510905/05/16 18:15:31  5-MIN KAHN 052315Z 30009G15KT 10SM CLR 13/07 A2975 970 66 1000 310/09G15 RMK AO2 T01330072
13873KAHN AHN20160505182010305/05/16 18:20:31  5-MIN KAHN 052320Z 32009KT 10SM CLR 13/07 A2975 970 66 1000 330/09 RMK AO2 T01330072
13873KAHN AHN20160505182510905/05/16 18:25:31  5-MIN KAHN 052325Z 32008G14KT 10SM CLR 13/07 A2976 960 64 1000 320/08G14 RMK AO2 T01330067
13873KAHN AHN20160505183011905/05/16 18:30:31  5-MIN KAHN 052330Z 32007KT 300V360 10SM CLR 13/07 A2976 960 64 1000 320/07 310V010 RMK AO2 T01330067
13873KAHN AHN20160505183510305/05/16 18:35:31  5-MIN KAHN 052335Z 33007KT 10SM CLR 13/07 A2976 960 64 1000 340/07 RMK AO2 T01330067
13873KAHN AHN20160505184010305/05/16 18:40:31  5-MIN KAHN 052340Z 31009KT 10SM CLR 13/06 A2976 960 61 1000 320/09 RMK AO2 T01330061
13873KAHN AHN20160505184513405/05/16 18:45:31  5-MIN KAHN 052345Z VRB06KT 10SM CLR 13/06 A2976 960 59 1000 VRB/06 RMK AO2 SLP077 60012 T01330056 10189 20094 50002
13873KAHN AHN20160505185014005/05/16 18:50:31  5-MIN KAHN 052350Z 32009G17KT 10SM CLR 13/05 A2976 960 57 1000 330/09G17 RMK AO2 SLP077 60012 T01330050 10189 20094 50002
13873KAHN AHN20160505185510905/05/16 18:55:31  5-MIN KAHN 052355Z 32008G17KT 10SM CLR 13/05 A2976 960 57 1000 320/08G17 RMK AO2 T01330050
13873KAHN AHN20160505190010905/05/16 19:00:31  5-MIN KAHN 060000Z 32008G16KT 10SM CLR 13/05 A2977 950 59 1000 320/08G16 RMK AO2 T01280050
13873KAHN AHN20160505190511305/05/16 19:05:31  5-MIN KAHN 060005Z AUTO VRB06G16KT 10SM CLR 13/06 A2977 950 61 900 VRB/06G16 RMK AO2 T01280056
13873KAHN AHN20160505191011305/05/16 19:10:31  5-MIN KAHN 060010Z AUTO 31009G14KT 10SM CLR 13/06 A2977 950 61 900 320/09G14 RMK AO2 T01280056
13873KAHN AHN20160505191511305/05/16 19:15:31  5-MIN KAHN 060015Z AUTO 31010G17KT 10SM CLR 12/05 A2977 950 61 900 320/10G17 RMK AO2 T01220050
13873KAHN AHN20160505192011305/05/16 19:20:31  5-MIN KAHN 060020Z AUTO 31009G17KT 10SM CLR 12/06 A2978 940 63 900 310/09G17 RMK AO2 T01220056
13873KAHN AHN20160505192510705/05/16 19:25:31  5-MIN KAHN 060025Z AUTO 31009KT 10SM CLR 12/06 A2978 940 63 900 310/09 RMK AO2 T01220056
13873KAHN AHN20160505193011305/05/16 19:30:31  5-MIN KAHN 060030Z AUTO 30010G17KT 10SM CLR 12/06 A2978 940 63 900 310/10G17 RMK AO2 T01220056
13873KAHN AHN20160505193511305/05/16 19:35:31  5-MIN KAHN 060035Z AUTO 31009G17KT 10SM CLR 12/06 A2978 940 66 800 310/09G17 RMK AO2 T01170056
13873KAHN AHN20160505194011305/05/16 19:40:31  5-MIN KAHN 060040Z AUTO 31010G16KT 10SM CLR 12/06 A2978 940 66 800 310/10G16 RMK AO2 T01170056
13873KAHN AHN20160505194511405/05/16 19:45:31  5-MIN KAHN 060045Z AUTO 31010KT 10SM CLR 12/06 A2979 930 66 800 310/10 RMK AO2 SLP086 T01170056
13873KAHN AHN20160505195012005/05/16 19:50:31  5-MIN KAHN 060050Z AUTO 32009G18KT 10SM CLR 12/05 A2979 930 63 800 320/09G18 RMK AO2 SLP086 T01170050
13873KAHN AHN20160505195512905/05/16 19:55:31  5-MIN KAHN 060055Z AUTO 31009G18KT 290V350 10SM CLR 12/05 A2979 930 63 800 320/09G18 300V360 RMK AO2 T01170050
13873KAHN AHN20160505200010705/05/16 20:00:31  5-MIN KAHN 060100Z AUTO 30007KT 10SM CLR 11/06 A2979 930 68 700 310/07 RMK AO2 T01110056
13873KAHN AHN20160505200510705/05/16 20:05:31  5-MIN KAHN 060105Z AUTO 30008KT 10SM CLR 11/06 A2980 930 68 700 300/08 RMK AO2 T01110056
13873KAHN AHN20160505201010705/05/16 20:10:31  5-MIN KAHN 060110Z AUTO 30008KT 10SM CLR 11/06 A2980 920 68 700 300/08 RMK AO2 T01110056
13873KAHN AHN20160505201510705/05/16 20:15:31  5-MIN KAHN 060115Z AUTO 30009KT 10SM CLR 11/06 A2980 920 68 700 310/09 RMK AO2 T01110056
13873KAHN AHN20160505202010705/05/16 20:20:31  5-MIN KAHN 060120Z AUTO 30008KT 10SM CLR 11/06 A2980 920 68 700 310/08 RMK AO2 T01110056
13873KAHN AHN20160505202511305/05/16 20:25:31  5-MIN KAHN 060125Z AUTO 31010G16KT 10SM CLR 11/06 A2981 920 71 600 310/10G16 RMK AO2 T01060056
13873KAHN AHN20160505203011305/05/16 20:30:31  5-MIN KAHN 060130Z AUTO 31008G16KT 10SM CLR 11/06 A2981 910 74 600 320/08G16 RMK AO2 T01060061
13873KAHN AHN20160505203510705/05/16 20:35:31  5-MIN KAHN 060135Z AUTO 31009KT 10SM CLR 11/06 A2981 910 74 600 320/09 RMK AO2 T01060061
13873KAHN AHN20160505204010705/05/16 20:40:31  5-MIN KAHN 060140Z AUTO 31007KT 10SM CLR 11/06 A2981 910 74 600 310/07 RMK AO2 T01060061
13873KAHN AHN20160505204511405/05/16 20:45:31  5-MIN KAHN 060145Z AUTO 31006KT 10SM CLR 11/06 A2981 910 74 600 310/06 RMK AO2 SLP094 T01060061
13873KAHN AHN20160505205011405/05/16 20:50:31  5-MIN KAHN 060150Z AUTO 30007KT 10SM CLR 11/06 A2981 910 74 600 310/07 RMK AO2 SLP096 T01060061
13873KAHN AHN20160505205510705/05/16 20:55:31  5-MIN KAHN 060155Z AUTO 30008KT 10SM CLR 11/06 A2982 910 71 600 300/08 RMK AO2 T01060056
13873KAHN AHN20160505210010705/05/16 21:00:31  5-MIN KAHN 060200Z AUTO 31007KT 10SM CLR 10/06 A2982 900 74 600 310/07 RMK AO2 T01000056
13873KAHN AHN20160505210510705/05/16 21:05:31  5-MIN KAHN 060205Z AUTO 31008KT 10SM CLR 10/06 A2982 900 74 600 310/08 RMK AO2 T01000056
13873KAHN AHN20160505211010705/05/16 21:10:31  5-MIN KAHN 060210Z AUTO 31008KT 10SM CLR 10/06 A2982 900 74 600 320/08 RMK AO2 T01000056
13873KAHN AHN20160505211510705/05/16 21:15:31  5-MIN KAHN 060215Z AUTO 31009KT 10SM CLR 10/06 A2982 900 74 600 320/09 RMK AO2 T01000056
13873KAHN AHN20160505212010705/05/16 21:20:31  5-MIN KAHN 060220Z AUTO 30007KT 10SM CLR 10/06 A2983 900 74 600 310/07 RMK AO2 T01000056
13873KAHN AHN20160505212510705/05/16 21:25:31  5-MIN KAHN 060225Z AUTO 30008KT 10SM CLR 10/06 A2983 900 74 500 310/08 RMK AO2 T01000056
13873KAHN AHN20160505213010705/05/16 21:30:31  5-MIN KAHN 060230Z AUTO 30008KT 10SM CLR 10/06 A2983 890 74 500 310/08 RMK AO2 T01000056
13873KAHN AHN20160505213510705/05/16 21:35:31  5-MIN KAHN 060235Z AUTO 30006KT 10SM CLR 10/06 A2983 890 74 500 310/06 RMK AO2 T01000056
13873KAHN AHN20160505214010705/05/16 21:40:31  5-MIN KAHN 060240Z AUTO 31008KT 10SM CLR 09/06 A2983 890 76 500 320/08 RMK AO2 T00940056
13873KAHN AHN20160505214512005/05/16 21:45:31  5-MIN KAHN 060245Z AUTO 31009KT 10SM CLR 09/06 A2983 890 76 500 310/09 RMK AO2 SLP102 T00940056 53004
13873KAHN AHN20160505215012005/05/16 21:50:31  5-MIN KAHN 060250Z AUTO 30008KT 10SM CLR 09/05 A2983 890 74 500 310/08 RMK AO2 SLP102 T00940050 53004
13873KAHN AHN20160505215510705/05/16 21:55:31  5-MIN KAHN 060255Z AUTO 30008KT 10SM CLR 09/05 A2983 890 74 500 300/08 RMK AO2 T00940050
13873KAHN AHN20160505220010705/05/16 22:00:31  5-MIN KAHN 060300Z AUTO 30008KT 10SM CLR 09/05 A2983 890 74 500 300/08 RMK AO2 T00940050
13873KAHN AHN20160505220510705/05/16 22:05:31  5-MIN KAHN 060305Z AUTO 30008KT 10SM CLR 09/05 A2983 890 74 500 300/08 RMK AO2 T00940050
13873KAHN AHN20160505221010705/05/16 22:10:31  5-MIN KAHN 060310Z AUTO 30007KT 10SM CLR 09/05 A2984 890 74 500 310/07 RMK AO2 T00940050
13873KAHN AHN20160505221510705/05/16 22:15:31  5-MIN KAHN 060315Z AUTO 30007KT 10SM CLR 09/05 A2983 890 74 500 310/07 RMK AO2 T00940050
13873KAHN AHN20160505222010705/05/16 22:20:31  5-MIN KAHN 060320Z AUTO 30007KT 10SM CLR 09/05 A2983 890 74 500 310/07 RMK AO2 T00940050
13873KAHN AHN20160505222510705/05/16 22:25:31  5-MIN KAHN 060325Z AUTO 30008KT 10SM CLR 09/05 A2983 890 74 500 300/08 RMK AO2 T00940050
13873KAHN AHN20160505223010705/05/16 22:30:31  5-MIN KAHN 060330Z AUTO 30008KT 10SM CLR 09/05 A2984 890 74 500 310/08 RMK AO2 T00940050
13873KAHN AHN20160505223512305/05/16 22:35:31  5-MIN KAHN 060335Z AUTO 31007KT 280V340 10SM CLR 09/05 A2984 890 74 500 320/07 290V350 RMK AO2 T00940050
13873KAHN AHN20160505224010705/05/16 22:40:31  5-MIN KAHN 060340Z AUTO 31006KT 10SM CLR 09/05 A2984 890 74 500 320/06 RMK AO2 T00940050
13873KAHN AHN20160505224511405/05/16 22:45:31  5-MIN KAHN 060345Z AUTO 31007KT 10SM CLR 09/05 A2983 890 74 500 320/07 RMK AO2 SLP102 T00940050
13873KAHN AHN20160505225011405/05/16 22:50:31  5-MIN KAHN 060350Z AUTO 31007KT 10SM CLR 09/05 A2983 890 76 400 310/07 RMK AO2 SLP102 T00890050
13873KAHN AHN20160505225510705/05/16 22:55:31  5-MIN KAHN 060355Z AUTO 31007KT 10SM CLR 09/05 A2983 890 76 400 320/07 RMK AO2 T00890050
13873KAHN AHN20160505230010705/05/16 23:00:31  5-MIN KAHN 060400Z AUTO 31007KT 10SM CLR 09/05 A2983 890 76 400 310/07 RMK AO2 T00890050
13873KAHN AHN20160505230510705/05/16 23:05:31  5-MIN KAHN 060405Z AUTO 31007KT 10SM CLR 09/05 A2983 890 76 400 320/07 RMK AO2 T00890050
13873KAHN AHN20160505231010705/05/16 23:10:31  5-MIN KAHN 060410Z AUTO 32009KT 10SM CLR 09/05 A2984 890 76 400 320/09 RMK AO2 T00890050
13873KAHN AHN20160505231510705/05/16 23:15:31  5-MIN KAHN 060415Z AUTO 32007KT 10SM CLR 09/05 A2983 890 76 400 320/07 RMK AO2 T00890050
13873KAHN AHN20160505232010705/05/16 23:20:31  5-MIN KAHN 060420Z AUTO 31006KT 10SM CLR 09/05 A2983 890 76 400 320/06 RMK AO2 T00890050
13873KAHN AHN20160505232510705/05/16 23:25:31  5-MIN KAHN 060425Z AUTO 31007KT 10SM CLR 09/05 A2984 890 76 400 310/07 RMK AO2 T00890050
13873KAHN AHN20160505233010705/05/16 23:30:31  5-MIN KAHN 060430Z AUTO 31006KT 10SM CLR 09/05 A2984 890 76 400 320/06 RMK AO2 T00890050
13873KAHN AHN20160505233510705/05/16 23:35:31  5-MIN KAHN 060435Z AUTO 31005KT 10SM CLR 09/05 A2984 890 76 400 320/05 RMK AO2 T00890050
13873KAHN AHN20160505234010705/05/16 23:40:31  5-MIN KAHN 060440Z AUTO 30006KT 10SM CLR 09/05 A2984 890 76 400 310/06 RMK AO2 T00890050
13873KAHN AHN20160506094511605/06/16 09:45:31  5-MIN KAHN 061445Z VRB05KT 10SM CLR 18/07 A2990 830 48 1400 VRB/05 RMK AO2 SLP124 T01780067 53014
13873KAHN AHN20160506095011605/06/16 09:50:31  5-MIN KAHN 061450Z 31008KT 10SM CLR 18/07 A2990 830 48 1400 310/08 RMK AO2 SLP123 T01780067 53014
13873KAHN AHN20160506095510305/06/16 09:55:31  5-MIN KAHN 061455Z VRB05KT 10SM CLR 18/07 A2990 830 49 1400 VRB/05 RMK AO2 T01780072
13873KAHN AHN20160506100010305/06/16 10:00:31  5-MIN KAHN 061500Z 32006KT 10SM CLR 18/07 A2990 830 48 1400 320/06 RMK AO2 T01780067
13873KAHN AHN20160506100510305/06/16 10:05:31  5-MIN KAHN 061505Z 32006KT 10SM CLR 18/07 A2990 830 48 1500 320/06 RMK AO2 T01830072
13873KAHN AHN20160506101010305/06/16 10:10:31  5-MIN KAHN 061510Z VRB04KT 10SM CLR 18/07 A2990 830 48 1500 VRB/04 RMK AO2 T01830072
13873KAHN AHN20160506101510305/06/16 10:15:31  5-MIN KAHN 061515Z VRB04KT 10SM CLR 19/07 A2990 830 46 1500 VRB/04 RMK AO2 T01890072
13873KAHN AHN20160506102010305/06/16 10:20:31  5-MIN KAHN 061520Z VRB06KT 10SM CLR 18/07 A2990 830 48 1500 VRB/06 RMK AO2 T01830072
13873KAHN AHN20160506102510305/06/16 10:25:31  5-MIN KAHN 061525Z 31005KT 10SM CLR 19/07 A2990 830 46 1500 310/05 RMK AO2 T01890072
13873KAHN AHN20160506103010305/06/16 10:30:31  5-MIN KAHN 061530Z 31007KT 10SM CLR 19/07 A2990 830 46 1500 320/07 RMK AO2 T01890072
13873KAHN AHN20160506103510305/06/16 10:35:31  5-MIN KAHN 061535Z 31008KT 10SM CLR 19/07 A2990 830 44 1500 310/08 RMK AO2 T01890067
13873KAHN AHN20160506104011905/06/16 10:40:31  5-MIN KAHN 061540Z 34007KT 300V040 10SM CLR 19/07 A2990 830 44 1500 340/07 310V050 RMK AO2 T01890067
13873KAHN AHN20160506104511005/06/16 10:45:31  5-MIN KAHN 061545Z 35006KT 10SM CLR 19/06 A2990 830 43 1500 350/06 RMK AO2 SLP123 T01890061
13873KAHN AHN20160506105011005/06/16 10:50:31  5-MIN KAHN 061550Z VRB04KT 10SM CLR 19/07 A2990 830 44 1500 VRB/04 RMK AO2 SLP123 T01890067
13873KAHN AHN20160506105510305/06/16 10:55:31  5-MIN KAHN 061555Z VRB05KT 10SM CLR 19/07 A2990 830 43 1600 VRB/05 RMK AO2 T01940067
13873KAHN AHN20160506110010605/06/16 11:00:31  5-MIN KAHN 061600Z VRB04KT 10SM SCT050 20/07 A2990 830 41 1600 VRB/04 RMK AO2 T02000067
13873KAHN AHN20160506110510605/06/16 11:05:31  5-MIN KAHN 061605Z 31009KT 10SM SCT050 19/07 A2990 830 44 1500 310/09 RMK AO2 T01890067
13873KAHN AHN20160506111010605/06/16 11:10:31  5-MIN KAHN 061610Z VRB03KT 10SM SCT050 18/06 A2990 830 44 1500 VRB/03 RMK AO2 T01830061
13873KAHN AHN20160506111510605/06/16 11:15:31  5-MIN KAHN 061615Z 00000KT 10SM SCT050 19/06 A2989 840 41 1600 000/00 RMK AO2 T01940061
13873KAHN AHN20160506112010605/06/16 11:20:31  5-MIN KAHN 061620Z 34007KT 10SM SCT050 19/07 A2989 840 43 1600 350/07 RMK AO2 T01940067
13873KAHN AHN20160506112510605/06/16 11:25:31  5-MIN KAHN 061625Z 34005KT 10SM SCT050 20/07 A2989 840 41 1700 350/05 RMK AO2 T02000067
13873KAHN AHN20160506113010605/06/16 11:30:31  5-MIN KAHN 061630Z VRB04KT 10SM SCT050 21/07 A2989 840 40 1700 VRB/04 RMK AO2 T02060067
13873KAHN AHN20160506113510605/06/16 11:35:31  5-MIN KAHN 061635Z VRB04KT 10SM SCT050 20/06 A2988 850 40 1700 VRB/04 RMK AO2 T02000061
13873KAHN AHN20160506114010605/06/16 11:40:31  5-MIN KAHN 061640Z 29007KT 10SM SCT055 20/07 A2988 840 41 1700 300/07 RMK AO2 T02000067
13873KAHN AHN20160506114511305/06/16 11:45:31  5-MIN KAHN 061645Z VRB03KT 10SM SCT055 20/07 A2988 850 41 1700 VRB/03 RMK AO2 SLP117 T02000067
13873KAHN AHN20160506115011305/06/16 11:50:31  5-MIN KAHN 061650Z 32008KT 10SM SCT055 20/06 A2988 850 40 1700 330/08 RMK AO2 SLP116 T02000061
13873KAHN AHN20160506115510605/06/16 11:55:31  5-MIN KAHN 061655Z VRB04KT 10SM SCT055 21/06 A2988 850 37 1800 VRB/04 RMK AO2 T02110061
13873KAHN AHN20160506120012205/06/16 12:00:31  5-MIN KAHN 061700Z 33008KT 290V010 10SM SCT055 21/06 A2988 850 37 1800 330/08 300V020 RMK AO2 T02110061
13873KAHN AHN20160506120511205/06/16 12:05:31  5-MIN KAHN 061705Z 30008G17KT 10SM SCT060 21/06 A2988 850 37 1700 310/08G17 RMK AO2 T02060056
13873KAHN AHN20160506121011205/06/16 12:10:31  5-MIN KAHN 061710Z 33007G17KT 10SM BKN065 19/05 A2988 850 38 1600 340/07G17 RMK AO2 T01940050
13873KAHN AHN20160506121511905/06/16 12:15:31  5-MIN KAHN 061715Z VRB05G15KT 10SM BKN065 BKN080 19/05 A2988 850 38 1600 VRB/05G15 RMK AO2 T01940050
13873KAHN AHN20160506122012905/06/16 12:20:31  5-MIN KAHN 061720Z 33008KT 280V010 10SM SCT065 BKN080 21/06 A2987 850 36 1800 330/08 290V020 RMK AO2 T02110056
13873KAHN AHN20160506122511305/06/16 12:25:31  5-MIN KAHN 061725Z 30008KT 10SM SCT065 BKN085 21/06 A2987 860 36 1800 310/08 RMK AO2 T02110056
13873KAHN AHN20160506123011305/06/16 12:30:31  5-MIN KAHN 061730Z VRB06KT 10SM SCT065 BKN080 19/04 A2987 860 37 1600 VRB/06 RMK AO2 T01940044
13873KAHN AHN20160506123512905/06/16 12:35:31  5-MIN KAHN 061735Z 32007KT 290V350 10SM FEW065 BKN080 19/04 A2987 860 35 1600 320/07 300V360 RMK AO2 T01940039
13873KAHN AHN20160506124012905/06/16 12:40:31  5-MIN KAHN 061740Z 36008KT 320V050 10SM BKN075 BKN085 20/04 A2987 860 35 1700 360/08 330V060 RMK AO2 T02000044
13873KAHN AHN20160506124513705/06/16 12:45:31  5-MIN KAHN 061745Z 35008G15KT 10SM BKN075 20/04 A2987 860 34 1700 360/08G15 RMK AO2 SLP113 T02000039 10217 20094 51010
13873KAHN AHN20160506125016005/06/16 12:50:31  5-MIN KAHN 061750Z 02007G15KT 350V060 10SM FEW065 BKN080 22/04 A2987 860 32 1900 030/07G15 360V070 RMK AO2 SLP112 T02170044 10217 20094 51010
13873KAHN AHN20160506125512205/06/16 12:55:31  5-MIN KAHN 061755Z 36008KT 310V030 10SM BKN075 21/04 A2986 860 32 1800 360/08 320V040 RMK AO2 T02110039
13873KAHN AHN20160506130012205/06/16 13:00:31  5-MIN KAHN 061800Z 33007KT 290V020 10SM BKN075 21/04 A2987 860 33 1700 340/07 300V030 RMK AO2 T02060039
13873KAHN AHN20160506130510605/06/16 13:05:31  5-MIN KAHN 061805Z 33010KT 10SM BKN075 21/04 A2987 860 34 1700 340/10 RMK AO2 T02060044
13873KAHN AHN20160506131010605/06/16 13:10:31  5-MIN KAHN 061810Z 31008KT 10SM BKN075 22/05 A2986 860 33 1900 310/08 RMK AO2 T02170050
13873KAHN AHN20160506131510605/06/16 13:15:31  5-MIN KAHN 061815Z VRB06KT 10SM BKN075 22/05 A2986 860 32 1900 VRB/06 RMK AO2 T02220050
13873KAHN AHN20160506132012805/06/16 13:20:31  5-MIN KAHN 061820Z 33008G17KT 290V360 10SM SCT080 22/04 A2986 860 31 1900 330/08G17 300V010 RMK AO2 T02220044
13873KAHN AHN20160506132511205/06/16 13:25:31  5-MIN KAHN 061825Z 31008G17KT 10SM SCT080 23/05 A2986 860 31 2000 320/08G17 RMK AO2 T02280050
13873KAHN AHN20160506133010605/06/16 13:30:31  5-MIN KAHN 061830Z VRB05KT 10SM SCT080 22/04 A2986 870 32 1900 VRB/05 RMK AO2 T02170044
13873KAHN AHN20160506133510605/06/16 13:35:31  5-MIN KAHN 061835Z 01009KT 10SM BKN080 21/03 A2986 860 30 1800 020/09 RMK AO2 T02110033
13873KAHN AHN20160506134010605/06/16 13:40:31  5-MIN KAHN 061840Z 36005KT 10SM BKN080 21/03 A2986 870 32 1800 360/05 RMK AO2 T02060033
13873KAHN AHN20160506134511305/06/16 13:45:31  5-MIN KAHN 061845Z 33007KT 10SM BKN080 20/03 A2986 860 33 1700 330/07 RMK AO2 SLP111 T02000033
13873KAHN AHN20160506135011905/06/16 13:50:31  5-MIN KAHN 061850Z 33009G14KT 10SM BKN080 20/03 A2986 860 33 1700 340/09G14 RMK AO2 SLP111 T02000033
13873KAHN AHN20160506135510605/06/16 13:55:31  5-MIN KAHN 061855Z 32007KT 10SM OVC080 22/04 A2986 870 31 1900 330/07 RMK AO2 T02170039
13873KAHN AHN20160506140012905/06/16 14:00:31  5-MIN KAHN 061900Z 34007KT 320V030 10SM BKN075 OVC090 21/03 A2986 860 32 1800 350/07 330V040 RMK AO2 T02060033
13873KAHN AHN20160506140510605/06/16 14:05:31  5-MIN KAHN 061905Z 32008KT 10SM OVC080 20/04 A2986 860 34 1700 330/08 RMK AO2 T02000039
13873KAHN AHN20160506141011205/06/16 14:10:31  5-MIN KAHN 061910Z 33007G16KT 10SM OVC085 20/03 A2986 870 33 1700 340/07G16 RMK AO2 T02000033
13873KAHN AHN20160506141511205/06/16 14:15:31  5-MIN KAHN 061915Z 32007G16KT 10SM OVC085 21/04 A2986 870 33 1800 320/07G16 RMK AO2 T02060039
13873KAHN AHN20160506142012205/06/16 14:20:31  5-MIN KAHN 061920Z 32007KT 290V360 10SM OVC085 21/04 A2986 870 33 1800 330/07 300V010 RMK AO2 T02060039
13873KAHN AHN20160506142510605/06/16 14:25:31  5-MIN KAHN 061925Z 32006KT 10SM OVC085 21/04 A2986 870 32 1800 330/06 RMK AO2 T02110039
13873KAHN AHN20160506143010605/06/16 14:30:31  5-MIN KAHN 061930Z 30005KT 10SM BKN090 22/04 A2986 870 31 1900 300/05 RMK AO2 T02170039
13873KAHN AHN20160506143510605/06/16 14:35:31  5-MIN KAHN 061935Z 36007KT 10SM BKN085 21/03 A2986 870 32 1800 010/07 RMK AO2 T02060033
13873KAHN AHN20160506144011205/06/16 14:40:31  5-MIN KAHN 061940Z 33009G16KT 10SM OVC085 21/03 A2986 870 32 1800 330/09G16 RMK AO2 T02060033
13873KAHN AHN20160506144511905/06/16 14:45:31  5-MIN KAHN 061945Z 33009G16KT 10SM BKN085 21/03 A2986 870 32 1800 340/09G16 RMK AO2 SLP109 T02060033
13873KAHN AHN20160506145011905/06/16 14:50:31  5-MIN KAHN 061950Z 31011G16KT 10SM BKN085 22/03 A2986 870 28 1900 320/11G16 RMK AO2 SLP108 T02170028
13873KAHN AHN20160506145513505/06/16 14:55:31  5-MIN KAHN 061955Z 32009G16KT 280V010 10SM FEW080 SCT090 22/03 A2985 870 28 1900 320/09G16 290V020 RMK AO2 T02170028
13873KAHN AHN20160506150012905/06/16 15:00:31  5-MIN KAHN 062000Z 33007KT 300V020 10SM FEW075 SCT090 21/03 A2985 870 30 1800 340/07 310V030 RMK AO2 T02110033
13873KAHN AHN20160506150512205/06/16 15:05:31  5-MIN KAHN 062005Z 32007KT 290V360 10SM SCT090 22/03 A2985 870 29 1900 330/07 300V010 RMK AO2 T02170033
13873KAHN AHN20160506151010605/06/16 15:10:31  5-MIN KAHN 062010Z 34007KT 10SM SCT095 22/04 A2985 870 31 1900 340/07 RMK AO2 T02170039
13873KAHN AHN20160506151512205/06/16 15:15:31  5-MIN KAHN 062015Z 32008KT 280V340 10SM SCT095 21/04 A2985 870 33 1800 320/08 290V350 RMK AO2 T02060039
13873KAHN AHN20160506152010605/06/16 15:20:31  5-MIN KAHN 062020Z 31010KT 10SM BKN095 21/03 A2985 870 32 1800 310/10 RMK AO2 T02060033
13873KAHN AHN20160506152512805/06/16 15:25:31  5-MIN KAHN 062025Z 35009G15KT 320V030 10SM BKN095 21/03 A2985 870 32 1800 360/09G15 330V040 RMK AO2 T02060033
13873KAHN AHN20160506153011205/06/16 15:30:31  5-MIN KAHN 062030Z VRB03G15KT 10SM BKN095 21/03 A2985 870 32 1800 VRB/03G15 RMK AO2 T02060033
13873KAHN AHN20160506153510605/06/16 15:35:31  5-MIN KAHN 062035Z 32008KT 10SM BKN095 21/04 A2985 870 33 1800 330/08 RMK AO2 T02060039
13873KAHN AHN20160506154010605/06/16 15:40:31  5-MIN KAHN 062040Z VRB06KT 10SM BKN095 21/04 A2985 870 32 1800 VRB/06 RMK AO2 T02110039
13873KAHN AHN20160506154511905/06/16 15:45:31  5-MIN KAHN 062045Z 32004KT 10SM BKN095 22/04 A2985 880 31 1900 320/04 RMK AO2 SLP106 T02170039 58011
13873KAHN AHN20160506155011905/06/16 15:50:31  5-MIN KAHN 062050Z VRB04KT 10SM BKN095 22/04 A2985 880 30 2000 VRB/04 RMK AO2 SLP106 T02220039 58011
13873KAHN AHN20160506155511305/06/16 15:55:31  5-MIN KAHN 062055Z 36009KT 10SM FEW080 BKN095 22/03 A2985 880 29 1900 360/09 RMK AO2 T02170033
13873KAHN AHN20160506160012205/06/16 16:00:31  5-MIN KAHN 062100Z 35008KT 320V020 10SM BKN090 21/03 A2985 880 29 1800 350/08 330V030 RMK AO2 T02110028
13873KAHN AHN20160506160510605/06/16 16:05:31  5-MIN KAHN 062105Z VRB06KT 10SM BKN090 21/03 A2985 880 30 1800 VRB/06 RMK AO2 T02110033
13873KAHN AHN20160506161010605/06/16 16:10:31  5-MIN KAHN 062110Z VRB04KT 10SM OVC090 21/03 A2985 880 30 1800 VRB/04 RMK AO2 T02110033
13873KAHN AHN20160506161511305/06/16 16:15:31  5-MIN KAHN 062115Z 32008KT 10SM SCT075 OVC095 21/03 A2985 870 32 1800 330/08 RMK AO2 T02060033
13873KAHN AHN20160506162013505/06/16 16:20:31  5-MIN KAHN 062120Z 32010G15KT 290V350 10SM SCT080 OVC100 20/04 A2985 870 34 1700 320/10G15 300V360 RMK AO2 T02000039
13873KAHN AHN20160506162511905/06/16 16:25:31  5-MIN KAHN 062125Z 32007G15KT 10SM SCT080 OVC100 20/03 A2985 870 33 1700 320/07G15 RMK AO2 T02000033
13873KAHN AHN20160506163011305/06/16 16:30:31  5-MIN KAHN 062130Z 36007KT 10SM SCT075 OVC100 20/04 A2985 870 34 1700 360/07 RMK AO2 T02000039
13873KAHN AHN20160506163511305/06/16 16:35:31  5-MIN KAHN 062135Z VRB04KT 10SM FEW075 OVC100 20/04 A2985 870 34 1700 VRB/04 RMK AO2 T02000039
13873KAHN AHN20160506164011305/06/16 16:40:31  5-MIN KAHN 062140Z VRB03KT 10SM FEW075 BKN100 20/04 A2985 870 34 1700 VRB/03 RMK AO2 T02000039
13873KAHN AHN20160506164512005/06/16 16:45:31  5-MIN KAHN 062145Z 32007KT 10SM FEW075 BKN100 19/04 A2985 870 35 1600 320/07 RMK AO2 SLP108 T01940039
13873KAHN AHN20160506165012005/06/16 16:50:31  5-MIN KAHN 062150Z 34006KT 10SM FEW075 SCT100 20/04 A2985 870 34 1700 340/06 RMK AO2 SLP108 T02000039
13873KAHN AHN20160506165510605/06/16 16:55:31  5-MIN KAHN 062155Z VRB03KT 10SM FEW095 19/04 A2985 870 35 1600 VRB/03 RMK AO2 T01940039
13873KAHN AHN20160506170010605/06/16 17:00:31  5-MIN KAHN 062200Z 31003KT 10SM FEW100 19/04 A2985 870 35 1600 310/03 RMK AO2 T01940039
13873KAHN AHN20160506170510605/06/16 17:05:31  5-MIN KAHN 062205Z 33003KT 10SM SCT100 20/04 A2986 870 35 1700 330/03 RMK AO2 T02000044
13873KAHN AHN20160506171010605/06/16 17:10:31  5-MIN KAHN 062210Z VRB03KT 10SM SCT100 20/04 A2985 870 34 1700 VRB/03 RMK AO2 T02000039
13873KAHN AHN20160506171510605/06/16 17:15:31  5-MIN KAHN 062215Z 33003KT 10SM SCT100 19/04 A2986 870 35 1600 330/03 RMK AO2 T01940039
13873KAHN AHN20160506172010605/06/16 17:20:31  5-MIN KAHN 062220Z 35003KT 10SM SCT100 19/04 A2986 870 37 1600 350/03 RMK AO2 T01940044
13873KAHN AHN20160506172510605/06/16 17:25:31  5-MIN KAHN 062225Z 33004KT 10SM BKN100 19/04 A2986 870 37 1600 340/04 RMK AO2 T01940044
13873KAHN AHN20160506173010605/06/16 17:30:31  5-MIN KAHN 062230Z 36004KT 10SM BKN100 19/04 A2986 870 37 1600 010/04 RMK AO2 T01940044
13873KAHN AHN20160506173510605/06/16 17:35:31  5-MIN KAHN 062235Z VRB04KT 10SM BKN100 19/04 A2986 870 37 1600 VRB/04 RMK AO2 T01940044
13873KAHN AHN20160506174010605/06/16 17:40:31  5-MIN KAHN 062240Z VRB03KT 10SM BKN100 19/05 A2986 870 38 1600 VRB/03 RMK AO2 T01940050
13873KAHN AHN20160506174512005/06/16 17:45:31  5-MIN KAHN 062245Z 00000KT 10SM FEW080 OVC100 20/05 A2986 870 37 1700 000/00 RMK AO2 SLP109 T02000050
13873KAHN AHN20160506175011305/06/16 17:50:31  5-MIN KAHN 062250Z 33006KT 10SM OVC095 19/05 A2986 870 38 1600 330/06 RMK AO2 SLP110 T01940050
13873KAHN AHN20160506175510605/06/16 17:55:31  5-MIN KAHN 062255Z 35004KT 10SM OVC095 19/04 A2986 870 37 1600 350/04 RMK AO2 T01940044
13873KAHN AHN20160506180010605/06/16 18:00:31  5-MIN KAHN 062300Z VRB03KT 10SM OVC095 20/04 A2986 870 35 1700 VRB/03 RMK AO2 T02000044
13873KAHN AHN20160506180510605/06/16 18:05:31  5-MIN KAHN 062305Z VRB03KT 10SM OVC095 21/04 A2986 870 34 1800 VRB/03 RMK AO2 T02060044
13873KAHN AHN20160506181010605/06/16 18:10:31  5-MIN KAHN 062310Z 01004KT 10SM OVC095 20/05 A2986 860 37 1700 010/04 RMK AO2 T02000050
13873KAHN AHN20160506181510605/06/16 18:15:31  5-MIN KAHN 062315Z VRB04KT 10SM OVC095 20/05 A2986 860 37 1700 VRB/04 RMK AO2 T02000050
13873KAHN AHN20160506182011305/06/16 18:20:31  5-MIN KAHN 062320Z 01004KT 10SM FEW080 OVC100 21/04 A2986 860 34 1700 010/04 RMK AO2 T02060044
13873KAHN AHN20160506182511305/06/16 18:25:31  5-MIN KAHN 062325Z VRB05KT 10SM SCT080 OVC100 21/04 A2986 860 34 1700 VRB/05 RMK AO2 T02060044
13873KAHN AHN20160506183011305/06/16 18:30:31  5-MIN KAHN 062330Z VRB05KT 10SM FEW080 OVC100 20/04 A2987 860 35 1700 VRB/05 RMK AO2 T02000044
13873KAHN AHN20160506183511305/06/16 18:35:31  5-MIN KAHN 062335Z VRB03KT 10SM FEW080 OVC100 20/05 A2987 860 37 1700 VRB/03 RMK AO2 T02000050
13873KAHN AHN20160506184011305/06/16 18:40:31  5-MIN KAHN 062340Z 00000KT 10SM FEW080 BKN100 20/05 A2987 860 37 1700 000/00 RMK AO2 T02000050
13873KAHN AHN20160506184513805/06/16 18:45:31  5-MIN KAHN 062345Z 32006KT 10SM FEW080 BKN100 20/04 A2987 860 34 1700 320/06 RMK AO2 SLP113 T02000039 10228 20194 58006
13873KAHN AHN20160506185013105/06/16 18:50:31  5-MIN KAHN 062350Z 32008KT 10SM BKN100 19/03 A2987 860 33 1600 320/08 RMK AO2 SLP114 T01940028 10228 20194 58006
13873KAHN AHN20160506185510605/06/16 18:55:31  5-MIN KAHN 062355Z 32006KT 10SM BKN100 19/03 A2987 850 33 1600 320/06 RMK AO2 T01940028
13873KAHN AHN20160506190010605/06/16 19:00:31  5-MIN KAHN 070000Z 33006KT 10SM BKN100 19/03 A2987 850 33 1600 330/06 RMK AO2 T01940028
13873KAHN AHN20160506190511105/06/16 19:05:31  5-MIN KAHN 070005Z AUTO 32005KT 10SM BKN100 19/03 A2988 850 34 1500 330/05 RMK AO2 T01890028
13873KAHN AHN20160506191011105/06/16 19:10:31  5-MIN KAHN 070010Z AUTO 34006KT 10SM BKN100 19/03 A2988 850 34 1500 340/06 RMK AO2 T01890028
13873KAHN AHN20160506191511105/06/16 19:15:31  5-MIN KAHN 070015Z AUTO 34004KT 10SM SCT100 18/03 A2988 850 35 1500 350/04 RMK AO2 T01830028
13873KAHN AHN20160506192011105/06/16 19:20:31  5-MIN KAHN 070020Z AUTO 34004KT 10SM FEW100 18/03 A2988 840 36 1500 350/04 RMK AO2 T01830033
13873KAHN AHN20160506192511105/06/16 19:25:31  5-MIN KAHN 070025Z AUTO 33003KT 10SM FEW100 18/03 A2988 840 36 1500 330/03 RMK AO2 T01830033
13873KAHN AHN20160506193010805/06/16 19:30:31  5-MIN KAHN 070030Z AUTO 34004KT 10SM CLR 18/03 A2989 840 38 1400 340/04 RMK AO2 T01780033
13873KAHN AHN20160506193510805/06/16 19:35:31  5-MIN KAHN 070035Z AUTO 00000KT 10SM CLR 18/03 A2989 840 38 1400 000/00 RMK AO2 T01780033
13873KAHN AHN20160506194010805/06/16 19:40:31  5-MIN KAHN 070040Z AUTO 33003KT 10SM CLR 17/03 A2989 840 39 1300 340/03 RMK AO2 T01720033
13873KAHN AHN20160506194511505/06/16 19:45:31  5-MIN KAHN 070045Z AUTO 34003KT 10SM CLR 17/03 A2989 840 39 1300 350/03 RMK AO2 SLP121 T01720033
13873KAHN AHN20160506195011805/06/16 19:50:31  5-MIN KAHN 070050Z AUTO 00000KT 10SM FEW100 17/04 A2989 830 42 1300 000/00 RMK AO2 SLP122 T01670039
13873KAHN AHN20160506195511105/06/16 19:55:31  5-MIN KAHN 070055Z AUTO 00000KT 10SM FEW100 16/04 A2990 830 44 1200 000/00 RMK AO2 T01610039
13873KAHN AHN20160506200011105/06/16 20:00:31  5-MIN KAHN 070100Z AUTO 00000KT 10SM FEW100 16/04 A2990 830 47 1100 000/00 RMK AO2 T01560044
13873KAHN AHN20160506200511105/06/16 20:05:31  5-MIN KAHN 070105Z AUTO 00000KT 10SM FEW100 15/04 A2990 830 49 1100 000/00 RMK AO2 T01500044
13873KAHN AHN20160506201011105/06/16 20:10:31  5-MIN KAHN 070110Z AUTO 00000KT 10SM FEW100 15/04 A2990 830 49 1100 000/00 RMK AO2 T01500044
13873KAHN AHN20160506201511105/06/16 20:15:31  5-MIN KAHN 070115Z AUTO 00000KT 10SM FEW100 16/04 A2990 830 47 1100 000/00 RMK AO2 T01560044
13873KAHN AHN20160506202011105/06/16 20:20:31  5-MIN KAHN 070120Z AUTO 00000KT 10SM FEW100 15/04 A2990 830 49 1100 000/00 RMK AO2 T01500044
13873KAHN AHN20160506202510805/06/16 20:25:31  5-MIN KAHN 070125Z AUTO 00000KT 10SM CLR 14/04 A2990 830 51 1000 000/00 RMK AO2 T01440044
13873KAHN AHN20160506203010805/06/16 20:30:31  5-MIN KAHN 070130Z AUTO 00000KT 10SM CLR 14/04 A2991 820 51 1000 000/00 RMK AO2 T01440044
13873KAHN AHN20160506203510805/06/16 20:35:31  5-MIN KAHN 070135Z AUTO 00000KT 10SM CLR 15/04 A2991 820 49 1100 000/00 RMK AO2 T01500044
13873KAHN AHN20160506204010805/06/16 20:40:31  5-MIN KAHN 070140Z AUTO 30003KT 10SM CLR 14/05 A2991 820 53 1000 310/03 RMK AO2 T01440050
13873KAHN AHN20160506204511505/06/16 20:45:31  5-MIN KAHN 070145Z AUTO 00000KT 10SM CLR 14/04 A2991 820 51 1000 000/00 RMK AO2 SLP127 T01440044
13873KAHN AHN20160506205011505/06/16 20:50:31  5-MIN KAHN 070150Z AUTO 30003KT 10SM CLR 14/04 A2991 820 51 1000 300/03 RMK AO2 SLP128 T01440044
13873KAHN AHN20160506205510805/06/16 20:55:31  5-MIN KAHN 070155Z AUTO 31003KT 10SM CLR 14/05 A2991 820 53 1000 310/03 RMK AO2 T01440050
13873KAHN AHN20160506210010805/06/16 21:00:31  5-MIN KAHN 070200Z AUTO 30003KT 10SM CLR 14/05 A2991 820 53 1000 300/03 RMK AO2 T01440050
13873KAHN AHN20160506210510705/06/16 21:05:31  5-MIN KAHN 070205Z AUTO 30003KT 10SM CLR 14/05 A2992 810 55 900 310/03 RMK AO2 T01390050
13873KAHN AHN20160506211010705/06/16 21:10:31  5-MIN KAHN 070210Z AUTO 31004KT 10SM CLR 13/06 A2992 810 59 800 310/04 RMK AO2 T01330056
13873KAHN AHN20160506211510705/06/16 21:15:31  5-MIN KAHN 070215Z AUTO 32004KT 10SM CLR 14/05 A2992 810 55 900 320/04 RMK AO2 T01390050
13873KAHN AHN20160506212010805/06/16 21:20:31  5-MIN KAHN 070220Z AUTO 31004KT 10SM CLR 14/05 A2992 810 53 1000 310/04 RMK AO2 T01440050
13873KAHN AHN20160506212510705/06/16 21:25:31  5-MIN KAHN 070225Z AUTO 31004KT 10SM CLR 14/05 A2992 810 55 900 320/04 RMK AO2 T01390050
13873KAHN AHN20160506213010705/06/16 21:30:31  5-MIN KAHN 070230Z AUTO 32003KT 10SM CLR 14/05 A2992 810 55 900 330/03 RMK AO2 T01390050
13873KAHN AHN20160506213510705/06/16 21:35:31  5-MIN KAHN 070235Z AUTO 31004KT 10SM CLR 14/06 A2992 810 57 900 320/04 RMK AO2 T01390056
13873KAHN AHN20160506214010705/06/16 21:40:31  5-MIN KAHN 070240Z AUTO 31005KT 10SM CLR 14/05 A2993 810 55 900 320/05 RMK AO2 T01390050
13873KAHN AHN20160506214512105/06/16 21:45:31  5-MIN KAHN 070245Z AUTO 32004KT 10SM CLR 14/05 A2993 810 53 1000 320/04 RMK AO2 SLP131 T01440050 53008
13873KAHN AHN20160506215012005/06/16 21:50:31  5-MIN KAHN 070250Z AUTO 31003KT 10SM CLR 14/05 A2993 800 55 900 310/03 RMK AO2 SLP132 T01390050 53008
13873KAHN AHN20160506215510705/06/16 21:55:31  5-MIN KAHN 070255Z AUTO 30003KT 10SM CLR 14/05 A2993 800 55 900 310/03 RMK AO2 T01390050
13873KAHN AHN20160506220010705/06/16 22:00:31  5-MIN KAHN 070300Z AUTO 31004KT 10SM CLR 13/06 A2993 800 59 800 310/04 RMK AO2 T01330056
13873KAHN AHN20160506220510705/06/16 22:05:31  5-MIN KAHN 070305Z AUTO 32004KT 10SM CLR 14/05 A2993 800 55 900 320/04 RMK AO2 T01390050
13873KAHN AHN20160506221010705/06/16 22:10:31  5-MIN KAHN 070310Z AUTO 31004KT 10SM CLR 13/06 A2993 800 59 800 320/04 RMK AO2 T01330056
13873KAHN AHN20160506221510705/06/16 22:15:31  5-MIN KAHN 070315Z AUTO VRB03KT 10SM CLR 13/06 A2993 800 59 800 VRB/03 RMK AO2 T01330056
13873KAHN AHN20160506222010705/06/16 22:20:31  5-MIN KAHN 070320Z AUTO 32003KT 10SM CLR 13/06 A2993 800 59 800 330/03 RMK AO2 T01330056
13873KAHN AHN20160506222510705/06/16 22:25:31  5-MIN KAHN 070325Z AUTO 32003KT 10SM CLR 13/06 A2993 800 59 800 330/03 RMK AO2 T01330056
13873KAHN AHN20160506223010705/06/16 22:30:31  5-MIN KAHN 070330Z AUTO 32003KT 10SM CLR 13/06 A2993 800 59 800 320/03 RMK AO2 T01330056
13873KAHN AHN20160506223510705/06/16 22:35:31  5-MIN KAHN 070335Z AUTO 31003KT 10SM CLR 13/06 A2993 800 61 800 320/03 RMK AO2 T01280056
13873KAHN AHN20160506224010705/06/16 22:40:31  5-MIN KAHN 070340Z AUTO 31004KT 10SM CLR 13/06 A2993 800 61 800 310/04 RMK AO2 T01280056
13873KAHN AHN20160506224511405/06/16 22:45:31  5-MIN KAHN 070345Z AUTO 30004KT 10SM CLR 13/06 A2993 800 61 800 310/04 RMK AO2 SLP133 T01280056
13873KAHN AHN20160506225011405/06/16 22:50:31  5-MIN KAHN 070350Z AUTO 30003KT 10SM CLR 13/06 A2993 800 61 800 310/03 RMK AO2 SLP133 T01280056
13873KAHN AHN20160506225510705/06/16 22:55:31  5-MIN KAHN 070355Z AUTO 30003KT 10SM CLR 12/06 A2993 800 66 700 310/03 RMK AO2 T01220061
13873KAHN AHN20160506230010705/06/16 23:00:31  5-MIN KAHN 070400Z AUTO 32003KT 10SM CLR 12/06 A2993 800 68 600 320/03 RMK AO2 T01170061
13873KAHN AHN20160506230510705/06/16 23:05:31  5-MIN KAHN 070405Z AUTO 31003KT 10SM CLR 12/06 A2993 800 68 600 320/03 RMK AO2 T01170061
13873KAHN AHN20160506231010705/06/16 23:10:31  5-MIN KAHN 070410Z AUTO 31003KT 10SM CLR 12/06 A2993 800 66 700 320/03 RMK AO2 T01220061
13873KAHN AHN20160506231510705/06/16 23:15:31  5-MIN KAHN 070415Z AUTO 31003KT 10SM CLR 12/06 A2993 800 68 600 310/03 RMK AO2 T01170061
13873KAHN AHN20160506232010705/06/16 23:20:31  5-MIN KAHN 070420Z AUTO 00000KT 10SM CLR 12/06 A2993 800 68 600 000/00 RMK AO2 T01170061
13873KAHN AHN20160506232510705/06/16 23:25:31  5-MIN KAHN 070425Z AUTO 00000KT 10SM CLR 12/06 A2993 800 68 600 000/00 RMK AO2 T01170061
13873KAHN AHN20160506233010705/06/16 23:30:31  5-MIN KAHN 070430Z AUTO 00000KT 10SM CLR 12/06 A2993 800 68 600 000/00 RMK AO2 T01170061
13873KAHN AHN20160506233510705/06/16 23:35:31  5-MIN KAHN 070435Z AUTO 31003KT 10SM CLR 12/06 A2993 810 68 600 310/03 RMK AO2 T01170061
13873KAHN AHN20160506234010705/06/16 23:40:31  5-MIN KAHN 070440Z AUTO 31003KT 10SM CLR 11/06 A2992 810 71 600 320/03 RMK AO2 T01110061
13873KAHN AHN20160506234512405/06/16 23:45:31  5-MIN KAHN 070445Z AUTO 00000KT 10SM CLR 11/06 A2992 810 71 600 000/00 RMK AO2 SLP130 T01110061 402280067
13873KAHN AHN20160506235012405/06/16 23:50:31  5-MIN KAHN 070450Z AUTO 00000KT 10SM CLR 11/07 A2992 810 74 600 000/00 RMK AO2 SLP130 T01110067 402280067
13873KAHN AHN20160506235510705/06/16 23:55:31  5-MIN KAHN 070455Z AUTO 00000KT 10SM CLR 12/07 A2992 810 71 600 000/00 RMK AO2 T01170067
13873KAHN AHN20160507000010705/07/16 00:00:31  5-MIN KAHN 070500Z AUTO 00000KT 10SM CLR 11/07 A2992 810 74 600 000/00 RMK AO2 T01110067
13873KAHN AHN20160507000510705/07/16 00:05:31  5-MIN KAHN 070505Z AUTO 30003KT 10SM CLR 11/06 A2992 810 71 600 310/03 RMK AO2 T01110061
13873KAHN AHN20160507001010705/07/16 00:10:31  5-MIN KAHN 070510Z AUTO 32003KT 10SM CLR 11/07 A2992 810 77 500 330/03 RMK AO2 T01060067
13873KAHN AHN20160507001510705/07/16 00:15:31  5-MIN KAHN 070515Z AUTO 31003KT 10SM CLR 11/07 A2992 810 74 600 320/03 RMK AO2 T01110067
13873KAHN AHN20160507002010705/07/16 00:20:31  5-MIN KAHN 070520Z AUTO 30003KT 10SM CLR 11/07 A2992 810 74 600 310/03 RMK AO2 T01110067
13873KAHN AHN20160507002510705/07/16 00:25:31  5-MIN KAHN 070525Z AUTO 30003KT 10SM CLR 11/07 A2992 810 74 600 300/03 RMK AO2 T01110067
13873KAHN AHN20160507003010705/07/16 00:30:31  5-MIN KAHN 070530Z AUTO 31003KT 10SM CLR 11/07 A2992 810 77 500 310/03 RMK AO2 T01060067
13873KAHN AHN20160507003510705/07/16 00:35:31  5-MIN KAHN 070535Z AUTO 31003KT 10SM CLR 11/07 A2992 810 77 500 310/03 RMK AO2 T01060067
13873KAHN AHN20160507004010705/07/16 00:40:31  5-MIN KAHN 070540Z AUTO 29003KT 10SM CLR 11/07 A2992 810 77 500 300/03 RMK AO2 T01060067
13873KAHN AHN20160507004513205/07/16 00:45:31  5-MIN KAHN 070545Z AUTO 00000KT 10SM CLR 11/07 A2992 810 77 500 000/00 RMK AO2 SLP130 T01060067 10194 20106 51018
13873KAHN AHN20160507005013205/07/16 00:50:31  5-MIN KAHN 070550Z AUTO 00000KT 10SM CLR 11/07 A2992 810 77 500 000/00 RMK AO2 SLP130 T01060067 10194 20106 51018
13873KAHN AHN20160507005510705/07/16 00:55:31  5-MIN KAHN 070555Z AUTO 31003KT 10SM CLR 11/07 A2992 810 77 500 320/03 RMK AO2 T01060067
13873KAHN AHN20160507010010705/07/16 01:00:31  5-MIN KAHN 070600Z AUTO 00000KT 10SM CLR 10/07 A2992 810 80 400 000/00 RMK AO2 T01000067
13873KAHN AHN20160507010510705/07/16 01:05:31  5-MIN KAHN 070605Z AUTO 00000KT 10SM CLR 11/07 A2992 810 77 500 000/00 RMK AO2 T01060067
13873KAHN AHN20160507011010705/07/16 01:10:31  5-MIN KAHN 070610Z AUTO 00000KT 10SM CLR 10/07 A2992 810 80 400 000/00 RMK AO2 T01000067
13873KAHN AHN20160507011510705/07/16 01:15:31  5-MIN KAHN 070615Z AUTO 00000KT 10SM CLR 10/07 A2992 810 80 400 000/00 RMK AO2 T01000067
13873KAHN AHN20160507012010705/07/16 01:20:31  5-MIN KAHN 070620Z AUTO 00000KT 10SM CLR 10/07 A2992 810 80 400 000/00 RMK AO2 T01000067
13873KAHN AHN20160507012510705/07/16 01:25:31  5-MIN KAHN 070625Z AUTO 27003KT 10SM CLR 11/07 A2992 810 77 500 280/03 RMK AO2 T01060067
13873KAHN AHN20160507013010705/07/16 01:30:31  5-MIN KAHN 070630Z AUTO 00000KT 10SM CLR 10/07 A2992 810 80 400 000/00 RMK AO2 T01000067
13873KAHN AHN20160507013510705/07/16 01:35:31  5-MIN KAHN 070635Z AUTO 30003KT 10SM CLR 09/07 A2992 810 83 400 300/03 RMK AO2 T00940067
13873KAHN AHN20160507014010705/07/16 01:40:31  5-MIN KAHN 070640Z AUTO 31003KT 10SM CLR 09/07 A2992 810 83 400 320/03 RMK AO2 T00940067
13873KAHN AHN20160507014511405/07/16 01:45:31  5-MIN KAHN 070645Z AUTO 31003KT 10SM CLR 09/07 A2992 810 83 400 310/03 RMK AO2 SLP131 T00940067
13873KAHN AHN20160507015011405/07/16 01:50:31  5-MIN KAHN 070650Z AUTO 30003KT 10SM CLR 10/07 A2992 810 80 400 310/03 RMK AO2 SLP131 T01000067
13873KAHN AHN20160507015510705/07/16 01:55:31  5-MIN KAHN 070655Z AUTO 30003KT 10SM CLR 10/07 A2992 810 80 400 300/03 RMK AO2 T01000067
13873KAHN AHN20160507020010705/07/16 02:00:31  5-MIN KAHN 070700Z AUTO 30003KT 10SM CLR 10/07 A2992 810 80 400 310/03 RMK AO2 T01000067
13873KAHN AHN20160507020510705/07/16 02:05:31  5-MIN KAHN 070705Z AUTO 31003KT 10SM CLR 10/07 A2992 810 80 400 320/03 RMK AO2 T01000067
13873KAHN AHN20160507021010705/07/16 02:10:31  5-MIN KAHN 070710Z AUTO 31004KT 10SM CLR 10/07 A2992 810 80 400 320/04 RMK AO2 T01000067
13873KAHN AHN20160507021510705/07/16 02:15:31  5-MIN KAHN 070715Z AUTO 30004KT 10SM CLR 10/07 A2992 810 80 400 310/04 RMK AO2 T01000067
13873KAHN AHN20160507022010705/07/16 02:20:31  5-MIN KAHN 070720Z AUTO 30004KT 10SM CLR 10/07 A2992 810 80 400 310/04 RMK AO2 T01000067
13873KAHN AHN20160507022510705/07/16 02:25:31  5-MIN KAHN 070725Z AUTO 31004KT 10SM CLR 10/07 A2993 810 80 400 320/04 RMK AO2 T01000067
13873KAHN AHN20160507023010705/07/16 02:30:31  5-MIN KAHN 070730Z AUTO 31003KT 10SM CLR 10/07 A2992 810 80 400 310/03 RMK AO2 T01000067
13873KAHN AHN20160507023510705/07/16 02:35:31  5-MIN KAHN 070735Z AUTO 29003KT 10SM CLR 10/07 A2992 810 80 400 300/03 RMK AO2 T01000067
13873KAHN AHN20160507024010705/07/16 02:40:31  5-MIN KAHN 070740Z AUTO 00000KT 10SM CLR 09/07 A2993 810 83 400 000/00 RMK AO2 T00940067
13873KAHN AHN20160507024511405/07/16 02:45:31  5-MIN KAHN 070745Z AUTO 00000KT 10SM CLR 09/07 A2993 810 83 400 000/00 RMK AO2 SLP132 T00940067
13873KAHN AHN20160507025011405/07/16 02:50:31  5-MIN KAHN 070750Z AUTO 00000KT 10SM CLR 10/07 A2993 810 80 400 000/00 RMK AO2 SLP131 T01000067
13873KAHN AHN20160507025510705/07/16 02:55:31  5-MIN KAHN 070755Z AUTO 00000KT 10SM CLR 10/07 A2993 800 80 400 000/00 RMK AO2 T01000067
13873KAHN AHN20160507030010705/07/16 03:00:31  5-MIN KAHN 070800Z AUTO 00000KT 10SM CLR 10/07 A2993 810 80 400 000/00 RMK AO2 T01000067
13873KAHN AHN20160507030510705/07/16 03:05:31  5-MIN KAHN 070805Z AUTO 32003KT 10SM CLR 09/07 A2992 810 83 400 330/03 RMK AO2 T00940067
13873KAHN AHN20160507031010705/07/16 03:10:31  5-MIN KAHN 070810Z AUTO 32003KT 10SM CLR 09/07 A2992 810 83 400 330/03 RMK AO2 T00940067
13873KAHN AHN20160507031510705/07/16 03:15:31  5-MIN KAHN 070815Z AUTO 00000KT 10SM CLR 09/07 A2993 810 83 400 000/00 RMK AO2 T00940067
13873KAHN AHN20160507032010705/07/16 03:20:31  5-MIN KAHN 070820Z AUTO 31003KT 10SM CLR 09/07 A2993 800 83 400 320/03 RMK AO2 T00940067
13873KAHN AHN20160507032510705/07/16 03:25:31  5-MIN KAHN 070825Z AUTO 32004KT 10SM CLR 10/07 A2993 800 80 400 320/04 RMK AO2 T01000067
13873KAHN AHN20160507033010705/07/16 03:30:31  5-MIN KAHN 070830Z AUTO 30004KT 10SM CLR 10/07 A2993 800 80 400 300/04 RMK AO2 T01000067
13873KAHN AHN20160507033510705/07/16 03:35:31  5-MIN KAHN 070835Z AUTO 26003KT 10SM CLR 09/07 A2993 800 83 400 270/03 RMK AO2 T00940067
13873KAHN AHN20160507034010705/07/16 03:40:31  5-MIN KAHN 070840Z AUTO 26003KT 10SM CLR 08/07 A2993 800 89 200 260/03 RMK AO2 T00830067
13873KAHN AHN20160507034512005/07/16 03:45:31  5-MIN KAHN 070845Z AUTO 27003KT 10SM CLR 09/07 A2993 800 86 300 270/03 RMK AO2 SLP134 T00890067 58002
13873KAHN AHN20160507035012005/07/16 03:50:31  5-MIN KAHN 070850Z AUTO 29003KT 10SM CLR 09/07 A2993 800 83 400 290/03 RMK AO2 SLP134 T00940067 58002
13873KAHN AHN20160507035510705/07/16 03:55:31  5-MIN KAHN 070855Z AUTO 31003KT 10SM CLR 09/07 A2993 800 86 300 320/03 RMK AO2 T00890067
13873KAHN AHN20160507040010705/07/16 04:00:31  5-MIN KAHN 070900Z AUTO 32003KT 10SM CLR 09/07 A2993 800 86 300 330/03 RMK AO2 T00890067
13873KAHN AHN20160507040510705/07/16 04:05:31  5-MIN KAHN 070905Z AUTO 31003KT 10SM CLR 09/07 A2993 800 86 300 310/03 RMK AO2 T00890067
13873KAHN AHN20160507041010705/07/16 04:10:31  5-MIN KAHN 070910Z AUTO 30003KT 10SM CLR 09/07 A2993 800 83 400 300/03 RMK AO2 T00940067
13873KAHN AHN20160507041510705/07/16 04:15:31  5-MIN KAHN 070915Z AUTO 00000KT 10SM CLR 09/07 A2993 800 83 400 000/00 RMK AO2 T00940067
13873KAHN AHN20160507042010705/07/16 04:20:31  5-MIN KAHN 070920Z AUTO 00000KT 10SM CLR 09/07 A2993 800 83 400 000/00 RMK AO2 T00940067
13873KAHN AHN20160507042510705/07/16 04:25:31  5-MIN KAHN 070925Z AUTO 30003KT 10SM CLR 09/07 A2993 800 86 300 310/03 RMK AO2 T00890067
13873KAHN AHN20160507043010705/07/16 04:30:31  5-MIN KAHN 070930Z AUTO 30003KT 10SM CLR 09/07 A2994 800 86 300 310/03 RMK AO2 T00890067
13873KAHN AHN20160507043510705/07/16 04:35:31  5-MIN KAHN 070935Z AUTO 30003KT 10SM CLR 09/07 A2994 800 86 300 300/03 RMK AO2 T00890067
13873KAHN AHN20160507044010705/07/16 04:40:31  5-MIN KAHN 070940Z AUTO 00000KT 10SM CLR 09/07 A2994 800 86 300 000/00 RMK AO2 T00890067
13873KAHN AHN20160507044511405/07/16 04:45:31  5-MIN KAHN 070945Z AUTO 00000KT 10SM CLR 09/07 A2993 800 86 300 000/00 RMK AO2 SLP135 T00890067
13873KAHN AHN20160507045011405/07/16 04:50:31  5-MIN KAHN 070950Z AUTO 31003KT 10SM CLR 09/07 A2994 800 86 300 310/03 RMK AO2 SLP136 T00890067
13873KAHN AHN20160507045510705/07/16 04:55:31  5-MIN KAHN 070955Z AUTO 30003KT 10SM CLR 09/07 A2994 800 86 300 310/03 RMK AO2 T00890067
13873KAHN AHN20160507050010705/07/16 05:00:31  5-MIN KAHN 071000Z AUTO 30004KT 10SM CLR 09/07 A2994 790 86 300 300/04 RMK AO2 T00890067
13873KAHN AHN20160507050510705/07/16 05:05:31  5-MIN KAHN 071005Z AUTO 29003KT 10SM CLR 08/07 A2994 790 89 200 290/03 RMK AO2 T00830067
13873KAHN AHN20160507051010705/07/16 05:10:31  5-MIN KAHN 071010Z AUTO 30003KT 10SM CLR 09/07 A2994 790 86 300 300/03 RMK AO2 T00890067
13873KAHN AHN20160507051511205/07/16 05:15:31  5-MIN KAHN 071015Z AUTO 30003KT 10SM CLR 09/07 A2994 790 86 300 300/03 RMK AO2 T00890067 TSNO
13873KAHN AHN20160507052010705/07/16 05:20:31  5-MIN KAHN 071020Z AUTO 30004KT 10SM CLR 09/07 A2995 790 86 300 300/04 RMK AO2 T00890067
13873KAHN AHN20160507052510705/07/16 05:25:31  5-MIN KAHN 071025Z AUTO 29004KT 10SM CLR 08/07 A2995 790 89 200 300/04 RMK AO2 T00830067
13873KAHN AHN20160507053010705/07/16 05:30:31  5-MIN KAHN 071030Z AUTO 30004KT 10SM CLR 08/07 A2995 780 89 200 310/04 RMK AO2 T00830067
13873KAHN AHN20160507053510705/07/16 05:35:31  5-MIN KAHN 071035Z AUTO 30003KT 10SM CLR 09/07 A2995 780 86 300 310/03 RMK AO2 T00890067
13873KAHN AHN20160507054010705/07/16 05:40:31  5-MIN KAHN 071040Z AUTO 30003KT 10SM CLR 08/07 A2995 780 89 200 310/03 RMK AO2 T00830067
13873KAHN AHN20160507054511405/07/16 05:45:31  5-MIN KAHN 071045Z AUTO 30003KT 10SM CLR 08/07 A2995 780 89 200 300/03 RMK AO2 SLP142 T00830067
13873KAHN AHN20160507055011405/07/16 05:50:31  5-MIN KAHN 071050Z AUTO 30003KT 10SM CLR 09/07 A2995 780 86 300 300/03 RMK AO2 SLP142 T00890067
13873KAHN AHN20160507055510705/07/16 05:55:31  5-MIN KAHN 071055Z AUTO 00000KT 10SM CLR 09/07 A2996 780 86 300 000/00 RMK AO2 T00890067
13873KAHN AHN20160507060010705/07/16 06:00:31  5-MIN KAHN 071100Z AUTO 31003KT 10SM CLR 09/07 A2996 780 86 300 310/03 RMK AO2 T00890067
13873KAHN AHN20160507060510705/07/16 06:05:31  5-MIN KAHN 071105Z AUTO 31003KT 10SM CLR 09/07 A2996 770 86 300 310/03 RMK AO2 T00890067
13873KAHN AHN20160507061010705/07/16 06:10:31  5-MIN KAHN 071110Z AUTO 30003KT 10SM CLR 09/07 A2996 770 89 300 300/03 RMK AO2 T00890072
13873KAHN AHN20160507061510705/07/16 06:15:31  5-MIN KAHN 071115Z AUTO 00000KT 10SM CLR 09/07 A2996 770 89 300 000/00 RMK AO2 T00890072
13873KAHN AHN20160507062010705/07/16 06:20:31  5-MIN KAHN 071120Z AUTO 29003KT 10SM CLR 09/07 A2997 770 86 300 300/03 RMK AO2 T00940072
13873KAHN AHN20160507062510705/07/16 06:25:31  5-MIN KAHN 071125Z AUTO 00000KT 10SM CLR 09/07 A2997 770 86 300 000/00 RMK AO2 T00940072
13873KAHN AHN20160507063010705/07/16 06:30:31  5-MIN KAHN 071130Z AUTO 00000KT 10SM CLR 10/07 A2997 760 83 400 000/00 RMK AO2 T01000072
13873KAHN AHN20160507063510705/07/16 06:35:31  5-MIN KAHN 071135Z AUTO 29003KT 10SM CLR 10/08 A2998 760 86 400 290/03 RMK AO2 T01000078
13873KAHN AHN20160507064010705/07/16 06:40:31  5-MIN KAHN 071140Z AUTO 00000KT 10SM CLR 10/08 A2998 760 86 400 000/00 RMK AO2 T01000078
13873KAHN AHN20160507064512705/07/16 06:45:31  5-MIN KAHN 071145Z 30003KT 10SM CLR 11/08 A2998 760 83 400 300/03 RMK AO2 SLP149 T01060078 10106 20083 53004
13873KAHN AHN20160507065012705/07/16 06:50:31  5-MIN KAHN 071150Z 00000KT 10SM CLR 11/08 A2998 760 80 500 000/00 RMK AO2 SLP149 T01110078 10111 20083 53004
13873KAHN AHN20160507065510205/07/16 06:55:31  5-MIN KAHN 071155Z 30003KT 10SM CLR 11/08 A2998 760 83 500 300/03 RMK AO2 T01110083
13873KAHN AHN20160507070010205/07/16 07:00:31  5-MIN KAHN 071200Z 31003KT 10SM CLR 12/08 A2998 760 80 600 310/03 RMK AO2 T01170083
13873KAHN AHN20160507070510205/07/16 07:05:31  5-MIN KAHN 071205Z 31003KT 10SM CLR 12/08 A2998 750 77 600 310/03 RMK AO2 T01220083
13873KAHN AHN20160507071010205/07/16 07:10:31  5-MIN KAHN 071210Z 00000KT 10SM CLR 13/08 A2998 750 74 700 000/00 RMK AO2 T01280083
13873KAHN AHN20160507071510205/07/16 07:15:31  5-MIN KAHN 071215Z 31003KT 10SM CLR 13/08 A2998 750 74 700 320/03 RMK AO2 T01280083
13873KAHN AHN20160507072010205/07/16 07:20:31  5-MIN KAHN 071220Z 31003KT 10SM CLR 13/08 A2998 750 71 800 320/03 RMK AO2 T01330083
13873KAHN AHN20160507072510205/07/16 07:25:31  5-MIN KAHN 071225Z 31005KT 10SM CLR 13/08 A2999 750 71 800 320/05 RMK AO2 T01330083
13873KAHN AHN20160507073010205/07/16 07:30:31  5-MIN KAHN 071230Z 31004KT 10SM CLR 14/08 A2999 750 69 800 320/04 RMK AO2 T01390083
13873KAHN AHN20160507073510205/07/16 07:35:31  5-MIN KAHN 071235Z 30005KT 10SM CLR 14/08 A2999 750 69 800 310/05 RMK AO2 T01390083
13873KAHN AHN20160507074010205/07/16 07:40:31  5-MIN KAHN 071240Z 31004KT 10SM CLR 14/09 A2999 750 69 900 310/04 RMK AO2 T01440089
13873KAHN AHN20160507074511005/07/16 07:45:31  5-MIN KAHN 071245Z 32003KT 10SM CLR 15/09 A2999 750 66 1000 320/03 RMK AO2 SLP153 T01500089
13873KAHN AHN20160507075011005/07/16 07:50:31  5-MIN KAHN 071250Z 31003KT 10SM CLR 15/09 A2999 750 66 1000 320/03 RMK AO2 SLP153 T01500089
13873KAHN AHN20160507075510305/07/16 07:55:31  5-MIN KAHN 071255Z 32003KT 10SM CLR 16/09 A2999 740 64 1000 320/03 RMK AO2 T01560089
13873KAHN AHN20160507080010305/07/16 08:00:31  5-MIN KAHN 071300Z 31003KT 10SM CLR 16/09 A2999 740 64 1000 310/03 RMK AO2 T01560089
13873KAHN AHN20160507080510305/07/16 08:05:31  5-MIN KAHN 071305Z VRB03KT 10SM CLR 16/09 A3000 740 64 1100 VRB/03 RMK AO2 T01610094
13873KAHN AHN20160507081010305/07/16 08:10:31  5-MIN KAHN 071310Z 29004KT 10SM CLR 17/09 A3000 740 62 1100 300/04 RMK AO2 T01670094
13873KAHN AHN20160507081510305/07/16 08:15:31  5-MIN KAHN 071315Z 29003KT 10SM CLR 17/09 A3000 740 62 1100 300/03 RMK AO2 T01670094
13873KAHN AHN20160507082010305/07/16 08:20:31  5-MIN KAHN 071320Z 28005KT 10SM CLR 17/09 A3000 740 60 1200 290/05 RMK AO2 T01720094
13873KAHN AHN20160507082510305/07/16 08:25:31  5-MIN KAHN 071325Z 29004KT 10SM CLR 17/09 A3000 740 57 1200 290/04 RMK AO2 T01720089
13873KAHN AHN20160507083010305/07/16 08:30:31  5-MIN KAHN 071330Z 28006KT 10SM CLR 18/09 A3000 740 55 1300 280/06 RMK AO2 T01780089
13873KAHN AHN20160507083510305/07/16 08:35:31  5-MIN KAHN 071335Z VRB03KT 10SM CLR 18/09 A3000 740 55 1300 VRB/03 RMK AO2 T01780089
13873KAHN AHN20160507084010305/07/16 08:40:31  5-MIN KAHN 071340Z VRB04KT 10SM CLR 18/09 A3000 740 54 1300 VRB/04 RMK AO2 T01830089
13873KAHN AHN20160507084511005/07/16 08:45:31  5-MIN KAHN 071345Z VRB05KT 10SM CLR 18/08 A3000 740 52 1300 VRB/05 RMK AO2 SLP155 T01830083
13873KAHN AHN20160507085011005/07/16 08:50:31  5-MIN KAHN 071350Z VRB05KT 10SM CLR 19/08 A3000 740 50 1400 VRB/05 RMK AO2 SLP156 T01890083
13873KAHN AHN20160507085510305/07/16 08:55:31  5-MIN KAHN 071355Z 29005KT 10SM CLR 19/08 A3000 740 48 1400 300/05 RMK AO2 T01890078
13873KAHN AHN20160507090010305/07/16 09:00:31  5-MIN KAHN 071400Z 29005KT 10SM CLR 19/08 A3000 740 48 1500 290/05 RMK AO2 T01940083
13873KAHN AHN20160507090510305/07/16 09:05:31  5-MIN KAHN 071405Z 29007KT 10SM CLR 19/08 A3000 740 46 1500 300/07 RMK AO2 T01940078
13873KAHN AHN20160507091010305/07/16 09:10:31  5-MIN KAHN 071410Z 29008KT 10SM CLR 19/08 A3000 740 46 1500 300/08 RMK AO2 T01940078
13873KAHN AHN20160507091510305/07/16 09:15:31  5-MIN KAHN 071415Z VRB03KT 10SM CLR 20/08 A2999 740 46 1500 VRB/03 RMK AO2 T02000083
13873KAHN AHN20160507092010305/07/16 09:20:31  5-MIN KAHN 071420Z 31006KT 10SM CLR 20/08 A2999 750 46 1500 310/06 RMK AO2 T02000083
13873KAHN AHN20160507092510305/07/16 09:25:31  5-MIN KAHN 071425Z 29006KT 10SM CLR 20/08 A2999 740 45 1500 300/06 RMK AO2 T02000078
13873KAHN AHN20160507093010305/07/16 09:30:31  5-MIN KAHN 071430Z 29006KT 10SM CLR 21/08 A2999 740 45 1600 290/06 RMK AO2 T02060083
13873KAHN AHN20160507093510305/07/16 09:35:31  5-MIN KAHN 071435Z 28006KT 10SM CLR 21/08 A2999 740 45 1600 280/06 RMK AO2 T02060083
13873KAHN AHN20160507094010305/07/16 09:40:31  5-MIN KAHN 071440Z 28007KT 10SM CLR 21/08 A2999 740 43 1600 290/07 RMK AO2 T02060078
13873KAHN AHN20160507094511605/07/16 09:45:31  5-MIN KAHN 071445Z 29008KT 10SM CLR 21/08 A2999 740 42 1700 300/08 RMK AO2 SLP154 T02110078 53015
13873KAHN AHN20160507095011605/07/16 09:50:31  5-MIN KAHN 071450Z 29007KT 10SM CLR 21/07 A3000 740 40 1700 290/07 RMK AO2 SLP154 T02110072 53015
13873KAHN AHN20160507095510305/07/16 09:55:31  5-MIN KAHN 071455Z 28006KT 10SM CLR 21/07 A3000 740 40 1700 280/06 RMK AO2 T02110072
13873KAHN AHN20160507100010305/07/16 10:00:31  5-MIN KAHN 071500Z 29006KT 10SM CLR 22/07 A3000 740 39 1700 290/06 RMK AO2 T02170072
13873KAHN AHN20160507100510305/07/16 10:05:31  5-MIN KAHN 071505Z 30008KT 10SM CLR 22/07 A2999 740 39 1700 300/08 RMK AO2 T02170072
13873KAHN AHN20160507101010305/07/16 10:10:31  5-MIN KAHN 071510Z 29006KT 10SM CLR 22/08 A2999 740 40 1700 300/06 RMK AO2 T02170078
13873KAHN AHN20160507101510305/07/16 10:15:31  5-MIN KAHN 071515Z 30007KT 10SM CLR 22/07 A3000 740 39 1700 300/07 RMK AO2 T02170072
13873KAHN AHN20160507102010305/07/16 10:20:31  5-MIN KAHN 071520Z 28008KT 10SM CLR 22/07 A2999 740 39 1700 280/08 RMK AO2 T02170072
13873KAHN AHN20160507102511905/07/16 10:25:31  5-MIN KAHN 071525Z 28007KT 240V310 10SM CLR 22/07 A2999 740 39 1700 280/07 250V320 RMK AO2 T02170072
13873KAHN AHN20160507103011905/07/16 10:30:31  5-MIN KAHN 071530Z 29007KT 250V330 10SM CLR 22/08 A2999 740 39 1800 300/07 260V340 RMK AO2 T02220078
13873KAHN AHN20160507103511905/07/16 10:35:31  5-MIN KAHN 071535Z 29010KT 250V320 10SM CLR 22/08 A2999 740 39 1800 290/10 260V330 RMK AO2 T02220078
13873KAHN AHN20160507104010905/07/16 10:40:31  5-MIN KAHN 071540Z 30012G18KT 10SM CLR 22/08 A2999 740 39 1800 310/12G18 RMK AO2 T02220078
13873KAHN AHN20160507104513205/07/16 10:45:31  5-MIN KAHN 071545Z 30008G18KT 240V320 10SM CLR 22/08 A2999 750 39 1800 300/08G18 250V330 RMK AO2 SLP152 T02220078
13873KAHN AHN20160507105012605/07/16 10:50:31  5-MIN KAHN 071550Z 30008KT 250V340 10SM CLR 22/08 A2999 750 40 1800 310/08 260V350 RMK AO2 SLP151 T02220083
13873KAHN AHN20160507105510905/07/16 10:55:31  5-MIN KAHN 071555Z 29009G16KT 10SM CLR 23/08 A2999 750 39 1900 300/09G16 RMK AO2 T02280083
13873KAHN AHN20160507110010905/07/16 11:00:31  5-MIN KAHN 071600Z 29006G15KT 10SM CLR 23/08 A2999 750 39 1900 300/06G15 RMK AO2 T02280083
13873KAHN AHN20160507110512505/07/16 11:05:31  5-MIN KAHN 071605Z 27009G17KT 240V320 10SM CLR 23/08 A2999 750 37 1900 280/09G17 250V330 RMK AO2 T02280078
13873KAHN AHN20160507111010905/07/16 11:10:31  5-MIN KAHN 071610Z 31012G17KT 10SM CLR 23/08 A2999 750 38 1900 310/12G17 RMK AO2 T02330083
13873KAHN AHN20160507111512505/07/16 11:15:31  5-MIN KAHN 071615Z 31009G17KT 280V350 10SM CLR 23/08 A2999 750 36 1900 310/09G17 290V360 RMK AO2 T02330078
13873KAHN AHN20160507112010305/07/16 11:20:31  5-MIN KAHN 071620Z 31009KT 10SM CLR 23/08 A2998 750 38 1900 320/09 RMK AO2 T02330083
13873KAHN AHN20160507112512505/07/16 11:25:31  5-MIN KAHN 071625Z 28009G15KT 240V310 10SM CLR 24/08 A2998 750 36 2000 280/09G15 250V320 RMK AO2 T02390083
13873KAHN AHN20160507113010905/07/16 11:30:31  5-MIN KAHN 071630Z 27008G15KT 10SM CLR 23/08 A2998 760 36 1900 280/08G15 RMK AO2 T02330078
13873KAHN AHN20160507113512505/07/16 11:35:31  5-MIN KAHN 071635Z 26007G14KT 220V280 10SM CLR 23/08 A2998 760 36 1900 260/07G14 230V290 RMK AO2 T02330078
13873KAHN AHN20160507114011905/07/16 11:40:31  5-MIN KAHN 071640Z 28008KT 240V320 10SM CLR 24/08 A2997 760 35 2100 290/08 250V330 RMK AO2 T02440083
13873KAHN AHN20160507114511605/07/16 11:45:31  5-MIN KAHN 071645Z 27010G16KT 10SM CLR 24/08 A2997 760 36 2000 270/10G16 RMK AO2 SLP145 T02390083
13873KAHN AHN20160507115011605/07/16 11:50:31  5-MIN KAHN 071650Z 30008G16KT 10SM CLR 24/08 A2997 770 36 2000 300/08G16 RMK AO2 SLP145 T02390083
13873KAHN AHN20160507115510305/07/16 11:55:31  5-MIN KAHN 071655Z VRB06KT 10SM CLR 25/09 A2997 770 35 2100 VRB/06 RMK AO2 T02500089
13873KAHN AHN20160507120010905/07/16 12:00:31  5-MIN KAHN 071700Z 31010G15KT 10SM CLR 24/08 A2997 770 35 2100 320/10G15 RMK AO2 T02440083
13873KAHN AHN20160507120510905/07/16 12:05:31  5-MIN KAHN 071705Z 31007G16KT 10SM CLR 24/08 A2997 770 35 2100 320/07G16 RMK AO2 T02440083
13873KAHN AHN20160507121010905/07/16 12:10:31  5-MIN KAHN 071710Z 29012G18KT 10SM CLR 25/09 A2997 770 35 2100 300/12G18 RMK AO2 T02500089
13873KAHN AHN20160507121510905/07/16 12:15:31  5-MIN KAHN 071715Z 30008G18KT 10SM CLR 24/08 A2996 770 35 2100 310/08G18 RMK AO2 T02440083
13873KAHN AHN20160507122010905/07/16 12:20:31  5-MIN KAHN 071720Z 27007G16KT 10SM CLR 24/09 A2996 770 36 2100 280/07G16 RMK AO2 T02440089
13873KAHN AHN20160507122510905/07/16 12:25:31  5-MIN KAHN 071725Z 30010G16KT 10SM CLR 25/09 A2996 770 35 2100 310/10G16 RMK AO2 T02500089
13873KAHN AHN20160507123010905/07/16 12:30:31  5-MIN KAHN 071730Z 30010G19KT 10SM CLR 24/08 A2996 770 35 2100 310/10G19 RMK AO2 T02440083
13873KAHN AHN20160507123510905/07/16 12:35:31  5-MIN KAHN 071735Z 33008G19KT 10SM CLR 24/08 A2996 770 35 2100 330/08G19 RMK AO2 T02440083
13873KAHN AHN20160507124012505/07/16 12:40:31  5-MIN KAHN 071740Z 27009G19KT 240V300 10SM CLR 25/09 A2996 780 35 2100 280/09G19 250V310 RMK AO2 T02500089
13873KAHN AHN20160507124513405/07/16 12:45:31  5-MIN KAHN 071745Z 28010G16KT 10SM CLR 25/09 A2996 780 35 2200 280/10G16 RMK AO2 SLP140 T02500089 10256 20111 50006
13873KAHN AHN20160507125013405/07/16 12:50:31  5-MIN KAHN 071750Z 27009G16KT 10SM CLR 25/09 A2996 780 37 2200 280/09G16 RMK AO2 SLP140 T02500094 10256 20111 50006
13873KAHN AHN20160507125512505/07/16 12:55:31  5-MIN KAHN 071755Z 29007G16KT 260V330 10SM CLR 25/09 A2995 780 37 2200 290/07G16 270V340 RMK AO2 T02500094
13873KAHN AHN20160507130010905/07/16 13:00:31  5-MIN KAHN 071800Z 31009G15KT 10SM CLR 26/09 A2995 790 35 2200 310/09G15 RMK AO2 T02560094
13873KAHN AHN20160507130512505/07/16 13:05:31  5-MIN KAHN 071805Z 30010G15KT 260V330 10SM CLR 25/09 A2995 790 37 2200 310/10G15 270V340 RMK AO2 T02500094
13873KAHN AHN20160507131012505/07/16 13:10:31  5-MIN KAHN 071810Z 27009G16KT 230V290 10SM CLR 26/09 A2994 790 35 2200 270/09G16 240V300 RMK AO2 T02560094
13873KAHN AHN20160507131510905/07/16 13:15:31  5-MIN KAHN 071815Z 29011G17KT 10SM CLR 26/09 A2995 790 35 2200 300/11G17 RMK AO2 T02560094
13873KAHN AHN20160507132012505/07/16 13:20:31  5-MIN KAHN 071820Z 27008G17KT 240V320 10SM CLR 26/09 A2994 790 35 2200 280/08G17 250V330 RMK AO2 T02560094
13873KAHN AHN20160507132510905/07/16 13:25:31  5-MIN KAHN 071825Z 27008G17KT 10SM CLR 26/09 A2995 790 35 2200 280/08G17 RMK AO2 T02560094
13873KAHN AHN20160507133010905/07/16 13:30:31  5-MIN KAHN 071830Z 27010G16KT 10SM CLR 26/10 A2994 790 36 2300 270/10G16 RMK AO2 T02610100
13873KAHN AHN20160507133512505/07/16 13:35:31  5-MIN KAHN 071835Z 29011G16KT 270V330 10SM CLR 26/09 A2994 790 34 2300 300/11G16 280V340 RMK AO2 T02610094
13873KAHN AHN20160507134012505/07/16 13:40:31  5-MIN KAHN 071840Z 28008G16KT 240V310 10SM CLR 26/09 A2994 800 34 2300 290/08G16 250V320 RMK AO2 T02610094
13873KAHN AHN20160507134511605/07/16 13:45:31  5-MIN KAHN 071845Z 28011G17KT 10SM CLR 27/09 A2993 800 33 2400 290/11G17 RMK AO2 SLP133 T02670094
13873KAHN AHN20160507135011605/07/16 13:50:31  5-MIN KAHN 071850Z 28010G17KT 10SM CLR 26/09 A2993 800 33 2300 280/10G17 RMK AO2 SLP132 T02610089
13873KAHN AHN20160507135510905/07/16 13:55:31  5-MIN KAHN 071855Z 26009G17KT 10SM CLR 26/09 A2993 800 34 2300 270/09G17 RMK AO2 T02610094
13873KAHN AHN20160507140010905/07/16 14:00:31  5-MIN KAHN 071900Z 28009G16KT 10SM CLR 27/09 A2993 800 33 2400 280/09G16 RMK AO2 T02670094
13873KAHN AHN20160507140512505/07/16 14:05:31  5-MIN KAHN 071905Z 30009G18KT 250V320 10SM CLR 27/09 A2993 800 33 2400 300/09G18 260V330 RMK AO2 T02670094
13873KAHN AHN20160507141010905/07/16 14:10:31  5-MIN KAHN 071910Z 26008G18KT 10SM CLR 27/09 A2992 810 32 2400 270/08G18 RMK AO2 T02720094
13873KAHN AHN20160507141510905/07/16 14:15:31  5-MIN KAHN 071915Z 29011G18KT 10SM CLR 27/09 A2992 810 32 2400 290/11G18 RMK AO2 T02670089
13873KAHN AHN20160507142010905/07/16 14:20:31  5-MIN KAHN 071920Z 27010G18KT 10SM CLR 27/09 A2992 810 33 2400 270/10G18 RMK AO2 T02670094
13873KAHN AHN20160507142510905/07/16 14:25:31  5-MIN KAHN 071925Z 27010G19KT 10SM CLR 27/09 A2992 810 33 2400 270/10G19 RMK AO2 T02670094
13873KAHN AHN20160507143010905/07/16 14:30:31  5-MIN KAHN 071930Z 27007G19KT 10SM CLR 27/09 A2992 810 32 2400 280/07G19 RMK AO2 T02720094
13873KAHN AHN20160507143512505/07/16 14:35:31  5-MIN KAHN 071935Z 27007G18KT 220V310 10SM CLR 27/09 A2992 810 33 2400 270/07G18 230V320 RMK AO2 T02670094
13873KAHN AHN20160507144010905/07/16 14:40:31  5-MIN KAHN 071940Z 28010G19KT 10SM CLR 27/09 A2991 820 32 2400 290/10G19 RMK AO2 T02720094
13873KAHN AHN20160507144513205/07/16 14:45:31  5-MIN KAHN 071945Z 28009G19KT 240V320 10SM CLR 27/09 A2991 820 32 2500 280/09G19 250V330 RMK AO2 SLP125 T02720094
13873KAHN AHN20160507145013205/07/16 14:50:31  5-MIN KAHN 071950Z 27009G19KT 230V290 10SM CLR 27/09 A2991 820 32 2500 270/09G19 240V300 RMK AO2 SLP123 T02720094
13873KAHN AHN20160507145510905/07/16 14:55:31  5-MIN KAHN 071955Z 27007G19KT 10SM CLR 27/09 A2991 820 33 2400 270/07G19 RMK AO2 T02670094
13873KAHN AHN20160507150010905/07/16 15:00:31  5-MIN KAHN 072000Z 28009G19KT 10SM CLR 27/09 A2990 830 33 2400 280/09G19 RMK AO2 T02670094
13873KAHN AHN20160507150512505/07/16 15:05:31  5-MIN KAHN 072005Z 27009G16KT 230V300 10SM CLR 27/10 A2990 830 33 2500 270/09G16 240V310 RMK AO2 T02720100
13873KAHN AHN20160507151012505/07/16 15:10:31  5-MIN KAHN 072010Z 26009G18KT 230V300 10SM CLR 27/10 A2990 830 33 2500 260/09G18 240V310 RMK AO2 T02720100
13873KAHN AHN20160507151512505/07/16 15:15:31  5-MIN KAHN 072015Z 27009G19KT 240V310 10SM CLR 27/10 A2990 830 33 2500 280/09G19 250V320 RMK AO2 T02720100
13873KAHN AHN20160507152012505/07/16 15:20:31  5-MIN KAHN 072020Z 26008G19KT 230V290 10SM CLR 27/10 A2990 830 33 2500 270/08G19 240V300 RMK AO2 T02720100
13873KAHN AHN20160507152510305/07/16 15:25:31  5-MIN KAHN 072025Z VRB05KT 10SM CLR 27/10 A2990 830 33 2500 VRB/05 RMK AO2 T02720100
13873KAHN AHN20160507153010305/07/16 15:30:31  5-MIN KAHN 072030Z 28008KT 10SM CLR 27/11 A2990 830 34 2500 280/08 RMK AO2 T02720106
13873KAHN AHN20160507153510905/07/16 15:35:31  5-MIN KAHN 072035Z 30007G19KT 10SM CLR 27/10 A2990 830 33 2500 300/07G19 RMK AO2 T02720100
13873KAHN AHN20160507154010905/07/16 15:40:31  5-MIN KAHN 072040Z 31009G19KT 10SM CLR 28/11 A2990 830 33 2500 310/09G19 RMK AO2 T02780106
13873KAHN AHN20160507154514805/07/16 15:45:31  5-MIN KAHN 072045Z AUTO 31009G16KT 280V340 10SM CLR 27/10 A2989 840 33 2500 310/09G16 290V350 RMK AO2 SLP119 T02720100 58014 TSNO
13873KAHN AHN20160507155012205/07/16 15:50:31  5-MIN KAHN 072050Z 27010G16KT 10SM CLR 27/11 A2989 840 34 2500 270/10G16 RMK AO2 SLP119 T02720106 58014
13873KAHN AHN20160507155510905/07/16 15:55:31  5-MIN KAHN 072055Z 28010G19KT 10SM CLR 27/10 A2989 840 33 2500 290/10G19 RMK AO2 T02720100
13873KAHN AHN20160507160010905/07/16 16:00:31  5-MIN KAHN 072100Z 27012G20KT 10SM CLR 27/10 A2989 840 34 2400 280/12G20 RMK AO2 T02670100
13873KAHN AHN20160507160510905/07/16 16:05:31  5-MIN KAHN 072105Z 29012G20KT 10SM CLR 27/10 A2989 840 33 2500 300/12G20 RMK AO2 T02720100
13873KAHN AHN20160507161010905/07/16 16:10:31  5-MIN KAHN 072110Z 28009G17KT 10SM CLR 27/11 A2989 840 34 2500 280/09G17 RMK AO2 T02720106
13873KAHN AHN20160507161510305/07/16 16:15:31  5-MIN KAHN 072115Z 27008KT 10SM CLR 27/11 A2989 840 34 2500 280/08 RMK AO2 T02720106
13873KAHN AHN20160507162010905/07/16 16:20:31  5-MIN KAHN 072120Z 28010G20KT 10SM CLR 27/11 A2989 840 36 2400 290/10G20 RMK AO2 T02670106
13873KAHN AHN20160507162510905/07/16 16:25:31  5-MIN KAHN 072125Z 29009G20KT 10SM CLR 27/11 A2989 830 36 2400 290/09G20 RMK AO2 T02670106
13873KAHN AHN20160507163012505/07/16 16:30:31  5-MIN KAHN 072130Z 27010G18KT 240V300 10SM CLR 27/10 A2989 840 34 2400 270/10G18 250V310 RMK AO2 T02670100
13873KAHN AHN20160507163510905/07/16 16:35:31  5-MIN KAHN 072135Z 28011G19KT 10SM CLR 27/11 A2989 840 34 2500 280/11G19 RMK AO2 T02720106
13873KAHN AHN20160507164010905/07/16 16:40:31  5-MIN KAHN 072140Z 28010G19KT 10SM CLR 27/10 A2989 840 34 2400 290/10G19 RMK AO2 T02670100
13873KAHN AHN20160507164511605/07/16 16:45:31  5-MIN KAHN 072145Z 27006G18KT 10SM CLR 27/11 A2989 830 34 2500 280/06G18 RMK AO2 SLP119 T02720106
13873KAHN AHN20160507165011605/07/16 16:50:31  5-MIN KAHN 072150Z 29010G17KT 10SM CLR 27/11 A2989 840 34 2500 300/10G17 RMK AO2 SLP119 T02720106
13873KAHN AHN20160507165512505/07/16 16:55:31  5-MIN KAHN 072155Z 28008G17KT 240V300 10SM CLR 27/10 A2989 840 34 2400 280/08G17 250V310 RMK AO2 T02670100
13873KAHN AHN20160507170010905/07/16 17:00:31  5-MIN KAHN 072200Z 28009G17KT 10SM CLR 27/10 A2989 840 34 2400 280/09G17 RMK AO2 T02670100
13873KAHN AHN20160507170510905/07/16 17:05:31  5-MIN KAHN 072205Z 28012G18KT 10SM CLR 27/10 A2989 840 34 2400 280/12G18 RMK AO2 T02670100
13873KAHN AHN20160507171010905/07/16 17:10:31  5-MIN KAHN 072210Z 28008G18KT 10SM CLR 27/10 A2989 840 34 2400 280/08G18 RMK AO2 T02670100
13873KAHN AHN20160507171510905/07/16 17:15:31  5-MIN KAHN 072215Z 29011G17KT 10SM CLR 27/10 A2988 840 34 2400 290/11G17 RMK AO2 T02670100
13873KAHN AHN20160507172012505/07/16 17:20:31  5-MIN KAHN 072220Z 28008G18KT 230V300 10SM CLR 27/10 A2988 840 34 2400 290/08G18 240V310 RMK AO2 T02670100
13873KAHN AHN20160507172510905/07/16 17:25:31  5-MIN KAHN 072225Z 27012G22KT 10SM CLR 27/10 A2989 840 34 2400 280/12G22 RMK AO2 T02670100
13873KAHN AHN20160507173012505/07/16 17:30:31  5-MIN KAHN 072230Z 28008G22KT 240V310 10SM CLR 26/10 A2988 840 36 2400 280/08G22 250V320 RMK AO2 T02610100
13873KAHN AHN20160507173512505/07/16 17:35:31  5-MIN KAHN 072235Z 28009G16KT 240V300 10SM CLR 26/10 A2988 840 36 2400 290/09G16 250V310 RMK AO2 T02610100
13873KAHN AHN20160507174012505/07/16 17:40:31  5-MIN KAHN 072240Z 27007G15KT 240V310 10SM CLR 26/10 A2989 840 36 2400 280/07G15 250V320 RMK AO2 T02610100
13873KAHN AHN20160507174511605/07/16 17:45:31  5-MIN KAHN 072245Z 28011G17KT 10SM CLR 26/10 A2989 840 36 2400 280/11G17 RMK AO2 SLP117 T02610100
13873KAHN AHN20160507175013205/07/16 17:50:31  5-MIN KAHN 072250Z 28010G17KT 240V310 10SM CLR 26/10 A2988 840 36 2400 280/10G17 250V320 RMK AO2 SLP116 T02610100
13873KAHN AHN20160507175512505/07/16 17:55:31  5-MIN KAHN 072255Z 27009G15KT 230V290 10SM CLR 26/10 A2988 840 36 2400 270/09G15 240V300 RMK AO2 T02610100
13873KAHN AHN20160507180010905/07/16 18:00:31  5-MIN KAHN 072300Z 28007G15KT 10SM CLR 26/11 A2988 840 37 2400 280/07G15 RMK AO2 T02610106
13873KAHN AHN20160507180510905/07/16 18:05:31  5-MIN KAHN 072305Z 27007G15KT 10SM CLR 26/10 A2988 850 36 2400 280/07G15 RMK AO2 T02610100
13873KAHN AHN20160507181010905/07/16 18:10:31  5-MIN KAHN 072310Z VRB06G15KT 10SM CLR 26/10 A2988 840 37 2300 VRB/06G15 RMK AO2 T02560100
13873KAHN AHN20160507181510905/07/16 18:15:31  5-MIN KAHN 072315Z 28009G15KT 10SM CLR 26/10 A2988 850 37 2300 290/09G15 RMK AO2 T02560100
13873KAHN AHN20160507182010905/07/16 18:20:31  5-MIN KAHN 072320Z 28008G15KT 10SM CLR 26/10 A2988 840 37 2300 290/08G15 RMK AO2 T02560100
13873KAHN AHN20160507182510305/07/16 18:25:31  5-MIN KAHN 072325Z 27008KT 10SM CLR 26/10 A2988 850 37 2300 270/08 RMK AO2 T02560100
13873KAHN AHN20160507183011905/07/16 18:30:31  5-MIN KAHN 072330Z 27007KT 230V300 10SM CLR 25/10 A2988 840 38 2200 280/07 240V310 RMK AO2 T02500100
13873KAHN AHN20160507183510305/07/16 18:35:31  5-MIN KAHN 072335Z VRB05KT 10SM CLR 25/10 A2989 840 38 2200 VRB/05 RMK AO2 T02500100
13873KAHN AHN20160507184010305/07/16 18:40:31  5-MIN KAHN 072340Z 27006KT 10SM CLR 25/11 A2989 840 39 2200 270/06 RMK AO2 T02500106
13873KAHN AHN20160507184512805/07/16 18:45:31  5-MIN KAHN 072345Z 26007KT 10SM CLR 24/11 A2989 840 41 2200 270/07 RMK AO2 SLP117 T02440106 10278 20244 56021
13873KAHN AHN20160507185012805/07/16 18:50:31  5-MIN KAHN 072350Z VRB06KT 10SM CLR 24/11 A2988 840 41 2200 VRB/06 RMK AO2 SLP116 T02440106 10278 20244 56021
13873KAHN AHN20160507185510305/07/16 18:55:31  5-MIN KAHN 072355Z VRB06KT 10SM CLR 24/11 A2989 840 41 2200 VRB/06 RMK AO2 T02440106
13873KAHN AHN20160507190010305/07/16 19:00:31  5-MIN KAHN 080000Z 25005KT 10SM CLR 24/11 A2988 840 42 2100 260/05 RMK AO2 T02390106
13873KAHN AHN20160507190510805/07/16 19:05:31  5-MIN KAHN 080005Z AUTO VRB05KT 10SM CLR 24/11 A2988 840 42 2100 VRB/05 RMK AO2 T02390106
13873KAHN AHN20160507191010805/07/16 19:10:31  5-MIN KAHN 080010Z AUTO 24005KT 10SM CLR 24/11 A2989 840 42 2100 250/05 RMK AO2 T02390106
13873KAHN AHN20160507191510805/07/16 19:15:31  5-MIN KAHN 080015Z AUTO 25005KT 10SM CLR 23/11 A2989 840 44 2000 250/05 RMK AO2 T02330106
13873KAHN AHN20160507192010805/07/16 19:20:31  5-MIN KAHN 080020Z AUTO 24004KT 10SM CLR 23/11 A2989 840 44 2000 240/04 RMK AO2 T02330106
13873KAHN AHN20160507192510805/07/16 19:25:31  5-MIN KAHN 080025Z AUTO 24004KT 10SM CLR 23/11 A2989 840 44 2000 240/04 RMK AO2 T02330106
13873KAHN AHN20160507193010805/07/16 19:30:31  5-MIN KAHN 080030Z AUTO 24004KT 10SM CLR 23/11 A2989 840 45 2000 240/04 RMK AO2 T02280106
13873KAHN AHN20160507193510805/07/16 19:35:31  5-MIN KAHN 080035Z AUTO 24004KT 10SM CLR 22/11 A2989 840 47 1900 240/04 RMK AO2 T02220106
13873KAHN AHN20160507194010805/07/16 19:40:31  5-MIN KAHN 080040Z AUTO 24003KT 10SM CLR 22/11 A2989 840 49 1900 250/03 RMK AO2 T02220111
13873KAHN AHN20160507194511505/07/16 19:45:31  5-MIN KAHN 080045Z AUTO 25003KT 10SM CLR 22/11 A2989 840 50 1800 250/03 RMK AO2 SLP119 T02170111
13873KAHN AHN20160507195011505/07/16 19:50:31  5-MIN KAHN 080050Z AUTO 24004KT 10SM CLR 22/11 A2989 840 50 1800 240/04 RMK AO2 SLP119 T02170111
13873KAHN AHN20160507195510805/07/16 19:55:31  5-MIN KAHN 080055Z AUTO 24003KT 10SM CLR 22/11 A2989 830 50 1800 250/03 RMK AO2 T02170111
13873KAHN AHN20160507200010805/07/16 20:00:31  5-MIN KAHN 080100Z AUTO 24004KT 10SM CLR 22/11 A2990 830 50 1800 250/04 RMK AO2 T02170111
13873KAHN AHN20160507200510805/07/16 20:05:31  5-MIN KAHN 080105Z AUTO 25003KT 10SM CLR 21/11 A2990 830 52 1800 250/03 RMK AO2 T02110111
13873KAHN AHN20160507201010805/07/16 20:10:31  5-MIN KAHN 080110Z AUTO 23004KT 10SM CLR 21/11 A2990 830 52 1800 240/04 RMK AO2 T02110111
13873KAHN AHN20160507201510805/07/16 20:15:31  5-MIN KAHN 080115Z AUTO 24004KT 10SM CLR 21/11 A2990 830 52 1800 240/04 RMK AO2 T02110111
13873KAHN AHN20160507202010805/07/16 20:20:31  5-MIN KAHN 080120Z AUTO 24004KT 10SM CLR 21/11 A2990 830 52 1800 240/04 RMK AO2 T02110111
13873KAHN AHN20160507202510805/07/16 20:25:31  5-MIN KAHN 080125Z AUTO 23004KT 10SM CLR 21/11 A2991 820 54 1700 240/04 RMK AO2 T02060111
13873KAHN AHN20160507203010805/07/16 20:30:31  5-MIN KAHN 080130Z AUTO 23003KT 10SM CLR 21/11 A2991 820 54 1700 230/03 RMK AO2 T02060111
13873KAHN AHN20160507203510805/07/16 20:35:31  5-MIN KAHN 080135Z AUTO 22003KT 10SM CLR 21/11 A2991 820 54 1700 230/03 RMK AO2 T02060111
13873KAHN AHN20160507204010805/07/16 20:40:31  5-MIN KAHN 080140Z AUTO 24004KT 10SM CLR 21/11 A2991 820 54 1700 240/04 RMK AO2 T02060111
13873KAHN AHN20160507204511505/07/16 20:45:31  5-MIN KAHN 080145Z AUTO 24004KT 10SM CLR 21/11 A2991 820 54 1700 250/04 RMK AO2 SLP125 T02060111
13873KAHN AHN20160507205011505/07/16 20:50:31  5-MIN KAHN 080150Z AUTO 24006KT 10SM CLR 21/11 A2992 810 54 1700 240/06 RMK AO2 SLP126 T02060111
13873KAHN AHN20160507205510805/07/16 20:55:31  5-MIN KAHN 080155Z AUTO 25004KT 10SM CLR 21/11 A2992 810 54 1700 250/04 RMK AO2 T02060111
13873KAHN AHN20160507210010805/07/16 21:00:31  5-MIN KAHN 080200Z AUTO 25004KT 10SM CLR 21/11 A2992 810 52 1700 260/04 RMK AO2 T02060106
13873KAHN AHN20160507210510805/07/16 21:05:31  5-MIN KAHN 080205Z AUTO 25004KT 10SM CLR 21/11 A2993 800 52 1700 250/04 RMK AO2 T02060106
13873KAHN AHN20160507211010805/07/16 21:10:31  5-MIN KAHN 080210Z AUTO 25004KT 10SM CLR 21/11 A2993 800 52 1700 250/04 RMK AO2 T02060106
13873KAHN AHN20160507211510805/07/16 21:15:31  5-MIN KAHN 080215Z AUTO 24004KT 10SM CLR 20/11 A2993 800 54 1600 250/04 RMK AO2 T02000106
13873KAHN AHN20160507212010805/07/16 21:20:31  5-MIN KAHN 080220Z AUTO 25003KT 10SM CLR 20/11 A2993 800 54 1600 250/03 RMK AO2 T02000106
13873KAHN AHN20160507212510805/07/16 21:25:31  5-MIN KAHN 080225Z AUTO 24004KT 10SM CLR 20/11 A2994 800 56 1600 250/04 RMK AO2 T02000111
13873KAHN AHN20160507213010805/07/16 21:30:31  5-MIN KAHN 080230Z AUTO 24004KT 10SM CLR 20/11 A2994 790 56 1600 250/04 RMK AO2 T02000111
13873KAHN AHN20160507213510805/07/16 21:35:31  5-MIN KAHN 080235Z AUTO 24004KT 10SM CLR 20/11 A2994 790 56 1600 240/04 RMK AO2 T02000111
13873KAHN AHN20160507214010805/07/16 21:40:31  5-MIN KAHN 080240Z AUTO 24003KT 10SM CLR 19/11 A2994 790 58 1500 240/03 RMK AO2 T01940111
13873KAHN AHN20160507214512105/07/16 21:45:31  5-MIN KAHN 080245Z AUTO 23004KT 10SM CLR 19/11 A2994 790 58 1500 240/04 RMK AO2 SLP133 T01940111 57002
13873KAHN AHN20160507215012105/07/16 21:50:31  5-MIN KAHN 080250Z AUTO 24004KT 10SM CLR 19/11 A2994 790 60 1500 240/04 RMK AO2 SLP135 T01890111 57002
13873KAHN AHN20160507215510805/07/16 21:55:31  5-MIN KAHN 080255Z AUTO 24003KT 10SM CLR 19/11 A2995 790 58 1500 240/03 RMK AO2 T01940111
13873KAHN AHN20160507220010805/07/16 22:00:31  5-MIN KAHN 080300Z AUTO 24003KT 10SM CLR 19/11 A2995 790 58 1500 250/03 RMK AO2 T01940111
13873KAHN AHN20160507220510805/07/16 22:05:31  5-MIN KAHN 080305Z AUTO 24003KT 10SM CLR 19/11 A2994 790 60 1500 240/03 RMK AO2 T01890111
13873KAHN AHN20160507221010805/07/16 22:10:31  5-MIN KAHN 080310Z AUTO 24003KT 10SM CLR 19/11 A2994 790 60 1500 240/03 RMK AO2 T01890111
13873KAHN AHN20160507221510805/07/16 22:15:31  5-MIN KAHN 080315Z AUTO 24003KT 10SM CLR 19/11 A2994 790 60 1500 250/03 RMK AO2 T01890111
13873KAHN AHN20160507222010805/07/16 22:20:31  5-MIN KAHN 080320Z AUTO 24004KT 10SM CLR 19/11 A2994 790 60 1500 250/04 RMK AO2 T01890111
13873KAHN AHN20160507222510805/07/16 22:25:31  5-MIN KAHN 080325Z AUTO 24003KT 10SM CLR 19/11 A2994 790 60 1500 250/03 RMK AO2 T01890111
13873KAHN AHN20160507223010805/07/16 22:30:31  5-MIN KAHN 080330Z AUTO 24003KT 10SM CLR 19/11 A2994 790 60 1500 250/03 RMK AO2 T01890111
13873KAHN AHN20160507223510805/07/16 22:35:31  5-MIN KAHN 080335Z AUTO 24004KT 10SM CLR 18/11 A2994 790 62 1400 250/04 RMK AO2 T01830111
13873KAHN AHN20160507224010805/07/16 22:40:31  5-MIN KAHN 080340Z AUTO 25004KT 10SM CLR 18/11 A2994 790 62 1400 250/04 RMK AO2 T01830111
13873KAHN AHN20160507224511505/07/16 22:45:31  5-MIN KAHN 080345Z AUTO 25004KT 10SM CLR 18/11 A2994 790 62 1400 260/04 RMK AO2 SLP133 T01830111
13873KAHN AHN20160507225011505/07/16 22:50:31  5-MIN KAHN 080350Z AUTO 25004KT 10SM CLR 18/11 A2994 790 62 1400 260/04 RMK AO2 SLP134 T01830111
13873KAHN AHN20160507225510805/07/16 22:55:31  5-MIN KAHN 080355Z AUTO 25004KT 10SM CLR 18/11 A2994 790 62 1400 250/04 RMK AO2 T01830111
13873KAHN AHN20160507230010805/07/16 23:00:31  5-MIN KAHN 080400Z AUTO 25005KT 10SM CLR 18/11 A2994 790 62 1400 260/05 RMK AO2 T01830111
13873KAHN AHN20160507230510805/07/16 23:05:31  5-MIN KAHN 080405Z AUTO 26006KT 10SM CLR 18/11 A2994 790 62 1400 260/06 RMK AO2 T01830111
13873KAHN AHN20160507231010805/07/16 23:10:31  5-MIN KAHN 080410Z AUTO 26004KT 10SM CLR 19/11 A2994 790 60 1500 270/04 RMK AO2 T01890111
13873KAHN AHN20160507231510805/07/16 23:15:31  5-MIN KAHN 080415Z AUTO 26005KT 10SM CLR 19/11 A2994 790 60 1500 260/05 RMK AO2 T01890111
13873KAHN AHN20160507232010805/07/16 23:20:31  5-MIN KAHN 080420Z AUTO 26004KT 10SM CLR 19/11 A2994 790 60 1500 270/04 RMK AO2 T01890111
13873KAHN AHN20160507232510805/07/16 23:25:31  5-MIN KAHN 080425Z AUTO 26005KT 10SM CLR 18/11 A2994 790 62 1400 270/05 RMK AO2 T01830111
13873KAHN AHN20160507233010805/07/16 23:30:31  5-MIN KAHN 080430Z AUTO 26005KT 10SM CLR 18/11 A2994 790 62 1400 260/05 RMK AO2 T01830111
13873KAHN AHN20160507233510805/07/16 23:35:31  5-MIN KAHN 080435Z AUTO 25006KT 10SM CLR 18/11 A2994 790 62 1400 260/06 RMK AO2 T01830111
13873KAHN AHN20160507234010805/07/16 23:40:31  5-MIN KAHN 080440Z AUTO 26005KT 10SM CLR 18/12 A2995 790 65 1400 260/05 RMK AO2 T01830117
13873KAHN AHN20160507234512505/07/16 23:45:31  5-MIN KAHN 080445Z AUTO 26005KT 10SM CLR 18/12 A2995 780 65 1400 270/05 RMK AO2 SLP136 T01830117 402780083
13873KAHN AHN20160507235012505/07/16 23:50:31  5-MIN KAHN 080450Z AUTO 26005KT 10SM CLR 18/12 A2995 780 65 1400 260/05 RMK AO2 SLP137 T01830117 402780083
13873KAHN AHN20160507235510805/07/16 23:55:31  5-MIN KAHN 080455Z AUTO 27005KT 10SM CLR 18/12 A2995 780 65 1400 270/05 RMK AO2 T01830117
13873KAHN AHN20160508000010805/08/16 00:00:31  5-MIN KAHN 080500Z AUTO 26005KT 10SM CLR 18/12 A2995 780 65 1400 260/05 RMK AO2 T01830117
13873KAHN AHN20160508000510805/08/16 00:05:31  5-MIN KAHN 080505Z AUTO 26006KT 10SM CLR 18/12 A2995 780 65 1400 270/06 RMK AO2 T01830117
13873KAHN AHN20160508001010805/08/16 00:10:31  5-MIN KAHN 080510Z AUTO 26005KT 10SM CLR 19/12 A2995 780 62 1500 260/05 RMK AO2 T01890117
13873KAHN AHN20160508001510805/08/16 00:15:31  5-MIN KAHN 080515Z AUTO 26006KT 10SM CLR 18/12 A2995 780 65 1400 270/06 RMK AO2 T01830117
13873KAHN AHN20160508002010805/08/16 00:20:31  5-MIN KAHN 080520Z AUTO 26006KT 10SM CLR 19/12 A2995 780 62 1500 270/06 RMK AO2 T01890117
13873KAHN AHN20160508002510805/08/16 00:25:31  5-MIN KAHN 080525Z AUTO 26005KT 10SM CLR 19/12 A2995 780 62 1500 270/05 RMK AO2 T01890117
13873KAHN AHN20160508003010805/08/16 00:30:31  5-MIN KAHN 080530Z AUTO 27005KT 10SM CLR 18/12 A2995 780 65 1400 270/05 RMK AO2 T01830117
13873KAHN AHN20160508003510805/08/16 00:35:31  5-MIN KAHN 080535Z AUTO 26005KT 10SM CLR 18/12 A2995 780 65 1400 260/05 RMK AO2 T01830117
13873KAHN AHN20160508004010805/08/16 00:40:31  5-MIN KAHN 080540Z AUTO 26005KT 10SM CLR 18/12 A2995 780 65 1400 270/05 RMK AO2 T01830117
13873KAHN AHN20160508004513305/08/16 00:45:31  5-MIN KAHN 080545Z AUTO VRB04KT 10SM CLR 18/12 A2995 780 65 1400 VRB/04 RMK AO2 SLP137 T01830117 10244 20183 53019
13873KAHN AHN20160508005013305/08/16 00:50:31  5-MIN KAHN 080550Z AUTO 26005KT 10SM CLR 18/12 A2995 780 65 1400 260/05 RMK AO2 SLP136 T01830117 10244 20183 53019
13873KAHN AHN20160508005510805/08/16 00:55:31  5-MIN KAHN 080555Z AUTO 26004KT 10SM CLR 18/12 A2995 780 65 1400 260/04 RMK AO2 T01830117
13873KAHN AHN20160508010010805/08/16 01:00:31  5-MIN KAHN 080600Z AUTO 25004KT 10SM CLR 18/12 A2995 780 65 1400 260/04 RMK AO2 T01830117
13873KAHN AHN20160508010510805/08/16 01:05:31  5-MIN KAHN 080605Z AUTO 26005KT 10SM CLR 18/12 A2995 780 67 1300 260/05 RMK AO2 T01780117
13873KAHN AHN20160508011010805/08/16 01:10:31  5-MIN KAHN 080610Z AUTO 24004KT 10SM CLR 18/12 A2995 780 67 1300 240/04 RMK AO2 T01780117
13873KAHN AHN20160508011510805/08/16 01:15:31  5-MIN KAHN 080615Z AUTO 23003KT 10SM CLR 17/12 A2995 780 69 1300 240/03 RMK AO2 T01720117
13873KAHN AHN20160508012010805/08/16 01:20:31  5-MIN KAHN 080620Z AUTO 24004KT 10SM CLR 17/12 A2995 790 69 1300 240/04 RMK AO2 T01720117
13873KAHN AHN20160508012510805/08/16 01:25:31  5-MIN KAHN 080625Z AUTO 23003KT 10SM CLR 17/12 A2995 790 69 1300 240/03 RMK AO2 T01720117
13873KAHN AHN20160508013010805/08/16 01:30:31  5-MIN KAHN 080630Z AUTO 24003KT 10SM CLR 17/12 A2995 790 72 1200 250/03 RMK AO2 T01670117
13873KAHN AHN20160508013510805/08/16 01:35:31  5-MIN KAHN 080635Z AUTO 25003KT 10SM CLR 17/12 A2995 790 72 1200 250/03 RMK AO2 T01670117
13873KAHN AHN20160508014010805/08/16 01:40:31  5-MIN KAHN 080640Z AUTO 25003KT 10SM CLR 17/12 A2995 790 72 1200 260/03 RMK AO2 T01670117
13873KAHN AHN20160508014511505/08/16 01:45:31  5-MIN KAHN 080645Z AUTO 26004KT 10SM CLR 17/12 A2995 780 69 1300 260/04 RMK AO2 SLP135 T01720117
13873KAHN AHN20160508015011505/08/16 01:50:31  5-MIN KAHN 080650Z AUTO 26004KT 10SM CLR 17/12 A2995 780 72 1200 270/04 RMK AO2 SLP136 T01670117
13873KAHN AHN20160508015510805/08/16 01:55:31  5-MIN KAHN 080655Z AUTO 26004KT 10SM CLR 17/12 A2995 790 72 1200 270/04 RMK AO2 T01670117
13873KAHN AHN20160508020010805/08/16 02:00:31  5-MIN KAHN 080700Z AUTO 26003KT 10SM CLR 17/12 A2995 790 72 1200 260/03 RMK AO2 T01670117
13873KAHN AHN20160508020510805/08/16 02:05:31  5-MIN KAHN 080705Z AUTO 25004KT 10SM CLR 18/12 A2994 790 67 1300 260/04 RMK AO2 T01780117
13873KAHN AHN20160508021010805/08/16 02:10:31  5-MIN KAHN 080710Z AUTO 25005KT 10SM CLR 17/12 A2994 790 72 1200 260/05 RMK AO2 T01670117
13873KAHN AHN20160508021510805/08/16 02:15:31  5-MIN KAHN 080715Z AUTO 25003KT 10SM CLR 17/12 A2994 790 72 1200 250/03 RMK AO2 T01670117
13873KAHN AHN20160508022010805/08/16 02:20:31  5-MIN KAHN 080720Z AUTO 24004KT 10SM CLR 16/12 A2994 790 75 1100 250/04 RMK AO2 T01610117
13873KAHN AHN20160508022510805/08/16 02:25:31  5-MIN KAHN 080725Z AUTO 25004KT 10SM CLR 16/12 A2994 790 75 1100 250/04 RMK AO2 T01610117
13873KAHN AHN20160508023010805/08/16 02:30:31  5-MIN KAHN 080730Z AUTO 24004KT 10SM CLR 16/12 A2994 790 75 1100 250/04 RMK AO2 T01610117
13873KAHN AHN20160508023510805/08/16 02:35:31  5-MIN KAHN 080735Z AUTO 24004KT 10SM CLR 16/12 A2994 790 75 1100 250/04 RMK AO2 T01610117
13873KAHN AHN20160508024010805/08/16 02:40:31  5-MIN KAHN 080740Z AUTO 24004KT 10SM CLR 16/12 A2994 800 75 1200 250/04 RMK AO2 T01610117
13873KAHN AHN20160508024511505/08/16 02:45:31  5-MIN KAHN 080745Z AUTO 25004KT 10SM CLR 16/12 A2994 790 75 1200 250/04 RMK AO2 SLP132 T01610117
13873KAHN AHN20160508025011505/08/16 02:50:31  5-MIN KAHN 080750Z AUTO VRB04KT 10SM CLR 16/12 A2994 800 75 1200 VRB/04 RMK AO2 SLP132 T01610117
13873KAHN AHN20160508025510805/08/16 02:55:31  5-MIN KAHN 080755Z AUTO 24005KT 10SM CLR 16/12 A2994 800 75 1200 250/05 RMK AO2 T01610117
13873KAHN AHN20160508030010805/08/16 03:00:31  5-MIN KAHN 080800Z AUTO 25004KT 10SM CLR 16/12 A2994 800 75 1200 250/04 RMK AO2 T01610117
13873KAHN AHN20160508030510805/08/16 03:05:31  5-MIN KAHN 080805Z AUTO 24004KT 10SM CLR 16/12 A2994 790 75 1100 250/04 RMK AO2 T01610117
13873KAHN AHN20160508031010805/08/16 03:10:31  5-MIN KAHN 080810Z AUTO 24005KT 10SM CLR 16/12 A2994 790 75 1100 250/05 RMK AO2 T01610117
13873KAHN AHN20160508031510805/08/16 03:15:31  5-MIN KAHN 080815Z AUTO 24004KT 10SM CLR 16/12 A2994 790 75 1100 240/04 RMK AO2 T01610117
13873KAHN AHN20160508032010805/08/16 03:20:31  5-MIN KAHN 080820Z AUTO 24003KT 10SM CLR 16/12 A2994 790 75 1100 250/03 RMK AO2 T01610117
13873KAHN AHN20160508032510805/08/16 03:25:31  5-MIN KAHN 080825Z AUTO 26004KT 10SM CLR 16/12 A2994 790 75 1100 260/04 RMK AO2 T01610117
13873KAHN AHN20160508033010805/08/16 03:30:31  5-MIN KAHN 080830Z AUTO 26004KT 10SM CLR 16/12 A2994 790 75 1100 260/04 RMK AO2 T01610117
13873KAHN AHN20160508033510805/08/16 03:35:31  5-MIN KAHN 080835Z AUTO 25005KT 10SM CLR 16/12 A2994 790 75 1100 250/05 RMK AO2 T01610117
13873KAHN AHN20160508034010805/08/16 03:40:31  5-MIN KAHN 080840Z AUTO 25005KT 10SM CLR 16/12 A2994 790 75 1100 250/05 RMK AO2 T01610117
13873KAHN AHN20160508034512105/08/16 03:45:31  5-MIN KAHN 080845Z AUTO 25004KT 10SM CLR 16/12 A2995 780 75 1100 260/04 RMK AO2 SLP136 T01610117 53002
13873KAHN AHN20160508035012105/08/16 03:50:31  5-MIN KAHN 080850Z AUTO 25004KT 10SM CLR 16/12 A2995 790 75 1100 250/04 RMK AO2 SLP136 T01610117 53002
13873KAHN AHN20160508035510805/08/16 03:55:31  5-MIN KAHN 080855Z AUTO 24004KT 10SM CLR 16/12 A2995 780 75 1100 240/04 RMK AO2 T01610117
13873KAHN AHN20160508040010805/08/16 04:00:31  5-MIN KAHN 080900Z AUTO 24004KT 10SM CLR 16/12 A2995 780 77 1100 240/04 RMK AO2 T01560117
13873KAHN AHN20160508040510805/08/16 04:05:31  5-MIN KAHN 080905Z AUTO 26004KT 10SM CLR 16/12 A2995 780 77 1100 260/04 RMK AO2 T01560117
13873KAHN AHN20160508041010805/08/16 04:10:31  5-MIN KAHN 080910Z AUTO 26003KT 10SM CLR 16/12 A2995 780 77 1100 270/03 RMK AO2 T01560117
13873KAHN AHN20160508041510805/08/16 04:15:31  5-MIN KAHN 080915Z AUTO 25004KT 10SM CLR 16/12 A2995 780 77 1100 260/04 RMK AO2 T01560117
13873KAHN AHN20160508042010805/08/16 04:20:31  5-MIN KAHN 080920Z AUTO 25004KT 10SM CLR 16/12 A2995 780 77 1100 260/04 RMK AO2 T01560117
13873KAHN AHN20160508042510805/08/16 04:25:31  5-MIN KAHN 080925Z AUTO 25005KT 10SM CLR 16/12 A2995 780 77 1100 250/05 RMK AO2 T01560117
13873KAHN AHN20160508043010805/08/16 04:30:31  5-MIN KAHN 080930Z AUTO 26004KT 10SM CLR 16/12 A2995 780 77 1100 260/04 RMK AO2 T01560117
13873KAHN AHN20160508043510805/08/16 04:35:31  5-MIN KAHN 080935Z AUTO 27004KT 10SM CLR 16/12 A2996 780 77 1100 270/04 RMK AO2 T01560117
13873KAHN AHN20160508044010805/08/16 04:40:31  5-MIN KAHN 080940Z AUTO 26004KT 10SM CLR 16/12 A2996 780 77 1100 270/04 RMK AO2 T01560117
13873KAHN AHN20160508044511505/08/16 04:45:31  5-MIN KAHN 080945Z AUTO 26004KT 10SM CLR 16/12 A2996 780 77 1100 260/04 RMK AO2 SLP139 T01560117
13873KAHN AHN20160508045011505/08/16 04:50:31  5-MIN KAHN 080950Z AUTO 26004KT 10SM CLR 16/12 A2996 780 77 1100 270/04 RMK AO2 SLP139 T01560117
13873KAHN AHN20160508045510805/08/16 04:55:31  5-MIN KAHN 080955Z AUTO 25004KT 10SM CLR 16/12 A2996 770 77 1100 260/04 RMK AO2 T01560117
13873KAHN AHN20160508050010805/08/16 05:00:31  5-MIN KAHN 081000Z AUTO 25004KT 10SM CLR 15/12 A2996 770 80 1000 250/04 RMK AO2 T01500117
13873KAHN AHN20160508050510805/08/16 05:05:31  5-MIN KAHN 081005Z AUTO 25004KT 10SM CLR 15/12 A2997 770 80 1000 260/04 RMK AO2 T01500117
13873KAHN AHN20160508051010805/08/16 05:10:31  5-MIN KAHN 081010Z AUTO 26004KT 10SM CLR 16/12 A2997 770 77 1000 260/04 RMK AO2 T01560117
13873KAHN AHN20160508051510805/08/16 05:15:31  5-MIN KAHN 081015Z AUTO 25004KT 10SM CLR 15/12 A2997 770 80 1000 250/04 RMK AO2 T01500117
13873KAHN AHN20160508052010805/08/16 05:20:31  5-MIN KAHN 081020Z AUTO 25004KT 10SM CLR 15/12 A2997 770 80 1000 250/04 RMK AO2 T01500117
13873KAHN AHN20160508052510805/08/16 05:25:31  5-MIN KAHN 081025Z AUTO 25003KT 10SM CLR 15/12 A2997 760 80 1000 260/03 RMK AO2 T01500117
13873KAHN AHN20160508053010805/08/16 05:30:31  5-MIN KAHN 081030Z AUTO 25004KT 10SM CLR 15/12 A2997 760 80 1000 250/04 RMK AO2 T01500117
13873KAHN AHN20160508053510705/08/16 05:35:31  5-MIN KAHN 081035Z AUTO 24004KT 10SM CLR 14/12 A2997 760 83 900 250/04 RMK AO2 T01440117
13873KAHN AHN20160508054010805/08/16 05:40:31  5-MIN KAHN 081040Z AUTO 24003KT 10SM CLR 15/12 A2997 760 80 1000 250/03 RMK AO2 T01500117
13873KAHN AHN20160508054511505/08/16 05:45:31  5-MIN KAHN 081045Z AUTO 25003KT 10SM CLR 15/12 A2997 760 80 1000 250/03 RMK AO2 SLP144 T01500117
13873KAHN AHN20160508055011405/08/16 05:50:31  5-MIN KAHN 081050Z AUTO 24004KT 10SM CLR 14/12 A2997 760 83 900 250/04 RMK AO2 SLP144 T01440117
13873KAHN AHN20160508055510705/08/16 05:55:31  5-MIN KAHN 081055Z AUTO 25003KT 10SM CLR 14/12 A2997 760 83 900 260/03 RMK AO2 T01440117
13873KAHN AHN20160508060010705/08/16 06:00:31  5-MIN KAHN 081100Z AUTO 26003KT 10SM CLR 14/12 A2998 760 83 900 260/03 RMK AO2 T01440117
13873KAHN AHN20160508060510805/08/16 06:05:31  5-MIN KAHN 081105Z AUTO 00000KT 10SM CLR 15/12 A2998 760 80 1000 000/00 RMK AO2 T01500117
13873KAHN AHN20160508061010805/08/16 06:10:31  5-MIN KAHN 081110Z AUTO 25003KT 10SM CLR 15/12 A2998 750 80 1000 260/03 RMK AO2 T01500117
13873KAHN AHN20160508061510805/08/16 06:15:31  5-MIN KAHN 081115Z AUTO VRB03KT 10SM CLR 15/12 A2998 750 80 1000 VRB/03 RMK AO2 T01500117
13873KAHN AHN20160508062010805/08/16 06:20:31  5-MIN KAHN 081120Z AUTO 25003KT 10SM CLR 16/12 A2999 750 77 1000 260/03 RMK AO2 T01560117
13873KAHN AHN20160508062510805/08/16 06:25:31  5-MIN KAHN 081125Z AUTO 25003KT 10SM CLR 16/12 A2999 750 77 1000 260/03 RMK AO2 T01560117
13873KAHN AHN20160508063010805/08/16 06:30:31  5-MIN KAHN 081130Z AUTO 24003KT 10SM CLR 16/12 A2999 750 80 1000 250/03 RMK AO2 T01560122
13873KAHN AHN20160508063510305/08/16 06:35:31  5-MIN KAHN 081135Z VRB03KT 10SM CLR 16/12 A2999 750 77 1100 VRB/03 RMK AO2 T01610122
13873KAHN AHN20160508064010305/08/16 06:40:31  5-MIN KAHN 081140Z 26004KT 10SM CLR 16/12 A2999 750 77 1100 270/04 RMK AO2 T01610122
13873KAHN AHN20160508064512805/08/16 06:45:31  5-MIN KAHN 081145Z 00000KT 10SM CLR 17/12 A2999 750 75 1200 000/00 RMK AO2 SLP149 T01670122 10183 20144 55001
13873KAHN AHN20160508065012805/08/16 06:50:31  5-MIN KAHN 081150Z 27003KT 10SM CLR 17/12 A2999 750 75 1200 280/03 RMK AO2 SLP149 T01670122 10183 20144 55001
13873KAHN AHN20160508065510305/08/16 06:55:31  5-MIN KAHN 081155Z 27003KT 10SM CLR 17/13 A2999 750 75 1200 280/03 RMK AO2 T01720128
13873KAHN AHN20160508070010305/08/16 07:00:31  5-MIN KAHN 081200Z 27003KT 10SM CLR 18/13 A2999 750 72 1300 280/03 RMK AO2 T01780128
13873KAHN AHN20160508070510305/08/16 07:05:31  5-MIN KAHN 081205Z 28003KT 10SM CLR 18/13 A2999 740 72 1300 290/03 RMK AO2 T01780128
13873KAHN AHN20160508071010305/08/16 07:10:31  5-MIN KAHN 081210Z VRB03KT 10SM CLR 18/13 A2999 740 70 1300 VRB/03 RMK AO2 T01830128
13873KAHN AHN20160508071510305/08/16 07:15:31  5-MIN KAHN 081215Z 29003KT 10SM CLR 18/13 A2999 740 70 1300 290/03 RMK AO2 T01830128
13873KAHN AHN20160508072010305/08/16 07:20:31  5-MIN KAHN 081220Z 00000KT 10SM CLR 19/13 A2999 740 67 1400 000/00 RMK AO2 T01890128
13873KAHN AHN20160508072510305/08/16 07:25:31  5-MIN KAHN 081225Z 00000KT 10SM CLR 19/13 A2999 740 67 1500 000/00 RMK AO2 T01940133
13873KAHN AHN20160508073010305/08/16 07:30:31  5-MIN KAHN 081230Z 27004KT 10SM CLR 19/13 A2999 740 67 1500 270/04 RMK AO2 T01940133
13873KAHN AHN20160508073510305/08/16 07:35:31  5-MIN KAHN 081235Z 27006KT 10SM CLR 19/13 A2999 740 65 1500 270/06 RMK AO2 T01940128
13873KAHN AHN20160508074010305/08/16 07:40:31  5-MIN KAHN 081240Z 27004KT 10SM CLR 19/13 A2999 740 65 1500 280/04 RMK AO2 T01940128
13873KAHN AHN20160508074511005/08/16 07:45:31  5-MIN KAHN 081245Z VRB05KT 10SM CLR 20/13 A2999 740 63 1500 VRB/05 RMK AO2 SLP151 T02000128
13873KAHN AHN20160508075011005/08/16 07:50:31  5-MIN KAHN 081250Z VRB04KT 10SM CLR 21/13 A2999 740 63 1600 VRB/04 RMK AO2 SLP151 T02060133
13873KAHN AHN20160508075509305/08/16 07:55:31  5-MIN KAHN 081255Z 10SM CLR 21/13 A2999 740 60 1600 M /M RMK AO2 T02060128
13873KAHN AHN20160508080010305/08/16 08:00:31  5-MIN KAHN 081300Z VRB04KT 10SM CLR 21/13 A2999 740 61 1700 VRB/04 RMK AO2 T02110133
13873KAHN AHN20160508080510305/08/16 08:05:31  5-MIN KAHN 081305Z VRB04KT 10SM CLR 21/13 A3000 740 61 1700 VRB/04 RMK AO2 T02110133
13873KAHN AHN20160508081010305/08/16 08:10:31  5-MIN KAHN 081310Z 29007KT 10SM CLR 22/13 A3000 740 58 1700 290/07 RMK AO2 T02170133
13873KAHN AHN20160508081510305/08/16 08:15:31  5-MIN KAHN 081315Z VRB05KT 10SM CLR 22/13 A3000 740 56 1800 VRB/05 RMK AO2 T02220133
13873KAHN AHN20160508082010305/08/16 08:20:31  5-MIN KAHN 081320Z 27006KT 10SM CLR 22/13 A3000 740 54 1800 270/06 RMK AO2 T02220128
13873KAHN AHN20160508082510305/08/16 08:25:31  5-MIN KAHN 081325Z 28005KT 10SM CLR 22/13 A3000 740 56 1800 280/05 RMK AO2 T02220133
13873KAHN AHN20160508083010305/08/16 08:30:31  5-MIN KAHN 081330Z 27008KT 10SM CLR 23/13 A3000 740 55 1900 280/08 RMK AO2 T02280133
13873KAHN AHN20160508083510305/08/16 08:35:31  5-MIN KAHN 081335Z 30008KT 10SM CLR 23/13 A3000 740 53 1900 300/08 RMK AO2 T02280128
13873KAHN AHN20160508084011905/08/16 08:40:31  5-MIN KAHN 081340Z 27007KT 240V320 10SM CLR 23/13 A3000 740 51 1900 280/07 250V330 RMK AO2 T02330128
13873KAHN AHN20160508084511005/08/16 08:45:31  5-MIN KAHN 081345Z VRB06KT 10SM CLR 23/13 A3000 740 53 1900 VRB/06 RMK AO2 SLP151 T02330133
13873KAHN AHN20160508085011005/08/16 08:50:31  5-MIN KAHN 081350Z 30008KT 10SM CLR 23/13 A3000 740 51 1900 300/08 RMK AO2 SLP151 T02330128
13873KAHN AHN20160508085510905/08/16 08:55:31  5-MIN KAHN 081355Z 31010G16KT 10SM CLR 24/12 A3000 740 47 2000 310/10G16 RMK AO2 T02390122
13873KAHN AHN20160508090010305/08/16 09:00:31  5-MIN KAHN 081400Z 30009KT 10SM CLR 24/13 A2999 740 49 2000 310/09 RMK AO2 T02390128
13873KAHN AHN20160508090510305/08/16 09:05:31  5-MIN KAHN 081405Z 30009KT 10SM CLR 24/13 A2999 740 47 2000 310/09 RMK AO2 T02440128
13873KAHN AHN20160508091010305/08/16 09:10:31  5-MIN KAHN 081410Z 30009KT 10SM CLR 24/13 A3000 740 47 2000 300/09 RMK AO2 T02440128
13873KAHN AHN20160508091512505/08/16 09:15:31  5-MIN KAHN 081415Z 31008G15KT 260V340 10SM CLR 24/13 A3000 740 47 2000 310/08G15 270V350 RMK AO2 T02440128
13873KAHN AHN20160508092010905/08/16 09:20:31  5-MIN KAHN 081420Z 30009G17KT 10SM CLR 24/13 A3000 740 47 2000 300/09G17 RMK AO2 T02440128
13873KAHN AHN20160508092510905/08/16 09:25:31  5-MIN KAHN 081425Z 30011G17KT 10SM CLR 25/12 A3000 740 44 2100 300/11G17 RMK AO2 T02500122
13873KAHN AHN20160508093010905/08/16 09:30:31  5-MIN KAHN 081430Z 30013G18KT 10SM CLR 25/12 A3000 740 44 2100 300/13G18 RMK AO2 T02500122
13873KAHN AHN20160508093510905/08/16 09:35:31  5-MIN KAHN 081435Z 31008G18KT 10SM CLR 25/12 A3000 740 44 2100 320/08G18 RMK AO2 T02500122
13873KAHN AHN20160508094010905/08/16 09:40:31  5-MIN KAHN 081440Z 28010G18KT 10SM CLR 26/13 A3000 740 44 2200 290/10G18 RMK AO2 T02560128
13873KAHN AHN20160508094512205/08/16 09:45:31  5-MIN KAHN 081445Z 28010G15KT 10SM CLR 26/12 A3000 740 43 2200 290/10G15 RMK AO2 SLP152 T02560122 53014
13873KAHN AHN20160508095012205/08/16 09:50:31  5-MIN KAHN 081450Z 29008G15KT 10SM CLR 26/13 A3000 740 44 2200 290/08G15 RMK AO2 SLP152 T02560128 53014
13873KAHN AHN20160508095510905/08/16 09:55:31  5-MIN KAHN 081455Z VRB06G14KT 10SM CLR 26/12 A3000 740 41 2200 VRB/06G14 RMK AO2 T02610122
13873KAHN AHN20160508100010905/08/16 10:00:31  5-MIN KAHN 081500Z 31009G14KT 10SM CLR 26/13 A3000 740 43 2200 320/09G14 RMK AO2 T02610128
13873KAHN AHN20160508100510905/08/16 10:05:31  5-MIN KAHN 081505Z 30008G16KT 10SM CLR 26/12 A3000 740 41 2200 300/08G16 RMK AO2 T02610122
13873KAHN AHN20160508101010905/08/16 10:10:31  5-MIN KAHN 081510Z 28009G17KT 10SM CLR 26/13 A3000 740 43 2200 290/09G17 RMK AO2 T02610128
13873KAHN AHN20160508101510905/08/16 10:15:31  5-MIN KAHN 081515Z 29008G17KT 10SM CLR 26/13 A2999 740 43 2200 290/08G17 RMK AO2 T02610128
13873KAHN AHN20160508102010305/08/16 10:20:31  5-MIN KAHN 081520Z 28007KT 10SM CLR 27/13 A3000 740 41 2300 290/07 RMK AO2 T02670128
13873KAHN AHN20160508102510905/08/16 10:25:31  5-MIN KAHN 081525Z 30010G17KT 10SM CLR 27/13 A3000 740 41 2300 310/10G17 RMK AO2 T02670128
13873KAHN AHN20160508103010905/08/16 10:30:31  5-MIN KAHN 081530Z 27008G17KT 10SM CLR 27/13 A3000 740 41 2300 280/08G17 RMK AO2 T02670128
13873KAHN AHN20160508103510905/08/16 10:35:31  5-MIN KAHN 081535Z 28009G17KT 10SM CLR 27/13 A2999 740 40 2400 290/09G17 RMK AO2 T02720128
13873KAHN AHN20160508104010905/08/16 10:40:31  5-MIN KAHN 081540Z 29009G15KT 10SM CLR 27/13 A3000 740 40 2400 290/09G15 RMK AO2 T02720128
13873KAHN AHN20160508104513205/08/16 10:45:31  5-MIN KAHN 081545Z 28008G15KT 250V310 10SM CLR 27/13 A2999 740 40 2400 280/08G15 260V320 RMK AO2 SLP151 T02720128
13873KAHN AHN20160508105013205/08/16 10:50:31  5-MIN KAHN 081550Z 30009G16KT 260V320 10SM CLR 27/13 A2999 740 40 2400 300/09G16 270V330 RMK AO2 SLP151 T02720128
13873KAHN AHN20160508105510305/08/16 10:55:31  5-MIN KAHN 081555Z 30011KT 10SM CLR 28/13 A2999 740 39 2400 310/11 RMK AO2 T02780128
13873KAHN AHN20160508110010905/08/16 11:00:31  5-MIN KAHN 081600Z 31010G18KT 10SM CLR 27/12 A3000 740 39 2400 310/10G18 RMK AO2 T02720122
13873KAHN AHN20160508110510905/08/16 11:05:31  5-MIN KAHN 081605Z 31009G18KT 10SM CLR 28/12 A3000 740 37 2400 320/09G18 RMK AO2 T02780122
13873KAHN AHN20160508111010905/08/16 11:10:31  5-MIN KAHN 081610Z VRB06G15KT 10SM CLR 28/13 A3000 740 39 2400 VRB/06G15 RMK AO2 T02780128
13873KAHN AHN20160508111510305/08/16 11:15:31  5-MIN KAHN 081615Z 28008KT 10SM CLR 28/13 A3000 740 39 2400 280/08 RMK AO2 T02780128
13873KAHN AHN20160508112010305/08/16 11:20:31  5-MIN KAHN 081620Z 25008KT 10SM CLR 28/13 A3000 740 39 2400 260/08 RMK AO2 T02780128
13873KAHN AHN20160508112512505/08/16 11:25:31  5-MIN KAHN 081625Z 29009G16KT 250V310 10SM CLR 28/13 A3000 740 37 2500 290/09G16 260V320 RMK AO2 T02830128
13873KAHN AHN20160508113010905/08/16 11:30:31  5-MIN KAHN 081630Z 30011G16KT 10SM CLR 28/13 A3000 740 39 2500 300/11G16 RMK AO2 T02830133
13873KAHN AHN20160508113510905/08/16 11:35:31  5-MIN KAHN 081635Z 29009G17KT 10SM CLR 28/13 A3000 740 39 2400 290/09G17 RMK AO2 T02780128
13873KAHN AHN20160508114012505/08/16 11:40:31  5-MIN KAHN 081640Z 29007G17KT 240V310 10SM CLR 28/13 A3000 740 39 2500 290/07G17 250V320 RMK AO2 T02830133
13873KAHN AHN20160508114511605/08/16 11:45:31  5-MIN KAHN 081645Z 30007G17KT 10SM CLR 28/13 A3000 740 37 2500 300/07G17 RMK AO2 SLP152 T02830128
13873KAHN AHN20160508115011605/08/16 11:50:31  5-MIN KAHN 081650Z 30010G19KT 10SM CLR 29/13 A3000 740 38 2500 300/10G19 RMK AO2 SLP151 T02890133
13873KAHN AHN20160508115510905/08/16 11:55:31  5-MIN KAHN 081655Z 30009G19KT 10SM CLR 28/13 A3000 740 37 2500 300/09G19 RMK AO2 T02830128
13873KAHN AHN20160508120012505/08/16 12:00:31  5-MIN KAHN 081700Z 32007G18KT 290V350 10SM CLR 29/13 A3000 740 38 2500 320/07G18 300V360 RMK AO2 T02890133
13873KAHN AHN20160508120510905/08/16 12:05:31  5-MIN KAHN 081705Z 30009G15KT 10SM CLR 29/13 A3000 740 36 2600 310/09G15 RMK AO2 T02940133
13873KAHN AHN20160508121010305/08/16 12:10:31  5-MIN KAHN 081710Z 29008KT 10SM CLR 29/13 A2999 740 36 2500 290/08 RMK AO2 T02890128
13873KAHN AHN20160508121510305/08/16 12:15:31  5-MIN KAHN 081715Z 28008KT 10SM CLR 29/13 A2999 740 36 2500 290/08 RMK AO2 T02890128
13873KAHN AHN20160508122012505/08/16 12:20:31  5-MIN KAHN 081720Z 28008G16KT 230V300 10SM CLR 29/13 A2999 740 36 2500 280/08G16 240V310 RMK AO2 T02890128
13873KAHN AHN20160508122510905/08/16 12:25:31  5-MIN KAHN 081725Z 27010G18KT 10SM CLR 29/13 A2999 740 36 2500 270/10G18 RMK AO2 T02890128
13873KAHN AHN20160508123010905/08/16 12:30:31  5-MIN KAHN 081730Z 28009G20KT 10SM CLR 29/12 A2999 740 35 2500 280/09G20 RMK AO2 T02890122
13873KAHN AHN20160508123510905/08/16 12:35:31  5-MIN KAHN 081735Z 27010G20KT 10SM CLR 29/13 A2999 740 36 2500 280/10G20 RMK AO2 T02890128
13873KAHN AHN20160508124010905/08/16 12:40:31  5-MIN KAHN 081740Z 27009G17KT 10SM CLR 29/12 A2999 740 34 2600 280/09G17 RMK AO2 T02940122
13873KAHN AHN20160508124513405/08/16 12:45:31  5-MIN KAHN 081745Z 29012G18KT 10SM CLR 29/13 A2999 750 35 2600 300/12G18 RMK AO2 SLP148 T02940128 10294 20172 51003
13873KAHN AHN20160508125013405/08/16 12:50:31  5-MIN KAHN 081750Z 26010G18KT 10SM CLR 29/12 A2999 750 35 2600 270/10G18 RMK AO2 SLP147 T02890122 10294 20172 51003
13873KAHN AHN20160508125510905/08/16 12:55:31  5-MIN KAHN 081755Z 27009G17KT 10SM CLR 29/12 A2999 750 35 2500 280/09G17 RMK AO2 T02890122
13873KAHN AHN20160508130010905/08/16 13:00:31  5-MIN KAHN 081800Z 29013G23KT 10SM CLR 29/12 A2999 750 34 2600 290/13G23 RMK AO2 T02940122
13873KAHN AHN20160508130510905/08/16 13:05:31  5-MIN KAHN 081805Z 26009G23KT 10SM CLR 29/12 A2999 750 34 2600 270/09G23 RMK AO2 T02940122
13873KAHN AHN20160508131010905/08/16 13:10:31  5-MIN KAHN 081810Z 29011G17KT 10SM CLR 29/12 A2999 750 33 2600 300/11G17 RMK AO2 T02940117
13873KAHN AHN20160508131510905/08/16 13:15:31  5-MIN KAHN 081815Z 29007G17KT 10SM CLR 29/12 A2999 750 33 2600 300/07G17 RMK AO2 T02940117
13873KAHN AHN20160508132010905/08/16 13:20:31  5-MIN KAHN 081820Z 31013G18KT 10SM CLR 30/13 A2999 750 34 2700 310/13G18 RMK AO2 T03000128
13873KAHN AHN20160508132512505/08/16 13:25:31  5-MIN KAHN 081825Z 26007G18KT 230V290 10SM CLR 29/13 A2999 750 35 2600 270/07G18 240V300 RMK AO2 T02940128
13873KAHN AHN20160508133012505/08/16 13:30:31  5-MIN KAHN 081830Z 29008G17KT 250V330 10SM CLR 30/13 A2999 750 34 2700 300/08G17 260V340 RMK AO2 T03000128
13873KAHN AHN20160508133510305/08/16 13:35:31  5-MIN KAHN 081835Z 29008KT 10SM CLR 31/13 A2999 750 33 2700 290/08 RMK AO2 T03060128
13873KAHN AHN20160508134011905/08/16 13:40:31  5-MIN KAHN 081840Z 29008KT 240V310 10SM CLR 30/12 A2998 750 33 2700 290/08 250V320 RMK AO2 T03000122
13873KAHN AHN20160508134512605/08/16 13:45:31  5-MIN KAHN 081845Z 31007KT 250V350 10SM CLR 31/13 A2998 750 33 2700 320/07 260V360 RMK AO2 SLP145 T03060128
13873KAHN AHN20160508135011005/08/16 13:50:31  5-MIN KAHN 081850Z VRB06KT 10SM CLR 30/13 A2998 750 34 2700 VRB/06 RMK AO2 SLP147 T03000128
13873KAHN AHN20160508135510305/08/16 13:55:31  5-MIN KAHN 081855Z VRB05KT 10SM CLR 31/13 A2998 750 33 2700 VRB/05 RMK AO2 T03060128
13873KAHN AHN20160508140010305/08/16 14:00:31  5-MIN KAHN 081900Z VRB04KT 10SM CLR 31/12 A2998 750 32 2700 VRB/04 RMK AO2 T03060122
13873KAHN AHN20160508140509305/08/16 14:05:31  5-MIN KAHN 081905Z 10SM CLR 31/12 A2998 750 30 2700 M /M RMK AO2 T03060117
13873KAHN AHN20160508141010305/08/16 14:10:31  5-MIN KAHN 081910Z 30010KT 10SM CLR 31/12 A2998 760 32 2700 300/10 RMK AO2 T03060122
13873KAHN AHN20160508141510905/08/16 14:15:31  5-MIN KAHN 081915Z 27007G14KT 10SM CLR 31/12 A2998 760 32 2700 280/07G14 RMK AO2 T03060122
13873KAHN AHN20160508142010905/08/16 14:20:31  5-MIN KAHN 081920Z 28009G15KT 10SM CLR 31/11 A2998 760 28 2800 290/09G15 RMK AO2 T03110111
13873KAHN AHN20160508142510905/08/16 14:25:31  5-MIN KAHN 081925Z 26008G19KT 10SM CLR 31/11 A2997 760 29 2700 260/08G19 RMK AO2 T03060111
13873KAHN AHN20160508143010905/08/16 14:30:31  5-MIN KAHN 081930Z 26010G20KT 10SM CLR 31/10 A2998 760 27 2700 270/10G20 RMK AO2 T03060100
13873KAHN AHN20160508143510905/08/16 14:35:31  5-MIN KAHN 081935Z 28011G20KT 10SM CLR 31/11 A2997 760 28 2700 290/11G20 RMK AO2 T03060106
13873KAHN AHN20160508144012505/08/16 14:40:31  5-MIN KAHN 081940Z 27009G18KT 240V310 10SM CLR 31/11 A2997 760 28 2800 280/09G18 250V320 RMK AO2 T03060106
13873KAHN AHN20160508144511605/08/16 14:45:31  5-MIN KAHN 081945Z 28009G16KT 10SM CLR 30/10 A2997 760 28 2700 280/09G16 RMK AO2 SLP143 T03000100
13873KAHN AHN20160508145011605/08/16 14:50:31  5-MIN KAHN 081950Z 30006G16KT 10SM CLR 31/10 A2997 770 27 2800 310/06G16 RMK AO2 SLP142 T03060100
13873KAHN AHN20160508145512505/08/16 14:55:31  5-MIN KAHN 081955Z 27009G14KT 240V320 10SM CLR 31/11 A2997 770 28 2800 270/09G14 250V330 RMK AO2 T03060106
13873KAHN AHN20160508150012505/08/16 15:00:31  5-MIN KAHN 082000Z 29008G14KT 240V330 10SM CLR 31/11 A2997 770 29 2800 300/08G14 250V340 RMK AO2 T03060111
13873KAHN AHN20160508150510905/08/16 15:05:31  5-MIN KAHN 082005Z 27012G19KT 10SM CLR 31/11 A2997 770 28 2800 280/12G19 RMK AO2 T03060106
13873KAHN AHN20160508151010905/08/16 15:10:31  5-MIN KAHN 082010Z 30012G19KT 10SM CLR 31/09 A2997 770 26 2800 310/12G19 RMK AO2 T03060094
13873KAHN AHN20160508151510905/08/16 15:15:31  5-MIN KAHN 082015Z 28007G17KT 10SM CLR 31/09 A2996 770 26 2800 280/07G17 RMK AO2 T03060094
13873KAHN AHN20160508152010305/08/16 15:20:31  5-MIN KAHN 082020Z VRB06KT 10SM CLR 31/09 A2996 770 26 2800 VRB/06 RMK AO2 T03060094
13873KAHN AHN20160508152510905/08/16 15:25:31  5-MIN KAHN 082025Z 28011G16KT 10SM CLR 31/09 A2996 770 26 2800 280/11G16 RMK AO2 T03060094
13873KAHN AHN20160508153012505/08/16 15:30:31  5-MIN KAHN 082030Z 27007G16KT 250V320 10SM CLR 31/09 A2996 780 25 2800 280/07G16 260V330 RMK AO2 T03060089
13873KAHN AHN20160508153510905/08/16 15:35:31  5-MIN KAHN 082035Z 29009G15KT 10SM CLR 31/09 A2996 780 26 2800 300/09G15 RMK AO2 T03060094
13873KAHN AHN20160508154010905/08/16 15:40:31  5-MIN KAHN 082040Z 30008G17KT 10SM CLR 31/09 A2995 780 25 2800 300/08G17 RMK AO2 T03060089
13873KAHN AHN20160508154512205/08/16 15:45:31  5-MIN KAHN 082045Z 31011G17KT 10SM CLR 31/09 A2995 780 25 2800 320/11G17 RMK AO2 SLP136 T03060089 58003
13873KAHN AHN20160508155012205/08/16 15:50:31  5-MIN KAHN 082050Z 29008G15KT 10SM CLR 31/08 A2995 780 24 2800 300/08G15 RMK AO2 SLP136 T03060083 58003
13873KAHN AHN20160508155510305/08/16 15:55:31  5-MIN KAHN 082055Z 28008KT 10SM CLR 31/09 A2995 780 24 2800 280/08 RMK AO2 T03110089
13873KAHN AHN20160508160010305/08/16 16:00:31  5-MIN KAHN 082100Z VRB06KT 10SM CLR 31/08 A2995 780 24 2800 VRB/06 RMK AO2 T03060083
13873KAHN AHN20160508160510305/08/16 16:05:31  5-MIN KAHN 082105Z VRB04KT 10SM CLR 31/08 A2995 780 24 2800 VRB/04 RMK AO2 T03060083
13873KAHN AHN20160508161010305/08/16 16:10:31  5-MIN KAHN 082110Z 28008KT 10SM CLR 31/08 A2995 780 23 2800 280/08 RMK AO2 T03060078
13873KAHN AHN20160508161510905/08/16 16:15:31  5-MIN KAHN 082115Z 30007G14KT 10SM CLR 31/07 A2995 780 22 2800 300/07G14 RMK AO2 T03060072
13873KAHN AHN20160508162010905/08/16 16:20:31  5-MIN KAHN 082120Z 27008G14KT 10SM CLR 31/08 A2995 790 23 2800 280/08G14 RMK AO2 T03060078
13873KAHN AHN20160508162510305/08/16 16:25:31  5-MIN KAHN 082125Z 27007KT 10SM CLR 31/07 A2995 780 22 2800 280/07 RMK AO2 T03060072
13873KAHN AHN20160508163010305/08/16 16:30:31  5-MIN KAHN 082130Z VRB05KT 10SM CLR 31/08 A2995 790 23 2800 VRB/05 RMK AO2 T03060078
13873KAHN AHN20160508163510905/08/16 16:35:31  5-MIN KAHN 082135Z 27006G15KT 10SM CLR 31/08 A2994 790 24 2800 270/06G15 RMK AO2 T03060083
13873KAHN AHN20160508164010905/08/16 16:40:31  5-MIN KAHN 082140Z 29010G15KT 10SM CLR 30/08 A2994 790 24 2700 300/10G15 RMK AO2 T03000078
13873KAHN AHN20160508164511605/08/16 16:45:31  5-MIN KAHN 082145Z 29007G15KT 10SM CLR 30/08 A2994 790 25 2700 290/07G15 RMK AO2 SLP133 T03000083
13873KAHN AHN20160508165011005/08/16 16:50:31  5-MIN KAHN 082150Z 28008KT 10SM CLR 30/08 A2994 790 25 2700 280/08 RMK AO2 SLP133 T03000083
13873KAHN AHN20160508165510305/08/16 16:55:31  5-MIN KAHN 082155Z 28008KT 10SM CLR 31/08 A2994 790 23 2800 290/08 RMK AO2 T03060078
13873KAHN AHN20160508170010905/08/16 17:00:31  5-MIN KAHN 082200Z 28007G15KT 10SM CLR 30/07 A2994 790 23 2700 290/07G15 RMK AO2 T03000072
13873KAHN AHN20160508170510905/08/16 17:05:31  5-MIN KAHN 082205Z 27006G15KT 10SM CLR 30/08 A2994 790 24 2700 270/06G15 RMK AO2 T03000078
13873KAHN AHN20160508171011905/08/16 17:10:31  5-MIN KAHN 082210Z 28007KT 220V310 10SM CLR 29/08 A2994 790 25 2700 280/07 230V320 RMK AO2 T02940078
13873KAHN AHN20160508171510305/08/16 17:15:31  5-MIN KAHN 082215Z 28007KT 10SM CLR 29/08 A2994 790 25 2700 290/07 RMK AO2 T02940078
13873KAHN AHN20160508172010305/08/16 17:20:31  5-MIN KAHN 082220Z VRB05KT 10SM CLR 29/08 A2994 790 26 2700 VRB/05 RMK AO2 T02940083
13873KAHN AHN20160508172510305/08/16 17:25:31  5-MIN KAHN 082225Z 23005KT 10SM CLR 30/08 A2994 790 25 2700 240/05 RMK AO2 T03000083
13873KAHN AHN20160508173010305/08/16 17:30:31  5-MIN KAHN 082230Z 26004KT 10SM CLR 29/08 A2994 790 25 2700 270/04 RMK AO2 T02940078
13873KAHN AHN20160508173510305/08/16 17:35:31  5-MIN KAHN 082235Z 25007KT 10SM CLR 29/08 A2994 790 26 2700 260/07 RMK AO2 T02940083
13873KAHN AHN20160508174010305/08/16 17:40:31  5-MIN KAHN 082240Z 24005KT 10SM CLR 29/08 A2994 790 26 2600 250/05 RMK AO2 T02890078
13873KAHN AHN20160509184512805/09/16 18:45:31  5-MIN KAHN 092345Z 00000KT 10SM CLR 24/10 A3007 670 39 2000 000/00 RMK AO2 SLP178 T02440100 10306 20244 56011
13873KAHN AHN20160509185013105/09/16 18:50:31  5-MIN KAHN 092350Z 00000KT 10SM FEW110 24/10 A3007 670 41 1900 000/00 RMK AO2 SLP178 T02390100 10306 20239 56011
13873KAHN AHN20160509185511105/09/16 18:55:31  5-MIN KAHN 092355Z AUTO VRB03KT 10SM SCT110 24/10 A3007 670 41 1900 VRB/03 RMK AO2 T02390100
13873KAHN AHN20160509190011105/09/16 19:00:31  5-MIN KAHN 100000Z AUTO 27003KT 10SM SCT110 24/10 A3008 670 41 1900 270/03 RMK AO2 T02390100
13873KAHN AHN20160509190511105/09/16 19:05:31  5-MIN KAHN 100005Z AUTO 27003KT 10SM SCT110 23/10 A3008 660 42 1800 270/03 RMK AO2 T02330100
13873KAHN AHN20160509191011105/09/16 19:10:31  5-MIN KAHN 100010Z AUTO 00000KT 10SM SCT110 23/10 A3008 660 42 1800 000/00 RMK AO2 T02330100
13873KAHN AHN20160509191511105/09/16 19:15:31  5-MIN KAHN 100015Z AUTO 00000KT 10SM SCT110 23/10 A3008 660 42 1800 000/00 RMK AO2 T02330100
13873KAHN AHN20160509192011105/09/16 19:20:31  5-MIN KAHN 100020Z AUTO 00000KT 10SM SCT110 24/10 A3008 660 41 1900 000/00 RMK AO2 T02390100
13873KAHN AHN20160509192511105/09/16 19:25:31  5-MIN KAHN 100025Z AUTO 00000KT 10SM SCT110 23/10 A3008 660 42 1800 000/00 RMK AO2 T02330100
13873KAHN AHN20160509193011805/09/16 19:30:31  5-MIN KAHN 100030Z AUTO 00000KT 10SM FEW090 BKN120 23/11 A3008 660 47 1800 000/00 RMK AO2 T02280111
13873KAHN AHN20160509193511805/09/16 19:35:31  5-MIN KAHN 100035Z AUTO 00000KT 10SM FEW080 BKN110 23/10 A3008 660 44 1800 000/00 RMK AO2 T02280100
13873KAHN AHN20160509194011805/09/16 19:40:31  5-MIN KAHN 100040Z AUTO 00000KT 10SM FEW090 BKN110 23/10 A3009 660 44 1800 000/00 RMK AO2 T02280100
13873KAHN AHN20160509194514105/09/16 19:45:31  5-MIN KAHN 100045Z AUTO 00000KT 10SM -RA FEW090 BKN110 22/11 A3008 660 49 1700 000/00 RMK AO2 RAB43 SLP182 P0000 T02220111
13873KAHN AHN20160509195014105/09/16 19:50:31  5-MIN KAHN 100050Z AUTO 00000KT 10SM -RA SCT100 BKN120 22/12 A3008 660 51 1700 000/00 RMK AO2 RAB43 SLP182 P0000 T02220117
13873KAHN AHN20160509195513505/09/16 19:55:31  5-MIN KAHN 100055Z AUTO 00000KT 10SM -RA FEW045 FEW065 BKN110 22/13 A3008 660 58 1600 000/00 RMK AO2 P0000 T02170133
13873KAHN AHN20160509200013205/09/16 20:00:31  5-MIN KAHN 100100Z AUTO 00000KT 10SM FEW045 BKN110 22/13 A3008 670 58 1600 000/00 RMK AO2 RAE0057 P0000 T02170133
13873KAHN AHN20160509200513205/09/16 20:05:31  5-MIN KAHN 100105Z AUTO 00000KT 10SM FEW100 FEW120 22/13 A3008 670 58 1600 000/00 RMK AO2 RAE0057 P0000 T02170133
13873KAHN AHN20160509201012505/09/16 20:10:31  5-MIN KAHN 100110Z AUTO 00000KT 10SM FEW110 21/13 A3008 660 61 1600 000/00 RMK AO2 RAE0057 P0000 T02110133
13873KAHN AHN20160509201513205/09/16 20:15:31  5-MIN KAHN 100115Z AUTO 00000KT 10SM FEW100 FEW120 21/13 A3008 670 58 1600 000/00 RMK AO2 RAE0057 P0000 T02110128
13873KAHN AHN20160509202012205/09/16 20:20:31  5-MIN KAHN 100120Z AUTO 12003KT 10SM CLR 21/13 A3007 670 63 1500 130/03 RMK AO2 RAE0057 P0000 T02060133
13873KAHN AHN20160509202512205/09/16 20:25:31  5-MIN KAHN 100125Z AUTO 12003KT 10SM CLR 21/13 A3007 670 63 1500 130/03 RMK AO2 RAE0057 P0000 T02060133
13873KAHN AHN20160509203012205/09/16 20:30:31  5-MIN KAHN 100130Z AUTO 11003KT 10SM CLR 21/13 A3007 670 60 1500 110/03 RMK AO2 RAE0057 P0000 T02060128
13873KAHN AHN20160509203512205/09/16 20:35:31  5-MIN KAHN 100135Z AUTO 09003KT 10SM CLR 21/13 A3007 670 60 1500 090/03 RMK AO2 RAE0057 P0000 T02060128
13873KAHN AHN20160509204012205/09/16 20:40:31  5-MIN KAHN 100140Z AUTO 00000KT 10SM CLR 21/13 A3008 670 63 1500 000/00 RMK AO2 RAE0057 P0000 T02060133
13873KAHN AHN20160509204512905/09/16 20:45:31  5-MIN KAHN 100145Z AUTO 08003KT 10SM CLR 21/13 A3008 670 60 1500 080/03 RMK AO2 RAE0057 SLP180 P0000 T02060128
13873KAHN AHN20160509205012905/09/16 20:50:31  5-MIN KAHN 100150Z AUTO 11003KT 10SM CLR 21/13 A3008 660 60 1500 120/03 RMK AO2 RAE0057 SLP181 P0000 T02060128
13873KAHN AHN20160509205510805/09/16 20:55:31  5-MIN KAHN 100155Z AUTO 12003KT 10SM CLR 20/13 A3008 660 65 1400 120/03 RMK AO2 T02000133
13873KAHN AHN20160509210010805/09/16 21:00:31  5-MIN KAHN 100200Z AUTO 00000KT 10SM CLR 20/13 A3008 660 65 1400 000/00 RMK AO2 T02000133
13873KAHN AHN20160509210510805/09/16 21:05:31  5-MIN KAHN 100205Z AUTO 00000KT 10SM CLR 20/13 A3009 660 65 1400 000/00 RMK AO2 T02000133
13873KAHN AHN20160509211010805/09/16 21:10:31  5-MIN KAHN 100210Z AUTO 00000KT 10SM CLR 19/13 A3009 660 67 1400 000/00 RMK AO2 T01940133
13873KAHN AHN20160509211510805/09/16 21:15:31  5-MIN KAHN 100215Z AUTO 00000KT 10SM CLR 20/13 A3009 650 63 1400 000/00 RMK AO2 T02000128
13873KAHN AHN20160509212010805/09/16 21:20:31  5-MIN KAHN 100220Z AUTO 00000KT 10SM CLR 19/13 A3009 650 67 1400 000/00 RMK AO2 T01940133
13873KAHN AHN20160509212510805/09/16 21:25:31  5-MIN KAHN 100225Z AUTO 00000KT 10SM CLR 19/13 A3009 650 67 1400 000/00 RMK AO2 T01940133
13873KAHN AHN20160509213010805/09/16 21:30:31  5-MIN KAHN 100230Z AUTO 00000KT 10SM CLR 19/13 A3009 660 67 1400 000/00 RMK AO2 T01940133
13873KAHN AHN20160509213510805/09/16 21:35:31  5-MIN KAHN 100235Z AUTO 00000KT 10SM CLR 19/13 A3009 660 67 1400 000/00 RMK AO2 T01940133
13873KAHN AHN20160509214010805/09/16 21:40:31  5-MIN KAHN 100240Z AUTO 00000KT 10SM CLR 19/13 A3008 660 67 1400 000/00 RMK AO2 T01940133
13873KAHN AHN20160509214512705/09/16 21:45:31  5-MIN KAHN 100245Z AUTO 00000KT 10SM CLR 20/13 A3009 660 63 1400 000/00 RMK AO2 SLP182 60000 T02000128 53003
13873KAHN AHN20160509215012705/09/16 21:50:31  5-MIN KAHN 100250Z AUTO 00000KT 10SM CLR 20/13 A3008 660 63 1400 000/00 RMK AO2 SLP181 60000 T02000128 53003
13873KAHN AHN20160509215510805/09/16 21:55:31  5-MIN KAHN 100255Z AUTO 00000KT 10SM CLR 20/13 A3008 660 63 1400 000/00 RMK AO2 T02000128
13873KAHN AHN20160509220010805/09/16 22:00:31  5-MIN KAHN 100300Z AUTO 00000KT 10SM CLR 19/13 A3008 660 67 1400 000/00 RMK AO2 T01940133
13873KAHN AHN20160509220510805/09/16 22:05:31  5-MIN KAHN 100305Z AUTO 00000KT 10SM CLR 19/13 A3008 660 67 1400 000/00 RMK AO2 T01940133
13873KAHN AHN20160509221010805/09/16 22:10:31  5-MIN KAHN 100310Z AUTO 00000KT 10SM CLR 19/13 A3008 660 65 1400 000/00 RMK AO2 T01940128
13873KAHN AHN20160509221510805/09/16 22:15:31  5-MIN KAHN 100315Z AUTO 00000KT 10SM CLR 19/13 A3008 660 67 1400 000/00 RMK AO2 T01940133
13873KAHN AHN20160509222010805/09/16 22:20:31  5-MIN KAHN 100320Z AUTO 00000KT 10SM CLR 19/14 A3008 670 70 1400 000/00 RMK AO2 T01940139
13873KAHN AHN20160509222510805/09/16 22:25:31  5-MIN KAHN 100325Z AUTO 00000KT 10SM CLR 19/13 A3007 670 67 1400 000/00 RMK AO2 T01940133
13873KAHN AHN20160509223010805/09/16 22:30:31  5-MIN KAHN 100330Z AUTO 00000KT 10SM CLR 19/13 A3008 670 65 1400 000/00 RMK AO2 T01940128
13873KAHN AHN20160509223510805/09/16 22:35:31  5-MIN KAHN 100335Z AUTO 00000KT 10SM CLR 19/13 A3008 660 65 1400 000/00 RMK AO2 T01940128
13873KAHN AHN20160509224010805/09/16 22:40:31  5-MIN KAHN 100340Z AUTO 00000KT 10SM CLR 19/13 A3008 660 65 1400 000/00 RMK AO2 T01940128
13873KAHN AHN20160509224511505/09/16 22:45:31  5-MIN KAHN 100345Z AUTO 00000KT 10SM CLR 19/13 A3008 660 65 1400 000/00 RMK AO2 SLP180 T01940128
13873KAHN AHN20160509225011505/09/16 22:50:31  5-MIN KAHN 100350Z AUTO 00000KT 10SM CLR 19/14 A3008 660 72 1300 000/00 RMK AO2 SLP181 T01890139
13873KAHN AHN20160509225510805/09/16 22:55:31  5-MIN KAHN 100355Z AUTO 00000KT 10SM CLR 19/14 A3008 660 72 1300 000/00 RMK AO2 T01890139
13873KAHN AHN20160509230010805/09/16 23:00:31  5-MIN KAHN 100400Z AUTO 00000KT 10SM CLR 19/14 A3008 660 72 1300 000/00 RMK AO2 T01890139
13873KAHN AHN20160509230510805/09/16 23:05:31  5-MIN KAHN 100405Z AUTO 29003KT 10SM CLR 19/13 A3009 650 67 1300 290/03 RMK AO2 T01890128
13873KAHN AHN20160509231010805/09/16 23:10:31  5-MIN KAHN 100410Z AUTO 29003KT 10SM CLR 19/12 A3009 660 62 1400 290/03 RMK AO2 T01940122
13873KAHN AHN20160509231510805/09/16 23:15:31  5-MIN KAHN 100415Z AUTO 00000KT 10SM CLR 19/12 A3008 660 60 1400 000/00 RMK AO2 T01940117
13873KAHN AHN20160509232010805/09/16 23:20:31  5-MIN KAHN 100420Z AUTO 00000KT 10SM CLR 19/12 A3008 660 62 1300 000/00 RMK AO2 T01890117
13873KAHN AHN20160509232510805/09/16 23:25:31  5-MIN KAHN 100425Z AUTO 00000KT 10SM CLR 19/12 A3009 660 62 1300 000/00 RMK AO2 T01890117
13873KAHN AHN20160509233010805/09/16 23:30:31  5-MIN KAHN 100430Z AUTO 00000KT 10SM CLR 19/12 A3008 660 62 1300 000/00 RMK AO2 T01890117
13873KAHN AHN20160509233510805/09/16 23:35:31  5-MIN KAHN 100435Z AUTO 00000KT 10SM CLR 18/12 A3008 660 69 1200 000/00 RMK AO2 T01780122
13873KAHN AHN20160509234010805/09/16 23:40:31  5-MIN KAHN 100440Z AUTO 00000KT 10SM CLR 18/13 A3008 660 72 1200 000/00 RMK AO2 T01780128
13873KAHN AHN20160509234512505/09/16 23:45:31  5-MIN KAHN 100445Z AUTO 00000KT 10SM CLR 18/13 A3008 660 72 1200 000/00 RMK AO2 SLP181 T01780128 403060139
13873KAHN AHN20160509235012505/09/16 23:50:31  5-MIN KAHN 100450Z AUTO 00000KT 10SM CLR 17/13 A3008 670 75 1100 000/00 RMK AO2 SLP179 T01720128 403060139
13873KAHN AHN20160509235510805/09/16 23:55:31  5-MIN KAHN 100455Z AUTO 00000KT 10SM CLR 17/13 A3007 670 75 1100 000/00 RMK AO2 T01720128
13873KAHN AHN20160510000010805/10/16 00:00:31  5-MIN KAHN 100500Z AUTO 00000KT 10SM CLR 17/13 A3008 670 77 1100 000/00 RMK AO2 T01670128
13873KAHN AHN20160510000510805/10/16 00:05:31  5-MIN KAHN 100505Z AUTO 00000KT 10SM CLR 17/13 A3008 670 77 1100 000/00 RMK AO2 T01670128
13873KAHN AHN20160510001010805/10/16 00:10:31  5-MIN KAHN 100510Z AUTO 00000KT 10SM CLR 16/13 A3007 670 80 1000 000/00 RMK AO2 T01610128
13873KAHN AHN20160510001510805/10/16 00:15:31  5-MIN KAHN 100515Z AUTO 00000KT 10SM CLR 16/13 A3007 670 80 1000 000/00 RMK AO2 T01610128
13873KAHN AHN20160510002010805/10/16 00:20:31  5-MIN KAHN 100520Z AUTO 00000KT 10SM CLR 17/12 A3007 670 75 1100 000/00 RMK AO2 T01670122
13873KAHN AHN20160510002510805/10/16 00:25:31  5-MIN KAHN 100525Z AUTO 00000KT 10SM CLR 17/12 A3008 670 75 1100 000/00 RMK AO2 T01670122
13873KAHN AHN20160510003010805/10/16 00:30:31  5-MIN KAHN 100530Z AUTO 00000KT 10SM CLR 16/12 A3008 670 77 1000 000/00 RMK AO2 T01610122
13873KAHN AHN20160510003510705/10/16 00:35:31  5-MIN KAHN 100535Z AUTO 00000KT 10SM CLR 16/12 A3008 660 77 900 000/00 RMK AO2 T01560117
13873KAHN AHN20160510004010805/10/16 00:40:31  5-MIN KAHN 100540Z AUTO 00000KT 10SM CLR 16/12 A3008 660 77 1000 000/00 RMK AO2 T01610122
13873KAHN AHN20160510004513905/10/16 00:45:31  5-MIN KAHN 100545Z AUTO 00000KT 10SM CLR 17/12 A3009 660 75 1000 000/00 RMK AO2 SLP182 60000 T01670122 10239 20156 51004
13873KAHN AHN20160510005013905/10/16 00:50:31  5-MIN KAHN 100550Z AUTO 00000KT 10SM CLR 17/12 A3009 660 75 1000 000/00 RMK AO2 SLP182 60000 T01670122 10239 20156 51004
13873KAHN AHN20160510005510805/10/16 00:55:31  5-MIN KAHN 100555Z AUTO 31003KT 10SM CLR 17/12 A3009 660 75 1000 310/03 RMK AO2 T01670122
13873KAHN AHN20160510010010805/10/16 01:00:31  5-MIN KAHN 100600Z AUTO 28003KT 10SM CLR 17/12 A3009 650 75 1000 290/03 RMK AO2 T01670122
13873KAHN AHN20160510010510805/10/16 01:05:31  5-MIN KAHN 100605Z AUTO 29003KT 10SM CLR 17/12 A3009 650 72 1100 300/03 RMK AO2 T01720122
13873KAHN AHN20160510011010805/10/16 01:10:31  5-MIN KAHN 100610Z AUTO 30003KT 10SM CLR 17/12 A3009 650 72 1100 300/03 RMK AO2 T01720122
13873KAHN AHN20160510011510805/10/16 01:15:31  5-MIN KAHN 100615Z AUTO 29003KT 10SM CLR 17/12 A3009 650 72 1100 290/03 RMK AO2 T01720122
13873KAHN AHN20160510012010805/10/16 01:20:31  5-MIN KAHN 100620Z AUTO 29003KT 10SM CLR 17/12 A3009 650 72 1100 300/03 RMK AO2 T01720122
13873KAHN AHN20160510012510805/10/16 01:25:31  5-MIN KAHN 100625Z AUTO 30003KT 10SM CLR 17/13 A3009 650 77 1000 300/03 RMK AO2 T01670128
13873KAHN AHN20160510013010805/10/16 01:30:31  5-MIN KAHN 100630Z AUTO 00000KT 10SM CLR 17/13 A3009 650 75 1100 000/00 RMK AO2 T01720128
13873KAHN AHN20160510013510805/10/16 01:35:31  5-MIN KAHN 100635Z AUTO 29003KT 10SM CLR 17/13 A3010 650 75 1100 290/03 RMK AO2 T01720128
13873KAHN AHN20160510014010805/10/16 01:40:31  5-MIN KAHN 100640Z AUTO 29003KT 10SM CLR 17/13 A3010 650 75 1100 300/03 RMK AO2 T01720128
13873KAHN AHN20160510014511505/10/16 01:45:31  5-MIN KAHN 100645Z AUTO 00000KT 10SM CLR 17/13 A3010 650 75 1100 000/00 RMK AO2 SLP184 T01720128
13873KAHN AHN20160510015011505/10/16 01:50:31  5-MIN KAHN 100650Z AUTO 00000KT 10SM CLR 17/13 A3009 650 77 1000 000/00 RMK AO2 SLP184 T01670128
13873KAHN AHN20160510015510805/10/16 01:55:31  5-MIN KAHN 100655Z AUTO 00000KT 10SM CLR 17/13 A3009 650 77 1000 000/00 RMK AO2 T01670128
13873KAHN AHN20160510020010805/10/16 02:00:31  5-MIN KAHN 100700Z AUTO 00000KT 10SM CLR 17/13 A3009 650 77 1000 000/00 RMK AO2 T01670128
13873KAHN AHN20160510020510805/10/16 02:05:31  5-MIN KAHN 100705Z AUTO 00000KT 10SM CLR 17/13 A3009 650 77 1000 000/00 RMK AO2 T01670128
13873KAHN AHN20160510021010805/10/16 02:10:31  5-MIN KAHN 100710Z AUTO 00000KT 10SM CLR 17/13 A3009 650 77 1000 000/00 RMK AO2 T01670128
13873KAHN AHN20160510021510805/10/16 02:15:31  5-MIN KAHN 100715Z AUTO 00000KT 10SM CLR 17/13 A3009 650 77 1000 000/00 RMK AO2 T01670128
13873KAHN AHN20160510022010805/10/16 02:20:31  5-MIN KAHN 100720Z AUTO 00000KT 10SM CLR 17/13 A3009 650 80 1000 000/00 RMK AO2 T01670133
13873KAHN AHN20160510022510805/10/16 02:25:31  5-MIN KAHN 100725Z AUTO 00000KT 10SM CLR 17/13 A3009 660 80 1000 000/00 RMK AO2 T01670133
13873KAHN AHN20160510023010805/10/16 02:30:31  5-MIN KAHN 100730Z AUTO 00000KT 10SM CLR 17/13 A3009 660 80 1000 000/00 RMK AO2 T01670133
13873KAHN AHN20160510023510805/10/16 02:35:31  5-MIN KAHN 100735Z AUTO 00000KT 10SM CLR 17/13 A3009 660 80 1000 000/00 RMK AO2 T01670133
13873KAHN AHN20160510024010805/10/16 02:40:31  5-MIN KAHN 100740Z AUTO 00000KT 10SM CLR 17/13 A3009 650 80 1000 000/00 RMK AO2 T01670133
13873KAHN AHN20160510024511505/10/16 02:45:31  5-MIN KAHN 100745Z AUTO 00000KT 10SM CLR 17/13 A3009 650 80 1000 000/00 RMK AO2 SLP185 T01670133
13873KAHN AHN20160510025011505/10/16 02:50:31  5-MIN KAHN 100750Z AUTO 00000KT 10SM CLR 17/13 A3010 650 80 1000 000/00 RMK AO2 SLP185 T01670133
13873KAHN AHN20160510025510805/10/16 02:55:31  5-MIN KAHN 100755Z AUTO 00000KT 10SM CLR 17/13 A3010 640 80 1000 000/00 RMK AO2 T01670133
13873KAHN AHN20160510030010805/10/16 03:00:31  5-MIN KAHN 100800Z AUTO 00000KT 10SM CLR 17/13 A3010 640 80 1000 000/00 RMK AO2 T01670133
13873KAHN AHN20160510030510805/10/16 03:05:31  5-MIN KAHN 100805Z AUTO 00000KT 10SM CLR 17/13 A3010 640 80 1000 000/00 RMK AO2 T01670133
13873KAHN AHN20160510031010805/10/16 03:10:31  5-MIN KAHN 100810Z AUTO 00000KT 10SM CLR 17/13 A3011 640 78 1100 000/00 RMK AO2 T01720133
13873KAHN AHN20160510031510805/10/16 03:15:31  5-MIN KAHN 100815Z AUTO 00000KT 10SM CLR 17/13 A3011 640 80 1000 000/00 RMK AO2 T01670133
13873KAHN AHN20160510032010805/10/16 03:20:31  5-MIN KAHN 100820Z AUTO 00000KT 10SM CLR 17/13 A3011 630 80 1000 000/00 RMK AO2 T01670133
13873KAHN AHN20160510032510805/10/16 03:25:31  5-MIN KAHN 100825Z AUTO 00000KT 10SM CLR 17/14 A3011 630 83 1000 000/00 RMK AO2 T01670139
13873KAHN AHN20160510033010805/10/16 03:30:31  5-MIN KAHN 100830Z AUTO 00000KT 10SM CLR 17/14 A3012 630 83 1000 000/00 RMK AO2 T01670139
13873KAHN AHN20160510033510805/10/16 03:35:31  5-MIN KAHN 100835Z AUTO 00000KT 10SM CLR 17/14 A3011 630 83 1000 000/00 RMK AO2 T01670139
13873KAHN AHN20160510034010805/10/16 03:40:31  5-MIN KAHN 100840Z AUTO 00000KT 10SM CLR 17/14 A3012 630 83 1000 000/00 RMK AO2 T01670139
13873KAHN AHN20160510034512105/10/16 03:45:31  5-MIN KAHN 100845Z AUTO 09003KT 10SM CLR 17/14 A3011 630 83 1000 090/03 RMK AO2 SLP191 T01670139 53001
13873KAHN AHN20160510035012005/10/16 03:50:31  5-MIN KAHN 100850Z AUTO 00000KT 10SM CLR 16/14 A3012 630 86 900 000/00 RMK AO2 SLP193 T01610139 53001
13873KAHN AHN20160510035510705/10/16 03:55:31  5-MIN KAHN 100855Z AUTO 00000KT 10SM CLR 16/14 A3012 630 86 900 000/00 RMK AO2 T01610139
13873KAHN AHN20160510040011005/10/16 04:00:31  5-MIN KAHN 100900Z AUTO 00000KT 10SM FEW070 16/14 A3012 620 86 900 000/00 RMK AO2 T01610139
13873KAHN AHN20160510040511005/10/16 04:05:31  5-MIN KAHN 100905Z AUTO 00000KT 10SM FEW070 16/14 A3012 630 86 900 000/00 RMK AO2 T01610139
13873KAHN AHN20160510041011005/10/16 04:10:31  5-MIN KAHN 100910Z AUTO 13003KT 10SM FEW070 16/14 A3012 630 86 900 130/03 RMK AO2 T01610139
13873KAHN AHN20160510041511005/10/16 04:15:31  5-MIN KAHN 100915Z AUTO 00000KT 10SM FEW070 16/14 A3012 630 86 900 000/00 RMK AO2 T01610139
13873KAHN AHN20160510042011005/10/16 04:20:31  5-MIN KAHN 100920Z AUTO 00000KT 10SM FEW070 16/14 A3012 630 86 900 000/00 RMK AO2 T01610139
13873KAHN AHN20160510042511005/10/16 04:25:31  5-MIN KAHN 100925Z AUTO 00000KT 10SM SCT070 16/14 A3012 630 86 900 000/00 RMK AO2 T01610139
13873KAHN AHN20160510043011005/10/16 04:30:31  5-MIN KAHN 100930Z AUTO 00000KT 10SM SCT065 16/14 A3012 620 86 900 000/00 RMK AO2 T01610139
13873KAHN AHN20160510043511005/10/16 04:35:31  5-MIN KAHN 100935Z AUTO 00000KT 10SM BKN065 16/14 A3012 620 86 900 000/00 RMK AO2 T01610139
13873KAHN AHN20160510044011105/10/16 04:40:31  5-MIN KAHN 100940Z AUTO 00000KT 10SM BKN065 17/14 A3013 620 86 1000 000/00 RMK AO2 T01670144
13873KAHN AHN20160510044511805/10/16 04:45:31  5-MIN KAHN 100945Z AUTO 00000KT 10SM BKN065 17/14 A3013 620 83 1000 000/00 RMK AO2 SLP197 T01670139
13873KAHN AHN20160510045012505/10/16 04:50:31  5-MIN KAHN 100950Z AUTO 00000KT 10SM BKN065 OVC080 17/14 A3013 610 86 1000 000/00 RMK AO2 SLP198 T01670144
13873KAHN AHN20160510045511805/10/16 04:55:31  5-MIN KAHN 100955Z AUTO 00000KT 10SM BKN065 OVC080 17/14 A3013 620 83 1100 000/00 RMK AO2 T01720144
13873KAHN AHN20160510050011105/10/16 05:00:31  5-MIN KAHN 101000Z AUTO 00000KT 10SM OVC070 17/14 A3013 620 83 1100 000/00 RMK AO2 T01720144
13873KAHN AHN20160510050511105/10/16 05:05:31  5-MIN KAHN 101005Z AUTO 00000KT 10SM OVC070 17/14 A3013 610 83 1100 000/00 RMK AO2 T01720144
13873KAHN AHN20160510051011805/10/16 05:10:31  5-MIN KAHN 101010Z AUTO 00000KT 10SM BKN065 OVC080 17/14 A3013 610 86 1000 000/00 RMK AO2 T01670144
13873KAHN AHN20160510051511805/10/16 05:15:31  5-MIN KAHN 101015Z AUTO 00000KT 10SM BKN070 OVC080 17/14 A3013 610 80 1100 000/00 RMK AO2 T01720139
13873KAHN AHN20160510052011805/10/16 05:20:31  5-MIN KAHN 101020Z AUTO 00000KT 10SM BKN065 OVC080 17/14 A3014 610 80 1100 000/00 RMK AO2 T01720139
13873KAHN AHN20160510052511805/10/16 05:25:31  5-MIN KAHN 101025Z AUTO 00000KT 10SM BKN070 OVC080 17/14 A3014 610 80 1100 000/00 RMK AO2 T01720139
13873KAHN AHN20160510053011805/10/16 05:30:31  5-MIN KAHN 101030Z AUTO 00000KT 10SM BKN065 BKN080 17/14 A3014 610 80 1000 000/00 RMK AO2 T01720139
13873KAHN AHN20160510053511805/10/16 05:35:31  5-MIN KAHN 101035Z AUTO 00000KT 10SM SCT065 BKN080 17/14 A3015 600 80 1000 000/00 RMK AO2 T01720139
13873KAHN AHN20160510054011805/10/16 05:40:31  5-MIN KAHN 101040Z AUTO 00000KT 10SM FEW065 SCT080 17/14 A3014 610 83 1000 000/00 RMK AO2 T01720144
13873KAHN AHN20160510054513205/10/16 05:45:31  5-MIN KAHN 101045Z AUTO 00000KT 10SM FEW065 SCT080 BKN110 17/14 A3014 610 86 1000 000/00 RMK AO2 SLP202 T01670144
13873KAHN AHN20160510055014805/10/16 05:50:31  5-MIN KAHN 101050Z AUTO 00000KT 10SM -RA FEW065 SCT080 BKN110 17/14 A3014 610 86 1000 000/00 RMK AO2 RAB46 SLP202 P0000 T01670144
13873KAHN AHN20160510055512805/10/16 05:55:31  5-MIN KAHN 101055Z AUTO 00000KT 10SM -RA FEW070 FEW110 17/15 A3014 610 87 1000 000/00 RMK AO2 P0000 T01720150
13873KAHN AHN20160510060012505/10/16 06:00:31  5-MIN KAHN 101100Z AUTO 00000KT 10SM FEW110 17/15 A3014 610 90 1000 000/00 RMK AO2 RAE1057 P0000 T01670150
13873KAHN AHN20160510060512505/10/16 06:05:31  5-MIN KAHN 101105Z AUTO 00000KT 10SM FEW110 17/15 A3014 600 90 1000 000/00 RMK AO2 RAE1057 P0000 T01670150
13873KAHN AHN20160510061012505/10/16 06:10:31  5-MIN KAHN 101110Z AUTO 00000KT 10SM FEW065 17/15 A3015 600 90 1000 000/00 RMK AO2 RAE1057 P0000 T01670150
13873KAHN AHN20160510061512205/10/16 06:15:31  5-MIN KAHN 101115Z AUTO 00000KT 10SM CLR 17/15 A3015 600 90 1000 000/00 RMK AO2 RAE1057 P0000 T01670150
13873KAHN AHN20160510062012205/10/16 06:20:31  5-MIN KAHN 101120Z AUTO 00000KT 10SM CLR 17/14 A3015 600 86 1000 000/00 RMK AO2 RAE1057 P0000 T01670144
13873KAHN AHN20160510062512205/10/16 06:25:31  5-MIN KAHN 101125Z AUTO 00000KT 10SM CLR 17/14 A3015 590 86 1000 000/00 RMK AO2 RAE1057 P0000 T01670144
13873KAHN AHN20160510063012205/10/16 06:30:31  5-MIN KAHN 101130Z AUTO 00000KT 10SM CLR 17/15 A3016 590 87 1000 000/00 RMK AO2 RAE1057 P0000 T01720150
13873KAHN AHN20160510063512505/10/16 06:35:31  5-MIN KAHN 101135Z AUTO 00000KT 10SM FEW070 17/16 A3016 590 90 1000 000/00 RMK AO2 RAE1057 P0000 T01720156
13873KAHN AHN20160510064012005/10/16 06:40:31  5-MIN KAHN 101140Z 00000KT 10SM SCT070 18/16 A3016 590 87 1100 000/00 RMK AO2 RAE1057 P0000 T01780156
13873KAHN AHN20160510064515105/10/16 06:45:31  5-MIN KAHN 101145Z 00000KT 10SM FEW070 18/16 A3016 590 87 1100 000/00 RMK AO2 RAE1057 SLP207 P0000 60000 T01780156 10178 20161 53010
13873KAHN AHN20160510065015105/10/16 06:50:31  5-MIN KAHN 101150Z 00000KT 10SM FEW070 18/15 A3016 590 81 1200 000/00 RMK AO2 RAE1057 SLP206 P0000 60000 T01830150 10183 20161 53010
13873KAHN AHN20160510065510605/10/16 06:55:31  5-MIN KAHN 101155Z 00000KT 10SM FEW070 18/15 A3015 600 81 1200 000/00 RMK AO2 T01830150
13873KAHN AHN20160510070010605/10/16 07:00:31  5-MIN KAHN 101200Z 00000KT 10SM FEW070 19/14 A3016 590 75 1200 000/00 RMK AO2 T01890144
13873KAHN AHN20160510070510605/10/16 07:05:31  5-MIN KAHN 101205Z 00000KT 10SM FEW070 19/13 A3016 590 70 1200 000/00 RMK AO2 T01890133
13873KAHN AHN20160510071010305/10/16 07:10:31  5-MIN KAHN 101210Z 00000KT 10SM CLR 19/14 A3016 590 70 1300 000/00 RMK AO2 T01940139
13873KAHN AHN20160510071510305/10/16 07:15:31  5-MIN KAHN 101215Z VRB03KT 10SM CLR 21/13 A3016 590 63 1400 VRB/03 RMK AO2 T02060133
13873KAHN AHN20160510072010305/10/16 07:20:31  5-MIN KAHN 101220Z 20003KT 10SM CLR 21/13 A3016 590 63 1400 200/03 RMK AO2 T02060133
13873KAHN AHN20160510072510305/10/16 07:25:31  5-MIN KAHN 101225Z 00000KT 10SM CLR 21/13 A3016 590 63 1400 000/00 RMK AO2 T02060133
13873KAHN AHN20160510073010305/10/16 07:30:31  5-MIN KAHN 101230Z 00000KT 10SM CLR 21/13 A3016 590 63 1400 000/00 RMK AO2 T02060133
13873KAHN AHN20160510073510305/10/16 07:35:31  5-MIN KAHN 101235Z 18003KT 10SM CLR 21/14 A3016 590 65 1400 190/03 RMK AO2 T02060139
13873KAHN AHN20160510074010305/10/16 07:40:31  5-MIN KAHN 101240Z 00000KT 10SM CLR 21/14 A3016 590 65 1400 000/00 RMK AO2 T02060139
13873KAHN AHN20160510074511005/10/16 07:45:31  5-MIN KAHN 101245Z VRB03KT 10SM CLR 21/14 A3016 590 63 1500 VRB/03 RMK AO2 SLP208 T02110139
13873KAHN AHN20160510075011005/10/16 07:50:31  5-MIN KAHN 101250Z 21003KT 10SM CLR 21/14 A3016 590 63 1500 210/03 RMK AO2 SLP207 T02110139
13873KAHN AHN20160510075510305/10/16 07:55:31  5-MIN KAHN 101255Z 18003KT 10SM CLR 22/14 A3016 590 61 1500 180/03 RMK AO2 T02170139
13873KAHN AHN20160510080010305/10/16 08:00:31  5-MIN KAHN 101300Z VRB03KT 10SM CLR 22/14 A3016 590 59 1600 VRB/03 RMK AO2 T02220139
13873KAHN AHN20160510080510305/10/16 08:05:31  5-MIN KAHN 101305Z VRB03KT 10SM CLR 22/14 A3016 590 61 1600 VRB/03 RMK AO2 T02220144
13873KAHN AHN20160510081010305/10/16 08:10:31  5-MIN KAHN 101310Z 19003KT 10SM CLR 22/14 A3016 590 61 1600 190/03 RMK AO2 T02220144
13873KAHN AHN20160510081510305/10/16 08:15:31  5-MIN KAHN 101315Z 19004KT 10SM CLR 22/14 A3016 590 61 1600 190/04 RMK AO2 T02220144
13873KAHN AHN20160510082010305/10/16 08:20:31  5-MIN KAHN 101320Z 00000KT 10SM CLR 22/14 A3015 600 61 1600 000/00 RMK AO2 T02220144
13873KAHN AHN20160510082510305/10/16 08:25:31  5-MIN KAHN 101325Z 18004KT 10SM CLR 23/14 A3015 600 59 1700 190/04 RMK AO2 T02280144
13873KAHN AHN20160510083010305/10/16 08:30:31  5-MIN KAHN 101330Z 21004KT 10SM CLR 23/14 A3016 590 59 1700 220/04 RMK AO2 T02280144
13873KAHN AHN20160510083510305/10/16 08:35:31  5-MIN KAHN 101335Z 00000KT 10SM CLR 23/14 A3015 600 59 1700 000/00 RMK AO2 T02280144
13873KAHN AHN20160510084010305/10/16 08:40:31  5-MIN KAHN 101340Z 00000KT 10SM CLR 23/15 A3016 590 59 1700 000/00 RMK AO2 T02330150
13873KAHN AHN20160510084511005/10/16 08:45:31  5-MIN KAHN 101345Z 21004KT 10SM CLR 24/15 A3016 590 57 1800 210/04 RMK AO2 SLP207 T02390150
13873KAHN AHN20160510085011005/10/16 08:50:31  5-MIN KAHN 101350Z VRB04KT 10SM CLR 24/15 A3016 590 57 1800 VRB/04 RMK AO2 SLP208 T02390150
13873KAHN AHN20160510085510305/10/16 08:55:31  5-MIN KAHN 101355Z 20003KT 10SM CLR 24/15 A3016 590 57 1800 200/03 RMK AO2 T02390150
13873KAHN AHN20160510090010305/10/16 09:00:31  5-MIN KAHN 101400Z 21004KT 10SM CLR 24/15 A3016 590 55 1900 220/04 RMK AO2 T02440150
13873KAHN AHN20160510090510305/10/16 09:05:31  5-MIN KAHN 101405Z VRB04KT 10SM CLR 24/15 A3017 580 55 1900 VRB/04 RMK AO2 T02440150
13873KAHN AHN20160510091010305/10/16 09:10:31  5-MIN KAHN 101410Z VRB03KT 10SM CLR 25/15 A3017 580 53 1900 VRB/03 RMK AO2 T02500150
13873KAHN AHN20160510091510305/10/16 09:15:31  5-MIN KAHN 101415Z 00000KT 10SM CLR 25/15 A3017 580 53 1900 000/00 RMK AO2 T02500150
13873KAHN AHN20160510092010305/10/16 09:20:31  5-MIN KAHN 101420Z 00000KT 10SM CLR 26/15 A3016 590 51 2000 000/00 RMK AO2 T02560150
13873KAHN AHN20160510092510305/10/16 09:25:31  5-MIN KAHN 101425Z 00000KT 10SM CLR 26/15 A3017 580 51 2000 000/00 RMK AO2 T02560150
13873KAHN AHN20160510093010305/10/16 09:30:31  5-MIN KAHN 101430Z 00000KT 10SM CLR 26/15 A3016 590 51 2000 000/00 RMK AO2 T02560150
13873KAHN AHN20160510093510305/10/16 09:35:31  5-MIN KAHN 101435Z 00000KT 10SM CLR 25/15 A3016 590 53 1900 000/00 RMK AO2 T02500150
13873KAHN AHN20160510094010305/10/16 09:40:31  5-MIN KAHN 101440Z VRB03KT 10SM CLR 26/14 A3016 590 49 2000 VRB/03 RMK AO2 T02560144
13873KAHN AHN20160510094511605/10/16 09:45:31  5-MIN KAHN 101445Z VRB03KT 10SM CLR 26/15 A3016 590 50 2000 VRB/03 RMK AO2 SLP208 T02610150 51012
13873KAHN AHN20160510095011605/10/16 09:50:31  5-MIN KAHN 101450Z VRB03KT 10SM CLR 26/15 A3016 590 50 2000 VRB/03 RMK AO2 SLP208 T02610150 51012
13873KAHN AHN20160510095510305/10/16 09:55:31  5-MIN KAHN 101455Z VRB04KT 10SM CLR 27/14 A3016 590 46 2100 VRB/04 RMK AO2 T02670144
13873KAHN AHN20160510100010305/10/16 10:00:31  5-MIN KAHN 101500Z VRB05KT 10SM CLR 26/14 A3016 590 48 2000 VRB/05 RMK AO2 T02610144
13873KAHN AHN20160510100510305/10/16 10:05:31  5-MIN KAHN 101505Z VRB05KT 10SM CLR 26/14 A3017 580 48 2000 VRB/05 RMK AO2 T02610144
13873KAHN AHN20160510101010305/10/16 10:10:31  5-MIN KAHN 101510Z VRB05KT 10SM CLR 26/14 A3017 580 46 2000 VRB/05 RMK AO2 T02610139
13873KAHN AHN20160510101510305/10/16 10:15:31  5-MIN KAHN 101515Z VRB03KT 10SM CLR 26/14 A3017 580 46 2000 VRB/03 RMK AO2 T02610139
13873KAHN AHN20160510102010305/10/16 10:20:31  5-MIN KAHN 101520Z VRB06KT 10SM CLR 26/14 A3017 580 46 2000 VRB/06 RMK AO2 T02610139
13873KAHN AHN20160510102510305/10/16 10:25:31  5-MIN KAHN 101525Z VRB06KT 10SM CLR 26/13 A3017 580 44 2000 VRB/06 RMK AO2 T02610133
13873KAHN AHN20160510103010305/10/16 10:30:31  5-MIN KAHN 101530Z 20007KT 10SM CLR 27/13 A3017 580 43 2100 210/07 RMK AO2 T02670133
13873KAHN AHN20160510103510305/10/16 10:35:31  5-MIN KAHN 101535Z 19006KT 10SM CLR 27/13 A3017 580 43 2100 200/06 RMK AO2 T02670133
13873KAHN AHN20160510104010305/10/16 10:40:31  5-MIN KAHN 101540Z 23006KT 10SM CLR 27/13 A3017 580 42 2200 230/06 RMK AO2 T02720133
13873KAHN AHN20160510104511005/10/16 10:45:31  5-MIN KAHN 101545Z 19005KT 10SM CLR 28/14 A3017 580 42 2200 190/05 RMK AO2 SLP210 T02780139
13873KAHN AHN20160510105011005/10/16 10:50:31  5-MIN KAHN 101550Z VRB06KT 10SM CLR 28/14 A3017 580 42 2200 VRB/06 RMK AO2 SLP210 T02780139
13873KAHN AHN20160510105510905/10/16 10:55:31  5-MIN KAHN 101555Z 24007G17KT 10SM CLR 28/13 A3017 580 40 2200 250/07G17 RMK AO2 T02780133
13873KAHN AHN20160510110012505/10/16 11:00:31  5-MIN KAHN 101600Z 21007G17KT 170V270 10SM CLR 28/13 A3017 580 39 2300 220/07G17 180V280 RMK AO2 T02830133
13873KAHN AHN20160510110511905/10/16 11:05:31  5-MIN KAHN 101605Z 20007KT 170V230 10SM CLR 27/13 A3017 580 42 2200 210/07 180V240 RMK AO2 T02720133
13873KAHN AHN20160510111010905/10/16 11:10:31  5-MIN KAHN 101610Z 20008G14KT 10SM CLR 27/13 A3017 580 43 2100 210/08G14 RMK AO2 T02670133
13873KAHN AHN20160510111512505/10/16 11:15:31  5-MIN KAHN 101615Z 20007G14KT 170V230 10SM CLR 27/13 A3017 580 43 2100 210/07G14 180V240 RMK AO2 T02670133
13873KAHN AHN20160510112010305/10/16 11:20:31  5-MIN KAHN 101620Z 21008KT 10SM CLR 27/14 A3017 580 45 2100 210/08 RMK AO2 T02670139
13873KAHN AHN20160510112510305/10/16 11:25:31  5-MIN KAHN 101625Z VRB04KT 10SM CLR 28/14 A3017 580 42 2200 VRB/04 RMK AO2 T02780139
13873KAHN AHN20160510113010305/10/16 11:30:31  5-MIN KAHN 101630Z 19006KT 10SM CLR 28/14 A3016 590 42 2300 190/06 RMK AO2 T02830144
13873KAHN AHN20160510113511905/10/16 11:35:31  5-MIN KAHN 101635Z 19007KT 160V250 10SM CLR 28/13 A3016 590 39 2300 200/07 170V260 RMK AO2 T02830133
13873KAHN AHN20160510114010305/10/16 11:40:31  5-MIN KAHN 101640Z 19006KT 10SM CLR 28/13 A3016 590 39 2200 200/06 RMK AO2 T02780128
13873KAHN AHN20160510114512605/10/16 11:45:31  5-MIN KAHN 101645Z 19008KT 160V230 10SM CLR 28/12 A3016 590 36 2200 200/08 170V240 RMK AO2 SLP206 T02780117
13873KAHN AHN20160510115011005/10/16 11:50:31  5-MIN KAHN 101650Z VRB05KT 10SM CLR 28/12 A3016 590 36 2300 VRB/05 RMK AO2 SLP205 T02830122
13873KAHN AHN20160510115511905/10/16 11:55:31  5-MIN KAHN 101655Z 21008KT 160V270 10SM CLR 29/12 A3015 600 35 2400 210/08 170V280 RMK AO2 T02890122
13873KAHN AHN20160510120010305/10/16 12:00:31  5-MIN KAHN 101700Z VRB06KT 10SM CLR 29/12 A3015 600 33 2400 VRB/06 RMK AO2 T02940117
13873KAHN AHN20160510120510305/10/16 12:05:31  5-MIN KAHN 101705Z 22006KT 10SM CLR 29/11 A3015 600 31 2400 230/06 RMK AO2 T02940111
13873KAHN AHN20160510121010905/10/16 12:10:31  5-MIN KAHN 101710Z 18009G17KT 10SM CLR 29/10 A3015 600 29 2400 190/09G17 RMK AO2 T02940100
13873KAHN AHN20160510121510905/10/16 12:15:31  5-MIN KAHN 101715Z VRB05G17KT 10SM CLR 29/10 A3015 600 29 2400 VRB/05G17 RMK AO2 T02940100
13873KAHN AHN20160510122011905/10/16 12:20:31  5-MIN KAHN 101720Z 22007KT 170V260 10SM CLR 30/10 A3015 600 28 2500 220/07 180V270 RMK AO2 T03000100
13873KAHN AHN20160510122511905/10/16 12:25:31  5-MIN KAHN 101725Z 19007KT 160V230 10SM CLR 30/11 A3015 600 29 2500 190/07 170V240 RMK AO2 T03000106
13873KAHN AHN20160510123010305/10/16 12:30:31  5-MIN KAHN 101730Z VRB05KT 10SM CLR 29/11 A3015 600 30 2400 VRB/05 RMK AO2 T02940106
13873KAHN AHN20160510123510305/10/16 12:35:31  5-MIN KAHN 101735Z VRB05KT 10SM CLR 29/11 A3014 600 31 2400 VRB/05 RMK AO2 T02940111
13873KAHN AHN20160510124012505/10/16 12:40:31  5-MIN KAHN 101740Z 21009G15KT 170V230 10SM CLR 29/12 A3014 600 33 2400 210/09G15 180V240 RMK AO2 T02940117
13873KAHN AHN20160510124513405/10/16 12:45:31  5-MIN KAHN 101745Z VRB05G15KT 10SM CLR 29/12 A3014 610 34 2400 VRB/05G15 RMK AO2 SLP201 T02890117 10300 20183 51002
13873KAHN AHN20160510125012805/10/16 12:50:31  5-MIN KAHN 101750Z 17005KT 10SM CLR 29/12 A3014 610 33 2400 180/05 RMK AO2 SLP201 T02940117 10300 20183 51002
13873KAHN AHN20160510125511905/10/16 12:55:31  5-MIN KAHN 101755Z 19007KT 160V220 10SM CLR 30/12 A3014 610 33 2500 200/07 170V230 RMK AO2 T03000122
13873KAHN AHN20160510130010905/10/16 13:00:31  5-MIN KAHN 101800Z 18005G16KT 10SM CLR 29/12 A3014 610 33 2400 180/05G16 RMK AO2 T02940117
13873KAHN AHN20160510130510905/10/16 13:05:31  5-MIN KAHN 101805Z VRB06G16KT 10SM CLR 30/12 A3013 620 33 2500 VRB/06G16 RMK AO2 T03000122
13873KAHN AHN20160510131011905/10/16 13:10:31  5-MIN KAHN 101810Z 22008KT 180V250 10SM CLR 30/12 A3013 610 33 2500 220/08 190V260 RMK AO2 T03000122
13873KAHN AHN20160510131510305/10/16 13:15:31  5-MIN KAHN 101815Z 20008KT 10SM CLR 29/12 A3013 610 34 2400 210/08 RMK AO2 T02940122
13873KAHN AHN20160510132010305/10/16 13:20:31  5-MIN KAHN 101820Z 19007KT 10SM CLR 29/12 A3013 610 33 2400 190/07 RMK AO2 T02940117
13873KAHN AHN20160510132510305/10/16 13:25:31  5-MIN KAHN 101825Z VRB05KT 10SM CLR 29/12 A3013 610 34 2400 VRB/05 RMK AO2 T02940122
13873KAHN AHN20160510133010305/10/16 13:30:31  5-MIN KAHN 101830Z VRB06KT 10SM CLR 30/12 A3013 620 33 2500 VRB/06 RMK AO2 T03000122
13873KAHN AHN20160510133510605/10/16 13:35:31  5-MIN KAHN 101835Z VRB05KT 10SM FEW120 29/12 A3013 620 34 2500 VRB/05 RMK AO2 T02940122
13873KAHN AHN20160510134009605/10/16 13:40:31  5-MIN KAHN 101840Z 10SM FEW120 30/12 A3013 620 33 2500 M /M RMK AO2 T03000122
13873KAHN AHN20160510134511005/10/16 13:45:31  5-MIN KAHN 101845Z 22008KT 10SM CLR 30/12 A3012 620 33 2500 220/08 RMK AO2 SLP194 T03000122
13873KAHN AHN20160510135011005/10/16 13:50:31  5-MIN KAHN 101850Z VRB05KT 10SM CLR 30/13 A3012 620 34 2500 VRB/05 RMK AO2 SLP195 T03000128
13873KAHN AHN20160510135510905/10/16 13:55:31  5-MIN KAHN 101855Z 20010G17KT 10SM CLR 30/12 A3012 620 33 2500 210/10G17 RMK AO2 T03000122
13873KAHN AHN20160510140012505/10/16 14:00:31  5-MIN KAHN 101900Z 19007G17KT 150V220 10SM CLR 29/12 A3012 630 33 2500 190/07G17 160V230 RMK AO2 T02940117
13873KAHN AHN20160510140511205/10/16 14:05:31  5-MIN KAHN 101905Z VRB04G14KT 10SM FEW090 29/12 A3012 620 34 2400 VRB/04G14 RMK AO2 T02890117
13873KAHN AHN20160510141010605/10/16 14:10:31  5-MIN KAHN 101910Z VRB06KT 10SM FEW090 29/12 A3012 620 34 2400 VRB/06 RMK AO2 T02890117
13873KAHN AHN20160510141510605/10/16 14:15:31  5-MIN KAHN 101915Z VRB05KT 10SM FEW090 30/12 A3012 620 33 2500 VRB/05 RMK AO2 T03000122
13873KAHN AHN20160510142010605/10/16 14:20:31  5-MIN KAHN 101920Z VRB05KT 10SM SCT085 30/12 A3012 630 31 2500 VRB/05 RMK AO2 T03000117
13873KAHN AHN20160510142512205/10/16 14:25:31  5-MIN KAHN 101925Z 20007KT 170V230 10SM SCT090 30/12 A3012 630 31 2500 200/07 180V240 RMK AO2 T03000117
13873KAHN AHN20160510143010605/10/16 14:30:31  5-MIN KAHN 101930Z 20008KT 10SM SCT090 28/12 A3012 630 35 2300 200/08 RMK AO2 T02830117
13873KAHN AHN20160510143512205/10/16 14:35:31  5-MIN KAHN 101935Z 17007KT 110V190 10SM SCT085 29/12 A3012 630 34 2500 170/07 120V200 RMK AO2 T02940122
13873KAHN AHN20160510144010605/10/16 14:40:31  5-MIN KAHN 101940Z 21006KT 10SM SCT085 29/12 A3012 630 34 2500 210/06 RMK AO2 T02940122
13873KAHN AHN20160510144511305/10/16 14:45:31  5-MIN KAHN 101945Z 21007KT 10SM FEW085 30/12 A3011 630 33 2500 210/07 RMK AO2 SLP191 T03000122
13873KAHN AHN20160510145012905/10/16 14:50:31  5-MIN KAHN 101950Z 20007KT 170V250 10SM FEW080 29/12 A3011 630 34 2400 200/07 180V260 RMK AO2 SLP190 T02890117
13873KAHN AHN20160510145510605/10/16 14:55:31  5-MIN KAHN 101955Z VRB06KT 10SM FEW080 28/12 A3011 640 35 2400 VRB/06 RMK AO2 T02830117
13873KAHN AHN20160510150010605/10/16 15:00:31  5-MIN KAHN 102000Z 21006KT 10SM FEW090 29/12 A3011 630 34 2400 210/06 RMK AO2 T02890117
13873KAHN AHN20160510150510605/10/16 15:05:31  5-MIN KAHN 102005Z 18006KT 10SM FEW095 29/12 A3011 640 33 2500 190/06 RMK AO2 T02940117
13873KAHN AHN20160510151012205/10/16 15:10:31  5-MIN KAHN 102010Z 20007KT 170V240 10SM FEW090 29/11 A3011 640 31 2400 200/07 180V250 RMK AO2 T02890106
13873KAHN AHN20160510151510605/10/16 15:15:31  5-MIN KAHN 102015Z VRB06KT 10SM FEW085 29/11 A3011 640 31 2500 VRB/06 RMK AO2 T02940111
13873KAHN AHN20160510152010605/10/16 15:20:31  5-MIN KAHN 102020Z 21005KT 10SM FEW085 29/11 A3010 640 30 2500 210/05 RMK AO2 T02940106
13873KAHN AHN20160510152512205/10/16 15:25:31  5-MIN KAHN 102025Z 23007KT 190V270 10SM FEW085 29/12 A3011 640 33 2500 230/07 200V280 RMK AO2 T02940117
13873KAHN AHN20160510153012205/10/16 15:30:31  5-MIN KAHN 102030Z 22007KT 180V250 10SM FEW080 30/12 A3011 640 31 2500 220/07 190V260 RMK AO2 T03000117
13873KAHN AHN20160510153511205/10/16 15:35:31  5-MIN KAHN 102035Z VRB06G18KT 10SM FEW080 29/12 A3010 640 33 2500 VRB/06G18 RMK AO2 T02940117
13873KAHN AHN20160510154012205/10/16 15:40:31  5-MIN KAHN 102040Z AUTO 18007G18KT 10SM FEW080 29/12 A3010 640 33 2500 190/07G18 RMK AO2 T02940117 TSNO
13873KAHN AHN20160510154511905/10/16 15:45:31  5-MIN KAHN 102045Z VRB05KT 10SM SCT080 29/11 A3010 640 31 2500 VRB/05 RMK AO2 SLP187 T02940111 58007
13873KAHN AHN20160510155014105/10/16 15:50:31  5-MIN KAHN 102050Z 24009G14KT 210V270 10SM SCT080 29/12 A3010 640 33 2500 250/09G14 220V280 RMK AO2 SLP186 T02940117 58007
13873KAHN AHN20160510155511205/10/16 15:55:31  5-MIN KAHN 102055Z 23006G14KT 10SM FEW080 30/12 A3010 640 31 2500 240/06G14 RMK AO2 T03000117
13873KAHN AHN20160510160010605/10/16 16:00:31  5-MIN KAHN 102100Z 24004KT 10SM FEW080 29/12 A3010 650 34 2400 250/04 RMK AO2 T02890117
13873KAHN AHN20160510160510605/10/16 16:05:31  5-MIN KAHN 102105Z VRB06KT 10SM FEW080 30/12 A3010 650 33 2500 VRB/06 RMK AO2 T03000122
13873KAHN AHN20160510161010605/10/16 16:10:31  5-MIN KAHN 102110Z VRB05KT 10SM FEW080 30/12 A3010 650 33 2500 VRB/05 RMK AO2 T03000122
13873KAHN AHN20160510161512205/10/16 16:15:31  5-MIN KAHN 102115Z 19007KT 160V260 10SM FEW080 28/12 A3010 650 36 2400 200/07 170V270 RMK AO2 T02830122
13873KAHN AHN20160510162010305/10/16 16:20:31  5-MIN KAHN 102120Z 18006KT 10SM CLR 27/12 A3010 650 39 2200 190/06 RMK AO2 T02720122
13873KAHN AHN20160510162510605/10/16 16:25:31  5-MIN KAHN 102125Z VRB06KT 10SM FEW090 27/12 A3010 650 39 2200 VRB/06 RMK AO2 T02720122
13873KAHN AHN20160510163010605/10/16 16:30:31  5-MIN KAHN 102130Z 21007KT 10SM SCT090 27/12 A3010 640 39 2200 220/07 RMK AO2 T02720122
13873KAHN AHN20160510163510605/10/16 16:35:31  5-MIN KAHN 102135Z VRB05KT 10SM SCT095 28/12 A3010 640 36 2300 VRB/05 RMK AO2 T02780117
13873KAHN AHN20160510164012205/10/16 16:40:31  5-MIN KAHN 102140Z 22007KT 180V260 10SM FEW095 28/12 A3010 640 36 2400 230/07 190V270 RMK AO2 T02830122
13873KAHN AHN20160510164512005/10/16 16:45:31  5-MIN KAHN 102145Z 23008KT 10SM FEW075 SCT095 28/12 A3010 640 35 2400 240/08 RMK AO2 SLP188 T02830117
13873KAHN AHN20160510165012005/10/16 16:50:31  5-MIN KAHN 102150Z VRB05KT 10SM FEW075 SCT095 28/12 A3010 640 35 2400 VRB/05 RMK AO2 SLP188 T02830117
13873KAHN AHN20160510165511305/10/16 16:55:31  5-MIN KAHN 102155Z VRB06KT 10SM FEW075 FEW095 28/12 A3010 640 35 2400 VRB/06 RMK AO2 T02830117
13873KAHN AHN20160510170010605/10/16 17:00:31  5-MIN KAHN 102200Z 23005KT 10SM FEW075 27/12 A3010 640 37 2200 240/05 RMK AO2 T02720117
13873KAHN AHN20160510170510605/10/16 17:05:31  5-MIN KAHN 102205Z 21005KT 10SM FEW075 28/12 A3010 640 37 2300 220/05 RMK AO2 T02780122
13873KAHN AHN20160510171010605/10/16 17:10:31  5-MIN KAHN 102210Z VRB04KT 10SM FEW075 28/12 A3010 640 37 2300 VRB/04 RMK AO2 T02780122
13873KAHN AHN20160510171510605/10/16 17:15:31  5-MIN KAHN 102215Z 21006KT 10SM FEW070 27/13 A3010 650 40 2200 220/06 RMK AO2 T02720128
13873KAHN AHN20160510172012205/10/16 17:20:31  5-MIN KAHN 102220Z 21007KT 170V240 10SM FEW070 28/13 A3010 650 39 2300 220/07 180V250 RMK AO2 T02780128
13873KAHN AHN20160510172512205/10/16 17:25:31  5-MIN KAHN 102225Z 21007KT 190V250 10SM FEW070 28/12 A3010 650 37 2300 210/07 200V260 RMK AO2 T02780122
13873KAHN AHN20160510173010605/10/16 17:30:31  5-MIN KAHN 102230Z 19004KT 10SM FEW070 28/13 A3010 650 39 2300 190/04 RMK AO2 T02780128
13873KAHN AHN20160510173510605/10/16 17:35:31  5-MIN KAHN 102235Z VRB05KT 10SM FEW070 28/13 A3010 650 39 2300 VRB/05 RMK AO2 T02780128
13873KAHN AHN20160510174010605/10/16 17:40:31  5-MIN KAHN 102240Z VRB05KT 10SM FEW070 28/13 A3010 650 39 2300 VRB/05 RMK AO2 T02780128
13873KAHN AHN20160510174511005/10/16 17:45:31  5-MIN KAHN 102245Z 19005KT 10SM CLR 28/13 A3010 650 40 2300 200/05 RMK AO2 SLP185 T02780133
13873KAHN AHN20160510175011005/10/16 17:50:31  5-MIN KAHN 102250Z 19007KT 10SM CLR 28/13 A3009 650 40 2300 190/07 RMK AO2 SLP185 T02780133
13873KAHN AHN20160510175510305/10/16 17:55:31  5-MIN KAHN 102255Z 19005KT 10SM CLR 27/13 A3009 650 40 2200 190/05 RMK AO2 T02720128
13873KAHN AHN20160510180010305/10/16 18:00:31  5-MIN KAHN 102300Z VRB06KT 10SM CLR 27/13 A3010 650 42 2200 VRB/06 RMK AO2 T02720133
13873KAHN AHN20160510180510305/10/16 18:05:31  5-MIN KAHN 102305Z VRB03KT 10SM CLR 27/13 A3010 650 40 2200 VRB/03 RMK AO2 T02720128
13873KAHN AHN20160510181010305/10/16 18:10:31  5-MIN KAHN 102310Z VRB06KT 10SM CLR 27/13 A3010 650 43 2200 VRB/06 RMK AO2 T02670133
13873KAHN AHN20160510181510305/10/16 18:15:31  5-MIN KAHN 102315Z VRB05KT 10SM CLR 26/13 A3010 640 43 2100 VRB/05 RMK AO2 T02610128
13873KAHN AHN20160510182011905/10/16 18:20:31  5-MIN KAHN 102320Z 20007KT 160V230 10SM CLR 26/13 A3010 640 44 2100 200/07 170V240 RMK AO2 T02610133
13873KAHN AHN20160510182510605/10/16 18:25:31  5-MIN KAHN 102325Z 20005KT 10SM SCT070 26/13 A3010 640 44 2100 200/05 RMK AO2 T02610133
13873KAHN AHN20160510183010605/10/16 18:30:31  5-MIN KAHN 102330Z 21005KT 10SM BKN070 26/13 A3011 640 44 2100 210/05 RMK AO2 T02610133
13873KAHN AHN20160510183510605/10/16 18:35:31  5-MIN KAHN 102335Z VRB05KT 10SM BKN070 26/13 A3011 640 44 2100 VRB/05 RMK AO2 T02610133
13873KAHN AHN20160510184010605/10/16 18:40:31  5-MIN KAHN 102340Z VRB04KT 10SM BKN075 26/13 A3011 640 44 2100 VRB/04 RMK AO2 T02610133
13873KAHN AHN20160510184513105/10/16 18:45:31  5-MIN KAHN 102345Z VRB03KT 10SM BKN075 26/13 A3011 640 44 2100 VRB/03 RMK AO2 SLP189 T02610133 10306 20261 56013
13873KAHN AHN20160510185013105/10/16 18:50:31  5-MIN KAHN 102350Z 20005KT 10SM OVC075 26/13 A3011 640 44 2100 210/05 RMK AO2 SLP189 T02610133 10306 20261 56013
13873KAHN AHN20160510185511105/10/16 18:55:31  5-MIN KAHN 102355Z AUTO 21005KT 10SM OVC075 26/13 A3011 640 46 2000 210/05 RMK AO2 T02560133
13873KAHN AHN20160510190011105/10/16 19:00:31  5-MIN KAHN 110000Z AUTO 20004KT 10SM OVC075 26/14 A3011 640 48 2000 200/04 RMK AO2 T02560139
13873KAHN AHN20160510190511105/10/16 19:05:31  5-MIN KAHN 110005Z AUTO VRB06KT 10SM OVC075 26/13 A3011 630 46 2000 VRB/06 RMK AO2 T02560133
13873KAHN AHN20160510191011105/10/16 19:10:31  5-MIN KAHN 110010Z AUTO 20005KT 10SM OVC075 26/14 A3011 630 48 2000 210/05 RMK AO2 T02560139
13873KAHN AHN20160510191511105/10/16 19:15:31  5-MIN KAHN 110015Z AUTO VRB04KT 10SM OVC075 25/14 A3012 630 49 2000 VRB/04 RMK AO2 T02500139
13873KAHN AHN20160510192011105/10/16 19:20:31  5-MIN KAHN 110020Z AUTO VRB03KT 10SM OVC075 25/14 A3012 630 49 2000 VRB/03 RMK AO2 T02500139
13873KAHN AHN20160510192511105/10/16 19:25:31  5-MIN KAHN 110025Z AUTO VRB06KT 10SM OVC075 25/14 A3012 630 49 2000 VRB/06 RMK AO2 T02500139
13873KAHN AHN20160510193011105/10/16 19:30:31  5-MIN KAHN 110030Z AUTO 21005KT 10SM BKN075 25/14 A3012 630 49 2000 220/05 RMK AO2 T02500139
13873KAHN AHN20160510193511105/10/16 19:35:31  5-MIN KAHN 110035Z AUTO 20004KT 10SM BKN075 24/14 A3012 630 51 1900 200/04 RMK AO2 T02440139
13873KAHN AHN20160510194011105/10/16 19:40:31  5-MIN KAHN 110040Z AUTO 19004KT 10SM BKN075 24/14 A3012 630 51 1900 200/04 RMK AO2 T02440139
13873KAHN AHN20160510194511805/10/16 19:45:31  5-MIN KAHN 110045Z AUTO 19003KT 10SM BKN075 24/14 A3012 630 51 1900 190/03 RMK AO2 SLP193 T02440139
13873KAHN AHN20160510195011805/10/16 19:50:31  5-MIN KAHN 110050Z AUTO 18003KT 10SM SCT075 24/14 A3012 630 53 1800 190/03 RMK AO2 SLP193 T02390139
13873KAHN AHN20160510195511105/10/16 19:55:31  5-MIN KAHN 110055Z AUTO 17004KT 10SM FEW075 24/14 A3012 630 53 1800 180/04 RMK AO2 T02390139
13873KAHN AHN20160510200011105/10/16 20:00:31  5-MIN KAHN 110100Z AUTO 18003KT 10SM FEW075 23/14 A3012 630 55 1800 180/03 RMK AO2 T02330139
13873KAHN AHN20160510200511105/10/16 20:05:31  5-MIN KAHN 110105Z AUTO 18005KT 10SM FEW075 23/14 A3012 630 55 1800 180/05 RMK AO2 T02330139
13873KAHN AHN20160510201010805/10/16 20:10:31  5-MIN KAHN 110110Z AUTO 17005KT 10SM CLR 23/14 A3012 630 59 1700 180/05 RMK AO2 T02280144
13873KAHN AHN20160510201510805/10/16 20:15:31  5-MIN KAHN 110115Z AUTO 18005KT 10SM CLR 23/14 A3012 630 59 1700 180/05 RMK AO2 T02280144
13873KAHN AHN20160510202010805/10/16 20:20:31  5-MIN KAHN 110120Z AUTO 18005KT 10SM CLR 23/14 A3012 630 59 1700 190/05 RMK AO2 T02280144
13873KAHN AHN20160510202510805/10/16 20:25:31  5-MIN KAHN 110125Z AUTO 19004KT 10SM CLR 23/15 A3012 630 61 1700 190/04 RMK AO2 T02280150
13873KAHN AHN20160510203010805/10/16 20:30:31  5-MIN KAHN 110130Z AUTO 18005KT 10SM CLR 23/15 A3012 630 61 1700 190/05 RMK AO2 T02280150
13873KAHN AHN20160510203510805/10/16 20:35:31  5-MIN KAHN 110135Z AUTO 17004KT 10SM CLR 22/15 A3012 630 63 1700 180/04 RMK AO2 T02220150
13873KAHN AHN20160510204010805/10/16 20:40:31  5-MIN KAHN 110140Z AUTO 17004KT 10SM CLR 22/15 A3012 620 63 1600 180/04 RMK AO2 T02220150
13873KAHN AHN20160510204511505/10/16 20:45:31  5-MIN KAHN 110145Z AUTO 17004KT 10SM CLR 22/15 A3013 620 63 1600 180/04 RMK AO2 SLP195 T02220150
13873KAHN AHN20160510205011505/10/16 20:50:31  5-MIN KAHN 110150Z AUTO 18004KT 10SM CLR 22/16 A3013 620 65 1600 180/04 RMK AO2 SLP196 T02220156
13873KAHN AHN20160510205510805/10/16 20:55:31  5-MIN KAHN 110155Z AUTO 18004KT 10SM CLR 22/16 A3013 620 65 1600 190/04 RMK AO2 T02220156
13873KAHN AHN20160510210010805/10/16 21:00:31  5-MIN KAHN 110200Z AUTO 18005KT 10SM CLR 22/16 A3013 620 68 1600 190/05 RMK AO2 T02170156
13873KAHN AHN20160510210510805/10/16 21:05:31  5-MIN KAHN 110205Z AUTO 18004KT 10SM CLR 22/16 A3013 620 68 1600 180/04 RMK AO2 T02170156
13873KAHN AHN20160510211010805/10/16 21:10:31  5-MIN KAHN 110210Z AUTO 18004KT 10SM CLR 22/16 A3013 620 68 1600 190/04 RMK AO2 T02170156
13873KAHN AHN20160510211510805/10/16 21:15:31  5-MIN KAHN 110215Z AUTO 18004KT 10SM CLR 22/16 A3013 620 68 1600 190/04 RMK AO2 T02170156
13873KAHN AHN20160510212010805/10/16 21:20:31  5-MIN KAHN 110220Z AUTO 19004KT 10SM CLR 22/16 A3013 620 68 1600 190/04 RMK AO2 T02170156
13873KAHN AHN20160510212510805/10/16 21:25:31  5-MIN KAHN 110225Z AUTO 19004KT 10SM CLR 22/16 A3013 620 68 1600 190/04 RMK AO2 T02170156
13873KAHN AHN20160510213010805/10/16 21:30:31  5-MIN KAHN 110230Z AUTO 19003KT 10SM CLR 22/16 A3013 620 68 1600 200/03 RMK AO2 T02170156
13873KAHN AHN20160510213510805/10/16 21:35:31  5-MIN KAHN 110235Z AUTO VRB03KT 10SM CLR 22/16 A3013 620 68 1600 VRB/03 RMK AO2 T02170156
13873KAHN AHN20160510214010805/10/16 21:40:31  5-MIN KAHN 110240Z AUTO 18003KT 10SM CLR 22/16 A3013 610 68 1600 190/03 RMK AO2 T02170156
13873KAHN AHN20160510214512105/10/16 21:45:31  5-MIN KAHN 110245Z AUTO 17003KT 10SM CLR 21/16 A3013 610 70 1500 170/03 RMK AO2 SLP197 T02110156 53002
13873KAHN AHN20160510215012105/10/16 21:50:31  5-MIN KAHN 110250Z AUTO 17004KT 10SM CLR 21/16 A3014 610 70 1500 170/04 RMK AO2 SLP199 T02110156 53002
13873KAHN AHN20160510215510805/10/16 21:55:31  5-MIN KAHN 110255Z AUTO VRB03KT 10SM CLR 21/16 A3014 610 73 1400 VRB/03 RMK AO2 T02060156
13873KAHN AHN20160510220010805/10/16 22:00:31  5-MIN KAHN 110300Z AUTO 17003KT 10SM CLR 21/16 A3014 610 73 1400 170/03 RMK AO2 T02060156
13873KAHN AHN20160510220510805/10/16 22:05:31  5-MIN KAHN 110305Z AUTO 17003KT 10SM CLR 21/16 A3014 610 73 1400 180/03 RMK AO2 T02060156
13873KAHN AHN20160510221010805/10/16 22:10:31  5-MIN KAHN 110310Z AUTO 18004KT 10SM CLR 21/16 A3014 610 73 1400 180/04 RMK AO2 T02060156
13873KAHN AHN20160510221510805/10/16 22:15:31  5-MIN KAHN 110315Z AUTO 18003KT 10SM CLR 21/16 A3014 600 73 1400 180/03 RMK AO2 T02060156
13873KAHN AHN20160510222010805/10/16 22:20:31  5-MIN KAHN 110320Z AUTO 17003KT 10SM CLR 21/16 A3014 600 73 1400 180/03 RMK AO2 T02060156
13873KAHN AHN20160510222510805/10/16 22:25:31  5-MIN KAHN 110325Z AUTO 17003KT 10SM CLR 20/16 A3015 600 75 1400 180/03 RMK AO2 T02000156
13873KAHN AHN20160510223010805/10/16 22:30:31  5-MIN KAHN 110330Z AUTO 00000KT 10SM CLR 20/16 A3015 600 75 1400 000/00 RMK AO2 T02000156
13873KAHN AHN20160510223510805/10/16 22:35:31  5-MIN KAHN 110335Z AUTO 00000KT 10SM CLR 20/16 A3015 600 75 1400 000/00 RMK AO2 T02000156
13873KAHN AHN20160510224010805/10/16 22:40:31  5-MIN KAHN 110340Z AUTO 18003KT 10SM CLR 19/16 A3015 600 78 1300 180/03 RMK AO2 T01940156
13873KAHN AHN20160510224511505/10/16 22:45:31  5-MIN KAHN 110345Z AUTO 00000KT 10SM CLR 19/16 A3015 600 78 1300 000/00 RMK AO2 SLP202 T01940156
13873KAHN AHN20160510225011505/10/16 22:50:31  5-MIN KAHN 110350Z AUTO 00000KT 10SM CLR 20/16 A3015 600 75 1400 000/00 RMK AO2 SLP202 T02000156
13873KAHN AHN20160510225510805/10/16 22:55:31  5-MIN KAHN 110355Z AUTO 00000KT 10SM CLR 19/16 A3015 600 78 1300 000/00 RMK AO2 T01940156
13873KAHN AHN20160510230010805/10/16 23:00:31  5-MIN KAHN 110400Z AUTO 00000KT 10SM CLR 19/16 A3015 600 81 1300 000/00 RMK AO2 T01940161
13873KAHN AHN20160510230510805/10/16 23:05:31  5-MIN KAHN 110405Z AUTO 00000KT 10SM CLR 19/16 A3015 600 78 1300 000/00 RMK AO2 T01940156
13873KAHN AHN20160510231010805/10/16 23:10:31  5-MIN KAHN 110410Z AUTO 00000KT 10SM CLR 19/16 A3015 600 78 1300 000/00 RMK AO2 T01940156
13873KAHN AHN20160510231510805/10/16 23:15:31  5-MIN KAHN 110415Z AUTO 00000KT 10SM CLR 19/16 A3015 600 78 1300 000/00 RMK AO2 T01940156
13873KAHN AHN20160510232010805/10/16 23:20:31  5-MIN KAHN 110420Z AUTO 00000KT 10SM CLR 19/16 A3015 600 81 1300 000/00 RMK AO2 T01940161
13873KAHN AHN20160510232510805/10/16 23:25:31  5-MIN KAHN 110425Z AUTO 00000KT 10SM CLR 19/16 A3015 600 81 1300 000/00 RMK AO2 T01940161
13873KAHN AHN20160510233010805/10/16 23:30:31  5-MIN KAHN 110430Z AUTO 20003KT 10SM CLR 19/16 A3015 600 81 1300 210/03 RMK AO2 T01940161
13873KAHN AHN20160510233510805/10/16 23:35:31  5-MIN KAHN 110435Z AUTO 00000KT 10SM CLR 19/16 A3015 600 81 1300 000/00 RMK AO2 T01940161
13873KAHN AHN20160510234010805/10/16 23:40:31  5-MIN KAHN 110440Z AUTO 00000KT 10SM CLR 19/16 A3015 600 81 1300 000/00 RMK AO2 T01940161
13873KAHN AHN20160510234512505/10/16 23:45:31  5-MIN KAHN 110445Z AUTO VRB03KT 10SM CLR 19/16 A3015 600 81 1300 VRB/03 RMK AO2 SLP203 T01940161 403060156
13873KAHN AHN20160510235012505/10/16 23:50:31  5-MIN KAHN 110450Z AUTO 00000KT 10SM CLR 19/16 A3015 600 81 1300 000/00 RMK AO2 SLP202 T01940161 403060156
13873KAHN AHN20160510235510805/10/16 23:55:31  5-MIN KAHN 110455Z AUTO 00000KT 10SM CLR 19/16 A3015 600 84 1200 000/00 RMK AO2 T01890161
13873KAHN AHN20160511000010805/11/16 00:00:31  5-MIN KAHN 110500Z AUTO 00000KT 10SM CLR 19/16 A3015 600 84 1200 000/00 RMK AO2 T01890161
13873KAHN AHN20160511000510805/11/16 00:05:31  5-MIN KAHN 110505Z AUTO 00000KT 10SM CLR 19/16 A3015 600 81 1200 000/00 RMK AO2 T01890156
13873KAHN AHN20160511001010805/11/16 00:10:31  5-MIN KAHN 110510Z AUTO 00000KT 10SM CLR 19/16 A3015 600 81 1200 000/00 RMK AO2 T01890156
13873KAHN AHN20160511001510805/11/16 00:15:31  5-MIN KAHN 110515Z AUTO 21003KT 10SM CLR 19/16 A3015 600 81 1200 210/03 RMK AO2 T01890156
13873KAHN AHN20160511002010805/11/16 00:20:31  5-MIN KAHN 110520Z AUTO 00000KT 10SM CLR 18/16 A3015 600 84 1200 000/00 RMK AO2 T01830156
13873KAHN AHN20160511002510805/11/16 00:25:31  5-MIN KAHN 110525Z AUTO VRB03KT 10SM CLR 19/16 A3014 600 81 1200 VRB/03 RMK AO2 T01890156
13873KAHN AHN20160511003010805/11/16 00:30:31  5-MIN KAHN 110530Z AUTO 00000KT 10SM CLR 19/16 A3014 600 81 1200 000/00 RMK AO2 T01890156
13873KAHN AHN20160511003510805/11/16 00:35:31  5-MIN KAHN 110535Z AUTO 00000KT 10SM CLR 19/16 A3014 600 81 1200 000/00 RMK AO2 T01890156
13873KAHN AHN20160511004010805/11/16 00:40:31  5-MIN KAHN 110540Z AUTO VRB03KT 10SM CLR 19/16 A3014 600 81 1200 VRB/03 RMK AO2 T01890156
13873KAHN AHN20160511004513305/11/16 00:45:31  5-MIN KAHN 110545Z AUTO VRB03KT 10SM CLR 19/16 A3014 600 81 1200 VRB/03 RMK AO2 SLP201 T01890156 10256 20183 51010
13873KAHN AHN20160511005013305/11/16 00:50:31  5-MIN KAHN 110550Z AUTO 00000KT 10SM CLR 19/16 A3014 610 81 1200 000/00 RMK AO2 SLP200 T01890156 10256 20183 51010
13873KAHN AHN20160511005510805/11/16 00:55:31  5-MIN KAHN 110555Z AUTO 00000KT 10SM CLR 19/16 A3014 600 81 1200 000/00 RMK AO2 T01890156
13873KAHN AHN20160511010010805/11/16 01:00:31  5-MIN KAHN 110600Z AUTO 00000KT 10SM CLR 19/16 A3014 610 81 1200 000/00 RMK AO2 T01890156
13873KAHN AHN20160511010510805/11/16 01:05:31  5-MIN KAHN 110605Z AUTO 00000KT 10SM CLR 18/16 A3014 610 84 1200 000/00 RMK AO2 T01830156
13873KAHN AHN20160511011010805/11/16 01:10:31  5-MIN KAHN 110610Z AUTO 00000KT 10SM CLR 18/16 A3014 610 87 1200 000/00 RMK AO2 T01830161
13873KAHN AHN20160511011510805/11/16 01:15:31  5-MIN KAHN 110615Z AUTO 00000KT 10SM CLR 18/16 A3014 610 87 1200 000/00 RMK AO2 T01830161
13873KAHN AHN20160511012010805/11/16 01:20:31  5-MIN KAHN 110620Z AUTO 00000KT 10SM CLR 18/16 A3014 610 87 1200 000/00 RMK AO2 T01830161
13873KAHN AHN20160511012510805/11/16 01:25:31  5-MIN KAHN 110625Z AUTO 00000KT 10SM CLR 18/16 A3014 610 87 1200 000/00 RMK AO2 T01830161
13873KAHN AHN20160511013010805/11/16 01:30:31  5-MIN KAHN 110630Z AUTO VRB03KT 10SM CLR 18/16 A3014 610 87 1200 VRB/03 RMK AO2 T01830161
13873KAHN AHN20160511013510805/11/16 01:35:31  5-MIN KAHN 110635Z AUTO 19003KT 10SM CLR 18/16 A3014 610 87 1200 200/03 RMK AO2 T01830161
13873KAHN AHN20160511014010805/11/16 01:40:31  5-MIN KAHN 110640Z AUTO 00000KT 10SM CLR 18/16 A3013 610 87 1200 000/00 RMK AO2 T01830161
13873KAHN AHN20160511014511505/11/16 01:45:31  5-MIN KAHN 110645Z AUTO 00000KT 10SM CLR 18/16 A3013 610 87 1200 000/00 RMK AO2 SLP197 T01830161
13873KAHN AHN20160511015011505/11/16 01:50:31  5-MIN KAHN 110650Z AUTO 00000KT 10SM CLR 18/16 A3013 610 90 1100 000/00 RMK AO2 SLP197 T01780161
13873KAHN AHN20160511015510805/11/16 01:55:31  5-MIN KAHN 110655Z AUTO 00000KT 10SM CLR 18/16 A3013 610 87 1200 000/00 RMK AO2 T01830161
13873KAHN AHN20160511020010805/11/16 02:00:31  5-MIN KAHN 110700Z AUTO 00000KT 10SM CLR 18/16 A3013 610 90 1100 000/00 RMK AO2 T01780161
13873KAHN AHN20160511020510805/11/16 02:05:31  5-MIN KAHN 110705Z AUTO 00000KT 10SM CLR 18/16 A3013 610 90 1100 000/00 RMK AO2 T01780161
13873KAHN AHN20160511021010805/11/16 02:10:31  5-MIN KAHN 110710Z AUTO VRB03KT 10SM CLR 18/16 A3013 620 90 1100 VRB/03 RMK AO2 T01780161
13873KAHN AHN20160511021510805/11/16 02:15:31  5-MIN KAHN 110715Z AUTO 00000KT 10SM CLR 18/16 A3013 610 90 1100 000/00 RMK AO2 T01780161
13873KAHN AHN20160511022010805/11/16 02:20:31  5-MIN KAHN 110720Z AUTO 00000KT 10SM CLR 18/16 A3013 610 90 1100 000/00 RMK AO2 T01780161
13873KAHN AHN20160511022510805/11/16 02:25:31  5-MIN KAHN 110725Z AUTO 21003KT 10SM CLR 18/16 A3013 610 90 1100 220/03 RMK AO2 T01780161
13873KAHN AHN20160511023010805/11/16 02:30:31  5-MIN KAHN 110730Z AUTO 00000KT 10SM CLR 18/16 A3014 610 90 1100 000/00 RMK AO2 T01780161
13873KAHN AHN20160511023510805/11/16 02:35:31  5-MIN KAHN 110735Z AUTO 00000KT 10SM CLR 18/16 A3014 610 90 1100 000/00 RMK AO2 T01780161
13873KAHN AHN20160511024010805/11/16 02:40:31  5-MIN KAHN 110740Z AUTO 00000KT 10SM CLR 18/16 A3013 610 87 1200 000/00 RMK AO2 T01830161
13873KAHN AHN20160511024511505/11/16 02:45:31  5-MIN KAHN 110745Z AUTO 00000KT 10SM CLR 18/16 A3013 620 90 1100 000/00 RMK AO2 SLP196 T01780161
13873KAHN AHN20160511025011505/11/16 02:50:31  5-MIN KAHN 110750Z AUTO 00000KT 10SM CLR 18/16 A3013 620 87 1200 000/00 RMK AO2 SLP196 T01830161
13873KAHN AHN20160511025510805/11/16 02:55:31  5-MIN KAHN 110755Z AUTO VRB03KT 10SM CLR 18/16 A3013 610 87 1200 VRB/03 RMK AO2 T01830161
13873KAHN AHN20160511030010805/11/16 03:00:31  5-MIN KAHN 110800Z AUTO 00000KT 10SM CLR 18/16 A3013 610 90 1100 000/00 RMK AO2 T01780161
13873KAHN AHN20160511030510805/11/16 03:05:31  5-MIN KAHN 110805Z AUTO 00000KT 10SM CLR 18/16 A3013 610 90 1100 000/00 RMK AO2 T01780161
13873KAHN AHN20160511031010805/11/16 03:10:31  5-MIN KAHN 110810Z AUTO VRB03KT 10SM CLR 18/16 A3013 610 90 1100 VRB/03 RMK AO2 T01780161
13873KAHN AHN20160511031510805/11/16 03:15:31  5-MIN KAHN 110815Z AUTO 21003KT 10SM CLR 18/16 A3013 610 90 1100 220/03 RMK AO2 T01780161
13873KAHN AHN20160511032010805/11/16 03:20:31  5-MIN KAHN 110820Z AUTO 00000KT 10SM CLR 18/16 A3013 620 90 1100 000/00 RMK AO2 T01780161
13873KAHN AHN20160511032510805/11/16 03:25:31  5-MIN KAHN 110825Z AUTO 20003KT 10SM CLR 18/16 A3013 620 90 1100 210/03 RMK AO2 T01780161
13873KAHN AHN20160511033010805/11/16 03:30:31  5-MIN KAHN 110830Z AUTO VRB03KT 10SM CLR 18/16 A3013 620 90 1100 VRB/03 RMK AO2 T01780161
13873KAHN AHN20160511033510805/11/16 03:35:31  5-MIN KAHN 110835Z AUTO VRB03KT 10SM CLR 18/16 A3013 620 90 1100 VRB/03 RMK AO2 T01780161
13873KAHN AHN20160511034010805/11/16 03:40:31  5-MIN KAHN 110840Z AUTO 00000KT 10SM CLR 18/16 A3013 620 90 1100 000/00 RMK AO2 T01780161
13873KAHN AHN20160511034512105/11/16 03:45:31  5-MIN KAHN 110845Z AUTO 00000KT 10SM CLR 18/16 A3014 610 90 1100 000/00 RMK AO2 SLP198 T01780161 50001
13873KAHN AHN20160511035012105/11/16 03:50:31  5-MIN KAHN 110850Z AUTO VRB03KT 10SM CLR 18/16 A3014 610 90 1100 VRB/03 RMK AO2 SLP199 T01780161 50001
13873KAHN AHN20160511035510805/11/16 03:55:31  5-MIN KAHN 110855Z AUTO 22003KT 10SM CLR 18/16 A3014 610 90 1100 220/03 RMK AO2 T01780161
13873KAHN AHN20160511040010805/11/16 04:00:31  5-MIN KAHN 110900Z AUTO VRB03KT 10SM CLR 18/16 A3014 600 90 1100 VRB/03 RMK AO2 T01780161
13873KAHN AHN20160511040510805/11/16 04:05:31  5-MIN KAHN 110905Z AUTO 00000KT 10SM CLR 18/16 A3015 600 90 1100 000/00 RMK AO2 T01780161
13873KAHN AHN20160511041010805/11/16 04:10:31  5-MIN KAHN 110910Z AUTO 00000KT 10SM CLR 18/16 A3015 600 90 1100 000/00 RMK AO2 T01780161
13873KAHN AHN20160511041510805/11/16 04:15:31  5-MIN KAHN 110915Z AUTO 24003KT 10SM CLR 18/16 A3015 600 90 1100 240/03 RMK AO2 T01780161
13873KAHN AHN20160511042010805/11/16 04:20:31  5-MIN KAHN 110920Z AUTO 22003KT 10SM CLR 17/16 A3014 600 90 1000 220/03 RMK AO2 T01720156
13873KAHN AHN20160511042510805/11/16 04:25:31  5-MIN KAHN 110925Z AUTO 22003KT 10SM CLR 17/16 A3014 610 90 1000 220/03 RMK AO2 T01720156
13873KAHN AHN20160511043010805/11/16 04:30:31  5-MIN KAHN 110930Z AUTO 00000KT 10SM CLR 17/16 A3014 610 90 1000 000/00 RMK AO2 T01720156
13873KAHN AHN20160511043510805/11/16 04:35:31  5-MIN KAHN 110935Z AUTO 00000KT 10SM CLR 17/16 A3014 610 90 1100 000/00 RMK AO2 T01720156
13873KAHN AHN20160511044010805/11/16 04:40:31  5-MIN KAHN 110940Z AUTO 00000KT 10SM CLR 17/16 A3014 610 90 1100 000/00 RMK AO2 T01720156
13873KAHN AHN20160511144512005/11/16 14:45:31  5-MIN KAHN 111945Z VRB06KT 10SM BKN055 BKN065 31/17 A3013 620 44 2600 VRB/06 RMK AO2 SLP195 T03060172
13873KAHN AHN20160511145012005/11/16 14:50:31  5-MIN KAHN 111950Z VRB05KT 10SM BKN050 BKN070 32/17 A3013 620 41 2700 VRB/05 RMK AO2 SLP195 T03170172
13873KAHN AHN20160511145509605/11/16 14:55:31  5-MIN KAHN 111955Z 10SM SCT050 31/17 A3013 620 41 2600 M /M RMK AO2 T03110167
13873KAHN AHN20160511150011305/11/16 15:00:31  5-MIN KAHN 112000Z 25005KT 10SM FEW050 SCT070 30/17 A3013 620 45 2500 250/05 RMK AO2 T03000172
13873KAHN AHN20160511150511305/11/16 15:05:31  5-MIN KAHN 112005Z VRB03KT 10SM FEW050 SCT070 31/18 A3012 620 46 2600 VRB/03 RMK AO2 T03060178
13873KAHN AHN20160511151010605/11/16 15:10:31  5-MIN KAHN 112010Z 24004KT 10SM FEW050 31/17 A3012 620 44 2600 250/04 RMK AO2 T03060172
13873KAHN AHN20160511151511305/11/16 15:15:31  5-MIN KAHN 112015Z VRB03KT 10SM FEW055 FEW075 31/17 A3012 630 42 2600 VRB/03 RMK AO2 T03110172
13873KAHN AHN20160511152011305/11/16 15:20:31  5-MIN KAHN 112020Z 29006KT 10SM SCT055 SCT075 31/17 A3012 630 42 2700 300/06 RMK AO2 T03110172
13873KAHN AHN20160511152510605/11/16 15:25:31  5-MIN KAHN 112025Z VRB04KT 10SM SCT055 32/17 A3012 630 41 2700 VRB/04 RMK AO2 T03170172
13873KAHN AHN20160511153010605/11/16 15:30:31  5-MIN KAHN 112030Z 00000KT 10SM SCT055 30/17 A3012 630 45 2500 000/00 RMK AO2 T03000172
13873KAHN AHN20160511153510605/11/16 15:35:31  5-MIN KAHN 112035Z VRB04KT 10SM SCT055 31/18 A3011 630 46 2600 VRB/04 RMK AO2 T03060178
13873KAHN AHN20160511154010605/11/16 15:40:31  5-MIN KAHN 112040Z 00000KT 10SM SCT055 31/17 A3011 630 44 2600 000/00 RMK AO2 T03060172
13873KAHN AHN20160511154511905/11/16 15:45:31  5-MIN KAHN 112045Z VRB03KT 10SM FEW050 31/17 A3011 640 42 2700 VRB/03 RMK AO2 SLP189 T03110172 58007
13873KAHN AHN20160511155011905/11/16 15:50:31  5-MIN KAHN 112050Z 24006KT 10SM SCT055 30/17 A3011 640 45 2500 240/06 RMK AO2 SLP188 T03000172 58007
13873KAHN AHN20160511155510605/11/16 15:55:31  5-MIN KAHN 112055Z VRB05KT 10SM SCT055 31/17 A3011 640 42 2700 VRB/05 RMK AO2 T03110172
13873KAHN AHN20160511160010605/11/16 16:00:31  5-MIN KAHN 112100Z VRB03KT 10SM BKN055 32/18 A3011 640 43 2700 VRB/03 RMK AO2 T03170178
13873KAHN AHN20160511160510605/11/16 16:05:31  5-MIN KAHN 112105Z VRB03KT 10SM BKN055 31/17 A3011 640 42 2700 VRB/03 RMK AO2 T03110172
13873KAHN AHN20160511161010605/11/16 16:10:31  5-MIN KAHN 112110Z VRB05KT 10SM BKN055 31/17 A3011 640 42 2700 VRB/05 RMK AO2 T03110172
13873KAHN AHN20160511161510605/11/16 16:15:31  5-MIN KAHN 112115Z VRB03KT 10SM SCT055 31/17 A3010 640 42 2600 VRB/03 RMK AO2 T03060167
13873KAHN AHN20160511162010605/11/16 16:20:31  5-MIN KAHN 112120Z VRB03KT 10SM SCT055 31/17 A3010 640 44 2600 VRB/03 RMK AO2 T03060172
13873KAHN AHN20160511162510605/11/16 16:25:31  5-MIN KAHN 112125Z VRB03KT 10SM FEW055 31/17 A3010 650 44 2600 VRB/03 RMK AO2 T03060172
13873KAHN AHN20160511163010605/11/16 16:30:31  5-MIN KAHN 112130Z VRB03KT 10SM FEW055 29/17 A3010 650 47 2500 VRB/03 RMK AO2 T02940172
13873KAHN AHN20160511163510605/11/16 16:35:31  5-MIN KAHN 112135Z VRB03KT 10SM FEW060 31/17 A3010 650 42 2600 VRB/03 RMK AO2 T03060167
13873KAHN AHN20160511164010605/11/16 16:40:31  5-MIN KAHN 112140Z VRB04KT 10SM FEW055 31/17 A3009 650 42 2600 VRB/04 RMK AO2 T03060167
13873KAHN AHN20160511164511305/11/16 16:45:31  5-MIN KAHN 112145Z 28006KT 10SM SCT055 31/17 A3009 650 42 2700 280/06 RMK AO2 SLP183 T03110172
13873KAHN AHN20160511165011305/11/16 16:50:31  5-MIN KAHN 112150Z 29005KT 10SM SCT055 31/17 A3009 650 42 2700 290/05 RMK AO2 SLP183 T03110172
13873KAHN AHN20160511165510605/11/16 16:55:31  5-MIN KAHN 112155Z VRB03KT 10SM SCT055 31/17 A3009 650 42 2600 VRB/03 RMK AO2 T03060167
13873KAHN AHN20160511170010605/11/16 17:00:31  5-MIN KAHN 112200Z 26003KT 10SM BKN055 30/17 A3009 650 45 2600 270/03 RMK AO2 T03000172
13873KAHN AHN20160511170510605/11/16 17:05:31  5-MIN KAHN 112205Z VRB04KT 10SM BKN055 31/17 A3009 660 44 2600 VRB/04 RMK AO2 T03060172
13873KAHN AHN20160511171010605/11/16 17:10:31  5-MIN KAHN 112210Z 24005KT 10SM BKN055 31/17 A3009 650 44 2600 250/05 RMK AO2 T03060172
13873KAHN AHN20160511171510605/11/16 17:15:31  5-MIN KAHN 112215Z 24004KT 10SM SCT060 30/17 A3009 660 44 2600 250/04 RMK AO2 T03000167
13873KAHN AHN20160511172010605/11/16 17:20:31  5-MIN KAHN 112220Z VRB05KT 10SM SCT060 30/16 A3008 660 42 2600 VRB/05 RMK AO2 T03000161
13873KAHN AHN20160511172510605/11/16 17:25:31  5-MIN KAHN 112225Z VRB04KT 10SM SCT060 29/16 A3008 660 45 2400 VRB/04 RMK AO2 T02890161
13873KAHN AHN20160511173010605/11/16 17:30:31  5-MIN KAHN 112230Z VRB04KT 10SM FEW060 29/17 A3008 660 45 2500 VRB/04 RMK AO2 T02940167
13873KAHN AHN20160511173510605/11/16 17:35:31  5-MIN KAHN 112235Z 22004KT 10SM FEW065 29/17 A3008 660 45 2500 230/04 RMK AO2 T02940167
13873KAHN AHN20160511174010305/11/16 17:40:31  5-MIN KAHN 112240Z 24004KT 10SM CLR 29/17 A3008 660 48 2400 240/04 RMK AO2 T02890172
13873KAHN AHN20160511174511005/11/16 17:45:31  5-MIN KAHN 112245Z 22004KT 10SM CLR 29/17 A3008 660 48 2400 220/04 RMK AO2 SLP181 T02890172
13873KAHN AHN20160511175011005/11/16 17:50:31  5-MIN KAHN 112250Z 23004KT 10SM CLR 29/17 A3009 660 48 2400 240/04 RMK AO2 SLP181 T02890172
13873KAHN AHN20160511175510305/11/16 17:55:31  5-MIN KAHN 112255Z VRB04KT 10SM CLR 28/17 A3008 660 50 2400 VRB/04 RMK AO2 T02830172
13873KAHN AHN20160511180010305/11/16 18:00:31  5-MIN KAHN 112300Z 24005KT 10SM CLR 28/17 A3008 660 50 2400 240/05 RMK AO2 T02830172
13873KAHN AHN20160511180510305/11/16 18:05:31  5-MIN KAHN 112305Z 23003KT 10SM CLR 28/17 A3008 660 50 2400 240/03 RMK AO2 T02830172
13873KAHN AHN20160511181010305/11/16 18:10:31  5-MIN KAHN 112310Z 23003KT 10SM CLR 28/17 A3008 660 50 2400 230/03 RMK AO2 T02830172
13873KAHN AHN20160511181510305/11/16 18:15:31  5-MIN KAHN 112315Z 24003KT 10SM CLR 28/17 A3008 660 50 2400 240/03 RMK AO2 T02830172
13873KAHN AHN20160511182010305/11/16 18:20:31  5-MIN KAHN 112320Z 24003KT 10SM CLR 28/17 A3009 660 50 2400 240/03 RMK AO2 T02830172
13873KAHN AHN20160511182510305/11/16 18:25:31  5-MIN KAHN 112325Z 23004KT 10SM CLR 28/17 A3009 660 50 2400 230/04 RMK AO2 T02830172
13873KAHN AHN20160511183010305/11/16 18:30:31  5-MIN KAHN 112330Z VRB03KT 10SM CLR 28/17 A3009 660 52 2300 VRB/03 RMK AO2 T02780172
13873KAHN AHN20160511183510305/11/16 18:35:31  5-MIN KAHN 112335Z VRB03KT 10SM CLR 28/17 A3009 660 52 2300 VRB/03 RMK AO2 T02780172
13873KAHN AHN20160511184010305/11/16 18:40:31  5-MIN KAHN 112340Z VRB03KT 10SM CLR 28/17 A3009 650 52 2300 VRB/03 RMK AO2 T02780172
13873KAHN AHN20160511184512805/11/16 18:45:31  5-MIN KAHN 112345Z VRB03KT 10SM CLR 28/17 A3009 650 52 2300 VRB/03 RMK AO2 SLP184 T02780172 10317 20278 56018
13873KAHN AHN20160511185013305/11/16 18:50:31  5-MIN KAHN 112350Z AUTO 00000KT 10SM CLR 28/17 A3009 650 52 2300 000/00 RMK AO2 SLP185 T02780172 10317 20278 56018
13873KAHN AHN20160511185510805/11/16 18:55:31  5-MIN KAHN 112355Z AUTO 00000KT 10SM CLR 27/17 A3010 650 54 2200 000/00 RMK AO2 T02720172
13873KAHN AHN20160511190010805/11/16 19:00:31  5-MIN KAHN 120000Z AUTO 00000KT 10SM CLR 27/17 A3010 650 54 2200 000/00 RMK AO2 T02720172
13873KAHN AHN20160511190510805/11/16 19:05:31  5-MIN KAHN 120005Z AUTO 00000KT 10SM CLR 27/17 A3010 650 55 2200 000/00 RMK AO2 T02670172
13873KAHN AHN20160511191010805/11/16 19:10:31  5-MIN KAHN 120010Z AUTO 00000KT 10SM CLR 27/17 A3010 650 55 2200 000/00 RMK AO2 T02670172
13873KAHN AHN20160511191510805/11/16 19:15:31  5-MIN KAHN 120015Z AUTO 00000KT 10SM CLR 26/17 A3010 640 57 2100 000/00 RMK AO2 T02610172
13873KAHN AHN20160511192010805/11/16 19:20:31  5-MIN KAHN 120020Z AUTO 00000KT 10SM CLR 27/17 A3010 640 55 2200 000/00 RMK AO2 T02670172
13873KAHN AHN20160511192510805/11/16 19:25:31  5-MIN KAHN 120025Z AUTO 00000KT 10SM CLR 26/17 A3010 640 57 2100 000/00 RMK AO2 T02610172
13873KAHN AHN20160511193010805/11/16 19:30:31  5-MIN KAHN 120030Z AUTO 00000KT 10SM CLR 26/17 A3010 640 57 2100 000/00 RMK AO2 T02610172
13873KAHN AHN20160511193510805/11/16 19:35:31  5-MIN KAHN 120035Z AUTO 00000KT 10SM CLR 26/17 A3010 640 57 2100 000/00 RMK AO2 T02610172
13873KAHN AHN20160511194010805/11/16 19:40:31  5-MIN KAHN 120040Z AUTO 00000KT 10SM CLR 26/17 A3011 640 59 2000 000/00 RMK AO2 T02560172
13873KAHN AHN20160511194511505/11/16 19:45:31  5-MIN KAHN 120045Z AUTO 00000KT 10SM CLR 25/17 A3011 640 61 2000 000/00 RMK AO2 SLP189 T02500172
13873KAHN AHN20160511195011505/11/16 19:50:31  5-MIN KAHN 120050Z AUTO 18003KT 10SM CLR 24/18 A3011 640 66 1900 190/03 RMK AO2 SLP189 T02440178
13873KAHN AHN20160511195510805/11/16 19:55:31  5-MIN KAHN 120055Z AUTO 00000KT 10SM CLR 24/18 A3011 640 66 1900 000/00 RMK AO2 T02440178
13873KAHN AHN20160511200010805/11/16 20:00:31  5-MIN KAHN 120100Z AUTO 00000KT 10SM CLR 24/18 A3011 640 66 1900 000/00 RMK AO2 T02440178
13873KAHN AHN20160511200510805/11/16 20:05:31  5-MIN KAHN 120105Z AUTO 18003KT 10SM CLR 24/18 A3011 630 66 1900 190/03 RMK AO2 T02440178
13873KAHN AHN20160511201011105/11/16 20:10:31  5-MIN KAHN 120110Z AUTO 00000KT 10SM FEW060 24/18 A3011 630 66 1900 000/00 RMK AO2 T02440178
13873KAHN AHN20160511201511105/11/16 20:15:31  5-MIN KAHN 120115Z AUTO 18003KT 10SM FEW060 24/18 A3011 630 66 1900 190/03 RMK AO2 T02440178
13873KAHN AHN20160511202011105/11/16 20:20:31  5-MIN KAHN 120120Z AUTO 18003KT 10SM FEW060 24/18 A3011 630 66 1900 190/03 RMK AO2 T02440178
13873KAHN AHN20160511202511105/11/16 20:25:31  5-MIN KAHN 120125Z AUTO 18003KT 10SM FEW060 24/18 A3011 630 66 1900 180/03 RMK AO2 T02440178
13873KAHN AHN20160511203011105/11/16 20:30:31  5-MIN KAHN 120130Z AUTO 18004KT 10SM FEW060 24/18 A3011 630 66 1900 180/04 RMK AO2 T02440178
13873KAHN AHN20160511203511105/11/16 20:35:31  5-MIN KAHN 120135Z AUTO 19003KT 10SM FEW060 24/18 A3012 630 66 1900 190/03 RMK AO2 T02440178
13873KAHN AHN20160511204010805/11/16 20:40:31  5-MIN KAHN 120140Z AUTO 19003KT 10SM CLR 24/18 A3012 630 66 1900 190/03 RMK AO2 T02440178
13873KAHN AHN20160511204511505/11/16 20:45:31  5-MIN KAHN 120145Z AUTO 19004KT 10SM CLR 24/18 A3012 630 66 1900 190/04 RMK AO2 SLP192 T02440178
13873KAHN AHN20160511205011505/11/16 20:50:31  5-MIN KAHN 120150Z AUTO 00000KT 10SM CLR 24/18 A3012 630 68 1800 000/00 RMK AO2 SLP193 T02390178
13873KAHN AHN20160511205510805/11/16 20:55:31  5-MIN KAHN 120155Z AUTO 20003KT 10SM CLR 24/18 A3012 620 68 1800 200/03 RMK AO2 T02390178
13873KAHN AHN20160511210010805/11/16 21:00:31  5-MIN KAHN 120200Z AUTO VRB03KT 10SM CLR 24/18 A3013 620 68 1800 VRB/03 RMK AO2 T02390178
13873KAHN AHN20160511210510805/11/16 21:05:31  5-MIN KAHN 120205Z AUTO 00000KT 10SM CLR 24/18 A3013 620 68 1800 000/00 RMK AO2 T02390178
13873KAHN AHN20160511211010805/11/16 21:10:31  5-MIN KAHN 120210Z AUTO 00000KT 10SM CLR 24/18 A3013 620 68 1800 000/00 RMK AO2 T02390178
13873KAHN AHN20160511211510805/11/16 21:15:31  5-MIN KAHN 120215Z AUTO 00000KT 10SM CLR 23/18 A3013 620 70 1800 000/00 RMK AO2 T02330178
13873KAHN AHN20160511212010805/11/16 21:20:31  5-MIN KAHN 120220Z AUTO 00000KT 10SM CLR 24/18 A3013 620 68 1800 000/00 RMK AO2 T02390178
13873KAHN AHN20160511212510805/11/16 21:25:31  5-MIN KAHN 120225Z AUTO 00000KT 10SM CLR 23/18 A3013 610 70 1800 000/00 RMK AO2 T02330178
13873KAHN AHN20160511213010805/11/16 21:30:31  5-MIN KAHN 120230Z AUTO 00000KT 10SM CLR 23/18 A3013 610 70 1800 000/00 RMK AO2 T02330178
13873KAHN AHN20160511213510805/11/16 21:35:31  5-MIN KAHN 120235Z AUTO 00000KT 10SM CLR 23/18 A3013 610 70 1800 000/00 RMK AO2 T02330178
13873KAHN AHN20160511214010805/11/16 21:40:31  5-MIN KAHN 120240Z AUTO 00000KT 10SM CLR 23/18 A3014 610 70 1800 000/00 RMK AO2 T02330178
13873KAHN AHN20160511214512105/11/16 21:45:31  5-MIN KAHN 120245Z AUTO 00000KT 10SM CLR 23/18 A3014 610 73 1700 000/00 RMK AO2 SLP199 T02280178 55004
13873KAHN AHN20160511215012405/11/16 21:50:31  5-MIN KAHN 120250Z AUTO 00000KT 10SM FEW060 23/18 A3014 610 73 1700 000/00 RMK AO2 SLP199 T02280178 55004
13873KAHN AHN20160511215511105/11/16 21:55:31  5-MIN KAHN 120255Z AUTO 00000KT 10SM SCT060 22/18 A3014 610 75 1600 000/00 RMK AO2 T02220178
13873KAHN AHN20160511220011105/11/16 22:00:31  5-MIN KAHN 120300Z AUTO 00000KT 10SM SCT060 22/18 A3014 610 75 1600 000/00 RMK AO2 T02220178
13873KAHN AHN20160511220511105/11/16 22:05:31  5-MIN KAHN 120305Z AUTO 00000KT 10SM BKN060 22/18 A3014 610 75 1600 000/00 RMK AO2 T02220178
13873KAHN AHN20160511221011105/11/16 22:10:31  5-MIN KAHN 120310Z AUTO 00000KT 10SM BKN060 22/18 A3014 610 75 1600 000/00 RMK AO2 T02220178
13873KAHN AHN20160511221511105/11/16 22:15:31  5-MIN KAHN 120315Z AUTO 00000KT 10SM BKN060 22/18 A3014 610 75 1600 000/00 RMK AO2 T02220178
13873KAHN AHN20160511222011105/11/16 22:20:31  5-MIN KAHN 120320Z AUTO 00000KT 10SM BKN060 23/18 A3014 610 73 1700 000/00 RMK AO2 T02280178
13873KAHN AHN20160511222511105/11/16 22:25:31  5-MIN KAHN 120325Z AUTO 00000KT 10SM BKN060 23/18 A3014 610 73 1700 000/00 RMK AO2 T02280178
13873KAHN AHN20160511223011105/11/16 22:30:31  5-MIN KAHN 120330Z AUTO 00000KT 10SM BKN060 22/18 A3014 610 75 1600 000/00 RMK AO2 T02220178
13873KAHN AHN20160511223511105/11/16 22:35:31  5-MIN KAHN 120335Z AUTO 00000KT 10SM SCT060 22/18 A3014 610 75 1600 000/00 RMK AO2 T02220178
13873KAHN AHN20160511224011105/11/16 22:40:31  5-MIN KAHN 120340Z AUTO 00000KT 10SM FEW060 22/18 A3014 610 75 1600 000/00 RMK AO2 T02220178
13873KAHN AHN20160511224511805/11/16 22:45:31  5-MIN KAHN 120345Z AUTO 23004KT 10SM FEW065 22/18 A3013 610 75 1600 230/04 RMK AO2 SLP197 T02220178
13873KAHN AHN20160511225011805/11/16 22:50:31  5-MIN KAHN 120350Z AUTO 23004KT 10SM FEW065 22/17 A3013 610 73 1600 240/04 RMK AO2 SLP197 T02220172
13873KAHN AHN20160511225510805/11/16 22:55:31  5-MIN KAHN 120355Z AUTO VRB03KT 10SM CLR 23/17 A3013 620 70 1700 VRB/03 RMK AO2 T02280172
13873KAHN AHN20160511230010805/11/16 23:00:31  5-MIN KAHN 120400Z AUTO 23003KT 10SM CLR 23/17 A3013 620 70 1700 230/03 RMK AO2 T02280172
13873KAHN AHN20160511230510805/11/16 23:05:31  5-MIN KAHN 120405Z AUTO 00000KT 10SM CLR 23/17 A3013 620 70 1700 000/00 RMK AO2 T02280172
13873KAHN AHN20160511231010805/11/16 23:10:31  5-MIN KAHN 120410Z AUTO 00000KT 10SM CLR 23/17 A3013 620 70 1700 000/00 RMK AO2 T02280172
13873KAHN AHN20160511231510805/11/16 23:15:31  5-MIN KAHN 120415Z AUTO 23003KT 10SM CLR 22/17 A3013 620 73 1600 240/03 RMK AO2 T02220172
13873KAHN AHN20160511232010805/11/16 23:20:31  5-MIN KAHN 120420Z AUTO 24003KT 10SM CLR 22/17 A3013 620 73 1600 240/03 RMK AO2 T02220172
13873KAHN AHN20160511232510805/11/16 23:25:31  5-MIN KAHN 120425Z AUTO 24003KT 10SM CLR 22/17 A3013 620 73 1600 240/03 RMK AO2 T02220172
13873KAHN AHN20160511233010805/11/16 23:30:31  5-MIN KAHN 120430Z AUTO 00000KT 10SM CLR 22/17 A3013 620 73 1600 000/00 RMK AO2 T02220172
13873KAHN AHN20160511233510805/11/16 23:35:31  5-MIN KAHN 120435Z AUTO 23003KT 10SM CLR 22/17 A3013 620 73 1600 240/03 RMK AO2 T02220172
13873KAHN AHN20160511234010805/11/16 23:40:31  5-MIN KAHN 120440Z AUTO 24003KT 10SM CLR 22/17 A3013 620 73 1600 240/03 RMK AO2 T02220172
13873KAHN AHN20160511234512505/11/16 23:45:31  5-MIN KAHN 120445Z AUTO 00000KT 10SM CLR 22/17 A3013 620 73 1600 000/00 RMK AO2 SLP194 T02220172 403170172
13873KAHN AHN20160511235012505/11/16 23:50:31  5-MIN KAHN 120450Z AUTO 24003KT 10SM CLR 22/17 A3012 620 75 1600 250/03 RMK AO2 SLP194 T02170172 403170172
13873KAHN AHN20160511235510805/11/16 23:55:31  5-MIN KAHN 120455Z AUTO 00000KT 10SM CLR 22/17 A3012 620 75 1600 000/00 RMK AO2 T02170172
13873KAHN AHN20160512000010805/12/16 00:00:31  5-MIN KAHN 120500Z AUTO 23003KT 10SM CLR 22/17 A3013 620 75 1600 240/03 RMK AO2 T02170172
13873KAHN AHN20160512000510805/12/16 00:05:31  5-MIN KAHN 120505Z AUTO 00000KT 10SM CLR 22/17 A3013 620 75 1600 000/00 RMK AO2 T02170172
13873KAHN AHN20160512001010805/12/16 00:10:31  5-MIN KAHN 120510Z AUTO 26003KT 10SM CLR 22/17 A3013 620 75 1600 270/03 RMK AO2 T02170172
13873KAHN AHN20160512001510805/12/16 00:15:31  5-MIN KAHN 120515Z AUTO 26003KT 10SM CLR 22/17 A3013 620 73 1600 260/03 RMK AO2 T02220172
13873KAHN AHN20160512002010805/12/16 00:20:31  5-MIN KAHN 120520Z AUTO 27003KT 10SM CLR 22/17 A3013 620 73 1600 270/03 RMK AO2 T02220172
13873KAHN AHN20160512002510805/12/16 00:25:31  5-MIN KAHN 120525Z AUTO 26003KT 10SM CLR 22/17 A3012 620 75 1600 260/03 RMK AO2 T02170172
13873KAHN AHN20160512003010805/12/16 00:30:31  5-MIN KAHN 120530Z AUTO 25003KT 10SM CLR 22/17 A3012 620 75 1600 260/03 RMK AO2 T02170172
13873KAHN AHN20160512003510805/12/16 00:35:31  5-MIN KAHN 120535Z AUTO 26003KT 10SM CLR 22/17 A3012 620 75 1600 270/03 RMK AO2 T02170172
13873KAHN AHN20160512004010805/12/16 00:40:31  5-MIN KAHN 120540Z AUTO 27003KT 10SM CLR 22/17 A3012 620 73 1600 270/03 RMK AO2 T02220172
13873KAHN AHN20160512004513305/12/16 00:45:31  5-MIN KAHN 120545Z AUTO 26003KT 10SM CLR 22/17 A3012 630 75 1600 270/03 RMK AO2 SLP191 T02170172 10278 20217 53015
13873KAHN AHN20160512005013305/12/16 00:50:31  5-MIN KAHN 120550Z AUTO 26003KT 10SM CLR 22/17 A3012 630 75 1600 260/03 RMK AO2 SLP191 T02170172 10278 20217 53015
13873KAHN AHN20160512005510805/12/16 00:55:31  5-MIN KAHN 120555Z AUTO 27003KT 10SM CLR 22/17 A3012 630 75 1600 270/03 RMK AO2 T02170172
13873KAHN AHN20160512010010805/12/16 01:00:31  5-MIN KAHN 120600Z AUTO 27003KT 10SM CLR 22/17 A3011 630 75 1600 280/03 RMK AO2 T02170172
13873KAHN AHN20160512010510805/12/16 01:05:31  5-MIN KAHN 120605Z AUTO 26003KT 10SM CLR 21/17 A3011 630 78 1500 260/03 RMK AO2 T02110172
13873KAHN AHN20160512011010805/12/16 01:10:31  5-MIN KAHN 120610Z AUTO 26003KT 10SM CLR 22/17 A3011 630 75 1600 260/03 RMK AO2 T02170172
13873KAHN AHN20160512011510805/12/16 01:15:31  5-MIN KAHN 120615Z AUTO 27003KT 10SM CLR 22/17 A3011 630 75 1600 270/03 RMK AO2 T02170172
13873KAHN AHN20160512012010805/12/16 01:20:31  5-MIN KAHN 120620Z AUTO 26003KT 10SM CLR 22/17 A3011 630 75 1600 270/03 RMK AO2 T02170172
13873KAHN AHN20160512012510805/12/16 01:25:31  5-MIN KAHN 120625Z AUTO 26003KT 10SM CLR 22/17 A3011 630 75 1600 270/03 RMK AO2 T02170172
13873KAHN AHN20160512013010805/12/16 01:30:31  5-MIN KAHN 120630Z AUTO 00000KT 10SM CLR 22/17 A3011 630 75 1600 000/00 RMK AO2 T02170172
13873KAHN AHN20160512013510805/12/16 01:35:31  5-MIN KAHN 120635Z AUTO 00000KT 10SM CLR 22/17 A3011 630 75 1600 000/00 RMK AO2 T02170172
13873KAHN AHN20160512014010805/12/16 01:40:31  5-MIN KAHN 120640Z AUTO 00000KT 10SM CLR 21/17 A3011 630 78 1500 000/00 RMK AO2 T02110172
13873KAHN AHN20160512014511505/12/16 01:45:31  5-MIN KAHN 120645Z AUTO 00000KT 10SM CLR 21/17 A3011 630 78 1500 000/00 RMK AO2 SLP188 T02110172
13873KAHN AHN20160512015011505/12/16 01:50:31  5-MIN KAHN 120650Z AUTO 00000KT 10SM CLR 21/17 A3011 630 78 1500 000/00 RMK AO2 SLP189 T02110172
13873KAHN AHN20160512015510805/12/16 01:55:31  5-MIN KAHN 120655Z AUTO 00000KT 10SM CLR 21/17 A3011 640 78 1500 000/00 RMK AO2 T02110172
13873KAHN AHN20160512020010805/12/16 02:00:31  5-MIN KAHN 120700Z AUTO 00000KT 10SM CLR 21/17 A3011 640 78 1500 000/00 RMK AO2 T02110172
13873KAHN AHN20160512020510805/12/16 02:05:31  5-MIN KAHN 120705Z AUTO 22003KT 10SM CLR 21/17 A3011 640 81 1500 230/03 RMK AO2 T02060172
13873KAHN AHN20160512021010805/12/16 02:10:31  5-MIN KAHN 120710Z AUTO 00000KT 10SM CLR 20/17 A3011 640 84 1400 000/00 RMK AO2 T02000172
13873KAHN AHN20160512021510805/12/16 02:15:31  5-MIN KAHN 120715Z AUTO 00000KT 10SM CLR 20/17 A3011 640 84 1400 000/00 RMK AO2 T02000172
13873KAHN AHN20160512022010805/12/16 02:20:31  5-MIN KAHN 120720Z AUTO 24003KT 10SM CLR 20/17 A3011 640 84 1400 250/03 RMK AO2 T02000172
13873KAHN AHN20160512022510805/12/16 02:25:31  5-MIN KAHN 120725Z AUTO 23003KT 10SM CLR 20/17 A3010 640 84 1400 240/03 RMK AO2 T02000172
13873KAHN AHN20160512023010805/12/16 02:30:31  5-MIN KAHN 120730Z AUTO 23003KT 10SM CLR 20/17 A3010 640 84 1400 230/03 RMK AO2 T02000172
13873KAHN AHN20160512023511105/12/16 02:35:31  5-MIN KAHN 120735Z AUTO 00000KT 10SM FEW055 20/17 A3010 640 84 1400 000/00 RMK AO2 T02000172
13873KAHN AHN20160512024011105/12/16 02:40:31  5-MIN KAHN 120740Z AUTO 00000KT 10SM SCT055 20/17 A3010 640 84 1400 000/00 RMK AO2 T02000172
13873KAHN AHN20160512024511805/12/16 02:45:31  5-MIN KAHN 120745Z AUTO 00000KT 10SM BKN055 20/17 A3010 640 84 1400 000/00 RMK AO2 SLP186 T02000172
13873KAHN AHN20160512025011805/12/16 02:50:31  5-MIN KAHN 120750Z AUTO 00000KT 10SM SCT055 20/17 A3010 640 84 1400 000/00 RMK AO2 SLP186 T02000172
13873KAHN AHN20160512025511105/12/16 02:55:31  5-MIN KAHN 120755Z AUTO 00000KT 10SM SCT055 20/17 A3010 640 84 1400 000/00 RMK AO2 T02000172
13873KAHN AHN20160512030011105/12/16 03:00:31  5-MIN KAHN 120800Z AUTO 00000KT 10SM BKN060 20/17 A3010 640 84 1400 000/00 RMK AO2 T02000172
13873KAHN AHN20160512030511105/12/16 03:05:31  5-MIN KAHN 120805Z AUTO 24003KT 10SM BKN060 20/17 A3010 640 84 1400 240/03 RMK AO2 T02000172
13873KAHN AHN20160512031011105/12/16 03:10:31  5-MIN KAHN 120810Z AUTO 25003KT 10SM BKN060 20/17 A3011 640 84 1400 260/03 RMK AO2 T02000172
13873KAHN AHN20160512031511105/12/16 03:15:31  5-MIN KAHN 120815Z AUTO 00000KT 10SM BKN060 21/17 A3011 640 81 1500 000/00 RMK AO2 T02060172
13873KAHN AHN20160512032011105/12/16 03:20:31  5-MIN KAHN 120820Z AUTO 28003KT 10SM OVC060 20/17 A3010 640 84 1400 280/03 RMK AO2 T02000172
13873KAHN AHN20160512032511105/12/16 03:25:31  5-MIN KAHN 120825Z AUTO 28003KT 10SM BKN060 20/17 A3010 640 84 1400 290/03 RMK AO2 T02000172
13873KAHN AHN20160512033011105/12/16 03:30:31  5-MIN KAHN 120830Z AUTO 26003KT 10SM BKN060 20/17 A3010 640 84 1400 270/03 RMK AO2 T02000172
13873KAHN AHN20160512033511105/12/16 03:35:31  5-MIN KAHN 120835Z AUTO 00000KT 10SM SCT060 20/17 A3010 640 84 1400 000/00 RMK AO2 T02000172
13873KAHN AHN20160512034011105/12/16 03:40:31  5-MIN KAHN 120840Z AUTO 25003KT 10SM SCT060 20/17 A3010 640 84 1400 260/03 RMK AO2 T02000172
13873KAHN AHN20160512034512405/12/16 03:45:31  5-MIN KAHN 120845Z AUTO 00000KT 10SM FEW060 20/17 A3010 640 84 1400 000/00 RMK AO2 SLP186 T02000172 57007
13873KAHN AHN20160512035012405/12/16 03:50:31  5-MIN KAHN 120850Z AUTO 26003KT 10SM FEW060 20/17 A3011 640 84 1400 260/03 RMK AO2 SLP188 T02000172 57007
13873KAHN AHN20160512035510805/12/16 03:55:31  5-MIN KAHN 120855Z AUTO 26003KT 10SM CLR 20/17 A3011 640 84 1400 260/03 RMK AO2 T02000172
13873KAHN AHN20160512040010805/12/16 04:00:31  5-MIN KAHN 120900Z AUTO 00000KT 10SM CLR 20/17 A3011 640 84 1400 000/00 RMK AO2 T02000172
13873KAHN AHN20160512040510805/12/16 04:05:31  5-MIN KAHN 120905Z AUTO 00000KT 10SM CLR 19/17 A3011 640 87 1300 000/00 RMK AO2 T01940172
13873KAHN AHN20160512041010805/12/16 04:10:31  5-MIN KAHN 120910Z AUTO 00000KT 10SM CLR 19/17 A3011 640 90 1300 000/00 RMK AO2 T01890172
13873KAHN AHN20160512041510805/12/16 04:15:31  5-MIN KAHN 120915Z AUTO 00000KT 10SM CLR 19/17 A3011 640 87 1300 000/00 RMK AO2 T01940172
13873KAHN AHN20160512042010805/12/16 04:20:31  5-MIN KAHN 120920Z AUTO 00000KT 10SM CLR 19/17 A3011 640 87 1300 000/00 RMK AO2 T01940172
13873KAHN AHN20160512042510805/12/16 04:25:31  5-MIN KAHN 120925Z AUTO 00000KT 10SM CLR 19/17 A3011 630 87 1300 000/00 RMK AO2 T01940172
13873KAHN AHN20160512043010805/12/16 04:30:31  5-MIN KAHN 120930Z AUTO 00000KT 10SM CLR 19/17 A3011 630 87 1300 000/00 RMK AO2 T01940172
13873KAHN AHN20160512043510805/12/16 04:35:31  5-MIN KAHN 120935Z AUTO 00000KT 10SM CLR 19/17 A3011 630 90 1300 000/00 RMK AO2 T01890172
13873KAHN AHN20160512044010805/12/16 04:40:31  5-MIN KAHN 120940Z AUTO 00000KT 10SM CLR 19/17 A3011 630 90 1300 000/00 RMK AO2 T01890172
13873KAHN AHN20160512044511505/12/16 04:45:31  5-MIN KAHN 120945Z AUTO 00000KT 10SM CLR 19/17 A3012 630 87 1300 000/00 RMK AO2 SLP190 T01940172
13873KAHN AHN20160512045011505/12/16 04:50:31  5-MIN KAHN 120950Z AUTO 00000KT 10SM CLR 19/17 A3011 630 90 1300 000/00 RMK AO2 SLP191 T01890172
13873KAHN AHN20160512045510805/12/16 04:55:31  5-MIN KAHN 120955Z AUTO 00000KT 10SM CLR 19/17 A3011 630 87 1300 000/00 RMK AO2 T01940172
13873KAHN AHN20160512050010805/12/16 05:00:31  5-MIN KAHN 121000Z AUTO 00000KT 10SM CLR 19/17 A3011 630 90 1300 000/00 RMK AO2 T01890172
13873KAHN AHN20160512050510805/12/16 05:05:31  5-MIN KAHN 121005Z AUTO 00000KT 10SM CLR 19/17 A3011 630 90 1300 000/00 RMK AO2 T01890172
13873KAHN AHN20160512051010805/12/16 05:10:31  5-MIN KAHN 121010Z AUTO 00000KT 10SM CLR 19/17 A3011 640 90 1300 000/00 RMK AO2 T01890172
13873KAHN AHN20160512051510805/12/16 05:15:31  5-MIN KAHN 121015Z AUTO 00000KT 10SM CLR 19/17 A3011 630 90 1300 000/00 RMK AO2 T01890172
13873KAHN AHN20160512052010805/12/16 05:20:31  5-MIN KAHN 121020Z AUTO 00000KT 10SM CLR 19/17 A3011 640 90 1300 000/00 RMK AO2 T01890172
13873KAHN AHN20160512052510805/12/16 05:25:31  5-MIN KAHN 121025Z AUTO 30003KT 10SM CLR 19/17 A3011 630 90 1300 310/03 RMK AO2 T01890172
13873KAHN AHN20160512053010805/12/16 05:30:31  5-MIN KAHN 121030Z AUTO 00000KT 10SM CLR 19/17 A3011 630 90 1300 000/00 RMK AO2 T01890172
13873KAHN AHN20160512053510805/12/16 05:35:31  5-MIN KAHN 121035Z AUTO 36003KT 10SM CLR 19/17 A3011 630 87 1300 360/03 RMK AO2 T01940172
13873KAHN AHN20160512054010805/12/16 05:40:31  5-MIN KAHN 121040Z AUTO 00000KT 10SM CLR 20/17 A3012 630 84 1400 000/00 RMK AO2 T02000172
13873KAHN AHN20160512054511505/12/16 05:45:31  5-MIN KAHN 121045Z AUTO 00000KT 10SM CLR 20/17 A3012 630 84 1400 000/00 RMK AO2 SLP191 T02000172
13873KAHN AHN20160512055011505/12/16 05:50:31  5-MIN KAHN 121050Z AUTO VRB03KT 10SM CLR 19/17 A3012 630 87 1300 VRB/03 RMK AO2 SLP192 T01940172
13873KAHN AHN20160512055510705/12/16 05:55:31  5-MIN KAHN 121055Z AUTO 00000KT 9SM CLR 19/17 A3012 630 90 1300 000/00 RMK AO2 T01890172
13873KAHN AHN20160512060010705/12/16 06:00:31  5-MIN KAHN 121100Z AUTO 00000KT 9SM CLR 19/17 A3012 620 90 1300 000/00 RMK AO2 T01890172
13873KAHN AHN20160512060510705/12/16 06:05:31  5-MIN KAHN 121105Z AUTO 00000KT 9SM CLR 19/17 A3012 630 90 1300 000/00 RMK AO2 T01890172
13873KAHN AHN20160512061010705/12/16 06:10:31  5-MIN KAHN 121110Z AUTO 00000KT 9SM CLR 19/17 A3012 630 90 1300 000/00 RMK AO2 T01890172
13873KAHN AHN20160512061510705/12/16 06:15:31  5-MIN KAHN 121115Z AUTO 00000KT 9SM CLR 19/17 A3012 630 87 1300 000/00 RMK AO2 T01940172
13873KAHN AHN20160512062010705/12/16 06:20:31  5-MIN KAHN 121120Z AUTO 00000KT 8SM CLR 19/18 A3012 630 90 1300 000/00 RMK AO2 T01940178
13873KAHN AHN20160512062510705/12/16 06:25:31  5-MIN KAHN 121125Z AUTO 00000KT 8SM CLR 19/18 A3012 620 90 1300 000/00 RMK AO2 T01940178
13873KAHN AHN20160512063010705/12/16 06:30:31  5-MIN KAHN 121130Z AUTO 00000KT 8SM CLR 20/18 A3012 620 87 1400 000/00 RMK AO2 T02000178
13873KAHN AHN20160512063510705/12/16 06:35:31  5-MIN KAHN 121135Z AUTO 00000KT 8SM CLR 21/18 A3013 620 87 1500 000/00 RMK AO2 T02060183
13873KAHN AHN20160512064010705/12/16 06:40:31  5-MIN KAHN 121140Z AUTO 00000KT 8SM CLR 21/18 A3013 620 84 1500 000/00 RMK AO2 T02110183
13873KAHN AHN20160512064513205/12/16 06:45:31  5-MIN KAHN 121145Z AUTO 00000KT 9SM CLR 21/18 A3013 620 84 1500 000/00 RMK AO2 SLP195 T02110183 10217 20189 55003
13873KAHN AHN20160512065012705/12/16 06:50:31  5-MIN KAHN 121150Z 00000KT 9SM CLR 22/18 A3013 620 81 1600 000/00 RMK AO2 SLP195 T02170183 10217 20189 55003
13873KAHN AHN20160512065510205/12/16 06:55:31  5-MIN KAHN 121155Z 00000KT 9SM CLR 22/19 A3013 620 81 1600 000/00 RMK AO2 T02220189
13873KAHN AHN20160512070010205/12/16 07:00:31  5-MIN KAHN 121200Z 00000KT 9SM CLR 22/19 A3013 620 84 1600 000/00 RMK AO2 T02170189
13873KAHN AHN20160512070510205/12/16 07:05:31  5-MIN KAHN 121205Z 29003KT 9SM CLR 22/19 A3013 610 81 1600 290/03 RMK AO2 T02220189
13873KAHN AHN20160512071010205/12/16 07:10:31  5-MIN KAHN 121210Z 26003KT 8SM CLR 22/19 A3014 610 84 1600 260/03 RMK AO2 T02170189
13873KAHN AHN20160512071510205/12/16 07:15:31  5-MIN KAHN 121215Z 00000KT 8SM CLR 22/19 A3014 610 81 1600 000/00 RMK AO2 T02220189
13873KAHN AHN20160512072010205/12/16 07:20:31  5-MIN KAHN 121220Z 00000KT 8SM CLR 23/19 A3014 610 78 1700 000/00 RMK AO2 T02280189
13873KAHN AHN20160512072510205/12/16 07:25:31  5-MIN KAHN 121225Z 25003KT 9SM CLR 23/19 A3014 610 76 1800 260/03 RMK AO2 T02330189
13873KAHN AHN20160512073010305/12/16 07:30:31  5-MIN KAHN 121230Z 27003KT 10SM CLR 23/19 A3014 610 76 1800 270/03 RMK AO2 T02330189
13873KAHN AHN20160512073510305/12/16 07:35:31  5-MIN KAHN 121235Z 00000KT 10SM CLR 23/19 A3014 610 76 1800 000/00 RMK AO2 T02330189
13873KAHN AHN20160512074010305/12/16 07:40:31  5-MIN KAHN 121240Z 00000KT 10SM CLR 23/19 A3014 610 76 1800 000/00 RMK AO2 T02330189
13873KAHN AHN20160512074511005/12/16 07:45:31  5-MIN KAHN 121245Z 00000KT 10SM CLR 24/19 A3014 610 73 1800 000/00 RMK AO2 SLP198 T02390189
13873KAHN AHN20160512075011005/12/16 07:50:31  5-MIN KAHN 121250Z 00000KT 10SM CLR 24/19 A3014 610 73 1800 000/00 RMK AO2 SLP198 T02390189
13873KAHN AHN20160512075510305/12/16 07:55:31  5-MIN KAHN 121255Z 00000KT 10SM CLR 23/19 A3014 610 76 1800 000/00 RMK AO2 T02330189
13873KAHN AHN20160512080010305/12/16 08:00:31  5-MIN KAHN 121300Z 00000KT 10SM CLR 24/19 A3014 610 73 1900 000/00 RMK AO2 T02440194
13873KAHN AHN20160512080510305/12/16 08:05:31  5-MIN KAHN 121305Z 00000KT 10SM CLR 25/19 A3014 610 71 1900 000/00 RMK AO2 T02500194
13873KAHN AHN20160512081010305/12/16 08:10:31  5-MIN KAHN 121310Z 00000KT 10SM CLR 26/19 A3014 610 68 2000 000/00 RMK AO2 T02560194
13873KAHN AHN20160512081510205/12/16 08:15:31  5-MIN KAHN 121315Z 00000KT 9SM CLR 25/19 A3014 610 71 1900 000/00 RMK AO2 T02500194
13873KAHN AHN20160512082010305/12/16 08:20:31  5-MIN KAHN 121320Z 00000KT 10SM CLR 26/20 A3014 610 71 2000 000/00 RMK AO2 T02560200
13873KAHN AHN20160512082510305/12/16 08:25:31  5-MIN KAHN 121325Z 00000KT 10SM CLR 26/20 A3014 610 71 2000 000/00 RMK AO2 T02560200
13873KAHN AHN20160512083010305/12/16 08:30:31  5-MIN KAHN 121330Z 00000KT 10SM CLR 26/20 A3014 610 71 2000 000/00 RMK AO2 T02560200
13873KAHN AHN20160512083510305/12/16 08:35:31  5-MIN KAHN 121335Z VRB03KT 10SM CLR 26/20 A3014 610 68 2100 VRB/03 RMK AO2 T02610200
13873KAHN AHN20160512084010305/12/16 08:40:31  5-MIN KAHN 121340Z VRB03KT 10SM CLR 27/20 A3014 610 66 2100 VRB/03 RMK AO2 T02670200
13873KAHN AHN20160512084511005/12/16 08:45:31  5-MIN KAHN 121345Z 00000KT 10SM CLR 27/20 A3014 610 66 2100 000/00 RMK AO2 SLP198 T02670200
13873KAHN AHN20160512085011005/12/16 08:50:31  5-MIN KAHN 121350Z VRB03KT 10SM CLR 27/19 A3014 610 64 2100 VRB/03 RMK AO2 SLP198 T02670194
13873KAHN AHN20160512085510305/12/16 08:55:31  5-MIN KAHN 121355Z 00000KT 10SM CLR 27/19 A3014 610 62 2200 000/00 RMK AO2 T02720194
13873KAHN AHN20160512090010305/12/16 09:00:31  5-MIN KAHN 121400Z VRB03KT 10SM CLR 27/19 A3014 610 62 2200 VRB/03 RMK AO2 T02720194
13873KAHN AHN20160512090510305/12/16 09:05:31  5-MIN KAHN 121405Z 00000KT 10SM CLR 27/19 A3014 610 62 2200 000/00 RMK AO2 T02720194
13873KAHN AHN20160512091010305/12/16 09:10:31  5-MIN KAHN 121410Z VRB03KT 10SM CLR 27/19 A3014 610 64 2100 VRB/03 RMK AO2 T02670194
13873KAHN AHN20160512091510305/12/16 09:15:31  5-MIN KAHN 121415Z 00000KT 10SM CLR 27/19 A3014 610 62 2200 000/00 RMK AO2 T02720194
13873KAHN AHN20160512092010305/12/16 09:20:31  5-MIN KAHN 121420Z 00000KT 10SM CLR 27/19 A3014 610 62 2200 000/00 RMK AO2 T02720194
13873KAHN AHN20160512092510305/12/16 09:25:31  5-MIN KAHN 121425Z VRB04KT 10SM CLR 28/19 A3014 610 58 2300 VRB/04 RMK AO2 T02830194
13873KAHN AHN20160512093010305/12/16 09:30:31  5-MIN KAHN 121430Z 27003KT 10SM CLR 29/19 A3013 610 56 2400 270/03 RMK AO2 T02890194
13873KAHN AHN20160512093510305/12/16 09:35:31  5-MIN KAHN 121435Z 31004KT 10SM CLR 29/19 A3013 620 54 2400 320/04 RMK AO2 T02890189
13873KAHN AHN20160512094010305/12/16 09:40:31  5-MIN KAHN 121440Z VRB04KT 10SM CLR 28/19 A3013 620 56 2300 VRB/04 RMK AO2 T02830189
13873KAHN AHN20160512094511605/12/16 09:45:31  5-MIN KAHN 121445Z VRB03KT 10SM CLR 29/19 A3013 620 54 2400 VRB/03 RMK AO2 SLP195 T02890189 52007
13873KAHN AHN20160512095011905/12/16 09:50:31  5-MIN KAHN 121450Z VRB04KT 10SM FEW039 28/18 A3013 620 54 2300 VRB/04 RMK AO2 SLP195 T02830183 52007
13873KAHN AHN20160512095510605/12/16 09:55:31  5-MIN KAHN 121455Z VRB05KT 10SM FEW039 29/18 A3013 620 52 2400 VRB/05 RMK AO2 T02890183
13873KAHN AHN20160512100009605/12/16 10:00:31  5-MIN KAHN 121500Z 10SM FEW039 29/18 A3013 620 50 2500 M /M RMK AO2 T02940183
13873KAHN AHN20160512100510605/12/16 10:05:31  5-MIN KAHN 121505Z 00000KT 10SM FEW039 29/18 A3013 620 50 2400 000/00 RMK AO2 T02890178
13873KAHN AHN20160512101011305/12/16 10:10:31  5-MIN KAHN 121510Z VRB04KT 10SM SCT041 BKN050 29/18 A3013 620 50 2500 VRB/04 RMK AO2 T02940183
13873KAHN AHN20160512101511305/12/16 10:15:31  5-MIN KAHN 121515Z 27006KT 10SM SCT041 BKN050 29/18 A3013 620 50 2500 270/06 RMK AO2 T02940183
13873KAHN AHN20160512102011305/12/16 10:20:31  5-MIN KAHN 121520Z VRB03KT 10SM SCT041 BKN050 29/18 A3013 610 52 2400 VRB/03 RMK AO2 T02890183
13873KAHN AHN20160512102511305/12/16 10:25:31  5-MIN KAHN 121525Z VRB04KT 10SM SCT040 SCT050 29/19 A3013 620 54 2400 VRB/04 RMK AO2 T02890189
13873KAHN AHN20160512103011305/12/16 10:30:31  5-MIN KAHN 121530Z VRB04KT 10SM SCT040 SCT050 29/18 A3013 620 52 2400 VRB/04 RMK AO2 T02890183
13873KAHN AHN20160512103511305/12/16 10:35:31  5-MIN KAHN 121535Z 23005KT 10SM FEW042 SCT050 29/18 A3013 620 49 2500 240/05 RMK AO2 T02940178
13873KAHN AHN20160512104010605/12/16 10:40:31  5-MIN KAHN 121540Z 22005KT 10SM FEW042 31/18 A3012 620 46 2600 220/05 RMK AO2 T03060178
13873KAHN AHN20160512104511305/12/16 10:45:31  5-MIN KAHN 121545Z VRB05KT 10SM FEW042 29/17 A3013 620 47 2500 VRB/05 RMK AO2 SLP193 T02940172
13873KAHN AHN20160512105012905/12/16 10:50:31  5-MIN KAHN 121550Z 25007KT 210V280 10SM FEW044 29/17 A3013 620 48 2400 250/07 220V290 RMK AO2 SLP193 T02890172
13873KAHN AHN20160512105510605/12/16 10:55:31  5-MIN KAHN 121555Z VRB03KT 10SM SCT045 28/17 A3013 620 50 2300 VRB/03 RMK AO2 T02830172
13873KAHN AHN20160512110010605/12/16 11:00:31  5-MIN KAHN 121600Z VRB04KT 10SM SCT047 28/17 A3013 620 50 2300 VRB/04 RMK AO2 T02830172
13873KAHN AHN20160512110510605/12/16 11:05:31  5-MIN KAHN 121605Z VRB03KT 10SM SCT047 28/18 A3012 620 52 2300 VRB/03 RMK AO2 T02830178
13873KAHN AHN20160512111010605/12/16 11:10:31  5-MIN KAHN 121610Z VRB03KT 10SM FEW047 29/18 A3013 620 50 2400 VRB/03 RMK AO2 T02890178
13873KAHN AHN20160512111510605/12/16 11:15:31  5-MIN KAHN 121615Z VRB04KT 10SM SCT047 29/18 A3012 620 50 2500 VRB/04 RMK AO2 T02940183
13873KAHN AHN20160512112010605/12/16 11:20:31  5-MIN KAHN 121620Z VRB03KT 10SM FEW047 29/18 A3012 630 50 2400 VRB/03 RMK AO2 T02890178
13873KAHN AHN20160512112510605/12/16 11:25:31  5-MIN KAHN 121625Z VRB03KT 10SM FEW047 29/18 A3012 630 49 2500 VRB/03 RMK AO2 T02940178
13873KAHN AHN20160512113010305/12/16 11:30:31  5-MIN KAHN 121630Z 22006KT 10SM CLR 30/17 A3012 630 45 2500 230/06 RMK AO2 T03000172
13873KAHN AHN20160512113510305/12/16 11:35:31  5-MIN KAHN 121635Z VRB05KT 10SM CLR 30/17 A3012 630 45 2500 VRB/05 RMK AO2 T03000172
13873KAHN AHN20160512114010305/12/16 11:40:31  5-MIN KAHN 121640Z VRB06KT 10SM CLR 29/17 A3012 630 47 2500 VRB/06 RMK AO2 T02940172
13873KAHN AHN20160512114511005/12/16 11:45:31  5-MIN KAHN 121645Z VRB05KT 10SM CLR 31/18 A3011 630 46 2600 VRB/05 RMK AO2 SLP189 T03060178
13873KAHN AHN20160512115011005/12/16 11:50:31  5-MIN KAHN 121650Z VRB03KT 10SM CLR 31/18 A3011 630 44 2700 VRB/03 RMK AO2 SLP189 T03110178
13873KAHN AHN20160512115510605/12/16 11:55:31  5-MIN KAHN 121655Z 20006KT 10SM FEW047 29/18 A3011 630 49 2500 210/06 RMK AO2 T02940178
13873KAHN AHN20160512120010605/12/16 12:00:31  5-MIN KAHN 121700Z 00000KT 10SM SCT047 29/17 A3011 640 47 2500 000/00 RMK AO2 T02940172
13873KAHN AHN20160512120510605/12/16 12:05:31  5-MIN KAHN 121705Z VRB05KT 10SM SCT046 29/17 A3010 640 47 2500 VRB/05 RMK AO2 T02940172
13873KAHN AHN20160512121010605/12/16 12:10:31  5-MIN KAHN 121710Z VRB04KT 10SM FEW048 29/18 A3010 640 49 2500 VRB/04 RMK AO2 T02940178
13873KAHN AHN20160512121510605/12/16 12:15:31  5-MIN KAHN 121715Z VRB04KT 10SM FEW046 30/17 A3010 640 45 2500 VRB/04 RMK AO2 T03000172
13873KAHN AHN20160512122010605/12/16 12:20:31  5-MIN KAHN 121720Z VRB06KT 10SM FEW046 29/17 A3010 640 47 2500 VRB/06 RMK AO2 T02940172
13873KAHN AHN20160512122512505/12/16 12:25:31  5-MIN KAHN 121725Z 23004KT 10SM FEW048 FEW060 29/17 A3010 640 48 2400 230/04 RMK AO2 LTG DSNT NW T02890172
13873KAHN AHN20160512123012405/12/16 12:30:31  5-MIN KAHN 121730Z VRB03KT 10SM SCT050 30/18 A3010 640 47 2500 VRB/03 RMK AO2 LTG DSNT N AND NW T03000178
13873KAHN AHN20160512123512405/12/16 12:35:31  5-MIN KAHN 121735Z VRB06KT 10SM SCT050 30/18 A3010 650 47 2600 VRB/06 RMK AO2 LTG DSNT N AND NW T03000178
13873KAHN AHN20160512124013105/12/16 12:40:31  5-MIN KAHN 121740Z 23005KT 10SM SCT050 SCT075 29/17 A3010 650 48 2400 230/05 RMK AO2 LTG DSNT N AND NW T02890172
13873KAHN AHN20160512124514905/12/16 12:45:31  5-MIN KAHN 121745Z VRB03KT 10SM FEW050 BKN070 30/17 A3009 650 45 2600 VRB/03 RMK AO2 LTG DSNT N SLP182 T03000172 10311 20217 50001
13873KAHN AHN20160512125014905/12/16 12:50:31  5-MIN KAHN 121750Z VRB04KT 10SM FEW050 SCT070 30/17 A3009 650 45 2600 VRB/04 RMK AO2 LTG DSNT N SLP182 T03000172 10311 20217 50001
13873KAHN AHN20160512125512405/12/16 12:55:31  5-MIN KAHN 121755Z 00000KT 10SM FEW050 SCT070 29/17 A3009 650 47 2500 000/00 RMK AO2 LTG DSNT N T02940172
13873KAHN AHN20160512130011305/12/16 13:00:31  5-MIN KAHN 121800Z 00000KT 10SM FEW050 SCT070 29/17 A3008 660 47 2500 000/00 RMK AO2 T02940172
13873KAHN AHN20160512130511305/12/16 13:05:31  5-MIN KAHN 121805Z VRB03KT 10SM FEW055 FEW070 30/17 A3008 660 45 2600 VRB/03 RMK AO2 T03000172
13873KAHN AHN20160512131012405/12/16 13:10:31  5-MIN KAHN 121810Z 23005KT 10SM FEW060 SCT080 29/17 A3008 660 47 2500 240/05 RMK AO2 LTG DSNT N T02940172
13873KAHN AHN20160512131512405/12/16 13:15:31  5-MIN KAHN 121815Z VRB03KT 10SM FEW060 SCT080 29/17 A3008 670 47 2500 VRB/03 RMK AO2 LTG DSNT N T02940172
13873KAHN AHN20160512132012305/12/16 13:20:31  5-MIN KAHN 121820Z 00000KT 9SM SCT055 SCT080 31/17 A3007 670 44 2600 000/00 RMK AO2 LTG DSNT N T03060172
13873KAHN AHN20160512132511905/12/16 13:25:31  5-MIN KAHN 121825Z VRB04KT 9SM FEW055 SCT070 SCT080 29/17 A3007 670 47 2500 VRB/04 RMK AO2 T02940172
13873KAHN AHN20160512133011305/12/16 13:30:31  5-MIN KAHN 121830Z 22003KT 10SM FEW055 SCT075 31/18 A3007 680 46 2600 230/03 RMK AO2 T03060178
13873KAHN AHN20160512133511305/12/16 13:35:31  5-MIN KAHN 121835Z 00000KT 10SM FEW055 SCT080 30/17 A3006 680 44 2600 000/00 RMK AO2 T03000167
13873KAHN AHN20160512134010605/12/16 13:40:31  5-MIN KAHN 121840Z VRB04KT 10SM SCT055 30/17 A3006 680 45 2600 VRB/04 RMK AO2 T03000172
13873KAHN AHN20160512134512005/12/16 13:45:31  5-MIN KAHN 121845Z VRB03KT 10SM SCT055 SCT070 31/17 A3006 680 42 2700 VRB/03 RMK AO2 SLP171 T03060167
13873KAHN AHN20160512135011305/12/16 13:50:31  5-MIN KAHN 121850Z VRB06KT 10SM SCT060 31/16 A3005 690 40 2700 VRB/06 RMK AO2 SLP169 T03110161
13873KAHN AHN20160512135510605/12/16 13:55:31  5-MIN KAHN 121855Z VRB05KT 10SM SCT060 31/17 A3005 690 41 2700 VRB/05 RMK AO2 T03110167
13873KAHN AHN20160512140010605/12/16 14:00:31  5-MIN KAHN 121900Z VRB04KT 10SM BKN060 32/17 A3005 690 40 2800 VRB/04 RMK AO2 T03170167
13873KAHN AHN20160512140510605/12/16 14:05:31  5-MIN KAHN 121905Z VRB04KT 10SM BKN060 32/17 A3005 690 38 2800 VRB/04 RMK AO2 T03220167
13873KAHN AHN20160512141010605/12/16 14:10:31  5-MIN KAHN 121910Z VRB05KT 10SM SCT060 32/16 A3005 690 38 2800 VRB/05 RMK AO2 T03170161
13873KAHN AHN20160512141510605/12/16 14:15:31  5-MIN KAHN 121915Z VRB05KT 10SM SCT060 32/16 A3005 690 37 2800 VRB/05 RMK AO2 T03220161
13873KAHN AHN20160512142010605/12/16 14:20:31  5-MIN KAHN 121920Z VRB06KT 10SM SCT060 32/16 A3005 690 38 2800 VRB/06 RMK AO2 T03170161
13873KAHN AHN20160512142510605/12/16 14:25:31  5-MIN KAHN 121925Z VRB03KT 10SM SCT060 31/16 A3004 700 41 2700 VRB/03 RMK AO2 T03060161
13873KAHN AHN20160512143010605/12/16 14:30:31  5-MIN KAHN 121930Z 23005KT 10SM SCT060 31/16 A3004 700 41 2700 240/05 RMK AO2 T03060161
13873KAHN AHN20160512143511305/12/16 14:35:31  5-MIN KAHN 121935Z VRB05KT 10SM SCT060 BKN095 30/16 A3004 700 42 2600 VRB/05 RMK AO2 T03000161
13873KAHN AHN20160512144011305/12/16 14:40:31  5-MIN KAHN 121940Z VRB05KT 10SM SCT060 SCT095 31/16 A3003 710 40 2700 VRB/05 RMK AO2 T03110161
13873KAHN AHN20160512144511305/12/16 14:45:31  5-MIN KAHN 121945Z VRB06KT 10SM SCT060 31/16 A3003 710 40 2700 VRB/06 RMK AO2 SLP161 T03110161
13873KAHN AHN20160512145011305/12/16 14:50:31  5-MIN KAHN 121950Z 22007KT 10SM SCT060 31/16 A3003 710 41 2700 230/07 RMK AO2 SLP161 T03060161
13873KAHN AHN20160512145510605/12/16 14:55:31  5-MIN KAHN 121955Z 26004KT 10SM SCT060 31/16 A3003 710 41 2700 260/04 RMK AO2 T03060161
13873KAHN AHN20160512150009605/12/16 15:00:31  5-MIN KAHN 122000Z 10SM SCT060 32/16 A3003 710 37 2900 M /M RMK AO2 T03220161
13873KAHN AHN20160512150510605/12/16 15:05:31  5-MIN KAHN 122005Z VRB05KT 10SM SCT060 32/16 A3003 710 38 2800 VRB/05 RMK AO2 T03170161
13873KAHN AHN20160512151010605/12/16 15:10:31  5-MIN KAHN 122010Z VRB05KT 10SM FEW060 32/16 A3003 710 38 2800 VRB/05 RMK AO2 T03170161
13873KAHN AHN20160512151510605/12/16 15:15:31  5-MIN KAHN 122015Z 23009KT 10SM FEW060 31/16 A3003 710 38 2700 240/09 RMK AO2 T03110156
13873KAHN AHN20160512152010605/12/16 15:20:31  5-MIN KAHN 122020Z VRB06KT 10SM FEW065 31/16 A3002 710 39 2700 VRB/06 RMK AO2 T03060156
13873KAHN AHN20160512152510605/12/16 15:25:31  5-MIN KAHN 122025Z 23008KT 10SM FEW065 31/16 A3002 710 38 2800 240/08 RMK AO2 T03110156
13873KAHN AHN20160512153010305/12/16 15:30:31  5-MIN KAHN 122030Z VRB05KT 10SM CLR 31/16 A3002 720 38 2800 VRB/05 RMK AO2 T03110156
13873KAHN AHN20160512153510305/12/16 15:35:31  5-MIN KAHN 122035Z VRB05KT 10SM CLR 31/16 A3002 720 39 2700 VRB/05 RMK AO2 T03060156
13873KAHN AHN20160512154012105/12/16 15:40:31  5-MIN KAHN 122040Z 26005KT 10SM CLR 30/16 A3002 720 42 2600 260/05 RMK AO2 LTG DSNT N AND NW T03000161
13873KAHN AHN20160512154513705/12/16 15:45:31  5-MIN KAHN 122045Z 23006KT 10SM FEW090 29/16 A3002 720 44 2600 230/06 RMK AO2 LTG DSNT N AND NW SLP158 T02940161 58013
13873KAHN AHN20160512155014205/12/16 15:50:31  5-MIN KAHN 122050Z AUTO 25006KT 10SM FEW080 29/16 A3002 720 44 2600 250/06 RMK AO2 LTG DSNT N AND NW SLP159 T02940161 58013
13873KAHN AHN20160512155513105/12/16 15:55:31  5-MIN KAHN 122055Z VRB06KT 10SM FEW080 FEW120 31/16 A3002 720 41 2700 VRB/06 RMK AO2 LTG DSNT N AND NW T03060161
13873KAHN AHN20160512160013105/12/16 16:00:31  5-MIN KAHN 122100Z 22005KT 10SM FEW080 FEW120 31/17 A3001 720 42 2700 230/05 RMK AO2 LTG DSNT N AND NW T03060167
13873KAHN AHN20160512160512505/12/16 16:05:31  5-MIN KAHN 122105Z 24006KT 10SM FEW060 FEW080 30/16 A3001 720 42 2600 250/06 RMK AO2 LTG DSNT NW T03000161
13873KAHN AHN20160512161013105/12/16 16:10:31  5-MIN KAHN 122110Z VRB06KT 10SM SCT060 BKN080 31/17 A3001 720 42 2700 VRB/06 RMK AO2 LTG DSNT N AND NW T03060167
13873KAHN AHN20160512161515305/12/16 16:15:31  5-MIN KAHN 122115Z 24009G15KT 200V270 10SM SCT060 BKN080 31/17 A3001 730 41 2800 240/09G15 210V280 RMK AO2 LTG DSNT N AND NW T03110167
13873KAHN AHN20160512162013005/12/16 16:20:31  5-MIN KAHN 122120Z VRB06G15KT 10SM SCT060 30/16 A3001 730 42 2600 VRB/06G15 RMK AO2 LTG DSNT N AND NW T03000161
13873KAHN AHN20160512162512405/12/16 16:25:31  5-MIN KAHN 122125Z 24006KT 10SM FEW060 29/16 A3001 720 44 2600 250/06 RMK AO2 LTG DSNT N AND NW T02940161
13873KAHN AHN20160512163014605/12/16 16:30:31  5-MIN KAHN 122130Z 25008G17KT 220V290 10SM FEW060 29/16 A3001 720 44 2600 250/08G17 230V300 RMK AO2 LTG DSNT N AND NW T02940161
13873KAHN AHN20160512163514605/12/16 16:35:31  5-MIN KAHN 122135Z 24007G17KT 210V280 10SM FEW060 29/16 A3002 720 42 2600 250/07G17 220V290 RMK AO2 LTG DSNT N AND NW T02940156
13873KAHN AHN20160512164012105/12/16 16:40:31  5-MIN KAHN 122140Z VRB06KT 10SM CLR 29/16 A3002 720 42 2600 VRB/06 RMK AO2 LTG DSNT N AND NW T02940156
13873KAHN AHN20160512164512805/12/16 16:45:31  5-MIN KAHN 122145Z 26007KT 10SM CLR 29/16 A3002 720 44 2500 260/07 RMK AO2 LTG DSNT N AND NW SLP158 T02890156
13873KAHN AHN20160512165013405/12/16 16:50:31  5-MIN KAHN 122150Z 25008G15KT 10SM CLR 29/16 A3002 720 44 2500 250/08G15 RMK AO2 LTG DSNT N AND NE SLP159 T02890156
13873KAHN AHN20160512165512705/12/16 16:55:31  5-MIN KAHN 122155Z 27008G15KT 10SM CLR 29/15 A3002 720 42 2500 270/08G15 RMK AO2 LTG DSNT N AND NE T02890150
13873KAHN AHN20160512170012705/12/16 17:00:31  5-MIN KAHN 122200Z 27006G15KT 10SM CLR 29/16 A3002 720 44 2500 270/06G15 RMK AO2 LTG DSNT N AND NE T02890156
13873KAHN AHN20160512170512105/12/16 17:05:31  5-MIN KAHN 122205Z 27006KT 10SM CLR 28/16 A3002 720 45 2500 270/06 RMK AO2 LTG DSNT N AND NE T02830156
13873KAHN AHN20160512171012705/12/16 17:10:31  5-MIN KAHN 122210Z 28011G20KT 10SM CLR 28/16 A3003 710 46 2400 290/11G20 RMK AO2 LTG DSNT N AND NE T02780156
13873KAHN AHN20160512171512705/12/16 17:15:31  5-MIN KAHN 122215Z 31009G20KT 10SM CLR 27/17 A3003 710 52 2300 320/09G20 RMK AO2 LTG DSNT N AND NE T02720167
13873KAHN AHN20160512172012105/12/16 17:20:31  5-MIN KAHN 122220Z VRB06G16KT 10SM CLR 27/17 A3003 710 52 2300 VRB/06G16 RMK AO2 LTG DSNT NE T02720167
13873KAHN AHN20160512172513105/12/16 17:25:31  5-MIN KAHN 122225Z 32008KT 300V020 10SM CLR 26/17 A3003 710 55 2200 330/08 310V030 RMK AO2 LTG DSNT NE T02610167
13873KAHN AHN20160512173012105/12/16 17:30:31  5-MIN KAHN 122230Z 32012G17KT 10SM CLR 26/17 A3004 700 57 2100 320/12G17 RMK AO2 LTG DSNT NE T02560167
13873KAHN AHN20160512173512105/12/16 17:35:31  5-MIN KAHN 122235Z 31011G19KT 10SM CLR 25/17 A3004 700 59 2100 310/11G19 RMK AO2 LTG DSNT NE T02500167
13873KAHN AHN20160512174012105/12/16 17:40:31  5-MIN KAHN 122240Z 33008G19KT 10SM CLR 24/17 A3004 700 63 2000 340/08G19 RMK AO2 LTG DSNT NE T02440172
13873KAHN AHN20160512174512205/12/16 17:45:31  5-MIN KAHN 122245Z 33007KT 10SM CLR 24/17 A3004 700 63 2000 330/07 RMK AO2 LTG DSNT NE SLP166 T02440172
13873KAHN AHN20160512175012005/12/16 17:50:31  5-MIN KAHN 122250Z 32007KT 10SM FEW075 SCT110 24/17 A3004 700 66 1900 320/07 RMK AO2 SLP167 T02390172
13873KAHN AHN20160512175512005/12/16 17:55:31  5-MIN KAHN 122255Z 33007KT 10SM FEW075 SCT100 BKN120 24/17 A3004 700 66 1900 330/07 RMK AO2 T02390172
13873KAHN AHN20160512180012005/12/16 18:00:31  5-MIN KAHN 122300Z 32005KT 10SM FEW075 FEW090 BKN110 24/17 A3004 700 66 1900 320/05 RMK AO2 T02390172
13873KAHN AHN20160512180512005/12/16 18:05:31  5-MIN KAHN 122305Z VRB05KT 10SM FEW044 SCT100 BKN120 24/17 A3004 700 63 2000 VRB/05 RMK AO2 T02440172
13873KAHN AHN20160512181012005/12/16 18:10:31  5-MIN KAHN 122310Z VRB04KT 10SM FEW044 SCT100 BKN120 24/17 A3004 700 63 2000 VRB/04 RMK AO2 T02440172
13873KAHN AHN20160512181511305/12/16 18:15:31  5-MIN KAHN 122315Z 31004KT 10SM FEW100 BKN120 24/17 A3003 700 66 1900 320/04 RMK AO2 T02390172
13873KAHN AHN20160512182010605/12/16 18:20:31  5-MIN KAHN 122320Z VRB06KT 10SM SCT110 24/17 A3004 700 66 1900 VRB/06 RMK AO2 T02390172
13873KAHN AHN20160512182510605/12/16 18:25:31  5-MIN KAHN 122325Z VRB04KT 10SM BKN110 24/17 A3004 700 63 1900 VRB/04 RMK AO2 T02390167
13873KAHN AHN20160512183010605/12/16 18:30:31  5-MIN KAHN 122330Z VRB03KT 10SM SCT120 23/17 A3004 700 66 1900 VRB/03 RMK AO2 T02330167
13873KAHN AHN20160512183510605/12/16 18:35:31  5-MIN KAHN 122335Z 35003KT 10SM FEW120 23/17 A3003 710 66 1900 360/03 RMK AO2 T02330167
13873KAHN AHN20160512184010605/12/16 18:40:31  5-MIN KAHN 122340Z VRB03KT 10SM FEW120 23/17 A3003 710 66 1900 VRB/03 RMK AO2 T02330167
13873KAHN AHN20160512184513105/12/16 18:45:31  5-MIN KAHN 122345Z VRB03KT 10SM FEW120 23/17 A3003 710 66 1900 VRB/03 RMK AO2 SLP163 T02330167 10322 20233 56024
13873KAHN AHN20160512185013105/12/16 18:50:31  5-MIN KAHN 122350Z 32004KT 10SM FEW110 23/17 A3003 710 66 1900 330/04 RMK AO2 SLP163 T02330167 10322 20233 56024
13873KAHN AHN20160512185510605/12/16 18:55:31  5-MIN KAHN 122355Z 00000KT 10SM FEW110 23/17 A3003 710 66 1900 000/00 RMK AO2 T02330167
13873KAHN AHN20160512190010605/12/16 19:00:31  5-MIN KAHN 130000Z 00000KT 10SM SCT110 23/17 A3003 710 70 1800 000/00 RMK AO2 T02280172
13873KAHN AHN20160512190511105/12/16 19:05:31  5-MIN KAHN 130005Z AUTO 02004KT 10SM SCT110 23/17 A3003 710 70 1800 020/04 RMK AO2 T02280172
13873KAHN AHN20160512191011105/12/16 19:10:31  5-MIN KAHN 130010Z AUTO 02003KT 10SM BKN110 23/17 A3002 710 70 1800 030/03 RMK AO2 T02280172
13873KAHN AHN20160512191511105/12/16 19:15:31  5-MIN KAHN 130015Z AUTO 34003KT 10SM BKN110 23/17 A3002 710 68 1800 340/03 RMK AO2 T02280167
13873KAHN AHN20160512192011105/12/16 19:20:31  5-MIN KAHN 130020Z AUTO 00000KT 10SM BKN110 23/17 A3002 710 68 1800 000/00 RMK AO2 T02280167
13873KAHN AHN20160512192511105/12/16 19:25:31  5-MIN KAHN 130025Z AUTO 00000KT 10SM OVC110 23/17 A3003 710 68 1800 000/00 RMK AO2 T02280167
13873KAHN AHN20160512193011105/12/16 19:30:31  5-MIN KAHN 130030Z AUTO VRB03KT 10SM OVC110 22/17 A3003 710 70 1800 VRB/03 RMK AO2 T02220167
13873KAHN AHN20160512193511105/12/16 19:35:31  5-MIN KAHN 130035Z AUTO 32003KT 10SM OVC110 22/17 A3003 710 70 1800 320/03 RMK AO2 T02220167
13873KAHN AHN20160512194011105/12/16 19:40:31  5-MIN KAHN 130040Z AUTO 32004KT 10SM OVC110 22/17 A3003 710 70 1800 330/04 RMK AO2 T02220167
13873KAHN AHN20160512194511805/12/16 19:45:31  5-MIN KAHN 130045Z AUTO 32003KT 10SM BKN110 22/17 A3003 710 70 1800 320/03 RMK AO2 SLP163 T02220167
13873KAHN AHN20160512195011805/12/16 19:50:31  5-MIN KAHN 130050Z AUTO 31003KT 10SM BKN110 22/17 A3003 710 70 1700 320/03 RMK AO2 SLP164 T02220167
13873KAHN AHN20160512195511105/12/16 19:55:31  5-MIN KAHN 130055Z AUTO 31003KT 10SM BKN110 22/17 A3003 700 70 1700 320/03 RMK AO2 T02220167
13873KAHN AHN20160512200011105/12/16 20:00:31  5-MIN KAHN 130100Z AUTO 30003KT 10SM BKN120 22/17 A3004 700 73 1700 310/03 RMK AO2 T02220172
13873KAHN AHN20160512200511105/12/16 20:05:31  5-MIN KAHN 130105Z AUTO 33003KT 10SM BKN120 22/17 A3004 700 73 1700 330/03 RMK AO2 T02220172
13873KAHN AHN20160512201011805/12/16 20:10:31  5-MIN KAHN 130110Z AUTO VRB03KT 10SM FEW095 BKN120 22/17 A3004 700 73 1700 VRB/03 RMK AO2 T02220172
13873KAHN AHN20160512201514105/12/16 20:15:31  5-MIN KAHN 130115Z AUTO 34003KT 10SM -RA FEW050 SCT095 BKN120 22/17 A3004 700 73 1700 350/03 RMK AO2 RAB14 P0000 T02220172
13873KAHN AHN20160512202014105/12/16 20:20:31  5-MIN KAHN 130120Z AUTO VRB03KT 10SM -RA FEW048 SCT100 BKN120 22/18 A3004 700 78 1700 VRB/03 RMK AO2 RAB14 P0000 T02170178
13873KAHN AHN20160512202513405/12/16 20:25:31  5-MIN KAHN 130125Z AUTO VRB03KT 10SM -RA FEW048 BKN110 22/18 A3004 700 78 1700 VRB/03 RMK AO2 RAB14 P0000 T02170178
13873KAHN AHN20160512203014005/12/16 20:30:31  5-MIN KAHN 130130Z AUTO 00000KT 10SM FEW048 FEW070 BKN110 22/18 A3004 700 78 1700 000/00 RMK AO2 RAB14E28 P0000 T02170178
13873KAHN AHN20160512203514005/12/16 20:35:31  5-MIN KAHN 130135Z AUTO VRB03KT 10SM FEW048 FEW070 BKN110 22/18 A3004 700 78 1700 VRB/03 RMK AO2 RAB14E28 P0000 T02170178
13873KAHN AHN20160512204013305/12/16 20:40:31  5-MIN KAHN 130140Z AUTO 31004KT 10SM FEW048 SCT110 22/17 A3004 700 75 1700 320/04 RMK AO2 RAB14E28 P0000 T02170172
13873KAHN AHN20160512204513305/12/16 20:45:31  5-MIN KAHN 130145Z AUTO VRB03KT 10SM FEW100 22/17 A3004 700 75 1700 VRB/03 RMK AO2 RAB14E28 SLP166 P0000 T02170172
13873KAHN AHN20160512205013305/12/16 20:50:31  5-MIN KAHN 130150Z AUTO 31003KT 10SM FEW100 21/17 A3004 700 78 1600 310/03 RMK AO2 RAB14E28 SLP166 P0000 T02110172
13873KAHN AHN20160512205510805/12/16 20:55:31  5-MIN KAHN 130155Z AUTO 31003KT 10SM CLR 21/17 A3004 700 78 1600 310/03 RMK AO2 T02110172
13873KAHN AHN20160512210010805/12/16 21:00:31  5-MIN KAHN 130200Z AUTO 33004KT 10SM CLR 21/17 A3004 700 78 1600 330/04 RMK AO2 T02110172
13873KAHN AHN20160512210510805/12/16 21:05:31  5-MIN KAHN 130205Z AUTO 00000KT 10SM CLR 21/17 A3004 700 78 1600 000/00 RMK AO2 T02110172
13873KAHN AHN20160512211010805/12/16 21:10:31  5-MIN KAHN 130210Z AUTO 31004KT 10SM CLR 21/17 A3005 690 78 1600 320/04 RMK AO2 T02110172
13873KAHN AHN20160512211510805/12/16 21:15:31  5-MIN KAHN 130215Z AUTO 31004KT 10SM CLR 21/17 A3005 690 78 1600 310/04 RMK AO2 T02110172
13873KAHN AHN20160512212010805/12/16 21:20:31  5-MIN KAHN 130220Z AUTO 32003KT 10SM CLR 21/17 A3005 690 78 1600 320/03 RMK AO2 T02110172
13873KAHN AHN20160512212510805/12/16 21:25:31  5-MIN KAHN 130225Z AUTO 33003KT 10SM CLR 21/17 A3005 690 78 1600 330/03 RMK AO2 T02110172
13873KAHN AHN20160512213010805/12/16 21:30:31  5-MIN KAHN 130230Z AUTO 34003KT 10SM CLR 21/17 A3004 700 78 1600 340/03 RMK AO2 T02110172
13873KAHN AHN20160512213510805/12/16 21:35:31  5-MIN KAHN 130235Z AUTO 32003KT 10SM CLR 21/17 A3004 700 78 1600 320/03 RMK AO2 T02110172
13873KAHN AHN20160512214010805/12/16 21:40:31  5-MIN KAHN 130240Z AUTO 31004KT 10SM CLR 21/17 A3004 700 81 1500 320/04 RMK AO2 T02060172
13873KAHN AHN20160512214512705/12/16 21:45:31  5-MIN KAHN 130245Z AUTO VRB03KT 10SM CLR 21/17 A3003 710 81 1600 VRB/03 RMK AO2 SLP163 60000 T02060172 50003
13873KAHN AHN20160512215012705/12/16 21:50:31  5-MIN KAHN 130250Z AUTO 00000KT 10SM CLR 21/17 A3003 710 81 1600 000/00 RMK AO2 SLP161 60000 T02060172 50003
13873KAHN AHN20160512215510805/12/16 21:55:31  5-MIN KAHN 130255Z AUTO 32003KT 10SM CLR 20/17 A3003 710 84 1500 330/03 RMK AO2 T02000172
13873KAHN AHN20160512220010805/12/16 22:00:31  5-MIN KAHN 130300Z AUTO 33004KT 10SM CLR 21/17 A3003 710 81 1600 340/04 RMK AO2 T02060172
13873KAHN AHN20160512220510805/12/16 22:05:31  5-MIN KAHN 130305Z AUTO VRB03KT 10SM CLR 21/17 A3003 710 81 1600 VRB/03 RMK AO2 T02060172
13873KAHN AHN20160512221010805/12/16 22:10:31  5-MIN KAHN 130310Z AUTO 31003KT 10SM CLR 21/17 A3003 710 81 1600 310/03 RMK AO2 T02060172
13873KAHN AHN20160512221510805/12/16 22:15:31  5-MIN KAHN 130315Z AUTO 31003KT 10SM CLR 20/17 A3003 710 84 1500 320/03 RMK AO2 T02000172
13873KAHN AHN20160512222010805/12/16 22:20:31  5-MIN KAHN 130320Z AUTO 00000KT 10SM CLR 20/17 A3003 710 84 1500 000/00 RMK AO2 T02000172
13873KAHN AHN20160512222510805/12/16 22:25:31  5-MIN KAHN 130325Z AUTO 00000KT 10SM CLR 19/17 A3003 710 87 1400 000/00 RMK AO2 T01940172
13873KAHN AHN20160512223010805/12/16 22:30:31  5-MIN KAHN 130330Z AUTO 00000KT 10SM CLR 19/17 A3003 710 87 1400 000/00 RMK AO2 T01940172
13873KAHN AHN20160512223510805/12/16 22:35:31  5-MIN KAHN 130335Z AUTO 00000KT 10SM CLR 19/17 A3003 710 87 1400 000/00 RMK AO2 T01940172
13873KAHN AHN20160512224010805/12/16 22:40:31  5-MIN KAHN 130340Z AUTO 00000KT 10SM CLR 19/17 A3003 710 87 1400 000/00 RMK AO2 T01940172
13873KAHN AHN20160512224511505/12/16 22:45:31  5-MIN KAHN 130345Z AUTO 00000KT 10SM CLR 19/17 A3003 710 87 1400 000/00 RMK AO2 SLP161 T01940172
13873KAHN AHN20160512225011505/12/16 22:50:31  5-MIN KAHN 130350Z AUTO 00000KT 10SM CLR 19/17 A3003 710 87 1400 000/00 RMK AO2 SLP161 T01940172
13873KAHN AHN20160512225510805/12/16 22:55:31  5-MIN KAHN 130355Z AUTO 00000KT 10SM CLR 19/17 A3002 710 90 1400 000/00 RMK AO2 T01890172
13873KAHN AHN20160512230010805/12/16 23:00:31  5-MIN KAHN 130400Z AUTO 00000KT 10SM CLR 19/18 A3003 710 93 1400 000/00 RMK AO2 T01890178
13873KAHN AHN20160512230510805/12/16 23:05:31  5-MIN KAHN 130405Z AUTO 00000KT 10SM CLR 19/17 A3003 710 90 1400 000/00 RMK AO2 T01890172
13873KAHN AHN20160512231010805/12/16 23:10:31  5-MIN KAHN 130410Z AUTO 00000KT 10SM CLR 19/17 A3002 710 90 1400 000/00 RMK AO2 T01890172
13873KAHN AHN20160512231510805/12/16 23:15:31  5-MIN KAHN 130415Z AUTO 00000KT 10SM CLR 19/17 A3003 710 90 1400 000/00 RMK AO2 T01890172
13873KAHN AHN20160512232010805/12/16 23:20:31  5-MIN KAHN 130420Z AUTO 00000KT 10SM CLR 19/17 A3003 710 90 1400 000/00 RMK AO2 T01890172
13873KAHN AHN20160512232510805/12/16 23:25:31  5-MIN KAHN 130425Z AUTO 00000KT 10SM CLR 19/17 A3003 710 90 1400 000/00 RMK AO2 T01890172
13873KAHN AHN20160512233010805/12/16 23:30:31  5-MIN KAHN 130430Z AUTO 00000KT 10SM CLR 19/17 A3003 710 90 1400 000/00 RMK AO2 T01890172
13873KAHN AHN20160512233510805/12/16 23:35:31  5-MIN KAHN 130435Z AUTO 00000KT 10SM CLR 19/17 A3003 710 90 1400 000/00 RMK AO2 T01890172
13873KAHN AHN20160512234010805/12/16 23:40:31  5-MIN KAHN 130440Z AUTO 00000KT 10SM CLR 19/17 A3003 710 87 1400 000/00 RMK AO2 T01940172
13873KAHN AHN20160512234512505/12/16 23:45:31  5-MIN KAHN 130445Z AUTO 00000KT 10SM CLR 19/17 A3003 710 90 1400 000/00 RMK AO2 SLP160 T01890172 403220183
13873KAHN AHN20160512235012505/12/16 23:50:31  5-MIN KAHN 130450Z AUTO 00000KT 10SM CLR 19/17 A3002 720 90 1400 000/00 RMK AO2 SLP159 T01890172 403220183
13873KAHN AHN20160512235510805/12/16 23:55:31  5-MIN KAHN 130455Z AUTO 00000KT 10SM CLR 19/17 A3002 720 90 1400 000/00 RMK AO2 T01890172
13873KAHN AHN20160513000010805/13/16 00:00:31  5-MIN KAHN 130500Z AUTO 00000KT 10SM CLR 19/17 A3002 720 90 1400 000/00 RMK AO2 T01890172
13873KAHN AHN20160513000510805/13/16 00:05:31  5-MIN KAHN 130505Z AUTO 00000KT 10SM CLR 19/17 A3002 720 90 1400 000/00 RMK AO2 T01890172
13873KAHN AHN20160513001011805/13/16 00:10:31  5-MIN KAHN 130510Z AUTO 27004KT 10SM FEW049 FEW055 18/17 A3003 710 93 1300 280/04 RMK AO2 T01830172
13873KAHN AHN20160513001512505/13/16 00:15:31  5-MIN KAHN 130515Z AUTO 28004KT 10SM FEW049 FEW060 SCT100 19/17 A3003 710 90 1400 290/04 RMK AO2 T01890172
13873KAHN AHN20160513002012505/13/16 00:20:31  5-MIN KAHN 130520Z AUTO 28003KT 10SM FEW049 SCT065 BKN100 19/17 A3003 710 90 1400 290/03 RMK AO2 T01890172
13873KAHN AHN20160513002512505/13/16 00:25:31  5-MIN KAHN 130525Z AUTO 27003KT 10SM FEW049 SCT065 BKN095 19/17 A3003 710 90 1400 270/03 RMK AO2 T01890172
13873KAHN AHN20160513003012505/13/16 00:30:31  5-MIN KAHN 130530Z AUTO 28003KT 10SM SCT049 BKN065 BKN095 19/18 A3003 710 93 1400 290/03 RMK AO2 T01890178
13873KAHN AHN20160513003512505/13/16 00:35:31  5-MIN KAHN 130535Z AUTO 26003KT 10SM SCT049 BKN065 BKN095 19/18 A3003 710 93 1400 260/03 RMK AO2 T01890178
13873KAHN AHN20160513004012505/13/16 00:40:31  5-MIN KAHN 130540Z AUTO 26003KT 10SM SCT050 BKN065 BKN095 19/18 A3003 710 93 1400 260/03 RMK AO2 T01890178
13873KAHN AHN20160513004515605/13/16 00:45:31  5-MIN KAHN 130545Z AUTO VRB03KT 10SM SCT050 BKN065 BKN090 19/18 A3003 710 90 1400 VRB/03 RMK AO2 SLP161 60000 T01940178 10233 20183 58001
13873KAHN AHN20160513005014905/13/16 00:50:31  5-MIN KAHN 130550Z AUTO 27005KT 10SM SCT050 SCT065 19/18 A3002 710 90 1400 280/05 RMK AO2 SLP160 60000 T01940178 10233 20183 58001
13873KAHN AHN20160513005511105/13/16 00:55:31  5-MIN KAHN 130555Z AUTO 26006KT 10SM FEW050 20/18 A3002 720 87 1500 270/06 RMK AO2 T02000178
13873KAHN AHN20160513010011105/13/16 01:00:31  5-MIN KAHN 130600Z AUTO VRB04KT 10SM FEW050 20/18 A3002 720 87 1500 VRB/04 RMK AO2 T02000178
13873KAHN AHN20160513010511805/13/16 01:05:31  5-MIN KAHN 130605Z AUTO 27004KT 10SM FEW050 FEW120 20/18 A3002 720 87 1500 280/04 RMK AO2 T02000178
13873KAHN AHN20160513011011105/13/16 01:10:31  5-MIN KAHN 130610Z AUTO VRB05KT 10SM SCT120 20/18 A3001 720 87 1500 VRB/05 RMK AO2 T02000178
13873KAHN AHN20160513011511105/13/16 01:15:31  5-MIN KAHN 130615Z AUTO 25004KT 10SM SCT120 20/18 A3001 720 87 1500 260/04 RMK AO2 T02000178
13873KAHN AHN20160513012011105/13/16 01:20:31  5-MIN KAHN 130620Z AUTO VRB05KT 10SM BKN120 20/18 A3001 730 87 1500 VRB/05 RMK AO2 T02000178
13873KAHN AHN20160513012511105/13/16 01:25:31  5-MIN KAHN 130625Z AUTO 28004KT 10SM BKN110 20/18 A3001 730 87 1500 280/04 RMK AO2 T02000178
13873KAHN AHN20160513013011105/13/16 01:30:31  5-MIN KAHN 130630Z AUTO VRB05KT 10SM OVC120 20/18 A3001 730 87 1500 VRB/05 RMK AO2 T02000178
13873KAHN AHN20160513013511105/13/16 01:35:31  5-MIN KAHN 130635Z AUTO 29004KT 10SM OVC110 20/18 A3000 730 87 1500 290/04 RMK AO2 T02000178
13873KAHN AHN20160513014011105/13/16 01:40:31  5-MIN KAHN 130640Z AUTO 30005KT 10SM BKN110 20/18 A3000 740 87 1500 300/05 RMK AO2 T02000178
13873KAHN AHN20160513014511805/13/16 01:45:31  5-MIN KAHN 130645Z AUTO 30006KT 10SM BKN110 20/18 A3000 740 87 1500 310/06 RMK AO2 SLP149 T02000178
13873KAHN AHN20160513015011805/13/16 01:50:31  5-MIN KAHN 130650Z AUTO VRB04KT 10SM SCT110 20/18 A3000 740 87 1500 VRB/04 RMK AO2 SLP150 T02000178
13873KAHN AHN20160513015511105/13/16 01:55:31  5-MIN KAHN 130655Z AUTO VRB03KT 10SM SCT110 20/18 A3000 740 87 1500 VRB/03 RMK AO2 T02000178
13873KAHN AHN20160513020011105/13/16 02:00:31  5-MIN KAHN 130700Z AUTO VRB03KT 10SM SCT110 20/18 A2999 740 87 1500 VRB/03 RMK AO2 T02000178
13873KAHN AHN20160513020511105/13/16 02:05:31  5-MIN KAHN 130705Z AUTO 27003KT 10SM SCT120 20/18 A2999 750 87 1500 280/03 RMK AO2 T02000178
13873KAHN AHN20160513021011105/13/16 02:10:31  5-MIN KAHN 130710Z AUTO 25003KT 10SM SCT120 20/18 A2999 750 87 1500 250/03 RMK AO2 T02000178
13873KAHN AHN20160513021511105/13/16 02:15:31  5-MIN KAHN 130715Z AUTO 24003KT 10SM BKN110 19/18 A2999 750 90 1500 250/03 RMK AO2 T01940178
13873KAHN AHN20160513022011105/13/16 02:20:31  5-MIN KAHN 130720Z AUTO 25003KT 10SM BKN110 19/18 A2999 750 90 1500 250/03 RMK AO2 T01940178
13873KAHN AHN20160513022511105/13/16 02:25:31  5-MIN KAHN 130725Z AUTO 00000KT 10SM BKN110 19/18 A2998 750 90 1500 000/00 RMK AO2 T01940178
13873KAHN AHN20160513023011105/13/16 02:30:31  5-MIN KAHN 130730Z AUTO VRB03KT 10SM SCT110 19/18 A2998 750 90 1500 VRB/03 RMK AO2 T01940178
13873KAHN AHN20160513023511105/13/16 02:35:31  5-MIN KAHN 130735Z AUTO 25003KT 10SM SCT110 19/18 A2998 750 90 1500 250/03 RMK AO2 T01940178
13873KAHN AHN20160513024011105/13/16 02:40:31  5-MIN KAHN 130740Z AUTO 27003KT 10SM SCT110 19/18 A2998 750 90 1500 270/03 RMK AO2 T01940178
13873KAHN AHN20160513024511805/13/16 02:45:31  5-MIN KAHN 130745Z AUTO 25003KT 10SM FEW110 19/18 A2998 760 90 1500 250/03 RMK AO2 SLP144 T01940178
13873KAHN AHN20160513025011505/13/16 02:50:31  5-MIN KAHN 130750Z AUTO 24004KT 10SM CLR 19/18 A2998 760 90 1500 250/04 RMK AO2 SLP144 T01940178
13873KAHN AHN20160513025510805/13/16 02:55:31  5-MIN KAHN 130755Z AUTO 24004KT 10SM CLR 19/18 A2998 750 90 1500 250/04 RMK AO2 T01940178
13873KAHN AHN20160513030010805/13/16 03:00:31  5-MIN KAHN 130800Z AUTO 25004KT 10SM CLR 19/18 A2998 750 90 1500 260/04 RMK AO2 T01940178
13873KAHN AHN20160513030510805/13/16 03:05:31  5-MIN KAHN 130805Z AUTO 26004KT 10SM CLR 19/18 A2998 750 90 1500 270/04 RMK AO2 T01940178
13873KAHN AHN20160513031010805/13/16 03:10:31  5-MIN KAHN 130810Z AUTO 24003KT 10SM CLR 19/18 A2998 750 93 1400 250/03 RMK AO2 T01890178
13873KAHN AHN20160513031510805/13/16 03:15:31  5-MIN KAHN 130815Z AUTO 24004KT 10SM CLR 19/18 A2998 760 93 1400 240/04 RMK AO2 T01890178
13873KAHN AHN20160513032010805/13/16 03:20:31  5-MIN KAHN 130820Z AUTO 24003KT 10SM CLR 19/18 A2998 760 93 1400 240/03 RMK AO2 T01890178
13873KAHN AHN20160513032510805/13/16 03:25:31  5-MIN KAHN 130825Z AUTO 24003KT 10SM CLR 19/18 A2998 760 93 1400 250/03 RMK AO2 T01890178
13873KAHN AHN20160513033010805/13/16 03:30:31  5-MIN KAHN 130830Z AUTO 24003KT 10SM CLR 19/18 A2998 760 93 1400 240/03 RMK AO2 T01890178
13873KAHN AHN20160513033510805/13/16 03:35:31  5-MIN KAHN 130835Z AUTO 24004KT 10SM CLR 18/18 A2998 760 96 1400 250/04 RMK AO2 T01830178
13873KAHN AHN20160513034010805/13/16 03:40:31  5-MIN KAHN 130840Z AUTO 24004KT 10SM CLR 18/18 A2998 750 96 1400 250/04 RMK AO2 T01830178
13873KAHN AHN20160513034512105/13/16 03:45:31  5-MIN KAHN 130845Z AUTO 25004KT 10SM CLR 18/18 A2998 750 96 1400 250/04 RMK AO2 SLP146 T01830178 55001
13873KAHN AHN20160513035012105/13/16 03:50:31  5-MIN KAHN 130850Z AUTO VRB03KT 10SM CLR 19/18 A2998 750 93 1400 VRB/03 RMK AO2 SLP145 T01890178 55001
13873KAHN AHN20160513035510805/13/16 03:55:31  5-MIN KAHN 130855Z AUTO 24003KT 10SM CLR 18/18 A2998 750 96 1400 240/03 RMK AO2 T01830178
13873KAHN AHN20160513040010805/13/16 04:00:31  5-MIN KAHN 130900Z AUTO 24004KT 10SM CLR 19/18 A2998 760 93 1400 240/04 RMK AO2 T01890178
13873KAHN AHN20160513040510805/13/16 04:05:31  5-MIN KAHN 130905Z AUTO 25003KT 10SM CLR 19/18 A2998 760 93 1400 250/03 RMK AO2 T01890178
13873KAHN AHN20160513041010805/13/16 04:10:31  5-MIN KAHN 130910Z AUTO 25004KT 10SM CLR 19/18 A2998 750 93 1400 260/04 RMK AO2 T01890178
13873KAHN AHN20160513041510805/13/16 04:15:31  5-MIN KAHN 130915Z AUTO VRB03KT 10SM CLR 19/18 A2998 750 93 1400 VRB/03 RMK AO2 T01890178
13873KAHN AHN20160513042011105/13/16 04:20:31  5-MIN KAHN 130920Z AUTO 24003KT 10SM FEW120 18/18 A2998 760 96 1400 240/03 RMK AO2 T01830178
13873KAHN AHN20160513042511105/13/16 04:25:31  5-MIN KAHN 130925Z AUTO 25003KT 10SM SCT120 19/18 A2998 760 93 1400 260/03 RMK AO2 T01890178
13873KAHN AHN20160513043011105/13/16 04:30:31  5-MIN KAHN 130930Z AUTO 25003KT 10SM SCT120 19/18 A2998 750 93 1400 250/03 RMK AO2 T01890178
13873KAHN AHN20160513043511105/13/16 04:35:31  5-MIN KAHN 130935Z AUTO VRB03KT 10SM FEW120 19/18 A2998 760 93 1400 VRB/03 RMK AO2 T01890178
13873KAHN AHN20160513044011105/13/16 04:40:31  5-MIN KAHN 130940Z AUTO VRB05KT 10SM FEW120 19/18 A2998 760 93 1400 VRB/05 RMK AO2 T01890178
13873KAHN AHN20160513044511805/13/16 04:45:31  5-MIN KAHN 130945Z AUTO VRB03KT 10SM SCT120 19/18 A2998 750 93 1400 VRB/03 RMK AO2 SLP145 T01890178
13873KAHN AHN20160513045011805/13/16 04:50:31  5-MIN KAHN 130950Z AUTO 26004KT 10SM FEW120 19/18 A2999 750 93 1400 270/04 RMK AO2 SLP147 T01890178
13873KAHN AHN20160513045511805/13/16 04:55:31  5-MIN KAHN 130955Z AUTO 27004KT 10SM FEW011 SCT120 19/18 A2998 750 93 1400 270/04 RMK AO2 T01890178
13873KAHN AHN20160513050011805/13/16 05:00:31  5-MIN KAHN 131000Z AUTO VRB04KT 10SM FEW011 BKN120 19/18 A2998 750 93 1400 VRB/04 RMK AO2 T01890178
13873KAHN AHN20160513050511805/13/16 05:05:31  5-MIN KAHN 131005Z AUTO 28006KT 10SM FEW009 BKN120 19/18 A2999 750 93 1400 280/06 RMK AO2 T01890178
13873KAHN AHN20160513051011805/13/16 05:10:31  5-MIN KAHN 131010Z AUTO 27005KT 10SM FEW009 SCT120 19/18 A2999 750 93 1400 280/05 RMK AO2 T01890178
13873KAHN AHN20160513051511805/13/16 05:15:31  5-MIN KAHN 131015Z AUTO 27006KT 10SM FEW010 SCT120 19/18 A2999 750 93 1400 280/06 RMK AO2 T01890178
13873KAHN AHN20160513052011105/13/16 05:20:31  5-MIN KAHN 131020Z AUTO 27005KT 10SM FEW120 19/18 A2999 750 93 1400 280/05 RMK AO2 T01890178
13873KAHN AHN20160513052511105/13/16 05:25:31  5-MIN KAHN 131025Z AUTO 27006KT 10SM FEW120 19/18 A2999 750 93 1400 280/06 RMK AO2 T01890178
13873KAHN AHN20160513053010805/13/16 05:30:31  5-MIN KAHN 131030Z AUTO 28005KT 10SM CLR 19/18 A2999 750 93 1400 280/05 RMK AO2 T01890178
13873KAHN AHN20160513053510805/13/16 05:35:31  5-MIN KAHN 131035Z AUTO 27005KT 10SM CLR 19/18 A2999 750 93 1400 270/05 RMK AO2 T01890178
13873KAHN AHN20160513054010805/13/16 05:40:31  5-MIN KAHN 131040Z AUTO VRB05KT 10SM CLR 19/18 A2999 750 93 1400 VRB/05 RMK AO2 T01890178
13873KAHN AHN20160513054511505/13/16 05:45:31  5-MIN KAHN 131045Z AUTO 28006KT 10SM CLR 19/18 A2999 750 93 1400 280/06 RMK AO2 SLP149 T01890178
13873KAHN AHN20160513055011505/13/16 05:50:31  5-MIN KAHN 131050Z AUTO VRB05KT 10SM CLR 19/18 A2999 750 90 1500 VRB/05 RMK AO2 SLP150 T01940178
13873KAHN AHN20160513055510805/13/16 05:55:31  5-MIN KAHN 131055Z AUTO 28005KT 10SM CLR 19/18 A2999 740 93 1400 290/05 RMK AO2 T01890178
13873KAHN AHN20160513060010805/13/16 06:00:31  5-MIN KAHN 131100Z AUTO 28005KT 10SM CLR 19/18 A3000 740 93 1400 290/05 RMK AO2 T01890178
13873KAHN AHN20160513060510805/13/16 06:05:31  5-MIN KAHN 131105Z AUTO 27004KT 10SM CLR 19/18 A3000 740 93 1400 280/04 RMK AO2 T01890178
13873KAHN AHN20160513061010805/13/16 06:10:31  5-MIN KAHN 131110Z AUTO VRB04KT 10SM CLR 19/18 A2999 740 93 1400 VRB/04 RMK AO2 T01890178
13873KAHN AHN20160513061510805/13/16 06:15:31  5-MIN KAHN 131115Z AUTO 28004KT 10SM CLR 19/18 A3000 740 93 1400 280/04 RMK AO2 T01890178
13873KAHN AHN20160513062010805/13/16 06:20:31  5-MIN KAHN 131120Z AUTO 27004KT 10SM CLR 19/18 A3000 740 93 1400 270/04 RMK AO2 T01890178
13873KAHN AHN20160513062510805/13/16 06:25:31  5-MIN KAHN 131125Z AUTO 27005KT 10SM CLR 19/18 A3000 740 93 1400 270/05 RMK AO2 T01890178
13873KAHN AHN20160513063010805/13/16 06:30:31  5-MIN KAHN 131130Z AUTO 27004KT 10SM CLR 19/18 A3000 740 90 1500 280/04 RMK AO2 T01940178
13873KAHN AHN20160513063510805/13/16 06:35:31  5-MIN KAHN 131135Z AUTO 29006KT 10SM CLR 19/18 A3000 740 93 1400 290/06 RMK AO2 T01890178
13873KAHN AHN20160513064010805/13/16 06:40:31  5-MIN KAHN 131140Z AUTO 28006KT 10SM CLR 19/18 A3000 740 90 1500 290/06 RMK AO2 T01940178
13873KAHN AHN20160513064513305/13/16 06:45:31  5-MIN KAHN 131145Z AUTO 28005KT 10SM CLR 19/18 A3000 740 90 1500 290/05 RMK AO2 SLP154 T01940178 10200 20183 55014
13873KAHN AHN20160513065012805/13/16 06:50:31  5-MIN KAHN 131150Z VRB06KT 10SM CLR 20/18 A3000 730 87 1500 VRB/06 RMK AO2 SLP155 T02000178 10200 20183 55014
13873KAHN AHN20160513065510305/13/16 06:55:31  5-MIN KAHN 131155Z 28006KT 10SM CLR 20/18 A3000 730 87 1500 290/06 RMK AO2 T02000178
13873KAHN AHN20160513070010305/13/16 07:00:31  5-MIN KAHN 131200Z VRB05KT 10SM CLR 20/18 A3001 730 87 1500 VRB/05 RMK AO2 T02000178
13873KAHN AHN20160513070510305/13/16 07:05:31  5-MIN KAHN 131205Z VRB05KT 10SM CLR 21/18 A3001 730 84 1600 VRB/05 RMK AO2 T02060178
13873KAHN AHN20160513071010305/13/16 07:10:31  5-MIN KAHN 131210Z 28004KT 10SM CLR 21/18 A3001 730 84 1600 280/04 RMK AO2 T02060178
13873KAHN AHN20160513071510305/13/16 07:15:31  5-MIN KAHN 131215Z 29005KT 10SM CLR 21/18 A3001 730 81 1600 290/05 RMK AO2 T02110178
13873KAHN AHN20160513072010305/13/16 07:20:31  5-MIN KAHN 131220Z 30007KT 10SM CLR 21/18 A3001 730 81 1600 300/07 RMK AO2 T02110178
13873KAHN AHN20160513072510305/13/16 07:25:31  5-MIN KAHN 131225Z 30006KT 10SM CLR 21/18 A3001 730 81 1600 300/06 RMK AO2 T02110178
13873KAHN AHN20160513073011905/13/16 07:30:31  5-MIN KAHN 131230Z 31008KT 280V340 10SM CLR 22/18 A3001 730 78 1700 310/08 290V350 RMK AO2 T02170178
13873KAHN AHN20160513073511905/13/16 07:35:31  5-MIN KAHN 131235Z 30007KT 260V330 10SM CLR 22/18 A3001 720 78 1700 310/07 270V340 RMK AO2 T02170178
13873KAHN AHN20160513074010305/13/16 07:40:31  5-MIN KAHN 131240Z 30008KT 10SM CLR 22/17 A3001 720 75 1700 300/08 RMK AO2 T02170172
13873KAHN AHN20160513074511605/13/16 07:45:31  5-MIN KAHN 131245Z 29010G15KT 10SM CLR 22/17 A3001 730 75 1700 300/10G15 RMK AO2 SLP157 T02170172
13873KAHN AHN20160513075011605/13/16 07:50:31  5-MIN KAHN 131250Z 30009G15KT 10SM CLR 22/17 A3001 730 75 1700 300/09G15 RMK AO2 SLP157 T02170172
13873KAHN AHN20160513075510305/13/16 07:55:31  5-MIN KAHN 131255Z 31007KT 10SM CLR 22/17 A3001 730 75 1700 310/07 RMK AO2 T02170172
13873KAHN AHN20160513080010305/13/16 08:00:31  5-MIN KAHN 131300Z 31008KT 10SM CLR 22/17 A3001 730 73 1800 310/08 RMK AO2 T02220172
13873KAHN AHN20160513080510305/13/16 08:05:31  5-MIN KAHN 131305Z 31009KT 10SM CLR 22/17 A3001 720 73 1800 310/09 RMK AO2 T02220172
13873KAHN AHN20160513081011905/13/16 08:10:31  5-MIN KAHN 131310Z 30007KT 270V340 10SM CLR 23/17 A3001 720 70 1800 310/07 280V350 RMK AO2 T02280172
13873KAHN AHN20160513081510305/13/16 08:15:31  5-MIN KAHN 131315Z 31009KT 10SM CLR 22/17 A3001 720 73 1800 310/09 RMK AO2 T02220172
13873KAHN AHN20160513082010305/13/16 08:20:31  5-MIN KAHN 131320Z 30008KT 10SM CLR 23/17 A3001 730 70 1800 300/08 RMK AO2 T02280172
13873KAHN AHN20160513082510305/13/16 08:25:31  5-MIN KAHN 131325Z 33006KT 10SM CLR 23/17 A3001 720 70 1800 340/06 RMK AO2 T02280172
13873KAHN AHN20160513083010305/13/16 08:30:31  5-MIN KAHN 131330Z 31007KT 10SM CLR 23/17 A3002 720 68 1900 310/07 RMK AO2 T02330172
13873KAHN AHN20160513083510905/13/16 08:35:31  5-MIN KAHN 131335Z 32008G15KT 10SM CLR 23/17 A3002 720 68 1800 330/08G15 RMK AO2 T02280167
13873KAHN AHN20160513084010905/13/16 08:40:31  5-MIN KAHN 131340Z 30011G16KT 10SM CLR 23/17 A3002 720 68 1800 300/11G16 RMK AO2 T02280167
13873KAHN AHN20160513084511005/13/16 08:45:31  5-MIN KAHN 131345Z 32009KT 10SM CLR 23/16 A3002 720 63 1900 320/09 RMK AO2 SLP159 T02330161
13873KAHN AHN20160513085011005/13/16 08:50:31  5-MIN KAHN 131350Z 32007KT 10SM CLR 23/17 A3002 720 66 1900 320/07 RMK AO2 SLP159 T02330167
13873KAHN AHN20160513085510305/13/16 08:55:31  5-MIN KAHN 131355Z 31009KT 10SM CLR 24/16 A3002 720 61 2000 320/09 RMK AO2 T02390161
13873KAHN AHN20160513090010305/13/16 09:00:31  5-MIN KAHN 131400Z 32007KT 10SM CLR 24/16 A3002 720 61 2000 320/07 RMK AO2 T02390161
13873KAHN AHN20160513090510305/13/16 09:05:31  5-MIN KAHN 131405Z 32007KT 10SM CLR 24/16 A3002 720 61 2000 320/07 RMK AO2 T02390161
13873KAHN AHN20160513091010905/13/16 09:10:31  5-MIN KAHN 131410Z 31009G19KT 10SM CLR 24/16 A3002 720 59 1900 310/09G19 RMK AO2 T02390156
13873KAHN AHN20160513091510905/13/16 09:15:31  5-MIN KAHN 131415Z 31009G19KT 10SM CLR 24/16 A3002 720 59 2000 310/09G19 RMK AO2 T02390156
13873KAHN AHN20160513092010905/13/16 09:20:31  5-MIN KAHN 131420Z 32011G16KT 10SM CLR 24/16 A3002 720 57 2000 320/11G16 RMK AO2 T02440156
13873KAHN AHN20160513092510905/13/16 09:25:31  5-MIN KAHN 131425Z 31012G17KT 10SM CLR 24/16 A3002 720 59 2000 320/12G17 RMK AO2 T02390156
13873KAHN AHN20160513093011205/13/16 09:30:31  5-MIN KAHN 131430Z 33009G17KT 10SM FEW034 24/15 A3002 720 55 2000 340/09G17 RMK AO2 T02440150
13873KAHN AHN20160513093511205/13/16 09:35:31  5-MIN KAHN 131435Z 30010G16KT 10SM FEW034 24/15 A3002 720 55 2000 300/10G16 RMK AO2 T02440150
13873KAHN AHN20160513094011205/13/16 09:40:31  5-MIN KAHN 131440Z 32008G16KT 10SM FEW034 24/16 A3002 720 57 2000 320/08G16 RMK AO2 T02440156
13873KAHN AHN20160513094511605/13/16 09:45:31  5-MIN KAHN 131445Z 34007KT 10SM CLR 24/16 A3002 710 57 2000 340/07 RMK AO2 SLP161 T02440156 53007
13873KAHN AHN20160513095011605/13/16 09:50:31  5-MIN KAHN 131450Z 33006KT 10SM CLR 24/16 A3002 710 57 2000 340/06 RMK AO2 SLP161 T02440156 53007
13873KAHN AHN20160513095511905/13/16 09:55:31  5-MIN KAHN 131455Z 30007KT 240V330 10SM CLR 25/16 A3002 720 55 2100 310/07 250V340 RMK AO2 T02500156
13873KAHN AHN20160513100012505/13/16 10:00:31  5-MIN KAHN 131500Z 32008G15KT 270V340 10SM CLR 25/15 A3002 710 53 2100 330/08G15 280V350 RMK AO2 T02500150
13873KAHN AHN20160513100510905/13/16 10:05:31  5-MIN KAHN 131505Z VRB05G15KT 10SM CLR 25/16 A3002 710 55 2100 VRB/05G15 RMK AO2 T02500156
13873KAHN AHN20160513101011905/13/16 10:10:31  5-MIN KAHN 131510Z 31007KT 290V360 10SM CLR 26/16 A3003 710 53 2100 310/07 300V010 RMK AO2 T02560156
13873KAHN AHN20160513101511905/13/16 10:15:31  5-MIN KAHN 131515Z 33007KT 310V020 10SM CLR 26/16 A3003 710 53 2100 340/07 320V030 RMK AO2 T02560156
13873KAHN AHN20160513102011305/13/16 10:20:31  5-MIN KAHN 131520Z VRB05KT 10SM FEW037 SCT045 26/16 A3002 710 53 2100 VRB/05 RMK AO2 T02560156
13873KAHN AHN20160513102511305/13/16 10:25:31  5-MIN KAHN 131525Z 28008KT 10SM SCT037 BKN045 25/16 A3002 720 55 2100 280/08 RMK AO2 T02500156
13873KAHN AHN20160513103011305/13/16 10:30:31  5-MIN KAHN 131530Z 30009KT 10SM SCT037 SCT045 26/16 A3002 720 53 2100 300/09 RMK AO2 T02560156
13873KAHN AHN20160513103511305/13/16 10:35:31  5-MIN KAHN 131535Z 32006KT 10SM FEW037 SCT045 25/15 A3002 720 53 2100 330/06 RMK AO2 T02500150
13873KAHN AHN20160513104011305/13/16 10:40:31  5-MIN KAHN 131540Z VRB06KT 10SM FEW038 SCT045 26/15 A3002 720 51 2100 VRB/06 RMK AO2 T02560150
13873KAHN AHN20160513104512005/13/16 10:45:31  5-MIN KAHN 131545Z 29007KT 10SM FEW038 SCT045 26/15 A3002 720 50 2200 300/07 RMK AO2 SLP160 T02610150
13873KAHN AHN20160513105011305/13/16 10:50:31  5-MIN KAHN 131550Z VRB04KT 10SM FEW038 26/15 A3002 720 50 2200 VRB/04 RMK AO2 SLP159 T02610150
13873KAHN AHN20160513105510605/13/16 10:55:31  5-MIN KAHN 131555Z 29007KT 10SM SCT040 26/15 A3002 720 50 2200 300/07 RMK AO2 T02610150
13873KAHN AHN20160513110011205/13/16 11:00:31  5-MIN KAHN 131600Z 32008G16KT 10SM SCT040 26/14 A3002 720 48 2100 320/08G16 RMK AO2 T02560139
13873KAHN AHN20160513110511205/13/16 11:05:31  5-MIN KAHN 131605Z 35008G16KT 10SM FEW040 26/14 A3002 720 48 2200 350/08G16 RMK AO2 T02610144
13873KAHN AHN20160513111010605/13/16 11:10:31  5-MIN KAHN 131610Z 35006KT 10SM SCT042 26/14 A3002 720 48 2200 350/06 RMK AO2 T02610144
13873KAHN AHN20160513111512205/13/16 11:15:31  5-MIN KAHN 131615Z 28007KT 240V320 10SM SCT042 27/14 A3002 720 46 2300 280/07 250V330 RMK AO2 T02670144
13873KAHN AHN20160513112010605/13/16 11:20:31  5-MIN KAHN 131620Z 35006KT 10SM FEW041 27/14 A3001 720 46 2300 350/06 RMK AO2 T02670144
13873KAHN AHN20160513112510605/13/16 11:25:31  5-MIN KAHN 131625Z 31007KT 10SM FEW045 27/14 A3001 730 45 2300 310/07 RMK AO2 T02720144
13873KAHN AHN20160513113010605/13/16 11:30:31  5-MIN KAHN 131630Z VRB05KT 10SM FEW045 27/14 A3001 730 46 2300 VRB/05 RMK AO2 T02670144
13873KAHN AHN20160513113510605/13/16 11:35:31  5-MIN KAHN 131635Z 27006KT 10SM SCT047 27/14 A3001 730 46 2300 280/06 RMK AO2 T02670144
13873KAHN AHN20160513114011205/13/16 11:40:31  5-MIN KAHN 131640Z 27009G15KT 10SM FEW049 27/14 A3001 730 43 2300 280/09G15 RMK AO2 T02720139
13873KAHN AHN20160513114511905/13/16 11:45:31  5-MIN KAHN 131645Z 28007G15KT 10SM FEW049 27/13 A3001 730 42 2300 290/07G15 RMK AO2 SLP155 T02720133
13873KAHN AHN20160513115011905/13/16 11:50:31  5-MIN KAHN 131650Z 29009G17KT 10SM FEW049 27/13 A3001 730 42 2300 300/09G17 RMK AO2 SLP154 T02720133
13873KAHN AHN20160513115511205/13/16 11:55:31  5-MIN KAHN 131655Z 31010G17KT 10SM FEW049 28/13 A3000 730 39 2400 320/10G17 RMK AO2 T02780128
13873KAHN AHN20160513120012205/13/16 12:00:31  5-MIN KAHN 131700Z 34009KT 300V010 10SM FEW045 27/12 A3000 730 39 2300 340/09 310V020 RMK AO2 T02720122
13873KAHN AHN20160513120510605/13/16 12:05:31  5-MIN KAHN 131705Z VRB05KT 10SM FEW050 27/13 A3000 730 42 2300 VRB/05 RMK AO2 T02720133
13873KAHN AHN20160513121010605/13/16 12:10:31  5-MIN KAHN 131710Z 30008KT 10SM FEW050 27/14 A3000 740 45 2300 310/08 RMK AO2 T02670139
13873KAHN AHN20160513121512805/13/16 12:15:31  5-MIN KAHN 131715Z 28008G14KT 250V320 10SM SCT050 27/14 A3000 740 45 2300 280/08G14 260V330 RMK AO2 T02670139
13873KAHN AHN20160513122011205/13/16 12:20:31  5-MIN KAHN 131720Z 30009G15KT 10SM SCT050 27/13 A3000 740 42 2400 300/09G15 RMK AO2 T02720133
13873KAHN AHN20160513122511205/13/16 12:25:31  5-MIN KAHN 131725Z 29010G15KT 10SM SCT050 27/13 A2999 740 40 2400 300/10G15 RMK AO2 T02720128
13873KAHN AHN20160513123011205/13/16 12:30:31  5-MIN KAHN 131730Z 29011G20KT 10SM SCT050 27/12 A2999 740 39 2400 290/11G20 RMK AO2 T02720122
13873KAHN AHN20160513123511205/13/16 12:35:31  5-MIN KAHN 131735Z 30007G20KT 10SM FEW050 28/12 A2999 740 37 2400 310/07G20 RMK AO2 T02780122
13873KAHN AHN20160513124011205/13/16 12:40:31  5-MIN KAHN 131740Z 32008G14KT 10SM FEW050 28/12 A2999 740 37 2400 330/08G14 RMK AO2 T02780122
13873KAHN AHN20160513124513705/13/16 12:45:31  5-MIN KAHN 131745Z 32011G15KT 10SM FEW050 28/12 A2999 750 37 2400 320/11G15 RMK AO2 SLP148 T02780122 10278 20200 51007
13873KAHN AHN20160513125013705/13/16 12:50:31  5-MIN KAHN 131750Z 29010G15KT 10SM FEW050 28/12 A2999 750 37 2400 300/10G15 RMK AO2 SLP148 T02780122 10278 20200 51007
13873KAHN AHN20160513125512205/13/16 12:55:31  5-MIN KAHN 131755Z 33007KT 290V010 10SM FEW055 27/12 A2999 750 39 2400 330/07 300V020 RMK AO2 T02720122
13873KAHN AHN20160513130011205/13/16 13:00:31  5-MIN KAHN 131800Z 29012G21KT 10SM FEW055 28/11 A2999 750 35 2400 300/12G21 RMK AO2 T02780111
13873KAHN AHN20160513130511205/13/16 13:05:31  5-MIN KAHN 131805Z 32010G21KT 10SM FEW060 27/09 A2999 750 32 2400 330/10G21 RMK AO2 T02720094
13873KAHN AHN20160513131011205/13/16 13:10:31  5-MIN KAHN 131810Z 32011G16KT 10SM FEW055 28/10 A2999 750 32 2400 330/11G16 RMK AO2 T02780100
13873KAHN AHN20160513131511205/13/16 13:15:31  5-MIN KAHN 131815Z 33008G16KT 10SM FEW055 28/11 A2999 750 35 2400 340/08G16 RMK AO2 T02780111
13873KAHN AHN20160513132010905/13/16 13:20:31  5-MIN KAHN 131820Z 33010G17KT 10SM CLR 28/11 A2999 750 35 2400 340/10G17 RMK AO2 T02780111
13873KAHN AHN20160513132510905/13/16 13:25:31  5-MIN KAHN 131825Z 28010G17KT 10SM CLR 28/11 A2999 750 35 2400 290/10G17 RMK AO2 T02780111
13873KAHN AHN20160513133012505/13/16 13:30:31  5-MIN KAHN 131830Z 29009G16KT 250V310 10SM CLR 28/11 A2998 750 35 2400 290/09G16 260V320 RMK AO2 T02780111
13873KAHN AHN20160513133512505/13/16 13:35:31  5-MIN KAHN 131835Z 28007G16KT 220V320 10SM CLR 28/11 A2998 750 33 2500 290/07G16 230V330 RMK AO2 T02830111
13873KAHN AHN20160513134010905/13/16 13:40:31  5-MIN KAHN 131840Z 30010G15KT 10SM CLR 28/11 A2998 750 35 2400 310/10G15 RMK AO2 T02780111
13873KAHN AHN20160513134511605/13/16 13:45:31  5-MIN KAHN 131845Z 31009G15KT 10SM CLR 28/11 A2998 750 33 2400 320/09G15 RMK AO2 SLP146 T02780106
13873KAHN AHN20160513135011605/13/16 13:50:31  5-MIN KAHN 131850Z 32009G16KT 10SM CLR 28/11 A2998 750 35 2400 320/09G16 RMK AO2 SLP146 T02780111
13873KAHN AHN20160513135510905/13/16 13:55:31  5-MIN KAHN 131855Z 32010G16KT 10SM CLR 28/12 A2998 750 35 2500 320/10G16 RMK AO2 T02830117
13873KAHN AHN20160513140010905/13/16 14:00:31  5-MIN KAHN 131900Z 31005G16KT 10SM CLR 28/11 A2998 750 33 2400 320/05G16 RMK AO2 T02780106
13873KAHN AHN20160513140511905/13/16 14:05:31  5-MIN KAHN 131905Z 32009KT 290V010 10SM CLR 28/11 A2998 750 35 2400 320/09 300V020 RMK AO2 T02780111
13873KAHN AHN20160513141012505/13/16 14:10:31  5-MIN KAHN 131910Z 33010G15KT 290V360 10SM CLR 28/11 A2998 750 35 2400 330/10G15 300V010 RMK AO2 T02780111
13873KAHN AHN20160513141510905/13/16 14:15:31  5-MIN KAHN 131915Z 31009G15KT 10SM CLR 28/11 A2998 760 35 2400 320/09G15 RMK AO2 T02780111
13873KAHN AHN20160513142012505/13/16 14:20:31  5-MIN KAHN 131920Z 30007G14KT 260V330 10SM CLR 28/12 A2998 760 36 2500 300/07G14 270V340 RMK AO2 T02830122
13873KAHN AHN20160513142510905/13/16 14:25:31  5-MIN KAHN 131925Z 30011G16KT 10SM CLR 28/11 A2998 760 35 2400 310/11G16 RMK AO2 T02780111
13873KAHN AHN20160513143010905/13/16 14:30:31  5-MIN KAHN 131930Z VRB06G16KT 10SM CLR 28/11 A2998 760 35 2400 VRB/06G16 RMK AO2 T02780111
13873KAHN AHN20160513143511905/13/16 14:35:31  5-MIN KAHN 131935Z 29008KT 260V320 10SM CLR 28/11 A2998 760 35 2400 290/08 270V330 RMK AO2 T02780111
13873KAHN AHN20160513144010905/13/16 14:40:31  5-MIN KAHN 131940Z 31007G19KT 10SM CLR 28/11 A2998 760 32 2500 320/07G19 RMK AO2 T02830106
13873KAHN AHN20160513144511605/13/16 14:45:31  5-MIN KAHN 131945Z 31009G19KT 10SM CLR 28/11 A2997 760 32 2500 320/09G19 RMK AO2 SLP143 T02830106
13873KAHN AHN20160513145011605/13/16 14:50:31  5-MIN KAHN 131950Z 34007G16KT 10SM CLR 28/11 A2997 760 33 2400 350/07G16 RMK AO2 SLP142 T02780106
13873KAHN AHN20160513145512505/13/16 14:55:31  5-MIN KAHN 131955Z 31007G16KT 280V350 10SM CLR 28/11 A2997 760 33 2400 320/07G16 290V360 RMK AO2 T02780106
13873KAHN AHN20160513150012505/13/16 15:00:31  5-MIN KAHN 132000Z 33010G16KT 300V360 10SM CLR 28/11 A2997 770 35 2400 330/10G16 310V010 RMK AO2 T02780111
13873KAHN AHN20160513150510905/13/16 15:05:31  5-MIN KAHN 132005Z 30009G16KT 10SM CLR 28/11 A2997 760 35 2400 300/09G16 RMK AO2 T02780111
13873KAHN AHN20160513151010905/13/16 15:10:31  5-MIN KAHN 132010Z 32010G18KT 10SM CLR 28/11 A2997 760 32 2500 330/10G18 RMK AO2 T02830106
13873KAHN AHN20160513151512505/13/16 15:15:31  5-MIN KAHN 132015Z 33007G18KT 280V360 10SM CLR 28/10 A2997 770 32 2400 330/07G18 290V010 RMK AO2 T02780100
13873KAHN AHN20160513152010905/13/16 15:20:31  5-MIN KAHN 132020Z 33010G15KT 10SM CLR 28/10 A2997 770 32 2500 330/10G15 RMK AO2 T02780100
13873KAHN AHN20160513152510905/13/16 15:25:31  5-MIN KAHN 132025Z 29009G15KT 10SM CLR 28/11 A2996 770 32 2500 290/09G15 RMK AO2 T02830106
13873KAHN AHN20160513153010905/13/16 15:30:31  5-MIN KAHN 132030Z 32011G16KT 10SM CLR 28/10 A2996 770 31 2500 320/11G16 RMK AO2 T02830100
13873KAHN AHN20160513153510905/13/16 15:35:31  5-MIN KAHN 132035Z 32009G16KT 10SM CLR 28/11 A2996 770 33 2500 320/09G16 RMK AO2 T02780106
13873KAHN AHN20160513154010305/13/16 15:40:31  5-MIN KAHN 132040Z VRB06KT 10SM CLR 28/11 A2996 770 33 2500 VRB/06 RMK AO2 T02780106
13873KAHN AHN20160513154511605/13/16 15:45:31  5-MIN KAHN 132045Z 29009KT 10SM CLR 28/11 A2996 770 33 2500 290/09 RMK AO2 SLP140 T02830111 58012
13873KAHN AHN20160513155012205/13/16 15:50:31  5-MIN KAHN 132050Z 30009G14KT 10SM CLR 28/11 A2996 770 35 2500 310/09G14 RMK AO2 SLP140 T02780111 58012
13873KAHN AHN20160513155512505/13/16 15:55:31  5-MIN KAHN 132055Z 29008G14KT 240V300 10SM CLR 28/11 A2996 770 35 2500 290/08G14 250V310 RMK AO2 T02780111
13873KAHN AHN20160513160010905/13/16 16:00:31  5-MIN KAHN 132100Z 26007G14KT 10SM CLR 28/11 A2996 770 35 2500 270/07G14 RMK AO2 T02780111
13873KAHN AHN20160513160510905/13/16 16:05:31  5-MIN KAHN 132105Z 30009G15KT 10SM CLR 28/11 A2996 780 35 2500 310/09G15 RMK AO2 T02780111
13873KAHN AHN20160513161010905/13/16 16:10:31  5-MIN KAHN 132110Z VRB05G15KT 10SM CLR 28/11 A2996 770 33 2500 VRB/05G15 RMK AO2 T02830111
13873KAHN AHN20160513161510905/13/16 16:15:31  5-MIN KAHN 132115Z 29009G15KT 10SM CLR 28/11 A2995 780 35 2500 300/09G15 RMK AO2 T02780111
13873KAHN AHN20160513162010905/13/16 16:20:31  5-MIN KAHN 132120Z 30011G16KT 10SM CLR 28/11 A2996 770 35 2500 300/11G16 RMK AO2 T02780111
13873KAHN AHN20160513162510905/13/16 16:25:31  5-MIN KAHN 132125Z 31006G16KT 10SM CLR 28/11 A2996 780 35 2500 320/06G16 RMK AO2 T02780111
13873KAHN AHN20160513163010305/13/16 16:30:31  5-MIN KAHN 132130Z 27008KT 10SM CLR 28/11 A2996 780 35 2500 280/08 RMK AO2 T02780111
13873KAHN AHN20160513163510305/13/16 16:35:31  5-MIN KAHN 132135Z 27007KT 10SM CLR 28/11 A2996 780 35 2500 280/07 RMK AO2 T02780111
13873KAHN AHN20160513164010305/13/16 16:40:31  5-MIN KAHN 132140Z 30006KT 10SM CLR 28/11 A2996 780 35 2500 310/06 RMK AO2 T02780111
13873KAHN AHN20160513164511005/13/16 16:45:31  5-MIN KAHN 132145Z 31006KT 10SM CLR 27/11 A2996 780 34 2400 310/06 RMK AO2 SLP137 T02720106
13873KAHN AHN20160513165011005/13/16 16:50:31  5-MIN KAHN 132150Z 31007KT 10SM CLR 28/10 A2995 780 32 2500 320/07 RMK AO2 SLP137 T02780100
13873KAHN AHN20160513165510305/13/16 16:55:31  5-MIN KAHN 132155Z 32007KT 10SM CLR 28/09 A2995 780 31 2500 320/07 RMK AO2 T02780094
13873KAHN AHN20160513170010305/13/16 17:00:31  5-MIN KAHN 132200Z 32006KT 10SM CLR 28/09 A2995 780 31 2500 320/06 RMK AO2 T02780094
13873KAHN AHN20160513170510305/13/16 17:05:31  5-MIN KAHN 132205Z 33008KT 10SM CLR 28/09 A2995 780 31 2500 340/08 RMK AO2 T02780094
13873KAHN AHN20160513171010305/13/16 17:10:31  5-MIN KAHN 132210Z 34007KT 10SM CLR 28/09 A2995 780 31 2500 340/07 RMK AO2 T02780094
13873KAHN AHN20160513171510905/13/16 17:15:31  5-MIN KAHN 132215Z 29009G14KT 10SM CLR 28/10 A2995 780 32 2500 300/09G14 RMK AO2 T02780100
13873KAHN AHN20160513172010905/13/16 17:20:31  5-MIN KAHN 132220Z 30009G15KT 10SM CLR 27/10 A2995 780 33 2400 300/09G15 RMK AO2 T02720100
13873KAHN AHN20160513172510905/13/16 17:25:31  5-MIN KAHN 132225Z 30006G15KT 10SM CLR 27/11 A2995 780 36 2300 310/06G15 RMK AO2 T02670106
13873KAHN AHN20160513173010305/13/16 17:30:31  5-MIN KAHN 132230Z 30009KT 10SM CLR 27/11 A2995 780 36 2400 300/09 RMK AO2 T02720111
13873KAHN AHN20160513173510305/13/16 17:35:31  5-MIN KAHN 132235Z 29008KT 10SM CLR 27/12 A2995 780 37 2400 290/08 RMK AO2 T02720117
13873KAHN AHN20160513174011905/13/16 17:40:31  5-MIN KAHN 132240Z 29008KT 250V320 10SM CLR 27/12 A2995 780 38 2300 290/08 260V330 RMK AO2 T02670117
13873KAHN AHN20160513174511005/13/16 17:45:31  5-MIN KAHN 132245Z VRB05KT 10SM CLR 27/12 A2995 780 38 2300 VRB/05 RMK AO2 SLP136 T02670117
13873KAHN AHN20160513175011005/13/16 17:50:31  5-MIN KAHN 132250Z 28009KT 10SM CLR 27/12 A2995 780 38 2300 280/09 RMK AO2 SLP135 T02670117
13873KAHN AHN20160513175510305/13/16 17:55:31  5-MIN KAHN 132255Z 30008KT 10SM CLR 26/12 A2995 780 40 2300 300/08 RMK AO2 T02610117
13873KAHN AHN20160513180010305/13/16 18:00:31  5-MIN KAHN 132300Z 29008KT 10SM CLR 26/12 A2995 780 40 2300 300/08 RMK AO2 T02610117
13873KAHN AHN20160513180510905/13/16 18:05:31  5-MIN KAHN 132305Z 28007G14KT 10SM CLR 26/12 A2995 780 43 2200 290/07G14 RMK AO2 T02560122
13873KAHN AHN20160513181010905/13/16 18:10:31  5-MIN KAHN 132310Z 28009G14KT 10SM CLR 26/12 A2995 780 43 2200 290/09G14 RMK AO2 T02560122
13873KAHN AHN20160513181510305/13/16 18:15:31  5-MIN KAHN 132315Z 28007KT 10SM CLR 26/12 A2995 780 43 2200 290/07 RMK AO2 T02560122
13873KAHN AHN20160513182010305/13/16 18:20:31  5-MIN KAHN 132320Z 28006KT 10SM CLR 26/12 A2995 780 43 2200 280/06 RMK AO2 T02560122
13873KAHN AHN20160513182510305/13/16 18:25:31  5-MIN KAHN 132325Z VRB05KT 10SM CLR 26/12 A2995 780 41 2200 VRB/05 RMK AO2 T02560117
13873KAHN AHN20160513183011905/13/16 18:30:31  5-MIN KAHN 132330Z 27007KT 220V290 10SM CLR 25/12 A2995 780 43 2200 270/07 230V300 RMK AO2 T02500117
13873KAHN AHN20160513183511905/13/16 18:35:31  5-MIN KAHN 132335Z 29007KT 260V320 10SM CLR 25/12 A2995 780 43 2200 290/07 270V330 RMK AO2 T02500117
13873KAHN AHN20160513184010305/13/16 18:40:31  5-MIN KAHN 132340Z 28007KT 10SM CLR 25/12 A2995 780 43 2200 290/07 RMK AO2 T02500117
13873KAHN AHN20160513184512805/13/16 18:45:31  5-MIN KAHN 132345Z 27004KT 10SM CLR 24/12 A2995 780 44 2100 280/04 RMK AO2 SLP136 T02440117 10283 20244 58008
13873KAHN AHN20160513185012805/13/16 18:50:31  5-MIN KAHN 132350Z 28006KT 10SM CLR 24/12 A2995 780 44 2100 290/06 RMK AO2 SLP136 T02440117 10283 20244 58008
13873KAHN AHN20160513185510305/13/16 18:55:31  5-MIN KAHN 132355Z 28004KT 10SM CLR 24/12 A2995 780 46 2000 280/04 RMK AO2 T02390117
13873KAHN AHN20160513190010305/13/16 19:00:31  5-MIN KAHN 140000Z 28005KT 10SM CLR 24/12 A2995 780 46 2000 290/05 RMK AO2 T02390117
13873KAHN AHN20160513190510305/13/16 19:05:31  5-MIN KAHN 140005Z 28006KT 10SM CLR 23/12 A2996 780 47 2000 280/06 RMK AO2 T02330117
13873KAHN AHN20160513191010805/13/16 19:10:31  5-MIN KAHN 140010Z AUTO 29006KT 10SM CLR 24/11 A2996 780 44 2000 300/06 RMK AO2 T02390111
13873KAHN AHN20160513191510805/13/16 19:15:31  5-MIN KAHN 140015Z AUTO 29005KT 10SM CLR 23/11 A2996 770 45 2000 290/05 RMK AO2 T02330111
13873KAHN AHN20160513192010805/13/16 19:20:31  5-MIN KAHN 140020Z AUTO 29005KT 10SM CLR 23/12 A2996 770 49 1900 290/05 RMK AO2 T02280117
13873KAHN AHN20160513192510805/13/16 19:25:31  5-MIN KAHN 140025Z AUTO 29006KT 10SM CLR 23/11 A2996 770 45 1900 300/06 RMK AO2 T02280106
13873KAHN AHN20160513193010805/13/16 19:30:31  5-MIN KAHN 140030Z AUTO 29004KT 10SM CLR 23/11 A2996 770 45 1900 290/04 RMK AO2 T02280106
13873KAHN AHN20160513193510805/13/16 19:35:31  5-MIN KAHN 140035Z AUTO 28004KT 10SM CLR 22/11 A2996 770 47 1800 280/04 RMK AO2 T02220106
13873KAHN AHN20160513194010805/13/16 19:40:31  5-MIN KAHN 140040Z AUTO 27004KT 10SM CLR 22/11 A2996 770 50 1800 280/04 RMK AO2 T02170111
13873KAHN AHN20160513194511505/13/16 19:45:31  5-MIN KAHN 140045Z AUTO 28005KT 10SM CLR 22/11 A2996 770 50 1800 290/05 RMK AO2 SLP140 T02170111
13873KAHN AHN20160513195011505/13/16 19:50:31  5-MIN KAHN 140050Z AUTO 29005KT 10SM CLR 22/11 A2996 770 49 1800 290/05 RMK AO2 SLP140 T02220111
13873KAHN AHN20160513195510805/13/16 19:55:31  5-MIN KAHN 140055Z AUTO 29008KT 10SM CLR 22/11 A2997 770 50 1800 300/08 RMK AO2 T02170111
13873KAHN AHN20160513200010805/13/16 20:00:31  5-MIN KAHN 140100Z AUTO 28004KT 10SM CLR 22/12 A2997 770 52 1800 280/04 RMK AO2 T02170117
13873KAHN AHN20160513200510805/13/16 20:05:31  5-MIN KAHN 140105Z AUTO 27004KT 10SM CLR 21/12 A2997 770 54 1700 280/04 RMK AO2 T02110117
13873KAHN AHN20160513201010805/13/16 20:10:31  5-MIN KAHN 140110Z AUTO 28005KT 10SM CLR 22/12 A2997 770 52 1800 280/05 RMK AO2 T02170117
13873KAHN AHN20160513201510805/13/16 20:15:31  5-MIN KAHN 140115Z AUTO 28006KT 10SM CLR 22/12 A2997 770 52 1800 290/06 RMK AO2 T02170117
13873KAHN AHN20160513202010805/13/16 20:20:31  5-MIN KAHN 140120Z AUTO 28004KT 10SM CLR 22/12 A2997 770 52 1800 280/04 RMK AO2 T02170117
13873KAHN AHN20160513202510805/13/16 20:25:31  5-MIN KAHN 140125Z AUTO 29005KT 10SM CLR 21/12 A2997 770 54 1700 290/05 RMK AO2 T02110117
13873KAHN AHN20160513203010805/13/16 20:30:31  5-MIN KAHN 140130Z AUTO 27005KT 10SM CLR 21/12 A2997 770 54 1700 280/05 RMK AO2 T02110117
13873KAHN AHN20160513203510805/13/16 20:35:31  5-MIN KAHN 140135Z AUTO 28006KT 10SM CLR 21/11 A2997 760 52 1700 280/06 RMK AO2 T02110111
13873KAHN AHN20160513204010805/13/16 20:40:31  5-MIN KAHN 140140Z AUTO 28006KT 10SM CLR 21/11 A2997 760 52 1700 290/06 RMK AO2 T02110111
13873KAHN AHN20160513204511505/13/16 20:45:31  5-MIN KAHN 140145Z AUTO 28005KT 10SM CLR 21/11 A2997 760 52 1700 290/05 RMK AO2 SLP143 T02110111
13873KAHN AHN20160513205011505/13/16 20:50:31  5-MIN KAHN 140150Z AUTO VRB06KT 10SM CLR 21/11 A2998 760 52 1700 VRB/06 RMK AO2 SLP145 T02110111
13873KAHN AHN20160513205510805/13/16 20:55:31  5-MIN KAHN 140155Z AUTO 28006KT 10SM CLR 21/11 A2998 760 52 1700 290/06 RMK AO2 T02110111
13873KAHN AHN20160513210010805/13/16 21:00:31  5-MIN KAHN 140200Z AUTO 28005KT 10SM CLR 21/11 A2998 760 54 1600 290/05 RMK AO2 T02060111
13873KAHN AHN20160513210510805/13/16 21:05:31  5-MIN KAHN 140205Z AUTO 28005KT 10SM CLR 21/11 A2998 750 54 1600 290/05 RMK AO2 T02060111
13873KAHN AHN20160513211010805/13/16 21:10:31  5-MIN KAHN 140210Z AUTO 28005KT 10SM CLR 21/11 A2998 750 54 1600 280/05 RMK AO2 T02060111
13873KAHN AHN20160513211510805/13/16 21:15:31  5-MIN KAHN 140215Z AUTO 28005KT 10SM CLR 20/11 A2998 750 56 1600 280/05 RMK AO2 T02000111
13873KAHN AHN20160513212010805/13/16 21:20:31  5-MIN KAHN 140220Z AUTO 27003KT 10SM CLR 20/11 A2998 750 56 1500 280/03 RMK AO2 T02000111
13873KAHN AHN20160513212510805/13/16 21:25:31  5-MIN KAHN 140225Z AUTO 29004KT 10SM CLR 19/11 A2998 750 58 1500 290/04 RMK AO2 T01940111
13873KAHN AHN20160513213010805/13/16 21:30:31  5-MIN KAHN 140230Z AUTO 27004KT 10SM CLR 19/11 A2998 750 58 1500 280/04 RMK AO2 T01940111
13873KAHN AHN20160513213510805/13/16 21:35:31  5-MIN KAHN 140235Z AUTO 27005KT 10SM CLR 19/11 A2999 750 58 1500 270/05 RMK AO2 T01940111
13873KAHN AHN20160513214010805/13/16 21:40:31  5-MIN KAHN 140240Z AUTO 27004KT 10SM CLR 19/11 A2999 750 58 1500 280/04 RMK AO2 T01940111
13873KAHN AHN20160513214512105/13/16 21:45:31  5-MIN KAHN 140245Z AUTO 27004KT 10SM CLR 19/11 A2999 750 58 1500 270/04 RMK AO2 SLP148 T01940111 55004
13873KAHN AHN20160513215012105/13/16 21:50:31  5-MIN KAHN 140250Z AUTO 27003KT 10SM CLR 19/11 A2999 750 58 1500 270/03 RMK AO2 SLP149 T01940111 55004
13873KAHN AHN20160513215510805/13/16 21:55:31  5-MIN KAHN 140255Z AUTO 25004KT 10SM CLR 19/11 A2999 750 60 1400 260/04 RMK AO2 T01890111
13873KAHN AHN20160513220010805/13/16 22:00:31  5-MIN KAHN 140300Z AUTO 26004KT 10SM CLR 19/11 A2999 750 56 1500 260/04 RMK AO2 T01940106
13873KAHN AHN20160513220510805/13/16 22:05:31  5-MIN KAHN 140305Z AUTO 26004KT 10SM CLR 19/11 A2999 750 58 1400 270/04 RMK AO2 T01890106
13873KAHN AHN20160513221010805/13/16 22:10:31  5-MIN KAHN 140310Z AUTO VRB04KT 10SM CLR 19/11 A2999 750 58 1400 VRB/04 RMK AO2 T01890106
13873KAHN AHN20160513221510805/13/16 22:15:31  5-MIN KAHN 140315Z AUTO 26004KT 10SM CLR 19/11 A2999 750 58 1400 260/04 RMK AO2 T01890106
13873KAHN AHN20160513222010805/13/16 22:20:31  5-MIN KAHN 140320Z AUTO 27003KT 10SM CLR 18/11 A2999 750 60 1300 280/03 RMK AO2 T01830106
13873KAHN AHN20160513222510805/13/16 22:25:31  5-MIN KAHN 140325Z AUTO 25004KT 10SM CLR 18/11 A2999 750 60 1400 260/04 RMK AO2 T01830106
13873KAHN AHN20160513223010805/13/16 22:30:31  5-MIN KAHN 140330Z AUTO 26004KT 10SM CLR 18/11 A2999 750 60 1400 260/04 RMK AO2 T01830106
13873KAHN AHN20160513223510805/13/16 22:35:31  5-MIN KAHN 140335Z AUTO 25004KT 10SM CLR 18/11 A2999 750 60 1400 260/04 RMK AO2 T01830106
13873KAHN AHN20160513224010805/13/16 22:40:31  5-MIN KAHN 140340Z AUTO 26005KT 10SM CLR 18/11 A2999 750 60 1400 260/05 RMK AO2 T01830106
13873KAHN AHN20160513224511505/13/16 22:45:31  5-MIN KAHN 140345Z AUTO 26004KT 10SM CLR 18/11 A2999 750 60 1400 260/04 RMK AO2 SLP148 T01830106
13873KAHN AHN20160513225011505/13/16 22:50:31  5-MIN KAHN 140350Z AUTO 25004KT 10SM CLR 18/11 A2998 750 60 1400 260/04 RMK AO2 SLP147 T01830106
13873KAHN AHN20160513225510805/13/16 22:55:31  5-MIN KAHN 140355Z AUTO VRB04KT 10SM CLR 18/11 A2999 750 60 1400 VRB/04 RMK AO2 T01830106
13873KAHN AHN20160513230010805/13/16 23:00:31  5-MIN KAHN 140400Z AUTO 25003KT 10SM CLR 18/11 A2999 750 62 1300 260/03 RMK AO2 T01780106
13873KAHN AHN20160513230510805/13/16 23:05:31  5-MIN KAHN 140405Z AUTO 25004KT 10SM CLR 18/11 A2999 750 62 1300 260/04 RMK AO2 T01780106
13873KAHN AHN20160513231010805/13/16 23:10:31  5-MIN KAHN 140410Z AUTO 26005KT 10SM CLR 18/11 A2999 750 62 1300 270/05 RMK AO2 T01780106
13873KAHN AHN20160513231510805/13/16 23:15:31  5-MIN KAHN 140415Z AUTO VRB05KT 10SM CLR 18/11 A2998 750 62 1300 VRB/05 RMK AO2 T01780106
13873KAHN AHN20160513232010805/13/16 23:20:31  5-MIN KAHN 140420Z AUTO VRB05KT 10SM CLR 18/11 A2998 750 62 1300 VRB/05 RMK AO2 T01780106
13873KAHN AHN20160513232510805/13/16 23:25:31  5-MIN KAHN 140425Z AUTO 27004KT 10SM CLR 18/11 A2998 750 62 1300 280/04 RMK AO2 T01780106
13873KAHN AHN20160513233010805/13/16 23:30:31  5-MIN KAHN 140430Z AUTO 26004KT 10SM CLR 18/11 A2998 750 62 1300 270/04 RMK AO2 T01780106
13873KAHN AHN20160513233510805/13/16 23:35:31  5-MIN KAHN 140435Z AUTO 26004KT 10SM CLR 17/11 A2998 750 64 1200 260/04 RMK AO2 T01720106
13873KAHN AHN20160513234010805/13/16 23:40:31  5-MIN KAHN 140440Z AUTO 27003KT 10SM CLR 17/11 A2998 750 64 1200 270/03 RMK AO2 T01720106
13873KAHN AHN20160513234512505/13/16 23:45:31  5-MIN KAHN 140445Z AUTO 27003KT 10SM CLR 17/11 A2998 750 64 1200 270/03 RMK AO2 SLP146 T01720106 402830172
13873KAHN AHN20160513235012505/13/16 23:50:31  5-MIN KAHN 140450Z AUTO 27004KT 10SM CLR 17/11 A2998 750 64 1200 270/04 RMK AO2 SLP147 T01720106 402830172
13873KAHN AHN20160513235510805/13/16 23:55:31  5-MIN KAHN 140455Z AUTO 27003KT 10SM CLR 17/11 A2998 750 67 1200 270/03 RMK AO2 T01670106
13873KAHN AHN20160514000010805/14/16 00:00:31  5-MIN KAHN 140500Z AUTO 27003KT 10SM CLR 17/11 A2998 760 67 1200 280/03 RMK AO2 T01670106
13873KAHN AHN20160514000510805/14/16 00:05:31  5-MIN KAHN 140505Z AUTO VRB03KT 10SM CLR 17/11 A2998 750 67 1200 VRB/03 RMK AO2 T01670106
13873KAHN AHN20160514001010805/14/16 00:10:31  5-MIN KAHN 140510Z AUTO 27003KT 10SM CLR 17/11 A2998 750 67 1200 280/03 RMK AO2 T01670106
13873KAHN AHN20160514001510805/14/16 00:15:31  5-MIN KAHN 140515Z AUTO 28004KT 10SM CLR 17/11 A2998 760 67 1200 280/04 RMK AO2 T01670106
13873KAHN AHN20160514002010805/14/16 00:20:31  5-MIN KAHN 140520Z AUTO 28004KT 10SM CLR 16/11 A2998 760 69 1100 280/04 RMK AO2 T01610106
13873KAHN AHN20160514002510805/14/16 00:25:31  5-MIN KAHN 140525Z AUTO 28004KT 10SM CLR 17/10 A2998 760 64 1200 290/04 RMK AO2 T01670100
13873KAHN AHN20160514003010805/14/16 00:30:31  5-MIN KAHN 140530Z AUTO 29004KT 10SM CLR 17/10 A2998 760 64 1200 290/04 RMK AO2 T01670100
13873KAHN AHN20160514003510805/14/16 00:35:31  5-MIN KAHN 140535Z AUTO 28004KT 10SM CLR 16/10 A2997 760 67 1100 290/04 RMK AO2 T01610100
13873KAHN AHN20160514004010805/14/16 00:40:31  5-MIN KAHN 140540Z AUTO 28004KT 10SM CLR 17/10 A2997 760 64 1200 280/04 RMK AO2 T01670100
13873KAHN AHN20160514004513305/14/16 00:45:31  5-MIN KAHN 140545Z AUTO 28003KT 10SM CLR 16/10 A2997 760 67 1100 290/03 RMK AO2 SLP142 T01610100 10244 20161 51013
13873KAHN AHN20160514005013305/14/16 00:50:31  5-MIN KAHN 140550Z AUTO 27003KT 10SM CLR 16/10 A2997 770 67 1100 280/03 RMK AO2 SLP142 T01610100 10244 20161 51013
13873KAHN AHN20160514005510805/14/16 00:55:31  5-MIN KAHN 140555Z AUTO 27003KT 10SM CLR 16/10 A2997 770 67 1100 270/03 RMK AO2 T01610100
13873KAHN AHN20160514010010805/14/16 01:00:31  5-MIN KAHN 140600Z AUTO 29003KT 10SM CLR 16/10 A2997 770 67 1100 290/03 RMK AO2 T01610100
13873KAHN AHN20160514010510805/14/16 01:05:31  5-MIN KAHN 140605Z AUTO 30003KT 10SM CLR 16/10 A2996 770 67 1100 300/03 RMK AO2 T01610100
13873KAHN AHN20160514011010805/14/16 01:10:31  5-MIN KAHN 140610Z AUTO 30003KT 10SM CLR 16/10 A2996 780 69 1100 300/03 RMK AO2 T01560100
13873KAHN AHN20160514011510805/14/16 01:15:31  5-MIN KAHN 140615Z AUTO 30003KT 10SM CLR 16/10 A2996 780 69 1100 300/03 RMK AO2 T01560100
13873KAHN AHN20160514012010805/14/16 01:20:31  5-MIN KAHN 140620Z AUTO 28003KT 10SM CLR 16/10 A2996 780 67 1100 290/03 RMK AO2 T01610100
13873KAHN AHN20160514012510805/14/16 01:25:31  5-MIN KAHN 140625Z AUTO 00000KT 10SM CLR 16/10 A2996 780 69 1100 000/00 RMK AO2 T01560100
13873KAHN AHN20160514013010805/14/16 01:30:31  5-MIN KAHN 140630Z AUTO 00000KT 10SM CLR 15/10 A2996 780 72 1000 000/00 RMK AO2 T01500100
13873KAHN AHN20160514013510805/14/16 01:35:31  5-MIN KAHN 140635Z AUTO 00000KT 10SM CLR 15/10 A2996 780 72 1000 000/00 RMK AO2 T01500100
13873KAHN AHN20160514014010805/14/16 01:40:31  5-MIN KAHN 140640Z AUTO 29003KT 10SM CLR 15/10 A2996 780 72 1000 290/03 RMK AO2 T01500100
13873KAHN AHN20160514014511505/14/16 01:45:31  5-MIN KAHN 140645Z AUTO 30003KT 10SM CLR 15/10 A2996 780 72 1000 300/03 RMK AO2 SLP139 T01500100
13873KAHN AHN20160514015011505/14/16 01:50:31  5-MIN KAHN 140650Z AUTO 28003KT 10SM CLR 15/10 A2996 780 72 1000 290/03 RMK AO2 SLP139 T01500100
13873KAHN AHN20160514015510805/14/16 01:55:31  5-MIN KAHN 140655Z AUTO 00000KT 10SM CLR 15/10 A2996 780 72 1000 000/00 RMK AO2 T01500100
13873KAHN AHN20160514020010705/14/16 02:00:31  5-MIN KAHN 140700Z AUTO 00000KT 10SM CLR 14/10 A2995 780 74 900 000/00 RMK AO2 T01440100
13873KAHN AHN20160514020510805/14/16 02:05:31  5-MIN KAHN 140705Z AUTO 31004KT 10SM CLR 15/10 A2995 790 72 1000 310/04 RMK AO2 T01500100
13873KAHN AHN20160514021010805/14/16 02:10:31  5-MIN KAHN 140710Z AUTO 31004KT 10SM CLR 15/11 A2995 790 74 1000 310/04 RMK AO2 T01500106
13873KAHN AHN20160514021510805/14/16 02:15:31  5-MIN KAHN 140715Z AUTO 29004KT 10SM CLR 15/11 A2995 790 74 1000 300/04 RMK AO2 T01500106
13873KAHN AHN20160514022010805/14/16 02:20:31  5-MIN KAHN 140720Z AUTO 29004KT 10SM CLR 15/11 A2995 790 74 1000 300/04 RMK AO2 T01500106
13873KAHN AHN20160514022510805/14/16 02:25:31  5-MIN KAHN 140725Z AUTO 29003KT 10SM CLR 15/10 A2994 790 72 1000 290/03 RMK AO2 T01500100
13873KAHN AHN20160514023010705/14/16 02:30:31  5-MIN KAHN 140730Z AUTO 29003KT 10SM CLR 14/11 A2994 790 77 900 290/03 RMK AO2 T01440106
13873KAHN AHN20160514023510805/14/16 02:35:31  5-MIN KAHN 140735Z AUTO 28003KT 10SM CLR 14/10 A2994 790 74 1000 280/03 RMK AO2 T01440100
13873KAHN AHN20160514024010705/14/16 02:40:31  5-MIN KAHN 140740Z AUTO 27003KT 10SM CLR 14/10 A2994 790 74 900 270/03 RMK AO2 T01440100
13873KAHN AHN20160514024511405/14/16 02:45:31  5-MIN KAHN 140745Z AUTO 27003KT 10SM CLR 14/10 A2994 790 77 900 270/03 RMK AO2 SLP135 T01390100
13873KAHN AHN20160514025011405/14/16 02:50:31  5-MIN KAHN 140750Z AUTO 27004KT 10SM CLR 14/10 A2995 790 77 900 270/04 RMK AO2 SLP135 T01390100
13873KAHN AHN20160514025510705/14/16 02:55:31  5-MIN KAHN 140755Z AUTO 28003KT 10SM CLR 14/10 A2995 790 77 900 280/03 RMK AO2 T01390100
13873KAHN AHN20160514030010705/14/16 03:00:31  5-MIN KAHN 140800Z AUTO 28003KT 10SM CLR 14/10 A2995 790 77 900 280/03 RMK AO2 T01390100
13873KAHN AHN20160514030510705/14/16 03:05:31  5-MIN KAHN 140805Z AUTO 00000KT 10SM CLR 14/10 A2994 790 77 900 000/00 RMK AO2 T01390100
13873KAHN AHN20160514031010705/14/16 03:10:31  5-MIN KAHN 140810Z AUTO 25003KT 10SM CLR 13/10 A2995 790 80 800 260/03 RMK AO2 T01330100
13873KAHN AHN20160514031510705/14/16 03:15:31  5-MIN KAHN 140815Z AUTO 00000KT 10SM CLR 13/10 A2994 790 80 800 000/00 RMK AO2 T01330100
13873KAHN AHN20160514032010705/14/16 03:20:31  5-MIN KAHN 140820Z AUTO 26003KT 10SM CLR 14/10 A2995 790 77 900 270/03 RMK AO2 T01390100
13873KAHN AHN20160514032510705/14/16 03:25:31  5-MIN KAHN 140825Z AUTO 00000KT 10SM CLR 13/10 A2994 790 80 800 000/00 RMK AO2 T01330100
13873KAHN AHN20160514033010705/14/16 03:30:31  5-MIN KAHN 140830Z AUTO 00000KT 10SM CLR 13/10 A2994 790 80 800 000/00 RMK AO2 T01330100
13873KAHN AHN20160514033510705/14/16 03:35:31  5-MIN KAHN 140835Z AUTO 28003KT 10SM CLR 14/10 A2994 790 77 900 290/03 RMK AO2 T01390100
13873KAHN AHN20160514034010705/14/16 03:40:31  5-MIN KAHN 140840Z AUTO 29004KT 10SM CLR 13/11 A2994 790 83 800 300/04 RMK AO2 T01330106
13873KAHN AHN20160514034512005/14/16 03:45:31  5-MIN KAHN 140845Z AUTO 29005KT 10SM CLR 13/10 A2994 790 80 800 300/05 RMK AO2 SLP134 T01330100 58007
13873KAHN AHN20160514035012005/14/16 03:50:31  5-MIN KAHN 140850Z AUTO 28004KT 10SM CLR 13/10 A2994 790 80 800 280/04 RMK AO2 SLP134 T01330100 58007
13873KAHN AHN20160514035510705/14/16 03:55:31  5-MIN KAHN 140855Z AUTO 28004KT 10SM CLR 13/10 A2995 790 83 700 290/04 RMK AO2 T01280100
13873KAHN AHN20160514040010705/14/16 04:00:31  5-MIN KAHN 140900Z AUTO 29004KT 10SM CLR 13/10 A2995 780 83 700 300/04 RMK AO2 T01280100
13873KAHN AHN20160514040510705/14/16 04:05:31  5-MIN KAHN 140905Z AUTO 30006KT 10SM CLR 13/10 A2995 780 80 800 300/06 RMK AO2 T01330100
13873KAHN AHN20160514041010705/14/16 04:10:31  5-MIN KAHN 140910Z AUTO VRB04KT 10SM CLR 14/10 A2995 780 77 900 VRB/04 RMK AO2 T01390100
13873KAHN AHN20160514041510705/14/16 04:15:31  5-MIN KAHN 140915Z AUTO 28003KT 10SM CLR 13/10 A2995 780 80 800 290/03 RMK AO2 T01330100
13873KAHN AHN20160514042010705/14/16 04:20:31  5-MIN KAHN 140920Z AUTO 29004KT 10SM CLR 13/10 A2995 780 80 800 290/04 RMK AO2 T01330100
13873KAHN AHN20160514042510705/14/16 04:25:31  5-MIN KAHN 140925Z AUTO 29004KT 10SM CLR 13/10 A2995 780 80 800 300/04 RMK AO2 T01330100
13873KAHN AHN20160514043010705/14/16 04:30:31  5-MIN KAHN 140930Z AUTO 29004KT 10SM CLR 13/10 A2995 780 80 800 300/04 RMK AO2 T01330100
13873KAHN AHN20160514043510705/14/16 04:35:31  5-MIN KAHN 140935Z AUTO 30004KT 10SM CLR 13/10 A2995 780 80 800 300/04 RMK AO2 T01330100
13873KAHN AHN20160514044010705/14/16 04:40:31  5-MIN KAHN 140940Z AUTO 30003KT 10SM CLR 13/10 A2995 790 83 700 300/03 RMK AO2 T01280100
13873KAHN AHN20160514044511405/14/16 04:45:31  5-MIN KAHN 140945Z AUTO 29003KT 10SM CLR 13/10 A2995 790 83 700 290/03 RMK AO2 SLP137 T01280100
13873KAHN AHN20160514045011405/14/16 04:50:31  5-MIN KAHN 140950Z AUTO 27003KT 10SM CLR 13/10 A2995 780 83 700 280/03 RMK AO2 SLP136 T01280100
13873KAHN AHN20160514045510705/14/16 04:55:31  5-MIN KAHN 140955Z AUTO 28003KT 10SM CLR 12/10 A2995 780 86 700 290/03 RMK AO2 T01220100
13873KAHN AHN20160514050010705/14/16 05:00:31  5-MIN KAHN 141000Z AUTO 29004KT 10SM CLR 12/10 A2995 780 86 700 290/04 RMK AO2 T01220100
13873KAHN AHN20160514050510705/14/16 05:05:31  5-MIN KAHN 141005Z AUTO 29004KT 10SM CLR 12/10 A2995 780 86 700 300/04 RMK AO2 T01220100
13873KAHN AHN20160514051010705/14/16 05:10:31  5-MIN KAHN 141010Z AUTO 29004KT 10SM CLR 12/10 A2996 780 86 700 300/04 RMK AO2 T01220100
13873KAHN AHN20160514051510705/14/16 05:15:31  5-MIN KAHN 141015Z AUTO 29004KT 10SM CLR 12/10 A2996 780 86 700 300/04 RMK AO2 T01220100
13873KAHN AHN20160514052010705/14/16 05:20:31  5-MIN KAHN 141020Z AUTO 29004KT 10SM CLR 12/10 A2996 770 86 700 300/04 RMK AO2 T01220100
13873KAHN AHN20160514052510705/14/16 05:25:31  5-MIN KAHN 141025Z AUTO 29004KT 10SM CLR 12/10 A2996 780 86 700 300/04 RMK AO2 T01220100
13873KAHN AHN20160514053010705/14/16 05:30:31  5-MIN KAHN 141030Z AUTO 28003KT 10SM CLR 12/10 A2996 780 86 700 290/03 RMK AO2 T01220100
13873KAHN AHN20160514053510705/14/16 05:35:31  5-MIN KAHN 141035Z AUTO 30003KT 10SM CLR 12/10 A2996 770 86 700 300/03 RMK AO2 T01220100
13873KAHN AHN20160514054010705/14/16 05:40:31  5-MIN KAHN 141040Z AUTO 28003KT 10SM CLR 12/10 A2996 770 89 600 290/03 RMK AO2 T01170100
13873KAHN AHN20160514054511405/14/16 05:45:31  5-MIN KAHN 141045Z AUTO 28003KT 10SM CLR 12/10 A2996 770 89 600 280/03 RMK AO2 SLP142 T01170100
13873KAHN AHN20160514055011405/14/16 05:50:31  5-MIN KAHN 141050Z AUTO 00000KT 10SM CLR 12/10 A2996 770 89 600 000/00 RMK AO2 SLP143 T01170100
13873KAHN AHN20160514055510705/14/16 05:55:31  5-MIN KAHN 141055Z AUTO 00000KT 10SM CLR 12/10 A2996 770 89 600 000/00 RMK AO2 T01170100
13873KAHN AHN20160514060010705/14/16 06:00:31  5-MIN KAHN 141100Z AUTO 00000KT 10SM CLR 12/10 A2997 770 89 600 000/00 RMK AO2 T01170100
13873KAHN AHN20160514060510705/14/16 06:05:31  5-MIN KAHN 141105Z AUTO 00000KT 10SM CLR 12/10 A2997 760 86 700 000/00 RMK AO2 T01220100
13873KAHN AHN20160514061010705/14/16 06:10:31  5-MIN KAHN 141110Z AUTO 29003KT 10SM CLR 12/11 A2997 760 89 700 300/03 RMK AO2 T01220106
13873KAHN AHN20160514061510705/14/16 06:15:31  5-MIN KAHN 141115Z AUTO 30003KT 10SM CLR 13/11 A2998 760 86 700 300/03 RMK AO2 T01280106
13873KAHN AHN20160514062010705/14/16 06:20:31  5-MIN KAHN 141120Z AUTO 30003KT 10SM CLR 13/11 A2998 760 86 700 310/03 RMK AO2 T01280106
13873KAHN AHN20160514062510705/14/16 06:25:31  5-MIN KAHN 141125Z AUTO 30003KT 10SM CLR 13/11 A2998 750 83 800 300/03 RMK AO2 T01330106
13873KAHN AHN20160514063010705/14/16 06:30:31  5-MIN KAHN 141130Z AUTO 30003KT 10SM CLR 14/11 A2998 750 80 800 300/03 RMK AO2 T01390106
13873KAHN AHN20160514063510705/14/16 06:35:31  5-MIN KAHN 141135Z AUTO 29003KT 10SM CLR 14/11 A2998 750 80 800 300/03 RMK AO2 T01390106
13873KAHN AHN20160514064010705/14/16 06:40:31  5-MIN KAHN 141140Z AUTO 30003KT 10SM CLR 14/11 A2998 750 80 800 300/03 RMK AO2 T01390106
13873KAHN AHN20160514064513205/14/16 06:45:31  5-MIN KAHN 141145Z AUTO 00000KT 10SM CLR 14/11 A2998 750 80 900 000/00 RMK AO2 SLP148 T01440111 10161 20117 56008
13873KAHN AHN20160514065012705/14/16 06:50:31  5-MIN KAHN 141150Z 29003KT 10SM CLR 14/11 A2998 750 80 900 300/03 RMK AO2 SLP149 T01440111 10161 20117 56008
13873KAHN AHN20160514065510305/14/16 06:55:31  5-MIN KAHN 141155Z 29004KT 10SM CLR 15/11 A2998 750 74 1000 300/04 RMK AO2 T01500106
13873KAHN AHN20160514070010305/14/16 07:00:31  5-MIN KAHN 141200Z 30005KT 10SM CLR 16/11 A2999 750 72 1000 310/05 RMK AO2 T01560106
13873KAHN AHN20160514070510305/14/16 07:05:31  5-MIN KAHN 141205Z 30005KT 10SM CLR 16/11 A2999 750 72 1000 310/05 RMK AO2 T01560106
13873KAHN AHN20160514071010305/14/16 07:10:31  5-MIN KAHN 141210Z 30004KT 10SM CLR 16/11 A2998 750 69 1100 300/04 RMK AO2 T01610106
13873KAHN AHN20160514071510305/14/16 07:15:31  5-MIN KAHN 141215Z VRB03KT 10SM CLR 16/11 A2998 750 69 1100 VRB/03 RMK AO2 T01610106
13873KAHN AHN20160514072010305/14/16 07:20:31  5-MIN KAHN 141220Z 29006KT 10SM CLR 17/11 A2998 750 67 1200 300/06 RMK AO2 T01670106
13873KAHN AHN20160514072510305/14/16 07:25:31  5-MIN KAHN 141225Z 30005KT 10SM CLR 17/11 A2999 750 67 1200 310/05 RMK AO2 T01670106
13873KAHN AHN20160514073010305/14/16 07:30:31  5-MIN KAHN 141230Z 29004KT 10SM CLR 17/11 A2999 750 64 1200 300/04 RMK AO2 T01720106
13873KAHN AHN20160514073510305/14/16 07:35:31  5-MIN KAHN 141235Z 29004KT 10SM CLR 18/11 A2999 750 64 1300 290/04 RMK AO2 T01780111
13873KAHN AHN20160514074010305/14/16 07:40:31  5-MIN KAHN 141240Z 29006KT 10SM CLR 18/11 A2999 750 62 1400 300/06 RMK AO2 T01830111
13873KAHN AHN20160514074511005/14/16 07:45:31  5-MIN KAHN 141245Z VRB06KT 10SM CLR 18/11 A2998 750 60 1400 VRB/06 RMK AO2 SLP149 T01830106
13873KAHN AHN20160514075011005/14/16 07:50:31  5-MIN KAHN 141250Z 31005KT 10SM CLR 18/11 A2998 750 60 1400 310/05 RMK AO2 SLP147 T01830106
13873KAHN AHN20160514075510305/14/16 07:55:31  5-MIN KAHN 141255Z VRB05KT 10SM CLR 19/11 A2998 760 58 1400 VRB/05 RMK AO2 T01890106
13873KAHN AHN20160514080010305/14/16 08:00:31  5-MIN KAHN 141300Z 32005KT 10SM CLR 19/11 A2998 760 56 1500 320/05 RMK AO2 T01940106
13873KAHN AHN20160514080510305/14/16 08:05:31  5-MIN KAHN 141305Z 32006KT 10SM CLR 19/11 A2997 760 56 1500 330/06 RMK AO2 T01940106
13873KAHN AHN20160514081010305/14/16 08:10:31  5-MIN KAHN 141310Z 30008KT 10SM CLR 19/10 A2997 760 54 1500 310/08 RMK AO2 T01940100
13873KAHN AHN20160514081510305/14/16 08:15:31  5-MIN KAHN 141315Z 31007KT 10SM CLR 20/10 A2997 760 52 1600 320/07 RMK AO2 T02000100
13873KAHN AHN20160514082010305/14/16 08:20:31  5-MIN KAHN 141320Z VRB05KT 10SM CLR 20/10 A2997 760 52 1600 VRB/05 RMK AO2 T02000100
13873KAHN AHN20160514082510305/14/16 08:25:31  5-MIN KAHN 141325Z VRB06KT 10SM CLR 21/10 A2997 760 50 1600 VRB/06 RMK AO2 T02060100
13873KAHN AHN20160514083010305/14/16 08:30:31  5-MIN KAHN 141330Z VRB04KT 10SM CLR 21/10 A2997 760 50 1600 VRB/04 RMK AO2 T02060100
13873KAHN AHN20160514083510305/14/16 08:35:31  5-MIN KAHN 141335Z 31007KT 10SM CLR 21/10 A2997 770 48 1700 320/07 RMK AO2 T02110100
13873KAHN AHN20160514084011905/14/16 08:40:31  5-MIN KAHN 141340Z 31007KT 270V350 10SM CLR 21/10 A2997 770 48 1700 320/07 280V360 RMK AO2 T02110100
13873KAHN AHN20160514084511005/14/16 08:45:31  5-MIN KAHN 141345Z 32007KT 10SM CLR 21/10 A2997 770 48 1700 320/07 RMK AO2 SLP142 T02110100
13873KAHN AHN20160514085011005/14/16 08:50:31  5-MIN KAHN 141350Z 31005KT 10SM CLR 21/09 A2997 770 47 1700 310/05 RMK AO2 SLP142 T02110094
13873KAHN AHN20160514085510305/14/16 08:55:31  5-MIN KAHN 141355Z 31005KT 10SM CLR 22/10 A2997 770 47 1800 320/05 RMK AO2 T02170100
13873KAHN AHN20160514090010305/14/16 09:00:31  5-MIN KAHN 141400Z VRB05KT 10SM CLR 22/10 A2996 770 47 1800 VRB/05 RMK AO2 T02170100
13873KAHN AHN20160514090510305/14/16 09:05:31  5-MIN KAHN 141405Z VRB06KT 10SM CLR 22/10 A2997 770 45 1800 VRB/06 RMK AO2 T02220100
13873KAHN AHN20160514091010305/14/16 09:10:31  5-MIN KAHN 141410Z 30006KT 10SM CLR 22/10 A2997 770 45 1800 310/06 RMK AO2 T02220100
13873KAHN AHN20160514091510305/14/16 09:15:31  5-MIN KAHN 141415Z VRB06KT 10SM CLR 22/09 A2997 770 43 1800 VRB/06 RMK AO2 T02220094
13873KAHN AHN20160514092010305/14/16 09:20:31  5-MIN KAHN 141420Z 32007KT 10SM CLR 23/10 A2996 770 44 1900 320/07 RMK AO2 T02280100
13873KAHN AHN20160514092510305/14/16 09:25:31  5-MIN KAHN 141425Z 31007KT 10SM CLR 22/10 A2996 770 45 1800 310/07 RMK AO2 T02220100
13873KAHN AHN20160514093010305/14/16 09:30:31  5-MIN KAHN 141430Z 31006KT 10SM CLR 22/10 A2996 770 45 1800 320/06 RMK AO2 T02220100
13873KAHN AHN20160514093510305/14/16 09:35:31  5-MIN KAHN 141435Z VRB06KT 10SM CLR 23/10 A2996 770 44 1900 VRB/06 RMK AO2 T02280100
13873KAHN AHN20160514094010305/14/16 09:40:31  5-MIN KAHN 141440Z 30009KT 10SM CLR 23/10 A2996 770 44 1900 300/09 RMK AO2 T02280100
13873KAHN AHN20160514094511605/14/16 09:45:31  5-MIN KAHN 141445Z 30006KT 10SM CLR 23/10 A2996 770 44 1900 310/06 RMK AO2 SLP140 T02280100 53013
13873KAHN AHN20160514095011605/14/16 09:50:31  5-MIN KAHN 141450Z 28007KT 10SM CLR 23/10 A2996 770 42 2000 280/07 RMK AO2 SLP140 T02330100 53013
13873KAHN AHN20160514095510305/14/16 09:55:31  5-MIN KAHN 141455Z 27008KT 10SM CLR 23/11 A2996 770 44 2000 280/08 RMK AO2 T02330106
13873KAHN AHN20160514100010305/14/16 10:00:31  5-MIN KAHN 141500Z 27007KT 10SM CLR 23/10 A2996 770 42 2000 270/07 RMK AO2 T02330100
13873KAHN AHN20160514100510905/14/16 10:05:31  5-MIN KAHN 141505Z 28009G14KT 10SM CLR 23/10 A2996 770 42 2000 290/09G14 RMK AO2 T02330100
13873KAHN AHN20160514101012505/14/16 10:10:31  5-MIN KAHN 141510Z 29008G14KT 260V330 10SM CLR 23/10 A2996 770 42 2000 300/08G14 270V340 RMK AO2 T02330100
13873KAHN AHN20160514101510305/14/16 10:15:31  5-MIN KAHN 141515Z 29006KT 10SM CLR 24/11 A2996 770 41 2100 300/06 RMK AO2 T02440106
13873KAHN AHN20160514102010305/14/16 10:20:31  5-MIN KAHN 141520Z 29009KT 10SM CLR 24/10 A2996 780 39 2100 290/09 RMK AO2 T02440100
13873KAHN AHN20160514102510305/14/16 10:25:31  5-MIN KAHN 141525Z 31008KT 10SM CLR 24/10 A2996 770 39 2100 310/08 RMK AO2 T02440100
13873KAHN AHN20160514103012505/14/16 10:30:31  5-MIN KAHN 141530Z 28009G15KT 220V310 10SM CLR 24/09 A2996 770 38 2100 280/09G15 230V320 RMK AO2 T02440094
13873KAHN AHN20160514103510905/14/16 10:35:31  5-MIN KAHN 141535Z 28009G15KT 10SM CLR 25/09 A2996 770 37 2100 280/09G15 RMK AO2 T02500094
13873KAHN AHN20160514104010305/14/16 10:40:31  5-MIN KAHN 141540Z 28009KT 10SM CLR 25/09 A2996 780 37 2100 290/09 RMK AO2 T02500094
13873KAHN AHN20160514104511605/14/16 10:45:31  5-MIN KAHN 141545Z 29010G17KT 10SM CLR 25/09 A2996 780 35 2200 300/10G17 RMK AO2 SLP138 T02500089
13873KAHN AHN20160514105011605/14/16 10:50:31  5-MIN KAHN 141550Z 30010G17KT 10SM CLR 25/09 A2996 780 35 2100 310/10G17 RMK AO2 SLP139 T02500089
13873KAHN AHN20160514105510905/14/16 10:55:31  5-MIN KAHN 141555Z 28010G16KT 10SM CLR 25/08 A2996 780 34 2100 290/10G16 RMK AO2 T02500083
13873KAHN AHN20160514110010905/14/16 11:00:31  5-MIN KAHN 141600Z 31010G16KT 10SM CLR 26/08 A2996 780 33 2200 320/10G16 RMK AO2 T02560083
13873KAHN AHN20160514110510905/14/16 11:05:31  5-MIN KAHN 141605Z 29011G19KT 10SM CLR 26/08 A2996 780 32 2200 300/11G19 RMK AO2 T02560078
13873KAHN AHN20160514111012505/14/16 11:10:31  5-MIN KAHN 141610Z 31010G19KT 280V350 10SM CLR 26/08 A2996 780 32 2200 320/10G19 290V360 RMK AO2 T02560078
13873KAHN AHN20160514111510305/14/16 11:15:31  5-MIN KAHN 141615Z 30010KT 10SM CLR 26/07 A2995 780 30 2200 310/10 RMK AO2 T02560072
13873KAHN AHN20160514112010905/14/16 11:20:31  5-MIN KAHN 141620Z VRB05G16KT 10SM CLR 26/08 A2995 780 31 2300 VRB/05G16 RMK AO2 T02610078
13873KAHN AHN20160514112510305/14/16 11:25:31  5-MIN KAHN 141625Z VRB06KT 10SM CLR 26/08 A2995 780 31 2300 VRB/06 RMK AO2 T02610078
13873KAHN AHN20160514113010305/14/16 11:30:31  5-MIN KAHN 141630Z VRB06KT 10SM CLR 27/08 A2995 780 31 2300 VRB/06 RMK AO2 T02670083
13873KAHN AHN20160514113510305/14/16 11:35:31  5-MIN KAHN 141635Z 28010KT 10SM CLR 27/08 A2995 780 31 2300 280/10 RMK AO2 T02670083
13873KAHN AHN20160514114010305/14/16 11:40:31  5-MIN KAHN 141640Z 29010KT 10SM CLR 27/07 A2995 790 28 2300 290/10 RMK AO2 T02670072
13873KAHN AHN20160514114511605/14/16 11:45:31  5-MIN KAHN 141645Z VRB06G15KT 10SM CLR 27/07 A2995 790 28 2300 VRB/06G15 RMK AO2 SLP135 T02670072
13873KAHN AHN20160514115013205/14/16 11:50:31  5-MIN KAHN 141650Z 28009G15KT 250V350 10SM CLR 27/08 A2994 790 29 2400 290/09G15 260V360 RMK AO2 SLP134 T02670078
13873KAHN AHN20160514115512505/14/16 11:55:31  5-MIN KAHN 141655Z 28008G16KT 220V310 10SM CLR 27/08 A2994 790 29 2400 280/08G16 230V320 RMK AO2 T02670078
13873KAHN AHN20160514120010905/14/16 12:00:31  5-MIN KAHN 141700Z 27010G17KT 10SM CLR 27/07 A2994 790 27 2400 270/10G17 RMK AO2 T02720072
13873KAHN AHN20160514120510905/14/16 12:05:31  5-MIN KAHN 141705Z 27010G18KT 10SM CLR 27/07 A2994 790 28 2400 270/10G18 RMK AO2 T02670072
13873KAHN AHN20160514121010905/14/16 12:10:31  5-MIN KAHN 141710Z 28010G18KT 10SM CLR 27/08 A2994 790 29 2400 280/10G18 RMK AO2 T02720078
13873KAHN AHN20160514121512505/14/16 12:15:31  5-MIN KAHN 141715Z 28009G16KT 250V310 10SM CLR 27/08 A2994 790 29 2400 280/09G16 260V320 RMK AO2 T02670078
13873KAHN AHN20160514122012505/14/16 12:20:31  5-MIN KAHN 141720Z 28011G19KT 240V310 10SM CLR 27/08 A2994 790 30 2400 280/11G19 250V320 RMK AO2 T02720083
13873KAHN AHN20160514122510905/14/16 12:25:31  5-MIN KAHN 141725Z 28009G19KT 10SM CLR 27/08 A2994 790 30 2400 290/09G19 RMK AO2 T02720083
13873KAHN AHN20160514123012505/14/16 12:30:31  5-MIN KAHN 141730Z 27010G18KT 230V310 10SM CLR 28/09 A2994 790 30 2500 280/10G18 240V320 RMK AO2 T02780089
13873KAHN AHN20160514123510905/14/16 12:35:31  5-MIN KAHN 141735Z 28011G18KT 10SM CLR 27/09 A2994 800 31 2400 280/11G18 RMK AO2 T02720089
13873KAHN AHN20160514124012505/14/16 12:40:31  5-MIN KAHN 141740Z 29008G18KT 250V310 10SM CLR 27/09 A2994 800 31 2400 290/08G18 260V320 RMK AO2 T02720089
13873KAHN AHN20160514124514405/14/16 12:45:31  5-MIN KAHN 141745Z 28007KT 240V310 10SM CLR 28/09 A2993 800 31 2500 280/07 250V320 RMK AO2 SLP129 T02780094 10278 20150 58007
13873KAHN AHN20160514125015005/14/16 12:50:31  5-MIN KAHN 141750Z 30010G19KT 260V330 10SM CLR 27/09 A2993 800 32 2400 300/10G19 270V340 RMK AO2 SLP130 T02720094 10278 20150 58007
13873KAHN AHN20160514125510905/14/16 12:55:31  5-MIN KAHN 141755Z 31011G19KT 10SM CLR 28/10 A2993 800 32 2500 310/11G19 RMK AO2 T02780100
13873KAHN AHN20160514130010905/14/16 13:00:31  5-MIN KAHN 141800Z 32010G17KT 10SM CLR 28/09 A2993 800 31 2500 330/10G17 RMK AO2 T02780094
13873KAHN AHN20160514130510905/14/16 13:05:31  5-MIN KAHN 141805Z 31007G17KT 10SM CLR 28/10 A2993 810 32 2500 320/07G17 RMK AO2 T02780100
13873KAHN AHN20160514131012505/14/16 13:10:31  5-MIN KAHN 141810Z 28008G18KT 230V310 10SM CLR 28/10 A2993 800 32 2500 290/08G18 240V320 RMK AO2 T02780100
13873KAHN AHN20160514131512505/14/16 13:15:31  5-MIN KAHN 141815Z 28009G20KT 240V310 10SM CLR 28/10 A2993 810 32 2500 280/09G20 250V320 RMK AO2 T02780100
13873KAHN AHN20160514132010905/14/16 13:20:31  5-MIN KAHN 141820Z 32007G20KT 10SM CLR 28/10 A2992 810 32 2500 330/07G20 RMK AO2 T02780100
13873KAHN AHN20160514132510905/14/16 13:25:31  5-MIN KAHN 141825Z 28010G17KT 10SM CLR 28/10 A2992 810 32 2500 290/10G17 RMK AO2 T02780100
13873KAHN AHN20160514133010905/14/16 13:30:31  5-MIN KAHN 141830Z 30010G17KT 10SM CLR 28/10 A2992 810 32 2500 310/10G17 RMK AO2 T02780100
13873KAHN AHN20160514133510905/14/16 13:35:31  5-MIN KAHN 141835Z 32011G19KT 10SM CLR 28/10 A2992 810 31 2600 320/11G19 RMK AO2 T02830100
13873KAHN AHN20160514134010905/14/16 13:40:31  5-MIN KAHN 141840Z 31012G20KT 10SM CLR 28/10 A2992 810 32 2500 310/12G20 RMK AO2 T02780100
13873KAHN AHN20160514134513205/14/16 13:45:31  5-MIN KAHN 141845Z 31008G20KT 250V340 10SM CLR 28/10 A2992 810 31 2600 310/08G20 260V350 RMK AO2 SLP126 T02830100
13873KAHN AHN20160514135011605/14/16 13:50:31  5-MIN KAHN 141850Z 30011G18KT 10SM CLR 28/10 A2992 810 31 2600 300/11G18 RMK AO2 SLP125 T02830100
13873KAHN AHN20160514135510905/14/16 13:55:31  5-MIN KAHN 141855Z 28013G19KT 10SM CLR 28/10 A2992 810 31 2600 280/13G19 RMK AO2 T02830100
13873KAHN AHN20160514140012505/14/16 14:00:31  5-MIN KAHN 141900Z 30010G22KT 250V320 10SM CLR 28/10 A2992 810 32 2500 300/10G22 260V330 RMK AO2 T02780100
13873KAHN AHN20160514140510905/14/16 14:05:31  5-MIN KAHN 141905Z 29013G23KT 10SM CLR 28/10 A2992 810 32 2500 290/13G23 RMK AO2 T02780100
13873KAHN AHN20160514141010905/14/16 14:10:31  5-MIN KAHN 141910Z 28010G23KT 10SM CLR 28/10 A2992 810 32 2500 290/10G23 RMK AO2 T02780100
13873KAHN AHN20160514141510905/14/16 14:15:31  5-MIN KAHN 141915Z 30013G20KT 10SM CLR 28/11 A2992 810 33 2500 310/13G20 RMK AO2 T02780106
13873KAHN AHN20160514142010905/14/16 14:20:31  5-MIN KAHN 141920Z 28011G20KT 10SM CLR 28/11 A2991 820 33 2500 280/11G20 RMK AO2 T02780106
13873KAHN AHN20160514142510905/14/16 14:25:31  5-MIN KAHN 141925Z 29012G19KT 10SM CLR 28/11 A2991 820 33 2500 300/12G19 RMK AO2 T02780106
13873KAHN AHN20160514143012505/14/16 14:30:31  5-MIN KAHN 141930Z 30010G19KT 260V330 10SM CLR 28/11 A2991 820 35 2500 300/10G19 270V340 RMK AO2 T02780111
13873KAHN AHN20160514143510905/14/16 14:35:31  5-MIN KAHN 141935Z 32011G19KT 10SM CLR 28/11 A2991 820 32 2600 320/11G19 RMK AO2 T02830106
13873KAHN AHN20160514144010905/14/16 14:40:31  5-MIN KAHN 141940Z 30010G19KT 10SM CLR 28/11 A2991 820 33 2600 310/10G19 RMK AO2 T02830111
13873KAHN AHN20160514144511605/14/16 14:45:31  5-MIN KAHN 141945Z 30011G18KT 10SM CLR 28/11 A2991 820 35 2500 310/11G18 RMK AO2 SLP124 T02780111
13873KAHN AHN20160514145011605/14/16 14:50:31  5-MIN KAHN 141950Z 28012G18KT 10SM CLR 28/11 A2991 820 35 2500 280/12G18 RMK AO2 SLP123 T02780111
13873KAHN AHN20160514145510905/14/16 14:55:31  5-MIN KAHN 141955Z 32015G23KT 10SM CLR 28/11 A2991 820 33 2600 330/15G23 RMK AO2 T02830111
13873KAHN AHN20160514150012505/14/16 15:00:31  5-MIN KAHN 142000Z 32007G23KT 290V350 10SM CLR 28/11 A2991 820 35 2500 320/07G23 300V360 RMK AO2 T02780111
13873KAHN AHN20160514150512505/14/16 15:05:31  5-MIN KAHN 142005Z 30008G19KT 270V340 10SM CLR 28/12 A2991 820 35 2600 310/08G19 280V350 RMK AO2 T02830117
13873KAHN AHN20160514151012505/14/16 15:10:31  5-MIN KAHN 142010Z 30008G19KT 240V330 10SM CLR 28/11 A2990 830 33 2600 300/08G19 250V340 RMK AO2 T02830111
13873KAHN AHN20160514151510905/14/16 15:15:31  5-MIN KAHN 142015Z 29010G19KT 10SM CLR 28/12 A2990 830 36 2500 300/10G19 RMK AO2 T02780117
13873KAHN AHN20160514152010905/14/16 15:20:31  5-MIN KAHN 142020Z 29009G17KT 10SM CLR 28/12 A2990 830 35 2600 300/09G17 RMK AO2 T02830117
13873KAHN AHN20160514152512505/14/16 15:25:31  5-MIN KAHN 142025Z 29012G19KT 260V320 10SM CLR 28/12 A2990 830 35 2600 300/12G19 270V330 RMK AO2 T02830117
13873KAHN AHN20160514153011205/14/16 15:30:31  5-MIN KAHN 142030Z 27011G19KT 10SM FEW070 28/11 A2989 830 35 2500 270/11G19 RMK AO2 T02780111
13873KAHN AHN20160514153511205/14/16 15:35:31  5-MIN KAHN 142035Z 31010G17KT 10SM FEW070 28/12 A2989 830 35 2600 310/10G17 RMK AO2 T02830117
13873KAHN AHN20160514154011205/14/16 15:40:31  5-MIN KAHN 142040Z 30013G19KT 10SM FEW070 28/12 A2990 830 35 2600 310/13G19 RMK AO2 T02830117
13873KAHN AHN20160514154512505/14/16 15:45:31  5-MIN KAHN 142045Z 28013G19KT 10SM FEW070 28/12 A2989 840 35 2600 280/13G19 RMK AO2 SLP117 T02830117 58010
13873KAHN AHN20160514155012205/14/16 15:50:31  5-MIN KAHN 142050Z 29013G19KT 10SM CLR 28/11 A2989 840 35 2500 290/13G19 RMK AO2 SLP116 T02780111 58010
13873KAHN AHN20160514155510905/14/16 15:55:31  5-MIN KAHN 142055Z 27010G19KT 10SM CLR 28/11 A2989 840 35 2500 280/10G19 RMK AO2 T02780111
13873KAHN AHN20160514160010905/14/16 16:00:31  5-MIN KAHN 142100Z 27010G23KT 10SM CLR 27/11 A2988 850 36 2500 280/10G23 RMK AO2 T02720111
13873KAHN AHN20160514160511205/14/16 16:05:31  5-MIN KAHN 142105Z 29009G23KT 10SM FEW070 27/11 A2988 840 34 2500 290/09G23 RMK AO2 T02720106
13873KAHN AHN20160514161011205/14/16 16:10:31  5-MIN KAHN 142110Z 28010G23KT 10SM FEW070 28/11 A2988 850 35 2500 290/10G23 RMK AO2 T02780111
13873KAHN AHN20160514161511205/14/16 16:15:31  5-MIN KAHN 142115Z 27011G19KT 10SM FEW070 28/11 A2988 840 35 2500 280/11G19 RMK AO2 T02780111
13873KAHN AHN20160514162011205/14/16 16:20:31  5-MIN KAHN 142120Z 27013G20KT 10SM FEW070 28/11 A2988 850 35 2500 270/13G20 RMK AO2 T02780111
13873KAHN AHN20160514162511205/14/16 16:25:31  5-MIN KAHN 142125Z 29015G25KT 10SM FEW070 28/11 A2988 850 33 2500 300/15G25 RMK AO2 T02780106
13873KAHN AHN20160514163011205/14/16 16:30:31  5-MIN KAHN 142130Z 28010G25KT 10SM FEW070 28/11 A2988 850 33 2500 280/10G25 RMK AO2 T02780106
13873KAHN AHN20160514163511205/14/16 16:35:31  5-MIN KAHN 142135Z 28011G23KT 10SM FEW070 28/11 A2988 850 33 2500 290/11G23 RMK AO2 T02780106
13873KAHN AHN20160514164010905/14/16 16:40:31  5-MIN KAHN 142140Z 28012G19KT 10SM CLR 28/11 A2988 850 35 2500 290/12G19 RMK AO2 T02780111
13873KAHN AHN20160514164511605/14/16 16:45:31  5-MIN KAHN 142145Z 29010G20KT 10SM CLR 27/11 A2988 850 36 2500 290/10G20 RMK AO2 SLP114 T02720111
13873KAHN AHN20160514165011605/14/16 16:50:31  5-MIN KAHN 142150Z 28008G20KT 10SM CLR 27/11 A2988 850 36 2500 290/08G20 RMK AO2 SLP115 T02720111
13873KAHN AHN20160514165512205/14/16 16:55:31  5-MIN KAHN 142155Z 27010KT 230V300 10SM FEW075 27/11 A2988 850 36 2500 270/10 240V310 RMK AO2 T02720111
13873KAHN AHN20160514170011205/14/16 17:00:31  5-MIN KAHN 142200Z 28010G19KT 10SM FEW075 27/11 A2988 850 34 2500 280/10G19 RMK AO2 T02720106
13873KAHN AHN20160514170510905/14/16 17:05:31  5-MIN KAHN 142205Z 27009G21KT 10SM CLR 27/11 A2988 850 34 2500 270/09G21 RMK AO2 T02720106
13873KAHN AHN20160514171012705/14/16 17:10:31  5-MIN KAHN 142210Z 28013G26KT 10SM CLR 27/11 A2988 850 34 2500 280/13G26 RMK AO2 PK WND 26026/2208 T02720106
13873KAHN AHN20160514171512705/14/16 17:15:31  5-MIN KAHN 142215Z 30013G26KT 10SM CLR 27/11 A2988 850 34 2500 300/13G26 RMK AO2 PK WND 26026/2208 T02720106
13873KAHN AHN20160514172012705/14/16 17:20:31  5-MIN KAHN 142220Z 29012G23KT 10SM CLR 27/10 A2988 850 33 2500 290/12G23 RMK AO2 PK WND 26026/2208 T02720100
13873KAHN AHN20160514172512705/14/16 17:25:31  5-MIN KAHN 142225Z 29015G23KT 10SM CLR 27/10 A2988 850 33 2500 300/15G23 RMK AO2 PK WND 26026/2208 T02720100
13873KAHN AHN20160514173014305/14/16 17:30:31  5-MIN KAHN 142230Z 29010G21KT 250V310 10SM CLR 27/09 A2987 850 32 2500 300/10G21 260V320 RMK AO2 PK WND 26026/2208 T02720094
13873KAHN AHN20160514173512705/14/16 17:35:31  5-MIN KAHN 142235Z 30010G20KT 10SM CLR 27/09 A2987 850 33 2400 300/10G20 RMK AO2 PK WND 26026/2208 T02670094
13873KAHN AHN20160514174012705/14/16 17:40:31  5-MIN KAHN 142240Z 30013G20KT 10SM CLR 27/09 A2988 850 33 2400 310/13G20 RMK AO2 PK WND 26026/2208 T02670094
13873KAHN AHN20160514174513405/14/16 17:45:31  5-MIN KAHN 142245Z 29010G21KT 10SM CLR 27/09 A2988 850 33 2400 300/10G21 RMK AO2 PK WND 26026/2208 SLP112 T02670094
13873KAHN AHN20160514175013405/14/16 17:50:31  5-MIN KAHN 142250Z 28010G21KT 10SM CLR 27/09 A2988 850 33 2400 290/10G21 RMK AO2 PK WND 26026/2208 SLP113 T02670094
13873KAHN AHN20160514175512505/14/16 17:55:31  5-MIN KAHN 142255Z 28011G19KT 250V320 10SM CLR 27/09 A2988 850 33 2400 290/11G19 260V330 RMK AO2 T02670094
13873KAHN AHN20160514180010905/14/16 18:00:31  5-MIN KAHN 142300Z 28010G19KT 10SM CLR 26/09 A2988 850 34 2400 280/10G19 RMK AO2 T02610094
13873KAHN AHN20160514180510905/14/16 18:05:31  5-MIN KAHN 142305Z 29009G19KT 10SM CLR 26/10 A2988 850 36 2400 290/09G19 RMK AO2 T02610100
13873KAHN AHN20160514181010905/14/16 18:10:31  5-MIN KAHN 142310Z 27010G19KT 10SM CLR 26/10 A2987 850 36 2400 280/10G19 RMK AO2 T02610100
13873KAHN AHN20160514181510905/14/16 18:15:31  5-MIN KAHN 142315Z 29011G19KT 10SM CLR 26/10 A2987 850 36 2400 300/11G19 RMK AO2 T02610100
13873KAHN AHN20160514182012505/14/16 18:20:31  5-MIN KAHN 142320Z 28009G18KT 230V310 10SM CLR 26/10 A2988 850 36 2400 280/09G18 240V320 RMK AO2 T02610100
13873KAHN AHN20160514182510905/14/16 18:25:31  5-MIN KAHN 142325Z 28012G18KT 10SM CLR 26/10 A2988 850 37 2300 290/12G18 RMK AO2 T02560100
13873KAHN AHN20160514183010905/14/16 18:30:31  5-MIN KAHN 142330Z 28011G18KT 10SM CLR 26/10 A2988 850 37 2300 290/11G18 RMK AO2 T02560100
13873KAHN AHN20160514183510905/14/16 18:35:31  5-MIN KAHN 142335Z 30010G18KT 10SM CLR 26/11 A2988 850 38 2300 300/10G18 RMK AO2 T02560106
13873KAHN AHN20160514184010905/14/16 18:40:31  5-MIN KAHN 142340Z 29008G16KT 10SM CLR 26/11 A2988 850 38 2300 290/08G16 RMK AO2 T02560106
13873KAHN AHN20160514184515005/14/16 18:45:31  5-MIN KAHN 142345Z 28008G14KT 240V300 10SM CLR 25/11 A2988 850 39 2200 280/08G14 250V310 RMK AO2 SLP113 T02500106 10283 20250 58014
13873KAHN AHN20160514185013405/14/16 18:50:31  5-MIN KAHN 142350Z 30012G20KT 10SM CLR 25/10 A2988 850 38 2200 300/12G20 RMK AO2 SLP114 T02500100 10283 20250 58014
13873KAHN AHN20160514185510905/14/16 18:55:31  5-MIN KAHN 142355Z 29008G20KT 10SM CLR 25/10 A2988 850 38 2200 300/08G20 RMK AO2 T02500100
13873KAHN AHN20160514190010905/14/16 19:00:31  5-MIN KAHN 150000Z 30010G17KT 10SM CLR 24/10 A2988 840 39 2200 300/10G17 RMK AO2 T02440100
13873KAHN AHN20160514190511405/14/16 19:05:31  5-MIN KAHN 150005Z AUTO 28007G17KT 10SM CLR 24/10 A2989 840 39 2200 290/07G17 RMK AO2 T02440100
13873KAHN AHN20160514191010805/14/16 19:10:31  5-MIN KAHN 150010Z AUTO 28007KT 10SM CLR 24/10 A2989 840 39 2200 290/07 RMK AO2 T02440100
13873KAHN AHN20160514191512405/14/16 19:15:31  5-MIN KAHN 150015Z AUTO 29007KT 240V310 10SM CLR 24/10 A2989 840 41 2100 290/07 250V320 RMK AO2 T02390100
13873KAHN AHN20160514192010805/14/16 19:20:31  5-MIN KAHN 150020Z AUTO 29006KT 10SM CLR 24/10 A2989 840 41 2100 290/06 RMK AO2 T02390100
13873KAHN AHN20160514192510805/14/16 19:25:31  5-MIN KAHN 150025Z AUTO 29007KT 10SM CLR 24/10 A2989 840 41 2100 300/07 RMK AO2 T02390100
13873KAHN AHN20160514193010805/14/16 19:30:31  5-MIN KAHN 150030Z AUTO 30008KT 10SM CLR 24/10 A2989 840 41 2100 300/08 RMK AO2 T02390100
13873KAHN AHN20160514193510805/14/16 19:35:31  5-MIN KAHN 150035Z AUTO 30007KT 10SM CLR 23/10 A2989 840 42 2000 300/07 RMK AO2 T02330100
13873KAHN AHN20160514194010805/14/16 19:40:31  5-MIN KAHN 150040Z AUTO 31007KT 10SM CLR 23/10 A2989 840 42 2000 310/07 RMK AO2 T02330100
13873KAHN AHN20160514194511505/14/16 19:45:31  5-MIN KAHN 150045Z AUTO 30010KT 10SM CLR 23/09 A2990 830 41 2000 310/10 RMK AO2 SLP118 T02330094
13873KAHN AHN20160514195011505/14/16 19:50:31  5-MIN KAHN 150050Z AUTO 30007KT 10SM CLR 23/09 A2990 830 41 2000 300/07 RMK AO2 SLP118 T02330094
13873KAHN AHN20160514195510805/14/16 19:55:31  5-MIN KAHN 150055Z AUTO 31009KT 10SM CLR 23/09 A2990 830 42 2000 310/09 RMK AO2 T02280094
13873KAHN AHN20160514200010805/14/16 20:00:31  5-MIN KAHN 150100Z AUTO 31006KT 10SM CLR 23/09 A2990 830 42 2000 310/06 RMK AO2 T02280094
13873KAHN AHN20160514200510805/14/16 20:05:31  5-MIN KAHN 150105Z AUTO 31009KT 10SM CLR 23/09 A2991 820 40 2000 310/09 RMK AO2 T02280089
13873KAHN AHN20160514201011405/14/16 20:10:31  5-MIN KAHN 150110Z AUTO 30011G16KT 10SM CLR 23/08 A2991 820 39 1900 310/11G16 RMK AO2 T02280083
13873KAHN AHN20160514201511405/14/16 20:15:31  5-MIN KAHN 150115Z AUTO 30009G17KT 10SM CLR 23/08 A2991 820 37 1900 310/09G17 RMK AO2 T02280078
13873KAHN AHN20160514202011405/14/16 20:20:31  5-MIN KAHN 150120Z AUTO 30008G17KT 10SM CLR 22/08 A2992 810 39 1900 310/08G17 RMK AO2 T02220078
13873KAHN AHN20160514202511405/14/16 20:25:31  5-MIN KAHN 150125Z AUTO 31012G20KT 10SM CLR 22/08 A2992 810 39 1900 310/12G20 RMK AO2 T02220078
13873KAHN AHN20160514203011405/14/16 20:30:31  5-MIN KAHN 150130Z AUTO 30011G20KT 10SM CLR 22/07 A2992 810 36 1900 300/11G20 RMK AO2 T02220067
13873KAHN AHN20160514203513005/14/16 20:35:31  5-MIN KAHN 150135Z AUTO 31009G17KT 270V350 10SM CLR 22/07 A2992 810 37 1800 310/09G17 280V360 RMK AO2 T02170067
13873KAHN AHN20160514204010805/14/16 20:40:31  5-MIN KAHN 150140Z AUTO 30010KT 10SM CLR 22/07 A2992 810 37 1800 310/10 RMK AO2 T02170067
13873KAHN AHN20160515064512705/15/16 06:45:31  5-MIN KAHN 151145Z 31005KT 10SM CLR 11/03 A3010 640 58 400 320/05 RMK AO2 SLP190 T01110033 10139 20100 51008
13873KAHN AHN20160515065012705/15/16 06:50:31  5-MIN KAHN 151150Z 32006KT 10SM CLR 11/03 A3010 650 58 400 330/06 RMK AO2 SLP189 T01110033 10139 20100 51008
13873KAHN AHN20160515065510205/15/16 06:55:31  5-MIN KAHN 151155Z 33005KT 10SM CLR 11/03 A3010 640 58 400 330/05 RMK AO2 T01110033
13873KAHN AHN20160515070010205/15/16 07:00:31  5-MIN KAHN 151200Z 32006KT 10SM CLR 11/03 A3010 640 58 400 330/06 RMK AO2 T01110033
13873KAHN AHN20160515070510205/15/16 07:05:31  5-MIN KAHN 151205Z VRB04KT 10SM CLR 11/03 A3010 640 58 400 VRB/04 RMK AO2 T01110033
13873KAHN AHN20160515071010205/15/16 07:10:31  5-MIN KAHN 151210Z 33006KT 10SM CLR 11/03 A3011 640 58 400 330/06 RMK AO2 T01110033
13873KAHN AHN20160515071510205/15/16 07:15:31  5-MIN KAHN 151215Z VRB03KT 10SM CLR 11/03 A3010 640 58 400 VRB/03 RMK AO2 T01110033
13873KAHN AHN20160515072010205/15/16 07:20:31  5-MIN KAHN 151220Z 32004KT 10SM CLR 12/03 A3011 640 54 500 320/04 RMK AO2 T01220033
13873KAHN AHN20160515072510205/15/16 07:25:31  5-MIN KAHN 151225Z 31005KT 10SM CLR 12/03 A3011 640 54 500 320/05 RMK AO2 T01220033
13873KAHN AHN20160515073010205/15/16 07:30:31  5-MIN KAHN 151230Z 31003KT 10SM CLR 12/03 A3011 640 56 400 320/03 RMK AO2 T01170033
13873KAHN AHN20160515073510205/15/16 07:35:31  5-MIN KAHN 151235Z VRB04KT 10SM CLR 12/04 A3011 630 58 400 VRB/04 RMK AO2 T01170039
13873KAHN AHN20160515074010205/15/16 07:40:31  5-MIN KAHN 151240Z 32003KT 10SM CLR 12/04 A3011 630 56 500 320/03 RMK AO2 T01220039
13873KAHN AHN20160515074510905/15/16 07:45:31  5-MIN KAHN 151245Z 33006KT 10SM CLR 12/03 A3012 630 54 500 330/06 RMK AO2 SLP196 T01220033
13873KAHN AHN20160515075010905/15/16 07:50:31  5-MIN KAHN 151250Z 00000KT 10SM CLR 12/03 A3012 630 54 500 000/00 RMK AO2 SLP197 T01220033
13873KAHN AHN20160515075510205/15/16 07:55:31  5-MIN KAHN 151255Z 00000KT 10SM CLR 13/04 A3012 620 54 500 000/00 RMK AO2 T01280039
13873KAHN AHN20160515080010205/15/16 08:00:31  5-MIN KAHN 151300Z 00000KT 10SM CLR 12/04 A3012 620 56 500 000/00 RMK AO2 T01220039
13873KAHN AHN20160515080510205/15/16 08:05:31  5-MIN KAHN 151305Z 31003KT 10SM CLR 13/04 A3012 620 52 600 310/03 RMK AO2 T01330039
13873KAHN AHN20160515081010205/15/16 08:10:31  5-MIN KAHN 151310Z 31005KT 10SM CLR 13/04 A3013 620 54 500 310/05 RMK AO2 T01280039
13873KAHN AHN20160515081510205/15/16 08:15:31  5-MIN KAHN 151315Z 31006KT 10SM CLR 13/04 A3013 620 52 600 320/06 RMK AO2 T01330039
13873KAHN AHN20160515082010205/15/16 08:20:31  5-MIN KAHN 151320Z VRB03KT 10SM CLR 13/04 A3013 620 52 600 VRB/03 RMK AO2 T01330039
13873KAHN AHN20160515082510205/15/16 08:25:31  5-MIN KAHN 151325Z VRB03KT 10SM CLR 14/04 A3013 620 50 700 VRB/03 RMK AO2 T01390039
13873KAHN AHN20160515083010205/15/16 08:30:31  5-MIN KAHN 151330Z VRB03KT 10SM CLR 13/04 A3013 620 52 600 VRB/03 RMK AO2 T01330039
13873KAHN AHN20160515083510205/15/16 08:35:31  5-MIN KAHN 151335Z VRB03KT 10SM CLR 14/04 A3013 620 50 700 VRB/03 RMK AO2 T01390039
13873KAHN AHN20160515084009205/15/16 08:40:31  5-MIN KAHN 151340Z 10SM CLR 14/04 A3013 620 50 700 M /M RMK AO2 T01390039
13873KAHN AHN20160515084510905/15/16 08:45:31  5-MIN KAHN 151345Z VRB04KT 10SM CLR 14/04 A3013 620 49 700 VRB/04 RMK AO2 SLP199 T01440039
13873KAHN AHN20160515085010905/15/16 08:50:31  5-MIN KAHN 151350Z VRB04KT 10SM CLR 15/04 A3013 620 47 800 VRB/04 RMK AO2 SLP200 T01500039
13873KAHN AHN20160515085510205/15/16 08:55:31  5-MIN KAHN 151355Z VRB04KT 10SM CLR 14/04 A3013 620 49 700 VRB/04 RMK AO2 T01440039
13873KAHN AHN20160515090010205/15/16 09:00:31  5-MIN KAHN 151400Z 00000KT 10SM CLR 16/03 A3013 610 43 900 000/00 RMK AO2 T01560033
13873KAHN AHN20160515090510205/15/16 09:05:31  5-MIN KAHN 151405Z 32005KT 10SM CLR 16/03 A3013 610 43 900 330/05 RMK AO2 T01560033
13873KAHN AHN20160515091010205/15/16 09:10:31  5-MIN KAHN 151410Z VRB03KT 10SM CLR 16/03 A3013 610 43 900 VRB/03 RMK AO2 T01560033
13873KAHN AHN20160515091510205/15/16 09:15:31  5-MIN KAHN 151415Z VRB04KT 10SM CLR 15/03 A3013 610 45 800 VRB/04 RMK AO2 T01500033
13873KAHN AHN20160515092010205/15/16 09:20:31  5-MIN KAHN 151420Z 32005KT 10SM CLR 16/04 A3014 610 45 900 330/05 RMK AO2 T01560039
13873KAHN AHN20160515092510205/15/16 09:25:31  5-MIN KAHN 151425Z 32004KT 10SM CLR 16/03 A3014 610 42 900 320/04 RMK AO2 T01560028
13873KAHN AHN20160515093010205/15/16 09:30:31  5-MIN KAHN 151430Z VRB03KT 10SM CLR 16/03 A3014 610 42 900 VRB/03 RMK AO2 T01560028
13873KAHN AHN20160515093510205/15/16 09:35:31  5-MIN KAHN 151435Z 00000KT 10SM CLR 16/04 A3013 610 44 900 000/00 RMK AO2 T01610039
13873KAHN AHN20160515094010305/15/16 09:40:31  5-MIN KAHN 151440Z VRB03KT 10SM CLR 17/03 A3013 610 40 1000 VRB/03 RMK AO2 T01670033
13873KAHN AHN20160515094511605/15/16 09:45:31  5-MIN KAHN 151445Z VRB04KT 10SM CLR 17/03 A3013 610 40 1000 VRB/04 RMK AO2 SLP201 T01670033 53027
13873KAHN AHN20160515095011605/15/16 09:50:31  5-MIN KAHN 151450Z VRB03KT 10SM CLR 17/03 A3013 610 40 1000 VRB/03 RMK AO2 SLP201 T01670033 53027
13873KAHN AHN20160515095510305/15/16 09:55:31  5-MIN KAHN 151455Z VRB04KT 10SM CLR 17/03 A3014 610 39 1000 VRB/04 RMK AO2 T01670028
13873KAHN AHN20160515100010305/15/16 10:00:31  5-MIN KAHN 151500Z VRB04KT 10SM CLR 17/03 A3013 610 39 1000 VRB/04 RMK AO2 T01670028
13873KAHN AHN20160515100510305/15/16 10:05:31  5-MIN KAHN 151505Z VRB04KT 10SM CLR 17/03 A3014 610 39 1000 VRB/04 RMK AO2 T01670028
13873KAHN AHN20160515101010305/15/16 10:10:31  5-MIN KAHN 151510Z VRB03KT 10SM CLR 17/03 A3013 620 37 1100 VRB/03 RMK AO2 T01720028
13873KAHN AHN20160515101510305/15/16 10:15:31  5-MIN KAHN 151515Z 00000KT 10SM CLR 17/02 A3013 610 36 1100 000/00 RMK AO2 T01720022
13873KAHN AHN20160515102010305/15/16 10:20:31  5-MIN KAHN 151520Z VRB03KT 10SM CLR 18/02 A3014 610 33 1100 VRB/03 RMK AO2 T01780017
13873KAHN AHN20160515102510305/15/16 10:25:31  5-MIN KAHN 151525Z 33006KT 10SM CLR 18/02 A3013 620 32 1200 340/06 RMK AO2 T01830017
13873KAHN AHN20160515103010305/15/16 10:30:31  5-MIN KAHN 151530Z VRB03KT 10SM CLR 18/01 A3013 620 32 1100 VRB/03 RMK AO2 T01780011
13873KAHN AHN20160515103510305/15/16 10:35:31  5-MIN KAHN 151535Z 00000KT 10SM CLR 18/02 A3013 620 34 1200 000/00 RMK AO2 T01830022
13873KAHN AHN20160515104010305/15/16 10:40:31  5-MIN KAHN 151540Z VRB05KT 10SM CLR 18/03 A3013 620 35 1200 VRB/05 RMK AO2 T01830028
13873KAHN AHN20160515104511005/15/16 10:45:31  5-MIN KAHN 151545Z VRB04KT 10SM CLR 18/03 A3013 620 36 1200 VRB/04 RMK AO2 SLP200 T01830033
13873KAHN AHN20160515105011005/15/16 10:50:31  5-MIN KAHN 151550Z VRB04KT 10SM CLR 18/03 A3013 620 36 1200 VRB/04 RMK AO2 SLP199 T01830033
13873KAHN AHN20160515105510305/15/16 10:55:31  5-MIN KAHN 151555Z VRB04KT 10SM CLR 18/03 A3013 620 36 1200 VRB/04 RMK AO2 T01830033
13873KAHN AHN20160515110010305/15/16 11:00:31  5-MIN KAHN 151600Z VRB05KT 10SM CLR 19/04 A3012 620 36 1300 VRB/05 RMK AO2 T01890039
13873KAHN AHN20160515110510305/15/16 11:05:31  5-MIN KAHN 151605Z VRB03KT 10SM CLR 19/03 A3013 620 34 1300 VRB/03 RMK AO2 T01890028
13873KAHN AHN20160515111010305/15/16 11:10:31  5-MIN KAHN 151610Z 00000KT 10SM CLR 19/02 A3013 620 32 1300 000/00 RMK AO2 T01890022
13873KAHN AHN20160515111509305/15/16 11:15:31  5-MIN KAHN 151615Z 10SM CLR 20/03 A3012 620 31 1400 M /M RMK AO2 T02000028
13873KAHN AHN20160515112010305/15/16 11:20:31  5-MIN KAHN 151620Z VRB04KT 10SM CLR 19/02 A3012 620 31 1300 VRB/04 RMK AO2 T01940022
13873KAHN AHN20160515112510305/15/16 11:25:31  5-MIN KAHN 151625Z 31006KT 10SM CLR 19/02 A3012 630 30 1300 320/06 RMK AO2 T01940017
13873KAHN AHN20160515113010305/15/16 11:30:31  5-MIN KAHN 151630Z VRB04KT 10SM CLR 19/01 A3012 630 30 1300 VRB/04 RMK AO2 T01890011
13873KAHN AHN20160515113510305/15/16 11:35:31  5-MIN KAHN 151635Z VRB03KT 10SM CLR 19/02 A3012 630 30 1300 VRB/03 RMK AO2 T01940017
13873KAHN AHN20160515114010305/15/16 11:40:31  5-MIN KAHN 151640Z VRB04KT 10SM CLR 20/01 A3011 630 28 1400 VRB/04 RMK AO2 T02000011
13873KAHN AHN20160515114511005/15/16 11:45:31  5-MIN KAHN 151645Z VRB05KT 10SM CLR 21/02 A3011 640 28 1500 VRB/05 RMK AO2 SLP193 T02060017
13873KAHN AHN20160515115011005/15/16 11:50:31  5-MIN KAHN 151650Z 32006KT 10SM CLR 21/01 A3011 640 27 1500 320/06 RMK AO2 SLP192 T02060011
13873KAHN AHN20160515115510305/15/16 11:55:31  5-MIN KAHN 151655Z 33005KT 10SM CLR 20/01 A3011 640 27 1400 330/05 RMK AO2 T02000006
13873KAHN AHN20160515120010305/15/16 12:00:31  5-MIN KAHN 151700Z 33005KT 10SM CLR 21/01 A3011 640 26 1500 330/05 RMK AO2 T02060006
13873KAHN AHN20160515120510305/15/16 12:05:31  5-MIN KAHN 151705Z VRB05KT 10SM CLR 21/01 A3010 640 26 1500 VRB/05 RMK AO2 T02060006
13873KAHN AHN20160515121010305/15/16 12:10:31  5-MIN KAHN 151710Z VRB04KT 10SM CLR 21/01 A3010 640 25 1500 VRB/04 RMK AO2 T02110006
13873KAHN AHN20160515121510305/15/16 12:15:31  5-MIN KAHN 151715Z 28005KT 10SM CLR 21/01 A3010 640 27 1500 290/05 RMK AO2 T02060011
13873KAHN AHN20160515122010305/15/16 12:20:31  5-MIN KAHN 151720Z 32007KT 10SM CLR 21/01 A3010 650 25 1500 320/07 RMK AO2 T02110006
13873KAHN AHN20160515122510305/15/16 12:25:31  5-MIN KAHN 151725Z VRB06KT 10SM CLR 21/00 A3009 650 24 1600 VRB/06 RMK AO2 T02110000
13873KAHN AHN20160515123010305/15/16 12:30:31  5-MIN KAHN 151730Z 34006KT 10SM CLR 22/02 A3009 650 26 1600 340/06 RMK AO2 T02170017
13873KAHN AHN20160515123510305/15/16 12:35:31  5-MIN KAHN 151735Z VRB05KT 10SM CLR 22/02 A3009 650 26 1600 VRB/05 RMK AO2 T02170017
13873KAHN AHN20160515124010305/15/16 12:40:31  5-MIN KAHN 151740Z VRB04KT 10SM CLR 21/01 A3009 650 26 1600 VRB/04 RMK AO2 T02110011
13873KAHN AHN20160515124512805/15/16 12:45:31  5-MIN KAHN 151745Z VRB05KT 10SM CLR 22/01 A3009 660 25 1600 VRB/05 RMK AO2 SLP185 T02170011 10217 20111 51011
13873KAHN AHN20160515125012805/15/16 12:50:31  5-MIN KAHN 151750Z 32010KT 10SM CLR 22/01 A3009 660 25 1600 330/10 RMK AO2 SLP185 T02170011 10222 20111 51011
13873KAHN AHN20160515125510305/15/16 12:55:31  5-MIN KAHN 151755Z VRB03KT 10SM CLR 22/01 A3009 660 24 1600 VRB/03 RMK AO2 T02170006
13873KAHN AHN20160515130010305/15/16 13:00:31  5-MIN KAHN 151800Z VRB05KT 10SM CLR 22/00 A3008 660 22 1700 VRB/05 RMK AO2 T02220000
13873KAHN AHN20160515130510405/15/16 13:05:31  5-MIN KAHN 151805Z VRB06KT 10SM CLR 22/M01 A3008 660 21 1700 VRB/06 RMK AO2 T02221006
13873KAHN AHN20160515131010305/15/16 13:10:31  5-MIN KAHN 151810Z 28009KT 10SM CLR 23/01 A3008 660 22 1800 280/09 RMK AO2 T02280006
13873KAHN AHN20160515131510305/15/16 13:15:31  5-MIN KAHN 151815Z VRB05KT 10SM CLR 22/00 A3008 660 22 1700 VRB/05 RMK AO2 T02220000
13873KAHN AHN20160515132010305/15/16 13:20:31  5-MIN KAHN 151820Z 26007KT 10SM CLR 22/01 A3008 660 23 1700 270/07 RMK AO2 T02220006
13873KAHN AHN20160515132510305/15/16 13:25:31  5-MIN KAHN 151825Z 34005KT 10SM CLR 23/01 A3008 670 22 1800 340/05 RMK AO2 T02330006
13873KAHN AHN20160515133010305/15/16 13:30:31  5-MIN KAHN 151830Z VRB05KT 10SM CLR 23/01 A3007 670 22 1800 VRB/05 RMK AO2 T02280006
13873KAHN AHN20160515133511905/15/16 13:35:31  5-MIN KAHN 151835Z 25007KT 210V280 10SM CLR 23/01 A3007 670 23 1800 250/07 220V290 RMK AO2 T02280011
13873KAHN AHN20160515134010305/15/16 13:40:31  5-MIN KAHN 151840Z VRB04KT 10SM CLR 22/01 A3007 670 23 1700 VRB/04 RMK AO2 T02220006
13873KAHN AHN20160515134510005/15/16 13:45:31  5-MIN KAHN 151845Z 10SM CLR 23/01 A3007 670 23 1800 M /M RMK AO2 SLP180 T02280011
13873KAHN AHN20160515135011005/15/16 13:50:31  5-MIN KAHN 151850Z VRB03KT 10SM CLR 23/01 A3007 670 23 1800 VRB/03 RMK AO2 SLP180 T02280011
13873KAHN AHN20160515135510305/15/16 13:55:31  5-MIN KAHN 151855Z 30009KT 10SM CLR 23/01 A3007 670 22 1800 300/09 RMK AO2 T02280006
13873KAHN AHN20160515140011905/15/16 14:00:31  5-MIN KAHN 151900Z 30007KT 270V340 10SM CLR 23/00 A3007 670 21 1800 310/07 280V350 RMK AO2 T02330000
13873KAHN AHN20160515140510405/15/16 14:05:31  5-MIN KAHN 151905Z 33006KT 10SM CLR 23/M01 A3007 670 20 1800 340/06 RMK AO2 T02331006
13873KAHN AHN20160515141010305/15/16 14:10:31  5-MIN KAHN 151910Z VRB06KT 10SM CLR 23/00 A3007 680 21 1800 VRB/06 RMK AO2 T02330000
13873KAHN AHN20160515141510305/15/16 14:15:31  5-MIN KAHN 151915Z 32007KT 10SM CLR 23/00 A3006 680 21 1800 330/07 RMK AO2 T02330000
13873KAHN AHN20160515142010305/15/16 14:20:31  5-MIN KAHN 151920Z 31008KT 10SM CLR 23/00 A3006 680 21 1800 320/08 RMK AO2 T02330000
13873KAHN AHN20160515142510305/15/16 14:25:31  5-MIN KAHN 151925Z VRB03KT 10SM CLR 23/00 A3006 680 21 1800 VRB/03 RMK AO2 T02330000
13873KAHN AHN20160515143010305/15/16 14:30:31  5-MIN KAHN 151930Z VRB04KT 10SM CLR 23/00 A3006 680 21 1800 VRB/04 RMK AO2 T02330000
13873KAHN AHN20160515143512505/15/16 14:35:31  5-MIN KAHN 151935Z 26007G15KT 230V310 10SM CLR 24/01 A3006 680 21 1900 270/07G15 240V320 RMK AO2 T02390006
13873KAHN AHN20160515144010905/15/16 14:40:31  5-MIN KAHN 151940Z VRB04G15KT 10SM CLR 23/00 A3006 680 21 1800 VRB/04G15 RMK AO2 T02330000
13873KAHN AHN20160515144511005/15/16 14:45:31  5-MIN KAHN 151945Z 32007KT 10SM CLR 24/00 A3006 680 20 1900 330/07 RMK AO2 SLP176 T02390000
13873KAHN AHN20160515145011005/15/16 14:50:31  5-MIN KAHN 151950Z 34008KT 10SM CLR 23/00 A3006 680 21 1800 340/08 RMK AO2 SLP175 T02330000
13873KAHN AHN20160515145510305/15/16 14:55:31  5-MIN KAHN 151955Z 00000KT 10SM CLR 23/01 A3005 690 22 1900 000/00 RMK AO2 T02330006
13873KAHN AHN20160515150010905/15/16 15:00:31  5-MIN KAHN 152000Z VRB04G14KT 10SM CLR 23/00 A3006 690 21 1800 VRB/04G14 RMK AO2 T02330000
13873KAHN AHN20160515150510905/15/16 15:05:31  5-MIN KAHN 152005Z VRB04G14KT 10SM CLR 23/00 A3006 690 21 1800 VRB/04G14 RMK AO2 T02330000
13873KAHN AHN20160515151010305/15/16 15:10:31  5-MIN KAHN 152010Z VRB06KT 10SM CLR 23/01 A3005 690 22 1900 VRB/06 RMK AO2 T02330006
13873KAHN AHN20160515151510305/15/16 15:15:31  5-MIN KAHN 152015Z 32008KT 10SM CLR 24/01 A3005 690 22 1900 320/08 RMK AO2 T02390011
13873KAHN AHN20160515152010305/15/16 15:20:31  5-MIN KAHN 152020Z 28005KT 10SM CLR 23/00 A3005 690 21 1900 290/05 RMK AO2 T02330000
13873KAHN AHN20160515152510305/15/16 15:25:31  5-MIN KAHN 152025Z 30008KT 10SM CLR 24/00 A3005 690 20 1900 300/08 RMK AO2 T02390000
13873KAHN AHN20160515153010405/15/16 15:30:31  5-MIN KAHN 152030Z 30005KT 10SM CLR 24/M01 A3005 690 19 1900 300/05 RMK AO2 T02391006
13873KAHN AHN20160515153510305/15/16 15:35:31  5-MIN KAHN 152035Z VRB05KT 10SM CLR 24/00 A3005 690 20 1900 VRB/05 RMK AO2 T02390000
13873KAHN AHN20160515154010405/15/16 15:40:31  5-MIN KAHN 152040Z VRB04KT 10SM CLR 24/M01 A3005 690 19 1900 VRB/04 RMK AO2 T02391006
13873KAHN AHN20160515154511605/15/16 15:45:31  5-MIN KAHN 152045Z VRB05KT 10SM CLR 24/00 A3005 700 19 2000 VRB/05 RMK AO2 SLP171 T02440000 58016
13873KAHN AHN20160515155012205/15/16 15:50:31  5-MIN KAHN 152050Z 30009G14KT 10SM CLR 24/00 A3004 700 20 1900 310/09G14 RMK AO2 SLP171 T02390000 58016
13873KAHN AHN20160515155510905/15/16 15:55:31  5-MIN KAHN 152055Z VRB03G14KT 10SM CLR 23/01 A3005 700 22 1900 VRB/03G14 RMK AO2 T02330006
13873KAHN AHN20160515160010305/15/16 16:00:31  5-MIN KAHN 152100Z VRB05KT 10SM CLR 24/01 A3005 690 21 1900 VRB/05 RMK AO2 T02390006
13873KAHN AHN20160515160510305/15/16 16:05:31  5-MIN KAHN 152105Z VRB04KT 10SM CLR 24/01 A3004 700 20 2000 VRB/04 RMK AO2 T02440006
13873KAHN AHN20160515161010305/15/16 16:10:31  5-MIN KAHN 152110Z 32008KT 10SM CLR 24/01 A3004 700 20 2000 320/08 RMK AO2 T02440006
13873KAHN AHN20160515161510305/15/16 16:15:31  5-MIN KAHN 152115Z 29007KT 10SM CLR 24/00 A3004 700 20 1900 290/07 RMK AO2 T02390000
13873KAHN AHN20160515162010305/15/16 16:20:31  5-MIN KAHN 152120Z VRB06KT 10SM CLR 23/00 A3005 690 21 1900 VRB/06 RMK AO2 T02330000
13873KAHN AHN20160515162510305/15/16 16:25:31  5-MIN KAHN 152125Z VRB06KT 10SM CLR 23/00 A3005 690 21 1900 VRB/06 RMK AO2 T02330000
13873KAHN AHN20160515163010305/15/16 16:30:31  5-MIN KAHN 152130Z VRB06KT 10SM CLR 23/01 A3005 690 22 1900 VRB/06 RMK AO2 T02330006
13873KAHN AHN20160515163510305/15/16 16:35:31  5-MIN KAHN 152135Z VRB04KT 10SM CLR 23/01 A3005 690 22 1900 VRB/04 RMK AO2 T02330006
13873KAHN AHN20160515164010305/15/16 16:40:31  5-MIN KAHN 152140Z 26006KT 10SM CLR 23/01 A3005 690 22 1900 260/06 RMK AO2 T02330006
13873KAHN AHN20160515164511005/15/16 16:45:31  5-MIN KAHN 152145Z 28008KT 10SM CLR 24/01 A3005 690 21 1900 280/08 RMK AO2 SLP172 T02390006
13873KAHN AHN20160515165011005/15/16 16:50:31  5-MIN KAHN 152150Z 26006KT 10SM CLR 23/01 A3005 690 22 1900 270/06 RMK AO2 SLP172 T02330006
13873KAHN AHN20160515165510305/15/16 16:55:31  5-MIN KAHN 152155Z 26005KT 10SM CLR 24/01 A3005 690 22 1900 270/05 RMK AO2 T02390011
13873KAHN AHN20160515170010305/15/16 17:00:31  5-MIN KAHN 152200Z VRB05KT 10SM CLR 23/01 A3005 690 22 1900 VRB/05 RMK AO2 T02330006
13873KAHN AHN20160515170510305/15/16 17:05:31  5-MIN KAHN 152205Z VRB05KT 10SM CLR 23/01 A3005 690 23 1900 VRB/05 RMK AO2 T02330011
13873KAHN AHN20160515171010305/15/16 17:10:31  5-MIN KAHN 152210Z VRB06KT 10SM CLR 23/01 A3005 690 22 1800 VRB/06 RMK AO2 T02280006
13873KAHN AHN20160515171510305/15/16 17:15:31  5-MIN KAHN 152215Z VRB04KT 10SM CLR 23/01 A3005 690 22 1900 VRB/04 RMK AO2 T02330006
13873KAHN AHN20160515172010305/15/16 17:20:31  5-MIN KAHN 152220Z 27008KT 10SM CLR 23/00 A3005 690 21 1900 270/08 RMK AO2 T02330000
13873KAHN AHN20160515172510305/15/16 17:25:31  5-MIN KAHN 152225Z 29007KT 10SM CLR 23/00 A3005 690 22 1800 290/07 RMK AO2 T02280000
13873KAHN AHN20160515173010305/15/16 17:30:31  5-MIN KAHN 152230Z 30006KT 10SM CLR 23/00 A3005 690 22 1800 310/06 RMK AO2 T02280000
13873KAHN AHN20160515173510305/15/16 17:35:31  5-MIN KAHN 152235Z 27006KT 10SM CLR 23/00 A3005 690 22 1800 280/06 RMK AO2 T02280000
13873KAHN AHN20160515174011905/15/16 17:40:31  5-MIN KAHN 152240Z 27007KT 240V320 10SM CLR 23/00 A3005 690 22 1800 280/07 250V330 RMK AO2 T02280000
13873KAHN AHN20160515174511005/15/16 17:45:31  5-MIN KAHN 152245Z VRB06KT 10SM CLR 23/00 A3005 690 22 1800 VRB/06 RMK AO2 SLP174 T02280000
13873KAHN AHN20160515175011005/15/16 17:50:31  5-MIN KAHN 152250Z 30008KT 10SM CLR 23/00 A3005 690 22 1800 300/08 RMK AO2 SLP174 T02280000
13873KAHN AHN20160515175510305/15/16 17:55:31  5-MIN KAHN 152255Z 29009KT 10SM CLR 22/01 A3005 690 23 1700 300/09 RMK AO2 T02220006
13873KAHN AHN20160515180010305/15/16 18:00:31  5-MIN KAHN 152300Z 28008KT 10SM CLR 22/01 A3005 690 23 1700 280/08 RMK AO2 T02220006
13873KAHN AHN20160515180510305/15/16 18:05:31  5-MIN KAHN 152305Z 27006KT 10SM CLR 22/01 A3005 690 24 1700 270/06 RMK AO2 T02220011
13873KAHN AHN20160515181010305/15/16 18:10:31  5-MIN KAHN 152310Z 29004KT 10SM CLR 22/01 A3005 690 24 1700 290/04 RMK AO2 T02220011
13873KAHN AHN20160515181510305/15/16 18:15:31  5-MIN KAHN 152315Z 28006KT 10SM CLR 22/01 A3005 690 24 1700 280/06 RMK AO2 T02220011
13873KAHN AHN20160515182010305/15/16 18:20:31  5-MIN KAHN 152320Z 27006KT 10SM CLR 22/01 A3005 690 24 1700 270/06 RMK AO2 T02220011
13873KAHN AHN20160515182510305/15/16 18:25:31  5-MIN KAHN 152325Z 28006KT 10SM CLR 22/02 A3005 690 26 1700 290/06 RMK AO2 T02170017
13873KAHN AHN20160515183010305/15/16 18:30:31  5-MIN KAHN 152330Z 28006KT 10SM CLR 22/02 A3006 690 26 1700 280/06 RMK AO2 T02170017
13873KAHN AHN20160515183510305/15/16 18:35:31  5-MIN KAHN 152335Z 28006KT 10SM CLR 22/02 A3006 680 26 1700 280/06 RMK AO2 T02170017
13873KAHN AHN20160515184010305/15/16 18:40:31  5-MIN KAHN 152340Z 28005KT 10SM CLR 21/02 A3006 680 27 1600 290/05 RMK AO2 T02110017
13873KAHN AHN20160515184512805/15/16 18:45:31  5-MIN KAHN 152345Z 28005KT 10SM CLR 21/02 A3006 680 28 1600 290/05 RMK AO2 SLP178 T02110022 10250 20211 56014
13873KAHN AHN20160515185012805/15/16 18:50:31  5-MIN KAHN 152350Z 30007KT 10SM CLR 21/02 A3007 680 28 1600 300/07 RMK AO2 SLP179 T02110022 10250 20211 56014
13873KAHN AHN20160515185510305/15/16 18:55:31  5-MIN KAHN 152355Z 29006KT 10SM CLR 21/02 A3007 670 29 1500 300/06 RMK AO2 T02060022
13873KAHN AHN20160515190010305/15/16 19:00:31  5-MIN KAHN 160000Z 29007KT 10SM CLR 21/03 A3007 670 30 1500 300/07 RMK AO2 T02060028
13873KAHN AHN20160515190510805/15/16 19:05:31  5-MIN KAHN 160005Z AUTO 30005KT 10SM CLR 21/03 A3007 670 30 1500 310/05 RMK AO2 T02060028
13873KAHN AHN20160515191010805/15/16 19:10:31  5-MIN KAHN 160010Z AUTO VRB03KT 10SM CLR 20/03 A3007 670 33 1400 VRB/03 RMK AO2 T02000033
13873KAHN AHN20160515191510805/15/16 19:15:31  5-MIN KAHN 160015Z AUTO 30007KT 10SM CLR 20/03 A3007 670 33 1400 310/07 RMK AO2 T02000033
13873KAHN AHN20160515192010805/15/16 19:20:31  5-MIN KAHN 160020Z AUTO 30008KT 10SM CLR 20/03 A3008 670 33 1400 300/08 RMK AO2 T02000033
13873KAHN AHN20160515192510805/15/16 19:25:31  5-MIN KAHN 160025Z AUTO VRB06KT 10SM CLR 19/04 A3008 670 35 1400 VRB/06 RMK AO2 T01940039
13873KAHN AHN20160515193010805/15/16 19:30:31  5-MIN KAHN 160030Z AUTO 29006KT 10SM CLR 19/04 A3008 660 35 1400 290/06 RMK AO2 T01940039
13873KAHN AHN20160515193510805/15/16 19:35:31  5-MIN KAHN 160035Z AUTO 29006KT 10SM CLR 19/04 A3008 660 38 1300 300/06 RMK AO2 T01890044
13873KAHN AHN20160515194010805/15/16 19:40:31  5-MIN KAHN 160040Z AUTO 30007KT 10SM CLR 19/04 A3008 660 38 1300 310/07 RMK AO2 T01890044
13873KAHN AHN20160515194511505/15/16 19:45:31  5-MIN KAHN 160045Z AUTO 30007KT 10SM CLR 19/04 A3008 660 38 1300 310/07 RMK AO2 SLP184 T01890044
13873KAHN AHN20160515195011505/15/16 19:50:31  5-MIN KAHN 160050Z AUTO 29005KT 10SM CLR 19/04 A3008 660 38 1300 300/05 RMK AO2 SLP185 T01890044
13873KAHN AHN20160515195510805/15/16 19:55:31  5-MIN KAHN 160055Z AUTO VRB06KT 10SM CLR 18/04 A3009 660 39 1200 VRB/06 RMK AO2 T01830044
13873KAHN AHN20160515200010805/15/16 20:00:31  5-MIN KAHN 160100Z AUTO 29006KT 10SM CLR 18/04 A3009 660 39 1200 290/06 RMK AO2 T01830044
13873KAHN AHN20160515200510805/15/16 20:05:31  5-MIN KAHN 160105Z AUTO 29005KT 10SM CLR 18/04 A3009 650 39 1200 290/05 RMK AO2 T01830044
13873KAHN AHN20160515201010805/15/16 20:10:31  5-MIN KAHN 160110Z AUTO 29005KT 10SM CLR 18/04 A3009 650 41 1200 290/05 RMK AO2 T01780044
13873KAHN AHN20160515201510805/15/16 20:15:31  5-MIN KAHN 160115Z AUTO 29004KT 10SM CLR 18/04 A3010 650 41 1200 300/04 RMK AO2 T01780044
13873KAHN AHN20160515202010805/15/16 20:20:31  5-MIN KAHN 160120Z AUTO 28005KT 10SM CLR 17/04 A3010 640 42 1100 290/05 RMK AO2 T01720044
13873KAHN AHN20160515202510805/15/16 20:25:31  5-MIN KAHN 160125Z AUTO 27004KT 10SM CLR 17/04 A3010 640 42 1100 280/04 RMK AO2 T01720044
13873KAHN AHN20160515203010805/15/16 20:30:31  5-MIN KAHN 160130Z AUTO 29005KT 10SM CLR 17/04 A3010 640 42 1100 290/05 RMK AO2 T01720044
13873KAHN AHN20160515203510805/15/16 20:35:31  5-MIN KAHN 160135Z AUTO 29006KT 10SM CLR 17/04 A3010 640 42 1100 290/06 RMK AO2 T01720044
13873KAHN AHN20160515204010805/15/16 20:40:31  5-MIN KAHN 160140Z AUTO 29007KT 10SM CLR 17/04 A3010 640 42 1100 300/07 RMK AO2 T01720044
13873KAHN AHN20160515204511505/15/16 20:45:31  5-MIN KAHN 160145Z AUTO 29007KT 10SM CLR 17/04 A3010 640 42 1100 300/07 RMK AO2 SLP191 T01720044
13873KAHN AHN20160515205011505/15/16 20:50:31  5-MIN KAHN 160150Z AUTO 29006KT 10SM CLR 17/04 A3010 640 42 1100 300/06 RMK AO2 SLP192 T01720044
13873KAHN AHN20160515205510805/15/16 20:55:31  5-MIN KAHN 160155Z AUTO 29005KT 10SM CLR 17/04 A3011 640 44 1000 300/05 RMK AO2 T01670044
13873KAHN AHN20160515210010805/15/16 21:00:31  5-MIN KAHN 160200Z AUTO 29004KT 10SM CLR 17/04 A3011 630 44 1000 290/04 RMK AO2 T01670044
13873KAHN AHN20160515210510705/15/16 21:05:31  5-MIN KAHN 160205Z AUTO 29004KT 10SM CLR 16/04 A3011 630 45 900 290/04 RMK AO2 T01610044
13873KAHN AHN20160515211010705/15/16 21:10:31  5-MIN KAHN 160210Z AUTO 29004KT 10SM CLR 16/04 A3012 630 45 900 290/04 RMK AO2 T01610044
13873KAHN AHN20160515211510705/15/16 21:15:31  5-MIN KAHN 160215Z AUTO 29006KT 10SM CLR 16/04 A3012 620 45 900 300/06 RMK AO2 T01610044
13873KAHN AHN20160515212010705/15/16 21:20:31  5-MIN KAHN 160220Z AUTO 29006KT 10SM CLR 16/04 A3012 620 45 900 300/06 RMK AO2 T01610044
13873KAHN AHN20160515212510705/15/16 21:25:31  5-MIN KAHN 160225Z AUTO 29006KT 10SM CLR 16/04 A3013 620 45 900 300/06 RMK AO2 T01610044
13873KAHN AHN20160515213010705/15/16 21:30:31  5-MIN KAHN 160230Z AUTO 29005KT 10SM CLR 16/04 A3013 620 45 900 300/05 RMK AO2 T01610044
13873KAHN AHN20160515213510705/15/16 21:35:31  5-MIN KAHN 160235Z AUTO 30006KT 10SM CLR 16/04 A3013 620 47 900 300/06 RMK AO2 T01560044
13873KAHN AHN20160515214010705/15/16 21:40:31  5-MIN KAHN 160240Z AUTO 29006KT 10SM CLR 16/04 A3013 610 47 900 300/06 RMK AO2 T01560044
13873KAHN AHN20160515214512005/15/16 21:45:31  5-MIN KAHN 160245Z AUTO 29005KT 10SM CLR 16/04 A3014 610 47 900 290/05 RMK AO2 SLP203 T01560044 53007
13873KAHN AHN20160515215012005/15/16 21:50:31  5-MIN KAHN 160250Z AUTO 29005KT 10SM CLR 15/04 A3014 610 49 800 290/05 RMK AO2 SLP203 T01500044 53007
13873KAHN AHN20160515215510705/15/16 21:55:31  5-MIN KAHN 160255Z AUTO 29005KT 10SM CLR 15/04 A3014 610 49 800 300/05 RMK AO2 T01500044
13873KAHN AHN20160515220010705/15/16 22:00:31  5-MIN KAHN 160300Z AUTO 29005KT 10SM CLR 15/04 A3014 610 49 800 290/05 RMK AO2 T01500044
13873KAHN AHN20160515220510705/15/16 22:05:31  5-MIN KAHN 160305Z AUTO 29006KT 10SM CLR 15/04 A3014 610 49 800 300/06 RMK AO2 T01500044
13873KAHN AHN20160515221010705/15/16 22:10:31  5-MIN KAHN 160310Z AUTO 30006KT 10SM CLR 15/04 A3014 610 49 800 300/06 RMK AO2 T01500044
13873KAHN AHN20160515221510705/15/16 22:15:31  5-MIN KAHN 160315Z AUTO 30006KT 10SM CLR 15/04 A3014 610 49 800 300/06 RMK AO2 T01500044
13873KAHN AHN20160515222010705/15/16 22:20:31  5-MIN KAHN 160320Z AUTO 31006KT 10SM CLR 15/04 A3014 610 49 800 310/06 RMK AO2 T01500044
13873KAHN AHN20160515222510705/15/16 22:25:31  5-MIN KAHN 160325Z AUTO 30006KT 10SM CLR 15/04 A3014 610 49 800 310/06 RMK AO2 T01500044
13873KAHN AHN20160515223010705/15/16 22:30:31  5-MIN KAHN 160330Z AUTO 30005KT 10SM CLR 15/04 A3014 610 49 800 310/05 RMK AO2 T01500044
13873KAHN AHN20160515223510705/15/16 22:35:31  5-MIN KAHN 160335Z AUTO 31005KT 10SM CLR 15/04 A3014 600 49 800 310/05 RMK AO2 T01500044
13873KAHN AHN20160515224010705/15/16 22:40:31  5-MIN KAHN 160340Z AUTO 30004KT 10SM CLR 15/04 A3015 600 49 800 300/04 RMK AO2 T01500044
13873KAHN AHN20160515224511405/15/16 22:45:31  5-MIN KAHN 160345Z AUTO 28004KT 10SM CLR 14/04 A3015 600 51 700 290/04 RMK AO2 SLP207 T01440044
13873KAHN AHN20160515225011405/15/16 22:50:31  5-MIN KAHN 160350Z AUTO 29004KT 10SM CLR 14/04 A3015 600 51 700 300/04 RMK AO2 SLP206 T01440044
13873KAHN AHN20160515225510705/15/16 22:55:31  5-MIN KAHN 160355Z AUTO 30004KT 10SM CLR 14/04 A3015 600 52 700 310/04 RMK AO2 T01390044
13873KAHN AHN20160515230010705/15/16 23:00:31  5-MIN KAHN 160400Z AUTO 30005KT 10SM CLR 14/04 A3015 600 52 700 310/05 RMK AO2 T01390044
13873KAHN AHN20160515230510705/15/16 23:05:31  5-MIN KAHN 160405Z AUTO 30004KT 10SM CLR 14/04 A3015 600 52 600 300/04 RMK AO2 T01390044
13873KAHN AHN20160515231010705/15/16 23:10:31  5-MIN KAHN 160410Z AUTO 30004KT 10SM CLR 14/04 A3015 600 52 600 310/04 RMK AO2 T01390044
13873KAHN AHN20160515231510705/15/16 23:15:31  5-MIN KAHN 160415Z AUTO 32004KT 10SM CLR 14/04 A3015 600 52 600 320/04 RMK AO2 T01390044
13873KAHN AHN20160515232010705/15/16 23:20:31  5-MIN KAHN 160420Z AUTO 31004KT 10SM CLR 14/04 A3015 600 52 700 320/04 RMK AO2 T01390044
13873KAHN AHN20160515232510705/15/16 23:25:31  5-MIN KAHN 160425Z AUTO 32004KT 10SM CLR 14/04 A3015 600 52 700 320/04 RMK AO2 T01390044
13873KAHN AHN20160515233010705/15/16 23:30:31  5-MIN KAHN 160430Z AUTO 31004KT 10SM CLR 14/04 A3015 600 52 700 310/04 RMK AO2 T01390044
13873KAHN AHN20160515233510705/15/16 23:35:31  5-MIN KAHN 160435Z AUTO 31005KT 10SM CLR 14/04 A3015 600 52 700 320/05 RMK AO2 T01390044
13873KAHN AHN20160515234010705/15/16 23:40:31  5-MIN KAHN 160440Z AUTO 31004KT 10SM CLR 14/04 A3015 600 52 700 310/04 RMK AO2 T01390044
13873KAHN AHN20160515234512405/15/16 23:45:31  5-MIN KAHN 160445Z AUTO 31003KT 10SM CLR 13/04 A3015 600 54 600 320/03 RMK AO2 SLP205 T01330044 402500100
13873KAHN AHN20160515235012405/15/16 23:50:31  5-MIN KAHN 160450Z AUTO 31003KT 10SM CLR 13/04 A3015 600 54 600 310/03 RMK AO2 SLP206 T01330044 402500100
13873KAHN AHN20160515235510705/15/16 23:55:31  5-MIN KAHN 160455Z AUTO 32003KT 10SM CLR 13/04 A3015 600 56 500 320/03 RMK AO2 T01280044
13873KAHN AHN20160516000010705/16/16 00:00:31  5-MIN KAHN 160500Z AUTO 31004KT 10SM CLR 13/04 A3015 600 56 500 310/04 RMK AO2 T01280044
13873KAHN AHN20160516000510705/16/16 00:05:31  5-MIN KAHN 160505Z AUTO 32003KT 10SM CLR 13/04 A3015 600 56 500 330/03 RMK AO2 T01280044
13873KAHN AHN20160516001010705/16/16 00:10:31  5-MIN KAHN 160510Z AUTO 32003KT 10SM CLR 13/04 A3015 600 56 500 330/03 RMK AO2 T01280044
13873KAHN AHN20160516001510705/16/16 00:15:31  5-MIN KAHN 160515Z AUTO 31003KT 10SM CLR 13/04 A3015 600 56 500 320/03 RMK AO2 T01280044
13873KAHN AHN20160516002010705/16/16 00:20:31  5-MIN KAHN 160520Z AUTO 32003KT 10SM CLR 12/04 A3015 600 59 500 320/03 RMK AO2 T01220044
13873KAHN AHN20160516002510705/16/16 00:25:31  5-MIN KAHN 160525Z AUTO 32004KT 10SM CLR 13/04 A3014 610 56 500 320/04 RMK AO2 T01280044
13873KAHN AHN20160516003010705/16/16 00:30:31  5-MIN KAHN 160530Z AUTO 32005KT 10SM CLR 12/04 A3014 600 59 500 320/05 RMK AO2 T01220044
13873KAHN AHN20160516003510705/16/16 00:35:31  5-MIN KAHN 160535Z AUTO 32005KT 10SM CLR 13/04 A3014 600 56 500 330/05 RMK AO2 T01280044
13873KAHN AHN20160516004010705/16/16 00:40:31  5-MIN KAHN 160540Z AUTO 32004KT 10SM CLR 12/04 A3014 610 59 500 320/04 RMK AO2 T01220044
13873KAHN AHN20160516004513205/16/16 00:45:31  5-MIN KAHN 160545Z AUTO 33004KT 10SM CLR 12/04 A3014 600 59 500 330/04 RMK AO2 SLP204 T01220044 10211 20122 53024
13873KAHN AHN20160516005013205/16/16 00:50:31  5-MIN KAHN 160550Z AUTO 33004KT 10SM CLR 12/04 A3014 600 59 500 330/04 RMK AO2 SLP204 T01220044 10211 20122 53024
13873KAHN AHN20160516005510705/16/16 00:55:31  5-MIN KAHN 160555Z AUTO 32003KT 10SM CLR 13/04 A3014 600 56 500 330/03 RMK AO2 T01280044
13873KAHN AHN20160516010010705/16/16 01:00:31  5-MIN KAHN 160600Z AUTO 31003KT 10SM CLR 12/04 A3014 600 59 500 320/03 RMK AO2 T01220044
13873KAHN AHN20160516010510705/16/16 01:05:31  5-MIN KAHN 160605Z AUTO 32004KT 10SM CLR 12/04 A3014 600 59 500 320/04 RMK AO2 T01220044
13873KAHN AHN20160516011010705/16/16 01:10:31  5-MIN KAHN 160610Z AUTO 32003KT 10SM CLR 12/04 A3014 600 59 500 320/03 RMK AO2 T01220044
13873KAHN AHN20160516011510705/16/16 01:15:31  5-MIN KAHN 160615Z AUTO 32004KT 10SM CLR 12/04 A3014 600 59 500 330/04 RMK AO2 T01220044
13873KAHN AHN20160516012010705/16/16 01:20:31  5-MIN KAHN 160620Z AUTO 32004KT 10SM CLR 12/04 A3014 610 59 500 330/04 RMK AO2 T01220044
13873KAHN AHN20160516012510705/16/16 01:25:31  5-MIN KAHN 160625Z AUTO VRB03KT 10SM CLR 12/04 A3014 610 61 400 VRB/03 RMK AO2 T01170044
13873KAHN AHN20160516013010705/16/16 01:30:31  5-MIN KAHN 160630Z AUTO 33004KT 10SM CLR 12/04 A3014 610 61 400 330/04 RMK AO2 T01170044
13873KAHN AHN20160516013510705/16/16 01:35:31  5-MIN KAHN 160635Z AUTO 33005KT 10SM CLR 12/04 A3014 610 61 400 330/05 RMK AO2 T01170044
13873KAHN AHN20160516014010705/16/16 01:40:31  5-MIN KAHN 160640Z AUTO 33003KT 10SM CLR 12/04 A3014 610 56 500 340/03 RMK AO2 T01220039
13873KAHN AHN20160516014511405/16/16 01:45:31  5-MIN KAHN 160645Z AUTO 32004KT 10SM CLR 12/04 A3014 600 58 400 330/04 RMK AO2 SLP205 T01170039
13873KAHN AHN20160516015011405/16/16 01:50:31  5-MIN KAHN 160650Z AUTO 32004KT 10SM CLR 12/04 A3015 600 58 400 330/04 RMK AO2 SLP205 T01170039
13873KAHN AHN20160516015510705/16/16 01:55:31  5-MIN KAHN 160655Z AUTO 00000KT 10SM CLR 12/04 A3015 600 61 400 000/00 RMK AO2 T01170044
13873KAHN AHN20160516020010705/16/16 02:00:31  5-MIN KAHN 160700Z AUTO 00000KT 10SM CLR 11/04 A3015 600 63 300 000/00 RMK AO2 T01110044
13873KAHN AHN20160516020510705/16/16 02:05:31  5-MIN KAHN 160705Z AUTO 00000KT 10SM CLR 11/04 A3015 600 66 200 000/00 RMK AO2 T01060044
13873KAHN AHN20160516021010705/16/16 02:10:31  5-MIN KAHN 160710Z AUTO 00000KT 10SM CLR 11/04 A3015 600 66 200 000/00 RMK AO2 T01060044
13873KAHN AHN20160516021510705/16/16 02:15:31  5-MIN KAHN 160715Z AUTO 00000KT 10SM CLR 11/04 A3015 600 66 200 000/00 RMK AO2 T01060044
13873KAHN AHN20160516022010705/16/16 02:20:31  5-MIN KAHN 160720Z AUTO 00000KT 10SM CLR 11/04 A3015 600 66 200 000/00 RMK AO2 T01060044
13873KAHN AHN20160516022510705/16/16 02:25:31  5-MIN KAHN 160725Z AUTO 00000KT 10SM CLR 10/05 A3015 600 71 200 000/00 RMK AO2 T01000050
13873KAHN AHN20160516023010705/16/16 02:30:31  5-MIN KAHN 160730Z AUTO 00000KT 10SM CLR 11/05 A3015 600 68 200 000/00 RMK AO2 T01060050
13873KAHN AHN20160516023510705/16/16 02:35:31  5-MIN KAHN 160735Z AUTO 00000KT 10SM CLR 11/05 A3015 600 68 200 000/00 RMK AO2 T01060050
13873KAHN AHN20160516024010705/16/16 02:40:31  5-MIN KAHN 160740Z AUTO 00000KT 10SM CLR 10/05 A3015 600 71 200 000/00 RMK AO2 T01000050
13873KAHN AHN20160516024511405/16/16 02:45:31  5-MIN KAHN 160745Z AUTO 00000KT 10SM CLR 10/05 A3015 600 71 200 000/00 RMK AO2 SLP208 T01000050
13873KAHN AHN20160516025011405/16/16 02:50:31  5-MIN KAHN 160750Z AUTO 31003KT 10SM CLR 09/05 A3015 600 74 100 310/03 RMK AO2 SLP209 T00940050
13873KAHN AHN20160516025510705/16/16 02:55:31  5-MIN KAHN 160755Z AUTO 00000KT 10SM CLR 09/05 A3015 590 74 100 000/00 RMK AO2 T00940050
13873KAHN AHN20160516030010705/16/16 03:00:31  5-MIN KAHN 160800Z AUTO 00000KT 10SM CLR 09/06 A3015 600 76 100 000/00 RMK AO2 T00940056
13873KAHN AHN20160516030510705/16/16 03:05:31  5-MIN KAHN 160805Z AUTO 00000KT 10SM CLR 09/06 A3015 600 76 100 000/00 RMK AO2 T00940056
13873KAHN AHN20160516031010705/16/16 03:10:31  5-MIN KAHN 160810Z AUTO 00000KT 10SM CLR 09/06 A3015 600 76 100 000/00 RMK AO2 T00940056
13873KAHN AHN20160516031510705/16/16 03:15:31  5-MIN KAHN 160815Z AUTO 00000KT 10SM CLR 10/05 A3015 600 71 200 000/00 RMK AO2 T01000050
13873KAHN AHN20160516032010705/16/16 03:20:31  5-MIN KAHN 160820Z AUTO 09003KT 10SM CLR 09/05 A3015 590 74 100 100/03 RMK AO2 T00940050
13873KAHN AHN20160516032510705/16/16 03:25:31  5-MIN KAHN 160825Z AUTO 00000KT 10SM CLR 09/05 A3015 590 74 100 000/00 RMK AO2 T00940050
13873KAHN AHN20160516033010505/16/16 03:30:31  5-MIN KAHN 160830Z AUTO 00000KT 10SM CLR 09/06 A3015 590 79 0 000/00 RMK AO2 T00890056
13873KAHN AHN20160516033510505/16/16 03:35:31  5-MIN KAHN 160835Z AUTO 00000KT 10SM CLR 09/06 A3016 590 79 0 000/00 RMK AO2 T00890056
13873KAHN AHN20160516034010505/16/16 03:40:31  5-MIN KAHN 160840Z AUTO 00000KT 10SM CLR 09/06 A3016 590 79 0 000/00 RMK AO2 T00890056
13873KAHN AHN20160516034511805/16/16 03:45:31  5-MIN KAHN 160845Z AUTO 00000KT 10SM CLR 09/06 A3016 590 79 0 000/00 RMK AO2 SLP211 T00890056 50002
13873KAHN AHN20160516035011805/16/16 03:50:31  5-MIN KAHN 160850Z AUTO 00000KT 10SM CLR 09/06 A3016 590 79 0 000/00 RMK AO2 SLP212 T00890056 50002
13873KAHN AHN20160516035510505/16/16 03:55:31  5-MIN KAHN 160855Z AUTO 00000KT 10SM CLR 09/05 A3016 590 76 0 000/00 RMK AO2 T00890050
13873KAHN AHN20160516040010505/16/16 04:00:31  5-MIN KAHN 160900Z AUTO 00000KT 10SM CLR 08/05 A3017 580 79 0 000/00 RMK AO2 T00830050
13873KAHN AHN20160516040510505/16/16 04:05:31  5-MIN KAHN 160905Z AUTO 00000KT 10SM CLR 08/06 A3017 580 82 0 000/00 RMK AO2 T00830056
13873KAHN AHN20160516041010505/16/16 04:10:31  5-MIN KAHN 160910Z AUTO 00000KT 10SM CLR 09/06 A3017 580 79 0 000/00 RMK AO2 T00890056
13873KAHN AHN20160516041510505/16/16 04:15:31  5-MIN KAHN 160915Z AUTO 00000KT 10SM CLR 09/05 A3017 580 76 0 000/00 RMK AO2 T00890050
13873KAHN AHN20160516042010505/16/16 04:20:31  5-MIN KAHN 160920Z AUTO 00000KT 10SM CLR 09/05 A3017 580 76 0 000/00 RMK AO2 T00890050
13873KAHN AHN20160516042510505/16/16 04:25:31  5-MIN KAHN 160925Z AUTO 00000KT 10SM CLR 09/06 A3017 580 79 0 000/00 RMK AO2 T00890056
13873KAHN AHN20160516043010505/16/16 04:30:31  5-MIN KAHN 160930Z AUTO 00000KT 10SM CLR 09/06 A3017 580 79 0 000/00 RMK AO2 T00890056
13873KAHN AHN20160516043510705/16/16 04:35:31  5-MIN KAHN 160935Z AUTO 01003KT 10SM CLR 09/04 A3017 580 71 100 020/03 RMK AO2 T00940044
13873KAHN AHN20160516044010705/16/16 04:40:31  5-MIN KAHN 160940Z AUTO 00000KT 10SM CLR 09/04 A3018 580 71 100 000/00 RMK AO2 T00940044
13873KAHN AHN20160516044511405/16/16 04:45:31  5-MIN KAHN 160945Z AUTO 00000KT 10SM CLR 09/04 A3018 570 68 100 000/00 RMK AO2 SLP217 T00940039
13873KAHN AHN20160516045011405/16/16 04:50:31  5-MIN KAHN 160950Z AUTO 00000KT 10SM CLR 09/04 A3018 570 71 100 000/00 RMK AO2 SLP217 T00940044
13873KAHN AHN20160516045510705/16/16 04:55:31  5-MIN KAHN 160955Z AUTO 02003KT 10SM CLR 09/04 A3018 570 71 100 030/03 RMK AO2 T00940044
13873KAHN AHN20160516050010705/16/16 05:00:31  5-MIN KAHN 161000Z AUTO 03003KT 10SM CLR 09/04 A3018 570 71 100 030/03 RMK AO2 T00940044
13873KAHN AHN20160516050510705/16/16 05:05:31  5-MIN KAHN 161005Z AUTO 04003KT 10SM CLR 09/04 A3018 570 71 100 050/03 RMK AO2 T00940044
13873KAHN AHN20160516051010705/16/16 05:10:31  5-MIN KAHN 161010Z AUTO 04003KT 10SM CLR 09/04 A3018 570 71 100 050/03 RMK AO2 T00940044
13873KAHN AHN20160516051510705/16/16 05:15:31  5-MIN KAHN 161015Z AUTO 04003KT 10SM CLR 09/04 A3019 570 71 100 040/03 RMK AO2 T00940044
13873KAHN AHN20160516052010705/16/16 05:20:31  5-MIN KAHN 161020Z AUTO 00000KT 10SM CLR 09/04 A3019 560 71 100 000/00 RMK AO2 T00940044
13873KAHN AHN20160516052510705/16/16 05:25:31  5-MIN KAHN 161025Z AUTO 04003KT 10SM CLR 09/04 A3019 560 71 100 040/03 RMK AO2 T00940044
13873KAHN AHN20160516053010705/16/16 05:30:31  5-MIN KAHN 161030Z AUTO 04003KT 10SM CLR 09/04 A3019 560 71 100 050/03 RMK AO2 T00940044
13873KAHN AHN20160516053510705/16/16 05:35:31  5-MIN KAHN 161035Z AUTO 00000KT 10SM CLR 09/04 A3020 560 68 100 000/00 RMK AO2 T00940039
13873KAHN AHN20160516054010705/16/16 05:40:31  5-MIN KAHN 161040Z AUTO 06003KT 10SM CLR 09/04 A3020 550 71 100 070/03 RMK AO2 T00940044
13873KAHN AHN20160516054511405/16/16 05:45:31  5-MIN KAHN 161045Z AUTO 06003KT 10SM CLR 09/04 A3020 550 71 100 060/03 RMK AO2 SLP226 T00940044
13873KAHN AHN20160516055011405/16/16 05:50:31  5-MIN KAHN 161050Z AUTO 06003KT 10SM CLR 09/04 A3020 550 71 100 060/03 RMK AO2 SLP226 T00940044
13873KAHN AHN20160516055510705/16/16 05:55:31  5-MIN KAHN 161055Z AUTO 05003KT 10SM CLR 09/04 A3020 550 71 100 050/03 RMK AO2 T00940044
13873KAHN AHN20160516060010705/16/16 06:00:31  5-MIN KAHN 161100Z AUTO 05004KT 10SM CLR 10/04 A3021 550 68 100 060/04 RMK AO2 T01000044
13873KAHN AHN20160516060510705/16/16 06:05:31  5-MIN KAHN 161105Z AUTO 06004KT 10SM CLR 10/04 A3021 540 68 100 060/04 RMK AO2 T01000044
13873KAHN AHN20160516061010705/16/16 06:10:31  5-MIN KAHN 161110Z AUTO 06004KT 10SM CLR 10/04 A3021 540 68 100 060/04 RMK AO2 T01000044
13873KAHN AHN20160516061510705/16/16 06:15:31  5-MIN KAHN 161115Z AUTO 06004KT 10SM CLR 11/05 A3022 540 68 200 060/04 RMK AO2 T01060050
13873KAHN AHN20160516062010705/16/16 06:20:31  5-MIN KAHN 161120Z AUTO 06005KT 10SM CLR 11/05 A3021 540 68 200 060/05 RMK AO2 T01060050
13873KAHN AHN20160516062510705/16/16 06:25:31  5-MIN KAHN 161125Z AUTO 06005KT 10SM CLR 11/05 A3022 540 66 200 070/05 RMK AO2 T01110050
13873KAHN AHN20160516063010705/16/16 06:30:31  5-MIN KAHN 161130Z AUTO 07006KT 10SM CLR 11/05 A3022 540 66 200 070/06 RMK AO2 T01110050
13873KAHN AHN20160516063510705/16/16 06:35:31  5-MIN KAHN 161135Z AUTO 07006KT 10SM CLR 12/04 A3022 530 61 300 070/06 RMK AO2 T01170044
13873KAHN AHN20160516064011005/16/16 06:40:31  5-MIN KAHN 161140Z AUTO 07006KT 10SM FEW100 12/04 A3022 530 61 300 070/06 RMK AO2 T01170044
13873KAHN AHN20160516064513505/16/16 06:45:31  5-MIN KAHN 161145Z AUTO 06007KT 10SM FEW100 12/05 A3022 530 61 400 070/07 RMK AO2 SLP232 T01220050 10128 20083 53006
13873KAHN AHN20160516065013505/16/16 06:50:31  5-MIN KAHN 161150Z AUTO 06007KT 10SM FEW100 12/04 A3022 530 59 400 070/07 RMK AO2 SLP233 T01220044 10128 20083 53006
13873KAHN AHN20160516065511005/16/16 06:55:31  5-MIN KAHN 161155Z AUTO 07007KT 10SM FEW100 12/04 A3023 530 59 400 070/07 RMK AO2 T01220044
13873KAHN AHN20160516070011005/16/16 07:00:31  5-MIN KAHN 161200Z AUTO 07007KT 10SM FEW100 13/04 A3023 530 56 400 070/07 RMK AO2 T01280044
13873KAHN AHN20160516070511005/16/16 07:05:31  5-MIN KAHN 161205Z AUTO 06007KT 10SM FEW100 13/04 A3023 530 56 400 070/07 RMK AO2 T01280044
13873KAHN AHN20160516071011005/16/16 07:10:31  5-MIN KAHN 161210Z AUTO 07006KT 10SM FEW100 13/04 A3023 530 54 500 070/06 RMK AO2 T01330044
13873KAHN AHN20160516071511005/16/16 07:15:31  5-MIN KAHN 161215Z AUTO 07009KT 10SM FEW100 13/04 A3023 530 54 500 080/09 RMK AO2 T01330044
13873KAHN AHN20160516072011005/16/16 07:20:31  5-MIN KAHN 161220Z AUTO 08007KT 10SM FEW100 13/04 A3023 520 54 500 080/07 RMK AO2 T01330044
13873KAHN AHN20160516072511005/16/16 07:25:31  5-MIN KAHN 161225Z AUTO 08008KT 10SM FEW100 13/04 A3023 520 54 500 080/08 RMK AO2 T01330044
13873KAHN AHN20160516073010705/16/16 07:30:31  5-MIN KAHN 161230Z AUTO 08009KT 10SM CLR 13/04 A3023 530 54 500 080/09 RMK AO2 T01330044
13873KAHN AHN20160516073510705/16/16 07:35:31  5-MIN KAHN 161235Z AUTO 08009KT 10SM CLR 13/04 A3023 520 54 500 080/09 RMK AO2 T01330044
13873KAHN AHN20160516074010705/16/16 07:40:31  5-MIN KAHN 161240Z AUTO 08008KT 10SM CLR 14/05 A3023 520 55 600 080/08 RMK AO2 T01390050
13873KAHN AHN20160516074511405/16/16 07:45:31  5-MIN KAHN 161245Z AUTO 08009KT 10SM CLR 14/05 A3023 520 55 600 080/09 RMK AO2 SLP236 T01390050
13873KAHN AHN20160516075011405/16/16 07:50:31  5-MIN KAHN 161250Z AUTO 07009KT 10SM CLR 14/05 A3023 520 53 600 080/09 RMK AO2 SLP235 T01440050
13873KAHN AHN20160516075510705/16/16 07:55:31  5-MIN KAHN 161255Z AUTO 08008KT 10SM CLR 14/04 A3023 520 51 600 090/08 RMK AO2 T01440044
13873KAHN AHN20160516080010705/16/16 08:00:31  5-MIN KAHN 161300Z AUTO 08008KT 10SM CLR 15/05 A3023 520 51 700 090/08 RMK AO2 T01500050
13873KAHN AHN20160516080510705/16/16 08:05:31  5-MIN KAHN 161305Z AUTO 10009KT 10SM CLR 16/04 A3023 520 47 800 100/09 RMK AO2 T01560044
13873KAHN AHN20160516081010705/16/16 08:10:31  5-MIN KAHN 161310Z AUTO 08008KT 10SM CLR 16/05 A3023 520 47 800 090/08 RMK AO2 T01610050
13873KAHN AHN20160516081511305/16/16 08:15:31  5-MIN KAHN 161315Z AUTO 09007G16KT 10SM CLR 16/04 A3023 520 47 700 090/07G16 RMK AO2 T01560044
13873KAHN AHN20160516082011305/16/16 08:20:31  5-MIN KAHN 161320Z AUTO 08009G16KT 10SM CLR 16/04 A3024 520 45 800 090/09G16 RMK AO2 T01610044
13873KAHN AHN20160516082511005/16/16 08:25:31  5-MIN KAHN 161325Z AUTO 09007KT 10SM FEW110 16/04 A3024 520 45 700 100/07 RMK AO2 T01560039
13873KAHN AHN20160516083011005/16/16 08:30:31  5-MIN KAHN 161330Z AUTO 09009KT 10SM SCT110 16/04 A3024 520 47 700 090/09 RMK AO2 T01560044
13873KAHN AHN20160516083511005/16/16 08:35:31  5-MIN KAHN 161335Z AUTO 09010KT 10SM SCT110 16/04 A3024 520 47 700 090/10 RMK AO2 T01560044
13873KAHN AHN20160516084011605/16/16 08:40:31  5-MIN KAHN 161340Z AUTO 09009G15KT 10SM FEW110 16/04 A3024 520 45 800 090/09G15 RMK AO2 T01610044
13873KAHN AHN20160516084511705/16/16 08:45:31  5-MIN KAHN 161345Z AUTO 09007KT 10SM FEW110 17/04 A3024 520 44 900 100/07 RMK AO2 SLP237 T01670044
13873KAHN AHN20160516085011705/16/16 08:50:31  5-MIN KAHN 161350Z AUTO 09009KT 10SM SCT110 17/04 A3024 520 44 900 100/09 RMK AO2 SLP237 T01670044
13873KAHN AHN20160516085511605/16/16 08:55:31  5-MIN KAHN 161355Z AUTO 08009G16KT 10SM BKN110 17/05 A3024 520 44 900 080/09G16 RMK AO2 T01720050
13873KAHN AHN20160516090011605/16/16 09:00:31  5-MIN KAHN 161400Z AUTO 07013G17KT 10SM BKN110 17/04 A3024 520 42 900 080/13G17 RMK AO2 T01720044
13873KAHN AHN20160516090511605/16/16 09:05:31  5-MIN KAHN 161405Z AUTO 09011G19KT 10SM BKN110 17/04 A3024 520 41 900 090/11G19 RMK AO2 T01720039
13873KAHN AHN20160516091011605/16/16 09:10:31  5-MIN KAHN 161410Z AUTO 08010G19KT 10SM BKN110 17/04 A3024 520 42 900 080/10G19 RMK AO2 T01720044
13873KAHN AHN20160516091511605/16/16 09:15:31  5-MIN KAHN 161415Z AUTO 09010G17KT 10SM OVC110 17/04 A3023 520 42 900 090/10G17 RMK AO2 T01720044
13873KAHN AHN20160516092011605/16/16 09:20:31  5-MIN KAHN 161420Z AUTO 09009G17KT 10SM OVC110 17/04 A3024 520 42 900 090/09G17 RMK AO2 T01720044
13873KAHN AHN20160516092511705/16/16 09:25:31  5-MIN KAHN 161425Z AUTO 08007G16KT 10SM OVC110 18/04 A3024 520 41 1000 090/07G16 RMK AO2 T01780044
13873KAHN AHN20160516093011705/16/16 09:30:31  5-MIN KAHN 161430Z AUTO 08010G16KT 10SM OVC110 18/05 A3024 520 41 1100 080/10G16 RMK AO2 T01830050
13873KAHN AHN20160516093511705/16/16 09:35:31  5-MIN KAHN 161435Z AUTO 07007G16KT 10SM OVC110 18/04 A3024 520 39 1100 080/07G16 RMK AO2 T01830044
13873KAHN AHN20160516094011105/16/16 09:40:31  5-MIN KAHN 161440Z AUTO 08009KT 10SM OVC110 18/04 A3024 520 39 1100 080/09 RMK AO2 T01830044
13873KAHN AHN20160516094513005/16/16 09:45:31  5-MIN KAHN 161445Z AUTO 07010G16KT 10SM OVC110 18/04 A3024 510 39 1100 070/10G16 RMK AO2 SLP238 T01830044 53020
13873KAHN AHN20160516095013005/16/16 09:50:31  5-MIN KAHN 161450Z AUTO 07008G16KT 10SM OVC110 19/04 A3024 510 38 1100 080/08G16 RMK AO2 SLP238 T01890044 53020
13873KAHN AHN20160516095511105/16/16 09:55:31  5-MIN KAHN 161455Z AUTO 06007KT 10SM OVC110 19/05 A3024 510 38 1200 060/07 RMK AO2 T01940050
13873KAHN AHN20160516100011105/16/16 10:00:31  5-MIN KAHN 161500Z AUTO 07007KT 10SM OVC110 20/05 A3024 520 37 1300 070/07 RMK AO2 T02000050
13873KAHN AHN20160516100511105/16/16 10:05:31  5-MIN KAHN 161505Z AUTO 06009KT 10SM OVC110 19/04 A3024 520 37 1200 060/09 RMK AO2 T01940044
13873KAHN AHN20160516101011105/16/16 10:10:31  5-MIN KAHN 161510Z AUTO 06008KT 10SM OVC110 19/04 A3024 520 37 1200 060/08 RMK AO2 T01940044
13873KAHN AHN20160516101511705/16/16 10:15:31  5-MIN KAHN 161515Z AUTO 04006G14KT 10SM OVC110 19/04 A3024 520 38 1100 050/06G14 RMK AO2 T01890044
13873KAHN AHN20160516102011705/16/16 10:20:31  5-MIN KAHN 161520Z AUTO 05009G15KT 10SM OVC110 19/04 A3024 520 37 1200 060/09G15 RMK AO2 T01940044
13873KAHN AHN20160516102511705/16/16 10:25:31  5-MIN KAHN 161525Z AUTO 07011G15KT 10SM BKN120 19/04 A3023 520 37 1200 070/11G15 RMK AO2 T01940044
13873KAHN AHN20160516103011105/16/16 10:30:31  5-MIN KAHN 161530Z AUTO 04007KT 10SM BKN120 19/04 A3023 520 35 1200 050/07 RMK AO2 T01940039
13873KAHN AHN20160516103511705/16/16 10:35:31  5-MIN KAHN 161535Z AUTO 06009G17KT 10SM BKN120 20/04 A3023 520 35 1300 060/09G17 RMK AO2 T02000044
13873KAHN AHN20160516104011705/16/16 10:40:31  5-MIN KAHN 161540Z AUTO 06007G17KT 10SM SCT120 20/04 A3023 530 35 1300 060/07G17 RMK AO2 T02000044
13873KAHN AHN20160516104511805/16/16 10:45:31  5-MIN KAHN 161545Z AUTO 06007KT 10SM FEW120 20/04 A3023 530 35 1300 070/07 RMK AO2 SLP233 T02000044
13873KAHN AHN20160516105011805/16/16 10:50:31  5-MIN KAHN 161550Z AUTO 09008KT 10SM FEW120 21/04 A3023 530 34 1300 090/08 RMK AO2 SLP233 T02060044
13873KAHN AHN20160516105511405/16/16 10:55:31  5-MIN KAHN 161555Z AUTO 09010G14KT 10SM CLR 20/04 A3023 530 34 1300 090/10G14 RMK AO2 T02000039
13873KAHN AHN20160516110011405/16/16 11:00:31  5-MIN KAHN 161600Z AUTO 05006G14KT 10SM CLR 20/04 A3023 530 34 1300 060/06G14 RMK AO2 T02000039
13873KAHN AHN20160516110510805/16/16 11:05:31  5-MIN KAHN 161605Z AUTO VRB05KT 10SM CLR 21/04 A3023 530 34 1300 VRB/05 RMK AO2 T02060044
13873KAHN AHN20160516111010805/16/16 11:10:31  5-MIN KAHN 161610Z AUTO VRB06KT 10SM CLR 21/04 A3022 530 33 1400 VRB/06 RMK AO2 T02110044
13873KAHN AHN20160516111510805/16/16 11:15:31  5-MIN KAHN 161615Z AUTO VRB06KT 10SM CLR 21/05 A3022 530 34 1400 VRB/06 RMK AO2 T02110050
13873KAHN AHN20160516112010805/16/16 11:20:31  5-MIN KAHN 161620Z AUTO 08007KT 10SM CLR 21/05 A3022 530 34 1400 090/07 RMK AO2 T02110050
13873KAHN AHN20160516112510805/16/16 11:25:31  5-MIN KAHN 161625Z AUTO VRB06KT 10SM CLR 21/05 A3022 540 34 1400 VRB/06 RMK AO2 T02110050
13873KAHN AHN20160516113010805/16/16 11:30:31  5-MIN KAHN 161630Z AUTO 06007KT 10SM CLR 21/05 A3022 540 34 1400 070/07 RMK AO2 T02110050
13873KAHN AHN20160516113510805/16/16 11:35:31  5-MIN KAHN 161635Z AUTO 05007KT 10SM CLR 22/05 A3022 540 33 1500 060/07 RMK AO2 T02170050
13873KAHN AHN20160516114010805/16/16 11:40:31  5-MIN KAHN 161640Z AUTO VRB04KT 10SM CLR 21/05 A3022 540 34 1400 VRB/04 RMK AO2 T02110050
13873KAHN AHN20160516114511505/16/16 11:45:31  5-MIN KAHN 161645Z AUTO 06007KT 10SM CLR 22/05 A3022 540 33 1500 060/07 RMK AO2 SLP229 T02170050
13873KAHN AHN20160516115011505/16/16 11:50:31  5-MIN KAHN 161650Z AUTO VRB06KT 10SM CLR 22/06 A3021 540 33 1500 VRB/06 RMK AO2 SLP229 T02220056
13873KAHN AHN20160516115510805/16/16 11:55:31  5-MIN KAHN 161655Z AUTO 06007KT 10SM CLR 22/05 A3021 540 32 1500 060/07 RMK AO2 T02220050
13873KAHN AHN20160516120010805/16/16 12:00:31  5-MIN KAHN 161700Z AUTO 05007KT 10SM CLR 22/06 A3021 540 33 1500 060/07 RMK AO2 T02220056
13873KAHN AHN20160516120510805/16/16 12:05:31  5-MIN KAHN 161705Z AUTO 07007KT 10SM CLR 22/06 A3021 540 33 1500 080/07 RMK AO2 T02220056
13873KAHN AHN20160516121010805/16/16 12:10:31  5-MIN KAHN 161710Z AUTO 11007KT 10SM CLR 22/05 A3021 540 33 1500 120/07 RMK AO2 T02170050
13873KAHN AHN20160516121510805/16/16 12:15:31  5-MIN KAHN 161715Z AUTO VRB04KT 10SM CLR 22/06 A3021 540 33 1500 VRB/04 RMK AO2 T02220056
13873KAHN AHN20160516122010805/16/16 12:20:31  5-MIN KAHN 161720Z AUTO VRB03KT 10SM CLR 22/06 A3021 540 33 1500 VRB/03 RMK AO2 T02220056
13873KAHN AHN20160516122512405/16/16 12:25:31  5-MIN KAHN 161725Z AUTO 09008KT 040V120 10SM CLR 23/06 A3021 540 32 1600 100/08 050V130 RMK AO2 T02280056
13873KAHN AHN20160516123010805/16/16 12:30:31  5-MIN KAHN 161730Z AUTO VRB06KT 10SM CLR 22/06 A3021 540 33 1500 VRB/06 RMK AO2 T02220056
13873KAHN AHN20160516123510805/16/16 12:35:31  5-MIN KAHN 161735Z AUTO VRB04KT 10SM CLR 22/06 A3021 540 33 1600 VRB/04 RMK AO2 T02220056
13873KAHN AHN20160516124009805/16/16 12:40:31  5-MIN KAHN 161740Z AUTO 10SM CLR 23/06 A3021 550 32 1600 M /M RMK AO2 T02280056
13873KAHN AHN20160516124513305/16/16 12:45:31  5-MIN KAHN 161745Z AUTO 00000KT 10SM CLR 22/06 A3020 550 33 1600 000/00 RMK AO2 SLP225 T02220056 10228 20122 51005
13873KAHN AHN20160516125013305/16/16 12:50:31  5-MIN KAHN 161750Z AUTO VRB05KT 10SM CLR 23/06 A3020 550 32 1600 VRB/05 RMK AO2 SLP224 T02280056 10228 20122 51005
13873KAHN AHN20160516125512405/16/16 12:55:31  5-MIN KAHN 161755Z AUTO 12007KT 090V190 10SM CLR 23/06 A3020 550 32 1700 130/07 100V200 RMK AO2 T02330061
13873KAHN AHN20160516130010805/16/16 13:00:31  5-MIN KAHN 161800Z AUTO 00000KT 10SM CLR 23/06 A3020 560 32 1600 000/00 RMK AO2 T02280056
13873KAHN AHN20160516130510805/16/16 13:05:31  5-MIN KAHN 161805Z AUTO 06007KT 10SM CLR 23/06 A3019 560 32 1600 070/07 RMK AO2 T02280056
13873KAHN AHN20160516131009805/16/16 13:10:31  5-MIN KAHN 161810Z AUTO 10SM CLR 23/06 A3019 560 32 1600 M /M RMK AO2 T02280056
13873KAHN AHN20160516131512405/16/16 13:15:31  5-MIN KAHN 161815Z AUTO 05008KT 020V090 10SM CLR 24/06 A3019 560 31 1800 060/08 030V100 RMK AO2 T02390061
13873KAHN AHN20160516132010805/16/16 13:20:31  5-MIN KAHN 161820Z AUTO 10006KT 10SM CLR 23/06 A3019 560 32 1700 100/06 RMK AO2 T02330061
13873KAHN AHN20160516132509805/16/16 13:25:31  5-MIN KAHN 161825Z AUTO 10SM CLR 23/06 A3019 560 32 1700 M /M RMK AO2 T02330061
13873KAHN AHN20160516133010805/16/16 13:30:31  5-MIN KAHN 161830Z AUTO VRB05KT 10SM CLR 23/06 A3019 560 32 1700 VRB/05 RMK AO2 T02330061
13873KAHN AHN20160516133510805/16/16 13:35:31  5-MIN KAHN 161835Z AUTO VRB03KT 10SM CLR 23/06 A3019 560 33 1600 VRB/03 RMK AO2 T02280061
13873KAHN AHN20160516134011105/16/16 13:40:31  5-MIN KAHN 161840Z AUTO VRB03KT 10SM FEW120 23/06 A3019 570 32 1700 VRB/03 RMK AO2 T02330061
13873KAHN AHN20160516134511805/16/16 13:45:31  5-MIN KAHN 161845Z AUTO VRB03KT 10SM FEW120 24/06 A3018 570 31 1800 VRB/03 RMK AO2 SLP218 T02390061
13873KAHN AHN20160516135011805/16/16 13:50:31  5-MIN KAHN 161850Z AUTO VRB03KT 10SM FEW120 24/06 A3018 570 30 1800 VRB/03 RMK AO2 SLP218 T02440061
13873KAHN AHN20160516135511105/16/16 13:55:31  5-MIN KAHN 161855Z AUTO 00000KT 10SM FEW120 24/06 A3018 570 31 1800 000/00 RMK AO2 T02390061
13873KAHN AHN20160516140011105/16/16 14:00:31  5-MIN KAHN 161900Z AUTO VRB05KT 10SM FEW120 24/07 A3018 570 31 1800 VRB/05 RMK AO2 T02440067
13873KAHN AHN20160516140511105/16/16 14:05:31  5-MIN KAHN 161905Z AUTO 10006KT 10SM FEW120 24/06 A3018 570 30 1800 110/06 RMK AO2 T02440061
13873KAHN AHN20160516141011105/16/16 14:10:31  5-MIN KAHN 161910Z AUTO VRB04KT 10SM FEW120 24/06 A3018 580 30 1800 VRB/04 RMK AO2 T02440061
13873KAHN AHN20160516141511105/16/16 14:15:31  5-MIN KAHN 161915Z AUTO VRB04KT 10SM FEW120 24/06 A3017 580 31 1800 VRB/04 RMK AO2 T02390061
13873KAHN AHN20160516142011105/16/16 14:20:31  5-MIN KAHN 161920Z AUTO 07007KT 10SM FEW120 25/07 A3017 580 30 1900 080/07 RMK AO2 T02500067
13873KAHN AHN20160516142511105/16/16 14:25:31  5-MIN KAHN 161925Z AUTO 09007KT 10SM FEW120 25/07 A3017 580 30 1900 100/07 RMK AO2 T02500067
13873KAHN AHN20160516143011105/16/16 14:30:31  5-MIN KAHN 161930Z AUTO 00000KT 10SM FEW120 24/06 A3017 580 30 1800 000/00 RMK AO2 T02440061
13873KAHN AHN20160516143511105/16/16 14:35:31  5-MIN KAHN 161935Z AUTO 00000KT 10SM FEW120 25/07 A3017 580 30 1900 000/00 RMK AO2 T02500067
13873KAHN AHN20160516144010805/16/16 14:40:31  5-MIN KAHN 161940Z AUTO VRB04KT 10SM CLR 25/07 A3017 580 30 1900 VRB/04 RMK AO2 T02500067
13873KAHN AHN20160516144511505/16/16 14:45:31  5-MIN KAHN 161945Z AUTO VRB04KT 10SM CLR 25/07 A3016 590 30 1900 VRB/04 RMK AO2 SLP211 T02500067
13873KAHN AHN20160516145011505/16/16 14:50:31  5-MIN KAHN 161950Z AUTO VRB04KT 10SM CLR 25/07 A3016 590 30 1900 VRB/04 RMK AO2 SLP209 T02500067
13873KAHN AHN20160516145510805/16/16 14:55:31  5-MIN KAHN 161955Z AUTO 00000KT 10SM CLR 24/07 A3016 590 31 1900 000/00 RMK AO2 T02440067
13873KAHN AHN20160516150010805/16/16 15:00:31  5-MIN KAHN 162000Z AUTO VRB04KT 10SM CLR 25/07 A3015 600 30 1900 VRB/04 RMK AO2 T02500067
13873KAHN AHN20160516150510805/16/16 15:05:31  5-MIN KAHN 162005Z AUTO 00000KT 10SM CLR 24/07 A3015 600 31 1900 000/00 RMK AO2 T02440067
13873KAHN AHN20160516151009805/16/16 15:10:31  5-MIN KAHN 162010Z AUTO 10SM CLR 26/07 A3015 600 30 2000 M /M RMK AO2 T02560072
13873KAHN AHN20160516151510805/16/16 15:15:31  5-MIN KAHN 162015Z AUTO VRB04KT 10SM CLR 25/07 A3014 610 30 1900 VRB/04 RMK AO2 T02500067
13873KAHN AHN20160516152010805/16/16 15:20:31  5-MIN KAHN 162020Z AUTO 11008KT 10SM CLR 25/07 A3014 610 31 1900 110/08 RMK AO2 T02500072
13873KAHN AHN20160516152510805/16/16 15:25:31  5-MIN KAHN 162025Z AUTO VRB04KT 10SM CLR 24/07 A3014 610 31 1900 VRB/04 RMK AO2 T02440067
13873KAHN AHN20160516153010805/16/16 15:30:31  5-MIN KAHN 162030Z AUTO VRB03KT 10SM CLR 25/07 A3014 610 30 1900 VRB/03 RMK AO2 T02500067
13873KAHN AHN20160516153510805/16/16 15:35:31  5-MIN KAHN 162035Z AUTO 07004KT 10SM CLR 24/07 A3014 610 31 1900 080/04 RMK AO2 T02440067
13873KAHN AHN20160516154010805/16/16 15:40:31  5-MIN KAHN 162040Z AUTO VRB04KT 10SM CLR 26/07 A3014 610 30 2000 VRB/04 RMK AO2 T02560072
13873KAHN AHN20160516154512105/16/16 15:45:31  5-MIN KAHN 162045Z AUTO 06007KT 10SM CLR 26/07 A3014 610 30 2000 070/07 RMK AO2 SLP203 T02560072 58013
13873KAHN AHN20160516155012105/16/16 15:50:31  5-MIN KAHN 162050Z AUTO 08006KT 10SM CLR 25/07 A3014 610 31 1900 080/06 RMK AO2 SLP204 T02500072 58013
13873KAHN AHN20160516155510805/16/16 15:55:31  5-MIN KAHN 162055Z AUTO 13003KT 10SM CLR 25/07 A3014 600 31 1900 130/03 RMK AO2 T02500072
13873KAHN AHN20160516160010805/16/16 16:00:31  5-MIN KAHN 162100Z AUTO VRB03KT 10SM CLR 24/07 A3014 610 33 1900 VRB/03 RMK AO2 T02440072
13873KAHN AHN20160516160510805/16/16 16:05:31  5-MIN KAHN 162105Z AUTO VRB04KT 10SM CLR 26/07 A3014 610 30 2000 VRB/04 RMK AO2 T02560072
13873KAHN AHN20160516161010805/16/16 16:10:31  5-MIN KAHN 162110Z AUTO 05007KT 10SM CLR 25/07 A3014 610 31 1900 060/07 RMK AO2 T02500072
13873KAHN AHN20160516161510805/16/16 16:15:31  5-MIN KAHN 162115Z AUTO 00000KT 10SM CLR 24/07 A3014 610 31 1900 000/00 RMK AO2 T02440067
13873KAHN AHN20160516162010805/16/16 16:20:31  5-MIN KAHN 162120Z AUTO 09005KT 10SM CLR 26/08 A3014 610 32 2000 090/05 RMK AO2 T02560078
13873KAHN AHN20160516162510805/16/16 16:25:31  5-MIN KAHN 162125Z AUTO 10004KT 10SM CLR 25/08 A3014 610 33 1900 100/04 RMK AO2 T02500078
13873KAHN AHN20160516163010805/16/16 16:30:31  5-MIN KAHN 162130Z AUTO 05003KT 10SM CLR 24/08 A3014 610 34 1900 060/03 RMK AO2 T02440078
13873KAHN AHN20160516163510805/16/16 16:35:31  5-MIN KAHN 162135Z AUTO VRB05KT 10SM CLR 24/08 A3014 610 34 1900 VRB/05 RMK AO2 T02440078
13873KAHN AHN20160516164010805/16/16 16:40:31  5-MIN KAHN 162140Z AUTO VRB05KT 10SM CLR 25/08 A3014 610 34 1900 VRB/05 RMK AO2 T02500083
13873KAHN AHN20160516164511505/16/16 16:45:31  5-MIN KAHN 162145Z AUTO 07007KT 10SM CLR 26/08 A3014 610 33 2000 080/07 RMK AO2 SLP203 T02560083
13873KAHN AHN20160516165011505/16/16 16:50:31  5-MIN KAHN 162150Z AUTO 05007KT 10SM CLR 25/08 A3014 610 34 1900 050/07 RMK AO2 SLP203 T02500083
13873KAHN AHN20160516165510805/16/16 16:55:31  5-MIN KAHN 162155Z AUTO 04006KT 10SM CLR 25/08 A3014 610 33 1900 050/06 RMK AO2 T02500078
13873KAHN AHN20160516170010805/16/16 17:00:31  5-MIN KAHN 162200Z AUTO VRB06KT 10SM CLR 25/08 A3014 610 34 1900 VRB/06 RMK AO2 T02500083
13873KAHN AHN20160516170510805/16/16 17:05:31  5-MIN KAHN 162205Z AUTO 08005KT 10SM CLR 24/08 A3014 610 35 1900 090/05 RMK AO2 T02440083
13873KAHN AHN20160516171010805/16/16 17:10:31  5-MIN KAHN 162210Z AUTO 09007KT 10SM CLR 24/09 A3013 610 36 1900 090/07 RMK AO2 T02440089
13873KAHN AHN20160516171510805/16/16 17:15:31  5-MIN KAHN 162215Z AUTO 06006KT 10SM CLR 24/08 A3013 610 35 1900 060/06 RMK AO2 T02440083
13873KAHN AHN20160516172010805/16/16 17:20:31  5-MIN KAHN 162220Z AUTO 06006KT 10SM CLR 24/08 A3013 610 36 1800 070/06 RMK AO2 T02390083
13873KAHN AHN20160516172510805/16/16 17:25:31  5-MIN KAHN 162225Z AUTO 05006KT 10SM CLR 24/08 A3013 610 36 1800 060/06 RMK AO2 T02390083
13873KAHN AHN20160516173011105/16/16 17:30:31  5-MIN KAHN 162230Z AUTO 05005KT 10SM FEW090 24/08 A3014 610 36 1800 060/05 RMK AO2 T02390083
13873KAHN AHN20160516173511105/16/16 17:35:31  5-MIN KAHN 162235Z AUTO 07005KT 10SM FEW090 24/08 A3014 610 36 1800 080/05 RMK AO2 T02390083
13873KAHN AHN20160516174011105/16/16 17:40:31  5-MIN KAHN 162240Z AUTO 05005KT 10SM FEW090 24/09 A3013 610 38 1800 050/05 RMK AO2 T02390089
13873KAHN AHN20160516174511805/16/16 17:45:31  5-MIN KAHN 162245Z AUTO VRB04KT 10SM FEW090 24/09 A3013 620 36 1900 VRB/04 RMK AO2 SLP200 T02440089
13873KAHN AHN20160516175011805/16/16 17:50:31  5-MIN KAHN 162250Z AUTO 06007KT 10SM FEW090 24/09 A3013 620 36 1900 070/07 RMK AO2 SLP200 T02440089
13873KAHN AHN20160516175511105/16/16 17:55:31  5-MIN KAHN 162255Z AUTO 05007KT 10SM FEW090 24/09 A3013 620 38 1800 060/07 RMK AO2 T02390089
13873KAHN AHN20160516180011105/16/16 18:00:31  5-MIN KAHN 162300Z AUTO 04006KT 10SM FEW095 23/09 A3013 620 39 1800 050/06 RMK AO2 T02330089
13873KAHN AHN20160516180511105/16/16 18:05:31  5-MIN KAHN 162305Z AUTO 05006KT 10SM FEW095 23/09 A3013 620 39 1800 050/06 RMK AO2 T02330089
13873KAHN AHN20160516181011105/16/16 18:10:31  5-MIN KAHN 162310Z AUTO 04005KT 10SM FEW095 23/09 A3013 620 39 1800 050/05 RMK AO2 T02330089
13873KAHN AHN20160516181511105/16/16 18:15:31  5-MIN KAHN 162315Z AUTO 05005KT 10SM FEW095 23/09 A3013 620 40 1700 060/05 RMK AO2 T02280089
13873KAHN AHN20160516182011105/16/16 18:20:31  5-MIN KAHN 162320Z AUTO 04005KT 10SM SCT095 23/09 A3013 620 42 1700 050/05 RMK AO2 T02280094
13873KAHN AHN20160516182511105/16/16 18:25:31  5-MIN KAHN 162325Z AUTO 04005KT 10SM BKN095 23/09 A3013 620 42 1700 050/05 RMK AO2 T02280094
13873KAHN AHN20160516183011105/16/16 18:30:31  5-MIN KAHN 162330Z AUTO VRB04KT 10SM BKN095 23/09 A3013 620 42 1700 VRB/04 RMK AO2 T02280094
13873KAHN AHN20160516183511105/16/16 18:35:31  5-MIN KAHN 162335Z AUTO 05005KT 10SM SCT095 22/09 A3013 620 43 1600 060/05 RMK AO2 T02220094
13873KAHN AHN20160516184011105/16/16 18:40:31  5-MIN KAHN 162340Z AUTO 04004KT 10SM BKN095 22/09 A3013 620 43 1600 050/04 RMK AO2 T02220094
13873KAHN AHN20160516184513605/16/16 18:45:31  5-MIN KAHN 162345Z AUTO 05003KT 10SM BKN095 22/09 A3013 610 43 1600 050/03 RMK AO2 SLP201 T02220094 10256 20222 56020
13873KAHN AHN20160516185013605/16/16 18:50:31  5-MIN KAHN 162350Z AUTO 06004KT 10SM BKN095 22/09 A3013 610 43 1600 060/04 RMK AO2 SLP201 T02220094 10256 20222 56020
13873KAHN AHN20160516185511805/16/16 18:55:31  5-MIN KAHN 162355Z AUTO 06004KT 10SM BKN095 BKN110 22/09 A3014 610 43 1600 070/04 RMK AO2 T02220094
13873KAHN AHN20160516190011805/16/16 19:00:31  5-MIN KAHN 170000Z AUTO 06004KT 10SM BKN095 OVC110 22/09 A3014 610 45 1600 070/04 RMK AO2 T02170094
13873KAHN AHN20160516190511805/16/16 19:05:31  5-MIN KAHN 170005Z AUTO 06004KT 10SM BKN095 OVC110 22/09 A3014 610 45 1600 070/04 RMK AO2 T02170094
13873KAHN AHN20160516191011805/16/16 19:10:31  5-MIN KAHN 170010Z AUTO 06004KT 10SM BKN100 OVC110 22/09 A3014 610 45 1600 070/04 RMK AO2 T02170094
13873KAHN AHN20160516191511105/16/16 19:15:31  5-MIN KAHN 170015Z AUTO 06004KT 10SM OVC100 22/09 A3014 610 45 1600 070/04 RMK AO2 T02170094
13873KAHN AHN20160516192011105/16/16 19:20:31  5-MIN KAHN 170020Z AUTO 06004KT 10SM OVC100 21/10 A3014 610 48 1500 060/04 RMK AO2 T02110100
13873KAHN AHN20160516192511105/16/16 19:25:31  5-MIN KAHN 170025Z AUTO 06004KT 10SM OVC110 21/10 A3014 610 48 1500 060/04 RMK AO2 T02110100
13873KAHN AHN20160516193011105/16/16 19:30:31  5-MIN KAHN 170030Z AUTO 06004KT 10SM OVC100 21/10 A3014 610 48 1500 060/04 RMK AO2 T02110100
13873KAHN AHN20160516193511105/16/16 19:35:31  5-MIN KAHN 170035Z AUTO 05003KT 10SM OVC110 21/10 A3014 610 50 1400 050/03 RMK AO2 T02060100
13873KAHN AHN20160516194011105/16/16 19:40:31  5-MIN KAHN 170040Z AUTO 05003KT 10SM OVC110 21/10 A3014 610 50 1400 060/03 RMK AO2 T02060100
13873KAHN AHN20160516194511805/16/16 19:45:31  5-MIN KAHN 170045Z AUTO 00000KT 10SM BKN110 21/10 A3014 610 50 1400 000/00 RMK AO2 SLP202 T02060100
13873KAHN AHN20160516195011805/16/16 19:50:31  5-MIN KAHN 170050Z AUTO 05003KT 10SM BKN110 20/10 A3014 610 52 1400 060/03 RMK AO2 SLP202 T02000100
13873KAHN AHN20160516195511105/16/16 19:55:31  5-MIN KAHN 170055Z AUTO 06003KT 10SM BKN110 20/10 A3014 610 52 1400 060/03 RMK AO2 T02000100
13873KAHN AHN20160516200011105/16/16 20:00:31  5-MIN KAHN 170100Z AUTO 06003KT 10SM BKN100 20/10 A3014 610 52 1400 060/03 RMK AO2 T02000100
13873KAHN AHN20160516200511105/16/16 20:05:31  5-MIN KAHN 170105Z AUTO 05003KT 10SM BKN100 20/10 A3014 610 52 1400 060/03 RMK AO2 T02000100
13873KAHN AHN20160516201011105/16/16 20:10:31  5-MIN KAHN 170110Z AUTO 04003KT 10SM BKN100 20/10 A3014 610 52 1400 050/03 RMK AO2 T02000100
13873KAHN AHN20160516201511105/16/16 20:15:31  5-MIN KAHN 170115Z AUTO 05003KT 10SM BKN100 21/10 A3014 600 50 1400 050/03 RMK AO2 T02060100
13873KAHN AHN20160516202011105/16/16 20:20:31  5-MIN KAHN 170120Z AUTO 05003KT 10SM OVC100 20/10 A3014 600 52 1400 060/03 RMK AO2 T02000100
13873KAHN AHN20160516202511105/16/16 20:25:31  5-MIN KAHN 170125Z AUTO 06003KT 10SM OVC100 20/10 A3014 600 52 1400 060/03 RMK AO2 T02000100
13873KAHN AHN20160516203011105/16/16 20:30:31  5-MIN KAHN 170130Z AUTO 05003KT 10SM OVC110 20/10 A3014 600 52 1400 060/03 RMK AO2 T02000100
13873KAHN AHN20160516203511805/16/16 20:35:31  5-MIN KAHN 170135Z AUTO 05003KT 10SM SCT070 OVC110 20/10 A3015 600 52 1400 050/03 RMK AO2 T02000100
13873KAHN AHN20160516204011805/16/16 20:40:31  5-MIN KAHN 170140Z AUTO 04003KT 10SM BKN070 OVC110 21/10 A3015 600 50 1400 050/03 RMK AO2 T02060100
13873KAHN AHN20160516204512505/16/16 20:45:31  5-MIN KAHN 170145Z AUTO 04003KT 10SM SCT070 OVC110 21/10 A3015 600 50 1400 050/03 RMK AO2 SLP205 T02060100
13873KAHN AHN20160516205012505/16/16 20:50:31  5-MIN KAHN 170150Z AUTO 05004KT 10SM SCT075 OVC110 21/10 A3015 600 50 1400 060/04 RMK AO2 SLP205 T02060100
13873KAHN AHN20160516205511805/16/16 20:55:31  5-MIN KAHN 170155Z AUTO 05003KT 10SM BKN075 OVC110 21/10 A3015 600 50 1400 060/03 RMK AO2 T02060100
13873KAHN AHN20160516210012505/16/16 21:00:31  5-MIN KAHN 170200Z AUTO 05003KT 10SM BKN075 BKN095 OVC120 20/10 A3015 600 52 1400 060/03 RMK AO2 T02000100
13873KAHN AHN20160516210512505/16/16 21:05:31  5-MIN KAHN 170205Z AUTO 05004KT 10SM BKN075 BKN090 OVC120 20/10 A3015 600 52 1400 060/04 RMK AO2 T02000100
13873KAHN AHN20160516211012505/16/16 21:10:31  5-MIN KAHN 170210Z AUTO 06005KT 10SM SCT080 BKN090 OVC120 20/10 A3015 600 52 1400 060/05 RMK AO2 T02000100
13873KAHN AHN20160516211512505/16/16 21:15:31  5-MIN KAHN 170215Z AUTO 06004KT 10SM SCT080 BKN090 OVC120 20/10 A3015 600 52 1400 060/04 RMK AO2 T02000100
13873KAHN AHN20160516212012505/16/16 21:20:31  5-MIN KAHN 170220Z AUTO 06004KT 10SM FEW080 SCT090 OVC120 19/10 A3015 600 54 1300 060/04 RMK AO2 T01940100
13873KAHN AHN20160516212512505/16/16 21:25:31  5-MIN KAHN 170225Z AUTO 06004KT 10SM FEW075 SCT095 OVC120 19/10 A3015 600 54 1300 060/04 RMK AO2 T01940100
13873KAHN AHN20160516213011805/16/16 21:30:31  5-MIN KAHN 170230Z AUTO 06005KT 10SM FEW095 OVC120 19/10 A3015 590 54 1300 060/05 RMK AO2 T01940100
13873KAHN AHN20160516213511805/16/16 21:35:31  5-MIN KAHN 170235Z AUTO 06005KT 10SM FEW095 OVC120 19/10 A3016 590 54 1300 070/05 RMK AO2 T01940100
13873KAHN AHN20160516214011805/16/16 21:40:31  5-MIN KAHN 170240Z AUTO 07005KT 10SM FEW100 OVC120 19/10 A3015 590 54 1300 070/05 RMK AO2 T01940100
13873KAHN AHN20160516214512405/16/16 21:45:31  5-MIN KAHN 170245Z AUTO 06005KT 10SM OVC120 19/10 A3015 590 54 1300 060/05 RMK AO2 SLP207 T01940100 55003
13873KAHN AHN20160516215012405/16/16 21:50:31  5-MIN KAHN 170250Z AUTO 05004KT 10SM OVC120 19/10 A3015 590 54 1300 060/04 RMK AO2 SLP207 T01940100 55003
13873KAHN AHN20160516215511105/16/16 21:55:31  5-MIN KAHN 170255Z AUTO 06005KT 10SM OVC120 19/10 A3015 590 54 1300 060/05 RMK AO2 T01940100
13873KAHN AHN20160516220011105/16/16 22:00:31  5-MIN KAHN 170300Z AUTO 06005KT 10SM OVC120 19/10 A3015 590 54 1300 060/05 RMK AO2 T01940100
13873KAHN AHN20160516220511805/16/16 22:05:31  5-MIN KAHN 170305Z AUTO 06006KT 10SM FEW070 OVC120 19/10 A3016 590 54 1300 070/06 RMK AO2 T01940100
13873KAHN AHN20160516221011805/16/16 22:10:31  5-MIN KAHN 170310Z AUTO 06005KT 10SM SCT070 OVC120 19/10 A3016 590 54 1300 070/05 RMK AO2 T01940100
13873KAHN AHN20160516221511805/16/16 22:15:31  5-MIN KAHN 170315Z AUTO 07007KT 10SM FEW070 OVC120 19/10 A3016 590 54 1300 070/07 RMK AO2 T01940100
13873KAHN AHN20160516222011805/16/16 22:20:31  5-MIN KAHN 170320Z AUTO 06006KT 10SM FEW070 BKN120 19/10 A3016 590 54 1300 070/06 RMK AO2 T01940100
13873KAHN AHN20160516222511805/16/16 22:25:31  5-MIN KAHN 170325Z AUTO 06006KT 10SM SCT070 BKN120 19/10 A3016 590 56 1200 070/06 RMK AO2 T01890100
13873KAHN AHN20160516223011805/16/16 22:30:31  5-MIN KAHN 170330Z AUTO 07006KT 10SM SCT070 BKN120 19/10 A3016 590 54 1300 070/06 RMK AO2 T01940100
13873KAHN AHN20160516223511805/16/16 22:35:31  5-MIN KAHN 170335Z AUTO 06006KT 10SM FEW070 SCT120 19/10 A3016 590 56 1200 070/06 RMK AO2 T01890100
13873KAHN AHN20160516224011805/16/16 22:40:31  5-MIN KAHN 170340Z AUTO 06005KT 10SM FEW070 SCT120 19/10 A3015 600 56 1200 060/05 RMK AO2 T01890100
13873KAHN AHN20160516224511805/16/16 22:45:31  5-MIN KAHN 170345Z AUTO 06006KT 10SM FEW070 19/10 A3015 600 56 1200 060/06 RMK AO2 SLP207 T01890100
13873KAHN AHN20160516225011805/16/16 22:50:31  5-MIN KAHN 170350Z AUTO 06006KT 10SM FEW070 19/10 A3015 600 56 1200 070/06 RMK AO2 SLP206 T01890100
13873KAHN AHN20160516225510805/16/16 22:55:31  5-MIN KAHN 170355Z AUTO 07005KT 10SM CLR 19/10 A3015 600 56 1200 070/05 RMK AO2 T01890100
13873KAHN AHN20160516230010805/16/16 23:00:31  5-MIN KAHN 170400Z AUTO 06005KT 10SM CLR 18/10 A3015 600 58 1200 070/05 RMK AO2 T01830100
13873KAHN AHN20160516230510805/16/16 23:05:31  5-MIN KAHN 170405Z AUTO 07006KT 10SM CLR 18/10 A3015 590 58 1200 070/06 RMK AO2 T01830100
13873KAHN AHN20160516231010805/16/16 23:10:31  5-MIN KAHN 170410Z AUTO 06005KT 10SM CLR 18/10 A3016 590 58 1200 070/05 RMK AO2 T01830100
13873KAHN AHN20160516231510805/16/16 23:15:31  5-MIN KAHN 170415Z AUTO 07005KT 10SM CLR 18/10 A3016 590 58 1200 070/05 RMK AO2 T01830100
13873KAHN AHN20160516232010805/16/16 23:20:31  5-MIN KAHN 170420Z AUTO 07005KT 10SM CLR 18/10 A3016 590 58 1200 070/05 RMK AO2 T01830100
13873KAHN AHN20160516232510805/16/16 23:25:31  5-MIN KAHN 170425Z AUTO 07006KT 10SM CLR 18/10 A3016 590 58 1200 070/06 RMK AO2 T01830100
13873KAHN AHN20160516233010805/16/16 23:30:31  5-MIN KAHN 170430Z AUTO 06005KT 10SM CLR 18/10 A3015 600 58 1200 070/05 RMK AO2 T01830100
13873KAHN AHN20160516233510805/16/16 23:35:31  5-MIN KAHN 170435Z AUTO 07006KT 10SM CLR 18/10 A3015 600 58 1200 070/06 RMK AO2 T01830100
13873KAHN AHN20160516234010805/16/16 23:40:31  5-MIN KAHN 170440Z AUTO 07005KT 10SM CLR 18/10 A3015 600 58 1200 070/05 RMK AO2 T01830100
13873KAHN AHN20160516234512805/16/16 23:45:31  5-MIN KAHN 170445Z AUTO 06006KT 10SM FEW035 18/10 A3015 600 58 1200 070/06 RMK AO2 SLP207 T01830100 402560083
13873KAHN AHN20160516235012805/16/16 23:50:31  5-MIN KAHN 170450Z AUTO 07006KT 10SM SCT035 18/10 A3015 600 58 1200 070/06 RMK AO2 SLP205 T01830100 402560083
13873KAHN AHN20160516235511105/16/16 23:55:31  5-MIN KAHN 170455Z AUTO 07006KT 10SM SCT035 18/11 A3015 600 60 1200 080/06 RMK AO2 T01830106
13873KAHN AHN20160517000011105/17/16 00:00:31  5-MIN KAHN 170500Z AUTO 07005KT 10SM SCT034 18/10 A3015 600 58 1200 070/05 RMK AO2 T01830100
13873KAHN AHN20160517000511105/17/16 00:05:31  5-MIN KAHN 170505Z AUTO 07006KT 10SM FEW034 18/10 A3015 600 58 1200 070/06 RMK AO2 T01830100
13873KAHN AHN20160517001011105/17/16 00:10:31  5-MIN KAHN 170510Z AUTO 08006KT 10SM SCT034 18/10 A3015 600 58 1200 080/06 RMK AO2 T01830100
13873KAHN AHN20160517001511105/17/16 00:15:31  5-MIN KAHN 170515Z AUTO 07006KT 10SM SCT036 18/10 A3015 600 58 1200 080/06 RMK AO2 T01830100
13873KAHN AHN20160517002011105/17/16 00:20:31  5-MIN KAHN 170520Z AUTO 07007KT 10SM FEW038 18/10 A3015 600 58 1200 080/07 RMK AO2 T01830100
13873KAHN AHN20160517002511105/17/16 00:25:31  5-MIN KAHN 170525Z AUTO 08006KT 10SM FEW038 18/11 A3015 600 60 1200 090/06 RMK AO2 T01830106
13873KAHN AHN20160517003011105/17/16 00:30:31  5-MIN KAHN 170530Z AUTO 08006KT 10SM FEW038 18/11 A3015 600 60 1200 090/06 RMK AO2 T01830106
13873KAHN AHN20160517003511105/17/16 00:35:31  5-MIN KAHN 170535Z AUTO 08006KT 10SM FEW039 18/11 A3015 600 60 1200 080/06 RMK AO2 T01830106
13873KAHN AHN20160517004010805/17/16 00:40:31  5-MIN KAHN 170540Z AUTO 08006KT 10SM CLR 18/11 A3015 600 60 1200 080/06 RMK AO2 T01830106
13873KAHN AHN20160517004513305/17/16 00:45:31  5-MIN KAHN 170545Z AUTO 08006KT 10SM CLR 18/11 A3015 600 60 1200 090/06 RMK AO2 SLP203 T01830106 10222 20183 53007
13873KAHN AHN20160517005013305/17/16 00:50:31  5-MIN KAHN 170550Z AUTO 09005KT 10SM CLR 18/11 A3015 600 60 1200 090/05 RMK AO2 SLP204 T01830106 10222 20183 53007
13873KAHN AHN20160517005510805/17/16 00:55:31  5-MIN KAHN 170555Z AUTO 09005KT 10SM CLR 18/11 A3015 600 60 1200 090/05 RMK AO2 T01830106
13873KAHN AHN20160517010010805/17/16 01:00:31  5-MIN KAHN 170600Z AUTO 08006KT 10SM CLR 18/11 A3015 600 60 1200 090/06 RMK AO2 T01830106
13873KAHN AHN20160517010511105/17/16 01:05:31  5-MIN KAHN 170605Z AUTO 09005KT 10SM FEW026 18/11 A3015 600 60 1200 090/05 RMK AO2 T01830106
13873KAHN AHN20160517011011105/17/16 01:10:31  5-MIN KAHN 170610Z AUTO 08005KT 10SM SCT026 18/11 A3015 600 62 1200 090/05 RMK AO2 T01830111
13873KAHN AHN20160517011511105/17/16 01:15:31  5-MIN KAHN 170615Z AUTO 09004KT 10SM BKN026 18/11 A3014 600 64 1100 100/04 RMK AO2 T01780111
13873KAHN AHN20160517012011105/17/16 01:20:31  5-MIN KAHN 170620Z AUTO 09005KT 10SM BKN024 18/11 A3014 600 62 1200 090/05 RMK AO2 T01830111
13873KAHN AHN20160517012511805/17/16 01:25:31  5-MIN KAHN 170625Z AUTO 10003KT 10SM BKN021 BKN026 18/11 A3014 600 64 1100 110/03 RMK AO2 T01780111
13873KAHN AHN20160517013011805/17/16 01:30:31  5-MIN KAHN 170630Z AUTO 09004KT 10SM BKN021 OVC026 18/11 A3014 600 62 1200 100/04 RMK AO2 T01830111
13873KAHN AHN20160517013511105/17/16 01:35:31  5-MIN KAHN 170635Z AUTO 09004KT 10SM OVC021 18/11 A3014 600 62 1200 100/04 RMK AO2 T01830111
13873KAHN AHN20160517014011105/17/16 01:40:31  5-MIN KAHN 170640Z AUTO 09004KT 10SM OVC021 18/11 A3015 600 62 1200 100/04 RMK AO2 T01830111
13873KAHN AHN20160517014511805/17/16 01:45:31  5-MIN KAHN 170645Z AUTO 09004KT 10SM OVC021 18/12 A3014 600 65 1200 100/04 RMK AO2 SLP202 T01830117
13873KAHN AHN20160517015011805/17/16 01:50:31  5-MIN KAHN 170650Z AUTO 09003KT 10SM OVC019 18/12 A3014 610 65 1200 100/03 RMK AO2 SLP202 T01830117
13873KAHN AHN20160517015511105/17/16 01:55:31  5-MIN KAHN 170655Z AUTO 09003KT 10SM OVC019 18/12 A3014 610 67 1100 100/03 RMK AO2 T01780117
13873KAHN AHN20160517020011105/17/16 02:00:31  5-MIN KAHN 170700Z AUTO 10003KT 10SM OVC019 18/12 A3014 610 65 1200 100/03 RMK AO2 T01830117
13873KAHN AHN20160517020511105/17/16 02:05:31  5-MIN KAHN 170705Z AUTO 10003KT 10SM OVC019 18/12 A3014 610 67 1100 100/03 RMK AO2 T01780117
13873KAHN AHN20160517021011105/17/16 02:10:31  5-MIN KAHN 170710Z AUTO 00000KT 10SM OVC017 18/12 A3014 610 69 1100 000/00 RMK AO2 T01780122
13873KAHN AHN20160517021511105/17/16 02:15:31  5-MIN KAHN 170715Z AUTO 10003KT 10SM OVC017 18/12 A3014 610 69 1100 110/03 RMK AO2 T01780122
13873KAHN AHN20160517022011105/17/16 02:20:31  5-MIN KAHN 170720Z AUTO 00000KT 10SM OVC017 18/12 A3014 610 69 1100 000/00 RMK AO2 T01780122
13873KAHN AHN20160517022512705/17/16 02:25:31  5-MIN KAHN 170725Z AUTO 00000KT 10SM -RA OVC016 18/12 A3014 610 69 1100 000/00 RMK AO2 RAB25 P0000 T01780122
13873KAHN AHN20160517023012705/17/16 02:30:31  5-MIN KAHN 170730Z AUTO 00000KT 10SM -RA OVC016 18/13 A3014 610 72 1100 000/00 RMK AO2 RAB25 P0000 T01780128
13873KAHN AHN20160517023513405/17/16 02:35:31  5-MIN KAHN 170735Z AUTO 10003KT 10SM -RA BKN015 OVC095 18/13 A3014 610 72 1100 110/03 RMK AO2 RAB25 P0000 T01780128
13873KAHN AHN20160517024014005/17/16 02:40:31  5-MIN KAHN 170740Z AUTO 09004KT 10SM BKN015 BKN075 OVC100 18/13 A3013 610 72 1100 090/04 RMK AO2 RAB25E36 P0000 T01780128
13873KAHN AHN20160517024513005/17/16 02:45:31  5-MIN KAHN 170745Z AUTO 06003KT 10SM SCT015 BKN080 OVC100 18/13 A3014 610 72 1100 070/03 RMK AO2 RAB25E36 P0000
13873KAHN AHN20160517025014705/17/16 02:50:31  5-MIN KAHN 170750Z AUTO 05003KT 10SM BKN015 BKN075 OVC110 18/13 A3013 610 70 1200 060/03 RMK AO2 RAB25E36 SLP199 P0000 T01830128
13873KAHN AHN20160517025514105/17/16 02:55:31  5-MIN KAHN 170755Z AUTO 00000KT 10SM -RA BKN015 BKN065 OVC095 18/13 A3014 610 72 1200 000/00 RMK AO2 RAB55 P0000 T01830133
13873KAHN AHN20160517030014305/17/16 03:00:31  5-MIN KAHN 170800Z AUTO 13003KT 10SM -RA SCT014 BKN075 OVC095 18/14 A3013 610 78 1100 130/03 RMK AO2 RAB0755 P0000 T01780139
13873KAHN AHN20160517030514305/17/16 03:05:31  5-MIN KAHN 170805Z AUTO 13005KT 10SM -RA SCT014 SCT075 OVC100 18/14 A3013 620 81 1100 140/05 RMK AO2 RAB0755 P0000 T01780144
13873KAHN AHN20160517031013605/17/16 03:10:31  5-MIN KAHN 170810Z AUTO VRB04KT 10SM -RA SCT014 OVC100 18/14 A3013 620 81 1100 VRB/04 RMK AO2 RAB0755 P0000 T01780144
13873KAHN AHN20160517031513505/17/16 03:15:31  5-MIN KAHN 170815Z AUTO 12004KT 10SM FEW014 OVC100 18/15 A3013 620 83 1100 130/04 RMK AO2 RAB0755E14 P0000 T01780150
13873KAHN AHN20160517032013505/17/16 03:20:31  5-MIN KAHN 170820Z AUTO 29004KT 10SM FEW014 OVC100 18/15 A3014 610 83 1100 300/04 RMK AO2 RAB0755E14 P0000 T01780150
13873KAHN AHN20160517032513505/17/16 03:25:31  5-MIN KAHN 170825Z AUTO 00000KT 10SM SCT014 OVC100 18/15 A3014 610 83 1100 000/00 RMK AO2 RAB0755E14 P0000 T01780150
13873KAHN AHN20160517033013505/17/16 03:30:31  5-MIN KAHN 170830Z AUTO 00000KT 10SM BKN014 OVC100 18/15 A3014 610 81 1200 000/00 RMK AO2 RAB0755E14 P0000 T01830150
13873KAHN AHN20160517033514205/17/16 03:35:31  5-MIN KAHN 170835Z AUTO VRB04KT 10SM SCT014 SCT080 OVC100 18/15 A3013 620 81 1200 VRB/04 RMK AO2 RAB0755E14 P0000 T01830150
13873KAHN AHN20160517034014205/17/16 03:40:31  5-MIN KAHN 170840Z AUTO 12003KT 10SM SCT014 SCT080 OVC095 18/15 A3013 620 81 1200 120/03 RMK AO2 RAB0755E14 P0000 T01830150
13873KAHN AHN20160517034516105/17/16 03:45:31  5-MIN KAHN 170845Z AUTO 00000KT 10SM SCT014 SCT075 OVC100 18/16 A3014 610 87 1100 000/00 RMK AO2 RAB0755E14 SLP200 P0000 60000 T01780156 58002
13873KAHN AHN20160517035016105/17/16 03:50:31  5-MIN KAHN 170850Z AUTO 00000KT 10SM SCT014 BKN100 OVC120 18/16 A3014 610 87 1100 000/00 RMK AO2 RAB0755E14 SLP200 P0000 60000 T01780156 58002
13873KAHN AHN20160517035512505/17/16 03:55:31  5-MIN KAHN 170855Z AUTO 00000KT 10SM FEW014 SCT075 OVC100 18/16 A3014 610 87 1100 000/00 RMK AO2 T01780156
13873KAHN AHN20160517040011805/17/16 04:00:31  5-MIN KAHN 170900Z AUTO 09004KT 10SM FEW014 OVC100 18/16 A3013 610 87 1100 100/04 RMK AO2 T01780156
13873KAHN AHN20160517040512505/17/16 04:05:31  5-MIN KAHN 170905Z AUTO 10003KT 10SM FEW014 SCT075 OVC100 18/16 A3013 620 87 1100 100/03 RMK AO2 T01780156
13873KAHN AHN20160517041012505/17/16 04:10:31  5-MIN KAHN 170910Z AUTO 10004KT 10SM FEW013 SCT070 OVC100 18/16 A3012 620 87 1100 100/04 RMK AO2 T01780156
13873KAHN AHN20160517041514105/17/16 04:15:31  5-MIN KAHN 170915Z AUTO 00000KT 10SM -RA FEW013 BKN100 OVC120 18/16 A3013 620 87 1100 000/00 RMK AO2 RAB13 P0000 T01780156
13873KAHN AHN20160517042014105/17/16 04:20:31  5-MIN KAHN 170920Z AUTO 10003KT 10SM -RA FEW013 SCT090 OVC110 18/16 A3012 620 87 1100 100/03 RMK AO2 RAB13 P0000 T01780156
13873KAHN AHN20160517042514005/17/16 04:25:31  5-MIN KAHN 170925Z AUTO 10003KT 10SM FEW012 FEW075 OVC110 17/16 A3012 620 90 1100 100/03 RMK AO2 RAB13E23 P0000 T01720156
13873KAHN AHN20160517043013305/17/16 04:30:31  5-MIN KAHN 170930Z AUTO 10005KT 10SM FEW070 BKN110 17/16 A3012 630 93 1100 100/05 RMK AO2 RAB13E23 P0000 T01720161
13873KAHN AHN20160517043512605/17/16 04:35:31  5-MIN KAHN 170935Z AUTO 11003KT 10SM SCT110 17/16 A3012 630 93 1100 120/03 RMK AO2 RAB13E23 P0000 T01720161
13873KAHN AHN20160517044012605/17/16 04:40:31  5-MIN KAHN 170940Z AUTO 10003KT 10SM SCT110 18/16 A3012 620 90 1100 110/03 RMK AO2 RAB13E23 P0000 T01780161
13873KAHN AHN20160517044514005/17/16 04:45:31  5-MIN KAHN 170945Z AUTO 10003KT 10SM FEW013 SCT110 18/16 A3012 620 90 1100 110/03 RMK AO2 RAB13E23 SLP195 P0000 T01780161
13873KAHN AHN20160517045014005/17/16 04:50:31  5-MIN KAHN 170950Z AUTO 11003KT 10SM SCT013 SCT110 18/16 A3012 620 90 1100 110/03 RMK AO2 RAB13E23 SLP196 P0000 T01780161
13873KAHN AHN20160517045511105/17/16 04:55:31  5-MIN KAHN 170955Z AUTO 10003KT 10SM BKN013 18/17 A3012 620 93 1100 110/03 RMK AO2 T01780167
13873KAHN AHN20160517050011105/17/16 05:00:31  5-MIN KAHN 171000Z AUTO 10003KT 10SM BKN013 18/17 A3012 620 93 1100 110/03 RMK AO2 T01780167
13873KAHN AHN20160517050511105/17/16 05:05:31  5-MIN KAHN 171005Z AUTO 10003KT 10SM BKN013 18/17 A3012 620 93 1100 100/03 RMK AO2 T01780167
13873KAHN AHN20160517051011105/17/16 05:10:31  5-MIN KAHN 171010Z AUTO 10003KT 10SM BKN013 18/17 A3012 620 93 1100 100/03 RMK AO2 T01780167
13873KAHN AHN20160517051511105/17/16 05:15:31  5-MIN KAHN 171015Z AUTO 09003KT 10SM OVC013 18/17 A3012 620 93 1100 100/03 RMK AO2 T01780167
13873KAHN AHN20160517052011105/17/16 05:20:31  5-MIN KAHN 171020Z AUTO 10003KT 10SM OVC013 18/17 A3012 620 93 1100 110/03 RMK AO2 T01780167
13873KAHN AHN20160517052511105/17/16 05:25:31  5-MIN KAHN 171025Z AUTO 00000KT 10SM OVC013 18/17 A3012 620 90 1200 000/00 RMK AO2 T01830167
13873KAHN AHN20160517053011105/17/16 05:30:31  5-MIN KAHN 171030Z AUTO 11003KT 10SM OVC012 18/17 A3012 620 90 1200 120/03 RMK AO2 T01830167
13873KAHN AHN20160517053511805/17/16 05:35:31  5-MIN KAHN 171035Z AUTO VRB03KT 10SM BKN012 OVC047 18/17 A3012 620 90 1200 VRB/03 RMK AO2 T01830167
13873KAHN AHN20160517054013305/17/16 05:40:31  5-MIN KAHN 171040Z AUTO 11005KT 8SM -RA BKN012 OVC047 18/17 A3012 630 90 1200 120/05 RMK AO2 RAB39 P0000 T01830167
13873KAHN AHN20160517054513205/17/16 05:45:31  5-MIN KAHN 171045Z AUTO 11004KT 6SM RA BR SCT012 BKN049 OVC095 18/17 A3012 630 93 1200 120/04 RMK AO2 RAB39 P0001
13873KAHN AHN20160517055015005/17/16 05:50:31  5-MIN KAHN 171050Z AUTO 12004KT 5SM -RA BR FEW012 BKN049 OVC090 18/17 A3012 630 96 1100 120/04 RMK AO2 RAB39 SLP193 P0002 T01780172
13873KAHN AHN20160517055513805/17/16 05:55:31  5-MIN KAHN 171055Z AUTO 12005KT 6SM -RA BR FEW014 SCT049 OVC090 18/18 A3012 630 100 1100 120/05 RMK AO2 P0000 T01780178
13873KAHN AHN20160517060013805/17/16 06:00:31  5-MIN KAHN 171100Z AUTO VRB04KT 6SM -RA BR SCT048 BKN075 OVC090 18/18 A3012 620 100 1100 VRB/04 RMK AO2 P0000 T01780178
13873KAHN AHN20160517060513805/17/16 06:05:31  5-MIN KAHN 171105Z AUTO VRB03KT 4SM -RA BR SCT048 BKN075 OVC090 18/18 A3013 620 100 1100 VRB/03 RMK AO2 P0001 T01780178
13873KAHN AHN20160517061013805/17/16 06:10:31  5-MIN KAHN 171110Z AUTO VRB04KT 3SM -RA BR SCT040 BKN048 OVC090 18/18 A3013 620 100 1100 VRB/04 RMK AO2 P0001 T01780178
13873KAHN AHN20160517061513805/17/16 06:15:31  5-MIN KAHN 171115Z AUTO 13006KT 1SM +RA BR FEW025 BKN044 OVC090 18/18 A3012 630 100 1100 140/06 RMK AO2 P0010 T01780178
13873KAHN AHN20160517062014205/17/16 06:20:31  5-MIN KAHN 171120Z AUTO 12005KT 1 1/4SM -RA BR FEW023 SCT044 OVC095 18/18 A3012 630 100 1100 120/05 RMK AO2 P0017 T01780178
13873KAHN AHN20160517062513805/17/16 06:25:31  5-MIN KAHN 171125Z AUTO 11004KT 5SM -RA BR FEW025 SCT044 OVC100 18/18 A3012 630 100 1100 110/04 RMK AO2 P0017 T01780178
13873KAHN AHN20160517063013505/17/16 06:30:31  5-MIN KAHN 171130Z AUTO 11006KT 7SM -RA FEW025 SCT045 OVC100 18/18 A3012 630 100 1100 110/06 RMK AO2 P0017 T01780178
13873KAHN AHN20160517063513805/17/16 06:35:31  5-MIN KAHN 171135Z AUTO VRB04KT 6SM -RA BR FEW022 FEW041 OVC095 18/18 A3012 620 100 1100 VRB/04 RMK AO2 P0017 T01780178
13873KAHN AHN20160517064013105/17/16 06:40:31  5-MIN KAHN 171140Z AUTO 00000KT 5SM -RA BR FEW019 OVC090 18/18 A3013 620 100 1100 000/00 RMK AO2 P0018 T01780178
13873KAHN AHN20160517064517005/17/16 06:45:31  5-MIN KAHN 171145Z 12003KT 6SM -RA BR FEW060 BKN090 OVC100 18/18 A3013 620 100 1100 120/03 RMK AO2 SLP199 P0018 60020 70020 T01780178 10183 20172 55004
13873KAHN AHN20160517065017005/17/16 06:50:31  5-MIN KAHN 171150Z 00000KT 5SM -RA BR FEW060 FEW070 OVC090 18/18 A3013 610 100 1100 000/00 RMK AO2 SLP200 P0018 60020 70020 T01780178 10183 20172 55004
13873KAHN AHN20160517065512605/17/16 06:55:31  5-MIN KAHN 171155Z 00000KT 6SM -RA BR SCT060 OVC090 18/18 A3014 610 100 1100 000/00 RMK AO2 P0001 T01780178
13873KAHN AHN20160517070013005/17/16 07:00:31  5-MIN KAHN 171200Z 00000KT 8SM -RA SCT060 SCT070 OVC090 18/18 A3014 610 100 1100 000/00 RMK AO2 P0001 T01780178
13873KAHN AHN20160517070512905/17/16 07:05:31  5-MIN KAHN 171205Z 00000KT 7SM -RA SCT060 SCT075 OVC095 18/18 A3014 600 96 1200 000/00 RMK AO2 P0001 T01830178
13873KAHN AHN20160517071012905/17/16 07:10:31  5-MIN KAHN 171210Z 08004KT 8SM -RA SCT060 SCT075 OVC100 18/18 A3014 610 96 1200 090/04 RMK AO2 P0001 T01830178
13873KAHN AHN20160517071512205/17/16 07:15:31  5-MIN KAHN 171215Z 08004KT 8SM -RA FEW060 OVC100 18/18 A3015 600 96 1200 090/04 RMK AO2 P0001 T01830178
13873KAHN AHN20160517072013305/17/16 07:20:31  5-MIN KAHN 171220Z 00000KT 7SM -RA FEW060 OVC100 18/18 A3015 600 96 1200 000/00 RMK AO2 LTG DSNT S P0001 T01830178
13873KAHN AHN20160517072513305/17/16 07:25:31  5-MIN KAHN 171225Z 00000KT 8SM -RA FEW060 OVC095 18/18 A3016 590 96 1200 000/00 RMK AO2 LTG DSNT S P0001 T01830178
13873KAHN AHN20160517073014005/17/16 07:30:31  5-MIN KAHN 171230Z 00000KT 8SM -RA SCT055 OVC095 18/18 A3017 580 96 1200 000/00 RMK AO2 LTG DSNT S PRESRR P0001 T01830178
13873KAHN AHN20160517073513605/17/16 07:35:31  5-MIN KAHN 171235Z 00000KT 7SM -RA FEW008 BKN055 OVC095 18/18 A3017 580 96 1100 000/00 RMK AO2 PRESRR P0001 T01830178
13873KAHN AHN20160517074013305/17/16 07:40:31  5-MIN KAHN 171240Z 08003KT 6SM -RA BR FEW008 BKN055 OVC095 18/18 A3016 590 100 1200 080/03 RMK AO2 P0001 T01830183
13873KAHN AHN20160517074515205/17/16 07:45:31  5-MIN KAHN 171245Z 08004KT 6SM -RA BR BKN010 BKN055 OVC090 18/18 A3017 580 100 1100 080/04 RMK AO2 CIG 007V016 SLP211 P0002 T01830183
13873KAHN AHN20160517075014505/17/16 07:50:31  5-MIN KAHN 171250Z 07005KT 5SM -RA BR BKN010 OVC055 18/18 A3017 580 100 1100 070/05 RMK AO2 CIG 007V016 SLP212 P0002 T01830183
13873KAHN AHN20160517075513805/17/16 07:55:31  5-MIN KAHN 171255Z 07004KT 5SM -RA BR BKN008 OVC013 18/18 A3017 580 100 1100 070/04 RMK AO2 CIG 006V010 P0000 T01830183
13873KAHN AHN20160517080012605/17/16 08:00:31  5-MIN KAHN 171300Z 06003KT 4SM -RA BR BKN008 OVC013 18/18 A3017 580 100 1100 060/03 RMK AO2 P0001 T01830183
13873KAHN AHN20160517080513305/17/16 08:05:31  5-MIN KAHN 171305Z 09005KT 4SM -RA BR BKN008 BKN050 OVC080 18/18 A3016 590 100 1200 090/05 RMK AO2 P0002 T01830183
13873KAHN AHN20160517081013305/17/16 08:10:31  5-MIN KAHN 171310Z 10004KT 4SM -RA BR BKN008 BKN070 OVC095 18/18 A3016 590 100 1200 100/04 RMK AO2 P0002 T01830183
13873KAHN AHN20160517081514505/17/16 08:15:31  5-MIN KAHN 171315Z 08004KT 4SM -RA BR SCT008 BKN055 OVC095 18/18 A3017 580 100 1100 090/04 RMK AO2 LTG DSNT SW P0003 T01830183
13873KAHN AHN20160517082014505/17/16 08:20:31  5-MIN KAHN 171320Z 10003KT 4SM -RA BR SCT008 BKN055 OVC090 18/18 A3017 580 100 1100 100/03 RMK AO2 LTG DSNT SW P0004 T01830183
13873KAHN AHN20160517082514505/17/16 08:25:31  5-MIN KAHN 171325Z 08005KT 5SM -RA BR BKN008 BKN055 OVC090 18/18 A3016 590 100 1200 090/05 RMK AO2 LTG DSNT SW P0004 T01830183
13873KAHN AHN20160517083013305/17/16 08:30:31  5-MIN KAHN 171330Z 08005KT 4SM -RA BR BKN008 BKN055 OVC090 18/18 A3016 590 100 1200 080/05 RMK AO2 P0004 T01830183
13873KAHN AHN20160517083513305/17/16 08:35:31  5-MIN KAHN 171335Z 08004KT 4SM -RA BR BKN008 BKN055 OVC090 18/18 A3017 580 100 1100 080/04 RMK AO2 P0005 T01830183
13873KAHN AHN20160517084013305/17/16 08:40:31  5-MIN KAHN 171340Z VRB03KT 4SM -RA BR BKN008 BKN055 OVC090 18/18 A3017 580 100 1100 VRB/03 RMK AO2 P0006 T01830183
13873KAHN AHN20160517084514005/17/16 08:45:31  5-MIN KAHN 171345Z 00000KT 4SM -RA BR BKN008 BKN055 OVC090 18/18 A3018 570 100 1100 000/00 RMK AO2 SLP216 P0007 T01830183
13873KAHN AHN20160517085013905/17/16 08:50:31  5-MIN KAHN 171350Z 00000KT 4SM -RA BR BKN008 BKN055 OVC090 19/18 A3018 570 97 1200 000/00 RMK AO2 SLP216 P0007 T01890183
13873KAHN AHN20160517085513605/17/16 08:55:31  5-MIN KAHN 171355Z 33004KT 2 1/2SM RA BR BKN006 BKN075 OVC090 18/18 A3018 570 100 1100 340/04 RMK AO2 P0001 T01830183
13873KAHN AHN20160517090012905/17/16 09:00:31  5-MIN KAHN 171400Z 03004KT 2 1/2SM RA BR BKN006 OVC075 18/18 A3017 580 100 1100 030/04 RMK AO2 P0002 T01830183
13873KAHN AHN20160517090511705/17/16 09:05:31  5-MIN KAHN 171405Z VRB03KT 3SM RA BR OVC006 19/18 A3017 580 97 1200 VRB/03 RMK AO2 P0003 T01890183
13873KAHN AHN20160517091013705/17/16 09:10:31  5-MIN KAHN 171410Z 06004KT 4SM -RA BR BKN006 OVC012 19/18 A3017 580 97 1200 060/04 RMK AO2 CIG 004V011 P0004 T01890183
13873KAHN AHN20160517091512505/17/16 09:15:31  5-MIN KAHN 171415Z 07005KT 5SM -RA BR SCT007 OVC012 19/18 A3017 580 97 1200 080/05 RMK AO2 P0005 T01890183
13873KAHN AHN20160517092013205/17/16 09:20:31  5-MIN KAHN 171420Z 07005KT 5SM -RA BR SCT007 BKN015 OVC100 19/18 A3017 580 97 1200 070/05 RMK AO2 P0006 T01890183
13873KAHN AHN20160517092513305/17/16 09:25:31  5-MIN KAHN 171425Z 07005KT 6SM -RA BR SCT009 BKN017 OVC100 18/18 A3017 580 100 1100 080/05 RMK AO2 P0006 T01830183
13873KAHN AHN20160517093013205/17/16 09:30:31  5-MIN KAHN 171430Z 07005KT 5SM -RA BR SCT009 BKN017 OVC100 19/18 A3017 580 97 1200 080/05 RMK AO2 P0006 T01890183
13873KAHN AHN20160517093513205/17/16 09:35:31  5-MIN KAHN 171435Z 07005KT 5SM -RA BR SCT014 BKN020 OVC100 19/18 A3017 580 97 1200 080/05 RMK AO2 P0007 T01890183
13873KAHN AHN20160517094013205/17/16 09:40:31  5-MIN KAHN 171440Z 07004KT 6SM -RA BR BKN016 BKN075 OVC100 19/18 A3017 580 97 1200 070/04 RMK AO2 P0007 T01890183
13873KAHN AHN20160517094512205/17/16 09:45:31  5-MIN KAHN 171445Z 04003KT 6SM -RA BR FEW007 BKN065 OVC100 19/18 A3017 580 97 1200 040/03 RMK AO2 P0007
13873KAHN AHN20160517095014805/17/16 09:50:31  5-MIN KAHN 171450Z VRB03KT 7SM -RA FEW007 BKN060 OVC100 19/18 A3017 580 97 1200 VRB/03 RMK AO2 SLP212 P0008 60017 T01890183 50010
13873KAHN AHN20160517095512905/17/16 09:55:31  5-MIN KAHN 171455Z 03003KT 7SM -RA SCT007 BKN018 OVC100 19/18 A3017 580 97 1200 040/03 RMK AO2 P0000 T01890183
13873KAHN AHN20160517100013205/17/16 10:00:31  5-MIN KAHN 171500Z 04004KT 6SM -RA BR BKN007 BKN020 OVC100 19/18 A3017 580 97 1200 050/04 RMK AO2 P0000 T01890183
13873KAHN AHN20160517100513205/17/16 10:05:31  5-MIN KAHN 171505Z 06004KT 6SM -RA BR BKN007 BKN020 OVC100 19/18 A3017 580 97 1200 060/04 RMK AO2 P0001 T01890183
13873KAHN AHN20160517101013205/17/16 10:10:31  5-MIN KAHN 171510Z 06005KT 6SM -RA BR BKN007 BKN020 OVC100 19/18 A3017 580 97 1200 060/05 RMK AO2 P0001 T01890183
13873KAHN AHN20160517101513205/17/16 10:15:31  5-MIN KAHN 171515Z 07004KT 5SM -RA BR BKN007 BKN020 OVC100 19/18 A3017 580 97 1200 080/04 RMK AO2 P0002 T01890183
13873KAHN AHN20160517102013205/17/16 10:20:31  5-MIN KAHN 171520Z VRB03KT 6SM -RA BR BKN007 BKN020 OVC100 19/18 A3017 580 97 1200 VRB/03 RMK AO2 P0002 T01890183
13873KAHN AHN20160517102512905/17/16 10:25:31  5-MIN KAHN 171525Z 05005KT 7SM -RA BKN007 BKN020 OVC100 19/18 A3017 580 97 1200 050/05 RMK AO2 P0002 T01890183
13873KAHN AHN20160517103013005/17/16 10:30:31  5-MIN KAHN 171530Z 05004KT 8SM -RA BKN007 BKN020 OVC100 18/18 A3017 580 100 1100 050/04 RMK AO2 P0003 T01830183
13873KAHN AHN20160517103512905/17/16 10:35:31  5-MIN KAHN 171535Z 03006KT 8SM -RA BKN007 BKN020 OVC100 18/18 A3018 580 96 1100 040/06 RMK AO2 P0003 T01830178
13873KAHN AHN20160517104012905/17/16 10:40:31  5-MIN KAHN 171540Z 00000KT 7SM -RA BKN007 BKN020 OVC100 18/18 A3017 580 96 1100 000/00 RMK AO2 P0003 T01830178
13873KAHN AHN20160517104513905/17/16 10:45:31  5-MIN KAHN 171545Z VRB03KT 6SM -RA BR BKN007 BKN020 OVC100 18/18 A3017 580 96 1100 VRB/03 RMK AO2 SLP213 P0003 T01830178
13873KAHN AHN20160517105013905/17/16 10:50:31  5-MIN KAHN 171550Z VRB04KT 6SM -RA BR BKN007 BKN020 OVC100 18/18 A3017 580 96 1100 VRB/04 RMK AO2 SLP213 P0003 T01830178
13873KAHN AHN20160517105513405/17/16 10:55:31  5-MIN KAHN 171555Z 01005KT 7SM -RA BKN005 OVC013 18/18 A3017 580 96 1100 020/05 RMK AO2 CIG 004V007 P0000 T01830178
13873KAHN AHN20160517110013705/17/16 11:00:31  5-MIN KAHN 171600Z 05005KT 6SM -RA BR BKN005 OVC013 18/18 A3017 580 96 1200 060/05 RMK AO2 CIG 004V009 P0000 T01830178
13873KAHN AHN20160517110513705/17/16 11:05:31  5-MIN KAHN 171605Z 05005KT 5SM -RA BR BKN005 OVC013 18/18 A3016 590 96 1200 050/05 RMK AO2 CIG 004V009 P0001 T01830178
13873KAHN AHN20160517111012505/17/16 11:10:31  5-MIN KAHN 171610Z 06005KT 6SM -RA BR BKN005 OVC013 18/18 A3017 580 96 1200 060/05 RMK AO2 P0001 T01830178
13873KAHN AHN20160517111511505/17/16 11:15:31  5-MIN KAHN 171615Z 05004KT 7SM -RA OVC005 18/18 A3017 580 96 1100 050/04 RMK AO2 P0001 T01830178
13873KAHN AHN20160517112011605/17/16 11:20:31  5-MIN KAHN 171620Z 05005KT 7SM -RA OVC005 18/18 A3017 580 100 1100 060/05 RMK AO2 P0001 T01830183
13873KAHN AHN20160517112511505/17/16 11:25:31  5-MIN KAHN 171625Z 05004KT 7SM -RA OVC005 18/18 A3017 580 96 1100 060/04 RMK AO2 P0001 T01830178
13873KAHN AHN20160517113011505/17/16 11:30:31  5-MIN KAHN 171630Z 05005KT 8SM -RA OVC005 18/18 A3017 580 96 1200 050/05 RMK AO2 P0001 T01830178
13873KAHN AHN20160517113511505/17/16 11:35:31  5-MIN KAHN 171635Z 07006KT 7SM -RA OVC005 18/18 A3016 590 96 1200 070/06 RMK AO2 P0001 T01830178
13873KAHN AHN20160517114013505/17/16 11:40:31  5-MIN KAHN 171640Z 06009KT 7SM -RA OVC005 18/18 A3014 610 100 1200 070/09 RMK AO2 CIG 004V009 PRESFR P0001 T01830183
13873KAHN AHN20160517114513505/17/16 11:45:31  5-MIN KAHN 171645Z 06006KT 7SM -RA OVC005 18/18 A3014 610 100 1200 060/06 RMK AO2 CIG 004V009 SLP204 P0001 T01830183
13873KAHN AHN20160517115013605/17/16 11:50:31  5-MIN KAHN 171650Z 05007KT 7SM OVC005 19/18 A3014 610 97 1200 060/07 RMK AO2 RAE46 CIG 004V009 SLP201 P0001 T01890183
13873KAHN AHN20160517115512405/17/16 11:55:31  5-MIN KAHN 171655Z 06008KT 8SM BKN006 OVC009 19/18 A3014 610 97 1200 060/08 RMK AO2 CIG 004V008 T01890183
13873KAHN AHN20160517120012405/17/16 12:00:31  5-MIN KAHN 171700Z 07008KT 8SM BKN006 OVC110 19/18 A3013 610 97 1300 070/08 RMK AO2 CIG 004V010 T01890183
13873KAHN AHN20160517120512405/17/16 12:05:31  5-MIN KAHN 171705Z 07007KT 9SM BKN006 OVC110 19/19 A3013 620 97 1300 080/07 RMK AO2 CIG 004V010 T01940189
13873KAHN AHN20160517121012505/17/16 12:10:31  5-MIN KAHN 171710Z 07007KT 10SM BKN006 OVC110 19/19 A3013 620 97 1300 070/07 RMK AO2 CIG 004V010 T01940189
13873KAHN AHN20160517121512505/17/16 12:15:31  5-MIN KAHN 171715Z 07006KT 10SM BKN006 OVC110 19/19 A3013 620 97 1300 070/06 RMK AO2 CIG 004V010 T01940189
13873KAHN AHN20160517122012505/17/16 12:20:31  5-MIN KAHN 171720Z 06006KT 10SM BKN006 OVC110 19/18 A3012 620 93 1300 070/06 RMK AO2 CIG 004V010 T01940183
13873KAHN AHN20160517122511305/17/16 12:25:31  5-MIN KAHN 171725Z 09006KT 10SM BKN006 OVC110 20/19 A3012 620 93 1400 090/06 RMK AO2 T02000189
13873KAHN AHN20160517123012505/17/16 12:30:31  5-MIN KAHN 171730Z 08006KT 10SM BKN007 BKN110 21/19 A3012 620 90 1500 090/06 RMK AO2 CIG 006V009 T02060189
13873KAHN AHN20160517123512505/17/16 12:35:31  5-MIN KAHN 171735Z 08008KT 10SM BKN007 BKN110 21/19 A3012 630 90 1500 090/08 RMK AO2 CIG 006V009 T02060189
13873KAHN AHN20160517124012505/17/16 12:40:31  5-MIN KAHN 171740Z VRB06KT 10SM BKN007 BKN110 21/18 A3011 630 87 1500 VRB/06 RMK AO2 CIG 006V010 T02060183
13873KAHN AHN20160517124515605/17/16 12:45:31  5-MIN KAHN 171745Z 08008KT 10SM BKN008 BKN110 21/19 A3011 640 90 1500 080/08 RMK AO2 CIG 006V010 SLP191 60021 T02060189 10206 20178 50000
13873KAHN AHN20160517125015605/17/16 12:50:31  5-MIN KAHN 171750Z 07009KT 10SM BKN008 BKN110 21/18 A3010 640 87 1500 080/09 RMK AO2 CIG 006V012 SLP190 60021 T02060183 10206 20178 50000
13873KAHN AHN20160517125512505/17/16 12:55:31  5-MIN KAHN 171755Z 08008KT 10SM BKN008 BKN110 21/18 A3010 640 87 1500 090/08 RMK AO2 CIG 007V012 T02060183
13873KAHN AHN20160517130012505/17/16 13:00:31  5-MIN KAHN 171800Z 09008KT 10SM BKN009 BKN110 21/18 A3010 640 84 1500 090/08 RMK AO2 CIG 007V012 T02110183
13873KAHN AHN20160517130512505/17/16 13:05:31  5-MIN KAHN 171805Z 08007KT 10SM BKN009 BKN110 22/19 A3010 640 84 1600 090/07 RMK AO2 CIG 007V012 T02170189
13873KAHN AHN20160517131011305/17/16 13:10:31  5-MIN KAHN 171810Z 07006KT 10SM BKN010 BKN110 22/19 A3010 640 84 1600 080/06 RMK AO2 T02170189
13873KAHN AHN20160517131510605/17/16 13:15:31  5-MIN KAHN 171815Z 10007KT 10SM BKN010 22/19 A3010 650 87 1600 110/07 RMK AO2 T02170194
13873KAHN AHN20160517132011305/17/16 13:20:31  5-MIN KAHN 171820Z 08007KT 10SM BKN010 BKN110 22/19 A3010 650 84 1600 080/07 RMK AO2 T02170189
13873KAHN AHN20160517132512005/17/16 13:25:31  5-MIN KAHN 171825Z 10007KT 10SM BKN011 BKN016 BKN110 22/19 A3010 650 84 1600 100/07 RMK AO2 T02170189
13873KAHN AHN20160517133012005/17/16 13:30:31  5-MIN KAHN 171830Z 10007KT 10SM SCT011 BKN018 OVC110 21/18 A3010 650 84 1500 110/07 RMK AO2 T02110183
13873KAHN AHN20160517133512005/17/16 13:35:31  5-MIN KAHN 171835Z 08008KT 10SM FEW009 BKN013 OVC110 21/18 A3010 650 84 1500 080/08 RMK AO2 T02110183
13873KAHN AHN20160517134011305/17/16 13:40:31  5-MIN KAHN 171840Z 10005KT 10SM BKN015 OVC110 21/18 A3009 650 84 1600 110/05 RMK AO2 T02110183
13873KAHN AHN20160517134510305/17/16 13:45:31  5-MIN KAHN 171845Z 09005KT 10SM BKN015 OVC110 21/18 A3009 650 84 1600 090/05 RMK AO2
13873KAHN AHN20160517135012005/17/16 13:50:31  5-MIN KAHN 171850Z 11004KT 10SM BKN015 OVC110 21/18 A3010 650 84 1600 110/04 RMK AO2 SLP187 T02110183
13873KAHN AHN20160517135512005/17/16 13:55:31  5-MIN KAHN 171855Z 10005KT 10SM BKN015 BKN019 OVC110 21/18 A3010 650 84 1500 110/05 RMK AO2 T02110183
13873KAHN AHN20160517140012005/17/16 14:00:31  5-MIN KAHN 171900Z VRB03KT 10SM SCT014 BKN021 OVC110 21/18 A3010 650 84 1500 VRB/03 RMK AO2 T02110183
13873KAHN AHN20160517140512005/17/16 14:05:31  5-MIN KAHN 171905Z 09005KT 10SM SCT014 BKN065 OVC100 21/18 A3010 650 84 1600 100/05 RMK AO2 T02110183
13873KAHN AHN20160517141012005/17/16 14:10:31  5-MIN KAHN 171910Z 10003KT 10SM SCT014 BKN065 OVC100 21/18 A3010 650 84 1600 110/03 RMK AO2 T02110183
13873KAHN AHN20160517141512005/17/16 14:15:31  5-MIN KAHN 171915Z 11004KT 10SM SCT013 BKN018 OVC100 21/18 A3009 650 84 1600 120/04 RMK AO2 T02110183
13873KAHN AHN20160517142012005/17/16 14:20:31  5-MIN KAHN 171920Z VRB05KT 10SM FEW013 SCT020 OVC100 21/18 A3009 650 84 1600 VRB/05 RMK AO2 T02110183
13873KAHN AHN20160517142512005/17/16 14:25:31  5-MIN KAHN 171925Z VRB04KT 10SM FEW013 SCT022 OVC100 21/18 A3009 660 84 1600 VRB/04 RMK AO2 T02110183
13873KAHN AHN20160517143012005/17/16 14:30:31  5-MIN KAHN 171930Z VRB03KT 10SM SCT013 BKN021 OVC100 21/19 A3008 660 87 1600 VRB/03 RMK AO2 T02110189
13873KAHN AHN20160517143512005/17/16 14:35:31  5-MIN KAHN 171935Z 12004KT 10SM SCT013 BKN021 OVC100 21/18 A3008 660 87 1500 130/04 RMK AO2 T02060183
13873KAHN AHN20160517144012005/17/16 14:40:31  5-MIN KAHN 171940Z 12006KT 10SM FEW013 BKN021 OVC100 21/18 A3008 660 87 1500 130/06 RMK AO2 T02060183
13873KAHN AHN20160520185014405/20/16 18:50:31  5-MIN KAHN 202350Z 09007KT 1 1/2SM BR OVC002 16/16 A3006 690 100 1000 090/07 RMK AO2 SLP176 60001 T01610161 10172 20161 56008
13873KAHN AHN20160520185511305/20/16 18:55:31  5-MIN KAHN 202355Z 08005KT 1 1/2SM BR OVC002 16/16 A3006 690 100 1000 090/05 RMK AO2 T01610161
13873KAHN AHN20160520190011305/20/16 19:00:31  5-MIN KAHN 210000Z 09005KT 1 1/2SM BR OVC002 16/16 A3006 690 100 1000 090/05 RMK AO2 T01610161
13873KAHN AHN20160520190511805/20/16 19:05:31  5-MIN KAHN 210005Z AUTO 09006KT 1 1/2SM BR OVC002 16/16 A3006 680 100 1000 100/06 RMK AO2 T01610161
13873KAHN AHN20160520191011805/20/16 19:10:31  5-MIN KAHN 210010Z AUTO 10005KT 1 1/2SM BR OVC002 16/16 A3006 690 100 1000 100/05 RMK AO2 T01610161
13873KAHN AHN20160520191511805/20/16 19:15:31  5-MIN KAHN 210015Z AUTO 10007KT 1 1/2SM BR OVC002 16/16 A3005 690 100 1000 100/07 RMK AO2 T01610161
13873KAHN AHN20160520192011805/20/16 19:20:31  5-MIN KAHN 210020Z AUTO 10006KT 1 1/2SM BR OVC002 16/16 A3005 690 100 1000 110/06 RMK AO2 T01610161
13873KAHN AHN20160520192511805/20/16 19:25:31  5-MIN KAHN 210025Z AUTO 10005KT 1 1/2SM BR OVC002 16/16 A3005 690 100 1000 110/05 RMK AO2 T01610161
13873KAHN AHN20160520193011805/20/16 19:30:31  5-MIN KAHN 210030Z AUTO 09005KT 1 1/4SM BR OVC002 16/16 A3006 680 100 1000 100/05 RMK AO2 T01610161
13873KAHN AHN20160520193511805/20/16 19:35:31  5-MIN KAHN 210035Z AUTO 11004KT 1 1/4SM BR OVC002 16/16 A3006 680 100 1000 110/04 RMK AO2 T01610161
13873KAHN AHN20160520194011805/20/16 19:40:31  5-MIN KAHN 210040Z AUTO VRB04KT 1 1/2SM BR OVC002 16/16 A3006 680 100 1000 VRB/04 RMK AO2 T01610161
13873KAHN AHN20160520194512505/20/16 19:45:31  5-MIN KAHN 210045Z AUTO 09005KT 1 3/4SM BR OVC002 16/16 A3006 680 100 1000 100/05 RMK AO2 SLP176 T01610161
13873KAHN AHN20160520195012505/20/16 19:50:31  5-MIN KAHN 210050Z AUTO 07004KT 1 3/4SM BR OVC002 16/16 A3006 680 100 1000 070/04 RMK AO2 SLP176 T01610161
13873KAHN AHN20160520195511805/20/16 19:55:31  5-MIN KAHN 210055Z AUTO VRB04KT 1 1/2SM BR OVC002 16/16 A3006 680 100 1000 VRB/04 RMK AO2 T01610161
13873KAHN AHN20160520200011805/20/16 20:00:31  5-MIN KAHN 210100Z AUTO 07004KT 1 1/2SM BR OVC002 16/16 A3006 680 100 1000 080/04 RMK AO2 T01610161
13873KAHN AHN20160520200511805/20/16 20:05:31  5-MIN KAHN 210105Z AUTO 08005KT 1 1/2SM BR OVC002 16/16 A3006 680 100 1000 080/05 RMK AO2 T01610161
13873KAHN AHN20160520201011805/20/16 20:10:31  5-MIN KAHN 210110Z AUTO 07004KT 1 1/2SM BR OVC002 16/16 A3006 680 100 1000 080/04 RMK AO2 T01610161
13873KAHN AHN20160520201511805/20/16 20:15:31  5-MIN KAHN 210115Z AUTO 06006KT 1 1/4SM BR OVC002 16/16 A3006 680 100 1000 060/06 RMK AO2 T01610161
13873KAHN AHN20160520202011805/20/16 20:20:31  5-MIN KAHN 210120Z AUTO 05004KT 1 1/4SM BR OVC002 16/16 A3007 680 100 1000 060/04 RMK AO2 T01610161
13873KAHN AHN20160520202511805/20/16 20:25:31  5-MIN KAHN 210125Z AUTO 06003KT 1 1/2SM BR OVC002 16/16 A3007 670 100 1000 060/03 RMK AO2 T01610161
13873KAHN AHN20160520203011805/20/16 20:30:31  5-MIN KAHN 210130Z AUTO 07005KT 1 1/4SM BR OVC002 16/16 A3007 680 100 1000 070/05 RMK AO2 T01610161
13873KAHN AHN20160520203511805/20/16 20:35:31  5-MIN KAHN 210135Z AUTO 08005KT 1 1/4SM BR OVC002 16/16 A3007 680 100 1000 080/05 RMK AO2 T01610161
13873KAHN AHN20160520204011805/20/16 20:40:31  5-MIN KAHN 210140Z AUTO 08006KT 1 1/4SM BR OVC002 16/16 A3006 680 100 1000 080/06 RMK AO2 T01610161
13873KAHN AHN20160520204512505/20/16 20:45:31  5-MIN KAHN 210145Z AUTO 07008KT 1 1/4SM BR OVC002 16/16 A3006 680 100 1000 080/08 RMK AO2 SLP179 T01610161
13873KAHN AHN20160520205012505/20/16 20:50:31  5-MIN KAHN 210150Z AUTO 08007KT 1 1/4SM BR OVC002 16/16 A3007 680 100 1000 080/07 RMK AO2 SLP179 T01610161
13873KAHN AHN20160520205511805/20/16 20:55:31  5-MIN KAHN 210155Z AUTO 07007KT 1 1/4SM BR OVC002 16/16 A3006 680 100 1000 080/07 RMK AO2 T01610161
13873KAHN AHN20160520210011805/20/16 21:00:31  5-MIN KAHN 210200Z AUTO 07006KT 1 1/2SM BR OVC002 16/16 A3006 680 100 1000 080/06 RMK AO2 T01610161
13873KAHN AHN20160520210511805/20/16 21:05:31  5-MIN KAHN 210205Z AUTO 08005KT 1 1/2SM BR OVC002 16/16 A3006 680 100 1000 080/05 RMK AO2 T01610161
13873KAHN AHN20160520211011805/20/16 21:10:31  5-MIN KAHN 210210Z AUTO 07006KT 1 1/2SM BR OVC002 16/16 A3006 680 100 1000 080/06 RMK AO2 T01610161
13873KAHN AHN20160520211511805/20/16 21:15:31  5-MIN KAHN 210215Z AUTO 06005KT 1 1/2SM BR OVC002 16/16 A3007 680 100 1000 070/05 RMK AO2 T01610161
13873KAHN AHN20160520212011805/20/16 21:20:31  5-MIN KAHN 210220Z AUTO VRB05KT 1 3/4SM BR OVC002 16/16 A3007 670 100 1000 VRB/05 RMK AO2 T01610161
13873KAHN AHN20160520212511805/20/16 21:25:31  5-MIN KAHN 210225Z AUTO VRB03KT 1 3/4SM BR OVC002 16/16 A3007 670 100 1000 VRB/03 RMK AO2 T01610161
13873KAHN AHN20160520213011405/20/16 21:30:31  5-MIN KAHN 210230Z AUTO VRB04KT 2SM BR OVC002 16/16 A3007 670 100 1000 VRB/04 RMK AO2 T01610161
13873KAHN AHN20160520213511805/20/16 21:35:31  5-MIN KAHN 210235Z AUTO 05003KT 2 1/2SM BR OVC002 16/16 A3007 670 100 1000 050/03 RMK AO2 T01610161
13873KAHN AHN20160520214011805/20/16 21:40:31  5-MIN KAHN 210240Z AUTO 05004KT 2 1/2SM BR OVC002 16/16 A3007 670 100 1000 060/04 RMK AO2 T01610161
13873KAHN AHN20160520214513105/20/16 21:45:31  5-MIN KAHN 210245Z AUTO 07004KT 2 1/2SM BR OVC002 16/16 A3007 670 100 1000 070/04 RMK AO2 SLP181 T01610161 56004
13873KAHN AHN20160520215013105/20/16 21:50:31  5-MIN KAHN 210250Z AUTO 06004KT 2 1/2SM BR OVC003 16/16 A3008 670 100 1000 060/04 RMK AO2 SLP182 T01610161 56004
13873KAHN AHN20160520215511405/20/16 21:55:31  5-MIN KAHN 210255Z AUTO 04003KT 3SM BR OVC003 16/16 A3008 670 100 1000 050/03 RMK AO2 T01610161
13873KAHN AHN20160520220013205/20/16 22:00:31  5-MIN KAHN 210300Z AUTO 03004KT 3SM -RA BR OVC003 16/16 A3008 670 100 1000 040/04 RMK AO2 RAB0258 P0000 T01610161
13873KAHN AHN20160520220513205/20/16 22:05:31  5-MIN KAHN 210305Z AUTO 05004KT 3SM -RA BR OVC003 16/16 A3008 670 100 1000 060/04 RMK AO2 RAB0258 P0000 T01610161
13873KAHN AHN20160520221013105/20/16 22:10:31  5-MIN KAHN 210310Z AUTO 05004KT 3SM BR OVC003 16/16 A3007 670 100 1000 050/04 RMK AO2 RAB0258E07 P0000 T01610161
13873KAHN AHN20160520221513505/20/16 22:15:31  5-MIN KAHN 210315Z AUTO 04003KT 2 1/2SM BR OVC003 16/16 A3007 670 100 1000 050/03 RMK AO2 RAB0258E07 P0000 T01610161
13873KAHN AHN20160520222013505/20/16 22:20:31  5-MIN KAHN 210320Z AUTO 05004KT 2 1/2SM BR OVC003 16/16 A3007 670 100 1000 060/04 RMK AO2 RAB0258E07 P0000 T01610161
13873KAHN AHN20160520222513505/20/16 22:25:31  5-MIN KAHN 210325Z AUTO 06005KT 2 1/2SM BR OVC003 16/16 A3007 670 100 1000 060/05 RMK AO2 RAB0258E07 P0000 T01610161
13873KAHN AHN20160520223013505/20/16 22:30:31  5-MIN KAHN 210330Z AUTO 05004KT 2 1/2SM BR OVC003 16/16 A3007 670 100 1000 050/04 RMK AO2 RAB0258E07 P0000 T01610161
13873KAHN AHN20160520223513505/20/16 22:35:31  5-MIN KAHN 210335Z AUTO VRB03KT 2 1/2SM BR OVC003 16/16 A3007 670 100 1000 VRB/03 RMK AO2 RAB0258E07 P0000 T01610161
13873KAHN AHN20160520224013105/20/16 22:40:31  5-MIN KAHN 210340Z AUTO VRB05KT 3SM BR OVC003 16/16 A3007 670 100 1000 VRB/05 RMK AO2 RAB0258E07 P0000 T01610161
13873KAHN AHN20160520224514205/20/16 22:45:31  5-MIN KAHN 210345Z AUTO 05004KT 2 1/2SM BR OVC003 16/16 A3007 680 100 1000 060/04 RMK AO2 RAB0258E07 SLP179 P0000 T01610161
13873KAHN AHN20160520225014205/20/16 22:50:31  5-MIN KAHN 210350Z AUTO 05004KT 2 1/2SM BR OVC003 16/16 A3006 680 100 1000 050/04 RMK AO2 RAB0258E07 SLP178 P0000 T01610161
13873KAHN AHN20160520225511805/20/16 22:55:31  5-MIN KAHN 210355Z AUTO VRB05KT 2 1/2SM BR OVC003 16/16 A3006 680 100 1000 VRB/05 RMK AO2 T01610161
13873KAHN AHN20160520230011805/20/16 23:00:31  5-MIN KAHN 210400Z AUTO 05005KT 2 1/2SM BR OVC003 16/16 A3006 680 100 1000 060/05 RMK AO2 T01610161
13873KAHN AHN20160520230511805/20/16 23:05:31  5-MIN KAHN 210405Z AUTO 06005KT 2 1/2SM BR OVC003 16/16 A3006 680 100 1000 070/05 RMK AO2 T01610161
13873KAHN AHN20160520231011405/20/16 23:10:31  5-MIN KAHN 210410Z AUTO 06004KT 3SM BR OVC003 16/16 A3006 680 100 1000 060/04 RMK AO2 T01610161
13873KAHN AHN20160520231511405/20/16 23:15:31  5-MIN KAHN 210415Z AUTO 06004KT 3SM BR OVC003 16/16 A3006 680 100 1000 060/04 RMK AO2 T01610161
13873KAHN AHN20160520232011405/20/16 23:20:31  5-MIN KAHN 210420Z AUTO 06006KT 3SM BR OVC003 16/16 A3006 680 100 1000 070/06 RMK AO2 T01610161
13873KAHN AHN20160520232511405/20/16 23:25:31  5-MIN KAHN 210425Z AUTO 06004KT 3SM BR OVC003 16/16 A3006 690 100 1000 070/04 RMK AO2 T01610161
13873KAHN AHN20160520233011405/20/16 23:30:31  5-MIN KAHN 210430Z AUTO 06005KT 3SM BR OVC003 16/16 A3006 690 100 1000 070/05 RMK AO2 T01610161
13873KAHN AHN20160520233511405/20/16 23:35:31  5-MIN KAHN 210435Z AUTO 05003KT 3SM BR OVC003 16/16 A3006 680 100 1000 050/03 RMK AO2 T01610161
13873KAHN AHN20160520234011405/20/16 23:40:31  5-MIN KAHN 210440Z AUTO 05003KT 3SM BR OVC003 16/16 A3006 690 100 1000 050/03 RMK AO2 T01610161
13873KAHN AHN20160520234513105/20/16 23:45:31  5-MIN KAHN 210445Z AUTO 06004KT 3SM BR OVC003 16/16 A3006 680 100 1000 060/04 RMK AO2 SLP176 T01610161 401720150
13873KAHN AHN20160520235013105/20/16 23:50:31  5-MIN KAHN 210450Z AUTO 05004KT 3SM BR OVC003 16/16 A3006 680 100 1000 060/04 RMK AO2 SLP176 T01610161 401720150
13873KAHN AHN20160520235511805/20/16 23:55:31  5-MIN KAHN 210455Z AUTO VRB03KT 2 1/2SM BR OVC003 16/16 A3006 680 100 1000 VRB/03 RMK AO2 T01610161
13873KAHN AHN20160521000013605/21/16 00:00:31  5-MIN KAHN 210500Z AUTO 02003KT 2 1/2SM -RA BR OVC003 16/16 A3006 680 100 1000 030/03 RMK AO2 RAB0458 P0000 T01610161
13873KAHN AHN20160521000513205/21/16 00:05:31  5-MIN KAHN 210505Z AUTO VRB05KT 2SM -RA BR OVC003 16/16 A3005 690 100 1000 VRB/05 RMK AO2 RAB0458 P0000 T01610161
13873KAHN AHN20160521001013605/21/16 00:10:31  5-MIN KAHN 210510Z AUTO 03004KT 1 3/4SM +RA BR OVC003 16/16 A3005 690 100 1000 030/04 RMK AO2 RAB0458 P0006 T01560156
13873KAHN AHN20160521001513605/21/16 00:15:31  5-MIN KAHN 210515Z AUTO 05004KT 2 1/2SM -RA BR OVC003 16/16 A3005 690 100 1000 060/04 RMK AO2 RAB0458 P0007 T01560156
13873KAHN AHN20160521002013205/21/16 00:20:31  5-MIN KAHN 210520Z AUTO 05004KT 4SM -RA BR OVC003 16/16 A3005 690 100 1000 060/04 RMK AO2 RAB0458 P0007 T01560156
13873KAHN AHN20160521002513205/21/16 00:25:31  5-MIN KAHN 210525Z AUTO 06004KT 5SM -RA BR OVC003 16/16 A3005 690 100 1000 060/04 RMK AO2 RAB0458 P0007 T01610161
13873KAHN AHN20160521003013205/21/16 00:30:31  5-MIN KAHN 210530Z AUTO 04003KT 6SM -RA BR OVC003 16/16 A3005 690 100 1000 050/03 RMK AO2 RAB0458 P0007 T01610161
13873KAHN AHN20160521003512805/21/16 00:35:31  5-MIN KAHN 210535Z AUTO 00000KT 7SM OVC004 16/16 A3005 690 100 1000 000/00 RMK AO2 RAB0458E34 P0007 T01610161
13873KAHN AHN20160521004012805/21/16 00:40:31  5-MIN KAHN 210540Z AUTO 01003KT 8SM OVC004 16/16 A3005 690 100 1000 010/03 RMK AO2 RAB0458E34 P0007 T01610161
13873KAHN AHN20160521004515905/21/16 00:45:31  5-MIN KAHN 210545Z AUTO VRB03KT 8SM OVC004 16/16 A3005 690 100 1000 VRB/03 RMK AO2 RAB0458E34 SLP173 P0007 60007 T01610161 10161 20156 53007
13873KAHN AHN20160521005015905/21/16 00:50:31  5-MIN KAHN 210550Z AUTO VRB03KT 8SM OVC004 16/16 A3005 690 100 1000 VRB/03 RMK AO2 RAB0458E34 SLP174 P0007 60007 T01610161 10161 20156 53007
13873KAHN AHN20160521005513005/21/16 00:55:31  5-MIN KAHN 210555Z AUTO 04004KT 6SM -RA BR OVC004 16/16 A3005 690 100 1000 040/04 RMK AO2 RAB55 P0000 T01610161
13873KAHN AHN20160521010013205/21/16 01:00:31  5-MIN KAHN 210600Z AUTO 05003KT 5SM -RA BR OVC004 16/16 A3005 690 100 1000 050/03 RMK AO2 RAB0555 P0001 T01610161
13873KAHN AHN20160521010513205/21/16 01:05:31  5-MIN KAHN 210605Z AUTO 00000KT 6SM -RA BR OVC004 16/16 A3004 700 100 1000 000/00 RMK AO2 RAB0555 P0001 T01610161
13873KAHN AHN20160521011013205/21/16 01:10:31  5-MIN KAHN 210610Z AUTO 05004KT 6SM -RA BR OVC004 16/16 A3004 700 100 1000 060/04 RMK AO2 RAB0555 P0001 T01610161
13873KAHN AHN20160521011513205/21/16 01:15:31  5-MIN KAHN 210615Z AUTO 05005KT 6SM -RA BR OVC004 16/16 A3004 700 100 1000 060/05 RMK AO2 RAB0555 P0002 T01610161
13873KAHN AHN20160521012012905/21/16 01:20:31  5-MIN KAHN 210620Z AUTO 05004KT 7SM -RA OVC004 16/16 A3003 710 100 1000 050/04 RMK AO2 RAB0555 P0002 T01610161
13873KAHN AHN20160521012512905/21/16 01:25:31  5-MIN KAHN 210625Z AUTO 06004KT 8SM -RA OVC004 16/16 A3003 710 100 1000 060/04 RMK AO2 RAB0555 P0002 T01560156
13873KAHN AHN20160521013012805/21/16 01:30:31  5-MIN KAHN 210630Z AUTO 05003KT 9SM OVC004 16/16 A3003 710 100 1000 060/03 RMK AO2 RAB0555E29 P0002 T01610161
13873KAHN AHN20160521013512805/21/16 01:35:31  5-MIN KAHN 210635Z AUTO VRB03KT 9SM OVC004 16/16 A3003 710 100 1000 VRB/03 RMK AO2 RAB0555E29 P0002 T01610161
13873KAHN AHN20160521014012805/21/16 01:40:31  5-MIN KAHN 210640Z AUTO 03005KT 8SM OVC004 16/16 A3003 710 100 1000 030/05 RMK AO2 RAB0555E29 P0002 T01610161
13873KAHN AHN20160521014513505/21/16 01:45:31  5-MIN KAHN 210645Z AUTO VRB03KT 8SM OVC004 16/16 A3003 710 100 1000 VRB/03 RMK AO2 RAB0555E29 SLP167 P0002 T01560156
13873KAHN AHN20160521015013505/21/16 01:50:31  5-MIN KAHN 210650Z AUTO 02004KT 8SM OVC004 16/16 A3003 710 100 1000 020/04 RMK AO2 RAB0555E29 SLP167 P0002 T01560156
13873KAHN AHN20160521015512705/21/16 01:55:31  5-MIN KAHN 210655Z AUTO 03006KT 8SM -RA OVC003 16/16 A3003 710 100 1000 030/06 RMK AO2 RAB54 P0000 T01560156
13873KAHN AHN20160521020012905/21/16 02:00:31  5-MIN KAHN 210700Z AUTO 04004KT 8SM -RA OVC003 16/16 A3002 720 100 1000 050/04 RMK AO2 RAB0654 P0000 T01560156
13873KAHN AHN20160521020512805/21/16 02:05:31  5-MIN KAHN 210705Z AUTO 05004KT 8SM OVC004 16/16 A3002 720 100 1000 050/04 RMK AO2 RAB0654E04 P0000 T01560156
13873KAHN AHN20160521021012905/21/16 02:10:31  5-MIN KAHN 210710Z AUTO 06003KT 7SM -RA OVC004 16/16 A3002 720 100 1000 070/03 RMK AO2 RAB0654 P0000 T01560156
13873KAHN AHN20160521021513205/21/16 02:15:31  5-MIN KAHN 210715Z AUTO 07004KT 6SM -RA BR OVC004 16/16 A3001 730 100 1000 080/04 RMK AO2 RAB0654 P0000 T01560156
13873KAHN AHN20160521022012805/21/16 02:20:31  5-MIN KAHN 210720Z AUTO 00000KT 7SM OVC003 16/16 A3001 720 100 1000 000/00 RMK AO2 RAB0654E20 P0000 T01560156
13873KAHN AHN20160521022512805/21/16 02:25:31  5-MIN KAHN 210725Z AUTO 00000KT 7SM OVC003 16/16 A3001 720 100 1000 000/00 RMK AO2 RAB0654E20 P0000 T01560156
13873KAHN AHN20160521023012805/21/16 02:30:31  5-MIN KAHN 210730Z AUTO 01003KT 7SM OVC003 16/16 A3001 730 100 1000 020/03 RMK AO2 RAB0654E20 P0000 T01560156
13873KAHN AHN20160521023513105/21/16 02:35:31  5-MIN KAHN 210735Z AUTO 00000KT 6SM BR OVC003 16/16 A3001 730 100 1000 000/00 RMK AO2 RAB0654E20 P0000 T01560156
13873KAHN AHN20160521024013105/21/16 02:40:31  5-MIN KAHN 210740Z AUTO VRB03KT 5SM BR OVC003 16/16 A3001 730 100 1100 VRB/03 RMK AO2 RAB0654E20 P0000 T01610161
13873KAHN AHN20160521024513805/21/16 02:45:31  5-MIN KAHN 210745Z AUTO 00000KT 4SM BR OVC003 16/16 A3001 730 100 1000 000/00 RMK AO2 RAB0654E20 SLP159 P0000 T01560156
13873KAHN AHN20160521025013805/21/16 02:50:31  5-MIN KAHN 210750Z AUTO 06003KT 3SM BR OVC003 16/16 A3000 730 100 1000 070/03 RMK AO2 RAB0654E20 SLP157 P0000 T01560156
13873KAHN AHN20160521025511405/21/16 02:55:31  5-MIN KAHN 210755Z AUTO 04003KT 3SM BR OVC002 16/16 A3000 730 100 1000 040/03 RMK AO2 T01560156
13873KAHN AHN20160521030011405/21/16 03:00:31  5-MIN KAHN 210800Z AUTO 03003KT 3SM BR OVC002 16/16 A3001 730 100 1000 030/03 RMK AO2 T01560156
13873KAHN AHN20160521030511805/21/16 03:05:31  5-MIN KAHN 210805Z AUTO VRB03KT 2 1/2SM BR OVC002 16/16 A3001 730 100 1000 VRB/03 RMK AO2 T01560156
13873KAHN AHN20160521031011805/21/16 03:10:31  5-MIN KAHN 210810Z AUTO 00000KT 2 1/2SM BR OVC002 16/16 A3001 730 100 1000 000/00 RMK AO2 T01560156
13873KAHN AHN20160521031511405/21/16 03:15:31  5-MIN KAHN 210815Z AUTO 36003KT 3SM BR OVC002 16/16 A3000 730 100 1000 010/03 RMK AO2 T01560156
13873KAHN AHN20160521032011405/21/16 03:20:31  5-MIN KAHN 210820Z AUTO 35003KT 4SM BR OVC002 16/16 A3001 730 100 1000 350/03 RMK AO2 T01560156
13873KAHN AHN20160521032511405/21/16 03:25:31  5-MIN KAHN 210825Z AUTO 00000KT 5SM BR OVC002 16/16 A3000 730 100 1000 000/00 RMK AO2 T01560156
13873KAHN AHN20160521033011405/21/16 03:30:31  5-MIN KAHN 210830Z AUTO 00000KT 5SM BR OVC002 16/16 A3001 730 100 1000 000/00 RMK AO2 T01560156
13873KAHN AHN20160521033511405/21/16 03:35:31  5-MIN KAHN 210835Z AUTO 00000KT 5SM BR OVC002 16/16 A3001 730 100 1000 000/00 RMK AO2 T01560156
13873KAHN AHN20160521034011405/21/16 03:40:31  5-MIN KAHN 210840Z AUTO 03003KT 5SM BR OVC002 16/16 A3001 730 100 1000 030/03 RMK AO2 T01560156
13873KAHN AHN20160521034514505/21/16 03:45:31  5-MIN KAHN 210845Z AUTO 00000KT 6SM BR OVC002 16/16 A3001 730 100 1000 000/00 RMK AO2 CIG 002V006 SLP159 60002 T01560156 56008
13873KAHN AHN20160521035013305/21/16 03:50:31  5-MIN KAHN 210850Z AUTO 00000KT 6SM BR OVC002 16/16 A3001 730 100 1100 000/00 RMK AO2 SLP159 60002 T01610161 56008
13873KAHN AHN20160521035511405/21/16 03:55:31  5-MIN KAHN 210855Z AUTO VRB03KT 4SM BR OVC003 16/16 A3001 730 100 1000 VRB/03 RMK AO2 T01560156
13873KAHN AHN20160521040011805/21/16 04:00:31  5-MIN KAHN 210900Z AUTO 00000KT 2 1/2SM BR OVC003 16/16 A3001 730 100 1000 000/00 RMK AO2 T01560156
13873KAHN AHN20160521040511405/21/16 04:05:31  5-MIN KAHN 210905Z AUTO 07003KT 2SM BR OVC002 16/16 A3000 730 100 1000 070/03 RMK AO2 T01560156
13873KAHN AHN20160521041011405/21/16 04:10:31  5-MIN KAHN 210910Z AUTO 00000KT 2SM BR OVC002 16/16 A3001 730 100 1000 000/00 RMK AO2 T01560156
13873KAHN AHN20160521041511805/21/16 04:15:31  5-MIN KAHN 210915Z AUTO 00000KT 1 3/4SM BR OVC002 16/16 A3001 730 100 1000 000/00 RMK AO2 T01560156
13873KAHN AHN20160521042011805/21/16 04:20:31  5-MIN KAHN 210920Z AUTO 00000KT 1 3/4SM BR OVC002 16/16 A3001 730 100 1000 000/00 RMK AO2 T01560156
13873KAHN AHN20160521042511805/21/16 04:25:31  5-MIN KAHN 210925Z AUTO 00000KT 1 3/4SM BR OVC002 16/16 A3001 730 100 1000 000/00 RMK AO2 T01560156
13873KAHN AHN20160521043011805/21/16 04:30:31  5-MIN KAHN 210930Z AUTO 00000KT 1 1/2SM BR OVC002 16/16 A3001 730 100 1000 000/00 RMK AO2 T01560156
13873KAHN AHN20160521043511805/21/16 04:35:31  5-MIN KAHN 210935Z AUTO 00000KT 1 1/2SM BR OVC002 16/16 A3001 730 100 1000 000/00 RMK AO2 T01560156
13873KAHN AHN20160521044011805/21/16 04:40:31  5-MIN KAHN 210940Z AUTO 00000KT 1 3/4SM BR OVC002 16/16 A3001 730 100 1000 000/00 RMK AO2 T01560156
13873KAHN AHN20160521044510805/21/16 04:45:31  5-MIN KAHN 210945Z AUTO 00000KT 2 1/2SM BR OVC002 16/16 A3001 730 100 1000 000/00 RMK AO2
13873KAHN AHN20160521045012105/21/16 04:50:31  5-MIN KAHN 210950Z AUTO VRB03KT 3SM BR OVC002 16/16 A3001 730 100 1000 VRB/03 RMK AO2 SLP160 T01560156
13873KAHN AHN20160521045511405/21/16 04:55:31  5-MIN KAHN 210955Z AUTO 00000KT 2SM BR OVC002 16/16 A3001 730 100 1000 000/00 RMK AO2 T01560156
13873KAHN AHN20160521050011405/21/16 05:00:31  5-MIN KAHN 211000Z AUTO 00000KT 2SM BR OVC002 16/16 A3001 730 100 1000 000/00 RMK AO2 T01560156
13873KAHN AHN20160521050511405/21/16 05:05:31  5-MIN KAHN 211005Z AUTO 00000KT 3SM BR OVC002 16/16 A3001 730 100 1000 000/00 RMK AO2 T01560156
13873KAHN AHN20160521051011405/21/16 05:10:31  5-MIN KAHN 211010Z AUTO 00000KT 4SM BR OVC003 16/16 A3001 720 100 1000 000/00 RMK AO2 T01560156
13873KAHN AHN20160521051511405/21/16 05:15:31  5-MIN KAHN 211015Z AUTO 32003KT 3SM BR OVC003 16/16 A3002 720 100 1000 320/03 RMK AO2 T01560156
13873KAHN AHN20160521052011805/21/16 05:20:31  5-MIN KAHN 211020Z AUTO 00000KT 1 1/2SM BR OVC003 16/16 A3002 720 100 1000 000/00 RMK AO2 T01560156
13873KAHN AHN20160521052511405/21/16 05:25:31  5-MIN KAHN 211025Z AUTO 32003KT 1SM BR OVC003 16/16 A3002 720 100 1000 330/03 RMK AO2 T01560156
13873KAHN AHN20160521053011405/21/16 05:30:31  5-MIN KAHN 211030Z AUTO 00000KT 1SM BR OVC002 16/16 A3002 720 100 1000 000/00 RMK AO2 T01560156
13873KAHN AHN20160521053511805/21/16 05:35:31  5-MIN KAHN 211035Z AUTO 00000KT 1 1/4SM BR OVC002 16/16 A3002 720 100 1000 000/00 RMK AO2 T01560156
13873KAHN AHN20160521054011805/21/16 05:40:31  5-MIN KAHN 211040Z AUTO 00000KT 1 1/2SM BR OVC002 16/16 A3002 720 100 1000 000/00 RMK AO2 T01560156
13873KAHN AHN20160521054512505/21/16 05:45:31  5-MIN KAHN 211045Z AUTO 00000KT 1 1/4SM BR OVC002 16/16 A3002 720 100 1000 000/00 RMK AO2 SLP164 T01560156
13873KAHN AHN20160521055012105/21/16 05:50:31  5-MIN KAHN 211050Z AUTO 00000KT 1SM BR OVC002 16/16 A3002 720 100 1000 000/00 RMK AO2 SLP164 T01560156
13873KAHN AHN20160521055511405/21/16 05:55:31  5-MIN KAHN 211055Z AUTO 00000KT 1SM BR OVC002 16/16 A3002 720 100 1000 000/00 RMK AO2 T01560156
13873KAHN AHN20160521060011805/21/16 06:00:31  5-MIN KAHN 211100Z AUTO 00000KT 1 1/4SM BR OVC002 16/16 A3002 720 100 1000 000/00 RMK AO2 T01560156
13873KAHN AHN20160521060511805/21/16 06:05:31  5-MIN KAHN 211105Z AUTO 00000KT 1 1/4SM BR OVC002 16/16 A3002 720 100 1000 000/00 RMK AO2 T01560156
13873KAHN AHN20160521061011805/21/16 06:10:31  5-MIN KAHN 211110Z AUTO 00000KT 1 1/2SM BR OVC002 16/16 A3002 720 100 1000 000/00 RMK AO2 T01560156
13873KAHN AHN20160521061511805/21/16 06:15:31  5-MIN KAHN 211115Z AUTO 00000KT 1 1/2SM BR OVC002 16/16 A3002 720 100 1000 000/00 RMK AO2 T01560156
13873KAHN AHN20160521062011805/21/16 06:20:31  5-MIN KAHN 211120Z AUTO 00000KT 1 1/4SM BR OVC002 16/16 A3003 710 100 1000 000/00 RMK AO2 T01560156
13873KAHN AHN20160521062511805/21/16 06:25:31  5-MIN KAHN 211125Z AUTO 00000KT 1 1/4SM BR OVC002 16/16 A3003 710 100 1000 000/00 RMK AO2 T01560156
13873KAHN AHN20160521063011805/21/16 06:30:31  5-MIN KAHN 211130Z AUTO 00000KT 1 1/4SM BR OVC002 16/16 A3003 710 100 1000 000/00 RMK AO2 T01560156
13873KAHN AHN20160521063511405/21/16 06:35:31  5-MIN KAHN 211135Z AUTO 00000KT 1SM BR OVC002 16/16 A3003 710 100 1000 000/00 RMK AO2 T01560156
13873KAHN AHN20160521064011405/21/16 06:40:31  5-MIN KAHN 211140Z AUTO 29003KT 1SM BR OVC002 16/16 A3004 700 100 1000 300/03 RMK AO2 T01560156
13873KAHN AHN20160521064515105/21/16 06:45:31  5-MIN KAHN 211145Z AUTO 00000KT 1SM BR OVC002 16/16 A3004 700 100 1000 000/00 RMK AO2 SLP169 60002 70011 T01560156 10161 20156 55015
13873KAHN AHN20160521065015305/21/16 06:50:31  5-MIN KAHN 211150Z AUTO 00000KT 3/4SM BR OVC002 16/16 A3004 700 100 1000 000/00 RMK AO2 SLP169 60002 70011 T01560156 10161 20156 55015
13873KAHN AHN20160521065511605/21/16 06:55:31  5-MIN KAHN 211155Z AUTO 00000KT 3/4SM BR OVC002 16/16 A3004 700 100 1000 000/00 RMK AO2 T01560156
13873KAHN AHN20160521070011105/21/16 07:00:31  5-MIN KAHN 211200Z 00000KT 3/4SM BR OVC002 16/16 A3004 700 100 1000 000/00 RMK AO2 T01560156
13873KAHN AHN20160521070511105/21/16 07:05:31  5-MIN KAHN 211205Z 00000KT 3/4SM BR OVC002 16/16 A3004 700 100 1000 000/00 RMK AO2 T01560156
13873KAHN AHN20160521071011105/21/16 07:10:31  5-MIN KAHN 211210Z 00000KT 3/4SM BR OVC002 16/16 A3003 710 100 1000 000/00 RMK AO2 T01560156
13873KAHN AHN20160521071511105/21/16 07:15:31  5-MIN KAHN 211215Z 00000KT 1/2SM FG OVC002 16/16 A3004 700 100 1000 000/00 RMK AO2 T01560156
13873KAHN AHN20160521072011105/21/16 07:20:31  5-MIN KAHN 211220Z 00000KT 1/2SM FG OVC002 16/16 A3004 700 100 1000 000/00 RMK AO2 T01560156
13873KAHN AHN20160521072511005/21/16 07:25:31  5-MIN KAHN 211225Z 00000KT 3/4SM BR VV002 16/16 A3004 700 100 1000 000/00 RMK AO2 T01560156
13873KAHN AHN20160521073011105/21/16 07:30:31  5-MIN KAHN 211230Z 00000KT 3/4SM BR OVC002 16/16 A3004 700 100 1000 000/00 RMK AO2 T01560156
13873KAHN AHN20160521073511105/21/16 07:35:31  5-MIN KAHN 211235Z 00000KT 3/4SM BR OVC002 16/16 A3004 700 100 1000 000/00 RMK AO2 T01560156
13873KAHN AHN20160521074011105/21/16 07:40:31  5-MIN KAHN 211240Z 00000KT 3/4SM BR OVC002 16/16 A3004 700 100 1000 000/00 RMK AO2 T01560156
13873KAHN AHN20160521074511705/21/16 07:45:31  5-MIN KAHN 211245Z 00000KT 3/4SM BR VV002 16/16 A3004 700 100 1000 000/00 RMK AO2 SLP171 T01610161
13873KAHN AHN20160521075011705/21/16 07:50:31  5-MIN KAHN 211250Z VRB03KT 3/4SM BR VV002 16/16 A3004 700 100 1000 VRB/03 RMK AO2 SLP171 T01610161
13873KAHN AHN20160521075511005/21/16 07:55:31  5-MIN KAHN 211255Z 00000KT 1/2SM FG VV002 16/16 A3005 700 100 1000 000/00 RMK AO2 T01610161
13873KAHN AHN20160521080011005/21/16 08:00:31  5-MIN KAHN 211300Z 27003KT 1/2SM FG VV002 16/16 A3005 690 100 1000 280/03 RMK AO2 T01610161
13873KAHN AHN20160521080511005/21/16 08:05:31  5-MIN KAHN 211305Z 00000KT 3/4SM BR VV002 16/16 A3005 690 100 1000 000/00 RMK AO2 T01610161
13873KAHN AHN20160521081011305/21/16 08:10:31  5-MIN KAHN 211310Z VRB03KT 1 1/4SM BR OVC002 16/16 A3004 700 100 1000 VRB/03 RMK AO2 T01610161
13873KAHN AHN20160521081511305/21/16 08:15:31  5-MIN KAHN 211315Z 00000KT 2 1/2SM BR OVC002 16/16 A3004 700 100 1000 000/00 RMK AO2 T01610161
13873KAHN AHN20160521082010905/21/16 08:20:31  5-MIN KAHN 211320Z VRB03KT 4SM BR OVC002 16/16 A3005 690 100 1000 VRB/03 RMK AO2 T01610161
13873KAHN AHN20160521082510905/21/16 08:25:31  5-MIN KAHN 211325Z 00000KT 4SM BR OVC002 17/17 A3005 690 100 1100 000/00 RMK AO2 T01670167
13873KAHN AHN20160521083010905/21/16 08:30:31  5-MIN KAHN 211330Z 00000KT 6SM BR OVC002 17/17 A3005 690 100 1100 000/00 RMK AO2 T01670167
13873KAHN AHN20160521083510605/21/16 08:35:31  5-MIN KAHN 211335Z 30004KT 7SM OVC003 17/17 A3005 690 100 1100 310/04 RMK AO2 T01670167
13873KAHN AHN20160521084010505/21/16 08:40:31  5-MIN KAHN 211340Z 31003KT 7SM OVC003 17/16 A3005 690 96 1100 320/03 RMK AO2 T01670161
13873KAHN AHN20160521084511505/21/16 08:45:31  5-MIN KAHN 211345Z 29004KT 6SM BR OVC003 17/16 A3005 690 96 1100 300/04 RMK AO2 SLP175 T01670161
13873KAHN AHN20160521085011205/21/16 08:50:31  5-MIN KAHN 211350Z 00000KT 7SM OVC003 17/16 A3006 690 96 1100 000/00 RMK AO2 SLP175 T01670161
13873KAHN AHN20160521085510505/21/16 08:55:31  5-MIN KAHN 211355Z VRB03KT 7SM OVC003 17/17 A3005 690 96 1100 VRB/03 RMK AO2 T01720167
13873KAHN AHN20160521090010505/21/16 09:00:31  5-MIN KAHN 211400Z 27003KT 7SM OVC004 17/17 A3005 690 96 1100 280/03 RMK AO2 T01720167
13873KAHN AHN20160521090510505/21/16 09:05:31  5-MIN KAHN 211405Z 27004KT 7SM OVC004 17/17 A3005 690 96 1100 280/04 RMK AO2 T01720167
13873KAHN AHN20160521091010505/21/16 09:10:31  5-MIN KAHN 211410Z 00000KT 7SM OVC004 17/17 A3005 690 96 1200 000/00 RMK AO2 T01720167
13873KAHN AHN20160521091510505/21/16 09:15:31  5-MIN KAHN 211415Z 28003KT 8SM OVC004 18/17 A3005 690 96 1200 290/03 RMK AO2 T01780172
13873KAHN AHN20160521092010505/21/16 09:20:31  5-MIN KAHN 211420Z 00000KT 8SM OVC004 18/17 A3005 690 96 1200 000/00 RMK AO2 T01780172
13873KAHN AHN20160521092510505/21/16 09:25:31  5-MIN KAHN 211425Z 00000KT 8SM OVC004 18/17 A3004 700 96 1200 000/00 RMK AO2 T01780172
13873KAHN AHN20160521093010505/21/16 09:30:31  5-MIN KAHN 211430Z 23004KT 9SM OVC004 18/17 A3004 700 93 1300 240/04 RMK AO2 T01830172
13873KAHN AHN20160521093510605/21/16 09:35:31  5-MIN KAHN 211435Z VRB04KT 10SM OVC004 18/17 A3004 700 93 1300 VRB/04 RMK AO2 T01830172
13873KAHN AHN20160521094010605/21/16 09:40:31  5-MIN KAHN 211440Z 00000KT 10SM OVC004 19/17 A3004 700 90 1400 000/00 RMK AO2 T01890172
13873KAHN AHN20160521094511905/21/16 09:45:31  5-MIN KAHN 211445Z VRB04KT 10SM OVC004 19/17 A3004 700 90 1400 VRB/04 RMK AO2 SLP168 T01890172 53008
13873KAHN AHN20160521095011905/21/16 09:50:31  5-MIN KAHN 211450Z 18003KT 10SM OVC006 19/18 A3003 710 93 1400 190/03 RMK AO2 SLP167 T01890178 53008
13873KAHN AHN20160521095510605/21/16 09:55:31  5-MIN KAHN 211455Z 21003KT 10SM OVC006 19/18 A3003 710 90 1400 220/03 RMK AO2 T01940178
13873KAHN AHN20160521100010605/21/16 10:00:31  5-MIN KAHN 211500Z 00000KT 10SM OVC006 19/18 A3003 710 90 1400 000/00 RMK AO2 T01940178
13873KAHN AHN20160521100510605/21/16 10:05:31  5-MIN KAHN 211505Z VRB04KT 10SM OVC006 21/18 A3003 710 87 1600 VRB/04 RMK AO2 T02060183
13873KAHN AHN20160521101010605/21/16 10:10:31  5-MIN KAHN 211510Z VRB03KT 10SM OVC006 21/18 A3003 710 87 1600 VRB/03 RMK AO2 T02060183
13873KAHN AHN20160521101510605/21/16 10:15:31  5-MIN KAHN 211515Z 25005KT 10SM OVC006 20/18 A3004 700 87 1500 250/05 RMK AO2 T02000178
13873KAHN AHN20160521102010605/21/16 10:20:31  5-MIN KAHN 211520Z VRB05KT 10SM OVC007 19/18 A3004 700 90 1400 VRB/05 RMK AO2 T01940178
13873KAHN AHN20160521102510605/21/16 10:25:31  5-MIN KAHN 211525Z VRB03KT 10SM OVC007 19/18 A3004 700 90 1400 VRB/03 RMK AO2 T01940178
13873KAHN AHN20160521103010605/21/16 10:30:31  5-MIN KAHN 211530Z 00000KT 10SM OVC007 20/18 A3003 700 90 1500 000/00 RMK AO2 T02000183
13873KAHN AHN20160521103510605/21/16 10:35:31  5-MIN KAHN 211535Z VRB03KT 10SM OVC007 21/18 A3003 700 87 1600 VRB/03 RMK AO2 T02060183
13873KAHN AHN20160521104010605/21/16 10:40:31  5-MIN KAHN 211540Z 24003KT 10SM OVC007 21/18 A3004 700 87 1600 250/03 RMK AO2 T02060183
13873KAHN AHN20160521104511305/21/16 10:45:31  5-MIN KAHN 211545Z VRB04KT 10SM OVC007 21/18 A3004 700 87 1500 VRB/04 RMK AO2 SLP169 T02060183
13873KAHN AHN20160521105011305/21/16 10:50:31  5-MIN KAHN 211550Z 25004KT 10SM OVC007 20/18 A3004 700 90 1500 260/04 RMK AO2 SLP170 T02000183
13873KAHN AHN20160521105511805/21/16 10:55:31  5-MIN KAHN 211555Z VRB05KT 10SM OVC007 21/18 A3004 700 87 1600 VRB/05 RMK AO2 CIG 006V010 T02060183
13873KAHN AHN20160521110011805/21/16 11:00:31  5-MIN KAHN 211600Z VRB04KT 10SM OVC007 21/18 A3003 700 87 1600 VRB/04 RMK AO2 CIG 006V010 T02060183
13873KAHN AHN20160521110511805/21/16 11:05:31  5-MIN KAHN 211605Z VRB05KT 10SM OVC008 21/18 A3004 700 87 1600 VRB/05 RMK AO2 CIG 006V010 T02060183
13873KAHN AHN20160521111010605/21/16 11:10:31  5-MIN KAHN 211610Z VRB05KT 10SM OVC008 21/18 A3004 700 87 1600 VRB/05 RMK AO2 T02060183
13873KAHN AHN20160521111510605/21/16 11:15:31  5-MIN KAHN 211615Z VRB03KT 10SM OVC009 21/18 A3003 710 87 1600 VRB/03 RMK AO2 T02060183
13873KAHN AHN20160521112010605/21/16 11:20:31  5-MIN KAHN 211620Z VRB04KT 10SM OVC009 21/19 A3003 710 87 1600 VRB/04 RMK AO2 T02110189
13873KAHN AHN20160521112512505/21/16 11:25:31  5-MIN KAHN 211625Z 24005KT 10SM BKN009 OVC016 22/19 A3003 710 84 1700 250/05 RMK AO2 CIG 008V013 T02170189
13873KAHN AHN20160521113011305/21/16 11:30:31  5-MIN KAHN 211630Z VRB05KT 10SM BKN011 OVC016 21/19 A3003 710 87 1600 VRB/05 RMK AO2 T02110189
13873KAHN AHN20160521113510605/21/16 11:35:31  5-MIN KAHN 211635Z VRB05KT 10SM OVC011 21/18 A3003 710 84 1600 VRB/05 RMK AO2 T02110183
13873KAHN AHN20160521114010605/21/16 11:40:31  5-MIN KAHN 211640Z 27005KT 10SM OVC011 21/19 A3003 710 87 1600 270/05 RMK AO2 T02110189
13873KAHN AHN20160521114511305/21/16 11:45:31  5-MIN KAHN 211645Z 25005KT 10SM OVC013 21/18 A3003 710 84 1600 250/05 RMK AO2 SLP163 T02110183
13873KAHN AHN20160521115012005/21/16 11:50:31  5-MIN KAHN 211650Z 27005KT 10SM BKN013 OVC018 21/19 A3002 710 87 1600 270/05 RMK AO2 SLP163 T02110189
13873KAHN AHN20160521115511305/21/16 11:55:31  5-MIN KAHN 211655Z VRB04KT 10SM BKN013 OVC018 21/19 A3002 720 87 1600 VRB/04 RMK AO2 T02110189
13873KAHN AHN20160521120011305/21/16 12:00:31  5-MIN KAHN 211700Z VRB03KT 10SM BKN015 OVC065 21/19 A3002 720 87 1600 VRB/03 RMK AO2 T02110189
13873KAHN AHN20160521120513605/21/16 12:05:31  5-MIN KAHN 211705Z 27005KT 10SM -RA BKN015 BKN020 OVC075 21/19 A3002 720 87 1600 280/05 RMK AO2 RAB04 P0000 T02110189
13873KAHN AHN20160521121013605/21/16 12:10:31  5-MIN KAHN 211710Z VRB04KT 10SM -RA FEW012 BKN017 OVC075 22/19 A3001 720 84 1700 VRB/04 RMK AO2 RAB04 P0000 T02170189
13873KAHN AHN20160521121513505/21/16 12:15:31  5-MIN KAHN 211715Z 29004KT 10SM BKN015 BKN019 OVC075 22/19 A3002 720 84 1700 290/04 RMK AO2 RAB04E14 P0000 T02170189
13873KAHN AHN20160521122013505/21/16 12:20:31  5-MIN KAHN 211720Z 29006KT 10SM BKN015 BKN019 OVC075 21/19 A3002 720 87 1600 290/06 RMK AO2 RAB04E14 P0000 T02110189
13873KAHN AHN20160521122513505/21/16 12:25:31  5-MIN KAHN 211725Z 27004KT 8SM -RA BKN015 BKN060 OVC075 21/19 A3001 720 87 1600 270/04 RMK AO2 RAB04 P0000 T02110189
13873KAHN AHN20160521123013805/21/16 12:30:31  5-MIN KAHN 211730Z 27004KT 5SM -RA BR BKN015 BKN055 OVC070 21/19 A3001 730 87 1700 270/04 RMK AO2 RAB04 P0000 T02110189
13873KAHN AHN20160521123513805/21/16 12:35:31  5-MIN KAHN 211735Z 30003KT 5SM -RA BR BKN015 BKN040 OVC070 21/19 A3000 740 90 1700 300/03 RMK AO2 RAB04 P0000 T02110194
13873KAHN AHN20160521124015005/21/16 12:40:31  5-MIN KAHN 211740Z 00000KT 6SM -RA BR SCT015 BKN037 BKN055 22/20 A3000 740 90 1700 000/00 RMK AO2 LTG DSNT SW RAB04 P0001 T02170200
13873KAHN AHN20160521124517805/21/16 12:45:31  5-MIN KAHN 211745Z VRB03KT 10SM SCT015 SCT041 BKN070 22/20 A2999 740 87 1800 VRB/03 RMK AO2 LTG DSNT SW RAB04E45 SLP153 P0001 60001 T02220200 10222 20156 58001
13873KAHN AHN20160521125017805/21/16 12:50:31  5-MIN KAHN 211750Z 28005KT 10SM FEW012 SCT041 SCT055 23/20 A2999 740 84 1900 280/05 RMK AO2 LTG DSNT SW RAB04E45 SLP152 P0001 60001 T02280200 10228 20156 58001
13873KAHN AHN20160521125512505/21/16 12:55:31  5-MIN KAHN 211755Z VRB04KT 10SM FEW014 FEW041 23/19 A2999 740 81 1900 VRB/04 RMK AO2 LTG DSNT SW T02280194
13873KAHN AHN20160521130011805/21/16 13:00:31  5-MIN KAHN 211800Z 29003KT 10SM FEW014 23/20 A2999 750 81 1900 300/03 RMK AO2 LTG DSNT SW T02330200
13873KAHN AHN20160521130513105/21/16 13:05:31  5-MIN KAHN 211805Z 22004KT 10SM FEW014 SCT060 24/20 A2999 750 78 2000 230/04 RMK AO2 LTG DSNT S AND SW T02390200
13873KAHN AHN20160521131013105/21/16 13:10:31  5-MIN KAHN 211810Z VRB04KT 10SM FEW014 SCT060 23/19 A2999 750 81 1900 VRB/04 RMK AO2 LTG DSNT S AND SW T02280194
13873KAHN AHN20160521131513105/21/16 13:15:31  5-MIN KAHN 211815Z VRB05KT 10SM FEW014 BKN070 23/19 A2998 750 78 1900 VRB/05 RMK AO2 LTG DSNT S AND SW T02280189
13873KAHN AHN20160521132011305/21/16 13:20:31  5-MIN KAHN 211820Z VRB03KT 10SM FEW014 BKN070 24/19 A2998 750 76 2000 VRB/03 RMK AO2 T02390194
13873KAHN AHN20160521132512005/21/16 13:25:31  5-MIN KAHN 211825Z VRB04KT 10SM FEW014 SCT060 BKN075 24/20 A2998 760 76 2100 VRB/04 RMK AO2 T02440200
13873KAHN AHN20160521133013105/21/16 13:30:31  5-MIN KAHN 211830Z VRB03KT 10SM FEW014 SCT060 BKN075 25/19 A2998 760 71 2100 VRB/03 RMK AO2 LTG DSNT S T02500194
13873KAHN AHN20160521133513105/21/16 13:35:31  5-MIN KAHN 211835Z 00000KT 10SM FEW020 SCT031 BKN075 25/19 A2997 760 71 2100 000/00 RMK AO2 LTG DSNT S T02500194
13873KAHN AHN20160521134013105/21/16 13:40:31  5-MIN KAHN 211840Z 00000KT 10SM SCT023 SCT031 BKN070 25/19 A2997 770 71 2100 000/00 RMK AO2 LTG DSNT S T02500194
13873KAHN AHN20160521134512705/21/16 13:45:31  5-MIN KAHN 211845Z VRB03KT 10SM SCT021 BKN031 BKN080 25/19 A2997 770 71 2100 VRB/03 RMK AO2 SLP143 T02500194
13873KAHN AHN20160521135012005/21/16 13:50:31  5-MIN KAHN 211850Z VRB03KT 10SM FEW021 SCT029 25/19 A2996 770 68 2100 VRB/03 RMK AO2 SLP141 T02500189
13873KAHN AHN20160521135512005/21/16 13:55:31  5-MIN KAHN 211855Z 31006KT 10SM FEW022 SCT031 SCT065 26/19 A2996 770 66 2200 320/06 RMK AO2 T02560189
13873KAHN AHN20160521140012005/21/16 14:00:31  5-MIN KAHN 211900Z 29006KT 10SM FEW022 FEW031 SCT065 26/19 A2996 780 64 2300 300/06 RMK AO2 T02610189
13873KAHN AHN20160521140510605/21/16 14:05:31  5-MIN KAHN 211905Z VRB05KT 10SM FEW023 26/18 A2995 780 64 2200 VRB/05 RMK AO2 T02560183
13873KAHN AHN20160521141012205/21/16 14:10:31  5-MIN KAHN 211910Z 27007KT 240V310 10SM FEW033 26/18 A2995 780 64 2200 280/07 250V320 RMK AO2 T02560183
13873KAHN AHN20160521141512205/21/16 14:15:31  5-MIN KAHN 211915Z 27008KT 240V300 10SM FEW035 26/18 A2995 780 64 2200 270/08 250V310 RMK AO2 T02560183
13873KAHN AHN20160521142012905/21/16 14:20:31  5-MIN KAHN 211920Z 29007KT 250V330 10SM FEW034 SCT040 26/18 A2995 790 62 2300 300/07 260V340 RMK AO2 T02610183
13873KAHN AHN20160521142510605/21/16 14:25:31  5-MIN KAHN 211925Z 30006KT 10SM FEW032 26/18 A2994 790 62 2300 310/06 RMK AO2 T02610183
13873KAHN AHN20160521143010605/21/16 14:30:31  5-MIN KAHN 211930Z 28008KT 10SM SCT034 26/18 A2994 790 62 2300 280/08 RMK AO2 T02610183
13873KAHN AHN20160521143510605/21/16 14:35:31  5-MIN KAHN 211935Z VRB06KT 10SM SCT034 26/18 A2994 790 61 2200 VRB/06 RMK AO2 T02560178
13873KAHN AHN20160521144011205/21/16 14:40:31  5-MIN KAHN 211940Z 29011G17KT 10SM SCT035 26/18 A2994 790 59 2300 290/11G17 RMK AO2 T02610178
13873KAHN AHN20160521144511905/21/16 14:45:31  5-MIN KAHN 211945Z 28010G19KT 10SM FEW035 26/17 A2994 790 57 2300 290/10G19 RMK AO2 SLP132 T02610172
13873KAHN AHN20160521145013305/21/16 14:50:31  5-MIN KAHN 211950Z 28009G19KT 10SM FEW035 SCT048 SCT060 26/17 A2994 800 57 2200 290/09G19 RMK AO2 SLP131 T02560167
13873KAHN AHN20160521145513605/21/16 14:55:31  5-MIN KAHN 211955Z 32007KT 290V350 10SM FEW037 SCT046 SCT065 26/18 A2993 800 59 2300 320/07 300V360 RMK AO2 T02610178
13873KAHN AHN20160521150013605/21/16 15:00:31  5-MIN KAHN 212000Z 31007KT 270V350 10SM FEW036 FEW045 FEW065 27/18 A2993 800 60 2400 320/07 280V360 RMK AO2 T02670183
13873KAHN AHN20160521150511205/21/16 15:05:31  5-MIN KAHN 212005Z 29009G16KT 10SM FEW065 27/18 A2993 800 60 2400 290/09G16 RMK AO2 T02670183
13873KAHN AHN20160521151012605/21/16 15:10:31  5-MIN KAHN 212010Z 30012G19KT 10SM FEW038 FEW045 FEW065 26/17 A2993 800 57 2300 310/12G19 RMK AO2 T02610172
13873KAHN AHN20160521151511905/21/16 15:15:31  5-MIN KAHN 212015Z 30011G19KT 10SM FEW038 FEW065 26/16 A2993 800 53 2300 300/11G19 RMK AO2 T02610161
13873KAHN AHN20160521152012805/21/16 15:20:31  5-MIN KAHN 212020Z 28008G16KT 240V310 10SM FEW038 27/17 A2993 800 53 2400 280/08G16 250V320 RMK AO2 T02670167
13873KAHN AHN20160521152510905/21/16 15:25:31  5-MIN KAHN 212025Z 31009G16KT 10SM CLR 27/17 A2992 810 53 2400 310/09G16 RMK AO2 T02670167
13873KAHN AHN20160521153010905/21/16 15:30:31  5-MIN KAHN 212030Z 29011G17KT 10SM CLR 26/16 A2992 810 53 2300 300/11G17 RMK AO2 T02610161
13873KAHN AHN20160521153510905/21/16 15:35:31  5-MIN KAHN 212035Z 29010G17KT 10SM CLR 26/16 A2992 810 53 2300 290/10G17 RMK AO2 T02610161
13873KAHN AHN20160521154010905/21/16 15:40:31  5-MIN KAHN 212040Z 29010G16KT 10SM CLR 26/16 A2992 810 53 2300 290/10G16 RMK AO2 T02610161
13873KAHN AHN20160521154512205/21/16 15:45:31  5-MIN KAHN 212045Z 28007G15KT 10SM CLR 27/17 A2992 810 53 2400 290/07G15 RMK AO2 SLP127 T02670167 58014
13873KAHN AHN20160521155013805/21/16 15:50:31  5-MIN KAHN 212050Z 27010G15KT 240V300 10SM CLR 27/16 A2992 810 52 2400 270/10G15 250V310 RMK AO2 SLP128 T02670161 58014
13873KAHN AHN20160521155510905/21/16 15:55:31  5-MIN KAHN 212055Z 28009G19KT 10SM CLR 27/16 A2992 810 52 2400 290/09G19 RMK AO2 T02670161
13873KAHN AHN20160521160010905/21/16 16:00:31  5-MIN KAHN 212100Z 30008G19KT 10SM CLR 27/16 A2992 810 52 2400 300/08G19 RMK AO2 T02670161
13873KAHN AHN20160521160512505/21/16 16:05:31  5-MIN KAHN 212105Z 26009G18KT 230V300 10SM CLR 27/16 A2992 810 52 2400 270/09G18 240V310 RMK AO2 T02670161
13873KAHN AHN20160521161011205/21/16 16:10:31  5-MIN KAHN 212110Z 28010G18KT 10SM FEW047 27/16 A2992 810 50 2400 290/10G18 RMK AO2 T02670156
13873KAHN AHN20160521161511205/21/16 16:15:31  5-MIN KAHN 212115Z 29009G18KT 10SM SCT047 27/16 A2992 810 50 2400 290/09G18 RMK AO2 T02670156
13873KAHN AHN20160521162011305/21/16 16:20:31  5-MIN KAHN 212120Z 32008KT 10SM SCT047 SCT085 26/16 A2992 810 51 2300 320/08 RMK AO2 T02610156
13873KAHN AHN20160521162511905/21/16 16:25:31  5-MIN KAHN 212125Z 30007G19KT 10SM SCT047 BKN090 26/16 A2992 810 53 2300 310/07G19 RMK AO2 T02560156
13873KAHN AHN20160521163012605/21/16 16:30:31  5-MIN KAHN 212130Z 30011G19KT 10SM SCT047 SCT060 BKN090 26/16 A2992 810 53 2300 300/11G19 RMK AO2 T02560156
13873KAHN AHN20160521163512605/21/16 16:35:31  5-MIN KAHN 212135Z 28010G18KT 10SM SCT049 SCT060 BKN085 26/16 A2992 810 53 2300 290/10G18 RMK AO2 T02560156
13873KAHN AHN20160521164013505/21/16 16:40:31  5-MIN KAHN 212140Z 30009G17KT 260V320 10SM FEW049 BKN085 27/16 A2992 810 52 2400 310/09G17 270V330 RMK AO2 T02670161
13873KAHN AHN20160521164513305/21/16 16:45:31  5-MIN KAHN 212145Z 29010G17KT 10SM FEW049 SCT070 BKN090 26/16 A2992 810 53 2300 300/10G17 RMK AO2 SLP126 T02610161
13873KAHN AHN20160521165013305/21/16 16:50:31  5-MIN KAHN 212150Z 30009G17KT 10SM FEW050 SCT070 BKN090 25/16 A2992 810 57 2200 300/09G17 RMK AO2 SLP125 T02500161
13873KAHN AHN20160521165512605/21/16 16:55:31  5-MIN KAHN 212155Z 31009G17KT 10SM FEW065 FEW080 BKN090 26/16 A2992 810 53 2300 310/09G17 RMK AO2 T02560156
13873KAHN AHN20160521170011905/21/16 17:00:31  5-MIN KAHN 212200Z 29008G16KT 10SM FEW075 BKN090 26/16 A2991 820 53 2300 290/08G16 RMK AO2 T02560156
13873KAHN AHN20160521170511905/21/16 17:05:31  5-MIN KAHN 212205Z 28009G17KT 10SM FEW070 BKN090 26/15 A2991 820 50 2300 290/09G17 RMK AO2 T02610150
13873KAHN AHN20160521171011205/21/16 17:10:31  5-MIN KAHN 212210Z 27007G17KT 10SM SCT090 26/15 A2991 820 51 2300 280/07G17 RMK AO2 T02560150
13873KAHN AHN20160521171511905/21/16 17:15:31  5-MIN KAHN 212215Z 28009G16KT 10SM FEW075 SCT090 25/14 A2991 820 51 2200 280/09G16 RMK AO2 T02500144
13873KAHN AHN20160521172011905/21/16 17:20:31  5-MIN KAHN 212220Z 29009G16KT 10SM FEW075 SCT090 24/15 A2991 820 55 2100 300/09G16 RMK AO2 T02440150
13873KAHN AHN20160521172511905/21/16 17:25:31  5-MIN KAHN 212225Z 29009G16KT 10SM FEW075 BKN090 25/15 A2991 820 53 2200 300/09G16 RMK AO2 T02500150
13873KAHN AHN20160521173012805/21/16 17:30:31  5-MIN KAHN 212230Z 29012G18KT 240V310 10SM BKN085 26/15 A2991 820 51 2300 290/12G18 250V320 RMK AO2 T02560150
13873KAHN AHN20160521173511905/21/16 17:35:31  5-MIN KAHN 212235Z 28009G18KT 10SM FEW075 BKN090 25/14 A2991 820 51 2200 290/09G18 RMK AO2 T02500144
13873KAHN AHN20160521174013505/21/16 17:40:31  5-MIN KAHN 212240Z 29010G18KT 240V310 10SM FEW075 BKN085 26/16 A2991 820 53 2300 290/10G18 250V320 RMK AO2 T02560156
13873KAHN AHN20160521174511905/21/16 17:45:31  5-MIN KAHN 212245Z 28010G18KT 10SM SCT090 25/15 A2991 820 53 2200 290/10G18 RMK AO2 SLP121 T02500150
13873KAHN AHN20160521175011905/21/16 17:50:31  5-MIN KAHN 212250Z 29008G18KT 10SM SCT085 25/15 A2991 820 53 2200 300/08G18 RMK AO2 SLP122 T02500150
13873KAHN AHN20160521175511205/21/16 17:55:31  5-MIN KAHN 212255Z 29010G17KT 10SM SCT085 26/16 A2991 820 53 2300 290/10G17 RMK AO2 T02560156
13873KAHN AHN20160521180011205/21/16 18:00:31  5-MIN KAHN 212300Z 30010G16KT 10SM SCT085 25/16 A2991 820 55 2200 300/10G16 RMK AO2 T02500156
13873KAHN AHN20160521180511205/21/16 18:05:31  5-MIN KAHN 212305Z 28008G16KT 10SM FEW085 25/16 A2991 820 55 2200 290/08G16 RMK AO2 T02500156
13873KAHN AHN20160521181011205/21/16 18:10:31  5-MIN KAHN 212310Z 29010G17KT 10SM FEW085 25/16 A2990 830 55 2200 300/10G17 RMK AO2 T02500156
13873KAHN AHN20160521181511205/21/16 18:15:31  5-MIN KAHN 212315Z 29009G17KT 10SM FEW085 25/16 A2990 830 55 2200 290/09G17 RMK AO2 T02500156
13873KAHN AHN20160521182011205/21/16 18:20:31  5-MIN KAHN 212320Z 28010G15KT 10SM FEW085 24/16 A2990 830 57 2100 290/10G15 RMK AO2 T02440156
13873KAHN AHN20160521182511205/21/16 18:25:31  5-MIN KAHN 212325Z 28008G15KT 10SM FEW085 24/16 A2991 820 57 2100 290/08G15 RMK AO2 T02440156
13873KAHN AHN20160521183010305/21/16 18:30:31  5-MIN KAHN 212330Z 29006KT 10SM CLR 24/16 A2991 820 57 2100 300/06 RMK AO2 T02440156
13873KAHN AHN20160521183510305/21/16 18:35:31  5-MIN KAHN 212335Z 28006KT 10SM CLR 24/16 A2991 820 57 2100 290/06 RMK AO2 T02440156
13873KAHN AHN20160521184010305/21/16 18:40:31  5-MIN KAHN 212340Z 29008KT 10SM CLR 24/16 A2991 820 59 2100 300/08 RMK AO2 T02390156
13873KAHN AHN20160521184512805/21/16 18:45:31  5-MIN KAHN 212345Z 28007KT 10SM CLR 23/16 A2991 820 61 2000 290/07 RMK AO2 SLP123 T02330156 10267 20228 56023
13873KAHN AHN20160521185012805/21/16 18:50:31  5-MIN KAHN 212350Z 28005KT 10SM CLR 24/15 A2991 820 57 2100 280/05 RMK AO2 SLP123 T02390150 10267 20228 56023
13873KAHN AHN20160521185511205/21/16 18:55:31  5-MIN KAHN 212355Z 28008G16KT 10SM FEW080 24/15 A2991 820 57 2100 290/08G16 RMK AO2 T02390150
13873KAHN AHN20160521190011205/21/16 19:00:31  5-MIN KAHN 220000Z 28006G16KT 10SM FEW080 23/15 A2991 820 59 2000 290/06G16 RMK AO2 T02330150
13873KAHN AHN20160521190511105/21/16 19:05:31  5-MIN KAHN 220005Z AUTO 29007KT 10SM FEW080 23/15 A2991 820 59 2000 290/07 RMK AO2 T02330150
13873KAHN AHN20160521191011105/21/16 19:10:31  5-MIN KAHN 220010Z AUTO 29007KT 10SM FEW080 23/14 A2992 810 57 2000 300/07 RMK AO2 T02330144
13873KAHN AHN20160521191510805/21/16 19:15:31  5-MIN KAHN 220015Z AUTO VRB06KT 10SM CLR 23/14 A2992 810 59 1900 VRB/06 RMK AO2 T02280144
13873KAHN AHN20160521192010805/21/16 19:20:31  5-MIN KAHN 220020Z AUTO 30008KT 10SM CLR 23/14 A2992 810 59 1900 300/08 RMK AO2 T02280144
13873KAHN AHN20160521192510805/21/16 19:25:31  5-MIN KAHN 220025Z AUTO 29005KT 10SM CLR 23/14 A2992 810 59 1900 290/05 RMK AO2 T02280144
13873KAHN AHN20160521193010805/21/16 19:30:31  5-MIN KAHN 220030Z AUTO 29004KT 10SM CLR 22/14 A2992 810 61 1900 290/04 RMK AO2 T02220144
13873KAHN AHN20160521193510805/21/16 19:35:31  5-MIN KAHN 220035Z AUTO 29004KT 10SM CLR 22/14 A2992 810 61 1900 290/04 RMK AO2 T02220144
13873KAHN AHN20160521194010805/21/16 19:40:31  5-MIN KAHN 220040Z AUTO 29006KT 10SM CLR 22/14 A2992 810 63 1800 300/06 RMK AO2 T02170144
13873KAHN AHN20160521194511505/21/16 19:45:31  5-MIN KAHN 220045Z AUTO 30006KT 10SM CLR 22/14 A2992 810 59 1900 300/06 RMK AO2 SLP127 T02220139
13873KAHN AHN20160521195011505/21/16 19:50:31  5-MIN KAHN 220050Z AUTO 29005KT 10SM CLR 22/14 A2992 810 63 1800 290/05 RMK AO2 SLP127 T02170144
13873KAHN AHN20160521195510805/21/16 19:55:31  5-MIN KAHN 220055Z AUTO 29005KT 10SM CLR 22/14 A2992 810 63 1800 300/05 RMK AO2 T02170144
13873KAHN AHN20160521200010805/21/16 20:00:31  5-MIN KAHN 220100Z AUTO 29005KT 10SM CLR 21/14 A2992 810 65 1700 300/05 RMK AO2 T02110144
13873KAHN AHN20160521200510805/21/16 20:05:31  5-MIN KAHN 220105Z AUTO 29006KT 10SM CLR 21/14 A2992 810 65 1700 300/06 RMK AO2 T02110144
13873KAHN AHN20160521201010805/21/16 20:10:31  5-MIN KAHN 220110Z AUTO 28004KT 10SM CLR 21/14 A2992 810 65 1700 290/04 RMK AO2 T02110144
13873KAHN AHN20160521201511105/21/16 20:15:31  5-MIN KAHN 220115Z AUTO 29003KT 10SM FEW080 21/14 A2992 810 67 1700 300/03 RMK AO2 T02060144
13873KAHN AHN20160521202011105/21/16 20:20:31  5-MIN KAHN 220120Z AUTO 29005KT 10SM SCT080 21/14 A2992 810 67 1700 300/05 RMK AO2 T02060144
13873KAHN AHN20160521202511105/21/16 20:25:31  5-MIN KAHN 220125Z AUTO 29005KT 10SM SCT080 21/14 A2993 810 67 1700 300/05 RMK AO2 T02060144
13873KAHN AHN20160521203011105/21/16 20:30:31  5-MIN KAHN 220130Z AUTO 31007KT 10SM FEW080 21/14 A2993 810 65 1700 310/07 RMK AO2 T02060139
13873KAHN AHN20160521203511105/21/16 20:35:31  5-MIN KAHN 220135Z AUTO 30006KT 10SM FEW080 21/14 A2993 800 63 1700 310/06 RMK AO2 T02110139
13873KAHN AHN20160521204011105/21/16 20:40:31  5-MIN KAHN 220140Z AUTO 30007KT 10SM FEW080 21/14 A2993 800 65 1700 300/07 RMK AO2 T02060139
13873KAHN AHN20160521204511805/21/16 20:45:31  5-MIN KAHN 220145Z AUTO 30008KT 10SM FEW080 21/14 A2993 800 65 1700 300/08 RMK AO2 SLP130 T02060139
13873KAHN AHN20160521205011505/21/16 20:50:31  5-MIN KAHN 220150Z AUTO 30006KT 10SM CLR 21/14 A2993 800 65 1700 300/06 RMK AO2 SLP130 T02060139
13873KAHN AHN20160521205510805/21/16 20:55:31  5-MIN KAHN 220155Z AUTO 30006KT 10SM CLR 21/14 A2993 800 65 1700 300/06 RMK AO2 T02060139
13873KAHN AHN20160521210010805/21/16 21:00:31  5-MIN KAHN 220200Z AUTO 30007KT 10SM CLR 21/14 A2993 800 65 1700 300/07 RMK AO2 T02060139
13873KAHN AHN20160521210510805/21/16 21:05:31  5-MIN KAHN 220205Z AUTO 30007KT 10SM CLR 21/14 A2993 800 65 1700 310/07 RMK AO2 T02060139
13873KAHN AHN20160521211010805/21/16 21:10:31  5-MIN KAHN 220210Z AUTO 30008KT 10SM CLR 20/14 A2993 800 67 1600 310/08 RMK AO2 T02000139
13873KAHN AHN20160521211510805/21/16 21:15:31  5-MIN KAHN 220215Z AUTO 30006KT 10SM CLR 20/14 A2994 800 67 1600 310/06 RMK AO2 T02000139
13873KAHN AHN20160521212010805/21/16 21:20:31  5-MIN KAHN 220220Z AUTO 30006KT 10SM CLR 20/14 A2994 790 67 1600 310/06 RMK AO2 T02000139
13873KAHN AHN20160521212510805/21/16 21:25:31  5-MIN KAHN 220225Z AUTO 31005KT 10SM CLR 20/14 A2994 790 67 1600 320/05 RMK AO2 T02000139
13873KAHN AHN20160521213010805/21/16 21:30:31  5-MIN KAHN 220230Z AUTO 31005KT 10SM CLR 20/14 A2994 790 67 1600 310/05 RMK AO2 T02000139
13873KAHN AHN20160521213510805/21/16 21:35:31  5-MIN KAHN 220235Z AUTO 31005KT 10SM CLR 20/14 A2994 790 67 1600 320/05 RMK AO2 T02000139
13873KAHN AHN20160521214010805/21/16 21:40:31  5-MIN KAHN 220240Z AUTO 31004KT 10SM CLR 19/14 A2994 790 70 1500 310/04 RMK AO2 T01940139
13873KAHN AHN20160521214512105/21/16 21:45:31  5-MIN KAHN 220245Z AUTO 31005KT 10SM CLR 19/14 A2995 790 70 1500 320/05 RMK AO2 SLP136 T01940139 55005
13873KAHN AHN20160521215012105/21/16 21:50:31  5-MIN KAHN 220250Z AUTO 30005KT 10SM CLR 19/13 A2995 780 67 1500 310/05 RMK AO2 SLP137 T01940133 55005
13873KAHN AHN20160521215510805/21/16 21:55:31  5-MIN KAHN 220255Z AUTO 30005KT 10SM CLR 19/13 A2995 780 67 1500 300/05 RMK AO2 T01940133
13873KAHN AHN20160521220010805/21/16 22:00:31  5-MIN KAHN 220300Z AUTO 30004KT 10SM CLR 19/13 A2995 780 70 1500 300/04 RMK AO2 T01890133
13873KAHN AHN20160521220510805/21/16 22:05:31  5-MIN KAHN 220305Z AUTO 30004KT 10SM CLR 19/14 A2995 780 72 1500 300/04 RMK AO2 T01890139
13873KAHN AHN20160521221010805/21/16 22:10:31  5-MIN KAHN 220310Z AUTO 30006KT 10SM CLR 19/13 A2995 780 70 1500 310/06 RMK AO2 T01890133
13873KAHN AHN20160521221510805/21/16 22:15:31  5-MIN KAHN 220315Z AUTO 31005KT 10SM CLR 19/13 A2995 780 70 1500 310/05 RMK AO2 T01890133
13873KAHN AHN20160521222010805/21/16 22:20:31  5-MIN KAHN 220320Z AUTO 30005KT 10SM CLR 19/13 A2995 780 70 1500 310/05 RMK AO2 T01890133
13873KAHN AHN20160521222510805/21/16 22:25:31  5-MIN KAHN 220325Z AUTO 31006KT 10SM CLR 19/13 A2995 780 70 1500 310/06 RMK AO2 T01890133
13873KAHN AHN20160521223010805/21/16 22:30:31  5-MIN KAHN 220330Z AUTO 30004KT 10SM CLR 19/13 A2995 780 70 1500 310/04 RMK AO2 T01890133
13873KAHN AHN20160521223510805/21/16 22:35:31  5-MIN KAHN 220335Z AUTO 31004KT 10SM CLR 19/13 A2995 780 70 1500 320/04 RMK AO2 T01890133
13873KAHN AHN20160521224010805/21/16 22:40:31  5-MIN KAHN 220340Z AUTO 31003KT 10SM CLR 19/13 A2995 780 70 1500 310/03 RMK AO2 T01890133
13873KAHN AHN20160521224511505/21/16 22:45:31  5-MIN KAHN 220345Z AUTO 31004KT 10SM CLR 18/13 A2995 780 72 1400 310/04 RMK AO2 SLP139 T01830133
13873KAHN AHN20160521225011505/21/16 22:50:31  5-MIN KAHN 220350Z AUTO 30004KT 10SM CLR 18/13 A2995 780 75 1300 310/04 RMK AO2 SLP138 T01780133
13873KAHN AHN20160521225510805/21/16 22:55:31  5-MIN KAHN 220355Z AUTO 31004KT 10SM CLR 18/13 A2995 780 75 1300 320/04 RMK AO2 T01780133
13873KAHN AHN20160521230010805/21/16 23:00:31  5-MIN KAHN 220400Z AUTO 30005KT 10SM CLR 18/13 A2995 780 75 1300 310/05 RMK AO2 T01780133
13873KAHN AHN20160521230510805/21/16 23:05:31  5-MIN KAHN 220405Z AUTO 29005KT 10SM CLR 18/13 A2995 780 75 1300 290/05 RMK AO2 T01780133
13873KAHN AHN20160521231010805/21/16 23:10:31  5-MIN KAHN 220410Z AUTO 29005KT 10SM CLR 17/13 A2995 780 78 1300 290/05 RMK AO2 T01720133
13873KAHN AHN20160521231510805/21/16 23:15:31  5-MIN KAHN 220415Z AUTO 29004KT 10SM CLR 17/13 A2995 780 78 1300 290/04 RMK AO2 T01720133
13873KAHN AHN20160521232010805/21/16 23:20:31  5-MIN KAHN 220420Z AUTO 29005KT 10SM CLR 17/13 A2995 780 78 1300 300/05 RMK AO2 T01720133
13873KAHN AHN20160521232510805/21/16 23:25:31  5-MIN KAHN 220425Z AUTO 29004KT 10SM CLR 17/13 A2995 790 78 1300 290/04 RMK AO2 T01720133
13873KAHN AHN20160521233010805/21/16 23:30:31  5-MIN KAHN 220430Z AUTO 29004KT 10SM CLR 17/13 A2995 780 78 1300 300/04 RMK AO2 T01720133
13873KAHN AHN20160521233510805/21/16 23:35:31  5-MIN KAHN 220435Z AUTO 31003KT 10SM CLR 17/13 A2995 780 80 1200 310/03 RMK AO2 T01670133
13873KAHN AHN20160521234010805/21/16 23:40:31  5-MIN KAHN 220440Z AUTO 30004KT 10SM CLR 17/13 A2995 780 80 1200 310/04 RMK AO2 T01670133
13873KAHN AHN20160521234512505/21/16 23:45:31  5-MIN KAHN 220445Z AUTO 29004KT 10SM CLR 17/13 A2995 790 80 1200 300/04 RMK AO2 SLP136 T01670133 402670156
13873KAHN AHN20160521235012505/21/16 23:50:31  5-MIN KAHN 220450Z AUTO 30003KT 10SM CLR 17/13 A2995 790 80 1200 310/03 RMK AO2 SLP136 T01670133 402670156
13873KAHN AHN20160521235510805/21/16 23:55:31  5-MIN KAHN 220455Z AUTO 30004KT 10SM CLR 17/13 A2995 790 80 1200 310/04 RMK AO2 T01670133
13873KAHN AHN20160522000010805/22/16 00:00:31  5-MIN KAHN 220500Z AUTO 29005KT 10SM CLR 16/13 A2995 790 83 1100 290/05 RMK AO2 T01610133
13873KAHN AHN20160522000510805/22/16 00:05:31  5-MIN KAHN 220505Z AUTO 29004KT 10SM CLR 16/13 A2994 790 83 1100 300/04 RMK AO2 T01610133
13873KAHN AHN20160522001010805/22/16 00:10:31  5-MIN KAHN 220510Z AUTO 29004KT 10SM CLR 17/13 A2994 790 77 1200 290/04 RMK AO2 T01670128
13873KAHN AHN20160522001510805/22/16 00:15:31  5-MIN KAHN 220515Z AUTO 29004KT 10SM CLR 17/13 A2994 790 77 1200 290/04 RMK AO2 T01670128
13873KAHN AHN20160522002010805/22/16 00:20:31  5-MIN KAHN 220520Z AUTO 29004KT 10SM CLR 17/13 A2994 790 77 1200 300/04 RMK AO2 T01670128
13873KAHN AHN20160522002510805/22/16 00:25:31  5-MIN KAHN 220525Z AUTO 29005KT 10SM CLR 16/13 A2994 800 80 1200 290/05 RMK AO2 T01610128
13873KAHN AHN20160522003010805/22/16 00:30:31  5-MIN KAHN 220530Z AUTO 28005KT 10SM CLR 16/13 A2993 800 80 1200 280/05 RMK AO2 T01610128
13873KAHN AHN20160522003510805/22/16 00:35:31  5-MIN KAHN 220535Z AUTO 27005KT 10SM CLR 16/13 A2993 800 80 1200 280/05 RMK AO2 T01610128
13873KAHN AHN20160522004010805/22/16 00:40:31  5-MIN KAHN 220540Z AUTO 28004KT 10SM CLR 16/13 A2994 800 80 1200 290/04 RMK AO2 T01610128
13873KAHN AHN20160522004513305/22/16 00:45:31  5-MIN KAHN 220545Z AUTO 29004KT 10SM CLR 16/13 A2993 800 80 1200 290/04 RMK AO2 SLP132 T01610128 10239 20161 53014
13873KAHN AHN20160522005013305/22/16 00:50:31  5-MIN KAHN 220550Z AUTO 29005KT 10SM CLR 16/13 A2994 800 80 1200 300/05 RMK AO2 SLP133 T01610128 10239 20161 53014
13873KAHN AHN20160522005510805/22/16 00:55:31  5-MIN KAHN 220555Z AUTO 30004KT 10SM CLR 16/13 A2993 800 80 1200 300/04 RMK AO2 T01610128
13873KAHN AHN20160522010010805/22/16 01:00:31  5-MIN KAHN 220600Z AUTO 30005KT 10SM CLR 16/13 A2993 800 80 1200 300/05 RMK AO2 T01610128
13873KAHN AHN20160522010510805/22/16 01:05:31  5-MIN KAHN 220605Z AUTO 31005KT 10SM CLR 16/12 A2993 800 77 1200 310/05 RMK AO2 T01610122
13873KAHN AHN20160522011010805/22/16 01:10:31  5-MIN KAHN 220610Z AUTO 30005KT 10SM CLR 16/12 A2993 800 77 1200 300/05 RMK AO2 T01610122
13873KAHN AHN20160522011510805/22/16 01:15:31  5-MIN KAHN 220615Z AUTO 30005KT 10SM CLR 16/12 A2993 800 77 1200 300/05 RMK AO2 T01610122
13873KAHN AHN20160522012010805/22/16 01:20:31  5-MIN KAHN 220620Z AUTO 29005KT 10SM CLR 16/12 A2992 810 80 1100 300/05 RMK AO2 T01560122
13873KAHN AHN20160522012510805/22/16 01:25:31  5-MIN KAHN 220625Z AUTO 29005KT 10SM CLR 16/12 A2992 810 80 1100 300/05 RMK AO2 T01560122
13873KAHN AHN20160522013010805/22/16 01:30:31  5-MIN KAHN 220630Z AUTO 30004KT 10SM CLR 16/12 A2992 810 80 1100 300/04 RMK AO2 T01560122
13873KAHN AHN20160522013510805/22/16 01:35:31  5-MIN KAHN 220635Z AUTO 29004KT 10SM CLR 16/12 A2991 820 80 1100 290/04 RMK AO2 T01560122
13873KAHN AHN20160522014010805/22/16 01:40:31  5-MIN KAHN 220640Z AUTO 29004KT 10SM CLR 15/12 A2991 820 83 1000 300/04 RMK AO2 T01500122
13873KAHN AHN20160522014511505/22/16 01:45:31  5-MIN KAHN 220645Z AUTO 30005KT 10SM CLR 16/12 A2991 820 80 1100 300/05 RMK AO2 SLP125 T01560122
13873KAHN AHN20160522015011505/22/16 01:50:31  5-MIN KAHN 220650Z AUTO 30005KT 10SM CLR 16/12 A2992 820 80 1100 300/05 RMK AO2 SLP125 T01560122
13873KAHN AHN20160522015510805/22/16 01:55:31  5-MIN KAHN 220655Z AUTO 30004KT 10SM CLR 16/12 A2991 820 80 1100 310/04 RMK AO2 T01560122
13873KAHN AHN20160522020010805/22/16 02:00:31  5-MIN KAHN 220700Z AUTO 31006KT 10SM CLR 16/12 A2991 820 80 1100 310/06 RMK AO2 T01560122
13873KAHN AHN20160522020510805/22/16 02:05:31  5-MIN KAHN 220705Z AUTO 29005KT 10SM CLR 15/12 A2991 820 83 1100 300/05 RMK AO2 T01500122
13873KAHN AHN20160522021010805/22/16 02:10:31  5-MIN KAHN 220710Z AUTO 30005KT 10SM CLR 15/12 A2991 820 83 1100 310/05 RMK AO2 T01500122
13873KAHN AHN20160522021510805/22/16 02:15:31  5-MIN KAHN 220715Z AUTO 30005KT 10SM CLR 15/12 A2991 820 83 1100 310/05 RMK AO2 T01500122
13873KAHN AHN20160522022010805/22/16 02:20:31  5-MIN KAHN 220720Z AUTO 29004KT 10SM CLR 15/12 A2991 820 83 1100 300/04 RMK AO2 T01500122
13873KAHN AHN20160522022510805/22/16 02:25:31  5-MIN KAHN 220725Z AUTO 29005KT 10SM CLR 14/12 A2991 820 86 1000 300/05 RMK AO2 T01440122
13873KAHN AHN20160522023010805/22/16 02:30:31  5-MIN KAHN 220730Z AUTO 30005KT 10SM CLR 14/12 A2991 820 86 1000 300/05 RMK AO2 T01440122
13873KAHN AHN20160522023510805/22/16 02:35:31  5-MIN KAHN 220735Z AUTO 30005KT 10SM CLR 14/12 A2991 820 86 1000 310/05 RMK AO2 T01440122
13873KAHN AHN20160522024010805/22/16 02:40:31  5-MIN KAHN 220740Z AUTO 29005KT 10SM CLR 14/12 A2991 820 86 1000 300/05 RMK AO2 T01440122
13873KAHN AHN20160522024511505/22/16 02:45:31  5-MIN KAHN 220745Z AUTO 29004KT 10SM CLR 14/12 A2991 820 86 1000 290/04 RMK AO2 SLP121 T01440122
13873KAHN AHN20160522025011505/22/16 02:50:31  5-MIN KAHN 220750Z AUTO 29004KT 10SM CLR 14/12 A2990 820 86 1000 300/04 RMK AO2 SLP122 T01440122
13873KAHN AHN20160522025510705/22/16 02:55:31  5-MIN KAHN 220755Z AUTO 29004KT 10SM CLR 14/12 A2990 830 90 900 300/04 RMK AO2 T01390122
13873KAHN AHN20160522030010705/22/16 03:00:31  5-MIN KAHN 220800Z AUTO 30004KT 10SM CLR 14/12 A2990 830 90 900 300/04 RMK AO2 T01390122
13873KAHN AHN20160522030510705/22/16 03:05:31  5-MIN KAHN 220805Z AUTO 30004KT 10SM CLR 14/12 A2990 830 90 900 300/04 RMK AO2 T01390122
13873KAHN AHN20160522031010705/22/16 03:10:31  5-MIN KAHN 220810Z AUTO VRB04KT 10SM CLR 14/12 A2990 830 90 900 VRB/04 RMK AO2 T01390122
13873KAHN AHN20160522031510705/22/16 03:15:31  5-MIN KAHN 220815Z AUTO 29004KT 10SM CLR 14/12 A2990 830 90 900 300/04 RMK AO2 T01390122
13873KAHN AHN20160522032010705/22/16 03:20:31  5-MIN KAHN 220820Z AUTO 29005KT 10SM CLR 14/12 A2991 820 86 900 300/05 RMK AO2 T01390117
13873KAHN AHN20160522032510705/22/16 03:25:31  5-MIN KAHN 220825Z AUTO 29004KT 10SM CLR 14/12 A2991 820 86 900 300/04 RMK AO2 T01390117
13873KAHN AHN20160522033010705/22/16 03:30:31  5-MIN KAHN 220830Z AUTO 30005KT 10SM CLR 14/12 A2991 820 86 900 310/05 RMK AO2 T01390117
13873KAHN AHN20160522033510705/22/16 03:35:31  5-MIN KAHN 220835Z AUTO 31006KT 10SM CLR 14/12 A2991 820 86 900 310/06 RMK AO2 T01390117
13873KAHN AHN20160522034010705/22/16 03:40:31  5-MIN KAHN 220840Z AUTO 30006KT 10SM CLR 14/12 A2991 820 86 900 310/06 RMK AO2 T01390117
13873KAHN AHN20160522034512005/22/16 03:45:31  5-MIN KAHN 220845Z AUTO 30006KT 10SM CLR 14/12 A2991 820 86 900 310/06 RMK AO2 SLP122 T01390117 58005
13873KAHN AHN20160522035012005/22/16 03:50:31  5-MIN KAHN 220850Z AUTO 31005KT 10SM CLR 14/12 A2991 820 86 900 310/05 RMK AO2 SLP123 T01390117 58005
13873KAHN AHN20160522035510705/22/16 03:55:31  5-MIN KAHN 220855Z AUTO 30004KT 10SM CLR 14/12 A2991 820 86 900 310/04 RMK AO2 T01390117
13873KAHN AHN20160522040010705/22/16 04:00:31  5-MIN KAHN 220900Z AUTO 31004KT 10SM CLR 14/12 A2991 820 86 900 310/04 RMK AO2 T01390117
13873KAHN AHN20160522040510705/22/16 04:05:31  5-MIN KAHN 220905Z AUTO 31005KT 10SM CLR 13/12 A2991 820 89 900 310/05 RMK AO2 T01330117
13873KAHN AHN20160522041010705/22/16 04:10:31  5-MIN KAHN 220910Z AUTO 31005KT 10SM CLR 14/12 A2991 820 86 900 310/05 RMK AO2 T01390117
13873KAHN AHN20160522041510705/22/16 04:15:31  5-MIN KAHN 220915Z AUTO 32004KT 10SM CLR 13/12 A2991 820 89 900 320/04 RMK AO2 T01330117
13873KAHN AHN20160522042010705/22/16 04:20:31  5-MIN KAHN 220920Z AUTO 31005KT 10SM CLR 14/12 A2991 820 86 900 320/05 RMK AO2 T01390117
13873KAHN AHN20160522042510705/22/16 04:25:31  5-MIN KAHN 220925Z AUTO 32004KT 10SM CLR 14/12 A2991 820 86 900 320/04 RMK AO2 T01390117
13873KAHN AHN20160522043010705/22/16 04:30:31  5-MIN KAHN 220930Z AUTO 31005KT 10SM CLR 13/12 A2991 820 89 800 320/05 RMK AO2 T01330117
13873KAHN AHN20160522043510705/22/16 04:35:31  5-MIN KAHN 220935Z AUTO 31004KT 10SM CLR 13/12 A2991 820 89 800 320/04 RMK AO2 T01330117
13873KAHN AHN20160522044010705/22/16 04:40:31  5-MIN KAHN 220940Z AUTO 31005KT 10SM CLR 13/12 A2992 810 89 800 310/05 RMK AO2 T01330117
13873KAHN AHN20160522044511405/22/16 04:45:31  5-MIN KAHN 220945Z AUTO 31005KT 10SM CLR 13/12 A2992 810 89 800 310/05 RMK AO2 SLP126 T01330117
13873KAHN AHN20160522045011405/22/16 04:50:31  5-MIN KAHN 220950Z AUTO 31005KT 10SM CLR 13/12 A2991 820 89 800 310/05 RMK AO2 SLP125 T01330117
13873KAHN AHN20160522045510705/22/16 04:55:31  5-MIN KAHN 220955Z AUTO 31006KT 10SM CLR 13/12 A2992 810 89 800 310/06 RMK AO2 T01330117
13873KAHN AHN20160522050010705/22/16 05:00:31  5-MIN KAHN 221000Z AUTO 30006KT 10SM CLR 13/12 A2992 810 89 800 310/06 RMK AO2 T01330117
13873KAHN AHN20160522050510705/22/16 05:05:31  5-MIN KAHN 221005Z AUTO 31005KT 10SM CLR 13/12 A2992 820 89 800 310/05 RMK AO2 T01330117
13873KAHN AHN20160522051010705/22/16 05:10:31  5-MIN KAHN 221010Z AUTO 31005KT 10SM CLR 13/12 A2992 810 89 800 310/05 RMK AO2 T01330117
13873KAHN AHN20160522051510705/22/16 05:15:31  5-MIN KAHN 221015Z AUTO 31004KT 10SM CLR 13/12 A2992 810 89 800 310/04 RMK AO2 T01330117
13873KAHN AHN20160522052010705/22/16 05:20:31  5-MIN KAHN 221020Z AUTO 31004KT 10SM CLR 13/12 A2992 810 89 800 320/04 RMK AO2 T01330117
13873KAHN AHN20160522052510705/22/16 05:25:31  5-MIN KAHN 221025Z AUTO 31004KT 10SM CLR 13/12 A2992 810 89 800 310/04 RMK AO2 T01330117
13873KAHN AHN20160522053010705/22/16 05:30:31  5-MIN KAHN 221030Z AUTO 32005KT 10SM CLR 13/12 A2992 810 89 800 320/05 RMK AO2 T01330117
13873KAHN AHN20160522053510705/22/16 05:35:31  5-MIN KAHN 221035Z AUTO 32005KT 10SM CLR 13/12 A2992 810 89 800 320/05 RMK AO2 T01330117
13873KAHN AHN20160522054010705/22/16 05:40:31  5-MIN KAHN 221040Z AUTO 31005KT 10SM CLR 13/12 A2993 810 89 800 310/05 RMK AO2 T01330117
13873KAHN AHN20160522054511405/22/16 05:45:31  5-MIN KAHN 221045Z AUTO 31005KT 10SM CLR 13/12 A2993 800 89 800 320/05 RMK AO2 SLP130 T01330117
13873KAHN AHN20160522055011405/22/16 05:50:31  5-MIN KAHN 221050Z AUTO 31005KT 10SM CLR 13/12 A2993 800 89 800 320/05 RMK AO2 SLP130 T01330117
13873KAHN AHN20160522055510705/22/16 05:55:31  5-MIN KAHN 221055Z AUTO 31005KT 10SM CLR 13/12 A2993 800 89 800 310/05 RMK AO2 T01330117
13873KAHN AHN20160522060010705/22/16 06:00:31  5-MIN KAHN 221100Z AUTO 30004KT 10SM CLR 13/12 A2993 800 89 800 310/04 RMK AO2 T01330117
13873KAHN AHN20160522060510705/22/16 06:05:31  5-MIN KAHN 221105Z AUTO 31004KT 10SM CLR 14/12 A2993 800 86 900 310/04 RMK AO2 T01390117
13873KAHN AHN20160522061010705/22/16 06:10:31  5-MIN KAHN 221110Z AUTO 31004KT 10SM CLR 14/12 A2993 800 90 900 310/04 RMK AO2 T01390122
13873KAHN AHN20160522061510705/22/16 06:15:31  5-MIN KAHN 221115Z AUTO 30004KT 10SM CLR 14/12 A2993 800 90 900 300/04 RMK AO2 T01390122
13873KAHN AHN20160522062010805/22/16 06:20:31  5-MIN KAHN 221120Z AUTO 31003KT 10SM CLR 14/12 A2993 800 86 1000 310/03 RMK AO2 T01440122
13873KAHN AHN20160522062510305/22/16 06:25:31  5-MIN KAHN 221125Z 31005KT 10SM CLR 14/12 A2993 800 86 1000 310/05 RMK AO2 T01440122
13873KAHN AHN20160522063010305/22/16 06:30:31  5-MIN KAHN 221130Z 32004KT 10SM CLR 14/12 A2993 800 86 1000 320/04 RMK AO2 T01440122
13873KAHN AHN20160522063510305/22/16 06:35:31  5-MIN KAHN 221135Z 32005KT 10SM CLR 15/12 A2993 800 83 1000 320/05 RMK AO2 T01500122
13873KAHN AHN20160522064010305/22/16 06:40:31  5-MIN KAHN 221140Z 32005KT 10SM CLR 15/12 A2993 800 83 1000 320/05 RMK AO2 T01500122
13873KAHN AHN20160522064513405/22/16 06:45:31  5-MIN KAHN 221145Z 32005KT 10SM CLR 15/12 A2994 800 83 1000 320/05 RMK AO2 SLP133 70001 T01500122 10161 20133 55008
13873KAHN AHN20160522065013405/22/16 06:50:31  5-MIN KAHN 221150Z 31006KT 10SM CLR 15/12 A2993 800 83 1000 310/06 RMK AO2 SLP132 70001 T01500122 10161 20133 55008
13873KAHN AHN20160522065510305/22/16 06:55:31  5-MIN KAHN 221155Z 32006KT 10SM CLR 16/12 A2993 800 80 1100 330/06 RMK AO2 T01560122
13873KAHN AHN20160522070010305/22/16 07:00:31  5-MIN KAHN 221200Z 32007KT 10SM CLR 16/12 A2993 800 80 1100 320/07 RMK AO2 T01560122
13873KAHN AHN20160522070510305/22/16 07:05:31  5-MIN KAHN 221205Z 32006KT 10SM CLR 16/12 A2993 810 80 1100 320/06 RMK AO2 T01560122
13873KAHN AHN20160522071010305/22/16 07:10:31  5-MIN KAHN 221210Z 32006KT 10SM CLR 16/12 A2993 800 80 1100 330/06 RMK AO2 T01560122
13873KAHN AHN20160522071510305/22/16 07:15:31  5-MIN KAHN 221215Z 31006KT 10SM CLR 16/12 A2993 810 77 1200 320/06 RMK AO2 T01610122
13873KAHN AHN20160522072010305/22/16 07:20:31  5-MIN KAHN 221220Z 32005KT 10SM CLR 16/12 A2993 800 77 1200 330/05 RMK AO2 T01610122
13873KAHN AHN20160522072510305/22/16 07:25:31  5-MIN KAHN 221225Z 31007KT 10SM CLR 17/13 A2993 800 77 1200 310/07 RMK AO2 T01670128
13873KAHN AHN20160522073010305/22/16 07:30:31  5-MIN KAHN 221230Z 31005KT 10SM CLR 17/13 A2994 800 77 1200 320/05 RMK AO2 T01670128
13873KAHN AHN20160522073510305/22/16 07:35:31  5-MIN KAHN 221235Z 32006KT 10SM CLR 17/13 A2993 800 75 1300 320/06 RMK AO2 T01720128
13873KAHN AHN20160522074010305/22/16 07:40:31  5-MIN KAHN 221240Z 32007KT 10SM CLR 17/13 A2994 800 75 1300 330/07 RMK AO2 T01720128
13873KAHN AHN20160522074511005/22/16 07:45:31  5-MIN KAHN 221245Z 31006KT 10SM CLR 18/13 A2994 790 72 1300 320/06 RMK AO2 SLP133 T01780128
13873KAHN AHN20160522075011005/22/16 07:50:31  5-MIN KAHN 221250Z 32006KT 10SM CLR 18/13 A2994 790 72 1300 330/06 RMK AO2 SLP133 T01780128
13873KAHN AHN20160522075510305/22/16 07:55:31  5-MIN KAHN 221255Z 32007KT 10SM CLR 18/12 A2994 790 69 1300 320/07 RMK AO2 T01780122
13873KAHN AHN20160522080010305/22/16 08:00:31  5-MIN KAHN 221300Z 32005KT 10SM CLR 18/13 A2994 790 70 1400 330/05 RMK AO2 T01830128
13873KAHN AHN20160522080510305/22/16 08:05:31  5-MIN KAHN 221305Z 31007KT 10SM CLR 18/12 A2994 790 67 1400 320/07 RMK AO2 T01830122
13873KAHN AHN20160522081010305/22/16 08:10:31  5-MIN KAHN 221310Z 31007KT 10SM CLR 19/13 A2994 790 67 1500 320/07 RMK AO2 T01890128
13873KAHN AHN20160522081510305/22/16 08:15:31  5-MIN KAHN 221315Z VRB06KT 10SM CLR 19/13 A2994 790 67 1500 VRB/06 RMK AO2 T01890128
13873KAHN AHN20160522082010305/22/16 08:20:31  5-MIN KAHN 221320Z 33005KT 10SM CLR 19/13 A2994 790 67 1500 330/05 RMK AO2 T01890128
13873KAHN AHN20160522082510305/22/16 08:25:31  5-MIN KAHN 221325Z 34005KT 10SM CLR 19/13 A2994 790 67 1500 350/05 RMK AO2 T01890128
13873KAHN AHN20160522083010305/22/16 08:30:31  5-MIN KAHN 221330Z VRB04KT 10SM CLR 19/13 A2994 790 65 1500 VRB/04 RMK AO2 T01940128
13873KAHN AHN20160522083510305/22/16 08:35:31  5-MIN KAHN 221335Z 32006KT 10SM CLR 20/13 A2994 790 63 1600 320/06 RMK AO2 T02000128
13873KAHN AHN20160522084010305/22/16 08:40:31  5-MIN KAHN 221340Z 33007KT 10SM CLR 20/12 A2994 790 60 1600 340/07 RMK AO2 T02000122
13873KAHN AHN20160522084511005/22/16 08:45:31  5-MIN KAHN 221345Z VRB06KT 10SM CLR 19/12 A2994 790 62 1500 VRB/06 RMK AO2 SLP134 T01940122
13873KAHN AHN20160522085011005/22/16 08:50:31  5-MIN KAHN 221350Z VRB06KT 10SM CLR 20/12 A2994 790 60 1600 VRB/06 RMK AO2 SLP133 T02000122
13873KAHN AHN20160522085510305/22/16 08:55:31  5-MIN KAHN 221355Z 34006KT 10SM CLR 21/12 A2994 790 58 1700 350/06 RMK AO2 T02060122
13873KAHN AHN20160522090010305/22/16 09:00:31  5-MIN KAHN 221400Z VRB05KT 10SM CLR 21/12 A2994 790 58 1700 VRB/05 RMK AO2 T02060122
13873KAHN AHN20160522090510305/22/16 09:05:31  5-MIN KAHN 221405Z VRB06KT 10SM CLR 21/12 A2994 790 56 1700 VRB/06 RMK AO2 T02060117
13873KAHN AHN20160522091011905/22/16 09:10:31  5-MIN KAHN 221410Z 35007KT 310V050 10SM CLR 21/12 A2994 790 56 1700 360/07 320V060 RMK AO2 T02110122
13873KAHN AHN20160522091510305/22/16 09:15:31  5-MIN KAHN 221415Z 36005KT 10SM CLR 22/12 A2994 790 54 1800 360/05 RMK AO2 T02170122
13873KAHN AHN20160522092010905/22/16 09:20:31  5-MIN KAHN 221420Z VRB05G15KT 10SM CLR 22/12 A2994 790 52 1800 VRB/05G15 RMK AO2 T02170117
13873KAHN AHN20160522092510905/22/16 09:25:31  5-MIN KAHN 221425Z 35007G15KT 10SM CLR 22/12 A2994 790 52 1800 350/07G15 RMK AO2 T02170117
13873KAHN AHN20160522093012505/22/16 09:30:31  5-MIN KAHN 221430Z 34007G15KT 300V010 10SM CLR 22/11 A2994 790 50 1800 340/07G15 310V020 RMK AO2 T02170111
13873KAHN AHN20160522093510905/22/16 09:35:31  5-MIN KAHN 221435Z 01009G17KT 10SM CLR 22/11 A2995 790 50 1800 020/09G17 RMK AO2 T02170111
13873KAHN AHN20160522094010905/22/16 09:40:31  5-MIN KAHN 221440Z 36007G17KT 10SM CLR 22/11 A2995 780 50 1800 360/07G17 RMK AO2 T02170111
13873KAHN AHN20160522094513805/22/16 09:45:31  5-MIN KAHN 221445Z 01008G16KT 340V050 10SM CLR 22/11 A2995 780 49 1800 010/08G16 350V060 RMK AO2 SLP137 T02220111 52008
13873KAHN AHN20160522095011605/22/16 09:50:31  5-MIN KAHN 221450Z 35008KT 10SM CLR 22/11 A2995 780 49 1800 360/08 RMK AO2 SLP138 T02220111 52008
13873KAHN AHN20160522095510305/22/16 09:55:31  5-MIN KAHN 221455Z VRB06KT 10SM CLR 23/12 A2996 780 49 1900 VRB/06 RMK AO2 T02280117
13873KAHN AHN20160522100011205/22/16 10:00:31  5-MIN KAHN 221500Z 34011G15KT 10SM FEW045 22/11 A2995 780 49 1800 340/11G15 RMK AO2 T02220111
13873KAHN AHN20160522100511205/22/16 10:05:31  5-MIN KAHN 221505Z 36007G15KT 10SM FEW045 22/11 A2995 780 50 1800 360/07G15 RMK AO2 T02170111
13873KAHN AHN20160522101012205/22/16 10:10:31  5-MIN KAHN 221510Z 36007KT 330V030 10SM FEW046 22/11 A2995 780 47 1800 360/07 340V040 RMK AO2 T02220106
13873KAHN AHN20160522101511205/22/16 10:15:31  5-MIN KAHN 221515Z 36010G20KT 10SM FEW048 22/11 A2995 780 49 1800 010/10G20 RMK AO2 T02220111
13873KAHN AHN20160522102011205/22/16 10:20:31  5-MIN KAHN 221520Z 03008G20KT 10SM FEW048 23/11 A2995 780 45 1900 030/08G20 RMK AO2 T02280106
13873KAHN AHN20160522102512805/22/16 10:25:31  5-MIN KAHN 221525Z 36008G16KT 320V060 10SM FEW048 23/11 A2995 780 45 1900 010/08G16 330V070 RMK AO2 T02280106
13873KAHN AHN20160522103011205/22/16 10:30:31  5-MIN KAHN 221530Z 36008G16KT 10SM FEW048 23/11 A2995 780 44 2000 360/08G16 RMK AO2 T02330106
13873KAHN AHN20160522103511205/22/16 10:35:31  5-MIN KAHN 221535Z 01008G15KT 10SM FEW048 23/11 A2995 780 45 1900 010/08G15 RMK AO2 T02280106
13873KAHN AHN20160522104011205/22/16 10:40:31  5-MIN KAHN 221540Z 02007G15KT 10SM FEW048 23/10 A2995 780 44 1900 030/07G15 RMK AO2 T02280100
13873KAHN AHN20160522104511005/22/16 10:45:31  5-MIN KAHN 221545Z VRB05KT 10SM CLR 23/11 A2995 780 44 2000 VRB/05 RMK AO2 SLP137 T02330106
13873KAHN AHN20160522105011605/22/16 10:50:31  5-MIN KAHN 221550Z 02009G15KT 10SM CLR 24/11 A2995 780 42 2000 030/09G15 RMK AO2 SLP137 T02390106
13873KAHN AHN20160522105510905/22/16 10:55:31  5-MIN KAHN 221555Z 01008G16KT 10SM CLR 23/11 A2995 780 44 2000 010/08G16 RMK AO2 T02330106
13873KAHN AHN20160522110012505/22/16 11:00:31  5-MIN KAHN 221600Z 01008G16KT 330V050 10SM CLR 23/11 A2995 780 44 2000 010/08G16 340V060 RMK AO2 T02330106
13873KAHN AHN20160522110512805/22/16 11:05:31  5-MIN KAHN 221605Z 01007G17KT 330V060 10SM FEW050 23/10 A2995 780 42 2000 010/07G17 340V070 RMK AO2 T02330100
13873KAHN AHN20160522111011205/22/16 11:10:31  5-MIN KAHN 221610Z 02007G17KT 10SM FEW055 23/10 A2995 780 44 1900 020/07G17 RMK AO2 T02280100
13873KAHN AHN20160522111510605/22/16 11:15:31  5-MIN KAHN 221615Z 05009KT 10SM SCT055 23/10 A2995 780 42 2000 050/09 RMK AO2 T02330100
13873KAHN AHN20160522112012205/22/16 11:20:31  5-MIN KAHN 221620Z 04008KT 360V070 10SM SCT055 24/11 A2995 780 42 2000 040/08 010V080 RMK AO2 T02390106
13873KAHN AHN20160522112511205/22/16 11:25:31  5-MIN KAHN 221625Z VRB06G15KT 10SM BKN055 23/10 A2995 780 44 1900 VRB/06G15 RMK AO2 T02280100
13873KAHN AHN20160522113011205/22/16 11:30:31  5-MIN KAHN 221630Z 01010G17KT 10SM SCT055 23/10 A2994 790 42 2000 010/10G17 RMK AO2 T02330100
13873KAHN AHN20160522113511205/22/16 11:35:31  5-MIN KAHN 221635Z 04007G17KT 10SM SCT055 24/11 A2995 790 42 2100 040/07G17 RMK AO2 T02440111
13873KAHN AHN20160522114012805/22/16 11:40:31  5-MIN KAHN 221640Z 04007G16KT 350V090 10SM FEW055 24/11 A2994 790 41 2100 050/07G16 360V100 RMK AO2 T02440106
13873KAHN AHN20160522114511905/22/16 11:45:31  5-MIN KAHN 221645Z VRB06G16KT 10SM FEW055 24/11 A2994 790 42 2000 VRB/06G16 RMK AO2 SLP134 T02390106
13873KAHN AHN20160522115012905/22/16 11:50:31  5-MIN KAHN 221650Z 01008KT 350V050 10SM FEW055 24/11 A2994 790 41 2100 020/08 360V060 RMK AO2 SLP133 T02440106
13873KAHN AHN20160522115511905/22/16 11:55:31  5-MIN KAHN 221655Z 02008KT 350V050 10SM CLR 24/11 A2994 800 41 2100 020/08 360V060 RMK AO2 T02440106
13873KAHN AHN20160522120010305/22/16 12:00:31  5-MIN KAHN 221700Z 03008KT 10SM CLR 24/11 A2994 800 41 2100 040/08 RMK AO2 T02440106
13873KAHN AHN20160522120510305/22/16 12:05:31  5-MIN KAHN 221705Z 01005KT 10SM CLR 24/09 A2994 800 38 2100 010/05 RMK AO2 T02440094
13873KAHN AHN20160522121011905/22/16 12:10:31  5-MIN KAHN 221710Z 35007KT 320V020 10SM CLR 24/09 A2994 790 38 2100 350/07 330V030 RMK AO2 T02440094
13873KAHN AHN20160522121510305/22/16 12:15:31  5-MIN KAHN 221715Z 03010KT 10SM CLR 25/10 A2994 790 38 2200 040/10 RMK AO2 T02500100
13873KAHN AHN20160522122010605/22/16 12:20:31  5-MIN KAHN 221720Z VRB06KT 10SM FEW065 24/09 A2994 790 38 2100 VRB/06 RMK AO2 T02440094
13873KAHN AHN20160522122510605/22/16 12:25:31  5-MIN KAHN 221725Z 36007KT 10SM FEW060 24/10 A2994 790 39 2100 010/07 RMK AO2 T02440100
13873KAHN AHN20160522123010605/22/16 12:30:31  5-MIN KAHN 221730Z VRB03KT 10SM FEW060 24/10 A2994 800 39 2100 VRB/03 RMK AO2 T02440100
13873KAHN AHN20160522123512205/22/16 12:35:31  5-MIN KAHN 221735Z 33007KT 310V020 10SM FEW060 25/10 A2994 800 38 2200 340/07 320V030 RMK AO2 T02500100
13873KAHN AHN20160522124010605/22/16 12:40:31  5-MIN KAHN 221740Z VRB05KT 10SM FEW060 25/11 A2993 800 39 2200 VRB/05 RMK AO2 T02500106
13873KAHN AHN20160522124513105/22/16 12:45:31  5-MIN KAHN 221745Z VRB04KT 10SM FEW060 25/10 A2993 800 38 2200 VRB/04 RMK AO2 SLP130 T02500100 10256 20156 53007
13873KAHN AHN20160522125013105/22/16 12:50:31  5-MIN KAHN 221750Z VRB06KT 10SM FEW065 25/10 A2993 800 38 2200 VRB/06 RMK AO2 SLP130 T02500100 10256 20156 53007
13873KAHN AHN20160522125510605/22/16 12:55:31  5-MIN KAHN 221755Z VRB05KT 10SM FEW065 25/11 A2993 800 39 2200 VRB/05 RMK AO2 T02500106
13873KAHN AHN20160522130010605/22/16 13:00:31  5-MIN KAHN 221800Z 01006KT 10SM FEW060 26/10 A2993 800 37 2200 020/06 RMK AO2 T02560100
13873KAHN AHN20160522130510605/22/16 13:05:31  5-MIN KAHN 221805Z 02009KT 10SM FEW065 26/09 A2993 810 35 2200 020/09 RMK AO2 T02560094
13873KAHN AHN20160522131010905/22/16 13:10:31  5-MIN KAHN 221810Z VRB04G14KT 10SM CLR 26/09 A2992 810 34 2300 VRB/04G14 RMK AO2 T02610094
13873KAHN AHN20160522131510905/22/16 13:15:31  5-MIN KAHN 221815Z 06008G14KT 10SM CLR 26/09 A2992 810 34 2300 060/08G14 RMK AO2 T02610094
13873KAHN AHN20160522132010305/22/16 13:20:31  5-MIN KAHN 221820Z VRB06KT 10SM CLR 26/09 A2992 810 34 2300 VRB/06 RMK AO2 T02610094
13873KAHN AHN20160522132509305/22/16 13:25:31  5-MIN KAHN 221825Z 10SM CLR 26/09 A2993 810 34 2300 M /M RMK AO2 T02610094
13873KAHN AHN20160522133012205/22/16 13:30:31  5-MIN KAHN 221830Z 03007KT 340V060 10SM FEW065 26/09 A2992 810 34 2200 030/07 350V070 RMK AO2 T02560089
13873KAHN AHN20160522133511205/22/16 13:35:31  5-MIN KAHN 221835Z 06009G15KT 10SM FEW070 26/09 A2992 810 34 2300 070/09G15 RMK AO2 T02610094
13873KAHN AHN20160522134011205/22/16 13:40:31  5-MIN KAHN 221840Z 03007G17KT 10SM FEW070 26/09 A2992 810 34 2300 040/07G17 RMK AO2 T02610094
13873KAHN AHN20160522134511905/22/16 13:45:31  5-MIN KAHN 221845Z VRB04G17KT 10SM FEW070 26/09 A2992 810 34 2300 VRB/04G17 RMK AO2 SLP127 T02610094
13873KAHN AHN20160522135011305/22/16 13:50:31  5-MIN KAHN 221850Z 33008KT 10SM FEW070 26/09 A2992 810 34 2300 330/08 RMK AO2 SLP126 T02610094
13873KAHN AHN20160522135510605/22/16 13:55:31  5-MIN KAHN 221855Z VRB04KT 10SM FEW070 27/09 A2992 810 33 2400 VRB/04 RMK AO2 T02670094
13873KAHN AHN20160522140010605/22/16 14:00:31  5-MIN KAHN 221900Z 33008KT 10SM SCT070 26/09 A2992 810 35 2300 340/08 RMK AO2 T02560094
13873KAHN AHN20160522140510605/22/16 14:05:31  5-MIN KAHN 221905Z 36006KT 10SM FEW070 26/09 A2992 810 34 2300 360/06 RMK AO2 T02610094
13873KAHN AHN20160522141010605/22/16 14:10:31  5-MIN KAHN 221910Z 06006KT 10SM FEW070 26/09 A2992 810 33 2300 070/06 RMK AO2 T02610089
13873KAHN AHN20160522141510605/22/16 14:15:31  5-MIN KAHN 221915Z 00000KT 10SM SCT070 26/08 A2992 810 32 2300 000/00 RMK AO2 T02560078
13873KAHN AHN20160522142009605/22/16 14:20:31  5-MIN KAHN 221920Z 10SM BKN070 26/09 A2992 810 34 2300 M /M RMK AO2 T02560089
13873KAHN AHN20160522142510605/22/16 14:25:31  5-MIN KAHN 221925Z 02005KT 10SM BKN070 25/08 A2992 810 34 2200 030/05 RMK AO2 T02500083
13873KAHN AHN20160522143010605/22/16 14:30:31  5-MIN KAHN 221930Z VRB04KT 10SM SCT075 26/09 A2992 810 34 2300 VRB/04 RMK AO2 T02560089
13873KAHN AHN20160522143510605/22/16 14:35:31  5-MIN KAHN 221935Z VRB03KT 10SM BKN075 26/08 A2992 810 32 2300 VRB/03 RMK AO2 T02610083
13873KAHN AHN20160522144010605/22/16 14:40:31  5-MIN KAHN 221940Z 06008KT 10SM BKN075 26/09 A2992 810 34 2300 060/08 RMK AO2 T02610094
13873KAHN AHN20160522144511305/22/16 14:45:31  5-MIN KAHN 221945Z 06008KT 10SM BKN070 26/09 A2992 810 34 2300 070/08 RMK AO2 SLP125 T02610094
13873KAHN AHN20160522145011305/22/16 14:50:31  5-MIN KAHN 221950Z 05005KT 10SM BKN070 25/09 A2992 810 35 2200 050/05 RMK AO2 SLP127 T02500089
13873KAHN AHN20160522145510605/22/16 14:55:31  5-MIN KAHN 221955Z VRB03KT 10SM BKN070 24/08 A2992 810 35 2100 VRB/03 RMK AO2 T02440083
13873KAHN AHN20160522150010605/22/16 15:00:31  5-MIN KAHN 222000Z VRB03KT 10SM SCT075 26/08 A2992 810 33 2300 VRB/03 RMK AO2 T02560083
13873KAHN AHN20160522150510605/22/16 15:05:31  5-MIN KAHN 222005Z VRB03KT 10SM SCT070 24/09 A2992 810 36 2100 VRB/03 RMK AO2 T02440089
13873KAHN AHN20160522151012205/22/16 15:10:31  5-MIN KAHN 222010Z 07007KT 040V110 10SM FEW070 25/09 A2991 820 35 2200 070/07 050V120 RMK AO2 T02500089
13873KAHN AHN20160522151510605/22/16 15:15:31  5-MIN KAHN 222015Z VRB04KT 10SM FEW070 26/08 A2991 820 32 2300 VRB/04 RMK AO2 T02560078
13873KAHN AHN20160522152010605/22/16 15:20:31  5-MIN KAHN 222020Z 01007KT 10SM FEW075 26/09 A2991 820 33 2300 020/07 RMK AO2 T02610089
13873KAHN AHN20160522152510305/22/16 15:25:31  5-MIN KAHN 222025Z 36005KT 10SM CLR 26/08 A2991 820 32 2300 360/05 RMK AO2 T02610083
13873KAHN AHN20160522153010305/22/16 15:30:31  5-MIN KAHN 222030Z VRB03KT 10SM CLR 26/08 A2991 820 32 2300 VRB/03 RMK AO2 T02610083
13873KAHN AHN20160522153510305/22/16 15:35:31  5-MIN KAHN 222035Z VRB03KT 10SM CLR 26/09 A2991 820 33 2300 VRB/03 RMK AO2 T02610089
13873KAHN AHN20160522154010305/22/16 15:40:31  5-MIN KAHN 222040Z VRB03KT 10SM CLR 27/08 A2991 820 31 2400 VRB/03 RMK AO2 T02670083
13873KAHN AHN20160522154511605/22/16 15:45:31  5-MIN KAHN 222045Z VRB04KT 10SM CLR 27/08 A2991 820 31 2400 VRB/04 RMK AO2 SLP123 T02670083 58008
13873KAHN AHN20160522155011605/22/16 15:50:31  5-MIN KAHN 222050Z 32003KT 10SM CLR 27/09 A2991 820 33 2400 320/03 RMK AO2 SLP123 T02670094 58008
13873KAHN AHN20160522155510305/22/16 15:55:31  5-MIN KAHN 222055Z 00000KT 10SM CLR 26/08 A2991 820 31 2300 000/00 RMK AO2 T02610078
13873KAHN AHN20160522160010605/22/16 16:00:31  5-MIN KAHN 222100Z 00000KT 10SM FEW075 26/08 A2991 820 32 2300 000/00 RMK AO2 T02610083
13873KAHN AHN20160522160510605/22/16 16:05:31  5-MIN KAHN 222105Z 00000KT 10SM FEW080 27/08 A2991 820 29 2400 000/00 RMK AO2 T02670078
13873KAHN AHN20160522161010605/22/16 16:10:31  5-MIN KAHN 222110Z 00000KT 10SM FEW080 27/08 A2990 820 31 2400 000/00 RMK AO2 T02670083
13873KAHN AHN20160522161510605/22/16 16:15:31  5-MIN KAHN 222115Z 00000KT 10SM FEW080 26/07 A2990 830 30 2300 000/00 RMK AO2 T02560072
13873KAHN AHN20160522162010605/22/16 16:20:31  5-MIN KAHN 222120Z VRB03KT 10SM FEW080 27/08 A2990 830 29 2400 VRB/03 RMK AO2 T02670078
13873KAHN AHN20160522162510605/22/16 16:25:31  5-MIN KAHN 222125Z VRB04KT 10SM FEW080 27/08 A2990 830 31 2400 VRB/04 RMK AO2 T02670083
13873KAHN AHN20160522163010605/22/16 16:30:31  5-MIN KAHN 222130Z VRB06KT 10SM FEW080 27/08 A2990 830 29 2400 VRB/06 RMK AO2 T02670078
13873KAHN AHN20160522163510605/22/16 16:35:31  5-MIN KAHN 222135Z VRB06KT 10SM FEW080 27/08 A2990 830 29 2400 VRB/06 RMK AO2 T02670078
13873KAHN AHN20160522164010605/22/16 16:40:31  5-MIN KAHN 222140Z 32006KT 10SM FEW080 27/08 A2990 830 31 2400 320/06 RMK AO2 T02670083
13873KAHN AHN20160522164511305/22/16 16:45:31  5-MIN KAHN 222145Z 32006KT 10SM FEW080 25/08 A2990 830 33 2200 320/06 RMK AO2 SLP122 T02500078
13873KAHN AHN20160522165011305/22/16 16:50:31  5-MIN KAHN 222150Z 33006KT 10SM FEW080 26/08 A2990 830 32 2300 340/06 RMK AO2 SLP121 T02610083
13873KAHN AHN20160522165510605/22/16 16:55:31  5-MIN KAHN 222155Z 00000KT 10SM FEW080 26/08 A2990 830 32 2300 000/00 RMK AO2 T02560078
13873KAHN AHN20160522170010605/22/16 17:00:31  5-MIN KAHN 222200Z 00000KT 10SM FEW080 27/08 A2990 830 31 2400 000/00 RMK AO2 T02670083
13873KAHN AHN20160522170510605/22/16 17:05:31  5-MIN KAHN 222205Z 30008KT 10SM SCT080 27/09 A2990 820 32 2400 310/08 RMK AO2 T02670089
13873KAHN AHN20160522171010605/22/16 17:10:31  5-MIN KAHN 222210Z 32005KT 10SM SCT075 26/08 A2991 820 31 2300 330/05 RMK AO2 T02610078
13873KAHN AHN20160522171510605/22/16 17:15:31  5-MIN KAHN 222215Z VRB04KT 10SM FEW075 25/08 A2991 820 33 2200 VRB/04 RMK AO2 T02500078
13873KAHN AHN20160522172010605/22/16 17:20:31  5-MIN KAHN 222220Z VRB03KT 10SM FEW075 26/08 A2990 820 33 2300 VRB/03 RMK AO2 T02560083
13873KAHN AHN20160522172510605/22/16 17:25:31  5-MIN KAHN 222225Z 33007KT 10SM SCT080 26/08 A2990 830 32 2300 330/07 RMK AO2 T02610083
13873KAHN AHN20160522173010605/22/16 17:30:31  5-MIN KAHN 222230Z 30006KT 10SM SCT080 26/09 A2990 830 34 2300 310/06 RMK AO2 T02560089
13873KAHN AHN20160522173510605/22/16 17:35:31  5-MIN KAHN 222235Z 31006KT 10SM BKN080 26/09 A2990 830 34 2300 310/06 RMK AO2 T02560089
13873KAHN AHN20160522174010605/22/16 17:40:31  5-MIN KAHN 222240Z 28004KT 10SM SCT080 25/09 A2990 820 35 2200 280/04 RMK AO2 T02500089
13873KAHN AHN20160522174511305/22/16 17:45:31  5-MIN KAHN 222245Z VRB04KT 10SM SCT080 24/09 A2990 830 36 2100 VRB/04 RMK AO2 SLP122 T02440089
13873KAHN AHN20160522175011305/22/16 17:50:31  5-MIN KAHN 222250Z 30003KT 10SM SCT080 24/09 A2990 830 36 2100 300/03 RMK AO2 SLP121 T02440089
13873KAHN AHN20160522175510605/22/16 17:55:31  5-MIN KAHN 222255Z 31005KT 10SM SCT080 26/10 A2990 830 37 2300 320/05 RMK AO2 T02560100
13873KAHN AHN20160522180011305/22/16 18:00:31  5-MIN KAHN 222300Z 27004KT 10SM FEW075 SCT090 25/09 A2990 830 37 2200 280/04 RMK AO2 T02500094
13873KAHN AHN20160522180510605/22/16 18:05:31  5-MIN KAHN 222305Z 31004KT 10SM SCT080 24/09 A2990 830 38 2200 310/04 RMK AO2 T02440094
13873KAHN AHN20160522181010605/22/16 18:10:31  5-MIN KAHN 222310Z VRB03KT 10SM BKN080 25/09 A2990 830 37 2200 VRB/03 RMK AO2 T02500094
13873KAHN AHN20160522181510605/22/16 18:15:31  5-MIN KAHN 222315Z 30008KT 10SM BKN080 24/09 A2990 830 38 2100 300/08 RMK AO2 T02440094
13873KAHN AHN20160522182010605/22/16 18:20:31  5-MIN KAHN 222320Z 30006KT 10SM BKN080 24/08 A2990 830 35 2100 310/06 RMK AO2 T02440083
13873KAHN AHN20160522182510605/22/16 18:25:31  5-MIN KAHN 222325Z 30008KT 10SM BKN080 25/08 A2990 830 34 2200 310/08 RMK AO2 T02500083
13873KAHN AHN20160522183010605/22/16 18:30:31  5-MIN KAHN 222330Z 28004KT 10SM BKN080 24/08 A2990 830 35 2100 290/04 RMK AO2 T02440083
13873KAHN AHN20160522183510605/22/16 18:35:31  5-MIN KAHN 222335Z 31007KT 10SM SCT080 24/08 A2990 820 35 2100 310/07 RMK AO2 T02440083
13873KAHN AHN20160522184010605/22/16 18:40:31  5-MIN KAHN 222340Z 31005KT 10SM FEW080 24/08 A2991 820 35 2100 320/05 RMK AO2 T02440083
13873KAHN AHN20160522184513105/22/16 18:45:31  5-MIN KAHN 222345Z 32006KT 10SM SCT080 24/09 A2991 820 36 2100 330/06 RMK AO2 SLP123 T02440089 10272 20244 58007
13873KAHN AHN20160522185013105/22/16 18:50:31  5-MIN KAHN 222350Z 32006KT 10SM SCT080 24/08 A2991 820 35 2100 320/06 RMK AO2 SLP123 T02440083 10272 20244 58007
13873KAHN AHN20160522185510605/22/16 18:55:31  5-MIN KAHN 222355Z 31005KT 10SM SCT080 24/08 A2991 820 36 2100 320/05 RMK AO2 T02390083
13873KAHN AHN20160522190011105/22/16 19:00:31  5-MIN KAHN 230000Z AUTO 32007KT 10SM FEW080 24/08 A2991 820 36 2100 330/07 RMK AO2 T02390083
13873KAHN AHN20160522190511105/22/16 19:05:31  5-MIN KAHN 230005Z AUTO 31005KT 10SM FEW080 24/08 A2991 820 35 2100 310/05 RMK AO2 T02390078
13873KAHN AHN20160522191011105/22/16 19:10:31  5-MIN KAHN 230010Z AUTO 31005KT 10SM SCT080 23/08 A2991 820 38 2000 310/05 RMK AO2 T02330083
13873KAHN AHN20160522191511105/22/16 19:15:31  5-MIN KAHN 230015Z AUTO 32004KT 10SM FEW080 23/08 A2991 820 38 2000 320/04 RMK AO2 T02330083
13873KAHN AHN20160522192011105/22/16 19:20:31  5-MIN KAHN 230020Z AUTO 32005KT 10SM FEW080 23/09 A2991 820 40 1900 320/05 RMK AO2 T02280089
13873KAHN AHN20160522192510805/22/16 19:25:31  5-MIN KAHN 230025Z AUTO 32005KT 10SM CLR 23/08 A2991 820 39 1900 320/05 RMK AO2 T02280083
13873KAHN AHN20160522193010805/22/16 19:30:31  5-MIN KAHN 230030Z AUTO 31004KT 10SM CLR 22/08 A2992 820 40 1900 320/04 RMK AO2 T02220083
13873KAHN AHN20160522193511105/22/16 19:35:31  5-MIN KAHN 230035Z AUTO 33005KT 10SM FEW080 22/08 A2992 810 40 1900 330/05 RMK AO2 T02220083
13873KAHN AHN20160522194011105/22/16 19:40:31  5-MIN KAHN 230040Z AUTO 32003KT 10SM SCT080 22/08 A2992 810 40 1900 330/03 RMK AO2 T02220083
13873KAHN AHN20160522194511805/22/16 19:45:31  5-MIN KAHN 230045Z AUTO 33004KT 10SM SCT080 22/08 A2992 810 40 1900 340/04 RMK AO2 SLP126 T02220083
13873KAHN AHN20160522195011805/22/16 19:50:31  5-MIN KAHN 230050Z AUTO 33004KT 10SM FEW080 22/08 A2992 810 40 1900 330/04 RMK AO2 SLP127 T02220083
13873KAHN AHN20160522195511105/22/16 19:55:31  5-MIN KAHN 230055Z AUTO VRB04KT 10SM SCT080 22/08 A2992 810 40 1900 VRB/04 RMK AO2 T02220083
13873KAHN AHN20160522200011105/22/16 20:00:31  5-MIN KAHN 230100Z AUTO 32003KT 10SM BKN080 22/09 A2992 810 43 1800 330/03 RMK AO2 T02170089
13873KAHN AHN20160522200511105/22/16 20:05:31  5-MIN KAHN 230105Z AUTO 32003KT 10SM BKN080 21/09 A2992 810 45 1700 320/03 RMK AO2 T02110089
13873KAHN AHN20160522201011105/22/16 20:10:31  5-MIN KAHN 230110Z AUTO 32003KT 10SM SCT080 21/09 A2992 810 45 1700 330/03 RMK AO2 T02110089
13873KAHN AHN20160522201511105/22/16 20:15:31  5-MIN KAHN 230115Z AUTO 31003KT 10SM SCT080 21/09 A2993 800 48 1700 320/03 RMK AO2 T02060094
13873KAHN AHN20160522202011105/22/16 20:20:31  5-MIN KAHN 230120Z AUTO VRB04KT 10SM SCT080 21/09 A2993 800 48 1700 VRB/04 RMK AO2 T02060094
13873KAHN AHN20160522202511105/22/16 20:25:31  5-MIN KAHN 230125Z AUTO 31004KT 10SM SCT080 21/09 A2993 800 48 1700 310/04 RMK AO2 T02060094
13873KAHN AHN20160522203011105/22/16 20:30:31  5-MIN KAHN 230130Z AUTO 31004KT 10SM FEW080 20/09 A2993 800 50 1600 310/04 RMK AO2 T02000094
13873KAHN AHN20160522203511105/22/16 20:35:31  5-MIN KAHN 230135Z AUTO 31004KT 10SM FEW080 20/09 A2993 800 50 1600 320/04 RMK AO2 T02000094
13873KAHN AHN20160522204011105/22/16 20:40:31  5-MIN KAHN 230140Z AUTO 31004KT 10SM FEW080 20/09 A2993 800 50 1600 320/04 RMK AO2 T02000094
13873KAHN AHN20160522204511505/22/16 20:45:31  5-MIN KAHN 230145Z AUTO 31003KT 10SM CLR 20/09 A2993 800 50 1600 320/03 RMK AO2 SLP132 T02000094
13873KAHN AHN20160522205011505/22/16 20:50:31  5-MIN KAHN 230150Z AUTO 32003KT 10SM CLR 19/09 A2993 800 52 1500 320/03 RMK AO2 SLP132 T01940094
13873KAHN AHN20160522205510805/22/16 20:55:31  5-MIN KAHN 230155Z AUTO 00000KT 10SM CLR 19/09 A2994 800 52 1500 000/00 RMK AO2 T01940094
13873KAHN AHN20160522210010805/22/16 21:00:31  5-MIN KAHN 230200Z AUTO 30003KT 10SM CLR 19/10 A2994 790 56 1500 300/03 RMK AO2 T01890100
13873KAHN AHN20160522210510805/22/16 21:05:31  5-MIN KAHN 230205Z AUTO 30003KT 10SM CLR 19/09 A2994 790 54 1500 300/03 RMK AO2 T01890094
13873KAHN AHN20160522211010805/22/16 21:10:31  5-MIN KAHN 230210Z AUTO 31003KT 10SM CLR 19/10 A2994 790 56 1500 310/03 RMK AO2 T01890100
13873KAHN AHN20160522211510805/22/16 21:15:31  5-MIN KAHN 230215Z AUTO 31003KT 10SM CLR 19/10 A2994 790 56 1500 320/03 RMK AO2 T01890100
13873KAHN AHN20160522212010805/22/16 21:20:31  5-MIN KAHN 230220Z AUTO 31003KT 10SM CLR 18/10 A2994 790 58 1400 310/03 RMK AO2 T01830100
13873KAHN AHN20160522212510805/22/16 21:25:31  5-MIN KAHN 230225Z AUTO 31005KT 10SM CLR 18/09 A2994 790 56 1400 310/05 RMK AO2 T01830094
13873KAHN AHN20160522213010805/22/16 21:30:31  5-MIN KAHN 230230Z AUTO 30003KT 10SM CLR 18/10 A2994 790 58 1400 310/03 RMK AO2 T01830100
13873KAHN AHN20160522213510805/22/16 21:35:31  5-MIN KAHN 230235Z AUTO 31004KT 10SM CLR 18/10 A2995 790 58 1400 320/04 RMK AO2 T01830100
13873KAHN AHN20160522214010805/22/16 21:40:31  5-MIN KAHN 230240Z AUTO 31004KT 10SM CLR 18/09 A2995 790 56 1400 310/04 RMK AO2 T01830094
13873KAHN AHN20160522214512105/22/16 21:45:31  5-MIN KAHN 230245Z AUTO 31004KT 10SM CLR 18/10 A2995 780 58 1400 320/04 RMK AO2 SLP136 T01830100 55001
13873KAHN AHN20160522215012105/22/16 21:50:31  5-MIN KAHN 230250Z AUTO 31004KT 10SM CLR 18/10 A2995 780 58 1400 320/04 RMK AO2 SLP136 T01830100 55001
13873KAHN AHN20160522215510805/22/16 21:55:31  5-MIN KAHN 230255Z AUTO 31004KT 10SM CLR 18/10 A2995 780 58 1400 320/04 RMK AO2 T01830100
13873KAHN AHN20160522220010805/22/16 22:00:31  5-MIN KAHN 230300Z AUTO 32003KT 10SM CLR 18/10 A2995 780 58 1400 330/03 RMK AO2 T01830100
13873KAHN AHN20160522220510805/22/16 22:05:31  5-MIN KAHN 230305Z AUTO 32003KT 10SM CLR 18/10 A2996 780 60 1300 320/03 RMK AO2 T01780100
13873KAHN AHN20160522221010805/22/16 22:10:31  5-MIN KAHN 230310Z AUTO 31003KT 10SM CLR 18/10 A2996 780 60 1300 320/03 RMK AO2 T01780100
13873KAHN AHN20160522221510805/22/16 22:15:31  5-MIN KAHN 230315Z AUTO 33003KT 10SM CLR 18/10 A2996 780 60 1300 330/03 RMK AO2 T01780100
13873KAHN AHN20160522222010805/22/16 22:20:31  5-MIN KAHN 230320Z AUTO 33003KT 10SM CLR 18/10 A2996 780 60 1300 330/03 RMK AO2 T01780100
13873KAHN AHN20160522222510805/22/16 22:25:31  5-MIN KAHN 230325Z AUTO 32003KT 10SM CLR 18/10 A2996 780 60 1300 320/03 RMK AO2 T01780100
13873KAHN AHN20160522223010805/22/16 22:30:31  5-MIN KAHN 230330Z AUTO 31003KT 10SM CLR 18/10 A2996 780 60 1300 310/03 RMK AO2 T01780100
13873KAHN AHN20160522223510805/22/16 22:35:31  5-MIN KAHN 230335Z AUTO 30003KT 10SM CLR 17/10 A2996 770 62 1300 310/03 RMK AO2 T01720100
13873KAHN AHN20160522224010805/22/16 22:40:31  5-MIN KAHN 230340Z AUTO 30003KT 10SM CLR 17/10 A2996 770 62 1300 300/03 RMK AO2 T01720100
13873KAHN AHN20160522224511505/22/16 22:45:31  5-MIN KAHN 230345Z AUTO 00000KT 10SM CLR 17/10 A2996 770 64 1200 000/00 RMK AO2 SLP141 T01670100
13873KAHN AHN20160522225011505/22/16 22:50:31  5-MIN KAHN 230350Z AUTO 31003KT 10SM CLR 16/10 A2996 770 67 1100 310/03 RMK AO2 SLP141 T01610100
13873KAHN AHN20160522225510805/22/16 22:55:31  5-MIN KAHN 230355Z AUTO 31003KT 10SM CLR 17/10 A2996 770 64 1200 320/03 RMK AO2 T01670100
13873KAHN AHN20160522230010805/22/16 23:00:31  5-MIN KAHN 230400Z AUTO 32003KT 10SM CLR 16/11 A2996 770 69 1100 320/03 RMK AO2 T01610106
13873KAHN AHN20160522230510805/22/16 23:05:31  5-MIN KAHN 230405Z AUTO 31003KT 10SM CLR 16/11 A2996 770 69 1100 320/03 RMK AO2 T01610106
13873KAHN AHN20160522231010805/22/16 23:10:31  5-MIN KAHN 230410Z AUTO 31003KT 10SM CLR 16/10 A2996 770 69 1100 320/03 RMK AO2 T01560100
13873KAHN AHN20160522231510805/22/16 23:15:31  5-MIN KAHN 230415Z AUTO 32003KT 10SM CLR 16/10 A2996 770 67 1100 320/03 RMK AO2 T01610100
13873KAHN AHN20160522232010805/22/16 23:20:31  5-MIN KAHN 230420Z AUTO 32003KT 10SM CLR 16/10 A2996 770 67 1100 320/03 RMK AO2 T01610100
13873KAHN AHN20160522232510805/22/16 23:25:31  5-MIN KAHN 230425Z AUTO 00000KT 10SM CLR 16/11 A2996 780 72 1100 000/00 RMK AO2 T01560106
13873KAHN AHN20160522233010805/22/16 23:30:31  5-MIN KAHN 230430Z AUTO 31003KT 10SM CLR 16/10 A2996 780 69 1100 310/03 RMK AO2 T01560100
13873KAHN AHN20160522233510805/22/16 23:35:31  5-MIN KAHN 230435Z AUTO 00000KT 10SM CLR 16/10 A2995 780 69 1100 000/00 RMK AO2 T01560100
13873KAHN AHN20160522234010805/22/16 23:40:31  5-MIN KAHN 230440Z AUTO 30003KT 10SM CLR 16/10 A2995 780 69 1100 310/03 RMK AO2 T01560100
13873KAHN AHN20160522234512505/22/16 23:45:31  5-MIN KAHN 230445Z AUTO 00000KT 10SM CLR 17/10 A2996 780 64 1200 000/00 RMK AO2 SLP138 T01670100 402720133
13873KAHN AHN20160522235012505/22/16 23:50:31  5-MIN KAHN 230450Z AUTO 00000KT 10SM CLR 16/10 A2996 780 67 1100 000/00 RMK AO2 SLP139 T01610100 402720133
13873KAHN AHN20160522235510805/22/16 23:55:31  5-MIN KAHN 230455Z AUTO 29003KT 10SM CLR 16/10 A2996 780 69 1100 290/03 RMK AO2 T01560100
13873KAHN AHN20160523000010805/23/16 00:00:31  5-MIN KAHN 230500Z AUTO 28003KT 10SM CLR 16/10 A2996 780 69 1100 280/03 RMK AO2 T01560100
13873KAHN AHN20160523000510805/23/16 00:05:31  5-MIN KAHN 230505Z AUTO 29004KT 10SM CLR 15/10 A2996 780 72 1000 290/04 RMK AO2 T01500100
13873KAHN AHN20160523001010805/23/16 00:10:31  5-MIN KAHN 230510Z AUTO 28003KT 10SM CLR 15/10 A2995 780 72 1000 290/03 RMK AO2 T01500100
13873KAHN AHN20160523001510805/23/16 00:15:31  5-MIN KAHN 230515Z AUTO 29003KT 10SM CLR 15/10 A2995 780 72 1000 290/03 RMK AO2 T01500100
13873KAHN AHN20160523002010805/23/16 00:20:31  5-MIN KAHN 230520Z AUTO 00000KT 10SM CLR 15/10 A2995 780 72 1000 000/00 RMK AO2 T01500100
13873KAHN AHN20160523002510805/23/16 00:25:31  5-MIN KAHN 230525Z AUTO 00000KT 10SM CLR 15/10 A2996 780 72 1000 000/00 RMK AO2 T01500100
13873KAHN AHN20160523003010805/23/16 00:30:31  5-MIN KAHN 230530Z AUTO 00000KT 10SM CLR 15/10 A2996 780 72 1000 000/00 RMK AO2 T01500100
13873KAHN AHN20160523003510805/23/16 00:35:31  5-MIN KAHN 230535Z AUTO 00000KT 10SM CLR 15/10 A2996 780 72 1000 000/00 RMK AO2 T01500100
13873KAHN AHN20160523004010705/23/16 00:40:31  5-MIN KAHN 230540Z AUTO 31003KT 10SM CLR 14/10 A2995 780 74 900 320/03 RMK AO2 T01440100
13873KAHN AHN20160523004513205/23/16 00:45:31  5-MIN KAHN 230545Z AUTO 32003KT 10SM CLR 14/11 A2995 780 80 900 330/03 RMK AO2 SLP138 T01390106 10239 20139 53014
13873KAHN AHN20160523005013205/23/16 00:50:31  5-MIN KAHN 230550Z AUTO 31003KT 10SM CLR 14/11 A2995 780 80 900 310/03 RMK AO2 SLP138 T01390106 10239 20139 53014
13873KAHN AHN20160523005510705/23/16 00:55:31  5-MIN KAHN 230555Z AUTO 00000KT 10SM CLR 14/10 A2995 790 74 900 000/00 RMK AO2 T01440100
13873KAHN AHN20160523010010805/23/16 01:00:31  5-MIN KAHN 230600Z AUTO 00000KT 10SM CLR 15/10 A2995 790 72 1000 000/00 RMK AO2 T01500100
13873KAHN AHN20160523010510705/23/16 01:05:31  5-MIN KAHN 230605Z AUTO 00000KT 10SM CLR 14/11 A2995 790 77 900 000/00 RMK AO2 T01440106
13873KAHN AHN20160523011010705/23/16 01:10:31  5-MIN KAHN 230610Z AUTO 00000KT 10SM CLR 14/10 A2995 790 74 900 000/00 RMK AO2 T01440100
13873KAHN AHN20160523011510705/23/16 01:15:31  5-MIN KAHN 230615Z AUTO 00000KT 10SM CLR 14/11 A2995 790 80 900 000/00 RMK AO2 T01390106
13873KAHN AHN20160523012010705/23/16 01:20:31  5-MIN KAHN 230620Z AUTO 00000KT 10SM CLR 13/11 A2994 790 83 800 000/00 RMK AO2 T01330106
13873KAHN AHN20160523012510705/23/16 01:25:31  5-MIN KAHN 230625Z AUTO 00000KT 10SM CLR 13/11 A2994 790 86 800 000/00 RMK AO2 T01280106
13873KAHN AHN20160523013010705/23/16 01:30:31  5-MIN KAHN 230630Z AUTO 00000KT 10SM CLR 13/10 A2994 790 80 800 000/00 RMK AO2 T01330100
13873KAHN AHN20160523013510705/23/16 01:35:31  5-MIN KAHN 230635Z AUTO 00000KT 10SM CLR 14/10 A2994 790 77 900 000/00 RMK AO2 T01390100
13873KAHN AHN20160523014010705/23/16 01:40:31  5-MIN KAHN 230640Z AUTO 00000KT 10SM CLR 13/10 A2994 790 80 800 000/00 RMK AO2 T01330100
13873KAHN AHN20160523014511405/23/16 01:45:31  5-MIN KAHN 230645Z AUTO 27003KT 10SM CLR 14/10 A2994 790 77 900 280/03 RMK AO2 SLP135 T01390100
13873KAHN AHN20160523015011405/23/16 01:50:31  5-MIN KAHN 230650Z AUTO 29003KT 10SM CLR 13/10 A2994 790 80 800 290/03 RMK AO2 SLP135 T01330100
13873KAHN AHN20160523015510705/23/16 01:55:31  5-MIN KAHN 230655Z AUTO 30003KT 10SM CLR 13/10 A2994 790 80 800 300/03 RMK AO2 T01330100
13873KAHN AHN20160523020010705/23/16 02:00:31  5-MIN KAHN 230700Z AUTO 30003KT 10SM CLR 13/10 A2994 790 80 800 310/03 RMK AO2 T01330100
13873KAHN AHN20160523020510705/23/16 02:05:31  5-MIN KAHN 230705Z AUTO 30004KT 10SM CLR 13/11 A2994 790 83 800 310/04 RMK AO2 T01330106
13873KAHN AHN20160523021010705/23/16 02:10:31  5-MIN KAHN 230710Z AUTO 31004KT 10SM CLR 13/11 A2994 800 83 800 310/04 RMK AO2 T01330106
13873KAHN AHN20160523021510705/23/16 02:15:31  5-MIN KAHN 230715Z AUTO 30004KT 10SM CLR 13/11 A2994 800 83 800 310/04 RMK AO2 T01330106
13873KAHN AHN20160523022010705/23/16 02:20:31  5-MIN KAHN 230720Z AUTO 30003KT 10SM CLR 14/11 A2993 800 80 900 310/03 RMK AO2 T01390106
13873KAHN AHN20160523022510705/23/16 02:25:31  5-MIN KAHN 230725Z AUTO 30003KT 10SM CLR 13/11 A2993 800 83 800 300/03 RMK AO2 T01330106
13873KAHN AHN20160523023010705/23/16 02:30:31  5-MIN KAHN 230730Z AUTO 30003KT 10SM CLR 13/11 A2993 800 83 800 310/03 RMK AO2 T01330106
13873KAHN AHN20160523023510705/23/16 02:35:31  5-MIN KAHN 230735Z AUTO 00000KT 10SM CLR 13/11 A2993 800 83 800 000/00 RMK AO2 T01330106
13873KAHN AHN20160523024010705/23/16 02:40:31  5-MIN KAHN 230740Z AUTO 00000KT 10SM CLR 13/11 A2993 800 83 800 000/00 RMK AO2 T01330106
13873KAHN AHN20160523024511405/23/16 02:45:31  5-MIN KAHN 230745Z AUTO 31003KT 10SM CLR 13/10 A2994 800 80 800 320/03 RMK AO2 SLP133 T01330100
13873KAHN AHN20160523025011405/23/16 02:50:31  5-MIN KAHN 230750Z AUTO 30003KT 10SM CLR 13/10 A2994 790 80 800 310/03 RMK AO2 SLP133 T01330100
13873KAHN AHN20160523025510705/23/16 02:55:31  5-MIN KAHN 230755Z AUTO 00000KT 10SM CLR 13/10 A2994 800 80 800 000/00 RMK AO2 T01330100
13873KAHN AHN20160523030010705/23/16 03:00:31  5-MIN KAHN 230800Z AUTO 32003KT 10SM CLR 13/10 A2994 800 80 800 330/03 RMK AO2 T01330100
13873KAHN AHN20160523030510705/23/16 03:05:31  5-MIN KAHN 230805Z AUTO 31003KT 10SM CLR 13/10 A2994 800 80 800 310/03 RMK AO2 T01330100
13873KAHN AHN20160523031010705/23/16 03:10:31  5-MIN KAHN 230810Z AUTO 31003KT 10SM CLR 13/10 A2994 790 80 800 320/03 RMK AO2 T01330100
13873KAHN AHN20160523031510705/23/16 03:15:31  5-MIN KAHN 230815Z AUTO 31004KT 10SM CLR 13/10 A2994 790 80 800 310/04 RMK AO2 T01330100
13873KAHN AHN20160523032010705/23/16 03:20:31  5-MIN KAHN 230820Z AUTO 31003KT 10SM CLR 13/10 A2994 790 80 800 310/03 RMK AO2 T01330100
13873KAHN AHN20160523032510405/23/16 03:25:31  5-MIN KAHN 230825Z AUTO 10SM CLR 13/10 A2996 770 80 800 M /M RMK AO2 PRESRR T01330100
13873KAHN AHN20160523033011305/23/16 03:30:31  5-MIN KAHN 230830Z AUTO 02010G15KT 10SM CLR 14/09 A2996 770 72 900 030/10G15 RMK AO2 T01440094
13873KAHN AHN20160523033511405/23/16 03:35:31  5-MIN KAHN 230835Z AUTO 02005G15KT 10SM CLR 15/09 A2996 770 69 1000 030/05G15 RMK AO2 T01500094
13873KAHN AHN20160523034010805/23/16 03:40:31  5-MIN KAHN 230840Z AUTO 04004KT 10SM CLR 15/09 A2996 770 69 1000 050/04 RMK AO2 T01500094
13873KAHN AHN20160523034512105/23/16 03:45:31  5-MIN KAHN 230845Z AUTO 03004KT 10SM CLR 15/09 A2996 770 69 1000 030/04 RMK AO2 SLP140 T01500094 58000
13873KAHN AHN20160523035012005/23/16 03:50:31  5-MIN KAHN 230850Z AUTO 01003KT 10SM CLR 14/09 A2996 770 72 900 010/03 RMK AO2 SLP140 T01440094 58000
13873KAHN AHN20160523035510705/23/16 03:55:31  5-MIN KAHN 230855Z AUTO 02003KT 10SM CLR 14/09 A2996 770 72 900 030/03 RMK AO2 T01440094
13873KAHN AHN20160523040010705/23/16 04:00:31  5-MIN KAHN 230900Z AUTO 36003KT 10SM CLR 14/09 A2997 770 74 900 010/03 RMK AO2 T01390094
13873KAHN AHN20160523040510705/23/16 04:05:31  5-MIN KAHN 230905Z AUTO 00000KT 10SM CLR 14/09 A2997 770 74 900 000/00 RMK AO2 T01390094
13873KAHN AHN20160523041010705/23/16 04:10:31  5-MIN KAHN 230910Z AUTO 00000KT 10SM CLR 13/09 A2997 760 77 800 000/00 RMK AO2 T01330094
13873KAHN AHN20160523041510705/23/16 04:15:31  5-MIN KAHN 230915Z AUTO 00000KT 10SM CLR 13/09 A2998 760 80 700 000/00 RMK AO2 T01280094
13873KAHN AHN20160523042010705/23/16 04:20:31  5-MIN KAHN 230920Z AUTO 00000KT 10SM CLR 13/09 A2997 760 80 700 000/00 RMK AO2 T01280094
13873KAHN AHN20160523042510705/23/16 04:25:31  5-MIN KAHN 230925Z AUTO 02003KT 10SM CLR 13/09 A2997 760 80 700 030/03 RMK AO2 T01280094
13873KAHN AHN20160523043010705/23/16 04:30:31  5-MIN KAHN 230930Z AUTO 00000KT 10SM CLR 13/09 A2997 760 80 700 000/00 RMK AO2 T01280094
13873KAHN AHN20160523043510705/23/16 04:35:31  5-MIN KAHN 230935Z AUTO 00000KT 10SM CLR 12/09 A2997 760 83 600 000/00 RMK AO2 T01220094
13873KAHN AHN20160523044010705/23/16 04:40:31  5-MIN KAHN 230940Z AUTO 00000KT 10SM CLR 12/09 A2997 760 83 600 000/00 RMK AO2 T01220094
13873KAHN AHN20160523044511405/23/16 04:45:31  5-MIN KAHN 230945Z AUTO 00000KT 10SM CLR 12/10 A2998 760 86 600 000/00 RMK AO2 SLP147 T01220100
13873KAHN AHN20160523045011405/23/16 04:50:31  5-MIN KAHN 230950Z AUTO 00000KT 10SM CLR 12/10 A2998 760 89 600 000/00 RMK AO2 SLP147 T01170100
13873KAHN AHN20160523045510705/23/16 04:55:31  5-MIN KAHN 230955Z AUTO 31003KT 10SM CLR 12/10 A2998 750 89 600 310/03 RMK AO2 T01170100
13873KAHN AHN20160523050010705/23/16 05:00:31  5-MIN KAHN 231000Z AUTO 00000KT 10SM CLR 12/10 A2998 760 89 600 000/00 RMK AO2 T01170100
13873KAHN AHN20160523050510705/23/16 05:05:31  5-MIN KAHN 231005Z AUTO 00000KT 10SM CLR 12/10 A2998 760 89 600 000/00 RMK AO2 T01170100
13873KAHN AHN20160523051010705/23/16 05:10:31  5-MIN KAHN 231010Z AUTO 00000KT 10SM CLR 12/10 A2998 760 89 600 000/00 RMK AO2 T01170100
13873KAHN AHN20160523051510705/23/16 05:15:31  5-MIN KAHN 231015Z AUTO 00000KT 10SM CLR 12/10 A2998 750 89 600 000/00 RMK AO2 T01170100
13873KAHN AHN20160523052010705/23/16 05:20:31  5-MIN KAHN 231020Z AUTO 00000KT 10SM CLR 12/10 A2998 750 89 600 000/00 RMK AO2 T01170100
13873KAHN AHN20160523052510705/23/16 05:25:31  5-MIN KAHN 231025Z AUTO 00000KT 10SM CLR 11/10 A2999 750 93 500 000/00 RMK AO2 T01110100
13873KAHN AHN20160523053010705/23/16 05:30:31  5-MIN KAHN 231030Z AUTO 00000KT 10SM CLR 11/10 A2999 750 93 500 000/00 RMK AO2 T01110100
13873KAHN AHN20160523053510705/23/16 05:35:31  5-MIN KAHN 231035Z AUTO 28003KT 10SM CLR 12/10 A2999 750 89 600 290/03 RMK AO2 T01170100
13873KAHN AHN20160523054010705/23/16 05:40:31  5-MIN KAHN 231040Z AUTO 00000KT 10SM CLR 11/10 A2999 750 93 500 000/00 RMK AO2 T01110100
13873KAHN AHN20160523054511405/23/16 05:45:31  5-MIN KAHN 231045Z AUTO 00000KT 10SM CLR 11/10 A2999 750 93 500 000/00 RMK AO2 SLP151 T01110100
13873KAHN AHN20160523055010405/23/16 05:50:31  5-MIN KAHN 231050Z AUTO 10SM CLR 12/10 A2999 750 89 600 M /M RMK AO2 SLP151 T01170100
13873KAHN AHN20160523055509705/23/16 05:55:31  5-MIN KAHN 231055Z AUTO 10SM CLR 12/10 A2999 750 89 600 M /M RMK AO2 T01170100
13873KAHN AHN20160523060010705/23/16 06:00:31  5-MIN KAHN 231100Z AUTO 00000KT 10SM CLR 12/10 A2999 750 89 600 000/00 RMK AO2 T01170100
13873KAHN AHN20160523060510705/23/16 06:05:31  5-MIN KAHN 231105Z AUTO 00000KT 10SM CLR 12/11 A2999 740 93 600 000/00 RMK AO2 T01170106
13873KAHN AHN20160523061010705/23/16 06:10:31  5-MIN KAHN 231110Z AUTO 00000KT 10SM CLR 12/11 A2999 740 93 600 000/00 RMK AO2 T01220111
13873KAHN AHN20160523061511005/23/16 06:15:31  5-MIN KAHN 231115Z AUTO 00000KT 10SM FEW090 13/11 A2999 740 89 700 000/00 RMK AO2 T01280111
13873KAHN AHN20160523062011005/23/16 06:20:31  5-MIN KAHN 231120Z AUTO 32003KT 10SM FEW090 13/11 A2999 750 89 700 320/03 RMK AO2 T01280111
13873KAHN AHN20160523062511005/23/16 06:25:31  5-MIN KAHN 231125Z AUTO 00000KT 10SM FEW090 13/11 A2999 740 86 800 000/00 RMK AO2 T01330111
13873KAHN AHN20160523063011005/23/16 06:30:31  5-MIN KAHN 231130Z AUTO 00000KT 10SM FEW090 13/11 A2999 740 86 800 000/00 RMK AO2 T01330111
13873KAHN AHN20160523063511005/23/16 06:35:31  5-MIN KAHN 231135Z AUTO 00000KT 10SM FEW090 14/11 A2999 740 83 800 000/00 RMK AO2 T01390111
13873KAHN AHN20160523064011005/23/16 06:40:31  5-MIN KAHN 231140Z AUTO 00000KT 10SM FEW090 14/11 A2999 750 83 800 000/00 RMK AO2 T01390111
13873KAHN AHN20160523064512705/23/16 06:45:31  5-MIN KAHN 231145Z 00000KT 10SM CLR 14/11 A2999 740 80 900 000/00 RMK AO2 SLP152 T01440111 10150 20111 53003
13873KAHN AHN20160523065012805/23/16 06:50:31  5-MIN KAHN 231150Z 00000KT 10SM CLR 15/11 A3000 740 77 1000 000/00 RMK AO2 SLP153 T01500111 10150 20111 53003
13873KAHN AHN20160523065510305/23/16 06:55:31  5-MIN KAHN 231155Z 00000KT 10SM CLR 16/11 A2999 740 74 1000 000/00 RMK AO2 T01560111
13873KAHN AHN20160523070010305/23/16 07:00:31  5-MIN KAHN 231200Z 00000KT 10SM CLR 16/11 A3000 740 74 1000 000/00 RMK AO2 T01560111
13873KAHN AHN20160523070510305/23/16 07:05:31  5-MIN KAHN 231205Z 00000KT 10SM CLR 16/12 A3000 740 75 1100 000/00 RMK AO2 T01610117
13873KAHN AHN20160523071010305/23/16 07:10:31  5-MIN KAHN 231210Z 00000KT 10SM CLR 16/11 A3000 740 72 1100 000/00 RMK AO2 T01610111
13873KAHN AHN20160523071510305/23/16 07:15:31  5-MIN KAHN 231215Z 00000KT 10SM CLR 17/12 A3000 740 72 1100 000/00 RMK AO2 T01670117
13873KAHN AHN20160523072010305/23/16 07:20:31  5-MIN KAHN 231220Z 00000KT 10SM CLR 17/12 A3000 740 72 1100 000/00 RMK AO2 T01670117
13873KAHN AHN20160523072510205/23/16 07:25:31  5-MIN KAHN 231225Z 00000KT 9SM CLR 17/12 A3000 740 69 1200 000/00 RMK AO2 T01720117
13873KAHN AHN20160523073010205/23/16 07:30:31  5-MIN KAHN 231230Z 31003KT 8SM CLR 17/12 A3000 730 69 1200 310/03 RMK AO2 T01720117
13873KAHN AHN20160523073510205/23/16 07:35:31  5-MIN KAHN 231235Z 30003KT 8SM CLR 17/11 A3001 730 67 1200 310/03 RMK AO2 T01720111
13873KAHN AHN20160523074010305/23/16 07:40:31  5-MIN KAHN 231240Z 00000KT 10SM CLR 18/11 A3001 730 64 1300 000/00 RMK AO2 T01780111
13873KAHN AHN20160523074511005/23/16 07:45:31  5-MIN KAHN 231245Z 00000KT 10SM CLR 18/11 A3001 730 64 1300 000/00 RMK AO2 SLP157 T01780111
13873KAHN AHN20160523075011005/23/16 07:50:31  5-MIN KAHN 231250Z 00000KT 10SM CLR 18/12 A3001 730 67 1300 000/00 RMK AO2 SLP157 T01780117
13873KAHN AHN20160523075510305/23/16 07:55:31  5-MIN KAHN 231255Z 00000KT 10SM CLR 18/12 A3001 730 67 1300 000/00 RMK AO2 T01830122
13873KAHN AHN20160523080010305/23/16 08:00:31  5-MIN KAHN 231300Z 00000KT 10SM CLR 18/12 A3001 730 67 1300 000/00 RMK AO2 T01830122
13873KAHN AHN20160523080510305/23/16 08:05:31  5-MIN KAHN 231305Z 00000KT 10SM CLR 18/12 A3001 730 65 1300 000/00 RMK AO2 T01830117
13873KAHN AHN20160523081010305/23/16 08:10:31  5-MIN KAHN 231310Z 00000KT 10SM CLR 19/12 A3001 730 62 1400 000/00 RMK AO2 T01890117
13873KAHN AHN20160523081510305/23/16 08:15:31  5-MIN KAHN 231315Z 00000KT 10SM CLR 19/12 A3001 730 62 1400 000/00 RMK AO2 T01890117
13873KAHN AHN20160523082010305/23/16 08:20:31  5-MIN KAHN 231320Z 00000KT 10SM CLR 19/12 A3000 730 60 1500 000/00 RMK AO2 T01940117
13873KAHN AHN20160523082510305/23/16 08:25:31  5-MIN KAHN 231325Z 00000KT 10SM CLR 19/11 A3000 730 58 1500 000/00 RMK AO2 T01940111
13873KAHN AHN20160523083010305/23/16 08:30:31  5-MIN KAHN 231330Z 00000KT 10SM CLR 20/12 A3001 730 58 1500 000/00 RMK AO2 T02000117
13873KAHN AHN20160523083510305/23/16 08:35:31  5-MIN KAHN 231335Z 00000KT 10SM CLR 21/12 A3001 730 56 1600 000/00 RMK AO2 T02060117
13873KAHN AHN20160523084010305/23/16 08:40:31  5-MIN KAHN 231340Z 00000KT 10SM CLR 21/11 A3001 730 50 1700 000/00 RMK AO2 T02110106
13873KAHN AHN20160523084511005/23/16 08:45:31  5-MIN KAHN 231345Z 00000KT 10SM CLR 21/11 A3000 730 52 1600 000/00 RMK AO2 SLP155 T02060106
13873KAHN AHN20160523085011005/23/16 08:50:31  5-MIN KAHN 231350Z 00000KT 10SM CLR 21/11 A3000 730 54 1600 000/00 RMK AO2 SLP156 T02060111
13873KAHN AHN20160523085510305/23/16 08:55:31  5-MIN KAHN 231355Z 00000KT 10SM CLR 22/11 A3000 730 50 1700 000/00 RMK AO2 T02170111
13873KAHN AHN20160523090010305/23/16 09:00:31  5-MIN KAHN 231400Z 00000KT 10SM CLR 21/11 A3000 730 50 1700 000/00 RMK AO2 T02110106
13873KAHN AHN20160523090510305/23/16 09:05:31  5-MIN KAHN 231405Z 00000KT 10SM CLR 22/11 A3000 740 49 1700 000/00 RMK AO2 T02170106
13873KAHN AHN20160523091010305/23/16 09:10:31  5-MIN KAHN 231410Z 00000KT 10SM CLR 22/11 A3000 740 47 1800 000/00 RMK AO2 T02220106
13873KAHN AHN20160523091510305/23/16 09:15:31  5-MIN KAHN 231415Z 30004KT 10SM CLR 22/11 A3000 740 49 1700 300/04 RMK AO2 T02170106
13873KAHN AHN20160523092010305/23/16 09:20:31  5-MIN KAHN 231420Z 32004KT 10SM CLR 22/11 A3000 730 47 1800 320/04 RMK AO2 T02220106
13873KAHN AHN20160523092510305/23/16 09:25:31  5-MIN KAHN 231425Z VRB03KT 10SM CLR 22/11 A3000 730 49 1800 VRB/03 RMK AO2 T02220111
13873KAHN AHN20160523093010305/23/16 09:30:31  5-MIN KAHN 231430Z 31003KT 10SM CLR 23/11 A3000 730 45 1900 310/03 RMK AO2 T02330111
13873KAHN AHN20160523093510305/23/16 09:35:31  5-MIN KAHN 231435Z 00000KT 10SM CLR 23/11 A3000 740 47 1800 000/00 RMK AO2 T02280111
13873KAHN AHN20160523094010305/23/16 09:40:31  5-MIN KAHN 231440Z VRB03KT 10SM CLR 23/11 A3000 730 45 1800 VRB/03 RMK AO2 T02280106
13873KAHN AHN20160523094511605/23/16 09:45:31  5-MIN KAHN 231445Z 30003KT 10SM CLR 23/11 A3000 740 47 1800 300/03 RMK AO2 SLP154 T02280111 51012
13873KAHN AHN20160523095011605/23/16 09:50:31  5-MIN KAHN 231450Z VRB04KT 10SM CLR 23/11 A3000 740 45 1900 VRB/04 RMK AO2 SLP154 T02330111 51012
13873KAHN AHN20160523095510305/23/16 09:55:31  5-MIN KAHN 231455Z 34004KT 10SM CLR 23/11 A3000 730 45 1900 350/04 RMK AO2 T02330111
13873KAHN AHN20160523100010305/23/16 10:00:31  5-MIN KAHN 231500Z 31003KT 10SM CLR 23/11 A3000 730 45 1900 310/03 RMK AO2 T02330111
13873KAHN AHN20160523100510305/23/16 10:05:31  5-MIN KAHN 231505Z VRB03KT 10SM CLR 23/12 A3000 740 47 1900 VRB/03 RMK AO2 T02330117
13873KAHN AHN20160523101010305/23/16 10:10:31  5-MIN KAHN 231510Z VRB03KT 10SM CLR 23/11 A3000 740 45 1900 VRB/03 RMK AO2 T02330111
13873KAHN AHN20160523101510305/23/16 10:15:31  5-MIN KAHN 231515Z 00000KT 10SM CLR 24/11 A3000 740 44 2000 000/00 RMK AO2 T02390111
13873KAHN AHN20160523102010305/23/16 10:20:31  5-MIN KAHN 231520Z 00000KT 10SM CLR 24/12 A3000 740 46 2000 000/00 RMK AO2 T02390117
13873KAHN AHN20160523102510305/23/16 10:25:31  5-MIN KAHN 231525Z VRB04KT 10SM CLR 24/11 A3000 740 42 2000 VRB/04 RMK AO2 T02440111
13873KAHN AHN20160523103010305/23/16 10:30:31  5-MIN KAHN 231530Z VRB03KT 10SM CLR 24/11 A3000 740 44 2000 VRB/03 RMK AO2 T02390111
13873KAHN AHN20160523103510305/23/16 10:35:31  5-MIN KAHN 231535Z 00000KT 10SM CLR 23/11 A3000 740 44 1900 000/00 RMK AO2 T02330106
13873KAHN AHN20160523104010305/23/16 10:40:31  5-MIN KAHN 231540Z 30003KT 10SM CLR 24/11 A3000 740 42 2000 300/03 RMK AO2 T02440111
13873KAHN AHN20160523104511005/23/16 10:45:31  5-MIN KAHN 231545Z 23003KT 10SM CLR 24/11 A3000 740 42 2000 230/03 RMK AO2 SLP153 T02390106
13873KAHN AHN20160523105011005/23/16 10:50:31  5-MIN KAHN 231550Z VRB03KT 10SM CLR 25/11 A3000 740 41 2100 VRB/03 RMK AO2 SLP154 T02500111
13873KAHN AHN20160523105510305/23/16 10:55:31  5-MIN KAHN 231555Z VRB03KT 10SM CLR 25/11 A3000 740 41 2100 VRB/03 RMK AO2 T02500111
13873KAHN AHN20160523110010305/23/16 11:00:31  5-MIN KAHN 231600Z VRB04KT 10SM CLR 25/11 A3000 740 41 2100 VRB/04 RMK AO2 T02500111
13873KAHN AHN20160523110510305/23/16 11:05:31  5-MIN KAHN 231605Z VRB05KT 10SM CLR 26/12 A3000 740 41 2200 VRB/05 RMK AO2 T02560117
13873KAHN AHN20160523111010305/23/16 11:10:31  5-MIN KAHN 231610Z 00000KT 10SM CLR 25/11 A3000 740 39 2100 000/00 RMK AO2 T02500106
13873KAHN AHN20160523111510305/23/16 11:15:31  5-MIN KAHN 231615Z 29004KT 10SM CLR 25/11 A2999 740 41 2100 290/04 RMK AO2 T02500111
13873KAHN AHN20160523195511105/23/16 19:55:31  5-MIN KAHN 240055Z AUTO 10003KT 10SM SCT095 19/13 A2998 750 67 1500 100/03 RMK AO2 T01940133
13873KAHN AHN20160523200011105/23/16 20:00:31  5-MIN KAHN 240100Z AUTO 08003KT 10SM SCT095 19/13 A2998 750 67 1500 090/03 RMK AO2 T01940133
13873KAHN AHN20160523200511105/23/16 20:05:31  5-MIN KAHN 240105Z AUTO 09003KT 10SM BKN095 19/13 A2999 750 67 1500 100/03 RMK AO2 T01940133
13873KAHN AHN20160523201011105/23/16 20:10:31  5-MIN KAHN 240110Z AUTO 00000KT 10SM BKN090 19/13 A2999 750 67 1500 000/00 RMK AO2 T01940133
13873KAHN AHN20160523201511105/23/16 20:15:31  5-MIN KAHN 240115Z AUTO 00000KT 10SM BKN090 19/13 A2999 750 67 1500 000/00 RMK AO2 T01940133
13873KAHN AHN20160523202011105/23/16 20:20:31  5-MIN KAHN 240120Z AUTO 00000KT 10SM BKN090 19/14 A2999 740 72 1400 000/00 RMK AO2 T01890139
13873KAHN AHN20160523202511105/23/16 20:25:31  5-MIN KAHN 240125Z AUTO 12003KT 10SM BKN095 19/14 A2999 740 72 1400 120/03 RMK AO2 T01890139
13873KAHN AHN20160523203011105/23/16 20:30:31  5-MIN KAHN 240130Z AUTO 12003KT 10SM BKN095 19/13 A2999 740 70 1400 130/03 RMK AO2 T01890133
13873KAHN AHN20160523203511105/23/16 20:35:31  5-MIN KAHN 240135Z AUTO 00000KT 10SM BKN095 19/12 A3000 740 65 1400 000/00 RMK AO2 T01890122
13873KAHN AHN20160523204011105/23/16 20:40:31  5-MIN KAHN 240140Z AUTO 00000KT 10SM BKN095 19/12 A3000 740 65 1400 000/00 RMK AO2 T01890122
13873KAHN AHN20160523204511805/23/16 20:45:31  5-MIN KAHN 240145Z AUTO 00000KT 10SM BKN095 19/13 A3000 740 67 1400 000/00 RMK AO2 SLP155 T01890128
13873KAHN AHN20160523205011805/23/16 20:50:31  5-MIN KAHN 240150Z AUTO 00000KT 10SM BKN095 18/13 A3001 730 70 1300 000/00 RMK AO2 SLP156 T01830128
13873KAHN AHN20160523205511105/23/16 20:55:31  5-MIN KAHN 240155Z AUTO 08004KT 10SM SCT100 19/13 A3001 730 67 1400 090/04 RMK AO2 T01890128
13873KAHN AHN20160523210011105/23/16 21:00:31  5-MIN KAHN 240200Z AUTO 08003KT 10SM FEW100 18/13 A3001 730 72 1300 080/03 RMK AO2 T01830133
13873KAHN AHN20160523210511105/23/16 21:05:31  5-MIN KAHN 240205Z AUTO 07004KT 10SM FEW095 18/13 A3001 730 75 1300 070/04 RMK AO2 T01780133
13873KAHN AHN20160523211011105/23/16 21:10:31  5-MIN KAHN 240210Z AUTO 07004KT 10SM FEW095 18/13 A3001 720 75 1300 070/04 RMK AO2 T01780133
13873KAHN AHN20160523211511805/23/16 21:15:31  5-MIN KAHN 240215Z AUTO 07005KT 10SM FEW080 FEW100 18/13 A3002 720 75 1300 080/05 RMK AO2 T01780133
13873KAHN AHN20160523212011105/23/16 21:20:31  5-MIN KAHN 240220Z AUTO 08005KT 10SM FEW080 18/13 A3002 720 72 1300 080/05 RMK AO2 T01780128
13873KAHN AHN20160523212511105/23/16 21:25:31  5-MIN KAHN 240225Z AUTO 08005KT 10SM FEW080 18/13 A3002 720 72 1200 080/05 RMK AO2 T01780128
13873KAHN AHN20160523213011105/23/16 21:30:31  5-MIN KAHN 240230Z AUTO 08005KT 10SM FEW080 18/13 A3002 710 72 1200 080/05 RMK AO2 T01780128
13873KAHN AHN20160523213511105/23/16 21:35:31  5-MIN KAHN 240235Z AUTO 08005KT 10SM FEW080 18/12 A3003 710 69 1200 080/05 RMK AO2 T01780122
13873KAHN AHN20160523214011105/23/16 21:40:31  5-MIN KAHN 240240Z AUTO 08005KT 10SM FEW080 18/12 A3003 710 69 1200 090/05 RMK AO2 T01780122
13873KAHN AHN20160523214512405/23/16 21:45:31  5-MIN KAHN 240245Z AUTO 08005KT 10SM FEW090 17/12 A3004 700 72 1200 090/05 RMK AO2 SLP167 T01720122 53003
13873KAHN AHN20160523215012105/23/16 21:50:31  5-MIN KAHN 240250Z AUTO 09004KT 10SM CLR 17/12 A3004 700 72 1200 090/04 RMK AO2 SLP167 T01720122 53003
13873KAHN AHN20160523215510805/23/16 21:55:31  5-MIN KAHN 240255Z AUTO 10003KT 10SM CLR 17/12 A3004 700 72 1200 110/03 RMK AO2 T01720122
13873KAHN AHN20160523220010805/23/16 22:00:31  5-MIN KAHN 240300Z AUTO 10003KT 10SM CLR 17/13 A3004 700 77 1100 110/03 RMK AO2 T01670128
13873KAHN AHN20160523220510805/23/16 22:05:31  5-MIN KAHN 240305Z AUTO 11004KT 10SM CLR 17/12 A3005 690 75 1100 110/04 RMK AO2 T01670122
13873KAHN AHN20160523221010805/23/16 22:10:31  5-MIN KAHN 240310Z AUTO 11004KT 10SM CLR 17/12 A3005 690 75 1100 110/04 RMK AO2 T01670122
13873KAHN AHN20160523221510805/23/16 22:15:31  5-MIN KAHN 240315Z AUTO 11004KT 10SM CLR 17/12 A3005 690 72 1100 110/04 RMK AO2 T01670117
13873KAHN AHN20160523222010805/23/16 22:20:31  5-MIN KAHN 240320Z AUTO 11004KT 10SM CLR 17/12 A3005 690 72 1100 110/04 RMK AO2 T01670117
13873KAHN AHN20160523222510805/23/16 22:25:31  5-MIN KAHN 240325Z AUTO 11004KT 10SM CLR 17/12 A3005 690 72 1100 120/04 RMK AO2 T01670117
13873KAHN AHN20160523223010805/23/16 22:30:31  5-MIN KAHN 240330Z AUTO 11005KT 10SM CLR 17/12 A3005 690 72 1100 120/05 RMK AO2 T01670117
13873KAHN AHN20160523223510805/23/16 22:35:31  5-MIN KAHN 240335Z AUTO 11005KT 10SM CLR 17/12 A3005 690 69 1200 110/05 RMK AO2 T01720117
13873KAHN AHN20160523224010805/23/16 22:40:31  5-MIN KAHN 240340Z AUTO 10005KT 10SM CLR 17/12 A3005 690 72 1100 110/05 RMK AO2 T01670117
13873KAHN AHN20160523224511505/23/16 22:45:31  5-MIN KAHN 240345Z AUTO 10005KT 10SM CLR 17/12 A3005 690 72 1100 110/05 RMK AO2 SLP170 T01670117
13873KAHN AHN20160523225011505/23/16 22:50:31  5-MIN KAHN 240350Z AUTO 10004KT 10SM CLR 17/12 A3005 690 72 1100 110/04 RMK AO2 SLP170 T01670117
13873KAHN AHN20160523225510805/23/16 22:55:31  5-MIN KAHN 240355Z AUTO 11005KT 10SM CLR 17/12 A3005 690 72 1100 110/05 RMK AO2 T01670117
13873KAHN AHN20160523230010805/23/16 23:00:31  5-MIN KAHN 240400Z AUTO 10005KT 10SM CLR 17/12 A3005 690 72 1100 110/05 RMK AO2 T01670117
13873KAHN AHN20160523230510805/23/16 23:05:31  5-MIN KAHN 240405Z AUTO 10005KT 10SM CLR 17/12 A3005 690 72 1100 110/05 RMK AO2 T01670117
13873KAHN AHN20160523231010805/23/16 23:10:31  5-MIN KAHN 240410Z AUTO 10005KT 10SM CLR 17/12 A3005 690 72 1100 100/05 RMK AO2 T01670117
13873KAHN AHN20160523231510805/23/16 23:15:31  5-MIN KAHN 240415Z AUTO 10005KT 10SM CLR 17/12 A3005 690 72 1100 100/05 RMK AO2 T01670117
13873KAHN AHN20160523232010805/23/16 23:20:31  5-MIN KAHN 240420Z AUTO 10004KT 10SM CLR 16/12 A3005 690 75 1000 100/04 RMK AO2 T01610117
13873KAHN AHN20160523232510805/23/16 23:25:31  5-MIN KAHN 240425Z AUTO 10004KT 10SM CLR 16/12 A3005 690 75 1000 110/04 RMK AO2 T01610117
13873KAHN AHN20160523233011105/23/16 23:30:31  5-MIN KAHN 240430Z AUTO 10005KT 10SM FEW090 16/12 A3005 690 77 1000 100/05 RMK AO2 T01560117
13873KAHN AHN20160523233511105/23/16 23:35:31  5-MIN KAHN 240435Z AUTO 09006KT 10SM FEW090 16/12 A3005 690 80 1000 090/06 RMK AO2 T01560122
13873KAHN AHN20160523234010805/23/16 23:40:31  5-MIN KAHN 240440Z AUTO 09006KT 10SM CLR 16/12 A3005 690 77 1000 090/06 RMK AO2 T01560117
13873KAHN AHN20160523234512505/23/16 23:45:31  5-MIN KAHN 240445Z AUTO 10005KT 10SM CLR 16/12 A3005 690 77 1000 100/05 RMK AO2 SLP170 T01560117 402830111
13873KAHN AHN20160523235012505/23/16 23:50:31  5-MIN KAHN 240450Z AUTO 10005KT 10SM CLR 16/12 A3005 690 77 1000 100/05 RMK AO2 SLP171 T01560117 402830111
13873KAHN AHN20160523235510705/23/16 23:55:31  5-MIN KAHN 240455Z AUTO 10004KT 10SM CLR 15/12 A3005 690 80 900 100/04 RMK AO2 T01500117
13873KAHN AHN20160524000010705/24/16 00:00:31  5-MIN KAHN 240500Z AUTO 10004KT 10SM CLR 15/12 A3005 690 80 900 110/04 RMK AO2 T01500117
13873KAHN AHN20160524000510705/24/16 00:05:31  5-MIN KAHN 240505Z AUTO 10005KT 10SM CLR 15/12 A3005 690 80 900 110/05 RMK AO2 T01500117
13873KAHN AHN20160524001010705/24/16 00:10:31  5-MIN KAHN 240510Z AUTO 10005KT 10SM CLR 15/12 A3005 690 80 900 110/05 RMK AO2 T01500117
13873KAHN AHN20160524001510705/24/16 00:15:31  5-MIN KAHN 240515Z AUTO 09005KT 10SM CLR 15/12 A3005 690 80 900 100/05 RMK AO2 T01500117
13873KAHN AHN20160524002010705/24/16 00:20:31  5-MIN KAHN 240520Z AUTO 09005KT 10SM CLR 15/12 A3005 690 80 900 100/05 RMK AO2 T01500117
13873KAHN AHN20160524002510705/24/16 00:25:31  5-MIN KAHN 240525Z AUTO 10005KT 10SM CLR 14/12 A3005 690 83 800 100/05 RMK AO2 T01440117
13873KAHN AHN20160524003010705/24/16 00:30:31  5-MIN KAHN 240530Z AUTO 10005KT 10SM CLR 14/12 A3005 690 83 800 100/05 RMK AO2 T01440117
13873KAHN AHN20160524003510705/24/16 00:35:31  5-MIN KAHN 240535Z AUTO 10004KT 10SM CLR 14/12 A3005 690 83 800 110/04 RMK AO2 T01440117
13873KAHN AHN20160524004010705/24/16 00:40:31  5-MIN KAHN 240540Z AUTO 10004KT 10SM CLR 14/12 A3005 690 83 800 110/04 RMK AO2 T01440117
13873KAHN AHN20160524004513205/24/16 00:45:31  5-MIN KAHN 240545Z AUTO 10004KT 10SM CLR 14/12 A3005 690 83 800 110/04 RMK AO2 SLP171 T01440117 10239 20144 53026
13873KAHN AHN20160524005013205/24/16 00:50:31  5-MIN KAHN 240550Z AUTO 10004KT 10SM CLR 14/12 A3005 690 86 800 110/04 RMK AO2 SLP172 T01390117 10239 20139 53026
13873KAHN AHN20160524005510705/24/16 00:55:31  5-MIN KAHN 240555Z AUTO 10004KT 10SM CLR 14/12 A3005 690 83 800 100/04 RMK AO2 T01440117
13873KAHN AHN20160524010010705/24/16 01:00:31  5-MIN KAHN 240600Z AUTO 10004KT 10SM CLR 14/12 A3005 690 83 800 100/04 RMK AO2 T01440117
13873KAHN AHN20160524010510705/24/16 01:05:31  5-MIN KAHN 240605Z AUTO 10004KT 10SM CLR 14/12 A3005 690 86 800 100/04 RMK AO2 T01390117
13873KAHN AHN20160524011010705/24/16 01:10:31  5-MIN KAHN 240610Z AUTO 09004KT 10SM CLR 14/12 A3005 690 86 800 100/04 RMK AO2 T01390117
13873KAHN AHN20160524011510705/24/16 01:15:31  5-MIN KAHN 240615Z AUTO 08005KT 10SM CLR 14/12 A3005 690 86 800 080/05 RMK AO2 T01390117
13873KAHN AHN20160524012010705/24/16 01:20:31  5-MIN KAHN 240620Z AUTO 07003KT 10SM CLR 14/12 A3005 690 86 800 070/03 RMK AO2 T01390117
13873KAHN AHN20160524012510705/24/16 01:25:31  5-MIN KAHN 240625Z AUTO 06004KT 10SM CLR 14/12 A3005 690 86 800 070/04 RMK AO2 T01390117
13873KAHN AHN20160524013010705/24/16 01:30:31  5-MIN KAHN 240630Z AUTO 06003KT 10SM CLR 14/12 A3005 690 86 800 060/03 RMK AO2 T01390117
13873KAHN AHN20160524013510705/24/16 01:35:31  5-MIN KAHN 240635Z AUTO 06004KT 10SM CLR 14/12 A3005 690 86 800 070/04 RMK AO2 T01390117
13873KAHN AHN20160524014011005/24/16 01:40:31  5-MIN KAHN 240640Z AUTO 07004KT 10SM FEW090 14/12 A3005 690 86 800 070/04 RMK AO2 T01390117
13873KAHN AHN20160524014511705/24/16 01:45:31  5-MIN KAHN 240645Z AUTO 08003KT 10SM FEW090 14/12 A3005 690 86 800 090/03 RMK AO2 SLP171 T01390117
13873KAHN AHN20160524015011705/24/16 01:50:31  5-MIN KAHN 240650Z AUTO 07003KT 10SM SCT090 14/12 A3005 690 90 800 070/03 RMK AO2 SLP172 T01390122
13873KAHN AHN20160524015511005/24/16 01:55:31  5-MIN KAHN 240655Z AUTO 00000KT 10SM BKN090 14/12 A3005 690 90 800 000/00 RMK AO2 T01390122
13873KAHN AHN20160524020011005/24/16 02:00:31  5-MIN KAHN 240700Z AUTO 00000KT 10SM BKN090 14/12 A3006 680 90 800 000/00 RMK AO2 T01390122
13873KAHN AHN20160524020511005/24/16 02:05:31  5-MIN KAHN 240705Z AUTO 00000KT 10SM BKN090 13/12 A3006 680 89 700 000/00 RMK AO2 T01330117
13873KAHN AHN20160524021011005/24/16 02:10:31  5-MIN KAHN 240710Z AUTO 00000KT 10SM BKN090 13/12 A3006 680 89 700 000/00 RMK AO2 T01330117
13873KAHN AHN20160524021511005/24/16 02:15:31  5-MIN KAHN 240715Z AUTO 00000KT 10SM BKN090 13/12 A3006 680 93 700 000/00 RMK AO2 T01330122
13873KAHN AHN20160524022011005/24/16 02:20:31  5-MIN KAHN 240720Z AUTO 00000KT 10SM BKN090 14/12 A3006 680 86 700 000/00 RMK AO2 T01390117
13873KAHN AHN20160524022511005/24/16 02:25:31  5-MIN KAHN 240725Z AUTO 07004KT 10SM SCT090 14/12 A3006 680 86 700 080/04 RMK AO2 T01390117
13873KAHN AHN20160524023011005/24/16 02:30:31  5-MIN KAHN 240730Z AUTO 07004KT 10SM SCT090 14/12 A3006 680 86 700 070/04 RMK AO2 T01390117
13873KAHN AHN20160524023511005/24/16 02:35:31  5-MIN KAHN 240735Z AUTO 07005KT 10SM FEW085 14/12 A3006 680 86 800 070/05 RMK AO2 T01390117
13873KAHN AHN20160524024011005/24/16 02:40:31  5-MIN KAHN 240740Z AUTO 07005KT 10SM FEW085 14/12 A3006 680 86 700 080/05 RMK AO2 T01390117
13873KAHN AHN20160524024511705/24/16 02:45:31  5-MIN KAHN 240745Z AUTO 07005KT 10SM FEW090 14/12 A3006 680 86 800 080/05 RMK AO2 SLP174 T01390117
13873KAHN AHN20160524025011705/24/16 02:50:31  5-MIN KAHN 240750Z AUTO 08004KT 10SM SCT090 13/12 A3006 680 89 700 090/04 RMK AO2 SLP174 T01330117
13873KAHN AHN20160524025511005/24/16 02:55:31  5-MIN KAHN 240755Z AUTO 07003KT 10SM SCT090 13/12 A3006 680 89 700 080/03 RMK AO2 T01330117
13873KAHN AHN20160524030011005/24/16 03:00:31  5-MIN KAHN 240800Z AUTO 00000KT 10SM BKN085 13/12 A3007 680 89 700 000/00 RMK AO2 T01330117
13873KAHN AHN20160524030511005/24/16 03:05:31  5-MIN KAHN 240805Z AUTO 06003KT 10SM BKN085 13/12 A3007 680 89 700 070/03 RMK AO2 T01330117
13873KAHN AHN20160524031011005/24/16 03:10:31  5-MIN KAHN 240810Z AUTO 06003KT 10SM SCT085 13/12 A3007 670 89 700 060/03 RMK AO2 T01330117
13873KAHN AHN20160524031511005/24/16 03:15:31  5-MIN KAHN 240815Z AUTO 06004KT 10SM SCT085 13/12 A3007 670 89 700 070/04 RMK AO2 T01330117
13873KAHN AHN20160524032011005/24/16 03:20:31  5-MIN KAHN 240820Z AUTO 06005KT 10SM FEW085 13/12 A3007 670 89 700 070/05 RMK AO2 T01330117
13873KAHN AHN20160524032511005/24/16 03:25:31  5-MIN KAHN 240825Z AUTO 06005KT 10SM FEW085 13/12 A3007 670 89 700 070/05 RMK AO2 T01330117
13873KAHN AHN20160524033011005/24/16 03:30:31  5-MIN KAHN 240830Z AUTO 07006KT 10SM SCT085 13/12 A3007 670 89 700 080/06 RMK AO2 T01330117
13873KAHN AHN20160524033511005/24/16 03:35:31  5-MIN KAHN 240835Z AUTO 08005KT 10SM BKN085 14/12 A3007 670 86 700 080/05 RMK AO2 T01390117
13873KAHN AHN20160524034011005/24/16 03:40:31  5-MIN KAHN 240840Z AUTO 07004KT 10SM BKN085 14/12 A3007 670 86 700 080/04 RMK AO2 T01390117
13873KAHN AHN20160524034512305/24/16 03:45:31  5-MIN KAHN 240845Z AUTO 06005KT 10SM BKN085 14/12 A3007 670 86 700 070/05 RMK AO2 SLP178 T01390117 51005
13873KAHN AHN20160524035012305/24/16 03:50:31  5-MIN KAHN 240850Z AUTO 06006KT 10SM BKN085 14/12 A3007 670 86 700 070/06 RMK AO2 SLP178 T01390117 51005
13873KAHN AHN20160524035511005/24/16 03:55:31  5-MIN KAHN 240855Z AUTO 07006KT 10SM OVC085 14/12 A3007 670 90 700 070/06 RMK AO2 T01390122
13873KAHN AHN20160524040011005/24/16 04:00:31  5-MIN KAHN 240900Z AUTO 07005KT 10SM BKN090 14/12 A3007 670 86 700 080/05 RMK AO2 T01390117
13873KAHN AHN20160524040511005/24/16 04:05:31  5-MIN KAHN 240905Z AUTO 08005KT 10SM BKN085 14/12 A3008 670 86 700 080/05 RMK AO2 T01390117
13873KAHN AHN20160524041011005/24/16 04:10:31  5-MIN KAHN 240910Z AUTO 07005KT 10SM SCT090 14/12 A3008 660 86 700 080/05 RMK AO2 T01390117
13873KAHN AHN20160524041511005/24/16 04:15:31  5-MIN KAHN 240915Z AUTO 07004KT 10SM SCT090 14/12 A3008 660 86 700 080/04 RMK AO2 T01390117
13873KAHN AHN20160524042011005/24/16 04:20:31  5-MIN KAHN 240920Z AUTO 07004KT 10SM FEW090 13/12 A3008 660 89 700 070/04 RMK AO2 T01330117
13873KAHN AHN20160524042511005/24/16 04:25:31  5-MIN KAHN 240925Z AUTO 08003KT 10SM FEW085 13/12 A3008 660 89 700 080/03 RMK AO2 T01330117
13873KAHN AHN20160524043011005/24/16 04:30:31  5-MIN KAHN 240930Z AUTO 00000KT 10SM SCT085 13/12 A3009 660 89 700 000/00 RMK AO2 T01330117
13873KAHN AHN20160524043511005/24/16 04:35:31  5-MIN KAHN 240935Z AUTO 06003KT 10SM BKN085 13/12 A3009 650 89 600 060/03 RMK AO2 T01330117
13873KAHN AHN20160524044011005/24/16 04:40:31  5-MIN KAHN 240940Z AUTO 05003KT 10SM BKN085 13/12 A3009 650 89 600 060/03 RMK AO2 T01330117
13873KAHN AHN20160524044511705/24/16 04:45:31  5-MIN KAHN 240945Z AUTO 06004KT 10SM BKN085 14/12 A3009 660 86 700 070/04 RMK AO2 SLP183 T01390117
13873KAHN AHN20160524045011705/24/16 04:50:31  5-MIN KAHN 240950Z AUTO 07005KT 10SM BKN085 14/12 A3009 660 86 700 070/05 RMK AO2 SLP184 T01390117
13873KAHN AHN20160524045511005/24/16 04:55:31  5-MIN KAHN 240955Z AUTO 07005KT 10SM BKN085 13/12 A3009 650 89 600 070/05 RMK AO2 T01330117
13873KAHN AHN20160524050011005/24/16 05:00:31  5-MIN KAHN 241000Z AUTO 07005KT 10SM BKN085 14/12 A3009 650 86 700 070/05 RMK AO2 T01390117
13873KAHN AHN20160524050511005/24/16 05:05:31  5-MIN KAHN 241005Z AUTO 06005KT 10SM BKN085 14/12 A3009 650 86 700 070/05 RMK AO2 T01390117
13873KAHN AHN20160524051011005/24/16 05:10:31  5-MIN KAHN 241010Z AUTO 06004KT 10SM BKN085 14/12 A3010 640 86 700 070/04 RMK AO2 T01390117
13873KAHN AHN20160524051511005/24/16 05:15:31  5-MIN KAHN 241015Z AUTO 06003KT 10SM SCT085 13/12 A3010 640 89 600 060/03 RMK AO2 T01330117
13873KAHN AHN20160524052011005/24/16 05:20:31  5-MIN KAHN 241020Z AUTO 06004KT 10SM BKN085 13/12 A3011 640 89 600 070/04 RMK AO2 T01330117
13873KAHN AHN20160524052511005/24/16 05:25:31  5-MIN KAHN 241025Z AUTO 06004KT 10SM BKN085 13/12 A3011 630 89 600 070/04 RMK AO2 T01330117
13873KAHN AHN20160524053011005/24/16 05:30:31  5-MIN KAHN 241030Z AUTO 06004KT 10SM BKN085 13/12 A3011 630 89 600 070/04 RMK AO2 T01330117
13873KAHN AHN20160524053511005/24/16 05:35:31  5-MIN KAHN 241035Z AUTO 06003KT 10SM BKN085 14/12 A3011 630 86 700 070/03 RMK AO2 T01390117
13873KAHN AHN20160524054011005/24/16 05:40:31  5-MIN KAHN 241040Z AUTO 06004KT 10SM BKN085 14/12 A3011 630 86 700 060/04 RMK AO2 T01390117
13873KAHN AHN20160524054511705/24/16 05:45:31  5-MIN KAHN 241045Z AUTO 07004KT 10SM BKN085 14/12 A3011 630 86 700 080/04 RMK AO2 SLP192 T01390117
13873KAHN AHN20160524055011705/24/16 05:50:31  5-MIN KAHN 241050Z AUTO 08004KT 10SM BKN085 14/12 A3011 630 86 700 080/04 RMK AO2 SLP193 T01390117
13873KAHN AHN20160524055511005/24/16 05:55:31  5-MIN KAHN 241055Z AUTO 07003KT 10SM BKN085 14/12 A3012 630 90 700 080/03 RMK AO2 T01390122
13873KAHN AHN20160524060011005/24/16 06:00:31  5-MIN KAHN 241100Z AUTO 07004KT 10SM BKN085 14/12 A3012 630 86 800 080/04 RMK AO2 T01440122
13873KAHN AHN20160524060511005/24/16 06:05:31  5-MIN KAHN 241105Z AUTO 07003KT 10SM BKN085 14/12 A3012 630 86 700 080/03 RMK AO2 T01440122
13873KAHN AHN20160524061011005/24/16 06:10:31  5-MIN KAHN 241110Z AUTO 07003KT 10SM BKN085 15/12 A3013 620 83 800 070/03 RMK AO2 T01500122
13873KAHN AHN20160524061511005/24/16 06:15:31  5-MIN KAHN 241115Z AUTO 00000KT 10SM BKN085 16/13 A3013 620 83 900 000/00 RMK AO2 T01560128
13873KAHN AHN20160524062011005/24/16 06:20:31  5-MIN KAHN 241120Z AUTO 00000KT 10SM BKN085 16/12 A3013 620 80 900 000/00 RMK AO2 T01560122
13873KAHN AHN20160524062511005/24/16 06:25:31  5-MIN KAHN 241125Z AUTO 07005KT 10SM BKN085 16/12 A3013 620 80 900 070/05 RMK AO2 T01560122
13873KAHN AHN20160524063011005/24/16 06:30:31  5-MIN KAHN 241130Z AUTO 06005KT 10SM BKN085 16/12 A3013 620 80 900 060/05 RMK AO2 T01560122
13873KAHN AHN20160524063511005/24/16 06:35:31  5-MIN KAHN 241135Z AUTO 07006KT 10SM SCT085 16/12 A3013 620 80 900 080/06 RMK AO2 T01560122
13873KAHN AHN20160524064011005/24/16 06:40:31  5-MIN KAHN 241140Z AUTO 08006KT 10SM SCT085 16/12 A3013 610 77 900 090/06 RMK AO2 T01610122
13873KAHN AHN20160524064513005/24/16 06:45:31  5-MIN KAHN 241145Z 08005KT 10SM FEW085 16/12 A3013 610 77 900 080/05 RMK AO2 SLP199 T01610122 10161 20133 53006
13873KAHN AHN20160524065013105/24/16 06:50:31  5-MIN KAHN 241150Z 08006KT 10SM FEW085 17/13 A3013 610 77 1000 080/06 RMK AO2 SLP199 T01670128 10167 20133 53006
13873KAHN AHN20160524065510305/24/16 06:55:31  5-MIN KAHN 241155Z 08005KT 10SM CLR 17/13 A3014 610 77 1000 090/05 RMK AO2 T01670128
13873KAHN AHN20160524070010305/24/16 07:00:31  5-MIN KAHN 241200Z 08005KT 10SM CLR 17/13 A3014 610 75 1000 090/05 RMK AO2 T01720128
13873KAHN AHN20160524070510305/24/16 07:05:31  5-MIN KAHN 241205Z 08005KT 10SM CLR 17/13 A3015 600 75 1000 090/05 RMK AO2 T01720128
13873KAHN AHN20160524071010305/24/16 07:10:31  5-MIN KAHN 241210Z 08004KT 10SM CLR 18/13 A3015 600 72 1100 090/04 RMK AO2 T01780128
13873KAHN AHN20160524071510305/24/16 07:15:31  5-MIN KAHN 241215Z 09004KT 10SM CLR 18/13 A3015 600 72 1100 090/04 RMK AO2 T01780128
13873KAHN AHN20160524072010305/24/16 07:20:31  5-MIN KAHN 241220Z 10004KT 10SM CLR 18/13 A3016 590 72 1100 100/04 RMK AO2 T01780128
13873KAHN AHN20160524072510305/24/16 07:25:31  5-MIN KAHN 241225Z 08004KT 10SM CLR 18/13 A3016 590 72 1200 090/04 RMK AO2 T01830133
13873KAHN AHN20160524073010305/24/16 07:30:31  5-MIN KAHN 241230Z 10004KT 10SM CLR 18/13 A3016 590 70 1200 100/04 RMK AO2 T01830128
13873KAHN AHN20160524073510305/24/16 07:35:31  5-MIN KAHN 241235Z 10004KT 10SM CLR 18/13 A3016 590 70 1200 100/04 RMK AO2 T01830128
13873KAHN AHN20160524074010305/24/16 07:40:31  5-MIN KAHN 241240Z 09005KT 10SM CLR 19/13 A3016 590 67 1200 090/05 RMK AO2 T01890128
13873KAHN AHN20160524074511005/24/16 07:45:31  5-MIN KAHN 241245Z 11005KT 10SM CLR 19/13 A3016 590 70 1200 110/05 RMK AO2 SLP209 T01890133
13873KAHN AHN20160524075011005/24/16 07:50:31  5-MIN KAHN 241250Z 11004KT 10SM CLR 19/13 A3016 590 70 1200 120/04 RMK AO2 SLP209 T01890133
13873KAHN AHN20160524075510305/24/16 07:55:31  5-MIN KAHN 241255Z VRB05KT 10SM CLR 19/13 A3016 590 65 1300 VRB/05 RMK AO2 T01940128
13873KAHN AHN20160524080010305/24/16 08:00:31  5-MIN KAHN 241300Z VRB03KT 10SM CLR 19/13 A3016 590 67 1300 VRB/03 RMK AO2 T01940133
13873KAHN AHN20160524080510305/24/16 08:05:31  5-MIN KAHN 241305Z 11005KT 10SM CLR 19/13 A3016 590 67 1300 110/05 RMK AO2 T01940133
13873KAHN AHN20160524081010305/24/16 08:10:31  5-MIN KAHN 241310Z 10004KT 10SM CLR 20/13 A3017 580 63 1300 100/04 RMK AO2 T02000128
13873KAHN AHN20160524081510305/24/16 08:15:31  5-MIN KAHN 241315Z VRB03KT 10SM CLR 20/13 A3017 580 65 1300 VRB/03 RMK AO2 T02000133
13873KAHN AHN20160524082010305/24/16 08:20:31  5-MIN KAHN 241320Z VRB03KT 10SM CLR 20/13 A3017 580 65 1300 VRB/03 RMK AO2 T02000133
13873KAHN AHN20160524082510305/24/16 08:25:31  5-MIN KAHN 241325Z 00000KT 10SM CLR 20/13 A3017 580 65 1300 000/00 RMK AO2 T02000133
13873KAHN AHN20160524083010305/24/16 08:30:31  5-MIN KAHN 241330Z 00000KT 10SM CLR 20/13 A3017 580 65 1300 000/00 RMK AO2 T02000133
13873KAHN AHN20160524083510305/24/16 08:35:31  5-MIN KAHN 241335Z VRB03KT 10SM CLR 21/13 A3017 580 63 1400 VRB/03 RMK AO2 T02060133
13873KAHN AHN20160524084010305/24/16 08:40:31  5-MIN KAHN 241340Z VRB03KT 10SM CLR 21/13 A3017 580 63 1400 VRB/03 RMK AO2 T02060133
13873KAHN AHN20160524084511005/24/16 08:45:31  5-MIN KAHN 241345Z 00000KT 10SM CLR 20/13 A3017 580 65 1300 000/00 RMK AO2 SLP212 T02000133
13873KAHN AHN20160524085011005/24/16 08:50:31  5-MIN KAHN 241350Z 00000KT 10SM CLR 21/13 A3017 580 63 1400 000/00 RMK AO2 SLP212 T02060133
13873KAHN AHN20160524085510305/24/16 08:55:31  5-MIN KAHN 241355Z 00000KT 10SM CLR 21/13 A3017 580 61 1500 000/00 RMK AO2 T02110133
13873KAHN AHN20160524090010305/24/16 09:00:31  5-MIN KAHN 241400Z 00000KT 10SM CLR 21/13 A3017 580 61 1500 000/00 RMK AO2 T02110133
13873KAHN AHN20160524090510305/24/16 09:05:31  5-MIN KAHN 241405Z VRB03KT 10SM CLR 21/13 A3017 580 61 1500 VRB/03 RMK AO2 T02110133
13873KAHN AHN20160524091010305/24/16 09:10:31  5-MIN KAHN 241410Z 00000KT 10SM CLR 21/13 A3017 580 61 1500 000/00 RMK AO2 T02110133
13873KAHN AHN20160524091510305/24/16 09:15:31  5-MIN KAHN 241415Z 08003KT 10SM CLR 22/13 A3017 580 58 1500 080/03 RMK AO2 T02170133
13873KAHN AHN20160524092010305/24/16 09:20:31  5-MIN KAHN 241420Z 00000KT 10SM CLR 22/13 A3017 580 58 1500 000/00 RMK AO2 T02170133
13873KAHN AHN20160524092510305/24/16 09:25:31  5-MIN KAHN 241425Z 10003KT 10SM CLR 22/13 A3017 580 58 1500 100/03 RMK AO2 T02170133
13873KAHN AHN20160524093010305/24/16 09:30:31  5-MIN KAHN 241430Z 00000KT 10SM CLR 22/14 A3017 580 59 1600 000/00 RMK AO2 T02220139
13873KAHN AHN20160524093510305/24/16 09:35:31  5-MIN KAHN 241435Z VRB03KT 10SM CLR 22/14 A3017 580 59 1600 VRB/03 RMK AO2 T02220139
13873KAHN AHN20160524094010305/24/16 09:40:31  5-MIN KAHN 241440Z 06004KT 10SM CLR 23/14 A3017 580 57 1700 070/04 RMK AO2 T02280139
13873KAHN AHN20160524094511605/24/16 09:45:31  5-MIN KAHN 241445Z VRB03KT 10SM CLR 23/13 A3017 580 55 1700 VRB/03 RMK AO2 SLP214 T02280133 53021
13873KAHN AHN20160524095011605/24/16 09:50:31  5-MIN KAHN 241450Z 00000KT 10SM CLR 23/14 A3017 580 57 1700 000/00 RMK AO2 SLP213 T02280139 53021
13873KAHN AHN20160524095510305/24/16 09:55:31  5-MIN KAHN 241455Z 00000KT 10SM CLR 22/13 A3017 580 56 1600 000/00 RMK AO2 T02220133
13873KAHN AHN20160524100010305/24/16 10:00:31  5-MIN KAHN 241500Z VRB03KT 10SM CLR 23/14 A3017 580 57 1700 VRB/03 RMK AO2 T02280139
13873KAHN AHN20160524100510305/24/16 10:05:31  5-MIN KAHN 241505Z 00000KT 10SM CLR 23/14 A3017 580 55 1700 000/00 RMK AO2 T02330139
13873KAHN AHN20160524101010305/24/16 10:10:31  5-MIN KAHN 241510Z 00000KT 10SM CLR 23/14 A3017 580 55 1700 000/00 RMK AO2 T02330139
13873KAHN AHN20160524101510305/24/16 10:15:31  5-MIN KAHN 241515Z 00000KT 10SM CLR 23/14 A3017 580 55 1700 000/00 RMK AO2 T02330139
13873KAHN AHN20160524102010305/24/16 10:20:31  5-MIN KAHN 241520Z 00000KT 10SM CLR 24/15 A3017 580 57 1800 000/00 RMK AO2 T02390150
13873KAHN AHN20160524102510305/24/16 10:25:31  5-MIN KAHN 241525Z VRB03KT 10SM CLR 23/14 A3017 580 57 1700 VRB/03 RMK AO2 T02330144
13873KAHN AHN20160524103010305/24/16 10:30:31  5-MIN KAHN 241530Z 09004KT 10SM CLR 24/14 A3017 580 51 1800 090/04 RMK AO2 T02440139
13873KAHN AHN20160524103510305/24/16 10:35:31  5-MIN KAHN 241535Z 00000KT 10SM CLR 24/14 A3017 580 53 1800 000/00 RMK AO2 T02390139
13873KAHN AHN20160524104010305/24/16 10:40:31  5-MIN KAHN 241540Z 00000KT 10SM CLR 24/14 A3017 580 53 1800 000/00 RMK AO2 T02440144
13873KAHN AHN20160524104511005/24/16 10:45:31  5-MIN KAHN 241545Z 00000KT 10SM CLR 24/14 A3017 580 53 1800 000/00 RMK AO2 SLP213 T02440144
13873KAHN AHN20160524105011005/24/16 10:50:31  5-MIN KAHN 241550Z VRB03KT 10SM CLR 24/14 A3017 580 53 1800 VRB/03 RMK AO2 SLP212 T02440144
13873KAHN AHN20160524105510305/24/16 10:55:31  5-MIN KAHN 241555Z VRB03KT 10SM CLR 24/14 A3017 580 53 1800 VRB/03 RMK AO2 T02440144
13873KAHN AHN20160524110010305/24/16 11:00:31  5-MIN KAHN 241600Z 00000KT 10SM CLR 25/14 A3017 580 49 1900 000/00 RMK AO2 T02500139
13873KAHN AHN20160524110510305/24/16 11:05:31  5-MIN KAHN 241605Z 00000KT 10SM CLR 25/14 A3018 580 49 1900 000/00 RMK AO2 T02500139
13873KAHN AHN20160524111010305/24/16 11:10:31  5-MIN KAHN 241610Z 00000KT 10SM CLR 24/14 A3018 570 51 1800 000/00 RMK AO2 T02440139
13873KAHN AHN20160524111510305/24/16 11:15:31  5-MIN KAHN 241615Z 00000KT 10SM CLR 24/14 A3017 580 51 1800 000/00 RMK AO2 T02440139
13873KAHN AHN20160524112010305/24/16 11:20:31  5-MIN KAHN 241620Z 00000KT 10SM CLR 26/14 A3018 580 49 2000 000/00 RMK AO2 T02560144
13873KAHN AHN20160524112510305/24/16 11:25:31  5-MIN KAHN 241625Z VRB03KT 10SM CLR 26/14 A3017 580 48 2000 VRB/03 RMK AO2 T02610144
13873KAHN AHN20160524113010305/24/16 11:30:31  5-MIN KAHN 241630Z 08004KT 10SM CLR 26/15 A3017 580 50 2000 080/04 RMK AO2 T02610150
13873KAHN AHN20160524113510305/24/16 11:35:31  5-MIN KAHN 241635Z 00000KT 10SM CLR 26/15 A3017 580 50 2000 000/00 RMK AO2 T02610150
13873KAHN AHN20160524114010305/24/16 11:40:31  5-MIN KAHN 241640Z 30003KT 10SM CLR 27/15 A3017 580 48 2100 310/03 RMK AO2 T02670150
13873KAHN AHN20160524114511005/24/16 11:45:31  5-MIN KAHN 241645Z 00000KT 10SM CLR 27/14 A3017 580 46 2100 000/00 RMK AO2 SLP212 T02670144
13873KAHN AHN20160524115011005/24/16 11:50:31  5-MIN KAHN 241650Z 00000KT 10SM CLR 26/14 A3017 580 48 2000 000/00 RMK AO2 SLP212 T02610144
13873KAHN AHN20160524115510305/24/16 11:55:31  5-MIN KAHN 241655Z 00000KT 10SM CLR 27/14 A3017 580 46 2100 000/00 RMK AO2 T02670144
13873KAHN AHN20160524120010305/24/16 12:00:31  5-MIN KAHN 241700Z 07004KT 10SM CLR 27/14 A3017 580 46 2100 080/04 RMK AO2 T02670144
13873KAHN AHN20160524120510305/24/16 12:05:31  5-MIN KAHN 241705Z 00000KT 10SM CLR 27/14 A3017 580 43 2200 000/00 RMK AO2 T02720139
13873KAHN AHN20160524121010305/24/16 12:10:31  5-MIN KAHN 241710Z 00000KT 10SM CLR 27/14 A3016 590 45 2200 000/00 RMK AO2 T02720144
13873KAHN AHN20160524121510305/24/16 12:15:31  5-MIN KAHN 241715Z 00000KT 10SM CLR 27/14 A3016 590 45 2100 000/00 RMK AO2 T02670139
13873KAHN AHN20160524122010305/24/16 12:20:31  5-MIN KAHN 241720Z 00000KT 10SM CLR 27/14 A3016 590 45 2100 000/00 RMK AO2 T02670139
13873KAHN AHN20160524122510305/24/16 12:25:31  5-MIN KAHN 241725Z 27003KT 10SM CLR 28/13 A3016 590 40 2200 280/03 RMK AO2 T02780133
13873KAHN AHN20160524123010305/24/16 12:30:31  5-MIN KAHN 241730Z VRB04KT 10SM CLR 27/13 A3016 590 40 2200 VRB/04 RMK AO2 T02720128
13873KAHN AHN20160524123510305/24/16 12:35:31  5-MIN KAHN 241735Z VRB03KT 10SM CLR 27/13 A3015 590 40 2200 VRB/03 RMK AO2 T02720128
13873KAHN AHN20160524124010305/24/16 12:40:31  5-MIN KAHN 241740Z VRB03KT 10SM CLR 27/13 A3015 600 40 2200 VRB/03 RMK AO2 T02720128
13873KAHN AHN20160524124512805/24/16 12:45:31  5-MIN KAHN 241745Z VRB05KT 10SM CLR 28/13 A3016 590 39 2200 VRB/05 RMK AO2 SLP206 T02780128 10278 20167 51013
13873KAHN AHN20160524125012805/24/16 12:50:31  5-MIN KAHN 241750Z VRB04KT 10SM CLR 28/13 A3015 600 37 2300 VRB/04 RMK AO2 SLP206 T02830128 10283 20167 51013
13873KAHN AHN20160524125509305/24/16 12:55:31  5-MIN KAHN 241755Z 10SM CLR 28/13 A3015 590 37 2300 M /M RMK AO2 T02830128
13873KAHN AHN20160524130010305/24/16 13:00:31  5-MIN KAHN 241800Z 00000KT 10SM CLR 28/12 A3015 600 36 2300 000/00 RMK AO2 T02830122
13873KAHN AHN20160524130510305/24/16 13:05:31  5-MIN KAHN 241805Z 00000KT 10SM CLR 28/12 A3015 600 36 2300 000/00 RMK AO2 T02830122
13873KAHN AHN20160524131010305/24/16 13:10:31  5-MIN KAHN 241810Z 00000KT 10SM CLR 28/12 A3015 600 37 2200 000/00 RMK AO2 T02780122
13873KAHN AHN20160524131509305/24/16 13:15:31  5-MIN KAHN 241815Z 10SM CLR 28/12 A3015 600 36 2300 M /M RMK AO2 T02830122
13873KAHN AHN20160524132010605/24/16 13:20:31  5-MIN KAHN 241820Z 00000KT 10SM FEW065 28/12 A3015 600 36 2200 000/00 RMK AO2 T02780117
13873KAHN AHN20160524132510605/24/16 13:25:31  5-MIN KAHN 241825Z 00000KT 10SM SCT065 28/12 A3015 600 36 2200 000/00 RMK AO2 T02780117
13873KAHN AHN20160524133010605/24/16 13:30:31  5-MIN KAHN 241830Z 00000KT 10SM SCT070 27/13 A3015 600 41 2100 000/00 RMK AO2 T02670128
13873KAHN AHN20160524133510605/24/16 13:35:31  5-MIN KAHN 241835Z 00000KT 10SM BKN070 27/13 A3015 600 40 2200 000/00 RMK AO2 T02720128
13873KAHN AHN20160524134010605/24/16 13:40:31  5-MIN KAHN 241840Z VRB03KT 10SM BKN070 28/12 A3014 600 36 2300 VRB/03 RMK AO2 T02830122
13873KAHN AHN20160524134511305/24/16 13:45:31  5-MIN KAHN 241845Z VRB04KT 10SM BKN070 27/11 A3014 600 36 2200 VRB/04 RMK AO2 SLP202 T02720111
13873KAHN AHN20160524135010305/24/16 13:50:31  5-MIN KAHN 241850Z 10SM OVC070 28/12 A3014 610 35 2300 M /M RMK AO2 SLP202 T02830117
13873KAHN AHN20160524135510605/24/16 13:55:31  5-MIN KAHN 241855Z 33003KT 10SM OVC070 28/13 A3014 610 37 2300 340/03 RMK AO2 T02830128
13873KAHN AHN20160524140010605/24/16 14:00:31  5-MIN KAHN 241900Z VRB04KT 10SM BKN070 28/12 A3014 610 36 2300 VRB/04 RMK AO2 T02830122
13873KAHN AHN20160524140510605/24/16 14:05:31  5-MIN KAHN 241905Z VRB03KT 10SM BKN070 29/12 A3014 610 35 2400 VRB/03 RMK AO2 T02890122
13873KAHN AHN20160524141010605/24/16 14:10:31  5-MIN KAHN 241910Z VRB05KT 10SM SCT070 29/12 A3014 610 34 2400 VRB/05 RMK AO2 T02940122
13873KAHN AHN20160524141510605/24/16 14:15:31  5-MIN KAHN 241915Z 00000KT 10SM SCT075 28/12 A3014 610 35 2300 000/00 RMK AO2 T02830117
13873KAHN AHN20160524142010605/24/16 14:20:31  5-MIN KAHN 241920Z VRB04KT 10SM FEW070 29/12 A3014 610 35 2400 VRB/04 RMK AO2 T02890122
13873KAHN AHN20160524142510305/24/16 14:25:31  5-MIN KAHN 241925Z 33003KT 10SM CLR 28/11 A3013 610 33 2300 330/03 RMK AO2 T02830111
13873KAHN AHN20160524143010305/24/16 14:30:31  5-MIN KAHN 241930Z VRB04KT 10SM CLR 29/10 A3013 620 30 2400 VRB/04 RMK AO2 T02890100
13873KAHN AHN20160524143510605/24/16 14:35:31  5-MIN KAHN 241935Z VRB04KT 10SM FEW075 29/11 A3013 620 30 2500 VRB/04 RMK AO2 T02940106
13873KAHN AHN20160524144010605/24/16 14:40:31  5-MIN KAHN 241940Z 00000KT 10SM SCT075 29/10 A3013 620 29 2500 000/00 RMK AO2 T02940100
13873KAHN AHN20160524144511305/24/16 14:45:31  5-MIN KAHN 241945Z VRB03KT 10SM SCT075 29/11 A3013 620 31 2500 VRB/03 RMK AO2 SLP197 T02940111
13873KAHN AHN20160524145011305/24/16 14:50:31  5-MIN KAHN 241950Z VRB05KT 10SM FEW075 29/11 A3013 620 31 2500 VRB/05 RMK AO2 SLP196 T02940111
13873KAHN AHN20160524145510605/24/16 14:55:31  5-MIN KAHN 241955Z VRB03KT 10SM FEW075 29/11 A3012 620 30 2500 VRB/03 RMK AO2 T02940106
13873KAHN AHN20160524150010605/24/16 15:00:31  5-MIN KAHN 242000Z 00000KT 10SM FEW075 29/11 A3012 620 31 2400 000/00 RMK AO2 T02890106
13873KAHN AHN20160524150510605/24/16 15:05:31  5-MIN KAHN 242005Z VRB03KT 10SM FEW075 29/11 A3012 620 31 2500 VRB/03 RMK AO2 T02940111
13873KAHN AHN20160524151010305/24/16 15:10:31  5-MIN KAHN 242010Z VRB05KT 10SM CLR 29/11 A3012 630 32 2400 VRB/05 RMK AO2 T02890111
13873KAHN AHN20160524151510305/24/16 15:15:31  5-MIN KAHN 242015Z VRB04KT 10SM CLR 29/11 A3012 630 30 2500 VRB/04 RMK AO2 T02940106
13873KAHN AHN20160524152010305/24/16 15:20:31  5-MIN KAHN 242020Z 32004KT 10SM CLR 29/11 A3012 630 30 2500 330/04 RMK AO2 T02940106
13873KAHN AHN20160524152510305/24/16 15:25:31  5-MIN KAHN 242025Z 29004KT 10SM CLR 28/11 A3012 630 32 2300 290/04 RMK AO2 T02830106
13873KAHN AHN20160524184010305/24/16 18:40:31  5-MIN KAHN 242340Z 00000KT 10SM CLR 27/12 A3012 630 39 2200 000/00 RMK AO2 T02720122
13873KAHN AHN20160524184512805/24/16 18:45:31  5-MIN KAHN 242345Z 00000KT 10SM CLR 27/12 A3012 630 40 2200 000/00 RMK AO2 SLP194 T02670122 10294 20267 58014
13873KAHN AHN20160524185012805/24/16 18:50:31  5-MIN KAHN 242350Z 00000KT 10SM CLR 27/12 A3012 630 40 2200 000/00 RMK AO2 SLP195 T02670122 10294 20267 58014
13873KAHN AHN20160524185510305/24/16 18:55:31  5-MIN KAHN 242355Z 00000KT 10SM CLR 26/13 A3012 620 43 2100 000/00 RMK AO2 T02610128
13873KAHN AHN20160524190010305/24/16 19:00:31  5-MIN KAHN 250000Z 00000KT 10SM CLR 26/13 A3012 620 46 2000 000/00 RMK AO2 T02560133
13873KAHN AHN20160524190510805/24/16 19:05:31  5-MIN KAHN 250005Z AUTO 00000KT 10SM CLR 26/14 A3012 620 48 2000 000/00 RMK AO2 T02560139
13873KAHN AHN20160524191010805/24/16 19:10:31  5-MIN KAHN 250010Z AUTO 00000KT 10SM CLR 25/13 A3012 630 48 2000 000/00 RMK AO2 T02500133
13873KAHN AHN20160524191510805/24/16 19:15:31  5-MIN KAHN 250015Z AUTO 00000KT 10SM CLR 25/13 A3012 620 46 2000 000/00 RMK AO2 T02500128
13873KAHN AHN20160524192010805/24/16 19:20:31  5-MIN KAHN 250020Z AUTO 00000KT 10SM CLR 24/13 A3012 620 47 1900 000/00 RMK AO2 T02440128
13873KAHN AHN20160524192510805/24/16 19:25:31  5-MIN KAHN 250025Z AUTO 00000KT 10SM CLR 24/12 A3012 620 47 1800 000/00 RMK AO2 T02390122
13873KAHN AHN20160524193010805/24/16 19:30:31  5-MIN KAHN 250030Z AUTO 00000KT 10SM CLR 23/14 A3012 620 55 1800 000/00 RMK AO2 T02330139
13873KAHN AHN20160524193510805/24/16 19:35:31  5-MIN KAHN 250035Z AUTO 00000KT 10SM CLR 23/14 A3013 620 55 1800 000/00 RMK AO2 T02330139
13873KAHN AHN20160524194010705/24/16 19:40:31  5-MIN KAHN 250040Z AUTO 00000KT 9SM CLR 23/14 A3013 620 59 1700 000/00 RMK AO2 T02280144
13873KAHN AHN20160524194511405/24/16 19:45:31  5-MIN KAHN 250045Z AUTO 00000KT 9SM CLR 23/14 A3013 620 57 1700 000/00 RMK AO2 SLP198 T02280139
13873KAHN AHN20160524195011505/24/16 19:50:31  5-MIN KAHN 250050Z AUTO 00000KT 10SM CLR 22/14 A3013 620 61 1600 000/00 RMK AO2 SLP198 T02220144
13873KAHN AHN20160524195510805/24/16 19:55:31  5-MIN KAHN 250055Z AUTO 00000KT 10SM CLR 22/14 A3013 610 63 1600 000/00 RMK AO2 T02170144
13873KAHN AHN20160524200010805/24/16 20:00:31  5-MIN KAHN 250100Z AUTO 12003KT 10SM CLR 21/14 A3013 610 65 1500 120/03 RMK AO2 T02110144
13873KAHN AHN20160524200510805/24/16 20:05:31  5-MIN KAHN 250105Z AUTO 12003KT 10SM CLR 21/14 A3014 610 63 1500 120/03 RMK AO2 T02110139
13873KAHN AHN20160524201010805/24/16 20:10:31  5-MIN KAHN 250110Z AUTO 00000KT 10SM CLR 21/14 A3014 610 65 1500 000/00 RMK AO2 T02110144
13873KAHN AHN20160524201510805/24/16 20:15:31  5-MIN KAHN 250115Z AUTO 00000KT 10SM CLR 22/13 A3014 610 58 1600 000/00 RMK AO2 T02170133
13873KAHN AHN20160524202010805/24/16 20:20:31  5-MIN KAHN 250120Z AUTO 00000KT 10SM CLR 21/13 A3014 610 61 1500 000/00 RMK AO2 T02110133
13873KAHN AHN20160524202510805/24/16 20:25:31  5-MIN KAHN 250125Z AUTO 00000KT 10SM CLR 21/14 A3014 610 65 1400 000/00 RMK AO2 T02060139
13873KAHN AHN20160524203010805/24/16 20:30:31  5-MIN KAHN 250130Z AUTO 00000KT 10SM CLR 21/14 A3014 600 67 1400 000/00 RMK AO2 T02060144
13873KAHN AHN20160524203510805/24/16 20:35:31  5-MIN KAHN 250135Z AUTO 00000KT 10SM CLR 21/14 A3014 600 63 1500 000/00 RMK AO2 T02110139
13873KAHN AHN20160524204010805/24/16 20:40:31  5-MIN KAHN 250140Z AUTO 00000KT 10SM CLR 21/14 A3014 600 67 1400 000/00 RMK AO2 T02060144
13873KAHN AHN20160524204511505/24/16 20:45:31  5-MIN KAHN 250145Z AUTO 00000KT 10SM CLR 21/14 A3015 600 67 1400 000/00 RMK AO2 SLP203 T02060144
13873KAHN AHN20160524205011505/24/16 20:50:31  5-MIN KAHN 250150Z AUTO 00000KT 10SM CLR 21/14 A3015 600 67 1400 000/00 RMK AO2 SLP204 T02060144
13873KAHN AHN20160524205510805/24/16 20:55:31  5-MIN KAHN 250155Z AUTO 00000KT 10SM CLR 21/14 A3015 600 65 1400 000/00 RMK AO2 T02060139
13873KAHN AHN20160524210010805/24/16 21:00:31  5-MIN KAHN 250200Z AUTO 00000KT 10SM CLR 20/14 A3015 600 70 1400 000/00 RMK AO2 T02000144
13873KAHN AHN20160524210510805/24/16 21:05:31  5-MIN KAHN 250205Z AUTO 00000KT 10SM CLR 20/14 A3015 590 70 1400 000/00 RMK AO2 T02000144
13873KAHN AHN20160524211010805/24/16 21:10:31  5-MIN KAHN 250210Z AUTO 00000KT 10SM CLR 19/14 A3016 590 72 1300 000/00 RMK AO2 T01940144
13873KAHN AHN20160524211510805/24/16 21:15:31  5-MIN KAHN 250215Z AUTO 00000KT 10SM CLR 19/14 A3016 590 72 1300 000/00 RMK AO2 T01940144
13873KAHN AHN20160524212010805/24/16 21:20:31  5-MIN KAHN 250220Z AUTO 00000KT 10SM CLR 20/14 A3016 590 70 1400 000/00 RMK AO2 T02000144
13873KAHN AHN20160524212510805/24/16 21:25:31  5-MIN KAHN 250225Z AUTO 00000KT 10SM CLR 19/14 A3016 590 72 1300 000/00 RMK AO2 T01940144
13873KAHN AHN20160524213010805/24/16 21:30:31  5-MIN KAHN 250230Z AUTO 00000KT 10SM CLR 19/14 A3016 590 70 1300 000/00 RMK AO2 T01940139
13873KAHN AHN20160524213510805/24/16 21:35:31  5-MIN KAHN 250235Z AUTO 00000KT 10SM CLR 19/15 A3016 590 75 1300 000/00 RMK AO2 T01940150
13873KAHN AHN20160524214010805/24/16 21:40:31  5-MIN KAHN 250240Z AUTO 00000KT 10SM CLR 19/15 A3016 580 75 1300 000/00 RMK AO2 T01940150
13873KAHN AHN20160524214512105/24/16 21:45:31  5-MIN KAHN 250245Z AUTO 00000KT 10SM CLR 19/14 A3017 580 72 1300 000/00 RMK AO2 SLP210 T01940144 53003
13873KAHN AHN20160524215012105/24/16 21:50:31  5-MIN KAHN 250250Z AUTO 00000KT 10SM CLR 19/14 A3017 580 70 1300 000/00 RMK AO2 SLP211 T01940139 53003
13873KAHN AHN20160524215510805/24/16 21:55:31  5-MIN KAHN 250255Z AUTO 00000KT 10SM CLR 19/14 A3017 580 70 1300 000/00 RMK AO2 T01940139
13873KAHN AHN20160524220010805/24/16 22:00:31  5-MIN KAHN 250300Z AUTO 00000KT 10SM CLR 19/13 A3017 580 67 1300 000/00 RMK AO2 T01940133
13873KAHN AHN20160524220510805/24/16 22:05:31  5-MIN KAHN 250305Z AUTO 00000KT 10SM CLR 20/13 A3017 580 65 1300 000/00 RMK AO2 T02000133
13873KAHN AHN20160524221010805/24/16 22:10:31  5-MIN KAHN 250310Z AUTO 00000KT 10SM CLR 20/13 A3017 580 65 1300 000/00 RMK AO2 T02000133
13873KAHN AHN20160524221510805/24/16 22:15:31  5-MIN KAHN 250315Z AUTO 00000KT 10SM CLR 20/13 A3017 580 65 1300 000/00 RMK AO2 T02000133
13873KAHN AHN20160524222010805/24/16 22:20:31  5-MIN KAHN 250320Z AUTO 00000KT 10SM CLR 21/13 A3017 580 63 1400 000/00 RMK AO2 T02060133
13873KAHN AHN20160524222510805/24/16 22:25:31  5-MIN KAHN 250325Z AUTO 00000KT 10SM CLR 20/13 A3017 580 65 1300 000/00 RMK AO2 T02000133
13873KAHN AHN20160524223010805/24/16 22:30:31  5-MIN KAHN 250330Z AUTO 00000KT 10SM CLR 20/14 A3018 570 67 1300 000/00 RMK AO2 T02000139
13873KAHN AHN20160524223510805/24/16 22:35:31  5-MIN KAHN 250335Z AUTO 22003KT 10SM CLR 19/14 A3018 570 70 1300 230/03 RMK AO2 T01940139
13873KAHN AHN20160524224010805/24/16 22:40:31  5-MIN KAHN 250340Z AUTO 00000KT 10SM CLR 19/13 A3018 570 67 1300 000/00 RMK AO2 T01940133
13873KAHN AHN20160524224511505/24/16 22:45:31  5-MIN KAHN 250345Z AUTO 22003KT 10SM CLR 19/13 A3017 580 67 1300 230/03 RMK AO2 SLP212 T01940133
13873KAHN AHN20160524225011505/24/16 22:50:31  5-MIN KAHN 250350Z AUTO 22003KT 10SM CLR 20/13 A3017 580 65 1300 230/03 RMK AO2 SLP212 T02000133
13873KAHN AHN20160524225510805/24/16 22:55:31  5-MIN KAHN 250355Z AUTO 23003KT 10SM CLR 20/13 A3017 580 65 1300 230/03 RMK AO2 T02000133
13873KAHN AHN20160524230010805/24/16 23:00:31  5-MIN KAHN 250400Z AUTO 00000KT 10SM CLR 20/13 A3018 580 65 1300 000/00 RMK AO2 T02000133
13873KAHN AHN20160524230510805/24/16 23:05:31  5-MIN KAHN 250405Z AUTO 00000KT 10SM CLR 19/13 A3018 570 67 1300 000/00 RMK AO2 T01940133
13873KAHN AHN20160524231010805/24/16 23:10:31  5-MIN KAHN 250410Z AUTO 00000KT 10SM CLR 19/13 A3018 570 67 1300 000/00 RMK AO2 T01940133
13873KAHN AHN20160524231510805/24/16 23:15:31  5-MIN KAHN 250415Z AUTO 22003KT 10SM CLR 20/13 A3018 570 65 1300 230/03 RMK AO2 T02000133
13873KAHN AHN20160524232010805/24/16 23:20:31  5-MIN KAHN 250420Z AUTO 00000KT 10SM CLR 20/13 A3018 570 65 1300 000/00 RMK AO2 T02000133
13873KAHN AHN20160524232510805/24/16 23:25:31  5-MIN KAHN 250425Z AUTO 00000KT 10SM CLR 19/13 A3018 570 67 1300 000/00 RMK AO2 T01940133
13873KAHN AHN20160524233010805/24/16 23:30:31  5-MIN KAHN 250430Z AUTO 00000KT 10SM CLR 19/13 A3018 580 67 1300 000/00 RMK AO2 T01940133
13873KAHN AHN20160524233510805/24/16 23:35:31  5-MIN KAHN 250435Z AUTO 24003KT 10SM CLR 19/13 A3018 570 67 1300 250/03 RMK AO2 T01940133
13873KAHN AHN20160524234010805/24/16 23:40:31  5-MIN KAHN 250440Z AUTO 00000KT 10SM CLR 19/13 A3018 570 67 1300 000/00 RMK AO2 T01940133
13873KAHN AHN20160524234512505/24/16 23:45:31  5-MIN KAHN 250445Z AUTO 24003KT 10SM CLR 19/13 A3018 570 67 1300 240/03 RMK AO2 SLP213 T01940133 402940133
13873KAHN AHN20160524235012505/24/16 23:50:31  5-MIN KAHN 250450Z AUTO 00000KT 10SM CLR 19/13 A3018 570 67 1300 000/00 RMK AO2 SLP213 T01940133 402940133
13873KAHN AHN20160524235510805/24/16 23:55:31  5-MIN KAHN 250455Z AUTO 00000KT 10SM CLR 19/13 A3018 570 67 1300 000/00 RMK AO2 T01940133
13873KAHN AHN20160525000010805/25/16 00:00:31  5-MIN KAHN 250500Z AUTO 23003KT 10SM CLR 19/13 A3018 570 70 1200 230/03 RMK AO2 T01890133
13873KAHN AHN20160525000510805/25/16 00:05:31  5-MIN KAHN 250505Z AUTO 00000KT 10SM CLR 19/13 A3018 570 70 1200 000/00 RMK AO2 T01890133
13873KAHN AHN20160525001010805/25/16 00:10:31  5-MIN KAHN 250510Z AUTO 00000KT 10SM CLR 19/13 A3017 580 70 1200 000/00 RMK AO2 T01890133
13873KAHN AHN20160525001510805/25/16 00:15:31  5-MIN KAHN 250515Z AUTO 23003KT 10SM CLR 19/13 A3018 580 70 1200 230/03 RMK AO2 T01890133
13873KAHN AHN20160525002010805/25/16 00:20:31  5-MIN KAHN 250520Z AUTO 00000KT 10SM CLR 19/13 A3018 580 70 1200 000/00 RMK AO2 T01890133
13873KAHN AHN20160525002510805/25/16 00:25:31  5-MIN KAHN 250525Z AUTO 00000KT 10SM CLR 18/13 A3018 570 72 1100 000/00 RMK AO2 T01830133
13873KAHN AHN20160525003010805/25/16 00:30:31  5-MIN KAHN 250530Z AUTO 00000KT 10SM CLR 18/13 A3018 570 72 1100 000/00 RMK AO2 T01830133
13873KAHN AHN20160525003510805/25/16 00:35:31  5-MIN KAHN 250535Z AUTO 00000KT 10SM CLR 18/13 A3018 580 72 1100 000/00 RMK AO2 T01830133
13873KAHN AHN20160525004010805/25/16 00:40:31  5-MIN KAHN 250540Z AUTO 00000KT 10SM CLR 18/13 A3018 570 72 1100 000/00 RMK AO2 T01830133
13873KAHN AHN20160525004513305/25/16 00:45:31  5-MIN KAHN 250545Z AUTO 00000KT 10SM CLR 18/13 A3018 570 72 1100 000/00 RMK AO2 SLP213 T01830133 10267 20183 53016
13873KAHN AHN20160525005013305/25/16 00:50:31  5-MIN KAHN 250550Z AUTO 00000KT 10SM CLR 19/13 A3017 580 70 1200 000/00 RMK AO2 SLP211 T01890133 10267 20183 53016
13873KAHN AHN20160525005510805/25/16 00:55:31  5-MIN KAHN 250555Z AUTO 00000KT 10SM CLR 18/13 A3017 580 72 1100 000/00 RMK AO2 T01830133
13873KAHN AHN20160525010010805/25/16 01:00:31  5-MIN KAHN 250600Z AUTO 00000KT 10SM CLR 18/13 A3017 580 72 1100 000/00 RMK AO2 T01830133
13873KAHN AHN20160525010510805/25/16 01:05:31  5-MIN KAHN 250605Z AUTO 00000KT 10SM CLR 18/13 A3017 580 72 1100 000/00 RMK AO2 T01830133
13873KAHN AHN20160525011010805/25/16 01:10:31  5-MIN KAHN 250610Z AUTO 00000KT 10SM CLR 18/14 A3017 580 78 1100 000/00 RMK AO2 T01780139
13873KAHN AHN20160525011510805/25/16 01:15:31  5-MIN KAHN 250615Z AUTO 00000KT 10SM CLR 18/14 A3017 580 78 1100 000/00 RMK AO2 T01780139
13873KAHN AHN20160525012010805/25/16 01:20:31  5-MIN KAHN 250620Z AUTO 00000KT 10SM CLR 17/14 A3017 580 80 1000 000/00 RMK AO2 T01720139
13873KAHN AHN20160525012510805/25/16 01:25:31  5-MIN KAHN 250625Z AUTO 00000KT 10SM CLR 17/14 A3017 580 80 1000 000/00 RMK AO2 T01720139
13873KAHN AHN20160525013010805/25/16 01:30:31  5-MIN KAHN 250630Z AUTO 00000KT 10SM CLR 17/14 A3017 580 80 1000 000/00 RMK AO2 T01720139
13873KAHN AHN20160525013510705/25/16 01:35:31  5-MIN KAHN 250635Z AUTO 00000KT 10SM CLR 17/14 A3017 580 83 900 000/00 RMK AO2 T01670139
13873KAHN AHN20160525014010705/25/16 01:40:31  5-MIN KAHN 250640Z AUTO 00000KT 10SM CLR 17/14 A3017 580 83 900 000/00 RMK AO2 T01670139
13873KAHN AHN20160525014511505/25/16 01:45:31  5-MIN KAHN 250645Z AUTO 00000KT 10SM CLR 17/14 A3018 580 80 1000 000/00 RMK AO2 SLP212 T01720139
13873KAHN AHN20160525015011405/25/16 01:50:31  5-MIN KAHN 250650Z AUTO 00000KT 10SM CLR 17/14 A3017 580 83 900 000/00 RMK AO2 SLP212 T01670139
13873KAHN AHN20160525015510805/25/16 01:55:31  5-MIN KAHN 250655Z AUTO 00000KT 10SM CLR 17/14 A3017 580 80 1000 000/00 RMK AO2 T01720139
13873KAHN AHN20160525020010705/25/16 02:00:31  5-MIN KAHN 250700Z AUTO 00000KT 10SM CLR 17/14 A3017 580 83 900 000/00 RMK AO2 T01670139
13873KAHN AHN20160525020510705/25/16 02:05:31  5-MIN KAHN 250705Z AUTO 00000KT 10SM CLR 17/14 A3018 570 86 900 000/00 RMK AO2 T01670144
13873KAHN AHN20160525021010705/25/16 02:10:31  5-MIN KAHN 250710Z AUTO 00000KT 10SM CLR 16/14 A3018 570 90 900 000/00 RMK AO2 T01610144
13873KAHN AHN20160525021510705/25/16 02:15:31  5-MIN KAHN 250715Z AUTO 00000KT 10SM CLR 17/14 A3018 570 86 900 000/00 RMK AO2 T01670144
13873KAHN AHN20160525022010705/25/16 02:20:31  5-MIN KAHN 250720Z AUTO 00000KT 10SM CLR 16/14 A3018 570 90 900 000/00 RMK AO2 T01610144
13873KAHN AHN20160525022510705/25/16 02:25:31  5-MIN KAHN 250725Z AUTO 00000KT 10SM CLR 16/14 A3017 580 90 900 000/00 RMK AO2 T01610144
13873KAHN AHN20160525023010705/25/16 02:30:31  5-MIN KAHN 250730Z AUTO 00000KT 10SM CLR 16/14 A3017 580 90 900 000/00 RMK AO2 T01610144
13873KAHN AHN20160525023510705/25/16 02:35:31  5-MIN KAHN 250735Z AUTO 00000KT 10SM CLR 16/14 A3017 580 90 900 000/00 RMK AO2 T01610144
13873KAHN AHN20160525024010705/25/16 02:40:31  5-MIN KAHN 250740Z AUTO 00000KT 10SM CLR 16/14 A3017 580 90 900 000/00 RMK AO2 T01610144
13873KAHN AHN20160525024511405/25/16 02:45:31  5-MIN KAHN 250745Z AUTO 00000KT 10SM CLR 16/14 A3018 580 90 900 000/00 RMK AO2 SLP212 T01610144
13873KAHN AHN20160525025011405/25/16 02:50:31  5-MIN KAHN 250750Z AUTO 00000KT 10SM CLR 16/14 A3018 570 86 900 000/00 RMK AO2 SLP213 T01610139
13873KAHN AHN20160525025510705/25/16 02:55:31  5-MIN KAHN 250755Z AUTO 00000KT 10SM CLR 17/14 A3018 570 83 900 000/00 RMK AO2 T01670139
13873KAHN AHN20160525030010705/25/16 03:00:31  5-MIN KAHN 250800Z AUTO 00000KT 10SM CLR 17/14 A3018 580 83 900 000/00 RMK AO2 T01670139
13873KAHN AHN20160525030510705/25/16 03:05:31  5-MIN KAHN 250805Z AUTO 00000KT 10SM CLR 17/14 A3017 580 86 900 000/00 RMK AO2 T01670144
13873KAHN AHN20160525031010705/25/16 03:10:31  5-MIN KAHN 250810Z AUTO 00000KT 10SM CLR 16/14 A3018 570 86 900 000/00 RMK AO2 T01610139
13873KAHN AHN20160525031510705/25/16 03:15:31  5-MIN KAHN 250815Z AUTO 00000KT 10SM CLR 16/14 A3018 570 90 800 000/00 RMK AO2 T01560139
13873KAHN AHN20160525032010705/25/16 03:20:31  5-MIN KAHN 250820Z AUTO 00000KT 10SM CLR 16/14 A3018 580 90 800 000/00 RMK AO2 T01560139
13873KAHN AHN20160525032510705/25/16 03:25:31  5-MIN KAHN 250825Z AUTO 00000KT 10SM CLR 16/14 A3018 570 90 900 000/00 RMK AO2 T01610144
13873KAHN AHN20160525033010705/25/16 03:30:31  5-MIN KAHN 250830Z AUTO 00000KT 10SM CLR 16/14 A3018 570 90 800 000/00 RMK AO2 T01560139
13873KAHN AHN20160525033510705/25/16 03:35:31  5-MIN KAHN 250835Z AUTO 00000KT 10SM CLR 16/14 A3018 580 93 800 000/00 RMK AO2 T01560144
13873KAHN AHN20160525034010705/25/16 03:40:31  5-MIN KAHN 250840Z AUTO 00000KT 10SM CLR 15/14 A3018 570 93 700 000/00 RMK AO2 T01500139
13873KAHN AHN20160525034512005/25/16 03:45:31  5-MIN KAHN 250845Z AUTO 00000KT 10SM CLR 16/14 A3018 570 90 800 000/00 RMK AO2 SLP214 T01560139 50002
13873KAHN AHN20160525035012005/25/16 03:50:31  5-MIN KAHN 250850Z AUTO 00000KT 10SM CLR 16/14 A3018 570 90 900 000/00 RMK AO2 SLP213 T01610144 50002
13873KAHN AHN20160525035510705/25/16 03:55:31  5-MIN KAHN 250855Z AUTO 00000KT 10SM CLR 16/14 A3018 570 93 800 000/00 RMK AO2 T01560144
13873KAHN AHN20160525040010705/25/16 04:00:31  5-MIN KAHN 250900Z AUTO 00000KT 10SM CLR 16/14 A3018 580 90 800 000/00 RMK AO2 T01560139
13873KAHN AHN20160525040510705/25/16 04:05:31  5-MIN KAHN 250905Z AUTO 00000KT 10SM CLR 16/14 A3018 580 93 800 000/00 RMK AO2 T01560144
13873KAHN AHN20160525041010705/25/16 04:10:31  5-MIN KAHN 250910Z AUTO 00000KT 10SM CLR 16/14 A3018 580 93 800 000/00 RMK AO2 T01560144
13873KAHN AHN20160525041510705/25/16 04:15:31  5-MIN KAHN 250915Z AUTO 00000KT 10SM CLR 16/14 A3018 570 93 800 000/00 RMK AO2 T01560144
13873KAHN AHN20160525042010705/25/16 04:20:31  5-MIN KAHN 250920Z AUTO 00000KT 10SM CLR 15/14 A3018 570 93 700 000/00 RMK AO2 T01500139
13873KAHN AHN20160525042510705/25/16 04:25:31  5-MIN KAHN 250925Z AUTO 00000KT 10SM CLR 15/14 A3018 570 93 700 000/00 RMK AO2 T01500139
13873KAHN AHN20160525043010705/25/16 04:30:31  5-MIN KAHN 250930Z AUTO 00000KT 10SM CLR 15/14 A3018 570 93 700 000/00 RMK AO2 T01500139
13873KAHN AHN20160525043510705/25/16 04:35:31  5-MIN KAHN 250935Z AUTO 00000KT 10SM CLR 15/14 A3018 570 93 700 000/00 RMK AO2 T01500139
13873KAHN AHN20160525044010705/25/16 04:40:31  5-MIN KAHN 250940Z AUTO 00000KT 10SM CLR 15/14 A3019 570 93 700 000/00 RMK AO2 T01500139
13873KAHN AHN20160525044511405/25/16 04:45:31  5-MIN KAHN 250945Z AUTO 00000KT 10SM CLR 15/14 A3019 560 93 700 000/00 RMK AO2 SLP217 T01500139
13873KAHN AHN20160525045011405/25/16 04:50:31  5-MIN KAHN 250950Z AUTO 00000KT 10SM CLR 15/14 A3019 560 93 700 000/00 RMK AO2 SLP216 T01500139
13873KAHN AHN20160525045510705/25/16 04:55:31  5-MIN KAHN 250955Z AUTO 00000KT 10SM CLR 15/14 A3019 560 93 700 000/00 RMK AO2 T01500139
13873KAHN AHN20160525050010705/25/16 05:00:31  5-MIN KAHN 251000Z AUTO 00000KT 10SM CLR 15/14 A3019 560 93 700 000/00 RMK AO2 T01500139
13873KAHN AHN20160525050510605/25/16 05:05:31  5-MIN KAHN 251005Z AUTO 00000KT 9SM CLR 15/14 A3019 560 93 700 000/00 RMK AO2 T01500139
13873KAHN AHN20160525051010705/25/16 05:10:31  5-MIN KAHN 251010Z AUTO 00000KT 10SM CLR 14/14 A3019 560 96 700 000/00 RMK AO2 T01440139
13873KAHN AHN20160525051510705/25/16 05:15:31  5-MIN KAHN 251015Z AUTO 09003KT 10SM CLR 14/14 A3019 560 96 700 100/03 RMK AO2 T01440139
13873KAHN AHN20160525052010705/25/16 05:20:31  5-MIN KAHN 251020Z AUTO 10003KT 10SM CLR 14/14 A3019 560 96 700 100/03 RMK AO2 T01440139
13873KAHN AHN20160525052510705/25/16 05:25:31  5-MIN KAHN 251025Z AUTO 00000KT 10SM CLR 15/14 A3019 560 93 700 000/00 RMK AO2 T01500139
13873KAHN AHN20160525053010605/25/16 05:30:31  5-MIN KAHN 251030Z AUTO 00000KT 9SM CLR 14/14 A3019 560 96 700 000/00 RMK AO2 T01440139
13873KAHN AHN20160525053510605/25/16 05:35:31  5-MIN KAHN 251035Z AUTO 00000KT 9SM CLR 14/14 A3019 560 96 700 000/00 RMK AO2 T01440139
13873KAHN AHN20160525054010605/25/16 05:40:31  5-MIN KAHN 251040Z AUTO 00000KT 9SM CLR 14/14 A3020 560 96 700 000/00 RMK AO2 T01440139
13873KAHN AHN20160525054511305/25/16 05:45:31  5-MIN KAHN 251045Z AUTO 00000KT 9SM CLR 15/14 A3020 550 93 700 000/00 RMK AO2 SLP220 T01500139
13873KAHN AHN20160525055011305/25/16 05:50:31  5-MIN KAHN 251050Z AUTO 00000KT 9SM CLR 15/14 A3020 550 93 700 000/00 RMK AO2 SLP222 T01500139
13873KAHN AHN20160525055510605/25/16 05:55:31  5-MIN KAHN 251055Z AUTO 00000KT 9SM CLR 16/14 A3020 550 90 800 000/00 RMK AO2 T01560139
13873KAHN AHN20160525060010705/25/16 06:00:31  5-MIN KAHN 251100Z AUTO 00000KT 10SM CLR 16/14 A3020 550 93 800 000/00 RMK AO2 T01560144
13873KAHN AHN20160525060510605/25/16 06:05:31  5-MIN KAHN 251105Z AUTO 00000KT 9SM CLR 16/14 A3020 550 90 800 000/00 RMK AO2 T01610144
13873KAHN AHN20160525061010705/25/16 06:10:31  5-MIN KAHN 251110Z AUTO 00000KT 10SM CLR 16/14 A3021 550 90 800 000/00 RMK AO2 T01610144
13873KAHN AHN20160525061510705/25/16 06:15:31  5-MIN KAHN 251115Z AUTO 00000KT 10SM CLR 17/15 A3021 540 90 900 000/00 RMK AO2 T01670150
13873KAHN AHN20160525062010805/25/16 06:20:31  5-MIN KAHN 251120Z AUTO 00000KT 10SM CLR 17/15 A3021 540 87 1000 000/00 RMK AO2 T01720150
13873KAHN AHN20160525062510805/25/16 06:25:31  5-MIN KAHN 251125Z AUTO 00000KT 10SM CLR 17/16 A3021 540 90 1000 000/00 RMK AO2 T01720156
13873KAHN AHN20160525063010805/25/16 06:30:31  5-MIN KAHN 251130Z AUTO 00000KT 10SM CLR 18/16 A3021 540 87 1000 000/00 RMK AO2 T01780156
13873KAHN AHN20160525063510805/25/16 06:35:31  5-MIN KAHN 251135Z AUTO 00000KT 10SM CLR 18/16 A3021 540 84 1100 000/00 RMK AO2 T01830156
13873KAHN AHN20160525064010805/25/16 06:40:31  5-MIN KAHN 251140Z AUTO 00000KT 10SM CLR 19/16 A3021 540 81 1200 000/00 RMK AO2 T01890156
13873KAHN AHN20160525064513305/25/16 06:45:31  5-MIN KAHN 251145Z AUTO 00000KT 10SM CLR 19/16 A3022 540 78 1200 000/00 RMK AO2 SLP227 T01940156 10194 20144 51001
13873KAHN AHN20160525065013305/25/16 06:50:31  5-MIN KAHN 251150Z AUTO 00000KT 10SM CLR 19/16 A3022 530 78 1200 000/00 RMK AO2 SLP228 T01940156 10194 20144 51001
13873KAHN AHN20160525065510305/25/16 06:55:31  5-MIN KAHN 251155Z 00000KT 10SM CLR 20/15 A3023 530 72 1300 000/00 RMK AO2 T02000150
13873KAHN AHN20160525070010305/25/16 07:00:31  5-MIN KAHN 251200Z 00000KT 10SM CLR 20/16 A3023 530 75 1300 000/00 RMK AO2 T02000156
13873KAHN AHN20160525070510305/25/16 07:05:31  5-MIN KAHN 251205Z 00000KT 10SM CLR 21/16 A3023 530 73 1300 000/00 RMK AO2 T02060156
13873KAHN AHN20160525071010305/25/16 07:10:31  5-MIN KAHN 251210Z 00000KT 10SM CLR 21/16 A3023 530 73 1300 000/00 RMK AO2 T02060156
13873KAHN AHN20160525071510305/25/16 07:15:31  5-MIN KAHN 251215Z 00000KT 10SM CLR 20/16 A3023 520 75 1300 000/00 RMK AO2 T02000156
13873KAHN AHN20160525072010305/25/16 07:20:31  5-MIN KAHN 251220Z 00000KT 10SM CLR 21/15 A3023 530 68 1400 000/00 RMK AO2 T02110150
13873KAHN AHN20160525072510305/25/16 07:25:31  5-MIN KAHN 251225Z 00000KT 10SM CLR 21/14 A3023 520 65 1400 000/00 RMK AO2 T02110144
13873KAHN AHN20160525073010305/25/16 07:30:31  5-MIN KAHN 251230Z 00000KT 10SM CLR 21/14 A3024 520 65 1400 000/00 RMK AO2 T02110144
13873KAHN AHN20160525073510305/25/16 07:35:31  5-MIN KAHN 251235Z 00000KT 10SM CLR 21/14 A3024 520 65 1400 000/00 RMK AO2 T02110144
13873KAHN AHN20160525074010305/25/16 07:40:31  5-MIN KAHN 251240Z 00000KT 10SM CLR 21/14 A3023 520 65 1400 000/00 RMK AO2 T02110144
13873KAHN AHN20160525074511005/25/16 07:45:31  5-MIN KAHN 251245Z 00000KT 10SM CLR 21/14 A3024 520 65 1400 000/00 RMK AO2 SLP233 T02110144
13873KAHN AHN20160525075011005/25/16 07:50:31  5-MIN KAHN 251250Z 00000KT 10SM CLR 22/14 A3024 520 63 1500 000/00 RMK AO2 SLP234 T02170144
13873KAHN AHN20160525075510305/25/16 07:55:31  5-MIN KAHN 251255Z 00000KT 10SM CLR 22/14 A3024 520 63 1500 000/00 RMK AO2 T02170144
13873KAHN AHN20160525080010305/25/16 08:00:31  5-MIN KAHN 251300Z VRB04KT 10SM CLR 22/14 A3024 520 61 1500 VRB/04 RMK AO2 T02220144
13873KAHN AHN20160525080510305/25/16 08:05:31  5-MIN KAHN 251305Z 00000KT 10SM CLR 23/14 A3024 520 59 1600 000/00 RMK AO2 T02280144
13873KAHN AHN20160525081010305/25/16 08:10:31  5-MIN KAHN 251310Z VRB03KT 10SM CLR 23/15 A3024 510 59 1600 VRB/03 RMK AO2 T02330150
13873KAHN AHN20160525081510305/25/16 08:15:31  5-MIN KAHN 251315Z 26003KT 10SM CLR 23/15 A3025 510 59 1600 270/03 RMK AO2 T02330150
13873KAHN AHN20160525082010305/25/16 08:20:31  5-MIN KAHN 251320Z VRB03KT 10SM CLR 23/15 A3025 510 59 1600 VRB/03 RMK AO2 T02330150
13873KAHN AHN20160525082510305/25/16 08:25:31  5-MIN KAHN 251325Z VRB04KT 10SM CLR 23/15 A3025 510 59 1600 VRB/04 RMK AO2 T02330150
13873KAHN AHN20160525083010305/25/16 08:30:31  5-MIN KAHN 251330Z 24004KT 10SM CLR 23/15 A3025 510 59 1600 250/04 RMK AO2 T02330150
13873KAHN AHN20160525083510305/25/16 08:35:31  5-MIN KAHN 251335Z 24003KT 10SM CLR 23/15 A3025 510 59 1600 250/03 RMK AO2 T02330150
13873KAHN AHN20160525084010305/25/16 08:40:31  5-MIN KAHN 251340Z 00000KT 10SM CLR 23/16 A3025 510 61 1600 000/00 RMK AO2 T02330156
13873KAHN AHN20160525084511005/25/16 08:45:31  5-MIN KAHN 251345Z 00000KT 10SM CLR 24/16 A3025 500 57 1800 000/00 RMK AO2 SLP239 T02440156
13873KAHN AHN20160525085011005/25/16 08:50:31  5-MIN KAHN 251350Z 22003KT 10SM CLR 24/16 A3025 500 57 1800 230/03 RMK AO2 SLP239 T02440156
13873KAHN AHN20160525085510305/25/16 08:55:31  5-MIN KAHN 251355Z VRB03KT 10SM CLR 24/16 A3026 500 59 1700 VRB/03 RMK AO2 T02440161
13873KAHN AHN20160525090010305/25/16 09:00:31  5-MIN KAHN 251400Z VRB03KT 10SM CLR 24/16 A3026 500 59 1700 VRB/03 RMK AO2 T02440161
13873KAHN AHN20160525090510305/25/16 09:05:31  5-MIN KAHN 251405Z VRB03KT 10SM CLR 24/16 A3026 500 57 1700 VRB/03 RMK AO2 T02440156
13873KAHN AHN20160525091010305/25/16 09:10:31  5-MIN KAHN 251410Z VRB04KT 10SM CLR 25/16 A3026 500 57 1800 VRB/04 RMK AO2 T02500161
13873KAHN AHN20160525091510305/25/16 09:15:31  5-MIN KAHN 251415Z VRB03KT 10SM CLR 26/16 A3026 500 55 1900 VRB/03 RMK AO2 T02560161
13873KAHN AHN20160525092010305/25/16 09:20:31  5-MIN KAHN 251420Z VRB04KT 10SM CLR 26/16 A3026 500 55 1900 VRB/04 RMK AO2 T02560161
13873KAHN AHN20160525092510305/25/16 09:25:31  5-MIN KAHN 251425Z 00000KT 10SM CLR 26/16 A3026 500 53 1900 000/00 RMK AO2 T02560156
13873KAHN AHN20160525093010305/25/16 09:30:31  5-MIN KAHN 251430Z 28005KT 10SM CLR 26/16 A3026 490 53 1900 280/05 RMK AO2 T02610161
13873KAHN AHN20160525093510305/25/16 09:35:31  5-MIN KAHN 251435Z 25003KT 10SM CLR 26/16 A3026 490 53 1900 260/03 RMK AO2 T02610161
13873KAHN AHN20160525094010305/25/16 09:40:31  5-MIN KAHN 251440Z VRB04KT 10SM CLR 26/16 A3027 490 53 1900 VRB/04 RMK AO2 T02610161
13873KAHN AHN20160525094511605/25/16 09:45:31  5-MIN KAHN 251445Z 00000KT 10SM CLR 26/16 A3027 490 53 1900 000/00 RMK AO2 SLP243 T02610161 53015
13873KAHN AHN20160525095011605/25/16 09:50:31  5-MIN KAHN 251450Z VRB03KT 10SM CLR 27/16 A3027 490 52 2000 VRB/03 RMK AO2 SLP244 T02670161 53015
13873KAHN AHN20160525095510305/25/16 09:55:31  5-MIN KAHN 251455Z 00000KT 10SM CLR 27/16 A3027 490 50 2000 000/00 RMK AO2 T02720161
13873KAHN AHN20160525100010305/25/16 10:00:31  5-MIN KAHN 251500Z VRB04KT 10SM CLR 27/16 A3027 490 48 2100 VRB/04 RMK AO2 T02720156
13873KAHN AHN20160525100510305/25/16 10:05:31  5-MIN KAHN 251505Z 00000KT 10SM CLR 27/16 A3027 490 48 2100 000/00 RMK AO2 T02720156
13873KAHN AHN20160525101010305/25/16 10:10:31  5-MIN KAHN 251510Z VRB04KT 10SM CLR 27/15 A3026 490 46 2100 VRB/04 RMK AO2 T02720150
13873KAHN AHN20160525101510305/25/16 10:15:31  5-MIN KAHN 251515Z VRB03KT 10SM CLR 28/15 A3027 490 45 2100 VRB/03 RMK AO2 T02780150
13873KAHN AHN20160525102010305/25/16 10:20:31  5-MIN KAHN 251520Z VRB03KT 10SM CLR 28/15 A3026 490 45 2100 VRB/03 RMK AO2 T02780150
13873KAHN AHN20160525102510305/25/16 10:25:31  5-MIN KAHN 251525Z VRB04KT 10SM CLR 28/16 A3026 490 45 2200 VRB/04 RMK AO2 T02830156
13873KAHN AHN20160525103010305/25/16 10:30:31  5-MIN KAHN 251530Z VRB04KT 10SM CLR 28/14 A3027 490 43 2100 VRB/04 RMK AO2 T02780144
13873KAHN AHN20160525103510305/25/16 10:35:31  5-MIN KAHN 251535Z VRB04KT 10SM CLR 28/14 A3026 490 40 2200 VRB/04 RMK AO2 T02830139
13873KAHN AHN20160525104010305/25/16 10:40:31  5-MIN KAHN 251540Z 30004KT 10SM CLR 28/15 A3026 500 43 2200 300/04 RMK AO2 T02830150
13873KAHN AHN20160525104511005/25/16 10:45:31  5-MIN KAHN 251545Z 00000KT 10SM CLR 28/15 A3026 500 43 2200 000/00 RMK AO2 SLP240 T02830150
13873KAHN AHN20160525105011005/25/16 10:50:31  5-MIN KAHN 251550Z 19004KT 10SM CLR 28/14 A3026 500 42 2200 200/04 RMK AO2 SLP240 T02830144
13873KAHN AHN20160525105510305/25/16 10:55:31  5-MIN KAHN 251555Z 23004KT 10SM CLR 28/14 A3026 500 40 2200 240/04 RMK AO2 T02830139
13873KAHN AHN20160525110010305/25/16 11:00:31  5-MIN KAHN 251600Z VRB03KT 10SM CLR 29/14 A3026 500 39 2200 VRB/03 RMK AO2 T02890139
13873KAHN AHN20160525110510305/25/16 11:05:31  5-MIN KAHN 251605Z VRB04KT 10SM CLR 29/14 A3026 500 39 2200 VRB/04 RMK AO2 T02890139
13873KAHN AHN20160525111010305/25/16 11:10:31  5-MIN KAHN 251610Z 24006KT 10SM CLR 29/13 A3026 500 36 2300 240/06 RMK AO2 T02940133
13873KAHN AHN20160525111510305/25/16 11:15:31  5-MIN KAHN 251615Z VRB05KT 10SM CLR 29/13 A3025 500 35 2300 VRB/05 RMK AO2 T02940128
13873KAHN AHN20160525112010305/25/16 11:20:31  5-MIN KAHN 251620Z VRB03KT 10SM CLR 29/13 A3025 510 36 2300 VRB/03 RMK AO2 T02890128
13873KAHN AHN20160525112510305/25/16 11:25:31  5-MIN KAHN 251625Z VRB03KT 10SM CLR 29/13 A3025 510 36 2300 VRB/03 RMK AO2 T02940133
13873KAHN AHN20160525113010305/25/16 11:30:31  5-MIN KAHN 251630Z VRB03KT 10SM CLR 29/14 A3025 510 39 2300 VRB/03 RMK AO2 T02890139
13873KAHN AHN20160525113510305/25/16 11:35:31  5-MIN KAHN 251635Z VRB04KT 10SM CLR 30/14 A3025 510 38 2400 VRB/04 RMK AO2 T03000144
13873KAHN AHN20160525114010305/25/16 11:40:31  5-MIN KAHN 251640Z VRB03KT 10SM CLR 29/13 A3025 510 36 2300 VRB/03 RMK AO2 T02940133
13873KAHN AHN20160525114511005/25/16 11:45:31  5-MIN KAHN 251645Z 00000KT 10SM CLR 30/14 A3025 510 36 2400 000/00 RMK AO2 SLP236 T03000139
13873KAHN AHN20160525115011005/25/16 11:50:31  5-MIN KAHN 251650Z 00000KT 10SM CLR 29/14 A3025 510 39 2300 000/00 RMK AO2 SLP236 T02890139
13873KAHN AHN20160525115510605/25/16 11:55:31  5-MIN KAHN 251655Z 00000KT 10SM FEW065 28/14 A3025 510 40 2200 000/00 RMK AO2 T02830139
13873KAHN AHN20160525120010605/25/16 12:00:31  5-MIN KAHN 251700Z 18004KT 10SM SCT070 29/13 A3024 510 36 2300 180/04 RMK AO2 T02940133
13873KAHN AHN20160525120510605/25/16 12:05:31  5-MIN KAHN 251705Z VRB04KT 10SM FEW070 30/14 A3024 510 36 2400 VRB/04 RMK AO2 T03000139
13873KAHN AHN20160525121010605/25/16 12:10:31  5-MIN KAHN 251710Z VRB05KT 10SM FEW070 29/13 A3024 510 36 2300 VRB/05 RMK AO2 T02940133
13873KAHN AHN20160525121510605/25/16 12:15:31  5-MIN KAHN 251715Z VRB03KT 10SM FEW070 28/13 A3024 510 37 2200 VRB/03 RMK AO2 T02830128
13873KAHN AHN20160525122010605/25/16 12:20:31  5-MIN KAHN 251720Z 00000KT 10SM SCT065 28/14 A3024 510 42 2100 000/00 RMK AO2 T02780139
13873KAHN AHN20160525122510605/25/16 12:25:31  5-MIN KAHN 251725Z VRB04KT 10SM FEW070 28/14 A3024 520 43 2100 VRB/04 RMK AO2 T02780144
13873KAHN AHN20160525123010605/25/16 12:30:31  5-MIN KAHN 251730Z VRB04KT 10SM FEW070 29/14 A3024 520 39 2300 VRB/04 RMK AO2 T02890139
13873KAHN AHN20160525123510605/25/16 12:35:31  5-MIN KAHN 251735Z VRB03KT 10SM FEW070 29/13 A3024 520 36 2300 VRB/03 RMK AO2 T02940133
13873KAHN AHN20160525124010605/25/16 12:40:31  5-MIN KAHN 251740Z 00000KT 10SM FEW070 29/13 A3024 520 36 2300 000/00 RMK AO2 T02940133
13873KAHN AHN20160525124512105/25/16 12:45:31  5-MIN KAHN 251745Z 10SM FEW065 31/14 A3024 520 35 2500 M /M RMK AO2 SLP232 T03060139 10306 20200 52016
13873KAHN AHN20160525125012805/25/16 12:50:31  5-MIN KAHN 251750Z VRB03KT 10SM CLR 31/14 A3024 520 35 2500 VRB/03 RMK AO2 SLP232 T03060139 10306 20200 52016
13873KAHN AHN20160525125510305/25/16 12:55:31  5-MIN KAHN 251755Z VRB04KT 10SM CLR 30/14 A3024 520 36 2400 VRB/04 RMK AO2 T03000139
13873KAHN AHN20160525130010305/25/16 13:00:31  5-MIN KAHN 251800Z VRB04KT 10SM CLR 30/14 A3024 520 36 2400 VRB/04 RMK AO2 T03000139
13873KAHN AHN20160525130510305/25/16 13:05:31  5-MIN KAHN 251805Z VRB05KT 10SM CLR 31/14 A3023 520 35 2500 VRB/05 RMK AO2 T03060139
13873KAHN AHN20160525131010305/25/16 13:10:31  5-MIN KAHN 251810Z VRB04KT 10SM CLR 29/13 A3023 520 36 2300 VRB/04 RMK AO2 T02940133
13873KAHN AHN20160525131510605/25/16 13:15:31  5-MIN KAHN 251815Z VRB04KT 10SM FEW075 31/14 A3023 530 35 2500 VRB/04 RMK AO2 T03060139
13873KAHN AHN20160525132010605/25/16 13:20:31  5-MIN KAHN 251820Z VRB05KT 10SM FEW075 30/14 A3023 530 38 2400 VRB/05 RMK AO2 T03000144
13873KAHN AHN20160525132510605/25/16 13:25:31  5-MIN KAHN 251825Z 00000KT 10SM SCT075 29/14 A3023 530 38 2300 000/00 RMK AO2 T02940139
13873KAHN AHN20160525133010605/25/16 13:30:31  5-MIN KAHN 251830Z VRB03KT 10SM SCT070 31/14 A3022 530 35 2500 VRB/03 RMK AO2 T03060139
13873KAHN AHN20160525133510605/25/16 13:35:31  5-MIN KAHN 251835Z VRB03KT 10SM SCT075 30/13 A3022 540 35 2400 VRB/03 RMK AO2 T03000133
13873KAHN AHN20160525134010605/25/16 13:40:31  5-MIN KAHN 251840Z 18004KT 10SM SCT075 31/13 A3022 530 34 2500 190/04 RMK AO2 T03060133
13873KAHN AHN20160525134511305/25/16 13:45:31  5-MIN KAHN 251845Z VRB04KT 10SM SCT075 31/14 A3022 530 34 2500 VRB/04 RMK AO2 SLP227 T03110139
13873KAHN AHN20160525135011305/25/16 13:50:31  5-MIN KAHN 251850Z 00000KT 10SM FEW075 29/12 A3022 530 34 2400 000/00 RMK AO2 SLP227 T02940122
13873KAHN AHN20160525135510605/25/16 13:55:31  5-MIN KAHN 251855Z VRB05KT 10SM FEW075 31/13 A3022 540 34 2500 VRB/05 RMK AO2 T03060133
13873KAHN AHN20160525140010605/25/16 14:00:31  5-MIN KAHN 251900Z 20006KT 10SM FEW075 31/14 A3022 540 35 2500 210/06 RMK AO2 T03060139
13873KAHN AHN20160525140510305/25/16 14:05:31  5-MIN KAHN 251905Z VRB05KT 10SM CLR 31/14 A3021 540 35 2500 VRB/05 RMK AO2 T03110144
13873KAHN AHN20160525141010605/25/16 14:10:31  5-MIN KAHN 251910Z VRB03KT 10SM FEW070 30/14 A3021 540 38 2400 VRB/03 RMK AO2 T03000144
13873KAHN AHN20160525141510605/25/16 14:15:31  5-MIN KAHN 251915Z 15005KT 10SM SCT070 31/14 A3022 540 35 2500 150/05 RMK AO2 T03110144
13873KAHN AHN20160525142010605/25/16 14:20:31  5-MIN KAHN 251920Z VRB04KT 10SM SCT070 31/14 A3022 540 34 2500 VRB/04 RMK AO2 T03110139
13873KAHN AHN20160525142510605/25/16 14:25:31  5-MIN KAHN 251925Z VRB05KT 10SM SCT070 30/14 A3021 540 36 2400 VRB/05 RMK AO2 T03000139
13873KAHN AHN20160525143010605/25/16 14:30:31  5-MIN KAHN 251930Z 23006KT 10SM SCT070 31/13 A3021 540 34 2500 230/06 RMK AO2 T03060133
13873KAHN AHN20160525143510605/25/16 14:35:31  5-MIN KAHN 251935Z 00000KT 10SM SCT070 30/13 A3021 540 35 2400 000/00 RMK AO2 T03000133
13873KAHN AHN20160525144010605/25/16 14:40:31  5-MIN KAHN 251940Z VRB03KT 10SM FEW070 31/13 A3021 550 33 2500 VRB/03 RMK AO2 T03060128
13873KAHN AHN20160525144511305/25/16 14:45:31  5-MIN KAHN 251945Z VRB04KT 10SM FEW070 31/14 A3021 550 35 2500 VRB/04 RMK AO2 SLP223 T03060139
13873KAHN AHN20160525145011005/25/16 14:50:31  5-MIN KAHN 251950Z VRB04KT 10SM CLR 31/14 A3020 550 37 2500 VRB/04 RMK AO2 SLP221 T03060144
13873KAHN AHN20160525145510305/25/16 14:55:31  5-MIN KAHN 251955Z VRB05KT 10SM CLR 30/13 A3020 550 35 2400 VRB/05 RMK AO2 T03000133
13873KAHN AHN20160525150010305/25/16 15:00:31  5-MIN KAHN 252000Z 00000KT 10SM CLR 30/13 A3020 550 34 2400 000/00 RMK AO2 T03000128
13873KAHN AHN20160525150509305/25/16 15:05:31  5-MIN KAHN 252005Z 10SM CLR 31/14 A3020 560 34 2600 M /M RMK AO2 T03110139
13873KAHN AHN20160525151010305/25/16 15:10:31  5-MIN KAHN 252010Z VRB05KT 10SM CLR 31/13 A3019 560 34 2500 VRB/05 RMK AO2 T03060133
13873KAHN AHN20160525151510305/25/16 15:15:31  5-MIN KAHN 252015Z VRB04KT 10SM CLR 31/14 A3019 560 34 2600 VRB/04 RMK AO2 T03110139
13873KAHN AHN20160525152010305/25/16 15:20:31  5-MIN KAHN 252020Z 18006KT 10SM CLR 30/14 A3019 560 36 2400 180/06 RMK AO2 T03000139
13873KAHN AHN20160525152510305/25/16 15:25:31  5-MIN KAHN 252025Z VRB04KT 10SM CLR 31/14 A3019 560 35 2500 VRB/04 RMK AO2 T03060139
13873KAHN AHN20160525153010305/25/16 15:30:31  5-MIN KAHN 252030Z VRB04KT 10SM CLR 31/14 A3019 560 35 2500 VRB/04 RMK AO2 T03060139
13873KAHN AHN20160525153510305/25/16 15:35:31  5-MIN KAHN 252035Z VRB04KT 10SM CLR 31/13 A3019 560 34 2500 VRB/04 RMK AO2 T03060133
13873KAHN AHN20160525154010305/25/16 15:40:31  5-MIN KAHN 252040Z VRB03KT 10SM CLR 31/13 A3018 570 34 2500 VRB/03 RMK AO2 T03060133
13873KAHN AHN20160525154511605/25/16 15:45:31  5-MIN KAHN 252045Z 21005KT 10SM CLR 31/14 A3018 570 35 2500 220/05 RMK AO2 SLP214 T03060139 56011
13873KAHN AHN20160525155011605/25/16 15:50:31  5-MIN KAHN 252050Z 24003KT 10SM CLR 30/13 A3018 570 35 2500 240/03 RMK AO2 SLP213 T03000133 56011
13873KAHN AHN20160525155510305/25/16 15:55:31  5-MIN KAHN 252055Z VRB03KT 10SM CLR 30/13 A3018 570 35 2500 VRB/03 RMK AO2 T03000133
13873KAHN AHN20160525160010305/25/16 16:00:31  5-MIN KAHN 252100Z VRB05KT 10SM CLR 31/14 A3018 570 35 2500 VRB/05 RMK AO2 T03060139
13873KAHN AHN20160525160510305/25/16 16:05:31  5-MIN KAHN 252105Z VRB04KT 10SM CLR 30/14 A3018 570 36 2500 VRB/04 RMK AO2 T03000139
13873KAHN AHN20160525161010305/25/16 16:10:31  5-MIN KAHN 252110Z 18006KT 10SM CLR 30/14 A3018 570 36 2500 190/06 RMK AO2 T03000139
13873KAHN AHN20160525161510305/25/16 16:15:31  5-MIN KAHN 252115Z VRB04KT 10SM CLR 29/14 A3018 570 38 2400 VRB/04 RMK AO2 T02940139
13873KAHN AHN20160525162010305/25/16 16:20:31  5-MIN KAHN 252120Z VRB03KT 10SM CLR 30/14 A3018 570 36 2500 VRB/03 RMK AO2 T03000139
13873KAHN AHN20160525162509305/25/16 16:25:31  5-MIN KAHN 252125Z 10SM CLR 30/13 A3018 570 35 2500 M /M RMK AO2 T03000133
13873KAHN AHN20160525163010305/25/16 16:30:31  5-MIN KAHN 252130Z VRB06KT 10SM CLR 30/14 A3018 570 36 2500 VRB/06 RMK AO2 T03000139
13873KAHN AHN20160525163510305/25/16 16:35:31  5-MIN KAHN 252135Z 18005KT 10SM CLR 29/14 A3018 570 38 2400 180/05 RMK AO2 T02940139
13873KAHN AHN20160525164010305/25/16 16:40:31  5-MIN KAHN 252140Z VRB03KT 10SM CLR 30/14 A3018 570 36 2500 VRB/03 RMK AO2 T03000139
13873KAHN AHN20160525164511005/25/16 16:45:31  5-MIN KAHN 252145Z 00000KT 10SM CLR 30/14 A3018 570 36 2500 000/00 RMK AO2 SLP215 T03000139
13873KAHN AHN20160525165011005/25/16 16:50:31  5-MIN KAHN 252150Z VRB04KT 10SM CLR 29/14 A3018 570 38 2400 VRB/04 RMK AO2 SLP214 T02940139
13873KAHN AHN20160525165510305/25/16 16:55:31  5-MIN KAHN 252155Z VRB04KT 10SM CLR 30/14 A3018 570 36 2500 VRB/04 RMK AO2 T03000139
13873KAHN AHN20160525170010305/25/16 17:00:31  5-MIN KAHN 252200Z 00000KT 10SM CLR 30/13 A3018 570 35 2500 000/00 RMK AO2 T03000133
13873KAHN AHN20160525170510305/25/16 17:05:31  5-MIN KAHN 252205Z 18005KT 10SM CLR 29/14 A3018 570 39 2400 180/05 RMK AO2 T02940144
13873KAHN AHN20160525171010305/25/16 17:10:31  5-MIN KAHN 252210Z 17005KT 10SM CLR 29/14 A3017 580 38 2400 170/05 RMK AO2 T02940139
13873KAHN AHN20160525171510305/25/16 17:15:31  5-MIN KAHN 252215Z VRB04KT 10SM CLR 29/13 A3017 580 38 2300 VRB/04 RMK AO2 T02890133
13873KAHN AHN20160525172010305/25/16 17:20:31  5-MIN KAHN 252220Z VRB04KT 10SM CLR 29/13 A3017 580 38 2300 VRB/04 RMK AO2 T02890133
13873KAHN AHN20160525172510305/25/16 17:25:31  5-MIN KAHN 252225Z 18005KT 10SM CLR 29/13 A3017 580 38 2300 190/05 RMK AO2 T02890133
13873KAHN AHN20160525173010305/25/16 17:30:31  5-MIN KAHN 252230Z 18005KT 10SM CLR 29/13 A3017 580 36 2400 180/05 RMK AO2 T02940133
13873KAHN AHN20160525173510305/25/16 17:35:31  5-MIN KAHN 252235Z 20004KT 10SM CLR 29/13 A3017 580 38 2400 200/04 RMK AO2 T02890133
13873KAHN AHN20160525174010305/25/16 17:40:31  5-MIN KAHN 252240Z VRB03KT 10SM CLR 29/14 A3017 580 39 2300 VRB/03 RMK AO2 T02890139
13873KAHN AHN20160525174511005/25/16 17:45:31  5-MIN KAHN 252245Z 18005KT 10SM CLR 29/14 A3016 590 39 2400 190/05 RMK AO2 SLP208 T02890139
13873KAHN AHN20160525175011005/25/16 17:50:31  5-MIN KAHN 252250Z VRB04KT 10SM CLR 28/13 A3016 580 39 2300 VRB/04 RMK AO2 SLP210 T02830133
13873KAHN AHN20160525175510305/25/16 17:55:31  5-MIN KAHN 252255Z VRB03KT 10SM CLR 28/13 A3017 580 39 2300 VRB/03 RMK AO2 T02830133
13873KAHN AHN20160526145012705/26/16 14:50:31  5-MIN KAHN 261950Z 17005KT 10SM SCT055 BKN070 OVC095 31/18 A3012 620 47 2600 180/05 RMK AO2 SLP194 T03060183
13873KAHN AHN20160526145512005/26/16 14:55:31  5-MIN KAHN 261955Z VRB04KT 10SM SCT055 BKN070 OVC095 31/18 A3012 620 47 2600 VRB/04 RMK AO2 T03060183
13873KAHN AHN20160526150012005/26/16 15:00:31  5-MIN KAHN 262000Z 18005KT 10SM FEW055 BKN070 OVC090 29/18 A3012 630 49 2500 190/05 RMK AO2 T02940178
13873KAHN AHN20160526150511305/26/16 15:05:31  5-MIN KAHN 262005Z 17005KT 10SM SCT070 OVC090 28/18 A3012 630 52 2300 170/05 RMK AO2 T02830178
13873KAHN AHN20160526151012005/26/16 15:10:31  5-MIN KAHN 262010Z VRB03KT 10SM FEW060 SCT070 OVC095 28/18 A3011 630 52 2300 VRB/03 RMK AO2 T02830178
13873KAHN AHN20160526151512005/26/16 15:15:31  5-MIN KAHN 262015Z VRB04KT 10SM FEW060 SCT070 OVC095 29/18 A3011 630 50 2400 VRB/04 RMK AO2 T02890178
13873KAHN AHN20160526152011305/26/16 15:20:31  5-MIN KAHN 262020Z 19004KT 10SM FEW075 BKN095 30/18 A3011 630 47 2500 190/04 RMK AO2 T03000178
13873KAHN AHN20160526152510605/26/16 15:25:31  5-MIN KAHN 262025Z VRB05KT 10SM BKN095 30/18 A3011 630 47 2500 VRB/05 RMK AO2 T03000178
13873KAHN AHN20160526153010605/26/16 15:30:31  5-MIN KAHN 262030Z 14004KT 10SM SCT100 29/18 A3011 640 50 2500 150/04 RMK AO2 T02940183
13873KAHN AHN20160526153510605/26/16 15:35:31  5-MIN KAHN 262035Z VRB04KT 10SM SCT100 28/18 A3011 640 52 2400 VRB/04 RMK AO2 T02830178
13873KAHN AHN20160526154010605/26/16 15:40:31  5-MIN KAHN 262040Z VRB04KT 10SM FEW100 28/18 A3010 640 52 2400 VRB/04 RMK AO2 T02830178
13873KAHN AHN20160526154511905/26/16 15:45:31  5-MIN KAHN 262045Z VRB03KT 10SM FEW100 29/18 A3010 640 49 2500 VRB/03 RMK AO2 SLP186 T02940178 58012
13873KAHN AHN20160526155011605/26/16 15:50:31  5-MIN KAHN 262050Z VRB04KT 10SM CLR 30/18 A3010 650 49 2500 VRB/04 RMK AO2 SLP185 T03000183 58012
13873KAHN AHN20160526155510305/26/16 15:55:31  5-MIN KAHN 262055Z 17005KT 10SM CLR 30/18 A3010 650 47 2500 180/05 RMK AO2 T03000178
13873KAHN AHN20160526160010305/26/16 16:00:31  5-MIN KAHN 262100Z 18005KT 10SM CLR 30/17 A3010 650 45 2600 180/05 RMK AO2 T03000172
13873KAHN AHN20160526160510305/26/16 16:05:31  5-MIN KAHN 262105Z VRB04KT 10SM CLR 30/18 A3009 650 47 2600 VRB/04 RMK AO2 T03000178
13873KAHN AHN20160526161010305/26/16 16:10:31  5-MIN KAHN 262110Z 00000KT 10SM CLR 31/17 A3009 650 44 2600 000/00 RMK AO2 T03060172
13873KAHN AHN20160526161510305/26/16 16:15:31  5-MIN KAHN 262115Z VRB03KT 10SM CLR 31/17 A3009 660 44 2600 VRB/03 RMK AO2 T03060172
13873KAHN AHN20160526162010305/26/16 16:20:31  5-MIN KAHN 262120Z 00000KT 10SM CLR 31/17 A3009 660 44 2600 000/00 RMK AO2 T03060172
13873KAHN AHN20160526162509305/26/16 16:25:31  5-MIN KAHN 262125Z 10SM CLR 30/17 A3009 660 45 2600 M /M RMK AO2 T03000172
13873KAHN AHN20160526163010305/26/16 16:30:31  5-MIN KAHN 262130Z 17005KT 10SM CLR 30/17 A3009 660 45 2600 180/05 RMK AO2 T03000172
13873KAHN AHN20160526163510305/26/16 16:35:31  5-MIN KAHN 262135Z VRB03KT 10SM CLR 30/17 A3008 660 45 2600 VRB/03 RMK AO2 T03000172
13873KAHN AHN20160526164010305/26/16 16:40:31  5-MIN KAHN 262140Z VRB03KT 10SM CLR 30/17 A3008 660 45 2600 VRB/03 RMK AO2 T03000172
13873KAHN AHN20160526164511005/26/16 16:45:31  5-MIN KAHN 262145Z 00000KT 10SM CLR 30/17 A3008 660 44 2600 000/00 RMK AO2 SLP179 T03000167
13873KAHN AHN20160526165011005/26/16 16:50:31  5-MIN KAHN 262150Z 18005KT 10SM CLR 31/17 A3008 660 44 2600 180/05 RMK AO2 SLP180 T03060172
13873KAHN AHN20160526165510305/26/16 16:55:31  5-MIN KAHN 262155Z 00000KT 10SM CLR 30/17 A3008 660 45 2600 000/00 RMK AO2 T03000172
13873KAHN AHN20160526170010305/26/16 17:00:31  5-MIN KAHN 262200Z VRB04KT 10SM CLR 30/17 A3008 660 44 2600 VRB/04 RMK AO2 T03000167
13873KAHN AHN20160526170510305/26/16 17:05:31  5-MIN KAHN 262205Z 00000KT 10SM CLR 29/17 A3008 670 45 2500 000/00 RMK AO2 T02940167
13873KAHN AHN20160526171010305/26/16 17:10:31  5-MIN KAHN 262210Z 00000KT 10SM CLR 30/17 A3007 670 45 2600 000/00 RMK AO2 T03000172
13873KAHN AHN20160526171510305/26/16 17:15:31  5-MIN KAHN 262215Z VRB03KT 10SM CLR 30/17 A3008 670 45 2600 VRB/03 RMK AO2 T03000172
13873KAHN AHN20160526172010305/26/16 17:20:31  5-MIN KAHN 262220Z 13004KT 10SM CLR 31/18 A3007 670 46 2600 130/04 RMK AO2 T03060178
13873KAHN AHN20160526172510305/26/16 17:25:31  5-MIN KAHN 262225Z VRB03KT 10SM CLR 30/18 A3007 670 47 2600 VRB/03 RMK AO2 T03000178
13873KAHN AHN20160526173010305/26/16 17:30:31  5-MIN KAHN 262230Z VRB04KT 10SM CLR 29/17 A3007 670 47 2500 VRB/04 RMK AO2 T02940172
13873KAHN AHN20160526173510305/26/16 17:35:31  5-MIN KAHN 262235Z VRB03KT 10SM CLR 29/18 A3007 670 49 2500 VRB/03 RMK AO2 T02940178
13873KAHN AHN20160526174010305/26/16 17:40:31  5-MIN KAHN 262240Z 00000KT 10SM CLR 29/18 A3007 670 49 2500 000/00 RMK AO2 T02940178
13873KAHN AHN20160526174511005/26/16 17:45:31  5-MIN KAHN 262245Z VRB03KT 10SM CLR 29/18 A3007 670 49 2500 VRB/03 RMK AO2 SLP176 T02940178
13873KAHN AHN20160526175011005/26/16 17:50:31  5-MIN KAHN 262250Z VRB04KT 10SM CLR 29/18 A3007 670 49 2500 VRB/04 RMK AO2 SLP176 T02940178
13873KAHN AHN20160526175510305/26/16 17:55:31  5-MIN KAHN 262255Z VRB03KT 10SM CLR 29/18 A3007 670 50 2500 VRB/03 RMK AO2 T02890178
13873KAHN AHN20160526180010305/26/16 18:00:31  5-MIN KAHN 262300Z VRB03KT 10SM CLR 29/18 A3007 670 50 2500 VRB/03 RMK AO2 T02890178
13873KAHN AHN20160526180510305/26/16 18:05:31  5-MIN KAHN 262305Z 00000KT 10SM CLR 29/18 A3007 670 50 2500 000/00 RMK AO2 T02890178
13873KAHN AHN20160526181010305/26/16 18:10:31  5-MIN KAHN 262310Z 00000KT 10SM CLR 29/17 A3007 680 48 2500 000/00 RMK AO2 T02890172
13873KAHN AHN20160526181510305/26/16 18:15:31  5-MIN KAHN 262315Z 00000KT 10SM CLR 29/17 A3007 680 48 2500 000/00 RMK AO2 T02890172
13873KAHN AHN20160526182010305/26/16 18:20:31  5-MIN KAHN 262320Z 00000KT 10SM CLR 28/18 A3007 670 52 2400 000/00 RMK AO2 T02830178
13873KAHN AHN20160526182510305/26/16 18:25:31  5-MIN KAHN 262325Z VRB03KT 10SM CLR 28/17 A3007 670 50 2400 VRB/03 RMK AO2 T02830172
13873KAHN AHN20160526183010305/26/16 18:30:31  5-MIN KAHN 262330Z VRB03KT 10SM CLR 28/17 A3007 670 50 2400 VRB/03 RMK AO2 T02830172
13873KAHN AHN20160526183510305/26/16 18:35:31  5-MIN KAHN 262335Z 17003KT 10SM CLR 28/17 A3007 670 50 2400 170/03 RMK AO2 T02830172
13873KAHN AHN20160526184010305/26/16 18:40:31  5-MIN KAHN 262340Z 00000KT 10SM CLR 28/17 A3008 670 50 2400 000/00 RMK AO2 T02830172
13873KAHN AHN20160526184512805/26/16 18:45:31  5-MIN KAHN 262345Z 17004KT 10SM CLR 28/17 A3008 660 52 2300 180/04 RMK AO2 SLP178 T02780172 10306 20278 58020
13873KAHN AHN20160526185012805/26/16 18:50:31  5-MIN KAHN 262350Z 18003KT 10SM CLR 28/17 A3008 660 52 2300 180/03 RMK AO2 SLP178 T02780172 10306 20278 58020
13873KAHN AHN20160526185510305/26/16 18:55:31  5-MIN KAHN 262355Z 17004KT 10SM CLR 28/17 A3008 660 52 2300 180/04 RMK AO2 T02780172
13873KAHN AHN20160526190010805/26/16 19:00:31  5-MIN KAHN 270000Z AUTO VRB03KT 10SM CLR 27/17 A3008 660 54 2300 VRB/03 RMK AO2 T02720172
13873KAHN AHN20160526190510805/26/16 19:05:31  5-MIN KAHN 270005Z AUTO VRB03KT 10SM CLR 27/17 A3008 660 54 2300 VRB/03 RMK AO2 T02720172
13873KAHN AHN20160526191010805/26/16 19:10:31  5-MIN KAHN 270010Z AUTO 00000KT 10SM CLR 27/17 A3009 660 54 2300 000/00 RMK AO2 T02720172
13873KAHN AHN20160526191510805/26/16 19:15:31  5-MIN KAHN 270015Z AUTO 17003KT 10SM CLR 27/17 A3009 650 55 2200 180/03 RMK AO2 T02670172
13873KAHN AHN20160526192010805/26/16 19:20:31  5-MIN KAHN 270020Z AUTO 17003KT 10SM CLR 27/17 A3009 650 55 2200 170/03 RMK AO2 T02670172
13873KAHN AHN20160526192510805/26/16 19:25:31  5-MIN KAHN 270025Z AUTO 17003KT 10SM CLR 26/18 A3009 650 59 2100 180/03 RMK AO2 T02610178
13873KAHN AHN20160526193010805/26/16 19:30:31  5-MIN KAHN 270030Z AUTO 17003KT 10SM CLR 26/18 A3009 650 59 2100 180/03 RMK AO2 T02610178
13873KAHN AHN20160526193510805/26/16 19:35:31  5-MIN KAHN 270035Z AUTO 17003KT 10SM CLR 26/18 A3009 650 61 2100 180/03 RMK AO2 T02560178
13873KAHN AHN20160526194010805/26/16 19:40:31  5-MIN KAHN 270040Z AUTO 00000KT 10SM CLR 26/18 A3009 650 61 2100 000/00 RMK AO2 T02560178
13873KAHN AHN20160526194511505/26/16 19:45:31  5-MIN KAHN 270045Z AUTO 00000KT 10SM CLR 26/18 A3009 650 61 2100 000/00 RMK AO2 SLP183 T02560178
13873KAHN AHN20160526195011505/26/16 19:50:31  5-MIN KAHN 270050Z AUTO 00000KT 10SM CLR 25/18 A3009 650 66 2000 000/00 RMK AO2 SLP183 T02500183
13873KAHN AHN20160526195510805/26/16 19:55:31  5-MIN KAHN 270055Z AUTO 00000KT 10SM CLR 24/18 A3009 650 68 1900 000/00 RMK AO2 T02440183
13873KAHN AHN20160526200011105/26/16 20:00:31  5-MIN KAHN 270100Z AUTO 00000KT 10SM FEW060 24/18 A3009 650 68 1900 000/00 RMK AO2 T02440183
13873KAHN AHN20160526200511105/26/16 20:05:31  5-MIN KAHN 270105Z AUTO 00000KT 10SM FEW060 24/18 A3009 650 68 1900 000/00 RMK AO2 T02440183
13873KAHN AHN20160526201011105/26/16 20:10:31  5-MIN KAHN 270110Z AUTO 00000KT 10SM FEW060 24/18 A3010 650 68 1900 000/00 RMK AO2 T02440183
13873KAHN AHN20160526201511105/26/16 20:15:31  5-MIN KAHN 270115Z AUTO 00000KT 10SM FEW060 24/18 A3010 650 68 1900 000/00 RMK AO2 T02440183
13873KAHN AHN20160526202011105/26/16 20:20:31  5-MIN KAHN 270120Z AUTO 00000KT 10SM FEW060 24/18 A3010 650 68 1900 000/00 RMK AO2 T02440183
13873KAHN AHN20160526202511805/26/16 20:25:31  5-MIN KAHN 270125Z AUTO 00000KT 10SM FEW060 FEW120 24/18 A3010 650 68 1900 000/00 RMK AO2 T02440183
13873KAHN AHN20160526203011105/26/16 20:30:31  5-MIN KAHN 270130Z AUTO 15003KT 10SM FEW120 24/18 A3010 650 68 1900 150/03 RMK AO2 T02440183
13873KAHN AHN20160526203510805/26/16 20:35:31  5-MIN KAHN 270135Z AUTO 00000KT 10SM CLR 24/18 A3010 650 68 1900 000/00 RMK AO2 T02440183
13873KAHN AHN20160526204010805/26/16 20:40:31  5-MIN KAHN 270140Z AUTO VRB03KT 10SM CLR 24/18 A3010 650 71 1900 VRB/03 RMK AO2 T02390183
13873KAHN AHN20160526204511505/26/16 20:45:31  5-MIN KAHN 270145Z AUTO 00000KT 10SM CLR 24/18 A3010 650 71 1900 000/00 RMK AO2 SLP186 T02390183
13873KAHN AHN20160526205011505/26/16 20:50:31  5-MIN KAHN 270150Z AUTO VRB03KT 10SM CLR 24/18 A3010 640 71 1900 VRB/03 RMK AO2 SLP186 T02390183
13873KAHN AHN20160526205510805/26/16 20:55:31  5-MIN KAHN 270155Z AUTO 17003KT 10SM CLR 24/18 A3010 650 71 1900 170/03 RMK AO2 T02390183
13873KAHN AHN20160526210010805/26/16 21:00:31  5-MIN KAHN 270200Z AUTO VRB03KT 10SM CLR 24/18 A3010 650 71 1900 VRB/03 RMK AO2 T02390183
13873KAHN AHN20160526210510805/26/16 21:05:31  5-MIN KAHN 270205Z AUTO 17003KT 10SM CLR 24/18 A3010 650 71 1900 170/03 RMK AO2 T02390183
13873KAHN AHN20160526211010805/26/16 21:10:31  5-MIN KAHN 270210Z AUTO 17003KT 10SM CLR 24/18 A3010 650 71 1900 170/03 RMK AO2 T02390183
13873KAHN AHN20160526211510805/26/16 21:15:31  5-MIN KAHN 270215Z AUTO 17003KT 10SM CLR 24/18 A3010 640 71 1900 170/03 RMK AO2 T02390183
13873KAHN AHN20160526212010805/26/16 21:20:31  5-MIN KAHN 270220Z AUTO 17003KT 10SM CLR 24/18 A3010 650 71 1900 170/03 RMK AO2 T02390183
13873KAHN AHN20160526212511105/26/16 21:25:31  5-MIN KAHN 270225Z AUTO 16003KT 10SM FEW060 24/18 A3010 650 71 1900 170/03 RMK AO2 T02390183
13873KAHN AHN20160526213011105/26/16 21:30:31  5-MIN KAHN 270230Z AUTO 17004KT 10SM FEW060 24/18 A3010 650 71 1900 170/04 RMK AO2 T02390183
13873KAHN AHN20160526213511105/26/16 21:35:31  5-MIN KAHN 270235Z AUTO VRB03KT 10SM SCT060 24/18 A3010 650 71 1900 VRB/03 RMK AO2 T02390183
13873KAHN AHN20160526214011105/26/16 21:40:31  5-MIN KAHN 270240Z AUTO 16003KT 10SM BKN060 24/18 A3010 650 71 1900 170/03 RMK AO2 T02390183
13873KAHN AHN20160526214512405/26/16 21:45:31  5-MIN KAHN 270245Z AUTO VRB03KT 10SM BKN060 23/18 A3010 650 70 1800 VRB/03 RMK AO2 SLP184 T02330178 55006
13873KAHN AHN20160526215012405/26/16 21:50:31  5-MIN KAHN 270250Z AUTO 00000KT 10SM BKN060 23/18 A3010 650 70 1800 000/00 RMK AO2 SLP184 T02330178 55006
13873KAHN AHN20160526215511105/26/16 21:55:31  5-MIN KAHN 270255Z AUTO 17003KT 10SM BKN060 23/18 A3010 650 70 1800 170/03 RMK AO2 T02330178
13873KAHN AHN20160526220011105/26/16 22:00:31  5-MIN KAHN 270300Z AUTO 17004KT 10SM BKN060 23/18 A3009 650 70 1800 180/04 RMK AO2 T02330178
13873KAHN AHN20160526220511105/26/16 22:05:31  5-MIN KAHN 270305Z AUTO 17004KT 10SM BKN060 23/18 A3010 650 70 1800 170/04 RMK AO2 T02330178
13873KAHN AHN20160526221011105/26/16 22:10:31  5-MIN KAHN 270310Z AUTO 18004KT 10SM BKN060 23/18 A3010 650 70 1800 180/04 RMK AO2 T02330178
13873KAHN AHN20160526221511105/26/16 22:15:31  5-MIN KAHN 270315Z AUTO 17004KT 10SM OVC060 23/18 A3010 650 70 1800 180/04 RMK AO2 T02330178
13873KAHN AHN20160526222011105/26/16 22:20:31  5-MIN KAHN 270320Z AUTO 18003KT 10SM OVC060 24/18 A3010 650 68 1900 190/03 RMK AO2 T02390178
13873KAHN AHN20160526222511105/26/16 22:25:31  5-MIN KAHN 270325Z AUTO 18003KT 10SM BKN060 24/18 A3010 650 68 1900 180/03 RMK AO2 T02390178
13873KAHN AHN20160526223011105/26/16 22:30:31  5-MIN KAHN 270330Z AUTO 18003KT 10SM BKN065 23/18 A3010 650 70 1800 180/03 RMK AO2 T02330178
13873KAHN AHN20160526223511805/26/16 22:35:31  5-MIN KAHN 270335Z AUTO 18004KT 10SM BKN065 BKN100 23/18 A3010 650 70 1800 180/04 RMK AO2 T02330178
13873KAHN AHN20160526224011805/26/16 22:40:31  5-MIN KAHN 270340Z AUTO 17003KT 10SM SCT065 BKN100 23/18 A3010 640 70 1800 180/03 RMK AO2 T02330178
13873KAHN AHN20160526224512505/26/16 22:45:31  5-MIN KAHN 270345Z AUTO 18003KT 10SM SCT065 SCT100 23/18 A3010 640 70 1800 180/03 RMK AO2 SLP186 T02330178
13873KAHN AHN20160526225012505/26/16 22:50:31  5-MIN KAHN 270350Z AUTO 18004KT 10SM FEW065 FEW100 23/18 A3010 640 70 1800 180/04 RMK AO2 SLP185 T02330178
13873KAHN AHN20160526225511805/26/16 22:55:31  5-MIN KAHN 270355Z AUTO VRB03KT 10SM FEW070 FEW100 23/18 A3010 640 70 1800 VRB/03 RMK AO2 T02330178
13873KAHN AHN20160526230011105/26/16 23:00:31  5-MIN KAHN 270400Z AUTO 00000KT 10SM FEW100 23/18 A3010 650 70 1800 000/00 RMK AO2 T02330178
13873KAHN AHN20160526230511105/26/16 23:05:31  5-MIN KAHN 270405Z AUTO 19003KT 10SM SCT110 23/18 A3010 640 70 1800 200/03 RMK AO2 T02330178
13873KAHN AHN20160526231011105/26/16 23:10:31  5-MIN KAHN 270410Z AUTO 00000KT 10SM BKN110 23/18 A3010 640 70 1800 000/00 RMK AO2 T02330178
13873KAHN AHN20160526231511105/26/16 23:15:31  5-MIN KAHN 270415Z AUTO 00000KT 10SM BKN110 23/18 A3010 640 70 1800 000/00 RMK AO2 T02330178
13873KAHN AHN20160526232011105/26/16 23:20:31  5-MIN KAHN 270420Z AUTO 19003KT 10SM BKN110 23/18 A3010 640 70 1800 200/03 RMK AO2 T02330178
13873KAHN AHN20160526232511105/26/16 23:25:31  5-MIN KAHN 270425Z AUTO 18003KT 10SM OVC100 23/18 A3010 640 70 1800 180/03 RMK AO2 T02330178
13873KAHN AHN20160526233011105/26/16 23:30:31  5-MIN KAHN 270430Z AUTO 18003KT 10SM OVC100 23/18 A3011 640 70 1800 190/03 RMK AO2 T02330178
13873KAHN AHN20160526233511105/26/16 23:35:31  5-MIN KAHN 270435Z AUTO 00000KT 10SM OVC100 23/18 A3011 640 73 1700 000/00 RMK AO2 T02280178
13873KAHN AHN20160526234011105/26/16 23:40:31  5-MIN KAHN 270440Z AUTO 00000KT 10SM OVC100 23/18 A3010 640 73 1700 000/00 RMK AO2 T02280178
13873KAHN AHN20160526234512805/26/16 23:45:31  5-MIN KAHN 270445Z AUTO 14003KT 10SM OVC100 23/18 A3011 640 73 1700 150/03 RMK AO2 SLP186 T02280178 403110178
13873KAHN AHN20160526235012805/26/16 23:50:31  5-MIN KAHN 270450Z AUTO 11003KT 10SM OVC110 23/18 A3010 640 73 1700 120/03 RMK AO2 SLP186 T02280178 403110178
13873KAHN AHN20160526235512505/26/16 23:55:31  5-MIN KAHN 270455Z AUTO 12003KT 10SM FEW060 FEW075 OVC110 23/18 A3010 640 76 1700 130/03 RMK AO2 T02280183
13873KAHN AHN20160527000012505/27/16 00:00:31  5-MIN KAHN 270500Z AUTO 00000KT 10SM FEW060 SCT075 OVC110 23/18 A3010 640 73 1700 000/00 RMK AO2 T02280178
13873KAHN AHN20160527000512505/27/16 00:05:31  5-MIN KAHN 270505Z AUTO 13003KT 10SM FEW060 FEW075 OVC110 23/18 A3010 640 73 1700 130/03 RMK AO2 T02280178
13873KAHN AHN20160527001012505/27/16 00:10:31  5-MIN KAHN 270510Z AUTO 00000KT 10SM FEW060 SCT070 OVC110 22/18 A3011 640 78 1700 000/00 RMK AO2 T02220183
13873KAHN AHN20160527001512505/27/16 00:15:31  5-MIN KAHN 270515Z AUTO 11003KT 10SM SCT060 BKN070 OVC110 22/18 A3011 640 78 1700 120/03 RMK AO2 T02220183
13873KAHN AHN20160527002012505/27/16 00:20:31  5-MIN KAHN 270520Z AUTO 12003KT 10SM BKN060 BKN070 OVC110 22/18 A3011 640 78 1700 120/03 RMK AO2 T02220183
13873KAHN AHN20160527002514105/27/16 00:25:31  5-MIN KAHN 270525Z AUTO 12003KT 10SM -RA SCT060 BKN075 OVC110 22/18 A3010 640 78 1700 120/03 RMK AO2 RAB24 P0000 T02220183
13873KAHN AHN20160527003014105/27/16 00:30:31  5-MIN KAHN 270530Z AUTO 11003KT 10SM -RA SCT060 BKN075 OVC110 22/19 A3010 640 84 1600 110/03 RMK AO2 RAB24 P0000 T02170189
13873KAHN AHN20160527003514005/27/16 00:35:31  5-MIN KAHN 270535Z AUTO 12003KT 9SM -RA SCT060 BKN075 OVC110 21/19 A3010 640 87 1500 130/03 RMK AO2 RAB24 P0000 T02110189
13873KAHN AHN20160527004014005/27/16 00:40:31  5-MIN KAHN 270540Z AUTO 13003KT 8SM -RA SCT060 BKN095 OVC110 21/19 A3010 640 93 1500 130/03 RMK AO2 RAB24 P0000 T02060194
13873KAHN AHN20160527004516405/27/16 00:45:31  5-MIN KAHN 270545Z AUTO 12004KT 8SM -RA FEW060 OVC095 21/19 A3010 640 93 1500 130/04 RMK AO2 RAB24 SLP185 P0000 60000 T02060194 10278 20206 50005
13873KAHN AHN20160527005015705/27/16 00:50:31  5-MIN KAHN 270550Z AUTO 11004KT 8SM -RA OVC100 21/19 A3010 640 93 1500 120/04 RMK AO2 RAB24 SLP185 P0000 60000 T02060194 10278 20206 50005
13873KAHN AHN20160527005514605/27/16 00:55:31  5-MIN KAHN 270555Z AUTO 13003KT 9SM -RA FEW050 BKN090 OVC110 21/19 A3010 640 93 1500 140/03 RMK AO2 LTG DSNT NE P0000 T02060194
13873KAHN AHN20160527010014705/27/16 01:00:31  5-MIN KAHN 270600Z AUTO VRB03KT 10SM -RA SCT055 BKN090 OVC100 21/19 A3010 640 90 1500 VRB/03 RMK AO2 LTG DSNT NE P0000 T02060189
13873KAHN AHN20160527010514205/27/16 01:05:31  5-MIN KAHN 270605Z AUTO VRB03KT 10SM SCT055 OVC100 21/19 A3010 640 90 1500 VRB/03 RMK AO2 LTG DSNT NE RAE02 P0000 T02060189
13873KAHN AHN20160527011013005/27/16 01:10:31  5-MIN KAHN 270610Z AUTO VRB03KT 10SM SCT055 OVC100 21/19 A3010 640 87 1500 VRB/03 RMK AO2 RAE02 P0000 T02110189
13873KAHN AHN20160527011513705/27/16 01:15:31  5-MIN KAHN 270615Z AUTO 16003KT 10SM FEW055 BKN090 OVC100 21/19 A3010 640 90 1500 160/03 RMK AO2 RAE02 P0000 T02060189
13873KAHN AHN20160527012013705/27/16 01:20:31  5-MIN KAHN 270620Z AUTO VRB03KT 10SM SCT055 BKN090 OVC110 21/19 A3010 650 87 1500 VRB/03 RMK AO2 RAE02 P0000 T02110189
13873KAHN AHN20160527012513005/27/16 01:25:31  5-MIN KAHN 270625Z AUTO 00000KT 10SM SCT055 OVC095 21/18 A3010 640 84 1500 000/00 RMK AO2 RAE02 P0000 T02110183
13873KAHN AHN20160527013013005/27/16 01:30:31  5-MIN KAHN 270630Z AUTO 00000KT 10SM SCT060 OVC095 21/18 A3010 640 84 1500 000/00 RMK AO2 RAE02 P0000 T02110183
13873KAHN AHN20160527013513005/27/16 01:35:31  5-MIN KAHN 270635Z AUTO 00000KT 10SM BKN060 OVC090 21/19 A3010 640 90 1500 000/00 RMK AO2 RAE02 P0000 T02060189
13873KAHN AHN20160527014013705/27/16 01:40:31  5-MIN KAHN 270640Z AUTO 00000KT 10SM BKN055 BKN070 OVC090 21/19 A3010 640 87 1500 000/00 RMK AO2 RAE02 P0000 T02110189
13873KAHN AHN20160527014514405/27/16 01:45:31  5-MIN KAHN 270645Z AUTO 00000KT 10SM SCT060 BKN070 OVC095 21/19 A3010 640 87 1500 000/00 RMK AO2 RAE02 SLP185 P0000 T02110189
13873KAHN AHN20160527015014405/27/16 01:50:31  5-MIN KAHN 270650Z AUTO 00000KT 10SM SCT055 BKN070 OVC095 21/18 A3010 640 84 1500 000/00 RMK AO2 RAE02 SLP185 P0000 T02110183
13873KAHN AHN20160527015511805/27/16 01:55:31  5-MIN KAHN 270655Z AUTO 00000KT 10SM BKN055 OVC070 21/18 A3010 650 84 1500 000/00 RMK AO2 T02110183
13873KAHN AHN20160527020011805/27/16 02:00:31  5-MIN KAHN 270700Z AUTO 00000KT 10SM BKN055 OVC070 21/18 A3010 650 84 1500 000/00 RMK AO2 T02110183
13873KAHN AHN20160527020511805/27/16 02:05:31  5-MIN KAHN 270705Z AUTO 00000KT 10SM BKN060 OVC070 21/18 A3010 650 81 1500 000/00 RMK AO2 T02110178
13873KAHN AHN20160527021011805/27/16 02:10:31  5-MIN KAHN 270710Z AUTO 00000KT 10SM BKN060 OVC070 21/18 A3010 650 81 1500 000/00 RMK AO2 T02110178
13873KAHN AHN20160527021511105/27/16 02:15:31  5-MIN KAHN 270715Z AUTO 00000KT 10SM OVC060 21/18 A3010 650 81 1600 000/00 RMK AO2 T02110178
13873KAHN AHN20160527022011805/27/16 02:20:31  5-MIN KAHN 270720Z AUTO 00000KT 10SM BKN060 OVC070 21/17 A3010 650 78 1500 000/00 RMK AO2 T02110172
13873KAHN AHN20160527022511105/27/16 02:25:31  5-MIN KAHN 270725Z AUTO 00000KT 10SM OVC065 21/17 A3010 650 78 1500 000/00 RMK AO2 T02110172
13873KAHN AHN20160527023011805/27/16 02:30:31  5-MIN KAHN 270730Z AUTO 18003KT 10SM SCT060 OVC070 21/17 A3010 640 78 1500 180/03 RMK AO2 T02110172
13873KAHN AHN20160527023511805/27/16 02:35:31  5-MIN KAHN 270735Z AUTO VRB03KT 10SM FEW060 OVC070 21/17 A3010 640 78 1500 VRB/03 RMK AO2 T02110172
13873KAHN AHN20160527024011805/27/16 02:40:31  5-MIN KAHN 270740Z AUTO 18004KT 10SM FEW055 OVC075 22/17 A3010 650 75 1600 180/04 RMK AO2 T02170172
13873KAHN AHN20160527024512505/27/16 02:45:31  5-MIN KAHN 270745Z AUTO VRB03KT 10SM FEW050 OVC075 21/17 A3010 650 75 1500 VRB/03 RMK AO2 SLP184 T02110167
13873KAHN AHN20160527025011805/27/16 02:50:31  5-MIN KAHN 270750Z AUTO VRB03KT 10SM OVC080 22/17 A3010 640 73 1600 VRB/03 RMK AO2 SLP185 T02170167
13873KAHN AHN20160527025511105/27/16 02:55:31  5-MIN KAHN 270755Z AUTO VRB03KT 10SM OVC080 22/17 A3010 640 73 1600 VRB/03 RMK AO2 T02170167
13873KAHN AHN20160527030011805/27/16 03:00:31  5-MIN KAHN 270800Z AUTO 00000KT 10SM BKN075 OVC090 22/17 A3011 640 73 1600 000/00 RMK AO2 T02170167
13873KAHN AHN20160527030511105/27/16 03:05:31  5-MIN KAHN 270805Z AUTO 00000KT 10SM OVC080 21/17 A3011 640 75 1500 000/00 RMK AO2 T02110167
13873KAHN AHN20160527031011105/27/16 03:10:31  5-MIN KAHN 270810Z AUTO 00000KT 10SM OVC080 22/17 A3011 640 73 1600 000/00 RMK AO2 T02170167
13873KAHN AHN20160527031511105/27/16 03:15:31  5-MIN KAHN 270815Z AUTO 00000KT 10SM OVC080 22/17 A3010 640 73 1600 000/00 RMK AO2 T02170167
13873KAHN AHN20160527032011805/27/16 03:20:31  5-MIN KAHN 270820Z AUTO 00000KT 10SM SCT065 OVC080 21/17 A3010 640 75 1500 000/00 RMK AO2 T02110167
13873KAHN AHN20160527032511805/27/16 03:25:31  5-MIN KAHN 270825Z AUTO 00000KT 10SM BKN065 OVC080 21/17 A3010 640 75 1500 000/00 RMK AO2 T02110167
13873KAHN AHN20160527033011805/27/16 03:30:31  5-MIN KAHN 270830Z AUTO 16003KT 10SM BKN065 OVC080 21/17 A3010 650 75 1500 170/03 RMK AO2 T02110167
13873KAHN AHN20160527033511105/27/16 03:35:31  5-MIN KAHN 270835Z AUTO 18003KT 10SM OVC070 21/16 A3010 650 73 1600 180/03 RMK AO2 T02110161
13873KAHN AHN20160527034012505/27/16 03:40:31  5-MIN KAHN 270840Z AUTO 19005KT 10SM BKN065 BKN075 OVC110 21/16 A3009 650 73 1600 190/05 RMK AO2 T02110161
13873KAHN AHN20160527034514405/27/16 03:45:31  5-MIN KAHN 270845Z AUTO VRB03KT 10SM SCT065 BKN075 OVC110 21/16 A3009 650 73 1600 VRB/03 RMK AO2 SLP182 60000 T02110161 50002
13873KAHN AHN20160527035014405/27/16 03:50:31  5-MIN KAHN 270850Z AUTO 19003KT 10SM FEW060 SCT075 OVC110 21/16 A3009 650 73 1600 200/03 RMK AO2 SLP183 60000 T02110161 50002
13873KAHN AHN20160527035512505/27/16 03:55:31  5-MIN KAHN 270855Z AUTO VRB03KT 10SM FEW060 SCT075 OVC110 21/16 A3009 650 73 1600 VRB/03 RMK AO2 T02110161
13873KAHN AHN20160527040012505/27/16 04:00:31  5-MIN KAHN 270900Z AUTO VRB03KT 10SM FEW060 FEW080 OVC110 21/16 A3010 650 73 1600 VRB/03 RMK AO2 T02110161
13873KAHN AHN20160527040511105/27/16 04:05:31  5-MIN KAHN 270905Z AUTO VRB03KT 10SM OVC110 21/16 A3010 650 73 1500 VRB/03 RMK AO2 T02110161
13873KAHN AHN20160527041011105/27/16 04:10:31  5-MIN KAHN 270910Z AUTO 00000KT 10SM OVC110 21/16 A3010 640 75 1500 000/00 RMK AO2 T02060161
13873KAHN AHN20160527041511805/27/16 04:15:31  5-MIN KAHN 270915Z AUTO VRB03KT 10SM FEW070 OVC110 21/16 A3010 640 73 1500 VRB/03 RMK AO2 T02110161
13873KAHN AHN20160527042011805/27/16 04:20:31  5-MIN KAHN 270920Z AUTO 00000KT 10SM SCT070 OVC110 21/16 A3010 640 75 1500 000/00 RMK AO2 T02060161
13873KAHN AHN20160527042511805/27/16 04:25:31  5-MIN KAHN 270925Z AUTO 00000KT 10SM BKN070 OVC110 21/16 A3011 640 75 1500 000/00 RMK AO2 T02060161
13873KAHN AHN20160527043011805/27/16 04:30:31  5-MIN KAHN 270930Z AUTO 00000KT 10SM BKN065 OVC110 21/16 A3011 640 73 1500 000/00 RMK AO2 T02110161
13873KAHN AHN20160527043511805/27/16 04:35:31  5-MIN KAHN 270935Z AUTO 00000KT 10SM BKN065 OVC110 21/16 A3011 640 75 1500 000/00 RMK AO2 T02060161
13873KAHN AHN20160527044011105/27/16 04:40:31  5-MIN KAHN 270940Z AUTO VRB03KT 10SM OVC065 21/16 A3011 640 75 1500 VRB/03 RMK AO2 T02060161
13873KAHN AHN20160527044511805/27/16 04:45:31  5-MIN KAHN 270945Z AUTO VRB03KT 10SM OVC070 21/16 A3011 640 75 1500 VRB/03 RMK AO2 SLP187 T02060161
13873KAHN AHN20160527045012505/27/16 04:50:31  5-MIN KAHN 270950Z AUTO 00000KT 10SM BKN070 OVC120 21/16 A3011 640 75 1500 000/00 RMK AO2 SLP188 T02060161
13873KAHN AHN20160527045511805/27/16 04:55:31  5-MIN KAHN 270955Z AUTO 00000KT 10SM BKN065 OVC120 21/16 A3011 630 75 1500 000/00 RMK AO2 T02060161
13873KAHN AHN20160527050011805/27/16 05:00:31  5-MIN KAHN 271000Z AUTO 00000KT 10SM BKN065 OVC120 21/16 A3012 630 75 1500 000/00 RMK AO2 T02060161
13873KAHN AHN20160527050511805/27/16 05:05:31  5-MIN KAHN 271005Z AUTO 10003KT 10SM BKN060 OVC120 21/16 A3012 630 75 1500 100/03 RMK AO2 T02060161
13873KAHN AHN20160527051011805/27/16 05:10:31  5-MIN KAHN 271010Z AUTO 09003KT 10SM BKN060 OVC120 21/16 A3012 630 75 1500 100/03 RMK AO2 T02060161
13873KAHN AHN20160527051512505/27/16 05:15:31  5-MIN KAHN 271015Z AUTO 00000KT 10SM BKN060 BKN075 OVC120 20/17 A3012 630 81 1400 000/00 RMK AO2 T02000167
13873KAHN AHN20160527052011805/27/16 05:20:31  5-MIN KAHN 271020Z AUTO 00000KT 10SM BKN060 OVC075 20/17 A3012 630 84 1400 000/00 RMK AO2 T02000172
13873KAHN AHN20160527052511805/27/16 05:25:31  5-MIN KAHN 271025Z AUTO 00000KT 10SM BKN060 OVC075 20/17 A3012 620 81 1400 000/00 RMK AO2 T02000167
13873KAHN AHN20160527053011105/27/16 05:30:31  5-MIN KAHN 271030Z AUTO 00000KT 10SM OVC060 20/17 A3012 620 84 1400 000/00 RMK AO2 T02000172
13873KAHN AHN20160527053511105/27/16 05:35:31  5-MIN KAHN 271035Z AUTO 00000KT 10SM OVC060 20/17 A3012 620 84 1400 000/00 RMK AO2 T02000172
13873KAHN AHN20160527054011105/27/16 05:40:31  5-MIN KAHN 271040Z AUTO 00000KT 10SM OVC060 20/17 A3013 620 84 1400 000/00 RMK AO2 T02000172
13873KAHN AHN20160527054511805/27/16 05:45:31  5-MIN KAHN 271045Z AUTO 00000KT 10SM OVC060 20/17 A3013 620 84 1400 000/00 RMK AO2 SLP195 T02000172
13873KAHN AHN20160527055011805/27/16 05:50:31  5-MIN KAHN 271050Z AUTO 00000KT 10SM OVC060 20/18 A3013 620 87 1400 000/00 RMK AO2 SLP196 T02000178
13873KAHN AHN20160527055511105/27/16 05:55:31  5-MIN KAHN 271055Z AUTO 00000KT 10SM OVC060 20/18 A3014 610 87 1400 000/00 RMK AO2 T02000178
13873KAHN AHN20160527060011105/27/16 06:00:31  5-MIN KAHN 271100Z AUTO 00000KT 10SM OVC060 20/18 A3014 610 87 1400 000/00 RMK AO2 T02000178
13873KAHN AHN20160527060511805/27/16 06:05:31  5-MIN KAHN 271105Z AUTO 00000KT 10SM BKN060 OVC070 20/18 A3014 610 87 1400 000/00 RMK AO2 T02000178
13873KAHN AHN20160527061012505/27/16 06:10:31  5-MIN KAHN 271110Z AUTO 00000KT 10SM BKN060 BKN070 OVC085 20/18 A3014 610 87 1400 000/00 RMK AO2 T02000178
13873KAHN AHN20160527061511805/27/16 06:15:31  5-MIN KAHN 271115Z AUTO 00000KT 10SM BKN060 OVC090 20/18 A3014 610 87 1400 000/00 RMK AO2 T02000178
13873KAHN AHN20160527062011805/27/16 06:20:31  5-MIN KAHN 271120Z AUTO 00000KT 10SM BKN060 OVC085 20/18 A3014 600 87 1400 000/00 RMK AO2 T02000178
13873KAHN AHN20160527062512505/27/16 06:25:31  5-MIN KAHN 271125Z AUTO 08003KT 10SM BKN060 BKN090 OVC110 20/18 A3015 600 87 1400 090/03 RMK AO2 T02000178
13873KAHN AHN20160527063012505/27/16 06:30:31  5-MIN KAHN 271130Z AUTO 08004KT 10SM BKN055 BKN090 OVC110 20/18 A3015 600 87 1400 080/04 RMK AO2 T02000178
13873KAHN AHN20160527063511805/27/16 06:35:31  5-MIN KAHN 271135Z AUTO 07003KT 10SM BKN055 OVC085 21/18 A3015 600 84 1400 070/03 RMK AO2 T02060178
13873KAHN AHN20160527064011805/27/16 06:40:31  5-MIN KAHN 271140Z AUTO 08003KT 10SM BKN055 OVC090 21/18 A3015 600 84 1400 080/03 RMK AO2 T02060178
13873KAHN AHN20160527064514205/27/16 06:45:31  5-MIN KAHN 271145Z AUTO 00000KT 10SM OVC055 20/18 A3015 600 87 1400 000/00 RMK AO2 SLP202 60000 T02000178 10217 20200 58003
13873KAHN AHN20160527065014205/27/16 06:50:31  5-MIN KAHN 271150Z AUTO 00000KT 10SM OVC055 20/18 A3015 600 87 1400 000/00 RMK AO2 SLP202 60000 T02000178 10217 20200 58003
13873KAHN AHN20160527065511105/27/16 06:55:31  5-MIN KAHN 271155Z AUTO 00000KT 10SM OVC055 21/18 A3015 600 84 1400 000/00 RMK AO2 T02060178
13873KAHN AHN20160527070011105/27/16 07:00:31  5-MIN KAHN 271200Z AUTO 00000KT 10SM OVC055 21/18 A3015 600 84 1400 000/00 RMK AO2 T02060178
13873KAHN AHN20160527070511805/27/16 07:05:31  5-MIN KAHN 271205Z AUTO 00000KT 10SM BKN055 OVC090 21/18 A3015 600 84 1400 000/00 RMK AO2 T02060178
13873KAHN AHN20160527071011305/27/16 07:10:31  5-MIN KAHN 271210Z 00000KT 10SM BKN055 OVC090 21/17 A3015 600 81 1400 000/00 RMK AO2 T02060172
13873KAHN AHN20160527071511305/27/16 07:15:31  5-MIN KAHN 271215Z 00000KT 10SM BKN055 OVC090 21/17 A3015 600 81 1400 000/00 RMK AO2 T02060172
13873KAHN AHN20160527072011305/27/16 07:20:31  5-MIN KAHN 271220Z 00000KT 10SM BKN055 OVC090 21/17 A3015 600 81 1400 000/00 RMK AO2 T02060172
13873KAHN AHN20160527072511305/27/16 07:25:31  5-MIN KAHN 271225Z 00000KT 10SM BKN050 OVC090 21/16 A3015 590 73 1500 000/00 RMK AO2 T02110161
13873KAHN AHN20160527073011305/27/16 07:30:31  5-MIN KAHN 271230Z 00000KT 10SM BKN050 OVC090 21/16 A3016 590 73 1500 000/00 RMK AO2 T02110161
13873KAHN AHN20160527073511305/27/16 07:35:31  5-MIN KAHN 271235Z 00000KT 10SM BKN050 OVC095 21/16 A3016 590 73 1500 000/00 RMK AO2 T02110161
13873KAHN AHN20160527074011305/27/16 07:40:31  5-MIN KAHN 271240Z 00000KT 10SM BKN050 OVC095 21/17 A3016 590 75 1500 000/00 RMK AO2 T02110167
13873KAHN AHN20160527074511305/27/16 07:45:31  5-MIN KAHN 271245Z 00000KT 10SM OVC050 21/16 A3016 590 73 1500 000/00 RMK AO2 SLP208 T02110161
13873KAHN AHN20160527075011305/27/16 07:50:31  5-MIN KAHN 271250Z 00000KT 10SM OVC050 21/16 A3016 590 73 1500 000/00 RMK AO2 SLP207 T02110161
13873KAHN AHN20160527075510605/27/16 07:55:31  5-MIN KAHN 271255Z 00000KT 10SM BKN050 22/16 A3016 590 70 1500 000/00 RMK AO2 T02170161
13873KAHN AHN20160527080011305/27/16 08:00:31  5-MIN KAHN 271300Z 00000KT 10SM BKN055 BKN095 22/16 A3016 590 70 1500 000/00 RMK AO2 T02170161
13873KAHN AHN20160527080511305/27/16 08:05:31  5-MIN KAHN 271305Z 00000KT 10SM BKN055 OVC090 22/16 A3016 590 68 1600 000/00 RMK AO2 T02220161
13873KAHN AHN20160527081011305/27/16 08:10:31  5-MIN KAHN 271310Z 00000KT 10SM SCT055 BKN090 22/17 A3016 590 73 1500 000/00 RMK AO2 T02170167
13873KAHN AHN20160527081511305/27/16 08:15:31  5-MIN KAHN 271315Z 00000KT 10SM FEW055 BKN090 22/16 A3016 590 68 1600 000/00 RMK AO2 T02220161
13873KAHN AHN20160527082011305/27/16 08:20:31  5-MIN KAHN 271320Z 00000KT 10SM FEW055 BKN095 22/16 A3016 590 68 1600 000/00 RMK AO2 T02220161
13873KAHN AHN20160527082511305/27/16 08:25:31  5-MIN KAHN 271325Z VRB03KT 10SM FEW055 BKN095 23/17 A3017 580 68 1700 VRB/03 RMK AO2 T02280167
13873KAHN AHN20160527083010605/27/16 08:30:31  5-MIN KAHN 271330Z 00000KT 10SM BKN090 23/17 A3017 580 68 1700 000/00 RMK AO2 T02280167
13873KAHN AHN20160527083511305/27/16 08:35:31  5-MIN KAHN 271335Z 00000KT 10SM FEW055 BKN090 22/16 A3017 580 68 1600 000/00 RMK AO2 T02220161
13873KAHN AHN20160527084011305/27/16 08:40:31  5-MIN KAHN 271340Z 00000KT 10SM SCT055 BKN095 22/16 A3017 580 68 1600 000/00 RMK AO2 T02220161
13873KAHN AHN20160527084512005/27/16 08:45:31  5-MIN KAHN 271345Z 00000KT 10SM BKN055 BKN095 22/16 A3017 580 68 1600 000/00 RMK AO2 SLP209 T02220161
13873KAHN AHN20160527085012005/27/16 08:50:31  5-MIN KAHN 271350Z 00000KT 10SM BKN055 BKN090 23/16 A3017 580 65 1700 000/00 RMK AO2 SLP209 T02280161
13873KAHN AHN20160527085511305/27/16 08:55:31  5-MIN KAHN 271355Z 00000KT 10SM BKN055 BKN090 23/16 A3017 580 65 1700 000/00 RMK AO2 T02280161
13873KAHN AHN20160527090010605/27/16 09:00:31  5-MIN KAHN 271400Z 00000KT 10SM BKN055 23/16 A3017 580 65 1700 000/00 RMK AO2 T02280161
13873KAHN AHN20160527090510605/27/16 09:05:31  5-MIN KAHN 271405Z 00000KT 10SM BKN055 23/17 A3017 580 66 1700 000/00 RMK AO2 T02330167
13873KAHN AHN20160527091010605/27/16 09:10:31  5-MIN KAHN 271410Z 00000KT 10SM SCT060 23/16 A3017 580 63 1700 000/00 RMK AO2 T02330161
13873KAHN AHN20160527091510605/27/16 09:15:31  5-MIN KAHN 271415Z 00000KT 10SM SCT060 24/17 A3016 590 63 1800 000/00 RMK AO2 T02390167
13873KAHN AHN20160527092011305/27/16 09:20:31  5-MIN KAHN 271420Z 20003KT 10SM SCT060 BKN110 23/16 A3016 590 63 1700 200/03 RMK AO2 T02330161
13873KAHN AHN20160527092511305/27/16 09:25:31  5-MIN KAHN 271425Z 00000KT 10SM SCT060 BKN110 24/16 A3016 590 61 1800 000/00 RMK AO2 T02390161
13873KAHN AHN20160527093011305/27/16 09:30:31  5-MIN KAHN 271430Z VRB03KT 10SM FEW060 SCT110 24/17 A3016 590 63 1800 VRB/03 RMK AO2 T02390167
13873KAHN AHN20160527093511305/27/16 09:35:31  5-MIN KAHN 271435Z 00000KT 10SM FEW060 SCT110 24/16 A3016 590 59 1900 000/00 RMK AO2 T02440161
13873KAHN AHN20160527094011305/27/16 09:40:31  5-MIN KAHN 271440Z 00000KT 10SM FEW055 FEW110 24/16 A3016 590 59 1900 000/00 RMK AO2 T02440161
13873KAHN AHN20160527094512605/27/16 09:45:31  5-MIN KAHN 271445Z 00000KT 10SM FEW075 SCT110 24/15 A3016 590 55 1900 000/00 RMK AO2 SLP206 T02440150 51018
13873KAHN AHN20160527105011305/27/16 10:50:31  5-MIN KAHN 271550Z VRB03KT 10SM SCT055 26/16 A3016 590 53 2000 VRB/03 RMK AO2 SLP205 T02560156
13873KAHN AHN20160527105510605/27/16 10:55:31  5-MIN KAHN 271555Z 00000KT 10SM SCT055 27/16 A3016 590 52 2100 000/00 RMK AO2 T02670161
13873KAHN AHN20160527110010605/27/16 11:00:31  5-MIN KAHN 271600Z VRB04KT 10SM SCT050 26/15 A3016 590 50 2000 VRB/04 RMK AO2 T02610150
13873KAHN AHN20160527110510605/27/16 11:05:31  5-MIN KAHN 271605Z 13004KT 10SM BKN050 27/16 A3016 590 50 2100 140/04 RMK AO2 T02670156
13873KAHN AHN20160527111010605/27/16 11:10:31  5-MIN KAHN 271610Z 00000KT 10SM BKN050 26/14 A3015 590 48 2100 000/00 RMK AO2 T02610144
13873KAHN AHN20160527111510605/27/16 11:15:31  5-MIN KAHN 271615Z 00000KT 10SM BKN050 27/15 A3016 590 48 2100 000/00 RMK AO2 T02670150
13873KAHN AHN20160527112010605/27/16 11:20:31  5-MIN KAHN 271620Z 14004KT 10SM BKN050 27/14 A3015 600 46 2100 150/04 RMK AO2 T02670144
13873KAHN AHN20160527112510605/27/16 11:25:31  5-MIN KAHN 271625Z VRB05KT 10SM BKN050 27/16 A3015 590 48 2200 VRB/05 RMK AO2 T02720156
13873KAHN AHN20160527113010605/27/16 11:30:31  5-MIN KAHN 271630Z 00000KT 10SM BKN055 26/14 A3015 590 49 2000 000/00 RMK AO2 T02560144
13873KAHN AHN20160527113510605/27/16 11:35:31  5-MIN KAHN 271635Z 00000KT 10SM BKN055 26/14 A3015 590 46 2100 000/00 RMK AO2 T02610139
13873KAHN AHN20160527114010605/27/16 11:40:31  5-MIN KAHN 271640Z VRB04KT 10SM BKN055 27/14 A3015 600 45 2100 VRB/04 RMK AO2 T02670139
13873KAHN AHN20160527114511305/27/16 11:45:31  5-MIN KAHN 271645Z VRB04KT 10SM BKN055 26/13 A3015 600 44 2100 VRB/04 RMK AO2 SLP203 T02610133
13873KAHN AHN20160527115011305/27/16 11:50:31  5-MIN KAHN 271650Z VRB04KT 10SM BKN055 27/13 A3015 600 43 2100 VRB/04 RMK AO2 SLP202 T02670133
13873KAHN AHN20160527115510605/27/16 11:55:31  5-MIN KAHN 271655Z VRB05KT 10SM OVC055 27/13 A3014 600 43 2100 VRB/05 RMK AO2 T02670133
13873KAHN AHN20160527120010605/27/16 12:00:31  5-MIN KAHN 271700Z 00000KT 10SM OVC055 27/14 A3014 600 46 2100 000/00 RMK AO2 T02670144
13873KAHN AHN20160527120510605/27/16 12:05:31  5-MIN KAHN 271705Z VRB04KT 10SM OVC055 27/14 A3014 610 45 2100 VRB/04 RMK AO2 T02670139
13873KAHN AHN20160527121009605/27/16 12:10:31  5-MIN KAHN 271710Z 10SM OVC055 27/14 A3014 610 45 2100 M /M RMK AO2 T02670139
13873KAHN AHN20160527121510605/27/16 12:15:31  5-MIN KAHN 271715Z VRB03KT 10SM OVC055 27/15 A3014 610 48 2100 VRB/03 RMK AO2 T02670150
13873KAHN AHN20160527122010605/27/16 12:20:31  5-MIN KAHN 271720Z 00000KT 10SM OVC055 27/15 A3014 610 46 2200 000/00 RMK AO2 T02720150
13873KAHN AHN20160527122510605/27/16 12:25:31  5-MIN KAHN 271725Z VRB04KT 10SM OVC055 27/14 A3014 610 45 2200 VRB/04 RMK AO2 T02720144
13873KAHN AHN20160527123010605/27/16 12:30:31  5-MIN KAHN 271730Z VRB03KT 10SM OVC055 27/14 A3014 610 45 2200 VRB/03 RMK AO2 T02720144
13873KAHN AHN20160527123510605/27/16 12:35:31  5-MIN KAHN 271735Z VRB03KT 10SM OVC055 27/16 A3014 610 48 2200 VRB/03 RMK AO2 T02720156
13873KAHN AHN20160527124010605/27/16 12:40:31  5-MIN KAHN 271740Z 21004KT 10SM OVC055 28/16 A3014 610 46 2300 210/04 RMK AO2 T02780156
13873KAHN AHN20160527124513105/27/16 12:45:31  5-MIN KAHN 271745Z 17004KT 10SM OVC060 28/16 A3014 610 46 2300 180/04 RMK AO2 SLP198 T02780156 10278 20200 50004
13873KAHN AHN20160527125013105/27/16 12:50:31  5-MIN KAHN 271750Z VRB03KT 10SM OVC060 27/16 A3013 610 48 2200 VRB/03 RMK AO2 SLP197 T02720156 10278 20200 50004
13873KAHN AHN20160527125510605/27/16 12:55:31  5-MIN KAHN 271755Z 00000KT 10SM OVC060 27/14 A3013 610 45 2200 000/00 RMK AO2 T02720144
13873KAHN AHN20160527130010605/27/16 13:00:31  5-MIN KAHN 271800Z 00000KT 10SM OVC060 28/16 A3013 620 46 2300 000/00 RMK AO2 T02780156
13873KAHN AHN20160527130510605/27/16 13:05:31  5-MIN KAHN 271805Z 00000KT 10SM OVC060 28/16 A3013 620 47 2300 000/00 RMK AO2 T02830161
13873KAHN AHN20160527131010605/27/16 13:10:31  5-MIN KAHN 271810Z 00000KT 10SM OVC060 28/16 A3013 620 45 2300 000/00 RMK AO2 T02830156
13873KAHN AHN20160527131510605/27/16 13:15:31  5-MIN KAHN 271815Z VRB03KT 10SM OVC060 28/16 A3012 620 48 2300 VRB/03 RMK AO2 T02780161
13873KAHN AHN20160527132010605/27/16 13:20:31  5-MIN KAHN 271820Z 00000KT 10SM OVC060 28/16 A3012 630 46 2300 000/00 RMK AO2 T02780156
13873KAHN AHN20160527132510605/27/16 13:25:31  5-MIN KAHN 271825Z VRB03KT 10SM BKN065 29/16 A3012 630 45 2400 VRB/03 RMK AO2 T02890161
13873KAHN AHN20160527133010605/27/16 13:30:31  5-MIN KAHN 271830Z VRB04KT 10SM BKN065 29/16 A3012 630 45 2400 VRB/04 RMK AO2 T02890161
13873KAHN AHN20160527133510605/27/16 13:35:31  5-MIN KAHN 271835Z VRB03KT 10SM BKN070 28/16 A3012 630 45 2300 VRB/03 RMK AO2 T02830156
13873KAHN AHN20160527134010605/27/16 13:40:31  5-MIN KAHN 271840Z 07004KT 10SM BKN070 29/16 A3012 630 44 2400 080/04 RMK AO2 T02890156
13873KAHN AHN20160527134511305/27/16 13:45:31  5-MIN KAHN 271845Z 08005KT 10SM SCT070 29/16 A3011 630 44 2400 080/05 RMK AO2 SLP191 T02890156
13873KAHN AHN20160527135011305/27/16 13:50:31  5-MIN KAHN 271850Z VRB03KT 10SM SCT070 29/16 A3011 630 44 2500 VRB/03 RMK AO2 SLP189 T02940161
13873KAHN AHN20160527135510605/27/16 13:55:31  5-MIN KAHN 271855Z 12005KT 10SM FEW070 29/16 A3011 640 44 2500 120/05 RMK AO2 T02940161
13873KAHN AHN20160527140010605/27/16 14:00:31  5-MIN KAHN 271900Z VRB04KT 10SM FEW070 29/16 A3011 640 44 2500 VRB/04 RMK AO2 T02940161
13873KAHN AHN20160527140510305/27/16 14:05:31  5-MIN KAHN 271905Z VRB03KT 10SM CLR 29/16 A3010 640 44 2500 VRB/03 RMK AO2 T02940161
13873KAHN AHN20160527141010305/27/16 14:10:31  5-MIN KAHN 271910Z 00000KT 10SM CLR 29/15 A3010 640 42 2400 000/00 RMK AO2 T02890150
13873KAHN AHN20160527141510605/27/16 14:15:31  5-MIN KAHN 271915Z VRB03KT 10SM FEW055 29/16 A3010 640 44 2400 VRB/03 RMK AO2 T02890156
13873KAHN AHN20160527142010605/27/16 14:20:31  5-MIN KAHN 271920Z 17003KT 10SM FEW055 29/17 A3010 640 47 2400 180/03 RMK AO2 T02890167
13873KAHN AHN20160527142510605/27/16 14:25:31  5-MIN KAHN 271925Z 18006KT 10SM SCT050 28/16 A3010 650 47 2400 190/06 RMK AO2 T02830161
13873KAHN AHN20160527143010605/27/16 14:30:31  5-MIN KAHN 271930Z 00000KT 10SM BKN055 29/16 A3010 650 44 2500 000/00 RMK AO2 T02940161
13873KAHN AHN20160527143510605/27/16 14:35:31  5-MIN KAHN 271935Z VRB04KT 10SM BKN050 29/16 A3009 650 44 2500 VRB/04 RMK AO2 T02940161
13873KAHN AHN20160527144010605/27/16 14:40:31  5-MIN KAHN 271940Z 11005KT 10SM BKN050 28/16 A3009 650 47 2400 120/05 RMK AO2 T02830161
13873KAHN AHN20160527144511305/27/16 14:45:31  5-MIN KAHN 271945Z VRB03KT 10SM BKN050 28/16 A3009 650 47 2400 VRB/03 RMK AO2 SLP182 T02830161
13873KAHN AHN20160527145011305/27/16 14:50:31  5-MIN KAHN 271950Z VRB03KT 10SM BKN050 28/16 A3009 660 47 2400 VRB/03 RMK AO2 SLP181 T02830161
13873KAHN AHN20160527145510605/27/16 14:55:31  5-MIN KAHN 271955Z 11004KT 10SM BKN050 28/17 A3008 660 48 2400 120/04 RMK AO2 T02830167
13873KAHN AHN20160527150010605/27/16 15:00:31  5-MIN KAHN 272000Z 10007KT 10SM BKN050 29/17 A3008 660 47 2400 100/07 RMK AO2 T02890167
13873KAHN AHN20160527150510605/27/16 15:05:31  5-MIN KAHN 272005Z 10005KT 10SM SCT050 28/17 A3008 660 48 2400 110/05 RMK AO2 T02830167
13873KAHN AHN20160527151010605/27/16 15:10:31  5-MIN KAHN 272010Z VRB05KT 10SM FEW050 29/17 A3008 660 45 2500 VRB/05 RMK AO2 T02940167
13873KAHN AHN20160527151510605/27/16 15:15:31  5-MIN KAHN 272015Z 09005KT 10SM FEW050 29/16 A3008 670 44 2400 090/05 RMK AO2 T02890156
13873KAHN AHN20160527152010605/27/16 15:20:31  5-MIN KAHN 272020Z 09005KT 10SM FEW055 28/16 A3008 670 47 2400 100/05 RMK AO2 T02830161
13873KAHN AHN20160527152510605/27/16 15:25:31  5-MIN KAHN 272025Z VRB03KT 10SM FEW050 29/16 A3007 670 45 2500 VRB/03 RMK AO2 T02890161
13873KAHN AHN20160527153010605/27/16 15:30:31  5-MIN KAHN 272030Z VRB06KT 10SM FEW050 29/17 A3007 670 47 2500 VRB/06 RMK AO2 T02890167
13873KAHN AHN20160527153510605/27/16 15:35:31  5-MIN KAHN 272035Z VRB05KT 10SM FEW050 28/16 A3007 670 47 2400 VRB/05 RMK AO2 T02830161
13873KAHN AHN20160527154010605/27/16 15:40:31  5-MIN KAHN 272040Z 18004KT 10SM FEW050 28/16 A3007 670 47 2400 180/04 RMK AO2 T02830161
13873KAHN AHN20160527154511905/27/16 15:45:31  5-MIN KAHN 272045Z VRB05KT 10SM FEW050 29/17 A3007 670 45 2500 VRB/05 RMK AO2 SLP175 T02940167 58009
13873KAHN AHN20160527155011905/27/16 15:50:31  5-MIN KAHN 272050Z 12007KT 10SM FEW050 30/17 A3007 670 45 2600 120/07 RMK AO2 SLP175 T03000172 58009
13873KAHN AHN20160527155510605/27/16 15:55:31  5-MIN KAHN 272055Z VRB05KT 10SM FEW050 30/17 A3007 670 45 2600 VRB/05 RMK AO2 T03000172
13873KAHN AHN20160527160010605/27/16 16:00:31  5-MIN KAHN 272100Z 11005KT 10SM FEW050 28/17 A3007 670 48 2400 120/05 RMK AO2 T02830167
13873KAHN AHN20160527160510605/27/16 16:05:31  5-MIN KAHN 272105Z 00000KT 10SM FEW050 28/17 A3007 670 52 2300 000/00 RMK AO2 T02780172
13873KAHN AHN20160527161009605/27/16 16:10:31  5-MIN KAHN 272110Z 10SM FEW050 28/17 A3007 680 50 2400 M /M RMK AO2 T02830172
13873KAHN AHN20160527161510605/27/16 16:15:31  5-MIN KAHN 272115Z 00000KT 10SM FEW055 29/17 A3007 680 47 2500 000/00 RMK AO2 T02940172
13873KAHN AHN20160527162009605/27/16 16:20:31  5-MIN KAHN 272120Z 10SM FEW055 30/17 A3007 670 45 2600 M /M RMK AO2 T03000172
13873KAHN AHN20160527162510605/27/16 16:25:31  5-MIN KAHN 272125Z VRB03KT 10SM FEW055 29/17 A3007 670 47 2500 VRB/03 RMK AO2 T02890167
13873KAHN AHN20160527163010605/27/16 16:30:31  5-MIN KAHN 272130Z VRB03KT 10SM FEW055 28/17 A3007 680 48 2400 VRB/03 RMK AO2 T02830167
13873KAHN AHN20160527163510605/27/16 16:35:31  5-MIN KAHN 272135Z VRB05KT 10SM FEW055 29/17 A3006 680 48 2500 VRB/05 RMK AO2 T02890172
13873KAHN AHN20160527164010605/27/16 16:40:31  5-MIN KAHN 272140Z 10006KT 10SM FEW055 29/17 A3006 680 48 2500 100/06 RMK AO2 T02890172
13873KAHN AHN20160527164511305/27/16 16:45:31  5-MIN KAHN 272145Z 08006KT 10SM FEW055 29/17 A3006 680 47 2500 090/06 RMK AO2 SLP173 T02890167
13873KAHN AHN20160527165011305/27/16 16:50:31  5-MIN KAHN 272150Z 10004KT 10SM FEW055 29/17 A3006 680 47 2500 100/04 RMK AO2 SLP172 T02940172
13873KAHN AHN20160527165510605/27/16 16:55:31  5-MIN KAHN 272155Z VRB03KT 10SM FEW055 29/17 A3006 680 48 2500 VRB/03 RMK AO2 T02890172
13873KAHN AHN20160527170010605/27/16 17:00:31  5-MIN KAHN 272200Z 12004KT 10SM FEW055 29/17 A3006 680 47 2500 130/04 RMK AO2 T02890167
13873KAHN AHN20160527170510305/27/16 17:05:31  5-MIN KAHN 272205Z VRB05KT 10SM CLR 29/17 A3005 690 48 2500 VRB/05 RMK AO2 T02890172
13873KAHN AHN20160527171010305/27/16 17:10:31  5-MIN KAHN 272210Z VRB03KT 10SM CLR 29/17 A3005 690 48 2500 VRB/03 RMK AO2 T02890172
13873KAHN AHN20160527171510305/27/16 17:15:31  5-MIN KAHN 272215Z 12005KT 10SM CLR 29/17 A3005 690 48 2500 120/05 RMK AO2 T02890172
13873KAHN AHN20160527172010305/27/16 17:20:31  5-MIN KAHN 272220Z 11005KT 10SM CLR 28/17 A3005 690 50 2400 110/05 RMK AO2 T02830172
13873KAHN AHN20160527172510605/27/16 17:25:31  5-MIN KAHN 272225Z VRB03KT 10SM FEW070 29/17 A3005 690 48 2500 VRB/03 RMK AO2 T02890172
13873KAHN AHN20160527173011305/27/16 17:30:31  5-MIN KAHN 272230Z VRB03KT 10SM FEW050 FEW070 29/17 A3005 690 48 2500 VRB/03 RMK AO2 T02890172
13873KAHN AHN20160527173510605/27/16 17:35:31  5-MIN KAHN 272235Z VRB03KT 10SM SCT050 29/17 A3005 690 48 2500 VRB/03 RMK AO2 T02890172
13873KAHN AHN20160527174010605/27/16 17:40:31  5-MIN KAHN 272240Z 00000KT 10SM BKN050 29/17 A3005 690 48 2500 000/00 RMK AO2 T02890172
13873KAHN AHN20160527174512005/27/16 17:45:31  5-MIN KAHN 272245Z 11004KT 10SM BKN050 BKN070 29/17 A3004 700 47 2500 120/04 RMK AO2 SLP167 T02890167
13873KAHN AHN20160527175012005/27/16 17:50:31  5-MIN KAHN 272250Z 10005KT 10SM SCT050 BKN070 28/18 A3004 700 52 2400 100/05 RMK AO2 SLP166 T02830178
13873KAHN AHN20160527175510605/27/16 17:55:31  5-MIN KAHN 272255Z 08006KT 10SM SCT050 28/17 A3004 700 50 2400 090/06 RMK AO2 T02830172
13873KAHN AHN20160527180010605/27/16 18:00:31  5-MIN KAHN 272300Z 08005KT 10SM SCT050 28/18 A3004 700 52 2400 090/05 RMK AO2 T02830178
13873KAHN AHN20160527180510605/27/16 18:05:31  5-MIN KAHN 272305Z 09004KT 10SM FEW050 28/17 A3005 690 50 2400 100/04 RMK AO2 T02830172
13873KAHN AHN20160527181010605/27/16 18:10:31  5-MIN KAHN 272310Z 11003KT 10SM FEW050 28/17 A3005 690 50 2400 120/03 RMK AO2 T02830172
13873KAHN AHN20160527181510305/27/16 18:15:31  5-MIN KAHN 272315Z 11003KT 10SM CLR 28/17 A3005 690 52 2400 110/03 RMK AO2 T02780172
13873KAHN AHN20160527182010305/27/16 18:20:31  5-MIN KAHN 272320Z VRB03KT 10SM CLR 28/17 A3005 690 52 2400 VRB/03 RMK AO2 T02780172
13873KAHN AHN20160527182510305/27/16 18:25:31  5-MIN KAHN 272325Z 11003KT 10SM CLR 27/17 A3005 690 54 2300 120/03 RMK AO2 T02720172
13873KAHN AHN20160527183010305/27/16 18:30:31  5-MIN KAHN 272330Z VRB03KT 10SM CLR 27/18 A3005 690 57 2200 VRB/03 RMK AO2 T02670178
13873KAHN AHN20160527183510305/27/16 18:35:31  5-MIN KAHN 272335Z 12004KT 10SM CLR 27/17 A3005 690 55 2200 120/04 RMK AO2 T02670172
13873KAHN AHN20160527184010305/27/16 18:40:31  5-MIN KAHN 272340Z 12003KT 10SM CLR 27/18 A3005 690 57 2200 120/03 RMK AO2 T02670178
13873KAHN AHN20160527184512805/27/16 18:45:31  5-MIN KAHN 272345Z 10003KT 10SM CLR 27/18 A3005 690 57 2200 110/03 RMK AO2 SLP170 T02670178 10300 20267 56021
13873KAHN AHN20160527185012805/27/16 18:50:31  5-MIN KAHN 272350Z 10003KT 10SM CLR 26/18 A3005 690 59 2200 100/03 RMK AO2 SLP169 T02610178 10300 20261 56021
13873KAHN AHN20160527185510305/27/16 18:55:31  5-MIN KAHN 272355Z 10003KT 10SM CLR 26/18 A3005 690 59 2200 110/03 RMK AO2 T02610178
13873KAHN AHN20160527190010305/27/16 19:00:31  5-MIN KAHN 280000Z 12003KT 10SM CLR 25/18 A3005 690 64 2000 130/03 RMK AO2 T02500178
13873KAHN AHN20160527190510805/27/16 19:05:31  5-MIN KAHN 280005Z AUTO 00000KT 10SM CLR 26/18 A3006 690 61 2100 000/00 RMK AO2 T02560178
13873KAHN AHN20160527191011105/27/16 19:10:31  5-MIN KAHN 280010Z AUTO 00000KT 10SM FEW050 26/18 A3006 690 61 2100 000/00 RMK AO2 T02560178
13873KAHN AHN20160527191511105/27/16 19:15:31  5-MIN KAHN 280015Z AUTO 12003KT 10SM SCT050 25/18 A3006 690 64 2000 130/03 RMK AO2 T02500178
13873KAHN AHN20160527192011105/27/16 19:20:31  5-MIN KAHN 280020Z AUTO 00000KT 10SM SCT050 25/18 A3006 680 64 2000 000/00 RMK AO2 T02500178
13873KAHN AHN20160527192511105/27/16 19:25:31  5-MIN KAHN 280025Z AUTO 00000KT 10SM FEW050 24/18 A3006 680 66 2000 000/00 RMK AO2 T02440178
13873KAHN AHN20160527193011105/27/16 19:30:31  5-MIN KAHN 280030Z AUTO 11004KT 10SM FEW050 24/18 A3006 680 66 2000 120/04 RMK AO2 T02440178
13873KAHN AHN20160527193511105/27/16 19:35:31  5-MIN KAHN 280035Z AUTO 11003KT 10SM FEW050 24/18 A3006 680 68 1900 120/03 RMK AO2 T02390178
13873KAHN AHN20160527194011105/27/16 19:40:31  5-MIN KAHN 280040Z AUTO 10003KT 10SM FEW050 24/18 A3006 680 68 1900 110/03 RMK AO2 T02390178
13873KAHN AHN20160527194511505/27/16 19:45:31  5-MIN KAHN 280045Z AUTO 10003KT 10SM CLR 23/18 A3006 680 70 1800 100/03 RMK AO2 SLP172 T02330178
13873KAHN AHN20160527195011505/27/16 19:50:31  5-MIN KAHN 280050Z AUTO 09003KT 10SM CLR 23/18 A3006 680 70 1800 090/03 RMK AO2 SLP172 T02330178
13873KAHN AHN20160527195510805/27/16 19:55:31  5-MIN KAHN 280055Z AUTO 09003KT 10SM CLR 23/18 A3006 680 70 1800 100/03 RMK AO2 T02330178
13873KAHN AHN20160527200010805/27/16 20:00:31  5-MIN KAHN 280100Z AUTO 09003KT 10SM CLR 23/18 A3006 680 76 1800 090/03 RMK AO2 T02280183
13873KAHN AHN20160527200510805/27/16 20:05:31  5-MIN KAHN 280105Z AUTO 09003KT 10SM CLR 23/18 A3006 680 76 1800 100/03 RMK AO2 T02280183
13873KAHN AHN20160527201010805/27/16 20:10:31  5-MIN KAHN 280110Z AUTO 10003KT 10SM CLR 23/18 A3006 680 76 1800 100/03 RMK AO2 T02280183
13873KAHN AHN20160527201510805/27/16 20:15:31  5-MIN KAHN 280115Z AUTO 10003KT 10SM CLR 23/18 A3006 680 76 1800 100/03 RMK AO2 T02280183
13873KAHN AHN20160527202010805/27/16 20:20:31  5-MIN KAHN 280120Z AUTO 09003KT 10SM CLR 22/18 A3006 680 78 1700 100/03 RMK AO2 T02220183
13873KAHN AHN20160527202510805/27/16 20:25:31  5-MIN KAHN 280125Z AUTO 09003KT 10SM CLR 22/18 A3006 690 78 1700 100/03 RMK AO2 T02220183
13873KAHN AHN20160527203010805/27/16 20:30:31  5-MIN KAHN 280130Z AUTO 09004KT 10SM CLR 22/18 A3006 680 78 1700 090/04 RMK AO2 T02220183
13873KAHN AHN20160527203510805/27/16 20:35:31  5-MIN KAHN 280135Z AUTO 08004KT 10SM CLR 22/18 A3006 680 78 1700 090/04 RMK AO2 T02220183
13873KAHN AHN20160527204010805/27/16 20:40:31  5-MIN KAHN 280140Z AUTO 09004KT 10SM CLR 22/18 A3006 680 81 1700 090/04 RMK AO2 T02170183
13873KAHN AHN20160527204511505/27/16 20:45:31  5-MIN KAHN 280145Z AUTO 09003KT 10SM CLR 22/18 A3006 680 81 1600 100/03 RMK AO2 SLP174 T02170183
13873KAHN AHN20160527205011505/27/16 20:50:31  5-MIN KAHN 280150Z AUTO 09003KT 10SM CLR 22/18 A3007 670 78 1600 090/03 RMK AO2 SLP175 T02170178
13873KAHN AHN20160527205510805/27/16 20:55:31  5-MIN KAHN 280155Z AUTO 00000KT 10SM CLR 22/18 A3007 670 78 1600 000/00 RMK AO2 T02170178
13873KAHN AHN20160527210011105/27/16 21:00:31  5-MIN KAHN 280200Z AUTO 10003KT 10SM SCT055 22/18 A3007 670 78 1600 100/03 RMK AO2 T02170178
13873KAHN AHN20160527210511105/27/16 21:05:31  5-MIN KAHN 280205Z AUTO 00000KT 10SM SCT055 22/18 A3007 670 75 1700 000/00 RMK AO2 T02220178
13873KAHN AHN20160527211011105/27/16 21:10:31  5-MIN KAHN 280210Z AUTO 00000KT 10SM BKN055 22/18 A3008 670 75 1700 000/00 RMK AO2 T02220178
13873KAHN AHN20160527211511105/27/16 21:15:31  5-MIN KAHN 280215Z AUTO 00000KT 10SM BKN060 22/18 A3008 670 81 1600 000/00 RMK AO2 T02170183
13873KAHN AHN20160527212011105/27/16 21:20:31  5-MIN KAHN 280220Z AUTO 08003KT 10SM BKN060 22/18 A3008 670 81 1600 080/03 RMK AO2 T02170183
13873KAHN AHN20160527212511105/27/16 21:25:31  5-MIN KAHN 280225Z AUTO 08003KT 10SM OVC060 22/18 A3008 660 78 1700 080/03 RMK AO2 T02220183
13873KAHN AHN20160527213011105/27/16 21:30:31  5-MIN KAHN 280230Z AUTO 08003KT 10SM OVC060 22/18 A3008 660 75 1700 090/03 RMK AO2 T02220178
13873KAHN AHN20160527213511105/27/16 21:35:31  5-MIN KAHN 280235Z AUTO 00000KT 10SM OVC060 22/18 A3008 660 75 1700 000/00 RMK AO2 T02220178
13873KAHN AHN20160527214011105/27/16 21:40:31  5-MIN KAHN 280240Z AUTO 10003KT 10SM OVC060 23/18 A3008 660 73 1800 100/03 RMK AO2 T02280178
13873KAHN AHN20160527214512405/27/16 21:45:31  5-MIN KAHN 280245Z AUTO 10003KT 10SM OVC060 22/18 A3008 660 78 1700 100/03 RMK AO2 SLP181 T02220183 55007
13873KAHN AHN20160527215012405/27/16 21:50:31  5-MIN KAHN 280250Z AUTO 10003KT 10SM OVC060 22/18 A3009 660 78 1700 100/03 RMK AO2 SLP182 T02220183 55007
13873KAHN AHN20160527215511105/27/16 21:55:31  5-MIN KAHN 280255Z AUTO 10003KT 10SM OVC060 22/18 A3009 650 78 1700 100/03 RMK AO2 T02220183
13873KAHN AHN20160527220011105/27/16 22:00:31  5-MIN KAHN 280300Z AUTO 00000KT 10SM BKN060 22/18 A3009 650 78 1700 000/00 RMK AO2 T02220183
13873KAHN AHN20160527220511105/27/16 22:05:31  5-MIN KAHN 280305Z AUTO 00000KT 10SM BKN060 22/18 A3010 650 81 1600 000/00 RMK AO2 T02170183
13873KAHN AHN20160527221011105/27/16 22:10:31  5-MIN KAHN 280310Z AUTO VRB04KT 10SM SCT060 22/18 A3010 650 78 1600 VRB/04 RMK AO2 T02170178
13873KAHN AHN20160527221511105/27/16 22:15:31  5-MIN KAHN 280315Z AUTO 13004KT 10SM SCT060 22/17 A3010 640 73 1700 140/04 RMK AO2 T02220172
13873KAHN AHN20160527222011105/27/16 22:20:31  5-MIN KAHN 280320Z AUTO 11003KT 10SM SCT060 22/17 A3010 640 73 1700 120/03 RMK AO2 T02220172
13873KAHN AHN20160527222511105/27/16 22:25:31  5-MIN KAHN 280325Z AUTO 00000KT 10SM SCT060 22/18 A3010 640 75 1700 000/00 RMK AO2 T02220178
13873KAHN AHN20160527223011105/27/16 22:30:31  5-MIN KAHN 280330Z AUTO 13003KT 10SM FEW060 22/18 A3010 640 78 1600 130/03 RMK AO2 T02170178
13873KAHN AHN20160527223511105/27/16 22:35:31  5-MIN KAHN 280335Z AUTO 00000KT 10SM FEW060 21/18 A3011 640 81 1500 000/00 RMK AO2 T02110178
13873KAHN AHN20160527224011105/27/16 22:40:31  5-MIN KAHN 280340Z AUTO 00000KT 10SM FEW060 21/17 A3011 640 78 1500 000/00 RMK AO2 T02110172
13873KAHN AHN20160527224511805/27/16 22:45:31  5-MIN KAHN 280345Z AUTO 00000KT 10SM FEW060 21/17 A3011 640 78 1500 000/00 RMK AO2 SLP188 T02110172
13873KAHN AHN20160527225011805/27/16 22:50:31  5-MIN KAHN 280350Z AUTO 16003KT 10SM FEW055 22/17 A3011 640 75 1600 170/03 RMK AO2 SLP189 T02170172
13873KAHN AHN20160527225511105/27/16 22:55:31  5-MIN KAHN 280355Z AUTO 00000KT 10SM SCT055 22/17 A3011 640 70 1700 000/00 RMK AO2 T02220167
13873KAHN AHN20160527230011105/27/16 23:00:31  5-MIN KAHN 280400Z AUTO 16003KT 10SM BKN055 22/17 A3011 640 70 1700 170/03 RMK AO2 T02220167
13873KAHN AHN20160527230511105/27/16 23:05:31  5-MIN KAHN 280405Z AUTO 00000KT 10SM BKN055 23/17 A3011 640 68 1700 000/00 RMK AO2 T02280167
13873KAHN AHN20160527231011105/27/16 23:10:31  5-MIN KAHN 280410Z AUTO VRB03KT 10SM BKN055 23/17 A3011 630 68 1700 VRB/03 RMK AO2 T02280167
13873KAHN AHN20160527231511805/27/16 23:15:31  5-MIN KAHN 280415Z AUTO 16003KT 10SM BKN055 BKN070 23/16 A3011 630 65 1700 170/03 RMK AO2 T02280161
13873KAHN AHN20160527232011805/27/16 23:20:31  5-MIN KAHN 280420Z AUTO VRB03KT 10SM BKN055 OVC070 23/16 A3011 630 65 1700 VRB/03 RMK AO2 T02280161
13873KAHN AHN20160527232511805/27/16 23:25:31  5-MIN KAHN 280425Z AUTO 00000KT 10SM BKN055 OVC070 23/16 A3011 630 65 1700 000/00 RMK AO2 T02280161
13873KAHN AHN20160527233011805/27/16 23:30:31  5-MIN KAHN 280430Z AUTO 16003KT 10SM SCT055 BKN070 22/16 A3011 640 68 1700 170/03 RMK AO2 T02220161
13873KAHN AHN20160527233511105/27/16 23:35:31  5-MIN KAHN 280435Z AUTO VRB03KT 10SM BKN065 22/16 A3011 630 68 1700 VRB/03 RMK AO2 T02220161
13873KAHN AHN20160527234011805/27/16 23:40:31  5-MIN KAHN 280440Z AUTO 16003KT 10SM FEW055 SCT070 22/16 A3011 630 68 1600 160/03 RMK AO2 T02170156
13873KAHN AHN20160527234513505/27/16 23:45:31  5-MIN KAHN 280445Z AUTO VRB03KT 10SM FEW055 SCT070 22/16 A3011 630 68 1600 VRB/03 RMK AO2 SLP189 T02170156 403000200
13873KAHN AHN20160527235012805/27/16 23:50:31  5-MIN KAHN 280450Z AUTO 16003KT 10SM FEW070 22/16 A3011 630 68 1600 170/03 RMK AO2 SLP189 T02170156 403000200
13873KAHN AHN20160527235511105/27/16 23:55:31  5-MIN KAHN 280455Z AUTO 16003KT 10SM FEW070 22/16 A3011 630 68 1600 170/03 RMK AO2 T02170156
13873KAHN AHN20160528000010805/28/16 00:00:31  5-MIN KAHN 280500Z AUTO 16003KT 10SM CLR 22/16 A3011 630 68 1600 160/03 RMK AO2 T02170156
13873KAHN AHN20160528000510805/28/16 00:05:31  5-MIN KAHN 280505Z AUTO VRB03KT 10SM CLR 21/16 A3011 640 70 1500 VRB/03 RMK AO2 T02110156
13873KAHN AHN20160528001010805/28/16 00:10:31  5-MIN KAHN 280510Z AUTO 16003KT 10SM CLR 21/16 A3011 640 70 1500 160/03 RMK AO2 T02110156
13873KAHN AHN20160528001510805/28/16 00:15:31  5-MIN KAHN 280515Z AUTO VRB03KT 10SM CLR 21/16 A3011 640 70 1500 VRB/03 RMK AO2 T02110156
13873KAHN AHN20160528002010805/28/16 00:20:31  5-MIN KAHN 280520Z AUTO 16003KT 10SM CLR 21/16 A3011 640 70 1500 160/03 RMK AO2 T02110156
13873KAHN AHN20160528002510805/28/16 00:25:31  5-MIN KAHN 280525Z AUTO VRB03KT 10SM CLR 21/16 A3011 640 73 1500 VRB/03 RMK AO2 T02060156
13873KAHN AHN20160528003010805/28/16 00:30:31  5-MIN KAHN 280530Z AUTO 16003KT 10SM CLR 21/16 A3011 640 73 1500 160/03 RMK AO2 T02060156
13873KAHN AHN20160528003510805/28/16 00:35:31  5-MIN KAHN 280535Z AUTO VRB03KT 10SM CLR 21/16 A3010 640 73 1500 VRB/03 RMK AO2 T02060156
13873KAHN AHN20160528004010805/28/16 00:40:31  5-MIN KAHN 280540Z AUTO VRB03KT 10SM CLR 21/16 A3010 640 73 1500 VRB/03 RMK AO2 T02060156
13873KAHN AHN20160528004513305/28/16 00:45:31  5-MIN KAHN 280545Z AUTO 00000KT 10SM CLR 20/16 A3010 640 75 1400 000/00 RMK AO2 SLP186 T02000156 10261 20200 53013
13873KAHN AHN20160528005013305/28/16 00:50:31  5-MIN KAHN 280550Z AUTO VRB03KT 10SM CLR 20/16 A3010 640 75 1400 VRB/03 RMK AO2 SLP186 T02000156 10261 20200 53013
13873KAHN AHN20160528005510805/28/16 00:55:31  5-MIN KAHN 280555Z AUTO VRB03KT 10SM CLR 20/16 A3010 650 75 1400 VRB/03 RMK AO2 T02000156
13873KAHN AHN20160528010010805/28/16 01:00:31  5-MIN KAHN 280600Z AUTO 16003KT 10SM CLR 20/16 A3010 640 75 1400 170/03 RMK AO2 T02000156
13873KAHN AHN20160528010510805/28/16 01:05:31  5-MIN KAHN 280605Z AUTO VRB03KT 10SM CLR 20/16 A3010 640 75 1400 VRB/03 RMK AO2 T02000156
13873KAHN AHN20160528011010805/28/16 01:10:31  5-MIN KAHN 280610Z AUTO VRB03KT 10SM CLR 20/16 A3010 640 75 1400 VRB/03 RMK AO2 T02000156
13873KAHN AHN20160528011510805/28/16 01:15:31  5-MIN KAHN 280615Z AUTO 00000KT 10SM CLR 19/15 A3010 640 75 1400 000/00 RMK AO2 T01940150
13873KAHN AHN20160528012010805/28/16 01:20:31  5-MIN KAHN 280620Z AUTO 16003KT 10SM CLR 19/15 A3010 650 75 1400 160/03 RMK AO2 T01940150
13873KAHN AHN20160528012510805/28/16 01:25:31  5-MIN KAHN 280625Z AUTO VRB03KT 10SM CLR 19/15 A3010 650 75 1400 VRB/03 RMK AO2 T01940150
13873KAHN AHN20160528013010805/28/16 01:30:31  5-MIN KAHN 280630Z AUTO 00000KT 10SM CLR 19/15 A3010 650 75 1400 000/00 RMK AO2 T01940150
13873KAHN AHN20160528013510805/28/16 01:35:31  5-MIN KAHN 280635Z AUTO 00000KT 10SM CLR 19/15 A3010 650 75 1400 000/00 RMK AO2 T01940150
13873KAHN AHN20160528014010805/28/16 01:40:31  5-MIN KAHN 280640Z AUTO 00000KT 10SM CLR 19/15 A3010 640 75 1400 000/00 RMK AO2 T01940150
13873KAHN AHN20160528014511505/28/16 01:45:31  5-MIN KAHN 280645Z AUTO 00000KT 10SM CLR 19/15 A3010 640 75 1400 000/00 RMK AO2 SLP186 T01940150
13873KAHN AHN20160528015011505/28/16 01:50:31  5-MIN KAHN 280650Z AUTO VRB03KT 10SM CLR 19/15 A3010 640 78 1300 VRB/03 RMK AO2 SLP186 T01890150
13873KAHN AHN20160528015510805/28/16 01:55:31  5-MIN KAHN 280655Z AUTO 00000KT 10SM CLR 18/15 A3010 640 81 1200 000/00 RMK AO2 T01830150
13873KAHN AHN20160528020010805/28/16 02:00:31  5-MIN KAHN 280700Z AUTO 00000KT 10SM CLR 19/15 A3010 640 78 1300 000/00 RMK AO2 T01890150
13873KAHN AHN20160528020510805/28/16 02:05:31  5-MIN KAHN 280705Z AUTO 00000KT 10SM CLR 18/15 A3010 640 81 1200 000/00 RMK AO2 T01830150
13873KAHN AHN20160528021011105/28/16 02:10:31  5-MIN KAHN 280710Z AUTO 00000KT 10SM FEW060 18/15 A3011 640 81 1200 000/00 RMK AO2 T01830150
13873KAHN AHN20160528021511105/28/16 02:15:31  5-MIN KAHN 280715Z AUTO 00000KT 10SM FEW060 19/15 A3010 640 78 1300 000/00 RMK AO2 T01890150
13873KAHN AHN20160528022011105/28/16 02:20:31  5-MIN KAHN 280720Z AUTO 00000KT 10SM FEW060 18/15 A3010 640 81 1200 000/00 RMK AO2 T01830150
13873KAHN AHN20160528022511105/28/16 02:25:31  5-MIN KAHN 280725Z AUTO 00000KT 10SM FEW060 18/15 A3010 640 81 1200 000/00 RMK AO2 T01830150
13873KAHN AHN20160528023011105/28/16 02:30:31  5-MIN KAHN 280730Z AUTO 00000KT 10SM FEW060 18/15 A3010 640 81 1200 000/00 RMK AO2 T01830150
13873KAHN AHN20160528023511105/28/16 02:35:31  5-MIN KAHN 280735Z AUTO 00000KT 10SM FEW060 18/15 A3011 640 81 1200 000/00 RMK AO2 T01830150
13873KAHN AHN20160528024010805/28/16 02:40:31  5-MIN KAHN 280740Z AUTO 00000KT 10SM CLR 18/15 A3011 640 81 1200 000/00 RMK AO2 T01830150
13873KAHN AHN20160528024511505/28/16 02:45:31  5-MIN KAHN 280745Z AUTO 00000KT 10SM CLR 18/15 A3011 640 83 1200 000/00 RMK AO2 SLP190 T01780150
13873KAHN AHN20160528025011505/28/16 02:50:31  5-MIN KAHN 280750Z AUTO 00000KT 10SM CLR 18/15 A3011 640 83 1100 000/00 RMK AO2 SLP190 T01780150
13873KAHN AHN20160528025510805/28/16 02:55:31  5-MIN KAHN 280755Z AUTO 00000KT 10SM CLR 18/15 A3011 640 83 1200 000/00 RMK AO2 T01780150
13873KAHN AHN20160528030010805/28/16 03:00:31  5-MIN KAHN 280800Z AUTO 00000KT 10SM CLR 18/15 A3011 640 83 1100 000/00 RMK AO2 T01780150
13873KAHN AHN20160528030510805/28/16 03:05:31  5-MIN KAHN 280805Z AUTO 00000KT 10SM CLR 17/15 A3011 630 87 1100 000/00 RMK AO2 T01720150
13873KAHN AHN20160528031010805/28/16 03:10:31  5-MIN KAHN 280810Z AUTO 00000KT 10SM CLR 17/15 A3011 630 87 1100 000/00 RMK AO2 T01720150
13873KAHN AHN20160528031510805/28/16 03:15:31  5-MIN KAHN 280815Z AUTO 00000KT 10SM CLR 17/16 A3011 630 90 1100 000/00 RMK AO2 T01720156
13873KAHN AHN20160528032010805/28/16 03:20:31  5-MIN KAHN 280820Z AUTO 00000KT 10SM CLR 17/16 A3011 630 90 1100 000/00 RMK AO2 T01720156
13873KAHN AHN20160528032510805/28/16 03:25:31  5-MIN KAHN 280825Z AUTO 00000KT 10SM CLR 17/16 A3011 630 90 1100 000/00 RMK AO2 T01720156
13873KAHN AHN20160528033010805/28/16 03:30:31  5-MIN KAHN 280830Z AUTO 00000KT 10SM CLR 17/15 A3011 630 87 1100 000/00 RMK AO2 T01720150
13873KAHN AHN20160528033510805/28/16 03:35:31  5-MIN KAHN 280835Z AUTO 00000KT 10SM CLR 17/16 A3011 630 90 1100 000/00 RMK AO2 T01720156
13873KAHN AHN20160528034010805/28/16 03:40:31  5-MIN KAHN 280840Z AUTO 00000KT 10SM CLR 17/16 A3011 630 93 1000 000/00 RMK AO2 T01670156
13873KAHN AHN20160528034512105/28/16 03:45:31  5-MIN KAHN 280845Z AUTO 00000KT 10SM CLR 17/16 A3011 630 90 1100 000/00 RMK AO2 SLP191 T01720156 50004
13873KAHN AHN20160528035012105/28/16 03:50:31  5-MIN KAHN 280850Z AUTO 00000KT 10SM CLR 17/15 A3011 630 90 1000 000/00 RMK AO2 SLP192 T01670150 50004
13873KAHN AHN20160528035510805/28/16 03:55:31  5-MIN KAHN 280855Z AUTO 00000KT 10SM CLR 17/15 A3012 630 90 1000 000/00 RMK AO2 T01670150
13873KAHN AHN20160528040010705/28/16 04:00:31  5-MIN KAHN 280900Z AUTO 00000KT 10SM CLR 16/15 A3012 630 93 900 000/00 RMK AO2 T01610150
13873KAHN AHN20160528040510705/28/16 04:05:31  5-MIN KAHN 280905Z AUTO 12003KT 10SM CLR 16/15 A3011 630 93 900 120/03 RMK AO2 T01610150
13873KAHN AHN20160528041010805/28/16 04:10:31  5-MIN KAHN 280910Z AUTO 10004KT 10SM CLR 16/15 A3011 630 93 1000 110/04 RMK AO2 T01610150
13873KAHN AHN20160528041510705/28/16 04:15:31  5-MIN KAHN 280915Z AUTO 10003KT 10SM CLR 16/15 A3011 630 93 900 110/03 RMK AO2 T01610150
13873KAHN AHN20160528042010705/28/16 04:20:31  5-MIN KAHN 280920Z AUTO 10003KT 10SM CLR 16/15 A3012 630 93 900 110/03 RMK AO2 T01610150
13873KAHN AHN20160528042510705/28/16 04:25:31  5-MIN KAHN 280925Z AUTO 10003KT 10SM CLR 16/15 A3012 630 93 900 100/03 RMK AO2 T01610150
13873KAHN AHN20160528043010705/28/16 04:30:31  5-MIN KAHN 280930Z AUTO 10003KT 10SM CLR 16/15 A3011 630 93 900 110/03 RMK AO2 T01610150
13873KAHN AHN20160528043510705/28/16 04:35:31  5-MIN KAHN 280935Z AUTO 00000KT 10SM CLR 16/15 A3012 630 93 900 000/00 RMK AO2 T01610150
13873KAHN AHN20160528044010705/28/16 04:40:31  5-MIN KAHN 280940Z AUTO 00000KT 10SM CLR 16/15 A3012 630 96 900 000/00 RMK AO2 T01560150
13873KAHN AHN20160528044511405/28/16 04:45:31  5-MIN KAHN 280945Z AUTO 00000KT 10SM CLR 16/14 A3012 630 93 900 000/00 RMK AO2 SLP193 T01560144
13873KAHN AHN20160528045011405/28/16 04:50:31  5-MIN KAHN 280950Z AUTO 00000KT 10SM CLR 16/15 A3012 630 96 900 000/00 RMK AO2 SLP193 T01560150
13873KAHN AHN20160528045510705/28/16 04:55:31  5-MIN KAHN 280955Z AUTO 00000KT 10SM CLR 16/14 A3012 630 90 900 000/00 RMK AO2 T01610144
13873KAHN AHN20160528050010705/28/16 05:00:31  5-MIN KAHN 281000Z AUTO 00000KT 10SM CLR 16/15 A3012 620 93 900 000/00 RMK AO2 T01610150
13873KAHN AHN20160528050510705/28/16 05:05:31  5-MIN KAHN 281005Z AUTO 00000KT 10SM CLR 16/15 A3012 620 96 900 000/00 RMK AO2 T01560150
13873KAHN AHN20160528051010705/28/16 05:10:31  5-MIN KAHN 281010Z AUTO 00000KT 10SM CLR 16/15 A3012 620 96 900 000/00 RMK AO2 T01560150
13873KAHN AHN20160528051510705/28/16 05:15:31  5-MIN KAHN 281015Z AUTO 00000KT 10SM CLR 16/15 A3013 620 93 900 000/00 RMK AO2 T01610150
13873KAHN AHN20160528052010705/28/16 05:20:31  5-MIN KAHN 281020Z AUTO 00000KT 10SM CLR 16/14 A3013 620 93 900 000/00 RMK AO2 T01560144
13873KAHN AHN20160528052510705/28/16 05:25:31  5-MIN KAHN 281025Z AUTO 00000KT 10SM CLR 16/15 A3013 620 96 900 000/00 RMK AO2 T01560150
13873KAHN AHN20160528053010705/28/16 05:30:31  5-MIN KAHN 281030Z AUTO 08003KT 10SM CLR 16/14 A3013 620 93 900 080/03 RMK AO2 T01560144
13873KAHN AHN20160528053510705/28/16 05:35:31  5-MIN KAHN 281035Z AUTO 00000KT 10SM CLR 16/14 A3013 620 93 900 000/00 RMK AO2 T01560144
13873KAHN AHN20160528054010705/28/16 05:40:31  5-MIN KAHN 281040Z AUTO 00000KT 10SM CLR 16/14 A3013 620 93 900 000/00 RMK AO2 T01560144
13873KAHN AHN20160528054511405/28/16 05:45:31  5-MIN KAHN 281045Z AUTO 00000KT 10SM CLR 16/14 A3013 610 93 900 000/00 RMK AO2 SLP198 T01560144
13873KAHN AHN20160528055011405/28/16 05:50:31  5-MIN KAHN 281050Z AUTO 07003KT 10SM CLR 16/15 A3013 610 96 900 080/03 RMK AO2 SLP198 T01560150
13873KAHN AHN20160528055510705/28/16 05:55:31  5-MIN KAHN 281055Z AUTO 07003KT 10SM CLR 16/15 A3014 610 93 900 070/03 RMK AO2 T01610150
13873KAHN AHN20160528060010705/28/16 06:00:31  5-MIN KAHN 281100Z AUTO 07003KT 10SM CLR 16/15 A3014 610 93 900 070/03 RMK AO2 T01610150
13873KAHN AHN20160528060510805/28/16 06:05:31  5-MIN KAHN 281105Z AUTO 07003KT 10SM CLR 17/16 A3014 610 93 1000 080/03 RMK AO2 T01670156
13873KAHN AHN20160528061010805/28/16 06:10:31  5-MIN KAHN 281110Z AUTO 09003KT 10SM CLR 17/16 A3014 610 93 1000 090/03 RMK AO2 T01670156
13873KAHN AHN20160528061510805/28/16 06:15:31  5-MIN KAHN 281115Z AUTO 08004KT 10SM CLR 17/16 A3014 610 90 1000 080/04 RMK AO2 T01720156
13873KAHN AHN20160528062010805/28/16 06:20:31  5-MIN KAHN 281120Z AUTO 07004KT 10SM CLR 17/16 A3014 610 93 1100 080/04 RMK AO2 T01720161
13873KAHN AHN20160528062510305/28/16 06:25:31  5-MIN KAHN 281125Z 07005KT 10SM CLR 17/16 A3014 610 93 1100 080/05 RMK AO2 T01720161
13873KAHN AHN20160528063010305/28/16 06:30:31  5-MIN KAHN 281130Z 07006KT 10SM CLR 18/16 A3014 610 90 1100 070/06 RMK AO2 T01780161
13873KAHN AHN20160528063510305/28/16 06:35:31  5-MIN KAHN 281135Z 06005KT 10SM CLR 18/16 A3014 610 90 1100 070/05 RMK AO2 T01780161
13873KAHN AHN20160528064010305/28/16 06:40:31  5-MIN KAHN 281140Z 05003KT 10SM CLR 18/16 A3014 610 90 1100 060/03 RMK AO2 T01780161
13873KAHN AHN20160528064512805/28/16 06:45:31  5-MIN KAHN 281145Z 06004KT 10SM CLR 18/16 A3014 600 87 1200 060/04 RMK AO2 SLP202 T01830161 10200 20156 53005
13873KAHN AHN20160528065012805/28/16 06:50:31  5-MIN KAHN 281150Z VRB03KT 10SM CLR 18/16 A3015 600 87 1200 VRB/03 RMK AO2 SLP202 T01830161 10200 20156 53005
13873KAHN AHN20160528065510305/28/16 06:55:31  5-MIN KAHN 281155Z 06004KT 10SM CLR 19/16 A3015 600 84 1200 060/04 RMK AO2 T01890161
13873KAHN AHN20160528070010305/28/16 07:00:31  5-MIN KAHN 281200Z 05004KT 10SM CLR 19/16 A3015 600 84 1200 050/04 RMK AO2 T01890161
13873KAHN AHN20160528070510305/28/16 07:05:31  5-MIN KAHN 281205Z 06004KT 10SM CLR 19/16 A3015 600 84 1200 060/04 RMK AO2 T01890161
13873KAHN AHN20160528071010305/28/16 07:10:31  5-MIN KAHN 281210Z 06004KT 10SM CLR 19/16 A3015 600 81 1300 070/04 RMK AO2 T01940161
13873KAHN AHN20160528071510305/28/16 07:15:31  5-MIN KAHN 281215Z 05004KT 10SM CLR 19/17 A3015 600 84 1300 060/04 RMK AO2 T01940167
13873KAHN AHN20160528072010305/28/16 07:20:31  5-MIN KAHN 281220Z VRB03KT 10SM CLR 20/17 A3015 600 81 1400 VRB/03 RMK AO2 T02000167
13873KAHN AHN20160528072510305/28/16 07:25:31  5-MIN KAHN 281225Z 05004KT 10SM CLR 20/17 A3015 600 81 1400 060/04 RMK AO2 T02000167
13873KAHN AHN20160528073010305/28/16 07:30:31  5-MIN KAHN 281230Z 05004KT 10SM CLR 21/17 A3015 600 78 1400 050/04 RMK AO2 T02060167
13873KAHN AHN20160528073510305/28/16 07:35:31  5-MIN KAHN 281235Z 05004KT 10SM CLR 21/17 A3016 590 78 1400 060/04 RMK AO2 T02060167
13873KAHN AHN20160528074010305/28/16 07:40:31  5-MIN KAHN 281240Z 06003KT 10SM CLR 21/17 A3016 590 78 1400 070/03 RMK AO2 T02060167
13873KAHN AHN20160528074511005/28/16 07:45:31  5-MIN KAHN 281245Z 05003KT 10SM CLR 21/17 A3016 590 78 1400 060/03 RMK AO2 SLP207 T02060167
13873KAHN AHN20160528075011005/28/16 07:50:31  5-MIN KAHN 281250Z VRB03KT 10SM CLR 21/17 A3016 590 75 1500 VRB/03 RMK AO2 SLP208 T02110167
13873KAHN AHN20160528075510305/28/16 07:55:31  5-MIN KAHN 281255Z VRB03KT 10SM CLR 21/17 A3017 580 75 1500 VRB/03 RMK AO2 T02110167
13873KAHN AHN20160528080010305/28/16 08:00:31  5-MIN KAHN 281300Z VRB03KT 10SM CLR 22/17 A3017 580 75 1500 VRB/03 RMK AO2 T02170172
13873KAHN AHN20160528080510305/28/16 08:05:31  5-MIN KAHN 281305Z VRB03KT 10SM CLR 22/17 A3017 580 75 1500 VRB/03 RMK AO2 T02170172
13873KAHN AHN20160528081010305/28/16 08:10:31  5-MIN KAHN 281310Z 12003KT 10SM CLR 22/17 A3018 570 75 1500 120/03 RMK AO2 T02170172
13873KAHN AHN20160528081510305/28/16 08:15:31  5-MIN KAHN 281315Z 00000KT 10SM CLR 22/17 A3018 570 75 1500 000/00 RMK AO2 T02170172
13873KAHN AHN20160528082010305/28/16 08:20:31  5-MIN KAHN 281320Z 00000KT 10SM CLR 22/17 A3018 570 75 1500 000/00 RMK AO2 T02170172
13873KAHN AHN20160528082510305/28/16 08:25:31  5-MIN KAHN 281325Z 00000KT 10SM CLR 22/17 A3018 570 73 1600 000/00 RMK AO2 T02220172
13873KAHN AHN20160528083010305/28/16 08:30:31  5-MIN KAHN 281330Z VRB03KT 10SM CLR 23/18 A3018 570 73 1600 VRB/03 RMK AO2 T02280178
13873KAHN AHN20160528083510305/28/16 08:35:31  5-MIN KAHN 281335Z 00000KT 10SM CLR 23/17 A3018 570 70 1600 000/00 RMK AO2 T02280172
13873KAHN AHN20160528084010305/28/16 08:40:31  5-MIN KAHN 281340Z 00000KT 10SM CLR 23/17 A3018 570 70 1600 000/00 RMK AO2 T02280172
13873KAHN AHN20160528084511005/28/16 08:45:31  5-MIN KAHN 281345Z 00000KT 10SM CLR 23/17 A3018 570 70 1600 000/00 RMK AO2 SLP214 T02280172
13873KAHN AHN20160528085011005/28/16 08:50:31  5-MIN KAHN 281350Z 07003KT 10SM CLR 23/18 A3018 570 70 1700 070/03 RMK AO2 SLP215 T02330178
13873KAHN AHN20160528085510305/28/16 08:55:31  5-MIN KAHN 281355Z 00000KT 10SM CLR 23/18 A3018 570 70 1700 000/00 RMK AO2 T02330178
13873KAHN AHN20160528090010305/28/16 09:00:31  5-MIN KAHN 281400Z 00000KT 10SM CLR 24/18 A3018 570 68 1800 000/00 RMK AO2 T02390178
13873KAHN AHN20160528090510305/28/16 09:05:31  5-MIN KAHN 281405Z VRB03KT 10SM CLR 23/17 A3018 570 68 1700 VRB/03 RMK AO2 T02330172
13873KAHN AHN20160528091010305/28/16 09:10:31  5-MIN KAHN 281410Z 00000KT 10SM CLR 23/18 A3018 570 70 1700 000/00 RMK AO2 T02330178
13873KAHN AHN20160528091510305/28/16 09:15:31  5-MIN KAHN 281415Z VRB05KT 10SM CLR 24/18 A3018 570 66 1800 VRB/05 RMK AO2 T02440178
13873KAHN AHN20160528092010305/28/16 09:20:31  5-MIN KAHN 281420Z 07004KT 10SM CLR 24/17 A3018 570 63 1800 080/04 RMK AO2 T02440172
13873KAHN AHN20160528092510305/28/16 09:25:31  5-MIN KAHN 281425Z 08005KT 10SM CLR 24/17 A3018 570 63 1800 080/05 RMK AO2 T02440172
13873KAHN AHN20160528093010305/28/16 09:30:31  5-MIN KAHN 281430Z 00000KT 10SM CLR 24/17 A3018 570 63 1800 000/00 RMK AO2 T02440172
13873KAHN AHN20160528093510305/28/16 09:35:31  5-MIN KAHN 281435Z VRB03KT 10SM CLR 24/17 A3018 570 63 1800 VRB/03 RMK AO2 T02440172
13873KAHN AHN20160528094010605/28/16 09:40:31  5-MIN KAHN 281440Z 07007KT 10SM FEW028 25/17 A3018 570 61 1900 070/07 RMK AO2 T02500172
13873KAHN AHN20160528094511905/28/16 09:45:31  5-MIN KAHN 281445Z 00000KT 10SM FEW028 25/17 A3018 570 61 1900 000/00 RMK AO2 SLP214 T02500172 53010
13873KAHN AHN20160528095012605/28/16 09:50:31  5-MIN KAHN 281450Z VRB05KT 10SM FEW026 FEW033 26/17 A3018 570 59 2000 VRB/05 RMK AO2 SLP214 T02560172 53010
13873KAHN AHN20160528095511305/28/16 09:55:31  5-MIN KAHN 281455Z 10005KT 10SM FEW026 FEW033 24/16 A3018 570 57 1800 110/05 RMK AO2 T02440156
13873KAHN AHN20160528100011305/28/16 10:00:31  5-MIN KAHN 281500Z 00000KT 10SM FEW031 FEW038 24/16 A3018 570 57 1800 000/00 RMK AO2 T02440156
13873KAHN AHN20160528100511305/28/16 10:05:31  5-MIN KAHN 281505Z VRB03KT 10SM SCT031 SCT038 25/17 A3018 570 59 1900 VRB/03 RMK AO2 T02500167
13873KAHN AHN20160528101010605/28/16 10:10:31  5-MIN KAHN 281510Z VRB04KT 10SM SCT034 26/16 A3018 570 53 2000 VRB/04 RMK AO2 T02610161
13873KAHN AHN20160528101510605/28/16 10:15:31  5-MIN KAHN 281515Z VRB04KT 10SM FEW034 26/16 A3018 570 51 2000 VRB/04 RMK AO2 T02610156
13873KAHN AHN20160528102010605/28/16 10:20:31  5-MIN KAHN 281520Z 11007KT 10SM FEW036 26/16 A3018 570 53 2000 110/07 RMK AO2 T02560156
13873KAHN AHN20160528102510605/28/16 10:25:31  5-MIN KAHN 281525Z VRB03KT 10SM SCT036 26/16 A3018 570 53 2000 VRB/03 RMK AO2 T02560156
13873KAHN AHN20160528103010605/28/16 10:30:31  5-MIN KAHN 281530Z VRB03KT 10SM SCT038 26/16 A3018 570 53 2000 VRB/03 RMK AO2 T02560156
13873KAHN AHN20160528103510605/28/16 10:35:31  5-MIN KAHN 281535Z 10005KT 10SM SCT040 26/16 A3018 570 53 2000 100/05 RMK AO2 T02560156
13873KAHN AHN20160528104010605/28/16 10:40:31  5-MIN KAHN 281540Z VRB03KT 10SM BKN040 25/16 A3018 570 55 1900 VRB/03 RMK AO2 T02500156
13873KAHN AHN20160528104511305/28/16 10:45:31  5-MIN KAHN 281545Z 08006KT 10SM BKN040 26/16 A3018 570 51 2000 090/06 RMK AO2 SLP213 T02610156
13873KAHN AHN20160528105011305/28/16 10:50:31  5-MIN KAHN 281550Z 06006KT 10SM SCT040 27/16 A3018 570 50 2100 070/06 RMK AO2 SLP214 T02670156
13873KAHN AHN20160528105510605/28/16 10:55:31  5-MIN KAHN 281555Z 07004KT 10SM SCT040 26/15 A3019 570 50 2000 070/04 RMK AO2 T02610150
13873KAHN AHN20160528110011305/28/16 11:00:31  5-MIN KAHN 281600Z 10006KT 10SM FEW040 SCT047 27/16 A3019 570 50 2100 100/06 RMK AO2 T02670156
13873KAHN AHN20160528110510605/28/16 11:05:31  5-MIN KAHN 281605Z VRB03KT 10SM SCT043 27/15 A3018 570 48 2100 VRB/03 RMK AO2 T02670150
13873KAHN AHN20160528111009605/28/16 11:10:31  5-MIN KAHN 281610Z 10SM FEW047 27/16 A3019 570 48 2100 M /M RMK AO2 T02720156
13873KAHN AHN20160528111510605/28/16 11:15:31  5-MIN KAHN 281615Z 09007KT 10SM FEW047 27/15 A3018 570 48 2100 090/07 RMK AO2 T02670150
13873KAHN AHN20160528112010605/28/16 11:20:31  5-MIN KAHN 281620Z 07008KT 10SM SCT047 27/16 A3018 570 50 2100 080/08 RMK AO2 T02670156
13873KAHN AHN20160528112510605/28/16 11:25:31  5-MIN KAHN 281625Z VRB05KT 10SM BKN047 26/15 A3018 570 50 2000 VRB/05 RMK AO2 T02610150
13873KAHN AHN20160528113010605/28/16 11:30:31  5-MIN KAHN 281630Z 11005KT 10SM SCT047 26/15 A3018 570 50 2000 120/05 RMK AO2 T02610150
13873KAHN AHN20160528113510605/28/16 11:35:31  5-MIN KAHN 281635Z VRB03KT 10SM SCT047 26/14 A3018 570 48 2000 VRB/03 RMK AO2 T02610144
13873KAHN AHN20160528114010605/28/16 11:40:31  5-MIN KAHN 281640Z 00000KT 10SM BKN047 26/14 A3017 580 48 2000 000/00 RMK AO2 T02610144
13873KAHN AHN20160528114511305/28/16 11:45:31  5-MIN KAHN 281645Z 10005KT 10SM BKN047 27/15 A3017 580 46 2200 100/05 RMK AO2 SLP210 T02720150
13873KAHN AHN20160528115011305/28/16 11:50:31  5-MIN KAHN 281650Z VRB06KT 10SM SCT047 28/16 A3017 580 46 2200 VRB/06 RMK AO2 SLP210 T02780156
13873KAHN AHN20160528115510605/28/16 11:55:31  5-MIN KAHN 281655Z 00000KT 10SM SCT047 26/14 A3017 580 48 2000 000/00 RMK AO2 T02610144
13873KAHN AHN20160528120010605/28/16 12:00:31  5-MIN KAHN 281700Z 10006KT 10SM SCT047 27/15 A3017 580 48 2100 100/06 RMK AO2 T02670150
13873KAHN AHN20160528120510605/28/16 12:05:31  5-MIN KAHN 281705Z VRB04KT 10SM SCT047 27/16 A3017 580 48 2200 VRB/04 RMK AO2 T02720156
13873KAHN AHN20160528121010605/28/16 12:10:31  5-MIN KAHN 281710Z 00000KT 10SM FEW048 27/16 A3016 590 48 2200 000/00 RMK AO2 T02720156
13873KAHN AHN20160528121510605/28/16 12:15:31  5-MIN KAHN 281715Z 08007KT 10SM FEW048 28/15 A3016 590 45 2200 080/07 RMK AO2 T02780150
13873KAHN AHN20160528122010605/28/16 12:20:31  5-MIN KAHN 281720Z VRB05KT 10SM FEW048 27/15 A3016 590 46 2200 VRB/05 RMK AO2 T02720150
13873KAHN AHN20160528122510605/28/16 12:25:31  5-MIN KAHN 281725Z 00000KT 10SM FEW048 28/14 A3016 590 43 2200 000/00 RMK AO2 T02780144
13873KAHN AHN20160528123010305/28/16 12:30:31  5-MIN KAHN 281730Z 00000KT 10SM CLR 27/14 A3016 590 43 2200 000/00 RMK AO2 T02720139
13873KAHN AHN20160528123510305/28/16 12:35:31  5-MIN KAHN 281735Z 15004KT 10SM CLR 28/14 A3016 590 42 2200 150/04 RMK AO2 T02780139
13873KAHN AHN20160528124010305/28/16 12:40:31  5-MIN KAHN 281740Z 12003KT 10SM CLR 28/14 A3016 590 42 2200 120/03 RMK AO2 T02780139
13873KAHN AHN20160528124512805/28/16 12:45:31  5-MIN KAHN 281745Z VRB04KT 10SM CLR 28/14 A3015 590 40 2300 VRB/04 RMK AO2 SLP204 T02830139 10283 20183 51012
13873KAHN AHN20160528125012805/28/16 12:50:31  5-MIN KAHN 281750Z VRB05KT 10SM CLR 28/13 A3015 600 39 2300 VRB/05 RMK AO2 SLP204 T02830133 10283 20183 51012
13873KAHN AHN20160528125510305/28/16 12:55:31  5-MIN KAHN 281755Z VRB06KT 10SM CLR 28/14 A3015 600 40 2300 VRB/06 RMK AO2 T02830139
13873KAHN AHN20160528130010305/28/16 13:00:31  5-MIN KAHN 281800Z 00000KT 10SM CLR 27/14 A3014 600 43 2200 000/00 RMK AO2 T02720139
13873KAHN AHN20160528130509305/28/16 13:05:31  5-MIN KAHN 281805Z 10SM CLR 28/14 A3014 610 40 2300 M /M RMK AO2 T02830139
13873KAHN AHN20160528131010305/28/16 13:10:31  5-MIN KAHN 281810Z VRB03KT 10SM CLR 29/15 A3014 610 42 2400 VRB/03 RMK AO2 T02890150
13873KAHN AHN20160528131509305/28/16 13:15:31  5-MIN KAHN 281815Z 10SM CLR 28/15 A3014 610 43 2300 M /M RMK AO2 T02830150
13873KAHN AHN20160528132010605/28/16 13:20:31  5-MIN KAHN 281820Z 10003KT 10SM FEW050 28/14 A3014 610 40 2300 110/03 RMK AO2 T02830139
13873KAHN AHN20160528132510605/28/16 13:25:31  5-MIN KAHN 281825Z 07004KT 10SM FEW050 29/14 A3013 610 39 2400 080/04 RMK AO2 T02890139
13873KAHN AHN20160528133010605/28/16 13:30:31  5-MIN KAHN 281830Z 08005KT 10SM FEW050 29/14 A3013 620 39 2500 080/05 RMK AO2 T02940144
13873KAHN AHN20160528133510605/28/16 13:35:31  5-MIN KAHN 281835Z VRB04KT 10SM FEW050 29/14 A3013 620 38 2500 VRB/04 RMK AO2 T02940139
13873KAHN AHN20160528134010605/28/16 13:40:31  5-MIN KAHN 281840Z 00000KT 10SM FEW050 29/14 A3013 620 38 2500 000/00 RMK AO2 T02940139
13873KAHN AHN20160528134511305/28/16 13:45:31  5-MIN KAHN 281845Z VRB03KT 10SM FEW050 29/13 A3013 620 38 2400 VRB/03 RMK AO2 SLP194 T02890133
13873KAHN AHN20160528135011305/28/16 13:50:31  5-MIN KAHN 281850Z 07009KT 10SM FEW055 28/13 A3013 620 39 2300 080/09 RMK AO2 SLP194 T02830133
13873KAHN AHN20160528135510305/28/16 13:55:31  5-MIN KAHN 281855Z 09005KT 10SM CLR 28/14 A3012 620 40 2300 100/05 RMK AO2 T02830139
13873KAHN AHN20160528140010305/28/16 14:00:31  5-MIN KAHN 281900Z VRB04KT 10SM CLR 28/13 A3012 630 39 2300 VRB/04 RMK AO2 T02830133
13873KAHN AHN20160528140510305/28/16 14:05:31  5-MIN KAHN 281905Z VRB03KT 10SM CLR 29/13 A3012 630 38 2400 VRB/03 RMK AO2 T02890133
13873KAHN AHN20160528141010305/28/16 14:10:31  5-MIN KAHN 281910Z 00000KT 10SM CLR 29/13 A3012 630 38 2400 000/00 RMK AO2 T02890133
13873KAHN AHN20160528141509305/28/16 14:15:31  5-MIN KAHN 281915Z 10SM CLR 29/13 A3012 630 38 2400 M /M RMK AO2 T02890133
13873KAHN AHN20160528142010305/28/16 14:20:31  5-MIN KAHN 281920Z 00000KT 10SM CLR 29/13 A3011 630 36 2400 000/00 RMK AO2 T02890128
13873KAHN AHN20160528142509305/28/16 14:25:31  5-MIN KAHN 281925Z 10SM CLR 29/13 A3011 630 36 2500 M /M RMK AO2 T02940133
13873KAHN AHN20160528143010305/28/16 14:30:31  5-MIN KAHN 281930Z VRB04KT 10SM CLR 30/14 A3011 630 38 2500 VRB/04 RMK AO2 T03000144
13873KAHN AHN20160528143510305/28/16 14:35:31  5-MIN KAHN 281935Z 07008KT 10SM CLR 30/14 A3011 630 36 2500 070/08 RMK AO2 T03000139
13873KAHN AHN20160528144010305/28/16 14:40:31  5-MIN KAHN 281940Z 00000KT 10SM CLR 29/14 A3011 630 38 2500 000/00 RMK AO2 T02940139
13873KAHN AHN20160528144511005/28/16 14:45:31  5-MIN KAHN 281945Z VRB03KT 10SM CLR 29/13 A3011 640 36 2500 VRB/03 RMK AO2 SLP189 T02940133
13873KAHN AHN20160528145011005/28/16 14:50:31  5-MIN KAHN 281950Z VRB03KT 10SM CLR 29/14 A3011 640 38 2500 VRB/03 RMK AO2 SLP189 T02940139
13873KAHN AHN20160528145511905/28/16 14:55:31  5-MIN KAHN 281955Z 06007KT 010V080 10SM CLR 30/13 A3011 640 35 2500 060/07 020V090 RMK AO2 T03000133
13873KAHN AHN20160528150010905/28/16 15:00:31  5-MIN KAHN 282000Z 07007G15KT 10SM CLR 30/14 A3011 640 36 2500 070/07G15 RMK AO2 T03000139
13873KAHN AHN20160528150510305/28/16 15:05:31  5-MIN KAHN 282005Z 08004KT 10SM CLR 29/14 A3011 640 38 2500 090/04 RMK AO2 T02940139
13873KAHN AHN20160528151010305/28/16 15:10:31  5-MIN KAHN 282010Z VRB04KT 10SM CLR 29/13 A3011 640 36 2500 VRB/04 RMK AO2 T02940133
13873KAHN AHN20160528151510605/28/16 15:15:31  5-MIN KAHN 282015Z 07006KT 10SM FEW060 29/14 A3011 640 38 2500 080/06 RMK AO2 T02940139
13873KAHN AHN20160528152010605/28/16 15:20:31  5-MIN KAHN 282020Z VRB06KT 10SM FEW060 30/14 A3011 640 38 2500 VRB/06 RMK AO2 T03000144
13873KAHN AHN20160528152510305/28/16 15:25:31  5-MIN KAHN 282025Z 05008KT 10SM CLR 30/15 A3011 640 39 2500 050/08 RMK AO2 T03000150
13873KAHN AHN20160528153010305/28/16 15:30:31  5-MIN KAHN 282030Z 05004KT 10SM CLR 29/14 A3010 640 39 2500 050/04 RMK AO2 T02940144
13873KAHN AHN20160528153510305/28/16 15:35:31  5-MIN KAHN 282035Z 00000KT 10SM CLR 29/14 A3010 640 38 2500 000/00 RMK AO2 T02940139
13873KAHN AHN20160528154010305/28/16 15:40:31  5-MIN KAHN 282040Z 08007KT 10SM CLR 30/14 A3010 650 38 2500 080/07 RMK AO2 T03000144
13873KAHN AHN20160528154511605/28/16 15:45:31  5-MIN KAHN 282045Z 06007KT 10SM CLR 30/15 A3010 650 39 2500 070/07 RMK AO2 SLP185 T03000150 58010
13873KAHN AHN20160528155011605/28/16 15:50:31  5-MIN KAHN 282050Z 05008KT 10SM CLR 30/15 A3010 640 39 2500 050/08 RMK AO2 SLP186 T03000150 58010
13873KAHN AHN20160528155510305/28/16 15:55:31  5-MIN KAHN 282055Z 09008KT 10SM CLR 30/15 A3010 650 39 2500 090/08 RMK AO2 T03000150
13873KAHN AHN20160528160010305/28/16 16:00:31  5-MIN KAHN 282100Z 10006KT 10SM CLR 31/16 A3010 650 39 2600 110/06 RMK AO2 T03060156
13873KAHN AHN20160528160510305/28/16 16:05:31  5-MIN KAHN 282105Z 11006KT 10SM CLR 29/16 A3010 650 42 2500 110/06 RMK AO2 T02940156
13873KAHN AHN20160528161010305/28/16 16:10:31  5-MIN KAHN 282110Z 06007KT 10SM CLR 29/16 A3010 650 42 2500 070/07 RMK AO2 T02940156
13873KAHN AHN20160528161510305/28/16 16:15:31  5-MIN KAHN 282115Z 05007KT 10SM CLR 30/16 A3010 650 41 2600 060/07 RMK AO2 T03000156
13873KAHN AHN20160528162010305/28/16 16:20:31  5-MIN KAHN 282120Z 05007KT 10SM CLR 29/16 A3009 650 42 2500 060/07 RMK AO2 T02940156
13873KAHN AHN20160528162510305/28/16 16:25:31  5-MIN KAHN 282125Z 10007KT 10SM CLR 30/16 A3009 650 41 2600 100/07 RMK AO2 T03000156
13873KAHN AHN20160528163010305/28/16 16:30:31  5-MIN KAHN 282130Z 09006KT 10SM CLR 29/16 A3009 650 42 2500 100/06 RMK AO2 T02940156
13873KAHN AHN20160528163510305/28/16 16:35:31  5-MIN KAHN 282135Z 11006KT 10SM CLR 29/16 A3009 650 44 2500 120/06 RMK AO2 T02940161
13873KAHN AHN20160528164010305/28/16 16:40:31  5-MIN KAHN 282140Z 12004KT 10SM CLR 29/16 A3009 650 42 2500 130/04 RMK AO2 T02940156
13873KAHN AHN20160528164511005/28/16 16:45:31  5-MIN KAHN 282145Z 12004KT 10SM CLR 29/16 A3009 650 44 2500 120/04 RMK AO2 SLP185 T02940161
13873KAHN AHN20160528165011005/28/16 16:50:31  5-MIN KAHN 282150Z VRB04KT 10SM CLR 29/16 A3010 650 44 2500 VRB/04 RMK AO2 SLP185 T02940161
13873KAHN AHN20160528165510305/28/16 16:55:31  5-MIN KAHN 282155Z VRB03KT 10SM CLR 29/16 A3010 650 44 2400 VRB/03 RMK AO2 T02890156
13873KAHN AHN20160528170010605/28/16 17:00:31  5-MIN KAHN 282200Z 07006KT 10SM FEW055 29/16 A3010 650 44 2500 080/06 RMK AO2 T02940161
13873KAHN AHN20160528170510605/28/16 17:05:31  5-MIN KAHN 282205Z 06006KT 10SM SCT060 29/16 A3010 650 44 2500 070/06 RMK AO2 T02940161
13873KAHN AHN20160528171010605/28/16 17:10:31  5-MIN KAHN 282210Z 10006KT 10SM SCT060 29/17 A3010 650 45 2500 110/06 RMK AO2 T02940167
13873KAHN AHN20160528171510605/28/16 17:15:31  5-MIN KAHN 282215Z 11006KT 10SM BKN060 29/17 A3010 650 48 2400 120/06 RMK AO2 T02890172
13873KAHN AHN20160528172011205/28/16 17:20:31  5-MIN KAHN 282220Z 09010G15KT 10SM BKN060 29/17 A3010 650 48 2400 090/10G15 RMK AO2 T02890172
13873KAHN AHN20160528172511205/28/16 17:25:31  5-MIN KAHN 282225Z 10009G15KT 10SM SCT060 29/17 A3010 650 48 2400 110/09G15 RMK AO2 T02890172
13873KAHN AHN20160528173010605/28/16 17:30:31  5-MIN KAHN 282230Z 10007KT 10SM SCT060 29/17 A3010 650 48 2400 100/07 RMK AO2 T02890172
13873KAHN AHN20160528173510605/28/16 17:35:31  5-MIN KAHN 282235Z 09010KT 10SM FEW060 29/18 A3010 650 50 2400 090/10 RMK AO2 T02890178
13873KAHN AHN20160528174010605/28/16 17:40:31  5-MIN KAHN 282240Z 09009KT 10SM FEW060 28/18 A3010 650 54 2400 090/09 RMK AO2 T02830183
13873KAHN AHN20160528174511905/28/16 17:45:31  5-MIN KAHN 282245Z 09008G16KT 10SM FEW065 28/18 A3010 650 56 2300 100/08G16 RMK AO2 SLP187 T02780183
13873KAHN AHN20160528175011605/28/16 17:50:31  5-MIN KAHN 282250Z 10009G16KT 10SM CLR 28/18 A3010 640 56 2300 110/09G16 RMK AO2 SLP187 T02780183
13873KAHN AHN20160528175510305/28/16 17:55:31  5-MIN KAHN 282255Z 10007KT 10SM CLR 27/18 A3010 650 58 2200 100/07 RMK AO2 T02720183
13873KAHN AHN20160528180010305/28/16 18:00:31  5-MIN KAHN 282300Z 09007KT 10SM CLR 27/18 A3010 650 58 2200 100/07 RMK AO2 T02720183
13873KAHN AHN20160528180510305/28/16 18:05:31  5-MIN KAHN 282305Z 10006KT 10SM CLR 28/18 A3010 640 56 2300 110/06 RMK AO2 T02780183
13873KAHN AHN20160528181010305/28/16 18:10:31  5-MIN KAHN 282310Z 09005KT 10SM CLR 27/18 A3010 640 58 2200 100/05 RMK AO2 T02720183
13873KAHN AHN20160528181510305/28/16 18:15:31  5-MIN KAHN 282315Z 09006KT 10SM CLR 27/18 A3011 640 58 2200 100/06 RMK AO2 T02720183
13873KAHN AHN20160528182010305/28/16 18:20:31  5-MIN KAHN 282320Z 09006KT 10SM CLR 27/18 A3011 640 58 2200 100/06 RMK AO2 T02720183
13873KAHN AHN20160528182510305/28/16 18:25:31  5-MIN KAHN 282325Z 09008KT 10SM CLR 27/18 A3011 640 58 2200 100/08 RMK AO2 T02720183
13873KAHN AHN20160528183010305/28/16 18:30:31  5-MIN KAHN 282330Z 09009KT 10SM CLR 27/19 A3011 640 60 2200 090/09 RMK AO2 T02720189
13873KAHN AHN20160528183510305/28/16 18:35:31  5-MIN KAHN 282335Z 09009KT 10SM CLR 27/19 A3011 640 62 2200 090/09 RMK AO2 T02670189
13873KAHN AHN20160528184010305/28/16 18:40:31  5-MIN KAHN 282340Z 10006KT 10SM CLR 26/18 A3010 640 62 2100 100/06 RMK AO2 T02610183
13873KAHN AHN20160528184512805/28/16 18:45:31  5-MIN KAHN 282345Z 10006KT 10SM CLR 26/19 A3011 640 64 2100 110/06 RMK AO2 SLP189 T02610189 10306 20261 56018
13873KAHN AHN20160528185012805/28/16 18:50:31  5-MIN KAHN 282350Z 09007KT 10SM CLR 26/18 A3011 640 62 2100 100/07 RMK AO2 SLP189 T02610183 10306 20261 56018
13873KAHN AHN20160528185510305/28/16 18:55:31  5-MIN KAHN 282355Z 10007KT 10SM CLR 26/18 A3011 640 64 2000 100/07 RMK AO2 T02560183
13873KAHN AHN20160528190010305/28/16 19:00:31  5-MIN KAHN 290000Z 09006KT 10SM CLR 26/18 A3011 640 64 2000 100/06 RMK AO2 T02560183
13873KAHN AHN20160528190510805/28/16 19:05:31  5-MIN KAHN 290005Z AUTO 08006KT 10SM CLR 26/18 A3011 630 64 2000 090/06 RMK AO2 T02560183
13873KAHN AHN20160528191010805/28/16 19:10:31  5-MIN KAHN 290010Z AUTO 09005KT 10SM CLR 25/18 A3011 630 66 2000 100/05 RMK AO2 T02500183
13873KAHN AHN20160528191510805/28/16 19:15:31  5-MIN KAHN 290015Z AUTO 09006KT 10SM CLR 25/18 A3011 630 66 2000 100/06 RMK AO2 T02500183
13873KAHN AHN20160528192010805/28/16 19:20:31  5-MIN KAHN 290020Z AUTO 09007KT 10SM CLR 25/18 A3011 630 66 2000 100/07 RMK AO2 T02500183
13873KAHN AHN20160528192510805/28/16 19:25:31  5-MIN KAHN 290025Z AUTO 09006KT 10SM CLR 25/18 A3011 630 66 2000 100/06 RMK AO2 T02500183
13873KAHN AHN20160528193010805/28/16 19:30:31  5-MIN KAHN 290030Z AUTO 10005KT 10SM CLR 24/18 A3011 630 68 1900 110/05 RMK AO2 T02440183
13873KAHN AHN20160528193510805/28/16 19:35:31  5-MIN KAHN 290035Z AUTO 10004KT 10SM CLR 24/18 A3011 630 68 1900 100/04 RMK AO2 T02440183
13873KAHN AHN20160528194010805/28/16 19:40:31  5-MIN KAHN 290040Z AUTO 10004KT 10SM CLR 24/18 A3012 630 71 1800 100/04 RMK AO2 T02390183
13873KAHN AHN20160528194511505/28/16 19:45:31  5-MIN KAHN 290045Z AUTO 10003KT 10SM CLR 24/18 A3012 630 71 1800 100/03 RMK AO2 SLP193 T02390183
13873KAHN AHN20160528195011505/28/16 19:50:31  5-MIN KAHN 290050Z AUTO 10004KT 10SM CLR 24/18 A3012 630 71 1800 100/04 RMK AO2 SLP193 T02390183
13873KAHN AHN20160528195510805/28/16 19:55:31  5-MIN KAHN 290055Z AUTO 10003KT 10SM CLR 23/18 A3012 630 73 1800 100/03 RMK AO2 T02330183
13873KAHN AHN20160528200010805/28/16 20:00:31  5-MIN KAHN 290100Z AUTO 10003KT 10SM CLR 23/18 A3012 630 76 1700 100/03 RMK AO2 T02280183
13873KAHN AHN20160528200510805/28/16 20:05:31  5-MIN KAHN 290105Z AUTO 10003KT 10SM CLR 23/18 A3012 630 76 1700 110/03 RMK AO2 T02280183
13873KAHN AHN20160528201010805/28/16 20:10:31  5-MIN KAHN 290110Z AUTO 00000KT 10SM CLR 23/18 A3012 630 76 1700 000/00 RMK AO2 T02280183
13873KAHN AHN20160528201510805/28/16 20:15:31  5-MIN KAHN 290115Z AUTO 00000KT 10SM CLR 23/18 A3012 630 76 1700 000/00 RMK AO2 T02280183
13873KAHN AHN20160528202010805/28/16 20:20:31  5-MIN KAHN 290120Z AUTO 00000KT 10SM CLR 22/18 A3012 630 78 1700 000/00 RMK AO2 T02220183
13873KAHN AHN20160528202510805/28/16 20:25:31  5-MIN KAHN 290125Z AUTO 09003KT 10SM CLR 22/18 A3012 630 78 1700 100/03 RMK AO2 T02220183
13873KAHN AHN20160528203010805/28/16 20:30:31  5-MIN KAHN 290130Z AUTO 08003KT 10SM CLR 22/18 A3012 630 78 1700 090/03 RMK AO2 T02220183
13873KAHN AHN20160528203510805/28/16 20:35:31  5-MIN KAHN 290135Z AUTO 00000KT 10SM CLR 22/18 A3012 630 78 1700 000/00 RMK AO2 T02220183
13873KAHN AHN20160528204010805/28/16 20:40:31  5-MIN KAHN 290140Z AUTO 00000KT 10SM CLR 22/18 A3012 630 81 1600 000/00 RMK AO2 T02170183
13873KAHN AHN20160528204511505/28/16 20:45:31  5-MIN KAHN 290145Z AUTO 00000KT 10SM CLR 22/18 A3012 630 81 1600 000/00 RMK AO2 SLP193 T02170183
13873KAHN AHN20160528205011505/28/16 20:50:31  5-MIN KAHN 290150Z AUTO 00000KT 10SM CLR 22/18 A3012 630 81 1600 000/00 RMK AO2 SLP194 T02170183
13873KAHN AHN20160528205510805/28/16 20:55:31  5-MIN KAHN 290155Z AUTO 00000KT 10SM CLR 22/18 A3012 620 81 1600 000/00 RMK AO2 T02170183
13873KAHN AHN20160528210010805/28/16 21:00:31  5-MIN KAHN 290200Z AUTO 07003KT 10SM CLR 22/18 A3012 620 81 1600 070/03 RMK AO2 T02170183
13873KAHN AHN20160528210510805/28/16 21:05:31  5-MIN KAHN 290205Z AUTO 07003KT 10SM CLR 22/18 A3012 620 81 1600 070/03 RMK AO2 T02170183
13873KAHN AHN20160528211010805/28/16 21:10:31  5-MIN KAHN 290210Z AUTO 07003KT 10SM CLR 22/18 A3012 620 81 1600 080/03 RMK AO2 T02170183
13873KAHN AHN20160528211510805/28/16 21:15:31  5-MIN KAHN 290215Z AUTO 07003KT 10SM CLR 22/18 A3012 620 81 1600 070/03 RMK AO2 T02170183
13873KAHN AHN20160528212010805/28/16 21:20:31  5-MIN KAHN 290220Z AUTO 06003KT 10SM CLR 22/18 A3013 620 81 1600 070/03 RMK AO2 T02170183
13873KAHN AHN20160528212510805/28/16 21:25:31  5-MIN KAHN 290225Z AUTO 07003KT 10SM CLR 21/18 A3012 620 84 1500 070/03 RMK AO2 T02110183
13873KAHN AHN20160528213010805/28/16 21:30:31  5-MIN KAHN 290230Z AUTO 07004KT 10SM CLR 22/18 A3012 630 81 1600 070/04 RMK AO2 T02170183
13873KAHN AHN20160528213510805/28/16 21:35:31  5-MIN KAHN 290235Z AUTO 07004KT 10SM CLR 22/18 A3012 630 81 1600 080/04 RMK AO2 T02170183
13873KAHN AHN20160528214010805/28/16 21:40:31  5-MIN KAHN 290240Z AUTO 08003KT 10SM CLR 22/18 A3012 620 81 1600 090/03 RMK AO2 T02170183
13873KAHN AHN20160528214512105/28/16 21:45:31  5-MIN KAHN 290245Z AUTO 00000KT 10SM CLR 21/18 A3013 620 84 1500 000/00 RMK AO2 SLP195 T02110183 53003
13873KAHN AHN20160528215012105/28/16 21:50:31  5-MIN KAHN 290250Z AUTO 00000KT 10SM CLR 21/18 A3013 620 84 1500 000/00 RMK AO2 SLP196 T02110183 53003
13873KAHN AHN20160528215510805/28/16 21:55:31  5-MIN KAHN 290255Z AUTO 00000KT 10SM CLR 21/18 A3013 620 84 1500 000/00 RMK AO2 T02110183
13873KAHN AHN20160528220010805/28/16 22:00:31  5-MIN KAHN 290300Z AUTO 00000KT 10SM CLR 21/18 A3013 620 84 1500 000/00 RMK AO2 T02110183
13873KAHN AHN20160528220510805/28/16 22:05:31  5-MIN KAHN 290305Z AUTO 00000KT 10SM CLR 21/18 A3013 620 84 1500 000/00 RMK AO2 T02110183
13873KAHN AHN20160528221010805/28/16 22:10:31  5-MIN KAHN 290310Z AUTO 00000KT 10SM CLR 21/19 A3013 620 87 1500 000/00 RMK AO2 T02110189
13873KAHN AHN20160528221510805/28/16 22:15:31  5-MIN KAHN 290315Z AUTO 00000KT 10SM CLR 21/19 A3013 620 87 1500 000/00 RMK AO2 T02110189
13873KAHN AHN20160528222010805/28/16 22:20:31  5-MIN KAHN 290320Z AUTO 00000KT 10SM CLR 21/18 A3013 620 84 1500 000/00 RMK AO2 T02110183
13873KAHN AHN20160528222510805/28/16 22:25:31  5-MIN KAHN 290325Z AUTO 00000KT 10SM CLR 21/18 A3013 620 84 1500 000/00 RMK AO2 T02110183
13873KAHN AHN20160528223010805/28/16 22:30:31  5-MIN KAHN 290330Z AUTO 00000KT 10SM CLR 21/18 A3013 620 84 1500 000/00 RMK AO2 T02110183
13873KAHN AHN20160528223510805/28/16 22:35:31  5-MIN KAHN 290335Z AUTO 00000KT 10SM CLR 21/18 A3013 620 84 1500 000/00 RMK AO2 T02110183
13873KAHN AHN20160528224010805/28/16 22:40:31  5-MIN KAHN 290340Z AUTO 00000KT 10SM CLR 21/18 A3013 620 84 1500 000/00 RMK AO2 T02110183
13873KAHN AHN20160528224511505/28/16 22:45:31  5-MIN KAHN 290345Z AUTO 00000KT 10SM CLR 21/18 A3013 620 84 1500 000/00 RMK AO2 SLP196 T02110183
13873KAHN AHN20160528225011505/28/16 22:50:31  5-MIN KAHN 290350Z AUTO 00000KT 10SM CLR 21/18 A3013 620 87 1400 000/00 RMK AO2 SLP195 T02060183
13873KAHN AHN20160528225510805/28/16 22:55:31  5-MIN KAHN 290355Z AUTO 00000KT 10SM CLR 21/18 A3013 620 87 1400 000/00 RMK AO2 T02060183
13873KAHN AHN20160528230010805/28/16 23:00:31  5-MIN KAHN 290400Z AUTO 00000KT 10SM CLR 21/18 A3013 620 87 1500 000/00 RMK AO2 T02060183
13873KAHN AHN20160528230510805/28/16 23:05:31  5-MIN KAHN 290405Z AUTO 00000KT 10SM CLR 21/18 A3013 620 87 1500 000/00 RMK AO2 T02060183
13873KAHN AHN20160528231010805/28/16 23:10:31  5-MIN KAHN 290410Z AUTO 00000KT 10SM CLR 21/18 A3013 620 87 1500 000/00 RMK AO2 T02060183
13873KAHN AHN20160528231510805/28/16 23:15:31  5-MIN KAHN 290415Z AUTO 00000KT 10SM CLR 21/18 A3012 620 84 1500 000/00 RMK AO2 T02110183
13873KAHN AHN20160528232010805/28/16 23:20:31  5-MIN KAHN 290420Z AUTO 00000KT 10SM CLR 21/18 A3012 620 84 1500 000/00 RMK AO2 T02110183
13873KAHN AHN20160528232510805/28/16 23:25:31  5-MIN KAHN 290425Z AUTO 00000KT 10SM CLR 21/19 A3012 630 87 1500 000/00 RMK AO2 T02110189
13873KAHN AHN20160528233010805/28/16 23:30:31  5-MIN KAHN 290430Z AUTO 03003KT 10SM CLR 21/19 A3012 630 87 1500 040/03 RMK AO2 T02110189
13873KAHN AHN20160528233510805/28/16 23:35:31  5-MIN KAHN 290435Z AUTO 00000KT 10SM CLR 21/19 A3012 630 87 1500 000/00 RMK AO2 T02110189
13873KAHN AHN20160528234010805/28/16 23:40:31  5-MIN KAHN 290440Z AUTO 28003KT 10SM CLR 21/19 A3012 630 87 1500 290/03 RMK AO2 T02110189
13873KAHN AHN20160528234512505/28/16 23:45:31  5-MIN KAHN 290445Z AUTO 28003KT 10SM CLR 21/19 A3012 630 87 1500 280/03 RMK AO2 SLP192 T02110189 403060156
13873KAHN AHN20160528235012505/28/16 23:50:31  5-MIN KAHN 290450Z AUTO 00000KT 10SM CLR 21/19 A3012 630 90 1500 000/00 RMK AO2 SLP192 T02060189 403060156
13873KAHN AHN20160528235510805/28/16 23:55:31  5-MIN KAHN 290455Z AUTO 00000KT 10SM CLR 21/19 A3012 630 90 1500 000/00 RMK AO2 T02060189
13873KAHN AHN20160529000010805/29/16 00:00:31  5-MIN KAHN 290500Z AUTO 00000KT 10SM CLR 21/19 A3012 630 90 1500 000/00 RMK AO2 T02060189
13873KAHN AHN20160529000510805/29/16 00:05:31  5-MIN KAHN 290505Z AUTO 00000KT 10SM CLR 21/19 A3012 630 87 1500 000/00 RMK AO2 T02110189
13873KAHN AHN20160529001010805/29/16 00:10:31  5-MIN KAHN 290510Z AUTO 00000KT 10SM CLR 21/19 A3012 630 90 1500 000/00 RMK AO2 T02060189
13873KAHN AHN20160529001510805/29/16 00:15:31  5-MIN KAHN 290515Z AUTO 00000KT 10SM CLR 21/19 A3012 630 87 1500 000/00 RMK AO2 T02110189
13873KAHN AHN20160529002010805/29/16 00:20:31  5-MIN KAHN 290520Z AUTO 00000KT 10SM CLR 21/19 A3012 630 87 1500 000/00 RMK AO2 T02110189
13873KAHN AHN20160529002510805/29/16 00:25:31  5-MIN KAHN 290525Z AUTO 00000KT 10SM CLR 21/19 A3012 630 87 1500 000/00 RMK AO2 T02110189
13873KAHN AHN20160529003010805/29/16 00:30:31  5-MIN KAHN 290530Z AUTO 00000KT 10SM CLR 21/18 A3012 630 84 1500 000/00 RMK AO2 T02110183
13873KAHN AHN20160529003510805/29/16 00:35:31  5-MIN KAHN 290535Z AUTO 00000KT 10SM CLR 21/18 A3012 630 84 1500 000/00 RMK AO2 T02110183
13873KAHN AHN20160529004010805/29/16 00:40:31  5-MIN KAHN 290540Z AUTO 03003KT 10SM CLR 21/18 A3012 630 84 1500 030/03 RMK AO2 T02110183
13873KAHN AHN20160529004513305/29/16 00:45:31  5-MIN KAHN 290545Z AUTO 00000KT 10SM CLR 21/18 A3011 630 84 1500 000/00 RMK AO2 SLP191 T02110183 10261 20206 51006
13873KAHN AHN20160529005013305/29/16 00:50:31  5-MIN KAHN 290550Z AUTO 06003KT 10SM CLR 21/18 A3011 630 84 1500 070/03 RMK AO2 SLP190 T02110183 10261 20206 51006
13873KAHN AHN20160529005510805/29/16 00:55:31  5-MIN KAHN 290555Z AUTO 00000KT 10SM CLR 21/19 A3011 630 90 1500 000/00 RMK AO2 T02060189
13873KAHN AHN20160529010010805/29/16 01:00:31  5-MIN KAHN 290600Z AUTO 00000KT 10SM CLR 21/18 A3011 630 87 1500 000/00 RMK AO2 T02060183
13873KAHN AHN20160529010510805/29/16 01:05:31  5-MIN KAHN 290605Z AUTO 00000KT 10SM CLR 21/18 A3011 630 87 1500 000/00 RMK AO2 T02060183
13873KAHN AHN20160529011010805/29/16 01:10:31  5-MIN KAHN 290610Z AUTO 00000KT 10SM CLR 21/18 A3011 630 87 1500 000/00 RMK AO2 T02060183
13873KAHN AHN20160529011511105/29/16 01:15:31  5-MIN KAHN 290615Z AUTO 00000KT 10SM SCT070 21/18 A3011 630 87 1500 000/00 RMK AO2 T02060183
13873KAHN AHN20160529012011105/29/16 01:20:31  5-MIN KAHN 290620Z AUTO 00000KT 10SM SCT070 21/18 A3011 630 84 1500 000/00 RMK AO2 T02110183
13873KAHN AHN20160529012511105/29/16 01:25:31  5-MIN KAHN 290625Z AUTO 00000KT 10SM SCT070 21/18 A3011 630 84 1500 000/00 RMK AO2 T02110183
13873KAHN AHN20160529013011105/29/16 01:30:31  5-MIN KAHN 290630Z AUTO 00000KT 10SM FEW070 21/18 A3011 630 87 1500 000/00 RMK AO2 T02060183
13873KAHN AHN20160529013511105/29/16 01:35:31  5-MIN KAHN 290635Z AUTO 00000KT 10SM FEW070 21/18 A3011 630 87 1500 000/00 RMK AO2 T02060183
13873KAHN AHN20160529014011105/29/16 01:40:31  5-MIN KAHN 290640Z AUTO 00000KT 10SM FEW070 21/18 A3011 630 87 1500 000/00 RMK AO2 T02060183
13873KAHN AHN20160529014511805/29/16 01:45:31  5-MIN KAHN 290645Z AUTO 00000KT 10SM FEW070 21/19 A3011 640 90 1500 000/00 RMK AO2 SLP189 T02060189
13873KAHN AHN20160529015011805/29/16 01:50:31  5-MIN KAHN 290650Z AUTO 00000KT 10SM FEW070 21/18 A3011 640 87 1500 000/00 RMK AO2 SLP188 T02060183
13873KAHN AHN20160529015511105/29/16 01:55:31  5-MIN KAHN 290655Z AUTO 00000KT 10SM SCT070 20/19 A3011 640 93 1400 000/00 RMK AO2 T02000189
13873KAHN AHN20160529020011105/29/16 02:00:31  5-MIN KAHN 290700Z AUTO 00000KT 10SM SCT070 20/18 A3010 640 90 1400 000/00 RMK AO2 T02000183
13873KAHN AHN20160529020511105/29/16 02:05:31  5-MIN KAHN 290705Z AUTO 00000KT 10SM SCT070 20/19 A3010 640 93 1400 000/00 RMK AO2 T02000189
13873KAHN AHN20160529021011105/29/16 02:10:31  5-MIN KAHN 290710Z AUTO 00000KT 10SM BKN070 20/19 A3010 640 93 1400 000/00 RMK AO2 T02000189
13873KAHN AHN20160529021511105/29/16 02:15:31  5-MIN KAHN 290715Z AUTO 00000KT 10SM BKN070 21/19 A3010 640 90 1500 000/00 RMK AO2 T02060189
13873KAHN AHN20160529022011105/29/16 02:20:31  5-MIN KAHN 290720Z AUTO 00000KT 10SM BKN070 21/19 A3010 640 90 1500 000/00 RMK AO2 T02060189
13873KAHN AHN20160529022511105/29/16 02:25:31  5-MIN KAHN 290725Z AUTO 04003KT 10SM BKN070 21/18 A3010 650 87 1500 040/03 RMK AO2 T02060183
13873KAHN AHN20160529023011105/29/16 02:30:31  5-MIN KAHN 290730Z AUTO 00000KT 10SM OVC070 21/18 A3010 650 87 1500 000/00 RMK AO2 T02060183
13873KAHN AHN20160529023511105/29/16 02:35:31  5-MIN KAHN 290735Z AUTO 06003KT 10SM OVC070 21/18 A3010 650 87 1500 060/03 RMK AO2 T02060183
13873KAHN AHN20160529024011105/29/16 02:40:31  5-MIN KAHN 290740Z AUTO 06004KT 10SM BKN070 21/18 A3009 650 87 1500 070/04 RMK AO2 T02060183
13873KAHN AHN20160529024511805/29/16 02:45:31  5-MIN KAHN 290745Z AUTO 00000KT 10SM BKN075 21/18 A3009 650 87 1500 000/00 RMK AO2 SLP184 T02060183
13873KAHN AHN20160529025011805/29/16 02:50:31  5-MIN KAHN 290750Z AUTO 06003KT 10SM BKN075 21/18 A3009 650 87 1500 060/03 RMK AO2 SLP183 T02060183
13873KAHN AHN20160529025511105/29/16 02:55:31  5-MIN KAHN 290755Z AUTO 00000KT 10SM SCT075 21/18 A3009 650 87 1500 000/00 RMK AO2 T02060183
13873KAHN AHN20160529030011105/29/16 03:00:31  5-MIN KAHN 290800Z AUTO 07003KT 10SM FEW075 20/18 A3009 650 90 1400 070/03 RMK AO2 T02000183
13873KAHN AHN20160529030511105/29/16 03:05:31  5-MIN KAHN 290805Z AUTO 06003KT 10SM FEW075 21/18 A3009 650 87 1500 070/03 RMK AO2 T02060183
13873KAHN AHN20160529031010805/29/16 03:10:31  5-MIN KAHN 290810Z AUTO 06003KT 10SM CLR 21/18 A3009 650 87 1500 060/03 RMK AO2 T02060183
13873KAHN AHN20160529031510805/29/16 03:15:31  5-MIN KAHN 290815Z AUTO 00000KT 10SM CLR 21/18 A3009 650 87 1500 000/00 RMK AO2 T02060183
13873KAHN AHN20160529032010805/29/16 03:20:31  5-MIN KAHN 290820Z AUTO 05003KT 10SM CLR 21/18 A3009 650 87 1500 050/03 RMK AO2 T02060183
13873KAHN AHN20160529032510805/29/16 03:25:31  5-MIN KAHN 290825Z AUTO 06003KT 10SM CLR 21/18 A3009 650 87 1500 070/03 RMK AO2 T02060183
13873KAHN AHN20160529033010805/29/16 03:30:31  5-MIN KAHN 290830Z AUTO 00000KT 10SM CLR 21/19 A3009 650 90 1500 000/00 RMK AO2 T02060189
13873KAHN AHN20160529033510805/29/16 03:35:31  5-MIN KAHN 290835Z AUTO 00000KT 10SM CLR 21/18 A3009 650 87 1500 000/00 RMK AO2 T02060183
13873KAHN AHN20160529034010805/29/16 03:40:31  5-MIN KAHN 290840Z AUTO 00000KT 10SM CLR 20/18 A3009 650 90 1400 000/00 RMK AO2 T02000183
13873KAHN AHN20160529034512105/29/16 03:45:31  5-MIN KAHN 290845Z AUTO 00000KT 10SM CLR 20/19 A3009 650 93 1400 000/00 RMK AO2 SLP183 T02000189 58005
13873KAHN AHN20160529035012105/29/16 03:50:31  5-MIN KAHN 290850Z AUTO 00000KT 10SM CLR 21/19 A3009 650 90 1500 000/00 RMK AO2 SLP182 T02060189 58005
13873KAHN AHN20160529035510805/29/16 03:55:31  5-MIN KAHN 290855Z AUTO 00000KT 10SM CLR 21/19 A3009 650 90 1500 000/00 RMK AO2 T02060189
13873KAHN AHN20160529040010805/29/16 04:00:31  5-MIN KAHN 290900Z AUTO 00000KT 10SM CLR 20/19 A3009 650 93 1400 000/00 RMK AO2 T02000189
13873KAHN AHN20160529040511105/29/16 04:05:31  5-MIN KAHN 290905Z AUTO 00000KT 10SM FEW049 20/18 A3010 650 90 1400 000/00 RMK AO2 T02000183
13873KAHN AHN20160529041011105/29/16 04:10:31  5-MIN KAHN 290910Z AUTO 00000KT 10SM SCT049 20/18 A3010 650 90 1400 000/00 RMK AO2 T02000183
13873KAHN AHN20160529041511105/29/16 04:15:31  5-MIN KAHN 290915Z AUTO 00000KT 10SM BKN050 20/19 A3010 650 93 1400 000/00 RMK AO2 T02000189
13873KAHN AHN20160529042011105/29/16 04:20:31  5-MIN KAHN 290920Z AUTO 00000KT 10SM BKN050 20/19 A3010 650 93 1400 000/00 RMK AO2 T02000189
13873KAHN AHN20160529042511105/29/16 04:25:31  5-MIN KAHN 290925Z AUTO 00000KT 10SM BKN050 20/19 A3010 650 93 1400 000/00 RMK AO2 T02000189
13873KAHN AHN20160529043011105/29/16 04:30:31  5-MIN KAHN 290930Z AUTO 00000KT 10SM BKN050 20/18 A3010 650 90 1400 000/00 RMK AO2 T02000183
13873KAHN AHN20160529043511105/29/16 04:35:31  5-MIN KAHN 290935Z AUTO 00000KT 10SM BKN050 19/18 A3010 650 93 1400 000/00 RMK AO2 T01940183
13873KAHN AHN20160529044011105/29/16 04:40:31  5-MIN KAHN 290940Z AUTO 29003KT 10SM BKN050 19/18 A3010 650 93 1400 300/03 RMK AO2 T01940183
13873KAHN AHN20160529164010605/29/16 16:40:31  5-MIN KAHN 292140Z 07006KT 10SM BKN080 27/16 A3006 680 52 2200 080/06 RMK AO2 T02670161
13873KAHN AHN20160529164511305/29/16 16:45:31  5-MIN KAHN 292145Z 08005KT 10SM BKN080 26/16 A3006 690 53 2200 090/05 RMK AO2 SLP172 T02610161
13873KAHN AHN20160529165011305/29/16 16:50:31  5-MIN KAHN 292150Z 10006KT 10SM OVC080 27/17 A3006 680 53 2200 110/06 RMK AO2 SLP172 T02670167
13873KAHN AHN20160529165511305/29/16 16:55:31  5-MIN KAHN 292155Z 10005KT 10SM BKN075 OVC085 26/17 A3006 680 55 2200 100/05 RMK AO2 T02610167
13873KAHN AHN20160529170011305/29/16 17:00:31  5-MIN KAHN 292200Z 08005KT 10SM BKN075 OVC085 26/17 A3006 680 55 2200 080/05 RMK AO2 T02610167
13873KAHN AHN20160529170510605/29/16 17:05:31  5-MIN KAHN 292205Z 09007KT 10SM BKN075 26/17 A3006 680 55 2200 090/07 RMK AO2 T02610167
13873KAHN AHN20160529171010605/29/16 17:10:31  5-MIN KAHN 292210Z 10004KT 10SM BKN075 27/17 A3006 680 53 2200 110/04 RMK AO2 T02670167
13873KAHN AHN20160529171510605/29/16 17:15:31  5-MIN KAHN 292215Z 10005KT 10SM BKN075 26/17 A3006 680 55 2200 110/05 RMK AO2 T02610167
13873KAHN AHN20160529172010605/29/16 17:20:31  5-MIN KAHN 292220Z VRB04KT 10SM BKN075 26/16 A3006 680 55 2100 VRB/04 RMK AO2 T02560161
13873KAHN AHN20160529172510605/29/16 17:25:31  5-MIN KAHN 292225Z 10004KT 10SM BKN075 26/16 A3006 680 55 2100 110/04 RMK AO2 T02560161
13873KAHN AHN20160529173010605/29/16 17:30:31  5-MIN KAHN 292230Z 10004KT 10SM BKN080 25/16 A3006 680 57 2000 110/04 RMK AO2 T02500161
13873KAHN AHN20160529173510605/29/16 17:35:31  5-MIN KAHN 292235Z 09005KT 10SM BKN080 26/16 A3006 680 55 2100 100/05 RMK AO2 T02560161
13873KAHN AHN20160529174010605/29/16 17:40:31  5-MIN KAHN 292240Z 11004KT 10SM BKN075 25/17 A3006 680 59 2000 110/04 RMK AO2 T02500167
13873KAHN AHN20160529174511305/29/16 17:45:31  5-MIN KAHN 292245Z VRB04KT 10SM SCT080 25/17 A3006 690 59 2000 VRB/04 RMK AO2 SLP171 T02500167
13873KAHN AHN20160529175011305/29/16 17:50:31  5-MIN KAHN 292250Z VRB05KT 10SM SCT075 25/16 A3005 690 57 2000 VRB/05 RMK AO2 SLP170 T02500161
13873KAHN AHN20160529175510605/29/16 17:55:31  5-MIN KAHN 292255Z 10005KT 10SM FEW080 25/16 A3005 690 57 2000 100/05 RMK AO2 T02500161
13873KAHN AHN20160529180010305/29/16 18:00:31  5-MIN KAHN 292300Z VRB04KT 10SM CLR 26/17 A3005 690 57 2100 VRB/04 RMK AO2 T02560167
13873KAHN AHN20160529180510305/29/16 18:05:31  5-MIN KAHN 292305Z 08006KT 10SM CLR 25/16 A3004 700 57 2100 090/06 RMK AO2 T02500161
13873KAHN AHN20160529181010305/29/16 18:10:31  5-MIN KAHN 292310Z 09005KT 10SM CLR 25/16 A3004 700 57 2100 100/05 RMK AO2 T02500161
13873KAHN AHN20160529181510605/29/16 18:15:31  5-MIN KAHN 292315Z 08006KT 10SM FEW090 25/16 A3004 700 57 2100 080/06 RMK AO2 T02500161
13873KAHN AHN20160529182010605/29/16 18:20:31  5-MIN KAHN 292320Z 08006KT 10SM SCT090 25/16 A3004 700 55 2100 090/06 RMK AO2 T02500156
13873KAHN AHN20160529182510605/29/16 18:25:31  5-MIN KAHN 292325Z 10004KT 10SM SCT090 24/16 A3004 700 57 2000 100/04 RMK AO2 T02440156
13873KAHN AHN20160529183010605/29/16 18:30:31  5-MIN KAHN 292330Z 08004KT 10SM FEW090 24/16 A3004 700 57 2000 080/04 RMK AO2 T02440156
13873KAHN AHN20160529183510605/29/16 18:35:31  5-MIN KAHN 292335Z 08003KT 10SM FEW090 24/16 A3004 700 57 2000 090/03 RMK AO2 T02440156
13873KAHN AHN20160529184010605/29/16 18:40:31  5-MIN KAHN 292340Z 07003KT 10SM FEW090 24/16 A3004 700 59 2000 080/03 RMK AO2 T02440161
13873KAHN AHN20160529184513105/29/16 18:45:31  5-MIN KAHN 292345Z 00000KT 10SM FEW090 24/16 A3004 700 59 1900 000/00 RMK AO2 SLP167 T02390156 10272 20239 58022
13873KAHN AHN20160529185012805/29/16 18:50:31  5-MIN KAHN 292350Z 00000KT 10SM CLR 23/16 A3004 700 63 1900 000/00 RMK AO2 SLP167 T02330161 10272 20233 58022
13873KAHN AHN20160529185510605/29/16 18:55:31  5-MIN KAHN 292355Z 00000KT 10SM FEW090 24/16 A3005 700 61 1900 000/00 RMK AO2 T02390161
13873KAHN AHN20160529190010605/29/16 19:00:31  5-MIN KAHN 300000Z 00000KT 10SM FEW090 24/16 A3004 700 61 1900 000/00 RMK AO2 T02390161
13873KAHN AHN20160529190511105/29/16 19:05:31  5-MIN KAHN 300005Z AUTO 00000KT 10SM FEW090 23/16 A3005 690 63 1900 000/00 RMK AO2 T02330161
13873KAHN AHN20160529191011105/29/16 19:10:31  5-MIN KAHN 300010Z AUTO 00000KT 10SM FEW090 23/16 A3004 700 63 1900 000/00 RMK AO2 T02330161
13873KAHN AHN20160529191511105/29/16 19:15:31  5-MIN KAHN 300015Z AUTO 11003KT 10SM FEW090 23/17 A3005 690 68 1800 120/03 RMK AO2 T02280167
13873KAHN AHN20160529192011105/29/16 19:20:31  5-MIN KAHN 300020Z AUTO 10003KT 10SM FEW090 23/17 A3004 700 68 1800 100/03 RMK AO2 T02280167
13873KAHN AHN20160529192511105/29/16 19:25:31  5-MIN KAHN 300025Z AUTO 09003KT 10SM FEW095 22/17 A3005 690 70 1700 100/03 RMK AO2 T02220167
13873KAHN AHN20160529193011105/29/16 19:30:31  5-MIN KAHN 300030Z AUTO 00000KT 10SM FEW100 22/17 A3005 690 75 1700 000/00 RMK AO2 T02170172
13873KAHN AHN20160529193511105/29/16 19:35:31  5-MIN KAHN 300035Z AUTO 00000KT 10SM FEW100 22/17 A3005 690 73 1700 000/00 RMK AO2 T02170167
13873KAHN AHN20160529194011105/29/16 19:40:31  5-MIN KAHN 300040Z AUTO 00000KT 10SM SCT100 22/17 A3005 690 73 1700 000/00 RMK AO2 T02170167
13873KAHN AHN20160529194511805/29/16 19:45:31  5-MIN KAHN 300045Z AUTO 00000KT 10SM BKN110 22/16 A3005 690 70 1700 000/00 RMK AO2 SLP170 T02170161
13873KAHN AHN20160529195011805/29/16 19:50:31  5-MIN KAHN 300050Z AUTO 00000KT 10SM BKN110 22/17 A3005 690 73 1700 000/00 RMK AO2 SLP169 T02170167
13873KAHN AHN20160529195511105/29/16 19:55:31  5-MIN KAHN 300055Z AUTO 09003KT 10SM BKN110 22/17 A3005 690 73 1700 090/03 RMK AO2 T02170167
13873KAHN AHN20160529200011105/29/16 20:00:31  5-MIN KAHN 300100Z AUTO 00000KT 10SM BKN110 21/17 A3005 690 75 1600 000/00 RMK AO2 T02110167
13873KAHN AHN20160529200511105/29/16 20:05:31  5-MIN KAHN 300105Z AUTO 09003KT 10SM BKN110 21/17 A3005 690 78 1600 090/03 RMK AO2 T02110172
13873KAHN AHN20160529201011105/29/16 20:10:31  5-MIN KAHN 300110Z AUTO 00000KT 10SM BKN120 21/17 A3005 690 78 1600 000/00 RMK AO2 T02110172
13873KAHN AHN20160529201511105/29/16 20:15:31  5-MIN KAHN 300115Z AUTO 00000KT 10SM OVC120 22/18 A3005 690 78 1700 000/00 RMK AO2 T02170178
13873KAHN AHN20160529202011105/29/16 20:20:31  5-MIN KAHN 300120Z AUTO 00000KT 10SM BKN110 21/17 A3006 690 78 1600 000/00 RMK AO2 T02110172
13873KAHN AHN20160529202511105/29/16 20:25:31  5-MIN KAHN 300125Z AUTO 00000KT 10SM BKN110 22/17 A3005 690 75 1700 000/00 RMK AO2 T02170172
13873KAHN AHN20160529203011105/29/16 20:30:31  5-MIN KAHN 300130Z AUTO 00000KT 10SM BKN110 22/17 A3006 690 75 1700 000/00 RMK AO2 T02170172
13873KAHN AHN20160529203511105/29/16 20:35:31  5-MIN KAHN 300135Z AUTO 00000KT 10SM SCT110 22/16 A3006 690 68 1700 000/00 RMK AO2 T02220161
13873KAHN AHN20160529204011105/29/16 20:40:31  5-MIN KAHN 300140Z AUTO 00000KT 10SM SCT110 22/17 A3006 680 70 1700 000/00 RMK AO2 T02220167
13873KAHN AHN20160529204511805/29/16 20:45:31  5-MIN KAHN 300145Z AUTO 00000KT 10SM SCT110 22/17 A3005 690 70 1700 000/00 RMK AO2 SLP171 T02220167
13873KAHN AHN20160529205011805/29/16 20:50:31  5-MIN KAHN 300150Z AUTO 07003KT 10SM SCT100 22/17 A3005 690 73 1700 070/03 RMK AO2 SLP171 T02170167
13873KAHN AHN20160529205511105/29/16 20:55:31  5-MIN KAHN 300155Z AUTO 06003KT 10SM SCT100 22/17 A3006 690 73 1700 070/03 RMK AO2 T02170167
13873KAHN AHN20160529210011105/29/16 21:00:31  5-MIN KAHN 300200Z AUTO 00000KT 10SM SCT100 22/17 A3006 680 73 1700 000/00 RMK AO2 T02170167
13873KAHN AHN20160529210511105/29/16 21:05:31  5-MIN KAHN 300205Z AUTO 06003KT 10SM SCT100 22/17 A3006 680 73 1700 070/03 RMK AO2 T02170167
13873KAHN AHN20160529211011105/29/16 21:10:31  5-MIN KAHN 300210Z AUTO 00000KT 10SM FEW100 21/17 A3006 680 75 1600 000/00 RMK AO2 T02110167
13873KAHN AHN20160529211511105/29/16 21:15:31  5-MIN KAHN 300215Z AUTO 00000KT 10SM FEW100 21/17 A3006 680 78 1600 000/00 RMK AO2 T02110172
13873KAHN AHN20160529212011105/29/16 21:20:31  5-MIN KAHN 300220Z AUTO 00000KT 10SM FEW100 21/17 A3006 680 81 1500 000/00 RMK AO2 T02060172
13873KAHN AHN20160529212510805/29/16 21:25:31  5-MIN KAHN 300225Z AUTO 00000KT 10SM CLR 20/17 A3006 680 84 1500 000/00 RMK AO2 T02000172
13873KAHN AHN20160529213011105/29/16 21:30:31  5-MIN KAHN 300230Z AUTO 00000KT 10SM FEW100 21/17 A3006 680 81 1500 000/00 RMK AO2 T02060172
13873KAHN AHN20160529213511105/29/16 21:35:31  5-MIN KAHN 300235Z AUTO 00000KT 10SM SCT100 20/17 A3006 680 84 1500 000/00 RMK AO2 T02000172
13873KAHN AHN20160529214011105/29/16 21:40:31  5-MIN KAHN 300240Z AUTO 00000KT 10SM SCT100 21/17 A3006 680 78 1500 000/00 RMK AO2 T02060167
13873KAHN AHN20160529214512405/29/16 21:45:31  5-MIN KAHN 300245Z AUTO 00000KT 10SM SCT100 21/17 A3006 680 78 1500 000/00 RMK AO2 SLP175 T02060167 58007
13873KAHN AHN20160529215012405/29/16 21:50:31  5-MIN KAHN 300250Z AUTO 00000KT 10SM BKN110 21/16 A3007 670 75 1500 000/00 RMK AO2 SLP176 T02060161 58007
13873KAHN AHN20160529215511105/29/16 21:55:31  5-MIN KAHN 300255Z AUTO 00000KT 10SM SCT100 20/16 A3007 680 78 1500 000/00 RMK AO2 T02000161
13873KAHN AHN20160529220011105/29/16 22:00:31  5-MIN KAHN 300300Z AUTO 00000KT 10SM SCT110 20/17 A3006 680 81 1500 000/00 RMK AO2 T02000167
13873KAHN AHN20160529220511105/29/16 22:05:31  5-MIN KAHN 300305Z AUTO 00000KT 10SM FEW110 20/17 A3006 680 81 1500 000/00 RMK AO2 T02000167
13873KAHN AHN20160529221011105/29/16 22:10:31  5-MIN KAHN 300310Z AUTO 00000KT 10SM FEW110 20/17 A3006 680 81 1500 000/00 RMK AO2 T02000167
13873KAHN AHN20160529221510805/29/16 22:15:31  5-MIN KAHN 300315Z AUTO 00000KT 10SM CLR 20/17 A3006 680 81 1500 000/00 RMK AO2 T02000167
13873KAHN AHN20160529222010805/29/16 22:20:31  5-MIN KAHN 300320Z AUTO 00000KT 10SM CLR 19/17 A3006 680 84 1400 000/00 RMK AO2 T01940167
13873KAHN AHN20160529222510805/29/16 22:25:31  5-MIN KAHN 300325Z AUTO 00000KT 10SM CLR 20/17 A3006 680 81 1500 000/00 RMK AO2 T02000167
13873KAHN AHN20160529223010805/29/16 22:30:31  5-MIN KAHN 300330Z AUTO 00000KT 10SM CLR 20/17 A3006 680 81 1500 000/00 RMK AO2 T02000167
13873KAHN AHN20160529223510805/29/16 22:35:31  5-MIN KAHN 300335Z AUTO 00000KT 10SM CLR 19/17 A3006 680 84 1400 000/00 RMK AO2 T01940167
13873KAHN AHN20160529224010805/29/16 22:40:31  5-MIN KAHN 300340Z AUTO 00000KT 10SM CLR 19/17 A3006 680 84 1400 000/00 RMK AO2 T01940167
13873KAHN AHN20160529224511505/29/16 22:45:31  5-MIN KAHN 300345Z AUTO 00000KT 10SM CLR 19/17 A3006 680 87 1300 000/00 RMK AO2 SLP174 T01890167
13873KAHN AHN20160529225011505/29/16 22:50:31  5-MIN KAHN 300350Z AUTO 00000KT 10SM CLR 19/17 A3006 680 87 1300 000/00 RMK AO2 SLP173 T01890167
13873KAHN AHN20160529225510805/29/16 22:55:31  5-MIN KAHN 300355Z AUTO 00000KT 10SM CLR 19/17 A3006 690 84 1400 000/00 RMK AO2 T01940167
13873KAHN AHN20160529230010805/29/16 23:00:31  5-MIN KAHN 300400Z AUTO 00000KT 10SM CLR 19/17 A3005 690 84 1400 000/00 RMK AO2 T01940167
13873KAHN AHN20160529230510805/29/16 23:05:31  5-MIN KAHN 300405Z AUTO 00000KT 10SM CLR 19/17 A3005 690 87 1300 000/00 RMK AO2 T01890167
13873KAHN AHN20160529231010805/29/16 23:10:31  5-MIN KAHN 300410Z AUTO 00000KT 10SM CLR 19/17 A3005 690 84 1400 000/00 RMK AO2 T01940167
13873KAHN AHN20160529231510805/29/16 23:15:31  5-MIN KAHN 300415Z AUTO 00000KT 10SM CLR 19/17 A3005 690 87 1300 000/00 RMK AO2 T01890167
13873KAHN AHN20160529232010805/29/16 23:20:31  5-MIN KAHN 300420Z AUTO 00000KT 10SM CLR 19/17 A3005 690 87 1300 000/00 RMK AO2 T01890167
13873KAHN AHN20160529232510805/29/16 23:25:31  5-MIN KAHN 300425Z AUTO 00000KT 10SM CLR 19/17 A3005 690 87 1300 000/00 RMK AO2 T01890167
13873KAHN AHN20160529233010805/29/16 23:30:31  5-MIN KAHN 300430Z AUTO 00000KT 10SM CLR 19/17 A3005 690 87 1300 000/00 RMK AO2 T01890167
13873KAHN AHN20160529233510805/29/16 23:35:31  5-MIN KAHN 300435Z AUTO 00000KT 10SM CLR 19/17 A3005 690 87 1400 000/00 RMK AO2 T01890167
13873KAHN AHN20160529234010805/29/16 23:40:31  5-MIN KAHN 300440Z AUTO 00000KT 10SM CLR 19/17 A3005 700 87 1400 000/00 RMK AO2 T01890167
13873KAHN AHN20160529234512505/29/16 23:45:31  5-MIN KAHN 300445Z AUTO 00000KT 10SM CLR 18/17 A3004 700 90 1300 000/00 RMK AO2 SLP168 T01830167 402720183
13873KAHN AHN20160529235012505/29/16 23:50:31  5-MIN KAHN 300450Z AUTO 00000KT 10SM CLR 19/17 A3004 700 87 1400 000/00 RMK AO2 SLP168 T01890167 402720183
13873KAHN AHN20160529235510805/29/16 23:55:31  5-MIN KAHN 300455Z AUTO 00000KT 10SM CLR 19/17 A3004 700 87 1400 000/00 RMK AO2 T01890167
13873KAHN AHN20160530000010805/30/16 00:00:31  5-MIN KAHN 300500Z AUTO 00000KT 10SM CLR 19/17 A3004 700 87 1400 000/00 RMK AO2 T01890167
13873KAHN AHN20160530000510805/30/16 00:05:31  5-MIN KAHN 300505Z AUTO 00000KT 10SM CLR 19/17 A3004 700 87 1400 000/00 RMK AO2 T01890167
13873KAHN AHN20160530001010805/30/16 00:10:31  5-MIN KAHN 300510Z AUTO 00000KT 10SM CLR 19/17 A3004 700 87 1400 000/00 RMK AO2 T01890167
13873KAHN AHN20160530001510805/30/16 00:15:31  5-MIN KAHN 300515Z AUTO 00000KT 10SM CLR 18/17 A3004 700 90 1300 000/00 RMK AO2 T01830167
13873KAHN AHN20160530002010805/30/16 00:20:31  5-MIN KAHN 300520Z AUTO 00000KT 10SM CLR 18/17 A3004 700 90 1300 000/00 RMK AO2 T01830167
13873KAHN AHN20160530002510805/30/16 00:25:31  5-MIN KAHN 300525Z AUTO 00000KT 10SM CLR 18/17 A3004 700 90 1300 000/00 RMK AO2 T01830167
13873KAHN AHN20160530003010805/30/16 00:30:31  5-MIN KAHN 300530Z AUTO 00000KT 10SM CLR 18/17 A3003 700 90 1300 000/00 RMK AO2 T01830167
13873KAHN AHN20160530003510805/30/16 00:35:31  5-MIN KAHN 300535Z AUTO 00000KT 10SM CLR 18/17 A3003 710 90 1300 000/00 RMK AO2 T01830167
13873KAHN AHN20160530004010805/30/16 00:40:31  5-MIN KAHN 300540Z AUTO 00000KT 10SM CLR 18/17 A3003 710 90 1300 000/00 RMK AO2 T01830167
13873KAHN AHN20160530004513305/30/16 00:45:31  5-MIN KAHN 300545Z AUTO 00000KT 10SM CLR 18/17 A3003 710 90 1300 000/00 RMK AO2 SLP163 T01830167 10239 20183 53008
13873KAHN AHN20160530005013305/30/16 00:50:31  5-MIN KAHN 300550Z AUTO 00000KT 10SM CLR 18/17 A3003 710 90 1300 000/00 RMK AO2 SLP163 T01830167 10239 20183 53008
13873KAHN AHN20160530005510805/30/16 00:55:31  5-MIN KAHN 300555Z AUTO 00000KT 10SM CLR 18/17 A3003 710 93 1200 000/00 RMK AO2 T01780167
13873KAHN AHN20160530010010805/30/16 01:00:31  5-MIN KAHN 300600Z AUTO 00000KT 10SM CLR 18/17 A3003 710 90 1300 000/00 RMK AO2 T01830167
13873KAHN AHN20160530010510805/30/16 01:05:31  5-MIN KAHN 300605Z AUTO 00000KT 10SM CLR 18/17 A3003 710 90 1300 000/00 RMK AO2 T01830167
13873KAHN AHN20160530011010805/30/16 01:10:31  5-MIN KAHN 300610Z AUTO 00000KT 10SM CLR 18/17 A3002 710 90 1300 000/00 RMK AO2 T01830167
13873KAHN AHN20160530011510805/30/16 01:15:31  5-MIN KAHN 300615Z AUTO 00000KT 10SM CLR 19/17 A3002 720 90 1400 000/00 RMK AO2 T01890172
13873KAHN AHN20160530012010805/30/16 01:20:31  5-MIN KAHN 300620Z AUTO 00000KT 10SM CLR 19/17 A3002 720 90 1400 000/00 RMK AO2 T01890172
13873KAHN AHN20160530012510805/30/16 01:25:31  5-MIN KAHN 300625Z AUTO 00000KT 10SM CLR 18/17 A3002 710 93 1300 000/00 RMK AO2 T01830172
13873KAHN AHN20160530013010805/30/16 01:30:31  5-MIN KAHN 300630Z AUTO 00000KT 10SM CLR 18/17 A3003 710 90 1300 000/00 RMK AO2 T01830167
13873KAHN AHN20160530013510805/30/16 01:35:31  5-MIN KAHN 300635Z AUTO 30003KT 10SM CLR 18/17 A3002 710 90 1300 300/03 RMK AO2 T01830167
13873KAHN AHN20160530014010805/30/16 01:40:31  5-MIN KAHN 300640Z AUTO 31003KT 10SM CLR 18/17 A3002 710 93 1200 310/03 RMK AO2 T01780167
13873KAHN AHN20160530014511505/30/16 01:45:31  5-MIN KAHN 300645Z AUTO 30003KT 10SM CLR 18/17 A3002 720 93 1200 310/03 RMK AO2 SLP161 T01780167
13873KAHN AHN20160530015011505/30/16 01:50:31  5-MIN KAHN 300650Z AUTO 00000KT 10SM CLR 18/17 A3002 720 93 1200 000/00 RMK AO2 SLP161 T01780167
13873KAHN AHN20160530015510805/30/16 01:55:31  5-MIN KAHN 300655Z AUTO 00000KT 10SM CLR 18/17 A3002 720 93 1200 000/00 RMK AO2 T01780167
13873KAHN AHN20160530020010805/30/16 02:00:31  5-MIN KAHN 300700Z AUTO 00000KT 10SM CLR 18/17 A3002 710 93 1200 000/00 RMK AO2 T01780167
13873KAHN AHN20160530020510805/30/16 02:05:31  5-MIN KAHN 300705Z AUTO 00000KT 10SM CLR 18/17 A3002 720 93 1200 000/00 RMK AO2 T01780167
13873KAHN AHN20160530021010805/30/16 02:10:31  5-MIN KAHN 300710Z AUTO 00000KT 10SM CLR 18/17 A3002 720 93 1200 000/00 RMK AO2 T01780167
13873KAHN AHN20160530021510805/30/16 02:15:31  5-MIN KAHN 300715Z AUTO 00000KT 10SM CLR 18/17 A3002 720 93 1200 000/00 RMK AO2 T01780167
13873KAHN AHN20160530022010805/30/16 02:20:31  5-MIN KAHN 300720Z AUTO 33003KT 10SM CLR 18/17 A3002 720 93 1300 340/03 RMK AO2 T01780167
13873KAHN AHN20160530022510805/30/16 02:25:31  5-MIN KAHN 300725Z AUTO 00000KT 10SM CLR 18/17 A3002 720 93 1300 000/00 RMK AO2 T01780167
13873KAHN AHN20160530023010805/30/16 02:30:31  5-MIN KAHN 300730Z AUTO 00000KT 10SM CLR 18/17 A3002 720 93 1200 000/00 RMK AO2 T01780167
13873KAHN AHN20160530023510805/30/16 02:35:31  5-MIN KAHN 300735Z AUTO 00000KT 10SM CLR 18/17 A3002 720 93 1200 000/00 RMK AO2 T01780167
13873KAHN AHN20160530024010805/30/16 02:40:31  5-MIN KAHN 300740Z AUTO 00000KT 10SM CLR 18/17 A3002 720 90 1300 000/00 RMK AO2 T01830167
13873KAHN AHN20160530024511505/30/16 02:45:31  5-MIN KAHN 300745Z AUTO 00000KT 10SM CLR 18/17 A3002 720 90 1300 000/00 RMK AO2 SLP159 T01830167
13873KAHN AHN20160530025011505/30/16 02:50:31  5-MIN KAHN 300750Z AUTO 00000KT 10SM CLR 18/17 A3002 720 93 1300 000/00 RMK AO2 SLP161 T01780167
13873KAHN AHN20160530025510805/30/16 02:55:31  5-MIN KAHN 300755Z AUTO 00000KT 10SM CLR 18/17 A3002 720 90 1300 000/00 RMK AO2 T01830167
13873KAHN AHN20160530030010805/30/16 03:00:31  5-MIN KAHN 300800Z AUTO 00000KT 10SM CLR 18/17 A3002 720 93 1300 000/00 RMK AO2 T01780167
13873KAHN AHN20160530030510805/30/16 03:05:31  5-MIN KAHN 300805Z AUTO 00000KT 10SM CLR 18/17 A3002 720 93 1300 000/00 RMK AO2 T01780167
13873KAHN AHN20160530031010805/30/16 03:10:31  5-MIN KAHN 300810Z AUTO 00000KT 10SM CLR 18/17 A3002 720 93 1200 000/00 RMK AO2 T01780167
13873KAHN AHN20160530031510805/30/16 03:15:31  5-MIN KAHN 300815Z AUTO 00000KT 10SM CLR 18/16 A3002 720 87 1300 000/00 RMK AO2 T01830161
13873KAHN AHN20160530032010805/30/16 03:20:31  5-MIN KAHN 300820Z AUTO 00000KT 10SM CLR 18/16 A3002 720 87 1300 000/00 RMK AO2 T01830161
13873KAHN AHN20160530032510805/30/16 03:25:31  5-MIN KAHN 300825Z AUTO 00000KT 10SM CLR 18/16 A3002 720 87 1300 000/00 RMK AO2 T01830161
13873KAHN AHN20160530033010805/30/16 03:30:31  5-MIN KAHN 300830Z AUTO 00000KT 10SM CLR 18/16 A3002 720 87 1300 000/00 RMK AO2 T01830161
13873KAHN AHN20160530033510805/30/16 03:35:31  5-MIN KAHN 300835Z AUTO 00000KT 10SM CLR 18/17 A3002 710 90 1300 000/00 RMK AO2 T01830167
13873KAHN AHN20160530034010805/30/16 03:40:31  5-MIN KAHN 300840Z AUTO 30003KT 10SM CLR 18/17 A3002 710 93 1200 310/03 RMK AO2 T01780167
13873KAHN AHN20160530034512105/30/16 03:45:31  5-MIN KAHN 300845Z AUTO 00000KT 10SM CLR 18/16 A3002 710 90 1200 000/00 RMK AO2 SLP161 T01780161 58013
13873KAHN AHN20160530035012105/30/16 03:50:31  5-MIN KAHN 300850Z AUTO 00000KT 10SM CLR 18/16 A3002 710 90 1200 000/00 RMK AO2 SLP162 T01780161 58013
13873KAHN AHN20160530035510805/30/16 03:55:31  5-MIN KAHN 300855Z AUTO 00000KT 10SM CLR 18/16 A3002 710 90 1200 000/00 RMK AO2 T01780161
13873KAHN AHN20160530040010805/30/16 04:00:31  5-MIN KAHN 300900Z AUTO 00000KT 10SM CLR 17/16 A3003 710 93 1200 000/00 RMK AO2 T01720161
13873KAHN AHN20160530040510805/30/16 04:05:31  5-MIN KAHN 300905Z AUTO 00000KT 10SM CLR 18/16 A3003 710 90 1200 000/00 RMK AO2 T01780161
13873KAHN AHN20160530041010805/30/16 04:10:31  5-MIN KAHN 300910Z AUTO 00000KT 10SM CLR 18/16 A3003 710 90 1200 000/00 RMK AO2 T01780161
13873KAHN AHN20160530041510805/30/16 04:15:31  5-MIN KAHN 300915Z AUTO 00000KT 10SM CLR 18/16 A3003 710 90 1200 000/00 RMK AO2 T01780161
13873KAHN AHN20160530042010805/30/16 04:20:31  5-MIN KAHN 300920Z AUTO 00000KT 10SM CLR 17/16 A3002 720 93 1200 000/00 RMK AO2 T01720161
13873KAHN AHN20160530042510805/30/16 04:25:31  5-MIN KAHN 300925Z AUTO 00000KT 10SM CLR 17/16 A3002 720 93 1200 000/00 RMK AO2 T01720161
13873KAHN AHN20160530043010805/30/16 04:30:31  5-MIN KAHN 300930Z AUTO 00000KT 10SM CLR 17/16 A3002 720 93 1200 000/00 RMK AO2 T01720161
13873KAHN AHN20160530043510805/30/16 04:35:31  5-MIN KAHN 300935Z AUTO 00000KT 10SM CLR 17/16 A3002 720 93 1200 000/00 RMK AO2 T01720161
13873KAHN AHN20160530044010805/30/16 04:40:31  5-MIN KAHN 300940Z AUTO 00000KT 10SM CLR 17/16 A3002 720 93 1200 000/00 RMK AO2 T01720161
13873KAHN AHN20160530044511505/30/16 04:45:31  5-MIN KAHN 300945Z AUTO 00000KT 10SM CLR 17/16 A3002 720 96 1100 000/00 RMK AO2 SLP160 T01670161
13873KAHN AHN20160530045011505/30/16 04:50:31  5-MIN KAHN 300950Z AUTO 00000KT 10SM CLR 17/16 A3002 720 93 1200 000/00 RMK AO2 SLP159 T01720161
13873KAHN AHN20160530045510805/30/16 04:55:31  5-MIN KAHN 300955Z AUTO 00000KT 10SM CLR 17/16 A3002 720 93 1200 000/00 RMK AO2 T01720161
13873KAHN AHN20160530050010805/30/16 05:00:31  5-MIN KAHN 301000Z AUTO 00000KT 10SM CLR 17/16 A3002 720 96 1100 000/00 RMK AO2 T01670161
13873KAHN AHN20160530050510805/30/16 05:05:31  5-MIN KAHN 301005Z AUTO 00000KT 10SM CLR 17/16 A3002 720 93 1200 000/00 RMK AO2 T01720161
13873KAHN AHN20160530051010805/30/16 05:10:31  5-MIN KAHN 301010Z AUTO 00000KT 10SM CLR 17/16 A3002 720 96 1100 000/00 RMK AO2 T01670161
13873KAHN AHN20160530051510805/30/16 05:15:31  5-MIN KAHN 301015Z AUTO 00000KT 10SM CLR 17/16 A3002 720 96 1100 000/00 RMK AO2 T01670161
13873KAHN AHN20160530052010805/30/16 05:20:31  5-MIN KAHN 301020Z AUTO 00000KT 10SM CLR 17/16 A3002 720 96 1100 000/00 RMK AO2 T01670161
13873KAHN AHN20160530052510705/30/16 05:25:31  5-MIN KAHN 301025Z AUTO 00000KT 9SM CLR 17/16 A3002 710 96 1100 000/00 RMK AO2 T01670161
13873KAHN AHN20160530053010705/30/16 05:30:31  5-MIN KAHN 301030Z AUTO 00000KT 9SM CLR 17/16 A3002 720 93 1100 000/00 RMK AO2 T01670156
13873KAHN AHN20160530053510705/30/16 05:35:31  5-MIN KAHN 301035Z AUTO 00000KT 9SM CLR 16/16 A3002 720 96 1100 000/00 RMK AO2 T01610156
13873KAHN AHN20160530054010805/30/16 05:40:31  5-MIN KAHN 301040Z AUTO 00000KT 10SM CLR 17/16 A3002 720 96 1100 000/00 RMK AO2 T01670161
13873KAHN AHN20160530054511505/30/16 05:45:31  5-MIN KAHN 301045Z AUTO 00000KT 10SM CLR 17/16 A3003 710 96 1100 000/00 RMK AO2 SLP162 T01670161
13873KAHN AHN20160530055011505/30/16 05:50:31  5-MIN KAHN 301050Z AUTO 00000KT 10SM CLR 17/16 A3003 710 96 1100 000/00 RMK AO2 SLP164 T01670161
13873KAHN AHN20160530055510805/30/16 05:55:31  5-MIN KAHN 301055Z AUTO 00000KT 10SM CLR 17/16 A3003 710 96 1100 000/00 RMK AO2 T01670161
13873KAHN AHN20160530060010805/30/16 06:00:31  5-MIN KAHN 301100Z AUTO 00000KT 10SM CLR 17/16 A3003 710 96 1100 000/00 RMK AO2 T01670161
13873KAHN AHN20160530060510805/30/16 06:05:31  5-MIN KAHN 301105Z AUTO 28003KT 10SM CLR 17/16 A3003 710 96 1100 280/03 RMK AO2 T01670161
13873KAHN AHN20160530061010805/30/16 06:10:31  5-MIN KAHN 301110Z AUTO 00000KT 9SM CLR 17/17 A3003 710 100 1100 000/00 RMK AO2 T01670167
13873KAHN AHN20160530061510705/30/16 06:15:31  5-MIN KAHN 301115Z AUTO 00000KT 9SM CLR 17/17 A3004 700 96 1200 000/00 RMK AO2 T01720167
13873KAHN AHN20160530062010705/30/16 06:20:31  5-MIN KAHN 301120Z AUTO 00000KT 9SM CLR 18/17 A3004 700 93 1200 000/00 RMK AO2 T01780167
13873KAHN AHN20160530062510705/30/16 06:25:31  5-MIN KAHN 301125Z AUTO 00000KT 9SM CLR 18/17 A3004 700 93 1300 000/00 RMK AO2 T01830172
13873KAHN AHN20160530063010805/30/16 06:30:31  5-MIN KAHN 301130Z AUTO 00000KT 10SM CLR 19/17 A3004 700 90 1400 000/00 RMK AO2 T01890172
13873KAHN AHN20160530063510305/30/16 06:35:31  5-MIN KAHN 301135Z 00000KT 10SM CLR 19/17 A3004 700 84 1400 000/00 RMK AO2 T01940167
13873KAHN AHN20160530064010305/30/16 06:40:31  5-MIN KAHN 301140Z 00000KT 10SM CLR 20/17 A3004 700 81 1500 000/00 RMK AO2 T02000167
13873KAHN AHN20160530064512805/30/16 06:45:31  5-MIN KAHN 301145Z 06003KT 10SM CLR 20/17 A3003 710 81 1500 060/03 RMK AO2 SLP164 T02000167 10200 20161 55001
13873KAHN AHN20160530065012805/30/16 06:50:31  5-MIN KAHN 301150Z 00000KT 10SM CLR 20/17 A3004 700 84 1500 000/00 RMK AO2 SLP166 T02000172 10200 20161 55001
13873KAHN AHN20160530065510305/30/16 06:55:31  5-MIN KAHN 301155Z 00000KT 10SM CLR 21/17 A3004 700 81 1600 000/00 RMK AO2 T02060172
13873KAHN AHN20160530070010305/30/16 07:00:31  5-MIN KAHN 301200Z 00000KT 10SM CLR 21/17 A3004 700 78 1600 000/00 RMK AO2 T02110172
13873KAHN AHN20160530070510305/30/16 07:05:31  5-MIN KAHN 301205Z 00000KT 10SM CLR 21/17 A3004 700 75 1600 000/00 RMK AO2 T02110167
13873KAHN AHN20160530071010305/30/16 07:10:31  5-MIN KAHN 301210Z 00000KT 10SM CLR 21/17 A3004 700 78 1600 000/00 RMK AO2 T02110172
13873KAHN AHN20160530071510305/30/16 07:15:31  5-MIN KAHN 301215Z 00000KT 10SM CLR 21/17 A3004 700 78 1600 000/00 RMK AO2 T02110172
13873KAHN AHN20160530072010305/30/16 07:20:31  5-MIN KAHN 301220Z 30003KT 10SM CLR 22/17 A3004 700 75 1700 300/03 RMK AO2 T02170172
13873KAHN AHN20160530072510305/30/16 07:25:31  5-MIN KAHN 301225Z 00000KT 10SM CLR 22/18 A3004 700 78 1700 000/00 RMK AO2 T02170178
13873KAHN AHN20160530073010305/30/16 07:30:31  5-MIN KAHN 301230Z 00000KT 10SM CLR 22/17 A3005 690 73 1700 000/00 RMK AO2 T02220172
13873KAHN AHN20160530073510305/30/16 07:35:31  5-MIN KAHN 301235Z 00000KT 10SM CLR 22/18 A3005 690 75 1700 000/00 RMK AO2 T02220178
13873KAHN AHN20160530074010305/30/16 07:40:31  5-MIN KAHN 301240Z 34003KT 10SM CLR 23/17 A3005 690 70 1800 340/03 RMK AO2 T02280172
13873KAHN AHN20160530074511005/30/16 07:45:31  5-MIN KAHN 301245Z 34003KT 10SM CLR 23/18 A3005 690 73 1800 340/03 RMK AO2 SLP169 T02280178
13873KAHN AHN20160530075011005/30/16 07:50:31  5-MIN KAHN 301250Z 34003KT 10SM CLR 23/18 A3005 690 73 1800 340/03 RMK AO2 SLP170 T02280178
13873KAHN AHN20160530075510305/30/16 07:55:31  5-MIN KAHN 301255Z 34003KT 10SM CLR 23/18 A3005 690 70 1900 350/03 RMK AO2 T02330178
13873KAHN AHN20160530080010305/30/16 08:00:31  5-MIN KAHN 301300Z 00000KT 10SM CLR 23/17 A3005 690 68 1900 000/00 RMK AO2 T02330172
13873KAHN AHN20160530080510305/30/16 08:05:31  5-MIN KAHN 301305Z VRB03KT 10SM CLR 23/17 A3005 690 68 1900 VRB/03 RMK AO2 T02330172
13873KAHN AHN20160530081010305/30/16 08:10:31  5-MIN KAHN 301310Z 34003KT 10SM CLR 24/17 A3005 690 66 1900 350/03 RMK AO2 T02390172
13873KAHN AHN20160530081510305/30/16 08:15:31  5-MIN KAHN 301315Z 02003KT 10SM CLR 24/18 A3005 690 68 1900 030/03 RMK AO2 T02390178
13873KAHN AHN20160530082010305/30/16 08:20:31  5-MIN KAHN 301320Z VRB03KT 10SM CLR 24/17 A3004 700 66 1900 VRB/03 RMK AO2 T02390172
13873KAHN AHN20160530082510305/30/16 08:25:31  5-MIN KAHN 301325Z 00000KT 10SM CLR 24/17 A3004 700 66 1900 000/00 RMK AO2 T02390172
13873KAHN AHN20160530083010305/30/16 08:30:31  5-MIN KAHN 301330Z 00000KT 10SM CLR 24/17 A3005 690 66 1900 000/00 RMK AO2 T02390172
13873KAHN AHN20160530083510305/30/16 08:35:31  5-MIN KAHN 301335Z 00000KT 10SM CLR 25/17 A3005 690 61 2000 000/00 RMK AO2 T02500172
13873KAHN AHN20160530084010305/30/16 08:40:31  5-MIN KAHN 301340Z 00000KT 10SM CLR 25/17 A3005 690 61 2000 000/00 RMK AO2 T02500172
13873KAHN AHN20160530084511005/30/16 08:45:31  5-MIN KAHN 301345Z 30003KT 10SM CLR 25/17 A3005 690 61 2000 300/03 RMK AO2 SLP169 T02500172
13873KAHN AHN20160530085011005/30/16 08:50:31  5-MIN KAHN 301350Z 00000KT 10SM CLR 25/17 A3005 690 61 2000 000/00 RMK AO2 SLP170 T02500172
13873KAHN AHN20160530085510305/30/16 08:55:31  5-MIN KAHN 301355Z VRB04KT 10SM CLR 25/17 A3005 690 61 2000 VRB/04 RMK AO2 T02500172
13873KAHN AHN20160530090010305/30/16 09:00:31  5-MIN KAHN 301400Z VRB04KT 10SM CLR 26/17 A3005 690 59 2100 VRB/04 RMK AO2 T02560172
13873KAHN AHN20160530090510305/30/16 09:05:31  5-MIN KAHN 301405Z 00000KT 10SM CLR 25/17 A3005 690 61 2000 000/00 RMK AO2 T02500172
13873KAHN AHN20160530091010305/30/16 09:10:31  5-MIN KAHN 301410Z 32003KT 10SM CLR 26/17 A3005 690 59 2100 330/03 RMK AO2 T02560172
13873KAHN AHN20160530091510305/30/16 09:15:31  5-MIN KAHN 301415Z 00000KT 10SM CLR 25/17 A3004 700 61 2100 000/00 RMK AO2 T02500172
13873KAHN AHN20160530092010305/30/16 09:20:31  5-MIN KAHN 301420Z 34003KT 10SM CLR 26/17 A3004 700 59 2100 340/03 RMK AO2 T02560172
13873KAHN AHN20160530092510305/30/16 09:25:31  5-MIN KAHN 301425Z VRB03KT 10SM CLR 26/17 A3004 700 59 2100 VRB/03 RMK AO2 T02560172
13873KAHN AHN20160530093010305/30/16 09:30:31  5-MIN KAHN 301430Z 00000KT 10SM CLR 26/17 A3004 700 59 2100 000/00 RMK AO2 T02560172
13873KAHN AHN20160530093510305/30/16 09:35:31  5-MIN KAHN 301435Z 36003KT 10SM CLR 27/18 A3004 700 57 2200 010/03 RMK AO2 T02670178
13873KAHN AHN20160530094010305/30/16 09:40:31  5-MIN KAHN 301440Z 00000KT 10SM CLR 27/18 A3004 700 57 2200 000/00 RMK AO2 T02670178
13873KAHN AHN20160530094511605/30/16 09:45:31  5-MIN KAHN 301445Z 00000KT 10SM CLR 27/18 A3003 710 57 2300 000/00 RMK AO2 SLP163 T02670178 53004
13873KAHN AHN20160530095011605/30/16 09:50:31  5-MIN KAHN 301450Z VRB04KT 10SM CLR 27/18 A3003 710 57 2300 VRB/04 RMK AO2 SLP162 T02670178 53004
13873KAHN AHN20160530095510305/30/16 09:55:31  5-MIN KAHN 301455Z 31005KT 10SM CLR 27/18 A3003 710 57 2300 320/05 RMK AO2 T02670178
13873KAHN AHN20160530100010305/30/16 10:00:31  5-MIN KAHN 301500Z VRB03KT 10SM CLR 27/18 A3003 710 56 2300 VRB/03 RMK AO2 T02720178
13873KAHN AHN20160530100510305/30/16 10:05:31  5-MIN KAHN 301505Z 00000KT 10SM CLR 27/18 A3003 710 56 2300 000/00 RMK AO2 T02720178
13873KAHN AHN20160530101010305/30/16 10:10:31  5-MIN KAHN 301510Z 00000KT 10SM CLR 27/18 A3003 710 56 2300 000/00 RMK AO2 T02720178
13873KAHN AHN20160530101510305/30/16 10:15:31  5-MIN KAHN 301515Z VRB03KT 10SM CLR 28/18 A3003 710 54 2400 VRB/03 RMK AO2 T02780178
13873KAHN AHN20160530102010305/30/16 10:20:31  5-MIN KAHN 301520Z 00000KT 10SM CLR 28/18 A3003 710 54 2400 000/00 RMK AO2 T02830183
13873KAHN AHN20160530102510305/30/16 10:25:31  5-MIN KAHN 301525Z 00000KT 10SM CLR 28/18 A3003 710 54 2400 000/00 RMK AO2 T02780178
13873KAHN AHN20160530103010305/30/16 10:30:31  5-MIN KAHN 301530Z 29003KT 10SM CLR 28/18 A3003 710 54 2400 290/03 RMK AO2 T02830183
13873KAHN AHN20160530103510305/30/16 10:35:31  5-MIN KAHN 301535Z 00000KT 10SM CLR 28/18 A3002 710 54 2400 000/00 RMK AO2 T02780178
13873KAHN AHN20160530104010305/30/16 10:40:31  5-MIN KAHN 301540Z 00000KT 10SM CLR 28/18 A3002 720 54 2400 000/00 RMK AO2 T02780178
13873KAHN AHN20160530104511005/30/16 10:45:31  5-MIN KAHN 301545Z 31005KT 10SM CLR 28/18 A3002 720 54 2400 320/05 RMK AO2 SLP159 T02830183
13873KAHN AHN20160530105011005/30/16 10:50:31  5-MIN KAHN 301550Z VRB03KT 10SM CLR 28/18 A3002 720 52 2500 VRB/03 RMK AO2 SLP158 T02830178
13873KAHN AHN20160530105510305/30/16 10:55:31  5-MIN KAHN 301555Z VRB04KT 10SM CLR 29/18 A3002 720 52 2500 VRB/04 RMK AO2 T02890183
13873KAHN AHN20160530110010305/30/16 11:00:31  5-MIN KAHN 301600Z 00000KT 10SM CLR 29/18 A3001 720 50 2500 000/00 RMK AO2 T02890178
13873KAHN AHN20160530110510305/30/16 11:05:31  5-MIN KAHN 301605Z VRB05KT 10SM CLR 30/18 A3002 720 49 2600 VRB/05 RMK AO2 T03000183
13873KAHN AHN20160530111010305/30/16 11:10:31  5-MIN KAHN 301610Z VRB04KT 10SM CLR 29/18 A3002 720 49 2600 VRB/04 RMK AO2 T02940178
13873KAHN AHN20160530111510305/30/16 11:15:31  5-MIN KAHN 301615Z 26004KT 10SM CLR 29/18 A3002 720 49 2600 270/04 RMK AO2 T02940178
13873KAHN AHN20160530112010305/30/16 11:20:31  5-MIN KAHN 301620Z VRB04KT 10SM CLR 29/18 A3002 720 49 2600 VRB/04 RMK AO2 T02940178
13873KAHN AHN20160530112510305/30/16 11:25:31  5-MIN KAHN 301625Z 00000KT 10SM CLR 30/18 A3002 720 47 2600 000/00 RMK AO2 T03000178
13873KAHN AHN20160530113010305/30/16 11:30:31  5-MIN KAHN 301630Z VRB04KT 10SM CLR 30/18 A3002 720 47 2600 VRB/04 RMK AO2 T03000178
13873KAHN AHN20160530113510305/30/16 11:35:31  5-MIN KAHN 301635Z VRB03KT 10SM CLR 31/18 A3001 720 47 2700 VRB/03 RMK AO2 T03060183
13873KAHN AHN20160530114010305/30/16 11:40:31  5-MIN KAHN 301640Z VRB05KT 10SM CLR 30/18 A3001 730 47 2600 VRB/05 RMK AO2 T03000178
13873KAHN AHN20160530114511005/30/16 11:45:31  5-MIN KAHN 301645Z VRB04KT 10SM CLR 30/18 A3001 730 47 2600 VRB/04 RMK AO2 SLP155 T03000178
13873KAHN AHN20160530115011005/30/16 11:50:31  5-MIN KAHN 301650Z VRB05KT 10SM CLR 31/18 A3001 730 46 2700 VRB/05 RMK AO2 SLP154 T03060178
13873KAHN AHN20160530115510305/30/16 11:55:31  5-MIN KAHN 301655Z VRB03KT 10SM CLR 30/17 A3001 730 45 2700 VRB/03 RMK AO2 T03000172
13873KAHN AHN20160530120010305/30/16 12:00:31  5-MIN KAHN 301700Z 00000KT 10SM CLR 30/17 A3000 730 45 2700 000/00 RMK AO2 T03000172
13873KAHN AHN20160530120510305/30/16 12:05:31  5-MIN KAHN 301705Z VRB05KT 10SM CLR 31/18 A3000 730 46 2700 VRB/05 RMK AO2 T03060178
13873KAHN AHN20160530121010305/30/16 12:10:31  5-MIN KAHN 301710Z VRB05KT 10SM CLR 31/18 A3000 740 44 2800 VRB/05 RMK AO2 T03110178
13873KAHN AHN20160530121510305/30/16 12:15:31  5-MIN KAHN 301715Z 12004KT 10SM CLR 31/17 A2999 740 44 2700 120/04 RMK AO2 T03060172
13873KAHN AHN20160530122010605/30/16 12:20:31  5-MIN KAHN 301720Z VRB03KT 10SM FEW050 31/17 A2999 750 44 2700 VRB/03 RMK AO2 T03060172
13873KAHN AHN20160530122510605/30/16 12:25:31  5-MIN KAHN 301725Z 00000KT 10SM FEW050 31/17 A2999 750 44 2700 000/00 RMK AO2 T03060172
13873KAHN AHN20160530123010605/30/16 12:30:31  5-MIN KAHN 301730Z VRB03KT 10SM SCT055 31/17 A2999 750 42 2800 VRB/03 RMK AO2 T03110172
13873KAHN AHN20160530123510605/30/16 12:35:31  5-MIN KAHN 301735Z 00000KT 10SM SCT055 31/17 A2998 750 42 2800 000/00 RMK AO2 T03110172
13873KAHN AHN20160530124010605/30/16 12:40:31  5-MIN KAHN 301740Z VRB03KT 10SM FEW055 32/18 A2998 750 43 2900 VRB/03 RMK AO2 T03170178
13873KAHN AHN20160530124513105/30/16 12:45:31  5-MIN KAHN 301745Z 00000KT 10SM FEW055 32/17 A2998 750 41 2900 000/00 RMK AO2 SLP146 T03170172 10317 20200 58001
13873KAHN AHN20160530125013105/30/16 12:50:31  5-MIN KAHN 301750Z 00000KT 10SM SCT055 31/17 A2998 750 42 2800 000/00 RMK AO2 SLP145 T03110172 10317 20200 58001
13873KAHN AHN20160530125511305/30/16 12:55:31  5-MIN KAHN 301755Z VRB03KT 10SM SCT060 SCT090 31/17 A2998 760 42 2800 VRB/03 RMK AO2 T03110172
13873KAHN AHN20160530130011305/30/16 13:00:31  5-MIN KAHN 301800Z 00000KT 10SM SCT055 SCT090 32/17 A2998 750 41 2900 000/00 RMK AO2 T03170172
13873KAHN AHN20160530130510605/30/16 13:05:31  5-MIN KAHN 301805Z 00000KT 10SM BKN055 31/17 A2998 760 42 2800 000/00 RMK AO2 T03110172
13873KAHN AHN20160530131010605/30/16 13:10:31  5-MIN KAHN 301810Z VRB03KT 10SM BKN055 32/17 A2998 760 41 2900 VRB/03 RMK AO2 T03170172
13873KAHN AHN20160530131510605/30/16 13:15:31  5-MIN KAHN 301815Z VRB04KT 10SM SCT060 32/17 A2997 760 40 2900 VRB/04 RMK AO2 T03220172
13873KAHN AHN20160530132010605/30/16 13:20:31  5-MIN KAHN 301820Z VRB04KT 10SM SCT055 32/17 A2997 760 40 2900 VRB/04 RMK AO2 T03220172
13873KAHN AHN20160530132510605/30/16 13:25:31  5-MIN KAHN 301825Z VRB03KT 10SM SCT055 32/17 A2997 760 40 2900 VRB/03 RMK AO2 T03170167
13873KAHN AHN20160530133010605/30/16 13:30:31  5-MIN KAHN 301830Z VRB04KT 10SM FEW055 32/17 A2997 770 41 2900 VRB/04 RMK AO2 T03170172
13873KAHN AHN20160530133510305/30/16 13:35:31  5-MIN KAHN 301835Z 00000KT 10SM CLR 32/17 A2997 770 38 2900 000/00 RMK AO2 T03220167
13873KAHN AHN20160530134009305/30/16 13:40:31  5-MIN KAHN 301840Z 10SM CLR 32/17 A2996 770 40 2900 M /M RMK AO2 T03170167
13873KAHN AHN20160530134511005/30/16 13:45:31  5-MIN KAHN 301845Z VRB03KT 10SM CLR 32/16 A2996 770 38 2900 VRB/03 RMK AO2 SLP138 T03170161
13873KAHN AHN20160530135011005/30/16 13:50:31  5-MIN KAHN 301850Z 00000KT 10SM CLR 32/16 A2996 770 37 2900 000/00 RMK AO2 SLP138 T03220161
13873KAHN AHN20160530135510305/30/16 13:55:31  5-MIN KAHN 301855Z 09003KT 10SM CLR 32/16 A2996 780 37 3000 100/03 RMK AO2 T03220161
13873KAHN AHN20160530140010305/30/16 14:00:31  5-MIN KAHN 301900Z 00000KT 10SM CLR 32/16 A2996 780 36 3000 000/00 RMK AO2 T03220156
13873KAHN AHN20160530140510305/30/16 14:05:31  5-MIN KAHN 301905Z 02003KT 10SM CLR 33/16 A2995 780 35 3000 020/03 RMK AO2 T03280156
13873KAHN AHN20160530141010305/30/16 14:10:31  5-MIN KAHN 301910Z 30006KT 10SM CLR 33/16 A2995 780 36 3000 300/06 RMK AO2 T03280161
13873KAHN AHN20160530141510305/30/16 14:15:31  5-MIN KAHN 301915Z 29004KT 10SM CLR 33/16 A2995 780 36 3000 300/04 RMK AO2 T03280161
13873KAHN AHN20160530142010305/30/16 14:20:31  5-MIN KAHN 301920Z 30003KT 10SM CLR 32/16 A2995 780 36 3000 310/03 RMK AO2 T03220156
13873KAHN AHN20160530142510305/30/16 14:25:31  5-MIN KAHN 301925Z 00000KT 10SM CLR 32/15 A2995 780 34 3000 000/00 RMK AO2 T03220150
13873KAHN AHN20160530143010605/30/16 14:30:31  5-MIN KAHN 301930Z VRB03KT 10SM FEW110 33/16 A2995 790 33 3100 VRB/03 RMK AO2 T03330156
13873KAHN AHN20160530143510605/30/16 14:35:31  5-MIN KAHN 301935Z VRB03KT 10SM FEW110 33/16 A2995 790 35 3000 VRB/03 RMK AO2 T03280156
13873KAHN AHN20160530144010305/30/16 14:40:31  5-MIN KAHN 301940Z 00000KT 10SM CLR 32/14 A2994 790 33 3000 000/00 RMK AO2 T03220144
13873KAHN AHN20160530144511005/30/16 14:45:31  5-MIN KAHN 301945Z 00000KT 10SM CLR 33/14 A2994 790 31 3100 000/00 RMK AO2 SLP130 T03330144
13873KAHN AHN20160530145011305/30/16 14:50:31  5-MIN KAHN 301950Z VRB05KT 10SM FEW080 33/15 A2994 790 32 3100 VRB/05 RMK AO2 SLP130 T03330150
13873KAHN AHN20160530145510605/30/16 14:55:31  5-MIN KAHN 301955Z VRB03KT 10SM SCT075 32/15 A2994 800 34 3000 VRB/03 RMK AO2 T03220150
13873KAHN AHN20160530150011705/30/16 15:00:31  5-MIN KAHN 302000Z 00000KT 10SM BKN075 33/14 A2993 800 32 3000 000/00 RMK AO2 LTG DSNT N T03280144
13873KAHN AHN20160530150511705/30/16 15:05:31  5-MIN KAHN 302005Z VRB03KT 10SM SCT070 33/15 A2993 800 32 3100 VRB/03 RMK AO2 LTG DSNT N T03330150
13873KAHN AHN20160530151011705/30/16 15:10:31  5-MIN KAHN 302010Z VRB03KT 10SM SCT070 33/15 A2993 800 32 3100 VRB/03 RMK AO2 LTG DSNT N T03330150
13873KAHN AHN20160530151511705/30/16 15:15:31  5-MIN KAHN 302015Z VRB06KT 10SM SCT075 34/14 A2993 800 30 3200 VRB/06 RMK AO2 LTG DSNT N T03390144
13873KAHN AHN20160530152010605/30/16 15:20:31  5-MIN KAHN 302020Z 33004KT 10SM SCT070 34/14 A2993 800 30 3200 330/04 RMK AO2 T03390144
13873KAHN AHN20160530152510605/30/16 15:25:31  5-MIN KAHN 302025Z VRB04KT 10SM FEW070 33/14 A2993 810 30 3100 VRB/04 RMK AO2 T03330139
13873KAHN AHN20160530153010305/30/16 15:30:31  5-MIN KAHN 302030Z VRB03KT 10SM CLR 33/14 A2992 810 31 3100 VRB/03 RMK AO2 T03280139
13873KAHN AHN20160530153510805/30/16 15:35:31  5-MIN KAHN 302035Z AUTO 29005KT 10SM CLR 32/14 A2993 810 32 3000 300/05 RMK AO2 T03220139
13873KAHN AHN20160530154010805/30/16 15:40:31  5-MIN KAHN 302040Z AUTO 00000KT 10SM CLR 33/14 A2992 810 31 3100 000/00 RMK AO2 T03280139
13873KAHN AHN20160530154512105/30/16 15:45:31  5-MIN KAHN 302045Z AUTO VRB05KT 10SM CLR 33/14 A2992 810 32 3000 VRB/05 RMK AO2 SLP125 T03280144 58017
13873KAHN AHN20160530155011605/30/16 15:50:31  5-MIN KAHN 302050Z 33004KT 10SM CLR 33/14 A2992 810 32 3100 340/04 RMK AO2 SLP124 T03280144 58017
13873KAHN AHN20160530155510605/30/16 15:55:31  5-MIN KAHN 302055Z 31004KT 10SM FEW120 33/14 A2992 810 31 3100 320/04 RMK AO2 T03330144
13873KAHN AHN20160530160010605/30/16 16:00:31  5-MIN KAHN 302100Z VRB04KT 10SM FEW120 33/14 A2992 810 31 3100 VRB/04 RMK AO2 T03330144
13873KAHN AHN20160530160510605/30/16 16:05:31  5-MIN KAHN 302105Z VRB04KT 10SM FEW120 33/14 A2992 810 30 3100 VRB/04 RMK AO2 T03330139
13873KAHN AHN20160530161011305/30/16 16:10:31  5-MIN KAHN 302110Z VRB05KT 10SM FEW080 FEW110 33/14 A2992 810 31 3100 VRB/05 RMK AO2 T03330144
13873KAHN AHN20160530161511305/30/16 16:15:31  5-MIN KAHN 302115Z 34004KT 10SM FEW080 FEW110 31/15 A2992 810 37 2900 350/04 RMK AO2 T03110150
13873KAHN AHN20160530162011305/30/16 16:20:31  5-MIN KAHN 302120Z 04004KT 10SM FEW090 SCT110 31/16 A2991 820 38 2900 050/04 RMK AO2 T03110156
13873KAHN AHN20160530162511305/30/16 16:25:31  5-MIN KAHN 302125Z VRB05KT 10SM FEW090 SCT110 31/16 A2992 810 40 2900 VRB/05 RMK AO2 T03110161
13873KAHN AHN20160530163012905/30/16 16:30:31  5-MIN KAHN 302130Z 03007KT 350V070 10SM FEW080 SCT110 31/16 A2992 810 41 2800 040/07 360V080 RMK AO2 T03060161
13873KAHN AHN20160530163511305/30/16 16:35:31  5-MIN KAHN 302135Z 05005KT 10SM FEW080 FEW110 30/16 A2992 810 42 2800 050/05 RMK AO2 T03000161
13873KAHN AHN20160530164010605/30/16 16:40:31  5-MIN KAHN 302140Z 05006KT 10SM FEW110 30/16 A2992 810 42 2800 060/06 RMK AO2 T03000161
13873KAHN AHN20160530164511305/30/16 16:45:31  5-MIN KAHN 302145Z 06006KT 10SM FEW110 30/17 A2992 810 44 2800 070/06 RMK AO2 SLP124 T03000167
13873KAHN AHN20160530165011005/30/16 16:50:31  5-MIN KAHN 302150Z 08006KT 10SM CLR 31/17 A2992 820 42 2900 080/06 RMK AO2 SLP123 T03110172
13873KAHN AHN20160530165510305/30/16 16:55:31  5-MIN KAHN 302155Z 07005KT 10SM CLR 31/17 A2991 820 42 2800 080/05 RMK AO2 T03060167
13873KAHN AHN20160530170010305/30/16 17:00:31  5-MIN KAHN 302200Z 07006KT 10SM CLR 31/16 A2992 810 40 2900 080/06 RMK AO2 T03110161
13873KAHN AHN20160530170510305/30/16 17:05:31  5-MIN KAHN 302205Z 08005KT 10SM CLR 31/17 A2992 810 41 2900 080/05 RMK AO2 T03110167
13873KAHN AHN20160530171010305/30/16 17:10:31  5-MIN KAHN 302210Z 06005KT 10SM CLR 31/16 A2992 820 40 2900 070/05 RMK AO2 T03110161
13873KAHN AHN20160530171510305/30/16 17:15:31  5-MIN KAHN 302215Z 07004KT 10SM CLR 30/16 A2991 820 42 2800 070/04 RMK AO2 T03000161
13873KAHN AHN20160530172010305/30/16 17:20:31  5-MIN KAHN 302220Z 00000KT 10SM CLR 29/17 A2991 820 45 2700 000/00 RMK AO2 T02940167
13873KAHN AHN20160530172510305/30/16 17:25:31  5-MIN KAHN 302225Z 00000KT 10SM CLR 29/17 A2991 820 48 2600 000/00 RMK AO2 T02890172
13873KAHN AHN20160530173010605/30/16 17:30:31  5-MIN KAHN 302230Z 00000KT 10SM FEW075 29/17 A2992 810 48 2600 000/00 RMK AO2 T02890172
13873KAHN AHN20160530173510605/30/16 17:35:31  5-MIN KAHN 302235Z 00000KT 10SM FEW070 28/18 A2992 810 54 2600 000/00 RMK AO2 T02830183
13873KAHN AHN20160530174010605/30/16 17:40:31  5-MIN KAHN 302240Z 00000KT 10SM FEW070 28/18 A2991 820 54 2600 000/00 RMK AO2 T02830183
13873KAHN AHN20160530174511005/30/16 17:45:31  5-MIN KAHN 302245Z 00000KT 10SM CLR 28/18 A2991 820 52 2600 000/00 RMK AO2 SLP124 T02830178
13873KAHN AHN20160530175011005/30/16 17:50:31  5-MIN KAHN 302250Z VRB03KT 10SM CLR 31/18 A2991 820 46 2800 VRB/03 RMK AO2 SLP122 T03060178
13873KAHN AHN20160530175510305/30/16 17:55:31  5-MIN KAHN 302255Z 00000KT 10SM CLR 31/17 A2991 820 42 2900 000/00 RMK AO2 T03110172
13873KAHN AHN20160530180010305/30/16 18:00:31  5-MIN KAHN 302300Z 00000KT 10SM CLR 31/16 A2991 820 40 2900 000/00 RMK AO2 T03110161
13873KAHN AHN20160530180510305/30/16 18:05:31  5-MIN KAHN 302305Z 33003KT 10SM CLR 31/16 A2991 820 40 2900 330/03 RMK AO2 T03110161
13873KAHN AHN20160530181010305/30/16 18:10:31  5-MIN KAHN 302310Z 30003KT 10SM CLR 31/16 A2991 820 40 2900 310/03 RMK AO2 T03110161
13873KAHN AHN20160530181510305/30/16 18:15:31  5-MIN KAHN 302315Z VRB03KT 10SM CLR 31/17 A2991 820 41 2900 VRB/03 RMK AO2 T03110167
13873KAHN AHN20160530182009605/30/16 18:20:31  5-MIN KAHN 302320Z 10SM FEW085 31/16 A2991 820 40 2900 M /M RMK AO2 T03110161
13873KAHN AHN20160530182510605/30/16 18:25:31  5-MIN KAHN 302325Z 32003KT 10SM FEW085 31/16 A2991 820 38 2900 320/03 RMK AO2 T03110156
13873KAHN AHN20160530183010605/30/16 18:30:31  5-MIN KAHN 302330Z VRB03KT 10SM SCT090 31/16 A2991 820 40 2900 VRB/03 RMK AO2 T03110161
13873KAHN AHN20160530183510605/30/16 18:35:31  5-MIN KAHN 302335Z 34004KT 10SM SCT090 31/16 A2991 820 40 2900 350/04 RMK AO2 T03110161
13873KAHN AHN20160530184010605/30/16 18:40:31  5-MIN KAHN 302340Z 05005KT 10SM SCT090 31/17 A2992 810 42 2800 060/05 RMK AO2 T03060167
13873KAHN AHN20160530184513105/30/16 18:45:31  5-MIN KAHN 302345Z 06007KT 10SM SCT090 29/18 A2992 810 49 2700 070/07 RMK AO2 SLP124 T02940178 10339 20283 56020
13873KAHN AHN20160530185013105/30/16 18:50:31  5-MIN KAHN 302350Z 05005KT 10SM FEW090 29/18 A2992 810 49 2700 050/05 RMK AO2 SLP125 T02940178 10339 20283 56020
13873KAHN AHN20160530185510605/30/16 18:55:31  5-MIN KAHN 302355Z 05004KT 10SM FEW090 29/17 A2992 810 48 2600 060/04 RMK AO2 T02890172
13873KAHN AHN20160530190011105/30/16 19:00:31  5-MIN KAHN 310000Z AUTO 06005KT 10SM FEW090 28/18 A2992 810 52 2600 070/05 RMK AO2 T02830178
13873KAHN AHN20160530190510805/30/16 19:05:31  5-MIN KAHN 310005Z AUTO 07006KT 10SM CLR 28/17 A2992 810 50 2600 070/06 RMK AO2 T02830172
13873KAHN AHN20160530191010805/30/16 19:10:31  5-MIN KAHN 310010Z AUTO 07005KT 10SM CLR 28/17 A2992 810 52 2500 080/05 RMK AO2 T02780172
13873KAHN AHN20160530191510805/30/16 19:15:31  5-MIN KAHN 310015Z AUTO 08005KT 10SM CLR 27/17 A2992 810 54 2400 080/05 RMK AO2 T02720172
13873KAHN AHN20160530192010805/30/16 19:20:31  5-MIN KAHN 310020Z AUTO 07005KT 10SM CLR 27/18 A2992 810 56 2400 080/05 RMK AO2 T02720178
13873KAHN AHN20160530192510805/30/16 19:25:31  5-MIN KAHN 310025Z AUTO 08004KT 10SM CLR 27/18 A2992 810 57 2400 080/04 RMK AO2 T02670178
13873KAHN AHN20160530193010805/30/16 19:30:31  5-MIN KAHN 310030Z AUTO 07004KT 10SM CLR 26/18 A2992 810 59 2300 080/04 RMK AO2 T02610178
13873KAHN AHN20160530193510805/30/16 19:35:31  5-MIN KAHN 310035Z AUTO 08004KT 10SM CLR 26/18 A2992 810 61 2300 080/04 RMK AO2 T02560178
13873KAHN AHN20160530194010805/30/16 19:40:31  5-MIN KAHN 310040Z AUTO 08004KT 10SM CLR 25/18 A2992 810 64 2200 090/04 RMK AO2 T02500178
13873KAHN AHN20160530194511505/30/16 19:45:31  5-MIN KAHN 310045Z AUTO 09004KT 10SM CLR 25/18 A2992 810 64 2200 090/04 RMK AO2 SLP125 T02500178
13873KAHN AHN20160530195011505/30/16 19:50:31  5-MIN KAHN 310050Z AUTO 09004KT 10SM CLR 24/18 A2992 810 68 2100 090/04 RMK AO2 SLP125 T02440183
13873KAHN AHN20160530195510805/30/16 19:55:31  5-MIN KAHN 310055Z AUTO 09004KT 10SM CLR 24/18 A2993 810 68 2100 100/04 RMK AO2 T02440183
13873KAHN AHN20160530200010805/30/16 20:00:31  5-MIN KAHN 310100Z AUTO 08005KT 10SM CLR 24/18 A2993 800 68 2100 090/05 RMK AO2 T02440183
13873KAHN AHN20160530200510805/30/16 20:05:31  5-MIN KAHN 310105Z AUTO 08005KT 10SM CLR 24/18 A2993 800 71 2100 080/05 RMK AO2 T02390183
13873KAHN AHN20160530201010805/30/16 20:10:31  5-MIN KAHN 310110Z AUTO 09004KT 10SM CLR 24/18 A2993 800 71 2100 090/04 RMK AO2 T02390183
13873KAHN AHN20160530201510805/30/16 20:15:31  5-MIN KAHN 310115Z AUTO 09004KT 10SM CLR 24/18 A2993 800 71 2100 100/04 RMK AO2 T02390183
13873KAHN AHN20160530202010805/30/16 20:20:31  5-MIN KAHN 310120Z AUTO 09004KT 10SM CLR 24/19 A2993 800 73 2000 090/04 RMK AO2 T02390189
13873KAHN AHN20160530202510805/30/16 20:25:31  5-MIN KAHN 310125Z AUTO 09004KT 10SM CLR 24/18 A2994 800 71 2000 090/04 RMK AO2 T02390183
13873KAHN AHN20160530203010805/30/16 20:30:31  5-MIN KAHN 310130Z AUTO 09004KT 10SM CLR 24/19 A2994 790 73 2000 100/04 RMK AO2 T02390189
13873KAHN AHN20160530203510805/30/16 20:35:31  5-MIN KAHN 310135Z AUTO 09004KT 10SM CLR 24/18 A2994 800 71 2000 090/04 RMK AO2 T02390183
13873KAHN AHN20160530204010805/30/16 20:40:31  5-MIN KAHN 310140Z AUTO 09004KT 10SM CLR 23/18 A2994 790 73 2000 100/04 RMK AO2 T02330183
13873KAHN AHN20160530204511505/30/16 20:45:31  5-MIN KAHN 310145Z AUTO 09004KT 10SM CLR 23/18 A2994 790 73 2000 100/04 RMK AO2 SLP130 T02330183
13873KAHN AHN20160530205011505/30/16 20:50:31  5-MIN KAHN 310150Z AUTO 10004KT 10SM CLR 23/18 A2994 790 73 2000 110/04 RMK AO2 SLP131 T02330183
13873KAHN AHN20160530205510805/30/16 20:55:31  5-MIN KAHN 310155Z AUTO 11003KT 10SM CLR 23/19 A2994 790 76 2000 120/03 RMK AO2 T02330189
13873KAHN AHN20160530210010805/30/16 21:00:31  5-MIN KAHN 310200Z AUTO 11003KT 10SM CLR 23/19 A2994 790 78 1900 120/03 RMK AO2 T02280189
13873KAHN AHN20160530210510805/30/16 21:05:31  5-MIN KAHN 310205Z AUTO 00000KT 10SM CLR 23/19 A2995 790 78 1900 000/00 RMK AO2 T02280189
13873KAHN AHN20160530211011105/30/16 21:10:31  5-MIN KAHN 310210Z AUTO 00000KT 10SM SCT110 23/19 A2994 790 76 2000 000/00 RMK AO2 T02330189
13873KAHN AHN20160530211511105/30/16 21:15:31  5-MIN KAHN 310215Z AUTO 09003KT 10SM BKN110 23/19 A2994 790 76 2000 090/03 RMK AO2 T02330189
13873KAHN AHN20160530212011105/30/16 21:20:31  5-MIN KAHN 310220Z AUTO 00000KT 10SM BKN110 23/19 A2995 790 78 1900 000/00 RMK AO2 T02280189
13873KAHN AHN20160530212511805/30/16 21:25:31  5-MIN KAHN 310225Z AUTO 00000KT 10SM FEW085 BKN110 23/19 A2995 780 78 1900 000/00 RMK AO2 T02280189
13873KAHN AHN20160530213011805/30/16 21:30:31  5-MIN KAHN 310230Z AUTO 00000KT 10SM SCT085 BKN110 23/19 A2995 780 78 1900 000/00 RMK AO2 T02280189
13873KAHN AHN20160530213511805/30/16 21:35:31  5-MIN KAHN 310235Z AUTO 10004KT 10SM BKN090 OVC110 23/19 A2995 780 78 1900 110/04 RMK AO2 T02280189
13873KAHN AHN20160530214011805/30/16 21:40:31  5-MIN KAHN 310240Z AUTO 09005KT 10SM BKN090 OVC110 23/19 A2996 780 78 1900 090/05 RMK AO2 T02280189
13873KAHN AHN20160530214513105/30/16 21:45:31  5-MIN KAHN 310245Z AUTO 08004KT 10SM BKN095 OVC110 23/19 A2996 780 81 1900 090/04 RMK AO2 SLP137 T02280194 55001
13873KAHN AHN20160530215013105/30/16 21:50:31  5-MIN KAHN 310250Z AUTO 08004KT 10SM BKN095 OVC110 23/19 A2996 780 81 1900 090/04 RMK AO2 SLP137 T02280194 55001
13873KAHN AHN20160530215511805/30/16 21:55:31  5-MIN KAHN 310255Z AUTO 07004KT 10SM SCT090 OVC110 23/19 A2996 770 81 1900 080/04 RMK AO2 T02280194
13873KAHN AHN20160530220011805/30/16 22:00:31  5-MIN KAHN 310300Z AUTO 06003KT 10SM SCT095 BKN110 23/19 A2996 770 76 2000 060/03 RMK AO2 T02330189
13873KAHN AHN20160530220511105/30/16 22:05:31  5-MIN KAHN 310305Z AUTO 06004KT 10SM BKN100 23/19 A2996 780 76 2000 060/04 RMK AO2 T02330189
13873KAHN AHN20160530221011105/30/16 22:10:31  5-MIN KAHN 310310Z AUTO 07005KT 10SM BKN100 24/19 A2996 780 73 2000 070/05 RMK AO2 T02390189
13873KAHN AHN20160530221511105/30/16 22:15:31  5-MIN KAHN 310315Z AUTO 06005KT 10SM BKN100 23/18 A2996 780 73 2000 070/05 RMK AO2 T02330183
13873KAHN AHN20160530222011105/30/16 22:20:31  5-MIN KAHN 310320Z AUTO 07004KT 10SM SCT100 23/18 A2995 780 76 1900 070/04 RMK AO2 T02280183
13873KAHN AHN20160530222511105/30/16 22:25:31  5-MIN KAHN 310325Z AUTO 07004KT 10SM FEW100 23/18 A2995 780 76 1900 070/04 RMK AO2 T02280183
13873KAHN AHN20160530223011105/30/16 22:30:31  5-MIN KAHN 310330Z AUTO 07003KT 10SM FEW100 23/18 A2995 780 76 1900 070/03 RMK AO2 T02280183
13873KAHN AHN20160530223511105/30/16 22:35:31  5-MIN KAHN 310335Z AUTO 07003KT 10SM FEW100 22/18 A2995 780 78 1800 080/03 RMK AO2 T02220183
13873KAHN AHN20160530224011105/30/16 22:40:31  5-MIN KAHN 310340Z AUTO 00000KT 10SM FEW100 22/18 A2995 780 81 1800 000/00 RMK AO2 T02170183
13873KAHN AHN20160530224511505/30/16 22:45:31  5-MIN KAHN 310345Z AUTO 00000KT 10SM CLR 22/18 A2995 780 81 1800 000/00 RMK AO2 SLP136 T02170183
13873KAHN AHN20160530225011505/30/16 22:50:31  5-MIN KAHN 310350Z AUTO 00000KT 10SM CLR 22/18 A2995 780 81 1800 000/00 RMK AO2 SLP135 T02170183
13873KAHN AHN20160530225510805/30/16 22:55:31  5-MIN KAHN 310355Z AUTO 00000KT 10SM CLR 22/18 A2995 780 78 1800 000/00 RMK AO2 T02220183
13873KAHN AHN20160530230010805/30/16 23:00:31  5-MIN KAHN 310400Z AUTO 00000KT 10SM CLR 22/18 A2995 780 78 1800 000/00 RMK AO2 T02220183
13873KAHN AHN20160530230510805/30/16 23:05:31  5-MIN KAHN 310405Z AUTO 00000KT 10SM CLR 21/18 A2995 780 84 1700 000/00 RMK AO2 T02110183
13873KAHN AHN20160530231010805/30/16 23:10:31  5-MIN KAHN 310410Z AUTO 00000KT 10SM CLR 21/18 A2995 780 84 1700 000/00 RMK AO2 T02110183
13873KAHN AHN20160530231510805/30/16 23:15:31  5-MIN KAHN 310415Z AUTO 00000KT 10SM CLR 22/18 A2995 780 81 1800 000/00 RMK AO2 T02170183
13873KAHN AHN20160530232010805/30/16 23:20:31  5-MIN KAHN 310420Z AUTO 32003KT 10SM CLR 21/18 A2995 780 84 1700 320/03 RMK AO2 T02110183
13873KAHN AHN20160530232510805/30/16 23:25:31  5-MIN KAHN 310425Z AUTO 00000KT 10SM CLR 22/18 A2995 780 81 1800 000/00 RMK AO2 T02170183
13873KAHN AHN20160530233010805/30/16 23:30:31  5-MIN KAHN 310430Z AUTO 00000KT 10SM CLR 22/18 A2996 780 81 1800 000/00 RMK AO2 T02170183
13873KAHN AHN20160530233510805/30/16 23:35:31  5-MIN KAHN 310435Z AUTO 00000KT 10SM CLR 22/19 A2996 780 84 1800 000/00 RMK AO2 T02170189
13873KAHN AHN20160530234010805/30/16 23:40:31  5-MIN KAHN 310440Z AUTO 35003KT 10SM CLR 22/18 A2996 780 78 1800 350/03 RMK AO2 T02220183
13873KAHN AHN20160530234512505/30/16 23:45:31  5-MIN KAHN 310445Z AUTO VRB03KT 10SM CLR 22/18 A2996 780 78 1800 VRB/03 RMK AO2 SLP136 T02220183 403390161
13873KAHN AHN20160530235012505/30/16 23:50:31  5-MIN KAHN 310450Z AUTO 35003KT 10SM CLR 22/18 A2995 780 78 1800 350/03 RMK AO2 SLP135 T02220183 403390161
13873KAHN AHN20160530235510805/30/16 23:55:31  5-MIN KAHN 310455Z AUTO 34003KT 10SM CLR 22/18 A2995 780 78 1800 340/03 RMK AO2 T02220183
13873KAHN AHN20160531000010805/31/16 00:00:31  5-MIN KAHN 310500Z AUTO 01003KT 10SM CLR 22/18 A2995 780 78 1800 010/03 RMK AO2 T02220183
13873KAHN AHN20160531000510805/31/16 00:05:31  5-MIN KAHN 310505Z AUTO 00000KT 10SM CLR 22/18 A2995 780 78 1800 000/00 RMK AO2 T02220183
13873KAHN AHN20160531001010805/31/16 00:10:31  5-MIN KAHN 310510Z AUTO 36004KT 10SM CLR 22/18 A2995 780 78 1800 360/04 RMK AO2 T02220183
13873KAHN AHN20160531001510805/31/16 00:15:31  5-MIN KAHN 310515Z AUTO VRB04KT 10SM CLR 22/18 A2995 780 78 1800 VRB/04 RMK AO2 T02220183
13873KAHN AHN20160531002010805/31/16 00:20:31  5-MIN KAHN 310520Z AUTO 01004KT 10SM CLR 22/18 A2995 780 81 1800 010/04 RMK AO2 T02170183
13873KAHN AHN20160531002510805/31/16 00:25:31  5-MIN KAHN 310525Z AUTO 00000KT 10SM CLR 22/18 A2995 790 81 1800 000/00 RMK AO2 T02170183
13873KAHN AHN20160531003010805/31/16 00:30:31  5-MIN KAHN 310530Z AUTO 01004KT 10SM CLR 22/19 A2995 790 84 1800 020/04 RMK AO2 T02170189
13873KAHN AHN20160531003510805/31/16 00:35:31  5-MIN KAHN 310535Z AUTO VRB03KT 10SM CLR 22/19 A2994 790 84 1800 VRB/03 RMK AO2 T02170189
13873KAHN AHN20160531004010805/31/16 00:40:31  5-MIN KAHN 310540Z AUTO 04003KT 10SM CLR 22/19 A2994 790 84 1800 040/03 RMK AO2 T02170189
13873KAHN AHN20160531004513305/31/16 00:45:31  5-MIN KAHN 310545Z AUTO 03003KT 10SM CLR 21/19 A2994 790 87 1700 030/03 RMK AO2 SLP130 T02110189 10289 20211 53012
13873KAHN AHN20160531005013305/31/16 00:50:31  5-MIN KAHN 310550Z AUTO 00000KT 10SM CLR 21/19 A2994 790 87 1700 000/00 RMK AO2 SLP130 T02110189 10289 20211 53012
13873KAHN AHN20160531005510805/31/16 00:55:31  5-MIN KAHN 310555Z AUTO 00000KT 10SM CLR 21/19 A2994 790 87 1700 000/00 RMK AO2 T02110189
13873KAHN AHN20160531010010805/31/16 01:00:31  5-MIN KAHN 310600Z AUTO 00000KT 10SM CLR 21/19 A2994 790 87 1700 000/00 RMK AO2 T02110189
13873KAHN AHN20160531010510805/31/16 01:05:31  5-MIN KAHN 310605Z AUTO 02003KT 10SM CLR 21/19 A2994 790 87 1700 030/03 RMK AO2 T02110189
13873KAHN AHN20160531011010805/31/16 01:10:31  5-MIN KAHN 310610Z AUTO 00000KT 10SM CLR 21/19 A2993 800 87 1700 000/00 RMK AO2 T02110189
13873KAHN AHN20160531011510805/31/16 01:15:31  5-MIN KAHN 310615Z AUTO 04003KT 10SM CLR 21/19 A2993 800 87 1700 040/03 RMK AO2 T02110189
13873KAHN AHN20160531012010805/31/16 01:20:31  5-MIN KAHN 310620Z AUTO 04004KT 10SM CLR 21/19 A2993 800 87 1700 050/04 RMK AO2 T02110189
13873KAHN AHN20160531012510805/31/16 01:25:31  5-MIN KAHN 310625Z AUTO 04004KT 10SM CLR 21/19 A2993 800 87 1700 040/04 RMK AO2 T02110189
13873KAHN AHN20160531013010805/31/16 01:30:31  5-MIN KAHN 310630Z AUTO 03005KT 10SM CLR 21/19 A2993 800 90 1700 040/05 RMK AO2 T02110194
13873KAHN AHN20160531013510805/31/16 01:35:31  5-MIN KAHN 310635Z AUTO 04005KT 10SM CLR 21/19 A2994 800 90 1700 040/05 RMK AO2 T02110194
13873KAHN AHN20160531014010805/31/16 01:40:31  5-MIN KAHN 310640Z AUTO 04005KT 10SM CLR 21/19 A2994 800 90 1700 050/05 RMK AO2 T02110194
13873KAHN AHN20160531014511505/31/16 01:45:31  5-MIN KAHN 310645Z AUTO 05005KT 10SM CLR 22/19 A2994 800 84 1800 050/05 RMK AO2 SLP129 T02170189
13873KAHN AHN20160531015011505/31/16 01:50:31  5-MIN KAHN 310650Z AUTO 04004KT 10SM CLR 21/19 A2994 800 87 1700 050/04 RMK AO2 SLP129 T02110189
13873KAHN AHN20160531015510805/31/16 01:55:31  5-MIN KAHN 310655Z AUTO 05005KT 10SM CLR 22/19 A2994 790 84 1800 050/05 RMK AO2 T02170189
13873KAHN AHN20160531020010805/31/16 02:00:31  5-MIN KAHN 310700Z AUTO 05005KT 10SM CLR 22/19 A2994 790 84 1800 060/05 RMK AO2 T02170189
13873KAHN AHN20160531020510805/31/16 02:05:31  5-MIN KAHN 310705Z AUTO 05005KT 10SM CLR 21/19 A2994 790 87 1700 060/05 RMK AO2 T02110189
13873KAHN AHN20160531021010805/31/16 02:10:31  5-MIN KAHN 310710Z AUTO 06005KT 10SM CLR 21/19 A2994 800 87 1700 060/05 RMK AO2 T02110189
13873KAHN AHN20160531021510805/31/16 02:15:31  5-MIN KAHN 310715Z AUTO 06005KT 10SM CLR 21/19 A2993 800 87 1700 060/05 RMK AO2 T02110189
13873KAHN AHN20160531022010805/31/16 02:20:31  5-MIN KAHN 310720Z AUTO 06006KT 10SM CLR 21/19 A2993 800 87 1700 060/06 RMK AO2 T02110189
13873KAHN AHN20160531022510805/31/16 02:25:31  5-MIN KAHN 310725Z AUTO 06005KT 10SM CLR 21/19 A2993 800 87 1700 070/05 RMK AO2 T02110189
13873KAHN AHN20160531023010805/31/16 02:30:31  5-MIN KAHN 310730Z AUTO 06004KT 10SM CLR 21/19 A2993 800 90 1700 060/04 RMK AO2 T02060189
13873KAHN AHN20160531023510805/31/16 02:35:31  5-MIN KAHN 310735Z AUTO 06005KT 10SM CLR 21/19 A2993 800 90 1700 070/05 RMK AO2 T02060189
13873KAHN AHN20160531024010805/31/16 02:40:31  5-MIN KAHN 310740Z AUTO 06005KT 10SM CLR 21/19 A2993 800 90 1700 070/05 RMK AO2 T02060189
13873KAHN AHN20160531024511505/31/16 02:45:31  5-MIN KAHN 310745Z AUTO 07005KT 10SM CLR 21/19 A2993 800 90 1700 070/05 RMK AO2 SLP127 T02060189
13873KAHN AHN20160531025011505/31/16 02:50:31  5-MIN KAHN 310750Z AUTO 07005KT 10SM CLR 21/19 A2993 800 90 1700 080/05 RMK AO2 SLP127 T02060189
13873KAHN AHN20160531025510805/31/16 02:55:31  5-MIN KAHN 310755Z AUTO 07004KT 10SM CLR 21/19 A2993 800 90 1700 080/04 RMK AO2 T02060189
13873KAHN AHN20160531030010805/31/16 03:00:31  5-MIN KAHN 310800Z AUTO 07004KT 10SM CLR 21/19 A2993 800 90 1700 070/04 RMK AO2 T02060189
13873KAHN AHN20160531030510805/31/16 03:05:31  5-MIN KAHN 310805Z AUTO 06005KT 10SM CLR 20/19 A2993 800 93 1600 070/05 RMK AO2 T02000189
13873KAHN AHN20160531031010805/31/16 03:10:31  5-MIN KAHN 310810Z AUTO 06005KT 10SM CLR 20/19 A2993 800 93 1600 070/05 RMK AO2 T02000189
13873KAHN AHN20160531031510805/31/16 03:15:31  5-MIN KAHN 310815Z AUTO 07006KT 10SM CLR 20/19 A2993 800 93 1600 070/06 RMK AO2 T02000189
13873KAHN AHN20160531032010805/31/16 03:20:31  5-MIN KAHN 310820Z AUTO 07006KT 10SM CLR 21/19 A2993 800 90 1700 080/06 RMK AO2 T02060189
13873KAHN AHN20160531032510805/31/16 03:25:31  5-MIN KAHN 310825Z AUTO 08006KT 10SM CLR 21/19 A2993 800 90 1700 080/06 RMK AO2 T02060189
13873KAHN AHN20160531033010805/31/16 03:30:31  5-MIN KAHN 310830Z AUTO 08005KT 10SM CLR 21/19 A2993 800 90 1700 080/05 RMK AO2 T02060189
13873KAHN AHN20160531033510805/31/16 03:35:31  5-MIN KAHN 310835Z AUTO 08004KT 10SM CLR 20/19 A2993 800 93 1600 080/04 RMK AO2 T02000189
13873KAHN AHN20160531034010805/31/16 03:40:31  5-MIN KAHN 310840Z AUTO 07005KT 10SM CLR 20/19 A2992 810 93 1600 070/05 RMK AO2 T02000189
13873KAHN AHN20160531034512105/31/16 03:45:31  5-MIN KAHN 310845Z AUTO 07005KT 10SM CLR 20/19 A2993 800 93 1600 070/05 RMK AO2 SLP126 T02000189 58006
13873KAHN AHN20160531035012105/31/16 03:50:31  5-MIN KAHN 310850Z AUTO 06005KT 10SM CLR 20/19 A2993 800 93 1600 070/05 RMK AO2 SLP126 T02000189 58006
13873KAHN AHN20160531035510805/31/16 03:55:31  5-MIN KAHN 310855Z AUTO 05003KT 10SM CLR 20/19 A2993 800 93 1600 060/03 RMK AO2 T02000189
13873KAHN AHN20160531040010805/31/16 04:00:31  5-MIN KAHN 310900Z AUTO 05003KT 10SM CLR 20/19 A2993 800 93 1600 060/03 RMK AO2 T02000189
13873KAHN AHN20160531040510805/31/16 04:05:31  5-MIN KAHN 310905Z AUTO 06004KT 10SM CLR 20/19 A2993 800 93 1600 070/04 RMK AO2 T02000189
13873KAHN AHN20160531041010805/31/16 04:10:31  5-MIN KAHN 310910Z AUTO 07004KT 10SM CLR 20/19 A2993 800 93 1600 070/04 RMK AO2 T02000189
13873KAHN AHN20160531041510805/31/16 04:15:31  5-MIN KAHN 310915Z AUTO 06003KT 10SM CLR 20/19 A2993 800 93 1600 070/03 RMK AO2 T02000189
13873KAHN AHN20160531042010805/31/16 04:20:31  5-MIN KAHN 310920Z AUTO 06003KT 10SM CLR 19/19 A2993 800 97 1500 060/03 RMK AO2 T01940189
13873KAHN AHN20160531042510805/31/16 04:25:31  5-MIN KAHN 310925Z AUTO 06003KT 10SM CLR 19/18 A2993 800 93 1500 060/03 RMK AO2 T01940183
13873KAHN AHN20160531043010805/31/16 04:30:31  5-MIN KAHN 310930Z AUTO 07003KT 10SM CLR 19/18 A2993 800 93 1500 070/03 RMK AO2 T01940183
13873KAHN AHN20160531043510805/31/16 04:35:31  5-MIN KAHN 310935Z AUTO 06004KT 10SM CLR 19/18 A2993 800 93 1500 070/04 RMK AO2 T01940183
13873KAHN AHN20160531044010805/31/16 04:40:31  5-MIN KAHN 310940Z AUTO 07005KT 10SM CLR 19/18 A2993 800 93 1500 080/05 RMK AO2 T01940183
13873KAHN AHN20160531044511505/31/16 04:45:31  5-MIN KAHN 310945Z AUTO 08004KT 10SM CLR 19/18 A2993 800 93 1500 080/04 RMK AO2 SLP129 T01940183
13873KAHN AHN20160531045011505/31/16 04:50:31  5-MIN KAHN 310950Z AUTO 07004KT 10SM CLR 19/18 A2993 800 93 1500 070/04 RMK AO2 SLP128 T01940183
13873KAHN AHN20160531045510805/31/16 04:55:31  5-MIN KAHN 310955Z AUTO 07003KT 10SM CLR 19/18 A2993 800 93 1500 070/03 RMK AO2 T01940183
13873KAHN AHN20160531050010805/31/16 05:00:31  5-MIN KAHN 311000Z AUTO 06003KT 10SM CLR 19/18 A2993 800 93 1500 070/03 RMK AO2 T01940183
13873KAHN AHN20160531050510805/31/16 05:05:31  5-MIN KAHN 311005Z AUTO 00000KT 10SM CLR 19/18 A2993 800 93 1500 000/00 RMK AO2 T01940183
13873KAHN AHN20160531051010805/31/16 05:10:31  5-MIN KAHN 311010Z AUTO 00000KT 10SM CLR 19/18 A2993 800 97 1500 000/00 RMK AO2 T01890183
13873KAHN AHN20160531051510805/31/16 05:15:31  5-MIN KAHN 311015Z AUTO 00000KT 10SM CLR 19/18 A2994 790 97 1500 000/00 RMK AO2 T01890183
13873KAHN AHN20160531052010805/31/16 05:20:31  5-MIN KAHN 311020Z AUTO 35003KT 10SM CLR 19/18 A2994 790 97 1500 350/03 RMK AO2 T01890183
13873KAHN AHN20160531052510805/31/16 05:25:31  5-MIN KAHN 311025Z AUTO 00000KT 10SM CLR 19/18 A2994 790 93 1500 000/00 RMK AO2 T01940183
13873KAHN AHN20160531053010805/31/16 05:30:31  5-MIN KAHN 311030Z AUTO 00000KT 10SM CLR 19/18 A2995 790 93 1500 000/00 RMK AO2 T01940183
13873KAHN AHN20160531053510805/31/16 05:35:31  5-MIN KAHN 311035Z AUTO VRB03KT 10SM CLR 19/18 A2995 780 93 1500 VRB/03 RMK AO2 T01940183
13873KAHN AHN20160531054010805/31/16 05:40:31  5-MIN KAHN 311040Z AUTO 04003KT 10SM CLR 19/18 A2995 780 93 1500 040/03 RMK AO2 T01940183
13873KAHN AHN20160531054511505/31/16 05:45:31  5-MIN KAHN 311045Z AUTO 00000KT 10SM CLR 19/18 A2995 780 93 1500 000/00 RMK AO2 SLP135 T01940183
13873KAHN AHN20160531055011505/31/16 05:50:31  5-MIN KAHN 311050Z AUTO 00000KT 10SM CLR 20/18 A2995 780 90 1600 000/00 RMK AO2 SLP135 T02000183
13873KAHN AHN20160531055510805/31/16 05:55:31  5-MIN KAHN 311055Z AUTO 06003KT 10SM CLR 20/18 A2995 780 90 1600 060/03 RMK AO2 T02000183
13873KAHN AHN20160531060010805/31/16 06:00:31  5-MIN KAHN 311100Z AUTO 00000KT 10SM CLR 20/19 A2996 780 93 1600 000/00 RMK AO2 T02000189
13873KAHN AHN20160531060510805/31/16 06:05:31  5-MIN KAHN 311105Z AUTO 00000KT 10SM CLR 21/19 A2996 770 90 1600 000/00 RMK AO2 T02060189
13873KAHN AHN20160531061010805/31/16 06:10:31  5-MIN KAHN 311110Z AUTO 00000KT 10SM CLR 21/19 A2996 770 90 1600 000/00 RMK AO2 T02060189
13873KAHN AHN20160531061510805/31/16 06:15:31  5-MIN KAHN 311115Z AUTO 00000KT 10SM CLR 21/19 A2996 770 90 1600 000/00 RMK AO2 T02060189
13873KAHN AHN20160531062010805/31/16 06:20:31  5-MIN KAHN 311120Z AUTO 04003KT 10SM CLR 21/19 A2996 770 90 1600 040/03 RMK AO2 T02060189
13873KAHN AHN20160531062510805/31/16 06:25:31  5-MIN KAHN 311125Z AUTO 06004KT 10SM CLR 21/19 A2996 770 90 1600 060/04 RMK AO2 T02060189
13873KAHN AHN20160531063010305/31/16 06:30:31  5-MIN KAHN 311130Z 06003KT 10SM CLR 21/19 A2996 770 87 1700 060/03 RMK AO2 T02110189
13873KAHN AHN20160531063510305/31/16 06:35:31  5-MIN KAHN 311135Z 00000KT 10SM CLR 21/19 A2997 770 87 1700 000/00 RMK AO2 T02110189
13873KAHN AHN20160531064010305/31/16 06:40:31  5-MIN KAHN 311140Z 00000KT 10SM CLR 21/19 A2997 760 87 1700 000/00 RMK AO2 T02110189
13873KAHN AHN20160531064512805/31/16 06:45:31  5-MIN KAHN 311145Z 00000KT 10SM CLR 21/19 A2997 760 87 1700 000/00 RMK AO2 SLP142 T02110189 10217 20189 57004
13873KAHN AHN20160531065012805/31/16 06:50:31  5-MIN KAHN 311150Z VRB03KT 10SM CLR 22/19 A2998 760 84 1700 VRB/03 RMK AO2 SLP143 T02170189 10217 20189 57004
13873KAHN AHN20160531065510305/31/16 06:55:31  5-MIN KAHN 311155Z VRB03KT 10SM CLR 22/19 A2998 750 84 1700 VRB/03 RMK AO2 T02170189
13873KAHN AHN20160531070010305/31/16 07:00:31  5-MIN KAHN 311200Z 02003KT 10SM CLR 22/19 A2999 750 84 1800 020/03 RMK AO2 T02220194
13873KAHN AHN20160531070510305/31/16 07:05:31  5-MIN KAHN 311205Z 00000KT 10SM CLR 22/19 A2999 750 84 1800 000/00 RMK AO2 T02220194
13873KAHN AHN20160531071010305/31/16 07:10:31  5-MIN KAHN 311210Z 00000KT 10SM CLR 23/19 A2999 750 81 1900 000/00 RMK AO2 T02280194
13873KAHN AHN20160531071510305/31/16 07:15:31  5-MIN KAHN 311215Z 00000KT 10SM CLR 23/19 A2999 750 81 1900 000/00 RMK AO2 T02280194
13873KAHN AHN20160531072010305/31/16 07:20:31  5-MIN KAHN 311220Z 02003KT 10SM CLR 23/19 A2999 750 81 1900 030/03 RMK AO2 T02280194
13873KAHN AHN20160531072510305/31/16 07:25:31  5-MIN KAHN 311225Z 03003KT 10SM CLR 23/19 A2999 740 78 1900 040/03 RMK AO2 T02330194
13873KAHN AHN20160531073010305/31/16 07:30:31  5-MIN KAHN 311230Z 00000KT 10SM CLR 23/19 A3000 740 78 1900 000/00 RMK AO2 T02330194
13873KAHN AHN20160531073510305/31/16 07:35:31  5-MIN KAHN 311235Z 06005KT 10SM CLR 23/19 A3000 740 78 1900 070/05 RMK AO2 T02330194
13873KAHN AHN20160531074010305/31/16 07:40:31  5-MIN KAHN 311240Z 05003KT 10SM CLR 23/19 A3000 740 78 1900 060/03 RMK AO2 T02330194
13873KAHN AHN20160531074511005/31/16 07:45:31  5-MIN KAHN 311245Z 05003KT 10SM CLR 24/19 A3000 730 76 2000 060/03 RMK AO2 SLP153 T02390194
13873KAHN AHN20160531075011005/31/16 07:50:31  5-MIN KAHN 311250Z VRB03KT 10SM CLR 24/19 A3000 730 76 2000 VRB/03 RMK AO2 SLP153 T02390194
13873KAHN AHN20160531075510305/31/16 07:55:31  5-MIN KAHN 311255Z 05004KT 10SM CLR 24/19 A3000 730 76 2000 060/04 RMK AO2 T02390194
13873KAHN AHN20160531080010305/31/16 08:00:31  5-MIN KAHN 311300Z VRB03KT 10SM CLR 24/20 A3000 740 76 2000 VRB/03 RMK AO2 T02440200
13873KAHN AHN20160531080510305/31/16 08:05:31  5-MIN KAHN 311305Z 06003KT 10SM CLR 24/20 A3000 730 76 2000 060/03 RMK AO2 T02440200
13873KAHN AHN20160531081010305/31/16 08:10:31  5-MIN KAHN 311310Z VRB03KT 10SM CLR 25/20 A3000 730 73 2100 VRB/03 RMK AO2 T02500200
13873KAHN AHN20160531081510305/31/16 08:15:31  5-MIN KAHN 311315Z 00000KT 10SM CLR 25/20 A3000 730 73 2100 000/00 RMK AO2 T02500200
13873KAHN AHN20160531082010305/31/16 08:20:31  5-MIN KAHN 311320Z VRB03KT 10SM CLR 25/20 A3001 730 73 2100 VRB/03 RMK AO2 T02500200
13873KAHN AHN20160531082510305/31/16 08:25:31  5-MIN KAHN 311325Z 00000KT 10SM CLR 24/20 A3001 730 76 2000 000/00 RMK AO2 T02440200
13873KAHN AHN20160531083010305/31/16 08:30:31  5-MIN KAHN 311330Z VRB03KT 10SM CLR 26/20 A3000 730 71 2200 VRB/03 RMK AO2 T02560200
13873KAHN AHN20160531083510305/31/16 08:35:31  5-MIN KAHN 311335Z VRB03KT 10SM CLR 26/20 A3000 730 71 2200 VRB/03 RMK AO2 T02560200
13873KAHN AHN20160531084010305/31/16 08:40:31  5-MIN KAHN 311340Z 08004KT 10SM CLR 26/20 A3000 740 71 2200 080/04 RMK AO2 T02560200
13873KAHN AHN20160531084511005/31/16 08:45:31  5-MIN KAHN 311345Z 00000KT 10SM CLR 26/20 A3000 740 71 2200 000/00 RMK AO2 SLP152 T02560200
13873KAHN AHN20160531085011005/31/16 08:50:31  5-MIN KAHN 311350Z 08004KT 10SM CLR 26/21 A3000 740 71 2200 080/04 RMK AO2 SLP152 T02610206
13873KAHN AHN20160531085510305/31/16 08:55:31  5-MIN KAHN 311355Z 06004KT 10SM CLR 26/21 A3000 740 71 2200 070/04 RMK AO2 T02610206
13873KAHN AHN20160531090010305/31/16 09:00:31  5-MIN KAHN 311400Z 11004KT 10SM CLR 26/21 A3000 740 71 2200 110/04 RMK AO2 T02610206
13873KAHN AHN20160531090510305/31/16 09:05:31  5-MIN KAHN 311405Z VRB03KT 10SM CLR 26/21 A3000 740 71 2200 VRB/03 RMK AO2 T02610206
13873KAHN AHN20160531091010305/31/16 09:10:31  5-MIN KAHN 311410Z 00000KT 10SM CLR 27/21 A3000 740 69 2300 000/00 RMK AO2 T02670206
13873KAHN AHN20160531091510305/31/16 09:15:31  5-MIN KAHN 311415Z 00000KT 10SM CLR 27/21 A3000 740 69 2300 000/00 RMK AO2 T02670206
13873KAHN AHN20160531092010305/31/16 09:20:31  5-MIN KAHN 311420Z VRB03KT 10SM CLR 27/21 A3000 740 66 2400 VRB/03 RMK AO2 T02720206
13873KAHN AHN20160531092510305/31/16 09:25:31  5-MIN KAHN 311425Z VRB03KT 10SM CLR 27/21 A3000 740 66 2400 VRB/03 RMK AO2 T02720206
13873KAHN AHN20160531093010305/31/16 09:30:31  5-MIN KAHN 311430Z 07004KT 10SM CLR 27/21 A3000 740 66 2400 080/04 RMK AO2 T02720206
13873KAHN AHN20160531093510305/31/16 09:35:31  5-MIN KAHN 311435Z VRB03KT 10SM CLR 27/21 A3000 740 66 2400 VRB/03 RMK AO2 T02720206
13873KAHN AHN20160531094010305/31/16 09:40:31  5-MIN KAHN 311440Z 00000KT 10SM CLR 27/21 A3000 740 66 2400 000/00 RMK AO2 T02720206
13873KAHN AHN20160531094511605/31/16 09:45:31  5-MIN KAHN 311445Z VRB03KT 10SM CLR 28/21 A2999 740 64 2400 VRB/03 RMK AO2 SLP149 T02780206 53017
13873KAHN AHN20160531095011605/31/16 09:50:31  5-MIN KAHN 311450Z VRB04KT 10SM CLR 28/21 A2999 740 64 2400 VRB/04 RMK AO2 SLP148 T02780206 53017
13873KAHN AHN20160531095510305/31/16 09:55:31  5-MIN KAHN 311455Z 07004KT 10SM CLR 28/21 A2999 740 62 2500 070/04 RMK AO2 T02830206
13873KAHN AHN20160531100010305/31/16 10:00:31  5-MIN KAHN 311500Z VRB05KT 10SM CLR 28/21 A2999 740 62 2500 VRB/05 RMK AO2 T02830206
13873KAHN AHN20160531100510305/31/16 10:05:31  5-MIN KAHN 311505Z VRB03KT 10SM CLR 28/21 A2999 740 62 2500 VRB/03 RMK AO2 T02830206
13873KAHN AHN20160531101010305/31/16 10:10:31  5-MIN KAHN 311510Z 09004KT 10SM CLR 29/21 A2999 750 60 2500 090/04 RMK AO2 T02890206
13873KAHN AHN20160531101510305/31/16 10:15:31  5-MIN KAHN 311515Z 06004KT 10SM CLR 29/21 A2999 750 60 2500 060/04 RMK AO2 T02890206
13873KAHN AHN20160531102010305/31/16 10:20:31  5-MIN KAHN 311520Z 07006KT 10SM CLR 29/20 A2999 750 58 2500 070/06 RMK AO2 T02890200
13873KAHN AHN20160531102510305/31/16 10:25:31  5-MIN KAHN 311525Z VRB03KT 10SM CLR 29/21 A2999 750 60 2500 VRB/03 RMK AO2 T02890206
13873KAHN AHN20160531103010305/31/16 10:30:31  5-MIN KAHN 311530Z VRB03KT 10SM CLR 29/20 A2999 750 58 2500 VRB/03 RMK AO2 T02890200
13873KAHN AHN20160531103510305/31/16 10:35:31  5-MIN KAHN 311535Z VRB03KT 10SM CLR 29/20 A2999 750 56 2600 VRB/03 RMK AO2 T02940200
13873KAHN AHN20160531104010305/31/16 10:40:31  5-MIN KAHN 311540Z 06005KT 10SM CLR 29/20 A2999 750 56 2600 060/05 RMK AO2 T02940200
13873KAHN AHN20160531104511005/31/16 10:45:31  5-MIN KAHN 311545Z VRB04KT 10SM CLR 30/20 A2999 750 54 2700 VRB/04 RMK AO2 SLP147 T03000200
13873KAHN AHN20160531105011005/31/16 10:50:31  5-MIN KAHN 311550Z 10005KT 10SM CLR 30/20 A2999 750 54 2700 110/05 RMK AO2 SLP147 T03000200
13873KAHN AHN20160531105510305/31/16 10:55:31  5-MIN KAHN 311555Z 07006KT 10SM CLR 30/20 A2999 750 54 2700 070/06 RMK AO2 T03000200
13873KAHN AHN20160531110010305/31/16 11:00:31  5-MIN KAHN 311600Z VRB05KT 10SM CLR 31/19 A2998 750 51 2700 VRB/05 RMK AO2 T03060194
13873KAHN AHN20160531110510305/31/16 11:05:31  5-MIN KAHN 311605Z 08004KT 10SM CLR 30/19 A2998 750 51 2700 090/04 RMK AO2 T03000189
13873KAHN AHN20160531111010305/31/16 11:10:31  5-MIN KAHN 311610Z 00000KT 10SM CLR 31/19 A2998 750 51 2700 000/00 RMK AO2 T03060194
13873KAHN AHN20160531111510305/31/16 11:15:31  5-MIN KAHN 311615Z VRB05KT 10SM CLR 31/19 A2999 750 51 2700 VRB/05 RMK AO2 T03060194
13873KAHN AHN20160531112010305/31/16 11:20:31  5-MIN KAHN 311620Z 00000KT 10SM CLR 31/18 A2999 750 47 2700 000/00 RMK AO2 T03060183
13873KAHN AHN20160531112510305/31/16 11:25:31  5-MIN KAHN 311625Z 00000KT 10SM CLR 31/17 A2998 750 44 2700 000/00 RMK AO2 T03060172
13873KAHN AHN20160531113010605/31/16 11:30:31  5-MIN KAHN 311630Z 06007KT 10SM FEW041 31/19 A2998 750 49 2700 070/07 RMK AO2 T03060189
13873KAHN AHN20160531113510605/31/16 11:35:31  5-MIN KAHN 311635Z VRB06KT 10SM SCT043 30/18 A2998 750 49 2700 VRB/06 RMK AO2 T03000183
13873KAHN AHN20160531114010605/31/16 11:40:31  5-MIN KAHN 311640Z VRB03KT 10SM SCT043 31/19 A2999 750 47 2800 VRB/03 RMK AO2 T03110189
13873KAHN AHN20160531125012805/31/16 12:50:31  5-MIN KAHN 311750Z VRB05KT 10SM CLR 32/17 A2996 770 41 2900 VRB/05 RMK AO2 SLP138 T03170172 10322 20217 50005
13873KAHN AHN20160531125510305/31/16 12:55:31  5-MIN KAHN 311755Z 09004KT 10SM CLR 32/18 A2996 770 41 2900 100/04 RMK AO2 T03220178
13873KAHN AHN20160531130010305/31/16 13:00:31  5-MIN KAHN 311800Z 07004KT 10SM CLR 32/18 A2996 770 43 2900 080/04 RMK AO2 T03170178
13873KAHN AHN20160531130510605/31/16 13:05:31  5-MIN KAHN 311805Z VRB04KT 10SM FEW055 32/18 A2996 780 43 3000 VRB/04 RMK AO2 T03220183
13873KAHN AHN20160531131010605/31/16 13:10:31  5-MIN KAHN 311810Z VRB03KT 10SM FEW055 32/18 A2995 780 41 3000 VRB/03 RMK AO2 T03220178
13873KAHN AHN20160531131510605/31/16 13:15:31  5-MIN KAHN 311815Z 07003KT 10SM FEW055 33/17 A2995 780 39 3000 070/03 RMK AO2 T03280172
13873KAHN AHN20160531132010605/31/16 13:20:31  5-MIN KAHN 311820Z 09005KT 10SM SCT050 32/18 A2995 780 41 3000 090/05 RMK AO2 T03220178
13873KAHN AHN20160531132510605/31/16 13:25:31  5-MIN KAHN 311825Z 10005KT 10SM SCT050 32/18 A2995 780 43 2900 100/05 RMK AO2 T03170178
13873KAHN AHN20160531133010605/31/16 13:30:31  5-MIN KAHN 311830Z 08004KT 10SM SCT050 32/17 A2995 780 40 3000 090/04 RMK AO2 T03220172
13873KAHN AHN20160531133511305/31/16 13:35:31  5-MIN KAHN 311835Z VRB04KT 10SM FEW050 SCT070 32/17 A2995 780 40 2900 VRB/04 RMK AO2 T03170167
13873KAHN AHN20160531134011305/31/16 13:40:31  5-MIN KAHN 311840Z VRB03KT 10SM FEW050 BKN075 31/17 A2995 780 42 2800 VRB/03 RMK AO2 T03110172
13873KAHN AHN20160531134512005/31/16 13:45:31  5-MIN KAHN 311845Z VRB03KT 10SM FEW050 BKN070 31/17 A2995 790 42 2800 VRB/03 RMK AO2 SLP132 T03110172
13873KAHN AHN20160531135012005/31/16 13:50:31  5-MIN KAHN 311850Z VRB04KT 10SM FEW050 SCT070 32/17 A2994 790 40 3000 VRB/04 RMK AO2 SLP132 T03220172
13873KAHN AHN20160531135510605/31/16 13:55:31  5-MIN KAHN 311855Z 35004KT 10SM SCT070 33/17 A2994 790 37 3000 360/04 RMK AO2 T03280167
13873KAHN AHN20160531140011305/31/16 14:00:31  5-MIN KAHN 311900Z VRB03KT 10SM SCT065 SCT075 33/17 A2994 790 39 3000 VRB/03 RMK AO2 T03280172
13873KAHN AHN20160531140511305/31/16 14:05:31  5-MIN KAHN 311905Z VRB03KT 10SM FEW065 SCT075 33/18 A2994 790 40 3000 VRB/03 RMK AO2 T03280178
13873KAHN AHN20160531141010605/31/16 14:10:31  5-MIN KAHN 311910Z 00000KT 10SM FEW060 33/18 A2994 790 39 3100 000/00 RMK AO2 T03330178
13873KAHN AHN20160531141511805/31/16 14:15:31  5-MIN KAHN 311915Z VRB04KT 10SM FEW060 33/18 A2993 800 39 3100 VRB/04 RMK AO2 LTG DSNT SW T03330178
13873KAHN AHN20160531142011805/31/16 14:20:31  5-MIN KAHN 311920Z 10006KT 10SM FEW060 33/18 A2993 800 39 3100 100/06 RMK AO2 LTG DSNT SW T03330178
13873KAHN AHN20160531142511805/31/16 14:25:31  5-MIN KAHN 311925Z 00000KT 10SM FEW060 33/17 A2993 800 37 3000 000/00 RMK AO2 LTG DSNT SW T03280167
13873KAHN AHN20160531143011805/31/16 14:30:31  5-MIN KAHN 311930Z VRB03KT 10SM FEW060 32/17 A2993 800 40 2900 VRB/03 RMK AO2 LTG DSNT SW T03170167
13873KAHN AHN20160531143511805/31/16 14:35:31  5-MIN KAHN 311935Z 11003KT 10SM FEW060 32/17 A2993 800 38 3000 120/03 RMK AO2 LTG DSNT SW T03220167
13873KAHN AHN20160531144011705/31/16 14:40:31  5-MIN KAHN 311940Z 08004KT 10SM FEW060 33/17 A2993 800 36 3100 090/04 RMK AO2 LTG DSNT S T03330167
13873KAHN AHN20160531144512405/31/16 14:45:31  5-MIN KAHN 311945Z VRB04KT 10SM FEW060 33/17 A2992 810 36 3100 VRB/04 RMK AO2 LTG DSNT S SLP124 T03330167
13873KAHN AHN20160531145012405/31/16 14:50:31  5-MIN KAHN 311950Z 09005KT 10SM FEW060 33/17 A2992 810 36 3100 100/05 RMK AO2 LTG DSNT S SLP123 T03330167
13873KAHN AHN20160531145512105/31/16 14:55:31  5-MIN KAHN 311955Z 08003KT 10SM CLR 33/17 A2992 810 37 3100 090/03 RMK AO2 LTG DSNT NE AND S T03280167
13873KAHN AHN20160531150012105/31/16 15:00:31  5-MIN KAHN 312000Z 10005KT 10SM CLR 34/17 A2992 810 36 3200 110/05 RMK AO2 LTG DSNT NE AND S T03390172
13873KAHN AHN20160531150512405/31/16 15:05:31  5-MIN KAHN 312005Z 07003KT 10SM FEW070 33/17 A2992 810 37 3100 070/03 RMK AO2 LTG DSNT NE AND S T03280167
13873KAHN AHN20160531151011705/31/16 15:10:31  5-MIN KAHN 312010Z 00000KT 10SM SCT070 33/17 A2992 810 36 3100 000/00 RMK AO2 LTG DSNT S T03330167
13873KAHN AHN20160531151511705/31/16 15:15:31  5-MIN KAHN 312015Z 00000KT 10SM SCT070 33/16 A2992 810 35 3100 000/00 RMK AO2 LTG DSNT S T03330161
13873KAHN AHN20160531152012405/31/16 15:20:31  5-MIN KAHN 312020Z VRB04KT 10SM SCT070 SCT080 34/17 A2991 820 34 3200 VRB/04 RMK AO2 LTG DSNT S T03440167
13873KAHN AHN20160531152511705/31/16 15:25:31  5-MIN KAHN 312025Z VRB03KT 10SM FEW070 34/16 A2991 820 34 3200 VRB/03 RMK AO2 LTG DSNT S T03390161
13873KAHN AHN20160531153011705/31/16 15:30:31  5-MIN KAHN 312030Z VRB03KT 10SM FEW070 33/16 A2991 820 35 3100 VRB/03 RMK AO2 LTG DSNT S T03330161
13873KAHN AHN20160531153512205/31/16 15:35:31  5-MIN KAHN 312035Z AUTO 30003KT 10SM FEW070 33/17 A2991 820 37 3100 300/03 RMK AO2 LTG DSNT S T03280167
13873KAHN AHN20160531154012205/31/16 15:40:31  5-MIN KAHN 312040Z AUTO 00000KT 10SM FEW070 32/17 A2990 830 38 3000 000/00 RMK AO2 LTG DSNT S T03220167
13873KAHN AHN20160531154513205/31/16 15:45:31  5-MIN KAHN 312045Z AUTO 25005KT 10SM CLR 32/17 A2990 830 41 3000 250/05 RMK AO2 LTG DSNT S SLP117 T03170172 58010
13873KAHN AHN20160531155012705/31/16 15:50:31  5-MIN KAHN 312050Z VRB05KT 10SM CLR 32/18 A2990 830 43 3000 VRB/05 RMK AO2 LTG DSNT S SLP117 T03170178 58010
13873KAHN AHN20160531155510305/31/16 15:55:31  5-MIN KAHN 312055Z VRB05KT 10SM CLR 31/18 A2990 830 46 2900 VRB/05 RMK AO2 T03110183
13873KAHN AHN20160531160010305/31/16 16:00:31  5-MIN KAHN 312100Z 26004KT 10SM CLR 31/18 A2990 830 47 2800 260/04 RMK AO2 T03060183
13873KAHN AHN20160531160510305/31/16 16:05:31  5-MIN KAHN 312105Z 24004KT 10SM CLR 32/19 A2990 830 46 3000 250/04 RMK AO2 T03170189
13873KAHN AHN20160531161010305/31/16 16:10:31  5-MIN KAHN 312110Z VRB04KT 10SM CLR 32/19 A2990 830 44 3000 VRB/04 RMK AO2 T03220189
13873KAHN AHN20160531161510305/31/16 16:15:31  5-MIN KAHN 312115Z VRB04KT 10SM CLR 33/19 A2990 830 43 3100 VRB/04 RMK AO2 T03280189
13873KAHN AHN20160531162010305/31/16 16:20:31  5-MIN KAHN 312120Z VRB06KT 10SM CLR 32/18 A2990 830 44 3000 VRB/06 RMK AO2 T03170183
13873KAHN AHN20160531162510305/31/16 16:25:31  5-MIN KAHN 312125Z VRB04KT 10SM CLR 32/18 A2991 820 44 2900 VRB/04 RMK AO2 T03170183
13873KAHN AHN20160531163010605/31/16 16:30:31  5-MIN KAHN 312130Z 23005KT 10SM FEW070 31/18 A2991 820 46 2900 230/05 RMK AO2 T03110183
13873KAHN AHN20160531163510605/31/16 16:35:31  5-MIN KAHN 312135Z VRB03KT 10SM SCT070 31/18 A2990 830 47 2800 VRB/03 RMK AO2 T03060183
13873KAHN AHN20160531164010605/31/16 16:40:31  5-MIN KAHN 312140Z VRB03KT 10SM SCT070 30/18 A2990 830 49 2800 VRB/03 RMK AO2 T03000183
13873KAHN AHN20160531164511305/31/16 16:45:31  5-MIN KAHN 312145Z 22003KT 10SM SCT070 30/18 A2990 830 49 2800 230/03 RMK AO2 SLP118 T03000183
13873KAHN AHN20160531165011305/31/16 16:50:31  5-MIN KAHN 312150Z VRB05KT 10SM SCT070 31/18 A2990 830 47 2800 VRB/05 RMK AO2 SLP118 T03060183
13873KAHN AHN20160531165510605/31/16 16:55:31  5-MIN KAHN 312155Z 18006KT 10SM SCT070 30/18 A2990 830 49 2800 190/06 RMK AO2 T03000183
13873KAHN AHN20160531170010605/31/16 17:00:31  5-MIN KAHN 312200Z VRB04KT 10SM SCT070 30/18 A2990 830 47 2800 VRB/04 RMK AO2 T03000178
13873KAHN AHN20160531170510605/31/16 17:05:31  5-MIN KAHN 312205Z VRB03KT 10SM FEW070 31/18 A2990 830 46 2800 VRB/03 RMK AO2 T03060178
13873KAHN AHN20160531171010605/31/16 17:10:31  5-MIN KAHN 312210Z VRB04KT 10SM FEW070 31/17 A2990 830 42 2900 VRB/04 RMK AO2 T03110172
13873KAHN AHN20160531171510605/31/16 17:15:31  5-MIN KAHN 312215Z 18005KT 10SM FEW070 31/18 A2990 830 46 2800 190/05 RMK AO2 T03060178
13873KAHN AHN20160531172010605/31/16 17:20:31  5-MIN KAHN 312220Z VRB03KT 10SM FEW070 31/18 A2990 830 46 2800 VRB/03 RMK AO2 T03060178
13873KAHN AHN20160531172510605/31/16 17:25:31  5-MIN KAHN 312225Z VRB03KT 10SM FEW070 31/18 A2990 830 47 2800 VRB/03 RMK AO2 T03060183
13873KAHN AHN20160531173010305/31/16 17:30:31  5-MIN KAHN 312230Z VRB05KT 10SM CLR 31/18 A2990 830 46 2800 VRB/05 RMK AO2 T03060178
13873KAHN AHN20160531173510305/31/16 17:35:31  5-MIN KAHN 312235Z 20005KT 10SM CLR 31/18 A2990 830 46 2800 200/05 RMK AO2 T03060178
13873KAHN AHN20160531174010305/31/16 17:40:31  5-MIN KAHN 312240Z VRB04KT 10SM CLR 31/18 A2990 830 47 2800 VRB/04 RMK AO2 T03060183
13873KAHN AHN20160531174511005/31/16 17:45:31  5-MIN KAHN 312245Z VRB05KT 10SM CLR 31/18 A2990 830 47 2800 VRB/05 RMK AO2 SLP116 T03060183
13873KAHN AHN20160531175012205/31/16 17:50:31  5-MIN KAHN 312250Z VRB05KT 10SM CLR 31/18 A2989 830 47 2800 VRB/05 RMK AO2 LTG DSNT SE SLP115 T03060183
13873KAHN AHN20160531175511505/31/16 17:55:31  5-MIN KAHN 312255Z 17004KT 10SM CLR 31/18 A2990 830 47 2800 180/04 RMK AO2 LTG DSNT SE T03060183
13873KAHN AHN20160531180011505/31/16 18:00:31  5-MIN KAHN 312300Z VRB03KT 10SM CLR 31/18 A2989 830 47 2800 VRB/03 RMK AO2 LTG DSNT SE T03060183
13873KAHN AHN20160531180511505/31/16 18:05:31  5-MIN KAHN 312305Z 00000KT 10SM CLR 31/19 A2990 830 49 2800 000/00 RMK AO2 LTG DSNT SE T03060189
13873KAHN AHN20160531181011805/31/16 18:10:31  5-MIN KAHN 312310Z VRB03KT 10SM FEW100 31/18 A2990 830 47 2800 VRB/03 RMK AO2 LTG DSNT SE T03060183
13873KAHN AHN20160531181512505/31/16 18:15:31  5-MIN KAHN 312315Z 17003KT 10SM FEW070 SCT100 30/18 A2990 830 47 2800 180/03 RMK AO2 LTG DSNT SE T03000178
13873KAHN AHN20160531182012505/31/16 18:20:31  5-MIN KAHN 312320Z VRB03KT 10SM SCT070 BKN100 31/18 A2991 820 44 2900 VRB/03 RMK AO2 LTG DSNT SE T03110178
13873KAHN AHN20160531182512405/31/16 18:25:31  5-MIN KAHN 312325Z 10SM TS BKN070 BKN100 30/19 A2992 810 51 2800 M /M RMK AO2 LTG DSNT SE TSB22 T03000189
13873KAHN AHN20160531183014005/31/16 18:30:31  5-MIN KAHN 312330Z 36013G25KT 10SM TS BKN065 BKN100 28/17 A2992 810 50 2600 010/13G25 RMK AO2 LTG DSNT SE TSB22 T02830172
13873KAHN AHN20160531183515805/31/16 18:35:31  5-MIN KAHN 312335Z 01019G28KT 10SM TS BKN065 OVC100 27/16 A2992 810 50 2400 020/19G28 RMK AO2 PK WND 02028/2335 LTG DSNT SE TSB22 T02720161
13873KAHN AHN20160531184017805/31/16 18:40:31  5-MIN KAHN 312340Z 36011G28KT 4SM TSRA FEW017 BKN065 OVC100 24/16 A2993 800 59 2100 010/11G28 RMK AO2 PK WND 02028/2335 LTG DSNT SE RAB36 TSB22 P0000 T02440161
13873KAHN AHN20160531184517005/31/16 18:45:31  5-MIN KAHN 312345Z 04007G18KT 2SM +RA FEW037 BKN065 OVC100 23/18 A2993 810 73 1900 050/07G18 RMK AO2 PK WND 02028/2335 LTG DSNT SE RAB36 TSB22E42 P0007
13873KAHN AHN20160531185021005/31/16 18:50:31  5-MIN KAHN 312350Z 08008KT 2SM VCTS +RA SCT050 BKN070 OVC100 23/20 A2992 810 84 1900 080/08 RMK AO2 PK WND 02028/2335 LTG DSNT SE RAB36 TSB22E42 SLP126 P0013 60013 T02280200 10344 20228 56020
13873KAHN AHN20160531185514905/31/16 18:55:31  5-MIN KAHN 312355Z 11005KT 3SM VCTS -RA BR FEW034 BKN070 OVC095 22/21 A2992 810 93 1800 110/05 RMK AO2 LTG DSNT SE P0002 T02170206
13873KAHN AHN20160531190014605/31/16 19:00:31  5-MIN KAHN 010000Z 11004KT 7SM VCTS -RA FEW030 SCT055 BKN095 22/21 A2992 810 93 1900 110/04 RMK AO2 LTG DSNT SE P0002 T02220211
13873KAHN AHN20160531190514805/31/16 19:05:31  5-MIN KAHN 010005Z 03003KT 10SM VCTS FEW035 SCT075 BKN095 23/21 A2993 800 90 1900 040/03 RMK AO2 LTG DSNT W RAE05 P0002 T02280211
13873KAHN AHN20160531191014105/31/16 19:10:31  5-MIN KAHN 010010Z 00000KT 10SM VCTS FEW041 SCT090 24/22 A2993 800 90 2100 000/00 RMK AO2 LTG DSNT W RAE05 P0002 T02390222
13873KAHN AHN20160531191514305/31/16 19:15:31  5-MIN KAHN 010015Z 00000KT 10SM FEW031 FEW075 SCT090 23/22 A2993 800 90 2000 000/00 RMK AO2 LTG DSNT W RAE05 P0002 T02330217
13873KAHN AHN20160531192012905/31/16 19:20:31  5-MIN KAHN 010020Z 00000KT 10SM FEW090 23/22 A2993 800 93 1900 000/00 RMK AO2 LTG DSNT W RAE05 P0002 T02280217
13873KAHN AHN20160531192512605/31/16 19:25:31  5-MIN KAHN 010025Z 07005KT 10SM CLR 23/22 A2993 800 90 2000 080/05 RMK AO2 LTG DSNT W RAE05 P0002 T02330217
13873KAHN AHN20160531193013305/31/16 19:30:31  5-MIN KAHN 010030Z 09004KT 10SM CLR 23/22 A2993 800 93 1900 090/04 RMK AO2 LTG DSNT SW AND W RAE05 P0002 T02280217
13873KAHN AHN20160531193513305/31/16 19:35:31  5-MIN KAHN 010035Z 10004KT 10SM CLR 22/22 A2994 790 97 1900 100/04 RMK AO2 LTG DSNT SW AND W RAE05 P0002 T02220217
13873KAHN AHN20160531194013305/31/16 19:40:31  5-MIN KAHN 010040Z 08003KT 10SM CLR 23/22 A2994 790 93 1900 080/03 RMK AO2 LTG DSNT SW AND W RAE05 P0002 T02280217
13873KAHN AHN20160531194514005/31/16 19:45:31  5-MIN KAHN 010045Z 08004KT 10SM CLR 22/22 A2994 790 97 1900 080/04 RMK AO2 LTG DSNT SW AND W RAE05 SLP132 P0002 T02220217
13873KAHN AHN20160531195014105/31/16 19:50:31  5-MIN KAHN 010050Z 07004KT 10SM CLR 22/22 A2994 790 100 1900 080/04 RMK AO2 LTG DSNT SW AND W RAE05 SLP132 P0002 T02220222
13873KAHN AHN20160531195512105/31/16 19:55:31  5-MIN KAHN 010055Z 06004KT 10SM CLR 22/22 A2994 790 97 1900 070/04 RMK AO2 LTG DSNT SW AND W T02220217
13873KAHN AHN20160531200011505/31/16 20:00:31  5-MIN KAHN 010100Z 00000KT 10SM CLR 22/22 A2994 790 97 1900 000/00 RMK AO2 LTG DSNT SW T02220217
13873KAHN AHN20160531200510305/31/16 20:05:31  5-MIN KAHN 010105Z 06003KT 10SM CLR 22/22 A2994 790 97 1900 070/03 RMK AO2 T02220217
13873KAHN AHN20160531201011505/31/16 20:10:31  5-MIN KAHN 010110Z 07003KT 10SM CLR 22/22 A2994 790 97 1900 070/03 RMK AO2 LTG DSNT SW T02220217
13873KAHN AHN20160531201511605/31/16 20:15:31  5-MIN KAHN 010115Z 00000KT 10SM CLR 22/22 A2994 790 100 1800 000/00 RMK AO2 LTG DSNT SW T02170217
13873KAHN AHN20160531202011505/31/16 20:20:31  5-MIN KAHN 010120Z 00000KT 10SM CLR 22/22 A2994 790 97 1800 000/00 RMK AO2 LTG DSNT SW T02220217
13873KAHN AHN20160531202510305/31/16 20:25:31  5-MIN KAHN 010125Z 10003KT 10SM CLR 22/22 A2994 790 97 1800 110/03 RMK AO2 T02220217
13873KAHN AHN20160531203010405/31/16 20:30:31  5-MIN KAHN 010130Z 10003KT 10SM CLR 22/22 A2995 790 100 1800 110/03 RMK AO2 T02170217
13873KAHN AHN20160531203510405/31/16 20:35:31  5-MIN KAHN 010135Z 09003KT 10SM CLR 22/22 A2995 790 100 1800 090/03 RMK AO2 T02170217
13873KAHN AHN20160531204010405/31/16 20:40:31  5-MIN KAHN 010140Z 08003KT 10SM CLR 21/21 A2994 790 100 1700 090/03 RMK AO2 T02110211
13873KAHN AHN20160531204510905/31/16 20:45:31  5-MIN KAHN 010145Z 00000KT 9SM CLR 22/21 A2995 790 97 1800 000/00 RMK AO2 SLP133 T02170211
13873KAHN AHN20160531205011005/31/16 20:50:31  5-MIN KAHN 010150Z 00000KT 10SM CLR 22/21 A2995 790 97 1800 000/00 RMK AO2 SLP133 T02170211
13873KAHN AHN20160531205510305/31/16 20:55:31  5-MIN KAHN 010155Z 00000KT 10SM CLR 22/21 A2995 790 97 1800 000/00 RMK AO2 T02170211
13873KAHN AHN20160531210010305/31/16 21:00:31  5-MIN KAHN 010200Z 00000KT 10SM CLR 22/21 A2995 780 97 1800 000/00 RMK AO2 T02170211
13873KAHN AHN20160531210510305/31/16 21:05:31  5-MIN KAHN 010205Z 00000KT 10SM CLR 22/21 A2995 780 97 1800 000/00 RMK AO2 T02170211
13873KAHN AHN20160531211011405/31/16 21:10:31  5-MIN KAHN 010210Z 00000KT 10SM CLR 22/21 A2996 780 97 1800 000/00 RMK AO2 LTG DSNT E T02170211
13873KAHN AHN20160531211511405/31/16 21:15:31  5-MIN KAHN 010215Z 04005KT 10SM CLR 22/21 A2996 770 93 1800 050/05 RMK AO2 LTG DSNT E T02220211
13873KAHN AHN20160531212011405/31/16 21:20:31  5-MIN KAHN 010220Z 06006KT 10SM CLR 22/21 A2996 770 97 1800 060/06 RMK AO2 LTG DSNT E T02170211
13873KAHN AHN20160531212510305/31/16 21:25:31  5-MIN KAHN 010225Z 07004KT 10SM CLR 22/21 A2996 770 93 1800 070/04 RMK AO2 T02170206
13873KAHN AHN20160531213010605/31/16 21:30:31  5-MIN KAHN 010230Z 07005KT 10SM FEW055 21/21 A2997 770 97 1700 080/05 RMK AO2 T02110206
13873KAHN AHN20160531213510605/31/16 21:35:31  5-MIN KAHN 010235Z 07006KT 10SM SCT060 22/21 A2997 770 93 1800 070/06 RMK AO2 T02170206
13873KAHN AHN20160531214010605/31/16 21:40:31  5-MIN KAHN 010240Z 07005KT 10SM BKN060 22/21 A2997 770 93 1800 080/05 RMK AO2 T02170206
13873KAHN AHN20160531214512505/31/16 21:45:31  5-MIN KAHN 010245Z 08006KT 10SM BKN060 22/21 A2997 770 93 1800 090/06 RMK AO2 SLP141 60002 T02170206 53006
13873KAHN AHN20160531215012505/31/16 21:50:31  5-MIN KAHN 010250Z 08005KT 10SM SCT060 22/21 A2997 760 93 1800 080/05 RMK AO2 SLP141 60002 T02170206 53006
13873KAHN AHN20160531215510605/31/16 21:55:31  5-MIN KAHN 010255Z 06004KT 10SM SCT060 22/21 A2997 770 90 1800 060/04 RMK AO2 T02220206
13873KAHN AHN20160531220010605/31/16 22:00:31  5-MIN KAHN 010300Z 06004KT 10SM SCT060 22/21 A2997 770 90 1800 060/04 RMK AO2 T02220206
13873KAHN AHN20160531220510605/31/16 22:05:31  5-MIN KAHN 010305Z 06005KT 10SM FEW060 22/21 A2997 760 90 1800 070/05 RMK AO2 T02220206
13873KAHN AHN20160531221010305/31/16 22:10:31  5-MIN KAHN 010310Z 07006KT 10SM CLR 22/21 A2997 760 90 1800 070/06 RMK AO2 T02220206
13873KAHN AHN20160531221510305/31/16 22:15:31  5-MIN KAHN 010315Z 08004KT 10SM CLR 22/21 A2997 760 93 1800 080/04 RMK AO2 T02170206
13873KAHN AHN20160531222010305/31/16 22:20:31  5-MIN KAHN 010320Z 08004KT 10SM CLR 22/21 A2997 760 93 1800 090/04 RMK AO2 T02170206
13873KAHN AHN20160531222510305/31/16 22:25:31  5-MIN KAHN 010325Z 07004KT 10SM CLR 22/21 A2997 760 93 1800 070/04 RMK AO2 T02170206
13873KAHN AHN20160531223010305/31/16 22:30:31  5-MIN KAHN 010330Z 07004KT 10SM CLR 21/21 A2997 760 97 1700 080/04 RMK AO2 T02110206
13873KAHN AHN20160531223510305/31/16 22:35:31  5-MIN KAHN 010335Z 07004KT 10SM CLR 21/21 A2997 760 97 1700 080/04 RMK AO2 T02110206
13873KAHN AHN20160531224010305/31/16 22:40:31  5-MIN KAHN 010340Z 06005KT 10SM CLR 21/21 A2997 760 97 1700 070/05 RMK AO2 T02110206
13873KAHN AHN20160531224511005/31/16 22:45:31  5-MIN KAHN 010345Z 06005KT 10SM CLR 22/21 A2997 760 93 1800 070/05 RMK AO2 SLP141 T02170206
13873KAHN AHN20160531225011005/31/16 22:50:31  5-MIN KAHN 010350Z 07005KT 10SM CLR 22/20 A2998 760 90 1700 070/05 RMK AO2 SLP142 T02170200
13873KAHN AHN20160531225510305/31/16 22:55:31  5-MIN KAHN 010355Z 07006KT 10SM CLR 22/20 A2998 760 90 1700 080/06 RMK AO2 T02170200
13873KAHN AHN20160531230010305/31/16 23:00:31  5-MIN KAHN 010400Z 08006KT 10SM CLR 22/20 A2998 750 90 1700 090/06 RMK AO2 T02170200
13873KAHN AHN20160531230510305/31/16 23:05:31  5-MIN KAHN 010405Z 09004KT 10SM CLR 21/20 A2998 750 93 1700 090/04 RMK AO2 T02110200
13873KAHN AHN20160531231010305/31/16 23:10:31  5-MIN KAHN 010410Z 09003KT 10SM CLR 21/20 A2998 750 93 1700 100/03 RMK AO2 T02110200
13873KAHN AHN20160531231510305/31/16 23:15:31  5-MIN KAHN 010415Z 09004KT 10SM CLR 21/20 A2999 750 93 1700 090/04 RMK AO2 T02110200
13873KAHN AHN20160531232010305/31/16 23:20:31  5-MIN KAHN 010420Z 07005KT 10SM CLR 21/21 A2999 750 97 1700 080/05 RMK AO2 T02110206
13873KAHN AHN20160531232510305/31/16 23:25:31  5-MIN KAHN 010425Z 07005KT 10SM CLR 21/20 A2999 750 93 1700 080/05 RMK AO2 T02110200
13873KAHN AHN20160531233010305/31/16 23:30:31  5-MIN KAHN 010430Z 08005KT 10SM CLR 22/21 A2999 750 93 1700 080/05 RMK AO2 T02170206
13873KAHN AHN20160531233510305/31/16 23:35:31  5-MIN KAHN 010435Z 08006KT 10SM CLR 22/21 A2999 750 93 1700 090/06 RMK AO2 T02170206
13873KAHN AHN20160531234010305/31/16 23:40:31  5-MIN KAHN 010440Z 08005KT 10SM CLR 21/21 A2999 740 97 1700 080/05 RMK AO2 T02110206
13873KAHN AHN20160531234512005/31/16 23:45:31  5-MIN KAHN 010445Z 08005KT 10SM CLR 21/21 A2999 740 97 1700 080/05 RMK AO2 SLP148 T02110206 403440189
13873KAHN AHN20160531235012005/31/16 23:50:31  5-MIN KAHN 010450Z 08005KT 10SM CLR 21/21 A2999 740 97 1700 090/05 RMK AO2 SLP148 T02110206 403440189
13873KAHN AHN20160531235510305/31/16 23:55:31  5-MIN KAHN 010455Z 08006KT 10SM CLR 21/21 A2999 750 97 1700 090/06 RMK AO2 T02110206
