03949KAQV AQV20160401124514104/01/16 12:45:31  5-MIN KAQV 011845Z AUTO 04005KT 10SM TS FEW080 OVC090 17/08 A2990 400 57 700 030/05 RMK AO2 RAB20E40 TSB37 P0000 T01670083
03949KAQV AQV20160401125015504/01/16 12:50:31  5-MIN KAQV 011850Z AUTO 00000KT 10SM TS FEW080 OVC095 17/08 A2992 370 57 700 000/00 RMK AO2 RAB20E40 TSB37 PRESRR SLP132 P0000 T01670083
03949KAQV AQV20160401125516704/01/16 12:55:31  5-MIN KAQV 011855Z AUTO 00000KT 5SM +TSRA FEW055 SCT080 OVC095 16/08 A2993 370 59 600 000/00 RMK AO2 RAB20E40B52 TSB37 PRESRR SLP135 P0002 T01610083
03949KAQV AQV20160401130013804/01/16 13:00:31  5-MIN KAQV 011900Z AUTO 07003KT 2 1/2SM TSRA FEW047 BKN075 OVC095 14/12 A2992 380 83 400 060/03 RMK AO2 P0002 T01440117
03949KAQV AQV20160401130513504/01/16 13:05:31  5-MIN KAQV 011905Z AUTO VRB03KT 3SM -TSRA FEW042 BKN075 OVC095 15/12 A2990 390 83 500 VRB/03 RMK AO2 P0002 T01500122
03949KAQV AQV20160401131013804/01/16 13:10:31  5-MIN KAQV 011910Z AUTO VRB04KT 5SM -TSRA BR SCT041 BKN060 OVC095 16/13 A2991 390 86 600 VRB/04 RMK AO2 P0003 T01560133
03949KAQV AQV20160401131513904/01/16 13:15:31  5-MIN KAQV 011915Z AUTO VRB03KT 6SM -RA FEW032 BKN055 OVC095 16/12 A2991 380 80 600 VRB/03 RMK AO2 TSE15 P0003 T01560122
03949KAQV AQV20160401132013904/01/16 13:20:31  5-MIN KAQV 011920Z AUTO VRB03KT 9SM -RA FEW029 BKN055 OVC090 15/12 A2991 380 83 500 VRB/03 RMK AO2 TSE15 P0003 T01500122
03949KAQV AQV20160401132514204/01/16 13:25:31  5-MIN KAQV 011925Z AUTO VRB03KT 10SM FEW034 SCT050 OVC085 15/12 A2991 380 80 500 VRB/03 RMK AO2 RAE24 TSE15 P0003 T01500117
03949KAQV AQV20160401133014204/01/16 13:30:31  5-MIN KAQV 011930Z AUTO 06005KT 10SM FEW027 SCT060 OVC080 15/12 A2991 390 80 500 060/05 RMK AO2 RAE24 TSE15 P0003 T01500117
03949KAQV AQV20160401133514204/01/16 13:35:31  5-MIN KAQV 011935Z AUTO VRB03KT 10SM FEW027 FEW037 OVC080 15/12 A2991 380 80 500 VRB/03 RMK AO2 RAE24 TSE15 P0003 T01500117
03949KAQV AQV20160401134021704/01/16 13:40:31  5-MIN KAQV 011940Z AUTO 00000KT 10SM FEW028 SCT070 OVC080 15/12 A2993 370 80 500 000/00 RMK AO2 RAE24 TSE15 P0003 T0150011704/01M OVC075 16/12 A2990 400 77 700 020/05 RMK AO2 RAE2059 P0000 T01610122
03949KAQV AQV20160401154012404/01/16 15:40:31  5-MIN KAQV 012140Z AUTO 01009KT 10SM OVC075 16/11 A2989 400 72 700 010/09 RMK AO2 RAE2059 P0000 T01610111
03949KAQV AQV20160401154512404/01/16 15:45:31  5-MIN KAQV 012145Z AUTO 02005KT 10SM OVC075 16/10 A2989 400 67 700 020/05 RMK AO2 RAE2059 P0000 T01610100
03949KAQV AQV20160401233510804/01/16 23:35:31  5-MIN KAQV 020535Z AUTO 33003KT 10SM CLR 08/06 A3007 240 86 -500 330/03 RMK AO2 T00780056
03949KAQV AQV20160401234010804/01/16 23:40:31  5-MIN KAQV 020540Z AUTO VRB03KT 10SM CLR 08/06 A3006 240 82 -400 VRB/03 RMK AO2 T00830056
03949KAQV AQV20160401234510804/01/16 23:45:31  5-MIN KAQV 020545Z AUTO VRB03KT 10SM CLR 08/06 A3006 240 82 -400 VRB/03 RMK AO2 T00830056
03949KAQV AQV20160401235014304/01/16 23:50:31  5-MIN KAQV 020550Z AUTO VRB03KT 10SM CLR 08/06 A3007 240 86 -500 VRB/03 RMK AO2 SLP181 T00780056 10150 20078 401890078 53038
03949KAQV AQV20160401235514304/01/16 23:55:31  5-MIN KAQV 020555Z AUTO 34003KT 10SM CLR 08/06 A3006 240 86 -500 330/03 RMK AO2 SLP181 T00780056 10150 20078 401890078 53038
03949KAQV AQV20160402000010804/02/16 00:00:31  5-MIN KAQV 020600Z AUTO 33003KT 10SM CLR 08/06 A3006 250 86 -500 330/03 RMK AO2 T00780056
03949KAQV AQV20160402000510804/02/16 00:05:31  5-MIN KAQV 020605Z AUTO 32003KT 10SM CLR 08/06 A3006 240 86 -500 320/03 RMK AO2 T00780056
03949KAQV AQV20160402001010804/02/16 00:10:31  5-MIN KAQV 020610Z AUTO 00000KT 10SM CLR 08/06 A3006 240 86 -500 000/00 RMK AO2 T00780056
03949KAQV AQV20160402001510804/02/16 00:15:31  5-MIN KAQV 020615Z AUTO 00000KT 10SM CLR 08/06 A3007 240 86 -500 000/00 RMK AO2 T00780056
03949KAQV AQV20160402002010804/02/16 00:20:31  5-MIN KAQV 020620Z AUTO 33003KT 10SM CLR 07/06 A3006 240 89 -500 320/03 RMK AO2 T00720056
03949KAQV AQV20160402002510804/02/16 00:25:31  5-MIN KAQV 020625Z AUTO 00000KT 10SM CLR 07/06 A3007 240 89 -500 000/00 RMK AO2 T00720056
03949KAQV AQV20160402003010804/02/16 00:30:31  5-MIN KAQV 020630Z AUTO 00000KT 10SM CLR 07/06 A3007 240 89 -500 000/00 RMK AO2 T00720056
03949KAQV AQV20160402003510804/02/16 00:35:31  5-MIN KAQV 020635Z AUTO 33003KT 10SM CLR 07/06 A3006 250 89 -500 330/03 RMK AO2 T00720056
03949KAQV AQV20160402004010804/02/16 00:40:31  5-MIN KAQV 020640Z AUTO 00000KT 10SM CLR 07/06 A3006 240 89 -500 000/00 RMK AO2 T00720056
03949KAQV AQV20160402004510804/02/16 00:45:31  5-MIN KAQV 020645Z AUTO 00000KT 10SM CLR 07/06 A3007 240 89 -500 000/00 RMK AO2 T00720056
03949KAQV AQV20160402005011504/02/16 00:50:31  5-MIN KAQV 020650Z AUTO 00000KT 10SM CLR 07/06 A3007 240 89 -500 000/00 RMK AO2 SLP182 T00720056
03949KAQV AQV20160402005511504/02/16 00:55:31  5-MIN KAQV 020655Z AUTO 32003KT 10SM CLR 07/06 A3007 240 89 -500 310/03 RMK AO2 SLP182 T00720056
03949KAQV AQV20160402010010804/02/16 01:00:31  5-MIN KAQV 020700Z AUTO VRB03KT 10SM CLR 07/06 A3007 240 93 -600 VRB/03 RMK AO2 T00670056
03949KAQV AQV20160402010510804/02/16 01:05:31  5-MIN KAQV 020705Z AUTO 00000KT 10SM CLR 07/06 A3007 240 93 -600 000/00 RMK AO2 T00670056
03949KAQV AQV20160402011010804/02/16 01:10:31  5-MIN KAQV 020710Z AUTO 00000KT 10SM CLR 07/06 A3006 240 93 -600 000/00 RMK AO2 T00670056
03949KAQV AQV20160402011510804/02/16 01:15:31  5-MIN KAQV 020715Z AUTO 31003KT 10SM CLR 07/05 A3006 240 89 -600 310/03 RMK AO2 T00670050
03949KAQV AQV20160402012010804/02/16 01:20:31  5-MIN KAQV 020720Z AUTO 00000KT 10SM CLR 07/05 A3007 240 89 -600 000/00 RMK AO2 T00670050
03949KAQV AQV20160402012510804/02/16 01:25:31  5-MIN KAQV 020725Z AUTO 00000KT 10SM CLR 07/05 A3007 240 89 -600 000/00 RMK AO2 T00670050
03949KAQV AQV20160402013010804/02/16 01:30:31  5-MIN KAQV 020730Z AUTO 00000KT 10SM CLR 07/05 A3007 240 89 -600 000/00 RMK AO2 T00670050
03949KAQV AQV20160402013510804/02/16 01:35:31  5-MIN KAQV 020735Z AUTO 00000KT 10SM CLR 07/05 A3007 240 89 -600 000/00 RMK AO2 T00670050
03949KAQV AQV20160402014010804/02/16 01:40:31  5-MIN KAQV 020740Z AUTO 00000KT 10SM CLR 06/05 A3007 240 93 -700 000/00 RMK AO2 T00610050
03949KAQV AQV20160402014510804/02/16 01:45:31  5-MIN KAQV 020745Z AUTO 00000KT 10SM CLR 06/05 A3007 230 93 -700 000/00 RMK AO2 T00610050
03949KAQV AQV20160402015011504/02/16 01:50:31  5-MIN KAQV 020750Z AUTO 00000KT 10SM CLR 06/05 A3007 240 93 -700 000/00 RMK AO2 SLP184 T00610050
03949KAQV AQV20160402015511504/02/16 01:55:31  5-MIN KAQV 020755Z AUTO 00000KT 10SM CLR 06/05 A3007 240 93 -700 000/00 RMK AO2 SLP183 T00610050
03949KAQV AQV20160402020010804/02/16 02:00:31  5-MIN KAQV 020800Z AUTO 00000KT 10SM CLR 06/05 A3007 240 93 -700 000/00 RMK AO2 T00610050
03949KAQV AQV20160402020510804/02/16 02:05:31  5-MIN KAQV 020805Z AUTO 00000KT 10SM CLR 06/05 A3007 240 93 -700 000/00 RMK AO2 T00610050
03949KAQV AQV20160402021010804/02/16 02:10:31  5-MIN KAQV 020810Z AUTO 00000KT 10SM CLR 06/05 A3007 240 93 -700 000/00 RMK AO2 T00610050
03949KAQV AQV20160402021510804/02/16 02:15:31  5-MIN KAQV 020815Z AUTO 00000KT 10SM CLR 06/04 A3007 230 89 -700 000/00 RMK AO2 T00610044
03949KAQV AQV20160402022010804/02/16 02:20:31  5-MIN KAQV 020820Z AUTO 00000KT 10SM CLR 06/04 A3008 230 89 -700 000/00 RMK AO2 T00610044
03949KAQV AQV20160402022510804/02/16 02:25:31  5-MIN KAQV 020825Z AUTO 00000KT 10SM CLR 06/04 A3008 230 89 -700 000/00 RMK AO2 T00610044
03949KAQV AQV20160402023010804/02/16 02:30:31  5-MIN KAQV 020830Z AUTO 33003KT 10SM CLR 06/04 A3007 230 89 -700 330/03 RMK AO2 T00610044
03949KAQV AQV20160402023510804/02/16 02:35:31  5-MIN KAQV 020835Z AUTO 00000KT 10SM CLR 06/04 A3007 240 89 -700 000/00 RMK AO2 T00610044
03949KAQV AQV20160402024010804/02/16 02:40:31  5-MIN KAQV 020840Z AUTO 00000KT 10SM CLR 06/04 A3007 240 89 -700 000/00 RMK AO2 T00610044
03949KAQV AQV20160402024510804/02/16 02:45:31  5-MIN KAQV 020845Z AUTO 00000KT 10SM CLR 06/04 A3007 240 89 -700 000/00 RMK AO2 T00610044
03949KAQV AQV20160402025012104/02/16 02:50:31  5-MIN KAQV 020850Z AUTO 00000KT 10SM CLR 06/04 A3007 240 89 -700 000/00 RMK AO2 SLP183 T00610044 50005
03949KAQV AQV20160402025512104/02/16 02:55:31  5-MIN KAQV 020855Z AUTO 00000KT 10SM CLR 06/04 A3007 240 89 -700 000/00 RMK AO2 SLP183 T00610044 50005
03949KAQV AQV20160402030010804/02/16 03:00:31  5-MIN KAQV 020900Z AUTO 00000KT 10SM CLR 06/04 A3007 240 92 -800 000/00 RMK AO2 T00560044
03949KAQV AQV20160402030510804/02/16 03:05:31  5-MIN KAQV 020905Z AUTO 00000KT 10SM CLR 06/04 A3007 230 92 -800 000/00 RMK AO2 T00560044
03949KAQV AQV20160402031010804/02/16 03:10:31  5-MIN KAQV 020910Z AUTO 00000KT 10SM CLR 06/04 A3007 240 92 -800 000/00 RMK AO2 T00560044
03949KAQV AQV20160402031510804/02/16 03:15:31  5-MIN KAQV 020915Z AUTO 00000KT 10SM CLR 06/04 A3007 240 92 -800 000/00 RMK AO2 T00560044
03949KAQV AQV20160402032010804/02/16 03:20:31  5-MIN KAQV 020920Z AUTO 00000KT 10SM CLR 06/04 A3007 230 92 -800 000/00 RMK AO2 T00560044
03949KAQV AQV20160402032510804/02/16 03:25:31  5-MIN KAQV 020925Z AUTO 00000KT 10SM CLR 06/04 A3008 230 92 -800 000/00 RMK AO2 T00560044
03949KAQV AQV20160402033010804/02/16 03:30:31  5-MIN KAQV 020930Z AUTO 00000KT 10SM CLR 06/04 A3008 230 92 -800 000/00 RMK AO2 T00560044
03949KAQV AQV20160402033510804/02/16 03:35:31  5-MIN KAQV 020935Z AUTO 00000KT 10SM CLR 06/04 A3007 240 92 -800 000/00 RMK AO2 T00560044
03949KAQV AQV20160402034010804/02/16 03:40:31  5-MIN KAQV 020940Z AUTO 00000KT 10SM CLR 06/04 A3007 240 92 -800 000/00 RMK AO2 T00560044
03949KAQV AQV20160402034510804/02/16 03:45:31  5-MIN KAQV 020945Z AUTO 00000KT 10SM CLR 06/04 A3007 240 92 -800 000/00 RMK AO2 T00560044
03949KAQV AQV20160402035011504/02/16 03:50:31  5-MIN KAQV 020950Z AUTO 00000KT 10SM CLR 06/04 A3007 230 92 -800 000/00 RMK AO2 SLP184 T00560044
03949KAQV AQV20160402035511504/02/16 03:55:31  5-MIN KAQV 020955Z AUTO 00000KT 10SM CLR 06/04 A3008 230 92 -800 000/00 RMK AO2 SLP185 T00560044
03949KAQV AQV20160402040010804/02/16 04:00:31  5-MIN KAQV 021000Z AUTO 00000KT 10SM CLR 06/04 A3008 230 92 -800 000/00 RMK AO2 T00560044
03949KAQV AQV20160402040510804/02/16 04:05:31  5-MIN KAQV 021005Z AUTO 00000KT 10SM CLR 06/04 A3009 220 92 -800 000/00 RMK AO2 T00560044
03949KAQV AQV20160402084510504/02/16 08:45:31  5-MIN KAQV 021445Z AUTO 35006KT 10SM CLR 13/04 A3019 120 52 0 350/06 RMK AO2 T01330039
03949KAQV AQV20160402085012004/02/16 08:50:31  5-MIN KAQV 021450Z AUTO 01007KT 10SM CLR 14/04 A3019 130 50 100 360/07 RMK AO2 SLP224 T01390039 53016
03949KAQV AQV20160402085512004/02/16 08:55:31  5-MIN KAQV 021455Z AUTO VRB06KT 10SM CLR 14/04 A3019 130 50 100 VRB/06 RMK AO2 SLP224 T01390039 53016
03949KAQV AQV20160402090010704/02/16 09:00:31  5-MIN KAQV 021500Z AUTO 02005KT 10SM CLR 14/04 A3019 130 51 100 010/05 RMK AO2 T01440044
03949KAQV AQV20160402090510704/02/16 09:05:31  5-MIN KAQV 021505Z AUTO 01006KT 10SM CLR 14/04 A3019 130 51 100 010/06 RMK AO2 T01440044
03949KAQV AQV20160402091010704/02/16 09:10:31  5-MIN KAQV 021510Z AUTO 35007KT 10SM CLR 14/04 A3019 130 49 100 340/07 RMK AO2 T01440039
03949KAQV AQV20160402091510704/02/16 09:15:31  5-MIN KAQV 021515Z AUTO VRB06KT 10SM CLR 15/04 A3019 130 49 200 VRB/06 RMK AO2 T01500044
03949KAQV AQV20160402092010704/02/16 09:20:31  5-MIN KAQV 021520Z AUTO 36008KT 10SM CLR 15/04 A3019 130 47 200 350/08 RMK AO2 T01500039
03949KAQV AQV20160402092510704/02/16 09:25:31  5-MIN KAQV 021525Z AUTO 02007KT 10SM CLR 15/04 A3019 130 47 200 020/07 RMK AO2 T01500039
03949KAQV AQV20160402093010704/02/16 09:30:31  5-MIN KAQV 021530Z AUTO 01006KT 10SM CLR 16/04 A3019 130 45 300 010/06 RMK AO2 T01560039
03949KAQV AQV20160402093510704/02/16 09:35:31  5-MIN KAQV 021535Z AUTO VRB05KT 10SM CLR 16/04 A3019 130 45 300 VRB/05 RMK AO2 T01560039
03949KAQV AQV20160402094010704/02/16 09:40:31  5-MIN KAQV 021540Z AUTO VRB05KT 10SM CLR 16/04 A3019 130 45 300 VRB/05 RMK AO2 T01560039
03949KAQV AQV20160402094510704/02/16 09:45:31  5-MIN KAQV 021545Z AUTO 01007KT 10SM CLR 17/04 A3019 130 42 400 010/07 RMK AO2 T01670039
03949KAQV AQV20160402095011404/02/16 09:50:31  5-MIN KAQV 021550Z AUTO VRB04KT 10SM CLR 16/04 A3019 130 45 300 VRB/04 RMK AO2 SLP224 T01610044
03949KAQV AQV20160402095511404/02/16 09:55:31  5-MIN KAQV 021555Z AUTO 36005KT 10SM CLR 17/04 A3019 130 44 400 350/05 RMK AO2 SLP224 T01670044
03949KAQV AQV20160402100010704/02/16 10:00:31  5-MIN KAQV 021600Z AUTO VRB05KT 10SM CLR 17/03 A3019 130 40 400 VRB/05 RMK AO2 T01670033
03949KAQV AQV20160402100510704/02/16 10:05:31  5-MIN KAQV 021605Z AUTO VRB06KT 10SM CLR 17/03 A3019 130 39 400 VRB/06 RMK AO2 T01670028
03949KAQV AQV20160402101010704/02/16 10:10:31  5-MIN KAQV 021610Z AUTO VRB04KT 10SM CLR 16/02 A3019 130 39 300 VRB/04 RMK AO2 T01610022
03949KAQV AQV20160402101510704/02/16 10:15:31  5-MIN KAQV 021615Z AUTO 01010KT 10SM CLR 17/03 A3019 130 40 400 010/10 RMK AO2 T01670033
03949KAQV AQV20160402102010704/02/16 10:20:31  5-MIN KAQV 021620Z AUTO 36007KT 10SM CLR 17/03 A3019 130 37 500 360/07 RMK AO2 T01720028
03949KAQV AQV20160402102512304/02/16 10:25:31  5-MIN KAQV 021625Z AUTO 01007KT 340V040 10SM CLR 17/03 A3019 130 37 500 010/07 340V040 RMK AO2 T01720028
03949KAQV AQV20160402103010704/02/16 10:30:31  5-MIN KAQV 021630Z AUTO 01006KT 10SM CLR 17/03 A3019 130 37 500 010/06 RMK AO2 T01720028
03949KAQV AQV20160402103510704/02/16 10:35:31  5-MIN KAQV 021635Z AUTO VRB06KT 10SM CLR 17/02 A3019 130 36 500 VRB/06 RMK AO2 T01720022
03949KAQV AQV20160402104010704/02/16 10:40:31  5-MIN KAQV 021640Z AUTO 01007KT 10SM CLR 18/02 A3019 130 35 500 360/07 RMK AO2 T01780022
03949KAQV AQV20160402104510704/02/16 10:45:31  5-MIN KAQV 021645Z AUTO 01008KT 10SM CLR 18/02 A3019 130 35 500 010/08 RMK AO2 T01780022
03949KAQV AQV20160402105011404/02/16 10:50:31  5-MIN KAQV 021650Z AUTO VRB04KT 10SM CLR 18/02 A3019 130 33 500 VRB/04 RMK AO2 SLP223 T01780017
03949KAQV AQV20160402105511404/02/16 10:55:31  5-MIN KAQV 021655Z AUTO VRB04KT 10SM CLR 18/02 A3019 130 35 500 VRB/04 RMK AO2 SLP223 T01780022
03949KAQV AQV20160402110010704/02/16 11:00:31  5-MIN KAQV 021700Z AUTO VRB06KT 10SM CLR 18/02 A3019 130 34 600 VRB/06 RMK AO2 T01830022
03949KAQV AQV20160402110510704/02/16 11:05:31  5-MIN KAQV 021705Z AUTO VRB06KT 10SM CLR 18/02 A3019 130 33 500 VRB/06 RMK AO2 T01780017
03949KAQV AQV20160402111012304/02/16 11:10:31  5-MIN KAQV 021710Z AUTO 34007KT 300V020 10SM CLR 18/01 A3019 130 32 500 340/07 300V020 RMK AO2 T01780011
03949KAQV AQV20160402111510704/02/16 11:15:31  5-MIN KAQV 021715Z AUTO VRB04KT 10SM CLR 18/01 A3019 130 32 500 VRB/04 RMK AO2 T01780011
03949KAQV AQV20160402112010704/02/16 11:20:31  5-MIN KAQV 021720Z AUTO VRB05KT 10SM CLR 18/02 A3018 140 32 600 VRB/05 RMK AO2 T01830017
03949KAQV AQV20160402112512304/02/16 11:25:31  5-MIN KAQV 021725Z AUTO 30007KT 250V340 10SM CLR 19/02 A3018 130 32 700 290/07 250V340 RMK AO2 T01890022
03949KAQV AQV20160402113012304/02/16 11:30:31  5-MIN KAQV 021730Z AUTO 33008KT 300V010 10SM CLR 18/01 A3018 130 31 500 330/08 300V010 RMK AO2 T01780006
03949KAQV AQV20160402113512904/02/16 11:35:31  5-MIN KAQV 021735Z AUTO 34007G15KT 290V020 10SM CLR 18/01 A3018 140 31 500 340/07G15 290V020 RMK AO2 T01780006
03949KAQV AQV20160402114010704/02/16 11:40:31  5-MIN KAQV 021740Z AUTO VRB06KT 10SM CLR 18/01 A3018 140 31 600 VRB/06 RMK AO2 T01830011
03949KAQV AQV20160402114511304/02/16 11:45:31  5-MIN KAQV 021745Z AUTO VRB06G15KT 10SM CLR 18/01 A3018 140 32 500 VRB/06G15 RMK AO2 T01780011
03949KAQV AQV20160402115013804/02/16 11:50:31  5-MIN KAQV 021750Z AUTO 34009G16KT 10SM CLR 18/02 A3018 140 32 600 340/09G16 RMK AO2 SLP220 T01830017 10189 20056 51023
03949KAQV AQV20160402115515404/02/16 11:55:31  5-MIN KAQV 021755Z AUTO 35008G16KT 270V010 10SM CLR 19/02 A3018 140 31 700 350/08G16 270V010 RMK AO2 SLP219 T01890017 10189 20056 51023
03949KAQV AQV20160402120011304/02/16 12:00:31  5-MIN KAQV 021800Z AUTO VRB04G15KT 10SM CLR 19/02 A3017 140 32 700 VRB/04G15 RMK AO2 T01890022
03949KAQV AQV20160402120512304/02/16 12:05:31  5-MIN KAQV 021805Z AUTO 30007KT 250V350 10SM CLR 19/02 A3017 150 31 700 300/07 250V350 RMK AO2 T01890017
03949KAQV AQV20160402121012304/02/16 12:10:31  5-MIN KAQV 021810Z AUTO 29007KT 250V340 10SM CLR 19/02 A3017 150 31 700 290/07 250V340 RMK AO2 T01890017
03949KAQV AQV20160402121510704/02/16 12:15:31  5-MIN KAQV 021815Z AUTO VRB05KT 10SM CLR 19/02 A3017 150 30 700 VRB/05 RMK AO2 T01940017
03949KAQV AQV20160402122012904/02/16 12:20:31  5-MIN KAQV 021820Z AUTO 35008G15KT 310V040 10SM CLR 19/01 A3017 150 29 700 340/08G15 310V040 RMK AO2 T01890006
03949KAQV AQV20160402122512904/02/16 12:25:31  5-MIN KAQV 021825Z AUTO 29007G15KT 250V340 10SM CLR 19/01 A3016 150 29 700 290/07G15 250V340 RMK AO2 T01890006
03949KAQV AQV20160402123012304/02/16 12:30:31  5-MIN KAQV 021830Z AUTO 35008KT 290V030 10SM CLR 19/01 A3016 150 29 800 350/08 290V030 RMK AO2 T01940011
03949KAQV AQV20160402123510704/02/16 12:35:31  5-MIN KAQV 021835Z AUTO VRB06KT 10SM CLR 19/01 A3016 160 30 700 VRB/06 RMK AO2 T01890011
03949KAQV AQV20160402124012304/02/16 12:40:31  5-MIN KAQV 021840Z AUTO 35007KT 320V020 10SM CLR 19/01 A3016 160 30 700 340/07 320V020 RMK AO2 T01890011
03949KAQV AQV20160402124510704/02/16 12:45:31  5-MIN KAQV 021845Z AUTO VRB05KT 10SM CLR 19/01 A3016 160 29 800 VRB/05 RMK AO2 T01940011
03949KAQV AQV20160402125011404/02/16 12:50:31  5-MIN KAQV 021850Z AUTO VRB03KT 10SM CLR 19/02 A3015 160 30 800 VRB/03 RMK AO2 SLP211 T01940017
03949KAQV AQV20160402125510404/02/16 12:55:31  5-MIN KAQV 021855Z AUTO 10SM CLR 20/01 A3015 160 28 800 M /M RMK AO2 SLP210 T02000011
03949KAQV AQV20160402130012904/02/16 13:00:31  5-MIN KAQV 021900Z AUTO 34007G17KT 300V010 10SM CLR 19/00 A3015 160 27 800 340/07G17 300V010 RMK AO2 T01940000
03949KAQV AQV20160402130511304/02/16 13:05:31  5-MIN KAQV 021905Z AUTO VRB06G17KT 10SM CLR 21/01 A3015 170 27 900 VRB/06G17 RMK AO2 T02060011
03949KAQV AQV20160402131010704/02/16 13:10:31  5-MIN KAQV 021910Z AUTO VRB03KT 10SM CLR 21/01 A3015 170 27 900 VRB/03 RMK AO2 T02060011
03949KAQV AQV20160402131512304/02/16 13:15:31  5-MIN KAQV 021915Z AUTO 31008KT 250V360 10SM CLR 20/01 A3015 170 28 800 310/08 250V360 RMK AO2 T02000011
03949KAQV AQV20160402132012304/02/16 13:20:31  5-MIN KAQV 021920Z AUTO 33007KT 290V360 10SM CLR 19/00 A3014 170 27 800 330/07 290V360 RMK AO2 T01940000
03949KAQV AQV20160402132512904/02/16 13:25:31  5-MIN KAQV 021925Z AUTO 30007G17KT 240V340 10SM CLR 20/01 A3014 170 27 800 300/07G17 240V340 RMK AO2 T02000006
03949KAQV AQV20160402133012904/02/16 13:30:31  5-MIN KAQV 021930Z AUTO 28008G17KT 250V320 10SM CLR 20/00 A3014 180 26 800 280/08G17 250V320 RMK AO2 T02000000
03949KAQV AQV20160402133510704/02/16 13:35:31  5-MIN KAQV 021935Z AUTO VRB04KT 10SM CLR 21/01 A3014 170 26 900 VRB/04 RMK AO2 T02060006
03949KAQV AQV20160402134010704/02/16 13:40:31  5-MIN KAQV 021940Z AUTO VRB04KT 10SM CLR 20/01 A3013 180 27 800 VRB/04 RMK AO2 T02000006
03949KAQV AQV20160402134510704/02/16 13:45:31  5-MIN KAQV 021945Z AUTO VRB05KT 10SM CLR 21/01 A3013 180 27 900 VRB/05 RMK AO2 T02060011
03949KAQV AQV20160402135013604/02/16 13:50:31  5-MIN KAQV 021950Z AUTO 35011G15KT 300V020 10SM CLR 20/01 A3013 180 27 800 350/11G15 300V020 RMK AO2 SLP204 T02000006
03949KAQV AQV20160402135513604/02/16 13:55:31  5-MIN KAQV 021955Z AUTO 31007G15KT 260V350 10SM CLR 20/00 A3013 180 26 800 310/07G15 260V350 RMK AO2 SLP204 T02000000
03949KAQV AQV20160402140010704/02/16 14:00:31  5-MIN KAQV 022000Z AUTO VRB05KT 10SM CLR 20/01 A3013 180 27 900 VRB/05 RMK AO2 T02000006
03949KAQV AQV20160402140509704/02/16 14:05:31  5-MIN KAQV 022005Z AUTO 10SM CLR 20/01 A3013 190 28 900 M /M RMK AO2 T02000011
03949KAQV AQV20160402141012304/02/16 14:10:31  5-MIN KAQV 022010Z AUTO 34008KT 270V030 10SM CLR 21/01 A3012 190 27 900 330/08 270V030 RMK AO2 T02060011
03949KAQV AQV20160402141510704/02/16 14:15:31  5-MIN KAQV 022015Z AUTO VRB05KT 10SM CLR 20/01 A3012 190 27 900 VRB/05 RMK AO2 T02000006
03949KAQV AQV20160402142010704/02/16 14:20:31  5-MIN KAQV 022020Z AUTO VRB04KT 10SM CLR 20/01 A3012 190 28 900 VRB/04 RMK AO2 T02000011
03949KAQV AQV20160402142510704/02/16 14:25:31  5-MIN KAQV 022025Z AUTO 35008KT 10SM CLR 20/01 A3012 190 28 900 350/08 RMK AO2 T02000011
03949KAQV AQV20160402143012304/02/16 14:30:31  5-MIN KAQV 022030Z AUTO 30007KT 250V340 10SM CLR 20/01 A3011 200 28 900 300/07 250V340 RMK AO2 T02000011
03949KAQV AQV20160402143510704/02/16 14:35:31  5-MIN KAQV 022035Z AUTO VRB06KT 10SM CLR 20/01 A3012 200 28 900 VRB/06 RMK AO2 T02000011
03949KAQV AQV20160402144010704/02/16 14:40:31  5-MIN KAQV 022040Z AUTO VRB05KT 10SM CLR 20/01 A3011 200 28 900 VRB/05 RMK AO2 T02000011
03949KAQV AQV20160402144512304/02/16 14:45:31  5-MIN KAQV 022045Z AUTO 32008KT 300V360 10SM CLR 20/01 A3011 200 28 900 320/08 300V360 RMK AO2 T02000011
03949KAQV AQV20160402145012004/02/16 14:50:31  5-MIN KAQV 022050Z AUTO VRB06KT 10SM CLR 20/01 A3011 200 27 900 VRB/06 RMK AO2 SLP196 T02000006 58004
03949KAQV AQV20160402145514204/02/16 14:55:31  5-MIN KAQV 022055Z AUTO 34008G14KT 310V010 10SM CLR 20/01 A3011 200 28 900 340/08G14 310V010 RMK AO2 SLP196 T02000011 58004
03949KAQV AQV20160402150011304/02/16 15:00:31  5-MIN KAQV 022100Z AUTO 36009G16KT 10SM CLR 21/01 A3010 210 27 900 350/09G16 RMK AO2 T02060011
03949KAQV AQV20160402150511304/02/16 15:05:31  5-MIN KAQV 022105Z AUTO VRB04G16KT 10SM CLR 21/02 A3010 210 28 900 VRB/04G16 RMK AO2 T02060017
03949KAQV AQV20160402151009704/02/16 15:10:31  5-MIN KAQV 022110Z AUTO 10SM CLR 21/02 A3010 210 28 900 M /M RMK AO2 T02060017
03949KAQV AQV20160402151510704/02/16 15:15:31  5-MIN KAQV 022115Z AUTO VRB06KT 10SM CLR 21/02 A3010 210 28 900 VRB/06 RMK AO2 T02060017
03949KAQV AQV20160402152012304/02/16 15:20:31  5-MIN KAQV 022120Z AUTO 35008KT 320V020 10SM CLR 21/01 A3010 210 27 900 350/08 320V020 RMK AO2 T02060011
03949KAQV AQV20160402152510804/02/16 15:25:31  5-MIN KAQV 022125Z AUTO VRB06KT 10SM CLR 21/02 A3010 210 27 1000 VRB/06 RMK AO2 T02110017
03949KAQV AQV20160402153010704/02/16 15:30:31  5-MIN KAQV 022130Z AUTO VRB06KT 10SM CLR 21/01 A3010 210 27 900 VRB/06 RMK AO2 T02060011
03949KAQV AQV20160402153510704/02/16 15:35:31  5-MIN KAQV 022135Z AUTO 01008KT 10SM CLR 21/01 A3010 210 27 900 360/08 RMK AO2 T02060011
03949KAQV AQV20160402154012904/02/16 15:40:31  5-MIN KAQV 022140Z AUTO 34007G16KT 300V020 10SM CLR 21/01 A3010 210 27 900 340/07G16 300V020 RMK AO2 T02060011
03949KAQV AQV20160402154511304/02/16 15:45:31  5-MIN KAQV 022145Z AUTO VRB06G16KT 10SM CLR 21/01 A3010 210 27 900 VRB/06G16 RMK AO2 T02060011
03949KAQV AQV20160402155011404/02/16 15:50:31  5-MIN KAQV 022150Z AUTO VRB06KT 10SM CLR 21/01 A3010 210 27 900 VRB/06 RMK AO2 SLP193 T02060011
03949KAQV AQV20160402155513004/02/16 15:55:31  5-MIN KAQV 022155Z AUTO 36007KT 300V070 10SM CLR 20/01 A3010 210 27 900 360/07 300V070 RMK AO2 SLP193 T02000006
03949KAQV AQV20160402160010704/02/16 16:00:31  5-MIN KAQV 022200Z AUTO VRB06KT 10SM CLR 21/01 A3010 210 26 900 VRB/06 RMK AO2 T02060006
03949KAQV AQV20160402160512304/02/16 16:05:31  5-MIN KAQV 022205Z AUTO 35009KT 300V010 10SM CLR 20/01 A3010 210 27 900 350/09 300V010 RMK AO2 T02000006
03949KAQV AQV20160402161010704/02/16 16:10:31  5-MIN KAQV 022210Z AUTO VRB06KT 10SM CLR 20/01 A3010 210 27 900 VRB/06 RMK AO2 T02000006
03949KAQV AQV20160402161512304/02/16 16:15:31  5-MIN KAQV 022215Z AUTO 36007KT 330V030 10SM CLR 20/01 A3010 210 27 900 360/07 330V030 RMK AO2 T02000006
03949KAQV AQV20160402162012904/02/16 16:20:31  5-MIN KAQV 022220Z AUTO 34007G15KT 260V030 10SM CLR 20/00 A3010 210 26 900 340/07G15 260V030 RMK AO2 T02000000
03949KAQV AQV20160402162512904/02/16 16:25:31  5-MIN KAQV 022225Z AUTO 34008G15KT 290V010 10SM CLR 20/00 A3010 210 26 900 330/08G15 290V010 RMK AO2 T02000000
03949KAQV AQV20160402163011404/02/16 16:30:31  5-MIN KAQV 022230Z AUTO VRB06G15KT 10SM CLR 19/M01 A3010 210 25 800 VRB/06G15 RMK AO2 T01941011
03949KAQV AQV20160402163510804/02/16 16:35:31  5-MIN KAQV 022235Z AUTO VRB06KT 10SM CLR 20/M01 A3011 200 25 900 VRB/06 RMK AO2 T02001006
03949KAQV AQV20160402164012404/02/16 16:40:31  5-MIN KAQV 022240Z AUTO 32007KT 280V010 10SM CLR 20/M01 A3011 200 25 900 310/07 280V010 RMK AO2 T02001006
03949KAQV AQV20160402164510804/02/16 16:45:31  5-MIN KAQV 022245Z AUTO VRB05KT 10SM CLR 19/M01 A3011 200 26 800 VRB/05 RMK AO2 T01941006
03949KAQV AQV20160402165010404/02/16 16:50:31  5-MIN KAQV 022250Z AUTO 10SM CLR 20/01 A3011 200 27 900 M /M RMK AO2 SLP196 T02000006
03949KAQV AQV20160402165511404/02/16 16:55:31  5-MIN KAQV 022255Z AUTO 01008KT 10SM CLR 20/00 A3011 200 26 900 360/08 RMK AO2 SLP196 T02000000
03949KAQV AQV20160402170010704/02/16 17:00:31  5-MIN KAQV 022300Z AUTO 36007KT 10SM CLR 19/01 A3011 200 28 800 350/07 RMK AO2 T01940006
03949KAQV AQV20160402170510704/02/16 17:05:31  5-MIN KAQV 022305Z AUTO VRB06KT 10SM CLR 19/00 A3011 200 27 800 VRB/06 RMK AO2 T01940000
03949KAQV AQV20160402171010704/02/16 17:10:31  5-MIN KAQV 022310Z AUTO VRB05KT 10SM CLR 19/00 A3012 200 27 800 VRB/05 RMK AO2 T01940000
03949KAQV AQV20160402171510704/02/16 17:15:31  5-MIN KAQV 022315Z AUTO VRB05KT 10SM CLR 19/00 A3012 200 27 800 VRB/05 RMK AO2 T01940000
03949KAQV AQV20160402172010704/02/16 17:20:31  5-MIN KAQV 022320Z AUTO VRB04KT 10SM CLR 19/00 A3012 190 27 800 VRB/04 RMK AO2 T01940000
03949KAQV AQV20160402172510704/02/16 17:25:31  5-MIN KAQV 022325Z AUTO VRB05KT 10SM CLR 19/00 A3012 190 27 800 VRB/05 RMK AO2 T01940000
03949KAQV AQV20160402173010704/02/16 17:30:31  5-MIN KAQV 022330Z AUTO 35006KT 10SM CLR 19/00 A3012 190 28 700 340/06 RMK AO2 T01890000
03949KAQV AQV20160402173510804/02/16 17:35:31  5-MIN KAQV 022335Z AUTO VRB05KT 10SM CLR 19/M01 A3012 190 26 700 VRB/05 RMK AO2 T01891006
03949KAQV AQV20160402174010704/02/16 17:40:31  5-MIN KAQV 022340Z AUTO VRB04KT 10SM CLR 19/00 A3012 190 28 700 VRB/04 RMK AO2 T01890000
03949KAQV AQV20160402174510704/02/16 17:45:31  5-MIN KAQV 022345Z AUTO 36005KT 10SM CLR 18/00 A3013 190 29 700 350/05 RMK AO2 T01830000
03949KAQV AQV20160402175013204/02/16 17:50:31  5-MIN KAQV 022350Z AUTO 36007KT 10SM CLR 18/00 A3013 190 29 700 360/07 RMK AO2 SLP202 T01830000 10211 20183 56023
03949KAQV AQV20160402175513204/02/16 17:55:31  5-MIN KAQV 022355Z AUTO 36006KT 10SM CLR 18/00 A3013 180 29 700 350/06 RMK AO2 SLP203 T01830000 10211 20183 56023
03949KAQV AQV20160402180010704/02/16 18:00:31  5-MIN KAQV 030000Z AUTO 01003KT 10SM CLR 18/01 A3013 180 31 600 360/03 RMK AO2 T01780006
03949KAQV AQV20160402180510704/02/16 18:05:31  5-MIN KAQV 030005Z AUTO 36004KT 10SM CLR 18/01 A3013 180 32 600 360/04 RMK AO2 T01780011
03949KAQV AQV20160402181010704/02/16 18:10:31  5-MIN KAQV 030010Z AUTO 00000KT 10SM CLR 17/01 A3013 180 33 500 000/00 RMK AO2 T01720011
03949KAQV AQV20160402181510704/02/16 18:15:31  5-MIN KAQV 030015Z AUTO 00000KT 10SM CLR 17/01 A3013 180 33 500 000/00 RMK AO2 T01720011
03949KAQV AQV20160402182010704/02/16 18:20:31  5-MIN KAQV 030020Z AUTO 01003KT 10SM CLR 17/02 A3013 180 36 500 360/03 RMK AO2 T01670017
03949KAQV AQV20160402182510704/02/16 18:25:31  5-MIN KAQV 030025Z AUTO 00000KT 10SM CLR 16/02 A3013 180 37 400 000/00 RMK AO2 T01610017
03949KAQV AQV20160402183010704/02/16 18:30:31  5-MIN KAQV 030030Z AUTO 00000KT 10SM CLR 16/02 A3014 180 40 300 000/00 RMK AO2 T01560022
03949KAQV AQV20160402183510704/02/16 18:35:31  5-MIN KAQV 030035Z AUTO 00000KT 10SM CLR 14/05 A3014 170 53 200 000/00 RMK AO2 T01440050
03949KAQV AQV20160402184010704/02/16 18:40:31  5-MIN KAQV 030040Z AUTO 00000KT 10SM CLR 14/03 A3014 170 47 200 000/00 RMK AO2 T01440033
03949KAQV AQV20160402184510704/02/16 18:45:31  5-MIN KAQV 030045Z AUTO 00000KT 10SM CLR 14/03 A3014 170 48 100 000/00 RMK AO2 T01390033
03949KAQV AQV20160402185011404/02/16 18:50:31  5-MIN KAQV 030050Z AUTO 00000KT 10SM CLR 13/04 A3014 170 54 100 000/00 RMK AO2 SLP208 T01330044
03949KAQV AQV20160402185511204/02/16 18:55:31  5-MIN KAQV 030055Z AUTO 00000KT 10SM CLR 13/05 A3015 170 59 0 000/00 RMK AO2 SLP209 T01280050
03949KAQV AQV20160402190010504/02/16 19:00:31  5-MIN KAQV 030100Z AUTO 00000KT 10SM CLR 13/06 A3015 170 61 0 000/00 RMK AO2 T01280056
03949KAQV AQV20160402190510504/02/16 19:05:31  5-MIN KAQV 030105Z AUTO 00000KT 10SM CLR 12/06 A3015 170 63 0 000/00 RMK AO2 T01220056
03949KAQV AQV20160402191010504/02/16 19:10:31  5-MIN KAQV 030110Z AUTO 00000KT 10SM CLR 12/06 A3015 170 63 0 000/00 RMK AO2 T01220056
03949KAQV AQV20160402191510804/02/16 19:15:31  5-MIN KAQV 030115Z AUTO 00000KT 10SM CLR 12/06 A3015 160 68 -100 000/00 RMK AO2 T01170061
03949KAQV AQV20160402192010804/02/16 19:20:31  5-MIN KAQV 030120Z AUTO 00000KT 10SM CLR 12/06 A3015 160 68 -100 000/00 RMK AO2 T01170061
03949KAQV AQV20160402192510804/02/16 19:25:31  5-MIN KAQV 030125Z AUTO 00000KT 10SM CLR 12/06 A3015 160 68 -100 000/00 RMK AO2 T01170061
03949KAQV AQV20160402193010804/02/16 19:30:31  5-MIN KAQV 030130Z AUTO 00000KT 10SM CLR 11/06 A3015 160 68 -200 000/00 RMK AO2 T01110056
03949KAQV AQV20160402193510804/02/16 19:35:31  5-MIN KAQV 030135Z AUTO 00000KT 10SM CLR 11/06 A3016 160 74 -200 000/00 RMK AO2 T01060061
03949KAQV AQV20160402194010804/02/16 19:40:31  5-MIN KAQV 030140Z AUTO 00000KT 10SM CLR 11/07 A3016 160 77 -200 000/00 RMK AO2 T01060067
03949KAQV AQV20160402194510804/02/16 19:45:31  5-MIN KAQV 030145Z AUTO 00000KT 10SM CLR 11/06 A3016 160 71 -200 000/00 RMK AO2 T01060056
03949KAQV AQV20160402195011504/02/16 19:50:31  5-MIN KAQV 030150Z AUTO 00000KT 10SM CLR 11/06 A3016 160 71 -200 000/00 RMK AO2 SLP213 T01060056
03949KAQV AQV20160402195511504/02/16 19:55:31  5-MIN KAQV 030155Z AUTO 00000KT 10SM CLR 11/06 A3016 150 74 -300 000/00 RMK AO2 SLP214 T01060061
03949KAQV AQV20160402200010804/02/16 20:00:31  5-MIN KAQV 030200Z AUTO 00000KT 10SM CLR 11/06 A3016 150 74 -300 000/00 RMK AO2 T01060061
03949KAQV AQV20160402200510804/02/16 20:05:31  5-MIN KAQV 030205Z AUTO 00000KT 10SM CLR 10/06 A3016 150 77 -300 000/00 RMK AO2 T01000061
03949KAQV AQV20160402201010804/02/16 20:10:31  5-MIN KAQV 030210Z AUTO 00000KT 10SM CLR 10/06 A3016 150 74 -300 000/00 RMK AO2 T01000056
03949KAQV AQV20160402201510804/02/16 20:15:31  5-MIN KAQV 030215Z AUTO 00000KT 10SM CLR 10/06 A3016 150 74 -300 000/00 RMK AO2 T01000056
03949KAQV AQV20160402202010804/02/16 20:20:31  5-MIN KAQV 030220Z AUTO 00000KT 10SM CLR 10/06 A3017 150 74 -300 000/00 RMK AO2 T01000056
03949KAQV AQV20160402202510804/02/16 20:25:31  5-MIN KAQV 030225Z AUTO 00000KT 10SM CLR 09/06 A3017 150 76 -400 000/00 RMK AO2 T00940056
03949KAQV AQV20160402203010804/02/16 20:30:31  5-MIN KAQV 030230Z AUTO 00000KT 10SM CLR 09/05 A3017 150 74 -400 000/00 RMK AO2 T00940050
03949KAQV AQV20160402203510804/02/16 20:35:31  5-MIN KAQV 030235Z AUTO 00000KT 10SM CLR 09/06 A3017 140 83 -500 000/00 RMK AO2 T00890061
03949KAQV AQV20160402204010804/02/16 20:40:31  5-MIN KAQV 030240Z AUTO 00000KT 10SM CLR 09/07 A3017 140 86 -500 000/00 RMK AO2 T00890067
03949KAQV AQV20160403083510604/03/16 08:35:31  5-MIN KAQV 031435Z AUTO 36003KT 10SM CLR 17/02 A3023 90 36 400 360/03 RMK AO2 T01720022
03949KAQV AQV20160403084010604/03/16 08:40:31  5-MIN KAQV 031440Z AUTO 02003KT 10SM CLR 18/02 A3023 90 35 500 020/03 RMK AO2 T01780022
03949KAQV AQV20160403084510604/03/16 08:45:31  5-MIN KAQV 031445Z AUTO 02003KT 10SM CLR 18/02 A3024 90 34 500 010/03 RMK AO2 T01830022
03949KAQV AQV20160403085011904/03/16 08:50:31  5-MIN KAQV 031450Z AUTO 04003KT 10SM CLR 18/01 A3024 90 31 500 030/03 RMK AO2 SLP239 T01830011 53007
03949KAQV AQV20160403085511904/03/16 08:55:31  5-MIN KAQV 031455Z AUTO 00000KT 10SM CLR 18/02 A3024 90 34 500 000/00 RMK AO2 SLP239 T01830022 53007
03949KAQV AQV20160403090010604/03/16 09:00:31  5-MIN KAQV 031500Z AUTO 30004KT 10SM CLR 18/02 A3024 80 32 500 300/04 RMK AO2 T01830017
03949KAQV AQV20160403090510604/03/16 09:05:31  5-MIN KAQV 031505Z AUTO VRB03KT 10SM CLR 18/00 A3024 80 30 500 VRB/03 RMK AO2 T01780000
03949KAQV AQV20160403091010604/03/16 09:10:31  5-MIN KAQV 031510Z AUTO 00000KT 10SM CLR 19/02 A3024 80 31 600 000/00 RMK AO2 T01890017
03949KAQV AQV20160403091510604/03/16 09:15:31  5-MIN KAQV 031515Z AUTO 00000KT 10SM CLR 19/01 A3024 80 30 600 000/00 RMK AO2 T01890011
03949KAQV AQV20160403092010604/03/16 09:20:31  5-MIN KAQV 031520Z AUTO 00000KT 10SM CLR 19/01 A3024 80 30 600 000/00 RMK AO2 T01890011
03949KAQV AQV20160403092510604/03/16 09:25:31  5-MIN KAQV 031525Z AUTO 26004KT 10SM CLR 19/01 A3024 80 30 600 250/04 RMK AO2 T01890011
03949KAQV AQV20160403093010604/03/16 09:30:31  5-MIN KAQV 031530Z AUTO 00000KT 10SM CLR 19/00 A3024 80 28 600 000/00 RMK AO2 T01890000
03949KAQV AQV20160403093510604/03/16 09:35:31  5-MIN KAQV 031535Z AUTO 00000KT 10SM CLR 19/01 A3024 80 29 600 000/00 RMK AO2 T01890006
03949KAQV AQV20160403094010604/03/16 09:40:31  5-MIN KAQV 031540Z AUTO 00000KT 10SM CLR 19/01 A3024 80 29 600 000/00 RMK AO2 T01890006
03949KAQV AQV20160403094510704/03/16 09:45:31  5-MIN KAQV 031545Z AUTO 00000KT 10SM CLR 19/M01 A3024 80 26 600 000/00 RMK AO2 T01891006
03949KAQV AQV20160403095011404/03/16 09:50:31  5-MIN KAQV 031550Z AUTO 00000KT 10SM CLR 19/M01 A3024 80 26 700 000/00 RMK AO2 SLP241 T01941006
03949KAQV AQV20160403095511304/03/16 09:55:31  5-MIN KAQV 031555Z AUTO VRB03KT 10SM CLR 20/01 A3024 80 27 700 VRB/03 RMK AO2 SLP240 T02000006
03949KAQV AQV20160403100010604/03/16 10:00:31  5-MIN KAQV 031600Z AUTO 18004KT 10SM CLR 19/01 A3024 80 28 700 170/04 RMK AO2 T01940006
03949KAQV AQV20160403100510604/03/16 10:05:31  5-MIN KAQV 031605Z AUTO VRB03KT 10SM CLR 19/01 A3024 80 29 700 VRB/03 RMK AO2 T01940011
03949KAQV AQV20160403101010604/03/16 10:10:31  5-MIN KAQV 031610Z AUTO 18005KT 10SM CLR 20/01 A3024 80 28 700 170/05 RMK AO2 T02000011
03949KAQV AQV20160403101510604/03/16 10:15:31  5-MIN KAQV 031615Z AUTO 00000KT 10SM CLR 20/00 A3024 80 26 700 000/00 RMK AO2 T02000000
03949KAQV AQV20160403102010604/03/16 10:20:31  5-MIN KAQV 031620Z AUTO VRB04KT 10SM CLR 21/01 A3024 80 26 800 VRB/04 RMK AO2 T02060006
03949KAQV AQV20160403102510604/03/16 10:25:31  5-MIN KAQV 031625Z AUTO VRB03KT 10SM CLR 21/01 A3024 80 26 800 VRB/03 RMK AO2 T02060006
03949KAQV AQV20160403103010604/03/16 10:30:31  5-MIN KAQV 031630Z AUTO 00000KT 10SM CLR 21/01 A3024 80 26 800 000/00 RMK AO2 T02060006
03949KAQV AQV20160403103510604/03/16 10:35:31  5-MIN KAQV 031635Z AUTO 00000KT 10SM CLR 21/01 A3024 80 26 800 000/00 RMK AO2 T02060006
03949KAQV AQV20160403104010604/03/16 10:40:31  5-MIN KAQV 031640Z AUTO 00000KT 10SM CLR 21/01 A3023 90 25 900 000/00 RMK AO2 T02110006
03949KAQV AQV20160403104510604/03/16 10:45:31  5-MIN KAQV 031645Z AUTO 19006KT 10SM CLR 21/01 A3023 90 26 800 180/06 RMK AO2 T02060006
03949KAQV AQV20160403105011304/03/16 10:50:31  5-MIN KAQV 031650Z AUTO VRB03KT 10SM CLR 21/00 A3023 90 24 900 VRB/03 RMK AO2 SLP237 T02110000
03949KAQV AQV20160403105511304/03/16 10:55:31  5-MIN KAQV 031655Z AUTO VRB04KT 10SM CLR 21/00 A3023 90 24 900 VRB/04 RMK AO2 SLP237 T02110000
03949KAQV AQV20160403110010604/03/16 11:00:31  5-MIN KAQV 031700Z AUTO VRB06KT 10SM CLR 21/00 A3023 90 24 900 VRB/06 RMK AO2 T02110000
03949KAQV AQV20160403110510704/03/16 11:05:31  5-MIN KAQV 031705Z AUTO VRB04KT 10SM CLR 21/M01 A3023 90 22 900 VRB/04 RMK AO2 T02111011
03949KAQV AQV20160403111010604/03/16 11:10:31  5-MIN KAQV 031710Z AUTO VRB03KT 10SM CLR 21/00 A3023 90 24 900 VRB/03 RMK AO2 T02110000
03949KAQV AQV20160403111510804/03/16 11:15:31  5-MIN KAQV 031715Z AUTO 18008KT 10SM CLR 21/M01 A3022 100 23 900 170/08 RMK AO2 T02111006
03949KAQV AQV20160403112010804/03/16 11:20:31  5-MIN KAQV 031720Z AUTO VRB04KT 10SM CLR 22/M01 A3022 100 22 900 VRB/04 RMK AO2 T02171006
03949KAQV AQV20160403112509704/03/16 11:25:31  5-MIN KAQV 031725Z AUTO 10SM CLR 22/00 A3022 100 23 900 M /M RMK AO2 T02170000
03949KAQV AQV20160403113010804/03/16 11:30:31  5-MIN KAQV 031730Z AUTO VRB06KT 10SM CLR 22/M01 A3022 100 22 900 VRB/06 RMK AO2 T02171006
03949KAQV AQV20160403113510704/03/16 11:35:31  5-MIN KAQV 031735Z AUTO 17009KT 10SM CLR 22/00 A3021 100 23 900 160/09 RMK AO2 T02170000
03949KAQV AQV20160403114010804/03/16 11:40:31  5-MIN KAQV 031740Z AUTO 00000KT 10SM CLR 21/M01 A3021 110 23 900 000/00 RMK AO2 T02111006
03949KAQV AQV20160403114510904/03/16 11:45:31  5-MIN KAQV 031745Z AUTO VRB04KT 10SM CLR 22/M01 A3021 110 22 1000 VRB/04 RMK AO2 T02171006
03949KAQV AQV20160404063510804/04/16 06:35:31  5-MIN KAQV 041235Z AUTO 00000KT 10SM CLR 08/07 A3017 150 93 -500 000/00 RMK AO2 T00830072
03949KAQV AQV20160404064010804/04/16 06:40:31  5-MIN KAQV 041240Z AUTO VRB03KT 10SM CLR 09/08 A3017 150 93 -500 VRB/03 RMK AO2 T00890078
03949KAQV AQV20160404064510804/04/16 06:45:31  5-MIN KAQV 041245Z AUTO 00000KT 10SM CLR 09/08 A3017 150 93 -400 000/00 RMK AO2 T00940083
03949KAQV AQV20160404065011504/04/16 06:50:31  5-MIN KAQV 041250Z AUTO 00000KT 10SM CLR 10/09 A3017 150 93 -300 000/00 RMK AO2 SLP217 T01000089
03949KAQV AQV20160404065511504/04/16 06:55:31  5-MIN KAQV 041255Z AUTO 00000KT 10SM CLR 11/09 A3017 150 89 -300 000/00 RMK AO2 SLP217 T01060089
03949KAQV AQV20160404070010804/04/16 07:00:31  5-MIN KAQV 041300Z AUTO 00000KT 10SM CLR 12/09 A3017 140 86 -100 000/00 RMK AO2 T01170094
03949KAQV AQV20160404070510804/04/16 07:05:31  5-MIN KAQV 041305Z AUTO VRB03KT 10SM CLR 12/10 A3017 140 86 -100 VRB/03 RMK AO2 T01220100
03949KAQV AQV20160404071010504/04/16 07:10:31  5-MIN KAQV 041310Z AUTO VRB04KT 10SM CLR 13/10 A3017 140 83 0 VRB/04 RMK AO2 T01280100
03949KAQV AQV20160404071510504/04/16 07:15:31  5-MIN KAQV 041315Z AUTO VRB03KT 10SM CLR 13/11 A3018 140 83 0 VRB/03 RMK AO2 T01330106
03949KAQV AQV20160404072010604/04/16 07:20:31  5-MIN KAQV 041320Z AUTO VRB03KT 8SM CLR 14/11 A3018 140 80 100 VRB/03 RMK AO2 T01390106
03949KAQV AQV20160404072510604/04/16 07:25:31  5-MIN KAQV 041325Z AUTO 00000KT 8SM CLR 14/11 A3018 140 77 100 000/00 RMK AO2 T01440106
03949KAQV AQV20160404073010704/04/16 07:30:31  5-MIN KAQV 041330Z AUTO VRB04KT 10SM CLR 14/11 A3018 140 77 100 VRB/04 RMK AO2 T01440106
03949KAQV AQV20160404073510704/04/16 07:35:31  5-MIN KAQV 041335Z AUTO 00000KT 10SM CLR 15/11 A3018 140 74 200 000/00 RMK AO2 T01500106
03949KAQV AQV20160404074010704/04/16 07:40:31  5-MIN KAQV 041340Z AUTO VRB05KT 10SM CLR 16/11 A3018 130 72 300 VRB/05 RMK AO2 T01560106
03949KAQV AQV20160404074510704/04/16 07:45:31  5-MIN KAQV 041345Z AUTO VRB04KT 10SM CLR 16/11 A3018 130 72 300 VRB/04 RMK AO2 T01560106
03949KAQV AQV20160404075011404/04/16 07:50:31  5-MIN KAQV 041350Z AUTO VRB05KT 10SM CLR 16/10 A3019 130 67 300 VRB/05 RMK AO2 SLP221 T01610100
03949KAQV AQV20160404075511404/04/16 07:55:31  5-MIN KAQV 041355Z AUTO VRB04KT 10SM CLR 16/10 A3019 130 67 300 VRB/04 RMK AO2 SLP222 T01610100
03949KAQV AQV20160404080010704/04/16 08:00:31  5-MIN KAQV 041400Z AUTO VRB04KT 10SM CLR 17/11 A3019 130 67 400 VRB/04 RMK AO2 T01670106
03949KAQV AQV20160404080510704/04/16 08:05:31  5-MIN KAQV 041405Z AUTO 25008KT 10SM CLR 17/10 A3019 130 64 400 250/08 RMK AO2 T01670100
03949KAQV AQV20160404081010704/04/16 08:10:31  5-MIN KAQV 041410Z AUTO 26006KT 10SM CLR 17/10 A3019 120 64 400 250/06 RMK AO2 T01670100
03949KAQV AQV20160404081510704/04/16 08:15:31  5-MIN KAQV 041415Z AUTO VRB03KT 10SM CLR 17/10 A3020 120 62 500 VRB/03 RMK AO2 T01720100
03949KAQV AQV20160404082010704/04/16 08:20:31  5-MIN KAQV 041420Z AUTO VRB05KT 10SM CLR 17/10 A3020 120 62 500 VRB/05 RMK AO2 T01720100
03949KAQV AQV20160404082510704/04/16 08:25:31  5-MIN KAQV 041425Z AUTO VRB06KT 10SM CLR 18/11 A3020 120 62 500 VRB/06 RMK AO2 T01780106
03949KAQV AQV20160404083010704/04/16 08:30:31  5-MIN KAQV 041430Z AUTO VRB05KT 10SM CLR 17/10 A3020 120 62 400 VRB/05 RMK AO2 T01720100
03949KAQV AQV20160404083510704/04/16 08:35:31  5-MIN KAQV 041435Z AUTO VRB04KT 10SM CLR 18/11 A3020 120 60 600 VRB/04 RMK AO2 T01830106
03949KAQV AQV20160404084010704/04/16 08:40:31  5-MIN KAQV 041440Z AUTO VRB05KT 10SM CLR 18/11 A3020 120 60 600 VRB/05 RMK AO2 T01830106
03949KAQV AQV20160404084510704/04/16 08:45:31  5-MIN KAQV 041445Z AUTO VRB05KT 10SM CLR 18/10 A3020 120 60 500 VRB/05 RMK AO2 T01780100
03949KAQV AQV20160404085012004/04/16 08:50:31  5-MIN KAQV 041450Z AUTO 25005KT 10SM CLR 18/10 A3020 120 58 600 250/05 RMK AO2 SLP226 T01830100 53007
03949KAQV AQV20160404085512004/04/16 08:55:31  5-MIN KAQV 041455Z AUTO VRB04KT 10SM CLR 19/10 A3020 120 56 600 VRB/04 RMK AO2 SLP226 T01890100 53007
03949KAQV AQV20160404090010704/04/16 09:00:31  5-MIN KAQV 041500Z AUTO 26007KT 10SM CLR 19/10 A3020 120 56 600 250/07 RMK AO2 T01890100
03949KAQV AQV20160404090510704/04/16 09:05:31  5-MIN KAQV 041505Z AUTO VRB03KT 10SM CLR 19/10 A3020 120 56 600 VRB/03 RMK AO2 T01890100
03949KAQV AQV20160404091010704/04/16 09:10:31  5-MIN KAQV 041510Z AUTO VRB04KT 10SM CLR 19/10 A3020 110 56 600 VRB/04 RMK AO2 T01890100
03949KAQV AQV20160404091510704/04/16 09:15:31  5-MIN KAQV 041515Z AUTO VRB04KT 10SM CLR 19/10 A3021 110 54 700 VRB/04 RMK AO2 T01940100
03949KAQV AQV20160404092010704/04/16 09:20:31  5-MIN KAQV 041520Z AUTO VRB03KT 10SM CLR 20/10 A3021 110 52 800 VRB/03 RMK AO2 T02000100
03949KAQV AQV20160404092508904/04/16 09:25:31  5-MIN KAQV 041525Z AUTO VRB04KT 10SM CLR 20/11 A3021 11K AO2 T02500067
03949KAQV AQV20160404131511904/04/16 13:15:31  5-MIN KAQV 041915Z AUTO VRB04KT 10SM CLK AO2 T02CLR 27/05 A3011 200 24 1700 VRB/04 RMK AO2 T02720050
03949KAQV AQV20160404145012104/04/16 14:50:31  5-MIN KAQV 042050Z AUTO VRB05KT 10SM CLR 27/03 A3011 200 21 1700 VRB/05 RMK AO2 SLP196 T02720033 58009
03949KAQV AQV20160404145512104/04/16 14:55:31  5-MIN KAQV 042055Z AUTO 29004KT 10SM CLR 27/02 A3011 200 19 1700 280/04 RMK AO2 SLP196 T02720022 58009
03949KAQV AQV20160404150010704/04/16 15:00:31  5-MIN KAQV 042100Z AUTO 00000KT 8SM CLR 27/01 A3011 200 18 1600 000/00 RMK AO2 T02670011
03949KAQV AQV20160404150510704/04/16 15:05:31  5-MIN KAQV 042105Z AUTO 00000KT 8SM CLR 26/02 A3011 200 21 1600 000/00 RMK AO2 T02610022
03949KAQV AQV20160404151010804/04/16 15:10:31  5-MIN KAQV 042110Z AUTO VRB03KT 10SM CLR 26/03 A3011 200 22 1600 VRB/03 RMK AO2 T02610033
03949KAQV AQV20160404151510804/04/16 15:15:31  5-MIN KAQV 042115Z AUTO VRB04KT 10SM CLR 27/03 A3011 200 22 1600 VRB/04 RMK AO2 T02670033
03949KAQV AQV20160404152010804/04/16 15:20:31  5-MIN KAQV 042120Z AUTO 28006KT 10SM CLR 27/04 A3011 200 23 1600 280/06 RMK AO2 T02670044
03949KAQV AQV20160404152510804/04/16 15:25:31  5-MIN KAQV 042125Z AUTO VRB05KT 10SM CLR 27/04 A3011 200 23 1600 VRB/05 RMK AO2 T02670044
03949KAQV AQV20160404153010804/04/16 15:30:31  5-MIN KAQV 042130Z AUTO VRB05KT 10SM CLR 27/05 A3011 200 24 1600 VRB/05 RMK AO2 T02670050
03949KAQV AQV20160404153510804/04/16 15:35:31  5-MIN KAQV 042135Z AUTO VRB03KT 10SM CLR 27/04 A3011 210 23 1700 VRB/03 RMK AO2 T02720044
03949KAQV AQV20160404154010804/04/16 15:40:31  5-MIN KAQV 042140Z AUTO VRB03KT 10SM CLR 27/04 A3010 210 23 1600 VRB/03 RMK AO2 T02670044
03949KAQV AQV20160404154510804/04/16 15:45:31  5-MIN KAQV 042145Z AUTO 29004KT 10SM CLR 27/05 A3010 210 24 1700 280/04 RMK AO2 T02720050
03949KAQV AQV20160404155011504/04/16 15:50:31  5-MIN KAQV 042150Z AUTO VRB05KT 10SM CLR 27/06 A3010 210 25 1600 VRB/05 RMK AO2 SLP192 T02670056
03949KAQV AQV20160404155511504/04/16 15:55:31  5-MIN KAQV 042155Z AUTO VRB05KT 10SM CLR 27/05 A3010 210 24 1600 VRB/05 RMK AO2 SLP192 T02670050
03949KAQV AQV20160404160010704/04/16 16:00:31  5-MIN KAQV 042200Z AUTO VRB04KT 9SM CLR 27/05 A3010 210 24 1600 VRB/04 RMK AO2 T02670050
03949KAQV AQV20160404160510704/04/16 16:05:31  5-MIN KAQV 042205Z AUTO VRB04KT 9SM CLR 27/05 A3010 210 24 1700 VRB/04 RMK AO2 T02720050
03949KAQV AQV20160404161010804/04/16 16:10:31  5-MIN KAQV 042210Z AUTO VRB03KT 10SM CLR 27/05 A3010 210 24 1700 VRB/03 RMK AO2 T02720050
03949KAQV AQV20160404161510804/04/16 16:15:31  5-MIN KAQV 042215Z AUTO 26006KT 10SM CLR 27/06 A3010 210 26 1600 260/06 RMK AO2 T02670061
03949KAQV AQV20160404162010804/04/16 16:20:31  5-MIN KAQV 042220Z AUTO VRB03KT 10SM CLR 27/06 A3010 210 25 1600 VRB/03 RMK AO2 T02670056
03949KAQV AQV20160404162510804/04/16 16:25:31  5-MIN KAQV 042225Z AUTO VRB05KT 10SM CLR 27/06 A3010 210 25 1600 VRB/05 RMK AO2 T02670056
03949KAQV AQV20160404163010804/04/16 16:30:31  5-MIN KAQV 042230Z AUTO VRB04KT 10SM CLR 27/06 A3010 210 25 1600 VRB/04 RMK AO2 T02670056
03949KAQV AQV20160404163510804/04/16 16:35:31  5-MIN KAQV 042235Z AUTO VRB04KT 10SM CLR 27/06 A3010 210 26 1600 VRB/04 RMK AO2 T02670061
03949KAQV AQV20160404164010804/04/16 16:40:31  5-MIN KAQV 042240Z AUTO 27004KT 10SM CLR 27/06 A3010 210 26 1600 270/04 RMK AO2 T02670061
03949KAQV AQV20160404164510804/04/16 16:45:31  5-MIN KAQV 042245Z AUTO 00000KT 10SM CLR 26/06 A3010 210 26 1600 000/00 RMK AO2 T02610056
03949KAQV AQV20160404165011404/04/16 16:50:31  5-MIN KAQV 042250Z AUTO VRB03KT 8SM CLR 26/06 A3010 210 27 1600 VRB/03 RMK AO2 SLP192 T02610061
03949KAQV AQV20160404165511404/04/16 16:55:31  5-MIN KAQV 042255Z AUTO 26003KT 7SM CLR 26/06 A3010 210 27 1600 260/03 RMK AO2 SLP192 T02610061
03949KAQV AQV20160404170010804/04/16 17:00:31  5-MIN KAQV 042300Z AUTO 00000KT 10SM CLR 26/06 A3010 210 26 1600 000/00 RMK AO2 T02610056
03949KAQV AQV20160404170510804/04/16 17:05:31  5-MIN KAQV 042305Z AUTO VRB04KT 10SM CLR 26/06 A3010 210 27 1600 VRB/04 RMK AO2 T02610061
03949KAQV AQV20160404171010804/04/16 17:10:31  5-MIN KAQV 042310Z AUTO 00000KT 10SM CLR 27/06 A3010 210 25 1600 000/00 RMK AO2 T02670056
03949KAQV AQV20160404171510804/04/16 17:15:31  5-MIN KAQV 042315Z AUTO VRB03KT 10SM CLR 26/06 A3010 210 27 1600 VRB/03 RMK AO2 T02610061
03949KAQV AQV20160404172010804/04/16 17:20:31  5-MIN KAQV 042320Z AUTO VRB03KT 10SM CLR 26/06 A3010 210 27 1600 VRB/03 RMK AO2 T02610061
03949KAQV AQV20160404172510804/04/16 17:25:31  5-MIN KAQV 042325Z AUTO VRB03KT 10SM CLR 26/06 A3010 210 26 1600 VRB/03 RMK AO2 T02610056
03949KAQV AQV20160404173010804/04/16 17:30:31  5-MIN KAQV 042330Z AUTO VRB03KT 10SM CLR 26/06 A3010 210 27 1500 VRB/03 RMK AO2 T02560056
03949KAQV AQV20160404173510804/04/16 17:35:31  5-MIN KAQV 042335Z AUTO VRB03KT 10SM CLR 26/06 A3010 210 28 1500 VRB/03 RMK AO2 T02560061
03949KAQV AQV20160404174010804/04/16 17:40:31  5-MIN KAQV 042340Z AUTO VRB03KT 10SM CLR 26/06 A3011 210 28 1500 VRB/03 RMK AO2 T02560061
03949KAQV AQV20160404174510804/04/16 17:45:31  5-MIN KAQV 042345Z AUTO VRB03KT 10SM CLR 26/06 A3011 210 28 1500 VRB/03 RMK AO2 T02560061
03949KAQV AQV20160404175013304/04/16 17:50:31  5-MIN KAQV 042350Z AUTO 00000KT 10SM CLR 25/07 A3011 200 31 1400 000/00 RMK AO2 SLP195 T02500072 10272 20239 56020
03949KAQV AQV20160404175513304/04/16 17:55:31  5-MIN KAQV 042355Z AUTO 00000KT 10SM CLR 24/08 A3011 200 34 1400 000/00 RMK AO2 SLP195 T02440078 10272 20239 56020
03949KAQV AQV20160404180010704/04/16 18:00:31  5-MIN KAQV 050000Z AUTO 00000KT 9SM CLR 24/08 A3011 200 36 1300 000/00 RMK AO2 T02390083
03949KAQV AQV20160404180510704/04/16 18:05:31  5-MIN KAQV 050005Z AUTO 00000KT 9SM CLR 24/09 A3011 200 38 1300 000/00 RMK AO2 T02390089
03949KAQV AQV20160404181010804/04/16 18:10:31  5-MIN KAQV 050010Z AUTO 00000KT 10SM CLR 23/08 A3011 200 39 1200 000/00 RMK AO2 T02280083
03949KAQV AQV20160404181510704/04/16 18:15:31  5-MIN KAQV 050015Z AUTO 00000KT 9SM CLR 22/09 A3011 200 42 1100 000/00 RMK AO2 T02220089
03949KAQV AQV20160404182010704/04/16 18:20:31  5-MIN KAQV 050020Z AUTO 00000KT 7SM CLR 21/09 A3011 200 47 1000 000/00 RMK AO2 T02110094
03949KAQV AQV20160404182510904/04/16 18:25:31  5-MIN KAQV 050025Z AUTO 00000KT 3SM HZ CLR 21/09 A3011 200 48 900 000/00 RMK AO2 T02060094
03949KAQV AQV20160404183011304/04/16 18:30:31  5-MIN KAQV 050030Z AUTO 00000KT 2 1/2SM HZ CLR 21/10 A3011 200 50 900 000/00 RMK AO2 T02060100
03949KAQV AQV20160405155011504/05/16 15:50:31  5-MIN KAQV 052150Z AUTO 00000KT 10SM CLR 27/09 A3009 220 31 1700 000/00 RMK AO2 SLP189 T02720089
03949KAQV AQV20160405155511504/05/16 15:55:31  5-MIN KAQV 052155Z AUTO VRB03KT 10SM CLR 27/08 A3009 220 30 1700 VRB/03 RMK AO2 SLP187 T02720083
03949KAQV AQV20160405160011104/05/16 16:00:31  5-MIN KAQV 052200Z AUTO VRB05KT 10SM FEW085 28/08 A3009 220 28 1800 VRB/05 RMK AO2 T02830083
03949KAQV AQV20160405160511104/05/16 16:05:31  5-MIN KAQV 052205Z AUTO VRB04KT 10SM FEW085 28/08 A3009 220 27 1800 VRB/04 RMK AO2 T02830078
03949KAQV AQV20160405161011104/05/16 16:10:31  5-MIN KAQV 052210Z AUTO 14003KT 10SM FEW085 28/08 A3009 220 28 1800 140/03 RMK AO2 T02780078
03949KAQV AQV20160405161511104/05/16 16:15:31  5-MIN KAQV 052215Z AUTO 17003KT 10SM SCT085 28/09 A3008 230 30 1800 170/03 RMK AO2 T02780089
03949KAQV AQV20160405162011104/05/16 16:20:31  5-MIN KAQV 052220Z AUTO VRB05KT 10SM SCT085 28/08 A3008 230 28 1900 VRB/05 RMK AO2 T02830083
03949KAQV AQV20160405162511104/05/16 16:25:31  5-MIN KAQV 052225Z AUTO VRB06KT 10SM FEW085 28/08 A3007 230 28 1900 VRB/06 RMK AO2 T02830083
03949KAQV AQV20160405163011004/05/16 16:30:31  5-MIN KAQV 052230Z AUTO VRB04KT 9SM FEW085 28/08 A3007 230 27 1900 VRB/04 RMK AO2 T02830078
03949KAQV AQV20160405163511004/05/16 16:35:31  5-MIN KAQV 052235Z AUTO VRB04KT 9SM FEW085 28/08 A3007 240 28 1900 VRB/04 RMK AO2 T02830083
03949KAQV AQV20160405164011104/05/16 16:40:31  5-MIN KAQV 052240Z AUTO VRB04KT 10SM SCT085 28/08 A3007 230 27 1900 VRB/04 RMK AO2 T02830078
03949KAQV AQV20160405164511104/05/16 16:45:31  5-MIN KAQV 052245Z AUTO 17006KT 10SM SCT085 28/08 A3007 240 28 1900 170/06 RMK AO2 T02830083
03949KAQV AQV20160405165011804/05/16 16:50:31  5-MIN KAQV 052250Z AUTO 18007KT 10SM SCT090 28/08 A3007 240 28 1900 180/07 RMK AO2 SLP180 T02830083
03949KAQV AQV20160405165511804/05/16 16:55:31  5-MIN KAQV 052255Z AUTO 19004KT 10SM FEW090 28/08 A3007 240 29 1800 180/04 RMK AO2 SLP180 T02780083
03949KAQV AQV20160405170011104/05/16 17:00:31  5-MIN KAQV 052300Z AUTO VRB04KT 10SM FEW085 28/08 A3007 240 29 1800 VRB/04 RMK AO2 T02780083
03949KAQV AQV20160405170511104/05/16 17:05:31  5-MIN KAQV 052305Z AUTO 18005KT 10SM SCT090 28/08 A3007 240 29 1800 180/05 RMK AO2 T02780083
03949KAQV AQV20160405171011104/05/16 17:10:31  5-MIN KAQV 052310Z AUTO VRB06KT 10SM BKN090 28/08 A3007 240 29 1800 VRB/06 RMK AO2 T02780083
03949KAQV AQV20160405171511104/05/16 17:15:31  5-MIN KAQV 052315Z AUTO VRB03KT 10SM SCT090 28/08 A3007 240 28 1800 VRB/03 RMK AO2 T02780078
03949KAQV AQV20160405172011004/05/16 17:20:31  5-MIN KAQV 052320Z AUTO VRB06KT 9SM FEW090 27/08 A3007 240 30 1700 VRB/06 RMK AO2 T02720083
03949KAQV AQV20160405172511004/05/16 17:25:31  5-MIN KAQV 052325Z AUTO VRB05KT 9SM FEW090 27/08 A3007 240 30 1700 VRB/05 RMK AO2 T02720083
03949KAQV AQV20160405173011104/05/16 17:30:31  5-MIN KAQV 052330Z AUTO 19007KT 10SM FEW090 27/08 A3007 240 30 1700 190/07 RMK AO2 T02720083
03949KAQV AQV20160405173511104/05/16 17:35:31  5-MIN KAQV 052335Z AUTO 19007KT 10SM FEW090 27/08 A3007 240 31 1700 180/07 RMK AO2 T02670083
03949KAQV AQV20160405174010804/05/16 17:40:31  5-MIN KAQV 052340Z AUTO VRB05KT 10SM CLR 27/08 A3007 240 31 1700 VRB/05 RMK AO2 T02670083
03949KAQV AQV20160405174510804/05/16 17:45:31  5-MIN KAQV 052345Z AUTO VRB04KT 10SM CLR 26/09 A3007 240 33 1600 VRB/04 RMK AO2 T02610089
03949KAQV AQV20160405175013204/05/16 17:50:31  5-MIN KAQV 052350Z AUTO VRB06KT 7SM CLR 26/09 A3007 240 34 1600 VRB/06 RMK AO2 SLP180 T02610094 10294 20261 58025
03949KAQV AQV20160405175513204/05/16 17:55:31  5-MIN KAQV 052355Z AUTO 19005KT 7SM CLR 26/09 A3007 240 33 1600 180/05 RMK AO2 SLP180 T02610089 10294 20261 58025
03949KAQV AQV20160405180010804/05/16 18:00:31  5-MIN KAQV 060000Z AUTO 19005KT 10SM CLR 26/09 A3007 240 35 1600 190/05 RMK AO2 T02560094
03949KAQV AQV20160405180510804/05/16 18:05:31  5-MIN KAQV 060005Z AUTO 18006KT 10SM CLR 26/09 A3006 240 34 1600 180/06 RMK AO2 T02560089
03949KAQV AQV20160405181010704/05/16 18:10:31  5-MIN KAQV 060010Z AUTO 18004KT 9SM CLR 25/09 A3007 240 37 1500 180/04 RMK AO2 T02500094
03949KAQV AQV20160405181510704/05/16 18:15:31  5-MIN KAQV 060015Z AUTO 18003KT 8SM CLR 24/09 A3007 240 38 1400 180/03 RMK AO2 T02440094
03949KAQV AQV20160405182010704/05/16 18:20:31  5-MIN KAQV 060020Z AUTO 17004KT 7SM CLR 24/10 A3007 240 41 1400 170/04 RMK AO2 T02390100
03949KAQV AQV20160405182510704/05/16 18:25:31  5-MIN KAQV 060025Z AUTO 17004KT 9SM CLR 23/10 A3007 240 42 1300 170/04 RMK AO2 T02330100
03949KAQV AQV20160405183010804/05/16 18:30:31  5-MIN KAQV 060030Z AUTO 18003KT 10SM CLR 23/09 A3007 240 41 1300 170/03 RMK AO2 T02330094
03949KAQV AQV20160405183510704/05/16 18:35:31  5-MIN KAQV 060035Z AUTO 18004KT 9SM CLR 23/09 A3007 230 41 1300 180/04 RMK AO2 T02330094
03949KAQV AQV20160405184011004/05/16 18:40:31  5-MIN KAQV 060040Z AUTO 18004KT 4SM HZ CLR 23/09 A3007 240 42 1200 180/04 RMK AO2 T02280094
03949KAQV AQV20160405184511004/05/16 18:45:31  5-MIN KAQV 060045Z AUTO 17003KT 4SM HZ CLR 23/09 A3007 230 42 1200 170/03 RMK AO2 T02280094
03949KAQV AQV20160405185011404/05/16 18:50:31  5-MIN KAQV 060050Z AUTO 18005KT 7SM CLR 22/09 A3007 240 43 1200 170/05 RMK AO2 SLP182 T02220094
03949KAQV AQV20160405185511404/05/16 18:55:31  5-MIN KAQV 060055Z AUTO 17004KT 7SM CLR 22/09 A3007 240 45 1100 170/04 RMK AO2 SLP181 T02170094
03949KAQV AQV20160405190010704/05/16 19:00:31  5-MIN KAQV 060100Z AUTO 17003KT 8SM CLR 22/10 A3007 240 47 1100 170/03 RMK AO2 T02170100
03949KAQV AQV20160405190510704/05/16 19:05:31  5-MIN KAQV 060105Z AUTO 18003KT 9SM CLR 21/09 A3007 230 47 1000 180/03 RMK AO2 T02110094
03949KAQV AQV20160405191010804/05/16 19:10:31  5-MIN KAQV 060110Z AUTO 00000KT 10SM CLR 21/10 A3008 230 50 1000 000/00 RMK AO2 T02060100
03949KAQV AQV20160405191510704/05/16 19:15:31  5-MIN KAQV 060115Z AUTO 17003KT 10SM CLR 20/10 A3008 230 52 900 170/03 RMK AO2 T02000100
03949KAQV AQV20160405192010704/05/16 19:20:31  5-MIN KAQV 060120Z AUTO 18003KT 10SM CLR 20/10 A3008 230 52 900 180/03 RMK AO2 T02000100
03949KAQV AQV20160405192510704/05/16 19:25:31  5-MIN KAQV 060125Z AUTO VRB03KT 10SM CLR 19/10 A3008 230 54 800 VRB/03 RMK AO2 T01940100
03949KAQV AQV20160405193010704/05/16 19:30:31  5-MIN KAQV 060130Z AUTO 18005KT 10SM CLR 19/11 A3008 230 56 800 170/05 RMK AO2 T01940106
03949KAQV AQV20160405193510704/05/16 19:35:31  5-MIN KAQV 060135Z AUTO 18003KT 10SM CLR 20/10 A3008 230 52 900 180/03 RMK AO2 T02000100
03949KAQV AQV20160405194010704/05/16 19:40:31  5-MIN KAQV 060140Z AUTO 18003KT 10SM CLR 20/10 A3008 230 52 900 180/03 RMK AO2 T02000100
03949KAQV AQV20160405194510704/05/16 19:45:31  5-MIN KAQV 060145Z AUTO VRB03KT 10SM CLR 20/10 A3009 220 52 900 VRB/03 RMK AO2 T02000100
03949KAQV AQV20160405195011504/05/16 19:50:31  5-MIN KAQV 060150Z AUTO 18003KT 10SM CLR 21/10 A3009 220 50 1000 180/03 RMK AO2 SLP188 T02060100
03949KAQV AQV20160406133511804/06/16 13:35:31  5-MIN KAQV 061935Z AUTO VRB04KT 10SM BKN041 OVC050 20/14 A3000 300 67 1000 VRB/04 RMK AO2 T02000139
03949KAQV AQV20160406134011704/06/16 13:40:31  5-MIN KAQV 061940Z AUTO VRB06KT 9SM BKN041 OVC050 21/14 A3000 310 63 1100 VRB/06 RMK AO2 T02110139
03949KAQV AQV20160406134512304/06/16 13:45:31  5-MIN KAQV 061945Z AUTO VRB05KT 9SM BKN041 BKN050 OVC060 18/14 A2999 310 75 800 VRB/05 RMK AO2 T01830139
03949KAQV AQV20160406135013204/06/16 13:50:31  5-MIN KAQV 061950Z AUTO VRB05KT 10SM BKN041 BKN050 BKN065 20/14 A2998 320 70 1000 VRB/05 RMK AO2 SLP150 T02000144
03949KAQV AQV20160406135513904/06/16 13:55:31  5-MIN KAQV 061955Z AUTO VRB06KT 10SM FEW036 SCT043 BKN065 22/14 A2996 340 63 1200 VRB/06 RMK AO2 PRESFR SLP142 T02170144
03949KAQV AQV20160406140011604/06/16 14:00:31  5-MIN KAQV 062000Z AUTO VRB05KT 9SM SCT040 SCT065 19/14 A2997 330 75 900 VRB/05 RMK AO2 T01890144
03949KAQV AQV20160406140513304/06/16 14:05:31  5-MIN KAQV 062005Z AUTO 21008KT 170V250 9SM SCT036 BKN065 20/14 A2997 330 67 1000 200/08 170V250 RMK AO2 T02000139
03949KAQV AQV20160406141013904/06/16 14:10:31  5-MIN KAQV 062010Z AUTO 25010G15KT 200V270 9SM SCT036 BKN060 20/14 A2997 330 70 1000 240/10G15 200V270 RMK AO2 T02000144
03949KAQV AQV20160406141512404/06/16 14:15:31  5-MIN KAQV 062015Z AUTO VRB06G15KT 10SM SCT035 SCT060 23/14 A2996 340 59 1400 VRB/06G15 RMK AO2 T02280144
03949KAQV AQV20160406142011104/06/16 14:20:31  5-MIN KAQV 062020Z AUTO VRB06KT 10SM BKN035 22/14 A2996 340 61 1300 VRB/06 RMK AO2 T02220144
03949KAQV AQV20160406142511104/06/16 14:25:31  5-MIN KAQV 062025Z AUTO VRB06KT 10SM BKN037 23/14 A2995 350 59 1400 VRB/06 RMK AO2 T02280144
03949KAQV AQV20160406143011804/06/16 14:30:31  5-MIN KAQV 062030Z AUTO VRB06KT 10SM BKN037 BKN043 23/14 A2995 350 57 1400 VRB/06 RMK AO2 T02330144
03949KAQV AQV20160406143513104/06/16 14:35:31  5-MIN KAQV 062035Z AUTO 26007G14KT 10SM SCT035 BKN042 BKN055 23/14 A2995 340 57 1400 250/07G14 RMK AO2 T02330144
03949KAQV AQV20160406144012404/06/16 14:40:31  5-MIN KAQV 062040Z AUTO VRB05G16KT 10SM BKN035 BKN043 23/14 A2995 350 57 1400 VRB/05G16 RMK AO2 T02330144
03949KAQV AQV20160406144513004/06/16 14:45:31  5-MIN KAQV 062045Z AUTO 25009G16KT 9SM BKN037 BKN045 BKN055 23/14 A2995 350 55 1400 250/09G16 RMK AO2 T02330139
03949KAQV AQV20160406145014404/06/16 14:50:31  5-MIN KAQV 062050Z AUTO 24007G15KT 10SM BKN039 BKN045 BKN055 23/14 A2995 350 55 1400 240/07G15 RMK AO2 SLP141 T02330139 58012
03949KAQV AQV20160406145515304/06/16 14:55:31  5-MIN KAQV 062055Z AUTO 24008G15KT 200V280 10SM BKN039 BKN048 23/14 A2995 350 57 1400 240/08G15 200V280 RMK AO2 SLP140 T02280139 58012
03949KAQV AQV20160406150014104/06/16 15:00:31  5-MIN KAQV 062100Z AUTO 22007KT 190V260 10SM BKN039 BKN048 BKN060 23/14 A2994 360 57 1400 220/07 190V260 RMK AO2 T02330144
03949KAQV AQV20160406150512504/06/16 15:05:31  5-MIN KAQV 062105Z AUTO VRB04KT 10SM SCT039 SCT048 BKN060 23/14 A2994 360 57 1500 VRB/04 RMK AO2 T02330144
03949KAQV AQV20160406151011804/06/16 15:10:31  5-MIN KAQV 062110Z AUTO VRB05KT 10SM SCT042 BKN055 22/14 A2994 360 61 1300 VRB/05 RMK AO2 T02170139
03949KAQV AQV20160406151511704/06/16 15:15:31  5-MIN KAQV 062115Z AUTO 25010G15KT 10SM SCT042 24/14 A2994 360 51 1600 250/10G15 RMK AO2 T02440139
03949KAQV AQV20160406152011604/06/16 15:20:31  5-MIN KAQV 062120Z AUTO VRB06G15KT 9SM FEW042 24/13 A2993 360 51 1500 VRB/06G15 RMK AO2 T02390133
03949KAQV AQV20160406152511604/06/16 15:25:31  5-MIN KAQV 062125Z AUTO 26008G15KT 7SM FEW042 24/14 A2993 360 51 1600 250/08G15 RMK AO2 T02440139
03949KAQV AQV20160406153011604/06/16 15:30:31  5-MIN KAQV 062130Z AUTO 26008G15KT 7SM FEW042 24/14 A2994 360 51 1600 260/08G15 RMK AO2 T02440139
03949KAQV AQV20160406153513304/06/16 15:35:31  5-MIN KAQV 062135Z AUTO 24007G15KT 200V280 10SM FEW044 24/14 A2994 360 53 1500 240/07G15 200V280 RMK AO2 T02390139
03949KAQV AQV20160406154012704/06/16 15:40:31  5-MIN KAQV 062140Z AUTO 24007KT 190V270 10SM FEW044 24/14 A2994 360 53 1500 240/07 190V270 RMK AO2 T02390139
03949KAQV AQV20160406154511104/06/16 15:45:31  5-MIN KAQV 062145Z AUTO VRB04KT 10SM FEW044 24/14 A2993 370 51 1600 VRB/04 RMK AO2 T02440139
03949KAQV AQV20160406155011804/06/16 15:50:31  5-MIN KAQV 062150Z AUTO 26008KT 10SM FEW044 24/14 A2993 370 53 1500 260/08 RMK AO2 SLP133 T02390139
03949KAQV AQV20160406155514104/06/16 15:55:31  5-MIN KAQV 062155Z AUTO 24007KT 190V290 10SM FEW043 FEW065 24/14 A2993 370 51 1600 240/07 190V290 RMK AO2 SLP133 T02440139
03949KAQV AQV20160406160011804/06/16 16:00:31  5-MIN KAQV 062200Z AUTO VRB03KT 10SM FEW043 FEW065 24/14 A2993 370 51 1600 VRB/03 RMK AO2 T02440139
03949KAQV AQV20160406160511104/06/16 16:05:31  5-MIN KAQV 062205Z AUTO 27007KT 10SM FEW046 22/14 A2992 370 59 1300 260/07 RMK AO2 T02220139
03949KAQV AQV20160406161011104/06/16 16:10:31  5-MIN KAQV 062210Z AUTO VRB05KT 10SM FEW048 23/14 A2992 380 57 1400 VRB/05 RMK AO2 T02280139
03949KAQV AQV20160406161511104/06/16 16:15:31  5-MIN KAQV 062215Z AUTO VRB06KT 10SM FEW048 23/13 A2992 380 55 1400 VRB/06 RMK AO2 T02280133
03949KAQV AQV20160406162011004/06/16 16:20:31  5-MIN KAQV 062220Z AUTO 25006KT 8SM FEW048 21/13 A2992 380 63 1200 250/06 RMK AO2 T02060133
03949KAQV AQV20160406162511004/06/16 16:25:31  5-MIN KAQV 062225Z AUTO 00000KT 7SM FEW048 24/13 A2991 380 51 1500 000/00 RMK AO2 T02390133
03949KAQV AQV20160406163011004/06/16 16:30:31  5-MIN KAQV 062230Z AUTO VRB03KT 9SM FEW047 24/14 A2991 380 53 1500 VRB/03 RMK AO2 T02390139
03949KAQV AQV20160406163511104/06/16 16:35:31  5-MIN KAQV 062235Z AUTO VRB05KT 10SM SCT049 24/14 A2991 380 51 1600 VRB/05 RMK AO2 T02440139
03949KAQV AQV20160406164011804/06/16 16:40:31  5-MIN KAQV 062240Z AUTO VRB05KT 10SM SCT049 SCT060 23/14 A2991 380 55 1500 VRB/05 RMK AO2 T02330139
03949KAQV AQV20160406164511104/06/16 16:45:31  5-MIN KAQV 062245Z AUTO VRB05KT 10SM SCT049 25/13 A2991 390 48 1700 VRB/05 RMK AO2 T02500133
03949KAQV AQV20160406165013404/06/16 16:50:31  5-MIN KAQV 062250Z AUTO 28007KT 250V310 10SM SCT050 25/13 A2991 390 46 1700 280/07 250V310 RMK AO2 SLP125 T02500128
03949KAQV AQV20160406165511804/06/16 16:55:31  5-MIN KAQV 062255Z AUTO VRB05KT 10SM FEW050 25/13 A2991 390 46 1700 VRB/05 RMK AO2 SLP125 T02500128
03949KAQV AQV20160406170011104/06/16 17:00:31  5-MIN KAQV 062300Z AUTO 24006KT 10SM SCT055 24/13 A2990 390 49 1600 240/06 RMK AO2 T02440133
03949KAQV AQV20160406170511104/06/16 17:05:31  5-MIN KAQV 062305Z AUTO VRB05KT 10SM FEW055 24/13 A2990 390 47 1600 VRB/05 RMK AO2 T02440128
03949KAQV AQV20160406171011104/06/16 17:10:31  5-MIN KAQV 062310Z AUTO VRB04KT 10SM FEW055 24/13 A2991 390 47 1600 VRB/04 RMK AO2 T02440128
03949KAQV AQV20160406171511104/06/16 17:15:31  5-MIN KAQV 062315Z AUTO VRB06KT 10SM FEW055 24/13 A2991 390 47 1600 VRB/06 RMK AO2 T02440128
03949KAQV AQV20160406172010704/06/16 17:20:31  5-MIN KAQV 062320Z AUTO VRB04KT 9SM CLR 24/12 A2991 390 46 1600 VRB/04 RMK AO2 T02440122
03949KAQV AQV20160406172510704/06/16 17:25:31  5-MIN KAQV 062325Z AUTO VRB06KT 9SM CLR 24/12 A2991 380 44 1600 VRB/06 RMK AO2 T02440117
03949KAQV AQV20160406173010704/06/16 17:30:31  5-MIN KAQV 062330Z AUTO 27005KT 9SM CLR 24/12 A2992 380 46 1500 260/05 RMK AO2 T02390117
03949KAQV AQV20160406173510704/06/16 17:35:31  5-MIN KAQV 062335Z AUTO 28006KT 9SM CLR 24/11 A2992 380 42 1600 280/06 RMK AO2 T02440111
03949KAQV AQV20160406174010804/06/16 17:40:31  5-MIN KAQV 062340Z AUTO VRB03KT 10SM CLR 24/11 A2992 380 44 1500 VRB/03 RMK AO2 T02390111
03949KAQV AQV20160406174510804/06/16 17:45:31  5-MIN KAQV 062345Z AUTO VRB04KT 10SM CLR 24/11 A2991 380 44 1500 VRB/04 RMK AO2 T02390111
03949KAQV AQV20160406175013304/06/16 17:50:31  5-MIN KAQV 062350Z AUTO VRB05KT 10SM CLR 24/10 A2992 380 41 1500 VRB/05 RMK AO2 SLP128 T02390100 10250 20178 58023
03949KAQV AQV20160406175513304/06/16 17:55:31  5-MIN KAQV 062355Z AUTO VRB06KT 10SM CLR 24/09 A2991 380 39 1500 VRB/06 RMK AO2 SLP128 T02390094 10250 20178 58023
03949KAQV AQV20160406180010804/06/16 18:00:31  5-MIN KAQV 070000Z AUTO VRB05KT 10SM CLR 24/09 A2992 380 38 1500 VRB/05 RMK AO2 T02390089
03949KAQV AQV20160406180510804/06/16 18:05:31  5-MIN KAQV 070005Z AUTO VRB05KT 10SM CLR 23/09 A2992 380 39 1500 VRB/05 RMK AO2 T02330089
03949KAQV AQV20160406181009804/06/16 18:10:31  5-MIN KAQV 070010Z AUTO 10SM CLR 23/08 A2992 370 38 1500 M /M RMK AO2 T02330083
03949KAQV AQV20160406181510804/06/16 18:15:31  5-MIN KAQV 070015Z AUTO VRB05KT 10SM CLR 23/08 A2992 370 37 1400 VRB/05 RMK AO2 T02280078
03949KAQV AQV20160406182010804/06/16 18:20:31  5-MIN KAQV 070020Z AUTO VRB04KT 10SM CLR 23/08 A2992 370 37 1400 VRB/04 RMK AO2 T02280078
03949KAQV AQV20160406182510804/06/16 18:25:31  5-MIN KAQV 070025Z AUTO VRB04KT 10SM CLR 23/08 A2993 370 37 1400 VRB/04 RMK AO2 T02280078
03949KAQV AQV20160406183010804/06/16 18:30:31  5-MIN KAQV 070030Z AUTO VRB03KT 10SM CLR 22/08 A2993 370 39 1300 VRB/03 RMK AO2 T02220078
03949KAQV AQV20160406183510804/06/16 18:35:31  5-MIN KAQV 070035Z AUTO VRB03KT 10SM CLR 22/08 A2993 370 39 1300 VRB/03 RMK AO2 T02220078
03949KAQV AQV20160406184010804/06/16 18:40:31  5-MIN KAQV 070040Z AUTO 00000KT 10SM CLR 22/08 A2993 370 40 1300 000/00 RMK AO2 T02170078
03949KAQV AQV20160406184510804/06/16 18:45:31  5-MIN KAQV 070045Z AUTO 00000KT 10SM CLR 22/08 A2993 370 40 1300 000/00 RMK AO2 T02170078
03949KAQV AQV20160406185011504/06/16 18:50:31  5-MIN KAQV 070050Z AUTO 00000KT 10SM CLR 21/08 A2993 360 42 1200 000/00 RMK AO2 SLP135 T02110078
03949KAQV AQV20160406185511504/06/16 18:55:31  5-MIN KAQV 070055Z AUTO 00000KT 10SM CLR 21/08 A2994 360 45 1100 000/00 RMK AO2 SLP136 T02060083
03949KAQV AQV20160406190010804/06/16 19:00:31  5-MIN KAQV 070100Z AUTO 00000KT 10SM CLR 19/08 A2994 360 48 1000 000/00 RMK AO2 T01940083
03949KAQV AQV20160406190510804/06/16 19:05:31  5-MIN KAQV 070105Z AUTO 00000KT 10SM CLR 19/08 A2994 360 48 1000 000/00 RMK AO2 T01940083
03949KAQV AQV20160406191010704/06/16 19:10:31  5-MIN KAQV 070110Z AUTO 00000KT 10SM CLR 19/09 A2994 360 52 900 000/00 RMK AO2 T01890089
03949KAQV AQV20160406191510704/06/16 19:15:31  5-MIN KAQV 070115Z AUTO 00000KT 10SM CLR 19/09 A2994 350 52 900 000/00 RMK AO2 T01890089
03949KAQV AQV20160406192010704/06/16 19:20:31  5-MIN KAQV 070120Z AUTO 00000KT 10SM CLR 19/09 A2995 350 52 900 000/00 RMK AO2 T01890089
03949KAQV AQV20160406192510704/06/16 19:25:31  5-MIN KAQV 070125Z AUTO 00000KT 10SM CLR 19/09 A2995 350 52 900 000/00 RMK AO2 T01890089
03949KAQV AQV20160406193010704/06/16 19:30:31  5-MIN KAQV 070130Z AUTO 00000KT 10SM CLR 18/09 A2995 350 54 900 000/00 RMK AO2 T01830089
03949KAQV AQV20160406193510704/06/16 19:35:31  5-MIN KAQV 070135Z AUTO 00000KT 10SM CLR 18/09 A2995 350 54 900 000/00 RMK AO2 T01830089
03949KAQV AQV20160406194010704/06/16 19:40:31  5-MIN KAQV 070140Z AUTO 00000KT 10SM CLR 17/09 A2995 350 62 700 000/00 RMK AO2 T01670094
03949KAQV AQV20160406194510704/06/16 19:45:31  5-MIN KAQV 070145Z AUTO 00000KT 10SM CLR 16/09 A2995 340 64 600 000/00 RMK AO2 T01610094
03949KAQV AQV20160406195011404/06/16 19:50:31  5-MIN KAQV 070150Z AUTO 00000KT 10SM CLR 16/09 A2995 350 64 600 000/00 RMK AO2 SLP143 T01610094
03949KAQV AQV20160406195511404/06/16 19:55:31  5-MIN KAQV 070155Z AUTO 00000KT 10SM CLR 16/09 A2996 340 64 600 000/00 RMK AO2 SLP143 T01610094
03949KAQV AQV20160406200010704/06/16 20:00:31  5-MIN KAQV 070200Z AUTO 00000KT 10SM CLR 16/09 A2996 340 64 600 000/00 RMK AO2 T01610094
03949KAQV AQV20160406200510704/06/16 20:05:31  5-MIN KAQV 070205Z AUTO 00000KT 10SM CLR 16/09 A2996 340 67 500 000/00 RMK AO2 T01560094
03949KAQV AQV20160406201010704/06/16 20:10:31  5-MIN KAQV 070210Z AUTO 00000KT 10SM CLR 16/10 A2996 340 69 500 000/00 RMK AO2 T01560100
03949KAQV AQV20160406201510704/06/16 20:15:31  5-MIN KAQV 070215Z AUTO 00000KT 10SM CLR 15/10 A2996 340 72 500 000/00 RMK AO2 T01500100
03949KAQV AQV20160406202010704/06/16 20:20:31  5-MIN KAQV 070220Z AUTO 00000KT 10SM CLR 14/10 A2996 340 74 400 000/00 RMK AO2 T01440100
03949KAQV AQV20160406202510704/06/16 20:25:31  5-MIN KAQV 070225Z AUTO 00000KT 10SM CLR 14/09 A2996 340 72 400 000/00 RMK AO2 T01440094
03949KAQV AQV20160406203010704/06/16 20:30:31  5-MIN KAQV 070230Z AUTO 00000KT 10SM CLR 14/09 A2997 330 72 400 000/00 RMK AO2 T01440094
03949KAQV AQV20160406203510704/06/16 20:35:31  5-MIN KAQV 070235Z AUTO 00000KT 10SM CLR 14/09 A2997 330 72 400 000/00 RMK AO2 T01440094
03949KAQV AQV20160406204010704/06/16 20:40:31  5-MIN KAQV 070240Z AUTO 00000KT 10SM CLR 14/10 A2998 320 74 400 000/00 RMK AO2 T01440100
03949KAQV AQV20160406204510704/06/16 20:45:31  5-MIN KAQV 070245Z AUTO VRB03KT 10SM CLR 16/09 A2998 320 67 500 VRB/03 RMK AO2 T01560094
03949KAQV AQV20160406205012004/06/16 20:50:31  5-MIN KAQV 070250Z AUTO 00000KT 10SM CLR 16/08 A2998 320 57 600 000/00 RMK AO2 SLP151 T01610078 55011
03949KAQV AQV20160406205512004/06/16 20:55:31  5-MIN KAQV 070255Z AUTO 00000KT 10SM CLR 14/09 A2998 320 71 300 000/00 RMK AO2 SLP152 T01390089 55011
03949KAQV AQV20160406210010704/06/16 21:00:31  5-MIN KAQV 070300Z AUTO 00000KT 10SM CLR 15/09 A2999 320 66 400 000/00 RMK AO2 T01500089
03949KAQV AQV20160406210510704/06/16 21:05:31  5-MIN KAQV 070305Z AUTO 00000KT 10SM CLR 14/09 A2999 310 72 400 000/00 RMK AO2 T01440094
03949KAQV AQV20160406211010704/06/16 21:10:31  5-MIN KAQV 070310Z AUTO 00000KT 10SM CLR 14/09 A2999 310 72 400 000/00 RMK AO2 T01440094
03949KAQV AQV20160408093510904/08/16 09:35:31  5-MIN KAQV 081535Z AUTO 04009KT 10SM CLR 20/01 A3016 150 28 800 040/09 RMK AO2 T02000011 $
03949KAQV AQV20160408094010904/08/16 09:40:31  5-MIN KAQV 081540Z AUTO 03011KT 10SM CLR 21/02 A3016 150 28 900 030/11 RMK AO2 T02060017 $
03949KAQV AQV20160408094510904/08/16 09:45:31  5-MIN KAQV 081545Z AUTO 03009KT 10SM CLR 21/01 A3017 150 27 900 030/09 RMK AO2 T02060011 $
03949KAQV AQV20160408095013204/08/16 09:50:31  5-MIN KAQV 081550Z AUTO 01008KT 330V040 10SM CLR 21/01 A3017 150 26 900 360/08 330V040 RMK AO2 SLP214 T02110011 $
03949KAQV AQV20160408095512304/08/16 09:55:31  5-MIN KAQV 081555Z AUTO 01011G20KT 10SM CLR 21/M01 A3017 150 23 900 360/11G20 RMK AO2 SLP214 T02111006 $
03949KAQV AQV20160408100011404/08/16 10:00:31  5-MIN KAQV 081600Z AUTO 02009G20KT 9SM CLR 21/00 A3017 150 24 900 020/09G20 RMK AO2 T02110000 $
03949KAQV AQV20160408100510904/08/16 10:05:31  5-MIN KAQV 081605Z AUTO 36009KT 7SM CLR 21/M01 A3017 150 23 900 350/09 RMK AO2 T02111006 $
03949KAQV AQV20160408101011504/08/16 10:10:31  5-MIN KAQV 081610Z AUTO 03009G17KT 8SM CLR 21/M01 A3017 150 22 900 020/09G17 RMK AO2 T02111011 $
03949KAQV AQV20160408101511704/08/16 10:15:31  5-MIN KAQV 081615Z AUTO 03009G17KT 10SM CLR 22/M02 A3017 140 20 1000 030/09G17 RMK AO2 T02171022 $
03949KAQV AQV20160408102011704/08/16 10:20:31  5-MIN KAQV 081620Z AUTO 01011G16KT 10SM CLR 22/M01 A3018 140 21 1000 010/11G16 RMK AO2 T02171011 $
03949KAQV AQV20160408102511704/08/16 10:25:31  5-MIN KAQV 081625Z AUTO 01011G16KT 10SM CLR 22/M02 A3017 140 20 1000 010/11G16 RMK AO2 T02171017 $
03949KAQV AQV20160408103011704/08/16 10:30:31  5-MIN KAQV 081630Z AUTO 01008G16KT 10SM CLR 22/M02 A3017 140 20 1000 010/08G16 RMK AO2 T02171017 $
03949KAQV AQV20160408103511704/08/16 10:35:31  5-MIN KAQV 081635Z AUTO 03011G19KT 10SM CLR 22/M02 A3017 140 20 1000 030/11G19 RMK AO2 T02171017 $
03949KAQV AQV20160408104013304/08/16 10:40:31  5-MIN KAQV 081640Z AUTO 04007G19KT 010V080 10SM CLR 22/M02 A3017 140 20 1000 030/07G19 010V080 RMK AO2 T02171017 $
03949KAQV AQV20160408104511104/08/16 10:45:31  5-MIN KAQV 081645Z AUTO 03009KT 10SM CLR 22/M01 A3017 150 21 1000 020/09 RMK AO2 T02171011 $
03949KAQV AQV20160408105012404/08/16 10:50:31  5-MIN KAQV 081650Z AUTO 01009G16KT 10SM CLR 22/M02 A3017 150 20 1000 010/09G16 RMK AO2 SLP214 T02171017 $
03949KAQV AQV20160408105512404/08/16 10:55:31  5-MIN KAQV 081655Z AUTO 02009G16KT 10SM CLR 22/M01 A3017 150 21 1100 020/09G16 RMK AO2 SLP215 T02221006 $
03949KAQV AQV20160408110011704/08/16 11:00:31  5-MIN KAQV 081700Z AUTO 01012G16KT 10SM CLR 22/M01 A3017 150 21 1100 360/12G16 RMK AO2 T02221011 $
03949KAQV AQV20160408110511704/08/16 11:05:31  5-MIN KAQV 081705Z AUTO VRB06G17KT 10SM CLR 22/M01 A3017 150 21 1100 VRB/06G17 RMK AO2 T02221011 $
03949KAQV AQV20160408111011704/08/16 11:10:31  5-MIN KAQV 081710Z AUTO 02013G19KT 10SM CLR 22/M01 A3017 150 21 1100 020/13G19 RMK AO2 T02221011 $
03949KAQV AQV20160408111511704/08/16 11:15:31  5-MIN KAQV 081715Z AUTO 01012G19KT 10SM CLR 22/M01 A3017 150 21 1100 010/12G19 RMK AO2 T02221011 $
03949KAQV AQV20160408112013304/08/16 11:20:31  5-MIN KAQV 081720Z AUTO 01007G17KT 330V040 10SM CLR 23/M01 A3017 150 20 1100 360/07G17 330V040 RMK AO2 T02281011 $
03949KAQV AQV20160408112511704/08/16 11:25:31  5-MIN KAQV 081725Z AUTO 02012G17KT 10SM CLR 23/M01 A3017 150 20 1100 010/12G17 RMK AO2 T02281011 $
03949KAQV AQV20160408113007504/08/16 11:30:31  5-MIN KAQV 081730Z AUTO 02009G17KT 10SM CLR 23/M01 A3016
03949KAQV AQV20160409071011004/09/16 07:10:31  5-MIN KAQV 091310Z AUTO 00000KT 10SM CLR 12/09 A3016 150 83 -100 000/00 RMK AO2 T01170089 $
03949KAQV AQV20160409071510904/09/16 07:15:31  5-MIN KAQV 091315Z AUTO 00000KT 8SM CLR 12/09 A3016 150 83 -100 000/00 RMK AO2 T01220094 $
03949KAQV AQV20160409072010904/09/16 07:20:31  5-MIN KAQV 091320Z AUTO 00000KT 5SM HZ CLR 13/09 A3016 150 77 0 000/00 RMK AO2 T01330094 $
03949KAQV AQV20160409072511104/09/16 07:25:31  5-MIN KAQV 091325Z AUTO 00000KT 6SM HZ CLR 15/07 A3016 150 59 200 000/00 RMK AO2 T01500072 $
03949KAQV AQV20160409073010904/09/16 07:30:31  5-MIN KAQV 091330Z AUTO 00000KT 10SM CLR 16/06 A3016 150 53 300 000/00 RMK AO2 T01560061 $
03949KAQV AQV20160409073510904/09/16 07:35:31  5-MIN KAQV 091335Z AUTO VRB03KT 10SM CLR 16/04 A3017 150 47 300 VRB/03 RMK AO2 T01560044 $
03949KAQV AQV20160409074010904/09/16 07:40:31  5-MIN KAQV 091340Z AUTO 00000KT 10SM CLR 16/04 A3017 150 47 300 000/00 RMK AO2 T01560044 $
03949KAQV AQV20160409074510904/09/16 07:45:31  5-MIN KAQV 091345Z AUTO VRB03KT 10SM CLR 16/04 A3017 140 45 300 VRB/03 RMK AO2 T01610044 $
03949KAQV AQV20160409075011604/09/16 07:50:31  5-MIN KAQV 091350Z AUTO 00000KT 10SM CLR 17/04 A3017 140 44 400 000/00 RMK AO2 SLP217 T01670044 $
03949KAQV AQV20160409075511604/09/16 07:55:31  5-MIN KAQV 091355Z AUTO 17003KT 10SM CLR 17/05 A3018 140 45 400 170/03 RMK AO2 SLP218 T01670050 $
03949KAQV AQV20160409080010904/09/16 08:00:31  5-MIN KAQV 091400Z AUTO 14004KT 10SM CLR 17/04 A3018 140 44 400 130/04 RMK AO2 T01670044 $
03949KAQV AQV20160409080510904/09/16 08:05:31  5-MIN KAQV 091405Z AUTO 15003KT 10SM CLR 17/04 A3018 140 42 500 140/03 RMK AO2 T01720044 $
03949KAQV AQV20160409081010904/09/16 08:10:31  5-MIN KAQV 091410Z AUTO VRB03KT 10SM CLR 17/04 A3018 140 42 500 VRB/03 RMK AO2 T01720044 $
03949KAQV AQV20160409081510904/09/16 08:15:31  5-MIN KAQV 091415Z AUTO 00000KT 10SM CLR 18/05 A3018 140 42 500 000/00 RMK AO2 T01780050 $
03949KAQV AQV20160409082010904/09/16 08:20:31  5-MIN KAQV 091420Z AUTO 00000KT 10SM CLR 18/06 A3018 140 42 600 000/00 RMK AO2 T01830056 $
03949KAQV AQV20160409082510904/09/16 08:25:31  5-MIN KAQV 091425Z AUTO VRB04KT 10SM CLR 19/06 A3018 140 41 700 VRB/04 RMK AO2 T01890056 $
03949KAQV AQV20160409083010904/09/16 08:30:31  5-MIN KAQV 091430Z AUTO VRB04KT 10SM CLR 19/05 A3018 140 39 700 VRB/04 RMK AO2 T01890050 $
03949KAQV AQV20160409083510904/09/16 08:35:31  5-MIN KAQV 091435Z AUTO 15006KT 10SM CLR 19/04 A3018 130 38 700 140/06 RMK AO2 T01890044 $
03949KAQV AQV20160409084010904/09/16 08:40:31  5-MIN KAQV 091440Z AUTO VRB04KT 10SM CLR 19/04 A3019 130 36 700 VRB/04 RMK AO2 T01890039 $
03949KAQV AQV20160409084510904/09/16 08:45:31  5-MIN KAQV 091445Z AUTO VRB05KT 10SM CLR 19/04 A3019 130 35 700 VRB/05 RMK AO2 T01940039 $
03949KAQV AQV20160409085012504/09/16 08:50:31  5-MIN KAQV 091450Z AUTO 16004KT 10SM FEW120 19/03 A3019 130 34 700 160/04 RMK AO2 SLP222 T01940033 53006 $
03949KAQV AQV20160409085512404/09/16 08:55:31  5-MIN KAQV 091455Z AUTO VRB05KT 9SM FEW120 20/04 A3019 130 34 800 VRB/05 RMK AO2 SLP221 T02000039 53006 $
03949KAQV AQV20160409090010804/09/16 09:00:31  5-MIN KAQV 091500Z AUTO VRB04KT 9SM CLR 20/04 A3019 130 34 800 VRB/04 RMK AO2 T02000039 $
03949KAQV AQV20160409090510904/09/16 09:05:31  5-MIN KAQV 091505Z AUTO VRB06KT 10SM CLR 21/04 A3019 130 33 800 VRB/06 RMK AO2 T02060039 $
03949KAQV AQV20160409091010904/09/16 09:10:31  5-MIN KAQV 091510Z AUTO VRB03KT 10SM CLR 20/04 A3019 130 34 800 VRB/03 RMK AO2 T02000039 $
03949KAQV AQV20160409091510904/09/16 09:15:31  5-MIN KAQV 091515Z AUTO 14005KT 10SM CLR 20/04 A3019 130 34 800 140/05 RMK AO2 T02000039 $
03949KAQV AQV20160409092010904/09/16 09:20:31  5-MIN KAQV 091520Z AUTO VRB04KT 10SM CLR 20/03 A3019 130 33 800 VRB/04 RMK AO2 T02000033 $
03949KAQV AQV20160409092510904/09/16 09:25:31  5-MIN KAQV 091525Z AUTO 14004KT 10SM CLR 20/03 A3019 120 33 800 140/04 RMK AO2 T02000033 $
03949KAQV AQV20160409093010904/09/16 09:30:31  5-MIN KAQV 091530Z AUTO VRB03KT 10SM CLR 20/03 A3019 130 33 800 VRB/03 RMK AO2 T02000033 $
03949KAQV AQV20160409093510904/09/16 09:35:31  5-MIN KAQV 091535Z AUTO VRB03KT 10SM CLR 21/04 A3019 130 34 800 VRB/03 RMK AO2 T02060044 $
03949KAQV AQV20160409094010904/09/16 09:40:31  5-MIN KAQV 091540Z AUTO 16005KT 10SM CLR 21/05 A3020 120 35 800 150/05 RMK AO2 T02060050 $
03949KAQV AQV20160409094510904/09/16 09:45:31  5-MIN KAQV 091545Z AUTO VRB06KT 10SM CLR 21/04 A3020 120 34 800 VRB/06 RMK AO2 T02060044 $
03949KAQV AQV20160409095011604/09/16 09:50:31  5-MIN KAQV 091550Z AUTO VRB05KT 10SM CLR 21/05 A3020 120 35 800 VRB/05 RMK AO2 SLP225 T02060050 $
03949KAQV AQV20160409095511604/09/16 09:55:31  5-MIN KAQV 091555Z AUTO 14004KT 10SM CLR 21/05 A3020 120 35 800 140/04 RMK AO2 SLP224 T02060050 $
03949KAQV AQV20160409100010904/09/16 10:00:31  5-MIN KAQV 091600Z AUTO 16006KT 10SM CLR 21/05 A3020 120 35 800 150/06 RMK AO2 T02060050 $
03949KAQV AQV20160409100510904/09/16 10:05:31  5-MIN KAQV 091605Z AUTO VRB06KT 10SM CLR 21/04 A3020 120 34 800 VRB/06 RMK AO2 T02060044 $
03949KAQV AQV20160409101010904/09/16 10:10:31  5-MIN KAQV 091610Z AUTO VRB04KT 10SM CLR 21/04 A3020 120 34 800 VRB/04 RMK AO2 T02060044 $
03949KAQV AQV20160409101509904/09/16 10:15:31  5-MIN KAQV 091615Z AUTO 10SM CLR 21/04 A3020 120 33 900 M /M RMK AO2 T02110044 $
03949KAQV AQV20160409102010904/09/16 10:20:31  5-MIN KAQV 091620Z AUTO VRB04KT 9SM CLR 22/05 A3020 120 33 1000 VRB/04 RMK AO2 T02170050 $
03949KAQV AQV20160409102510904/09/16 10:25:31  5-MIN KAQV 091625Z AUTO VRB03KT 9SM CLR 22/04 A3020 120 32 1000 VRB/03 RMK AO2 T02170044 $
03949KAQV AQV20160409103011004/09/16 10:30:31  5-MIN KAQV 091630Z AUTO VRB06KT 10SM CLR 22/05 A3019 130 32 1000 VRB/06 RMK AO2 T02220050 $
03949KAQV AQV20160409103512604/09/16 10:35:31  5-MIN KAQV 091635Z AUTO 17009KT 140V220 10SM CLR 22/04 A3019 130 30 1000 170/09 140V220 RMK AO2 T02220039 $
03949KAQV AQV20160409104011004/09/16 10:40:31  5-MIN KAQV 091640Z AUTO 18008KT 10SM CLR 22/03 A3019 130 28 1000 170/08 RMK AO2 T02220033 $
03949KAQV AQV20160409104511004/09/16 10:45:31  5-MIN KAQV 091645Z AUTO 17008KT 10SM CLR 22/03 A3019 130 28 1000 170/08 RMK AO2 T02220033 $
03949KAQV AQV20160409105013304/09/16 10:50:31  5-MIN KAQV 091650Z AUTO 17007KT 150V220 10SM CLR 22/04 A3019 130 30 1000 170/07 150V220 RMK AO2 SLP223 T02220039 $
03949KAQV AQV20160410053511204/10/16 05:35:31  5-MIN KAQV 101135Z AUTO 16004KT 10SM BKN100 13/11 A3007 240 89 100 160/04 RMK AO2 T01280111 $
03949KAQV AQV20160410054011204/10/16 05:40:31  5-MIN KAQV 101140Z AUTO 17004KT 10SM SCT100 13/11 A3007 240 89 100 160/04 RMK AO2 T01280111 $
03949KAQV AQV20160410054511104/10/16 05:45:31  5-MIN KAQV 101145Z AUTO 16004KT 9SM SCT100 13/11 A3007 240 89 100 160/04 RMK AO2 T01280111 $
03949KAQV AQV20160410055013604/10/16 05:50:31  5-MIN KAQV 101150Z AUTO 16005KT 9SM SCT100 13/11 A3007 240 89 100 160/05 RMK AO2 SLP181 T01280111 10144 20106 58012 $
03949KAQV AQV20160410055513704/10/16 05:55:31  5-MIN KAQV 101155Z AUTO 16003KT 10SM BKN100 13/11 A3007 240 89 100 160/03 RMK AO2 SLP182 T01280111 10144 20106 58012 $
03949KAQV AQV20160410060011204/10/16 06:00:31  5-MIN KAQV 101200Z AUTO VRB03KT 10SM BKN100 13/11 A3007 240 89 100 VRB/03 RMK AO2 T01280111 $
03949KAQV AQV20160410060511104/10/16 06:05:31  5-MIN KAQV 101205Z AUTO 17003KT 7SM BKN100 13/11 A3007 230 89 100 160/03 RMK AO2 T01280111 $
03949KAQV AQV20160410061011404/10/16 06:10:31  5-MIN KAQV 101210Z AUTO 17004KT 5SM BR BKN100 13/11 A3008 230 89 100 170/04 RMK AO2 T01280111 $
03949KAQV AQV20160410061511404/10/16 06:15:31  5-MIN KAQV 101215Z AUTO 16004KT 5SM BR BKN100 13/12 A3008 230 93 100 160/04 RMK AO2 T01280117 $
03949KAQV AQV20160410062011404/10/16 06:20:31  5-MIN KAQV 101220Z AUTO 16005KT 6SM BR BKN100 13/12 A3007 230 93 100 160/05 RMK AO2 T01280117 $
03949KAQV AQV20160410062511204/10/16 06:25:31  5-MIN KAQV 101225Z AUTO 17004KT 10SM SCT100 13/12 A3008 230 89 100 160/04 RMK AO2 T01330117 $
03949KAQV AQV20160410063011204/10/16 06:30:31  5-MIN KAQV 101230Z AUTO 17005KT 10SM FEW100 13/12 A3008 230 89 100 170/05 RMK AO2 T01330117 $
03949KAQV AQV20160410063511204/10/16 06:35:31  5-MIN KAQV 101235Z AUTO 18005KT 10SM FEW100 13/12 A3008 230 89 100 170/05 RMK AO2 T01330117 $
03949KAQV AQV20160410064011204/10/16 06:40:31  5-MIN KAQV 101240Z AUTO VRB05KT 10SM FEW100 14/12 A3008 230 86 200 VRB/05 RMK AO2 T01390117 $
03949KAQV AQV20160410064511204/10/16 06:45:31  5-MIN KAQV 101245Z AUTO 17005KT 10SM FEW100 14/12 A3008 230 90 200 170/05 RMK AO2 T01390122 $
03949KAQV AQV20160410065011604/10/16 06:50:31  5-MIN KAQV 101250Z AUTO VRB05KT 10SM CLR 14/12 A3008 230 86 300 VRB/05 RMK AO2 SLP183 T01440122 $
03949KAQV AQV20160410065511604/10/16 06:55:31  5-MIN KAQV 101255Z AUTO 17004KT 10SM CLR 14/12 A3008 230 86 300 170/04 RMK AO2 SLP183 T01440122 $
03949KAQV AQV20160410070010904/10/16 07:00:31  5-MIN KAQV 101300Z AUTO VRB06KT 10SM CLR 15/12 A3008 230 83 300 VRB/06 RMK AO2 T01500122 $
03949KAQV AQV20160410070510904/10/16 07:05:31  5-MIN KAQV 101305Z AUTO 18005KT 10SM CLR 15/13 A3008 230 86 300 170/05 RMK AO2 T01500128 $
03949KAQV AQV20160410071010904/10/16 07:10:31  5-MIN KAQV 101310Z AUTO 17005KT 10SM CLR 16/13 A3008 230 83 400 160/05 RMK AO2 T01560128 $
03949KAQV AQV20160410071510904/10/16 07:15:31  5-MIN KAQV 101315Z AUTO 18006KT 10SM CLR 16/13 A3008 230 83 400 170/06 RMK AO2 T01560128 $
03949KAQV AQV20160410072010904/10/16 07:20:31  5-MIN KAQV 101320Z AUTO 17004KT 10SM CLR 16/13 A3007 230 80 500 170/04 RMK AO2 T01610128 $
03949KAQV AQV20160410072510804/10/16 07:25:31  5-MIN KAQV 101325Z AUTO 17007KT 9SM CLR 16/13 A3007 230 80 500 170/07 RMK AO2 T01610128 $
03949KAQV AQV20160410073010804/10/16 07:30:31  5-MIN KAQV 101330Z AUTO 18006KT 9SM CLR 17/13 A3007 230 80 500 170/06 RMK AO2 T01670133 $
03949KAQV AQV20160410073510904/10/16 07:35:31  5-MIN KAQV 101335Z AUTO 18008KT 10SM CLR 17/13 A3008 230 80 500 170/08 RMK AO2 T01670133 $
03949KAQV AQV20160410074010904/10/16 07:40:31  5-MIN KAQV 101340Z AUTO 18008KT 10SM CLR 17/13 A3008 230 78 600 170/08 RMK AO2 T01720133 $
03949KAQV AQV20160410074510904/10/16 07:45:31  5-MIN KAQV 101345Z AUTO 17006KT 10SM CLR 18/13 A3008 230 75 600 170/06 RMK AO2 T01780133 $
03949KAQV AQV20160410075011604/10/16 07:50:31  5-MIN KAQV 101350Z AUTO 16008KT 10SM CLR 18/13 A3008 230 75 600 160/08 RMK AO2 SLP185 T01780133 $
03949KAQV AQV20160410075513204/10/16 07:55:31  5-MIN KAQV 101355Z AUTO 16008KT 110V190 10SM CLR 18/14 A3008 230 75 700 160/08 110V190 RMK AO2 SLP185 T01830139 $
03949KAQV AQV20160410080011504/10/16 08:00:31  5-MIN KAQV 101400Z AUTO 17005G15KT 10SM CLR 18/14 A3008 230 75 700 170/05G15 RMK AO2 T01830139 $
03949KAQV AQV20160410080510904/10/16 08:05:31  5-MIN KAQV 101405Z AUTO 17008KT 10SM CLR 19/14 A3008 230 72 800 170/08 RMK AO2 T01890139 $
03949KAQV AQV20160410081010904/10/16 08:10:31  5-MIN KAQV 101410Z AUTO 18009KT 10SM CLR 19/14 A3008 220 70 800 180/09 RMK AO2 T01940139 $
03949KAQV AQV20160410081510904/10/16 08:15:31  5-MIN KAQV 101415Z AUTO VRB06KT 10SM CLR 19/14 A3009 220 72 800 VRB/06 RMK AO2 T01940144 $
03949KAQV AQV20160410082013104/10/16 08:20:31  5-MIN KAQV 101420Z AUTO 17011G19KT 120V190 10SM CLR 19/14 A3009 220 72 800 160/11G19 120V190 RMK AO2 T01940144 $
03949KAQV AQV20160410082511504/10/16 08:25:31  5-MIN KAQV 101425Z AUTO 18012G19KT 10SM CLR 19/14 A3009 220 70 800 170/12G19 RMK AO2 T01940139 $
03949KAQV AQV20160410083013404/10/16 08:30:31  5-MIN KAQV 101430Z AUTO 17009G17KT 120V190 10SM SCT023 19/14 A3009 220 70 800 160/09G17 120V190 RMK AO2 T01940139 $
03949KAQV AQV20160410083511804/10/16 08:35:31  5-MIN KAQV 101435Z AUTO 16008G18KT 10SM SCT023 20/14 A3009 220 70 900 160/08G18 RMK AO2 T02000144 $
03949KAQV AQV20160410084013404/10/16 08:40:31  5-MIN KAQV 101440Z AUTO 18008G18KT 160V230 10SM SCT023 20/14 A3009 220 70 900 180/08G18 160V230 RMK AO2 T02000144 $
03949KAQV AQV20160410084512904/10/16 08:45:31  5-MIN KAQV 101445Z AUTO 18008KT 150V220 10SM SCT023 21/14 A3009 220 67 1000 180/08 150V220 RMK AO2 T02060144 $
03949KAQV AQV20160410085013204/10/16 08:50:31  5-MIN KAQV 101450Z AUTO 18011G19KT 10SM SCT023 21/14 A3009 220 67 1000 180/11G19 RMK AO2 SLP186 T02060144 53004 $
03949KAQV AQV20160411021514804/11/16 02:15:31  5-MIN KAQV 110815Z AUTO 18007G20KT 10SM -TSRA OVC010 18/17 A2996 340 93 900 170/07G20 RMK AO2 TSB09 CIG 007V011 P0000 T01830172 $
03949KAQV AQV20160411022016604/11/16 02:20:31  5-MIN KAQV 110820Z AUTO 20008G20KT 170V250 10SM -TSRA BKN008 OVC012 19/17 A2997 330 90 900 200/08G20 170V250 RMK AO2 TSB09 PRESRR P0000 T01890172 $
03949KAQV AQV20160411022514504/11/16 02:25:31  5-MIN KAQV 110825Z AUTO 19005KT 10SM OVC008 19/17 A2997 330 90 900 190/05 RMK AO2 RAE25 TSB09E24 CIG 007V011 P0000 T01890172 $
03949KAQV AQV20160411023013304/11/16 02:30:31  5-MIN KAQV 110830Z AUTO VRB05KT 10SM OVC008 19/17 A2997 330 90 900 VRB/05 RMK AO2 RAE25 TSB09E24 P0000 T01890172 $
03949KAQV AQV20160411023513904/11/16 02:35:31  5-MIN KAQV 110835Z AUTO 18009G14KT 10SM OVC008 19/17 A2996 340 90 900 170/09G14 RMK AO2 RAE25 TSB09E24 P0000 T01890172 $
03949KAQV AQV20160411024014604/11/16 02:40:31  5-MIN KAQV 110840Z AUTO VRB05G14KT 10SM BKN008 OVC013 18/17 A2996 340 93 900 VRB/05G14 RMK AO2 RAE25 TSB09E24 P0000 T01830172 $
03949KAQV AQV20160411024514504/11/16 02:45:31  5-MIN KAQV 110845Z AUTO 17007KT 10SM OVC008 18/17 A2995 350 93 900 160/07 RMK AO2 RAE25 TSB09E24 CIG 007V012 P0000 T01830172 $
03949KAQV AQV20160411025016404/11/16 02:50:31  5-MIN KAQV 110850Z AUTO 17007KT 10SM OVC008 18/17 A2995 350 93 900 170/07 RMK AO2 RAE25 TSB09E24 CIG 007V014 SLP140 P0000 60000 T01830172 58007 $
03949KAQV AQV20160411025516404/11/16 02:55:31  5-MIN KAQV 110855Z AUTO 16007KT 10SM OVC008 18/17 A2994 350 93 900 150/07 RMK AO2 RAE25 TSB09E24 CIG 007V011 SLP137 P0000 60000 T01830172 58007 $
03949KAQV AQV20160411030011204/11/16 03:00:31  5-MIN KAQV 110900Z AUTO VRB06KT 10SM OVC008 19/17 A2994 350 90 900 VRB/06 RMK AO2 T01890172 $
03949KAQV AQV20160411030513004/11/16 03:05:31  5-MIN KAQV 110905Z AUTO VRB06G17KT 10SM OVC010 19/17 A2994 360 90 900 VRB/06G17 RMK AO2 CIG 007V014 T01890172 $
03949KAQV AQV20160411031014604/11/16 03:10:31  5-MIN KAQV 110910Z AUTO 17011G17KT 10SM -RA OVC010 18/17 A2994 360 93 900 170/11G17 RMK AO2 RAB07 CIG 007V013 P0000 T01830172 $
03949KAQV AQV20160411031514604/11/16 03:15:31  5-MIN KAQV 110915Z AUTO 17007G16KT 10SM -RA OVC009 18/18 A2993 360 96 900 170/07G16 RMK AO2 RAB07 CIG 007V013 P0000 T01830178 $
03949KAQV AQV20160411032014604/11/16 03:20:31  5-MIN KAQV 110920Z AUTO VRB06G17KT 10SM -RA OVC009 18/18 A2993 370 96 900 VRB/06G17 RMK AO2 RAB07 CIG 007V013 P0000 T01830178 $
03949KAQV AQV20160411032514504/11/16 03:25:31  5-MIN KAQV 110925Z AUTO 17010G17KT 10SM OVC009 18/18 A2992 370 96 900 160/10G17 RMK AO2 RAB07E24 CIG 007V013 P0000 T01830178 $
03949KAQV AQV20160411033014504/11/16 03:30:31  5-MIN KAQV 110930Z AUTO 16010G17KT 10SM OVC009 18/18 A2992 380 96 900 160/10G17 RMK AO2 RAB07E24 CIG 007V013 P0000 T01830178 $
03949KAQV AQV20160411033514504/11/16 03:35:31  5-MIN KAQV 110935Z AUTO 17008G17KT 10SM OVC009 18/18 A2992 380 96 900 170/08G17 RMK AO2 RAB07E24 CIG 007V013 P0000 T01830178 $
03949KAQV AQV20160411034016104/11/16 03:40:31  5-MIN KAQV 110940Z AUTO 17007G21KT 110V200 10SM OVC009 18/18 A2991 380 96 900 160/07G21 110V200 RMK AO2 RAB07E24 CIG 007V013 P0000 T01830178 $
03949KAQV AQV20160411034514504/11/16 03:45:31  5-MIN KAQV 110945Z AUTO 16009G21KT 10SM OVC009 18/18 A2990 390 96 900 160/09G21 RMK AO2 RAB07E24 CIG 007V012 P0000 T01830178 $
03949KAQV AQV20160411035016304/11/16 03:50:31  5-MIN KAQV 110950Z AUTO 15008G17KT 110V190 10SM BKN009 OVC012 18/18 A2990 400 96 900 150/08G17 110V190 RMK AO2 RAB07E24 SLP122 P0000 T01830178 $
03949KAQV AQV20160411035516804/11/16 03:55:31  5-MIN KAQV 110955Z AUTO 16008G17KT 130V190 10SM OVC009 18/18 A2990 400 96 900 150/08G17 130V190 RMK AO2 RAB07E24 CIG 007V014 SLP121 P0000 T01830178 $
03949KAQV AQV20160411040014104/11/16 04:00:31  5-MIN KAQV 111000Z AUTO 17009G17KT 130V210 10SM BKN009 OVC012 18/18 A2990 390 96 900 160/09G17 130V210 RMK AO2 T01830178 $
03949KAQV AQV20160411040514604/11/16 04:05:31  5-MIN KAQV 111005Z AUTO 16008G19KT 140V200 10SM OVC009 18/18 A2991 390 96 900 160/08G19 140V200 RMK AO2 CIG 007V014 T01830178 $
03949KAQV AQV20160411041013004/11/16 04:10:31  5-MIN KAQV 111010Z AUTO VRB05G19KT 10SM OVC009 18/18 A2992 380 96 900 VRB/05G19 RMK AO2 CIG 007V014 T01830178 $
03949KAQV AQV20160411041513104/11/16 04:15:31  5-MIN KAQV 111015Z AUTO VRB04KT 10SM OVC009 18/18 A2993 370 96 900 VRB/04 RMK AO2 CIG 007V014 PRESRR T01830178 $
03949KAQV AQV20160411042013104/11/16 04:20:31  5-MIN KAQV 111020Z AUTO VRB03KT 10SM OVC009 18/18 A2993 370 96 900 VRB/03 RMK AO2 CIG 007V013 PRESRR T01830178 $
03949KAQV AQV20160411042511204/11/16 04:25:31  5-MIN KAQV 111025Z AUTO VRB04KT 10SM OVC009 18/18 A2994 360 96 900 VRB/04 RMK AO2 T01830178 $
03949KAQV AQV20160411043011904/11/16 04:30:31  5-MIN KAQV 111030Z AUTO VRB03KT 10SM OVC009 18/18 A2995 350 96 900 VRB/03 RMK AO2 PRESRR T01830178 $
03949KAQV AQV20160411043511204/11/16 04:35:31  5-MIN KAQV 111035Z AUTO VRB03KT 10SM OVC009 19/18 A2995 350 93 900 VRB/03 RMK AO2 T01890178 $
03949KAQV AQV20160411044010204/11/16 04:40:31  5-MIN KAQV 111040Z AUTO 10SM OVC009 19/18 A2994 360 93 900 M /M RMK AO2 T01890178 $
03949KAQV AQV20160411044511204/11/16 04:45:31  5-MIN KAQV 111045Z AUTO VRB05KT 10SM OVC009 19/18 A2995 350 93 900 VRB/05 RMK AO2 T01890178 $
03949KAQV AQV20160411045011904/11/16 04:50:31  5-MIN KAQV 111050Z AUTO VRB04KT 10SM OVC009 19/18 A2995 350 93 900 VRB/04 RMK AO2 SLP138 T01890178 $
03949KAQV AQV20160411045511904/11/16 04:55:31  5-MIN KAQV 111055Z AUTO VRB05KT 10SM OVC009 19/18 A2995 350 93 900 VRB/05 RMK AO2 SLP138 T01890178 $
03949KAQV AQV20160411050011204/11/16 05:00:31  5-MIN KAQV 111100Z AUTO VRB04KT 10SM OVC009 19/18 A2994 350 93 900 VRB/04 RMK AO2 T01890178 $
03949KAQV AQV20160411050511204/11/16 05:05:31  5-MIN KAQV 111105Z AUTO VRB04KT 10SM OVC009 19/18 A2994 350 93 900 VRB/04 RMK AO2 T01890178 $
03949KAQV AQV20160411051011204/11/16 05:10:31  5-MIN KAQV 111110Z AUTO 17003KT 10SM OVC010 19/18 A2995 350 93 900 160/03 RMK AO2 T01890178 $
03949KAQV AQV20160411051511204/11/16 05:15:31  5-MIN KAQV 111115Z AUTO VRB03KT 10SM OVC010 19/18 A2995 350 93 900 VRB/03 RMK AO2 T01890178 $
03949KAQV AQV20160411052011204/11/16 05:20:31  5-MIN KAQV 111120Z AUTO VRB05KT 10SM OVC010 19/18 A2995 350 93 900 VRB/05 RMK AO2 T01890178 $
03949KAQV AQV20160411052511104/11/16 05:25:31  5-MIN KAQV 111125Z AUTO VRB03KT 9SM OVC010 19/18 A2995 350 97 900 VRB/03 RMK AO2 T01890183 $
03949KAQV AQV20160411053012704/11/16 05:30:31  5-MIN KAQV 111130Z AUTO VRB05KT 7SM -RA OVC010 19/18 A2995 350 97 900 VRB/05 RMK AO2 RAB28 P0000 T01890183 $
03949KAQV AQV20160411053513004/11/16 05:35:31  5-MIN KAQV 111135Z AUTO 17004KT 5SM -RA BR OVC010 19/18 A2995 350 97 900 160/04 RMK AO2 RAB28 P0000 T01890183 $
03949KAQV AQV20160411054013004/11/16 05:40:31  5-MIN KAQV 111140Z AUTO 00000KT 5SM -RA BR OVC010 19/18 A2995 350 97 900 000/00 RMK AO2 RAB28 P0000 T01890183 $
03949KAQV AQV20160411054513004/11/16 05:45:31  5-MIN KAQV 111145Z AUTO 00000KT 6SM -RA BR OVC009 19/18 A2996 340 97 900 000/00 RMK AO2 RAB28 P0000 T01890183 $
03949KAQV AQV20160411055011604/11/16 05:50:31  5-MIN KAQV 111150Z AUTO 00000KT 8SM OVC009 19/18 A2996 340 97 900 000/00 RMK AO2 RAB28E47 P0000 $
03949KAQV AQV20160411055515704/11/16 05:55:31  5-MIN KAQV 111155Z AUTO 00000KT 9SM OVC009 19/18 A2997 330 97 900 000/00 RMK AO2 RAB28E47 SLP145 P0000 60000 T01890183 10194 20183 53006 $
03949KAQV AQV20160411060011804/11/16 06:00:31  5-MIN KAQV 111200Z AUTO 00000KT 9SM OVC009 19/18 A2997 330 97 900 000/00 RMK AO2 PRESRR T01890183 $
03949KAQV AQV20160411060511104/11/16 06:05:31  5-MIN KAQV 111205Z AUTO 00000KT 9SM OVC009 19/18 A2998 320 97 900 000/00 RMK AO2 T01890183 $
03949KAQV AQV20160411061013004/11/16 06:10:31  5-MIN KAQV 111210Z AUTO 00000KT 6SM -RA BR OVC009 19/18 A2998 320 97 900 000/00 RMK AO2 RAB10 P0000 T01890183 $
03949KAQV AQV20160411061513004/11/16 06:15:31  5-MIN KAQV 111215Z AUTO 16003KT 5SM -RA BR OVC009 19/18 A2998 320 97 900 150/03 RMK AO2 RAB10 P0000 T01890183 $
03949KAQV AQV20160411062013004/11/16 06:20:31  5-MIN KAQV 111220Z AUTO 00000KT 3SM -RA BR OVC009 19/18 A2998 330 97 900 000/00 RMK AO2 RAB10 P0000 T01890183 $
03949KAQV AQV20160411062513004/11/16 06:25:31  5-MIN KAQV 111225Z AUTO 00000KT 2SM -RA BR OVC009 19/18 A2997 330 97 900 000/00 RMK AO2 RAB10 P0000 T01890183 $
03949KAQV AQV20160411063014704/11/16 06:30:31  5-MIN KAQV 111230Z AUTO 00000KT 1 3/4SM -RA BR OVC009 19/19 A2997 330 100 900 000/00 RMK AO2 RAB10 CIG 007V011 P0000 T01890189 $
03949KAQV AQV20160411063514304/11/16 06:35:31  5-MIN KAQV 111235Z AUTO 00000KT 2SM -RA BR OVC009 19/19 A2997 330 100 900 000/00 RMK AO2 RAB10 CIG 007V011 P0001 T01890189 $
03949KAQV AQV20160411064014304/11/16 06:40:31  5-MIN KAQV 111240Z AUTO 00000KT 2SM -RA BR OVC009 19/19 A2997 330 97 1000 000/00 RMK AO2 RAB10 CIG 006V012 P0001 T01940189 $
03949KAQV AQV20160411064514304/11/16 06:45:31  5-MIN KAQV 111245Z AUTO 15003KT 2SM -RA BR OVC008 19/19 A2997 330 100 900 150/03 RMK AO2 RAB10 CIG 006V012 P0001 T01890189 $
03949KAQV AQV20160411065015304/11/16 06:50:31  5-MIN KAQV 111250Z AUTO 16004KT 2 1/2SM BR OVC008 19/19 A2997 330 100 900 160/04 RMK AO2 RAB10E47 CIG 006V010 SLP148 P0001 T01890189 $
03949KAQV AQV20160411065515304/11/16 06:55:31  5-MIN KAQV 111255Z AUTO 15003KT 2 1/2SM BR OVC008 19/19 A2997 330 100 900 150/03 RMK AO2 RAB10E47 CIG 006V012 SLP147 P0001 T01890189 $
03949KAQV AQV20160411070012704/11/16 07:00:31  5-MIN KAQV 111300Z AUTO 00000KT 2SM BR OVC008 19/19 A2997 330 97 1000 000/00 RMK AO2 CIG 003V012 T01940189 $
03949KAQV AQV20160411070513104/11/16 07:05:31  5-MIN KAQV 111305Z AUTO 00000KT 2 1/2SM BR OVC008 19/19 A2998 320 97 1000 000/00 RMK AO2 CIG 003V012 T01940189 $
03949KAQV AQV20160411071013104/11/16 07:10:31  5-MIN KAQV 111310Z AUTO VRB03KT 2 1/2SM BR OVC007 19/19 A2997 330 97 1000 VRB/03 RMK AO2 CIG 003V010 T01940189 $
03949KAQV AQV20160411071513104/11/16 07:15:31  5-MIN KAQV 111315Z AUTO VRB03KT 2 1/2SM BR OVC007 19/19 A2998 320 97 1000 VRB/03 RMK AO2 CIG 003V010 T01940189 $
03949KAQV AQV20160411072013104/11/16 07:20:31  5-MIN KAQV 111320Z AUTO 17004KT 2 1/2SM BR OVC007 19/19 A2998 320 97 1000 170/04 RMK AO2 CIG 003V009 T01940189 $
03949KAQV AQV20160411072512704/11/16 07:25:31  5-MIN KAQV 111325Z AUTO 17004KT 2SM BR OVC005 19/19 A2998 320 97 1000 170/04 RMK AO2 CIG 003V008 T01940189 $
03949KAQV AQV20160411073012704/11/16 07:30:31  5-MIN KAQV 111330Z AUTO VRB03KT 2SM BR OVC005 19/19 A2998 320 97 1000 VRB/03 RMK AO2 CIG 004V008 T01940189 $
03949KAQV AQV20160411073513104/11/16 07:35:31  5-MIN KAQV 111335Z AUTO 18003KT 1 3/4SM BR OVC005 19/19 A2998 320 97 1000 180/03 RMK AO2 CIG 004V008 T01940189 $
03949KAQV AQV20160411074012904/11/16 07:40:31  5-MIN KAQV 111340Z AUTO 18003KT 1 3/4SM BR OVC005 19/19 A2998 320 97 1000 180/03 RMK AO2 CIG 003V008 T01940189
03949KAQV AQV20160411074512804/11/16 07:45:31  5-MIN KAQV 111345Z AUTO 18003KT 1 3/4SM BR OVC005 19/19 A2999 320 97 900 170/03 RMK AO2 CIG 003V008 T01940189
03949KAQV AQV20160411075013504/11/16 07:50:31  5-MIN KAQV 111350Z AUTO VRB03KT 1 3/4SM BR OVC005 19/19 A2999 320 97 900 VRB/03 RMK AO2 CIG 003V008 SLP152 T01940189
03949KAQV AQV20160411075513504/11/16 07:55:31  5-MIN KAQV 111355Z AUTO VRB03KT 1 1/2SM BR OVC005 19/19 A2999 310 97 900 VRB/03 RMK AO2 CIG 003V008 SLP153 T01940189
03949KAQV AQV20160411080012604/11/16 08:00:31  5-MIN KAQV 111400Z AUTO VRB04KT 1 1/2SM -RA BR OVC005 19/19 A2999 310 97 900 VRB/04 RMK AO2 P0000 T01940189
03949KAQV AQV20160411080512604/11/16 08:05:31  5-MIN KAQV 111405Z AUTO VRB04KT 1 1/2SM -RA BR OVC005 19/19 A2999 310 97 900 VRB/04 RMK AO2 P0000 T01940189
03949KAQV AQV20160411081012304/11/16 08:10:31  5-MIN KAQV 111410Z AUTO VRB03KT 2SM -RA BR OVC004 19/19 A3000 310 100 900 VRB/03 RMK AO2 P0001 T01940194
03949KAQV AQV20160411081512304/11/16 08:15:31  5-MIN KAQV 111415Z AUTO 18004KT 2SM -RA BR OVC004 19/19 A3000 300 100 900 180/04 RMK AO2 P0001 T01940194
03949KAQV AQV20160411082012304/11/16 08:20:31  5-MIN KAQV 111420Z AUTO 18004KT 2SM -RA BR OVC004 19/19 A3001 300 100 900 180/04 RMK AO2 P0001 T01940194
03949KAQV AQV20160411082512704/11/16 08:25:31  5-MIN KAQV 111425Z AUTO 19003KT 1 1/2SM -RA BR OVC004 19/19 A3001 300 100 900 180/03 RMK AO2 P0001 T01940194
03949KAQV AQV20160411083012704/11/16 08:30:31  5-MIN KAQV 111430Z AUTO 19003KT 1 1/2SM -RA BR OVC004 19/19 A3001 290 100 900 180/03 RMK AO2 P0001 T01940194
03949KAQV AQV20160411083513904/11/16 08:35:31  5-MIN KAQV 111435Z AUTO 18004KT 1 1/2SM -RA BR OVC004 19/19 A3001 290 100 900 180/04 RMK AO2 CIG 003V007 P0002 T01940194
03949KAQV AQV20160411084013904/11/16 08:40:31  5-MIN KAQV 111440Z AUTO 18004KT 1 3/4SM -RA BR OVC004 19/19 A3001 290 100 900 170/04 RMK AO2 CIG 003V008 P0002 T01940194
03949KAQV AQV20160411084513904/11/16 08:45:31  5-MIN KAQV 111445Z AUTO 16004KT 1 1/2SM -RA BR OVC005 19/19 A3001 300 100 900 160/04 RMK AO2 CIG 003V009 P0002 T01940194
03949KAQV AQV20160411085012904/11/16 08:50:31  5-MIN KAQV 111450Z AUTO 17004KT 1 3/4SM -RA BR OVC005 19/19 A3001 300 100 900 170/04 RMK AO2 CIG 003V007 P0002
03949KAQV AQV20160411085515404/11/16 08:55:31  5-MIN KAQV 111455Z AUTO 17004KT 2SM -RA BR OVC005 19/19 A3001 300 100 900 160/04 RMK AO2 CIG 003V008 SLP159 P0003 60004 T01940194 53013
03949KAQV AQV20160411090013504/11/16 09:00:31  5-MIN KAQV 111500Z AUTO VRB04KT 2SM -RA BR OVC005 20/19 A3001 300 97 1000 VRB/04 RMK AO2 CIG 003V008 P0000 T02000194
03949KAQV AQV20160411090513704/11/16 09:05:31  5-MIN KAQV 111505Z AUTO 16003KT 2SM BR OVC005 20/19 A3001 300 97 1000 150/03 RMK AO2 RAE02 CIG 003V009 P0000 T02000194
03949KAQV AQV20160411091013704/11/16 09:10:31  5-MIN KAQV 111510Z AUTO 16003KT 2SM BR OVC005 20/19 A3000 300 97 1000 160/03 RMK AO2 RAE02 CIG 003V007 P0000 T02000194
03949KAQV AQV20160411091513704/11/16 09:15:31  5-MIN KAQV 111515Z AUTO 16004KT 2SM BR OVC005 20/19 A3001 300 97 1000 150/04 RMK AO2 RAE02 CIG 003V009 P0000 T02000194
03949KAQV AQV20160411092014104/11/16 09:20:31  5-MIN KAQV 111520Z AUTO 16005KT 2 1/2SM BR OVC005 20/19 A3000 300 97 1000 160/05 RMK AO2 RAE02 CIG 003V008 P0000 T02000194
03949KAQV AQV20160411092513704/11/16 09:25:31  5-MIN KAQV 111525Z AUTO 16005KT 2SM BR OVC005 20/19 A3000 300 97 1000 160/05 RMK AO2 RAE02 CIG 003V009 P0000 T02000194
03949KAQV AQV20160411093014804/11/16 09:30:31  5-MIN KAQV 111530Z AUTO 16004KT 1 3/4SM -RA BR OVC005 20/19 A3000 300 97 1000 160/04 RMK AO2 RAE02B26 CIG 003V009 P0000 T02000194
03949KAQV AQV20160411093515104/11/16 09:35:31  5-MIN KAQV 111535Z AUTO 16006KT 1 3/4SM -TSRA BR BKN003 OVC007 20/19 A2999 310 97 1000 150/06 RMK AO2 RAE02B26 TSB35 P0000 T02000194
03949KAQV AQV20160411094015204/11/16 09:40:31  5-MIN KAQV 111540Z AUTO 16006KT 2SM -TSRA BR OVC003 20/19 A2999 320 97 1000 150/06 RMK AO2 RAE02B26 TSB35 CIG 003V008 P0000 T02000194
03949KAQV AQV20160411094515104/11/16 09:45:31  5-MIN KAQV 111545Z AUTO 17007KT 2SM TSRA BR OVC003 20/19 A2999 310 97 1000 170/07 RMK AO2 RAE02B26 TSB35 CIG 003V008 P0001 T02000194
03949KAQV AQV20160411095016404/11/16 09:50:31  5-MIN KAQV 111550Z AUTO 17008KT 2 1/2SM -TSRA BR OVC003 20/20 A3000 310 100 1000 170/08 RMK AO2 RAE02B26 TSB35 CIG 003V007 SLP156 P0002 T02000200
03949KAQV AQV20160411095516004/11/16 09:55:31  5-MIN KAQV 111555Z AUTO VRB06KT 4SM -RA BR OVC003 21/20 A2999 310 97 1100 VRB/06 RMK AO2 RAE02B26 TSB35E51 CIG 003V007 SLP155 P0002 T02060200
03949KAQV AQV20160411100013504/11/16 10:00:31  5-MIN KAQV 111600Z AUTO 17006KT 5SM -RA BR OVC004 21/20 A2999 310 97 1100 160/06 RMK AO2 CIG 003V007 P0000 T02060200
03949KAQV AQV20160411100513704/11/16 10:05:31  5-MIN KAQV 111605Z AUTO 16007KT 6SM BR OVC004 21/20 A2999 320 97 1100 160/07 RMK AO2 RAE01 CIG 003V008 P0000 T02060200
03949KAQV AQV20160411101013404/11/16 10:10:31  5-MIN KAQV 111610Z AUTO 18006KT 7SM OVC004 21/20 A2999 310 97 1100 170/06 RMK AO2 RAE01 CIG 003V008 P0000 T02060200
03949KAQV AQV20160411101513404/11/16 10:15:31  5-MIN KAQV 111615Z AUTO 17007KT 8SM OVC004 21/20 A2999 310 97 1100 160/07 RMK AO2 RAE01 CIG 003V008 P0000 T02060200
03949KAQV AQV20160411102013804/11/16 10:20:31  5-MIN KAQV 111620Z AUTO 18007KT 150V210 7SM OVC004 21/20 A2999 310 97 1100 170/07 150V210 RMK AO2 RAE01 P0000 T02060200
03949KAQV AQV20160411102513404/11/16 10:25:31  5-MIN KAQV 111625Z AUTO 17007KT 8SM OVC004 21/20 A2999 310 97 1100 170/07 RMK AO2 RAE01 CIG 003V008 P0000 T02060200
03949KAQV AQV20160411103014004/11/16 10:30:31  5-MIN KAQV 111630Z AUTO VRB05G15KT 8SM OVC004 21/20 A2999 310 97 1100 VRB/05G15 RMK AO2 RAE01 CIG 004V008 P0000 T02060200
03949KAQV AQV20160411103514004/11/16 10:35:31  5-MIN KAQV 111635Z AUTO 17006G15KT 8SM OVC006 21/20 A2999 320 97 1100 170/06G15 RMK AO2 RAE01 CIG 004V009 P0000 T02060200
03949KAQV AQV20160411104013404/11/16 10:40:31  5-MIN KAQV 111640Z AUTO 18007KT 8SM OVC006 21/20 A2998 320 97 1100 170/07 RMK AO2 RAE01 CIG 004V009 P0000 T02060200
03949KAQV AQV20160411104513404/11/16 10:45:31  5-MIN KAQV 111645Z AUTO VRB06KT 8SM VCTS BKN005 OVC011 21/20 A2998 320 97 1100 VRB/06 RMK AO2 RAE01 P0000 T02060200
03949KAQV AQV20160411105014104/11/16 10:50:31  5-MIN KAQV 111650Z AUTO 16007KT 8SM VCTS BKN005 OVC011 21/20 A2998 330 97 1100 160/07 RMK AO2 RAE01 SLP149 P0000 T02060200
03949KAQV AQV20160411105514104/11/16 10:55:31  5-MIN KAQV 111655Z AUTO VRB05KT 7SM VCTS BKN008 OVC012 21/20 A2998 320 97 1100 VRB/05 RMK AO2 RAE01 SLP150 P0000 T02060200
03949KAQV AQV20160411110013504/11/16 11:00:31  5-MIN KAQV 111700Z AUTO 17005KT 7SM -RA BKN008 OVC012 21/20 A2998 330 93 1200 160/05 RMK AO2 RAB1658 P0000 T02110200
03949KAQV AQV20160411110513504/11/16 11:05:31  5-MIN KAQV 111705Z AUTO VRB04KT 8SM -RA BKN006 OVC012 21/20 A2997 330 93 1200 VRB/04 RMK AO2 RAB1658 P0000 T02110200
03949KAQV AQV20160411111013404/11/16 11:10:31  5-MIN KAQV 111710Z AUTO VRB05KT 8SM BKN008 OVC012 21/20 A2997 330 93 1200 VRB/05 RMK AO2 RAB1658E07 P0000 T02110200
03949KAQV AQV20160411111514704/11/16 11:15:31  5-MIN KAQV 111715Z AUTO VRB04KT 7SM -RA BKN008 OVC012 21/21 A2996 340 97 1200 VRB/04 RMK AO2 RAB1658 CIG 005V009 P0000 T02110206
03949KAQV AQV20160411112014704/11/16 11:20:31  5-MIN KAQV 111720Z AUTO 16006KT 8SM -RA BKN007 OVC012 21/21 A2996 340 97 1200 160/06 RMK AO2 RAB1658 CIG 005V009 P0000 T02110206
03949KAQV AQV20160411112514704/11/16 11:25:31  5-MIN KAQV 111725Z AUTO 16008KT 9SM -RA BKN007 OVC012 21/20 A2996 340 93 1200 160/08 RMK AO2 RAB1658 CIG 006V009 P0000 T02110200
03949KAQV AQV20160411113014604/11/16 11:30:31  5-MIN KAQV 111730Z AUTO 17005KT 9SM BKN007 OVC012 21/21 A2996 340 97 1200 170/05 RMK AO2 RAB1658E26 CIG 006V009 P0000 T02110206
03949KAQV AQV20160411113513404/11/16 11:35:31  5-MIN KAQV 111735Z AUTO VRB06KT 9SM BKN007 OVC012 22/21 A2995 350 90 1300 VRB/06 RMK AO2 RAB1658E26 P0000 T02220206
03949KAQV AQV20160411114014604/11/16 11:40:31  5-MIN KAQV 111740Z AUTO VRB06KT 9SM BKN010 OVC016 23/21 A2995 350 87 1400 VRB/06 RMK AO2 RAB1658E26 CIG 006V013 P0000 T02280206
03949KAQV AQV20160411114514704/11/16 11:45:31  5-MIN KAQV 111745Z AUTO 17009KT 10SM BKN010 OVC015 23/21 A2994 360 87 1400 160/09 RMK AO2 RAB1658E26 CIG 007V013 P0000 T02280206
03949KAQV AQV20160411115016504/11/16 11:50:31  5-MIN KAQV 111750Z AUTO 18011G18KT 10SM OVC012 23/21 A2994 360 87 1400 170/11G18 RMK AO2 RAB1658E26 SLP135 P0000 60006 T02280206 10228 20189 50012
03949KAQV AQV20160411115516404/11/16 11:55:31  5-MIN KAQV 111755Z AUTO 18008G18KT 9SM OVC012 23/21 A2994 350 87 1400 170/08G18 RMK AO2 RAB1658E26 SLP137 P0000 60006 T02280206 10228 20189 50012
03949KAQV AQV20160411120012604/11/16 12:00:31  5-MIN KAQV 111800Z AUTO 18007KT 150V210 9SM OVC010 23/21 A2995 350 87 1400 170/07 150V210 RMK AO2 T02280206
03949KAQV AQV20160411120511604/11/16 12:05:31  5-MIN KAQV 111805Z AUTO 18010G19KT 8SM OVC012 23/20 A2995 350 84 1400 170/10G19 RMK AO2 T02280200
03949KAQV AQV20160411121013204/11/16 12:10:31  5-MIN KAQV 111810Z AUTO 19008G19KT 160V310 8SM OVC012 23/21 A2994 350 87 1400 190/08G19 160V310 RMK AO2 T02280206
03949KAQV AQV20160411121511604/11/16 12:15:31  5-MIN KAQV 111815Z AUTO VRB06G16KT 8SM OVC012 23/20 A2995 350 84 1400 VRB/06G16 RMK AO2 T02280200
03949KAQV AQV20160411122011004/11/16 12:20:31  5-MIN KAQV 111820Z AUTO VRB05KT 8SM OVC012 23/20 A2994 350 84 1400 VRB/05 RMK AO2 T02280200
03949KAQV AQV20160411122511004/11/16 12:25:31  5-MIN KAQV 111825Z AUTO 19006KT 8SM OVC012 23/20 A2995 350 84 1400 190/06 RMK AO2 T02280200
03949KAQV AQV20160411123011004/11/16 12:30:31  5-MIN KAQV 111830Z AUTO VRB05KT 8SM OVC012 23/21 A2995 350 87 1400 VRB/05 RMK AO2 T02280206
03949KAQV AQV20160411123511004/11/16 12:35:31  5-MIN KAQV 111835Z AUTO VRB06KT 8SM OVC012 23/21 A2995 350 87 1400 VRB/06 RMK AO2 T02280206
03949KAQV AQV20160411124011004/11/16 12:40:31  5-MIN KAQV 111840Z AUTO VRB06KT 8SM OVC012 23/21 A2995 350 87 1400 VRB/06 RMK AO2 T02280206
03949KAQV AQV20160411124511704/11/16 12:45:31  5-MIN KAQV 111845Z AUTO VRB03KT 8SM BKN014 OVC020 23/21 A2995 350 87 1400 VRB/03 RMK AO2 T02280206
03949KAQV AQV20160411125012404/11/16 12:50:31  5-MIN KAQV 111850Z AUTO VRB05KT 8SM BKN014 OVC022 23/21 A2994 350 87 1400 VRB/05 RMK AO2 SLP137 T02280206
03949KAQV AQV20160411125512404/11/16 12:55:31  5-MIN KAQV 111855Z AUTO VRB04KT 9SM BKN014 OVC022 23/21 A2995 350 84 1400 VRB/04 RMK AO2 SLP138 T02330206
03949KAQV AQV20160411130011704/11/16 13:00:31  5-MIN KAQV 111900Z AUTO VRB06KT 9SM BKN016 OVC026 24/21 A2994 360 81 1500 VRB/06 RMK AO2 T02390206
03949KAQV AQV20160411130514004/11/16 13:05:31  5-MIN KAQV 111905Z AUTO 18008G16KT 140V220 10SM BKN016 OVC026 24/21 A2994 360 81 1500 180/08G16 140V220 RMK AO2 T02390206
03949KAQV AQV20160411131012404/11/16 13:10:31  5-MIN KAQV 111910Z AUTO 19008G16KT 10SM BKN018 OVC026 24/20 A2994 360 78 1500 190/08G16 RMK AO2 T02390200
03949KAQV AQV20160411131513404/11/16 13:15:31  5-MIN KAQV 111915Z AUTO 18008KT 150V220 10SM BKN018 OVC026 24/20 A2994 360 78 1500 180/08 150V220 RMK AO2 T02390200
03949KAQV AQV20160411132013404/11/16 13:20:31  5-MIN KAQV 111920Z AUTO 20007KT 150V220 10SM BKN018 OVC024 24/20 A2994 360 76 1600 190/07 150V220 RMK AO2 T02440200
03949KAQV AQV20160411132511804/11/16 13:25:31  5-MIN KAQV 111925Z AUTO VRB05KT 10SM BKN018 OVC024 24/20 A2994 360 78 1500 VRB/05 RMK AO2 T02390200
03949KAQV AQV20160411133013404/11/16 13:30:31  5-MIN KAQV 111930Z AUTO 18008KT 140V230 10SM BKN018 OVC024 24/20 A2994 360 78 1500 180/08 140V230 RMK AO2 T02390200
03949KAQV AQV20160411133512404/11/16 13:35:31  5-MIN KAQV 111935Z AUTO 18009G16KT 10SM BKN016 OVC024 24/20 A2994 360 78 1500 180/09G16 RMK AO2 T02390200
03949KAQV AQV20160411134012404/11/16 13:40:31  5-MIN KAQV 111940Z AUTO 18006G16KT 10SM BKN016 OVC024 23/20 A2993 360 84 1400 180/06G16 RMK AO2 T02280200
03949KAQV AQV20160411134511704/11/16 13:45:31  5-MIN KAQV 111945Z AUTO VRB04KT 9SM BKN016 OVC024 23/21 A2993 360 87 1400 VRB/04 RMK AO2 T02280206
03949KAQV AQV20160411135012404/11/16 13:50:31  5-MIN KAQV 111950Z AUTO VRB06KT 9SM BKN016 OVC024 24/21 A2993 360 81 1500 VRB/06 RMK AO2 SLP133 T02390206
03949KAQV AQV20160411135512504/11/16 13:55:31  5-MIN KAQV 111955Z AUTO 19006KT 10SM BKN016 OVC025 24/21 A2993 360 81 1500 180/06 RMK AO2 SLP134 T02390206
03949KAQV AQV20160411140011804/11/16 14:00:31  5-MIN KAQV 112000Z AUTO 20009KT 10SM BKN018 OVC025 23/21 A2994 360 84 1500 190/09 RMK AO2 T02330206
03949KAQV AQV20160411140511804/11/16 14:05:31  5-MIN KAQV 112005Z AUTO 21005KT 10SM BKN018 OVC025 23/21 A2994 360 87 1400 200/05 RMK AO2 T02280206
03949KAQV AQV20160411141011804/11/16 14:10:31  5-MIN KAQV 112010Z AUTO VRB04KT 10SM BKN018 OVC025 23/21 A2993 370 87 1400 VRB/04 RMK AO2 T02280206
03949KAQV AQV20160411141511104/11/16 14:15:31  5-MIN KAQV 112015Z AUTO VRB06KT 10SM OVC020 23/21 A2993 370 84 1500 VRB/06 RMK AO2 T02330206
03949KAQV AQV20160411142011804/11/16 14:20:31  5-MIN KAQV 112020Z AUTO VRB05KT 10SM BKN020 OVC027 23/21 A2993 370 87 1400 VRB/05 RMK AO2 T02280206
03949KAQV AQV20160411142511804/11/16 14:25:31  5-MIN KAQV 112025Z AUTO VRB06KT 10SM BKN021 OVC027 23/21 A2993 370 87 1400 VRB/06 RMK AO2 T02280206
03949KAQV AQV20160411143011804/11/16 14:30:31  5-MIN KAQV 112030Z AUTO VRB06KT 10SM SCT021 OVC029 23/20 A2993 370 84 1400 VRB/06 RMK AO2 T02280200
03949KAQV AQV20160411143511804/11/16 14:35:31  5-MIN KAQV 112035Z AUTO VRB04KT 10SM FEW021 OVC029 23/20 A2993 370 84 1400 VRB/04 RMK AO2 T02280200
03949KAQV AQV20160411144012504/11/16 14:40:31  5-MIN KAQV 112040Z AUTO 20005KT 10SM SCT021 BKN029 OVC034 23/20 A2993 370 84 1400 190/05 RMK AO2 T02280200
03949KAQV AQV20160411144513304/11/16 14:45:31  5-MIN KAQV 112045Z AUTO VRB04KT 8SM -RA SCT022 OVC029 23/20 A2993 370 84 1400 VRB/04 RMK AO2 RAB43 P0000 T02280200
03949KAQV AQV20160411145015504/11/16 14:50:31  5-MIN KAQV 112050Z AUTO VRB03KT 6SM -RA BR BKN020 OVC031 22/20 A2993 370 87 1300 VRB/03 RMK AO2 RAB43 SLP133 P0000 60000 T02220200 58020
03949KAQV AQV20160411145516204/11/16 14:55:31  5-MIN KAQV 112055Z AUTO VRB03KT 5SM -RA BR BKN020 BKN024 OVC031 22/21 A2993 370 90 1300 VRB/03 RMK AO2 RAB43 SLP133 P0000 60000 T02220206 58020
03949KAQV AQV20160411150013704/11/16 15:00:31  5-MIN KAQV 112100Z AUTO VRB05KT 5SM -RA BR BKN020 BKN024 OVC031 22/21 A2993 370 90 1300 VRB/05 RMK AO2 P0000 T02220206
03949KAQV AQV20160411150512004/11/16 15:05:31  5-MIN KAQV 112105Z AUTO VRB04KT 7SM -RA OVC020 22/21 A2993 370 90 1300 VRB/04 RMK AO2 P0000 T02220206
03949KAQV AQV20160411151014304/11/16 15:10:31  5-MIN KAQV 112110Z AUTO 19007KT 170V240 8SM -RA BKN020 OVC025 22/21 A2993 370 93 1300 190/07 170V240 RMK AO2 P0000 T02170206
03949KAQV AQV20160411151512904/11/16 15:15:31  5-MIN KAQV 112115Z AUTO VRB05KT 8SM BKN020 OVC025 22/20 A2993 370 90 1300 VRB/05 RMK AO2 RAE14 P0000 T02170200
03949KAQV AQV20160411192511804/11/16 19:25:31  5-MIN KAQV 120125Z AUTO 20005KT 10SM BKN017 OVC075 21/19 A2991 380 90 1200 190/05 RMK AO2 T02110194
03949KAQV AQV20160411193011804/11/16 19:30:31  5-MIN KAQV 120130Z AUTO 19005KT 10SM BKN018 OVC075 21/19 A2991 380 90 1200 190/05 RMK AO2 T02110194
03949KAQV AQV20160411193511804/11/16 19:35:31  5-MIN KAQV 120135Z AUTO VRB04KT 10SM BKN018 OVC075 21/19 A2992 380 90 1200 VRB/04 RMK AO2 T02110194
03949KAQV AQV20160411194011804/11/16 19:40:31  5-MIN KAQV 120140Z AUTO 19005KT 10SM BKN018 OVC075 21/19 A2992 370 90 1200 190/05 RMK AO2 T02110194
03949KAQV AQV20160411194511804/11/16 19:45:31  5-MIN KAQV 120145Z AUTO 19005KT 10SM BKN020 OVC075 21/19 A2992 370 93 1100 190/05 RMK AO2 T02060194
03949KAQV AQV20160411195012504/11/16 19:50:31  5-MIN KAQV 120150Z AUTO VRB03KT 10SM BKN020 OVC090 21/19 A2993 370 93 1100 VRB/03 RMK AO2 SLP132 T02060194
03949KAQV AQV20160411195512504/11/16 19:55:31  5-MIN KAQV 120155Z AUTO 19004KT 10SM BKN020 OVC090 21/19 A2993 370 93 1100 190/04 RMK AO2 SLP132 T02060194
03949KAQV AQV20160411200011804/11/16 20:00:31  5-MIN KAQV 120200Z AUTO VRB03KT 10SM BKN019 OVC090 21/19 A2993 370 93 1100 VRB/03 RMK AO2 T02060194
03949KAQV AQV20160411200511804/11/16 20:05:31  5-MIN KAQV 120205Z AUTO VRB03KT 10SM BKN021 OVC090 21/19 A2994 350 93 1100 VRB/03 RMK AO2 T02060194
03949KAQV AQV20160411201011804/11/16 20:10:31  5-MIN KAQV 120210Z AUTO 00000KT 10SM BKN021 OVC090 21/19 A2995 350 93 1100 000/00 RMK AO2 T02060194
03949KAQV AQV20160411201511804/11/16 20:15:31  5-MIN KAQV 120215Z AUTO 00000KT 10SM BKN021 OVC090 21/19 A2995 350 93 1100 000/00 RMK AO2 T02060194
03949KAQV AQV20160411202011804/11/16 20:20:31  5-MIN KAQV 120220Z AUTO 00000KT 10SM BKN021 OVC090 21/19 A2995 350 90 1200 000/00 RMK AO2 T02110194
03949KAQV AQV20160411202511104/11/16 20:25:31  5-MIN KAQV 120225Z AUTO 00000KT 10SM OVC021 21/19 A2995 340 93 1100 000/00 RMK AO2 T02060194
03949KAQV AQV20160411203012504/11/16 20:30:31  5-MIN KAQV 120230Z AUTO 00000KT 10SM FEW017 BKN021 OVC090 21/19 A2996 340 93 1100 000/00 RMK AO2 T02060194
03949KAQV AQV20160411203511104/11/16 20:35:31  5-MIN KAQV 120235Z AUTO 00000KT 10SM OVC021 21/19 A2997 330 90 1200 000/00 RMK AO2 T02110194
03949KAQV AQV20160411204011804/11/16 20:40:31  5-MIN KAQV 120240Z AUTO 00000KT 10SM BKN021 OVC050 21/19 A2997 330 93 1100 000/00 RMK AO2 T02060194
03949KAQV AQV20160411204511804/11/16 20:45:31  5-MIN KAQV 120245Z AUTO 00000KT 10SM BKN021 OVC050 21/19 A2997 330 93 1100 000/00 RMK AO2 T02060194
03949KAQV AQV20160411205010804/11/16 20:50:31  5-MIN KAQV 120250Z AUTO 00000KT 10SM SCT021 OVC050 21/19 A2997 330 93 1100 000/00 RMK AO2
03949KAQV AQV20160411205513804/11/16 20:55:31  5-MIN KAQV 120255Z AUTO 00000KT 10SM SCT021 BKN050 OVC070 21/19 A2997 330 93 1100 000/00 RMK AO2 SLP146 T02060194 53027
03949KAQV AQV20160411210012404/11/16 21:00:31  5-MIN KAQV 120300Z AUTO 00000KT 9SM FEW022 BKN050 OVC070 21/19 A2997 330 93 1100 000/00 RMK AO2 T02060194
03949KAQV AQV20160411210512404/11/16 21:05:31  5-MIN KAQV 120305Z AUTO 00000KT 9SM FEW022 BKN050 OVC070 20/19 A2997 330 97 1000 000/00 RMK AO2 T02000194
03949KAQV AQV20160411211011704/11/16 21:10:31  5-MIN KAQV 120310Z AUTO 00000KT 9SM BKN055 OVC070 21/19 A2997 330 93 1100 000/00 RMK AO2 T02060194
03949KAQV AQV20160411211512404/11/16 21:15:31  5-MIN KAQV 120315Z AUTO 00000KT 9SM FEW020 BKN055 OVC070 21/19 A2997 330 93 1100 000/00 RMK AO2 T02060194
03949KAQV AQV20160411212012504/11/16 21:20:31  5-MIN KAQV 120320Z AUTO 00000KT 10SM SCT020 BKN055 OVC070 21/19 A2998 330 93 1100 000/00 RMK AO2 T02060194
03949KAQV AQV20160411212512404/11/16 21:25:31  5-MIN KAQV 120325Z AUTO 01003KT 9SM BKN020 BKN055 OVC070 21/19 A2997 330 93 1100 360/03 RMK AO2 T02060194
03949KAQV AQV20160411213012404/11/16 21:30:31  5-MIN KAQV 120330Z AUTO 00000KT 9SM BKN020 BKN050 OVC070 21/19 A2997 330 93 1100 000/00 RMK AO2 T02060194
03949KAQV AQV20160411213511704/11/16 21:35:31  5-MIN KAQV 120335Z AUTO 00000KT 9SM BKN018 OVC070 20/19 A2998 320 97 1000 000/00 RMK AO2 T02000194
03949KAQV AQV20160411214011004/11/16 21:40:31  5-MIN KAQV 120340Z AUTO 00000KT 9SM OVC018 21/19 A2998 320 93 1100 000/00 RMK AO2 T02060194
03949KAQV AQV20160411214511704/11/16 21:45:31  5-MIN KAQV 120345Z AUTO 00000KT 9SM BKN015 OVC020 20/19 A2998 320 97 1000 000/00 RMK AO2 T02000194
03949KAQV AQV20160411215012404/11/16 21:50:31  5-MIN KAQV 120350Z AUTO 18003KT 8SM BKN015 OVC020 20/19 A2997 330 97 1000 170/03 RMK AO2 SLP148 T02000194
03949KAQV AQV20160411215513104/11/16 21:55:31  5-MIN KAQV 120355Z AUTO 00000KT 8SM BKN014 BKN020 OVC043 20/19 A2997 330 97 1000 000/00 RMK AO2 SLP148 T02000194
03949KAQV AQV20160411220012404/11/16 22:00:31  5-MIN KAQV 120400Z AUTO 00000KT 8SM SCT014 BKN020 OVC110 20/19 A2998 330 97 1000 000/00 RMK AO2 T02000194
03949KAQV AQV20160411220512404/11/16 22:05:31  5-MIN KAQV 120405Z AUTO 00000KT 9SM SCT014 BKN020 OVC110 20/19 A2998 330 97 1000 000/00 RMK AO2 T02000194
03949KAQV AQV20160411221012404/11/16 22:10:31  5-MIN KAQV 120410Z AUTO 00000KT 8SM FEW014 BKN020 OVC070 20/19 A2998 320 97 1000 000/00 RMK AO2 T02000194
03949KAQV AQV20160411221512404/11/16 22:15:31  5-MIN KAQV 120415Z AUTO 00000KT 8SM BKN020 BKN044 OVC110 20/19 A2998 320 97 1000 000/00 RMK AO2 T02000194
03949KAQV AQV20160411222011704/11/16 22:20:31  5-MIN KAQV 120420Z AUTO 00000KT 8SM BKN020 OVC110 20/19 A2998 320 97 1000 000/00 RMK AO2 T02000194
03949KAQV AQV20160411222511004/11/16 22:25:31  5-MIN KAQV 120425Z AUTO 36003KT 7SM OVC020 20/19 A2999 310 97 1000 350/03 RMK AO2 T02000194
03949KAQV AQV20160411223011004/11/16 22:30:31  5-MIN KAQV 120430Z AUTO 00000KT 7SM OVC018 20/19 A2999 310 97 1000 000/00 RMK AO2 T02000194
03949KAQV AQV20160411223511104/11/16 22:35:31  5-MIN KAQV 120435Z AUTO 36003KT 7SM OVC018 20/20 A2999 310 100 1000 360/03 RMK AO2 T02000200
03949KAQV AQV20160411224012704/11/16 22:40:31  5-MIN KAQV 120440Z AUTO 01004KT 6SM BR FEW009 BKN014 OVC018 21/20 A2999 310 97 1100 360/04 RMK AO2 T02060200
03949KAQV AQV20160411224512404/11/16 22:45:31  5-MIN KAQV 120445Z AUTO 01005KT 7SM SCT009 BKN014 OVC019 21/20 A2999 310 97 1100 010/05 RMK AO2 T02060200
03949KAQV AQV20160411225011404/11/16 22:50:31  5-MIN KAQV 120450Z AUTO 02010KT 9SM BKN009 BKN014 OVC019 20/19 A3000 310 97 1000 020/10 RMK AO2
03949KAQV AQV20160411225513104/11/16 22:55:31  5-MIN KAQV 120455Z AUTO 35005KT 10SM BKN008 OVC014 19/19 A3001 290 97 900 340/05 RMK AO2 PRESRR SLP161 T01940189
03949KAQV AQV20160411230011704/11/16 23:00:31  5-MIN KAQV 120500Z AUTO 01007KT 10SM BKN008 OVC014 19/18 A3001 290 93 900 360/07 RMK AO2 T01890178
03949KAQV AQV20160411230512204/11/16 23:05:31  5-MIN KAQV 120505Z AUTO 01008KT 10SM OVC008 18/17 A3002 290 93 800 010/08 RMK AO2 CIG 007V012 T01830172
03949KAQV AQV20160411231013704/11/16 23:10:31  5-MIN KAQV 120510Z AUTO 01007KT 9SM -RA OVC009 18/17 A3002 280 93 800 360/07 RMK AO2 RAB09 CIG 007V013 P0000 T01830172
03949KAQV AQV20160411231513704/11/16 23:15:31  5-MIN KAQV 120515Z AUTO 02005KT 7SM -RA OVC009 18/17 A3002 280 93 800 020/05 RMK AO2 RAB09 CIG 007V013 P0000 T01830172
03949KAQV AQV20160411232012804/11/16 23:20:31  5-MIN KAQV 120520Z AUTO 03007KT 6SM -RA BR OVC011 18/17 A3002 280 96 700 020/07 RMK AO2 RAB09 P0000 T01780172
03949KAQV AQV20160411232514704/11/16 23:25:31  5-MIN KAQV 120525Z AUTO 05005KT 5SM -RA BR BKN011 OVC014 18/17 A3002 290 93 700 050/05 RMK AO2 RAB09 CIG 006V012 P0001 T01780167
03949KAQV AQV20160411233013504/11/16 23:30:31  5-MIN KAQV 120530Z AUTO 03005KT 6SM -RA BR SCT007 OVC014 18/17 A3002 290 93 700 030/05 RMK AO2 RAB09 P0001 T01780167
03949KAQV AQV20160411233513504/11/16 23:35:31  5-MIN KAQV 120535Z AUTO VRB03KT 6SM -RA BR SCT005 OVC012 18/17 A3001 290 93 700 VRB/03 RMK AO2 RAB09 P0001 T01780167
03949KAQV AQV20160411234014704/11/16 23:40:31  5-MIN KAQV 120540Z AUTO 00000KT 6SM -RA BR BKN005 OVC012 18/17 A3002 280 93 700 000/00 RMK AO2 RAB09 CIG 004V008 P0001 T01780167
03949KAQV AQV20160411234514404/11/16 23:45:31  5-MIN KAQV 120545Z AUTO VRB04KT 7SM -RA BKN005 OVC012 18/17 A3002 290 93 700 VRB/04 RMK AO2 RAB09 CIG 004V008 P0001 T01780167
03949KAQV AQV20160411235018404/11/16 23:50:31  5-MIN KAQV 120550Z AUTO VRB04KT 9SM BKN005 OVC014 18/17 A3002 290 93 700 VRB/04 RMK AO2 RAB09E46 CIG 004V008 SLP163 P0001 60001 T01780167 10217 20178 402440178 51023
03949KAQV AQV20160411235517304/11/16 23:55:31  5-MIN KAQV 120555Z AUTO VRB04KT 10SM BKN005 OVC014 18/17 A3002 280 93 700 VRB/04 RMK AO2 RAB09E46 SLP164 P0001 60001 T01780167 10217 20178 402440178 51023
03949KAQV AQV20160412000011704/12/16 00:00:31  5-MIN KAQV 120600Z AUTO 00000KT 10SM BKN005 OVC015 18/17 A3002 280 93 700 000/00 RMK AO2 T01780167
03949KAQV AQV20160412000511704/12/16 00:05:31  5-MIN KAQV 120605Z AUTO 02004KT 10SM BKN005 OVC015 18/17 A3002 280 93 700 010/04 RMK AO2 T01780167
03949KAQV AQV20160412001011704/12/16 00:10:31  5-MIN KAQV 120610Z AUTO 02005KT 10SM BKN005 OVC015 18/17 A3002 290 93 700 010/05 RMK AO2 T01780167
03949KAQV AQV20160412001513204/12/16 00:15:31  5-MIN KAQV 120615Z AUTO 02004KT 9SM -RA BKN005 OVC015 17/17 A3002 280 96 700 020/04 RMK AO2 RAB12 P0000 T01720167
03949KAQV AQV20160412002012604/12/16 00:20:31  5-MIN KAQV 120620Z AUTO 05003KT 10SM -RA OVC004 17/17 A3002 290 96 700 050/03 RMK AO2 RAB12 P0000 T01720167
03949KAQV AQV20160412002512504/12/16 00:25:31  5-MIN KAQV 120625Z AUTO VRB03KT 10SM OVC004 17/17 A3001 290 96 700 VRB/03 RMK AO2 RAB12E24 P0000 T01720167
03949KAQV AQV20160412003012504/12/16 00:30:31  5-MIN KAQV 120630Z AUTO VRB03KT 10SM OVC004 17/17 A3001 290 96 700 VRB/03 RMK AO2 RAB12E24 P0000 T01720167
03949KAQV AQV20160412003512504/12/16 00:35:31  5-MIN KAQV 120635Z AUTO VRB03KT 10SM OVC004 17/17 A3000 300 96 700 VRB/03 RMK AO2 RAB12E24 P0000 T01720167
03949KAQV AQV20160412004012504/12/16 00:40:31  5-MIN KAQV 120640Z AUTO 00000KT 10SM OVC004 17/17 A3000 300 96 700 000/00 RMK AO2 RAB12E24 P0000 T01720167
03949KAQV AQV20160412004512504/12/16 00:45:31  5-MIN KAQV 120645Z AUTO VRB03KT 10SM OVC004 17/17 A3000 300 96 700 VRB/03 RMK AO2 RAB12E24 P0000 T01720167
03949KAQV AQV20160412005013204/12/16 00:50:31  5-MIN KAQV 120650Z AUTO VRB03KT 10SM OVC004 17/17 A3000 300 96 700 VRB/03 RMK AO2 RAB12E24 SLP157 P0000 T01720167
03949KAQV AQV20160412005513204/12/16 00:55:31  5-MIN KAQV 120655Z AUTO VRB03KT 10SM OVC004 17/17 A3000 300 96 700 VRB/03 RMK AO2 RAB12E24 SLP157 P0000 T01720167
03949KAQV AQV20160412010011004/12/16 01:00:31  5-MIN KAQV 120700Z AUTO 00000KT 10SM OVC004 17/17 A3000 300 96 700 000/00 RMK AO2 T01720167
03949KAQV AQV20160412010511004/12/16 01:05:31  5-MIN KAQV 120705Z AUTO 06003KT 10SM OVC004 17/17 A3000 300 96 700 060/03 RMK AO2 T01720167
03949KAQV AQV20160412011011004/12/16 01:10:31  5-MIN KAQV 120710Z AUTO 00000KT 10SM OVC003 17/17 A3000 300 96 700 000/00 RMK AO2 T01720167
03949KAQV AQV20160412011511004/12/16 01:15:31  5-MIN KAQV 120715Z AUTO VRB03KT 10SM OVC003 17/17 A3000 300 96 700 VRB/03 RMK AO2 T01720167
03949KAQV AQV20160412012011004/12/16 01:20:31  5-MIN KAQV 120720Z AUTO 00000KT 10SM OVC003 17/17 A3000 300 96 700 000/00 RMK AO2 T01720167
03949KAQV AQV20160412012511004/12/16 01:25:31  5-MIN KAQV 120725Z AUTO 00000KT 10SM OVC003 17/17 A3000 300 96 700 000/00 RMK AO2 T01720167
03949KAQV AQV20160412013011004/12/16 01:30:31  5-MIN KAQV 120730Z AUTO VRB03KT 10SM OVC003 17/17 A2999 310 96 700 VRB/03 RMK AO2 T01720167
03949KAQV AQV20160412013511004/12/16 01:35:31  5-MIN KAQV 120735Z AUTO 00000KT 10SM OVC003 18/17 A2999 310 93 700 000/00 RMK AO2 T01780167
03949KAQV AQV20160412014010904/12/16 01:40:31  5-MIN KAQV 120740Z AUTO 09004KT 9SM OVC003 17/17 A3000 300 96 700 090/04 RMK AO2 T01720167
03949KAQV AQV20160412014510904/12/16 01:45:31  5-MIN KAQV 120745Z AUTO 00000KT 7SM OVC003 17/17 A3001 300 96 700 000/00 RMK AO2 T01720167
03949KAQV AQV20160412015011604/12/16 01:50:31  5-MIN KAQV 120750Z AUTO 00000KT 7SM OVC002 18/17 A3001 290 96 700 000/00 RMK AO2 SLP159 T01780172
03949KAQV AQV20160412015511904/12/16 01:55:31  5-MIN KAQV 120755Z AUTO 03003KT 6SM BR OVC002 17/17 A3001 290 96 700 030/03 RMK AO2 SLP161 T01720167
03949KAQV AQV20160412020011304/12/16 02:00:31  5-MIN KAQV 120800Z AUTO 02003KT 6SM BR OVC002 17/17 A3001 290 100 700 020/03 RMK AO2 T01720172
03949KAQV AQV20160412020511304/12/16 02:05:31  5-MIN KAQV 120805Z AUTO 02003KT 6SM BR OVC002 17/17 A3001 290 100 700 010/03 RMK AO2 T01720172
03949KAQV AQV20160412021011304/12/16 02:10:31  5-MIN KAQV 120810Z AUTO 03003KT 5SM BR OVC002 17/17 A3002 290 100 700 020/03 RMK AO2 T01720172
03949KAQV AQV20160412021511304/12/16 02:15:31  5-MIN KAQV 120815Z AUTO 03003KT 5SM BR OVC002 17/17 A3002 280 100 700 020/03 RMK AO2 T01720172
03949KAQV AQV20160412022011304/12/16 02:20:31  5-MIN KAQV 120820Z AUTO 02003KT 5SM BR OVC002 17/17 A3002 280 100 700 010/03 RMK AO2 T01720172
03949KAQV AQV20160412022511304/12/16 02:25:31  5-MIN KAQV 120825Z AUTO 02004KT 4SM BR OVC002 17/17 A3002 280 100 600 020/04 RMK AO2 T01720172
03949KAQV AQV20160412023011304/12/16 02:30:31  5-MIN KAQV 120830Z AUTO 01004KT 4SM BR OVC002 17/17 A3002 280 100 600 360/04 RMK AO2 T01720172
03949KAQV AQV20160412023511704/12/16 02:35:31  5-MIN KAQV 120835Z AUTO 02004KT 2 1/2SM BR OVC002 17/17 A3002 290 100 700 020/04 RMK AO2 T01720172
03949KAQV AQV20160412024011304/12/16 02:40:31  5-MIN KAQV 120840Z AUTO 02005KT 2SM BR OVC002 17/17 A3002 280 100 700 020/05 RMK AO2 T01720172
03949KAQV AQV20160412024511704/12/16 02:45:31  5-MIN KAQV 120845Z AUTO 02005KT 1 3/4SM BR OVC002 17/17 A3002 290 100 700 020/05 RMK AO2 T01720172
03949KAQV AQV20160412025013604/12/16 02:50:31  5-MIN KAQV 120850Z AUTO 02004KT 1 1/2SM BR OVC002 17/17 A3002 280 100 700 020/04 RMK AO2 SLP164 60000 T01720172 51016
03949KAQV AQV20160412025513604/12/16 02:55:31  5-MIN KAQV 120855Z AUTO 01004KT 1 1/4SM BR OVC002 17/17 A3002 280 100 700 010/04 RMK AO2 SLP164 60000 T01720172 51016
03949KAQV AQV20160412030011704/12/16 03:00:31  5-MIN KAQV 120900Z AUTO 01004KT 1 1/2SM BR OVC002 17/17 A3002 280 100 700 010/04 RMK AO2 T01720172
03949KAQV AQV20160412030511304/12/16 03:05:31  5-MIN KAQV 120905Z AUTO 02003KT 2SM BR OVC002 17/17 A3002 280 100 600 010/03 RMK AO2 T01720172
03949KAQV AQV20160412031011204/12/16 03:10:31  5-MIN KAQV 120910Z AUTO 02004KT 2SM BR OVC002 17/17 A3002 280 96 700 010/04 RMK AO2 T01720167
03949KAQV AQV20160412031511204/12/16 03:15:31  5-MIN KAQV 120915Z AUTO 03005KT 2SM BR OVC002 17/17 A3002 290 96 700 020/05 RMK AO2 T01720167
03949KAQV AQV20160412032011604/12/16 03:20:31  5-MIN KAQV 120920Z AUTO 03004KT 1 1/2SM BR OVC002 17/17 A3002 290 96 700 030/04 RMK AO2 T01720167
03949KAQV AQV20160412032511604/12/16 03:25:31  5-MIN KAQV 120925Z AUTO 02005KT 1 1/4SM BR OVC002 17/17 A3002 290 96 700 010/05 RMK AO2 T01720167
03949KAQV AQV20160412033011604/12/16 03:30:31  5-MIN KAQV 120930Z AUTO 03003KT 1 1/4SM BR OVC002 17/17 A3001 290 96 700 020/03 RMK AO2 T01720167
03949KAQV AQV20160412033511604/12/16 03:35:31  5-MIN KAQV 120935Z AUTO VRB04KT 1 1/4SM BR OVC002 17/17 A3001 290 96 700 VRB/04 RMK AO2 T01720167
03949KAQV AQV20160412034011604/12/16 03:40:31  5-MIN KAQV 120940Z AUTO 04004KT 1 1/4SM BR OVC002 17/17 A3001 290 96 700 040/04 RMK AO2 T01720167
03949KAQV AQV20160412034511104/12/16 03:45:31  5-MIN KAQV 120945Z AUTO VRB03KT 1SM BR VV002 17/17 A3001 290 96 700 VRB/03 RMK AO2 T01720167
03949KAQV AQV20160412035012304/12/16 03:50:31  5-MIN KAQV 120950Z AUTO 00000KT 1 1/4SM BR OVC003 17/17 A3001 290 96 700 000/00 RMK AO2 SLP161 T01720167
03949KAQV AQV20160412035512304/12/16 03:55:31  5-MIN KAQV 120955Z AUTO 04005KT 1 1/4SM BR OVC003 17/17 A3002 290 96 700 030/05 RMK AO2 SLP163 T01720167
03949KAQV AQV20160412040011604/12/16 04:00:31  5-MIN KAQV 121000Z AUTO 04004KT 1 1/2SM BR OVC003 17/17 A3002 280 96 700 040/04 RMK AO2 T01720167
03949KAQV AQV20160412040511204/12/16 04:05:31  5-MIN KAQV 121005Z AUTO VRB03KT 2SM BR OVC003 17/17 A3002 280 96 600 VRB/03 RMK AO2 T01720167
03949KAQV AQV20160412041012404/12/16 04:10:31  5-MIN KAQV 121010Z AUTO 03003KT 2 1/2SM BR OVC002 17/17 A3002 280 96 600 030/03 RMK AO2 VIS 2V3 T01720167
03949KAQV AQV20160412041511204/12/16 04:15:31  5-MIN KAQV 121015Z AUTO 03004KT 3SM BR OVC002 17/17 A3002 280 96 600 030/04 RMK AO2 T01720167
03949KAQV AQV20160412042011204/12/16 04:20:31  5-MIN KAQV 121020Z AUTO 02005KT 3SM BR OVC002 17/17 A3002 280 96 600 010/05 RMK AO2 T01720167
03949KAQV AQV20160412042511604/12/16 04:25:31  5-MIN KAQV 121025Z AUTO 03003KT 2 1/2SM BR OVC002 17/17 A3002 280 96 600 020/03 RMK AO2 T01720167
03949KAQV AQV20160412043012404/12/16 04:30:31  5-MIN KAQV 121030Z AUTO 03004KT 2SM BR OVC002 17/17 A3002 280 96 600 020/04 RMK AO2 VIS 1 1/2V3 T01720167
03949KAQV AQV20160412043511604/12/16 04:35:31  5-MIN KAQV 121035Z AUTO 01005KT 2 1/2SM BR OVC002 17/17 A3003 280 96 600 010/05 RMK AO2 T01720167
03949KAQV AQV20160412044011604/12/16 04:40:31  5-MIN KAQV 121040Z AUTO 01005KT 2 1/2SM BR OVC002 17/17 A3003 270 96 600 010/05 RMK AO2 T01720167
03949KAQV AQV20160412044511604/12/16 04:45:31  5-MIN KAQV 121045Z AUTO 03004KT 2 1/2SM BR OVC002 17/17 A3004 270 96 600 020/04 RMK AO2 T01720167
03949KAQV AQV20160412045012304/12/16 04:50:31  5-MIN KAQV 121050Z AUTO 01004KT 2 1/2SM BR OVC002 17/17 A3004 260 96 600 010/04 RMK AO2 SLP171 T01720167
03949KAQV AQV20160412045511904/12/16 04:55:31  5-MIN KAQV 121055Z AUTO 03005KT 3SM BR OVC002 17/17 A3004 270 96 600 020/05 RMK AO2 SLP171 T01720167
03949KAQV AQV20160412050011604/12/16 05:00:31  5-MIN KAQV 121100Z AUTO 01005KT 2 1/2SM BR OVC002 17/17 A3004 260 96 600 010/05 RMK AO2 T01720167
03949KAQV AQV20160412050511604/12/16 05:05:31  5-MIN KAQV 121105Z AUTO 03005KT 2 1/2SM BR OVC002 17/17 A3004 260 96 600 020/05 RMK AO2 T01720167
03949KAQV AQV20160412051011204/12/16 05:10:31  5-MIN KAQV 121110Z AUTO 02005KT 3SM BR OVC002 17/17 A3005 260 96 600 020/05 RMK AO2 T01720167
03949KAQV AQV20160412051511204/12/16 05:15:31  5-MIN KAQV 121115Z AUTO 03004KT 4SM BR OVC002 17/17 A3005 260 96 600 020/04 RMK AO2 T01720167
03949KAQV AQV20160412052011204/12/16 05:20:31  5-MIN KAQV 121120Z AUTO 02004KT 5SM BR OVC002 17/17 A3005 260 96 600 010/04 RMK AO2 T01720167
03949KAQV AQV20160412052511204/12/16 05:25:31  5-MIN KAQV 121125Z AUTO 02003KT 6SM BR OVC002 17/17 A3005 260 96 600 010/03 RMK AO2 T01720167
03949KAQV AQV20160412053010904/12/16 05:30:31  5-MIN KAQV 121130Z AUTO 01004KT 7SM OVC002 17/17 A3005 260 96 600 360/04 RMK AO2 T01720167
03949KAQV AQV20160412053511204/12/16 05:35:31  5-MIN KAQV 121135Z AUTO 04005KT 6SM BR OVC002 17/17 A3005 260 96 600 030/05 RMK AO2 T01720167
03949KAQV AQV20160412054011204/12/16 05:40:31  5-MIN KAQV 121140Z AUTO 03004KT 5SM BR OVC002 17/17 A3005 250 96 600 030/04 RMK AO2 T01720167
03949KAQV AQV20160412054510204/12/16 05:45:31  5-MIN KAQV 121145Z AUTO 5SM BR OVC002 17/17 A3005 250 96 600 M /M RMK AO2 T01720167
03949KAQV AQV20160412055014904/12/16 05:50:31  5-MIN KAQV 121150Z AUTO 04004KT 4SM BR OVC002 17/17 A3005 250 96 600 040/04 RMK AO2 SLP175 60000 70007 T01720167 10178 20172 55000
03949KAQV AQV20160412055514904/12/16 05:55:31  5-MIN KAQV 121155Z AUTO 02004KT 4SM BR OVC002 17/17 A3006 250 96 600 020/04 RMK AO2 SLP176 60000 70007 T01720167 10178 20172 55000
03949KAQV AQV20160412060011204/12/16 06:00:31  5-MIN KAQV 121200Z AUTO 02004KT 4SM BR OVC002 17/17 A3006 250 96 600 010/04 RMK AO2 T01720167
03949KAQV AQV20160412060511204/12/16 06:05:31  5-MIN KAQV 121205Z AUTO 03005KT 3SM BR OVC002 17/17 A3006 250 96 600 020/05 RMK AO2 T01720167
03949KAQV AQV20160412061011604/12/16 06:10:31  5-MIN KAQV 121210Z AUTO 00000KT 2 1/2SM BR OVC002 17/17 A3006 240 96 600 000/00 RMK AO2 T01720167
03949KAQV AQV20160412061511204/12/16 06:15:31  5-MIN KAQV 121215Z AUTO VRB03KT 3SM BR OVC002 17/17 A3007 240 96 600 VRB/03 RMK AO2 T01720167
03949KAQV AQV20160412062011204/12/16 06:20:31  5-MIN KAQV 121220Z AUTO VRB04KT 4SM BR OVC002 17/17 A3007 240 96 600 VRB/04 RMK AO2 T01720167
03949KAQV AQV20160412062511204/12/16 06:25:31  5-MIN KAQV 121225Z AUTO 02004KT 4SM BR OVC002 17/17 A3007 230 96 600 010/04 RMK AO2 T01720167
03949KAQV AQV20160412063011204/12/16 06:30:31  5-MIN KAQV 121230Z AUTO 03004KT 5SM BR OVC002 17/17 A3008 230 96 600 020/04 RMK AO2 T01720167
03949KAQV AQV20160412063511204/12/16 06:35:31  5-MIN KAQV 121235Z AUTO VRB04KT 5SM BR OVC002 17/17 A3008 230 96 600 VRB/04 RMK AO2 T01720167
03949KAQV AQV20160412064011204/12/16 06:40:31  5-MIN KAQV 121240Z AUTO VRB03KT 4SM BR OVC002 17/17 A3009 220 96 600 VRB/03 RMK AO2 T01720167
03949KAQV AQV20160412064511204/12/16 06:45:31  5-MIN KAQV 121245Z AUTO 03004KT 3SM BR OVC002 17/17 A3009 220 96 600 030/04 RMK AO2 T01720167
03949KAQV AQV20160412065010204/12/16 06:50:31  5-MIN KAQV 121250Z AUTO 02005KT 2SM BR OVC002 17/17 A3009 220 96 600 020/05 RMK AO2
03949KAQV AQV20160412065511904/12/16 06:55:31  5-MIN KAQV 121255Z AUTO 03004KT 2SM BR OVC002 17/17 A3009 220 96 600 030/04 RMK AO2 SLP188 T01720167
03949KAQV AQV20160412070011204/12/16 07:00:31  5-MIN KAQV 121300Z AUTO 02005KT 2SM BR OVC002 17/17 A3009 220 96 600 020/05 RMK AO2 T01720167
03949KAQV AQV20160412070511204/12/16 07:05:31  5-MIN KAQV 121305Z AUTO 03005KT 2SM BR OVC003 17/17 A3009 220 96 600 020/05 RMK AO2 T01720167
03949KAQV AQV20160412071011204/12/16 07:10:31  5-MIN KAQV 121310Z AUTO 02003KT 2SM BR OVC003 17/17 A3009 220 96 600 020/03 RMK AO2 T01720167
03949KAQV AQV20160412071511204/12/16 07:15:31  5-MIN KAQV 121315Z AUTO VRB06KT 2SM BR OVC003 17/17 A3009 220 96 600 VRB/06 RMK AO2 T01720167
03949KAQV AQV20160412072011204/12/16 07:20:31  5-MIN KAQV 121320Z AUTO 03004KT 2SM BR OVC003 17/17 A3010 210 96 600 030/04 RMK AO2 T01720167
03949KAQV AQV20160414092511404/14/16 09:25:31  5-MIN KAQV 141525Z AUTO 34005KT 2SM BR OVC002 17/16 A2998 320 96 600 340/05 RMK AO2 T01670161 $
03949KAQV AQV20160414093011804/14/16 09:30:31  5-MIN KAQV 141530Z AUTO 36005KT 1 1/2SM BR OVC002 17/16 A2998 320 96 600 360/05 RMK AO2 T01670161 $
03949KAQV AQV20160414093511804/14/16 09:35:31  5-MIN KAQV 141535Z AUTO 36005KT 1 1/4SM BR OVC002 17/16 A2998 320 96 600 360/05 RMK AO2 T01670161 $
03949KAQV AQV20160414094011804/14/16 09:40:31  5-MIN KAQV 141540Z AUTO 01006KT 1 1/4SM BR OVC002 17/16 A2998 320 96 600 010/06 RMK AO2 T01670161 $
03949KAQV AQV20160414094511804/14/16 09:45:31  5-MIN KAQV 141545Z AUTO 01005KT 1 1/4SM BR OVC002 17/16 A2998 320 96 600 010/05 RMK AO2 T01670161 $
03949KAQV AQV20160414095012504/14/16 09:50:31  5-MIN KAQV 141550Z AUTO 03005KT 1 1/4SM BR OVC002 17/16 A2998 320 96 600 020/05 RMK AO2 SLP151 T01670161 $
03949KAQV AQV20160414095512504/14/16 09:55:31  5-MIN KAQV 141555Z AUTO 01006KT 1 1/4SM BR OVC002 17/16 A2998 320 96 600 360/06 RMK AO2 SLP151 T01670161 $
03949KAQV AQV20160414100011404/14/16 10:00:31  5-MIN KAQV 141600Z AUTO 01007KT 1SM BR OVC002 17/16 A2998 320 96 600 360/07 RMK AO2 T01670161 $
03949KAQV AQV20160414100511604/14/16 10:05:31  5-MIN KAQV 141605Z AUTO 35006KT 3/4SM BR OVC002 17/16 A2998 320 96 600 350/06 RMK AO2 T01670161 $
03949KAQV AQV20160414101011704/14/16 10:10:31  5-MIN KAQV 141610Z AUTO 01008KT 3/4SM BR OVC002 16/16 A2998 320 100 600 010/08 RMK AO2 T01610161 $
03949KAQV AQV20160414101511404/14/16 10:15:31  5-MIN KAQV 141615Z AUTO 01007KT 1SM BR OVC002 16/16 A2999 310 96 600 010/07 RMK AO2 T01610156 $
03949KAQV AQV20160414102011404/14/16 10:20:31  5-MIN KAQV 141620Z AUTO 01005KT 1SM BR OVC002 16/16 A2999 310 96 600 010/05 RMK AO2 T01610156 $
03949KAQV AQV20160414102511804/14/16 10:25:31  5-MIN KAQV 141625Z AUTO VRB06KT 1 1/2SM BR OVC002 16/16 A2999 310 96 600 VRB/06 RMK AO2 T01610156 $
03949KAQV AQV20160414103011804/14/16 10:30:31  5-MIN KAQV 141630Z AUTO 35007KT 1 1/2SM BR OVC002 16/15 A2999 310 96 500 350/07 RMK AO2 T01560150 $
03949KAQV AQV20160414103511804/14/16 10:35:31  5-MIN KAQV 141635Z AUTO 36008KT 1 1/2SM BR OVC002 16/15 A2999 310 96 500 350/08 RMK AO2 T01560150 $
03949KAQV AQV20160414104011804/14/16 10:40:31  5-MIN KAQV 141640Z AUTO 01007KT 1 1/2SM BR OVC002 15/14 A2999 320 96 400 010/07 RMK AO2 T01500144 $
03949KAQV AQV20160414104511404/14/16 10:45:31  5-MIN KAQV 141645Z AUTO 36007KT 2SM BR OVC002 15/14 A2998 320 96 400 350/07 RMK AO2 T01500144 $
03949KAQV AQV20160414105010804/14/16 10:50:31  5-MIN KAQV 141650Z AUTO VRB04KT 2 1/2SM BR OVC002 16/15 A2998 320 96 500 VRB/04 RMK AO2 $
03949KAQV AQV20160414105512504/14/16 10:55:31  5-MIN KAQV 141655Z AUTO 01008KT 2 1/2SM BR OVC003 15/14 A2998 320 96 400 360/08 RMK AO2 SLP151 T01500144 $
03949KAQV AQV20160414110011804/14/16 11:00:31  5-MIN KAQV 141700Z AUTO 36007KT 2 1/2SM BR OVC003 15/14 A2998 320 96 400 350/07 RMK AO2 T01500144 $
03949KAQV AQV20160414110511804/14/16 11:05:31  5-MIN KAQV 141705Z AUTO 03007KT 2 1/2SM BR OVC003 15/14 A2998 320 96 400 030/07 RMK AO2 T01500144 $
03949KAQV AQV20160414111011404/14/16 11:10:31  5-MIN KAQV 141710Z AUTO 04005KT 3SM BR OVC003 15/14 A2997 330 96 400 030/05 RMK AO2 T01500144 $
03949KAQV AQV20160414111511404/14/16 11:15:31  5-MIN KAQV 141715Z AUTO VRB05KT 3SM BR OVC003 15/14 A2997 330 96 400 VRB/05 RMK AO2 T01500144 $
03949KAQV AQV20160414112011404/14/16 11:20:31  5-MIN KAQV 141720Z AUTO 01008KT 4SM BR OVC003 15/14 A2997 330 96 400 010/08 RMK AO2 T01500144 $
03949KAQV AQV20160414112511404/14/16 11:25:31  5-MIN KAQV 141725Z AUTO VRB06KT 4SM BR OVC003 15/14 A2997 330 96 400 VRB/06 RMK AO2 T01500144 $
03949KAQV AQV20160414113011404/14/16 11:30:31  5-MIN KAQV 141730Z AUTO 36007KT 4SM BR OVC003 15/14 A2997 330 96 400 350/07 RMK AO2 T01500144 $
03949KAQV AQV20160414113511404/14/16 11:35:31  5-MIN KAQV 141735Z AUTO 01009KT 4SM BR OVC003 15/14 A2997 330 96 400 010/09 RMK AO2 T01500144 $
03949KAQV AQV20160414114011404/14/16 11:40:31  5-MIN KAQV 141740Z AUTO 01007KT 4SM BR OVC004 15/14 A2997 330 96 400 010/07 RMK AO2 T01500144 $
03949KAQV AQV20160414114511404/14/16 11:45:31  5-MIN KAQV 141745Z AUTO 03007KT 5SM BR OVC004 15/14 A2997 330 96 400 020/07 RMK AO2 T01500144 $
03949KAQV AQV20160414115013904/14/16 11:50:31  5-MIN KAQV 141750Z AUTO 03006KT 5SM BR OVC004 15/14 A2997 330 96 500 020/06 RMK AO2 SLP147 T01500144 10172 20150 50004 $
03949KAQV AQV20160414115513904/14/16 11:55:31  5-MIN KAQV 141755Z AUTO VRB04KT 5SM BR OVC004 15/14 A2996 340 96 500 VRB/04 RMK AO2 SLP146 T01500144 10172 20150 50004 $
03949KAQV AQV20160414120011404/14/16 12:00:31  5-MIN KAQV 141800Z AUTO VRB05KT 6SM BR OVC004 15/14 A2997 330 96 500 VRB/05 RMK AO2 T01500144 $
03949KAQV AQV20160414120511404/14/16 12:05:31  5-MIN KAQV 141805Z AUTO 02006KT 6SM BR OVC004 15/14 A2997 330 96 500 010/06 RMK AO2 T01500144 $
03949KAQV AQV20160414121011404/14/16 12:10:31  5-MIN KAQV 141810Z AUTO 36007KT 5SM BR OVC004 15/14 A2997 330 96 500 360/07 RMK AO2 T01500144 $
03949KAQV AQV20160414121511404/14/16 12:15:31  5-MIN KAQV 141815Z AUTO VRB04KT 5SM BR OVC004 15/14 A2996 340 96 500 VRB/04 RMK AO2 T01500144 $
03949KAQV AQV20160414122011404/14/16 12:20:31  5-MIN KAQV 141820Z AUTO 02005KT 5SM BR OVC004 16/14 A2997 330 93 500 020/05 RMK AO2 T01560144 $
03949KAQV AQV20160414122511404/14/16 12:25:31  5-MIN KAQV 141825Z AUTO VRB06KT 5SM BR OVC004 16/14 A2996 340 93 500 VRB/06 RMK AO2 T01560144 $
03949KAQV AQV20160414123011404/14/16 12:30:31  5-MIN KAQV 141830Z AUTO 02008KT 6SM BR OVC004 16/14 A2997 330 93 500 020/08 RMK AO2 T01560144 $
03949KAQV AQV20160414123511104/14/16 12:35:31  5-MIN KAQV 141835Z AUTO VRB06KT 7SM OVC004 16/14 A2997 330 93 500 VRB/06 RMK AO2 T01560144 $
03949KAQV AQV20160414124011104/14/16 12:40:31  5-MIN KAQV 141840Z AUTO 01007KT 8SM OVC005 16/14 A2996 340 93 500 010/07 RMK AO2 T01560144 $
03949KAQV AQV20160414124511104/14/16 12:45:31  5-MIN KAQV 141845Z AUTO 36006KT 8SM OVC005 16/14 A2996 340 93 500 350/06 RMK AO2 T01560144 $
03949KAQV AQV20160414125011804/14/16 12:50:31  5-MIN KAQV 141850Z AUTO VRB06KT 8SM OVC006 16/14 A2996 340 93 500 VRB/06 RMK AO2 SLP146 T01560144 $
03949KAQV AQV20160414125511904/14/16 12:55:31  5-MIN KAQV 141855Z AUTO VRB05KT 10SM OVC006 16/14 A2997 330 93 500 VRB/05 RMK AO2 SLP146 T01560144 $
03949KAQV AQV20160414130011104/14/16 13:00:31  5-MIN KAQV 141900Z AUTO 36005KT 9SM OVC006 16/14 A2996 340 93 500 360/05 RMK AO2 T01560144 $
03949KAQV AQV20160414130511104/14/16 13:05:31  5-MIN KAQV 141905Z AUTO 02007KT 9SM OVC006 16/14 A2996 340 90 600 020/07 RMK AO2 T01610144 $
03949KAQV AQV20160414131011104/14/16 13:10:31  5-MIN KAQV 141910Z AUTO 36004KT 8SM OVC006 16/14 A2996 340 90 600 360/04 RMK AO2 T01610144 $
03949KAQV AQV20160414131511104/14/16 13:15:31  5-MIN KAQV 141915Z AUTO 03004KT 8SM OVC006 16/14 A2995 350 90 600 030/04 RMK AO2 T01610144 $
03949KAQV AQV20160414132011904/14/16 13:20:31  5-MIN KAQV 141920Z AUTO 01005KT 10SM BKN006 OVC018 17/14 A2995 350 86 700 010/05 RMK AO2 T01670144 $
03949KAQV AQV20160414132513104/14/16 13:25:31  5-MIN KAQV 141925Z AUTO 01005KT 10SM BKN006 OVC018 15/14 A2995 350 96 500 010/05 RMK AO2 CIG 005V011 T01500144 $
03949KAQV AQV20160414133013104/14/16 13:30:31  5-MIN KAQV 141930Z AUTO 02005KT 10SM BKN006 OVC018 16/14 A2995 350 93 500 010/05 RMK AO2 CIG 006V011 T01560144 $
03949KAQV AQV20160414133511904/14/16 13:35:31  5-MIN KAQV 141935Z AUTO 02005KT 10SM BKN007 OVC019 15/14 A2995 350 96 500 010/05 RMK AO2 T01500144 $
03949KAQV AQV20160414134011904/14/16 13:40:31  5-MIN KAQV 141940Z AUTO VRB06KT 10SM SCT007 OVC021 15/14 A2995 350 93 500 VRB/06 RMK AO2 T01500139 $
03949KAQV AQV20160414134511904/14/16 13:45:31  5-MIN KAQV 141945Z AUTO 36004KT 10SM SCT007 OVC021 15/14 A2995 350 96 500 360/04 RMK AO2 T01500144 $
03949KAQV AQV20160414135012104/14/16 13:50:31  5-MIN KAQV 141950Z AUTO 35005KT 10SM BKN008 OVC021 15/14 A2995 350 96 500 350/05 RMK AO2 CIG 007V010 $
03949KAQV AQV20160414135513804/14/16 13:55:31  5-MIN KAQV 141955Z AUTO VRB05KT 10SM BKN008 OVC021 16/14 A2994 360 93 500 VRB/05 RMK AO2 CIG 007V010 SLP139 T01560144 $
03949KAQV AQV20160414140013104/14/16 14:00:31  5-MIN KAQV 142000Z AUTO 35006KT 10SM BKN008 OVC023 16/14 A2994 360 90 600 350/06 RMK AO2 CIG 006V010 T01610144 $
03949KAQV AQV20160414140513104/14/16 14:05:31  5-MIN KAQV 142005Z AUTO VRB06KT 10SM BKN008 OVC023 16/14 A2994 360 90 600 VRB/06 RMK AO2 CIG 006V010 T01610144 $
03949KAQV AQV20160414141014704/14/16 14:10:31  5-MIN KAQV 142010Z AUTO 01008KT 10SM -RA BKN008 OVC025 16/14 A2994 360 90 600 360/08 RMK AO2 RAB07 CIG 006V010 P0000 T01610144 $
03949KAQV AQV20160414141514704/14/16 14:15:31  5-MIN KAQV 142015Z AUTO 36006KT 10SM -RA BKN008 OVC027 16/14 A2994 360 90 600 350/06 RMK AO2 RAB07 CIG 005V010 P0000 T01610144 $
03949KAQV AQV20160414142014704/14/16 14:20:31  5-MIN KAQV 142020Z AUTO 01007KT 10SM -RA BKN006 OVC027 16/14 A2994 360 93 600 360/07 RMK AO2 RAB07 CIG 005V010 P0000 T01560144 $
03949KAQV AQV20160414142513504/14/16 14:25:31  5-MIN KAQV 142025Z AUTO 01006KT 10SM -RA BKN006 OVC027 16/14 A2994 360 93 600 010/06 RMK AO2 RAB07 P0000 T01560144 $
03949KAQV AQV20160414143013504/14/16 14:30:31  5-MIN KAQV 142030Z AUTO 36006KT 10SM -RA BKN006 OVC026 16/14 A2993 360 93 600 360/06 RMK AO2 RAB07 P0000 T01560144 $
03949KAQV AQV20160414143513504/14/16 14:35:31  5-MIN KAQV 142035Z AUTO 02007KT 10SM -RA BKN006 OVC026 16/14 A2993 360 93 600 020/07 RMK AO2 RAB07 P0000 T01560144 $
03949KAQV AQV20160414144012804/14/16 14:40:31  5-MIN KAQV 142040Z AUTO 36004KT 10SM -RA OVC006 16/14 A2993 360 93 600 360/04 RMK AO2 RAB07 P0000 T01560144 $
03949KAQV AQV20160414144512804/14/16 14:45:31  5-MIN KAQV 142045Z AUTO 01005KT 10SM -RA OVC006 15/14 A2993 360 96 500 360/05 RMK AO2 RAB07 P0000 T01500144 $
03949KAQV AQV20160414145014704/14/16 14:50:31  5-MIN KAQV 142050Z AUTO 01006KT 10SM -RA OVC006 15/14 A2993 370 96 500 010/06 RMK AO2 RAB07 SLP135 P0000 60000 T01500144 58006 $
03949KAQV AQV20160414145514704/14/16 14:55:31  5-MIN KAQV 142055Z AUTO 01004KT 10SM -RA OVC006 15/14 A2993 370 96 500 010/04 RMK AO2 RAB07 SLP134 P0000 60000 T01500144 58006 $
03949KAQV AQV20160414150015004/14/16 15:00:31  5-MIN KAQV 142100Z AUTO 01008KT 320V050 10SM -RA OVC006 15/14 A2993 370 96 500 360/08 320V050 RMK AO2 CIG 005V009 P0000 T01500144 $
03949KAQV AQV20160414150513404/14/16 15:05:31  5-MIN KAQV 142105Z AUTO 01005KT 10SM -RA OVC006 15/14 A2993 370 96 500 010/05 RMK AO2 CIG 005V009 P0000 T01500144 $
03949KAQV AQV20160414151012204/14/16 15:10:31  5-MIN KAQV 142110Z AUTO 01004KT 10SM -RA OVC006 15/14 A2993 370 96 500 010/04 RMK AO2 P0000 T01500144 $
03949KAQV AQV20160414151513604/14/16 15:15:31  5-MIN KAQV 142115Z AUTO 01007KT 10SM OVC006 15/14 A2993 370 96 500 010/07 RMK AO2 RAE13 CIG 005V009 P0000 T01500144 $
03949KAQV AQV20160414152012404/14/16 15:20:31  5-MIN KAQV 142120Z AUTO 01004KT 10SM OVC006 16/14 A2993 370 93 600 360/04 RMK AO2 RAE13 P0000 T01560144 $
03949KAQV AQV20160414152513604/14/16 15:25:31  5-MIN KAQV 142125Z AUTO 01006KT 10SM OVC006 16/14 A2993 370 90 600 010/06 RMK AO2 RAE13 CIG 005V010 P0000 T01610144 $
03949KAQV AQV20160414153013604/14/16 15:30:31  5-MIN KAQV 142130Z AUTO 36006KT 10SM OVC006 16/14 A2993 370 90 600 360/06 RMK AO2 RAE13 CIG 005V010 P0000 T01610144 $
03949KAQV AQV20160414153513604/14/16 15:35:31  5-MIN KAQV 142135Z AUTO 01005KT 10SM OVC007 16/14 A2993 370 90 600 010/05 RMK AO2 RAE13 CIG 006V010 P0000 T01610144 $
03949KAQV AQV20160414154012404/14/16 15:40:31  5-MIN KAQV 142140Z AUTO VRB04KT 10SM OVC007 16/14 A2993 370 90 600 VRB/04 RMK AO2 RAE13 P0000 T01610144 $
03949KAQV AQV20160414154512404/14/16 15:45:31  5-MIN KAQV 142145Z AUTO 02004KT 10SM OVC007 17/14 A2993 370 86 700 010/04 RMK AO2 RAE13 P0000 T01670144 $
03949KAQV AQV20160414155014304/14/16 15:50:31  5-MIN KAQV 142150Z AUTO 01006KT 10SM OVC007 17/14 A2993 370 86 700 010/06 RMK AO2 RAE13 CIG 006V011 SLP133 P0000 T01670144 $
03949KAQV AQV20160414155514304/14/16 15:55:31  5-MIN KAQV 142155Z AUTO 02005KT 10SM OVC007 17/14 A2993 370 86 700 020/05 RMK AO2 RAE13 CIG 006V011 SLP133 P0000 T01670144 $
03949KAQV AQV20160414160012404/14/16 16:00:31  5-MIN KAQV 142200Z AUTO VRB05KT 10SM OVC007 17/14 A2993 370 86 700 VRB/05 RMK AO2 CIG 006V011 T01670144 $
03949KAQV AQV20160414160512404/14/16 16:05:31  5-MIN KAQV 142205Z AUTO 36005KT 10SM OVC007 17/14 A2993 370 86 700 360/05 RMK AO2 CIG 006V011 T01670144 $
03949KAQV AQV20160414161013104/14/16 16:10:31  5-MIN KAQV 142210Z AUTO 36004KT 10SM BKN007 OVC033 17/14 A2993 370 86 700 360/04 RMK AO2 CIG 006V011 T01670144 $
03949KAQV AQV20160414161513104/14/16 16:15:31  5-MIN KAQV 142215Z AUTO 04003KT 10SM BKN008 OVC033 17/14 A2992 370 86 700 030/03 RMK AO2 CIG 007V011 T01670144 $
03949KAQV AQV20160414162011904/14/16 16:20:31  5-MIN KAQV 142220Z AUTO VRB04KT 10SM BKN008 OVC033 17/14 A2992 380 86 700 VRB/04 RMK AO2 T01670144 $
03949KAQV AQV20160414162511904/14/16 16:25:31  5-MIN KAQV 142225Z AUTO VRB04KT 10SM BKN008 OVC033 17/14 A2992 380 86 700 VRB/04 RMK AO2 T01670144 $
03949KAQV AQV20160414163012604/14/16 16:30:31  5-MIN KAQV 142230Z AUTO 02006KT 10SM BKN008 BKN033 OVC080 17/15 A2992 380 90 700 020/06 RMK AO2 T01670150 $
03949KAQV AQV20160414163507004/14/16 16:35:31  5-MIN KAQV 142235Z AUTO 03004KT 10SM BKN008 BKN032 
03949KAQV AQV20160414204012404/14/16 20:40:31  5-MIN KAQV 150240Z AUTO 03004KT 10SM OVC008 16/14 A2992 370 90 600 020/04 RMK AO2 CIG 005V010 T01610144 $
03949KAQV AQV20160414204511904/14/16 20:45:31  5-MIN KAQV 150245Z AUTO 02004KT 10SM BKN006 OVC011 16/14 A2993 370 90 600 010/04 RMK AO2 T01610144 $
03949KAQV AQV20160414205013704/14/16 20:50:31  5-MIN KAQV 150250Z AUTO VRB04KT 10SM OVC006 16/14 A2993 370 90 600 VRB/04 RMK AO2 CIG 006V010 SLP133 T01610144 55007 $
03949KAQV AQV20160414205513704/14/16 20:55:31  5-MIN KAQV 150255Z AUTO 01004KT 10SM OVC008 16/14 A2993 370 90 600 010/04 RMK AO2 CIG 006V010 SLP134 T01610144 55007 $
03949KAQV AQV20160414210012404/14/16 21:00:31  5-MIN KAQV 150300Z AUTO VRB04KT 10SM OVC008 16/14 A2993 370 90 600 VRB/04 RMK AO2 CIG 006V010 T01610144 $
03949KAQV AQV20160414210512404/14/16 21:05:31  5-MIN KAQV 150305Z AUTO 03004KT 10SM OVC008 16/14 A2993 370 90 600 030/04 RMK AO2 CIG 006V010 T01610144 $
03949KAQV AQV20160414211012404/14/16 21:10:31  5-MIN KAQV 150310Z AUTO 03003KT 10SM OVC008 16/14 A2993 360 90 600 020/03 RMK AO2 CIG 006V010 T01610144 $
03949KAQV AQV20160414211512404/14/16 21:15:31  5-MIN KAQV 150315Z AUTO 02003KT 10SM OVC008 16/14 A2993 360 90 600 010/03 RMK AO2 CIG 006V010 T01610144 $
03949KAQV AQV20160414212011204/14/16 21:20:31  5-MIN KAQV 150320Z AUTO 02003KT 10SM OVC007 16/14 A2993 360 90 600 020/03 RMK AO2 T01610144 $
03949KAQV AQV20160414212511204/14/16 21:25:31  5-MIN KAQV 150325Z AUTO 02004KT 10SM OVC007 16/14 A2993 360 90 600 020/04 RMK AO2 T01610144 $
03949KAQV AQV20160414213012404/14/16 21:30:31  5-MIN KAQV 150330Z AUTO VRB03KT 10SM OVC007 16/14 A2993 370 90 600 VRB/03 RMK AO2 CIG 006V010 T01610144 $
03949KAQV AQV20160414213511204/14/16 21:35:31  5-MIN KAQV 150335Z AUTO 01004KT 10SM OVC007 16/14 A2993 370 90 600 010/04 RMK AO2 T01610144 $
03949KAQV AQV20160414214011904/14/16 21:40:31  5-MIN KAQV 150340Z AUTO 01005KT 10SM BKN007 OVC011 16/14 A2993 370 90 600 010/05 RMK AO2 T01610144 $
03949KAQV AQV20160414214512404/14/16 21:45:31  5-MIN KAQV 150345Z AUTO 01006KT 10SM OVC007 16/14 A2993 370 90 600 360/06 RMK AO2 CIG 006V013 T01610144 $
03949KAQV AQV20160414215013104/14/16 21:50:31  5-MIN KAQV 150350Z AUTO 01005KT 10SM OVC009 16/14 A2993 370 90 600 010/05 RMK AO2 CIG 006V013 SLP134 T01610144 $
03949KAQV AQV20160414215512604/14/16 21:55:31  5-MIN KAQV 150355Z AUTO 02005KT 10SM BKN007 OVC011 16/14 A2993 370 93 600 010/05 RMK AO2 SLP134 T01560144 $
03949KAQV AQV20160414220012404/14/16 22:00:31  5-MIN KAQV 150400Z AUTO VRB05KT 10SM OVC007 15/14 A2993 370 96 500 VRB/05 RMK AO2 CIG 006V013 T01500144 $
03949KAQV AQV20160414220512404/14/16 22:05:31  5-MIN KAQV 150405Z AUTO 01005KT 10SM OVC007 15/14 A2993 370 96 500 010/05 RMK AO2 CIG 006V013 T01500144 $
03949KAQV AQV20160414221012404/14/16 22:10:31  5-MIN KAQV 150410Z AUTO VRB04KT 10SM OVC008 16/14 A2993 370 93 600 VRB/04 RMK AO2 CIG 006V011 T01560144 $
03949KAQV AQV20160414221512404/14/16 22:15:31  5-MIN KAQV 150415Z AUTO 01003KT 10SM OVC008 16/14 A2993 370 93 600 360/03 RMK AO2 CIG 006V011 T01560144 $
03949KAQV AQV20160414222012404/14/16 22:20:31  5-MIN KAQV 150420Z AUTO 01004KT 10SM OVC007 16/14 A2993 370 93 600 360/04 RMK AO2 CIG 006V010 T01560144 $
03949KAQV AQV20160414222512404/14/16 22:25:31  5-MIN KAQV 150425Z AUTO 01008KT 10SM OVC007 16/14 A2992 370 93 600 010/08 RMK AO2 CIG 006V010 T01560144 $
03949KAQV AQV20160414223012404/14/16 22:30:31  5-MIN KAQV 150430Z AUTO 02004KT 10SM OVC007 16/14 A2993 370 93 600 020/04 RMK AO2 CIG 006V010 T01560144 $
03949KAQV AQV20160414223512404/14/16 22:35:31  5-MIN KAQV 150435Z AUTO 02004KT 10SM OVC007 16/14 A2993 370 90 600 020/04 RMK AO2 CIG 006V011 T01610144 $
03949KAQV AQV20160414224012404/14/16 22:40:31  5-MIN KAQV 150440Z AUTO 02004KT 10SM OVC007 16/14 A2993 370 90 600 020/04 RMK AO2 CIG 006V012 T01610144 $
03949KAQV AQV20160414224511204/14/16 22:45:31  5-MIN KAQV 150445Z AUTO 01003KT 10SM OVC007 16/14 A2993 370 90 600 010/03 RMK AO2 T01610144 $
03949KAQV AQV20160414225011904/14/16 22:50:31  5-MIN KAQV 150450Z AUTO VRB04KT 10SM OVC007 16/14 A2993 370 90 600 VRB/04 RMK AO2 SLP133 T01610144 $
03949KAQV AQV20160414225511904/14/16 22:55:31  5-MIN KAQV 150455Z AUTO 02004KT 10SM OVC007 16/14 A2992 370 90 600 020/04 RMK AO2 SLP132 T01610144 $
03949KAQV AQV20160414230011204/14/16 23:00:31  5-MIN KAQV 150500Z AUTO 01005KT 10SM OVC007 16/14 A2992 380 90 600 010/05 RMK AO2 T01610144 $
03949KAQV AQV20160414230511204/14/16 23:05:31  5-MIN KAQV 150505Z AUTO 01004KT 10SM OVC007 16/14 A2992 380 90 600 010/04 RMK AO2 T01610144 $
03949KAQV AQV20160414231011204/14/16 23:10:31  5-MIN KAQV 150510Z AUTO 03005KT 10SM OVC007 16/14 A2992 380 93 600 030/05 RMK AO2 T01560144 $
03949KAQV AQV20160414231511204/14/16 23:15:31  5-MIN KAQV 150515Z AUTO 03003KT 10SM OVC006 16/14 A2992 380 93 600 030/03 RMK AO2 T01560144 $
03949KAQV AQV20160414232011204/14/16 23:20:31  5-MIN KAQV 150520Z AUTO 02004KT 10SM OVC006 16/14 A2992 380 93 600 020/04 RMK AO2 T01560144 $
03949KAQV AQV20160414232511204/14/16 23:25:31  5-MIN KAQV 150525Z AUTO 03004KT 10SM OVC006 16/14 A2992 380 93 600 030/04 RMK AO2 T01560144 $
03949KAQV AQV20160414233011204/14/16 23:30:31  5-MIN KAQV 150530Z AUTO 03004KT 10SM OVC006 16/14 A2992 380 93 600 030/04 RMK AO2 T01560144 $
03949KAQV AQV20160414233511204/14/16 23:35:31  5-MIN KAQV 150535Z AUTO VRB05KT 10SM OVC006 16/14 A2991 380 93 600 VRB/05 RMK AO2 T01560144 $
03949KAQV AQV20160414234011204/14/16 23:40:31  5-MIN KAQV 150540Z AUTO 36003KT 10SM OVC005 16/14 A2991 380 93 600 360/03 RMK AO2 T01560144 $
03949KAQV AQV20160414234511204/14/16 23:45:31  5-MIN KAQV 150545Z AUTO 02004KT 10SM OVC005 15/14 A2991 380 96 500 010/04 RMK AO2 T01500144 $
03949KAQV AQV20160414235014704/14/16 23:50:31  5-MIN KAQV 150550Z AUTO 02005KT 10SM OVC005 15/14 A2991 380 96 500 020/05 RMK AO2 SLP128 T01500144 10167 20150 401890150 53007 $
03949KAQV AQV20160414235514704/14/16 23:55:31  5-MIN KAQV 150555Z AUTO 02005KT 10SM OVC005 15/14 A2991 390 96 500 010/05 RMK AO2 SLP128 T01500144 10167 20150 401890150 53007 $
03949KAQV AQV20160415000011204/15/16 00:00:31  5-MIN KAQV 150600Z AUTO 02004KT 10SM OVC005 15/14 A2991 390 96 500 020/04 RMK AO2 T01500144 $
03949KAQV AQV20160415000511204/15/16 00:05:31  5-MIN KAQV 150605Z AUTO 02004KT 10SM OVC005 15/14 A2991 390 96 500 020/04 RMK AO2 T01500144 $
03949KAQV AQV20160415001011104/15/16 00:10:31  5-MIN KAQV 150610Z AUTO 03004KT 9SM OVC005 15/14 A2990 390 96 500 020/04 RMK AO2 T01500144 $
03949KAQV AQV20160415001511104/15/16 00:15:31  5-MIN KAQV 150615Z AUTO 02004KT 8SM OVC005 15/14 A2990 390 96 500 010/04 RMK AO2 T01500144 $
03949KAQV AQV20160415002011104/15/16 00:20:31  5-MIN KAQV 150620Z AUTO 03004KT 8SM OVC005 15/14 A2990 390 96 500 020/04 RMK AO2 T01500144 $
03949KAQV AQV20160415002511104/15/16 00:25:31  5-MIN KAQV 150625Z AUTO 03004KT 8SM OVC004 15/14 A2990 400 96 500 030/04 RMK AO2 T01500144 $
03949KAQV AQV20160415003011104/15/16 00:30:31  5-MIN KAQV 150630Z AUTO 03004KT 8SM OVC004 15/14 A2990 400 96 500 020/04 RMK AO2 T01500144 $
03949KAQV AQV20160415003511104/15/16 00:35:31  5-MIN KAQV 150635Z AUTO 02003KT 8SM OVC004 15/14 A2990 400 96 500 010/03 RMK AO2 T01500144 $
03949KAQV AQV20160415004011104/15/16 00:40:31  5-MIN KAQV 150640Z AUTO 01004KT 8SM OVC004 16/15 A2989 400 96 600 360/04 RMK AO2 T01560150 $
03949KAQV AQV20160415004511104/15/16 00:45:31  5-MIN KAQV 150645Z AUTO VRB03KT 8SM OVC004 16/15 A2989 400 96 600 VRB/03 RMK AO2 T01560150 $
03949KAQV AQV20160415005011804/15/16 00:50:31  5-MIN KAQV 150650Z AUTO 36004KT 7SM OVC004 16/15 A2989 410 96 600 360/04 RMK AO2 SLP120 T01560150 $
03949KAQV AQV20160415005511904/15/16 00:55:31  5-MIN KAQV 150655Z AUTO 36003KT 7SM OVC004 15/15 A2989 410 100 500 350/03 RMK AO2 SLP120 T01500150 $
03949KAQV AQV20160415010011504/15/16 01:00:31  5-MIN KAQV 150700Z AUTO 36004KT 6SM BR OVC004 15/15 A2989 410 100 500 360/04 RMK AO2 T01500150 $
03949KAQV AQV20160415010511404/15/16 01:05:31  5-MIN KAQV 150705Z AUTO 01003KT 5SM BR OVC003 16/15 A2988 410 96 600 360/03 RMK AO2 T01560150 $
03949KAQV AQV20160415011011404/15/16 01:10:31  5-MIN KAQV 150710Z AUTO 01003KT 4SM BR OVC003 16/15 A2988 410 96 600 360/03 RMK AO2 T01560150 $
03949KAQV AQV20160415011511404/15/16 01:15:31  5-MIN KAQV 150715Z AUTO 35003KT 3SM BR OVC003 16/15 A2988 410 96 600 350/03 RMK AO2 T01560150 $
03949KAQV AQV20160415012011804/15/16 01:20:31  5-MIN KAQV 150720Z AUTO 36003KT 2 1/2SM BR OVC003 16/15 A2988 410 96 600 350/03 RMK AO2 T01560150 $
03949KAQV AQV20160415012511404/15/16 01:25:31  5-MIN KAQV 150725Z AUTO 35003KT 2SM BR OVC003 16/15 A2988 410 96 600 350/03 RMK AO2 T01560150 $
03949KAQV AQV20160415013011804/15/16 01:30:31  5-MIN KAQV 150730Z AUTO 36003KT 1 3/4SM BR OVC002 16/15 A2988 410 96 600 360/03 RMK AO2 T01560150 $
03949KAQV AQV20160415013511804/15/16 01:35:31  5-MIN KAQV 150735Z AUTO 36003KT 1 1/2SM BR OVC002 16/15 A2988 420 96 600 360/03 RMK AO2 T01560150 $
03949KAQV AQV20160415014011804/15/16 01:40:31  5-MIN KAQV 150740Z AUTO 36004KT 1 1/4SM BR OVC002 16/15 A2987 420 96 600 350/04 RMK AO2 T01560150 $
03949KAQV AQV20160415014511804/15/16 01:45:31  5-MIN KAQV 150745Z AUTO 02003KT 1 1/4SM BR OVC002 16/15 A2987 420 96 600 010/03 RMK AO2 T01560150 $
03949KAQV AQV20160415015012504/15/16 01:50:31  5-MIN KAQV 150750Z AUTO 00000KT 1 1/4SM BR OVC002 16/15 A2987 420 96 600 000/00 RMK AO2 SLP115 T01560150 $
03949KAQV AQV20160415015512504/15/16 01:55:31  5-MIN KAQV 150755Z AUTO 02003KT 1 1/4SM BR OVC002 16/15 A2987 420 96 600 020/03 RMK AO2 SLP114 T01560150 $
03949KAQV AQV20160415020011404/15/16 02:00:31  5-MIN KAQV 150800Z AUTO 01003KT 1SM BR OVC002 16/15 A2987 420 96 600 010/03 RMK AO2 T01560150 $
03949KAQV AQV20160415020511404/15/16 02:05:31  5-MIN KAQV 150805Z AUTO 02003KT 1SM BR OVC002 16/15 A2987 420 96 600 020/03 RMK AO2 T01560150 $
03949KAQV AQV20160415021011404/15/16 02:10:31  5-MIN KAQV 150810Z AUTO 02003KT 1SM BR OVC002 16/15 A2987 420 96 600 010/03 RMK AO2 T01560150 $
03949KAQV AQV20160415021511404/15/16 02:15:31  5-MIN KAQV 150815Z AUTO 02003KT 1SM BR OVC002 16/15 A2987 420 96 600 020/03 RMK AO2 T01560150 $
03949KAQV AQV20160415022011404/15/16 02:20:31  5-MIN KAQV 150820Z AUTO 00000KT 1SM BR OVC002 16/15 A2987 420 96 600 000/00 RMK AO2 T01560150 $
03949KAQV AQV20160415022511404/15/16 02:25:31  5-MIN KAQV 150825Z AUTO 00000KT 1SM BR OVC002 16/15 A2987 420 96 600 000/00 RMK AO2 T01560150 $
03949KAQV AQV20160415023011404/15/16 02:30:31  5-MIN KAQV 150830Z AUTO 00000KT 1SM BR OVC002 16/15 A2987 420 96 600 000/00 RMK AO2 T01560150 $
03949KAQV AQV20160415023511404/15/16 02:35:31  5-MIN KAQV 150835Z AUTO 02003KT 1SM BR OVC002 16/15 A2987 420 96 600 020/03 RMK AO2 T01560150 $
03949KAQV AQV20160415024011404/15/16 02:40:31  5-MIN KAQV 150840Z AUTO 00000KT 1SM BR OVC002 16/15 A2987 430 96 600 000/00 RMK AO2 T01560150 $
03949KAQV AQV20160415024511404/15/16 02:45:31  5-MIN KAQV 150845Z AUTO 00000KT 1SM BR OVC002 16/15 A2987 430 96 600 000/00 RMK AO2 T01560150 $
03949KAQV AQV20160415025012704/15/16 02:50:31  5-MIN KAQV 150850Z AUTO 01003KT 1SM BR OVC002 16/15 A2987 430 96 600 010/03 RMK AO2 SLP113 T01560150 58006 $
03949KAQV AQV20160415025512704/15/16 02:55:31  5-MIN KAQV 150855Z AUTO 03003KT 1SM BR OVC002 16/15 A2987 430 96 600 020/03 RMK AO2 SLP112 T01560150 58006 $
03949KAQV AQV20160415030011404/15/16 03:00:31  5-MIN KAQV 150900Z AUTO 02004KT 1SM BR OVC002 16/15 A2986 430 96 600 020/04 RMK AO2 T01560150 $
03949KAQV AQV20160415030511404/15/16 03:05:31  5-MIN KAQV 150905Z AUTO 01004KT 1SM BR OVC002 16/15 A2987 430 96 600 360/04 RMK AO2 T01560150 $
03949KAQV AQV20160415183513604/15/16 18:35:31  5-MIN KAQV 160035Z AUTO 06007KT 020V090 10SM BKN018 OVC043 21/18 A2989 410 81 1300 060/07 020V090 RMK AO2 T02110178 $
03949KAQV AQV20160415184012004/15/16 18:40:31  5-MIN KAQV 160040Z AUTO VRB05KT 10SM BKN016 BKN043 21/18 A2989 400 81 1300 VRB/05 RMK AO2 T02110178 $
03949KAQV AQV20160415184512004/15/16 18:45:31  5-MIN KAQV 160045Z AUTO VRB06KT 10SM BKN016 BKN043 20/18 A2989 400 87 1100 VRB/06 RMK AO2 T02000178 $
03949KAQV AQV20160415185012704/15/16 18:50:31  5-MIN KAQV 160050Z AUTO 06006KT 10SM BKN016 OVC043 19/18 A2989 400 90 1100 060/06 RMK AO2 SLP121 T01940178 $
03949KAQV AQV20160415185514304/15/16 18:55:31  5-MIN KAQV 160055Z AUTO 05007KT 020V080 10SM BKN016 OVC041 19/18 A2989 400 90 1100 040/07 020V080 RMK AO2 SLP121 T01940178 $
03949KAQV AQV20160415190011304/15/16 19:00:31  5-MIN KAQV 160100Z AUTO 07006KT 10SM OVC016 19/17 A2989 400 90 1000 060/06 RMK AO2 T01890172 $
03949KAQV AQV20160415190511304/15/16 19:05:31  5-MIN KAQV 160105Z AUTO VRB06KT 10SM OVC014 19/18 A2989 400 93 1000 VRB/06 RMK AO2 T01890178 $
03949KAQV AQV20160415191011304/15/16 19:10:31  5-MIN KAQV 160110Z AUTO VRB05KT 10SM OVC014 19/17 A2989 400 90 1000 VRB/05 RMK AO2 T01890172 $
03949KAQV AQV20160415191511304/15/16 19:15:31  5-MIN KAQV 160115Z AUTO VRB05KT 10SM OVC014 19/17 A2989 400 90 1000 VRB/05 RMK AO2 T01890172 $
03949KAQV AQV20160415192011904/15/16 19:20:31  5-MIN KAQV 160120Z AUTO 04009G15KT 10SM OVC015 19/17 A2989 400 90 1000 040/09G15 RMK AO2 T01890172 $
03949KAQV AQV20160415192511804/15/16 19:25:31  5-MIN KAQV 160125Z AUTO 04005G15KT 10SM OVC015 18/17 A2989 400 93 900 040/05G15 RMK AO2 T01830172 $
03949KAQV AQV20160415193011204/15/16 19:30:31  5-MIN KAQV 160130Z AUTO 04005KT 10SM OVC013 18/17 A2990 400 93 900 040/05 RMK AO2 T01830172 $
03949KAQV AQV20160415193511904/15/16 19:35:31  5-MIN KAQV 160135Z AUTO 08006KT 10SM BKN011 OVC017 18/17 A2990 400 93 900 070/06 RMK AO2 T01830172 $
03949KAQV AQV20160415194011904/15/16 19:40:31  5-MIN KAQV 160140Z AUTO 06006KT 10SM BKN011 OVC017 18/17 A2990 400 93 900 050/06 RMK AO2 T01830172 $
03949KAQV AQV20160415194511204/15/16 19:45:31  5-MIN KAQV 160145Z AUTO 06008KT 10SM OVC011 18/17 A2990 400 93 900 060/08 RMK AO2 T01830172 $
03949KAQV AQV20160415195011904/15/16 19:50:31  5-MIN KAQV 160150Z AUTO 06006KT 10SM OVC011 18/17 A2990 400 93 900 060/06 RMK AO2 SLP123 T01830172 $
03949KAQV AQV20160415195511904/15/16 19:55:31  5-MIN KAQV 160155Z AUTO 05007KT 10SM OVC011 18/17 A2990 400 93 900 050/07 RMK AO2 SLP123 T01830172 $
03949KAQV AQV20160415200011204/15/16 20:00:31  5-MIN KAQV 160200Z AUTO 07007KT 10SM OVC011 18/17 A2990 400 93 900 070/07 RMK AO2 T01830172 $
03949KAQV AQV20160415200511204/15/16 20:05:31  5-MIN KAQV 160205Z AUTO 06006KT 10SM OVC009 18/17 A2990 390 93 900 060/06 RMK AO2 T01830172 $
03949KAQV AQV20160415201011204/15/16 20:10:31  5-MIN KAQV 160210Z AUTO VRB05KT 10SM OVC009 18/17 A2990 400 93 900 VRB/05 RMK AO2 T01830172 $
03949KAQV AQV20160415201511204/15/16 20:15:31  5-MIN KAQV 160215Z AUTO VRB04KT 10SM OVC009 18/17 A2991 390 93 900 VRB/04 RMK AO2 T01830172 $
03949KAQV AQV20160415202011204/15/16 20:20:31  5-MIN KAQV 160220Z AUTO 07007KT 10SM OVC009 18/17 A2991 390 93 900 070/07 RMK AO2 T01830172 $
03949KAQV AQV20160415202511204/15/16 20:25:31  5-MIN KAQV 160225Z AUTO 04005KT 10SM OVC009 18/17 A2991 390 93 900 040/05 RMK AO2 T01830172 $
03949KAQV AQV20160415203011204/15/16 20:30:31  5-MIN KAQV 160230Z AUTO 07007KT 10SM OVC009 18/17 A2991 380 93 900 060/07 RMK AO2 T01830172 $
03949KAQV AQV20160415203511204/15/16 20:35:31  5-MIN KAQV 160235Z AUTO VRB06KT 10SM OVC009 18/17 A2991 380 93 900 VRB/06 RMK AO2 T01830172 $
03949KAQV AQV20160415204011204/15/16 20:40:31  5-MIN KAQV 160240Z AUTO VRB03KT 10SM OVC008 18/17 A2992 380 93 900 VRB/03 RMK AO2 T01830172 $
03949KAQV AQV20160415204511204/15/16 20:45:31  5-MIN KAQV 160245Z AUTO 06004KT 10SM OVC008 18/17 A2992 380 93 900 060/04 RMK AO2 T01830172 $
03949KAQV AQV20160415205012504/15/16 20:50:31  5-MIN KAQV 160250Z AUTO VRB04KT 10SM OVC008 18/17 A2992 380 93 900 VRB/04 RMK AO2 SLP129 T01830172 53003 $
03949KAQV AQV20160415205512504/15/16 20:55:31  5-MIN KAQV 160255Z AUTO VRB04KT 10SM OVC008 18/17 A2992 380 93 900 VRB/04 RMK AO2 SLP130 T01830172 53003 $
03949KAQV AQV20160415210011204/15/16 21:00:31  5-MIN KAQV 160300Z AUTO VRB04KT 10SM OVC008 18/17 A2992 380 93 900 VRB/04 RMK AO2 T01830172 $
03949KAQV AQV20160415210511204/15/16 21:05:31  5-MIN KAQV 160305Z AUTO 08006KT 10SM OVC008 18/17 A2992 370 93 900 070/06 RMK AO2 T01830172 $
03949KAQV AQV20160415211011204/15/16 21:10:31  5-MIN KAQV 160310Z AUTO VRB03KT 10SM OVC008 18/17 A2992 370 93 900 VRB/03 RMK AO2 T01830172 $
03949KAQV AQV20160415211511204/15/16 21:15:31  5-MIN KAQV 160315Z AUTO VRB03KT 10SM OVC008 18/17 A2993 370 93 900 VRB/03 RMK AO2 T01830172 $
03949KAQV AQV20160415212011204/15/16 21:20:31  5-MIN KAQV 160320Z AUTO VRB03KT 10SM OVC008 18/17 A2993 370 93 900 VRB/03 RMK AO2 T01830172 $
03949KAQV AQV20160415212511204/15/16 21:25:31  5-MIN KAQV 160325Z AUTO VRB03KT 10SM OVC008 18/17 A2993 370 93 900 VRB/03 RMK AO2 T01830172 $
03949KAQV AQV20160415213012704/15/16 21:30:31  5-MIN KAQV 160330Z AUTO 00000KT 9SM -RA OVC009 18/17 A2993 370 93 900 000/00 RMK AO2 RAB26 P0001 T01830172 $
03949KAQV AQV20160415213512904/15/16 21:35:31  5-MIN KAQV 160335Z AUTO 00000KT 6SM RA BR OVC009 18/18 A2992 370 96 900 000/00 RMK AO2 RAB26 P0002 T01830178 $
03949KAQV AQV20160415214013004/15/16 21:40:31  5-MIN KAQV 160340Z AUTO 00000KT 5SM -RA BR OVC009 18/18 A2992 370 96 900 000/00 RMK AO2 RAB26 P0003 T01830178 $
03949KAQV AQV20160415214513004/15/16 21:45:31  5-MIN KAQV 160345Z AUTO 00000KT 5SM -RA BR OVC009 18/18 A2992 370 96 900 000/00 RMK AO2 RAB26 P0003 T01830178 $
03949KAQV AQV20160415215013704/15/16 21:50:31  5-MIN KAQV 160350Z AUTO 00000KT 6SM -RA BR OVC009 18/18 A2992 370 96 900 000/00 RMK AO2 RAB26 SLP131 P0003 T01830178 $
03949KAQV AQV20160415215513404/15/16 21:55:31  5-MIN KAQV 160355Z AUTO VRB03KT 7SM -RA OVC009 18/18 A2992 370 96 900 VRB/03 RMK AO2 RAB26 SLP131 P0003 T01830178 $
03949KAQV AQV20160415220012104/15/16 22:00:31  5-MIN KAQV 160400Z AUTO VRB03KT 7SM -RA OVC009 18/18 A2992 380 96 900 VRB/03 RMK AO2 P0000 T01830178 $
03949KAQV AQV20160415220512404/15/16 22:05:31  5-MIN KAQV 160405Z AUTO VRB03KT 5SM -RA BR OVC009 18/18 A2992 380 96 900 VRB/03 RMK AO2 P0000 T01830178 $
03949KAQV AQV20160415221013604/15/16 22:10:31  5-MIN KAQV 160410Z AUTO VRB03KT 5SM -RA BR OVC009 18/18 A2992 380 96 900 VRB/03 RMK AO2 CIG 006V011 P0000 T01830178 $
03949KAQV AQV20160415221512604/15/16 22:15:31  5-MIN KAQV 160415Z AUTO 4SM -RA BR OVC009 18/18 A2992 370 96 900 M /M RMK AO2 CIG 006V011 P0001 T01830178 $
03949KAQV AQV20160415222013604/15/16 22:20:31  5-MIN KAQV 160420Z AUTO VRB03KT 3SM -RA BR OVC009 18/18 A2992 370 96 900 VRB/03 RMK AO2 CIG 005V011 P0002 T01830178 $
03949KAQV AQV20160415222513904/15/16 22:25:31  5-MIN KAQV 160425Z AUTO VRB06KT 2 1/2SM RA BR OVC007 18/18 A2992 370 96 900 VRB/06 RMK AO2 CIG 005V011 P0003 T01830178 $
03949KAQV AQV20160415223014404/15/16 22:30:31  5-MIN KAQV 160430Z AUTO VRB05KT 3SM -RA BR BKN007 OVC010 18/18 A2992 370 100 900 VRB/05 RMK AO2 CIG 005V009 P0003 T01830183 $
03949KAQV AQV20160415223514404/15/16 22:35:31  5-MIN KAQV 160435Z AUTO VRB03KT 5SM -RA BR BKN007 OVC010 18/18 A2993 370 100 900 VRB/03 RMK AO2 CIG 004V008 P0003 T01830183 $
03949KAQV AQV20160415224013204/15/16 22:40:31  5-MIN KAQV 160440Z AUTO VRB04KT 5SM -RA BR BKN006 OVC009 18/18 A2993 370 100 900 VRB/04 RMK AO2 P0003 T01830183 $
03949KAQV AQV20160415224513204/15/16 22:45:31  5-MIN KAQV 160445Z AUTO VRB05KT 4SM -RA BR BKN006 OVC009 18/18 A2993 370 100 900 VRB/05 RMK AO2 P0003 T01830183 $
03949KAQV AQV20160415225013804/15/16 22:50:31  5-MIN KAQV 160450Z AUTO VRB05KT 4SM -RA BR BKN006 OVC010 18/18 A2993 370 96 900 VRB/05 RMK AO2 SLP132 P0004 T01830178 $
03949KAQV AQV20160415225513904/15/16 22:55:31  5-MIN KAQV 160455Z AUTO VRB03KT 4SM -RA BR BKN006 OVC010 18/18 A2993 370 100 900 VRB/03 RMK AO2 SLP132 P0005 T01830183 $
03949KAQV AQV20160415230012304/15/16 23:00:31  5-MIN KAQV 160500Z AUTO VRB03KT 3SM RA BR OVC006 18/18 A2993 370 96 900 VRB/03 RMK AO2 P0001 T01830178 $
03949KAQV AQV20160415230512404/15/16 23:05:31  5-MIN KAQV 160505Z AUTO 12004KT 3SM -RA BR OVC006 18/18 A2993 370 96 900 110/04 RMK AO2 P0001 T01830178 $
03949KAQV AQV20160415231012404/15/16 23:10:31  5-MIN KAQV 160510Z AUTO VRB03KT 3SM -RA BR OVC006 18/18 A2993 370 96 900 VRB/03 RMK AO2 P0002 T01830178 $
03949KAQV AQV20160415231512404/15/16 23:15:31  5-MIN KAQV 160515Z AUTO VRB04KT 4SM -RA BR OVC006 18/18 A2993 370 96 900 VRB/04 RMK AO2 P0003 T01830178 $
03949KAQV AQV20160415232012404/15/16 23:20:31  5-MIN KAQV 160520Z AUTO VRB06KT 4SM -RA BR OVC006 18/18 A2993 370 96 900 VRB/06 RMK AO2 P0003 T01830178 $
03949KAQV AQV20160415232512304/15/16 23:25:31  5-MIN KAQV 160525Z AUTO VRB04KT 3SM RA BR OVC006 18/18 A2993 370 96 900 VRB/04 RMK AO2 P0004 T01830178 $
03949KAQV AQV20160415233012404/15/16 23:30:31  5-MIN KAQV 160530Z AUTO VRB04KT 3SM -RA BR OVC006 18/18 A2993 370 96 900 VRB/04 RMK AO2 P0005 T01830178 $
03949KAQV AQV20160415233512404/15/16 23:35:31  5-MIN KAQV 160535Z AUTO VRB03KT 4SM -RA BR OVC007 18/18 A2993 370 96 900 VRB/03 RMK AO2 P0006 T01830178 $
03949KAQV AQV20160415234013604/15/16 23:40:31  5-MIN KAQV 160540Z AUTO VRB04KT 5SM -RA BR OVC007 18/18 A2993 370 96 900 VRB/04 RMK AO2 CIG 004V010 P0006 T01830178 $
03949KAQV AQV20160415234513604/15/16 23:45:31  5-MIN KAQV 160545Z AUTO VRB05KT 5SM -RA BR OVC007 18/18 A2993 370 96 900 VRB/05 RMK AO2 CIG 004V010 P0006 T01830178 $
03949KAQV AQV20160415235017704/15/16 23:50:31  5-MIN KAQV 160550Z AUTO VRB06KT 5SM -RA BR OVC007 18/18 A2993 370 96 900 VRB/06 RMK AO2 CIG 004V010 SLP132 P0006 60014 T01830178 10228 20183 402670150 52017 $
03949KAQV AQV20160415235517704/15/16 23:55:31  5-MIN KAQV 160555Z AUTO VRB05KT 6SM -RA BR OVC007 18/18 A2993 370 96 900 VRB/05 RMK AO2 CIG 004V010 SLP132 P0006 60014 T01830178 10228 20183 402670150 52017 $
03949KAQV AQV20160416000013604/16/16 00:00:31  5-MIN KAQV 160600Z AUTO VRB03KT 6SM -RA BR OVC006 18/18 A2993 370 96 900 VRB/03 RMK AO2 CIG 004V009 P0000 T01830178 $
03949KAQV AQV20160416000513604/16/16 00:05:31  5-MIN KAQV 160605Z AUTO VRB06KT 6SM -RA BR OVC006 18/18 A2993 370 96 900 VRB/06 RMK AO2 CIG 004V009 P0000 T01830178 $
03949KAQV AQV20160416001013504/16/16 00:10:31  5-MIN KAQV 160610Z AUTO VRB04KT 7SM OVC006 18/18 A2993 370 96 900 VRB/04 RMK AO2 RAE08 CIG 004V011 P0000 T01830178 $
03949KAQV AQV20160416001513604/16/16 00:15:31  5-MIN KAQV 160615Z AUTO VRB05KT 6SM -RA BR OVC008 18/18 A2993 370 96 900 VRB/05 RMK AO2 CIG 004V012 P0000 T01830178 $
03949KAQV AQV20160416002012604/16/16 00:20:31  5-MIN KAQV 160620Z AUTO 6SM -RA BR OVC008 18/18 A2993 370 96 900 M /M RMK AO2 CIG 004V012 P0000 T01830178 $
03949KAQV AQV20160416002513304/16/16 00:25:31  5-MIN KAQV 160625Z AUTO VRB03KT 7SM -RA OVC008 18/18 A2993 370 96 900 VRB/03 RMK AO2 CIG 004V010 P0000 T01830178 $
03949KAQV AQV20160416003014004/16/16 00:30:31  5-MIN KAQV 160630Z AUTO 13005KT 7SM -RA BKN008 OVC012 18/18 A2993 370 96 900 130/05 RMK AO2 CIG 005V010 P0000 T01830178 $
03949KAQV AQV20160416003514204/16/16 00:35:31  5-MIN KAQV 160635Z AUTO VRB06KT 8SM BKN008 OVC012 18/18 A2993 370 96 900 VRB/06 RMK AO2 RAE32 CIG 006V010 P0000 T01830178 $
03949KAQV AQV20160416004013504/16/16 00:40:31  5-MIN KAQV 160640Z AUTO VRB06KT 7SM OVC010 18/18 A2993 370 96 900 VRB/06 RMK AO2 RAE32 CIG 006V014 P0000 T01830178 $
03949KAQV AQV20160416004515104/16/16 00:45:31  5-MIN KAQV 160645Z AUTO 13007KT 100V170 7SM OVC010 18/18 A2993 370 96 900 120/07 100V170 RMK AO2 RAE32 CIG 006V013 P0000 T01830178 $
03949KAQV AQV20160416005014204/16/16 00:50:31  5-MIN KAQV 160650Z AUTO VRB05KT 7SM OVC010 18/18 A2993 370 96 900 VRB/05 RMK AO2 RAE32 CIG 007V015 SLP131 P0000 T01830178 $
03949KAQV AQV20160416005514204/16/16 00:55:31  5-MIN KAQV 160655Z AUTO VRB05KT 7SM OVC010 18/18 A2992 370 96 900 VRB/05 RMK AO2 RAE32 CIG 007V012 SLP130 P0000 T01830178 $
03949KAQV AQV20160416010013004/16/16 01:00:31  5-MIN KAQV 160700Z AUTO VRB05KT 7SM BKN010 OVC013 18/18 A2992 370 96 900 VRB/05 RMK AO2 CIG 007V011 T01830178 $
03949KAQV AQV20160416010512304/16/16 01:05:31  5-MIN KAQV 160705Z AUTO VRB03KT 8SM OVC010 18/18 A2992 380 96 900 VRB/03 RMK AO2 CIG 007V013 T01830178 $
03949KAQV AQV20160416011013004/16/16 01:10:31  5-MIN KAQV 160710Z AUTO 13005KT 8SM BKN010 OVC013 18/18 A2992 380 96 900 120/05 RMK AO2 CIG 007V012 T01830178 $
03949KAQV AQV20160416011513104/16/16 01:15:31  5-MIN KAQV 160715Z AUTO VRB05KT 8SM BKN010 OVC013 18/18 A2992 380 100 800 VRB/05 RMK AO2 CIG 007V011 T01780178 $
03949KAQV AQV20160416012013104/16/16 01:20:31  5-MIN KAQV 160720Z AUTO 13004KT 8SM BKN009 OVC013 18/18 A2992 370 100 800 130/04 RMK AO2 CIG 006V011 T01780178 $
03949KAQV AQV20160416012512404/16/16 01:25:31  5-MIN KAQV 160725Z AUTO 14005KT 8SM OVC009 18/18 A2992 380 100 800 130/05 RMK AO2 CIG 006V013 T01780178 $
03949KAQV AQV20160416013012304/16/16 01:30:31  5-MIN KAQV 160730Z AUTO VRB05KT 8SM OVC009 18/17 A2992 380 96 800 VRB/05 RMK AO2 CIG 006V015 T01780172 $
03949KAQV AQV20160416013513104/16/16 01:35:31  5-MIN KAQV 160735Z AUTO VRB04KT 8SM BKN010 OVC014 18/18 A2992 380 100 800 VRB/04 RMK AO2 CIG 006V012 T01780178 $
03949KAQV AQV20160416014013004/16/16 01:40:31  5-MIN KAQV 160740Z AUTO 14007KT 8SM BKN010 OVC014 18/17 A2992 380 96 800 140/07 RMK AO2 CIG 006V012 T01780172 $
03949KAQV AQV20160416014511104/16/16 01:45:31  5-MIN KAQV 160745Z AUTO VRB05KT 9SM OVC010 18/17 A2992 380 96 800 VRB/05 RMK AO2 T01780172 $
03949KAQV AQV20160416015011804/16/16 01:50:31  5-MIN KAQV 160750Z AUTO VRB05KT 9SM OVC010 18/17 A2991 380 96 800 VRB/05 RMK AO2 SLP128 T01780172 $
03949KAQV AQV20160416015513704/16/16 01:55:31  5-MIN KAQV 160755Z AUTO 14007KT 9SM BKN010 OVC015 18/17 A2991 380 96 800 140/07 RMK AO2 CIG 007V012 SLP127 T01780172 $
03949KAQV AQV20160416020013004/16/16 02:00:31  5-MIN KAQV 160800Z AUTO VRB04KT 9SM BKN010 OVC015 18/17 A2991 390 96 800 VRB/04 RMK AO2 CIG 006V012 T01780172 $
03949KAQV AQV20160416020512304/16/16 02:05:31  5-MIN KAQV 160805Z AUTO VRB06KT 9SM OVC010 18/17 A2991 390 96 800 VRB/06 RMK AO2 CIG 006V015 T01780172 $
03949KAQV AQV20160416021013004/16/16 02:10:31  5-MIN KAQV 160810Z AUTO VRB03KT 9SM BKN010 OVC033 18/17 A2991 390 96 800 VRB/03 RMK AO2 CIG 006V015 T01780172 $
03949KAQV AQV20160416021513004/16/16 02:15:31  5-MIN KAQV 160815Z AUTO VRB06KT 9SM BKN010 OVC033 18/17 A2991 390 96 800 VRB/06 RMK AO2 CIG 006V015 T01780172 $
03949KAQV AQV20160416022011804/16/16 02:20:31  5-MIN KAQV 160820Z AUTO VRB05KT 9SM SCT010 OVC031 18/17 A2991 390 96 800 VRB/05 RMK AO2 T01780172 $
03949KAQV AQV20160416022512504/16/16 02:25:31  5-MIN KAQV 160825Z AUTO VRB04KT 9SM FEW008 SCT012 OVC031 18/17 A2991 390 96 800 VRB/04 RMK AO2 T01780172 $
03949KAQV AQV20160416023012504/16/16 02:30:31  5-MIN KAQV 160830Z AUTO VRB05KT 9SM FEW008 FEW011 OVC031 18/17 A2991 390 96 800 VRB/05 RMK AO2 T01780172 $
03949KAQV AQV20160416023511804/16/16 02:35:31  5-MIN KAQV 160835Z AUTO VRB04KT 9SM FEW008 OVC030 18/17 A2991 380 96 800 VRB/04 RMK AO2 T01780172 $
03949KAQV AQV20160416024011804/16/16 02:40:31  5-MIN KAQV 160840Z AUTO VRB04KT 9SM FEW008 OVC030 18/17 A2991 380 96 800 VRB/04 RMK AO2 T01780172 $
03949KAQV AQV20160416024511804/16/16 02:45:31  5-MIN KAQV 160845Z AUTO VRB04KT 9SM SCT010 OVC029 18/17 A2991 380 96 800 VRB/04 RMK AO2 T01780172 $
03949KAQV AQV20160416025014904/16/16 02:50:31  5-MIN KAQV 160850Z AUTO 12005KT 9SM BKN010 OVC029 18/17 A2991 390 96 800 120/05 RMK AO2 CIG 007V012 SLP126 60000 T01780172 50001 $
03949KAQV AQV20160416025514904/16/16 02:55:31  5-MIN KAQV 160855Z AUTO VRB05KT 9SM BKN010 OVC029 18/17 A2991 390 96 800 VRB/05 RMK AO2 CIG 007V012 SLP126 60000 T01780172 50001 $
03949KAQV AQV20160416030013004/16/16 03:00:31  5-MIN KAQV 160900Z AUTO VRB04KT 9SM BKN008 OVC029 18/17 A2992 380 96 800 VRB/04 RMK AO2 CIG 006V012 T01780172 $
03949KAQV AQV20160416030513004/16/16 03:05:31  5-MIN KAQV 160905Z AUTO VRB04KT 9SM BKN008 OVC029 18/17 A2992 380 96 800 VRB/04 RMK AO2 CIG 005V012 T01780172 $
03949KAQV AQV20160416031012304/16/16 03:10:31  5-MIN KAQV 160910Z AUTO VRB03KT 9SM OVC008 18/17 A2992 380 96 800 VRB/03 RMK AO2 CIG 005V012 T01780172 $
03949KAQV AQV20160416031513004/16/16 03:15:31  5-MIN KAQV 160915Z AUTO VRB04KT 8SM BKN008 OVC018 18/17 A2992 380 96 800 VRB/04 RMK AO2 CIG 005V012 T01780172 $
03949KAQV AQV20160416032013704/16/16 03:20:31  5-MIN KAQV 160920Z AUTO VRB06KT 8SM BKN008 BKN016 OVC036 18/17 A2992 380 96 800 VRB/06 RMK AO2 CIG 005V012 T01780172 $
03949KAQV AQV20160416032513704/16/16 03:25:31  5-MIN KAQV 160925Z AUTO 00000KT 8SM BKN008 BKN016 OVC036 18/17 A2992 380 96 800 000/00 RMK AO2 CIG 005V011 T01780172 $
03949KAQV AQV20160416033013704/16/16 03:30:31  5-MIN KAQV 160930Z AUTO 00000KT 8SM BKN008 BKN016 OVC038 18/17 A2992 380 96 800 000/00 RMK AO2 CIG 005V011 T01780172 $
03949KAQV AQV20160416033513704/16/16 03:35:31  5-MIN KAQV 160935Z AUTO VRB04KT 9SM BKN008 BKN029 OVC038 18/17 A2992 380 96 800 VRB/04 RMK AO2 CIG 005V011 T01780172 $
03949KAQV AQV20160416034013704/16/16 03:40:31  5-MIN KAQV 160940Z AUTO 00000KT 9SM BKN009 BKN029 OVC036 18/17 A2992 370 96 800 000/00 RMK AO2 CIG 005V012 T01780172 $
03949KAQV AQV20160416034513704/16/16 03:45:31  5-MIN KAQV 160945Z AUTO VRB04KT 9SM BKN009 BKN029 OVC036 18/17 A2992 370 96 800 VRB/04 RMK AO2 CIG 007V012 T01780172 $
03949KAQV AQV20160416035013704/16/16 03:50:31  5-MIN KAQV 160950Z AUTO VRB03KT 9SM BKN009 OVC036 18/17 A2992 370 96 800 VRB/03 RMK AO2 CIG 007V015 SLP130 T01780172 $
03949KAQV AQV20160416035514404/16/16 03:55:31  5-MIN KAQV 160955Z AUTO VRB05KT 9SM BKN010 BKN016 OVC036 18/17 A2992 370 96 800 VRB/05 RMK AO2 CIG 007V013 SLP130 T01780172 $
03949KAQV AQV20160416040013004/16/16 04:00:31  5-MIN KAQV 161000Z AUTO VRB03KT 9SM BKN010 OVC016 18/17 A2992 370 96 800 VRB/03 RMK AO2 CIG 006V012 T01780172 $
03949KAQV AQV20160416040513204/16/16 04:05:31  5-MIN KAQV 161005Z AUTO VRB03KT 10SM BKN010 OVC013 17/17 A2992 370 100 800 VRB/03 RMK AO2 CIG 006V012 T01720172 $
03949KAQV AQV20160416041013104/16/16 04:10:31  5-MIN KAQV 161010Z AUTO VRB03KT 9SM BKN010 OVC013 17/17 A2992 370 100 800 VRB/03 RMK AO2 CIG 006V012 T01720172 $
03949KAQV AQV20160416041513004/16/16 04:15:31  5-MIN KAQV 161015Z AUTO VRB04KT 9SM BKN010 OVC014 17/17 A2993 370 96 800 VRB/04 RMK AO2 CIG 006V013 T01720167 $
03949KAQV AQV20160416042013004/16/16 04:20:31  5-MIN KAQV 161020Z AUTO 00000KT 9SM BKN010 OVC014 17/17 A2993 370 96 800 000/00 RMK AO2 CIG 006V012 T01720167 $
03949KAQV AQV20160416042512304/16/16 04:25:31  5-MIN KAQV 161025Z AUTO 00000KT 9SM OVC010 17/17 A2993 360 96 800 000/00 RMK AO2 CIG 006V014 T01720167 $
03949KAQV AQV20160416043012304/16/16 04:30:31  5-MIN KAQV 161030Z AUTO 00000KT 9SM OVC010 17/17 A2993 360 96 700 000/00 RMK AO2 CIG 006V014 T01720167 $
03949KAQV AQV20160416043511104/16/16 04:35:31  5-MIN KAQV 161035Z AUTO VRB03KT 9SM OVC010 17/17 A2994 360 96 700 VRB/03 RMK AO2 T01720167 $
03949KAQV AQV20160416044011104/16/16 04:40:31  5-MIN KAQV 161040Z AUTO 00000KT 9SM OVC010 17/17 A2994 360 96 700 000/00 RMK AO2 T01720167 $
03949KAQV AQV20160416044511104/16/16 04:45:31  5-MIN KAQV 161045Z AUTO 00000KT 8SM OVC010 17/17 A2994 360 96 700 000/00 RMK AO2 T01720167 $
03949KAQV AQV20160416045011804/16/16 04:50:31  5-MIN KAQV 161050Z AUTO VRB03KT 8SM OVC010 17/17 A2994 360 96 700 VRB/03 RMK AO2 SLP136 T01720167 $
03949KAQV AQV20160416045511804/16/16 04:55:31  5-MIN KAQV 161055Z AUTO 00000KT 8SM OVC010 17/17 A2994 360 96 700 000/00 RMK AO2 SLP136 T01720167 $
03949KAQV AQV20160416050011104/16/16 05:00:31  5-MIN KAQV 161100Z AUTO VRB03KT 8SM BKN010 17/17 A2994 360 96 700 VRB/03 RMK AO2 T01720167 $
03949KAQV AQV20160416050511104/16/16 05:05:31  5-MIN KAQV 161105Z AUTO 09004KT 7SM BKN010 17/17 A2994 360 96 700 090/04 RMK AO2 T01720167 $
03949KAQV AQV20160416051011104/16/16 05:10:31  5-MIN KAQV 161110Z AUTO VRB03KT 7SM SCT010 17/17 A2994 360 96 700 VRB/03 RMK AO2 T01720167 $
03949KAQV AQV20160416051511104/16/16 05:15:31  5-MIN KAQV 161115Z AUTO 00000KT 7SM SCT010 17/17 A2994 360 96 700 000/00 RMK AO2 T01720167 $
03949KAQV AQV20160416052011204/16/16 05:20:31  5-MIN KAQV 161120Z AUTO 00000KT 7SM SCT010 17/17 A2994 360 100 700 000/00 RMK AO2 T01670167 $
03949KAQV AQV20160416052511504/16/16 05:25:31  5-MIN KAQV 161125Z AUTO VRB03KT 6SM BR FEW010 17/17 A2994 360 100 700 VRB/03 RMK AO2 T01670167 $
03949KAQV AQV20160416053011504/16/16 05:30:31  5-MIN KAQV 161130Z AUTO VRB03KT 6SM BR SCT010 17/17 A2994 360 100 700 VRB/03 RMK AO2 T01670167 $
03949KAQV AQV20160416053512704/16/16 05:35:31  5-MIN KAQV 161135Z AUTO VRB03KT 6SM BR BKN007 17/17 A2994 360 100 700 VRB/03 RMK AO2 CIG 005V009 T01670167 $
03949KAQV AQV20160416054012704/16/16 05:40:31  5-MIN KAQV 161140Z AUTO 00000KT 6SM BR BKN007 17/17 A2994 360 100 700 000/00 RMK AO2 CIG 005V009 T01670167 $
03949KAQV AQV20160416054512604/16/16 05:45:31  5-MIN KAQV 161145Z AUTO VRB03KT 5SM BR BKN007 17/17 A2994 350 96 700 VRB/03 RMK AO2 CIG 005V009 T01720167 $
03949KAQV AQV20160416055016404/16/16 05:50:31  5-MIN KAQV 161150Z AUTO VRB03KT 5SM BR BKN007 17/17 A2995 350 100 700 VRB/03 RMK AO2 CIG 005V009 SLP139 60000 70014 T01670167 10183 20167 56005 $
03949KAQV AQV20160416055516404/16/16 05:55:31  5-MIN KAQV 161155Z AUTO 00000KT 5SM BR BKN007 17/17 A2995 350 100 700 000/00 RMK AO2 CIG 005V009 SLP140 60000 70014 T01670167 10183 20167 56005 $
03949KAQV AQV20160416060013404/16/16 06:00:31  5-MIN KAQV 161200Z AUTO VRB03KT 5SM BR BKN007 BKN012 17/17 A2995 350 100 700 VRB/03 RMK AO2 CIG 005V009 T01670167 $
03949KAQV AQV20160416060514004/16/16 06:05:31  5-MIN KAQV 161205Z AUTO 00000KT 5SM BR BKN007 BKN012 BKN029 17/17 A2995 340 96 700 000/00 RMK AO2 CIG 005V009 T01720167 $
03949KAQV AQV20160416061012804/16/16 06:10:31  5-MIN KAQV 161210Z AUTO VRB04KT 5SM BR SCT007 BKN012 BKN029 17/17 A2996 340 96 700 VRB/04 RMK AO2 T01720167 $
03949KAQV AQV20160416061512804/16/16 06:15:31  5-MIN KAQV 161215Z AUTO 00000KT 6SM BR SCT007 SCT012 OVC029 17/17 A2996 340 96 700 000/00 RMK AO2 T01720167 $
03949KAQV AQV20160416062012804/16/16 06:20:31  5-MIN KAQV 161220Z AUTO VRB03KT 6SM BR SCT007 BKN012 OVC029 17/17 A2996 340 96 700 VRB/03 RMK AO2 T01720167 $
03949KAQV AQV20160416062512804/16/16 06:25:31  5-MIN KAQV 161225Z AUTO 10003KT 6SM BR SCT007 BKN012 OVC029 17/17 A2996 340 96 700 090/03 RMK AO2 T01720167 $
03949KAQV AQV20160416063012804/16/16 06:30:31  5-MIN KAQV 161230Z AUTO 00000KT 6SM BR SCT007 BKN012 OVC029 17/17 A2997 330 96 700 000/00 RMK AO2 T01720167 $
03949KAQV AQV20160416063514004/16/16 06:35:31  5-MIN KAQV 161235Z AUTO VRB03KT 6SM BR BKN007 BKN014 OVC029 17/17 A2997 330 96 700 VRB/03 RMK AO2 CIG 005V011 T01720167 $
03949KAQV AQV20160416064014004/16/16 06:40:31  5-MIN KAQV 161240Z AUTO VRB03KT 6SM BR BKN009 BKN014 OVC029 17/17 A2997 330 96 700 VRB/03 RMK AO2 CIG 005V010 T01720167 $
03949KAQV AQV20160416064513004/16/16 06:45:31  5-MIN KAQV 161245Z AUTO VRB03KT 7SM BKN009 OVC014 17/17 A2998 320 96 700 VRB/03 RMK AO2 CIG 005V014 T01720167 $
03949KAQV AQV20160416065012004/16/16 06:50:31  5-MIN KAQV 161250Z AUTO 12005KT 7SM BKN010 OVC016 17/17 A2998 330 96 700 110/05 RMK AO2 CIG 005V014 $
03949KAQV AQV20160416065512504/16/16 06:55:31  5-MIN KAQV 161255Z AUTO VRB04KT 7SM SCT010 OVC016 17/17 A2998 320 96 700 VRB/04 RMK AO2 SLP149 T01720167 $
03949KAQV AQV20160416070011804/16/16 07:00:31  5-MIN KAQV 161300Z AUTO VRB04KT 8SM FEW008 OVC016 17/17 A2998 320 96 700 VRB/04 RMK AO2 T01720167 $
03949KAQV AQV20160416070511804/16/16 07:05:31  5-MIN KAQV 161305Z AUTO VRB04KT 8SM FEW010 OVC016 17/17 A2998 320 96 700 VRB/04 RMK AO2 T01720167 $
03949KAQV AQV20160416071011804/16/16 07:10:31  5-MIN KAQV 161310Z AUTO 00000KT 8SM FEW010 OVC016 18/17 A2998 320 96 800 000/00 RMK AO2 T01780172 $
03949KAQV AQV20160416071511104/16/16 07:15:31  5-MIN KAQV 161315Z AUTO VRB04KT 8SM OVC016 18/17 A2998 320 96 800 VRB/04 RMK AO2 T01780172 $
03949KAQV AQV20160416072011804/16/16 07:20:31  5-MIN KAQV 161320Z AUTO VRB03KT 8SM FEW009 OVC017 18/17 A2998 320 93 800 VRB/03 RMK AO2 T01780167 $
03949KAQV AQV20160416072511804/16/16 07:25:31  5-MIN KAQV 161325Z AUTO 00000KT 8SM FEW009 OVC017 18/17 A2999 320 93 800 000/00 RMK AO2 T01780167 $
03949KAQV AQV20160416073011104/16/16 07:30:31  5-MIN KAQV 161330Z AUTO VRB03KT 8SM OVC017 18/17 A2999 310 93 800 VRB/03 RMK AO2 T01780167 $
03949KAQV AQV20160416073511104/16/16 07:35:31  5-MIN KAQV 161335Z AUTO VRB05KT 9SM OVC015 18/17 A2999 310 93 800 VRB/05 RMK AO2 T01780167 $
03949KAQV AQV20160416074011804/16/16 07:40:31  5-MIN KAQV 161340Z AUTO VRB04KT 9SM BKN012 OVC017 18/17 A2999 310 93 700 VRB/04 RMK AO2 T01780167 $
03949KAQV AQV20160416074511804/16/16 07:45:31  5-MIN KAQV 161345Z AUTO VRB04KT 9SM FEW009 OVC015 18/17 A2999 310 93 700 VRB/04 RMK AO2 T01780167 $
03949KAQV AQV20160416075012504/16/16 07:50:31  5-MIN KAQV 161350Z AUTO 12007KT 9SM FEW009 OVC015 18/17 A2999 310 93 700 120/07 RMK AO2 SLP155 T01780167 $
03949KAQV AQV20160416075512504/16/16 07:55:31  5-MIN KAQV 161355Z AUTO VRB04KT 9SM BKN013 OVC018 18/17 A2999 310 93 700 VRB/04 RMK AO2 SLP155 T01780167 $
03949KAQV AQV20160416080011804/16/16 08:00:31  5-MIN KAQV 161400Z AUTO 12004KT 9SM BKN011 OVC018 18/17 A3000 310 93 700 110/04 RMK AO2 T01780167 $
03949KAQV AQV20160416080511804/16/16 08:05:31  5-MIN KAQV 161405Z AUTO VRB03KT 9SM BKN011 OVC017 18/17 A2999 310 93 700 VRB/03 RMK AO2 T01780167 $
03949KAQV AQV20160416081011804/16/16 08:10:31  5-MIN KAQV 161410Z AUTO VRB04KT 9SM BKN011 OVC017 18/17 A2999 310 93 700 VRB/04 RMK AO2 T01780167 $
03949KAQV AQV20160416081510104/16/16 08:15:31  5-MIN KAQV 161415Z AUTO 9SM OVC011 18/17 A2999 310 93 700 M /M RMK AO2 T01780167 $
03949KAQV AQV20160416082010204/16/16 08:20:31  5-MIN KAQV 161420Z AUTO 10SM OVC011 18/17 A2999 310 93 700 M /M RMK AO2 T01780167 $
03949KAQV AQV20160416082511204/16/16 08:25:31  5-MIN KAQV 161425Z AUTO VRB03KT 10SM OVC012 18/17 A2999 310 93 700 VRB/03 RMK AO2 T01780167 $
03949KAQV AQV20160416083011204/16/16 08:30:31  5-MIN KAQV 161430Z AUTO VRB05KT 10SM OVC012 18/17 A3000 310 93 700 VRB/05 RMK AO2 T01780167 $
03949KAQV AQV20160416083511904/16/16 08:35:31  5-MIN KAQV 161435Z AUTO 12006KT 10SM BKN012 OVC019 18/17 A3000 300 93 700 110/06 RMK AO2 T01780167 $
03949KAQV AQV20160416084011904/16/16 08:40:31  5-MIN KAQV 161440Z AUTO 00000KT 10SM BKN012 OVC019 18/17 A3000 300 93 700 000/00 RMK AO2 T01780167 $
03949KAQV AQV20160416084511904/16/16 08:45:31  5-MIN KAQV 161445Z AUTO VRB06KT 10SM BKN015 OVC019 18/17 A3000 300 93 700 VRB/06 RMK AO2 T01780167 $
03949KAQV AQV20160416085014804/16/16 08:50:31  5-MIN KAQV 161450Z AUTO 13007KT 090V160 10SM BKN015 OVC020 17/17 A3000 300 96 700 130/07 090V160 RMK AO2 SLP159 T01720167 51013 $
03949KAQV AQV20160416085513204/16/16 08:55:31  5-MIN KAQV 161455Z AUTO 15008KT 10SM BKN015 OVC020 17/17 A3001 300 96 700 140/08 RMK AO2 SLP159 T01720167 51013 $
03949KAQV AQV20160416090011204/16/16 09:00:31  5-MIN KAQV 161500Z AUTO VRB03KT 10SM OVC015 18/17 A3001 290 93 700 VRB/03 RMK AO2 T01780167 $
03949KAQV AQV20160416090511904/16/16 09:05:31  5-MIN KAQV 161505Z AUTO VRB04KT 10SM BKN015 OVC021 18/17 A3001 290 93 700 VRB/04 RMK AO2 T01780167 $
03949KAQV AQV20160416091011904/16/16 09:10:31  5-MIN KAQV 161510Z AUTO VRB06KT 10SM BKN015 OVC021 18/17 A3001 290 93 700 VRB/06 RMK AO2 T01780167 $
03949KAQV AQV20160416091511904/16/16 09:15:31  5-MIN KAQV 161515Z AUTO VRB04KT 10SM BKN015 OVC021 18/17 A3001 290 93 700 VRB/04 RMK AO2 T01780167 $
03949KAQV AQV20160416092011904/16/16 09:20:31  5-MIN KAQV 161520Z AUTO VRB04KT 10SM BKN015 OVC021 18/17 A3001 290 90 800 VRB/04 RMK AO2 T01830167 $
03949KAQV AQV20160416092511904/16/16 09:25:31  5-MIN KAQV 161525Z AUTO VRB04KT 10SM BKN018 OVC024 19/17 A3001 290 87 900 VRB/04 RMK AO2 T01890167 $
03949KAQV AQV20160416093012704/16/16 09:30:31  5-MIN KAQV 161530Z AUTO VRB04KT 10SM BKN018 BKN023 OVC042 21/17 A3001 290 81 1000 VRB/04 RMK AO2 T02060172 $
03949KAQV AQV20160416093512704/16/16 09:35:31  5-MIN KAQV 161535Z AUTO VRB05KT 10SM BKN017 BKN024 OVC042 21/17 A3001 290 81 1000 VRB/05 RMK AO2 T02060172 $
03949KAQV AQV20160416094014304/16/16 09:40:31  5-MIN KAQV 161540Z AUTO 11008KT 050V170 10SM SCT016 BKN022 OVC042 21/17 A3001 290 78 1000 110/08 050V170 RMK AO2 T02060167 $
03949KAQV AQV20160416094511704/16/16 09:45:31  5-MIN KAQV 161545Z AUTO 10SM SCT015 BKN021 OVC042 21/17 A3002 290 78 1000 M /M RMK AO2 T02060167 $
03949KAQV AQV20160416095013404/16/16 09:50:31  5-MIN KAQV 161550Z AUTO VRB05KT 10SM SCT017 BKN023 OVC042 21/17 A3002 290 78 1000 VRB/05 RMK AO2 SLP163 T02060167 $
03949KAQV AQV20160416095513404/16/16 09:55:31  5-MIN KAQV 161555Z AUTO VRB05KT 10SM BKN015 BKN023 OVC042 20/17 A3002 290 81 1000 VRB/05 RMK AO2 SLP163 T02000167 $
03949KAQV AQV20160416100012704/16/16 10:00:31  5-MIN KAQV 161600Z AUTO VRB05KT 10SM BKN015 BKN021 OVC042 21/17 A3002 290 78 1000 VRB/05 RMK AO2 T02060167 $
03949KAQV AQV20160416100512004/16/16 10:05:31  5-MIN KAQV 161605Z AUTO VRB04KT 10SM BKN017 OVC021 21/17 A3002 280 78 1000 VRB/04 RMK AO2 T02060167 $
03949KAQV AQV20160416101012004/16/16 10:10:31  5-MIN KAQV 161610Z AUTO VRB05KT 10SM BKN017 OVC023 21/17 A3002 280 75 1100 VRB/05 RMK AO2 T02110167 $
03949KAQV AQV20160416101512004/16/16 10:15:31  5-MIN KAQV 161615Z AUTO VRB05KT 10SM BKN017 OVC023 22/17 A3002 280 73 1200 VRB/05 RMK AO2 T02170167 $
03949KAQV AQV20160416102012004/16/16 10:20:31  5-MIN KAQV 161620Z AUTO 08009KT 10SM BKN017 OVC023 22/17 A3002 280 73 1200 080/09 RMK AO2 T02220172 $
03949KAQV AQV20160416102512004/16/16 10:25:31  5-MIN KAQV 161625Z AUTO VRB03KT 10SM BKN018 OVC025 21/17 A3002 280 75 1100 VRB/03 RMK AO2 T02110167 $
03949KAQV AQV20160416103011004/16/16 10:30:31  5-MIN KAQV 161630Z AUTO 10SM BKN018 OVC025 22/17 A3003 280 75 1200 M /M RMK AO2 T02170172 $
03949KAQV AQV20160416103512004/16/16 10:35:31  5-MIN KAQV 161635Z AUTO VRB05KT 10SM BKN018 OVC025 21/17 A3002 280 75 1100 VRB/05 RMK AO2 T02110167 $
03949KAQV AQV20160416104012004/16/16 10:40:31  5-MIN KAQV 161640Z AUTO VRB06KT 10SM BKN018 OVC025 21/17 A3002 280 75 1100 VRB/06 RMK AO2 T02110167 $
03949KAQV AQV20160416104512704/16/16 10:45:31  5-MIN KAQV 161645Z AUTO VRB06KT 10SM BKN018 BKN024 OVC031 22/17 A3002 280 73 1200 VRB/06 RMK AO2 T02170167 $
03949KAQV AQV20160416105013404/16/16 10:50:31  5-MIN KAQV 161650Z AUTO VRB04KT 10SM BKN020 BKN026 BKN031 22/17 A3002 280 70 1200 VRB/04 RMK AO2 SLP164 T02220167 $
03949KAQV AQV20160416105512704/16/16 10:55:31  5-MIN KAQV 161655Z AUTO VRB06KT 10SM SCT020 BKN029 23/17 A3002 280 68 1300 VRB/06 RMK AO2 SLP164 T02280167 $
03949KAQV AQV20160416110012704/16/16 11:00:31  5-MIN KAQV 161700Z AUTO VRB03KT 10SM FEW017 SCT023 OVC031 22/17 A3002 280 73 1200 VRB/03 RMK AO2 T02170167 $
03949KAQV AQV20160416110514904/16/16 11:05:31  5-MIN KAQV 161705Z AUTO 11009G14KT 060V150 10SM FEW021 SCT026 OVC033 22/17 A3002 280 70 1200 110/09G14 060V150 RMK AO2 T02220167 $
03949KAQV AQV20160416111011704/16/16 11:10:31  5-MIN KAQV 161710Z AUTO 10SM FEW021 SCT026 OVC033 22/17 A3002 290 70 1200 M /M RMK AO2 T02220167 $
03949KAQV AQV20160416111512004/16/16 11:15:31  5-MIN KAQV 161715Z AUTO VRB05KT 10SM SCT024 OVC031 22/17 A3002 290 73 1200 VRB/05 RMK AO2 T02170167 $
03949KAQV AQV20160416112012004/16/16 11:20:31  5-MIN KAQV 161720Z AUTO 00000KT 10SM SCT024 OVC031 22/17 A3001 290 73 1200 000/00 RMK AO2 T02170167 $
03949KAQV AQV20160416112512004/16/16 11:25:31  5-MIN KAQV 161725Z AUTO VRB06KT 10SM SCT024 OVC033 22/17 A3001 290 70 1200 VRB/06 RMK AO2 T02220167 $
03949KAQV AQV20160416113012004/16/16 11:30:31  5-MIN KAQV 161730Z AUTO VRB03KT 10SM SCT022 OVC033 22/17 A3002 290 73 1200 VRB/03 RMK AO2 T02170167 $
03949KAQV AQV20160416113514304/16/16 11:35:31  5-MIN KAQV 161735Z AUTO 11007KT 050V170 10SM FEW022 BKN030 OVC037 22/17 A3002 290 70 1200 110/07 050V170 RMK AO2 T02220167 $
03949KAQV AQV20160416114012704/16/16 11:40:31  5-MIN KAQV 161740Z AUTO VRB05KT 10SM FEW022 SCT030 OVC038 22/16 A3001 290 68 1200 VRB/05 RMK AO2 T02220161 $
03949KAQV AQV20160416114512004/16/16 11:45:31  5-MIN KAQV 161745Z AUTO 08005KT 10SM FEW024 OVC038 23/17 A3001 300 66 1400 080/05 RMK AO2 T02330167 $
03949KAQV AQV20160416115014504/16/16 11:50:31  5-MIN KAQV 161750Z AUTO 08006KT 10SM SCT024 OVC039 23/17 A3001 290 68 1300 080/06 RMK AO2 SLP161 T02280167 10233 20167 51019 $
03949KAQV AQV20160416115515204/16/16 11:55:31  5-MIN KAQV 161755Z AUTO VRB06KT 10SM FEW024 SCT032 OVC041 23/17 A3001 290 68 1300 VRB/06 RMK AO2 SLP161 T02280167 10233 20167 51019 $
03949KAQV AQV20160416120012004/16/16 12:00:31  5-MIN KAQV 161800Z AUTO VRB06KT 10SM SCT025 OVC041 22/16 A3001 290 68 1200 VRB/06 RMK AO2 T02220161 $
03949KAQV AQV20160416120512004/16/16 12:05:31  5-MIN KAQV 161805Z AUTO VRB05KT 10SM SCT025 OVC041 22/17 A3001 300 70 1200 VRB/05 RMK AO2 T02220167 $
03949KAQV AQV20160416121012704/16/16 12:10:31  5-MIN KAQV 161810Z AUTO VRB06KT 10SM SCT023 SCT028 OVC041 23/17 A3001 300 68 1300 VRB/06 RMK AO2 T02280167 $
03949KAQV AQV20160416121512004/16/16 12:15:31  5-MIN KAQV 161815Z AUTO VRB05KT 10SM BKN025 OVC042 23/17 A3001 300 68 1300 VRB/05 RMK AO2 T02280167 $
03949KAQV AQV20160416122013604/16/16 12:20:31  5-MIN KAQV 161820Z AUTO 09007KT 050V150 10SM BKN025 OVC042 22/17 A3001 300 70 1200 090/07 050V150 RMK AO2 T02220167 $
03949KAQV AQV20160416122512004/16/16 12:25:31  5-MIN KAQV 161825Z AUTO VRB05KT 10SM BKN025 OVC043 22/16 A3001 300 68 1200 VRB/05 RMK AO2 T02220161 $
03949KAQV AQV20160416123012704/16/16 12:30:31  5-MIN KAQV 161830Z AUTO 00000KT 10SM BKN025 BKN034 OVC043 22/17 A3001 300 70 1200 000/00 RMK AO2 T02220167 $
03949KAQV AQV20160416123512704/16/16 12:35:31  5-MIN KAQV 161835Z AUTO 08008KT 10SM SCT025 BKN031 OVC043 22/17 A3001 300 70 1200 080/08 RMK AO2 T02220167 $
03949KAQV AQV20160416124012704/16/16 12:40:31  5-MIN KAQV 161840Z AUTO 08007KT 10SM SCT025 BKN029 OVC045 22/17 A3001 300 70 1200 080/07 RMK AO2 T02220167 $
03949KAQV AQV20160416124512704/16/16 12:45:31  5-MIN KAQV 161845Z AUTO VRB06KT 10SM BKN022 BKN033 OVC045 22/17 A3000 300 70 1300 VRB/06 RMK AO2 T02220167 $
03949KAQV AQV20160416125011704/16/16 12:50:31  5-MIN KAQV 161850Z AUTO VRB05KT 10SM SCT022 BKN033 OVC045 23/17 A3000 300 68 1300 VRB/05 RMK AO2 $
03949KAQV AQV20160416125512704/16/16 12:55:31  5-MIN KAQV 161855Z AUTO VRB05KT 10SM SCT022 OVC045 23/17 A3000 300 66 1400 VRB/05 RMK AO2 SLP156 T02330167 $
03949KAQV AQV20160416130013604/16/16 13:00:31  5-MIN KAQV 161900Z AUTO 15007KT 120V200 10SM SCT022 OVC046 23/17 A3000 300 66 1400 150/07 120V200 RMK AO2 T02330167 $
03949KAQV AQV20160416130512004/16/16 13:05:31  5-MIN KAQV 161905Z AUTO VRB06KT 10SM SCT023 OVC046 24/17 A3000 310 63 1500 VRB/06 RMK AO2 T02440172 $
03949KAQV AQV20160416131013604/16/16 13:10:31  5-MIN KAQV 161910Z AUTO 08007KT 050V110 10SM SCT023 OVC046 23/17 A2999 310 66 1400 080/07 050V110 RMK AO2 T02330167 $
03949KAQV AQV20160416131512004/16/16 13:15:31  5-MIN KAQV 161915Z AUTO VRB05KT 10SM SCT023 BKN046 23/17 A2999 310 66 1400 VRB/05 RMK AO2 T02330167 $
03949KAQV AQV20160416132011004/16/16 13:20:31  5-MIN KAQV 161920Z AUTO 10SM SCT023 BKN046 24/17 A2999 310 63 1500 M /M RMK AO2 T02390167 $
03949KAQV AQV20160416132512004/16/16 13:25:31  5-MIN KAQV 161925Z AUTO 07007KT 10SM SCT025 BKN046 23/17 A2999 310 66 1400 070/07 RMK AO2 T02330167 $
03949KAQV AQV20160416133012704/16/16 13:30:31  5-MIN KAQV 161930Z AUTO VRB05KT 10SM SCT025 SCT030 BKN046 23/16 A2999 310 65 1300 VRB/05 RMK AO2 T02280161 $
03949KAQV AQV20160416133512704/16/16 13:35:31  5-MIN KAQV 161935Z AUTO VRB05KT 10SM SCT025 SCT033 BKN044 23/16 A2999 310 65 1300 VRB/05 RMK AO2 T02280161 $
03949KAQV AQV20160416134012704/16/16 13:40:31  5-MIN KAQV 161940Z AUTO VRB06KT 10SM SCT025 SCT035 BKN044 23/17 A2999 310 66 1400 VRB/06 RMK AO2 T02330167 $
03949KAQV AQV20160416134512704/16/16 13:45:31  5-MIN KAQV 161945Z AUTO VRB05KT 10SM FEW025 BKN035 OVC044 23/17 A2999 310 66 1400 VRB/05 RMK AO2 T02330167 $
03949KAQV AQV20160416135012404/16/16 13:50:31  5-MIN KAQV 161950Z AUTO 10SM FEW025 BKN035 OVC046 24/17 A2999 310 63 1500 M /M RMK AO2 SLP152 T02390167 $
03949KAQV AQV20160416135513404/16/16 13:55:31  5-MIN KAQV 161955Z AUTO 09009KT 10SM SCT027 BKN040 OVC048 23/17 A2999 310 66 1400 080/09 RMK AO2 SLP154 T02330167 $
03949KAQV AQV20160416140014304/16/16 14:00:31  5-MIN KAQV 162000Z AUTO 08008KT 050V130 10SM BKN027 BKN038 OVC048 23/17 A2999 310 68 1300 080/08 050V130 RMK AO2 T02280167 $
03949KAQV AQV20160416140512704/16/16 14:05:31  5-MIN KAQV 162005Z AUTO VRB05KT 10SM SCT027 BKN038 OVC048 23/17 A2999 310 68 1300 VRB/05 RMK AO2 T02280167 $
03949KAQV AQV20160416141012704/16/16 14:10:31  5-MIN KAQV 162010Z AUTO 07005KT 10SM FEW026 SCT032 BKN041 24/17 A2999 320 66 1500 070/05 RMK AO2 T02390172 $
03949KAQV AQV20160416141513304/16/16 14:15:31  5-MIN KAQV 162015Z AUTO 08009G14KT 10SM SCT026 BKN039 BKN050 24/17 A2998 320 61 1500 070/09G14 RMK AO2 T02440167 $
03949KAQV AQV20160416142014904/16/16 14:20:31  5-MIN KAQV 162020Z AUTO 08007G15KT 050V120 10SM SCT026 SCT037 BKN050 23/17 A2998 320 66 1400 070/07G15 050V120 RMK AO2 T02330167 $
03949KAQV AQV20160416142513304/16/16 14:25:31  5-MIN KAQV 162025Z AUTO 10004G15KT 10SM FEW026 FEW037 BKN050 23/17 A2998 320 66 1400 090/04G15 RMK AO2 T02330167 $
03949KAQV AQV20160416143012004/16/16 14:30:31  5-MIN KAQV 162030Z AUTO 07006KT 10SM SCT028 BKN050 24/17 A2998 320 63 1500 070/06 RMK AO2 T02390167 $
03949KAQV AQV20160416143512704/16/16 14:35:31  5-MIN KAQV 162035Z AUTO VRB04KT 10SM SCT028 BKN035 BKN050 24/17 A2998 320 63 1500 VRB/04 RMK AO2 T02390167 $
03949KAQV AQV20160416144012704/16/16 14:40:31  5-MIN KAQV 162040Z AUTO VRB06KT 10SM SCT028 BKN035 BKN055 23/17 A2998 320 66 1400 VRB/06 RMK AO2 T02330167 $
03949KAQV AQV20160416144512704/16/16 14:45:31  5-MIN KAQV 162045Z AUTO VRB04KT 10SM SCT030 SCT041 BKN055 23/17 A2998 320 66 1400 VRB/04 RMK AO2 T02330167 $
03949KAQV AQV20160416145014004/16/16 14:50:31  5-MIN KAQV 162050Z AUTO VRB06KT 10SM FEW030 SCT041 BKN055 25/17 A2998 320 61 1600 VRB/06 RMK AO2 SLP149 T02500172 50001 $
03949KAQV AQV20160416145514004/16/16 14:55:31  5-MIN KAQV 162055Z AUTO VRB05KT 10SM SCT030 SCT040 BKN055 24/16 A2998 320 59 1500 VRB/05 RMK AO2 SLP148 T02440161 50001 $
03949KAQV AQV20160416150012704/16/16 15:00:31  5-MIN KAQV 162100Z AUTO VRB05KT 10SM SCT030 SCT040 BKN060 24/16 A2998 330 59 1500 VRB/05 RMK AO2 T02440161 $
03949KAQV AQV20160416150512004/16/16 15:05:31  5-MIN KAQV 162105Z AUTO VRB06KT 10SM FEW030 SCT060 24/16 A2997 330 61 1500 VRB/06 RMK AO2 T02390161 $
03949KAQV AQV20160416151012004/16/16 15:10:31  5-MIN KAQV 162110Z AUTO VRB04KT 10SM SCT030 SCT055 24/17 A2997 330 61 1500 VRB/04 RMK AO2 T02440167 $
03949KAQV AQV20160416151511004/16/16 15:15:31  5-MIN KAQV 162115Z AUTO 10SM SCT030 BKN055 24/17 A2998 320 63 1500 M /M RMK AO2 T02390167 $
03949KAQV AQV20160416152012004/16/16 15:20:31  5-MIN KAQV 162120Z AUTO VRB05KT 10SM FEW028 BKN055 23/17 A2997 330 68 1300 VRB/05 RMK AO2 T02280167 $
03949KAQV AQV20160416152512704/16/16 15:25:31  5-MIN KAQV 162125Z AUTO VRB05KT 10SM FEW028 FEW033 BKN055 23/17 A2997 330 68 1300 VRB/05 RMK AO2 T02280167 $
03949KAQV AQV20160416153014304/16/16 15:30:31  5-MIN KAQV 162130Z AUTO 06008KT 360V100 10SM SCT027 SCT032 BKN055 24/17 A2997 330 61 1500 050/08 360V100 RMK AO2 T02440167 $
03949KAQV AQV20160416153514904/16/16 15:35:31  5-MIN KAQV 162135Z AUTO 08009G15KT 040V110 10SM SCT027 BKN035 BKN042 23/17 A2997 330 66 1400 070/09G15 040V110 RMK AO2 T02330167 $
03949KAQV AQV20160416154013304/16/16 15:40:31  5-MIN KAQV 162140Z AUTO 07006G15KT 10SM FEW027 SCT033 BKN055 23/17 A2997 330 66 1400 070/06G15 RMK AO2 T02330167 $
03949KAQV AQV20160416154512704/16/16 15:45:31  5-MIN KAQV 162145Z AUTO 08007KT 10SM SCT027 BKN037 BKN055 24/17 A2997 330 61 1500 080/07 RMK AO2 T02440167 $
03949KAQV AQV20160416155013304/16/16 15:50:31  5-MIN KAQV 162150Z AUTO 08007G16KT 10SM SCT027 BKN033 24/17 A2997 330 63 1500 070/07G16 RMK AO2 SLP146 T02390167 $
03949KAQV AQV20160416155513304/16/16 15:55:31  5-MIN KAQV 162155Z AUTO 07007G16KT 10SM SCT029 BKN034 23/17 A2997 330 66 1400 070/07G16 RMK AO2 SLP147 T02330167 $
03949KAQV AQV20160416160012004/16/16 16:00:31  5-MIN KAQV 162200Z AUTO 07009KT 10SM FEW027 BKN036 23/17 A2997 330 66 1400 070/09 RMK AO2 T02330167 $
03949KAQV AQV20160416160512004/16/16 16:05:31  5-MIN KAQV 162205Z AUTO VRB06KT 10SM SCT029 SCT036 24/17 A2997 330 63 1500 VRB/06 RMK AO2 T02390167 $
03949KAQV AQV20160416161014304/16/16 16:10:31  5-MIN KAQV 162210Z AUTO 09008KT 050V130 10SM SCT029 SCT036 BKN060 24/17 A2997 330 63 1500 090/08 050V130 RMK AO2 T02390167 $
03949KAQV AQV20160416161512704/16/16 16:15:31  5-MIN KAQV 162215Z AUTO VRB04KT 10SM FEW029 SCT034 BKN060 23/17 A2997 330 66 1400 VRB/04 RMK AO2 T02330167 $
03949KAQV AQV20160416162012704/16/16 16:20:31  5-MIN KAQV 162220Z AUTO VRB03KT 10SM FEW030 FEW036 SCT060 23/17 A2997 330 66 1400 VRB/03 RMK AO2 T02330167 $
03949KAQV AQV20160416162512004/16/16 16:25:31  5-MIN KAQV 162225Z AUTO VRB06KT 10SM FEW030 FEW060 23/17 A2997 330 66 1400 VRB/06 RMK AO2 T02330167 $
03949KAQV AQV20160416163012704/16/16 16:30:31  5-MIN KAQV 162230Z AUTO 08006KT 10SM FEW027 FEW032 FEW060 24/17 A2998 330 63 1500 080/06 RMK AO2 T02390167 $
03949KAQV AQV20160416163513604/16/16 16:35:31  5-MIN KAQV 162235Z AUTO 09008KT 070V130 10SM FEW029 FEW060 24/17 A2998 320 63 1500 090/08 070V130 RMK AO2 T02390167 $
03949KAQV AQV20160416164012004/16/16 16:40:31  5-MIN KAQV 162240Z AUTO 08008KT 10SM FEW029 SCT035 23/17 A2998 320 66 1400 070/08 RMK AO2 T02330167 $
03949KAQV AQV20160416164514204/16/16 16:45:31  5-MIN KAQV 162245Z AUTO 07008G15KT 050V110 10SM FEW031 BKN038 23/17 A2998 320 66 1400 070/08G15 050V110 RMK AO2 T02330167 $
03949KAQV AQV20160416165013304/16/16 16:50:31  5-MIN KAQV 162250Z AUTO 09008G16KT 10SM FEW029 BKN036 23/17 A2998 320 68 1300 080/08G16 RMK AO2 SLP150 T02280167 $
03949KAQV AQV20160416165514904/16/16 16:55:31  5-MIN KAQV 162255Z AUTO 08007G16KT 040V120 10SM FEW029 SCT038 23/17 A2998 320 68 1300 080/07G16 040V120 RMK AO2 SLP150 T02280167 $
03949KAQV AQV20160416170012704/16/16 17:00:31  5-MIN KAQV 162300Z AUTO VRB04KT 10SM FEW025 SCT030 SCT037 23/17 A2998 320 68 1300 VRB/04 RMK AO2 T02280167 $
03949KAQV AQV20160416170511004/16/16 17:05:31  5-MIN KAQV 162305Z AUTO 10SM FEW025 SCT035 23/17 A2998 320 70 1300 M /M RMK AO2 T02280172 $
03949KAQV AQV20160416171013304/16/16 17:10:31  5-MIN KAQV 162310Z AUTO 07010G16KT 10SM FEW025 FEW030 SCT037 23/17 A2998 320 68 1300 070/10G16 RMK AO2 T02280167 $
03949KAQV AQV20160416171514904/16/16 17:15:31  5-MIN KAQV 162315Z AUTO 08008G17KT 050V110 10SM FEW024 SCT029 SCT035 22/17 A2999 310 70 1300 080/08G17 050V110 RMK AO2 T02220167 $
03949KAQV AQV20160416172014204/16/16 17:20:31  5-MIN KAQV 162320Z AUTO 08009G17KT 050V120 10SM FEW024 BKN060 22/17 A2999 310 70 1300 080/09G17 050V120 RMK AO2 T02220167 $
03949KAQV AQV20160416172512704/16/16 17:25:31  5-MIN KAQV 162325Z AUTO VRB06KT 10SM FEW024 FEW029 BKN060 22/17 A2999 310 70 1300 VRB/06 RMK AO2 T02220167 $
03949KAQV AQV20160418112014004/18/16 11:20:31  5-MIN KAQV 181720Z AUTO 00000KT 2 1/2SM RA BR FEW010 BKN055 OVC090 18/18 A3016 160 100 600 000/00 RMK AO2 P0006 T01830183
03949KAQV AQV20160418112514004/18/16 11:25:31  5-MIN KAQV 181725Z AUTO VRB03KT 2 1/2SM RA BR SCT005 BKN055 OVC075 18/18 A3016 160 100 600 VRB/03 RMK AO2 P0006 T01830183
03949KAQV AQV20160418113013904/18/16 11:30:31  5-MIN KAQV 181730Z AUTO 00000KT 2 1/2SM RA BR SCT005 BKN016 OVC070 19/18 A3015 160 97 700 000/00 RMK AO2 P0008 T01890183
03949KAQV AQV20160418113514004/18/16 11:35:31  5-MIN KAQV 181735Z AUTO 00000KT 2 1/2SM RA BR BKN005 BKN016 OVC050 18/18 A3015 160 100 600 000/00 RMK AO2 P0009 T01830183
03949KAQV AQV20160418114013904/18/16 11:40:31  5-MIN KAQV 181740Z AUTO 00000KT 2 1/2SM RA BR BKN005 BKN016 OVC048 19/18 A3015 170 97 700 000/00 RMK AO2 P0010 T01890183
03949KAQV AQV20160418114513904/18/16 11:45:31  5-MIN KAQV 181745Z AUTO VRB03KT 2 1/2SM RA BR BKN005 BKN011 OVC044 19/18 A3015 170 97 700 VRB/03 RMK AO2 P0011 T01890183
03949KAQV AQV20160418115016604/18/16 11:50:31  5-MIN KAQV 181750Z AUTO 00000KT 2SM RA BR BKN005 BKN011 OVC026 19/18 A3015 160 97 700 000/00 RMK AO2 SLP208 P0013 60036 T01890183 10189 20172 53008
03949KAQV AQV20160418115515904/18/16 11:55:31  5-MIN KAQV 181755Z AUTO VRB03KT 2SM RA BR BKN005 OVC024 19/18 A3015 170 97 700 VRB/03 RMK AO2 SLP207 P0015 60038 T01890183 10189 20172 53008
03949KAQV AQV20160418120012804/18/16 12:00:31  5-MIN KAQV 181800Z AUTO 00000KT 2SM RA BR BKN005 OVC019 19/18 A3015 170 97 700 000/00 RMK AO2 P0001 T01890183
03949KAQV AQV20160418120512804/18/16 12:05:31  5-MIN KAQV 181805Z AUTO 07004KT 2SM RA BR BKN005 OVC022 19/18 A3014 170 97 700 070/04 RMK AO2 P0002 T01890183
03949KAQV AQV20160418121012904/18/16 12:10:31  5-MIN KAQV 181810Z AUTO 09003KT 3SM -RA BR BKN005 OVC027 19/18 A3014 170 97 700 080/03 RMK AO2 P0002 T01890183
03949KAQV AQV20160418121512904/18/16 12:15:31  5-MIN KAQV 181815Z AUTO 07004KT 4SM -RA BR BKN005 OVC030 19/18 A3014 170 97 700 070/04 RMK AO2 P0003 T01890183
03949KAQV AQV20160418122012904/18/16 12:20:31  5-MIN KAQV 181820Z AUTO 08003KT 4SM -RA BR BKN005 OVC031 19/18 A3014 170 97 700 070/03 RMK AO2 P0003 T01890183
03949KAQV AQV20160418122513604/18/16 12:25:31  5-MIN KAQV 181825Z AUTO 00000KT 4SM -RA BR BKN005 BKN036 OVC047 19/18 A3014 170 97 700 000/00 RMK AO2 P0003 T01890183
03949KAQV AQV20160418123013504/18/16 12:30:31  5-MIN KAQV 181830Z AUTO 00000KT 3SM RA BR BKN005 BKN034 OVC047 19/18 A3014 170 97 700 000/00 RMK AO2 P0004 T01890183
03949KAQV AQV20160418123514004/18/16 12:35:31  5-MIN KAQV 181835Z AUTO 00000KT 2 1/2SM -RA BR BKN005 BKN032 OVC047 19/18 A3014 180 97 700 000/00 RMK AO2 P0005 T01890183
03949KAQV AQV20160418124012904/18/16 12:40:31  5-MIN KAQV 181840Z AUTO 05003KT 3SM -RA BR BKN005 OVC033 19/18 A3014 180 97 700 050/03 RMK AO2 P0005 T01890183
03949KAQV AQV20160418124512904/18/16 12:45:31  5-MIN KAQV 181845Z AUTO VRB03KT 4SM -RA BR BKN005 OVC020 19/18 A3014 180 97 700 VRB/03 RMK AO2 P0006 T01890183
03949KAQV AQV20160418125014304/18/16 12:50:31  5-MIN KAQV 181850Z AUTO 06003KT 3SM -RA BR BKN005 BKN016 OVC020 19/18 A3014 180 97 700 060/03 RMK AO2 SLP203 P0006 T01890183
03949KAQV AQV20160418125513604/18/16 12:55:31  5-MIN KAQV 181855Z AUTO 00000KT 4SM -RA BR BKN005 OVC016 19/18 A3014 170 97 700 000/00 RMK AO2 SLP204 P0007 T01890183
03949KAQV AQV20160418130013304/18/16 13:00:31  5-MIN KAQV 181900Z AUTO 07004KT 1 3/4SM +RA BR BKN005 OVC016 19/18 A3013 180 97 700 060/04 RMK AO2 P0004 T01890183
03949KAQV AQV20160418130514004/18/16 13:05:31  5-MIN KAQV 181905Z AUTO 00000KT 1 3/4SM -RA BR BKN005 BKN018 OVC030 19/18 A3013 180 97 700 000/00 RMK AO2 P0004 T01890183
03949KAQV AQV20160418131014004/18/16 13:10:31  5-MIN KAQV 181910Z AUTO 07003KT 2 1/2SM RA BR SCT005 BKN020 OVC032 19/19 A3013 180 100 700 070/03 RMK AO2 P0005 T01890189
03949KAQV AQV20160418131514004/18/16 13:15:31  5-MIN KAQV 181915Z AUTO 07003KT 2 1/2SM RA BR BKN005 BKN021 OVC032 19/19 A3013 180 100 700 070/03 RMK AO2 P0007 T01890189
03949KAQV AQV20160418132014004/18/16 13:20:31  5-MIN KAQV 181920Z AUTO VRB03KT 2 1/2SM RA BR SCT005 BKN008 OVC032 19/19 A3013 180 100 700 VRB/03 RMK AO2 P0008 T01890189
03949KAQV AQV20160418132514004/18/16 13:25:31  5-MIN KAQV 181925Z AUTO VRB03KT 2 1/2SM RA BR SCT005 BKN025 OVC045 19/19 A3013 180 100 700 VRB/03 RMK AO2 P0009 T01890189
03949KAQV AQV20160418133014104/18/16 13:30:31  5-MIN KAQV 181930Z AUTO VRB03KT 2 1/2SM -RA BR SCT005 BKN032 OVC048 19/19 A3013 180 100 700 VRB/03 RMK AO2 P0009 T01890189
03949KAQV AQV20160418133513604/18/16 13:35:31  5-MIN KAQV 181935Z AUTO VRB04KT 3SM -RA BR SCT005 BKN032 OVC060 19/19 A3013 190 97 800 VRB/04 RMK AO2 P0010 T01940189
03949KAQV AQV20160418134014104/18/16 13:40:31  5-MIN KAQV 181940Z AUTO 07003KT 2 1/2SM +RA BR SCT006 BKN021 OVC060 19/19 A3012 190 100 700 060/03 RMK AO2 P0012 T01890189
03949KAQV AQV20160418134513604/18/16 13:45:31  5-MIN KAQV 181945Z AUTO 00000KT 3SM -RA BR SCT006 BKN021 OVC060 19/19 A3012 190 97 800 000/00 RMK AO2 P0012 T01940189
03949KAQV AQV20160418135012604/18/16 13:50:31  5-MIN KAQV 181950Z AUTO VRB03KT 4SM -RA BR BKN006 BKN023 OVC046 19/19 A3012 190 97 800 VRB/03 RMK AO2 P0012
03949KAQV AQV20160418135514204/18/16 13:55:31  5-MIN KAQV 181955Z AUTO 00000KT 3SM RA BR BKN006 BKN023 OVC046 19/19 A3013 190 97 800 000/00 RMK AO2 SLP200 P0014 T01940189
03949KAQV AQV20160418140014004/18/16 14:00:31  5-MIN KAQV 182000Z AUTO 00000KT 1 3/4SM +RA BR BKN005 BKN021 OVC046 19/19 A3012 190 97 800 000/00 RMK AO2 P0002 T01940189
03949KAQV AQV20160418140513904/18/16 14:05:31  5-MIN KAQV 182005Z AUTO VRB03KT 1 3/4SM RA BR SCT005 BKN021 OVC027 19/19 A3012 190 97 800 VRB/03 RMK AO2 P0003 T01940189
03949KAQV AQV20160418141013904/18/16 14:10:31  5-MIN KAQV 182010Z AUTO VRB04KT 2 1/2SM RA BR SCT005 BKN022 OVC055 19/19 A3012 190 97 800 VRB/04 RMK AO2 P0005 T01940189
03949KAQV AQV20160418141513604/18/16 14:15:31  5-MIN KAQV 182015Z AUTO VRB03KT 3SM -RA BR SCT005 BKN022 OVC055 19/19 A3012 190 97 800 VRB/03 RMK AO2 P0006 T01940189
03949KAQV AQV20160418142013504/18/16 14:20:31  5-MIN KAQV 182020Z AUTO 00000KT 3SM RA BR FEW005 BKN024 OVC055 19/19 A3012 190 97 800 000/00 RMK AO2 P0006 T01940189
03949KAQV AQV20160418142513504/18/16 14:25:31  5-MIN KAQV 182025Z AUTO 12003KT 3SM RA BR SCT007 BKN024 OVC032 19/19 A3012 190 97 800 120/03 RMK AO2 P0008 T01940189
03949KAQV AQV20160418143014004/18/16 14:30:31  5-MIN KAQV 182030Z AUTO VRB03KT 1 3/4SM +RA BR FEW007 BKN026 OVC034 19/19 A3011 200 97 800 VRB/03 RMK AO2 P0012 T01940189
03949KAQV AQV20160418143513904/18/16 14:35:31  5-MIN KAQV 182035Z AUTO 00000KT 1 1/2SM RA BR FEW007 BKN024 OVC050 19/19 A3011 200 97 800 000/00 RMK AO2 P0014 T01940189
03949KAQV AQV20160418144012804/18/16 14:40:31  5-MIN KAQV 182040Z AUTO VRB03KT 2SM RA BR SCT007 OVC024 19/19 A3011 200 97 800 VRB/03 RMK AO2 P0015 T01940189
03949KAQV AQV20160418144513204/18/16 14:45:31  5-MIN KAQV 182045Z AUTO 13003KT 1 3/4SM RA BR BKN006 OVC023 19/19 A3011 200 97 800 130/03 RMK AO2 P0018 T01940189
03949KAQV AQV20160418145013004/18/16 14:50:31  5-MIN KAQV 182050Z AUTO 00000KT 1 1/4SM +RA BR BKN006 BKN010 OVC022 19/19 A3011 200 97 800 000/00 RMK AO2 P0022
03949KAQV AQV20160418145515804/18/16 14:55:31  5-MIN KAQV 182055Z AUTO 00000KT 1 1/4SM RA BR BKN004 BKN010 OVC022 19/19 A3011 200 97 800 000/00 RMK AO2 SLP193 P0024 60047 T01940189 58010
03949KAQV AQV20160418150014004/18/16 15:00:31  5-MIN KAQV 182100Z AUTO 00000KT 1 3/4SM -RA BR BKN004 BKN008 OVC012 19/19 A3010 210 97 800 000/00 RMK AO2 P0000 T01940189
03949KAQV AQV20160418150512204/18/16 15:05:31  5-MIN KAQV 182105Z AUTO 14003KT 3SM -RA BR OVC006 19/19 A3010 210 97 800 140/03 RMK AO2 P0001 T01940189
03949KAQV AQV20160418151012904/18/16 15:10:31  5-MIN KAQV 182110Z AUTO 00000KT 3SM -RA BR BKN004 OVC008 19/19 A3010 210 97 800 000/00 RMK AO2 P0001 T01940189
03949KAQV AQV20160418151512904/18/16 15:15:31  5-MIN KAQV 182115Z AUTO VRB03KT 3SM -RA BR BKN006 OVC012 19/19 A3009 220 97 800 VRB/03 RMK AO2 P0002 T01940189
03949KAQV AQV20160418152013504/18/16 15:20:31  5-MIN KAQV 182120Z AUTO 12004KT 3SM RA BR BKN004 BKN008 OVC033 19/19 A3009 220 97 800 110/04 RMK AO2 P0003 T01940189
03949KAQV AQV20160418152513504/18/16 15:25:31  5-MIN KAQV 182125Z AUTO VRB04KT 3SM RA BR BKN004 BKN008 OVC033 19/19 A3008 230 97 800 VRB/04 RMK AO2 P0004 T01940189
03949KAQV AQV20160418153012804/18/16 15:30:31  5-MIN KAQV 182130Z AUTO VRB05KT 3SM RA BR BKN006 OVC031 19/19 A3008 230 97 800 VRB/05 RMK AO2 P0005 T01940189
03949KAQV AQV20160418153513504/18/16 15:35:31  5-MIN KAQV 182135Z AUTO VRB05KT 3SM RA BR BKN006 BKN031 OVC065 19/19 A3008 230 97 800 VRB/05 RMK AO2 P0006 T01940189
03949KAQV AQV20160418154013304/18/16 15:40:31  5-MIN KAQV 182140Z AUTO VRB04KT 2 1/2SM RA BR BKN004 OVC033 19/19 A3007 240 100 900 VRB/04 RMK AO2 P0007 T01940194
03949KAQV AQV20160418154514104/18/16 15:45:31  5-MIN KAQV 182145Z AUTO VRB05KT 2 1/2SM -RA BR BKN004 BKN033 OVC043 19/19 A3006 240 100 900 VRB/05 RMK AO2 P0007 T01940194
03949KAQV AQV20160418155015404/18/16 15:50:31  5-MIN KAQV 182150Z AUTO VRB04KT 2 1/2SM RA BR BKN004 BKN043 OVC060 19/19 A3006 250 100 900 VRB/04 RMK AO2 PRESFR SLP176 P0009 T01940194
03949KAQV AQV20160418155514404/18/16 15:55:31  5-MIN KAQV 182155Z AUTO VRB04KT 3SM -RA BR BKN004 BKN044 OVC060 19/19 A3006 250 100 900 VRB/04 RMK AO2 SLP176 P0009 T01940194
03949KAQV AQV20160418160013704/18/16 16:00:31  5-MIN KAQV 182200Z AUTO VRB04KT 3SM -RA BR BKN004 BKN050 OVC070 19/19 A3005 250 100 900 VRB/04 RMK AO2 P0001 T01940194
03949KAQV AQV20160418160513604/18/16 16:05:31  5-MIN KAQV 182205Z AUTO VRB06KT 3SM -RA BR BKN004 BKN045 OVC060 19/19 A3005 260 97 900 VRB/06 RMK AO2 P0001 T01940189
03949KAQV AQV20160418161013704/18/16 16:10:31  5-MIN KAQV 182210Z AUTO VRB06KT 3SM -RA BR BKN004 BKN048 OVC060 19/19 A3005 260 100 900 VRB/06 RMK AO2 P0002 T01940194
03949KAQV AQV20160418161512904/18/16 16:15:31  5-MIN KAQV 182215Z AUTO VRB06KT 3SM RA BR BKN005 OVC060 19/19 A3004 260 100 900 VRB/06 RMK AO2 P0003 T01940194
03949KAQV AQV20160418162015104/18/16 16:20:31  5-MIN KAQV 182220Z AUTO 08008KT 040V120 3SM RA BR BKN005 OVC060 19/19 A3003 270 97 900 080/08 040V120 RMK AO2 PRESFR P0004 T01940189
03949KAQV AQV20160418162513404/18/16 16:25:31  5-MIN KAQV 182225Z AUTO VRB06G16KT 3SM RA BR OVC005 19/19 A3003 280 97 900 VRB/06G16 RMK AO2 PRESFR P0005 T01940189
03949KAQV AQV20160418163015104/18/16 16:30:31  5-MIN KAQV 182230Z AUTO 07009G16KT 360V090 4SM -RA BR OVC006 19/19 A3002 280 97 900 060/09G16 360V090 RMK AO2 PRESFR P0005 T01940189
03949KAQV AQV20160418163512904/18/16 16:35:31  5-MIN KAQV 182235Z AUTO VRB06G16KT 4SM -RA BR OVC006 19/19 A3003 280 100 900 VRB/06G16 RMK AO2 P0006 T01940194
03949KAQV AQV20160418164012304/18/16 16:40:31  5-MIN KAQV 182240Z AUTO VRB03KT 5SM -RA BR OVC006 19/19 A3004 270 100 900 VRB/03 RMK AO2 P0006 T01940194
03949KAQV AQV20160418164512204/18/16 16:45:31  5-MIN KAQV 182245Z AUTO VRB04KT 6SM -RA BR OVC006 19/19 A3004 270 97 900 VRB/04 RMK AO2 P0006 T01940189
03949KAQV AQV20160418165013804/18/16 16:50:31  5-MIN KAQV 182250Z AUTO VRB03KT 7SM -RA OVC006 19/19 A3004 260 97 900 VRB/03 RMK AO2 CIG 004V011 SLP172 P0006 T01940189
03949KAQV AQV20160418165514504/18/16 16:55:31  5-MIN KAQV 182255Z AUTO VRB05KT 7SM -RA BKN006 OVC010 19/19 A3004 260 97 900 VRB/05 RMK AO2 CIG 004V009 SLP172 P0007 T01940189
03949KAQV AQV20160418170013804/18/16 17:00:31  5-MIN KAQV 182300Z AUTO VRB04KT 8SM -RA BKN006 OVC013 19/19 A3004 260 97 900 VRB/04 RMK AO2 CIG 004V010 P0000 T01940189
03949KAQV AQV20160418170513804/18/16 17:05:31  5-MIN KAQV 182305Z AUTO VRB05KT 8SM -RA BKN008 OVC013 19/19 A3003 270 97 900 VRB/05 RMK AO2 CIG 004V010 P0000 T01940189
03949KAQV AQV20160418171012604/18/16 17:10:31  5-MIN KAQV 182310Z AUTO VRB06KT 9SM -RA BKN010 OVC015 19/19 A3004 270 97 900 VRB/06 RMK AO2 P0000 T01940189
03949KAQV AQV20160418171512704/18/16 17:15:31  5-MIN KAQV 182315Z AUTO VRB05KT 10SM -RA BKN010 OVC015 19/19 A3004 260 97 900 VRB/05 RMK AO2 P0000 T01940189
03949KAQV AQV20160418172012204/18/16 17:20:31  5-MIN KAQV 182320Z AUTO VRB04KT 10SM OVC010 19/19 A3005 260 97 900 VRB/04 RMK AO2 RAE16 P0000 T01940189
03949KAQV AQV20160418172512204/18/16 17:25:31  5-MIN KAQV 182325Z AUTO VRB06KT 10SM OVC010 19/19 A3005 260 97 900 VRB/06 RMK AO2 RAE16 P0000 T01940189
03949KAQV AQV20160418173012204/18/16 17:30:31  5-MIN KAQV 182330Z AUTO 13006KT 10SM OVC012 19/19 A3005 260 97 900 130/06 RMK AO2 RAE16 P0000 T01940189
03949KAQV AQV20160418173512804/18/16 17:35:31  5-MIN KAQV 182335Z AUTO VRB06G14KT 10SM OVC012 19/19 A3005 260 97 900 VRB/06G14 RMK AO2 RAE16 P0000 T01940189
03949KAQV AQV20160418174014404/18/16 17:40:31  5-MIN KAQV 182340Z AUTO 12007G14KT 080V150 10SM OVC012 19/19 A3005 260 97 900 110/07G14 080V150 RMK AO2 RAE16 P0000 T01940189
03949KAQV AQV20160418174512204/18/16 17:45:31  5-MIN KAQV 182345Z AUTO VRB06KT 10SM OVC012 19/19 A3005 260 97 900 VRB/06 RMK AO2 RAE16 P0000 T01940189
03949KAQV AQV20160418175015304/18/16 17:50:31  5-MIN KAQV 182350Z AUTO VRB04KT 10SM OVC012 19/19 A3005 250 97 900 VRB/04 RMK AO2 RAE16 SLP176 P0000 60063 T01940189 10194 20189 58006
03949KAQV AQV20160418175516004/18/16 17:55:31  5-MIN KAQV 182355Z AUTO VRB05KT 10SM BKN011 OVC016 19/19 A3006 250 97 900 VRB/05 RMK AO2 RAE16 SLP177 P0000 60063 T01940189 10194 20189 58006
03949KAQV AQV20160418180011004/18/16 18:00:31  5-MIN KAQV 190000Z AUTO VRB04KT 10SM OVC011 19/19 A3006 250 97 900 VRB/04 RMK AO2 T01940189
03949KAQV AQV20160418180511004/18/16 18:05:31  5-MIN KAQV 190005Z AUTO 00000KT 10SM OVC011 19/19 A3007 240 97 900 000/00 RMK AO2 T01940189
03949KAQV AQV20160418181011004/18/16 18:10:31  5-MIN KAQV 190010Z AUTO VRB04KT 10SM OVC011 19/19 A3007 240 97 900 VRB/04 RMK AO2 T01940189
03949KAQV AQV20160418181511004/18/16 18:15:31  5-MIN KAQV 190015Z AUTO VRB03KT 10SM OVC011 19/19 A3007 240 97 900 VRB/03 RMK AO2 T01940189
03949KAQV AQV20160418182011004/18/16 18:20:31  5-MIN KAQV 190020Z AUTO 10004KT 10SM OVC011 19/19 A3007 230 97 900 100/04 RMK AO2 T01940189
03949KAQV AQV20160418182512204/18/16 18:25:31  5-MIN KAQV 190025Z AUTO VRB03KT 10SM OVC011 19/19 A3008 230 97 800 VRB/03 RMK AO2 CIG 008V013 T01940189
03949KAQV AQV20160418183012204/18/16 18:30:31  5-MIN KAQV 190030Z AUTO 00000KT 10SM OVC009 19/19 A3008 230 97 800 000/00 RMK AO2 CIG 008V013 T01940189
03949KAQV AQV20160418183512204/18/16 18:35:31  5-MIN KAQV 190035Z AUTO 00000KT 10SM OVC009 19/19 A3008 230 97 800 000/00 RMK AO2 CIG 008V012 T01940189
03949KAQV AQV20160418184012204/18/16 18:40:31  5-MIN KAQV 190040Z AUTO 00000KT 10SM OVC009 19/19 A3008 230 97 800 000/00 RMK AO2 CIG 008V012 T01940189
03949KAQV AQV20160418184512204/18/16 18:45:31  5-MIN KAQV 190045Z AUTO VRB03KT 10SM OVC009 19/19 A3008 230 97 800 VRB/03 RMK AO2 CIG 008V012 T01940189
03949KAQV AQV20160418185010004/18/16 18:50:31  5-MIN KAQV 190050Z AUTO VRB03KT 10SM OVC011 19/19 A3008 230 97 800 VRB/03 RMK AO2
03949KAQV AQV20160418185511704/18/16 18:55:31  5-MIN KAQV 190055Z AUTO 00000KT 10SM OVC011 19/19 A3008 230 97 800 000/00 RMK AO2 SLP185 T01940189
03949KAQV AQV20160418190011004/18/16 19:00:31  5-MIN KAQV 190100Z AUTO 00000KT 10SM OVC011 19/19 A3008 230 97 800 000/00 RMK AO2 T01940189
03949KAQV AQV20160418190512204/18/16 19:05:31  5-MIN KAQV 190105Z AUTO 00000KT 10SM OVC011 19/19 A3008 230 97 800 000/00 RMK AO2 CIG 008V014 T01940189
03949KAQV AQV20160418191011004/18/16 19:10:31  5-MIN KAQV 190110Z AUTO 00000KT 10SM OVC011 19/19 A3008 230 97 800 000/00 RMK AO2 T01940189
03949KAQV AQV20160418191511004/18/16 19:15:31  5-MIN KAQV 190115Z AUTO 00000KT 10SM OVC011 19/19 A3009 220 97 800 000/00 RMK AO2 T01940189
03949KAQV AQV20160418192011004/18/16 19:20:31  5-MIN KAQV 190120Z AUTO 00000KT 10SM OVC011 19/19 A3009 220 97 800 000/00 RMK AO2 T01940189
03949KAQV AQV20160418192511004/18/16 19:25:31  5-MIN KAQV 190125Z AUTO 00000KT 10SM OVC011 19/19 A3009 220 97 800 000/00 RMK AO2 T01940189
03949KAQV AQV20160418193011004/18/16 19:30:31  5-MIN KAQV 190130Z AUTO 00000KT 10SM OVC011 19/19 A3009 220 97 800 000/00 RMK AO2 T01940189
03949KAQV AQV20160418193511004/18/16 19:35:31  5-MIN KAQV 190135Z AUTO 00000KT 10SM OVC011 19/19 A3009 220 97 800 000/00 RMK AO2 T01940189
03949KAQV AQV20160418194011704/18/16 19:40:31  5-MIN KAQV 190140Z AUTO 00000KT 10SM BKN011 OVC020 19/19 A3009 220 97 800 000/00 RMK AO2 T01940189
03949KAQV AQV20160418194512404/18/16 19:45:31  5-MIN KAQV 190145Z AUTO 00000KT 10SM BKN011 BKN014 OVC020 19/19 A3010 210 97 800 000/00 RMK AO2 T01940189
03949KAQV AQV20160418195012404/18/16 19:50:31  5-MIN KAQV 190150Z AUTO 00000KT 10SM BKN011 OVC014 19/19 A3010 210 97 800 000/00 RMK AO2 SLP190 T01940189
03949KAQV AQV20160418195512404/18/16 19:55:31  5-MIN KAQV 190155Z AUTO 00000KT 10SM BKN010 OVC014 19/19 A3010 210 97 800 000/00 RMK AO2 SLP191 T01940189
03949KAQV AQV20160418200012904/18/16 20:00:31  5-MIN KAQV 190200Z AUTO 00000KT 10SM BKN010 OVC014 19/19 A3010 210 97 800 000/00 RMK AO2 CIG 007V011 T01940189
03949KAQV AQV20160418200512904/18/16 20:05:31  5-MIN KAQV 190205Z AUTO 00000KT 10SM BKN009 OVC014 19/19 A3011 210 97 800 000/00 RMK AO2 CIG 007V011 T01940189
03949KAQV AQV20160418201012904/18/16 20:10:31  5-MIN KAQV 190210Z AUTO 00000KT 10SM BKN009 OVC014 19/19 A3011 200 97 800 000/00 RMK AO2 CIG 007V012 T01940189
03949KAQV AQV20160418201512804/18/16 20:15:31  5-MIN KAQV 190215Z AUTO 00000KT 9SM BKN009 OVC014 19/19 A3011 200 97 800 000/00 RMK AO2 CIG 007V012 T01940189
03949KAQV AQV20160418202013704/18/16 20:20:31  5-MIN KAQV 190220Z AUTO 00000KT 8SM -RA OVC009 19/19 A3011 200 97 800 000/00 RMK AO2 RAB17 CIG 007V011 P0000 T01940189
03949KAQV AQV20160418202512804/18/16 20:25:31  5-MIN KAQV 190225Z AUTO 08003KT 5SM -RA BR OVC009 19/19 A3011 200 97 800 080/03 RMK AO2 RAB17 P0001 T01940189
03949KAQV AQV20160418203012804/18/16 20:30:31  5-MIN KAQV 190230Z AUTO 00000KT 5SM -RA BR OVC009 19/19 A3011 200 97 800 000/00 RMK AO2 RAB17 P0001 T01940189
03949KAQV AQV20160418203512804/18/16 20:35:31  5-MIN KAQV 190235Z AUTO 00000KT 5SM -RA BR OVC009 19/19 A3011 200 97 800 000/00 RMK AO2 RAB17 P0002 T01940189
03949KAQV AQV20160418204012804/18/16 20:40:31  5-MIN KAQV 190240Z AUTO 14003KT 3SM +RA BR OVC008 19/19 A3012 200 97 800 140/03 RMK AO2 RAB17 P0005 T01940189
03949KAQV AQV20160418204513104/18/16 20:45:31  5-MIN KAQV 190245Z AUTO 12003KT 2 1/2SM RA BR OVC008 19/19 A3012 190 97 800 120/03 RMK AO2 RAB17 P0006 T01940189
03949KAQV AQV20160418205014704/18/16 20:50:31  5-MIN KAQV 190250Z AUTO 00000KT 4SM -RA BR OVC008 19/19 A3012 190 97 800 000/00 RMK AO2 RAB17 SLP197 P0006 60006 T01940189 55016
03949KAQV AQV20160418205514704/18/16 20:55:31  5-MIN KAQV 190255Z AUTO 00000KT 6SM -RA BR OVC008 19/19 A3012 190 97 800 000/00 RMK AO2 RAB17 SLP197 P0006 60006 T01940189 55016
03949KAQV AQV20160418210011904/18/16 21:00:31  5-MIN KAQV 190300Z AUTO VRB04KT 7SM -RA OVC008 19/19 A3012 200 97 800 VRB/04 RMK AO2 P0000 T01940189
03949KAQV AQV20160418210512604/18/16 21:05:31  5-MIN KAQV 190305Z AUTO 12003KT 7SM -RA BKN008 OVC012 19/19 A3011 200 97 800 120/03 RMK AO2 P0000 T01940189
03949KAQV AQV20160418211013804/18/16 21:10:31  5-MIN KAQV 190310Z AUTO VRB04KT 8SM -RA BKN008 OVC013 19/19 A3012 190 97 800 VRB/04 RMK AO2 CIG 005V011 P0000 T01940189
03949KAQV AQV20160418211512804/18/16 21:15:31  5-MIN KAQV 190315Z AUTO 00000KT 9SM SCT008 OVC013 19/19 A3012 190 97 800 000/00 RMK AO2 RAE15 P0000 T01940189
03949KAQV AQV20160418212013804/18/16 21:20:31  5-MIN KAQV 190320Z AUTO 00000KT 9SM -RA BKN010 OVC015 19/19 A3012 190 97 800 000/00 RMK AO2 CIG 005V013 P0000 T01940189
03949KAQV AQV20160418212513804/18/16 21:25:31  5-MIN KAQV 190325Z AUTO 00000KT 9SM -RA BKN007 OVC013 19/19 A3012 190 97 800 000/00 RMK AO2 CIG 005V011 P0000 T01940189
03949KAQV AQV20160418213012804/18/16 21:30:31  5-MIN KAQV 190330Z AUTO 10003KT 8SM BKN007 OVC013 19/19 A3012 200 97 800 100/03 RMK AO2 RAE27 P0000 T01940189
03949KAQV AQV20160418213512804/18/16 21:35:31  5-MIN KAQV 190335Z AUTO 00000KT 8SM BKN007 OVC013 19/19 A3012 200 97 800 000/00 RMK AO2 RAE27 P0000 T01940189
03949KAQV AQV20160418214014104/18/16 21:40:31  5-MIN KAQV 190340Z AUTO 00000KT 8SM BKN007 OVC013 19/19 A3012 200 100 700 000/00 RMK AO2 RAE27 CIG 005V012 P0000 T01890189
03949KAQV AQV20160418214512904/18/16 21:45:31  5-MIN KAQV 190345Z AUTO 00000KT 7SM SCT007 OVC013 19/19 A3012 200 100 700 000/00 RMK AO2 RAE27 P0000 T01890189
03949KAQV AQV20160418215011904/18/16 21:50:31  5-MIN KAQV 190350Z AUTO 00000KT 7SM SCT007 OVC014 19/19 A3011 200 100 700 000/00 RMK AO2 RAE27 P0000
03949KAQV AQV20160418215514304/18/16 21:55:31  5-MIN KAQV 190355Z AUTO 00000KT 7SM -RA SCT007 OVC014 19/19 A3012 200 100 700 000/00 RMK AO2 RAE27B53 SLP196 P0000 T01890189
03949KAQV AQV20160418220013704/18/16 22:00:31  5-MIN KAQV 190400Z AUTO 00000KT 6SM -RA BR SCT007 BKN014 OVC019 19/19 A3011 200 100 700 000/00 RMK AO2 P0000 T01890189
03949KAQV AQV20160418220513404/18/16 22:05:31  5-MIN KAQV 190405Z AUTO 00000KT 8SM -RA FEW007 BKN014 OVC045 19/19 A3011 200 100 700 000/00 RMK AO2 P0000 T01890189
03949KAQV AQV20160418221013504/18/16 22:10:31  5-MIN KAQV 190410Z AUTO VRB03KT 8SM SCT012 BKN029 OVC060 19/18 A3011 200 97 700 VRB/03 RMK AO2 RAE06 P0000 T01890183
03949KAQV AQV20160418221513504/18/16 22:15:31  5-MIN KAQV 190415Z AUTO 00000KT 8SM SCT012 BKN029 OVC060 19/18 A3011 200 97 700 000/00 RMK AO2 RAE06 P0000 T01890183
03949KAQV AQV20160418222013504/18/16 22:20:31  5-MIN KAQV 190420Z AUTO VRB03KT 8SM FEW007 BKN027 OVC050 19/18 A3011 200 97 700 VRB/03 RMK AO2 RAE06 P0000 T01890183
03949KAQV AQV20160418222513504/18/16 22:25:31  5-MIN KAQV 190425Z AUTO 00000KT 8SM BKN017 BKN027 OVC047 19/18 A3011 200 97 700 000/00 RMK AO2 RAE06 P0000 T01890183
03949KAQV AQV20160418223013504/18/16 22:30:31  5-MIN KAQV 190430Z AUTO 00000KT 8SM BKN017 BKN025 OVC049 19/18 A3011 200 97 700 000/00 RMK AO2 RAE06 P0000 T01890183
03949KAQV AQV20160418223513504/18/16 22:35:31  5-MIN KAQV 190435Z AUTO VRB03KT 9SM BKN017 BKN027 OVC049 19/18 A3011 200 97 700 VRB/03 RMK AO2 RAE06 P0000 T01890183
03949KAQV AQV20160418224012804/18/16 22:40:31  5-MIN KAQV 190440Z AUTO 12003KT 9SM BKN017 OVC026 19/18 A3011 200 97 700 120/03 RMK AO2 RAE06 P0000 T01890183
03949KAQV AQV20160418224512104/18/16 22:45:31  5-MIN KAQV 190445Z AUTO VRB03KT 9SM OVC017 19/18 A3011 200 97 700 VRB/03 RMK AO2 RAE06 P0000 T01890183
03949KAQV AQV20160418225012804/18/16 22:50:31  5-MIN KAQV 190450Z AUTO VRB03KT 8SM OVC017 19/18 A3011 200 97 700 VRB/03 RMK AO2 RAE06 SLP194 P0000 T01890183
03949KAQV AQV20160418225512804/18/16 22:55:31  5-MIN KAQV 190455Z AUTO 13003KT 9SM OVC017 19/18 A3011 200 97 700 130/03 RMK AO2 RAE06 SLP194 P0000 T01890183
03949KAQV AQV20160418230010904/18/16 23:00:31  5-MIN KAQV 190500Z AUTO VRB03KT 9SM OVC017 19/18 A3011 200 97 700 VRB/03 RMK AO2 T01890183
03949KAQV AQV20160418230510904/18/16 23:05:31  5-MIN KAQV 190505Z AUTO VRB03KT 9SM OVC017 19/18 A3011 200 97 700 VRB/03 RMK AO2 T01890183
03949KAQV AQV20160418231010904/18/16 23:10:31  5-MIN KAQV 190510Z AUTO VRB03KT 9SM OVC018 19/18 A3011 200 97 700 VRB/03 RMK AO2 T01890183
03949KAQV AQV20160418231510904/18/16 23:15:31  5-MIN KAQV 190515Z AUTO VRB03KT 9SM OVC018 19/18 A3011 210 97 700 VRB/03 RMK AO2 T01890183
03949KAQV AQV20160420111513404/20/16 11:15:31  5-MIN KAQV 201715Z AUTO VRB04KT 10SM TS SCT016 BKN039 OVC080 23/19 A2999 310 78 1400 VRB/04 RMK AO2 TSB11 T02330194
03949KAQV AQV20160420112015204/20/16 11:20:31  5-MIN KAQV 201720Z AUTO 17005KT 10SM -TSRA SCT016 BKN039 OVC080 23/19 A2999 310 78 1400 160/05 RMK AO2 RAB19 TSB11B19 P0000 T02330194
03949KAQV AQV20160420112515104/20/16 11:25:31  5-MIN KAQV 201725Z AUTO VRB03KT 8SM -TSRA SCT016 BKN039 OVC080 23/20 A2999 320 84 1300 VRB/03 RMK AO2 RAB19 TSB11B19 P0001 T02280200
03949KAQV AQV20160420113015104/20/16 11:30:31  5-MIN KAQV 201730Z AUTO VRB03KT 8SM -TSRA FEW016 BKN042 OVC080 22/20 A2999 310 87 1300 VRB/03 RMK AO2 RAB19 TSB11B19 P0001 T02220200
03949KAQV AQV20160420113515204/20/16 11:35:31  5-MIN KAQV 201735Z AUTO 26003KT 10SM -TSRA FEW014 BKN027 OVC075 22/20 A2999 310 87 1300 250/03 RMK AO2 RAB19 TSB11B19 P0001 T02220200
03949KAQV AQV20160420114015504/20/16 11:40:31  5-MIN KAQV 201740Z AUTO 26004KT 10SM -TSRA SCT025 BKN038 OVC075 22/21 A3000 310 90 1300 250/04 RMK AO2 RAB19 TSB11B19B39 P0001 T02220206
03949KAQV AQV20160420114514704/20/16 11:45:31  5-MIN KAQV 201745Z AUTO 6SM -TSRA BR FEW008 BKN025 OVC075 22/21 A3001 300 90 1200 M /M RMK AO2 RAB19 TSB11B19B39 P0002 T02220206
03949KAQV AQV20160420115015704/20/16 11:50:31  5-MIN KAQV 201750Z AUTO 32006KT 2 1/2SM +TSRA BR FEW011 BKN026 OVC075 19/17 A3001 290 90 900 320/06 RMK AO2 RAB19 TSB11B19B39 PRESRR P0007
03949KAQV AQV20160420115520204/20/16 11:55:31  5-MIN KAQV 201755Z AUTO 34007KT 300V010 2SM TSRA BR FEW011 BKN023 OVC031 18/17 A3001 300 90 800 330/07 300V010 RMK AO2 RAB19 TSB11B19B39 SLP160 P0009 60010 T01830167 10239 20183 50003
03949KAQV AQV20160420120014104/20/16 12:00:31  5-MIN KAQV 201800Z AUTO VRB06KT 2 1/2SM TSRA BR FEW011 BKN023 OVC031 18/17 A3000 300 93 700 VRB/06 RMK AO2 P0001 T01780167
03949KAQV AQV20160420120515404/20/16 12:05:31  5-MIN KAQV 201805Z AUTO 33008KT 280V010 4SM -TSRA BR FEW011 BKN028 OVC034 18/17 A3000 310 93 700 320/08 280V010 RMK AO2 P0002 T01780167
03949KAQV AQV20160420121014504/20/16 12:10:31  5-MIN KAQV 201810Z AUTO VRB05KT 6SM -TSRA BR FEW011 BKN033 OVC046 18/17 A2998 320 93 800 VRB/05 RMK AO2 PRESFR P0002 T01780167
03949KAQV AQV20160420121513904/20/16 12:15:31  5-MIN KAQV 201815Z AUTO VRB05KT 9SM -RA FEW013 BKN039 OVC095 18/17 A2998 320 93 800 VRB/05 RMK AO2 TSE11 P0002 T01780167
03949KAQV AQV20160420122014004/20/16 12:20:31  5-MIN KAQV 201820Z AUTO VRB05KT 10SM -RA FEW025 BKN070 OVC090 18/17 A2998 320 93 800 VRB/05 RMK AO2 TSE11 P0002 T01780167
03949KAQV AQV20160420122514504/20/16 12:25:31  5-MIN KAQV 201825Z AUTO VRB03KT 10SM -TSRA SCT030 BKN044 OVC090 18/17 A2998 320 96 800 VRB/03 RMK AO2 TSE11B22 P0002 T01780172
03949KAQV AQV20160420123014504/20/16 12:30:31  5-MIN KAQV 201830Z AUTO VRB05KT 10SM -TSRA FEW007 BKN044 OVC090 18/17 A2998 320 93 800 VRB/05 RMK AO2 TSE11B22 P0002 T01780167
03949KAQV AQV20160420123514804/20/16 12:35:31  5-MIN KAQV 201835Z AUTO 35004KT 10SM TS FEW007 SCT027 BKN070 18/17 A2999 320 93 800 340/04 RMK AO2 RAE33 TSE11B22 P0002 T01780167
03949KAQV AQV20160420124014804/20/16 12:40:31  5-MIN KAQV 201840Z AUTO VRB04KT 10SM TS SCT007 SCT035 BKN080 18/17 A2998 320 96 800 VRB/04 RMK AO2 RAE33 TSE11B22 P0002 T01780172
03949KAQV AQV20160420124514804/20/16 12:45:31  5-MIN KAQV 201845Z AUTO 02004KT 10SM TS SCT007 BKN080 OVC110 18/17 A2999 320 93 800 010/04 RMK AO2 RAE33 TSE11B22 P0002 T01780167
03949KAQV AQV20160420125015804/20/16 12:50:31  5-MIN KAQV 201850Z AUTO 00000KT 10SM TS SCT007 SCT034 OVC100 18/17 A2999 310 96 700 000/00 RMK AO2 RAE33 TSE11B22B49 SLP154 P0002 T01780172
03949KAQV AQV20160420125515804/20/16 12:55:31  5-MIN KAQV 201855Z AUTO 00000KT 10SM TS SCT007 BKN075 OVC100 18/17 A3000 310 96 700 000/00 RMK AO2 RAE33 TSE11B22B49 SLP156 P0002 T01780172
03949KAQV AQV20160420130012004/20/16 13:00:31  5-MIN KAQV 201900Z AUTO 00000KT 10SM TS SCT007 BKN100 18/17 A2999 310 93 700 000/00 RMK AO2 T01780167
03949KAQV AQV20160420130514204/20/16 13:05:31  5-MIN KAQV 201905Z AUTO 00000KT 10SM -TSRA FEW007 SCT080 OVC095 18/17 A2999 310 96 700 000/00 RMK AO2 RAB01 P0000 T01780172
03949KAQV AQV20160420131013504/20/16 13:10:31  5-MIN KAQV 201910Z AUTO 00000KT 10SM -TSRA FEW007 OVC095 18/17 A2999 310 96 700 000/00 RMK AO2 RAB01 P0000 T01780172
03949KAQV AQV20160420131514104/20/16 13:15:31  5-MIN KAQV 201915Z AUTO 00000KT 9SM -TSRA FEW006 SCT080 OVC095 18/17 A2999 310 93 800 000/00 RMK AO2 RAB01 P0000 T01780167
03949KAQV AQV20160420132014804/20/16 13:20:31  5-MIN KAQV 201920Z AUTO 00000KT 5SM -RA BR FEW006 BKN080 OVC095 18/17 A2999 320 96 800 000/00 RMK AO2 RAB01 TSE18 P0001 T01780172
03949KAQV AQV20160420132514104/20/16 13:25:31  5-MIN KAQV 201925Z AUTO 00000KT 4SM -RA BR BKN080 OVC095 18/17 A2999 320 96 800 000/00 RMK AO2 RAB01 TSE18 P0002 T01780172
03949KAQV AQV20160420133014104/20/16 13:30:31  5-MIN KAQV 201930Z AUTO 00000KT 5SM -RA BR BKN075 OVC090 18/17 A2999 310 96 800 000/00 RMK AO2 RAB01 TSE18 P0002 T01780172
03949KAQV AQV20160420133514604/20/16 13:35:31  5-MIN KAQV 201935Z AUTO 21003KT 6SM -TSRA BR BKN075 OVC100 18/17 A2999 310 96 700 200/03 RMK AO2 RAB01 TSE18B33 P0003 T01780172
03949KAQV AQV20160420134013904/20/16 13:40:31  5-MIN KAQV 201940Z AUTO 00000KT 5SM -TSRA BR OVC075 18/17 A2999 310 96 700 000/00 RMK AO2 RAB01 TSE18B33 P0004 T01780172
03949KAQV AQV20160420134514604/20/16 13:45:31  5-MIN KAQV 201945Z AUTO 14003KT 4SM -TSRA BR BKN075 OVC100 18/17 A2999 310 96 800 140/03 RMK AO2 RAB01 TSE18B33 P0005 T01780172
03949KAQV AQV20160420135013604/20/16 13:50:31  5-MIN KAQV 201950Z AUTO 13003KT 4SM RA BR BKN075 OVC100 18/17 A2998 320 96 800 120/03 RMK AO2 RAB01 TSE18B33E49 P0006
03949KAQV AQV20160420135515404/20/16 13:55:31  5-MIN KAQV 201955Z AUTO 00000KT 5SM -RA BR SCT075 OVC100 18/17 A2998 320 96 800 000/00 RMK AO2 RAB01 TSE18B33E49 SLP151 P0006 T01780172
03949KAQV AQV20160420140012804/20/16 14:00:31  5-MIN KAQV 202000Z AUTO 00000KT 6SM RA BR SCT080 OVC100 18/17 A2998 320 96 800 000/00 RMK AO2 P0000 T01780172
03949KAQV AQV20160420140513604/20/16 14:05:31  5-MIN KAQV 202005Z AUTO VRB03KT 5SM -RA BR FEW003 BKN090 OVC100 18/17 A2998 320 96 800 VRB/03 RMK AO2 P0001 T01780172
03949KAQV AQV20160420141013604/20/16 14:10:31  5-MIN KAQV 202010Z AUTO VRB03KT 5SM -RA BR FEW003 FEW060 OVC100 18/17 A2998 320 96 800 VRB/03 RMK AO2 P0002 T01780172
03949KAQV AQV20160420141513504/20/16 14:15:31  5-MIN KAQV 202015Z AUTO VRB03KT 5SM RA BR FEW009 SCT060 OVC100 18/17 A2997 330 96 800 VRB/03 RMK AO2 P0003 T01780172
03949KAQV AQV20160420142013504/20/16 14:20:31  5-MIN KAQV 202020Z AUTO VRB03KT 4SM RA BR FEW007 BKN090 OVC110 18/17 A2997 330 96 800 VRB/03 RMK AO2 P0004 T01780172
03949KAQV AQV20160420142513504/20/16 14:25:31  5-MIN KAQV 202025Z AUTO VRB03KT 4SM RA BR FEW007 BKN090 OVC110 18/17 A2996 340 96 800 VRB/03 RMK AO2 P0005 T01780172
03949KAQV AQV20160420143013704/20/16 14:30:31  5-MIN KAQV 202030Z AUTO VRB05KT 5SM TSRA BR FEW006 BKN090 OVC100 18/17 A2996 340 96 800 VRB/05 RMK AO2 P0006 T01780172
03949KAQV AQV20160420143514404/20/16 14:35:31  5-MIN KAQV 202035Z AUTO 12004KT 5SM TSRA BR FEW055 FEW080 OVC100 18/17 A2995 350 96 800 120/04 RMK AO2 PRESFR P0007 T01780172
03949KAQV AQV20160420144015304/20/16 14:40:31  5-MIN KAQV 202040Z AUTO VRB03KT 6SM TSRA BR FEW004 SCT090 OVC110 18/17 A2994 350 96 800 VRB/03 RMK AO2 TSE37B38 PRESFR P0008 T01780172
03949KAQV AQV20160420144515704/20/16 14:45:31  5-MIN KAQV 202045Z AUTO VRB04KT 6SM -TSRA BR FEW004 BKN100 OVC120 18/17 A2994 360 96 800 VRB/04 RMK AO2 TSE37B38B45 PRESFR P0009 T01780172
03949KAQV AQV20160420145016604/20/16 14:50:31  5-MIN KAQV 202050Z AUTO VRB05KT 7SM -TSRA FEW004 SCT090 OVC110 18/17 A2993 360 96 800 VRB/05 RMK AO2 TSE37B38B45 SLP135 P0009 60018 T01780172 55002
03949KAQV AQV20160420145516604/20/16 14:55:31  5-MIN KAQV 202055Z AUTO VRB05KT 8SM -TSRA SCT004 BKN100 OVC120 18/17 A2993 360 96 800 VRB/05 RMK AO2 TSE37B38B45 SLP135 P0010 60019 T01780172 55002
03949KAQV AQV20160420150014004/20/16 15:00:31  5-MIN KAQV 202100Z AUTO VRB04KT 10SM -RA SCT003 BKN100 OVC120 18/17 A2993 360 96 800 VRB/04 RMK AO2 TSE00 P0000 T01780172
03949KAQV AQV20160420150514004/20/16 15:05:31  5-MIN KAQV 202105Z AUTO VRB04KT 10SM -RA FEW003 SCT065 OVC110 18/17 A2993 360 96 800 VRB/04 RMK AO2 TSE00 P0000 T01780172
03949KAQV AQV20160420151014004/20/16 15:10:31  5-MIN KAQV 202110Z AUTO VRB05KT 10SM -RA SCT003 BKN100 OVC120 18/17 A2993 360 96 800 VRB/05 RMK AO2 TSE00 P0000 T01780172
03949KAQV AQV20160420151514004/20/16 15:15:31  5-MIN KAQV 202115Z AUTO VRB05KT 10SM -RA SCT003 BKN100 OVC120 18/17 A2993 370 96 800 VRB/05 RMK AO2 TSE00 P0000 T01780172
03949KAQV AQV20160420152014004/20/16 15:20:31  5-MIN KAQV 202120Z AUTO VRB05KT 10SM -RA SCT003 SCT025 OVC110 18/17 A2993 370 96 800 VRB/05 RMK AO2 TSE00 P0000 T01780172
03949KAQV AQV20160420152513404/20/16 15:25:31  5-MIN KAQV 202125Z AUTO VRB04KT 10SM -RA FEW003 OVC110 18/18 A2992 370 100 800 VRB/04 RMK AO2 TSE00 P0000 T01780178
03949KAQV AQV20160420153013404/20/16 15:30:31  5-MIN KAQV 202130Z AUTO VRB05KT 10SM -RA FEW003 OVC110 18/18 A2992 380 100 800 VRB/05 RMK AO2 TSE00 P0000 T01780178
03949KAQV AQV20160420153514004/20/16 15:35:31  5-MIN KAQV 202135Z AUTO 13005KT 10SM -RA FEW003 SCT080 OVC110 18/18 A2992 380 96 900 130/05 RMK AO2 TSE00 P0000 T01830178
03949KAQV AQV20160420154014004/20/16 15:40:31  5-MIN KAQV 202140Z AUTO VRB04KT 10SM -RA FEW003 BKN080 OVC110 18/18 A2992 380 96 900 VRB/04 RMK AO2 TSE00 P0000 T01830178
03949KAQV AQV20160420154514004/20/16 15:45:31  5-MIN KAQV 202145Z AUTO 16005KT 10SM -RA FEW003 SCT046 BKN110 18/18 A2992 380 96 900 150/05 RMK AO2 TSE00 P0000 T01830178
03949KAQV AQV20160420155014904/20/16 15:50:31  5-MIN KAQV 202150Z AUTO 15005KT 10SM FEW046 FEW090 BKN110 18/18 A2992 380 96 900 150/05 RMK AO2 RAE47 TSE00 SLP128 P0000 T01830178
03949KAQV AQV20160420155514904/20/16 15:55:31  5-MIN KAQV 202155Z AUTO 16003KT 10SM FEW046 FEW090 SCT110 18/18 A2992 380 96 900 160/03 RMK AO2 RAE47 TSE00 SLP128 P0000 T01830178
03949KAQV AQV20160420160011704/20/16 16:00:31  5-MIN KAQV 202200Z AUTO VRB04KT 10SM FEW045 FEW090 18/18 A2992 380 96 900 VRB/04 RMK AO2 T01830178
03949KAQV AQV20160420160511004/20/16 16:05:31  5-MIN KAQV 202205Z AUTO 15003KT 10SM FEW045 18/18 A2992 380 96 900 150/03 RMK AO2 T01830178
03949KAQV AQV20160420161010704/20/16 16:10:31  5-MIN KAQV 202210Z AUTO VRB03KT 10SM CLR 18/18 A2992 380 96 900 VRB/03 RMK AO2 T01830178
03949KAQV AQV20160420161510704/20/16 16:15:31  5-MIN KAQV 202215Z AUTO 00000KT 10SM CLR 18/18 A2992 370 96 900 000/00 RMK AO2 T01830178
03949KAQV AQV20160420162010704/20/16 16:20:31  5-MIN KAQV 202220Z AUTO 00000KT 10SM CLR 18/18 A2992 370 96 900 000/00 RMK AO2 T01830178
03949KAQV AQV20160420162510804/20/16 16:25:31  5-MIN KAQV 202225Z AUTO 00000KT 10SM CLR 19/18 A2992 370 93 1000 000/00 RMK AO2 T01890178
03949KAQV AQV20160420163011004/20/16 16:30:31  5-MIN KAQV 202230Z AUTO 00000KT 10SM FEW005 18/18 A2992 370 96 900 000/00 RMK AO2 T01830178
03949KAQV AQV20160420163511104/20/16 16:35:31  5-MIN KAQV 202235Z AUTO 00000KT 10SM SCT005 19/18 A2992 370 93 1000 000/00 RMK AO2 T01890178
03949KAQV AQV20160420164011004/20/16 16:40:31  5-MIN KAQV 202240Z AUTO 00000KT 10SM SCT006 18/18 A2992 370 96 900 000/00 RMK AO2 T01830178
03949KAQV AQV20160420164511104/20/16 16:45:31  5-MIN KAQV 202245Z AUTO 00000KT 10SM SCT006 19/18 A2992 370 93 1000 000/00 RMK AO2 T01890178
03949KAQV AQV20160420165011804/20/16 16:50:31  5-MIN KAQV 202250Z AUTO 00000KT 10SM SCT006 19/18 A2992 370 97 1000 000/00 RMK AO2 SLP131 T01890183
03949KAQV AQV20160420165511804/20/16 16:55:31  5-MIN KAQV 202255Z AUTO 00000KT 10SM BKN006 19/18 A2992 370 93 1000 000/00 RMK AO2 SLP131 T01890178
03949KAQV AQV20160420170011104/20/16 17:00:31  5-MIN KAQV 202300Z AUTO 06003KT 10SM BKN006 19/18 A2993 370 93 1000 060/03 RMK AO2 T01940183
03949KAQV AQV20160420170511104/20/16 17:05:31  5-MIN KAQV 202305Z AUTO 00000KT 10SM BKN006 19/18 A2993 370 93 1000 000/00 RMK AO2 T01940183
03949KAQV AQV20160420171012304/20/16 17:10:31  5-MIN KAQV 202310Z AUTO 00000KT 10SM BKN006 19/18 A2993 370 93 1000 000/00 RMK AO2 CIG 004V009 T01940183
03949KAQV AQV20160420171512304/20/16 17:15:31  5-MIN KAQV 202315Z AUTO 00000KT 10SM BKN006 19/18 A2993 370 90 1000 000/00 RMK AO2 CIG 005V009 T01940178
03949KAQV AQV20160420172012304/20/16 17:20:31  5-MIN KAQV 202320Z AUTO 00000KT 10SM BKN006 19/18 A2994 360 90 1000 000/00 RMK AO2 CIG 005V009 T01940178
03949KAQV AQV20160420172512304/20/16 17:25:31  5-MIN KAQV 202325Z AUTO 00000KT 10SM BKN008 19/18 A2994 360 90 1000 000/00 RMK AO2 CIG 005V010 T01940178
03949KAQV AQV20160420173012304/20/16 17:30:31  5-MIN KAQV 202330Z AUTO 00000KT 10SM BKN008 19/18 A2994 360 90 1000 000/00 RMK AO2 CIG 005V012 T01940178
03949KAQV AQV20160420173512304/20/16 17:35:31  5-MIN KAQV 202335Z AUTO 00000KT 10SM BKN010 19/18 A2994 360 90 1000 000/00 RMK AO2 CIG 007V012 T01940178
03949KAQV AQV20160420174012304/20/16 17:40:31  5-MIN KAQV 202340Z AUTO 00000KT 10SM BKN010 19/18 A2994 360 90 1000 000/00 RMK AO2 CIG 008V012 T01940178
03949KAQV AQV20160420174512304/20/16 17:45:31  5-MIN KAQV 202345Z AUTO 00000KT 10SM BKN010 19/18 A2994 360 90 1000 000/00 RMK AO2 CIG 008V012 T01940178
03949KAQV AQV20160420175015404/20/16 17:50:31  5-MIN KAQV 202350Z AUTO 00000KT 10SM BKN010 19/18 A2994 350 93 1000 000/00 RMK AO2 CIG 008V013 SLP138 60019 T01940183 10200 20178 58020
03949KAQV AQV20160420175514204/20/16 17:55:31  5-MIN KAQV 202355Z AUTO 00000KT 10SM OVC010 19/18 A2994 350 93 1000 000/00 RMK AO2 SLP138 60019 T01940183 10200 20178 58020
03949KAQV AQV20160420180011804/20/16 18:00:31  5-MIN KAQV 210000Z AUTO 00000KT 10SM BKN010 OVC050 19/18 A2995 350 93 1000 000/00 RMK AO2 T01940183
03949KAQV AQV20160420180513704/20/16 18:05:31  5-MIN KAQV 210005Z AUTO 00000KT 10SM BKN011 BKN050 OVC095 19/18 A2994 350 90 1000 000/00 RMK AO2 CIG 008V013 T01940178
03949KAQV AQV20160420181012504/20/16 18:10:31  5-MIN KAQV 210010Z AUTO 00000KT 10SM SCT009 BKN013 OVC095 19/18 A2995 350 93 1000 000/00 RMK AO2 T01940183
03949KAQV AQV20160420181511804/20/16 18:15:31  5-MIN KAQV 210015Z AUTO 00000KT 10SM BKN011 OVC050 19/18 A2995 350 93 1000 000/00 RMK AO2 T01940183
03949KAQV AQV20160420182013704/20/16 18:20:31  5-MIN KAQV 210020Z AUTO 00000KT 10SM BKN008 BKN013 OVC050 19/18 A2995 350 93 1000 000/00 RMK AO2 CIG 007V011 T01940183
03949KAQV AQV20160420182513704/20/16 18:25:31  5-MIN KAQV 210025Z AUTO 00000KT 10SM BKN008 BKN013 OVC050 19/18 A2995 350 93 1000 000/00 RMK AO2 CIG 007V011 T01940183
03949KAQV AQV20160420183013704/20/16 18:30:31  5-MIN KAQV 210030Z AUTO 00000KT 10SM BKN008 BKN013 OVC095 19/18 A2995 350 93 1000 000/00 RMK AO2 CIG 007V011 T01940183
03949KAQV AQV20160420183513004/20/16 18:35:31  5-MIN KAQV 210035Z AUTO 00000KT 10SM BKN008 OVC013 19/18 A2995 350 93 1000 000/00 RMK AO2 CIG 006V011 T01940183
03949KAQV AQV20160420184013004/20/16 18:40:31  5-MIN KAQV 210040Z AUTO 00000KT 10SM BKN008 OVC013 19/18 A2995 350 93 1000 000/00 RMK AO2 CIG 006V011 T01940183
03949KAQV AQV20160420184512304/20/16 18:45:31  5-MIN KAQV 210045Z AUTO 00000KT 10SM BKN008 19/18 A2995 350 93 1000 000/00 RMK AO2 CIG 006V013 T01940183
03949KAQV AQV20160420185012904/20/16 18:50:31  5-MIN KAQV 210050Z AUTO 00000KT 10SM BKN008 19/18 A2995 350 97 900 000/00 RMK AO2 CIG 006V013 SLP140 T01890183
03949KAQV AQV20160420185511704/20/16 18:55:31  5-MIN KAQV 210055Z AUTO 00000KT 10SM SCT008 19/18 A2995 350 97 900 000/00 RMK AO2 SLP140 T01890183
03949KAQV AQV20160420190011004/20/16 19:00:31  5-MIN KAQV 210100Z AUTO 00000KT 10SM SCT008 19/18 A2995 350 97 900 000/00 RMK AO2 T01890183
03949KAQV AQV20160420190511004/20/16 19:05:31  5-MIN KAQV 210105Z AUTO 00000KT 10SM FEW008 19/18 A2995 350 93 900 000/00 RMK AO2 T01890178
03949KAQV AQV20160420191011004/20/16 19:10:31  5-MIN KAQV 210110Z AUTO 00000KT 10SM FEW010 19/18 A2995 350 93 900 000/00 RMK AO2 T01890178
03949KAQV AQV20160420191510704/20/16 19:15:31  5-MIN KAQV 210115Z AUTO 00000KT 10SM CLR 18/18 A2995 350 96 900 000/00 RMK AO2 T01830178
03949KAQV AQV20160420192010704/20/16 19:20:31  5-MIN KAQV 210120Z AUTO 00000KT 10SM CLR 18/18 A2995 350 96 900 000/00 RMK AO2 T01830178
03949KAQV AQV20160420192510704/20/16 19:25:31  5-MIN KAQV 210125Z AUTO 00000KT 10SM CLR 18/18 A2995 350 96 900 000/00 RMK AO2 T01830178
03949KAQV AQV20160420193011004/20/16 19:30:31  5-MIN KAQV 210130Z AUTO 00000KT 10SM FEW013 18/17 A2995 340 96 800 000/00 RMK AO2 T01780172
03949KAQV AQV20160420193511004/20/16 19:35:31  5-MIN KAQV 210135Z AUTO 00000KT 10SM SCT013 18/17 A2995 340 96 800 000/00 RMK AO2 T01780172
03949KAQV AQV20160420194011704/20/16 19:40:31  5-MIN KAQV 210140Z AUTO 00000KT 10SM FEW011 BKN019 18/18 A2995 340 96 900 000/00 RMK AO2 T01830178
03949KAQV AQV20160420194511704/20/16 19:45:31  5-MIN KAQV 210145Z AUTO 00000KT 10SM FEW011 BKN019 18/18 A2996 340 96 900 000/00 RMK AO2 T01830178
03949KAQV AQV20160420195012504/20/16 19:50:31  5-MIN KAQV 210150Z AUTO 00000KT 10SM FEW011 BKN021 18/18 A2996 340 100 800 000/00 RMK AO2 SLP142 T01780178
03949KAQV AQV20160420195512504/20/16 19:55:31  5-MIN KAQV 210155Z AUTO 00000KT 10SM FEW012 OVC019 18/18 A2996 340 100 800 000/00 RMK AO2 SLP144 T01780178
03949KAQV AQV20160420200011704/20/16 20:00:31  5-MIN KAQV 210200Z AUTO 00000KT 10SM FEW012 OVC019 18/18 A2996 340 96 800 000/00 RMK AO2 T01830178
03949KAQV AQV20160420200511004/20/16 20:05:31  5-MIN KAQV 210205Z AUTO 00000KT 10SM OVC020 18/18 A2996 340 96 800 000/00 RMK AO2 T01830178
03949KAQV AQV20160420201011004/20/16 20:10:31  5-MIN KAQV 210210Z AUTO 00000KT 10SM OVC018 18/18 A2997 330 96 800 000/00 RMK AO2 T01830178
03949KAQV AQV20160420201511004/20/16 20:15:31  5-MIN KAQV 210215Z AUTO 00000KT 10SM OVC018 18/18 A2997 330 96 800 000/00 RMK AO2 T01830178
03949KAQV AQV20160420202011004/20/16 20:20:31  5-MIN KAQV 210220Z AUTO 00000KT 10SM OVC018 18/18 A2997 330 96 800 000/00 RMK AO2 T01830178
03949KAQV AQV20160420202511004/20/16 20:25:31  5-MIN KAQV 210225Z AUTO 00000KT 10SM OVC016 18/18 A2997 330 96 800 000/00 RMK AO2 T01830178
03949KAQV AQV20160420203011004/20/16 20:30:31  5-MIN KAQV 210230Z AUTO 00000KT 10SM OVC016 18/18 A2997 330 96 800 000/00 RMK AO2 T01830178
03949KAQV AQV20160420203511004/20/16 20:35:31  5-MIN KAQV 210235Z AUTO 00000KT 10SM OVC016 18/18 A2997 330 96 800 000/00 RMK AO2 T01830178
03949KAQV AQV20160420204011004/20/16 20:40:31  5-MIN KAQV 210240Z AUTO 00000KT 10SM OVC016 18/18 A2997 330 96 800 000/00 RMK AO2 T01830178
03949KAQV AQV20160420204511004/20/16 20:45:31  5-MIN KAQV 210245Z AUTO 00000KT 10SM OVC015 18/18 A2997 330 96 800 000/00 RMK AO2 T01830178
03949KAQV AQV20160420205012304/20/16 20:50:31  5-MIN KAQV 210250Z AUTO 00000KT 10SM OVC015 18/18 A2997 330 96 800 000/00 RMK AO2 SLP148 T01830178 53004
03949KAQV AQV20160420205512304/20/16 20:55:31  5-MIN KAQV 210255Z AUTO 00000KT 10SM OVC015 18/18 A2997 330 96 800 000/00 RMK AO2 SLP148 T01830178 53004
03949KAQV AQV20160420210011104/20/16 21:00:31  5-MIN KAQV 210300Z AUTO 16003KT 10SM BKN015 18/18 A2997 330 100 800 150/03 RMK AO2 T01780178
03949KAQV AQV20160420210511004/20/16 21:05:31  5-MIN KAQV 210305Z AUTO 00000KT 10SM BKN015 18/17 A2997 330 96 800 000/00 RMK AO2 T01780172
03949KAQV AQV20160420211011004/20/16 21:10:31  5-MIN KAQV 210310Z AUTO 00000KT 10SM SCT015 18/17 A2998 330 96 800 000/00 RMK AO2 T01780172
03949KAQV AQV20160420211511004/20/16 21:15:31  5-MIN KAQV 210315Z AUTO 00000KT 10SM FEW015 18/17 A2998 320 96 800 000/00 RMK AO2 T01780172
03949KAQV AQV20160420212011004/20/16 21:20:31  5-MIN KAQV 210320Z AUTO 00000KT 10SM FEW015 18/17 A2998 320 96 800 000/00 RMK AO2 T01780172
03949KAQV AQV20160420212511104/20/16 21:25:31  5-MIN KAQV 210325Z AUTO 00000KT 10SM FEW005 17/17 A2998 320 100 700 000/00 RMK AO2 T01720172
03949KAQV AQV20160420213010904/20/16 21:30:31  5-MIN KAQV 210330Z AUTO 18003KT 9SM SCT005 18/17 A2998 320 96 800 170/03 RMK AO2 T01780172
03949KAQV AQV20160420213511004/20/16 21:35:31  5-MIN KAQV 210335Z AUTO 00000KT 9SM SCT005 17/17 A2998 320 100 700 000/00 RMK AO2 T01720172
03949KAQV AQV20160420214012104/20/16 21:40:31  5-MIN KAQV 210340Z AUTO 00000KT 9SM BKN005 17/17 A2998 320 96 700 000/00 RMK AO2 CIG 002V007 T01720167
03949KAQV AQV20160420214511004/20/16 21:45:31  5-MIN KAQV 210345Z AUTO 16003KT 10SM BKN005 18/17 A2998 320 96 800 160/03 RMK AO2 T01780172
03949KAQV AQV20160420215011704/20/16 21:50:31  5-MIN KAQV 210350Z AUTO 17003KT 10SM BKN005 18/17 A2998 320 96 800 170/03 RMK AO2 SLP150 T01780172
03949KAQV AQV20160420215511704/20/16 21:55:31  5-MIN KAQV 210355Z AUTO 18004KT 10SM BKN005 18/17 A2998 320 96 800 180/04 RMK AO2 SLP150 T01780172
03949KAQV AQV20160420220011004/20/16 22:00:31  5-MIN KAQV 210400Z AUTO 18003KT 10SM BKN005 18/17 A2998 320 96 800 170/03 RMK AO2 T01780172
03949KAQV AQV20160420220511004/20/16 22:05:31  5-MIN KAQV 210405Z AUTO 18004KT 10SM OVC004 18/17 A2998 320 96 800 180/04 RMK AO2 T01780172
03949KAQV AQV20160420221011004/20/16 22:10:31  5-MIN KAQV 210410Z AUTO 18004KT 10SM OVC004 18/17 A2998 320 96 800 180/04 RMK AO2 T01780172
03949KAQV AQV20160420221511004/20/16 22:15:31  5-MIN KAQV 210415Z AUTO 20004KT 10SM OVC004 18/17 A2998 320 96 800 190/04 RMK AO2 T01780172
03949KAQV AQV20160420222011004/20/16 22:20:31  5-MIN KAQV 210420Z AUTO 19004KT 10SM OVC003 18/17 A2998 320 96 800 180/04 RMK AO2 T01780172
03949KAQV AQV20160420222510904/20/16 22:25:31  5-MIN KAQV 210425Z AUTO VRB04KT 8SM OVC003 18/17 A2998 320 96 800 VRB/04 RMK AO2 T01780172
03949KAQV AQV20160420223011204/20/16 22:30:31  5-MIN KAQV 210430Z AUTO 18005KT 5SM BR OVC003 18/17 A2998 320 96 800 180/05 RMK AO2 T01780172
03949KAQV AQV20160420223511304/20/16 22:35:31  5-MIN KAQV 210435Z AUTO 18003KT 4SM BR OVC002 17/17 A2998 330 100 700 170/03 RMK AO2 T01720172
03949KAQV AQV20160420224011304/20/16 22:40:31  5-MIN KAQV 210440Z AUTO VRB03KT 5SM BR OVC002 17/17 A2997 330 100 700 VRB/03 RMK AO2 T01720172
03949KAQV AQV20160420224511304/20/16 22:45:31  5-MIN KAQV 210445Z AUTO 00000KT 6SM BR OVC002 17/17 A2997 330 100 700 000/00 RMK AO2 T01720172
03949KAQV AQV20160420225012004/20/16 22:50:31  5-MIN KAQV 210450Z AUTO 18003KT 4SM BR OVC002 17/17 A2997 330 100 700 180/03 RMK AO2 SLP148 T01720172
03949KAQV AQV20160420225512004/20/16 22:55:31  5-MIN KAQV 210455Z AUTO 18003KT 2SM BR OVC002 17/17 A2997 330 100 700 180/03 RMK AO2 SLP147 T01720172
03949KAQV AQV20160420230011304/20/16 23:00:31  5-MIN KAQV 210500Z AUTO 17003KT 1SM BR OVC002 17/17 A2997 330 100 700 170/03 RMK AO2 T01720172
03949KAQV AQV20160420230511504/20/16 23:05:31  5-MIN KAQV 210505Z AUTO 00000KT 3/4SM BR OVC002 17/17 A2997 330 100 700 000/00 RMK AO2 T01720172
03949KAQV AQV20160420231011404/20/16 23:10:31  5-MIN KAQV 210510Z AUTO 17003KT 3/4SM BR OVC002 17/17 A2998 320 96 700 170/03 RMK AO2 T01720167
03949KAQV AQV20160421103012504/21/16 10:30:31  5-MIN KAQV 211630Z AUTO VRB04KT 10SM SCT015 BKN019 OVC024 23/19 A2996 340 78 1400 VRB/04 RMK AO2 T02280189
03949KAQV AQV20160421103511804/21/16 10:35:31  5-MIN KAQV 211635Z AUTO 25003KT 10SM SCT015 OVC024 23/19 A2996 340 78 1400 250/03 RMK AO2 T02280189
03949KAQV AQV20160421104011804/21/16 10:40:31  5-MIN KAQV 211640Z AUTO VRB04KT 10SM SCT015 OVC024 23/19 A2996 340 78 1400 VRB/04 RMK AO2 T02280189
03949KAQV AQV20160421104511804/21/16 10:45:31  5-MIN KAQV 211645Z AUTO VRB03KT 10SM BKN017 OVC024 23/19 A2996 340 78 1400 VRB/03 RMK AO2 T02280189
03949KAQV AQV20160421105012504/21/16 10:50:31  5-MIN KAQV 211650Z AUTO 00000KT 10SM BKN017 OVC024 23/19 A2996 340 78 1400 000/00 RMK AO2 SLP143 T02280189
03949KAQV AQV20160421105512504/21/16 10:55:31  5-MIN KAQV 211655Z AUTO 00000KT 10SM BKN015 BKN024 23/19 A2996 340 78 1400 000/00 RMK AO2 SLP143 T02280189
03949KAQV AQV20160421110011804/21/16 11:00:31  5-MIN KAQV 211700Z AUTO 00000KT 10SM BKN015 BKN024 23/19 A2996 340 78 1400 000/00 RMK AO2 T02280189
03949KAQV AQV20160421110512504/21/16 11:05:31  5-MIN KAQV 211705Z AUTO 00000KT 10SM BKN015 BKN020 OVC024 23/19 A2995 340 78 1400 000/00 RMK AO2 T02280189
03949KAQV AQV20160421111011104/21/16 11:10:31  5-MIN KAQV 211710Z AUTO 25004KT 10SM BKN015 22/19 A2996 340 81 1300 240/04 RMK AO2 T02220189
03949KAQV AQV20160421111511804/21/16 11:15:31  5-MIN KAQV 211715Z AUTO VRB03KT 10SM BKN015 BKN023 23/19 A2995 350 78 1400 VRB/03 RMK AO2 T02280189
03949KAQV AQV20160421112012504/21/16 11:20:31  5-MIN KAQV 211720Z AUTO VRB03KT 10SM BKN017 BKN023 BKN037 23/19 A2995 350 78 1400 VRB/03 RMK AO2 T02280189
03949KAQV AQV20160421112512504/21/16 11:25:31  5-MIN KAQV 211725Z AUTO 00000KT 10SM BKN017 BKN023 BKN037 23/19 A2995 350 81 1400 000/00 RMK AO2 T02280194
03949KAQV AQV20160421113012504/21/16 11:30:31  5-MIN KAQV 211730Z AUTO 22003KT 10SM SCT017 SCT023 BKN035 22/19 A2996 340 81 1300 210/03 RMK AO2 T02220189
03949KAQV AQV20160421113513404/21/16 11:35:31  5-MIN KAQV 211735Z AUTO 24003KT 10SM TS SCT017 SCT025 BKN035 22/19 A2996 340 81 1300 230/03 RMK AO2 TSB35 T02220189
03949KAQV AQV20160421114013404/21/16 11:40:31  5-MIN KAQV 211740Z AUTO VRB03KT 10SM TS FEW020 SCT025 BKN035 22/19 A2996 340 81 1300 VRB/03 RMK AO2 TSB35 T02220189
03949KAQV AQV20160421114513404/21/16 11:45:31  5-MIN KAQV 211745Z AUTO VRB03KT 10SM TS FEW018 BKN025 BKN035 22/19 A2996 340 81 1300 VRB/03 RMK AO2 TSB35 T02220189
03949KAQV AQV20160421115012404/21/16 11:50:31  5-MIN KAQV 211750Z AUTO 00000KT 10SM TS FEW018 BKN025 BKN035 22/19 A2996 340 84 1300 000/00 RMK AO2 TSB35
03949KAQV AQV20160421115515204/21/16 11:55:31  5-MIN KAQV 211755Z AUTO 00000KT 10SM TS SCT016 BKN026 22/19 A2996 340 84 1300 000/00 RMK AO2 TSB35 SLP144 T02220194 10228 20172 55001
03949KAQV AQV20160421120012904/21/16 12:00:31  5-MIN KAQV 211800Z AUTO 00000KT 10SM TS SCT016 BKN026 22/19 A2996 340 87 1200 000/00 RMK AO2 TSB1759 T02170194
03949KAQV AQV20160421120513604/21/16 12:05:31  5-MIN KAQV 211805Z AUTO 00000KT 10SM TS FEW016 SCT024 BKN034 22/19 A2996 340 87 1200 000/00 RMK AO2 TSB1759 T02170194
03949KAQV AQV20160421121013204/21/16 12:10:31  5-MIN KAQV 211810Z AUTO 00000KT 10SM TS FEW016 BKN029 22/19 A2996 340 87 1200 000/00 RMK AO2 TSB1759B07 T02170194
03949KAQV AQV20160421121515404/21/16 12:15:31  5-MIN KAQV 211815Z AUTO 00000KT 10SM -TSRA FEW016 BKN029 BKN090 22/19 A2996 340 87 1200 000/00 RMK AO2 RAB13 TSB1759B07 P0000 T02170194
03949KAQV AQV20160421122015304/21/16 12:20:31  5-MIN KAQV 211820Z AUTO 18003KT 7SM -TSRA SCT014 BKN029 BKN090 21/20 A2997 330 93 1200 170/03 RMK AO2 RAB13 TSB1759B07 P0000 T02110200
03949KAQV AQV20160421122515604/21/16 12:25:31  5-MIN KAQV 211825Z AUTO 00000KT 5SM -TSRA BR BKN012 BKN029 BKN090 21/20 A2997 330 93 1200 000/00 RMK AO2 RAB13 TSB1759B07 P0001 T02110200
03949KAQV AQV20160421123015504/21/16 12:30:31  5-MIN KAQV 211830Z AUTO 00000KT 3SM TSRA BR BKN012 BKN029 OVC090 21/19 A2996 340 90 1200 000/00 RMK AO2 RAB13 TSB1759B07 P0003 T02110194
03949KAQV AQV20160421123516004/21/16 12:35:31  5-MIN KAQV 211835Z AUTO 00000KT 1 3/4SM +TSRA BR BKN012 BKN027 OVC065 21/20 A2997 330 97 1100 000/00 RMK AO2 RAB13 TSB1759B07 P0005 T02060200
03949KAQV AQV20160421124015904/21/16 12:40:31  5-MIN KAQV 211840Z AUTO 00000KT 1 3/4SM TSRA BR BKN012 BKN050 OVC090 21/20 A2997 330 97 1100 000/00 RMK AO2 RAB13 TSB1759B07 P0007 T02060200
03949KAQV AQV20160421124515904/21/16 12:45:31  5-MIN KAQV 211845Z AUTO 17003KT 1 1/2SM TSRA BR BKN011 BKN049 OVC090 21/20 A2997 330 97 1100 160/03 RMK AO2 RAB13 TSB1759B07 P0010 T02060200
03949KAQV AQV20160421125014904/21/16 12:50:31  5-MIN KAQV 211850Z AUTO 15005KT 1 1/2SM TSRA BR BKN009 BKN021 OVC050 21/20 A2996 340 97 1100 150/05 RMK AO2 RAB13 TSB1759B07 P0011
03949KAQV AQV20160421125516204/21/16 12:55:31  5-MIN KAQV 211855Z AUTO 00000KT 2SM TSRA BR SCT009 BKN017 OVC080 21/20 A2995 340 97 1100 000/00 RMK AO2 RAB13 TSB1759B07 SLP142 P0013 T02060200
03949KAQV AQV20160421130013804/21/16 13:00:31  5-MIN KAQV 211900Z AUTO 00000KT 2SM TSRA BR SCT009 BKN050 OVC095 21/20 A2996 340 97 1100 000/00 RMK AO2 P0002 T02060200
03949KAQV AQV20160421130513804/21/16 13:05:31  5-MIN KAQV 211905Z AUTO VRB03KT 2SM TSRA BR FEW007 BKN070 OVC095 21/19 A2995 350 93 1100 VRB/03 RMK AO2 P0003 T02060194
03949KAQV AQV20160421131013804/21/16 13:10:31  5-MIN KAQV 211910Z AUTO 16003KT 2SM TSRA BR FEW008 BKN075 OVC095 20/19 A2994 350 93 1100 160/03 RMK AO2 P0006 T02000189
03949KAQV AQV20160421131514204/21/16 13:15:31  5-MIN KAQV 211915Z AUTO 15003KT 2 1/2SM TSRA BR FEW013 BKN080 OVC100 20/19 A2994 360 97 1100 140/03 RMK AO2 P0007 T02000194
03949KAQV AQV20160421132013904/21/16 13:20:31  5-MIN KAQV 211920Z AUTO 15004KT 3SM -TSRA BR SCT070 BKN090 OVC100 19/19 A2994 360 97 1000 150/04 RMK AO2 P0008 T01940189
03949KAQV AQV20160421132513804/21/16 13:25:31  5-MIN KAQV 211925Z AUTO 15005KT 4SM TSRA BR FEW070 BKN090 OVC100 19/18 A2993 370 93 1000 150/05 RMK AO2 P0009 T01940183
03949KAQV AQV20160421133013204/21/16 13:30:31  5-MIN KAQV 211930Z AUTO VRB05KT 5SM -TSRA BR FEW070 OVC100 19/17 A2993 370 90 1000 VRB/05 RMK AO2 P0010 T01890172
03949KAQV AQV20160421133513804/21/16 13:35:31  5-MIN KAQV 211935Z AUTO VRB04KT 5SM -TSRA BR FEW070 BKN090 OVC110 18/16 A2994 360 87 900 VRB/04 RMK AO2 P0011 T01830161
03949KAQV AQV20160421134013804/21/16 13:40:31  5-MIN KAQV 211940Z AUTO 31004KT 5SM -TSRA BR FEW050 BKN090 OVC110 18/16 A2993 360 87 900 310/04 RMK AO2 P0011 T01830161
03949KAQV AQV20160421134514204/21/16 13:45:31  5-MIN KAQV 211945Z AUTO VRB04KT 6SM -RA BR SCT048 BKN065 OVC110 18/17 A2993 370 90 900 VRB/04 RMK AO2 TSE41 P0011 T01830167
03949KAQV AQV20160421135014604/21/16 13:50:31  5-MIN KAQV 211950Z AUTO VRB06KT 8SM -RA SCT039 BKN065 OVC100 18/17 A2992 380 90 900 VRB/06 RMK AO2 TSE41 SLP130 P0012 T01830167
03949KAQV AQV20160421135514704/21/16 13:55:31  5-MIN KAQV 211955Z AUTO 00000KT 10SM -RA FEW044 SCT065 OVC100 18/17 A2992 380 90 900 000/00 RMK AO2 TSE41 SLP130 P0012 T01830167
03949KAQV AQV20160421140013804/21/16 14:00:31  5-MIN KAQV 212000Z AUTO 14004KT 10SM FEW046 SCT065 OVC100 18/17 A2992 380 90 900 130/04 RMK AO2 RAE1958 P0000 T01830167
03949KAQV AQV20160421140513904/21/16 14:05:31  5-MIN KAQV 212005Z AUTO VRB03KT 10SM FEW041 FEW050 OVC100 19/17 A2992 380 90 1000 VRB/03 RMK AO2 RAE1958 P0000 T01890172
03949KAQV AQV20160421141013904/21/16 14:10:31  5-MIN KAQV 212010Z AUTO VRB03KT 10SM FEW039 FEW050 OVC100 19/17 A2991 380 87 1000 VRB/03 RMK AO2 RAE1958 P0000 T01890167
03949KAQV AQV20160421141512504/21/16 14:15:31  5-MIN KAQV 212015Z AUTO VRB03KT 10SM OVC100 19/17 A2991 380 90 1000 VRB/03 RMK AO2 RAE1958 P0000 T01890172
03949KAQV AQV20160421142012504/21/16 14:20:31  5-MIN KAQV 212020Z AUTO 00000KT 10SM BKN100 19/17 A2992 380 90 1000 000/00 RMK AO2 RAE1958 P0000 T01890172
03949KAQV AQV20160421142512504/21/16 14:25:31  5-MIN KAQV 212025Z AUTO 33003KT 10SM BKN100 19/18 A2992 380 90 1000 330/03 RMK AO2 RAE1958 P0000 T01940178
03949KAQV AQV20160421143012504/21/16 14:30:31  5-MIN KAQV 212030Z AUTO 35005KT 10SM BKN100 19/18 A2991 390 90 1000 350/05 RMK AO2 RAE1958 P0000 T01940178
03949KAQV AQV20160421143512504/21/16 14:35:31  5-MIN KAQV 212035Z AUTO 01005KT 10SM SCT100 19/18 A2990 390 90 1000 010/05 RMK AO2 RAE1958 P0000 T01940178
03949KAQV AQV20160421144012504/21/16 14:40:31  5-MIN KAQV 212040Z AUTO 00000KT 10SM FEW100 20/18 A2990 400 87 1100 000/00 RMK AO2 RAE1958 P0000 T02000178
03949KAQV AQV20160421144512504/21/16 14:45:31  5-MIN KAQV 212045Z AUTO VRB03KT 10SM FEW100 20/18 A2990 400 87 1100 VRB/03 RMK AO2 RAE1958 P0000 T02000178
03949KAQV AQV20160421145014404/21/16 14:50:31  5-MIN KAQV 212050Z AUTO 00000KT 10SM FEW100 20/17 A2990 390 84 1100 000/00 RMK AO2 RAE1958 SLP124 P0000 60025 T02000172 55000
03949KAQV AQV20160421145514104/21/16 14:55:31  5-MIN KAQV 212055Z AUTO VRB04KT 10SM CLR 21/18 A2990 390 81 1200 VRB/04 RMK AO2 RAE1958 SLP123 P0000 60025 T02110178 55000
03949KAQV AQV20160421150010804/21/16 15:00:31  5-MIN KAQV 212100Z AUTO 35003KT 10SM CLR 21/18 A2990 400 81 1200 350/03 RMK AO2 T02110178
03949KAQV AQV20160421150510804/21/16 15:05:31  5-MIN KAQV 212105Z AUTO 00000KT 10SM CLR 22/17 A2990 390 75 1300 000/00 RMK AO2 T02170172
03949KAQV AQV20160421151010804/21/16 15:10:31  5-MIN KAQV 212110Z AUTO VRB03KT 10SM CLR 22/18 A2990 390 78 1300 VRB/03 RMK AO2 T02170178
03949KAQV AQV20160421151510804/21/16 15:15:31  5-MIN KAQV 212115Z AUTO 22004KT 10SM CLR 22/17 A2990 400 73 1300 220/04 RMK AO2 T02170167
03949KAQV AQV20160421152010804/21/16 15:20:31  5-MIN KAQV 212120Z AUTO 00000KT 10SM CLR 22/17 A2990 400 73 1300 000/00 RMK AO2 T02170167
03949KAQV AQV20160421152510804/21/16 15:25:31  5-MIN KAQV 212125Z AUTO 00000KT 10SM CLR 22/17 A2990 400 73 1300 000/00 RMK AO2 T02170167
03949KAQV AQV20160421153010804/21/16 15:30:31  5-MIN KAQV 212130Z AUTO 00000KT 10SM CLR 22/17 A2990 400 73 1300 000/00 RMK AO2 T02170167
03949KAQV AQV20160421153510804/21/16 15:35:31  5-MIN KAQV 212135Z AUTO VRB03KT 10SM CLR 22/17 A2990 400 70 1400 VRB/03 RMK AO2 T02220167
03949KAQV AQV20160421154010804/21/16 15:40:31  5-MIN KAQV 212140Z AUTO 27003KT 10SM CLR 22/16 A2990 400 68 1400 270/03 RMK AO2 T02220161
03949KAQV AQV20160421154510804/21/16 15:45:31  5-MIN KAQV 212145Z AUTO 25003KT 10SM CLR 23/16 A2990 400 65 1400 250/03 RMK AO2 T02280161
03949KAQV AQV20160421155011504/21/16 15:50:31  5-MIN KAQV 212150Z AUTO 00000KT 10SM CLR 23/16 A2990 400 65 1400 000/00 RMK AO2 SLP122 T02280161
03949KAQV AQV20160421155511504/21/16 15:55:31  5-MIN KAQV 212155Z AUTO VRB04KT 10SM CLR 23/16 A2989 400 65 1400 VRB/04 RMK AO2 SLP121 T02280161
03949KAQV AQV20160421160010804/21/16 16:00:31  5-MIN KAQV 212200Z AUTO 00000KT 10SM CLR 22/16 A2989 400 68 1400 000/00 RMK AO2 T02220161
03949KAQV AQV20160421160510804/21/16 16:05:31  5-MIN KAQV 212205Z AUTO 00000KT 10SM CLR 23/17 A2989 400 68 1400 000/00 RMK AO2 T02280167
03949KAQV AQV20160421161010804/21/16 16:10:31  5-MIN KAQV 212210Z AUTO 00000KT 10SM CLR 23/17 A2989 400 66 1500 000/00 RMK AO2 T02330167
03949KAQV AQV20160421161510804/21/16 16:15:31  5-MIN KAQV 212215Z AUTO 00000KT 10SM CLR 23/16 A2989 400 63 1500 000/00 RMK AO2 T02330161
03949KAQV AQV20160421162011104/21/16 16:20:31  5-MIN KAQV 212220Z AUTO 00000KT 10SM FEW025 23/17 A2989 400 66 1500 000/00 RMK AO2 T02330167
03949KAQV AQV20160421162511104/21/16 16:25:31  5-MIN KAQV 212225Z AUTO 00000KT 10SM SCT025 23/17 A2989 400 68 1400 000/00 RMK AO2 T02280167
03949KAQV AQV20160421163011104/21/16 16:30:31  5-MIN KAQV 212230Z AUTO 00000KT 10SM BKN025 22/17 A2989 400 70 1400 000/00 RMK AO2 T02220167
03949KAQV AQV20160421163511104/21/16 16:35:31  5-MIN KAQV 212235Z AUTO 00000KT 10SM SCT025 23/17 A2989 400 68 1400 000/00 RMK AO2 T02280167
03949KAQV AQV20160421164011104/21/16 16:40:31  5-MIN KAQV 212240Z AUTO 00000KT 10SM SCT025 23/17 A2989 400 68 1400 000/00 RMK AO2 T02280167
03949KAQV AQV20160421164511104/21/16 16:45:31  5-MIN KAQV 212245Z AUTO 35003KT 10SM SCT025 23/17 A2989 400 68 1400 340/03 RMK AO2 T02280167
03949KAQV AQV20160421165011804/21/16 16:50:31  5-MIN KAQV 212250Z AUTO VRB03KT 10SM FEW025 23/17 A2989 400 68 1400 VRB/03 RMK AO2 SLP120 T02280167
03949KAQV AQV20160421165511804/21/16 16:55:31  5-MIN KAQV 212255Z AUTO 00000KT 10SM FEW025 23/17 A2989 400 70 1400 000/00 RMK AO2 SLP120 T02280172
03949KAQV AQV20160421170010804/21/16 17:00:31  5-MIN KAQV 212300Z AUTO 00000KT 10SM CLR 23/17 A2989 410 68 1400 000/00 RMK AO2 T02280167
03949KAQV AQV20160421170510804/21/16 17:05:31  5-MIN KAQV 212305Z AUTO 00000KT 10SM CLR 23/17 A2989 410 66 1500 000/00 RMK AO2 T02330167
03949KAQV AQV20160421171010804/21/16 17:10:31  5-MIN KAQV 212310Z AUTO 00000KT 10SM CLR 23/17 A2989 410 68 1400 000/00 RMK AO2 T02280167
03949KAQV AQV20160421171510804/21/16 17:15:31  5-MIN KAQV 212315Z AUTO 00000KT 10SM CLR 23/16 A2989 410 65 1400 000/00 RMK AO2 T02280161
03949KAQV AQV20160421172010804/21/16 17:20:31  5-MIN KAQV 212320Z AUTO 00000KT 10SM CLR 23/16 A2989 410 65 1400 000/00 RMK AO2 T02280161
03949KAQV AQV20160421172510804/21/16 17:25:31  5-MIN KAQV 212325Z AUTO 00000KT 10SM CLR 22/17 A2989 400 73 1400 000/00 RMK AO2 T02220172
03949KAQV AQV20160421173010804/21/16 17:30:31  5-MIN KAQV 212330Z AUTO 00000KT 10SM CLR 22/18 A2989 400 75 1400 000/00 RMK AO2 T02220178
03949KAQV AQV20160421173510804/21/16 17:35:31  5-MIN KAQV 212335Z AUTO 00000KT 10SM CLR 22/18 A2989 400 75 1400 000/00 RMK AO2 T02220178
03949KAQV AQV20160421174010804/21/16 17:40:31  5-MIN KAQV 212340Z AUTO 00000KT 10SM CLR 23/17 A2989 400 70 1400 000/00 RMK AO2 T02280172
03949KAQV AQV20160421174510804/21/16 17:45:31  5-MIN KAQV 212345Z AUTO 00000KT 10SM CLR 23/18 A2990 400 73 1400 000/00 RMK AO2 T02280178
03949KAQV AQV20160421175013904/21/16 17:50:31  5-MIN KAQV 212350Z AUTO 00000KT 10SM CLR 23/17 A2990 390 68 1400 000/00 RMK AO2 SLP124 60025 T02280167 10233 20178 58019
03949KAQV AQV20160421175513904/21/16 17:55:31  5-MIN KAQV 212355Z AUTO 00000KT 10SM CLR 23/17 A2990 390 68 1400 000/00 RMK AO2 SLP124 60025 T02280167 10233 20178 58019
03949KAQV AQV20160421212010604/21/16 21:20:31  5-MIN KAQV 220320Z AUTO 00000KT 7SM CLR 17/16 A2996 340 96 700 000/00 RMK AO2 T01670161
03949KAQV AQV20160421212511004/21/16 21:25:31  5-MIN KAQV 220325Z AUTO 00000KT 4SM BR CLR 16/16 A2996 340 100 600 000/00 RMK AO2 T01610161
03949KAQV AQV20160421213010904/21/16 21:30:31  5-MIN KAQV 220330Z AUTO 00000KT 3SM BR CLR 16/16 A2996 340 96 600 000/00 RMK AO2 T01610156
03949KAQV AQV20160421213510904/21/16 21:35:31  5-MIN KAQV 220335Z AUTO 00000KT 5SM BR CLR 17/16 A2996 340 96 700 000/00 RMK AO2 T01670161
03949KAQV AQV20160421214010604/21/16 21:40:31  5-MIN KAQV 220340Z AUTO 00000KT 8SM CLR 17/16 A2996 340 96 600 000/00 RMK AO2 T01670161
03949KAQV AQV20160421214510604/21/16 21:45:31  5-MIN KAQV 220345Z AUTO 00000KT 8SM CLR 17/16 A2996 340 96 600 000/00 RMK AO2 T01670161
03949KAQV AQV20160421215011304/21/16 21:50:31  5-MIN KAQV 220350Z AUTO 00000KT 9SM CLR 17/16 A2996 340 96 700 000/00 RMK AO2 SLP145 T01670161
03949KAQV AQV20160421215511304/21/16 21:55:31  5-MIN KAQV 220355Z AUTO 00000KT 9SM CLR 16/16 A2996 340 96 600 000/00 RMK AO2 SLP145 T01610156
03949KAQV AQV20160421220010604/21/16 22:00:31  5-MIN KAQV 220400Z AUTO 00000KT 8SM CLR 16/16 A2996 340 96 600 000/00 RMK AO2 T01610156
03949KAQV AQV20160421220510604/21/16 22:05:31  5-MIN KAQV 220405Z AUTO 00000KT 7SM CLR 16/16 A2997 330 96 600 000/00 RMK AO2 T01610156
03949KAQV AQV20160421221010604/21/16 22:10:31  5-MIN KAQV 220410Z AUTO 00000KT 8SM CLR 16/16 A2997 330 96 600 000/00 RMK AO2 T01610156
03949KAQV AQV20160421221510604/21/16 22:15:31  5-MIN KAQV 220415Z AUTO 00000KT 9SM CLR 16/16 A2997 330 96 600 000/00 RMK AO2 T01610156
03949KAQV AQV20160421222010604/21/16 22:20:31  5-MIN KAQV 220420Z AUTO 00000KT 8SM CLR 16/16 A2997 330 96 600 000/00 RMK AO2 T01610156
03949KAQV AQV20160421222510604/21/16 22:25:31  5-MIN KAQV 220425Z AUTO 00000KT 8SM CLR 16/16 A2997 330 96 600 000/00 RMK AO2 T01610156
03949KAQV AQV20160421223010604/21/16 22:30:31  5-MIN KAQV 220430Z AUTO 00000KT 9SM CLR 16/16 A2997 330 96 600 000/00 RMK AO2 T01610156
03949KAQV AQV20160421223510704/21/16 22:35:31  5-MIN KAQV 220435Z AUTO 00000KT 10SM CLR 16/16 A2998 330 96 600 000/00 RMK AO2 T01610156
03949KAQV AQV20160421224010704/21/16 22:40:31  5-MIN KAQV 220440Z AUTO 00000KT 10SM CLR 17/16 A2998 330 93 600 000/00 RMK AO2 T01670156
03949KAQV AQV20160421224510704/21/16 22:45:31  5-MIN KAQV 220445Z AUTO 00000KT 10SM CLR 16/16 A2998 330 96 600 000/00 RMK AO2 T01610156
03949KAQV AQV20160421225011404/21/16 22:50:31  5-MIN KAQV 220450Z AUTO 00000KT 10SM CLR 16/16 A2998 320 96 600 000/00 RMK AO2 SLP149 T01610156
03949KAQV AQV20160421225511404/21/16 22:55:31  5-MIN KAQV 220455Z AUTO 00000KT 10SM CLR 16/16 A2998 320 96 600 000/00 RMK AO2 SLP150 T01610156
03949KAQV AQV20160421230010704/21/16 23:00:31  5-MIN KAQV 220500Z AUTO 00000KT 10SM CLR 16/16 A2998 320 96 600 000/00 RMK AO2 T01610156
03949KAQV AQV20160421230510604/21/16 23:05:31  5-MIN KAQV 220505Z AUTO 00000KT 9SM CLR 16/16 A2998 320 96 600 000/00 RMK AO2 T01610156
03949KAQV AQV20160421231010604/21/16 23:10:31  5-MIN KAQV 220510Z AUTO 00000KT 8SM CLR 16/16 A2998 320 96 600 000/00 RMK AO2 T01610156
03949KAQV AQV20160421231510604/21/16 23:15:31  5-MIN KAQV 220515Z AUTO 00000KT 8SM CLR 16/16 A2998 320 96 600 000/00 RMK AO2 T01610156
03949KAQV AQV20160421232010604/21/16 23:20:31  5-MIN KAQV 220520Z AUTO 00000KT 9SM CLR 16/16 A2998 320 96 600 000/00 RMK AO2 T01610156
03949KAQV AQV20160421232510904/21/16 23:25:31  5-MIN KAQV 220525Z AUTO 00000KT 5SM BR CLR 16/16 A2998 320 96 600 000/00 RMK AO2 T01610156
03949KAQV AQV20160421233011304/21/16 23:30:31  5-MIN KAQV 220530Z AUTO 00000KT 2 1/2SM BR CLR 16/16 A2998 330 96 600 000/00 RMK AO2 T01610156
03949KAQV AQV20160421233512504/21/16 23:35:31  5-MIN KAQV 220535Z AUTO 00000KT 2 1/2SM BR CLR 16/16 A2997 330 96 600 000/00 RMK AO2 VIS 1 1/2V5 T01610156
03949KAQV AQV20160421234011204/21/16 23:40:31  5-MIN KAQV 220540Z AUTO 00000KT 6SM BR FEW003 17/16 A2997 330 93 600 000/00 RMK AO2 T01670156
03949KAQV AQV20160421234510904/21/16 23:45:31  5-MIN KAQV 220545Z AUTO 00000KT 7SM SCT003 16/16 A2997 330 96 600 000/00 RMK AO2 T01610156
03949KAQV AQV20160421235010204/21/16 23:50:31  5-MIN KAQV 220550Z AUTO 00000KT 5SM BR BKN003 16/16 A2997 330 96 600 000/00 RMK AO2
03949KAQV AQV20160421235514704/21/16 23:55:31  5-MIN KAQV 220555Z AUTO 00000KT 3SM BR BKN002 16/16 A2997 330 96 600 000/00 RMK AO2 SLP148 T01610156 10228 20156 402330156 50004
03949KAQV AQV20160422000011204/22/16 00:00:31  5-MIN KAQV 220600Z AUTO VRB03KT 2SM BR BKN002 16/16 A2997 330 96 600 VRB/03 RMK AO2 T01610156
03949KAQV AQV20160422000511204/22/16 00:05:31  5-MIN KAQV 220605Z AUTO VRB03KT 1SM BR OVC002 17/16 A2997 330 96 600 VRB/03 RMK AO2 T01670161
03949KAQV AQV20160422001011404/22/16 00:10:31  5-MIN KAQV 220610Z AUTO 23003KT 3/4SM BR OVC002 17/16 A2997 330 96 600 230/03 RMK AO2 T01670161
03949KAQV AQV20160422001511404/22/16 00:15:31  5-MIN KAQV 220615Z AUTO 22004KT 3/4SM BR OVC002 17/16 A2997 330 96 600 220/04 RMK AO2 T01670161
03949KAQV AQV20160422002011504/22/16 00:20:31  5-MIN KAQV 220620Z AUTO VRB03KT 3/4SM BR OVC002 17/17 A2997 330 100 600 VRB/03 RMK AO2 T01670167
03949KAQV AQV20160422002511304/22/16 00:25:31  5-MIN KAQV 220625Z AUTO VRB03KT 3/4SM BR VV002 17/17 A2997 330 96 700 VRB/03 RMK AO2 T01720167
03949KAQV AQV20160422003011304/22/16 00:30:31  5-MIN KAQV 220630Z AUTO VRB03KT 3/4SM BR VV002 17/17 A2997 330 96 700 VRB/03 RMK AO2 T01720167
03949KAQV AQV20160422003511304/22/16 00:35:31  5-MIN KAQV 220635Z AUTO 00000KT 3/4SM BR VV002 17/17 A2997 330 96 700 000/00 RMK AO2 T01720167
03949KAQV AQV20160422004011304/22/16 00:40:31  5-MIN KAQV 220640Z AUTO 00000KT 1/2SM FG VV002 17/17 A2996 340 96 700 000/00 RMK AO2 T01720167
03949KAQV AQV20160422004511304/22/16 00:45:31  5-MIN KAQV 220645Z AUTO 00000KT 1/2SM FG VV002 17/17 A2997 330 96 700 000/00 RMK AO2 T01720167
03949KAQV AQV20160422005012104/22/16 00:50:31  5-MIN KAQV 220650Z AUTO 00000KT 3/4SM BR VV002 17/17 A2997 330 100 700 000/00 RMK AO2 SLP145 T01720172
03949KAQV AQV20160422005512104/22/16 00:55:31  5-MIN KAQV 220655Z AUTO 00000KT 3/4SM BR VV003 17/17 A2997 330 100 700 000/00 RMK AO2 SLP146 T01720172
03949KAQV AQV20160422010011404/22/16 01:00:31  5-MIN KAQV 220700Z AUTO 00000KT 3/4SM BR VV003 17/17 A2997 330 100 700 000/00 RMK AO2 T01720172
03949KAQV AQV20160422010511404/22/16 01:05:31  5-MIN KAQV 220705Z AUTO VRB03KT 3/4SM BR VV003 17/17 A2997 330 100 700 VRB/03 RMK AO2 T01720172
03949KAQV AQV20160422011011404/22/16 01:10:31  5-MIN KAQV 220710Z AUTO 25005KT 3/4SM BR VV003 17/17 A2997 330 100 700 250/05 RMK AO2 T01720172
03949KAQV AQV20160422011511404/22/16 01:15:31  5-MIN KAQV 220715Z AUTO 00000KT 3/4SM BR VV003 17/17 A2997 330 100 700 000/00 RMK AO2 T01720172
03949KAQV AQV20160422012011404/22/16 01:20:31  5-MIN KAQV 220720Z AUTO 00000KT 3/4SM BR VV003 17/17 A2997 330 100 700 000/00 RMK AO2 T01720172
03949KAQV AQV20160422012511404/22/16 01:25:31  5-MIN KAQV 220725Z AUTO 00000KT 3/4SM BR VV003 17/17 A2997 330 100 700 000/00 RMK AO2 T01720172
03949KAQV AQV20160422013011404/22/16 01:30:31  5-MIN KAQV 220730Z AUTO 25004KT 3/4SM BR VV003 17/17 A2997 330 100 700 250/04 RMK AO2 T01720172
03949KAQV AQV20160422013511404/22/16 01:35:31  5-MIN KAQV 220735Z AUTO 00000KT 3/4SM BR VV003 17/17 A2996 340 100 700 000/00 RMK AO2 T01720172
03949KAQV AQV20160422014011404/22/16 01:40:31  5-MIN KAQV 220740Z AUTO 00000KT 3/4SM BR VV003 17/17 A2996 340 100 700 000/00 RMK AO2 T01720172
03949KAQV AQV20160422014511204/22/16 01:45:31  5-MIN KAQV 220745Z AUTO 00000KT 1SM BR VV003 17/17 A2996 340 100 700 000/00 RMK AO2 T01720172
03949KAQV AQV20160422015011904/22/16 01:50:31  5-MIN KAQV 220750Z AUTO VRB04KT 1SM BR VV003 17/17 A2996 340 100 700 VRB/04 RMK AO2 SLP144 T01720172
03949KAQV AQV20160422015512404/22/16 01:55:31  5-MIN KAQV 220755Z AUTO VRB03KT 1 1/4SM BR OVC003 17/17 A2996 340 100 700 VRB/03 RMK AO2 SLP144 T01720172
03949KAQV AQV20160422020011704/22/16 02:00:31  5-MIN KAQV 220800Z AUTO 25003KT 1 3/4SM BR OVC003 17/17 A2996 340 100 700 240/03 RMK AO2 T01720172
03949KAQV AQV20160422020511704/22/16 02:05:31  5-MIN KAQV 220805Z AUTO VRB03KT 1 3/4SM BR OVC002 17/17 A2996 340 100 700 VRB/03 RMK AO2 T01720172
03949KAQV AQV20160422021011604/22/16 02:10:31  5-MIN KAQV 220810Z AUTO 25004KT 1 1/2SM BR OVC002 17/17 A2996 340 96 700 240/04 RMK AO2 T01720167
03949KAQV AQV20160422021511704/22/16 02:15:31  5-MIN KAQV 220815Z AUTO 25003KT 1 1/2SM BR OVC002 17/17 A2996 340 100 700 240/03 RMK AO2 T01720172
03949KAQV AQV20160422022011704/22/16 02:20:31  5-MIN KAQV 220820Z AUTO 00000KT 1 1/2SM BR OVC002 17/17 A2996 340 100 700 000/00 RMK AO2 T01720172
03949KAQV AQV20160422022511604/22/16 02:25:31  5-MIN KAQV 220825Z AUTO 26004KT 1 1/4SM BR OVC002 17/17 A2996 340 96 700 260/04 RMK AO2 T01720167
03949KAQV AQV20160422023011604/22/16 02:30:31  5-MIN KAQV 220830Z AUTO VRB03KT 1 1/4SM BR OVC002 17/17 A2996 340 96 700 VRB/03 RMK AO2 T01720167
03949KAQV AQV20160422023511704/22/16 02:35:31  5-MIN KAQV 220835Z AUTO 36005KT 1 1/4SM BR OVC002 17/17 A2997 330 100 700 360/05 RMK AO2 T01720172
03949KAQV AQV20160422024011704/22/16 02:40:31  5-MIN KAQV 220840Z AUTO 00000KT 1 1/4SM BR OVC002 17/17 A2997 330 100 700 000/00 RMK AO2 T01720172
03949KAQV AQV20160422024511304/22/16 02:45:31  5-MIN KAQV 220845Z AUTO 00000KT 1SM BR OVC002 17/17 A2996 340 100 700 000/00 RMK AO2 T01720172
03949KAQV AQV20160422025010404/22/16 02:50:31  5-MIN KAQV 220850Z AUTO 00000KT 3/4SM BR VV002 17/17 A2996 340 100 700 000/00 RMK AO2
03949KAQV AQV20160422025512704/22/16 02:55:31  5-MIN KAQV 220855Z AUTO 01003KT 3/4SM BR VV002 17/17 A2996 340 100 700 360/03 RMK AO2 SLP143 T01720172 51002
03949KAQV AQV20160422030011404/22/16 03:00:31  5-MIN KAQV 220900Z AUTO 00000KT 1/2SM FG VV002 17/17 A2996 340 100 700 000/00 RMK AO2 T01720172
03949KAQV AQV20160422030511404/22/16 03:05:31  5-MIN KAQV 220905Z AUTO 01003KT 1/2SM FG VV002 17/17 A2996 340 100 700 010/03 RMK AO2 T01720172
03949KAQV AQV20160422031011404/22/16 03:10:31  5-MIN KAQV 220910Z AUTO 02003KT 1/2SM FG VV002 17/17 A2996 340 100 700 020/03 RMK AO2 T01720172
03949KAQV AQV20160422031511404/22/16 03:15:31  5-MIN KAQV 220915Z AUTO 00000KT 1/2SM FG VV002 17/17 A2996 340 100 700 000/00 RMK AO2 T01720172
03949KAQV AQV20160422032011404/22/16 03:20:31  5-MIN KAQV 220920Z AUTO 00000KT 1/2SM FG VV002 17/17 A2995 340 100 700 000/00 RMK AO2 T01720172
03949KAQV AQV20160422032511404/22/16 03:25:31  5-MIN KAQV 220925Z AUTO 00000KT 1/2SM FG VV002 17/17 A2995 340 100 700 000/00 RMK AO2 T01720172
03949KAQV AQV20160422033011404/22/16 03:30:31  5-MIN KAQV 220930Z AUTO 00000KT 1/2SM FG VV002 17/17 A2995 340 100 700 000/00 RMK AO2 T01720172
03949KAQV AQV20160422033511404/22/16 03:35:31  5-MIN KAQV 220935Z AUTO 00000KT 1/2SM FG VV002 17/17 A2995 350 100 700 000/00 RMK AO2 T01720172
03949KAQV AQV20160422034011404/22/16 03:40:31  5-MIN KAQV 220940Z AUTO 00000KT 1/2SM FG VV002 17/17 A2995 350 100 700 000/00 RMK AO2 T01720172
03949KAQV AQV20160422034511404/22/16 03:45:31  5-MIN KAQV 220945Z AUTO 00000KT 1/2SM FG VV002 17/17 A2995 340 100 700 000/00 RMK AO2 T01720172
03949KAQV AQV20160422035012104/22/16 03:50:31  5-MIN KAQV 220950Z AUTO 00000KT 1/2SM FG VV003 17/17 A2996 340 100 700 000/00 RMK AO2 SLP142 T01720172
03949KAQV AQV20160422035512104/22/16 03:55:31  5-MIN KAQV 220955Z AUTO 00000KT 1/2SM FG VV003 17/17 A2995 340 100 700 000/00 RMK AO2 SLP142 T01720172
03949KAQV AQV20160422040011404/22/16 04:00:31  5-MIN KAQV 221000Z AUTO 00000KT 3/4SM BR VV003 17/17 A2995 340 100 700 000/00 RMK AO2 T01720172
03949KAQV AQV20160422040511404/22/16 04:05:31  5-MIN KAQV 221005Z AUTO 00000KT 3/4SM BR VV003 17/17 A2996 340 100 700 000/00 RMK AO2 T01720172
03949KAQV AQV20160422041011704/22/16 04:10:31  5-MIN KAQV 221010Z AUTO 00000KT 1 1/2SM BR OVC003 17/17 A2996 340 100 700 000/00 RMK AO2 T01720172
03949KAQV AQV20160422041511304/22/16 04:15:31  5-MIN KAQV 221015Z AUTO 00000KT 3SM BR OVC003 17/17 A2996 340 100 700 000/00 RMK AO2 T01720172
03949KAQV AQV20160422042011304/22/16 04:20:31  5-MIN KAQV 221020Z AUTO 00000KT 4SM BR OVC003 17/17 A2996 340 100 700 000/00 RMK AO2 T01720172
03949KAQV AQV20160422042511304/22/16 04:25:31  5-MIN KAQV 221025Z AUTO 00000KT 4SM BR OVC003 17/17 A2996 340 100 700 000/00 RMK AO2 T01720172
03949KAQV AQV20160422043011304/22/16 04:30:31  5-MIN KAQV 221030Z AUTO 24003KT 4SM BR OVC003 17/17 A2996 340 100 700 240/03 RMK AO2 T01720172
03949KAQV AQV20160422043511204/22/16 04:35:31  5-MIN KAQV 221035Z AUTO 24003KT 5SM BR OVC003 18/17 A2996 340 96 800 240/03 RMK AO2 T01780172
03949KAQV AQV20160422044011304/22/16 04:40:31  5-MIN KAQV 221040Z AUTO 00000KT 4SM BR OVC003 17/17 A2996 340 100 700 000/00 RMK AO2 T01720172
03949KAQV AQV20160422044511304/22/16 04:45:31  5-MIN KAQV 221045Z AUTO 00000KT 4SM BR OVC003 17/17 A2996 340 100 700 000/00 RMK AO2 T01720172
03949KAQV AQV20160422045012004/22/16 04:50:31  5-MIN KAQV 221050Z AUTO 26003KT 4SM BR OVC003 17/17 A2996 340 100 700 250/03 RMK AO2 SLP144 T01720172
03949KAQV AQV20160422045512004/22/16 04:55:31  5-MIN KAQV 221055Z AUTO VRB03KT 5SM BR OVC003 17/17 A2996 340 100 700 VRB/03 RMK AO2 SLP144 T01720172
03949KAQV AQV20160422050011304/22/16 05:00:31  5-MIN KAQV 221100Z AUTO 00000KT 5SM BR OVC003 17/17 A2996 340 100 700 000/00 RMK AO2 T01720172
03949KAQV AQV20160422050511304/22/16 05:05:31  5-MIN KAQV 221105Z AUTO 27003KT 6SM BR OVC003 17/17 A2997 330 100 700 260/03 RMK AO2 T01720172
03949KAQV AQV20160422051011004/22/16 05:10:31  5-MIN KAQV 221110Z AUTO 00000KT 7SM OVC003 17/17 A2997 330 100 700 000/00 RMK AO2 T01720172
03949KAQV AQV20160422051511004/22/16 05:15:31  5-MIN KAQV 221115Z AUTO 00000KT 8SM OVC003 17/17 A2997 330 100 700 000/00 RMK AO2 T01720172
03949KAQV AQV20160422052011004/22/16 05:20:31  5-MIN KAQV 221120Z AUTO VRB03KT 8SM OVC003 17/17 A2997 330 100 700 VRB/03 RMK AO2 T01720172
03949KAQV AQV20160422052511004/22/16 05:25:31  5-MIN KAQV 221125Z AUTO 00000KT 8SM OVC003 17/17 A2998 330 100 700 000/00 RMK AO2 T01720172
03949KAQV AQV20160422053011004/22/16 05:30:31  5-MIN KAQV 221130Z AUTO 00000KT 8SM OVC003 17/17 A2998 320 100 700 000/00 RMK AO2 T01720172
03949KAQV AQV20160422053511004/22/16 05:35:31  5-MIN KAQV 221135Z AUTO 00000KT 8SM OVC003 17/17 A2998 320 100 700 000/00 RMK AO2 T01720172
03949KAQV AQV20160422054011004/22/16 05:40:31  5-MIN KAQV 221140Z AUTO VRB03KT 7SM OVC003 17/17 A2998 320 100 700 VRB/03 RMK AO2 T01720172
03949KAQV AQV20160422054511004/22/16 05:45:31  5-MIN KAQV 221145Z AUTO 00000KT 7SM OVC003 17/17 A2998 320 100 700 000/00 RMK AO2 T01720172
03949KAQV AQV20160422055014004/22/16 05:50:31  5-MIN KAQV 221150Z AUTO VRB03KT 8SM OVC003 17/17 A2998 320 96 700 VRB/03 RMK AO2 SLP152 70025 T01720167 10178 20161 56004
03949KAQV AQV20160422055514004/22/16 05:55:31  5-MIN KAQV 221155Z AUTO 00000KT 9SM OVC003 17/17 A2999 310 96 700 000/00 RMK AO2 SLP153 70025 T01720167 10178 20161 56004
03949KAQV AQV20160422060010904/22/16 06:00:31  5-MIN KAQV 221200Z AUTO 35003KT 9SM OVC003 17/17 A2999 310 96 700 340/03 RMK AO2 T01720167
03949KAQV AQV20160422060510904/22/16 06:05:31  5-MIN KAQV 221205Z AUTO 35003KT 9SM OVC004 17/17 A2999 310 96 700 340/03 RMK AO2 T01720167
03949KAQV AQV20160422061012104/22/16 06:10:31  5-MIN KAQV 221210Z AUTO 00000KT 9SM OVC004 17/17 A3000 310 96 700 000/00 RMK AO2 CIG 002V008 T01720167
03949KAQV AQV20160422061512104/22/16 06:15:31  5-MIN KAQV 221215Z AUTO 36006KT 9SM OVC004 17/17 A3000 310 96 700 350/06 RMK AO2 CIG 003V006 T01720167
03949KAQV AQV20160422062012204/22/16 06:20:31  5-MIN KAQV 221220Z AUTO 36005KT 10SM OVC004 17/17 A3000 300 96 700 350/05 RMK AO2 CIG 003V008 T01720167
03949KAQV AQV20160422062512204/22/16 06:25:31  5-MIN KAQV 221225Z AUTO 36005KT 10SM OVC005 17/17 A3000 300 96 700 350/05 RMK AO2 CIG 003V008 T01720167
03949KAQV AQV20160422063012204/22/16 06:30:31  5-MIN KAQV 221230Z AUTO 36004KT 10SM OVC005 17/16 A3000 300 96 600 360/04 RMK AO2 CIG 003V008 T01670161
03949KAQV AQV20160422063511004/22/16 06:35:31  5-MIN KAQV 221235Z AUTO VRB03KT 9SM OVC005 17/17 A3001 300 100 600 VRB/03 RMK AO2 T01670167
03949KAQV AQV20160422064011004/22/16 06:40:31  5-MIN KAQV 221240Z AUTO 36004KT 9SM OVC004 17/17 A3001 300 100 600 350/04 RMK AO2 T01670167
03949KAQV AQV20160422064511004/22/16 06:45:31  5-MIN KAQV 221245Z AUTO 00000KT 9SM OVC004 17/17 A3001 300 100 600 000/00 RMK AO2 T01670167
03949KAQV AQV20160422065010604/22/16 06:50:31  5-MIN KAQV 221250Z AUTO 00000KT 9SM BKN005 BKN012 17/17 A3001 300 96 700 000/00 RMK AO2
03949KAQV AQV20160422065512404/22/16 06:55:31  5-MIN KAQV 221255Z AUTO 00000KT 10SM BKN005 BKN012 17/17 A3001 300 96 700 000/00 RMK AO2 SLP159 T01720167
03949KAQV AQV20160422070011804/22/16 07:00:31  5-MIN KAQV 221300Z AUTO 00000KT 10SM SCT005 SCT012 17/17 A3001 300 100 700 000/00 RMK AO2 T01720172
03949KAQV AQV20160422070511704/22/16 07:05:31  5-MIN KAQV 221305Z AUTO 00000KT 10SM FEW005 SCT012 18/17 A3001 300 96 700 000/00 RMK AO2 T01780172
03949KAQV AQV20160422071011704/22/16 07:10:31  5-MIN KAQV 221310Z AUTO 00000KT 10SM FEW005 FEW012 18/17 A3001 300 93 700 000/00 RMK AO2 T01780167
03949KAQV AQV20160422071510704/22/16 07:15:31  5-MIN KAQV 221315Z AUTO 00000KT 10SM CLR 18/17 A3001 290 96 700 000/00 RMK AO2 T01780172
03949KAQV AQV20160422072011004/22/16 07:20:31  5-MIN KAQV 221320Z AUTO 00000KT 10SM FEW005 18/17 A3001 290 96 700 000/00 RMK AO2 T01780172
03949KAQV AQV20160422072510704/22/16 07:25:31  5-MIN KAQV 221325Z AUTO 36003KT 10SM CLR 18/17 A3001 290 96 700 360/03 RMK AO2 T01780172
03949KAQV AQV20160422073010704/22/16 07:30:31  5-MIN KAQV 221330Z AUTO 00000KT 10SM CLR 18/17 A3001 290 93 700 000/00 RMK AO2 T01780167
03949KAQV AQV20160422073510704/22/16 07:35:31  5-MIN KAQV 221335Z AUTO 02003KT 10SM CLR 18/17 A3001 290 96 700 020/03 RMK AO2 T01780172
03949KAQV AQV20160422074010704/22/16 07:40:31  5-MIN KAQV 221340Z AUTO 00000KT 10SM CLR 18/17 A3001 290 93 800 000/00 RMK AO2 T01830172
03949KAQV AQV20160422074510704/22/16 07:45:31  5-MIN KAQV 221345Z AUTO 01005KT 10SM CLR 18/17 A3002 290 93 800 010/05 RMK AO2 T01830172
03949KAQV AQV20160422075011404/22/16 07:50:31  5-MIN KAQV 221350Z AUTO 35005KT 10SM CLR 19/17 A3002 290 87 900 350/05 RMK AO2 SLP163 T01890167
03949KAQV AQV20160422075511504/22/16 07:55:31  5-MIN KAQV 221355Z AUTO 04004KT 10SM CLR 20/17 A3002 290 81 1000 040/04 RMK AO2 SLP163 T02000167
03949KAQV AQV20160422080010804/22/16 08:00:31  5-MIN KAQV 221400Z AUTO 01004KT 10SM CLR 21/17 A3002 290 81 1000 010/04 RMK AO2 T02060172
03949KAQV AQV20160422080510804/22/16 08:05:31  5-MIN KAQV 221405Z AUTO VRB03KT 10SM CLR 21/17 A3002 280 78 1000 VRB/03 RMK AO2 T02060167
03949KAQV AQV20160422081010804/22/16 08:10:31  5-MIN KAQV 221410Z AUTO VRB04KT 10SM CLR 21/17 A3002 280 78 1100 VRB/04 RMK AO2 T02110172
03949KAQV AQV20160422081510804/22/16 08:15:31  5-MIN KAQV 221415Z AUTO 35005KT 10SM CLR 21/17 A3002 280 78 1000 340/05 RMK AO2 T02060167
03949KAQV AQV20160422082010804/22/16 08:20:31  5-MIN KAQV 221420Z AUTO VRB04KT 10SM CLR 21/17 A3002 280 75 1100 VRB/04 RMK AO2 T02110167
03949KAQV AQV20160422082510804/22/16 08:25:31  5-MIN KAQV 221425Z AUTO 36004KT 10SM CLR 21/17 A3002 280 78 1100 350/04 RMK AO2 T02110172
03949KAQV AQV20160422083011104/22/16 08:30:31  5-MIN KAQV 221430Z AUTO VRB04KT 10SM FEW014 22/17 A3002 280 75 1200 VRB/04 RMK AO2 T02170172
03949KAQV AQV20160422083511104/22/16 08:35:31  5-MIN KAQV 221435Z AUTO 34005KT 10SM FEW014 22/17 A3002 280 73 1200 330/05 RMK AO2 T02170167
03949KAQV AQV20160422084011104/22/16 08:40:31  5-MIN KAQV 221440Z AUTO 02004KT 10SM FEW014 22/16 A3003 280 70 1200 020/04 RMK AO2 T02170161
03949KAQV AQV20160422084510804/22/16 08:45:31  5-MIN KAQV 221445Z AUTO 02004KT 10SM CLR 22/17 A3003 280 73 1200 010/04 RMK AO2 T02170167
03949KAQV AQV20160422085012104/22/16 08:50:31  5-MIN KAQV 221450Z AUTO 04006KT 10SM CLR 23/17 A3003 280 68 1300 040/06 RMK AO2 SLP167 T02280167 53009
03949KAQV AQV20160422085512104/22/16 08:55:31  5-MIN KAQV 221455Z AUTO 02005KT 10SM CLR 22/16 A3003 270 65 1200 010/05 RMK AO2 SLP167 T02220156 53009
03949KAQV AQV20160422090009804/22/16 09:00:31  5-MIN KAQV 221500Z AUTO 10SM CLR 23/16 A3003 270 65 1300 M /M RMK AO2 T02280161
03949KAQV AQV20160422090510804/22/16 09:05:31  5-MIN KAQV 221505Z AUTO 03007KT 10SM CLR 22/14 A3003 270 61 1200 020/07 RMK AO2 T02220144
03949KAQV AQV20160422091010804/22/16 09:10:31  5-MIN KAQV 221510Z AUTO VRB06KT 10SM CLR 22/14 A3003 270 61 1200 VRB/06 RMK AO2 T02220144
03949KAQV AQV20160422091510804/22/16 09:15:31  5-MIN KAQV 221515Z AUTO VRB06KT 10SM CLR 23/14 A3004 270 59 1300 VRB/06 RMK AO2 T02280144
03949KAQV AQV20160422192510704/22/16 19:25:31  5-MIN KAQV 230125Z AUTO 00000KT 10SM CLR 18/14 A3001 300 81 700 000/00 RMK AO2 T01780144
03949KAQV AQV20160422193010704/22/16 19:30:31  5-MIN KAQV 230130Z AUTO 00000KT 10SM CLR 17/14 A3001 290 83 700 000/00 RMK AO2 T01720144
03949KAQV AQV20160422193510704/22/16 19:35:31  5-MIN KAQV 230135Z AUTO 00000KT 10SM CLR 17/15 A3001 290 87 700 000/00 RMK AO2 T01720150
03949KAQV AQV20160422194010704/22/16 19:40:31  5-MIN KAQV 230140Z AUTO 00000KT 10SM CLR 17/14 A3001 290 83 700 000/00 RMK AO2 T01720144
03949KAQV AQV20160422194510704/22/16 19:45:31  5-MIN KAQV 230145Z AUTO 00000KT 10SM CLR 17/14 A3001 290 86 600 000/00 RMK AO2 T01670144
03949KAQV AQV20160422195011404/22/16 19:50:31  5-MIN KAQV 230150Z AUTO 00000KT 10SM CLR 17/15 A3001 290 90 600 000/00 RMK AO2 SLP161 T01670150
03949KAQV AQV20160422195511404/22/16 19:55:31  5-MIN KAQV 230155Z AUTO 00000KT 10SM CLR 17/14 A3001 290 86 600 000/00 RMK AO2 SLP162 T01670144
03949KAQV AQV20160422200010704/22/16 20:00:31  5-MIN KAQV 230200Z AUTO 00000KT 10SM CLR 17/14 A3002 290 86 600 000/00 RMK AO2 T01670144
03949KAQV AQV20160422200510704/22/16 20:05:31  5-MIN KAQV 230205Z AUTO 00000KT 10SM CLR 16/14 A3002 290 90 500 000/00 RMK AO2 T01610144
03949KAQV AQV20160422201010704/22/16 20:10:31  5-MIN KAQV 230210Z AUTO 00000KT 10SM CLR 16/14 A3002 280 90 500 000/00 RMK AO2 T01610144
03949KAQV AQV20160422201510704/22/16 20:15:31  5-MIN KAQV 230215Z AUTO 00000KT 10SM CLR 16/14 A3002 280 90 500 000/00 RMK AO2 T01610144
03949KAQV AQV20160422202010704/22/16 20:20:31  5-MIN KAQV 230220Z AUTO 00000KT 10SM CLR 16/14 A3002 280 90 500 000/00 RMK AO2 T01610144
03949KAQV AQV20160422202510704/22/16 20:25:31  5-MIN KAQV 230225Z AUTO 00000KT 10SM CLR 16/14 A3002 280 90 500 000/00 RMK AO2 T01610144
03949KAQV AQV20160422203010704/22/16 20:30:31  5-MIN KAQV 230230Z AUTO 00000KT 10SM CLR 16/14 A3002 280 90 500 000/00 RMK AO2 T01610144
03949KAQV AQV20160422203510704/22/16 20:35:31  5-MIN KAQV 230235Z AUTO 00000KT 10SM CLR 16/14 A3002 280 90 500 000/00 RMK AO2 T01610144
03949KAQV AQV20160422204010704/22/16 20:40:31  5-MIN KAQV 230240Z AUTO 00000KT 10SM CLR 16/14 A3003 280 86 500 000/00 RMK AO2 T01610139
03949KAQV AQV20160422204510704/22/16 20:45:31  5-MIN KAQV 230245Z AUTO 00000KT 10SM CLR 16/14 A3003 280 86 500 000/00 RMK AO2 T01610139
03949KAQV AQV20160422205012004/22/16 20:50:31  5-MIN KAQV 230250Z AUTO 00000KT 10SM CLR 16/14 A3003 270 86 500 000/00 RMK AO2 SLP168 T01610139 55001
03949KAQV AQV20160422205512004/22/16 20:55:31  5-MIN KAQV 230255Z AUTO 00000KT 10SM CLR 16/14 A3003 270 90 400 000/00 RMK AO2 SLP168 T01560139 55001
03949KAQV AQV20160422210010704/22/16 21:00:31  5-MIN KAQV 230300Z AUTO 00000KT 10SM CLR 16/14 A3003 270 90 400 000/00 RMK AO2 T01560139
03949KAQV AQV20160422210510704/22/16 21:05:31  5-MIN KAQV 230305Z AUTO 00000KT 10SM CLR 16/14 A3003 270 90 400 000/00 RMK AO2 T01560139
03949KAQV AQV20160422211010704/22/16 21:10:31  5-MIN KAQV 230310Z AUTO 00000KT 10SM CLR 16/14 A3003 270 90 400 000/00 RMK AO2 T01560139
03949KAQV AQV20160422211510704/22/16 21:15:31  5-MIN KAQV 230315Z AUTO 00000KT 10SM CLR 16/14 A3003 270 90 400 000/00 RMK AO2 T01560139
03949KAQV AQV20160422212010704/22/16 21:20:31  5-MIN KAQV 230320Z AUTO 00000KT 10SM CLR 16/14 A3003 270 90 400 000/00 RMK AO2 T01560139
03949KAQV AQV20160422212510704/22/16 21:25:31  5-MIN KAQV 230325Z AUTO 00000KT 10SM CLR 16/14 A3003 270 90 400 000/00 RMK AO2 T01560139
03949KAQV AQV20160422213010704/22/16 21:30:31  5-MIN KAQV 230330Z AUTO 00000KT 10SM CLR 16/14 A3003 270 90 400 000/00 RMK AO2 T01560139
03949KAQV AQV20160422213510704/22/16 21:35:31  5-MIN KAQV 230335Z AUTO 00000KT 10SM CLR 16/13 A3004 270 86 400 000/00 RMK AO2 T01560133
03949KAQV AQV20160422214010704/22/16 21:40:31  5-MIN KAQV 230340Z AUTO 00000KT 10SM CLR 16/13 A3004 270 86 400 000/00 RMK AO2 T01560133
03949KAQV AQV20160422214510704/22/16 21:45:31  5-MIN KAQV 230345Z AUTO 00000KT 10SM CLR 15/13 A3003 270 90 400 000/00 RMK AO2 T01500133
03949KAQV AQV20160422215011404/22/16 21:50:31  5-MIN KAQV 230350Z AUTO 00000KT 10SM CLR 16/13 A3003 270 83 400 000/00 RMK AO2 SLP169 T01560128
03949KAQV AQV20160422215511404/22/16 21:55:31  5-MIN KAQV 230355Z AUTO 00000KT 10SM CLR 15/13 A3004 270 86 400 000/00 RMK AO2 SLP169 T01500128
03949KAQV AQV20160422220010704/22/16 22:00:31  5-MIN KAQV 230400Z AUTO 00000KT 10SM CLR 15/13 A3004 270 90 400 000/00 RMK AO2 T01500133
03949KAQV AQV20160422220510704/22/16 22:05:31  5-MIN KAQV 230405Z AUTO 00000KT 10SM CLR 15/13 A3004 270 86 400 000/00 RMK AO2 T01500128
03949KAQV AQV20160422221010704/22/16 22:10:31  5-MIN KAQV 230410Z AUTO 00000KT 10SM CLR 15/13 A3004 270 90 400 000/00 RMK AO2 T01500133
03949KAQV AQV20160422221510704/22/16 22:15:31  5-MIN KAQV 230415Z AUTO 00000KT 10SM CLR 15/13 A3003 270 90 400 000/00 RMK AO2 T01500133
03949KAQV AQV20160422222010704/22/16 22:20:31  5-MIN KAQV 230420Z AUTO 00000KT 10SM CLR 15/13 A3003 270 90 400 000/00 RMK AO2 T01500133
03949KAQV AQV20160422222510704/22/16 22:25:31  5-MIN KAQV 230425Z AUTO 00000KT 10SM CLR 15/13 A3003 270 90 400 000/00 RMK AO2 T01500133
03949KAQV AQV20160422223010704/22/16 22:30:31  5-MIN KAQV 230430Z AUTO 00000KT 10SM CLR 14/13 A3004 270 93 300 000/00 RMK AO2 T01440133
03949KAQV AQV20160422223510704/22/16 22:35:31  5-MIN KAQV 230435Z AUTO 00000KT 10SM CLR 14/13 A3004 270 93 300 000/00 RMK AO2 T01440133
03949KAQV AQV20160422224010704/22/16 22:40:31  5-MIN KAQV 230440Z AUTO 00000KT 10SM CLR 14/13 A3004 270 93 300 000/00 RMK AO2 T01440133
03949KAQV AQV20160422224510704/22/16 22:45:31  5-MIN KAQV 230445Z AUTO 00000KT 10SM CLR 14/13 A3004 270 93 300 000/00 RMK AO2 T01440133
03949KAQV AQV20160422225011404/22/16 22:50:31  5-MIN KAQV 230450Z AUTO 00000KT 10SM CLR 14/13 A3004 270 93 300 000/00 RMK AO2 SLP171 T01440133
03949KAQV AQV20160422225511404/22/16 22:55:31  5-MIN KAQV 230455Z AUTO 00000KT 10SM CLR 14/13 A3004 260 93 300 000/00 RMK AO2 SLP171 T01440133
03949KAQV AQV20160422230010704/22/16 23:00:31  5-MIN KAQV 230500Z AUTO 00000KT 10SM CLR 14/13 A3004 260 93 300 000/00 RMK AO2 T01440133
03949KAQV AQV20160422230510704/22/16 23:05:31  5-MIN KAQV 230505Z AUTO 00000KT 10SM CLR 14/13 A3004 260 93 300 000/00 RMK AO2 T01440133
03949KAQV AQV20160422231010704/22/16 23:10:31  5-MIN KAQV 230510Z AUTO 00000KT 10SM CLR 14/13 A3004 260 93 300 000/00 RMK AO2 T01440133
03949KAQV AQV20160422231510704/22/16 23:15:31  5-MIN KAQV 230515Z AUTO 00000KT 10SM CLR 14/13 A3004 260 96 200 000/00 RMK AO2 T01390133
03949KAQV AQV20160422232010704/22/16 23:20:31  5-MIN KAQV 230520Z AUTO 00000KT 10SM CLR 14/13 A3005 260 93 300 000/00 RMK AO2 T01440133
03949KAQV AQV20160422232510704/22/16 23:25:31  5-MIN KAQV 230525Z AUTO 00000KT 10SM CLR 14/13 A3005 260 93 300 000/00 RMK AO2 T01440133
03949KAQV AQV20160422233010704/22/16 23:30:31  5-MIN KAQV 230530Z AUTO 00000KT 10SM CLR 14/13 A3005 260 93 300 000/00 RMK AO2 T01440133
03949KAQV AQV20160422233510704/22/16 23:35:31  5-MIN KAQV 230535Z AUTO 00000KT 10SM CLR 14/13 A3005 260 93 300 000/00 RMK AO2 T01440133
03949KAQV AQV20160422234010704/22/16 23:40:31  5-MIN KAQV 230540Z AUTO 00000KT 10SM CLR 14/13 A3005 260 93 300 000/00 RMK AO2 T01440133
03949KAQV AQV20160422234510704/22/16 23:45:31  5-MIN KAQV 230545Z AUTO 00000KT 10SM CLR 14/13 A3005 260 96 200 000/00 RMK AO2 T01390133
03949KAQV AQV20160422235014204/22/16 23:50:31  5-MIN KAQV 230550Z AUTO 00000KT 10SM CLR 14/13 A3005 260 96 200 000/00 RMK AO2 SLP175 T01390133 10239 20139 402670139 53011
03949KAQV AQV20160422235514204/22/16 23:55:31  5-MIN KAQV 230555Z AUTO 00000KT 10SM CLR 14/13 A3005 250 96 200 000/00 RMK AO2 SLP175 T01390133 10239 20139 402670139 53011
03949KAQV AQV20160423000010604/23/16 00:00:31  5-MIN KAQV 230600Z AUTO 00000KT 9SM CLR 14/13 A3005 250 96 200 000/00 RMK AO2 T01390133
03949KAQV AQV20160423000510604/23/16 00:05:31  5-MIN KAQV 230605Z AUTO 00000KT 9SM CLR 14/13 A3005 250 96 200 000/00 RMK AO2 T01390133
03949KAQV AQV20160423001010604/23/16 00:10:31  5-MIN KAQV 230610Z AUTO 00000KT 8SM CLR 14/13 A3005 250 96 200 000/00 RMK AO2 T01390133
03949KAQV AQV20160423001510604/23/16 00:15:31  5-MIN KAQV 230615Z AUTO 00000KT 8SM CLR 14/13 A3005 250 93 200 000/00 RMK AO2 T01390128
03949KAQV AQV20160423002010604/23/16 00:20:31  5-MIN KAQV 230620Z AUTO 00000KT 8SM CLR 13/13 A3005 250 96 200 000/00 RMK AO2 T01330128
03949KAQV AQV20160423002510604/23/16 00:25:31  5-MIN KAQV 230625Z AUTO 00000KT 9SM CLR 13/13 A3005 250 96 200 000/00 RMK AO2 T01330128
03949KAQV AQV20160423003010604/23/16 00:30:31  5-MIN KAQV 230630Z AUTO 00000KT 9SM CLR 13/12 A3005 250 96 100 000/00 RMK AO2 T01280122
03949KAQV AQV20160423003510604/23/16 00:35:31  5-MIN KAQV 230635Z AUTO 00000KT 9SM CLR 13/12 A3005 250 96 100 000/00 RMK AO2 T01280122
03949KAQV AQV20160423004010604/23/16 00:40:31  5-MIN KAQV 230640Z AUTO 00000KT 8SM CLR 13/12 A3005 250 96 100 000/00 RMK AO2 T01280122
03949KAQV AQV20160423004510604/23/16 00:45:31  5-MIN KAQV 230645Z AUTO 00000KT 8SM CLR 13/12 A3005 260 96 100 000/00 RMK AO2 T01280122
03949KAQV AQV20160423005011304/23/16 00:50:31  5-MIN KAQV 230650Z AUTO 00000KT 9SM CLR 13/12 A3005 260 96 100 000/00 RMK AO2 SLP175 T01280122
03949KAQV AQV20160423005511304/23/16 00:55:31  5-MIN KAQV 230655Z AUTO 00000KT 9SM CLR 13/12 A3005 260 96 100 000/00 RMK AO2 SLP174 T01280122
03949KAQV AQV20160423010010604/23/16 01:00:31  5-MIN KAQV 230700Z AUTO 00000KT 9SM CLR 13/12 A3005 260 96 100 000/00 RMK AO2 T01280122
03949KAQV AQV20160423010510604/23/16 01:05:31  5-MIN KAQV 230705Z AUTO 00000KT 9SM CLR 13/12 A3005 260 96 100 000/00 RMK AO2 T01280122
03949KAQV AQV20160423011010604/23/16 01:10:31  5-MIN KAQV 230710Z AUTO 00000KT 9SM CLR 13/12 A3005 260 96 100 000/00 RMK AO2 T01280122
03949KAQV AQV20160423011510604/23/16 01:15:31  5-MIN KAQV 230715Z AUTO 00000KT 9SM CLR 13/12 A3005 260 96 100 000/00 RMK AO2 T01280122
03949KAQV AQV20160423012010604/23/16 01:20:31  5-MIN KAQV 230720Z AUTO 00000KT 9SM CLR 13/12 A3005 260 96 100 000/00 RMK AO2 T01280122
03949KAQV AQV20160423012510604/23/16 01:25:31  5-MIN KAQV 230725Z AUTO 00000KT 9SM CLR 13/12 A3005 260 96 100 000/00 RMK AO2 T01280122
03949KAQV AQV20160423013010604/23/16 01:30:31  5-MIN KAQV 230730Z AUTO 00000KT 8SM CLR 13/12 A3005 260 96 100 000/00 RMK AO2 T01280122
03949KAQV AQV20160423013510404/23/16 01:35:31  5-MIN KAQV 230735Z AUTO 00000KT 8SM CLR 12/12 A3005 260 96 0 000/00 RMK AO2 T01220117
03949KAQV AQV20160423014010404/23/16 01:40:31  5-MIN KAQV 230740Z AUTO 00000KT 7SM CLR 12/12 A3005 260 96 0 000/00 RMK AO2 T01220117
03949KAQV AQV20160423014510404/23/16 01:45:31  5-MIN KAQV 230745Z AUTO 00000KT 7SM CLR 12/12 A3005 260 96 0 000/00 RMK AO2 T01220117
03949KAQV AQV20160423015011104/23/16 01:50:31  5-MIN KAQV 230750Z AUTO 00000KT 8SM CLR 12/12 A3005 260 96 0 000/00 RMK AO2 SLP173 T01220117
03949KAQV AQV20160423015511104/23/16 01:55:31  5-MIN KAQV 230755Z AUTO 00000KT 8SM CLR 12/12 A3005 260 96 0 000/00 RMK AO2 SLP172 T01220117
03949KAQV AQV20160423020010704/23/16 02:00:31  5-MIN KAQV 230800Z AUTO 00000KT 10SM CLR 13/12 A3004 260 93 100 000/00 RMK AO2 T01280117
03949KAQV AQV20160423020510704/23/16 02:05:31  5-MIN KAQV 230805Z AUTO 00000KT 10SM CLR 13/12 A3004 260 96 100 000/00 RMK AO2 T01280122
03949KAQV AQV20160423021010604/23/16 02:10:31  5-MIN KAQV 230810Z AUTO 00000KT 9SM CLR 13/12 A3004 260 96 100 000/00 RMK AO2 T01280122
03949KAQV AQV20160423021510604/23/16 02:15:31  5-MIN KAQV 230815Z AUTO 00000KT 8SM CLR 13/12 A3005 260 93 100 000/00 RMK AO2 T01280117
03949KAQV AQV20160423022010404/23/16 02:20:31  5-MIN KAQV 230820Z AUTO 00000KT 7SM CLR 12/12 A3005 260 96 0 000/00 RMK AO2 T01220117
03949KAQV AQV20160423022510504/23/16 02:25:31  5-MIN KAQV 230825Z AUTO 00000KT 8SM CLR 12/12 A3005 260 100 0 000/00 RMK AO2 T01170117
03949KAQV AQV20160423023010404/23/16 02:30:31  5-MIN KAQV 230830Z AUTO 00000KT 8SM CLR 12/11 A3005 260 96 0 000/00 RMK AO2 T01170111
03949KAQV AQV20160423023510404/23/16 02:35:31  5-MIN KAQV 230835Z AUTO 00000KT 8SM CLR 12/11 A3005 260 96 0 000/00 RMK AO2 T01170111
03949KAQV AQV20160423024010404/23/16 02:40:31  5-MIN KAQV 230840Z AUTO 00000KT 8SM CLR 12/11 A3005 260 93 0 000/00 RMK AO2 T01220111
03949KAQV AQV20160423024510404/23/16 02:45:31  5-MIN KAQV 230845Z AUTO 00000KT 9SM CLR 12/11 A3005 260 93 0 000/00 RMK AO2 T01220111
03949KAQV AQV20160423025011704/23/16 02:50:31  5-MIN KAQV 230850Z AUTO 00000KT 9SM CLR 12/12 A3005 260 96 0 000/00 RMK AO2 SLP174 T01220117 53007
03949KAQV AQV20160423025511704/23/16 02:55:31  5-MIN KAQV 230855Z AUTO 00000KT 9SM CLR 12/12 A3005 260 96 0 000/00 RMK AO2 SLP174 T01220117 53007
03949KAQV AQV20160423062510404/23/16 06:25:31  5-MIN KAQV 231225Z AUTO 00000KT 7SM CLR 12/12 A3008 230 96 0 000/00 RMK AO2 T01220117
03949KAQV AQV20160423063010504/23/16 06:30:31  5-MIN KAQV 231230Z AUTO 00000KT 7SM CLR 12/12 A3008 220 100 0 000/00 RMK AO2 T01220122
03949KAQV AQV20160423063510604/23/16 06:35:31  5-MIN KAQV 231235Z AUTO 00000KT 9SM CLR 13/12 A3009 220 96 100 000/00 RMK AO2 T01280122
03949KAQV AQV20160423064010604/23/16 06:40:31  5-MIN KAQV 231240Z AUTO 00000KT 8SM CLR 13/13 A3009 220 96 100 000/00 RMK AO2 T01330128
03949KAQV AQV20160423064510704/23/16 06:45:31  5-MIN KAQV 231245Z AUTO 00000KT 9SM CLR 13/13 A3009 220 100 100 000/00 RMK AO2 T01330133
03949KAQV AQV20160423065011404/23/16 06:50:31  5-MIN KAQV 231250Z AUTO 00000KT 10SM CLR 14/14 A3009 220 96 200 000/00 RMK AO2 SLP187 T01440139
03949KAQV AQV20160423065511404/23/16 06:55:31  5-MIN KAQV 231255Z AUTO 00000KT 10SM CLR 16/14 A3009 220 93 400 000/00 RMK AO2 SLP187 T01560144
03949KAQV AQV20160423070010704/23/16 07:00:31  5-MIN KAQV 231300Z AUTO 00000KT 10SM CLR 16/15 A3009 220 96 400 000/00 RMK AO2 T01560150
03949KAQV AQV20160423070510704/23/16 07:05:31  5-MIN KAQV 231305Z AUTO 00000KT 10SM CLR 17/16 A3009 220 93 500 000/00 RMK AO2 T01670156
03949KAQV AQV20160423173510804/23/16 17:35:31  5-MIN KAQV 232335Z AUTO 00000KT 10SM CLR 24/13 A2997 330 51 1500 000/00 RMK AO2 T02390133
03949KAQV AQV20160423174011104/23/16 17:40:31  5-MIN KAQV 232340Z AUTO 00000KT 10SM FEW075 23/14 A2997 330 55 1400 000/00 RMK AO2 T02330139
03949KAQV AQV20160423174511104/23/16 17:45:31  5-MIN KAQV 232345Z AUTO 00000KT 10SM FEW075 23/15 A2997 330 61 1300 000/00 RMK AO2 T02280150
03949KAQV AQV20160423175013604/23/16 17:50:31  5-MIN KAQV 232350Z AUTO 00000KT 10SM FEW075 23/15 A2998 330 61 1300 000/00 RMK AO2 SLP149 T02280150 10278 20228 56018
03949KAQV AQV20160423175513604/23/16 17:55:31  5-MIN KAQV 232355Z AUTO 00000KT 10SM FEW075 22/16 A2998 330 68 1200 000/00 RMK AO2 SLP150 T02170156 10278 20217 56018
03949KAQV AQV20160423180011104/23/16 18:00:31  5-MIN KAQV 240000Z AUTO 00000KT 10SM FEW075 22/16 A2997 330 68 1200 000/00 RMK AO2 T02170156
03949KAQV AQV20160423180511104/23/16 18:05:31  5-MIN KAQV 240005Z AUTO 00000KT 10SM FEW075 21/16 A2997 330 70 1200 000/00 RMK AO2 T02110156
03949KAQV AQV20160423181010804/23/16 18:10:31  5-MIN KAQV 240010Z AUTO 00000KT 10SM CLR 21/16 A2998 320 70 1200 000/00 RMK AO2 T02110156
03949KAQV AQV20160423181510804/23/16 18:15:31  5-MIN KAQV 240015Z AUTO 00000KT 10SM CLR 21/16 A2998 320 75 1100 000/00 RMK AO2 T02060161
03949KAQV AQV20160423182010804/23/16 18:20:31  5-MIN KAQV 240020Z AUTO 00000KT 10SM CLR 21/16 A2998 330 75 1100 000/00 RMK AO2 T02060161
03949KAQV AQV20160423182510804/23/16 18:25:31  5-MIN KAQV 240025Z AUTO 00000KT 10SM CLR 20/16 A2997 330 78 1000 000/00 RMK AO2 T02000161
03949KAQV AQV20160423183010804/23/16 18:30:31  5-MIN KAQV 240030Z AUTO 00000KT 10SM CLR 20/16 A2997 330 78 1000 000/00 RMK AO2 T02000161
03949KAQV AQV20160423183510804/23/16 18:35:31  5-MIN KAQV 240035Z AUTO 00000KT 10SM CLR 19/17 A2997 330 84 1000 000/00 RMK AO2 T01940167
03949KAQV AQV20160423184010804/23/16 18:40:31  5-MIN KAQV 240040Z AUTO 00000KT 10SM CLR 19/16 A2997 330 81 1000 000/00 RMK AO2 T01940161
03949KAQV AQV20160423184510804/23/16 18:45:31  5-MIN KAQV 240045Z AUTO 00000KT 10SM CLR 19/16 A2997 330 81 1000 000/00 RMK AO2 T01940161
03949KAQV AQV20160423185011404/23/16 18:50:31  5-MIN KAQV 240050Z AUTO 00000KT 10SM CLR 19/16 A2997 330 84 900 000/00 RMK AO2 SLP149 T01890161
03949KAQV AQV20160423185511404/23/16 18:55:31  5-MIN KAQV 240055Z AUTO 00000KT 10SM CLR 19/16 A2997 330 81 900 000/00 RMK AO2 SLP148 T01890156
03949KAQV AQV20160423190010704/23/16 19:00:31  5-MIN KAQV 240100Z AUTO 00000KT 10SM CLR 18/16 A2997 330 87 800 000/00 RMK AO2 T01830161
03949KAQV AQV20160423190510704/23/16 19:05:31  5-MIN KAQV 240105Z AUTO 00000KT 10SM CLR 18/16 A2997 330 87 800 000/00 RMK AO2 T01830161
03949KAQV AQV20160423191010704/23/16 19:10:31  5-MIN KAQV 240110Z AUTO 00000KT 10SM CLR 18/16 A2997 330 87 800 000/00 RMK AO2 T01830161
03949KAQV AQV20160423191510704/23/16 19:15:31  5-MIN KAQV 240115Z AUTO 00000KT 10SM CLR 18/16 A2997 330 90 800 000/00 RMK AO2 T01780161
03949KAQV AQV20160423192010704/23/16 19:20:31  5-MIN KAQV 240120Z AUTO 00000KT 10SM CLR 18/16 A2997 330 87 800 000/00 RMK AO2 T01780156
03949KAQV AQV20160423192510704/23/16 19:25:31  5-MIN KAQV 240125Z AUTO 00000KT 10SM CLR 18/16 A2997 330 87 800 000/00 RMK AO2 T01780156
03949KAQV AQV20160423193010704/23/16 19:30:31  5-MIN KAQV 240130Z AUTO 00000KT 10SM CLR 17/16 A2997 330 90 700 000/00 RMK AO2 T01720156
03949KAQV AQV20160423193510704/23/16 19:35:31  5-MIN KAQV 240135Z AUTO 00000KT 10SM CLR 17/16 A2997 330 90 700 000/00 RMK AO2 T01720156
03949KAQV AQV20160423194010704/23/16 19:40:31  5-MIN KAQV 240140Z AUTO 00000KT 10SM CLR 17/16 A2997 330 90 700 000/00 RMK AO2 T01720156
03949KAQV AQV20160423194510704/23/16 19:45:31  5-MIN KAQV 240145Z AUTO 00000KT 10SM CLR 17/16 A2997 330 93 600 000/00 RMK AO2 T01670156
03949KAQV AQV20160423195011304/23/16 19:50:31  5-MIN KAQV 240150Z AUTO 00000KT 9SM CLR 17/16 A2997 330 93 600 000/00 RMK AO2 SLP148 T01670156
03949KAQV AQV20160423195511604/23/16 19:55:31  5-MIN KAQV 240155Z AUTO 00000KT 9SM FEW070 17/15 A2997 330 90 600 000/00 RMK AO2 SLP148 T01670150
03949KAQV AQV20160423200010704/23/16 20:00:31  5-MIN KAQV 240200Z AUTO 00000KT 10SM CLR 17/15 A2997 330 90 600 000/00 RMK AO2 T01670150
03949KAQV AQV20160423200510704/23/16 20:05:31  5-MIN KAQV 240205Z AUTO 00000KT 10SM CLR 17/15 A2997 330 90 600 000/00 RMK AO2 T01670150
03949KAQV AQV20160423201010704/23/16 20:10:31  5-MIN KAQV 240210Z AUTO 00000KT 10SM CLR 17/15 A2997 330 90 600 000/00 RMK AO2 T01670150
03949KAQV AQV20160423201510704/23/16 20:15:31  5-MIN KAQV 240215Z AUTO 00000KT 10SM CLR 17/15 A2997 330 90 600 000/00 RMK AO2 T01670150
03949KAQV AQV20160423202010704/23/16 20:20:31  5-MIN KAQV 240220Z AUTO 00000KT 10SM CLR 16/15 A2998 320 93 600 000/00 RMK AO2 T01610150
03949KAQV AQV20160423202510704/23/16 20:25:31  5-MIN KAQV 240225Z AUTO 00000KT 10SM CLR 16/15 A2998 320 93 600 000/00 RMK AO2 T01610150
03949KAQV AQV20160423203010704/23/16 20:30:31  5-MIN KAQV 240230Z AUTO 00000KT 10SM CLR 16/14 A2998 320 90 600 000/00 RMK AO2 T01610144
03949KAQV AQV20160423203510704/23/16 20:35:31  5-MIN KAQV 240235Z AUTO 00000KT 10SM CLR 16/14 A2998 320 90 600 000/00 RMK AO2 T01610144
03949KAQV AQV20160423204010704/23/16 20:40:31  5-MIN KAQV 240240Z AUTO 00000KT 10SM CLR 16/14 A2998 320 93 500 000/00 RMK AO2 T01560144
03949KAQV AQV20160423204510704/23/16 20:45:31  5-MIN KAQV 240245Z AUTO 00000KT 10SM CLR 16/14 A2998 320 93 500 000/00 RMK AO2 T01560144
03949KAQV AQV20160423205012004/23/16 20:50:31  5-MIN KAQV 240250Z AUTO 00000KT 10SM CLR 16/14 A2998 320 93 500 000/00 RMK AO2 SLP151 T01560144 56012
03949KAQV AQV20160423205512004/23/16 20:55:31  5-MIN KAQV 240255Z AUTO 00000KT 10SM CLR 16/14 A2998 320 93 500 000/00 RMK AO2 SLP151 T01560144 56012
03949KAQV AQV20160423210010704/23/16 21:00:31  5-MIN KAQV 240300Z AUTO 00000KT 10SM CLR 16/14 A2998 320 93 500 000/00 RMK AO2 T01560144
03949KAQV AQV20160423210510704/23/16 21:05:31  5-MIN KAQV 240305Z AUTO 00000KT 10SM CLR 16/14 A2998 320 93 500 000/00 RMK AO2 T01560144
03949KAQV AQV20160423211010704/23/16 21:10:31  5-MIN KAQV 240310Z AUTO 00000KT 10SM CLR 16/14 A2998 320 93 500 000/00 RMK AO2 T01560144
03949KAQV AQV20160423211510704/23/16 21:15:31  5-MIN KAQV 240315Z AUTO 00000KT 10SM CLR 16/14 A2999 320 93 500 000/00 RMK AO2 T01560144
03949KAQV AQV20160423212010704/23/16 21:20:31  5-MIN KAQV 240320Z AUTO 00000KT 10SM CLR 16/14 A2998 320 93 500 000/00 RMK AO2 T01560144
03949KAQV AQV20160423212510704/23/16 21:25:31  5-MIN KAQV 240325Z AUTO 00000KT 10SM CLR 16/14 A2998 320 93 500 000/00 RMK AO2 T01560144
03949KAQV AQV20160423213010704/23/16 21:30:31  5-MIN KAQV 240330Z AUTO 00000KT 10SM CLR 15/14 A2998 320 93 400 000/00 RMK AO2 T01500139
03949KAQV AQV20160423213510704/23/16 21:35:31  5-MIN KAQV 240335Z AUTO 12003KT 10SM CLR 15/14 A2998 320 93 400 120/03 RMK AO2 T01500139
03949KAQV AQV20160423214010704/23/16 21:40:31  5-MIN KAQV 240340Z AUTO 00000KT 10SM CLR 15/14 A2998 320 93 400 000/00 RMK AO2 T01500139
03949KAQV AQV20160423214510704/23/16 21:45:31  5-MIN KAQV 240345Z AUTO 00000KT 10SM CLR 15/14 A2998 320 93 400 000/00 RMK AO2 T01500139
03949KAQV AQV20160423215011404/23/16 21:50:31  5-MIN KAQV 240350Z AUTO 00000KT 10SM CLR 15/14 A2998 320 93 400 000/00 RMK AO2 SLP151 T01500139
03949KAQV AQV20160423215511404/23/16 21:55:31  5-MIN KAQV 240355Z AUTO 00000KT 10SM CLR 14/14 A2998 320 96 400 000/00 RMK AO2 SLP152 T01440139
03949KAQV AQV20160423220010704/23/16 22:00:31  5-MIN KAQV 240400Z AUTO 00000KT 10SM CLR 14/14 A2998 320 96 400 000/00 RMK AO2 T01440139
03949KAQV AQV20160423220510704/23/16 22:05:31  5-MIN KAQV 240405Z AUTO 00000KT 10SM CLR 14/13 A2998 320 93 400 000/00 RMK AO2 T01440133
03949KAQV AQV20160423221010704/23/16 22:10:31  5-MIN KAQV 240410Z AUTO 00000KT 10SM CLR 14/13 A2998 320 93 400 000/00 RMK AO2 T01440133
03949KAQV AQV20160423221510704/23/16 22:15:31  5-MIN KAQV 240415Z AUTO 00000KT 10SM CLR 14/13 A2998 320 93 400 000/00 RMK AO2 T01440133
03949KAQV AQV20160423222010704/23/16 22:20:31  5-MIN KAQV 240420Z AUTO 00000KT 10SM CLR 14/13 A2998 320 93 400 000/00 RMK AO2 T01440133
03949KAQV AQV20160423222510704/23/16 22:25:31  5-MIN KAQV 240425Z AUTO 00000KT 10SM CLR 14/13 A2998 320 93 400 000/00 RMK AO2 T01440133
03949KAQV AQV20160423223010704/23/16 22:30:31  5-MIN KAQV 240430Z AUTO 00000KT 10SM CLR 14/14 A2998 320 96 400 000/00 RMK AO2 T01440139
03949KAQV AQV20160423223510704/23/16 22:35:31  5-MIN KAQV 240435Z AUTO 00000KT 10SM CLR 14/14 A2998 330 96 400 000/00 RMK AO2 T01440139
03949KAQV AQV20160423224010704/23/16 22:40:31  5-MIN KAQV 240440Z AUTO 00000KT 10SM CLR 14/13 A2998 320 93 400 000/00 RMK AO2 T01440133
03949KAQV AQV20160423224510704/23/16 22:45:31  5-MIN KAQV 240445Z AUTO 00000KT 10SM CLR 14/13 A2998 320 93 400 000/00 RMK AO2 T01440133
03949KAQV AQV20160423225011404/23/16 22:50:31  5-MIN KAQV 240450Z AUTO 00000KT 10SM CLR 14/13 A2998 320 93 400 000/00 RMK AO2 SLP149 T01440133
03949KAQV AQV20160423225511404/23/16 22:55:31  5-MIN KAQV 240455Z AUTO 00000KT 10SM CLR 14/13 A2998 320 96 300 000/00 RMK AO2 SLP149 T01390133
03949KAQV AQV20160423230010704/23/16 23:00:31  5-MIN KAQV 240500Z AUTO 00000KT 10SM CLR 14/13 A2998 320 96 300 000/00 RMK AO2 T01390133
03949KAQV AQV20160423230510704/23/16 23:05:31  5-MIN KAQV 240505Z AUTO 00000KT 10SM CLR 14/13 A2998 320 96 300 000/00 RMK AO2 T01390133
03949KAQV AQV20160423231010704/23/16 23:10:31  5-MIN KAQV 240510Z AUTO 00000KT 10SM CLR 14/13 A2998 320 96 300 000/00 RMK AO2 T01390133
03949KAQV AQV20160423231510704/23/16 23:15:31  5-MIN KAQV 240515Z AUTO 00000KT 10SM CLR 14/13 A2998 320 93 300 000/00 RMK AO2 T01390128
03949KAQV AQV20160423232010704/23/16 23:20:31  5-MIN KAQV 240520Z AUTO 00000KT 10SM CLR 14/13 A2998 320 93 300 000/00 RMK AO2 T01390128
03949KAQV AQV20160423232510704/23/16 23:25:31  5-MIN KAQV 240525Z AUTO 00000KT 10SM CLR 14/13 A2998 320 93 300 000/00 RMK AO2 T01390128
03949KAQV AQV20160423233010704/23/16 23:30:31  5-MIN KAQV 240530Z AUTO 00000KT 10SM CLR 14/13 A2998 320 93 300 000/00 RMK AO2 T01390128
03949KAQV AQV20160423233510704/23/16 23:35:31  5-MIN KAQV 240535Z AUTO 00000KT 10SM CLR 13/13 A2998 320 96 200 000/00 RMK AO2 T01330128
03949KAQV AQV20160423234010704/23/16 23:40:31  5-MIN KAQV 240540Z AUTO 00000KT 10SM CLR 13/13 A2998 320 96 200 000/00 RMK AO2 T01330128
03949KAQV AQV20160423234510704/23/16 23:45:31  5-MIN KAQV 240545Z AUTO 00000KT 10SM CLR 13/13 A2998 320 96 200 000/00 RMK AO2 T01330128
03949KAQV AQV20160423235014204/23/16 23:50:31  5-MIN KAQV 240550Z AUTO 00000KT 10SM CLR 13/13 A2998 320 96 200 000/00 RMK AO2 SLP151 T01330128 10217 20133 402780111 53003
03949KAQV AQV20160423235514204/23/16 23:55:31  5-MIN KAQV 240555Z AUTO 00000KT 10SM CLR 13/13 A2998 320 96 200 000/00 RMK AO2 SLP151 T01330128 10217 20133 402780111 53003
03949KAQV AQV20160424000010704/24/16 00:00:31  5-MIN KAQV 240600Z AUTO 00000KT 10SM CLR 13/13 A2998 320 96 200 000/00 RMK AO2 T01330128
03949KAQV AQV20160424000510604/24/16 00:05:31  5-MIN KAQV 240605Z AUTO 00000KT 9SM CLR 13/13 A2998 320 96 200 000/00 RMK AO2 T01330128
03949KAQV AQV20160424001010704/24/16 00:10:31  5-MIN KAQV 240610Z AUTO 00000KT 10SM CLR 13/13 A2998 320 96 200 000/00 RMK AO2 T01330128
03949KAQV AQV20160424001510704/24/16 00:15:31  5-MIN KAQV 240615Z AUTO 00000KT 10SM CLR 13/13 A2998 320 96 200 000/00 RMK AO2 T01330128
03949KAQV AQV20160424002010704/24/16 00:20:31  5-MIN KAQV 240620Z AUTO 00000KT 10SM CLR 13/13 A2998 320 96 200 000/00 RMK AO2 T01330128
03949KAQV AQV20160424002510704/24/16 00:25:31  5-MIN KAQV 240625Z AUTO 00000KT 10SM CLR 13/13 A2998 320 96 200 000/00 RMK AO2 T01330128
03949KAQV AQV20160424003010704/24/16 00:30:31  5-MIN KAQV 240630Z AUTO 00000KT 10SM CLR 13/13 A2998 320 96 200 000/00 RMK AO2 T01330128
03949KAQV AQV20160424003510704/24/16 00:35:31  5-MIN KAQV 240635Z AUTO 00000KT 10SM CLR 13/12 A2998 320 96 200 000/00 RMK AO2 T01280122
03949KAQV AQV20160424004010704/24/16 00:40:31  5-MIN KAQV 240640Z AUTO 00000KT 10SM CLR 13/12 A2998 320 96 200 000/00 RMK AO2 T01280122
03949KAQV AQV20160424004510704/24/16 00:45:31  5-MIN KAQV 240645Z AUTO 00000KT 10SM CLR 13/12 A2998 320 96 200 000/00 RMK AO2 T01280122
03949KAQV AQV20160424005011404/24/16 00:50:31  5-MIN KAQV 240650Z AUTO 00000KT 10SM CLR 13/12 A2998 320 96 200 000/00 RMK AO2 SLP150 T01280122
03949KAQV AQV20160424005511304/24/16 00:55:31  5-MIN KAQV 240655Z AUTO 00000KT 9SM CLR 13/12 A2998 320 96 200 000/00 RMK AO2 SLP149 T01280122
03949KAQV AQV20160424010010604/24/16 01:00:31  5-MIN KAQV 240700Z AUTO 00000KT 9SM CLR 13/12 A2998 320 96 200 000/00 RMK AO2 T01280122
03949KAQV AQV20160424010510604/24/16 01:05:31  5-MIN KAQV 240705Z AUTO 00000KT 9SM CLR 13/12 A2998 320 96 200 000/00 RMK AO2 T01280122
03949KAQV AQV20160424011010604/24/16 01:10:31  5-MIN KAQV 240710Z AUTO 00000KT 9SM CLR 13/12 A2998 320 96 200 000/00 RMK AO2 T01280122
03949KAQV AQV20160424011510604/24/16 01:15:31  5-MIN KAQV 240715Z AUTO 00000KT 9SM CLR 13/12 A2998 320 96 200 000/00 RMK AO2 T01280122
03949KAQV AQV20160424012010604/24/16 01:20:31  5-MIN KAQV 240720Z AUTO 00000KT 9SM CLR 13/12 A2998 320 96 200 000/00 RMK AO2 T01280122
03949KAQV AQV20160424012510604/24/16 01:25:31  5-MIN KAQV 240725Z AUTO 00000KT 8SM CLR 13/12 A2998 330 96 200 000/00 RMK AO2 T01280122
03949KAQV AQV20160424013010604/24/16 01:30:31  5-MIN KAQV 240730Z AUTO 00000KT 8SM CLR 13/12 A2997 330 96 200 000/00 RMK AO2 T01280122
03949KAQV AQV20160424013510604/24/16 01:35:31  5-MIN KAQV 240735Z AUTO 00000KT 8SM CLR 13/12 A2997 330 96 200 000/00 RMK AO2 T01280122
03949KAQV AQV20160424014010604/24/16 01:40:31  5-MIN KAQV 240740Z AUTO 00000KT 8SM CLR 13/12 A2997 330 96 200 000/00 RMK AO2 T01280122
03949KAQV AQV20160424014510604/24/16 01:45:31  5-MIN KAQV 240745Z AUTO 00000KT 8SM CLR 13/12 A2997 330 96 200 000/00 RMK AO2 T01280122
03949KAQV AQV20160424015011304/24/16 01:50:31  5-MIN KAQV 240750Z AUTO 00000KT 8SM CLR 12/12 A2997 330 96 100 000/00 RMK AO2 SLP148 T01220117
03949KAQV AQV20160424015511304/24/16 01:55:31  5-MIN KAQV 240755Z AUTO 00000KT 8SM CLR 12/12 A2997 330 96 100 000/00 RMK AO2 SLP148 T01220117
03949KAQV AQV20160424020010604/24/16 02:00:31  5-MIN KAQV 240800Z AUTO 00000KT 8SM CLR 12/12 A2997 330 96 100 000/00 RMK AO2 T01220117
03949KAQV AQV20160424020510604/24/16 02:05:31  5-MIN KAQV 240805Z AUTO 00000KT 8SM CLR 12/12 A2997 330 96 100 000/00 RMK AO2 T01220117
03949KAQV AQV20160424021010604/24/16 02:10:31  5-MIN KAQV 240810Z AUTO 00000KT 9SM CLR 12/12 A2997 330 96 100 000/00 RMK AO2 T01220117
03949KAQV AQV20160424021510604/24/16 02:15:31  5-MIN KAQV 240815Z AUTO 00000KT 9SM CLR 12/12 A2998 330 96 100 000/00 RMK AO2 T01220117
03949KAQV AQV20160424022010604/24/16 02:20:31  5-MIN KAQV 240820Z AUTO 00000KT 9SM CLR 12/12 A2997 330 96 100 000/00 RMK AO2 T01220117
03949KAQV AQV20160424022510704/24/16 02:25:31  5-MIN KAQV 240825Z AUTO 00000KT 10SM CLR 12/12 A2997 330 96 100 000/00 RMK AO2 T01220117
03949KAQV AQV20160424023010704/24/16 02:30:31  5-MIN KAQV 240830Z AUTO 00000KT 10SM CLR 12/12 A2998 320 96 100 000/00 RMK AO2 T01220117
03949KAQV AQV20160424023510504/24/16 02:35:31  5-MIN KAQV 240835Z AUTO 23004KT 10SM CLR 12/11 A2998 320 96 0 230/04 RMK AO2 T01170111
03949KAQV AQV20160424024010504/24/16 02:40:31  5-MIN KAQV 240840Z AUTO 00000KT 10SM CLR 12/11 A2998 320 96 0 000/00 RMK AO2 T01170111
03949KAQV AQV20160424024510504/24/16 02:45:31  5-MIN KAQV 240845Z AUTO 00000KT 10SM CLR 12/11 A2998 320 96 0 000/00 RMK AO2 T01170111
03949KAQV AQV20160424025011804/24/16 02:50:31  5-MIN KAQV 240850Z AUTO 00000KT 10SM CLR 12/11 A2998 320 96 0 000/00 RMK AO2 SLP150 T01170111 55000
03949KAQV AQV20160424025511704/24/16 02:55:31  5-MIN KAQV 240855Z AUTO 00000KT 9SM CLR 12/11 A2998 320 96 0 000/00 RMK AO2 SLP150 T01170111 55000
03949KAQV AQV20160424030010404/24/16 03:00:31  5-MIN KAQV 240900Z AUTO 00000KT 9SM CLR 12/11 A2998 320 96 0 000/00 RMK AO2 T01170111
03949KAQV AQV20160424030510404/24/16 03:05:31  5-MIN KAQV 240905Z AUTO 00000KT 9SM CLR 12/11 A2998 320 96 0 000/00 RMK AO2 T01170111
03949KAQV AQV20160424031010604/24/16 03:10:31  5-MIN KAQV 240910Z AUTO 00000KT 9SM CLR 12/11 A2998 320 93 100 000/00 RMK AO2 T01220111
03949KAQV AQV20160424031510604/24/16 03:15:31  5-MIN KAQV 240915Z AUTO 00000KT 9SM CLR 12/11 A2998 330 93 100 000/00 RMK AO2 T01220111
03949KAQV AQV20160424032010704/24/16 03:20:31  5-MIN KAQV 240920Z AUTO 00000KT 10SM CLR 12/11 A2998 330 93 100 000/00 RMK AO2 T01220111
03949KAQV AQV20160424032510704/24/16 03:25:31  5-MIN KAQV 240925Z AUTO 00000KT 10SM CLR 12/11 A2998 330 93 100 000/00 RMK AO2 T01220111
03949KAQV AQV20160424033010604/24/16 03:30:31  5-MIN KAQV 240930Z AUTO 00000KT 9SM CLR 12/11 A2997 330 93 100 000/00 RMK AO2 T01220111
03949KAQV AQV20160424033510604/24/16 03:35:31  5-MIN KAQV 240935Z AUTO 00000KT 9SM CLR 12/11 A2997 330 93 100 000/00 RMK AO2 T01220111
03949KAQV AQV20160424034010604/24/16 03:40:31  5-MIN KAQV 240940Z AUTO 00000KT 8SM CLR 12/11 A2997 330 93 100 000/00 RMK AO2 T01220111
03949KAQV AQV20160424034510604/24/16 03:45:31  5-MIN KAQV 240945Z AUTO 00000KT 8SM CLR 12/11 A2997 330 96 100 000/00 RMK AO2 T01170111
03949KAQV AQV20160424035011304/24/16 03:50:31  5-MIN KAQV 240950Z AUTO 00000KT 8SM CLR 12/11 A2997 330 96 100 000/00 RMK AO2 SLP146 T01170111
03949KAQV AQV20160424035511304/24/16 03:55:31  5-MIN KAQV 240955Z AUTO 00000KT 9SM CLR 12/11 A2997 330 93 100 000/00 RMK AO2 SLP146 T01220111
03949KAQV AQV20160424040010604/24/16 04:00:31  5-MIN KAQV 241000Z AUTO 00000KT 9SM CLR 12/11 A2997 330 96 100 000/00 RMK AO2 T01170111
03949KAQV AQV20160424040510604/24/16 04:05:31  5-MIN KAQV 241005Z AUTO 00000KT 9SM CLR 12/11 A2997 330 96 100 000/00 RMK AO2 T01170111
03949KAQV AQV20160424041010604/24/16 04:10:31  5-MIN KAQV 241010Z AUTO 00000KT 9SM CLR 12/11 A2997 330 96 100 000/00 RMK AO2 T01170111
03949KAQV AQV20160424041510604/24/16 04:15:31  5-MIN KAQV 241015Z AUTO 00000KT 9SM CLR 12/11 A2997 330 96 100 000/00 RMK AO2 T01170111
03949KAQV AQV20160424042010604/24/16 04:20:31  5-MIN KAQV 241020Z AUTO 00000KT 8SM CLR 12/11 A2997 330 96 100 000/00 RMK AO2 T01170111
03949KAQV AQV20160424042510604/24/16 04:25:31  5-MIN KAQV 241025Z AUTO 00000KT 9SM CLR 12/11 A2997 330 96 100 000/00 RMK AO2 T01170111
03949KAQV AQV20160424043010604/24/16 04:30:31  5-MIN KAQV 241030Z AUTO 00000KT 9SM CLR 12/11 A2997 330 96 100 000/00 RMK AO2 T01170111
03949KAQV AQV20160424043510404/24/16 04:35:31  5-MIN KAQV 241035Z AUTO 00000KT 8SM CLR 12/11 A2997 330 96 0 000/00 RMK AO2 T01170111
03949KAQV AQV20160424044010404/24/16 04:40:31  5-MIN KAQV 241040Z AUTO 00000KT 8SM CLR 12/11 A2997 330 96 0 000/00 RMK AO2 T01170111
03949KAQV AQV20160424044510404/24/16 04:45:31  5-MIN KAQV 241045Z AUTO 00000KT 8SM CLR 11/11 A2997 330 96 0 000/00 RMK AO2 T01110106
03949KAQV AQV20160424045011304/24/16 04:50:31  5-MIN KAQV 241050Z AUTO 00000KT 9SM CLR 12/11 A2997 330 93 100 000/00 RMK AO2 SLP147 T01170106
03949KAQV AQV20160424045511304/24/16 04:55:31  5-MIN KAQV 241055Z AUTO 00000KT 9SM CLR 12/11 A2997 330 93 100 000/00 RMK AO2 SLP147 T01170106
03949KAQV AQV20160424050010604/24/16 05:00:31  5-MIN KAQV 241100Z AUTO 00000KT 9SM CLR 12/11 A2997 330 96 100 000/00 RMK AO2 T01170111
03949KAQV AQV20160424050510604/24/16 05:05:31  5-MIN KAQV 241105Z AUTO 00000KT 8SM CLR 12/11 A2997 330 96 100 000/00 RMK AO2 T01170111
03949KAQV AQV20160424051010404/24/16 05:10:31  5-MIN KAQV 241110Z AUTO 00000KT 8SM CLR 12/11 A2997 330 96 0 000/00 RMK AO2 T01170111
03949KAQV AQV20160424051510404/24/16 05:15:31  5-MIN KAQV 241115Z AUTO 00000KT 7SM CLR 12/11 A2997 330 96 0 000/00 RMK AO2 T01170111
03949KAQV AQV20160424052010604/24/16 05:20:31  5-MIN KAQV 241120Z AUTO 00000KT 7SM CLR 12/11 A2997 330 96 100 000/00 RMK AO2 T01170111
03949KAQV AQV20160424052510604/24/16 05:25:31  5-MIN KAQV 241125Z AUTO 00000KT 8SM CLR 12/11 A2997 330 93 100 000/00 RMK AO2 T01170106
03949KAQV AQV20160424053010604/24/16 05:30:31  5-MIN KAQV 241130Z AUTO 00000KT 7SM CLR 12/11 A2997 330 93 100 000/00 RMK AO2 T01170106
03949KAQV AQV20160424053510704/24/16 05:35:31  5-MIN KAQV 241135Z AUTO 00000KT 6SM BR CLR 12/11 A2997 330 96 0 000/00 RMK AO2 T01170111
03949KAQV AQV20160424054010704/24/16 05:40:31  5-MIN KAQV 241140Z AUTO 00000KT 6SM BR CLR 12/11 A2997 330 96 0 000/00 RMK AO2 T01170111
03949KAQV AQV20160424054510704/24/16 05:45:31  5-MIN KAQV 241145Z AUTO 00000KT 6SM BR CLR 12/11 A2997 330 96 0 000/00 RMK AO2 T01170111
03949KAQV AQV20160424055013204/24/16 05:50:31  5-MIN KAQV 241150Z AUTO 00000KT 6SM BR CLR 12/11 A2997 330 96 0 000/00 RMK AO2 SLP147 T01170111 10133 20111 55001
03949KAQV AQV20160424055513204/24/16 05:55:31  5-MIN KAQV 241155Z AUTO 00000KT 6SM BR CLR 12/11 A2997 330 96 0 000/00 RMK AO2 SLP149 T01170111 10133 20111 55001
03949KAQV AQV20160424060010804/24/16 06:00:31  5-MIN KAQV 241200Z AUTO 00000KT 6SM BR CLR 11/11 A2997 330 100 0 000/00 RMK AO2 T01110111
03949KAQV AQV20160424060510804/24/16 06:05:31  5-MIN KAQV 241205Z AUTO 00000KT 6SM BR CLR 11/11 A2998 330 100 0 000/00 RMK AO2 T01110111
03949KAQV AQV20160424061010704/24/16 06:10:31  5-MIN KAQV 241210Z AUTO 00000KT 6SM BR CLR 12/11 A2998 320 96 0 000/00 RMK AO2 T01170111
03949KAQV AQV20160424061510404/24/16 06:15:31  5-MIN KAQV 241215Z AUTO 00000KT 7SM CLR 12/11 A2998 320 96 0 000/00 RMK AO2 T01170111
03949KAQV AQV20160424062010504/24/16 06:20:31  5-MIN KAQV 241220Z AUTO 00000KT 8SM CLR 12/12 A2998 320 100 0 000/00 RMK AO2 T01170117
03949KAQV AQV20160424062510604/24/16 06:25:31  5-MIN KAQV 241225Z AUTO 00000KT 7SM CLR 12/12 A2998 320 96 100 000/00 RMK AO2 T01220117
03949KAQV AQV20160424063010604/24/16 06:30:31  5-MIN KAQV 241230Z AUTO 00000KT 9SM CLR 12/12 A2999 320 96 100 000/00 RMK AO2 T01220117
03949KAQV AQV20160424063510804/24/16 06:35:31  5-MIN KAQV 241235Z AUTO 00000KT 10SM CLR 12/12 A2999 310 100 100 000/00 RMK AO2 T01220122
03949KAQV AQV20160424064010704/24/16 06:40:31  5-MIN KAQV 241240Z AUTO 00000KT 10SM CLR 13/12 A2999 320 93 200 000/00 RMK AO2 T01330122
03949KAQV AQV20160424064510704/24/16 06:45:31  5-MIN KAQV 241245Z AUTO 00000KT 10SM CLR 14/13 A2998 320 93 400 000/00 RMK AO2 T01440133
03949KAQV AQV20160424065011404/24/16 06:50:31  5-MIN KAQV 241250Z AUTO 00000KT 10SM CLR 15/14 A2998 320 93 400 000/00 RMK AO2 SLP151 T01500139
03949KAQV AQV20160424065511404/24/16 06:55:31  5-MIN KAQV 241255Z AUTO 00000KT 10SM CLR 15/14 A2998 320 96 400 000/00 RMK AO2 SLP152 T01500144
03949KAQV AQV20160424070010704/24/16 07:00:31  5-MIN KAQV 241300Z AUTO 00000KT 10SM CLR 16/15 A2999 320 96 500 000/00 RMK AO2 T01560150
03949KAQV AQV20160424070510704/24/16 07:05:31  5-MIN KAQV 241305Z AUTO 00000KT 10SM CLR 16/15 A2998 320 93 600 000/00 RMK AO2 T01610150
03949KAQV AQV20160424071010704/24/16 07:10:31  5-MIN KAQV 241310Z AUTO 00000KT 10SM CLR 17/16 A2998 320 93 600 000/00 RMK AO2 T01670156
03949KAQV AQV20160424071510704/24/16 07:15:31  5-MIN KAQV 241315Z AUTO 00000KT 10SM CLR 17/16 A2998 320 90 700 000/00 RMK AO2 T01720156
03949KAQV AQV20160424072010704/24/16 07:20:31  5-MIN KAQV 241320Z AUTO 00000KT 10SM CLR 17/16 A2998 320 90 700 000/00 RMK AO2 T01720156
03949KAQV AQV20160424072510704/24/16 07:25:31  5-MIN KAQV 241325Z AUTO 00000KT 10SM CLR 18/17 A2998 320 90 800 000/00 RMK AO2 T01830167
03949KAQV AQV20160424073010704/24/16 07:30:31  5-MIN KAQV 241330Z AUTO 00000KT 10SM CLR 18/17 A2998 320 90 800 000/00 RMK AO2 T01830167
03949KAQV AQV20160424073510704/24/16 07:35:31  5-MIN KAQV 241335Z AUTO 00000KT 10SM CLR 19/16 A2998 320 84 900 000/00 RMK AO2 T01890161
03949KAQV AQV20160424074010704/24/16 07:40:31  5-MIN KAQV 241340Z AUTO 00000KT 10SM CLR 19/16 A2998 320 84 900 000/00 RMK AO2 T01890161
03949KAQV AQV20160424074510704/24/16 07:45:31  5-MIN KAQV 241345Z AUTO 00000KT 10SM CLR 19/14 A2998 320 75 900 000/00 RMK AO2 T01890144
03949KAQV AQV20160424075011504/24/16 07:50:31  5-MIN KAQV 241350Z AUTO 00000KT 10SM CLR 20/14 A2998 320 67 1000 000/00 RMK AO2 SLP151 T02000139
03949KAQV AQV20160424075511504/24/16 07:55:31  5-MIN KAQV 241355Z AUTO 00000KT 10SM CLR 21/14 A2998 320 65 1100 000/00 RMK AO2 SLP151 T02060139
03949KAQV AQV20160424080010804/24/16 08:00:31  5-MIN KAQV 241400Z AUTO 00000KT 10SM CLR 21/13 A2998 320 63 1100 000/00 RMK AO2 T02060133
03949KAQV AQV20160424080510804/24/16 08:05:31  5-MIN KAQV 241405Z AUTO 12003KT 10SM CLR 21/13 A2998 320 61 1100 120/03 RMK AO2 T02110133
03949KAQV AQV20160424081010804/24/16 08:10:31  5-MIN KAQV 241410Z AUTO 00000KT 10SM CLR 21/13 A2998 320 58 1100 000/00 RMK AO2 T02110128
03949KAQV AQV20160424081510804/24/16 08:15:31  5-MIN KAQV 241415Z AUTO 08003KT 10SM CLR 22/13 A2998 320 56 1200 070/03 RMK AO2 T02170128
03949KAQV AQV20160424082010804/24/16 08:20:31  5-MIN KAQV 241420Z AUTO 16003KT 10SM CLR 22/13 A2998 320 58 1200 160/03 RMK AO2 T02170133
03949KAQV AQV20160424082510804/24/16 08:25:31  5-MIN KAQV 241425Z AUTO VRB04KT 10SM CLR 22/13 A2998 320 54 1300 VRB/04 RMK AO2 T02220128
03949KAQV AQV20160424083010804/24/16 08:30:31  5-MIN KAQV 241430Z AUTO 00000KT 10SM CLR 23/13 A2998 320 55 1300 000/00 RMK AO2 T02280133
03949KAQV AQV20160424083510804/24/16 08:35:31  5-MIN KAQV 241435Z AUTO VRB03KT 10SM CLR 23/13 A2997 330 55 1300 VRB/03 RMK AO2 T02280133
03949KAQV AQV20160424084010804/24/16 08:40:31  5-MIN KAQV 241440Z AUTO 17003KT 10SM CLR 23/12 A2998 330 51 1300 170/03 RMK AO2 T02280122
03949KAQV AQV20160424084510804/24/16 08:45:31  5-MIN KAQV 241445Z AUTO 00000KT 10SM CLR 23/12 A2997 330 51 1300 000/00 RMK AO2 T02280122
03949KAQV AQV20160424085012104/24/16 08:50:31  5-MIN KAQV 241450Z AUTO VRB03KT 10SM CLR 23/13 A2997 330 51 1400 VRB/03 RMK AO2 SLP148 T02330128 55002
03949KAQV AQV20160424085512104/24/16 08:55:31  5-MIN KAQV 241455Z AUTO 00000KT 10SM CLR 23/13 A2997 330 53 1300 000/00 RMK AO2 SLP147 T02280128 55002
03949KAQV AQV20160424090010804/24/16 09:00:31  5-MIN KAQV 241500Z AUTO VRB03KT 10SM CLR 23/12 A2997 330 49 1400 VRB/03 RMK AO2 T02330122
03949KAQV AQV20160424090510804/24/16 09:05:31  5-MIN KAQV 241505Z AUTO 18004KT 10SM CLR 23/12 A2997 330 49 1400 170/04 RMK AO2 T02330122
03949KAQV AQV20160424091010804/24/16 09:10:31  5-MIN KAQV 241510Z AUTO 17004KT 10SM CLR 23/13 A2997 330 51 1400 160/04 RMK AO2 T02330128
03949KAQV AQV20160424091510804/24/16 09:15:31  5-MIN KAQV 241515Z AUTO VRB03KT 10SM CLR 23/13 A2997 330 51 1400 VRB/03 RMK AO2 T02330128
03949KAQV AQV20160424092010804/24/16 09:20:31  5-MIN KAQV 241520Z AUTO VRB04KT 10SM CLR 23/13 A2997 330 51 1400 VRB/04 RMK AO2 T02330128
03949KAQV AQV20160424092510804/24/16 09:25:31  5-MIN KAQV 241525Z AUTO 00000KT 10SM CLR 24/13 A2997 330 49 1500 000/00 RMK AO2 T02390128
03949KAQV AQV20160424093010804/24/16 09:30:31  5-MIN KAQV 241530Z AUTO VRB04KT 10SM CLR 24/13 A2997 330 47 1500 VRB/04 RMK AO2 T02440128
03949KAQV AQV20160424093510804/24/16 09:35:31  5-MIN KAQV 241535Z AUTO VRB03KT 10SM CLR 24/13 A2997 330 47 1500 VRB/03 RMK AO2 T02440128
03949KAQV AQV20160424094010804/24/16 09:40:31  5-MIN KAQV 241540Z AUTO 17007KT 10SM CLR 24/12 A2997 330 46 1500 170/07 RMK AO2 T02440122
03949KAQV AQV20160424094510804/24/16 09:45:31  5-MIN KAQV 241545Z AUTO 16007KT 10SM CLR 24/11 A2997 330 42 1500 160/07 RMK AO2 T02440111
03949KAQV AQV20160424095011504/24/16 09:50:31  5-MIN KAQV 241550Z AUTO VRB05KT 10SM CLR 24/11 A2997 330 42 1500 VRB/05 RMK AO2 SLP147 T02440111
03949KAQV AQV20160424095511504/24/16 09:55:31  5-MIN KAQV 241555Z AUTO VRB06KT 10SM CLR 25/11 A2997 330 39 1600 VRB/06 RMK AO2 SLP147 T02500106
03949KAQV AQV20160424100010804/24/16 10:00:31  5-MIN KAQV 241600Z AUTO VRB06KT 10SM CLR 24/11 A2997 330 41 1500 VRB/06 RMK AO2 T02440106
03949KAQV AQV20160424100510804/24/16 10:05:31  5-MIN KAQV 241605Z AUTO VRB06KT 10SM CLR 25/11 A2997 330 39 1600 VRB/06 RMK AO2 T02500106
03949KAQV AQV20160424101010804/24/16 10:10:31  5-MIN KAQV 241610Z AUTO 17007KT 10SM CLR 25/11 A2997 330 39 1600 170/07 RMK AO2 T02500106
03949KAQV AQV20160424101510804/24/16 10:15:31  5-MIN KAQV 241615Z AUTO VRB05KT 10SM CLR 25/11 A2997 330 39 1600 VRB/05 RMK AO2 T02500106
03949KAQV AQV20160424102012404/24/16 10:20:31  5-MIN KAQV 241620Z AUTO 10008KT 070V150 10SM CLR 26/11 A2997 330 40 1700 100/08 070V150 RMK AO2 T02560111
03949KAQV AQV20160424102512704/24/16 10:25:31  5-MIN KAQV 241625Z AUTO 09008KT 050V120 10SM FEW055 25/11 A2997 330 39 1600 090/08 050V120 RMK AO2 T02500106
03949KAQV AQV20160424103010104/24/16 10:30:31  5-MIN KAQV 241630Z AUTO 10SM FEW055 26/11 A2997 330 40 1700 M /M RMK AO2 T02560111
03949KAQV AQV20160424103511104/24/16 10:35:31  5-MIN KAQV 241635Z AUTO 14008KT 10SM FEW055 25/11 A2997 330 41 1600 140/08 RMK AO2 T02500111
03949KAQV AQV20160424104011104/24/16 10:40:31  5-MIN KAQV 241640Z AUTO VRB04KT 10SM FEW055 25/11 A2997 330 41 1600 VRB/04 RMK AO2 T02500111
03949KAQV AQV20160424104511104/24/16 10:45:31  5-MIN KAQV 241645Z AUTO 16007KT 10SM FEW055 25/12 A2997 330 43 1600 160/07 RMK AO2 T02500117
03949KAQV AQV20160424105011804/24/16 10:50:31  5-MIN KAQV 241650Z AUTO VRB04KT 10SM FEW055 24/12 A2997 330 44 1500 VRB/04 RMK AO2 SLP146 T02440117
03949KAQV AQV20160424105511804/24/16 10:55:31  5-MIN KAQV 241655Z AUTO 17005KT 10SM SCT055 24/12 A2997 330 44 1500 170/05 RMK AO2 SLP146 T02440117
03949KAQV AQV20160424110011104/24/16 11:00:31  5-MIN KAQV 241700Z AUTO VRB04KT 10SM BKN055 25/12 A2997 330 43 1600 VRB/04 RMK AO2 T02500117
03949KAQV AQV20160424110511104/24/16 11:05:31  5-MIN KAQV 241705Z AUTO VRB05KT 10SM SCT055 26/12 A2996 340 41 1700 VRB/05 RMK AO2 T02560117
03949KAQV AQV20160424111011104/24/16 11:10:31  5-MIN KAQV 241710Z AUTO 17006KT 10SM SCT055 26/11 A2996 340 40 1700 160/06 RMK AO2 T02560111
03949KAQV AQV20160424111512704/24/16 11:15:31  5-MIN KAQV 241715Z AUTO 17007KT 100V200 10SM BKN060 25/12 A2996 340 43 1600 160/07 100V200 RMK AO2 T02500117
03949KAQV AQV20160424112011104/24/16 11:20:31  5-MIN KAQV 241720Z AUTO 13008KT 10SM BKN060 25/11 A2996 340 39 1600 130/08 RMK AO2 T02500106
03949KAQV AQV20160424112511104/24/16 11:25:31  5-MIN KAQV 241725Z AUTO VRB06KT 10SM BKN060 25/11 A2996 340 39 1600 VRB/06 RMK AO2 T02500106
03949KAQV AQV20160424113011104/24/16 11:30:31  5-MIN KAQV 241730Z AUTO 17007KT 10SM BKN060 26/11 A2996 340 38 1700 160/07 RMK AO2 T02610111
03949KAQV AQV20160424113511104/24/16 11:35:31  5-MIN KAQV 241735Z AUTO 18003KT 10SM SCT060 25/11 A2995 350 39 1600 170/03 RMK AO2 T02500106
03949KAQV AQV20160424114011104/24/16 11:40:31  5-MIN KAQV 241740Z AUTO 20005KT 10SM BKN060 26/11 A2995 350 38 1700 190/05 RMK AO2 T02560106
03949KAQV AQV20160424114512704/24/16 11:45:31  5-MIN KAQV 241745Z AUTO 17007KT 140V200 10SM BKN060 26/11 A2995 350 38 1800 170/07 140V200 RMK AO2 T02610111
03949KAQV AQV20160424115013604/24/16 11:50:31  5-MIN KAQV 241750Z AUTO VRB04KT 10SM SCT060 26/11 A2995 350 38 1800 VRB/04 RMK AO2 SLP139 T02610111 10261 20111 58001
03949KAQV AQV20160424115513604/24/16 11:55:31  5-MIN KAQV 241755Z AUTO VRB06KT 10SM FEW060 27/11 A2994 360 37 1800 VRB/06 RMK AO2 SLP138 T02670111 10267 20111 58001
03949KAQV AQV20160424120011104/24/16 12:00:31  5-MIN KAQV 241800Z AUTO VRB06KT 10SM FEW060 26/11 A2994 360 37 1800 VRB/06 RMK AO2 T02610106
03949KAQV AQV20160424120512704/24/16 12:05:31  5-MIN KAQV 241805Z AUTO 16008KT 130V200 10SM FEW060 27/12 A2994 360 38 1800 160/08 130V200 RMK AO2 T02670117
03949KAQV AQV20160424121011104/24/16 12:10:31  5-MIN KAQV 241810Z AUTO VRB06KT 10SM FEW060 26/12 A2994 360 40 1800 VRB/06 RMK AO2 T02610117
03949KAQV AQV20160424121512704/24/16 12:15:31  5-MIN KAQV 241815Z AUTO 18007KT 150V240 10SM SCT060 26/12 A2994 360 40 1800 180/07 150V240 RMK AO2 T02610117
03949KAQV AQV20160424122011104/24/16 12:20:31  5-MIN KAQV 241820Z AUTO 18007KT 10SM FEW060 27/12 A2993 370 38 1800 180/07 RMK AO2 T02670117
03949KAQV AQV20160424122511104/24/16 12:25:31  5-MIN KAQV 241825Z AUTO VRB06KT 10SM SCT060 26/12 A2993 370 40 1800 VRB/06 RMK AO2 T02610117
03949KAQV AQV20160424123012704/24/16 12:30:31  5-MIN KAQV 241830Z AUTO 16007KT 120V190 10SM SCT060 27/12 A2993 370 40 1800 160/07 120V190 RMK AO2 T02670122
03949KAQV AQV20160424123512704/24/16 12:35:31  5-MIN KAQV 241835Z AUTO 19007KT 160V240 10SM SCT060 26/12 A2993 370 41 1700 190/07 160V240 RMK AO2 T02560117
03949KAQV AQV20160424124011104/24/16 12:40:31  5-MIN KAQV 241840Z AUTO 16008KT 10SM BKN060 26/12 A2993 370 41 1700 160/08 RMK AO2 T02560117
03949KAQV AQV20160424124512704/24/16 12:45:31  5-MIN KAQV 241845Z AUTO 16007KT 130V200 10SM BKN060 26/12 A2992 370 41 1700 150/07 130V200 RMK AO2 T02560117
03949KAQV AQV20160424125011804/24/16 12:50:31  5-MIN KAQV 241850Z AUTO VRB06KT 10SM BKN060 26/12 A2992 370 40 1800 VRB/06 RMK AO2 SLP131 T02610117
03949KAQV AQV20160424125511804/24/16 12:55:31  5-MIN KAQV 241855Z AUTO VRB05KT 10SM BKN060 26/12 A2992 370 41 1700 VRB/05 RMK AO2 SLP131 T02560117
03949KAQV AQV20160424130011104/24/16 13:00:31  5-MIN KAQV 241900Z AUTO VRB06KT 10SM BKN060 26/12 A2992 370 41 1700 VRB/06 RMK AO2 T02560117
03949KAQV AQV20160424130512704/24/16 13:05:31  5-MIN KAQV 241905Z AUTO 16007KT 120V190 10SM BKN060 26/11 A2992 370 38 1800 160/07 120V190 RMK AO2 T02610111
03949KAQV AQV20160424131011104/24/16 13:10:31  5-MIN KAQV 241910Z AUTO VRB06KT 10SM BKN060 26/11 A2992 380 40 1700 VRB/06 RMK AO2 T02560111
03949KAQV AQV20160424131511104/24/16 13:15:31  5-MIN KAQV 241915Z AUTO VRB06KT 10SM BKN060 26/12 A2992 380 41 1700 VRB/06 RMK AO2 T02560117
03949KAQV AQV20160424132011104/24/16 13:20:31  5-MIN KAQV 241920Z AUTO 17005KT 10SM BKN060 25/11 A2992 380 41 1700 170/05 RMK AO2 T02500111
03949KAQV AQV20160424132511104/24/16 13:25:31  5-MIN KAQV 241925Z AUTO 17007KT 10SM SCT060 26/12 A2992 380 41 1700 160/07 RMK AO2 T02560117
03949KAQV AQV20160424133011104/24/16 13:30:31  5-MIN KAQV 241930Z AUTO 20008KT 10SM BKN060 26/12 A2991 380 41 1700 190/08 RMK AO2 T02560117
03949KAQV AQV20160424133511104/24/16 13:35:31  5-MIN KAQV 241935Z AUTO VRB06KT 10SM BKN060 26/11 A2991 380 40 1700 VRB/06 RMK AO2 T02560111
03949KAQV AQV20160424134010104/24/16 13:40:31  5-MIN KAQV 241940Z AUTO 10SM BKN060 26/12 A2991 390 41 1800 M /M RMK AO2 T02610122
03949KAQV AQV20160424134511104/24/16 13:45:31  5-MIN KAQV 241945Z AUTO 17008KT 10SM SCT060 26/12 A2991 390 40 1800 160/08 RMK AO2 T02610117
03949KAQV AQV20160424135013404/24/16 13:50:31  5-MIN KAQV 241950Z AUTO 20008KT 160V240 10SM SCT060 26/11 A2991 390 38 1800 190/08 160V240 RMK AO2 SLP125 T02610111
03949KAQV AQV20160424135511804/24/16 13:55:31  5-MIN KAQV 241955Z AUTO VRB06KT 10SM SCT060 26/11 A2990 390 40 1700 VRB/06 RMK AO2 SLP124 T02560111
03949KAQV AQV20160424140011104/24/16 14:00:31  5-MIN KAQV 242000Z AUTO 17007KT 10SM SCT060 26/12 A2990 390 40 1800 160/07 RMK AO2 T02610117
03949KAQV AQV20160424140511104/24/16 14:05:31  5-MIN KAQV 242005Z AUTO 16009KT 10SM SCT060 26/12 A2990 400 41 1800 160/09 RMK AO2 T02610122
03949KAQV AQV20160424141011104/24/16 14:10:31  5-MIN KAQV 242010Z AUTO VRB05KT 10SM SCT060 26/12 A2990 400 41 1800 VRB/05 RMK AO2 T02610122
03949KAQV AQV20160424141512704/24/16 14:15:31  5-MIN KAQV 242015Z AUTO 18007KT 160V220 10SM FEW060 26/12 A2990 400 43 1700 180/07 160V220 RMK AO2 T02560122
03949KAQV AQV20160424142011104/24/16 14:20:31  5-MIN KAQV 242020Z AUTO VRB04KT 10SM FEW060 26/12 A2990 400 41 1700 VRB/04 RMK AO2 T02560117
03949KAQV AQV20160424142511104/24/16 14:25:31  5-MIN KAQV 242025Z AUTO 19008KT 10SM SCT060 26/12 A2990 400 43 1800 180/08 RMK AO2 T02560122
03949KAQV AQV20160424143012704/24/16 14:30:31  5-MIN KAQV 242030Z AUTO 20007KT 170V230 10SM FEW060 25/12 A2990 400 43 1700 200/07 170V230 RMK AO2 T02500117
03949KAQV AQV20160424143511104/24/16 14:35:31  5-MIN KAQV 242035Z AUTO VRB05KT 10SM FEW060 26/12 A2989 400 43 1800 VRB/05 RMK AO2 T02560122
03949KAQV AQV20160424144011104/24/16 14:40:31  5-MIN KAQV 242040Z AUTO VRB05KT 10SM SCT060 26/12 A2989 400 43 1800 VRB/05 RMK AO2 T02560122
03949KAQV AQV20160424144511104/24/16 14:45:31  5-MIN KAQV 242045Z AUTO 19007KT 10SM BKN060 25/12 A2989 400 43 1700 190/07 RMK AO2 T02500117
03949KAQV AQV20160424145012404/24/16 14:50:31  5-MIN KAQV 242050Z AUTO VRB05KT 10SM BKN060 25/12 A2989 400 43 1700 VRB/05 RMK AO2 SLP121 T02500117 58010
03949KAQV AQV20160424145512404/24/16 14:55:31  5-MIN KAQV 242055Z AUTO VRB06KT 10SM SCT060 25/12 A2989 400 43 1700 VRB/06 RMK AO2 SLP120 T02500117 58010
03949KAQV AQV20160424150011104/24/16 15:00:31  5-MIN KAQV 242100Z AUTO VRB05KT 10SM SCT060 25/12 A2989 400 43 1700 VRB/05 RMK AO2 T02500117
03949KAQV AQV20160424150511104/24/16 15:05:31  5-MIN KAQV 242105Z AUTO 19006KT 10SM SCT060 25/12 A2989 410 43 1700 190/06 RMK AO2 T02500117
03949KAQV AQV20160424151011104/24/16 15:10:31  5-MIN KAQV 242110Z AUTO 00000KT 10SM FEW060 25/12 A2989 410 43 1700 000/00 RMK AO2 T02500117
03949KAQV AQV20160424151511104/24/16 15:15:31  5-MIN KAQV 242115Z AUTO 20005KT 10SM FEW060 25/12 A2989 410 44 1700 190/05 RMK AO2 T02500122
03949KAQV AQV20160425012010704/25/16 01:20:31  5-MIN KAQV 250720Z AUTO 00000KT 10SM CLR 16/14 A2987 420 93 600 000/00 RMK AO2 T01560144
03949KAQV AQV20160425012510704/25/16 01:25:31  5-MIN KAQV 250725Z AUTO 00000KT 10SM CLR 16/14 A2987 420 93 600 000/00 RMK AO2 T01560144
03949KAQV AQV20160425013010704/25/16 01:30:31  5-MIN KAQV 250730Z AUTO 00000KT 10SM CLR 16/14 A2987 420 93 600 000/00 RMK AO2 T01560144
03949KAQV AQV20160425013510704/25/16 01:35:31  5-MIN KAQV 250735Z AUTO 00000KT 10SM CLR 16/14 A2987 420 93 600 000/00 RMK AO2 T01560144
03949KAQV AQV20160425014010704/25/16 01:40:31  5-MIN KAQV 250740Z AUTO 00000KT 10SM CLR 16/14 A2987 420 93 600 000/00 RMK AO2 T01560144
03949KAQV AQV20160425014510704/25/16 01:45:31  5-MIN KAQV 250745Z AUTO 16003KT 10SM CLR 16/14 A2987 430 93 600 150/03 RMK AO2 T01560144
03949KAQV AQV20160425015011404/25/16 01:50:31  5-MIN KAQV 250750Z AUTO 00000KT 10SM CLR 16/14 A2987 430 93 600 000/00 RMK AO2 SLP111 T01560144
03949KAQV AQV20160425015511404/25/16 01:55:31  5-MIN KAQV 250755Z AUTO 16003KT 10SM CLR 16/14 A2987 430 93 600 150/03 RMK AO2 SLP112 T01560144
03949KAQV AQV20160425020010704/25/16 02:00:31  5-MIN KAQV 250800Z AUTO 00000KT 10SM CLR 16/14 A2986 430 93 600 000/00 RMK AO2 T01560144
03949KAQV AQV20160425020510704/25/16 02:05:31  5-MIN KAQV 250805Z AUTO 00000KT 10SM CLR 16/14 A2986 430 93 600 000/00 RMK AO2 T01560144
03949KAQV AQV20160425021010704/25/16 02:10:31  5-MIN KAQV 250810Z AUTO 00000KT 10SM CLR 16/14 A2986 430 93 600 000/00 RMK AO2 T01560144
03949KAQV AQV20160425021510704/25/16 02:15:31  5-MIN KAQV 250815Z AUTO 00000KT 10SM CLR 16/14 A2987 430 93 600 000/00 RMK AO2 T01560144
03949KAQV AQV20160425022010704/25/16 02:20:31  5-MIN KAQV 250820Z AUTO 00000KT 10SM CLR 16/14 A2987 430 93 600 000/00 RMK AO2 T01560144
03949KAQV AQV20160425022510704/25/16 02:25:31  5-MIN KAQV 250825Z AUTO 00000KT 10SM CLR 16/14 A2987 430 93 600 000/00 RMK AO2 T01560144
03949KAQV AQV20160425023011004/25/16 02:30:31  5-MIN KAQV 250830Z AUTO 00000KT 10SM FEW034 16/14 A2987 420 93 600 000/00 RMK AO2 T01560144
03949KAQV AQV20160425023511704/25/16 02:35:31  5-MIN KAQV 250835Z AUTO 00000KT 10SM SCT034 SCT048 16/15 A2987 430 96 600 000/00 RMK AO2 T01560150
03949KAQV AQV20160425024011704/25/16 02:40:31  5-MIN KAQV 250840Z AUTO 00000KT 10SM FEW034 SCT048 16/15 A2987 430 93 700 000/00 RMK AO2 T01610150
03949KAQV AQV20160425024511704/25/16 02:45:31  5-MIN KAQV 250845Z AUTO 00000KT 10SM FEW036 SCT048 16/15 A2987 430 96 600 000/00 RMK AO2 T01560150
03949KAQV AQV20160425025013004/25/16 02:50:31  5-MIN KAQV 250850Z AUTO 00000KT 10SM FEW036 BKN048 16/15 A2987 430 96 600 000/00 RMK AO2 SLP112 T01560150 50002
03949KAQV AQV20160425025513004/25/16 02:55:31  5-MIN KAQV 250855Z AUTO 00000KT 10SM FEW036 BKN048 16/15 A2987 420 96 600 000/00 RMK AO2 SLP113 T01560150 50002
03949KAQV AQV20160425030011704/25/16 03:00:31  5-MIN KAQV 250900Z AUTO 00000KT 10SM FEW038 BKN050 16/15 A2987 420 93 700 000/00 RMK AO2 T01610150
03949KAQV AQV20160425030511704/25/16 03:05:31  5-MIN KAQV 250905Z AUTO 00000KT 10SM FEW038 BKN050 16/15 A2987 420 93 700 000/00 RMK AO2 T01610150
03949KAQV AQV20160425031011704/25/16 03:10:31  5-MIN KAQV 250910Z AUTO 00000KT 10SM FEW038 BKN050 16/15 A2987 420 93 700 000/00 RMK AO2 T01610150
03949KAQV AQV20160425031511004/25/16 03:15:31  5-MIN KAQV 250915Z AUTO 00000KT 10SM BKN050 16/15 A2987 420 96 600 000/00 RMK AO2 T01560150
03949KAQV AQV20160425032011704/25/16 03:20:31  5-MIN KAQV 250920Z AUTO 00000KT 10SM FEW043 BKN050 16/15 A2987 420 96 600 000/00 RMK AO2 T01560150
03949KAQV AQV20160425032511004/25/16 03:25:31  5-MIN KAQV 250925Z AUTO 00000KT 10SM SCT050 16/15 A2987 420 96 600 000/00 RMK AO2 T01560150
03949KAQV AQV20160425033011004/25/16 03:30:31  5-MIN KAQV 250930Z AUTO 00000KT 10SM FEW055 16/15 A2987 420 96 600 000/00 RMK AO2 T01560150
03949KAQV AQV20160425033511004/25/16 03:35:31  5-MIN KAQV 250935Z AUTO 00000KT 10SM SCT055 16/15 A2987 420 96 600 000/00 RMK AO2 T01560150
03949KAQV AQV20160425034011004/25/16 03:40:31  5-MIN KAQV 250940Z AUTO 18003KT 10SM SCT055 16/15 A2987 420 96 600 170/03 RMK AO2 T01560150
03949KAQV AQV20160425034511004/25/16 03:45:31  5-MIN KAQV 250945Z AUTO 18003KT 10SM FEW060 16/14 A2987 420 93 600 170/03 RMK AO2 T01560144
03949KAQV AQV20160425035011704/25/16 03:50:31  5-MIN KAQV 250950Z AUTO 17004KT 10SM FEW060 16/15 A2987 420 96 600 170/04 RMK AO2 SLP114 T01560150
03949KAQV AQV20160425035511704/25/16 03:55:31  5-MIN KAQV 250955Z AUTO 17003KT 10SM FEW060 16/15 A2987 420 96 600 170/03 RMK AO2 SLP114 T01560150
03949KAQV AQV20160425040011004/25/16 04:00:31  5-MIN KAQV 251000Z AUTO 18003KT 10SM FEW060 16/15 A2987 420 96 600 170/03 RMK AO2 T01560150
03949KAQV AQV20160425040510704/25/16 04:05:31  5-MIN KAQV 251005Z AUTO 18003KT 10SM CLR 16/15 A2987 420 96 600 170/03 RMK AO2 T01560150
03949KAQV AQV20160425041010704/25/16 04:10:31  5-MIN KAQV 251010Z AUTO 18003KT 10SM CLR 16/15 A2987 420 96 600 180/03 RMK AO2 T01560150
03949KAQV AQV20160425041510704/25/16 04:15:31  5-MIN KAQV 251015Z AUTO 00000KT 10SM CLR 16/15 A2987 420 96 600 000/00 RMK AO2 T01560150
03949KAQV AQV20160425042010704/25/16 04:20:31  5-MIN KAQV 251020Z AUTO 00000KT 10SM CLR 16/14 A2988 420 93 600 000/00 RMK AO2 T01560144
03949KAQV AQV20160425042510704/25/16 04:25:31  5-MIN KAQV 251025Z AUTO 00000KT 10SM CLR 16/15 A2988 420 96 600 000/00 RMK AO2 T01560150
03949KAQV AQV20160425043010704/25/16 04:30:31  5-MIN KAQV 251030Z AUTO 17003KT 10SM CLR 16/15 A2988 410 96 600 170/03 RMK AO2 T01560150
03949KAQV AQV20160425043510704/25/16 04:35:31  5-MIN KAQV 251035Z AUTO 17003KT 10SM CLR 16/15 A2988 410 93 700 160/03 RMK AO2 T01610150
03949KAQV AQV20160425044010704/25/16 04:40:31  5-MIN KAQV 251040Z AUTO VRB03KT 10SM CLR 16/15 A2988 420 93 700 VRB/03 RMK AO2 T01610150
03949KAQV AQV20160425044510704/25/16 04:45:31  5-MIN KAQV 251045Z AUTO 16003KT 10SM CLR 16/15 A2988 420 93 700 150/03 RMK AO2 T01610150
03949KAQV AQV20160425045011404/25/16 04:50:31  5-MIN KAQV 251050Z AUTO 16003KT 10SM CLR 16/15 A2988 420 93 700 150/03 RMK AO2 SLP115 T01610150
03949KAQV AQV20160425045511404/25/16 04:55:31  5-MIN KAQV 251055Z AUTO 17003KT 10SM CLR 16/15 A2988 420 93 700 170/03 RMK AO2 SLP116 T01610150
03949KAQV AQV20160425050011004/25/16 05:00:31  5-MIN KAQV 251100Z AUTO 17003KT 10SM FEW018 16/15 A2988 410 93 700 170/03 RMK AO2 T01610150
03949KAQV AQV20160425050511004/25/16 05:05:31  5-MIN KAQV 251105Z AUTO 16003KT 10SM SCT018 16/15 A2988 420 93 700 150/03 RMK AO2 T01610150
03949KAQV AQV20160425051011004/25/16 05:10:31  5-MIN KAQV 251110Z AUTO 00000KT 10SM SCT018 16/16 A2988 420 96 700 000/00 RMK AO2 T01610156
03949KAQV AQV20160425051511004/25/16 05:15:31  5-MIN KAQV 251115Z AUTO 14003KT 10SM SCT018 16/16 A2988 420 96 700 140/03 RMK AO2 T01610156
03949KAQV AQV20160425052011004/25/16 05:20:31  5-MIN KAQV 251120Z AUTO 16004KT 10SM SCT017 16/16 A2987 420 96 700 150/04 RMK AO2 T01610156
03949KAQV AQV20160425052511004/25/16 05:25:31  5-MIN KAQV 251125Z AUTO 15003KT 10SM SCT017 17/16 A2987 420 93 800 150/03 RMK AO2 T01670156
03949KAQV AQV20160425053011004/25/16 05:30:31  5-MIN KAQV 251130Z AUTO 16003KT 10SM FEW017 17/16 A2987 420 93 800 150/03 RMK AO2 T01670156
03949KAQV AQV20160425053511004/25/16 05:35:31  5-MIN KAQV 251135Z AUTO 16004KT 10SM FEW017 17/16 A2988 420 93 800 150/04 RMK AO2 T01670156
03949KAQV AQV20160425054010704/25/16 05:40:31  5-MIN KAQV 251140Z AUTO 16004KT 10SM CLR 17/16 A2988 420 93 700 160/04 RMK AO2 T01670156
03949KAQV AQV20160425054510704/25/16 05:45:31  5-MIN KAQV 251145Z AUTO VRB03KT 10SM CLR 17/16 A2988 410 93 700 VRB/03 RMK AO2 T01670156
03949KAQV AQV20160425055013204/25/16 05:50:31  5-MIN KAQV 251150Z AUTO 16003KT 10SM CLR 17/16 A2988 410 93 700 150/03 RMK AO2 SLP117 T01670156 10178 20156 55010
03949KAQV AQV20160425055513204/25/16 05:55:31  5-MIN KAQV 251155Z AUTO VRB03KT 10SM CLR 17/16 A2988 410 93 700 VRB/03 RMK AO2 SLP118 T01670156 10178 20156 55010
03949KAQV AQV20160425060010704/25/16 06:00:31  5-MIN KAQV 251200Z AUTO 16003KT 10SM CLR 17/16 A2988 410 93 700 150/03 RMK AO2 T01670156
03949KAQV AQV20160425060510704/25/16 06:05:31  5-MIN KAQV 251205Z AUTO 16004KT 10SM CLR 17/16 A2988 410 93 700 160/04 RMK AO2 T01670156
03949KAQV AQV20160425061010704/25/16 06:10:31  5-MIN KAQV 251210Z AUTO 17003KT 10SM CLR 17/16 A2988 410 96 700 160/03 RMK AO2 T01670161
03949KAQV AQV20160425061510704/25/16 06:15:31  5-MIN KAQV 251215Z AUTO 17005KT 10SM CLR 17/16 A2988 410 93 800 160/05 RMK AO2 T01720161
03949KAQV AQV20160425062010704/25/16 06:20:31  5-MIN KAQV 251220Z AUTO 16004KT 10SM CLR 17/16 A2988 410 93 800 150/04 RMK AO2 T01720161
03949KAQV AQV20160425062510704/25/16 06:25:31  5-MIN KAQV 251225Z AUTO 17004KT 10SM CLR 17/16 A2988 410 93 800 160/04 RMK AO2 T01720161
03949KAQV AQV20160425063010704/25/16 06:30:31  5-MIN KAQV 251230Z AUTO 17004KT 10SM CLR 18/17 A2989 410 93 900 160/04 RMK AO2 T01780167
03949KAQV AQV20160425063510704/25/16 06:35:31  5-MIN KAQV 251235Z AUTO 17005KT 10SM CLR 18/17 A2989 410 93 900 160/05 RMK AO2 T01780167
03949KAQV AQV20160425064010704/25/16 06:40:31  5-MIN KAQV 251240Z AUTO VRB03KT 10SM CLR 18/17 A2989 410 93 900 VRB/03 RMK AO2 T01780167
03949KAQV AQV20160425064510704/25/16 06:45:31  5-MIN KAQV 251245Z AUTO 17004KT 10SM CLR 18/17 A2989 410 90 900 160/04 RMK AO2 T01830167
03949KAQV AQV20160425065011404/25/16 06:50:31  5-MIN KAQV 251250Z AUTO 17003KT 10SM CLR 18/17 A2989 410 93 900 170/03 RMK AO2 SLP119 T01830172
03949KAQV AQV20160425065511404/25/16 06:55:31  5-MIN KAQV 251255Z AUTO VRB05KT 10SM CLR 18/17 A2989 400 93 900 VRB/05 RMK AO2 SLP120 T01830172
03949KAQV AQV20160425070011004/25/16 07:00:31  5-MIN KAQV 251300Z AUTO VRB03KT 5SM BR CLR 19/17 A2989 400 90 1000 VRB/03 RMK AO2 T01890172
03949KAQV AQV20160425070511004/25/16 07:05:31  5-MIN KAQV 251305Z AUTO 17005KT 5SM BR CLR 19/17 A2989 400 90 1000 160/05 RMK AO2 T01890172
03949KAQV AQV20160425071010704/25/16 07:10:31  5-MIN KAQV 251310Z AUTO 18006KT 9SM CLR 19/17 A2989 400 90 1000 170/06 RMK AO2 T01890172
03949KAQV AQV20160425071510804/25/16 07:15:31  5-MIN KAQV 251315Z AUTO VRB04KT 10SM CLR 19/17 A2989 400 87 1100 VRB/04 RMK AO2 T01940172
03949KAQV AQV20160425072010804/25/16 07:20:31  5-MIN KAQV 251320Z AUTO VRB04KT 10SM CLR 19/18 A2989 400 90 1100 VRB/04 RMK AO2 T01940178
03949KAQV AQV20160425072510804/25/16 07:25:31  5-MIN KAQV 251325Z AUTO 17004KT 10SM CLR 20/18 A2989 400 87 1100 170/04 RMK AO2 T02000178
03949KAQV AQV20160425073012404/25/16 07:30:31  5-MIN KAQV 251330Z AUTO 18007KT 140V210 10SM CLR 20/18 A2989 400 87 1100 170/07 140V210 RMK AO2 T02000178
03949KAQV AQV20160425073510804/25/16 07:35:31  5-MIN KAQV 251335Z AUTO VRB04KT 10SM CLR 20/18 A2989 400 87 1100 VRB/04 RMK AO2 T02000178
03949KAQV AQV20160425074010804/25/16 07:40:31  5-MIN KAQV 251340Z AUTO VRB05KT 10SM CLR 21/18 A2989 400 84 1200 VRB/05 RMK AO2 T02060178
03949KAQV AQV20160425074510804/25/16 07:45:31  5-MIN KAQV 251345Z AUTO VRB04KT 10SM CLR 21/18 A2989 400 81 1200 VRB/04 RMK AO2 T02110178
03949KAQV AQV20160425075011504/25/16 07:50:31  5-MIN KAQV 251350Z AUTO 18006KT 10SM CLR 21/18 A2989 400 81 1200 170/06 RMK AO2 SLP121 T02110178
03949KAQV AQV20160425075511504/25/16 07:55:31  5-MIN KAQV 251355Z AUTO 16006KT 10SM CLR 21/18 A2989 400 81 1200 160/06 RMK AO2 SLP121 T02110178
03949KAQV AQV20160425080012404/25/16 08:00:31  5-MIN KAQV 251400Z AUTO 19007KT 150V260 10SM CLR 22/18 A2989 400 81 1300 190/07 150V260 RMK AO2 T02170183
03949KAQV AQV20160425080510804/25/16 08:05:31  5-MIN KAQV 251405Z AUTO VRB05KT 10SM CLR 22/18 A2989 400 81 1300 VRB/05 RMK AO2 T02170183
03949KAQV AQV20160425081012704/25/16 08:10:31  5-MIN KAQV 251410Z AUTO 18007KT 140V250 10SM FEW015 22/18 A2989 400 81 1300 170/07 140V250 RMK AO2 T02170183
03949KAQV AQV20160425081511104/25/16 08:15:31  5-MIN KAQV 251415Z AUTO 16006KT 10SM FEW015 23/18 A2989 400 76 1400 160/06 RMK AO2 T02280183
03949KAQV AQV20160425082011104/25/16 08:20:31  5-MIN KAQV 251420Z AUTO 15007KT 10SM FEW015 22/18 A2989 400 78 1400 140/07 RMK AO2 T02220183
03949KAQV AQV20160425082511104/25/16 08:25:31  5-MIN KAQV 251425Z AUTO 15007KT 10SM SCT015 23/18 A2989 400 76 1400 150/07 RMK AO2 T02280183
03949KAQV AQV20160425083011104/25/16 08:30:31  5-MIN KAQV 251430Z AUTO 17008KT 10SM BKN015 23/18 A2989 400 76 1400 170/08 RMK AO2 T02280183
03949KAQV AQV20160425083511104/25/16 08:35:31  5-MIN KAQV 251435Z AUTO VRB03KT 10SM BKN016 23/18 A2989 400 73 1500 VRB/03 RMK AO2 T02330183
03949KAQV AQV20160425084010104/25/16 08:40:31  5-MIN KAQV 251440Z AUTO 10SM SCT016 23/18 A2989 400 73 1500 M /M RMK AO2 T02330183
03949KAQV AQV20160425084511704/25/16 08:45:31  5-MIN KAQV 251445Z AUTO 18009G16KT 10SM SCT018 23/18 A2989 400 76 1400 180/09G16 RMK AO2 T02280183
03949KAQV AQV20160425085012304/25/16 08:50:31  5-MIN KAQV 251450Z AUTO 17008G16KT 150V210 10SM BKN018 23/18 A2989 400 76 1400 170/08G16 150V210 RMK AO2
03949KAQV AQV20160425085513104/25/16 08:55:31  5-MIN KAQV 251455Z AUTO 18007KT 10SM BKN020 BKN043 23/18 A2990 400 76 1400 170/07 RMK AO2 SLP120 T02280183 51004
03949KAQV AQV20160425090011804/25/16 09:00:31  5-MIN KAQV 251500Z AUTO VRB06KT 10SM SCT020 BKN043 23/18 A2990 400 76 1400 VRB/06 RMK AO2 T02280183
03949KAQV AQV20160425090512504/25/16 09:05:31  5-MIN KAQV 251505Z AUTO 18007KT 10SM SCT020 SCT025 BKN045 23/18 A2990 400 73 1500 170/07 RMK AO2 T02330183
03949KAQV AQV20160425091012504/25/16 09:10:31  5-MIN KAQV 251510Z AUTO VRB05KT 10SM SCT020 BKN025 BKN045 23/18 A2990 400 76 1400 VRB/05 RMK AO2 T02280183
03949KAQV AQV20160425091512504/25/16 09:15:31  5-MIN KAQV 251515Z AUTO 16007KT 10SM BKN020 BKN038 BKN045 23/18 A2990 400 73 1500 160/07 RMK AO2 T02330183
03949KAQV AQV20160425092012504/25/16 09:20:31  5-MIN KAQV 251520Z AUTO VRB06KT 10SM BKN022 BKN028 OVC045 24/18 A2990 400 71 1600 VRB/06 RMK AO2 T02390183
03949KAQV AQV20160425092514004/25/16 09:25:31  5-MIN KAQV 251525Z AUTO 19007G16KT 170V250 10SM BKN026 BKN045 23/18 A2990 400 73 1500 190/07G16 170V250 RMK AO2 T02330183
03949KAQV AQV20160425093012404/25/16 09:30:31  5-MIN KAQV 251530Z AUTO VRB05G16KT 10SM BKN023 OVC028 23/18 A2990 390 73 1500 VRB/05G16 RMK AO2 T02330183
03949KAQV AQV20160425093511104/25/16 09:35:31  5-MIN KAQV 251535Z AUTO 18005KT 10SM OVC025 24/19 A2990 390 73 1600 180/05 RMK AO2 T02390189
03949KAQV AQV20160425094012704/25/16 09:40:31  5-MIN KAQV 251540Z AUTO 18008KT 150V220 10SM OVC025 24/19 A2990 390 73 1600 170/08 150V220 RMK AO2 T02390189
03949KAQV AQV20160425094511804/25/16 09:45:31  5-MIN KAQV 251545Z AUTO 19007KT 10SM BKN025 OVC030 24/19 A2990 390 73 1600 190/07 RMK AO2 T02390189
03949KAQV AQV20160425095012504/25/16 09:50:31  5-MIN KAQV 251550Z AUTO VRB03KT 10SM BKN025 OVC030 24/19 A2990 390 73 1600 VRB/03 RMK AO2 SLP123 T02390189
03949KAQV AQV20160425095510804/25/16 09:55:31  5-MIN KAQV 251555Z AUTO 10SM OVC025 24/19 A2990 390 73 1600 M /M RMK AO2 SLP123 T02390189
03949KAQV AQV20160425100012704/25/16 10:00:31  5-MIN KAQV 251600Z AUTO 18007KT 150V220 10SM OVC025 24/19 A2990 390 73 1600 170/07 150V220 RMK AO2 T02390189
03949KAQV AQV20160425100511804/25/16 10:05:31  5-MIN KAQV 251605Z AUTO 18005KT 10SM BKN023 OVC030 24/19 A2990 390 73 1600 180/05 RMK AO2 T02390189
03949KAQV AQV20160425101011804/25/16 10:10:31  5-MIN KAQV 251610Z AUTO VRB06KT 10SM BKN023 OVC030 23/18 A2990 390 73 1500 VRB/06 RMK AO2 T02330183
03949KAQV AQV20160425101511804/25/16 10:15:31  5-MIN KAQV 251615Z AUTO 18006KT 10SM BKN023 OVC030 23/19 A2990 390 76 1500 170/06 RMK AO2 T02330189
03949KAQV AQV20160425102011804/25/16 10:20:31  5-MIN KAQV 251620Z AUTO VRB04KT 10SM BKN023 OVC030 24/19 A2990 390 73 1600 VRB/04 RMK AO2 T02390189
03949KAQV AQV20160425102512004/25/16 10:25:31  5-MIN KAQV 251625Z AUTO VRB06KT 5SM HZ BKN023 OVC030 24/19 A2990 390 73 1600 VRB/06 RMK AO2 T02390189
03949KAQV AQV20160425103012004/25/16 10:30:31  5-MIN KAQV 251630Z AUTO 17005KT 5SM HZ BKN023 BKN030 24/19 A2990 390 71 1600 170/05 RMK AO2 T02440189
03949KAQV AQV20160425103513404/25/16 10:35:31  5-MIN KAQV 251635Z AUTO 18007KT 130V210 10SM SCT023 BKN030 24/19 A2990 390 71 1600 180/07 130V210 RMK AO2 T02440189
03949KAQV AQV20160425104012504/25/16 10:40:31  5-MIN KAQV 251640Z AUTO 19005KT 10SM FEW024 BKN030 BKN034 25/19 A2990 400 71 1700 190/05 RMK AO2 T02500194
03949KAQV AQV20160425104512504/25/16 10:45:31  5-MIN KAQV 251645Z AUTO VRB05KT 10SM FEW024 BKN029 BKN034 25/19 A2990 400 71 1700 VRB/05 RMK AO2 T02500194
03949KAQV AQV20160425105011504/25/16 10:50:31  5-MIN KAQV 251650Z AUTO VRB04KT 10SM FEW024 SCT029 BKN060 25/19 A2990 400 71 1700 VRB/04 RMK AO2
03949KAQV AQV20160425105513204/25/16 10:55:31  5-MIN KAQV 251655Z AUTO 21004KT 10SM FEW023 SCT029 BKN060 25/19 A2989 400 71 1700 200/04 RMK AO2 SLP120 T02500194
03949KAQV AQV20160425110014704/25/16 11:00:31  5-MIN KAQV 251700Z AUTO 16008G16KT 110V190 10SM SCT023 BKN030 OVC060 26/19 A2989 400 68 1800 160/08G16 110V190 RMK AO2 T02560194
03949KAQV AQV20160425110513104/25/16 11:05:31  5-MIN KAQV 251705Z AUTO VRB06G16KT 10SM SCT023 SCT031 BKN065 26/19 A2989 400 68 1800 VRB/06G16 RMK AO2 T02560194
03949KAQV AQV20160425111012504/25/16 11:10:31  5-MIN KAQV 251710Z AUTO VRB05KT 10SM FEW023 SCT033 BKN060 26/19 A2989 400 66 1800 VRB/05 RMK AO2 T02610194
03949KAQV AQV20160425111512504/25/16 11:15:31  5-MIN KAQV 251715Z AUTO 17004KT 10SM FEW023 SCT033 BKN065 26/19 A2989 410 66 1800 160/04 RMK AO2 T02560189
03949KAQV AQV20160425112012504/25/16 11:20:31  5-MIN KAQV 251720Z AUTO VRB04KT 10SM FEW023 SCT033 BKN070 26/19 A2989 410 68 1800 VRB/04 RMK AO2 T02560194
03949KAQV AQV20160425112512504/25/16 11:25:31  5-MIN KAQV 251725Z AUTO 19005KT 10SM FEW023 SCT032 BKN070 26/19 A2989 410 68 1800 180/05 RMK AO2 T02560194
03949KAQV AQV20160425113012504/25/16 11:30:31  5-MIN KAQV 251730Z AUTO VRB05KT 10SM FEW027 SCT032 BKN045 25/19 A2989 410 68 1700 VRB/05 RMK AO2 T02500189
03949KAQV AQV20160425113512504/25/16 11:35:31  5-MIN KAQV 251735Z AUTO 19006KT 10SM SCT025 BKN032 BKN070 25/19 A2988 410 68 1700 180/06 RMK AO2 T02500189
03949KAQV AQV20160425114014104/25/16 11:40:31  5-MIN KAQV 251740Z AUTO 18005KT 10SM -RA SCT025 BKN044 OVC070 25/19 A2989 410 71 1700 180/05 RMK AO2 RAB36 P0000 T02500194
03949KAQV AQV20160425114514104/25/16 11:45:31  5-MIN KAQV 251745Z AUTO 17005KT 10SM -RA FEW026 SCT032 OVC075 25/20 A2989 410 73 1700 170/05 RMK AO2 RAB36 P0000 T02500200
03949KAQV AQV20160425115017104/25/16 11:50:31  5-MIN KAQV 251750Z AUTO VRB06KT 10SM SCT028 BKN080 BKN090 26/19 A2988 410 68 1800 VRB/06 RMK AO2 RAB36E46 SLP117 P0000 60000 T02560194 10261 20167 51002
03949KAQV AQV20160425115518704/25/16 11:55:31  5-MIN KAQV 251755Z AUTO 18007KT 150V220 10SM FEW028 BKN075 OVC090 25/19 A2988 410 71 1700 180/07 150V220 RMK AO2 RAB36E46 SLP117 P0000 60000 T02500194 10261 20167 51002
03949KAQV AQV20160425120012504/25/16 12:00:31  5-MIN KAQV 251800Z AUTO 17009KT 10SM FEW026 FEW041 OVC075 24/19 A2988 410 73 1600 170/09 RMK AO2 T02440194
03949KAQV AQV20160425120513404/25/16 12:05:31  5-MIN KAQV 251805Z AUTO VRB06KT 10SM -RA FEW039 OVC080 24/20 A2988 410 76 1600 VRB/06 RMK AO2 RAB03 P0000 T02440200
03949KAQV AQV20160425121012704/25/16 12:10:31  5-MIN KAQV 251810Z AUTO 19004KT 10SM -RA BKN080 24/21 A2988 410 81 1600 180/04 RMK AO2 RAB03 P0000 T02390206
03949KAQV AQV20160425121512604/25/16 12:15:31  5-MIN KAQV 251815Z AUTO 17004KT 10SM OVC080 24/21 A2988 410 81 1600 170/04 RMK AO2 RAB03E15 P0000 T02390206
03949KAQV AQV20160425122012604/25/16 12:20:31  5-MIN KAQV 251820Z AUTO 17003KT 10SM OVC080 24/20 A2988 420 78 1600 170/03 RMK AO2 RAB03E15 P0000 T02390200
03949KAQV AQV20160425122513304/25/16 12:25:31  5-MIN KAQV 251825Z AUTO VRB03KT 10SM FEW055 OVC085 24/20 A2987 420 76 1600 VRB/03 RMK AO2 RAB03E15 P0000 T02440200
03949KAQV AQV20160425123014004/25/16 12:30:31  5-MIN KAQV 251830Z AUTO VRB03KT 10SM FEW055 BKN080 OVC090 24/20 A2987 420 76 1700 VRB/03 RMK AO2 RAB03E15 P0000 T02440200
03949KAQV AQV20160425123514004/25/16 12:35:31  5-MIN KAQV 251835Z AUTO 17004KT 10SM FEW048 FEW055 OVC090 26/20 A2987 430 71 1800 170/04 RMK AO2 RAB03E15 P0000 T02560200
03949KAQV AQV20160425124013304/25/16 12:40:31  5-MIN KAQV 251840Z AUTO VRB04KT 10SM FEW055 OVC095 26/20 A2986 430 68 1800 VRB/04 RMK AO2 RAB03E15 P0000 T02610200
03949KAQV AQV20160425124513304/25/16 12:45:31  5-MIN KAQV 251845Z AUTO 00000KT 10SM FEW055 OVC100 27/21 A2986 430 69 1900 000/00 RMK AO2 RAB03E15 P0000 T02670206
03949KAQV AQV20160425125014004/25/16 12:50:31  5-MIN KAQV 251850Z AUTO VRB05KT 10SM SCT055 OVC100 26/20 A2986 430 68 1900 VRB/05 RMK AO2 RAB03E15 SLP109 P0000 T02610200
03949KAQV AQV20160425125514704/25/16 12:55:31  5-MIN KAQV 251855Z AUTO VRB06KT 10SM FEW024 BKN060 OVC100 26/19 A2986 430 66 1900 VRB/06 RMK AO2 RAB03E15 SLP109 P0000 T02610194
03949KAQV AQV20160425130012504/25/16 13:00:31  5-MIN KAQV 251900Z AUTO VRB05KT 10SM FEW026 SCT060 BKN100 27/20 A2986 430 66 1900 VRB/05 RMK AO2 T02670200
03949KAQV AQV20160425130512504/25/16 13:05:31  5-MIN KAQV 251905Z AUTO 17008KT 10SM FEW026 SCT034 BKN100 27/20 A2986 430 66 1900 170/08 RMK AO2 T02670200
03949KAQV AQV20160425131012504/25/16 13:10:31  5-MIN KAQV 251910Z AUTO VRB04KT 10SM FEW026 SCT032 BKN060 27/19 A2985 440 62 2000 VRB/04 RMK AO2 T02720194
03949KAQV AQV20160425131512504/25/16 13:15:31  5-MIN KAQV 251915Z AUTO VRB05KT 10SM FEW026 SCT034 BKN041 27/19 A2985 440 62 2000 VRB/05 RMK AO2 T02720194
03949KAQV AQV20160425192511104/25/16 19:25:31  5-MIN KAQV 260125Z AUTO 17004KT 10SM FEW075 22/21 A2982 470 90 1500 160/04 RMK AO2 T02220206
03949KAQV AQV20160425193011104/25/16 19:30:31  5-MIN KAQV 260130Z AUTO 17004KT 10SM FEW075 22/21 A2982 470 90 1500 160/04 RMK AO2 T02220206
03949KAQV AQV20160425193511104/25/16 19:35:31  5-MIN KAQV 260135Z AUTO VRB03KT 10SM FEW075 22/21 A2982 470 90 1500 VRB/03 RMK AO2 T02220206
03949KAQV AQV20160425194010804/25/16 19:40:31  5-MIN KAQV 260140Z AUTO VRB03KT 10SM CLR 22/21 A2982 470 93 1400 VRB/03 RMK AO2 T02170206
03949KAQV AQV20160425194510804/25/16 19:45:31  5-MIN KAQV 260145Z AUTO 16003KT 10SM CLR 22/21 A2982 470 93 1400 160/03 RMK AO2 T02170206
03949KAQV AQV20160425195011504/25/16 19:50:31  5-MIN KAQV 260150Z AUTO 17004KT 10SM CLR 22/21 A2982 470 93 1400 160/04 RMK AO2 SLP095 T02170206
03949KAQV AQV20160425195511504/25/16 19:55:31  5-MIN KAQV 260155Z AUTO VRB03KT 10SM CLR 22/21 A2982 470 93 1400 VRB/03 RMK AO2 SLP094 T02170206
03949KAQV AQV20160425200010804/25/16 20:00:31  5-MIN KAQV 260200Z AUTO VRB03KT 10SM CLR 22/21 A2982 470 93 1400 VRB/03 RMK AO2 T02170206
03949KAQV AQV20160425200510804/25/16 20:05:31  5-MIN KAQV 260205Z AUTO 17004KT 10SM CLR 22/21 A2982 470 93 1400 170/04 RMK AO2 T02170206
03949KAQV AQV20160425201010804/25/16 20:10:31  5-MIN KAQV 260210Z AUTO 16005KT 10SM CLR 22/21 A2983 460 93 1400 160/05 RMK AO2 T02170206
03949KAQV AQV20160425201510804/25/16 20:15:31  5-MIN KAQV 260215Z AUTO 17004KT 10SM CLR 22/21 A2983 460 93 1400 170/04 RMK AO2 T02170206
03949KAQV AQV20160425202010804/25/16 20:20:31  5-MIN KAQV 260220Z AUTO 17003KT 10SM CLR 22/21 A2983 460 93 1400 170/03 RMK AO2 T02170206
03949KAQV AQV20160425202510804/25/16 20:25:31  5-MIN KAQV 260225Z AUTO 16005KT 10SM CLR 22/21 A2983 460 93 1400 160/05 RMK AO2 T02170206
03949KAQV AQV20160425203010804/25/16 20:30:31  5-MIN KAQV 260230Z AUTO 17006KT 10SM CLR 22/21 A2983 460 93 1400 170/06 RMK AO2 T02170206
03949KAQV AQV20160425203510804/25/16 20:35:31  5-MIN KAQV 260235Z AUTO 17005KT 10SM CLR 22/21 A2984 450 93 1400 170/05 RMK AO2 T02170206
03949KAQV AQV20160425204010804/25/16 20:40:31  5-MIN KAQV 260240Z AUTO 18006KT 10SM CLR 22/21 A2983 460 93 1400 170/06 RMK AO2 T02170206
03949KAQV AQV20160425204510804/25/16 20:45:31  5-MIN KAQV 260245Z AUTO VRB04KT 10SM CLR 22/21 A2983 460 93 1400 VRB/04 RMK AO2 T02170206
03949KAQV AQV20160425205012104/25/16 20:50:31  5-MIN KAQV 260250Z AUTO 17004KT 10SM CLR 21/21 A2983 460 97 1300 170/04 RMK AO2 SLP100 T02110206 56010
03949KAQV AQV20160425205512104/25/16 20:55:31  5-MIN KAQV 260255Z AUTO 17004KT 10SM CLR 21/21 A2983 460 97 1300 170/04 RMK AO2 SLP099 T02110206 56010
03949KAQV AQV20160425210010804/25/16 21:00:31  5-MIN KAQV 260300Z AUTO VRB05KT 10SM CLR 21/21 A2983 460 97 1300 VRB/05 RMK AO2 T02110206
03949KAQV AQV20160425210510804/25/16 21:05:31  5-MIN KAQV 260305Z AUTO VRB04KT 10SM CLR 21/21 A2983 460 97 1300 VRB/04 RMK AO2 T02110206
03949KAQV AQV20160425211010804/25/16 21:10:31  5-MIN KAQV 260310Z AUTO 17004KT 10SM CLR 21/21 A2984 460 97 1300 170/04 RMK AO2 T02110206
03949KAQV AQV20160425211510804/25/16 21:15:31  5-MIN KAQV 260315Z AUTO VRB04KT 10SM CLR 21/21 A2984 450 97 1300 VRB/04 RMK AO2 T02110206
03949KAQV AQV20160425212010804/25/16 21:20:31  5-MIN KAQV 260320Z AUTO 16005KT 10SM CLR 21/20 A2984 450 93 1300 160/05 RMK AO2 T02110200
03949KAQV AQV20160425212510804/25/16 21:25:31  5-MIN KAQV 260325Z AUTO 18004KT 10SM CLR 21/20 A2984 450 93 1300 180/04 RMK AO2 T02110200
03949KAQV AQV20160425213010804/25/16 21:30:31  5-MIN KAQV 260330Z AUTO 17004KT 10SM CLR 21/20 A2984 450 93 1300 170/04 RMK AO2 T02110200
03949KAQV AQV20160425213510804/25/16 21:35:31  5-MIN KAQV 260335Z AUTO 19003KT 10SM CLR 21/20 A2984 450 93 1300 190/03 RMK AO2 T02110200
03949KAQV AQV20160425214010804/25/16 21:40:31  5-MIN KAQV 260340Z AUTO 18003KT 10SM CLR 21/20 A2984 450 97 1200 180/03 RMK AO2 T02060200
03949KAQV AQV20160425214510804/25/16 21:45:31  5-MIN KAQV 260345Z AUTO 19004KT 10SM CLR 21/20 A2984 450 93 1300 180/04 RMK AO2 T02110200
03949KAQV AQV20160425215011804/25/16 21:50:31  5-MIN KAQV 260350Z AUTO 18003KT 10SM FEW013 21/20 A2985 440 97 1200 180/03 RMK AO2 SLP104 T02060200
03949KAQV AQV20160425215511804/25/16 21:55:31  5-MIN KAQV 260355Z AUTO VRB03KT 10SM SCT013 21/20 A2985 440 93 1300 VRB/03 RMK AO2 SLP105 T02110200
03949KAQV AQV20160425220011104/25/16 22:00:31  5-MIN KAQV 260400Z AUTO 17003KT 10SM BKN013 21/20 A2985 440 93 1300 170/03 RMK AO2 T02110200
03949KAQV AQV20160425220511104/25/16 22:05:31  5-MIN KAQV 260405Z AUTO 17004KT 10SM BKN013 21/21 A2985 450 97 1300 170/04 RMK AO2 T02110206
03949KAQV AQV20160425221011104/25/16 22:10:31  5-MIN KAQV 260410Z AUTO 17003KT 10SM BKN013 21/21 A2984 450 97 1300 160/03 RMK AO2 T02110206
03949KAQV AQV20160425221511104/25/16 22:15:31  5-MIN KAQV 260415Z AUTO 18006KT 10SM OVC013 21/21 A2984 450 97 1300 170/06 RMK AO2 T02110206
03949KAQV AQV20160425222011104/25/16 22:20:31  5-MIN KAQV 260420Z AUTO 17005KT 10SM OVC013 21/21 A2984 450 97 1300 170/05 RMK AO2 T02110206
03949KAQV AQV20160425222511104/25/16 22:25:31  5-MIN KAQV 260425Z AUTO 17006KT 10SM OVC013 21/21 A2984 450 97 1300 160/06 RMK AO2 T02110206
03949KAQV AQV20160425223011104/25/16 22:30:31  5-MIN KAQV 260430Z AUTO 18006KT 10SM OVC013 21/21 A2984 450 97 1300 180/06 RMK AO2 T02110206
03949KAQV AQV20160425223511104/25/16 22:35:31  5-MIN KAQV 260435Z AUTO 17006KT 10SM OVC013 22/20 A2984 450 90 1400 170/06 RMK AO2 T02170200
03949KAQV AQV20160425224011104/25/16 22:40:31  5-MIN KAQV 260440Z AUTO 17005KT 10SM OVC013 22/20 A2984 450 90 1400 170/05 RMK AO2 T02170200
03949KAQV AQV20160425224511104/25/16 22:45:31  5-MIN KAQV 260445Z AUTO VRB05KT 10SM OVC013 22/20 A2984 450 90 1400 VRB/05 RMK AO2 T02170200
03949KAQV AQV20160425225011804/25/16 22:50:31  5-MIN KAQV 260450Z AUTO VRB06KT 10SM OVC013 22/20 A2984 450 90 1400 VRB/06 RMK AO2 SLP101 T02170200
03949KAQV AQV20160425225511804/25/16 22:55:31  5-MIN KAQV 260455Z AUTO 17007KT 10SM OVC013 22/20 A2984 450 90 1400 170/07 RMK AO2 SLP101 T02170200
03949KAQV AQV20160425230011104/25/16 23:00:31  5-MIN KAQV 260500Z AUTO 18007KT 10SM OVC013 22/20 A2983 460 90 1400 170/07 RMK AO2 T02170200
03949KAQV AQV20160425230511104/25/16 23:05:31  5-MIN KAQV 260505Z AUTO 17007KT 10SM OVC013 22/20 A2984 450 90 1400 170/07 RMK AO2 T02170200
03949KAQV AQV20160425231011104/25/16 23:10:31  5-MIN KAQV 260510Z AUTO VRB05KT 10SM OVC013 22/20 A2984 450 87 1400 VRB/05 RMK AO2 T02220200
03949KAQV AQV20160425231511104/25/16 23:15:31  5-MIN KAQV 260515Z AUTO 17005KT 10SM OVC014 22/20 A2984 450 90 1400 170/05 RMK AO2 T02170200
03949KAQV AQV20160425232011104/25/16 23:20:31  5-MIN KAQV 260520Z AUTO VRB06KT 10SM OVC014 22/20 A2983 460 87 1400 VRB/06 RMK AO2 T02220200
03949KAQV AQV20160426062011704/26/16 06:20:31  5-MIN KAQV 261220Z AUTO 17005KT 8SM SCT013 OVC021 21/20 A2983 460 93 1300 170/05 RMK AO2 T02110200
03949KAQV AQV20160426062511704/26/16 06:25:31  5-MIN KAQV 261225Z AUTO 17003KT 9SM SCT013 BKN021 22/20 A2983 460 90 1400 170/03 RMK AO2 T02170200
03949KAQV AQV20160426063011704/26/16 06:30:31  5-MIN KAQV 261230Z AUTO 16004KT 9SM FEW013 BKN023 22/20 A2983 460 90 1400 160/04 RMK AO2 T02170200
03949KAQV AQV20160426063512404/26/16 06:35:31  5-MIN KAQV 261235Z AUTO VRB04KT 9SM SCT013 SCT018 BKN023 22/20 A2983 460 90 1400 VRB/04 RMK AO2 T02170200
03949KAQV AQV20160426064011804/26/16 06:40:31  5-MIN KAQV 261240Z AUTO 17005KT 10SM SCT013 BKN024 22/21 A2983 460 93 1400 170/05 RMK AO2 T02170206
03949KAQV AQV20160426064512504/26/16 06:45:31  5-MIN KAQV 261245Z AUTO 18005KT 10SM FEW011 FEW016 BKN026 22/20 A2983 460 90 1400 180/05 RMK AO2 T02170200
03949KAQV AQV20160426065012504/26/16 06:50:31  5-MIN KAQV 261250Z AUTO 17004KT 10SM SCT013 BKN026 22/20 A2983 460 90 1400 170/04 RMK AO2 SLP099 T02170200
03949KAQV AQV20160426065513204/26/16 06:55:31  5-MIN KAQV 261255Z AUTO 18005KT 10SM SCT013 BKN020 BKN026 22/20 A2983 460 90 1400 180/05 RMK AO2 SLP099 T02170200
03949KAQV AQV20160426070011804/26/16 07:00:31  5-MIN KAQV 261300Z AUTO VRB05KT 10SM SCT014 OVC026 22/20 A2983 460 90 1400 VRB/05 RMK AO2 T02170200
03949KAQV AQV20160426070511804/26/16 07:05:31  5-MIN KAQV 261305Z AUTO VRB04KT 10SM SCT014 OVC026 22/20 A2984 460 87 1400 VRB/04 RMK AO2 T02220200
03949KAQV AQV20160426071011804/26/16 07:10:31  5-MIN KAQV 261310Z AUTO 17007KT 10SM SCT014 OVC025 22/20 A2984 450 87 1400 170/07 RMK AO2 T02220200
03949KAQV AQV20160426071507004/26/16 07:15:31  5-MIN KAQV 261315Z AUTO VRB05KT 10SM SCT014 BKN020 
03949KAQV AQV20160428030011404/28/16 03:00:31  5-MIN KAQV 280900Z AUTO 00000KT 1/4SM FG VV002 21/20 A2980 490 97 1300 000/00 RMK AO2 T02060200
03949KAQV AQV20160428030511404/28/16 03:05:31  5-MIN KAQV 280905Z AUTO 00000KT 1/4SM FG VV002 21/20 A2980 490 97 1300 000/00 RMK AO2 T02060200
03949KAQV AQV20160428031011504/28/16 03:10:31  5-MIN KAQV 280910Z AUTO 00000KT 1/4SM FG VV002 20/20 A2980 490 100 1200 000/00 RMK AO2 T02000200
03949KAQV AQV20160428031511504/28/16 03:15:31  5-MIN KAQV 280915Z AUTO 00000KT 1/4SM FG VV002 20/20 A2980 490 100 1200 000/00 RMK AO2 T02000200
03949KAQV AQV20160428032011504/28/16 03:20:31  5-MIN KAQV 280920Z AUTO 00000KT 1/4SM FG VV002 20/20 A2980 490 100 1200 000/00 RMK AO2 T02000200
03949KAQV AQV20160428032511504/28/16 03:25:31  5-MIN KAQV 280925Z AUTO 00000KT 1/4SM FG VV002 20/20 A2980 490 100 1200 000/00 RMK AO2 T02000200
03949KAQV AQV20160428033011504/28/16 03:30:31  5-MIN KAQV 280930Z AUTO 00000KT 1/4SM FG VV002 20/20 A2980 490 100 1200 000/00 RMK AO2 T02000200
03949KAQV AQV20160428033511404/28/16 03:35:31  5-MIN KAQV 280935Z AUTO 00000KT 1/4SM FG VV002 20/19 A2980 480 97 1200 000/00 RMK AO2 T02000194
03949KAQV AQV20160428034011404/28/16 03:40:31  5-MIN KAQV 280940Z AUTO 18003KT 1/4SM FG VV002 20/19 A2981 480 97 1200 180/03 RMK AO2 T02000194
03949KAQV AQV20160428034511404/28/16 03:45:31  5-MIN KAQV 280945Z AUTO 00000KT 1/4SM FG VV002 20/19 A2981 480 97 1200 000/00 RMK AO2 T02000194
03949KAQV AQV20160428035012104/28/16 03:50:31  5-MIN KAQV 280950Z AUTO 00000KT 1/4SM FG VV002 20/19 A2981 480 97 1200 000/00 RMK AO2 SLP090 T02000194
03949KAQV AQV20160428035512104/28/16 03:55:31  5-MIN KAQV 280955Z AUTO 00000KT 1/4SM FG VV002 20/19 A2981 480 97 1200 000/00 RMK AO2 SLP091 T02000194
03949KAQV AQV20160428040011404/28/16 04:00:31  5-MIN KAQV 281000Z AUTO 34003KT 1/4SM FG VV002 20/19 A2982 470 97 1200 330/03 RMK AO2 T02000194
03949KAQV AQV20160428040507204/28/16 04:05:31  5-MIN KAQV 281005Z AUTO 00000KT 1/4SM FG VV002 20/19 
03949KAQV AQV20160429121013004/29/16 12:10:31  5-MIN KAQV 291810Z AUTO 17008G20KT 140V210 10SM CLR 30/19 A2975 530 51 2400 160/08G20 140V210 RMK AO2 T03000189
03949KAQV AQV20160429121509804/29/16 12:15:31  5-MIN KAQV 291815Z AUTO 10SM CLR 31/19 A2975 530 51 2500 M /M RMK AO2 T03060194
03949KAQV AQV20160429122013004/29/16 12:20:31  5-MIN KAQV 291820Z AUTO 18008G16KT 150V220 10SM CLR 31/19 A2975 530 51 2500 180/08G16 150V220 RMK AO2 T03060194
03949KAQV AQV20160429122513004/29/16 12:25:31  5-MIN KAQV 291825Z AUTO 17011G18KT 150V210 10SM CLR 31/19 A2975 530 49 2500 170/11G18 150V210 RMK AO2 T03060189
03949KAQV AQV20160429123013204/29/16 12:30:31  5-MIN KAQV 291830Z AUTO 18015G26KT 10SM CLR 30/19 A2975 530 51 2400 180/15G26 RMK AO2 PK WND 19026/1829 T03000189
03949KAQV AQV20160429123513204/29/16 12:35:31  5-MIN KAQV 291835Z AUTO 18011G27KT 10SM CLR 30/19 A2975 540 51 2400 180/11G27 RMK AO2 PK WND 19027/1834 T03000189
03949KAQV AQV20160429124013204/29/16 12:40:31  5-MIN KAQV 291840Z AUTO 18010G27KT 10SM CLR 31/19 A2975 540 49 2500 170/10G27 RMK AO2 PK WND 19027/1834 T03060189
03949KAQV AQV20160429124513204/29/16 12:45:31  5-MIN KAQV 291845Z AUTO 19013G21KT 10SM CLR 31/19 A2975 540 51 2500 180/13G21 RMK AO2 PK WND 19027/1834 T03060194
03949KAQV AQV20160429125015504/29/16 12:50:31  5-MIN KAQV 291850Z AUTO 18012G24KT 150V230 10SM CLR 30/19 A2975 540 51 2400 180/12G24 150V230 RMK AO2 PK WND 19027/1834 SLP069 T03000189
03949KAQV AQV20160429125515504/29/16 12:55:31  5-MIN KAQV 291855Z AUTO 18008G24KT 140V230 10SM CLR 30/19 A2975 540 52 2400 170/08G24 140V230 RMK AO2 PK WND 19027/1834 SLP069 T03000194
03949KAQV AQV20160429130011404/29/16 13:00:31  5-MIN KAQV 291900Z AUTO 17010G20KT 10SM CLR 31/19 A2975 540 51 2500 170/10G20 RMK AO2 T03060194
03949KAQV AQV20160429130511704/29/16 13:05:31  5-MIN KAQV 291905Z AUTO 17009G19KT 10SM FEW042 31/19 A2974 540 51 2500 160/09G19 RMK AO2 T03060194
03949KAQV AQV20160429131013004/29/16 13:10:31  5-MIN KAQV 291910Z AUTO 17011G20KT 140V200 10SM CLR 31/19 A2975 540 51 2500 170/11G20 140V200 RMK AO2 T03060194
03949KAQV AQV20160429131511404/29/16 13:15:31  5-MIN KAQV 291915Z AUTO 18013G21KT 10SM CLR 30/19 A2975 540 52 2400 180/13G21 RMK AO2 T03000194
03949KAQV AQV20160429132011404/29/16 13:20:31  5-MIN KAQV 291920Z AUTO 17012G21KT 10SM CLR 30/19 A2975 540 51 2400 170/12G21 RMK AO2 T03000189
03949KAQV AQV20160429132513304/29/16 13:25:31  5-MIN KAQV 291925Z AUTO 17009G21KT 140V210 10SM FEW041 30/19 A2974 540 51 2400 160/09G21 140V210 RMK AO2 T03000189
03949KAQV AQV20160429133011404/29/16 13:30:31  5-MIN KAQV 291930Z AUTO 16010G20KT 10SM CLR 31/19 A2974 540 49 2500 150/10G20 RMK AO2 T03060189
03949KAQV AQV20160429133511404/29/16 13:35:31  5-MIN KAQV 291935Z AUTO 17013G21KT 10SM CLR 31/19 A2974 540 49 2500 170/13G21 RMK AO2 T03060189
03949KAQV AQV20160429134013004/29/16 13:40:31  5-MIN KAQV 291940Z AUTO 18011G21KT 160V220 10SM CLR 31/19 A2974 540 51 2500 180/11G21 160V220 RMK AO2 T03060194
03949KAQV AQV20160429134511704/29/16 13:45:31  5-MIN KAQV 291945Z AUTO 16009G20KT 10SM FEW043 30/19 A2975 540 52 2400 160/09G20 RMK AO2 T03000194
03949KAQV AQV20160429135014004/29/16 13:50:31  5-MIN KAQV 291950Z AUTO 17010G20KT 120V200 10SM FEW043 30/19 A2974 540 51 2400 170/10G20 120V200 RMK AO2 SLP068 T03000189
03949KAQV AQV20160429135512404/29/16 13:55:31  5-MIN KAQV 291955Z AUTO 18011G20KT 10SM FEW043 29/18 A2975 540 50 2400 170/11G20 RMK AO2 SLP069 T02940183
03949KAQV AQV20160429140011704/29/16 14:00:31  5-MIN KAQV 292000Z AUTO 19011G19KT 10SM FEW043 29/19 A2974 540 52 2400 190/11G19 RMK AO2 T02940189
03949KAQV AQV20160429140511704/29/16 14:05:31  5-MIN KAQV 292005Z AUTO 17010G19KT 10SM FEW043 29/19 A2974 540 52 2400 170/10G19 RMK AO2 T02940189
03949KAQV AQV20160429141013304/29/16 14:10:31  5-MIN KAQV 292010Z AUTO 16010G20KT 120V190 10SM FEW042 29/19 A2974 540 52 2400 150/10G20 120V190 RMK AO2 T02940189
03949KAQV AQV20160429141513304/29/16 14:15:31  5-MIN KAQV 292015Z AUTO 15010G20KT 120V180 10SM FEW042 29/19 A2974 540 52 2400 150/10G20 120V180 RMK AO2 T02940189
03949KAQV AQV20160429142013304/29/16 14:20:31  5-MIN KAQV 292020Z AUTO 16008G16KT 130V200 10SM FEW042 29/19 A2974 540 54 2300 160/08G16 130V200 RMK AO2 T02890189
03949KAQV AQV20160429142511704/29/16 14:25:31  5-MIN KAQV 292025Z AUTO 16008G16KT 10SM FEW042 29/19 A2974 550 56 2300 160/08G16 RMK AO2 T02890194
03949KAQV AQV20160429143011704/29/16 14:30:31  5-MIN KAQV 292030Z AUTO 17007G17KT 10SM FEW042 29/19 A2974 550 56 2300 160/07G17 RMK AO2 T02890194
03949KAQV AQV20160429143513304/29/16 14:35:31  5-MIN KAQV 292035Z AUTO 17008G17KT 130V200 10SM FEW042 29/19 A2974 550 56 2300 170/08G17 130V200 RMK AO2 T02890194
03949KAQV AQV20160429144013304/29/16 14:40:31  5-MIN KAQV 292040Z AUTO 17009G17KT 130V200 10SM FEW042 28/19 A2974 540 58 2200 160/09G17 130V200 RMK AO2 T02830194
03949KAQV AQV20160429144511704/29/16 14:45:31  5-MIN KAQV 292045Z AUTO VRB06G19KT 10SM FEW041 28/19 A2974 540 58 2200 VRB/06G19 RMK AO2 T02830194
03949KAQV AQV20160429145014604/29/16 14:50:31  5-MIN KAQV 292050Z AUTO 17010G19KT 130V200 10SM FEW041 29/19 A2974 540 56 2300 160/10G19 130V200 RMK AO2 SLP067 T02890194 58018
03949KAQV AQV20160429145513004/29/16 14:55:31  5-MIN KAQV 292055Z AUTO 17011G16KT 10SM SCT041 28/20 A2974 550 60 2200 160/11G16 RMK AO2 SLP066 T02830200 58018
03949KAQV AQV20160429150011704/29/16 15:00:31  5-MIN KAQV 292100Z AUTO 18009G16KT 10SM FEW041 28/20 A2974 540 60 2200 180/09G16 RMK AO2 T02830200
03949KAQV AQV20160429150511704/29/16 15:05:31  5-MIN KAQV 292105Z AUTO 17006G17KT 10SM SCT041 28/20 A2973 550 60 2200 160/06G17 RMK AO2 T02830200
03949KAQV AQV20160429151011704/29/16 15:10:31  5-MIN KAQV 292110Z AUTO 18007G17KT 10SM SCT041 28/20 A2973 550 60 2200 170/07G17 RMK AO2 T02830200
03949KAQV AQV20160429151513304/29/16 15:15:31  5-MIN KAQV 292115Z AUTO 18009G17KT 140V210 10SM SCT041 28/20 A2973 550 62 2200 170/09G17 140V210 RMK AO2 T02780200
03949KAQV AQV20160429152013304/29/16 15:20:31  5-MIN KAQV 292120Z AUTO 17008G17KT 140V200 10SM BKN041 28/20 A2973 550 62 2200 170/08G17 140V200 RMK AO2 T02780200
03949KAQV AQV20160429152511104/29/16 15:25:31  5-MIN KAQV 292125Z AUTO VRB06KT 10SM BKN041 28/21 A2973 560 64 2200 VRB/06 RMK AO2 T02780206
03949KAQV AQV20160429153012704/29/16 15:30:31  5-MIN KAQV 292130Z AUTO 16008KT 120V180 10SM BKN041 28/21 A2972 560 64 2200 160/08 120V180 RMK AO2 T02780206
03949KAQV AQV20160429153511704/29/16 15:35:31  5-MIN KAQV 292135Z AUTO 17010G16KT 10SM SCT041 28/21 A2972 560 64 2200 160/10G16 RMK AO2 T02780206
03949KAQV AQV20160429154011704/29/16 15:40:31  5-MIN KAQV 292140Z AUTO 16009G16KT 10SM SCT041 27/21 A2972 560 66 2100 160/09G16 RMK AO2 T02720206
03949KAQV AQV20160429154511704/29/16 15:45:31  5-MIN KAQV 292145Z AUTO VRB06G15KT 10SM SCT043 27/21 A2972 560 66 2100 VRB/06G15 RMK AO2 T02720206
03949KAQV AQV20160429155013404/29/16 15:50:31  5-MIN KAQV 292150Z AUTO 16007KT 120V190 10SM FEW043 27/21 A2972 570 66 2100 150/07 120V190 RMK AO2 SLP058 T02720206
03949KAQV AQV20160429155512504/29/16 15:55:31  5-MIN KAQV 292155Z AUTO 16006KT 10SM FEW037 FEW043 27/21 A2972 570 66 2100 160/06 RMK AO2 SLP059 T02720206
03949KAQV AQV20160429160011104/29/16 16:00:31  5-MIN KAQV 292200Z AUTO 16010KT 10SM FEW045 27/21 A2972 560 66 2100 160/10 RMK AO2 T02720206
03949KAQV AQV20160429160511104/29/16 16:05:31  5-MIN KAQV 292205Z AUTO VRB05KT 10SM FEW042 27/20 A2972 570 64 2100 VRB/05 RMK AO2 T02720200
03949KAQV AQV20160429161011704/29/16 16:10:31  5-MIN KAQV 292210Z AUTO 16009G14KT 10SM FEW042 27/20 A2972 560 64 2100 160/09G14 RMK AO2 T02720200
03949KAQV AQV20160429161511104/29/16 16:15:31  5-MIN KAQV 292215Z AUTO 16009KT 10SM FEW040 27/20 A2971 570 64 2100 160/09 RMK AO2 T02720200
03949KAQV AQV20160429162011104/29/16 16:20:31  5-MIN KAQV 292220Z AUTO VRB05KT 10SM FEW040 26/20 A2972 570 71 2000 VRB/05 RMK AO2 T02560200
03949KAQV AQV20160429162511704/29/16 16:25:31  5-MIN KAQV 292225Z AUTO 16011G16KT 10SM FEW040 23/20 A2971 570 81 1700 160/11G16 RMK AO2 T02330200
03949KAQV AQV20160429163013304/29/16 16:30:31  5-MIN KAQV 292230Z AUTO 16008G16KT 120V190 10SM FEW036 27/20 A2972 570 66 2100 150/08G16 120V190 RMK AO2 T02670200
03949KAQV AQV20160429163513304/29/16 16:35:31  5-MIN KAQV 292235Z AUTO 16008G16KT 130V190 10SM FEW034 27/20 A2971 570 66 2100 160/08G16 130V190 RMK AO2 T02670200
03949KAQV AQV20160429164012704/29/16 16:40:31  5-MIN KAQV 292240Z AUTO 16008KT 120V190 10SM FEW034 27/21 A2971 570 69 2100 150/08 120V190 RMK AO2 T02670206
03949KAQV AQV20160429164512704/29/16 16:45:31  5-MIN KAQV 292245Z AUTO 16007KT 100V180 10SM FEW034 27/21 A2971 570 69 2100 150/07 100V180 RMK AO2 T02670206
03949KAQV AQV20160429165013704/29/16 16:50:31  5-MIN KAQV 292250Z AUTO 16007G14KT 110V210 10SM CLR 27/21 A2971 570 69 2100 160/07G14 110V210 RMK AO2 SLP057 T02670206
03949KAQV AQV20160429165512104/29/16 16:55:31  5-MIN KAQV 292255Z AUTO 15009G15KT 10SM CLR 27/21 A2971 570 69 2100 150/09G15 RMK AO2 SLP057 T02670206
03949KAQV AQV20160429170011704/29/16 17:00:31  5-MIN KAQV 292300Z AUTO 15005G15KT 10SM FEW030 27/21 A2971 570 69 2100 150/05G15 RMK AO2 T02670206
03949KAQV AQV20160429170511104/29/16 17:05:31  5-MIN KAQV 292305Z AUTO VRB04KT 10SM FEW030 27/21 A2971 570 69 2100 VRB/04 RMK AO2 T02670206
03949KAQV AQV20160429171010104/29/16 17:10:31  5-MIN KAQV 292310Z AUTO 10SM FEW030 27/21 A2971 570 71 2100 M /M RMK AO2 T02670211
03949KAQV AQV20160429171511804/29/16 17:15:31  5-MIN KAQV 292315Z AUTO VRB04KT 10SM SCT030 SCT049 26/21 A2971 570 73 2000 VRB/04 RMK AO2 T02610211
03949KAQV AQV20160429172012504/29/16 17:20:31  5-MIN KAQV 292320Z AUTO VRB06KT 10SM SCT029 SCT036 BKN049 27/21 A2971 570 71 2100 VRB/06 RMK AO2 T02670211
03949KAQV AQV20160429172511804/29/16 17:25:31  5-MIN KAQV 292325Z AUTO 17006KT 10SM SCT029 BKN038 27/21 A2971 570 71 2100 160/06 RMK AO2 T02670211
03949KAQV AQV20160429173012504/29/16 17:30:31  5-MIN KAQV 292330Z AUTO 16007KT 10SM SCT030 BKN038 BKN047 26/21 A2971 570 73 2000 160/07 RMK AO2 T02610211
03949KAQV AQV20160429173513104/29/16 17:35:31  5-MIN KAQV 292335Z AUTO 16006G18KT 10SM FEW030 BKN038 BKN047 27/21 A2971 570 71 2100 160/06G18 RMK AO2 T02670211
03949KAQV AQV20160429174014704/29/16 17:40:31  5-MIN KAQV 292340Z AUTO 16007G18KT 110V190 10SM FEW030 BKN040 BKN049 27/21 A2971 570 71 2100 150/07G18 110V190 RMK AO2 T02670211
03949KAQV AQV20160429174514104/29/16 17:45:31  5-MIN KAQV 292345Z AUTO 16007KT 120V210 10SM FEW030 BKN041 BKN050 27/21 A2971 570 71 2100 150/07 120V210 RMK AO2 T02670211
03949KAQV AQV20160429175015604/29/16 17:50:31  5-MIN KAQV 292350Z AUTO 17007G16KT 10SM SCT032 BKN043 BKN050 27/21 A2970 580 69 2100 160/07G16 RMK AO2 SLP055 T02670206 10306 20228 56007
03949KAQV AQV20160429175515604/29/16 17:55:31  5-MIN KAQV 292355Z AUTO VRB06G16KT 10SM FEW028 BKN038 BKN047 26/21 A2971 570 71 2000 VRB/06G16 RMK AO2 SLP057 T02610206 10306 20228 56007
03949KAQV AQV20160429180014104/29/16 18:00:31  5-MIN KAQV 300000Z AUTO 16007KT 120V180 10SM FEW027 BKN042 OVC049 26/21 A2971 570 73 2000 160/07 120V180 RMK AO2 T02610211
03949KAQV AQV20160429180514104/29/16 18:05:31  5-MIN KAQV 300005Z AUTO 16008KT 130V220 10SM BKN029 BKN037 OVC047 26/21 A2972 560 73 2000 160/08 130V220 RMK AO2 T02610211
03949KAQV AQV20160429181012504/29/16 18:10:31  5-MIN KAQV 300010Z AUTO 16007KT 10SM SCT027 BKN032 BKN042 26/21 A2972 560 73 2000 160/07 RMK AO2 T02610211
03949KAQV AQV20160429181512504/29/16 18:15:31  5-MIN KAQV 300015Z AUTO VRB05KT 10SM SCT027 BKN035 BKN049 26/21 A2971 570 73 2000 VRB/05 RMK AO2 T02610211
03949KAQV AQV20160429182012504/29/16 18:20:31  5-MIN KAQV 300020Z AUTO 17008KT 10SM SCT027 BKN035 BKN049 26/21 A2972 560 73 2000 170/08 RMK AO2 T02610211
03949KAQV AQV20160429182513104/29/16 18:25:31  5-MIN KAQV 300025Z AUTO 17009G19KT 10SM SCT027 SCT033 BKN050 26/21 A2972 560 71 2000 160/09G19 RMK AO2 T02610206
03949KAQV AQV20160429183014704/29/16 18:30:31  5-MIN KAQV 300030Z AUTO 16009G19KT 120V180 10SM FEW027 SCT033 BKN050 26/21 A2972 560 73 2000 150/09G19 120V180 RMK AO2 T02560206
03949KAQV AQV20160429183511804/29/16 18:35:31  5-MIN KAQV 300035Z AUTO 16005KT 10SM SCT029 BKN050 26/21 A2972 560 76 1900 150/05 RMK AO2 T02560211
03949KAQV AQV20160429184012404/29/16 18:40:31  5-MIN KAQV 300040Z AUTO 15008G17KT 10SM SCT029 BKN050 26/21 A2972 560 76 2000 150/08G17 RMK AO2 T02560211
03949KAQV AQV20160429184513104/29/16 18:45:31  5-MIN KAQV 300045Z AUTO VRB06G17KT 10SM BKN027 BKN036 OVC050 26/21 A2971 570 73 2000 VRB/06G17 RMK AO2 T02560206
03949KAQV AQV20160429185013804/29/16 18:50:31  5-MIN KAQV 300050Z AUTO 17007G15KT 10SM SCT027 BKN036 OVC050 26/21 A2972 570 73 2000 160/07G15 RMK AO2 SLP059 T02560206
03949KAQV AQV20160429185513804/29/16 18:55:31  5-MIN KAQV 300055Z AUTO 16009G18KT 10SM FEW027 BKN033 BKN050 26/21 A2972 560 73 2000 160/09G18 RMK AO2 SLP060 T02560206
03949KAQV AQV20160429190014704/29/16 19:00:31  5-MIN KAQV 300100Z AUTO 15008G18KT 090V180 10SM FEW027 BKN033 OVC050 26/21 A2972 560 73 2000 150/08G18 090V180 RMK AO2 T02560206
03949KAQV AQV20160429190514704/29/16 19:05:31  5-MIN KAQV 300105Z AUTO 16007G16KT 120V190 10SM FEW027 BKN032 OVC050 26/20 A2972 560 71 2000 160/07G16 120V190 RMK AO2 T02560200
03949KAQV AQV20160429191014704/29/16 19:10:31  5-MIN KAQV 300110Z AUTO 15007G14KT 080V190 10SM FEW026 BKN032 OVC050 26/20 A2972 570 71 2000 150/07G14 080V190 RMK AO2 T02560200
03949KAQV AQV20160429191513104/29/16 19:15:31  5-MIN KAQV 300115Z AUTO 15009G16KT 10SM SCT029 BKN036 OVC049 26/21 A2971 570 73 2000 150/09G16 RMK AO2 T02560206
03949KAQV AQV20160429192013104/29/16 19:20:31  5-MIN KAQV 300120Z AUTO VRB06G16KT 10SM SCT029 BKN036 OVC049 26/21 A2972 560 73 2000 VRB/06G16 RMK AO2 T02560206
03949KAQV AQV20160429192514104/29/16 19:25:31  5-MIN KAQV 300125Z AUTO 17008KT 130V200 10SM SCT029 BKN036 OVC049 25/21 A2972 570 76 1900 160/08 130V200 RMK AO2 T02500206
03949KAQV AQV20160429193013104/29/16 19:30:31  5-MIN KAQV 300130Z AUTO 17009G16KT 10SM FEW029 SCT033 BKN045 25/20 A2972 560 73 1900 160/09G16 RMK AO2 T02500200
03949KAQV AQV20160429193514704/29/16 19:35:31  5-MIN KAQV 300135Z AUTO 16007G17KT 130V200 10SM FEW027 SCT034 BKN045 25/19 A2973 550 71 1900 160/07G17 130V200 RMK AO2 T02500194
03949KAQV AQV20160429194013104/29/16 19:40:31  5-MIN KAQV 300140Z AUTO 17011G19KT 10SM FEW034 BKN043 BKN050 25/19 A2973 550 71 1900 170/11G19 RMK AO2 T02500194
03949KAQV AQV20160429194514004/29/16 19:45:31  5-MIN KAQV 300145Z AUTO 17009G19KT 130V190 10SM FEW034 BKN045 25/19 A2973 550 71 1900 160/09G19 130V190 RMK AO2 T02500194
03949KAQV AQV20160429195013104/29/16 19:50:31  5-MIN KAQV 300150Z AUTO 17011G18KT 10SM BKN042 BKN050 25/19 A2974 550 71 1900 170/11G18 RMK AO2 SLP066 T02500194
03949KAQV AQV20160429195512404/29/16 19:55:31  5-MIN KAQV 300155Z AUTO 16009G18KT 10SM BKN042 25/20 A2973 550 73 1900 160/09G18 RMK AO2 SLP065 T02500200
03949KAQV AQV20160429200013304/29/16 20:00:31  5-MIN KAQV 300200Z AUTO 16008G17KT 120V180 10SM BKN043 25/20 A2973 550 73 1900 150/08G17 120V180 RMK AO2 T02500200
03949KAQV AQV20160429200511104/29/16 20:05:31  5-MIN KAQV 300205Z AUTO 16009KT 10SM BKN043 25/20 A2973 550 73 1900 160/09 RMK AO2 T02500200
03949KAQV AQV20160429201013304/29/16 20:10:31  5-MIN KAQV 300210Z AUTO 16009G15KT 130V200 10SM BKN043 24/20 A2973 550 76 1800 150/09G15 130V200 RMK AO2 T02440200
03949KAQV AQV20160429201513304/29/16 20:15:31  5-MIN KAQV 300215Z AUTO 16009G16KT 130V200 10SM SCT043 24/20 A2973 550 76 1800 160/09G16 130V200 RMK AO2 T02440200
03949KAQV AQV20160429202013304/29/16 20:20:31  5-MIN KAQV 300220Z AUTO 16008G16KT 120V180 10SM FEW043 24/20 A2972 560 76 1800 160/08G16 120V180 RMK AO2 T02440200
03949KAQV AQV20160429202511704/29/16 20:25:31  5-MIN KAQV 300225Z AUTO 16010G16KT 10SM FEW043 24/20 A2973 560 76 1800 160/10G16 RMK AO2 T02440200
03949KAQV AQV20160429203013304/29/16 20:30:31  5-MIN KAQV 300230Z AUTO 16010G18KT 130V200 10SM FEW043 24/20 A2972 560 76 1800 160/10G18 130V200 RMK AO2 T02440200
03949KAQV AQV20160429203511704/29/16 20:35:31  5-MIN KAQV 300235Z AUTO 16008G18KT 10SM FEW042 24/20 A2972 560 76 1800 160/08G18 RMK AO2 T02440200
03949KAQV AQV20160429204011404/29/16 20:40:31  5-MIN KAQV 300240Z AUTO 17008G15KT 10SM CLR 24/20 A2972 560 76 1800 160/08G15 RMK AO2 T02440200
03949KAQV AQV20160429204511404/29/16 20:45:31  5-MIN KAQV 300245Z AUTO 16008G17KT 10SM CLR 24/20 A2972 560 76 1800 160/08G17 RMK AO2 T02440200
03949KAQV AQV20160429205014304/29/16 20:50:31  5-MIN KAQV 300250Z AUTO 16008G17KT 120V200 10SM CLR 24/21 A2972 560 78 1800 150/08G17 120V200 RMK AO2 SLP059 T02440206 56010
03949KAQV AQV20160429205512704/29/16 20:55:31  5-MIN KAQV 300255Z AUTO 17009G17KT 10SM CLR 24/21 A2972 560 78 1800 170/09G17 RMK AO2 SLP059 T02440206 56010
03949KAQV AQV20160429210013004/29/16 21:00:31  5-MIN KAQV 300300Z AUTO 17008G15KT 120V210 10SM CLR 24/21 A2972 560 78 1800 160/08G15 120V210 RMK AO2 T02440206
03949KAQV AQV20160429210513304/29/16 21:05:31  5-MIN KAQV 300305Z AUTO 17010G17KT 130V200 10SM FEW021 24/21 A2972 560 78 1800 170/10G17 130V200 RMK AO2 T02440206
03949KAQV AQV20160429211014004/29/16 21:10:31  5-MIN KAQV 300310Z AUTO 17009G17KT 130V190 10SM FEW021 FEW027 24/21 A2972 560 78 1800 160/09G17 130V190 RMK AO2 T02440206
03949KAQV AQV20160429211511704/29/16 21:15:31  5-MIN KAQV 300315Z AUTO 18010G18KT 10SM SCT021 24/21 A2972 570 78 1800 170/10G18 RMK AO2 T02440206
03949KAQV AQV20160429212013304/29/16 21:20:31  5-MIN KAQV 300320Z AUTO 16011G18KT 110V180 10SM SCT023 24/21 A2972 570 78 1800 150/11G18 110V180 RMK AO2 T02440206
03949KAQV AQV20160429212511704/29/16 21:25:31  5-MIN KAQV 300325Z AUTO 17008G18KT 10SM BKN023 24/21 A2971 570 78 1800 170/08G18 RMK AO2 T02440206
03949KAQV AQV20160429213012404/29/16 21:30:31  5-MIN KAQV 300330Z AUTO 17008G17KT 10SM BKN021 BKN030 24/21 A2971 570 78 1800 160/08G17 RMK AO2 T02440206
03949KAQV AQV20160429213512404/29/16 21:35:31  5-MIN KAQV 300335Z AUTO 17009G17KT 10SM BKN023 BKN033 24/21 A2971 570 81 1800 170/09G17 RMK AO2 T02390206
03949KAQV AQV20160429214013404/29/16 21:40:31  5-MIN KAQV 300340Z AUTO 17008KT 120V200 10SM BKN023 BKN033 24/21 A2971 570 81 1800 160/08 120V200 RMK AO2 T02390206
03949KAQV AQV20160429214512404/29/16 21:45:31  5-MIN KAQV 300345Z AUTO 16009G15KT 10SM SCT023 BKN031 24/21 A2971 570 81 1800 160/09G15 RMK AO2 T02390206
03949KAQV AQV20160429215012304/29/16 21:50:31  5-MIN KAQV 300350Z AUTO 17008G15KT 120V190 10SM SCT023 24/21 A2971 570 78 1800 160/08G15 120V190 RMK AO2
03949KAQV AQV20160429215512404/29/16 21:55:31  5-MIN KAQV 300355Z AUTO 17010G17KT 10SM FEW023 24/21 A2971 570 78 1800 170/10G17 RMK AO2 SLP057 T02440206
03949KAQV AQV20160429220011704/29/16 22:00:31  5-MIN KAQV 300400Z AUTO 18007G17KT 10SM SCT023 24/21 A2971 570 78 1800 170/07G17 RMK AO2 T02440206
03949KAQV AQV20160429220511704/29/16 22:05:31  5-MIN KAQV 300405Z AUTO 17010G16KT 10SM FEW023 24/21 A2971 570 81 1800 160/10G16 RMK AO2 T02390206
03949KAQV AQV20160429221011704/29/16 22:10:31  5-MIN KAQV 300410Z AUTO 16010G19KT 10SM SCT023 24/21 A2971 570 78 1800 150/10G19 RMK AO2 T02440206
03949KAQV AQV20160429221513304/29/16 22:15:31  5-MIN KAQV 300415Z AUTO 17008G19KT 140V210 10SM BKN021 24/21 A2971 570 78 1800 170/08G19 140V210 RMK AO2 T02440206
03949KAQV AQV20160429222013304/29/16 22:20:31  5-MIN KAQV 300420Z AUTO 17007G17KT 130V210 10SM BKN021 24/21 A2970 580 78 1800 170/07G17 130V210 RMK AO2 T02440206
03949KAQV AQV20160429222510104/29/16 22:25:31  5-MIN KAQV 300425Z AUTO 10SM BKN021 24/21 A2970 580 81 1800 M /M RMK AO2 T02390206
03949KAQV AQV20160429223014004/29/16 22:30:31  5-MIN KAQV 300430Z AUTO 17007G20KT 150V210 10SM BKN021 BKN027 24/21 A2970 580 78 1800 170/07G20 150V210 RMK AO2 T02440206
03949KAQV AQV20160429223512404/29/16 22:35:31  5-MIN KAQV 300435Z AUTO 17008G18KT 10SM BKN021 BKN029 24/21 A2970 580 78 1800 160/08G18 RMK AO2 T02440206
03949KAQV AQV20160429224014704/29/16 22:40:31  5-MIN KAQV 300440Z AUTO 17011G18KT 120V190 10SM BKN021 BKN028 BKN033 24/21 A2970 580 78 1800 160/11G18 120V190 RMK AO2 T02440206
03949KAQV AQV20160429224513104/29/16 22:45:31  5-MIN KAQV 300445Z AUTO 17012G18KT 10SM BKN021 BKN028 BKN033 24/21 A2970 580 78 1900 160/12G18 RMK AO2 T02440206
03949KAQV AQV20160429225015404/29/16 22:50:31  5-MIN KAQV 300450Z AUTO 16008G18KT 110V180 10SM BKN023 BKN028 OVC035 24/21 A2969 590 78 1900 150/08G18 110V180 RMK AO2 SLP051 T02440206
03949KAQV AQV20160429225515404/29/16 22:55:31  5-MIN KAQV 300455Z AUTO 16007G19KT 140V200 10SM SCT021 BKN026 OVC035 24/21 A2968 600 78 1900 160/07G19 140V200 RMK AO2 SLP048 T02440206
03949KAQV AQV20160429230013104/29/16 23:00:31  5-MIN KAQV 300500Z AUTO VRB06G19KT 10SM SCT021 BKN026 OVC035 24/21 A2968 600 78 1900 VRB/06G19 RMK AO2 T02440206
03949KAQV AQV20160429230513104/29/16 23:05:31  5-MIN KAQV 300505Z AUTO 16013G21KT 10SM BKN023 BKN028 OVC035 24/21 A2968 600 78 1900 160/13G21 RMK AO2 T02440206
03949KAQV AQV20160429231013104/29/16 23:10:31  5-MIN KAQV 300510Z AUTO 17012G21KT 10SM BKN023 BKN028 OVC035 24/20 A2969 590 76 1900 170/12G21 RMK AO2 T02440200
03949KAQV AQV20160429231512404/29/16 23:15:31  5-MIN KAQV 300515Z AUTO 17007G21KT 10SM BKN023 OVC033 24/20 A2969 590 78 1800 170/07G21 RMK AO2 T02390200
03949KAQV AQV20160429232014704/29/16 23:20:31  5-MIN KAQV 300520Z AUTO 17009G18KT 130V210 10SM SCT021 BKN027 OVC035 24/21 A2969 590 81 1800 170/09G18 130V210 RMK AO2 T02390206
03949KAQV AQV20160429232514704/29/16 23:25:31  5-MIN KAQV 300525Z AUTO 16008G15KT 120V190 10SM SCT021 BKN026 OVC033 24/20 A2968 600 78 1800 160/08G15 120V190 RMK AO2 T02390200
03949KAQV AQV20160429233014704/29/16 23:30:31  5-MIN KAQV 300530Z AUTO 16008G15KT 130V190 10SM SCT021 BKN028 OVC039 24/20 A2968 600 78 1800 160/08G15 130V190 RMK AO2 T02390200
03949KAQV AQV20160429233512504/29/16 23:35:31  5-MIN KAQV 300535Z AUTO 17007KT 10SM SCT021 BKN028 OVC037 24/20 A2967 600 78 1800 160/07 RMK AO2 T02390200
03949KAQV AQV20160429234013104/29/16 23:40:31  5-MIN KAQV 300540Z AUTO 17010G18KT 10SM SCT022 BKN028 OVC034 24/20 A2968 600 78 1800 170/10G18 RMK AO2 T02390200
03949KAQV AQV20160429234513104/29/16 23:45:31  5-MIN KAQV 300545Z AUTO 17008G18KT 10SM BKN022 BKN029 OVC037 24/20 A2968 600 78 1800 160/08G18 RMK AO2 T02390200
03949KAQV AQV20160429235018204/29/16 23:50:31  5-MIN KAQV 300550Z AUTO 18011G18KT 140V210 10SM SCT022 BKN028 OVC036 24/20 A2969 590 78 1800 180/11G18 140V210 RMK AO2 SLP049 T02390200 10261 20239 403060228 50003
03949KAQV AQV20160429235515904/29/16 23:55:31  5-MIN KAQV 300555Z AUTO 17008G18KT 10SM BKN024 OVC034 24/20 A2969 590 78 1800 160/08G18 RMK AO2 SLP050 T02390200 10261 20239 403060228 50003
03949KAQV AQV20160430000014704/30/16 00:00:31  5-MIN KAQV 300600Z AUTO 16009G17KT 130V200 10SM BKN022 BKN029 OVC034 24/20 A2969 590 78 1800 150/09G17 130V200 RMK AO2 T02390200
03949KAQV AQV20160430000513104/30/16 00:05:31  5-MIN KAQV 300605Z AUTO 17011G18KT 10SM BKN022 BKN030 OVC036 24/20 A2969 590 78 1800 160/11G18 RMK AO2 T02390200
