93073KASE ASE20160601000010406/01/16 00:00:31  5-MIN KASE 010700Z 21007KT 10SM CLR 07/00 A3018 7600 62 8400 200/07 RMK AO2 T00670000
93073KASE ASE20160601000510406/01/16 00:05:31  5-MIN KASE 010705Z 21007KT 10SM CLR 06/00 A3018 7600 65 8400 200/07 RMK AO2 T00610000
93073KASE ASE20160601001010406/01/16 00:10:31  5-MIN KASE 010710Z 21008KT 10SM CLR 06/00 A3019 7600 67 8300 210/08 RMK AO2 T00560000
93073KASE ASE20160601001510406/01/16 00:15:31  5-MIN KASE 010715Z 21007KT 10SM CLR 06/00 A3018 7600 67 8300 210/07 RMK AO2 T00560000
93073KASE ASE20160601002010406/01/16 00:20:31  5-MIN KASE 010720Z 21007KT 10SM CLR 06/00 A3018 7600 67 8300 200/07 RMK AO2 T00560000
93073KASE ASE20160601002510406/01/16 00:25:31  5-MIN KASE 010725Z 20007KT 10SM CLR 06/00 A3018 7600 67 8300 190/07 RMK AO2 T00560000
93073KASE ASE20160601003010406/01/16 00:30:31  5-MIN KASE 010730Z 21007KT 10SM CLR 06/00 A3018 7600 67 8300 200/07 RMK AO2 T00560000
93073KASE ASE20160601003510406/01/16 00:35:31  5-MIN KASE 010735Z 21008KT 10SM CLR 06/00 A3018 7600 65 8400 200/08 RMK AO2 T00610000
93073KASE ASE20160601004010506/01/16 00:40:31  5-MIN KASE 010740Z 19006KT 10SM CLR 07/M01 A3018 7600 60 8400 180/06 RMK AO2 T00671006
93073KASE ASE20160601004510506/01/16 00:45:31  5-MIN KASE 010745Z 20005KT 10SM CLR 05/M01 A3018 7600 67 8200 190/05 RMK AO2 T00501006
93073KASE ASE20160601005011206/01/16 00:50:31  5-MIN KASE 010750Z 20006KT 10SM CLR 05/M01 A3018 7600 67 8200 190/06 RMK AO2 SLP126 T00501006
93073KASE ASE20160601005510506/01/16 00:55:31  5-MIN KASE 010755Z 21008KT 10SM CLR 05/M01 A3018 7600 67 8200 200/08 RMK AO2 T00501006
93073KASE ASE20160601010010506/01/16 01:00:31  5-MIN KASE 010800Z 21007KT 10SM CLR 06/M01 A3018 7600 65 8300 200/07 RMK AO2 T00561006
93073KASE ASE20160601010510506/01/16 01:05:31  5-MIN KASE 010805Z 22007KT 10SM CLR 06/M01 A3018 7610 65 8300 210/07 RMK AO2 T00561006
93073KASE ASE20160601011010506/01/16 01:10:31  5-MIN KASE 010810Z 21005KT 10SM CLR 06/M01 A3018 7610 65 8300 200/05 RMK AO2 T00561006
93073KASE ASE20160601011510506/01/16 01:15:31  5-MIN KASE 010815Z 19004KT 10SM CLR 05/M01 A3018 7600 67 8200 180/04 RMK AO2 T00501006
93073KASE ASE20160601012010506/01/16 01:20:31  5-MIN KASE 010820Z 21007KT 10SM CLR 05/M01 A3018 7600 67 8200 210/07 RMK AO2 T00501006
93073KASE ASE20160601012510506/01/16 01:25:31  5-MIN KASE 010825Z 21006KT 10SM CLR 06/M01 A3018 7600 65 8300 200/06 RMK AO2 T00561006
93073KASE ASE20160601013010506/01/16 01:30:31  5-MIN KASE 010830Z 20005KT 10SM CLR 06/M01 A3018 7600 65 8300 200/05 RMK AO2 T00561006
93073KASE ASE20160601013510506/01/16 01:35:31  5-MIN KASE 010835Z 21005KT 10SM CLR 05/M01 A3018 7600 67 8200 200/05 RMK AO2 T00501006
93073KASE ASE20160601014010506/01/16 01:40:31  5-MIN KASE 010840Z 21005KT 10SM CLR 05/M01 A3018 7600 67 8200 200/05 RMK AO2 T00501006
93073KASE ASE20160601014510506/01/16 01:45:31  5-MIN KASE 010845Z 20004KT 10SM CLR 06/M01 A3018 7600 65 8300 190/04 RMK AO2 T00561006
93073KASE ASE20160601015011806/01/16 01:50:31  5-MIN KASE 010850Z 19004KT 10SM CLR 04/M01 A3018 7600 70 8200 190/04 RMK AO2 SLP132 T00441006 50004
93073KASE ASE20160601015510506/01/16 01:55:31  5-MIN KASE 010855Z 21005KT 10SM CLR 04/M01 A3018 7600 73 8100 200/05 RMK AO2 T00391006
93073KASE ASE20160601020010506/01/16 02:00:31  5-MIN KASE 010900Z 20004KT 10SM CLR 03/M01 A3018 7600 76 8000 200/04 RMK AO2 T00331006
93073KASE ASE20160601020510506/01/16 02:05:31  5-MIN KASE 010905Z 22006KT 10SM CLR 03/M01 A3019 7600 76 8000 210/06 RMK AO2 T00331006
93073KASE ASE20160601021010506/01/16 02:10:31  5-MIN KASE 010910Z 22007KT 10SM CLR 04/M01 A3019 7590 70 8200 210/07 RMK AO2 T00441006
93073KASE ASE20160601021510506/01/16 02:15:31  5-MIN KASE 010915Z 22006KT 10SM CLR 04/M01 A3019 7590 73 8100 210/06 RMK AO2 T00391006
93073KASE ASE20160601022010506/01/16 02:20:31  5-MIN KASE 010920Z 23005KT 10SM CLR 04/M01 A3019 7590 70 8200 220/05 RMK AO2 T00441006
93073KASE ASE20160601022510506/01/16 02:25:31  5-MIN KASE 010925Z 21005KT 10SM CLR 04/M01 A3019 7590 70 8200 200/05 RMK AO2 T00441006
93073KASE ASE20160601023010506/01/16 02:30:31  5-MIN KASE 010930Z 19003KT 10SM CLR 05/M01 A3019 7590 67 8200 180/03 RMK AO2 T00501006
93073KASE ASE20160601023510506/01/16 02:35:31  5-MIN KASE 010935Z 19006KT 10SM CLR 04/M01 A3019 7590 70 8200 180/06 RMK AO2 T00441006
93073KASE ASE20160601024010506/01/16 02:40:31  5-MIN KASE 010940Z VRB03KT 10SM CLR 03/M01 A3019 7590 72 8000 VRB/03 RMK AO2 T00331011
93073KASE ASE20160601024510506/01/16 02:45:31  5-MIN KASE 010945Z 21005KT 10SM CLR 03/M01 A3019 7590 72 8000 200/05 RMK AO2 T00331011
93073KASE ASE20160601025011206/01/16 02:50:31  5-MIN KASE 010950Z 21004KT 10SM CLR 03/M01 A3019 7590 76 8000 200/04 RMK AO2 SLP136 T00331006
93073KASE ASE20160601025510506/01/16 02:55:31  5-MIN KASE 010955Z 21003KT 10SM CLR 03/M01 A3019 7590 75 8000 200/03 RMK AO2 T00281011
93073KASE ASE20160601030010506/01/16 03:00:31  5-MIN KASE 011000Z 22003KT 10SM CLR 03/M01 A3019 7590 75 8000 210/03 RMK AO2 T00281011
93073KASE ASE20160601030510506/01/16 03:05:31  5-MIN KASE 011005Z 19006KT 10SM CLR 03/M01 A3019 7590 75 8000 180/06 RMK AO2 T00281011
93073KASE ASE20160601031010506/01/16 03:10:31  5-MIN KASE 011010Z 20004KT 10SM CLR 03/M01 A3019 7590 72 8000 190/04 RMK AO2 T00331011
93073KASE ASE20160601031510506/01/16 03:15:31  5-MIN KASE 011015Z 21005KT 10SM CLR 03/M01 A3019 7590 72 8000 200/05 RMK AO2 T00331011
93073KASE ASE20160601032010506/01/16 03:20:31  5-MIN KASE 011020Z 19004KT 10SM CLR 03/M01 A3020 7580 72 8000 190/04 RMK AO2 T00331011
93073KASE ASE20160601032510506/01/16 03:25:31  5-MIN KASE 011025Z 00000KT 10SM CLR 02/M01 A3020 7590 78 7900 000/00 RMK AO2 T00221011
93073KASE ASE20160601033010506/01/16 03:30:31  5-MIN KASE 011030Z 00000KT 10SM CLR 02/M01 A3020 7580 78 7900 000/00 RMK AO2 T00221011
93073KASE ASE20160601033510506/01/16 03:35:31  5-MIN KASE 011035Z VRB03KT 10SM CLR 03/M01 A3020 7580 72 8000 VRB/03 RMK AO2 T00331011
93073KASE ASE20160601034010506/01/16 03:40:31  5-MIN KASE 011040Z 20005KT 10SM CLR 03/M01 A3020 7580 72 8000 200/05 RMK AO2 T00331011
93073KASE ASE20160601034510506/01/16 03:45:31  5-MIN KASE 011045Z 21004KT 10SM CLR 03/M01 A3020 7580 72 8000 200/04 RMK AO2 T00331011
93073KASE ASE20160601035011206/01/16 03:50:31  5-MIN KASE 011050Z 20005KT 10SM CLR 03/M01 A3020 7580 76 8000 190/05 RMK AO2 SLP139 T00331006
93073KASE ASE20160601035510506/01/16 03:55:31  5-MIN KASE 011055Z 19004KT 10SM CLR 03/M01 A3020 7580 72 8000 180/04 RMK AO2 T00331011
93073KASE ASE20160601040010506/01/16 04:00:31  5-MIN KASE 011100Z 20005KT 10SM CLR 03/M01 A3020 7590 75 8000 190/05 RMK AO2 T00281011
93073KASE ASE20160601040510506/01/16 04:05:31  5-MIN KASE 011105Z 20005KT 10SM CLR 02/M01 A3020 7590 78 7900 190/05 RMK AO2 T00221011
93073KASE ASE20160601041010506/01/16 04:10:31  5-MIN KASE 011110Z 21006KT 10SM CLR 03/M01 A3020 7580 75 7900 200/06 RMK AO2 T00281011
93073KASE ASE20160601041510506/01/16 04:15:31  5-MIN KASE 011115Z 21006KT 10SM CLR 03/M01 A3020 7580 72 8000 200/06 RMK AO2 T00331011
93073KASE ASE20160601042010506/01/16 04:20:31  5-MIN KASE 011120Z 21006KT 10SM CLR 03/M01 A3020 7580 72 8000 200/06 RMK AO2 T00331011
93073KASE ASE20160601042510506/01/16 04:25:31  5-MIN KASE 011125Z 19005KT 10SM CLR 03/M01 A3020 7580 72 8000 190/05 RMK AO2 T00331011
93073KASE ASE20160601043010506/01/16 04:30:31  5-MIN KASE 011130Z 19006KT 10SM CLR 03/M01 A3020 7580 75 7900 180/06 RMK AO2 T00281011
93073KASE ASE20160601043510806/01/16 04:35:31  5-MIN KASE 011135Z 20006KT 10SM FEW100 03/M01 A3020 7580 75 7900 190/06 RMK AO2 T00281011
93073KASE ASE20160601044010806/01/16 04:40:31  5-MIN KASE 011140Z 19006KT 10SM SCT100 04/M01 A3020 7580 70 8100 180/06 RMK AO2 T00391011
93073KASE ASE20160601044510806/01/16 04:45:31  5-MIN KASE 011145Z 21005KT 10SM SCT100 04/M01 A3021 7580 70 8100 200/05 RMK AO2 T00391011
93073KASE ASE20160601045013306/01/16 04:50:31  5-MIN KASE 011150Z 00000KT 10SM SCT100 03/M01 A3021 7580 72 8000 000/00 RMK AO2 SLP139 T00331011 10078 20022 51005
93073KASE ASE20160601045510806/01/16 04:55:31  5-MIN KASE 011155Z 00000KT 10SM SCT100 03/M01 A3020 7580 75 7900 000/00 RMK AO2 T00281011
93073KASE ASE20160601050010806/01/16 05:00:31  5-MIN KASE 011200Z 00000KT 10SM SCT100 03/M01 A3021 7580 75 7900 000/00 RMK AO2 T00281011
93073KASE ASE20160601050510806/01/16 05:05:31  5-MIN KASE 011205Z 00000KT 10SM FEW100 02/M01 A3021 7570 78 7900 000/00 RMK AO2 T00221011
93073KASE ASE20160601051010806/01/16 05:10:31  5-MIN KASE 011210Z 00000KT 10SM FEW100 02/M01 A3021 7570 78 7900 000/00 RMK AO2 T00221011
93073KASE ASE20160601051510806/01/16 05:15:31  5-MIN KASE 011215Z 00000KT 10SM FEW100 03/M01 A3021 7570 75 7900 000/00 RMK AO2 T00281011
93073KASE ASE20160601052010506/01/16 05:20:31  5-MIN KASE 011220Z 00000KT 10SM CLR 02/M01 A3021 7570 78 7900 000/00 RMK AO2 T00221011
93073KASE ASE20160601052510506/01/16 05:25:31  5-MIN KASE 011225Z 00000KT 10SM CLR 03/M01 A3021 7570 75 7900 000/00 RMK AO2 T00281011
93073KASE ASE20160601053010506/01/16 05:30:31  5-MIN KASE 011230Z 00000KT 10SM CLR 03/M01 A3021 7570 75 7900 000/00 RMK AO2 T00281011
93073KASE ASE20160601053510506/01/16 05:35:31  5-MIN KASE 011235Z 00000KT 10SM CLR 03/M01 A3021 7570 75 7900 000/00 RMK AO2 T00281011
93073KASE ASE20160601054010506/01/16 05:40:31  5-MIN KASE 011240Z 00000KT 10SM CLR 03/M01 A3021 7570 76 8000 000/00 RMK AO2 T00331006
93073KASE ASE20160601054510406/01/16 05:45:31  5-MIN KASE 011245Z 00000KT 10SM CLR 04/00 A3022 7570 73 8100 000/00 RMK AO2 T00440000
93073KASE ASE20160601055011106/01/16 05:50:31  5-MIN KASE 011250Z 00000KT 10SM CLR 05/00 A3021 7570 70 8200 000/00 RMK AO2 SLP143 T00500000
93073KASE ASE20160601055510406/01/16 05:55:31  5-MIN KASE 011255Z 00000KT 10SM CLR 05/00 A3021 7570 70 8200 000/00 RMK AO2 T00500000
93073KASE ASE20160601060010406/01/16 06:00:31  5-MIN KASE 011300Z 00000KT 10SM CLR 06/01 A3021 7570 67 8300 000/00 RMK AO2 T00610006
93073KASE ASE20160601060510406/01/16 06:05:31  5-MIN KASE 011305Z 00000KT 10SM CLR 06/01 A3021 7570 67 8300 000/00 RMK AO2 T00610006
93073KASE ASE20160601061010406/01/16 06:10:31  5-MIN KASE 011310Z 00000KT 10SM CLR 07/01 A3021 7570 65 8400 000/00 RMK AO2 T00670006
93073KASE ASE20160601061510406/01/16 06:15:31  5-MIN KASE 011315Z 00000KT 10SM CLR 07/01 A3021 7570 65 8400 000/00 RMK AO2 T00670006
93073KASE ASE20160601062010406/01/16 06:20:31  5-MIN KASE 011320Z 00000KT 10SM CLR 07/01 A3021 7570 67 8400 000/00 RMK AO2 T00670011
93073KASE ASE20160601062510406/01/16 06:25:31  5-MIN KASE 011325Z 00000KT 10SM CLR 08/01 A3021 7570 60 8500 000/00 RMK AO2 T00780006
93073KASE ASE20160601063010406/01/16 06:30:31  5-MIN KASE 011330Z 00000KT 10SM CLR 08/01 A3021 7570 60 8500 000/00 RMK AO2 T00780006
93073KASE ASE20160601063510406/01/16 06:35:31  5-MIN KASE 011335Z 00000KT 10SM CLR 08/00 A3021 7570 55 8600 000/00 RMK AO2 T00830000
93073KASE ASE20160601064010406/01/16 06:40:31  5-MIN KASE 011340Z 00000KT 10SM CLR 08/01 A3021 7570 58 8600 000/00 RMK AO2 T00830006
93073KASE ASE20160601064510406/01/16 06:45:31  5-MIN KASE 011345Z 00000KT 10SM CLR 09/00 A3021 7570 53 8600 000/00 RMK AO2 T00890000
93073KASE ASE20160601065011106/01/16 06:50:31  5-MIN KASE 011350Z 00000KT 10SM CLR 09/01 A3021 7570 53 8700 000/00 RMK AO2 SLP141 T00940006
93073KASE ASE20160601065510406/01/16 06:55:31  5-MIN KASE 011355Z 00000KT 10SM CLR 10/01 A3021 7570 52 8800 000/00 RMK AO2 T01000006
93073KASE ASE20160601070010406/01/16 07:00:31  5-MIN KASE 011400Z 01004KT 10SM CLR 10/01 A3021 7570 52 8800 360/04 RMK AO2 T01000006
93073KASE ASE20160601070510406/01/16 07:05:31  5-MIN KASE 011405Z 34004KT 10SM CLR 10/01 A3022 7570 54 8800 330/04 RMK AO2 T01000011
93073KASE ASE20160601071010406/01/16 07:10:31  5-MIN KASE 011410Z 36004KT 10SM CLR 10/01 A3022 7570 54 8800 350/04 RMK AO2 T01000011
93073KASE ASE20160601071510406/01/16 07:15:31  5-MIN KASE 011415Z 36004KT 10SM CLR 11/01 A3022 7570 52 8800 350/04 RMK AO2 T01060011
93073KASE ASE20160601072010406/01/16 07:20:31  5-MIN KASE 011420Z 35005KT 10SM CLR 11/01 A3021 7570 52 8800 340/05 RMK AO2 T01060011
93073KASE ASE20160601072510406/01/16 07:25:31  5-MIN KASE 011425Z VRB04KT 10SM CLR 11/01 A3022 7570 52 8800 VRB/04 RMK AO2 T01060011
93073KASE ASE20160601073010406/01/16 07:30:31  5-MIN KASE 011430Z 35005KT 10SM CLR 11/01 A3022 7570 50 8900 340/05 RMK AO2 T01110011
93073KASE ASE20160601073510406/01/16 07:35:31  5-MIN KASE 011435Z 36004KT 10SM CLR 11/01 A3022 7570 48 8900 350/04 RMK AO2 T01110006
93073KASE ASE20160601074010406/01/16 07:40:31  5-MIN KASE 011440Z 01004KT 10SM CLR 12/01 A3022 7570 46 8900 010/04 RMK AO2 T01170006
93073KASE ASE20160601074510406/01/16 07:45:31  5-MIN KASE 011445Z 01005KT 10SM CLR 12/02 A3022 7570 50 8900 360/05 RMK AO2 T01170017
93073KASE ASE20160601075011706/01/16 07:50:31  5-MIN KASE 011450Z 36005KT 10SM CLR 12/02 A3022 7560 48 9000 360/05 RMK AO2 SLP140 T01220017 51006
93073KASE ASE20160601075510406/01/16 07:55:31  5-MIN KASE 011455Z 35006KT 10SM CLR 12/02 A3022 7570 48 9000 340/06 RMK AO2 T01220017
93073KASE ASE20160601080010406/01/16 08:00:31  5-MIN KASE 011500Z 01006KT 10SM CLR 13/02 A3022 7560 46 9100 010/06 RMK AO2 T01280017
93073KASE ASE20160601080510406/01/16 08:05:31  5-MIN KASE 011505Z 01006KT 10SM CLR 13/02 A3022 7560 45 9100 360/06 RMK AO2 T01330017
93073KASE ASE20160601081010406/01/16 08:10:31  5-MIN KASE 011510Z 01005KT 10SM CLR 13/01 A3022 7570 44 9100 360/05 RMK AO2 T01280011
93073KASE ASE20160601081510406/01/16 08:15:31  5-MIN KASE 011515Z 36005KT 10SM CLR 13/01 A3022 7570 43 9100 350/05 RMK AO2 T01330011
93073KASE ASE20160601082010406/01/16 08:20:31  5-MIN KASE 011520Z 01005KT 10SM CLR 14/01 A3022 7570 41 9200 360/05 RMK AO2 T01390011
93073KASE ASE20160601082510406/01/16 08:25:31  5-MIN KASE 011525Z 35007KT 10SM CLR 13/01 A3021 7570 43 9100 340/07 RMK AO2 T01330011
93073KASE ASE20160601083010406/01/16 08:30:31  5-MIN KASE 011530Z 35007KT 10SM CLR 14/02 A3021 7570 43 9200 340/07 RMK AO2 T01390017
93073KASE ASE20160601083510406/01/16 08:35:31  5-MIN KASE 011535Z 02005KT 10SM CLR 14/02 A3021 7570 43 9200 010/05 RMK AO2 T01390017
93073KASE ASE20160601084010406/01/16 08:40:31  5-MIN KASE 011540Z 35005KT 10SM CLR 14/02 A3021 7570 41 9300 340/05 RMK AO2 T01440017
93073KASE ASE20160601084510406/01/16 08:45:31  5-MIN KASE 011545Z 01005KT 10SM CLR 14/02 A3021 7570 41 9300 360/05 RMK AO2 T01440017
93073KASE ASE20160601085011106/01/16 08:50:31  5-MIN KASE 011550Z VRB04KT 10SM CLR 14/02 A3021 7570 41 9300 VRB/04 RMK AO2 SLP132 T01440017
93073KASE ASE20160601085510406/01/16 08:55:31  5-MIN KASE 011555Z 36003KT 10SM CLR 14/02 A3021 7580 41 9300 350/03 RMK AO2 T01440017
93073KASE ASE20160601090010406/01/16 09:00:31  5-MIN KASE 011600Z VRB04KT 10SM CLR 16/02 A3021 7580 40 9400 VRB/04 RMK AO2 T01560022
93073KASE ASE20160601090510406/01/16 09:05:31  5-MIN KASE 011605Z 35005KT 10SM CLR 16/02 A3021 7580 39 9400 340/05 RMK AO2 T01560017
93073KASE ASE20160601091010406/01/16 09:10:31  5-MIN KASE 011610Z 36006KT 10SM CLR 16/02 A3021 7580 39 9400 350/06 RMK AO2 T01560017
93073KASE ASE20160601091510406/01/16 09:15:31  5-MIN KASE 011615Z 35004KT 10SM CLR 16/02 A3020 7580 37 9500 340/04 RMK AO2 T01610017
93073KASE ASE20160601092010406/01/16 09:20:31  5-MIN KASE 011620Z 05005KT 10SM CLR 16/02 A3020 7580 37 9500 040/05 RMK AO2 T01610017
93073KASE ASE20160601092510406/01/16 09:25:31  5-MIN KASE 011625Z 35006KT 10SM CLR 17/02 A3020 7580 37 9500 340/06 RMK AO2 T01670022
93073KASE ASE20160601093010406/01/16 09:30:31  5-MIN KASE 011630Z VRB06KT 10SM CLR 17/02 A3020 7580 36 9500 VRB/06 RMK AO2 T01670017
93073KASE ASE20160601093510406/01/16 09:35:31  5-MIN KASE 011635Z 02004KT 10SM CLR 17/02 A3020 7580 36 9500 010/04 RMK AO2 T01670017
93073KASE ASE20160601094010406/01/16 09:40:31  5-MIN KASE 011640Z VRB04KT 10SM CLR 17/02 A3020 7580 35 9600 VRB/04 RMK AO2 T01720017
93073KASE ASE20160601094510406/01/16 09:45:31  5-MIN KASE 011645Z 01006KT 10SM CLR 17/02 A3020 7580 35 9600 360/06 RMK AO2 T01720017
93073KASE ASE20160601095011106/01/16 09:50:31  5-MIN KASE 011650Z 35007KT 10SM CLR 18/01 A3020 7580 31 9600 340/07 RMK AO2 SLP124 T01780006
93073KASE ASE20160601095510406/01/16 09:55:31  5-MIN KASE 011655Z VRB06KT 10SM CLR 18/00 A3020 7580 29 9700 VRB/06 RMK AO2 T01830000
93073KASE ASE20160601100010506/01/16 10:00:31  5-MIN KASE 011700Z 03007KT 10SM CLR 18/M01 A3021 7580 27 9700 020/07 RMK AO2 T01831006
93073KASE ASE20160601100510506/01/16 10:05:31  5-MIN KASE 011705Z VRB05KT 10SM CLR 18/M01 A3021 7580 27 9700 VRB/05 RMK AO2 T01831006
93073KASE ASE20160601101010506/01/16 10:10:31  5-MIN KASE 011710Z 01007KT 10SM CLR 19/M01 A3021 7580 26 9800 360/07 RMK AO2 T01891006
93073KASE ASE20160601101510506/01/16 10:15:31  5-MIN KASE 011715Z 01007KT 10SM CLR 19/M01 A3021 7580 25 9800 360/07 RMK AO2 T01891011
93073KASE ASE20160601102010506/01/16 10:20:31  5-MIN KASE 011720Z 05006KT 10SM CLR 19/M01 A3021 7580 26 9800 040/06 RMK AO2 T01891006
93073KASE ASE20160601102510506/01/16 10:25:31  5-MIN KASE 011725Z 02008KT 10SM CLR 19/M01 A3021 7580 26 9800 020/08 RMK AO2 T01891006
93073KASE ASE20160601103010506/01/16 10:30:31  5-MIN KASE 011730Z VRB06KT 10SM CLR 19/M01 A3020 7580 25 9800 VRB/06 RMK AO2 T01941011
93073KASE ASE20160601103510506/01/16 10:35:31  5-MIN KASE 011735Z 02008KT 10SM CLR 19/M01 A3020 7580 26 9800 010/08 RMK AO2 T01941006
93073KASE ASE20160601104010406/01/16 10:40:31  5-MIN KASE 011740Z 03005KT 10SM CLR 19/00 A3020 7580 28 9800 020/05 RMK AO2 T01890000
93073KASE ASE20160601104511106/01/16 10:45:31  5-MIN KASE 011745Z 35010G16KT 10SM CLR 19/M01 A3020 7580 26 9800 350/10G16 RMK AO2 T01941006
93073KASE ASE20160601105013606/01/16 10:50:31  5-MIN KASE 011750Z 35006G16KT 10SM CLR 19/M01 A3020 7580 25 9800 340/06G16 RMK AO2 SLP126 T01941011 10194 20022 51003
93073KASE ASE20160601105512106/01/16 10:55:31  5-MIN KASE 011755Z 02008KT 340V060 10SM CLR 20/M01 A3020 7580 25 9900 010/08 330V050 RMK AO2 T02001006
93073KASE ASE20160601110010506/01/16 11:00:31  5-MIN KASE 011800Z 01011KT 10SM CLR 19/M02 A3019 7590 24 9800 360/11 RMK AO2 T01941017
93073KASE ASE20160601110510506/01/16 11:05:31  5-MIN KASE 011805Z 01009KT 10SM CLR 20/M01 A3019 7590 24 9900 360/09 RMK AO2 T02001011
93073KASE ASE20160601111010506/01/16 11:10:31  5-MIN KASE 011810Z 03008KT 10SM CLR 20/M02 A3020 7590 23 9900 020/08 RMK AO2 T02001017
93073KASE ASE20160601111511206/01/16 11:15:31  5-MIN KASE 011815Z 35011G15KT 10SM CLR 21/M02 A3019 7590 22 10000 340/11G15 RMK AO2 T02061017
93073KASE ASE20160601112011506/01/16 11:20:31  5-MIN KASE 011820Z 34010G16KT 10SM FEW090 21/M02 A3019 7590 21 10000 330/10G16 RMK AO2 T02061022
93073KASE ASE20160601112511406/01/16 11:25:31  5-MIN KASE 011825Z 35007G16KT 10SM FEW090 20/M02 A3019 7590 22 9900 340/07G16 RMK AO2 T02001022
93073KASE ASE20160601113009806/01/16 11:30:31  5-MIN KASE 011830Z 10SM FEW090 19/M02 A3019 7590 23 9800 M /M RMK AO2 T01941022
93073KASE ASE20160601113510906/01/16 11:35:31  5-MIN KASE 011835Z 34012KT 10SM FEW090 21/M02 A3019 7590 22 10000 330/12 RMK AO2 T02061017
93073KASE ASE20160601114011406/01/16 11:40:31  5-MIN KASE 011840Z VRB03G15KT 10SM FEW090 20/M02 A3020 7590 22 9900 VRB/03G15 RMK AO2 T02001022
93073KASE ASE20160601114510906/01/16 11:45:31  5-MIN KASE 011845Z 35009KT 10SM FEW090 21/M02 A3019 7590 22 10000 350/09 RMK AO2 T02061017
93073KASE ASE20160601115011206/01/16 11:50:31  5-MIN KASE 011850Z 35008KT 10SM CLR 20/M02 A3019 7590 22 9900 340/08 RMK AO2 SLP120 T02001022
93073KASE ASE20160601115510506/01/16 11:55:31  5-MIN KASE 011855Z 04004KT 10SM CLR 20/M02 A3019 7590 23 9900 030/04 RMK AO2 T02001017
93073KASE ASE20160601120010606/01/16 12:00:31  5-MIN KASE 011900Z 09007KT 10SM CLR 21/M01 A3019 7590 23 10000 080/07 RMK AO2 T02061011
93073KASE ASE20160601120511206/01/16 12:05:31  5-MIN KASE 011905Z 33012G18KT 10SM CLR 21/M01 A3019 7590 23 10000 320/12G18 RMK AO2 T02061011
93073KASE ASE20160601121011206/01/16 12:10:31  5-MIN KASE 011910Z VRB05G18KT 10SM CLR 21/M02 A3019 7600 22 10000 VRB/05G18 RMK AO2 T02061017
93073KASE ASE20160601121510506/01/16 12:15:31  5-MIN KASE 011915Z 34010KT 9SM CLR 22/M01 A3018 7600 22 10100 330/10 RMK AO2 T02171006
93073KASE ASE20160601122011106/01/16 12:20:31  5-MIN KASE 011920Z 35010G15KT 9SM CLR 21/M01 A3019 7600 22 10000 350/10G15 RMK AO2 T02111011
93073KASE ASE20160601122511506/01/16 12:25:31  5-MIN KASE 011925Z 32011G15KT 10SM SCT080 21/M01 A3018 7600 23 10000 320/11G15 RMK AO2 T02061011
93073KASE ASE20160601123012406/01/16 12:30:31  5-MIN KASE 011930Z 02007KT 340V050 10SM SCT080 19/M01 A3018 7600 25 9800 010/07 330V040 RMK AO2 T01941011
93073KASE ASE20160601123510906/01/16 12:35:31  5-MIN KASE 011935Z VRB05KT 10SM FEW080 21/M01 A3018 7600 23 10000 VRB/05 RMK AO2 T02061011
93073KASE ASE20160601124010906/01/16 12:40:31  5-MIN KASE 011940Z 28008KT 10SM FEW080 21/M01 A3018 7600 23 10000 270/08 RMK AO2 T02111006
93073KASE ASE20160601124510906/01/16 12:45:31  5-MIN KASE 011945Z 26007KT 10SM FEW080 21/M01 A3018 7600 23 10000 250/07 RMK AO2 T02111006
93073KASE ASE20160601125013106/01/16 12:50:31  5-MIN KASE 011950Z 01007KT 350V060 10SM FEW080 20/M02 A3018 7610 23 9900 360/07 340V050 RMK AO2 SLP117 T02001017
93073KASE ASE20160601125510606/01/16 12:55:31  5-MIN KASE 011955Z 00000KT 10SM CLR 21/M02 A3017 7610 22 10000 000/00 RMK AO2 T02061017
93073KASE ASE20160601130010506/01/16 13:00:31  5-MIN KASE 012000Z VRB05KT 10SM CLR 20/M01 A3017 7610 24 9900 VRB/05 RMK AO2 T02001011
93073KASE ASE20160601130511206/01/16 13:05:31  5-MIN KASE 012005Z 36014G18KT 10SM CLR 22/M01 A3017 7610 22 10100 350/14G18 RMK AO2 T02171006
93073KASE ASE20160601131011106/01/16 13:10:31  5-MIN KASE 012010Z 01014G18KT 10SM CLR 22/00 A3017 7610 23 10100 360/14G18 RMK AO2 T02170000
93073KASE ASE20160601131511506/01/16 13:15:31  5-MIN KASE 012015Z 35013G19KT 10SM FEW085 21/M01 A3016 7620 23 10100 340/13G19 RMK AO2 T02111006
93073KASE ASE20160601132011406/01/16 13:20:31  5-MIN KASE 012020Z 36008G20KT 10SM FEW090 20/M02 A3017 7610 23 9900 350/08G20 RMK AO2 T02001017
93073KASE ASE20160601132511506/01/16 13:25:31  5-MIN KASE 012025Z VRB04G20KT 10SM FEW085 21/M01 A3017 7610 23 10000 VRB/04G20 RMK AO2 T02061011
93073KASE ASE20160601133010906/01/16 13:30:31  5-MIN KASE 012030Z 01006KT 10SM FEW085 22/M02 A3016 7620 20 10100 360/06 RMK AO2 T02171017
93073KASE ASE20160601133510906/01/16 13:35:31  5-MIN KASE 012035Z 36009KT 10SM SCT085 22/M01 A3016 7620 22 10100 350/09 RMK AO2 T02171006
93073KASE ASE20160601134010906/01/16 13:40:31  5-MIN KASE 012040Z VRB06KT 10SM SCT085 21/M01 A3016 7620 23 10000 VRB/06 RMK AO2 T02061011
93073KASE ASE20160601134510806/01/16 13:45:31  5-MIN KASE 012045Z 00000KT 10SM BKN090 20/M02 A3016 7620 23 9900 000/00 RMK AO2 T02001017
93073KASE ASE20160601135012206/01/16 13:50:31  5-MIN KASE 012050Z VRB05KT 10SM BKN085 21/M01 A3016 7620 22 10100 VRB/05 RMK AO2 SLP111 T02111011 56006
93073KASE ASE20160601135510806/01/16 13:55:31  5-MIN KASE 012055Z 01006KT 10SM BKN090 20/M01 A3016 7620 24 9900 010/06 RMK AO2 T02001011
93073KASE ASE20160601140010806/01/16 14:00:31  5-MIN KASE 012100Z 00000KT 10SM BKN090 20/M01 A3016 7620 24 9900 000/00 RMK AO2 T02001011
93073KASE ASE20160601140509906/01/16 14:05:31  5-MIN KASE 012105Z 10SM OVC085 22/M01 A3016 7620 21 10100 M /M RMK AO2 T02171011
93073KASE ASE20160601141010906/01/16 14:10:31  5-MIN KASE 012110Z 01008KT 10SM BKN090 22/M01 A3015 7630 21 10100 360/08 RMK AO2 T02171011
93073KASE ASE20160601141513106/01/16 14:15:31  5-MIN KASE 012115Z 03009G15KT 350V050 10SM BKN090 21/M02 A3015 7630 21 10100 020/09G15 340V040 RMK AO2 T02111017
93073KASE ASE20160601142011506/01/16 14:20:31  5-MIN KASE 012120Z 34009G16KT 10SM BKN090 21/M01 A3015 7630 23 10000 340/09G16 RMK AO2 T02061011
93073KASE ASE20160601142513106/01/16 14:25:31  5-MIN KASE 012125Z 02007G16KT 340V050 10SM BKN090 21/M01 A3015 7630 23 10000 010/07G16 330V040 RMK AO2 T02061011
93073KASE ASE20160601143011506/01/16 14:30:31  5-MIN KASE 012130Z 31012G18KT 10SM BKN090 22/M01 A3015 7630 21 10200 300/12G18 RMK AO2 T02221011
93073KASE ASE20160601143511506/01/16 14:35:31  5-MIN KASE 012135Z 36010G18KT 10SM BKN090 22/M02 A3015 7630 20 10100 350/10G18 RMK AO2 T02171017
93073KASE ASE20160601144013106/01/16 14:40:31  5-MIN KASE 012140Z 35008G16KT 300V050 10SM SCT090 22/M02 A3015 7630 20 10100 340/08G16 290V040 RMK AO2 T02171017
93073KASE ASE20160601144510906/01/16 14:45:31  5-MIN KASE 012145Z 36008KT 10SM SCT090 22/M01 A3014 7630 21 10200 350/08 RMK AO2 T02221011
93073KASE ASE20160601145012206/01/16 14:50:31  5-MIN KASE 012150Z 36013G19KT 10SM FEW090 22/M01 A3014 7640 21 10200 350/13G19 RMK AO2 SLP104 T02221011
93073KASE ASE20160601145511106/01/16 14:55:31  5-MIN KASE 012155Z 33006G19KT 9SM CLR 22/M02 A3014 7640 20 10100 320/06G19 RMK AO2 T02171017
93073KASE ASE20160601150011106/01/16 15:00:31  5-MIN KASE 012200Z 35010G16KT 9SM CLR 22/M02 A3014 7640 20 10200 340/10G16 RMK AO2 T02221017
93073KASE ASE20160601150511206/01/16 15:05:31  5-MIN KASE 012205Z 35015G19KT 10SM CLR 22/M02 A3014 7640 20 10200 340/15G19 RMK AO2 T02221017
93073KASE ASE20160601151011206/01/16 15:10:31  5-MIN KASE 012210Z 32009G19KT 10SM CLR 22/M02 A3014 7640 19 10200 310/09G19 RMK AO2 T02221022
93073KASE ASE20160601151510606/01/16 15:15:31  5-MIN KASE 012215Z 02009KT 10SM CLR 22/M02 A3014 7640 20 10100 010/09 RMK AO2 T02171017
93073KASE ASE20160601152011206/01/16 15:20:31  5-MIN KASE 012220Z 01006G15KT 10SM CLR 22/M02 A3014 7640 20 10200 010/06G15 RMK AO2 T02221017
93073KASE ASE20160601152511206/01/16 15:25:31  5-MIN KASE 012225Z 02009G16KT 10SM CLR 23/M01 A3014 7640 20 10300 010/09G16 RMK AO2 T02281011
93073KASE ASE20160601153010606/01/16 15:30:31  5-MIN KASE 012230Z 35008KT 10SM CLR 22/M02 A3013 7640 20 10200 350/08 RMK AO2 T02221017
93073KASE ASE20160601153512806/01/16 15:35:31  5-MIN KASE 012235Z 34017G22KT 300V020 10SM CLR 22/M02 A3013 7650 19 10200 330/17G22 290V010 RMK AO2 T02221022
93073KASE ASE20160601154012806/01/16 15:40:31  5-MIN KASE 012240Z 34007G22KT 310V010 10SM CLR 22/M02 A3013 7640 19 10200 330/07G22 300V360 RMK AO2 T02221022
93073KASE ASE20160601154511206/01/16 15:45:31  5-MIN KASE 012245Z 31012G16KT 10SM CLR 22/M02 A3013 7640 19 10200 300/12G16 RMK AO2 T02221022
93073KASE ASE20160601155013506/01/16 15:50:31  5-MIN KASE 012250Z 34008G16KT 280V020 10SM CLR 22/M02 A3013 7650 19 10200 330/08G16 270V010 RMK AO2 SLP101 T02221022
93073KASE ASE20160601155510606/01/16 15:55:31  5-MIN KASE 012255Z 32010KT 10SM CLR 22/M02 A3013 7640 20 10200 310/10 RMK AO2 T02221017
93073KASE ASE20160601160011206/01/16 16:00:31  5-MIN KASE 012300Z 36006G16KT 10SM CLR 22/M02 A3013 7640 19 10200 350/06G16 RMK AO2 T02221022
93073KASE ASE20160601160511206/01/16 16:05:31  5-MIN KASE 012305Z 34011G17KT 10SM CLR 22/M02 A3013 7650 20 10100 330/11G17 RMK AO2 T02171022
93073KASE ASE20160601161011206/01/16 16:10:31  5-MIN KASE 012310Z 36008G17KT 10SM CLR 22/M02 A3013 7650 19 10200 350/08G17 RMK AO2 T02221022
93073KASE ASE20160601161510606/01/16 16:15:31  5-MIN KASE 012315Z 35009KT 10SM CLR 22/M02 A3013 7650 19 10200 350/09 RMK AO2 T02221022
93073KASE ASE20160601162011206/01/16 16:20:31  5-MIN KASE 012320Z 32012G18KT 10SM CLR 22/M02 A3013 7650 19 10200 310/12G18 RMK AO2 T02221022
93073KASE ASE20160601162511206/01/16 16:25:31  5-MIN KASE 012325Z 35009G18KT 10SM CLR 22/M02 A3013 7650 20 10100 340/09G18 RMK AO2 T02171022
93073KASE ASE20160601163010606/01/16 16:30:31  5-MIN KASE 012330Z 34011KT 10SM CLR 22/M03 A3013 7650 19 10100 330/11 RMK AO2 T02171028
93073KASE ASE20160601163510606/01/16 16:35:31  5-MIN KASE 012335Z 33010KT 10SM CLR 22/M03 A3013 7650 19 10100 320/10 RMK AO2 T02171028
93073KASE ASE20160601164011206/01/16 16:40:31  5-MIN KASE 012340Z 35010G16KT 10SM CLR 22/M02 A3013 7650 20 10100 340/10G16 RMK AO2 T02171022
93073KASE ASE20160601164511206/01/16 16:45:31  5-MIN KASE 012345Z 33010G16KT 10SM CLR 22/M03 A3013 7650 19 10100 320/10G16 RMK AO2 T02171028
93073KASE ASE20160601165013106/01/16 16:50:31  5-MIN KASE 012350Z 36010KT 10SM CLR 22/M03 A3013 7640 18 10200 350/10 RMK AO2 SLP102 T02221028 10228 20194 58010
93073KASE ASE20160601165510606/01/16 16:55:31  5-MIN KASE 012355Z 36010KT 10SM CLR 22/M02 A3013 7640 20 10100 350/10 RMK AO2 T02171022
93073KASE ASE20160601170011206/01/16 17:00:31  5-MIN KASE 020000Z 33010G20KT 10SM CLR 22/M03 A3013 7640 19 10100 330/10G20 RMK AO2 T02171028
93073KASE ASE20160601170511206/01/16 17:05:31  5-MIN KASE 020005Z 31010G20KT 10SM CLR 21/M03 A3014 7640 19 10100 300/10G20 RMK AO2 T02111033
93073KASE ASE20160601171011206/01/16 17:10:31  5-MIN KASE 020010Z 35008G18KT 10SM CLR 21/M03 A3014 7640 19 10100 340/08G18 RMK AO2 T02111033
93073KASE ASE20160601171510606/01/16 17:15:31  5-MIN KASE 020015Z 34009KT 10SM CLR 22/M03 A3013 7640 19 10100 330/09 RMK AO2 T02171028
93073KASE ASE20160601172010606/01/16 17:20:31  5-MIN KASE 020020Z 34009KT 10SM CLR 22/M03 A3014 7640 19 10100 330/09 RMK AO2 T02171028
93073KASE ASE20160601172512206/01/16 17:25:31  5-MIN KASE 020025Z 26007KT 240V310 10SM CLR 21/M03 A3013 7640 20 10100 260/07 230V300 RMK AO2 T02111028
93073KASE ASE20160601173010606/01/16 17:30:31  5-MIN KASE 020030Z 27007KT 10SM CLR 21/M03 A3014 7640 20 10000 260/07 RMK AO2 T02061028
93073KASE ASE20160601173510606/01/16 17:35:31  5-MIN KASE 020035Z VRB05KT 10SM CLR 21/M02 A3014 7640 20 10100 VRB/05 RMK AO2 T02111022
93073KASE ASE20160601174010606/01/16 17:40:31  5-MIN KASE 020040Z 30006KT 10SM CLR 21/M03 A3014 7640 20 10100 290/06 RMK AO2 T02111028
93073KASE ASE20160601174510606/01/16 17:45:31  5-MIN KASE 020045Z 30006KT 10SM CLR 21/M03 A3014 7640 19 10000 290/06 RMK AO2 T02061033
93073KASE ASE20160601175011306/01/16 17:50:31  5-MIN KASE 020050Z 30004KT 10SM CLR 21/M03 A3014 7640 20 10100 290/04 RMK AO2 SLP100 T02111028
93073KASE ASE20160601175510606/01/16 17:55:31  5-MIN KASE 020055Z 33003KT 10SM CLR 21/M02 A3014 7640 20 10100 330/03 RMK AO2 T02111022
93073KASE ASE20160601180010606/01/16 18:00:31  5-MIN KASE 020100Z 31007KT 10SM CLR 21/M03 A3014 7640 20 10100 300/07 RMK AO2 T02111028
93073KASE ASE20160601180510606/01/16 18:05:31  5-MIN KASE 020105Z 29008KT 10SM CLR 21/M03 A3014 7640 20 10000 280/08 RMK AO2 T02061028
93073KASE ASE20160601181010606/01/16 18:10:31  5-MIN KASE 020110Z VRB06KT 10SM CLR 21/M03 A3014 7640 19 10000 VRB/06 RMK AO2 T02061033
93073KASE ASE20160601181510606/01/16 18:15:31  5-MIN KASE 020115Z 34008KT 10SM CLR 21/M03 A3014 7640 20 10000 330/08 RMK AO2 T02061028
93073KASE ASE20160601182010606/01/16 18:20:31  5-MIN KASE 020120Z 32009KT 10SM CLR 20/M04 A3014 7640 19 10000 320/09 RMK AO2 T02001039
93073KASE ASE20160601182510506/01/16 18:25:31  5-MIN KASE 020125Z 32008KT 10SM CLR 19/M04 A3015 7630 20 9900 320/08 RMK AO2 T01941039
93073KASE ASE20160601183010506/01/16 18:30:31  5-MIN KASE 020130Z 32008KT 10SM CLR 19/M03 A3015 7630 21 9900 310/08 RMK AO2 T01941033
93073KASE ASE20160601183510506/01/16 18:35:31  5-MIN KASE 020135Z 33006KT 10SM CLR 19/M03 A3015 7630 22 9900 320/06 RMK AO2 T01941028
93073KASE ASE20160601184010506/01/16 18:40:31  5-MIN KASE 020140Z 33007KT 10SM CLR 19/M03 A3015 7630 22 9800 320/07 RMK AO2 T01891028
93073KASE ASE20160601184510806/01/16 18:45:31  5-MIN KASE 020145Z 32009KT 10SM SCT100 19/M02 A3015 7630 23 9800 310/09 RMK AO2 T01891022
93073KASE ASE20160601185011506/01/16 18:50:31  5-MIN KASE 020150Z 34009KT 10SM BKN100 19/M02 A3015 7630 23 9800 330/09 RMK AO2 SLP100 T01891022
93073KASE ASE20160601185510806/01/16 18:55:31  5-MIN KASE 020155Z 01006KT 10SM BKN100 19/M02 A3016 7620 24 9900 360/06 RMK AO2 T01941017
93073KASE ASE20160601190010806/01/16 19:00:31  5-MIN KASE 020200Z 04007KT 10SM BKN100 19/M01 A3016 7620 25 9800 030/07 RMK AO2 T01891011
93073KASE ASE20160601190510806/01/16 19:05:31  5-MIN KASE 020205Z VRB04KT 10SM OVC095 19/M01 A3016 7620 25 9800 VRB/04 RMK AO2 T01891011
93073KASE ASE20160601191010706/01/16 19:10:31  5-MIN KASE 020210Z 29005KT 10SM BKN100 17/00 A3016 7620 31 9600 280/05 RMK AO2 T01720000
93073KASE ASE20160601191510706/01/16 19:15:31  5-MIN KASE 020215Z 30006KT 10SM BKN100 17/00 A3016 7620 32 9600 290/06 RMK AO2 T01670000
93073KASE ASE20160601192010706/01/16 19:20:31  5-MIN KASE 020220Z 00000KT 10SM BKN100 17/00 A3017 7610 31 9600 000/00 RMK AO2 T01720000
93073KASE ASE20160601192510706/01/16 19:25:31  5-MIN KASE 020225Z 36003KT 10SM BKN100 17/00 A3017 7610 32 9600 350/03 RMK AO2 T01670000
93073KASE ASE20160601193010806/01/16 19:30:31  5-MIN KASE 020230Z VRB03KT 10SM BKN100 17/M01 A3017 7610 29 9600 VRB/03 RMK AO2 T01721006
93073KASE ASE20160601193510806/01/16 19:35:31  5-MIN KASE 020235Z VRB05KT 10SM BKN100 17/M01 A3017 7610 28 9600 VRB/05 RMK AO2 T01721011
93073KASE ASE20160601194010806/01/16 19:40:31  5-MIN KASE 020240Z 32004KT 10SM BKN100 18/M01 A3017 7610 27 9700 310/04 RMK AO2 T01781011
93073KASE ASE20160601194510806/01/16 19:45:31  5-MIN KASE 020245Z 00000KT 10SM BKN100 17/M01 A3017 7610 29 9600 000/00 RMK AO2 T01721006
93073KASE ASE20160601195012106/01/16 19:50:31  5-MIN KASE 020250Z 14003KT 10SM OVC100 17/M01 A3018 7600 29 9600 130/03 RMK AO2 SLP106 T01721006 55007
93073KASE ASE20160601195511406/01/16 19:55:31  5-MIN KASE 020255Z 14006KT 10SM BKN095 OVC110 16/01 A3018 7600 34 9500 130/06 RMK AO2 T01610006
93073KASE ASE20160601200011406/01/16 20:00:31  5-MIN KASE 020300Z 11007KT 10SM BKN095 OVC110 16/01 A3018 7600 34 9500 100/07 RMK AO2 T01610006
93073KASE ASE20160601200511406/01/16 20:05:31  5-MIN KASE 020305Z 12006KT 10SM BKN095 OVC110 16/01 A3019 7590 36 9400 110/06 RMK AO2 T01560006
93073KASE ASE20160601201011406/01/16 20:10:31  5-MIN KASE 020310Z VRB04KT 10SM BKN090 OVC110 17/00 A3019 7590 32 9500 VRB/04 RMK AO2 T01670000
93073KASE ASE20160601201511406/01/16 20:15:31  5-MIN KASE 020315Z 14006KT 10SM BKN095 BKN110 16/00 A3020 7590 33 9500 130/06 RMK AO2 T01610000
93073KASE ASE20160601202011406/01/16 20:20:31  5-MIN KASE 020320Z 15006KT 10SM SCT090 BKN110 16/01 A3020 7580 36 9400 140/06 RMK AO2 T01560006
93073KASE ASE20160601202510706/01/16 20:25:31  5-MIN KASE 020325Z 15007KT 10SM SCT095 16/00 A3020 7580 33 9500 140/07 RMK AO2 T01610000
93073KASE ASE20160601203010706/01/16 20:30:31  5-MIN KASE 020330Z 16007KT 10SM SCT095 16/00 A3021 7580 34 9400 150/07 RMK AO2 T01560000
93073KASE ASE20160601203510706/01/16 20:35:31  5-MIN KASE 020335Z 12004KT 10SM SCT095 15/01 A3021 7570 37 9300 110/04 RMK AO2 T01500006
93073KASE ASE20160601204010706/01/16 20:40:31  5-MIN KASE 020340Z 14008KT 10SM FEW095 14/01 A3021 7570 38 9300 130/08 RMK AO2 T01440006
93073KASE ASE20160601204510706/01/16 20:45:31  5-MIN KASE 020345Z 15006KT 10SM FEW095 14/01 A3022 7570 38 9300 140/06 RMK AO2 T01440006
93073KASE ASE20160601205011406/01/16 20:50:31  5-MIN KASE 020350Z 17006KT 10SM FEW095 14/01 A3022 7570 38 9300 160/06 RMK AO2 SLP123 T01440006
93073KASE ASE20160601205510406/01/16 20:55:31  5-MIN KASE 020355Z 20004KT 10SM CLR 13/01 A3022 7560 44 9100 200/04 RMK AO2 T01280011
93073KASE ASE20160601210010406/01/16 21:00:31  5-MIN KASE 020400Z 22005KT 10SM CLR 11/01 A3022 7560 50 8900 210/05 RMK AO2 T01110011
93073KASE ASE20160601210510406/01/16 21:05:31  5-MIN KASE 020405Z 18005KT 10SM CLR 12/01 A3023 7560 44 9000 180/05 RMK AO2 T01220006
93073KASE ASE20160601211010406/01/16 21:10:31  5-MIN KASE 020410Z 17004KT 10SM CLR 13/01 A3023 7560 41 9100 160/04 RMK AO2 T01330006
93073KASE ASE20160601211510406/01/16 21:15:31  5-MIN KASE 020415Z 20005KT 10SM CLR 12/01 A3023 7550 48 8900 190/05 RMK AO2 T01170011
93073KASE ASE20160601212010406/01/16 21:20:31  5-MIN KASE 020420Z 20004KT 10SM CLR 12/01 A3023 7550 44 9000 190/04 RMK AO2 T01220006
93073KASE ASE20160601212510406/01/16 21:25:31  5-MIN KASE 020425Z 19006KT 10SM CLR 12/01 A3024 7550 48 8900 180/06 RMK AO2 T01170011
93073KASE ASE20160601213010406/01/16 21:30:31  5-MIN KASE 020430Z 19006KT 10SM CLR 11/01 A3024 7550 52 8800 180/06 RMK AO2 T01060011
93073KASE ASE20160601213510406/01/16 21:35:31  5-MIN KASE 020435Z 18006KT 10SM CLR 11/01 A3024 7550 52 8800 170/06 RMK AO2 T01060011
93073KASE ASE20160601214010406/01/16 21:40:31  5-MIN KASE 020440Z 19007KT 10SM CLR 10/01 A3024 7550 54 8700 180/07 RMK AO2 T01000011
93073KASE ASE20160601214510406/01/16 21:45:31  5-MIN KASE 020445Z 19007KT 10SM CLR 10/01 A3024 7550 54 8700 180/07 RMK AO2 T01000011
93073KASE ASE20160601215011106/01/16 21:50:31  5-MIN KASE 020450Z 21007KT 10SM CLR 11/01 A3024 7550 52 8800 200/07 RMK AO2 SLP131 T01060011
93073KASE ASE20160601215510406/01/16 21:55:31  5-MIN KASE 020455Z 18007KT 10SM CLR 11/01 A3024 7550 48 8900 170/07 RMK AO2 T01110006
93073KASE ASE20160601220010406/01/16 22:00:31  5-MIN KASE 020500Z 18006KT 10SM CLR 10/01 A3024 7540 52 8700 170/06 RMK AO2 T01000006
93073KASE ASE20160601220510406/01/16 22:05:31  5-MIN KASE 020505Z 19007KT 10SM CLR 09/01 A3024 7540 56 8700 180/07 RMK AO2 T00940011
93073KASE ASE20160601221010406/01/16 22:10:31  5-MIN KASE 020510Z 20007KT 10SM CLR 09/01 A3024 7540 53 8700 190/07 RMK AO2 T00940006
93073KASE ASE20160601221510406/01/16 22:15:31  5-MIN KASE 020515Z 21007KT 10SM CLR 09/01 A3025 7540 53 8700 200/07 RMK AO2 T00940006
93073KASE ASE20160601222010406/01/16 22:20:31  5-MIN KASE 020520Z 20007KT 10SM CLR 10/01 A3025 7540 52 8700 190/07 RMK AO2 T01000006
93073KASE ASE20160601222510406/01/16 22:25:31  5-MIN KASE 020525Z 20007KT 10SM CLR 10/01 A3025 7540 52 8700 190/07 RMK AO2 T01000006
93073KASE ASE20160601223010406/01/16 22:30:31  5-MIN KASE 020530Z 19006KT 10SM CLR 09/01 A3025 7540 56 8600 180/06 RMK AO2 T00890006
93073KASE ASE20160601223510406/01/16 22:35:31  5-MIN KASE 020535Z 19008KT 10SM CLR 08/01 A3025 7540 58 8500 190/08 RMK AO2 T00830006
93073KASE ASE20160601224010406/01/16 22:40:31  5-MIN KASE 020540Z 20007KT 10SM CLR 09/01 A3025 7540 56 8600 190/07 RMK AO2 T00890006
93073KASE ASE20160601224510406/01/16 22:45:31  5-MIN KASE 020545Z 20007KT 10SM CLR 08/01 A3025 7530 58 8500 200/07 RMK AO2 T00830006
93073KASE ASE20160601225012906/01/16 22:50:31  5-MIN KASE 020550Z 21007KT 10SM CLR 09/01 A3026 7530 53 8700 200/07 RMK AO2 SLP137 T00940006 10217 20083 53012
93073KASE ASE20160601225510406/01/16 22:55:31  5-MIN KASE 020555Z 21007KT 10SM CLR 10/00 A3025 7530 49 8700 200/07 RMK AO2 T01000000
93073KASE ASE20160601230010406/01/16 23:00:31  5-MIN KASE 020600Z 21007KT 10SM CLR 10/01 A3025 7530 52 8700 200/07 RMK AO2 T01000006
93073KASE ASE20160601230510406/01/16 23:05:31  5-MIN KASE 020605Z 19006KT 10SM CLR 09/01 A3026 7530 56 8600 190/06 RMK AO2 T00890006
93073KASE ASE20160601231010406/01/16 23:10:31  5-MIN KASE 020610Z 20008KT 10SM CLR 09/01 A3026 7530 56 8600 190/08 RMK AO2 T00890006
93073KASE ASE20160601231510406/01/16 23:15:31  5-MIN KASE 020615Z 21008KT 10SM CLR 09/01 A3026 7530 56 8600 200/08 RMK AO2 T00890006
93073KASE ASE20160601232010406/01/16 23:20:31  5-MIN KASE 020620Z 21009KT 10SM CLR 08/01 A3026 7530 60 8500 200/09 RMK AO2 T00780006
93073KASE ASE20160601232510406/01/16 23:25:31  5-MIN KASE 020625Z 21008KT 10SM CLR 08/01 A3026 7530 60 8500 200/08 RMK AO2 T00780006
93073KASE ASE20160601233010406/01/16 23:30:31  5-MIN KASE 020630Z 21007KT 10SM CLR 08/00 A3026 7530 55 8500 200/07 RMK AO2 T00830000
93073KASE ASE20160601233510406/01/16 23:35:31  5-MIN KASE 020635Z 20006KT 10SM CLR 09/00 A3026 7530 53 8600 190/06 RMK AO2 T00890000
93073KASE ASE20160601234010406/01/16 23:40:31  5-MIN KASE 020640Z 20007KT 10SM CLR 08/01 A3026 7530 58 8500 190/07 RMK AO2 T00830006
93073KASE ASE20160601234510406/01/16 23:45:31  5-MIN KASE 020645Z 22008KT 10SM CLR 08/01 A3026 7520 58 8500 210/08 RMK AO2 T00830006
93073KASE ASE20160601235012106/01/16 23:50:31  5-MIN KASE 020650Z 21007KT 10SM CLR 08/01 A3026 7530 60 8500 200/07 RMK AO2 SLP142 T00780006 402280022
93073KASE ASE20160601235510406/01/16 23:55:31  5-MIN KASE 020655Z 21008KT 10SM CLR 08/00 A3026 7520 55 8500 200/08 RMK AO2 T00830000
93073KASE ASE20160602000010406/02/16 00:00:31  5-MIN KASE 020700Z 20007KT 10SM CLR 08/00 A3026 7520 55 8500 190/07 RMK AO2 T00830000
93073KASE ASE20160602000510406/02/16 00:05:31  5-MIN KASE 020705Z 21008KT 10SM CLR 09/00 A3027 7520 53 8600 200/08 RMK AO2 T00890000
93073KASE ASE20160602001010406/02/16 00:10:31  5-MIN KASE 020710Z 20008KT 10SM CLR 08/00 A3027 7520 58 8500 200/08 RMK AO2 T00780000
93073KASE ASE20160602001510406/02/16 00:15:31  5-MIN KASE 020715Z 21008KT 10SM CLR 08/00 A3027 7520 55 8500 200/08 RMK AO2 T00830000
93073KASE ASE20160602002010406/02/16 00:20:31  5-MIN KASE 020720Z 21008KT 10SM CLR 08/00 A3027 7520 58 8400 200/08 RMK AO2 T00780000
93073KASE ASE20160602002510406/02/16 00:25:31  5-MIN KASE 020725Z 22008KT 10SM CLR 07/01 A3027 7520 65 8300 210/08 RMK AO2 T00670006
93073KASE ASE20160602003010406/02/16 00:30:31  5-MIN KASE 020730Z 20006KT 10SM CLR 08/00 A3027 7520 58 8400 190/06 RMK AO2 T00780000
93073KASE ASE20160602003510406/02/16 00:35:31  5-MIN KASE 020735Z 21007KT 10SM CLR 08/00 A3027 7520 55 8500 200/07 RMK AO2 T00830000
93073KASE ASE20160602004010406/02/16 00:40:31  5-MIN KASE 020740Z 20006KT 10SM CLR 08/00 A3027 7520 55 8500 190/06 RMK AO2 T00830000
93073KASE ASE20160602004510406/02/16 00:45:31  5-MIN KASE 020745Z 20007KT 10SM CLR 08/00 A3027 7520 58 8400 190/07 RMK AO2 T00780000
93073KASE ASE20160602005011106/02/16 00:50:31  5-MIN KASE 020750Z 19006KT 10SM CLR 07/00 A3027 7520 60 8400 180/06 RMK AO2 SLP145 T00720000
93073KASE ASE20160602005510406/02/16 00:55:31  5-MIN KASE 020755Z 21008KT 10SM CLR 07/00 A3027 7520 62 8300 200/08 RMK AO2 T00670000
93073KASE ASE20160602010010406/02/16 01:00:31  5-MIN KASE 020800Z 22008KT 10SM CLR 07/00 A3027 7520 60 8400 210/08 RMK AO2 T00720000
93073KASE ASE20160602010510406/02/16 01:05:31  5-MIN KASE 020805Z 21007KT 10SM CLR 08/00 A3027 7520 58 8400 200/07 RMK AO2 T00780000
93073KASE ASE20160602011010406/02/16 01:10:31  5-MIN KASE 020810Z 20006KT 10SM CLR 08/00 A3028 7510 58 8400 190/06 RMK AO2 T00780000
93073KASE ASE20160602011510406/02/16 01:15:31  5-MIN KASE 020815Z 21008KT 10SM CLR 07/00 A3028 7510 60 8400 200/08 RMK AO2 T00720000
93073KASE ASE20160602012010406/02/16 01:20:31  5-MIN KASE 020820Z 22007KT 10SM CLR 07/00 A3028 7510 62 8300 210/07 RMK AO2 T00670000
93073KASE ASE20160602012510406/02/16 01:25:31  5-MIN KASE 020825Z 21006KT 10SM CLR 07/00 A3028 7510 60 8400 210/06 RMK AO2 T00720000
93073KASE ASE20160602013010406/02/16 01:30:31  5-MIN KASE 020830Z 21006KT 10SM CLR 08/00 A3028 7510 58 8400 200/06 RMK AO2 T00780000
93073KASE ASE20160602013510406/02/16 01:35:31  5-MIN KASE 020835Z 19006KT 10SM CLR 07/00 A3028 7510 60 8400 180/06 RMK AO2 T00720000
93073KASE ASE20160602014010406/02/16 01:40:31  5-MIN KASE 020840Z 22008KT 10SM CLR 06/00 A3028 7510 65 8200 210/08 RMK AO2 T00610000
93073KASE ASE20160602014510406/02/16 01:45:31  5-MIN KASE 020845Z 22009KT 10SM CLR 06/00 A3028 7510 67 8200 210/09 RMK AO2 T00560000
93073KASE ASE20160602015011706/02/16 01:50:31  5-MIN KASE 020850Z 22007KT 10SM CLR 06/00 A3028 7510 65 8200 210/07 RMK AO2 SLP151 T00610000 51022
93073KASE ASE20160602015510406/02/16 01:55:31  5-MIN KASE 020855Z 19006KT 10SM CLR 07/00 A3029 7500 62 8300 180/06 RMK AO2 T00670000
93073KASE ASE20160602020010406/02/16 02:00:31  5-MIN KASE 020900Z 20007KT 10SM CLR 07/00 A3029 7500 62 8300 190/07 RMK AO2 T00670000
93073KASE ASE20160602020510406/02/16 02:05:31  5-MIN KASE 020905Z 20006KT 10SM CLR 07/00 A3029 7500 62 8300 190/06 RMK AO2 T00670000
93073KASE ASE20160602021010406/02/16 02:10:31  5-MIN KASE 020910Z 20008KT 10SM CLR 06/00 A3028 7510 67 8200 200/08 RMK AO2 T00560000
93073KASE ASE20160602021510406/02/16 02:15:31  5-MIN KASE 020915Z 21011KT 10SM CLR 06/00 A3028 7510 67 8200 200/11 RMK AO2 T00560000
93073KASE ASE20160602022010406/02/16 02:20:31  5-MIN KASE 020920Z 21008KT 10SM CLR 07/00 A3029 7500 62 8300 200/08 RMK AO2 T00670000
93073KASE ASE20160602022510406/02/16 02:25:31  5-MIN KASE 020925Z 20006KT 10SM CLR 07/00 A3029 7500 60 8400 190/06 RMK AO2 T00720000
93073KASE ASE20160602023010406/02/16 02:30:31  5-MIN KASE 020930Z 20006KT 10SM CLR 07/00 A3029 7500 62 8300 190/06 RMK AO2 T00670000
93073KASE ASE20160602023510406/02/16 02:35:31  5-MIN KASE 020935Z 20007KT 10SM CLR 07/00 A3029 7500 62 8300 200/07 RMK AO2 T00670000
93073KASE ASE20160602024010406/02/16 02:40:31  5-MIN KASE 020940Z 22006KT 10SM CLR 07/00 A3029 7500 62 8300 210/06 RMK AO2 T00670000
93073KASE ASE20160602024510406/02/16 02:45:31  5-MIN KASE 020945Z 21006KT 10SM CLR 07/00 A3029 7510 62 8300 200/06 RMK AO2 T00670000
93073KASE ASE20160602025011106/02/16 02:50:31  5-MIN KASE 020950Z 19005KT 10SM CLR 07/00 A3029 7500 62 8300 180/05 RMK AO2 SLP148 T00670000
93073KASE ASE20160602025510406/02/16 02:55:31  5-MIN KASE 020955Z 20004KT 10SM CLR 06/00 A3029 7500 65 8200 190/04 RMK AO2 T00610000
93073KASE ASE20160602030010406/02/16 03:00:31  5-MIN KASE 021000Z 21006KT 10SM CLR 06/00 A3029 7500 65 8200 200/06 RMK AO2 T00610000
93073KASE ASE20160602030510406/02/16 03:05:31  5-MIN KASE 021005Z 21005KT 10SM CLR 06/00 A3029 7500 65 8200 200/05 RMK AO2 T00610000
93073KASE ASE20160602031010406/02/16 03:10:31  5-MIN KASE 021010Z 19005KT 10SM CLR 06/00 A3030 7500 65 8200 180/05 RMK AO2 T00610000
93073KASE ASE20160602031510406/02/16 03:15:31  5-MIN KASE 021015Z 20005KT 10SM CLR 06/00 A3029 7500 65 8200 190/05 RMK AO2 T00610000
93073KASE ASE20160602032010406/02/16 03:20:31  5-MIN KASE 021020Z 21006KT 10SM CLR 05/00 A3030 7490 70 8100 210/06 RMK AO2 T00500000
93073KASE ASE20160602032510406/02/16 03:25:31  5-MIN KASE 021025Z 21007KT 10SM CLR 06/00 A3030 7490 65 8200 200/07 RMK AO2 T00610000
93073KASE ASE20160602033010406/02/16 03:30:31  5-MIN KASE 021030Z 20007KT 10SM CLR 06/00 A3030 7490 67 8200 200/07 RMK AO2 T00560000
93073KASE ASE20160602033510406/02/16 03:35:31  5-MIN KASE 021035Z 20007KT 10SM CLR 06/00 A3030 7490 67 8200 190/07 RMK AO2 T00560000
93073KASE ASE20160602034010406/02/16 03:40:31  5-MIN KASE 021040Z 22008KT 10SM CLR 05/00 A3030 7490 70 8100 210/08 RMK AO2 T00500000
93073KASE ASE20160602034510406/02/16 03:45:31  5-MIN KASE 021045Z 21008KT 10SM CLR 06/00 A3030 7490 67 8200 200/08 RMK AO2 T00560000
93073KASE ASE20160602035011106/02/16 03:50:31  5-MIN KASE 021050Z 22007KT 10SM CLR 06/00 A3030 7490 65 8200 210/07 RMK AO2 SLP152 T00610000
93073KASE ASE20160602035510406/02/16 03:55:31  5-MIN KASE 021055Z 21005KT 10SM CLR 06/00 A3030 7490 65 8200 200/05 RMK AO2 T00610000
93073KASE ASE20160602040010406/02/16 04:00:31  5-MIN KASE 021100Z 19005KT 10SM CLR 07/00 A3030 7490 62 8300 180/05 RMK AO2 T00670000
93073KASE ASE20160602040510406/02/16 04:05:31  5-MIN KASE 021105Z 21007KT 10SM CLR 06/00 A3031 7490 67 8200 200/07 RMK AO2 T00560000
93073KASE ASE20160602041010406/02/16 04:10:31  5-MIN KASE 021110Z 21006KT 10SM CLR 06/00 A3030 7490 67 8200 200/06 RMK AO2 T00560000
93073KASE ASE20160602041510406/02/16 04:15:31  5-MIN KASE 021115Z 19005KT 10SM CLR 06/00 A3030 7490 65 8200 180/05 RMK AO2 T00610000
93073KASE ASE20160602042010406/02/16 04:20:31  5-MIN KASE 021120Z 20005KT 10SM CLR 06/00 A3031 7480 67 8100 190/05 RMK AO2 T00560000
93073KASE ASE20160602042510406/02/16 04:25:31  5-MIN KASE 021125Z 20005KT 10SM CLR 06/00 A3031 7480 67 8100 190/05 RMK AO2 T00560000
93073KASE ASE20160602043010406/02/16 04:30:31  5-MIN KASE 021130Z 21006KT 10SM CLR 06/00 A3031 7480 65 8200 200/06 RMK AO2 T00610000
93073KASE ASE20160602043510406/02/16 04:35:31  5-MIN KASE 021135Z 21006KT 10SM CLR 06/00 A3031 7480 65 8200 200/06 RMK AO2 T00610000
93073KASE ASE20160602044010406/02/16 04:40:31  5-MIN KASE 021140Z 21005KT 10SM CLR 06/00 A3031 7480 65 8200 200/05 RMK AO2 T00610000
93073KASE ASE20160602044510506/02/16 04:45:31  5-MIN KASE 021145Z 21006KT 10SM CLR 06/M01 A3031 7480 65 8100 200/06 RMK AO2 T00561006
93073KASE ASE20160602045013006/02/16 04:50:31  5-MIN KASE 021150Z 21008KT 10SM CLR 06/M01 A3032 7480 65 8100 200/08 RMK AO2 SLP162 T00561006 10100 20050 53008
93073KASE ASE20160602045510506/02/16 04:55:31  5-MIN KASE 021155Z 21006KT 10SM CLR 06/M01 A3032 7480 65 8100 200/06 RMK AO2 T00561006
93073KASE ASE20160602050010506/02/16 05:00:31  5-MIN KASE 021200Z 22005KT 10SM CLR 06/M01 A3032 7480 65 8100 210/05 RMK AO2 T00561006
93073KASE ASE20160602050510506/02/16 05:05:31  5-MIN KASE 021205Z 22005KT 10SM CLR 05/M01 A3032 7480 67 8100 210/05 RMK AO2 T00501006
93073KASE ASE20160602051010506/02/16 05:10:31  5-MIN KASE 021210Z 21007KT 10SM CLR 06/M01 A3032 7470 65 8100 200/07 RMK AO2 T00561006
93073KASE ASE20160602051510506/02/16 05:15:31  5-MIN KASE 021215Z 19006KT 10SM CLR 06/M01 A3032 7480 62 8200 180/06 RMK AO2 T00611006
93073KASE ASE20160602052010506/02/16 05:20:31  5-MIN KASE 021220Z 22006KT 10SM CLR 05/M01 A3032 7480 67 8100 210/06 RMK AO2 T00501006
93073KASE ASE20160602052510506/02/16 05:25:31  5-MIN KASE 021225Z 21005KT 10SM CLR 05/M01 A3032 7470 67 8100 200/05 RMK AO2 T00501006
93073KASE ASE20160602053010506/02/16 05:30:31  5-MIN KASE 021230Z 21006KT 10SM CLR 06/M01 A3032 7470 65 8100 200/06 RMK AO2 T00561006
93073KASE ASE20160602053510506/02/16 05:35:31  5-MIN KASE 021235Z 22006KT 10SM CLR 06/M01 A3032 7470 65 8100 210/06 RMK AO2 T00561006
93073KASE ASE20160602054010406/02/16 05:40:31  5-MIN KASE 021240Z 21003KT 10SM CLR 07/00 A3032 7470 62 8300 200/03 RMK AO2 T00670000
93073KASE ASE20160602054510406/02/16 05:45:31  5-MIN KASE 021245Z 20005KT 10SM CLR 07/00 A3033 7470 60 8300 200/05 RMK AO2 T00720000
93073KASE ASE20160602055011106/02/16 05:50:31  5-MIN KASE 021250Z 20004KT 10SM CLR 08/00 A3033 7470 58 8400 190/04 RMK AO2 SLP163 T00780000
93073KASE ASE20160602055510406/02/16 05:55:31  5-MIN KASE 021255Z 20004KT 10SM CLR 08/00 A3033 7470 55 8400 190/04 RMK AO2 T00830000
93073KASE ASE20160602060010406/02/16 06:00:31  5-MIN KASE 021300Z 20003KT 10SM CLR 08/01 A3033 7460 58 8400 190/03 RMK AO2 T00830006
93073KASE ASE20160602060510406/02/16 06:05:31  5-MIN KASE 021305Z 00000KT 10SM CLR 09/00 A3033 7470 53 8500 000/00 RMK AO2 T00890000
93073KASE ASE20160602061010406/02/16 06:10:31  5-MIN KASE 021310Z 00000KT 10SM CLR 09/00 A3033 7470 53 8500 000/00 RMK AO2 T00890000
93073KASE ASE20160602061510406/02/16 06:15:31  5-MIN KASE 021315Z 00000KT 10SM CLR 09/00 A3033 7470 51 8600 000/00 RMK AO2 T00940000
93073KASE ASE20160602062010406/02/16 06:20:31  5-MIN KASE 021320Z 00000KT 10SM CLR 09/00 A3033 7460 51 8600 000/00 RMK AO2 T00940000
93073KASE ASE20160602062510406/02/16 06:25:31  5-MIN KASE 021325Z 12004KT 10SM CLR 09/00 A3033 7460 51 8600 110/04 RMK AO2 T00940000
93073KASE ASE20160602063010406/02/16 06:30:31  5-MIN KASE 021330Z 14004KT 10SM CLR 09/00 A3033 7460 51 8600 130/04 RMK AO2 T00940000
93073KASE ASE20160602063510506/02/16 06:35:31  5-MIN KASE 021335Z 15003KT 10SM CLR 10/M01 A3033 7460 47 8600 140/03 RMK AO2 T01001006
93073KASE ASE20160602064010406/02/16 06:40:31  5-MIN KASE 021340Z 00000KT 10SM CLR 10/00 A3033 7460 49 8600 000/00 RMK AO2 T01000000
93073KASE ASE20160602064510406/02/16 06:45:31  5-MIN KASE 021345Z 00000KT 10SM CLR 11/00 A3033 7460 48 8700 000/00 RMK AO2 T01060000
93073KASE ASE20160602065011106/02/16 06:50:31  5-MIN KASE 021350Z 12003KT 10SM CLR 11/00 A3033 7460 48 8700 110/03 RMK AO2 SLP161 T01060000
93073KASE ASE20160602065510606/02/16 06:55:31  5-MIN KASE 021355Z 00000KT 5SM HZ CLR 11/00 A3033 7460 46 8800 000/00 RMK AO2 T01110000
93073KASE ASE20160602070010606/02/16 07:00:31  5-MIN KASE 021400Z VRB03KT 5SM HZ CLR 11/00 A3033 7460 46 8800 VRB/03 RMK AO2 T01110000
93073KASE ASE20160602070510406/02/16 07:05:31  5-MIN KASE 021405Z 10003KT 10SM CLR 12/01 A3032 7470 46 8800 090/03 RMK AO2 T01170006
93073KASE ASE20160602071010406/02/16 07:10:31  5-MIN KASE 021410Z VRB03KT 10SM CLR 12/01 A3033 7470 44 8900 VRB/03 RMK AO2 T01220006
93073KASE ASE20160602071510406/02/16 07:15:31  5-MIN KASE 021415Z 00000KT 10SM CLR 12/01 A3033 7470 44 8900 000/00 RMK AO2 T01220006
93073KASE ASE20160602072010406/02/16 07:20:31  5-MIN KASE 021420Z VRB03KT 10SM CLR 12/01 A3033 7470 44 8900 VRB/03 RMK AO2 T01220006
93073KASE ASE20160602072510406/02/16 07:25:31  5-MIN KASE 021425Z 00000KT 10SM CLR 13/01 A3033 7470 43 8900 000/00 RMK AO2 T01280006
93073KASE ASE20160602073010406/02/16 07:30:31  5-MIN KASE 021430Z 00000KT 10SM CLR 13/01 A3033 7460 41 9000 000/00 RMK AO2 T01330006
93073KASE ASE20160602073510406/02/16 07:35:31  5-MIN KASE 021435Z 00000KT 10SM CLR 13/01 A3033 7460 41 9000 000/00 RMK AO2 T01330006
93073KASE ASE20160602074010406/02/16 07:40:31  5-MIN KASE 021440Z 00000KT 10SM CLR 13/01 A3033 7460 41 9000 000/00 RMK AO2 T01330006
93073KASE ASE20160602074510406/02/16 07:45:31  5-MIN KASE 021445Z 00000KT 10SM CLR 14/00 A3033 7460 38 9100 000/00 RMK AO2 T01390000
93073KASE ASE20160602075011706/02/16 07:50:31  5-MIN KASE 021450Z 00000KT 10SM CLR 14/00 A3033 7460 37 9100 000/00 RMK AO2 SLP154 T01440000 53008
93073KASE ASE20160602075510406/02/16 07:55:31  5-MIN KASE 021455Z 00000KT 10SM CLR 14/01 A3033 7470 38 9100 000/00 RMK AO2 T01440006
93073KASE ASE20160602080010406/02/16 08:00:31  5-MIN KASE 021500Z 00000KT 10SM CLR 15/01 A3033 7470 37 9200 000/00 RMK AO2 T01500006
93073KASE ASE20160602080510406/02/16 08:05:31  5-MIN KASE 021505Z 00000KT 10SM CLR 16/01 A3033 7470 36 9300 000/00 RMK AO2 T01560006
93073KASE ASE20160602081010406/02/16 08:10:31  5-MIN KASE 021510Z 00000KT 10SM CLR 16/01 A3033 7470 36 9300 000/00 RMK AO2 T01560006
93073KASE ASE20160602081510406/02/16 08:15:31  5-MIN KASE 021515Z 00000KT 10SM CLR 16/00 A3033 7470 34 9300 000/00 RMK AO2 T01560000
93073KASE ASE20160602082010406/02/16 08:20:31  5-MIN KASE 021520Z 00000KT 10SM CLR 16/01 A3032 7470 36 9300 000/00 RMK AO2 T01560006
93073KASE ASE20160602082510406/02/16 08:25:31  5-MIN KASE 021525Z 06003KT 10SM CLR 16/02 A3032 7470 37 9300 050/03 RMK AO2 T01610017
93073KASE ASE20160602083010406/02/16 08:30:31  5-MIN KASE 021530Z 00000KT 10SM CLR 16/02 A3033 7470 39 9300 000/00 RMK AO2 T01610022
93073KASE ASE20160602083510406/02/16 08:35:31  5-MIN KASE 021535Z 35004KT 10SM CLR 17/03 A3033 7470 37 9400 340/04 RMK AO2 T01720028
93073KASE ASE20160602084010406/02/16 08:40:31  5-MIN KASE 021540Z VRB03KT 10SM CLR 17/02 A3033 7470 36 9400 VRB/03 RMK AO2 T01670017
93073KASE ASE20160602084510406/02/16 08:45:31  5-MIN KASE 021545Z 00000KT 10SM CLR 17/01 A3032 7470 33 9400 000/00 RMK AO2 T01670006
93073KASE ASE20160602085011106/02/16 08:50:31  5-MIN KASE 021550Z 36004KT 10SM CLR 18/01 A3032 7470 32 9500 350/04 RMK AO2 SLP152 T01780011
93073KASE ASE20160602085510506/02/16 08:55:31  5-MIN KASE 021555Z VRB03KT 10SM CLR 18/M01 A3033 7470 27 9600 VRB/03 RMK AO2 T01831006
93073KASE ASE20160602090010406/02/16 09:00:31  5-MIN KASE 021600Z VRB04KT 10SM CLR 18/00 A3032 7470 29 9600 VRB/04 RMK AO2 T01830000
93073KASE ASE20160602090510406/02/16 09:05:31  5-MIN KASE 021605Z VRB04KT 10SM CLR 18/00 A3032 7470 29 9600 VRB/04 RMK AO2 T01830000
93073KASE ASE20160602091010406/02/16 09:10:31  5-MIN KASE 021610Z VRB04KT 10SM CLR 19/00 A3032 7470 28 9600 VRB/04 RMK AO2 T01890000
93073KASE ASE20160602091510406/02/16 09:15:31  5-MIN KASE 021615Z 04007KT 10SM CLR 19/00 A3032 7470 27 9700 030/07 RMK AO2 T01940000
93073KASE ASE20160602092010506/02/16 09:20:31  5-MIN KASE 021620Z VRB04KT 10SM CLR 19/M01 A3032 7470 26 9700 VRB/04 RMK AO2 T01941006
93073KASE ASE20160602092510406/02/16 09:25:31  5-MIN KASE 021625Z VRB06KT 10SM CLR 19/00 A3032 7470 27 9700 VRB/06 RMK AO2 T01940000
93073KASE ASE20160602093010506/02/16 09:30:31  5-MIN KASE 021630Z VRB04KT 10SM CLR 19/M01 A3032 7470 26 9700 VRB/04 RMK AO2 T01941006
93073KASE ASE20160602093510406/02/16 09:35:31  5-MIN KASE 021635Z 03008KT 10SM CLR 20/00 A3032 7470 26 9800 020/08 RMK AO2 T02000000
93073KASE ASE20160602094010406/02/16 09:40:31  5-MIN KASE 021640Z 02006KT 10SM CLR 20/00 A3032 7470 26 9800 010/06 RMK AO2 T02000000
93073KASE ASE20160602094511106/02/16 09:45:31  5-MIN KASE 021645Z 03007G17KT 10SM CLR 19/M01 A3032 7470 26 9700 020/07G17 RMK AO2 T01941006
93073KASE ASE20160602095011806/02/16 09:50:31  5-MIN KASE 021650Z 32015G20KT 10SM CLR 20/M01 A3032 7470 24 9700 310/15G20 RMK AO2 SLP154 T02001011
93073KASE ASE20160602095509506/02/16 09:55:31  5-MIN KASE 021655Z 10SM CLR 19/M02 A3032 7470 24 9700 M /M RMK AO2 T01941017
93073KASE ASE20160602100011106/02/16 10:00:31  5-MIN KASE 021700Z 36012G18KT 10SM CLR 20/M02 A3032 7470 23 9800 350/12G18 RMK AO2 T02001017
93073KASE ASE20160602100511106/02/16 10:05:31  5-MIN KASE 021705Z 33012G18KT 10SM CLR 20/M02 A3032 7470 22 9800 320/12G18 RMK AO2 T02001022
93073KASE ASE20160602101011106/02/16 10:10:31  5-MIN KASE 021710Z 31009G20KT 10SM CLR 21/M02 A3032 7470 22 9800 300/09G20 RMK AO2 T02061017
93073KASE ASE20160602101511106/02/16 10:15:31  5-MIN KASE 021715Z 36009G20KT 10SM CLR 21/M01 A3032 7470 23 9800 350/09G20 RMK AO2 T02061011
93073KASE ASE20160602102012106/02/16 10:20:31  5-MIN KASE 021720Z 34008KT 310V020 10SM CLR 21/M01 A3032 7470 23 9800 340/08 300V010 RMK AO2 T02061011
93073KASE ASE20160602102510506/02/16 10:25:31  5-MIN KASE 021725Z 35011KT 10SM CLR 21/M01 A3032 7470 23 9800 340/11 RMK AO2 T02061011
93073KASE ASE20160602103010406/02/16 10:30:31  5-MIN KASE 021730Z 35010KT 8SM CLR 20/M01 A3031 7480 25 9800 340/10 RMK AO2 T02001006
93073KASE ASE20160602103511006/02/16 10:35:31  5-MIN KASE 021735Z 36012G18KT 8SM CLR 21/M01 A3032 7480 24 9800 350/12G18 RMK AO2 T02061006
93073KASE ASE20160602104012706/02/16 10:40:31  5-MIN KASE 021740Z 34014G20KT 310V020 10SM CLR 21/M01 A3032 7480 23 9800 340/14G20 300V010 RMK AO2 T02061011
93073KASE ASE20160602104511106/02/16 10:45:31  5-MIN KASE 021745Z 01013G20KT 10SM CLR 21/M01 A3032 7480 23 9800 360/13G20 RMK AO2 T02061011
93073KASE ASE20160602105013606/02/16 10:50:31  5-MIN KASE 021750Z 36013G19KT 10SM CLR 21/M01 A3032 7480 24 9800 350/13G19 RMK AO2 SLP155 T02061006 10211 20050 50002
93073KASE ASE20160602105511106/02/16 10:55:31  5-MIN KASE 021755Z 01011G19KT 10SM CLR 21/M01 A3032 7480 22 9900 360/11G19 RMK AO2 T02111011
93073KASE ASE20160602110011106/02/16 11:00:31  5-MIN KASE 021800Z 34015G21KT 10SM CLR 21/M01 A3031 7480 22 9900 330/15G21 RMK AO2 T02111011
93073KASE ASE20160602110511106/02/16 11:05:31  5-MIN KASE 021805Z 01012G21KT 10SM CLR 21/M01 A3031 7480 22 9900 360/12G21 RMK AO2 T02111011
93073KASE ASE20160602111011106/02/16 11:10:31  5-MIN KASE 021810Z 01010G16KT 10SM CLR 21/M01 A3032 7480 22 9900 360/10G16 RMK AO2 T02111011
93073KASE ASE20160602111510506/02/16 11:15:31  5-MIN KASE 021815Z 34011KT 10SM CLR 21/M01 A3032 7480 22 9900 330/11 RMK AO2 T02111011
93073KASE ASE20160602112010506/02/16 11:20:31  5-MIN KASE 021820Z 02012KT 10SM CLR 22/M02 A3031 7480 20 9900 010/12 RMK AO2 T02171017
93073KASE ASE20160602112511106/02/16 11:25:31  5-MIN KASE 021825Z 34010G20KT 10SM CLR 21/M01 A3032 7480 22 9900 330/10G20 RMK AO2 T02111011
93073KASE ASE20160602113011106/02/16 11:30:31  5-MIN KASE 021830Z 33009G20KT 10SM CLR 22/M02 A3032 7480 20 9900 320/09G20 RMK AO2 T02171017
93073KASE ASE20160602113511106/02/16 11:35:31  5-MIN KASE 021835Z 34010G17KT 10SM CLR 22/M02 A3032 7480 20 9900 340/10G17 RMK AO2 T02171017
93073KASE ASE20160602114012706/02/16 11:40:31  5-MIN KASE 021840Z 33008G17KT 290V360 10SM CLR 22/M03 A3032 7480 19 9900 320/08G17 280V350 RMK AO2 T02171028
93073KASE ASE20160602114511106/02/16 11:45:31  5-MIN KASE 021845Z 34013G16KT 10SM CLR 22/M03 A3031 7480 19 9900 330/13G16 RMK AO2 T02171028
93073KASE ASE20160602115011806/02/16 11:50:31  5-MIN KASE 021850Z 35010G19KT 10SM CLR 22/M03 A3031 7480 18 9900 350/10G19 RMK AO2 SLP154 T02171033
93073KASE ASE20160602115511206/02/16 11:55:31  5-MIN KASE 021855Z 35011G19KT 10SM CLR 22/M05 A3031 7480 15 10000 340/11G19 RMK AO2 T02221050
93073KASE ASE20160602120011206/02/16 12:00:31  5-MIN KASE 021900Z 33011G17KT 10SM CLR 22/M04 A3031 7480 16 10000 320/11G17 RMK AO2 T02221044
93073KASE ASE20160602120512706/02/16 12:05:31  5-MIN KASE 021905Z 29007G17KT 260V360 10SM CLR 21/M04 A3031 7480 17 9900 280/07G17 250V350 RMK AO2 T02111044
93073KASE ASE20160602121009506/02/16 12:10:31  5-MIN KASE 021910Z 10SM CLR 22/M04 A3031 7490 17 9900 M /M RMK AO2 T02171039
93073KASE ASE20160602121510606/02/16 12:15:31  5-MIN KASE 021915Z 33007KT 10SM CLR 22/M03 A3031 7480 17 10000 320/07 RMK AO2 T02221033
93073KASE ASE20160602122012806/02/16 12:20:31  5-MIN KASE 021920Z 30010G16KT 250V020 10SM CLR 22/M04 A3030 7490 17 10000 290/10G16 240V010 RMK AO2 T02171039
93073KASE ASE20160602122512806/02/16 12:25:31  5-MIN KASE 021925Z 35009G16KT 280V010 10SM CLR 23/M03 A3030 7490 18 10100 340/09G16 270V360 RMK AO2 T02281028
93073KASE ASE20160602123012806/02/16 12:30:31  5-MIN KASE 021930Z 33009G19KT 270V350 10SM CLR 22/M04 A3030 7490 17 10000 320/09G19 260V340 RMK AO2 T02221039
93073KASE ASE20160602123512806/02/16 12:35:31  5-MIN KASE 021935Z 33011G19KT 290V020 10SM CLR 22/M04 A3030 7490 17 10000 320/11G19 280V010 RMK AO2 T02221039
93073KASE ASE20160602124011206/02/16 12:40:31  5-MIN KASE 021940Z 30007G17KT 10SM CLR 22/M04 A3030 7490 17 10000 290/07G17 RMK AO2 T02221039
93073KASE ASE20160602124511206/02/16 12:45:31  5-MIN KASE 021945Z VRB04G15KT 10SM CLR 22/M03 A3030 7490 17 10000 VRB/04G15 RMK AO2 T02221033
93073KASE ASE20160602125010306/02/16 12:50:31  5-MIN KASE 021950Z 10SM CLR 22/M03 A3030 7490 17 10000 M /M RMK AO2 SLP148 T02221033
93073KASE ASE20160602125510606/02/16 12:55:31  5-MIN KASE 021955Z 36010KT 10SM CLR 23/M03 A3030 7490 17 10100 350/10 RMK AO2 T02281033
93073KASE ASE20160602130011206/02/16 13:00:31  5-MIN KASE 022000Z 32008G20KT 10SM CLR 22/M03 A3030 7490 17 10000 310/08G20 RMK AO2 T02221033
93073KASE ASE20160602130511206/02/16 13:05:31  5-MIN KASE 022005Z 34009G20KT 10SM CLR 23/M03 A3030 7490 17 10100 330/09G20 RMK AO2 T02281033
93073KASE ASE20160602131009606/02/16 13:10:31  5-MIN KASE 022010Z 10SM CLR 23/M03 A3029 7500 18 10100 M /M RMK AO2 T02281028
93073KASE ASE20160602131511206/02/16 13:15:31  5-MIN KASE 022015Z 33013G17KT 10SM CLR 23/M02 A3030 7500 18 10100 320/13G17 RMK AO2 T02331022
93073KASE ASE20160602132011206/02/16 13:20:31  5-MIN KASE 022020Z 32010G17KT 10SM CLR 23/M02 A3029 7500 18 10100 320/10G17 RMK AO2 T02281022
93073KASE ASE20160602132510606/02/16 13:25:31  5-MIN KASE 022025Z 02007KT 10SM CLR 23/M02 A3029 7500 18 10100 020/07 RMK AO2 T02331017
93073KASE ASE20160602133012206/02/16 13:30:31  5-MIN KASE 022030Z 35007KT 320V020 10SM CLR 23/M02 A3029 7500 18 10100 340/07 310V010 RMK AO2 T02281022
93073KASE ASE20160602133512806/02/16 13:35:31  5-MIN KASE 022035Z 31010G16KT 260V010 10SM CLR 24/M02 A3029 7500 17 10200 300/10G16 250V360 RMK AO2 T02391022
93073KASE ASE20160602134011206/02/16 13:40:31  5-MIN KASE 022040Z VRB03G16KT 10SM CLR 23/M03 A3029 7500 16 10100 VRB/03G16 RMK AO2 T02331033
93073KASE ASE20160602134512206/02/16 13:45:31  5-MIN KASE 022045Z 35008KT 330V040 10SM CLR 23/M02 A3029 7500 18 10200 340/08 320V030 RMK AO2 T02331022
93073KASE ASE20160602135014106/02/16 13:50:31  5-MIN KASE 022050Z 30007G16KT 270V340 10SM CLR 23/M03 A3029 7500 17 10200 290/07G16 260V330 RMK AO2 SLP144 T02331028 58004
93073KASE ASE20160602135511206/02/16 13:55:31  5-MIN KASE 022055Z 31009G19KT 10SM CLR 24/M02 A3028 7510 17 10200 310/09G19 RMK AO2 T02391022
93073KASE ASE20160602140011206/02/16 14:00:31  5-MIN KASE 022100Z VRB03G19KT 10SM CLR 23/M03 A3029 7500 17 10100 VRB/03G19 RMK AO2 T02331028
93073KASE ASE20160602140510606/02/16 14:05:31  5-MIN KASE 022105Z 00000KT 10SM CLR 22/M03 A3028 7510 17 10000 000/00 RMK AO2 T02221033
93073KASE ASE20160602141011206/02/16 14:10:31  5-MIN KASE 022110Z 35011G17KT 10SM CLR 24/M03 A3028 7510 16 10200 340/11G17 RMK AO2 T02391028
93073KASE ASE20160602141512806/02/16 14:15:31  5-MIN KASE 022115Z 26007G17KT 230V310 10SM CLR 23/M03 A3028 7510 17 10200 260/07G17 220V300 RMK AO2 T02331028
93073KASE ASE20160602142009606/02/16 14:20:31  5-MIN KASE 022120Z 10SM CLR 23/M03 A3028 7510 17 10200 M /M RMK AO2 T02331028
93073KASE ASE20160602142513106/02/16 14:25:31  5-MIN KASE 022125Z 27009G15KT 240V330 10SM FEW100 24/M03 A3028 7510 16 10300 260/09G15 230V320 RMK AO2 T02441028
93073KASE ASE20160602143013106/02/16 14:30:31  5-MIN KASE 022130Z 26016G21KT 230V320 10SM FEW100 24/M03 A3027 7520 16 10200 250/16G21 220V310 RMK AO2 T02391028
93073KASE ASE20160602143511506/02/16 14:35:31  5-MIN KASE 022135Z VRB06G21KT 10SM FEW100 23/M03 A3028 7510 16 10200 VRB/06G21 RMK AO2 T02331033
93073KASE ASE20160602144013106/02/16 14:40:31  5-MIN KASE 022140Z 31009G15KT 270V350 10SM FEW100 24/M04 A3027 7520 15 10200 300/09G15 260V340 RMK AO2 T02391039
93073KASE ASE20160602144511506/02/16 14:45:31  5-MIN KASE 022145Z 32011G16KT 10SM FEW100 24/M04 A3028 7510 15 10200 310/11G16 RMK AO2 T02391039
93073KASE ASE20160602145013806/02/16 14:50:31  5-MIN KASE 022150Z 27008G16KT 240V320 10SM FEW100 23/M04 A3027 7520 16 10200 260/08G16 230V310 RMK AO2 SLP139 T02331039
93073KASE ASE20160602145512806/02/16 14:55:31  5-MIN KASE 022155Z 34010G16KT 320V020 10SM CLR 23/M04 A3027 7520 16 10100 330/10G16 310V010 RMK AO2 T02281039
93073KASE ASE20160602150011206/02/16 15:00:31  5-MIN KASE 022200Z VRB06G16KT 10SM CLR 23/M04 A3027 7520 16 10100 VRB/06G16 RMK AO2 T02281039
93073KASE ASE20160602150512806/02/16 15:05:31  5-MIN KASE 022205Z 33009G14KT 300V020 10SM CLR 23/M03 A3026 7520 17 10200 330/09G14 290V010 RMK AO2 T02331028
93073KASE ASE20160602151010606/02/16 15:10:31  5-MIN KASE 022210Z VRB03KT 10SM CLR 23/M04 A3026 7520 16 10100 VRB/03 RMK AO2 T02281039
93073KASE ASE20160602151509606/02/16 15:15:31  5-MIN KASE 022215Z 10SM CLR 23/M03 A3026 7520 16 10200 M /M RMK AO2 T02331033
93073KASE ASE20160602152010606/02/16 15:20:31  5-MIN KASE 022220Z 30006KT 10SM CLR 23/M04 A3027 7520 16 10200 290/06 RMK AO2 T02331039
93073KASE ASE20160602152510606/02/16 15:25:31  5-MIN KASE 022225Z 35009KT 10SM CLR 24/M04 A3026 7530 15 10300 340/09 RMK AO2 T02441039
93073KASE ASE20160602153011206/02/16 15:30:31  5-MIN KASE 022230Z VRB04G14KT 10SM CLR 24/M04 A3026 7530 14 10200 VRB/04G14 RMK AO2 T02391044
93073KASE ASE20160602153510606/02/16 15:35:31  5-MIN KASE 022235Z VRB05KT 10SM CLR 23/M04 A3026 7530 16 10200 VRB/05 RMK AO2 T02331039
93073KASE ASE20160602154010606/02/16 15:40:31  5-MIN KASE 022240Z 32006KT 10SM CLR 23/M03 A3026 7530 16 10200 310/06 RMK AO2 T02331033
93073KASE ASE20160602154511206/02/16 15:45:31  5-MIN KASE 022245Z 30009G17KT 10SM CLR 23/M03 A3026 7530 16 10200 300/09G17 RMK AO2 T02331033
93073KASE ASE20160602155011906/02/16 15:50:31  5-MIN KASE 022250Z VRB05G17KT 10SM CLR 22/M04 A3026 7520 16 10100 VRB/05G17 RMK AO2 SLP139 T02221044
93073KASE ASE20160602155512806/02/16 15:55:31  5-MIN KASE 022255Z 33008G15KT 240V010 10SM CLR 23/M04 A3027 7520 16 10100 320/08G15 230V360 RMK AO2 T02281039
93073KASE ASE20160602160010606/02/16 16:00:31  5-MIN KASE 022300Z 28008KT 10SM CLR 23/M04 A3027 7520 16 10100 270/08 RMK AO2 T02281039
93073KASE ASE20160602160510606/02/16 16:05:31  5-MIN KASE 022305Z 26010KT 10SM CLR 23/M04 A3027 7520 16 10100 260/10 RMK AO2 T02281039
93073KASE ASE20160602161010606/02/16 16:10:31  5-MIN KASE 022310Z VRB05KT 10SM CLR 23/M04 A3027 7520 16 10100 VRB/05 RMK AO2 T02281039
93073KASE ASE20160602161511206/02/16 16:15:31  5-MIN KASE 022315Z VRB04G15KT 10SM CLR 23/M04 A3027 7520 16 10100 VRB/04G15 RMK AO2 T02281039
93073KASE ASE20160602162012806/02/16 16:20:31  5-MIN KASE 022320Z 33009G15KT 300V360 10SM CLR 23/M03 A3026 7520 17 10100 330/09G15 290V350 RMK AO2 T02281033
93073KASE ASE20160602162511206/02/16 16:25:31  5-MIN KASE 022325Z 32007G15KT 10SM CLR 23/M04 A3027 7520 16 10200 310/07G15 RMK AO2 T02331039
93073KASE ASE20160602163011206/02/16 16:30:31  5-MIN KASE 022330Z VRB05G22KT 10SM CLR 23/M03 A3027 7520 17 10100 VRB/05G22 RMK AO2 T02281033
93073KASE ASE20160602163511206/02/16 16:35:31  5-MIN KASE 022335Z VRB05G22KT 10SM CLR 23/M03 A3027 7520 17 10200 VRB/05G22 RMK AO2 T02331028
93073KASE ASE20160602164010606/02/16 16:40:31  5-MIN KASE 022340Z 31006KT 10SM CLR 24/M03 A3026 7530 16 10200 310/06 RMK AO2 T02391028
93073KASE ASE20160602164512806/02/16 16:45:31  5-MIN KASE 022345Z 29008G17KT 250V310 10SM CLR 23/M04 A3026 7530 16 10200 280/08G17 240V300 RMK AO2 T02331039
93073KASE ASE20160602165013706/02/16 16:50:31  5-MIN KASE 022350Z 26013G19KT 10SM CLR 23/M04 A3026 7530 16 10100 250/13G19 RMK AO2 SLP137 T02281039 10244 20206 58009
93073KASE ASE20160602165512806/02/16 16:55:31  5-MIN KASE 022355Z 31008G19KT 280V350 10SM CLR 22/M04 A3026 7530 17 10100 300/08G19 270V340 RMK AO2 T02221039
93073KASE ASE20160602170011206/02/16 17:00:31  5-MIN KASE 030000Z 33010G18KT 10SM CLR 22/M04 A3026 7520 16 10100 320/10G18 RMK AO2 T02221044
93073KASE ASE20160602170512806/02/16 17:05:31  5-MIN KASE 030005Z 32008G18KT 290V350 10SM CLR 23/M04 A3026 7530 16 10100 320/08G18 280V340 RMK AO2 T02281039
93073KASE ASE20160602171011206/02/16 17:10:31  5-MIN KASE 030010Z 35011G17KT 10SM CLR 23/M04 A3026 7520 16 10200 340/11G17 RMK AO2 T02331039
93073KASE ASE20160602171510606/02/16 17:15:31  5-MIN KASE 030015Z 33012KT 10SM CLR 23/M03 A3026 7520 16 10200 320/12 RMK AO2 T02331033
93073KASE ASE20160602172010606/02/16 17:20:31  5-MIN KASE 030020Z 33011KT 10SM CLR 23/M03 A3027 7520 17 10100 320/11 RMK AO2 T02281033
93073KASE ASE20160602172510606/02/16 17:25:31  5-MIN KASE 030025Z 32009KT 10SM CLR 23/M03 A3027 7520 16 10200 310/09 RMK AO2 T02331033
93073KASE ASE20160602173011206/02/16 17:30:31  5-MIN KASE 030030Z 34010G16KT 10SM CLR 23/M03 A3027 7520 16 10200 330/10G16 RMK AO2 T02331033
93073KASE ASE20160602173511206/02/16 17:35:31  5-MIN KASE 030035Z 32012G17KT 10SM CLR 23/M04 A3027 7520 16 10100 310/12G17 RMK AO2 T02281044
93073KASE ASE20160602174011206/02/16 17:40:31  5-MIN KASE 030040Z 31011G17KT 10SM CLR 23/M04 A3027 7520 16 10100 300/11G17 RMK AO2 T02281039
93073KASE ASE20160602174511206/02/16 17:45:31  5-MIN KASE 030045Z 31007G15KT 10SM CLR 22/M04 A3027 7520 17 10000 300/07G15 RMK AO2 T02221039
93073KASE ASE20160602175011906/02/16 17:50:31  5-MIN KASE 030050Z 32008G15KT 10SM CLR 23/M04 A3027 7520 16 10100 310/08G15 RMK AO2 SLP135 T02281039
93073KASE ASE20160602175511206/02/16 17:55:31  5-MIN KASE 030055Z 34010G15KT 10SM CLR 23/M03 A3027 7520 17 10100 330/10G15 RMK AO2 T02281033
93073KASE ASE20160602180010606/02/16 18:00:31  5-MIN KASE 030100Z 33011KT 10SM CLR 22/M04 A3027 7520 16 10000 320/11 RMK AO2 T02221044
93073KASE ASE20160602180510606/02/16 18:05:31  5-MIN KASE 030105Z 34009KT 10SM CLR 22/M04 A3027 7520 17 10000 330/09 RMK AO2 T02171044
93073KASE ASE20160602181010606/02/16 18:10:31  5-MIN KASE 030110Z 33008KT 10SM CLR 22/M04 A3027 7520 17 10000 320/08 RMK AO2 T02171039
93073KASE ASE20160602181510506/02/16 18:15:31  5-MIN KASE 030115Z 31009KT 10SM CLR 21/M04 A3028 7510 18 9900 300/09 RMK AO2 T02111039
93073KASE ASE20160602182010506/02/16 18:20:31  5-MIN KASE 030120Z 32010KT 10SM CLR 21/M04 A3028 7510 19 9900 310/10 RMK AO2 T02061039
93073KASE ASE20160602182511006/02/16 18:25:31  5-MIN KASE 030125Z AUTO 32007KT 10SM CLR 20/M03 A3028 7510 20 9800 310/07 RMK AO2 T02001033
93073KASE ASE20160602183011006/02/16 18:30:31  5-MIN KASE 030130Z AUTO 32007KT 10SM CLR 19/M03 A3027 7510 21 9700 310/07 RMK AO2 T01941033
93073KASE ASE20160602183511006/02/16 18:35:31  5-MIN KASE 030135Z AUTO 33007KT 10SM CLR 19/M04 A3028 7510 20 9700 320/07 RMK AO2 T01941039
93073KASE ASE20160602184011006/02/16 18:40:31  5-MIN KASE 030140Z AUTO 30006KT 10SM CLR 19/M03 A3028 7510 22 9700 290/06 RMK AO2 T01891033
93073KASE ASE20160602184511006/02/16 18:45:31  5-MIN KASE 030145Z AUTO 30004KT 10SM CLR 19/M04 A3028 7510 21 9700 300/04 RMK AO2 T01891039
93073KASE ASE20160602185011706/02/16 18:50:31  5-MIN KASE 030150Z AUTO 28004KT 10SM CLR 19/M04 A3028 7510 19 9700 270/04 RMK AO2 SLP143 T01941044
93073KASE ASE20160602185511006/02/16 18:55:31  5-MIN KASE 030155Z AUTO 28005KT 10SM CLR 19/M04 A3028 7510 21 9700 270/05 RMK AO2 T01891039
93073KASE ASE20160602190011006/02/16 19:00:31  5-MIN KASE 030200Z AUTO 26005KT 10SM CLR 18/M03 A3028 7510 22 9600 260/05 RMK AO2 T01831033
93073KASE ASE20160602190511006/02/16 19:05:31  5-MIN KASE 030205Z AUTO 27005KT 10SM CLR 17/M02 A3029 7500 27 9400 260/05 RMK AO2 T01671022
93073KASE ASE20160602191011006/02/16 19:10:31  5-MIN KASE 030210Z AUTO 26006KT 10SM CLR 16/M02 A3029 7500 28 9400 260/06 RMK AO2 T01611022
93073KASE ASE20160602191510906/02/16 19:15:31  5-MIN KASE 030215Z AUTO 25003KT 7SM CLR 14/M01 A3029 7500 34 9200 240/03 RMK AO2 T01441011
93073KASE ASE20160602192010906/02/16 19:20:31  5-MIN KASE 030220Z AUTO 00000KT 7SM CLR 15/M01 A3029 7500 34 9200 000/00 RMK AO2 T01501006
93073KASE ASE20160602192511006/02/16 19:25:31  5-MIN KASE 030225Z AUTO 13004KT 10SM CLR 16/M01 A3029 7500 33 9300 120/04 RMK AO2 T01561006
93073KASE ASE20160602193011006/02/16 19:30:31  5-MIN KASE 030230Z AUTO 00000KT 10SM CLR 15/M01 A3029 7500 34 9200 000/00 RMK AO2 T01501006
93073KASE ASE20160602193511006/02/16 19:35:31  5-MIN KASE 030235Z AUTO 18005KT 10SM CLR 13/M01 A3029 7500 38 9000 170/05 RMK AO2 T01331006
93073KASE ASE20160602194010906/02/16 19:40:31  5-MIN KASE 030240Z AUTO 18006KT 10SM CLR 13/01 A3030 7490 41 9000 170/06 RMK AO2 T01330006
93073KASE ASE20160602194510906/02/16 19:45:31  5-MIN KASE 030245Z AUTO 20006KT 10SM CLR 13/01 A3030 7490 43 9000 200/06 RMK AO2 T01280006
93073KASE ASE20160602195012206/02/16 19:50:31  5-MIN KASE 030250Z AUTO 23004KT 10SM CLR 12/01 A3030 7490 44 8900 220/04 RMK AO2 SLP159 T01220006 56006
93073KASE ASE20160602195510906/02/16 19:55:31  5-MIN KASE 030255Z AUTO 22004KT 10SM CLR 12/00 A3030 7490 44 8800 210/04 RMK AO2 T01170000
93073KASE ASE20160602200011206/02/16 20:00:31  5-MIN KASE 030300Z AUTO 22003KT 10SM SCT110 13/00 A3030 7490 41 9000 210/03 RMK AO2 T01280000
93073KASE ASE20160602200511206/02/16 20:05:31  5-MIN KASE 030305Z AUTO 21003KT 10SM SCT110 13/00 A3031 7480 41 9000 200/03 RMK AO2 T01280000
93073KASE ASE20160602201011206/02/16 20:10:31  5-MIN KASE 030310Z AUTO 22005KT 10SM FEW110 13/00 A3031 7480 41 9000 210/05 RMK AO2 T01280000
93073KASE ASE20160602201511206/02/16 20:15:31  5-MIN KASE 030315Z AUTO 21005KT 10SM FEW110 13/00 A3031 7480 41 9000 200/05 RMK AO2 T01280000
93073KASE ASE20160602202011206/02/16 20:20:31  5-MIN KASE 030320Z AUTO 20006KT 10SM FEW110 13/00 A3032 7480 40 9000 190/06 RMK AO2 T01330000
93073KASE ASE20160602202511206/02/16 20:25:31  5-MIN KASE 030325Z AUTO 21007KT 10SM FEW110 13/00 A3032 7480 41 9000 200/07 RMK AO2 T01280000
93073KASE ASE20160602203011006/02/16 20:30:31  5-MIN KASE 030330Z AUTO 21008KT 10SM CLR 13/M01 A3032 7470 38 9000 200/08 RMK AO2 T01331006
93073KASE ASE20160602203511006/02/16 20:35:31  5-MIN KASE 030335Z AUTO 21008KT 10SM CLR 13/M01 A3032 7470 39 9000 200/08 RMK AO2 T01281006
93073KASE ASE20160602204011006/02/16 20:40:31  5-MIN KASE 030340Z AUTO 21008KT 10SM CLR 13/M01 A3032 7470 39 9000 200/08 RMK AO2 T01281006
93073KASE ASE20160602204511006/02/16 20:45:31  5-MIN KASE 030345Z AUTO 20007KT 10SM CLR 13/M01 A3033 7470 39 8900 190/07 RMK AO2 T01281006
93073KASE ASE20160602205011706/02/16 20:50:31  5-MIN KASE 030350Z AUTO 21007KT 10SM CLR 13/M01 A3033 7470 39 8900 200/07 RMK AO2 SLP157 T01281006
93073KASE ASE20160602205511006/02/16 20:55:31  5-MIN KASE 030355Z AUTO 20006KT 10SM CLR 13/M01 A3033 7460 39 8900 190/06 RMK AO2 T01281006
93073KASE ASE20160602210011006/02/16 21:00:31  5-MIN KASE 030400Z AUTO 20007KT 10SM CLR 13/M01 A3033 7460 39 8900 190/07 RMK AO2 T01281006
93073KASE ASE20160602210511006/02/16 21:05:31  5-MIN KASE 030405Z AUTO 20008KT 10SM CLR 12/M01 A3034 7460 41 8900 190/08 RMK AO2 T01221006
93073KASE ASE20160602211011006/02/16 21:10:31  5-MIN KASE 030410Z AUTO 20007KT 10SM CLR 13/M01 A3034 7460 39 8900 190/07 RMK AO2 T01281006
93073KASE ASE20160602211511006/02/16 21:15:31  5-MIN KASE 030415Z AUTO 21008KT 10SM CLR 13/M01 A3034 7460 39 8900 200/08 RMK AO2 T01281006
93073KASE ASE20160602212011006/02/16 21:20:31  5-MIN KASE 030420Z AUTO 21009KT 10SM CLR 12/M01 A3034 7460 39 8900 200/09 RMK AO2 T01221011
93073KASE ASE20160602212511006/02/16 21:25:31  5-MIN KASE 030425Z AUTO 21009KT 10SM CLR 12/M01 A3033 7460 42 8800 200/09 RMK AO2 T01171006
93073KASE ASE20160602213011006/02/16 21:30:31  5-MIN KASE 030430Z AUTO 20008KT 10SM CLR 12/M01 A3033 7460 42 8800 190/08 RMK AO2 T01171006
93073KASE ASE20160602213511006/02/16 21:35:31  5-MIN KASE 030435Z AUTO 20009KT 10SM CLR 12/M01 A3033 7460 41 8900 190/09 RMK AO2 T01221006
93073KASE ASE20160602214011006/02/16 21:40:31  5-MIN KASE 030440Z AUTO 20008KT 10SM CLR 12/M01 A3033 7460 39 8900 190/08 RMK AO2 T01221011
93073KASE ASE20160602214511006/02/16 21:45:31  5-MIN KASE 030445Z AUTO 20009KT 10SM CLR 12/M01 A3033 7460 42 8800 190/09 RMK AO2 T01171006
93073KASE ASE20160602215011706/02/16 21:50:31  5-MIN KASE 030450Z AUTO 21009KT 10SM CLR 11/M01 A3033 7460 44 8800 200/09 RMK AO2 SLP158 T01111006
93073KASE ASE20160602215511006/02/16 21:55:31  5-MIN KASE 030455Z AUTO 21008KT 10SM CLR 11/M01 A3033 7460 46 8700 200/08 RMK AO2 T01061006
93073KASE ASE20160602220011006/02/16 22:00:31  5-MIN KASE 030500Z AUTO 21009KT 10SM CLR 11/M01 A3033 7460 46 8700 200/09 RMK AO2 T01061006
93073KASE ASE20160602220511006/02/16 22:05:31  5-MIN KASE 030505Z AUTO 21009KT 10SM CLR 11/M01 A3033 7460 44 8800 200/09 RMK AO2 T01111006
93073KASE ASE20160602221011006/02/16 22:10:31  5-MIN KASE 030510Z AUTO 21008KT 10SM CLR 11/M01 A3033 7460 44 8800 200/08 RMK AO2 T01111006
93073KASE ASE20160602221511006/02/16 22:15:31  5-MIN KASE 030515Z AUTO 20007KT 10SM CLR 11/M01 A3033 7460 46 8700 190/07 RMK AO2 T01061006
93073KASE ASE20160602222011006/02/16 22:20:31  5-MIN KASE 030520Z AUTO 21009KT 10SM CLR 10/M01 A3033 7460 47 8600 200/09 RMK AO2 T01001006
93073KASE ASE20160602222511006/02/16 22:25:31  5-MIN KASE 030525Z AUTO 21010KT 10SM CLR 10/M01 A3033 7460 47 8600 200/10 RMK AO2 T01001006
93073KASE ASE20160602223011006/02/16 22:30:31  5-MIN KASE 030530Z AUTO 21008KT 10SM CLR 10/M01 A3033 7460 47 8600 210/08 RMK AO2 T01001006
93073KASE ASE20160602223511006/02/16 22:35:31  5-MIN KASE 030535Z AUTO 21007KT 10SM CLR 10/M01 A3033 7460 47 8600 200/07 RMK AO2 T01001006
93073KASE ASE20160602224011006/02/16 22:40:31  5-MIN KASE 030540Z AUTO 21007KT 10SM CLR 11/M01 A3033 7460 44 8700 200/07 RMK AO2 T01061011
93073KASE ASE20160602224511306/02/16 22:45:31  5-MIN KASE 030545Z AUTO 21006KT 10SM FEW110 11/M01 A3034 7460 44 8700 200/06 RMK AO2 T01061011
93073KASE ASE20160602225013806/02/16 22:50:31  5-MIN KASE 030550Z AUTO 19006KT 10SM SCT110 11/M01 A3034 7460 44 8700 180/06 RMK AO2 SLP161 T01061011 10233 20100 53013
93073KASE ASE20160602225511306/02/16 22:55:31  5-MIN KASE 030555Z AUTO 21007KT 10SM BKN110 10/M01 A3034 7450 47 8600 200/07 RMK AO2 T01001006
93073KASE ASE20160602230011306/02/16 23:00:31  5-MIN KASE 030600Z AUTO 21007KT 10SM BKN110 10/M01 A3034 7460 47 8600 200/07 RMK AO2 T01001006
93073KASE ASE20160602230511306/02/16 23:05:31  5-MIN KASE 030605Z AUTO 22008KT 10SM BKN110 09/M01 A3034 7460 49 8600 210/08 RMK AO2 T00941006
93073KASE ASE20160602231011306/02/16 23:10:31  5-MIN KASE 030610Z AUTO 21009KT 10SM BKN110 09/M01 A3034 7450 49 8600 200/09 RMK AO2 T00941006
93073KASE ASE20160602231511306/02/16 23:15:31  5-MIN KASE 030615Z AUTO 21009KT 10SM BKN110 09/M01 A3034 7450 49 8600 200/09 RMK AO2 T00941006
93073KASE ASE20160602232011306/02/16 23:20:31  5-MIN KASE 030620Z AUTO 21008KT 10SM BKN110 10/M01 A3034 7460 47 8600 200/08 RMK AO2 T01001006
93073KASE ASE20160602232511306/02/16 23:25:31  5-MIN KASE 030625Z AUTO 20006KT 10SM BKN110 11/M01 A3034 7460 44 8700 190/06 RMK AO2 T01061011
93073KASE ASE20160602233011306/02/16 23:30:31  5-MIN KASE 030630Z AUTO 19008KT 10SM BKN110 09/M01 A3034 7460 49 8600 180/08 RMK AO2 T00941006
93073KASE ASE20160602233511306/02/16 23:35:31  5-MIN KASE 030635Z AUTO 22009KT 10SM SCT120 09/M01 A3034 7460 49 8600 220/09 RMK AO2 T00941006
93073KASE ASE20160602234011306/02/16 23:40:31  5-MIN KASE 030640Z AUTO 21009KT 10SM SCT120 10/M01 A3034 7460 46 8600 200/09 RMK AO2 T01001011
93073KASE ASE20160602234511306/02/16 23:45:31  5-MIN KASE 030645Z AUTO 20008KT 10SM SCT120 10/M01 A3034 7460 46 8600 190/08 RMK AO2 T01001011
93073KASE ASE20160602235013006/02/16 23:50:31  5-MIN KASE 030650Z AUTO 21008KT 10SM FEW120 09/M01 A3034 7460 47 8600 200/08 RMK AO2 SLP161 T00941011 402440050
93073KASE ASE20160602235511006/02/16 23:55:31  5-MIN KASE 030655Z AUTO 21008KT 10SM CLR 09/M01 A3034 7460 47 8600 200/08 RMK AO2 T00941011
93073KASE ASE20160603000011006/03/16 00:00:31  5-MIN KASE 030700Z AUTO 20007KT 10SM CLR 10/M01 A3033 7460 46 8600 190/07 RMK AO2 T01001011
93073KASE ASE20160603000511006/03/16 00:05:31  5-MIN KASE 030705Z AUTO 21007KT 10SM CLR 10/M01 A3034 7460 46 8600 200/07 RMK AO2 T01001011
93073KASE ASE20160603001011006/03/16 00:10:31  5-MIN KASE 030710Z AUTO 21007KT 10SM CLR 09/M01 A3034 7460 49 8500 200/07 RMK AO2 T00891011
93073KASE ASE20160603001511006/03/16 00:15:31  5-MIN KASE 030715Z AUTO 21008KT 10SM CLR 09/M01 A3033 7460 49 8500 200/08 RMK AO2 T00891011
93073KASE ASE20160603002011006/03/16 00:20:31  5-MIN KASE 030720Z AUTO 21008KT 10SM CLR 08/M01 A3034 7460 51 8400 200/08 RMK AO2 T00831011
93073KASE ASE20160603002511006/03/16 00:25:31  5-MIN KASE 030725Z AUTO 21006KT 10SM CLR 08/M01 A3034 7460 51 8400 200/06 RMK AO2 T00831011
93073KASE ASE20160603003011006/03/16 00:30:31  5-MIN KASE 030730Z AUTO 20008KT 10SM CLR 08/M01 A3033 7460 51 8400 200/08 RMK AO2 T00831011
93073KASE ASE20160603003511006/03/16 00:35:31  5-MIN KASE 030735Z AUTO 21008KT 10SM CLR 08/M01 A3033 7460 51 8400 200/08 RMK AO2 T00831011
93073KASE ASE20160603004011006/03/16 00:40:31  5-MIN KASE 030740Z AUTO 21008KT 10SM CLR 08/M01 A3033 7460 51 8400 200/08 RMK AO2 T00831011
93073KASE ASE20160603004511006/03/16 00:45:31  5-MIN KASE 030745Z AUTO 21007KT 10SM CLR 09/M01 A3033 7460 49 8500 200/07 RMK AO2 T00891011
93073KASE ASE20160603005011706/03/16 00:50:31  5-MIN KASE 030750Z AUTO 20006KT 10SM CLR 08/M01 A3033 7460 51 8400 190/06 RMK AO2 SLP159 T00831011
93073KASE ASE20160603005511006/03/16 00:55:31  5-MIN KASE 030755Z AUTO 21007KT 10SM CLR 08/M01 A3033 7460 51 8400 200/07 RMK AO2 T00831011
93073KASE ASE20160603010011006/03/16 01:00:31  5-MIN KASE 030800Z AUTO 21008KT 10SM CLR 08/M01 A3033 7460 53 8400 200/08 RMK AO2 T00781011
93073KASE ASE20160603010511006/03/16 01:05:31  5-MIN KASE 030805Z AUTO 21007KT 10SM CLR 08/M01 A3033 7470 53 8400 200/07 RMK AO2 T00781011
93073KASE ASE20160603011011006/03/16 01:10:31  5-MIN KASE 030810Z AUTO 20005KT 10SM CLR 08/M01 A3033 7470 51 8400 190/05 RMK AO2 T00831011
93073KASE ASE20160603011511006/03/16 01:15:31  5-MIN KASE 030815Z AUTO 18005KT 10SM CLR 09/M01 A3033 7470 49 8500 170/05 RMK AO2 T00891011
93073KASE ASE20160603012011006/03/16 01:20:31  5-MIN KASE 030820Z AUTO 21006KT 10SM CLR 07/M01 A3032 7470 55 8300 200/06 RMK AO2 T00721011
93073KASE ASE20160603012511006/03/16 01:25:31  5-MIN KASE 030825Z AUTO 21006KT 10SM CLR 08/M01 A3032 7470 53 8400 200/06 RMK AO2 T00781011
93073KASE ASE20160603013011006/03/16 01:30:31  5-MIN KASE 030830Z AUTO 20005KT 10SM CLR 08/M01 A3032 7470 53 8400 190/05 RMK AO2 T00781011
93073KASE ASE20160603013511006/03/16 01:35:31  5-MIN KASE 030835Z AUTO 20006KT 10SM CLR 08/M01 A3032 7470 53 8400 190/06 RMK AO2 T00781011
93073KASE ASE20160603014011006/03/16 01:40:31  5-MIN KASE 030840Z AUTO 22007KT 10SM CLR 08/M01 A3032 7470 53 8400 210/07 RMK AO2 T00781011
93073KASE ASE20160603014511006/03/16 01:45:31  5-MIN KASE 030845Z AUTO 20005KT 10SM CLR 08/M02 A3032 7470 49 8500 190/05 RMK AO2 T00831017
93073KASE ASE20160603015012306/03/16 01:50:31  5-MIN KASE 030850Z AUTO 22009KT 10SM CLR 07/M01 A3032 7480 55 8300 210/09 RMK AO2 SLP154 T00721011 51010
93073KASE ASE20160603015511006/03/16 01:55:31  5-MIN KASE 030855Z AUTO 21007KT 10SM CLR 08/M01 A3032 7480 53 8400 210/07 RMK AO2 T00781011
93073KASE ASE20160603020011006/03/16 02:00:31  5-MIN KASE 030900Z AUTO 19006KT 10SM CLR 08/M02 A3032 7470 49 8500 190/06 RMK AO2 T00831017
93073KASE ASE20160603020511006/03/16 02:05:31  5-MIN KASE 030905Z AUTO 21004KT 10SM CLR 08/M01 A3032 7470 53 8400 200/04 RMK AO2 T00781011
93073KASE ASE20160603021011006/03/16 02:10:31  5-MIN KASE 030910Z AUTO 21005KT 10SM CLR 08/M01 A3032 7470 53 8400 200/05 RMK AO2 T00781011
93073KASE ASE20160603021511006/03/16 02:15:31  5-MIN KASE 030915Z AUTO 20007KT 10SM CLR 07/M01 A3032 7470 60 8300 190/07 RMK AO2 T00671006
93073KASE ASE20160603022011006/03/16 02:20:31  5-MIN KASE 030920Z AUTO 19004KT 10SM CLR 07/M01 A3033 7470 60 8300 180/04 RMK AO2 T00671006
93073KASE ASE20160603022511006/03/16 02:25:31  5-MIN KASE 030925Z AUTO 20005KT 10SM CLR 06/M01 A3033 7470 62 8200 200/05 RMK AO2 T00611006
93073KASE ASE20160603023011006/03/16 02:30:31  5-MIN KASE 030930Z AUTO 20004KT 10SM CLR 07/M01 A3032 7470 55 8300 190/04 RMK AO2 T00721011
93073KASE ASE20160603023511006/03/16 02:35:31  5-MIN KASE 030935Z AUTO 19007KT 10SM CLR 07/M01 A3032 7470 55 8300 180/07 RMK AO2 T00721011
93073KASE ASE20160603024011006/03/16 02:40:31  5-MIN KASE 030940Z AUTO 19006KT 10SM CLR 07/M01 A3033 7470 57 8300 190/06 RMK AO2 T00671011
93073KASE ASE20160603024511006/03/16 02:45:31  5-MIN KASE 030945Z AUTO 20005KT 10SM CLR 07/M01 A3033 7470 55 8300 190/05 RMK AO2 T00721011
93073KASE ASE20160603025011706/03/16 02:50:31  5-MIN KASE 030950Z AUTO 20005KT 10SM CLR 07/M01 A3033 7460 57 8300 190/05 RMK AO2 SLP161 T00671011
93073KASE ASE20160603025511006/03/16 02:55:31  5-MIN KASE 030955Z AUTO 21005KT 10SM CLR 07/M01 A3033 7460 57 8200 200/05 RMK AO2 T00671011
93073KASE ASE20160603030011006/03/16 03:00:31  5-MIN KASE 031000Z AUTO 21004KT 10SM CLR 06/M01 A3033 7460 60 8200 200/04 RMK AO2 T00611011
93073KASE ASE20160603030511006/03/16 03:05:31  5-MIN KASE 031005Z AUTO 16003KT 10SM CLR 06/M01 A3034 7460 60 8200 150/03 RMK AO2 T00611011
93073KASE ASE20160603031011006/03/16 03:10:31  5-MIN KASE 031010Z AUTO 18004KT 10SM CLR 06/M01 A3034 7450 62 8100 170/04 RMK AO2 T00561011
93073KASE ASE20160603031511006/03/16 03:15:31  5-MIN KASE 031015Z AUTO VRB03KT 10SM CLR 04/M01 A3034 7450 73 7900 VRB/03 RMK AO2 T00391006
93073KASE ASE20160603032011006/03/16 03:20:31  5-MIN KASE 031020Z AUTO 21004KT 10SM CLR 04/M01 A3035 7450 70 8000 200/04 RMK AO2 T00441006
93073KASE ASE20160603032511006/03/16 03:25:31  5-MIN KASE 031025Z AUTO 20003KT 10SM CLR 04/M01 A3035 7450 73 7900 190/03 RMK AO2 T00391006
93073KASE ASE20160603033011006/03/16 03:30:31  5-MIN KASE 031030Z AUTO 21003KT 10SM CLR 04/M01 A3036 7440 70 8000 200/03 RMK AO2 T00441006
93073KASE ASE20160603033511006/03/16 03:35:31  5-MIN KASE 031035Z AUTO 19003KT 10SM CLR 04/M01 A3035 7440 73 7900 180/03 RMK AO2 T00391006
93073KASE ASE20160603034011006/03/16 03:40:31  5-MIN KASE 031040Z AUTO 19003KT 10SM CLR 04/M01 A3036 7440 70 8000 180/03 RMK AO2 T00441006
93073KASE ASE20160603034511006/03/16 03:45:31  5-MIN KASE 031045Z AUTO 17009KT 10SM CLR 06/M01 A3036 7430 65 8100 160/09 RMK AO2 T00561006
93073KASE ASE20160603035011706/03/16 03:50:31  5-MIN KASE 031050Z AUTO 18008KT 10SM CLR 06/M01 A3036 7430 65 8100 170/08 RMK AO2 SLP178 T00561006
93073KASE ASE20160603035511006/03/16 03:55:31  5-MIN KASE 031055Z AUTO 19007KT 10SM CLR 06/M01 A3036 7430 60 8200 180/07 RMK AO2 T00611011
93073KASE ASE20160603040011006/03/16 04:00:31  5-MIN KASE 031100Z AUTO 18005KT 10SM CLR 06/M01 A3036 7430 62 8100 170/05 RMK AO2 T00611006
93073KASE ASE20160603040511006/03/16 04:05:31  5-MIN KASE 031105Z AUTO 20005KT 10SM CLR 06/M01 A3037 7430 65 8100 190/05 RMK AO2 T00561006
93073KASE ASE20160603041011006/03/16 04:10:31  5-MIN KASE 031110Z AUTO 19004KT 10SM CLR 06/M01 A3036 7430 60 8200 190/04 RMK AO2 T00611011
93073KASE ASE20160603041511006/03/16 04:15:31  5-MIN KASE 031115Z AUTO 17004KT 10SM CLR 06/M01 A3036 7430 62 8100 160/04 RMK AO2 T00611006
93073KASE ASE20160603042011006/03/16 04:20:31  5-MIN KASE 031120Z AUTO 19005KT 10SM CLR 06/M01 A3037 7430 65 8100 180/05 RMK AO2 T00561006
93073KASE ASE20160603042511006/03/16 04:25:31  5-MIN KASE 031125Z AUTO 20004KT 10SM CLR 05/M01 A3037 7430 67 8000 190/04 RMK AO2 T00501006
93073KASE ASE20160603043011006/03/16 04:30:31  5-MIN KASE 031130Z AUTO 13004KT 10SM CLR 06/M01 A3037 7430 65 8100 120/04 RMK AO2 T00561006
93073KASE ASE20160603043511006/03/16 04:35:31  5-MIN KASE 031135Z AUTO 17005KT 10SM CLR 06/M01 A3037 7420 62 8100 160/05 RMK AO2 T00611006
93073KASE ASE20160603044011006/03/16 04:40:31  5-MIN KASE 031140Z AUTO 17004KT 10SM CLR 06/M01 A3038 7420 65 8100 160/04 RMK AO2 T00561006
93073KASE ASE20160603044511006/03/16 04:45:31  5-MIN KASE 031145Z AUTO 22004KT 10SM CLR 04/M01 A3037 7420 70 7900 210/04 RMK AO2 T00441006
93073KASE ASE20160603045013506/03/16 04:50:31  5-MIN KASE 031150Z AUTO 18004KT 10SM CLR 04/M01 A3038 7420 70 7900 170/04 RMK AO2 SLP184 T00441006 10106 20039 58006
93073KASE ASE20160603045511006/03/16 04:55:31  5-MIN KASE 031155Z AUTO 19006KT 10SM CLR 04/M01 A3038 7420 70 7900 180/06 RMK AO2 T00441006
93073KASE ASE20160603050011006/03/16 05:00:31  5-MIN KASE 031200Z AUTO 17006KT 10SM CLR 04/M01 A3037 7420 70 7900 160/06 RMK AO2 T00441006
93073KASE ASE20160603050510906/03/16 05:05:31  5-MIN KASE 031205Z AUTO 18008KT 10SM CLR 05/00 A3037 7430 70 8000 170/08 RMK AO2 T00500000
93073KASE ASE20160603051011006/03/16 05:10:31  5-MIN KASE 031210Z AUTO 18007KT 10SM CLR 06/M01 A3037 7420 62 8100 180/07 RMK AO2 T00611006
93073KASE ASE20160603051510906/03/16 05:15:31  5-MIN KASE 031215Z AUTO 18006KT 10SM CLR 06/00 A3037 7430 65 8100 170/06 RMK AO2 T00610000
93073KASE ASE20160603052010906/03/16 05:20:31  5-MIN KASE 031220Z AUTO 20006KT 10SM CLR 06/00 A3037 7420 65 8100 190/06 RMK AO2 T00610000
93073KASE ASE20160603052510906/03/16 05:25:31  5-MIN KASE 031225Z AUTO 19005KT 10SM CLR 07/00 A3038 7420 62 8200 180/05 RMK AO2 T00670000
93073KASE ASE20160603053010906/03/16 05:30:31  5-MIN KASE 031230Z AUTO 16004KT 10SM CLR 07/00 A3038 7410 60 8300 160/04 RMK AO2 T00720000
93073KASE ASE20160603053510906/03/16 05:35:31  5-MIN KASE 031235Z AUTO 16004KT 10SM CLR 07/00 A3038 7420 60 8300 160/04 RMK AO2 T00720000
93073KASE ASE20160603054010406/03/16 05:40:31  5-MIN KASE 031240Z 17006KT 10SM CLR 06/01 A3038 7410 67 8100 160/06 RMK AO2 T00610006
93073KASE ASE20160603054510406/03/16 05:45:31  5-MIN KASE 031245Z 17007KT 10SM CLR 07/01 A3038 7410 65 8200 160/07 RMK AO2 T00670006
93073KASE ASE20160603055011106/03/16 05:50:31  5-MIN KASE 031250Z 17005KT 10SM CLR 08/00 A3038 7420 58 8300 160/05 RMK AO2 SLP177 T00780000
93073KASE ASE20160603055510406/03/16 05:55:31  5-MIN KASE 031255Z 18006KT 10SM CLR 07/01 A3038 7420 62 8300 170/06 RMK AO2 T00720006
93073KASE ASE20160603060010406/03/16 06:00:31  5-MIN KASE 031300Z 19006KT 10SM CLR 08/01 A3038 7420 60 8300 180/06 RMK AO2 T00780006
93073KASE ASE20160603060510406/03/16 06:05:31  5-MIN KASE 031305Z 20004KT 10SM CLR 08/01 A3039 7410 62 8300 190/04 RMK AO2 T00780011
93073KASE ASE20160603061010406/03/16 06:10:31  5-MIN KASE 031310Z 18005KT 10SM CLR 08/01 A3038 7410 62 8300 170/05 RMK AO2 T00780011
93073KASE ASE20160603061510406/03/16 06:15:31  5-MIN KASE 031315Z 20004KT 10SM CLR 08/01 A3039 7410 60 8400 190/04 RMK AO2 T00830011
93073KASE ASE20160603062010406/03/16 06:20:31  5-MIN KASE 031320Z 21004KT 10SM CLR 08/01 A3039 7410 58 8400 200/04 RMK AO2 T00830006
93073KASE ASE20160603062510406/03/16 06:25:31  5-MIN KASE 031325Z 18004KT 10SM CLR 09/01 A3039 7410 58 8400 170/04 RMK AO2 T00890011
93073KASE ASE20160603063010406/03/16 06:30:31  5-MIN KASE 031330Z 16004KT 10SM CLR 09/01 A3039 7410 56 8500 150/04 RMK AO2 T00940011
93073KASE ASE20160603063510406/03/16 06:35:31  5-MIN KASE 031335Z 13003KT 10SM CLR 10/01 A3040 7400 54 8600 120/03 RMK AO2 T01000011
93073KASE ASE20160606214510906/06/16 21:45:31  5-MIN KASE 070445Z AUTO 14007KT 10SM CLR 14/04 A3025 7540 52 9200 130/07 RMK AO2 T01390044
93073KASE ASE20160606215011606/06/16 21:50:31  5-MIN KASE 070450Z AUTO 17005KT 10SM CLR 14/04 A3025 7530 52 9200 160/05 RMK AO2 SLP117 T01390044
93073KASE ASE20160606215510906/06/16 21:55:31  5-MIN KASE 070455Z AUTO 20004KT 10SM CLR 12/04 A3026 7530 61 8900 190/04 RMK AO2 T01170044
93073KASE ASE20160606220010906/06/16 22:00:31  5-MIN KASE 070500Z AUTO 22007KT 10SM CLR 12/04 A3025 7530 61 8900 210/07 RMK AO2 T01170044
93073KASE ASE20160606220510906/06/16 22:05:31  5-MIN KASE 070505Z AUTO 20008KT 10SM CLR 12/04 A3025 7540 61 8900 190/08 RMK AO2 T01170044
93073KASE ASE20160606221010906/06/16 22:10:31  5-MIN KASE 070510Z AUTO 22009KT 10SM CLR 11/04 A3025 7540 66 8800 210/09 RMK AO2 T01060044
93073KASE ASE20160606221510906/06/16 22:15:31  5-MIN KASE 070515Z AUTO 22009KT 10SM CLR 11/04 A3025 7540 66 8800 210/09 RMK AO2 T01060044
93073KASE ASE20160606222010906/06/16 22:20:31  5-MIN KASE 070520Z AUTO 20006KT 10SM CLR 11/04 A3025 7540 66 8800 200/06 RMK AO2 T01060044
93073KASE ASE20160606222510906/06/16 22:25:31  5-MIN KASE 070525Z AUTO 17003KT 10SM CLR 11/04 A3025 7540 63 8800 160/03 RMK AO2 T01110044
93073KASE ASE20160606223010906/06/16 22:30:31  5-MIN KASE 070530Z AUTO 21005KT 10SM CLR 12/04 A3025 7540 61 8900 200/05 RMK AO2 T01170044
93073KASE ASE20160606223510906/06/16 22:35:31  5-MIN KASE 070535Z AUTO 22005KT 10SM CLR 11/04 A3025 7540 61 8900 210/05 RMK AO2 T01110039
93073KASE ASE20160606224010906/06/16 22:40:31  5-MIN KASE 070540Z AUTO 21006KT 10SM CLR 11/04 A3024 7540 61 8900 200/06 RMK AO2 T01110039
93073KASE ASE20160606224510906/06/16 22:45:31  5-MIN KASE 070545Z AUTO 19005KT 10SM CLR 11/04 A3024 7550 61 8900 180/05 RMK AO2 T01110039
93073KASE ASE20160606225014006/06/16 22:50:31  5-MIN KASE 070550Z AUTO 20006KT 10SM CLR 11/04 A3024 7540 61 8900 200/06 RMK AO2 SLP113 60000 T01110039 10211 20100 50017
93073KASE ASE20160606225510906/06/16 22:55:31  5-MIN KASE 070555Z AUTO 20006KT 10SM CLR 11/04 A3024 7550 63 8800 190/06 RMK AO2 T01060039
93073KASE ASE20160606230010906/06/16 23:00:31  5-MIN KASE 070600Z AUTO 20005KT 10SM CLR 11/04 A3024 7550 63 8800 190/05 RMK AO2 T01060039
93073KASE ASE20160606230510906/06/16 23:05:31  5-MIN KASE 070605Z AUTO 20004KT 10SM CLR 11/04 A3024 7550 61 8900 200/04 RMK AO2 T01110039
93073KASE ASE20160606231010906/06/16 23:10:31  5-MIN KASE 070610Z AUTO VRB04KT 10SM CLR 11/04 A3024 7550 61 8900 VRB/04 RMK AO2 T01110039
93073KASE ASE20160606231510906/06/16 23:15:31  5-MIN KASE 070615Z AUTO 21005KT 10SM CLR 12/03 A3024 7550 56 8900 200/05 RMK AO2 T01170033
93073KASE ASE20160606232010906/06/16 23:20:31  5-MIN KASE 070620Z AUTO 21005KT 10SM CLR 11/03 A3024 7550 58 8900 200/05 RMK AO2 T01110033
93073KASE ASE20160606232510906/06/16 23:25:31  5-MIN KASE 070625Z AUTO 20005KT 10SM CLR 11/03 A3024 7550 58 8900 190/05 RMK AO2 T01110033
93073KASE ASE20160606233010906/06/16 23:30:31  5-MIN KASE 070630Z AUTO 22006KT 10SM CLR 11/03 A3024 7550 58 8900 210/06 RMK AO2 T01110033
93073KASE ASE20160606233510906/06/16 23:35:31  5-MIN KASE 070635Z AUTO 21003KT 10SM CLR 11/03 A3024 7550 61 8800 200/03 RMK AO2 T01060033
93073KASE ASE20160606234010906/06/16 23:40:31  5-MIN KASE 070640Z AUTO 22005KT 10SM CLR 10/03 A3024 7550 63 8700 210/05 RMK AO2 T01000033
93073KASE ASE20160606234510906/06/16 23:45:31  5-MIN KASE 070645Z AUTO 22006KT 10SM CLR 11/03 A3024 7550 61 8800 210/06 RMK AO2 T01060033
93073KASE ASE20160606235012606/06/16 23:50:31  5-MIN KASE 070650Z AUTO 21006KT 10SM CLR 11/03 A3024 7550 61 8800 200/06 RMK AO2 SLP115 T01060033 402830067
93073KASE ASE20160606235510906/06/16 23:55:31  5-MIN KASE 070655Z AUTO 20005KT 10SM CLR 11/03 A3024 7550 61 8800 190/05 RMK AO2 T01060033
93073KASE ASE20160607000010906/07/16 00:00:31  5-MIN KASE 070700Z AUTO 20005KT 10SM CLR 10/03 A3024 7550 63 8700 190/05 RMK AO2 T01000033
93073KASE ASE20160607000510906/07/16 00:05:31  5-MIN KASE 070705Z AUTO 20006KT 10SM CLR 10/03 A3024 7550 63 8700 200/06 RMK AO2 T01000033
93073KASE ASE20160607001010906/07/16 00:10:31  5-MIN KASE 070710Z AUTO 19007KT 10SM CLR 10/03 A3023 7550 63 8700 180/07 RMK AO2 T01000033
93073KASE ASE20160607001510906/07/16 00:15:31  5-MIN KASE 070715Z AUTO 21007KT 10SM CLR 09/03 A3023 7550 65 8700 200/07 RMK AO2 T00940033
93073KASE ASE20160607002010906/07/16 00:20:31  5-MIN KASE 070720Z AUTO 20007KT 10SM CLR 09/03 A3023 7560 65 8700 200/07 RMK AO2 T00940033
93073KASE ASE20160607002510906/07/16 00:25:31  5-MIN KASE 070725Z AUTO 22007KT 10SM CLR 09/03 A3023 7560 65 8700 210/07 RMK AO2 T00940033
93073KASE ASE20160607003010906/07/16 00:30:31  5-MIN KASE 070730Z AUTO 21005KT 10SM CLR 09/03 A3023 7560 63 8700 200/05 RMK AO2 T00940028
93073KASE ASE20160607003510906/07/16 00:35:31  5-MIN KASE 070735Z AUTO VRB04KT 10SM CLR 10/03 A3023 7560 60 8700 VRB/04 RMK AO2 T01000028
93073KASE ASE20160607004010906/07/16 00:40:31  5-MIN KASE 070740Z AUTO 00000KT 10SM CLR 10/03 A3023 7560 60 8700 000/00 RMK AO2 T01000028
93073KASE ASE20160607004510906/07/16 00:45:31  5-MIN KASE 070745Z AUTO 20003KT 10SM CLR 09/03 A3022 7560 65 8600 190/03 RMK AO2 T00890028
93073KASE ASE20160607005011606/07/16 00:50:31  5-MIN KASE 070750Z AUTO 19003KT 10SM CLR 09/03 A3022 7560 63 8700 180/03 RMK AO2 SLP108 T00940028
93073KASE ASE20160607005510906/07/16 00:55:31  5-MIN KASE 070755Z AUTO 00000KT 10SM CLR 08/03 A3022 7560 68 8600 000/00 RMK AO2 T00830028
93073KASE ASE20160607010010906/07/16 01:00:31  5-MIN KASE 070800Z AUTO 34003KT 10SM CLR 08/03 A3022 7570 68 8600 330/03 RMK AO2 T00830028
93073KASE ASE20160607010510906/07/16 01:05:31  5-MIN KASE 070805Z AUTO 01004KT 10SM CLR 08/03 A3022 7570 70 8500 360/04 RMK AO2 T00780028
93073KASE ASE20160607011010906/07/16 01:10:31  5-MIN KASE 070810Z AUTO 00000KT 10SM CLR 08/03 A3022 7570 70 8500 000/00 RMK AO2 T00780028
93073KASE ASE20160607011510906/07/16 01:15:31  5-MIN KASE 070815Z AUTO 00000KT 10SM CLR 08/03 A3022 7570 70 8500 000/00 RMK AO2 T00780028
93073KASE ASE20160607012010906/07/16 01:20:31  5-MIN KASE 070820Z AUTO 00000KT 10SM CLR 08/03 A3021 7570 70 8500 000/00 RMK AO2 T00780028
93073KASE ASE20160607012510906/07/16 01:25:31  5-MIN KASE 070825Z AUTO 00000KT 10SM CLR 08/03 A3021 7570 70 8500 000/00 RMK AO2 T00780028
93073KASE ASE20160607013010906/07/16 01:30:31  5-MIN KASE 070830Z AUTO 00000KT 10SM CLR 08/03 A3021 7570 70 8500 000/00 RMK AO2 T00780028
93073KASE ASE20160607013510906/07/16 01:35:31  5-MIN KASE 070835Z AUTO 00000KT 10SM CLR 07/03 A3021 7580 73 8500 000/00 RMK AO2 T00720028
93073KASE ASE20160607014010906/07/16 01:40:31  5-MIN KASE 070840Z AUTO 00000KT 10SM CLR 08/02 A3021 7580 68 8500 000/00 RMK AO2 T00780022
93073KASE ASE20160607014510906/07/16 01:45:31  5-MIN KASE 070845Z AUTO 00000KT 10SM CLR 08/03 A3020 7580 70 8500 000/00 RMK AO2 T00780028
93073KASE ASE20160607015012206/07/16 01:50:31  5-MIN KASE 070850Z AUTO 00000KT 10SM CLR 08/03 A3020 7580 70 8500 000/00 RMK AO2 SLP102 T00780028 58004
93073KASE ASE20160607015510906/07/16 01:55:31  5-MIN KASE 070855Z AUTO 00000KT 10SM CLR 09/03 A3020 7590 65 8700 000/00 RMK AO2 T00890028
93073KASE ASE20160607020010906/07/16 02:00:31  5-MIN KASE 070900Z AUTO 00000KT 10SM CLR 08/02 A3020 7580 65 8600 000/00 RMK AO2 T00830022
93073KASE ASE20160607020510906/07/16 02:05:31  5-MIN KASE 070905Z AUTO 14005KT 10SM CLR 09/02 A3020 7580 60 8700 130/05 RMK AO2 T00940022
93073KASE ASE20160607021010906/07/16 02:10:31  5-MIN KASE 070910Z AUTO VRB04KT 10SM CLR 12/02 A3020 7580 52 9000 VRB/04 RMK AO2 T01170022
93073KASE ASE20160607021510906/07/16 02:15:31  5-MIN KASE 070915Z AUTO 15006KT 10SM CLR 12/02 A3020 7590 50 9000 150/06 RMK AO2 T01220022
93073KASE ASE20160607022010906/07/16 02:20:31  5-MIN KASE 070920Z AUTO VRB04KT 10SM CLR 12/02 A3020 7590 52 9000 VRB/04 RMK AO2 T01170022
93073KASE ASE20160607022510906/07/16 02:25:31  5-MIN KASE 070925Z AUTO 16006KT 10SM CLR 12/02 A3020 7590 48 9000 150/06 RMK AO2 T01220017
93073KASE ASE20160607023010906/07/16 02:30:31  5-MIN KASE 070930Z AUTO VRB04KT 10SM CLR 12/02 A3020 7590 50 9000 VRB/04 RMK AO2 T01220022
93073KASE ASE20160607023510906/07/16 02:35:31  5-MIN KASE 070935Z AUTO 17006KT 10SM CLR 13/02 A3019 7590 46 9100 160/06 RMK AO2 T01280017
93073KASE ASE20160607024010906/07/16 02:40:31  5-MIN KASE 070940Z AUTO 19009KT 10SM CLR 11/02 A3020 7590 54 8900 180/09 RMK AO2 T01110022
93073KASE ASE20160607024510906/07/16 02:45:31  5-MIN KASE 070945Z AUTO 18008KT 10SM CLR 11/02 A3019 7590 54 8900 170/08 RMK AO2 T01110022
93073KASE ASE20160607025011606/07/16 02:50:31  5-MIN KASE 070950Z AUTO 20008KT 10SM CLR 11/02 A3019 7590 54 8900 190/08 RMK AO2 SLP091 T01110022
93073KASE ASE20160607025510906/07/16 02:55:31  5-MIN KASE 070955Z AUTO 22006KT 10SM CLR 11/02 A3020 7590 54 8900 210/06 RMK AO2 T01110022
93073KASE ASE20160607030010906/07/16 03:00:31  5-MIN KASE 071000Z AUTO 24004KT 10SM CLR 11/02 A3020 7580 56 8800 230/04 RMK AO2 T01060022
93073KASE ASE20160607030510906/07/16 03:05:31  5-MIN KASE 071005Z AUTO 33006KT 10SM CLR 08/02 A3020 7580 65 8600 320/06 RMK AO2 T00830022
93073KASE ASE20160607031010906/07/16 03:10:31  5-MIN KASE 071010Z AUTO 34004KT 10SM CLR 07/02 A3020 7580 70 8500 330/04 RMK AO2 T00720022
93073KASE ASE20160607031510906/07/16 03:15:31  5-MIN KASE 071015Z AUTO 30004KT 10SM CLR 07/02 A3020 7580 70 8500 290/04 RMK AO2 T00720022
93073KASE ASE20160607032010906/07/16 03:20:31  5-MIN KASE 071020Z AUTO 31004KT 10SM CLR 07/02 A3021 7580 70 8500 300/04 RMK AO2 T00720022
93073KASE ASE20160607032510906/07/16 03:25:31  5-MIN KASE 071025Z AUTO 31004KT 10SM CLR 07/02 A3021 7570 70 8400 300/04 RMK AO2 T00720022
93073KASE ASE20160607033010906/07/16 03:30:31  5-MIN KASE 071030Z AUTO 34003KT 10SM CLR 08/02 A3022 7570 68 8500 330/03 RMK AO2 T00780022
93073KASE ASE20160607033510906/07/16 03:35:31  5-MIN KASE 071035Z AUTO 00000KT 10SM CLR 08/02 A3021 7580 68 8500 000/00 RMK AO2 T00780022
93073KASE ASE20160607034010906/07/16 03:40:31  5-MIN KASE 071040Z AUTO 25005KT 10SM CLR 08/02 A3020 7580 68 8500 240/05 RMK AO2 T00780022
93073KASE ASE20160607034510906/07/16 03:45:31  5-MIN KASE 071045Z AUTO 00000KT 10SM CLR 07/02 A3021 7570 70 8400 000/00 RMK AO2 T00720022
93073KASE ASE20160607035011606/07/16 03:50:31  5-MIN KASE 071050Z AUTO 06004KT 10SM CLR 07/02 A3021 7580 70 8500 050/04 RMK AO2 SLP118 T00720022
93073KASE ASE20160607035510906/07/16 03:55:31  5-MIN KASE 071055Z AUTO 00000KT 10SM CLR 07/02 A3020 7580 70 8500 000/00 RMK AO2 T00720022
93073KASE ASE20160607040010906/07/16 04:00:31  5-MIN KASE 071100Z AUTO 25003KT 10SM CLR 07/02 A3020 7580 70 8500 240/03 RMK AO2 T00720022
93073KASE ASE20160607040510906/07/16 04:05:31  5-MIN KASE 071105Z AUTO 25003KT 10SM CLR 07/02 A3020 7580 73 8400 240/03 RMK AO2 T00670022
93073KASE ASE20160607041010906/07/16 04:10:31  5-MIN KASE 071110Z AUTO 00000KT 10SM CLR 06/02 A3020 7580 76 8300 000/00 RMK AO2 T00610022
93073KASE ASE20160607041510906/07/16 04:15:31  5-MIN KASE 071115Z AUTO 00000KT 10SM CLR 07/02 A3020 7580 73 8400 000/00 RMK AO2 T00670022
93073KASE ASE20160607042010906/07/16 04:20:31  5-MIN KASE 071120Z AUTO 00000KT 10SM CLR 07/02 A3020 7580 70 8500 000/00 RMK AO2 T00720022
93073KASE ASE20160607042510906/07/16 04:25:31  5-MIN KASE 071125Z AUTO 00000KT 10SM CLR 07/02 A3020 7580 70 8500 000/00 RMK AO2 T00720022
93073KASE ASE20160607043010906/07/16 04:30:31  5-MIN KASE 071130Z AUTO 35003KT 10SM CLR 07/02 A3021 7580 73 8400 340/03 RMK AO2 T00670022
93073KASE ASE20160607043510906/07/16 04:35:31  5-MIN KASE 071135Z AUTO 00000KT 10SM CLR 07/02 A3020 7580 73 8400 000/00 RMK AO2 T00670022
93073KASE ASE20160607044010906/07/16 04:40:31  5-MIN KASE 071140Z AUTO 31003KT 10SM CLR 07/02 A3020 7580 70 8500 300/03 RMK AO2 T00720022
93073KASE ASE20160607044510906/07/16 04:45:31  5-MIN KASE 071145Z AUTO 33003KT 10SM CLR 08/02 A3021 7580 68 8500 320/03 RMK AO2 T00780022
93073KASE ASE20160607045013406/07/16 04:50:31  5-MIN KASE 071150Z AUTO 00000KT 10SM CLR 07/02 A3020 7580 70 8500 000/00 RMK AO2 SLP122 T00720022 10128 20061 58011
93073KASE ASE20160607045510906/07/16 04:55:31  5-MIN KASE 071155Z AUTO 00000KT 10SM CLR 07/02 A3020 7580 70 8500 000/00 RMK AO2 T00720022
93073KASE ASE20160607050010906/07/16 05:00:31  5-MIN KASE 071200Z AUTO 00000KT 10SM CLR 08/02 A3020 7580 68 8500 000/00 RMK AO2 T00780022
93073KASE ASE20160607050510906/07/16 05:05:31  5-MIN KASE 071205Z AUTO 00000KT 10SM CLR 07/02 A3021 7580 70 8500 000/00 RMK AO2 T00720022
93073KASE ASE20160607051010906/07/16 05:10:31  5-MIN KASE 071210Z AUTO 00000KT 10SM CLR 07/03 A3021 7580 73 8500 000/00 RMK AO2 T00720028
93073KASE ASE20160607051510906/07/16 05:15:31  5-MIN KASE 071215Z AUTO 00000KT 10SM CLR 07/03 A3020 7580 73 8500 000/00 RMK AO2 T00720028
93073KASE ASE20160607052010906/07/16 05:20:31  5-MIN KASE 071220Z AUTO 00000KT 10SM CLR 07/03 A3021 7580 73 8500 000/00 RMK AO2 T00720028
93073KASE ASE20160607052510906/07/16 05:25:31  5-MIN KASE 071225Z AUTO 00000KT 10SM CLR 07/03 A3021 7580 73 8500 000/00 RMK AO2 T00720028
93073KASE ASE20160607053010906/07/16 05:30:31  5-MIN KASE 071230Z AUTO 00000KT 10SM CLR 08/03 A3020 7580 70 8500 000/00 RMK AO2 T00780028
93073KASE ASE20160607053510906/07/16 05:35:31  5-MIN KASE 071235Z AUTO 35004KT 10SM CLR 08/03 A3021 7570 70 8500 340/04 RMK AO2 T00780028
93073KASE ASE20160607054010906/07/16 05:40:31  5-MIN KASE 071240Z AUTO 36005KT 10SM CLR 08/03 A3021 7570 70 8500 350/05 RMK AO2 T00780028
93073KASE ASE20160607054510906/07/16 05:45:31  5-MIN KASE 071245Z AUTO 35004KT 10SM CLR 07/03 A3021 7570 76 8400 340/04 RMK AO2 T00670028
93073KASE ASE20160607055011606/07/16 05:50:31  5-MIN KASE 071250Z AUTO 31003KT 10SM CLR 07/03 A3021 7570 73 8400 300/03 RMK AO2 SLP134 T00720028
93073KASE ASE20160607055510406/07/16 05:55:31  5-MIN KASE 071255Z 00000KT 10SM CLR 07/03 A3021 7570 73 8400 000/00 RMK AO2 T00720028
93073KASE ASE20160607060010406/07/16 06:00:31  5-MIN KASE 071300Z 33004KT 10SM CLR 08/03 A3021 7570 70 8500 320/04 RMK AO2 T00780028
93073KASE ASE20160607060510406/07/16 06:05:31  5-MIN KASE 071305Z 00000KT 10SM CLR 08/03 A3021 7580 70 8500 000/00 RMK AO2 T00780028
93073KASE ASE20160607061010406/07/16 06:10:31  5-MIN KASE 071310Z 00000KT 10SM CLR 08/03 A3021 7570 70 8600 000/00 RMK AO2 T00830033
93073KASE ASE20160607061510406/07/16 06:15:31  5-MIN KASE 071315Z 00000KT 10SM CLR 09/03 A3021 7570 68 8600 000/00 RMK AO2 T00890033
93073KASE ASE20160607062010406/07/16 06:20:31  5-MIN KASE 071320Z 00000KT 10SM CLR 09/03 A3021 7570 68 8600 000/00 RMK AO2 T00890033
93073KASE ASE20160607062510406/07/16 06:25:31  5-MIN KASE 071325Z 00000KT 10SM CLR 09/03 A3021 7570 68 8600 000/00 RMK AO2 T00890033
93073KASE ASE20160607063010406/07/16 06:30:31  5-MIN KASE 071330Z 00000KT 10SM CLR 09/03 A3021 7580 63 8700 000/00 RMK AO2 T00940028
93073KASE ASE20160607063510406/07/16 06:35:31  5-MIN KASE 071335Z 00000KT 10SM CLR 10/03 A3020 7580 63 8800 000/00 RMK AO2 T01000033
93073KASE ASE20160607064010406/07/16 06:40:31  5-MIN KASE 071340Z 00000KT 10SM CLR 10/03 A3021 7580 63 8800 000/00 RMK AO2 T01000033
93073KASE ASE20160607064510406/07/16 06:45:31  5-MIN KASE 071345Z 00000KT 10SM CLR 11/03 A3020 7580 61 8800 000/00 RMK AO2 T01060033
93073KASE ASE20160607065011106/07/16 06:50:31  5-MIN KASE 071350Z 00000KT 10SM CLR 11/03 A3020 7580 58 8900 000/00 RMK AO2 SLP121 T01110033
93073KASE ASE20160607065510406/07/16 06:55:31  5-MIN KASE 071355Z 00000KT 10SM CLR 12/03 A3020 7580 56 9000 000/00 RMK AO2 T01170033
93073KASE ASE20160607070010406/07/16 07:00:31  5-MIN KASE 071400Z 00000KT 10SM CLR 12/03 A3020 7580 54 9000 000/00 RMK AO2 T01220033
93073KASE ASE20160607070510406/07/16 07:05:31  5-MIN KASE 071405Z 00000KT 10SM CLR 12/03 A3020 7580 54 9000 000/00 RMK AO2 T01220033
93073KASE ASE20160607071010406/07/16 07:10:31  5-MIN KASE 071410Z 00000KT 10SM CLR 13/03 A3020 7590 52 9100 000/00 RMK AO2 T01280033
93073KASE ASE20160607071510406/07/16 07:15:31  5-MIN KASE 071415Z 00000KT 10SM CLR 13/03 A3020 7590 52 9100 000/00 RMK AO2 T01280033
93073KASE ASE20160607072010406/07/16 07:20:31  5-MIN KASE 071420Z 34003KT 10SM CLR 14/03 A3019 7590 48 9200 330/03 RMK AO2 T01390033
93073KASE ASE20160607072510406/07/16 07:25:31  5-MIN KASE 071425Z 36004KT 10SM CLR 14/04 A3019 7590 50 9200 350/04 RMK AO2 T01390039
93073KASE ASE20160607073010306/07/16 07:30:31  5-MIN KASE 071430Z 01004KT 9SM CLR 14/04 A3019 7590 50 9200 360/04 RMK AO2 T01390039
93073KASE ASE20160607073510306/07/16 07:35:31  5-MIN KASE 071435Z 35004KT 9SM CLR 14/04 A3019 7590 49 9300 340/04 RMK AO2 T01440039
93073KASE ASE20160607074010406/07/16 07:40:31  5-MIN KASE 071440Z 35005KT 10SM CLR 14/04 A3019 7590 51 9300 350/05 RMK AO2 T01440044
93073KASE ASE20160607074510406/07/16 07:45:31  5-MIN KASE 071445Z 36004KT 10SM CLR 15/05 A3020 7590 51 9300 360/04 RMK AO2 T01500050
93073KASE ASE20160607075011706/07/16 07:50:31  5-MIN KASE 071450Z 36005KT 10SM CLR 15/04 A3019 7590 49 9300 350/05 RMK AO2 SLP109 T01500044 53001
93073KASE ASE20160607075510406/07/16 07:55:31  5-MIN KASE 071455Z 35005KT 10SM CLR 16/04 A3019 7590 47 9400 340/05 RMK AO2 T01560044
93073KASE ASE20160607080010406/07/16 08:00:31  5-MIN KASE 071500Z 35005KT 10SM CLR 16/05 A3019 7590 49 9400 340/05 RMK AO2 T01560050
93073KASE ASE20160607080510406/07/16 08:05:31  5-MIN KASE 071505Z 36005KT 10SM CLR 16/05 A3019 7590 49 9400 350/05 RMK AO2 T01560050
93073KASE ASE20160607081010406/07/16 08:10:31  5-MIN KASE 071510Z 34006KT 10SM CLR 17/05 A3019 7590 45 9500 330/06 RMK AO2 T01670050
93073KASE ASE20160607081510406/07/16 08:15:31  5-MIN KASE 071515Z 36005KT 10SM CLR 17/05 A3019 7590 45 9500 350/05 RMK AO2 T01670050
93073KASE ASE20160607082010406/07/16 08:20:31  5-MIN KASE 071520Z 34006KT 10SM CLR 17/05 A3019 7600 45 9500 330/06 RMK AO2 T01670050
93073KASE ASE20160607082510406/07/16 08:25:31  5-MIN KASE 071525Z 34005KT 10SM CLR 17/05 A3019 7600 44 9600 330/05 RMK AO2 T01720050
93073KASE ASE20160607083010406/07/16 08:30:31  5-MIN KASE 071530Z 36006KT 10SM CLR 18/04 A3019 7600 41 9700 350/06 RMK AO2 T01780044
93073KASE ASE20160607083510406/07/16 08:35:31  5-MIN KASE 071535Z 34005KT 10SM CLR 18/05 A3018 7600 42 9700 330/05 RMK AO2 T01780050
93073KASE ASE20160607084010406/07/16 08:40:31  5-MIN KASE 071540Z 35005KT 10SM CLR 18/05 A3018 7600 41 9700 340/05 RMK AO2 T01830050
93073KASE ASE20160607084510406/07/16 08:45:31  5-MIN KASE 071545Z 34005KT 10SM CLR 18/05 A3018 7600 41 9700 330/05 RMK AO2 T01830050
93073KASE ASE20160607085011106/07/16 08:50:31  5-MIN KASE 071550Z 01005KT 10SM CLR 19/04 A3018 7600 38 9800 010/05 RMK AO2 SLP096 T01890044
93073KASE ASE20160607085510406/07/16 08:55:31  5-MIN KASE 071555Z VRB04KT 10SM CLR 19/04 A3018 7600 38 9800 VRB/04 RMK AO2 T01890044
93073KASE ASE20160607090010406/07/16 09:00:31  5-MIN KASE 071600Z 36004KT 10SM CLR 19/04 A3018 7600 38 9800 350/04 RMK AO2 T01890044
93073KASE ASE20160607090510406/07/16 09:05:31  5-MIN KASE 071605Z 34006KT 10SM CLR 19/04 A3017 7610 37 9900 330/06 RMK AO2 T01940044
93073KASE ASE20160607091010406/07/16 09:10:31  5-MIN KASE 071610Z VRB05KT 10SM CLR 20/05 A3017 7610 37 9900 VRB/05 RMK AO2 T02000050
93073KASE ASE20160607091510506/07/16 09:15:31  5-MIN KASE 071615Z 36005KT 10SM CLR 21/05 A3017 7610 35 10000 350/05 RMK AO2 T02060050
93073KASE ASE20160607092010506/07/16 09:20:31  5-MIN KASE 071620Z 35005KT 10SM CLR 21/04 A3017 7620 33 10000 340/05 RMK AO2 T02060039
93073KASE ASE20160607092510506/07/16 09:25:31  5-MIN KASE 071625Z 36005KT 10SM CLR 21/05 A3017 7610 34 10000 350/05 RMK AO2 T02110050
93073KASE ASE20160607093010506/07/16 09:30:31  5-MIN KASE 071630Z 34007KT 10SM CLR 22/06 A3016 7620 34 10100 330/07 RMK AO2 T02170056
93073KASE ASE20160607093510506/07/16 09:35:31  5-MIN KASE 071635Z 34007KT 10SM CLR 22/05 A3016 7620 33 10100 330/07 RMK AO2 T02170050
93073KASE ASE20160607094010506/07/16 09:40:31  5-MIN KASE 071640Z 34007KT 10SM CLR 22/04 A3016 7620 31 10200 330/07 RMK AO2 T02220044
93073KASE ASE20160607094510506/07/16 09:45:31  5-MIN KASE 071645Z 34006KT 10SM CLR 22/05 A3016 7620 32 10200 340/06 RMK AO2 T02220050
93073KASE ASE20160607095011206/07/16 09:50:31  5-MIN KASE 071650Z 36007KT 10SM CLR 22/06 A3016 7620 33 10200 350/07 RMK AO2 SLP082 T02220056
93073KASE ASE20160607095510506/07/16 09:55:31  5-MIN KASE 071655Z 36007KT 10SM CLR 22/06 A3016 7620 33 10200 350/07 RMK AO2 T02220056
93073KASE ASE20160607100010506/07/16 10:00:31  5-MIN KASE 071700Z 35006KT 10SM CLR 23/05 A3016 7620 31 10200 340/06 RMK AO2 T02280050
93073KASE ASE20160607100510506/07/16 10:05:31  5-MIN KASE 071705Z 01007KT 10SM CLR 23/05 A3016 7620 31 10200 360/07 RMK AO2 T02280050
93073KASE ASE20160607101010506/07/16 10:10:31  5-MIN KASE 071710Z 35006KT 10SM CLR 23/05 A3016 7620 30 10300 340/06 RMK AO2 T02330050
93073KASE ASE20160607101510506/07/16 10:15:31  5-MIN KASE 071715Z 36008KT 10SM CLR 24/06 A3016 7620 30 10300 350/08 RMK AO2 T02390056
93073KASE ASE20160607102010506/07/16 10:20:31  5-MIN KASE 071720Z 36008KT 10SM CLR 24/05 A3016 7620 29 10300 350/08 RMK AO2 T02390050
93073KASE ASE20160607102512106/07/16 10:25:31  5-MIN KASE 071725Z 35007KT 330V040 10SM CLR 24/05 A3016 7620 28 10400 340/07 320V030 RMK AO2 T02440050
93073KASE ASE20160607103010506/07/16 10:30:31  5-MIN KASE 071730Z VRB05KT 10SM CLR 25/03 A3016 7620 24 10500 VRB/05 RMK AO2 T02500033
93073KASE ASE20160607103510506/07/16 10:35:31  5-MIN KASE 071735Z VRB04KT 10SM CLR 25/03 A3016 7620 23 10500 VRB/04 RMK AO2 T02500028
93073KASE ASE20160607104010506/07/16 10:40:31  5-MIN KASE 071740Z VRB05KT 10SM CLR 26/03 A3016 7620 22 10500 VRB/05 RMK AO2 T02560028
93073KASE ASE20160607104510506/07/16 10:45:31  5-MIN KASE 071745Z 01007KT 10SM CLR 26/03 A3016 7620 22 10500 360/07 RMK AO2 T02560028
93073KASE ASE20160607105013006/07/16 10:50:31  5-MIN KASE 071750Z VRB05KT 10SM CLR 26/03 A3016 7620 22 10500 VRB/05 RMK AO2 SLP081 T02560028 10256 20067 58003
93073KASE ASE20160607105510506/07/16 10:55:31  5-MIN KASE 071755Z 05006KT 10SM CLR 26/03 A3016 7620 22 10500 040/06 RMK AO2 T02560028
93073KASE ASE20160607110010506/07/16 11:00:31  5-MIN KASE 071800Z 36008KT 10SM CLR 26/03 A3016 7620 21 10600 360/08 RMK AO2 T02610028
93073KASE ASE20160607110510506/07/16 11:05:31  5-MIN KASE 071805Z 34006KT 10SM CLR 26/02 A3016 7620 21 10600 330/06 RMK AO2 T02610022
93073KASE ASE20160607111010506/07/16 11:10:31  5-MIN KASE 071810Z VRB06KT 10SM CLR 26/02 A3015 7630 21 10600 VRB/06 RMK AO2 T02610022
93073KASE ASE20160607111510506/07/16 11:15:31  5-MIN KASE 071815Z 36006KT 10SM CLR 26/02 A3016 7620 21 10600 360/06 RMK AO2 T02610022
93073KASE ASE20160607112010506/07/16 11:20:31  5-MIN KASE 071820Z 35006KT 10SM CLR 26/02 A3016 7620 21 10600 340/06 RMK AO2 T02610022
93073KASE ASE20160607112510506/07/16 11:25:31  5-MIN KASE 071825Z 36007KT 10SM CLR 27/03 A3016 7620 21 10600 350/07 RMK AO2 T02670028
93073KASE ASE20160607113010506/07/16 11:30:31  5-MIN KASE 071830Z 00000KT 10SM CLR 26/02 A3015 7630 21 10600 000/00 RMK AO2 T02610022
93073KASE ASE20160607113510806/07/16 11:35:31  5-MIN KASE 071835Z VRB04KT 10SM FEW095 27/03 A3015 7620 20 10700 VRB/04 RMK AO2 T02720028
93073KASE ASE20160607114010806/07/16 11:40:31  5-MIN KASE 071840Z 33007KT 10SM SCT100 26/03 A3015 7630 21 10600 320/07 RMK AO2 T02610028
93073KASE ASE20160607114510806/07/16 11:45:31  5-MIN KASE 071845Z VRB03KT 10SM SCT100 26/02 A3015 7630 21 10600 VRB/03 RMK AO2 T02610022
93073KASE ASE20160607115010506/07/16 11:50:31  5-MIN KASE 071850Z 10SM FEW100 27/03 A3015 7630 21 10700 M /M RMK AO2 SLP077 T02670028
93073KASE ASE20160607115510806/07/16 11:55:31  5-MIN KASE 071855Z VRB05KT 10SM FEW100 26/02 A3015 7630 21 10600 VRB/05 RMK AO2 T02610022
93073KASE ASE20160607120012406/07/16 12:00:31  5-MIN KASE 071900Z 33007KT 250V010 10SM FEW100 27/02 A3015 7630 19 10700 320/07 240V360 RMK AO2 T02670017
93073KASE ASE20160607120512006/07/16 12:05:31  5-MIN KASE 071905Z 00000KT 10SM FEW100 27/01 A3015 7630 18 10700 000/00 RMK AO2 LTG DSNT SE T02670011
93073KASE ASE20160607121011806/07/16 12:10:31  5-MIN KASE 071910Z 25007KT 10SM CLR 27/M01 A3015 7630 16 10700 250/07 RMK AO2 LTG DSNT SE T02671011
93073KASE ASE20160607121512406/07/16 12:15:31  5-MIN KASE 071915Z 28012G16KT 10SM CLR 27/M03 A3015 7630 13 10700 270/12G16 RMK AO2 LTG DSNT SE T02671033
93073KASE ASE20160607122011206/07/16 12:20:31  5-MIN KASE 071920Z 26010G16KT 10SM CLR 27/M03 A3015 7630 14 10700 260/10G16 RMK AO2 T02671028
93073KASE ASE20160607122512806/07/16 12:25:31  5-MIN KASE 071925Z 29009G16KT 250V330 10SM CLR 27/M03 A3015 7630 13 10700 290/09G16 240V320 RMK AO2 T02671033
93073KASE ASE20160607123014006/07/16 12:30:31  5-MIN KASE 071930Z 24007G15KT 210V290 10SM CLR 26/M04 A3015 7630 13 10600 230/07G15 200V280 RMK AO2 LTG DSNT NW T02611044
93073KASE ASE20160607123510806/07/16 12:35:31  5-MIN KASE 071935Z 10SM CLR 27/M04 A3015 7630 13 10700 M /M RMK AO2 LTG DSNT NW T02671039
93073KASE ASE20160607124011806/07/16 12:40:31  5-MIN KASE 071940Z 00000KT 10SM CLR 26/M04 A3015 7630 13 10600 000/00 RMK AO2 LTG DSNT NW T02611039
93073KASE ASE20160607124509906/07/16 12:45:31  5-MIN KASE 071945Z 10SM SCT085 27/M03 A3015 7630 14 10700 M /M RMK AO2 T02671028
93073KASE ASE20160607125011606/07/16 12:50:31  5-MIN KASE 071950Z VRB06KT 10SM SCT085 27/M03 A3015 7630 14 10700 VRB/06 RMK AO2 SLP079 T02671028
93073KASE ASE20160607125511206/07/16 12:55:31  5-MIN KASE 071955Z 27016G22KT 10SM CLR 27/M04 A3015 7630 13 10700 260/16G22 RMK AO2 T02671039
93073KASE ASE20160607130011206/07/16 13:00:31  5-MIN KASE 072000Z 28010G22KT 10SM CLR 26/M05 A3015 7630 12 10600 270/10G22 RMK AO2 T02611050
93073KASE ASE20160607130514006/07/16 13:05:31  5-MIN KASE 072005Z 26008G16KT 240V300 10SM CLR 26/M04 A3015 7630 13 10600 250/08G16 230V290 RMK AO2 LTG DSNT NE T02611044
93073KASE ASE20160607131012406/07/16 13:10:31  5-MIN KASE 072010Z 26015G21KT 10SM CLR 27/M04 A3015 7630 13 10700 260/15G21 RMK AO2 LTG DSNT NE T02671039
93073KASE ASE20160607131512406/07/16 13:15:31  5-MIN KASE 072015Z 27013G21KT 10SM CLR 27/M05 A3015 7630 12 10700 260/13G21 RMK AO2 LTG DSNT NE T02671050
93073KASE ASE20160607132012406/07/16 13:20:31  5-MIN KASE 072020Z 28013G20KT 10SM CLR 27/M06 A3014 7630 11 10700 270/13G20 RMK AO2 LTG DSNT NE T02671056
93073KASE ASE20160607132512406/07/16 13:25:31  5-MIN KASE 072025Z 25011G20KT 10SM CLR 27/M06 A3014 7640 11 10700 240/11G20 RMK AO2 LTG DSNT NE T02671056
93073KASE ASE20160607133014006/07/16 13:30:31  5-MIN KASE 072030Z 25007G17KT 230V310 10SM CLR 27/M03 A3014 7640 13 10700 250/07G17 220V300 RMK AO2 LTG DSNT NE T02721033
93073KASE ASE20160607133514006/07/16 13:35:31  5-MIN KASE 072035Z 29008G18KT 250V320 10SM CLR 27/M03 A3014 7630 13 10700 280/08G18 240V310 RMK AO2 LTG DSNT NE T02721033
93073KASE ASE20160607134010706/07/16 13:40:31  5-MIN KASE 072040Z 10SM CLR 27/00 A3015 7630 16 10700 M /M RMK AO2 LTG DSNT NE T02720000
93073KASE ASE20160607134510506/07/16 13:45:31  5-MIN KASE 072045Z 34012KT 10SM CLR 27/01 A3014 7640 18 10700 330/12 RMK AO2 T02670006
93073KASE ASE20160607135011806/07/16 13:50:31  5-MIN KASE 072050Z 33012KT 10SM CLR 27/00 A3014 7640 17 10700 320/12 RMK AO2 SLP080 T02670000 56011
93073KASE ASE20160607135510506/07/16 13:55:31  5-MIN KASE 072055Z 35013KT 10SM CLR 27/00 A3014 7640 16 10700 340/13 RMK AO2 T02720000
93073KASE ASE20160607140010606/07/16 14:00:31  5-MIN KASE 072100Z 34010KT 10SM CLR 27/M01 A3014 7640 16 10700 340/10 RMK AO2 T02671006
93073KASE ASE20160607140512206/07/16 14:05:31  5-MIN KASE 072105Z 33009KT 300V010 10SM CLR 26/M01 A3014 7640 16 10600 320/09 290V360 RMK AO2 T02611011
93073KASE ASE20160607141010606/07/16 14:10:31  5-MIN KASE 072110Z VRB05KT 10SM CLR 26/M01 A3014 7640 17 10600 VRB/05 RMK AO2 T02561011
93073KASE ASE20160607141510606/07/16 14:15:31  5-MIN KASE 072115Z VRB04KT 10SM CLR 26/M01 A3014 7640 17 10600 VRB/04 RMK AO2 T02561006
93073KASE ASE20160607142010606/07/16 14:20:31  5-MIN KASE 072120Z VRB03KT 10SM CLR 26/M02 A3013 7640 16 10600 VRB/03 RMK AO2 T02561017
93073KASE ASE20160607142509606/07/16 14:25:31  5-MIN KASE 072125Z 10SM CLR 27/M01 A3014 7640 16 10700 M /M RMK AO2 T02671006
93073KASE ASE20160607143010606/07/16 14:30:31  5-MIN KASE 072130Z 35006KT 10SM CLR 26/M02 A3013 7640 16 10600 340/06 RMK AO2 T02611017
93073KASE ASE20160607143510606/07/16 14:35:31  5-MIN KASE 072135Z VRB06KT 10SM CLR 27/M02 A3013 7650 14 10700 VRB/06 RMK AO2 T02671022
93073KASE ASE20160607144010606/07/16 14:40:31  5-MIN KASE 072140Z 17008KT 10SM CLR 27/M05 A3013 7650 12 10700 160/08 RMK AO2 T02671050
93073KASE ASE20160607144510606/07/16 14:45:31  5-MIN KASE 072145Z 29009KT 10SM CLR 27/M05 A3013 7650 12 10700 280/09 RMK AO2 T02671050
93073KASE ASE20160607145011906/07/16 14:50:31  5-MIN KASE 072150Z 23008G15KT 10SM CLR 26/M05 A3013 7650 12 10600 220/08G15 RMK AO2 SLP069 T02611050
93073KASE ASE20160607145512206/07/16 14:55:31  5-MIN KASE 072155Z 26011KT 230V300 10SM CLR 26/M04 A3013 7650 13 10600 260/11 220V290 RMK AO2 T02611044
93073KASE ASE20160607150011206/07/16 15:00:31  5-MIN KASE 072200Z 25010G15KT 10SM CLR 26/M05 A3013 7650 13 10600 250/10G15 RMK AO2 T02561050
93073KASE ASE20160607150511206/07/16 15:05:31  5-MIN KASE 072205Z 25010G14KT 10SM CLR 26/M04 A3013 7650 14 10600 250/10G14 RMK AO2 T02561039
93073KASE ASE20160607151011206/07/16 15:10:31  5-MIN KASE 072210Z 24006G14KT 10SM CLR 25/M04 A3012 7650 14 10500 240/06G14 RMK AO2 T02501039
93073KASE ASE20160607151510606/07/16 15:15:31  5-MIN KASE 072215Z 25005KT 10SM CLR 25/M04 A3012 7650 14 10500 240/05 RMK AO2 T02501039
93073KASE ASE20160607152010606/07/16 15:20:31  5-MIN KASE 072220Z 25004KT 10SM CLR 25/M03 A3012 7660 15 10500 240/04 RMK AO2 T02501028
93073KASE ASE20160607152510606/07/16 15:25:31  5-MIN KASE 072225Z 00000KT 10SM CLR 26/M02 A3012 7650 15 10600 000/00 RMK AO2 T02611022
93073KASE ASE20160607153010606/07/16 15:30:31  5-MIN KASE 072230Z 00000KT 10SM CLR 27/M02 A3012 7660 15 10700 000/00 RMK AO2 T02671017
93073KASE ASE20160607153510906/07/16 15:35:31  5-MIN KASE 072235Z 00000KT 10SM FEW110 27/M02 A3012 7660 14 10700 000/00 RMK AO2 T02671022
93073KASE ASE20160607154010906/07/16 15:40:31  5-MIN KASE 072240Z VRB05KT 10SM SCT110 27/M02 A3012 7660 15 10700 VRB/05 RMK AO2 T02671017
93073KASE ASE20160607154510906/07/16 15:45:31  5-MIN KASE 072245Z 25009KT 10SM FEW110 26/M02 A3012 7660 16 10600 240/09 RMK AO2 T02611017
93073KASE ASE20160607155011606/07/16 15:50:31  5-MIN KASE 072250Z 23007KT 10SM FEW110 26/M02 A3012 7650 16 10600 220/07 RMK AO2 SLP078 T02611017
93073KASE ASE20160607155510906/07/16 15:55:31  5-MIN KASE 072255Z 23004KT 10SM FEW110 26/M02 A3012 7660 15 10600 220/04 RMK AO2 T02561022
93073KASE ASE20160607160010906/07/16 16:00:31  5-MIN KASE 072300Z VRB03KT 10SM FEW110 26/M03 A3012 7660 14 10600 VRB/03 RMK AO2 T02611028
93073KASE ASE20160607160510906/07/16 16:05:31  5-MIN KASE 072305Z VRB05KT 10SM FEW120 27/M02 A3012 7660 15 10700 VRB/05 RMK AO2 T02671017
93073KASE ASE20160607161010606/07/16 16:10:31  5-MIN KASE 072310Z VRB06KT 10SM CLR 26/M02 A3012 7660 15 10600 VRB/06 RMK AO2 T02611022
93073KASE ASE20160607161511206/07/16 16:15:31  5-MIN KASE 072315Z 24009G15KT 10SM CLR 26/M01 A3012 7660 16 10600 230/09G15 RMK AO2 T02611011
93073KASE ASE20160607162011206/07/16 16:20:31  5-MIN KASE 072320Z VRB03G15KT 10SM CLR 26/M02 A3012 7660 15 10600 VRB/03G15 RMK AO2 T02561022
93073KASE ASE20160607162510606/07/16 16:25:31  5-MIN KASE 072325Z VRB06KT 10SM CLR 26/M02 A3012 7660 16 10600 VRB/06 RMK AO2 T02561017
93073KASE ASE20160607163010606/07/16 16:30:31  5-MIN KASE 072330Z VRB04KT 10SM CLR 26/M01 A3012 7660 16 10600 VRB/04 RMK AO2 T02611011
93073KASE ASE20160607163510606/07/16 16:35:31  5-MIN KASE 072335Z 35008KT 10SM CLR 26/M02 A3012 7660 16 10600 340/08 RMK AO2 T02611017
93073KASE ASE20160607164010606/07/16 16:40:31  5-MIN KASE 072340Z 35006KT 10SM CLR 26/M01 A3011 7660 17 10600 340/06 RMK AO2 T02561011
93073KASE ASE20160607164510606/07/16 16:45:31  5-MIN KASE 072345Z 35006KT 10SM CLR 25/M01 A3011 7660 18 10500 340/06 RMK AO2 T02501006
93073KASE ASE20160607165013106/07/16 16:50:31  5-MIN KASE 072350Z 35006KT 10SM CLR 26/M01 A3011 7670 16 10600 340/06 RMK AO2 SLP073 T02611011 10278 20250 58005
93073KASE ASE20160607165510606/07/16 16:55:31  5-MIN KASE 072355Z 35006KT 10SM CLR 27/M01 A3011 7670 16 10700 340/06 RMK AO2 T02671011
93073KASE ASE20160607170010606/07/16 17:00:31  5-MIN KASE 080000Z 34005KT 10SM CLR 27/M01 A3011 7670 16 10700 330/05 RMK AO2 T02671006
93073KASE ASE20160607170510606/07/16 17:05:31  5-MIN KASE 080005Z VRB03KT 10SM CLR 26/M02 A3011 7670 16 10600 VRB/03 RMK AO2 T02611017
93073KASE ASE20160607171010606/07/16 17:10:31  5-MIN KASE 080010Z VRB03KT 10SM CLR 27/M01 A3011 7670 16 10700 VRB/03 RMK AO2 T02671006
93073KASE ASE20160607171510606/07/16 17:15:31  5-MIN KASE 080015Z 35008KT 10SM CLR 27/M01 A3011 7670 16 10700 340/08 RMK AO2 T02671011
93073KASE ASE20160607172010606/07/16 17:20:31  5-MIN KASE 080020Z 36009KT 10SM CLR 26/M02 A3011 7670 16 10600 350/09 RMK AO2 T02611017
93073KASE ASE20160607172511806/07/16 17:25:31  5-MIN KASE 080025Z 35006KT 10SM CLR 26/M02 A3010 7670 15 10600 340/06 RMK AO2 LTG DSNT NW T02611022
93073KASE ASE20160607173011806/07/16 17:30:31  5-MIN KASE 080030Z VRB06KT 10SM CLR 26/M02 A3011 7670 16 10600 VRB/06 RMK AO2 LTG DSNT NW T02611017
93073KASE ASE20160607173511806/07/16 17:35:31  5-MIN KASE 080035Z VRB06KT 10SM CLR 26/M03 A3011 7670 15 10600 VRB/06 RMK AO2 LTG DSNT NW T02561028
93073KASE ASE20160607174010606/07/16 17:40:31  5-MIN KASE 080040Z VRB04KT 10SM CLR 25/M03 A3011 7660 15 10500 VRB/04 RMK AO2 T02501033
93073KASE ASE20160607174511706/07/16 17:45:31  5-MIN KASE 080045Z VRB05KT 10SM CLR 25/M04 A3011 7660 14 10500 VRB/05 RMK AO2 LTG DSNT N T02501044
93073KASE ASE20160607175012406/07/16 17:50:31  5-MIN KASE 080050Z 25008KT 10SM CLR 25/M06 A3012 7660 12 10500 240/08 RMK AO2 LTG DSNT N SLP077 T02501061
93073KASE ASE20160607175511706/07/16 17:55:31  5-MIN KASE 080055Z 23009KT 10SM CLR 24/M07 A3012 7660 12 10500 230/09 RMK AO2 LTG DSNT N T02441067
93073KASE ASE20160607180012806/07/16 18:00:31  5-MIN KASE 080100Z 29008G15KT 240V320 10SM CLR 24/M07 A3012 7660 11 10500 280/08G15 230V310 RMK AO2 T02441072
93073KASE ASE20160607180511206/07/16 18:05:31  5-MIN KASE 080105Z 27007G15KT 10SM CLR 24/M07 A3012 7660 11 10500 260/07G15 RMK AO2 T02441072
93073KASE ASE20160607181010606/07/16 18:10:31  5-MIN KASE 080110Z 26005KT 10SM CLR 24/M07 A3012 7660 12 10400 250/05 RMK AO2 T02391072
93073KASE ASE20160607181510606/07/16 18:15:31  5-MIN KASE 080115Z 28004KT 10SM CLR 23/M06 A3012 7660 14 10300 270/04 RMK AO2 T02331056
93073KASE ASE20160607182010606/07/16 18:20:31  5-MIN KASE 080120Z 30004KT 10SM CLR 22/M04 A3012 7660 17 10200 290/04 RMK AO2 T02221039
93073KASE ASE20160607182510606/07/16 18:25:31  5-MIN KASE 080125Z 22003KT 10SM CLR 21/M02 A3012 7660 20 10100 210/03 RMK AO2 T02111022
93073KASE ASE20160607183010606/07/16 18:30:31  5-MIN KASE 080130Z 24004KT 10SM CLR 21/M02 A3012 7660 21 10000 230/04 RMK AO2 T02061022
93073KASE ASE20160607183510606/07/16 18:35:31  5-MIN KASE 080135Z 25004KT 10SM CLR 21/M02 A3012 7660 21 10000 240/04 RMK AO2 T02061022
93073KASE ASE20160607184010606/07/16 18:40:31  5-MIN KASE 080140Z VRB03KT 10SM CLR 21/M04 A3012 7660 18 10100 VRB/03 RMK AO2 T02111039
93073KASE ASE20160607184510606/07/16 18:45:31  5-MIN KASE 080145Z 23004KT 10SM CLR 21/M04 A3012 7660 18 10100 220/04 RMK AO2 T02111039
93073KASE ASE20160607185012406/07/16 18:50:31  5-MIN KASE 080150Z 26007KT 10SM CLR 19/M02 A3012 7660 23 9900 250/07 RMK AO2 LTG DSNT NW SLP082 T01941022
93073KASE ASE20160607185512406/07/16 18:55:31  5-MIN KASE 080155Z 25006KT 10SM CLR 20/M04 A3012 7660 19 10000 250/06 RMK AO2 LTG DSNT W AND NW T02001039
93073KASE ASE20160607190012206/07/16 19:00:31  5-MIN KASE 080200Z 25006KT 9SM CLR 19/M02 A3012 7660 24 9900 240/06 RMK AO2 LTG DSNT W AND NW T01891017
93073KASE ASE20160607190512306/07/16 19:05:31  5-MIN KASE 080205Z 27007KT 9SM CLR 21/M05 A3012 7650 17 10000 260/07 RMK AO2 LTG DSNT W AND NW T02061050
93073KASE ASE20160607191011606/07/16 19:10:31  5-MIN KASE 080210Z 21006KT 9SM CLR 18/M02 A3013 7650 25 9800 200/06 RMK AO2 LTG DSNT NW T01831017
93073KASE ASE20160607191511606/07/16 19:15:31  5-MIN KASE 080215Z 21009KT 9SM CLR 18/M01 A3013 7650 27 9700 200/09 RMK AO2 LTG DSNT NW T01781011
93073KASE ASE20160607192011706/07/16 19:20:31  5-MIN KASE 080220Z 21007KT 10SM CLR 18/M02 A3013 7650 25 9800 200/07 RMK AO2 LTG DSNT NW T01831017
93073KASE ASE20160607192510506/07/16 19:25:31  5-MIN KASE 080225Z 21008KT 10SM CLR 17/M02 A3013 7640 27 9700 200/08 RMK AO2 T01721017
93073KASE ASE20160607193010506/07/16 19:30:31  5-MIN KASE 080230Z 20008KT 10SM CLR 17/M01 A3014 7640 28 9700 200/08 RMK AO2 T01721011
93073KASE ASE20160607193510506/07/16 19:35:31  5-MIN KASE 080235Z 19007KT 10SM CLR 17/M02 A3014 7640 27 9700 180/07 RMK AO2 T01721017
93073KASE ASE20160607194010506/07/16 19:40:31  5-MIN KASE 080240Z 22007KT 10SM CLR 16/M01 A3014 7640 30 9500 210/07 RMK AO2 T01611011
93073KASE ASE20160607194510506/07/16 19:45:31  5-MIN KASE 080245Z 20007KT 10SM CLR 16/M02 A3014 7640 29 9500 190/07 RMK AO2 T01611017
93073KASE ASE20160607195011806/07/16 19:50:31  5-MIN KASE 080250Z 18007KT 10SM CLR 17/M02 A3014 7630 27 9600 170/07 RMK AO2 SLP088 T01721017 58008
93073KASE ASE20160607195510506/07/16 19:55:31  5-MIN KASE 080255Z VRB04KT 10SM CLR 16/M01 A3015 7630 30 9500 VRB/04 RMK AO2 T01611011
93073KASE ASE20160607200010506/07/16 20:00:31  5-MIN KASE 080300Z 34005KT 10SM CLR 16/M01 A3016 7620 31 9400 330/05 RMK AO2 T01561011
93073KASE ASE20160607200510506/07/16 20:05:31  5-MIN KASE 080305Z 08004KT 10SM CLR 16/M02 A3016 7620 30 9400 070/04 RMK AO2 T01561017
93073KASE ASE20160607201011606/07/16 20:10:31  5-MIN KASE 080310Z 18004KT 10SM CLR 16/M01 A3016 7620 31 9400 170/04 RMK AO2 LTG DSNT N T01561011
93073KASE ASE20160607201511506/07/16 20:15:31  5-MIN KASE 080315Z 21004KT 10SM CLR 13/00 A3016 7620 40 9200 200/04 RMK AO2 LTG DSNT N T01330000
93073KASE ASE20160607202011506/07/16 20:20:31  5-MIN KASE 080320Z 20005KT 10SM CLR 13/00 A3016 7620 40 9200 190/05 RMK AO2 LTG DSNT N T01330000
93073KASE ASE20160607202511506/07/16 20:25:31  5-MIN KASE 080325Z 23009KT 10SM CLR 13/00 A3017 7610 40 9200 220/09 RMK AO2 LTG DSNT N T01330000
93073KASE ASE20160607203010506/07/16 20:30:31  5-MIN KASE 080330Z 21006KT 10SM CLR 14/M01 A3017 7610 34 9300 200/06 RMK AO2 T01441011
93073KASE ASE20160607203510506/07/16 20:35:31  5-MIN KASE 080335Z 21006KT 10SM CLR 16/M02 A3018 7610 30 9400 200/06 RMK AO2 T01561017
93073KASE ASE20160607204010506/07/16 20:40:31  5-MIN KASE 080340Z 19006KT 10SM CLR 15/M02 A3018 7610 31 9400 190/06 RMK AO2 T01501017
93073KASE ASE20160607204510506/07/16 20:45:31  5-MIN KASE 080345Z 20008KT 10SM CLR 14/M01 A3018 7600 37 9200 190/08 RMK AO2 T01391006
93073KASE ASE20160607205011206/07/16 20:50:31  5-MIN KASE 080350Z 22010KT 10SM CLR 14/M01 A3018 7600 35 9200 210/10 RMK AO2 SLP100 T01391011
93073KASE ASE20160607205510806/07/16 20:55:31  5-MIN KASE 080355Z 22008KT 10SM FEW120 13/M01 A3018 7600 36 9200 210/08 RMK AO2 T01331011
93073KASE ASE20160607210010806/07/16 21:00:31  5-MIN KASE 080400Z 20006KT 10SM FEW120 13/M01 A3019 7600 38 9200 200/06 RMK AO2 T01331006
93073KASE ASE20160607210510806/07/16 21:05:31  5-MIN KASE 080405Z 20007KT 10SM FEW120 13/M01 A3019 7590 38 9200 200/07 RMK AO2 T01331006
93073KASE ASE20160607211010806/07/16 21:10:31  5-MIN KASE 080410Z 19008KT 10SM FEW120 13/M01 A3019 7590 38 9200 180/08 RMK AO2 T01331006
93073KASE ASE20160607211510806/07/16 21:15:31  5-MIN KASE 080415Z 20008KT 10SM FEW120 13/M01 A3019 7600 39 9100 190/08 RMK AO2 T01281006
93073KASE ASE20160607212010506/07/16 21:20:31  5-MIN KASE 080420Z 21008KT 10SM CLR 13/M01 A3019 7590 36 9200 200/08 RMK AO2 T01331011
93073KASE ASE20160607212510506/07/16 21:25:31  5-MIN KASE 080425Z 20008KT 10SM CLR 14/M02 A3019 7590 34 9200 190/08 RMK AO2 T01391017
93073KASE ASE20160607213010506/07/16 21:30:31  5-MIN KASE 080430Z 21008KT 10SM CLR 13/M01 A3019 7590 38 9100 200/08 RMK AO2 T01281011
93073KASE ASE20160607213510506/07/16 21:35:31  5-MIN KASE 080435Z 20008KT 10SM CLR 14/M02 A3020 7590 34 9200 190/08 RMK AO2 T01391017
93073KASE ASE20160607214010506/07/16 21:40:31  5-MIN KASE 080440Z 20009KT 10SM CLR 13/M01 A3019 7590 39 9100 190/09 RMK AO2 T01281006
93073KASE ASE20160607214510506/07/16 21:45:31  5-MIN KASE 080445Z 21010KT 10SM CLR 13/M01 A3019 7590 39 9100 200/10 RMK AO2 T01281006
93073KASE ASE20160607215011206/07/16 21:50:31  5-MIN KASE 080450Z 20010KT 10SM CLR 13/M01 A3019 7590 38 9100 200/10 RMK AO2 SLP098 T01281011
93073KASE ASE20160607215510506/07/16 21:55:31  5-MIN KASE 080455Z 21009KT 10SM CLR 13/M01 A3019 7590 38 9100 200/09 RMK AO2 T01281011
93073KASE ASE20160607220010506/07/16 22:00:31  5-MIN KASE 080500Z 21010KT 10SM CLR 13/M01 A3020 7590 38 9100 200/10 RMK AO2 T01281011
93073KASE ASE20160607220510506/07/16 22:05:31  5-MIN KASE 080505Z 21009KT 10SM CLR 13/M02 A3020 7590 35 9200 200/09 RMK AO2 T01331017
93073KASE ASE20160607221010506/07/16 22:10:31  5-MIN KASE 080510Z 20008KT 10SM CLR 13/M01 A3020 7580 38 9100 190/08 RMK AO2 T01281011
93073KASE ASE20160607221510506/07/16 22:15:31  5-MIN KASE 080515Z 18006KT 10SM CLR 12/M01 A3020 7580 39 9000 170/06 RMK AO2 T01221011
93073KASE ASE20160607222010506/07/16 22:20:31  5-MIN KASE 080520Z 19008KT 10SM CLR 13/M01 A3020 7580 38 9100 180/08 RMK AO2 T01281011
93073KASE ASE20160607222510506/07/16 22:25:31  5-MIN KASE 080525Z 20008KT 10SM CLR 13/M01 A3021 7580 38 9100 190/08 RMK AO2 T01281011
93073KASE ASE20160607223010506/07/16 22:30:31  5-MIN KASE 080530Z 21009KT 10SM CLR 12/M01 A3020 7580 39 9000 200/09 RMK AO2 T01221011
93073KASE ASE20160607223510506/07/16 22:35:31  5-MIN KASE 080535Z 20008KT 10SM CLR 12/M01 A3020 7580 42 9000 190/08 RMK AO2 T01171006
93073KASE ASE20160607224010506/07/16 22:40:31  5-MIN KASE 080540Z 20006KT 10SM CLR 12/M01 A3020 7580 42 9000 190/06 RMK AO2 T01171006
93073KASE ASE20160607224510506/07/16 22:45:31  5-MIN KASE 080545Z 21008KT 10SM CLR 12/M01 A3020 7580 42 9000 200/08 RMK AO2 T01171006
93073KASE ASE20160607225013006/07/16 22:50:31  5-MIN KASE 080550Z 21008KT 10SM CLR 12/M01 A3020 7590 39 9000 200/08 RMK AO2 SLP095 T01221011 10267 20117 53011
93073KASE ASE20160607225510506/07/16 22:55:31  5-MIN KASE 080555Z 21008KT 10SM CLR 12/M01 A3020 7590 41 9000 200/08 RMK AO2 T01171011
93073KASE ASE20160607230010506/07/16 23:00:31  5-MIN KASE 080600Z 21008KT 10SM CLR 12/M01 A3019 7590 41 9000 200/08 RMK AO2 T01171011
93073KASE ASE20160607230510506/07/16 23:05:31  5-MIN KASE 080605Z 21008KT 10SM CLR 12/M01 A3020 7590 41 9000 200/08 RMK AO2 T01171011
93073KASE ASE20160607231010506/07/16 23:10:31  5-MIN KASE 080610Z 20006KT 10SM CLR 12/M01 A3020 7590 41 9000 190/06 RMK AO2 T01171011
93073KASE ASE20160607231511006/07/16 23:15:31  5-MIN KASE 080615Z AUTO 21005KT 10SM CLR 12/M01 A3019 7590 41 9000 200/05 RMK AO2 T01171011
93073KASE ASE20160607232011006/07/16 23:20:31  5-MIN KASE 080620Z AUTO 22007KT 10SM CLR 12/M01 A3019 7590 41 9000 210/07 RMK AO2 T01171011
93073KASE ASE20160607232511006/07/16 23:25:31  5-MIN KASE 080625Z AUTO 22008KT 10SM CLR 11/M01 A3019 7590 42 8900 220/08 RMK AO2 T01111011
93073KASE ASE20160607233011006/07/16 23:30:31  5-MIN KASE 080630Z AUTO 21008KT 10SM CLR 11/M01 A3019 7590 46 8800 200/08 RMK AO2 T01061006
93073KASE ASE20160607233511006/07/16 23:35:31  5-MIN KASE 080635Z AUTO 21008KT 10SM CLR 11/M01 A3019 7590 46 8900 210/08 RMK AO2 T01061006
93073KASE ASE20160607234011006/07/16 23:40:31  5-MIN KASE 080640Z AUTO 21009KT 10SM CLR 10/M01 A3019 7590 47 8800 200/09 RMK AO2 T01001006
93073KASE ASE20160607234511006/07/16 23:45:31  5-MIN KASE 080645Z AUTO 22009KT 10SM CLR 10/M01 A3019 7600 47 8800 210/09 RMK AO2 T01001006
93073KASE ASE20160607235012706/07/16 23:50:31  5-MIN KASE 080650Z AUTO 22009KT 10SM CLR 11/M01 A3019 7600 44 8900 210/09 RMK AO2 SLP091 T01111006 402780061
93073KASE ASE20160607235511006/07/16 23:55:31  5-MIN KASE 080655Z AUTO 22007KT 10SM CLR 11/M01 A3018 7600 42 8900 210/07 RMK AO2 T01111011
93073KASE ASE20160608000011006/08/16 00:00:31  5-MIN KASE 080700Z AUTO 22007KT 10SM CLR 09/M01 A3018 7600 49 8700 210/07 RMK AO2 T00941006
93073KASE ASE20160608000511006/08/16 00:05:31  5-MIN KASE 080705Z AUTO 21007KT 10SM CLR 11/M01 A3018 7600 46 8900 200/07 RMK AO2 T01061006
93073KASE ASE20160608001011006/08/16 00:10:31  5-MIN KASE 080710Z AUTO 18006KT 10SM CLR 11/M01 A3018 7600 46 8900 170/06 RMK AO2 T01061006
93073KASE ASE20160608001511006/08/16 00:15:31  5-MIN KASE 080715Z AUTO 20007KT 10SM CLR 11/M01 A3018 7600 46 8900 190/07 RMK AO2 T01061006
93073KASE ASE20160608002011006/08/16 00:20:31  5-MIN KASE 080720Z AUTO 21006KT 10SM CLR 11/M01 A3018 7600 44 8900 200/06 RMK AO2 T01061011
93073KASE ASE20160608002511006/08/16 00:25:31  5-MIN KASE 080725Z AUTO 21006KT 10SM CLR 11/M01 A3018 7600 44 8900 200/06 RMK AO2 T01061011
93073KASE ASE20160608003011006/08/16 00:30:31  5-MIN KASE 080730Z AUTO 21007KT 10SM CLR 10/M01 A3018 7600 47 8800 210/07 RMK AO2 T01001006
93073KASE ASE20160608003511006/08/16 00:35:31  5-MIN KASE 080735Z AUTO 21007KT 10SM CLR 09/M01 A3018 7600 49 8700 200/07 RMK AO2 T00941006
93073KASE ASE20160608004011006/08/16 00:40:31  5-MIN KASE 080740Z AUTO 21004KT 10SM CLR 11/M01 A3018 7600 46 8900 200/04 RMK AO2 T01061006
93073KASE ASE20160608004511006/08/16 00:45:31  5-MIN KASE 080745Z AUTO 22005KT 10SM CLR 10/M01 A3018 7600 47 8800 210/05 RMK AO2 T01001006
93073KASE ASE20160608005011606/08/16 00:50:31  5-MIN KASE 080750Z AUTO 21006KT 10SM CLR 09/00 A3018 7600 51 8700 200/06 RMK AO2 SLP092 T00940000
93073KASE ASE20160608005510906/08/16 00:55:31  5-MIN KASE 080755Z AUTO 22005KT 10SM CLR 09/00 A3018 7600 53 8700 210/05 RMK AO2 T00890000
93073KASE ASE20160608010011006/08/16 01:00:31  5-MIN KASE 080800Z AUTO 21005KT 10SM CLR 09/M01 A3018 7600 49 8700 200/05 RMK AO2 T00941006
93073KASE ASE20160608010511006/08/16 01:05:31  5-MIN KASE 080805Z AUTO 21005KT 10SM CLR 09/M01 A3018 7600 51 8700 200/05 RMK AO2 T00891006
93073KASE ASE20160608011011006/08/16 01:10:31  5-MIN KASE 080810Z AUTO 20005KT 10SM CLR 10/M01 A3018 7600 47 8800 200/05 RMK AO2 T01001006
93073KASE ASE20160608011511006/08/16 01:15:31  5-MIN KASE 080815Z AUTO 21006KT 10SM CLR 09/M01 A3018 7600 49 8700 200/06 RMK AO2 T00941006
93073KASE ASE20160608012011006/08/16 01:20:31  5-MIN KASE 080820Z AUTO 22006KT 10SM CLR 09/M01 A3018 7600 49 8700 210/06 RMK AO2 T00941006
93073KASE ASE20160608012511006/08/16 01:25:31  5-MIN KASE 080825Z AUTO 21005KT 10SM CLR 09/M01 A3018 7600 51 8700 200/05 RMK AO2 T00891006
93073KASE ASE20160608013011006/08/16 01:30:31  5-MIN KASE 080830Z AUTO 20005KT 10SM CLR 09/M01 A3018 7600 51 8700 190/05 RMK AO2 T00891006
93073KASE ASE20160608013511006/08/16 01:35:31  5-MIN KASE 080835Z AUTO 21005KT 10SM CLR 08/M01 A3018 7600 53 8600 200/05 RMK AO2 T00831006
93073KASE ASE20160608014010906/08/16 01:40:31  5-MIN KASE 080840Z AUTO 21006KT 10SM CLR 08/00 A3018 7600 58 8500 200/06 RMK AO2 T00780000
93073KASE ASE20160608014511006/08/16 01:45:31  5-MIN KASE 080845Z AUTO 22007KT 10SM CLR 08/M01 A3018 7600 55 8500 210/07 RMK AO2 T00781006
93073KASE ASE20160608015012306/08/16 01:50:31  5-MIN KASE 080850Z AUTO 21006KT 10SM CLR 08/M01 A3018 7600 55 8500 200/06 RMK AO2 SLP097 T00781006 51014
93073KASE ASE20160608015511006/08/16 01:55:31  5-MIN KASE 080855Z AUTO 21006KT 10SM CLR 08/M01 A3018 7600 53 8600 200/06 RMK AO2 T00831006
93073KASE ASE20160608020011006/08/16 02:00:31  5-MIN KASE 080900Z AUTO 21006KT 10SM CLR 08/M01 A3018 7600 53 8600 200/06 RMK AO2 T00831006
93073KASE ASE20160608020511006/08/16 02:05:31  5-MIN KASE 080905Z AUTO 21006KT 10SM CLR 08/M01 A3018 7600 53 8600 210/06 RMK AO2 T00831006
93073KASE ASE20160608021011006/08/16 02:10:31  5-MIN KASE 080910Z AUTO 20005KT 10SM CLR 08/M01 A3018 7600 53 8600 190/05 RMK AO2 T00831006
93073KASE ASE20160608021511006/08/16 02:15:31  5-MIN KASE 080915Z AUTO 20005KT 10SM CLR 08/M01 A3018 7600 55 8600 190/05 RMK AO2 T00781006
93073KASE ASE20160608022011006/08/16 02:20:31  5-MIN KASE 080920Z AUTO 21009KT 10SM CLR 08/M01 A3018 7600 53 8600 200/09 RMK AO2 T00831006
93073KASE ASE20160608022511006/08/16 02:25:31  5-MIN KASE 080925Z AUTO 20006KT 10SM CLR 08/M01 A3018 7600 53 8600 190/06 RMK AO2 T00831006
93073KASE ASE20160608023011006/08/16 02:30:31  5-MIN KASE 080930Z AUTO 20005KT 10SM CLR 08/M01 A3018 7600 53 8600 190/05 RMK AO2 T00831006
93073KASE ASE20160608023511006/08/16 02:35:31  5-MIN KASE 080935Z AUTO 18004KT 10SM CLR 09/M01 A3018 7600 51 8700 170/04 RMK AO2 T00891006
93073KASE ASE20160608024011006/08/16 02:40:31  5-MIN KASE 080940Z AUTO 00000KT 10SM CLR 07/M01 A3018 7600 57 8500 000/00 RMK AO2 T00721006
93073KASE ASE20160608024511006/08/16 02:45:31  5-MIN KASE 080945Z AUTO 00000KT 10SM CLR 07/M01 A3018 7600 57 8500 000/00 RMK AO2 T00721006
93073KASE ASE20160608025011706/08/16 02:50:31  5-MIN KASE 080950Z AUTO 00000KT 10SM CLR 08/M01 A3018 7600 55 8500 000/00 RMK AO2 SLP096 T00781006
93073KASE ASE20160608025511006/08/16 02:55:31  5-MIN KASE 080955Z AUTO 22006KT 10SM CLR 06/M01 A3018 7600 62 8400 210/06 RMK AO2 T00611006
93073KASE ASE20160608030011006/08/16 03:00:31  5-MIN KASE 081000Z AUTO 22007KT 10SM CLR 07/M01 A3018 7610 60 8400 210/07 RMK AO2 T00671006
93073KASE ASE20160608030511006/08/16 03:05:31  5-MIN KASE 081005Z AUTO 23006KT 10SM CLR 07/M01 A3018 7610 57 8500 220/06 RMK AO2 T00721006
93073KASE ASE20160608031011006/08/16 03:10:31  5-MIN KASE 081010Z AUTO 20006KT 10SM CLR 07/M01 A3018 7600 57 8500 190/06 RMK AO2 T00721006
93073KASE ASE20160608031511006/08/16 03:15:31  5-MIN KASE 081015Z AUTO 18007KT 10SM CLR 08/M01 A3018 7610 53 8600 170/07 RMK AO2 T00831006
93073KASE ASE20160608032011006/08/16 03:20:31  5-MIN KASE 081020Z AUTO 20007KT 10SM CLR 07/M01 A3017 7610 57 8500 190/07 RMK AO2 T00721006
93073KASE ASE20160608032511006/08/16 03:25:31  5-MIN KASE 081025Z AUTO 20008KT 10SM CLR 08/M01 A3017 7610 51 8600 190/08 RMK AO2 T00831011
93073KASE ASE20160608033011006/08/16 03:30:31  5-MIN KASE 081030Z AUTO 22009KT 10SM CLR 08/M01 A3017 7610 55 8600 210/09 RMK AO2 T00781006
93073KASE ASE20160608033511006/08/16 03:35:31  5-MIN KASE 081035Z AUTO 20006KT 10SM CLR 08/M01 A3017 7610 51 8600 190/06 RMK AO2 T00831011
93073KASE ASE20160608034011006/08/16 03:40:31  5-MIN KASE 081040Z AUTO 18007KT 10SM CLR 07/M01 A3017 7610 57 8500 180/07 RMK AO2 T00721006
93073KASE ASE20160608034511006/08/16 03:45:31  5-MIN KASE 081045Z AUTO 18006KT 10SM CLR 07/M01 A3018 7600 60 8400 170/06 RMK AO2 T00671006
93073KASE ASE20160608035011706/08/16 03:50:31  5-MIN KASE 081050Z AUTO 20005KT 10SM CLR 07/M01 A3017 7610 57 8500 190/05 RMK AO2 SLP097 T00721006
93073KASE ASE20160608035511006/08/16 03:55:31  5-MIN KASE 081055Z AUTO 23004KT 10SM CLR 07/M01 A3018 7610 60 8400 220/04 RMK AO2 T00671006
93073KASE ASE20160608040011006/08/16 04:00:31  5-MIN KASE 081100Z AUTO 21005KT 10SM CLR 07/M01 A3018 7610 60 8400 200/05 RMK AO2 T00671006
93073KASE ASE20160608040510906/08/16 04:05:31  5-MIN KASE 081105Z AUTO 23005KT 10SM CLR 06/00 A3017 7610 65 8400 220/05 RMK AO2 T00610000
93073KASE ASE20160608041011006/08/16 04:10:31  5-MIN KASE 081110Z AUTO 00000KT 10SM CLR 06/M01 A3018 7610 62 8400 000/00 RMK AO2 T00611006
93073KASE ASE20160608041510906/08/16 04:15:31  5-MIN KASE 081115Z AUTO 00000KT 10SM CLR 07/00 A3018 7600 62 8400 000/00 RMK AO2 T00670000
93073KASE ASE20160608042010906/08/16 04:20:31  5-MIN KASE 081120Z AUTO 00000KT 10SM CLR 06/00 A3017 7610 65 8400 000/00 RMK AO2 T00610000
93073KASE ASE20160608042510906/08/16 04:25:31  5-MIN KASE 081125Z AUTO 00000KT 10SM CLR 06/00 A3017 7610 65 8400 000/00 RMK AO2 T00610000
93073KASE ASE20160608043010906/08/16 04:30:31  5-MIN KASE 081130Z AUTO 00000KT 10SM CLR 07/00 A3018 7610 62 8400 000/00 RMK AO2 T00670000
93073KASE ASE20160608043510906/08/16 04:35:31  5-MIN KASE 081135Z AUTO 17003KT 10SM CLR 07/00 A3017 7610 62 8400 160/03 RMK AO2 T00670000
93073KASE ASE20160608044010906/08/16 04:40:31  5-MIN KASE 081140Z AUTO 22003KT 10SM CLR 06/00 A3017 7610 65 8400 210/03 RMK AO2 T00610000
93073KASE ASE20160608044510906/08/16 04:45:31  5-MIN KASE 081145Z AUTO 20004KT 10SM CLR 06/00 A3017 7610 67 8300 190/04 RMK AO2 T00560000
93073KASE ASE20160608045013506/08/16 04:50:31  5-MIN KASE 081150Z AUTO 20005KT 10SM CLR 06/M01 A3017 7610 62 8400 190/05 RMK AO2 SLP099 T00611006 10122 20056 55004
93073KASE ASE20160608045511006/08/16 04:55:31  5-MIN KASE 081155Z AUTO 20005KT 10SM CLR 07/M01 A3017 7610 60 8400 190/05 RMK AO2 T00671006
93073KASE ASE20160608050011006/08/16 05:00:31  5-MIN KASE 081200Z AUTO 19005KT 10SM CLR 07/M01 A3017 7610 57 8500 180/05 RMK AO2 T00721006
93073KASE ASE20160608050511006/08/16 05:05:31  5-MIN KASE 081205Z AUTO 20006KT 10SM CLR 07/M01 A3017 7610 57 8500 190/06 RMK AO2 T00721006
93073KASE ASE20160608051011006/08/16 05:10:31  5-MIN KASE 081210Z AUTO 18006KT 10SM CLR 07/M01 A3017 7610 57 8500 170/06 RMK AO2 T00721006
93073KASE ASE20160608051511206/08/16 05:15:31  5-MIN KASE 081215Z AUTO 20005KT 10SM FEW120 07/00 A3017 7610 62 8400 190/05 RMK AO2 T00670000
93073KASE ASE20160608052011306/08/16 05:20:31  5-MIN KASE 081220Z AUTO 20005KT 10SM FEW120 07/M01 A3017 7610 57 8500 190/05 RMK AO2 T00721006
93073KASE ASE20160608052511306/08/16 05:25:31  5-MIN KASE 081225Z AUTO 19005KT 10SM FEW120 08/M01 A3017 7610 53 8600 180/05 RMK AO2 T00831006
93073KASE ASE20160608053010706/08/16 05:30:31  5-MIN KASE 081230Z 18005KT 10SM FEW120 08/00 A3017 7610 58 8600 170/05 RMK AO2 T00780000
93073KASE ASE20160608053510706/08/16 05:35:31  5-MIN KASE 081235Z 16004KT 10SM FEW120 08/00 A3018 7610 55 8600 160/04 RMK AO2 T00830000
93073KASE ASE20160608054010706/08/16 05:40:31  5-MIN KASE 081240Z 18004KT 10SM FEW120 09/01 A3017 7610 56 8700 170/04 RMK AO2 T00890006
93073KASE ASE20160608054510706/08/16 05:45:31  5-MIN KASE 081245Z 20004KT 10SM FEW120 09/01 A3018 7600 58 8700 190/04 RMK AO2 T00890011
93073KASE ASE20160608055011106/08/16 05:50:31  5-MIN KASE 081250Z 17003KT 10SM CLR 10/01 A3018 7600 52 8800 160/03 RMK AO2 SLP093 T01000006
93073KASE ASE20160608055510406/08/16 05:55:31  5-MIN KASE 081255Z 09003KT 10SM CLR 10/01 A3018 7610 54 8800 080/03 RMK AO2 T01000011
93073KASE ASE20160608060010406/08/16 06:00:31  5-MIN KASE 081300Z 00000KT 10SM CLR 10/01 A3018 7600 54 8800 000/00 RMK AO2 T01000011
93073KASE ASE20160608060510406/08/16 06:05:31  5-MIN KASE 081305Z 00000KT 10SM CLR 10/01 A3018 7600 54 8800 000/00 RMK AO2 T01000011
93073KASE ASE20160608061010306/08/16 06:10:31  5-MIN KASE 081310Z 00000KT 9SM CLR 11/01 A3018 7600 52 8900 000/00 RMK AO2 T01060011
93073KASE ASE20160608061510306/08/16 06:15:31  5-MIN KASE 081315Z 36003KT 9SM CLR 11/01 A3018 7600 52 8900 350/03 RMK AO2 T01060011
93073KASE ASE20160608062010406/08/16 06:20:31  5-MIN KASE 081320Z 00000KT 10SM CLR 11/01 A3018 7600 50 8900 000/00 RMK AO2 T01110011
93073KASE ASE20160608062510406/08/16 06:25:31  5-MIN KASE 081325Z 00000KT 10SM CLR 12/01 A3018 7600 46 9000 000/00 RMK AO2 T01170006
93073KASE ASE20160608063010406/08/16 06:30:31  5-MIN KASE 081330Z 00000KT 10SM CLR 12/01 A3018 7600 44 9000 000/00 RMK AO2 T01220006
93073KASE ASE20160608063510406/08/16 06:35:31  5-MIN KASE 081335Z 00000KT 10SM CLR 12/00 A3018 7600 43 9000 000/00 RMK AO2 T01220000
93073KASE ASE20160608064010506/08/16 06:40:31  5-MIN KASE 081340Z 00000KT 10SM CLR 13/M01 A3018 7600 39 9100 000/00 RMK AO2 T01281006
93073KASE ASE20160608064510406/08/16 06:45:31  5-MIN KASE 081345Z 00000KT 10SM CLR 13/00 A3018 7600 40 9200 000/00 RMK AO2 T01330000
93073KASE ASE20160608065011206/08/16 06:50:31  5-MIN KASE 081350Z 00000KT 10SM CLR 13/M01 A3019 7600 39 9100 000/00 RMK AO2 SLP103 T01281006
93073KASE ASE20160608065510506/08/16 06:55:31  5-MIN KASE 081355Z 00000KT 10SM CLR 13/M01 A3019 7600 38 9200 000/00 RMK AO2 T01331006
93073KASE ASE20160608070010506/08/16 07:00:31  5-MIN KASE 081400Z 00000KT 10SM CLR 13/M01 A3018 7600 38 9200 000/00 RMK AO2 T01331006
93073KASE ASE20160608070510806/08/16 07:05:31  5-MIN KASE 081405Z 00000KT 10SM FEW110 14/M01 A3019 7600 37 9200 000/00 RMK AO2 T01391006
93073KASE ASE20160608071010806/08/16 07:10:31  5-MIN KASE 081410Z 00000KT 10SM SCT110 14/M01 A3019 7600 37 9200 000/00 RMK AO2 T01391006
93073KASE ASE20160608071510706/08/16 07:15:31  5-MIN KASE 081415Z 00000KT 10SM SCT110 14/01 A3019 7590 40 9300 000/00 RMK AO2 T01440011
93073KASE ASE20160608072010706/08/16 07:20:31  5-MIN KASE 081420Z 00000KT 10SM FEW110 14/00 A3019 7600 38 9200 000/00 RMK AO2 T01390000
93073KASE ASE20160608072510706/08/16 07:25:31  5-MIN KASE 081425Z 00000KT 10SM FEW110 14/00 A3019 7590 37 9300 000/00 RMK AO2 T01440000
93073KASE ASE20160608073010706/08/16 07:30:31  5-MIN KASE 081430Z 00000KT 10SM FEW110 15/00 A3019 7590 35 9400 000/00 RMK AO2 T01500000
93073KASE ASE20160608073510806/08/16 07:35:31  5-MIN KASE 081435Z 00000KT 10SM SCT100 16/M01 A3019 7590 33 9400 000/00 RMK AO2 T01561006
93073KASE ASE20160608074010706/08/16 07:40:31  5-MIN KASE 081440Z 01004KT 10SM SCT100 16/00 A3019 7590 34 9400 360/04 RMK AO2 T01560000
93073KASE ASE20160608074510706/08/16 07:45:31  5-MIN KASE 081445Z 34004KT 10SM BKN100 15/00 A3019 7590 35 9400 330/04 RMK AO2 T01500000
93073KASE ASE20160608075012006/08/16 07:50:31  5-MIN KASE 081450Z 34004KT 10SM BKN100 14/01 A3019 7590 38 9300 330/04 RMK AO2 SLP105 T01440006 58002
93073KASE ASE20160608075510706/08/16 07:55:31  5-MIN KASE 081455Z 00000KT 10SM BKN100 14/01 A3019 7590 38 9300 000/00 RMK AO2 T01440006
93073KASE ASE20160608080010706/08/16 08:00:31  5-MIN KASE 081500Z 00000KT 10SM BKN100 15/01 A3019 7590 37 9400 000/00 RMK AO2 T01500006
93073KASE ASE20160608080510706/08/16 08:05:31  5-MIN KASE 081505Z 00000KT 10SM BKN100 15/01 A3019 7590 38 9400 000/00 RMK AO2 T01500011
93073KASE ASE20160608081010706/08/16 08:10:31  5-MIN KASE 081510Z 00000KT 10SM BKN095 16/00 A3019 7590 34 9400 000/00 RMK AO2 T01560000
93073KASE ASE20160608081510706/08/16 08:15:31  5-MIN KASE 081515Z 00000KT 10SM BKN095 16/00 A3019 7590 34 9400 000/00 RMK AO2 T01560000
93073KASE ASE20160608082010706/08/16 08:20:31  5-MIN KASE 081520Z 04003KT 10SM BKN095 17/01 A3019 7590 33 9500 030/03 RMK AO2 T01670006
93073KASE ASE20160608082510706/08/16 08:25:31  5-MIN KASE 081525Z 06003KT 10SM BKN095 17/00 A3019 7590 32 9500 050/03 RMK AO2 T01670000
93073KASE ASE20160608083010806/08/16 08:30:31  5-MIN KASE 081530Z 35004KT 10SM BKN095 17/M01 A3019 7590 29 9600 340/04 RMK AO2 T01721006
93073KASE ASE20160608083510806/08/16 08:35:31  5-MIN KASE 081535Z 36004KT 10SM BKN095 17/M01 A3019 7590 31 9500 350/04 RMK AO2 T01671006
93073KASE ASE20160608084010706/08/16 08:40:31  5-MIN KASE 081540Z 34004KT 10SM SCT095 17/00 A3019 7590 32 9500 330/04 RMK AO2 T01670000
93073KASE ASE20160608084510706/08/16 08:45:31  5-MIN KASE 081545Z 35003KT 10SM SCT100 17/00 A3019 7590 31 9600 350/03 RMK AO2 T01720000
93073KASE ASE20160608085011406/08/16 08:50:31  5-MIN KASE 081550Z 36003KT 10SM SCT100 17/01 A3019 7600 33 9600 350/03 RMK AO2 SLP106 T01720011
93073KASE ASE20160608085510706/08/16 08:55:31  5-MIN KASE 081555Z 00000KT 10SM FEW100 18/02 A3019 7600 33 9700 000/00 RMK AO2 T01780017
93073KASE ASE20160608090009706/08/16 09:00:31  5-MIN KASE 081600Z 10SM FEW100 18/02 A3019 7600 35 9700 M /M RMK AO2 T01780022
93073KASE ASE20160608090510706/08/16 09:05:31  5-MIN KASE 081605Z 35004KT 10SM FEW100 18/02 A3018 7600 32 9700 340/04 RMK AO2 T01830017
93073KASE ASE20160608091010706/08/16 09:10:31  5-MIN KASE 081610Z 35004KT 10SM FEW110 18/02 A3018 7600 32 9700 340/04 RMK AO2 T01830017
93073KASE ASE20160608091510706/08/16 09:15:31  5-MIN KASE 081615Z 34004KT 10SM SCT110 19/02 A3018 7600 32 9800 330/04 RMK AO2 T01890022
93073KASE ASE20160608092010706/08/16 09:20:31  5-MIN KASE 081620Z VRB03KT 10SM FEW110 19/02 A3018 7600 30 9800 VRB/03 RMK AO2 T01940017
93073KASE ASE20160608092510706/08/16 09:25:31  5-MIN KASE 081625Z 34005KT 10SM SCT100 19/02 A3018 7600 31 9800 330/05 RMK AO2 T01940022
93073KASE ASE20160608093010706/08/16 09:30:31  5-MIN KASE 081630Z 01004KT 10SM SCT110 19/01 A3018 7600 28 9900 360/04 RMK AO2 T01940006
93073KASE ASE20160608093510906/08/16 09:35:31  5-MIN KASE 081635Z VRB04KT 10SM SCT110 21/M01 A3018 7600 24 10000 VRB/04 RMK AO2 T02061006
93073KASE ASE20160608094010706/08/16 09:40:31  5-MIN KASE 081640Z 35004KT 10SM FEW110 20/01 A3017 7610 27 9900 340/04 RMK AO2 T02000006
93073KASE ASE20160608094510806/08/16 09:45:31  5-MIN KASE 081645Z VRB04KT 10SM FEW110 21/00 A3018 7600 25 10000 VRB/04 RMK AO2 T02060000
93073KASE ASE20160608095011506/08/16 09:50:31  5-MIN KASE 081650Z 33004KT 10SM FEW100 21/00 A3018 7600 25 10000 320/04 RMK AO2 SLP097 T02060000
93073KASE ASE20160608095510806/08/16 09:55:31  5-MIN KASE 081655Z 35003KT 10SM FEW110 21/00 A3018 7600 25 10000 340/03 RMK AO2 T02060000
93073KASE ASE20160608100010906/08/16 10:00:31  5-MIN KASE 081700Z VRB03KT 10SM SCT100 21/M01 A3018 7610 24 10000 VRB/03 RMK AO2 T02061006
93073KASE ASE20160608100510806/08/16 10:05:31  5-MIN KASE 081705Z VRB03KT 10SM SCT100 21/00 A3018 7600 24 10000 VRB/03 RMK AO2 T02110000
93073KASE ASE20160608101010806/08/16 10:10:31  5-MIN KASE 081710Z VRB03KT 10SM BKN100 21/01 A3018 7610 25 10000 VRB/03 RMK AO2 T02110006
93073KASE ASE20160608101510806/08/16 10:15:31  5-MIN KASE 081715Z 01005KT 10SM BKN100 21/01 A3018 7600 26 10000 360/05 RMK AO2 T02110011
93073KASE ASE20160608102010806/08/16 10:20:31  5-MIN KASE 081720Z VRB04KT 10SM BKN100 21/01 A3018 7600 25 10000 VRB/04 RMK AO2 T02110006
93073KASE ASE20160608102510806/08/16 10:25:31  5-MIN KASE 081725Z 00000KT 10SM OVC100 22/02 A3018 7600 26 10100 000/00 RMK AO2 T02170017
93073KASE ASE20160608103010806/08/16 10:30:31  5-MIN KASE 081730Z 04003KT 10SM OVC100 22/02 A3018 7610 26 10100 040/03 RMK AO2 T02170017
93073KASE ASE20160608103510806/08/16 10:35:31  5-MIN KASE 081735Z 00000KT 10SM BKN070 22/01 A3017 7610 25 10100 000/00 RMK AO2 T02170011
93073KASE ASE20160608104010806/08/16 10:40:31  5-MIN KASE 081740Z 00000KT 10SM BKN070 22/02 A3017 7610 25 10200 000/00 RMK AO2 T02220017
93073KASE ASE20160608104510806/08/16 10:45:31  5-MIN KASE 081745Z VRB04KT 10SM BKN070 23/02 A3017 7610 25 10200 VRB/04 RMK AO2 T02280022
93073KASE ASE20160608105013306/08/16 10:50:31  5-MIN KASE 081750Z 33005KT 10SM BKN070 22/02 A3017 7610 25 10200 320/05 RMK AO2 SLP092 T02220017 10228 20067 53005
93073KASE ASE20160608105510806/08/16 10:55:31  5-MIN KASE 081755Z VRB03KT 10SM OVC100 22/01 A3017 7610 24 10200 VRB/03 RMK AO2 T02220011
93073KASE ASE20160608110010806/08/16 11:00:31  5-MIN KASE 081800Z 33003KT 10SM OVC100 22/01 A3017 7610 24 10200 320/03 RMK AO2 T02220011
93073KASE ASE20160608110510806/08/16 11:05:31  5-MIN KASE 081805Z VRB03KT 10SM OVC100 23/02 A3017 7610 24 10200 VRB/03 RMK AO2 T02280017
93073KASE ASE20160608111010806/08/16 11:10:31  5-MIN KASE 081810Z 34009KT 10SM OVC100 23/02 A3017 7610 25 10200 330/09 RMK AO2 T02280022
93073KASE ASE20160608111510806/08/16 11:15:31  5-MIN KASE 081815Z 33009KT 10SM OVC100 22/02 A3017 7610 25 10200 320/09 RMK AO2 T02220017
93073KASE ASE20160608112011506/08/16 11:20:31  5-MIN KASE 081820Z 32011KT 10SM BKN100 OVC120 22/02 A3017 7610 25 10200 310/11 RMK AO2 T02220017
93073KASE ASE20160608112511406/08/16 11:25:31  5-MIN KASE 081825Z 32008G15KT 10SM OVC110 22/02 A3017 7610 27 10100 310/08G15 RMK AO2 T02170022
93073KASE ASE20160608113011506/08/16 11:30:31  5-MIN KASE 081830Z 33007KT 10SM BKN100 OVC120 22/02 A3017 7610 27 10100 320/07 RMK AO2 T02170022
93073KASE ASE20160608113510806/08/16 11:35:31  5-MIN KASE 081835Z 32009KT 10SM OVC100 22/02 A3017 7610 27 10100 310/09 RMK AO2 T02170022
93073KASE ASE20160608114010806/08/16 11:40:31  5-MIN KASE 081840Z 32007KT 10SM BKN100 22/03 A3017 7610 27 10200 310/07 RMK AO2 T02220028
93073KASE ASE20160608114511506/08/16 11:45:31  5-MIN KASE 081845Z 35007KT 10SM FEW090 BKN110 23/02 A3017 7610 25 10200 340/07 RMK AO2 T02280022
93073KASE ASE20160608115012206/08/16 11:50:31  5-MIN KASE 081850Z 32007KT 10SM FEW090 BKN110 23/03 A3017 7610 25 10300 310/07 RMK AO2 SLP092 T02330028
93073KASE ASE20160608115511506/08/16 11:55:31  5-MIN KASE 081855Z 33008KT 10SM SCT095 BKN110 23/03 A3017 7610 25 10300 320/08 RMK AO2 T02330028
93073KASE ASE20160608120011506/08/16 12:00:31  5-MIN KASE 081900Z 31009KT 10SM SCT095 SCT110 23/03 A3017 7610 25 10300 300/09 RMK AO2 T02330028
93073KASE ASE20160608120512106/08/16 12:05:31  5-MIN KASE 081905Z 32010G15KT 10SM SCT095 BKN110 23/02 A3017 7610 25 10200 310/10G15 RMK AO2 T02280022
93073KASE ASE20160608121012006/08/16 12:10:31  5-MIN KASE 081910Z 33009G15KT 9SM BKN090 BKN110 22/02 A3017 7610 25 10200 320/09G15 RMK AO2 T02220017
93073KASE ASE20160608121510706/08/16 12:15:31  5-MIN KASE 081915Z 32006KT 9SM BKN090 22/03 A3017 7610 27 10200 310/06 RMK AO2 T02220028
93073KASE ASE20160608122012106/08/16 12:20:31  5-MIN KASE 081920Z 29011G16KT 10SM FEW070 BKN090 22/03 A3017 7610 27 10200 280/11G16 RMK AO2 T02220028
93073KASE ASE20160608122512106/08/16 12:25:31  5-MIN KASE 081925Z 31008G16KT 10SM FEW070 OVC095 21/03 A3017 7610 29 10000 300/08G16 RMK AO2 T02110028
93073KASE ASE20160608123011506/08/16 12:30:31  5-MIN KASE 081930Z 26006KT 10SM BKN090 OVC110 22/03 A3017 7610 29 10100 260/06 RMK AO2 T02170033
93073KASE ASE20160608123510506/08/16 12:35:31  5-MIN KASE 081935Z 10SM SCT090 BKN110 22/03 A3017 7610 29 10100 M /M RMK AO2 T02170033
93073KASE ASE20160608124013106/08/16 12:40:31  5-MIN KASE 081940Z 28007KT 260V330 10SM FEW090 BKN110 22/03 A3017 7610 27 10200 270/07 250V320 RMK AO2 T02220028
93073KASE ASE20160608124511506/08/16 12:45:31  5-MIN KASE 081945Z 21005KT 10SM FEW095 SCT110 22/02 A3016 7620 26 10200 200/05 RMK AO2 T02220022
93073KASE ASE20160608125011506/08/16 12:50:31  5-MIN KASE 081950Z 17004KT 10SM FEW110 23/02 A3016 7620 25 10200 170/04 RMK AO2 SLP094 T02280022
93073KASE ASE20160608125510806/08/16 12:55:31  5-MIN KASE 081955Z 00000KT 10SM FEW120 23/02 A3016 7620 24 10200 000/00 RMK AO2 T02280017
93073KASE ASE20160608130010406/08/16 13:00:31  5-MIN KASE 082000Z 05005KT 7SM CLR 24/02 A3016 7620 24 10400 040/05 RMK AO2 T02390022
93073KASE ASE20160608130510706/08/16 13:05:31  5-MIN KASE 082005Z 01004KT 7SM FEW090 23/02 A3016 7620 24 10300 360/04 RMK AO2 T02330017
93073KASE ASE20160608131013006/08/16 13:10:31  5-MIN KASE 082010Z 28011G18KT 230V310 10SM SCT085 23/02 A3017 7610 24 10200 270/11G18 220V300 RMK AO2 T02280017
93073KASE ASE20160608131513406/08/16 13:15:31  5-MIN KASE 082015Z 28034G42KT 10SM SQ BKN085 20/02 A3016 7620 29 9900 270/34G42 RMK AO2 PK WND 29042/2014 T02000017
93073KASE ASE20160608132016306/08/16 13:20:31  5-MIN KASE 082020Z 26022G42KT 8SM -RA SQ FEW060 BKN085 18/04 A3018 7600 39 9700 250/22G42 RMK AO2 PK WND 29042/2014 RAB17 PRESRR P0000 T01780039
93073KASE ASE20160608132517106/08/16 13:25:31  5-MIN KASE 082025Z 22020G36KT 5SM -RA SCT060 BKN085 16/06 A3019 7590 49 9500 210/20G36 RMK AO2 PK WND 29042/2014 WSHFT 2010 RAB17 PRESRR P0000 T01610056
93073KASE ASE20160608133017106/08/16 13:30:31  5-MIN KASE 082030Z 19018G28KT 5SM -RA FEW008 BKN085 OVC110 16/06 A3019 7590 53 9400 180/18G28 RMK AO2 PK WND 29042/2014 WSHFT 2010 RAB17 P0001 T01560061
93073KASE ASE20160608133517106/08/16 13:35:31  5-MIN KASE 082035Z 18015G28KT 8SM -RA FEW008 BKN085 OVC110 16/06 A3018 7600 53 9400 170/15G28 RMK AO2 PK WND 29042/2014 WSHFT 2017 RAB17 P0001 T01560061
93073KASE ASE20160608134016606/08/16 13:40:31  5-MIN KASE 082040Z 17012KT 10SM -RA FEW009 SCT055 OVC100 16/07 A3018 7600 55 9500 160/12 RMK AO2 PK WND 29042/2014 WSHFT 2017 RAB17 P0001 T01610072
93073KASE ASE20160608134516506/08/16 13:45:31  5-MIN KASE 082045Z VRB03KT 10SM FEW009 BKN090 OVC110 17/07 A3019 7600 51 9500 VRB/03 RMK AO2 PK WND 29042/2014 WSHFT 2017 RAB17E44 P0001 T01670067
93073KASE ASE20160608135018406/08/16 13:50:31  5-MIN KASE 082050Z 00000KT 10SM FEW009 BKN080 BKN100 16/06 A3019 7590 51 9500 000/00 RMK AO2 PK WND 29042/2014 WSHFT 2017 RAB17E44 SLP127 P0001 60001 T01610061 57006
93073KASE ASE20160608135512106/08/16 13:55:31  5-MIN KASE 082055Z 00000KT 10SM FEW060 SCT080 OVC100 16/06 A3019 7590 49 9500 000/00 RMK AO2 T01610056
93073KASE ASE20160608140012106/08/16 14:00:31  5-MIN KASE 082100Z VRB03KT 10SM FEW055 BKN085 OVC110 17/06 A3019 7590 47 9500 VRB/03 RMK AO2 T01670056
93073KASE ASE20160608140512506/08/16 14:05:31  5-MIN KASE 082105Z 19006KT 10SM SCT055 OVC090 16/06 A3019 7600 51 9500 190/06 RMK AO2 LTG DSNT W T01610061
93073KASE ASE20160608141014806/08/16 14:10:31  5-MIN KASE 082110Z 21006KT 10SM -RA FEW050 SCT075 OVC095 17/06 A3018 7600 47 9600 200/06 RMK AO2 LTG DSNT W RAB09 P0000 T01720061
93073KASE ASE20160608141514806/08/16 14:15:31  5-MIN KASE 082115Z 23007KT 10SM -RA FEW050 SCT070 OVC100 17/07 A3018 7600 53 9500 220/07 RMK AO2 LTG DSNT W RAB09 P0000 T01670072
93073KASE ASE20160608142014006/08/16 14:20:31  5-MIN KASE 082120Z 27007KT 10SM FEW050 OVC100 17/07 A3018 7600 53 9500 260/07 RMK AO2 LTG DSNT W RAB09E19 P0000 T01670072
93073KASE ASE20160608142516206/08/16 14:25:31  5-MIN KASE 082125Z 29011G14KT 270V340 10SM FEW050 OVC100 17/06 A3019 7590 47 9600 280/11G14 260V330 RMK AO2 LTG DSNT W RAB09E19 P0000 T01720061
93073KASE ASE20160608143013506/08/16 14:30:31  5-MIN KASE 082130Z 28010G14KT 10SM FEW055 OVC100 17/07 A3019 7590 53 9500 270/10G14 RMK AO2 RAB09E19 P0000 T01670072
93073KASE ASE20160608143512206/08/16 14:35:31  5-MIN KASE 082135Z 28010KT 10SM OVC100 17/06 A3020 7590 49 9500 270/10 RMK AO2 RAB09E19 P0000 T01670061
93073KASE ASE20160608144012206/08/16 14:40:31  5-MIN KASE 082140Z 28011KT 10SM OVC100 17/06 A3020 7580 46 9600 270/11 RMK AO2 RAB09E19 P0000 T01720056
93073KASE ASE20160608144512906/08/16 14:45:31  5-MIN KASE 082145Z 24008KT 10SM SCT080 OVC100 17/06 A3020 7580 46 9600 240/08 RMK AO2 RAB09E19 P0000 T01720056
93073KASE ASE20160608145015006/08/16 14:50:31  5-MIN KASE 082150Z 27011KT 10SM -RA FEW060 SCT080 OVC100 17/07 A3021 7580 51 9500 260/11 RMK AO2 RAB09E19B47 SLP132 P0000 T01670067
93073KASE ASE20160608145513606/08/16 14:55:31  5-MIN KASE 082155Z 28008G16KT 9SM -RA FEW060 BKN075 OVC110 17/06 A3021 7570 47 9500 270/08G16 RMK AO2 P0000 T01670056
93073KASE ASE20160608150013606/08/16 15:00:31  5-MIN KASE 082200Z 29008G16KT 9SM -RA FEW043 BKN070 OVC110 16/07 A3021 7570 55 9400 280/08G16 RMK AO2 P0000 T01560067
93073KASE ASE20160608150513006/08/16 15:05:31  5-MIN KASE 082205Z 35008KT 9SM -RA FEW022 BKN060 OVC075 16/07 A3021 7570 57 9400 340/08 RMK AO2 P0001 T01560072
93073KASE ASE20160608151013006/08/16 15:10:31  5-MIN KASE 082210Z 04007KT 9SM -RA FEW028 BKN060 OVC080 16/07 A3021 7580 57 9400 030/07 RMK AO2 P0001 T01560072
93073KASE ASE20160608151514206/08/16 15:15:31  5-MIN KASE 082215Z 05008KT 10SM -RA FEW028 BKN065 OVC080 15/07 A3019 7590 57 9300 040/08 RMK AO2 LTG DSNT W P0001 T01500067
93073KASE ASE20160608152014806/08/16 15:20:31  5-MIN KASE 082220Z 06010G16KT 10SM -RA FEW041 BKN065 OVC095 16/07 A3019 7590 55 9400 050/10G16 RMK AO2 LTG DSNT W P0001 T01560067
93073KASE ASE20160608152515506/08/16 15:25:31  5-MIN KASE 082225Z 08013G19KT 10SM -RA FEW041 SCT060 OVC090 16/06 A3018 7600 51 9500 070/13G19 RMK AO2 LTG DSNT W PRESFR P0001 T01610061
93073KASE ASE20160608153016206/08/16 15:30:31  5-MIN KASE 082230Z 11008G19KT 10SM -RA FEW039 SCT070 OVC090 16/06 A3017 7610 51 9500 100/08G19 RMK AO2 LTG DSNT NE AND W PRESFR P0001 T01610061
93073KASE ASE20160608153515506/08/16 15:35:31  5-MIN KASE 082235Z 22008G18KT 10SM -RA FEW039 SCT075 OVC090 17/07 A3018 7610 51 9600 210/08G18 RMK AO2 LTG DSNT NE AND W P0001 T01670067
93073KASE ASE20160608154014506/08/16 15:40:31  5-MIN KASE 082240Z 24009KT 10SM -RA FEW065 FEW075 BKN095 17/08 A3018 7600 55 9500 230/09 RMK AO2 LTG DSNT W-NE P0001 T01670078
93073KASE ASE20160608154514406/08/16 15:45:31  5-MIN KASE 082245Z 24007KT 10SM FEW080 SCT095 17/08 A3018 7600 57 9500 230/07 RMK AO2 LTG DSNT W AND NW RAE41 P0001 T01670083
93073KASE ASE20160608155015106/08/16 15:50:31  5-MIN KASE 082250Z 23007KT 10SM FEW075 BKN090 17/08 A3018 7600 57 9500 220/07 RMK AO2 LTG DSNT W AND NW RAE41 SLP123 P0001 T01670083
93073KASE ASE20160608155512106/08/16 15:55:31  5-MIN KASE 082255Z 21003KT 10SM FEW060 SCT075 BKN090 17/07 A3019 7600 53 9500 200/03 RMK AO2 T01670072
93073KASE ASE20160608160012106/08/16 16:00:31  5-MIN KASE 082300Z 26004KT 10SM FEW038 SCT050 BKN075 17/08 A3019 7600 53 9600 250/04 RMK AO2 T01720078
93073KASE ASE20160608160512106/08/16 16:05:31  5-MIN KASE 082305Z 28008KT 10SM FEW036 SCT048 BKN070 17/08 A3019 7590 55 9600 270/08 RMK AO2 T01720083
93073KASE ASE20160608161012106/08/16 16:10:31  5-MIN KASE 082310Z 29004KT 10SM FEW049 BKN075 BKN095 17/08 A3019 7590 55 9500 280/04 RMK AO2 T01670078
93073KASE ASE20160608161514906/08/16 16:15:31  5-MIN KASE 082315Z VRB06KT 10SM -RA FEW049 BKN075 OVC090 17/07 A3019 7590 53 9500 VRB/06 RMK AO2 LTG DSNT NW RAB11 P0000 T01670072
93073KASE ASE20160608162014906/08/16 16:20:31  5-MIN KASE 082320Z VRB03KT 10SM -RA FEW049 BKN075 OVC090 17/06 A3020 7580 47 9600 VRB/03 RMK AO2 LTG DSNT NW RAB11 P0000 T01720061
93073KASE ASE20160608162514806/08/16 16:25:31  5-MIN KASE 082325Z VRB05KT 9SM -RA FEW042 SCT055 OVC080 17/06 A3020 7580 49 9500 VRB/05 RMK AO2 LTG DSNT NW RAB11 P0000 T01670061
93073KASE ASE20160608163014806/08/16 16:30:31  5-MIN KASE 082330Z 00000KT 7SM -RA FEW047 BKN080 OVC090 17/05 A3019 7590 45 9500 000/00 RMK AO2 LTG DSNT NW RAB11 P0001 T01670050
93073KASE ASE20160608163513806/08/16 16:35:31  5-MIN KASE 082335Z 8SM -RA FEW047 BKN070 OVC085 17/07 A3020 7590 51 9500 M /M RMK AO2 LTG DSNT NW RAB11 P0001 T01670067
93073KASE ASE20160608164014906/08/16 16:40:31  5-MIN KASE 082340Z VRB03KT 10SM -RA FEW055 BKN070 OVC085 16/07 A3020 7590 55 9500 VRB/03 RMK AO2 LTG DSNT NW RAB11 P0001 T01610072
93073KASE ASE20160608164513706/08/16 16:45:31  5-MIN KASE 082345Z 11004KT 10SM -RA FEW032 BKN075 OVC095 16/08 A3019 7590 62 9400 100/04 RMK AO2 RAB11 P0001 T01560083
93073KASE ASE20160608165016806/08/16 16:50:31  5-MIN KASE 082350Z VRB03KT 10SM -RA FEW032 BKN075 BKN100 16/08 A3020 7590 59 9500 VRB/03 RMK AO2 RAB11 SLP133 P0001 60003 T01610083 10239 20150 53006
93073KASE ASE20160608165514306/08/16 16:55:31  5-MIN KASE 082355Z 00000KT 10SM -RA FEW055 BKN070 OVC090 16/09 A3019 7590 67 9400 000/00 RMK AO2 LTG DSNT NW P0000 T01560094
93073KASE ASE20160608170014206/08/16 17:00:31  5-MIN KASE 090000Z 26005KT 10SM -RA SCT070 OVC090 16/09 A3019 7590 64 9500 250/05 RMK AO2 LTG DSNT N AND NW P0000 T01610094
93073KASE ASE20160608170514406/08/16 17:05:31  5-MIN KASE 090005Z 30005KT 10SM FEW070 BKN090 17/09 A3019 7590 60 9600 290/05 RMK AO2 LTG DSNT N AND NW RAE04 P0000 T01720094
93073KASE ASE20160608171014406/08/16 17:10:31  5-MIN KASE 090010Z 00000KT 10SM FEW070 BKN090 17/07 A3019 7590 53 9500 000/00 RMK AO2 LTG DSNT N AND NW RAE04 P0000 T01670072
93073KASE ASE20160608171514406/08/16 17:15:31  5-MIN KASE 090015Z 20003KT 10SM FEW070 SCT085 17/08 A3019 7590 57 9500 190/03 RMK AO2 LTG DSNT N AND NW RAE04 P0000 T01670083
93073KASE ASE20160608172014406/08/16 17:20:31  5-MIN KASE 090020Z 00000KT 10SM FEW075 SCT090 17/08 A3019 7600 57 9500 000/00 RMK AO2 LTG DSNT N AND NW RAE04 P0000 T01670083
93073KASE ASE20160608172513106/08/16 17:25:31  5-MIN KASE 090025Z 00000KT 10SM FEW090 17/08 A3019 7590 55 9500 000/00 RMK AO2 LTG DSNT NW RAE04 P0000 T01670078
93073KASE ASE20160608173011606/08/16 17:30:31  5-MIN KASE 090030Z 00000KT 10SM CLR 17/08 A3019 7590 57 9500 000/00 RMK AO2 RAE04 P0000 T01670083
93073KASE ASE20160608173511606/08/16 17:35:31  5-MIN KASE 090035Z 35003KT 10SM CLR 17/08 A3019 7600 57 9500 340/03 RMK AO2 RAE04 P0000 T01670083
93073KASE ASE20160608174013006/08/16 17:40:31  5-MIN KASE 090040Z 28003KT 10SM FEW110 16/09 A3019 7590 64 9500 270/03 RMK AO2 LTG DSNT N RAE04 P0000 T01610094
93073KASE ASE20160608174513006/08/16 17:45:31  5-MIN KASE 090045Z 30003KT 10SM SCT110 16/09 A3019 7590 62 9500 300/03 RMK AO2 LTG DSNT N RAE04 P0000 T01610089
93073KASE ASE20160608175013706/08/16 17:50:31  5-MIN KASE 090050Z 00000KT 10SM BKN110 16/09 A3019 7590 64 9500 000/00 RMK AO2 LTG DSNT N RAE04 SLP120 P0000 T01610094
93073KASE ASE20160608175511906/08/16 17:55:31  5-MIN KASE 090055Z 00000KT 10SM SCT120 16/10 A3019 7590 67 9500 000/00 RMK AO2 LTG DSNT NE T01610100
93073KASE ASE20160608180011906/08/16 18:00:31  5-MIN KASE 090100Z 00000KT 10SM SCT110 16/10 A3019 7590 67 9500 000/00 RMK AO2 LTG DSNT NE T01610100
93073KASE ASE20160608180512606/08/16 18:05:31  5-MIN KASE 090105Z 00000KT 10SM FEW100 BKN120 16/09 A3020 7590 64 9500 000/00 RMK AO2 LTG DSNT NE T01610094
93073KASE ASE20160608181010706/08/16 18:10:31  5-MIN KASE 090110Z 20005KT 10SM BKN110 16/09 A3020 7580 64 9500 190/05 RMK AO2 T01610094
93073KASE ASE20160608181512106/08/16 18:15:31  5-MIN KASE 090115Z 25003KT 10SM FEW060 BKN100 BKN120 16/09 A3020 7580 67 9400 240/03 RMK AO2 T01560094
93073KASE ASE20160608182014906/08/16 18:20:31  5-MIN KASE 090120Z 21004KT 10SM -RA FEW060 BKN095 BKN120 16/09 A3020 7580 64 9400 200/04 RMK AO2 LTG DSNT NE RAB19 P0000 T01560089
93073KASE ASE20160608182514906/08/16 18:25:31  5-MIN KASE 090125Z 23004KT 10SM -RA FEW055 BKN095 OVC120 15/09 A3021 7580 69 9300 230/04 RMK AO2 LTG DSNT NE RAB19 P0000 T01500094
93073KASE ASE20160608183014906/08/16 18:30:31  5-MIN KASE 090130Z 00000KT 10SM -RA SCT060 BKN070 OVC100 15/09 A3021 7580 69 9300 000/00 RMK AO2 LTG DSNT NE RAB19 P0000 T01500094
93073KASE ASE20160608183514906/08/16 18:35:31  5-MIN KASE 090135Z 18005KT 10SM -RA FEW046 BKN075 OVC100 16/09 A3020 7580 64 9400 170/05 RMK AO2 LTG DSNT NE RAB19 P0000 T01560089
93073KASE ASE20160608184014906/08/16 18:40:31  5-MIN KASE 090140Z VRB03KT 10SM -RA FEW046 BKN070 OVC100 16/09 A3019 7590 67 9400 VRB/03 RMK AO2 LTG DSNT NE RAB19 P0000 T01560094
93073KASE ASE20160608184514906/08/16 18:45:31  5-MIN KASE 090145Z VRB04KT 10SM -RA FEW050 BKN090 OVC110 15/09 A3020 7590 66 9300 VRB/04 RMK AO2 LTG DSNT NE RAB19 P0000 T01500089
93073KASE ASE20160608185014306/08/16 18:50:31  5-MIN KASE 090150Z VRB03KT 10SM FEW050 BKN090 OVC110 16/08 A3020 7580 62 9400 VRB/03 RMK AO2 RAB19E47 SLP117 P0000 T01560083
93073KASE ASE20160608185512106/08/16 18:55:31  5-MIN KASE 090155Z 24005KT 10SM FEW065 SCT080 BKN100 16/08 A3020 7580 62 9400 230/05 RMK AO2 T01560083
93073KASE ASE20160608190011406/08/16 19:00:31  5-MIN KASE 090200Z 00000KT 10SM FEW080 BKN100 15/09 A3020 7580 66 9300 000/00 RMK AO2 T01500089
93073KASE ASE20160608190510706/08/16 19:05:31  5-MIN KASE 090205Z 00000KT 10SM BKN100 14/09 A3020 7580 69 9300 000/00 RMK AO2 T01440089
93073KASE ASE20160608191010706/08/16 19:10:31  5-MIN KASE 090210Z 00000KT 10SM BKN100 14/09 A3020 7580 74 9200 000/00 RMK AO2 T01390094
93073KASE ASE20160608191510706/08/16 19:15:31  5-MIN KASE 090215Z 22003KT 10SM BKN100 14/09 A3020 7580 71 9200 220/03 RMK AO2 T01390089
93073KASE ASE20160608192010706/08/16 19:20:31  5-MIN KASE 090220Z 21003KT 10SM BKN095 13/09 A3020 7580 80 9100 210/03 RMK AO2 T01280094
93073KASE ASE20160608192510706/08/16 19:25:31  5-MIN KASE 090225Z 22005KT 10SM BKN095 12/09 A3021 7580 83 9000 220/05 RMK AO2 T01220094
93073KASE ASE20160608193011406/08/16 19:30:31  5-MIN KASE 090230Z 22006KT 10SM BKN095 BKN120 12/09 A3021 7580 80 9000 210/06 RMK AO2 T01220089
93073KASE ASE20160608193510706/08/16 19:35:31  5-MIN KASE 090235Z VRB03KT 10SM SCT095 12/09 A3021 7570 80 9000 VRB/03 RMK AO2 T01220089
93073KASE ASE20160608194010706/08/16 19:40:31  5-MIN KASE 090240Z 22006KT 10SM SCT090 13/09 A3021 7570 77 9100 210/06 RMK AO2 T01280089
93073KASE ASE20160608194510706/08/16 19:45:31  5-MIN KASE 090245Z 22006KT 10SM FEW090 12/09 A3021 7570 80 9000 210/06 RMK AO2 T01220089
93073KASE ASE20160608195012306/08/16 19:50:31  5-MIN KASE 090250Z 21005KT 10SM CLR 13/08 A3021 7570 74 9100 200/05 RMK AO2 SLP124 60000 T01280083 51001
93073KASE ASE20160608195510406/08/16 19:55:31  5-MIN KASE 090255Z VRB04KT 10SM CLR 13/08 A3021 7570 74 9100 VRB/04 RMK AO2 T01280083
93073KASE ASE20160608200010406/08/16 20:00:31  5-MIN KASE 090300Z 21007KT 10SM CLR 12/08 A3021 7570 77 9000 200/07 RMK AO2 T01220083
93073KASE ASE20160608200510406/08/16 20:05:31  5-MIN KASE 090305Z 22005KT 10SM CLR 12/08 A3021 7570 74 9000 210/05 RMK AO2 T01220078
93073KASE ASE20160608201010406/08/16 20:10:31  5-MIN KASE 090310Z 19005KT 10SM CLR 12/08 A3021 7570 74 9000 180/05 RMK AO2 T01220078
93073KASE ASE20160608201510406/08/16 20:15:31  5-MIN KASE 090315Z 20005KT 10SM CLR 12/08 A3021 7570 77 9000 190/05 RMK AO2 T01170078
93073KASE ASE20160608202010406/08/16 20:20:31  5-MIN KASE 090320Z 21006KT 10SM CLR 12/08 A3021 7570 74 9000 200/06 RMK AO2 T01220078
93073KASE ASE20160608202510406/08/16 20:25:31  5-MIN KASE 090325Z 21006KT 10SM CLR 12/07 A3021 7570 74 9000 200/06 RMK AO2 T01170072
93073KASE ASE20160608203010406/08/16 20:30:31  5-MIN KASE 090330Z 20005KT 10SM CLR 12/07 A3021 7570 71 9000 190/05 RMK AO2 T01220072
93073KASE ASE20160608203510406/08/16 20:35:31  5-MIN KASE 090335Z 20006KT 10SM CLR 12/07 A3021 7570 71 9000 190/06 RMK AO2 T01220072
93073KASE ASE20160608204010406/08/16 20:40:31  5-MIN KASE 090340Z 22007KT 10SM CLR 12/07 A3022 7570 71 8900 210/07 RMK AO2 T01170067
93073KASE ASE20160608204510406/08/16 20:45:31  5-MIN KASE 090345Z VRB05KT 10SM CLR 13/07 A3022 7570 66 9100 VRB/05 RMK AO2 T01280067
93073KASE ASE20160608205011106/08/16 20:50:31  5-MIN KASE 090350Z 20006KT 10SM CLR 12/07 A3022 7570 68 9000 190/06 RMK AO2 SLP121 T01220067
93073KASE ASE20160608205510406/08/16 20:55:31  5-MIN KASE 090355Z 20005KT 10SM CLR 12/07 A3022 7560 71 8900 190/05 RMK AO2 T01170067
93073KASE ASE20160608210010406/08/16 21:00:31  5-MIN KASE 090400Z 20009KT 10SM CLR 12/07 A3022 7560 71 8900 190/09 RMK AO2 T01170067
93073KASE ASE20160608210510406/08/16 21:05:31  5-MIN KASE 090405Z 20008KT 10SM CLR 11/07 A3022 7570 74 8900 190/08 RMK AO2 T01110067
93073KASE ASE20160608211010406/08/16 21:10:31  5-MIN KASE 090410Z 21008KT 10SM CLR 11/06 A3022 7560 74 8800 200/08 RMK AO2 T01060061
93073KASE ASE20160608211510406/08/16 21:15:31  5-MIN KASE 090415Z 22006KT 10SM CLR 10/06 A3022 7560 77 8800 210/06 RMK AO2 T01000061
93073KASE ASE20160608212010406/08/16 21:20:31  5-MIN KASE 090420Z 19005KT 10SM CLR 11/06 A3022 7560 74 8800 180/05 RMK AO2 T01060061
93073KASE ASE20160608212510406/08/16 21:25:31  5-MIN KASE 090425Z 20005KT 10SM CLR 11/06 A3022 7560 74 8800 190/05 RMK AO2 T01060061
93073KASE ASE20160608213010406/08/16 21:30:31  5-MIN KASE 090430Z 22008KT 10SM CLR 11/06 A3022 7570 74 8800 210/08 RMK AO2 T01060061
93073KASE ASE20160608213510406/08/16 21:35:31  5-MIN KASE 090435Z 21008KT 10SM CLR 10/06 A3022 7570 77 8800 200/08 RMK AO2 T01000061
93073KASE ASE20160608214010406/08/16 21:40:31  5-MIN KASE 090440Z VRB06KT 10SM CLR 11/06 A3022 7570 74 8800 VRB/06 RMK AO2 T01060061
93073KASE ASE20160608214510406/08/16 21:45:31  5-MIN KASE 090445Z 22008KT 10SM CLR 10/06 A3022 7570 77 8800 210/08 RMK AO2 T01000061
93073KASE ASE20160608215011106/08/16 21:50:31  5-MIN KASE 090450Z 23008KT 10SM CLR 11/06 A3022 7570 71 8800 220/08 RMK AO2 SLP118 T01060056
93073KASE ASE20160608215510406/08/16 21:55:31  5-MIN KASE 090455Z 21006KT 10SM CLR 11/06 A3022 7570 71 8800 200/06 RMK AO2 T01060056
93073KASE ASE20160608220010406/08/16 22:00:31  5-MIN KASE 090500Z VRB04KT 10SM CLR 11/06 A3022 7570 68 8900 VRB/04 RMK AO2 T01110056
93073KASE ASE20160608220510406/08/16 22:05:31  5-MIN KASE 090505Z VRB05KT 10SM CLR 11/06 A3021 7570 71 8800 VRB/05 RMK AO2 T01060056
93073KASE ASE20160608221010406/08/16 22:10:31  5-MIN KASE 090510Z 22009KT 10SM CLR 11/06 A3021 7570 71 8800 210/09 RMK AO2 T01060056
93073KASE ASE20160608221510406/08/16 22:15:31  5-MIN KASE 090515Z 22007KT 10SM CLR 11/05 A3021 7570 68 8800 210/07 RMK AO2 T01060050
93073KASE ASE20160608222010406/08/16 22:20:31  5-MIN KASE 090520Z 22009KT 10SM CLR 11/05 A3021 7570 68 8800 210/09 RMK AO2 T01060050
93073KASE ASE20160608222510406/08/16 22:25:31  5-MIN KASE 090525Z 21007KT 10SM CLR 11/06 A3021 7580 71 8800 200/07 RMK AO2 T01060056
93073KASE ASE20160608223010706/08/16 22:30:31  5-MIN KASE 090530Z 21006KT 10SM FEW090 11/06 A3021 7570 71 8800 200/06 RMK AO2 T01060056
93073KASE ASE20160608223510706/08/16 22:35:31  5-MIN KASE 090535Z 19005KT 10SM SCT090 11/05 A3021 7580 68 8800 180/05 RMK AO2 T01060050
93073KASE ASE20160608224010706/08/16 22:40:31  5-MIN KASE 090540Z 16005KT 10SM BKN085 12/04 A3021 7570 61 9000 150/05 RMK AO2 T01170044
93073KASE ASE20160608224510706/08/16 22:45:31  5-MIN KASE 090545Z 17006KT 10SM SCT085 12/04 A3021 7570 61 9000 160/06 RMK AO2 T01170044
93073KASE ASE20160608225013806/08/16 22:50:31  5-MIN KASE 090550Z 21005KT 10SM SCT085 11/05 A3021 7570 68 8800 200/05 RMK AO2 SLP110 60000 T01060050 10172 20100 53005
93073KASE ASE20160608225510706/08/16 22:55:31  5-MIN KASE 090555Z 21003KT 10SM SCT085 10/05 A3021 7580 71 8800 200/03 RMK AO2 T01000050
93073KASE ASE20160608230010706/08/16 23:00:31  5-MIN KASE 090600Z 22006KT 10SM FEW085 11/05 A3021 7570 68 8800 210/06 RMK AO2 T01060050
93073KASE ASE20160608230510706/08/16 23:05:31  5-MIN KASE 090605Z 21006KT 10SM SCT080 11/05 A3021 7570 68 8800 200/06 RMK AO2 T01060050
93073KASE ASE20160608231010706/08/16 23:10:31  5-MIN KASE 090610Z 22005KT 10SM BKN080 11/05 A3022 7570 68 8800 210/05 RMK AO2 T01060050
93073KASE ASE20160608231510706/08/16 23:15:31  5-MIN KASE 090615Z 21003KT 10SM BKN080 10/05 A3021 7570 71 8800 200/03 RMK AO2 T01000050
93073KASE ASE20160608232010706/08/16 23:20:31  5-MIN KASE 090620Z 19004KT 10SM BKN080 11/05 A3021 7570 68 8800 180/04 RMK AO2 T01060050
93073KASE ASE20160608232510706/08/16 23:25:31  5-MIN KASE 090625Z 20007KT 10SM BKN080 10/05 A3021 7570 71 8800 200/07 RMK AO2 T01000050
93073KASE ASE20160608233010706/08/16 23:30:31  5-MIN KASE 090630Z 19006KT 10SM BKN080 10/05 A3021 7570 71 8800 180/06 RMK AO2 T01000050
93073KASE ASE20160608233510706/08/16 23:35:31  5-MIN KASE 090635Z 22006KT 10SM SCT085 10/05 A3021 7580 71 8800 210/06 RMK AO2 T01000050
93073KASE ASE20160608234010706/08/16 23:40:31  5-MIN KASE 090640Z 23007KT 10SM SCT085 09/05 A3021 7580 74 8700 220/07 RMK AO2 T00940050
93073KASE ASE20160608234510706/08/16 23:45:31  5-MIN KASE 090645Z 21007KT 10SM FEW085 09/05 A3021 7570 74 8700 210/07 RMK AO2 T00940050
93073KASE ASE20160608235012106/08/16 23:50:31  5-MIN KASE 090650Z 21007KT 10SM CLR 09/05 A3021 7580 74 8700 200/07 RMK AO2 SLP110 T00940050 402390056
93073KASE ASE20160608235510406/08/16 23:55:31  5-MIN KASE 090655Z 21005KT 10SM CLR 09/05 A3021 7570 74 8700 200/05 RMK AO2 T00940050
93073KASE ASE20160609000010406/09/16 00:00:31  5-MIN KASE 090700Z 19004KT 10SM CLR 10/05 A3021 7570 71 8800 180/04 RMK AO2 T01000050
93073KASE ASE20160609000510406/09/16 00:05:31  5-MIN KASE 090705Z 18005KT 10SM CLR 10/05 A3022 7570 71 8800 170/05 RMK AO2 T01000050
93073KASE ASE20160609001010406/09/16 00:10:31  5-MIN KASE 090710Z 18006KT 10SM CLR 09/05 A3021 7570 74 8700 170/06 RMK AO2 T00940050
93073KASE ASE20160609001510406/09/16 00:15:31  5-MIN KASE 090715Z 20005KT 10SM CLR 09/05 A3021 7570 76 8600 190/05 RMK AO2 T00890050
93073KASE ASE20160609002010406/09/16 00:20:31  5-MIN KASE 090720Z 19004KT 10SM CLR 09/05 A3021 7570 76 8600 190/04 RMK AO2 T00890050
93073KASE ASE20160609002510406/09/16 00:25:31  5-MIN KASE 090725Z 21006KT 10SM CLR 09/05 A3021 7570 76 8600 200/06 RMK AO2 T00890050
93073KASE ASE20160609003010406/09/16 00:30:31  5-MIN KASE 090730Z 20006KT 10SM CLR 09/04 A3021 7580 73 8600 190/06 RMK AO2 T00890044
93073KASE ASE20160609003510406/09/16 00:35:31  5-MIN KASE 090735Z 21005KT 10SM CLR 09/04 A3021 7570 73 8600 200/05 RMK AO2 T00890044
93073KASE ASE20160609004010406/09/16 00:40:31  5-MIN KASE 090740Z 21006KT 10SM CLR 09/04 A3021 7570 73 8600 200/06 RMK AO2 T00890044
93073KASE ASE20160609004510406/09/16 00:45:31  5-MIN KASE 090745Z 21006KT 10SM CLR 09/04 A3021 7570 71 8700 200/06 RMK AO2 T00940044
93073KASE ASE20160609005011106/09/16 00:50:31  5-MIN KASE 090750Z 21006KT 10SM CLR 09/04 A3021 7570 73 8600 200/06 RMK AO2 SLP113 T00890044
93073KASE ASE20160609005510406/09/16 00:55:31  5-MIN KASE 090755Z 21006KT 10SM CLR 10/04 A3021 7570 68 8800 200/06 RMK AO2 T01000044
93073KASE ASE20160609010010406/09/16 01:00:31  5-MIN KASE 090800Z 22006KT 10SM CLR 09/04 A3022 7570 73 8600 210/06 RMK AO2 T00890044
93073KASE ASE20160609010510406/09/16 01:05:31  5-MIN KASE 090805Z 22005KT 10SM CLR 09/04 A3021 7570 73 8600 210/05 RMK AO2 T00890044
93073KASE ASE20160609011010406/09/16 01:10:31  5-MIN KASE 090810Z 22004KT 10SM CLR 08/04 A3022 7570 76 8600 210/04 RMK AO2 T00830044
93073KASE ASE20160609011510406/09/16 01:15:31  5-MIN KASE 090815Z 00000KT 10SM CLR 08/04 A3022 7570 79 8500 000/00 RMK AO2 T00780044
93073KASE ASE20160609012010406/09/16 01:20:31  5-MIN KASE 090820Z 00000KT 10SM CLR 08/04 A3021 7570 79 8500 000/00 RMK AO2 T00780044
93073KASE ASE20160609012510406/09/16 01:25:31  5-MIN KASE 090825Z 22004KT 10SM CLR 08/04 A3021 7570 76 8500 210/04 RMK AO2 T00780039
93073KASE ASE20160609013010406/09/16 01:30:31  5-MIN KASE 090830Z 22007KT 10SM CLR 08/04 A3022 7570 79 8500 210/07 RMK AO2 T00780044
93073KASE ASE20160609013510406/09/16 01:35:31  5-MIN KASE 090835Z 23006KT 10SM CLR 08/04 A3021 7570 79 8500 220/06 RMK AO2 T00780044
93073KASE ASE20160609014010406/09/16 01:40:31  5-MIN KASE 090840Z 19004KT 10SM CLR 08/04 A3021 7570 76 8600 190/04 RMK AO2 T00830044
93073KASE ASE20160609014510406/09/16 01:45:31  5-MIN KASE 090845Z 21005KT 10SM CLR 07/04 A3021 7570 82 8400 200/05 RMK AO2 T00720044
93073KASE ASE20160609015011706/09/16 01:50:31  5-MIN KASE 090850Z 21007KT 10SM CLR 08/04 A3021 7570 79 8500 200/07 RMK AO2 SLP134 T00780044 58000
93073KASE ASE20160609015510406/09/16 01:55:31  5-MIN KASE 090855Z 21005KT 10SM CLR 08/04 A3021 7580 79 8500 210/05 RMK AO2 T00780044
93073KASE ASE20160609020010406/09/16 02:00:31  5-MIN KASE 090900Z 19005KT 10SM CLR 08/04 A3021 7570 79 8500 180/05 RMK AO2 T00780044
93073KASE ASE20160609020510406/09/16 02:05:31  5-MIN KASE 090905Z 20004KT 10SM CLR 08/04 A3021 7570 79 8500 190/04 RMK AO2 T00780044
93073KASE ASE20160609021010406/09/16 02:10:31  5-MIN KASE 090910Z 21006KT 10SM CLR 08/04 A3021 7570 76 8500 200/06 RMK AO2 T00780039
93073KASE ASE20160609021510406/09/16 02:15:31  5-MIN KASE 090915Z 21005KT 10SM CLR 08/04 A3021 7570 76 8500 200/05 RMK AO2 T00780039
93073KASE ASE20160609022010406/09/16 02:20:31  5-MIN KASE 090920Z 21004KT 10SM CLR 08/04 A3021 7570 76 8600 200/04 RMK AO2 T00830044
93073KASE ASE20160609022510406/09/16 02:25:31  5-MIN KASE 090925Z 00000KT 10SM CLR 08/04 A3021 7570 73 8600 000/00 RMK AO2 T00830039
93073KASE ASE20160609023010406/09/16 02:30:31  5-MIN KASE 090930Z 00000KT 10SM CLR 08/04 A3021 7570 76 8500 000/00 RMK AO2 T00780039
93073KASE ASE20160609023510406/09/16 02:35:31  5-MIN KASE 090935Z 00000KT 10SM CLR 07/04 A3021 7570 79 8400 000/00 RMK AO2 T00720039
93073KASE ASE20160609024010406/09/16 02:40:31  5-MIN KASE 090940Z VRB03KT 10SM CLR 07/04 A3021 7570 79 8500 VRB/03 RMK AO2 T00720039
93073KASE ASE20160609024510406/09/16 02:45:31  5-MIN KASE 090945Z 23005KT 10SM CLR 07/04 A3021 7570 82 8400 220/05 RMK AO2 T00670039
93073KASE ASE20160609025011106/09/16 02:50:31  5-MIN KASE 090950Z 23005KT 10SM CLR 07/04 A3021 7570 82 8400 220/05 RMK AO2 SLP138 T00670039
93073KASE ASE20160609025510406/09/16 02:55:31  5-MIN KASE 090955Z VRB04KT 10SM CLR 07/04 A3021 7570 79 8400 VRB/04 RMK AO2 T00720039
93073KASE ASE20160609030010406/09/16 03:00:31  5-MIN KASE 091000Z 22006KT 10SM CLR 07/04 A3021 7570 79 8400 210/06 RMK AO2 T00720039
93073KASE ASE20160609030510406/09/16 03:05:31  5-MIN KASE 091005Z 22003KT 10SM CLR 07/04 A3022 7570 79 8400 210/03 RMK AO2 T00720039
93073KASE ASE20160609031010406/09/16 03:10:31  5-MIN KASE 091010Z 20005KT 10SM CLR 07/04 A3021 7570 79 8400 190/05 RMK AO2 T00720039
93073KASE ASE20160609031510406/09/16 03:15:31  5-MIN KASE 091015Z 20005KT 10SM CLR 07/04 A3021 7570 79 8400 190/05 RMK AO2 T00720039
93073KASE ASE20160609032010406/09/16 03:20:31  5-MIN KASE 091020Z 00000KT 10SM CLR 07/04 A3021 7570 82 8400 000/00 RMK AO2 T00670039
93073KASE ASE20160609032510406/09/16 03:25:31  5-MIN KASE 091025Z 00000KT 10SM CLR 07/04 A3021 7570 82 8400 000/00 RMK AO2 T00670039
93073KASE ASE20160609033010406/09/16 03:30:31  5-MIN KASE 091030Z 00000KT 10SM CLR 06/03 A3022 7570 82 8300 000/00 RMK AO2 T00610033
93073KASE ASE20160609033510406/09/16 03:35:31  5-MIN KASE 091035Z 00000KT 10SM CLR 06/03 A3022 7560 82 8300 000/00 RMK AO2 T00610033
93073KASE ASE20160609034010406/09/16 03:40:31  5-MIN KASE 091040Z 00000KT 10SM CLR 07/04 A3022 7560 82 8400 000/00 RMK AO2 T00670039
93073KASE ASE20160609034510406/09/16 03:45:31  5-MIN KASE 091045Z 00000KT 10SM CLR 07/03 A3022 7560 79 8400 000/00 RMK AO2 T00670033
93073KASE ASE20160609035011106/09/16 03:50:31  5-MIN KASE 091050Z 21003KT 10SM CLR 07/03 A3023 7560 79 8400 200/03 RMK AO2 SLP143 T00670033
93073KASE ASE20160609035510406/09/16 03:55:31  5-MIN KASE 091055Z 23003KT 10SM CLR 06/03 A3023 7560 85 8200 220/03 RMK AO2 T00560033
93073KASE ASE20160609040010406/09/16 04:00:31  5-MIN KASE 091100Z 21003KT 10SM CLR 06/03 A3023 7560 85 8200 200/03 RMK AO2 T00560033
93073KASE ASE20160609040510406/09/16 04:05:31  5-MIN KASE 091105Z 00000KT 10SM CLR 07/03 A3023 7550 79 8400 000/00 RMK AO2 T00670033
93073KASE ASE20160609041010406/09/16 04:10:31  5-MIN KASE 091110Z 12004KT 10SM CLR 07/03 A3023 7550 79 8400 110/04 RMK AO2 T00670033
93073KASE ASE20160609041510406/09/16 04:15:31  5-MIN KASE 091115Z 13003KT 10SM CLR 07/04 A3023 7560 82 8400 130/03 RMK AO2 T00670039
93073KASE ASE20160609042010406/09/16 04:20:31  5-MIN KASE 091120Z VRB03KT 10SM CLR 07/04 A3023 7550 82 8400 VRB/03 RMK AO2 T00670039
93073KASE ASE20160609042510406/09/16 04:25:31  5-MIN KASE 091125Z 21003KT 10SM CLR 06/03 A3023 7550 85 8200 200/03 RMK AO2 T00560033
93073KASE ASE20160609043010406/09/16 04:30:31  5-MIN KASE 091130Z 21003KT 10SM CLR 06/03 A3023 7560 82 8300 200/03 RMK AO2 T00610033
93073KASE ASE20160609043510406/09/16 04:35:31  5-MIN KASE 091135Z VRB04KT 10SM CLR 06/03 A3023 7550 82 8300 VRB/04 RMK AO2 T00610033
93073KASE ASE20160609044010406/09/16 04:40:31  5-MIN KASE 091140Z 20006KT 10SM CLR 07/04 A3024 7550 82 8400 190/06 RMK AO2 T00670039
93073KASE ASE20160609044510406/09/16 04:45:31  5-MIN KASE 091145Z 19005KT 10SM CLR 08/04 A3023 7550 76 8500 180/05 RMK AO2 T00780039
93073KASE ASE20160609045013506/09/16 04:50:31  5-MIN KASE 091150Z 18005KT 10SM CLR 07/04 A3024 7550 79 8400 170/05 RMK AO2 SLP146 70003 T00720039 10106 20056 50000
93073KASE ASE20160609045510406/09/16 04:55:31  5-MIN KASE 091155Z 19005KT 10SM CLR 07/03 A3024 7550 79 8400 180/05 RMK AO2 T00670033
93073KASE ASE20160609050010406/09/16 05:00:31  5-MIN KASE 091200Z 20005KT 10SM CLR 07/04 A3023 7550 82 8400 190/05 RMK AO2 T00670039
93073KASE ASE20160609050510406/09/16 05:05:31  5-MIN KASE 091205Z 22004KT 10SM CLR 07/04 A3023 7550 82 8400 210/04 RMK AO2 T00670039
93073KASE ASE20160609051010406/09/16 05:10:31  5-MIN KASE 091210Z 21006KT 10SM CLR 06/03 A3024 7550 82 8300 200/06 RMK AO2 T00610033
93073KASE ASE20160609051510406/09/16 05:15:31  5-MIN KASE 091215Z 20006KT 10SM CLR 07/04 A3023 7550 82 8400 190/06 RMK AO2 T00670039
93073KASE ASE20160609052010406/09/16 05:20:31  5-MIN KASE 091220Z 20006KT 10SM CLR 08/04 A3023 7550 76 8500 190/06 RMK AO2 T00780039
93073KASE ASE20160609052510406/09/16 05:25:31  5-MIN KASE 091225Z 21006KT 10SM CLR 08/04 A3024 7550 76 8500 200/06 RMK AO2 T00780039
93073KASE ASE20160609053010406/09/16 05:30:31  5-MIN KASE 091230Z 19005KT 10SM CLR 08/04 A3023 7550 76 8500 180/05 RMK AO2 T00780039
93073KASE ASE20160609053510406/09/16 05:35:31  5-MIN KASE 091235Z 18004KT 10SM CLR 07/04 A3023 7550 79 8400 170/04 RMK AO2 T00720039
93073KASE ASE20160609054010406/09/16 05:40:31  5-MIN KASE 091240Z 13004KT 10SM CLR 07/04 A3023 7550 82 8400 120/04 RMK AO2 T00720044
93073KASE ASE20160609054510406/09/16 05:45:31  5-MIN KASE 091245Z 12004KT 10SM CLR 07/04 A3023 7560 82 8400 110/04 RMK AO2 T00720044
93073KASE ASE20160609055011106/09/16 05:50:31  5-MIN KASE 091250Z 12003KT 10SM CLR 08/04 A3023 7560 79 8500 110/03 RMK AO2 SLP139 T00780044
93073KASE ASE20160609055510406/09/16 05:55:31  5-MIN KASE 091255Z 00000KT 10SM CLR 08/04 A3023 7560 76 8600 000/00 RMK AO2 T00830044
93073KASE ASE20160609060010406/09/16 06:00:31  5-MIN KASE 091300Z VRB03KT 10SM CLR 09/05 A3023 7560 76 8600 VRB/03 RMK AO2 T00890050
93073KASE ASE20160609060510406/09/16 06:05:31  5-MIN KASE 091305Z 00000KT 10SM CLR 10/05 A3023 7560 71 8700 000/00 RMK AO2 T01000050
93073KASE ASE20160609061010406/09/16 06:10:31  5-MIN KASE 091310Z 00000KT 10SM CLR 10/05 A3023 7550 71 8700 000/00 RMK AO2 T01000050
93073KASE ASE20160609061510406/09/16 06:15:31  5-MIN KASE 091315Z 00000KT 10SM CLR 11/05 A3023 7550 68 8800 000/00 RMK AO2 T01060050
93073KASE ASE20160609062010406/09/16 06:20:31  5-MIN KASE 091320Z 00000KT 10SM CLR 11/04 A3023 7550 63 8900 000/00 RMK AO2 T01110044
93073KASE ASE20160609062510406/09/16 06:25:31  5-MIN KASE 091325Z 00000KT 10SM CLR 12/05 A3023 7550 63 8900 000/00 RMK AO2 T01170050
93073KASE ASE20160609063010406/09/16 06:30:31  5-MIN KASE 091330Z 00000KT 10SM CLR 12/05 A3024 7550 61 9000 000/00 RMK AO2 T01220050
93073KASE ASE20160609063510406/09/16 06:35:31  5-MIN KASE 091335Z 02004KT 10SM CLR 12/05 A3024 7550 61 9000 010/04 RMK AO2 T01220050
93073KASE ASE20160609064010406/09/16 06:40:31  5-MIN KASE 091340Z 36003KT 10SM CLR 12/06 A3024 7550 63 9000 350/03 RMK AO2 T01220056
93073KASE ASE20160609064510406/09/16 06:45:31  5-MIN KASE 091345Z 00000KT 10SM CLR 12/05 A3023 7550 61 9000 000/00 RMK AO2 T01220050
93073KASE ASE20160609065011106/09/16 06:50:31  5-MIN KASE 091350Z 00000KT 10SM CLR 13/05 A3023 7550 59 9100 000/00 RMK AO2 SLP129 T01280050
93073KASE ASE20160609065510406/09/16 06:55:31  5-MIN KASE 091355Z 00000KT 10SM CLR 13/05 A3024 7550 59 9100 000/00 RMK AO2 T01280050
93073KASE ASE20160609070010406/09/16 07:00:31  5-MIN KASE 091400Z 00000KT 10SM CLR 13/06 A3024 7550 59 9100 000/00 RMK AO2 T01330056
93073KASE ASE20160609070510406/09/16 07:05:31  5-MIN KASE 091405Z 00000KT 10SM CLR 14/06 A3024 7550 57 9200 000/00 RMK AO2 T01390056
93073KASE ASE20160609071010406/09/16 07:10:31  5-MIN KASE 091410Z 00000KT 10SM CLR 14/06 A3024 7550 59 9200 000/00 RMK AO2 T01390061
93073KASE ASE20160609071510406/09/16 07:15:31  5-MIN KASE 091415Z 00000KT 10SM CLR 14/06 A3024 7550 57 9200 000/00 RMK AO2 T01390056
93073KASE ASE20160609072010406/09/16 07:20:31  5-MIN KASE 091420Z 00000KT 10SM CLR 14/05 A3024 7550 53 9200 000/00 RMK AO2 T01440050
93073KASE ASE20160609072510406/09/16 07:25:31  5-MIN KASE 091425Z 00000KT 10SM CLR 14/06 A3024 7550 55 9200 000/00 RMK AO2 T01440056
93073KASE ASE20160609073010406/09/16 07:30:31  5-MIN KASE 091430Z 00000KT 10SM CLR 15/06 A3024 7550 53 9300 000/00 RMK AO2 T01500056
93073KASE ASE20160609073510406/09/16 07:35:31  5-MIN KASE 091435Z 00000KT 10SM CLR 14/05 A3024 7550 53 9200 000/00 RMK AO2 T01440050
93073KASE ASE20160609074010406/09/16 07:40:31  5-MIN KASE 091440Z 00000KT 10SM CLR 15/06 A3024 7550 53 9300 000/00 RMK AO2 T01500056
93073KASE ASE20160609074510406/09/16 07:45:31  5-MIN KASE 091445Z 00000KT 10SM CLR 16/06 A3024 7550 51 9400 000/00 RMK AO2 T01560056
93073KASE ASE20160609075011706/09/16 07:50:31  5-MIN KASE 091450Z 00000KT 10SM CLR 16/06 A3024 7550 49 9400 000/00 RMK AO2 SLP130 T01610056 53007
93073KASE ASE20160609075510406/09/16 07:55:31  5-MIN KASE 091455Z 01003KT 10SM CLR 17/06 A3024 7550 49 9500 010/03 RMK AO2 T01670061
93073KASE ASE20160609080010406/09/16 08:00:31  5-MIN KASE 091500Z 04003KT 10SM CLR 17/06 A3024 7550 47 9500 030/03 RMK AO2 T01670056
93073KASE ASE20160609080510406/09/16 08:05:31  5-MIN KASE 091505Z 36005KT 10SM CLR 17/07 A3024 7540 51 9500 350/05 RMK AO2 T01720072
93073KASE ASE20160609081010406/09/16 08:10:31  5-MIN KASE 091510Z 34004KT 10SM CLR 17/06 A3024 7550 49 9500 340/04 RMK AO2 T01670061
93073KASE ASE20160609081510406/09/16 08:15:31  5-MIN KASE 091515Z 36005KT 10SM CLR 17/07 A3024 7540 49 9500 350/05 RMK AO2 T01720067
93073KASE ASE20160609082010406/09/16 08:20:31  5-MIN KASE 091520Z 36005KT 10SM CLR 17/07 A3024 7550 51 9500 350/05 RMK AO2 T01720072
93073KASE ASE20160609082510406/09/16 08:25:31  5-MIN KASE 091525Z 01005KT 10SM CLR 17/06 A3024 7550 47 9500 360/05 RMK AO2 T01720061
93073KASE ASE20160609083010406/09/16 08:30:31  5-MIN KASE 091530Z 01004KT 10SM CLR 18/06 A3024 7550 46 9600 360/04 RMK AO2 T01780061
93073KASE ASE20160609083510406/09/16 08:35:31  5-MIN KASE 091535Z 33005KT 10SM CLR 18/06 A3024 7550 46 9600 320/05 RMK AO2 T01780061
93073KASE ASE20160609084010406/09/16 08:40:31  5-MIN KASE 091540Z 33005KT 10SM CLR 18/07 A3024 7550 46 9700 320/05 RMK AO2 T01830067
93073KASE ASE20160609084510406/09/16 08:45:31  5-MIN KASE 091545Z 01005KT 10SM CLR 18/06 A3023 7550 46 9600 360/05 RMK AO2 T01780061
93073KASE ASE20160609085011106/09/16 08:50:31  5-MIN KASE 091550Z 02004KT 10SM CLR 18/06 A3023 7550 44 9700 010/04 RMK AO2 SLP122 T01830061
93073KASE ASE20160609085510406/09/16 08:55:31  5-MIN KASE 091555Z 36003KT 10SM CLR 19/06 A3023 7560 43 9700 350/03 RMK AO2 T01890061
93073KASE ASE20160609090010406/09/16 09:00:31  5-MIN KASE 091600Z 00000KT 10SM CLR 19/06 A3023 7560 41 9800 000/00 RMK AO2 T01940061
93073KASE ASE20160609090510406/09/16 09:05:31  5-MIN KASE 091605Z 00000KT 10SM CLR 20/06 A3023 7560 38 9900 000/00 RMK AO2 T02000056
93073KASE ASE20160609091010406/09/16 09:10:31  5-MIN KASE 091610Z VRB03KT 10SM CLR 20/06 A3023 7550 38 9900 VRB/03 RMK AO2 T02000056
93073KASE ASE20160609091510406/09/16 09:15:31  5-MIN KASE 091615Z 35004KT 10SM CLR 20/06 A3023 7550 38 9900 340/04 RMK AO2 T02000056
93073KASE ASE20160609092010406/09/16 09:20:31  5-MIN KASE 091620Z 35003KT 10SM CLR 20/06 A3023 7550 40 9900 340/03 RMK AO2 T02000061
93073KASE ASE20160609092510406/09/16 09:25:31  5-MIN KASE 091625Z 36004KT 10SM CLR 20/07 A3023 7550 41 9900 350/04 RMK AO2 T02000067
93073KASE ASE20160609093010406/09/16 09:30:31  5-MIN KASE 091630Z 36004KT 10SM CLR 20/07 A3023 7550 41 9900 350/04 RMK AO2 T02000067
93073KASE ASE20160609093510406/09/16 09:35:31  5-MIN KASE 091635Z 36004KT 10SM CLR 20/07 A3023 7560 41 9900 350/04 RMK AO2 T02000067
93073KASE ASE20160609094010406/09/16 09:40:31  5-MIN KASE 091640Z 36004KT 10SM CLR 21/07 A3023 7550 40 9900 350/04 RMK AO2 T02060067
93073KASE ASE20160609094510406/09/16 09:45:31  5-MIN KASE 091645Z VRB04KT 10SM CLR 21/07 A3023 7550 41 9900 VRB/04 RMK AO2 T02060072
93073KASE ASE20160609095011106/09/16 09:50:31  5-MIN KASE 091650Z 35004KT 10SM CLR 21/07 A3023 7550 41 9900 340/04 RMK AO2 SLP122 T02060072
93073KASE ASE20160609095510406/09/16 09:55:31  5-MIN KASE 091655Z 36005KT 10SM CLR 21/08 A3023 7550 43 9900 350/05 RMK AO2 T02060078
93073KASE ASE20160609100010406/09/16 10:00:31  5-MIN KASE 091700Z 01005KT 10SM CLR 20/08 A3023 7560 45 9900 360/05 RMK AO2 T02000078
93073KASE ASE20160609100510406/09/16 10:05:31  5-MIN KASE 091705Z 35004KT 10SM CLR 21/08 A3023 7560 43 9900 350/04 RMK AO2 T02060078
93073KASE ASE20160609101010406/09/16 10:10:31  5-MIN KASE 091710Z 01003KT 10SM CLR 21/07 A3023 7560 41 9900 360/03 RMK AO2 T02060072
93073KASE ASE20160609101510506/09/16 10:15:31  5-MIN KASE 091715Z 35004KT 10SM CLR 21/07 A3023 7560 40 10000 340/04 RMK AO2 T02110072
93073KASE ASE20160609102010506/09/16 10:20:31  5-MIN KASE 091720Z 35003KT 10SM CLR 21/07 A3023 7560 40 10000 340/03 RMK AO2 T02110072
93073KASE ASE20160609102510506/09/16 10:25:31  5-MIN KASE 091725Z 00000KT 10SM CLR 21/08 A3023 7560 42 10000 000/00 RMK AO2 T02110078
93073KASE ASE20160609103010506/09/16 10:30:31  5-MIN KASE 091730Z 00000KT 10SM CLR 21/07 A3022 7560 40 10000 000/00 RMK AO2 T02110072
93073KASE ASE20160609103510506/09/16 10:35:31  5-MIN KASE 091735Z 00000KT 10SM CLR 22/07 A3022 7560 37 10000 000/00 RMK AO2 T02170067
93073KASE ASE20160609104010506/09/16 10:40:31  5-MIN KASE 091740Z 00000KT 10SM CLR 22/06 A3022 7560 35 10100 000/00 RMK AO2 T02220061
93073KASE ASE20160609104510506/09/16 10:45:31  5-MIN KASE 091745Z 00000KT 10SM CLR 23/05 A3022 7560 30 10200 000/00 RMK AO2 T02330050
93073KASE ASE20160609105013006/09/16 10:50:31  5-MIN KASE 091750Z 00000KT 10SM CLR 24/06 A3022 7560 30 10300 000/00 RMK AO2 SLP109 T02390056 10239 20061 55000
93073KASE ASE20160609105510506/09/16 10:55:31  5-MIN KASE 091755Z 04005KT 10SM CLR 24/05 A3022 7560 28 10300 030/05 RMK AO2 T02440050
93073KASE ASE20160609110010506/09/16 11:00:31  5-MIN KASE 091800Z 04005KT 10SM CLR 24/04 A3022 7570 26 10300 030/05 RMK AO2 T02440039
93073KASE ASE20160609110510506/09/16 11:05:31  5-MIN KASE 091805Z 05005KT 10SM CLR 24/04 A3022 7570 27 10300 050/05 RMK AO2 T02440044
93073KASE ASE20160609111010506/09/16 11:10:31  5-MIN KASE 091810Z 02007KT 10SM CLR 24/05 A3022 7570 28 10300 020/07 RMK AO2 T02440050
93073KASE ASE20160609111510506/09/16 11:15:31  5-MIN KASE 091815Z 03004KT 10SM CLR 24/06 A3022 7570 29 10300 020/04 RMK AO2 T02440056
93073KASE ASE20160609112010506/09/16 11:20:31  5-MIN KASE 091820Z VRB05KT 10SM CLR 24/06 A3021 7570 29 10400 VRB/05 RMK AO2 T02440056
93073KASE ASE20160609112512106/09/16 11:25:31  5-MIN KASE 091825Z 35007KT 310V010 10SM CLR 24/04 A3021 7570 26 10400 340/07 300V360 RMK AO2 T02440039
93073KASE ASE20160609113010506/09/16 11:30:31  5-MIN KASE 091830Z VRB06KT 10SM CLR 24/03 A3021 7570 24 10400 VRB/06 RMK AO2 T02440028
93073KASE ASE20160609113510506/09/16 11:35:31  5-MIN KASE 091835Z 34008KT 10SM CLR 24/03 A3021 7570 24 10400 330/08 RMK AO2 T02440028
93073KASE ASE20160609114010506/09/16 11:40:31  5-MIN KASE 091840Z 03004KT 10SM CLR 24/03 A3021 7570 25 10400 020/04 RMK AO2 T02440033
93073KASE ASE20160609114510506/09/16 11:45:31  5-MIN KASE 091845Z 03006KT 10SM CLR 24/03 A3021 7580 25 10400 020/06 RMK AO2 T02440033
93073KASE ASE20160609115011206/09/16 11:50:31  5-MIN KASE 091850Z 02006KT 10SM CLR 24/04 A3021 7580 26 10400 010/06 RMK AO2 SLP105 T02440039
93073KASE ASE20160609115510506/09/16 11:55:31  5-MIN KASE 091855Z 01008KT 10SM CLR 25/04 A3021 7580 25 10400 360/08 RMK AO2 T02500039
93073KASE ASE20160609120010506/09/16 12:00:31  5-MIN KASE 091900Z VRB05KT 10SM CLR 26/03 A3020 7580 23 10500 VRB/05 RMK AO2 T02560033
93073KASE ASE20160609120509506/09/16 12:05:31  5-MIN KASE 091905Z 10SM CLR 25/03 A3020 7580 24 10400 M /M RMK AO2 T02500033
93073KASE ASE20160609121010506/09/16 12:10:31  5-MIN KASE 091910Z VRB04KT 10SM CLR 24/03 A3020 7580 25 10400 VRB/04 RMK AO2 T02440033
93073KASE ASE20160609121510506/09/16 12:15:31  5-MIN KASE 091915Z 35004KT 10SM CLR 25/03 A3020 7580 24 10400 340/04 RMK AO2 T02500033
93073KASE ASE20160609122010506/09/16 12:20:31  5-MIN KASE 091920Z 00000KT 10SM CLR 25/03 A3020 7580 24 10400 000/00 RMK AO2 T02500033
93073KASE ASE20160609122510506/09/16 12:25:31  5-MIN KASE 091925Z 03006KT 10SM CLR 25/03 A3020 7590 24 10400 030/06 RMK AO2 T02500033
93073KASE ASE20160609123010506/09/16 12:30:31  5-MIN KASE 091930Z VRB03KT 10SM CLR 25/04 A3019 7590 25 10400 VRB/03 RMK AO2 T02500039
93073KASE ASE20160609123510506/09/16 12:35:31  5-MIN KASE 091935Z VRB05KT 10SM CLR 26/03 A3019 7590 23 10500 VRB/05 RMK AO2 T02560033
93073KASE ASE20160609124010506/09/16 12:40:31  5-MIN KASE 091940Z VRB03KT 10SM CLR 26/03 A3019 7590 21 10600 VRB/03 RMK AO2 T02610028
93073KASE ASE20160609124510506/09/16 12:45:31  5-MIN KASE 091945Z VRB05KT 10SM CLR 27/04 A3019 7600 23 10600 VRB/05 RMK AO2 T02670044
93073KASE ASE20160609125011206/09/16 12:50:31  5-MIN KASE 091950Z VRB05KT 10SM CLR 27/04 A3019 7590 22 10600 VRB/05 RMK AO2 SLP095 T02670039
93073KASE ASE20160609125511106/09/16 12:55:31  5-MIN KASE 091955Z 34010G14KT 10SM CLR 27/04 A3019 7600 22 10600 330/10G14 RMK AO2 T02670039
93073KASE ASE20160609130011106/09/16 13:00:31  5-MIN KASE 092000Z 34009G15KT 10SM CLR 26/03 A3018 7600 21 10600 330/09G15 RMK AO2 T02610028
93073KASE ASE20160609130511106/09/16 13:05:31  5-MIN KASE 092005Z VRB04G15KT 10SM CLR 26/03 A3018 7600 21 10600 VRB/04G15 RMK AO2 T02610028
93073KASE ASE20160609131010506/09/16 13:10:31  5-MIN KASE 092010Z 35004KT 10SM CLR 27/02 A3018 7600 20 10600 340/04 RMK AO2 T02670022
93073KASE ASE20160609131510506/09/16 13:15:31  5-MIN KASE 092015Z 27008KT 10SM CLR 27/02 A3018 7600 20 10600 260/08 RMK AO2 T02670022
93073KASE ASE20160609132010506/09/16 13:20:31  5-MIN KASE 092020Z VRB05KT 10SM CLR 27/03 A3017 7610 21 10600 VRB/05 RMK AO2 T02670028
93073KASE ASE20160609132509506/09/16 13:25:31  5-MIN KASE 092025Z 10SM CLR 28/02 A3017 7610 19 10700 M /M RMK AO2 T02780022
93073KASE ASE20160609133011106/09/16 13:30:31  5-MIN KASE 092030Z 32013G18KT 10SM CLR 28/02 A3017 7610 19 10800 310/13G18 RMK AO2 T02780022
93073KASE ASE20160609133511106/09/16 13:35:31  5-MIN KASE 092035Z 30006G18KT 10SM CLR 27/02 A3017 7610 19 10700 290/06G18 RMK AO2 T02720017
93073KASE ASE20160609134010506/09/16 13:40:31  5-MIN KASE 092040Z VRB03KT 10SM CLR 27/02 A3017 7610 19 10700 VRB/03 RMK AO2 T02720017
93073KASE ASE20160609134510506/09/16 13:45:31  5-MIN KASE 092045Z VRB03KT 10SM CLR 27/02 A3016 7620 19 10700 VRB/03 RMK AO2 T02720017
93073KASE ASE20160609135013406/09/16 13:50:31  5-MIN KASE 092050Z 27007KT 250V310 10SM CLR 27/02 A3016 7620 20 10600 260/07 240V300 RMK AO2 SLP088 T02670022 57005
93073KASE ASE20160609135510506/09/16 13:55:31  5-MIN KASE 092055Z 35008KT 10SM CLR 28/01 A3016 7620 17 10800 340/08 RMK AO2 T02780006
93073KASE ASE20160609140010506/09/16 14:00:31  5-MIN KASE 092100Z 35009KT 10SM CLR 28/01 A3016 7620 17 10800 340/09 RMK AO2 T02780006
93073KASE ASE20160609140510606/09/16 14:05:31  5-MIN KASE 092105Z 10SM CLR 28/01 A3016 7620 17 10800 M /M RMK AO2 LTG DSNT N T02780011
93073KASE ASE20160609141013206/09/16 14:10:31  5-MIN KASE 092110Z 34009KT 310V010 10SM CLR 28/01 A3015 7630 17 10800 330/09 300V360 RMK AO2 LTG DSNT N T02830011
93073KASE ASE20160609141511606/09/16 14:15:31  5-MIN KASE 092115Z 29004KT 10SM CLR 28/01 A3015 7630 17 10800 280/04 RMK AO2 LTG DSNT N T02780006
93073KASE ASE20160609142010506/09/16 14:20:31  5-MIN KASE 092120Z 00000KT 10SM CLR 28/00 A3015 7630 16 10800 000/00 RMK AO2 T02780000
93073KASE ASE20160609142510506/09/16 14:25:31  5-MIN KASE 092125Z 02007KT 10SM CLR 28/02 A3015 7630 17 10800 010/07 RMK AO2 T02830017
93073KASE ASE20160609143011106/09/16 14:30:31  5-MIN KASE 092130Z 36010G16KT 10SM CLR 28/02 A3015 7630 17 10800 350/10G16 RMK AO2 T02830017
93073KASE ASE20160609143512706/09/16 14:35:31  5-MIN KASE 092135Z 32010G16KT 300V360 10SM CLR 28/02 A3015 7630 17 10800 320/10G16 290V350 RMK AO2 T02830017
93073KASE ASE20160609144012706/09/16 14:40:31  5-MIN KASE 092140Z 30009G14KT 260V330 10SM CLR 28/01 A3015 7630 17 10800 290/09G14 250V320 RMK AO2 T02830011
93073KASE ASE20160609144510506/09/16 14:45:31  5-MIN KASE 092145Z VRB06KT 10SM CLR 28/02 A3015 7630 18 10800 VRB/06 RMK AO2 T02830022
93073KASE ASE20160609145011806/09/16 14:50:31  5-MIN KASE 092150Z 02006G16KT 10SM CLR 28/02 A3015 7630 18 10800 010/06G16 RMK AO2 SLP084 T02780017
93073KASE ASE20160609145512206/09/16 14:55:31  5-MIN KASE 092155Z VRB06G16KT 10SM CLR 27/02 A3015 7630 19 10700 VRB/06G16 RMK AO2 LTG DSNT W T02720017
93073KASE ASE20160609150013506/09/16 15:00:31  5-MIN KASE 092200Z 31009KT 280V350 10SM CLR 26/02 A3015 7630 20 10600 300/09 270V340 RMK AO2 LTG DSNT W-NE T02610017
93073KASE ASE20160609150512506/09/16 15:05:31  5-MIN KASE 092205Z VRB05G16KT 10SM CLR 26/02 A3015 7630 20 10600 VRB/05G16 RMK AO2 LTG DSNT W-NE T02610017
93073KASE ASE20160609151012306/09/16 15:10:31  5-MIN KASE 092210Z 27007KT 10SM FEW100 26/02 A3015 7630 21 10500 260/07 RMK AO2 LTG DSNT NW-NE T02560022
93073KASE ASE20160609151512006/09/16 15:15:31  5-MIN KASE 092215Z 25007KT 10SM SCT100 26/03 A3015 7630 22 10500 240/07 RMK AO2 LTG DSNT NW T02560028
93073KASE ASE20160609152012006/09/16 15:20:31  5-MIN KASE 092220Z 25008KT 10SM SCT100 26/03 A3014 7630 23 10500 240/08 RMK AO2 LTG DSNT NW T02560033
93073KASE ASE20160609152512006/09/16 15:25:31  5-MIN KASE 092225Z 22009KT 10SM FEW100 24/04 A3014 7640 26 10400 210/09 RMK AO2 LTG DSNT NW T02440039
93073KASE ASE20160609153012606/09/16 15:30:31  5-MIN KASE 092230Z 24007KT 10SM FEW100 24/05 A3015 7630 28 10400 230/07 RMK AO2 LTG DSNT E AND NW T02440050
93073KASE ASE20160609153511906/09/16 15:35:31  5-MIN KASE 092235Z 24005KT 10SM FEW100 24/05 A3015 7630 29 10400 240/05 RMK AO2 LTG DSNT E T02390050
93073KASE ASE20160609154013006/09/16 15:40:31  5-MIN KASE 092240Z 26005KT 10SM VCTS SCT100 24/06 A3015 7630 31 10400 250/05 RMK AO2 LTG DSNT E AND W T02390061
93073KASE ASE20160609154515306/09/16 15:45:31  5-MIN KASE 092245Z 26008KT 220V290 10SM VCTS SCT110 24/03 A3015 7630 25 10400 250/08 210V280 RMK AO2 LTG DSNT E AND W AND NW T02440033
93073KASE ASE20160609155015706/09/16 15:50:31  5-MIN KASE 092250Z 26013G23KT 10SM VCTS BKN100 BKN120 24/00 A3015 7630 19 10400 250/13G23 RMK AO2 LTG DSNT E AND W AND NW SLP093 T02440000
93073KASE ASE20160609155514406/09/16 15:55:31  5-MIN KASE 092255Z 23015G23KT 10SM VCTS BKN100 24/M02 A3015 7630 17 10400 220/15G23 RMK AO2 LTG DSNT E AND W AND NW T02441017
93073KASE ASE20160609160013706/09/16 16:00:31  5-MIN KASE 092300Z 26010G23KT 10SM VCTS BKN100 24/00 A3017 7610 20 10300 250/10G23 RMK AO2 LTG DSNT W AND NW T02390000
93073KASE ASE20160609160514706/09/16 16:05:31  5-MIN KASE 092305Z 26012G23KT 10SM VCTS -RA OVC100 23/01 A3017 7610 23 10200 250/12G23 RMK AO2 LTG DSNT NW RAB05 P0000 T02280011
93073KASE ASE20160609161015606/09/16 16:10:31  5-MIN KASE 092310Z 28018G24KT 10SM -TSRA OVC100 22/02 A3018 7600 26 10100 270/18G24 RMK AO2 LTG DSNT N AND NW RAB05 TSB08 P0000 T02220022
93073KASE ASE20160609161515606/09/16 16:15:31  5-MIN KASE 092315Z 27013G24KT 10SM -TSRA OVC100 21/02 A3019 7590 28 10000 260/13G24 RMK AO2 LTG DSNT N RAB05 TSB08 PRESRR P0000 T02110022
93073KASE ASE20160609162016406/09/16 16:20:31  5-MIN KASE 092320Z 27007G19KT 240V310 10SM -TSRA OVC100 20/04 A3019 7590 35 9900 260/07G19 230V300 RMK AO2 LTG DSNT N RAB05 TSB08 P0000 T02000044
93073KASE ASE20160609162515506/09/16 16:25:31  5-MIN KASE 092325Z 26014G19KT 10SM -TSRA OVC100 19/06 A3019 7590 41 9800 250/14G19 RMK AO2 LTG DSNT W AND NW RAB05 TSB08 P0000 T01890056
93073KASE ASE20160609163015106/09/16 16:30:31  5-MIN KASE 092330Z 25013KT 10SM -TSRA OVC100 18/06 A3020 7590 42 9700 250/13 RMK AO2 LTG DSNT W-NE RAB05 TSB08E26B29 P0000 T01830056
93073KASE ASE20160609163515206/09/16 16:35:31  5-MIN KASE 092335Z 24009KT 10SM -TSRA OVC100 19/04 A3020 7580 38 9800 230/09 RMK AO2 LTG DSNT ALQDS RAB05 TSB08E26B29 P0000 T01890044
93073KASE ASE20160609164018206/09/16 16:40:31  5-MIN KASE 092340Z 29007KT 220V340 10SM TS FEW070 BKN095 OVC110 19/06 A3021 7570 41 9800 280/07 210V330 RMK AO2 LTG DSNT ALQDS RAB05E40 TSB08E26B29 P0000 T01890056
93073KASE ASE20160609164518206/09/16 16:45:31  5-MIN KASE 092345Z VRB04KT 10SM TS FEW070 BKN095 OVC110 19/06 A3022 7570 41 9700 VRB/04 RMK AO2 LTG DSNT E AND SE AND W RAB05E40 TSB08E26B29 PRESRR P0000 T01890056
93073KASE ASE20160609165018306/09/16 16:50:31  5-MIN KASE 092350Z 10SM TS FEW070 BKN090 OVC110 19/06 A3023 7560 41 9700 M /M RMK AO2 LTG DSNT W RAB05E40 TSB08E26B29 SLP131 P0000 60000 T01890056 10283 20183 58017
93073KASE ASE20160609165512806/09/16 16:55:31  5-MIN KASE 092355Z 26011KT 10SM TS FEW070 OVC095 19/05 A3023 7560 39 9700 260/11 RMK AO2 LTG DSNT W T01890050
93073KASE ASE20160609170011706/09/16 17:00:31  5-MIN KASE 100000Z 25008KT 10SM TS FEW065 OVC090 18/06 A3023 7550 42 9700 240/08 RMK AO2 T01830056
93073KASE ASE20160609170513506/09/16 17:05:31  5-MIN KASE 100005Z 15006KT 10SM TS SCT065 BKN075 OVC095 19/06 A3023 7550 41 9700 140/06 RMK AO2 LTG DSNT E T01890056
93073KASE ASE20160609171014406/09/16 17:10:31  5-MIN KASE 100010Z 20004KT 10SM TS SCT060 BKN075 OVC090 19/06 A3023 7550 41 9700 200/04 RMK AO2 LTG DSNT E TSE06B07 T01890056
93073KASE ASE20160609171513706/09/16 17:15:31  5-MIN KASE 100015Z 18006KT 10SM TS BKN065 OVC090 18/07 A3023 7550 48 9600 170/06 RMK AO2 LTG DSNT E TSE06B07 T01780067
93073KASE ASE20160609172014806/09/16 17:20:31  5-MIN KASE 100020Z 14007KT 10SM -TSRA BKN065 BKN090 OVC110 19/06 A3022 7570 40 9800 130/07 RMK AO2 RAB20 TSE06B07 P0000 T01940056
93073KASE ASE20160609172516406/09/16 17:25:31  5-MIN KASE 100025Z 15011KT 110V210 10SM -TSRA SCT055 BKN070 OVC110 20/04 A3021 7570 35 9900 140/11 100V200 RMK AO2 RAB20 TSE06B07 P0000 T02000044
93073KASE ASE20160609173015406/09/16 17:30:31  5-MIN KASE 100030Z 24007G15KT 10SM -TSRA SCT055 BKN070 BKN085 17/07 A3022 7570 51 9600 230/07G15 RMK AO2 RAB20 TSE06B07 P0000 T01720072
93073KASE ASE20160609173514806/09/16 17:35:31  5-MIN KASE 100035Z 22007KT 10SM -TSRA FEW060 SCT070 SCT110 18/06 A3021 7570 42 9700 210/07 RMK AO2 RAB20 TSE06B07 P0000 T01830056
93073KASE ASE20160609174014106/09/16 17:40:31  5-MIN KASE 100040Z 21005KT 10SM TS FEW050 FEW065 18/05 A3022 7570 41 9700 200/05 RMK AO2 RAB20E38 TSE06B07 P0000 T01830050
93073KASE ASE20160609174513406/09/16 17:45:31  5-MIN KASE 100045Z 10007KT 10SM TS FEW050 19/04 A3022 7570 38 9700 090/07 RMK AO2 RAB20E38 TSE06B07 P0000 T01890044
93073KASE ASE20160609175014106/09/16 17:50:31  5-MIN KASE 100050Z VRB04KT 10SM TS FEW047 18/05 A3021 7570 41 9700 VRB/04 RMK AO2 RAB20E38 TSE06B07 SLP127 P0000 T01830050
93073KASE ASE20160609175509406/09/16 17:55:31  5-MIN KASE 100055Z 10SM CLR 18/04 A3022 7570 39 9700 M /M RMK AO2 T01830044
93073KASE ASE20160609180010406/09/16 18:00:31  5-MIN KASE 100100Z 14007KT 10SM CLR 18/06 A3022 7570 44 9600 140/07 RMK AO2 T01780056
93073KASE ASE20160609180510406/09/16 18:05:31  5-MIN KASE 100105Z 14008KT 10SM CLR 18/06 A3022 7570 46 9600 130/08 RMK AO2 T01780061
93073KASE ASE20160609181010906/09/16 18:10:31  5-MIN KASE 100110Z AUTO 16006KT 10SM CLR 18/06 A3022 7560 46 9600 150/06 RMK AO2 T01780061
93073KASE ASE20160609181510906/09/16 18:15:31  5-MIN KASE 100115Z AUTO 15009KT 10SM CLR 18/06 A3022 7570 46 9600 140/09 RMK AO2 T01780061
93073KASE ASE20160609182010906/09/16 18:20:31  5-MIN KASE 100120Z AUTO 14010KT 10SM CLR 18/06 A3021 7570 46 9600 130/10 RMK AO2 T01780061
93073KASE ASE20160609182510906/09/16 18:25:31  5-MIN KASE 100125Z AUTO 14010KT 10SM CLR 18/06 A3021 7570 44 9600 130/10 RMK AO2 T01780056
93073KASE ASE20160609183010906/09/16 18:30:31  5-MIN KASE 100130Z AUTO 14009KT 10SM CLR 18/06 A3021 7570 44 9600 130/09 RMK AO2 T01780056
93073KASE ASE20160609183510906/09/16 18:35:31  5-MIN KASE 100135Z AUTO 15008KT 10SM CLR 18/06 A3021 7580 46 9600 140/08 RMK AO2 T01780061
93073KASE ASE20160609184010906/09/16 18:40:31  5-MIN KASE 100140Z AUTO 14008KT 10SM CLR 18/06 A3021 7580 44 9600 130/08 RMK AO2 T01780056
93073KASE ASE20160609184510906/09/16 18:45:31  5-MIN KASE 100145Z AUTO 13009KT 10SM CLR 18/06 A3021 7580 44 9600 130/09 RMK AO2 T01780056
93073KASE ASE20160609185011606/09/16 18:50:31  5-MIN KASE 100150Z AUTO 13009KT 10SM CLR 17/06 A3021 7580 46 9600 120/09 RMK AO2 SLP117 T01720056
93073KASE ASE20160609185510906/09/16 18:55:31  5-MIN KASE 100155Z AUTO 13009KT 10SM CLR 17/06 A3021 7580 46 9600 120/09 RMK AO2 T01720056
93073KASE ASE20160609190010906/09/16 19:00:31  5-MIN KASE 100200Z AUTO 13010KT 10SM CLR 17/06 A3021 7580 46 9600 120/10 RMK AO2 T01720056
93073KASE ASE20160609190510906/09/16 19:05:31  5-MIN KASE 100205Z AUTO 14009KT 10SM CLR 17/06 A3021 7570 46 9600 130/09 RMK AO2 T01720056
93073KASE ASE20160609191010906/09/16 19:10:31  5-MIN KASE 100210Z AUTO 13010KT 10SM CLR 17/06 A3021 7570 46 9600 120/10 RMK AO2 T01720056
93073KASE ASE20160609191510906/09/16 19:15:31  5-MIN KASE 100215Z AUTO 14008KT 10SM CLR 17/06 A3021 7580 46 9600 130/08 RMK AO2 T01720056
93073KASE ASE20160609192010906/09/16 19:20:31  5-MIN KASE 100220Z AUTO 14009KT 10SM CLR 17/06 A3021 7580 47 9500 130/09 RMK AO2 T01670056
93073KASE ASE20160609192510906/09/16 19:25:31  5-MIN KASE 100225Z AUTO 13009KT 10SM CLR 17/06 A3021 7580 47 9500 120/09 RMK AO2 T01670056
93073KASE ASE20160609193010906/09/16 19:30:31  5-MIN KASE 100230Z AUTO 14008KT 10SM CLR 17/06 A3021 7580 47 9500 130/08 RMK AO2 T01670056
93073KASE ASE20160609193510906/09/16 19:35:31  5-MIN KASE 100235Z AUTO 14009KT 10SM CLR 17/06 A3021 7570 47 9500 130/09 RMK AO2 T01670056
93073KASE ASE20160609194010906/09/16 19:40:31  5-MIN KASE 100240Z AUTO 14009KT 10SM CLR 17/06 A3021 7570 47 9500 130/09 RMK AO2 T01670056
93073KASE ASE20160609194510906/09/16 19:45:31  5-MIN KASE 100245Z AUTO 13009KT 10SM CLR 16/06 A3021 7570 49 9400 120/09 RMK AO2 T01610056
93073KASE ASE20160609195012806/09/16 19:50:31  5-MIN KASE 100250Z AUTO 13010KT 10SM CLR 16/06 A3022 7570 49 9400 130/10 RMK AO2 SLP113 60000 T01610056 53019
93073KASE ASE20160609195510906/09/16 19:55:31  5-MIN KASE 100255Z AUTO 13010KT 10SM CLR 16/06 A3021 7570 51 9400 120/10 RMK AO2 T01560056
93073KASE ASE20160609200010906/09/16 20:00:31  5-MIN KASE 100300Z AUTO 13011KT 10SM CLR 16/06 A3022 7570 51 9400 120/11 RMK AO2 T01560056
93073KASE ASE20160609200510906/09/16 20:05:31  5-MIN KASE 100305Z AUTO 14009KT 10SM CLR 16/05 A3022 7570 49 9400 130/09 RMK AO2 T01560050
93073KASE ASE20160609201010906/09/16 20:10:31  5-MIN KASE 100310Z AUTO 13009KT 10SM CLR 16/05 A3021 7570 49 9400 130/09 RMK AO2 T01560050
93073KASE ASE20160609201510906/09/16 20:15:31  5-MIN KASE 100315Z AUTO 13010KT 10SM CLR 16/05 A3021 7570 49 9400 120/10 RMK AO2 T01560050
93073KASE ASE20160609202010906/09/16 20:20:31  5-MIN KASE 100320Z AUTO 14010KT 10SM CLR 16/05 A3022 7570 49 9400 130/10 RMK AO2 T01560050
93073KASE ASE20160609202510906/09/16 20:25:31  5-MIN KASE 100325Z AUTO 14009KT 10SM CLR 16/04 A3022 7570 47 9400 130/09 RMK AO2 T01560044
93073KASE ASE20160609203010906/09/16 20:30:31  5-MIN KASE 100330Z AUTO 14009KT 10SM CLR 16/04 A3021 7570 47 9400 130/09 RMK AO2 T01560044
93073KASE ASE20160609203510906/09/16 20:35:31  5-MIN KASE 100335Z AUTO 14009KT 10SM CLR 16/04 A3022 7570 45 9400 130/09 RMK AO2 T01560039
93073KASE ASE20160609204010906/09/16 20:40:31  5-MIN KASE 100340Z AUTO 15008KT 10SM CLR 16/03 A3022 7570 43 9400 140/08 RMK AO2 T01560033
93073KASE ASE20160609204510906/09/16 20:45:31  5-MIN KASE 100345Z AUTO 16007KT 10SM CLR 16/03 A3022 7560 43 9400 150/07 RMK AO2 T01560033
93073KASE ASE20160609205011606/09/16 20:50:31  5-MIN KASE 100350Z AUTO VRB05KT 10SM CLR 14/04 A3022 7560 49 9300 VRB/05 RMK AO2 SLP114 T01440039
93073KASE ASE20160609205510906/09/16 20:55:31  5-MIN KASE 100355Z AUTO 15007KT 10SM CLR 14/04 A3022 7560 49 9300 150/07 RMK AO2 T01440039
93073KASE ASE20160609210010906/09/16 21:00:31  5-MIN KASE 100400Z AUTO 15005KT 10SM CLR 15/03 A3023 7560 45 9300 140/05 RMK AO2 T01500033
93073KASE ASE20160609210510906/09/16 21:05:31  5-MIN KASE 100405Z AUTO 17007KT 10SM CLR 15/03 A3023 7560 43 9300 160/07 RMK AO2 T01500028
93073KASE ASE20160609211010906/09/16 21:10:31  5-MIN KASE 100410Z AUTO 19005KT 10SM CLR 14/03 A3023 7560 48 9200 180/05 RMK AO2 T01390033
93073KASE ASE20160609211510906/09/16 21:15:31  5-MIN KASE 100415Z AUTO 18005KT 10SM CLR 13/04 A3023 7560 52 9100 170/05 RMK AO2 T01330039
93073KASE ASE20160609212010906/09/16 21:20:31  5-MIN KASE 100420Z AUTO 18005KT 10SM CLR 13/04 A3023 7560 54 9100 170/05 RMK AO2 T01330044
93073KASE ASE20160609212510906/09/16 21:25:31  5-MIN KASE 100425Z AUTO 21007KT 10SM CLR 13/04 A3023 7560 54 9100 200/07 RMK AO2 T01330044
93073KASE ASE20160609213010906/09/16 21:30:31  5-MIN KASE 100430Z AUTO 20007KT 10SM CLR 13/04 A3022 7560 56 9100 190/07 RMK AO2 T01280044
93073KASE ASE20160609213510906/09/16 21:35:31  5-MIN KASE 100435Z AUTO 20007KT 10SM CLR 13/04 A3022 7560 54 9100 190/07 RMK AO2 T01280039
93073KASE ASE20160609214010906/09/16 21:40:31  5-MIN KASE 100440Z AUTO 19006KT 10SM CLR 13/04 A3022 7560 54 9100 180/06 RMK AO2 T01280039
93073KASE ASE20160609214510906/09/16 21:45:31  5-MIN KASE 100445Z AUTO 20007KT 10SM CLR 13/04 A3022 7560 54 9100 190/07 RMK AO2 T01280039
93073KASE ASE20160609215011606/09/16 21:50:31  5-MIN KASE 100450Z AUTO 20006KT 10SM CLR 13/04 A3022 7560 54 9100 190/06 RMK AO2 SLP114 T01280039
93073KASE ASE20160609215510906/09/16 21:55:31  5-MIN KASE 100455Z AUTO 21005KT 10SM CLR 12/04 A3022 7560 56 9000 200/05 RMK AO2 T01220039
93073KASE ASE20160609220010906/09/16 22:00:31  5-MIN KASE 100500Z AUTO 21006KT 10SM CLR 12/03 A3022 7560 54 9000 200/06 RMK AO2 T01220033
93073KASE ASE20160609220510906/09/16 22:05:31  5-MIN KASE 100505Z AUTO 21005KT 10SM CLR 13/04 A3022 7570 54 9100 200/05 RMK AO2 T01280039
93073KASE ASE20160609221010906/09/16 22:10:31  5-MIN KASE 100510Z AUTO 21007KT 10SM CLR 12/04 A3022 7570 56 9000 200/07 RMK AO2 T01220039
93073KASE ASE20160609221510906/09/16 22:15:31  5-MIN KASE 100515Z AUTO 19006KT 10SM CLR 12/03 A3022 7570 54 9000 190/06 RMK AO2 T01220033
93073KASE ASE20160609222010906/09/16 22:20:31  5-MIN KASE 100520Z AUTO 22009KT 10SM CLR 12/04 A3022 7570 58 8900 210/09 RMK AO2 T01170039
93073KASE ASE20160609222510906/09/16 22:25:31  5-MIN KASE 100525Z AUTO 21008KT 10SM CLR 12/04 A3021 7570 56 9000 200/08 RMK AO2 T01220039
93073KASE ASE20160609223010906/09/16 22:30:31  5-MIN KASE 100530Z AUTO 21007KT 10SM CLR 12/04 A3021 7570 58 9000 200/07 RMK AO2 T01170039
93073KASE ASE20160609223510906/09/16 22:35:31  5-MIN KASE 100535Z AUTO 20006KT 10SM CLR 12/03 A3021 7570 54 9000 190/06 RMK AO2 T01220033
93073KASE ASE20160609224010906/09/16 22:40:31  5-MIN KASE 100540Z AUTO 21006KT 10SM CLR 12/03 A3021 7580 54 9000 200/06 RMK AO2 T01220033
93073KASE ASE20160609224510906/09/16 22:45:31  5-MIN KASE 100545Z AUTO 21007KT 10SM CLR 12/03 A3021 7570 54 9000 200/07 RMK AO2 T01220033
93073KASE ASE20160609225014006/09/16 22:50:31  5-MIN KASE 100550Z AUTO 21007KT 10SM CLR 12/03 A3021 7570 52 9000 210/07 RMK AO2 SLP102 60000 T01220028 10200 20117 55003
93073KASE ASE20160609225510906/09/16 22:55:31  5-MIN KASE 100555Z AUTO 21008KT 10SM CLR 12/03 A3021 7580 52 9000 200/08 RMK AO2 T01220028
93073KASE ASE20160609230010906/09/16 23:00:31  5-MIN KASE 100600Z AUTO 23008KT 10SM CLR 13/03 A3021 7570 50 9100 220/08 RMK AO2 T01280028
93073KASE ASE20160609230510906/09/16 23:05:31  5-MIN KASE 100605Z AUTO 21007KT 10SM CLR 13/02 A3021 7580 48 9100 200/07 RMK AO2 T01280022
93073KASE ASE20160609231010906/09/16 23:10:31  5-MIN KASE 100610Z AUTO 22007KT 10SM CLR 12/03 A3021 7580 52 9000 210/07 RMK AO2 T01220028
93073KASE ASE20160609231510906/09/16 23:15:31  5-MIN KASE 100615Z AUTO 23007KT 10SM CLR 12/03 A3021 7580 52 9000 220/07 RMK AO2 T01220028
93073KASE ASE20160609232010906/09/16 23:20:31  5-MIN KASE 100620Z AUTO 21006KT 10SM CLR 13/03 A3021 7570 50 9100 210/06 RMK AO2 T01280028
93073KASE ASE20160609232510906/09/16 23:25:31  5-MIN KASE 100625Z AUTO 20005KT 10SM CLR 12/03 A3021 7580 52 9000 190/05 RMK AO2 T01220028
93073KASE ASE20160609233010906/09/16 23:30:31  5-MIN KASE 100630Z AUTO 22006KT 10SM CLR 12/03 A3020 7580 52 9000 220/06 RMK AO2 T01220028
93073KASE ASE20160609233510906/09/16 23:35:31  5-MIN KASE 100635Z AUTO 23005KT 10SM CLR 12/03 A3021 7580 52 9000 220/05 RMK AO2 T01220028
93073KASE ASE20160609234010906/09/16 23:40:31  5-MIN KASE 100640Z AUTO 21004KT 10SM CLR 13/02 A3021 7580 48 9100 200/04 RMK AO2 T01280022
93073KASE ASE20160609234510906/09/16 23:45:31  5-MIN KASE 100645Z AUTO 21005KT 10SM CLR 12/02 A3021 7580 50 9000 200/05 RMK AO2 T01220022
93073KASE ASE20160609235012606/09/16 23:50:31  5-MIN KASE 100650Z AUTO 21003KT 10SM CLR 12/03 A3021 7580 54 9000 210/03 RMK AO2 SLP100 T01170028 402830056
93073KASE ASE20160609235510906/09/16 23:55:31  5-MIN KASE 100655Z AUTO 00000KT 10SM CLR 11/03 A3020 7580 58 8900 000/00 RMK AO2 T01110033
93073KASE ASE20160610000010806/10/16 00:00:31  5-MIN KASE 100700Z AUTO 00000KT 9SM CLR 11/03 A3020 7580 58 8800 000/00 RMK AO2 T01060028
93073KASE ASE20160610000510806/10/16 00:05:31  5-MIN KASE 100705Z AUTO 00000KT 9SM CLR 10/03 A3020 7580 60 8800 000/00 RMK AO2 T01000028
93073KASE ASE20160610001010906/10/16 00:10:31  5-MIN KASE 100710Z AUTO 00000KT 10SM CLR 11/03 A3020 7580 58 8800 000/00 RMK AO2 T01060028
93073KASE ASE20160610001510906/10/16 00:15:31  5-MIN KASE 100715Z AUTO 00000KT 10SM CLR 11/03 A3020 7580 58 8800 000/00 RMK AO2 T01060028
93073KASE ASE20160610002010906/10/16 00:20:31  5-MIN KASE 100720Z AUTO 02004KT 10SM CLR 10/03 A3020 7580 63 8800 020/04 RMK AO2 T01000033
93073KASE ASE20160610002510906/10/16 00:25:31  5-MIN KASE 100725Z AUTO 00000KT 10SM CLR 09/03 A3021 7580 65 8700 000/00 RMK AO2 T00940033
93073KASE ASE20160610003010906/10/16 00:30:31  5-MIN KASE 100730Z AUTO 22003KT 10SM CLR 09/03 A3021 7580 63 8700 210/03 RMK AO2 T00940028
93073KASE ASE20160610003510906/10/16 00:35:31  5-MIN KASE 100735Z AUTO 22004KT 10SM CLR 08/03 A3021 7580 70 8600 210/04 RMK AO2 T00830033
93073KASE ASE20160610004010906/10/16 00:40:31  5-MIN KASE 100740Z AUTO 00000KT 10SM CLR 10/03 A3021 7580 60 8800 000/00 RMK AO2 T01000028
93073KASE ASE20160610004510906/10/16 00:45:31  5-MIN KASE 100745Z AUTO 00000KT 10SM CLR 10/03 A3021 7580 60 8800 000/00 RMK AO2 T01000028
93073KASE ASE20160610005011606/10/16 00:50:31  5-MIN KASE 100750Z AUTO 00000KT 10SM CLR 09/03 A3021 7580 65 8600 000/00 RMK AO2 SLP104 T00890028
93073KASE ASE20160610005510906/10/16 00:55:31  5-MIN KASE 100755Z AUTO 00000KT 10SM CLR 09/03 A3020 7580 63 8700 000/00 RMK AO2 T00940028
93073KASE ASE20160610010010906/10/16 01:00:31  5-MIN KASE 100800Z AUTO 21003KT 10SM CLR 09/03 A3020 7580 65 8600 200/03 RMK AO2 T00890028
93073KASE ASE20160610010510906/10/16 01:05:31  5-MIN KASE 100805Z AUTO 00000KT 10SM CLR 09/03 A3021 7580 65 8600 000/00 RMK AO2 T00890028
93073KASE ASE20160610011010906/10/16 01:10:31  5-MIN KASE 100810Z AUTO 00000KT 10SM CLR 09/03 A3021 7580 65 8600 000/00 RMK AO2 T00890028
93073KASE ASE20160610011510906/10/16 01:15:31  5-MIN KASE 100815Z AUTO 00000KT 10SM CLR 09/03 A3021 7580 63 8700 000/00 RMK AO2 T00940028
93073KASE ASE20160610012010906/10/16 01:20:31  5-MIN KASE 100820Z AUTO 00000KT 10SM CLR 09/03 A3021 7570 65 8700 000/00 RMK AO2 T00940033
93073KASE ASE20160610012510906/10/16 01:25:31  5-MIN KASE 100825Z AUTO 00000KT 10SM CLR 09/03 A3021 7580 65 8600 000/00 RMK AO2 T00890028
93073KASE ASE20160610013010906/10/16 01:30:31  5-MIN KASE 100830Z AUTO 00000KT 10SM CLR 09/03 A3021 7580 65 8600 000/00 RMK AO2 T00890028
93073KASE ASE20160610013510906/10/16 01:35:31  5-MIN KASE 100835Z AUTO 00000KT 10SM CLR 08/03 A3020 7580 68 8600 000/00 RMK AO2 T00830028
93073KASE ASE20160610014010906/10/16 01:40:31  5-MIN KASE 100840Z AUTO 00000KT 10SM CLR 10/03 A3021 7580 60 8800 000/00 RMK AO2 T01000028
93073KASE ASE20160610014510906/10/16 01:45:31  5-MIN KASE 100845Z AUTO 18004KT 10SM CLR 10/03 A3021 7580 60 8800 170/04 RMK AO2 T01000028
93073KASE ASE20160610015012506/10/16 01:50:31  5-MIN KASE 100850Z AUTO 00000KT 10SM FEW120 09/03 A3020 7580 63 8700 000/00 RMK AO2 SLP100 T00940028 58001
93073KASE ASE20160610015511206/10/16 01:55:31  5-MIN KASE 100855Z AUTO 00000KT 10SM FEW120 09/03 A3020 7580 63 8700 000/00 RMK AO2 T00940028
93073KASE ASE20160610020010906/10/16 02:00:31  5-MIN KASE 100900Z AUTO 00000KT 10SM CLR 09/03 A3020 7580 65 8600 000/00 RMK AO2 T00890028
93073KASE ASE20160610020510906/10/16 02:05:31  5-MIN KASE 100905Z AUTO 00000KT 10SM CLR 09/03 A3020 7580 65 8600 000/00 RMK AO2 T00890028
93073KASE ASE20160610021010906/10/16 02:10:31  5-MIN KASE 100910Z AUTO 00000KT 10SM CLR 08/03 A3020 7580 68 8600 000/00 RMK AO2 T00830028
93073KASE ASE20160610021510906/10/16 02:15:31  5-MIN KASE 100915Z AUTO 00000KT 10SM CLR 09/03 A3020 7580 68 8600 000/00 RMK AO2 T00890033
93073KASE ASE20160610022010906/10/16 02:20:31  5-MIN KASE 100920Z AUTO 00000KT 10SM CLR 09/03 A3021 7580 63 8700 000/00 RMK AO2 T00940028
93073KASE ASE20160610022510906/10/16 02:25:31  5-MIN KASE 100925Z AUTO 00000KT 10SM CLR 09/03 A3020 7580 65 8600 000/00 RMK AO2 T00890028
93073KASE ASE20160610023010906/10/16 02:30:31  5-MIN KASE 100930Z AUTO 00000KT 10SM CLR 09/03 A3020 7580 65 8600 000/00 RMK AO2 T00890028
93073KASE ASE20160610023510906/10/16 02:35:31  5-MIN KASE 100935Z AUTO 00000KT 10SM CLR 09/03 A3021 7580 65 8600 000/00 RMK AO2 T00890028
93073KASE ASE20160610024010906/10/16 02:40:31  5-MIN KASE 100940Z AUTO 22006KT 10SM CLR 09/03 A3021 7580 65 8700 210/06 RMK AO2 T00940033
93073KASE ASE20160610024510906/10/16 02:45:31  5-MIN KASE 100945Z AUTO 00000KT 10SM CLR 10/03 A3021 7580 60 8800 000/00 RMK AO2 T01000028
93073KASE ASE20160610025011606/10/16 02:50:31  5-MIN KASE 100950Z AUTO 00000KT 10SM CLR 09/03 A3021 7570 63 8700 000/00 RMK AO2 SLP099 T00940028
93073KASE ASE20160610025510906/10/16 02:55:31  5-MIN KASE 100955Z AUTO 00000KT 10SM CLR 09/03 A3021 7580 63 8700 000/00 RMK AO2 T00940028
93073KASE ASE20160610030010906/10/16 03:00:31  5-MIN KASE 101000Z AUTO 00000KT 10SM CLR 09/03 A3021 7570 65 8600 000/00 RMK AO2 T00890028
93073KASE ASE20160610030510906/10/16 03:05:31  5-MIN KASE 101005Z AUTO 00000KT 10SM CLR 09/03 A3021 7570 65 8600 000/00 RMK AO2 T00890028
93073KASE ASE20160610031010906/10/16 03:10:31  5-MIN KASE 101010Z AUTO 00000KT 10SM CLR 09/03 A3021 7570 63 8700 000/00 RMK AO2 T00940028
93073KASE ASE20160610031510906/10/16 03:15:31  5-MIN KASE 101015Z AUTO 20005KT 10SM CLR 09/03 A3021 7570 65 8700 190/05 RMK AO2 T00940033
93073KASE ASE20160610032010906/10/16 03:20:31  5-MIN KASE 101020Z AUTO 00000KT 10SM CLR 09/03 A3022 7570 68 8600 000/00 RMK AO2 T00890033
93073KASE ASE20160610032510906/10/16 03:25:31  5-MIN KASE 101025Z AUTO 00000KT 10SM CLR 09/03 A3021 7570 68 8600 000/00 RMK AO2 T00890033
93073KASE ASE20160610033010906/10/16 03:30:31  5-MIN KASE 101030Z AUTO 00000KT 10SM CLR 09/03 A3022 7570 65 8700 000/00 RMK AO2 T00940033
93073KASE ASE20160610033510906/10/16 03:35:31  5-MIN KASE 101035Z AUTO 00000KT 10SM CLR 09/03 A3022 7560 68 8600 000/00 RMK AO2 T00890033
93073KASE ASE20160610034010906/10/16 03:40:31  5-MIN KASE 101040Z AUTO 00000KT 10SM CLR 08/03 A3022 7570 70 8600 000/00 RMK AO2 T00830033
93073KASE ASE20160610034510906/10/16 03:45:31  5-MIN KASE 101045Z AUTO 33003KT 10SM CLR 09/03 A3022 7560 68 8600 320/03 RMK AO2 T00890033
93073KASE ASE20160610035011606/10/16 03:50:31  5-MIN KASE 101050Z AUTO 00000KT 10SM CLR 09/03 A3023 7560 68 8600 000/00 RMK AO2 SLP116 T00890033
93073KASE ASE20160610035510906/10/16 03:55:31  5-MIN KASE 101055Z AUTO 00000KT 10SM CLR 08/03 A3023 7560 70 8600 000/00 RMK AO2 T00830033
93073KASE ASE20160610040010906/10/16 04:00:31  5-MIN KASE 101100Z AUTO 00000KT 10SM CLR 08/03 A3023 7560 68 8600 000/00 RMK AO2 T00830028
93073KASE ASE20160610040510906/10/16 04:05:31  5-MIN KASE 101105Z AUTO 00000KT 10SM CLR 07/03 A3023 7550 73 8400 000/00 RMK AO2 T00720028
93073KASE ASE20160610041010906/10/16 04:10:31  5-MIN KASE 101110Z AUTO 00000KT 10SM CLR 07/03 A3023 7550 73 8400 000/00 RMK AO2 T00720028
93073KASE ASE20160610041510906/10/16 04:15:31  5-MIN KASE 101115Z AUTO 00000KT 10SM CLR 08/03 A3023 7550 70 8500 000/00 RMK AO2 T00780028
93073KASE ASE20160610042010906/10/16 04:20:31  5-MIN KASE 101120Z AUTO 00000KT 10SM CLR 08/03 A3024 7550 70 8500 000/00 RMK AO2 T00780028
93073KASE ASE20160610042510906/10/16 04:25:31  5-MIN KASE 101125Z AUTO 20003KT 10SM CLR 08/03 A3024 7550 73 8500 190/03 RMK AO2 T00780033
93073KASE ASE20160610043010906/10/16 04:30:31  5-MIN KASE 101130Z AUTO 15003KT 10SM CLR 08/03 A3024 7550 73 8500 140/03 RMK AO2 T00780033
93073KASE ASE20160610043510906/10/16 04:35:31  5-MIN KASE 101135Z AUTO VRB03KT 10SM CLR 08/03 A3024 7540 70 8500 VRB/03 RMK AO2 T00830033
93073KASE ASE20160610044010906/10/16 04:40:31  5-MIN KASE 101140Z AUTO 17005KT 10SM CLR 09/03 A3025 7540 68 8600 160/05 RMK AO2 T00890033
93073KASE ASE20160610044510906/10/16 04:45:31  5-MIN KASE 101145Z AUTO 18006KT 10SM CLR 08/03 A3024 7540 70 8500 170/06 RMK AO2 T00830033
93073KASE ASE20160610045013406/10/16 04:50:31  5-MIN KASE 101150Z AUTO 18005KT 10SM CLR 08/03 A3025 7540 70 8500 170/05 RMK AO2 SLP137 T00830033 10128 20072 57001
93073KASE ASE20160610045510906/10/16 04:55:31  5-MIN KASE 101155Z AUTO 17005KT 10SM CLR 09/03 A3025 7540 65 8700 160/05 RMK AO2 T00940033
93073KASE ASE20160610050010906/10/16 05:00:31  5-MIN KASE 101200Z AUTO 22003KT 10SM CLR 09/03 A3025 7540 68 8600 220/03 RMK AO2 T00890033
93073KASE ASE20160610050510906/10/16 05:05:31  5-MIN KASE 101205Z AUTO 18003KT 10SM CLR 08/03 A3025 7540 73 8500 170/03 RMK AO2 T00780033
93073KASE ASE20160610051010906/10/16 05:10:31  5-MIN KASE 101210Z AUTO 19004KT 10SM CLR 09/03 A3025 7530 65 8700 180/04 RMK AO2 T00940033
93073KASE ASE20160610051510906/10/16 05:15:31  5-MIN KASE 101215Z AUTO 00000KT 10SM CLR 09/03 A3025 7530 68 8600 000/00 RMK AO2 T00890033
93073KASE ASE20160610052010906/10/16 05:20:31  5-MIN KASE 101220Z AUTO 00000KT 10SM CLR 09/04 A3025 7540 71 8600 000/00 RMK AO2 T00890039
93073KASE ASE20160610052510906/10/16 05:25:31  5-MIN KASE 101225Z AUTO 00000KT 10SM CLR 09/04 A3026 7530 71 8600 000/00 RMK AO2 T00890039
93073KASE ASE20160610053010906/10/16 05:30:31  5-MIN KASE 101230Z AUTO 00000KT 10SM CLR 09/04 A3026 7530 68 8600 000/00 RMK AO2 T00940039
93073KASE ASE20160610053510406/10/16 05:35:31  5-MIN KASE 101235Z 00000KT 10SM CLR 09/04 A3026 7530 71 8600 000/00 RMK AO2 T00890039
93073KASE ASE20160610054010406/10/16 05:40:31  5-MIN KASE 101240Z 00000KT 10SM CLR 09/04 A3026 7530 71 8600 000/00 RMK AO2 T00940044
93073KASE ASE20160610054510406/10/16 05:45:31  5-MIN KASE 101245Z 13003KT 10SM CLR 10/04 A3026 7530 68 8700 120/03 RMK AO2 T01000044
93073KASE ASE20160610055011106/10/16 05:50:31  5-MIN KASE 101250Z 00000KT 10SM CLR 11/04 A3026 7520 63 8800 000/00 RMK AO2 SLP138 T01110044
93073KASE ASE20160610055510406/10/16 05:55:31  5-MIN KASE 101255Z 00000KT 10SM CLR 11/05 A3026 7530 66 8800 000/00 RMK AO2 T01110050
93073KASE ASE20160610060010406/10/16 06:00:31  5-MIN KASE 101300Z 00000KT 10SM CLR 11/05 A3026 7520 66 8800 000/00 RMK AO2 T01110050
93073KASE ASE20160610060510406/10/16 06:05:31  5-MIN KASE 101305Z 00000KT 10SM CLR 12/05 A3026 7520 63 8900 000/00 RMK AO2 T01170050
93073KASE ASE20160610061010406/10/16 06:10:31  5-MIN KASE 101310Z 00000KT 10SM CLR 12/06 A3027 7520 66 8900 000/00 RMK AO2 T01170056
93073KASE ASE20160610061510406/10/16 06:15:31  5-MIN KASE 101315Z 00000KT 10SM CLR 12/06 A3027 7520 63 9000 000/00 RMK AO2 T01220056
93073KASE ASE20160610062010406/10/16 06:20:31  5-MIN KASE 101320Z 00000KT 10SM CLR 12/05 A3027 7520 61 9000 000/00 RMK AO2 T01220050
93073KASE ASE20160610062510406/10/16 06:25:31  5-MIN KASE 101325Z 00000KT 10SM CLR 12/05 A3027 7520 61 8900 000/00 RMK AO2 T01220050
93073KASE ASE20160610063010406/10/16 06:30:31  5-MIN KASE 101330Z 00000KT 10SM CLR 13/04 A3027 7520 56 9000 000/00 RMK AO2 T01280044
93073KASE ASE20160610063510406/10/16 06:35:31  5-MIN KASE 101335Z 00000KT 10SM CLR 13/04 A3028 7510 54 9100 000/00 RMK AO2 T01330044
93073KASE ASE20160610064010406/10/16 06:40:31  5-MIN KASE 101340Z 00000KT 10SM CLR 14/06 A3028 7510 57 9100 000/00 RMK AO2 T01390056
93073KASE ASE20160610064510406/10/16 06:45:31  5-MIN KASE 101345Z 00000KT 10SM CLR 14/06 A3028 7510 57 9100 000/00 RMK AO2 T01390056
93073KASE ASE20160610065011106/10/16 06:50:31  5-MIN KASE 101350Z 00000KT 10SM CLR 14/06 A3028 7510 59 9100 000/00 RMK AO2 SLP139 T01390061
93073KASE ASE20160610065510606/10/16 06:55:31  5-MIN KASE 101355Z 00000KT 6SM HZ CLR 14/06 A3028 7510 57 9100 000/00 RMK AO2 T01390056
93073KASE ASE20160610070010606/10/16 07:00:31  5-MIN KASE 101400Z 36004KT 6SM HZ CLR 14/06 A3028 7510 55 9200 360/04 RMK AO2 T01440056
93073KASE ASE20160610070510406/10/16 07:05:31  5-MIN KASE 101405Z 36004KT 10SM CLR 14/06 A3028 7510 57 9100 350/04 RMK AO2 T01390056
93073KASE ASE20160610071010406/10/16 07:10:31  5-MIN KASE 101410Z 35003KT 10SM CLR 14/06 A3028 7510 55 9200 340/03 RMK AO2 T01440056
93073KASE ASE20160610071510406/10/16 07:15:31  5-MIN KASE 101415Z 34004KT 10SM CLR 14/06 A3028 7510 55 9200 330/04 RMK AO2 T01440056
93073KASE ASE20160610072010406/10/16 07:20:31  5-MIN KASE 101420Z 36003KT 10SM CLR 15/05 A3028 7510 51 9200 360/03 RMK AO2 T01500050
93073KASE ASE20160610072510406/10/16 07:25:31  5-MIN KASE 101425Z 34003KT 10SM CLR 16/05 A3028 7510 49 9300 330/03 RMK AO2 T01560050
93073KASE ASE20160610073010406/10/16 07:30:31  5-MIN KASE 101430Z 35003KT 10SM CLR 16/05 A3028 7510 49 9300 340/03 RMK AO2 T01560050
93073KASE ASE20160610073510406/10/16 07:35:31  5-MIN KASE 101435Z 35003KT 10SM CLR 16/05 A3028 7510 47 9400 340/03 RMK AO2 T01610050
93073KASE ASE20160610074010406/10/16 07:40:31  5-MIN KASE 101440Z 36003KT 10SM CLR 16/06 A3028 7510 49 9400 350/03 RMK AO2 T01610056
93073KASE ASE20160610074510406/10/16 07:45:31  5-MIN KASE 101445Z 35003KT 10SM CLR 17/05 A3029 7500 45 9400 350/03 RMK AO2 T01670050
93073KASE ASE20160610075011706/10/16 07:50:31  5-MIN KASE 101450Z VRB03KT 10SM CLR 17/05 A3029 7500 44 9500 VRB/03 RMK AO2 SLP137 T01720050 53013
93073KASE ASE20160610075510406/10/16 07:55:31  5-MIN KASE 101455Z 00000KT 10SM CLR 18/05 A3028 7510 42 9600 000/00 RMK AO2 T01780050
93073KASE ASE20160610080010406/10/16 08:00:31  5-MIN KASE 101500Z 34003KT 10SM CLR 18/05 A3029 7500 42 9500 330/03 RMK AO2 T01780050
93073KASE ASE20160610080510406/10/16 08:05:31  5-MIN KASE 101505Z 01003KT 10SM CLR 18/06 A3029 7500 42 9600 360/03 RMK AO2 T01830056
93073KASE ASE20160610081010406/10/16 08:10:31  5-MIN KASE 101510Z 00000KT 10SM CLR 18/06 A3029 7510 42 9600 000/00 RMK AO2 T01830056
93073KASE ASE20160610081510406/10/16 08:15:31  5-MIN KASE 101515Z VRB03KT 10SM CLR 19/06 A3028 7510 41 9700 VRB/03 RMK AO2 T01890056
93073KASE ASE20160610082010406/10/16 08:20:31  5-MIN KASE 101520Z 36004KT 10SM CLR 19/06 A3028 7510 40 9700 350/04 RMK AO2 T01940056
93073KASE ASE20160610082510406/10/16 08:25:31  5-MIN KASE 101525Z 34003KT 10SM CLR 19/06 A3028 7510 40 9700 340/03 RMK AO2 T01940056
93073KASE ASE20160610083010406/10/16 08:30:31  5-MIN KASE 101530Z 00000KT 10SM CLR 20/06 A3028 7510 38 9800 000/00 RMK AO2 T02000056
93073KASE ASE20160610083510406/10/16 08:35:31  5-MIN KASE 101535Z VRB03KT 10SM CLR 20/06 A3028 7510 40 9800 VRB/03 RMK AO2 T02000061
93073KASE ASE20160610084010406/10/16 08:40:31  5-MIN KASE 101540Z 34004KT 10SM CLR 20/06 A3028 7510 40 9800 330/04 RMK AO2 T02000061
93073KASE ASE20160610084510406/10/16 08:45:31  5-MIN KASE 101545Z 35005KT 10SM CLR 21/06 A3028 7510 37 9900 340/05 RMK AO2 T02060056
93073KASE ASE20160610085011106/10/16 08:50:31  5-MIN KASE 101550Z VRB03KT 10SM CLR 21/06 A3028 7510 37 9900 VRB/03 RMK AO2 SLP127 T02060056
93073KASE ASE20160610085510406/10/16 08:55:31  5-MIN KASE 101555Z 01004KT 10SM CLR 21/06 A3028 7510 37 9900 010/04 RMK AO2 T02110061
93073KASE ASE20160610090010506/10/16 09:00:31  5-MIN KASE 101600Z 36005KT 10SM CLR 22/07 A3028 7510 37 10000 350/05 RMK AO2 T02170067
93073KASE ASE20160610090510406/10/16 09:05:31  5-MIN KASE 101605Z 02004KT 10SM CLR 21/06 A3028 7510 37 9900 010/04 RMK AO2 T02110061
93073KASE ASE20160610091010406/10/16 09:10:31  5-MIN KASE 101610Z 01007KT 10SM CLR 21/07 A3028 7510 40 9900 360/07 RMK AO2 T02110072
93073KASE ASE20160610091510506/10/16 09:15:31  5-MIN KASE 101615Z 35006KT 10SM CLR 22/07 A3028 7510 37 10000 350/06 RMK AO2 T02170067
93073KASE ASE20160610092010506/10/16 09:20:31  5-MIN KASE 101620Z 35006KT 10SM CLR 22/07 A3028 7510 37 10000 340/06 RMK AO2 T02170067
93073KASE ASE20160610092510506/10/16 09:25:31  5-MIN KASE 101625Z 34006KT 10SM CLR 22/07 A3028 7510 37 10000 330/06 RMK AO2 T02170067
93073KASE ASE20160610093010506/10/16 09:30:31  5-MIN KASE 101630Z 35006KT 10SM CLR 22/07 A3028 7510 37 10000 340/06 RMK AO2 T02170067
93073KASE ASE20160610093510506/10/16 09:35:31  5-MIN KASE 101635Z 34005KT 10SM CLR 22/07 A3028 7510 36 10000 330/05 RMK AO2 T02220067
93073KASE ASE20160610094010506/10/16 09:40:31  5-MIN KASE 101640Z VRB05KT 10SM CLR 23/07 A3028 7510 35 10100 VRB/05 RMK AO2 T02280067
93073KASE ASE20160610094510506/10/16 09:45:31  5-MIN KASE 101645Z 34006KT 10SM CLR 23/07 A3028 7510 35 10100 330/06 RMK AO2 T02280067
93073KASE ASE20160610095011206/10/16 09:50:31  5-MIN KASE 101650Z 34006KT 10SM CLR 23/07 A3027 7520 35 10100 330/06 RMK AO2 SLP125 T02280067
93073KASE ASE20160610095510506/10/16 09:55:31  5-MIN KASE 101655Z 01006KT 10SM CLR 23/07 A3027 7520 35 10200 360/06 RMK AO2 T02330072
93073KASE ASE20160610100010506/10/16 10:00:31  5-MIN KASE 101700Z 35006KT 10SM CLR 23/08 A3027 7520 36 10200 350/06 RMK AO2 T02330078
93073KASE ASE20160610100510506/10/16 10:05:31  5-MIN KASE 101705Z 01007KT 10SM CLR 24/07 A3027 7520 34 10200 360/07 RMK AO2 T02390072
93073KASE ASE20160610101010506/10/16 10:10:31  5-MIN KASE 101710Z 36007KT 10SM CLR 24/07 A3027 7520 33 10300 350/07 RMK AO2 T02440072
93073KASE ASE20160610101510506/10/16 10:15:31  5-MIN KASE 101715Z 35006KT 10SM CLR 25/06 A3027 7520 29 10300 340/06 RMK AO2 T02500061
93073KASE ASE20160610102010506/10/16 10:20:31  5-MIN KASE 101720Z 36005KT 10SM CLR 25/06 A3027 7520 29 10300 350/05 RMK AO2 T02500061
93073KASE ASE20160610102510506/10/16 10:25:31  5-MIN KASE 101725Z 01005KT 10SM CLR 25/04 A3027 7520 26 10300 360/05 RMK AO2 T02500044
93073KASE ASE20160610103010506/10/16 10:30:31  5-MIN KASE 101730Z 01006KT 10SM CLR 26/04 A3027 7520 24 10400 360/06 RMK AO2 T02560039
93073KASE ASE20160610103510506/10/16 10:35:31  5-MIN KASE 101735Z 02008KT 10SM CLR 26/03 A3027 7520 23 10400 010/08 RMK AO2 T02560033
93073KASE ASE20160610104010506/10/16 10:40:31  5-MIN KASE 101740Z 03007KT 10SM CLR 26/02 A3027 7520 21 10400 020/07 RMK AO2 T02560017
93073KASE ASE20160610104510506/10/16 10:45:31  5-MIN KASE 101745Z 01008KT 10SM CLR 26/02 A3027 7520 21 10500 360/08 RMK AO2 T02610022
93073KASE ASE20160610105013006/10/16 10:50:31  5-MIN KASE 101750Z 05007KT 10SM CLR 26/02 A3027 7520 21 10500 040/07 RMK AO2 SLP116 T02610022 10261 20072 51008
93073KASE ASE20160610105510506/10/16 10:55:31  5-MIN KASE 101755Z 02007KT 10SM CLR 26/01 A3027 7520 19 10500 010/07 RMK AO2 T02610011
93073KASE ASE20160610110012106/10/16 11:00:31  5-MIN KASE 101800Z 02007KT 360V060 10SM CLR 27/01 A3027 7520 18 10600 010/07 350V050 RMK AO2 T02720011
93073KASE ASE20160610110510506/10/16 11:05:31  5-MIN KASE 101805Z 03007KT 10SM CLR 26/01 A3027 7520 19 10500 020/07 RMK AO2 T02610011
93073KASE ASE20160610111010506/10/16 11:10:31  5-MIN KASE 101810Z 01007KT 10SM CLR 27/02 A3027 7520 19 10500 360/07 RMK AO2 T02670017
93073KASE ASE20160610111510506/10/16 11:15:31  5-MIN KASE 101815Z VRB05KT 10SM CLR 27/02 A3026 7520 19 10600 VRB/05 RMK AO2 T02720017
93073KASE ASE20160610112010506/10/16 11:20:31  5-MIN KASE 101820Z 01006KT 10SM CLR 27/01 A3026 7530 18 10600 360/06 RMK AO2 T02720011
93073KASE ASE20160610112510506/10/16 11:25:31  5-MIN KASE 101825Z VRB04KT 10SM CLR 27/01 A3026 7520 18 10600 VRB/04 RMK AO2 T02720011
93073KASE ASE20160610113010506/10/16 11:30:31  5-MIN KASE 101830Z 33009KT 10SM CLR 28/01 A3026 7530 17 10700 320/09 RMK AO2 T02780011
93073KASE ASE20160610113510506/10/16 11:35:31  5-MIN KASE 101835Z VRB05KT 10SM CLR 27/01 A3026 7530 18 10600 VRB/05 RMK AO2 T02720011
93073KASE ASE20160610114010506/10/16 11:40:31  5-MIN KASE 101840Z 03007KT 10SM CLR 27/02 A3026 7530 19 10600 020/07 RMK AO2 T02720022
93073KASE ASE20160610114512106/10/16 11:45:31  5-MIN KASE 101845Z 05007KT 010V080 10SM CLR 27/02 A3026 7530 19 10600 040/07 360V070 RMK AO2 T02720017
93073KASE ASE20160610115011206/10/16 11:50:31  5-MIN KASE 101850Z 02006KT 10SM CLR 27/01 A3026 7530 17 10600 010/06 RMK AO2 SLP111 T02720006
93073KASE ASE20160610115510506/10/16 11:55:31  5-MIN KASE 101855Z VRB06KT 10SM CLR 28/01 A3026 7530 17 10600 VRB/06 RMK AO2 T02780011
93073KASE ASE20160610120010606/10/16 12:00:31  5-MIN KASE 101900Z VRB05KT 10SM CLR 28/M01 A3026 7530 15 10700 VRB/05 RMK AO2 T02781006
93073KASE ASE20160610120510606/10/16 12:05:31  5-MIN KASE 101905Z 21005KT 10SM CLR 27/M01 A3026 7530 15 10600 200/05 RMK AO2 T02721011
93073KASE ASE20160610121011206/10/16 12:10:31  5-MIN KASE 101910Z 21007G14KT 10SM CLR 28/M06 A3026 7530 10 10700 200/07G14 RMK AO2 T02781061
93073KASE ASE20160610121510606/10/16 12:15:31  5-MIN KASE 101915Z 21010KT 10SM CLR 27/M07 A3026 7530 10 10600 200/10 RMK AO2 T02721067
93073KASE ASE20160610122011206/10/16 12:20:31  5-MIN KASE 101920Z 21009G16KT 10SM CLR 28/M06 A3025 7530 10 10700 200/09G16 RMK AO2 T02831061
93073KASE ASE20160610122511206/10/16 12:25:31  5-MIN KASE 101925Z 25009G16KT 10SM CLR 28/M06 A3025 7530 10 10700 240/09G16 RMK AO2 T02831061
93073KASE ASE20160610123011206/10/16 12:30:31  5-MIN KASE 101930Z 22010G14KT 10SM CLR 28/M06 A3025 7530 10 10700 210/10G14 RMK AO2 T02781061
93073KASE ASE20160610123511206/10/16 12:35:31  5-MIN KASE 101935Z VRB06G14KT 10SM CLR 28/M06 A3025 7530 10 10700 VRB/06G14 RMK AO2 T02781061
93073KASE ASE20160610124010606/10/16 12:40:31  5-MIN KASE 101940Z 20007KT 10SM CLR 28/M07 A3025 7540 09 10700 190/07 RMK AO2 T02781072
93073KASE ASE20160610124510606/10/16 12:45:31  5-MIN KASE 101945Z 21009KT 10SM CLR 28/M07 A3025 7540 10 10700 200/09 RMK AO2 T02781067
93073KASE ASE20160610125011306/10/16 12:50:31  5-MIN KASE 101950Z 19007KT 10SM CLR 28/M07 A3025 7540 09 10700 190/07 RMK AO2 SLP114 T02781072
93073KASE ASE20160610125512806/10/16 12:55:31  5-MIN KASE 101955Z 23007G15KT 180V270 10SM CLR 28/M07 A3025 7540 09 10700 220/07G15 170V260 RMK AO2 T02831067
93073KASE ASE20160610130011206/10/16 13:00:31  5-MIN KASE 102000Z VRB06G15KT 10SM CLR 28/M08 A3025 7540 09 10700 VRB/06G15 RMK AO2 T02831078
93073KASE ASE20160610130511206/10/16 13:05:31  5-MIN KASE 102005Z 25010G15KT 10SM CLR 28/M06 A3025 7540 10 10700 240/10G15 RMK AO2 T02831056
93073KASE ASE20160610131013106/10/16 13:10:31  5-MIN KASE 102010Z 24007G15KT 160V290 10SM FEW110 28/M04 A3024 7540 12 10700 230/07G15 150V280 RMK AO2 T02831039
93073KASE ASE20160610131512806/10/16 13:15:31  5-MIN KASE 102015Z 25012G19KT 210V280 10SM CLR 29/M04 A3025 7540 11 10800 240/12G19 200V270 RMK AO2 T02891044
93073KASE ASE20160610132011206/10/16 13:20:31  5-MIN KASE 102020Z VRB05G19KT 10SM CLR 28/M06 A3025 7540 10 10700 VRB/05G19 RMK AO2 T02831061
93073KASE ASE20160610132511206/10/16 13:25:31  5-MIN KASE 102025Z 21008G17KT 10SM CLR 28/M08 A3025 7540 09 10700 200/08G17 RMK AO2 T02831078
93073KASE ASE20160610133011206/10/16 13:30:31  5-MIN KASE 102030Z 24012G16KT 10SM CLR 28/M07 A3025 7540 09 10700 230/12G16 RMK AO2 T02831067
93073KASE ASE20160610133511206/10/16 13:35:31  5-MIN KASE 102035Z 23012G16KT 10SM CLR 28/M07 A3025 7540 09 10700 220/12G16 RMK AO2 T02781072
93073KASE ASE20160610134012806/10/16 13:40:31  5-MIN KASE 102040Z 26008G17KT 220V290 10SM CLR 28/M10 A3025 7540 07 10700 250/08G17 210V280 RMK AO2 T02831100
93073KASE ASE20160610134512206/10/16 13:45:31  5-MIN KASE 102045Z 26009KT 220V290 10SM CLR 28/M09 A3025 7540 08 10700 250/09 210V280 RMK AO2 T02781089
93073KASE ASE20160610135012506/10/16 13:50:31  5-MIN KASE 102050Z 25008G15KT 10SM CLR 28/M09 A3025 7540 08 10700 240/08G15 RMK AO2 SLP110 T02831089 56004
93073KASE ASE20160610135511206/10/16 13:55:31  5-MIN KASE 102055Z 24006G15KT 10SM CLR 28/M09 A3024 7540 08 10700 240/06G15 RMK AO2 T02831089
93073KASE ASE20160610140011206/10/16 14:00:31  5-MIN KASE 102100Z 24009G17KT 10SM CLR 28/M09 A3024 7540 08 10700 230/09G17 RMK AO2 T02781094
93073KASE ASE20160610140511206/10/16 14:05:31  5-MIN KASE 102105Z 23008G17KT 10SM CLR 28/M11 A3024 7550 07 10700 220/08G17 RMK AO2 T02781106
93073KASE ASE20160610141010606/10/16 14:10:31  5-MIN KASE 102110Z VRB06KT 10SM CLR 28/M10 A3024 7550 07 10700 VRB/06 RMK AO2 T02781100
93073KASE ASE20160610141510606/10/16 14:15:31  5-MIN KASE 102115Z 27008KT 10SM CLR 29/M08 A3024 7550 08 10800 260/08 RMK AO2 T02891078
93073KASE ASE20160610142010606/10/16 14:20:31  5-MIN KASE 102120Z 25010KT 10SM CLR 28/M11 A3024 7550 07 10700 240/10 RMK AO2 T02781106
93073KASE ASE20160610142510606/10/16 14:25:31  5-MIN KASE 102125Z 24008KT 10SM CLR 28/M12 A3023 7550 07 10700 230/08 RMK AO2 T02781117
93073KASE ASE20160610143010606/10/16 14:30:31  5-MIN KASE 102130Z 25007KT 10SM CLR 28/M12 A3023 7550 06 10700 240/07 RMK AO2 T02781122
93073KASE ASE20160610143509606/10/16 14:35:31  5-MIN KASE 102135Z 10SM CLR 28/M12 A3023 7550 06 10700 M /M RMK AO2 T02781122
93073KASE ASE20160610144010606/10/16 14:40:31  5-MIN KASE 102140Z 25009KT 10SM CLR 28/M11 A3023 7560 07 10700 240/09 RMK AO2 T02831106
93073KASE ASE20160610144510606/10/16 14:45:31  5-MIN KASE 102145Z 23008KT 10SM CLR 28/M11 A3023 7550 07 10700 230/08 RMK AO2 T02781106
93073KASE ASE20160610145011306/10/16 14:50:31  5-MIN KASE 102150Z VRB05KT 10SM CLR 28/M09 A3023 7560 08 10700 VRB/05 RMK AO2 SLP105 T02781094
93073KASE ASE20160610145510606/10/16 14:55:31  5-MIN KASE 102155Z 00000KT 10SM CLR 28/M09 A3023 7560 08 10700 000/00 RMK AO2 T02831094
93073KASE ASE20160610150010606/10/16 15:00:31  5-MIN KASE 102200Z 30007KT 10SM CLR 28/M09 A3023 7560 08 10700 290/07 RMK AO2 T02831094
93073KASE ASE20160610150510606/10/16 15:05:31  5-MIN KASE 102205Z 01004KT 10SM CLR 28/M11 A3022 7560 07 10700 360/04 RMK AO2 T02831106
93073KASE ASE20160610151010606/10/16 15:10:31  5-MIN KASE 102210Z VRB03KT 10SM CLR 29/M09 A3022 7560 07 10800 VRB/03 RMK AO2 T02891094
93073KASE ASE20160610151510606/10/16 15:15:31  5-MIN KASE 102215Z VRB03KT 10SM CLR 29/M10 A3022 7560 07 10800 VRB/03 RMK AO2 T02891100
93073KASE ASE20160610152010606/10/16 15:20:31  5-MIN KASE 102220Z VRB04KT 10SM CLR 29/M09 A3022 7570 07 10900 VRB/04 RMK AO2 T02941094
93073KASE ASE20160610152510606/10/16 15:25:31  5-MIN KASE 102225Z VRB05KT 10SM CLR 28/M11 A3022 7570 07 10800 VRB/05 RMK AO2 T02831106
93073KASE ASE20160610153010606/10/16 15:30:31  5-MIN KASE 102230Z VRB04KT 10SM CLR 28/M09 A3022 7570 08 10800 VRB/04 RMK AO2 T02831094
93073KASE ASE20160610153510606/10/16 15:35:31  5-MIN KASE 102235Z 20007KT 10SM CLR 28/M09 A3022 7570 08 10800 200/07 RMK AO2 T02831089
93073KASE ASE20160610154010606/10/16 15:40:31  5-MIN KASE 102240Z VRB05KT 10SM CLR 28/M08 A3022 7570 08 10700 VRB/05 RMK AO2 T02781083
93073KASE ASE20160610154509606/10/16 15:45:31  5-MIN KASE 102245Z 10SM CLR 28/M10 A3022 7570 07 10800 M /M RMK AO2 T02831100
93073KASE ASE20160610155011306/10/16 15:50:31  5-MIN KASE 102250Z 20007KT 10SM CLR 28/M09 A3022 7570 08 10800 190/07 RMK AO2 SLP099 T02831089
93073KASE ASE20160610155510606/10/16 15:55:31  5-MIN KASE 102255Z 21006KT 10SM CLR 28/M11 A3021 7570 07 10700 200/06 RMK AO2 T02781106
93073KASE ASE20160610160010606/10/16 16:00:31  5-MIN KASE 102300Z 14004KT 10SM CLR 28/M11 A3021 7570 07 10700 130/04 RMK AO2 T02781111
93073KASE ASE20160610160510606/10/16 16:05:31  5-MIN KASE 102305Z 19005KT 10SM CLR 28/M10 A3021 7580 07 10700 180/05 RMK AO2 T02781100
93073KASE ASE20160610161010606/10/16 16:10:31  5-MIN KASE 102310Z 23004KT 10SM CLR 28/M09 A3021 7580 08 10700 220/04 RMK AO2 T02781094
93073KASE ASE20160610161510606/10/16 16:15:31  5-MIN KASE 102315Z VRB03KT 10SM CLR 28/M09 A3021 7580 08 10700 VRB/03 RMK AO2 T02781089
93073KASE ASE20160610162010606/10/16 16:20:31  5-MIN KASE 102320Z 00000KT 10SM CLR 28/M08 A3020 7580 08 10800 000/00 RMK AO2 T02831083
93073KASE ASE20160610162510606/10/16 16:25:31  5-MIN KASE 102325Z 00000KT 10SM CLR 28/M09 A3020 7580 08 10800 000/00 RMK AO2 T02831094
93073KASE ASE20160610163010606/10/16 16:30:31  5-MIN KASE 102330Z 00000KT 10SM CLR 29/M09 A3020 7580 08 10800 000/00 RMK AO2 T02891089
93073KASE ASE20160610163510606/10/16 16:35:31  5-MIN KASE 102335Z 33005KT 10SM CLR 29/M08 A3020 7580 08 10800 320/05 RMK AO2 T02891083
93073KASE ASE20160610164010606/10/16 16:40:31  5-MIN KASE 102340Z VRB04KT 10SM CLR 29/M08 A3020 7590 08 10800 VRB/04 RMK AO2 T02891083
93073KASE ASE20160610164510606/10/16 16:45:31  5-MIN KASE 102345Z 26005KT 10SM CLR 28/M08 A3020 7590 09 10700 250/05 RMK AO2 T02781078
93073KASE ASE20160610165013106/10/16 16:50:31  5-MIN KASE 102350Z 00000KT 10SM CLR 28/M08 A3020 7590 08 10800 000/00 RMK AO2 SLP094 T02831083 10294 20261 56006
93073KASE ASE20160610165510606/10/16 16:55:31  5-MIN KASE 102355Z 34004KT 10SM CLR 28/M06 A3020 7590 10 10800 330/04 RMK AO2 T02831061
93073KASE ASE20160610170010606/10/16 17:00:31  5-MIN KASE 110000Z 00000KT 10SM CLR 28/M07 A3019 7590 09 10800 000/00 RMK AO2 T02831067
93073KASE ASE20160610170510606/10/16 17:05:31  5-MIN KASE 110005Z 00000KT 10SM CLR 28/M05 A3020 7590 11 10800 000/00 RMK AO2 T02831050
93073KASE ASE20160610171010606/10/16 17:10:31  5-MIN KASE 110010Z 26003KT 10SM CLR 28/M05 A3020 7590 11 10800 250/03 RMK AO2 T02831050
93073KASE ASE20160610171510606/10/16 17:15:31  5-MIN KASE 110015Z 36004KT 10SM CLR 28/M05 A3019 7590 11 10800 360/04 RMK AO2 T02831050
93073KASE ASE20160610172010606/10/16 17:20:31  5-MIN KASE 110020Z 30005KT 10SM CLR 28/M04 A3019 7590 12 10700 290/05 RMK AO2 T02781039
93073KASE ASE20160610172510606/10/16 17:25:31  5-MIN KASE 110025Z 30005KT 10SM CLR 28/M04 A3019 7590 11 10700 290/05 RMK AO2 T02781044
93073KASE ASE20160610173010606/10/16 17:30:31  5-MIN KASE 110030Z 31005KT 10SM CLR 27/M04 A3019 7590 12 10700 300/05 RMK AO2 T02721044
93073KASE ASE20160610173510606/10/16 17:35:31  5-MIN KASE 110035Z 31006KT 10SM CLR 27/M03 A3019 7590 14 10600 300/06 RMK AO2 T02671028
93073KASE ASE20160610174010606/10/16 17:40:31  5-MIN KASE 110040Z 32006KT 10SM CLR 27/M03 A3019 7590 13 10600 310/06 RMK AO2 T02671033
93073KASE ASE20160610174510606/10/16 17:45:31  5-MIN KASE 110045Z 32003KT 10SM CLR 27/M03 A3019 7590 14 10600 310/03 RMK AO2 T02671028
93073KASE ASE20160610175011306/10/16 17:50:31  5-MIN KASE 110050Z 31003KT 10SM CLR 27/M03 A3019 7590 13 10600 300/03 RMK AO2 SLP090 T02671033
93073KASE ASE20160610175510606/10/16 17:55:31  5-MIN KASE 110055Z 00000KT 10SM CLR 27/M03 A3019 7590 14 10600 000/00 RMK AO2 T02671028
93073KASE ASE20160610180010606/10/16 18:00:31  5-MIN KASE 110100Z 31003KT 10SM CLR 26/M03 A3019 7600 14 10600 300/03 RMK AO2 T02611028
93073KASE ASE20160610180510606/10/16 18:05:31  5-MIN KASE 110105Z 31003KT 10SM CLR 25/M02 A3019 7600 17 10400 300/03 RMK AO2 T02501017
93073KASE ASE20160610181010606/10/16 18:10:31  5-MIN KASE 110110Z 32003KT 10SM CLR 25/M02 A3018 7600 17 10400 310/03 RMK AO2 T02501017
93073KASE ASE20160610181510506/10/16 18:15:31  5-MIN KASE 110115Z 00000KT 10SM CLR 24/00 A3019 7600 19 10400 000/00 RMK AO2 T02440000
93073KASE ASE20160610182010506/10/16 18:20:31  5-MIN KASE 110120Z 00000KT 10SM CLR 21/01 A3019 7600 26 10000 000/00 RMK AO2 T02110011
93073KASE ASE20160610182510506/10/16 18:25:31  5-MIN KASE 110125Z 28003KT 10SM CLR 22/01 A3019 7590 24 10100 270/03 RMK AO2 T02170006
93073KASE ASE20160610183010406/10/16 18:30:31  5-MIN KASE 110130Z 00000KT 10SM CLR 19/01 A3019 7590 29 9800 000/00 RMK AO2 T01890006
93073KASE ASE20160610183510406/10/16 18:35:31  5-MIN KASE 110135Z 27003KT 10SM CLR 19/00 A3019 7590 28 9800 260/03 RMK AO2 T01890000
93073KASE ASE20160610184010406/10/16 18:40:31  5-MIN KASE 110140Z VRB03KT 10SM CLR 18/01 A3019 7600 30 9700 VRB/03 RMK AO2 T01830006
93073KASE ASE20160610184510406/10/16 18:45:31  5-MIN KASE 110145Z VRB03KT 10SM CLR 19/00 A3019 7590 27 9800 VRB/03 RMK AO2 T01940000
93073KASE ASE20160610185011206/10/16 18:50:31  5-MIN KASE 110150Z 00000KT 10SM CLR 22/01 A3019 7590 25 10100 000/00 RMK AO2 SLP097 T02170011
93073KASE ASE20160610185511606/10/16 18:55:31  5-MIN KASE 110155Z 18003KT 10SM CLR 20/02 A3019 7590 30 9900 180/03 RMK AO2 RAE54 P0000 T02000022
93073KASE ASE20160610190011806/10/16 19:00:31  5-MIN KASE 110200Z 19005KT 10SM CLR 19/02 A3019 7590 31 9800 180/05 RMK AO2 RAE0154 P0000 T01940022
93073KASE ASE20160610190511806/10/16 19:05:31  5-MIN KASE 110205Z 18008KT 10SM CLR 20/02 A3019 7590 29 9900 170/08 RMK AO2 RAE0154 P0000 T02000017
93073KASE ASE20160610191011806/10/16 19:10:31  5-MIN KASE 110210Z 19008KT 10SM CLR 19/02 A3020 7590 31 9800 180/08 RMK AO2 RAE0154 P0000 T01940022
93073KASE ASE20160610191511806/10/16 19:15:31  5-MIN KASE 110215Z 17007KT 10SM CLR 21/00 A3020 7580 25 9900 160/07 RMK AO2 RAE0154 P0000 T02060000
93073KASE ASE20160610192011906/10/16 19:20:31  5-MIN KASE 110220Z 16009KT 10SM CLR 21/M01 A3020 7580 23 9900 150/09 RMK AO2 RAE0154 P0000 T02061011
93073KASE ASE20160610192513506/10/16 19:25:31  5-MIN KASE 110225Z 18008KT 140V210 10SM CLR 21/M01 A3020 7580 23 9900 170/08 130V200 RMK AO2 RAE0154 P0000 T02061011
93073KASE ASE20160610193011906/10/16 19:30:31  5-MIN KASE 110230Z 17009KT 10SM CLR 20/M01 A3021 7580 25 9900 160/09 RMK AO2 RAE0154 P0000 T02001006
93073KASE ASE20160610193511906/10/16 19:35:31  5-MIN KASE 110235Z 16008KT 10SM CLR 21/M02 A3021 7580 21 9900 150/08 RMK AO2 RAE0154 P0000 T02061022
93073KASE ASE20160610194011906/10/16 19:40:31  5-MIN KASE 110240Z 21008KT 10SM CLR 19/M01 A3021 7570 25 9800 200/08 RMK AO2 RAE0154 P0000 T01941011
93073KASE ASE20160610194511906/10/16 19:45:31  5-MIN KASE 110245Z 20008KT 10SM CLR 18/M01 A3021 7570 26 9700 190/08 RMK AO2 RAE0154 P0000 T01831011
93073KASE ASE20160610195013806/10/16 19:50:31  5-MIN KASE 110250Z 21008KT 10SM CLR 19/M02 A3021 7570 24 9800 200/08 RMK AO2 RAE0154 SLP101 P0000 60000 T01891017 57014
93073KASE ASE20160610195510506/10/16 19:55:31  5-MIN KASE 110255Z 20009KT 10SM CLR 19/M02 A3021 7570 23 9800 190/09 RMK AO2 T01891022
93073KASE ASE20160610200010506/10/16 20:00:31  5-MIN KASE 110300Z 21009KT 10SM CLR 18/M01 A3021 7570 27 9600 200/09 RMK AO2 T01781011
93073KASE ASE20160610200510506/10/16 20:05:31  5-MIN KASE 110305Z 20008KT 10SM CLR 17/M01 A3022 7570 29 9600 190/08 RMK AO2 T01721006
93073KASE ASE20160610201010406/10/16 20:10:31  5-MIN KASE 110310Z 21008KT 10SM CLR 17/00 A3022 7570 32 9500 200/08 RMK AO2 T01670000
93073KASE ASE20160610201510406/10/16 20:15:31  5-MIN KASE 110315Z 21007KT 10SM CLR 17/00 A3022 7560 32 9500 200/07 RMK AO2 T01670000
93073KASE ASE20160610202010406/10/16 20:20:31  5-MIN KASE 110320Z 21008KT 10SM CLR 16/00 A3022 7560 33 9400 200/08 RMK AO2 T01610000
93073KASE ASE20160610202510506/10/16 20:25:31  5-MIN KASE 110325Z 21007KT 10SM CLR 17/M01 A3023 7560 31 9500 200/07 RMK AO2 T01671006
93073KASE ASE20160610203010506/10/16 20:30:31  5-MIN KASE 110330Z 20007KT 10SM CLR 17/M01 A3023 7560 31 9500 200/07 RMK AO2 T01671006
93073KASE ASE20160610203510506/10/16 20:35:31  5-MIN KASE 110335Z 20008KT 10SM CLR 16/M01 A3023 7550 32 9400 190/08 RMK AO2 T01611006
93073KASE ASE20160610204010506/10/16 20:40:31  5-MIN KASE 110340Z 18008KT 10SM CLR 16/M01 A3024 7550 32 9400 170/08 RMK AO2 T01611006
93073KASE ASE20160610204510506/10/16 20:45:31  5-MIN KASE 110345Z 19008KT 10SM CLR 16/M01 A3024 7550 32 9400 180/08 RMK AO2 T01611006
93073KASE ASE20160610205011206/10/16 20:50:31  5-MIN KASE 110350Z 15008KT 10SM CLR 17/M01 A3024 7550 28 9500 140/08 RMK AO2 SLP109 T01721011
93073KASE ASE20160610205512106/10/16 20:55:31  5-MIN KASE 110355Z 17008KT 140V220 10SM CLR 19/M03 A3025 7540 22 9700 160/08 130V210 RMK AO2 T01891028
93073KASE ASE20160610210010506/10/16 21:00:31  5-MIN KASE 110400Z 19006KT 10SM CLR 16/M01 A3025 7540 32 9400 180/06 RMK AO2 T01611006
93073KASE ASE20160610210510506/10/16 21:05:31  5-MIN KASE 110405Z 22010KT 10SM CLR 16/M01 A3025 7540 32 9400 210/10 RMK AO2 T01611006
93073KASE ASE20160610211010506/10/16 21:10:31  5-MIN KASE 110410Z 21010KT 10SM CLR 16/M01 A3025 7540 32 9400 200/10 RMK AO2 T01611006
93073KASE ASE20160610211510506/10/16 21:15:31  5-MIN KASE 110415Z 19006KT 10SM CLR 16/M01 A3025 7540 33 9300 180/06 RMK AO2 T01561006
93073KASE ASE20160610212012106/10/16 21:20:31  5-MIN KASE 110420Z 20008KT 160V220 10SM CLR 17/M01 A3025 7530 29 9500 190/08 150V210 RMK AO2 T01671011
93073KASE ASE20160610212510506/10/16 21:25:31  5-MIN KASE 110425Z 21008KT 10SM CLR 16/M01 A3026 7530 33 9300 200/08 RMK AO2 T01561006
93073KASE ASE20160610213010506/10/16 21:30:31  5-MIN KASE 110430Z 16007KT 10SM CLR 17/M01 A3026 7530 31 9500 150/07 RMK AO2 T01671006
93073KASE ASE20160610213512106/10/16 21:35:31  5-MIN KASE 110435Z 19007KT 140V230 10SM CLR 19/M01 A3026 7530 26 9800 180/07 130V220 RMK AO2 T01941006
93073KASE ASE20160610214010406/10/16 21:40:31  5-MIN KASE 110440Z 21007KT 10SM CLR 16/00 A3026 7530 33 9400 200/07 RMK AO2 T01610000
93073KASE ASE20160610214510406/10/16 21:45:31  5-MIN KASE 110445Z 15007KT 10SM CLR 17/00 A3026 7530 31 9500 150/07 RMK AO2 T01720000
93073KASE ASE20160610215011106/10/16 21:50:31  5-MIN KASE 110450Z 17007KT 10SM CLR 17/01 A3026 7530 32 9500 160/07 RMK AO2 SLP110 T01720006
93073KASE ASE20160610215510406/10/16 21:55:31  5-MIN KASE 110455Z 15009KT 10SM CLR 17/01 A3026 7530 32 9500 140/09 RMK AO2 T01720006
93073KASE ASE20160610220010406/10/16 22:00:31  5-MIN KASE 110500Z 14010KT 10SM CLR 19/00 A3026 7530 27 9800 130/10 RMK AO2 T01940000
93073KASE ASE20160610220510406/10/16 22:05:31  5-MIN KASE 110505Z 16009KT 10SM CLR 20/00 A3026 7530 26 9800 150/09 RMK AO2 T02000000
93073KASE ASE20160610221010406/10/16 22:10:31  5-MIN KASE 110510Z 14011KT 10SM CLR 20/01 A3026 7530 27 9800 140/11 RMK AO2 T02000006
93073KASE ASE20160610221510406/10/16 22:15:31  5-MIN KASE 110515Z 15009KT 10SM CLR 20/01 A3026 7530 27 9800 140/09 RMK AO2 T02000006
93073KASE ASE20160610222010406/10/16 22:20:31  5-MIN KASE 110520Z 15009KT 10SM CLR 20/01 A3026 7530 27 9800 140/09 RMK AO2 T02000006
93073KASE ASE20160610222511006/10/16 22:25:31  5-MIN KASE 110525Z 14011G18KT 10SM CLR 19/01 A3026 7530 28 9800 130/11G18 RMK AO2 T01940006
93073KASE ASE20160610223011006/10/16 22:30:31  5-MIN KASE 110530Z 14013G19KT 10SM CLR 19/01 A3026 7530 28 9800 130/13G19 RMK AO2 T01940006
93073KASE ASE20160610223511006/10/16 22:35:31  5-MIN KASE 110535Z 14010G19KT 10SM CLR 19/01 A3025 7530 29 9700 130/10G19 RMK AO2 T01890006
93073KASE ASE20160610224010406/10/16 22:40:31  5-MIN KASE 110540Z 14009KT 10SM CLR 19/01 A3026 7530 29 9700 130/09 RMK AO2 T01890006
93073KASE ASE20160610224510406/10/16 22:45:31  5-MIN KASE 110545Z 13008KT 10SM CLR 19/01 A3026 7530 29 9700 120/08 RMK AO2 T01890006
93073KASE ASE20160610225013506/10/16 22:50:31  5-MIN KASE 110550Z 15009KT 10SM CLR 18/01 A3026 7530 30 9600 140/09 RMK AO2 SLP099 60000 T01830006 10289 20156 53005
93073KASE ASE20160610225510406/10/16 22:55:31  5-MIN KASE 110555Z 14007KT 10SM CLR 19/01 A3026 7530 29 9700 130/07 RMK AO2 T01890006
93073KASE ASE20160610230010406/10/16 23:00:31  5-MIN KASE 110600Z 14008KT 10SM CLR 18/01 A3026 7530 31 9600 130/08 RMK AO2 T01830011
93073KASE ASE20160610230510406/10/16 23:05:31  5-MIN KASE 110605Z 14005KT 10SM CLR 18/01 A3026 7530 31 9600 130/05 RMK AO2 T01830011
93073KASE ASE20160610231010406/10/16 23:10:31  5-MIN KASE 110610Z 13006KT 10SM CLR 18/01 A3026 7530 31 9600 120/06 RMK AO2 T01830011
93073KASE ASE20160610231510906/10/16 23:15:31  5-MIN KASE 110615Z AUTO 15006KT 10SM CLR 18/01 A3026 7530 32 9600 140/06 RMK AO2 T01780011
93073KASE ASE20160610232010906/10/16 23:20:31  5-MIN KASE 110620Z AUTO 14006KT 10SM CLR 17/01 A3026 7520 33 9500 130/06 RMK AO2 T01720011
93073KASE ASE20160610232510906/10/16 23:25:31  5-MIN KASE 110625Z AUTO 13005KT 10SM CLR 17/01 A3026 7530 33 9500 130/05 RMK AO2 T01720011
93073KASE ASE20160610233010906/10/16 23:30:31  5-MIN KASE 110630Z AUTO VRB03KT 10SM CLR 17/01 A3026 7520 33 9500 VRB/03 RMK AO2 T01720011
93073KASE ASE20160610233510906/10/16 23:35:31  5-MIN KASE 110635Z AUTO 13004KT 10SM CLR 16/01 A3026 7520 36 9400 130/04 RMK AO2 T01610011
93073KASE ASE20160610234010906/10/16 23:40:31  5-MIN KASE 110640Z AUTO 18008KT 10SM CLR 17/01 A3026 7520 34 9500 170/08 RMK AO2 T01670011
93073KASE ASE20160610234510906/10/16 23:45:31  5-MIN KASE 110645Z AUTO 18010KT 10SM CLR 16/01 A3026 7530 37 9300 170/10 RMK AO2 T01560011
93073KASE ASE20160610235012606/10/16 23:50:31  5-MIN KASE 110650Z AUTO 18008KT 10SM CLR 16/01 A3026 7530 37 9300 170/08 RMK AO2 SLP102 T01560011 402940072
93073KASE ASE20160610235510906/10/16 23:55:31  5-MIN KASE 110655Z AUTO VRB06KT 10SM CLR 16/01 A3026 7530 36 9400 VRB/06 RMK AO2 T01610011
93073KASE ASE20160611000010906/11/16 00:00:31  5-MIN KASE 110700Z AUTO VRB04KT 10SM CLR 16/01 A3026 7530 36 9400 VRB/04 RMK AO2 T01610011
93073KASE ASE20160611000510906/11/16 00:05:31  5-MIN KASE 110705Z AUTO 21006KT 10SM CLR 14/01 A3026 7530 40 9200 200/06 RMK AO2 T01440011
93073KASE ASE20160611001010906/11/16 00:10:31  5-MIN KASE 110710Z AUTO 21007KT 10SM CLR 14/01 A3026 7530 40 9200 200/07 RMK AO2 T01440011
93073KASE ASE20160611001510906/11/16 00:15:31  5-MIN KASE 110715Z AUTO 20007KT 10SM CLR 15/01 A3025 7530 38 9300 190/07 RMK AO2 T01500011
93073KASE ASE20160611002010906/11/16 00:20:31  5-MIN KASE 110720Z AUTO 21006KT 10SM CLR 14/01 A3025 7530 40 9200 200/06 RMK AO2 T01440011
93073KASE ASE20160611002510906/11/16 00:25:31  5-MIN KASE 110725Z AUTO 22007KT 10SM CLR 14/01 A3025 7540 41 9200 210/07 RMK AO2 T01390011
93073KASE ASE20160611003010906/11/16 00:30:31  5-MIN KASE 110730Z AUTO 22007KT 10SM CLR 14/01 A3025 7540 41 9200 210/07 RMK AO2 T01390011
93073KASE ASE20160611003510906/11/16 00:35:31  5-MIN KASE 110735Z AUTO 21007KT 10SM CLR 14/01 A3025 7540 40 9200 200/07 RMK AO2 T01440011
93073KASE ASE20160611004010906/11/16 00:40:31  5-MIN KASE 110740Z AUTO 20007KT 10SM CLR 14/02 A3025 7540 43 9200 190/07 RMK AO2 T01390017
93073KASE ASE20160611004510906/11/16 00:45:31  5-MIN KASE 110745Z AUTO 21008KT 10SM CLR 14/02 A3025 7540 43 9200 200/08 RMK AO2 T01390017
93073KASE ASE20160611005011606/11/16 00:50:31  5-MIN KASE 110750Z AUTO 22008KT 10SM CLR 14/02 A3024 7540 41 9200 210/08 RMK AO2 SLP100 T01440017
93073KASE ASE20160611005510906/11/16 00:55:31  5-MIN KASE 110755Z AUTO 21008KT 10SM CLR 14/02 A3024 7550 43 9200 200/08 RMK AO2 T01390017
93073KASE ASE20160611010010906/11/16 01:00:31  5-MIN KASE 110800Z AUTO 20007KT 10SM CLR 14/01 A3024 7550 41 9200 200/07 RMK AO2 T01390011
93073KASE ASE20160611010510906/11/16 01:05:31  5-MIN KASE 110805Z AUTO 21008KT 10SM CLR 14/01 A3024 7550 41 9200 200/08 RMK AO2 T01390011
93073KASE ASE20160611011010906/11/16 01:10:31  5-MIN KASE 110810Z AUTO 20009KT 10SM CLR 14/02 A3024 7550 43 9200 190/09 RMK AO2 T01390017
93073KASE ASE20160611011510906/11/16 01:15:31  5-MIN KASE 110815Z AUTO 20008KT 10SM CLR 14/01 A3024 7550 41 9200 190/08 RMK AO2 T01390011
93073KASE ASE20160611012010906/11/16 01:20:31  5-MIN KASE 110820Z AUTO 20009KT 10SM CLR 13/02 A3024 7550 46 9100 190/09 RMK AO2 T01280017
93073KASE ASE20160611012510906/11/16 01:25:31  5-MIN KASE 110825Z AUTO 20008KT 10SM CLR 12/02 A3023 7550 48 9000 190/08 RMK AO2 T01220017
93073KASE ASE20160611013010906/11/16 01:30:31  5-MIN KASE 110830Z AUTO 20008KT 10SM CLR 12/02 A3023 7550 50 8900 190/08 RMK AO2 T01170017
93073KASE ASE20160611013510906/11/16 01:35:31  5-MIN KASE 110835Z AUTO 20009KT 10SM CLR 12/02 A3023 7550 48 9000 190/09 RMK AO2 T01220017
93073KASE ASE20160611014010906/11/16 01:40:31  5-MIN KASE 110840Z AUTO 20008KT 10SM CLR 12/02 A3023 7560 48 9000 190/08 RMK AO2 T01220017
93073KASE ASE20160611014510906/11/16 01:45:31  5-MIN KASE 110845Z AUTO 20007KT 10SM CLR 13/02 A3023 7560 46 9100 190/07 RMK AO2 T01280017
93073KASE ASE20160611015012206/11/16 01:50:31  5-MIN KASE 110850Z AUTO 20009KT 10SM CLR 13/02 A3023 7560 46 9100 190/09 RMK AO2 SLP098 T01280017 51012
93073KASE ASE20160611015510906/11/16 01:55:31  5-MIN KASE 110855Z AUTO 20008KT 10SM CLR 11/02 A3023 7560 56 8800 190/08 RMK AO2 T01060022
93073KASE ASE20160611020010906/11/16 02:00:31  5-MIN KASE 110900Z AUTO 21009KT 10SM CLR 12/02 A3023 7560 50 8900 200/09 RMK AO2 T01170017
93073KASE ASE20160611020510906/11/16 02:05:31  5-MIN KASE 110905Z AUTO 20008KT 10SM CLR 13/02 A3023 7550 46 9100 190/08 RMK AO2 T01280017
93073KASE ASE20160611021010906/11/16 02:10:31  5-MIN KASE 110910Z AUTO 19007KT 10SM CLR 12/02 A3023 7560 50 8900 180/07 RMK AO2 T01170017
93073KASE ASE20160611021510906/11/16 02:15:31  5-MIN KASE 110915Z AUTO 19008KT 10SM CLR 12/02 A3023 7560 52 8900 180/08 RMK AO2 T01170022
93073KASE ASE20160611022010906/11/16 02:20:31  5-MIN KASE 110920Z AUTO 20008KT 10SM CLR 13/02 A3023 7560 46 9100 190/08 RMK AO2 T01280017
93073KASE ASE20160611022510906/11/16 02:25:31  5-MIN KASE 110925Z AUTO 20008KT 10SM CLR 13/02 A3023 7560 48 9100 200/08 RMK AO2 T01280022
93073KASE ASE20160611023010906/11/16 02:30:31  5-MIN KASE 110930Z AUTO 20008KT 10SM CLR 13/02 A3023 7560 45 9100 190/08 RMK AO2 T01330017
93073KASE ASE20160611023510906/11/16 02:35:31  5-MIN KASE 110935Z AUTO 21008KT 10SM CLR 13/02 A3023 7560 48 9100 200/08 RMK AO2 T01280022
93073KASE ASE20160611024010906/11/16 02:40:31  5-MIN KASE 110940Z AUTO 20007KT 10SM CLR 12/02 A3023 7560 50 9000 190/07 RMK AO2 T01220022
93073KASE ASE20160611024510906/11/16 02:45:31  5-MIN KASE 110945Z AUTO 20009KT 10SM CLR 13/02 A3023 7560 46 9100 200/09 RMK AO2 T01280017
93073KASE ASE20160611025011606/11/16 02:50:31  5-MIN KASE 110950Z AUTO 20007KT 10SM CLR 13/02 A3023 7560 45 9100 190/07 RMK AO2 SLP096 T01330017
93073KASE ASE20160611025510906/11/16 02:55:31  5-MIN KASE 110955Z AUTO 20006KT 10SM CLR 13/02 A3022 7560 45 9100 190/06 RMK AO2 T01330017
93073KASE ASE20160611030010906/11/16 03:00:31  5-MIN KASE 111000Z AUTO 20007KT 10SM CLR 13/02 A3023 7560 45 9100 190/07 RMK AO2 T01330017
93073KASE ASE20160611030510906/11/16 03:05:31  5-MIN KASE 111005Z AUTO 20007KT 10SM CLR 14/02 A3022 7560 43 9200 200/07 RMK AO2 T01390017
93073KASE ASE20160611031010906/11/16 03:10:31  5-MIN KASE 111010Z AUTO 20007KT 10SM CLR 14/02 A3023 7560 41 9200 190/07 RMK AO2 T01440017
93073KASE ASE20160611031510906/11/16 03:15:31  5-MIN KASE 111015Z AUTO 20006KT 10SM CLR 14/02 A3023 7560 41 9200 190/06 RMK AO2 T01440017
93073KASE ASE20160611032010906/11/16 03:20:31  5-MIN KASE 111020Z AUTO 20007KT 10SM CLR 14/02 A3023 7560 43 9200 190/07 RMK AO2 T01390017
93073KASE ASE20160611032510906/11/16 03:25:31  5-MIN KASE 111025Z AUTO 20007KT 10SM CLR 14/02 A3022 7560 41 9200 190/07 RMK AO2 T01440017
93073KASE ASE20160611033010906/11/16 03:30:31  5-MIN KASE 111030Z AUTO 21008KT 10SM CLR 14/02 A3022 7560 45 9200 200/08 RMK AO2 T01390022
93073KASE ASE20160611033510906/11/16 03:35:31  5-MIN KASE 111035Z AUTO 19006KT 10SM CLR 14/02 A3022 7560 45 9200 180/06 RMK AO2 T01390022
93073KASE ASE20160611034010906/11/16 03:40:31  5-MIN KASE 111040Z AUTO 20007KT 10SM CLR 14/02 A3022 7560 45 9200 190/07 RMK AO2 T01390022
93073KASE ASE20160611034510906/11/16 03:45:31  5-MIN KASE 111045Z AUTO 21006KT 10SM CLR 14/02 A3022 7560 43 9300 200/06 RMK AO2 T01440022
93073KASE ASE20160611035011606/11/16 03:50:31  5-MIN KASE 111050Z AUTO 20007KT 10SM CLR 14/02 A3022 7560 43 9300 200/07 RMK AO2 SLP090 T01440022
93073KASE ASE20160611035510906/11/16 03:55:31  5-MIN KASE 111055Z AUTO 21006KT 10SM CLR 14/02 A3022 7560 43 9300 200/06 RMK AO2 T01440022
93073KASE ASE20160611040010906/11/16 04:00:31  5-MIN KASE 111100Z AUTO 20006KT 10SM CLR 15/02 A3022 7560 42 9300 200/06 RMK AO2 T01500022
93073KASE ASE20160611040510906/11/16 04:05:31  5-MIN KASE 111105Z AUTO 21008KT 10SM CLR 14/02 A3022 7560 45 9200 200/08 RMK AO2 T01390022
93073KASE ASE20160611041010906/11/16 04:10:31  5-MIN KASE 111110Z AUTO 21008KT 10SM CLR 14/02 A3022 7560 43 9300 200/08 RMK AO2 T01440022
93073KASE ASE20160611041510906/11/16 04:15:31  5-MIN KASE 111115Z AUTO 19006KT 10SM CLR 14/02 A3022 7560 43 9300 180/06 RMK AO2 T01440022
93073KASE ASE20160611042010906/11/16 04:20:31  5-MIN KASE 111120Z AUTO 19005KT 10SM CLR 14/03 A3022 7560 45 9300 180/05 RMK AO2 T01440028
93073KASE ASE20160611042510906/11/16 04:25:31  5-MIN KASE 111125Z AUTO 21008KT 10SM CLR 14/03 A3022 7560 45 9300 200/08 RMK AO2 T01440028
93073KASE ASE20160611043010906/11/16 04:30:31  5-MIN KASE 111130Z AUTO 20007KT 10SM CLR 14/03 A3022 7560 47 9200 190/07 RMK AO2 T01390028
93073KASE ASE20160611043510906/11/16 04:35:31  5-MIN KASE 111135Z AUTO 21008KT 10SM CLR 14/03 A3022 7560 47 9200 200/08 RMK AO2 T01390028
93073KASE ASE20160611044010906/11/16 04:40:31  5-MIN KASE 111140Z AUTO 20006KT 10SM CLR 14/03 A3022 7560 45 9300 190/06 RMK AO2 T01440028
93073KASE ASE20160611044510906/11/16 04:45:31  5-MIN KASE 111145Z AUTO 20007KT 10SM CLR 14/03 A3022 7560 45 9200 190/07 RMK AO2 T01440028
93073KASE ASE20160611045013406/11/16 04:50:31  5-MIN KASE 111150Z AUTO 20007KT 10SM CLR 14/03 A3022 7560 47 9200 190/07 RMK AO2 SLP093 T01390028 10189 20106 58006
93073KASE ASE20160611045510906/11/16 04:55:31  5-MIN KASE 111155Z AUTO 21009KT 10SM CLR 14/03 A3022 7560 47 9200 200/09 RMK AO2 T01390028
93073KASE ASE20160611050010906/11/16 05:00:31  5-MIN KASE 111200Z AUTO 20007KT 10SM CLR 15/03 A3022 7560 43 9300 200/07 RMK AO2 T01500028
93073KASE ASE20160611050510906/11/16 05:05:31  5-MIN KASE 111205Z AUTO 22008KT 10SM CLR 15/03 A3022 7560 43 9300 210/08 RMK AO2 T01500028
93073KASE ASE20160611051010906/11/16 05:10:31  5-MIN KASE 111210Z AUTO 22007KT 10SM CLR 15/03 A3022 7560 43 9300 210/07 RMK AO2 T01500028
93073KASE ASE20160611051510906/11/16 05:15:31  5-MIN KASE 111215Z AUTO 21004KT 10SM CLR 15/03 A3022 7570 45 9300 200/04 RMK AO2 T01500033
93073KASE ASE20160611052010906/11/16 05:20:31  5-MIN KASE 111220Z AUTO VRB03KT 10SM CLR 14/03 A3022 7570 47 9300 VRB/03 RMK AO2 T01440033
93073KASE ASE20160611052510906/11/16 05:25:31  5-MIN KASE 111225Z AUTO 36005KT 10SM CLR 13/03 A3022 7570 52 9100 350/05 RMK AO2 T01280033
93073KASE ASE20160611053010906/11/16 05:30:31  5-MIN KASE 111230Z AUTO 35004KT 10SM CLR 13/04 A3022 7570 54 9100 340/04 RMK AO2 T01280039
93073KASE ASE20160611053510906/11/16 05:35:31  5-MIN KASE 111235Z AUTO 31004KT 10SM CLR 12/04 A3022 7560 56 9000 300/04 RMK AO2 T01220039
93073KASE ASE20160611054010906/11/16 05:40:31  5-MIN KASE 111240Z AUTO 00000KT 10SM CLR 13/04 A3022 7560 54 9100 000/00 RMK AO2 T01280039
93073KASE ASE20160611054510906/11/16 05:45:31  5-MIN KASE 111245Z AUTO 05003KT 10SM CLR 13/04 A3022 7560 56 9100 040/03 RMK AO2 T01280044
93073KASE ASE20160611055011106/11/16 05:50:31  5-MIN KASE 111250Z 00000KT 10SM CLR 14/04 A3022 7560 50 9200 000/00 RMK AO2 SLP095 T01390039
93073KASE ASE20160611055510406/11/16 05:55:31  5-MIN KASE 111255Z 26003KT 10SM CLR 14/04 A3022 7560 49 9300 250/03 RMK AO2 T01440039
93073KASE ASE20160611060010406/11/16 06:00:31  5-MIN KASE 111300Z 00000KT 10SM CLR 15/04 A3022 7570 49 9300 000/00 RMK AO2 T01500044
93073KASE ASE20160611060510406/11/16 06:05:31  5-MIN KASE 111305Z 00000KT 10SM CLR 14/04 A3022 7570 49 9300 000/00 RMK AO2 T01440039
93073KASE ASE20160611061010406/11/16 06:10:31  5-MIN KASE 111310Z 00000KT 10SM CLR 14/04 A3022 7570 51 9300 000/00 RMK AO2 T01440044
93073KASE ASE20160611061510406/11/16 06:15:31  5-MIN KASE 111315Z 00000KT 10SM CLR 15/05 A3022 7570 51 9300 000/00 RMK AO2 T01500050
93073KASE ASE20160611062010406/11/16 06:20:31  5-MIN KASE 111320Z 00000KT 10SM CLR 16/05 A3022 7570 49 9400 000/00 RMK AO2 T01560050
93073KASE ASE20160611062510406/11/16 06:25:31  5-MIN KASE 111325Z 19003KT 10SM CLR 16/04 A3021 7570 45 9400 180/03 RMK AO2 T01610044
93073KASE ASE20160611063010406/11/16 06:30:31  5-MIN KASE 111330Z 19003KT 10SM CLR 17/04 A3021 7570 42 9500 180/03 RMK AO2 T01670039
93073KASE ASE20160611063510406/11/16 06:35:31  5-MIN KASE 111335Z 00000KT 10SM CLR 17/04 A3021 7570 44 9500 000/00 RMK AO2 T01670044
93073KASE ASE20160611064010406/11/16 06:40:31  5-MIN KASE 111340Z 00000KT 10SM CLR 17/05 A3021 7570 44 9600 000/00 RMK AO2 T01720050
93073KASE ASE20160611064510406/11/16 06:45:31  5-MIN KASE 111345Z 00000KT 10SM CLR 18/05 A3021 7570 42 9600 000/00 RMK AO2 T01780050
93073KASE ASE20160611065011106/11/16 06:50:31  5-MIN KASE 111350Z 00000KT 10SM CLR 19/05 A3022 7570 39 9700 000/00 RMK AO2 SLP092 T01890050
93073KASE ASE20160611065510406/11/16 06:55:31  5-MIN KASE 111355Z 00000KT 10SM CLR 19/06 A3022 7570 41 9700 000/00 RMK AO2 T01890056
93073KASE ASE20160611070010406/11/16 07:00:31  5-MIN KASE 111400Z 00000KT 10SM CLR 19/06 A3021 7570 43 9700 000/00 RMK AO2 T01890061
93073KASE ASE20160611070510406/11/16 07:05:31  5-MIN KASE 111405Z VRB03KT 10SM CLR 19/06 A3021 7570 40 9800 VRB/03 RMK AO2 T01940056
93073KASE ASE20160611071010406/11/16 07:10:31  5-MIN KASE 111410Z 35005KT 10SM CLR 19/06 A3021 7570 41 9800 340/05 RMK AO2 T01940061
93073KASE ASE20160611071510406/11/16 07:15:31  5-MIN KASE 111415Z 35006KT 10SM CLR 19/07 A3022 7570 43 9800 340/06 RMK AO2 T01940067
93073KASE ASE20160611072010406/11/16 07:20:31  5-MIN KASE 111420Z 35007KT 10SM CLR 19/07 A3022 7570 44 9700 340/07 RMK AO2 T01890067
93073KASE ASE20160611072510406/11/16 07:25:31  5-MIN KASE 111425Z 35006KT 10SM CLR 19/07 A3022 7570 44 9700 340/06 RMK AO2 T01890067
93073KASE ASE20160611073010406/11/16 07:30:31  5-MIN KASE 111430Z 35006KT 10SM CLR 19/07 A3022 7570 44 9800 340/06 RMK AO2 T01940072
93073KASE ASE20160611073510406/11/16 07:35:31  5-MIN KASE 111435Z 36006KT 10SM CLR 19/07 A3022 7570 44 9700 350/06 RMK AO2 T01890067
93073KASE ASE20160611074010406/11/16 07:40:31  5-MIN KASE 111440Z 35007KT 10SM CLR 19/07 A3022 7570 44 9800 340/07 RMK AO2 T01940072
93073KASE ASE20160611074510406/11/16 07:45:31  5-MIN KASE 111445Z 34007KT 10SM CLR 19/07 A3022 7570 46 9700 330/07 RMK AO2 T01890072
93073KASE ASE20160611075011706/11/16 07:50:31  5-MIN KASE 111450Z 35007KT 10SM CLR 18/07 A3022 7560 46 9700 340/07 RMK AO2 SLP103 T01830067 55002
93073KASE ASE20160611075510406/11/16 07:55:31  5-MIN KASE 111455Z 35007KT 10SM CLR 19/06 A3022 7560 43 9700 340/07 RMK AO2 T01890061
93073KASE ASE20160611080010406/11/16 08:00:31  5-MIN KASE 111500Z 36007KT 10SM CLR 19/06 A3022 7560 40 9800 350/07 RMK AO2 T01940056
93073KASE ASE20160611080510406/11/16 08:05:31  5-MIN KASE 111505Z 34007KT 10SM CLR 20/06 A3023 7560 40 9900 330/07 RMK AO2 T02000061
93073KASE ASE20160611081010406/11/16 08:10:31  5-MIN KASE 111510Z 35006KT 10SM CLR 20/06 A3023 7560 40 9900 340/06 RMK AO2 T02000061
93073KASE ASE20160611081510406/11/16 08:15:31  5-MIN KASE 111515Z 36007KT 10SM CLR 20/06 A3022 7560 40 9900 350/07 RMK AO2 T02000061
93073KASE ASE20160611082010406/11/16 08:20:31  5-MIN KASE 111520Z 35006KT 10SM CLR 21/06 A3023 7560 38 9900 340/06 RMK AO2 T02060061
93073KASE ASE20160611082510406/11/16 08:25:31  5-MIN KASE 111525Z 36006KT 10SM CLR 21/07 A3022 7560 40 9900 350/06 RMK AO2 T02060067
93073KASE ASE20160611083010506/11/16 08:30:31  5-MIN KASE 111530Z 34004KT 10SM CLR 21/07 A3023 7560 38 10000 330/04 RMK AO2 T02110067
93073KASE ASE20160611083510506/11/16 08:35:31  5-MIN KASE 111535Z 35005KT 10SM CLR 22/07 A3022 7560 37 10000 340/05 RMK AO2 T02170067
93073KASE ASE20160611084010506/11/16 08:40:31  5-MIN KASE 111540Z 36005KT 10SM CLR 23/07 A3022 7560 35 10200 350/05 RMK AO2 T02280067
93073KASE ASE20160611084510506/11/16 08:45:31  5-MIN KASE 111545Z 35007KT 10SM CLR 22/07 A3022 7570 37 10100 340/07 RMK AO2 T02220072
93073KASE ASE20160611085011206/11/16 08:50:31  5-MIN KASE 111550Z 35006KT 10SM CLR 23/07 A3021 7570 35 10200 340/06 RMK AO2 SLP094 T02280067
93073KASE ASE20160611085510506/11/16 08:55:31  5-MIN KASE 111555Z 35007KT 10SM CLR 23/07 A3021 7570 33 10200 340/07 RMK AO2 T02330067
93073KASE ASE20160611090010506/11/16 09:00:31  5-MIN KASE 111600Z 35005KT 10SM CLR 23/07 A3022 7570 35 10200 340/05 RMK AO2 T02280067
93073KASE ASE20160611090510506/11/16 09:05:31  5-MIN KASE 111605Z VRB05KT 10SM CLR 23/07 A3022 7570 35 10200 VRB/05 RMK AO2 T02280067
93073KASE ASE20160611091010506/11/16 09:10:31  5-MIN KASE 111610Z VRB03KT 10SM CLR 23/07 A3022 7570 36 10200 VRB/03 RMK AO2 T02280072
93073KASE ASE20160611091510506/11/16 09:15:31  5-MIN KASE 111615Z VRB04KT 10SM CLR 23/07 A3022 7570 36 10200 VRB/04 RMK AO2 T02280072
93073KASE ASE20160611092010506/11/16 09:20:31  5-MIN KASE 111620Z VRB03KT 10SM CLR 23/07 A3022 7570 33 10200 VRB/03 RMK AO2 T02330067
93073KASE ASE20160611092510506/11/16 09:25:31  5-MIN KASE 111625Z 20008KT 10SM CLR 24/02 A3022 7570 24 10300 190/08 RMK AO2 T02390022
93073KASE ASE20160611093010506/11/16 09:30:31  5-MIN KASE 111630Z 20006KT 10SM CLR 24/03 A3022 7570 25 10300 190/06 RMK AO2 T02390028
93073KASE ASE20160611093510506/11/16 09:35:31  5-MIN KASE 111635Z 20006KT 10SM CLR 24/03 A3022 7560 25 10300 200/06 RMK AO2 T02390028
93073KASE ASE20160611094010506/11/16 09:40:31  5-MIN KASE 111640Z 19007KT 10SM CLR 24/03 A3022 7570 25 10300 180/07 RMK AO2 T02440033
93073KASE ASE20160611094510506/11/16 09:45:31  5-MIN KASE 111645Z 19006KT 10SM CLR 24/03 A3022 7570 24 10300 180/06 RMK AO2 T02440028
93073KASE ASE20160611095011206/11/16 09:50:31  5-MIN KASE 111650Z 21007KT 10SM CLR 24/03 A3022 7560 24 10300 200/07 RMK AO2 SLP091 T02440028
93073KASE ASE20160611095510506/11/16 09:55:31  5-MIN KASE 111655Z 20009KT 10SM CLR 25/03 A3022 7560 24 10400 190/09 RMK AO2 T02500033
93073KASE ASE20160611100010506/11/16 10:00:31  5-MIN KASE 111700Z 19008KT 10SM CLR 25/03 A3022 7570 23 10400 180/08 RMK AO2 T02500028
93073KASE ASE20160611100510506/11/16 10:05:31  5-MIN KASE 111705Z 20006KT 10SM CLR 25/03 A3022 7570 23 10400 190/06 RMK AO2 T02500028
93073KASE ASE20160611101010506/11/16 10:10:31  5-MIN KASE 111710Z 20008KT 10SM CLR 24/03 A3022 7570 24 10300 190/08 RMK AO2 T02440028
93073KASE ASE20160611101510506/11/16 10:15:31  5-MIN KASE 111715Z 19007KT 10SM CLR 25/02 A3022 7570 22 10400 180/07 RMK AO2 T02500022
93073KASE ASE20160611102010506/11/16 10:20:31  5-MIN KASE 111720Z 18007KT 10SM CLR 26/02 A3022 7570 21 10500 170/07 RMK AO2 T02560022
93073KASE ASE20160611102510506/11/16 10:25:31  5-MIN KASE 111725Z VRB05KT 10SM CLR 26/02 A3021 7570 21 10500 VRB/05 RMK AO2 T02610022
93073KASE ASE20160611103012106/11/16 10:30:31  5-MIN KASE 111730Z 22007KT 170V240 10SM CLR 26/02 A3021 7570 20 10500 210/07 160V230 RMK AO2 T02610017
93073KASE ASE20160611103510506/11/16 10:35:31  5-MIN KASE 111735Z 18009KT 10SM CLR 26/02 A3021 7580 20 10500 170/09 RMK AO2 T02610017
93073KASE ASE20160611104010506/11/16 10:40:31  5-MIN KASE 111740Z 19006KT 10SM CLR 26/01 A3021 7580 20 10500 180/06 RMK AO2 T02560011
93073KASE ASE20160611104510506/11/16 10:45:31  5-MIN KASE 111745Z 24007KT 10SM CLR 26/02 A3021 7580 21 10500 240/07 RMK AO2 T02560017
93073KASE ASE20160611105013006/11/16 10:50:31  5-MIN KASE 111750Z 21008KT 10SM CLR 26/02 A3020 7580 20 10500 200/08 RMK AO2 SLP079 T02610017 10261 20122 55001
93073KASE ASE20160611105511106/11/16 10:55:31  5-MIN KASE 111755Z 23011G15KT 10SM CLR 26/01 A3020 7580 19 10500 220/11G15 RMK AO2 T02610011
93073KASE ASE20160611110011106/11/16 11:00:31  5-MIN KASE 111800Z VRB04G15KT 10SM CLR 26/02 A3020 7580 20 10500 VRB/04G15 RMK AO2 T02610017
93073KASE ASE20160611110509506/11/16 11:05:31  5-MIN KASE 111805Z 10SM CLR 27/01 A3020 7590 18 10600 M /M RMK AO2 T02670011
93073KASE ASE20160611111012706/11/16 11:10:31  5-MIN KASE 111810Z 25009G14KT 200V280 10SM CLR 27/01 A3019 7590 18 10700 240/09G14 190V270 RMK AO2 T02720011
93073KASE ASE20160611111512706/11/16 11:15:31  5-MIN KASE 111815Z 20007G14KT 170V260 10SM CLR 27/01 A3019 7590 18 10600 190/07G14 160V250 RMK AO2 T02670006
93073KASE ASE20160611112012706/11/16 11:20:31  5-MIN KASE 111820Z 19012G18KT 150V220 10SM CLR 28/00 A3019 7590 16 10700 180/12G18 140V210 RMK AO2 T02780000
93073KASE ASE20160611112511206/11/16 11:25:31  5-MIN KASE 111825Z 23011G18KT 10SM CLR 28/M01 A3019 7600 15 10700 220/11G18 RMK AO2 T02781006
93073KASE ASE20160611113011206/11/16 11:30:31  5-MIN KASE 111830Z 22013G19KT 10SM CLR 27/M01 A3018 7600 16 10700 210/13G19 RMK AO2 T02721006
93073KASE ASE20160611113511106/11/16 11:35:31  5-MIN KASE 111835Z 19010G19KT 10SM CLR 27/00 A3018 7600 16 10700 180/10G19 RMK AO2 T02720000
93073KASE ASE20160611114011206/11/16 11:40:31  5-MIN KASE 111840Z 23010G17KT 10SM CLR 28/M01 A3017 7610 15 10700 220/10G17 RMK AO2 T02781006
93073KASE ASE20160611114510506/11/16 11:45:31  5-MIN KASE 111845Z 23008KT 10SM CLR 28/00 A3017 7610 16 10700 220/08 RMK AO2 T02780000
93073KASE ASE20160611115011806/11/16 11:50:31  5-MIN KASE 111850Z 22012G17KT 10SM CLR 28/00 A3017 7610 16 10700 210/12G17 RMK AO2 SLP070 T02780000
93073KASE ASE20160611115511206/11/16 11:55:31  5-MIN KASE 111855Z 19009G17KT 10SM CLR 28/M01 A3017 7610 15 10800 180/09G17 RMK AO2 T02781006
93073KASE ASE20160611120010506/11/16 12:00:31  5-MIN KASE 111900Z 21005KT 10SM CLR 28/00 A3017 7610 16 10800 200/05 RMK AO2 T02780000
93073KASE ASE20160611120511706/11/16 12:05:31  5-MIN KASE 111905Z 17009KT 10SM CLR 28/00 A3017 7610 15 10800 160/09 RMK AO2 LTG DSNT SW T02830000
93073KASE ASE20160611121011806/11/16 12:10:31  5-MIN KASE 111910Z VRB03KT 10SM CLR 28/M01 A3016 7620 15 10800 VRB/03 RMK AO2 LTG DSNT SW T02781011
93073KASE ASE20160611121512006/11/16 12:15:31  5-MIN KASE 111915Z 24005KT 10SM FEW110 28/00 A3016 7620 15 10800 230/05 RMK AO2 LTG DSNT SW T02830000
93073KASE ASE20160611122012606/11/16 12:20:31  5-MIN KASE 111920Z 17017G21KT 10SM SCT110 28/00 A3016 7620 16 10800 160/17G21 RMK AO2 LTG DSNT SW T02780000
93073KASE ASE20160611122514406/11/16 12:25:31  5-MIN KASE 111925Z 19021G30KT 10SM SCT110 27/00 A3017 7610 16 10700 180/21G30 RMK AO2 PK WND 18030/1923 LTG DSNT SW T02720000
93073KASE ASE20160611123014506/11/16 12:30:31  5-MIN KASE 111930Z 18016G30KT 10SM SCT110 27/M01 A3017 7610 16 10700 170/16G30 RMK AO2 PK WND 18030/1923 LTG DSNT SW T02721006
93073KASE ASE20160611123514406/11/16 12:35:31  5-MIN KASE 111935Z 18013G21KT 10SM BKN110 26/00 A3017 7610 18 10600 170/13G21 RMK AO2 PK WND 18030/1923 LTG DSNT SW T02610000
93073KASE ASE20160611124013306/11/16 12:40:31  5-MIN KASE 111940Z 18008G21KT 10SM BKN110 27/M01 A3017 7610 16 10600 170/08G21 RMK AO2 PK WND 18030/1923 T02671006
93073KASE ASE20160611124512706/11/16 12:45:31  5-MIN KASE 111945Z 22009KT 10SM SCT110 26/M01 A3017 7610 17 10600 210/09 RMK AO2 PK WND 18030/1923 T02611006
93073KASE ASE20160611125013406/11/16 12:50:31  5-MIN KASE 111950Z 19006KT 10SM BKN110 26/M01 A3017 7610 17 10500 180/06 RMK AO2 PK WND 18030/1923 SLP078 T02561006
93073KASE ASE20160611125511406/11/16 12:55:31  5-MIN KASE 111955Z 25012G21KT 10SM FEW110 27/00 A3018 7600 17 10600 240/12G21 RMK AO2 T02670000
93073KASE ASE20160611130012606/11/16 13:00:31  5-MIN KASE 112000Z 24011G21KT 10SM FEW110 24/03 A3018 7600 24 10400 230/11G21 RMK AO2 LTG DSNT NW T02440028
93073KASE ASE20160611130512306/11/16 13:05:31  5-MIN KASE 112005Z 22016G25KT 10SM CLR 24/03 A3018 7600 26 10300 210/16G25 RMK AO2 LTG DSNT NW T02390033
93073KASE ASE20160611131013306/11/16 13:10:31  5-MIN KASE 112010Z 20011G25KT 10SM FEW120 24/03 A3018 7600 26 10300 190/11G25 RMK AO2 LTG DSNT SW AND NW T02390033
93073KASE ASE20160611131513306/11/16 13:15:31  5-MIN KASE 112015Z 19014G19KT 10SM FEW110 26/02 A3018 7600 21 10500 180/14G19 RMK AO2 LTG DSNT SW AND NW T02560022
93073KASE ASE20160611132012906/11/16 13:20:31  5-MIN KASE 112020Z 21010G21KT 10SM FEW110 26/02 A3018 7600 21 10500 200/10G21 RMK AO2 LTG DSNT SW-NW T02560022
93073KASE ASE20160611132512906/11/16 13:25:31  5-MIN KASE 112025Z 21008G21KT 10SM FEW110 25/03 A3018 7600 23 10400 200/08G21 RMK AO2 LTG DSNT SW-NW T02500028
93073KASE ASE20160611133012906/11/16 13:30:31  5-MIN KASE 112030Z VRB05KT 10SM FEW090 SCT110 24/03 A3018 7600 24 10400 VRB/05 RMK AO2 LTG DSNT SW-N T02440028
93073KASE ASE20160611133514406/11/16 13:35:31  5-MIN KASE 112035Z 28009KT 240V320 10SM SCT085 SCT110 24/03 A3018 7600 25 10400 270/09 230V310 RMK AO2 LTG DSNT W-N T02440033
93073KASE ASE20160611134014806/11/16 13:40:31  5-MIN KASE 112040Z 27007KT 220V290 10SM FEW080 FEW100 23/04 A3019 7590 28 10300 260/07 210V280 RMK AO2 LTG DSNT N AND W T02330039
93073KASE ASE20160611134513906/11/16 13:45:31  5-MIN KASE 112045Z 30013G19KT 10SM FEW085 SCT110 24/04 A3019 7590 27 10300 290/13G19 RMK AO2 LTG DSNT W AND NW T02390039
93073KASE ASE20160611135013406/11/16 13:50:31  5-MIN KASE 112050Z 29015G20KT 10SM FEW085 SCT120 23/04 A3019 7590 28 10300 280/15G20 RMK AO2 SLP093 T02330039 58006
93073KASE ASE20160611135512106/11/16 13:55:31  5-MIN KASE 112055Z 29014G20KT 10SM FEW085 BKN120 23/04 A3021 7580 29 10200 280/14G20 RMK AO2 T02280039
93073KASE ASE20160611140016206/11/16 14:00:31  5-MIN KASE 112100Z 15017G26KT 090V220 10SM FEW090 BKN120 23/04 A3024 7550 29 10100 140/17G26 080V210 RMK AO2 PK WND 21026/2059 PRESRR T02280039
93073KASE ASE20160611140515706/11/16 14:05:31  5-MIN KASE 112105Z 21019G31KT 10SM SCT090 BKN120 23/03 A3024 7540 27 10100 200/19G31 RMK AO2 PK WND 15031/2103 WSHFT 2049 PRESRR T02280033
93073KASE ASE20160611141015606/11/16 14:10:31  5-MIN KASE 112110Z 18021G31KT 10SM BKN090 OVC120 21/04 A3026 7530 33 9900 170/21G31 RMK AO2 PK WND 18031/2107 WSHFT 2054 PRESRR T02110044
93073KASE ASE20160611141514906/11/16 14:15:31  5-MIN KASE 112115Z 19014G31KT 10SM BKN085 OVC120 20/05 A3026 7530 37 9800 180/14G31 RMK AO2 PK WND 18031/2107 WSHFT 2054 T02000050
93073KASE ASE20160611142014906/11/16 14:20:31  5-MIN KASE 112120Z 19014G25KT 10SM BKN085 OVC120 19/05 A3026 7520 38 9800 190/14G25 RMK AO2 PK WND 18031/2107 WSHFT 2054 T01940050
93073KASE ASE20160611142515606/11/16 14:25:31  5-MIN KASE 112125Z 20009G22KT 10SM OVC090 19/06 A3026 7530 40 9800 190/09G22 RMK AO2 PK WND 18031/2107 WSHFT 2054 LTG DSNT S-NW T01940056
93073KASE ASE20160611143015006/11/16 14:30:31  5-MIN KASE 112130Z 22007KT 10SM OVC090 19/06 A3026 7530 40 9800 210/07 RMK AO2 PK WND 18031/2107 WSHFT 2054 LTG DSNT S-NW T01940056
93073KASE ASE20160611143515506/11/16 14:35:31  5-MIN KASE 112135Z 22006KT 10SM FEW070 OVC090 19/06 A3026 7530 41 9800 210/06 RMK AO2 PK WND 18031/2107 WSHFT 2054 LTG DSNT SW T01940061
93073KASE ASE20160611144014306/11/16 14:40:31  5-MIN KASE 112140Z 25003KT 10SM SCT070 OVC090 19/06 A3026 7530 41 9800 250/03 RMK AO2 PK WND 18031/2107 WSHFT 2054 T01940061
93073KASE ASE20160611144516606/11/16 14:45:31  5-MIN KASE 112145Z 34006KT 10SM -RA FEW040 SCT065 OVC090 20/06 A3025 7530 40 9800 330/06 RMK AO2 PK WND 18031/2107 WSHFT 2054 RAB43 P0000 T02000061
93073KASE ASE20160611145017906/11/16 14:50:31  5-MIN KASE 112150Z 35011G15KT 10SM -RA FEW040 BKN090 OVC110 19/07 A3026 7530 44 9800 340/11G15 RMK AO2 PK WND 18031/2107 WSHFT 2054 RAB43 SLP127 P0000 T01940072
93073KASE ASE20160611145513106/11/16 14:55:31  5-MIN KASE 112155Z 35010KT 10SM -RA FEW065 SCT090 BKN110 19/07 A3026 7530 46 9700 340/10 RMK AO2 P0000 T01890072
93073KASE ASE20160611150012806/11/16 15:00:31  5-MIN KASE 112200Z 36007KT 10SM FEW065 BKN110 18/07 A3025 7530 48 9600 350/07 RMK AO2 RAE2156 P0000 T01830072
93073KASE ASE20160611150513506/11/16 15:05:31  5-MIN KASE 112205Z 35006KT 10SM FEW060 FEW070 BKN110 18/08 A3025 7540 50 9600 340/06 RMK AO2 RAE2156 P0000 T01830078
93073KASE ASE20160611151012106/11/16 15:10:31  5-MIN KASE 112210Z 33004KT 10SM BKN110 19/07 A3025 7530 46 9700 330/04 RMK AO2 RAE2156 P0000 T01890072
93073KASE ASE20160611151512106/11/16 15:15:31  5-MIN KASE 112215Z 29004KT 10SM BKN110 19/07 A3026 7530 46 9700 280/04 RMK AO2 RAE2156 P0000 T01890072
93073KASE ASE20160611152012106/11/16 15:20:31  5-MIN KASE 112220Z 00000KT 10SM OVC110 19/07 A3026 7530 44 9700 000/00 RMK AO2 RAE2156 P0000 T01890067
93073KASE ASE20160611152512806/11/16 15:25:31  5-MIN KASE 112225Z 30003KT 10SM FEW080 OVC110 19/07 A3026 7530 44 9700 290/03 RMK AO2 RAE2156 P0000 T01890067
93073KASE ASE20160611153013506/11/16 15:30:31  5-MIN KASE 112230Z 00000KT 10SM SCT080 SCT090 OVC110 19/07 A3026 7530 44 9700 000/00 RMK AO2 RAE2156 P0000 T01890067
93073KASE ASE20160611153514206/11/16 15:35:31  5-MIN KASE 112235Z 25003KT 10SM -RA FEW080 BKN090 OVC110 19/07 A3026 7530 46 9700 240/03 RMK AO2 RAE2156B33 P0000 T01890072
93073KASE ASE20160611154014206/11/16 15:40:31  5-MIN KASE 112240Z 00000KT 10SM -RA FEW055 BKN090 OVC110 19/08 A3026 7520 48 9700 000/00 RMK AO2 RAE2156B33 P0000 T01890078
93073KASE ASE20160611154514206/11/16 15:45:31  5-MIN KASE 112245Z 00000KT 10SM -RA SCT055 BKN075 OVC110 19/08 A3026 7530 48 9700 000/00 RMK AO2 RAE2156B33 P0000 T01890078
93073KASE ASE20160611155014906/11/16 15:50:31  5-MIN KASE 112250Z 02004KT 10SM -RA FEW038 BKN085 OVC100 19/08 A3025 7540 48 9800 020/04 RMK AO2 RAE2156B33 SLP119 P0000 T01940083
93073KASE ASE20160611155512106/11/16 15:55:31  5-MIN KASE 112255Z 35003KT 10SM FEW038 SCT080 OVC100 19/08 A3025 7540 48 9800 340/03 RMK AO2 T01940083
93073KASE ASE20160611160012106/11/16 16:00:31  5-MIN KASE 112300Z 01003KT 10SM FEW046 SCT070 BKN095 19/08 A3024 7540 48 9800 360/03 RMK AO2 T01940083
93073KASE ASE20160611160512106/11/16 16:05:31  5-MIN KASE 112305Z 00000KT 10SM FEW050 SCT100 SCT120 19/08 A3024 7550 46 9800 000/00 RMK AO2 T01940078
93073KASE ASE20160611161011406/11/16 16:10:31  5-MIN KASE 112310Z 00000KT 10SM FEW050 FEW100 19/08 A3024 7540 46 9800 000/00 RMK AO2 T01940078
93073KASE ASE20160611161510706/11/16 16:15:31  5-MIN KASE 112315Z 00000KT 10SM FEW100 19/07 A3024 7540 44 9800 000/00 RMK AO2 T01940072
93073KASE ASE20160611162010706/11/16 16:20:31  5-MIN KASE 112320Z 00000KT 10SM FEW100 19/07 A3024 7550 43 9800 000/00 RMK AO2 T01940067
93073KASE ASE20160611162510406/11/16 16:25:31  5-MIN KASE 112325Z 00000KT 10SM CLR 19/07 A3024 7550 43 9800 000/00 RMK AO2 T01940067
93073KASE ASE20160611163010406/11/16 16:30:31  5-MIN KASE 112330Z 00000KT 10SM CLR 20/07 A3024 7550 41 9800 000/00 RMK AO2 T02000067
93073KASE ASE20160611163510406/11/16 16:35:31  5-MIN KASE 112335Z VRB03KT 10SM CLR 21/07 A3024 7550 40 9900 VRB/03 RMK AO2 T02060067
93073KASE ASE20160611164010406/11/16 16:40:31  5-MIN KASE 112340Z 32005KT 10SM CLR 21/07 A3024 7550 40 9900 310/05 RMK AO2 T02060067
93073KASE ASE20160611164510406/11/16 16:45:31  5-MIN KASE 112345Z 30007KT 10SM CLR 19/08 A3024 7550 46 9800 290/07 RMK AO2 T01940078
93073KASE ASE20160611165014506/11/16 16:50:31  5-MIN KASE 112350Z 30009KT 10SM FEW045 BKN100 19/08 A3023 7550 46 9800 290/09 RMK AO2 SLP118 60000 T01940078 10289 20183 55002
93073KASE ASE20160611165510406/11/16 16:55:31  5-MIN KASE 112355Z 30008KT 10SM CLR 19/08 A3024 7550 48 9700 290/08 RMK AO2 T01890078
93073KASE ASE20160611170010406/11/16 17:00:31  5-MIN KASE 120000Z 33004KT 10SM CLR 19/08 A3024 7550 46 9800 320/04 RMK AO2 T01940078
93073KASE ASE20160611170510406/11/16 17:05:31  5-MIN KASE 120005Z 00000KT 10SM CLR 19/08 A3024 7550 46 9800 000/00 RMK AO2 T01940078
93073KASE ASE20160611171010406/11/16 17:10:31  5-MIN KASE 120010Z 28003KT 10SM CLR 19/08 A3024 7550 48 9700 270/03 RMK AO2 T01890078
93073KASE ASE20160611171510406/11/16 17:15:31  5-MIN KASE 120015Z 25003KT 10SM CLR 19/08 A3024 7550 48 9700 240/03 RMK AO2 T01890078
93073KASE ASE20160611172010406/11/16 17:20:31  5-MIN KASE 120020Z 00000KT 10SM CLR 18/08 A3024 7550 50 9700 000/00 RMK AO2 T01830078
93073KASE ASE20160611172510406/11/16 17:25:31  5-MIN KASE 120025Z 22005KT 10SM CLR 18/08 A3024 7550 52 9700 210/05 RMK AO2 T01830083
93073KASE ASE20160611173010706/11/16 17:30:31  5-MIN KASE 120030Z 00000KT 10SM FEW100 18/08 A3024 7550 52 9700 000/00 RMK AO2 T01830083
93073KASE ASE20160611173511806/11/16 17:35:31  5-MIN KASE 120035Z 22004KT 10SM SCT100 18/08 A3024 7550 52 9700 210/04 RMK AO2 LTG DSNT S T01830083
93073KASE ASE20160611174011806/11/16 17:40:31  5-MIN KASE 120040Z 24005KT 10SM BKN100 18/09 A3024 7540 54 9700 230/05 RMK AO2 LTG DSNT S T01830089
93073KASE ASE20160611174511806/11/16 17:45:31  5-MIN KASE 120045Z 22003KT 10SM BKN100 18/08 A3024 7540 53 9600 220/03 RMK AO2 LTG DSNT S T01780083
93073KASE ASE20160611175013206/11/16 17:50:31  5-MIN KASE 120050Z 24004KT 10SM BKN100 17/09 A3025 7540 57 9500 230/04 RMK AO2 LTG DSNT SE AND S SLP128 T01720089
93073KASE ASE20160611175513206/11/16 17:55:31  5-MIN KASE 120055Z 23004KT 10SM FEW070 OVC100 17/09 A3025 7540 60 9500 230/04 RMK AO2 LTG DSNT SE AND S T01720094
93073KASE ASE20160611180013706/11/16 18:00:31  5-MIN KASE 120100Z AUTO 21005KT 10SM SCT075 OVC100 17/09 A3026 7530 60 9500 200/05 RMK AO2 LTG DSNT SE AND S T01720094
93073KASE ASE20160611180513706/11/16 18:05:31  5-MIN KASE 120105Z AUTO 22005KT 10SM BKN075 OVC100 18/09 A3026 7520 58 9600 210/05 RMK AO2 LTG DSNT SE AND S T01780094
93073KASE ASE20160611181015006/11/16 18:10:31  5-MIN KASE 120110Z AUTO 19011G17KT 10SM BKN075 OVC100 18/08 A3028 7510 50 9600 180/11G17 RMK AO2 LTG DSNT SE AND S PRESRR T01830078
93073KASE ASE20160611181513706/11/16 18:15:31  5-MIN KASE 120115Z AUTO 17017G23KT 10SM BKN075 OVC100 19/06 A3028 7510 41 9700 160/17G23 RMK AO2 LTG DSNT SE T01890056
93073KASE ASE20160611182015306/11/16 18:20:31  5-MIN KASE 120120Z AUTO 19012G23KT 10SM -RA BKN075 OVC090 18/07 A3027 7520 48 9600 180/12G23 RMK AO2 LTG DSNT SE RAB16 P0000 T01780067
93073KASE ASE20160611182515306/11/16 18:25:31  5-MIN KASE 120125Z AUTO 19015G21KT 10SM -RA FEW050 OVC075 17/07 A3027 7520 51 9500 190/15G21 RMK AO2 LTG DSNT SE RAB16 P0000 T01720072
93073KASE ASE20160611183015906/11/16 18:30:31  5-MIN KASE 120130Z AUTO 14016G22KT 8SM -RA FEW050 BKN070 OVC080 16/08 A3025 7530 57 9400 140/16G22 RMK AO2 LTG DSNT SE RAB16 P0000 T01610078
93073KASE ASE20160611183515906/11/16 18:35:31  5-MIN KASE 120135Z AUTO 15012G22KT 9SM -RA FEW050 BKN070 OVC090 15/08 A3026 7530 64 9300 140/12G22 RMK AO2 LTG DSNT SE RAB16 P0000 T01500083
93073KASE ASE20160611184016006/11/16 18:40:31  5-MIN KASE 120140Z AUTO 16013G21KT 10SM -RA FEW047 BKN080 OVC100 15/09 A3026 7530 66 9300 150/13G21 RMK AO2 LTG DSNT SE RAB16 P0000 T01500089
93073KASE ASE20160611184515906/11/16 18:45:31  5-MIN KASE 120145Z AUTO 17013G20KT 10SM FEW050 BKN095 OVC110 16/08 A3026 7530 59 9400 160/13G20 RMK AO2 LTG DSNT SE RAB16E45 P0000 T01610083
93073KASE ASE20160611185016606/11/16 18:50:31  5-MIN KASE 120150Z AUTO 13009KT 10SM FEW048 SCT090 OVC110 16/08 A3026 7530 62 9300 120/09 RMK AO2 LTG DSNT E AND SE RAB16E45 SLP124 P0000 T01560083
93073KASE ASE20160611185514306/11/16 18:55:31  5-MIN KASE 120155Z AUTO 14012G17KT 10SM FEW070 FEW090 BKN110 15/08 A3026 7530 64 9300 130/12G17 RMK AO2 LTG DSNT E T01500083
93073KASE ASE20160611190012306/11/16 19:00:31  5-MIN KASE 120200Z AUTO 13012KT 10SM OVC110 16/08 A3026 7520 59 9300 120/12 RMK AO2 LTG DSNT E T01560078
93073KASE ASE20160611190511206/11/16 19:05:31  5-MIN KASE 120205Z AUTO 13009KT 10SM OVC100 15/08 A3026 7520 64 9300 130/09 RMK AO2 T01500083
93073KASE ASE20160611191011806/11/16 19:10:31  5-MIN KASE 120210Z AUTO 14015G20KT 10SM OVC110 15/08 A3027 7520 64 9300 130/15G20 RMK AO2 T01500083
93073KASE ASE20160611191511806/11/16 19:15:31  5-MIN KASE 120215Z AUTO 15011G20KT 10SM OVC100 16/08 A3027 7520 59 9300 140/11G20 RMK AO2 T01560078
93073KASE ASE20160611192011806/11/16 19:20:31  5-MIN KASE 120220Z AUTO 15015G19KT 10SM OVC100 16/08 A3027 7520 59 9300 140/15G19 RMK AO2 T01560078
93073KASE ASE20160611192511206/11/16 19:25:31  5-MIN KASE 120225Z AUTO 15015KT 10SM OVC110 16/08 A3027 7520 57 9400 140/15 RMK AO2 T01610078
93073KASE ASE20160611193011206/11/16 19:30:31  5-MIN KASE 120230Z AUTO 14014KT 10SM OVC110 16/08 A3026 7520 59 9300 130/14 RMK AO2 T01560078
93073KASE ASE20160611193511806/11/16 19:35:31  5-MIN KASE 120235Z AUTO 14011G20KT 10SM OVC100 16/07 A3026 7520 55 9400 130/11G20 RMK AO2 T01610072
93073KASE ASE20160611194012506/11/16 19:40:31  5-MIN KASE 120240Z AUTO 14010G17KT 10SM BKN100 OVC120 16/07 A3026 7530 55 9400 140/10G17 RMK AO2 T01610072
93073KASE ASE20160611194511906/11/16 19:45:31  5-MIN KASE 120245Z AUTO 15011KT 10SM BKN100 OVC120 16/08 A3026 7530 59 9300 140/11 RMK AO2 T01560078
93073KASE ASE20160611195013806/11/16 19:50:31  5-MIN KASE 120250Z AUTO 15011KT 10SM BKN100 BKN120 16/07 A3026 7530 55 9400 140/11 RMK AO2 SLP125 60000 T01610072 50011
93073KASE ASE20160611195511206/11/16 19:55:31  5-MIN KASE 120255Z AUTO 14011KT 10SM BKN100 17/07 A3026 7520 51 9500 130/11 RMK AO2 T01670067
93073KASE ASE20160611200011206/11/16 20:00:31  5-MIN KASE 120300Z AUTO 13010KT 10SM SCT100 16/07 A3026 7530 55 9400 120/10 RMK AO2 T01610072
93073KASE ASE20160611200511206/11/16 20:05:31  5-MIN KASE 120305Z AUTO 13011KT 10SM SCT100 15/07 A3026 7530 59 9300 130/11 RMK AO2 T01500072
93073KASE ASE20160611201011206/11/16 20:10:31  5-MIN KASE 120310Z AUTO 13011KT 10SM FEW100 16/07 A3026 7530 57 9300 120/11 RMK AO2 T01560072
93073KASE ASE20160611201510906/11/16 20:15:31  5-MIN KASE 120315Z AUTO 14009KT 10SM CLR 15/07 A3027 7520 59 9300 130/09 RMK AO2 T01500072
93073KASE ASE20160611202010906/11/16 20:20:31  5-MIN KASE 120320Z AUTO 13011KT 10SM CLR 16/07 A3027 7520 57 9300 120/11 RMK AO2 T01560072
93073KASE ASE20160611202511206/11/16 20:25:31  5-MIN KASE 120325Z AUTO 13008KT 10SM FEW085 15/07 A3027 7520 59 9300 120/08 RMK AO2 T01500072
93073KASE ASE20160611203011206/11/16 20:30:31  5-MIN KASE 120330Z AUTO 13009KT 10SM SCT085 14/08 A3027 7520 64 9200 120/09 RMK AO2 T01440078
93073KASE ASE20160611203511206/11/16 20:35:31  5-MIN KASE 120335Z AUTO 13009KT 10SM SCT080 14/08 A3027 7520 64 9200 120/09 RMK AO2 T01440078
93073KASE ASE20160611204011206/11/16 20:40:31  5-MIN KASE 120340Z AUTO 14008KT 10SM BKN085 14/08 A3028 7510 64 9200 130/08 RMK AO2 T01440078
93073KASE ASE20160611204511206/11/16 20:45:31  5-MIN KASE 120345Z AUTO 13009KT 10SM BKN085 14/07 A3028 7510 61 9200 120/09 RMK AO2 T01440072
93073KASE ASE20160611205011906/11/16 20:50:31  5-MIN KASE 120350Z AUTO 15007KT 10SM SCT080 14/07 A3028 7510 61 9200 140/07 RMK AO2 SLP123 T01440072
93073KASE ASE20160611205511206/11/16 20:55:31  5-MIN KASE 120355Z AUTO 16007KT 10SM SCT085 15/07 A3028 7510 59 9200 150/07 RMK AO2 T01500072
93073KASE ASE20160611210011206/11/16 21:00:31  5-MIN KASE 120400Z AUTO 15005KT 10SM SCT085 15/07 A3028 7510 59 9200 140/05 RMK AO2 T01500072
93073KASE ASE20160611210511206/11/16 21:05:31  5-MIN KASE 120405Z AUTO VRB04KT 10SM BKN085 14/07 A3029 7500 61 9200 VRB/04 RMK AO2 T01440072
93073KASE ASE20160611211011206/11/16 21:10:31  5-MIN KASE 120410Z AUTO 14009KT 10SM BKN085 15/07 A3028 7510 59 9200 130/09 RMK AO2 T01500072
93073KASE ASE20160611211511206/11/16 21:15:31  5-MIN KASE 120415Z AUTO 16007KT 10SM SCT085 14/07 A3028 7510 61 9200 150/07 RMK AO2 T01440072
93073KASE ASE20160611212011206/11/16 21:20:31  5-MIN KASE 120420Z AUTO 18006KT 10SM SCT085 14/07 A3028 7510 61 9200 170/06 RMK AO2 T01440072
93073KASE ASE20160611212511206/11/16 21:25:31  5-MIN KASE 120425Z AUTO 21004KT 10SM SCT085 13/07 A3029 7500 66 9100 200/04 RMK AO2 T01330072
93073KASE ASE20160611213011206/11/16 21:30:31  5-MIN KASE 120430Z AUTO 00000KT 10SM FEW085 13/07 A3029 7500 69 9000 000/00 RMK AO2 T01280072
93073KASE ASE20160611213511206/11/16 21:35:31  5-MIN KASE 120435Z AUTO 23004KT 10SM FEW085 13/07 A3029 7500 69 9000 220/04 RMK AO2 T01280072
93073KASE ASE20160611214010906/11/16 21:40:31  5-MIN KASE 120440Z AUTO 23004KT 10SM CLR 13/07 A3029 7500 66 9100 220/04 RMK AO2 T01330072
93073KASE ASE20160611214510906/11/16 21:45:31  5-MIN KASE 120445Z AUTO 22004KT 10SM CLR 13/07 A3029 7500 66 9100 210/04 RMK AO2 T01330072
93073KASE ASE20160611215011606/11/16 21:50:31  5-MIN KASE 120450Z AUTO 21005KT 10SM CLR 13/07 A3028 7510 69 9000 200/05 RMK AO2 SLP125 T01280072
93073KASE ASE20160611215510906/11/16 21:55:31  5-MIN KASE 120455Z AUTO 20005KT 10SM CLR 12/07 A3029 7500 71 8900 190/05 RMK AO2 T01220072
93073KASE ASE20160611220010906/11/16 22:00:31  5-MIN KASE 120500Z AUTO 22004KT 10SM CLR 12/07 A3029 7500 68 8900 210/04 RMK AO2 T01220067
93073KASE ASE20160611220510906/11/16 22:05:31  5-MIN KASE 120505Z AUTO 21004KT 10SM CLR 12/07 A3029 7510 68 8900 200/04 RMK AO2 T01220067
93073KASE ASE20160611221010906/11/16 22:10:31  5-MIN KASE 120510Z AUTO 20004KT 10SM CLR 12/07 A3029 7500 68 8900 190/04 RMK AO2 T01220067
93073KASE ASE20160611221510906/11/16 22:15:31  5-MIN KASE 120515Z AUTO 20005KT 10SM CLR 12/07 A3029 7500 68 8900 190/05 RMK AO2 T01220067
93073KASE ASE20160611222010906/11/16 22:20:31  5-MIN KASE 120520Z AUTO 20007KT 10SM CLR 12/07 A3029 7500 71 8900 190/07 RMK AO2 T01170067
93073KASE ASE20160611222510906/11/16 22:25:31  5-MIN KASE 120525Z AUTO 21006KT 10SM CLR 11/07 A3029 7500 74 8800 200/06 RMK AO2 T01110067
93073KASE ASE20160611223010906/11/16 22:30:31  5-MIN KASE 120530Z AUTO 22008KT 10SM CLR 12/07 A3029 7500 71 8900 210/08 RMK AO2 T01170067
93073KASE ASE20160611223510906/11/16 22:35:31  5-MIN KASE 120535Z AUTO 21007KT 10SM CLR 12/06 A3029 7500 66 8900 200/07 RMK AO2 T01220061
93073KASE ASE20160611224010906/11/16 22:40:31  5-MIN KASE 120540Z AUTO 21007KT 10SM CLR 13/06 A3029 7500 63 9000 200/07 RMK AO2 T01280061
93073KASE ASE20160611224510906/11/16 22:45:31  5-MIN KASE 120545Z AUTO 20006KT 10SM CLR 13/06 A3029 7500 63 9000 200/06 RMK AO2 T01280061
93073KASE ASE20160611225014006/11/16 22:50:31  5-MIN KASE 120550Z AUTO 19005KT 10SM CLR 12/06 A3029 7500 66 8900 190/05 RMK AO2 SLP124 60000 T01220061 10194 20111 50007
93073KASE ASE20160611225510906/11/16 22:55:31  5-MIN KASE 120555Z AUTO 19003KT 10SM CLR 11/06 A3029 7500 71 8800 180/03 RMK AO2 T01110061
93073KASE ASE20160611230010906/11/16 23:00:31  5-MIN KASE 120600Z AUTO 22006KT 10SM CLR 11/06 A3029 7500 74 8700 210/06 RMK AO2 T01060061
93073KASE ASE20160611230510906/11/16 23:05:31  5-MIN KASE 120605Z AUTO 21006KT 10SM CLR 11/06 A3029 7500 74 8700 200/06 RMK AO2 T01060061
93073KASE ASE20160611231010906/11/16 23:10:31  5-MIN KASE 120610Z AUTO 21006KT 10SM CLR 12/06 A3029 7500 68 8900 200/06 RMK AO2 T01170061
93073KASE ASE20160611231510906/11/16 23:15:31  5-MIN KASE 120615Z AUTO 21005KT 10SM CLR 12/06 A3029 7500 68 8900 200/05 RMK AO2 T01170061
93073KASE ASE20160611232010906/11/16 23:20:31  5-MIN KASE 120620Z AUTO 21004KT 10SM CLR 12/06 A3029 7500 68 8900 200/04 RMK AO2 T01170061
93073KASE ASE20160611232511206/11/16 23:25:31  5-MIN KASE 120625Z AUTO 21007KT 10SM FEW085 12/06 A3029 7500 68 8900 210/07 RMK AO2 T01170061
93073KASE ASE20160611233011206/11/16 23:30:31  5-MIN KASE 120630Z AUTO 21006KT 10SM SCT085 12/06 A3029 7500 66 8900 200/06 RMK AO2 T01220061
93073KASE ASE20160611233511206/11/16 23:35:31  5-MIN KASE 120635Z AUTO 20005KT 10SM BKN085 12/06 A3029 7500 66 8900 190/05 RMK AO2 T01220061
93073KASE ASE20160611234011206/11/16 23:40:31  5-MIN KASE 120640Z AUTO 19008KT 10SM BKN085 12/06 A3029 7500 68 8900 180/08 RMK AO2 T01170061
93073KASE ASE20160611234511206/11/16 23:45:31  5-MIN KASE 120645Z AUTO 21008KT 10SM BKN085 11/06 A3029 7500 71 8800 200/08 RMK AO2 T01110061
93073KASE ASE20160611235012906/11/16 23:50:31  5-MIN KASE 120650Z AUTO 22008KT 10SM OVC085 11/06 A3029 7500 71 8800 210/08 RMK AO2 SLP124 T01110061 402890106
93073KASE ASE20160611235511206/11/16 23:55:31  5-MIN KASE 120655Z AUTO 23008KT 10SM BKN085 11/06 A3029 7500 74 8700 220/08 RMK AO2 T01060061
93073KASE ASE20160612000011206/12/16 00:00:31  5-MIN KASE 120700Z AUTO 21006KT 10SM SCT085 11/06 A3029 7500 74 8700 200/06 RMK AO2 T01060061
93073KASE ASE20160612000511206/12/16 00:05:31  5-MIN KASE 120705Z AUTO 20006KT 10SM SCT085 11/06 A3029 7500 71 8700 190/06 RMK AO2 T01060056
93073KASE ASE20160612001011206/12/16 00:10:31  5-MIN KASE 120710Z AUTO 21006KT 10SM FEW085 11/06 A3029 7500 71 8800 210/06 RMK AO2 T01110061
93073KASE ASE20160612001511206/12/16 00:15:31  5-MIN KASE 120715Z AUTO 22005KT 10SM FEW080 11/06 A3029 7500 71 8800 210/05 RMK AO2 T01110061
93073KASE ASE20160612002010906/12/16 00:20:31  5-MIN KASE 120720Z AUTO 20005KT 10SM CLR 11/06 A3029 7500 68 8800 200/05 RMK AO2 T01110056
93073KASE ASE20160612002510906/12/16 00:25:31  5-MIN KASE 120725Z AUTO 22007KT 10SM CLR 11/06 A3029 7500 68 8800 210/07 RMK AO2 T01110056
93073KASE ASE20160612003010906/12/16 00:30:31  5-MIN KASE 120730Z AUTO 20006KT 10SM CLR 11/06 A3029 7500 68 8800 190/06 RMK AO2 T01110056
93073KASE ASE20160612003510906/12/16 00:35:31  5-MIN KASE 120735Z AUTO 21006KT 10SM CLR 11/06 A3029 7500 71 8700 200/06 RMK AO2 T01060056
93073KASE ASE20160612004010906/12/16 00:40:31  5-MIN KASE 120740Z AUTO 22007KT 10SM CLR 10/06 A3029 7510 74 8700 210/07 RMK AO2 T01000056
93073KASE ASE20160612004510906/12/16 00:45:31  5-MIN KASE 120745Z AUTO 21006KT 10SM CLR 10/06 A3029 7500 74 8700 200/06 RMK AO2 T01000056
93073KASE ASE20160612005011606/12/16 00:50:31  5-MIN KASE 120750Z AUTO 21005KT 10SM CLR 10/06 A3029 7500 74 8700 200/05 RMK AO2 SLP132 T01000056
93073KASE ASE20160612005510906/12/16 00:55:31  5-MIN KASE 120755Z AUTO 21006KT 10SM CLR 10/06 A3029 7500 74 8700 200/06 RMK AO2 T01000056
93073KASE ASE20160612010010906/12/16 01:00:31  5-MIN KASE 120800Z AUTO 21008KT 10SM CLR 10/06 A3029 7500 74 8700 210/08 RMK AO2 T01000056
93073KASE ASE20160612010510906/12/16 01:05:31  5-MIN KASE 120805Z AUTO 22007KT 10SM CLR 09/05 A3029 7500 74 8600 210/07 RMK AO2 T00940050
93073KASE ASE20160612011010906/12/16 01:10:31  5-MIN KASE 120810Z AUTO 19005KT 10SM CLR 09/05 A3030 7500 74 8600 180/05 RMK AO2 T00940050
93073KASE ASE20160612011510906/12/16 01:15:31  5-MIN KASE 120815Z AUTO 19004KT 10SM CLR 10/05 A3030 7500 71 8700 180/04 RMK AO2 T01000050
93073KASE ASE20160612012010906/12/16 01:20:31  5-MIN KASE 120820Z AUTO 19005KT 10SM CLR 09/05 A3029 7500 74 8600 180/05 RMK AO2 T00940050
93073KASE ASE20160612012510906/12/16 01:25:31  5-MIN KASE 120825Z AUTO 22008KT 10SM CLR 09/05 A3029 7500 74 8600 210/08 RMK AO2 T00940050
93073KASE ASE20160612013010906/12/16 01:30:31  5-MIN KASE 120830Z AUTO 23007KT 10SM CLR 09/05 A3029 7500 74 8600 220/07 RMK AO2 T00940050
93073KASE ASE20160612013510906/12/16 01:35:31  5-MIN KASE 120835Z AUTO 21006KT 10SM CLR 09/05 A3029 7500 74 8600 200/06 RMK AO2 T00940050
93073KASE ASE20160612014010906/12/16 01:40:31  5-MIN KASE 120840Z AUTO 21006KT 10SM CLR 10/05 A3029 7500 71 8700 200/06 RMK AO2 T01000050
93073KASE ASE20160612014510906/12/16 01:45:31  5-MIN KASE 120845Z AUTO 22006KT 10SM CLR 09/05 A3029 7500 76 8600 210/06 RMK AO2 T00890050
93073KASE ASE20160612015012206/12/16 01:50:31  5-MIN KASE 120850Z AUTO 19004KT 10SM CLR 10/05 A3029 7500 71 8700 180/04 RMK AO2 SLP139 T01000050 51007
93073KASE ASE20160612015510906/12/16 01:55:31  5-MIN KASE 120855Z AUTO 18007KT 10SM CLR 10/05 A3029 7500 71 8700 170/07 RMK AO2 T01000050
93073KASE ASE20160612020010906/12/16 02:00:31  5-MIN KASE 120900Z AUTO 20005KT 10SM CLR 09/05 A3029 7500 74 8600 190/05 RMK AO2 T00940050
93073KASE ASE20160612020510906/12/16 02:05:31  5-MIN KASE 120905Z AUTO 20006KT 10SM CLR 09/05 A3029 7500 76 8500 190/06 RMK AO2 T00890050
93073KASE ASE20160612021010906/12/16 02:10:31  5-MIN KASE 120910Z AUTO 21008KT 10SM CLR 09/05 A3029 7500 76 8600 200/08 RMK AO2 T00890050
93073KASE ASE20160612021510906/12/16 02:15:31  5-MIN KASE 120915Z AUTO 22007KT 10SM CLR 09/05 A3029 7500 76 8600 210/07 RMK AO2 T00890050
93073KASE ASE20160612022010906/12/16 02:20:31  5-MIN KASE 120920Z AUTO 21008KT 10SM CLR 09/05 A3029 7500 74 8600 200/08 RMK AO2 T00940050
93073KASE ASE20160612022510906/12/16 02:25:31  5-MIN KASE 120925Z AUTO 22006KT 10SM CLR 09/05 A3029 7500 74 8600 210/06 RMK AO2 T00940050
93073KASE ASE20160612023010906/12/16 02:30:31  5-MIN KASE 120930Z AUTO 21007KT 10SM CLR 10/05 A3029 7500 71 8700 200/07 RMK AO2 T01000050
93073KASE ASE20160612023510906/12/16 02:35:31  5-MIN KASE 120935Z AUTO 19006KT 10SM CLR 10/05 A3029 7500 71 8700 180/06 RMK AO2 T01000050
93073KASE ASE20160612024010906/12/16 02:40:31  5-MIN KASE 120940Z AUTO 22008KT 10SM CLR 09/05 A3029 7500 76 8600 210/08 RMK AO2 T00890050
93073KASE ASE20160612024510906/12/16 02:45:31  5-MIN KASE 120945Z AUTO 21006KT 10SM CLR 09/05 A3029 7500 74 8600 200/06 RMK AO2 T00940050
93073KASE ASE20160612025011606/12/16 02:50:31  5-MIN KASE 120950Z AUTO 21005KT 10SM CLR 09/05 A3029 7500 74 8600 200/05 RMK AO2 SLP149 T00940050
93073KASE ASE20160612025510906/12/16 02:55:31  5-MIN KASE 120955Z AUTO 19005KT 10SM CLR 09/05 A3029 7500 74 8600 180/05 RMK AO2 T00940050
93073KASE ASE20160612030010906/12/16 03:00:31  5-MIN KASE 121000Z AUTO 20006KT 10SM CLR 09/05 A3029 7500 74 8600 190/06 RMK AO2 T00940050
93073KASE ASE20160612030510906/12/16 03:05:31  5-MIN KASE 121005Z AUTO 20006KT 10SM CLR 09/05 A3030 7500 74 8600 190/06 RMK AO2 T00940050
93073KASE ASE20160612031010906/12/16 03:10:31  5-MIN KASE 121010Z AUTO 20006KT 10SM CLR 09/04 A3030 7490 73 8500 190/06 RMK AO2 T00890044
93073KASE ASE20160612031510906/12/16 03:15:31  5-MIN KASE 121015Z AUTO 21007KT 10SM CLR 09/04 A3030 7500 73 8500 200/07 RMK AO2 T00890044
93073KASE ASE20160612032010906/12/16 03:20:31  5-MIN KASE 121020Z AUTO 21007KT 10SM CLR 09/04 A3030 7490 73 8500 200/07 RMK AO2 T00890044
93073KASE ASE20160612032510906/12/16 03:25:31  5-MIN KASE 121025Z AUTO 21006KT 10SM CLR 08/04 A3030 7490 76 8500 200/06 RMK AO2 T00830044
93073KASE ASE20160612033010906/12/16 03:30:31  5-MIN KASE 121030Z AUTO 21006KT 10SM CLR 08/04 A3030 7490 76 8500 200/06 RMK AO2 T00830044
93073KASE ASE20160612033510906/12/16 03:35:31  5-MIN KASE 121035Z AUTO 20006KT 10SM CLR 09/04 A3030 7490 73 8500 200/06 RMK AO2 T00890044
93073KASE ASE20160612034010906/12/16 03:40:31  5-MIN KASE 121040Z AUTO 21006KT 10SM CLR 09/04 A3030 7490 73 8500 200/06 RMK AO2 T00890044
93073KASE ASE20160612034510906/12/16 03:45:31  5-MIN KASE 121045Z AUTO 22006KT 10SM CLR 09/04 A3030 7490 73 8500 210/06 RMK AO2 T00890044
93073KASE ASE20160612035011606/12/16 03:50:31  5-MIN KASE 121050Z AUTO 20006KT 10SM CLR 09/04 A3030 7490 71 8600 190/06 RMK AO2 SLP152 T00940044
93073KASE ASE20160612035510906/12/16 03:55:31  5-MIN KASE 121055Z AUTO 20006KT 10SM CLR 09/04 A3030 7490 73 8500 190/06 RMK AO2 T00890044
93073KASE ASE20160612040010906/12/16 04:00:31  5-MIN KASE 121100Z AUTO 21005KT 10SM CLR 09/04 A3030 7490 73 8500 200/05 RMK AO2 T00890044
93073KASE ASE20160612040510906/12/16 04:05:31  5-MIN KASE 121105Z AUTO 21007KT 10SM CLR 09/04 A3030 7490 71 8600 200/07 RMK AO2 T00940044
93073KASE ASE20160612041010906/12/16 04:10:31  5-MIN KASE 121110Z AUTO 19005KT 10SM CLR 09/04 A3030 7490 73 8500 180/05 RMK AO2 T00890044
93073KASE ASE20160612041510906/12/16 04:15:31  5-MIN KASE 121115Z AUTO 21008KT 10SM CLR 08/04 A3030 7490 76 8500 200/08 RMK AO2 T00830044
93073KASE ASE20160612042010906/12/16 04:20:31  5-MIN KASE 121120Z AUTO 22007KT 10SM CLR 08/04 A3030 7490 76 8500 210/07 RMK AO2 T00830044
93073KASE ASE20160612042510906/12/16 04:25:31  5-MIN KASE 121125Z AUTO 21006KT 10SM CLR 09/04 A3031 7480 73 8500 210/06 RMK AO2 T00890044
93073KASE ASE20160612043010906/12/16 04:30:31  5-MIN KASE 121130Z AUTO 20005KT 10SM CLR 09/04 A3031 7480 71 8600 190/05 RMK AO2 T00940044
93073KASE ASE20160612043510906/12/16 04:35:31  5-MIN KASE 121135Z AUTO 20005KT 10SM CLR 09/04 A3031 7480 71 8600 190/05 RMK AO2 T00940044
93073KASE ASE20160612044010906/12/16 04:40:31  5-MIN KASE 121140Z AUTO 21006KT 10SM CLR 08/04 A3031 7480 76 8500 200/06 RMK AO2 T00830044
93073KASE ASE20160612044510906/12/16 04:45:31  5-MIN KASE 121145Z AUTO 22006KT 10SM CLR 08/04 A3031 7480 76 8400 210/06 RMK AO2 T00780039
93073KASE ASE20160612045013406/12/16 04:50:31  5-MIN KASE 121150Z AUTO 34003KT 10SM CLR 07/04 A3032 7480 79 8300 330/03 RMK AO2 SLP165 T00720039 10122 20072 50000
93073KASE ASE20160612045510906/12/16 04:55:31  5-MIN KASE 121155Z AUTO 00000KT 10SM CLR 07/04 A3032 7470 79 8300 000/00 RMK AO2 T00720039
93073KASE ASE20160612050010906/12/16 05:00:31  5-MIN KASE 121200Z AUTO 00000KT 10SM CLR 07/04 A3032 7470 79 8300 000/00 RMK AO2 T00720039
93073KASE ASE20160612050510906/12/16 05:05:31  5-MIN KASE 121205Z AUTO 19003KT 10SM CLR 07/04 A3032 7470 79 8300 180/03 RMK AO2 T00720039
93073KASE ASE20160612051010906/12/16 05:10:31  5-MIN KASE 121210Z AUTO 22006KT 10SM CLR 07/04 A3033 7470 79 8300 220/06 RMK AO2 T00720039
93073KASE ASE20160612051510906/12/16 05:15:31  5-MIN KASE 121215Z AUTO 22004KT 10SM CLR 07/04 A3033 7470 82 8300 210/04 RMK AO2 T00670039
93073KASE ASE20160612052010906/12/16 05:20:31  5-MIN KASE 121220Z AUTO 21004KT 10SM CLR 07/04 A3033 7470 79 8300 200/04 RMK AO2 T00720039
93073KASE ASE20160612052510906/12/16 05:25:31  5-MIN KASE 121225Z AUTO 21004KT 10SM CLR 07/04 A3033 7470 79 8300 200/04 RMK AO2 T00720039
93073KASE ASE20160612053010906/12/16 05:30:31  5-MIN KASE 121230Z AUTO 00000KT 10SM CLR 08/04 A3033 7460 76 8400 000/00 RMK AO2 T00830044
93073KASE ASE20160612053510406/12/16 05:35:31  5-MIN KASE 121235Z 00000KT 10SM CLR 08/04 A3033 7460 79 8400 000/00 RMK AO2 T00780044
93073KASE ASE20160612054010406/12/16 05:40:31  5-MIN KASE 121240Z 00000KT 10SM CLR 09/04 A3033 7460 73 8500 000/00 RMK AO2 T00890044
93073KASE ASE20160612054510406/12/16 05:45:31  5-MIN KASE 121245Z 00000KT 10SM CLR 09/05 A3034 7460 74 8600 000/00 RMK AO2 T00940050
93073KASE ASE20160612055011106/12/16 05:50:31  5-MIN KASE 121250Z 00000KT 10SM CLR 10/05 A3034 7460 71 8600 000/00 RMK AO2 SLP169 T01000050
93073KASE ASE20160612055510406/12/16 05:55:31  5-MIN KASE 121255Z 00000KT 10SM CLR 10/06 A3034 7460 74 8600 000/00 RMK AO2 T01000056
93073KASE ASE20160612060010406/12/16 06:00:31  5-MIN KASE 121300Z 00000KT 10SM CLR 11/06 A3034 7450 71 8700 000/00 RMK AO2 T01060056
93073KASE ASE20160612060510406/12/16 06:05:31  5-MIN KASE 121305Z 00000KT 10SM CLR 11/06 A3034 7450 74 8700 000/00 RMK AO2 T01060061
93073KASE ASE20160612061010406/12/16 06:10:31  5-MIN KASE 121310Z VRB03KT 10SM CLR 11/05 A3034 7450 66 8700 VRB/03 RMK AO2 T01110050
93073KASE ASE20160612061510406/12/16 06:15:31  5-MIN KASE 121315Z 00000KT 10SM CLR 11/05 A3034 7450 66 8700 000/00 RMK AO2 T01110050
93073KASE ASE20160612062010406/12/16 06:20:31  5-MIN KASE 121320Z VRB03KT 10SM CLR 12/05 A3035 7450 63 8800 VRB/03 RMK AO2 T01170050
93073KASE ASE20160612062510406/12/16 06:25:31  5-MIN KASE 121325Z 17003KT 10SM CLR 12/05 A3035 7450 63 8800 160/03 RMK AO2 T01170050
93073KASE ASE20160612063010406/12/16 06:30:31  5-MIN KASE 121330Z 00000KT 10SM CLR 12/05 A3035 7450 63 8800 000/00 RMK AO2 T01170050
93073KASE ASE20160612063510406/12/16 06:35:31  5-MIN KASE 121335Z 00000KT 10SM CLR 12/05 A3035 7450 61 8900 000/00 RMK AO2 T01220050
93073KASE ASE20160612064010406/12/16 06:40:31  5-MIN KASE 121340Z 00000KT 10SM CLR 12/05 A3035 7450 61 8900 000/00 RMK AO2 T01220050
93073KASE ASE20160612064510406/12/16 06:45:31  5-MIN KASE 121345Z 00000KT 10SM CLR 13/05 A3035 7450 59 8900 000/00 RMK AO2 T01280050
93073KASE ASE20160612065011106/12/16 06:50:31  5-MIN KASE 121350Z 00000KT 10SM CLR 13/05 A3035 7450 59 8900 000/00 RMK AO2 SLP170 T01280050
93073KASE ASE20160612065510406/12/16 06:55:31  5-MIN KASE 121355Z 00000KT 10SM CLR 13/06 A3035 7440 59 9000 000/00 RMK AO2 T01330056
93073KASE ASE20160612070010406/12/16 07:00:31  5-MIN KASE 121400Z 00000KT 10SM CLR 13/06 A3035 7440 59 9000 000/00 RMK AO2 T01330056
93073KASE ASE20160612070510406/12/16 07:05:31  5-MIN KASE 121405Z 00000KT 10SM CLR 14/06 A3035 7440 57 9000 000/00 RMK AO2 T01390056
93073KASE ASE20160612071010406/12/16 07:10:31  5-MIN KASE 121410Z 00000KT 10SM CLR 14/06 A3035 7450 57 9000 000/00 RMK AO2 T01390056
93073KASE ASE20160612071510406/12/16 07:15:31  5-MIN KASE 121415Z 04004KT 10SM CLR 14/06 A3035 7450 55 9100 030/04 RMK AO2 T01440056
93073KASE ASE20160612072010406/12/16 07:20:31  5-MIN KASE 121420Z 00000KT 10SM CLR 14/06 A3035 7440 55 9100 000/00 RMK AO2 T01440056
93073KASE ASE20160612072510406/12/16 07:25:31  5-MIN KASE 121425Z 00000KT 10SM CLR 15/06 A3035 7440 53 9200 000/00 RMK AO2 T01500056
93073KASE ASE20160612073010406/12/16 07:30:31  5-MIN KASE 121430Z 00000KT 10SM CLR 16/06 A3035 7440 53 9200 000/00 RMK AO2 T01560061
93073KASE ASE20160612073510406/12/16 07:35:31  5-MIN KASE 121435Z 00000KT 10SM CLR 16/06 A3035 7450 51 9200 000/00 RMK AO2 T01560056
93073KASE ASE20160612074010406/12/16 07:40:31  5-MIN KASE 121440Z 00000KT 10SM CLR 16/06 A3035 7450 51 9200 000/00 RMK AO2 T01560056
93073KASE ASE20160612074510406/12/16 07:45:31  5-MIN KASE 121445Z VRB03KT 10SM CLR 16/06 A3035 7450 51 9200 VRB/03 RMK AO2 T01560056
93073KASE ASE20160612075011706/12/16 07:50:31  5-MIN KASE 121450Z 00000KT 10SM CLR 16/06 A3035 7450 51 9300 000/00 RMK AO2 SLP161 T01610061 53008
93073KASE ASE20160612075510406/12/16 07:55:31  5-MIN KASE 121455Z 00000KT 10SM CLR 17/06 A3035 7450 49 9400 000/00 RMK AO2 T01670061
93073KASE ASE20160612080010406/12/16 08:00:31  5-MIN KASE 121500Z VRB03KT 10SM CLR 17/06 A3035 7450 49 9400 VRB/03 RMK AO2 T01670061
93073KASE ASE20160612080510406/12/16 08:05:31  5-MIN KASE 121505Z 05003KT 10SM CLR 17/06 A3034 7450 47 9400 040/03 RMK AO2 T01720061
93073KASE ASE20160612081010406/12/16 08:10:31  5-MIN KASE 121510Z 36004KT 10SM CLR 18/07 A3034 7450 48 9500 350/04 RMK AO2 T01780067
93073KASE ASE20160612081510406/12/16 08:15:31  5-MIN KASE 121515Z 35004KT 10SM CLR 18/07 A3034 7450 48 9500 340/04 RMK AO2 T01780067
93073KASE ASE20160612082010406/12/16 08:20:31  5-MIN KASE 121520Z 01005KT 10SM CLR 17/07 A3034 7450 49 9400 360/05 RMK AO2 T01720067
93073KASE ASE20160612082510406/12/16 08:25:31  5-MIN KASE 121525Z 01004KT 10SM CLR 18/07 A3034 7450 49 9500 360/04 RMK AO2 T01780072
93073KASE ASE20160612083010406/12/16 08:30:31  5-MIN KASE 121530Z 36004KT 10SM CLR 18/07 A3034 7460 48 9500 350/04 RMK AO2 T01780067
93073KASE ASE20160612083510406/12/16 08:35:31  5-MIN KASE 121535Z 35004KT 10SM CLR 18/06 A3034 7460 44 9600 340/04 RMK AO2 T01830061
93073KASE ASE20160612084010406/12/16 08:40:31  5-MIN KASE 121540Z VRB04KT 10SM CLR 19/06 A3034 7460 43 9600 VRB/04 RMK AO2 T01890061
93073KASE ASE20160612084510406/12/16 08:45:31  5-MIN KASE 121545Z VRB03KT 10SM CLR 19/06 A3034 7460 41 9600 VRB/03 RMK AO2 T01890056
93073KASE ASE20160612085011106/12/16 08:50:31  5-MIN KASE 121550Z 02005KT 10SM CLR 19/07 A3034 7460 43 9700 010/05 RMK AO2 SLP151 T01940067
93073KASE ASE20160612085510406/12/16 08:55:31  5-MIN KASE 121555Z 03004KT 10SM CLR 19/06 A3033 7460 41 9700 020/04 RMK AO2 T01940061
93073KASE ASE20160612090010406/12/16 09:00:31  5-MIN KASE 121600Z VRB05KT 10SM CLR 20/07 A3033 7460 41 9700 VRB/05 RMK AO2 T02000067
93073KASE ASE20160612090510406/12/16 09:05:31  5-MIN KASE 121605Z 35005KT 10SM CLR 20/06 A3033 7460 40 9700 340/05 RMK AO2 T02000061
93073KASE ASE20160612091010406/12/16 09:10:31  5-MIN KASE 121610Z 35004KT 10SM CLR 20/06 A3033 7460 40 9700 340/04 RMK AO2 T02000061
93073KASE ASE20160612091510406/12/16 09:15:31  5-MIN KASE 121615Z 01006KT 10SM CLR 21/07 A3033 7460 40 9800 360/06 RMK AO2 T02060067
93073KASE ASE20160612092010406/12/16 09:20:31  5-MIN KASE 121620Z 36005KT 10SM CLR 21/07 A3033 7460 40 9800 350/05 RMK AO2 T02060067
93073KASE ASE20160612092510406/12/16 09:25:31  5-MIN KASE 121625Z 01005KT 10SM CLR 21/07 A3033 7470 41 9800 360/05 RMK AO2 T02060072
93073KASE ASE20160612093010406/12/16 09:30:31  5-MIN KASE 121630Z 02005KT 10SM CLR 21/08 A3032 7470 43 9800 010/05 RMK AO2 T02060078
93073KASE ASE20160612093510406/12/16 09:35:31  5-MIN KASE 121635Z 01007KT 10SM CLR 21/08 A3032 7470 43 9800 360/07 RMK AO2 T02060078
93073KASE ASE20160612094010406/12/16 09:40:31  5-MIN KASE 121640Z 36006KT 10SM CLR 22/08 A3032 7470 40 9900 350/06 RMK AO2 T02170078
93073KASE ASE20160612094510406/12/16 09:45:31  5-MIN KASE 121645Z 36006KT 10SM CLR 22/07 A3032 7470 39 9900 350/06 RMK AO2 T02170072
93073KASE ASE20160612095011106/12/16 09:50:31  5-MIN KASE 121650Z 34006KT 10SM CLR 22/06 A3032 7470 36 9900 330/06 RMK AO2 SLP145 T02170061
93073KASE ASE20160612095510506/12/16 09:55:31  5-MIN KASE 121655Z 36007KT 10SM CLR 22/06 A3032 7470 33 10000 360/07 RMK AO2 T02220056
93073KASE ASE20160612100010506/12/16 10:00:31  5-MIN KASE 121700Z 34006KT 10SM CLR 23/07 A3032 7470 35 10100 330/06 RMK AO2 T02280067
93073KASE ASE20160612100510806/12/16 10:05:31  5-MIN KASE 121705Z 35005KT 10SM FEW090 23/07 A3032 7470 35 10000 340/05 RMK AO2 T02280067
93073KASE ASE20160612101010806/12/16 10:10:31  5-MIN KASE 121710Z 35005KT 10SM FEW090 23/06 A3032 7470 32 10100 340/05 RMK AO2 T02330061
93073KASE ASE20160612101510806/12/16 10:15:31  5-MIN KASE 121715Z 32007KT 10SM FEW090 24/07 A3032 7470 32 10200 310/07 RMK AO2 T02390067
93073KASE ASE20160612102010806/12/16 10:20:31  5-MIN KASE 121720Z 32004KT 10SM FEW090 23/05 A3032 7470 30 10100 310/04 RMK AO2 T02330050
93073KASE ASE20160612102510806/12/16 10:25:31  5-MIN KASE 121725Z 00000KT 10SM FEW090 23/05 A3032 7470 30 10100 000/00 RMK AO2 T02330050
93073KASE ASE20160612103010806/12/16 10:30:31  5-MIN KASE 121730Z VRB03KT 10SM FEW090 23/04 A3032 7470 30 10100 VRB/03 RMK AO2 T02280044
93073KASE ASE20160612103510506/12/16 10:35:31  5-MIN KASE 121735Z 04004KT 10SM CLR 24/04 A3032 7470 28 10200 030/04 RMK AO2 T02390044
93073KASE ASE20160612104010806/12/16 10:40:31  5-MIN KASE 121740Z 00000KT 10SM FEW090 24/05 A3032 7470 28 10200 000/00 RMK AO2 T02440050
93073KASE ASE20160612104510806/12/16 10:45:31  5-MIN KASE 121745Z VRB03KT 10SM FEW090 24/04 A3032 7470 26 10200 VRB/03 RMK AO2 T02440039
93073KASE ASE20160612105014006/12/16 10:50:31  5-MIN KASE 121750Z VRB03KT 10SM FEW075 FEW090 24/04 A3032 7480 27 10200 VRB/03 RMK AO2 SLP138 T02390039 10244 20067 50008
93073KASE ASE20160612105512606/12/16 10:55:31  5-MIN KASE 121755Z VRB05KT 10SM FEW075 FEW090 24/04 A3031 7480 26 10200 VRB/05 RMK AO2 LTG DSNT S T02440039
93073KASE ASE20160612110014806/12/16 11:00:31  5-MIN KASE 121800Z 03009G19KT 340V070 10SM FEW075 FEW090 25/05 A3031 7480 27 10300 020/09G19 330V060 RMK AO2 LTG DSNT S T02500050
93073KASE ASE20160612110513206/12/16 11:05:31  5-MIN KASE 121805Z VRB04G19KT 10SM FEW075 SCT090 24/04 A3031 7480 27 10200 VRB/04G19 RMK AO2 LTG DSNT S T02390039
93073KASE ASE20160612111011906/12/16 11:10:31  5-MIN KASE 121810Z VRB03KT 10SM SCT075 24/04 A3031 7480 26 10200 VRB/03 RMK AO2 LTG DSNT S T02440039
93073KASE ASE20160612111513206/12/16 11:15:31  5-MIN KASE 121815Z 04004KT 10SM SCT075 SCT120 23/04 A3031 7480 29 10100 030/04 RMK AO2 LTG DSNT S AND W T02330044
93073KASE ASE20160612112013906/12/16 11:20:31  5-MIN KASE 121820Z VRB03KT 10SM FEW075 SCT095 SCT120 23/04 A3031 7480 28 10100 VRB/03 RMK AO2 LTG DSNT S AND W T02330039
93073KASE ASE20160612112513206/12/16 11:25:31  5-MIN KASE 121825Z VRB03KT 10SM SCT080 BKN095 23/04 A3031 7480 28 10100 VRB/03 RMK AO2 LTG DSNT S AND W T02330039
93073KASE ASE20160612113012606/12/16 11:30:31  5-MIN KASE 121830Z 00000KT 10SM BKN080 BKN120 23/03 A3031 7480 27 10100 000/00 RMK AO2 LTG DSNT S T02280033
93073KASE ASE20160612113513306/12/16 11:35:31  5-MIN KASE 121835Z VRB04KT 10SM SCT080 BKN100 BKN120 22/04 A3032 7480 30 10000 VRB/04 RMK AO2 LTG DSNT S T02220039
93073KASE ASE20160612114015106/12/16 11:40:31  5-MIN KASE 121840Z 22004KT 10SM VCTS FEW080 BKN100 BKN120 22/04 A3032 7470 31 10000 220/04 RMK AO2 LTG DSNT S AND NW TSE37 T02220044
93073KASE ASE20160612114514506/12/16 11:45:31  5-MIN KASE 121845Z 20008KT 10SM VCTS SCT075 BKN100 OVC120 22/05 A3032 7470 32 10000 190/08 RMK AO2 LTG DSNT NW TSE37 T02220050
93073KASE ASE20160612115014406/12/16 11:50:31  5-MIN KASE 121850Z 19012KT 10SM VCTS SCT080 OVC110 22/04 A3032 7480 31 9900 180/12 RMK AO2 LTG DSNT NW TSE37 SLP147 T02170039
93073KASE ASE20160612115512106/12/16 11:55:31  5-MIN KASE 121855Z 17012KT 10SM FEW049 BKN100 OVC120 22/02 A3032 7470 27 9900 160/12 RMK AO2 T02170022
93073KASE ASE20160612120014806/12/16 12:00:31  5-MIN KASE 121900Z 14011G17KT 120V180 10SM VCTS FEW055 SCT090 OVC110 21/02 A3033 7470 28 9900 130/11G17 110V170 RMK AO2 T02110022
93073KASE ASE20160612120513206/12/16 12:05:31  5-MIN KASE 121905Z 17012G17KT 10SM VCTS FEW055 FEW085 BKN110 21/02 A3032 7470 29 9800 160/12G17 RMK AO2 T02060022
93073KASE ASE20160612121013806/12/16 12:10:31  5-MIN KASE 121910Z 17010KT 10SM VCTS FEW055 FEW085 BKN110 21/02 A3033 7470 27 9900 160/10 RMK AO2 LTG DSNT NE T02110017
93073KASE ASE20160612121513906/12/16 12:15:31  5-MIN KASE 121915Z 14011G18KT 10SM FEW055 FEW085 BKN110 21/03 A3033 7470 30 9800 130/11G18 RMK AO2 LTG DSNT NE T02060028
93073KASE ASE20160612122013906/12/16 12:20:31  5-MIN KASE 121920Z 11014G18KT 10SM FEW055 FEW085 BKN110 19/04 A3032 7470 35 9700 100/14G18 RMK AO2 LTG DSNT NE T01940039
93073KASE ASE20160612122514406/12/16 12:25:31  5-MIN KASE 121925Z 12014KT 10SM FEW055 FEW085 BKN110 19/04 A3033 7470 38 9600 110/14 RMK AO2 WSHFT 1909 LTG DSNT NE T01890044
93073KASE ASE20160612123015006/12/16 12:30:31  5-MIN KASE 121930Z 12014KT 10SM FEW055 FEW085 BKN110 21/04 A3032 7470 34 9800 110/14 RMK AO2 WSHFT 1909 LTG DSNT NE AND E T02060044
93073KASE ASE20160612123515006/12/16 12:35:31  5-MIN KASE 121935Z 12014KT 10SM FEW055 FEW085 BKN110 21/05 A3032 7480 34 9900 110/14 RMK AO2 WSHFT 1909 LTG DSNT NE AND E T02110050
93073KASE ASE20160612124015006/12/16 12:40:31  5-MIN KASE 121940Z 12014KT 10SM FEW055 FEW085 BKN110 22/04 A3032 7480 32 9900 110/14 RMK AO2 WSHFT 1909 LTG DSNT NE AND E T02170044
93073KASE ASE20160612124514506/12/16 12:45:31  5-MIN KASE 121945Z 12014KT 10SM FEW055 FEW085 BKN110 22/05 A3031 7480 32 10000 110/14 RMK AO2 WSHFT 1909 LTG DSNT NE T02220050
93073KASE ASE20160612125015706/12/16 12:50:31  5-MIN KASE 121950Z 12014KT 10SM FEW055 FEW085 BKN110 22/04 A3031 7490 31 9900 110/14 RMK AO2 WSHFT 1909 LTG DSNT N AND SE SLP145 T02170039
93073KASE ASE20160612125512006/12/16 12:55:31  5-MIN KASE 121955Z 14011KT 10SM CLR 22/04 A3030 7490 31 10000 130/11 RMK AO2 LTG DSNT ALQDS T02170039
93073KASE ASE20160612130012006/12/16 13:00:31  5-MIN KASE 122000Z 14009KT 10SM CLR 22/04 A3030 7490 30 10000 130/09 RMK AO2 LTG DSNT ALQDS T02220039
93073KASE ASE20160612130512006/12/16 13:05:31  5-MIN KASE 122005Z 14008KT 10SM CLR 23/03 A3030 7500 26 10100 130/08 RMK AO2 LTG DSNT ALQDS T02280028
93073KASE ASE20160612131012006/12/16 13:10:31  5-MIN KASE 122010Z 16011KT 10SM CLR 23/03 A3030 7500 27 10100 150/11 RMK AO2 LTG DSNT ALQDS T02280033
93073KASE ASE20160612131512006/12/16 13:15:31  5-MIN KASE 122015Z 14011KT 10SM CLR 23/03 A3029 7500 27 10100 130/11 RMK AO2 LTG DSNT ALQDS T02280033
93073KASE ASE20160612132012006/12/16 13:20:31  5-MIN KASE 122020Z 14008KT 10SM CLR 22/03 A3030 7490 28 10000 130/08 RMK AO2 LTG DSNT ALQDS T02220033
93073KASE ASE20160612132512306/12/16 13:25:31  5-MIN KASE 122025Z 13008KT 10SM FEW090 22/04 A3030 7490 30 10000 120/08 RMK AO2 LTG DSNT ALQDS T02220039
93073KASE ASE20160612133012306/12/16 13:30:31  5-MIN KASE 122030Z 14007KT 10SM FEW090 22/04 A3030 7490 30 10000 130/07 RMK AO2 LTG DSNT ALQDS T02220039
93073KASE ASE20160612133512306/12/16 13:35:31  5-MIN KASE 122035Z 12006KT 10SM BKN090 22/04 A3030 7490 31 10000 110/06 RMK AO2 LTG DSNT ALQDS T02170039
93073KASE ASE20160612134012306/12/16 13:40:31  5-MIN KASE 122040Z 12005KT 10SM BKN090 22/04 A3030 7490 32 10000 110/05 RMK AO2 LTG DSNT ALQDS T02170044
93073KASE ASE20160612134512206/12/16 13:45:31  5-MIN KASE 122045Z 12007KT 10SM BKN090 21/05 A3031 7480 34 9900 110/07 RMK AO2 LTG DSNT ALQDS T02110050
93073KASE ASE20160612135013506/12/16 13:50:31  5-MIN KASE 122050Z 12005KT 10SM BKN090 21/05 A3031 7480 34 9900 110/05 RMK AO2 LTG DSNT ALQDS SLP149 T02110050 56009
93073KASE ASE20160612135512906/12/16 13:55:31  5-MIN KASE 122055Z 13007KT 10SM SCT090 BKN110 21/05 A3031 7480 34 9900 120/07 RMK AO2 LTG DSNT ALQDS T02110050
93073KASE ASE20160612140013106/12/16 14:00:31  5-MIN KASE 122100Z 13012KT 10SM BKN100 21/05 A3031 7480 34 9900 120/12 RMK AO2 LTG DSNT N AND SE AND S T02110050
93073KASE ASE20160612140513106/12/16 14:05:31  5-MIN KASE 122105Z 13010KT 10SM BKN100 21/04 A3031 7480 33 9900 120/10 RMK AO2 LTG DSNT N AND SE AND S T02110044
93073KASE ASE20160612141012906/12/16 14:10:31  5-MIN KASE 122110Z 14010KT 10SM BKN100 BKN120 21/05 A3031 7480 34 9900 130/10 RMK AO2 LTG DSNT ALQDS T02110050
93073KASE ASE20160612141512206/12/16 14:15:31  5-MIN KASE 122115Z 15012KT 10SM BKN100 21/06 A3032 7480 36 9900 140/12 RMK AO2 LTG DSNT ALQDS T02110056
93073KASE ASE20160612142013506/12/16 14:20:31  5-MIN KASE 122120Z 14012G18KT 10SM FEW090 SCT100 21/06 A3032 7470 36 9900 130/12G18 RMK AO2 LTG DSNT ALQDS T02110056
93073KASE ASE20160612142512206/12/16 14:25:31  5-MIN KASE 122125Z 13013KT 10SM FEW100 21/06 A3032 7470 37 9800 120/13 RMK AO2 LTG DSNT ALQDS T02060056
93073KASE ASE20160612143012806/12/16 14:30:31  5-MIN KASE 122130Z 14014G21KT 10SM FEW110 20/04 A3033 7460 35 9700 140/14G21 RMK AO2 LTG DSNT ALQDS T02000044
93073KASE ASE20160612143512506/12/16 14:35:31  5-MIN KASE 122135Z 14018G24KT 10SM CLR 20/04 A3034 7460 34 9700 130/18G24 RMK AO2 LTG DSNT ALQDS T02000039
93073KASE ASE20160612144013506/12/16 14:40:31  5-MIN KASE 122140Z 15018G25KT 10SM FEW110 19/03 A3035 7450 34 9700 140/18G25 RMK AO2 LTG DSNT ALQDS PRESRR T01940033
93073KASE ASE20160612144516006/12/16 14:45:31  5-MIN KASE 122145Z 15023G33KT 10SM FEW090 SCT110 19/03 A3035 7440 34 9700 140/23G33 RMK AO2 PK WND 16033/2145 LTG DSNT ALQDS PRESRR T01940033
93073KASE ASE20160612145015106/12/16 14:50:31  5-MIN KASE 122150Z 15019G33KT 10SM OVC065 19/04 A3036 7440 36 9600 150/19G33 RMK AO2 PK WND 16033/2145 LTG DSNT W-N SLP172 T01890039
93073KASE ASE20160612145515106/12/16 14:55:31  5-MIN KASE 122155Z 15020G29KT 10SM BKN090 BKN110 18/04 A3036 7430 38 9500 140/20G29 RMK AO2 PK WND 15029/2155 LTG DSNT W-N T01830039
93073KASE ASE20160612150016306/12/16 15:00:31  5-MIN KASE 122200Z 14020G31KT 10SM FEW075 BKN090 BKN110 18/04 A3036 7430 41 9500 130/20G31 RMK AO2 PK WND 14031/2157 LTG DSNT W AND NW T01780044
93073KASE ASE20160612150517906/12/16 15:05:31  5-MIN KASE 122205Z 14022G31KT 10SM -RA FEW060 BKN090 OVC110 17/06 A3037 7430 47 9300 130/22G31 RMK AO2 PK WND 14031/2157 LTG DSNT N AND NW RAB03 P0000 T01670056
93073KASE ASE20160612151017906/12/16 15:10:31  5-MIN KASE 122210Z 14024G35KT 10SM -RA FEW038 FEW065 OVC090 17/06 A3037 7420 47 9300 130/24G35 RMK AO2 PK WND 14035/2210 LTG DSNT N AND NW RAB03 P0000 T01670056
93073KASE ASE20160612151517906/12/16 15:15:31  5-MIN KASE 122215Z 13018G35KT 10SM -RA FEW035 FEW070 OVC090 16/06 A3037 7430 49 9300 120/18G35 RMK AO2 PK WND 14035/2210 LTG DSNT N AND NW RAB03 P0000 T01610056
93073KASE ASE20160612152017906/12/16 15:20:31  5-MIN KASE 122220Z 12019G28KT 10SM -RA FEW070 BKN090 OVC120 16/06 A3036 7440 51 9300 110/19G28 RMK AO2 PK WND 14035/2210 LTG DSNT N AND NW RAB03 P0000 T01610061
93073KASE ASE20160612152517806/12/16 15:25:31  5-MIN KASE 122225Z 13016G28KT 10SM FEW070 SCT090 BKN110 16/06 A3036 7440 51 9300 120/16G28 RMK AO2 PK WND 14035/2210 LTG DSNT N AND NW RAB03E23 P0000 T01610061
93073KASE ASE20160612153017106/12/16 15:30:31  5-MIN KASE 122230Z 13015G24KT 10SM SCT085 BKN110 17/06 A3035 7440 47 9400 120/15G24 RMK AO2 PK WND 14035/2210 LTG DSNT N AND NW RAB03E23 P0000 T01720061
93073KASE ASE20160612153517106/12/16 15:35:31  5-MIN KASE 122235Z 14019G25KT 10SM FEW090 SCT110 18/06 A3035 7440 46 9500 130/19G25 RMK AO2 PK WND 14035/2210 LTG DSNT N AND NW RAB03E23 P0000 T01780061
93073KASE ASE20160612154016406/12/16 15:40:31  5-MIN KASE 122240Z 14011G25KT 10SM FEW090 SCT110 18/06 A3035 7440 44 9500 130/11G25 RMK AO2 PK WND 14035/2210 LTG DSNT N RAB03E23 P0000 T01780056
93073KASE ASE20160612154515706/12/16 15:45:31  5-MIN KASE 122245Z 13013G21KT 10SM BKN110 17/06 A3035 7450 49 9400 120/13G21 RMK AO2 PK WND 14035/2210 LTG DSNT N RAB03E23 P0000 T01670061
93073KASE ASE20160612155017106/12/16 15:50:31  5-MIN KASE 122250Z 12014G20KT 10SM SCT100 BKN110 18/06 A3034 7450 46 9500 110/14G20 RMK AO2 PK WND 14035/2210 LTG DSNT N RAB03E23 SLP170 P0000 T01780061
93073KASE ASE20160612155513106/12/16 15:55:31  5-MIN KASE 122255Z 12015G23KT 10SM SCT100 SCT110 19/06 A3034 7450 43 9600 110/15G23 RMK AO2 LTG DSNT N T01890061
93073KASE ASE20160612160011306/12/16 16:00:31  5-MIN KASE 122300Z 12012G23KT 10SM SCT100 19/06 A3034 7460 41 9600 110/12G23 RMK AO2 T01890056
93073KASE ASE20160612160511306/12/16 16:05:31  5-MIN KASE 122305Z 13015G23KT 10SM SCT100 19/06 A3033 7460 41 9700 120/15G23 RMK AO2 T01940061
93073KASE ASE20160612161011306/12/16 16:10:31  5-MIN KASE 122310Z 13018G24KT 10SM FEW095 20/06 A3034 7460 38 9700 120/18G24 RMK AO2 T02000056
93073KASE ASE20160612161511306/12/16 16:15:31  5-MIN KASE 122315Z 12015G24KT 10SM FEW095 19/06 A3034 7460 40 9700 110/15G24 RMK AO2 T01940056
93073KASE ASE20160612162011006/12/16 16:20:31  5-MIN KASE 122320Z 12016G23KT 10SM CLR 19/06 A3033 7460 41 9600 110/16G23 RMK AO2 T01890056
93073KASE ASE20160612162511306/12/16 16:25:31  5-MIN KASE 122325Z 14014G23KT 10SM FEW100 18/06 A3035 7450 42 9500 130/14G23 RMK AO2 T01830056
93073KASE ASE20160612163011306/12/16 16:30:31  5-MIN KASE 122330Z 18013G22KT 10SM FEW100 19/05 A3034 7450 39 9600 170/13G22 RMK AO2 T01890050
93073KASE ASE20160612163511306/12/16 16:35:31  5-MIN KASE 122335Z 14007G21KT 10SM FEW100 19/05 A3034 7460 38 9700 130/07G21 RMK AO2 T01940050
93073KASE ASE20160612164011306/12/16 16:40:31  5-MIN KASE 122340Z 16012G18KT 10SM SCT110 20/03 A3034 7460 33 9700 150/12G18 RMK AO2 T02000033
93073KASE ASE20160612164511306/12/16 16:45:31  5-MIN KASE 122345Z 17009G18KT 10SM SCT110 19/03 A3033 7470 34 9700 160/09G18 RMK AO2 T01940033
93073KASE ASE20160612165014506/12/16 16:50:31  5-MIN KASE 122350Z 15010KT 10SM FEW100 19/04 A3032 7480 35 9700 140/10 RMK AO2 PRESFR SLP164 60000 T01940039 10250 20161 55001
93073KASE ASE20160612165510706/12/16 16:55:31  5-MIN KASE 122355Z 14010KT 10SM SCT110 19/05 A3032 7470 39 9600 130/10 RMK AO2 T01890050
93073KASE ASE20160612170010706/12/16 17:00:31  5-MIN KASE 130000Z 14011KT 10SM BKN110 19/06 A3032 7470 40 9700 130/11 RMK AO2 T01940056
93073KASE ASE20160612170510706/12/16 17:05:31  5-MIN KASE 130005Z 14012KT 10SM SCT110 19/06 A3032 7470 40 9700 130/12 RMK AO2 T01940056
93073KASE ASE20160612171010706/12/16 17:10:31  5-MIN KASE 130010Z 14010KT 10SM FEW110 19/06 A3032 7470 40 9700 130/10 RMK AO2 T01940056
93073KASE ASE20160612171510706/12/16 17:15:31  5-MIN KASE 130015Z 13012KT 10SM FEW110 19/06 A3032 7480 41 9700 120/12 RMK AO2 T01940061
93073KASE ASE20160612172011306/12/16 17:20:31  5-MIN KASE 130020Z 14011G18KT 10SM FEW110 19/06 A3031 7480 43 9600 130/11G18 RMK AO2 T01890061
93073KASE ASE20160612172511306/12/16 17:25:31  5-MIN KASE 130025Z 14009G18KT 10SM FEW110 19/06 A3031 7480 41 9600 130/09G18 RMK AO2 T01890056
93073KASE ASE20160612173010406/12/16 17:30:31  5-MIN KASE 130030Z 14008KT 10SM CLR 20/06 A3031 7480 40 9800 130/08 RMK AO2 T02000061
93073KASE ASE20160612173511006/12/16 17:35:31  5-MIN KASE 130035Z 14011G16KT 10SM CLR 20/06 A3031 7480 38 9800 130/11G16 RMK AO2 T02000056
93073KASE ASE20160612174011006/12/16 17:40:31  5-MIN KASE 130040Z 14009G16KT 10SM CLR 20/06 A3031 7490 38 9800 130/09G16 RMK AO2 T02000056
93073KASE ASE20160612174511006/12/16 17:45:31  5-MIN KASE 130045Z 14009G15KT 10SM CLR 20/06 A3031 7490 38 9800 130/09G15 RMK AO2 T02000056
93073KASE ASE20160612175011106/12/16 17:50:31  5-MIN KASE 130050Z 13010KT 10SM CLR 20/06 A3030 7490 38 9800 120/10 RMK AO2 SLP150 T02000056
93073KASE ASE20160612175510406/12/16 17:55:31  5-MIN KASE 130055Z 13010KT 10SM CLR 20/06 A3031 7490 38 9800 120/10 RMK AO2 T02000056
93073KASE ASE20160612180010406/12/16 18:00:31  5-MIN KASE 130100Z 13009KT 10SM CLR 20/06 A3030 7490 38 9800 120/09 RMK AO2 T02000056
93073KASE ASE20160612180510406/12/16 18:05:31  5-MIN KASE 130105Z 14010KT 10SM CLR 20/06 A3030 7490 38 9800 130/10 RMK AO2 T02000056
93073KASE ASE20160612181010906/12/16 18:10:31  5-MIN KASE 130110Z AUTO 13008KT 10SM CLR 20/06 A3030 7490 38 9800 120/08 RMK AO2 T02000056
93073KASE ASE20160612181510906/12/16 18:15:31  5-MIN KASE 130115Z AUTO 13008KT 10SM CLR 20/06 A3030 7490 38 9800 120/08 RMK AO2 T02000056
93073KASE ASE20160612182010906/12/16 18:20:31  5-MIN KASE 130120Z AUTO 14008KT 10SM CLR 20/06 A3030 7490 38 9800 130/08 RMK AO2 T02000056
93073KASE ASE20160612182510906/12/16 18:25:31  5-MIN KASE 130125Z AUTO 14007KT 10SM CLR 20/06 A3030 7490 38 9800 130/07 RMK AO2 T02000056
93073KASE ASE20160612183010906/12/16 18:30:31  5-MIN KASE 130130Z AUTO 15008KT 10SM CLR 20/06 A3030 7490 38 9800 140/08 RMK AO2 T02000056
93073KASE ASE20160612183510906/12/16 18:35:31  5-MIN KASE 130135Z AUTO 15008KT 10SM CLR 20/06 A3030 7490 38 9800 140/08 RMK AO2 T02000056
93073KASE ASE20160612184010906/12/16 18:40:31  5-MIN KASE 130140Z AUTO 16007KT 10SM CLR 19/06 A3030 7490 40 9700 150/07 RMK AO2 T01940056
93073KASE ASE20160612184510906/12/16 18:45:31  5-MIN KASE 130145Z AUTO 16006KT 10SM CLR 19/06 A3030 7490 41 9700 150/06 RMK AO2 T01890056
93073KASE ASE20160612185011606/12/16 18:50:31  5-MIN KASE 130150Z AUTO 15007KT 10SM CLR 19/05 A3030 7490 39 9700 140/07 RMK AO2 SLP143 T01890050
93073KASE ASE20160612185510906/12/16 18:55:31  5-MIN KASE 130155Z AUTO 15007KT 10SM CLR 18/06 A3030 7490 42 9600 140/07 RMK AO2 T01830056
93073KASE ASE20160612190012106/12/16 19:00:31  5-MIN KASE 130200Z AUTO 16008KT 10SM CLR 18/06 A3030 7490 42 9600 150/08 RMK AO2 LTG DSNT SW T01830056
93073KASE ASE20160612190512106/12/16 19:05:31  5-MIN KASE 130205Z AUTO 16009KT 10SM CLR 18/05 A3030 7490 41 9600 150/09 RMK AO2 LTG DSNT SW T01830050
93073KASE ASE20160612191012706/12/16 19:10:31  5-MIN KASE 130210Z AUTO 15008KT 10SM CLR 18/05 A3030 7490 42 9500 140/08 RMK AO2 LTG DSNT SW AND W T01780050
93073KASE ASE20160612191512006/12/16 19:15:31  5-MIN KASE 130215Z AUTO 15007KT 10SM CLR 18/05 A3031 7480 42 9500 140/07 RMK AO2 LTG DSNT W T01780050
93073KASE ASE20160612192012006/12/16 19:20:31  5-MIN KASE 130220Z AUTO 15007KT 10SM CLR 18/05 A3031 7490 42 9500 140/07 RMK AO2 LTG DSNT W T01780050
93073KASE ASE20160612192512006/12/16 19:25:31  5-MIN KASE 130225Z AUTO 14007KT 10SM CLR 17/06 A3031 7480 46 9500 130/07 RMK AO2 LTG DSNT W T01720056
93073KASE ASE20160612193012006/12/16 19:30:31  5-MIN KASE 130230Z AUTO 15009KT 10SM CLR 17/06 A3031 7480 46 9500 140/09 RMK AO2 LTG DSNT W T01720056
93073KASE ASE20160612193512006/12/16 19:35:31  5-MIN KASE 130235Z AUTO 16009KT 10SM CLR 17/06 A3031 7480 46 9500 150/09 RMK AO2 LTG DSNT W T01720056
93073KASE ASE20160612194010906/12/16 19:40:31  5-MIN KASE 130240Z AUTO 15008KT 10SM CLR 17/06 A3031 7480 46 9500 140/08 RMK AO2 T01720056
93073KASE ASE20160612194510906/12/16 19:45:31  5-MIN KASE 130245Z AUTO 18008KT 10SM CLR 17/06 A3032 7480 46 9500 170/08 RMK AO2 T01720056
93073KASE ASE20160612195012206/12/16 19:50:31  5-MIN KASE 130250Z AUTO 21007KT 10SM CLR 16/06 A3032 7480 51 9300 200/07 RMK AO2 SLP149 T01560056 50003
93073KASE ASE20160612195510906/12/16 19:55:31  5-MIN KASE 130255Z AUTO 14009KT 10SM CLR 17/06 A3031 7480 47 9400 130/09 RMK AO2 T01670056
93073KASE ASE20160612200010906/12/16 20:00:31  5-MIN KASE 130300Z AUTO 15008KT 10SM CLR 17/06 A3031 7480 46 9500 140/08 RMK AO2 T01720056
93073KASE ASE20160612200510906/12/16 20:05:31  5-MIN KASE 130305Z AUTO 14009KT 10SM CLR 17/06 A3032 7480 46 9500 130/09 RMK AO2 T01720056
93073KASE ASE20160612201010906/12/16 20:10:31  5-MIN KASE 130310Z AUTO 16009KT 10SM CLR 17/06 A3032 7480 46 9500 150/09 RMK AO2 T01720056
93073KASE ASE20160612201510906/12/16 20:15:31  5-MIN KASE 130315Z AUTO 20007KT 10SM CLR 16/06 A3032 7470 49 9300 200/07 RMK AO2 T01610056
93073KASE ASE20160612202010906/12/16 20:20:31  5-MIN KASE 130320Z AUTO VRB06KT 10SM CLR 17/05 A3032 7470 45 9400 VRB/06 RMK AO2 T01670050
93073KASE ASE20160612202510906/12/16 20:25:31  5-MIN KASE 130325Z AUTO 18005KT 10SM CLR 16/06 A3032 7470 49 9300 170/05 RMK AO2 T01610056
93073KASE ASE20160612203010906/12/16 20:30:31  5-MIN KASE 130330Z AUTO 20008KT 10SM CLR 16/06 A3032 7470 51 9300 200/08 RMK AO2 T01560056
93073KASE ASE20160612203510906/12/16 20:35:31  5-MIN KASE 130335Z AUTO 22010KT 10SM CLR 15/06 A3033 7470 53 9200 210/10 RMK AO2 T01500056
93073KASE ASE20160612204010906/12/16 20:40:31  5-MIN KASE 130340Z AUTO 20010KT 10SM CLR 14/06 A3033 7470 55 9100 190/10 RMK AO2 T01440056
93073KASE ASE20160612204510906/12/16 20:45:31  5-MIN KASE 130345Z AUTO 20008KT 10SM CLR 15/06 A3033 7470 53 9200 190/08 RMK AO2 T01500056
93073KASE ASE20160612205011606/12/16 20:50:31  5-MIN KASE 130350Z AUTO 22008KT 10SM CLR 14/06 A3033 7460 57 9100 210/08 RMK AO2 SLP153 T01390056
93073KASE ASE20160612205510906/12/16 20:55:31  5-MIN KASE 130355Z AUTO 20006KT 10SM CLR 14/06 A3033 7460 55 9100 190/06 RMK AO2 T01440056
93073KASE ASE20160612210010906/12/16 21:00:31  5-MIN KASE 130400Z AUTO 18007KT 10SM CLR 14/05 A3033 7460 53 9100 180/07 RMK AO2 T01440050
93073KASE ASE20160612210510906/12/16 21:05:31  5-MIN KASE 130405Z AUTO 20008KT 10SM CLR 13/06 A3033 7460 59 9000 190/08 RMK AO2 T01330056
93073KASE ASE20160612211010906/12/16 21:10:31  5-MIN KASE 130410Z AUTO 20008KT 10SM CLR 13/06 A3034 7460 61 8900 190/08 RMK AO2 T01280056
93073KASE ASE20160612211510906/12/16 21:15:31  5-MIN KASE 130415Z AUTO 21008KT 10SM CLR 12/06 A3033 7460 63 8900 200/08 RMK AO2 T01220056
93073KASE ASE20160612212010906/12/16 21:20:31  5-MIN KASE 130420Z AUTO 22010KT 10SM CLR 12/06 A3033 7460 66 8800 220/10 RMK AO2 T01170056
93073KASE ASE20160612212510906/12/16 21:25:31  5-MIN KASE 130425Z AUTO 20008KT 10SM CLR 12/06 A3033 7460 63 8900 190/08 RMK AO2 T01220056
93073KASE ASE20160612213010906/12/16 21:30:31  5-MIN KASE 130430Z AUTO 21011KT 10SM CLR 12/05 A3033 7460 61 8900 210/11 RMK AO2 T01220050
93073KASE ASE20160612213510906/12/16 21:35:31  5-MIN KASE 130435Z AUTO 21009KT 10SM CLR 12/05 A3033 7470 61 8900 210/09 RMK AO2 T01220050
93073KASE ASE20160612214010906/12/16 21:40:31  5-MIN KASE 130440Z AUTO 21009KT 10SM CLR 12/05 A3033 7460 61 8900 200/09 RMK AO2 T01220050
93073KASE ASE20160612214510906/12/16 21:45:31  5-MIN KASE 130445Z AUTO 20008KT 10SM CLR 13/05 A3033 7460 59 8900 190/08 RMK AO2 T01280050
93073KASE ASE20160612215011606/12/16 21:50:31  5-MIN KASE 130450Z AUTO 20008KT 10SM CLR 13/05 A3033 7460 59 8900 190/08 RMK AO2 SLP149 T01280050
93073KASE ASE20160612215510906/12/16 21:55:31  5-MIN KASE 130455Z AUTO 19008KT 10SM CLR 13/05 A3033 7470 59 8900 190/08 RMK AO2 T01280050
93073KASE ASE20160612220010906/12/16 22:00:31  5-MIN KASE 130500Z AUTO 21009KT 10SM CLR 13/05 A3033 7470 59 8900 200/09 RMK AO2 T01280050
93073KASE ASE20160612220510906/12/16 22:05:31  5-MIN KASE 130505Z AUTO 20008KT 10SM CLR 12/05 A3033 7470 61 8900 190/08 RMK AO2 T01220050
93073KASE ASE20160612221010906/12/16 22:10:31  5-MIN KASE 130510Z AUTO 17009KT 10SM CLR 13/05 A3032 7470 59 9000 160/09 RMK AO2 T01280050
93073KASE ASE20160612221510906/12/16 22:15:31  5-MIN KASE 130515Z AUTO 15008KT 10SM CLR 13/04 A3032 7470 54 9000 150/08 RMK AO2 T01330044
93073KASE ASE20160612222010906/12/16 22:20:31  5-MIN KASE 130520Z AUTO 16007KT 10SM CLR 14/04 A3032 7470 52 9100 150/07 RMK AO2 T01390044
93073KASE ASE20160612222510906/12/16 22:25:31  5-MIN KASE 130525Z AUTO 16006KT 10SM CLR 14/04 A3032 7470 52 9100 150/06 RMK AO2 T01390044
93073KASE ASE20160612223010906/12/16 22:30:31  5-MIN KASE 130530Z AUTO 15006KT 10SM CLR 14/04 A3032 7480 52 9100 140/06 RMK AO2 T01390044
93073KASE ASE20160612223510906/12/16 22:35:31  5-MIN KASE 130535Z AUTO 16006KT 10SM CLR 13/04 A3032 7470 54 9000 150/06 RMK AO2 T01330044
93073KASE ASE20160612224010906/12/16 22:40:31  5-MIN KASE 130540Z AUTO 17006KT 10SM CLR 14/04 A3032 7480 52 9100 160/06 RMK AO2 T01390044
93073KASE ASE20160612224510906/12/16 22:45:31  5-MIN KASE 130545Z AUTO 18007KT 10SM CLR 13/04 A3032 7480 54 9000 170/07 RMK AO2 T01330044
93073KASE ASE20160612225013406/12/16 22:50:31  5-MIN KASE 130550Z AUTO 22005KT 10SM CLR 13/04 A3032 7480 56 9000 210/05 RMK AO2 SLP139 T01280044 10200 20117 55002
93073KASE ASE20160612225511206/12/16 22:55:31  5-MIN KASE 130555Z AUTO 19005KT 10SM FEW110 11/04 A3032 7480 63 8800 180/05 RMK AO2 T01110044
93073KASE ASE20160612230011206/12/16 23:00:31  5-MIN KASE 130600Z AUTO 21007KT 10SM SCT110 11/04 A3032 7480 63 8800 200/07 RMK AO2 T01110044
93073KASE ASE20160612230511206/12/16 23:05:31  5-MIN KASE 130605Z AUTO 22007KT 10SM SCT110 12/04 A3032 7480 61 8800 210/07 RMK AO2 T01170044
93073KASE ASE20160612231011206/12/16 23:10:31  5-MIN KASE 130610Z AUTO 21008KT 10SM SCT110 12/04 A3032 7480 61 8800 200/08 RMK AO2 T01170044
93073KASE ASE20160612231511206/12/16 23:15:31  5-MIN KASE 130615Z AUTO 21008KT 10SM SCT110 12/04 A3031 7480 58 8800 210/08 RMK AO2 T01170039
93073KASE ASE20160612232011206/12/16 23:20:31  5-MIN KASE 130620Z AUTO 21009KT 10SM SCT110 11/04 A3031 7480 61 8800 200/09 RMK AO2 T01110039
93073KASE ASE20160612232511206/12/16 23:25:31  5-MIN KASE 130625Z AUTO 21009KT 10SM FEW110 11/04 A3031 7480 63 8700 200/09 RMK AO2 T01060039
93073KASE ASE20160612233011206/12/16 23:30:31  5-MIN KASE 130630Z AUTO 22010KT 10SM FEW110 11/04 A3031 7480 63 8700 210/10 RMK AO2 T01060039
93073KASE ASE20160612233511206/12/16 23:35:31  5-MIN KASE 130635Z AUTO 21007KT 10SM FEW110 11/04 A3031 7480 63 8700 200/07 RMK AO2 T01060039
93073KASE ASE20160612234010906/12/16 23:40:31  5-MIN KASE 130640Z AUTO 20006KT 10SM CLR 11/04 A3031 7480 63 8700 190/06 RMK AO2 T01060039
93073KASE ASE20160612234510906/12/16 23:45:31  5-MIN KASE 130645Z AUTO 21008KT 10SM CLR 11/04 A3031 7490 63 8700 200/08 RMK AO2 T01060039
93073KASE ASE20160612235012606/12/16 23:50:31  5-MIN KASE 130650Z AUTO 22009KT 10SM CLR 11/04 A3031 7480 63 8700 210/09 RMK AO2 SLP147 T01060039 402500067
93073KASE ASE20160612235510906/12/16 23:55:31  5-MIN KASE 130655Z AUTO 21008KT 10SM CLR 11/04 A3031 7490 61 8800 200/08 RMK AO2 T01110039
93073KASE ASE20160613000010906/13/16 00:00:31  5-MIN KASE 130700Z AUTO 21008KT 10SM CLR 11/04 A3031 7490 63 8700 200/08 RMK AO2 T01060039
93073KASE ASE20160613000510906/13/16 00:05:31  5-MIN KASE 130705Z AUTO 21009KT 10SM CLR 11/04 A3030 7490 61 8800 200/09 RMK AO2 T01110039
93073KASE ASE20160613001010906/13/16 00:10:31  5-MIN KASE 130710Z AUTO 22010KT 10SM CLR 11/03 A3030 7490 58 8800 210/10 RMK AO2 T01110033
93073KASE ASE20160613001510906/13/16 00:15:31  5-MIN KASE 130715Z AUTO 21010KT 10SM CLR 11/03 A3030 7490 61 8700 200/10 RMK AO2 T01060033
93073KASE ASE20160613002010906/13/16 00:20:31  5-MIN KASE 130720Z AUTO 22010KT 10SM CLR 10/03 A3030 7490 63 8700 210/10 RMK AO2 T01000033
93073KASE ASE20160613002510906/13/16 00:25:31  5-MIN KASE 130725Z AUTO 21008KT 10SM CLR 11/03 A3030 7490 58 8800 200/08 RMK AO2 T01110033
93073KASE ASE20160613003010906/13/16 00:30:31  5-MIN KASE 130730Z AUTO 22006KT 10SM CLR 11/03 A3030 7490 61 8700 210/06 RMK AO2 T01060033
93073KASE ASE20160613003510906/13/16 00:35:31  5-MIN KASE 130735Z AUTO 22008KT 10SM CLR 10/03 A3030 7500 63 8700 210/08 RMK AO2 T01000033
93073KASE ASE20160613004010906/13/16 00:40:31  5-MIN KASE 130740Z AUTO 20007KT 10SM CLR 11/03 A3030 7500 61 8700 190/07 RMK AO2 T01060033
93073KASE ASE20160613004510906/13/16 00:45:31  5-MIN KASE 130745Z AUTO 22007KT 10SM CLR 11/03 A3030 7490 56 8800 210/07 RMK AO2 T01110028
93073KASE ASE20160613005011606/13/16 00:50:31  5-MIN KASE 130750Z AUTO 22008KT 10SM CLR 11/03 A3030 7490 58 8700 210/08 RMK AO2 SLP144 T01060028
93073KASE ASE20160613005510906/13/16 00:55:31  5-MIN KASE 130755Z AUTO 21006KT 10SM CLR 11/03 A3030 7490 58 8700 200/06 RMK AO2 T01060028
93073KASE ASE20160613010010906/13/16 01:00:31  5-MIN KASE 130800Z AUTO 21006KT 10SM CLR 10/03 A3029 7500 60 8700 200/06 RMK AO2 T01000028
93073KASE ASE20160613010510906/13/16 01:05:31  5-MIN KASE 130805Z AUTO 21007KT 10SM CLR 09/03 A3030 7490 63 8600 200/07 RMK AO2 T00940028
93073KASE ASE20160613011010906/13/16 01:10:31  5-MIN KASE 130810Z AUTO 20006KT 10SM CLR 09/03 A3030 7490 63 8600 190/06 RMK AO2 T00940028
93073KASE ASE20160613011510906/13/16 01:15:31  5-MIN KASE 130815Z AUTO 22008KT 10SM CLR 08/03 A3029 7500 68 8500 210/08 RMK AO2 T00830028
93073KASE ASE20160613012010906/13/16 01:20:31  5-MIN KASE 130820Z AUTO 21006KT 10SM CLR 08/03 A3030 7500 68 8500 200/06 RMK AO2 T00830028
93073KASE ASE20160613012510906/13/16 01:25:31  5-MIN KASE 130825Z AUTO 21006KT 10SM CLR 08/03 A3030 7490 68 8500 200/06 RMK AO2 T00830028
93073KASE ASE20160613013010906/13/16 01:30:31  5-MIN KASE 130830Z AUTO 20007KT 10SM CLR 08/03 A3030 7500 68 8500 190/07 RMK AO2 T00830028
93073KASE ASE20160613013510906/13/16 01:35:31  5-MIN KASE 130835Z AUTO 22008KT 10SM CLR 08/03 A3029 7500 70 8400 210/08 RMK AO2 T00780028
93073KASE ASE20160613014010906/13/16 01:40:31  5-MIN KASE 130840Z AUTO 20008KT 10SM CLR 08/03 A3029 7500 70 8400 190/08 RMK AO2 T00780028
93073KASE ASE20160613014510906/13/16 01:45:31  5-MIN KASE 130845Z AUTO 22009KT 10SM CLR 08/03 A3029 7500 70 8400 210/09 RMK AO2 T00780028
93073KASE ASE20160613015012206/13/16 01:50:31  5-MIN KASE 130850Z AUTO 21008KT 10SM CLR 08/03 A3029 7500 68 8500 210/08 RMK AO2 SLP147 T00830028 50001
93073KASE ASE20160613015510906/13/16 01:55:31  5-MIN KASE 130855Z AUTO 22010KT 10SM CLR 09/03 A3029 7500 65 8600 210/10 RMK AO2 T00890028
93073KASE ASE20160613020010906/13/16 02:00:31  5-MIN KASE 130900Z AUTO 20008KT 10SM CLR 09/03 A3029 7500 63 8600 200/08 RMK AO2 T00940028
93073KASE ASE20160613020510906/13/16 02:05:31  5-MIN KASE 130905Z AUTO 21008KT 10SM CLR 10/02 A3028 7510 58 8700 200/08 RMK AO2 T01000022
93073KASE ASE20160613021010906/13/16 02:10:31  5-MIN KASE 130910Z AUTO 19008KT 10SM CLR 10/02 A3028 7510 58 8700 190/08 RMK AO2 T01000022
93073KASE ASE20160613021510906/13/16 02:15:31  5-MIN KASE 130915Z AUTO 21008KT 10SM CLR 09/02 A3028 7510 60 8600 200/08 RMK AO2 T00940022
93073KASE ASE20160613022010906/13/16 02:20:31  5-MIN KASE 130920Z AUTO 21008KT 10SM CLR 09/02 A3028 7510 60 8600 200/08 RMK AO2 T00940022
93073KASE ASE20160613022510906/13/16 02:25:31  5-MIN KASE 130925Z AUTO 19006KT 10SM CLR 09/02 A3029 7510 60 8600 180/06 RMK AO2 T00940022
93073KASE ASE20160613023010906/13/16 02:30:31  5-MIN KASE 130930Z AUTO 21008KT 10SM CLR 09/02 A3029 7500 60 8600 200/08 RMK AO2 T00940022
93073KASE ASE20160613023510906/13/16 02:35:31  5-MIN KASE 130935Z AUTO 21008KT 10SM CLR 09/02 A3028 7510 60 8600 200/08 RMK AO2 T00940022
93073KASE ASE20160613024010906/13/16 02:40:31  5-MIN KASE 130940Z AUTO 20008KT 10SM CLR 09/02 A3028 7510 60 8600 190/08 RMK AO2 T00940022
93073KASE ASE20160613024510906/13/16 02:45:31  5-MIN KASE 130945Z AUTO 21009KT 10SM CLR 09/02 A3028 7510 60 8600 200/09 RMK AO2 T00940022
93073KASE ASE20160613025011606/13/16 02:50:31  5-MIN KASE 130950Z AUTO 22009KT 10SM CLR 09/02 A3028 7510 60 8600 210/09 RMK AO2 SLP147 T00940022
93073KASE ASE20160613025510906/13/16 02:55:31  5-MIN KASE 130955Z AUTO 21009KT 10SM CLR 09/02 A3028 7510 60 8600 200/09 RMK AO2 T00940022
93073KASE ASE20160613030010906/13/16 03:00:31  5-MIN KASE 131000Z AUTO 22009KT 10SM CLR 09/02 A3028 7510 60 8600 210/09 RMK AO2 T00940022
93073KASE ASE20160613030510906/13/16 03:05:31  5-MIN KASE 131005Z AUTO 22008KT 10SM CLR 09/02 A3028 7510 60 8600 210/08 RMK AO2 T00940022
93073KASE ASE20160613031010906/13/16 03:10:31  5-MIN KASE 131010Z AUTO 21008KT 10SM CLR 09/02 A3028 7510 63 8600 200/08 RMK AO2 T00890022
93073KASE ASE20160613031510906/13/16 03:15:31  5-MIN KASE 131015Z AUTO 20007KT 10SM CLR 10/02 A3028 7510 56 8700 190/07 RMK AO2 T01000017
93073KASE ASE20160613032010906/13/16 03:20:31  5-MIN KASE 131020Z AUTO 21008KT 10SM CLR 10/02 A3028 7510 56 8700 200/08 RMK AO2 T01000017
93073KASE ASE20160613032510906/13/16 03:25:31  5-MIN KASE 131025Z AUTO 21007KT 10SM CLR 09/02 A3028 7510 63 8600 200/07 RMK AO2 T00890022
93073KASE ASE20160613033010906/13/16 03:30:31  5-MIN KASE 131030Z AUTO 19005KT 10SM CLR 09/02 A3027 7520 63 8600 180/05 RMK AO2 T00890022
93073KASE ASE20160613033510906/13/16 03:35:31  5-MIN KASE 131035Z AUTO 21009KT 10SM CLR 09/02 A3028 7510 60 8600 200/09 RMK AO2 T00940022
93073KASE ASE20160613034010906/13/16 03:40:31  5-MIN KASE 131040Z AUTO 22009KT 10SM CLR 09/02 A3028 7510 60 8600 210/09 RMK AO2 T00940022
93073KASE ASE20160613034510906/13/16 03:45:31  5-MIN KASE 131045Z AUTO 21008KT 10SM CLR 10/02 A3028 7510 58 8700 200/08 RMK AO2 T01000022
93073KASE ASE20160613035011906/13/16 03:50:31  5-MIN KASE 131050Z AUTO 18006KT 10SM FEW110 11/02 A3028 7510 54 8800 170/06 RMK AO2 SLP145 T01060017
93073KASE ASE20160613035511206/13/16 03:55:31  5-MIN KASE 131055Z AUTO 20006KT 10SM SCT110 09/02 A3028 7510 60 8600 190/06 RMK AO2 T00940022
93073KASE ASE20160613040011206/13/16 04:00:31  5-MIN KASE 131100Z AUTO 20005KT 10SM FEW110 10/02 A3028 7510 56 8700 200/05 RMK AO2 T01000017
93073KASE ASE20160613040511206/13/16 04:05:31  5-MIN KASE 131105Z AUTO 19005KT 10SM FEW110 10/02 A3028 7510 56 8700 180/05 RMK AO2 T01000017
93073KASE ASE20160613041011206/13/16 04:10:31  5-MIN KASE 131110Z AUTO 21007KT 10SM SCT110 09/02 A3029 7500 60 8600 200/07 RMK AO2 T00940022
93073KASE ASE20160613041511206/13/16 04:15:31  5-MIN KASE 131115Z AUTO 21004KT 10SM SCT110 10/02 A3029 7500 56 8700 200/04 RMK AO2 T01000017
93073KASE ASE20160613042011206/13/16 04:20:31  5-MIN KASE 131120Z AUTO 00000KT 10SM SCT110 09/02 A3029 7510 60 8600 000/00 RMK AO2 T00940022
93073KASE ASE20160613042511206/13/16 04:25:31  5-MIN KASE 131125Z AUTO 00000KT 10SM SCT110 08/02 A3029 7500 65 8500 000/00 RMK AO2 T00830022
93073KASE ASE20160613043011206/13/16 04:30:31  5-MIN KASE 131130Z AUTO 00000KT 10SM SCT110 09/02 A3029 7500 60 8600 000/00 RMK AO2 T00890017
93073KASE ASE20160613043511206/13/16 04:35:31  5-MIN KASE 131135Z AUTO 00000KT 10SM SCT110 09/02 A3029 7500 63 8600 000/00 RMK AO2 T00890022
93073KASE ASE20160613044011206/13/16 04:40:31  5-MIN KASE 131140Z AUTO 00000KT 10SM FEW120 08/02 A3029 7500 65 8500 000/00 RMK AO2 T00830022
93073KASE ASE20160613044511206/13/16 04:45:31  5-MIN KASE 131145Z AUTO 00000KT 10SM SCT110 08/02 A3029 7500 65 8500 000/00 RMK AO2 T00830022
93073KASE ASE20160613045013706/13/16 04:50:31  5-MIN KASE 131150Z AUTO 00000KT 10SM SCT110 08/02 A3029 7500 68 8400 000/00 RMK AO2 SLP151 T00780022 10117 20078 56007
93073KASE ASE20160613045511206/13/16 04:55:31  5-MIN KASE 131155Z AUTO 00000KT 10SM SCT120 08/02 A3029 7500 68 8400 000/00 RMK AO2 T00780022
93073KASE ASE20160613050011206/13/16 05:00:31  5-MIN KASE 131200Z AUTO 24004KT 10SM FEW120 08/02 A3029 7500 68 8400 230/04 RMK AO2 T00780022
93073KASE ASE20160613050511206/13/16 05:05:31  5-MIN KASE 131205Z AUTO 00000KT 10SM SCT120 08/02 A3029 7500 68 8400 000/00 RMK AO2 T00780022
93073KASE ASE20160613051011206/13/16 05:10:31  5-MIN KASE 131210Z AUTO 23006KT 10SM BKN120 08/02 A3029 7500 65 8500 220/06 RMK AO2 T00830022
93073KASE ASE20160613051511206/13/16 05:15:31  5-MIN KASE 131215Z AUTO 22005KT 10SM BKN120 09/02 A3030 7500 60 8600 210/05 RMK AO2 T00940022
93073KASE ASE20160613052011206/13/16 05:20:31  5-MIN KASE 131220Z AUTO 17004KT 10SM BKN120 10/02 A3030 7500 58 8700 170/04 RMK AO2 T01000022
93073KASE ASE20160613052511206/13/16 05:25:31  5-MIN KASE 131225Z AUTO 19004KT 10SM BKN120 09/02 A3029 7500 60 8600 180/04 RMK AO2 T00940022
93073KASE ASE20160613053011206/13/16 05:30:31  5-MIN KASE 131230Z AUTO 00000KT 10SM BKN110 09/03 A3029 7500 63 8600 000/00 RMK AO2 T00940028
93073KASE ASE20160613053511206/13/16 05:35:31  5-MIN KASE 131235Z AUTO 00000KT 10SM BKN110 09/03 A3029 7500 63 8600 000/00 RMK AO2 T00940028
93073KASE ASE20160613054011206/13/16 05:40:31  5-MIN KASE 131240Z AUTO 00000KT 10SM BKN110 10/03 A3029 7500 63 8700 000/00 RMK AO2 T01000033
93073KASE ASE20160613054511206/13/16 05:45:31  5-MIN KASE 131245Z AUTO 00000KT 10SM SCT120 10/03 A3030 7490 63 8700 000/00 RMK AO2 T01000033
93073KASE ASE20160613055011406/13/16 05:50:31  5-MIN KASE 131250Z 00000KT 10SM SCT120 11/03 A3029 7500 58 8700 000/00 RMK AO2 SLP144 T01060028
93073KASE ASE20160613055510706/13/16 05:55:31  5-MIN KASE 131255Z 00000KT 10SM SCT120 10/03 A3029 7500 60 8700 000/00 RMK AO2 T01000028
93073KASE ASE20160613060010706/13/16 06:00:31  5-MIN KASE 131300Z 00000KT 10SM FEW120 09/04 A3029 7500 68 8600 000/00 RMK AO2 T00940039
93073KASE ASE20160613060510706/13/16 06:05:31  5-MIN KASE 131305Z 00000KT 10SM FEW120 11/03 A3029 7500 61 8700 000/00 RMK AO2 T01060033
93073KASE ASE20160613061010706/13/16 06:10:31  5-MIN KASE 131310Z 00000KT 10SM SCT120 11/03 A3029 7500 58 8800 000/00 RMK AO2 T01110033
93073KASE ASE20160613061510706/13/16 06:15:31  5-MIN KASE 131315Z 00000KT 10SM FEW120 12/04 A3029 7500 56 8900 000/00 RMK AO2 T01220039
93073KASE ASE20160613062010706/13/16 06:20:31  5-MIN KASE 131320Z 35003KT 10SM SCT120 13/03 A3029 7500 52 9000 340/03 RMK AO2 T01280033
93073KASE ASE20160613062510706/13/16 06:25:31  5-MIN KASE 131325Z 01004KT 10SM BKN120 13/04 A3030 7500 54 9000 360/04 RMK AO2 T01280039
93073KASE ASE20160613063010706/13/16 06:30:31  5-MIN KASE 131330Z 01004KT 10SM BKN110 13/03 A3030 7490 50 9000 360/04 RMK AO2 T01330033
93073KASE ASE20160613063510706/13/16 06:35:31  5-MIN KASE 131335Z 01006KT 10SM BKN110 13/03 A3030 7490 52 9000 360/06 RMK AO2 T01280033
93073KASE ASE20160613064010706/13/16 06:40:31  5-MIN KASE 131340Z 34007KT 10SM BKN110 12/04 A3031 7480 61 8800 330/07 RMK AO2 T01170044
93073KASE ASE20160613064510706/13/16 06:45:31  5-MIN KASE 131345Z 32008KT 10SM OVC110 11/04 A3031 7480 63 8700 310/08 RMK AO2 T01060039
93073KASE ASE20160613065011406/13/16 06:50:31  5-MIN KASE 131350Z 31008KT 10SM BKN110 11/03 A3031 7480 61 8700 300/08 RMK AO2 SLP155 T01060033
93073KASE ASE20160613065510706/13/16 06:55:31  5-MIN KASE 131355Z 32006KT 10SM OVC110 11/03 A3032 7480 56 8800 310/06 RMK AO2 T01110028
93073KASE ASE20160613070010706/13/16 07:00:31  5-MIN KASE 131400Z 32007KT 10SM OVC110 12/03 A3031 7480 54 8800 310/07 RMK AO2 T01170028
93073KASE ASE20160613070510706/13/16 07:05:31  5-MIN KASE 131405Z 35006KT 10SM BKN110 12/02 A3031 7480 50 8900 340/06 RMK AO2 T01220022
93073KASE ASE20160613071010706/13/16 07:10:31  5-MIN KASE 131410Z 33003KT 10SM BKN110 12/03 A3031 7480 54 8900 320/03 RMK AO2 T01220033
93073KASE ASE20160613071510706/13/16 07:15:31  5-MIN KASE 131415Z 00000KT 10SM BKN110 12/03 A3032 7480 52 8900 000/00 RMK AO2 T01220028
93073KASE ASE20160613072010706/13/16 07:20:31  5-MIN KASE 131420Z 00000KT 10SM BKN110 13/02 A3032 7470 48 9000 000/00 RMK AO2 T01280022
93073KASE ASE20160613072510706/13/16 07:25:31  5-MIN KASE 131425Z 00000KT 10SM BKN110 13/02 A3032 7470 48 9000 000/00 RMK AO2 T01280022
93073KASE ASE20160613073010606/13/16 07:30:31  5-MIN KASE 131430Z 00000KT 8SM BKN110 13/04 A3032 7470 54 9000 000/00 RMK AO2 T01280039
93073KASE ASE20160613073510606/13/16 07:35:31  5-MIN KASE 131435Z 00000KT 8SM BKN110 13/04 A3032 7470 54 9000 000/00 RMK AO2 T01280039
93073KASE ASE20160613074010706/13/16 07:40:31  5-MIN KASE 131440Z 00000KT 10SM BKN110 13/03 A3032 7470 52 9000 000/00 RMK AO2 T01280033
93073KASE ASE20160613074510706/13/16 07:45:31  5-MIN KASE 131445Z 00000KT 10SM BKN110 13/03 A3032 7470 50 9000 000/00 RMK AO2 T01280028
93073KASE ASE20160613075012006/13/16 07:50:31  5-MIN KASE 131450Z 00000KT 10SM BKN100 13/03 A3032 7470 48 9000 000/00 RMK AO2 SLP160 T01330028 55001
93073KASE ASE20160613075510706/13/16 07:55:31  5-MIN KASE 131455Z VRB03KT 10SM OVC095 14/03 A3032 7470 48 9100 VRB/03 RMK AO2 T01390033
93073KASE ASE20160613080010706/13/16 08:00:31  5-MIN KASE 131500Z 00000KT 10SM OVC100 14/03 A3032 7470 45 9100 000/00 RMK AO2 T01440028
93073KASE ASE20160613080510706/13/16 08:05:31  5-MIN KASE 131505Z 00000KT 10SM OVC100 14/03 A3032 7470 45 9100 000/00 RMK AO2 T01440028
93073KASE ASE20160613081010706/13/16 08:10:31  5-MIN KASE 131510Z 00000KT 10SM BKN100 14/03 A3032 7480 47 9100 000/00 RMK AO2 T01440033
93073KASE ASE20160613081510706/13/16 08:15:31  5-MIN KASE 131515Z 00000KT 10SM BKN100 14/03 A3031 7480 47 9200 000/00 RMK AO2 T01440033
93073KASE ASE20160613082010706/13/16 08:20:31  5-MIN KASE 131520Z 00000KT 10SM BKN100 15/03 A3031 7490 43 9200 000/00 RMK AO2 T01500028
93073KASE ASE20160613082510706/13/16 08:25:31  5-MIN KASE 131525Z 00000KT 10SM BKN110 16/03 A3030 7490 43 9300 000/00 RMK AO2 T01560033
93073KASE ASE20160613083010606/13/16 08:30:31  5-MIN KASE 131530Z 04003KT 8SM BKN110 16/04 A3030 7490 45 9300 030/03 RMK AO2 T01560039
93073KASE ASE20160613083510606/13/16 08:35:31  5-MIN KASE 131535Z 34003KT 8SM BKN110 16/04 A3030 7490 45 9300 330/03 RMK AO2 T01560039
93073KASE ASE20160613084010706/13/16 08:40:31  5-MIN KASE 131540Z 00000KT 10SM BKN110 16/04 A3030 7490 44 9400 000/00 RMK AO2 T01610039
93073KASE ASE20160613084510706/13/16 08:45:31  5-MIN KASE 131545Z VRB03KT 10SM BKN110 16/04 A3029 7500 44 9400 VRB/03 RMK AO2 T01610039
93073KASE ASE20160613085011406/13/16 08:50:31  5-MIN KASE 131550Z 00000KT 10SM BKN120 17/04 A3029 7500 42 9400 000/00 RMK AO2 SLP144 T01670039
93073KASE ASE20160613085510706/13/16 08:55:31  5-MIN KASE 131555Z VRB03KT 10SM BKN110 17/03 A3029 7500 39 9500 VRB/03 RMK AO2 T01720033
93073KASE ASE20160613090010706/13/16 09:00:31  5-MIN KASE 131600Z VRB05KT 10SM BKN110 17/04 A3029 7500 41 9500 VRB/05 RMK AO2 T01720039
93073KASE ASE20160613090510706/13/16 09:05:31  5-MIN KASE 131605Z 35006KT 10SM BKN110 17/04 A3030 7500 41 9500 340/06 RMK AO2 T01720039
93073KASE ASE20160613091011406/13/16 09:10:31  5-MIN KASE 131610Z 01006KT 10SM BKN100 BKN110 17/04 A3029 7500 42 9400 360/06 RMK AO2 T01670039
93073KASE ASE20160613091511406/13/16 09:15:31  5-MIN KASE 131615Z 36009KT 10SM BKN100 BKN110 16/04 A3028 7510 45 9400 350/09 RMK AO2 T01610044
93073KASE ASE20160613092010706/13/16 09:20:31  5-MIN KASE 131620Z 01007KT 10SM BKN100 16/04 A3029 7500 47 9300 360/07 RMK AO2 T01560044
93073KASE ASE20160613092510706/13/16 09:25:31  5-MIN KASE 131625Z 01005KT 10SM OVC100 16/06 A3029 7500 51 9300 360/05 RMK AO2 T01560056
93073KASE ASE20160613093010706/13/16 09:30:31  5-MIN KASE 131630Z 35003KT 10SM OVC100 17/06 A3029 7500 47 9400 340/03 RMK AO2 T01670056
93073KASE ASE20160613093510706/13/16 09:35:31  5-MIN KASE 131635Z 03005KT 10SM BKN060 17/05 A3029 7500 45 9400 020/05 RMK AO2 T01670050
93073KASE ASE20160613094010706/13/16 09:40:31  5-MIN KASE 131640Z 03004KT 10SM BKN060 17/06 A3029 7500 47 9400 020/04 RMK AO2 T01670056
93073KASE ASE20160613094510706/13/16 09:45:31  5-MIN KASE 131645Z 00000KT 10SM BKN060 16/04 A3029 7500 45 9400 000/00 RMK AO2 T01610044
93073KASE ASE20160613095011406/13/16 09:50:31  5-MIN KASE 131650Z 04003KT 10SM BKN075 17/04 A3028 7510 44 9400 030/03 RMK AO2 SLP144 T01670044
93073KASE ASE20160613095511406/13/16 09:55:31  5-MIN KASE 131655Z 00000KT 10SM FEW080 BKN100 17/04 A3028 7510 42 9500 000/00 RMK AO2 T01720044
93073KASE ASE20160613100011406/13/16 10:00:31  5-MIN KASE 131700Z VRB04KT 10SM FEW080 BKN100 18/04 A3027 7520 39 9600 VRB/04 RMK AO2 T01780039
93073KASE ASE20160613100510706/13/16 10:05:31  5-MIN KASE 131705Z 33004KT 10SM SCT100 18/03 A3027 7520 36 9600 320/04 RMK AO2 T01830033
93073KASE ASE20160613101010706/13/16 10:10:31  5-MIN KASE 131710Z VRB04KT 10SM FEW095 18/03 A3027 7520 36 9600 VRB/04 RMK AO2 T01830033
93073KASE ASE20160613101510706/13/16 10:15:31  5-MIN KASE 131715Z 01007KT 10SM FEW085 19/04 A3026 7530 36 9700 360/07 RMK AO2 T01890039
93073KASE ASE20160613102010406/13/16 10:20:31  5-MIN KASE 131720Z 01008KT 10SM CLR 18/04 A3026 7530 38 9600 360/08 RMK AO2 T01830039
93073KASE ASE20160613102511506/13/16 10:25:31  5-MIN KASE 131725Z 01005KT 9SM CLR 19/04 A3025 7530 38 9700 360/05 RMK AO2 LTG DSNT NW T01890044
93073KASE ASE20160613103011506/13/16 10:30:31  5-MIN KASE 131730Z 33006KT 9SM CLR 19/04 A3025 7540 38 9700 320/06 RMK AO2 LTG DSNT NW T01890044
93073KASE ASE20160613103511606/13/16 10:35:31  5-MIN KASE 131735Z 34009KT 10SM CLR 19/04 A3024 7540 37 9800 330/09 RMK AO2 LTG DSNT NW T01940044
93073KASE ASE20160613104010406/13/16 10:40:31  5-MIN KASE 131740Z 34008KT 10SM CLR 20/04 A3024 7540 34 9800 330/08 RMK AO2 T02000039
93073KASE ASE20160613104510406/13/16 10:45:31  5-MIN KASE 131745Z 35009KT 10SM CLR 20/04 A3024 7550 34 9800 340/09 RMK AO2 T02000039
93073KASE ASE20160613105014806/13/16 10:50:31  5-MIN KASE 131750Z 35009KT 310V020 10SM SCT075 21/04 A3024 7550 33 9900 340/09 300V010 RMK AO2 SLP119 T02060039 10206 20072 53009
93073KASE ASE20160613105511006/13/16 10:55:31  5-MIN KASE 131755Z 34013G17KT 10SM CLR 20/04 A3023 7550 34 9800 330/13G17 RMK AO2 T02000039
93073KASE ASE20160613110010706/13/16 11:00:31  5-MIN KASE 131800Z 34013KT 10SM FEW110 19/04 A3023 7550 36 9700 330/13 RMK AO2 T01890039
93073KASE ASE20160613110510706/13/16 11:05:31  5-MIN KASE 131805Z 32016KT 10SM SCT100 18/03 A3024 7550 36 9600 310/16 RMK AO2 T01780028
93073KASE ASE20160613111012506/13/16 11:10:31  5-MIN KASE 131810Z 33012KT 10SM FEW080 BKN100 17/03 A3024 7540 37 9500 320/12 RMK AO2 LTG DSNT S T01720028
93073KASE ASE20160613111514706/13/16 11:15:31  5-MIN KASE 131815Z 30009G19KT 250V360 10SM SCT080 BKN100 17/03 A3024 7540 37 9500 290/09G19 240V350 RMK AO2 LTG DSNT S T01720028
93073KASE ASE20160613112013106/13/16 11:20:31  5-MIN KASE 131820Z 23007G19KT 10SM BKN080 BKN100 16/02 A3025 7540 39 9400 220/07G19 RMK AO2 LTG DSNT S T01610022
93073KASE ASE20160613112513806/13/16 11:25:31  5-MIN KASE 131825Z 24013G23KT 10SM FEW060 BKN075 OVC100 16/03 A3024 7540 43 9400 230/13G23 RMK AO2 LTG DSNT W T01560033
93073KASE ASE20160613113015906/13/16 11:30:31  5-MIN KASE 131830Z 22014G25KT 10SM VCTS -RA FEW060 BKN075 BKN100 16/04 A3025 7540 47 9300 210/14G25 RMK AO2 LTG DSNT W RAB26 P0000 T01560044
93073KASE ASE20160613113515906/13/16 11:35:31  5-MIN KASE 131835Z 20015G25KT 10SM VCTS -RA FEW060 BKN075 BKN100 16/06 A3025 7540 49 9400 190/15G25 RMK AO2 LTG DSNT W RAB26 P0000 T01610056
93073KASE ASE20160613114017006/13/16 11:40:31  5-MIN KASE 131840Z 20012G23KT 10SM VCTS -RA FEW060 BKN075 BKN100 17/06 A3025 7540 46 9500 190/12G23 RMK AO2 WSHFT 1822 LTG DSNT W RAB26 P0000 T01720056
93073KASE ASE20160613114516906/13/16 11:45:31  5-MIN KASE 131845Z 18007G15KT 10SM VCTS FEW060 BKN075 BKN100 17/05 A3025 7540 44 9500 170/07G15 RMK AO2 WSHFT 1822 LTG DSNT W RAB26E45 P0000 T01720050
93073KASE ASE20160613115013706/13/16 11:50:31  5-MIN KASE 131850Z VRB06KT 10SM FEW060 BKN075 BKN100 17/04 A3024 7550 42 9500 VRB/06 RMK AO2 WSHFT 1822 RAB26E45 P0000
93073KASE ASE20160613115512106/13/16 11:55:31  5-MIN KASE 131855Z VRB04KT 10SM FEW050 SCT070 OVC095 18/04 A3023 7550 39 9600 VRB/04 RMK AO2 T01780039
93073KASE ASE20160613120012106/13/16 12:00:31  5-MIN KASE 131900Z VRB06KT 10SM FEW045 SCT080 BKN095 18/04 A3023 7560 39 9700 VRB/06 RMK AO2 T01830044
93073KASE ASE20160613120511806/13/16 12:05:31  5-MIN KASE 131905Z VRB04KT 10SM BKN090 19/04 A3023 7560 36 9700 VRB/04 RMK AO2 LTG DSNT W T01890039
93073KASE ASE20160613121011806/13/16 12:10:31  5-MIN KASE 131910Z VRB05KT 10SM SCT095 19/05 A3022 7560 38 9800 VRB/05 RMK AO2 LTG DSNT W T01940050
93073KASE ASE20160613121513106/13/16 12:15:31  5-MIN KASE 131915Z 33013G18KT 10SM SCT095 19/06 A3022 7560 40 9800 320/13G18 RMK AO2 LTG DSNT SW AND W T01940056
93073KASE ASE20160613122012806/13/16 12:20:31  5-MIN KASE 131920Z 31012G18KT 10SM FEW090 19/06 A3022 7560 40 9800 300/12G18 RMK AO2 LTG DSNT SW-NW T01940056
93073KASE ASE20160613122512806/13/16 12:25:31  5-MIN KASE 131925Z 31010G18KT 10SM FEW085 19/06 A3021 7570 40 9800 300/10G18 RMK AO2 LTG DSNT SW-NW T01940056
93073KASE ASE20160613123013606/13/16 12:30:31  5-MIN KASE 131930Z 33013G18KT 10SM CLR 19/06 A3021 7570 41 9800 320/13G18 RMK AO2 WSHFT 1913 LTG DSNT SW-NW T01940061
93073KASE ASE20160613123514906/13/16 12:35:31  5-MIN KASE 131935Z 33010G18KT 10SM SCT060 BKN080 18/06 A3021 7570 42 9700 320/10G18 RMK AO2 WSHFT 1913 LTG DSNT SW AND W T01830056
93073KASE ASE20160613124014306/13/16 12:40:31  5-MIN KASE 131940Z 32012KT 10SM SCT060 BKN080 18/06 A3021 7570 44 9600 310/12 RMK AO2 WSHFT 1913 LTG DSNT W AND NW T01780056
93073KASE ASE20160613124514006/13/16 12:45:31  5-MIN KASE 131945Z 31009KT 10SM SCT060 BKN080 17/05 A3021 7570 44 9600 300/09 RMK AO2 WSHFT 1913 LTG DSNT SW-NW T01720050
93073KASE ASE20160613125015306/13/16 12:50:31  5-MIN KASE 131950Z 31007KT 10SM FEW075 SCT100 BKN110 17/05 A3022 7570 45 9500 300/07 RMK AO2 WSHFT 1913 LTG DSNT S-NW SLP126 T01670050
93073KASE ASE20160613125514006/13/16 12:55:31  5-MIN KASE 131955Z 30008KT 10SM VCTS FEW075 SCT095 BKN110 16/06 A3022 7560 49 9400 300/08 RMK AO2 LTG DSNT S-NW T01610056
93073KASE ASE20160613130016606/13/16 13:00:31  5-MIN KASE 132000Z 30008G14KT 260V330 10SM VCTS SCT070 BKN090 BKN110 16/06 A3023 7560 49 9400 290/08G14 250V320 RMK AO2 LTG DSNT S AND NW T01610056
93073KASE ASE20160613130516606/13/16 13:05:31  5-MIN KASE 132005Z 27009G14KT 10SM VCTS -RA SCT065 BKN080 BKN100 16/06 A3023 7550 53 9400 260/09G14 RMK AO2 LTG DSNT S AND NW RAB02 P0000 T01560061
93073KASE ASE20160613131016506/13/16 13:10:31  5-MIN KASE 132010Z 29009G14KT 10SM VCTS -RA BKN070 BKN095 15/06 A3024 7540 55 9300 280/09G14 RMK AO2 LTG DSNT E AND S AND NW RAB02 P0000 T01500061
93073KASE ASE20160613131517106/13/16 13:15:31  5-MIN KASE 132015Z 26013G24KT 6SM VCTS -RA FEW036 BKN070 OVC095 15/05 A3024 7540 51 9300 250/13G24 RMK AO2 LTG DSNT E AND S AND NW RAB02 P0000 T01500050
93073KASE ASE20160613132019606/13/16 13:20:31  5-MIN KASE 132020Z 27016G28KT 3SM VCTS -RA FEW018 BKN070 OVC090 13/06 A3025 7530 61 9000 270/16G28 RMK AO2 PK WND 27028/2016 LTG DSNT E AND S AND NW RAB02 PRESRR P0000 T01280056
93073KASE ASE20160613132519006/13/16 13:25:31  5-MIN KASE 132025Z 28008G28KT 10SM VCTS -RA FEW018 BKN070 OVC080 13/05 A3025 7540 59 9000 270/08G28 RMK AO2 PK WND 27028/2016 LTG DSNT E AND S AND NW RAB02 P0000 T01280050
93073KASE ASE20160613133017006/13/16 13:30:31  5-MIN KASE 132030Z 31008KT 10SM -RA SCT048 BKN070 BKN080 14/05 A3024 7540 55 9200 300/08 RMK AO2 PK WND 27028/2016 LTG DSNT ALQDS RAB02 P0000 T01390050
93073KASE ASE20160613133518506/13/16 13:35:31  5-MIN KASE 132035Z 33007KT 300V360 10SM -RA SCT048 BKN070 BKN080 14/06 A3023 7550 57 9200 330/07 290V350 RMK AO2 PK WND 27028/2016 LTG DSNT NE-S RAB02 P0000 T01440061
93073KASE ASE20160613134016806/13/16 13:40:31  5-MIN KASE 132040Z 34006KT 10SM -RA SCT048 BKN070 BKN080 16/06 A3023 7560 51 9400 330/06 RMK AO2 PK WND 27028/2016 LTG DSNT N-E RAB02 P0000 T01560056
93073KASE ASE20160613134516706/13/16 13:45:31  5-MIN KASE 132045Z 36008KT 10SM SCT048 BKN070 BKN080 17/06 A3023 7560 47 9500 350/08 RMK AO2 PK WND 27028/2016 LTG DSNT N-E RAB02E45 P0000 T01670056
93073KASE ASE20160613135019506/13/16 13:50:31  5-MIN KASE 132050Z 02007KT 350V060 10SM SCT055 BKN070 17/06 A3022 7560 47 9600 020/07 340V050 RMK AO2 PK WND 27028/2016 LTG DSNT N-E RAB02E45 SLP134 P0000 60000 T01720061 58024
93073KASE ASE20160613135513306/13/16 13:55:31  5-MIN KASE 132055Z 01008KT 10SM FEW050 FEW060 SCT075 18/06 A3022 7560 46 9600 360/08 RMK AO2 LTG DSNT NE T01780061
93073KASE ASE20160613140013906/13/16 14:00:31  5-MIN KASE 132100Z 01014G20KT 10SM FEW040 FEW060 FEW075 17/06 A3022 7560 46 9600 360/14G20 RMK AO2 LTG DSNT NE T01720056
93073KASE ASE20160613140512506/13/16 14:05:31  5-MIN KASE 132105Z 35013G23KT 10SM SCT070 17/06 A3022 7560 47 9500 340/13G23 RMK AO2 LTG DSNT NE T01670056
93073KASE ASE20160613141012506/13/16 14:10:31  5-MIN KASE 132110Z 35010G23KT 10SM SCT065 17/05 A3022 7570 45 9500 340/10G23 RMK AO2 LTG DSNT NE T01670050
93073KASE ASE20160613141510706/13/16 14:15:31  5-MIN KASE 132115Z 36012KT 10SM SCT065 17/05 A3022 7560 45 9500 350/12 RMK AO2 T01670050
93073KASE ASE20160613142011406/13/16 14:20:31  5-MIN KASE 132120Z 34011KT 10SM FEW065 SCT080 17/06 A3022 7560 47 9500 330/11 RMK AO2 T01670056
93073KASE ASE20160613142511406/13/16 14:25:31  5-MIN KASE 132125Z 35011KT 10SM SCT070 BKN080 17/05 A3022 7560 45 9500 340/11 RMK AO2 T01670050
93073KASE ASE20160613143011406/13/16 14:30:31  5-MIN KASE 132130Z 32009KT 10SM BKN070 BKN080 16/05 A3022 7560 47 9400 310/09 RMK AO2 T01610050
93073KASE ASE20160613143512006/13/16 14:35:31  5-MIN KASE 132135Z 31013G19KT 10SM BKN075 BKN090 16/06 A3023 7560 49 9400 300/13G19 RMK AO2 T01610056
93073KASE ASE20160613144012006/13/16 14:40:31  5-MIN KASE 132140Z 30010G19KT 10SM BKN080 BKN090 16/06 A3022 7560 51 9400 290/10G19 RMK AO2 T01560056
93073KASE ASE20160613144512706/13/16 14:45:31  5-MIN KASE 132145Z 31013G17KT 10SM SCT080 BKN090 BKN110 16/06 A3022 7560 51 9400 300/13G17 RMK AO2 T01560056
93073KASE ASE20160613145013406/13/16 14:50:31  5-MIN KASE 132150Z 31008G17KT 10SM SCT080 BKN090 BKN110 15/06 A3022 7570 53 9300 300/08G17 RMK AO2 SLP136 T01500056
93073KASE ASE20160613145511406/13/16 14:55:31  5-MIN KASE 132155Z 30008KT 10SM SCT085 BKN110 16/06 A3022 7570 51 9400 290/08 RMK AO2 T01560056
93073KASE ASE20160613150011406/13/16 15:00:31  5-MIN KASE 132200Z 33006KT 10SM FEW090 SCT110 16/06 A3022 7570 53 9400 320/06 RMK AO2 T01560061
93073KASE ASE20160613150511406/13/16 15:05:31  5-MIN KASE 132205Z 35007KT 10SM FEW085 SCT110 16/06 A3022 7570 51 9400 340/07 RMK AO2 T01610061
93073KASE ASE20160613151011406/13/16 15:10:31  5-MIN KASE 132210Z 35007KT 10SM FEW090 SCT110 16/06 A3022 7570 51 9400 340/07 RMK AO2 T01610061
93073KASE ASE20160613151511406/13/16 15:15:31  5-MIN KASE 132215Z 32006KT 10SM FEW080 BKN110 16/06 A3021 7570 53 9400 310/06 RMK AO2 T01560061
93073KASE ASE20160613152011406/13/16 15:20:31  5-MIN KASE 132220Z 31007KT 10SM FEW085 BKN110 16/07 A3021 7580 55 9400 300/07 RMK AO2 T01560067
93073KASE ASE20160613152512506/13/16 15:25:31  5-MIN KASE 132225Z 29007KT 10SM SCT085 BKN110 15/06 A3021 7570 55 9300 280/07 RMK AO2 LTG DSNT W T01500061
93073KASE ASE20160613153013206/13/16 15:30:31  5-MIN KASE 132230Z 30007KT 10SM SCT075 BKN090 OVC110 14/06 A3021 7570 57 9300 290/07 RMK AO2 LTG DSNT W T01440061
93073KASE ASE20160613153513906/13/16 15:35:31  5-MIN KASE 132235Z VRB03KT 10SM SCT065 BKN080 OVC110 14/06 A3022 7560 57 9300 VRB/03 RMK AO2 LTG DSNT SE AND W T01440061
93073KASE ASE20160613154015106/13/16 15:40:31  5-MIN KASE 132240Z 27007KT 10SM -RA FEW043 BKN070 OVC110 14/07 A3023 7560 59 9200 260/07 RMK AO2 LTG DSNT SE-W RAB39 P0000 T01440067
93073KASE ASE20160613154515106/13/16 15:45:31  5-MIN KASE 132245Z 33007KT 10SM -RA FEW041 BKN065 OVC080 14/07 A3021 7570 61 9300 320/07 RMK AO2 LTG DSNT SE-W RAB39 P0000 T01440072
93073KASE ASE20160613155016206/13/16 15:50:31  5-MIN KASE 132250Z 32007KT 10SM -RA SCT041 BKN050 BKN080 14/07 A3022 7570 64 9200 310/07 RMK AO2 LTG DSNT SW AND W RAB39 SLP135 P0001 T01390072
93073KASE ASE20160613155514606/13/16 15:55:31  5-MIN KASE 132255Z VRB03KT 10SM -RA SCT041 BKN050 BKN070 14/08 A3022 7570 66 9200 VRB/03 RMK AO2 LTG DSNT SW-NW P0000 T01390078
93073KASE ASE20160613160014806/13/16 16:00:31  5-MIN KASE 132300Z 05003KT 10SM FEW043 SCT050 BKN065 14/07 A3021 7570 59 9300 040/03 RMK AO2 LTG DSNT SW-NW RAE00 P0000 T01440067
93073KASE ASE20160613160514806/13/16 16:05:31  5-MIN KASE 132305Z 36003KT 10SM FEW040 SCT050 BKN080 14/07 A3021 7580 61 9300 350/03 RMK AO2 LTG DSNT SW-NW RAE00 P0000 T01440072
93073KASE ASE20160613161014806/13/16 16:10:31  5-MIN KASE 132310Z VRB04KT 10SM FEW040 SCT050 BKN085 14/07 A3020 7580 61 9300 VRB/04 RMK AO2 LTG DSNT SW-NW RAE00 P0000 T01440072
93073KASE ASE20160613161514806/13/16 16:15:31  5-MIN KASE 132315Z 36004KT 10SM FEW040 FEW050 BKN090 14/07 A3020 7580 61 9300 350/04 RMK AO2 LTG DSNT SW-NW RAE00 P0000 T01440072
93073KASE ASE20160613162014106/13/16 16:20:31  5-MIN KASE 132320Z 00000KT 10SM BKN090 BKN110 14/07 A3020 7580 61 9300 000/00 RMK AO2 LTG DSNT SW-NW RAE00 P0000 T01440072
93073KASE ASE20160613162514106/13/16 16:25:31  5-MIN KASE 132325Z 00000KT 10SM BKN090 BKN110 14/07 A3021 7580 59 9300 000/00 RMK AO2 LTG DSNT ALQDS RAE00 P0000 T01440067
93073KASE ASE20160613163014806/13/16 16:30:31  5-MIN KASE 132330Z 30007KT 10SM SCT080 BKN100 OVC110 14/07 A3022 7570 59 9300 300/07 RMK AO2 LTG DSNT ALQDS RAE00 P0000 T01440067
93073KASE ASE20160613163514606/13/16 16:35:31  5-MIN KASE 132335Z 32007KT 10SM VCTS BKN080 OVC100 14/07 A3022 7560 64 9200 310/07 RMK AO2 LTG DSNT ALQDS RAE00 P0000 T01390072
93073KASE ASE20160613164015606/13/16 16:40:31  5-MIN KASE 132340Z 32007KT 10SM TS FEW065 BKN080 OVC110 14/07 A3023 7560 61 9200 320/07 RMK AO2 LTG DSNT NW-E RAE00 TSB36 P0000 T01390067
93073KASE ASE20160613164517906/13/16 16:45:31  5-MIN KASE 132345Z 33020G32KT 10SM TS SCT030 BKN080 OVC095 13/07 A3023 7550 64 9100 320/20G32 RMK AO2 PK WND 31032/2343 LTG DSNT N-E RAE00 TSB36 P0000 T01330067
93073KASE ASE20160613165022106/13/16 16:50:31  5-MIN KASE 132350Z 35016G32KT 10SM -TSRA FEW030 BKN042 OVC080 11/06 A3024 7550 71 8800 340/16G32 RMK AO2 PK WND 31032/2343 LTG DSNT N AND NE RAE00B46 TSB36 SLP159 P0000 60001 T01060056 10206 20106 56003
93073KASE ASE20160613165514806/13/16 16:55:31  5-MIN KASE 132355Z 35015G27KT 7SM TSRA FEW028 BKN044 OVC080 10/06 A3024 7550 74 8700 340/15G27 RMK AO2 LTG DSNT N P0000 T01000056
93073KASE ASE20160613170015806/13/16 17:00:31  5-MIN KASE 140000Z 36012G19KT 8SM VCTS -RA FEW032 BKN044 OVC070 09/06 A3025 7540 76 8700 350/12G19 RMK AO2 LTG DSNT N TSE00 P0000 T00940056
93073KASE ASE20160613170515306/13/16 17:05:31  5-MIN KASE 140005Z 03011KT 10SM VCTS -RA FEW030 BKN044 OVC060 09/06 A3024 7550 79 8600 020/11 RMK AO2 LTG DSNT N TSE00 P0000 T00890056
93073KASE ASE20160613171016806/13/16 17:10:31  5-MIN KASE 140010Z 03015G21KT 10SM VCTS FEW030 BKN060 OVC080 09/06 A3024 7550 79 8600 020/15G21 RMK AO2 LTG DSNT N AND NE RAE09 TSE00 P0000 T00890056
93073KASE ASE20160613171517206/13/16 17:15:31  5-MIN KASE 140015Z 03011G21KT 10SM VCTS -RA FEW043 BKN050 OVC110 09/06 A3025 7540 76 8700 020/11G21 RMK AO2 LTG DSNT ALQDS RAE09B11 TSE00 P0000 T00940056
93073KASE ASE20160613172016006/13/16 17:20:31  5-MIN KASE 140020Z 02009KT 10SM -RA FEW043 BKN085 OVC100 09/06 A3025 7540 76 8700 010/09 RMK AO2 LTG DSNT NE-S RAE09B11 TSE00 P0000 T00940056
93073KASE ASE20160613172515806/13/16 17:25:31  5-MIN KASE 140025Z 36008KT 10SM FEW049 SCT065 OVC100 09/06 A3025 7530 79 8700 360/08 RMK AO2 LTG DSNT E-S RAE09B11E21 TSE00 P0000 T00940061
93073KASE ASE20160613173016306/13/16 17:30:31  5-MIN KASE 140030Z 02007KT 10SM FEW055 SCT075 OVC100 09/06 A3026 7530 79 8700 020/07 RMK AO2 LTG DSNT SE AND S RAE09B11E21 TSE00 P0000 T00940061
93073KASE ASE20160613173516306/13/16 17:35:31  5-MIN KASE 140035Z 03007KT 10SM FEW070 SCT090 OVC110 10/05 A3026 7530 71 8700 030/07 RMK AO2 LTG DSNT SE AND S RAE09B11E21 TSE00 P0000 T01000050
93073KASE ASE20160613174015006/13/16 17:40:31  5-MIN KASE 140040Z 35004KT 10SM FEW070 OVC110 10/05 A3025 7530 71 8700 340/04 RMK AO2 LTG DSNT SE RAE09B11E21 TSE00 P0000 T01000050
93073KASE ASE20160613174515006/13/16 17:45:31  5-MIN KASE 140045Z VRB04KT 10SM FEW070 OVC110 10/05 A3025 7540 71 8700 VRB/04 RMK AO2 LTG DSNT SE RAE09B11E21 TSE00 P0000 T01000050
93073KASE ASE20160613175014506/13/16 17:50:31  5-MIN KASE 140050Z 00000KT 10SM FEW070 BKN110 11/06 A3025 7540 71 8800 000/00 RMK AO2 RAE09B11E21 TSE00 SLP156 P0000 T01060056
93073KASE ASE20160613175511406/13/16 17:55:31  5-MIN KASE 140055Z 22005KT 10SM FEW070 BKN110 10/06 A3025 7540 77 8700 210/05 RMK AO2 T01000061
93073KASE ASE20160613180011406/13/16 18:00:31  5-MIN KASE 140100Z 22004KT 10SM FEW070 BKN110 10/06 A3025 7540 74 8700 210/04 RMK AO2 T01000056
93073KASE ASE20160613180511406/13/16 18:05:31  5-MIN KASE 140105Z 22005KT 10SM SCT070 BKN110 11/06 A3025 7530 74 8800 210/05 RMK AO2 T01060061
93073KASE ASE20160613181011406/13/16 18:10:31  5-MIN KASE 140110Z 22003KT 10SM BKN070 BKN110 11/06 A3025 7540 74 8800 210/03 RMK AO2 T01060061
93073KASE ASE20160613181511406/13/16 18:15:31  5-MIN KASE 140115Z 22005KT 10SM BKN070 BKN110 11/06 A3025 7540 71 8800 210/05 RMK AO2 T01060056
93073KASE ASE20160613182010706/13/16 18:20:31  5-MIN KASE 140120Z 18004KT 10SM BKN070 11/05 A3024 7550 68 8800 170/04 RMK AO2 T01060050
93073KASE ASE20160613182510706/13/16 18:25:31  5-MIN KASE 140125Z 19007KT 10SM BKN070 11/06 A3024 7550 68 8900 180/07 RMK AO2 T01110056
93073KASE ASE20160613183010706/13/16 18:30:31  5-MIN KASE 140130Z 16009KT 10SM OVC070 11/05 A3024 7550 66 8900 150/09 RMK AO2 T01110050
93073KASE ASE20160613183511406/13/16 18:35:31  5-MIN KASE 140135Z 16008KT 10SM BKN070 OVC100 12/04 A3023 7550 61 8900 150/08 RMK AO2 T01170044
93073KASE ASE20160613184012106/13/16 18:40:31  5-MIN KASE 140140Z 14008KT 10SM BKN070 BKN095 OVC110 12/04 A3023 7560 61 8900 140/08 RMK AO2 T01170044
93073KASE ASE20160613184511406/13/16 18:45:31  5-MIN KASE 140145Z 15012KT 10SM SCT070 BKN120 12/05 A3023 7560 63 8900 140/12 RMK AO2 T01170050
93073KASE ASE20160613185012706/13/16 18:50:31  5-MIN KASE 140150Z 17012G18KT 10SM SCT070 BKN120 12/05 A3023 7550 63 8900 160/12G18 RMK AO2 SLP147 T01170050
93073KASE ASE20160613185512706/13/16 18:55:31  5-MIN KASE 140155Z 15010G18KT 10SM FEW070 SCT080 BKN110 12/05 A3023 7560 63 8900 140/10G18 RMK AO2 T01170050
93073KASE ASE20160613190011406/13/16 19:00:31  5-MIN KASE 140200Z 15010KT 10SM FEW080 SCT110 11/05 A3022 7570 66 8900 140/10 RMK AO2 T01110050
93073KASE ASE20160613190511406/13/16 19:05:31  5-MIN KASE 140205Z 15009KT 10SM FEW075 SCT120 11/05 A3022 7570 66 8900 150/09 RMK AO2 T01110050
93073KASE ASE20160613191012106/13/16 19:10:31  5-MIN KASE 140210Z 14010KT 10SM FEW060 FEW120 12/05 A3020 7590 63 9000 130/10 RMK AO2 PRESFR T01170050
93073KASE ASE20160613191510706/13/16 19:15:31  5-MIN KASE 140215Z 15008KT 10SM FEW120 11/05 A3019 7590 66 8900 140/08 RMK AO2 T01110050
93073KASE ASE20160613192010706/13/16 19:20:31  5-MIN KASE 140220Z 15009KT 10SM SCT110 12/05 A3019 7590 63 9000 140/09 RMK AO2 T01170050
93073KASE ASE20160613192510706/13/16 19:25:31  5-MIN KASE 140225Z 15008KT 10SM FEW120 12/05 A3019 7600 63 9000 150/08 RMK AO2 T01170050
93073KASE ASE20160613193010706/13/16 19:30:31  5-MIN KASE 140230Z 16009KT 10SM FEW110 12/05 A3018 7600 63 9000 150/09 RMK AO2 T01170050
93073KASE ASE20160613193510706/13/16 19:35:31  5-MIN KASE 140235Z 15010KT 10SM FEW110 11/05 A3019 7600 66 8900 150/10 RMK AO2 T01110050
93073KASE ASE20160613194010706/13/16 19:40:31  5-MIN KASE 140240Z 16008KT 10SM FEW110 11/04 A3019 7600 63 8900 150/08 RMK AO2 T01110044
93073KASE ASE20160613194510406/13/16 19:45:31  5-MIN KASE 140245Z 16006KT 10SM CLR 11/04 A3019 7590 63 8900 150/06 RMK AO2 T01110044
93073KASE ASE20160613195012306/13/16 19:50:31  5-MIN KASE 140250Z VRB04KT 10SM CLR 11/04 A3019 7590 63 8900 VRB/04 RMK AO2 SLP128 60000 T01110044 53005
93073KASE ASE20160613195510406/13/16 19:55:31  5-MIN KASE 140255Z VRB03KT 10SM CLR 11/04 A3020 7580 66 8800 VRB/03 RMK AO2 T01060044
93073KASE ASE20160613200010406/13/16 20:00:31  5-MIN KASE 140300Z 00000KT 10SM CLR 10/05 A3020 7580 71 8800 000/00 RMK AO2 T01000050
93073KASE ASE20160613200510406/13/16 20:05:31  5-MIN KASE 140305Z 00000KT 10SM CLR 09/05 A3021 7580 76 8600 000/00 RMK AO2 T00890050
93073KASE ASE20160613201010406/13/16 20:10:31  5-MIN KASE 140310Z 00000KT 10SM CLR 08/04 A3021 7580 76 8600 000/00 RMK AO2 T00830044
93073KASE ASE20160613201511506/13/16 20:15:31  5-MIN KASE 140315Z 00000KT 10SM CLR 09/04 A3021 7570 73 8600 000/00 RMK AO2 LTG DSNT W T00890044
93073KASE ASE20160613202011506/13/16 20:20:31  5-MIN KASE 140320Z 18004KT 10SM CLR 08/04 A3022 7570 76 8600 170/04 RMK AO2 LTG DSNT W T00830044
93073KASE ASE20160613202511506/13/16 20:25:31  5-MIN KASE 140325Z VRB04KT 10SM CLR 08/04 A3022 7570 79 8500 VRB/04 RMK AO2 LTG DSNT W T00780044
93073KASE ASE20160613203012506/13/16 20:30:31  5-MIN KASE 140330Z 33005KT 10SM FEW080 SCT090 08/04 A3022 7560 79 8500 320/05 RMK AO2 LTG DSNT W T00780044
93073KASE ASE20160613203512506/13/16 20:35:31  5-MIN KASE 140335Z 33006KT 10SM FEW075 SCT090 08/05 A3024 7550 79 8500 320/06 RMK AO2 LTG DSNT W T00830050
93073KASE ASE20160613204010706/13/16 20:40:31  5-MIN KASE 140340Z VRB05KT 10SM BKN085 08/06 A3024 7550 82 8500 VRB/05 RMK AO2 T00830056
93073KASE ASE20160613204510706/13/16 20:45:31  5-MIN KASE 140345Z VRB03KT 10SM BKN085 08/06 A3025 7540 82 8500 VRB/03 RMK AO2 T00830056
93073KASE ASE20160613205012806/13/16 20:50:31  5-MIN KASE 140350Z VRB05KT 10SM FEW028 OVC080 09/06 A3026 7530 79 8600 VRB/05 RMK AO2 PRESRR SLP148 T00890056
93073KASE ASE20160613205512806/13/16 20:55:31  5-MIN KASE 140355Z VRB04KT 10SM FEW028 SCT042 OVC080 09/06 A3027 7520 79 8600 VRB/04 RMK AO2 PRESRR T00890056
93073KASE ASE20160613210011806/13/16 21:00:31  5-MIN KASE 140400Z 10SM SCT028 BKN042 OVC085 09/05 A3028 7510 76 8600 M /M RMK AO2 PRESRR T00890050
93073KASE ASE20160613210513406/13/16 21:05:31  5-MIN KASE 140405Z 34011G17KT 10SM BKN028 BKN042 OVC080 09/04 A3028 7510 73 8600 330/11G17 RMK AO2 PRESRR T00890044
93073KASE ASE20160613211012706/13/16 21:10:31  5-MIN KASE 140410Z 34010G17KT 10SM FEW015 BKN028 OVC080 08/04 A3028 7510 73 8500 330/10G17 RMK AO2 T00830039
93073KASE ASE20160613211514306/13/16 21:15:31  5-MIN KASE 140415Z 35014G18KT 10SM -RA FEW015 BKN027 OVC044 08/04 A3029 7510 76 8500 340/14G18 RMK AO2 RAB11 P0000 T00830044
93073KASE ASE20160613212014306/13/16 21:20:31  5-MIN KASE 140420Z 01006G18KT 10SM -RA FEW015 BKN027 OVC048 08/04 A3028 7510 79 8400 360/06G18 RMK AO2 RAB11 P0000 T00780044
93073KASE ASE20160613212513606/13/16 21:25:31  5-MIN KASE 140425Z 02006KT 8SM -RA FEW015 BKN036 OVC048 07/04 A3028 7510 82 8400 010/06 RMK AO2 RAB11 P0001 T00720044
93073KASE ASE20160613213013506/13/16 21:30:31  5-MIN KASE 140430Z 01008KT 6SM RA FEW022 BKN029 OVC048 07/04 A3029 7500 82 8400 360/08 RMK AO2 RAB11 P0002 T00720044
93073KASE ASE20160613213513806/13/16 21:35:31  5-MIN KASE 140435Z 04010KT 4SM RA BR FEW014 BKN027 OVC048 07/05 A3027 7520 89 8300 030/10 RMK AO2 RAB11 P0004 T00670050
93073KASE ASE20160613214013806/13/16 21:40:31  5-MIN KASE 140440Z 05010KT 3SM RA BR BKN023 BKN033 OVC047 07/05 A3027 7520 89 8300 040/10 RMK AO2 RAB11 P0006 T00670050
93073KASE ASE20160613214514606/13/16 21:45:31  5-MIN KASE 140445Z 06007KT 4SM -RA BR BKN019 BKN023 OVC047 07/04 A3025 7540 86 8300 050/07 RMK AO2 RAB11 PRESFR P0007 T00670044
93073KASE ASE20160613215014306/13/16 21:50:31  5-MIN KASE 140450Z VRB05KT 8SM -RA BKN019 BKN047 07/04 A3024 7550 86 8400 VRB/05 RMK AO2 RAB11 PRESFR SLP147 P0007 T00670044
93073KASE ASE20160613215513506/13/16 21:55:31  5-MIN KASE 140455Z 08007KT 050V130 10SM SCT019 07/04 A3024 7550 82 8400 070/07 040V120 RMK AO2 RAE54 P0000 T00720044
93073KASE ASE20160613220013706/13/16 22:00:31  5-MIN KASE 140500Z 09009KT 060V120 10SM SCT017 07/04 A3024 7550 79 8400 080/09 050V110 RMK AO2 RAE0454 P0000 T00720039
93073KASE ASE20160613220512106/13/16 22:05:31  5-MIN KASE 140505Z 16007KT 10SM FEW015 07/04 A3024 7550 82 8400 150/07 RMK AO2 RAE0454 P0000 T00720044
93073KASE ASE20160613221012106/13/16 22:10:31  5-MIN KASE 140510Z 17005KT 10SM FEW013 07/04 A3023 7550 86 8400 160/05 RMK AO2 RAE0454 P0000 T00670044
93073KASE ASE20160613221511806/13/16 22:15:31  5-MIN KASE 140515Z VRB04KT 10SM CLR 07/04 A3023 7550 86 8400 VRB/04 RMK AO2 RAE0454 P0000 T00670044
93073KASE ASE20160613222011806/13/16 22:20:31  5-MIN KASE 140520Z 19006KT 10SM CLR 06/04 A3023 7560 89 8300 180/06 RMK AO2 RAE0454 P0000 T00610044
93073KASE ASE20160613222511806/13/16 22:25:31  5-MIN KASE 140525Z 20006KT 10SM CLR 06/04 A3023 7560 89 8300 190/06 RMK AO2 RAE0454 P0000 T00610044
93073KASE ASE20160613223011806/13/16 22:30:31  5-MIN KASE 140530Z 19009KT 10SM CLR 06/04 A3023 7560 89 8300 180/09 RMK AO2 RAE0454 P0000 T00610044
93073KASE ASE20160613223512406/13/16 22:35:31  5-MIN KASE 140535Z 16010G16KT 10SM CLR 07/05 A3022 7560 86 8400 160/10G16 RMK AO2 RAE0454 P0000 T00720050
93073KASE ASE20160613224011806/13/16 22:40:31  5-MIN KASE 140540Z 16010KT 10SM CLR 07/04 A3023 7560 82 8400 150/10 RMK AO2 RAE0454 P0000 T00720044
93073KASE ASE20160613224511806/13/16 22:45:31  5-MIN KASE 140545Z 15010KT 10SM CLR 07/04 A3023 7560 82 8400 140/10 RMK AO2 RAE0454 P0000 T00720044
93073KASE ASE20160613225014906/13/16 22:50:31  5-MIN KASE 140550Z 17007KT 10SM CLR 08/04 A3023 7560 79 8500 160/07 RMK AO2 RAE0454 SLP127 P0000 60007 T00780044 10117 20061 58012
93073KASE ASE20160613225510406/13/16 22:55:31  5-MIN KASE 140555Z 14004KT 10SM CLR 07/04 A3023 7560 82 8400 130/04 RMK AO2 T00720044
93073KASE ASE20160613230010406/13/16 23:00:31  5-MIN KASE 140600Z 13004KT 10SM CLR 06/04 A3023 7560 89 8300 120/04 RMK AO2 T00610044
93073KASE ASE20160613230510406/13/16 23:05:31  5-MIN KASE 140605Z 00000KT 10SM CLR 06/04 A3022 7560 89 8300 000/00 RMK AO2 T00610044
93073KASE ASE20160613231010406/13/16 23:10:31  5-MIN KASE 140610Z VRB03KT 10SM CLR 06/04 A3022 7560 86 8300 VRB/03 RMK AO2 T00610039
93073KASE ASE20160613231510906/13/16 23:15:31  5-MIN KASE 140615Z AUTO 00000KT 10SM CLR 06/04 A3022 7560 89 8300 000/00 RMK AO2 T00610044
93073KASE ASE20160613232010906/13/16 23:20:31  5-MIN KASE 140620Z AUTO 00000KT 10SM CLR 06/04 A3022 7570 89 8200 000/00 RMK AO2 T00560039
93073KASE ASE20160613232510906/13/16 23:25:31  5-MIN KASE 140625Z AUTO 21005KT 10SM CLR 06/04 A3022 7570 89 8300 200/05 RMK AO2 T00560039
93073KASE ASE20160613233010906/13/16 23:30:31  5-MIN KASE 140630Z AUTO 19004KT 10SM CLR 06/04 A3021 7570 89 8300 180/04 RMK AO2 T00560039
93073KASE ASE20160613233510906/13/16 23:35:31  5-MIN KASE 140635Z AUTO 00000KT 10SM CLR 06/04 A3022 7570 89 8300 000/00 RMK AO2 T00560039
93073KASE ASE20160613234010906/13/16 23:40:31  5-MIN KASE 140640Z AUTO VRB03KT 10SM CLR 06/04 A3021 7570 89 8300 VRB/03 RMK AO2 T00560039
93073KASE ASE20160613234510906/13/16 23:45:31  5-MIN KASE 140645Z AUTO 31004KT 10SM CLR 06/04 A3021 7570 89 8300 300/04 RMK AO2 T00560039
93073KASE ASE20160613235012606/13/16 23:50:31  5-MIN KASE 140650Z AUTO 00000KT 10SM CLR 05/03 A3021 7570 89 8200 000/00 RMK AO2 SLP141 T00500033 402060050
93073KASE ASE20160613235510906/13/16 23:55:31  5-MIN KASE 140655Z AUTO 23004KT 10SM CLR 05/03 A3021 7580 89 8200 220/04 RMK AO2 T00500033
93073KASE ASE20160614000010906/14/16 00:00:31  5-MIN KASE 140700Z AUTO 23003KT 10SM CLR 04/03 A3021 7580 92 8100 230/03 RMK AO2 T00390028
93073KASE ASE20160614000510906/14/16 00:05:31  5-MIN KASE 140705Z AUTO 23003KT 10SM CLR 04/03 A3021 7570 92 8100 230/03 RMK AO2 T00390028
93073KASE ASE20160614001010906/14/16 00:10:31  5-MIN KASE 140710Z AUTO 00000KT 10SM CLR 04/03 A3021 7580 92 8100 000/00 RMK AO2 T00390028
93073KASE ASE20160614001510906/14/16 00:15:31  5-MIN KASE 140715Z AUTO 00000KT 10SM CLR 04/03 A3021 7580 89 8100 000/00 RMK AO2 T00440028
93073KASE ASE20160614002010906/14/16 00:20:31  5-MIN KASE 140720Z AUTO 22004KT 10SM CLR 04/02 A3021 7570 89 8100 210/04 RMK AO2 T00390022
93073KASE ASE20160614002510906/14/16 00:25:31  5-MIN KASE 140725Z AUTO 25004KT 10SM CLR 04/02 A3021 7580 89 8100 240/04 RMK AO2 T00390022
93073KASE ASE20160614003010906/14/16 00:30:31  5-MIN KASE 140730Z AUTO 22005KT 10SM CLR 04/02 A3021 7580 89 8100 210/05 RMK AO2 T00390022
93073KASE ASE20160614003510906/14/16 00:35:31  5-MIN KASE 140735Z AUTO 21005KT 10SM CLR 04/02 A3020 7580 89 8100 200/05 RMK AO2 T00390022
93073KASE ASE20160614004010906/14/16 00:40:31  5-MIN KASE 140740Z AUTO 23008KT 10SM CLR 04/02 A3020 7580 89 8100 220/08 RMK AO2 T00390022
93073KASE ASE20160614004511206/14/16 00:45:31  5-MIN KASE 140745Z AUTO 22006KT 10SM FEW085 04/02 A3020 7580 89 8100 210/06 RMK AO2 T00390022
93073KASE ASE20160614005011906/14/16 00:50:31  5-MIN KASE 140750Z AUTO 21004KT 10SM FEW085 04/02 A3020 7580 85 8100 200/04 RMK AO2 SLP140 T00440022
93073KASE ASE20160614005511206/14/16 00:55:31  5-MIN KASE 140755Z AUTO 22005KT 10SM FEW085 04/03 A3020 7580 89 8100 210/05 RMK AO2 T00440028
93073KASE ASE20160614010011206/14/16 01:00:31  5-MIN KASE 140800Z AUTO 21003KT 10SM FEW085 04/03 A3020 7590 89 8100 200/03 RMK AO2 T00440028
93073KASE ASE20160614010511206/14/16 01:05:31  5-MIN KASE 140805Z AUTO 00000KT 10SM FEW085 03/02 A3020 7580 92 8000 000/00 RMK AO2 T00330022
93073KASE ASE20160614011011206/14/16 01:10:31  5-MIN KASE 140810Z AUTO 00000KT 10SM FEW085 04/02 A3020 7580 89 8100 000/00 RMK AO2 T00390022
93073KASE ASE20160614011510906/14/16 01:15:31  5-MIN KASE 140815Z AUTO 00000KT 10SM CLR 04/02 A3020 7590 89 8100 000/00 RMK AO2 T00390022
93073KASE ASE20160614012010906/14/16 01:20:31  5-MIN KASE 140820Z AUTO 23004KT 10SM CLR 03/02 A3020 7590 92 8000 220/04 RMK AO2 T00280017
93073KASE ASE20160614012510906/14/16 01:25:31  5-MIN KASE 140825Z AUTO 21005KT 10SM CLR 03/02 A3019 7590 89 8000 200/05 RMK AO2 T00330017
93073KASE ASE20160614013010906/14/16 01:30:31  5-MIN KASE 140830Z AUTO 10003KT 10SM CLR 03/02 A3019 7590 92 8000 090/03 RMK AO2 T00330022
93073KASE ASE20160614013510906/14/16 01:35:31  5-MIN KASE 140835Z AUTO 00000KT 10SM CLR 03/02 A3019 7590 89 8000 000/00 RMK AO2 T00330017
93073KASE ASE20160614014010906/14/16 01:40:31  5-MIN KASE 140840Z AUTO VRB03KT 10SM CLR 03/02 A3019 7590 92 8000 VRB/03 RMK AO2 T00330022
93073KASE ASE20160614014510906/14/16 01:45:31  5-MIN KASE 140845Z AUTO 23008KT 10SM CLR 03/02 A3018 7600 89 8000 220/08 RMK AO2 T00330017
93073KASE ASE20160614015012206/14/16 01:50:31  5-MIN KASE 140850Z AUTO 21007KT 10SM CLR 03/02 A3018 7600 89 8000 200/07 RMK AO2 SLP133 T00330017 50008
93073KASE ASE20160614015510906/14/16 01:55:31  5-MIN KASE 140855Z AUTO 19005KT 10SM CLR 04/02 A3018 7600 85 8100 180/05 RMK AO2 T00390017
93073KASE ASE20160614020010906/14/16 02:00:31  5-MIN KASE 140900Z AUTO 18004KT 10SM CLR 03/02 A3018 7600 89 8000 170/04 RMK AO2 T00330017
93073KASE ASE20160614020510906/14/16 02:05:31  5-MIN KASE 140905Z AUTO 21007KT 10SM CLR 03/02 A3017 7610 89 8000 200/07 RMK AO2 T00330017
93073KASE ASE20160614021010906/14/16 02:10:31  5-MIN KASE 140910Z AUTO 22006KT 10SM CLR 03/02 A3017 7610 89 8000 210/06 RMK AO2 T00330017
93073KASE ASE20160614021510906/14/16 02:15:31  5-MIN KASE 140915Z AUTO 18005KT 10SM CLR 04/02 A3017 7610 85 8100 170/05 RMK AO2 T00390017
93073KASE ASE20160614022010906/14/16 02:20:31  5-MIN KASE 140920Z AUTO 17003KT 10SM CLR 03/02 A3017 7610 89 8000 160/03 RMK AO2 T00330017
93073KASE ASE20160614022510906/14/16 02:25:31  5-MIN KASE 140925Z AUTO 20005KT 10SM CLR 03/02 A3017 7610 92 8000 190/05 RMK AO2 T00280017
93073KASE ASE20160614023010906/14/16 02:30:31  5-MIN KASE 140930Z AUTO 21006KT 10SM CLR 03/01 A3017 7610 89 8000 200/06 RMK AO2 T00280011
93073KASE ASE20160614023510906/14/16 02:35:31  5-MIN KASE 140935Z AUTO 22005KT 10SM CLR 02/01 A3017 7610 92 7900 210/05 RMK AO2 T00220011
93073KASE ASE20160614024010906/14/16 02:40:31  5-MIN KASE 140940Z AUTO 21004KT 10SM CLR 03/01 A3017 7610 89 8000 200/04 RMK AO2 T00280011
93073KASE ASE20160614024510906/14/16 02:45:31  5-MIN KASE 140945Z AUTO 21005KT 10SM CLR 02/01 A3017 7610 92 7900 200/05 RMK AO2 T00220011
93073KASE ASE20160614025011606/14/16 02:50:31  5-MIN KASE 140950Z AUTO 22007KT 10SM CLR 03/01 A3017 7610 89 8000 220/07 RMK AO2 SLP138 T00280011
93073KASE ASE20160614025510906/14/16 02:55:31  5-MIN KASE 140955Z AUTO 23005KT 10SM CLR 02/01 A3017 7610 92 7900 220/05 RMK AO2 T00220011
93073KASE ASE20160614030010906/14/16 03:00:31  5-MIN KASE 141000Z AUTO 23005KT 10SM CLR 02/01 A3017 7610 92 7900 220/05 RMK AO2 T00220011
93073KASE ASE20160614030510906/14/16 03:05:31  5-MIN KASE 141005Z AUTO 00000KT 10SM CLR 03/01 A3017 7610 89 8000 000/00 RMK AO2 T00280011
93073KASE ASE20160614031010906/14/16 03:10:31  5-MIN KASE 141010Z AUTO 00000KT 10SM CLR 03/01 A3017 7610 89 8000 000/00 RMK AO2 T00280011
93073KASE ASE20160614031510906/14/16 03:15:31  5-MIN KASE 141015Z AUTO 22004KT 10SM CLR 03/01 A3017 7610 89 8000 210/04 RMK AO2 T00280011
93073KASE ASE20160614032010906/14/16 03:20:31  5-MIN KASE 141020Z AUTO 00000KT 10SM CLR 02/01 A3017 7610 92 7900 000/00 RMK AO2 T00220011
93073KASE ASE20160614032510906/14/16 03:25:31  5-MIN KASE 141025Z AUTO 00000KT 10SM CLR 02/01 A3017 7610 89 7900 000/00 RMK AO2 T00220006
93073KASE ASE20160614033010906/14/16 03:30:31  5-MIN KASE 141030Z AUTO 22004KT 10SM CLR 02/01 A3017 7610 89 7900 210/04 RMK AO2 T00220006
93073KASE ASE20160614033510906/14/16 03:35:31  5-MIN KASE 141035Z AUTO 00000KT 10SM CLR 02/01 A3017 7610 89 7900 000/00 RMK AO2 T00220006
93073KASE ASE20160614034010906/14/16 03:40:31  5-MIN KASE 141040Z AUTO 22003KT 10SM CLR 02/01 A3017 7610 89 7900 210/03 RMK AO2 T00220006
93073KASE ASE20160614034511206/14/16 03:45:31  5-MIN KASE 141045Z AUTO 22006KT 10SM FEW090 02/01 A3017 7610 89 7900 210/06 RMK AO2 T00220006
93073KASE ASE20160614035011906/14/16 03:50:31  5-MIN KASE 141050Z AUTO 22004KT 10SM SCT090 03/01 A3017 7610 85 8000 210/04 RMK AO2 SLP141 T00280006
93073KASE ASE20160614035511206/14/16 03:55:31  5-MIN KASE 141055Z AUTO 21005KT 10SM BKN090 03/01 A3017 7620 89 8000 200/05 RMK AO2 T00280011
93073KASE ASE20160614040011206/14/16 04:00:31  5-MIN KASE 141100Z AUTO 22005KT 10SM BKN090 03/01 A3017 7610 89 8000 210/05 RMK AO2 T00280011
93073KASE ASE20160614040511206/14/16 04:05:31  5-MIN KASE 141105Z AUTO 22005KT 10SM BKN090 03/01 A3017 7610 89 8000 210/05 RMK AO2 T00280011
93073KASE ASE20160614041011206/14/16 04:10:31  5-MIN KASE 141110Z AUTO 22006KT 10SM BKN090 03/01 A3017 7610 89 8000 210/06 RMK AO2 T00280011
93073KASE ASE20160614041511206/14/16 04:15:31  5-MIN KASE 141115Z AUTO 22005KT 10SM SCT090 03/01 A3017 7610 85 8000 210/05 RMK AO2 T00280006
93073KASE ASE20160614042011206/14/16 04:20:31  5-MIN KASE 141120Z AUTO 22006KT 10SM SCT085 03/01 A3017 7610 89 8000 210/06 RMK AO2 T00280011
93073KASE ASE20160614042511206/14/16 04:25:31  5-MIN KASE 141125Z AUTO 21004KT 10SM FEW085 03/01 A3017 7610 85 8000 200/04 RMK AO2 T00280006
93073KASE ASE20160614043011206/14/16 04:30:31  5-MIN KASE 141130Z AUTO 21004KT 10SM FEW085 03/01 A3017 7610 89 8000 200/04 RMK AO2 T00280011
93073KASE ASE20160614043510906/14/16 04:35:31  5-MIN KASE 141135Z AUTO 21003KT 10SM CLR 02/01 A3017 7610 89 7900 200/03 RMK AO2 T00220006
93073KASE ASE20160614044010906/14/16 04:40:31  5-MIN KASE 141140Z AUTO 00000KT 10SM CLR 02/01 A3018 7600 89 7900 000/00 RMK AO2 T00220006
93073KASE ASE20160614044510906/14/16 04:45:31  5-MIN KASE 141145Z AUTO 00000KT 10SM CLR 02/01 A3018 7600 89 7900 000/00 RMK AO2 T00220006
93073KASE ASE20160614045014006/14/16 04:50:31  5-MIN KASE 141150Z AUTO 00000KT 10SM CLR 02/01 A3018 7600 92 7800 000/00 RMK AO2 SLP158 70009 T00170006 10072 20017 57011
93073KASE ASE20160614045510906/14/16 04:55:31  5-MIN KASE 141155Z AUTO 20003KT 10SM CLR 02/00 A3019 7600 89 7800 190/03 RMK AO2 T00170000
93073KASE ASE20160614050010906/14/16 05:00:31  5-MIN KASE 141200Z AUTO VRB03KT 10SM CLR 02/01 A3018 7600 89 7900 VRB/03 RMK AO2 T00220006
93073KASE ASE20160614050510906/14/16 05:05:31  5-MIN KASE 141205Z AUTO 00000KT 10SM CLR 02/01 A3019 7590 92 7800 000/00 RMK AO2 T00170006
93073KASE ASE20160614051010906/14/16 05:10:31  5-MIN KASE 141210Z AUTO 00000KT 10SM CLR 02/01 A3019 7590 89 7900 000/00 RMK AO2 T00220006
93073KASE ASE20160614051510906/14/16 05:15:31  5-MIN KASE 141215Z AUTO 00000KT 10SM CLR 02/01 A3019 7590 89 7900 000/00 RMK AO2 T00220006
93073KASE ASE20160614052010906/14/16 05:20:31  5-MIN KASE 141220Z AUTO 00000KT 10SM CLR 02/01 A3019 7590 89 7900 000/00 RMK AO2 T00220006
93073KASE ASE20160614052510906/14/16 05:25:31  5-MIN KASE 141225Z AUTO 20004KT 10SM CLR 02/01 A3019 7590 89 7900 190/04 RMK AO2 T00220006
93073KASE ASE20160614053011206/14/16 05:30:31  5-MIN KASE 141230Z AUTO 17005KT 10SM FEW090 02/01 A3019 7590 89 7900 160/05 RMK AO2 T00220006
93073KASE ASE20160614053511206/14/16 05:35:31  5-MIN KASE 141235Z AUTO 19005KT 10SM FEW090 03/01 A3019 7590 89 8000 180/05 RMK AO2 T00280011
93073KASE ASE20160614054011206/14/16 05:40:31  5-MIN KASE 141240Z AUTO 17005KT 10SM FEW090 04/02 A3019 7590 85 8100 160/05 RMK AO2 T00390017
93073KASE ASE20160614054511206/14/16 05:45:31  5-MIN KASE 141245Z AUTO 15004KT 10SM FEW090 04/02 A3019 7590 85 8100 150/04 RMK AO2 T00390017
93073KASE ASE20160614055011906/14/16 05:50:31  5-MIN KASE 141250Z AUTO 11003KT 10SM FEW090 04/02 A3019 7590 85 8100 100/03 RMK AO2 SLP155 T00390017
93073KASE ASE20160614055510706/14/16 05:55:31  5-MIN KASE 141255Z 00000KT 10SM FEW090 04/02 A3019 7590 85 8100 000/00 RMK AO2 T00390017
93073KASE ASE20160614060010406/14/16 06:00:31  5-MIN KASE 141300Z 14003KT 10SM CLR 04/02 A3019 7590 89 8100 130/03 RMK AO2 T00390022
93073KASE ASE20160614060510406/14/16 06:05:31  5-MIN KASE 141305Z 18003KT 10SM CLR 05/02 A3019 7590 82 8200 170/03 RMK AO2 T00500022
93073KASE ASE20160614061010406/14/16 06:10:31  5-MIN KASE 141310Z 16003KT 10SM CLR 05/02 A3019 7590 82 8200 150/03 RMK AO2 T00500022
93073KASE ASE20160614061510406/14/16 06:15:31  5-MIN KASE 141315Z 00000KT 10SM CLR 06/03 A3019 7590 82 8300 000/00 RMK AO2 T00560028
93073KASE ASE20160614062010406/14/16 06:20:31  5-MIN KASE 141320Z 12003KT 10SM CLR 06/03 A3019 7590 82 8300 110/03 RMK AO2 T00560028
93073KASE ASE20160614062510406/14/16 06:25:31  5-MIN KASE 141325Z 16003KT 10SM CLR 06/03 A3019 7590 79 8300 150/03 RMK AO2 T00610028
93073KASE ASE20160614063010406/14/16 06:30:31  5-MIN KASE 141330Z 00000KT 10SM CLR 07/02 A3019 7590 73 8400 000/00 RMK AO2 T00670022
93073KASE ASE20160614063510406/14/16 06:35:31  5-MIN KASE 141335Z 00000KT 10SM CLR 07/03 A3019 7590 79 8400 000/00 RMK AO2 T00670033
93073KASE ASE20160614064010406/14/16 06:40:31  5-MIN KASE 141340Z 11004KT 10SM CLR 07/03 A3019 7590 76 8500 100/04 RMK AO2 T00720033
93073KASE ASE20160614064510406/14/16 06:45:31  5-MIN KASE 141345Z 10003KT 10SM CLR 07/03 A3019 7590 76 8500 090/03 RMK AO2 T00720033
93073KASE ASE20160614065011106/14/16 06:50:31  5-MIN KASE 141350Z 00000KT 10SM CLR 07/03 A3019 7590 73 8500 000/00 RMK AO2 SLP143 T00720028
93073KASE ASE20160614065510406/14/16 06:55:31  5-MIN KASE 141355Z 14003KT 10SM CLR 07/02 A3019 7590 70 8500 140/03 RMK AO2 T00720022
93073KASE ASE20160614070010706/14/16 07:00:31  5-MIN KASE 141400Z 00000KT 10SM FEW090 08/03 A3020 7590 70 8500 000/00 RMK AO2 T00780028
93073KASE ASE20160614070510706/14/16 07:05:31  5-MIN KASE 141405Z 00000KT 10SM SCT090 08/03 A3020 7590 68 8600 000/00 RMK AO2 T00830028
93073KASE ASE20160614071010706/14/16 07:10:31  5-MIN KASE 141410Z 00000KT 10SM SCT090 08/03 A3020 7590 70 8600 000/00 RMK AO2 T00830033
93073KASE ASE20160614071511406/14/16 07:15:31  5-MIN KASE 141415Z 00000KT 10SM SCT070 SCT090 08/03 A3020 7590 68 8600 000/00 RMK AO2 T00830028
93073KASE ASE20160614072011406/14/16 07:20:31  5-MIN KASE 141420Z 00000KT 10SM SCT070 BKN090 08/02 A3020 7590 65 8600 000/00 RMK AO2 T00830022
93073KASE ASE20160614072511406/14/16 07:25:31  5-MIN KASE 141425Z 00000KT 10SM SCT075 BKN090 08/03 A3020 7590 68 8600 000/00 RMK AO2 T00830028
93073KASE ASE20160614073011406/14/16 07:30:31  5-MIN KASE 141430Z 00000KT 10SM BKN080 BKN090 09/03 A3020 7590 65 8700 000/00 RMK AO2 T00890028
93073KASE ASE20160614073510706/14/16 07:35:31  5-MIN KASE 141435Z 00000KT 10SM BKN080 09/03 A3020 7580 68 8700 000/00 RMK AO2 T00890033
93073KASE ASE20160614074010706/14/16 07:40:31  5-MIN KASE 141440Z 00000KT 10SM SCT080 09/04 A3020 7590 68 8700 000/00 RMK AO2 T00940039
93073KASE ASE20160614074511406/14/16 07:45:31  5-MIN KASE 141445Z 00000KT 10SM SCT075 SCT090 10/04 A3019 7590 65 8800 000/00 RMK AO2 T01000039
93073KASE ASE20160614075012006/14/16 07:50:31  5-MIN KASE 141450Z 00000KT 10SM SCT075 10/03 A3019 7590 63 8800 000/00 RMK AO2 SLP136 T01000033 53000
93073KASE ASE20160614075510706/14/16 07:55:31  5-MIN KASE 141455Z 00000KT 10SM SCT075 11/03 A3019 7590 61 8800 000/00 RMK AO2 T01060033
93073KASE ASE20160614080010706/14/16 08:00:31  5-MIN KASE 141500Z VRB03KT 10SM SCT075 12/04 A3019 7590 61 9000 VRB/03 RMK AO2 T01170044
93073KASE ASE20160614080510706/14/16 08:05:31  5-MIN KASE 141505Z 34003KT 10SM SCT070 12/04 A3019 7590 61 9000 330/03 RMK AO2 T01170044
93073KASE ASE20160614081010706/14/16 08:10:31  5-MIN KASE 141510Z 36003KT 10SM SCT070 12/04 A3019 7590 58 9000 350/03 RMK AO2 T01170039
93073KASE ASE20160614081510706/14/16 08:15:31  5-MIN KASE 141515Z 34003KT 10SM FEW070 12/04 A3019 7590 58 9000 340/03 RMK AO2 T01170039
93073KASE ASE20160614082010706/14/16 08:20:31  5-MIN KASE 141520Z 00000KT 10SM FEW070 12/04 A3019 7590 58 9000 000/00 RMK AO2 T01170039
93073KASE ASE20160614082510706/14/16 08:25:31  5-MIN KASE 141525Z 00000KT 10SM FEW070 12/04 A3019 7590 59 9000 000/00 RMK AO2 T01220044
93073KASE ASE20160614083010406/14/16 08:30:31  5-MIN KASE 141530Z VRB03KT 10SM CLR 13/04 A3019 7600 56 9100 VRB/03 RMK AO2 T01280044
93073KASE ASE20160614083510406/14/16 08:35:31  5-MIN KASE 141535Z VRB03KT 10SM CLR 13/04 A3018 7600 56 9100 VRB/03 RMK AO2 T01280044
93073KASE ASE20160614084010406/14/16 08:40:31  5-MIN KASE 141540Z 36005KT 10SM CLR 13/04 A3018 7600 54 9100 350/05 RMK AO2 T01280039
93073KASE ASE20160614084510406/14/16 08:45:31  5-MIN KASE 141545Z 36004KT 10SM CLR 13/04 A3018 7600 54 9200 350/04 RMK AO2 T01330044
93073KASE ASE20160614085011106/14/16 08:50:31  5-MIN KASE 141550Z 34004KT 10SM CLR 14/06 A3018 7600 57 9200 330/04 RMK AO2 SLP125 T01390056
93073KASE ASE20160614085510706/14/16 08:55:31  5-MIN KASE 141555Z 33005KT 10SM FEW075 14/05 A3018 7600 53 9300 320/05 RMK AO2 T01440050
93073KASE ASE20160614090010706/14/16 09:00:31  5-MIN KASE 141600Z 33004KT 10SM FEW075 14/05 A3018 7610 53 9300 320/04 RMK AO2 T01440050
93073KASE ASE20160614090510406/14/16 09:05:31  5-MIN KASE 141605Z 34005KT 10SM CLR 15/05 A3017 7610 51 9400 330/05 RMK AO2 T01500050
93073KASE ASE20160614091010406/14/16 09:10:31  5-MIN KASE 141610Z 35005KT 10SM CLR 15/05 A3017 7610 51 9400 340/05 RMK AO2 T01500050
93073KASE ASE20160614091510706/14/16 09:15:31  5-MIN KASE 141615Z 35004KT 10SM FEW075 16/04 A3018 7610 47 9400 340/04 RMK AO2 T01560044
93073KASE ASE20160614092010706/14/16 09:20:31  5-MIN KASE 141620Z 06003KT 10SM FEW075 16/04 A3017 7610 45 9400 050/03 RMK AO2 T01560039
93073KASE ASE20160614092510406/14/16 09:25:31  5-MIN KASE 141625Z 02007KT 10SM CLR 16/03 A3017 7610 42 9500 010/07 RMK AO2 T01610033
93073KASE ASE20160614093010706/14/16 09:30:31  5-MIN KASE 141630Z 01009KT 10SM FEW080 17/03 A3017 7610 39 9600 010/09 RMK AO2 T01670028
93073KASE ASE20160614093510706/14/16 09:35:31  5-MIN KASE 141635Z 01008KT 10SM SCT075 16/03 A3017 7610 42 9500 360/08 RMK AO2 T01610033
93073KASE ASE20160614094010706/14/16 09:40:31  5-MIN KASE 141640Z 02007KT 10SM SCT075 17/03 A3017 7610 40 9600 010/07 RMK AO2 T01670033
93073KASE ASE20160614094510706/14/16 09:45:31  5-MIN KASE 141645Z 03009KT 10SM SCT075 17/04 A3017 7610 42 9600 020/09 RMK AO2 T01670039
93073KASE ASE20160614095011406/14/16 09:50:31  5-MIN KASE 141650Z 03006KT 10SM BKN080 17/04 A3017 7610 42 9600 020/06 RMK AO2 SLP123 T01670039
93073KASE ASE20160614095511406/14/16 09:55:31  5-MIN KASE 141655Z 01009KT 10SM BKN080 BKN090 17/03 A3017 7610 39 9600 360/09 RMK AO2 T01670028
93073KASE ASE20160614100011406/14/16 10:00:31  5-MIN KASE 141700Z 01008KT 10SM SCT075 BKN090 18/04 A3017 7610 39 9700 010/08 RMK AO2 T01780039
93073KASE ASE20160614100511406/14/16 10:05:31  5-MIN KASE 141705Z 02009KT 10SM SCT080 SCT090 17/03 A3017 7610 39 9600 010/09 RMK AO2 T01720033
93073KASE ASE20160614101010706/14/16 10:10:31  5-MIN KASE 141710Z 01008KT 10SM BKN085 17/03 A3017 7610 37 9600 360/08 RMK AO2 T01720028
93073KASE ASE20160614101510706/14/16 10:15:31  5-MIN KASE 141715Z 36009KT 10SM BKN085 17/03 A3017 7610 39 9600 350/09 RMK AO2 T01720033
93073KASE ASE20160614102010706/14/16 10:20:31  5-MIN KASE 141720Z 02009KT 10SM BKN080 17/03 A3017 7610 40 9600 010/09 RMK AO2 T01670033
93073KASE ASE20160614102510706/14/16 10:25:31  5-MIN KASE 141725Z 02007KT 10SM BKN080 17/03 A3017 7610 40 9600 010/07 RMK AO2 T01670033
93073KASE ASE20160614103010706/14/16 10:30:31  5-MIN KASE 141730Z 02007KT 10SM BKN080 17/03 A3017 7610 40 9600 010/07 RMK AO2 T01670033
93073KASE ASE20160614103510706/14/16 10:35:31  5-MIN KASE 141735Z 35007KT 10SM BKN080 17/03 A3017 7610 37 9600 340/07 RMK AO2 T01720028
93073KASE ASE20160614205011106/14/16 20:50:31  5-MIN KASE 150350Z 20007KT 10SM CLR 12/02 A3016 7620 50 9000 200/07 RMK AO2 SLP113 T01170017
93073KASE ASE20160614205510406/14/16 20:55:31  5-MIN KASE 150355Z 21008KT 10SM CLR 12/02 A3016 7620 50 9000 210/08 RMK AO2 T01170017
93073KASE ASE20160614210010406/14/16 21:00:31  5-MIN KASE 150400Z 21008KT 10SM CLR 12/02 A3016 7620 50 9000 200/08 RMK AO2 T01170017
93073KASE ASE20160614210510406/14/16 21:05:31  5-MIN KASE 150405Z 21008KT 10SM CLR 12/02 A3017 7610 50 9000 210/08 RMK AO2 T01170017
93073KASE ASE20160614211010406/14/16 21:10:31  5-MIN KASE 150410Z 21009KT 10SM CLR 12/02 A3016 7620 50 9000 200/09 RMK AO2 T01170017
93073KASE ASE20160614211510406/14/16 21:15:31  5-MIN KASE 150415Z 18007KT 10SM CLR 12/02 A3017 7610 50 9000 170/07 RMK AO2 T01170017
93073KASE ASE20160614212010406/14/16 21:20:31  5-MIN KASE 150420Z 20008KT 10SM CLR 11/02 A3017 7610 52 8900 190/08 RMK AO2 T01110017
93073KASE ASE20160614212510406/14/16 21:25:31  5-MIN KASE 150425Z 21007KT 10SM CLR 11/02 A3017 7610 52 8900 200/07 RMK AO2 T01110017
93073KASE ASE20160614213010406/14/16 21:30:31  5-MIN KASE 150430Z 21008KT 10SM CLR 12/02 A3017 7610 50 9000 200/08 RMK AO2 T01170017
93073KASE ASE20160614213510406/14/16 21:35:31  5-MIN KASE 150435Z 21009KT 10SM CLR 11/02 A3017 7610 52 8900 200/09 RMK AO2 T01110017
93073KASE ASE20160614214010406/14/16 21:40:31  5-MIN KASE 150440Z 22008KT 10SM CLR 11/02 A3017 7610 52 8900 210/08 RMK AO2 T01110017
93073KASE ASE20160614214510406/14/16 21:45:31  5-MIN KASE 150445Z 20007KT 10SM CLR 11/02 A3017 7610 52 8900 190/07 RMK AO2 T01110017
93073KASE ASE20160614215011106/14/16 21:50:31  5-MIN KASE 150450Z 22008KT 10SM CLR 11/02 A3018 7600 54 8900 210/08 RMK AO2 SLP112 T01060017
93073KASE ASE20160614215510406/14/16 21:55:31  5-MIN KASE 150455Z 22007KT 10SM CLR 11/02 A3018 7600 54 8900 210/07 RMK AO2 T01060017
93073KASE ASE20160614220010406/14/16 22:00:31  5-MIN KASE 150500Z 20007KT 10SM CLR 11/02 A3018 7600 54 8900 200/07 RMK AO2 T01060017
93073KASE ASE20160614220510406/14/16 22:05:31  5-MIN KASE 150505Z 19007KT 10SM CLR 11/01 A3018 7610 52 8900 190/07 RMK AO2 T01060011
93073KASE ASE20160614221010406/14/16 22:10:31  5-MIN KASE 150510Z 20007KT 10SM CLR 11/02 A3018 7600 54 8900 190/07 RMK AO2 T01060017
93073KASE ASE20160614221510406/14/16 22:15:31  5-MIN KASE 150515Z 20008KT 10SM CLR 09/02 A3018 7600 58 8700 190/08 RMK AO2 T00940017
93073KASE ASE20160614222010406/14/16 22:20:31  5-MIN KASE 150520Z 20008KT 10SM CLR 10/02 A3018 7600 56 8800 190/08 RMK AO2 T01000017
93073KASE ASE20160614222510406/14/16 22:25:31  5-MIN KASE 150525Z 19006KT 10SM CLR 10/01 A3018 7610 54 8800 180/06 RMK AO2 T01000011
93073KASE ASE20160614223010406/14/16 22:30:31  5-MIN KASE 150530Z 22008KT 10SM CLR 10/01 A3018 7600 54 8800 210/08 RMK AO2 T01000011
93073KASE ASE20160614223510406/14/16 22:35:31  5-MIN KASE 150535Z 20006KT 10SM CLR 11/01 A3018 7600 52 8900 190/06 RMK AO2 T01060011
93073KASE ASE20160614224010406/14/16 22:40:31  5-MIN KASE 150540Z 21006KT 10SM CLR 10/01 A3018 7600 54 8800 200/06 RMK AO2 T01000011
93073KASE ASE20160614224510406/14/16 22:45:31  5-MIN KASE 150545Z 20006KT 10SM CLR 09/01 A3018 7610 58 8700 190/06 RMK AO2 T00890011
93073KASE ASE20160614225012906/14/16 22:50:31  5-MIN KASE 150550Z 21008KT 10SM CLR 09/01 A3018 7600 58 8700 200/08 RMK AO2 SLP117 T00890011 10206 20083 53008
93073KASE ASE20160614225510406/14/16 22:55:31  5-MIN KASE 150555Z 20006KT 10SM CLR 09/01 A3018 7600 56 8700 190/06 RMK AO2 T00940011
93073KASE ASE20160614230010406/14/16 23:00:31  5-MIN KASE 150600Z 20005KT 10SM CLR 09/01 A3018 7600 58 8700 190/05 RMK AO2 T00890011
93073KASE ASE20160614230510406/14/16 23:05:31  5-MIN KASE 150605Z 20006KT 10SM CLR 09/01 A3018 7600 58 8700 190/06 RMK AO2 T00890011
93073KASE ASE20160614231010406/14/16 23:10:31  5-MIN KASE 150610Z 20005KT 10SM CLR 08/01 A3018 7600 60 8600 190/05 RMK AO2 T00830011
93073KASE ASE20160614231510906/14/16 23:15:31  5-MIN KASE 150615Z AUTO 19007KT 10SM CLR 08/01 A3018 7600 60 8600 180/07 RMK AO2 T00830011
93073KASE ASE20160614232010906/14/16 23:20:31  5-MIN KASE 150620Z AUTO 22009KT 10SM CLR 08/01 A3018 7600 62 8600 210/09 RMK AO2 T00780011
93073KASE ASE20160614232510906/14/16 23:25:31  5-MIN KASE 150625Z AUTO 20006KT 10SM CLR 08/01 A3018 7600 62 8500 190/06 RMK AO2 T00780011
93073KASE ASE20160614233010906/14/16 23:30:31  5-MIN KASE 150630Z AUTO 21007KT 10SM CLR 08/01 A3018 7600 58 8600 200/07 RMK AO2 T00830006
93073KASE ASE20160614233510906/14/16 23:35:31  5-MIN KASE 150635Z AUTO 19006KT 10SM CLR 08/01 A3017 7610 58 8600 180/06 RMK AO2 T00830006
93073KASE ASE20160614234010906/14/16 23:40:31  5-MIN KASE 150640Z AUTO 20007KT 10SM CLR 08/01 A3018 7600 58 8600 190/07 RMK AO2 T00830006
93073KASE ASE20160614234510906/14/16 23:45:31  5-MIN KASE 150645Z AUTO 18008KT 10SM CLR 08/01 A3017 7610 58 8600 170/08 RMK AO2 T00830006
93073KASE ASE20160614235012606/14/16 23:50:31  5-MIN KASE 150650Z AUTO 20008KT 10SM CLR 08/01 A3017 7610 60 8600 200/08 RMK AO2 SLP113 T00780006 402170017
93073KASE ASE20160614235510906/14/16 23:55:31  5-MIN KASE 150655Z AUTO 20007KT 10SM CLR 08/01 A3017 7610 60 8600 190/07 RMK AO2 T00780006
93073KASE ASE20160615000010906/15/16 00:00:31  5-MIN KASE 150700Z AUTO 20009KT 10SM CLR 08/01 A3017 7610 58 8600 190/09 RMK AO2 T00830006
93073KASE ASE20160615000510906/15/16 00:05:31  5-MIN KASE 150705Z AUTO 20007KT 10SM CLR 09/00 A3017 7610 53 8700 190/07 RMK AO2 T00890000
93073KASE ASE20160615001010906/15/16 00:10:31  5-MIN KASE 150710Z AUTO 19007KT 10SM CLR 08/00 A3017 7610 58 8600 180/07 RMK AO2 T00780000
93073KASE ASE20160615001510906/15/16 00:15:31  5-MIN KASE 150715Z AUTO 21009KT 10SM CLR 08/00 A3017 7610 55 8600 200/09 RMK AO2 T00830000
93073KASE ASE20160615002010906/15/16 00:20:31  5-MIN KASE 150720Z AUTO 20008KT 10SM CLR 09/00 A3016 7620 53 8700 190/08 RMK AO2 T00890000
93073KASE ASE20160615002511006/15/16 00:25:31  5-MIN KASE 150725Z AUTO 20007KT 10SM CLR 09/M01 A3016 7620 51 8700 200/07 RMK AO2 T00891006
93073KASE ASE20160615003011006/15/16 00:30:31  5-MIN KASE 150730Z AUTO 21009KT 10SM CLR 09/M01 A3016 7620 51 8700 200/09 RMK AO2 T00891006
93073KASE ASE20160615003510906/15/16 00:35:31  5-MIN KASE 150735Z AUTO 20009KT 10SM CLR 08/00 A3016 7620 58 8600 200/09 RMK AO2 T00780000
93073KASE ASE20160615004011006/15/16 00:40:31  5-MIN KASE 150740Z AUTO 21008KT 10SM CLR 09/M01 A3016 7620 51 8700 200/08 RMK AO2 T00891006
93073KASE ASE20160615004511006/15/16 00:45:31  5-MIN KASE 150745Z AUTO 20009KT 10SM CLR 09/M01 A3016 7620 51 8700 190/09 RMK AO2 T00891006
93073KASE ASE20160615005011706/15/16 00:50:31  5-MIN KASE 150750Z AUTO 21008KT 10SM CLR 09/M01 A3015 7630 47 8800 200/08 RMK AO2 SLP099 T00941011
93073KASE ASE20160615005511006/15/16 00:55:31  5-MIN KASE 150755Z AUTO 21008KT 10SM CLR 09/M01 A3015 7630 51 8700 200/08 RMK AO2 T00891006
93073KASE ASE20160615010011006/15/16 01:00:31  5-MIN KASE 150800Z AUTO 19008KT 10SM CLR 08/M01 A3015 7630 51 8600 190/08 RMK AO2 T00831011
93073KASE ASE20160615010511006/15/16 01:05:31  5-MIN KASE 150805Z AUTO 20008KT 10SM CLR 09/M01 A3015 7630 49 8700 190/08 RMK AO2 T00891011
93073KASE ASE20160615011011006/15/16 01:10:31  5-MIN KASE 150810Z AUTO 20008KT 10SM CLR 08/M01 A3014 7630 51 8700 200/08 RMK AO2 T00831011
93073KASE ASE20160615011511006/15/16 01:15:31  5-MIN KASE 150815Z AUTO 20007KT 10SM CLR 08/M01 A3014 7630 51 8700 190/07 RMK AO2 T00831011
93073KASE ASE20160615012011006/15/16 01:20:31  5-MIN KASE 150820Z AUTO 20008KT 10SM CLR 09/M01 A3014 7640 49 8700 190/08 RMK AO2 T00891011
93073KASE ASE20160615012511006/15/16 01:25:31  5-MIN KASE 150825Z AUTO 20009KT 10SM CLR 09/M01 A3014 7640 49 8700 200/09 RMK AO2 T00891011
93073KASE ASE20160615013011006/15/16 01:30:31  5-MIN KASE 150830Z AUTO 20008KT 10SM CLR 08/M01 A3014 7640 51 8700 190/08 RMK AO2 T00831011
93073KASE ASE20160615013511006/15/16 01:35:31  5-MIN KASE 150835Z AUTO 21008KT 10SM CLR 08/M01 A3014 7630 51 8700 200/08 RMK AO2 T00831011
93073KASE ASE20160615014011006/15/16 01:40:31  5-MIN KASE 150840Z AUTO 19009KT 10SM CLR 08/M01 A3014 7640 51 8700 190/09 RMK AO2 T00831011
93073KASE ASE20160615014511006/15/16 01:45:31  5-MIN KASE 150845Z AUTO 21009KT 10SM CLR 07/M01 A3014 7640 57 8500 200/09 RMK AO2 T00671011
93073KASE ASE20160615015012306/15/16 01:50:31  5-MIN KASE 150850Z AUTO 20007KT 10SM CLR 07/M01 A3014 7640 55 8500 200/07 RMK AO2 SLP100 T00721011 51012
93073KASE ASE20160615015511006/15/16 01:55:31  5-MIN KASE 150855Z AUTO 21006KT 10SM CLR 07/M01 A3014 7640 55 8500 200/06 RMK AO2 T00721011
93073KASE ASE20160615020011006/15/16 02:00:31  5-MIN KASE 150900Z AUTO 20007KT 10SM CLR 07/M01 A3014 7640 55 8500 190/07 RMK AO2 T00721011
93073KASE ASE20160615020511006/15/16 02:05:31  5-MIN KASE 150905Z AUTO 20008KT 10SM CLR 08/M02 A3014 7640 49 8700 190/08 RMK AO2 T00831017
93073KASE ASE20160615021011006/15/16 02:10:31  5-MIN KASE 150910Z AUTO 20008KT 10SM CLR 08/M01 A3014 7640 53 8600 190/08 RMK AO2 T00781011
93073KASE ASE20160615021511006/15/16 02:15:31  5-MIN KASE 150915Z AUTO 20009KT 10SM CLR 08/M01 A3014 7640 51 8700 190/09 RMK AO2 T00831011
93073KASE ASE20160615022011006/15/16 02:20:31  5-MIN KASE 150920Z AUTO 20008KT 10SM CLR 08/M01 A3014 7640 53 8600 200/08 RMK AO2 T00781011
93073KASE ASE20160615022511006/15/16 02:25:31  5-MIN KASE 150925Z AUTO 21009KT 10SM CLR 08/M01 A3014 7640 53 8600 200/09 RMK AO2 T00781011
93073KASE ASE20160615023011006/15/16 02:30:31  5-MIN KASE 150930Z AUTO 21009KT 10SM CLR 08/M01 A3014 7640 53 8600 210/09 RMK AO2 T00781011
93073KASE ASE20160615023511006/15/16 02:35:31  5-MIN KASE 150935Z AUTO 21008KT 10SM CLR 08/M01 A3014 7640 53 8600 200/08 RMK AO2 T00781011
93073KASE ASE20160615024011006/15/16 02:40:31  5-MIN KASE 150940Z AUTO 21008KT 10SM CLR 08/M02 A3014 7640 49 8700 200/08 RMK AO2 T00831017
93073KASE ASE20160615024511006/15/16 02:45:31  5-MIN KASE 150945Z AUTO 20007KT 10SM CLR 08/M02 A3014 7640 49 8700 190/07 RMK AO2 T00831017
93073KASE ASE20160615025011706/15/16 02:50:31  5-MIN KASE 150950Z AUTO 21009KT 10SM CLR 08/M02 A3014 7640 51 8600 200/09 RMK AO2 SLP096 T00781017
93073KASE ASE20160615025511006/15/16 02:55:31  5-MIN KASE 150955Z AUTO 20008KT 10SM CLR 08/M02 A3014 7640 49 8700 190/08 RMK AO2 T00831017
93073KASE ASE20160615030011006/15/16 03:00:31  5-MIN KASE 151000Z AUTO 21009KT 10SM CLR 08/M02 A3014 7640 51 8600 200/09 RMK AO2 T00781017
93073KASE ASE20160615030511006/15/16 03:05:31  5-MIN KASE 151005Z AUTO 20008KT 10SM CLR 08/M02 A3014 7640 49 8700 190/08 RMK AO2 T00831017
93073KASE ASE20160615031011006/15/16 03:10:31  5-MIN KASE 151010Z AUTO 19005KT 10SM CLR 08/M02 A3014 7640 49 8700 180/05 RMK AO2 T00831017
93073KASE ASE20160615031511006/15/16 03:15:31  5-MIN KASE 151015Z AUTO 18009KT 10SM CLR 08/M02 A3014 7640 51 8600 170/09 RMK AO2 T00781017
93073KASE ASE20160615032011006/15/16 03:20:31  5-MIN KASE 151020Z AUTO 21009KT 10SM CLR 07/M01 A3014 7640 57 8500 200/09 RMK AO2 T00671011
93073KASE ASE20160615032511006/15/16 03:25:31  5-MIN KASE 151025Z AUTO 19007KT 10SM CLR 07/M01 A3014 7630 55 8500 180/07 RMK AO2 T00721011
93073KASE ASE20160615033011006/15/16 03:30:31  5-MIN KASE 151030Z AUTO 20008KT 10SM CLR 07/M01 A3014 7640 55 8500 190/08 RMK AO2 T00721011
93073KASE ASE20160615033511006/15/16 03:35:31  5-MIN KASE 151035Z AUTO 19008KT 10SM CLR 07/M02 A3014 7640 53 8500 190/08 RMK AO2 T00721017
93073KASE ASE20160615034011006/15/16 03:40:31  5-MIN KASE 151040Z AUTO 21008KT 10SM CLR 08/M02 A3015 7630 51 8600 200/08 RMK AO2 T00781017
93073KASE ASE20160615034511006/15/16 03:45:31  5-MIN KASE 151045Z AUTO 19008KT 10SM CLR 08/M02 A3014 7630 51 8600 190/08 RMK AO2 T00781017
93073KASE ASE20160615035011706/15/16 03:50:31  5-MIN KASE 151050Z AUTO 19008KT 10SM CLR 08/M02 A3014 7630 49 8700 180/08 RMK AO2 SLP095 T00831017
93073KASE ASE20160615035511006/15/16 03:55:31  5-MIN KASE 151055Z AUTO 21009KT 10SM CLR 07/M02 A3015 7630 53 8500 200/09 RMK AO2 T00721017
93073KASE ASE20160615040011006/15/16 04:00:31  5-MIN KASE 151100Z AUTO 18008KT 10SM CLR 08/M02 A3014 7630 51 8600 170/08 RMK AO2 T00781017
93073KASE ASE20160615040511006/15/16 04:05:31  5-MIN KASE 151105Z AUTO 21009KT 10SM CLR 08/M02 A3015 7630 51 8600 200/09 RMK AO2 T00781017
93073KASE ASE20160615041011006/15/16 04:10:31  5-MIN KASE 151110Z AUTO 21007KT 10SM CLR 07/M01 A3015 7630 55 8500 200/07 RMK AO2 T00721011
93073KASE ASE20160615041511006/15/16 04:15:31  5-MIN KASE 151115Z AUTO 22011KT 10SM CLR 07/M01 A3015 7630 55 8500 210/11 RMK AO2 T00721011
93073KASE ASE20160615042011006/15/16 04:20:31  5-MIN KASE 151120Z AUTO 21009KT 10SM CLR 08/M02 A3015 7630 49 8600 200/09 RMK AO2 T00831017
93073KASE ASE20160615042511006/15/16 04:25:31  5-MIN KASE 151125Z AUTO 21005KT 10SM CLR 07/M02 A3015 7630 53 8500 200/05 RMK AO2 T00721017
93073KASE ASE20160615043011006/15/16 04:30:31  5-MIN KASE 151130Z AUTO 19009KT 10SM CLR 07/M02 A3015 7630 55 8500 180/09 RMK AO2 T00671017
93073KASE ASE20160615043511606/15/16 04:35:31  5-MIN KASE 151135Z AUTO 20009G17KT 10SM CLR 08/M02 A3015 7630 51 8600 190/09G17 RMK AO2 T00781017
93073KASE ASE20160615044011606/15/16 04:40:31  5-MIN KASE 151140Z AUTO 20008G17KT 10SM CLR 08/M02 A3015 7630 49 8600 190/08G17 RMK AO2 T00831017
93073KASE ASE20160615044511006/15/16 04:45:31  5-MIN KASE 151145Z AUTO 20008KT 10SM CLR 07/M01 A3015 7630 57 8500 190/08 RMK AO2 T00671011
93073KASE ASE20160615045013506/15/16 04:50:31  5-MIN KASE 151150Z AUTO 19008KT 10SM CLR 07/M02 A3015 7630 53 8500 180/08 RMK AO2 SLP104 T00721017 10094 20061 58011
93073KASE ASE20160615045511006/15/16 04:55:31  5-MIN KASE 151155Z AUTO 21008KT 10SM CLR 07/M02 A3015 7630 53 8500 200/08 RMK AO2 T00721017
93073KASE ASE20160615050011006/15/16 05:00:31  5-MIN KASE 151200Z AUTO 21007KT 10SM CLR 08/M02 A3016 7620 49 8600 200/07 RMK AO2 T00831017
93073KASE ASE20160615050511006/15/16 05:05:31  5-MIN KASE 151205Z AUTO 19008KT 10SM CLR 08/M02 A3016 7620 51 8600 180/08 RMK AO2 T00781017
93073KASE ASE20160615051011006/15/16 05:10:31  5-MIN KASE 151210Z AUTO 19008KT 10SM CLR 06/M01 A3016 7620 60 8400 190/08 RMK AO2 T00611011
93073KASE ASE20160615051511006/15/16 05:15:31  5-MIN KASE 151215Z AUTO 20006KT 10SM CLR 07/M01 A3016 7620 57 8400 190/06 RMK AO2 T00671011
93073KASE ASE20160615052011006/15/16 05:20:31  5-MIN KASE 151220Z AUTO 20006KT 10SM CLR 07/M01 A3016 7620 55 8500 200/06 RMK AO2 T00721011
93073KASE ASE20160615052511006/15/16 05:25:31  5-MIN KASE 151225Z AUTO 19007KT 10SM CLR 08/M01 A3016 7620 51 8600 190/07 RMK AO2 T00831011
93073KASE ASE20160615053011006/15/16 05:30:31  5-MIN KASE 151230Z AUTO 21008KT 10SM CLR 08/M01 A3016 7620 53 8600 200/08 RMK AO2 T00781011
93073KASE ASE20160615053511006/15/16 05:35:31  5-MIN KASE 151235Z AUTO 19007KT 10SM CLR 09/M02 A3016 7620 47 8700 180/07 RMK AO2 T00891017
93073KASE ASE20160615054011006/15/16 05:40:31  5-MIN KASE 151240Z AUTO 19008KT 10SM CLR 09/M01 A3016 7620 47 8800 190/08 RMK AO2 T00941011
93073KASE ASE20160615054511006/15/16 05:45:31  5-MIN KASE 151245Z AUTO 20007KT 10SM CLR 09/M01 A3017 7610 47 8800 190/07 RMK AO2 T00941011
93073KASE ASE20160615055011206/15/16 05:50:31  5-MIN KASE 151250Z 20006KT 10SM CLR 10/M01 A3017 7610 47 8800 190/06 RMK AO2 SLP106 T01001006
93073KASE ASE20160615055510506/15/16 05:55:31  5-MIN KASE 151255Z 17006KT 10SM CLR 11/M01 A3017 7620 44 8900 160/06 RMK AO2 T01061011
93073KASE ASE20160615060010506/15/16 06:00:31  5-MIN KASE 151300Z 18006KT 10SM CLR 11/M02 A3017 7610 41 8900 170/06 RMK AO2 T01111017
93073KASE ASE20160615060510506/15/16 06:05:31  5-MIN KASE 151305Z 17008KT 10SM CLR 12/M01 A3017 7610 41 9000 170/08 RMK AO2 T01171011
93073KASE ASE20160615061010506/15/16 06:10:31  5-MIN KASE 151310Z 14004KT 10SM CLR 12/M02 A3017 7610 39 9000 130/04 RMK AO2 T01171017
93073KASE ASE20160615061510406/15/16 06:15:31  5-MIN KASE 151315Z 12003KT 10SM CLR 11/00 A3017 7610 46 8900 110/03 RMK AO2 T01110000
93073KASE ASE20160615062010506/15/16 06:20:31  5-MIN KASE 151320Z 18003KT 10SM CLR 11/M01 A3017 7610 44 8900 170/03 RMK AO2 T01111006
93073KASE ASE20160615062510506/15/16 06:25:31  5-MIN KASE 151325Z 17003KT 10SM CLR 12/M01 A3017 7610 41 9100 160/03 RMK AO2 T01221006
93073KASE ASE20160615063010406/15/16 06:30:31  5-MIN KASE 151330Z 17006KT 10SM CLR 13/00 A3017 7610 41 9100 160/06 RMK AO2 T01280000
93073KASE ASE20160615063510406/15/16 06:35:31  5-MIN KASE 151335Z 17006KT 10SM CLR 13/00 A3017 7610 40 9200 160/06 RMK AO2 T01330000
93073KASE ASE20160615064010406/15/16 06:40:31  5-MIN KASE 151340Z 18005KT 10SM CLR 13/00 A3017 7610 40 9200 170/05 RMK AO2 T01330000
93073KASE ASE20160615064510406/15/16 06:45:31  5-MIN KASE 151345Z 19004KT 10SM CLR 14/01 A3017 7610 40 9200 180/04 RMK AO2 T01390006
93073KASE ASE20160615065011106/15/16 06:50:31  5-MIN KASE 151350Z VRB05KT 10SM CLR 14/00 A3018 7610 38 9200 VRB/05 RMK AO2 SLP111 T01390000
93073KASE ASE20160615065510406/15/16 06:55:31  5-MIN KASE 151355Z 10003KT 10SM CLR 14/01 A3018 7610 40 9200 090/03 RMK AO2 T01390006
93073KASE ASE20160615070010406/15/16 07:00:31  5-MIN KASE 151400Z 00000KT 10SM CLR 14/01 A3017 7610 40 9200 000/00 RMK AO2 T01390006
93073KASE ASE20160615070510406/15/16 07:05:31  5-MIN KASE 151405Z 12003KT 10SM CLR 14/01 A3017 7610 40 9300 120/03 RMK AO2 T01440011
93073KASE ASE20160615071010406/15/16 07:10:31  5-MIN KASE 151410Z 00000KT 10SM CLR 14/01 A3017 7610 40 9300 000/00 RMK AO2 T01440011
93073KASE ASE20160615071510406/15/16 07:15:31  5-MIN KASE 151415Z 00000KT 10SM CLR 15/01 A3017 7610 38 9400 000/00 RMK AO2 T01500011
93073KASE ASE20160615072010406/15/16 07:20:31  5-MIN KASE 151420Z 00000KT 10SM CLR 16/01 A3018 7610 36 9400 000/00 RMK AO2 T01560006
93073KASE ASE20160615072510406/15/16 07:25:31  5-MIN KASE 151425Z 17004KT 10SM CLR 16/01 A3018 7600 34 9500 160/04 RMK AO2 T01610006
93073KASE ASE20160615073010406/15/16 07:30:31  5-MIN KASE 151430Z 00000KT 10SM CLR 16/01 A3018 7610 36 9500 000/00 RMK AO2 T01610011
93073KASE ASE20160615073510406/15/16 07:35:31  5-MIN KASE 151435Z 00000KT 10SM CLR 17/01 A3017 7610 34 9600 000/00 RMK AO2 T01670011
93073KASE ASE20160615074010406/15/16 07:40:31  5-MIN KASE 151440Z 00000KT 10SM CLR 17/01 A3017 7610 33 9600 000/00 RMK AO2 T01670006
93073KASE ASE20160615074510406/15/16 07:45:31  5-MIN KASE 151445Z 00000KT 10SM CLR 17/01 A3017 7610 32 9600 000/00 RMK AO2 T01720006
93073KASE ASE20160615075011706/15/16 07:50:31  5-MIN KASE 151450Z VRB03KT 10SM CLR 18/01 A3017 7610 32 9700 VRB/03 RMK AO2 SLP101 T01780011 53003
93073KASE ASE20160615075510406/15/16 07:55:31  5-MIN KASE 151455Z 35005KT 10SM CLR 18/02 A3017 7610 32 9700 340/05 RMK AO2 T01830017
93073KASE ASE20160615080010406/15/16 08:00:31  5-MIN KASE 151500Z 35006KT 10SM CLR 18/03 A3017 7610 38 9700 340/06 RMK AO2 T01780033
93073KASE ASE20160615080510406/15/16 08:05:31  5-MIN KASE 151505Z 36006KT 10SM CLR 18/03 A3017 7610 38 9700 350/06 RMK AO2 T01780033
93073KASE ASE20160615081010406/15/16 08:10:31  5-MIN KASE 151510Z 35004KT 10SM CLR 18/03 A3017 7610 36 9700 340/04 RMK AO2 T01830033
93073KASE ASE20160615081510406/15/16 08:15:31  5-MIN KASE 151515Z 33004KT 10SM CLR 18/03 A3017 7610 36 9700 320/04 RMK AO2 T01830033
93073KASE ASE20160615082010406/15/16 08:20:31  5-MIN KASE 151520Z 35004KT 10SM CLR 19/03 A3016 7620 34 9900 340/04 RMK AO2 T01940033
93073KASE ASE20160615082510406/15/16 08:25:31  5-MIN KASE 151525Z 36005KT 10SM CLR 19/03 A3016 7620 33 9900 350/05 RMK AO2 T01940028
93073KASE ASE20160615083010406/15/16 08:30:31  5-MIN KASE 151530Z 01004KT 10SM CLR 19/03 A3016 7620 34 9900 360/04 RMK AO2 T01940033
93073KASE ASE20160615083510506/15/16 08:35:31  5-MIN KASE 151535Z VRB04KT 10SM CLR 21/02 A3016 7620 29 10000 VRB/04 RMK AO2 T02060022
93073KASE ASE20160615084010606/15/16 08:40:31  5-MIN KASE 151540Z 09006KT 10SM CLR 21/M02 A3016 7620 21 10100 090/06 RMK AO2 T02111017
93073KASE ASE20160615084510606/15/16 08:45:31  5-MIN KASE 151545Z 12007KT 10SM CLR 22/M02 A3016 7620 20 10100 110/07 RMK AO2 T02171022
93073KASE ASE20160615085011306/15/16 08:50:31  5-MIN KASE 151550Z 12006KT 10SM CLR 22/M02 A3016 7620 20 10100 110/06 RMK AO2 SLP089 T02171022
93073KASE ASE20160615085510606/15/16 08:55:31  5-MIN KASE 151555Z 11008KT 10SM CLR 22/M02 A3015 7620 20 10100 110/08 RMK AO2 T02171017
93073KASE ASE20160615090010606/15/16 09:00:31  5-MIN KASE 151600Z 11006KT 10SM CLR 22/M02 A3015 7630 19 10200 100/06 RMK AO2 T02221022
93073KASE ASE20160615090510606/15/16 09:05:31  5-MIN KASE 151605Z 12007KT 10SM CLR 22/M02 A3015 7630 19 10200 110/07 RMK AO2 T02221022
93073KASE ASE20160615091010606/15/16 09:10:31  5-MIN KASE 151610Z 14007KT 10SM CLR 22/M03 A3015 7630 18 10200 130/07 RMK AO2 T02221028
93073KASE ASE20160615091511206/15/16 09:15:31  5-MIN KASE 151615Z 18011G18KT 10SM CLR 23/M06 A3015 7630 14 10300 170/11G18 RMK AO2 T02331056
93073KASE ASE20160615092011206/15/16 09:20:31  5-MIN KASE 151620Z 17015G20KT 10SM CLR 23/M07 A3015 7630 12 10300 160/15G20 RMK AO2 T02331072
93073KASE ASE20160615092511206/15/16 09:25:31  5-MIN KASE 151625Z 22011G20KT 10SM CLR 23/M07 A3015 7630 12 10300 210/11G20 RMK AO2 T02331072
93073KASE ASE20160615093012306/15/16 09:30:31  5-MIN KASE 151630Z 19013G18KT 10SM CLR 23/M07 A3015 7630 13 10300 180/13G18 RMK AO2 WSHFT 1612 T02331067
93073KASE ASE20160615093512306/15/16 09:35:31  5-MIN KASE 151635Z 19013G18KT 10SM CLR 23/M08 A3015 7630 12 10300 180/13G18 RMK AO2 WSHFT 1612 T02331078
93073KASE ASE20160615094012306/15/16 09:40:31  5-MIN KASE 151640Z 19013G18KT 10SM CLR 23/M08 A3016 7620 12 10300 180/13G18 RMK AO2 WSHFT 1612 T02331078
93073KASE ASE20160615094512306/15/16 09:45:31  5-MIN KASE 151645Z 19013G18KT 10SM CLR 24/M08 A3016 7620 11 10400 180/13G18 RMK AO2 WSHFT 1612 T02391078
93073KASE ASE20160615095013006/15/16 09:50:31  5-MIN KASE 151650Z 19013G18KT 10SM CLR 23/M08 A3015 7630 11 10300 180/13G18 RMK AO2 WSHFT 1612 SLP086 T02331083
93073KASE ASE20160615095511206/15/16 09:55:31  5-MIN KASE 151655Z 17010G20KT 10SM CLR 23/M08 A3015 7630 11 10300 170/10G20 RMK AO2 T02331083
93073KASE ASE20160615100011206/15/16 10:00:31  5-MIN KASE 151700Z 18011G20KT 10SM CLR 23/M08 A3015 7630 12 10300 170/11G20 RMK AO2 T02331078
93073KASE ASE20160615100511206/15/16 10:05:31  5-MIN KASE 151705Z 16012G17KT 10SM CLR 24/M08 A3015 7620 11 10400 150/12G17 RMK AO2 T02391078
93073KASE ASE20160615101011206/15/16 10:10:31  5-MIN KASE 151710Z 17013G18KT 10SM CLR 24/M08 A3015 7630 10 10400 160/13G18 RMK AO2 T02441083
93073KASE ASE20160615101511206/15/16 10:15:31  5-MIN KASE 151715Z 16007G18KT 10SM CLR 24/M08 A3016 7620 11 10400 150/07G18 RMK AO2 T02441078
93073KASE ASE20160615102012806/15/16 10:20:31  5-MIN KASE 151720Z 16007G15KT 130V190 10SM CLR 24/M08 A3015 7630 10 10400 150/07G15 120V180 RMK AO2 T02441083
93073KASE ASE20160615102510606/15/16 10:25:31  5-MIN KASE 151725Z 18013KT 10SM CLR 24/M08 A3016 7620 11 10400 170/13 RMK AO2 T02441078
93073KASE ASE20160615103011206/15/16 10:30:31  5-MIN KASE 151730Z 17012G16KT 10SM CLR 24/M08 A3016 7620 10 10400 170/12G16 RMK AO2 T02441083
93073KASE ASE20160615103511206/15/16 10:35:31  5-MIN KASE 151735Z 15014G21KT 10SM CLR 24/M08 A3016 7620 10 10400 140/14G21 RMK AO2 T02441083
93073KASE ASE20160615104011206/15/16 10:40:31  5-MIN KASE 151740Z 19011G21KT 10SM CLR 24/M08 A3016 7620 10 10400 180/11G21 RMK AO2 T02441083
93073KASE ASE20160615104511206/15/16 10:45:31  5-MIN KASE 151745Z 18013G17KT 10SM CLR 25/M08 A3016 7620 10 10500 170/13G17 RMK AO2 T02501083
93073KASE ASE20160615105013706/15/16 10:50:31  5-MIN KASE 151750Z 16012G20KT 10SM CLR 25/M08 A3015 7620 10 10500 150/12G20 RMK AO2 SLP086 T02501083 10256 20061 50004
93073KASE ASE20160615105511206/15/16 10:55:31  5-MIN KASE 151755Z 18008G21KT 10SM CLR 25/M09 A3016 7620 10 10500 170/08G21 RMK AO2 T02501089
93073KASE ASE20160615110011206/15/16 11:00:31  5-MIN KASE 151800Z 17013G21KT 10SM CLR 25/M08 A3016 7620 10 10500 160/13G21 RMK AO2 T02501083
93073KASE ASE20160615110511206/15/16 11:05:31  5-MIN KASE 151805Z 19010G17KT 10SM CLR 24/M08 A3016 7620 11 10400 180/10G17 RMK AO2 T02441078
93073KASE ASE20160615111011206/15/16 11:10:31  5-MIN KASE 151810Z 16014G18KT 10SM CLR 25/M08 A3016 7620 10 10500 160/14G18 RMK AO2 T02501078
93073KASE ASE20160615111512806/15/16 11:15:31  5-MIN KASE 151815Z 18011G18KT 150V210 10SM CLR 25/M08 A3016 7620 10 10500 170/11G18 140V200 RMK AO2 T02501078
93073KASE ASE20160615112011206/15/16 11:20:31  5-MIN KASE 151820Z 20011G22KT 10SM CLR 25/M07 A3016 7620 11 10500 190/11G22 RMK AO2 T02501072
93073KASE ASE20160615112511206/15/16 11:25:31  5-MIN KASE 151825Z 19007G22KT 10SM CLR 25/M07 A3016 7620 11 10500 190/07G22 RMK AO2 T02501067
93073KASE ASE20160615113011206/15/16 11:30:31  5-MIN KASE 151830Z 18011G17KT 10SM CLR 25/M07 A3016 7620 11 10500 180/11G17 RMK AO2 T02501067
93073KASE ASE20160615113511206/15/16 11:35:31  5-MIN KASE 151835Z 20008G17KT 10SM CLR 25/M07 A3016 7620 11 10500 190/08G17 RMK AO2 T02501067
93073KASE ASE20160615114011206/15/16 11:40:31  5-MIN KASE 151840Z 20008G16KT 10SM CLR 25/M07 A3016 7620 11 10500 190/08G16 RMK AO2 T02501067
93073KASE ASE20160615114511206/15/16 11:45:31  5-MIN KASE 151845Z 17010G16KT 10SM CLR 25/M06 A3015 7620 12 10500 160/10G16 RMK AO2 T02501061
93073KASE ASE20160615115011906/15/16 11:50:31  5-MIN KASE 151850Z 18011G15KT 10SM CLR 26/M07 A3015 7630 11 10500 170/11G15 RMK AO2 SLP088 T02561067
93073KASE ASE20160615115511206/15/16 11:55:31  5-MIN KASE 151855Z 18010G17KT 10SM CLR 25/M06 A3015 7630 12 10500 170/10G17 RMK AO2 T02501056
93073KASE ASE20160615120011206/15/16 12:00:31  5-MIN KASE 151900Z 18009G17KT 10SM CLR 26/M06 A3015 7630 12 10500 180/09G17 RMK AO2 T02561056
93073KASE ASE20160615120510606/15/16 12:05:31  5-MIN KASE 151905Z 19007KT 10SM CLR 25/M07 A3015 7630 11 10500 180/07 RMK AO2 T02501067
93073KASE ASE20160615121011206/15/16 12:10:31  5-MIN KASE 151910Z 18007G20KT 10SM CLR 26/M07 A3015 7630 11 10500 170/07G20 RMK AO2 T02561067
93073KASE ASE20160615121511206/15/16 12:15:31  5-MIN KASE 151915Z 17012G20KT 10SM CLR 25/M06 A3014 7630 12 10500 170/12G20 RMK AO2 T02501061
93073KASE ASE20160615122011206/15/16 12:20:31  5-MIN KASE 151920Z 18013G20KT 10SM CLR 26/M07 A3014 7640 11 10600 170/13G20 RMK AO2 T02611067
93073KASE ASE20160615122511206/15/16 12:25:31  5-MIN KASE 151925Z 17011G20KT 10SM CLR 26/M06 A3014 7640 11 10600 160/11G20 RMK AO2 T02611061
93073KASE ASE20160615123011206/15/16 12:30:31  5-MIN KASE 151930Z 17017G22KT 10SM CLR 27/M06 A3014 7640 11 10700 160/17G22 RMK AO2 T02671061
93073KASE ASE20160615123511206/15/16 12:35:31  5-MIN KASE 151935Z 17013G24KT 10SM CLR 26/M07 A3014 7640 11 10600 170/13G24 RMK AO2 T02611067
93073KASE ASE20160615124011206/15/16 12:40:31  5-MIN KASE 151940Z 17015G21KT 10SM CLR 26/M07 A3013 7640 11 10600 160/15G21 RMK AO2 T02611067
93073KASE ASE20160615124512806/15/16 12:45:31  5-MIN KASE 151945Z 23009G21KT 190V270 10SM CLR 26/M06 A3013 7650 11 10600 220/09G21 180V260 RMK AO2 T02611061
93073KASE ASE20160615125013506/15/16 12:50:31  5-MIN KASE 151950Z 19008G15KT 160V240 10SM CLR 26/M06 A3013 7650 12 10600 190/08G15 150V230 RMK AO2 SLP074 T02611056
93073KASE ASE20160615125511206/15/16 12:55:31  5-MIN KASE 151955Z 18008G17KT 10SM CLR 27/M06 A3013 7650 11 10700 170/08G17 RMK AO2 T02671056
93073KASE ASE20160615130011206/15/16 13:00:31  5-MIN KASE 152000Z 17018G22KT 10SM CLR 27/M07 A3013 7650 10 10700 160/18G22 RMK AO2 T02671067
93073KASE ASE20160615130511206/15/16 13:05:31  5-MIN KASE 152005Z 19014G22KT 10SM CLR 27/M06 A3012 7650 10 10700 180/14G22 RMK AO2 T02721061
93073KASE ASE20160615131011206/15/16 13:10:31  5-MIN KASE 152010Z 17010G22KT 10SM CLR 27/M06 A3012 7650 11 10700 170/10G22 RMK AO2 T02671061
93073KASE ASE20160615131511206/15/16 13:15:31  5-MIN KASE 152015Z 22008G18KT 10SM CLR 27/M07 A3012 7660 10 10700 210/08G18 RMK AO2 T02671067
93073KASE ASE20160615132011206/15/16 13:20:31  5-MIN KASE 152020Z 17014G19KT 10SM CLR 27/M06 A3012 7660 10 10700 160/14G19 RMK AO2 T02721061
93073KASE ASE20160615132511206/15/16 13:25:31  5-MIN KASE 152025Z 17012G21KT 10SM CLR 27/M06 A3012 7650 10 10700 160/12G21 RMK AO2 T02721061
93073KASE ASE20160615133011206/15/16 13:30:31  5-MIN KASE 152030Z 19011G21KT 10SM CLR 27/M06 A3012 7660 10 10700 180/11G21 RMK AO2 T02721061
93073KASE ASE20160615133511206/15/16 13:35:31  5-MIN KASE 152035Z 18014G19KT 10SM CLR 27/M07 A3012 7660 10 10700 170/14G19 RMK AO2 T02671067
93073KASE ASE20160615134011206/15/16 13:40:31  5-MIN KASE 152040Z 17014G23KT 10SM CLR 28/M07 A3012 7660 10 10800 160/14G23 RMK AO2 T02781067
93073KASE ASE20160615134511206/15/16 13:45:31  5-MIN KASE 152045Z 16013G23KT 10SM CLR 27/M07 A3011 7660 10 10800 150/13G23 RMK AO2 T02721072
93073KASE ASE20160615135012506/15/16 13:50:31  5-MIN KASE 152050Z 17012G18KT 10SM CLR 28/M06 A3011 7670 10 10800 160/12G18 RMK AO2 SLP067 T02781061 55004
93073KASE ASE20160615135511206/15/16 13:55:31  5-MIN KASE 152055Z 19010G16KT 10SM CLR 27/M06 A3011 7660 10 10800 180/10G16 RMK AO2 T02721061
93073KASE ASE20160615140010606/15/16 14:00:31  5-MIN KASE 152100Z 22005KT 10SM CLR 27/M06 A3011 7660 11 10800 210/05 RMK AO2 T02721056
93073KASE ASE20160615140510606/15/16 14:05:31  5-MIN KASE 152105Z VRB05KT 10SM CLR 27/M05 A3011 7670 11 10800 VRB/05 RMK AO2 T02721050
93073KASE ASE20160615141011206/15/16 14:10:31  5-MIN KASE 152110Z 18010G15KT 10SM CLR 27/M07 A3011 7670 10 10800 170/10G15 RMK AO2 T02721067
93073KASE ASE20160615141511206/15/16 14:15:31  5-MIN KASE 152115Z VRB05G15KT 10SM CLR 27/M07 A3010 7670 10 10700 VRB/05G15 RMK AO2 T02671072
93073KASE ASE20160615142010606/15/16 14:20:31  5-MIN KASE 152120Z VRB06KT 10SM CLR 27/M07 A3010 7680 10 10800 VRB/06 RMK AO2 T02721067
93073KASE ASE20160615142510606/15/16 14:25:31  5-MIN KASE 152125Z VRB03KT 10SM CLR 27/M07 A3009 7680 10 10700 VRB/03 RMK AO2 T02671067
93073KASE ASE20160615143010606/15/16 14:30:31  5-MIN KASE 152130Z 25006KT 10SM CLR 28/M04 A3010 7680 11 10800 240/06 RMK AO2 T02781044
93073KASE ASE20160615143510606/15/16 14:35:31  5-MIN KASE 152135Z 27005KT 10SM CLR 28/M04 A3010 7680 11 10800 260/05 RMK AO2 T02781044
93073KASE ASE20160615144010606/15/16 14:40:31  5-MIN KASE 152140Z VRB06KT 10SM CLR 27/M04 A3009 7680 12 10800 VRB/06 RMK AO2 T02721039
93073KASE ASE20160615144511206/15/16 14:45:31  5-MIN KASE 152145Z 29011G18KT 10SM CLR 28/M03 A3009 7680 12 10800 280/11G18 RMK AO2 T02781033
93073KASE ASE20160615145011906/15/16 14:50:31  5-MIN KASE 152150Z 27010G18KT 10SM CLR 27/M03 A3009 7690 13 10800 260/10G18 RMK AO2 SLP060 T02721033
93073KASE ASE20160615145512806/15/16 14:55:31  5-MIN KASE 152155Z 20011G15KT 180V240 10SM CLR 27/M03 A3009 7680 13 10800 190/11G15 170V230 RMK AO2 T02721033
93073KASE ASE20160615150011206/15/16 15:00:31  5-MIN KASE 152200Z 26012G17KT 10SM CLR 27/M03 A3009 7690 13 10800 250/12G17 RMK AO2 T02721028
93073KASE ASE20160615150511206/15/16 15:05:31  5-MIN KASE 152205Z 27007G17KT 10SM CLR 27/M03 A3009 7690 13 10800 260/07G17 RMK AO2 T02721028
93073KASE ASE20160615151010606/15/16 15:10:31  5-MIN KASE 152210Z 24006KT 10SM CLR 27/M03 A3009 7690 13 10800 230/06 RMK AO2 T02721033
93073KASE ASE20160615151510606/15/16 15:15:31  5-MIN KASE 152215Z 25009KT 10SM CLR 27/M02 A3009 7690 14 10800 240/09 RMK AO2 T02721022
93073KASE ASE20160615152011206/15/16 15:20:31  5-MIN KASE 152220Z 22009G15KT 10SM CLR 27/M03 A3009 7690 13 10800 220/09G15 RMK AO2 T02721033
93073KASE ASE20160615152510606/15/16 15:25:31  5-MIN KASE 152225Z 21010KT 10SM CLR 27/M03 A3009 7690 13 10800 200/10 RMK AO2 T02721028
93073KASE ASE20160615153012806/15/16 15:30:31  5-MIN KASE 152230Z 27010G17KT 240V320 10SM CLR 27/M03 A3008 7690 14 10700 260/10G17 230V310 RMK AO2 T02671028
93073KASE ASE20160615153510606/15/16 15:35:31  5-MIN KASE 152235Z 24013KT 10SM CLR 27/M03 A3008 7690 14 10700 230/13 RMK AO2 T02671028
93073KASE ASE20160615154011206/15/16 15:40:31  5-MIN KASE 152240Z 24009G17KT 10SM CLR 27/M02 A3008 7690 14 10700 230/09G17 RMK AO2 T02671022
93073KASE ASE20160615154512206/15/16 15:45:31  5-MIN KASE 152245Z 22007KT 160V270 10SM CLR 27/M02 A3008 7690 14 10800 210/07 150V260 RMK AO2 T02721022
93073KASE ASE20160615155011906/15/16 15:50:31  5-MIN KASE 152250Z 24012G16KT 10SM CLR 27/M03 A3008 7690 13 10700 230/12G16 RMK AO2 SLP057 T02671033
93073KASE ASE20160615155510606/15/16 15:55:31  5-MIN KASE 152255Z 23013KT 10SM CLR 27/M03 A3008 7690 14 10700 220/13 RMK AO2 T02671028
93073KASE ASE20160615160010606/15/16 16:00:31  5-MIN KASE 152300Z 23012KT 10SM CLR 27/M03 A3008 7690 14 10700 220/12 RMK AO2 T02671028
93073KASE ASE20160615160510606/15/16 16:05:31  5-MIN KASE 152305Z 23010KT 10SM CLR 27/M02 A3008 7690 14 10700 220/10 RMK AO2 T02671022
93073KASE ASE20160615161011206/15/16 16:10:31  5-MIN KASE 152310Z 23012G18KT 10SM CLR 27/M03 A3008 7690 14 10700 220/12G18 RMK AO2 T02671028
93073KASE ASE20160615161511206/15/16 16:15:31  5-MIN KASE 152315Z 23012G18KT 10SM CLR 27/M03 A3008 7700 14 10700 220/12G18 RMK AO2 T02671028
93073KASE ASE20160615162010606/15/16 16:20:31  5-MIN KASE 152320Z 23013KT 10SM CLR 27/M02 A3008 7700 14 10700 220/13 RMK AO2 T02671022
93073KASE ASE20160615162510606/15/16 16:25:31  5-MIN KASE 152325Z 23012KT 10SM CLR 26/M03 A3007 7700 14 10700 230/12 RMK AO2 T02611028
93073KASE ASE20160615163010606/15/16 16:30:31  5-MIN KASE 152330Z 23010KT 10SM CLR 26/M03 A3007 7700 14 10700 220/10 RMK AO2 T02611028
93073KASE ASE20160615163511206/15/16 16:35:31  5-MIN KASE 152335Z 23013G17KT 10SM CLR 26/M03 A3007 7700 14 10700 220/13G17 RMK AO2 T02611028
93073KASE ASE20160615164011206/15/16 16:40:31  5-MIN KASE 152340Z 25012G17KT 10SM CLR 26/M03 A3007 7700 14 10700 240/12G17 RMK AO2 T02611033
93073KASE ASE20160615164510606/15/16 16:45:31  5-MIN KASE 152345Z 24009KT 10SM CLR 26/M03 A3007 7700 14 10700 230/09 RMK AO2 T02611028
93073KASE ASE20160615165013106/15/16 16:50:31  5-MIN KASE 152350Z 24008KT 10SM CLR 26/M02 A3007 7700 15 10700 230/08 RMK AO2 SLP060 T02611022 10278 20244 58013
93073KASE ASE20160615165511206/15/16 16:55:31  5-MIN KASE 152355Z 23010G16KT 10SM CLR 26/M02 A3007 7700 15 10700 220/10G16 RMK AO2 T02611022
93073KASE ASE20160615170011206/15/16 17:00:31  5-MIN KASE 160000Z 23009G18KT 10SM CLR 26/M03 A3007 7700 15 10600 230/09G18 RMK AO2 T02561028
93073KASE ASE20160615170511206/15/16 17:05:31  5-MIN KASE 160005Z 25006G18KT 10SM CLR 26/M02 A3007 7700 15 10700 240/06G18 RMK AO2 T02611022
93073KASE ASE20160615171010606/15/16 17:10:31  5-MIN KASE 160010Z 23008KT 10SM CLR 26/M02 A3008 7700 15 10700 220/08 RMK AO2 T02611022
93073KASE ASE20160615171510606/15/16 17:15:31  5-MIN KASE 160015Z 23007KT 10SM CLR 26/M03 A3008 7700 15 10600 220/07 RMK AO2 T02561028
93073KASE ASE20160615172010606/15/16 17:20:31  5-MIN KASE 160020Z 23007KT 10SM CLR 26/M03 A3008 7700 14 10600 220/07 RMK AO2 T02561033
93073KASE ASE20160615172510606/15/16 17:25:31  5-MIN KASE 160025Z 23008KT 10SM CLR 26/M03 A3008 7700 14 10600 220/08 RMK AO2 T02561033
93073KASE ASE20160615173010606/15/16 17:30:31  5-MIN KASE 160030Z 24007KT 10SM CLR 26/M03 A3007 7700 14 10600 230/07 RMK AO2 T02561033
93073KASE ASE20160615173510606/15/16 17:35:31  5-MIN KASE 160035Z 23007KT 10SM CLR 26/M03 A3007 7700 15 10600 230/07 RMK AO2 T02561028
93073KASE ASE20160615174010606/15/16 17:40:31  5-MIN KASE 160040Z 23008KT 10SM CLR 26/M04 A3007 7700 14 10600 220/08 RMK AO2 T02561039
93073KASE ASE20160615174510606/15/16 17:45:31  5-MIN KASE 160045Z 23008KT 10SM CLR 25/M03 A3008 7700 15 10600 220/08 RMK AO2 T02501033
93073KASE ASE20160615175011306/15/16 17:50:31  5-MIN KASE 160050Z 25008KT 10SM CLR 25/M03 A3008 7700 15 10600 240/08 RMK AO2 SLP056 T02501028
93073KASE ASE20160615175510606/15/16 17:55:31  5-MIN KASE 160055Z 26008KT 10SM CLR 25/M03 A3008 7700 15 10600 250/08 RMK AO2 T02501028
93073KASE ASE20160615180010606/15/16 18:00:31  5-MIN KASE 160100Z 24007KT 10SM CLR 25/M03 A3008 7700 15 10600 230/07 RMK AO2 T02501028
93073KASE ASE20160615180510606/15/16 18:05:31  5-MIN KASE 160105Z 28007KT 10SM CLR 24/M03 A3008 7700 16 10500 270/07 RMK AO2 T02441028
93073KASE ASE20160615181010606/15/16 18:10:31  5-MIN KASE 160110Z 26009KT 10SM CLR 24/M02 A3008 7700 17 10400 250/09 RMK AO2 T02391022
93073KASE ASE20160615181510606/15/16 18:15:31  5-MIN KASE 160115Z 23007KT 10SM CLR 24/M04 A3008 7690 15 10500 220/07 RMK AO2 T02441039
93073KASE ASE20160615182010606/15/16 18:20:31  5-MIN KASE 160120Z 26007KT 10SM CLR 23/M02 A3008 7690 18 10400 260/07 RMK AO2 T02331022
93073KASE ASE20160615182510606/15/16 18:25:31  5-MIN KASE 160125Z 27006KT 10SM CLR 24/M03 A3008 7690 16 10400 260/06 RMK AO2 T02391033
93073KASE ASE20160615183010606/15/16 18:30:31  5-MIN KASE 160130Z 28004KT 10SM CLR 24/M03 A3008 7690 16 10400 270/04 RMK AO2 T02391033
93073KASE ASE20160615183510606/15/16 18:35:31  5-MIN KASE 160135Z 27009KT 10SM CLR 22/M03 A3009 7690 18 10300 260/09 RMK AO2 T02221028
93073KASE ASE20160615184010606/15/16 18:40:31  5-MIN KASE 160140Z 27007KT 10SM CLR 23/M04 A3009 7690 16 10300 260/07 RMK AO2 T02281044
93073KASE ASE20160615184510606/15/16 18:45:31  5-MIN KASE 160145Z 29009KT 10SM CLR 23/M05 A3009 7690 15 10300 280/09 RMK AO2 T02281050
93073KASE ASE20160615185011306/15/16 18:50:31  5-MIN KASE 160150Z 27009KT 10SM CLR 23/M06 A3009 7680 14 10300 270/09 RMK AO2 SLP059 T02281061
93073KASE ASE20160615185510606/15/16 18:55:31  5-MIN KASE 160155Z 27008KT 10SM CLR 23/M06 A3010 7680 14 10300 260/08 RMK AO2 T02281061
93073KASE ASE20160615190010606/15/16 19:00:31  5-MIN KASE 160200Z 27008KT 10SM CLR 22/M06 A3010 7680 14 10200 260/08 RMK AO2 T02221061
93073KASE ASE20160615190510606/15/16 19:05:31  5-MIN KASE 160205Z VRB05KT 10SM CLR 22/M06 A3010 7680 14 10200 VRB/05 RMK AO2 T02221061
93073KASE ASE20160615191010606/15/16 19:10:31  5-MIN KASE 160210Z 00000KT 10SM CLR 22/M05 A3010 7670 16 10200 000/00 RMK AO2 T02171050
93073KASE ASE20160615191510606/15/16 19:15:31  5-MIN KASE 160215Z 00000KT 10SM CLR 21/M04 A3010 7670 18 10100 000/00 RMK AO2 T02111039
93073KASE ASE20160615192010606/15/16 19:20:31  5-MIN KASE 160220Z 09003KT 10SM CLR 21/M04 A3011 7670 18 10100 080/03 RMK AO2 T02061044
93073KASE ASE20160615192510606/15/16 19:25:31  5-MIN KASE 160225Z VRB03KT 10SM CLR 20/M04 A3011 7670 18 10000 VRB/03 RMK AO2 T02001044
93073KASE ASE20160615193010506/15/16 19:30:31  5-MIN KASE 160230Z VRB03KT 10SM CLR 19/M03 A3011 7670 22 9900 VRB/03 RMK AO2 T01891028
93073KASE ASE20160615193510506/15/16 19:35:31  5-MIN KASE 160235Z VRB03KT 10SM CLR 17/M02 A3011 7670 28 9600 VRB/03 RMK AO2 T01671017
93073KASE ASE20160615194010506/15/16 19:40:31  5-MIN KASE 160240Z VRB03KT 10SM CLR 18/M03 A3011 7660 24 9700 VRB/03 RMK AO2 T01781028
93073KASE ASE20160615194510506/15/16 19:45:31  5-MIN KASE 160245Z 00000KT 10SM CLR 18/M03 A3011 7660 22 9800 000/00 RMK AO2 T01831033
93073KASE ASE20160615195011806/15/16 19:50:31  5-MIN KASE 160250Z 00000KT 10SM CLR 17/M02 A3012 7660 26 9700 000/00 RMK AO2 SLP070 T01721022 56011
93073KASE ASE20160615195510506/15/16 19:55:31  5-MIN KASE 160255Z 00000KT 10SM CLR 15/M01 A3012 7660 33 9400 000/00 RMK AO2 T01501011
93073KASE ASE20160615200010506/15/16 20:00:31  5-MIN KASE 160300Z 23004KT 10SM CLR 14/M01 A3012 7660 35 9400 220/04 RMK AO2 T01441006
93073KASE ASE20160615200510506/15/16 20:05:31  5-MIN KASE 160305Z 16003KT 10SM CLR 15/M01 A3012 7650 33 9400 150/03 RMK AO2 T01501011
93073KASE ASE20160615201010506/15/16 20:10:31  5-MIN KASE 160310Z 18006KT 10SM CLR 14/M01 A3013 7650 37 9300 170/06 RMK AO2 T01391006
93073KASE ASE20160615201513806/15/16 20:15:31  5-MIN KASE 160315Z 190040:40:31  5-MIN KASE 160340Z 21007KT 10SM CLR 14/M02 A3014 7640 31 9300 200/07 RMK AO2 T01441022
93073KASE ASE20160615204510506/15/16 20:45:31  5-MIN KASE 160345Z 21007KT 10SM CLR 13/M02 A3014 7640 34 9200 200/07 RMK AO2 T01331022
93073KASE ASE20160615205011206/15/16 20:50:31  5-MIN KASE 160350Z 18008KT 10SM CLR 14/M02 A3014 7640 34 9300 180/08 RMK AO2 SLP080 T01391017
93073KASE ASE20160615205510506/15/16 20:55:31  5-MIN KASE 160355Z 21008KT 10SM CLR 13/M01 A3014 7630 38 9200 200/08 RMK AO2 T01281011
93073KASE ASE20160615210010506/15/16 21:00:31  5-MIN KASE 160400Z 21008KT 10SM CLR 13/M02 A3014 7630 36 9200 200/08 RMK AO2 T01281017
93073KASE ASE20160615210510506/15/16 21:05:31  5-MIN KASE 160405Z 21007KT 10SM CLR 13/M02 A3015 7630 36 9200 200/07 RMK AO2 T01281017
93073KASE ASE20160615211010506/15/16 21:10:31  5-MIN KASE 160410Z 20007KT 10SM CLR 13/M02 A3015 7630 35 9200 190/07 RMK AO2 T01331017
93073KASE ASE20160615211510506/15/16 21:15:31  5-MIN KASE 160415Z 21008KT 10SM CLR 13/M02 A3015 7630 34 9200 200/08 RMK AO2 T01331022
93073KASE ASE20160615212010506/15/16 21:20:31  5-MIN KASE 160420Z 21010KT 10SM CLR 13/M02 A3015 7630 35 9100 200/10 RMK AO2 T01281022
93073KASE ASE20160615212510506/15/16 21:25:31  5-MIN KASE 160425Z 21009KT 10SM CLR 13/M02 A3015 7630 35 9100 200/09 RMK AO2 T01281022
93073KASE ASE20160615213010506/15/16 21:30:31  5-MIN KASE 160430Z 21009KT 10SM CLR 13/M02 A3015 7630 35 9200 200/09 RMK AO2 T01281022
93073KASE ASE20160615213510506/15/16 21:35:31  5-MIN KASE 160435Z 21009KT 10SM CLR 13/M02 A3015 7630 34 9200 210/09 RMK AO2 T01331022
93073KASE ASE20160615214010506/15/16 21:40:31  5-MIN KASE 160440Z 21007KT 10SM CLR 13/M03 A3015 7630 32 9200 200/07 RMK AO2 T01331028
93073KASE ASE20160615214510506/15/16 21:45:31  5-MIN KASE 160445Z 20006KT 10SM CLR 13/M02 A3014 7640 35 9200 190/06 RMK AO2 T01281022
93073KASE ASE20160615215011206/15/16 21:50:31  5-MIN KASE 160450Z 21008KT 10SM CLR 12/M02 A3015 7630 36 9100 200/08 RMK AO2 SLP082 T01221022
93073KASE ASE20160615215510506/15/16 21:55:31  5-MIN KASE 160455Z 21009KT 10SM CLR 13/M02 A3015 7630 34 9200 200/09 RMK AO2 T01331022
93073KASE ASE20160615220010506/15/16 22:00:31  5-MIN KASE 160500Z 20008KT 10SM CLR 13/M02 A3015 7630 35 9200 190/08 RMK AO2 T01281022
93073KASE ASE20160615220510506/15/16 22:05:31  5-MIN KASE 160505Z 22009KT 10SM CLR 12/M02 A3015 7630 36 9100 210/09 RMK AO2 T01221022
93073KASE ASE20160615221010506/15/16 22:10:31  5-MIN KASE 160510Z 21010KT 10SM CLR 12/M02 A3015 7630 38 9000 200/10 RMK AO2 T01171022
93073KASE ASE20160615221510506/15/16 22:15:31  5-MIN KASE 160515Z 20009KT 10SM CLR 11/M02 A3014 7630 39 9000 190/09 RMK AO2 T01111022
93073KASE ASE20160615222010506/15/16 22:20:31  5-MIN KASE 160520Z 21011KT 10SM CLR 12/M02 A3014 7640 38 9000 200/11 RMK AO2 T01171022
93073KASE ASE20160615222510506/15/16 22:25:31  5-MIN KASE 160525Z 21012KT 10SM CLR 11/M02 A3014 7640 39 9000 200/12 RMK AO2 T01111022
93073KASE ASE20160615223010506/15/16 22:30:31  5-MIN KASE 160530Z 21011KT 10SM CLR 12/M03 A3014 7640 36 9000 200/11 RMK AO2 T01171028
93073KASE ASE20160615223510506/15/16 22:35:31  5-MIN KASE 160535Z 22012KT 10SM CLR 11/M03 A3014 7640 37 9000 210/12 RMK AO2 T01111028
93073KASE ASE20160615224010506/15/16 22:40:31  5-MIN KASE 160540Z 21011KT 10SM CLR 11/M02 A3014 7640 40 8900 200/11 RMK AO2 T01061022
93073KASE ASE20160615224510506/15/16 22:45:31  5-MIN KASE 160545Z 21008KT 10SM CLR 11/M03 A3014 7640 37 9000 200/08 RMK AO2 T01111028
93073KASE ASE20160615225013006/15/16 22:50:31  5-MIN KASE 160550Z 22011KT 10SM CLR 11/M03 A3014 7640 37 9000 210/11 RMK AO2 SLP077 T01111028 10261 20106 53012
93073KASE ASE20160615225510506/15/16 22:55:31  5-MIN KASE 160555Z 21009KT 10SM CLR 12/M03 A3014 7640 35 9000 200/09 RMK AO2 T01171033
93073KASE ASE20160615230010506/15/16 23:00:31  5-MIN KASE 160600Z 21010KT 10SM CLR 12/M04 A3014 7640 32 9100 200/10 RMK AO2 T01221039
93073KASE ASE20160615230510506/15/16 23:05:31  5-MIN KASE 160605Z 20010KT 10SM CLR 12/M03 A3014 7640 35 9000 190/10 RMK AO2 T01171033
93073KASE ASE20160615231010506/15/16 23:10:31  5-MIN KASE 160610Z 21009KT 10SM CLR 12/M04 A3014 7640 32 9100 200/09 RMK AO2 T01221039
93073KASE ASE20160615231510506/15/16 23:15:31  5-MIN KASE 160615Z 21010KT 10SM CLR 12/M04 A3014 7640 32 9100 200/10 RMK AO2 T01221039
93073KASE ASE20160615232010506/15/16 23:20:31  5-MIN KASE 160620Z 20009KT 10SM CLR 12/M04 A3014 7640 33 9000 190/09 RMK AO2 T01171039
93073KASE ASE20160615232510506/15/16 23:25:31  5-MIN KASE 160625Z 21010KT 10SM CLR 10/M03 A3014 7640 40 8900 200/10 RMK AO2 T01001028
93073KASE ASE20160615233010506/15/16 23:30:31  5-MIN KASE 160630Z 21010KT 10SM CLR 10/M03 A3014 7640 39 8900 200/10 RMK AO2 T01001033
93073KASE ASE20160615233510506/15/16 23:35:31  5-MIN KASE 160635Z 22009KT 10SM CLR 10/M03 A3013 7640 39 8900 210/09 RMK AO2 T01001033
93073KASE ASE20160615234010506/15/16 23:40:31  5-MIN KASE 160640Z 21008KT 10SM CLR 11/M03 A3014 7640 37 8900 200/08 RMK AO2 T01061033
93073KASE ASE20160615234510506/15/16 23:45:31  5-MIN KASE 160645Z 21007KT 10SM CLR 11/M04 A3013 7640 34 9000 200/07 RMK AO2 T01111039
93073KASE ASE20160615235012206/15/16 23:50:31  5-MIN KASE 160650Z 19008KT 10SM CLR 11/M04 A3013 7640 36 8900 180/08 RMK AO2 SLP075 T01061039 402780061
93073KASE ASE20160615235510506/15/16 23:55:31  5-MIN KASE 160655Z 18008KT 10SM CLR 11/M04 A3013 7650 36 8900 170/08 RMK AO2 T01061039
93073KASE ASE20160616000010506/16/16 00:00:31  5-MIN KASE 160700Z 20008KT 10SM CLR 11/M04 A3014 7640 36 8900 190/08 RMK AO2 T01061039
93073KASE ASE20160616000510506/16/16 00:05:31  5-MIN KASE 160705Z 19007KT 10SM CLR 11/M04 A3014 7640 33 9000 180/07 RMK AO2 T01111044
93073KASE ASE20160616001010506/16/16 00:10:31  5-MIN KASE 160710Z 21009KT 10SM CLR 11/M04 A3014 7640 34 8900 200/09 RMK AO2 T01061044
93073KASE ASE20160616001510506/16/16 00:15:31  5-MIN KASE 160715Z 21008KT 10SM CLR 11/M04 A3014 7640 34 8900 200/08 RMK AO2 T01061044
93073KASE ASE20160616002010506/16/16 00:20:31  5-MIN KASE 160720Z 23007KT 10SM CLR 10/M04 A3014 7640 37 8800 220/07 RMK AO2 T01001039
93073KASE ASE20160616002510506/16/16 00:25:31  5-MIN KASE 160725Z 00000KT 10SM CLR 09/M04 A3014 7640 39 8800 000/00 RMK AO2 T00941039
93073KASE ASE20160616003010506/16/16 00:30:31  5-MIN KASE 160730Z 00000KT 10SM CLR 08/M02 A3014 7640 47 8700 000/00 RMK AO2 T00831022
93073KASE ASE20160616003510506/16/16 00:35:31  5-MIN KASE 160735Z VRB03KT 10SM CLR 08/M03 A3014 7640 45 8700 VRB/03 RMK AO2 T00831028
93073KASE ASE20160616004010506/16/16 00:40:31  5-MIN KASE 160740Z 00000KT 10SM CLR 07/M02 A3014 7640 53 8500 000/00 RMK AO2 T00671022
93073KASE ASE20160616004514406/16/16 00:45:31  5-MIN KASE 160745Z 21005KT 10SM CLR 07/M03 A3014 7640 51 8500 200/05 RMK AO2 T0067102806/16/ 40 8600 200/09 RMK AO2 T00831044
93073KASE ASE20160616022510506/16/16 02:25:31  5-MIN KASE 160925Z 18006KT 10SM CLR 08/M04 A3015 7630 42 8600 180/06 RMK AO2 T00831039
93073KASE ASE20160616023010506/16/16 02:30:31  5-MIN KASE 160930Z 20008KT 10SM CLR 08/M04 A3015 7630 41 8600 190/08 RMK AO2 T00781044
93073KASE ASE20160616023510506/16/16 02:35:31  5-MIN KASE 160935Z 19007KT 10SM CLR 08/M04 A3015 7630 40 8600 180/07 RMK AO2 T00831044
93073KASE ASE20160616024010506/16/16 02:40:31  5-MIN KASE 160940Z 20007KT 10SM CLR 07/M04 A3015 7630 47 8500 190/07 RMK AO2 T00671039
93073KASE ASE20160616024510506/16/16 02:45:31  5-MIN KASE 160945Z VRB03KT 10SM CLR 08/M04 A3015 7630 41 8600 VRB/03 RMK AO2 T00781044
93073KASE ASE20160616025011206/16/16 02:50:31  5-MIN KASE 160950Z 00000KT 10SM CLR 07/M03 A3016 7620 49 8400 000/00 RMK AO2 SLP088 T00671033
93073KASE ASE20160616025510506/16/16 02:55:31  5-MIN KASE 160955Z 00000KT 10SM CLR 06/M03 A3016 7620 51 8400 000/00 RMK AO2 T00611033
93073KASE ASE20160616030010506/16/16 03:00:31  5-MIN KASE 161000Z 21003KT 10SM CLR 06/M03 A3016 7620 51 8400 200/03 RMK AO2 T00611033
93073KASE ASE20160616030510506/16/16 03:05:31  5-MIN KASE 161005Z 21004KT 10SM CLR 05/M03 A3016 7620 57 8300 200/04 RMK AO2 T00501028
93073KASE ASE20160616031010506/16/16 03:10:31  5-MIN KASE 161010Z 21004KT 10SM CLR 05/M03 A3016 7620 57 8300 200/04 RMK AO2 T00501028
93073KASE ASE20160616031510506/16/16 03:15:31  5-MIN KASE 161015Z 20004KT 10SM CLR 05/M03 A3016 7620 57 8300 190/04 RMK AO2 T00501028
93073KASE ASE20160616032010506/16/16 03:20:31  5-MIN KASE 161020Z 20006KT 10SM CLR 06/M03 A3016 7620 55 8300 190/06 RMK AO2 T00561028
93073KASE ASE20160616032510506/16/16 03:25:31  5-MIN KASE 161025Z 18005KT 10SM CLR 05/M03 A3016 7620 55 8200 170/05 RMK AO2 T00501033
93073KASE ASE20160616033010506/16/16 03:30:31  5-MIN KASE 161030Z 19008KT 10SM CLR 07/M04 A3017 7610 47 8400 180/08 RMK AO2 T00671039
93073KASE ASE20160616033510506/16/16 03:35:31  5-MIN KASE 161035Z 21008KT 10SM CLR 06/M03 A3017 7610 51 8400 200/08 RMK AO2 T00611033
93073KASE ASE20160616034010506/16/16 03:40:31  5-MIN KASE 161040Z 19008KT 10SM CLR 07/M04 A3017 7610 45 8500 180/08 RMK AO2 T00721039
93073KASE ASE20160616034510506/16/16 03:45:31  5-MIN KASE 161045Z 20007KT 10SM CLR 07/M04 A3017 7610 47 8400 190/07 RMK AO2 T00671039
93073KASE ASE20160616035011206/16/16 03:50:31  5-MIN KASE 161050Z 19006KT 10SM CLR 07/M04 A3017 7610 43 8500 180/06 RMK AO2 SLP094 T00721044
93073KASE ASE20160616035510506/16/16 03:55:31  5-MIN KASE 161055Z 14005KT 10SM CLR 07/M04 A3017 7610 47 8400 130/05 RMK AO2 T00671039
93073KASE ASE20160616040010506/16/16 04:00:31  5-MIN KASE 161100Z 15005KT 10SM CLR 06/M03 A3017 7610 51 8400 140/05 RMK AO2 T00611033
93073KASE ASE20160616040510506/16/16 04:05:31  5-MIN KASE 161105Z 15003KT 10SM CLR 07/M04 A3018 7600 47 8400 140/03 RMK AO2 T00671039
93073KASE ASE20160616041010506/16/16 04:10:31  5-MIN KASE 161110Z 20004KT 10SM CLR 04/M03 A3018 7600 57 8200 190/04 RMK AO2 T00441033
93073KASE ASE20160616041510506/16/16 04:15:31  5-MIN KASE 161115Z 17006KT 10SM CLR 05/M03 A3018 7610 55 8200 170/06 RMK AO2 T00501033
93073KASE ASE20160616042010506/16/16 04:20:31  5-MIN KASE 161120Z 20005KT 10SM CLR 05/M04 A3018 7600 52 8200 190/05 RMK AO2 T00501039
93073KASE ASE20160616042510506/16/16 04:25:31  5-MIN KASE 161125Z 18005KT 10SM CLR 06/M04 A3018 7600 48 8400 170/05 RMK AO2 T00611039
93073KASE ASE20160616043010506/16/16 04:30:31  5-MIN KASE 161130Z 20006KT 10SM CLR 07/M04 A3018 7600 45 8400 190/06 RMK AO2 T00671044
93073KASE ASE20160616043510506/16/16 04:35:31  5-MIN KASE 161135Z 17005KT 10SM CLR 06/M04 A3018 7600 48 8400 160/05 RMK AO2 T00611039
93073KASE ASE20160616044010506/16/16 04:40:31  5-MIN KASE 161140Z 19006KT 10SM CLR 06/M03 A3018 7600 51 8400 180/06 RMK AO2 T00611033
93073KASE ASE20160616044510506/16/16 04:45:31  5-MIN KASE 161145Z 18007KT 10SM CLR 06/M04 A3018 7600 48 8400 170/07 RMK AO2 T00611039
93073KASE ASE20160616045013006/16/16 04:50:31  5-MIN KASE 161150Z VRB06KT 10SM CLR 06/M04 A3018 7600 48 8400 VRB/06 RMK AO2 SLP103 T00611039 10122 20039 53003
93073KASE ASE20160616045510506/16/16 04:55:31  5-MIN KASE 161155Z 00000KT 10SM CLR 04/M04 A3019 7590 55 8200 000/00 RMK AO2 T00441039
93073KASE ASE20160616050010506/16/16 05:00:31  5-MIN KASE 161200Z VRB03KT 10SM CLR 05/M03 A3019 7600 55 8200 VRB/03 RMK AO2 T00501033
93073KASE ASE20160616050510506/16/16 05:05:31  5-MIN KASE 161205Z 19004KT 10SM CLR 05/M03 A3019 7590 55 8200 190/04 RMK AO2 T00501033
93073KASE ASE20160616051010506/16/16 05:10:31  5-MIN KASE 161210Z 19006KT 10SM CLR 06/M03 A3019 7590 53 8300 190/06 RMK AO2 T00561033
93073KASE ASE20160616051510506/16/16 05:15:31  5-MIN KASE 161215Z 20006KT 10SM CLR 05/M03 A3019 7600 55 8200 190/06 RMK AO2 T00501033
93073KASE ASE20160616052010506/16/16 05:20:31  5-MIN KASE 161220Z 20007KT 10SM CLR 05/M03 A3018 7600 55 8200 190/07 RMK AO2 T00501033
93073KASE ASE20160616052510506/16/16 05:25:31  5-MIN KASE 161225Z 21007KT 10SM CLR 05/M03 A3019 7600 55 8200 200/07 RMK AO2 T00501033
93073KASE ASE20160616053010706/16/16 05:30:31  5-MIN KASE 161230Z 21007KT 10SM CLR 06/M03 A3018 7600 53 8300 200/07 RMKMK AO2 T00941028
93073KASE ASE20160616054010506/16/16 05:40:31  5-MIN KASE 161240Z 00000KT 10SM CLR 07/M02 A3019 7590 53 8400 000/00 RMK AO2 T00671022
93073KASE ASE20160616054510506/16/16 05:45:31  5-MIN KASE 161245Z 00000KT 10SM CLR 07/M02 A3019 7590 51 8500 000/00 RMK AO2 T00721022
93073KASE ASE20160616055011206/16/16 05:50:31  5-MIN KASE 161250Z 00000KT 10SM CLR 07/M02 A3019 7590 51 8500 000/00 RMK AO2 SLP107 T00721022
93073KASE ASE20160616055510506/16/16 05:55:31  5-MIN KASE 161255Z 00000KT 10SM CLR 08/M02 A3020 7590 47 8600 000/00 RMK AO2 T00831022
93073KASE ASE20160616060010506/16/16 06:00:31  5-MIN KASE 161300Z 00000KT 10SM CLR 09/M03 A3020 7590 42 8700 000/00 RMK AO2 T00941028
93073KASE ASE20160616060510506/16/16 06:05:31  5-MIN KASE 161305Z 00000KT 10SM CLR 09/M03 A3019 7590 42 8700 000/00 RMK AO2 T00941028
93073KASE ASE20160616061010506/16/16 06:10:31  5-MIN KASE 161310Z 19003KT 10SM CLR 10/M03 A3020 7580 39 8800 180/03 RMK AO2 T01001033
93073KASE ASE20160616061510506/16/16 06:15:31  5-MIN KASE 161315Z 00000KT 10SM CLR 11/M03 A3020 7580 37 8800 000/00 RMK AO2 T01061033
93073KASE ASE20160616062010506/16/16 06:20:31  5-MIN KASE 161320Z 00000KT 10SM CLR 11/M02 A3020 7580 40 8800 000/00 RMK AO2 T01061022
93073KASE ASE20160616062510506/16/16 06:25:31  5-MIN KASE 161325Z 00000KT 10SM CLR 11/M03 A3020 7580 37 8900 000/00 RMK AO2 T01111028
93073KASE ASE20160616063010506/16/16 06:30:31  5-MIN KASE 161330Z 17003KT 10SM CLR 11/M03 A3020 7580 36 8900 160/03 RMK AO2 T01111033
93073KASE ASE20160616063510506/16/16 06:35:31  5-MIN KASE 161335Z 17005KT 10SM CLR 12/M04 A3020 7580 33 9000 160/05 RMK AO2 T01171039
93073KASE ASE20160616064010506/16/16 06:40:31  5-MIN KASE 161340Z 17004KT 10SM CLR 12/M04 A3020 7580 33 9000 160/04 RMK AO2 T01171039
93073KASE ASE20160616064510506/16/16 06:45:31  5-MIN KASE 161345Z 12004KT 10SM CLR 12/M03 A3020 7580 33 9000 110/04 RMK AO2 T01221033
93073KASE ASE20160616065011206/16/16 06:50:31  5-MIN KASE 161350Z 00000KT 10SM CLR 12/M02 A3021 7580 36 9000 000/00 RMK AO2 SLP104 T01221022
93073KASE ASE20160616065510506/16/16 06:55:31  5-MIN KASE 161355Z VRB03KT 10SM CLR 13/M02 A3021 7580 35 9100 VRB/03 RMK AO2 T01281022
93073KASE ASE20160616070010506/16/16 07:00:31  5-MIN KASE 161400Z 13003KT 10SM CLR 12/M02 A3021 7580 36 9000 120/03 RMK AO2 T01221022
93073KASE ASE20160616070510506/16/16 07:05:31  5-MIN KASE 161405Z 16003KT 10SM CLR 13/M03 A3021 7580 32 9100 150/03 RMK AO2 T01281033
93073KASE ASE20160616071010506/16/16 07:10:31  5-MIN KASE 161410Z 00000KT 10SM CLR 13/M04 A3021 7570 30 9100 000/00 RMK AO2 T01331039
93073KASE ASE20160616071510506/16/16 07:15:31  5-MIN KASE 161415Z 00000KT 10SM CLR 13/M04 A3021 7570 30 9100 000/00 RMK AO2 T01331039
93073KASE ASE20160616072010506/16/16 07:20:31  5-MIN KASE 161420Z 00000KT 10SM CLR 14/M04 A3022 7570 29 9200 000/00 RMK AO2 T01391039
93073KASE ASE20160616072510506/16/16 07:25:31  5-MIN KASE 161425Z 00000KT 10SM CLR 14/M04 A3022 7570 28 9300 000/00 RMK AO2 T01441039
93073KASE ASE20160616073010506/16/16 07:30:31  5-MIN KASE 161430Z 00000KT 10SM CLR 14/M04 A3022 7570 26 9300 000/00 RMK AO2 T01441044
93073KASE ASE20160616073510506/16/16 07:35:31  5-MIN KASE 161435Z 00000KT 10SM CLR 14/M03 A3022 7570 29 9300 000/00 RMK AO2 T01441033
93073KASE ASE20160616074010506/16/16 07:40:31  5-MIN KASE 161440Z 00000KT 10SM CLR 15/M03 A3022 7570 29 9300 000/00 RMK AO2 T01501028
93073KASE ASE20160616074510506/16/16 07:45:31  5-MIN KASE 161445Z 00000KT 10SM CLR 15/M03 A3022 7570 28 9300 000/00 RMK AO2 T01501033
93073KASE ASE20160616075011806/16/16 07:50:31  5-MIN KASE 161450Z 00000KT 10SM CLR 16/M03 A3021 7570 27 9400 000/00 RMK AO2 SLP111 T01561033 53011
93073KASE ASE20160616075510506/16/16 07:55:31  5-MIN KASE 161455Z 00000KT 10SM CLR 16/M03 A3022 7570 27 9400 000/00 RMK AO2 T01611028
93073KASE ASE20160616080010506/16/16 08:00:31  5-MIN KASE 161500Z 00000KT 10SM CLR 17/M03 A3021 7570 26 9500 000/00 RMK AO2 T01671028
93073KASE ASE20160616080510506/16/16 08:05:31  5-MIN KASE 161505Z 11003KT 10SM CLR 16/M03 A3021 7570 27 9400 100/03 RMK AO2 T01611028
93073KASE ASE20160616081010506/16/16 08:10:31  5-MIN KASE 161510Z 00000KT 10SM CLR 17/M03 A3021 7570 26 9500 000/00 RMK AO2 T01671028
93073KASE ASE20160616081510506/16/16 08:15:31  5-MIN KASE 161515Z 04003KT 10SM CLR 18/M03 A3021 7570 23 9600 030/03 RMK AO2 T01781033
93073KASE ASE20160616082010506/16/16 08:20:31  5-MIN KASE 161520Z 00000KT 10SM CLR 18/M03 A3021 7570 23 9600 000/00 RMK AO2 T01781033
93073KASE ASE20160616082510506/16/16 08:25:31  5-MIN KASE 161525Z VRB04KT 10SM CLR 18/M04 A3021 7580 21 9700 VRB/04 RMK AO2 T01831044
93073KASE ASE20160616083010506/16/16 08:30:31  5-MIN KASE 161530Z 03004KT 10SM CLR 18/M03 A3021 7580 23 9700 020/04 RMK AO2 T01831028
93073KASE ASE20160616083510506/16/16 08:35:31  5-MIN KASE 161535Z 01006KT 10SM CLR 18/M02 A3021 7580 24 9700 360/06 RMK AO2 T01831022
93073KASE ASE20160616084010506/16/16 08:40:31  5-MIN KASE 161540Z 01006KT 10SM CLR 19/M02 A3020 7580 24 9800 010/06 RMK AO2 T01891017
93073KASE ASE20160616084510506/16/16 08:45:31  5-MIN KASE 161545Z VRB04KT 10SM CLR 19/M02 A3020 7580 23 9800 VRB/04 RMK AO2 T01891022
93073KASE ASE20160616085011206/16/16 08:50:31  5-MIN KASE 161550Z 01005KT 10SM CLR 19/M02 A3020 7580 23 9800 360/05 RMK AO2 SLP107 T01891022
93073KASE ASE20160616085510506/16/16 08:55:31  5-MIN KASE 161555Z 01007KT 10SM CLR 19/M02 A3021 7580 23 9800 360/07 RMK AO2 T01891022
93073KASE ASE20160616090010506/16/16 09:00:31  5-MIN KASE 161600Z VRB04KT 10SM CLR 19/M02 A3021 7580 24 9800 VRB/04 RMK AO2 T01941017
93073KASE ASE20160616090510506/16/16 09:05:31  5-MIN KASE 161605Z 35005KT 10SM CLR 20/M02 A3020 7580 22 9900 340/05 RMK AO2 T02001022
93073KASE ASE20160616091010506/16/16 09:10:31  5-MIN KASE 161610Z 01005KT 10SM CLR 20/M03 A3020 7580 21 9900 360/05 RMK AO2 T02001028
93073KASE ASE20160616091510506/16/16 09:15:31  5-MIN KASE 161615Z 01004KT 10SM CLR 20/M03 A3020 7580 20 9900 360/04 RMK AO2 T02001033
93073KASE ASE20160616092010506/16/16 09:20:31  5-MIN KASE 161620Z 36006KT 10SM CLR 21/M03 A3020 7580 19 9900 350/06 RMK AO2 T02061033
93073KASE ASE20160616092510506/16/16 09:25:31  5-MIN KASE 161625Z VRB05KT 10SM CLR 21/M02 A3020 7590 21 9900 VRB/05 RMK AO2 T02061022
93073KASE ASE20160616093010606/16/16 09:30:31  5-MIN KASE 161630Z VRB05KT 10SM CLR 21/M02 A3020 7590 21 10000 VRB/05 RMK AO2 T02061022
93073KASE ASE20160616093510506/16/16 09:35:31  5-MIN KASE 161635Z 02007KT 10SM CLR 21/M04 A3020 7590 19 9900 020/07 RMK AO2 T02061039
93073KASE ASE20160616094010606/16/16 09:40:31  5-MIN KASE 161640Z VRB06KT 10SM CLR 21/M04 A3020 7590 18 10000 VRB/06 RMK AO2 T02111039
93073KASE ASE20160616094510506/16/16 09:45:31  5-MIN KASE 161645Z VRB03KT 9SM CLR 21/M04 A3020 7580 18 10000 VRB/03 RMK AO2 T02111039
93073KASE ASE20160616095011306/16/16 09:50:31  5-MIN KASE 161650Z 36008KT 10SM CLR 21/M04 A3020 7590 18 10000 350/08 RMK AO2 SLP104 T02111039
93073KASE ASE20160616095510606/16/16 09:55:31  5-MIN KASE 161655Z VRB05KT 10SM CLR 22/M04 A3020 7590 17 10100 VRB/05 RMK AO2 T02171039
93073KASE ASE20160616100010606/16/16 10:00:31  5-MIN KASE 161700Z 05006KT 10SM CLR 22/M04 A3019 7590 17 10100 040/06 RMK AO2 T02171039
93073KASE ASE20160616100510606/16/16 10:05:31  5-MIN KASE 161705Z 34006KT 10SM CLR 22/M04 A3020 7590 17 10100 330/06 RMK AO2 T02171044
93073KASE ASE20160616101010606/16/16 10:10:31  5-MIN KASE 161710Z 04005KT 10SM CLR 22/M06 A3020 7590 15 10100 030/05 RMK AO2 T02171056
93073KASE ASE20160616101510606/16/16 10:15:31  5-MIN KASE 161715Z VRB04KT 10SM CLR 22/M06 A3020 7590 15 10100 VRB/04 RMK AO2 T02171061
93073KASE ASE20160616102010606/16/16 10:20:31  5-MIN KASE 161720Z VRB06KT 10SM CLR 23/M04 A3020 7590 16 10200 VRB/06 RMK AO2 T02281044
93073KASE ASE20160616102510606/16/16 10:25:31  5-MIN KASE 161725Z VRB06KT 10SM CLR 22/M06 A3020 7590 15 10100 VRB/06 RMK AO2 T02221056
93073KASE ASE20160616103010606/16/16 10:30:31  5-MIN KASE 161730Z 02005KT 10SM CLR 22/M07 A3020 7590 14 10100 020/05 RMK AO2 T02221067
93073KASE ASE20160616103510606/16/16 10:35:31  5-MIN KASE 161735Z 31009KT 10SM CLR 23/M07 A3020 7590 13 10200 300/09 RMK AO2 T02281067
93073KASE ASE20160616104011206/16/16 10:40:31  5-MIN KASE 161740Z VRB04G15KT 10SM CLR 23/M07 A3020 7590 13 10200 VRB/04G15 RMK AO2 T02281072
93073KASE ASE20160616104511206/16/16 10:45:31  5-MIN KASE 161745Z VRB03G15KT 10SM CLR 23/M08 A3020 7590 12 10200 VRB/03G15 RMK AO2 T02281078
93073KASE ASE20160616105013106/16/16 10:50:31  5-MIN KASE 161750Z 33008KT 10SM CLR 23/M08 A3020 7590 12 10200 320/08 RMK AO2 SLP100 T02281078 10233 20044 51006
93073KASE ASE20160616105512206/16/16 10:55:31  5-MIN KASE 161755Z 34007KT 290V010 10SM CLR 23/M07 A3019 7590 13 10200 330/07 280V360 RMK AO2 T02281072
93073KASE ASE20160616110010606/16/16 11:00:31  5-MIN KASE 161800Z 00000KT 10SM CLR 22/M08 A3020 7590 12 10100 000/00 RMK AO2 T02171083
93073KASE ASE20160616110510606/16/16 11:05:31  5-MIN KASE 161805Z VRB05KT 10SM CLR 23/M07 A3020 7590 13 10300 VRB/05 RMK AO2 T02331067
93073KASE ASE20160616111010606/16/16 11:10:31  5-MIN KASE 161810Z 02007KT 10SM CLR 24/M07 A3020 7590 12 10300 010/07 RMK AO2 T02391067
93073KASE ASE20160616111510606/16/16 11:15:31  5-MIN KASE 161815Z 06006KT 10SM CLR 24/M06 A3019 7590 13 10300 050/06 RMK AO2 T02391061
93073KASE ASE20160616112010606/16/16 11:20:31  5-MIN KASE 161820Z VRB04KT 10SM CLR 23/M07 A3019 7590 13 10300 VRB/04 RMK AO2 T02331067
93073KASE ASE20160616112510606/16/16 11:25:31  5-MIN KASE 161825Z VRB03KT 10SM CLR 24/M08 A3019 7590 11 10300 VRB/03 RMK AO2 T02391078
93073KASE ASE20160616113009606/16/16 11:30:31  5-MIN KASE 161830Z 10SM CLR 24/M07 A3019 7590 12 10300 M /M RMK AO2 T02391067
93073KASE ASE20160616113510606/16/16 11:35:31  5-MIN KASE 161835Z 36007KT 10SM CLR 24/M06 A3019 7590 13 10300 350/07 RMK AO2 T02391061
93073KASE ASE20160616114010606/16/16 11:40:31  5-MIN KASE 161840Z 35008KT 10SM CLR 24/M05 A3019 7600 14 10300 340/08 RMK AO2 T02391050
93073KASE ASE20160616114511206/16/16 11:45:31  5-MIN KASE 161845Z 01008G15KT 10SM CLR 24/M05 A3019 7600 14 10300 360/08G15 RMK AO2 T02391050
93073KASE ASE20160616115013506/16/16 11:50:31  5-MIN KASE 161850Z 03008G15KT 340V060 10SM CLR 24/M04 A3019 7600 14 10300 020/08G15 330V050 RMK AO2 SLP097 T02391044
93073KASE ASE20160616115510606/16/16 11:55:31  5-MIN KASE 161855Z 01008KT 10SM CLR 24/M04 A3019 7600 14 10300 360/08 RMK AO2 T02391044
93073KASE ASE20160616120012206/16/16 12:00:31  5-MIN KASE 161900Z 36008KT 340V050 10SM CLR 24/M04 A3019 7600 14 10300 350/08 330V040 RMK AO2 T02391044
93073KASE ASE20160616120512206/16/16 12:05:31  5-MIN KASE 161905Z 35010KT 320V020 10SM CLR 24/M05 A3018 7600 13 10400 340/10 310V010 RMK AO2 T02441050
93073KASE ASE20160616121010606/16/16 12:10:31  5-MIN KASE 161910Z 35010KT 10SM CLR 24/M05 A3019 7600 13 10400 340/10 RMK AO2 T02441050
93073KASE ASE20160616121511206/16/16 12:15:31  5-MIN KASE 161915Z 01009G15KT 10SM CLR 24/M05 A3018 7600 14 10300 360/09G15 RMK AO2 T02391050
93073KASE ASE20160616122011206/16/16 12:20:31  5-MIN KASE 161920Z 01012G17KT 10SM CLR 24/M06 A3018 7600 13 10300 360/12G17 RMK AO2 T02391056
93073KASE ASE20160616122511206/16/16 12:25:31  5-MIN KASE 161925Z 03008G17KT 10SM CLR 24/M05 A3018 7600 14 10300 020/08G17 RMK AO2 T02391050
93073KASE ASE20160616123011206/16/16 12:30:31  5-MIN KASE 161930Z 35012G17KT 10SM CLR 24/M05 A3018 7610 13 10400 340/12G17 RMK AO2 T02441050
93073KASE ASE20160616123511206/16/16 12:35:31  5-MIN KASE 161935Z 36011G17KT 10SM CLR 24/M05 A3018 7600 13 10400 350/11G17 RMK AO2 T02441050
93073KASE ASE20160616124010606/16/16 12:40:31  5-MIN KASE 161940Z 01010KT 10SM CLR 24/M06 A3018 7600 13 10400 010/10 RMK AO2 T02441056
93073KASE ASE20160616124510606/16/16 12:45:31  5-MIN KASE 161945Z 35008KT 10SM CLR 25/M06 A3018 7600 12 10400 350/08 RMK AO2 T02501061
93073KASE ASE20160616125011306/16/16 12:50:31  5-MIN KASE 161950Z 01011KT 10SM CLR 24/M06 A3018 7600 13 10400 360/11 RMK AO2 SLP099 T02441056
93073KASE ASE20160616125511206/16/16 12:55:31  5-MIN KASE 161955Z 36008G16KT 10SM CLR 25/M06 A3018 7600 12 10400 350/08G16 RMK AO2 T02501061
93073KASE ASE20160616130011206/16/16 13:00:31  5-MIN KASE 162000Z 04008G16KT 10SM CLR 25/M07 A3018 7600 11 10400 030/08G16 RMK AO2 T02501067
93073KASE ASE20160616130511206/16/16 13:05:31  5-MIN KASE 162005Z 01010G16KT 10SM CLR 25/M06 A3017 7610 12 10500 360/10G16 RMK AO2 T02501061
93073KASE ASE20160616131011206/16/16 13:10:31  5-MIN KASE 162010Z 33009G17KT 10SM CLR 26/M06 A3018 7610 12 10500 320/09G17 RMK AO2 T02561061
93073KASE ASE20160616131511206/16/16 13:15:31  5-MIN KASE 162015Z 35012G17KT 10SM CLR 26/M07 A3018 7610 11 10500 340/12G17 RMK AO2 T02561067
93073KASE ASE20160616132012806/16/16 13:20:31  5-MIN KASE 162020Z 04010G17KT 350V070 10SM CLR 25/M06 A3017 7610 12 10500 030/10G17 340V060 RMK AO2 T02501061
93073KASE ASE20160616132511206/16/16 13:25:31  5-MIN KASE 162025Z 01013G19KT 10SM CLR 26/M06 A3017 7610 11 10600 360/13G19 RMK AO2 T02611061
93073KASE ASE20160616133011206/16/16 13:30:31  5-MIN KASE 162030Z 35011G19KT 10SM CLR 26/M06 A3017 7610 11 10600 340/11G19 RMK AO2 T02611061
93073KASE ASE20160616133511206/16/16 13:35:31  5-MIN KASE 162035Z 34014G21KT 10SM CLR 26/M07 A3017 7610 11 10500 340/14G21 RMK AO2 T02561067
93073KASE ASE20160616134011206/16/16 13:40:31  5-MIN KASE 162040Z 35015G21KT 10SM CLR 26/M06 A3017 7610 12 10500 340/15G21 RMK AO2 T02561061
93073KASE ASE20160616134511206/16/16 13:45:31  5-MIN KASE 162045Z 36011G20KT 10SM CLR 25/M06 A3018 7600 12 10400 350/11G20 RMK AO2 T02501061
93073KASE ASE20160616135012506/16/16 13:50:31  5-MIN KASE 162050Z 02013G20KT 10SM CLR 25/M05 A3018 7600 13 10400 010/13G20 RMK AO2 SLP100 T02501050 56006
93073KASE ASE20160616135511206/16/16 13:55:31  5-MIN KASE 162055Z 03011G20KT 10SM CLR 25/M03 A3018 7600 15 10400 020/11G20 RMK AO2 T02501033
93073KASE ASE20160616140011206/16/16 14:00:31  5-MIN KASE 162100Z 36014G23KT 10SM CLR 25/M03 A3018 7600 15 10400 350/14G23 RMK AO2 T02501033
93073KASE ASE20160616140511206/16/16 14:05:31  5-MIN KASE 162105Z 36016G23KT 10SM CLR 25/M04 A3018 7600 14 10400 350/16G23 RMK AO2 T02501044
93073KASE ASE20160616141011206/16/16 14:10:31  5-MIN KASE 162110Z 01014G23KT 10SM CLR 25/M04 A3018 7610 14 10500 360/14G23 RMK AO2 T02501039
93073KASE ASE20160616141513006/16/16 14:15:31  5-MIN KASE 162115Z 36016G26KT 10SM CLR 25/M05 A3018 7610 13 10500 350/16G26 RMK AO2 PK WND 36026/2112 T02501050
93073KASE ASE20160616142013006/16/16 14:20:31  5-MIN KASE 162120Z 01015G26KT 10SM CLR 25/M05 A3018 7600 13 10400 010/15G26 RMK AO2 PK WND 36026/2112 T02501050
93073KASE ASE20160616142513006/16/16 14:25:31  5-MIN KASE 162125Z 01017G21KT 10SM CLR 26/M04 A3018 7600 14 10500 360/17G21 RMK AO2 PK WND 36026/2112 T02561039
93073KASE ASE20160616143013006/16/16 14:30:31  5-MIN KASE 162130Z 02012G21KT 10SM CLR 25/M03 A3018 7600 15 10400 010/12G21 RMK AO2 PK WND 36026/2112 T02501028
93073KASE ASE20160616143513006/16/16 14:35:31  5-MIN KASE 162135Z 36015G26KT 10SM CLR 26/M04 A3018 7600 13 10500 350/15G26 RMK AO2 PK WND 02026/2131 T02561044
93073KASE ASE20160616144013006/16/16 14:40:31  5-MIN KASE 162140Z 33015G26KT 10SM CLR 26/M04 A3018 7600 13 10600 320/15G26 RMK AO2 PK WND 02026/2131 T02611044
93073KASE ASE20160616144514606/16/16 14:45:31  5-MIN KASE 162145Z 01013G19KT 330V030 10SM CLR 26/M06 A3018 7600 12 10500 360/13G19 320V020 RMK AO2 PK WND 02026/2131 T02561056
93073KASE ASE20160616145013706/16/16 14:50:31  5-MIN KASE 162150Z 36013G23KT 10SM CLR 26/M06 A3018 7600 12 10500 350/13G23 RMK AO2 PK WND 02026/2131 SLP100 T02561061
93073KASE ASE20160616145512806/16/16 14:55:31  5-MIN KASE 162155Z 30007G23KT 250V350 10SM CLR 26/M06 A3019 7600 12 10500 290/07G23 240V340 RMK AO2 T02561061
93073KASE ASE20160616150011206/16/16 15:00:31  5-MIN KASE 162200Z VRB05G23KT 10SM CLR 26/M06 A3019 7600 12 10500 VRB/05G23 RMK AO2 T02561061
93073KASE ASE20160616150511206/16/16 15:05:31  5-MIN KASE 162205Z 35010G20KT 10SM CLR 26/M06 A3019 7600 12 10600 340/10G20 RMK AO2 T02611056
93073KASE ASE20160616151011206/16/16 15:10:31  5-MIN KASE 162210Z 35015G20KT 10SM CLR 26/M06 A3019 7590 12 10500 350/15G20 RMK AO2 T02561061
93073KASE ASE20160616151511206/16/16 15:15:31  5-MIN KASE 162215Z 35013G22KT 10SM CLR 25/M06 A3019 7590 12 10400 340/13G22 RMK AO2 T02501061
93073KASE ASE20160616152011206/16/16 15:20:31  5-MIN KASE 162220Z 35014G22KT 10SM CLR 26/M06 A3019 7590 12 10500 340/14G22 RMK AO2 T02561061
93073KASE ASE20160616152511206/16/16 15:25:31  5-MIN KASE 162225Z 35014G22KT 10SM CLR 25/M06 A3019 7590 12 10400 350/14G22 RMK AO2 T02501061
93073KASE ASE20160616153012806/16/16 15:30:31  5-MIN KASE 162230Z 35012G22KT 290V010 10SM CLR 25/M06 A3019 7590 12 10400 340/12G22 280V360 RMK AO2 T02501061
93073KASE ASE20160616153511206/16/16 15:35:31  5-MIN KASE 162235Z 36014G21KT 10SM CLR 25/M06 A3020 7590 12 10400 350/14G21 RMK AO2 T02501061
93073KASE ASE20160616154012806/16/16 15:40:31  5-MIN KASE 162240Z 33007G21KT 290V010 10SM CLR 25/M06 A3020 7590 12 10400 320/07G21 280V360 RMK AO2 T02501056
93073KASE ASE20160616154512806/16/16 15:45:31  5-MIN KASE 162245Z 34009G16KT 310V020 10SM CLR 26/M06 A3020 7590 12 10500 330/09G16 300V010 RMK AO2 T02561056
93073KASE ASE20160616155013506/16/16 15:50:31  5-MIN KASE 162250Z 32010G18KT 280V010 10SM CLR 25/M06 A3020 7580 12 10400 310/10G18 270V360 RMK AO2 SLP107 T02501056
93073KASE ASE20160616155509606/16/16 15:55:31  5-MIN KASE 162255Z 10SM CLR 26/M06 A3020 7580 12 10500 M /M RMK AO2 T02561056
93073KASE ASE20160616160010606/16/16 16:00:31  5-MIN KASE 162300Z VRB04KT 10SM CLR 25/M06 A3020 7580 12 10400 VRB/04 RMK AO2 T02501061
93073KASE ASE20160616160510606/16/16 16:05:31  5-MIN KASE 162305Z 33008KT 10SM CLR 26/M05 A3020 7580 13 10500 320/08 RMK AO2 T02561050
93073KASE ASE20160616161010606/16/16 16:10:31  5-MIN KASE 162310Z 34009KT 10SM CLR 25/M05 A3020 7580 13 10400 340/09 RMK AO2 T02501050
93073KASE ASE20160616161510606/16/16 16:15:31  5-MIN KASE 162315Z 32005KT 10SM CLR 24/M06 A3021 7580 13 10400 310/05 RMK AO2 T02441056
93073KASE ASE20160616162010606/16/16 16:20:31  5-MIN KASE 162320Z 31006KT 10SM CLR 25/M05 A3021 7580 13 10400 300/06 RMK AO2 T02501050
93073KASE ASE20160616162512206/16/16 16:25:31  5-MIN KASE 162325Z 32008KT 270V350 10SM CLR 24/M05 A3021 7580 13 10400 310/08 260V340 RMK AO2 T02441050
93073KASE ASE20160616163010606/16/16 16:30:31  5-MIN KASE 162330Z 25007KT 10SM CLR 24/M05 A3021 7580 13 10400 240/07 RMK AO2 T02441050
93073KASE ASE20160616163510606/16/16 16:35:31  5-MIN KASE 162335Z 29007KT 10SM CLR 24/M05 A3021 7580 13 10400 280/07 RMK AO2 T02441050
93073KASE ASE20160616164010606/16/16 16:40:31  5-MIN KASE 162340Z 28008KT 10SM CLR 24/M04 A3021 7580 14 10400 270/08 RMK AO2 T02441044
93073KASE ASE20160616164510606/16/16 16:45:31  5-MIN KASE 162345Z 28008KT 10SM CLR 24/M06 A3021 7580 13 10400 270/08 RMK AO2 T02441056
93073KASE ASE20160616165013106/16/16 16:50:31  5-MIN KASE 162350Z 29009KT 10SM CLR 24/M05 A3021 7570 13 10400 280/09 RMK AO2 SLP114 T02441050 10261 20217 56004
93073KASE ASE20160616165510606/16/16 16:55:31  5-MIN KASE 162355Z 28009KT 10SM CLR 24/M05 A3021 7570 13 10400 270/09 RMK AO2 T02441050
93073KASE ASE20160616170010606/16/16 17:00:31  5-MIN KASE 170000Z 26007KT 10SM CLR 24/M05 A3021 7580 13 10400 250/07 RMK AO2 T02441050
93073KASE ASE20160616170510606/16/16 17:05:31  5-MIN KASE 170005Z 25006KT 10SM CLR 24/M06 A3021 7570 13 10300 250/06 RMK AO2 T02391056
93073KASE ASE20160616171010606/16/16 17:10:31  5-MIN KASE 170010Z 29006KT 10SM CLR 24/M05 A3021 7570 14 10300 290/06 RMK AO2 T02391050
93073KASE ASE20160616171510606/16/16 17:15:31  5-MIN KASE 170015Z 28005KT 10SM CLR 24/M05 A3022 7570 13 10300 270/05 RMK AO2 T02441050
93073KASE ASE20160616172010606/16/16 17:20:31  5-MIN KASE 170020Z VRB04KT 10SM CLR 24/M04 A3022 7570 14 10300 VRB/04 RMK AO2 T02391044
93073KASE ASE20160616172510606/16/16 17:25:31  5-MIN KASE 170025Z 32005KT 10SM CLR 24/M04 A3022 7570 14 10300 310/05 RMK AO2 T02391044
93073KASE ASE20160616173010606/16/16 17:30:31  5-MIN KASE 170030Z 32005KT 10SM CLR 24/M04 A3022 7570 14 10300 310/05 RMK AO2 T02391044
93073KASE ASE20160616173510606/16/16 17:35:31  5-MIN KASE 170035Z VRB04KT 10SM CLR 24/M04 A3022 7560 14 10300 VRB/04 RMK AO2 T02391044
93073KASE ASE20160616174010606/16/16 17:40:31  5-MIN KASE 170040Z VRB03KT 10SM CLR 24/M04 A3022 7560 14 10300 VRB/03 RMK AO2 T02391044
93073KASE ASE20160616174510606/16/16 17:45:31  5-MIN KASE 170045Z VRB04KT 10SM CLR 24/M04 A3022 7560 14 10300 VRB/04 RMK AO2 T02391044
93073KASE ASE20160616175011906/16/16 17:50:31  5-MIN KASE 170050Z 35009G15KT 10SM CLR 24/M04 A3022 7560 14 10300 340/09G15 RMK AO2 SLP119 T02391044
93073KASE ASE20160616175511206/16/16 17:55:31  5-MIN KASE 170055Z 34007G15KT 10SM CLR 24/M05 A3022 7560 14 10300 330/07G15 RMK AO2 T02391050
93073KASE ASE20160616180010606/16/16 18:00:31  5-MIN KASE 170100Z 34006KT 10SM CLR 23/M04 A3023 7560 16 10200 330/06 RMK AO2 T02331039
93073KASE ASE20160616180510606/16/16 18:05:31  5-MIN KASE 170105Z 31004KT 10SM CLR 23/M03 A3023 7560 16 10200 300/04 RMK AO2 T02331033
93073KASE ASE20160616181010606/16/16 18:10:31  5-MIN KASE 170110Z VRB06KT 10SM CLR 23/M03 A3023 7560 17 10200 VRB/06 RMK AO2 T02281033
93073KASE ASE20160616181510606/16/16 18:15:31  5-MIN KASE 170115Z 32005KT 10SM CLR 23/M03 A3023 7560 18 10200 310/05 RMK AO2 T02281028
93073KASE ASE20160616182010606/16/16 18:20:31  5-MIN KASE 170120Z 31004KT 10SM CLR 22/M03 A3023 7550 18 10100 300/04 RMK AO2 T02221028
93073KASE ASE20160616182510606/16/16 18:25:31  5-MIN KASE 170125Z 31003KT 10SM CLR 22/M02 A3023 7550 20 10000 300/03 RMK AO2 T02171022
93073KASE ASE20160616183010506/16/16 18:30:31  5-MIN KASE 170130Z 28004KT 10SM CLR 20/M02 A3023 7550 23 9800 270/04 RMK AO2 T02001017
93073KASE ASE20160616183510606/16/16 18:35:31  5-MIN KASE 170135Z 29004KT 10SM CLR 21/M04 A3024 7550 18 10000 290/04 RMK AO2 T02111039
93073KASE ASE20160616184010506/16/16 18:40:31  5-MIN KASE 170140Z 30003KT 10SM CLR 21/M02 A3024 7550 21 9900 290/03 RMK AO2 T02061022
93073KASE ASE20160616184510506/16/16 18:45:31  5-MIN KASE 170145Z 30003KT 10SM CLR 20/M03 A3024 7550 21 9800 290/03 RMK AO2 T02001028
93073KASE ASE20160616185011206/16/16 18:50:31  5-MIN KASE 170150Z 32003KT 10SM CLR 20/M03 A3024 7550 20 9800 310/03 RMK AO2 SLP120 T02001033
93073KASE ASE20160616185510506/16/16 18:55:31  5-MIN KASE 170155Z 32003KT 10SM CLR 20/M03 A3024 7550 20 9800 320/03 RMK AO2 T02001033
93073KASE ASE20160616190010506/16/16 19:00:31  5-MIN KASE 170200Z 00000KT 10SM CLR 18/M01 A3024 7550 27 9600 000/00 RMK AO2 T01781011
93073KASE ASE20160616190510506/16/16 19:05:31  5-MIN KASE 170205Z 28003KT 10SM CLR 17/M01 A3024 7550 31 9500 270/03 RMK AO2 T01671006
93073KASE ASE20160616191010406/16/16 19:10:31  5-MIN KASE 170210Z 22006KT 10SM CLR 16/00 A3024 7540 34 9400 210/06 RMK AO2 T01560000
93073KASE ASE20160616191510406/16/16 19:15:31  5-MIN KASE 170215Z 21005KT 10SM CLR 15/00 A3024 7540 35 9300 200/05 RMK AO2 T01500000
93073KASE ASE20160616192010406/16/16 19:20:31  5-MIN KASE 170220Z 22006KT 10SM CLR 16/00 A3024 7540 34 9400 210/06 RMK AO2 T01560000
93073KASE ASE20160616192510506/16/16 19:25:31  5-MIN KASE 170225Z 19006KT 10SM CLR 16/M01 A3025 7540 32 9400 180/06 RMK AO2 T01611006
93073KASE ASE20160616193010406/16/16 19:30:31  5-MIN KASE 170230Z 19006KT 10SM CLR 16/00 A3025 7540 33 9400 180/06 RMK AO2 T01610000
93073KASE ASE20160616193510406/16/16 19:35:31  5-MIN KASE 170235Z 20005KT 10SM CLR 16/00 A3025 7530 33 9400 190/05 RMK AO2 T01610000
93073KASE ASE20160616194010506/16/16 19:40:31  5-MIN KASE 170240Z 20006KT 10SM CLR 17/M01 A3026 7530 31 9500 200/06 RMK AO2 T01671006
93073KASE ASE20160616194510506/16/16 19:45:31  5-MIN KASE 170245Z 20006KT 10SM CLR 16/M01 A3026 7530 33 9300 190/06 RMK AO2 T01561006
93073KASE ASE20160616195011706/16/16 19:50:31  5-MIN KASE 170250Z 20005KT 10SM CLR 15/00 A3026 7530 35 9300 190/05 RMK AO2 SLP132 T01500000 53009
93073KASE ASE20160616195510506/16/16 19:55:31  5-MIN KASE 170255Z 20005KT 10SM CLR 15/M01 A3026 7530 34 9300 190/05 RMK AO2 T01501006
93073KASE ASE20160616200010406/16/16 20:00:31  5-MIN KASE 170300Z 19006KT 10SM CLR 14/00 A3026 7530 37 9200 180/06 RMK AO2 T01440000
93073KASE ASE20160616200510406/16/16 20:05:31  5-MIN KASE 170305Z 20006KT 10SM CLR 14/00 A3026 7520 38 9100 190/06 RMK AO2 T01390000
93073KASE ASE20160616201010506/16/16 20:10:31  5-MIN KASE 170310Z 19007KT 10SM CLR 14/M01 A3027 7520 35 9200 180/07 RMK AO2 T01441006
93073KASE ASE20160616201510506/16/16 20:15:31  5-MIN KASE 170315Z 19007KT 10SM CLR 14/M01 A3027 7520 35 9200 190/07 RMK AO2 T01441006
93073KASE ASE20160616202010506/16/16 20:20:31  5-MIN KASE 170320Z 20007KT 10SM CLR 14/M01 A3027 7520 35 9200 190/07 RMK AO2 T01441006
93073KASE ASE20160616202510506/16/16 20:25:31  5-MIN KASE 170325Z 20007KT 10SM CLR 13/M01 A3028 7510 39 9000 190/07 RMK AO2 T01281006
93073KASE ASE20160616203010506/16/16 20:30:31  5-MIN KASE 170330Z 20007KT 10SM CLR 13/M01 A3028 7510 38 9100 190/07 RMK AO2 T01331006
93073KASE ASE20160616203510506/16/16 20:35:31  5-MIN KASE 170335Z 19007KT 10SM CLR 13/M01 A3029 7510 38 9100 190/07 RMK AO2 T01331006
93073KASE ASE20160616204010406/16/16 20:40:31  5-MIN KASE 170340Z 20006KT 10SM CLR 12/00 A3029 7500 43 8900 190/06 RMK AO2 T01220000
93073KASE ASE20160616204510406/16/16 20:45:31  5-MIN KASE 170345Z 19006KT 10SM CLR 13/00 A3029 7500 41 9000 190/06 RMK AO2 T01280000
93073KASE ASE20160616205011106/16/16 20:50:31  5-MIN KASE 170350Z 21007KT 10SM CLR 12/00 A3029 7500 44 8900 200/07 RMK AO2 SLP144 T01170000
93073KASE ASE20160616205510406/16/16 20:55:31  5-MIN KASE 170355Z 20008KT 10SM CLR 12/00 A3030 7500 43 8900 190/08 RMK AO2 T01220000
93073KASE ASE20160616210010506/16/16 21:00:31  5-MIN KASE 170400Z 20007KT 10SM CLR 13/M01 A3030 7490 39 9000 190/07 RMK AO2 T01281006
93073KASE ASE20160616210510506/16/16 21:05:31  5-MIN KASE 170405Z 20008KT 10SM CLR 13/M01 A3030 7490 39 9000 190/08 RMK AO2 T01281006
93073KASE ASE20160616211010506/16/16 21:10:31  5-MIN KASE 170410Z 21008KT 10SM CLR 13/M01 A3031 7490 38 9000 200/08 RMK AO2 T01331006
93073KASE ASE20160616211510506/16/16 21:15:31  5-MIN KASE 170415Z 21007KT 10SM CLR 13/M01 A3031 7490 36 9000 200/07 RMK AO2 T01331011
93073KASE ASE20160616212010506/16/16 21:20:31  5-MIN KASE 170420Z 21008KT 10SM CLR 13/M01 A3031 7480 36 9000 200/08 RMK AO2 T01331011
93073KASE ASE20160616212510506/16/16 21:25:31  5-MIN KASE 170425Z 20006KT 10SM CLR 13/M01 A3031 7480 38 9000 190/06 RMK AO2 T01281011
93073KASE ASE20160616213010506/16/16 21:30:31  5-MIN KASE 170430Z 21008KT 10SM CLR 13/M01 A3031 7480 38 9000 200/08 RMK AO2 T01281011
93073KASE ASE20160616213510506/16/16 21:35:31  5-MIN KASE 170435Z 20006KT 10SM CLR 13/M01 A3031 7480 38 9000 190/06 RMK AO2 T01281011
93073KASE ASE20160616214010506/16/16 21:40:31  5-MIN KASE 170440Z 21009KT 10SM CLR 13/M01 A3031 7480 38 9000 200/09 RMK AO2 T01281011
93073KASE ASE20160616214510506/16/16 21:45:31  5-MIN KASE 170445Z 21008KT 10SM CLR 13/M01 A3032 7480 38 9000 200/08 RMK AO2 T01281011
93073KASE ASE20160616215011206/16/16 21:50:31  5-MIN KASE 170450Z 21009KT 10SM CLR 13/M01 A3032 7480 38 9000 200/09 RMK AO2 SLP144 T01281011
93073KASE ASE20160616215510506/16/16 21:55:31  5-MIN KASE 170455Z 20008KT 10SM CLR 12/M01 A3032 7480 39 8900 200/08 RMK AO2 T01221011
93073KASE ASE20160616220010506/16/16 22:00:31  5-MIN KASE 170500Z 21008KT 10SM CLR 12/M01 A3032 7480 39 8900 200/08 RMK AO2 T01221011
93073KASE ASE20160616220510506/16/16 22:05:31  5-MIN KASE 170505Z 21008KT 10SM CLR 12/M01 A3032 7470 39 8900 200/08 RMK AO2 T01221011
93073KASE ASE20160616221010506/16/16 22:10:31  5-MIN KASE 170510Z 21009KT 10SM CLR 12/M01 A3032 7470 41 8800 200/09 RMK AO2 T01171011
93073KASE ASE20160616221510506/16/16 22:15:31  5-MIN KASE 170515Z 21009KT 10SM CLR 12/M02 A3032 7470 38 8900 200/09 RMK AO2 T01221017
93073KASE ASE20160616222010506/16/16 22:20:31  5-MIN KASE 170520Z 21009KT 10SM CLR 12/M02 A3032 7470 38 8900 200/09 RMK AO2 T01221017
93073KASE ASE20160616222510506/16/16 22:25:31  5-MIN KASE 170525Z 21009KT 10SM CLR 12/M02 A3032 7470 38 8900 200/09 RMK AO2 T01221017
93073KASE ASE20160616223010506/16/16 22:30:31  5-MIN KASE 170530Z 21009KT 10SM CLR 12/M02 A3032 7470 39 8800 200/09 RMK AO2 T01171017
93073KASE ASE20160616223510506/16/16 22:35:31  5-MIN KASE 170535Z 22009KT 10SM CLR 12/M02 A3032 7470 39 8800 210/09 RMK AO2 T01171017
93073KASE ASE20160616224010506/16/16 22:40:31  5-MIN KASE 170540Z 21007KT 10SM CLR 12/M02 A3032 7470 39 8800 200/07 RMK AO2 T01171017
93073KASE ASE20160616224510506/16/16 22:45:31  5-MIN KASE 170545Z 21008KT 10SM CLR 12/M02 A3033 7470 39 8800 200/08 RMK AO2 T01171017
93073KASE ASE20160616225013006/16/16 22:50:31  5-MIN KASE 170550Z 20007KT 10SM CLR 12/M02 A3032 7470 39 8800 190/07 RMK AO2 SLP147 T01171017 10244 20117 53014
93073KASE ASE20160616225510506/16/16 22:55:31  5-MIN KASE 170555Z 21008KT 10SM CLR 12/M02 A3033 7470 39 8800 200/08 RMK AO2 T01171017
93073KASE ASE20160616230010506/16/16 23:00:31  5-MIN KASE 170600Z 21008KT 10SM CLR 11/M02 A3033 7470 42 8700 200/08 RMK AO2 T01061017
93073KASE ASE20160616230510506/16/16 23:05:31  5-MIN KASE 170605Z 21008KT 10SM CLR 11/M02 A3033 7470 42 8700 200/08 RMK AO2 T01061017
93073KASE ASE20160616231010506/16/16 23:10:31  5-MIN KASE 170610Z 21008KT 10SM CLR 11/M02 A3032 7470 41 8800 200/08 RMK AO2 T01111017
93073KASE ASE20160616231510506/16/16 23:15:31  5-MIN KASE 170615Z 21007KT 10SM CLR 11/M02 A3033 7470 39 8800 200/07 RMK AO2 T01111022
93073KASE ASE20160616232010506/16/16 23:20:31  5-MIN KASE 170620Z 20007KT 10SM CLR 11/M02 A3033 7470 40 8700 200/07 RMK AO2 T01061022
93073KASE ASE20160616232510506/16/16 23:25:31  5-MIN KASE 170625Z 22010KT 10SM CLR 11/M02 A3033 7470 40 8700 210/10 RMK AO2 T01061022
93073KASE ASE20160616233010506/16/16 23:30:31  5-MIN KASE 170630Z 21008KT 10SM CLR 11/M02 A3033 7470 40 8700 200/08 RMK AO2 T01061022
93073KASE ASE20160616233510506/16/16 23:35:31  5-MIN KASE 170635Z 21007KT 10SM CLR 11/M02 A3033 7470 39 8800 200/07 RMK AO2 T01111022
93073KASE ASE20160616234010506/16/16 23:40:31  5-MIN KASE 170640Z 21007KT 10SM CLR 11/M02 A3033 7470 39 8800 200/07 RMK AO2 T01111022
93073KASE ASE20160616234510506/16/16 23:45:31  5-MIN KASE 170645Z 22009KT 10SM CLR 11/M02 A3033 7460 40 8700 210/09 RMK AO2 T01061022
93073KASE ASE20160616235012206/16/16 23:50:31  5-MIN KASE 170650Z 21008KT 10SM CLR 10/M02 A3033 7470 42 8600 200/08 RMK AO2 SLP148 T01001022 402610039
93073KASE ASE20160616235510506/16/16 23:55:31  5-MIN KASE 170655Z 22008KT 10SM CLR 11/M03 A3033 7460 39 8700 210/08 RMK AO2 T01061028
93073KASE ASE20160617000010506/17/16 00:00:31  5-MIN KASE 170700Z 22009KT 10SM CLR 11/M03 A3033 7460 37 8800 210/09 RMK AO2 T01111028
93073KASE ASE20160617000510506/17/16 00:05:31  5-MIN KASE 170705Z 20007KT 10SM CLR 11/M03 A3033 7460 37 8800 190/07 RMK AO2 T01111028
93073KASE ASE20160617001010506/17/16 00:10:31  5-MIN KASE 170710Z 21008KT 10SM CLR 10/M02 A3033 7470 42 8600 200/08 RMK AO2 T01001022
93073KASE ASE20160617001510506/17/16 00:15:31  5-MIN KASE 170715Z 21008KT 10SM CLR 10/M02 A3033 7460 42 8600 200/08 RMK AO2 T01001022
93073KASE ASE20160617002010506/17/16 00:20:31  5-MIN KASE 170720Z 21008KT 10SM CLR 10/M02 A3033 7460 42 8600 200/08 RMK AO2 T01001022
93073KASE ASE20160617002510506/17/16 00:25:31  5-MIN KASE 170725Z 22008KT 10SM CLR 10/M03 A3033 7470 40 8600 210/08 RMK AO2 T01001028
93073KASE ASE20160617003010506/17/16 00:30:31  5-MIN KASE 170730Z 21008KT 10SM CLR 11/M03 A3033 7460 39 8700 210/08 RMK AO2 T01061028
93073KASE ASE20160617003510506/17/16 00:35:31  5-MIN KASE 170735Z 21009KT 10SM CLR 11/M03 A3033 7460 39 8700 200/09 RMK AO2 T01061028
93073KASE ASE20160617004010506/17/16 00:40:31  5-MIN KASE 170740Z 21010KT 10SM CLR 10/M03 A3033 7460 40 8600 200/10 RMK AO2 T01001028
93073KASE ASE20160617004510506/17/16 00:45:31  5-MIN KASE 170745Z 21009KT 10SM CLR 11/M03 A3033 7470 39 8700 200/09 RMK AO2 T01061028
93073KASE ASE20160617005011206/17/16 00:50:31  5-MIN KASE 170750Z 21008KT 10SM CLR 10/M03 A3033 7460 40 8600 200/08 RMK AO2 SLP149 T01001028
93073KASE ASE20160617005510506/17/16 00:55:31  5-MIN KASE 170755Z 22008KT 10SM CLR 10/M03 A3033 7460 40 8600 210/08 RMK AO2 T01001028
93073KASE ASE20160617010010506/17/16 01:00:31  5-MIN KASE 170800Z 21008KT 10SM CLR 10/M03 A3033 7470 40 8600 200/08 RMK AO2 T01001028
93073KASE ASE20160617010510506/17/16 01:05:31  5-MIN KASE 170805Z 21008KT 10SM CLR 10/M03 A3033 7470 40 8600 200/08 RMK AO2 T01001028
93073KASE ASE20160617011010506/17/16 01:10:31  5-MIN KASE 170810Z 21009KT 10SM CLR 09/M02 A3033 7470 44 8600 200/09 RMK AO2 T00941022
93073KASE ASE20160617011510506/17/16 01:15:31  5-MIN KASE 170815Z 21007KT 10SM CLR 09/M02 A3033 7470 44 8600 200/07 RMK AO2 T00941022
93073KASE ASE20160617012010506/17/16 01:20:31  5-MIN KASE 170820Z 20007KT 10SM CLR 10/M03 A3033 7470 40 8600 190/07 RMK AO2 T01001028
93073KASE ASE20160617012510506/17/16 01:25:31  5-MIN KASE 170825Z 21008KT 10SM CLR 09/M03 A3033 7470 42 8600 200/08 RMK AO2 T00941028
93073KASE ASE20160617013010506/17/16 01:30:31  5-MIN KASE 170830Z 21007KT 10SM CLR 09/M03 A3033 7470 42 8600 200/07 RMK AO2 T00941028
93073KASE ASE20160617013510506/17/16 01:35:31  5-MIN KASE 170835Z 21009KT 10SM CLR 09/M03 A3032 7470 43 8500 200/09 RMK AO2 T00891028
93073KASE ASE20160617014010506/17/16 01:40:31  5-MIN KASE 170840Z 21009KT 10SM CLR 09/M03 A3033 7470 42 8600 200/09 RMK AO2 T00941028
93073KASE ASE20160617014510506/17/16 01:45:31  5-MIN KASE 170845Z 20007KT 10SM CLR 10/M03 A3033 7470 40 8600 200/07 RMK AO2 T01001028
93073KASE ASE20160617015011806/17/16 01:50:31  5-MIN KASE 170850Z 20007KT 10SM CLR 10/M03 A3032 7470 40 8600 190/07 RMK AO2 SLP144 T01001028 51018
93073KASE ASE20160617015510506/17/16 01:55:31  5-MIN KASE 170855Z 21009KT 10SM CLR 09/M03 A3032 7470 43 8500 200/09 RMK AO2 T00891028
93073KASE ASE20160617020010506/17/16 02:00:31  5-MIN KASE 170900Z 21008KT 10SM CLR 09/M03 A3032 7470 43 8500 200/08 RMK AO2 T00891028
93073KASE ASE20160617020510506/17/16 02:05:31  5-MIN KASE 170905Z 20006KT 10SM CLR 09/M03 A3032 7470 43 8500 200/06 RMK AO2 T00891028
93073KASE ASE20160617021010506/17/16 02:10:31  5-MIN KASE 170910Z 20006KT 10SM CLR 09/M03 A3032 7470 42 8600 190/06 RMK AO2 T00941028
93073KASE ASE20160617021510506/17/16 02:15:31  5-MIN KASE 170915Z 20006KT 10SM CLR 09/M03 A3032 7470 43 8500 190/06 RMK AO2 T00891028
93073KASE ASE20160617022010506/17/16 02:20:31  5-MIN KASE 170920Z 20007KT 10SM CLR 08/M03 A3032 7470 45 8500 190/07 RMK AO2 T00831028
93073KASE ASE20160617022510506/17/16 02:25:31  5-MIN KASE 170925Z 21010KT 10SM CLR 08/M03 A3033 7470 45 8400 200/10 RMK AO2 T00831028
93073KASE ASE20160617023010506/17/16 02:30:31  5-MIN KASE 170930Z 21007KT 10SM CLR 08/M03 A3033 7470 45 8400 200/07 RMK AO2 T00831028
93073KASE ASE20160617023510506/17/16 02:35:31  5-MIN KASE 170935Z 21007KT 10SM CLR 09/M03 A3032 7470 43 8500 200/07 RMK AO2 T00891028
93073KASE ASE20160617024010506/17/16 02:40:31  5-MIN KASE 170940Z 21007KT 10SM CLR 09/M03 A3032 7470 40 8600 200/07 RMK AO2 T00941033
93073KASE ASE20160617024510506/17/16 02:45:31  5-MIN KASE 170945Z 20007KT 10SM CLR 09/M03 A3033 7470 40 8600 190/07 RMK AO2 T00941033
93073KASE ASE20160617025011206/17/16 02:50:31  5-MIN KASE 170950Z 21009KT 10SM CLR 08/M03 A3032 7470 45 8400 200/09 RMK AO2 SLP147 T00831028
93073KASE ASE20160617025510506/17/16 02:55:31  5-MIN KASE 170955Z 21007KT 10SM CLR 09/M03 A3032 7470 43 8500 200/07 RMK AO2 T00891028
93073KASE ASE20160617030010506/17/16 03:00:31  5-MIN KASE 171000Z 21007KT 10SM CLR 09/M03 A3033 7460 43 8500 200/07 RMK AO2 T00891028
93073KASE ASE20160617030510506/17/16 03:05:31  5-MIN KASE 171005Z 21007KT 10SM CLR 08/M03 A3033 7470 45 8400 200/07 RMK AO2 T00831028
93073KASE ASE20160617031010506/17/16 03:10:31  5-MIN KASE 171010Z 21009KT 10SM CLR 08/M03 A3033 7470 45 8400 200/09 RMK AO2 T00831028
93073KASE ASE20160617031510506/17/16 03:15:31  5-MIN KASE 171015Z 22008KT 10SM CLR 08/M03 A3033 7460 45 8400 210/08 RMK AO2 T00831028
93073KASE ASE20160617032010506/17/16 03:20:31  5-MIN KASE 171020Z 19006KT 10SM CLR 09/M03 A3033 7460 40 8600 180/06 RMK AO2 T00941033
93073KASE ASE20160617032510506/17/16 03:25:31  5-MIN KASE 171025Z 21008KT 10SM CLR 09/M03 A3033 7460 43 8500 200/08 RMK AO2 T00891028
93073KASE ASE20160617033010506/17/16 03:30:31  5-MIN KASE 171030Z 21008KT 10SM CLR 09/M03 A3033 7460 43 8500 200/08 RMK AO2 T00891028
93073KASE ASE20160617033510506/17/16 03:35:31  5-MIN KASE 171035Z 22006KT 10SM CLR 09/M03 A3033 7470 40 8600 210/06 RMK AO2 T00941033
93073KASE ASE20160617034010506/17/16 03:40:31  5-MIN KASE 171040Z 21008KT 10SM CLR 09/M03 A3033 7460 43 8500 200/08 RMK AO2 T00891028
93073KASE ASE20160617034510506/17/16 03:45:31  5-MIN KASE 171045Z 21007KT 10SM CLR 08/M03 A3033 7460 45 8400 200/07 RMK AO2 T00831028
93073KASE ASE20160617035011206/17/16 03:50:31  5-MIN KASE 171050Z 20007KT 10SM CLR 09/M03 A3033 7460 43 8500 190/07 RMK AO2 SLP151 T00891028
93073KASE ASE20160617035510506/17/16 03:55:31  5-MIN KASE 171055Z 18007KT 10SM CLR 09/M03 A3034 7460 42 8500 180/07 RMK AO2 T00891033
93073KASE ASE20160617040010506/17/16 04:00:31  5-MIN KASE 171100Z 20007KT 10SM CLR 09/M03 A3033 7460 43 8500 190/07 RMK AO2 T00891028
93073KASE ASE20160617040510506/17/16 04:05:31  5-MIN KASE 171105Z 21007KT 10SM CLR 08/M03 A3033 7460 47 8400 200/07 RMK AO2 T00781028
93073KASE ASE20160617041010506/17/16 04:10:31  5-MIN KASE 171110Z 20006KT 10SM CLR 08/M03 A3034 7460 45 8400 190/06 RMK AO2 T00831028
93073KASE ASE20160617041510506/17/16 04:15:31  5-MIN KASE 171115Z 21008KT 10SM CLR 08/M03 A3034 7460 47 8400 200/08 RMK AO2 T00781028
93073KASE ASE20160617042010506/17/16 04:20:31  5-MIN KASE 171120Z 22008KT 10SM CLR 08/M03 A3034 7460 45 8400 210/08 RMK AO2 T00831028
93073KASE ASE20160617042510506/17/16 04:25:31  5-MIN KASE 171125Z 20007KT 10SM CLR 09/M03 A3034 7460 42 8500 200/07 RMK AO2 T00891033
93073KASE ASE20160617043010506/17/16 04:30:31  5-MIN KASE 171130Z 21006KT 10SM CLR 09/M03 A3034 7460 43 8500 200/06 RMK AO2 T00891028
93073KASE ASE20160617043510506/17/16 04:35:31  5-MIN KASE 171135Z 21008KT 10SM CLR 08/M03 A3034 7460 47 8400 200/08 RMK AO2 T00781028
93073KASE ASE20160617044010506/17/16 04:40:31  5-MIN KASE 171140Z 21008KT 10SM CLR 09/M03 A3034 7450 43 8500 210/08 RMK AO2 T00891028
93073KASE ASE20160617044510506/17/16 04:45:31  5-MIN KASE 171145Z 19007KT 10SM CLR 09/M03 A3034 7450 43 8500 190/07 RMK AO2 T00891028
93073KASE ASE20160617045013006/17/16 04:50:31  5-MIN KASE 171150Z 21009KT 10SM CLR 08/M02 A3034 7450 47 8400 200/09 RMK AO2 SLP158 T00831022 10117 20078 58001
93073KASE ASE20160617045510506/17/16 04:55:31  5-MIN KASE 171155Z 21009KT 10SM CLR 08/M02 A3035 7450 49 8400 210/09 RMK AO2 T00781022
93073KASE ASE20160617050010506/17/16 05:00:31  5-MIN KASE 171200Z 21008KT 10SM CLR 08/M03 A3035 7440 45 8400 200/08 RMK AO2 T00831028
93073KASE ASE20160617050510506/17/16 05:05:31  5-MIN KASE 171205Z 18006KT 10SM CLR 09/M03 A3035 7450 43 8500 170/06 RMK AO2 T00891028
93073KASE ASE20160617051010506/17/16 05:10:31  5-MIN KASE 171210Z 21009KT 10SM CLR 08/M02 A3035 7450 49 8400 210/09 RMK AO2 T00781022
93073KASE ASE20160617051510506/17/16 05:15:31  5-MIN KASE 171215Z 22009KT 10SM CLR 07/M02 A3036 7440 51 8300 210/09 RMK AO2 T00721022
93073KASE ASE20160617052010506/17/16 05:20:31  5-MIN KASE 171220Z 21008KT 10SM CLR 08/M02 A3036 7440 47 8400 200/08 RMK AO2 T00831022
93073KASE ASE20160617052510506/17/16 05:25:31  5-MIN KASE 171225Z 21006KT 10SM CLR 09/M03 A3036 7440 43 8500 200/06 RMK AO2 T00891028
93073KASE ASE20160617053010506/17/16 05:30:31  5-MIN KASE 171230Z 19006KT 10SM CLR 08/M02 A3036 7440 49 8300 180/06 RMK AO2 T00781022
93073KASE ASE20160617053510506/17/16 05:35:31  5-MIN KASE 171235Z 20006KT 10SM CLR 08/M02 A3036 7440 47 8400 190/06 RMK AO2 T00831022
93073KASE ASE20160617054010506/17/16 05:40:31  5-MIN KASE 171240Z 21007KT 10SM CLR 09/M02 A3036 7440 45 8500 200/07 RMK AO2 T00941017
93073KASE ASE20160617054510506/17/16 05:45:31  5-MIN KASE 171245Z 20005KT 10SM CLR 11/M02 A3036 7430 40 8700 200/05 RMK AO2 T01061022
93073KASE ASE20160617055011206/17/16 05:50:31  5-MIN KASE 171250Z 19005KT 10SM CLR 11/M02 A3036 7430 39 8700 190/05 RMK AO2 SLP159 T01111022
93073KASE ASE20160617055510506/17/16 05:55:31  5-MIN KASE 171255Z 20004KT 10SM CLR 11/M02 A3036 7440 42 8700 190/04 RMK AO2 T01061017
93073KASE ASE20160617060010506/17/16 06:00:31  5-MIN KASE 171300Z 17004KT 10SM CLR 11/M01 A3036 7430 42 8700 160/04 RMK AO2 T01111011
93073KASE ASE20160617060510506/17/16 06:05:31  5-MIN KASE 171305Z 16003KT 10SM CLR 12/M01 A3036 7430 41 8800 150/03 RMK AO2 T01171011
93073KASE ASE20160617061010506/17/16 06:10:31  5-MIN KASE 171310Z 00000KT 10SM CLR 12/M02 A3036 7430 39 8800 000/00 RMK AO2 T01171017
93073KASE ASE20160617061510506/17/16 06:15:31  5-MIN KASE 171315Z 16004KT 10SM CLR 12/M02 A3036 7440 38 8800 150/04 RMK AO2 T01171022
93073KASE ASE20160617062010506/17/16 06:20:31  5-MIN KASE 171320Z 14005KT 10SM CLR 12/M02 A3036 7430 36 8800 140/05 RMK AO2 T01221022
93073KASE ASE20160617062510506/17/16 06:25:31  5-MIN KASE 171325Z 12004KT 10SM CLR 13/M02 A3036 7430 35 8900 110/04 RMK AO2 T01281022
93073KASE ASE20160617063010506/17/16 06:30:31  5-MIN KASE 171330Z 12004KT 10SM CLR 12/M02 A3036 7430 38 8800 110/04 RMK AO2 T01221017
93073KASE ASE20160617063510506/17/16 06:35:31  5-MIN KASE 171335Z 14004KT 10SM CLR 13/M02 A3036 7430 36 8900 130/04 RMK AO2 T01281017
93073KASE ASE20160617064010506/17/16 06:40:31  5-MIN KASE 171340Z 00000KT 10SM CLR 13/M02 A3036 7440 35 8900 000/00 RMK AO2 T01281022
93073KASE ASE20160617064510506/17/16 06:45:31  5-MIN KASE 171345Z 00000KT 10SM CLR 13/M01 A3036 7430 36 9000 000/00 RMK AO2 T01331011
93073KASE ASE20160617065011206/17/16 06:50:31  5-MIN KASE 171350Z 12005KT 10SM CLR 13/M02 A3036 7430 35 9000 120/05 RMK AO2 SLP164 T01331017
93073KASE ASE20160617065510506/17/16 06:55:31  5-MIN KASE 171355Z 13004KT 10SM CLR 13/M01 A3037 7430 36 9000 120/04 RMK AO2 T01331011
93073KASE ASE20160617070010506/17/16 07:00:31  5-MIN KASE 171400Z 11005KT 10SM CLR 14/M01 A3037 7430 35 9000 100/05 RMK AO2 T01391011
93073KASE ASE20160617070510506/17/16 07:05:31  5-MIN KASE 171405Z 11004KT 10SM CLR 14/M01 A3037 7430 34 9100 100/04 RMK AO2 T01441011
93073KASE ASE20160617071010506/17/16 07:10:31  5-MIN KASE 171410Z 11004KT 10SM CLR 14/M01 A3037 7430 35 9100 100/04 RMK AO2 T01441006
93073KASE ASE20160617071510506/17/16 07:15:31  5-MIN KASE 171415Z 12004KT 10SM CLR 15/M01 A3037 7430 34 9100 110/04 RMK AO2 T01501006
93073KASE ASE20160617072010506/17/16 07:20:31  5-MIN KASE 171420Z 13004KT 10SM CLR 15/M01 A3037 7430 34 9100 120/04 RMK AO2 T01501006
93073KASE ASE20160617072510506/17/16 07:25:31  5-MIN KASE 171425Z VRB03KT 10SM CLR 16/M01 A3037 7430 33 9200 VRB/03 RMK AO2 T01561006
93073KASE ASE20160617073010506/17/16 07:30:31  5-MIN KASE 171430Z 00000KT 10SM CLR 16/M01 A3037 7430 33 9200 000/00 RMK AO2 T01561006
93073KASE ASE20160617073510506/17/16 07:35:31  5-MIN KASE 171435Z 00000KT 10SM CLR 17/M01 A3037 7430 31 9300 000/00 RMK AO2 T01671006
93073KASE ASE20160617074010406/17/16 07:40:31  5-MIN KASE 171440Z 33004KT 10SM CLR 17/00 A3037 7430 32 9300 320/04 RMK AO2 T01670000
93073KASE ASE20160617074510406/17/16 07:45:31  5-MIN KASE 171445Z 35005KT 10SM CLR 17/01 A3037 7430 33 9300 340/05 RMK AO2 T01670006
93073KASE ASE20160617075011706/17/16 07:50:31  5-MIN KASE 171450Z 36005KT 10SM CLR 17/01 A3037 7430 33 9300 350/05 RMK AO2 SLP167 T01670006 53006
93073KASE ASE20160617075510406/17/16 07:55:31  5-MIN KASE 171455Z 01005KT 10SM CLR 17/01 A3037 7430 33 9400 360/05 RMK AO2 T01720011
93073KASE ASE20160617080010406/17/16 08:00:31  5-MIN KASE 171500Z 02004KT 10SM CLR 17/01 A3037 7430 32 9400 010/04 RMK AO2 T01720006
93073KASE ASE20160617080510506/17/16 08:05:31  5-MIN KASE 171505Z 01004KT 10SM CLR 17/M01 A3037 7430 29 9400 360/04 RMK AO2 T01721006
93073KASE ASE20160617081010506/17/16 08:10:31  5-MIN KASE 171510Z 01005KT 10SM CLR 18/M01 A3037 7430 28 9500 360/05 RMK AO2 T01781006
93073KASE ASE20160617081510506/17/16 08:15:31  5-MIN KASE 171515Z 36004KT 10SM CLR 18/M01 A3037 7430 28 9500 350/04 RMK AO2 T01781006
93073KASE ASE20160617082010406/17/16 08:20:31  5-MIN KASE 171520Z 36005KT 10SM CLR 18/00 A3037 7430 30 9500 360/05 RMK AO2 T01780000
93073KASE ASE20160617082510406/17/16 08:25:31  5-MIN KASE 171525Z 36005KT 10SM CLR 18/00 A3037 7430 29 9500 350/05 RMK AO2 T01830000
93073KASE ASE20160617083010406/17/16 08:30:31  5-MIN KASE 171530Z 36006KT 10SM CLR 18/00 A3037 7430 29 9500 350/06 RMK AO2 T01830000
93073KASE ASE20160617083510506/17/16 08:35:31  5-MIN KASE 171535Z VRB05KT 10SM CLR 18/M01 A3037 7430 27 9500 VRB/05 RMK AO2 T01831006
93073KASE ASE20160617084010406/17/16 08:40:31  5-MIN KASE 171540Z VRB05KT 10SM CLR 19/01 A3037 7430 29 9600 VRB/05 RMK AO2 T01890006
93073KASE ASE20160617084510406/17/16 08:45:31  5-MIN KASE 171545Z VRB05KT 10SM CLR 19/01 A3037 7430 29 9600 VRB/05 RMK AO2 T01890006
93073KASE ASE20160617085011106/17/16 08:50:31  5-MIN KASE 171550Z 35006KT 10SM CLR 19/01 A3036 7440 30 9600 340/06 RMK AO2 SLP168 T01890011
93073KASE ASE20160617085510406/17/16 08:55:31  5-MIN KASE 171555Z 36006KT 10SM CLR 19/02 A3036 7430 31 9600 350/06 RMK AO2 T01940022
93073KASE ASE20160617090010406/17/16 09:00:31  5-MIN KASE 171600Z 02005KT 10SM CLR 19/02 A3036 7440 31 9600 010/05 RMK AO2 T01940022
93073KASE ASE20160617090510406/17/16 09:05:31  5-MIN KASE 171605Z 36007KT 10SM CLR 19/03 A3036 7440 33 9600 360/07 RMK AO2 T01940028
93073KASE ASE20160617091010406/17/16 09:10:31  5-MIN KASE 171610Z 36007KT 10SM CLR 19/02 A3036 7440 31 9700 350/07 RMK AO2 T01940022
93073KASE ASE20160617091510406/17/16 09:15:31  5-MIN KASE 171615Z 02007KT 10SM CLR 20/03 A3036 7440 33 9700 010/07 RMK AO2 T02000033
93073KASE ASE20160617092010406/17/16 09:20:31  5-MIN KASE 171620Z 01007KT 10SM CLR 20/03 A3036 7440 31 9700 360/07 RMK AO2 T02000028
93073KASE ASE20160617092510406/17/16 09:25:31  5-MIN KASE 171625Z 02007KT 10SM CLR 21/03 A3036 7440 30 9800 010/07 RMK AO2 T02060028
93073KASE ASE20160617093010406/17/16 09:30:31  5-MIN KASE 171630Z 01005KT 10SM CLR 21/03 A3036 7440 30 9800 010/05 RMK AO2 T02060028
93073KASE ASE20160617093510406/17/16 09:35:31  5-MIN KASE 171635Z 03006KT 10SM CLR 21/03 A3036 7440 29 9800 020/06 RMK AO2 T02110028
93073KASE ASE20160617094010406/17/16 09:40:31  5-MIN KASE 171640Z 01006KT 10SM CLR 22/03 A3036 7440 28 9900 360/06 RMK AO2 T02170028
93073KASE ASE20160617094510406/17/16 09:45:31  5-MIN KASE 171645Z 35007KT 10SM CLR 22/03 A3035 7440 28 9900 340/07 RMK AO2 T02170028
93073KASE ASE20160617095011106/17/16 09:50:31  5-MIN KASE 171650Z VRB06KT 10SM CLR 22/03 A3036 7440 28 9900 VRB/06 RMK AO2 SLP157 T02170028
93073KASE ASE20160617095510506/17/16 09:55:31  5-MIN KASE 171655Z 36007KT 10SM CLR 23/03 A3036 7440 27 10000 350/07 RMK AO2 T02280033
93073KASE ASE20160617100010506/17/16 10:00:31  5-MIN KASE 171700Z 36007KT 10SM CLR 22/02 A3035 7440 26 10000 350/07 RMK AO2 T02220022
93073KASE ASE20160617100510506/17/16 10:05:31  5-MIN KASE 171705Z 02006KT 10SM CLR 23/03 A3035 7440 26 10000 010/06 RMK AO2 T02280028
93073KASE ASE20160617101010506/17/16 10:10:31  5-MIN KASE 171710Z 04007KT 10SM CLR 23/03 A3035 7440 25 10100 030/07 RMK AO2 T02330028
93073KASE ASE20160617101512106/17/16 10:15:31  5-MIN KASE 171715Z 04007KT 360V060 10SM CLR 23/03 A3035 7450 25 10100 030/07 350V050 RMK AO2 T02330028
93073KASE ASE20160617102010506/17/16 10:20:31  5-MIN KASE 171720Z 01007KT 10SM CLR 24/02 A3035 7450 23 10100 360/07 RMK AO2 T02390017
93073KASE ASE20160617102510506/17/16 10:25:31  5-MIN KASE 171725Z 03006KT 10SM CLR 23/01 A3035 7450 23 10100 020/06 RMK AO2 T02330011
93073KASE ASE20160617103010506/17/16 10:30:31  5-MIN KASE 171730Z VRB06KT 10SM CLR 24/02 A3035 7450 22 10200 VRB/06 RMK AO2 T02440017
93073KASE ASE20160617103510606/17/16 10:35:31  5-MIN KASE 171735Z 31004KT 10SM CLR 24/M03 A3035 7450 16 10200 300/04 RMK AO2 T02441028
93073KASE ASE20160617104009606/17/16 10:40:31  5-MIN KASE 171740Z 10SM CLR 24/M04 A3034 7450 15 10200 M /M RMK AO2 T02441039
93073KASE ASE20160617104510606/17/16 10:45:31  5-MIN KASE 171745Z 33009KT 10SM CLR 25/M03 A3034 7460 15 10300 320/09 RMK AO2 T02501028
93073KASE ASE20160617105013106/17/16 10:50:31  5-MIN KASE 171750Z 34007KT 10SM CLR 25/M03 A3034 7460 15 10300 340/07 RMK AO2 SLP146 T02501028 10250 20072 51005
93073KASE ASE20160617105510606/17/16 10:55:31  5-MIN KASE 171755Z 36007KT 10SM CLR 25/M02 A3034 7460 16 10300 350/07 RMK AO2 T02501022
93073KASE ASE20160617110010606/17/16 11:00:31  5-MIN KASE 171800Z 32007KT 10SM CLR 26/M02 A3033 7460 15 10300 310/07 RMK AO2 T02561022
93073KASE ASE20160617110510606/17/16 11:05:31  5-MIN KASE 171805Z 36007KT 10SM CLR 25/M02 A3033 7460 16 10300 350/07 RMK AO2 T02501022
93073KASE ASE20160617111012206/17/16 11:10:31  5-MIN KASE 171810Z 33008KT 280V350 10SM CLR 26/M02 A3033 7460 15 10300 320/08 270V340 RMK AO2 T02561022
93073KASE ASE20160617111510606/17/16 11:15:31  5-MIN KASE 171815Z VRB06KT 10SM CLR 26/M03 A3033 7460 15 10300 VRB/06 RMK AO2 T02561028
93073KASE ASE20160617112010606/17/16 11:20:31  5-MIN KASE 171820Z 04006KT 10SM CLR 26/M02 A3033 7470 16 10300 030/06 RMK AO2 T02561017
93073KASE ASE20160617112510606/17/16 11:25:31  5-MIN KASE 171825Z 01007KT 10SM CLR 26/M02 A3033 7470 15 10300 360/07 RMK AO2 T02561022
93073KASE ASE20160617113010606/17/16 11:30:31  5-MIN KASE 171830Z VRB05KT 10SM CLR 26/M03 A3033 7470 15 10300 VRB/05 RMK AO2 T02561028
93073KASE ASE20160617113510606/17/16 11:35:31  5-MIN KASE 171835Z 00000KT 10SM CLR 25/M03 A3032 7470 15 10300 000/00 RMK AO2 T02501033
93073KASE ASE20160617114009606/17/16 11:40:31  5-MIN KASE 171840Z 10SM CLR 26/M03 A3032 7470 14 10400 M /M RMK AO2 T02611033
93073KASE ASE20160617114510606/17/16 11:45:31  5-MIN KASE 171845Z 00000KT 10SM CLR 26/M03 A3032 7480 15 10400 000/00 RMK AO2 T02561028
93073KASE ASE20160617115011306/17/16 11:50:31  5-MIN KASE 171850Z 31006KT 10SM CLR 26/M02 A3032 7480 15 10400 310/06 RMK AO2 SLP138 T02611022
93073KASE ASE20160617115510606/17/16 11:55:31  5-MIN KASE 171855Z VRB04KT 10SM CLR 26/M03 A3032 7480 15 10400 VRB/04 RMK AO2 T02561028
93073KASE ASE20160617120010606/17/16 12:00:31  5-MIN KASE 171900Z VRB06KT 10SM CLR 26/M02 A3032 7480 16 10400 VRB/06 RMK AO2 T02611017
93073KASE ASE20160617120510606/17/16 12:05:31  5-MIN KASE 171905Z 01007KT 10SM CLR 27/M02 A3032 7480 15 10500 360/07 RMK AO2 T02671017
93073KASE ASE20160617121009606/17/16 12:10:31  5-MIN KASE 171910Z 10SM CLR 27/M02 A3031 7480 15 10500 M /M RMK AO2 T02671017
93073KASE ASE20160617121510606/17/16 12:15:31  5-MIN KASE 171915Z 00000KT 10SM CLR 26/M02 A3031 7480 16 10400 000/00 RMK AO2 T02611017
93073KASE ASE20160617122010606/17/16 12:20:31  5-MIN KASE 171920Z 33006KT 10SM CLR 27/M02 A3031 7480 14 10500 320/06 RMK AO2 T02671022
93073KASE ASE20160617122509606/17/16 12:25:31  5-MIN KASE 171925Z 10SM CLR 27/M02 A3031 7480 14 10500 M /M RMK AO2 T02671022
93073KASE ASE20160617123010606/17/16 12:30:31  5-MIN KASE 171930Z VRB04KT 10SM CLR 26/M03 A3031 7480 14 10400 VRB/04 RMK AO2 T02611028
93073KASE ASE20160617123510606/17/16 12:35:31  5-MIN KASE 171935Z 35007KT 10SM CLR 27/M01 A3031 7490 15 10500 340/07 RMK AO2 T02721011
93073KASE ASE20160617124010606/17/16 12:40:31  5-MIN KASE 171940Z VRB06KT 10SM CLR 27/M02 A3031 7480 14 10500 VRB/06 RMK AO2 T02721022
93073KASE ASE20160617124510606/17/16 12:45:31  5-MIN KASE 171945Z VRB05KT 10SM CLR 27/M02 A3030 7490 15 10500 VRB/05 RMK AO2 T02721017
93073KASE ASE20160617125011906/17/16 12:50:31  5-MIN KASE 171950Z 33011G16KT 10SM CLR 28/M01 A3030 7490 15 10600 320/11G16 RMK AO2 SLP131 T02781011
93073KASE ASE20160617125511206/17/16 12:55:31  5-MIN KASE 171955Z 34008G16KT 10SM CLR 28/M02 A3030 7490 13 10600 330/08G16 RMK AO2 T02781022
93073KASE ASE20160617130010606/17/16 13:00:31  5-MIN KASE 172000Z 34009KT 10SM CLR 28/M02 A3030 7490 13 10600 330/09 RMK AO2 T02781022
93073KASE ASE20160617130510606/17/16 13:05:31  5-MIN KASE 172005Z VRB03KT 10SM CLR 27/M02 A3031 7490 15 10500 VRB/03 RMK AO2 T02721017
93073KASE ASE20160617131010606/17/16 13:10:31  5-MIN KASE 172010Z VRB03KT 10SM CLR 28/M02 A3030 7490 14 10600 VRB/03 RMK AO2 T02781017
93073KASE ASE20160617131509606/17/16 13:15:31  5-MIN KASE 172015Z 10SM CLR 27/M02 A3030 7490 14 10500 M /M RMK AO2 T02721022
93073KASE ASE20160617132010606/17/16 13:20:31  5-MIN KASE 172020Z 00000KT 10SM CLR 28/M02 A3030 7490 13 10600 000/00 RMK AO2 T02781022
93073KASE ASE20160617132510606/17/16 13:25:31  5-MIN KASE 172025Z 04004KT 10SM CLR 28/M02 A3030 7490 14 10600 040/04 RMK AO2 T02781017
93073KASE ASE20160617133012206/17/16 13:30:31  5-MIN KASE 172030Z 01007KT 350V060 10SM CLR 28/M01 A3030 7490 14 10700 360/07 340V050 RMK AO2 T02831011
93073KASE ASE20160617133510606/17/16 13:35:31  5-MIN KASE 172035Z 03007KT 10SM CLR 28/M01 A3030 7490 14 10700 020/07 RMK AO2 T02831011
93073KASE ASE20160617134010606/17/16 13:40:31  5-MIN KASE 172040Z VRB05KT 10SM CLR 28/M02 A3030 7500 14 10700 VRB/05 RMK AO2 T02831017
93073KASE ASE20160617134510606/17/16 13:45:31  5-MIN KASE 172045Z 02010KT 10SM CLR 28/M01 A3029 7500 14 10700 010/10 RMK AO2 T02831011
93073KASE ASE20160617135011906/17/16 13:50:31  5-MIN KASE 172050Z 01010KT 10SM CLR 28/M02 A3029 7500 14 10700 010/10 RMK AO2 SLP123 T02831017 58008
93073KASE ASE20160617135510606/17/16 13:55:31  5-MIN KASE 172055Z 01008KT 10SM CLR 28/M02 A3029 7500 13 10700 010/08 RMK AO2 T02831022
93073KASE ASE20160617140010606/17/16 14:00:31  5-MIN KASE 172100Z 01007KT 10SM CLR 28/M03 A3029 7500 13 10700 360/07 RMK AO2 T02831028
93073KASE ASE20160617140510606/17/16 14:05:31  5-MIN KASE 172105Z VRB03KT 10SM CLR 28/M03 A3029 7500 12 10700 VRB/03 RMK AO2 T02831033
93073KASE ASE20160617141010606/17/16 14:10:31  5-MIN KASE 172110Z VRB04KT 10SM CLR 28/M03 A3029 7500 12 10700 VRB/04 RMK AO2 T02831033
93073KASE ASE20160617141510606/17/16 14:15:31  5-MIN KASE 172115Z VRB04KT 10SM CLR 28/M04 A3029 7500 11 10700 VRB/04 RMK AO2 T02831044
93073KASE ASE20160617142012806/17/16 14:20:31  5-MIN KASE 172120Z 20009G16KT 140V250 10SM CLR 29/M08 A3029 7500 08 10700 190/09G16 130V240 RMK AO2 T02891078
93073KASE ASE20160617142512806/17/16 14:25:31  5-MIN KASE 172125Z 20010G16KT 170V250 10SM CLR 29/M08 A3029 7500 08 10700 190/10G16 160V240 RMK AO2 T02891083
93073KASE ASE20160617143011206/17/16 14:30:31  5-MIN KASE 172130Z 19014G19KT 10SM CLR 29/M09 A3029 7500 07 10800 180/14G19 RMK AO2 T02941089
93073KASE ASE20160617143511206/17/16 14:35:31  5-MIN KASE 172135Z VRB06G19KT 10SM CLR 29/M09 A3029 7500 07 10800 VRB/06G19 RMK AO2 T02941094
93073KASE ASE20160617144010606/17/16 14:40:31  5-MIN KASE 172140Z 17007KT 10SM CLR 29/M09 A3029 7500 08 10700 160/07 RMK AO2 T02891089
93073KASE ASE20160617144511206/17/16 14:45:31  5-MIN KASE 172145Z 25009G19KT 10SM CLR 29/M07 A3029 7500 09 10700 240/09G19 RMK AO2 T02891072
93073KASE ASE20160617145011906/17/16 14:50:31  5-MIN KASE 172150Z 26009G19KT 10SM CLR 28/M07 A3029 7500 09 10700 250/09G19 RMK AO2 SLP127 T02831067
93073KASE ASE20160617145511206/17/16 14:55:31  5-MIN KASE 172155Z 22007G17KT 10SM CLR 28/M07 A3029 7500 09 10700 210/07G17 RMK AO2 T02831067
93073KASE ASE20160617150010606/17/16 15:00:31  5-MIN KASE 172200Z 23010KT 10SM CLR 28/M07 A3029 7500 09 10700 220/10 RMK AO2 T02831067
93073KASE ASE20160617150510606/17/16 15:05:31  5-MIN KASE 172205Z 26009KT 10SM CLR 28/M07 A3028 7510 09 10700 250/09 RMK AO2 T02831072
93073KASE ASE20160617151010606/17/16 15:10:31  5-MIN KASE 172210Z 30007KT 10SM CLR 29/M08 A3029 7500 08 10700 300/07 RMK AO2 T02891078
93073KASE ASE20160617151510606/17/16 15:15:31  5-MIN KASE 172215Z 33007KT 10SM CLR 29/M08 A3029 7500 08 10700 320/07 RMK AO2 T02891083
93073KASE ASE20160617152010606/17/16 15:20:31  5-MIN KASE 172220Z 33010KT 10SM CLR 29/M08 A3028 7510 08 10700 320/10 RMK AO2 T02891078
93073KASE ASE20160617152510606/17/16 15:25:31  5-MIN KASE 172225Z VRB04KT 10SM CLR 29/M08 A3028 7510 08 10700 VRB/04 RMK AO2 T02891078
93073KASE ASE20160617153009606/17/16 15:30:31  5-MIN KASE 172230Z 10SM CLR 29/M06 A3028 7510 09 10700 M /M RMK AO2 T02891061
93073KASE ASE20160617153510606/17/16 15:35:31  5-MIN KASE 172235Z 33010KT 10SM CLR 29/M06 A3028 7510 10 10700 330/10 RMK AO2 T02891056
93073KASE ASE20160617154010606/17/16 15:40:31  5-MIN KASE 172240Z 32008KT 10SM CLR 28/M06 A3029 7510 10 10700 310/08 RMK AO2 T02831061
93073KASE ASE20160617154510606/17/16 15:45:31  5-MIN KASE 172245Z 33012KT 10SM CLR 28/M06 A3029 7500 10 10700 320/12 RMK AO2 T02831061
93073KASE ASE20160617155011306/17/16 15:50:31  5-MIN KASE 172250Z 25009KT 10SM CLR 28/M05 A3029 7500 11 10700 240/09 RMK AO2 SLP125 T02831050
93073KASE ASE20160617155510606/17/16 15:55:31  5-MIN KASE 172255Z VRB03KT 10SM CLR 28/M04 A3029 7510 12 10600 VRB/03 RMK AO2 T02781039
93073KASE ASE20160617160012206/17/16 16:00:31  5-MIN KASE 172300Z 34008KT 280V030 10SM CLR 28/M04 A3028 7510 12 10700 330/08 270V020 RMK AO2 T02831039
93073KASE ASE20160617160510606/17/16 16:05:31  5-MIN KASE 172305Z 27008KT 10SM CLR 28/M06 A3028 7510 10 10700 260/08 RMK AO2 T02831056
93073KASE ASE20160617161012806/17/16 16:10:31  5-MIN KASE 172310Z 29007G15KT 260V340 10SM CLR 28/M03 A3028 7510 12 10600 280/07G15 250V330 RMK AO2 T02781033
93073KASE ASE20160617161511206/17/16 16:15:31  5-MIN KASE 172315Z 30008G16KT 10SM CLR 28/M03 A3028 7510 13 10700 290/08G16 RMK AO2 T02831028
93073KASE ASE20160617162011206/17/16 16:20:31  5-MIN KASE 172320Z VRB06G16KT 10SM CLR 28/M03 A3028 7510 13 10700 VRB/06G16 RMK AO2 T02831028
93073KASE ASE20160617162510606/17/16 16:25:31  5-MIN KASE 172325Z 26009KT 10SM CLR 28/M03 A3028 7510 13 10700 260/09 RMK AO2 T02831028
93073KASE ASE20160617163010606/17/16 16:30:31  5-MIN KASE 172330Z 31007KT 10SM CLR 28/M03 A3028 7510 13 10700 300/07 RMK AO2 T02831028
93073KASE ASE20160617163510606/17/16 16:35:31  5-MIN KASE 172335Z VRB06KT 10SM CLR 28/M03 A3028 7510 12 10600 VRB/06 RMK AO2 T02781033
93073KASE ASE20160617164010606/17/16 16:40:31  5-MIN KASE 172340Z VRB04KT 10SM CLR 28/M02 A3028 7510 13 10700 VRB/04 RMK AO2 T02831022
93073KASE ASE20160617164510606/17/16 16:45:31  5-MIN KASE 172345Z 28008KT 10SM CLR 28/M02 A3028 7510 13 10700 270/08 RMK AO2 T02831022
93073KASE ASE20160617165013706/17/16 16:50:31  5-MIN KASE 172350Z 28009G15KT 10SM CLR 28/M02 A3028 7510 14 10600 270/09G15 RMK AO2 SLP124 T02781017 10294 20250 56012
93073KASE ASE20160617165511206/17/16 16:55:31  5-MIN KASE 172355Z 27009G15KT 10SM CLR 27/M02 A3028 7510 14 10600 260/09G15 RMK AO2 T02721022
93073KASE ASE20160617170011206/17/16 17:00:31  5-MIN KASE 180000Z 28009G14KT 10SM CLR 27/M02 A3028 7510 14 10600 280/09G14 RMK AO2 T02721022
93073KASE ASE20160617170510606/17/16 17:05:31  5-MIN KASE 180005Z 27009KT 10SM CLR 27/M02 A3028 7510 14 10600 260/09 RMK AO2 T02721022
93073KASE ASE20160617171011206/17/16 17:10:31  5-MIN KASE 180010Z 25009G14KT 10SM CLR 27/M02 A3028 7510 14 10600 240/09G14 RMK AO2 T02721022
93073KASE ASE20160617171510606/17/16 17:15:31  5-MIN KASE 180015Z VRB06KT 10SM CLR 27/M02 A3028 7510 15 10600 VRB/06 RMK AO2 T02721017
93073KASE ASE20160617172010606/17/16 17:20:31  5-MIN KASE 180020Z 26008KT 10SM CLR 27/M02 A3028 7510 15 10500 250/08 RMK AO2 T02671017
93073KASE ASE20160617172510606/17/16 17:25:31  5-MIN KASE 180025Z 29009KT 10SM CLR 27/M02 A3028 7510 14 10500 280/09 RMK AO2 T02671022
93073KASE ASE20160617173010606/17/16 17:30:31  5-MIN KASE 180030Z 28011KT 10SM CLR 27/M03 A3028 7510 13 10500 270/11 RMK AO2 T02671033
93073KASE ASE20160617173511206/17/16 17:35:31  5-MIN KASE 180035Z 27007G16KT 10SM CLR 27/M03 A3028 7510 13 10500 260/07G16 RMK AO2 T02671033
93073KASE ASE20160617174010606/17/16 17:40:31  5-MIN KASE 180040Z 29008KT 10SM CLR 27/M04 A3028 7510 13 10500 280/08 RMK AO2 T02671039
93073KASE ASE20160617174510606/17/16 17:45:31  5-MIN KASE 180045Z 29009KT 10SM CLR 27/M04 A3029 7500 13 10500 280/09 RMK AO2 T02671039
93073KASE ASE20160617175011306/17/16 17:50:31  5-MIN KASE 180050Z 29011KT 10SM CLR 26/M04 A3029 7500 13 10400 280/11 RMK AO2 SLP126 T02611044
93073KASE ASE20160617175510606/17/16 17:55:31  5-MIN KASE 180055Z 28008KT 10SM CLR 26/M04 A3029 7500 13 10400 280/08 RMK AO2 T02611039
93073KASE ASE20160617180010606/17/16 18:00:31  5-MIN KASE 180100Z 27008KT 10SM CLR 26/M04 A3030 7490 13 10400 260/08 RMK AO2 T02611039
93073KASE ASE20160617180511206/17/16 18:05:31  5-MIN KASE 180105Z 30011G18KT 10SM CLR 26/M04 A3030 7490 14 10400 290/11G18 RMK AO2 T02561039
93073KASE ASE20160617181011206/17/16 18:10:31  5-MIN KASE 180110Z 30010G18KT 10SM CLR 26/M04 A3030 7490 13 10400 290/10G18 RMK AO2 T02561044
93073KASE ASE20160617181510606/17/16 18:15:31  5-MIN KASE 180115Z VRB06KT 10SM CLR 26/M04 A3030 7490 14 10400 VRB/06 RMK AO2 T02561039
93073KASE ASE20160617182012206/17/16 18:20:31  5-MIN KASE 180120Z 27007KT 240V310 10SM CLR 26/M04 A3030 7490 14 10400 260/07 230V300 RMK AO2 T02561039
93073KASE ASE20160617182510606/17/16 18:25:31  5-MIN KASE 180125Z 28008KT 10SM CLR 25/M04 A3030 7490 14 10300 270/08 RMK AO2 T02501044
93073KASE ASE20160617183010606/17/16 18:30:31  5-MIN KASE 180130Z 29007KT 10SM CLR 24/M04 A3030 7490 14 10300 280/07 RMK AO2 T02441044
93073KASE ASE20160617183510606/17/16 18:35:31  5-MIN KASE 180135Z 30007KT 10SM CLR 24/M04 A3030 7490 15 10200 290/07 RMK AO2 T02391039
93073KASE ASE20160617184010606/17/16 18:40:31  5-MIN KASE 180140Z 32008KT 10SM CLR 24/M04 A3031 7490 14 10200 310/08 RMK AO2 T02391044
93073KASE ASE20160617184510606/17/16 18:45:31  5-MIN KASE 180145Z 31006KT 10SM CLR 24/M04 A3031 7480 15 10200 300/06 RMK AO2 T02391039
93073KASE ASE20160617185011306/17/16 18:50:31  5-MIN KASE 180150Z 29004KT 10SM CLR 24/M04 A3032 7480 14 10200 280/04 RMK AO2 SLP135 T02441044
93073KASE ASE20160617185510606/17/16 18:55:31  5-MIN KASE 180155Z 03004KT 10SM CLR 23/M03 A3032 7480 16 10100 020/04 RMK AO2 T02331033
93073KASE ASE20160617190010606/17/16 19:00:31  5-MIN KASE 180200Z 00000KT 10SM CLR 23/M03 A3032 7470 17 10100 000/00 RMK AO2 T02281033
93073KASE ASE20160617190510606/17/16 19:05:31  5-MIN KASE 180205Z VRB03KT 10SM CLR 23/M03 A3032 7470 18 10000 VRB/03 RMK AO2 T02281028
93073KASE ASE20160617191010406/17/16 19:10:31  5-MIN KASE 180210Z 26003KT 10SM CLR 19/00 A3032 7470 28 9600 250/03 RMK AO2 T01890000
93073KASE ASE20160617191510506/17/16 19:15:31  5-MIN KASE 180215Z VRB03KT 10SM CLR 19/M01 A3033 7470 25 9700 VRB/03 RMK AO2 T01941011
93073KASE ASE20160617192010406/17/16 19:20:31  5-MIN KASE 180220Z 22003KT 10SM CLR 18/00 A3033 7460 29 9600 210/03 RMK AO2 T01830000
93073KASE ASE20160617192510406/17/16 19:25:31  5-MIN KASE 180225Z 21003KT 10SM CLR 18/01 A3033 7460 31 9600 200/03 RMK AO2 T01830011
93073KASE ASE20160617193010406/17/16 19:30:31  5-MIN KASE 180230Z 22006KT 10SM CLR 17/02 A3033 7460 36 9400 210/06 RMK AO2 T01670017
93073KASE ASE20160617193510406/17/16 19:35:31  5-MIN KASE 180235Z 23004KT 10SM CLR 16/01 A3033 7460 36 9300 220/04 RMK AO2 T01610011
93073KASE ASE20160617194010406/17/16 19:40:31  5-MIN KASE 180240Z VRB03KT 10SM CLR 16/01 A3034 7460 36 9300 VRB/03 RMK AO2 T01610011
93073KASE ASE20160617194510406/17/16 19:45:31  5-MIN KASE 180245Z 17004KT 10SM CLR 17/02 A3034 7450 35 9400 160/04 RMK AO2 T01720017
93073KASE ASE20160617195011706/17/16 19:50:31  5-MIN KASE 180250Z 21004KT 10SM CLR 16/02 A3034 7450 37 9300 200/04 RMK AO2 SLP157 T01610017 58004
93073KASE ASE20160617195510406/17/16 19:55:31  5-MIN KASE 180255Z VRB04KT 10SM CLR 16/02 A3034 7450 39 9200 VRB/04 RMK AO2 T01560017
93073KASE ASE20160617200010406/17/16 20:00:31  5-MIN KASE 180300Z 21004KT 10SM CLR 15/02 A3035 7450 40 9200 200/04 RMK AO2 T01500017
93073KASE ASE20160617200510406/17/16 20:05:31  5-MIN KASE 180305Z 20005KT 10SM CLR 14/02 A3035 7450 45 9000 190/05 RMK AO2 T01390022
93073KASE ASE20160617201010406/17/16 20:10:31  5-MIN KASE 180310Z 19007KT 10SM CLR 15/02 A3035 7440 40 9200 180/07 RMK AO2 T01500017
93073KASE ASE20160617201510406/17/16 20:15:31  5-MIN KASE 180315Z 20007KT 10SM CLR 17/00 A3036 7440 31 9400 190/07 RMK AO2 T01720000
93073KASE ASE20160617202010406/17/16 20:20:31  5-MIN KASE 180320Z 21007KT 10SM CLR 16/01 A3036 7440 34 9300 200/07 RMK AO2 T01610006
93073KASE ASE20160617202510406/17/16 20:25:31  5-MIN KASE 180325Z 19007KT 10SM CLR 17/01 A3036 7430 33 9300 180/07 RMK AO2 T01670006
93073KASE ASE20160617203010406/17/16 20:30:31  5-MIN KASE 180330Z 20005KT 10SM CLR 16/01 A3037 7430 34 9300 190/05 RMK AO2 T01610006
93073KASE ASE20160617203510406/17/16 20:35:31  5-MIN KASE 180335Z 20006KT 10SM CLR 16/01 A3037 7430 34 9300 190/06 RMK AO2 T01610006
93073KASE ASE20160617204010406/17/16 20:40:31  5-MIN KASE 180340Z 18007KT 10SM CLR 14/02 A3038 7420 43 9000 170/07 RMK AO2 T01390017
93073KASE ASE20160617204510406/17/16 20:45:31  5-MIN KASE 180345Z 21008KT 10SM CLR 14/01 A3038 7420 41 9000 200/08 RMK AO2 T01390011
93073KASE ASE20160617205011106/17/16 20:50:31  5-MIN KASE 180350Z 20009KT 10SM CLR 14/01 A3039 7410 40 9100 190/09 RMK AO2 SLP172 T01440011
93073KASE ASE20160617205510406/17/16 20:55:31  5-MIN KASE 180355Z 17008KT 10SM CLR 15/01 A3039 7410 37 9100 160/08 RMK AO2 T01500006
93073KASE ASE20160617210010406/17/16 21:00:31  5-MIN KASE 180400Z 21008KT 10SM CLR 16/01 A3039 7410 36 9200 200/08 RMK AO2 T01560006
93073KASE ASE20160617210510406/17/16 21:05:31  5-MIN KASE 180405Z 20007KT 10SM CLR 14/01 A3039 7410 38 9100 190/07 RMK AO2 T01440006
93073KASE ASE20160617211010406/17/16 21:10:31  5-MIN KASE 180410Z 21008KT 10SM CLR 14/01 A3039 7410 38 9100 200/08 RMK AO2 T01440006
93073KASE ASE20160617211510406/17/16 21:15:31  5-MIN KASE 180415Z 21006KT 10SM CLR 16/00 A3040 7400 34 9200 200/06 RMK AO2 T01560000
93073KASE ASE20160617212010406/17/16 21:20:31  5-MIN KASE 180420Z 19006KT 10SM CLR 16/00 A3040 7400 33 9200 180/06 RMK AO2 T01610000
93073KASE ASE20160617212510406/17/16 21:25:31  5-MIN KASE 180425Z 19006KT 10SM CLR 16/00 A3040 7400 34 9200 180/06 RMK AO2 T01560000
93073KASE ASE20160617213010406/17/16 21:30:31  5-MIN KASE 180430Z 19006KT 10SM CLR 14/01 A3040 7400 38 9100 180/06 RMK AO2 T01440006
93073KASE ASE20160617213510406/17/16 21:35:31  5-MIN KASE 180435Z 19007KT 10SM CLR 15/00 A3040 7400 35 9100 180/07 RMK AO2 T01500000
93073KASE ASE20160617214010406/17/16 21:40:31  5-MIN KASE 180440Z 20007KT 10SM CLR 15/00 A3041 7390 35 9100 190/07 RMK AO2 T01500000
93073KASE ASE20160617214510406/17/16 21:45:31  5-MIN KASE 180445Z 19008KT 10SM CLR 14/00 A3041 7390 37 9000 180/08 RMK AO2 T01440000
93073KASE ASE20160617215011106/17/16 21:50:31  5-MIN KASE 180450Z 21008KT 10SM CLR 14/00 A3041 7390 38 9000 200/08 RMK AO2 SLP174 T01390000
93073KASE ASE20160617215510406/17/16 21:55:31  5-MIN KASE 180455Z 20007KT 10SM CLR 14/00 A3041 7390 38 9000 190/07 RMK AO2 T01390000
93073KASE ASE20160617220010406/17/16 22:00:31  5-MIN KASE 180500Z 21008KT 10SM CLR 13/00 A3041 7390 40 8900 200/08 RMK AO2 T01330000
93073KASE ASE20160617220510406/17/16 22:05:31  5-MIN KASE 180505Z 21008KT 10SM CLR 13/00 A3041 7390 40 8900 200/08 RMK AO2 T01330000
93073KASE ASE20160617221010406/17/16 22:10:31  5-MIN KASE 180510Z 22008KT 10SM CLR 13/00 A3041 7390 40 8900 210/08 RMK AO2 T01330000
93073KASE ASE20160617221510406/17/16 22:15:31  5-MIN KASE 180515Z 21006KT 10SM CLR 13/00 A3041 7390 41 8900 200/06 RMK AO2 T01280000
93073KASE ASE20160617222010406/17/16 22:20:31  5-MIN KASE 180520Z 21008KT 10SM CLR 12/00 A3041 7390 43 8800 200/08 RMK AO2 T01220000
93073KASE ASE20160617222510406/17/16 22:25:31  5-MIN KASE 180525Z 22008KT 10SM CLR 12/00 A3041 7390 43 8800 210/08 RMK AO2 T01220000
93073KASE ASE20160617223010506/17/16 22:30:31  5-MIN KASE 180530Z 20006KT 10SM CLR 14/M01 A3042 7380 37 9000 190/06 RMK AO2 T01391006
93073KASE ASE20160617223510506/17/16 22:35:31  5-MIN KASE 180535Z 22007KT 10SM CLR 13/M01 A3042 7390 38 8900 210/07 RMK AO2 T01331006
93073KASE ASE20160617224010506/17/16 22:40:31  5-MIN KASE 180540Z 20007KT 10SM CLR 13/M01 A3042 7380 39 8800 200/07 RMK AO2 T01281006
93073KASE ASE20160617224510506/17/16 22:45:31  5-MIN KASE 180545Z 20006KT 10SM CLR 12/M01 A3042 7380 41 8800 190/06 RMK AO2 T01221006
93073KASE ASE20160617225013006/17/16 22:50:31  5-MIN KASE 180550Z 20007KT 10SM CLR 12/M01 A3042 7380 42 8700 190/07 RMK AO2 SLP176 T01171006 10272 20117 53019
93073KASE ASE20160617225510506/17/16 22:55:31  5-MIN KASE 180555Z 20006KT 10SM CLR 12/M01 A3042 7380 42 8700 190/06 RMK AO2 T01171006
93073KASE ASE20160617230010406/17/16 23:00:31  5-MIN KASE 180600Z 19007KT 10SM CLR 11/00 A3042 7380 46 8700 180/07 RMK AO2 T01110000
93073KASE ASE20160617230510506/17/16 23:05:31  5-MIN KASE 180605Z 21009KT 10SM CLR 11/M01 A3042 7390 44 8700 200/09 RMK AO2 T01111006
93073KASE ASE20160617231010506/17/16 23:10:31  5-MIN KASE 180610Z 20006KT 10SM CLR 12/M01 A3042 7380 39 8800 190/06 RMK AO2 T01221011
93073KASE ASE20160617231510506/17/16 23:15:31  5-MIN KASE 180615Z 21009KT 10SM CLR 12/M02 A3042 7380 38 8800 200/09 RMK AO2 T01221017
93073KASE ASE20160617232010506/17/16 23:20:31  5-MIN KASE 180620Z 21007KT 10SM CLR 13/M01 A3042 7380 38 8800 200/07 RMK AO2 T01281011
93073KASE ASE20160617232510506/17/16 23:25:31  5-MIN KASE 180625Z 22007KT 10SM CLR 12/M01 A3042 7380 41 8700 210/07 RMK AO2 T01171011
93073KASE ASE20160617233010506/17/16 23:30:31  5-MIN KASE 180630Z 20006KT 10SM CLR 12/M01 A3042 7380 39 8800 190/06 RMK AO2 T01221011
93073KASE ASE20160617233510506/17/16 23:35:31  5-MIN KASE 180635Z 20006KT 10SM CLR 12/M01 A3042 7380 39 8800 190/06 RMK AO2 T01221011
93073KASE ASE20160617234010506/17/16 23:40:31  5-MIN KASE 180640Z 20007KT 10SM CLR 12/M01 A3042 7380 39 8800 190/07 RMK AO2 T01221011
93073KASE ASE20160617234510506/17/16 23:45:31  5-MIN KASE 180645Z 20005KT 10SM CLR 12/M02 A3042 7380 38 8800 190/05 RMK AO2 T01221017
93073KASE ASE20160617235012206/17/16 23:50:31  5-MIN KASE 180650Z 21007KT 10SM CLR 11/M02 A3042 7380 41 8700 200/07 RMK AO2 SLP172 T01111017 402940072
93073KASE ASE20160617235510506/17/16 23:55:31  5-MIN KASE 180655Z 21007KT 10SM CLR 11/M02 A3041 7390 41 8700 200/07 RMK AO2 T01111017
93073KASE ASE20160618000010506/18/16 00:00:31  5-MIN KASE 180700Z 20006KT 10SM CLR 12/M02 A3042 7380 39 8700 190/06 RMK AO2 T01171017
93073KASE ASE20160618000510506/18/16 00:05:31  5-MIN KASE 180705Z 22006KT 10SM CLR 11/M02 A3042 7380 41 8700 210/06 RMK AO2 T01111017
93073KASE ASE20160618001010506/18/16 00:10:31  5-MIN KASE 180710Z 21006KT 10SM CLR 11/M02 A3042 7380 41 8700 200/06 RMK AO2 T01111017
93073KASE ASE20160618001510506/18/16 00:15:31  5-MIN KASE 180715Z 20008KT 10SM CLR 11/M01 A3042 7380 44 8600 190/08 RMK AO2 T01061011
93073KASE ASE20160618002010506/18/16 00:20:31  5-MIN KASE 180720Z 20006KT 10SM CLR 10/M02 A3042 7380 44 8500 190/06 RMK AO2 T01001017
93073KASE ASE20160618002510506/18/16 00:25:31  5-MIN KASE 180725Z 22009KT 10SM CLR 10/M02 A3042 7380 44 8500 210/09 RMK AO2 T01001017
93073KASE ASE20160618003010506/18/16 00:30:31  5-MIN KASE 180730Z 22007KT 10SM CLR 10/M02 A3042 7380 42 8500 210/07 RMK AO2 T01001022
93073KASE ASE20160618003510506/18/16 00:35:31  5-MIN KASE 180735Z 21005KT 10SM CLR 10/M02 A3042 7380 42 8500 200/05 RMK AO2 T01001022
93073KASE ASE20160618004010506/18/16 00:40:31  5-MIN KASE 180740Z 21006KT 10SM CLR 10/M02 A3042 7380 42 8500 200/06 RMK AO2 T01001022
93073KASE ASE20160618004510506/18/16 00:45:31  5-MIN KASE 180745Z 20006KT 10SM CLR 11/M02 A3042 7380 40 8600 190/06 RMK AO2 T01061022
93073KASE ASE20160618005011206/18/16 00:50:31  5-MIN KASE 180750Z 20006KT 10SM CLR 11/M03 A3042 7380 37 8700 190/06 RMK AO2 SLP169 T01111028
93073KASE ASE20160618005510506/18/16 00:55:31  5-MIN KASE 180755Z 20007KT 10SM CLR 09/M02 A3041 7390 44 8500 190/07 RMK AO2 T00941022
93073KASE ASE20160618010010506/18/16 01:00:31  5-MIN KASE 180800Z 20008KT 10SM CLR 09/M02 A3042 7380 44 8500 190/08 RMK AO2 T00941022
93073KASE ASE20160618010510506/18/16 01:05:31  5-MIN KASE 180805Z 20007KT 10SM CLR 10/M03 A3042 7380 40 8500 190/07 RMK AO2 T01001028
93073KASE ASE20160618011010506/18/16 01:10:31  5-MIN KASE 180810Z 20009KT 10SM CLR 10/M03 A3042 7390 40 8500 200/09 RMK AO2 T01001028
93073KASE ASE20160618011510506/18/16 01:15:31  5-MIN KASE 180815Z 21009KT 10SM CLR 11/M03 A3042 7380 39 8600 200/09 RMK AO2 T01061028
93073KASE ASE20160618012010506/18/16 01:20:31  5-MIN KASE 180820Z 20007KT 10SM CLR 10/M03 A3042 7380 40 8500 190/07 RMK AO2 T01001028
93073KASE ASE20160618012510506/18/16 01:25:31  5-MIN KASE 180825Z 21007KT 10SM CLR 11/M03 A3042 7380 37 8600 200/07 RMK AO2 T01061033
93073KASE ASE20160618013010506/18/16 01:30:31  5-MIN KASE 180830Z 20005KT 10SM CLR 10/M03 A3042 7380 39 8500 190/05 RMK AO2 T01001033
93073KASE ASE20160618013510506/18/16 01:35:31  5-MIN KASE 180835Z 21006KT 10SM CLR 10/M03 A3042 7380 40 8500 200/06 RMK AO2 T01001028
93073KASE ASE20160618014010506/18/16 01:40:31  5-MIN KASE 180840Z 21006KT 10SM CLR 10/M03 A3042 7380 39 8500 200/06 RMK AO2 T01001033
93073KASE ASE20160618014510506/18/16 01:45:31  5-MIN KASE 180845Z 19006KT 10SM CLR 10/M03 A3042 7380 39 8500 190/06 RMK AO2 T01001033
93073KASE ASE20160618015011806/18/16 01:50:31  5-MIN KASE 180850Z 20006KT 10SM CLR 09/M03 A3043 7380 43 8400 190/06 RMK AO2 SLP175 T00891028 51021
93073KASE ASE20160618015510506/18/16 01:55:31  5-MIN KASE 180855Z 21008KT 10SM CLR 09/M03 A3043 7380 42 8400 200/08 RMK AO2 T00891033
93073KASE ASE20160618020010506/18/16 02:00:31  5-MIN KASE 180900Z 21007KT 10SM CLR 09/M03 A3042 7380 40 8500 200/07 RMK AO2 T00941033
93073KASE ASE20160618020510506/18/16 02:05:31  5-MIN KASE 180905Z 19006KT 10SM CLR 09/M03 A3042 7380 40 8500 190/06 RMK AO2 T00941033
93073KASE ASE20160618021010506/18/16 02:10:31  5-MIN KASE 180910Z 21008KT 10SM CLR 08/M03 A3043 7380 47 8300 210/08 RMK AO2 T00781028
93073KASE ASE20160618021510506/18/16 02:15:31  5-MIN KASE 180915Z 21007KT 10SM CLR 09/M03 A3042 7380 42 8400 210/07 RMK AO2 T00891033
93073KASE ASE20160618022010506/18/16 02:20:31  5-MIN KASE 180920Z 21007KT 10SM CLR 09/M04 A3043 7380 39 8500 210/07 RMK AO2 T00941039
93073KASE ASE20160618022510506/18/16 02:25:31  5-MIN KASE 180925Z 19005KT 10SM CLR 08/M03 A3043 7380 43 8300 180/05 RMK AO2 T00831033
93073KASE ASE20160618023010506/18/16 02:30:31  5-MIN KASE 180930Z 20007KT 10SM CLR 08/M03 A3043 7380 43 8300 190/07 RMK AO2 T00831033
93073KASE ASE20160619102510506/19/16 10:25:31  5-MIN KASE 191725Z 36008KT 10SM CLR 27/01 A3045 7350 18 10300 350/08 RMK AO2 T02670006
93073KASE ASE20160619103010606/19/16 10:30:31  5-MIN KASE 191730Z 36007KT 10SM CLR 27/M03 A3045 7350 13 10400 360/07 RMK AO2 T02721028
93073KASE ASE20160619103510606/19/16 10:35:31  5-MIN KASE 191735Z 01007KT 10SM CLR 28/M01 A3045 7350 15 10400 360/07 RMK AO2 T02781006
93073KASE ASE20160619104010606/19/16 10:40:31  5-MIN KASE 191740Z VRB06KT 10SM CLR 28/M02 A3045 7360 14 10400 VRB/06 RMK AO2 T02781017
93073KASE ASE20160619104510606/19/16 10:45:31  5-MIN KASE 191745Z 02009KT 10SM CLR 28/M02 A3045 7350 14 10400 010/09 RMK AO2 T02781017
93073KASE ASE20160619105013106/19/16 10:50:31  5-MIN KASE 191750Z 01008KT 10SM CLR 28/M01 A3045 7350 15 10500 360/08 RMK AO2 SLP172 T02831006 10283 20072 58001
93073KASE ASE20160619105510606/19/16 10:55:31  5-MIN KASE 191755Z 34010KT 10SM CLR 28/M01 A3045 7350 14 10500 330/10 RMK AO2 T02831011
93073KASE ASE20160619110012206/19/16 11:00:31  5-MIN KASE 191800Z 34007KT 290V010 10SM CLR 28/M02 A3045 7350 14 10500 330/07 280V360 RMK AO2 T02831017
93073KASE ASE20160619110510506/19/16 11:05:31  5-MIN KASE 191805Z 33010KT 10SM CLR 29/01 A3045 7350 15 10600 320/10 RMK AO2 T02890006
93073KASE ASE20160619111010506/19/16 11:10:31  5-MIN KASE 191810Z 34009KT 10SM CLR 28/00 A3045 7360 15 10500 340/09 RMK AO2 T02830000
93073KASE ASE20160619111510506/19/16 11:15:31  5-MIN KASE 191815Z 31011KT 10SM CLR 28/01 A3045 7360 16 10500 300/11 RMK AO2 T02830006
93073KASE ASE20160619112010506/19/16 11:20:31  5-MIN KASE 191820Z 35009KT 10SM CLR 29/00 A3045 7350 15 10600 340/09 RMK AO2 T02890000
93073KASE ASE20160619112510606/19/16 11:25:31  5-MIN KASE 191825Z 01008KT 10SM CLR 28/M01 A3045 7350 15 10500 360/08 RMK AO2 T02831006
93073KASE ASE20160619113010506/19/16 11:30:31  5-MIN KASE 191830Z VRB06KT 10SM CLR 28/00 A3045 7350 15 10500 VRB/06 RMK AO2 T02830000
93073KASE ASE20160619113510506/19/16 11:35:31  5-MIN KASE 191835Z 34007KT 10SM CLR 29/01 A3045 7350 15 10600 330/07 RMK AO2 T02890006
93073KASE ASE20160619114010606/19/16 11:40:31  5-MIN KASE 191840Z 32004KT 10SM CLR 29/M01 A3045 7360 14 10600 310/04 RMK AO2 T02891006
93073KASE ASE20160619114510506/19/16 11:45:31  5-MIN KASE 191845Z 33010KT 10SM CLR 29/00 A3045 7360 15 10600 320/10 RMK AO2 T02890000
93073KASE ASE20160619115011306/19/16 11:50:31  5-MIN KASE 191850Z 31007KT 10SM CLR 29/M01 A3045 7360 14 10600 300/07 RMK AO2 SLP170 T02891006
93073KASE ASE20160619115510606/19/16 11:55:31  5-MIN KASE 191855Z 35008KT 10SM CLR 29/M01 A3045 7360 14 10600 350/08 RMK AO2 T02891006
93073KASE ASE20160619120010606/19/16 12:00:31  5-MIN KASE 191900Z 34009KT 10SM CLR 29/M01 A3045 7360 14 10600 330/09 RMK AO2 T02891006
93073KASE ASE20160619120510606/19/16 12:05:31  5-MIN KASE 191905Z VRB04KT 10SM CLR 29/M01 A3045 7360 14 10600 VRB/04 RMK AO2 T02891006
93073KASE ASE20160619121009606/19/16 12:10:31  5-MIN KASE 191910Z 10SM CLR 29/M01 A3045 7360 14 10600 M /M RMK AO2 T02891011
93073KASE ASE20160619121510506/19/16 12:15:31  5-MIN KASE 191915Z 34007KT 10SM CLR 29/00 A3044 7360 14 10600 330/07 RMK AO2 T02940000
93073KASE ASE20160619122010506/19/16 12:20:31  5-MIN KASE 191920Z 35011KT 10SM CLR 29/00 A3044 7360 14 10600 340/11 RMK AO2 T02940000
93073KASE ASE20160619122510506/19/16 12:25:31  5-MIN KASE 191925Z 36009KT 10SM CLR 29/00 A3044 7360 14 10600 350/09 RMK AO2 T02940000
93073KASE ASE20160619123010506/19/16 12:30:31  5-MIN KASE 191930Z 36009KT 10SM CLR 29/00 A3044 7360 14 10600 350/09 RMK AO2 T02940000
93073KASE ASE20160619123510606/19/16 12:35:31  5-MIN KASE 191935Z 02008KT 10SM CLR 29/M01 A3045 7360 14 10600 010/08 RMK AO2 T02941006
93073KASE ASE20160619124010506/19/16 12:40:31  5-MIN KASE 191940Z 01007KT 10SM CLR 29/00 A3044 7360 14 10600 360/07 RMK AO2 T02940000
93073KASE ASE20160619124510606/19/16 12:45:31  5-MIN KASE 191945Z 34007KT 10SM CLR 29/M01 A3044 7360 14 10600 330/07 RMK AO2 T02941006
93073KASE ASE20160619125011206/19/16 12:50:31  5-MIN KASE 191950Z 01005KT 10SM CLR 30/00 A3044 7360 14 10700 360/05 RMK AO2 SLP169 T03000000
93073KASE ASE20160619125511106/19/16 12:55:31  5-MIN KASE 191955Z 02007G15KT 10SM CLR 29/00 A3044 7360 14 10600 010/07G15 RMK AO2 T02940000
93073KASE ASE20160619130011106/19/16 13:00:31  5-MIN KASE 192000Z 01008G15KT 10SM CLR 29/01 A3044 7360 15 10600 360/08G15 RMK AO2 T02940006
93073KASE ASE20160619130510506/19/16 13:05:31  5-MIN KASE 192005Z 02006KT 10SM CLR 29/00 A3044 7370 14 10600 010/06 RMK AO2 T02940000
93073KASE ASE20160619131010506/19/16 13:10:31  5-MIN KASE 192010Z 35008KT 10SM CLR 30/01 A3044 7370 15 10700 340/08 RMK AO2 T03000011
93073KASE ASE20160619131511106/19/16 13:15:31  5-MIN KASE 192015Z 03012G16KT 10SM CLR 30/01 A3043 7370 15 10700 020/12G16 RMK AO2 T03000011
93073KASE ASE20160619132010506/19/16 13:20:31  5-MIN KASE 192020Z 04010KT 10SM CLR 30/02 A3043 7370 16 10700 030/10 RMK AO2 T03000017
93073KASE ASE20160619132511106/19/16 13:25:31  5-MIN KASE 192025Z 33009G17KT 10SM CLR 30/01 A3043 7370 15 10700 320/09G17 RMK AO2 T03000011
93073KASE ASE20160619133011106/19/16 13:30:31  5-MIN KASE 192030Z 35010G17KT 10SM CLR 30/00 A3043 7370 14 10700 340/10G17 RMK AO2 T03000000
93073KASE ASE20160619133511106/19/16 13:35:31  5-MIN KASE 192035Z 35014G20KT 10SM CLR 30/01 A3043 7370 14 10700 340/14G20 RMK AO2 T03000006
93073KASE ASE20160619134009506/19/16 13:40:31  5-MIN KASE 192040Z 10SM CLR 29/00 A3043 7370 14 10600 M /M RMK AO2 T02940000
93073KASE ASE20160619134510506/19/16 13:45:31  5-MIN KASE 192045Z 02006KT 10SM CLR 30/01 A3043 7370 14 10700 010/06 RMK AO2 T03000006
93073KASE ASE20160619135011806/19/16 13:50:31  5-MIN KASE 192050Z 34010KT 10SM CLR 30/01 A3043 7380 15 10700 330/10 RMK AO2 SLP168 T03000011 56001
93073KASE ASE20160619135510506/19/16 13:55:31  5-MIN KASE 192055Z 00000KT 10SM CLR 29/00 A3043 7370 14 10600 000/00 RMK AO2 T02940000
93073KASE ASE20160619140010506/19/16 14:00:31  5-MIN KASE 192100Z VRB04KT 10SM CLR 30/01 A3043 7380 14 10700 VRB/04 RMK AO2 T03000006
93073KASE ASE20160619140510506/19/16 14:05:31  5-MIN KASE 192105Z VRB06KT 10SM CLR 30/01 A3043 7380 15 10700 VRB/06 RMK AO2 T03000011
93073KASE ASE20160619141010506/19/16 14:10:31  5-MIN KASE 192110Z VRB03KT 10SM CLR 30/01 A3043 7380 14 10700 VRB/03 RMK AO2 T03000006
93073KASE ASE20160619141509506/19/16 14:15:31  5-MIN KASE 192115Z 10SM CLR 31/01 A3042 7380 15 10800 M /M RMK AO2 T03060011
93073KASE ASE20160619142010506/19/16 14:20:31  5-MIN KASE 192120Z 02009KT 10SM CLR 31/01 A3042 7380 15 10800 010/09 RMK AO2 T03060011
93073KASE ASE20160619142510506/19/16 14:25:31  5-MIN KASE 192125Z 04006KT 10SM CLR 31/02 A3042 7380 15 10800 030/06 RMK AO2 T03060017
93073KASE ASE20160619143010506/19/16 14:30:31  5-MIN KASE 192130Z VRB03KT 10SM CLR 30/01 A3042 7380 14 10700 VRB/03 RMK AO2 T03000006
93073KASE ASE20160619143510506/19/16 14:35:31  5-MIN KASE 192135Z 32008KT 10SM CLR 30/01 A3042 7380 14 10700 310/08 RMK AO2 T03000006
93073KASE ASE20160619144009506/19/16 14:40:31  5-MIN KASE 192140Z 10SM CLR 29/01 A3042 7390 15 10700 M /M RMK AO2 T02940006
93073KASE ASE20160619144510506/19/16 14:45:31  5-MIN KASE 192145Z 33011KT 10SM CLR 31/01 A3042 7380 15 10800 320/11 RMK AO2 T03060011
93073KASE ASE20160619145011206/19/16 14:50:31  5-MIN KASE 192150Z 35008KT 10SM CLR 31/01 A3042 7380 15 10800 340/08 RMK AO2 SLP167 T03060011
93073KASE ASE20160619145511106/19/16 14:55:31  5-MIN KASE 192155Z 34012G15KT 10SM CLR 31/01 A3042 7380 15 10800 330/12G15 RMK AO2 T03060011
93073KASE ASE20160619150011106/19/16 15:00:31  5-MIN KASE 192200Z 34008G15KT 10SM CLR 31/02 A3042 7380 15 10800 330/08G15 RMK AO2 T03110017
93073KASE ASE20160619150510506/19/16 15:05:31  5-MIN KASE 192205Z 33008KT 10SM CLR 31/01 A3042 7390 15 10800 320/08 RMK AO2 T03060011
93073KASE ASE20160619151010506/19/16 15:10:31  5-MIN KASE 192210Z 35008KT 10SM CLR 31/01 A3041 7390 15 10800 340/08 RMK AO2 T03060011
93073KASE ASE20160619151510506/19/16 15:15:31  5-MIN KASE 192215Z 34008KT 10SM CLR 31/01 A3041 7390 15 10800 330/08 RMK AO2 T03060011
93073KASE ASE20160619152010506/19/16 15:20:31  5-MIN KASE 192220Z VRB04KT 10SM CLR 31/01 A3041 7390 14 10800 VRB/04 RMK AO2 T03060006
93073KASE ASE20160619152510506/19/16 15:25:31  5-MIN KASE 192225Z 35007KT 10SM CLR 31/02 A3041 7390 15 10800 340/07 RMK AO2 T03060017
93073KASE ASE20160619153010506/19/16 15:30:31  5-MIN KASE 192230Z VRB05KT 10SM CLR 31/01 A3041 7390 15 10800 VRB/05 RMK AO2 T03060011
93073KASE ASE20160619153511106/19/16 15:35:31  5-MIN KASE 192235Z VRB06G15KT 10SM CLR 31/01 A3041 7390 15 10800 VRB/06G15 RMK AO2 T03060011
93073KASE ASE20160619154011106/19/16 15:40:31  5-MIN KASE 192240Z 34008G15KT 10SM CLR 31/01 A3041 7390 15 10800 340/08G15 RMK AO2 T03060011
93073KASE ASE20160619154510506/19/16 15:45:31  5-MIN KASE 192245Z 35006KT 10SM CLR 31/02 A3041 7390 15 10800 340/06 RMK AO2 T03060017
93073KASE ASE20160619155011806/19/16 15:50:31  5-MIN KASE 192250Z 35010G16KT 10SM CLR 31/02 A3041 7390 15 10800 340/10G16 RMK AO2 SLP163 T03060017
93073KASE ASE20160619155510506/19/16 15:55:31  5-MIN KASE 192255Z 34009KT 10SM CLR 30/01 A3041 7390 15 10700 330/09 RMK AO2 T03000011
93073KASE ASE20160619160010506/19/16 16:00:31  5-MIN KASE 192300Z VRB05KT 10SM CLR 30/01 A3041 7390 15 10700 VRB/05 RMK AO2 T03000011
93073KASE ASE20160619160510506/19/16 16:05:31  5-MIN KASE 192305Z 32009KT 10SM CLR 30/02 A3041 7390 16 10700 310/09 RMK AO2 T03000017
93073KASE ASE20160619161010506/19/16 16:10:31  5-MIN KASE 192310Z 35006KT 10SM CLR 30/01 A3041 7390 15 10700 340/06 RMK AO2 T03000011
93073KASE ASE20160619161510506/19/16 16:15:31  5-MIN KASE 192315Z 04007KT 10SM CLR 31/03 A3041 7390 16 10800 030/07 RMK AO2 T03060028
93073KASE ASE20160619162010506/19/16 16:20:31  5-MIN KASE 192320Z 01007KT 10SM CLR 31/02 A3041 7390 16 10800 360/07 RMK AO2 T03060022
93073KASE ASE20160619162510506/19/16 16:25:31  5-MIN KASE 192325Z 02008KT 10SM CLR 30/02 A3041 7390 16 10700 010/08 RMK AO2 T03000017
93073KASE ASE20160619163010506/19/16 16:30:31  5-MIN KASE 192330Z 03003KT 10SM CLR 30/02 A3041 7390 16 10700 020/03 RMK AO2 T03000017
93073KASE ASE20160619163510506/19/16 16:35:31  5-MIN KASE 192335Z 31005KT 10SM CLR 30/01 A3041 7390 15 10700 300/05 RMK AO2 T03000011
93073KASE ASE20160619164010506/19/16 16:40:31  5-MIN KASE 192340Z 32008KT 10SM CLR 30/01 A3041 7390 15 10700 320/08 RMK AO2 T03000011
93073KASE ASE20160619164510506/19/16 16:45:31  5-MIN KASE 192345Z VRB06KT 10SM CLR 30/02 A3041 7390 16 10700 VRB/06 RMK AO2 T03000017
93073KASE ASE20160619165013006/19/16 16:50:31  5-MIN KASE 192350Z 33008KT 10SM CLR 30/02 A3041 7390 16 10700 320/08 RMK AO2 SLP162 T03000017 10311 20278 58006
93073KASE ASE20160619165510506/19/16 16:55:31  5-MIN KASE 192355Z 35006KT 10SM CLR 30/01 A3041 7390 15 10700 340/06 RMK AO2 T03000011
93073KASE ASE20160619170010506/19/16 17:00:31  5-MIN KASE 200000Z VRB06KT 10SM CLR 30/02 A3041 7390 16 10700 VRB/06 RMK AO2 T03000017
93073KASE ASE20160619170510506/19/16 17:05:31  5-MIN KASE 200005Z 30005KT 10SM CLR 30/02 A3041 7390 16 10700 290/05 RMK AO2 T03000017
93073KASE ASE20160619171010506/19/16 17:10:31  5-MIN KASE 200010Z 35004KT 10SM CLR 29/02 A3041 7390 16 10700 340/04 RMK AO2 T02940017
93073KASE ASE20160619171510506/19/16 17:15:31  5-MIN KASE 200015Z 30003KT 10SM CLR 29/01 A3041 7390 16 10700 290/03 RMK AO2 T02940011
93073KASE ASE20160619172010506/19/16 17:20:31  5-MIN KASE 200020Z 32005KT 10SM CLR 29/03 A3041 7390 18 10700 310/05 RMK AO2 T02940028
93073KASE ASE20160619172510506/19/16 17:25:31  5-MIN KASE 200025Z 30005KT 10SM CLR 29/02 A3041 7390 16 10700 290/05 RMK AO2 T02940017
93073KASE ASE20160619173010506/19/16 17:30:31  5-MIN KASE 200030Z VRB04KT 10SM CLR 29/02 A3041 7390 17 10600 VRB/04 RMK AO2 T02890022
93073KASE ASE20160619173510506/19/16 17:35:31  5-MIN KASE 200035Z 29004KT 10SM CLR 29/03 A3041 7390 18 10600 280/04 RMK AO2 T02890028
93073KASE ASE20160619174010506/19/16 17:40:31  5-MIN KASE 200040Z 28007KT 10SM CLR 29/02 A3041 7390 17 10600 280/07 RMK AO2 T02890022
93073KASE ASE20160619174510506/19/16 17:45:31  5-MIN KASE 200045Z 30004KT 10SM CLR 29/02 A3041 7390 17 10600 290/04 RMK AO2 T02890022
93073KASE ASE20160619175011206/19/16 17:50:31  5-MIN KASE 200050Z 29004KT 10SM CLR 28/03 A3041 7390 19 10500 280/04 RMK AO2 SLP165 T02830028
93073KASE ASE20160619175510506/19/16 17:55:31  5-MIN KASE 200055Z 30004KT 10SM CLR 28/02 A3041 7390 18 10500 290/04 RMK AO2 T02830022
93073KASE ASE20160619180010506/19/16 18:00:31  5-MIN KASE 200100Z 29003KT 10SM CLR 28/03 A3041 7390 19 10500 290/03 RMK AO2 T02830028
93073KASE ASE20160619180510506/19/16 18:05:31  5-MIN KASE 200105Z 29003KT 10SM CLR 28/03 A3042 7390 19 10500 280/03 RMK AO2 T02830028
93073KASE ASE20160619181010506/19/16 18:10:31  5-MIN KASE 200110Z 00000KT 10SM CLR 28/03 A3042 7390 19 10500 000/00 RMK AO2 T02780028
93073KASE ASE20160619181510506/19/16 18:15:31  5-MIN KASE 200115Z 00000KT 10SM CLR 28/03 A3042 7390 20 10500 000/00 RMK AO2 T02780033
93073KASE ASE20160619182010506/19/16 18:20:31  5-MIN KASE 200120Z 00000KT 10SM CLR 26/05 A3041 7390 26 10200 000/00 RMK AO2 T02560050
93073KASE ASE20160619182510506/19/16 18:25:31  5-MIN KASE 200125Z 00000KT 10SM CLR 23/06 A3041 7390 32 10000 000/00 RMK AO2 T02330061
93073KASE ASE20160619183011006/19/16 18:30:31  5-MIN KASE 200130Z AUTO 36005KT 10SM CLR 25/06 A3042 7390 28 10200 350/05 RMK AO2 T02500056
93073KASE ASE20160619183511006/19/16 18:35:31  5-MIN KASE 200135Z AUTO 32005KT 10SM CLR 27/03 A3042 7390 22 10400 310/05 RMK AO2 T02670033
93073KASE ASE20160619184011006/19/16 18:40:31  5-MIN KASE 200140Z AUTO VRB04KT 10SM CLR 26/03 A3042 7380 23 10200 VRB/04 RMK AO2 T02560033
93073KASE ASE20160619184511006/19/16 18:45:31  5-MIN KASE 200145Z AUTO VRB04KT 10SM CLR 24/03 A3042 7380 25 10100 VRB/04 RMK AO2 T02440033
93073KASE ASE20160619185011606/19/16 18:50:31  5-MIN KASE 200150Z AUTO 26004KT 10SM CLR 22/04 A3042 7380 31 9900 250/04 RMK AO2 SLP172 T02220044
93073KASE ASE20160619185511006/19/16 18:55:31  5-MIN KASE 200155Z AUTO 26005KT 10SM CLR 23/04 A3042 7380 28 10000 250/05 RMK AO2 T02330039
93073KASE ASE20160619190011006/19/16 19:00:31  5-MIN KASE 200200Z AUTO 26006KT 10SM CLR 24/03 A3042 7380 25 10100 250/06 RMK AO2 T02390028
93073KASE ASE20160619190511006/19/16 19:05:31  5-MIN KASE 200205Z AUTO 27006KT 10SM CLR 24/03 A3043 7380 25 10100 260/06 RMK AO2 T02390028
93073KASE ASE20160619191011006/19/16 19:10:31  5-MIN KASE 200210Z AUTO 24006KT 10SM CLR 23/03 A3043 7370 25 10000 230/06 RMK AO2 T02330028
93073KASE ASE20160619191510906/19/16 19:15:31  5-MIN KASE 200215Z AUTO 26007KT 10SM CLR 22/04 A3043 7370 30 9900 250/07 RMK AO2 T02220039
93073KASE ASE20160619192010906/19/16 19:20:31  5-MIN KASE 200220Z AUTO 26006KT 10SM CLR 22/03 A3043 7370 29 9800 250/06 RMK AO2 T02170033
93073KASE ASE20160619192510906/19/16 19:25:31  5-MIN KASE 200225Z AUTO 25005KT 10SM CLR 22/03 A3043 7370 28 9900 250/05 RMK AO2 T02220033
93073KASE ASE20160619193010906/19/16 19:30:31  5-MIN KASE 200230Z AUTO VRB03KT 10SM CLR 21/04 A3044 7370 33 9700 VRB/03 RMK AO2 T02110044
93073KASE ASE20160619193510906/19/16 19:35:31  5-MIN KASE 200235Z AUTO VRB04KT 10SM CLR 21/05 A3044 7370 34 9700 VRB/04 RMK AO2 T02110050
93073KASE ASE20160619194010906/19/16 19:40:31  5-MIN KASE 200240Z AUTO 16004KT 10SM CLR 20/06 A3044 7360 38 9600 150/04 RMK AO2 T02000056
93073KASE ASE20160619194510906/19/16 19:45:31  5-MIN KASE 200245Z AUTO 18006KT 10SM CLR 20/06 A3044 7360 38 9600 170/06 RMK AO2 T02000056
93073KASE ASE20160619195012206/19/16 19:50:31  5-MIN KASE 200250Z AUTO 21005KT 10SM CLR 20/05 A3044 7360 37 9600 200/05 RMK AO2 SLP176 T02000050 56004
93073KASE ASE20160619195510906/19/16 19:55:31  5-MIN KASE 200255Z AUTO 19006KT 10SM CLR 18/06 A3045 7360 44 9400 190/06 RMK AO2 T01830061
93073KASE ASE20160619200010906/19/16 20:00:31  5-MIN KASE 200300Z AUTO 21004KT 10SM CLR 19/06 A3045 7360 41 9500 200/04 RMK AO2 T01890056
93073KASE ASE20160619200510906/19/16 20:05:31  5-MIN KASE 200305Z AUTO 18006KT 10SM CLR 18/06 A3045 7350 42 9400 170/06 RMK AO2 T01830056
93073KASE ASE20160619201010906/19/16 20:10:31  5-MIN KASE 200310Z AUTO 18008KT 10SM CLR 18/05 A3045 7350 41 9400 170/08 RMK AO2 T01830050
93073KASE ASE20160619201510906/19/16 20:15:31  5-MIN KASE 200315Z AUTO 21007KT 10SM CLR 19/04 A3046 7350 38 9500 200/07 RMK AO2 T01890044
93073KASE ASE20160619202010906/19/16 20:20:31  5-MIN KASE 200320Z AUTO 21007KT 10SM CLR 18/04 A3046 7350 41 9400 200/07 RMK AO2 T01780044
93073KASE ASE20160619202510906/19/16 20:25:31  5-MIN KASE 200325Z AUTO 20006KT 10SM CLR 18/05 A3046 7340 41 9400 190/06 RMK AO2 T01830050
93073KASE ASE20160619203010906/19/16 20:30:31  5-MIN KASE 200330Z AUTO 21007KT 10SM CLR 18/05 A3046 7340 41 9400 200/07 RMK AO2 T01830050
93073KASE ASE20160619203510906/19/16 20:35:31  5-MIN KASE 200335Z AUTO 19009KT 10SM CLR 18/04 A3046 7340 39 9400 180/09 RMK AO2 T01830044
93073KASE ASE20160619204010906/19/16 20:40:31  5-MIN KASE 200340Z AUTO 21009KT 10SM CLR 17/05 A3046 7340 44 9300 200/09 RMK AO2 T01720050
93073KASE ASE20160619204510906/19/16 20:45:31  5-MIN KASE 200345Z AUTO 21008KT 10SM CLR 17/05 A3046 7340 45 9200 200/08 RMK AO2 T01670050
93073KASE ASE20160619205011606/19/16 20:50:31  5-MIN KASE 200350Z AUTO 21007KT 10SM CLR 18/04 A3047 7340 41 9300 200/07 RMK AO2 SLP186 T01780044
93073KASE ASE20160619205510906/19/16 20:55:31  5-MIN KASE 200355Z AUTO 20008KT 10SM CLR 17/04 A3047 7340 42 9300 190/08 RMK AO2 T01720044
93073KASE ASE20160619210010906/19/16 21:00:31  5-MIN KASE 200400Z AUTO 20008KT 10SM CLR 17/04 A3047 7340 44 9200 200/08 RMK AO2 T01670044
93073KASE ASE20160619210510906/19/16 21:05:31  5-MIN KASE 200405Z AUTO 19007KT 10SM CLR 17/04 A3047 7330 44 9200 180/07 RMK AO2 T01670044
93073KASE ASE20160619211010906/19/16 21:10:31  5-MIN KASE 200410Z AUTO 21007KT 10SM CLR 17/04 A3047 7330 41 9300 200/07 RMK AO2 T01720039
93073KASE ASE20160619211510906/19/16 21:15:31  5-MIN KASE 200415Z AUTO 22009KT 10SM CLR 17/04 A3047 7330 41 9300 210/09 RMK AO2 T01720039
93073KASE ASE20160619212010906/19/16 21:20:31  5-MIN KASE 200420Z AUTO 21009KT 10SM CLR 17/04 A3048 7330 41 9300 200/09 RMK AO2 T01720039
93073KASE ASE20160619212510906/19/16 21:25:31  5-MIN KASE 200425Z AUTO 21008KT 10SM CLR 17/04 A3048 7330 41 9300 200/08 RMK AO2 T01720039
93073KASE ASE20160619213010906/19/16 21:30:31  5-MIN KASE 200430Z AUTO 22009KT 10SM CLR 17/04 A3048 7320 41 9300 210/09 RMK AO2 T01720039
93073KASE ASE20160619213510906/19/16 21:35:31  5-MIN KASE 200435Z AUTO 22008KT 10SM CLR 17/04 A3048 7320 41 9300 210/08 RMK AO2 T01720039
93073KASE ASE20160619214010906/19/16 21:40:31  5-MIN KASE 200440Z AUTO 20005KT 10SM CLR 17/04 A3048 7320 41 9300 200/05 RMK AO2 T01720039
93073KASE ASE20160619214510906/19/16 21:45:31  5-MIN KASE 200445Z AUTO 20005KT 10SM CLR 17/04 A3048 7320 41 9300 190/05 RMK AO2 T01720039
93073KASE ASE20160619215011606/19/16 21:50:31  5-MIN KASE 200450Z AUTO 19005KT 10SM CLR 17/04 A3048 7320 41 9300 180/05 RMK AO2 SLP184 T01720039
93073KASE ASE20160619215510906/19/16 21:55:31  5-MIN KASE 200455Z AUTO 19006KT 10SM CLR 17/03 A3049 7320 39 9300 180/06 RMK AO2 T01720033
93073KASE ASE20160619220010906/19/16 22:00:31  5-MIN KASE 200500Z AUTO 18007KT 10SM CLR 17/03 A3049 7320 39 9300 180/07 RMK AO2 T01720033
93073KASE ASE20160619220510906/19/16 22:05:31  5-MIN KASE 200505Z AUTO 21009KT 10SM CLR 17/03 A3049 7320 40 9200 200/09 RMK AO2 T01670033
93073KASE ASE20160619221010906/19/16 22:10:31  5-MIN KASE 200510Z AUTO 22010KT 10SM CLR 17/04 A3048 7320 42 9200 210/10 RMK AO2 T01670039
93073KASE ASE20160619221510906/19/16 22:15:31  5-MIN KASE 200515Z AUTO 22007KT 10SM CLR 16/03 A3049 7320 42 9100 210/07 RMK AO2 T01610033
93073KASE ASE20160619222010906/19/16 22:20:31  5-MIN KASE 200520Z AUTO 21009KT 10SM CLR 17/03 A3049 7320 40 9200 200/09 RMK AO2 T01670033
93073KASE ASE20160619222510906/19/16 22:25:31  5-MIN KASE 200525Z AUTO 21008KT 10SM CLR 16/03 A3048 7320 42 9100 200/08 RMK AO2 T01610033
93073KASE ASE20160619223010906/19/16 22:30:31  5-MIN KASE 200530Z AUTO 22006KT 10SM CLR 16/03 A3049 7320 42 9100 210/06 RMK AO2 T01610033
93073KASE ASE20160619223510906/19/16 22:35:31  5-MIN KASE 200535Z AUTO 21007KT 10SM CLR 16/03 A3049 7320 43 9100 200/07 RMK AO2 T01560033
93073KASE ASE20160619224010906/19/16 22:40:31  5-MIN KASE 200540Z AUTO 20005KT 10SM CLR 17/03 A3049 7320 40 9200 190/05 RMK AO2 T01670033
93073KASE ASE20160619224510906/19/16 22:45:31  5-MIN KASE 200545Z AUTO 19005KT 10SM CLR 17/03 A3049 7320 40 9200 180/05 RMK AO2 T01670033
93073KASE ASE20160619225013406/19/16 22:50:31  5-MIN KASE 200550Z AUTO 20007KT 10SM CLR 16/03 A3049 7320 42 9100 190/07 RMK AO2 SLP180 T01610033 10300 20156 53010
93073KASE ASE20160619225510906/19/16 22:55:31  5-MIN KASE 200555Z AUTO 22009KT 10SM CLR 16/03 A3048 7320 43 9100 210/09 RMK AO2 T01560033
93073KASE ASE20160619230010906/19/16 23:00:31  5-MIN KASE 200600Z AUTO 21009KT 10SM CLR 16/03 A3048 7320 42 9100 210/09 RMK AO2 T01610033
93073KASE ASE20160619230510906/19/16 23:05:31  5-MIN KASE 200605Z AUTO 22009KT 10SM CLR 17/03 A3049 7320 40 9200 210/09 RMK AO2 T01670033
93073KASE ASE20160619231010906/19/16 23:10:31  5-MIN KASE 200610Z AUTO 21008KT 10SM CLR 17/03 A3048 7320 40 9200 200/08 RMK AO2 T01670033
93073KASE ASE20160619231510906/19/16 23:15:31  5-MIN KASE 200615Z AUTO 21008KT 10SM CLR 16/03 A3048 7320 42 9100 200/08 RMK AO2 T01610033
93073KASE ASE20160619232010906/19/16 23:20:31  5-MIN KASE 200620Z AUTO 21008KT 10SM CLR 16/03 A3048 7320 43 9100 200/08 RMK AO2 T01560033
93073KASE ASE20160619232510906/19/16 23:25:31  5-MIN KASE 200625Z AUTO 21008KT 10SM CLR 16/03 A3049 7320 43 9100 200/08 RMK AO2 T01560033
93073KASE ASE20160619233010906/19/16 23:30:31  5-MIN KASE 200630Z AUTO 21008KT 10SM CLR 15/03 A3049 7320 45 9000 200/08 RMK AO2 T01500033
93073KASE ASE20160619233510906/19/16 23:35:31  5-MIN KASE 200635Z AUTO 21007KT 10SM CLR 15/03 A3049 7320 45 9000 200/07 RMK AO2 T01500033
93073KASE ASE20160619234010906/19/16 23:40:31  5-MIN KASE 200640Z AUTO 21008KT 10SM CLR 16/03 A3048 7320 43 9100 200/08 RMK AO2 T01560033
93073KASE ASE20160619234510906/19/16 23:45:31  5-MIN KASE 200645Z AUTO 21007KT 10SM CLR 16/03 A3048 7320 43 9100 200/07 RMK AO2 T01560033
93073KASE ASE20160619235012606/19/16 23:50:31  5-MIN KASE 200650Z AUTO 21006KT 10SM CLR 16/03 A3048 7320 43 9100 200/06 RMK AO2 SLP179 T01560033 403110072
93073KASE ASE20160619235510906/19/16 23:55:31  5-MIN KASE 200655Z AUTO 21007KT 10SM CLR 15/03 A3048 7330 45 9000 200/07 RMK AO2 T01500033
93073KASE ASE20160620000010906/20/16 00:00:31  5-MIN KASE 200700Z AUTO 21007KT 10SM CLR 16/03 A3048 7320 42 9100 210/07 RMK AO2 T01560028
93073KASE ASE20160620000510906/20/16 00:05:31  5-MIN KASE 200705Z AUTO 19005KT 10SM CLR 15/03 A3048 7330 43 9000 180/05 RMK AO2 T01500028
93073KASE ASE20160620001010906/20/16 00:10:31  5-MIN KASE 200710Z AUTO 21008KT 10SM CLR 14/03 A3048 7330 47 9000 200/08 RMK AO2 T01440033
93073KASE ASE20160620001510906/20/16 00:15:31  5-MIN KASE 200715Z AUTO 22009KT 10SM CLR 15/03 A3048 7330 43 9000 210/09 RMK AO2 T01500028
93073KASE ASE20160620002010906/20/16 00:20:31  5-MIN KASE 200720Z AUTO 22007KT 10SM CLR 14/03 A3048 7330 45 9000 210/07 RMK AO2 T01440028
93073KASE ASE20160620002509906/20/16 00:25:31  5-MIN KASE 200725Z AUTO 10SM CLR 15/03 A3048 7330 43 9000 M /M RMK AO2 T01500028
93073KASE ASE20160620003010906/20/16 00:30:31  5-MIN KASE 200730Z AUTO 21007KT 10SM CLR 15/03 A3048 7330 43 9000 200/07 RMK AO2 T01500028
93073KASE ASE20160620003510906/20/16 00:35:31  5-MIN KASE 200735Z AUTO 20007KT 10SM CLR 16/03 A3048 7330 42 9100 200/07 RMK AO2 T01560028
93073KASE ASE20160620004010906/20/16 00:40:31  5-MIN KASE 200740Z AUTO 21009KT 10SM CLR 15/03 A3048 7330 43 9000 200/09 RMK AO2 T01500028
93073KASE ASE20160620004510906/20/16 00:45:31  5-MIN KASE 200745Z AUTO 20008KT 10SM CLR 14/03 A3048 7330 45 9000 190/08 RMK AO2 T01440028
93073KASE ASE20160620005011606/20/16 00:50:31  5-MIN KASE 200750Z AUTO 21008KT 10SM CLR 14/03 A3048 7330 45 9000 200/08 RMK AO2 SLP178 T01440028
93073KASE ASE20160620005510906/20/16 00:55:31  5-MIN KASE 200755Z AUTO 21007KT 10SM CLR 14/03 A3048 7330 45 9000 200/07 RMK AO2 T01440028
93073KASE ASE20160620010010906/20/16 01:00:31  5-MIN KASE 200800Z AUTO 22008KT 10SM CLR 14/03 A3048 7320 45 9000 210/08 RMK AO2 T01440028
93073KASE ASE20160620010510906/20/16 01:05:31  5-MIN KASE 200805Z AUTO 22008KT 10SM CLR 15/03 A3048 7320 43 9000 210/08 RMK AO2 T01500028
93073KASE ASE20160620011010906/20/16 01:10:31  5-MIN KASE 200810Z AUTO 21006KT 10SM CLR 16/02 A3048 7320 40 9100 200/06 RMK AO2 T01560022
93073KASE ASE20160620011510906/20/16 01:15:31  5-MIN KASE 200815Z AUTO 20007KT 10SM CLR 15/03 A3048 7320 43 9000 190/07 RMK AO2 T01500028
93073KASE ASE20160620012010906/20/16 01:20:31  5-MIN KASE 200820Z AUTO 20008KT 10SM CLR 14/03 A3048 7330 47 8900 190/08 RMK AO2 T01390028
93073KASE ASE20160620012510906/20/16 01:25:31  5-MIN KASE 200825Z AUTO 21010KT 10SM CLR 13/03 A3048 7330 50 8800 200/10 RMK AO2 T01280028
93073KASE ASE20160620013010906/20/16 01:30:31  5-MIN KASE 200830Z AUTO 21010KT 10SM CLR 14/03 A3048 7330 47 8900 200/10 RMK AO2 T01390028
93073KASE ASE20160620013510906/20/16 01:35:31  5-MIN KASE 200835Z AUTO 22009KT 10SM CLR 13/03 A3048 7330 48 8800 210/09 RMK AO2 T01330028
93073KASE ASE20160620014010906/20/16 01:40:31  5-MIN KASE 200840Z AUTO 21009KT 10SM CLR 14/03 A3048 7330 47 8900 200/09 RMK AO2 T01390028
93073KASE ASE20160620014510906/20/16 01:45:31  5-MIN KASE 200845Z AUTO 21009KT 10SM CLR 14/02 A3048 7330 45 8900 200/09 RMK AO2 T01390022
93073KASE ASE20160620015012206/20/16 01:50:31  5-MIN KASE 200850Z AUTO 21008KT 10SM CLR 14/02 A3048 7330 43 9000 200/08 RMK AO2 SLP177 T01440022 51011
93073KASE ASE20160620015510906/20/16 01:55:31  5-MIN KASE 200855Z AUTO 21009KT 10SM CLR 14/02 A3047 7330 45 8900 200/09 RMK AO2 T01390022
93073KASE ASE20160620020010906/20/16 02:00:31  5-MIN KASE 200900Z AUTO 22010KT 10SM CLR 14/02 A3047 7330 45 8900 210/10 RMK AO2 T01390022
93073KASE ASE20160620020510906/20/16 02:05:31  5-MIN KASE 200905Z AUTO 21008KT 10SM CLR 14/02 A3047 7330 43 9000 200/08 RMK AO2 T01440022
93073KASE ASE20160620021010906/20/16 02:10:31  5-MIN KASE 200910Z AUTO 21008KT 10SM CLR 14/02 A3047 7330 45 8900 200/08 RMK AO2 T01390022
93073KASE ASE20160620021510906/20/16 02:15:31  5-MIN KASE 200915Z AUTO 21009KT 10SM CLR 13/03 A3047 7340 48 8900 200/09 RMK AO2 T01330028
93073KASE ASE20160620022010906/20/16 02:20:31  5-MIN KASE 200920Z AUTO 22007KT 10SM CLR 13/03 A3047 7330 50 8800 210/07 RMK AO2 T01280028
93073KASE ASE20160620022510906/20/16 02:25:31  5-MIN KASE 200925Z AUTO 21004KT 10SM CLR 13/03 A3048 7330 48 8800 200/04 RMK AO2 T01330028
93073KASE ASE20160620023010906/20/16 02:30:31  5-MIN KASE 200930Z AUTO 00000KT 10SM CLR 12/03 A3048 7330 52 8700 000/00 RMK AO2 T01220028
93073KASE ASE20160620023510906/20/16 02:35:31  5-MIN KASE 200935Z AUTO 00000KT 10SM CLR 13/03 A3048 7330 50 8800 000/00 RMK AO2 T01280028
93073KASE ASE20160620024010906/20/16 02:40:31  5-MIN KASE 200940Z AUTO VRB03KT 10SM CLR 12/03 A3048 7330 52 8700 VRB/03 RMK AO2 T01220028
93073KASE ASE20160620024510906/20/16 02:45:31  5-MIN KASE 200945Z AUTO 23003KT 10SM CLR 11/03 A3048 7330 56 8600 220/03 RMK AO2 T01110028
93073KASE ASE20160620025011606/20/16 02:50:31  5-MIN KASE 200950Z AUTO 22004KT 10SM CLR 11/03 A3048 7330 58 8500 210/04 RMK AO2 SLP186 T01060028
93073KASE ASE20160620025510906/20/16 02:55:31  5-MIN KASE 200955Z AUTO 22005KT 10SM CLR 10/03 A3048 7330 63 8500 210/05 RMK AO2 T01000033
93073KASE ASE20160620030010906/20/16 03:00:31  5-MIN KASE 201000Z AUTO 21005KT 10SM CLR 10/03 A3048 7330 63 8500 200/05 RMK AO2 T01000033
93073KASE ASE20160620030510906/20/16 03:05:31  5-MIN KASE 201005Z AUTO 19003KT 10SM CLR 11/03 A3048 7330 56 8600 180/03 RMK AO2 T01110028
93073KASE ASE20160620031010906/20/16 03:10:31  5-MIN KASE 201010Z AUTO 20003KT 10SM CLR 11/03 A3048 7330 56 8600 190/03 RMK AO2 T01110028
93073KASE ASE20160620031510906/20/16 03:15:31  5-MIN KASE 201015Z AUTO 00000KT 10SM CLR 11/03 A3048 7330 61 8500 000/00 RMK AO2 T01060033
93073KASE ASE20160620032010906/20/16 03:20:31  5-MIN KASE 201020Z AUTO 18007KT 10SM CLR 11/03 A3048 7330 58 8600 170/07 RMK AO2 T01110033
93073KASE ASE20160620032510906/20/16 03:25:31  5-MIN KASE 201025Z AUTO 19007KT 10SM CLR 11/03 A3048 7320 56 8600 180/07 RMK AO2 T01110028
93073KASE ASE20160620033010906/20/16 03:30:31  5-MIN KASE 201030Z AUTO 19008KT 10SM CLR 11/03 A3048 7330 56 8600 180/08 RMK AO2 T01110028
93073KASE ASE20160620033510906/20/16 03:35:31  5-MIN KASE 201035Z AUTO 20007KT 10SM CLR 12/03 A3048 7330 54 8700 190/07 RMK AO2 T01170028
93073KASE ASE20160620034010906/20/16 03:40:31  5-MIN KASE 201040Z AUTO 21006KT 10SM CLR 13/03 A3048 7330 50 8800 200/06 RMK AO2 T01280028
93073KASE ASE20160620034510906/20/16 03:45:31  5-MIN KASE 201045Z AUTO 21005KT 10SM CLR 12/03 A3048 7330 54 8700 200/05 RMK AO2 T01170028
93073KASE ASE20160620035011606/20/16 03:50:31  5-MIN KASE 201050Z AUTO 21005KT 10SM CLR 11/03 A3048 7330 58 8500 200/05 RMK AO2 SLP186 T01060028
93073KASE ASE20160620035510906/20/16 03:55:31  5-MIN KASE 201055Z AUTO 20005KT 10SM CLR 10/03 A3048 7330 60 8500 190/05 RMK AO2 T01000028
93073KASE ASE20160620040010906/20/16 04:00:31  5-MIN KASE 201100Z AUTO 20006KT 10SM CLR 10/03 A3048 7330 60 8500 190/06 RMK AO2 T01000028
93073KASE ASE20160620040510906/20/16 04:05:31  5-MIN KASE 201105Z AUTO 21005KT 10SM CLR 10/03 A3048 7330 63 8500 200/05 RMK AO2 T01000033
93073KASE ASE20160620041010906/20/16 04:10:31  5-MIN KASE 201110Z AUTO 18003KT 10SM CLR 11/03 A3048 7320 61 8500 170/03 RMK AO2 T01060033
93073KASE ASE20160620041510906/20/16 04:15:31  5-MIN KASE 201115Z AUTO 20005KT 10SM CLR 10/03 A3048 7330 63 8500 190/05 RMK AO2 T01000033
93073KASE ASE20160620042010906/20/16 04:20:31  5-MIN KASE 201120Z AUTO 19005KT 10SM CLR 10/03 A3048 7320 63 8500 180/05 RMK AO2 T01000033
93073KASE ASE20160620042510906/20/16 04:25:31  5-MIN KASE 201125Z AUTO 22007KT 10SM CLR 11/03 A3049 7320 61 8500 210/07 RMK AO2 T01060033
93073KASE ASE20160620043010906/20/16 04:30:31  5-MIN KASE 201130Z AUTO 00000KT 10SM CLR 10/03 A3049 7320 63 8500 000/00 RMK AO2 T01000033
93073KASE ASE20160620043510906/20/16 04:35:31  5-MIN KASE 201135Z AUTO 00000KT 10SM CLR 09/03 A3048 7320 65 8400 000/00 RMK AO2 T00940033
93073KASE ASE20160620044010906/20/16 04:40:31  5-MIN KASE 201140Z AUTO 00000KT 10SM CLR 09/03 A3049 7320 68 8300 000/00 RMK AO2 T00890033
93073KASE ASE20160620044510906/20/16 04:45:31  5-MIN KASE 201145Z AUTO 00000KT 10SM CLR 11/03 A3049 7320 61 8500 000/00 RMK AO2 T01060033
93073KASE ASE20160620045013406/20/16 04:50:31  5-MIN KASE 201150Z AUTO 00000KT 10SM CLR 11/03 A3049 7320 61 8500 000/00 RMK AO2 SLP189 T01060033 10167 20083 58002
93073KASE ASE20160620045510906/20/16 04:55:31  5-MIN KASE 201155Z AUTO 00000KT 10SM CLR 10/03 A3049 7320 63 8500 000/00 RMK AO2 T01000033
93073KASE ASE20160620050010906/20/16 05:00:31  5-MIN KASE 201200Z AUTO 00000KT 10SM CLR 10/03 A3049 7320 63 8500 000/00 RMK AO2 T01000033
93073KASE ASE20160620050510906/20/16 05:05:31  5-MIN KASE 201205Z AUTO 00000KT 10SM CLR 10/03 A3049 7310 63 8400 000/00 RMK AO2 T01000033
93073KASE ASE20160620051010906/20/16 05:10:31  5-MIN KASE 201210Z AUTO 00000KT 10SM CLR 11/03 A3049 7310 58 8600 000/00 RMK AO2 T01110033
93073KASE ASE20160620051510906/20/16 05:15:31  5-MIN KASE 201215Z AUTO VRB03KT 10SM CLR 11/03 A3050 7310 61 8500 VRB/03 RMK AO2 T01060033
93073KASE ASE20160620052010906/20/16 05:20:31  5-MIN KASE 201220Z AUTO 00000KT 10SM CLR 11/03 A3050 7310 58 8600 000/00 RMK AO2 T01110033
93073KASE ASE20160620052510906/20/16 05:25:31  5-MIN KASE 201225Z AUTO 00000KT 10SM CLR 11/03 A3050 7310 61 8500 000/00 RMK AO2 T01060033
93073KASE ASE20160620053010906/20/16 05:30:31  5-MIN KASE 201230Z AUTO 18007KT 10SM CLR 11/04 A3050 7310 63 8500 170/07 RMK AO2 T01060039
93073KASE ASE20160620053510906/20/16 05:35:31  5-MIN KASE 201235Z AUTO 18007KT 10SM CLR 10/04 A3050 7310 65 8400 170/07 RMK AO2 T01000039
93073KASE ASE20160620054010906/20/16 05:40:31  5-MIN KASE 201240Z AUTO 19006KT 10SM CLR 12/04 A3050 7310 61 8600 180/06 RMK AO2 T01170044
93073KASE ASE20160620054510906/20/16 05:45:31  5-MIN KASE 201245Z AUTO 19006KT 10SM CLR 12/05 A3050 7310 63 8600 180/06 RMK AO2 T01170050
93073KASE ASE20160620055011606/20/16 05:50:31  5-MIN KASE 201250Z AUTO 17005KT 10SM CLR 13/04 A3050 7310 56 8800 160/05 RMK AO2 SLP193 T01280044
93073KASE ASE20160620055510406/20/16 05:55:31  5-MIN KASE 201255Z 17004KT 10SM CLR 13/05 A3050 7310 57 8800 160/04 RMK AO2 T01330050
93073KASE ASE20160620060010406/20/16 06:00:31  5-MIN KASE 201300Z 13004KT 10SM CLR 13/05 A3050 7310 59 8800 130/04 RMK AO2 T01280050
93073KASE ASE20160620060510406/20/16 06:05:31  5-MIN KASE 201305Z 12003KT 10SM CLR 13/05 A3050 7310 59 8800 110/03 RMK AO2 T01280050
93073KASE ASE20160620061010406/20/16 06:10:31  5-MIN KASE 201310Z 12003KT 10SM CLR 13/05 A3051 7300 57 8800 110/03 RMK AO2 T01330050
93073KASE ASE20160620061510406/20/16 06:15:31  5-MIN KASE 201315Z 10003KT 10SM CLR 14/05 A3051 7300 55 8900 090/03 RMK AO2 T01390050
93073KASE ASE20160620062010406/20/16 06:20:31  5-MIN KASE 201320Z 09003KT 10SM CLR 14/06 A3051 7300 55 8900 090/03 RMK AO2 T01440056
93073KASE ASE20160620062510406/20/16 06:25:31  5-MIN KASE 201325Z 10003KT 10SM CLR 15/05 A3051 7300 51 9000 090/03 RMK AO2 T01500050
93073KASE ASE20160620063010406/20/16 06:30:31  5-MIN KASE 201330Z 00000KT 10SM CLR 16/06 A3051 7300 51 9100 000/00 RMK AO2 T01560056
93073KASE ASE20160620063510406/20/16 06:35:31  5-MIN KASE 201335Z 00000KT 10SM CLR 16/06 A3051 7300 49 9100 000/00 RMK AO2 T01610056
93073KASE ASE20160620064010406/20/16 06:40:31  5-MIN KASE 201340Z 00000KT 10SM CLR 17/06 A3051 7300 47 9200 000/00 RMK AO2 T01670056
93073KASE ASE20160620064510406/20/16 06:45:31  5-MIN KASE 201345Z 00000KT 10SM CLR 17/06 A3051 7300 47 9200 000/00 RMK AO2 T01670056
93073KASE ASE20160620065011106/20/16 06:50:31  5-MIN KASE 201350Z 00000KT 10SM CLR 17/06 A3051 7300 46 9200 000/00 RMK AO2 SLP198 T01720056
93073KASE ASE20160620065510406/20/16 06:55:31  5-MIN KASE 201355Z 00000KT 10SM CLR 17/06 A3051 7300 46 9200 000/00 RMK AO2 T01720056
93073KASE ASE20160620070010406/20/16 07:00:31  5-MIN KASE 201400Z 00000KT 10SM CLR 17/06 A3051 7300 47 9200 000/00 RMK AO2 T01720061
93073KASE ASE20160620070510406/20/16 07:05:31  5-MIN KASE 201405Z 00000KT 10SM CLR 17/06 A3051 7300 46 9200 000/00 RMK AO2 T01720056
93073KASE ASE20160620071010406/20/16 07:10:31  5-MIN KASE 201410Z 00000KT 10SM CLR 18/06 A3051 7300 44 9400 000/00 RMK AO2 T01830061
93073KASE ASE20160620071510406/20/16 07:15:31  5-MIN KASE 201415Z 00000KT 10SM CLR 18/06 A3051 7300 42 9400 000/00 RMK AO2 T01830056
93073KASE ASE20160620072010406/20/16 07:20:31  5-MIN KASE 201420Z 00000KT 10SM CLR 19/06 A3051 7300 43 9400 000/00 RMK AO2 T01890061
93073KASE ASE20160620072510406/20/16 07:25:31  5-MIN KASE 201425Z 00000KT 10SM CLR 19/06 A3051 7300 43 9400 000/00 RMK AO2 T01890061
93073KASE ASE20160620073010406/20/16 07:30:31  5-MIN KASE 201430Z 02003KT 10SM CLR 19/06 A3051 7300 43 9400 010/03 RMK AO2 T01890061
93073KASE ASE20160620073510406/20/16 07:35:31  5-MIN KASE 201435Z 00000KT 10SM CLR 19/06 A3051 7300 43 9400 000/00 RMK AO2 T01890061
93073KASE ASE20160620074010406/20/16 07:40:31  5-MIN KASE 201440Z 00000KT 10SM CLR 20/06 A3051 7300 40 9500 000/00 RMK AO2 T02000061
93073KASE ASE20160620074510406/20/16 07:45:31  5-MIN KASE 201445Z 00000KT 10SM CLR 20/06 A3051 7300 40 9500 000/00 RMK AO2 T02000061
93073KASE ASE20160620075011706/20/16 07:50:31  5-MIN KASE 201450Z 33003KT 10SM CLR 20/06 A3051 7300 40 9500 320/03 RMK AO2 SLP198 T02000061 53004
93073KASE ASE20160620075510406/20/16 07:55:31  5-MIN KASE 201455Z 00000KT 10SM CLR 21/07 A3051 7300 40 9600 000/00 RMK AO2 T02060067
93073KASE ASE20160620080010406/20/16 08:00:31  5-MIN KASE 201500Z 36003KT 10SM CLR 21/07 A3051 7300 40 9600 350/03 RMK AO2 T02060067
93073KASE ASE20160620080510406/20/16 08:05:31  5-MIN KASE 201505Z 04003KT 10SM CLR 21/07 A3051 7300 40 9600 030/03 RMK AO2 T02060067
93073KASE ASE20160620081010406/20/16 08:10:31  5-MIN KASE 201510Z 00000KT 10SM CLR 21/07 A3051 7300 38 9700 000/00 RMK AO2 T02110067
93073KASE ASE20160620081510406/20/16 08:15:31  5-MIN KASE 201515Z 00000KT 10SM CLR 22/07 A3051 7300 37 9700 000/00 RMK AO2 T02170067
93073KASE ASE20160620082010306/20/16 08:20:31  5-MIN KASE 201520Z 00000KT 9SM CLR 22/06 A3050 7310 34 9700 000/00 RMK AO2 T02170056
93073KASE ASE20160620082510306/20/16 08:25:31  5-MIN KASE 201525Z 00000KT 9SM CLR 22/06 A3050 7310 33 9800 000/00 RMK AO2 T02220056
93073KASE ASE20160620083010406/20/16 08:30:31  5-MIN KASE 201530Z 00000KT 10SM CLR 22/06 A3050 7310 33 9800 000/00 RMK AO2 T02220056
93073KASE ASE20160620083510406/20/16 08:35:31  5-MIN KASE 201535Z VRB03KT 10SM CLR 23/06 A3050 7310 33 9900 VRB/03 RMK AO2 T02280061
93073KASE ASE20160620084010406/20/16 08:40:31  5-MIN KASE 201540Z 36004KT 10SM CLR 23/07 A3050 7310 33 9900 350/04 RMK AO2 T02330067
93073KASE ASE20160620084510406/20/16 08:45:31  5-MIN KASE 201545Z 01003KT 10SM CLR 23/06 A3050 7310 31 9900 360/03 RMK AO2 T02330056
93073KASE ASE20160620085011106/20/16 08:50:31  5-MIN KASE 201550Z 35005KT 10SM CLR 23/07 A3050 7310 33 9900 340/05 RMK AO2 SLP191 T02330067
93073KASE ASE20160620085510406/20/16 08:55:31  5-MIN KASE 201555Z VRB04KT 10SM CLR 23/07 A3049 7310 33 9900 VRB/04 RMK AO2 T02330067
93073KASE ASE20160620090010406/20/16 09:00:31  5-MIN KASE 201600Z VRB05KT 10SM CLR 23/07 A3049 7320 33 9900 VRB/05 RMK AO2 T02330067
93073KASE ASE20160620090510506/20/16 09:05:31  5-MIN KASE 201605Z VRB04KT 10SM CLR 24/06 A3049 7320 31 10000 VRB/04 RMK AO2 T02390061
93073KASE ASE20160620091010506/20/16 09:10:31  5-MIN KASE 201610Z 36005KT 10SM CLR 24/07 A3049 7320 32 10000 350/05 RMK AO2 T02390067
93073KASE ASE20160620091510506/20/16 09:15:31  5-MIN KASE 201615Z 36005KT 10SM CLR 24/07 A3049 7320 31 10000 350/05 RMK AO2 T02440067
93073KASE ASE20160620092010506/20/16 09:20:31  5-MIN KASE 201620Z 01006KT 10SM CLR 24/07 A3049 7320 33 10000 360/06 RMK AO2 T02440072
93073KASE ASE20160620092510506/20/16 09:25:31  5-MIN KASE 201625Z 01006KT 10SM CLR 24/08 A3049 7320 34 10000 360/06 RMK AO2 T02440078
93073KASE ASE20160620093010506/20/16 09:30:31  5-MIN KASE 201630Z 01005KT 10SM CLR 24/08 A3049 7320 35 10000 360/05 RMK AO2 T02440083
93073KASE ASE20160620093510506/20/16 09:35:31  5-MIN KASE 201635Z 35007KT 10SM CLR 25/09 A3049 7320 35 10100 340/07 RMK AO2 T02500089
93073KASE ASE20160620094010506/20/16 09:40:31  5-MIN KASE 201640Z 02006KT 10SM CLR 25/08 A3049 7320 34 10100 020/06 RMK AO2 T02500083
93073KASE ASE20160620094510506/20/16 09:45:31  5-MIN KASE 201645Z 35005KT 10SM CLR 25/08 A3049 7320 33 10100 340/05 RMK AO2 T02500078
93073KASE ASE20160620095011206/20/16 09:50:31  5-MIN KASE 201650Z VRB05KT 10SM CLR 26/08 A3049 7320 32 10200 VRB/05 RMK AO2 SLP181 T02560078
93073KASE ASE20160620095510506/20/16 09:55:31  5-MIN KASE 201655Z 05006KT 10SM CLR 26/07 A3048 7320 29 10200 040/06 RMK AO2 T02560067
93073KASE ASE20160620100010506/20/16 10:00:31  5-MIN KASE 201700Z 01005KT 10SM CLR 26/07 A3049 7320 29 10200 360/05 RMK AO2 T02610072
93073KASE ASE20160620100510506/20/16 10:05:31  5-MIN KASE 201705Z 03005KT 10SM CLR 26/07 A3048 7320 28 10200 020/05 RMK AO2 T02610067
93073KASE ASE20160620101010506/20/16 10:10:31  5-MIN KASE 201710Z VRB04KT 10SM CLR 27/07 A3048 7320 28 10300 VRB/04 RMK AO2 T02670072
93073KASE ASE20160620101510506/20/16 10:15:31  5-MIN KASE 201715Z VRB05KT 10SM CLR 27/07 A3048 7330 27 10300 VRB/05 RMK AO2 T02720072
93073KASE ASE20160620102010506/20/16 10:20:31  5-MIN KASE 201720Z 02004KT 10SM CLR 27/07 A3048 7330 27 10300 010/04 RMK AO2 T02720072
93073KASE ASE20160620102510506/20/16 10:25:31  5-MIN KASE 201725Z VRB05KT 10SM CLR 27/07 A3048 7330 27 10300 VRB/05 RMK AO2 T02670067
93073KASE ASE20160620103010506/20/16 10:30:31  5-MIN KASE 201730Z 36005KT 10SM CLR 27/07 A3048 7330 27 10400 350/05 RMK AO2 T02720072
93073KASE ASE20160620103510506/20/16 10:35:31  5-MIN KASE 201735Z VRB03KT 10SM CLR 27/07 A3048 7330 27 10400 VRB/03 RMK AO2 T02720072
93073KASE ASE20160620104009506/20/16 10:40:31  5-MIN KASE 201740Z 10SM CLR 28/07 A3048 7330 27 10400 M /M RMK AO2 T02780072
93073KASE ASE20160620104510506/20/16 10:45:31  5-MIN KASE 201745Z VRB04KT 10SM CLR 28/07 A3048 7330 26 10500 VRB/04 RMK AO2 T02830072
93073KASE ASE20160620105013006/20/16 10:50:31  5-MIN KASE 201750Z 01006KT 10SM CLR 28/08 A3047 7330 27 10500 360/06 RMK AO2 SLP174 T02830078 10283 20100 50004
93073KASE ASE20160620105510506/20/16 10:55:31  5-MIN KASE 201755Z 01007KT 10SM CLR 28/08 A3047 7330 27 10500 360/07 RMK AO2 T02830078
93073KASE ASE20160620110010506/20/16 11:00:31  5-MIN KASE 201800Z 03006KT 10SM CLR 28/08 A3047 7340 27 10500 020/06 RMK AO2 T02830078
93073KASE ASE20160620110510506/20/16 11:05:31  5-MIN KASE 201805Z 05007KT 10SM CLR 29/08 A3047 7340 27 10500 050/07 RMK AO2 T02890083
93073KASE ASE20160620111010506/20/16 11:10:31  5-MIN KASE 201810Z 05007KT 10SM CLR 29/08 A3047 7340 26 10600 040/07 RMK AO2 T02940083
93073KASE ASE20160620111510506/20/16 11:15:31  5-MIN KASE 201815Z 02006KT 10SM CLR 29/08 A3047 7340 26 10600 010/06 RMK AO2 T02940083
93073KASE ASE20160620112010506/20/16 11:20:31  5-MIN KASE 201820Z VRB06KT 10SM CLR 29/07 A3046 7340 24 10600 VRB/06 RMK AO2 T02940072
93073KASE ASE20160620112510506/20/16 11:25:31  5-MIN KASE 201825Z 05006KT 10SM CLR 29/08 A3046 7340 25 10600 040/06 RMK AO2 T02940078
93073KASE ASE20160620113009506/20/16 11:30:31  5-MIN KASE 201830Z 10SM CLR 30/07 A3046 7340 22 10700 M /M RMK AO2 T03000067
93073KASE ASE20160620113510506/20/16 11:35:31  5-MIN KASE 201835Z 33007KT 10SM CLR 31/04 A3046 7350 18 10700 320/07 RMK AO2 T03060039
93073KASE ASE20160620114012106/20/16 11:40:31  5-MIN KASE 201840Z 33008KT 310V010 10SM CLR 30/03 A3046 7350 17 10700 330/08 300V360 RMK AO2 T03000028
93073KASE ASE20160620114510506/20/16 11:45:31  5-MIN KASE 201845Z 35006KT 10SM CLR 30/03 A3045 7350 18 10700 340/06 RMK AO2 T03000033
93073KASE ASE20160620115012806/20/16 11:50:31  5-MIN KASE 201850Z 35007KT 320V020 10SM CLR 31/03 A3045 7350 17 10700 340/07 310V010 RMK AO2 SLP161 T03060033
93073KASE ASE20160620115510506/20/16 11:55:31  5-MIN KASE 201855Z 01007KT 10SM CLR 31/03 A3045 7350 17 10800 360/07 RMK AO2 T03110033
93073KASE ASE20160620120010506/20/16 12:00:31  5-MIN KASE 201900Z 36007KT 10SM CLR 31/03 A3045 7350 17 10700 350/07 RMK AO2 T03060033
93073KASE ASE20160620120510506/20/16 12:05:31  5-MIN KASE 201905Z VRB05KT 10SM CLR 31/03 A3045 7350 16 10800 VRB/05 RMK AO2 T03110028
93073KASE ASE20160620121010806/20/16 12:10:31  5-MIN KASE 201910Z 35006KT 10SM FEW060 31/02 A3045 7350 15 10800 340/06 RMK AO2 T03110017
93073KASE ASE20160620121510806/20/16 12:15:31  5-MIN KASE 201915Z VRB03KT 10SM FEW060 31/02 A3045 7360 15 10800 VRB/03 RMK AO2 T03110022
93073KASE ASE20160620122010806/20/16 12:20:31  5-MIN KASE 201920Z VRB06KT 10SM FEW060 32/03 A3044 7360 16 10900 VRB/06 RMK AO2 T03170033
93073KASE ASE20160620122512406/20/16 12:25:31  5-MIN KASE 201925Z 35007KT 310V010 10SM FEW060 32/03 A3044 7360 16 10900 340/07 300V360 RMK AO2 T03170033
93073KASE ASE20160620123010806/20/16 12:30:31  5-MIN KASE 201930Z 01006KT 10SM FEW060 32/03 A3044 7360 15 10900 360/06 RMK AO2 T03170028
93073KASE ASE20160620123510806/20/16 12:35:31  5-MIN KASE 201935Z 32009KT 10SM FEW060 32/03 A3044 7370 15 10900 310/09 RMK AO2 T03170028
93073KASE ASE20160620124010806/20/16 12:40:31  5-MIN KASE 201940Z 32010KT 10SM FEW060 32/02 A3044 7370 14 10900 310/10 RMK AO2 T03170017
93073KASE ASE20160620124510806/20/16 12:45:31  5-MIN KASE 201945Z 28003KT 10SM FEW060 32/01 A3044 7370 14 10900 270/03 RMK AO2 T03170011
93073KASE ASE20160620125011506/20/16 12:50:31  5-MIN KASE 201950Z 32009KT 10SM FEW060 32/02 A3043 7370 14 10900 310/09 RMK AO2 SLP154 T03170017
93073KASE ASE20160620125510506/20/16 12:55:31  5-MIN KASE 201955Z VRB06KT 10SM CLR 32/02 A3043 7370 14 10900 VRB/06 RMK AO2 T03170017
93073KASE ASE20160620130010506/20/16 13:00:31  5-MIN KASE 202000Z VRB05KT 10SM CLR 32/02 A3043 7370 14 10900 VRB/05 RMK AO2 T03170017
93073KASE ASE20160620130510506/20/16 13:05:31  5-MIN KASE 202005Z VRB03KT 10SM CLR 32/02 A3043 7380 14 10900 VRB/03 RMK AO2 T03170017
93073KASE ASE20160620131010506/20/16 13:10:31  5-MIN KASE 202010Z VRB04KT 10SM CLR 32/01 A3043 7380 14 10900 VRB/04 RMK AO2 T03170011
93073KASE ASE20160620131510506/20/16 13:15:31  5-MIN KASE 202015Z VRB05KT 10SM CLR 32/02 A3042 7380 14 10900 VRB/05 RMK AO2 T03220022
93073KASE ASE20160620132009506/20/16 13:20:31  5-MIN KASE 202020Z 10SM CLR 32/02 A3042 7380 14 10900 M /M RMK AO2 T03220022
93073KASE ASE20160620132510506/20/16 13:25:31  5-MIN KASE 202025Z VRB04KT 10SM CLR 32/02 A3042 7380 15 10900 VRB/04 RMK AO2 T03170022
93073KASE ASE20160620133010506/20/16 13:30:31  5-MIN KASE 202030Z 35008KT 10SM CLR 32/02 A3042 7380 14 10900 340/08 RMK AO2 T03220022
93073KASE ASE20160620133510506/20/16 13:35:31  5-MIN KASE 202035Z 35008KT 10SM CLR 32/02 A3042 7390 14 10900 340/08 RMK AO2 T03220022
93073KASE ASE20160620134010506/20/16 13:40:31  5-MIN KASE 202040Z VRB06KT 10SM CLR 33/02 A3042 7390 14 11000 VRB/06 RMK AO2 T03280022
93073KASE ASE20160620134510506/20/16 13:45:31  5-MIN KASE 202045Z 35005KT 10SM CLR 32/02 A3042 7390 14 10900 340/05 RMK AO2 T03170017
93073KASE ASE20160620135010806/20/16 13:50:31  5-MIN KASE 202050Z 10SM CLR 32/02 A3041 7390 14 10900 M /M RMK AO2 SLP147 T03170017 56010
93073KASE ASE20160620135510506/20/16 13:55:31  5-MIN KASE 202055Z 35009KT 10SM CLR 32/03 A3041 7390 15 10900 340/09 RMK AO2 T03220028
93073KASE ASE20160620140010506/20/16 14:00:31  5-MIN KASE 202100Z 32007KT 10SM CLR 32/02 A3041 7390 14 10900 310/07 RMK AO2 T03220022
93073KASE ASE20160620140510506/20/16 14:05:31  5-MIN KASE 202105Z 34007KT 10SM CLR 32/03 A3041 7390 15 10900 330/07 RMK AO2 T03220028
93073KASE ASE20160620141011106/20/16 14:10:31  5-MIN KASE 202110Z 33009G14KT 10SM CLR 32/03 A3041 7390 16 11000 330/09G14 RMK AO2 T03220033
93073KASE ASE20160620141512706/20/16 14:15:31  5-MIN KASE 202115Z 01007G14KT 350V050 10SM CLR 32/04 A3041 7390 16 11000 360/07G14 340V040 RMK AO2 T03220039
93073KASE ASE20160620142010506/20/16 14:20:31  5-MIN KASE 202120Z 34010KT 10SM CLR 32/04 A3041 7390 16 11000 340/10 RMK AO2 T03220039
93073KASE ASE20160620142511106/20/16 14:25:31  5-MIN KASE 202125Z 33009G15KT 10SM CLR 33/04 A3040 7400 16 11000 320/09G15 RMK AO2 T03280039
93073KASE ASE20160620143012706/20/16 14:30:31  5-MIN KASE 202130Z 33008G15KT 310V010 10SM CLR 32/03 A3040 7400 16 11000 320/08G15 300V360 RMK AO2 T03220033
93073KASE ASE20160620143511106/20/16 14:35:31  5-MIN KASE 202135Z 33010G16KT 10SM CLR 33/03 A3040 7400 15 11000 330/10G16 RMK AO2 T03280033
93073KASE ASE20160620144011106/20/16 14:40:31  5-MIN KASE 202140Z VRB05G16KT 10SM CLR 32/03 A3040 7400 16 11000 VRB/05G16 RMK AO2 T03220033
93073KASE ASE20160620144510506/20/16 14:45:31  5-MIN KASE 202145Z 35010KT 10SM CLR 33/04 A3040 7400 16 11000 340/10 RMK AO2 T03280039
93073KASE ASE20160620145011206/20/16 14:50:31  5-MIN KASE 202150Z 36007KT 10SM CLR 33/03 A3039 7410 14 11000 350/07 RMK AO2 SLP148 T03280028
93073KASE ASE20160620145510506/20/16 14:55:31  5-MIN KASE 202155Z VRB04KT 10SM CLR 32/03 A3039 7410 15 11000 VRB/04 RMK AO2 T03220028
93073KASE ASE20160620150012106/20/16 15:00:31  5-MIN KASE 202200Z 35008KT 310V030 10SM CLR 33/04 A3039 7410 16 11000 340/08 300V020 RMK AO2 T03280039
93073KASE ASE20160620150512106/20/16 15:05:31  5-MIN KASE 202205Z 30008KT 260V330 10SM CLR 33/04 A3039 7410 16 11000 290/08 250V320 RMK AO2 T03280039
93073KASE ASE20160620151011106/20/16 15:10:31  5-MIN KASE 202210Z 34012G17KT 10SM CLR 33/03 A3039 7410 15 11000 330/12G17 RMK AO2 T03280033
93073KASE ASE20160620151511106/20/16 15:15:31  5-MIN KASE 202215Z 34008G17KT 10SM CLR 32/03 A3039 7410 15 11000 330/08G17 RMK AO2 T03220028
93073KASE ASE20160620152010506/20/16 15:20:31  5-MIN KASE 202220Z 34008KT 10SM CLR 33/03 A3039 7410 15 11000 330/08 RMK AO2 T03280033
93073KASE ASE20160620152510506/20/16 15:25:31  5-MIN KASE 202225Z 34010KT 10SM CLR 33/03 A3038 7410 14 11000 330/10 RMK AO2 T03280028
93073KASE ASE20160620153010506/20/16 15:30:31  5-MIN KASE 202230Z 31010KT 10SM CLR 32/03 A3038 7410 15 11000 300/10 RMK AO2 T03220028
93073KASE ASE20160620153511106/20/16 15:35:31  5-MIN KASE 202235Z 33011G15KT 10SM CLR 32/03 A3038 7420 15 11000 320/11G15 RMK AO2 T03220028
93073KASE ASE20160620154011106/20/16 15:40:31  5-MIN KASE 202240Z 33009G14KT 10SM CLR 33/03 A3038 7420 14 11000 320/09G14 RMK AO2 T03280028
93073KASE ASE20160620154511106/20/16 15:45:31  5-MIN KASE 202245Z 34011G16KT 10SM CLR 33/03 A3038 7420 15 11000 330/11G16 RMK AO2 T03280033
93073KASE ASE20160620155011206/20/16 15:50:31  5-MIN KASE 202250Z 33011KT 10SM CLR 32/03 A3038 7420 16 11000 320/11 RMK AO2 SLP143 T03220033
93073KASE ASE20160620155510506/20/16 15:55:31  5-MIN KASE 202255Z 35013KT 10SM CLR 32/03 A3038 7420 16 11000 340/13 RMK AO2 T03220033
93073KASE ASE20160620160011106/20/16 16:00:31  5-MIN KASE 202300Z 34011G21KT 10SM CLR 32/03 A3038 7420 16 11000 330/11G21 RMK AO2 T03220033
93073KASE ASE20160620160511106/20/16 16:05:31  5-MIN KASE 202305Z 35010G21KT 10SM CLR 32/03 A3037 7420 16 11000 340/10G21 RMK AO2 T03220033
93073KASE ASE20160620161010506/20/16 16:10:31  5-MIN KASE 202310Z 34010KT 10SM CLR 32/03 A3037 7420 16 11000 330/10 RMK AO2 T03220033
93073KASE ASE20160620161511106/20/16 16:15:31  5-MIN KASE 202315Z 33009G15KT 10SM CLR 32/03 A3037 7420 16 10900 320/09G15 RMK AO2 T03170033
93073KASE ASE20160620162010506/20/16 16:20:31  5-MIN KASE 202320Z 32013KT 10SM CLR 32/04 A3037 7420 16 11000 310/13 RMK AO2 T03220039
93073KASE ASE20160620162512106/20/16 16:25:31  5-MIN KASE 202325Z 33009KT 300V010 10SM CLR 32/04 A3037 7420 17 10900 330/09 290V360 RMK AO2 T03170039
93073KASE ASE20160620163010506/20/16 16:30:31  5-MIN KASE 202330Z 35010KT 10SM CLR 32/04 A3037 7420 16 11000 340/10 RMK AO2 T03220039
93073KASE ASE20160620163512106/20/16 16:35:31  5-MIN KASE 202335Z 32009KT 290V350 10SM CLR 32/04 A3037 7430 17 10900 310/09 280V340 RMK AO2 T03170039
93073KASE ASE20160620164010506/20/16 16:40:31  5-MIN KASE 202340Z 34010KT 10SM CLR 32/04 A3037 7430 16 11000 330/10 RMK AO2 T03220039
93073KASE ASE20160620164511106/20/16 16:45:31  5-MIN KASE 202345Z 34011G16KT 10SM CLR 32/04 A3037 7430 17 10900 330/11G16 RMK AO2 T03170044
93073KASE ASE20160620165013606/20/16 16:50:31  5-MIN KASE 202350Z 33010G18KT 10SM CLR 32/04 A3037 7430 17 10900 320/10G18 RMK AO2 SLP141 T03170039 10333 20283 56016
93073KASE ASE20160620165510506/20/16 16:55:31  5-MIN KASE 202355Z 35009KT 10SM CLR 32/04 A3037 7430 17 10900 340/09 RMK AO2 T03170039
93073KASE ASE20160620170010506/20/16 17:00:31  5-MIN KASE 210000Z 35010KT 10SM CLR 32/04 A3037 7430 17 10900 340/10 RMK AO2 T03170039
93073KASE ASE20160620170512206/20/16 17:05:31  5-MIN KASE 210005Z 35011G19KT 10SM CLR 31/03 A3036 7430 17 10900 340/11G19 RMK AO2 LTG DSNT S T03110033
93073KASE ASE20160620171012206/20/16 17:10:31  5-MIN KASE 210010Z 34010G19KT 10SM CLR 31/04 A3036 7430 17 10900 330/10G19 RMK AO2 LTG DSNT S T03110039
93073KASE ASE20160620171512206/20/16 17:15:31  5-MIN KASE 210015Z 34009G18KT 10SM CLR 31/03 A3036 7430 17 10900 330/09G18 RMK AO2 LTG DSNT S T03110033
93073KASE ASE20160620172011106/20/16 17:20:31  5-MIN KASE 210020Z 34009G18KT 10SM CLR 31/04 A3037 7430 17 10900 330/09G18 RMK AO2 T03110039
93073KASE ASE20160620172510506/20/16 17:25:31  5-MIN KASE 210025Z 34009KT 10SM CLR 31/04 A3036 7430 17 10900 340/09 RMK AO2 T03110039
93073KASE ASE20160620173010506/20/16 17:30:31  5-MIN KASE 210030Z 33012KT 10SM CLR 31/04 A3037 7430 18 10900 320/12 RMK AO2 T03110044
93073KASE ASE20160620173511106/20/16 17:35:31  5-MIN KASE 210035Z 35011G16KT 10SM CLR 31/04 A3037 7430 18 10800 340/11G16 RMK AO2 T03060039
93073KASE ASE20160620174011106/20/16 17:40:31  5-MIN KASE 210040Z 34007G16KT 10SM CLR 31/04 A3037 7430 18 10800 330/07G16 RMK AO2 T03060039
93073KASE ASE20160620174510506/20/16 17:45:31  5-MIN KASE 210045Z 33012KT 10SM CLR 31/04 A3037 7430 19 10800 320/12 RMK AO2 T03060044
93073KASE ASE20160620175011806/20/16 17:50:31  5-MIN KASE 210050Z 33009G17KT 10SM CLR 31/04 A3037 7430 18 10800 330/09G17 RMK AO2 SLP139 T03060039
93073KASE ASE20160620175510506/20/16 17:55:31  5-MIN KASE 210055Z 34008KT 10SM CLR 31/04 A3037 7430 19 10800 330/08 RMK AO2 T03060044
93073KASE ASE20160620180010506/20/16 18:00:31  5-MIN KASE 210100Z 32009KT 10SM CLR 30/04 A3037 7430 19 10800 310/09 RMK AO2 T03000044
93073KASE ASE20160620180510506/20/16 18:05:31  5-MIN KASE 210105Z 32008KT 10SM CLR 29/05 A3037 7430 21 10700 310/08 RMK AO2 T02940050
93073KASE ASE20160620181010506/20/16 18:10:31  5-MIN KASE 210110Z 32009KT 10SM CLR 29/06 A3037 7430 21 10700 310/09 RMK AO2 T02940056
93073KASE ASE20160620181511706/20/16 18:15:31  5-MIN KASE 210115Z 32009KT 10SM CLR 29/05 A3037 7430 21 10700 310/09 RMK AO2 LTG DSNT SE T02940050
93073KASE ASE20160620182011706/20/16 18:20:31  5-MIN KASE 210120Z 32010KT 10SM CLR 29/04 A3037 7430 20 10700 310/10 RMK AO2 LTG DSNT SE T02940044
93073KASE ASE20160620182511706/20/16 18:25:31  5-MIN KASE 210125Z 32007KT 10SM CLR 29/05 A3037 7430 21 10600 310/07 RMK AO2 LTG DSNT SE T02890050
93073KASE ASE20160620183011706/20/16 18:30:31  5-MIN KASE 210130Z 30004KT 10SM CLR 28/06 A3037 7430 24 10500 290/04 RMK AO2 LTG DSNT SE T02780056
93073KASE ASE20160620183511706/20/16 18:35:31  5-MIN KASE 210135Z 31006KT 10SM CLR 28/06 A3037 7430 24 10500 300/06 RMK AO2 LTG DSNT SE T02780056
93073KASE ASE20160620184011706/20/16 18:40:31  5-MIN KASE 210140Z 31008KT 10SM CLR 27/06 A3037 7430 24 10500 300/08 RMK AO2 LTG DSNT SE T02720056
93073KASE ASE20160620184511706/20/16 18:45:31  5-MIN KASE 210145Z VRB06KT 10SM CLR 27/06 A3037 7430 24 10500 VRB/06 RMK AO2 LTG DSNT SE T02720056
93073KASE ASE20160620185012406/20/16 18:50:31  5-MIN KASE 210150Z 28005KT 10SM CLR 27/06 A3037 7430 24 10500 270/05 RMK AO2 LTG DSNT SE SLP138 T02720056
93073KASE ASE20160620185511706/20/16 18:55:31  5-MIN KASE 210155Z 27005KT 10SM CLR 27/06 A3037 7420 26 10400 260/05 RMK AO2 LTG DSNT SE T02670061
93073KASE ASE20160620190012306/20/16 19:00:31  5-MIN KASE 210200Z 26005KT 10SM CLR 27/06 A3038 7420 24 10500 250/05 RMK AO2 LTG DSNT E AND SE T02720056
93073KASE ASE20160620190512306/20/16 19:05:31  5-MIN KASE 210205Z 23005KT 10SM CLR 27/06 A3038 7420 25 10400 220/05 RMK AO2 LTG DSNT E AND SE T02670056
93073KASE ASE20160620191011606/20/16 19:10:31  5-MIN KASE 210210Z 21005KT 10SM CLR 25/07 A3039 7410 30 10200 200/05 RMK AO2 LTG DSNT E T02500067
93073KASE ASE20160620191511606/20/16 19:15:31  5-MIN KASE 210215Z 21005KT 10SM CLR 24/07 A3039 7410 33 10200 200/05 RMK AO2 LTG DSNT E T02440072
93073KASE ASE20160620192011606/20/16 19:20:31  5-MIN KASE 210220Z 21006KT 10SM CLR 24/08 A3039 7410 35 10100 200/06 RMK AO2 LTG DSNT E T02390078
93073KASE ASE20160620192511606/20/16 19:25:31  5-MIN KASE 210225Z 20005KT 10SM CLR 24/08 A3040 7400 34 10100 190/05 RMK AO2 LTG DSNT E T02440078
93073KASE ASE20160620193011706/20/16 19:30:31  5-MIN KASE 210230Z 18005KT 10SM CLR 25/08 A3040 7400 33 10200 170/05 RMK AO2 LTG DSNT SE T02500078
93073KASE ASE20160620193511706/20/16 19:35:31  5-MIN KASE 210235Z 19005KT 10SM CLR 24/08 A3040 7400 34 10100 190/05 RMK AO2 LTG DSNT SE T02440078
93073KASE ASE20160620194011706/20/16 19:40:31  5-MIN KASE 210240Z 17006KT 10SM CLR 24/07 A3040 7400 34 10100 160/06 RMK AO2 LTG DSNT SE T02390072
93073KASE ASE20160620194510506/20/16 19:45:31  5-MIN KASE 210245Z 17004KT 10SM CLR 23/07 A3040 7400 35 10000 160/04 RMK AO2 T02330072
93073KASE ASE20160620195011806/20/16 19:50:31  5-MIN KASE 210250Z 16007KT 10SM CLR 24/07 A3041 7390 34 10100 150/07 RMK AO2 SLP151 T02390072 56013
93073KASE ASE20160620195512106/20/16 19:55:31  5-MIN KASE 210255Z 15008KT 110V170 10SM CLR 23/07 A3041 7390 36 10000 140/08 100V160 RMK AO2 T02280072
93073KASE ASE20160620200010506/20/16 20:00:31  5-MIN KASE 210300Z 13009KT 10SM CLR 25/04 A3041 7390 25 10200 120/09 RMK AO2 T02500039
93073KASE ASE20160620200510506/20/16 20:05:31  5-MIN KASE 210305Z 13009KT 10SM CLR 24/04 A3041 7390 27 10100 130/09 RMK AO2 T02440044
93073KASE ASE20160620201010506/20/16 20:10:31  5-MIN KASE 210310Z 14009KT 10SM CLR 26/03 A3041 7390 23 10200 130/09 RMK AO2 T02560033
93073KASE ASE20160620201510506/20/16 20:15:31  5-MIN KASE 210315Z 13009KT 10SM CLR 26/03 A3041 7390 23 10200 120/09 RMK AO2 T02560033
93073KASE ASE20160621182012906/21/16 18:20:31  5-MIN KASE 220120Z 14015G25KT 10SM CLR 23/04 A3030 7490 30 10100 140/15G25 RMK AO2 PK WND 16031/0103 T02280044
93073KASE ASE20160621182512906/21/16 18:25:31  5-MIN KASE 220125Z 15017G24KT 10SM CLR 23/04 A3030 7490 29 10100 140/17G24 RMK AO2 PK WND 16031/0103 T02330044
93073KASE ASE20160621183012906/21/16 18:30:31  5-MIN KASE 220130Z 15020G28KT 10SM CLR 23/04 A3030 7490 28 10100 150/20G28 RMK AO2 PK WND 16031/0103 T02330039
93073KASE ASE20160621183512906/21/16 18:35:31  5-MIN KASE 220135Z 16023G34KT 10SM CLR 24/03 A3031 7480 26 10200 150/23G34 RMK AO2 PK WND 16034/0134 T02390033
93073KASE ASE20160621184012906/21/16 18:40:31  5-MIN KASE 220140Z 15022G34KT 10SM CLR 24/03 A3031 7480 26 10200 140/22G34 RMK AO2 PK WND 16034/0134 T02390033
93073KASE ASE20160621184512906/21/16 18:45:31  5-MIN KASE 220145Z 16017G29KT 10SM CLR 24/03 A3031 7480 26 10200 150/17G29 RMK AO2 PK WND 16034/0134 T02390033
93073KASE ASE20160621185013606/21/16 18:50:31  5-MIN KASE 220150Z 15019G27KT 10SM CLR 24/03 A3031 7480 26 10200 140/19G27 RMK AO2 PK WND 16034/0134 SLP125 T02390033
93073KASE ASE20160621185511106/21/16 18:55:31  5-MIN KASE 220155Z 16019G27KT 10SM CLR 24/03 A3031 7480 26 10200 150/19G27 RMK AO2 T02390033
93073KASE ASE20160621190011106/21/16 19:00:31  5-MIN KASE 220200Z 15020G25KT 10SM CLR 24/03 A3031 7480 25 10200 150/20G25 RMK AO2 T02390028
93073KASE ASE20160621190512906/21/16 19:05:31  5-MIN KASE 220205Z 15017G26KT 10SM CLR 24/03 A3031 7480 25 10200 150/17G26 RMK AO2 PK WND 15026/0203 T02390028
93073KASE ASE20160621191012906/21/16 19:10:31  5-MIN KASE 220210Z 15017G26KT 10SM CLR 23/03 A3031 7480 26 10100 140/17G26 RMK AO2 PK WND 15026/0203 T02330033
93073KASE ASE20160621191512906/21/16 19:15:31  5-MIN KASE 220215Z 14016G25KT 10SM CLR 23/03 A3032 7480 26 10100 130/16G25 RMK AO2 PK WND 15026/0203 T02330033
93073KASE ASE20160621192012906/21/16 19:20:31  5-MIN KASE 220220Z 14015G25KT 10SM CLR 23/03 A3032 7480 27 10100 130/15G25 RMK AO2 PK WND 15026/0203 T02280033
93073KASE ASE20160621192512906/21/16 19:25:31  5-MIN KASE 220225Z 13014G24KT 10SM CLR 23/03 A3032 7480 27 10100 120/14G24 RMK AO2 PK WND 15026/0203 T02280033
93073KASE ASE20160621193012906/21/16 19:30:31  5-MIN KASE 220230Z 13016G22KT 10SM CLR 22/04 A3032 7480 30 10000 120/16G22 RMK AO2 PK WND 15026/0203 T02220039
93073KASE ASE20160621193512906/21/16 19:35:31  5-MIN KASE 220235Z 13014G21KT 10SM CLR 22/04 A3031 7480 30 10000 120/14G21 RMK AO2 PK WND 15026/0203 T02220039
93073KASE ASE20160621194012906/21/16 19:40:31  5-MIN KASE 220240Z 14014G20KT 10SM CLR 22/03 A3031 7480 28 10000 130/14G20 RMK AO2 PK WND 15026/0203 T02220033
93073KASE ASE20160621194512306/21/16 19:45:31  5-MIN KASE 220245Z 13013KT 10SM CLR 22/03 A3031 7480 28 10000 120/13 RMK AO2 PK WND 15026/0203 T02220033
93073KASE ASE20160621195013606/21/16 19:50:31  5-MIN KASE 220250Z 12012KT 10SM CLR 22/03 A3031 7480 28 10000 110/12 RMK AO2 PK WND 15026/0203 SLP118 T02220033 53005
93073KASE ASE20160621195510506/21/16 19:55:31  5-MIN KASE 220255Z 13012KT 10SM CLR 22/03 A3031 7480 28 10000 120/12 RMK AO2 T02220033
93073KASE ASE20160621200010406/21/16 20:00:31  5-MIN KASE 220300Z 13009KT 10SM CLR 22/04 A3031 7490 31 9900 130/09 RMK AO2 T02170039
93073KASE ASE20160621200510406/21/16 20:05:31  5-MIN KASE 220305Z 15008KT 10SM CLR 22/04 A3031 7490 31 9900 140/08 RMK AO2 T02170039
93073KASE ASE20160621201010506/21/16 20:10:31  5-MIN KASE 220310Z 14009KT 10SM CLR 22/04 A3030 7490 30 10000 130/09 RMK AO2 T02220039
93073KASE ASE20160621201511606/21/16 20:15:31  5-MIN KASE 220315Z 14010KT 10SM CLR 22/04 A3030 7500 31 10000 130/10 RMK AO2 LTG DSNT N T02170039
93073KASE ASE20160621202011606/21/16 20:20:31  5-MIN KASE 220320Z 14012KT 10SM CLR 22/04 A3030 7500 31 10000 130/12 RMK AO2 LTG DSNT N T02170039
93073KASE ASE20160621202511606/21/16 20:25:31  5-MIN KASE 220325Z 14010KT 10SM CLR 22/04 A3029 7500 31 10000 130/10 RMK AO2 LTG DSNT N T02170039
93073KASE ASE20160621203011606/21/16 20:30:31  5-MIN KASE 220330Z 14010KT 10SM CLR 22/03 A3030 7500 29 10000 140/10 RMK AO2 LTG DSNT N T02170033
93073KASE ASE20160621203510506/21/16 20:35:31  5-MIN KASE 220335Z 15009KT 10SM CLR 22/03 A3030 7490 29 10000 140/09 RMK AO2 T02170033
93073KASE ASE20160621204010506/21/16 20:40:31  5-MIN KASE 220340Z 16007KT 10SM CLR 22/03 A3030 7490 28 10000 150/07 RMK AO2 T02220033
93073KASE ASE20160621204510506/21/16 20:45:31  5-MIN KASE 220345Z 13007KT 10SM CLR 22/03 A3030 7490 29 10000 120/07 RMK AO2 T02170033
93073KASE ASE20160621205012306/21/16 20:50:31  5-MIN KASE 220350Z 14006KT 10SM CLR 21/03 A3031 7480 30 9900 130/06 RMK AO2 LTG DSNT NW SLP114 T02110033
93073KASE ASE20160621205511606/21/16 20:55:31  5-MIN KASE 220355Z 22006KT 10SM CLR 21/04 A3032 7480 33 9800 210/06 RMK AO2 LTG DSNT NW T02060039
93073KASE ASE20160621210011606/21/16 21:00:31  5-MIN KASE 220400Z 20006KT 10SM CLR 20/04 A3032 7470 34 9800 190/06 RMK AO2 LTG DSNT NW T02000039
93073KASE ASE20160621210510406/21/16 21:05:31  5-MIN KASE 220405Z 21005KT 10SM CLR 19/04 A3032 7470 37 9700 200/05 RMK AO2 T01940044
93073KASE ASE20160621211011606/21/16 21:10:31  5-MIN KASE 220410Z 21008KT 10SM CLR 19/04 A3032 7470 38 9600 200/08 RMK AO2 LTG DSNT NW T01890044
93073KASE ASE20160621211511606/21/16 21:15:31  5-MIN KASE 220415Z 21007KT 10SM CLR 19/04 A3033 7470 37 9700 200/07 RMK AO2 LTG DSNT NW T01940044
93073KASE ASE20160621212011906/21/16 21:20:31  5-MIN KASE 220420Z 21007KT 10SM FEW120 19/04 A3033 7470 37 9700 210/07 RMK AO2 LTG DSNT NW T01940044
93073KASE ASE20160621212510706/21/16 21:25:31  5-MIN KASE 220425Z 23005KT 10SM FEW120 19/04 A3033 7470 37 9700 220/05 RMK AO2 T01940044
93073KASE ASE20160621213010706/21/16 21:30:31  5-MIN KASE 220430Z 24006KT 10SM FEW120 19/04 A3033 7460 35 9700 230/06 RMK AO2 T01940039
93073KASE ASE20160621213510706/21/16 21:35:31  5-MIN KASE 220435Z 27005KT 10SM FEW120 19/04 A3035 7450 35 9700 260/05 RMK AO2 T01940039
93073KASE ASE20160621214011406/21/16 21:40:31  5-MIN KASE 220440Z 32004KT 10SM SCT120 20/04 A3035 7440 34 9700 310/04 RMK AO2 PRESRR T02000039
93073KASE ASE20160621214511406/21/16 21:45:31  5-MIN KASE 220445Z VRB03KT 10SM BKN110 19/04 A3036 7430 35 9600 VRB/03 RMK AO2 PRESRR T01940039
93073KASE ASE20160621215012106/21/16 21:50:31  5-MIN KASE 220450Z 02006KT 10SM BKN110 19/04 A3038 7420 37 9600 010/06 RMK AO2 PRESRR SLP136 T01940044
93073KASE ASE20160621215513606/21/16 21:55:31  5-MIN KASE 220455Z 32011G19KT 10SM -RA BKN110 21/04 A3039 7410 33 9700 310/11G19 RMK AO2 RAB55 PRESRR P0000 T02060039
93073KASE ASE20160621220013806/21/16 22:00:31  5-MIN KASE 220500Z 36010G19KT 10SM -RA BKN110 21/04 A3040 7400 33 9700 350/10G19 RMK AO2 RAB0455 PRESRR P0000 T02060039
93073KASE ASE20160621220514406/21/16 22:05:31  5-MIN KASE 220505Z 34008G19KT 10SM FEW050 FEW090 OVC110 20/05 A3040 7400 37 9700 340/08G19 RMK AO2 RAB0455E05 P0000 T02000050
93073KASE ASE20160621221013706/21/16 22:10:31  5-MIN KASE 220510Z VRB03G19KT 10SM FEW090 BKN110 19/06 A3039 7410 40 9600 VRB/03G19 RMK AO2 RAB0455E05 P0000 T01940056
93073KASE ASE20160621221513106/21/16 22:15:31  5-MIN KASE 220515Z 15003KT 10SM FEW090 BKN110 19/06 A3039 7410 40 9600 140/03 RMK AO2 RAB0455E05 P0000 T01940056
93073KASE ASE20160621222012406/21/16 22:20:31  5-MIN KASE 220520Z 23005KT 10SM BKN110 19/06 A3038 7420 40 9600 220/05 RMK AO2 RAB0455E05 P0000 T01940056
93073KASE ASE20160621222512406/21/16 22:25:31  5-MIN KASE 220525Z 23008KT 10SM SCT110 18/06 A3038 7420 44 9500 220/08 RMK AO2 RAB0455E05 P0000 T01830061
93073KASE ASE20160621223013106/21/16 22:30:31  5-MIN KASE 220530Z 25008KT 10SM FEW100 SCT110 19/06 A3038 7420 41 9600 240/08 RMK AO2 RAB0455E05 P0000 T01890056
93073KASE ASE20160621223513106/21/16 22:35:31  5-MIN KASE 220535Z 19004KT 10SM FEW100 SCT110 19/06 A3038 7420 40 9600 190/04 RMK AO2 RAB0455E05 P0000 T01940056
93073KASE ASE20160621224012406/21/16 22:40:31  5-MIN KASE 220540Z 21007KT 10SM FEW110 19/06 A3038 7420 41 9600 200/07 RMK AO2 RAB0455E05 P0000 T01890056
93073KASE ASE20160621224512106/21/16 22:45:31  5-MIN KASE 220545Z 17008KT 10SM CLR 19/06 A3037 7420 41 9600 160/08 RMK AO2 RAB0455E05 P0000 T01890056
93073KASE ASE20160621225015206/21/16 22:50:31  5-MIN KASE 220550Z 20005KT 10SM CLR 18/06 A3037 7430 42 9500 190/05 RMK AO2 RAB0455E05 SLP132 P0000 60000 T01830056 10272 20183 58001
93073KASE ASE20160621225510406/21/16 22:55:31  5-MIN KASE 220555Z 17006KT 10SM CLR 19/06 A3037 7430 41 9600 160/06 RMK AO2 T01890056
93073KASE ASE20160621230010406/21/16 23:00:31  5-MIN KASE 220600Z 16005KT 10SM CLR 19/06 A3037 7430 40 9600 160/05 RMK AO2 T01940056
93073KASE ASE20160621230510406/21/16 23:05:31  5-MIN KASE 220605Z 18006KT 10SM CLR 19/06 A3037 7430 41 9600 170/06 RMK AO2 T01890056
93073KASE ASE20160621231010406/21/16 23:10:31  5-MIN KASE 220610Z 20007KT 10SM CLR 17/06 A3037 7430 47 9400 190/07 RMK AO2 T01720061
93073KASE ASE20160621231510906/21/16 23:15:31  5-MIN KASE 220615Z AUTO 19007KT 10SM CLR 18/06 A3037 7430 46 9500 180/07 RMK AO2 T01780061
93073KASE ASE20160621232010906/21/16 23:20:31  5-MIN KASE 220620Z AUTO 16009KT 10SM CLR 18/06 A3037 7430 42 9500 150/09 RMK AO2 T01830056
93073KASE ASE20160621232510906/21/16 23:25:31  5-MIN KASE 220625Z AUTO 15008KT 10SM CLR 19/06 A3037 7430 41 9600 140/08 RMK AO2 T01890056
93073KASE ASE20160621233010906/21/16 23:30:31  5-MIN KASE 220630Z AUTO 14011KT 10SM CLR 19/05 A3037 7430 39 9600 130/11 RMK AO2 T01890050
93073KASE ASE20160621233510906/21/16 23:35:31  5-MIN KASE 220635Z AUTO 15009KT 10SM CLR 19/05 A3037 7430 39 9600 140/09 RMK AO2 T01890050
93073KASE ASE20160621234010906/21/16 23:40:31  5-MIN KASE 220640Z AUTO 15008KT 10SM CLR 19/05 A3036 7440 39 9600 140/08 RMK AO2 T01890050
93073KASE ASE20160621234510906/21/16 23:45:31  5-MIN KASE 220645Z AUTO 15007KT 10SM CLR 19/05 A3036 7440 39 9600 140/07 RMK AO2 T01890050
93073KASE ASE20160621235012606/21/16 23:50:31  5-MIN KASE 220650Z AUTO 13009KT 10SM CLR 18/05 A3036 7440 41 9500 130/09 RMK AO2 SLP124 T01830050 403280117
93073KASE ASE20160621235510906/21/16 23:55:31  5-MIN KASE 220655Z AUTO 13011KT 10SM CLR 18/05 A3036 7440 41 9500 120/11 RMK AO2 T01830050
93073KASE ASE20160622000010906/22/16 00:00:31  5-MIN KASE 220700Z AUTO 13011KT 10SM CLR 18/05 A3035 7440 42 9500 120/11 RMK AO2 T01780050
93073KASE ASE20160622000510906/22/16 00:05:31  5-MIN KASE 220705Z AUTO 13011KT 10SM CLR 18/05 A3036 7440 41 9500 120/11 RMK AO2 T01830050
93073KASE ASE20160622001010906/22/16 00:10:31  5-MIN KASE 220710Z AUTO 14010KT 10SM CLR 18/05 A3035 7440 42 9500 130/10 RMK AO2 T01780050
93073KASE ASE20160622001511506/22/16 00:15:31  5-MIN KASE 220715Z AUTO 14012G17KT 10SM CLR 18/05 A3035 7450 41 9500 130/12G17 RMK AO2 T01830050
93073KASE ASE20160622002011506/22/16 00:20:31  5-MIN KASE 220720Z AUTO 14011G17KT 10SM CLR 18/04 A3035 7450 39 9500 130/11G17 RMK AO2 T01830044
93073KASE ASE20160622002510906/22/16 00:25:31  5-MIN KASE 220725Z AUTO 14012KT 10SM CLR 18/04 A3035 7450 41 9500 130/12 RMK AO2 T01780044
93073KASE ASE20160622003010906/22/16 00:30:31  5-MIN KASE 220730Z AUTO 14009KT 10SM CLR 18/04 A3035 7450 41 9500 130/09 RMK AO2 T01780044
93073KASE ASE20160622003510906/22/16 00:35:31  5-MIN KASE 220735Z AUTO 15009KT 10SM CLR 18/04 A3035 7450 41 9500 140/09 RMK AO2 T01780044
93073KASE ASE20160622004010906/22/16 00:40:31  5-MIN KASE 220740Z AUTO 17008KT 10SM CLR 18/04 A3035 7450 41 9500 160/08 RMK AO2 T01780044
93073KASE ASE20160622004510906/22/16 00:45:31  5-MIN KASE 220745Z AUTO 18008KT 10SM CLR 17/04 A3034 7450 42 9400 170/08 RMK AO2 T01720044
93073KASE ASE20160622005011606/22/16 00:50:31  5-MIN KASE 220750Z AUTO 17008KT 10SM CLR 17/04 A3034 7450 42 9400 160/08 RMK AO2 SLP117 T01720044
93073KASE ASE20160622005510906/22/16 00:55:31  5-MIN KASE 220755Z AUTO 16007KT 10SM CLR 17/04 A3034 7450 42 9400 150/07 RMK AO2 T01720044
93073KASE ASE20160622010010906/22/16 01:00:31  5-MIN KASE 220800Z AUTO 17008KT 10SM CLR 18/04 A3034 7450 41 9500 160/08 RMK AO2 T01780044
93073KASE ASE20160622010510906/22/16 01:05:31  5-MIN KASE 220805Z AUTO 17006KT 10SM CLR 17/04 A3034 7450 42 9400 160/06 RMK AO2 T01720044
93073KASE ASE20160622011010906/22/16 01:10:31  5-MIN KASE 220810Z AUTO 19007KT 10SM CLR 16/04 A3034 7460 45 9300 180/07 RMK AO2 T01610044
93073KASE ASE20160622011510906/22/16 01:15:31  5-MIN KASE 220815Z AUTO 20006KT 10SM CLR 16/04 A3034 7460 45 9300 190/06 RMK AO2 T01610044
93073KASE ASE20160622012010906/22/16 01:20:31  5-MIN KASE 220820Z AUTO 21007KT 10SM CLR 16/04 A3034 7460 47 9200 200/07 RMK AO2 T01560044
93073KASE ASE20160622012510906/22/16 01:25:31  5-MIN KASE 220825Z AUTO 21006KT 10SM CLR 15/04 A3034 7460 49 9200 200/06 RMK AO2 T01500044
93073KASE ASE20160622013010906/22/16 01:30:31  5-MIN KASE 220830Z AUTO 21007KT 10SM CLR 15/04 A3034 7460 49 9200 200/07 RMK AO2 T01500044
93073KASE ASE20160622013510906/22/16 01:35:31  5-MIN KASE 220835Z AUTO 21007KT 10SM CLR 15/04 A3033 7460 49 9200 200/07 RMK AO2 T01500044
93073KASE ASE20160622014010906/22/16 01:40:31  5-MIN KASE 220840Z AUTO 21008KT 10SM CLR 15/04 A3034 7460 49 9200 200/08 RMK AO2 T01500044
93073KASE ASE20160622014510906/22/16 01:45:31  5-MIN KASE 220845Z AUTO 18006KT 10SM CLR 15/04 A3034 7460 49 9200 170/06 RMK AO2 T01500044
93073KASE ASE20160622015012206/22/16 01:50:31  5-MIN KASE 220850Z AUTO 22009KT 10SM CLR 15/04 A3034 7460 49 9200 210/09 RMK AO2 SLP122 T01500044 50017
93073KASE ASE20160622015510906/22/16 01:55:31  5-MIN KASE 220855Z AUTO 20008KT 10SM CLR 14/04 A3034 7460 51 9100 190/08 RMK AO2 T01440044
93073KASE ASE20160622020010906/22/16 02:00:31  5-MIN KASE 220900Z AUTO 22009KT 10SM CLR 13/04 A3033 7460 54 9000 210/09 RMK AO2 T01330044
93073KASE ASE20160622020510906/22/16 02:05:31  5-MIN KASE 220905Z AUTO 22008KT 10SM CLR 13/04 A3033 7460 54 9000 210/08 RMK AO2 T01330044
93073KASE ASE20160622021010906/22/16 02:10:31  5-MIN KASE 220910Z AUTO 21007KT 10SM CLR 14/04 A3033 7460 52 9100 200/07 RMK AO2 T01390044
93073KASE ASE20160622021510906/22/16 02:15:31  5-MIN KASE 220915Z AUTO 22007KT 10SM CLR 14/04 A3033 7470 52 9100 210/07 RMK AO2 T01390044
93073KASE ASE20160622022010906/22/16 02:20:31  5-MIN KASE 220920Z AUTO 20005KT 10SM CLR 14/04 A3033 7470 50 9100 190/05 RMK AO2 T01390039
93073KASE ASE20160622022510906/22/16 02:25:31  5-MIN KASE 220925Z AUTO 22006KT 10SM CLR 14/04 A3033 7470 50 9100 220/06 RMK AO2 T01390039
93073KASE ASE20160622023010906/22/16 02:30:31  5-MIN KASE 220930Z AUTO 22005KT 10SM CLR 13/04 A3033 7470 54 9000 210/05 RMK AO2 T01330044
93073KASE ASE20160622023510906/22/16 02:35:31  5-MIN KASE 220935Z AUTO 20004KT 10SM CLR 14/04 A3033 7460 49 9100 190/04 RMK AO2 T01440039
93073KASE ASE20160622024010906/22/16 02:40:31  5-MIN KASE 220940Z AUTO 20006KT 10SM CLR 14/04 A3033 7470 50 9100 190/06 RMK AO2 T01390039
93073KASE ASE20160622024510906/22/16 02:45:31  5-MIN KASE 220945Z AUTO 21007KT 10SM CLR 14/04 A3033 7470 50 9100 200/07 RMK AO2 T01390039
93073KASE ASE20160622025011606/22/16 02:50:31  5-MIN KASE 220950Z AUTO 21006KT 10SM CLR 14/04 A3032 7470 50 9100 200/06 RMK AO2 SLP118 T01390039
93073KASE ASE20160622025510906/22/16 02:55:31  5-MIN KASE 220955Z AUTO 20007KT 10SM CLR 14/04 A3033 7470 50 9100 190/07 RMK AO2 T01390039
93073KASE ASE20160622030010906/22/16 03:00:31  5-MIN KASE 221000Z AUTO 20007KT 10SM CLR 13/04 A3032 7470 56 9000 200/07 RMK AO2 T01280044
93073KASE ASE20160622030510906/22/16 03:05:31  5-MIN KASE 221005Z AUTO 21007KT 10SM CLR 13/04 A3032 7470 56 9000 210/07 RMK AO2 T01280044
93073KASE ASE20160622031010906/22/16 03:10:31  5-MIN KASE 221010Z AUTO 21007KT 10SM CLR 13/04 A3032 7470 54 9000 210/07 RMK AO2 T01280039
93073KASE ASE20160622031510906/22/16 03:15:31  5-MIN KASE 221015Z AUTO 21008KT 10SM CLR 13/04 A3032 7470 52 9000 200/08 RMK AO2 T01330039
93073KASE ASE20160622032010906/22/16 03:20:31  5-MIN KASE 221020Z AUTO 21006KT 10SM CLR 13/04 A3032 7470 52 9000 200/06 RMK AO2 T01330039
93073KASE ASE20160622032510906/22/16 03:25:31  5-MIN KASE 221025Z AUTO 22006KT 10SM CLR 13/04 A3032 7470 52 9000 210/06 RMK AO2 T01330039
93073KASE ASE20160622033010906/22/16 03:30:31  5-MIN KASE 221030Z AUTO 21006KT 10SM CLR 13/04 A3032 7470 52 9000 200/06 RMK AO2 T01330039
93073KASE ASE20160622033510906/22/16 03:35:31  5-MIN KASE 221035Z AUTO 19005KT 10SM CLR 13/04 A3032 7470 52 9000 180/05 RMK AO2 T01330039
93073KASE ASE20160622034010906/22/16 03:40:31  5-MIN KASE 221040Z AUTO 18005KT 10SM CLR 12/04 A3032 7470 56 8900 180/05 RMK AO2 T01220039
93073KASE ASE20160622034510906/22/16 03:45:31  5-MIN KASE 221045Z AUTO 20004KT 10SM CLR 13/04 A3033 7470 54 8900 190/04 RMK AO2 T01280039
93073KASE ASE20160622035011606/22/16 03:50:31  5-MIN KASE 221050Z AUTO 21005KT 10SM CLR 13/04 A3033 7470 54 8900 200/05 RMK AO2 SLP127 T01280039
93073KASE ASE20160622035510906/22/16 03:55:31  5-MIN KASE 221055Z AUTO 21003KT 10SM CLR 13/04 A3033 7460 54 8900 200/03 RMK AO2 T01280039
93073KASE ASE20160622040010906/22/16 04:00:31  5-MIN KASE 221100Z AUTO 19004KT 10SM CLR 12/04 A3033 7460 58 8800 180/04 RMK AO2 T01170039
93073KASE ASE20160622040510906/22/16 04:05:31  5-MIN KASE 221105Z AUTO 21004KT 10SM CLR 11/04 A3033 7460 63 8800 200/04 RMK AO2 T01110044
93073KASE ASE20160622041010906/22/16 04:10:31  5-MIN KASE 221110Z AUTO 21004KT 10SM CLR 11/04 A3033 7460 63 8800 200/04 RMK AO2 T01110044
93073KASE ASE20160622041510906/22/16 04:15:31  5-MIN KASE 221115Z AUTO 21004KT 10SM CLR 11/04 A3033 7460 61 8800 200/04 RMK AO2 T01110039
93073KASE ASE20160622042010906/22/16 04:20:31  5-MIN KASE 221120Z AUTO 22007KT 10SM CLR 11/04 A3033 7460 61 8800 210/07 RMK AO2 T01110039
93073KASE ASE20160622042510906/22/16 04:25:31  5-MIN KASE 221125Z AUTO 21007KT 10SM CLR 12/04 A3034 7460 58 8800 200/07 RMK AO2 T01170039
93073KASE ASE20160622043010906/22/16 04:30:31  5-MIN KASE 221130Z AUTO 22005KT 10SM CLR 12/04 A3033 7460 56 8900 210/05 RMK AO2 T01220039
93073KASE ASE20160622043510906/22/16 04:35:31  5-MIN KASE 221135Z AUTO 20004KT 10SM CLR 12/04 A3034 7460 56 8900 190/04 RMK AO2 T01220039
93073KASE ASE20160622044010906/22/16 04:40:31  5-MIN KASE 221140Z AUTO 18005KT 10SM CLR 11/04 A3034 7460 61 8800 180/05 RMK AO2 T01110039
93073KASE ASE20160622044510906/22/16 04:45:31  5-MIN KASE 221145Z AUTO 20007KT 10SM CLR 11/04 A3034 7460 63 8700 190/07 RMK AO2 T01060039
93073KASE ASE20160622045013406/22/16 04:50:31  5-MIN KASE 221150Z AUTO 21007KT 10SM CLR 11/04 A3034 7460 63 8700 200/07 RMK AO2 SLP144 T01060039 10194 20100 56009
93073KASE ASE20160622045510906/22/16 04:55:31  5-MIN KASE 221155Z AUTO 21007KT 10SM CLR 12/04 A3034 7460 58 8800 200/07 RMK AO2 T01170039
93073KASE ASE20160622050010906/22/16 05:00:31  5-MIN KASE 221200Z AUTO 20006KT 10SM CLR 12/04 A3034 7460 58 8800 190/06 RMK AO2 T01170039
93073KASE ASE20160622050510906/22/16 05:05:31  5-MIN KASE 221205Z AUTO 21005KT 10SM CLR 11/04 A3034 7450 61 8700 200/05 RMK AO2 T01110039
93073KASE ASE20160622051010906/22/16 05:10:31  5-MIN KASE 221210Z AUTO 20005KT 10SM CLR 12/04 A3034 7450 58 8800 190/05 RMK AO2 T01170039
93073KASE ASE20160622051510906/22/16 05:15:31  5-MIN KASE 221215Z AUTO 20005KT 10SM CLR 11/04 A3034 7450 61 8700 190/05 RMK AO2 T01110039
93073KASE ASE20160622052010906/22/16 05:20:31  5-MIN KASE 221220Z AUTO 00000KT 10SM CLR 11/04 A3035 7450 66 8700 000/00 RMK AO2 T01060044
93073KASE ASE20160622052510906/22/16 05:25:31  5-MIN KASE 221225Z AUTO 20006KT 10SM CLR 10/04 A3035 7450 68 8600 200/06 RMK AO2 T01000044
93073KASE ASE20160622053010906/22/16 05:30:31  5-MIN KASE 221230Z AUTO 21006KT 10SM CLR 11/04 A3035 7450 63 8700 200/06 RMK AO2 T01110044
93073KASE ASE20160622053510906/22/16 05:35:31  5-MIN KASE 221235Z AUTO 19005KT 10SM CLR 12/04 A3035 7450 56 8900 180/05 RMK AO2 T01220039
93073KASE ASE20160622054010906/22/16 05:40:31  5-MIN KASE 221240Z AUTO 18004KT 10SM CLR 12/04 A3035 7450 59 8900 170/04 RMK AO2 T01220044
93073KASE ASE20160622054510906/22/16 05:45:31  5-MIN KASE 221245Z AUTO 00000KT 10SM CLR 12/05 A3035 7450 61 8900 000/00 RMK AO2 T01220050
93073KASE ASE20160622055011106/22/16 05:50:31  5-MIN KASE 221250Z 00000KT 10SM CLR 12/05 A3035 7450 61 8900 000/00 RMK AO2 SLP151 T01220050
93073KASE ASE20160622055511606/22/16 05:55:31  5-MIN KASE 221255Z 00000KT 10SM CLR 13/05 A3035 7440 59 8900 000/00 RMK AO2 RAE55 P0000 T01280050
93073KASE ASE20160622060011806/22/16 06:00:31  5-MIN KASE 221300Z 00000KT 10SM CLR 14/05 A3035 7450 55 9000 000/00 RMK AO2 RAE1255 P0000 T01390050
93073KASE ASE20160622060511806/22/16 06:05:31  5-MIN KASE 221305Z 00000KT 10SM CLR 14/05 A3035 7440 55 9000 000/00 RMK AO2 RAE1255 P0000 T01390050
93073KASE ASE20160622061011806/22/16 06:10:31  5-MIN KASE 221310Z 00000KT 10SM CLR 14/05 A3035 7440 53 9100 000/00 RMK AO2 RAE1255 P0000 T01440050
93073KASE ASE20160622061511806/22/16 06:15:31  5-MIN KASE 221315Z 00000KT 10SM CLR 14/06 A3035 7440 55 9100 000/00 RMK AO2 RAE1255 P0000 T01440056
93073KASE ASE20160622062011806/22/16 06:20:31  5-MIN KASE 221320Z 00000KT 10SM CLR 14/05 A3035 7440 53 9100 000/00 RMK AO2 RAE1255 P0000 T01440050
93073KASE ASE20160622062511806/22/16 06:25:31  5-MIN KASE 221325Z 18003KT 10SM CLR 14/05 A3035 7450 53 9100 170/03 RMK AO2 RAE1255 P0000 T01440050
93073KASE ASE20160622063011806/22/16 06:30:31  5-MIN KASE 221330Z 22003KT 10SM CLR 14/07 A3035 7450 59 9100 210/03 RMK AO2 RAE1255 P0000 T01440067
93073KASE ASE20160622063511806/22/16 06:35:31  5-MIN KASE 221335Z 21003KT 10SM CLR 14/07 A3035 7450 59 9100 200/03 RMK AO2 RAE1255 P0000 T01440067
93073KASE ASE20160622064011806/22/16 06:40:31  5-MIN KASE 221340Z 22004KT 10SM CLR 15/07 A3035 7450 57 9200 210/04 RMK AO2 RAE1255 P0000 T01500067
93073KASE ASE20160622064511806/22/16 06:45:31  5-MIN KASE 221345Z VRB03KT 10SM CLR 16/06 A3035 7450 51 9200 VRB/03 RMK AO2 RAE1255 P0000 T01560056
93073KASE ASE20160622065012506/22/16 06:50:31  5-MIN KASE 221350Z 13003KT 10SM CLR 16/06 A3034 7450 51 9200 120/03 RMK AO2 RAE1255 SLP141 P0000 T01560056
93073KASE ASE20160622065510406/22/16 06:55:31  5-MIN KASE 221355Z 00000KT 10SM CLR 16/06 A3035 7450 49 9300 000/00 RMK AO2 T01610056
93073KASE ASE20160622070010406/22/16 07:00:31  5-MIN KASE 221400Z 00000KT 10SM CLR 16/06 A3035 7450 49 9300 000/00 RMK AO2 T01610056
93073KASE ASE20160622070510406/22/16 07:05:31  5-MIN KASE 221405Z 00000KT 10SM CLR 17/06 A3034 7450 47 9400 000/00 RMK AO2 T01670056
93073KASE ASE20160622071010406/22/16 07:10:31  5-MIN KASE 221410Z 00000KT 10SM CLR 17/06 A3034 7450 47 9400 000/00 RMK AO2 T01670056
93073KASE ASE20160622071510406/22/16 07:15:31  5-MIN KASE 221415Z 00000KT 10SM CLR 17/06 A3034 7450 46 9400 000/00 RMK AO2 T01720056
93073KASE ASE20160622072010406/22/16 07:20:31  5-MIN KASE 221420Z 00000KT 10SM CLR 17/05 A3034 7460 44 9400 000/00 RMK AO2 T01720050
93073KASE ASE20160622072510406/22/16 07:25:31  5-MIN KASE 221425Z 00000KT 10SM CLR 17/05 A3034 7460 44 9400 000/00 RMK AO2 T01720050
93073KASE ASE20160622073010406/22/16 07:30:31  5-MIN KASE 221430Z 00000KT 10SM CLR 18/05 A3034 7460 42 9500 000/00 RMK AO2 T01780050
93073KASE ASE20160622073510406/22/16 07:35:31  5-MIN KASE 221435Z 00000KT 10SM CLR 18/06 A3034 7460 42 9600 000/00 RMK AO2 T01830056
93073KASE ASE20160622074010406/22/16 07:40:31  5-MIN KASE 221440Z 00000KT 10SM CLR 18/06 A3034 7460 44 9600 000/00 RMK AO2 T01830061
93073KASE ASE20160622074510406/22/16 07:45:31  5-MIN KASE 221445Z 06003KT 10SM CLR 18/06 A3034 7460 44 9600 050/03 RMK AO2 T01830061
93073KASE ASE20160622075012306/22/16 07:50:31  5-MIN KASE 221450Z 00000KT 10SM CLR 18/06 A3033 7460 44 9600 000/00 RMK AO2 SLP134 60000 T01830061 53000
93073KASE ASE20160622075510406/22/16 07:55:31  5-MIN KASE 221455Z 00000KT 10SM CLR 19/07 A3034 7460 44 9600 000/00 RMK AO2 T01890067
93073KASE ASE20160622080010406/22/16 08:00:31  5-MIN KASE 221500Z 00000KT 10SM CLR 19/07 A3034 7460 43 9700 000/00 RMK AO2 T01940067
93073KASE ASE20160622080510406/22/16 08:05:31  5-MIN KASE 221505Z 00000KT 10SM CLR 20/07 A3033 7460 41 9700 000/00 RMK AO2 T02000067
93073KASE ASE20160622081010406/22/16 08:10:31  5-MIN KASE 221510Z 00000KT 10SM CLR 20/07 A3033 7460 43 9700 000/00 RMK AO2 T02000072
93073KASE ASE20160622081510406/22/16 08:15:31  5-MIN KASE 221515Z 00000KT 10SM CLR 21/07 A3033 7460 41 9800 000/00 RMK AO2 T02060072
93073KASE ASE20160622082010406/22/16 08:20:31  5-MIN KASE 221520Z 35004KT 10SM CLR 20/07 A3033 7460 43 9700 340/04 RMK AO2 T02000072
93073KASE ASE20160622082510406/22/16 08:25:31  5-MIN KASE 221525Z 34004KT 10SM CLR 20/07 A3033 7460 43 9700 330/04 RMK AO2 T02000072
93073KASE ASE20160622083010406/22/16 08:30:31  5-MIN KASE 221530Z 34004KT 10SM CLR 20/07 A3033 7460 43 9700 330/04 RMK AO2 T02000072
93073KASE ASE20160622083510406/22/16 08:35:31  5-MIN KASE 221535Z 34003KT 10SM CLR 21/07 A3033 7460 40 9800 330/03 RMK AO2 T02060067
93073KASE ASE20160622084010406/22/16 08:40:31  5-MIN KASE 221540Z 36004KT 10SM CLR 21/07 A3033 7460 41 9800 350/04 RMK AO2 T02060072
93073KASE ASE20160622084510406/22/16 08:45:31  5-MIN KASE 221545Z 34003KT 10SM CLR 21/07 A3033 7460 41 9800 330/03 RMK AO2 T02060072
93073KASE ASE20160622085011106/22/16 08:50:31  5-MIN KASE 221550Z 00000KT 10SM CLR 21/07 A3033 7460 41 9800 000/00 RMK AO2 SLP130 T02060072
93073KASE ASE20160622085510406/22/16 08:55:31  5-MIN KASE 221555Z 00000KT 10SM CLR 21/07 A3033 7460 41 9800 000/00 RMK AO2 T02060072
93073KASE ASE20160622090010406/22/16 09:00:31  5-MIN KASE 221600Z 00000KT 10SM CLR 21/07 A3033 7460 40 9800 000/00 RMK AO2 T02060067
93073KASE ASE20160622090510406/22/16 09:05:31  5-MIN KASE 221605Z 22003KT 10SM CLR 21/07 A3033 7470 38 9900 210/03 RMK AO2 T02110067
93073KASE ASE20160622091010406/22/16 09:10:31  5-MIN KASE 221610Z 21003KT 10SM CLR 21/08 A3033 7470 42 9900 200/03 RMK AO2 T02110078
93073KASE ASE20160622091510406/22/16 09:15:31  5-MIN KASE 221615Z 00000KT 10SM CLR 21/08 A3033 7470 43 9900 000/00 RMK AO2 T02110083
93073KASE ASE20160622092010506/22/16 09:20:31  5-MIN KASE 221620Z 00000KT 10SM CLR 22/08 A3033 7470 40 10000 000/00 RMK AO2 T02220083
93073KASE ASE20160622092510506/22/16 09:25:31  5-MIN KASE 221625Z 19003KT 10SM CLR 23/08 A3033 7470 39 10000 180/03 RMK AO2 T02280083
93073KASE ASE20160622093010506/22/16 09:30:31  5-MIN KASE 221630Z 00000KT 10SM CLR 22/08 A3033 7470 39 10000 000/00 RMK AO2 T02220078
93073KASE ASE20160622093510506/22/16 09:35:31  5-MIN KASE 221635Z VRB03KT 10SM CLR 23/07 A3033 7470 35 10100 VRB/03 RMK AO2 T02330072
93073KASE ASE20160622094010506/22/16 09:40:31  5-MIN KASE 221640Z 13004KT 10SM CLR 23/07 A3032 7470 35 10100 120/04 RMK AO2 T02330072
93073KASE ASE20160622094510506/22/16 09:45:31  5-MIN KASE 221645Z VRB03KT 10SM CLR 24/07 A3032 7470 34 10200 VRB/03 RMK AO2 T02390072
93073KASE ASE20160622095011206/22/16 09:50:31  5-MIN KASE 221650Z VRB03KT 10SM CLR 24/07 A3032 7470 34 10200 VRB/03 RMK AO2 SLP123 T02390072
93073KASE ASE20160622095510506/22/16 09:55:31  5-MIN KASE 221655Z VRB03KT 10SM CLR 24/07 A3032 7470 33 10200 VRB/03 RMK AO2 T02440072
93073KASE ASE20160622100010506/22/16 10:00:31  5-MIN KASE 221700Z 00000KT 10SM CLR 25/07 A3032 7470 31 10300 000/00 RMK AO2 T02500072
93073KASE ASE20160622100510506/22/16 10:05:31  5-MIN KASE 221705Z VRB03KT 10SM CLR 26/07 A3032 7470 30 10400 VRB/03 RMK AO2 T02560072
93073KASE ASE20160622101010506/22/16 10:10:31  5-MIN KASE 221710Z 04005KT 10SM CLR 26/07 A3032 7480 29 10400 030/05 RMK AO2 T02610072
93073KASE ASE20160622101510506/22/16 10:15:31  5-MIN KASE 221715Z 04004KT 10SM CLR 26/08 A3032 7480 32 10400 030/04 RMK AO2 T02560078
93073KASE ASE20160622102010506/22/16 10:20:31  5-MIN KASE 221720Z VRB04KT 10SM CLR 26/08 A3032 7480 31 10400 VRB/04 RMK AO2 T02610078
93073KASE ASE20160622102510506/22/16 10:25:31  5-MIN KASE 221725Z 01006KT 10SM CLR 26/08 A3031 7480 31 10400 360/06 RMK AO2 T02610078
93073KASE ASE20160622103010506/22/16 10:30:31  5-MIN KASE 221730Z 33003KT 10SM CLR 27/07 A3031 7480 28 10500 320/03 RMK AO2 T02670072
93073KASE ASE20160622103510506/22/16 10:35:31  5-MIN KASE 221735Z 36003KT 10SM CLR 27/08 A3031 7480 29 10500 350/03 RMK AO2 T02670078
93073KASE ASE20160622104010506/22/16 10:40:31  5-MIN KASE 221740Z VRB04KT 10SM CLR 27/08 A3031 7480 29 10500 VRB/04 RMK AO2 T02670078
93073KASE ASE20160622104510506/22/16 10:45:31  5-MIN KASE 221745Z VRB04KT 10SM CLR 27/08 A3031 7480 30 10500 VRB/04 RMK AO2 T02720083
93073KASE ASE20160622105013606/22/16 10:50:31  5-MIN KASE 221750Z VRB04KT 10SM CLR 27/08 A3031 7490 31 10500 VRB/04 RMK AO2 SLP112 60000 T02670083 10272 20100 58001
93073KASE ASE20160622105510506/22/16 10:55:31  5-MIN KASE 221755Z 34005KT 10SM CLR 28/08 A3030 7490 29 10600 330/05 RMK AO2 T02780083
93073KASE ASE20160622110010506/22/16 11:00:31  5-MIN KASE 221800Z 36005KT 10SM CLR 27/07 A3030 7490 27 10500 350/05 RMK AO2 T02720072
93073KASE ASE20160622110510506/22/16 11:05:31  5-MIN KASE 221805Z 00000KT 10SM CLR 27/06 A3030 7490 24 10500 000/00 RMK AO2 T02720056
93073KASE ASE20160622111010506/22/16 11:10:31  5-MIN KASE 221810Z 02003KT 10SM CLR 27/05 A3030 7490 24 10500 010/03 RMK AO2 T02720050
93073KASE ASE20160622111510506/22/16 11:15:31  5-MIN KASE 221815Z 00000KT 10SM CLR 27/04 A3030 7490 23 10500 000/00 RMK AO2 T02720044
93073KASE ASE20160622112010506/22/16 11:20:31  5-MIN KASE 221820Z 21005KT 10SM CLR 26/09 A3030 7490 34 10400 200/05 RMK AO2 T02560089
93073KASE ASE20160622112510506/22/16 11:25:31  5-MIN KASE 221825Z 22004KT 10SM CLR 26/09 A3030 7490 35 10400 210/04 RMK AO2 T02560094
93073KASE ASE20160622113010506/22/16 11:30:31  5-MIN KASE 221830Z 00000KT 10SM CLR 26/09 A3030 7490 34 10400 000/00 RMK AO2 T02610094
93073KASE ASE20160622113510506/22/16 11:35:31  5-MIN KASE 221835Z 00000KT 10SM CLR 27/07 A3030 7490 28 10500 000/00 RMK AO2 T02670072
93073KASE ASE20160622114010506/22/16 11:40:31  5-MIN KASE 221840Z VRB03KT 10SM CLR 28/07 A3030 7500 27 10600 VRB/03 RMK AO2 T02780072
93073KASE ASE20160622114510506/22/16 11:45:31  5-MIN KASE 221845Z VRB03KT 10SM CLR 28/03 A3030 7490 20 10600 VRB/03 RMK AO2 T02780033
93073KASE ASE20160622115011206/22/16 11:50:31  5-MIN KASE 221850Z 33003KT 10SM CLR 28/02 A3029 7500 19 10600 320/03 RMK AO2 SLP106 T02780022
93073KASE ASE20160622115510506/22/16 11:55:31  5-MIN KASE 221855Z 34005KT 10SM CLR 29/03 A3029 7500 18 10800 330/05 RMK AO2 T02940028
93073KASE ASE20160622120010506/22/16 12:00:31  5-MIN KASE 221900Z VRB04KT 10SM CLR 29/02 A3029 7500 17 10700 VRB/04 RMK AO2 T02890022
93073KASE ASE20160622120510506/22/16 12:05:31  5-MIN KASE 221905Z 34006KT 10SM CLR 28/02 A3029 7500 18 10700 330/06 RMK AO2 T02830022
93073KASE ASE20160622121010506/22/16 12:10:31  5-MIN KASE 221910Z VRB05KT 10SM CLR 29/03 A3029 7500 18 10700 VRB/05 RMK AO2 T02890028
93073KASE ASE20160622121511606/22/16 12:15:31  5-MIN KASE 221915Z VRB03KT 10SM CLR 29/03 A3029 7500 18 10700 VRB/03 RMK AO2 LTG DSNT E T02890028
93073KASE ASE20160622122012206/22/16 12:20:31  5-MIN KASE 221920Z VRB04KT 8SM CLR 28/03 A3029 7500 20 10700 VRB/04 RMK AO2 LTG DSNT NE AND E T02830033
93073KASE ASE20160622122512506/22/16 12:25:31  5-MIN KASE 221925Z 35005KT 8SM FEW110 28/04 A3029 7500 20 10700 340/05 RMK AO2 LTG DSNT NE AND E T02830039
93073KASE ASE20160622123013306/22/16 12:30:31  5-MIN KASE 221930Z 33003KT 10SM FEW090 SCT110 28/03 A3028 7510 19 10600 320/03 RMK AO2 LTG DSNT NE AND E T02780028
93073KASE ASE20160622123513106/22/16 12:35:31  5-MIN KASE 221935Z VRB06KT 10SM -RA FEW090 BKN110 28/04 A3028 7510 21 10600 VRB/06 RMK AO2 RAB32 P0000 T02780039
93073KASE ASE20160622124013106/22/16 12:40:31  5-MIN KASE 221940Z 27007KT 10SM -RA FEW090 BKN110 27/04 A3028 7510 23 10600 260/07 RMK AO2 RAB32 P0000 T02720044
93073KASE ASE20160622124517206/22/16 12:45:31  5-MIN KASE 221945Z 26019G28KT 10SM FEW033 SCT090 BKN110 28/04 A3028 7510 21 10600 250/19G28 RMK AO2 PK WND 26028/1944 LTG DSNT E RAB32E41 P0000 T02780039
93073KASE ASE20160622125017906/22/16 12:50:31  5-MIN KASE 221950Z VRB04G28KT 10SM FEW033 SCT090 BKN110 27/01 A3028 7510 17 10600 VRB/04G28 RMK AO2 PK WND 26028/1944 LTG DSNT E RAB32E41 SLP106 P0000 T02720006
93073KASE ASE20160622125512606/22/16 12:55:31  5-MIN KASE 221955Z 00000KT 10SM FEW090 SCT110 28/01 A3028 7510 17 10700 000/00 RMK AO2 LTG DSNT E T02830011
93073KASE ASE20160622130012606/22/16 13:00:31  5-MIN KASE 222000Z VRB05KT 10SM FEW090 SCT110 29/00 A3029 7500 15 10700 VRB/05 RMK AO2 LTG DSNT E T02890000
93073KASE ASE20160622130511406/22/16 13:05:31  5-MIN KASE 222005Z 15009G18KT 10SM FEW100 28/04 A3028 7510 21 10600 140/09G18 RMK AO2 T02780039
93073KASE ASE20160622131011106/22/16 13:10:31  5-MIN KASE 222010Z 14010G18KT 10SM CLR 27/04 A3028 7510 22 10600 130/10G18 RMK AO2 T02720039
93073KASE ASE20160622131510506/22/16 13:15:31  5-MIN KASE 222015Z 13010KT 10SM CLR 27/04 A3027 7520 23 10500 120/10 RMK AO2 T02670044
93073KASE ASE20160622132010506/22/16 13:20:31  5-MIN KASE 222020Z 14007KT 10SM CLR 26/05 A3027 7520 25 10500 130/07 RMK AO2 T02610050
93073KASE ASE20160622132510506/22/16 13:25:31  5-MIN KASE 222025Z 14007KT 10SM CLR 26/04 A3027 7520 24 10500 130/07 RMK AO2 T02610044
93073KASE ASE20160622133010506/22/16 13:30:31  5-MIN KASE 222030Z 15008KT 10SM CLR 26/04 A3027 7520 24 10500 140/08 RMK AO2 T02610044
93073KASE ASE20160622133510506/22/16 13:35:31  5-MIN KASE 222035Z 18007KT 10SM CLR 26/05 A3027 7520 25 10500 170/07 RMK AO2 T02610050
93073KASE ASE20160622134012006/22/16 13:40:31  5-MIN KASE 222040Z 18008KT 10SM FEW110 26/07 A3027 7520 29 10400 170/08 RMK AO2 LTG DSNT NE T02560067
93073KASE ASE20160622134512006/22/16 13:45:31  5-MIN KASE 222045Z 17009KT 10SM FEW110 27/07 A3027 7520 27 10500 160/09 RMK AO2 LTG DSNT NE T02670067
93073KASE ASE20160622135013906/22/16 13:50:31  5-MIN KASE 222050Z 15009KT 10SM BKN110 26/07 A3026 7530 29 10500 140/09 RMK AO2 LTG DSNT NE SLP108 60000 T02610072 58009
93073KASE ASE20160622135511706/22/16 13:55:31  5-MIN KASE 222055Z 15010KT 10SM CLR 26/07 A3026 7520 28 10500 150/10 RMK AO2 LTG DSNT NE T02610067
93073KASE ASE20160622140010506/22/16 14:00:31  5-MIN KASE 222100Z 15009KT 10SM CLR 26/08 A3026 7520 31 10500 140/09 RMK AO2 T02610078
93073KASE ASE20160622140510506/22/16 14:05:31  5-MIN KASE 222105Z 17012KT 10SM CLR 26/08 A3026 7530 32 10500 160/12 RMK AO2 T02610083
93073KASE ASE20160622141010506/22/16 14:10:31  5-MIN KASE 222110Z 14012KT 10SM CLR 26/08 A3026 7530 31 10500 130/12 RMK AO2 T02610078
93073KASE ASE20160622141510506/22/16 14:15:31  5-MIN KASE 222115Z 14009KT 10SM CLR 26/08 A3026 7530 31 10500 130/09 RMK AO2 T02610078
93073KASE ASE20160622142011606/22/16 14:20:31  5-MIN KASE 222120Z 14009KT 10SM CLR 26/09 A3026 7530 34 10400 130/09 RMK AO2 LTG DSNT S T02560089
93073KASE ASE20160622142511606/22/16 14:25:31  5-MIN KASE 222125Z 13009KT 10SM CLR 26/08 A3026 7530 31 10500 130/09 RMK AO2 LTG DSNT S T02610078
93073KASE ASE20160622143011606/22/16 14:30:31  5-MIN KASE 222130Z 13010KT 10SM CLR 27/07 A3026 7530 28 10500 120/10 RMK AO2 LTG DSNT S T02670072
93073KASE ASE20160622143511606/22/16 14:35:31  5-MIN KASE 222135Z 12010KT 10SM CLR 27/07 A3026 7530 27 10500 110/10 RMK AO2 LTG DSNT S T02670067
93073KASE ASE20160622144011606/22/16 14:40:31  5-MIN KASE 222140Z 13011KT 10SM CLR 27/07 A3025 7530 27 10500 120/11 RMK AO2 LTG DSNT S T02670067
93073KASE ASE20160622144511706/22/16 14:45:31  5-MIN KASE 222145Z 13008KT 10SM CLR 27/07 A3025 7530 27 10500 120/08 RMK AO2 LTG DSNT SW T02670067
93073KASE ASE20160622145013106/22/16 14:50:31  5-MIN KASE 222150Z 13009KT 10SM CLR 27/06 A3025 7540 26 10500 120/09 RMK AO2 LTG DSNT SE AND SW SLP104 T02670061
93073KASE ASE20160622145511906/22/16 14:55:31  5-MIN KASE 222155Z 14009KT 10SM CLR 27/06 A3025 7540 25 10500 130/09 RMK AO2 LTG DSNT SE-W T02670056
93073KASE ASE20160622150011906/22/16 15:00:31  5-MIN KASE 222200Z 15008KT 10SM CLR 27/06 A3025 7540 24 10600 140/08 RMK AO2 LTG DSNT SE-W T02720056
93073KASE ASE20160622150512306/22/16 15:05:31  5-MIN KASE 222205Z 14009KT 10SM CLR 27/05 A3024 7540 24 10600 130/09 RMK AO2 LTG DSNT SW AND W T02670050
93073KASE ASE20160622151012806/22/16 15:10:31  5-MIN KASE 222210Z 14009KT 10SM VCTS CLR 27/06 A3024 7540 25 10600 130/09 RMK AO2 LTG DSNT SW AND W T02670056
93073KASE ASE20160622151513106/22/16 15:15:31  5-MIN KASE 222215Z 14009KT 10SM VCTS FEW110 27/07 A3025 7540 27 10500 130/09 RMK AO2 LTG DSNT SW AND W T02670067
93073KASE ASE20160622152012806/22/16 15:20:31  5-MIN KASE 222220Z 14010KT 10SM VCTS SCT090 27/07 A3025 7540 28 10500 130/10 RMK AO2 LTG DSNT SW-NW T02670072
93073KASE ASE20160622152512906/22/16 15:25:31  5-MIN KASE 222225Z 15013G19KT 10SM SCT090 27/08 A3025 7530 29 10500 140/13G19 RMK AO2 LTG DSNT SW-NW T02670078
93073KASE ASE20160622153015106/22/16 15:30:31  5-MIN KASE 222230Z 16021G26KT 10SM BKN090 27/03 A3026 7530 22 10500 150/21G26 RMK AO2 PK WND 15026/2228 LTG DSNT SW AND NW T02670033
93073KASE ASE20160622153514706/22/16 15:35:31  5-MIN KASE 222235Z 16019G26KT 10SM BKN090 26/03 A3025 7540 22 10500 150/19G26 RMK AO2 PK WND 16026/2232 LTG DSNT SW-NW T02610033
93073KASE ASE20160622154014706/22/16 15:40:31  5-MIN KASE 222240Z 17022G29KT 10SM BKN090 26/04 A3025 7540 24 10400 160/22G29 RMK AO2 PK WND 18029/2238 LTG DSNT SW-NW T02560039
93073KASE ASE20160622154515506/22/16 15:45:31  5-MIN KASE 222245Z 17017G29KT 10SM VCTS BKN090 25/04 A3026 7530 25 10400 170/17G29 RMK AO2 PK WND 17029/2241 LTG DSNT W AND NW T02500039
93073KASE ASE20160622155014506/22/16 15:50:31  5-MIN KASE 222250Z 17019G29KT 10SM VCTS BKN090 24/04 A3027 7520 27 10300 160/19G29 RMK AO2 PK WND 17029/2241 LTG DSNT W AND NW
93073KASE ASE20160622155515106/22/16 15:55:31  5-MIN KASE 222255Z 16015G24KT 10SM VCTS FEW080 OVC100 24/04 A3028 7510 27 10300 150/15G24 RMK AO2 LTG DSNT W AND NW PRESRR T02440044
93073KASE ASE20160622160015306/22/16 16:00:31  5-MIN KASE 222300Z 13010KT 10SM TS FEW070 BKN095 OVC110 24/05 A3029 7500 29 10200 120/10 RMK AO2 LTG DSNT W-N TSB2256 PRESRR T02390050
93073KASE ASE20160622160515306/22/16 16:05:31  5-MIN KASE 222305Z 12012KT 10SM TS SCT075 BKN085 OVC110 22/07 A3029 7500 37 10000 110/12 RMK AO2 LTG DSNT W-N TSB2256 PRESRR T02170067
93073KASE ASE20160622161013906/22/16 16:10:31  5-MIN KASE 222310Z 13012KT 10SM TS SCT080 OVC100 22/06 A3029 7500 36 10000 120/12 RMK AO2 LTG DSNT W-N TSB2256 T02170061
93073KASE ASE20160622161516806/22/16 16:15:31  5-MIN KASE 222315Z 14007KT 110V170 10SM VCTS SCT080 OVC100 22/06 A3031 7480 33 10000 130/07 100V160 RMK AO2 LTG DSNT SW-N TSB2256E11 PRESRR T02220056
93073KASE ASE20160622162015206/22/16 16:20:31  5-MIN KASE 222320Z VRB04KT 10SM VCTS SCT075 OVC100 22/06 A3034 7460 33 10000 VRB/04 RMK AO2 LTG DSNT SW-N TSB2256E11 PRESRR T02220056
93073KASE ASE20160622162515606/22/16 16:25:31  5-MIN KASE 222325Z 8SM -TSRA SCT080 OVC100 21/07 A3037 7430 38 9800 M /M RMK AO2 LTG DSNT SW-N RAB23 TSB2256E11B25 PRESRR P0001 T02110067
93073KASE ASE20160622163019606/22/16 16:30:31  5-MIN KASE 222330Z 33028G37KT 4SM TSRA FEW036 SCT080 OVC100 18/07 A3038 7420 48 9500 320/28G37 RMK AO2 PK WND 32037/2329 LTG DSNT SW-N RAB23 TSB2256E11B25 PRESRR P0007 T01830072
93073KASE ASE20160622163519806/22/16 16:35:31  5-MIN KASE 222335Z 33017G37KT 3SM +TSRA SCT042 SCT065 OVC095 16/08 A3041 7390 59 9200 320/17G37 RMK AO2 PK WND 32037/2329 LTG DSNT ALQDS RAB23 TSB2256E11B25 PRESRR P0015 T01560078
93073KASE ASE20160622164019706/22/16 16:40:31  5-MIN KASE 222340Z 34016G35KT 3SM VCTS +RA SCT046 BKN070 OVC100 16/09 A3042 7380 64 9200 330/16G35 RMK AO2 PK WND 32037/2329 LTG DSNT ALQDS RAB23 TSB2256E11B25E40 P0020 T01560089
93073KASE ASE20160622164520706/22/16 16:45:31  5-MIN KASE 222345Z 01014G28KT 3SM VCTS +RA SCT050 BKN070 OVC090 14/10 A3043 7380 74 9000 360/14G28 RMK AO2 PK WND 32037/2329 LTG DSNT N AND NE AND SW RAB23 TSB2256E11B25E40 P0023 T01440100
93073KASE ASE20160622165023106/22/16 16:50:31  5-MIN KASE 222350Z 04013G23KT 3SM VCTS RA SCT050 BKN065 OVC075 14/10 A3043 7370 77 9000 030/13G23 RMK AO2 PK WND 32037/2329 LTG DSNT NE AND NW RAB23 TSB2256E11B25E40 SLP210 P0024 60024 T01390100 10294 20139 58012
93073KASE ASE20160622165516006/22/16 16:55:31  5-MIN KASE 222355Z 01010G19KT 5SM VCTS -RA BKN055 OVC075 14/10 A3044 7370 77 9000 360/10G19 RMK AO2 WSHFT 2340 LTG DSNT NW-NE P0000 T01390100
93073KASE ASE20160622170015906/22/16 17:00:31  5-MIN KASE 230000Z 01009G19KT 7SM VCTS -RA BKN060 OVC070 14/10 A3044 7370 77 8900 360/09G19 RMK AO2 WSHFT 2340 LTG DSNT NW-E P0001 T01390100
93073KASE ASE20160622170515206/22/16 17:05:31  5-MIN KASE 230005Z 03008KT 8SM VCTS -RA BKN065 OVC075 14/10 A3044 7360 74 9000 020/08 RMK AO2 WSHFT 2340 LTG DSNT N-E P0001 T01440100
93073KASE ASE20160622171014506/22/16 17:10:31  5-MIN KASE 230010Z 03010G17KT 5SM RA OVC065 14/10 A3045 7360 74 9000 020/10G17 RMK AO2 WSHFT 2340 LTG DSNT N-E P0002 T01440100
93073KASE ASE20160622171517306/22/16 17:15:31  5-MIN KASE 230015Z 01008G17KT 330V040 5SM RA BKN065 OVC075 14/10 A3045 7350 74 9000 360/08G17 320V030 RMK AO2 WSHFT 2340 LTG DSNT NE AND E P0003 T01440100
93073KASE ASE20160622172014506/22/16 17:20:31  5-MIN KASE 230020Z 34007KT 5SM -RA OVC070 14/11 A3046 7350 80 8900 330/07 RMK AO2 WSHFT 2340 LTG DSNT NE AND E P0004 T01390106
93073KASE ASE20160622172514506/22/16 17:25:31  5-MIN KASE 230025Z 36008KT 8SM -RA OVC070 14/11 A3046 7340 83 8900 350/08 RMK AO2 WSHFT 2340 LTG DSNT NE AND E P0004 T01390111
93073KASE ASE20160622173014506/22/16 17:30:31  5-MIN KASE 230030Z 00000KT 8SM -RA OVC070 14/11 A3047 7340 77 9000 000/00 RMK AO2 WSHFT 2340 LTG DSNT NE AND E P0005 T01440106
93073KASE ASE20160622173514506/22/16 17:35:31  5-MIN KASE 230035Z 30003KT 5SM -RA OVC070 14/11 A3047 7340 80 8900 290/03 RMK AO2 WSHFT 2340 LTG DSNT NE AND E P0006 T01390106
93073KASE ASE20160622174014406/22/16 17:40:31  5-MIN KASE 230040Z 25004KT 4SM RA OVC070 14/11 A3047 7340 77 9000 240/04 RMK AO2 WSHFT 2340 LTG DSNT NE AND E P0007 T01440106
93073KASE ASE20160622174514406/22/16 17:45:31  5-MIN KASE 230045Z 12008KT 3SM RA SCT050 OVC070 14/11 A3046 7350 80 9000 110/08 RMK AO2 WSHFT 2340 LTG DSNT E P0010 T01440111
93073KASE ASE20160622175014406/22/16 17:50:31  5-MIN KASE 230050Z 12007KT 4SM -RA BR FEW050 OVC070 14/12 A3046 7350 86 8900 120/07 RMK AO2 WSHFT 2340 SLP214 P0010 T01390117
93073KASE ASE20160622175513006/22/16 17:55:31  5-MIN KASE 230055Z 16008KT 8SM -RA FEW055 BKN070 OVC090 14/12 A3045 7350 86 8900 150/08 RMK AO2 P0000 T01390117
93073KASE ASE20160622180013106/22/16 18:00:31  5-MIN KASE 230100Z 17008KT 10SM -RA FEW055 SCT070 OVC085 14/11 A3045 7360 80 9000 160/08 RMK AO2 P0001 T01440111
93073KASE ASE20160622180513106/22/16 18:05:31  5-MIN KASE 230105Z 15005KT 10SM -RA FEW050 BKN080 OVC095 14/12 A3044 7360 83 9000 140/05 RMK AO2 P0001 T01440117
93073KASE ASE20160622181013806/22/16 18:10:31  5-MIN KASE 230110Z 14009KT 10SM -RA FEW050 BKN075 OVC090 14/12 A3042 7380 86 9000 130/09 RMK AO2 PRESFR P0001 T01390117
93073KASE ASE20160622181513706/22/16 18:15:31  5-MIN KASE 230115Z 14012G15KT 10SM -RA BKN075 OVC090 14/11 A3040 7400 80 9100 130/12G15 RMK AO2 PRESFR P0001 T01440111
93073KASE ASE20160622182013706/22/16 18:20:31  5-MIN KASE 230120Z 15017G24KT 10SM -RA SCT075 OVC090 15/11 A3038 7420 74 9100 140/17G24 RMK AO2 PRESFR P0001 T01500106
93073KASE ASE20160622182516206/22/16 18:25:31  5-MIN KASE 230125Z 16021G28KT 10SM -RA FEW075 BKN090 OVC110 16/11 A3036 7430 72 9200 150/21G28 RMK AO2 PK WND 16028/0124 PRESFR P0001 T01560106
93073KASE ASE20160622183015706/22/16 18:30:31  5-MIN KASE 230130Z 16025G32KT 10SM FEW070 SCT080 BKN100 16/10 A3036 7440 69 9200 150/25G32 RMK AO2 PK WND 17032/0129 RAE29 P0001 T01560100
93073KASE ASE20160622183515706/22/16 18:35:31  5-MIN KASE 230135Z 16018G32KT 10SM FEW070 SCT085 BKN110 15/10 A3036 7440 72 9200 150/18G32 RMK AO2 PK WND 17032/0129 RAE29 P0001 T01500100
93073KASE ASE20160622184015006/22/16 18:40:31  5-MIN KASE 230140Z 15013G28KT 10SM FEW090 SCT110 16/10 A3036 7430 69 9200 140/13G28 RMK AO2 PK WND 17032/0129 RAE29 P0001 T01560100
93073KASE ASE20160622184513706/22/16 18:45:31  5-MIN KASE 230145Z 13011KT 10SM FEW100 15/10 A3037 7430 72 9200 130/11 RMK AO2 PK WND 17032/0129 RAE29 P0001 T01500100
93073KASE ASE20160622185015006/22/16 18:50:31  5-MIN KASE 230150Z 11010G21KT 10SM FEW110 16/10 A3037 7430 69 9200 110/10G21 RMK AO2 PK WND 17032/0129 RAE29 SLP171 P0001 T01560100
93073KASE ASE20160622185511006/22/16 18:55:31  5-MIN KASE 230155Z 10010G21KT 10SM CLR 15/10 A3037 7430 72 9200 090/10G21 RMK AO2 T01500100
93073KASE ASE20160622190010406/22/16 19:00:31  5-MIN KASE 230200Z 10008KT 10SM CLR 16/09 A3037 7430 67 9200 090/08 RMK AO2 T01560094
93073KASE ASE20160622190510406/22/16 19:05:31  5-MIN KASE 230205Z 11005KT 10SM CLR 15/10 A3037 7420 72 9100 110/05 RMK AO2 T01500100
93073KASE ASE20160622191010406/22/16 19:10:31  5-MIN KASE 230210Z 12005KT 10SM CLR 15/10 A3037 7420 72 9100 110/05 RMK AO2 T01500100
93073KASE ASE20160622191510406/22/16 19:15:31  5-MIN KASE 230215Z 12008KT 10SM CLR 16/09 A3037 7420 67 9200 120/08 RMK AO2 T01560094
93073KASE ASE20160622192010406/22/16 19:20:31  5-MIN KASE 230220Z 13008KT 10SM CLR 16/09 A3037 7430 67 9200 120/08 RMK AO2 T01560094
93073KASE ASE20160622192510406/22/16 19:25:31  5-MIN KASE 230225Z 13007KT 10SM CLR 16/09 A3037 7430 67 9200 120/07 RMK AO2 T01560094
93073KASE ASE20160622193010406/22/16 19:30:31  5-MIN KASE 230230Z 15008KT 10SM CLR 16/09 A3037 7430 67 9200 140/08 RMK AO2 T01560094
93073KASE ASE20160622193510406/22/16 19:35:31  5-MIN KASE 230235Z 13004KT 10SM CLR 16/09 A3037 7430 67 9200 120/04 RMK AO2 T01560094
93073KASE ASE20160622194010406/22/16 19:40:31  5-MIN KASE 230240Z 13004KT 10SM CLR 16/09 A3037 7430 67 9200 120/04 RMK AO2 T01560094
93073KASE ASE20160622194510406/22/16 19:45:31  5-MIN KASE 230245Z 00000KT 10SM CLR 15/09 A3037 7430 69 9200 000/00 RMK AO2 T01500094
93073KASE ASE20160622195012306/22/16 19:50:31  5-MIN KASE 230250Z 00000KT 10SM CLR 14/09 A3037 7430 72 9100 000/00 RMK AO2 SLP166 60011 T01440094 53050
93073KASE ASE20160622195510406/22/16 19:55:31  5-MIN KASE 230255Z 00000KT 10SM CLR 14/09 A3037 7430 72 9100 000/00 RMK AO2 T01440094
93073KASE ASE20160622200010406/22/16 20:00:31  5-MIN KASE 230300Z 00000KT 10SM CLR 14/09 A3038 7420 74 9000 000/00 RMK AO2 T01390094
93073KASE ASE20160622200510406/22/16 20:05:31  5-MIN KASE 230305Z 20003KT 10SM CLR 14/09 A3038 7420 74 9000 190/03 RMK AO2 T01390094
93073KASE ASE20160622201010406/22/16 20:10:31  5-MIN KASE 230310Z 23004KT 10SM CLR 14/09 A3038 7410 74 9000 220/04 RMK AO2 T01390094
93073KASE ASE20160622201510406/22/16 20:15:31  5-MIN KASE 230315Z 19004KT 10SM CLR 13/09 A3039 7410 80 8900 180/04 RMK AO2 T01280094
93073KASE ASE20160622202010406/22/16 20:20:31  5-MIN KASE 230320Z VRB03KT 10SM CLR 13/09 A3039 7410 77 8900 VRB/03 RMK AO2 T01330094
93073KASE ASE20160622202510406/22/16 20:25:31  5-MIN KASE 230325Z 00000KT 10SM CLR 13/09 A3040 7400 80 8900 000/00 RMK AO2 T01280094
93073KASE ASE20160622203010406/22/16 20:30:31  5-MIN KASE 230330Z 00000KT 10SM CLR 13/09 A3040 7400 77 8900 000/00 RMK AO2 T01330094
93073KASE ASE20160622203510406/22/16 20:35:31  5-MIN KASE 230335Z 25004KT 10SM CLR 13/09 A3041 7400 80 8900 240/04 RMK AO2 T01280094
93073KASE ASE20160622204010406/22/16 20:40:31  5-MIN KASE 230340Z 00000KT 10SM CLR 13/09 A3041 7390 80 8900 000/00 RMK AO2 T01280094
93073KASE ASE20160622204510406/22/16 20:45:31  5-MIN KASE 230345Z 01004KT 10SM CLR 12/09 A3041 7390 83 8800 360/04 RMK AO2 T01220094
93073KASE ASE20160622205011106/22/16 20:50:31  5-MIN KASE 230350Z 04003KT 10SM CLR 12/09 A3041 7390 83 8800 030/03 RMK AO2 SLP182 T01220094
93073KASE ASE20160622205510406/22/16 20:55:31  5-MIN KASE 230355Z 00000KT 10SM CLR 12/10 A3042 7380 86 8800 000/00 RMK AO2 T01220100
93073KASE ASE20160622210010406/22/16 21:00:31  5-MIN KASE 230400Z 00000KT 10SM CLR 12/10 A3042 7380 86 8800 000/00 RMK AO2 T01220100
93073KASE ASE20160622210510406/22/16 21:05:31  5-MIN KASE 230405Z 00000KT 10SM CLR 12/10 A3042 7380 86 8800 000/00 RMK AO2 T01220100
93073KASE ASE20160622211010406/22/16 21:10:31  5-MIN KASE 230410Z 00000KT 10SM CLR 12/10 A3042 7380 89 8700 000/00 RMK AO2 T01170100
93073KASE ASE20160622211510406/22/16 21:15:31  5-MIN KASE 230415Z 18003KT 10SM CLR 12/10 A3042 7380 89 8700 170/03 RMK AO2 T01170100
93073KASE ASE20160622212010406/22/16 21:20:31  5-MIN KASE 230420Z 19005KT 10SM CLR 12/09 A3043 7380 86 8700 180/05 RMK AO2 T01170094
93073KASE ASE20160622212510406/22/16 21:25:31  5-MIN KASE 230425Z 20005KT 10SM CLR 11/09 A3043 7380 89 8600 200/05 RMK AO2 T01110094
93073KASE ASE20160622213010406/22/16 21:30:31  5-MIN KASE 230430Z 17004KT 10SM CLR 12/09 A3042 7380 86 8700 160/04 RMK AO2 T01170094
93073KASE ASE20160622213510406/22/16 21:35:31  5-MIN KASE 230435Z 18005KT 10SM CLR 12/09 A3043 7380 86 8700 170/05 RMK AO2 T01170094
93073KASE ASE20160622214010406/22/16 21:40:31  5-MIN KASE 230440Z 16004KT 10SM CLR 12/09 A3043 7380 86 8700 150/04 RMK AO2 T01170094
93073KASE ASE20160622214510406/22/16 21:45:31  5-MIN KASE 230445Z 18006KT 10SM CLR 12/09 A3042 7380 86 8700 170/06 RMK AO2 T01170094
93073KASE ASE20160622215011106/22/16 21:50:31  5-MIN KASE 230450Z 18004KT 10SM CLR 12/09 A3042 7380 86 8700 180/04 RMK AO2 SLP180 T01170094
93073KASE ASE20160622215510406/22/16 21:55:31  5-MIN KASE 230455Z 19005KT 10SM CLR 12/09 A3042 7380 86 8700 180/05 RMK AO2 T01170094
93073KASE ASE20160622220010406/22/16 22:00:31  5-MIN KASE 230500Z 18007KT 10SM CLR 12/09 A3042 7380 83 8800 170/07 RMK AO2 T01220094
93073KASE ASE20160622220510406/22/16 22:05:31  5-MIN KASE 230505Z 18009KT 10SM CLR 12/09 A3042 7380 80 8800 170/09 RMK AO2 T01220089
93073KASE ASE20160622221010406/22/16 22:10:31  5-MIN KASE 230510Z 18007KT 10SM CLR 12/09 A3041 7390 86 8700 170/07 RMK AO2 T01170094
93073KASE ASE20160622221510406/22/16 22:15:31  5-MIN KASE 230515Z 18008KT 10SM CLR 12/09 A3041 7390 83 8700 170/08 RMK AO2 T01170089
93073KASE ASE20160622222010706/22/16 22:20:31  5-MIN KASE 230520Z 16008KT 10SM FEW120 12/09 A3041 7390 80 8800 150/08 RMK AO2 T01220089
93073KASE ASE20160622222510706/22/16 22:25:31  5-MIN KASE 230525Z 15011KT 10SM FEW120 12/09 A3040 7400 80 8800 140/11 RMK AO2 T01220089
93073KASE ASE20160622223010706/22/16 22:30:31  5-MIN KASE 230530Z 15008KT 10SM SCT120 13/08 A3040 7400 74 8900 140/08 RMK AO2 T01280083
93073KASE ASE20160622223510706/22/16 22:35:31  5-MIN KASE 230535Z 14009KT 10SM SCT120 13/08 A3040 7400 71 8900 140/09 RMK AO2 T01280078
93073KASE ASE20160622224010706/22/16 22:40:31  5-MIN KASE 230540Z 14009KT 10SM FEW120 12/08 A3039 7410 74 8800 130/09 RMK AO2 T01220078
93073KASE ASE20160622224510706/22/16 22:45:31  5-MIN KASE 230545Z 15009KT 10SM SCT120 13/08 A3039 7410 74 8900 140/09 RMK AO2 T01280083
93073KASE ASE20160622225013806/22/16 22:50:31  5-MIN KASE 230550Z 13008KT 10SM SCT120 12/08 A3039 7410 77 8800 120/08 RMK AO2 SLP159 60011 T01220083 10161 20111 58017
93073KASE ASE20160622225510706/22/16 22:55:31  5-MIN KASE 230555Z 13008KT 10SM SCT120 12/08 A3039 7410 77 8800 120/08 RMK AO2 T01220083
93073KASE ASE20160622230010706/22/16 23:00:31  5-MIN KASE 230600Z 13005KT 10SM FEW120 12/08 A3039 7410 77 8800 120/05 RMK AO2 T01220083
93073KASE ASE20160622230510706/22/16 23:05:31  5-MIN KASE 230605Z VRB04KT 10SM FEW120 12/08 A3039 7410 74 8800 VRB/04 RMK AO2 T01220078
93073KASE ASE20160622231010706/22/16 23:10:31  5-MIN KASE 230610Z 14004KT 10SM FEW120 12/08 A3038 7420 74 8800 130/04 RMK AO2 T01220078
93073KASE ASE20160622231510706/22/16 23:15:31  5-MIN KASE 230615Z VRB04KT 10SM FEW120 12/08 A3038 7420 74 8800 VRB/04 RMK AO2 T01220078
93073KASE ASE20160622232010706/22/16 23:20:31  5-MIN KASE 230620Z 00000KT 10SM FEW120 12/08 A3038 7420 77 8800 000/00 RMK AO2 T01170078
93073KASE ASE20160622232510406/22/16 23:25:31  5-MIN KASE 230625Z 22006KT 10SM CLR 12/08 A3038 7420 77 8800 210/06 RMK AO2 T01170078
93073KASE ASE20160622233010406/22/16 23:30:31  5-MIN KASE 230630Z 21006KT 10SM CLR 12/08 A3038 7420 77 8800 200/06 RMK AO2 T01170078
93073KASE ASE20160622233510406/22/16 23:35:31  5-MIN KASE 230635Z 19007KT 10SM CLR 12/08 A3038 7420 77 8800 180/07 RMK AO2 T01170078
93073KASE ASE20160622234010406/22/16 23:40:31  5-MIN KASE 230640Z 20008KT 10SM CLR 13/08 A3038 7420 71 8900 190/08 RMK AO2 T01280078
93073KASE ASE20160622234510406/22/16 23:45:31  5-MIN KASE 230645Z 20007KT 10SM CLR 11/08 A3037 7430 80 8700 190/07 RMK AO2 T01110078
93073KASE ASE20160622235013706/22/16 23:50:31  5-MIN KASE 230650Z 20007KT 150V230 10SM CLR 12/08 A3037 7430 74 8800 200/07 140V220 RMK AO2 SLP150 T01220078 402940100
93073KASE ASE20160622235510406/22/16 23:55:31  5-MIN KASE 230655Z 19007KT 10SM CLR 12/08 A3037 7430 74 8800 180/07 RMK AO2 T01220078
93073KASE ASE20160623000010406/23/16 00:00:31  5-MIN KASE 230700Z VRB05KT 10SM CLR 13/07 A3037 7430 69 8900 VRB/05 RMK AO2 T01280072
93073KASE ASE20160623000510406/23/16 00:05:31  5-MIN KASE 230705Z VRB05KT 10SM CLR 13/07 A3037 7430 66 9000 VRB/05 RMK AO2 T01330072
93073KASE ASE20160623001010406/23/16 00:10:31  5-MIN KASE 230710Z VRB05KT 10SM CLR 13/07 A3037 7430 66 9000 VRB/05 RMK AO2 T01330072
93073KASE ASE20160623001510406/23/16 00:15:31  5-MIN KASE 230715Z VRB05KT 10SM CLR 13/07 A3036 7430 66 9000 VRB/05 RMK AO2 T01330072
93073KASE ASE20160623002010406/23/16 00:20:31  5-MIN KASE 230720Z 21007KT 10SM CLR 13/08 A3037 7430 69 9000 210/07 RMK AO2 T01330078
93073KASE ASE20160623002510406/23/16 00:25:31  5-MIN KASE 230725Z 22009KT 10SM CLR 13/07 A3036 7430 69 8900 210/09 RMK AO2 T01280072
93073KASE ASE20160623003010406/23/16 00:30:31  5-MIN KASE 230730Z 22009KT 10SM CLR 12/08 A3036 7440 74 8800 220/09 RMK AO2 T01220078
93073KASE ASE20160623003510406/23/16 00:35:31  5-MIN KASE 230735Z 21006KT 10SM CLR 13/07 A3036 7440 69 8900 200/06 RMK AO2 T01280072
93073KASE ASE20160623004010406/23/16 00:40:31  5-MIN KASE 230740Z 22007KT 10SM CLR 13/07 A3035 7440 66 9000 210/07 RMK AO2 T01330072
93073KASE ASE20160623004510406/23/16 00:45:31  5-MIN KASE 230745Z 21007KT 10SM CLR 13/07 A3036 7440 69 8900 210/07 RMK AO2 T01280072
93073KASE ASE20160623005011106/23/16 00:50:31  5-MIN KASE 230750Z 21006KT 10SM CLR 13/07 A3035 7440 66 9000 200/06 RMK AO2 SLP141 T01330072
93073KASE ASE20160623005510406/23/16 00:55:31  5-MIN KASE 230755Z 21005KT 10SM CLR 13/07 A3035 7440 66 9000 200/05 RMK AO2 T01330072
93073KASE ASE20160623010010406/23/16 01:00:31  5-MIN KASE 230800Z 23005KT 10SM CLR 13/07 A3035 7440 66 9000 220/05 RMK AO2 T01330072
93073KASE ASE20160623010510406/23/16 01:05:31  5-MIN KASE 230805Z 23004KT 10SM CLR 13/07 A3036 7440 66 9000 220/04 RMK AO2 T01330072
93073KASE ASE20160623011010406/23/16 01:10:31  5-MIN KASE 230810Z 32005KT 10SM CLR 13/08 A3035 7440 71 8900 310/05 RMK AO2 T01280078
93073KASE ASE20160623011510706/23/16 01:15:31  5-MIN KASE 230815Z 33005KT 10SM FEW120 12/08 A3035 7440 74 8900 320/05 RMK AO2 T01220078
93073KASE ASE20160623012010706/23/16 01:20:31  5-MIN KASE 230820Z 33004KT 10SM SCT120 13/07 A3036 7440 69 8900 320/04 RMK AO2 T01280072
93073KASE ASE20160623012510706/23/16 01:25:31  5-MIN KASE 230825Z 01003KT 10SM BKN120 13/08 A3036 7440 71 8900 360/03 RMK AO2 T01280078
93073KASE ASE20160623013010706/23/16 01:30:31  5-MIN KASE 230830Z 36004KT 10SM BKN120 12/08 A3036 7440 74 8900 350/04 RMK AO2 T01220078
93073KASE ASE20160623013510706/23/16 01:35:31  5-MIN KASE 230835Z 36005KT 10SM BKN110 12/08 A3036 7440 80 8800 350/05 RMK AO2 T01170083
93073KASE ASE20160623014010706/23/16 01:40:31  5-MIN KASE 230840Z 00000KT 10SM BKN110 12/08 A3036 7440 80 8800 000/00 RMK AO2 T01170083
93073KASE ASE20160623014510706/23/16 01:45:31  5-MIN KASE 230845Z 00000KT 10SM BKN110 11/08 A3036 7440 83 8700 000/00 RMK AO2 T01110083
93073KASE ASE20160623015012006/23/16 01:50:31  5-MIN KASE 230850Z 34003KT 10SM BKN110 12/09 A3036 7440 83 8800 330/03 RMK AO2 SLP152 T01170089 50004
93073KASE ASE20160623015510706/23/16 01:55:31  5-MIN KASE 230855Z 33003KT 10SM OVC100 12/09 A3036 7430 83 8800 320/03 RMK AO2 T01170089
93073KASE ASE20160623020010706/23/16 02:00:31  5-MIN KASE 230900Z 00000KT 10SM OVC100 12/09 A3036 7430 83 8800 000/00 RMK AO2 T01170089
93073KASE ASE20160623020510706/23/16 02:05:31  5-MIN KASE 230905Z 00000KT 10SM OVC100 12/09 A3037 7430 83 8800 000/00 RMK AO2 T01170089
93073KASE ASE20160623021010706/23/16 02:10:31  5-MIN KASE 230910Z 00000KT 10SM OVC100 12/09 A3036 7430 83 8800 000/00 RMK AO2 T01170089
93073KASE ASE20160623021511406/23/16 02:15:31  5-MIN KASE 230915Z 24005KT 10SM FEW060 BKN100 12/09 A3037 7430 83 8800 230/05 RMK AO2 T01170089
93073KASE ASE20160623022011406/23/16 02:20:31  5-MIN KASE 230920Z 22004KT 10SM FEW060 BKN100 12/09 A3037 7430 83 8800 210/04 RMK AO2 T01170089
93073KASE ASE20160623022510706/23/16 02:25:31  5-MIN KASE 230925Z 00000KT 10SM BKN100 12/08 A3037 7430 77 8800 000/00 RMK AO2 T01220083
93073KASE ASE20160623023010706/23/16 02:30:31  5-MIN KASE 230930Z 12004KT 10SM BKN100 12/09 A3036 7440 80 8800 110/04 RMK AO2 T01220089
93073KASE ASE20160623023511406/23/16 02:35:31  5-MIN KASE 230935Z 00000KT 10SM FEW065 BKN100 12/09 A3036 7440 83 8800 000/00 RMK AO2 T01170089
93073KASE ASE20160623024013006/23/16 02:40:31  5-MIN KASE 230940Z 27003KT 10SM -RA FEW065 BKN100 12/08 A3036 7430 80 8800 260/03 RMK AO2 RAB36 P0000 T01170083
93073KASE ASE20160623024512306/23/16 02:45:31  5-MIN KASE 230945Z 21004KT 10SM -RA SCT100 12/09 A3036 7440 80 8800 210/04 RMK AO2 RAB36 P0000 T01220089
93073KASE ASE20160623025012906/23/16 02:50:31  5-MIN KASE 230950Z 20005KT 10SM SCT100 12/09 A3036 7430 83 8800 190/05 RMK AO2 RAB36E49 SLP150 P0000 T01170089
93073KASE ASE20160623025510706/23/16 02:55:31  5-MIN KASE 230955Z 19005KT 10SM FEW100 12/09 A3036 7440 83 8800 180/05 RMK AO2 T01170089
93073KASE ASE20160623030010706/23/16 03:00:31  5-MIN KASE 231000Z 18006KT 10SM FEW100 12/09 A3036 7440 80 8900 180/06 RMK AO2 T01220089
93073KASE ASE20160623030510706/23/16 03:05:31  5-MIN KASE 231005Z 19005KT 10SM FEW100 12/08 A3035 7440 80 8800 180/05 RMK AO2 T01170083
93073KASE ASE20160623031010706/23/16 03:10:31  5-MIN KASE 231010Z 19006KT 10SM FEW110 12/09 A3035 7440 83 8800 180/06 RMK AO2 T01170089
93073KASE ASE20160623031510706/23/16 03:15:31  5-MIN KASE 231015Z 21007KT 10SM SCT110 12/08 A3035 7440 80 8800 200/07 RMK AO2 T01170083
93073KASE ASE20160623032010706/23/16 03:20:31  5-MIN KASE 231020Z 20008KT 10SM SCT110 13/08 A3035 7440 71 8900 190/08 RMK AO2 T01280078
93073KASE ASE20160623032510706/23/16 03:25:31  5-MIN KASE 231025Z 21008KT 10SM FEW110 12/08 A3035 7440 77 8900 200/08 RMK AO2 T01220083
93073KASE ASE20160623033010706/23/16 03:30:31  5-MIN KASE 231030Z 20008KT 10SM FEW110 12/08 A3035 7440 80 8800 190/08 RMK AO2 T01170083
93073KASE ASE20160623033510706/23/16 03:35:31  5-MIN KASE 231035Z 20007KT 10SM SCT110 12/08 A3035 7450 80 8800 190/07 RMK AO2 T01170083
93073KASE ASE20160623034010706/23/16 03:40:31  5-MIN KASE 231040Z 21006KT 10SM FEW110 12/08 A3035 7450 74 8900 200/06 RMK AO2 T01220078
93073KASE ASE20160623034510706/23/16 03:45:31  5-MIN KASE 231045Z 19005KT 10SM FEW120 12/08 A3035 7450 74 8900 180/05 RMK AO2 T01220078
93073KASE ASE20160623035011406/23/16 03:50:31  5-MIN KASE 231050Z 20004KT 10SM FEW120 12/08 A3035 7450 74 8900 190/04 RMK AO2 SLP151 T01220078
93073KASE ASE20160623035510706/23/16 03:55:31  5-MIN KASE 231055Z 34005KT 10SM FEW120 13/08 A3035 7440 74 8900 330/05 RMK AO2 T01280083
93073KASE ASE20160623040010706/23/16 04:00:31  5-MIN KASE 231100Z 35005KT 10SM FEW120 12/08 A3035 7440 77 8900 340/05 RMK AO2 T01220083
93073KASE ASE20160623040510706/23/16 04:05:31  5-MIN KASE 231105Z 35004KT 10SM FEW120 12/08 A3035 7440 80 8800 340/04 RMK AO2 T01170083
93073KASE ASE20160623041010706/23/16 04:10:31  5-MIN KASE 231110Z 35005KT 10SM FEW120 12/09 A3035 7440 83 8800 340/05 RMK AO2 T01170089
93073KASE ASE20160623041510706/23/16 04:15:31  5-MIN KASE 231115Z 35004KT 10SM FEW120 12/09 A3036 7440 83 8800 340/04 RMK AO2 T01170089
93073KASE ASE20160623042010706/23/16 04:20:31  5-MIN KASE 231120Z 33004KT 10SM FEW120 12/09 A3036 7440 83 8800 320/04 RMK AO2 T01170089
93073KASE ASE20160623042510706/23/16 04:25:31  5-MIN KASE 231125Z 31003KT 10SM FEW120 12/09 A3036 7440 83 8800 300/03 RMK AO2 T01170089
93073KASE ASE20160623043010406/23/16 04:30:31  5-MIN KASE 231130Z 00000KT 10SM CLR 12/09 A3036 7440 83 8800 000/00 RMK AO2 T01170089
93073KASE ASE20160623043510406/23/16 04:35:31  5-MIN KASE 231135Z 26003KT 10SM CLR 12/09 A3036 7440 83 8800 250/03 RMK AO2 T01170089
93073KASE ASE20160623044010406/23/16 04:40:31  5-MIN KASE 231140Z 26003KT 10SM CLR 12/09 A3036 7440 83 8800 250/03 RMK AO2 T01170089
93073KASE ASE20160623044510406/23/16 04:45:31  5-MIN KASE 231145Z 22003KT 10SM CLR 12/09 A3036 7440 83 8800 210/03 RMK AO2 T01170089
93073KASE ASE20160623045014106/23/16 04:50:31  5-MIN KASE 231150Z 00000KT 10SM CLR 12/09 A3036 7440 83 8800 000/00 RMK AO2 SLP183 60000 70036 T01170089 10133 20111 55006
93073KASE ASE20160623045510706/23/16 04:55:31  5-MIN KASE 231155Z 00000KT 10SM FEW120 12/09 A3036 7440 83 8800 000/00 RMK AO2 T01170089
93073KASE ASE20160623050010706/23/16 05:00:31  5-MIN KASE 231200Z 00000KT 10SM FEW120 12/09 A3036 7440 83 8800 000/00 RMK AO2 T01170089
93073KASE ASE20160623050510706/23/16 05:05:31  5-MIN KASE 231205Z 00000KT 10SM FEW120 12/09 A3036 7440 83 8800 000/00 RMK AO2 T01170089
93073KASE ASE20160623051010706/23/16 05:10:31  5-MIN KASE 231210Z 00000KT 10SM FEW120 12/09 A3036 7440 80 8800 000/00 RMK AO2 T01220089
93073KASE ASE20160623051510706/23/16 05:15:31  5-MIN KASE 231215Z 00000KT 10SM FEW120 12/09 A3037 7430 80 8800 000/00 RMK AO2 T01220089
93073KASE ASE20160623052010706/23/16 05:20:31  5-MIN KASE 231220Z 02003KT 10SM FEW120 12/09 A3037 7430 83 8800 010/03 RMK AO2 T01170089
93073KASE ASE20160623052510706/23/16 05:25:31  5-MIN KASE 231225Z 13004KT 10SM FEW110 12/09 A3037 7430 83 8800 120/04 RMK AO2 T01170089
93073KASE ASE20160623053011406/23/16 05:30:31  5-MIN KASE 231230Z 14004KT 10SM FEW100 FEW110 12/09 A3037 7430 83 8800 130/04 RMK AO2 T01170089
93073KASE ASE20160623053510706/23/16 05:35:31  5-MIN KASE 231235Z VRB03KT 10SM FEW100 12/09 A3037 7430 80 8800 VRB/03 RMK AO2 T01220089
93073KASE ASE20160623054010706/23/16 05:40:31  5-MIN KASE 231240Z 24005KT 10SM FEW100 12/09 A3037 7430 83 8800 230/05 RMK AO2 T01170089
93073KASE ASE20160623054510706/23/16 05:45:31  5-MIN KASE 231245Z 36006KT 10SM FEW100 12/08 A3038 7420 80 8800 350/06 RMK AO2 T01170083
93073KASE ASE20160623055011406/23/16 05:50:31  5-MIN KASE 231250Z 04004KT 10SM SCT100 12/09 A3038 7420 80 8800 030/04 RMK AO2 SLP187 T01220089
93073KASE ASE20160623055510706/23/16 05:55:31  5-MIN KASE 231255Z 02005KT 10SM BKN100 12/09 A3039 7410 83 8800 010/05 RMK AO2 T01170089
93073KASE ASE20160623060010706/23/16 06:00:31  5-MIN KASE 231300Z 01005KT 10SM BKN100 12/09 A3038 7410 83 8800 360/05 RMK AO2 T01170089
93073KASE ASE20160623060511406/23/16 06:05:31  5-MIN KASE 231305Z 01004KT 10SM BKN100 BKN120 12/09 A3039 7410 80 8800 360/04 RMK AO2 T01220089
93073KASE ASE20160623061011406/23/16 06:10:31  5-MIN KASE 231310Z 34003KT 10SM BKN100 OVC120 12/09 A3039 7410 80 8800 330/03 RMK AO2 T01220089
93073KASE ASE20160623061510706/23/16 06:15:31  5-MIN KASE 231315Z 32005KT 10SM OVC100 12/09 A3040 7400 80 8800 310/05 RMK AO2 T01220089
93073KASE ASE20160623062010706/23/16 06:20:31  5-MIN KASE 231320Z 30004KT 10SM OVC100 12/09 A3040 7400 83 8800 290/04 RMK AO2 T01220094
93073KASE ASE20160623062510706/23/16 06:25:31  5-MIN KASE 231325Z 32004KT 10SM OVC100 12/09 A3040 7400 80 8800 310/04 RMK AO2 T01220089
93073KASE ASE20160623063010706/23/16 06:30:31  5-MIN KASE 231330Z 00000KT 10SM OVC100 12/09 A3040 7400 80 8800 000/00 RMK AO2 T01220089
93073KASE ASE20160623063510706/23/16 06:35:31  5-MIN KASE 231335Z 31004KT 10SM OVC100 13/09 A3040 7400 77 8900 300/04 RMK AO2 T01280089
93073KASE ASE20160623064010706/23/16 06:40:31  5-MIN KASE 231340Z 32004KT 10SM OVC100 13/09 A3041 7390 77 8900 310/04 RMK AO2 T01280089
93073KASE ASE20160623064510706/23/16 06:45:31  5-MIN KASE 231345Z 32003KT 10SM OVC095 13/09 A3041 7390 77 8900 310/03 RMK AO2 T01280089
93073KASE ASE20160623065011406/23/16 06:50:31  5-MIN KASE 231350Z 00000KT 10SM OVC095 13/09 A3041 7390 74 8900 000/00 RMK AO2 SLP193 T01330089
93073KASE ASE20160623065510706/23/16 06:55:31  5-MIN KASE 231355Z 32003KT 10SM OVC095 13/09 A3042 7380 74 8900 310/03 RMK AO2 T01330089
93073KASE ASE20160623070010706/23/16 07:00:31  5-MIN KASE 231400Z 36003KT 10SM OVC095 13/09 A3042 7380 77 8900 350/03 RMK AO2 T01330094
93073KASE ASE20160623070510706/23/16 07:05:31  5-MIN KASE 231405Z 00000KT 10SM OVC090 13/09 A3043 7370 77 8900 000/00 RMK AO2 T01330094
93073KASE ASE20160623071010706/23/16 07:10:31  5-MIN KASE 231410Z 00000KT 10SM OVC090 13/09 A3043 7370 77 8900 000/00 RMK AO2 T01330094
93073KASE ASE20160623071512306/23/16 07:15:31  5-MIN KASE 231415Z 00000KT 10SM -RA OVC085 13/09 A3043 7370 80 8800 000/00 RMK AO2 RAB13 P0000 T01280094
93073KASE ASE20160623072013006/23/16 07:20:31  5-MIN KASE 231420Z 13003KT 10SM -RA FEW050 OVC085 13/09 A3044 7370 80 8800 120/03 RMK AO2 RAB13 P0000 T01280094
93073KASE ASE20160623072513706/23/16 07:25:31  5-MIN KASE 231425Z 15003KT 10SM -RA FEW050 SCT070 OVC085 13/09 A3044 7370 80 8800 140/03 RMK AO2 RAB13 P0000 T01280094
93073KASE ASE20160623073013706/23/16 07:30:31  5-MIN KASE 231430Z 18003KT 10SM -RA FEW055 SCT070 OVC090 13/09 A3044 7360 77 8900 170/03 RMK AO2 RAB13 P0000 T01330094
93073KASE ASE20160623073513706/23/16 07:35:31  5-MIN KASE 231435Z 23004KT 10SM -RA FEW055 SCT070 OVC085 13/10 A3044 7360 80 8900 220/04 RMK AO2 RAB13 P0000 T01330100
93073KASE ASE20160623074013706/23/16 07:40:31  5-MIN KASE 231440Z 00000KT 10SM -RA SCT055 BKN070 OVC080 13/10 A3044 7360 80 8900 000/00 RMK AO2 RAB13 P0000 T01330100
93073KASE ASE20160623074513606/23/16 07:45:31  5-MIN KASE 231445Z 15004KT 10SM SCT046 BKN060 OVC075 14/10 A3044 7360 77 8900 140/04 RMK AO2 RAB13E43 P0000 T01390100
93073KASE ASE20160623075015506/23/16 07:50:31  5-MIN KASE 231450Z 15005KT 10SM SCT039 BKN055 BKN070 14/10 A3044 7360 77 8900 140/05 RMK AO2 RAB13E43 SLP203 P0000 60000 T01390100 55001
93073KASE ASE20160623075512106/23/16 07:55:31  5-MIN KASE 231455Z 19007KT 10SM FEW039 SCT055 BKN075 14/09 A3045 7360 74 8900 180/07 RMK AO2 T01390094
93073KASE ASE20160623080012106/23/16 08:00:31  5-MIN KASE 231500Z 18006KT 10SM FEW042 SCT050 SCT075 14/10 A3045 7360 74 9000 170/06 RMK AO2 T01440100
93073KASE ASE20160623080512106/23/16 08:05:31  5-MIN KASE 231505Z 17008KT 10SM FEW042 FEW050 SCT110 15/09 A3045 7360 69 9100 160/08 RMK AO2 T01500094
93073KASE ASE20160623081011406/23/16 08:10:31  5-MIN KASE 231510Z 16008KT 10SM FEW035 SCT095 15/09 A3044 7360 69 9100 150/08 RMK AO2 T01500094
93073KASE ASE20160623081510706/23/16 08:15:31  5-MIN KASE 231515Z 17008KT 10SM BKN090 16/09 A3044 7360 67 9100 160/08 RMK AO2 T01560094
93073KASE ASE20160623082010706/23/16 08:20:31  5-MIN KASE 231520Z 15010KT 10SM BKN100 16/09 A3043 7370 67 9100 140/10 RMK AO2 T01560094
93073KASE ASE20160623082510706/23/16 08:25:31  5-MIN KASE 231525Z 15010KT 10SM BKN100 16/09 A3043 7370 64 9200 140/10 RMK AO2 T01610094
93073KASE ASE20160623083010706/23/16 08:30:31  5-MIN KASE 231530Z 17010KT 10SM OVC100 16/09 A3043 7370 64 9200 160/10 RMK AO2 T01610094
93073KASE ASE20160623083510706/23/16 08:35:31  5-MIN KASE 231535Z 15008KT 10SM OVC100 17/09 A3042 7380 62 9300 150/08 RMK AO2 T01670094
93073KASE ASE20160623084011406/23/16 08:40:31  5-MIN KASE 231540Z 15008KT 10SM FEW085 OVC100 17/09 A3042 7380 62 9300 140/08 RMK AO2 T01670094
93073KASE ASE20160623084511606/23/16 08:45:31  5-MIN KASE 231545Z 16008KT 10SM BKN100 17/09 A3042 7380 62 9300 150/08 RMK AO2 VIRGA SE T01670094
93073KASE ASE20160623085013006/23/16 08:50:31  5-MIN KASE 231550Z 16007KT 10SM SCT090 OVC110 17/09 A3042 7390 60 9300 150/07 RMK AO2 SLP191 VIRGA SE T01720094
93073KASE ASE20160623085511406/23/16 08:55:31  5-MIN KASE 231555Z 14007KT 10SM SCT085 BKN110 17/09 A3041 7390 60 9300 130/07 RMK AO2 T01720094
93073KASE ASE20160623090011406/23/16 09:00:31  5-MIN KASE 231600Z 13007KT 10SM FEW085 BKN110 17/10 A3041 7390 62 9400 120/07 RMK AO2 T01720100
93073KASE ASE20160623090511406/23/16 09:05:31  5-MIN KASE 231605Z 14009KT 10SM SCT095 SCT120 17/10 A3040 7400 62 9400 130/09 RMK AO2 T01720100
93073KASE ASE20160623091011406/23/16 09:10:31  5-MIN KASE 231610Z 16005KT 10SM FEW090 SCT110 18/10 A3040 7400 60 9400 150/05 RMK AO2 T01780100
93073KASE ASE20160623091511406/23/16 09:15:31  5-MIN KASE 231615Z 15006KT 10SM FEW090 SCT110 18/09 A3040 7400 56 9500 140/06 RMK AO2 T01830094
93073KASE ASE20160623092010706/23/16 09:20:31  5-MIN KASE 231620Z 16007KT 10SM FEW110 19/09 A3040 7400 52 9500 150/07 RMK AO2 T01890089
93073KASE ASE20160623092510706/23/16 09:25:31  5-MIN KASE 231625Z 12006KT 10SM FEW100 19/09 A3040 7400 54 9500 110/06 RMK AO2 T01890094
93073KASE ASE20160623093010706/23/16 09:30:31  5-MIN KASE 231630Z 13007KT 10SM FEW100 19/10 A3040 7400 56 9500 120/07 RMK AO2 T01890100
93073KASE ASE20160623093510706/23/16 09:35:31  5-MIN KASE 231635Z 15006KT 10SM FEW120 19/09 A3040 7400 54 9500 150/06 RMK AO2 T01890094
93073KASE ASE20160623094010706/23/16 09:40:31  5-MIN KASE 231640Z 16006KT 10SM SCT120 19/09 A3039 7410 54 9600 150/06 RMK AO2 T01890094
93073KASE ASE20160623094510706/23/16 09:45:31  5-MIN KASE 231645Z 18005KT 10SM FEW120 19/10 A3039 7410 54 9600 170/05 RMK AO2 T01940100
93073KASE ASE20160623095011406/23/16 09:50:31  5-MIN KASE 231650Z 14005KT 10SM FEW120 21/09 A3039 7410 48 9700 130/05 RMK AO2 SLP175 T02060094
93073KASE ASE20160623095510706/23/16 09:55:31  5-MIN KASE 231655Z VRB03KT 10SM FEW120 21/10 A3039 7410 50 9700 VRB/03 RMK AO2 T02060100
93073KASE ASE20160623100010706/23/16 10:00:31  5-MIN KASE 231700Z VRB03KT 10SM SCT110 21/10 A3039 7410 48 9800 VRB/03 RMK AO2 T02110100
93073KASE ASE20160623100510706/23/16 10:05:31  5-MIN KASE 231705Z 04004KT 10SM SCT110 21/10 A3039 7410 48 9800 030/04 RMK AO2 T02110100
93073KASE ASE20160623101010706/23/16 10:10:31  5-MIN KASE 231710Z VRB03KT 10SM FEW110 22/10 A3038 7410 47 9900 VRB/03 RMK AO2 T02170100
93073KASE ASE20160623101510706/23/16 10:15:31  5-MIN KASE 231715Z 00000KT 10SM FEW110 22/09 A3038 7410 45 9900 000/00 RMK AO2 T02170094
93073KASE ASE20160623102010706/23/16 10:20:31  5-MIN KASE 231720Z 34003KT 10SM SCT110 21/11 A3038 7410 52 9800 330/03 RMK AO2 T02110111
93073KASE ASE20160623102510706/23/16 10:25:31  5-MIN KASE 231725Z 36004KT 10SM BKN120 21/11 A3038 7410 52 9800 350/04 RMK AO2 T02110111
93073KASE ASE20160623103010706/23/16 10:30:31  5-MIN KASE 231730Z 36005KT 10SM SCT120 21/11 A3039 7410 52 9800 350/05 RMK AO2 T02110111
93073KASE ASE20160623103510706/23/16 10:35:31  5-MIN KASE 231735Z 36004KT 10SM BKN120 21/11 A3038 7410 52 9800 350/04 RMK AO2 T02110111
93073KASE ASE20160623104011406/23/16 10:40:31  5-MIN KASE 231740Z 35006KT 10SM FEW095 BKN120 21/12 A3038 7410 54 9800 340/06 RMK AO2 T02110117
93073KASE ASE20160623104513306/23/16 10:45:31  5-MIN KASE 231745Z 35006KT 10SM FEW050 BKN095 BKN120 21/12 A3039 7410 54 9800 340/06 RMK AO2 LTG DSNT SW T02110117
93073KASE ASE20160623105016406/23/16 10:50:31  5-MIN KASE 231750Z 34005KT 10SM FEW035 SCT050 BKN090 21/12 A3039 7410 54 9800 330/05 RMK AO2 LTG DSNT SW SLP171 60000 T02110117 10222 20117 53023
93073KASE ASE20160623105513306/23/16 10:55:31  5-MIN KASE 231755Z 35005KT 10SM FEW035 SCT095 BKN110 21/12 A3039 7410 56 9800 340/05 RMK AO2 LTG DSNT SW T02110122
93073KASE ASE20160623110012606/23/16 11:00:31  5-MIN KASE 231800Z 34004KT 10SM FEW033 BKN100 22/12 A3039 7410 51 9900 340/04 RMK AO2 LTG DSNT NW T02220117
93073KASE ASE20160623110514006/23/16 11:05:31  5-MIN KASE 231805Z 01006KT 10SM FEW033 FEW050 BKN100 23/11 A3039 7410 47 10000 010/06 RMK AO2 LTG DSNT S AND NW T02280111
93073KASE ASE20160623111013906/23/16 11:10:31  5-MIN KASE 231810Z 03006KT 10SM FEW034 FEW050 BKN100 22/12 A3039 7410 54 9900 030/06 RMK AO2 LTG DSNT S AND NW T02170122
93073KASE ASE20160623111512806/23/16 11:15:31  5-MIN KASE 231815Z 04005KT 10SM FEW034 SCT100 21/12 A3039 7410 54 9800 030/05 RMK AO2 LTG DSNT S-NW T02110117
93073KASE ASE20160623112012106/23/16 11:20:31  5-MIN KASE 231820Z 02004KT 10SM FEW100 22/11 A3039 7410 49 9900 010/04 RMK AO2 LTG DSNT S-NW T02220111
93073KASE ASE20160623112512206/23/16 11:25:31  5-MIN KASE 231825Z 01008KT 10SM FEW100 23/11 A3039 7410 47 10000 360/08 RMK AO2 LTG DSNT S-NW T02280111
93073KASE ASE20160623113012906/23/16 11:30:31  5-MIN KASE 231830Z 34010KT 10SM FEW100 FEW120 22/11 A3039 7410 49 9900 330/10 RMK AO2 LTG DSNT ALQDS T02220111
93073KASE ASE20160623113512206/23/16 11:35:31  5-MIN KASE 231835Z 35007KT 10SM SCT120 22/10 A3039 7410 45 9900 340/07 RMK AO2 LTG DSNT ALQDS T02220100
93073KASE ASE20160623114013306/23/16 11:40:31  5-MIN KASE 231840Z 33013G17KT 10SM VCTS SCT110 22/10 A3040 7400 45 9900 320/13G17 RMK AO2 LTG DSNT ALQDS T02220100
93073KASE ASE20160623114513306/23/16 11:45:31  5-MIN KASE 231845Z 32016G22KT 10SM VCTS BKN100 22/11 A3040 7400 49 9800 320/16G22 RMK AO2 LTG DSNT ALQDS T02170106
93073KASE ASE20160623115014606/23/16 11:50:31  5-MIN KASE 231850Z 32012G22KT 10SM VCTS BKN100 BKN120 21/11 A3041 7390 50 9800 310/12G22 RMK AO2 LTG DSNT NE-S SLP179 T02110106
93073KASE ASE20160623115513306/23/16 11:55:31  5-MIN KASE 231855Z 33013G21KT 10SM VCTS BKN100 21/10 A3040 7400 48 9800 320/13G21 RMK AO2 LTG DSNT ALQDS T02110100
93073KASE ASE20160623120014006/23/16 12:00:31  5-MIN KASE 231900Z 34010G21KT 10SM VCTS FEW050 OVC100 21/10 A3040 7400 50 9700 330/10G21 RMK AO2 LTG DSNT ALQDS T02060100
93073KASE ASE20160623120513806/23/16 12:05:31  5-MIN KASE 231905Z VRB03KT 10SM TS SCT055 OVC100 21/11 A3041 7400 52 9700 VRB/03 RMK AO2 LTG DSNT ALQDS TSB05 T02060106
93073KASE ASE20160623121013706/23/16 12:10:31  5-MIN KASE 231910Z 30003KT 10SM TS SCT055 BKN100 21/11 A3041 7400 54 9700 290/03 RMK AO2 LTG DSNT N-SE TSB05 T02060111
93073KASE ASE20160623121513706/23/16 12:15:31  5-MIN KASE 231915Z 00000KT 10SM TS FEW055 BKN100 21/11 A3041 7400 54 9700 000/00 RMK AO2 LTG DSNT N-SE TSB05 T02060111
93073KASE ASE20160623122014306/23/16 12:20:31  5-MIN KASE 231920Z 01004KT 10SM VCTS FEW055 SCT100 21/11 A3040 7400 52 9800 360/04 RMK AO2 LTG DSNT NE-SE TSB05E20 T02110111
93073KASE ASE20160623122513606/23/16 12:25:31  5-MIN KASE 231925Z 34004KT 10SM VCTS FEW055 21/11 A3040 7400 52 9800 330/04 RMK AO2 LTG DSNT NE-SE TSB05E20 T02110111
93073KASE ASE20160623123013106/23/16 12:30:31  5-MIN KASE 231930Z VRB03KT 10SM FEW055 22/11 A3040 7400 47 9900 VRB/03 RMK AO2 LTG DSNT NE-SE TSB05E20 T02220106
93073KASE ASE20160623123512806/23/16 12:35:31  5-MIN KASE 231935Z 29003KT 10SM CLR 22/10 A3039 7410 45 9900 290/03 RMK AO2 LTG DSNT NE-SE TSB05E20 T02220100
93073KASE ASE20160623124012906/23/16 12:40:31  5-MIN KASE 231940Z VRB03KT 10SM CLR 23/10 A3039 7410 44 10000 VRB/03 RMK AO2 LTG DSNT NE-SE TSB05E20 T02280100
93073KASE ASE20160623124512806/23/16 12:45:31  5-MIN KASE 231945Z VRB03KT 10SM CLR 22/09 A3039 7410 43 9900 VRB/03 RMK AO2 LTG DSNT NE-SE TSB05E20 T02220094
93073KASE ASE20160623125013506/23/16 12:50:31  5-MIN KASE 231950Z 00000KT 10SM CLR 22/09 A3038 7410 42 9900 000/00 RMK AO2 LTG DSNT NE-SE TSB05E20 SLP165 T02220089
93073KASE ASE20160623125512206/23/16 12:55:31  5-MIN KASE 231955Z 00000KT 10SM CLR 22/09 A3038 7420 43 9900 000/00 RMK AO2 LTG DSNT NE AND E T02220094
93073KASE ASE20160623130011706/23/16 13:00:31  5-MIN KASE 232000Z 00000KT 10SM CLR 23/09 A3038 7420 42 10000 000/00 RMK AO2 LTG DSNT NE T02280094
93073KASE ASE20160623130511706/23/16 13:05:31  5-MIN KASE 232005Z VRB03KT 10SM CLR 23/10 A3037 7430 44 10000 VRB/03 RMK AO2 LTG DSNT NE T02280100
93073KASE ASE20160623131012306/23/16 13:10:31  5-MIN KASE 232010Z VRB04KT 10SM CLR 23/09 A3037 7430 42 10000 VRB/04 RMK AO2 LTG DSNT NE AND W T02280094
93073KASE ASE20160623131511606/23/16 13:15:31  5-MIN KASE 232015Z VRB03KT 10SM CLR 23/09 A3037 7430 40 10000 VRB/03 RMK AO2 LTG DSNT W T02280089
93073KASE ASE20160623132011606/23/16 13:20:31  5-MIN KASE 232020Z 00000KT 10SM CLR 23/09 A3036 7430 41 10100 000/00 RMK AO2 LTG DSNT W T02330094
93073KASE ASE20160623132511606/23/16 13:25:31  5-MIN KASE 232025Z 07003KT 10SM CLR 24/10 A3036 7440 41 10100 060/03 RMK AO2 LTG DSNT W T02390100
93073KASE ASE20160623133010506/23/16 13:30:31  5-MIN KASE 232030Z VRB03KT 10SM CLR 23/09 A3036 7430 41 10100 VRB/03 RMK AO2 T02330094
93073KASE ASE20160623133510506/23/16 13:35:31  5-MIN KASE 232035Z 12005KT 10SM CLR 23/09 A3036 7440 39 10100 110/05 RMK AO2 T02330089
93073KASE ASE20160623134010506/23/16 13:40:31  5-MIN KASE 232040Z 11004KT 10SM CLR 24/09 A3035 7440 38 10100 100/04 RMK AO2 T02390089
93073KASE ASE20160623134510506/23/16 13:45:31  5-MIN KASE 232045Z VRB03KT 10SM CLR 24/09 A3035 7440 36 10200 VRB/03 RMK AO2 T02440089
93073KASE ASE20160623135011806/23/16 13:50:31  5-MIN KASE 232050Z 34004KT 10SM CLR 25/08 A3035 7440 34 10300 330/04 RMK AO2 SLP150 T02500083 56016
93073KASE ASE20160623135510506/23/16 13:55:31  5-MIN KASE 232055Z VRB03KT 10SM CLR 24/08 A3035 7450 35 10200 VRB/03 RMK AO2 T02440083
93073KASE ASE20160623140010806/23/16 14:00:31  5-MIN KASE 232100Z VRB03KT 10SM FEW110 24/08 A3035 7450 36 10100 VRB/03 RMK AO2 T02390083
93073KASE ASE20160623140510806/23/16 14:05:31  5-MIN KASE 232105Z 30003KT 10SM FEW110 24/09 A3035 7450 38 10100 290/03 RMK AO2 T02390089
93073KASE ASE20160623141010506/23/16 14:10:31  5-MIN KASE 232110Z 00000KT 10SM CLR 24/08 A3034 7450 35 10200 000/00 RMK AO2 T02440083
93073KASE ASE20160623141510506/23/16 14:15:31  5-MIN KASE 232115Z VRB04KT 10SM CLR 26/09 A3034 7460 35 10300 VRB/04 RMK AO2 T02560094
93073KASE ASE20160623142010506/23/16 14:20:31  5-MIN KASE 232120Z 29003KT 10SM CLR 24/09 A3033 7460 36 10200 280/03 RMK AO2 T02440089
93073KASE ASE20160623142510506/23/16 14:25:31  5-MIN KASE 232125Z 00000KT 10SM CLR 25/09 A3033 7470 35 10300 000/00 RMK AO2 T02500089
93073KASE ASE20160623143011606/23/16 14:30:31  5-MIN KASE 232130Z VRB03KT 10SM CLR 24/09 A3033 7470 36 10200 VRB/03 RMK AO2 LTG DSNT W T02440089
93073KASE ASE20160623143511606/23/16 14:35:31  5-MIN KASE 232135Z 00000KT 10SM CLR 25/09 A3033 7470 35 10300 000/00 RMK AO2 LTG DSNT W T02500089
93073KASE ASE20160623144012306/23/16 14:40:31  5-MIN KASE 232140Z VRB03KT 10SM CLR 25/08 A3032 7470 34 10300 VRB/03 RMK AO2 LTG DSNT SE AND W T02500083
93073KASE ASE20160623144512306/23/16 14:45:31  5-MIN KASE 232145Z VRB03KT 10SM CLR 25/09 A3032 7470 35 10300 VRB/03 RMK AO2 LTG DSNT SE AND W T02500089
93073KASE ASE20160623145012606/23/16 14:50:31  5-MIN KASE 232150Z 18004KT 10SM CLR 26/09 A3032 7480 34 10400 170/04 RMK AO2 LTG DSNT SE-W SLP135 T02560089
93073KASE ASE20160623145511806/23/16 14:55:31  5-MIN KASE 232155Z VRB03KT 10SM CLR 26/08 A3031 7480 32 10400 VRB/03 RMK AO2 LTG DSNT S-W T02560078
93073KASE ASE20160623150011806/23/16 15:00:31  5-MIN KASE 232200Z 00000KT 10SM CLR 25/08 A3031 7480 33 10300 000/00 RMK AO2 LTG DSNT S-W T02500078
93073KASE ASE20160623150512306/23/16 15:05:31  5-MIN KASE 232205Z VRB03KT 10SM CLR 24/08 A3031 7480 34 10200 VRB/03 RMK AO2 LTG DSNT S AND SW T02440078
93073KASE ASE20160623151011606/23/16 15:10:31  5-MIN KASE 232210Z 35004KT 10SM CLR 24/08 A3031 7480 35 10200 340/04 RMK AO2 LTG DSNT S T02440083
93073KASE ASE20160623151512306/23/16 15:15:31  5-MIN KASE 232215Z 00000KT 10SM CLR 24/08 A3031 7480 35 10200 000/00 RMK AO2 LTG DSNT S AND SW T02440083
93073KASE ASE20160623152012306/23/16 15:20:31  5-MIN KASE 232220Z 30003KT 10SM CLR 24/09 A3031 7480 39 10200 290/03 RMK AO2 LTG DSNT S AND SW T02390094
93073KASE ASE20160623152512006/23/16 15:25:31  5-MIN KASE 232225Z 34003KT 10SM CLR 24/09 A3031 7480 39 10200 330/03 RMK AO2 LTG DSNT SE-SW T02390094
93073KASE ASE20160623153012006/23/16 15:30:31  5-MIN KASE 232230Z 34004KT 10SM CLR 24/09 A3032 7480 39 10200 330/04 RMK AO2 LTG DSNT SE-SW T02390094
93073KASE ASE20160623153512306/23/16 15:35:31  5-MIN KASE 232235Z 29008KT 10SM FEW120 23/10 A3033 7460 42 10100 280/08 RMK AO2 LTG DSNT SE-SW T02330100
93073KASE ASE20160623154015906/23/16 15:40:31  5-MIN KASE 232240Z 24013G23KT 200V270 10SM FEW095 SCT120 23/08 A3035 7450 38 10100 230/13G23 190V260 RMK AO2 LTG DSNT SE-SW PRESRR T02330083
93073KASE ASE20160623154514506/23/16 15:45:31  5-MIN KASE 232245Z 25011G24KT 210V290 10SM BKN110 23/03 A3034 7460 25 10100 240/11G24 200V280 RMK AO2 LTG DSNT SE-SW T02330028
93073KASE ASE20160623155014306/23/16 15:50:31  5-MIN KASE 232250Z 27014G24KT 10SM SCT095 BKN110 23/02 A3034 7450 24 10100 260/14G24 RMK AO2 LTG DSNT SE-SW SLP149 T02330017
93073KASE ASE20160623155516906/23/16 15:55:31  5-MIN KASE 232255Z 23011G19KT 200V280 10SM -RA FEW070 SCT090 BKN110 23/03 A3033 7460 26 10000 220/11G19 190V270 RMK AO2 LTG DSNT SE-SW P0000 T02280028
93073KASE ASE20160623160016006/23/16 16:00:31  5-MIN KASE 232300Z 15010G18KT 10SM -RA FEW055 BKN095 OVC110 23/03 A3031 7490 25 10100 140/10G18 RMK AO2 LTG DSNT SE-SW PRESFR P0000 T02330028
93073KASE ASE20160623160515606/23/16 16:05:31  5-MIN KASE 232305Z VRB04G18KT 10SM -RA FEW050 BKN095 BKN120 24/02 A3031 7490 22 10200 VRB/04G18 RMK AO2 LTG DSNT SE AND S P0000 T02440017
93073KASE ASE20160623161015006/23/16 16:10:31  5-MIN KASE 232310Z 19011KT 10SM -RA FEW080 SCT095 BKN110 24/03 A3031 7480 25 10200 180/11 RMK AO2 LTG DSNT SE AND S P0000 T02390028
93073KASE ASE20160623161515206/23/16 16:15:31  5-MIN KASE 232315Z 17008KT 10SM FEW080 FEW090 SCT110 23/05 A3031 7480 30 10100 160/08 RMK AO2 LTG DSNT SE AND S RAE11 P0000 T02330050
93073KASE ASE20160623162015206/23/16 16:20:31  5-MIN KASE 232320Z 16009KT 10SM FEW075 FEW085 FEW100 23/05 A3031 7480 31 10100 150/09 RMK AO2 LTG DSNT SE AND S RAE11 P0000 T02280050
93073KASE ASE20160623162513506/23/16 16:25:31  5-MIN KASE 232325Z 16006KT 10SM CLR 23/04 A3031 7480 30 10100 150/06 RMK AO2 LTG DSNT SE AND S RAE11 P0000 T02280044
93073KASE ASE20160623163013506/23/16 16:30:31  5-MIN KASE 232330Z 14007KT 10SM CLR 23/06 A3031 7480 32 10100 130/07 RMK AO2 LTG DSNT SE AND S RAE11 P0000 T02280056
93073KASE ASE20160623163514106/23/16 16:35:31  5-MIN KASE 232335Z 13010G15KT 10SM CLR 22/06 A3031 7490 34 10000 120/10G15 RMK AO2 LTG DSNT SE AND S RAE11 P0000 T02170056
93073KASE ASE20160623164012906/23/16 16:40:31  5-MIN KASE 232340Z 13011KT 10SM CLR 22/05 A3030 7490 33 10000 120/11 RMK AO2 LTG DSNT SE RAE11 P0000 T02170050
93073KASE ASE20160623164513106/23/16 16:45:31  5-MIN KASE 232345Z 14010KT 10SM CLR 22/06 A3031 7480 34 9900 130/10 RMK AO2 LTG DSNT ALQDS RAE11 P0000 T02170056
93073KASE ASE20160623165016806/23/16 16:50:31  5-MIN KASE 232350Z 14013G19KT 10SM CLR 21/06 A3031 7480 37 9900 130/13G19 RMK AO2 LTG DSNT ALQDS RAE11 SLP144 P0000 60000 T02110061 10256 20206 58010
93073KASE ASE20160623165512506/23/16 16:55:31  5-MIN KASE 232355Z 14012G21KT 10SM CLR 21/07 A3031 7480 38 9900 130/12G21 RMK AO2 LTG DSNT ALQDS T02110067
93073KASE ASE20160623170012806/23/16 17:00:31  5-MIN KASE 240000Z 14013G21KT 10SM CLR 21/07 A3031 7480 38 9900 130/13G21 RMK AO2 LTG DSNT E AND SW T02110067
93073KASE ASE20160623170512206/23/16 17:05:31  5-MIN KASE 240005Z 14013KT 10SM CLR 22/07 A3031 7480 37 9900 130/13 RMK AO2 LTG DSNT E AND SW T02170067
93073KASE ASE20160623171010706/23/16 17:10:31  5-MIN KASE 240010Z 14014KT 10SM FEW120 22/07 A3031 7480 37 9900 130/14 RMK AO2 T02170067
93073KASE ASE20160623171511906/23/16 17:15:31  5-MIN KASE 240015Z 14013KT 10SM FEW120 22/07 A3031 7480 39 9900 130/13 RMK AO2 LTG DSNT SW T02170072
93073KASE ASE20160623172011906/23/16 17:20:31  5-MIN KASE 240020Z 14012KT 10SM FEW120 21/07 A3031 7480 38 9900 130/12 RMK AO2 LTG DSNT SW T02110067
93073KASE ASE20160623172511906/23/16 17:25:31  5-MIN KASE 240025Z 15011KT 10SM FEW120 21/06 A3031 7480 37 9900 140/11 RMK AO2 LTG DSNT SW T02110061
93073KASE ASE20160623173011306/23/16 17:30:31  5-MIN KASE 240030Z 15015G21KT 10SM FEW110 22/06 A3031 7490 36 9900 140/15G21 RMK AO2 T02170061
93073KASE ASE20160623173511306/23/16 17:35:31  5-MIN KASE 240035Z 14014G21KT 10SM SCT110 22/06 A3031 7490 34 9900 130/14G21 RMK AO2 T02170056
93073KASE ASE20160623174011306/23/16 17:40:31  5-MIN KASE 240040Z 13013G22KT 10SM BKN110 21/06 A3031 7490 37 9900 120/13G22 RMK AO2 T02110061
93073KASE ASE20160623174511306/23/16 17:45:31  5-MIN KASE 240045Z 13015G22KT 10SM BKN110 21/06 A3030 7490 38 9800 120/15G22 RMK AO2 T02060061
93073KASE ASE20160623175012006/23/16 17:50:31  5-MIN KASE 240050Z 13014G23KT 10SM BKN120 21/06 A3030 7490 38 9800 120/14G23 RMK AO2 SLP140 T02060061
93073KASE ASE20160623175511306/23/16 17:55:31  5-MIN KASE 240055Z 14014G23KT 10SM BKN120 21/06 A3030 7490 37 9900 140/14G23 RMK AO2 T02110061
93073KASE ASE20160623180011406/23/16 18:00:31  5-MIN KASE 240100Z 13015G21KT 10SM BKN110 22/06 A3029 7500 36 10000 120/15G21 RMK AO2 T02170061
93073KASE ASE20160623180511406/23/16 18:05:31  5-MIN KASE 240105Z 12014G22KT 10SM BKN110 22/06 A3029 7500 36 10000 110/14G22 RMK AO2 T02170061
93073KASE ASE20160623181011406/23/16 18:10:31  5-MIN KASE 240110Z 13013G22KT 10SM SCT110 22/06 A3029 7500 36 10000 120/13G22 RMK AO2 T02170061
93073KASE ASE20160623181511406/23/16 18:15:31  5-MIN KASE 240115Z 13015G21KT 10SM SCT110 22/06 A3029 7500 34 10000 120/15G21 RMK AO2 T02170056
93073KASE ASE20160623182010806/23/16 18:20:31  5-MIN KASE 240120Z 14014KT 10SM FEW110 22/06 A3029 7510 34 10000 130/14 RMK AO2 T02170056
93073KASE ASE20160623182510706/23/16 18:25:31  5-MIN KASE 240125Z 14015KT 10SM FEW110 21/06 A3029 7500 36 9900 130/15 RMK AO2 T02110056
93073KASE ASE20160623183011306/23/16 18:30:31  5-MIN KASE 240130Z 13015G20KT 10SM FEW110 21/06 A3028 7510 36 9900 120/15G20 RMK AO2 T02110056
93073KASE ASE20160623183511006/23/16 18:35:31  5-MIN KASE 240135Z 13012G20KT 10SM CLR 21/06 A3028 7510 37 9900 120/12G20 RMK AO2 T02110061
93073KASE ASE20160623184011006/23/16 18:40:31  5-MIN KASE 240140Z 13014G19KT 10SM CLR 21/06 A3028 7510 36 9900 120/14G19 RMK AO2 T02110056
93073KASE ASE20160623184511006/23/16 18:45:31  5-MIN KASE 240145Z 13011G19KT 10SM CLR 21/06 A3028 7510 36 9900 120/11G19 RMK AO2 T02110056
93073KASE ASE20160623185011706/23/16 18:50:31  5-MIN KASE 240150Z 14013G19KT 10SM CLR 21/06 A3029 7500 36 9900 130/13G19 RMK AO2 SLP132 T02110056
93073KASE ASE20160623185510406/23/16 18:55:31  5-MIN KASE 240155Z 14012KT 10SM CLR 21/06 A3028 7510 36 9900 130/12 RMK AO2 T02110056
93073KASE ASE20160623190010406/23/16 19:00:31  5-MIN KASE 240200Z 14011KT 10SM CLR 21/06 A3028 7510 37 9900 130/11 RMK AO2 T02060056
93073KASE ASE20160623190510406/23/16 19:05:31  5-MIN KASE 240205Z 13011KT 10SM CLR 21/06 A3028 7510 37 9900 120/11 RMK AO2 T02060056
93073KASE ASE20160623191010406/23/16 19:10:31  5-MIN KASE 240210Z 13011KT 10SM CLR 20/06 A3028 7510 40 9800 120/11 RMK AO2 T02000061
93073KASE ASE20160623191511606/23/16 19:15:31  5-MIN KASE 240215Z 13010KT 10SM CLR 20/06 A3028 7510 40 9800 130/10 RMK AO2 LTG DSNT NW T02000061
93073KASE ASE20160623192011606/23/16 19:20:31  5-MIN KASE 240220Z 14010KT 10SM CLR 20/06 A3028 7510 40 9800 130/10 RMK AO2 LTG DSNT NW T02000061
93073KASE ASE20160623192511606/23/16 19:25:31  5-MIN KASE 240225Z 14010KT 10SM CLR 19/06 A3028 7510 41 9700 130/10 RMK AO2 LTG DSNT NW T01940061
93073KASE ASE20160623193011606/23/16 19:30:31  5-MIN KASE 240230Z 14010KT 10SM CLR 19/06 A3028 7510 41 9700 130/10 RMK AO2 LTG DSNT NW T01940061
93073KASE ASE20160623193511606/23/16 19:35:31  5-MIN KASE 240235Z 14011KT 10SM CLR 19/06 A3028 7510 41 9700 130/11 RMK AO2 LTG DSNT NW T01940061
93073KASE ASE20160623194011606/23/16 19:40:31  5-MIN KASE 240240Z 14010KT 10SM CLR 19/06 A3028 7510 43 9700 130/10 RMK AO2 LTG DSNT NW T01890061
93073KASE ASE20160623194511606/23/16 19:45:31  5-MIN KASE 240245Z 15008KT 10SM CLR 19/06 A3029 7500 43 9700 140/08 RMK AO2 LTG DSNT NW T01890061
93073KASE ASE20160623195012906/23/16 19:50:31  5-MIN KASE 240250Z 13011KT 10SM CLR 18/06 A3029 7500 44 9600 120/11 RMK AO2 LTG DSNT NW SLP138 T01830061 56010
93073KASE ASE20160623195511606/23/16 19:55:31  5-MIN KASE 240255Z 14012KT 10SM CLR 18/06 A3029 7510 44 9600 130/12 RMK AO2 LTG DSNT NW T01830061
93073KASE ASE20160623200011606/23/16 20:00:31  5-MIN KASE 240300Z 14009KT 10SM CLR 18/06 A3029 7500 44 9600 130/09 RMK AO2 LTG DSNT NW T01830061
93073KASE ASE20160623200511606/23/16 20:05:31  5-MIN KASE 240305Z 14008KT 10SM CLR 18/07 A3029 7500 46 9600 130/08 RMK AO2 LTG DSNT NW T01830067
93073KASE ASE20160623201011606/23/16 20:10:31  5-MIN KASE 240310Z 14010KT 10SM CLR 18/07 A3030 7500 48 9500 130/10 RMK AO2 LTG DSNT NW T01780067
93073KASE ASE20160623201510406/23/16 20:15:31  5-MIN KASE 240315Z 14009KT 10SM CLR 18/06 A3030 7490 46 9500 130/09 RMK AO2 T01780061
93073KASE ASE20160623202010406/23/16 20:20:31  5-MIN KASE 240320Z 14007KT 10SM CLR 18/06 A3030 7490 46 9500 140/07 RMK AO2 T01780061
93073KASE ASE20160623202510406/23/16 20:25:31  5-MIN KASE 240325Z 16008KT 10SM CLR 18/06 A3031 7490 46 9500 150/08 RMK AO2 T01780061
93073KASE ASE20160623203010406/23/16 20:30:31  5-MIN KASE 240330Z VRB04KT 10SM CLR 17/07 A3031 7480 49 9500 VRB/04 RMK AO2 T01720067
93073KASE ASE20160623203510706/23/16 20:35:31  5-MIN KASE 240335Z 22006KT 10SM FEW100 16/07 A3032 7470 53 9300 210/06 RMK AO2 T01610067
93073KASE ASE20160623204011406/23/16 20:40:31  5-MIN KASE 240340Z 24008KT 10SM SCT100 16/07 A3033 7460 53 9300 230/08 RMK AO2 PRESRR T01610067
93073KASE ASE20160623204510706/23/16 20:45:31  5-MIN KASE 240345Z VRB06KT 10SM SCT100 16/07 A3033 7460 53 9300 VRB/06 RMK AO2 T01610067
93073KASE ASE20160623205011406/23/16 20:50:31  5-MIN KASE 240350Z VRB04KT 10SM FEW100 16/07 A3034 7460 53 9300 VRB/04 RMK AO2 SLP154 T01610067
93073KASE ASE20160623205510706/23/16 20:55:31  5-MIN KASE 240355Z 00000KT 10SM FEW100 16/07 A3034 7450 55 9200 000/00 RMK AO2 T01560067
93073KASE ASE20160623210010706/23/16 21:00:31  5-MIN KASE 240400Z 21004KT 10SM FEW100 14/07 A3034 7450 61 9100 210/04 RMK AO2 T01440072
93073KASE ASE20160623210510706/23/16 21:05:31  5-MIN KASE 240405Z 23004KT 10SM FEW100 13/07 A3034 7450 66 9000 220/04 RMK AO2 T01330072
93073KASE ASE20160623211010406/23/16 21:10:31  5-MIN KASE 240410Z 21009KT 10SM CLR 14/07 A3034 7450 64 9100 200/09 RMK AO2 T01390072
93073KASE ASE20160623211510406/23/16 21:15:31  5-MIN KASE 240415Z 19006KT 10SM CLR 14/07 A3034 7450 61 9100 190/06 RMK AO2 T01440072
93073KASE ASE20160623212010406/23/16 21:20:31  5-MIN KASE 240420Z 20006KT 10SM CLR 14/07 A3034 7450 59 9100 190/06 RMK AO2 T01440067
93073KASE ASE20160623212510406/23/16 21:25:31  5-MIN KASE 240425Z 19007KT 10SM CLR 15/07 A3034 7450 57 9200 180/07 RMK AO2 T01500067
93073KASE ASE20160623213010406/23/16 21:30:31  5-MIN KASE 240430Z 18006KT 10SM CLR 15/07 A3034 7450 57 9200 170/06 RMK AO2 T01500067
93073KASE ASE20160623213510406/23/16 21:35:31  5-MIN KASE 240435Z 21006KT 10SM CLR 14/07 A3034 7450 59 9100 200/06 RMK AO2 T01440067
93073KASE ASE20160623214010406/23/16 21:40:31  5-MIN KASE 240440Z 21010KT 10SM CLR 15/07 A3035 7450 57 9200 200/10 RMK AO2 T01500067
93073KASE ASE20160623214510406/23/16 21:45:31  5-MIN KASE 240445Z 19006KT 10SM CLR 16/06 A3035 7450 53 9200 190/06 RMK AO2 T01560061
93073KASE ASE20160623215011106/23/16 21:50:31  5-MIN KASE 240450Z 15007KT 10SM CLR 16/07 A3035 7450 55 9200 140/07 RMK AO2 SLP149 T01560067
93073KASE ASE20160623215510406/23/16 21:55:31  5-MIN KASE 240455Z 16010KT 10SM CLR 16/06 A3035 7450 53 9200 150/10 RMK AO2 T01560061
93073KASE ASE20160623220010406/23/16 22:00:31  5-MIN KASE 240500Z 18007KT 10SM CLR 15/07 A3034 7450 57 9200 170/07 RMK AO2 T01500067
93073KASE ASE20160623220510406/23/16 22:05:31  5-MIN KASE 240505Z 20007KT 10SM CLR 14/07 A3035 7450 59 9100 190/07 RMK AO2 T01440067
93073KASE ASE20160623221010406/23/16 22:10:31  5-MIN KASE 240510Z 21008KT 10SM CLR 14/07 A3035 7450 59 9100 200/08 RMK AO2 T01440067
93073KASE ASE20160623221510406/23/16 22:15:31  5-MIN KASE 240515Z 18008KT 10SM CLR 14/06 A3034 7450 57 9100 180/08 RMK AO2 T01440061
93073KASE ASE20160623222010406/23/16 22:20:31  5-MIN KASE 240520Z 19007KT 10SM CLR 14/06 A3035 7450 57 9100 180/07 RMK AO2 T01440061
93073KASE ASE20160623222510406/23/16 22:25:31  5-MIN KASE 240525Z 20008KT 10SM CLR 14/07 A3034 7450 61 9100 190/08 RMK AO2 T01390067
93073KASE ASE20160623223010406/23/16 22:30:31  5-MIN KASE 240530Z 21010KT 10SM CLR 14/07 A3034 7450 61 9100 200/10 RMK AO2 T01390067
93073KASE ASE20160623223510406/23/16 22:35:31  5-MIN KASE 240535Z 21009KT 10SM CLR 14/06 A3034 7450 59 9100 200/09 RMK AO2 T01390061
93073KASE ASE20160623224010406/23/16 22:40:31  5-MIN KASE 240540Z 21009KT 10SM CLR 13/07 A3034 7460 64 9000 210/09 RMK AO2 T01330067
93073KASE ASE20160623224510406/23/16 22:45:31  5-MIN KASE 240545Z 22009KT 10SM CLR 14/06 A3034 7460 59 9100 210/09 RMK AO2 T01390061
93073KASE ASE20160623225012906/23/16 22:50:31  5-MIN KASE 240550Z 21008KT 10SM CLR 14/06 A3034 7460 59 9100 200/08 RMK AO2 SLP149 T01390061 10217 20133 56007
93073KASE ASE20160623225511606/23/16 22:55:31  5-MIN KASE 240555Z 20007KT 10SM CLR 14/06 A3034 7460 59 9100 190/07 RMK AO2 LTG DSNT NE T01390061
93073KASE ASE20160623230011606/23/16 23:00:31  5-MIN KASE 240600Z 19009KT 10SM CLR 13/06 A3033 7460 61 9000 180/09 RMK AO2 LTG DSNT NE T01330061
93073KASE ASE20160623230511606/23/16 23:05:31  5-MIN KASE 240605Z 19007KT 10SM CLR 14/06 A3033 7460 57 9100 180/07 RMK AO2 LTG DSNT NE T01440061
93073KASE ASE20160623231011606/23/16 23:10:31  5-MIN KASE 240610Z 20007KT 10SM CLR 13/06 A3033 7470 61 9000 190/07 RMK AO2 LTG DSNT NE T01330061
93073KASE ASE20160623231511606/23/16 23:15:31  5-MIN KASE 240615Z 20005KT 10SM CLR 13/06 A3032 7470 61 9000 200/05 RMK AO2 LTG DSNT NE T01330061
93073KASE ASE20160623232010406/23/16 23:20:31  5-MIN KASE 240620Z 21006KT 10SM CLR 14/06 A3032 7470 59 9100 200/06 RMK AO2 T01390061
93073KASE ASE20160623232510406/23/16 23:25:31  5-MIN KASE 240625Z 21004KT 10SM CLR 14/06 A3032 7470 59 9100 200/04 RMK AO2 T01390061
93073KASE ASE20160623233010406/23/16 23:30:31  5-MIN KASE 240630Z 21006KT 10SM CLR 13/06 A3032 7470 61 9000 200/06 RMK AO2 T01330061
93073KASE ASE20160623233510406/23/16 23:35:31  5-MIN KASE 240635Z 23005KT 10SM CLR 13/06 A3032 7470 63 9000 220/05 RMK AO2 T01280061
93073KASE ASE20160623234010406/23/16 23:40:31  5-MIN KASE 240640Z 24004KT 10SM CLR 13/06 A3032 7470 61 9000 230/04 RMK AO2 T01330061
93073KASE ASE20160623234510406/23/16 23:45:31  5-MIN KASE 240645Z 22003KT 10SM CLR 13/06 A3032 7470 59 9000 210/03 RMK AO2 T01330056
93073KASE ASE20160623235012106/23/16 23:50:31  5-MIN KASE 240650Z 22004KT 10SM CLR 13/06 A3032 7470 63 9000 210/04 RMK AO2 SLP147 T01280061 402560111
93073KASE ASE20160623235510406/23/16 23:55:31  5-MIN KASE 240655Z 20006KT 10SM CLR 12/06 A3032 7470 68 8800 190/06 RMK AO2 T01170061
93073KASE ASE20160624000010406/24/16 00:00:31  5-MIN KASE 240700Z 22006KT 10SM CLR 13/06 A3032 7470 63 9000 210/06 RMK AO2 T01280061
93073KASE ASE20160624000510406/24/16 00:05:31  5-MIN KASE 240705Z 21008KT 10SM CLR 13/06 A3032 7470 63 9000 210/08 RMK AO2 T01280061
93073KASE ASE20160624001010406/24/16 00:10:31  5-MIN KASE 240710Z 21006KT 10SM CLR 12/06 A3032 7480 66 8900 200/06 RMK AO2 T01220061
93073KASE ASE20160624001510406/24/16 00:15:31  5-MIN KASE 240715Z 21006KT 10SM CLR 12/06 A3031 7480 66 8900 200/06 RMK AO2 T01220061
93073KASE ASE20160624002010406/24/16 00:20:31  5-MIN KASE 240720Z 21007KT 10SM CLR 12/06 A3032 7480 68 8800 200/07 RMK AO2 T01170061
93073KASE ASE20160624002510406/24/16 00:25:31  5-MIN KASE 240725Z 21008KT 10SM CLR 12/06 A3031 7480 68 8800 200/08 RMK AO2 T01170061
93073KASE ASE20160624003010406/24/16 00:30:31  5-MIN KASE 240730Z 21008KT 10SM CLR 12/06 A3031 7480 68 8800 200/08 RMK AO2 T01170061
93073KASE ASE20160624003510406/24/16 00:35:31  5-MIN KASE 240735Z 21008KT 10SM CLR 12/06 A3031 7480 68 8800 200/08 RMK AO2 T01170061
93073KASE ASE20160624004010406/24/16 00:40:31  5-MIN KASE 240740Z 19007KT 10SM CLR 12/06 A3031 7480 66 8900 180/07 RMK AO2 T01220061
93073KASE ASE20160624004510406/24/16 00:45:31  5-MIN KASE 240745Z 20009KT 10SM CLR 12/06 A3031 7490 68 8800 190/09 RMK AO2 T01170061
93073KASE ASE20160624005011106/24/16 00:50:31  5-MIN KASE 240750Z 21009KT 10SM CLR 12/06 A3031 7480 68 8800 200/09 RMK AO2 SLP142 T01170061
93073KASE ASE20160624005510406/24/16 00:55:31  5-MIN KASE 240755Z 22008KT 10SM CLR 12/06 A3031 7490 68 8800 210/08 RMK AO2 T01170061
93073KASE ASE20160624010010406/24/16 01:00:31  5-MIN KASE 240800Z 23008KT 10SM CLR 12/06 A3030 7490 66 8800 220/08 RMK AO2 T01170056
93073KASE ASE20160624010510406/24/16 01:05:31  5-MIN KASE 240805Z 21008KT 10SM CLR 13/06 A3030 7490 61 9000 200/08 RMK AO2 T01280056
93073KASE ASE20160624011010406/24/16 01:10:31  5-MIN KASE 240810Z 20008KT 10SM CLR 12/06 A3030 7490 63 8900 190/08 RMK AO2 T01220056
93073KASE ASE20160624011510406/24/16 01:15:31  5-MIN KASE 240815Z 22009KT 10SM CLR 12/06 A3030 7490 63 8900 210/09 RMK AO2 T01220056
93073KASE ASE20160624012010406/24/16 01:20:31  5-MIN KASE 240820Z 22008KT 10SM CLR 12/06 A3030 7490 63 8900 210/08 RMK AO2 T01220056
93073KASE ASE20160624012510406/24/16 01:25:31  5-MIN KASE 240825Z 22007KT 10SM CLR 12/06 A3030 7490 63 8900 210/07 RMK AO2 T01220056
93073KASE ASE20160624013010406/24/16 01:30:31  5-MIN KASE 240830Z 22005KT 10SM CLR 12/06 A3030 7490 63 8900 210/05 RMK AO2 T01220056
93073KASE ASE20160624013510406/24/16 01:35:31  5-MIN KASE 240835Z 22006KT 10SM CLR 12/06 A3029 7500 63 8900 210/06 RMK AO2 T01220056
93073KASE ASE20160624014010406/24/16 01:40:31  5-MIN KASE 240840Z 20005KT 10SM CLR 12/06 A3030 7500 63 8900 190/05 RMK AO2 T01220056
93073KASE ASE20160624014510406/24/16 01:45:31  5-MIN KASE 240845Z 21006KT 10SM CLR 12/06 A3030 7500 63 8900 200/06 RMK AO2 T01220056
93073KASE ASE20160624015011706/24/16 01:50:31  5-MIN KASE 240850Z 20004KT 10SM CLR 12/06 A3029 7500 66 8900 190/04 RMK AO2 SLP131 T01170056 50014
93073KASE ASE20160624015510406/24/16 01:55:31  5-MIN KASE 240855Z 20003KT 10SM CLR 11/06 A3029 7500 68 8800 200/03 RMK AO2 T01110056
93073KASE ASE20160624020010406/24/16 02:00:31  5-MIN KASE 240900Z 21003KT 10SM CLR 10/06 A3029 7500 74 8700 200/03 RMK AO2 T01000056
93073KASE ASE20160624020510406/24/16 02:05:31  5-MIN KASE 240905Z 00000KT 10SM CLR 10/06 A3029 7500 74 8700 000/00 RMK AO2 T01000056
93073KASE ASE20160624021010406/24/16 02:10:31  5-MIN KASE 240910Z 00000KT 10SM CLR 10/06 A3029 7500 74 8700 000/00 RMK AO2 T01000056
93073KASE ASE20160624021510406/24/16 02:15:31  5-MIN KASE 240915Z VRB03KT 10SM CLR 11/06 A3029 7500 71 8700 VRB/03 RMK AO2 T01060056
93073KASE ASE20160624022010406/24/16 02:20:31  5-MIN KASE 240920Z 00000KT 10SM CLR 09/05 A3030 7500 74 8600 000/00 RMK AO2 T00940050
93073KASE ASE20160624022510406/24/16 02:25:31  5-MIN KASE 240925Z 24003KT 10SM CLR 09/05 A3029 7500 74 8600 230/03 RMK AO2 T00940050
93073KASE ASE20160624023010406/24/16 02:30:31  5-MIN KASE 240930Z 00000KT 10SM CLR 08/06 A3030 7500 82 8500 000/00 RMK AO2 T00830056
93073KASE ASE20160624023510706/24/16 02:35:31  5-MIN KASE 240935Z 00000KT 10SM FEW110 09/06 A3030 7490 79 8500 000/00 RMK AO2 T00890056
93073KASE ASE20160624024010706/24/16 02:40:31  5-MIN KASE 240940Z 17003KT 10SM SCT110 09/06 A3030 7490 76 8600 160/03 RMK AO2 T00940056
93073KASE ASE20160624024510706/24/16 02:45:31  5-MIN KASE 240945Z 00000KT 10SM FEW110 09/06 A3030 7490 76 8600 000/00 RMK AO2 T00940056
93073KASE ASE20160624025011406/24/16 02:50:31  5-MIN KASE 240950Z 18005KT 10SM SCT120 09/06 A3030 7490 76 8600 170/05 RMK AO2 SLP136 T00940056
93073KASE ASE20160624025510706/24/16 02:55:31  5-MIN KASE 240955Z 18006KT 10SM SCT120 11/06 A3030 7490 71 8700 170/06 RMK AO2 T01060056
93073KASE ASE20160624030010706/24/16 03:00:31  5-MIN KASE 241000Z 20005KT 10SM BKN120 10/06 A3031 7490 74 8700 190/05 RMK AO2 T01000056
93073KASE ASE20160624030510706/24/16 03:05:31  5-MIN KASE 241005Z 21006KT 10SM BKN120 10/06 A3031 7480 74 8700 200/06 RMK AO2 T01000056
93073KASE ASE20160624031010706/24/16 03:10:31  5-MIN KASE 241010Z 21005KT 10SM BKN120 11/06 A3031 7490 71 8700 200/05 RMK AO2 T01060056
93073KASE ASE20160624031510706/24/16 03:15:31  5-MIN KASE 241015Z 20006KT 10SM BKN120 11/06 A3031 7490 71 8700 190/06 RMK AO2 T01060056
93073KASE ASE20160624032010706/24/16 03:20:31  5-MIN KASE 241020Z 18007KT 10SM BKN120 11/06 A3031 7490 68 8800 170/07 RMK AO2 T01110056
93073KASE ASE20160624032510706/24/16 03:25:31  5-MIN KASE 241025Z 18006KT 10SM BKN120 11/06 A3030 7490 68 8800 170/06 RMK AO2 T01110056
93073KASE ASE20160624033010706/24/16 03:30:31  5-MIN KASE 241030Z 19008KT 10SM SCT120 10/06 A3030 7490 74 8700 180/08 RMK AO2 T01000056
93073KASE ASE20160624033510706/24/16 03:35:31  5-MIN KASE 241035Z 19007KT 10SM SCT120 10/06 A3030 7490 74 8700 180/07 RMK AO2 T01000056
93073KASE ASE20160624034010706/24/16 03:40:31  5-MIN KASE 241040Z 19008KT 10SM FEW120 10/06 A3030 7490 74 8700 180/08 RMK AO2 T01000056
93073KASE ASE20160624034510406/24/16 03:45:31  5-MIN KASE 241045Z 18007KT 10SM CLR 11/06 A3030 7490 68 8800 170/07 RMK AO2 T01110056
93073KASE ASE20160624035011106/24/16 03:50:31  5-MIN KASE 241050Z 19009KT 10SM CLR 10/06 A3030 7490 74 8700 180/09 RMK AO2 SLP143 T01000056
93073KASE ASE20160624035510406/24/16 03:55:31  5-MIN KASE 241055Z 19008KT 10SM CLR 09/06 A3030 7490 76 8600 180/08 RMK AO2 T00940056
93073KASE ASE20160624040010406/24/16 04:00:31  5-MIN KASE 241100Z 19007KT 10SM CLR 10/06 A3031 7490 74 8700 180/07 RMK AO2 T01000056
93073KASE ASE20160624040510406/24/16 04:05:31  5-MIN KASE 241105Z 21005KT 10SM CLR 09/06 A3030 7490 76 8600 200/05 RMK AO2 T00940056
93073KASE ASE20160624041010406/24/16 04:10:31  5-MIN KASE 241110Z 21006KT 10SM CLR 09/05 A3030 7490 76 8500 200/06 RMK AO2 T00890050
93073KASE ASE20160624041510406/24/16 04:15:31  5-MIN KASE 241115Z 21004KT 10SM CLR 10/05 A3030 7490 71 8700 210/04 RMK AO2 T01000050
93073KASE ASE20160624042010406/24/16 04:20:31  5-MIN KASE 241120Z 21005KT 10SM CLR 09/05 A3030 7490 76 8500 200/05 RMK AO2 T00890050
93073KASE ASE20160624042510406/24/16 04:25:31  5-MIN KASE 241125Z 20005KT 10SM CLR 09/05 A3029 7500 74 8600 190/05 RMK AO2 T00940050
93073KASE ASE20160624043010406/24/16 04:30:31  5-MIN KASE 241130Z 19005KT 10SM CLR 09/05 A3029 7500 76 8600 180/05 RMK AO2 T00890050
93073KASE ASE20160624043510406/24/16 04:35:31  5-MIN KASE 241135Z 20004KT 10SM CLR 09/05 A3029 7500 76 8500 190/04 RMK AO2 T00890050
93073KASE ASE20160624044010406/24/16 04:40:31  5-MIN KASE 241140Z 21005KT 10SM CLR 08/05 A3029 7500 79 8500 210/05 RMK AO2 T00830050
93073KASE ASE20160624044510406/24/16 04:45:31  5-MIN KASE 241145Z 22007KT 10SM CLR 08/05 A3029 7500 79 8500 210/07 RMK AO2 T00830050
93073KASE ASE20160624045012906/24/16 04:50:31  5-MIN KASE 241150Z 19004KT 10SM CLR 08/05 A3029 7500 79 8500 180/04 RMK AO2 SLP147 T00830050 10144 20083 58011
93073KASE ASE20160624045510406/24/16 04:55:31  5-MIN KASE 241155Z 17003KT 10SM CLR 09/05 A3029 7500 74 8600 160/03 RMK AO2 T00940050
93073KASE ASE20160624050010406/24/16 05:00:31  5-MIN KASE 241200Z 24003KT 10SM CLR 09/05 A3029 7500 76 8600 230/03 RMK AO2 T00890050
93073KASE ASE20160624050510406/24/16 05:05:31  5-MIN KASE 241205Z 00000KT 10SM CLR 08/05 A3029 7500 82 8400 000/00 RMK AO2 T00780050
93073KASE ASE20160624051010406/24/16 05:10:31  5-MIN KASE 241210Z 00000KT 10SM CLR 09/05 A3029 7500 76 8600 000/00 RMK AO2 T00890050
93073KASE ASE20160624051510406/24/16 05:15:31  5-MIN KASE 241215Z 00000KT 10SM CLR 09/05 A3029 7500 76 8500 000/00 RMK AO2 T00890050
93073KASE ASE20160624052010406/24/16 05:20:31  5-MIN KASE 241220Z 00000KT 10SM CLR 09/05 A3029 7500 76 8600 000/00 RMK AO2 T00890050
93073KASE ASE20160624052510406/24/16 05:25:31  5-MIN KASE 241225Z 00000KT 10SM CLR 09/06 A3029 7500 76 8600 000/00 RMK AO2 T00940056
93073KASE ASE20160624053010406/24/16 05:30:31  5-MIN KASE 241230Z 00000KT 10SM CLR 09/06 A3029 7500 76 8600 000/00 RMK AO2 T00940056
93073KASE ASE20160624053510406/24/16 05:35:31  5-MIN KASE 241235Z 00000KT 10SM CLR 09/06 A3029 7500 76 8600 000/00 RMK AO2 T00940056
93073KASE ASE20160624054010406/24/16 05:40:31  5-MIN KASE 241240Z 00000KT 10SM CLR 10/06 A3029 7500 74 8700 000/00 RMK AO2 T01000056
93073KASE ASE20160624054510406/24/16 05:45:31  5-MIN KASE 241245Z 00000KT 10SM CLR 11/06 A3029 7500 74 8700 000/00 RMK AO2 T01060061
93073KASE ASE20160624055011106/24/16 05:50:31  5-MIN KASE 241250Z 00000KT 10SM CLR 11/06 A3029 7500 71 8800 000/00 RMK AO2 SLP140 T01110061
93073KASE ASE20160624055510406/24/16 05:55:31  5-MIN KASE 241255Z 00000KT 10SM CLR 12/07 A3029 7500 71 8900 000/00 RMK AO2 T01170067
93073KASE ASE20160624060010406/24/16 06:00:31  5-MIN KASE 241300Z 00000KT 10SM CLR 12/07 A3029 7500 68 8900 000/00 RMK AO2 T01220067
93073KASE ASE20160624060510406/24/16 06:05:31  5-MIN KASE 241305Z 00000KT 10SM CLR 12/06 A3029 7500 68 8900 000/00 RMK AO2 T01170061
93073KASE ASE20160624061010406/24/16 06:10:31  5-MIN KASE 241310Z 00000KT 10SM CLR 13/06 A3029 7500 63 9000 000/00 RMK AO2 T01280061
93073KASE ASE20160624061510406/24/16 06:15:31  5-MIN KASE 241315Z 35003KT 10SM CLR 13/07 A3029 7500 64 9100 340/03 RMK AO2 T01330067
93073KASE ASE20160624062010406/24/16 06:20:31  5-MIN KASE 241320Z 00000KT 10SM CLR 13/06 A3029 7500 61 9100 000/00 RMK AO2 T01330061
93073KASE ASE20160624062510406/24/16 06:25:31  5-MIN KASE 241325Z 02003KT 10SM CLR 13/07 A3029 7500 64 9000 010/03 RMK AO2 T01330067
93073KASE ASE20160624063010406/24/16 06:30:31  5-MIN KASE 241330Z 00000KT 10SM CLR 14/06 A3029 7500 59 9100 000/00 RMK AO2 T01390061
93073KASE ASE20160624063510406/24/16 06:35:31  5-MIN KASE 241335Z 00000KT 10SM CLR 14/06 A3030 7500 59 9100 000/00 RMK AO2 T01390061
93073KASE ASE20160624064010406/24/16 06:40:31  5-MIN KASE 241340Z 01003KT 10SM CLR 14/06 A3029 7500 57 9200 360/03 RMK AO2 T01440061
93073KASE ASE20160624064510406/24/16 06:45:31  5-MIN KASE 241345Z 36003KT 10SM CLR 14/07 A3030 7490 59 9200 350/03 RMK AO2 T01440067
93073KASE ASE20160624065011106/24/16 06:50:31  5-MIN KASE 241350Z 34004KT 10SM CLR 14/07 A3030 7490 59 9200 330/04 RMK AO2 SLP135 T01440067
93073KASE ASE20160624065510406/24/16 06:55:31  5-MIN KASE 241355Z 34004KT 10SM CLR 14/07 A3030 7500 61 9200 330/04 RMK AO2 T01440072
93073KASE ASE20160624070010406/24/16 07:00:31  5-MIN KASE 241400Z 00000KT 10SM CLR 15/07 A3030 7500 59 9200 000/00 RMK AO2 T01500072
93073KASE ASE20160624070510406/24/16 07:05:31  5-MIN KASE 241405Z 34003KT 10SM CLR 15/07 A3030 7500 59 9200 330/03 RMK AO2 T01500072
93073KASE ASE20160624071010406/24/16 07:10:31  5-MIN KASE 241410Z 33004KT 10SM CLR 16/07 A3030 7500 57 9300 330/04 RMK AO2 T01560072
93073KASE ASE20160624071510406/24/16 07:15:31  5-MIN KASE 241415Z 36003KT 10SM CLR 16/06 A3029 7500 51 9400 350/03 RMK AO2 T01610061
93073KASE ASE20160624072010406/24/16 07:20:31  5-MIN KASE 241420Z VRB03KT 10SM CLR 16/06 A3029 7500 51 9400 VRB/03 RMK AO2 T01610061
93073KASE ASE20160624072510406/24/16 07:25:31  5-MIN KASE 241425Z 00000KT 10SM CLR 17/07 A3029 7500 51 9400 000/00 RMK AO2 T01670067
93073KASE ASE20160624073010406/24/16 07:30:31  5-MIN KASE 241430Z 35003KT 10SM CLR 17/07 A3029 7500 49 9500 340/03 RMK AO2 T01720067
93073KASE ASE20160624073510406/24/16 07:35:31  5-MIN KASE 241435Z 35003KT 10SM CLR 17/07 A3029 7500 51 9500 340/03 RMK AO2 T01720072
93073KASE ASE20160624074010406/24/16 07:40:31  5-MIN KASE 241440Z 36004KT 10SM CLR 17/08 A3029 7500 53 9500 350/04 RMK AO2 T01720078
93073KASE ASE20160624074510406/24/16 07:45:31  5-MIN KASE 241445Z 35005KT 10SM CLR 18/08 A3029 7500 51 9500 340/05 RMK AO2 T01780078
93073KASE ASE20160624075011706/24/16 07:50:31  5-MIN KASE 241450Z 36005KT 10SM CLR 18/07 A3029 7500 49 9500 350/05 RMK AO2 SLP130 T01780072 58001
93073KASE ASE20160624075510406/24/16 07:55:31  5-MIN KASE 241455Z 35005KT 10SM CLR 18/08 A3029 7500 51 9500 340/05 RMK AO2 T01780078
93073KASE ASE20160624080010406/24/16 08:00:31  5-MIN KASE 241500Z 36005KT 10SM CLR 18/08 A3029 7500 53 9500 350/05 RMK AO2 T01780083
93073KASE ASE20160624080510406/24/16 08:05:31  5-MIN KASE 241505Z 35005KT 10SM CLR 18/09 A3029 7500 55 9500 340/05 RMK AO2 T01780089
93073KASE ASE20160624081010406/24/16 08:10:31  5-MIN KASE 241510Z 36006KT 10SM CLR 19/08 A3029 7500 50 9700 350/06 RMK AO2 T01890083
93073KASE ASE20160624081510406/24/16 08:15:31  5-MIN KASE 241515Z 36005KT 10SM CLR 19/08 A3029 7500 50 9700 350/05 RMK AO2 T01890083
93073KASE ASE20160624082010406/24/16 08:20:31  5-MIN KASE 241520Z 36005KT 10SM CLR 19/08 A3029 7500 50 9700 350/05 RMK AO2 T01890083
93073KASE ASE20160624082510406/24/16 08:25:31  5-MIN KASE 241525Z 35005KT 10SM CLR 19/09 A3029 7500 50 9700 340/05 RMK AO2 T01940089
93073KASE ASE20160624083010406/24/16 08:30:31  5-MIN KASE 241530Z 35006KT 10SM CLR 19/08 A3029 7500 48 9700 350/06 RMK AO2 T01940083
93073KASE ASE20160624083510406/24/16 08:35:31  5-MIN KASE 241535Z 36006KT 10SM CLR 19/08 A3028 7510 48 9700 350/06 RMK AO2 T01940083
93073KASE ASE20160624084010406/24/16 08:40:31  5-MIN KASE 241540Z 36006KT 10SM CLR 19/09 A3028 7510 52 9700 350/06 RMK AO2 T01890089
93073KASE ASE20160624084510406/24/16 08:45:31  5-MIN KASE 241545Z 36005KT 10SM CLR 19/09 A3028 7510 52 9700 350/05 RMK AO2 T01890089
93073KASE ASE20160624085011106/24/16 08:50:31  5-MIN KASE 241550Z 35006KT 10SM CLR 20/09 A3028 7510 48 9800 340/06 RMK AO2 SLP125 T02000089
93073KASE ASE20160624085510406/24/16 08:55:31  5-MIN KASE 241555Z 36006KT 10SM CLR 20/08 A3028 7510 46 9800 350/06 RMK AO2 T02000083
93073KASE ASE20160624090010406/24/16 09:00:31  5-MIN KASE 241600Z 35007KT 10SM CLR 21/08 A3027 7520 45 9900 350/07 RMK AO2 T02060083
93073KASE ASE20160624090510406/24/16 09:05:31  5-MIN KASE 241605Z 36007KT 10SM CLR 21/08 A3028 7510 43 9900 350/07 RMK AO2 T02110083
93073KASE ASE20160624091010406/24/16 09:10:31  5-MIN KASE 241610Z 35007KT 10SM CLR 21/08 A3028 7510 43 9900 340/07 RMK AO2 T02110083
93073KASE ASE20160624091510506/24/16 09:15:31  5-MIN KASE 241615Z 35007KT 10SM CLR 22/09 A3028 7510 43 10000 340/07 RMK AO2 T02170089
93073KASE ASE20160624092010506/24/16 09:20:31  5-MIN KASE 241620Z 36006KT 10SM CLR 22/09 A3028 7510 43 10000 350/06 RMK AO2 T02170089
93073KASE ASE20160624092510506/24/16 09:25:31  5-MIN KASE 241625Z 35007KT 10SM CLR 22/09 A3028 7510 42 10000 340/07 RMK AO2 T02220089
93073KASE ASE20160624093010506/24/16 09:30:31  5-MIN KASE 241630Z 36007KT 10SM CLR 23/09 A3028 7510 42 10100 350/07 RMK AO2 T02280094
93073KASE ASE20160624093510506/24/16 09:35:31  5-MIN KASE 241635Z 02007KT 10SM CLR 23/09 A3028 7510 42 10100 010/07 RMK AO2 T02280094
93073KASE ASE20160624094010506/24/16 09:40:31  5-MIN KASE 241640Z 02006KT 10SM CLR 23/11 A3028 7510 44 10200 010/06 RMK AO2 T02330106
93073KASE ASE20160624094510506/24/16 09:45:31  5-MIN KASE 241645Z VRB04KT 10SM CLR 23/10 A3028 7510 42 10200 VRB/04 RMK AO2 T02330100
93073KASE ASE20160624095011206/24/16 09:50:31  5-MIN KASE 241650Z 36008KT 10SM CLR 24/10 A3028 7510 41 10200 360/08 RMK AO2 SLP117 T02390100
93073KASE ASE20160624095510506/24/16 09:55:31  5-MIN KASE 241655Z 01007KT 10SM CLR 24/09 A3028 7510 38 10200 360/07 RMK AO2 T02390089
93073KASE ASE20160624100010506/24/16 10:00:31  5-MIN KASE 241700Z 01007KT 10SM CLR 24/09 A3028 7510 36 10300 360/07 RMK AO2 T02440089
93073KASE ASE20160624100510506/24/16 10:05:31  5-MIN KASE 241705Z VRB05KT 10SM CLR 24/09 A3028 7510 36 10300 VRB/05 RMK AO2 T02440089
93073KASE ASE20160624101010506/24/16 10:10:31  5-MIN KASE 241710Z VRB04KT 10SM CLR 25/08 A3028 7510 34 10300 VRB/04 RMK AO2 T02500083
93073KASE ASE20160624101510506/24/16 10:15:31  5-MIN KASE 241715Z 01006KT 10SM CLR 25/08 A3027 7520 34 10300 360/06 RMK AO2 T02500083
93073KASE ASE20160624102010506/24/16 10:20:31  5-MIN KASE 241720Z 36007KT 10SM CLR 25/08 A3027 7520 34 10300 350/07 RMK AO2 T02500083
93073KASE ASE20160624102510506/24/16 10:25:31  5-MIN KASE 241725Z 36008KT 10SM CLR 26/09 A3027 7520 35 10400 350/08 RMK AO2 T02560094
93073KASE ASE20160624103010506/24/16 10:30:31  5-MIN KASE 241730Z 02008KT 10SM CLR 26/09 A3027 7520 34 10400 010/08 RMK AO2 T02560089
93073KASE ASE20160624103510506/24/16 10:35:31  5-MIN KASE 241735Z 01009KT 10SM CLR 26/09 A3027 7520 35 10400 360/09 RMK AO2 T02560094
93073KASE ASE20160624104010506/24/16 10:40:31  5-MIN KASE 241740Z 01008KT 10SM CLR 26/09 A3026 7520 35 10400 360/08 RMK AO2 T02560094
93073KASE ASE20160624104510506/24/16 10:45:31  5-MIN KASE 241745Z 01009KT 10SM CLR 26/09 A3027 7520 34 10400 360/09 RMK AO2 T02560089
93073KASE ASE20160624105014106/24/16 10:50:31  5-MIN KASE 241750Z 02007KT 10SM CLR 26/08 A3026 7520 32 10500 010/07 RMK AO2 LTG DSNT E SLP111 T02610083 10261 20078 50000
93073KASE ASE20160624105511906/24/16 10:55:31  5-MIN KASE 241755Z 03008KT 10SM FEW120 26/09 A3026 7520 34 10400 030/08 RMK AO2 LTG DSNT E T02560089
93073KASE ASE20160624110011906/24/16 11:00:31  5-MIN KASE 241800Z 02008KT 10SM FEW120 26/09 A3026 7530 34 10400 010/08 RMK AO2 LTG DSNT E T02560089
93073KASE ASE20160624110511906/24/16 11:05:31  5-MIN KASE 241805Z 36007KT 10SM FEW120 26/08 A3026 7530 31 10500 350/07 RMK AO2 LTG DSNT E T02610078
93073KASE ASE20160624111011906/24/16 11:10:31  5-MIN KASE 241810Z 35009KT 10SM FEW120 27/06 A3026 7530 26 10500 340/09 RMK AO2 LTG DSNT E T02670061
93073KASE ASE20160624111511906/24/16 11:15:31  5-MIN KASE 241815Z 36009KT 10SM FEW120 27/06 A3026 7530 26 10500 350/09 RMK AO2 LTG DSNT E T02670061
93073KASE ASE20160624112012606/24/16 11:20:31  5-MIN KASE 241820Z 02006KT 10SM FEW120 27/07 A3026 7530 27 10500 010/06 RMK AO2 LTG DSNT NE AND E T02670067
93073KASE ASE20160624112512606/24/16 11:25:31  5-MIN KASE 241825Z 03007KT 10SM FEW120 27/07 A3026 7530 28 10500 020/07 RMK AO2 LTG DSNT NE AND E T02670072
93073KASE ASE20160624113012306/24/16 11:30:31  5-MIN KASE 241830Z 01006KT 10SM CLR 27/08 A3025 7540 29 10600 360/06 RMK AO2 LTG DSNT NE AND E T02720078
93073KASE ASE20160624113513206/24/16 11:35:31  5-MIN KASE 241835Z 02009KT 340V040 10SM CLR 27/08 A3025 7540 29 10600 010/09 330V030 RMK AO2 LTG DSNT E T02720078
93073KASE ASE20160624114011606/24/16 11:40:31  5-MIN KASE 241840Z 35009KT 10SM CLR 28/06 A3025 7540 25 10700 340/09 RMK AO2 LTG DSNT E T02780061
93073KASE ASE20160624114510806/24/16 11:45:31  5-MIN KASE 241845Z 35010KT 10SM FEW110 28/06 A3025 7540 25 10700 340/10 RMK AO2 T02780061
93073KASE ASE20160624115011506/24/16 11:50:31  5-MIN KASE 241850Z 35008KT 10SM SCT110 28/06 A3025 7540 25 10700 340/08 RMK AO2 SLP102 T02780061
93073KASE ASE20160624115510806/24/16 11:55:31  5-MIN KASE 241855Z 33008KT 10SM FEW110 28/06 A3025 7540 23 10700 320/08 RMK AO2 T02830056
93073KASE ASE20160624120010806/24/16 12:00:31  5-MIN KASE 241900Z VRB05KT 10SM FEW100 28/06 A3026 7530 24 10700 VRB/05 RMK AO2 T02780056
93073KASE ASE20160624120511406/24/16 12:05:31  5-MIN KASE 241905Z 23012G16KT 10SM SCT100 28/03 A3025 7540 19 10700 220/12G16 RMK AO2 T02780028
93073KASE ASE20160624121011406/24/16 12:10:31  5-MIN KASE 241910Z 27008G17KT 10SM SCT100 28/02 A3025 7540 19 10700 260/08G17 RMK AO2 T02780022
93073KASE ASE20160624121513006/24/16 12:15:31  5-MIN KASE 241915Z 28007G17KT 250V330 10SM FEW100 28/02 A3025 7540 19 10700 270/07G17 240V320 RMK AO2 T02780022
93073KASE ASE20160624122009806/24/16 12:20:31  5-MIN KASE 241920Z 10SM FEW100 28/02 A3025 7540 18 10700 M /M RMK AO2 T02830022
93073KASE ASE20160624122510806/24/16 12:25:31  5-MIN KASE 241925Z 24010KT 10SM FEW100 27/01 A3025 7540 18 10600 240/10 RMK AO2 T02720011
93073KASE ASE20160624123011406/24/16 12:30:31  5-MIN KASE 241930Z 24013G18KT 10SM FEW110 28/01 A3024 7540 17 10700 230/13G18 RMK AO2 T02780011
93073KASE ASE20160624123511106/24/16 12:35:31  5-MIN KASE 241935Z 24011G18KT 10SM CLR 28/01 A3025 7540 17 10700 230/11G18 RMK AO2 T02780006
93073KASE ASE20160624124011606/24/16 12:40:31  5-MIN KASE 241940Z 25009KT 10SM CLR 28/01 A3025 7540 17 10700 240/09 RMK AO2 LTG DSNT E T02780006
93073KASE ASE20160624124513906/24/16 12:45:31  5-MIN KASE 241945Z 25007KT 210V270 10SM CLR 28/00 A3024 7540 16 10700 240/07 200V260 RMK AO2 LTG DSNT E AND SW T02780000
93073KASE ASE20160624125015206/24/16 12:50:31  5-MIN KASE 241950Z 28008G14KT 220V360 10SM CLR 28/01 A3024 7550 17 10700 270/08G14 210V350 RMK AO2 LTG DSNT E AND SW SLP103 T02830011
93073KASE ASE20160624125512906/24/16 12:55:31  5-MIN KASE 241955Z 35010G14KT 10SM CLR 28/01 A3024 7540 16 10700 340/10G14 RMK AO2 LTG DSNT E AND SW T02830006
93073KASE ASE20160624130014206/24/16 13:00:31  5-MIN KASE 242000Z 26007KT 230V320 10SM FEW120 29/01 A3024 7540 16 10800 250/07 220V310 RMK AO2 LTG DSNT E AND SW T02890011
93073KASE ASE20160624130512506/24/16 13:05:31  5-MIN KASE 242005Z 25010G19KT 10SM SCT120 28/00 A3024 7540 15 10700 240/10G19 RMK AO2 LTG DSNT E T02830000
93073KASE ASE20160624131013006/24/16 13:10:31  5-MIN KASE 242010Z 24011G19KT 220V280 10SM BKN120 28/01 A3024 7540 16 10700 230/11G19 210V270 RMK AO2 T02830006
93073KASE ASE20160624131511406/24/16 13:15:31  5-MIN KASE 242015Z 25008G17KT 10SM BKN120 27/00 A3024 7540 16 10600 240/08G17 RMK AO2 T02720000
93073KASE ASE20160624132011406/24/16 13:20:31  5-MIN KASE 242020Z 25007G17KT 10SM BKN120 27/01 A3024 7550 17 10600 240/07G17 RMK AO2 T02720006
93073KASE ASE20160624132511406/24/16 13:25:31  5-MIN KASE 242025Z 26010G16KT 10SM BKN120 27/01 A3024 7550 18 10600 250/10G16 RMK AO2 T02670006
93073KASE ASE20160624133011406/24/16 13:30:31  5-MIN KASE 242030Z 27010G16KT 10SM SCT120 26/01 A3024 7540 18 10500 260/10G16 RMK AO2 T02610006
93073KASE ASE20160624133510806/24/16 13:35:31  5-MIN KASE 242035Z 26007KT 10SM SCT120 26/01 A3025 7540 19 10500 250/07 RMK AO2 T02610011
93073KASE ASE20160625102510506/25/16 10:25:31  5-MIN KASE 251725Z 00000KT 10SM CLR 23/07 A3028 7510 35 10200 000/00 RMK AO2 T02330072
93073KASE ASE20160625103010506/25/16 10:30:31  5-MIN KASE 251730Z 09003KT 10SM CLR 24/08 A3028 7510 34 10300 080/03 RMK AO2 T02440078
93073KASE ASE20160625103510506/25/16 10:35:31  5-MIN KASE 251735Z VRB06KT 10SM CLR 24/07 A3028 7510 33 10300 VRB/06 RMK AO2 T02440072
93073KASE ASE20160625104010506/25/16 10:40:31  5-MIN KASE 251740Z 35006KT 10SM CLR 24/06 A3028 7510 30 10300 340/06 RMK AO2 T02440061
93073KASE ASE20160625104510506/25/16 10:45:31  5-MIN KASE 251745Z 34007KT 10SM CLR 25/06 A3028 7510 29 10300 340/07 RMK AO2 T02500061
93073KASE ASE20160625105013006/25/16 10:50:31  5-MIN KASE 251750Z 35007KT 10SM CLR 24/06 A3028 7510 30 10300 340/07 RMK AO2 SLP119 T02440061 10250 20083 52002
93073KASE ASE20160625105510506/25/16 10:55:31  5-MIN KASE 251755Z 35007KT 10SM CLR 26/06 A3028 7510 28 10400 340/07 RMK AO2 T02560061
93073KASE ASE20160625110010506/25/16 11:00:31  5-MIN KASE 251800Z 01007KT 10SM CLR 26/06 A3028 7510 28 10400 360/07 RMK AO2 T02560061
93073KASE ASE20160625110511106/25/16 11:05:31  5-MIN KASE 251805Z 35008G15KT 10SM CLR 26/06 A3028 7510 27 10400 340/08G15 RMK AO2 T02560056
93073KASE ASE20160625111010506/25/16 11:10:31  5-MIN KASE 251810Z 35009KT 10SM CLR 25/06 A3028 7510 28 10300 340/09 RMK AO2 T02500056
93073KASE ASE20160625111510506/25/16 11:15:31  5-MIN KASE 251815Z 34009KT 10SM CLR 26/06 A3028 7510 27 10400 330/09 RMK AO2 T02560056
93073KASE ASE20160625112010506/25/16 11:20:31  5-MIN KASE 251820Z 33009KT 10SM CLR 26/06 A3028 7510 27 10500 320/09 RMK AO2 T02610061
93073KASE ASE20160625112510506/25/16 11:25:31  5-MIN KASE 251825Z 36009KT 10SM CLR 26/05 A3028 7510 25 10500 350/09 RMK AO2 T02610050
93073KASE ASE20160625113010506/25/16 11:30:31  5-MIN KASE 251830Z 01010KT 10SM CLR 26/05 A3028 7510 25 10500 360/10 RMK AO2 T02610050
93073KASE ASE20160625113510506/25/16 11:35:31  5-MIN KASE 251835Z 36009KT 10SM CLR 27/06 A3027 7520 25 10500 350/09 RMK AO2 T02670056
93073KASE ASE20160625114011106/25/16 11:40:31  5-MIN KASE 251840Z 35012G16KT 10SM CLR 27/06 A3027 7520 25 10500 340/12G16 RMK AO2 T02670056
93073KASE ASE20160625114510806/25/16 11:45:31  5-MIN KASE 251845Z 01009KT 10SM FEW120 26/05 A3028 7510 25 10500 360/09 RMK AO2 T02610050
93073KASE ASE20160625115012106/25/16 11:50:31  5-MIN KASE 251850Z 34013G17KT 10SM FEW120 27/05 A3027 7520 24 10600 330/13G17 RMK AO2 SLP111 T02720050
93073KASE ASE20160625115512606/25/16 11:55:31  5-MIN KASE 251855Z 34011G17KT 10SM FEW120 27/04 A3027 7520 22 10500 330/11G17 RMK AO2 LTG DSNT NE T02670039
93073KASE ASE20160625120012606/25/16 12:00:31  5-MIN KASE 251900Z 35011G16KT 10SM FEW120 27/04 A3027 7520 22 10500 340/11G16 RMK AO2 LTG DSNT NE T02670039
93073KASE ASE20160625120512606/25/16 12:05:31  5-MIN KASE 251905Z 33012G17KT 10SM FEW120 27/04 A3028 7510 22 10500 320/12G17 RMK AO2 LTG DSNT NE T02670039
93073KASE ASE20160625121010806/25/16 12:10:31  5-MIN KASE 251910Z 35010KT 10SM SCT120 26/04 A3027 7520 23 10500 340/10 RMK AO2 T02610039
93073KASE ASE20160625121510806/25/16 12:15:31  5-MIN KASE 251915Z 34007KT 10SM FEW120 27/04 A3027 7520 22 10500 330/07 RMK AO2 T02670039
93073KASE ASE20160625122010806/25/16 12:20:31  5-MIN KASE 251920Z 01009KT 10SM FEW120 27/04 A3027 7520 23 10600 360/09 RMK AO2 T02720044
93073KASE ASE20160625122511406/25/16 12:25:31  5-MIN KASE 251925Z 35011G17KT 10SM FEW120 27/04 A3027 7520 22 10600 340/11G17 RMK AO2 T02720039
93073KASE ASE20160625123011406/25/16 12:30:31  5-MIN KASE 251930Z 35013G18KT 10SM FEW120 27/04 A3027 7520 22 10600 340/13G18 RMK AO2 T02720039
93073KASE ASE20160625123511406/25/16 12:35:31  5-MIN KASE 251935Z 33012G23KT 10SM FEW120 27/05 A3027 7520 24 10500 330/12G23 RMK AO2 T02670050
93073KASE ASE20160625124011106/25/16 12:40:31  5-MIN KASE 251940Z 30015G23KT 10SM CLR 26/05 A3028 7510 26 10400 300/15G23 RMK AO2 T02560050
93073KASE ASE20160625124511106/25/16 12:45:31  5-MIN KASE 251945Z 35008G22KT 10SM CLR 26/06 A3028 7510 27 10400 340/08G22 RMK AO2 T02560056
93073KASE ASE20160625125011506/25/16 12:50:31  5-MIN KASE 251950Z 33012KT 10SM SCT065 25/05 A3029 7510 27 10300 320/12 RMK AO2 SLP121 T02500050
93073KASE ASE20160625125511406/25/16 12:55:31  5-MIN KASE 251955Z 36003G15KT 10SM SCT110 24/06 A3029 7500 29 10300 350/03G15 RMK AO2 T02440056
93073KASE ASE20160625130010806/25/16 13:00:31  5-MIN KASE 252000Z 34006KT 10SM FEW110 24/05 A3028 7510 28 10300 330/06 RMK AO2 T02440050
93073KASE ASE20160625130510806/25/16 13:05:31  5-MIN KASE 252005Z 34007KT 10SM FEW110 25/06 A3028 7510 29 10300 330/07 RMK AO2 T02500061
93073KASE ASE20160625131010806/25/16 13:10:31  5-MIN KASE 252010Z 33008KT 10SM FEW110 26/06 A3028 7510 26 10500 320/08 RMK AO2 T02610056
93073KASE ASE20160625131511406/25/16 13:15:31  5-MIN KASE 252015Z 36009G17KT 10SM FEW110 27/06 A3028 7510 25 10500 350/09G17 RMK AO2 T02670056
93073KASE ASE20160625132011406/25/16 13:20:31  5-MIN KASE 252020Z 35011G17KT 10SM FEW110 27/06 A3028 7510 25 10500 340/11G17 RMK AO2 T02670056
93073KASE ASE20160625132511106/25/16 13:25:31  5-MIN KASE 252025Z 35009G15KT 10SM CLR 27/04 A3027 7520 23 10500 340/09G15 RMK AO2 T02670044
93073KASE ASE20160625133011106/25/16 13:30:31  5-MIN KASE 252030Z 33007G17KT 10SM CLR 27/04 A3027 7520 23 10500 320/07G17 RMK AO2 T02670044
93073KASE ASE20160625133511106/25/16 13:35:31  5-MIN KASE 252035Z 01009G17KT 10SM CLR 27/04 A3027 7520 23 10600 360/09G17 RMK AO2 T02720044
93073KASE ASE20160625134010506/25/16 13:40:31  5-MIN KASE 252040Z 01008KT 10SM CLR 27/04 A3027 7520 23 10600 360/08 RMK AO2 T02720044
93073KASE ASE20160625134510506/25/16 13:45:31  5-MIN KASE 252045Z 34010KT 10SM CLR 27/04 A3027 7520 22 10600 330/10 RMK AO2 T02720039
93073KASE ASE20160625135012406/25/16 13:50:31  5-MIN KASE 252050Z 34012G21KT 10SM CLR 28/03 A3028 7510 20 10600 330/12G21 RMK AO2 SLP115 T02780033 57004
93073KASE ASE20160625135511106/25/16 13:55:31  5-MIN KASE 252055Z 32011G21KT 10SM CLR 28/03 A3028 7510 19 10600 310/11G21 RMK AO2 T02780028
93073KASE ASE20160625140011106/25/16 14:00:31  5-MIN KASE 252100Z 34010G18KT 10SM CLR 28/02 A3027 7510 19 10600 340/10G18 RMK AO2 T02780022
93073KASE ASE20160625140511106/25/16 14:05:31  5-MIN KASE 252105Z 34013G17KT 10SM CLR 27/02 A3027 7510 19 10600 330/13G17 RMK AO2 T02720022
93073KASE ASE20160625141011106/25/16 14:10:31  5-MIN KASE 252110Z 35013G17KT 10SM CLR 27/02 A3028 7510 19 10600 350/13G17 RMK AO2 T02720017
93073KASE ASE20160625141510506/25/16 14:15:31  5-MIN KASE 252115Z 35011KT 10SM CLR 27/01 A3028 7510 18 10600 340/11 RMK AO2 T02720011
93073KASE ASE20160625142012106/25/16 14:20:31  5-MIN KASE 252120Z 35008KT 310V010 10SM CLR 28/02 A3028 7510 18 10700 340/08 300V360 RMK AO2 T02830022
93073KASE ASE20160625142510506/25/16 14:25:31  5-MIN KASE 252125Z 35010KT 10SM CLR 27/02 A3028 7510 19 10500 340/10 RMK AO2 T02670017
93073KASE ASE20160625143012706/25/16 14:30:31  5-MIN KASE 252130Z 32007G16KT 290V030 10SM CLR 27/01 A3028 7510 18 10600 310/07G16 280V020 RMK AO2 T02720011
93073KASE ASE20160625143512706/25/16 14:35:31  5-MIN KASE 252135Z 35007G16KT 320V030 10SM CLR 27/00 A3028 7510 16 10600 340/07G16 310V020 RMK AO2 T02720000
93073KASE ASE20160625144011106/25/16 14:40:31  5-MIN KASE 252140Z 34010G16KT 10SM CLR 27/00 A3028 7510 16 10600 330/10G16 RMK AO2 T02720000
93073KASE ASE20160625144511206/25/16 14:45:31  5-MIN KASE 252145Z 35008G16KT 10SM CLR 27/M01 A3028 7510 16 10500 340/08G16 RMK AO2 T02671006
93073KASE ASE20160625145012106/25/16 14:50:31  5-MIN KASE 252150Z 36008G14KT 10SM SCT070 27/00 A3028 7510 17 10500 360/08G14 RMK AO2 SLP121 T02670000
93073KASE ASE20160625145511106/25/16 14:55:31  5-MIN KASE 252155Z 04006G14KT 10SM CLR 27/01 A3027 7520 17 10600 030/06G14 RMK AO2 T02720006
93073KASE ASE20160625150010606/25/16 15:00:31  5-MIN KASE 252200Z 34006KT 10SM CLR 27/M01 A3028 7510 16 10600 330/06 RMK AO2 T02721006
93073KASE ASE20160625150512806/25/16 15:05:31  5-MIN KASE 252205Z 34009G15KT 290V010 10SM CLR 27/M01 A3028 7510 16 10600 330/09G15 280V360 RMK AO2 T02721006
93073KASE ASE20160625151009606/25/16 15:10:31  5-MIN KASE 252210Z 10SM CLR 27/M02 A3027 7520 15 10600 M /M RMK AO2 T02721017
93073KASE ASE20160625151510606/25/16 15:15:31  5-MIN KASE 252215Z VRB03KT 10SM CLR 27/M02 A3027 7520 14 10600 VRB/03 RMK AO2 T02721022
93073KASE ASE20160625152011206/25/16 15:20:31  5-MIN KASE 252220Z 36010G16KT 10SM CLR 28/M01 A3027 7520 15 10600 350/10G16 RMK AO2 T02781011
93073KASE ASE20160625152511206/25/16 15:25:31  5-MIN KASE 252225Z 32012G16KT 10SM CLR 28/M01 A3027 7520 15 10600 310/12G16 RMK AO2 T02781011
93073KASE ASE20160625153012806/25/16 15:30:31  5-MIN KASE 252230Z 36007G16KT 310V020 10SM CLR 26/M02 A3027 7510 16 10500 350/07G16 300V010 RMK AO2 T02611017
93073KASE ASE20160625153510506/25/16 15:35:31  5-MIN KASE 252235Z 32009KT 10SM CLR 26/00 A3028 7510 18 10400 310/09 RMK AO2 T02560000
93073KASE ASE20160625154012706/25/16 15:40:31  5-MIN KASE 252240Z 30008G14KT 260V340 10SM CLR 25/00 A3028 7510 19 10300 290/08G14 250V330 RMK AO2 T02500000
93073KASE ASE20160625154511106/25/16 15:45:31  5-MIN KASE 252245Z VRB04G14KT 10SM CLR 25/00 A3028 7510 19 10300 VRB/04G14 RMK AO2 T02500000
93073KASE ASE20160625155011306/25/16 15:50:31  5-MIN KASE 252250Z VRB05KT 10SM CLR 25/M01 A3028 7510 18 10300 VRB/05 RMK AO2 SLP125 T02501006
93073KASE ASE20160625155510606/25/16 15:55:31  5-MIN KASE 252255Z VRB05KT 10SM CLR 25/M01 A3028 7510 17 10300 VRB/05 RMK AO2 T02501011
93073KASE ASE20160625160010606/25/16 16:00:31  5-MIN KASE 252300Z VRB04KT 10SM CLR 24/M01 A3028 7510 19 10300 VRB/04 RMK AO2 T02441006
93073KASE ASE20160625160510506/25/16 16:05:31  5-MIN KASE 252305Z VRB05KT 10SM CLR 25/00 A3027 7510 19 10300 VRB/05 RMK AO2 T02500000
93073KASE ASE20160625161010506/25/16 16:10:31  5-MIN KASE 252310Z 24006KT 10SM CLR 26/00 A3027 7520 18 10400 230/06 RMK AO2 T02560000
93073KASE ASE20160625161510506/25/16 16:15:31  5-MIN KASE 252315Z 27006KT 10SM CLR 24/00 A3027 7520 19 10300 260/06 RMK AO2 T02440000
93073KASE ASE20160625162010606/25/16 16:20:31  5-MIN KASE 252320Z 26007KT 10SM CLR 25/M01 A3027 7520 18 10400 250/07 RMK AO2 T02501006
93073KASE ASE20160625162510606/25/16 16:25:31  5-MIN KASE 252325Z VRB06KT 10SM CLR 26/M01 A3026 7530 17 10400 VRB/06 RMK AO2 T02561006
93073KASE ASE20160625163010606/25/16 16:30:31  5-MIN KASE 252330Z VRB05KT 10SM CLR 26/M01 A3026 7530 17 10500 VRB/05 RMK AO2 T02611006
93073KASE ASE20160625163510506/25/16 16:35:31  5-MIN KASE 252335Z VRB03KT 10SM CLR 26/00 A3026 7530 18 10500 VRB/03 RMK AO2 T02610000
93073KASE ASE20160625164010606/25/16 16:40:31  5-MIN KASE 252340Z VRB03KT 10SM CLR 27/M01 A3026 7530 16 10500 VRB/03 RMK AO2 T02671006
93073KASE ASE20160625164510506/25/16 16:45:31  5-MIN KASE 252345Z 34006KT 10SM CLR 27/01 A3025 7530 17 10600 330/06 RMK AO2 T02720006
93073KASE ASE20160625165013006/25/16 16:50:31  5-MIN KASE 252350Z 35006KT 10SM CLR 27/01 A3025 7530 18 10500 340/06 RMK AO2 SLP115 T02670011 10283 20244 58001
93073KASE ASE20160625165510506/25/16 16:55:31  5-MIN KASE 252355Z 02008KT 10SM CLR 27/01 A3025 7530 18 10500 010/08 RMK AO2 T02670011
93073KASE ASE20160625170010506/25/16 17:00:31  5-MIN KASE 260000Z 04007KT 10SM CLR 26/01 A3025 7530 19 10500 030/07 RMK AO2 T02610011
93073KASE ASE20160625170510506/25/16 17:05:31  5-MIN KASE 260005Z 04006KT 10SM CLR 26/01 A3025 7540 19 10500 030/06 RMK AO2 T02610011
93073KASE ASE20160625171010506/25/16 17:10:31  5-MIN KASE 260010Z VRB04KT 10SM CLR 26/01 A3025 7530 18 10500 VRB/04 RMK AO2 T02610006
93073KASE ASE20160625171510506/25/16 17:15:31  5-MIN KASE 260015Z 02005KT 10SM CLR 27/01 A3025 7530 18 10500 010/05 RMK AO2 T02670011
93073KASE ASE20160625172010506/25/16 17:20:31  5-MIN KASE 260020Z 05004KT 10SM CLR 27/02 A3025 7540 19 10500 040/04 RMK AO2 T02670017
93073KASE ASE20160625172510506/25/16 17:25:31  5-MIN KASE 260025Z 36006KT 10SM CLR 26/02 A3025 7540 20 10500 350/06 RMK AO2 T02610017
93073KASE ASE20160625173010506/25/16 17:30:31  5-MIN KASE 260030Z 35009KT 10SM CLR 26/02 A3025 7530 20 10500 340/09 RMK AO2 T02610017
93073KASE ASE20160625173510506/25/16 17:35:31  5-MIN KASE 260035Z 32009KT 10SM CLR 26/02 A3025 7530 20 10500 310/09 RMK AO2 T02610017
93073KASE ASE20160625174010506/25/16 17:40:31  5-MIN KASE 260040Z 32010KT 10SM CLR 26/02 A3026 7530 20 10500 310/10 RMK AO2 T02610017
93073KASE ASE20160625174510506/25/16 17:45:31  5-MIN KASE 260045Z 34012KT 10SM CLR 26/03 A3026 7530 21 10500 330/12 RMK AO2 T02610028
93073KASE ASE20160625175011806/25/16 17:50:31  5-MIN KASE 260050Z 32013G20KT 10SM CLR 26/03 A3026 7530 22 10400 310/13G20 RMK AO2 SLP115 T02560028
93073KASE ASE20160625175511106/25/16 17:55:31  5-MIN KASE 260055Z 32015G22KT 10SM CLR 25/03 A3026 7530 23 10400 310/15G22 RMK AO2 T02500028
93073KASE ASE20160625180011106/25/16 18:00:31  5-MIN KASE 260100Z 32014G22KT 10SM CLR 24/02 A3026 7530 23 10300 310/14G22 RMK AO2 T02440022
93073KASE ASE20160625180510506/25/16 18:05:31  5-MIN KASE 260105Z 32014KT 10SM CLR 24/02 A3026 7530 23 10300 310/14 RMK AO2 T02440022
93073KASE ASE20160625181011106/25/16 18:10:31  5-MIN KASE 260110Z 32010G20KT 10SM CLR 24/02 A3027 7520 23 10300 310/10G20 RMK AO2 T02440022
93073KASE ASE20160625181510506/25/16 18:15:31  5-MIN KASE 260115Z 31010KT 10SM CLR 24/02 A3027 7520 23 10300 300/10 RMK AO2 T02440022
93073KASE ASE20160625182010506/25/16 18:20:31  5-MIN KASE 260120Z 32012KT 10SM CLR 24/02 A3027 7520 24 10200 310/12 RMK AO2 T02390022
93073KASE ASE20160625182511106/25/16 18:25:31  5-MIN KASE 260125Z 32011G18KT 10SM CLR 24/02 A3027 7520 24 10200 310/11G18 RMK AO2 T02390022
93073KASE ASE20160625183010506/25/16 18:30:31  5-MIN KASE 260130Z 32010KT 10SM CLR 24/02 A3027 7520 23 10200 310/10 RMK AO2 T02390017
93073KASE ASE20160625183511106/25/16 18:35:31  5-MIN KASE 260135Z 32007G16KT 10SM CLR 23/02 A3027 7520 24 10200 310/07G16 RMK AO2 T02330022
93073KASE ASE20160625184010506/25/16 18:40:31  5-MIN KASE 260140Z 31004KT 10SM CLR 23/02 A3028 7510 25 10100 300/04 RMK AO2 T02280022
93073KASE ASE20160625184510506/25/16 18:45:31  5-MIN KASE 260145Z 28004KT 10SM CLR 22/02 A3028 7510 26 10000 270/04 RMK AO2 T02220022
93073KASE ASE20160625185011206/25/16 18:50:31  5-MIN KASE 260150Z 29003KT 10SM CLR 22/02 A3028 7510 26 10000 280/03 RMK AO2 SLP122 T02220022
93073KASE ASE20160625185510506/25/16 18:55:31  5-MIN KASE 260155Z 29004KT 10SM CLR 22/02 A3028 7510 26 10000 280/04 RMK AO2 T02220022
93073KASE ASE20160625190010506/25/16 19:00:31  5-MIN KASE 260200Z 28005KT 10SM CLR 22/03 A3028 7510 28 10000 270/05 RMK AO2 T02170028
93073KASE ASE20160625190510406/25/16 19:05:31  5-MIN KASE 260205Z VRB04KT 10SM CLR 21/03 A3029 7500 30 9900 VRB/04 RMK AO2 T02110033
93073KASE ASE20160625191010406/25/16 19:10:31  5-MIN KASE 260210Z 26005KT 10SM CLR 21/03 A3029 7500 32 9900 260/05 RMK AO2 T02060033
93073KASE ASE20160625191510706/25/16 19:15:31  5-MIN KASE 260215Z 25004KT 10SM SCT100 21/03 A3029 7500 32 9800 240/04 RMK AO2 T02060033
93073KASE ASE20160625192010706/25/16 19:20:31  5-MIN KASE 260220Z 27005KT 10SM SCT100 19/04 A3029 7500 35 9700 260/05 RMK AO2 T01940039
93073KASE ASE20160625192510706/25/16 19:25:31  5-MIN KASE 260225Z 27005KT 10SM BKN100 21/03 A3029 7500 30 9800 260/05 RMK AO2 T02060028
93073KASE ASE20160625193010706/25/16 19:30:31  5-MIN KASE 260230Z 26006KT 10SM SCT100 20/03 A3029 7500 31 9800 250/06 RMK AO2 T02000028
93073KASE ASE20160625193510706/25/16 19:35:31  5-MIN KASE 260235Z 25006KT 10SM SCT100 19/03 A3029 7500 34 9700 250/06 RMK AO2 T01940033
93073KASE ASE20160625194010706/25/16 19:40:31  5-MIN KASE 260240Z VRB03KT 10SM SCT100 19/03 A3029 7500 33 9700 VRB/03 RMK AO2 T01940028
93073KASE ASE20160625194510706/25/16 19:45:31  5-MIN KASE 260245Z 16003KT 10SM FEW110 19/03 A3029 7500 35 9700 150/03 RMK AO2 T01890033
93073KASE ASE20160625195012006/25/16 19:50:31  5-MIN KASE 260250Z 11003KT 10SM FEW100 19/04 A3030 7500 35 9700 100/03 RMK AO2 SLP128 T01940039 58006
93073KASE ASE20160625195510406/25/16 19:55:31  5-MIN KASE 260255Z 16003KT 10SM CLR 18/04 A3030 7500 38 9600 150/03 RMK AO2 T01830039
93073KASE ASE20160625200010406/25/16 20:00:31  5-MIN KASE 260300Z 00000KT 10SM CLR 16/06 A3029 7500 51 9300 000/00 RMK AO2 T01560056
93073KASE ASE20160625200510406/25/16 20:05:31  5-MIN KASE 260305Z 00000KT 10SM CLR 16/06 A3030 7490 51 9300 000/00 RMK AO2 T01560056
93073KASE ASE20160625201010406/25/16 20:10:31  5-MIN KASE 260310Z 00000KT 10SM CLR 16/05 A3030 7490 49 9300 000/00 RMK AO2 T01560050
93073KASE ASE20160625201510406/25/16 20:15:31  5-MIN KASE 260315Z 00000KT 10SM CLR 16/05 A3030 7490 49 9300 000/00 RMK AO2 T01560050
93073KASE ASE20160625202010406/25/16 20:20:31  5-MIN KASE 260320Z 00000KT 10SM CLR 15/05 A3030 7490 51 9200 000/00 RMK AO2 T01500050
93073KASE ASE20160625202510406/25/16 20:25:31  5-MIN KASE 260325Z 00000KT 10SM CLR 14/05 A3031 7490 53 9200 000/00 RMK AO2 T01440050
93073KASE ASE20160625203010406/25/16 20:30:31  5-MIN KASE 260330Z 21003KT 10SM CLR 14/05 A3031 7480 55 9100 200/03 RMK AO2 T01390050
93073KASE ASE20160625203510406/25/16 20:35:31  5-MIN KASE 260335Z 18004KT 10SM CLR 14/05 A3031 7480 55 9100 170/04 RMK AO2 T01390050
93073KASE ASE20160625204010406/25/16 20:40:31  5-MIN KASE 260340Z 18005KT 10SM CLR 14/04 A3032 7480 51 9100 170/05 RMK AO2 T01440044
93073KASE ASE20160625204510406/25/16 20:45:31  5-MIN KASE 260345Z 17005KT 10SM CLR 16/04 A3032 7470 45 9300 160/05 RMK AO2 T01560039
93073KASE ASE20160625205011106/25/16 20:50:31  5-MIN KASE 260350Z 20004KT 10SM CLR 14/04 A3032 7470 51 9100 190/04 RMK AO2 SLP147 T01440044
93073KASE ASE20160625205510406/25/16 20:55:31  5-MIN KASE 260355Z 22003KT 10SM CLR 13/04 A3032 7470 56 9000 210/03 RMK AO2 T01280044
93073KASE ASE20160625210010406/25/16 21:00:31  5-MIN KASE 260400Z 20004KT 10SM CLR 14/04 A3033 7470 52 9100 190/04 RMK AO2 T01390044
93073KASE ASE20160625210510406/25/16 21:05:31  5-MIN KASE 260405Z 19006KT 10SM CLR 14/04 A3033 7460 49 9100 180/06 RMK AO2 T01440039
93073KASE ASE20160625211010406/25/16 21:10:31  5-MIN KASE 260410Z 19006KT 10SM CLR 16/04 A3033 7460 45 9300 180/06 RMK AO2 T01560039
93073KASE ASE20160625211510406/25/16 21:15:31  5-MIN KASE 260415Z 20007KT 10SM CLR 14/04 A3034 7460 50 9100 190/07 RMK AO2 T01390039
93073KASE ASE20160625212010406/25/16 21:20:31  5-MIN KASE 260420Z 21007KT 10SM CLR 14/04 A3034 7460 50 9100 200/07 RMK AO2 T01390039
93073KASE ASE20160625212510406/25/16 21:25:31  5-MIN KASE 260425Z 20008KT 10SM CLR 13/04 A3034 7450 52 9000 190/08 RMK AO2 T01330039
93073KASE ASE20160625213010406/25/16 21:30:31  5-MIN KASE 260430Z 20007KT 10SM CLR 13/04 A3034 7450 52 9000 190/07 RMK AO2 T01330039
93073KASE ASE20160625213510406/25/16 21:35:31  5-MIN KASE 260435Z 21008KT 10SM CLR 14/03 A3034 7450 47 9100 200/08 RMK AO2 T01440033
93073KASE ASE20160625214010406/25/16 21:40:31  5-MIN KASE 260440Z 21009KT 10SM CLR 14/03 A3035 7450 48 9100 200/09 RMK AO2 T01390033
93073KASE ASE20160625214510406/25/16 21:45:31  5-MIN KASE 260445Z 21008KT 10SM CLR 14/03 A3035 7450 48 9000 200/08 RMK AO2 T01390033
93073KASE ASE20160625215011106/25/16 21:50:31  5-MIN KASE 260450Z 21009KT 10SM CLR 15/03 A3035 7450 45 9200 200/09 RMK AO2 SLP148 T01500033
93073KASE ASE20160625215510406/25/16 21:55:31  5-MIN KASE 260455Z 21007KT 10SM CLR 14/03 A3035 7450 47 9100 200/07 RMK AO2 T01440033
93073KASE ASE20160625220010406/25/16 22:00:31  5-MIN KASE 260500Z 21008KT 10SM CLR 14/03 A3035 7440 45 9100 200/08 RMK AO2 T01440028
93073KASE ASE20160625220510406/25/16 22:05:31  5-MIN KASE 260505Z 21007KT 10SM CLR 14/03 A3035 7440 45 9100 200/07 RMK AO2 T01440028
93073KASE ASE20160625221010406/25/16 22:10:31  5-MIN KASE 260510Z 21007KT 10SM CLR 14/03 A3036 7440 47 9000 210/07 RMK AO2 T01390028
93073KASE ASE20160625221510406/25/16 22:15:31  5-MIN KASE 260515Z 21008KT 10SM CLR 14/03 A3036 7440 45 9100 200/08 RMK AO2 T01440028
93073KASE ASE20160625222010406/25/16 22:20:31  5-MIN KASE 260520Z 21008KT 10SM CLR 14/03 A3036 7440 45 9100 200/08 RMK AO2 T01440028
93073KASE ASE20160625222510406/25/16 22:25:31  5-MIN KASE 260525Z 21009KT 10SM CLR 14/03 A3036 7440 47 9000 210/09 RMK AO2 T01390028
93073KASE ASE20160625223010406/25/16 22:30:31  5-MIN KASE 260530Z 21007KT 10SM CLR 14/03 A3036 7440 47 9000 200/07 RMK AO2 T01390028
93073KASE ASE20160625223510406/25/16 22:35:31  5-MIN KASE 260535Z 21008KT 10SM CLR 14/02 A3036 7440 45 9000 200/08 RMK AO2 T01390022
93073KASE ASE20160625224010406/25/16 22:40:31  5-MIN KASE 260540Z 21007KT 10SM CLR 14/02 A3036 7440 45 9000 200/07 RMK AO2 T01390022
93073KASE ASE20160625224510406/25/16 22:45:31  5-MIN KASE 260545Z 22009KT 10SM CLR 13/02 A3036 7430 46 9000 210/09 RMK AO2 T01330022
93073KASE ASE20160625225012906/25/16 22:50:31  5-MIN KASE 260550Z 22007KT 10SM CLR 13/02 A3036 7430 46 9000 210/07 RMK AO2 SLP153 T01330022 10267 20128 53012
93073KASE ASE20160625225510406/25/16 22:55:31  5-MIN KASE 260555Z 18006KT 10SM CLR 14/02 A3036 7430 45 9000 170/06 RMK AO2 T01390022
93073KASE ASE20160625230010406/25/16 23:00:31  5-MIN KASE 260600Z 20007KT 10SM CLR 13/02 A3036 7430 46 9000 190/07 RMK AO2 T01330022
93073KASE ASE20160625230510406/25/16 23:05:31  5-MIN KASE 260605Z 21007KT 10SM CLR 13/02 A3036 7430 48 8900 200/07 RMK AO2 T01280022
93073KASE ASE20160625231010406/25/16 23:10:31  5-MIN KASE 260610Z 22009KT 10SM CLR 12/02 A3036 7430 50 8800 210/09 RMK AO2 T01220022
93073KASE ASE20160625231510406/25/16 23:15:31  5-MIN KASE 260615Z 22008KT 10SM CLR 13/02 A3037 7430 46 8900 220/08 RMK AO2 T01280017
93073KASE ASE20160625232010406/25/16 23:20:31  5-MIN KASE 260620Z 21007KT 10SM CLR 13/02 A3037 7430 45 9000 200/07 RMK AO2 T01330017
93073KASE ASE20160625232510406/25/16 23:25:31  5-MIN KASE 260625Z 21008KT 10SM CLR 13/02 A3037 7430 46 8900 200/08 RMK AO2 T01280017
93073KASE ASE20160625233010406/25/16 23:30:31  5-MIN KASE 260630Z 20006KT 10SM CLR 13/02 A3037 7430 46 8900 190/06 RMK AO2 T01280017
93073KASE ASE20160625233510406/25/16 23:35:31  5-MIN KASE 260635Z 22008KT 10SM CLR 12/02 A3036 7430 50 8800 210/08 RMK AO2 T01170017
93073KASE ASE20160625234010406/25/16 23:40:31  5-MIN KASE 260640Z 20006KT 10SM CLR 11/02 A3037 7430 52 8700 190/06 RMK AO2 T01110017
93073KASE ASE20160625234510406/25/16 23:45:31  5-MIN KASE 260645Z 21006KT 10SM CLR 12/02 A3037 7430 50 8800 200/06 RMK AO2 T01170017
93073KASE ASE20160625235012106/25/16 23:50:31  5-MIN KASE 260650Z 20005KT 10SM CLR 12/02 A3037 7430 48 8800 200/05 RMK AO2 SLP150 T01220017 402830083
93073KASE ASE20160625235510406/25/16 23:55:31  5-MIN KASE 260655Z 19006KT 10SM CLR 12/02 A3037 7430 48 8800 190/06 RMK AO2 T01220017
93073KASE ASE20160626000010406/26/16 00:00:31  5-MIN KASE 260700Z 20006KT 10SM CLR 12/02 A3037 7430 50 8800 190/06 RMK AO2 T01170017
93073KASE ASE20160626000510406/26/16 00:05:31  5-MIN KASE 260705Z 20007KT 10SM CLR 12/01 A3037 7430 46 8800 190/07 RMK AO2 T01220011
93073KASE ASE20160626001010406/26/16 00:10:31  5-MIN KASE 260710Z 20007KT 10SM CLR 12/02 A3037 7430 48 8800 190/07 RMK AO2 T01220017
93073KASE ASE20160626001510406/26/16 00:15:31  5-MIN KASE 260715Z 21008KT 10SM CLR 11/02 A3037 7430 54 8700 200/08 RMK AO2 T01060017
93073KASE ASE20160626002010406/26/16 00:20:31  5-MIN KASE 260720Z 22010KT 10SM CLR 11/02 A3036 7430 54 8700 210/10 RMK AO2 T01060017
93073KASE ASE20160626002510406/26/16 00:25:31  5-MIN KASE 260725Z 22009KT 10SM CLR 12/01 A3037 7430 46 8800 210/09 RMK AO2 T01220011
93073KASE ASE20160626003010406/26/16 00:30:31  5-MIN KASE 260730Z 22008KT 10SM CLR 12/01 A3037 7430 46 8800 210/08 RMK AO2 T01220011
93073KASE ASE20160626003510406/26/16 00:35:31  5-MIN KASE 260735Z 19006KT 10SM CLR 12/01 A3037 7430 46 8800 180/06 RMK AO2 T01220011
93073KASE ASE20160626004010406/26/16 00:40:31  5-MIN KASE 260740Z 21007KT 10SM CLR 12/02 A3036 7440 50 8800 200/07 RMK AO2 T01170017
93073KASE ASE20160626004510406/26/16 00:45:31  5-MIN KASE 260745Z 21008KT 10SM CLR 12/01 A3036 7440 48 8800 200/08 RMK AO2 T01170011
93073KASE ASE20160626005011106/26/16 00:50:31  5-MIN KASE 260750Z 21009KT 10SM CLR 12/01 A3036 7440 48 8800 200/09 RMK AO2 SLP155 T01170011
93073KASE ASE20160626005510406/26/16 00:55:31  5-MIN KASE 260755Z 21011KT 10SM CLR 11/01 A3036 7440 50 8700 200/11 RMK AO2 T01110011
93073KASE ASE20160626010010406/26/16 01:00:31  5-MIN KASE 260800Z 21009KT 10SM CLR 11/01 A3036 7440 50 8700 200/09 RMK AO2 T01110011
93073KASE ASE20160626010510406/26/16 01:05:31  5-MIN KASE 260805Z 21008KT 10SM CLR 12/01 A3036 7440 46 8900 200/08 RMK AO2 T01220011
93073KASE ASE20160626011010406/26/16 01:10:31  5-MIN KASE 260810Z 20007KT 10SM CLR 12/01 A3036 7440 46 8900 200/07 RMK AO2 T01220011
93073KASE ASE20160626011510406/26/16 01:15:31  5-MIN KASE 260815Z 19005KT 10SM CLR 11/01 A3036 7440 50 8700 180/05 RMK AO2 T01110011
93073KASE ASE20160626012010406/26/16 01:20:31  5-MIN KASE 260820Z 21006KT 10SM CLR 11/01 A3035 7440 50 8700 200/06 RMK AO2 T01110011
93073KASE ASE20160626012510406/26/16 01:25:31  5-MIN KASE 260825Z 21007KT 10SM CLR 11/01 A3035 7440 50 8700 200/07 RMK AO2 T01110011
93073KASE ASE20160626013010406/26/16 01:30:31  5-MIN KASE 260830Z 21007KT 10SM CLR 11/01 A3035 7440 50 8700 200/07 RMK AO2 T01110011
93073KASE ASE20160626013510406/26/16 01:35:31  5-MIN KASE 260835Z 21006KT 10SM CLR 12/01 A3035 7450 48 8800 200/06 RMK AO2 T01170011
93073KASE ASE20160626014010406/26/16 01:40:31  5-MIN KASE 260840Z 21007KT 10SM CLR 11/01 A3035 7440 50 8700 200/07 RMK AO2 T01110011
93073KASE ASE20160626014510406/26/16 01:45:31  5-MIN KASE 260845Z 22009KT 10SM CLR 11/01 A3035 7440 50 8700 210/09 RMK AO2 T01110011
93073KASE ASE20160626015011706/26/16 01:50:31  5-MIN KASE 260850Z 21007KT 10SM CLR 11/01 A3035 7450 50 8700 200/07 RMK AO2 SLP146 T01110011 51019
93073KASE ASE20160626015510406/26/16 01:55:31  5-MIN KASE 260855Z 21006KT 10SM CLR 12/01 A3035 7450 46 8800 200/06 RMK AO2 T01170006
93073KASE ASE20160626020010406/26/16 02:00:31  5-MIN KASE 260900Z 22009KT 10SM CLR 11/01 A3035 7440 50 8700 210/09 RMK AO2 T01110011
93073KASE ASE20160626020510406/26/16 02:05:31  5-MIN KASE 260905Z 21006KT 10SM CLR 11/01 A3035 7440 52 8700 200/06 RMK AO2 T01060011
93073KASE ASE20160626021010406/26/16 02:10:31  5-MIN KASE 260910Z 21008KT 10SM CLR 11/01 A3035 7450 52 8700 210/08 RMK AO2 T01060011
93073KASE ASE20160626021510406/26/16 02:15:31  5-MIN KASE 260915Z 22008KT 10SM CLR 11/01 A3035 7450 52 8700 210/08 RMK AO2 T01060011
93073KASE ASE20160626022010406/26/16 02:20:31  5-MIN KASE 260920Z 20006KT 10SM CLR 11/01 A3035 7440 52 8700 190/06 RMK AO2 T01060011
93073KASE ASE20160626022510406/26/16 02:25:31  5-MIN KASE 260925Z 21007KT 10SM CLR 10/01 A3035 7450 54 8600 200/07 RMK AO2 T01000011
93073KASE ASE20160626023010406/26/16 02:30:31  5-MIN KASE 260930Z 19007KT 10SM CLR 10/01 A3035 7440 54 8600 190/07 RMK AO2 T01000011
93073KASE ASE20160626023510406/26/16 02:35:31  5-MIN KASE 260935Z 21007KT 10SM CLR 09/01 A3035 7440 56 8500 200/07 RMK AO2 T00940011
93073KASE ASE20160626024010406/26/16 02:40:31  5-MIN KASE 260940Z 22008KT 10SM CLR 09/01 A3036 7440 56 8500 210/08 RMK AO2 T00940011
93073KASE ASE20160626024510406/26/16 02:45:31  5-MIN KASE 260945Z 20007KT 10SM CLR 10/01 A3035 7440 54 8600 200/07 RMK AO2 T01000011
93073KASE ASE20160626025011106/26/16 02:50:31  5-MIN KASE 260950Z 21006KT 10SM CLR 10/01 A3036 7440 54 8600 200/06 RMK AO2 SLP154 T01000011
93073KASE ASE20160626025510406/26/16 02:55:31  5-MIN KASE 260955Z 00000KT 10SM CLR 09/01 A3036 7440 56 8500 000/00 RMK AO2 T00940011
93073KASE ASE20160626030010406/26/16 03:00:31  5-MIN KASE 261000Z 20006KT 10SM CLR 09/01 A3036 7440 58 8500 190/06 RMK AO2 T00890011
93073KASE ASE20160626030510406/26/16 03:05:31  5-MIN KASE 261005Z 21005KT 10SM CLR 08/01 A3036 7440 60 8400 200/05 RMK AO2 T00830011
93073KASE ASE20160626031010406/26/16 03:10:31  5-MIN KASE 261010Z 21006KT 10SM CLR 09/01 A3036 7440 58 8500 200/06 RMK AO2 T00890011
93073KASE ASE20160626031510406/26/16 03:15:31  5-MIN KASE 261015Z 20005KT 10SM CLR 10/01 A3036 7440 54 8600 190/05 RMK AO2 T01000011
93073KASE ASE20160626032010406/26/16 03:20:31  5-MIN KASE 261020Z 21004KT 10SM CLR 11/01 A3036 7440 50 8700 200/04 RMK AO2 T01060006
93073KASE ASE20160626032510406/26/16 03:25:31  5-MIN KASE 261025Z 20004KT 10SM CLR 09/01 A3036 7430 56 8500 190/04 RMK AO2 T00940011
93073KASE ASE20160626033010406/26/16 03:30:31  5-MIN KASE 261030Z 22005KT 10SM CLR 09/01 A3036 7430 53 8500 210/05 RMK AO2 T00940006
93073KASE ASE20160626033510406/26/16 03:35:31  5-MIN KASE 261035Z 00000KT 10SM CLR 09/01 A3036 7440 58 8500 000/00 RMK AO2 T00890011
93073KASE ASE20160626034010406/26/16 03:40:31  5-MIN KASE 261040Z 20006KT 10SM CLR 08/01 A3036 7440 60 8400 190/06 RMK AO2 T00830011
93073KASE ASE20160626034510406/26/16 03:45:31  5-MIN KASE 261045Z 20005KT 10SM CLR 09/01 A3036 7440 56 8500 190/05 RMK AO2 T00940011
93073KASE ASE20160626035011106/26/16 03:50:31  5-MIN KASE 261050Z 21006KT 10SM CLR 10/01 A3036 7430 52 8600 200/06 RMK AO2 SLP159 T01000006
93073KASE ASE20160626035510406/26/16 03:55:31  5-MIN KASE 261055Z 21006KT 10SM CLR 09/01 A3036 7440 53 8500 200/06 RMK AO2 T00940006
93073KASE ASE20160626040010406/26/16 04:00:31  5-MIN KASE 261100Z 21006KT 10SM CLR 10/01 A3036 7430 52 8600 200/06 RMK AO2 T01000006
93073KASE ASE20160626040510406/26/16 04:05:31  5-MIN KASE 261105Z 00000KT 10SM CLR 08/01 A3036 7430 60 8400 000/00 RMK AO2 T00830011
93073KASE ASE20160626041010406/26/16 04:10:31  5-MIN KASE 261110Z 00000KT 10SM CLR 08/01 A3036 7430 62 8300 000/00 RMK AO2 T00780011
93073KASE ASE20160626041510406/26/16 04:15:31  5-MIN KASE 261115Z 00000KT 10SM CLR 08/01 A3036 7430 60 8400 000/00 RMK AO2 T00830011
93073KASE ASE20160626042010406/26/16 04:20:31  5-MIN KASE 261120Z 00000KT 10SM CLR 08/01 A3037 7430 58 8400 000/00 RMK AO2 T00830006
93073KASE ASE20160626042510406/26/16 04:25:31  5-MIN KASE 261125Z 00000KT 10SM CLR 08/01 A3036 7430 60 8300 000/00 RMK AO2 T00780006
93073KASE ASE20160626043010406/26/16 04:30:31  5-MIN KASE 261130Z 00000KT 10SM CLR 08/01 A3036 7430 62 8300 000/00 RMK AO2 T00780011
93073KASE ASE20160626043510406/26/16 04:35:31  5-MIN KASE 261135Z VRB03KT 10SM CLR 08/01 A3036 7430 60 8300 VRB/03 RMK AO2 T00780006
93073KASE ASE20160626044010406/26/16 04:40:31  5-MIN KASE 261140Z 21005KT 10SM CLR 09/01 A3037 7430 56 8500 200/05 RMK AO2 T00940011
93073KASE ASE20160626044510406/26/16 04:45:31  5-MIN KASE 261145Z VRB05KT 10SM CLR 10/01 A3037 7430 52 8600 VRB/05 RMK AO2 T01000006
93073KASE ASE20160626045012906/26/16 04:50:31  5-MIN KASE 261150Z 00000KT 10SM CLR 08/01 A3037 7430 62 8300 000/00 RMK AO2 SLP163 T00780011 10139 20072 58004
93073KASE ASE20160626045510406/26/16 04:55:31  5-MIN KASE 261155Z 00000KT 10SM CLR 08/01 A3037 7420 60 8400 000/00 RMK AO2 T00830011
93073KASE ASE20160626050010406/26/16 05:00:31  5-MIN KASE 261200Z VRB04KT 10SM CLR 08/01 A3037 7420 60 8400 VRB/04 RMK AO2 T00830011
93073KASE ASE20160626050510406/26/16 05:05:31  5-MIN KASE 261205Z 00000KT 10SM CLR 09/01 A3038 7420 58 8500 000/00 RMK AO2 T00890011
93073KASE ASE20160626051010406/26/16 05:10:31  5-MIN KASE 261210Z 00000KT 10SM CLR 09/01 A3038 7420 58 8400 000/00 RMK AO2 T00890011
93073KASE ASE20160626051510406/26/16 05:15:31  5-MIN KASE 261215Z 00000KT 10SM CLR 09/01 A3038 7420 58 8400 000/00 RMK AO2 T00890011
93073KASE ASE20160626052010406/26/16 05:20:31  5-MIN KASE 261220Z 28003KT 10SM CLR 09/01 A3038 7420 58 8500 270/03 RMK AO2 T00890011
93073KASE ASE20160626052510406/26/16 05:25:31  5-MIN KASE 261225Z 00000KT 10SM CLR 09/01 A3038 7420 58 8400 000/00 RMK AO2 T00890011
93073KASE ASE20160626053010406/26/16 05:30:31  5-MIN KASE 261230Z 00000KT 10SM CLR 09/01 A3038 7420 58 8400 000/00 RMK AO2 T00890011
93073KASE ASE20160626053510406/26/16 05:35:31  5-MIN KASE 261235Z 00000KT 10SM CLR 09/01 A3038 7420 56 8500 000/00 RMK AO2 T00940011
93073KASE ASE20160626054010406/26/16 05:40:31  5-MIN KASE 261240Z 00000KT 10SM CLR 09/02 A3038 7420 58 8500 000/00 RMK AO2 T00940017
93073KASE ASE20160626054510406/26/16 05:45:31  5-MIN KASE 261245Z 00000KT 10SM CLR 10/02 A3039 7410 56 8600 000/00 RMK AO2 T01000017
93073KASE ASE20160626055011106/26/16 05:50:31  5-MIN KASE 261250Z 00000KT 10SM CLR 11/02 A3039 7410 56 8600 000/00 RMK AO2 SLP165 T01060022
93073KASE ASE20160626055510406/26/16 05:55:31  5-MIN KASE 261255Z 09003KT 10SM CLR 11/02 A3039 7410 54 8700 080/03 RMK AO2 T01110022
93073KASE ASE20160626060010406/26/16 06:00:31  5-MIN KASE 261300Z 16003KT 10SM CLR 12/02 A3039 7410 52 8800 160/03 RMK AO2 T01170022
93073KASE ASE20160626060510406/26/16 06:05:31  5-MIN KASE 261305Z 00000KT 10SM CLR 13/02 A3039 7410 48 8900 000/00 RMK AO2 T01280022
93073KASE ASE20160626061010406/26/16 06:10:31  5-MIN KASE 261310Z 02003KT 10SM CLR 12/03 A3039 7410 52 8800 010/03 RMK AO2 T01220028
93073KASE ASE20160626061510406/26/16 06:15:31  5-MIN KASE 261315Z 00000KT 10SM CLR 12/03 A3039 7410 54 8800 000/00 RMK AO2 T01220033
93073KASE ASE20160626062010406/26/16 06:20:31  5-MIN KASE 261320Z 00000KT 10SM CLR 13/03 A3039 7410 50 8900 000/00 RMK AO2 T01280028
93073KASE ASE20160626062510406/26/16 06:25:31  5-MIN KASE 261325Z 19004KT 10SM CLR 14/03 A3039 7410 48 9000 180/04 RMK AO2 T01390033
93073KASE ASE20160626063010406/26/16 06:30:31  5-MIN KASE 261330Z 00000KT 10SM CLR 15/03 A3039 7410 43 9100 000/00 RMK AO2 T01500028
93073KASE ASE20160626063510406/26/16 06:35:31  5-MIN KASE 261335Z 01003KT 10SM CLR 15/03 A3039 7410 43 9100 010/03 RMK AO2 T01500028
93073KASE ASE20160626064010406/26/16 06:40:31  5-MIN KASE 261340Z 33005KT 10SM CLR 14/03 A3039 7410 48 9000 320/05 RMK AO2 T01390033
93073KASE ASE20160626064510406/26/16 06:45:31  5-MIN KASE 261345Z 36005KT 10SM CLR 14/03 A3039 7410 48 9000 350/05 RMK AO2 T01390033
93073KASE ASE20160626065011106/26/16 06:50:31  5-MIN KASE 261350Z 36006KT 10SM CLR 14/04 A3040 7400 49 9100 350/06 RMK AO2 SLP167 T01440039
93073KASE ASE20160626065510406/26/16 06:55:31  5-MIN KASE 261355Z 36006KT 10SM CLR 14/03 A3040 7400 47 9100 350/06 RMK AO2 T01440033
93073KASE ASE20160626070010406/26/16 07:00:31  5-MIN KASE 261400Z 35007KT 10SM CLR 14/04 A3040 7400 50 9000 340/07 RMK AO2 T01390039
93073KASE ASE20160626070510406/26/16 07:05:31  5-MIN KASE 261405Z 34009KT 10SM CLR 14/03 A3040 7400 48 9000 330/09 RMK AO2 T01390033
93073KASE ASE20160626071010406/26/16 07:10:31  5-MIN KASE 261410Z 36008KT 10SM CLR 14/04 A3040 7400 50 9000 350/08 RMK AO2 T01390039
93073KASE ASE20160626071510406/26/16 07:15:31  5-MIN KASE 261415Z 35008KT 10SM CLR 14/03 A3041 7390 48 9000 340/08 RMK AO2 T01390033
93073KASE ASE20160626072010406/26/16 07:20:31  5-MIN KASE 261420Z 34007KT 10SM CLR 14/04 A3041 7390 50 9000 330/07 RMK AO2 T01390039
93073KASE ASE20160626072510406/26/16 07:25:31  5-MIN KASE 261425Z 35009KT 10SM CLR 14/04 A3041 7390 49 9000 340/09 RMK AO2 T01440039
93073KASE ASE20160626073010406/26/16 07:30:31  5-MIN KASE 261430Z 33008KT 10SM CLR 14/04 A3041 7390 49 9000 320/08 RMK AO2 T01440039
93073KASE ASE20160626073510406/26/16 07:35:31  5-MIN KASE 261435Z 36007KT 10SM CLR 15/04 A3041 7390 47 9100 360/07 RMK AO2 T01500039
93073KASE ASE20160626074010406/26/16 07:40:31  5-MIN KASE 261440Z 34008KT 10SM CLR 16/04 A3042 7390 45 9200 330/08 RMK AO2 T01560039
93073KASE ASE20160626074510406/26/16 07:45:31  5-MIN KASE 261445Z 02007KT 10SM CLR 16/04 A3041 7390 45 9200 010/07 RMK AO2 T01560039
93073KASE ASE20160626075011706/26/16 07:50:31  5-MIN KASE 261450Z 36007KT 10SM CLR 16/04 A3042 7390 44 9200 350/07 RMK AO2 SLP177 T01610039 51006
93073KASE ASE20160626075510406/26/16 07:55:31  5-MIN KASE 261455Z 34007KT 10SM CLR 16/03 A3042 7380 42 9200 330/07 RMK AO2 T01610033
93073KASE ASE20160626080010406/26/16 08:00:31  5-MIN KASE 261500Z 36006KT 10SM CLR 17/03 A3042 7380 40 9300 350/06 RMK AO2 T01670033
93073KASE ASE20160626080510406/26/16 08:05:31  5-MIN KASE 261505Z 01006KT 10SM CLR 17/04 A3042 7390 42 9300 010/06 RMK AO2 T01670039
93073KASE ASE20160626081010406/26/16 08:10:31  5-MIN KASE 261510Z 34006KT 10SM CLR 17/03 A3042 7390 39 9300 330/06 RMK AO2 T01720033
93073KASE ASE20160626081510406/26/16 08:15:31  5-MIN KASE 261515Z 36006KT 10SM CLR 17/03 A3042 7380 39 9300 350/06 RMK AO2 T01720033
93073KASE ASE20160626082010406/26/16 08:20:31  5-MIN KASE 261520Z 36004KT 10SM CLR 18/03 A3042 7380 38 9400 350/04 RMK AO2 T01780033
93073KASE ASE20160626082510406/26/16 08:25:31  5-MIN KASE 261525Z 35005KT 10SM CLR 18/03 A3042 7390 38 9400 340/05 RMK AO2 T01780033
93073KASE ASE20160626083010406/26/16 08:30:31  5-MIN KASE 261530Z 01005KT 10SM CLR 18/04 A3041 7390 38 9500 360/05 RMK AO2 T01830039
93073KASE ASE20160626083510406/26/16 08:35:31  5-MIN KASE 261535Z 35006KT 10SM CLR 18/03 A3042 7390 36 9500 340/06 RMK AO2 T01830033
93073KASE ASE20160626084010406/26/16 08:40:31  5-MIN KASE 261540Z VRB05KT 10SM CLR 18/04 A3041 7390 38 9500 VRB/05 RMK AO2 T01830039
93073KASE ASE20160626084510406/26/16 08:45:31  5-MIN KASE 261545Z 35005KT 10SM CLR 19/04 A3042 7390 36 9500 340/05 RMK AO2 T01890039
93073KASE ASE20160626085011106/26/16 08:50:31  5-MIN KASE 261550Z 35006KT 10SM CLR 19/04 A3041 7390 38 9500 340/06 RMK AO2 SLP180 T01890044
93073KASE ASE20160626085510406/26/16 08:55:31  5-MIN KASE 261555Z 35004KT 10SM CLR 19/04 A3041 7390 35 9600 340/04 RMK AO2 T01940039
93073KASE ASE20160626090010406/26/16 09:00:31  5-MIN KASE 261600Z 35005KT 10SM CLR 19/04 A3041 7390 37 9600 340/05 RMK AO2 T01940044
93073KASE ASE20160626090510406/26/16 09:05:31  5-MIN KASE 261605Z VRB03KT 10SM CLR 20/04 A3041 7390 35 9700 VRB/03 RMK AO2 T02000044
93073KASE ASE20160626091010406/26/16 09:10:31  5-MIN KASE 261610Z 36006KT 10SM CLR 21/04 A3041 7390 34 9700 350/06 RMK AO2 T02060044
93073KASE ASE20160626091510406/26/16 09:15:31  5-MIN KASE 261615Z 36005KT 10SM CLR 21/04 A3041 7390 34 9700 360/05 RMK AO2 T02060044
93073KASE ASE20160626092010406/26/16 09:20:31  5-MIN KASE 261620Z 36005KT 10SM CLR 21/04 A3041 7390 34 9700 350/05 RMK AO2 T02060044
93073KASE ASE20160626092510406/26/16 09:25:31  5-MIN KASE 261625Z 02006KT 10SM CLR 21/04 A3041 7390 33 9800 010/06 RMK AO2 T02110044
93073KASE ASE20160626093010406/26/16 09:30:31  5-MIN KASE 261630Z VRB05KT 10SM CLR 21/04 A3041 7390 33 9800 VRB/05 RMK AO2 T02110044
93073KASE ASE20160626093510406/26/16 09:35:31  5-MIN KASE 261635Z VRB06KT 10SM CLR 22/04 A3041 7390 32 9800 VRB/06 RMK AO2 T02170044
93073KASE ASE20160626094010406/26/16 09:40:31  5-MIN KASE 261640Z 01005KT 10SM CLR 22/04 A3041 7390 32 9800 360/05 RMK AO2 T02170044
93073KASE ASE20160626094510406/26/16 09:45:31  5-MIN KASE 261645Z 04006KT 10SM CLR 22/04 A3041 7390 32 9800 040/06 RMK AO2 T02170044
93073KASE ASE20160626095011106/26/16 09:50:31  5-MIN KASE 261650Z 03004KT 10SM CLR 22/04 A3041 7390 31 9900 020/04 RMK AO2 SLP170 T02220044
93073KASE ASE20160626095510406/26/16 09:55:31  5-MIN KASE 261655Z VRB05KT 10SM CLR 22/04 A3041 7390 31 9900 VRB/05 RMK AO2 T02220044
93073KASE ASE20160626100010406/26/16 10:00:31  5-MIN KASE 261700Z 04003KT 10SM CLR 23/05 A3041 7390 31 9900 030/03 RMK AO2 T02280050
93073KASE ASE20160626100510506/26/16 10:05:31  5-MIN KASE 261705Z 05006KT 10SM CLR 23/05 A3041 7390 30 10000 040/06 RMK AO2 T02330050
93073KASE ASE20160626101010506/26/16 10:10:31  5-MIN KASE 261710Z 01004KT 10SM CLR 24/05 A3041 7390 29 10100 360/04 RMK AO2 T02390050
93073KASE ASE20160626101510506/26/16 10:15:31  5-MIN KASE 261715Z VRB04KT 10SM CLR 24/04 A3041 7390 28 10100 VRB/04 RMK AO2 T02390044
93073KASE ASE20160626102010506/26/16 10:20:31  5-MIN KASE 261720Z VRB04KT 10SM CLR 24/04 A3041 7390 28 10100 VRB/04 RMK AO2 T02390044
93073KASE ASE20160626102509506/26/16 10:25:31  5-MIN KASE 261725Z 10SM CLR 24/04 A3041 7390 27 10100 M /M RMK AO2 T02390039
93073KASE ASE20160626103010506/26/16 10:30:31  5-MIN KASE 261730Z VRB04KT 10SM CLR 24/03 A3041 7390 25 10100 VRB/04 RMK AO2 T02440033
93073KASE ASE20160626103510506/26/16 10:35:31  5-MIN KASE 261735Z 35007KT 10SM CLR 26/03 A3041 7390 23 10300 340/07 RMK AO2 T02560033
93073KASE ASE20160626104010506/26/16 10:40:31  5-MIN KASE 261740Z 36007KT 10SM CLR 26/02 A3041 7390 21 10300 350/07 RMK AO2 T02560022
93073KASE ASE20160626104510506/26/16 10:45:31  5-MIN KASE 261745Z 02009KT 10SM CLR 25/03 A3041 7390 23 10200 010/09 RMK AO2 T02500028
93073KASE ASE20160626105013006/26/16 10:50:31  5-MIN KASE 261750Z VRB05KT 10SM CLR 26/02 A3041 7400 21 10300 VRB/05 RMK AO2 SLP163 T02560022 10256 20083 51011
93073KASE ASE20160626105510506/26/16 10:55:31  5-MIN KASE 261755Z 03009KT 10SM CLR 26/02 A3040 7400 21 10300 020/09 RMK AO2 T02560017
93073KASE ASE20160626110010506/26/16 11:00:31  5-MIN KASE 261800Z VRB05KT 10SM CLR 26/02 A3040 7400 21 10300 VRB/05 RMK AO2 T02560017
93073KASE ASE20160626110510506/26/16 11:05:31  5-MIN KASE 261805Z 02008KT 10SM CLR 26/02 A3040 7400 20 10300 010/08 RMK AO2 T02610017
93073KASE ASE20160626111010506/26/16 11:10:31  5-MIN KASE 261810Z 34009KT 10SM CLR 27/03 A3040 7400 21 10400 330/09 RMK AO2 T02670028
93073KASE ASE20160626111510506/26/16 11:15:31  5-MIN KASE 261815Z 36010KT 10SM CLR 27/02 A3040 7400 20 10400 350/10 RMK AO2 T02670022
93073KASE ASE20160626112011106/26/16 11:20:31  5-MIN KASE 261820Z 01011G17KT 10SM CLR 26/02 A3040 7400 21 10300 360/11G17 RMK AO2 T02610022
93073KASE ASE20160626112511106/26/16 11:25:31  5-MIN KASE 261825Z 01012G17KT 10SM CLR 27/02 A3040 7400 19 10400 360/12G17 RMK AO2 T02670017
93073KASE ASE20160626113011106/26/16 11:30:31  5-MIN KASE 261830Z 35010G15KT 10SM CLR 27/02 A3039 7410 19 10400 340/10G15 RMK AO2 T02670017
93073KASE ASE20160626113510506/26/16 11:35:31  5-MIN KASE 261835Z 35011KT 10SM CLR 27/02 A3039 7400 19 10400 340/11 RMK AO2 T02670017
93073KASE ASE20160626114010506/26/16 11:40:31  5-MIN KASE 261840Z 36009KT 10SM CLR 27/01 A3040 7400 18 10400 350/09 RMK AO2 T02670011
93073KASE ASE20160626114512706/26/16 11:45:31  5-MIN KASE 261845Z 01008G15KT 340V050 10SM CLR 27/02 A3039 7410 19 10400 360/08G15 330V040 RMK AO2 T02670017
93073KASE ASE20160626115011806/26/16 11:50:31  5-MIN KASE 261850Z 34010G16KT 10SM CLR 27/01 A3040 7400 18 10400 330/10G16 RMK AO2 SLP157 T02720011
93073KASE ASE20160626115510506/26/16 11:55:31  5-MIN KASE 261855Z 36011KT 10SM CLR 27/01 A3039 7410 18 10400 350/11 RMK AO2 T02720011
93073KASE ASE20160626120010506/26/16 12:00:31  5-MIN KASE 261900Z 01010KT 10SM CLR 27/01 A3039 7410 18 10400 360/10 RMK AO2 T02720011
93073KASE ASE20160626120511106/26/16 12:05:31  5-MIN KASE 261905Z 36009G17KT 10SM CLR 27/00 A3039 7410 16 10400 350/09G17 RMK AO2 T02720000
93073KASE ASE20160626121011106/26/16 12:10:31  5-MIN KASE 261910Z 35013G18KT 10SM CLR 27/00 A3039 7410 16 10400 340/13G18 RMK AO2 T02720000
93073KASE ASE20160626121512706/26/16 12:15:31  5-MIN KASE 261915Z 35009G18KT 310V010 10SM CLR 27/00 A3039 7410 16 10500 350/09G18 300V360 RMK AO2 T02720000
93073KASE ASE20160626122012806/26/16 12:20:31  5-MIN KASE 261920Z 34011G18KT 290V020 10SM CLR 27/M01 A3039 7410 16 10400 330/11G18 280V010 RMK AO2 T02721006
93073KASE ASE20160626122511106/26/16 12:25:31  5-MIN KASE 261925Z 35010G18KT 10SM CLR 28/00 A3039 7410 16 10500 340/10G18 RMK AO2 T02780000
93073KASE ASE20160626123010506/26/16 12:30:31  5-MIN KASE 261930Z 36010KT 10SM CLR 28/01 A3039 7410 17 10500 350/10 RMK AO2 T02780006
93073KASE ASE20160626123511106/26/16 12:35:31  5-MIN KASE 261935Z 36011G14KT 10SM CLR 27/01 A3039 7410 17 10400 350/11G14 RMK AO2 T02720006
93073KASE ASE20160626124012706/26/16 12:40:31  5-MIN KASE 261940Z 32008G14KT 290V360 10SM CLR 27/00 A3039 7410 16 10400 310/08G14 280V350 RMK AO2 T02720000
93073KASE ASE20160626124511506/26/16 12:45:31  5-MIN KASE 261945Z 35008G17KT 10SM FEW110 27/M01 A3039 7410 16 10400 350/08G17 RMK AO2 T02671011
93073KASE ASE20160626125012106/26/16 12:50:31  5-MIN KASE 261950Z 32012G17KT 10SM FEW110 28/00 A3039 7410 16 10500 310/12G17 RMK AO2 SLP155 T02780000
93073KASE ASE20160626125511206/26/16 12:55:31  5-MIN KASE 261955Z 35009G18KT 10SM CLR 28/M01 A3039 7410 15 10500 340/09G18 RMK AO2 T02781006
93073KASE ASE20160626130011206/26/16 13:00:31  5-MIN KASE 262000Z 32011G18KT 10SM CLR 28/M01 A3039 7410 15 10500 310/11G18 RMK AO2 T02781006
93073KASE ASE20160626130511106/26/16 13:05:31  5-MIN KASE 262005Z 32011G18KT 10SM CLR 28/00 A3039 7410 16 10500 310/11G18 RMK AO2 T02780000
93073KASE ASE20160626131011206/26/16 13:10:31  5-MIN KASE 262010Z 35010G18KT 10SM CLR 28/M01 A3039 7410 15 10500 340/10G18 RMK AO2 T02781011
93073KASE ASE20160626131512806/26/16 13:15:31  5-MIN KASE 262015Z 31008G18KT 270V330 10SM CLR 28/M02 A3039 7410 14 10500 300/08G18 260V320 RMK AO2 T02781017
93073KASE ASE20160626132012806/26/16 13:20:31  5-MIN KASE 262020Z 34010G17KT 310V020 10SM CLR 28/M01 A3039 7410 14 10600 330/10G17 300V010 RMK AO2 T02831011
93073KASE ASE20160626132511206/26/16 13:25:31  5-MIN KASE 262025Z 34010G17KT 10SM CLR 28/M01 A3039 7410 14 10600 330/10G17 RMK AO2 T02831011
93073KASE ASE20160626133011206/26/16 13:30:31  5-MIN KASE 262030Z 33013G22KT 10SM CLR 28/M02 A3038 7420 14 10600 320/13G22 RMK AO2 T02831017
93073KASE ASE20160626133511206/26/16 13:35:31  5-MIN KASE 262035Z 34011G22KT 10SM CLR 28/M02 A3039 7410 13 10600 330/11G22 RMK AO2 T02831022
93073KASE ASE20160626134011206/26/16 13:40:31  5-MIN KASE 262040Z 34011G18KT 10SM CLR 28/M02 A3039 7410 14 10600 330/11G18 RMK AO2 T02831017
93073KASE ASE20160626134511206/26/16 13:45:31  5-MIN KASE 262045Z 36014G21KT 10SM CLR 28/M03 A3039 7410 13 10600 350/14G21 RMK AO2 T02831028
93073KASE ASE20160626135012506/26/16 13:50:31  5-MIN KASE 262050Z 34012G21KT 10SM CLR 28/M04 A3039 7410 12 10600 340/12G21 RMK AO2 SLP154 T02831039 58004
93073KASE ASE20160626135511206/26/16 13:55:31  5-MIN KASE 262055Z 35010G22KT 10SM CLR 28/M03 A3038 7420 12 10600 350/10G22 RMK AO2 T02831033
93073KASE ASE20160626140011206/26/16 14:00:31  5-MIN KASE 262100Z VRB06G22KT 10SM CLR 28/M03 A3038 7420 12 10500 VRB/06G22 RMK AO2 T02781033
93073KASE ASE20160626140511206/26/16 14:05:31  5-MIN KASE 262105Z 34010G17KT 10SM CLR 28/M03 A3038 7420 12 10600 330/10G17 RMK AO2 T02831033
93073KASE ASE20160626141011206/26/16 14:10:31  5-MIN KASE 262110Z 35010G17KT 10SM CLR 28/M03 A3038 7420 13 10600 340/10G17 RMK AO2 T02831028
93073KASE ASE20160626141511206/26/16 14:15:31  5-MIN KASE 262115Z 34011G20KT 10SM CLR 29/M03 A3039 7410 12 10600 330/11G20 RMK AO2 T02891033
93073KASE ASE20160626142011206/26/16 14:20:31  5-MIN KASE 262120Z 31010G23KT 10SM CLR 28/M04 A3038 7420 11 10600 300/10G23 RMK AO2 T02831044
93073KASE ASE20160626142512806/26/16 14:25:31  5-MIN KASE 262125Z 32007G23KT 260V340 10SM CLR 28/M05 A3038 7420 11 10500 310/07G23 250V330 RMK AO2 T02781050
93073KASE ASE20160626143011206/26/16 14:30:31  5-MIN KASE 262130Z 32013G18KT 10SM CLR 28/M04 A3038 7420 11 10600 310/13G18 RMK AO2 T02831044
93073KASE ASE20160626143511206/26/16 14:35:31  5-MIN KASE 262135Z 35014G20KT 10SM CLR 29/M05 A3038 7420 10 10600 340/14G20 RMK AO2 T02891050
93073KASE ASE20160626144011206/26/16 14:40:31  5-MIN KASE 262140Z 34012G20KT 10SM CLR 28/M06 A3038 7420 10 10600 330/12G20 RMK AO2 T02831061
93073KASE ASE20160626144510606/26/16 14:45:31  5-MIN KASE 262145Z 36008KT 10SM CLR 28/M06 A3038 7420 10 10600 350/08 RMK AO2 T02831056
93073KASE ASE20160626145011306/26/16 14:50:31  5-MIN KASE 262150Z 33010KT 10SM CLR 28/M06 A3038 7420 10 10600 320/10 RMK AO2 SLP154 T02831056
93073KASE ASE20160626145511206/26/16 14:55:31  5-MIN KASE 262155Z VRB05G15KT 10SM CLR 28/M06 A3038 7420 11 10500 VRB/05G15 RMK AO2 T02781056
93073KASE ASE20160626150012806/26/16 15:00:31  5-MIN KASE 262200Z 29008G16KT 260V330 10SM CLR 28/M05 A3038 7420 11 10600 280/08G16 250V320 RMK AO2 T02831050
93073KASE ASE20160626150512806/26/16 15:05:31  5-MIN KASE 262205Z 01010G18KT 340V040 10SM CLR 28/M04 A3038 7420 12 10600 360/10G18 330V030 RMK AO2 T02831039
93073KASE ASE20160626151011206/26/16 15:10:31  5-MIN KASE 262210Z 35012G18KT 10SM CLR 28/M04 A3038 7420 12 10600 340/12G18 RMK AO2 T02831039
93073KASE ASE20160626151511206/26/16 15:15:31  5-MIN KASE 262215Z 33014G19KT 10SM CLR 28/M04 A3038 7420 11 10600 320/14G19 RMK AO2 T02831044
93073KASE ASE20160626152011206/26/16 15:20:31  5-MIN KASE 262220Z 35012G20KT 10SM CLR 28/M04 A3038 7420 11 10600 340/12G20 RMK AO2 T02831044
93073KASE ASE20160626152511206/26/16 15:25:31  5-MIN KASE 262225Z 36010G20KT 10SM CLR 28/M04 A3038 7420 12 10600 350/10G20 RMK AO2 T02831039
93073KASE ASE20160626153011206/26/16 15:30:31  5-MIN KASE 262230Z 34009G20KT 10SM CLR 28/M04 A3038 7420 12 10600 330/09G20 RMK AO2 T02831039
93073KASE ASE20160626153511206/26/16 15:35:31  5-MIN KASE 262235Z 34011G16KT 10SM CLR 28/M04 A3038 7420 12 10600 330/11G16 RMK AO2 T02831039
93073KASE ASE20160626154011206/26/16 15:40:31  5-MIN KASE 262240Z 34012G16KT 10SM CLR 28/M04 A3038 7420 12 10600 330/12G16 RMK AO2 T02831039
93073KASE ASE20160626154511206/26/16 15:45:31  5-MIN KASE 262245Z 33013G19KT 10SM CLR 28/M04 A3038 7420 12 10600 320/13G19 RMK AO2 T02831039
93073KASE ASE20160626155011906/26/16 15:50:31  5-MIN KASE 262250Z 35009G19KT 10SM CLR 28/M04 A3038 7420 11 10600 350/09G19 RMK AO2 SLP153 T02831044
93073KASE ASE20160626155510606/26/16 15:55:31  5-MIN KASE 262255Z 36005KT 10SM CLR 28/M04 A3038 7420 11 10600 350/05 RMK AO2 T02831044
93073KASE ASE20160626160011206/26/16 16:00:31  5-MIN KASE 262300Z 36013G19KT 10SM CLR 28/M04 A3037 7420 12 10600 350/13G19 RMK AO2 T02831039
93073KASE ASE20160626160511206/26/16 16:05:31  5-MIN KASE 262305Z 34011G19KT 10SM CLR 28/M04 A3037 7420 12 10600 330/11G19 RMK AO2 T02831039
93073KASE ASE20160626161011206/26/16 16:10:31  5-MIN KASE 262310Z 35009G17KT 10SM CLR 28/M04 A3037 7420 12 10500 340/09G17 RMK AO2 T02781039
93073KASE ASE20160626161511206/26/16 16:15:31  5-MIN KASE 262315Z 32008G17KT 10SM CLR 28/M04 A3038 7420 12 10500 310/08G17 RMK AO2 T02781039
93073KASE ASE20160626162011206/26/16 16:20:31  5-MIN KASE 262320Z 31011G16KT 10SM CLR 28/M04 A3037 7420 12 10500 300/11G16 RMK AO2 T02781039
93073KASE ASE20160626162510606/26/16 16:25:31  5-MIN KASE 262325Z 35010KT 10SM CLR 28/M04 A3037 7430 12 10500 340/10 RMK AO2 T02781039
93073KASE ASE20160626163011206/26/16 16:30:31  5-MIN KASE 262330Z 33010G17KT 10SM CLR 28/M03 A3037 7430 12 10600 330/10G17 RMK AO2 T02831033
93073KASE ASE20160626163510606/26/16 16:35:31  5-MIN KASE 262335Z 31009KT 10SM CLR 28/M04 A3037 7430 12 10500 300/09 RMK AO2 T02781039
93073KASE ASE20160626164011206/26/16 16:40:31  5-MIN KASE 262340Z 34011G17KT 10SM CLR 28/M04 A3037 7430 12 10600 330/11G17 RMK AO2 T02831039
93073KASE ASE20160626164511206/26/16 16:45:31  5-MIN KASE 262345Z 34011G17KT 10SM CLR 28/M04 A3037 7430 11 10500 330/11G17 RMK AO2 T02781044
93073KASE ASE20160626165013106/26/16 16:50:31  5-MIN KASE 262350Z 34009KT 10SM CLR 28/M04 A3037 7430 11 10500 330/09 RMK AO2 SLP158 T02781044 10289 20256 56006
93073KASE ASE20160626165510606/26/16 16:55:31  5-MIN KASE 262355Z 33009KT 10SM CLR 28/M04 A3037 7430 12 10500 320/09 RMK AO2 T02781039
93073KASE ASE20160626170010606/26/16 17:00:31  5-MIN KASE 270000Z 36006KT 10SM CLR 27/M04 A3037 7430 12 10500 350/06 RMK AO2 T02721039
93073KASE ASE20160626170510606/26/16 17:05:31  5-MIN KASE 270005Z 01008KT 10SM CLR 28/M04 A3036 7430 12 10500 360/08 RMK AO2 T02781039
93073KASE ASE20160626171010606/26/16 17:10:31  5-MIN KASE 270010Z 34006KT 10SM CLR 27/M04 A3036 7430 12 10500 330/06 RMK AO2 T02721044
93073KASE ASE20160626171510606/26/16 17:15:31  5-MIN KASE 270015Z 34008KT 10SM CLR 28/M03 A3036 7430 12 10500 330/08 RMK AO2 T02781033
93073KASE ASE20160626172010606/26/16 17:20:31  5-MIN KASE 270020Z 34007KT 10SM CLR 28/M03 A3037 7430 12 10500 330/07 RMK AO2 T02781033
93073KASE ASE20160626172510606/26/16 17:25:31  5-MIN KASE 270025Z 32010KT 10SM CLR 27/M03 A3037 7430 13 10500 310/10 RMK AO2 T02721033
93073KASE ASE20160626173010606/26/16 17:30:31  5-MIN KASE 270030Z 33008KT 10SM CLR 27/M03 A3037 7430 13 10500 320/08 RMK AO2 T02721033
93073KASE ASE20160626173510606/26/16 17:35:31  5-MIN KASE 270035Z 34009KT 10SM CLR 27/M04 A3037 7430 12 10500 340/09 RMK AO2 T02721039
93073KASE ASE20160626174010606/26/16 17:40:31  5-MIN KASE 270040Z 34007KT 10SM CLR 27/M04 A3037 7430 12 10500 330/07 RMK AO2 T02721044
93073KASE ASE20160626174510606/26/16 17:45:31  5-MIN KASE 270045Z 32008KT 10SM CLR 27/M03 A3037 7430 14 10400 310/08 RMK AO2 T02671028
93073KASE ASE20160626175011306/26/16 17:50:31  5-MIN KASE 270050Z 30006KT 10SM CLR 27/M03 A3037 7430 13 10400 290/06 RMK AO2 SLP155 T02671033
93073KASE ASE20160626175510606/26/16 17:55:31  5-MIN KASE 270055Z 31004KT 10SM CLR 26/M03 A3037 7430 14 10400 300/04 RMK AO2 T02611028
93073KASE ASE20160626180010606/26/16 18:00:31  5-MIN KASE 270100Z 32005KT 10SM CLR 26/M02 A3037 7420 15 10400 310/05 RMK AO2 T02611022
93073KASE ASE20160626180510606/26/16 18:05:31  5-MIN KASE 270105Z 30005KT 10SM CLR 26/M03 A3037 7420 14 10300 290/05 RMK AO2 T02611033
93073KASE ASE20160626181010606/26/16 18:10:31  5-MIN KASE 270110Z 30005KT 10SM CLR 26/M03 A3037 7420 14 10300 290/05 RMK AO2 T02561033
93073KASE ASE20160626181511106/26/16 18:15:31  5-MIN KASE 270115Z AUTO 30004KT 10SM CLR 26/M03 A3037 7420 14 10300 290/04 RMK AO2 T02561033
93073KASE ASE20160626182011106/26/16 18:20:31  5-MIN KASE 270120Z AUTO 28005KT 10SM CLR 25/M03 A3038 7420 15 10200 280/05 RMK AO2 T02501033
93073KASE ASE20160626182511106/26/16 18:25:31  5-MIN KASE 270125Z AUTO VRB04KT 10SM CLR 25/M04 A3038 7420 14 10200 VRB/04 RMK AO2 T02501039
93073KASE ASE20160626183011106/26/16 18:30:31  5-MIN KASE 270130Z AUTO 29003KT 10SM CLR 23/M02 A3038 7420 18 10000 280/03 RMK AO2 T02331017
93073KASE ASE20160626183511106/26/16 18:35:31  5-MIN KASE 270135Z AUTO 28005KT 10SM CLR 23/M03 A3038 7420 17 10000 270/05 RMK AO2 T02331028
93073KASE ASE20160626184011106/26/16 18:40:31  5-MIN KASE 270140Z AUTO 27006KT 10SM CLR 24/M04 A3038 7420 15 10100 260/06 RMK AO2 T02391039
93073KASE ASE20160626184511106/26/16 18:45:31  5-MIN KASE 270145Z AUTO 29007KT 10SM CLR 23/M04 A3038 7420 16 10000 280/07 RMK AO2 T02331039
93073KASE ASE20160626185011806/26/16 18:50:31  5-MIN KASE 270150Z AUTO 28007KT 10SM CLR 23/M04 A3038 7420 16 10000 270/07 RMK AO2 SLP158 T02331039
93073KASE ASE20160626185511106/26/16 18:55:31  5-MIN KASE 270155Z AUTO 28007KT 10SM CLR 23/M03 A3038 7410 17 10000 270/07 RMK AO2 T02281033
93073KASE ASE20160626190011006/26/16 19:00:31  5-MIN KASE 270200Z AUTO 27006KT 10SM CLR 22/M04 A3039 7410 17 9900 260/06 RMK AO2 T02221039
93073KASE ASE20160626190511006/26/16 19:05:31  5-MIN KASE 270205Z AUTO 28007KT 10SM CLR 22/M03 A3039 7410 19 9900 270/07 RMK AO2 T02171028
93073KASE ASE20160626191011006/26/16 19:10:31  5-MIN KASE 270210Z AUTO 28006KT 10SM CLR 22/M04 A3039 7410 17 9900 270/06 RMK AO2 T02221039
93073KASE ASE20160626191511006/26/16 19:15:31  5-MIN KASE 270215Z AUTO VRB04KT 10SM CLR 21/M02 A3039 7410 21 9700 VRB/04 RMK AO2 T02061022
93073KASE ASE20160626192010906/26/16 19:20:31  5-MIN KASE 270220Z AUTO 15003KT 10SM CLR 19/00 A3039 7410 27 9600 140/03 RMK AO2 T01940000
93073KASE ASE20160626192510906/26/16 19:25:31  5-MIN KASE 270225Z AUTO 16003KT 10SM CLR 19/00 A3039 7410 27 9600 150/03 RMK AO2 T01940000
93073KASE ASE20160626193010906/26/16 19:30:31  5-MIN KASE 270230Z AUTO VRB03KT 10SM CLR 19/01 A3040 7400 28 9600 VRB/03 RMK AO2 T01940006
93073KASE ASE20160626193510906/26/16 19:35:31  5-MIN KASE 270235Z AUTO 16008KT 10SM CLR 19/01 A3040 7400 29 9600 160/08 RMK AO2 T01940011
93073KASE ASE20160626194010906/26/16 19:40:31  5-MIN KASE 270240Z AUTO 16008KT 10SM CLR 19/02 A3040 7400 31 9500 160/08 RMK AO2 T01890017
93073KASE ASE20160626194510906/26/16 19:45:31  5-MIN KASE 270245Z AUTO 19010KT 10SM CLR 18/02 A3040 7400 33 9400 180/10 RMK AO2 T01780017
93073KASE ASE20160626195012206/26/16 19:50:31  5-MIN KASE 270250Z AUTO 19007KT 10SM CLR 18/02 A3041 7390 33 9400 180/07 RMK AO2 SLP175 T01780017 58004
93073KASE ASE20160626195510906/26/16 19:55:31  5-MIN KASE 270255Z AUTO 20005KT 10SM CLR 18/01 A3041 7390 32 9400 190/05 RMK AO2 T01780011
93073KASE ASE20160626200010906/26/16 20:00:31  5-MIN KASE 270300Z AUTO 19005KT 10SM CLR 16/02 A3041 7390 39 9200 180/05 RMK AO2 T01610022
93073KASE ASE20160626200510906/26/16 20:05:31  5-MIN KASE 270305Z AUTO 18008KT 10SM CLR 16/02 A3041 7390 37 9200 170/08 RMK AO2 T01610017
93073KASE ASE20160626201010906/26/16 20:10:31  5-MIN KASE 270310Z AUTO 20006KT 10SM CLR 17/01 A3041 7390 33 9300 190/06 RMK AO2 T01720011
93073KASE ASE20160626201510906/26/16 20:15:31  5-MIN KASE 270315Z AUTO 19006KT 10SM CLR 16/02 A3042 7380 37 9200 180/06 RMK AO2 T01610017
93073KASE ASE20160626202010906/26/16 20:20:31  5-MIN KASE 270320Z AUTO 20006KT 10SM CLR 17/01 A3042 7380 33 9300 190/06 RMK AO2 T01670006
93073KASE ASE20160626202510906/26/16 20:25:31  5-MIN KASE 270325Z AUTO 21007KT 10SM CLR 16/01 A3042 7380 37 9200 200/07 RMK AO2 T01560011
93073KASE ASE20160626203010906/26/16 20:30:31  5-MIN KASE 270330Z AUTO 21006KT 10SM CLR 15/01 A3043 7380 38 9100 210/06 RMK AO2 T01500011
93073KASE ASE20160626203510906/26/16 20:35:31  5-MIN KASE 270335Z AUTO 21006KT 10SM CLR 15/01 A3043 7370 37 9100 200/06 RMK AO2 T01500006
93073KASE ASE20160626204010906/26/16 20:40:31  5-MIN KASE 270340Z AUTO 19007KT 10SM CLR 15/01 A3044 7370 37 9100 180/07 RMK AO2 T01500006
93073KASE ASE20160626204510906/26/16 20:45:31  5-MIN KASE 270345Z AUTO 19008KT 10SM CLR 13/02 A3044 7370 45 8900 180/08 RMK AO2 T01330017
93073KASE ASE20160626205011606/26/16 20:50:31  5-MIN KASE 270350Z AUTO 19009KT 10SM CLR 13/01 A3044 7360 44 8800 180/09 RMK AO2 SLP194 T01280011
93073KASE ASE20160626205510906/26/16 20:55:31  5-MIN KASE 270355Z AUTO 21009KT 10SM CLR 14/00 A3045 7360 37 9000 200/09 RMK AO2 T01440000
93073KASE ASE20160626210010906/26/16 21:00:31  5-MIN KASE 270400Z AUTO 21008KT 10SM CLR 15/00 A3045 7360 35 9100 200/08 RMK AO2 T01500000
93073KASE ASE20160626210510906/26/16 21:05:31  5-MIN KASE 270405Z AUTO 20007KT 10SM CLR 14/00 A3045 7350 38 8900 190/07 RMK AO2 T01390000
93073KASE ASE20160626211010906/26/16 21:10:31  5-MIN KASE 270410Z AUTO 20007KT 10SM CLR 13/00 A3045 7350 40 8900 190/07 RMK AO2 T01330000
93073KASE ASE20160626211511006/26/16 21:15:31  5-MIN KASE 270415Z AUTO 20008KT 10SM CLR 14/M01 A3046 7350 35 9000 190/08 RMK AO2 T01441006
93073KASE ASE20160626212010906/26/16 21:20:31  5-MIN KASE 270420Z AUTO 20007KT 10SM CLR 13/00 A3046 7350 40 8900 190/07 RMK AO2 T01330000
93073KASE ASE20160626212510906/26/16 21:25:31  5-MIN KASE 270425Z AUTO 20007KT 10SM CLR 13/00 A3046 7340 40 8900 190/07 RMK AO2 T01330000
93073KASE ASE20160626213010906/26/16 21:30:31  5-MIN KASE 270430Z AUTO 20007KT 10SM CLR 13/00 A3046 7340 41 8800 190/07 RMK AO2 T01280000
93073KASE ASE20160626213510906/26/16 21:35:31  5-MIN KASE 270435Z AUTO 20008KT 10SM CLR 13/00 A3046 7340 40 8900 190/08 RMK AO2 T01330000
93073KASE ASE20160626214011006/26/16 21:40:31  5-MIN KASE 270440Z AUTO 20007KT 10SM CLR 13/M01 A3046 7340 39 8800 190/07 RMK AO2 T01281006
93073KASE ASE20160626214510906/26/16 21:45:31  5-MIN KASE 270445Z AUTO 20007KT 10SM CLR 12/00 A3046 7340 43 8700 190/07 RMK AO2 T01220000
93073KASE ASE20160626215011606/26/16 21:50:31  5-MIN KASE 270450Z AUTO 19008KT 10SM CLR 12/00 A3046 7340 43 8700 190/08 RMK AO2 SLP197 T01220000
93073KASE ASE20160626215511006/26/16 21:55:31  5-MIN KASE 270455Z AUTO 21006KT 10SM CLR 13/M01 A3047 7340 36 8900 200/06 RMK AO2 T01331011
93073KASE ASE20160626220011006/26/16 22:00:31  5-MIN KASE 270500Z AUTO 20008KT 10SM CLR 14/M01 A3047 7340 35 8900 190/08 RMK AO2 T01391011
93073KASE ASE20160626220511006/26/16 22:05:31  5-MIN KASE 270505Z AUTO 20008KT 10SM CLR 14/M02 A3047 7340 33 9000 190/08 RMK AO2 T01441017
93073KASE ASE20160626221011006/26/16 22:10:31  5-MIN KASE 270510Z AUTO 20009KT 10SM CLR 13/M01 A3047 7340 39 8800 190/09 RMK AO2 T01281006
93073KASE ASE20160626221511006/26/16 22:15:31  5-MIN KASE 270515Z AUTO 21008KT 10SM CLR 12/M01 A3046 7340 39 8700 200/08 RMK AO2 T01221011
93073KASE ASE20160626222011006/26/16 22:20:31  5-MIN KASE 270520Z AUTO 21010KT 10SM CLR 12/M01 A3047 7340 41 8700 200/10 RMK AO2 T01171011
93073KASE ASE20160626222511006/26/16 22:25:31  5-MIN KASE 270525Z AUTO 21009KT 10SM CLR 12/M01 A3047 7340 39 8700 200/09 RMK AO2 T01221011
93073KASE ASE20160626223011006/26/16 22:30:31  5-MIN KASE 270530Z AUTO 20008KT 10SM CLR 13/M02 A3047 7340 35 8900 190/08 RMK AO2 T01331017
93073KASE ASE20160626223511006/26/16 22:35:31  5-MIN KASE 270535Z AUTO 20007KT 10SM CLR 13/M02 A3047 7340 35 8900 200/07 RMK AO2 T01331017
93073KASE ASE20160626224011006/26/16 22:40:31  5-MIN KASE 270540Z AUTO 21007KT 10SM CLR 13/M02 A3047 7340 36 8800 200/07 RMK AO2 T01281017
93073KASE ASE20160626224511006/26/16 22:45:31  5-MIN KASE 270545Z AUTO 21008KT 10SM CLR 13/M02 A3047 7340 36 8800 200/08 RMK AO2 T01281017
93073KASE ASE20160626225013506/26/16 22:50:31  5-MIN KASE 270550Z AUTO 21009KT 10SM CLR 13/M02 A3047 7340 36 8800 200/09 RMK AO2 SLP188 T01281017 10278 20117 53012
93073KASE ASE20160626225511006/26/16 22:55:31  5-MIN KASE 270555Z AUTO 21007KT 10SM CLR 13/M02 A3047 7340 34 8900 200/07 RMK AO2 T01331022
93073KASE ASE20160626230011006/26/16 23:00:31  5-MIN KASE 270600Z AUTO 20007KT 10SM CLR 13/M02 A3047 7330 34 8800 190/07 RMK AO2 T01331022
93073KASE ASE20160626230511006/26/16 23:05:31  5-MIN KASE 270605Z AUTO 20007KT 10SM CLR 13/M02 A3047 7330 35 8800 190/07 RMK AO2 T01281022
93073KASE ASE20160626231011006/26/16 23:10:31  5-MIN KASE 270610Z AUTO 22010KT 10SM CLR 12/M02 A3047 7340 39 8700 210/10 RMK AO2 T01171017
93073KASE ASE20160626231511006/26/16 23:15:31  5-MIN KASE 270615Z AUTO 21009KT 10SM CLR 12/M02 A3047 7330 36 8700 200/09 RMK AO2 T01221022
93073KASE ASE20160626232011006/26/16 23:20:31  5-MIN KASE 270620Z AUTO 21008KT 10SM CLR 13/M03 A3047 7330 33 8800 200/08 RMK AO2 T01281028
93073KASE ASE20160626232511006/26/16 23:25:31  5-MIN KASE 270625Z AUTO 21009KT 10SM CLR 13/M03 A3047 7330 33 8800 200/09 RMK AO2 T01281028
93073KASE ASE20160626233011006/26/16 23:30:31  5-MIN KASE 270630Z AUTO 20007KT 10SM CLR 13/M03 A3047 7330 32 8800 190/07 RMK AO2 T01331028
93073KASE ASE20160626233511006/26/16 23:35:31  5-MIN KASE 270635Z AUTO 20007KT 10SM CLR 12/M02 A3047 7330 36 8700 190/07 RMK AO2 T01221022
93073KASE ASE20160626234011006/26/16 23:40:31  5-MIN KASE 270640Z AUTO 22009KT 10SM CLR 11/M02 A3048 7330 39 8600 210/09 RMK AO2 T01111022
93073KASE ASE20160626234511006/26/16 23:45:31  5-MIN KASE 270645Z AUTO 21008KT 10SM CLR 12/M02 A3047 7330 38 8700 200/08 RMK AO2 T01171022
93073KASE ASE20160626235012706/26/16 23:50:31  5-MIN KASE 270650Z AUTO 21008KT 10SM CLR 12/M03 A3047 7340 36 8700 200/08 RMK AO2 SLP188 T01171028 402890072
93073KASE ASE20160626235511006/26/16 23:55:31  5-MIN KASE 270655Z AUTO 21008KT 10SM CLR 12/M03 A3047 7340 36 8700 200/08 RMK AO2 T01171028
93073KASE ASE20160627000011006/27/16 00:00:31  5-MIN KASE 270700Z AUTO 21008KT 10SM CLR 11/M02 A3047 7340 39 8600 200/08 RMK AO2 T01111022
93073KASE ASE20160627000511006/27/16 00:05:31  5-MIN KASE 270705Z AUTO 20006KT 10SM CLR 12/M03 A3047 7340 35 8700 190/06 RMK AO2 T01221028
93073KASE ASE20160627001011006/27/16 00:10:31  5-MIN KASE 270710Z AUTO 21007KT 10SM CLR 12/M03 A3047 7340 36 8700 200/07 RMK AO2 T01171028
93073KASE ASE20160627001511006/27/16 00:15:31  5-MIN KASE 270715Z AUTO 20004KT 10SM CLR 11/M02 A3047 7340 39 8600 190/04 RMK AO2 T01111022
93073KASE ASE20160627002011006/27/16 00:20:31  5-MIN KASE 270720Z AUTO 21007KT 10SM CLR 10/M02 A3047 7330 44 8500 200/07 RMK AO2 T01001017
93073KASE ASE20160627002511006/27/16 00:25:31  5-MIN KASE 270725Z AUTO 21008KT 10SM CLR 11/M02 A3047 7330 39 8600 200/08 RMK AO2 T01111022
93073KASE ASE20160627003011006/27/16 00:30:31  5-MIN KASE 270730Z AUTO 21009KT 10SM CLR 11/M02 A3047 7340 40 8500 200/09 RMK AO2 T01061022
93073KASE ASE20160627003511006/27/16 00:35:31  5-MIN KASE 270735Z AUTO 22009KT 10SM CLR 11/M03 A3047 7330 39 8500 210/09 RMK AO2 T01061028
93073KASE ASE20160627004011006/27/16 00:40:31  5-MIN KASE 270740Z AUTO 21008KT 10SM CLR 11/M02 A3047 7330 40 8500 200/08 RMK AO2 T01061022
93073KASE ASE20160627004511006/27/16 00:45:31  5-MIN KASE 270745Z AUTO 22007KT 10SM CLR 11/M02 A3047 7340 40 8500 210/07 RMK AO2 T01061022
93073KASE ASE20160627005011706/27/16 00:50:31  5-MIN KASE 270750Z AUTO 21005KT 10SM CLR 11/M02 A3047 7340 40 8500 200/05 RMK AO2 SLP188 T01061022
93073KASE ASE20160627005511006/27/16 00:55:31  5-MIN KASE 270755Z AUTO 21007KT 10SM CLR 11/M03 A3047 7340 37 8600 200/07 RMK AO2 T01111028
93073KASE ASE20160627010011006/27/16 01:00:31  5-MIN KASE 270800Z AUTO 20006KT 10SM CLR 12/M03 A3047 7340 33 8700 190/06 RMK AO2 T01221033
93073KASE ASE20160627010511006/27/16 01:05:31  5-MIN KASE 270805Z AUTO 19006KT 10SM CLR 11/M03 A3047 7340 39 8500 180/06 RMK AO2 T01061028
93073KASE ASE20160627011011006/27/16 01:10:31  5-MIN KASE 270810Z AUTO 21007KT 10SM CLR 09/M02 A3047 7340 45 8400 200/07 RMK AO2 T00941017
93073KASE ASE20160627011511006/27/16 01:15:31  5-MIN KASE 270815Z AUTO 20006KT 10SM CLR 11/M03 A3047 7340 39 8500 190/06 RMK AO2 T01061028
93073KASE ASE20160627012011006/27/16 01:20:31  5-MIN KASE 270820Z AUTO 20006KT 10SM CLR 10/M03 A3047 7340 40 8500 190/06 RMK AO2 T01001028
93073KASE ASE20160627012511006/27/16 01:25:31  5-MIN KASE 270825Z AUTO 21007KT 10SM CLR 10/M02 A3047 7340 42 8500 200/07 RMK AO2 T01001022
93073KASE ASE20160627013011006/27/16 01:30:31  5-MIN KASE 270830Z AUTO 22007KT 10SM CLR 10/M02 A3047 7340 42 8500 210/07 RMK AO2 T01001022
93073KASE ASE20160627013511006/27/16 01:35:31  5-MIN KASE 270835Z AUTO 21005KT 10SM CLR 09/M02 A3047 7340 44 8400 200/05 RMK AO2 T00941022
93073KASE ASE20160627014011006/27/16 01:40:31  5-MIN KASE 270840Z AUTO VRB05KT 10SM CLR 09/M02 A3046 7340 44 8400 VRB/05 RMK AO2 T00941022
93073KASE ASE20160627014511006/27/16 01:45:31  5-MIN KASE 270845Z AUTO 20006KT 10SM CLR 09/M02 A3047 7340 44 8400 190/06 RMK AO2 T00941022
93073KASE ASE20160627015012306/27/16 01:50:31  5-MIN KASE 270850Z AUTO 21009KT 10SM CLR 09/M02 A3047 7340 47 8400 200/09 RMK AO2 SLP190 T00891017 51017
93073KASE ASE20160627015511006/27/16 01:55:31  5-MIN KASE 270855Z AUTO 21008KT 10SM CLR 09/M02 A3046 7340 44 8400 200/08 RMK AO2 T00941022
93073KASE ASE20160627020011006/27/16 02:00:31  5-MIN KASE 270900Z AUTO 21008KT 10SM CLR 10/M03 A3047 7340 40 8500 200/08 RMK AO2 T01001028
93073KASE ASE20160627020511006/27/16 02:05:31  5-MIN KASE 270905Z AUTO 21008KT 10SM CLR 10/M03 A3047 7340 40 8500 200/08 RMK AO2 T01001028
93073KASE ASE20160627021011006/27/16 02:10:31  5-MIN KASE 270910Z AUTO 20007KT 10SM CLR 10/M03 A3047 7340 40 8500 190/07 RMK AO2 T01001028
93073KASE ASE20160627021511006/27/16 02:15:31  5-MIN KASE 270915Z AUTO 22009KT 10SM CLR 09/M02 A3047 7340 45 8400 210/09 RMK AO2 T00891022
93073KASE ASE20160627022011006/27/16 02:20:31  5-MIN KASE 270920Z AUTO 21008KT 10SM CLR 09/M02 A3047 7340 45 8400 200/08 RMK AO2 T00891022
93073KASE ASE20160627022511006/27/16 02:25:31  5-MIN KASE 270925Z AUTO 22007KT 10SM CLR 09/M03 A3047 7340 42 8400 210/07 RMK AO2 T00941028
93073KASE ASE20160627023011006/27/16 02:30:31  5-MIN KASE 270930Z AUTO 22007KT 10SM CLR 09/M02 A3047 7340 45 8300 210/07 RMK AO2 T00891022
93073KASE ASE20160627023511006/27/16 02:35:31  5-MIN KASE 270935Z AUTO 21006KT 10SM CLR 09/M02 A3047 7330 44 8400 200/06 RMK AO2 T00941022
93073KASE ASE20160627024011006/27/16 02:40:31  5-MIN KASE 270940Z AUTO 20005KT 10SM CLR 09/M03 A3047 7330 42 8400 190/05 RMK AO2 T00941028
93073KASE ASE20160627024511006/27/16 02:45:31  5-MIN KASE 270945Z AUTO 21007KT 10SM CLR 09/M02 A3047 7340 45 8300 200/07 RMK AO2 T00891022
93073KASE ASE20160627025011706/27/16 02:50:31  5-MIN KASE 270950Z AUTO 22010KT 10SM CLR 09/M03 A3047 7340 43 8300 210/10 RMK AO2 SLP192 T00891028
93073KASE ASE20160627025511006/27/16 02:55:31  5-MIN KASE 270955Z AUTO 21007KT 10SM CLR 09/M03 A3047 7340 42 8400 200/07 RMK AO2 T00941028
93073KASE ASE20160627030011006/27/16 03:00:31  5-MIN KASE 271000Z AUTO 21004KT 10SM CLR 10/M03 A3047 7340 40 8500 200/04 RMK AO2 T01001028
93073KASE ASE20160627030511006/27/16 03:05:31  5-MIN KASE 271005Z AUTO 00000KT 10SM CLR 09/M03 A3047 7330 42 8400 000/00 RMK AO2 T00941028
93073KASE ASE20160627031011006/27/16 03:10:31  5-MIN KASE 271010Z AUTO 00000KT 10SM CLR 07/M02 A3048 7330 53 8200 000/00 RMK AO2 T00721017
93073KASE ASE20160627031511506/27/16 03:15:31  5-MIN KASE 271015Z AUTO 00000KT 10SM CLR 08/M02 A3048 7330 47 8300 000/00 RMK AO2 T00831022 TSNO
93073KASE ASE20160627032011506/27/16 03:20:31  5-MIN KASE 271020Z AUTO 21006KT 10SM CLR 08/M02 A3047 7330 47 8300 200/06 RMK AO2 T00831022 TSNO
93073KASE ASE20160627032511506/27/16 03:25:31  5-MIN KASE 271025Z AUTO 22009KT 10SM CLR 08/M02 A3048 7330 47 8300 210/09 RMK AO2 T00831022 TSNO
93073KASE ASE20160627033011006/27/16 03:30:31  5-MIN KASE 271030Z AUTO 22008KT 10SM CLR 09/M03 A3048 7330 43 8300 210/08 RMK AO2 T00891028
93073KASE ASE20160627033511006/27/16 03:35:31  5-MIN KASE 271035Z AUTO 21007KT 10SM CLR 09/M03 A3047 7330 42 8400 200/07 RMK AO2 T00941028
93073KASE ASE20160627034011006/27/16 03:40:31  5-MIN KASE 271040Z AUTO 21006KT 10SM CLR 09/M03 A3047 7330 42 8400 200/06 RMK AO2 T00941028
93073KASE ASE20160627034511006/27/16 03:45:31  5-MIN KASE 271045Z AUTO 19005KT 10SM CLR 09/M03 A3048 7330 42 8400 180/05 RMK AO2 T00941028
93073KASE ASE20160627035011706/27/16 03:50:31  5-MIN KASE 271050Z AUTO 20005KT 10SM CLR 09/M03 A3047 7330 43 8300 190/05 RMK AO2 SLP193 T00891028
93073KASE ASE20160627035511006/27/16 03:55:31  5-MIN KASE 271055Z AUTO 20005KT 10SM CLR 08/M03 A3047 7330 45 8300 190/05 RMK AO2 T00831028
93073KASE ASE20160627040011006/27/16 04:00:31  5-MIN KASE 271100Z AUTO 19005KT 10SM CLR 09/M03 A3048 7330 43 8300 180/05 RMK AO2 T00891028
93073KASE ASE20160627040511006/27/16 04:05:31  5-MIN KASE 271105Z AUTO 21007KT 10SM CLR 08/M03 A3047 7330 45 8300 200/07 RMK AO2 T00831028
93073KASE ASE20160627041011006/27/16 04:10:31  5-MIN KASE 271110Z AUTO 21007KT 10SM CLR 09/M03 A3047 7330 43 8300 200/07 RMK AO2 T00891028
93073KASE ASE20160627041511006/27/16 04:15:31  5-MIN KASE 271115Z AUTO 21008KT 10SM CLR 09/M03 A3048 7330 43 8300 200/08 RMK AO2 T00891028
93073KASE ASE20160627042011006/27/16 04:20:31  5-MIN KASE 271120Z AUTO 21007KT 10SM CLR 09/M03 A3048 7330 42 8300 200/07 RMK AO2 T00891033
93073KASE ASE20160627042511006/27/16 04:25:31  5-MIN KASE 271125Z AUTO 20007KT 10SM CLR 09/M03 A3047 7330 40 8400 190/07 RMK AO2 T00941033
93073KASE ASE20160627043011006/27/16 04:30:31  5-MIN KASE 271130Z AUTO 21005KT 10SM CLR 09/M03 A3048 7330 40 8400 200/05 RMK AO2 T00941033
93073KASE ASE20160627043511006/27/16 04:35:31  5-MIN KASE 271135Z AUTO 23006KT 10SM CLR 08/M03 A3048 7330 45 8300 220/06 RMK AO2 T00831028
93073KASE ASE20160627044011006/27/16 04:40:31  5-MIN KASE 271140Z AUTO VRB03KT 10SM CLR 08/M03 A3048 7330 47 8200 VRB/03 RMK AO2 T00781028
93073KASE ASE20160627044511006/27/16 04:45:31  5-MIN KASE 271145Z AUTO 00000KT 10SM CLR 08/M02 A3048 7330 49 8200 000/00 RMK AO2 T00781022
93073KASE ASE20160627045013506/27/16 04:50:31  5-MIN KASE 271150Z AUTO 21006KT 10SM CLR 09/M03 A3048 7330 42 8300 200/06 RMK AO2 SLP197 T00891033 10133 20072 58001
93073KASE ASE20160627045511006/27/16 04:55:31  5-MIN KASE 271155Z AUTO 22004KT 10SM CLR 09/M03 A3048 7330 43 8300 210/04 RMK AO2 T00891028
93073KASE ASE20160627050011006/27/16 05:00:31  5-MIN KASE 271200Z AUTO 00000KT 10SM CLR 08/M03 A3048 7320 45 8300 000/00 RMK AO2 T00831028
93073KASE ASE20160627050511006/27/16 05:05:31  5-MIN KASE 271205Z AUTO 21005KT 10SM CLR 07/M02 A3049 7320 51 8100 200/05 RMK AO2 T00721022
93073KASE ASE20160627051011006/27/16 05:10:31  5-MIN KASE 271210Z AUTO 21005KT 10SM CLR 08/M03 A3048 7320 45 8300 200/05 RMK AO2 T00831028
93073KASE ASE20160627051511006/27/16 05:15:31  5-MIN KASE 271215Z AUTO 17003KT 10SM CLR 08/M02 A3048 7320 47 8300 160/03 RMK AO2 T00831022
93073KASE ASE20160627052011006/27/16 05:20:31  5-MIN KASE 271220Z AUTO 00000KT 10SM CLR 08/M02 A3048 7320 49 8200 000/00 RMK AO2 T00781022
93073KASE ASE20160627052511006/27/16 05:25:31  5-MIN KASE 271225Z AUTO 00000KT 10SM CLR 08/M03 A3049 7320 45 8300 000/00 RMK AO2 T00831028
93073KASE ASE20160627053011006/27/16 05:30:31  5-MIN KASE 271230Z AUTO 00000KT 10SM CLR 07/M02 A3049 7320 51 8100 000/00 RMK AO2 T00721022
93073KASE ASE20160627053511006/27/16 05:35:31  5-MIN KASE 271235Z AUTO 00000KT 10SM CLR 07/M02 A3049 7320 53 8100 000/00 RMK AO2 T00721017
93073KASE ASE20160627054011006/27/16 05:40:31  5-MIN KASE 271240Z AUTO 00000KT 10SM CLR 08/M02 A3049 7320 51 8200 000/00 RMK AO2 T00781017
93073KASE ASE20160627054510506/27/16 05:45:31  5-MIN KASE 271245Z 00000KT 10SM CLR 09/M02 A3049 7320 47 8300 000/00 RMK AO2 T00891017
93073KASE ASE20160627055011206/27/16 05:50:31  5-MIN KASE 271250Z 00000KT 10SM CLR 09/M02 A3049 7320 45 8400 000/00 RMK AO2 SLP201 T00941017
93073KASE ASE20160627055510506/27/16 05:55:31  5-MIN KASE 271255Z 00000KT 10SM CLR 11/M02 A3049 7310 42 8500 000/00 RMK AO2 T01061017
93073KASE ASE20160627060010506/27/16 06:00:31  5-MIN KASE 271300Z 00000KT 10SM CLR 11/M01 A3050 7310 42 8600 000/00 RMK AO2 T01111011
93073KASE ASE20160627060510506/27/16 06:05:31  5-MIN KASE 271305Z 00000KT 10SM CLR 11/M02 A3049 7310 41 8600 000/00 RMK AO2 T01111017
93073KASE ASE20160627061010506/27/16 06:10:31  5-MIN KASE 271310Z 00000KT 10SM CLR 12/M01 A3050 7310 41 8600 000/00 RMK AO2 T01171011
93073KASE ASE20160627061510506/27/16 06:15:31  5-MIN KASE 271315Z 00000KT 10SM CLR 12/M02 A3050 7310 39 8600 000/00 RMK AO2 T01171017
93073KASE ASE20160627062010506/27/16 06:20:31  5-MIN KASE 271320Z 00000KT 10SM CLR 12/M01 A3050 7310 39 8700 000/00 RMK AO2 T01221011
93073KASE ASE20160627062510506/27/16 06:25:31  5-MIN KASE 271325Z 00000KT 10SM CLR 13/M01 A3050 7310 36 8800 000/00 RMK AO2 T01331011
93073KASE ASE20160627063010506/27/16 06:30:31  5-MIN KASE 271330Z 00000KT 10SM CLR 13/M02 A3050 7310 35 8800 000/00 RMK AO2 T01331017
93073KASE ASE20160627063510506/27/16 06:35:31  5-MIN KASE 271335Z 35003KT 10SM CLR 13/M02 A3050 7310 35 8800 340/03 RMK AO2 T01331017
93073KASE ASE20160627064010506/27/16 06:40:31  5-MIN KASE 271340Z 04003KT 10SM CLR 14/M02 A3050 7310 34 8900 030/03 RMK AO2 T01391017
93073KASE ASE20160627064510406/27/16 06:45:31  5-MIN KASE 271345Z 00000KT 10SM CLR 14/01 A3051 7300 40 8900 000/00 RMK AO2 T01390006
93073KASE ASE20160627065011106/27/16 06:50:31  5-MIN KASE 271350Z 35003KT 10SM CLR 13/01 A3051 7300 43 8800 340/03 RMK AO2 SLP206 T01330011
93073KASE ASE20160627065510406/27/16 06:55:31  5-MIN KASE 271355Z 00000KT 10SM CLR 14/01 A3050 7300 40 8900 000/00 RMK AO2 T01390006
93073KASE ASE20160627070010506/27/16 07:00:31  5-MIN KASE 271400Z 00000KT 10SM CLR 14/M01 A3051 7300 35 8900 000/00 RMK AO2 T01441006
93073KASE ASE20160627070510506/27/16 07:05:31  5-MIN KASE 271405Z 00000KT 10SM CLR 15/M01 A3051 7300 34 9000 000/00 RMK AO2 T01501006
93073KASE ASE20160627071010506/27/16 07:10:31  5-MIN KASE 271410Z 00000KT 10SM CLR 15/M01 A3050 7300 34 9000 000/00 RMK AO2 T01501006
93073KASE ASE20160627071510506/27/16 07:15:31  5-MIN KASE 271415Z 00000KT 10SM CLR 16/M01 A3051 7300 33 9100 000/00 RMK AO2 T01561006
93073KASE ASE20160627072010506/27/16 07:20:31  5-MIN KASE 271420Z 00000KT 10SM CLR 16/M01 A3051 7300 33 9100 000/00 RMK AO2 T01561006
93073KASE ASE20160627072510406/27/16 07:25:31  5-MIN KASE 271425Z 00000KT 10SM CLR 16/00 A3051 7300 33 9100 000/00 RMK AO2 T01610000
93073KASE ASE20160627073010506/27/16 07:30:31  5-MIN KASE 271430Z 00000KT 10SM CLR 17/M01 A3051 7300 31 9200 000/00 RMK AO2 T01671006
93073KASE ASE20160627073510506/27/16 07:35:31  5-MIN KASE 271435Z VRB03KT 10SM CLR 17/M01 A3051 7300 31 9200 VRB/03 RMK AO2 T01671006
93073KASE ASE20160627074010506/27/16 07:40:31  5-MIN KASE 271440Z 36003KT 10SM CLR 17/M01 A3051 7300 31 9200 350/03 RMK AO2 T01671006
93073KASE ASE20160627074510406/27/16 07:45:31  5-MIN KASE 271445Z 35005KT 10SM CLR 17/00 A3051 7300 31 9200 340/05 RMK AO2 T01720000
93073KASE ASE20160627075011706/27/16 07:50:31  5-MIN KASE 271450Z 03004KT 10SM CLR 17/01 A3051 7300 33 9200 020/04 RMK AO2 SLP209 T01720011 52004
93073KASE ASE20160627075510406/27/16 07:55:31  5-MIN KASE 271455Z 36004KT 10SM CLR 18/01 A3051 7300 31 9300 350/04 RMK AO2 T01780006
93073KASE ASE20160627080010406/27/16 08:00:31  5-MIN KASE 271500Z 36004KT 10SM CLR 18/01 A3051 7300 31 9300 350/04 RMK AO2 T01780006
93073KASE ASE20160627080510406/27/16 08:05:31  5-MIN KASE 271505Z 35004KT 10SM CLR 18/01 A3051 7300 31 9300 340/04 RMK AO2 T01780006
93073KASE ASE20160627081010406/27/16 08:10:31  5-MIN KASE 271510Z 36004KT 10SM CLR 18/01 A3051 7300 30 9400 350/04 RMK AO2 T01830006
93073KASE ASE20160627081510506/27/16 08:15:31  5-MIN KASE 271515Z 33004KT 10SM CLR 18/M01 A3051 7300 27 9400 330/04 RMK AO2 T01831006
93073KASE ASE20160627082010406/27/16 08:20:31  5-MIN KASE 271520Z 34004KT 10SM CLR 19/00 A3051 7300 28 9400 330/04 RMK AO2 T01890000
93073KASE ASE20160627082510406/27/16 08:25:31  5-MIN KASE 271525Z 33004KT 10SM CLR 19/01 A3051 7300 29 9400 320/04 RMK AO2 T01890006
93073KASE ASE20160627083010406/27/16 08:30:31  5-MIN KASE 271530Z 34005KT 10SM CLR 19/00 A3050 7300 27 9500 340/05 RMK AO2 T01940000
93073KASE ASE20160627083510406/27/16 08:35:31  5-MIN KASE 271535Z 35006KT 10SM CLR 20/01 A3050 7310 27 9600 350/06 RMK AO2 T02000006
93073KASE ASE20160627084010406/27/16 08:40:31  5-MIN KASE 271540Z 35006KT 10SM CLR 20/01 A3050 7310 27 9600 340/06 RMK AO2 T02000006
93073KASE ASE20160627084510406/27/16 08:45:31  5-MIN KASE 271545Z 36006KT 10SM CLR 21/02 A3050 7310 28 9600 350/06 RMK AO2 T02060017
93073KASE ASE20160627085011106/27/16 08:50:31  5-MIN KASE 271550Z 36006KT 10SM CLR 21/02 A3050 7300 28 9600 350/06 RMK AO2 SLP213 T02060017
93073KASE ASE20160627085510406/27/16 08:55:31  5-MIN KASE 271555Z 34006KT 10SM CLR 21/02 A3050 7310 29 9600 330/06 RMK AO2 T02060022
93073KASE ASE20160627090010406/27/16 09:00:31  5-MIN KASE 271600Z 36006KT 10SM CLR 21/02 A3050 7310 29 9600 350/06 RMK AO2 T02060022
93073KASE ASE20160627090510406/27/16 09:05:31  5-MIN KASE 271605Z 35006KT 10SM CLR 21/02 A3050 7310 28 9600 350/06 RMK AO2 T02060017
93073KASE ASE20160627091010406/27/16 09:10:31  5-MIN KASE 271610Z 02006KT 10SM CLR 21/02 A3050 7310 27 9700 010/06 RMK AO2 T02110017
93073KASE ASE20160627091510406/27/16 09:15:31  5-MIN KASE 271615Z 03005KT 10SM CLR 22/02 A3050 7310 26 9700 020/05 RMK AO2 T02170017
93073KASE ASE20160627092010406/27/16 09:20:31  5-MIN KASE 271620Z 01006KT 10SM CLR 21/02 A3050 7310 27 9700 360/06 RMK AO2 T02110017
93073KASE ASE20160627092510406/27/16 09:25:31  5-MIN KASE 271625Z 35006KT 10SM CLR 22/02 A3050 7310 26 9700 340/06 RMK AO2 T02170017
93073KASE ASE20160627093010406/27/16 09:30:31  5-MIN KASE 271630Z 02007KT 10SM CLR 22/02 A3050 7310 27 9700 010/07 RMK AO2 T02170022
93073KASE ASE20160627093510406/27/16 09:35:31  5-MIN KASE 271635Z 01006KT 10SM CLR 22/02 A3050 7310 25 9800 360/06 RMK AO2 T02220017
93073KASE ASE20160627094010406/27/16 09:40:31  5-MIN KASE 271640Z 02007KT 10SM CLR 23/02 A3049 7310 25 9900 010/07 RMK AO2 T02280022
93073KASE ASE20160627094510406/27/16 09:45:31  5-MIN KASE 271645Z 03007KT 10SM CLR 23/02 A3050 7310 25 9900 020/07 RMK AO2 T02280022
93073KASE ASE20160627095011106/27/16 09:50:31  5-MIN KASE 271650Z VRB05KT 10SM CLR 23/03 A3050 7310 26 9900 VRB/05 RMK AO2 SLP205 T02280028
93073KASE ASE20160627095510406/27/16 09:55:31  5-MIN KASE 271655Z VRB05KT 10SM CLR 23/02 A3050 7310 25 9900 VRB/05 RMK AO2 T02280022
93073KASE ASE20160627100010406/27/16 10:00:31  5-MIN KASE 271700Z 35005KT 10SM CLR 23/03 A3050 7310 25 9900 340/05 RMK AO2 T02330028
93073KASE ASE20160627100510406/27/16 10:05:31  5-MIN KASE 271705Z 33005KT 10SM CLR 23/02 A3050 7310 24 9900 320/05 RMK AO2 T02330022
93073KASE ASE20160627101010506/27/16 10:10:31  5-MIN KASE 271710Z 01007KT 10SM CLR 24/02 A3050 7310 24 10000 360/07 RMK AO2 T02390022
93073KASE ASE20160627101510506/27/16 10:15:31  5-MIN KASE 271715Z VRB05KT 10SM CLR 24/02 A3050 7310 24 10000 VRB/05 RMK AO2 T02390022
93073KASE ASE20160627102010506/27/16 10:20:31  5-MIN KASE 271720Z 01007KT 10SM CLR 24/02 A3050 7310 22 10000 360/07 RMK AO2 T02440017
93073KASE ASE20160627102510506/27/16 10:25:31  5-MIN KASE 271725Z VRB04KT 10SM CLR 24/02 A3050 7310 22 10000 VRB/04 RMK AO2 T02440017
93073KASE ASE20160627103010506/27/16 10:30:31  5-MIN KASE 271730Z 35005KT 10SM CLR 25/02 A3050 7310 21 10100 340/05 RMK AO2 T02500017
93073KASE ASE20160627103510506/27/16 10:35:31  5-MIN KASE 271735Z 02006KT 10SM CLR 24/01 A3050 7310 20 10000 010/06 RMK AO2 T02440006
93073KASE ASE20160627104010506/27/16 10:40:31  5-MIN KASE 271740Z 02005KT 10SM CLR 25/01 A3050 7310 20 10100 010/05 RMK AO2 T02500011
93073KASE ASE20160627104510506/27/16 10:45:31  5-MIN KASE 271745Z 05005KT 10SM CLR 26/01 A3050 7310 19 10200 040/05 RMK AO2 T02560006
93073KASE ASE20160627105013006/27/16 10:50:31  5-MIN KASE 271750Z 03004KT 10SM CLR 26/01 A3050 7310 18 10200 020/04 RMK AO2 SLP196 T02610006 10261 20072 51007
93073KASE ASE20160627105510506/27/16 10:55:31  5-MIN KASE 271755Z VRB05KT 10SM CLR 26/00 A3050 7310 18 10200 VRB/05 RMK AO2 T02610000
93073KASE ASE20160627110010606/27/16 11:00:31  5-MIN KASE 271800Z 36004KT 10SM CLR 27/M01 A3050 7310 16 10300 350/04 RMK AO2 T02671006
93073KASE ASE20160627110510606/27/16 11:05:31  5-MIN KASE 271805Z 35009KT 10SM CLR 27/M02 A3049 7320 15 10300 350/09 RMK AO2 T02671017
93073KASE ASE20160627111010606/27/16 11:10:31  5-MIN KASE 271810Z 36008KT 10SM CLR 27/M02 A3049 7310 14 10300 360/08 RMK AO2 T02671022
93073KASE ASE20160627111510606/27/16 11:15:31  5-MIN KASE 271815Z 35009KT 10SM CLR 27/M04 A3049 7320 12 10300 340/09 RMK AO2 T02721039
93073KASE ASE20160627112010606/27/16 11:20:31  5-MIN KASE 271820Z 00000KT 10SM CLR 27/M04 A3049 7320 12 10300 000/00 RMK AO2 T02721044
93073KASE ASE20160627112509606/27/16 11:25:31  5-MIN KASE 271825Z 10SM CLR 28/M04 A3049 7320 11 10400 M /M RMK AO2 T02781044
93073KASE ASE20160627113010606/27/16 11:30:31  5-MIN KASE 271830Z VRB06KT 10SM CLR 28/M06 A3049 7320 10 10400 VRB/06 RMK AO2 T02781061
93073KASE ASE20160627113510606/27/16 11:35:31  5-MIN KASE 271835Z 32005KT 10SM CLR 27/M07 A3049 7320 10 10300 310/05 RMK AO2 T02721067
93073KASE ASE20160627114012206/27/16 11:40:31  5-MIN KASE 271840Z 31007KT 280V340 10SM CLR 27/M06 A3049 7320 10 10300 310/07 270V330 RMK AO2 T02721061
93073KASE ASE20160627114510606/27/16 11:45:31  5-MIN KASE 271845Z VRB05KT 10SM CLR 27/M05 A3049 7320 11 10300 VRB/05 RMK AO2 T02721050
93073KASE ASE20160627115011306/27/16 11:50:31  5-MIN KASE 271850Z VRB04KT 10SM CLR 28/M04 A3048 7320 11 10400 VRB/04 RMK AO2 SLP189 T02781044
93073KASE ASE20160627115511206/27/16 11:55:31  5-MIN KASE 271855Z 36010G15KT 10SM CLR 28/M05 A3049 7320 11 10400 350/10G15 RMK AO2 T02781050
93073KASE ASE20160627120011206/27/16 12:00:31  5-MIN KASE 271900Z 02008G15KT 10SM CLR 28/M05 A3049 7320 11 10400 010/08G15 RMK AO2 T02781050
93073KASE ASE20160627120510606/27/16 12:05:31  5-MIN KASE 271905Z VRB05KT 10SM CLR 28/M05 A3048 7330 11 10400 VRB/05 RMK AO2 T02781050
93073KASE ASE20160627121012806/27/16 12:10:31  5-MIN KASE 271910Z 31011G18KT 280V340 10SM CLR 29/M04 A3048 7330 11 10500 300/11G18 270V330 RMK AO2 T02891039
93073KASE ASE20160627121509606/27/16 12:15:31  5-MIN KASE 271915Z 10SM CLR 28/M05 A3048 7330 11 10500 M /M RMK AO2 T02831050
93073KASE ASE20160627122011206/27/16 12:20:31  5-MIN KASE 271920Z 34008G20KT 10SM CLR 28/M06 A3048 7330 10 10400 330/08G20 RMK AO2 T02781061
93073KASE ASE20160627122511206/27/16 12:25:31  5-MIN KASE 271925Z 33006G20KT 10SM CLR 28/M06 A3047 7330 11 10400 320/06G20 RMK AO2 T02781056
93073KASE ASE20160627123011206/27/16 12:30:31  5-MIN KASE 271930Z 35011G17KT 10SM CLR 28/M05 A3047 7330 11 10500 340/11G17 RMK AO2 T02831050
93073KASE ASE20160627123511206/27/16 12:35:31  5-MIN KASE 271935Z VRB06G17KT 10SM CLR 28/M05 A3047 7330 11 10500 VRB/06G17 RMK AO2 T02831050
93073KASE ASE20160627124012206/27/16 12:40:31  5-MIN KASE 271940Z 26008KT 210V320 10SM CLR 28/M05 A3047 7340 11 10400 250/08 200V310 RMK AO2 T02781050
93073KASE ASE20160627124511206/27/16 12:45:31  5-MIN KASE 271945Z 28009G15KT 10SM CLR 28/M05 A3047 7340 11 10400 270/09G15 RMK AO2 T02781050
93073KASE ASE20160627125012906/27/16 12:50:31  5-MIN KASE 271950Z 29008KT 260V330 10SM CLR 28/M05 A3047 7340 11 10500 280/08 250V320 RMK AO2 SLP185 T02831050
93073KASE ASE20160627125511206/27/16 12:55:31  5-MIN KASE 271955Z 01010G16KT 10SM CLR 29/M04 A3047 7340 11 10500 360/10G16 RMK AO2 T02891044
93073KASE ASE20160627130011206/27/16 13:00:31  5-MIN KASE 272000Z 36008G16KT 10SM CLR 29/M04 A3047 7340 11 10500 350/08G16 RMK AO2 T02891044
93073KASE ASE20160627130511206/27/16 13:05:31  5-MIN KASE 272005Z VRB05G15KT 10SM CLR 28/M06 A3047 7340 10 10500 VRB/05G15 RMK AO2 T02831056
93073KASE ASE20160627131011206/27/16 13:10:31  5-MIN KASE 272010Z 27008G15KT 10SM CLR 28/M06 A3047 7340 10 10500 260/08G15 RMK AO2 T02831056
93073KASE ASE20160627131512806/27/16 13:15:31  5-MIN KASE 272015Z 33010G16KT 290V350 10SM CLR 28/M04 A3046 7340 11 10500 320/10G16 280V340 RMK AO2 T02831044
93073KASE ASE20160627132012806/27/16 13:20:31  5-MIN KASE 272020Z 32011G19KT 300V360 10SM CLR 29/M04 A3046 7340 11 10500 310/11G19 290V350 RMK AO2 T02891039
93073KASE ASE20160627132512806/27/16 13:25:31  5-MIN KASE 272025Z 30009G19KT 260V330 10SM CLR 29/M05 A3046 7340 10 10500 290/09G19 250V320 RMK AO2 T02891050
93073KASE ASE20160627133011206/27/16 13:30:31  5-MIN KASE 272030Z VRB06G16KT 10SM CLR 28/M05 A3046 7340 11 10500 VRB/06G16 RMK AO2 T02831050
93073KASE ASE20160627133512806/27/16 13:35:31  5-MIN KASE 272035Z 30009G15KT 250V320 10SM CLR 29/M06 A3046 7340 10 10500 290/09G15 240V310 RMK AO2 T02891056
93073KASE ASE20160627134010606/27/16 13:40:31  5-MIN KASE 272040Z 24007KT 10SM CLR 28/M05 A3046 7350 11 10500 230/07 RMK AO2 T02831050
93073KASE ASE20160627134510606/27/16 13:45:31  5-MIN KASE 272045Z 24009KT 10SM CLR 28/M04 A3046 7350 11 10500 230/09 RMK AO2 T02831044
93073KASE ASE20160627135014106/27/16 13:50:31  5-MIN KASE 272050Z 28010G21KT 240V320 10SM CLR 29/M04 A3045 7350 11 10600 270/10G21 230V310 RMK AO2 SLP183 T02891039 56004
93073KASE ASE20160627135511206/27/16 13:55:31  5-MIN KASE 272055Z 32010G21KT 10SM CLR 29/M05 A3046 7350 10 10600 310/10G21 RMK AO2 T02941050
93073KASE ASE20160627140011206/27/16 14:00:31  5-MIN KASE 272100Z 32012G20KT 10SM CLR 29/M04 A3045 7350 10 10600 310/12G20 RMK AO2 T02941044
93073KASE ASE20160627140511206/27/16 14:05:31  5-MIN KASE 272105Z VRB05G17KT 10SM CLR 29/M06 A3045 7350 10 10600 VRB/05G17 RMK AO2 T02891056
93073KASE ASE20160627141011206/27/16 14:10:31  5-MIN KASE 272110Z 33010G17KT 10SM CLR 29/M04 A3045 7350 10 10600 320/10G17 RMK AO2 T02941044
93073KASE ASE20160627141510606/27/16 14:15:31  5-MIN KASE 272115Z 34009KT 10SM CLR 29/M05 A3045 7350 10 10600 330/09 RMK AO2 T02891050
93073KASE ASE20160627142011206/27/16 14:20:31  5-MIN KASE 272120Z 34007G16KT 10SM CLR 29/M05 A3045 7360 10 10600 330/07G16 RMK AO2 T02891050
93073KASE ASE20160627142511206/27/16 14:25:31  5-MIN KASE 272125Z 01008G14KT 10SM CLR 29/M04 A3045 7360 11 10600 360/08G14 RMK AO2 T02891044
93073KASE ASE20160627143011206/27/16 14:30:31  5-MIN KASE 272130Z 33005G14KT 10SM CLR 29/M04 A3044 7360 11 10600 330/05G14 RMK AO2 T02891044
93073KASE ASE20160627143511406/27/16 14:35:31  5-MIN KASE 272135Z 34012G17KT 5SM HZ CLR 29/M04 A3044 7360 11 10600 330/12G17 RMK AO2 T02891044
93073KASE ASE20160627144011406/27/16 14:40:31  5-MIN KASE 272140Z VRB05G17KT 5SM HZ CLR 29/M05 A3044 7360 10 10600 VRB/05G17 RMK AO2 T02891050
93073KASE ASE20160627144510606/27/16 14:45:31  5-MIN KASE 272145Z VRB06KT 10SM CLR 28/M06 A3044 7360 10 10500 VRB/06 RMK AO2 T02831056
93073KASE ASE20160627145011606/27/16 14:50:31  5-MIN KASE 272150Z 27006KT 10SM FEW110 29/M04 A3044 7360 11 10600 260/06 RMK AO2 SLP180 T02891044
93073KASE ASE20160627145512406/27/16 14:55:31  5-MIN KASE 272155Z 31007KT 280V340 5SM HZ CLR 28/M05 A3044 7360 11 10500 300/07 270V330 RMK AO2 T02831050
93073KASE ASE20160627150012206/27/16 15:00:31  5-MIN KASE 272200Z 34007KT 300V360 10SM CLR 29/M04 A3044 7360 11 10600 330/07 290V350 RMK AO2 T02891044
93073KASE ASE20160627150510606/27/16 15:05:31  5-MIN KASE 272205Z VRB04KT 10SM CLR 29/M04 A3044 7370 11 10600 VRB/04 RMK AO2 T02891044
93073KASE ASE20160627151010806/27/16 15:10:31  5-MIN KASE 272210Z VRB06KT 9SM FEW110 29/M04 A3044 7370 11 10600 VRB/06 RMK AO2 T02891039
93073KASE ASE20160627151510906/27/16 15:15:31  5-MIN KASE 272215Z 29007KT 10SM FEW110 28/M04 A3043 7370 12 10500 280/07 RMK AO2 T02831039
93073KASE ASE20160627152010906/27/16 15:20:31  5-MIN KASE 272220Z 34007KT 10SM FEW110 29/M04 A3043 7370 11 10600 330/07 RMK AO2 T02891039
93073KASE ASE20160627152510906/27/16 15:25:31  5-MIN KASE 272225Z VRB06KT 10SM FEW110 29/M04 A3043 7370 11 10600 VRB/06 RMK AO2 T02891039
93073KASE ASE20160627153011506/27/16 15:30:31  5-MIN KASE 272230Z 23012G15KT 10SM FEW110 29/M03 A3043 7370 12 10600 220/12G15 RMK AO2 T02891033
93073KASE ASE20160627153511406/27/16 15:35:31  5-MIN KASE 272235Z 31010G18KT 9SM FEW110 29/M04 A3043 7370 11 10600 300/10G18 RMK AO2 T02891039
93073KASE ASE20160627154011406/27/16 15:40:31  5-MIN KASE 272240Z 29007G18KT 9SM FEW110 29/M04 A3043 7370 11 10600 280/07G18 RMK AO2 T02891039
93073KASE ASE20160627154509906/27/16 15:45:31  5-MIN KASE 272245Z 10SM FEW110 29/M04 A3043 7370 11 10600 M /M RMK AO2 T02891039
93073KASE ASE20160627155012206/27/16 15:50:31  5-MIN KASE 272250Z 25006G19KT 10SM FEW110 29/M03 A3043 7370 12 10600 240/06G19 RMK AO2 SLP174 T02891033
93073KASE ASE20160627155512206/27/16 15:55:31  5-MIN KASE 272255Z 27007KT 240V310 10SM CLR 28/M04 A3043 7370 12 10500 260/07 230V300 RMK AO2 T02831039
93073KASE ASE20160627160010606/27/16 16:00:31  5-MIN KASE 272300Z 29005KT 10SM CLR 28/M03 A3043 7370 12 10500 280/05 RMK AO2 T02831033
93073KASE ASE20160627160510606/27/16 16:05:31  5-MIN KASE 272305Z 27008KT 10SM CLR 29/M03 A3043 7380 12 10600 260/08 RMK AO2 T02891028
93073KASE ASE20160627161010606/27/16 16:10:31  5-MIN KASE 272310Z VRB06KT 10SM CLR 29/M03 A3043 7380 12 10600 VRB/06 RMK AO2 T02891033
93073KASE ASE20160627161510606/27/16 16:15:31  5-MIN KASE 272315Z VRB05KT 10SM CLR 29/M03 A3042 7380 12 10600 VRB/05 RMK AO2 T02891033
93073KASE ASE20160627162010606/27/16 16:20:31  5-MIN KASE 272320Z 22004KT 10SM CLR 29/M03 A3042 7380 12 10600 210/04 RMK AO2 T02891033
93073KASE ASE20160627162510606/27/16 16:25:31  5-MIN KASE 272325Z 33006KT 10SM CLR 29/M03 A3042 7380 12 10600 320/06 RMK AO2 T02941028
93073KASE ASE20160627163010606/27/16 16:30:31  5-MIN KASE 272330Z 32008KT 10SM CLR 29/M03 A3042 7380 12 10600 310/08 RMK AO2 T02941028
93073KASE ASE20160627163510606/27/16 16:35:31  5-MIN KASE 272335Z 01006KT 10SM CLR 29/M03 A3042 7380 12 10600 360/06 RMK AO2 T02941028
93073KASE ASE20160627164010606/27/16 16:40:31  5-MIN KASE 272340Z 02006KT 10SM CLR 28/M02 A3042 7380 14 10500 010/06 RMK AO2 T02781017
93073KASE ASE20160627164510606/27/16 16:45:31  5-MIN KASE 272345Z 02007KT 10SM CLR 28/M02 A3042 7380 14 10500 010/07 RMK AO2 T02781017
93073KASE ASE20160627165013106/27/16 16:50:31  5-MIN KASE 272350Z 01007KT 10SM CLR 28/M02 A3042 7380 14 10500 010/07 RMK AO2 SLP175 T02781017 10294 20256 56012
93073KASE ASE20160627165510606/27/16 16:55:31  5-MIN KASE 272355Z 02006KT 10SM CLR 27/M01 A3042 7380 15 10400 010/06 RMK AO2 T02721011
93073KASE ASE20160627170010606/27/16 17:00:31  5-MIN KASE 280000Z 02005KT 10SM CLR 27/M01 A3042 7380 15 10400 010/05 RMK AO2 T02721011
93073KASE ASE20160627170510606/27/16 17:05:31  5-MIN KASE 280005Z 01006KT 10SM CLR 27/M01 A3042 7380 15 10400 010/06 RMK AO2 T02721011
93073KASE ASE20160627171010606/27/16 17:10:31  5-MIN KASE 280010Z 01007KT 10SM CLR 28/M02 A3042 7380 14 10500 360/07 RMK AO2 T02781017
93073KASE ASE20160627171510606/27/16 17:15:31  5-MIN KASE 280015Z 01006KT 10SM CLR 28/M03 A3042 7380 13 10500 010/06 RMK AO2 T02831028
93073KASE ASE20160627172010606/27/16 17:20:31  5-MIN KASE 280020Z 36007KT 10SM CLR 28/M02 A3042 7380 14 10500 350/07 RMK AO2 T02781017
93073KASE ASE20160627172510606/27/16 17:25:31  5-MIN KASE 280025Z 36007KT 10SM CLR 28/M02 A3042 7380 13 10500 350/07 RMK AO2 T02831022
93073KASE ASE20160627173010606/27/16 17:30:31  5-MIN KASE 280030Z 36010KT 10SM CLR 28/M02 A3042 7380 13 10500 350/10 RMK AO2 T02781022
93073KASE ASE20160627173510606/27/16 17:35:31  5-MIN KASE 280035Z 36008KT 10SM CLR 27/M03 A3042 7380 13 10400 350/08 RMK AO2 T02721033
93073KASE ASE20160627174010606/27/16 17:40:31  5-MIN KASE 280040Z 01007KT 10SM CLR 28/M03 A3042 7380 13 10500 360/07 RMK AO2 T02781028
93073KASE ASE20160627174510606/27/16 17:45:31  5-MIN KASE 280045Z 01010KT 10SM CLR 28/M02 A3043 7380 13 10500 360/10 RMK AO2 T02781022
93073KASE ASE20160627175011306/27/16 17:50:31  5-MIN KASE 280050Z 02008KT 10SM CLR 27/M03 A3043 7370 13 10400 010/08 RMK AO2 SLP177 T02721033
93073KASE ASE20160627175510606/27/16 17:55:31  5-MIN KASE 280055Z 36006KT 10SM CLR 27/M03 A3043 7370 13 10400 360/06 RMK AO2 T02721028
93073KASE ASE20160627180010606/27/16 18:00:31  5-MIN KASE 280100Z 34006KT 10SM CLR 27/M02 A3043 7370 15 10400 330/06 RMK AO2 T02721017
93073KASE ASE20160627180510606/27/16 18:05:31  5-MIN KASE 280105Z 36008KT 10SM CLR 27/M03 A3043 7370 13 10400 350/08 RMK AO2 T02721028
93073KASE ASE20160627181010606/27/16 18:10:31  5-MIN KASE 280110Z 35008KT 10SM CLR 27/M03 A3043 7370 13 10400 340/08 RMK AO2 T02721028
93073KASE ASE20160627181510606/27/16 18:15:31  5-MIN KASE 280115Z 35007KT 10SM CLR 27/M03 A3043 7370 14 10300 340/07 RMK AO2 T02671028
93073KASE ASE20160627182010606/27/16 18:20:31  5-MIN KASE 280120Z 35009KT 10SM CLR 27/M03 A3043 7370 13 10300 340/09 RMK AO2 T02671033
93073KASE ASE20160627182510606/27/16 18:25:31  5-MIN KASE 280125Z 35008KT 10SM CLR 27/M04 A3043 7370 13 10300 340/08 RMK AO2 T02671039
93073KASE ASE20160627183010606/27/16 18:30:31  5-MIN KASE 280130Z 35007KT 10SM CLR 26/M04 A3043 7370 13 10300 340/07 RMK AO2 T02611039
93073KASE ASE20160627183510606/27/16 18:35:31  5-MIN KASE 280135Z 35006KT 10SM CLR 26/M03 A3043 7370 14 10300 340/06 RMK AO2 T02611028
93073KASE ASE20160627184010606/27/16 18:40:31  5-MIN KASE 280140Z 34005KT 10SM CLR 25/M03 A3043 7370 15 10200 330/05 RMK AO2 T02501028
93073KASE ASE20160627184510606/27/16 18:45:31  5-MIN KASE 280145Z 35007KT 10SM CLR 24/M03 A3044 7370 16 10000 340/07 RMK AO2 T02391028
93073KASE ASE20160627185011306/27/16 18:50:31  5-MIN KASE 280150Z 36009KT 10SM CLR 24/M04 A3043 7370 14 10100 350/09 RMK AO2 SLP177 T02441044
93073KASE ASE20160627185510606/27/16 18:55:31  5-MIN KASE 280155Z 01004KT 10SM CLR 24/M04 A3044 7370 14 10100 360/04 RMK AO2 T02441044
93073KASE ASE20160627190010606/27/16 19:00:31  5-MIN KASE 280200Z 33004KT 10SM CLR 24/M03 A3044 7360 16 10000 330/04 RMK AO2 T02391033
93073KASE ASE20160627190510506/27/16 19:05:31  5-MIN KASE 280205Z 33005KT 10SM CLR 23/M03 A3044 7360 17 9900 320/05 RMK AO2 T02281033
93073KASE ASE20160627191010506/27/16 19:10:31  5-MIN KASE 280210Z 00000KT 10SM CLR 22/M02 A3044 7360 19 9900 000/00 RMK AO2 T02221022
93073KASE ASE20160627191510506/27/16 19:15:31  5-MIN KASE 280215Z 00000KT 10SM CLR 22/M02 A3044 7360 20 9800 000/00 RMK AO2 T02171022
93073KASE ASE20160627192010506/27/16 19:20:31  5-MIN KASE 280220Z 00000KT 10SM CLR 23/M04 A3044 7360 16 9900 000/00 RMK AO2 T02281039
93073KASE ASE20160627192510506/27/16 19:25:31  5-MIN KASE 280225Z 20004KT 10SM CLR 20/M01 A3045 7360 24 9600 190/04 RMK AO2 T02001011
93073KASE ASE20160627193010506/27/16 19:30:31  5-MIN KASE 280230Z 21004KT 10SM CLR 21/M01 A3045 7360 23 9700 200/04 RMK AO2 T02061011
93073KASE ASE20160627193510406/27/16 19:35:31  5-MIN KASE 280235Z 20004KT 10SM CLR 19/01 A3045 7360 29 9500 200/04 RMK AO2 T01890006
93073KASE ASE20160627194010406/27/16 19:40:31  5-MIN KASE 280240Z 21004KT 10SM CLR 18/00 A3044 7360 29 9400 200/04 RMK AO2 T01830000
93073KASE ASE20160627194510506/27/16 19:45:31  5-MIN KASE 280245Z 00000KT 10SM CLR 19/M01 A3045 7360 25 9600 000/00 RMK AO2 T01941011
93073KASE ASE20160627195011806/27/16 19:50:31  5-MIN KASE 280250Z 19005KT 10SM CLR 19/M01 A3045 7350 26 9500 180/05 RMK AO2 SLP185 T01891006 56008
93073KASE ASE20160627195510506/27/16 19:55:31  5-MIN KASE 280255Z 21007KT 10SM CLR 18/M01 A3045 7350 26 9400 200/07 RMK AO2 T01831011
93073KASE ASE20160627200010506/27/16 20:00:31  5-MIN KASE 280300Z 21008KT 10SM CLR 19/M02 A3045 7350 23 9500 200/08 RMK AO2 T01891022
93073KASE ASE20160627200510506/27/16 20:05:31  5-MIN KASE 280305Z 20006KT 10SM CLR 19/M02 A3046 7350 23 9500 190/06 RMK AO2 T01891022
93073KASE ASE20160627201010506/27/16 20:10:31  5-MIN KASE 280310Z 17011KT 10SM CLR 18/M01 A3046 7350 26 9400 160/11 RMK AO2 T01831011
93073KASE ASE20160627201510506/27/16 20:15:31  5-MIN KASE 280315Z 19009KT 10SM CLR 19/M02 A3046 7340 24 9500 180/09 RMK AO2 T01941017
93073KASE ASE20160627202010506/27/16 20:20:31  5-MIN KASE 280320Z 20006KT 10SM CLR 18/M02 A3047 7340 25 9400 190/06 RMK AO2 T01831017
93073KASE ASE20160627202510506/27/16 20:25:31  5-MIN KASE 280325Z 22008KT 10SM CLR 18/M02 A3047 7340 25 9400 210/08 RMK AO2 T01831017
93073KASE ASE20160627203010506/27/16 20:30:31  5-MIN KASE 280330Z 20006KT 10SM CLR 18/M02 A3047 7340 26 9300 190/06 RMK AO2 T01781017
93073KASE ASE20160627203510506/27/16 20:35:31  5-MIN KASE 280335Z 20007KT 10SM CLR 17/M02 A3047 7340 27 9300 190/07 RMK AO2 T01721017
93073KASE ASE20160627204010506/27/16 20:40:31  5-MIN KASE 280340Z 22008KT 10SM CLR 17/M02 A3047 7330 27 9300 210/08 RMK AO2 T01721017
93073KASE ASE20160627204510506/27/16 20:45:31  5-MIN KASE 280345Z 21006KT 10SM CLR 17/M01 A3047 7330 29 9200 200/06 RMK AO2 T01671011
93073KASE ASE20160627205011206/27/16 20:50:31  5-MIN KASE 280350Z 20006KT 10SM CLR 17/M01 A3048 7330 29 9200 190/06 RMK AO2 SLP193 T01671011
93073KASE ASE20160627205510506/27/16 20:55:31  5-MIN KASE 280355Z 20007KT 10SM CLR 17/M02 A3048 7320 28 9200 190/07 RMK AO2 T01671017
93073KASE ASE20160627210010506/27/16 21:00:31  5-MIN KASE 280400Z 20007KT 10SM CLR 17/M01 A3048 7330 29 9200 190/07 RMK AO2 T01671011
93073KASE ASE20160627210510506/27/16 21:05:31  5-MIN KASE 280405Z 21009KT 10SM CLR 17/M02 A3048 7320 27 9300 210/09 RMK AO2 T01721017
93073KASE ASE20160627211010506/27/16 21:10:31  5-MIN KASE 280410Z 21008KT 10SM CLR 16/M02 A3048 7320 29 9100 210/08 RMK AO2 T01611017
93073KASE ASE20160627211510506/27/16 21:15:31  5-MIN KASE 280415Z 20011KT 10SM CLR 17/M02 A3049 7320 27 9300 190/11 RMK AO2 T01721017
93073KASE ASE20160627212010506/27/16 21:20:31  5-MIN KASE 280420Z 19010KT 10SM CLR 17/M01 A3049 7320 28 9300 180/10 RMK AO2 T01721011
93073KASE ASE20160627212510506/27/16 21:25:31  5-MIN KASE 280425Z 19009KT 10SM CLR 16/M01 A3049 7320 31 9100 180/09 RMK AO2 T01561011
93073KASE ASE20160627213010506/27/16 21:30:31  5-MIN KASE 280430Z 19008KT 10SM CLR 14/M01 A3049 7320 35 9000 180/08 RMK AO2 T01441006
93073KASE ASE20160627213510506/27/16 21:35:31  5-MIN KASE 280435Z 20009KT 10SM CLR 14/M01 A3049 7320 35 9000 190/09 RMK AO2 T01441006
93073KASE ASE20160627214010506/27/16 21:40:31  5-MIN KASE 280440Z 20008KT 10SM CLR 14/M01 A3049 7320 35 9000 190/08 RMK AO2 T01441006
93073KASE ASE20160627214510506/27/16 21:45:31  5-MIN KASE 280445Z 20009KT 10SM CLR 14/M01 A3049 7320 35 9000 190/09 RMK AO2 T01441006
93073KASE ASE20160627215011206/27/16 21:50:31  5-MIN KASE 280450Z 22010KT 10SM CLR 14/M01 A3049 7320 37 8900 210/10 RMK AO2 SLP201 T01391006
93073KASE ASE20160627215510506/27/16 21:55:31  5-MIN KASE 280455Z 22010KT 10SM CLR 14/M01 A3049 7320 34 9000 210/10 RMK AO2 T01441011
93073KASE ASE20160627220010506/27/16 22:00:31  5-MIN KASE 280500Z 20010KT 10SM CLR 15/M01 A3049 7320 33 9000 200/10 RMK AO2 T01501011
93073KASE ASE20160627220510506/27/16 22:05:31  5-MIN KASE 280505Z 21010KT 10SM CLR 15/M01 A3049 7320 33 9000 200/10 RMK AO2 T01501011
93073KASE ASE20160627221010506/27/16 22:10:31  5-MIN KASE 280510Z 21010KT 10SM CLR 14/M01 A3049 7310 34 8900 200/10 RMK AO2 T01441011
93073KASE ASE20160627221510506/27/16 22:15:31  5-MIN KASE 280515Z 21010KT 10SM CLR 14/M01 A3049 7320 35 8900 200/10 RMK AO2 T01391011
93073KASE ASE20160627222010506/27/16 22:20:31  5-MIN KASE 280520Z 21010KT 10SM CLR 14/M01 A3049 7310 34 8900 210/10 RMK AO2 T01441011
93073KASE ASE20160627222510506/27/16 22:25:31  5-MIN KASE 280525Z 21011KT 10SM CLR 14/M01 A3049 7310 34 8900 200/11 RMK AO2 T01441011
93073KASE ASE20160627223010506/27/16 22:30:31  5-MIN KASE 280530Z 20008KT 10SM CLR 14/M01 A3049 7310 34 8900 200/08 RMK AO2 T01441011
93073KASE ASE20160627223510506/27/16 22:35:31  5-MIN KASE 280535Z 20009KT 10SM CLR 14/M01 A3049 7310 34 8900 190/09 RMK AO2 T01441011
93073KASE ASE20160627224010506/27/16 22:40:31  5-MIN KASE 280540Z 20008KT 10SM CLR 14/M01 A3050 7310 34 8900 200/08 RMK AO2 T01441011
93073KASE ASE20160627224510506/27/16 22:45:31  5-MIN KASE 280545Z 20008KT 10SM CLR 13/M01 A3050 7310 36 8800 190/08 RMK AO2 T01331011
93073KASE ASE20160627225013006/27/16 22:50:31  5-MIN KASE 280550Z 21010KT 10SM CLR 13/M01 A3050 7310 38 8800 200/10 RMK AO2 SLP197 T01281011 10283 20128 53007
93073KASE ASE20160627225510506/27/16 22:55:31  5-MIN KASE 280555Z 21010KT 10SM CLR 12/M01 A3049 7310 41 8700 200/10 RMK AO2 T01221006
93073KASE ASE20160627230010506/27/16 23:00:31  5-MIN KASE 280600Z 22010KT 10SM CLR 13/M01 A3049 7320 38 8800 210/10 RMK AO2 T01281011
93073KASE ASE20160627230510506/27/16 23:05:31  5-MIN KASE 280605Z 21009KT 10SM CLR 13/M01 A3049 7310 36 8800 200/09 RMK AO2 T01331011
93073KASE ASE20160627231010506/27/16 23:10:31  5-MIN KASE 280610Z 21008KT 10SM CLR 13/M01 A3049 7310 36 8800 200/08 RMK AO2 T01331011
93073KASE ASE20160627231511006/27/16 23:15:31  5-MIN KASE 280615Z AUTO 21008KT 10SM CLR 13/M01 A3049 7320 36 8800 200/08 RMK AO2 T01331011
93073KASE ASE20160627232011006/27/16 23:20:31  5-MIN KASE 280620Z AUTO 21008KT 10SM CLR 13/M01 A3049 7320 36 8800 200/08 RMK AO2 T01331011
93073KASE ASE20160627232511006/27/16 23:25:31  5-MIN KASE 280625Z AUTO 21009KT 10SM CLR 13/M01 A3049 7320 36 8800 200/09 RMK AO2 T01331011
93073KASE ASE20160627233011006/27/16 23:30:31  5-MIN KASE 280630Z AUTO 22008KT 10SM CLR 13/M01 A3049 7320 38 8800 210/08 RMK AO2 T01281011
93073KASE ASE20160627233511006/27/16 23:35:31  5-MIN KASE 280635Z AUTO 22008KT 10SM CLR 13/M01 A3049 7320 38 8800 210/08 RMK AO2 T01281011
93073KASE ASE20160627234011006/27/16 23:40:31  5-MIN KASE 280640Z AUTO 21009KT 10SM CLR 13/M01 A3049 7320 38 8800 200/09 RMK AO2 T01281011
93073KASE ASE20160627234511006/27/16 23:45:31  5-MIN KASE 280645Z AUTO 21008KT 10SM CLR 12/M01 A3049 7320 39 8700 200/08 RMK AO2 T01221011
93073KASE ASE20160627235012706/27/16 23:50:31  5-MIN KASE 280650Z AUTO 22009KT 10SM CLR 12/M01 A3049 7320 39 8700 210/09 RMK AO2 SLP192 T01221011 402940072
93073KASE ASE20160627235511006/27/16 23:55:31  5-MIN KASE 280655Z AUTO 21009KT 10SM CLR 12/M01 A3048 7320 39 8700 200/09 RMK AO2 T01221011
93073KASE ASE20160628000011006/28/16 00:00:31  5-MIN KASE 280700Z AUTO 21007KT 10SM CLR 13/M02 A3049 7320 35 8800 200/07 RMK AO2 T01331017
93073KASE ASE20160628000511006/28/16 00:05:31  5-MIN KASE 280705Z AUTO 21009KT 10SM CLR 13/M01 A3049 7320 38 8800 200/09 RMK AO2 T01281011
93073KASE ASE20160628001011006/28/16 00:10:31  5-MIN KASE 280710Z AUTO 20006KT 10SM CLR 13/M01 A3049 7320 38 8800 190/06 RMK AO2 T01281011
93073KASE ASE20160628001511006/28/16 00:15:31  5-MIN KASE 280715Z AUTO 21010KT 10SM CLR 11/M01 A3048 7320 44 8600 210/10 RMK AO2 T01111006
93073KASE ASE20160628002011006/28/16 00:20:31  5-MIN KASE 280720Z AUTO 21008KT 10SM CLR 12/M01 A3049 7320 41 8600 200/08 RMK AO2 T01171011
93073KASE ASE20160628002511006/28/16 00:25:31  5-MIN KASE 280725Z AUTO 19007KT 10SM CLR 12/M02 A3048 7320 38 8700 190/07 RMK AO2 T01221017
93073KASE ASE20160628003011006/28/16 00:30:31  5-MIN KASE 280730Z AUTO 19007KT 10SM CLR 12/M01 A3049 7320 39 8700 190/07 RMK AO2 T01221011
93073KASE ASE20160628003511006/28/16 00:35:31  5-MIN KASE 280735Z AUTO 21008KT 10SM CLR 12/M01 A3048 7330 41 8700 200/08 RMK AO2 T01171011
93073KASE ASE20160628004011006/28/16 00:40:31  5-MIN KASE 280740Z AUTO 21008KT 10SM CLR 12/M01 A3048 7320 39 8700 200/08 RMK AO2 T01221011
93073KASE ASE20160628004511006/28/16 00:45:31  5-MIN KASE 280745Z AUTO 21008KT 10SM CLR 13/M02 A3048 7320 36 8800 200/08 RMK AO2 T01281017
93073KASE ASE20160628005011706/28/16 00:50:31  5-MIN KASE 280750Z AUTO 21008KT 10SM CLR 12/M02 A3049 7320 38 8700 200/08 RMK AO2 SLP188 T01221017
93073KASE ASE20160628005511006/28/16 00:55:31  5-MIN KASE 280755Z AUTO 20008KT 10SM CLR 12/M01 A3048 7320 39 8700 190/08 RMK AO2 T01221011
93073KASE ASE20160628010011006/28/16 01:00:31  5-MIN KASE 280800Z AUTO 20006KT 10SM CLR 12/M01 A3049 7320 39 8700 190/06 RMK AO2 T01221011
93073KASE ASE20160628010511006/28/16 01:05:31  5-MIN KASE 280805Z AUTO 20007KT 10SM CLR 11/M01 A3049 7320 42 8600 190/07 RMK AO2 T01111011
93073KASE ASE20160628011011006/28/16 01:10:31  5-MIN KASE 280810Z AUTO 21007KT 10SM CLR 11/M01 A3049 7320 42 8600 200/07 RMK AO2 T01111011
93073KASE ASE20160628011511006/28/16 01:15:31  5-MIN KASE 280815Z AUTO 21007KT 10SM CLR 11/M01 A3049 7320 42 8600 200/07 RMK AO2 T01111011
93073KASE ASE20160628012011006/28/16 01:20:31  5-MIN KASE 280820Z AUTO 21007KT 10SM CLR 11/M01 A3049 7320 42 8600 200/07 RMK AO2 T01111011
93073KASE ASE20160628012511006/28/16 01:25:31  5-MIN KASE 280825Z AUTO 21008KT 10SM CLR 11/M01 A3049 7320 46 8500 200/08 RMK AO2 T01061006
93073KASE ASE20160628013011006/28/16 01:30:31  5-MIN KASE 280830Z AUTO 21009KT 10SM CLR 11/M01 A3049 7320 42 8600 200/09 RMK AO2 T01111011
93073KASE ASE20160628013511006/28/16 01:35:31  5-MIN KASE 280835Z AUTO 21008KT 10SM CLR 11/M01 A3049 7320 42 8600 200/08 RMK AO2 T01111011
93073KASE ASE20160628014011006/28/16 01:40:31  5-MIN KASE 280840Z AUTO 21008KT 10SM CLR 12/M01 A3049 7320 41 8600 200/08 RMK AO2 T01171011
93073KASE ASE20160628014511006/28/16 01:45:31  5-MIN KASE 280845Z AUTO 22008KT 10SM CLR 11/M01 A3049 7320 44 8500 210/08 RMK AO2 T01061011
93073KASE ASE20160628015012306/28/16 01:50:31  5-MIN KASE 280850Z AUTO 19006KT 10SM CLR 11/M01 A3048 7320 44 8500 180/06 RMK AO2 SLP191 T01061011 51013
93073KASE ASE20160628015511006/28/16 01:55:31  5-MIN KASE 280855Z AUTO 21007KT 10SM CLR 11/M01 A3049 7320 46 8500 200/07 RMK AO2 T01061006
93073KASE ASE20160628020011006/28/16 02:00:31  5-MIN KASE 280900Z AUTO 21007KT 10SM CLR 12/M01 A3049 7320 39 8700 200/07 RMK AO2 T01221011
93073KASE ASE20160628020511006/28/16 02:05:31  5-MIN KASE 280905Z AUTO 21007KT 10SM CLR 11/M01 A3049 7320 42 8600 200/07 RMK AO2 T01111011
93073KASE ASE20160628021011006/28/16 02:10:31  5-MIN KASE 280910Z AUTO 20007KT 10SM CLR 11/M01 A3048 7320 42 8600 200/07 RMK AO2 T01111011
93073KASE ASE20160628021511006/28/16 02:15:31  5-MIN KASE 280915Z AUTO 21006KT 10SM CLR 11/M01 A3049 7320 42 8600 200/06 RMK AO2 T01111011
93073KASE ASE20160628022011006/28/16 02:20:31  5-MIN KASE 280920Z AUTO 20006KT 10SM CLR 11/M01 A3049 7320 42 8600 190/06 RMK AO2 T01111011
93073KASE ASE20160628022511006/28/16 02:25:31  5-MIN KASE 280925Z AUTO 20007KT 10SM CLR 09/M01 A3048 7320 49 8400 200/07 RMK AO2 T00941006
93073KASE ASE20160628023011006/28/16 02:30:31  5-MIN KASE 280930Z AUTO 20007KT 10SM CLR 11/M01 A3048 7320 42 8600 200/07 RMK AO2 T01111011
93073KASE ASE20160628023511006/28/16 02:35:31  5-MIN KASE 280935Z AUTO 21007KT 10SM CLR 12/M01 A3048 7320 41 8600 200/07 RMK AO2 T01171011
93073KASE ASE20160628024011006/28/16 02:40:31  5-MIN KASE 280940Z AUTO 21007KT 10SM CLR 11/M01 A3048 7320 42 8600 200/07 RMK AO2 T01111011
93073KASE ASE20160628024511006/28/16 02:45:31  5-MIN KASE 280945Z AUTO 21006KT 10SM CLR 11/M01 A3048 7330 46 8500 200/06 RMK AO2 T01061006
93073KASE ASE20160628025011706/28/16 02:50:31  5-MIN KASE 280950Z AUTO 22008KT 10SM CLR 11/M01 A3048 7330 46 8500 210/08 RMK AO2 SLP190 T01061006
93073KASE ASE20160628025511006/28/16 02:55:31  5-MIN KASE 280955Z AUTO 22007KT 10SM CLR 11/M01 A3048 7330 46 8500 210/07 RMK AO2 T01061006
93073KASE ASE20160628030011006/28/16 03:00:31  5-MIN KASE 281000Z AUTO 22007KT 10SM CLR 11/M01 A3048 7330 46 8500 210/07 RMK AO2 T01061006
93073KASE ASE20160628030511006/28/16 03:05:31  5-MIN KASE 281005Z AUTO 20005KT 10SM CLR 11/M01 A3048 7330 44 8600 190/05 RMK AO2 T01111006
93073KASE ASE20160628031010906/28/16 03:10:31  5-MIN KASE 281010Z AUTO 19005KT 10SM CLR 10/00 A3048 7330 49 8500 180/05 RMK AO2 T01000000
93073KASE ASE20160628031510906/28/16 03:15:31  5-MIN KASE 281015Z AUTO 21007KT 10SM CLR 11/00 A3048 7330 46 8600 200/07 RMK AO2 T01110000
93073KASE ASE20160628032011006/28/16 03:20:31  5-MIN KASE 281020Z AUTO 22007KT 10SM CLR 11/M01 A3048 7330 46 8500 210/07 RMK AO2 T01061006
93073KASE ASE20160628032511006/28/16 03:25:31  5-MIN KASE 281025Z AUTO 20007KT 10SM CLR 12/M01 A3048 7330 42 8700 190/07 RMK AO2 T01171006
93073KASE ASE20160628033010906/28/16 03:30:31  5-MIN KASE 281030Z AUTO 20007KT 10SM CLR 11/00 A3048 7330 46 8600 190/07 RMK AO2 T01110000
93073KASE ASE20160628033510906/28/16 03:35:31  5-MIN KASE 281035Z AUTO 20006KT 10SM CLR 12/00 A3048 7320 44 8600 190/06 RMK AO2 T01170000
93073KASE ASE20160628034010906/28/16 03:40:31  5-MIN KASE 281040Z AUTO VRB03KT 10SM CLR 10/00 A3048 7330 49 8500 VRB/03 RMK AO2 T01000000
93073KASE ASE20160628034510906/28/16 03:45:31  5-MIN KASE 281045Z AUTO 00000KT 10SM CLR 09/01 A3048 7320 53 8400 000/00 RMK AO2 T00940006
93073KASE ASE20160628035011606/28/16 03:50:31  5-MIN KASE 281050Z AUTO 00000KT 10SM CLR 09/01 A3049 7320 56 8300 000/00 RMK AO2 SLP197 T00890006
93073KASE ASE20160628035510906/28/16 03:55:31  5-MIN KASE 281055Z AUTO 00000KT 10SM CLR 09/01 A3049 7320 53 8400 000/00 RMK AO2 T00940006
93073KASE ASE20160628040010906/28/16 04:00:31  5-MIN KASE 281100Z AUTO 21005KT 10SM CLR 10/01 A3049 7320 52 8500 200/05 RMK AO2 T01000006
93073KASE ASE20160628040510906/28/16 04:05:31  5-MIN KASE 281105Z AUTO 21006KT 10SM CLR 11/00 A3049 7320 46 8600 200/06 RMK AO2 T01110000
93073KASE ASE20160628041011006/28/16 04:10:31  5-MIN KASE 281110Z AUTO 21007KT 10SM CLR 11/M01 A3049 7320 44 8600 200/07 RMK AO2 T01111006
93073KASE ASE20160628041510906/28/16 04:15:31  5-MIN KASE 281115Z AUTO 21007KT 10SM CLR 11/00 A3048 7320 46 8600 200/07 RMK AO2 T01110000
93073KASE ASE20160628042010906/28/16 04:20:31  5-MIN KASE 281120Z AUTO 21008KT 10SM CLR 11/00 A3048 7320 46 8600 210/08 RMK AO2 T01110000
93073KASE ASE20160628042510906/28/16 04:25:31  5-MIN KASE 281125Z AUTO 22009KT 10SM CLR 11/00 A3048 7320 48 8500 210/09 RMK AO2 T01060000
93073KASE ASE20160628043010906/28/16 04:30:31  5-MIN KASE 281130Z AUTO 21008KT 10SM CLR 11/00 A3048 7320 48 8500 210/08 RMK AO2 T01060000
93073KASE ASE20160628043510906/28/16 04:35:31  5-MIN KASE 281135Z AUTO 21007KT 10SM CLR 11/00 A3048 7330 46 8600 200/07 RMK AO2 T01110000
93073KASE ASE20160628044010906/28/16 04:40:31  5-MIN KASE 281140Z AUTO 22005KT 10SM CLR 11/01 A3048 7320 50 8500 210/05 RMK AO2 T01060006
93073KASE ASE20160628044510906/28/16 04:45:31  5-MIN KASE 281145Z AUTO VRB03KT 10SM CLR 11/01 A3048 7320 50 8500 VRB/03 RMK AO2 T01060006
93073KASE ASE20160628045013406/28/16 04:50:31  5-MIN KASE 281150Z AUTO 00000KT 10SM CLR 09/01 A3049 7320 53 8400 000/00 RMK AO2 SLP197 T00940006 10139 20089 56003
93073KASE ASE20160628045510906/28/16 04:55:31  5-MIN KASE 281155Z AUTO 00000KT 10SM CLR 09/01 A3048 7320 53 8400 000/00 RMK AO2 T00940006
93073KASE ASE20160628050010906/28/16 05:00:31  5-MIN KASE 281200Z AUTO 00000KT 10SM CLR 09/01 A3049 7320 56 8400 000/00 RMK AO2 T00940011
93073KASE ASE20160628050510906/28/16 05:05:31  5-MIN KASE 281205Z AUTO VRB03KT 10SM CLR 10/01 A3049 7320 54 8500 VRB/03 RMK AO2 T01000011
93073KASE ASE20160628051010906/28/16 05:10:31  5-MIN KASE 281210Z AUTO 23004KT 10SM CLR 11/01 A3049 7320 52 8500 220/04 RMK AO2 T01060011
93073KASE ASE20160628051510906/28/16 05:15:31  5-MIN KASE 281215Z AUTO 30003KT 10SM CLR 09/01 A3049 7320 56 8400 290/03 RMK AO2 T00940011
93073KASE ASE20160628052010906/28/16 05:20:31  5-MIN KASE 281220Z AUTO 00000KT 10SM CLR 09/01 A3049 7320 56 8400 000/00 RMK AO2 T00940011
93073KASE ASE20160628052510906/28/16 05:25:31  5-MIN KASE 281225Z AUTO 00000KT 10SM CLR 10/02 A3049 7320 56 8500 000/00 RMK AO2 T01000017
93073KASE ASE20160628053010906/28/16 05:30:31  5-MIN KASE 281230Z AUTO 21006KT 10SM CLR 11/02 A3049 7320 52 8600 200/06 RMK AO2 T01110017
93073KASE ASE20160628053510906/28/16 05:35:31  5-MIN KASE 281235Z AUTO 22007KT 10SM CLR 12/02 A3049 7320 50 8600 210/07 RMK AO2 T01170017
93073KASE ASE20160628054010906/28/16 05:40:31  5-MIN KASE 281240Z AUTO VRB04KT 10SM CLR 12/02 A3049 7320 50 8600 VRB/04 RMK AO2 T01170017
93073KASE ASE20160628054510406/28/16 05:45:31  5-MIN KASE 281245Z 00000KT 10SM CLR 11/02 A3049 7320 54 8600 000/00 RMK AO2 T01110022
93073KASE ASE20160628055011106/28/16 05:50:31  5-MIN KASE 281250Z 00000KT 10SM CLR 12/02 A3049 7310 50 8700 000/00 RMK AO2 SLP194 T01220022
93073KASE ASE20160628055510406/28/16 05:55:31  5-MIN KASE 281255Z 22004KT 10SM CLR 13/03 A3049 7320 50 8800 210/04 RMK AO2 T01280028
93073KASE ASE20160628060010406/28/16 06:00:31  5-MIN KASE 281300Z 21005KT 10SM CLR 14/03 A3049 7310 45 8900 200/05 RMK AO2 T01440028
93073KASE ASE20160628060510406/28/16 06:05:31  5-MIN KASE 281305Z 20006KT 10SM CLR 15/03 A3050 7310 43 9000 200/06 RMK AO2 T01500028
93073KASE ASE20160628061010406/28/16 06:10:31  5-MIN KASE 281310Z VRB03KT 10SM CLR 15/03 A3050 7310 45 9000 VRB/03 RMK AO2 T01500033
93073KASE ASE20160628061510406/28/16 06:15:31  5-MIN KASE 281315Z VRB04KT 10SM CLR 16/03 A3050 7310 43 9100 VRB/04 RMK AO2 T01560033
93073KASE ASE20160628062010406/28/16 06:20:31  5-MIN KASE 281320Z 00000KT 10SM CLR 16/03 A3050 7310 43 9100 000/00 RMK AO2 T01560033
93073KASE ASE20160628062510406/28/16 06:25:31  5-MIN KASE 281325Z VRB04KT 10SM CLR 16/03 A3050 7310 42 9100 VRB/04 RMK AO2 T01610033
93073KASE ASE20160628063010406/28/16 06:30:31  5-MIN KASE 281330Z VRB03KT 10SM CLR 16/03 A3049 7310 42 9100 VRB/03 RMK AO2 T01610033
93073KASE ASE20160628063510406/28/16 06:35:31  5-MIN KASE 281335Z VRB03KT 10SM CLR 16/04 A3049 7320 44 9100 VRB/03 RMK AO2 T01610039
93073KASE ASE20160628064010406/28/16 06:40:31  5-MIN KASE 281340Z 00000KT 10SM CLR 17/04 A3049 7320 44 9200 000/00 RMK AO2 T01670044
93073KASE ASE20160628064510406/28/16 06:45:31  5-MIN KASE 281345Z 36004KT 10SM CLR 17/04 A3049 7320 44 9200 350/04 RMK AO2 T01670044
93073KASE ASE20160628065011106/28/16 06:50:31  5-MIN KASE 281350Z 36003KT 10SM CLR 16/04 A3049 7320 45 9100 350/03 RMK AO2 SLP189 T01610044
93073KASE ASE20160628065510406/28/16 06:55:31  5-MIN KASE 281355Z 01003KT 10SM CLR 17/04 A3049 7310 44 9200 360/03 RMK AO2 T01670044
93073KASE ASE20160628070010406/28/16 07:00:31  5-MIN KASE 281400Z 36003KT 10SM CLR 17/04 A3050 7310 44 9200 350/03 RMK AO2 T01670044
93073KASE ASE20160628070510406/28/16 07:05:31  5-MIN KASE 281405Z 36003KT 10SM CLR 17/04 A3050 7310 42 9300 350/03 RMK AO2 T01720044
93073KASE ASE20160628071010406/28/16 07:10:31  5-MIN KASE 281410Z 36003KT 10SM CLR 17/04 A3050 7310 42 9300 350/03 RMK AO2 T01720044
93073KASE ASE20160628071510406/28/16 07:15:31  5-MIN KASE 281415Z 02003KT 10SM CLR 18/04 A3050 7310 41 9300 010/03 RMK AO2 T01780044
93073KASE ASE20160628072010406/28/16 07:20:31  5-MIN KASE 281420Z 00000KT 10SM CLR 18/04 A3050 7310 41 9300 000/00 RMK AO2 T01780044
93073KASE ASE20160628072510406/28/16 07:25:31  5-MIN KASE 281425Z 00000KT 10SM CLR 18/05 A3050 7310 41 9400 000/00 RMK AO2 T01830050
93073KASE ASE20160628073010406/28/16 07:30:31  5-MIN KASE 281430Z 04003KT 10SM CLR 18/05 A3050 7310 41 9400 030/03 RMK AO2 T01830050
93073KASE ASE20160628073510406/28/16 07:35:31  5-MIN KASE 281435Z 04003KT 10SM CLR 19/05 A3049 7310 39 9400 030/03 RMK AO2 T01890050
93073KASE ASE20160628074010406/28/16 07:40:31  5-MIN KASE 281440Z 03003KT 10SM CLR 19/05 A3049 7310 39 9400 020/03 RMK AO2 T01890050
93073KASE ASE20160628074510406/28/16 07:45:31  5-MIN KASE 281445Z 01005KT 10SM CLR 19/05 A3049 7310 38 9500 360/05 RMK AO2 T01940050
93073KASE ASE20160628075011706/28/16 07:50:31  5-MIN KASE 281450Z 35006KT 10SM CLR 19/05 A3049 7320 38 9500 340/06 RMK AO2 SLP195 T01940050 57000
93073KASE ASE20160628075510406/28/16 07:55:31  5-MIN KASE 281455Z 34006KT 10SM CLR 19/06 A3049 7310 40 9500 340/06 RMK AO2 T01940056
93073KASE ASE20160628080010406/28/16 08:00:31  5-MIN KASE 281500Z 35008KT 10SM CLR 19/06 A3049 7320 40 9500 340/08 RMK AO2 T01940056
93073KASE ASE20160628080510406/28/16 08:05:31  5-MIN KASE 281505Z 35008KT 10SM CLR 19/06 A3049 7310 41 9500 340/08 RMK AO2 T01940061
93073KASE ASE20160628081010406/28/16 08:10:31  5-MIN KASE 281510Z 35008KT 10SM CLR 19/06 A3049 7310 41 9500 340/08 RMK AO2 T01940061
93073KASE ASE20160628081510406/28/16 08:15:31  5-MIN KASE 281515Z 36008KT 10SM CLR 19/06 A3049 7320 40 9500 350/08 RMK AO2 T01940056
93073KASE ASE20160628082010406/28/16 08:20:31  5-MIN KASE 281520Z 34008KT 10SM CLR 19/06 A3049 7310 40 9500 330/08 RMK AO2 T01940056
93073KASE ASE20160628082510406/28/16 08:25:31  5-MIN KASE 281525Z 35008KT 10SM CLR 20/06 A3049 7310 38 9600 350/08 RMK AO2 T02000056
93073KASE ASE20160628083010406/28/16 08:30:31  5-MIN KASE 281530Z 36008KT 10SM CLR 20/06 A3049 7310 38 9600 360/08 RMK AO2 T02000056
93073KASE ASE20160628083510406/28/16 08:35:31  5-MIN KASE 281535Z 35006KT 10SM CLR 20/05 A3049 7320 37 9600 340/06 RMK AO2 T02000050
93073KASE ASE20160628084010406/28/16 08:40:31  5-MIN KASE 281540Z 02007KT 10SM CLR 21/06 A3049 7320 37 9600 010/07 RMK AO2 T02060056
93073KASE ASE20160628084510406/28/16 08:45:31  5-MIN KASE 281545Z 01007KT 10SM CLR 21/06 A3049 7320 36 9700 360/07 RMK AO2 T02110056
93073KASE ASE20160628085011106/28/16 08:50:31  5-MIN KASE 281550Z 03007KT 10SM CLR 21/05 A3049 7320 34 9700 020/07 RMK AO2 SLP198 T02110050
93073KASE ASE20160628085510406/28/16 08:55:31  5-MIN KASE 281555Z 02006KT 10SM CLR 22/05 A3049 7320 33 9700 010/06 RMK AO2 T02170050
93073KASE ASE20160628090010406/28/16 09:00:31  5-MIN KASE 281600Z 35007KT 10SM CLR 22/05 A3049 7320 32 9800 340/07 RMK AO2 T02220050
93073KASE ASE20160628090510406/28/16 09:05:31  5-MIN KASE 281605Z 02007KT 10SM CLR 22/04 A3049 7320 32 9700 020/07 RMK AO2 T02170044
93073KASE ASE20160628091010406/28/16 09:10:31  5-MIN KASE 281610Z 36006KT 10SM CLR 22/04 A3048 7320 32 9800 350/06 RMK AO2 T02170044
93073KASE ASE20160628091510406/28/16 09:15:31  5-MIN KASE 281615Z 35007KT 10SM CLR 22/05 A3049 7320 32 9800 340/07 RMK AO2 T02220050
93073KASE ASE20160628092010406/28/16 09:20:31  5-MIN KASE 281620Z 35007KT 10SM CLR 23/05 A3048 7320 31 9900 340/07 RMK AO2 T02280050
93073KASE ASE20160628092510306/28/16 09:25:31  5-MIN KASE 281625Z VRB06KT 9SM CLR 23/04 A3048 7320 30 9900 VRB/06 RMK AO2 T02280044
93073KASE ASE20160628093010306/28/16 09:30:31  5-MIN KASE 281630Z 35006KT 9SM CLR 23/04 A3048 7320 30 9900 350/06 RMK AO2 T02280044
93073KASE ASE20160628093510406/28/16 09:35:31  5-MIN KASE 281635Z 36005KT 10SM CLR 23/04 A3049 7320 29 9900 350/05 RMK AO2 T02330044
93073KASE ASE20160628094010406/28/16 09:40:31  5-MIN KASE 281640Z 36006KT 10SM CLR 23/04 A3048 7320 29 9900 350/06 RMK AO2 T02330044
93073KASE ASE20160628094510506/28/16 09:45:31  5-MIN KASE 281645Z 02006KT 10SM CLR 24/04 A3049 7320 28 10000 010/06 RMK AO2 T02390044
93073KASE ASE20160628095011206/28/16 09:50:31  5-MIN KASE 281650Z 02004KT 10SM CLR 24/04 A3049 7320 28 10000 010/04 RMK AO2 SLP195 T02390044
93073KASE ASE20160628095510506/28/16 09:55:31  5-MIN KASE 281655Z 34004KT 10SM CLR 24/04 A3048 7320 27 10100 330/04 RMK AO2 T02440044
93073KASE ASE20160628100010506/28/16 10:00:31  5-MIN KASE 281700Z 34005KT 10SM CLR 24/04 A3048 7320 27 10100 330/05 RMK AO2 T02440044
93073KASE ASE20160628100510506/28/16 10:05:31  5-MIN KASE 281705Z 03004KT 10SM CLR 24/04 A3048 7330 27 10100 020/04 RMK AO2 T02440044
93073KASE ASE20160628101010506/28/16 10:10:31  5-MIN KASE 281710Z 06004KT 10SM CLR 25/04 A3048 7330 26 10100 050/04 RMK AO2 T02500044
93073KASE ASE20160628101510506/28/16 10:15:31  5-MIN KASE 281715Z 01005KT 10SM CLR 26/05 A3048 7330 26 10200 360/05 RMK AO2 T02560050
93073KASE ASE20160628102010506/28/16 10:20:31  5-MIN KASE 281720Z VRB03KT 10SM CLR 26/04 A3048 7330 25 10200 VRB/03 RMK AO2 T02560044
93073KASE ASE20160628102510506/28/16 10:25:31  5-MIN KASE 281725Z 01004KT 10SM CLR 26/05 A3047 7330 25 10200 360/04 RMK AO2 T02610050
93073KASE ASE20160628103010506/28/16 10:30:31  5-MIN KASE 281730Z VRB04KT 10SM CLR 26/05 A3047 7340 25 10200 VRB/04 RMK AO2 T02610050
93073KASE ASE20160628103509506/28/16 10:35:31  5-MIN KASE 281735Z 10SM CLR 26/05 A3047 7340 25 10200 M /M RMK AO2 T02610050
93073KASE ASE20160628104010506/28/16 10:40:31  5-MIN KASE 281740Z 00000KT 10SM CLR 26/04 A3047 7340 24 10200 000/00 RMK AO2 T02610044
93073KASE ASE20160628104510506/28/16 10:45:31  5-MIN KASE 281745Z VRB05KT 10SM CLR 27/05 A3047 7340 24 10400 VRB/05 RMK AO2 T02720050
93073KASE ASE20160628105013306/28/16 10:50:31  5-MIN KASE 281750Z VRB03KT 10SM FEW060 27/05 A3046 7340 24 10300 VRB/03 RMK AO2 SLP181 T02670050 10272 20094 51002
93073KASE ASE20160628105510506/28/16 10:55:31  5-MIN KASE 281755Z 06005KT 10SM CLR 27/05 A3046 7340 24 10400 060/05 RMK AO2 T02720050
93073KASE ASE20160628110010506/28/16 11:00:31  5-MIN KASE 281800Z 10004KT 10SM CLR 28/04 A3046 7340 21 10400 090/04 RMK AO2 T02780039
93073KASE ASE20160628110510506/28/16 11:05:31  5-MIN KASE 281805Z VRB04KT 10SM CLR 28/04 A3046 7340 22 10400 VRB/04 RMK AO2 T02780044
93073KASE ASE20160628111010506/28/16 11:10:31  5-MIN KASE 281810Z VRB05KT 10SM CLR 28/04 A3046 7350 20 10500 VRB/05 RMK AO2 T02830039
93073KASE ASE20160628111510506/28/16 11:15:31  5-MIN KASE 281815Z VRB05KT 10SM CLR 28/02 A3046 7350 17 10500 VRB/05 RMK AO2 T02830017
93073KASE ASE20160628112010506/28/16 11:20:31  5-MIN KASE 281820Z VRB04KT 10SM CLR 28/02 A3046 7350 19 10400 VRB/04 RMK AO2 T02780022
93073KASE ASE20160628112509506/28/16 11:25:31  5-MIN KASE 281825Z 10SM CLR 28/02 A3046 7350 17 10500 M /M RMK AO2 T02830017
93073KASE ASE20160628113010506/28/16 11:30:31  5-MIN KASE 281830Z 00000KT 10SM CLR 29/02 A3045 7350 17 10600 000/00 RMK AO2 T02890017
93073KASE ASE20160628113510506/28/16 11:35:31  5-MIN KASE 281835Z 35003KT 10SM CLR 29/01 A3045 7350 16 10600 340/03 RMK AO2 T02890011
93073KASE ASE20160628114011206/28/16 11:40:31  5-MIN KASE 281840Z 33009G15KT 10SM CLR 29/M03 A3045 7350 12 10600 320/09G15 RMK AO2 T02941028
93073KASE ASE20160628114511206/28/16 11:45:31  5-MIN KASE 281845Z 29007G17KT 10SM CLR 29/M03 A3045 7360 12 10600 280/07G17 RMK AO2 T02891033
93073KASE ASE20160628115012206/28/16 11:50:31  5-MIN KASE 281850Z 32012G17KT 10SM FEW060 29/M03 A3045 7360 12 10600 320/12G17 RMK AO2 SLP173 T02891028
93073KASE ASE20160628115510606/28/16 11:55:31  5-MIN KASE 281855Z 00000KT 10SM CLR 28/M03 A3045 7360 12 10500 000/00 RMK AO2 T02831033
93073KASE ASE20160628120009606/28/16 12:00:31  5-MIN KASE 281900Z 10SM CLR 29/M03 A3044 7360 12 10600 M /M RMK AO2 T02891028
93073KASE ASE20160628120509606/28/16 12:05:31  5-MIN KASE 281905Z 10SM CLR 29/M03 A3044 7360 12 10600 M /M RMK AO2 T02891028
93073KASE ASE20160628121010606/28/16 12:10:31  5-MIN KASE 281910Z 34009KT 10SM CLR 29/M02 A3044 7360 13 10600 330/09 RMK AO2 T02941017
93073KASE ASE20160628121510506/28/16 12:15:31  5-MIN KASE 281915Z 34011KT 9SM CLR 30/M01 A3044 7370 13 10700 330/11 RMK AO2 T03001011
93073KASE ASE20160628122011206/28/16 12:20:31  5-MIN KASE 281920Z 35008G18KT 10SM CLR 29/M02 A3044 7370 12 10600 340/08G18 RMK AO2 T02941022
93073KASE ASE20160628122511206/28/16 12:25:31  5-MIN KASE 281925Z 35006G18KT 10SM CLR 29/M02 A3044 7370 13 10600 340/06G18 RMK AO2 T02941017
93073KASE ASE20160628123010606/28/16 12:30:31  5-MIN KASE 281930Z 31003KT 10SM CLR 29/M02 A3043 7370 13 10600 300/03 RMK AO2 T02891022
93073KASE ASE20160628123509606/28/16 12:35:31  5-MIN KASE 281935Z 10SM CLR 30/M02 A3043 7370 12 10700 M /M RMK AO2 T03001017
93073KASE ASE20160628124010606/28/16 12:40:31  5-MIN KASE 281940Z 32007KT 10SM CLR 29/M02 A3043 7370 12 10600 310/07 RMK AO2 T02941022
93073KASE ASE20160628124510606/28/16 12:45:31  5-MIN KASE 281945Z 08004KT 10SM CLR 29/M03 A3043 7370 12 10600 070/04 RMK AO2 T02941028
93073KASE ASE20160628125011306/28/16 12:50:31  5-MIN KASE 281950Z VRB06KT 10SM CLR 29/M02 A3043 7370 13 10600 VRB/06 RMK AO2 SLP163 T02941017
93073KASE ASE20160628125510606/28/16 12:55:31  5-MIN KASE 281955Z 30010KT 10SM CLR 29/M02 A3042 7380 13 10600 290/10 RMK AO2 T02941017
93073KASE ASE20160628130010906/28/16 13:00:31  5-MIN KASE 282000Z 31005KT 10SM SCT100 28/M03 A3042 7380 13 10500 300/05 RMK AO2 T02831028
93073KASE ASE20160628130510906/28/16 13:05:31  5-MIN KASE 282005Z 34009KT 10SM SCT100 28/M02 A3042 7380 14 10500 330/09 RMK AO2 T02831017
93073KASE ASE20160628131010906/28/16 13:10:31  5-MIN KASE 282010Z 33007KT 10SM SCT100 28/M02 A3042 7380 13 10500 320/07 RMK AO2 T02831022
93073KASE ASE20160628131510906/28/16 13:15:31  5-MIN KASE 282015Z VRB05KT 10SM SCT100 28/M02 A3042 7380 13 10500 VRB/05 RMK AO2 T02831022
93073KASE ASE20160628132010906/28/16 13:20:31  5-MIN KASE 282020Z 33008KT 10SM SCT100 28/M01 A3042 7380 14 10500 320/08 RMK AO2 T02831011
93073KASE ASE20160628132510906/28/16 13:25:31  5-MIN KASE 282025Z VRB06KT 10SM SCT100 28/M02 A3042 7380 14 10500 VRB/06 RMK AO2 T02781017
93073KASE ASE20160628133010906/28/16 13:30:31  5-MIN KASE 282030Z 01006KT 10SM SCT100 28/M01 A3042 7380 15 10500 360/06 RMK AO2 T02781011
93073KASE ASE20160628133511606/28/16 13:35:31  5-MIN KASE 282035Z VRB06KT 10SM SCT070 BKN100 28/M01 A3041 7390 15 10500 VRB/06 RMK AO2 T02831006
93073KASE ASE20160628134011606/28/16 13:40:31  5-MIN KASE 282040Z VRB05KT 10SM SCT070 BKN100 29/M01 A3041 7390 14 10600 VRB/05 RMK AO2 T02891006
93073KASE ASE20160628134511606/28/16 13:45:31  5-MIN KASE 282045Z VRB04KT 10SM SCT070 BKN100 29/M01 A3041 7390 14 10700 VRB/04 RMK AO2 T02941006
93073KASE ASE20160628135014506/28/16 13:50:31  5-MIN KASE 282050Z 29008KT 250V310 10SM SCT070 BKN100 29/M01 A3041 7390 14 10700 280/08 240V300 RMK AO2 SLP162 T02941006 58009
93073KASE ASE20160628135509606/28/16 13:55:31  5-MIN KASE 282055Z 10SM CLR 29/M02 A3041 7390 13 10600 M /M RMK AO2 T02891017
93073KASE ASE20160628140010606/28/16 14:00:31  5-MIN KASE 282100Z 31009KT 10SM CLR 28/M01 A3040 7400 14 10500 300/09 RMK AO2 T02831011
93073KASE ASE20160628140510606/28/16 14:05:31  5-MIN KASE 282105Z 27008KT 10SM CLR 28/M02 A3040 7400 14 10500 260/08 RMK AO2 T02781017
93073KASE ASE20160628141010606/28/16 14:10:31  5-MIN KASE 282110Z 26005KT 10SM CLR 28/M02 A3040 7400 14 10600 250/05 RMK AO2 T02831017
93073KASE ASE20160628141511706/28/16 14:15:31  5-MIN KASE 282115Z VRB05KT 10SM CLR 28/M01 A3040 7400 15 10500 VRB/05 RMK AO2 LTG DSNT N T02781011
93073KASE ASE20160628142011706/28/16 14:20:31  5-MIN KASE 282120Z 33005KT 10SM CLR 28/M01 A3040 7400 15 10500 330/05 RMK AO2 LTG DSNT N T02781006
93073KASE ASE20160628142511706/28/16 14:25:31  5-MIN KASE 282125Z 00000KT 10SM CLR 28/M01 A3040 7400 15 10500 000/00 RMK AO2 LTG DSNT N T02781011
93073KASE ASE20160628143010506/28/16 14:30:31  5-MIN KASE 282130Z 36005KT 10SM CLR 28/00 A3040 7400 16 10500 350/05 RMK AO2 T02780000
93073KASE ASE20160628143510506/28/16 14:35:31  5-MIN KASE 282135Z 35005KT 10SM CLR 28/01 A3040 7400 17 10500 340/05 RMK AO2 T02780006
93073KASE ASE20160628144010506/28/16 14:40:31  5-MIN KASE 282140Z VRB03KT 10SM CLR 28/01 A3040 7400 17 10500 VRB/03 RMK AO2 T02780006
93073KASE ASE20160628144510506/28/16 14:45:31  5-MIN KASE 282145Z VRB04KT 10SM CLR 28/02 A3040 7400 17 10600 VRB/04 RMK AO2 T02830017
93073KASE ASE20160628145011506/28/16 14:50:31  5-MIN KASE 282150Z 04004KT 10SM SCT085 29/01 A3040 7400 15 10600 030/04 RMK AO2 SLP157 T02890006
93073KASE ASE20160628145510506/28/16 14:55:31  5-MIN KASE 282155Z 00000KT 10SM CLR 28/01 A3039 7410 16 10600 000/00 RMK AO2 T02830006
93073KASE ASE20160628150011006/28/16 15:00:31  5-MIN KASE 282200Z 22003KT 10SM VCTS CLR 28/00 A3039 7410 15 10600 210/03 RMK AO2 T02830000
93073KASE ASE20160628150511306/28/16 15:05:31  5-MIN KASE 282205Z VRB04KT 10SM VCTS SCT085 29/00 A3039 7410 14 10700 VRB/04 RMK AO2 T02940000
93073KASE ASE20160628151011306/28/16 15:10:31  5-MIN KASE 282210Z 24007KT 10SM VCTS SCT085 29/00 A3039 7410 15 10600 230/07 RMK AO2 T02890000
93073KASE ASE20160628151510906/28/16 15:15:31  5-MIN KASE 282215Z 23005KT 10SM SCT085 29/M01 A3039 7410 14 10600 230/05 RMK AO2 T02891006
93073KASE ASE20160628152010906/28/16 15:20:31  5-MIN KASE 282220Z 21005KT 10SM SCT085 29/M01 A3039 7410 14 10600 200/05 RMK AO2 T02891006
93073KASE ASE20160628152510906/28/16 15:25:31  5-MIN KASE 282225Z 25004KT 10SM SCT085 29/M01 A3038 7420 14 10700 240/04 RMK AO2 T02941006
93073KASE ASE20160628153010806/28/16 15:30:31  5-MIN KASE 282230Z 22007KT 10SM SCT085 29/00 A3038 7420 14 10700 210/07 RMK AO2 T02940000
93073KASE ASE20160628153512406/28/16 15:35:31  5-MIN KASE 282235Z 30011KT 260V320 10SM SCT085 29/01 A3038 7420 15 10600 290/11 250V310 RMK AO2 T02890006
93073KASE ASE20160628154013306/28/16 15:40:31  5-MIN KASE 282240Z 03015G31KT 10SM SCT085 27/M02 A3037 7430 15 10500 030/15G31 RMK AO2 PK WND 02031/2237 T02721017
93073KASE ASE20160628154513306/28/16 15:45:31  5-MIN KASE 282245Z 02014G31KT 10SM SCT085 27/M02 A3038 7420 15 10400 010/14G31 RMK AO2 PK WND 02031/2237 T02671017
93073KASE ASE20160628155014006/28/16 15:50:31  5-MIN KASE 282250Z VRB06G19KT 10SM SCT085 27/M02 A3039 7410 15 10400 VRB/06G19 RMK AO2 PK WND 02031/2237 SLP167 T02671017
93073KASE ASE20160628155510906/28/16 15:55:31  5-MIN KASE 282255Z VRB06KT 10SM FEW110 26/M01 A3039 7410 16 10300 VRB/06 RMK AO2 T02611011
93073KASE ASE20160628160010906/28/16 16:00:31  5-MIN KASE 282300Z VRB05KT 10SM FEW120 26/M01 A3039 7410 17 10300 VRB/05 RMK AO2 T02611006
93073KASE ASE20160628160513706/28/16 16:05:31  5-MIN KASE 282305Z 07009G16KT 10SM -RA FEW090 SCT110 26/01 A3039 7410 19 10300 060/09G16 RMK AO2 RAB05 P0000 T02560006
93073KASE ASE20160628161015306/28/16 16:10:31  5-MIN KASE 282310Z 06011G20KT 030V100 10SM -RA FEW080 SCT110 24/03 A3038 7420 25 10200 050/11G20 020V090 RMK AO2 RAB05 P0000 T02440033
93073KASE ASE20160628161513706/28/16 16:15:31  5-MIN KASE 282315Z 06006G20KT 10SM -RA FEW080 SCT110 25/02 A3038 7420 22 10200 050/06G20 RMK AO2 RAB05 P0000 T02500022
93073KASE ASE20160628162012306/28/16 16:20:31  5-MIN KASE 282320Z 00000KT 10SM FEW110 25/03 A3038 7420 23 10200 000/00 RMK AO2 RAB05E20 P0000 T02500028
93073KASE ASE20160628162511306/28/16 16:25:31  5-MIN KASE 282325Z 10SM FEW110 25/04 A3038 7420 26 10200 M /M RMK AO2 RAB05E20 P0000 T02500044
93073KASE ASE20160628163012306/28/16 16:30:31  5-MIN KASE 282330Z 00000KT 10SM FEW110 24/06 A3038 7420 30 10100 000/00 RMK AO2 RAB05E20 P0000 T02390056
93073KASE ASE20160628163512306/28/16 16:35:31  5-MIN KASE 282335Z 26005KT 10SM FEW110 24/04 A3039 7410 27 10200 250/05 RMK AO2 RAB05E20 P0000 T02440044
93073KASE ASE20160628164012006/28/16 16:40:31  5-MIN KASE 282340Z 25008KT 10SM CLR 24/03 A3038 7420 25 10200 240/08 RMK AO2 RAB05E20 P0000 T02440033
93073KASE ASE20160628164512006/28/16 16:45:31  5-MIN KASE 282345Z 24008KT 10SM CLR 25/03 A3038 7420 23 10200 230/08 RMK AO2 RAB05E20 P0000 T02500028
93073KASE ASE20160628165015106/28/16 16:50:31  5-MIN KASE 282350Z 22006KT 10SM CLR 24/04 A3038 7420 27 10200 210/06 RMK AO2 RAB05E20 SLP167 P0000 60000 T02440044 10300 20239 58015
93073KASE ASE20160628165510506/28/16 16:55:31  5-MIN KASE 282355Z 22004KT 10SM CLR 24/05 A3038 7410 28 10200 210/04 RMK AO2 T02440050
93073KASE ASE20160628170010506/28/16 17:00:31  5-MIN KASE 290000Z 24005KT 10SM CLR 24/06 A3038 7410 29 10200 230/05 RMK AO2 T02440056
93073KASE ASE20160628170510506/28/16 17:05:31  5-MIN KASE 290005Z 24004KT 10SM CLR 24/04 A3038 7420 27 10200 230/04 RMK AO2 T02440044
93073KASE ASE20160628171010506/28/16 17:10:31  5-MIN KASE 290010Z VRB04KT 10SM CLR 25/04 A3038 7420 25 10200 VRB/04 RMK AO2 T02500039
93073KASE ASE20160628171510506/28/16 17:15:31  5-MIN KASE 290015Z 00000KT 10SM CLR 26/04 A3038 7420 24 10300 000/00 RMK AO2 T02560039
93073KASE ASE20160628172010506/28/16 17:20:31  5-MIN KASE 290020Z 36005KT 10SM CLR 26/06 A3038 7420 27 10300 350/05 RMK AO2 T02560056
93073KASE ASE20160628172511706/28/16 17:25:31  5-MIN KASE 290025Z 35005KT 10SM CLR 26/06 A3038 7420 28 10300 340/05 RMK AO2 LTG DSNT SE T02560061
93073KASE ASE20160628173011706/28/16 17:30:31  5-MIN KASE 290030Z 34006KT 10SM CLR 26/06 A3038 7420 27 10300 330/06 RMK AO2 LTG DSNT SE T02560056
93073KASE ASE20160628173511706/28/16 17:35:31  5-MIN KASE 290035Z 33005KT 10SM CLR 25/07 A3038 7420 30 10200 320/05 RMK AO2 LTG DSNT SE T02500067
93073KASE ASE20160628174010506/28/16 17:40:31  5-MIN KASE 290040Z 34004KT 10SM CLR 25/07 A3038 7420 31 10200 330/04 RMK AO2 T02500072
93073KASE ASE20160628174510406/28/16 17:45:31  5-MIN KASE 290045Z 35004KT 9SM CLR 24/07 A3038 7420 33 10200 340/04 RMK AO2 T02440072
93073KASE ASE20160628175011106/28/16 17:50:31  5-MIN KASE 290050Z 36004KT 9SM CLR 25/07 A3038 7420 31 10200 360/04 RMK AO2 SLP159 T02500072
93073KASE ASE20160628175510506/28/16 17:55:31  5-MIN KASE 290055Z 01003KT 10SM CLR 24/07 A3038 7410 33 10200 360/03 RMK AO2 T02440072
93073KASE ASE20160628180010506/28/16 18:00:31  5-MIN KASE 290100Z 33004KT 10SM CLR 24/07 A3038 7420 33 10200 320/04 RMK AO2 T02440072
93073KASE ASE20160628180510506/28/16 18:05:31  5-MIN KASE 290105Z 32004KT 10SM CLR 24/06 A3038 7420 31 10100 310/04 RMK AO2 T02390061
93073KASE ASE20160628181010506/28/16 18:10:31  5-MIN KASE 290110Z 33003KT 10SM CLR 24/06 A3038 7420 31 10100 320/03 RMK AO2 T02390061
93073KASE ASE20160628181510506/28/16 18:15:31  5-MIN KASE 290115Z 31003KT 10SM CLR 24/06 A3038 7420 30 10200 300/03 RMK AO2 T02440061
93073KASE ASE20160628182010506/28/16 18:20:31  5-MIN KASE 290120Z 33003KT 10SM CLR 25/05 A3038 7420 27 10200 320/03 RMK AO2 T02500050
93073KASE ASE20160628182510506/28/16 18:25:31  5-MIN KASE 290125Z 00000KT 10SM CLR 25/05 A3038 7420 27 10200 000/00 RMK AO2 T02500050
93073KASE ASE20160628183010506/28/16 18:30:31  5-MIN KASE 290130Z 00000KT 10SM CLR 25/06 A3037 7430 28 10200 000/00 RMK AO2 T02500056
93073KASE ASE20160628183510506/28/16 18:35:31  5-MIN KASE 290135Z 21004KT 10SM CLR 23/07 A3037 7430 35 10100 200/04 RMK AO2 T02330072
93073KASE ASE20160628184010506/28/16 18:40:31  5-MIN KASE 290140Z 22004KT 10SM CLR 23/08 A3037 7430 39 10000 210/04 RMK AO2 T02280083
93073KASE ASE20160628184510406/28/16 18:45:31  5-MIN KASE 290145Z 22005KT 10SM CLR 22/09 A3037 7430 43 9900 210/05 RMK AO2 T02170089
93073KASE ASE20160628185011106/28/16 18:50:31  5-MIN KASE 290150Z 22006KT 10SM CLR 21/09 A3037 7430 47 9800 210/06 RMK AO2 SLP155 T02110094
93073KASE ASE20160628185510406/28/16 18:55:31  5-MIN KASE 290155Z 21005KT 10SM CLR 21/09 A3037 7430 48 9800 200/05 RMK AO2 T02060094
93073KASE ASE20160628190010406/28/16 19:00:31  5-MIN KASE 290200Z 22005KT 10SM CLR 21/09 A3037 7420 46 9800 210/05 RMK AO2 T02060089
93073KASE ASE20160628190510406/28/16 19:05:31  5-MIN KASE 290205Z 21005KT 10SM CLR 21/08 A3038 7420 45 9800 200/05 RMK AO2 T02060083
93073KASE ASE20160628191010406/28/16 19:10:31  5-MIN KASE 290210Z 20004KT 10SM CLR 21/08 A3038 7420 45 9800 190/04 RMK AO2 T02060083
93073KASE ASE20160628191510406/28/16 19:15:31  5-MIN KASE 290215Z 21006KT 10SM CLR 21/08 A3038 7420 45 9700 200/06 RMK AO2 T02060083
93073KASE ASE20160628192010406/28/16 19:20:31  5-MIN KASE 290220Z 20007KT 10SM CLR 20/08 A3038 7420 45 9700 190/07 RMK AO2 T02000078
93073KASE ASE20160628192510406/28/16 19:25:31  5-MIN KASE 290225Z 21006KT 10SM CLR 20/08 A3038 7420 45 9700 200/06 RMK AO2 T02000078
93073KASE ASE20160628193010406/28/16 19:30:31  5-MIN KASE 290230Z 20007KT 10SM CLR 19/08 A3038 7410 46 9600 190/07 RMK AO2 T01940078
93073KASE ASE20160628193510406/28/16 19:35:31  5-MIN KASE 290235Z 22006KT 10SM CLR 18/08 A3038 7420 50 9500 210/06 RMK AO2 T01830078
93073KASE ASE20160628194010406/28/16 19:40:31  5-MIN KASE 290240Z 21005KT 10SM CLR 18/07 A3039 7410 48 9500 200/05 RMK AO2 T01830072
93073KASE ASE20160628194510406/28/16 19:45:31  5-MIN KASE 290245Z 20005KT 10SM CLR 19/07 A3038 7410 46 9600 190/05 RMK AO2 T01890072
93073KASE ASE20160628195011706/28/16 19:50:31  5-MIN KASE 290250Z 20007KT 10SM CLR 18/07 A3038 7410 46 9500 190/07 RMK AO2 SLP160 T01830067 56006
93073KASE ASE20160628195510406/28/16 19:55:31  5-MIN KASE 290255Z 21008KT 10SM CLR 18/07 A3039 7410 46 9500 200/08 RMK AO2 T01830067
93073KASE ASE20160628200010406/28/16 20:00:31  5-MIN KASE 290300Z 20008KT 10SM CLR 18/06 A3039 7410 44 9500 190/08 RMK AO2 T01830061
93073KASE ASE20160628200510406/28/16 20:05:31  5-MIN KASE 290305Z 21009KT 10SM CLR 17/06 A3039 7410 47 9400 200/09 RMK AO2 T01720061
93073KASE ASE20160628201010406/28/16 20:10:31  5-MIN KASE 290310Z 21010KT 10SM CLR 17/06 A3039 7410 49 9300 200/10 RMK AO2 T01670061
93073KASE ASE20160628201510406/28/16 20:15:31  5-MIN KASE 290315Z 22010KT 10SM CLR 16/06 A3039 7410 51 9200 210/10 RMK AO2 T01610061
93073KASE ASE20160628202010406/28/16 20:20:31  5-MIN KASE 290320Z 22009KT 10SM CLR 17/06 A3039 7410 47 9300 210/09 RMK AO2 T01670056
93073KASE ASE20160628202510406/28/16 20:25:31  5-MIN KASE 290325Z 21009KT 10SM CLR 17/06 A3040 7400 47 9300 200/09 RMK AO2 T01670056
93073KASE ASE20160628203010406/28/16 20:30:31  5-MIN KASE 290330Z 20006KT 10SM CLR 18/05 A3040 7400 42 9400 190/06 RMK AO2 T01780050
93073KASE ASE20160628203510406/28/16 20:35:31  5-MIN KASE 290335Z 20006KT 10SM CLR 17/06 A3040 7400 47 9300 190/06 RMK AO2 T01670056
93073KASE ASE20160628204010406/28/16 20:40:31  5-MIN KASE 290340Z 21008KT 10SM CLR 17/05 A3040 7400 45 9300 200/08 RMK AO2 T01670050
93073KASE ASE20160628204510406/28/16 20:45:31  5-MIN KASE 290345Z 22009KT 10SM CLR 17/04 A3040 7400 42 9400 210/09 RMK AO2 T01720044
93073KASE ASE20160628205011106/28/16 20:50:31  5-MIN KASE 290350Z 21008KT 10SM CLR 18/04 A3040 7400 41 9400 200/08 RMK AO2 SLP162 T01780044
93073KASE ASE20160628205510406/28/16 20:55:31  5-MIN KASE 290355Z 21007KT 10SM CLR 17/04 A3040 7400 42 9400 200/07 RMK AO2 T01720044
93073KASE ASE20160628210012006/28/16 21:00:31  5-MIN KASE 290400Z 18007KT 130V210 10SM CLR 18/04 A3041 7390 39 9400 170/07 120V200 RMK AO2 T01780039
93073KASE ASE20160628210510406/28/16 21:05:31  5-MIN KASE 290405Z 22007KT 10SM CLR 17/04 A3041 7390 41 9400 210/07 RMK AO2 T01720039
93073KASE ASE20160628211010406/28/16 21:10:31  5-MIN KASE 290410Z 22008KT 10SM CLR 17/04 A3041 7390 41 9300 210/08 RMK AO2 T01720039
93073KASE ASE20160628211510406/28/16 21:15:31  5-MIN KASE 290415Z 21008KT 10SM CLR 17/04 A3041 7390 41 9300 200/08 RMK AO2 T01720039
93073KASE ASE20160628212010406/28/16 21:20:31  5-MIN KASE 290420Z 23007KT 10SM CLR 18/03 A3041 7390 38 9400 220/07 RMK AO2 T01780033
93073KASE ASE20160628212510406/28/16 21:25:31  5-MIN KASE 290425Z 22007KT 10SM CLR 18/03 A3042 7390 38 9400 210/07 RMK AO2 T01780033
93073KASE ASE20160628213012006/28/16 21:30:31  5-MIN KASE 290430Z 23008KT 190V260 10SM CLR 18/03 A3042 7380 38 9400 220/08 180V250 RMK AO2 T01780033
93073KASE ASE20160628213510406/28/16 21:35:31  5-MIN KASE 290435Z 20006KT 10SM CLR 17/03 A3042 7380 39 9300 190/06 RMK AO2 T01720033
93073KASE ASE20160628214010406/28/16 21:40:31  5-MIN KASE 290440Z 21006KT 10SM CLR 17/03 A3042 7380 39 9300 200/06 RMK AO2 T01720033
93073KASE ASE20160628214510406/28/16 21:45:31  5-MIN KASE 290445Z 20006KT 10SM CLR 17/03 A3042 7380 39 9300 200/06 RMK AO2 T01720033
93073KASE ASE20160628215011106/28/16 21:50:31  5-MIN KASE 290450Z 20006KT 10SM CLR 17/03 A3042 7380 40 9300 190/06 RMK AO2 SLP164 T01670033
93073KASE ASE20160628215510406/28/16 21:55:31  5-MIN KASE 290455Z 17007KT 10SM CLR 17/03 A3042 7380 39 9300 160/07 RMK AO2 T01720033
93073KASE ASE20160628220010406/28/16 22:00:31  5-MIN KASE 290500Z 18006KT 10SM CLR 18/03 A3043 7380 36 9400 170/06 RMK AO2 T01780028
93073KASE ASE20160628220510406/28/16 22:05:31  5-MIN KASE 290505Z 21007KT 10SM CLR 17/03 A3043 7380 40 9300 200/07 RMK AO2 T01670033
93073KASE ASE20160628221010406/28/16 22:10:31  5-MIN KASE 290510Z 21006KT 10SM CLR 17/03 A3042 7380 40 9300 200/06 RMK AO2 T01670033
93073KASE ASE20160628221510406/28/16 22:15:31  5-MIN KASE 290515Z 22008KT 10SM CLR 17/03 A3042 7380 39 9300 210/08 RMK AO2 T01720033
93073KASE ASE20160628222010406/28/16 22:20:31  5-MIN KASE 290520Z 22007KT 10SM CLR 17/03 A3042 7380 40 9300 210/07 RMK AO2 T01670033
93073KASE ASE20160628222510406/28/16 22:25:31  5-MIN KASE 290525Z 21008KT 10SM CLR 17/03 A3042 7380 40 9300 200/08 RMK AO2 T01670033
93073KASE ASE20160628223010406/28/16 22:30:31  5-MIN KASE 290530Z 21007KT 10SM CLR 17/03 A3042 7380 40 9300 200/07 RMK AO2 T01670033
93073KASE ASE20160628223510406/28/16 22:35:31  5-MIN KASE 290535Z 20006KT 10SM CLR 16/03 A3043 7370 42 9200 190/06 RMK AO2 T01610033
93073KASE ASE20160628224010406/28/16 22:40:31  5-MIN KASE 290540Z 22006KT 10SM CLR 17/03 A3043 7370 40 9300 210/06 RMK AO2 T01670033
93073KASE ASE20160628224510406/28/16 22:45:31  5-MIN KASE 290545Z 24006KT 10SM CLR 17/03 A3043 7370 40 9300 230/06 RMK AO2 T01670033
93073KASE ASE20160628225012906/28/16 22:50:31  5-MIN KASE 290550Z VRB04KT 10SM CLR 16/03 A3044 7360 42 9200 VRB/04 RMK AO2 SLP166 T01610033 10256 20161 53001
93073KASE ASE20160628225510406/28/16 22:55:31  5-MIN KASE 290555Z 00000KT 10SM CLR 17/03 A3044 7360 40 9300 000/00 RMK AO2 T01670033
93073KASE ASE20160628230010406/28/16 23:00:31  5-MIN KASE 290600Z 00000KT 10SM CLR 16/04 A3045 7360 45 9100 000/00 RMK AO2 T01560039
93073KASE ASE20160628230510406/28/16 23:05:31  5-MIN KASE 290605Z 04003KT 10SM CLR 16/04 A3045 7350 45 9100 030/03 RMK AO2 T01560039
93073KASE ASE20160628231010706/28/16 23:10:31  5-MIN KASE 290610Z VRB04KT 10SM FEW120 15/04 A3046 7350 47 9100 VRB/04 RMK AO2 T01500039
93073KASE ASE20160628231511206/28/16 23:15:31  5-MIN KASE 290615Z AUTO 00000KT 10SM FEW120 15/04 A3045 7350 47 9100 000/00 RMK AO2 T01500039
93073KASE ASE20160628232011206/28/16 23:20:31  5-MIN KASE 290620Z AUTO 06003KT 10SM FEW120 14/04 A3045 7350 52 8900 050/03 RMK AO2 T01390044
93073KASE ASE20160628232511206/28/16 23:25:31  5-MIN KASE 290625Z AUTO 21004KT 10SM FEW120 13/04 A3046 7350 54 8900 200/04 RMK AO2 T01330044
93073KASE ASE20160628233011206/28/16 23:30:31  5-MIN KASE 290630Z AUTO 25005KT 10SM FEW120 13/04 A3046 7350 56 8800 240/05 RMK AO2 T01280044
93073KASE ASE20160628233511206/28/16 23:35:31  5-MIN KASE 290635Z AUTO 00000KT 10SM SCT110 12/04 A3046 7350 56 8700 000/00 RMK AO2 T01220039
93073KASE ASE20160628234011206/28/16 23:40:31  5-MIN KASE 290640Z AUTO 22004KT 10SM FEW110 12/04 A3046 7350 59 8700 210/04 RMK AO2 T01220044
93073KASE ASE20160628234511206/28/16 23:45:31  5-MIN KASE 290645Z AUTO 16004KT 10SM FEW110 13/04 A3046 7350 54 8900 150/04 RMK AO2 T01330044
93073KASE ASE20160628235012906/28/16 23:50:31  5-MIN KASE 290650Z AUTO 20008KT 10SM FEW110 13/04 A3046 7350 54 8900 190/08 RMK AO2 SLP176 T01330044 403000089
93073KASE ASE20160628235511206/28/16 23:55:31  5-MIN KASE 290655Z AUTO 20008KT 10SM FEW110 14/04 A3046 7350 50 8900 200/08 RMK AO2 T01390039
93073KASE ASE20160629000011206/29/16 00:00:31  5-MIN KASE 290700Z AUTO 19006KT 10SM FEW110 13/04 A3046 7350 52 8900 180/06 RMK AO2 T01330039
93073KASE ASE20160629000510906/29/16 00:05:31  5-MIN KASE 290705Z AUTO 17004KT 10SM CLR 13/04 A3045 7350 52 8900 160/04 RMK AO2 T01330039
93073KASE ASE20160629001010906/29/16 00:10:31  5-MIN KASE 290710Z AUTO 20003KT 10SM CLR 14/04 A3045 7350 50 8900 190/03 RMK AO2 T01390039
93073KASE ASE20160629001510906/29/16 00:15:31  5-MIN KASE 290715Z AUTO 20007KT 10SM CLR 14/04 A3045 7360 50 8900 190/07 RMK AO2 T01390039
93073KASE ASE20160629002010906/29/16 00:20:31  5-MIN KASE 290720Z AUTO 21009KT 10SM CLR 14/04 A3044 7360 50 8900 200/09 RMK AO2 T01390039
93073KASE ASE20160629002510906/29/16 00:25:31  5-MIN KASE 290725Z AUTO 18009KT 10SM CLR 14/04 A3044 7360 49 9000 170/09 RMK AO2 T01440039
93073KASE ASE20160629003010906/29/16 00:30:31  5-MIN KASE 290730Z AUTO 17006KT 10SM CLR 15/04 A3044 7360 47 9100 170/06 RMK AO2 T01500039
93073KASE ASE20160629003510906/29/16 00:35:31  5-MIN KASE 290735Z AUTO 17007KT 10SM CLR 15/04 A3044 7360 47 9100 170/07 RMK AO2 T01500039
93073KASE ASE20160629004010906/29/16 00:40:31  5-MIN KASE 290740Z AUTO 20006KT 10SM CLR 14/04 A3044 7360 49 9000 190/06 RMK AO2 T01440039
93073KASE ASE20160629004510906/29/16 00:45:31  5-MIN KASE 290745Z AUTO 20006KT 10SM CLR 14/04 A3044 7360 50 8900 200/06 RMK AO2 T01390039
93073KASE ASE20160629005011606/29/16 00:50:31  5-MIN KASE 290750Z AUTO 20007KT 10SM CLR 14/04 A3044 7370 50 8900 190/07 RMK AO2 SLP166 T01390039
93073KASE ASE20160629005510906/29/16 00:55:31  5-MIN KASE 290755Z AUTO 20007KT 10SM CLR 14/04 A3044 7360 50 8900 190/07 RMK AO2 T01390039
93073KASE ASE20160629010010906/29/16 01:00:31  5-MIN KASE 290800Z AUTO 19006KT 10SM CLR 14/04 A3044 7370 49 9000 180/06 RMK AO2 T01440039
93073KASE ASE20160629010510906/29/16 01:05:31  5-MIN KASE 290805Z AUTO 20007KT 10SM CLR 15/03 A3044 7370 45 9100 190/07 RMK AO2 T01500033
93073KASE ASE20160629011010906/29/16 01:10:31  5-MIN KASE 290810Z AUTO 22008KT 10SM CLR 15/03 A3043 7370 45 9100 210/08 RMK AO2 T01500033
93073KASE ASE20160629011510906/29/16 01:15:31  5-MIN KASE 290815Z AUTO 20009KT 10SM CLR 14/03 A3043 7370 47 9000 190/09 RMK AO2 T01440033
93073KASE ASE20160629012010906/29/16 01:20:31  5-MIN KASE 290820Z AUTO 20009KT 10SM CLR 14/03 A3043 7380 47 9000 190/09 RMK AO2 T01440033
93073KASE ASE20160629012510906/29/16 01:25:31  5-MIN KASE 290825Z AUTO 21008KT 10SM CLR 14/03 A3043 7380 48 9000 200/08 RMK AO2 T01390033
93073KASE ASE20160629013010906/29/16 01:30:31  5-MIN KASE 290830Z AUTO 22007KT 10SM CLR 13/04 A3043 7380 52 8900 210/07 RMK AO2 T01330039
93073KASE ASE20160629013510906/29/16 01:35:31  5-MIN KASE 290835Z AUTO 20005KT 10SM CLR 13/03 A3043 7380 50 8900 190/05 RMK AO2 T01330033
93073KASE ASE20160629014010906/29/16 01:40:31  5-MIN KASE 290840Z AUTO 21006KT 10SM CLR 13/03 A3043 7380 50 8900 200/06 RMK AO2 T01330033
93073KASE ASE20160629014510906/29/16 01:45:31  5-MIN KASE 290845Z AUTO 21006KT 10SM CLR 14/03 A3042 7380 48 9000 200/06 RMK AO2 T01390033
93073KASE ASE20160629015012206/29/16 01:50:31  5-MIN KASE 290850Z AUTO 22008KT 10SM CLR 13/03 A3042 7380 50 8900 210/08 RMK AO2 SLP159 T01330033 53016
93073KASE ASE20160629015510906/29/16 01:55:31  5-MIN KASE 290855Z AUTO 22007KT 10SM CLR 14/03 A3042 7380 48 9000 210/07 RMK AO2 T01390033
93073KASE ASE20160629020010906/29/16 02:00:31  5-MIN KASE 290900Z AUTO 21008KT 10SM CLR 14/03 A3042 7390 48 9000 200/08 RMK AO2 T01390033
93073KASE ASE20160629020510906/29/16 02:05:31  5-MIN KASE 290905Z AUTO 22008KT 10SM CLR 14/03 A3041 7390 48 9000 210/08 RMK AO2 T01390033
93073KASE ASE20160629021010906/29/16 02:10:31  5-MIN KASE 290910Z AUTO 23010KT 10SM CLR 13/03 A3041 7390 50 8900 220/10 RMK AO2 T01330033
93073KASE ASE20160629021510906/29/16 02:15:31  5-MIN KASE 290915Z AUTO 22008KT 10SM CLR 14/03 A3042 7390 47 9000 220/08 RMK AO2 T01390028
93073KASE ASE20160629022010906/29/16 02:20:31  5-MIN KASE 290920Z AUTO 22005KT 10SM CLR 14/03 A3042 7380 47 9000 210/05 RMK AO2 T01390028
93073KASE ASE20160629022510906/29/16 02:25:31  5-MIN KASE 290925Z AUTO VRB03KT 10SM CLR 14/03 A3042 7380 47 9000 VRB/03 RMK AO2 T01390028
93073KASE ASE20160629023010906/29/16 02:30:31  5-MIN KASE 290930Z AUTO 00000KT 10SM CLR 14/03 A3042 7380 48 9000 000/00 RMK AO2 T01390033
93073KASE ASE20160629023510906/29/16 02:35:31  5-MIN KASE 290935Z AUTO 16003KT 10SM CLR 13/03 A3042 7390 52 8800 150/03 RMK AO2 T01280033
93073KASE ASE20160629024010906/29/16 02:40:31  5-MIN KASE 290940Z AUTO 21005KT 10SM CLR 12/03 A3042 7380 54 8800 200/05 RMK AO2 T01220033
93073KASE ASE20160629024510906/29/16 02:45:31  5-MIN KASE 290945Z AUTO 22007KT 10SM CLR 12/03 A3042 7380 54 8800 210/07 RMK AO2 T01220033
93073KASE ASE20160629025011606/29/16 02:50:31  5-MIN KASE 290950Z AUTO 21007KT 10SM CLR 12/03 A3042 7380 54 8800 200/07 RMK AO2 SLP164 T01220033
93073KASE ASE20160629025510906/29/16 02:55:31  5-MIN KASE 290955Z AUTO 21008KT 10SM CLR 12/03 A3042 7380 54 8800 210/08 RMK AO2 T01220033
93073KASE ASE20160629030010906/29/16 03:00:31  5-MIN KASE 291000Z AUTO 20006KT 10SM CLR 12/03 A3042 7380 54 8800 190/06 RMK AO2 T01220033
93073KASE ASE20160629030510906/29/16 03:05:31  5-MIN KASE 291005Z AUTO 21008KT 10SM CLR 12/03 A3042 7380 56 8700 200/08 RMK AO2 T01170033
93073KASE ASE20160629031010906/29/16 03:10:31  5-MIN KASE 291010Z AUTO 21008KT 10SM CLR 12/03 A3042 7390 54 8800 200/08 RMK AO2 T01220033
93073KASE ASE20160629031510906/29/16 03:15:31  5-MIN KASE 291015Z AUTO 21008KT 10SM CLR 12/03 A3042 7390 52 8800 200/08 RMK AO2 T01220028
93073KASE ASE20160629032010906/29/16 03:20:31  5-MIN KASE 291020Z AUTO 19006KT 10SM CLR 12/03 A3041 7390 56 8700 180/06 RMK AO2 T01170033
93073KASE ASE20160629032510906/29/16 03:25:31  5-MIN KASE 291025Z AUTO 21006KT 10SM CLR 12/03 A3042 7390 56 8700 200/06 RMK AO2 T01170033
93073KASE ASE20160629033010906/29/16 03:30:31  5-MIN KASE 291030Z AUTO 20007KT 10SM CLR 11/03 A3042 7390 58 8700 190/07 RMK AO2 T01110033
93073KASE ASE20160629033510906/29/16 03:35:31  5-MIN KASE 291035Z AUTO 21006KT 10SM CLR 11/03 A3041 7390 58 8700 200/06 RMK AO2 T01110033
93073KASE ASE20160629034010906/29/16 03:40:31  5-MIN KASE 291040Z AUTO 21007KT 10SM CLR 11/03 A3041 7390 58 8700 200/07 RMK AO2 T01110033
93073KASE ASE20160629034510906/29/16 03:45:31  5-MIN KASE 291045Z AUTO 21008KT 10SM CLR 11/03 A3041 7390 58 8700 200/08 RMK AO2 T01110033
93073KASE ASE20160629035011606/29/16 03:50:31  5-MIN KASE 291050Z AUTO 21007KT 10SM CLR 12/03 A3041 7390 54 8700 200/07 RMK AO2 SLP166 T01170028
93073KASE ASE20160629035510906/29/16 03:55:31  5-MIN KASE 291055Z AUTO 20005KT 10SM CLR 11/03 A3041 7390 56 8700 190/05 RMK AO2 T01110028
93073KASE ASE20160629040010906/29/16 04:00:31  5-MIN KASE 291100Z AUTO 21005KT 10SM CLR 11/03 A3041 7390 58 8600 200/05 RMK AO2 T01060028
93073KASE ASE20160629040510906/29/16 04:05:31  5-MIN KASE 291105Z AUTO 20005KT 10SM CLR 11/03 A3041 7390 56 8700 190/05 RMK AO2 T01110028
93073KASE ASE20160629041010906/29/16 04:10:31  5-MIN KASE 291110Z AUTO 20005KT 10SM CLR 11/03 A3041 7390 58 8600 190/05 RMK AO2 T01060028
93073KASE ASE20160629041510906/29/16 04:15:31  5-MIN KASE 291115Z AUTO 20005KT 10SM CLR 12/03 A3041 7390 54 8700 200/05 RMK AO2 T01170028
93073KASE ASE20160629042010906/29/16 04:20:31  5-MIN KASE 291120Z AUTO 21006KT 10SM CLR 12/03 A3041 7390 54 8700 200/06 RMK AO2 T01170028
93073KASE ASE20160629042510906/29/16 04:25:31  5-MIN KASE 291125Z AUTO 20006KT 10SM CLR 11/03 A3041 7390 56 8700 190/06 RMK AO2 T01110028
93073KASE ASE20160629043010906/29/16 04:30:31  5-MIN KASE 291130Z AUTO 21007KT 10SM CLR 11/03 A3041 7390 58 8600 200/07 RMK AO2 T01060028
93073KASE ASE20160629043510906/29/16 04:35:31  5-MIN KASE 291135Z AUTO 22008KT 10SM CLR 11/03 A3041 7390 56 8700 210/08 RMK AO2 T01110028
93073KASE ASE20160629044010906/29/16 04:40:31  5-MIN KASE 291140Z AUTO 20006KT 10SM CLR 12/03 A3041 7390 54 8700 200/06 RMK AO2 T01170028
93073KASE ASE20160629044510906/29/16 04:45:31  5-MIN KASE 291145Z AUTO 20005KT 10SM CLR 12/03 A3042 7390 54 8700 190/05 RMK AO2 T01170028
93073KASE ASE20160629045013406/29/16 04:50:31  5-MIN KASE 291150Z AUTO 21005KT 10SM CLR 11/03 A3042 7380 56 8700 200/05 RMK AO2 SLP179 T01110028 10167 20100 58006
93073KASE ASE20160629045510906/29/16 04:55:31  5-MIN KASE 291155Z AUTO 21007KT 10SM CLR 11/03 A3042 7380 56 8700 200/07 RMK AO2 T01110028
93073KASE ASE20160629050010906/29/16 05:00:31  5-MIN KASE 291200Z AUTO 21009KT 10SM CLR 11/03 A3042 7380 56 8700 200/09 RMK AO2 T01110028
93073KASE ASE20160629050510906/29/16 05:05:31  5-MIN KASE 291205Z AUTO 21005KT 10SM CLR 12/03 A3042 7380 54 8700 200/05 RMK AO2 T01170028
93073KASE ASE20160629051010906/29/16 05:10:31  5-MIN KASE 291210Z AUTO 00000KT 10SM CLR 12/03 A3042 7380 54 8700 000/00 RMK AO2 T01170028
93073KASE ASE20160629051510906/29/16 05:15:31  5-MIN KASE 291215Z AUTO 00000KT 10SM CLR 10/03 A3042 7380 63 8500 000/00 RMK AO2 T01000033
93073KASE ASE20160629052010906/29/16 05:20:31  5-MIN KASE 291220Z AUTO 18005KT 10SM CLR 11/03 A3042 7380 58 8600 180/05 RMK AO2 T01060028
93073KASE ASE20160629052510906/29/16 05:25:31  5-MIN KASE 291225Z AUTO 21007KT 10SM CLR 12/03 A3042 7380 54 8700 200/07 RMK AO2 T01170028
93073KASE ASE20160629053010906/29/16 05:30:31  5-MIN KASE 291230Z AUTO 20006KT 10SM CLR 12/03 A3043 7380 54 8700 200/06 RMK AO2 T01170028
93073KASE ASE20160629053510906/29/16 05:35:31  5-MIN KASE 291235Z AUTO 20005KT 10SM CLR 12/03 A3042 7380 54 8700 190/05 RMK AO2 T01170028
93073KASE ASE20160629054010906/29/16 05:40:31  5-MIN KASE 291240Z AUTO 20005KT 10SM CLR 12/03 A3042 7380 56 8700 190/05 RMK AO2 T01170033
93073KASE ASE20160629054510906/29/16 05:45:31  5-MIN KASE 291245Z AUTO 21006KT 10SM CLR 13/03 A3042 7380 52 8800 200/06 RMK AO2 T01280033
93073KASE ASE20160629055011606/29/16 05:50:31  5-MIN KASE 291250Z AUTO 20005KT 10SM CLR 13/03 A3042 7380 50 8900 190/05 RMK AO2 SLP171 T01330033
93073KASE ASE20160629055510406/29/16 05:55:31  5-MIN KASE 291255Z 22006KT 10SM CLR 14/03 A3043 7380 48 9000 210/06 RMK AO2 T01390033
93073KASE ASE20160629060010406/29/16 06:00:31  5-MIN KASE 291300Z VRB06KT 10SM CLR 14/03 A3043 7380 48 9000 VRB/06 RMK AO2 T01390033
93073KASE ASE20160629060510406/29/16 06:05:31  5-MIN KASE 291305Z 19005KT 10SM CLR 14/03 A3043 7380 47 9000 180/05 RMK AO2 T01440033
93073KASE ASE20160629061010406/29/16 06:10:31  5-MIN KASE 291310Z 17006KT 10SM CLR 15/03 A3042 7380 45 9100 160/06 RMK AO2 T01500033
93073KASE ASE20160629061510406/29/16 06:15:31  5-MIN KASE 291315Z 16006KT 10SM CLR 15/03 A3042 7380 43 9100 150/06 RMK AO2 T01500028
93073KASE ASE20160629062010406/29/16 06:20:31  5-MIN KASE 291320Z 15006KT 10SM CLR 15/03 A3042 7380 43 9100 140/06 RMK AO2 T01500028
93073KASE ASE20160629062510406/29/16 06:25:31  5-MIN KASE 291325Z 12004KT 10SM CLR 15/03 A3043 7380 45 9100 110/04 RMK AO2 T01500033
93073KASE ASE20160629063010406/29/16 06:30:31  5-MIN KASE 291330Z 09004KT 10SM CLR 15/04 A3043 7380 47 9100 080/04 RMK AO2 T01500039
93073KASE ASE20160629063510406/29/16 06:35:31  5-MIN KASE 291335Z 11003KT 10SM CLR 15/04 A3043 7380 47 9100 100/03 RMK AO2 T01500039
93073KASE ASE20160629064010406/29/16 06:40:31  5-MIN KASE 291340Z 13004KT 10SM CLR 15/04 A3043 7380 47 9100 120/04 RMK AO2 T01500039
93073KASE ASE20160629064510406/29/16 06:45:31  5-MIN KASE 291345Z VRB03KT 10SM CLR 16/03 A3043 7380 43 9100 VRB/03 RMK AO2 T01560033
93073KASE ASE20160629065011106/29/16 06:50:31  5-MIN KASE 291350Z 02003KT 10SM CLR 15/04 A3043 7380 49 9100 020/03 RMK AO2 SLP177 T01500044
93073KASE ASE20160629065510406/29/16 06:55:31  5-MIN KASE 291355Z 00000KT 10SM CLR 15/05 A3042 7380 51 9100 000/00 RMK AO2 T01500050
93073KASE ASE20160629070010406/29/16 07:00:31  5-MIN KASE 291400Z 00000KT 10SM CLR 15/05 A3043 7380 51 9100 000/00 RMK AO2 T01500050
93073KASE ASE20160629070510406/29/16 07:05:31  5-MIN KASE 291405Z 00000KT 10SM CLR 16/04 A3043 7370 45 9100 000/00 RMK AO2 T01560039
93073KASE ASE20160629071010406/29/16 07:10:31  5-MIN KASE 291410Z 00000KT 10SM CLR 16/04 A3043 7370 44 9200 000/00 RMK AO2 T01610039
93073KASE ASE20160629071510406/29/16 07:15:31  5-MIN KASE 291415Z 00000KT 10SM CLR 16/05 A3043 7370 49 9100 000/00 RMK AO2 T01560050
93073KASE ASE20160629072010406/29/16 07:20:31  5-MIN KASE 291420Z 00000KT 10SM CLR 16/05 A3043 7370 49 9100 000/00 RMK AO2 T01560050
93073KASE ASE20160629072510406/29/16 07:25:31  5-MIN KASE 291425Z 00000KT 10SM CLR 16/04 A3043 7370 45 9200 000/00 RMK AO2 T01610044
93073KASE ASE20160629073010406/29/16 07:30:31  5-MIN KASE 291430Z 00000KT 10SM CLR 16/04 A3043 7370 45 9200 000/00 RMK AO2 T01610044
93073KASE ASE20160629073510406/29/16 07:35:31  5-MIN KASE 291435Z 00000KT 10SM CLR 16/04 A3043 7370 45 9200 000/00 RMK AO2 T01610044
93073KASE ASE20160629074010406/29/16 07:40:31  5-MIN KASE 291440Z 00000KT 10SM CLR 17/04 A3043 7370 44 9300 000/00 RMK AO2 T01670044
93073KASE ASE20160629074510406/29/16 07:45:31  5-MIN KASE 291445Z 00000KT 10SM CLR 17/05 A3043 7370 44 9300 000/00 RMK AO2 T01720050
93073KASE ASE20160629075011706/29/16 07:50:31  5-MIN KASE 291450Z 00000KT 10SM CLR 17/05 A3043 7370 44 9300 000/00 RMK AO2 SLP182 T01720050 55000
93073KASE ASE20160629075510406/29/16 07:55:31  5-MIN KASE 291455Z 12003KT 10SM CLR 17/05 A3043 7370 44 9300 110/03 RMK AO2 T01720050
93073KASE ASE20160629080010406/29/16 08:00:31  5-MIN KASE 291500Z 12003KT 10SM CLR 17/05 A3043 7370 44 9300 120/03 RMK AO2 T01720050
93073KASE ASE20160629080510406/29/16 08:05:31  5-MIN KASE 291505Z 00000KT 10SM CLR 18/04 A3043 7370 41 9400 000/00 RMK AO2 T01780044
93073KASE ASE20160629081010406/29/16 08:10:31  5-MIN KASE 291510Z 00000KT 10SM CLR 18/05 A3043 7370 42 9400 000/00 RMK AO2 T01780050
93073KASE ASE20160629081510406/29/16 08:15:31  5-MIN KASE 291515Z 09003KT 10SM CLR 18/04 A3043 7370 39 9400 080/03 RMK AO2 T01830044
93073KASE ASE20160629082010406/29/16 08:20:31  5-MIN KASE 291520Z 09003KT 10SM CLR 18/05 A3043 7370 41 9500 080/03 RMK AO2 T01830050
93073KASE ASE20160629082510406/29/16 08:25:31  5-MIN KASE 291525Z VRB03KT 10SM CLR 18/06 A3043 7380 42 9500 VRB/03 RMK AO2 T01830056
93073KASE ASE20160629083010406/29/16 08:30:31  5-MIN KASE 291530Z 00000KT 10SM CLR 19/05 A3043 7370 39 9500 000/00 RMK AO2 T01890050
93073KASE ASE20160629083510406/29/16 08:35:31  5-MIN KASE 291535Z 00000KT 10SM CLR 18/05 A3043 7370 41 9500 000/00 RMK AO2 T01830050
93073KASE ASE20160629084010406/29/16 08:40:31  5-MIN KASE 291540Z 00000KT 10SM CLR 19/06 A3043 7370 41 9500 000/00 RMK AO2 T01890056
93073KASE ASE20160629084510406/29/16 08:45:31  5-MIN KASE 291545Z 32003KT 10SM CLR 19/06 A3043 7380 41 9500 310/03 RMK AO2 T01890056
93073KASE ASE20160629085011106/29/16 08:50:31  5-MIN KASE 291550Z 00000KT 10SM CLR 19/05 A3042 7380 38 9600 000/00 RMK AO2 SLP174 T01940050
93073KASE ASE20160629085510406/29/16 08:55:31  5-MIN KASE 291555Z 36003KT 10SM CLR 19/06 A3043 7380 40 9600 360/03 RMK AO2 T01940056
93073KASE ASE20160629090010406/29/16 09:00:31  5-MIN KASE 291600Z 35004KT 10SM CLR 20/06 A3043 7380 40 9600 340/04 RMK AO2 T02000061
93073KASE ASE20160629090510406/29/16 09:05:31  5-MIN KASE 291605Z 34003KT 10SM CLR 19/06 A3043 7380 40 9600 330/03 RMK AO2 T01940056
93073KASE ASE20160629091010406/29/16 09:10:31  5-MIN KASE 291610Z 36003KT 10SM CLR 19/06 A3042 7380 41 9600 350/03 RMK AO2 T01940061
93073KASE ASE20160629091510406/29/16 09:15:31  5-MIN KASE 291615Z 01004KT 10SM CLR 19/07 A3042 7380 43 9600 360/04 RMK AO2 T01940067
93073KASE ASE20160629092010406/29/16 09:20:31  5-MIN KASE 291620Z 02004KT 10SM CLR 20/07 A3042 7380 43 9600 010/04 RMK AO2 T02000072
93073KASE ASE20160629092510406/29/16 09:25:31  5-MIN KASE 291625Z 01004KT 10SM CLR 21/07 A3042 7380 41 9700 360/04 RMK AO2 T02060072
93073KASE ASE20160629093010406/29/16 09:30:31  5-MIN KASE 291630Z 36004KT 10SM CLR 21/06 A3042 7380 38 9700 350/04 RMK AO2 T02060061
93073KASE ASE20160629093510406/29/16 09:35:31  5-MIN KASE 291635Z 36003KT 10SM CLR 21/07 A3042 7380 40 9700 350/03 RMK AO2 T02060067
93073KASE ASE20160629094010406/29/16 09:40:31  5-MIN KASE 291640Z 35005KT 10SM CLR 21/07 A3042 7380 40 9700 340/05 RMK AO2 T02060067
93073KASE ASE20160629094510406/29/16 09:45:31  5-MIN KASE 291645Z 36005KT 10SM CLR 21/06 A3042 7380 37 9800 350/05 RMK AO2 T02110061
93073KASE ASE20160629095011106/29/16 09:50:31  5-MIN KASE 291650Z 34006KT 10SM CLR 21/07 A3042 7380 38 9800 330/06 RMK AO2 SLP174 T02110067
93073KASE ASE20160629095510406/29/16 09:55:31  5-MIN KASE 291655Z 34005KT 10SM CLR 21/06 A3042 7380 37 9800 340/05 RMK AO2 T02110061
93073KASE ASE20160629100010306/29/16 10:00:31  5-MIN KASE 291700Z 36005KT 8SM CLR 22/06 A3042 7380 34 9800 350/05 RMK AO2 T02170056
93073KASE ASE20160629100510306/29/16 10:05:31  5-MIN KASE 291705Z 36005KT 8SM CLR 22/06 A3043 7380 35 9900 350/05 RMK AO2 T02220061
93073KASE ASE20160629101010406/29/16 10:10:31  5-MIN KASE 291710Z 35006KT 10SM CLR 22/06 A3042 7380 35 9900 340/06 RMK AO2 T02220061
93073KASE ASE20160629101510406/29/16 10:15:31  5-MIN KASE 291715Z 34006KT 10SM CLR 22/06 A3042 7380 36 9800 330/06 RMK AO2 T02170061
93073KASE ASE20160629102010406/29/16 10:20:31  5-MIN KASE 291720Z 01006KT 10SM CLR 22/08 A3042 7380 39 9900 360/06 RMK AO2 T02220078
93073KASE ASE20160629102510406/29/16 10:25:31  5-MIN KASE 291725Z 02005KT 10SM CLR 22/08 A3042 7380 39 9900 010/05 RMK AO2 T02220078
93073KASE ASE20160629103010406/29/16 10:30:31  5-MIN KASE 291730Z 04006KT 10SM CLR 23/08 A3042 7380 37 9900 030/06 RMK AO2 T02280078
93073KASE ASE20160629103510506/29/16 10:35:31  5-MIN KASE 291735Z 01006KT 10SM CLR 23/07 A3042 7380 35 10000 360/06 RMK AO2 T02330072
93073KASE ASE20160629104010406/29/16 10:40:31  5-MIN KASE 291740Z 03006KT 10SM CLR 23/07 A3042 7380 35 9900 020/06 RMK AO2 T02280067
93073KASE ASE20160629104510506/29/16 10:45:31  5-MIN KASE 291745Z 01006KT 10SM CLR 23/07 A3042 7390 33 10000 360/06 RMK AO2 T02330067
93073KASE ASE20160629105013306/29/16 10:50:31  5-MIN KASE 291750Z 03005KT 10SM SCT060 24/06 A3042 7380 31 10100 020/05 RMK AO2 SLP165 T02390061 10239 20100 53003
93073KASE ASE20160629105510506/29/16 10:55:31  5-MIN KASE 291755Z 03005KT 10SM CLR 24/06 A3042 7390 30 10100 020/05 RMK AO2 T02440061
93073KASE ASE20160629110010506/29/16 11:00:31  5-MIN KASE 291800Z 05006KT 10SM CLR 24/07 A3042 7390 31 10100 040/06 RMK AO2 T02440067
93073KASE ASE20160629110510506/29/16 11:05:31  5-MIN KASE 291805Z 05007KT 10SM CLR 24/07 A3041 7390 33 10100 040/07 RMK AO2 T02440072
93073KASE ASE20160629111010506/29/16 11:10:31  5-MIN KASE 291810Z 04006KT 10SM CLR 25/07 A3041 7390 30 10200 030/06 RMK AO2 T02500067
93073KASE ASE20160629111510506/29/16 11:15:31  5-MIN KASE 291815Z 04006KT 10SM CLR 25/07 A3041 7390 30 10200 030/06 RMK AO2 T02500067
93073KASE ASE20160629112010506/29/16 11:20:31  5-MIN KASE 291820Z 01006KT 10SM CLR 26/07 A3041 7390 29 10300 360/06 RMK AO2 T02560067
93073KASE ASE20160629112510506/29/16 11:25:31  5-MIN KASE 291825Z VRB05KT 10SM CLR 26/07 A3041 7390 29 10300 VRB/05 RMK AO2 T02560067
93073KASE ASE20160629113010506/29/16 11:30:31  5-MIN KASE 291830Z 34007KT 10SM CLR 26/06 A3040 7400 27 10300 330/07 RMK AO2 T02560056
93073KASE ASE20160629113511606/29/16 11:35:31  5-MIN KASE 291835Z 33006KT 10SM CLR 26/04 A3040 7400 24 10300 320/06 RMK AO2 LTG DSNT S T02610044
93073KASE ASE20160629114011606/29/16 11:40:31  5-MIN KASE 291840Z VRB06KT 10SM CLR 27/04 A3040 7400 23 10400 VRB/06 RMK AO2 LTG DSNT S T02670044
93073KASE ASE20160629114511606/29/16 11:45:31  5-MIN KASE 291845Z 32010KT 10SM CLR 26/04 A3040 7400 24 10300 310/10 RMK AO2 LTG DSNT S T02610044
93073KASE ASE20160629115013206/29/16 11:50:31  5-MIN KASE 291850Z 35009KT 10SM SCT060 26/04 A3040 7400 23 10300 340/09 RMK AO2 LTG DSNT E AND S SLP160 T02610039
93073KASE ASE20160629115511606/29/16 11:55:31  5-MIN KASE 291855Z 34008KT 10SM CLR 26/05 A3040 7400 25 10300 330/08 RMK AO2 LTG DSNT E T02610050
93073KASE ASE20160629120011606/29/16 12:00:31  5-MIN KASE 291900Z 34005KT 10SM CLR 25/04 A3040 7400 25 10200 330/05 RMK AO2 LTG DSNT E T02500039
93073KASE ASE20160629120510506/29/16 12:05:31  5-MIN KASE 291905Z 36007KT 10SM CLR 25/05 A3040 7400 27 10200 350/07 RMK AO2 T02500050
93073KASE ASE20160629121010506/29/16 12:10:31  5-MIN KASE 291910Z 36005KT 10SM CLR 26/05 A3040 7400 26 10300 350/05 RMK AO2 T02560050
93073KASE ASE20160629121510506/29/16 12:15:31  5-MIN KASE 291915Z VRB04KT 10SM CLR 26/05 A3040 7400 26 10300 VRB/04 RMK AO2 T02560050
93073KASE ASE20160629122010506/29/16 12:20:31  5-MIN KASE 291920Z VRB03KT 10SM CLR 26/05 A3039 7410 26 10300 VRB/03 RMK AO2 T02560050
93073KASE ASE20160629122510506/29/16 12:25:31  5-MIN KASE 291925Z VRB05KT 10SM CLR 26/06 A3039 7410 27 10300 VRB/05 RMK AO2 T02610061
93073KASE ASE20160629123010506/29/16 12:30:31  5-MIN KASE 291930Z 00000KT 10SM CLR 26/05 A3039 7410 25 10300 000/00 RMK AO2 T02610050
93073KASE ASE20160629123510506/29/16 12:35:31  5-MIN KASE 291935Z VRB03KT 10SM CLR 26/04 A3039 7410 25 10300 VRB/03 RMK AO2 T02560044
93073KASE ASE20160629124010506/29/16 12:40:31  5-MIN KASE 291940Z VRB05KT 10SM CLR 25/04 A3039 7410 25 10200 VRB/05 RMK AO2 T02500039
93073KASE ASE20160629124510506/29/16 12:45:31  5-MIN KASE 291945Z VRB03KT 10SM CLR 24/05 A3039 7410 28 10200 VRB/03 RMK AO2 T02440050
93073KASE ASE20160629125012606/29/16 12:50:31  5-MIN KASE 291950Z 00000KT 10SM SCT060 24/05 A3039 7410 28 10200 000/00 RMK AO2 LTG DSNT E SLP157 T02440050
93073KASE ASE20160629125511606/29/16 12:55:31  5-MIN KASE 291955Z VRB04KT 10SM CLR 25/04 A3039 7410 26 10200 VRB/04 RMK AO2 LTG DSNT E T02500044
93073KASE ASE20160629130012306/29/16 13:00:31  5-MIN KASE 292000Z VRB05KT 10SM CLR 24/04 A3039 7410 27 10200 VRB/05 RMK AO2 LTG DSNT NE AND E T02440044
93073KASE ASE20160629130511706/29/16 13:05:31  5-MIN KASE 292005Z VRB03KT 10SM CLR 24/04 A3038 7410 27 10200 VRB/03 RMK AO2 LTG DSNT NE T02440044
93073KASE ASE20160629131010706/29/16 13:10:31  5-MIN KASE 292010Z 10SM CLR 24/04 A3038 7420 28 10100 M /M RMK AO2 LTG DSNT NE T02390044
93073KASE ASE20160629131510506/29/16 13:15:31  5-MIN KASE 292015Z 12007KT 10SM CLR 24/04 A3038 7420 28 10100 110/07 RMK AO2 T02390044
93073KASE ASE20160629132010506/29/16 13:20:31  5-MIN KASE 292020Z 12005KT 10SM CLR 24/04 A3038 7420 27 10100 110/05 RMK AO2 T02390039
93073KASE ASE20160629132510506/29/16 13:25:31  5-MIN KASE 292025Z 12006KT 10SM CLR 24/04 A3038 7420 27 10100 110/06 RMK AO2 T02390039
93073KASE ASE20160629133010506/29/16 13:30:31  5-MIN KASE 292030Z 12007KT 10SM CLR 24/04 A3038 7420 27 10100 110/07 RMK AO2 T02390039
93073KASE ASE20160629133510506/29/16 13:35:31  5-MIN KASE 292035Z 12007KT 10SM CLR 24/04 A3038 7420 27 10100 110/07 RMK AO2 T02390039
93073KASE ASE20160629134010506/29/16 13:40:31  5-MIN KASE 292040Z 14006KT 10SM CLR 24/04 A3038 7420 27 10100 130/06 RMK AO2 T02390039
93073KASE ASE20160629134510506/29/16 13:45:31  5-MIN KASE 292045Z 12005KT 10SM CLR 24/04 A3038 7420 28 10100 110/05 RMK AO2 T02390044
93073KASE ASE20160629135011806/29/16 13:50:31  5-MIN KASE 292050Z 13004KT 10SM CLR 24/05 A3037 7420 29 10100 120/04 RMK AO2 SLP156 T02390050 57005
93073KASE ASE20160629135511606/29/16 13:55:31  5-MIN KASE 292055Z 12007KT 10SM CLR 24/05 A3037 7420 28 10200 110/07 RMK AO2 LTG DSNT E T02440050
93073KASE ASE20160629140011606/29/16 14:00:31  5-MIN KASE 292100Z 13007KT 10SM CLR 24/04 A3037 7420 28 10100 120/07 RMK AO2 LTG DSNT E T02390044
93073KASE ASE20160629140511606/29/16 14:05:31  5-MIN KASE 292105Z 12006KT 10SM CLR 25/05 A3037 7420 27 10200 110/06 RMK AO2 LTG DSNT E T02500050
93073KASE ASE20160629141010506/29/16 14:10:31  5-MIN KASE 292110Z 12007KT 10SM CLR 24/05 A3037 7430 28 10200 110/07 RMK AO2 T02440050
93073KASE ASE20160629141511606/29/16 14:15:31  5-MIN KASE 292115Z 12006KT 10SM CLR 24/05 A3037 7430 28 10200 110/06 RMK AO2 LTG DSNT S T02440050
93073KASE ASE20160629142012306/29/16 14:20:31  5-MIN KASE 292120Z 10007KT 10SM CLR 25/05 A3036 7430 27 10200 100/07 RMK AO2 LTG DSNT NE AND S T02500050
93073KASE ASE20160629142512306/29/16 14:25:31  5-MIN KASE 292125Z 11004KT 10SM CLR 26/06 A3036 7440 27 10300 100/04 RMK AO2 LTG DSNT NE AND S T02560056
93073KASE ASE20160629143011706/29/16 14:30:31  5-MIN KASE 292130Z VRB03KT 10SM CLR 26/06 A3036 7440 27 10300 VRB/03 RMK AO2 LTG DSNT NE T02560056
93073KASE ASE20160629143510506/29/16 14:35:31  5-MIN KASE 292135Z 36004KT 10SM CLR 26/06 A3036 7440 26 10400 350/04 RMK AO2 T02610056
93073KASE ASE20160629144010506/29/16 14:40:31  5-MIN KASE 292140Z 33007KT 10SM CLR 27/06 A3036 7440 26 10400 320/07 RMK AO2 T02670061
93073KASE ASE20160629144510506/29/16 14:45:31  5-MIN KASE 292145Z 35008KT 10SM CLR 27/06 A3036 7440 25 10500 340/08 RMK AO2 T02720061
93073KASE ASE20160629145011206/29/16 14:50:31  5-MIN KASE 292150Z 33006KT 10SM CLR 27/06 A3036 7440 24 10500 320/06 RMK AO2 SLP145 T02720056
93073KASE ASE20160629145510506/29/16 14:55:31  5-MIN KASE 292155Z 34008KT 10SM CLR 27/05 A3036 7440 24 10400 330/08 RMK AO2 T02670050
93073KASE ASE20160629150010506/29/16 15:00:31  5-MIN KASE 292200Z 32008KT 10SM CLR 27/05 A3036 7440 24 10500 320/08 RMK AO2 T02720050
93073KASE ASE20160629150510506/29/16 15:05:31  5-MIN KASE 292205Z 34008KT 10SM CLR 27/04 A3036 7440 23 10400 330/08 RMK AO2 T02670044
93073KASE ASE20160629151011106/29/16 15:10:31  5-MIN KASE 292210Z 05010G15KT 10SM CLR 26/04 A3036 7440 25 10300 040/10G15 RMK AO2 T02560044
93073KASE ASE20160629151511106/29/16 15:15:31  5-MIN KASE 292215Z 07009G15KT 10SM CLR 24/04 A3036 7440 27 10200 060/09G15 RMK AO2 T02440044
93073KASE ASE20160629152010506/29/16 15:20:31  5-MIN KASE 292220Z 05007KT 10SM CLR 25/04 A3036 7440 26 10200 050/07 RMK AO2 T02500044
93073KASE ASE20160629152512006/29/16 15:25:31  5-MIN KASE 292225Z 07005KT 10SM FEW120 25/05 A3036 7440 27 10200 060/05 RMK AO2 LTG DSNT SW T02500050
93073KASE ASE20160629153012606/29/16 15:30:31  5-MIN KASE 292230Z 10009G16KT 10SM FEW120 24/04 A3036 7440 27 10200 090/09G16 RMK AO2 LTG DSNT SW T02440044
93073KASE ASE20160629153512606/29/16 15:35:31  5-MIN KASE 292235Z 10009G16KT 10SM FEW120 24/04 A3036 7440 27 10100 090/09G16 RMK AO2 LTG DSNT SW T02390039
93073KASE ASE20160629154012406/29/16 15:40:31  5-MIN KASE 292240Z 10010KT 070V130 10SM FEW120 23/04 A3036 7440 29 10100 090/10 060V120 RMK AO2 T02330044
93073KASE ASE20160629154511406/29/16 15:45:31  5-MIN KASE 292245Z 11011G14KT 10SM FEW120 23/04 A3036 7440 28 10100 100/11G14 RMK AO2 T02330039
93073KASE ASE20160629155012706/29/16 15:50:31  5-MIN KASE 292250Z 11008KT 10SM FEW120 23/04 A3036 7440 28 10100 100/08 RMK AO2 LTG DSNT NW SLP155 T02330039
93073KASE ASE20160629155512606/29/16 15:55:31  5-MIN KASE 292255Z 10008G16KT 10SM SCT110 23/04 A3035 7440 29 10100 090/08G16 RMK AO2 LTG DSNT NW T02330044
93073KASE ASE20160629160012606/29/16 16:00:31  5-MIN KASE 292300Z 11008G16KT 10SM SCT110 23/04 A3035 7440 29 10100 100/08G16 RMK AO2 LTG DSNT NW T02330044
93073KASE ASE20160629160512506/29/16 16:05:31  5-MIN KASE 292305Z 15010KT 10SM VCTS SCT110 23/04 A3035 7440 29 10100 140/10 RMK AO2 LTG DSNT SW T02330044
93073KASE ASE20160629161012506/29/16 16:10:31  5-MIN KASE 292310Z 14013KT 10SM VCTS SCT110 23/04 A3036 7440 28 10100 130/13 RMK AO2 LTG DSNT SW T02330039
93073KASE ASE20160629161513806/29/16 16:15:31  5-MIN KASE 292315Z 14013G18KT 10SM VCTS FEW100 BKN110 23/04 A3036 7440 28 10100 130/13G18 RMK AO2 LTG DSNT SW T02330039
93073KASE ASE20160629162012106/29/16 16:20:31  5-MIN KASE 292320Z 14015G22KT 10SM SCT090 BKN110 23/04 A3036 7440 28 10100 140/15G22 RMK AO2 T02330039
93073KASE ASE20160629162512106/29/16 16:25:31  5-MIN KASE 292325Z 14017G22KT 10SM SCT090 BKN110 23/03 A3036 7440 27 10000 130/17G22 RMK AO2 T02280033
93073KASE ASE20160629163012106/29/16 16:30:31  5-MIN KASE 292330Z 15015G25KT 10SM SCT090 BKN110 23/03 A3036 7430 27 10000 140/15G25 RMK AO2 T02280033
93073KASE ASE20160629163512106/29/16 16:35:31  5-MIN KASE 292335Z 14014G25KT 10SM SCT090 OVC110 23/03 A3036 7430 27 10000 130/14G25 RMK AO2 T02280033
93073KASE ASE20160629164013606/29/16 16:40:31  5-MIN KASE 292340Z 15015G24KT 10SM VCTS SCT090 OVC110 22/04 A3036 7430 30 9900 140/15G24 RMK AO2 LTG DSNT W T02220039
93073KASE ASE20160629164515406/29/16 16:45:31  5-MIN KASE 292345Z 14018G26KT 10SM VCTS SCT090 OVC110 22/04 A3036 7440 30 9900 140/18G26 RMK AO2 PK WND 14026/2343 LTG DSNT W T02220039
93073KASE ASE20160629165017906/29/16 16:50:31  5-MIN KASE 292350Z 14017G28KT 10SM VCTS SCT090 OVC110 22/04 A3036 7440 31 9900 130/17G28 RMK AO2 PK WND 13028/2347 LTG DSNT W SLP162 T02170039 10272 20217 56012
93073KASE ASE20160629165511306/29/16 16:55:31  5-MIN KASE 292355Z 13014G28KT 10SM OVC100 22/04 A3036 7440 32 9900 120/14G28 RMK AO2 T02170044
93073KASE ASE20160629170011306/29/16 17:00:31  5-MIN KASE 300000Z 14013G22KT 10SM OVC100 21/04 A3036 7430 33 9800 130/13G22 RMK AO2 T02110044
93073KASE ASE20160629170513106/29/16 17:05:31  5-MIN KASE 300005Z 15015G22KT 10SM BKN100 BKN110 22/05 A3037 7430 33 9900 140/15G22 RMK AO2 LTG DSNT W T02170050
93073KASE ASE20160629171012406/29/16 17:10:31  5-MIN KASE 300010Z 15014G20KT 10SM BKN100 22/04 A3036 7430 32 9900 140/14G20 RMK AO2 LTG DSNT W T02170044
93073KASE ASE20160629171512406/29/16 17:15:31  5-MIN KASE 300015Z 15014G20KT 10SM BKN100 22/04 A3037 7430 31 9900 140/14G20 RMK AO2 LTG DSNT W T02170039
93073KASE ASE20160629172010706/29/16 17:20:31  5-MIN KASE 300020Z 15009KT 10SM OVC100 21/04 A3038 7420 33 9800 140/09 RMK AO2 T02110044
93073KASE ASE20160629172513206/29/16 17:25:31  5-MIN KASE 300025Z 14008KT 10SM BKN100 OVC110 21/04 A3038 7420 33 9800 130/08 RMK AO2 LTG DSNT W AND NW T02110044
93073KASE ASE20160629173013206/29/16 17:30:31  5-MIN KASE 300030Z 15009KT 10SM BKN090 OVC110 21/05 A3038 7420 35 9700 140/09 RMK AO2 LTG DSNT W AND NW T02060050
93073KASE ASE20160629173514506/29/16 17:35:31  5-MIN KASE 300035Z 17014G19KT 10SM FEW070 BKN090 OVC110 21/04 A3038 7420 34 9700 160/14G19 RMK AO2 LTG DSNT W AND NW T02060044
93073KASE ASE20160629174012006/29/16 17:40:31  5-MIN KASE 300040Z 15012G19KT 10SM SCT070 OVC100 21/04 A3039 7410 33 9700 150/12G19 RMK AO2 T02060039
93073KASE ASE20160629174512506/29/16 17:45:31  5-MIN KASE 300045Z 14011KT 10SM SCT070 OVC100 20/05 A3039 7410 37 9700 130/11 RMK AO2 LTG DSNT W T02000050
93073KASE ASE20160629175013906/29/16 17:50:31  5-MIN KASE 300050Z 16012KT 10SM FEW070 BKN090 OVC110 20/05 A3039 7410 37 9700 150/12 RMK AO2 LTG DSNT W SLP172 T02000050
93073KASE ASE20160629175513206/29/16 17:55:31  5-MIN KASE 300055Z 17012KT 10SM FEW070 SCT090 OVC110 20/05 A3039 7410 37 9700 160/12 RMK AO2 LTG DSNT W T02000050
93073KASE ASE20160629180011406/29/16 18:00:31  5-MIN KASE 300100Z 14010KT 10SM FEW070 OVC110 20/05 A3039 7410 37 9700 130/10 RMK AO2 T02000050
93073KASE ASE20160629180511406/29/16 18:05:31  5-MIN KASE 300105Z 12011KT 10SM FEW070 OVC110 19/06 A3039 7410 43 9600 120/11 RMK AO2 T01890061
93073KASE ASE20160629181010706/29/16 18:10:31  5-MIN KASE 300110Z 12011KT 10SM OVC100 18/06 A3039 7410 44 9500 110/11 RMK AO2 T01830061
93073KASE ASE20160629181511406/29/16 18:15:31  5-MIN KASE 300115Z 13010KT 10SM BKN100 OVC110 18/06 A3040 7400 44 9500 120/10 RMK AO2 T01830061
93073KASE ASE20160629182013006/29/16 18:20:31  5-MIN KASE 300120Z 13008KT 110V170 10SM BKN090 OVC110 18/06 A3040 7400 44 9500 120/08 100V160 RMK AO2 T01830061
93073KASE ASE20160629182512706/29/16 18:25:31  5-MIN KASE 300125Z 13010G14KT 10SM FEW070 BKN085 OVC100 19/06 A3041 7400 43 9500 120/10G14 RMK AO2 T01890061
93073KASE ASE20160629183013006/29/16 18:30:31  5-MIN KASE 300130Z 13009KT 10SM -RA FEW070 OVC090 19/07 A3041 7390 46 9500 120/09 RMK AO2 RAB26 P0000 T01890072
93073KASE ASE20160629183512306/29/16 18:35:31  5-MIN KASE 300135Z 11003KT 10SM -RA OVC090 18/08 A3041 7390 51 9400 100/03 RMK AO2 RAB26 P0000 T01780078
93073KASE ASE20160629184012306/29/16 18:40:31  5-MIN KASE 300140Z 00000KT 10SM -RA OVC085 18/08 A3042 7380 51 9400 000/00 RMK AO2 RAB26 P0000 T01780078
93073KASE ASE20160629184512306/29/16 18:45:31  5-MIN KASE 300145Z 09005KT 10SM -RA OVC090 18/08 A3042 7380 51 9400 080/05 RMK AO2 RAB26 P0000 T01780078
93073KASE ASE20160629185012906/29/16 18:50:31  5-MIN KASE 300150Z VRB03KT 10SM OVC085 18/07 A3042 7380 49 9400 VRB/03 RMK AO2 RAB26E46 SLP182 P0000 T01780072
93073KASE ASE20160629185510706/29/16 18:55:31  5-MIN KASE 300155Z 00000KT 10SM OVC085 18/07 A3041 7390 49 9400 000/00 RMK AO2 T01780072
93073KASE ASE20160629190010706/29/16 19:00:31  5-MIN KASE 300200Z 13003KT 10SM OVC090 18/08 A3042 7380 51 9400 120/03 RMK AO2 T01780078
93073KASE ASE20160629190510706/29/16 19:05:31  5-MIN KASE 300205Z VRB04KT 10SM OVC085 18/07 A3042 7380 49 9400 VRB/04 RMK AO2 T01780072
93073KASE ASE20160629191010706/29/16 19:10:31  5-MIN KASE 300210Z 12006KT 10SM OVC085 17/08 A3042 7380 53 9300 110/06 RMK AO2 T01720078
93073KASE ASE20160629191513006/29/16 19:15:31  5-MIN KASE 300215Z 13004KT 10SM -RA BKN080 OVC090 17/08 A3042 7380 55 9300 120/04 RMK AO2 RAB12 P0000 T01670078
93073KASE ASE20160629192013006/29/16 19:20:31  5-MIN KASE 300220Z 13005KT 10SM -RA BKN080 OVC100 17/08 A3042 7380 57 9300 120/05 RMK AO2 RAB12 P0000 T01670083
93073KASE ASE20160629192513706/29/16 19:25:31  5-MIN KASE 300225Z 14004KT 10SM -RA FEW055 BKN080 OVC100 17/08 A3042 7380 57 9300 130/04 RMK AO2 RAB12 P0000 T01670083
93073KASE ASE20160629193013606/29/16 19:30:31  5-MIN KASE 300230Z 12003KT 10SM FEW050 SCT075 OVC100 17/08 A3042 7380 57 9300 110/03 RMK AO2 RAB12E26 P0000 T01670083
93073KASE ASE20160629193512906/29/16 19:35:31  5-MIN KASE 300235Z 19004KT 10SM FEW080 OVC100 16/08 A3042 7380 59 9200 180/04 RMK AO2 RAB12E26 P0000 T01610083
93073KASE ASE20160629194012906/29/16 19:40:31  5-MIN KASE 300240Z 21004KT 10SM FEW075 OVC100 16/09 A3042 7380 64 9200 200/04 RMK AO2 RAB12E26 P0000 T01560089
93073KASE ASE20160629194512206/29/16 19:45:31  5-MIN KASE 300245Z 21003KT 10SM OVC095 16/09 A3042 7380 64 9200 200/03 RMK AO2 RAB12E26 P0000 T01560089
93073KASE ASE20160629195014806/29/16 19:50:31  5-MIN KASE 300250Z 21006KT 10SM BKN095 OVC110 15/09 A3042 7380 66 9100 200/06 RMK AO2 RAB12E26 SLP186 P0000 60000 T01500089 55003
93073KASE ASE20160629195510706/29/16 19:55:31  5-MIN KASE 300255Z 21008KT 10SM OVC100 15/09 A3042 7380 66 9100 200/08 RMK AO2 T01500089
93073KASE ASE20160629200010706/29/16 20:00:31  5-MIN KASE 300300Z 19005KT 10SM OVC100 15/09 A3042 7380 69 9100 190/05 RMK AO2 T01500094
93073KASE ASE20160629200510706/29/16 20:05:31  5-MIN KASE 300305Z 17007KT 10SM OVC110 15/09 A3043 7380 69 9100 170/07 RMK AO2 T01500094
93073KASE ASE20160629201010706/29/16 20:10:31  5-MIN KASE 300310Z 16006KT 10SM OVC100 15/09 A3043 7380 69 9100 150/06 RMK AO2 T01500094
93073KASE ASE20160629201510706/29/16 20:15:31  5-MIN KASE 300315Z 18005KT 10SM OVC100 15/09 A3043 7370 69 9100 170/05 RMK AO2 T01500094
93073KASE ASE20160629202010706/29/16 20:20:31  5-MIN KASE 300320Z 16006KT 10SM OVC100 16/09 A3043 7370 64 9100 150/06 RMK AO2 T01560089
93073KASE ASE20160629202511406/29/16 20:25:31  5-MIN KASE 300325Z 16005KT 10SM BKN100 OVC110 16/09 A3043 7370 64 9100 150/05 RMK AO2 T01560089
93073KASE ASE20160629203010706/29/16 20:30:31  5-MIN KASE 300330Z 16005KT 10SM OVC100 16/09 A3044 7370 64 9100 150/05 RMK AO2 T01560089
93073KASE ASE20160629203510706/29/16 20:35:31  5-MIN KASE 300335Z 17006KT 10SM OVC095 16/09 A3044 7370 64 9100 160/06 RMK AO2 T01560089
93073KASE ASE20160629204010706/29/16 20:40:31  5-MIN KASE 300340Z VRB05KT 10SM OVC090 16/09 A3044 7370 64 9100 VRB/05 RMK AO2 T01560089
93073KASE ASE20160629204510706/29/16 20:45:31  5-MIN KASE 300345Z 17004KT 10SM OVC090 16/09 A3044 7360 64 9100 160/04 RMK AO2 T01560089
93073KASE ASE20160629205011406/29/16 20:50:31  5-MIN KASE 300350Z VRB03KT 10SM OVC090 15/09 A3044 7360 66 9100 VRB/03 RMK AO2 SLP188 T01500089
93073KASE ASE20160629205510706/29/16 20:55:31  5-MIN KASE 300355Z 23004KT 10SM OVC090 15/09 A3044 7360 66 9100 220/04 RMK AO2 T01500089
93073KASE ASE20160629210010706/29/16 21:00:31  5-MIN KASE 300400Z 21005KT 10SM OVC090 14/09 A3045 7360 69 9000 210/05 RMK AO2 T01440089
93073KASE ASE20160629210510706/29/16 21:05:31  5-MIN KASE 300405Z 19005KT 10SM OVC085 15/09 A3045 7350 66 9100 180/05 RMK AO2 T01500089
93073KASE ASE20160629211010706/29/16 21:10:31  5-MIN KASE 300410Z 17005KT 10SM OVC085 15/09 A3045 7350 66 9100 160/05 RMK AO2 T01500089
93073KASE ASE20160629211509706/29/16 21:15:31  5-MIN KASE 300415Z 10SM OVC085 15/09 A3047 7340 66 9000 M /M RMK AO2 T01500089
93073KASE ASE20160629212010706/29/16 21:20:31  5-MIN KASE 300420Z 36004KT 10SM OVC085 16/09 A3047 7340 64 9100 350/04 RMK AO2 T01560089
93073KASE ASE20160629212510706/29/16 21:25:31  5-MIN KASE 300425Z 04003KT 10SM OVC090 15/09 A3047 7340 66 9000 030/03 RMK AO2 T01500089
93073KASE ASE20160629213010706/29/16 21:30:31  5-MIN KASE 300430Z 00000KT 10SM OVC090 15/09 A3046 7340 66 9000 000/00 RMK AO2 T01500089
93073KASE ASE20160629213510706/29/16 21:35:31  5-MIN KASE 300435Z 00000KT 10SM OVC090 15/09 A3047 7340 66 9000 000/00 RMK AO2 T01500089
93073KASE ASE20160629214010706/29/16 21:40:31  5-MIN KASE 300440Z 04003KT 10SM OVC085 15/09 A3047 7340 66 9000 030/03 RMK AO2 T01500089
93073KASE ASE20160629214510706/29/16 21:45:31  5-MIN KASE 300445Z 00000KT 10SM OVC085 15/09 A3047 7340 66 9000 000/00 RMK AO2 T01500089
93073KASE ASE20160629215011406/29/16 21:50:31  5-MIN KASE 300450Z 00000KT 10SM OVC085 14/09 A3047 7330 69 9000 000/00 RMK AO2 SLP197 T01440089
93073KASE ASE20160629215510706/29/16 21:55:31  5-MIN KASE 300455Z 22003KT 10SM OVC085 14/09 A3047 7330 69 9000 210/03 RMK AO2 T01440089
93073KASE ASE20160629220010706/29/16 22:00:31  5-MIN KASE 300500Z 00000KT 10SM OVC085 14/09 A3047 7340 69 9000 000/00 RMK AO2 T01440089
93073KASE ASE20160629220510706/29/16 22:05:31  5-MIN KASE 300505Z 00000KT 10SM OVC085 15/09 A3047 7340 66 9000 000/00 RMK AO2 T01500089
93073KASE ASE20160629221010706/29/16 22:10:31  5-MIN KASE 300510Z 14004KT 10SM OVC085 15/09 A3047 7340 69 9000 140/04 RMK AO2 T01500094
93073KASE ASE20160629221511406/29/16 22:15:31  5-MIN KASE 300515Z 16004KT 10SM BKN085 OVC110 15/09 A3047 7340 69 9000 150/04 RMK AO2 T01500094
93073KASE ASE20160629222011406/29/16 22:20:31  5-MIN KASE 300520Z 18004KT 10SM BKN085 OVC110 15/09 A3047 7340 69 9000 170/04 RMK AO2 T01500094
93073KASE ASE20160629222511406/29/16 22:25:31  5-MIN KASE 300525Z 19004KT 10SM BKN085 OVC110 14/09 A3047 7340 72 9000 180/04 RMK AO2 T01440094
93073KASE ASE20160629223011406/29/16 22:30:31  5-MIN KASE 300530Z 16004KT 10SM BKN090 OVC110 14/09 A3047 7340 72 9000 150/04 RMK AO2 T01440094
93073KASE ASE20160629223511406/29/16 22:35:31  5-MIN KASE 300535Z 21003KT 10SM BKN090 OVC110 14/09 A3047 7340 72 9000 200/03 RMK AO2 T01440094
93073KASE ASE20160629224011406/29/16 22:40:31  5-MIN KASE 300540Z VRB03KT 10SM BKN085 OVC110 14/09 A3046 7340 72 9000 VRB/03 RMK AO2 T01440094
93073KASE ASE20160629224513006/29/16 22:45:31  5-MIN KASE 300545Z 22005KT 10SM -RA BKN080 OVC100 14/09 A3046 7340 72 9000 210/05 RMK AO2 RAB44 P0000 T01440094
93073KASE ASE20160629225016106/29/16 22:50:31  5-MIN KASE 300550Z VRB04KT 10SM -RA BKN070 OVC090 14/09 A3046 7350 72 9000 VRB/04 RMK AO2 RAB44 SLP184 P0000 60000 T01440094 10217 20139 51017
93073KASE ASE20160629225512406/29/16 22:55:31  5-MIN KASE 300555Z 19004KT 10SM -RA BKN070 OVC090 14/11 A3046 7350 77 9000 180/04 RMK AO2 P0000 T01440106
93073KASE ASE20160629230012406/29/16 23:00:31  5-MIN KASE 300600Z 17004KT 10SM -RA BKN070 OVC080 14/11 A3045 7350 80 8900 160/04 RMK AO2 P0000 T01390106
93073KASE ASE20160629230512406/29/16 23:05:31  5-MIN KASE 300605Z 14006KT 10SM -RA FEW055 OVC070 14/11 A3045 7360 80 8900 140/06 RMK AO2 P0000 T01390106
93073KASE ASE20160629231013106/29/16 23:10:31  5-MIN KASE 300610Z 14008KT 10SM -RA FEW055 BKN070 OVC085 14/11 A3044 7370 80 8900 130/08 RMK AO2 P0000 T01390106
93073KASE ASE20160629231513806/29/16 23:15:31  5-MIN KASE 300615Z 14010KT 10SM -RA FEW055 BKN070 OVC085 14/10 A3043 7370 77 9000 130/10 RMK AO2 PRESFR P0000 T01390100
93073KASE ASE20160629232013806/29/16 23:20:31  5-MIN KASE 300620Z 15008KT 10SM -RA FEW055 BKN070 OVC085 13/10 A3042 7380 80 8900 140/08 RMK AO2 PRESFR P0000 T01330100
93073KASE ASE20160629232513806/29/16 23:25:31  5-MIN KASE 300625Z 17009KT 10SM -RA FEW055 BKN070 OVC090 13/11 A3041 7390 83 8900 160/09 RMK AO2 PRESFR P0000 T01330106
93073KASE ASE20160629233013106/29/16 23:30:31  5-MIN KASE 300630Z 19012KT 10SM -RA FEW055 SCT070 OVC090 14/11 A3041 7390 80 9000 180/12 RMK AO2 P0000 T01390106
93073KASE ASE20160629233512606/29/16 23:35:31  5-MIN KASE 300635Z 20008KT 10SM BKN075 OVC100 13/10 A3041 7390 80 8900 190/08 RMK AO2 RAE34 P0000 T01330100
93073KASE ASE20160629234013306/29/16 23:40:31  5-MIN KASE 300640Z 19009KT 10SM SCT075 BKN090 OVC100 13/10 A3040 7400 80 8900 180/09 RMK AO2 RAE34 P0000 T01330100
93073KASE ASE20160629234512606/29/16 23:45:31  5-MIN KASE 300645Z 16010KT 10SM SCT080 OVC100 14/09 A3040 7400 72 9100 150/10 RMK AO2 RAE34 P0000 T01440094
93073KASE ASE20160629235014306/29/16 23:50:31  5-MIN KASE 300650Z 14011KT 10SM FEW075 OVC100 14/09 A3040 7400 72 9100 140/11 RMK AO2 RAE34 SLP156 P0000 T01440094 402720100
93073KASE ASE20160629235511406/29/16 23:55:31  5-MIN KASE 300655Z 13011KT 10SM FEW075 OVC110 14/09 A3039 7410 74 9000 120/11 RMK AO2 T01390094
93073KASE ASE20160630000011406/30/16 00:00:31  5-MIN KASE 300700Z 13010KT 10SM FEW075 BKN100 14/09 A3039 7410 74 9000 120/10 RMK AO2 T01390094
93073KASE ASE20160630000511306/30/16 00:05:31  5-MIN KASE 300705Z 13009G17KT 10SM BKN110 14/09 A3040 7400 69 9100 130/09G17 RMK AO2 T01440089
93073KASE ASE20160630001010706/30/16 00:10:31  5-MIN KASE 300710Z 13010KT 10SM BKN110 14/09 A3039 7410 69 9100 120/10 RMK AO2 T01440089
93073KASE ASE20160630001510706/30/16 00:15:31  5-MIN KASE 300715Z 13011KT 10SM BKN110 14/09 A3039 7410 69 9100 120/11 RMK AO2 T01440089
93073KASE ASE20160630002010706/30/16 00:20:31  5-MIN KASE 300720Z 13012KT 10SM BKN110 14/09 A3038 7410 69 9100 120/12 RMK AO2 T01440089
93073KASE ASE20160630002510706/30/16 00:25:31  5-MIN KASE 300725Z 13012KT 10SM BKN110 15/08 A3038 7420 64 9100 130/12 RMK AO2 T01500083
93073KASE ASE20160630003010706/30/16 00:30:31  5-MIN KASE 300730Z 14012KT 10SM OVC110 14/08 A3038 7420 66 9100 130/12 RMK AO2 T01440083
93073KASE ASE20160630003511306/30/16 00:35:31  5-MIN KASE 300735Z 13010G18KT 10SM OVC100 14/08 A3038 7420 66 9100 120/10G18 RMK AO2 T01440083
93073KASE ASE20160630004011306/30/16 00:40:31  5-MIN KASE 300740Z 14013G19KT 10SM OVC100 14/08 A3038 7420 66 9100 130/13G19 RMK AO2 T01440083
93073KASE ASE20160630004510706/30/16 00:45:31  5-MIN KASE 300745Z 13012KT 10SM BKN100 14/08 A3037 7430 66 9100 120/12 RMK AO2 T01440083
93073KASE ASE20160630005011406/30/16 00:50:31  5-MIN KASE 300750Z 14011KT 10SM BKN100 14/08 A3037 7430 66 9100 130/11 RMK AO2 SLP152 T01440083
93073KASE ASE20160630005510706/30/16 00:55:31  5-MIN KASE 300755Z 13010KT 10SM SCT100 14/08 A3037 7430 69 9000 120/10 RMK AO2 T01390083
93073KASE ASE20160630010010706/30/16 01:00:31  5-MIN KASE 300800Z 14009KT 10SM SCT100 14/08 A3036 7430 69 9000 130/09 RMK AO2 T01390083
93073KASE ASE20160630010510706/30/16 01:05:31  5-MIN KASE 300805Z 14009KT 10SM FEW110 14/08 A3036 7440 66 9100 130/09 RMK AO2 T01440083
93073KASE ASE20160630011010406/30/16 01:10:31  5-MIN KASE 300810Z 14008KT 10SM CLR 14/08 A3036 7440 66 9100 130/08 RMK AO2 T01440083
93073KASE ASE20160630011510406/30/16 01:15:31  5-MIN KASE 300815Z 14007KT 10SM CLR 14/08 A3035 7440 69 9000 130/07 RMK AO2 T01390083
93073KASE ASE20160630012010406/30/16 01:20:31  5-MIN KASE 300820Z 14006KT 10SM CLR 14/08 A3035 7440 66 9100 130/06 RMK AO2 T01440083
93073KASE ASE20160630012510406/30/16 01:25:31  5-MIN KASE 300825Z 15005KT 10SM CLR 14/08 A3035 7440 66 9100 140/05 RMK AO2 T01440083
93073KASE ASE20160630013010406/30/16 01:30:31  5-MIN KASE 300830Z VRB03KT 10SM CLR 14/08 A3035 7440 66 9100 VRB/03 RMK AO2 T01440083
93073KASE ASE20160630013510406/30/16 01:35:31  5-MIN KASE 300835Z 21005KT 10SM CLR 13/08 A3035 7450 71 9000 200/05 RMK AO2 T01330083
93073KASE ASE20160630014010406/30/16 01:40:31  5-MIN KASE 300840Z 21004KT 10SM CLR 13/08 A3035 7450 74 8900 200/04 RMK AO2 T01280083
93073KASE ASE20160630014510406/30/16 01:45:31  5-MIN KASE 300845Z 18003KT 10SM CLR 13/08 A3035 7440 74 8900 170/03 RMK AO2 T01280083
93073KASE ASE20160630015012306/30/16 01:50:31  5-MIN KASE 300850Z 21006KT 10SM CLR 13/08 A3035 7450 71 8900 200/06 RMK AO2 SLP151 60000 T01280078 50011
93073KASE ASE20160630015510406/30/16 01:55:31  5-MIN KASE 300855Z 20006KT 10SM CLR 13/08 A3035 7450 71 8900 190/06 RMK AO2 T01280078
93073KASE ASE20160630020010406/30/16 02:00:31  5-MIN KASE 300900Z 20006KT 10SM CLR 12/08 A3035 7450 74 8900 190/06 RMK AO2 T01220078
93073KASE ASE20160630020510406/30/16 02:05:31  5-MIN KASE 300905Z 18006KT 10SM CLR 13/08 A3035 7450 71 8900 170/06 RMK AO2 T01280078
93073KASE ASE20160630021010406/30/16 02:10:31  5-MIN KASE 300910Z 17005KT 10SM CLR 13/08 A3035 7440 71 8900 160/05 RMK AO2 T01280078
93073KASE ASE20160630021510406/30/16 02:15:31  5-MIN KASE 300915Z 14003KT 10SM CLR 13/08 A3035 7450 71 8900 140/03 RMK AO2 T01280078
93073KASE ASE20160630022010406/30/16 02:20:31  5-MIN KASE 300920Z 20004KT 10SM CLR 13/08 A3035 7450 69 9000 190/04 RMK AO2 T01330078
93073KASE ASE20160630022510406/30/16 02:25:31  5-MIN KASE 300925Z 22006KT 10SM CLR 13/08 A3035 7450 71 8900 210/06 RMK AO2 T01280078
93073KASE ASE20160630023010406/30/16 02:30:31  5-MIN KASE 300930Z 25006KT 10SM CLR 12/08 A3035 7450 77 8900 240/06 RMK AO2 T01220083
93073KASE ASE20160630023510406/30/16 02:35:31  5-MIN KASE 300935Z 25005KT 10SM CLR 12/08 A3035 7450 74 8900 240/05 RMK AO2 T01220078
93073KASE ASE20160630024010406/30/16 02:40:31  5-MIN KASE 300940Z 21004KT 10SM CLR 13/08 A3035 7450 71 8900 200/04 RMK AO2 T01280078
93073KASE ASE20160630024510406/30/16 02:45:31  5-MIN KASE 300945Z 00000KT 10SM CLR 13/08 A3035 7450 71 8900 000/00 RMK AO2 T01280078
93073KASE ASE20160630025011106/30/16 02:50:31  5-MIN KASE 300950Z 21005KT 10SM CLR 12/08 A3035 7450 74 8900 200/05 RMK AO2 SLP142 T01220078
93073KASE ASE20160630025510406/30/16 02:55:31  5-MIN KASE 300955Z 21004KT 10SM CLR 12/08 A3035 7450 74 8900 200/04 RMK AO2 T01220078
93073KASE ASE20160630030010406/30/16 03:00:31  5-MIN KASE 301000Z 00000KT 10SM CLR 12/08 A3035 7450 74 8900 000/00 RMK AO2 T01220078
93073KASE ASE20160630030510406/30/16 03:05:31  5-MIN KASE 301005Z 00000KT 10SM CLR 12/08 A3034 7450 77 8800 000/00 RMK AO2 T01170078
93073KASE ASE20160630031010406/30/16 03:10:31  5-MIN KASE 301010Z 00000KT 10SM CLR 12/08 A3034 7450 77 8800 000/00 RMK AO2 T01170078
93073KASE ASE20160630031510406/30/16 03:15:31  5-MIN KASE 301015Z 00000KT 10SM CLR 12/08 A3035 7450 77 8800 000/00 RMK AO2 T01170078
93073KASE ASE20160630032010406/30/16 03:20:31  5-MIN KASE 301020Z 00000KT 10SM CLR 11/08 A3034 7450 80 8700 000/00 RMK AO2 T01110078
93073KASE ASE20160630032510406/30/16 03:25:31  5-MIN KASE 301025Z 21004KT 10SM CLR 10/07 A3035 7450 83 8600 200/04 RMK AO2 T01000072
93073KASE ASE20160630033010406/30/16 03:30:31  5-MIN KASE 301030Z 22003KT 10SM CLR 10/07 A3035 7450 83 8600 210/03 RMK AO2 T01000072
93073KASE ASE20160630033510406/30/16 03:35:31  5-MIN KASE 301035Z 00000KT 10SM CLR 10/07 A3034 7450 83 8600 000/00 RMK AO2 T01000072
93073KASE ASE20160630034010406/30/16 03:40:31  5-MIN KASE 301040Z 00000KT 10SM CLR 09/07 A3035 7450 86 8600 000/00 RMK AO2 T00940072
93073KASE ASE20160630034510406/30/16 03:45:31  5-MIN KASE 301045Z 00000KT 10SM CLR 09/07 A3035 7450 86 8500 000/00 RMK AO2 T00890067
93073KASE ASE20160630035011106/30/16 03:50:31  5-MIN KASE 301050Z 00000KT 10SM CLR 09/07 A3035 7450 83 8500 000/00 RMK AO2 SLP160 T00940067
93073KASE ASE20160630035510406/30/16 03:55:31  5-MIN KASE 301055Z 00000KT 10SM CLR 09/07 A3035 7440 86 8500 000/00 RMK AO2 T00890067
93073KASE ASE20160630040010406/30/16 04:00:31  5-MIN KASE 301100Z 00000KT 10SM CLR 09/07 A3035 7440 86 8500 000/00 RMK AO2 T00890067
93073KASE ASE20160630040510406/30/16 04:05:31  5-MIN KASE 301105Z 00000KT 10SM CLR 09/07 A3036 7440 86 8500 000/00 RMK AO2 T00890067
93073KASE ASE20160630041010406/30/16 04:10:31  5-MIN KASE 301110Z 00000KT 10SM CLR 09/07 A3036 7440 86 8500 000/00 RMK AO2 T00890067
93073KASE ASE20160630041510406/30/16 04:15:31  5-MIN KASE 301115Z 19005KT 10SM CLR 09/07 A3036 7440 83 8500 180/05 RMK AO2 T00940067
93073KASE ASE20160630042010706/30/16 04:20:31  5-MIN KASE 301120Z 20004KT 10SM FEW095 09/07 A3036 7440 83 8500 190/04 RMK AO2 T00940067
93073KASE ASE20160630042510706/30/16 04:25:31  5-MIN KASE 301125Z 21004KT 10SM SCT095 10/07 A3036 7430 80 8600 200/04 RMK AO2 T01000067
93073KASE ASE20160630043010706/30/16 04:30:31  5-MIN KASE 301130Z 20004KT 10SM BKN095 09/07 A3037 7430 83 8500 190/04 RMK AO2 T00940067
93073KASE ASE20160630043510706/30/16 04:35:31  5-MIN KASE 301135Z 19004KT 10SM BKN095 10/07 A3037 7430 80 8600 180/04 RMK AO2 T01000067
93073KASE ASE20160630044010706/30/16 04:40:31  5-MIN KASE 301140Z 19004KT 10SM BKN095 10/07 A3036 7430 80 8600 180/04 RMK AO2 T01000067
93073KASE ASE20160630044510706/30/16 04:45:31  5-MIN KASE 301145Z 19005KT 10SM OVC095 10/07 A3037 7430 80 8600 180/05 RMK AO2 T01000067
93073KASE ASE20160630045013806/30/16 04:50:31  5-MIN KASE 301150Z 20005KT 10SM OVC095 10/07 A3036 7430 80 8600 190/05 RMK AO2 SLP166 60000 T01000067 10150 20089 56029
93073KASE ASE20160630045510706/30/16 04:55:31  5-MIN KASE 301155Z 21004KT 10SM BKN095 11/07 A3036 7440 77 8700 200/04 RMK AO2 T01060067
93073KASE ASE20160630050010706/30/16 05:00:31  5-MIN KASE 301200Z 20004KT 10SM BKN095 10/07 A3036 7440 80 8600 190/04 RMK AO2 T01000067
93073KASE ASE20160630050510706/30/16 05:05:31  5-MIN KASE 301205Z 19004KT 10SM BKN100 10/07 A3036 7430 80 8600 180/04 RMK AO2 T01000067
93073KASE ASE20160630051010706/30/16 05:10:31  5-MIN KASE 301210Z 18005KT 10SM BKN100 10/07 A3037 7430 80 8600 170/05 RMK AO2 T01000067
93073KASE ASE20160630051510706/30/16 05:15:31  5-MIN KASE 301215Z 19007KT 10SM BKN100 10/07 A3036 7430 80 8600 180/07 RMK AO2 T01000067
93073KASE ASE20160630052010706/30/16 05:20:31  5-MIN KASE 301220Z 19003KT 10SM BKN100 10/07 A3037 7430 80 8600 180/03 RMK AO2 T01000067
93073KASE ASE20160630052510706/30/16 05:25:31  5-MIN KASE 301225Z 20003KT 10SM BKN100 10/07 A3037 7430 80 8600 190/03 RMK AO2 T01000067
93073KASE ASE20160630053010706/30/16 05:30:31  5-MIN KASE 301230Z 20004KT 10SM BKN100 10/07 A3037 7430 83 8600 190/04 RMK AO2 T01000072
93073KASE ASE20160630053510706/30/16 05:35:31  5-MIN KASE 301235Z 00000KT 10SM OVC100 11/07 A3037 7430 80 8600 000/00 RMK AO2 T01060072
93073KASE ASE20160630054010706/30/16 05:40:31  5-MIN KASE 301240Z 00000KT 10SM OVC100 11/07 A3037 7420 80 8600 000/00 RMK AO2 T01060072
93073KASE ASE20160630054510706/30/16 05:45:31  5-MIN KASE 301245Z VRB03KT 10SM BKN100 11/07 A3037 7430 80 8600 VRB/03 RMK AO2 T01060072
93073KASE ASE20160630055011406/30/16 05:50:31  5-MIN KASE 301250Z 22004KT 10SM BKN100 11/07 A3037 7430 80 8600 210/04 RMK AO2 SLP173 T01060072
93073KASE ASE20160630055510706/30/16 05:55:31  5-MIN KASE 301255Z 21005KT 10SM OVC100 11/07 A3038 7420 80 8600 200/05 RMK AO2 T01060072
93073KASE ASE20160630060010706/30/16 06:00:31  5-MIN KASE 301300Z 21005KT 10SM OVC100 11/07 A3037 7420 77 8700 210/05 RMK AO2 T01110072
93073KASE ASE20160630060510706/30/16 06:05:31  5-MIN KASE 301305Z 21004KT 10SM BKN100 11/07 A3037 7420 77 8700 200/04 RMK AO2 T01110072
93073KASE ASE20160630061010706/30/16 06:10:31  5-MIN KASE 301310Z 19004KT 10SM BKN100 12/07 A3037 7420 74 8800 180/04 RMK AO2 T01170072
93073KASE ASE20160630061510706/30/16 06:15:31  5-MIN KASE 301315Z 20004KT 10SM BKN100 12/07 A3038 7420 74 8800 190/04 RMK AO2 T01170072
93073KASE ASE20160630062010706/30/16 06:20:31  5-MIN KASE 301320Z 20003KT 10SM BKN100 12/07 A3038 7420 74 8800 190/03 RMK AO2 T01170072
93073KASE ASE20160630062510706/30/16 06:25:31  5-MIN KASE 301325Z 17003KT 10SM BKN100 12/07 A3038 7420 71 8800 160/03 RMK AO2 T01220072
93073KASE ASE20160630063010706/30/16 06:30:31  5-MIN KASE 301330Z 16003KT 10SM BKN100 12/07 A3038 7420 71 8800 150/03 RMK AO2 T01220072
93073KASE ASE20160630063510706/30/16 06:35:31  5-MIN KASE 301335Z 10003KT 10SM BKN100 12/07 A3038 7420 71 8800 100/03 RMK AO2 T01220072
93073KASE ASE20160630064010706/30/16 06:40:31  5-MIN KASE 301340Z 00000KT 10SM BKN100 12/07 A3038 7420 71 8800 000/00 RMK AO2 T01220072
93073KASE ASE20160630064510706/30/16 06:45:31  5-MIN KASE 301345Z 00000KT 10SM BKN100 12/07 A3038 7420 71 8800 000/00 RMK AO2 T01220072
93073KASE ASE20160630065011406/30/16 06:50:31  5-MIN KASE 301350Z 00000KT 10SM BKN100 12/07 A3038 7420 71 8800 000/00 RMK AO2 SLP178 T01220072
93073KASE ASE20160630065511406/30/16 06:55:31  5-MIN KASE 301355Z 00000KT 10SM SCT085 OVC100 13/07 A3038 7420 69 8900 000/00 RMK AO2 T01280072
93073KASE ASE20160630070011406/30/16 07:00:31  5-MIN KASE 301400Z 00000KT 10SM SCT085 OVC110 13/07 A3038 7420 69 8900 000/00 RMK AO2 T01280072
93073KASE ASE20160630070511406/30/16 07:05:31  5-MIN KASE 301405Z 00000KT 10SM FEW085 OVC110 13/07 A3038 7420 66 8900 000/00 RMK AO2 T01330072
93073KASE ASE20160630071010706/30/16 07:10:31  5-MIN KASE 301410Z 00000KT 10SM OVC110 13/07 A3038 7420 66 9000 000/00 RMK AO2 T01330072
93073KASE ASE20160630071511406/30/16 07:15:31  5-MIN KASE 301415Z 00000KT 10SM FEW085 OVC110 13/08 A3038 7420 69 8900 000/00 RMK AO2 T01330078
93073KASE ASE20160630072011406/30/16 07:20:31  5-MIN KASE 301420Z 00000KT 10SM BKN085 OVC110 14/07 A3038 7420 64 9000 000/00 RMK AO2 T01390072
93073KASE ASE20160630072511406/30/16 07:25:31  5-MIN KASE 301425Z 00000KT 10SM BKN085 OVC110 14/07 A3038 7420 64 9000 000/00 RMK AO2 T01390072
93073KASE ASE20160630073011406/30/16 07:30:31  5-MIN KASE 301430Z 00000KT 10SM BKN080 OVC110 14/07 A3038 7420 64 9000 000/00 RMK AO2 T01390072
93073KASE ASE20160630073510706/30/16 07:35:31  5-MIN KASE 301435Z 00000KT 10SM OVC085 14/07 A3038 7410 64 9000 000/00 RMK AO2 T01390072
93073KASE ASE20160630074010706/30/16 07:40:31  5-MIN KASE 301440Z 00000KT 10SM BKN080 14/07 A3039 7410 64 9000 000/00 RMK AO2 T01390072
93073KASE ASE20160630074510706/30/16 07:45:31  5-MIN KASE 301445Z 00000KT 10SM BKN085 14/08 A3039 7410 66 9000 000/00 RMK AO2 T01390078
93073KASE ASE20160630075012006/30/16 07:50:31  5-MIN KASE 301450Z 00000KT 10SM SCT085 14/08 A3039 7410 66 9000 000/00 RMK AO2 SLP183 T01390078 53004
93073KASE ASE20160630075511406/30/16 07:55:31  5-MIN KASE 301455Z 00000KT 10SM SCT085 BKN120 14/08 A3039 7410 64 9100 000/00 RMK AO2 T01440078
93073KASE ASE20160630080010706/30/16 08:00:31  5-MIN KASE 301500Z 00000KT 10SM OVC075 14/08 A3039 7410 64 9100 000/00 RMK AO2 T01440078
93073KASE ASE20160630080510706/30/16 08:05:31  5-MIN KASE 301505Z 00000KT 10SM OVC075 15/08 A3039 7410 62 9100 000/00 RMK AO2 T01500078
93073KASE ASE20160630081010706/30/16 08:10:31  5-MIN KASE 301510Z 00000KT 10SM OVC075 15/07 A3039 7410 59 9100 000/00 RMK AO2 T01500072
93073KASE ASE20160630081510706/30/16 08:15:31  5-MIN KASE 301515Z 00000KT 10SM OVC075 15/07 A3039 7410 59 9100 000/00 RMK AO2 T01500072
93073KASE ASE20160630082010706/30/16 08:20:31  5-MIN KASE 301520Z 00000KT 10SM OVC075 15/07 A3039 7410 59 9100 000/00 RMK AO2 T01500072
93073KASE ASE20160630082510706/30/16 08:25:31  5-MIN KASE 301525Z 00000KT 10SM OVC075 16/07 A3039 7410 57 9200 000/00 RMK AO2 T01560072
93073KASE ASE20160630083010706/30/16 08:30:31  5-MIN KASE 301530Z 00000KT 10SM OVC075 16/07 A3039 7410 57 9200 000/00 RMK AO2 T01560072
93073KASE ASE20160630083510706/30/16 08:35:31  5-MIN KASE 301535Z 00000KT 10SM OVC075 16/07 A3039 7410 57 9200 000/00 RMK AO2 T01560072
93073KASE ASE20160630084010706/30/16 08:40:31  5-MIN KASE 301540Z 00000KT 10SM BKN085 16/07 A3039 7410 55 9200 000/00 RMK AO2 T01610072
93073KASE ASE20160630084510706/30/16 08:45:31  5-MIN KASE 301545Z 12003KT 10SM OVC085 16/07 A3039 7410 53 9200 110/03 RMK AO2 T01610067
93073KASE ASE20160630085011406/30/16 08:50:31  5-MIN KASE 301550Z 00000KT 10SM OVC085 16/07 A3039 7410 55 9200 000/00 RMK AO2 SLP179 T01560067
93073KASE ASE20160630085510706/30/16 08:55:31  5-MIN KASE 301555Z 00000KT 10SM BKN080 16/07 A3039 7410 55 9200 000/00 RMK AO2 T01560067
93073KASE ASE20160630090010706/30/16 09:00:31  5-MIN KASE 301600Z 00000KT 10SM OVC080 16/07 A3039 7410 53 9200 000/00 RMK AO2 T01610067
93073KASE ASE20160630090510706/30/16 09:05:31  5-MIN KASE 301605Z 00000KT 10SM OVC080 16/07 A3039 7410 55 9200 000/00 RMK AO2 T01610072
93073KASE ASE20160630091010706/30/16 09:10:31  5-MIN KASE 301610Z 00000KT 10SM OVC080 16/07 A3039 7410 53 9200 000/00 RMK AO2 T01610067
93073KASE ASE20160630091510706/30/16 09:15:31  5-MIN KASE 301615Z 00000KT 10SM OVC075 16/07 A3039 7410 55 9300 000/00 RMK AO2 T01610072
93073KASE ASE20160630092010706/30/16 09:20:31  5-MIN KASE 301620Z 00000KT 10SM OVC075 16/07 A3039 7410 55 9200 000/00 RMK AO2 T01610072
93073KASE ASE20160630092510706/30/16 09:25:31  5-MIN KASE 301625Z 01004KT 10SM OVC075 16/07 A3039 7410 55 9200 360/04 RMK AO2 T01610072
93073KASE ASE20160630093010706/30/16 09:30:31  5-MIN KASE 301630Z 35003KT 10SM OVC075 16/08 A3040 7400 57 9200 340/03 RMK AO2 T01610078
93073KASE ASE20160630093510706/30/16 09:35:31  5-MIN KASE 301635Z 35004KT 10SM OVC075 16/08 A3040 7400 57 9200 340/04 RMK AO2 T01610078
93073KASE ASE20160630094010706/30/16 09:40:31  5-MIN KASE 301640Z 36004KT 10SM OVC070 16/08 A3040 7400 59 9200 350/04 RMK AO2 T01610083
93073KASE ASE20160630094512306/30/16 09:45:31  5-MIN KASE 301645Z 35005KT 10SM -RA OVC070 16/09 A3040 7400 64 9200 350/05 RMK AO2 RAB43 P0000 T01610094
93073KASE ASE20160630095013006/30/16 09:50:31  5-MIN KASE 301650Z 34005KT 10SM -RA OVC070 16/09 A3040 7400 64 9200 330/05 RMK AO2 RAB43 SLP182 P0000 T01610094
93073KASE ASE20160630095511706/30/16 09:55:31  5-MIN KASE 301655Z 36007KT 10SM -RA OVC070 16/09 A3040 7400 64 9200 350/07 RMK AO2 P0000 T01610094
93073KASE ASE20160630100011706/30/16 10:00:31  5-MIN KASE 301700Z 35004KT 10SM -RA OVC070 16/09 A3040 7400 62 9200 340/04 RMK AO2 P0000 T01610089
93073KASE ASE20160630100511706/30/16 10:05:31  5-MIN KASE 301705Z 34006KT 10SM -RA OVC070 16/09 A3040 7400 64 9200 330/06 RMK AO2 P0000 T01610094
93073KASE ASE20160630101011906/30/16 10:10:31  5-MIN KASE 301710Z 35005KT 10SM OVC065 16/09 A3041 7390 64 9200 340/05 RMK AO2 RAE09 P0000 T01610094
93073KASE ASE20160630101511906/30/16 10:15:31  5-MIN KASE 301715Z 34005KT 10SM OVC070 16/09 A3041 7390 64 9200 340/05 RMK AO2 RAE09 P0000 T01610094
93073KASE ASE20160630102012606/30/16 10:20:31  5-MIN KASE 301720Z 33004KT 10SM SCT060 OVC070 16/09 A3041 7400 64 9200 320/04 RMK AO2 RAE09 P0000 T01610094
93073KASE ASE20160630102512606/30/16 10:25:31  5-MIN KASE 301725Z 36005KT 10SM -RA OVC070 17/09 A3040 7400 60 9400 350/05 RMK AO2 RAE09B25 P0000 T01720094
93073KASE ASE20160630103012606/30/16 10:30:31  5-MIN KASE 301730Z 02004KT 10SM -RA OVC070 17/09 A3041 7400 62 9300 010/04 RMK AO2 RAE09B25 P0000 T01670094
93073KASE ASE20160630103513306/30/16 10:35:31  5-MIN KASE 301735Z 04004KT 10SM -RA SCT060 OVC075 17/09 A3040 7400 60 9400 030/04 RMK AO2 RAE09B25 P0000 T01720094
93073KASE ASE20160630104013906/30/16 10:40:31  5-MIN KASE 301740Z 03004KT 10SM FEW043 SCT060 OVC075 18/09 A3040 7400 58 9400 020/04 RMK AO2 RAE09B25E39 P0000 T01780094
93073KASE ASE20160630104513906/30/16 10:45:31  5-MIN KASE 301745Z 03003KT 10SM FEW043 FEW060 BKN075 18/09 A3040 7400 55 9400 020/03 RMK AO2 RAE09B25E39 P0000 T01780089
93073KASE ASE20160630105017006/30/16 10:50:31  5-MIN KASE 301750Z 00000KT 10SM FEW037 SCT060 BKN075 18/08 A3040 7400 53 9400 000/00 RMK AO2 RAE09B25E39 SLP178 P0000 60000 T01780083 10183 20100 51007
93073KASE ASE20160630105512106/30/16 10:55:31  5-MIN KASE 301755Z 00000KT 10SM FEW035 SCT046 BKN075 18/08 A3040 7400 52 9500 000/00 RMK AO2 T01830083
93073KASE ASE20160630110012106/30/16 11:00:31  5-MIN KASE 301800Z 36003KT 10SM FEW031 SCT060 BKN075 18/08 A3039 7410 52 9500 350/03 RMK AO2 T01830083
93073KASE ASE20160630110512106/30/16 11:05:31  5-MIN KASE 301805Z 00000KT 10SM FEW031 FEW042 BKN070 19/08 A3039 7410 50 9500 000/00 RMK AO2 T01890083
93073KASE ASE20160630111011406/30/16 11:10:31  5-MIN KASE 301810Z 00000KT 10SM FEW044 BKN070 18/08 A3039 7410 53 9400 000/00 RMK AO2 T01780083
93073KASE ASE20160630111511406/30/16 11:15:31  5-MIN KASE 301815Z VRB03KT 10SM FEW044 OVC070 19/08 A3039 7410 48 9600 VRB/03 RMK AO2 T01890078
93073KASE ASE20160630112010706/30/16 11:20:31  5-MIN KASE 301820Z 00000KT 10SM OVC070 19/08 A3039 7410 48 9600 000/00 RMK AO2 T01940083
93073KASE ASE20160630112510706/30/16 11:25:31  5-MIN KASE 301825Z 27003KT 10SM OVC070 19/08 A3038 7420 50 9600 260/03 RMK AO2 T01890083
93073KASE ASE20160630113010706/30/16 11:30:31  5-MIN KASE 301830Z VRB03KT 10SM OVC070 19/08 A3038 7420 46 9600 VRB/03 RMK AO2 T01940078
93073KASE ASE20160630113510706/30/16 11:35:31  5-MIN KASE 301835Z 00000KT 10SM OVC070 19/08 A3038 7420 46 9600 000/00 RMK AO2 T01940078
93073KASE ASE20160630114010706/30/16 11:40:31  5-MIN KASE 301840Z 10004KT 10SM OVC070 20/08 A3037 7420 45 9700 090/04 RMK AO2 T02000078
93073KASE ASE20160630114510706/30/16 11:45:31  5-MIN KASE 301845Z VRB03KT 10SM OVC075 21/08 A3037 7430 43 9800 VRB/03 RMK AO2 T02060078
93073KASE ASE20160630115012106/30/16 11:50:31  5-MIN KASE 301850Z 12005KT 10SM BKN075 OVC090 21/08 A3037 7430 43 9800 120/05 RMK AO2 SLP159 T02060078
93073KASE ASE20160630115511406/30/16 11:55:31  5-MIN KASE 301855Z VRB04KT 10SM BKN075 BKN090 21/08 A3036 7430 43 9800 VRB/04 RMK AO2 T02060078
93073KASE ASE20160630120011406/30/16 12:00:31  5-MIN KASE 301900Z 11006KT 10SM SCT080 BKN090 21/08 A3036 7440 42 9800 100/06 RMK AO2 T02110078
93073KASE ASE20160630120510706/30/16 12:05:31  5-MIN KASE 301905Z VRB03KT 10SM SCT085 21/08 A3036 7440 43 9800 VRB/03 RMK AO2 T02060078
93073KASE ASE20160630121010706/30/16 12:10:31  5-MIN KASE 301910Z 14004KT 10SM SCT090 21/08 A3036 7440 42 9800 130/04 RMK AO2 T02110078
93073KASE ASE20160630121511406/30/16 12:15:31  5-MIN KASE 301915Z 16004KT 10SM FEW044 BKN090 21/07 A3035 7440 41 9800 150/04 RMK AO2 T02060072
93073KASE ASE20160630122011406/30/16 12:20:31  5-MIN KASE 301920Z 24007KT 10SM FEW044 SCT090 20/08 A3035 7450 46 9700 230/07 RMK AO2 T02000083
93073KASE ASE20160630122511406/30/16 12:25:31  5-MIN KASE 301925Z 24009KT 10SM FEW045 SCT090 20/08 A3035 7450 45 9700 230/09 RMK AO2 T02000078
93073KASE ASE20160630123011406/30/16 12:30:31  5-MIN KASE 301930Z 24007KT 10SM FEW045 SCT100 21/08 A3035 7450 43 9800 230/07 RMK AO2 T02060078
93073KASE ASE20160630123511406/30/16 12:35:31  5-MIN KASE 301935Z 24008KT 10SM FEW045 BKN100 20/07 A3035 7450 43 9700 240/08 RMK AO2 T02000072
93073KASE ASE20160630124011406/30/16 12:40:31  5-MIN KASE 301940Z 24007KT 10SM FEW045 BKN095 21/08 A3034 7450 42 9800 230/07 RMK AO2 T02110078
93073KASE ASE20160630124511406/30/16 12:45:31  5-MIN KASE 301945Z 22004KT 10SM BKN090 BKN100 21/07 A3034 7460 40 9900 210/04 RMK AO2 T02110072
93073KASE ASE20160630125012106/30/16 12:50:31  5-MIN KASE 301950Z 20006KT 10SM SCT090 BKN100 21/07 A3034 7460 40 9900 190/06 RMK AO2 SLP148 T02110072
93073KASE ASE20160630125511406/30/16 12:55:31  5-MIN KASE 301955Z VRB03KT 10SM SCT090 SCT100 22/08 A3033 7460 40 9900 VRB/03 RMK AO2 T02170078
93073KASE ASE20160630130010806/30/16 13:00:31  5-MIN KASE 302000Z 33007KT 10SM SCT090 23/07 A3033 7460 36 10000 320/07 RMK AO2 T02280072
93073KASE ASE20160630130510806/30/16 13:05:31  5-MIN KASE 302005Z 34007KT 10SM SCT090 23/07 A3033 7470 36 10000 330/07 RMK AO2 T02280072
93073KASE ASE20160630131010806/30/16 13:10:31  5-MIN KASE 302010Z 00000KT 10SM SCT090 22/07 A3033 7470 36 10000 000/00 RMK AO2 T02220067
93073KASE ASE20160630131509806/30/16 13:15:31  5-MIN KASE 302015Z 10SM SCT095 23/07 A3032 7470 33 10100 M /M RMK AO2 T02330067
93073KASE ASE20160630132010806/30/16 13:20:31  5-MIN KASE 302020Z 33003KT 10SM BKN095 23/06 A3032 7470 33 10000 320/03 RMK AO2 T02280061
93073KASE ASE20160630132510806/30/16 13:25:31  5-MIN KASE 302025Z VRB03KT 10SM BKN095 22/06 A3032 7470 35 10000 VRB/03 RMK AO2 T02220061
93073KASE ASE20160630133010806/30/16 13:30:31  5-MIN KASE 302030Z 35004KT 10SM BKN095 23/06 A3032 7470 31 10100 340/04 RMK AO2 T02330056
93073KASE ASE20160630133510806/30/16 13:35:31  5-MIN KASE 302035Z 00000KT 10SM SCT095 24/06 A3032 7470 30 10200 000/00 RMK AO2 T02390056
93073KASE ASE20160630134010806/30/16 13:40:31  5-MIN KASE 302040Z 00000KT 10SM BKN095 23/05 A3031 7480 30 10100 000/00 RMK AO2 T02330050
93073KASE ASE20160630134510806/30/16 13:45:31  5-MIN KASE 302045Z 35006KT 10SM SCT095 24/06 A3031 7480 30 10200 340/06 RMK AO2 T02390056
93073KASE ASE20160630135012106/30/16 13:50:31  5-MIN KASE 302050Z VRB04KT 10SM FEW095 24/06 A3031 7480 30 10200 VRB/04 RMK AO2 SLP135 T02390056 50003
93073KASE ASE20160630135510806/30/16 13:55:31  5-MIN KASE 302055Z VRB04KT 10SM FEW095 24/06 A3031 7480 31 10200 VRB/04 RMK AO2 T02390061
93073KASE ASE20160630140010806/30/16 14:00:31  5-MIN KASE 302100Z VRB05KT 10SM FEW090 23/06 A3031 7490 31 10100 VRB/05 RMK AO2 T02330056
93073KASE ASE20160630140512406/30/16 14:05:31  5-MIN KASE 302105Z 24007KT 200V260 10SM FEW090 23/06 A3030 7490 31 10100 240/07 190V250 RMK AO2 T02330056
93073KASE ASE20160630141010506/30/16 14:10:31  5-MIN KASE 302110Z 26006KT 10SM CLR 23/06 A3031 7490 32 10100 260/06 RMK AO2 T02280056
93073KASE ASE20160630141510506/30/16 14:15:31  5-MIN KASE 302115Z VRB05KT 10SM CLR 23/06 A3030 7490 32 10100 VRB/05 RMK AO2 T02330061
93073KASE ASE20160630142010506/30/16 14:20:31  5-MIN KASE 302120Z 23007KT 10SM CLR 23/06 A3030 7490 31 10100 220/07 RMK AO2 T02330056
93073KASE ASE20160630142510506/30/16 14:25:31  5-MIN KASE 302125Z VRB05KT 10SM CLR 23/06 A3030 7490 31 10100 VRB/05 RMK AO2 T02330056
93073KASE ASE20160630143010506/30/16 14:30:31  5-MIN KASE 302130Z 00000KT 10SM CLR 23/06 A3030 7490 32 10100 000/00 RMK AO2 T02280056
93073KASE ASE20160630143510506/30/16 14:35:31  5-MIN KASE 302135Z 00000KT 10SM CLR 23/06 A3030 7490 31 10100 000/00 RMK AO2 T02330056
93073KASE ASE20160630144010806/30/16 14:40:31  5-MIN KASE 302140Z VRB03KT 10SM FEW065 24/06 A3030 7490 30 10300 VRB/03 RMK AO2 T02440061
93073KASE ASE20160630144510806/30/16 14:45:31  5-MIN KASE 302145Z VRB04KT 10SM SCT065 25/06 A3029 7500 29 10300 VRB/04 RMK AO2 T02500061
93073KASE ASE20160630145012206/30/16 14:50:31  5-MIN KASE 302150Z VRB04KT 10SM BKN065 BKN090 26/06 A3029 7500 28 10400 VRB/04 RMK AO2 SLP126 T02560061
93073KASE ASE20160630145511506/30/16 14:55:31  5-MIN KASE 302155Z 34009KT 10SM SCT065 BKN090 24/06 A3029 7500 30 10300 340/09 RMK AO2 T02440061
93073KASE ASE20160630150011506/30/16 15:00:31  5-MIN KASE 302200Z 32007KT 10SM SCT065 SCT090 23/05 A3029 7500 30 10100 310/07 RMK AO2 T02330050
93073KASE ASE20160630150510806/30/16 15:05:31  5-MIN KASE 302205Z 33003KT 10SM SCT065 24/05 A3029 7500 29 10200 330/03 RMK AO2 T02390050
93073KASE ASE20160630151009806/30/16 15:10:31  5-MIN KASE 302210Z 10SM FEW065 25/06 A3029 7500 28 10300 M /M RMK AO2 T02500056
93073KASE ASE20160630151510706/30/16 15:15:31  5-MIN KASE 302215Z VRB05KT 9SM FEW065 25/06 A3029 7500 28 10300 VRB/05 RMK AO2 T02500056
93073KASE ASE20160630152009406/30/16 15:20:31  5-MIN KASE 302220Z 9SM CLR 24/06 A3028 7510 29 10300 M /M RMK AO2 T02440056
93073KASE ASE20160630152510506/30/16 15:25:31  5-MIN KASE 302225Z VRB04KT 10SM CLR 24/06 A3028 7510 29 10300 VRB/04 RMK AO2 T02440056
93073KASE ASE20160630153010506/30/16 15:30:31  5-MIN KASE 302230Z 00000KT 10SM CLR 24/06 A3028 7510 29 10300 000/00 RMK AO2 T02440056
93073KASE ASE20160630153510806/30/16 15:35:31  5-MIN KASE 302235Z 01007KT 10SM FEW100 26/06 A3028 7510 28 10400 360/07 RMK AO2 T02560061
93073KASE ASE20160630154010806/30/16 15:40:31  5-MIN KASE 302240Z 36007KT 10SM FEW100 25/06 A3028 7510 29 10300 350/07 RMK AO2 T02500061
93073KASE ASE20160630154510806/30/16 15:45:31  5-MIN KASE 302245Z VRB05KT 10SM SCT100 25/06 A3027 7520 29 10300 VRB/05 RMK AO2 T02500061
93073KASE ASE20160630155011506/30/16 15:50:31  5-MIN KASE 302250Z 35009KT 10SM SCT095 26/07 A3027 7520 29 10400 340/09 RMK AO2 SLP125 T02560067
93073KASE ASE20160630155510806/30/16 15:55:31  5-MIN KASE 302255Z 34008KT 10SM FEW095 25/06 A3027 7520 29 10300 330/08 RMK AO2 T02500061
93073KASE ASE20160630160012406/30/16 16:00:31  5-MIN KASE 302300Z 31007KT 290V360 10SM FEW100 25/06 A3027 7520 29 10400 310/07 280V350 RMK AO2 T02500061
93073KASE ASE20160630160510806/30/16 16:05:31  5-MIN KASE 302305Z VRB04KT 10SM FEW095 24/06 A3026 7530 30 10300 VRB/04 RMK AO2 T02440061
93073KASE ASE20160630161010806/30/16 16:10:31  5-MIN KASE 302310Z VRB03KT 10SM FEW095 25/07 A3026 7530 30 10400 VRB/03 RMK AO2 T02500067
93073KASE ASE20160630161510506/30/16 16:15:31  5-MIN KASE 302315Z VRB05KT 10SM CLR 25/07 A3026 7530 30 10400 VRB/05 RMK AO2 T02500067
93073KASE ASE20160630162011706/30/16 16:20:31  5-MIN KASE 302320Z 34006KT 10SM CLR 25/07 A3026 7530 30 10400 330/06 RMK AO2 LTG DSNT SW T02500067
93073KASE ASE20160630162512306/30/16 16:25:31  5-MIN KASE 302325Z 35005KT 10SM CLR 24/07 A3026 7530 32 10200 340/05 RMK AO2 LTG DSNT SW AND W T02390067
93073KASE ASE20160630163013906/30/16 16:30:31  5-MIN KASE 302330Z 33007KT 290V360 10SM CLR 24/07 A3026 7530 32 10200 320/07 280V350 RMK AO2 LTG DSNT SW AND W T02390067
93073KASE ASE20160630163511606/30/16 16:35:31  5-MIN KASE 302335Z 30007KT 10SM CLR 23/07 A3026 7530 35 10200 290/07 RMK AO2 LTG DSNT W T02330072
93073KASE ASE20160630164011606/30/16 16:40:31  5-MIN KASE 302340Z 31006KT 10SM CLR 23/07 A3026 7530 36 10100 300/06 RMK AO2 LTG DSNT W T02280072
93073KASE ASE20160630164512206/30/16 16:45:31  5-MIN KASE 302345Z 30007KT 10SM CLR 23/07 A3025 7530 36 10100 290/07 RMK AO2 LTG DSNT S AND W T02280072
93073KASE ASE20160630165014806/30/16 16:50:31  5-MIN KASE 302350Z VRB06KT 10SM CLR 23/07 A3025 7540 36 10100 VRB/06 RMK AO2 LTG DSNT S AND NW SLP123 T02280072 10256 20178 56025
93073KASE ASE20160630165512606/30/16 16:55:31  5-MIN KASE 302355Z 31007KT 10SM FEW110 23/07 A3025 7530 36 10100 300/07 RMK AO2 LTG DSNT S AND NW T02280072
93073KASE ASE20160630170012606/30/16 17:00:31  5-MIN KASE 010000Z 33008KT 10SM FEW110 23/07 A3025 7540 36 10100 320/08 RMK AO2 LTG DSNT S AND NW T02280072
93073KASE ASE20160630170512606/30/16 17:05:31  5-MIN KASE 010005Z 33007KT 10SM FEW110 23/07 A3025 7540 36 10100 320/07 RMK AO2 LTG DSNT S AND NW T02280072
93073KASE ASE20160630171012606/30/16 17:10:31  5-MIN KASE 010010Z 31007KT 10SM FEW110 23/07 A3025 7540 36 10100 310/07 RMK AO2 LTG DSNT S AND NW T02280072
93073KASE ASE20160630171512606/30/16 17:15:31  5-MIN KASE 010015Z 31006KT 10SM FEW110 23/07 A3025 7540 36 10100 300/06 RMK AO2 LTG DSNT S AND NW T02280072
93073KASE ASE20160630172012606/30/16 17:20:31  5-MIN KASE 010020Z 28004KT 10SM SCT110 22/08 A3025 7540 39 10100 270/04 RMK AO2 LTG DSNT SE AND W T02220078
93073KASE ASE20160630172513306/30/16 17:25:31  5-MIN KASE 010025Z 32004KT 10SM BKN110 22/08 A3025 7530 39 10100 310/04 RMK AO2 LTG DSNT SE AND W AND NW T02220078
93073KASE ASE20160630173014006/30/16 17:30:31  5-MIN KASE 010030Z 26005KT 10SM FEW075 BKN110 22/08 A3025 7530 39 10100 250/05 RMK AO2 LTG DSNT SE AND W AND NW T02220078
93073KASE ASE20160630173513706/30/16 17:35:31  5-MIN KASE 010035Z 28005KT 10SM FEW075 SCT085 BKN110 22/08 A3025 7530 39 10100 270/05 RMK AO2 LTG DSNT ALQDS T02220078
93073KASE ASE20160630174014006/30/16 17:40:31  5-MIN KASE 010040Z 26005KT 10SM FEW080 BKN110 22/08 A3025 7530 42 10000 250/05 RMK AO2 LTG DSNT E AND SE AND NW T02170083
93073KASE ASE20160630174514706/30/16 17:45:31  5-MIN KASE 010045Z 27004KT 10SM FEW075 FEW085 OVC110 22/08 A3025 7530 42 10000 260/04 RMK AO2 LTG DSNT E AND SE AND NW T02170083
93073KASE ASE20160630175014106/30/16 17:50:31  5-MIN KASE 010050Z 26005KT 10SM SCT080 OVC110 22/08 A3026 7530 42 10000 250/05 RMK AO2 LTG DSNT SE AND NW SLP127 T02170083
93073KASE ASE20160630175516306/30/16 17:55:31  5-MIN KASE 010055Z VRB03KT 10SM -RA BKN080 BKN100 OVC120 22/08 A3026 7530 42 10000 VRB/03 RMK AO2 LTG DSNT E AND SE AND NW RAB55 P0000 T02170083
93073KASE ASE20160630180015806/30/16 18:00:31  5-MIN KASE 010100Z 34008KT 10SM -RA FEW060 BKN080 OVC120 22/08 A3026 7530 42 10000 330/08 RMK AO2 LTG DSNT E AND NW RAB0055 P0000 T02170083
93073KASE ASE20160630180515606/30/16 18:05:31  5-MIN KASE 010105Z 35013G17KT 10SM -RA FEW047 BKN080 OVC110 21/08 A3026 7530 43 9900 340/13G17 RMK AO2 LTG DSNT E RAB0055 P0000 T02110083
93073KASE ASE20160630181014506/30/16 18:10:31  5-MIN KASE 010110Z 34011G19KT 10SM -RA FEW047 SCT060 BKN110 21/08 A3026 7530 43 9900 330/11G19 RMK AO2 RAB0055 P0000 T02060078
93073KASE ASE20160630181514406/30/16 18:15:31  5-MIN KASE 010115Z 33011G19KT 10SM FEW047 SCT080 BKN120 20/08 A3027 7520 46 9800 320/11G19 RMK AO2 RAB0055E11 P0000 T02000083
93073KASE ASE20160630182014906/30/16 18:20:31  5-MIN KASE 010120Z 34011KT 10SM FEW047 BKN110 20/08 A3027 7520 45 9800 330/11 RMK AO2 LTG DSNT N AND NE RAB0055E11 P0000 T02000078
93073KASE ASE20160630182515606/30/16 18:25:31  5-MIN KASE 010125Z 33008KT 10SM FEW047 FEW060 BKN110 19/08 A3027 7520 46 9700 320/08 RMK AO2 LTG DSNT N AND NE RAB0055E11 P0000 T01940078
93073KASE ASE20160630183016506/30/16 18:30:31  5-MIN KASE 010130Z 01007KT 340V050 10SM FEW047 BKN120 19/08 A3027 7520 46 9700 360/07 330V040 RMK AO2 LTG DSNT N AND NE RAB0055E11 P0000 T01940078
93073KASE ASE20160630183513506/30/16 18:35:31  5-MIN KASE 010135Z 02006KT 10SM BKN110 19/08 A3027 7510 48 9700 010/06 RMK AO2 LTG DSNT N RAB0055E11 P0000 T01940083
93073KASE ASE20160630184012406/30/16 18:40:31  5-MIN KASE 010140Z 34006KT 10SM BKN110 19/08 A3028 7510 48 9700 330/06 RMK AO2 RAB0055E11 P0000 T01940083
93073KASE ASE20160630184512406/30/16 18:45:31  5-MIN KASE 010145Z VRB05KT 10SM BKN110 19/08 A3028 7510 46 9700 VRB/05 RMK AO2 RAB0055E11 P0000 T01940078
93073KASE ASE20160630185014206/30/16 18:50:31  5-MIN KASE 010150Z VRB03KT 10SM BKN110 19/08 A3028 7510 46 9700 VRB/03 RMK AO2 LTG DSNT N RAB0055E11 SLP136 P0000 T01940078
93073KASE ASE20160630185512506/30/16 18:55:31  5-MIN KASE 010155Z 00000KT 10SM BKN100 OVC110 19/08 A3028 7510 48 9700 000/00 RMK AO2 LTG DSNT N T01890078
93073KASE ASE20160630190012506/30/16 19:00:31  5-MIN KASE 010200Z 29004KT 10SM BKN095 OVC110 19/08 A3028 7510 48 9700 280/04 RMK AO2 LTG DSNT N T01890078
93073KASE ASE20160630190511406/30/16 19:05:31  5-MIN KASE 010205Z 26006KT 10SM BKN095 OVC120 19/08 A3028 7510 48 9700 250/06 RMK AO2 T01890078
93073KASE ASE20160630191010706/30/16 19:10:31  5-MIN KASE 010210Z 26003KT 10SM OVC110 18/08 A3028 7510 52 9600 250/03 RMK AO2 T01830083
93073KASE ASE20160630191512506/30/16 19:15:31  5-MIN KASE 010215Z 00000KT 10SM BKN100 OVC120 18/08 A3028 7510 50 9600 000/00 RMK AO2 LTG DSNT E T01830078
93073KASE ASE20160630192011806/30/16 19:20:31  5-MIN KASE 010220Z 00000KT 10SM OVC100 19/08 A3028 7510 50 9700 000/00 RMK AO2 LTG DSNT E T01890083
93073KASE ASE20160630192512506/30/16 19:25:31  5-MIN KASE 010225Z 18004KT 10SM BKN100 OVC120 19/08 A3028 7510 50 9700 170/04 RMK AO2 LTG DSNT E T01890083
93073KASE ASE20160630193011806/30/16 19:30:31  5-MIN KASE 010230Z 23004KT 10SM OVC100 18/08 A3028 7510 53 9600 220/04 RMK AO2 LTG DSNT E T01780083
93073KASE ASE20160630193511906/30/16 19:35:31  5-MIN KASE 010235Z 22004KT 10SM OVC100 18/08 A3028 7510 53 9600 210/04 RMK AO2 LTG DSNT SE T01780083
93073KASE ASE20160630194011906/30/16 19:40:31  5-MIN KASE 010240Z 21003KT 10SM OVC100 18/09 A3028 7510 55 9600 200/03 RMK AO2 LTG DSNT SE T01780089
93073KASE ASE20160630194512606/30/16 19:45:31  5-MIN KASE 010245Z 22006KT 10SM BKN100 OVC120 17/09 A3028 7510 57 9500 210/06 RMK AO2 LTG DSNT SE T01720089
93073KASE ASE20160630195014506/30/16 19:50:31  5-MIN KASE 010250Z 22005KT 10SM BKN100 BKN120 17/09 A3028 7510 57 9500 210/05 RMK AO2 LTG DSNT SE SLP140 60000 T01720089 56015
93073KASE ASE20160630195511406/30/16 19:55:31  5-MIN KASE 010255Z 22004KT 10SM BKN100 BKN120 17/09 A3029 7500 57 9500 210/04 RMK AO2 T01720089
93073KASE ASE20160630200011406/30/16 20:00:31  5-MIN KASE 010300Z 22004KT 10SM BKN100 BKN120 17/08 A3029 7510 55 9500 210/04 RMK AO2 T01720083
93073KASE ASE20160630200510706/30/16 20:05:31  5-MIN KASE 010305Z 22005KT 10SM BKN100 17/09 A3029 7500 57 9500 210/05 RMK AO2 T01720089
93073KASE ASE20160630201011406/30/16 20:10:31  5-MIN KASE 010310Z 21006KT 10SM BKN095 BKN110 17/09 A3029 7500 60 9400 200/06 RMK AO2 T01670089
93073KASE ASE20160630201510706/30/16 20:15:31  5-MIN KASE 010315Z 22006KT 10SM BKN100 17/09 A3029 7500 60 9400 210/06 RMK AO2 T01670089
93073KASE ASE20160630202010706/30/16 20:20:31  5-MIN KASE 010320Z 23006KT 10SM BKN095 17/09 A3029 7500 60 9400 220/06 RMK AO2 T01670089
93073KASE ASE20160630202510706/30/16 20:25:31  5-MIN KASE 010325Z 21006KT 10SM BKN100 17/09 A3029 7500 60 9400 200/06 RMK AO2 T01670089
93073KASE ASE20160630203010706/30/16 20:30:31  5-MIN KASE 010330Z 21005KT 10SM OVC095 17/08 A3029 7500 55 9500 200/05 RMK AO2 T01720083
93073KASE ASE20160630203510706/30/16 20:35:31  5-MIN KASE 010335Z 22007KT 10SM OVC095 17/09 A3029 7500 60 9400 210/07 RMK AO2 T01670089
93073KASE ASE20160630204010706/30/16 20:40:31  5-MIN KASE 010340Z 22006KT 10SM OVC090 16/08 A3029 7500 59 9400 210/06 RMK AO2 T01610083
93073KASE ASE20160630204510706/30/16 20:45:31  5-MIN KASE 010345Z 23006KT 10SM BKN095 17/08 A3030 7500 57 9400 220/06 RMK AO2 T01670083
93073KASE ASE20160630205011406/30/16 20:50:31  5-MIN KASE 010350Z 23005KT 10SM BKN095 17/08 A3030 7500 57 9400 220/05 RMK AO2 SLP142 T01670083
93073KASE ASE20160630205510706/30/16 20:55:31  5-MIN KASE 010355Z 23005KT 10SM BKN095 16/08 A3030 7490 59 9400 220/05 RMK AO2 T01610083
93073KASE ASE20160630210010706/30/16 21:00:31  5-MIN KASE 010400Z 22005KT 10SM BKN095 16/09 A3030 7490 62 9400 210/05 RMK AO2 T01610089
93073KASE ASE20160630210510706/30/16 21:05:31  5-MIN KASE 010405Z 21004KT 10SM BKN100 16/09 A3030 7490 62 9300 200/04 RMK AO2 T01610089
93073KASE ASE20160630211011406/30/16 21:10:31  5-MIN KASE 010410Z 21004KT 10SM BKN100 BKN110 16/09 A3030 7490 62 9300 200/04 RMK AO2 T01610089
93073KASE ASE20160630211510706/30/16 21:15:31  5-MIN KASE 010415Z 22003KT 10SM BKN100 16/08 A3030 7490 59 9300 210/03 RMK AO2 T01610083
93073KASE ASE20160630212010706/30/16 21:20:31  5-MIN KASE 010420Z 00000KT 10SM BKN100 16/09 A3030 7490 62 9300 000/00 RMK AO2 T01610089
93073KASE ASE20160630212510706/30/16 21:25:31  5-MIN KASE 010425Z 00000KT 10SM OVC100 16/09 A3030 7490 62 9300 000/00 RMK AO2 T01610089
93073KASE ASE20160630213010706/30/16 21:30:31  5-MIN KASE 010430Z 19003KT 10SM OVC095 16/09 A3031 7490 64 9300 180/03 RMK AO2 T01560089
93073KASE ASE20160630213511406/30/16 21:35:31  5-MIN KASE 010435Z 22003KT 10SM BKN095 OVC110 16/09 A3030 7490 64 9300 210/03 RMK AO2 T01560089
93073KASE ASE20160630214010706/30/16 21:40:31  5-MIN KASE 010440Z 00000KT 10SM OVC095 16/09 A3030 7490 64 9300 000/00 RMK AO2 T01560089
93073KASE ASE20160630214511406/30/16 21:45:31  5-MIN KASE 010445Z 00000KT 10SM BKN100 OVC110 16/09 A3030 7490 64 9300 000/00 RMK AO2 T01560089
93073KASE ASE20160630215013206/30/16 21:50:31  5-MIN KASE 010450Z 00000KT 10SM BKN100 OVC110 16/09 A3030 7490 62 9300 000/00 RMK AO2 LTG DSNT W SLP144 T01610089
93073KASE ASE20160630215512506/30/16 21:55:31  5-MIN KASE 010455Z 00000KT 10SM BKN100 OVC110 16/09 A3030 7490 64 9300 000/00 RMK AO2 LTG DSNT W T01560089
93073KASE ASE20160630220012506/30/16 22:00:31  5-MIN KASE 010500Z 00000KT 10SM OVC110 16/09 A3030 7490 64 9300 000/00 RMK AO2 LTG DSNT W AND NW T01560089
93073KASE ASE20160630220512506/30/16 22:05:31  5-MIN KASE 010505Z 21003KT 10SM OVC110 16/09 A3030 7490 64 9300 200/03 RMK AO2 LTG DSNT W AND NW T01560089
93073KASE ASE20160630221012506/30/16 22:10:31  5-MIN KASE 010510Z 20003KT 10SM OVC110 16/09 A3030 7490 64 9300 190/03 RMK AO2 LTG DSNT W AND NW T01560089
93073KASE ASE20160630221513206/30/16 22:15:31  5-MIN KASE 010515Z 21003KT 10SM BKN100 OVC120 15/09 A3031 7490 66 9200 200/03 RMK AO2 LTG DSNT W AND NW T01500089
93073KASE ASE20160630222012606/30/16 22:20:31  5-MIN KASE 010520Z 21003KT 10SM BKN095 OVC120 15/09 A3030 7490 66 9200 200/03 RMK AO2 LTG DSNT NW T01500089
93073KASE ASE20160630222512606/30/16 22:25:31  5-MIN KASE 010525Z 00000KT 10SM BKN095 OVC120 15/09 A3030 7490 66 9200 000/00 RMK AO2 LTG DSNT NW T01500089
93073KASE ASE20160630223012606/30/16 22:30:31  5-MIN KASE 010530Z 20003KT 10SM BKN095 OVC120 15/09 A3030 7490 66 9200 190/03 RMK AO2 LTG DSNT NW T01500089
93073KASE ASE20160630223512606/30/16 22:35:31  5-MIN KASE 010535Z 00000KT 10SM FEW090 OVC110 15/09 A3030 7490 66 9200 000/00 RMK AO2 LTG DSNT NW T01500089
93073KASE ASE20160630224012606/30/16 22:40:31  5-MIN KASE 010540Z 00000KT 10SM FEW090 BKN110 15/09 A3030 7490 66 9200 000/00 RMK AO2 LTG DSNT NW T01500089
93073KASE ASE20160630224512606/30/16 22:45:31  5-MIN KASE 010545Z 35004KT 10SM FEW090 BKN110 15/09 A3031 7490 66 9200 350/04 RMK AO2 LTG DSNT NW T01500089
93073KASE ASE20160630225014506/30/16 22:50:31  5-MIN KASE 010550Z 36004KT 10SM FEW090 SCT120 15/09 A3031 7480 66 9200 350/04 RMK AO2 SLP145 60000 T01500089 10228 20150 53009
93073KASE ASE20160630225511406/30/16 22:55:31  5-MIN KASE 010555Z 36006KT 10SM FEW070 SCT120 15/09 A3031 7480 66 9200 350/06 RMK AO2 T01500089
93073KASE ASE20160630230011406/30/16 23:00:31  5-MIN KASE 010600Z 36006KT 10SM SCT070 BKN120 15/09 A3032 7480 66 9200 350/06 RMK AO2 T01500089
93073KASE ASE20160630230510706/30/16 23:05:31  5-MIN KASE 010605Z 34004KT 10SM BKN070 15/09 A3033 7470 66 9200 330/04 RMK AO2 T01500089
93073KASE ASE20160630231012006/30/16 23:10:31  5-MIN KASE 010610Z 01008G14KT 10SM FEW040 BKN065 16/09 A3033 7460 64 9300 360/08G14 RMK AO2 T01560089
93073KASE ASE20160630231512706/30/16 23:15:31  5-MIN KASE 010615Z 36008G14KT 10SM FEW040 SCT055 BKN070 16/09 A3033 7460 62 9300 350/08G14 RMK AO2 T01610089
93073KASE ASE20160630232012106/30/16 23:20:31  5-MIN KASE 010620Z 35008KT 10SM SCT040 BKN055 OVC070 16/09 A3034 7460 64 9200 340/08 RMK AO2 T01560089
93073KASE ASE20160630232512706/30/16 23:25:31  5-MIN KASE 010625Z 35008G14KT 10SM FEW027 BKN041 OVC065 16/09 A3035 7450 64 9200 340/08G14 RMK AO2 T01560089
93073KASE ASE20160630233013706/30/16 23:30:31  5-MIN KASE 010630Z 35008KT 10SM -RA SCT023 BKN041 OVC070 15/10 A3035 7450 72 9200 340/08 RMK AO2 RAB26 P0000 T01500100
93073KASE ASE20160630233513506/30/16 23:35:31  5-MIN KASE 010635Z 01007KT 6SM RA FEW018 BKN023 OVC055 14/10 A3035 7450 74 9100 360/07 RMK AO2 RAB26 P0004 T01440100
93073KASE ASE20160630234014206/30/16 23:40:31  5-MIN KASE 010640Z 01007G20KT 6SM -RA SCT015 BKN020 OVC055 14/11 A3035 7440 80 9000 010/07G20 RMK AO2 RAB26 P0004 T01390106
93073KASE ASE20160630234514206/30/16 23:45:31  5-MIN KASE 010645Z 02006G20KT 9SM -RA SCT011 BKN015 OVC041 13/11 A3035 7450 86 9000 010/06G20 RMK AO2 RAB26 P0004 T01330111
93073KASE ASE20160630235014406/30/16 23:50:31  5-MIN KASE 010650Z 02004G15KT 10SM -RA BKN011 BKN017 OVC022 13/11 A3035 7450 86 9000 010/04G15 RMK AO2 LTG DSNT N RAB26 P0004
93073KASE ASE20160630235514206/30/16 23:55:31  5-MIN KASE 010655Z 02003KT 10SM -RA BKN011 OVC017 13/11 A3035 7450 86 9000 010/03 RMK AO2 LTG DSNT N AND NE P0000 T01330111
