63870K0J4 0J420160801000011408/01/16 00:00:31  5-MIN K0J4 010500Z AUTO 00000KT 10SM CLR 23/22 A3008 170 93 1100 000/00 RMK AO2 T02280217 PNO $
63870K0J4 0J420160801000511408/01/16 00:05:31  5-MIN K0J4 010505Z AUTO 09004KT 10SM CLR 23/22 A3009 160 93 1100 090/04 RMK AO2 T02280217 PNO $
63870K0J4 0J420160801001011408/01/16 00:10:31  5-MIN K0J4 010510Z AUTO 11004KT 10SM CLR 23/22 A3008 170 93 1100 110/04 RMK AO2 T02280217 PNO $
63870K0J4 0J420160801001511408/01/16 00:15:31  5-MIN K0J4 010515Z AUTO 11004KT 10SM CLR 23/22 A3008 170 93 1200 110/04 RMK AO2 T02280217 PNO $
63870K0J4 0J420160801002011408/01/16 00:20:31  5-MIN K0J4 010520Z AUTO VRB03KT 10SM CLR 23/22 A3008 170 93 1100 VRB/03 RMK AO2 T02280217 PNO $
63870K0J4 0J420160801002511408/01/16 00:25:31  5-MIN K0J4 010525Z AUTO 00000KT 10SM CLR 23/22 A3008 170 93 1200 000/00 RMK AO2 T02280217 PNO $
63870K0J4 0J420160801003011408/01/16 00:30:31  5-MIN K0J4 010530Z AUTO 03004KT 10SM CLR 23/22 A3008 170 93 1200 030/04 RMK AO2 T02280217 PNO $
63870K0J4 0J420160801003511408/01/16 00:35:31  5-MIN K0J4 010535Z AUTO 03003KT 10SM CLR 23/22 A3008 170 93 1100 030/03 RMK AO2 T02280217 PNO $
63870K0J4 0J420160801004011408/01/16 00:40:31  5-MIN K0J4 010540Z AUTO 02003KT 10SM CLR 23/22 A3008 170 93 1200 020/03 RMK AO2 T02280217 PNO $
63870K0J4 0J420160801004511408/01/16 00:45:31  5-MIN K0J4 010545Z AUTO 00000KT 10SM CLR 23/22 A3008 170 93 1200 000/00 RMK AO2 T02280217 PNO $
63870K0J4 0J420160801005011408/01/16 00:50:31  5-MIN K0J4 010550Z AUTO 05003KT 10SM CLR 23/22 A3008 170 93 1200 050/03 RMK AO2 T02280217 PNO $
63870K0J4 0J420160801005514508/01/16 00:55:31  5-MIN K0J4 010555Z AUTO 00000KT 10SM CLR 23/22 A3008 170 93 1200 000/00 RMK AO2 SLP180 6//// T02280217 10239 20228 58012 PNO $
63870K0J4 0J420160801010011408/01/16 01:00:31  5-MIN K0J4 010600Z AUTO 00000KT 10SM CLR 23/22 A3008 170 93 1200 000/00 RMK AO2 T02280217 PNO $
63870K0J4 0J420160801010511408/01/16 01:05:31  5-MIN K0J4 010605Z AUTO 00000KT 10SM CLR 23/22 A3008 170 93 1200 000/00 RMK AO2 T02280217 PNO $
63870K0J4 0J420160801011011308/01/16 01:10:31  5-MIN K0J4 010610Z AUTO 00000KT 9SM CLR 23/22 A3008 170 93 1200 000/00 RMK AO2 T02280217 PNO $
63870K0J4 0J420160801011511308/01/16 01:15:31  5-MIN K0J4 010615Z AUTO 00000KT 9SM CLR 23/22 A3008 170 93 1200 000/00 RMK AO2 T02280217 PNO $
63870K0J4 0J420160801012011308/01/16 01:20:31  5-MIN K0J4 010620Z AUTO 00000KT 9SM CLR 23/22 A3008 170 93 1200 000/00 RMK AO2 T02280217 PNO $
63870K0J4 0J420160801012511408/01/16 01:25:31  5-MIN K0J4 010625Z AUTO 00000KT 10SM CLR 23/22 A3008 170 93 1200 000/00 RMK AO2 T02280217 PNO $
63870K0J4 0J420160801013011408/01/16 01:30:31  5-MIN K0J4 010630Z AUTO 00000KT 10SM CLR 23/22 A3008 170 93 1200 000/00 RMK AO2 T02280217 PNO $
63870K0J4 0J420160801013511408/01/16 01:35:31  5-MIN K0J4 010635Z AUTO 11003KT 10SM CLR 23/22 A3008 170 93 1200 110/03 RMK AO2 T02280217 PNO $
63870K0J4 0J420160801014011408/01/16 01:40:31  5-MIN K0J4 010640Z AUTO 00000KT 10SM CLR 23/22 A3008 170 93 1200 000/00 RMK AO2 T02280217 PNO $
63870K0J4 0J420160801014511408/01/16 01:45:31  5-MIN K0J4 010645Z AUTO 00000KT 10SM CLR 23/22 A3008 170 93 1100 000/00 RMK AO2 T02280217 PNO $
63870K0J4 0J420160801015011408/01/16 01:50:31  5-MIN K0J4 010650Z AUTO 00000KT 10SM CLR 23/22 A3009 160 93 1100 000/00 RMK AO2 T02280217 PNO $
63870K0J4 0J420160801015512108/01/16 01:55:31  5-MIN K0J4 010655Z AUTO 00000KT 10SM CLR 23/22 A3009 160 93 1100 000/00 RMK AO2 SLP184 T02280217 PNO $
63870K0J4 0J420160801020011408/01/16 02:00:31  5-MIN K0J4 010700Z AUTO 00000KT 10SM CLR 23/22 A3008 160 93 1100 000/00 RMK AO2 T02280217 PNO $
63870K0J4 0J420160801020511408/01/16 02:05:31  5-MIN K0J4 010705Z AUTO 00000KT 10SM CLR 23/22 A3008 160 93 1100 000/00 RMK AO2 T02280217 PNO $
63870K0J4 0J420160801021011408/01/16 02:10:31  5-MIN K0J4 010710Z AUTO 00000KT 10SM CLR 22/22 A3008 170 97 1100 000/00 RMK AO2 T02220217 PNO $
63870K0J4 0J420160801021511408/01/16 02:15:31  5-MIN K0J4 010715Z AUTO 00000KT 10SM CLR 22/22 A3008 170 97 1100 000/00 RMK AO2 T02220217 PNO $
63870K0J4 0J420160801022011408/01/16 02:20:31  5-MIN K0J4 010720Z AUTO 00000KT 10SM CLR 23/22 A3009 160 93 1100 000/00 RMK AO2 T02280217 PNO $
63870K0J4 0J420160801022511308/01/16 02:25:31  5-MIN K0J4 010725Z AUTO 00000KT 9SM CLR 22/22 A3008 160 97 1100 000/00 RMK AO2 T02220217 PNO $
63870K0J4 0J420160801023012308/01/16 02:30:31  5-MIN K0J4 010730Z AUTO 00000KT 9SM -RA CLR 22/22 A3008 170 97 1100 000/00 RMK AO2 RAB28 T02220217 PNO $
63870K0J4 0J420160801023512408/01/16 02:35:31  5-MIN K0J4 010735Z AUTO 00000KT 10SM -RA CLR 22/22 A3008 170 97 1100 000/00 RMK AO2 RAB28 T02220217 PNO $
63870K0J4 0J420160801024012308/01/16 02:40:31  5-MIN K0J4 010740Z AUTO 00000KT 10SM CLR 22/22 A3008 170 97 1100 000/00 RMK AO2 RAB28E37 T02220217 PNO $
63870K0J4 0J420160801024512208/01/16 02:45:31  5-MIN K0J4 010745Z AUTO 00000KT 9SM CLR 22/22 A3008 170 97 1100 000/00 RMK AO2 RAB28E37 T02220217 PNO $
63870K0J4 0J420160801025012208/01/16 02:50:31  5-MIN K0J4 010750Z AUTO 00000KT 8SM CLR 22/22 A3008 170 97 1100 000/00 RMK AO2 RAB28E37 T02220217 PNO $
63870K0J4 0J420160801025512908/01/16 02:55:31  5-MIN K0J4 010755Z AUTO 00000KT 7SM CLR 22/21 A3008 170 93 1100 000/00 RMK AO2 RAB28E37 SLP181 T02220211 PNO $
63870K0J4 0J420160801030011308/01/16 03:00:31  5-MIN K0J4 010800Z AUTO 00000KT 7SM CLR 22/21 A3008 170 93 1100 000/00 RMK AO2 T02220211 PNO $
63870K0J4 0J420160801030511308/01/16 03:05:31  5-MIN K0J4 010805Z AUTO 00000KT 7SM CLR 22/21 A3008 170 93 1100 000/00 RMK AO2 T02220211 PNO $
63870K0J4 0J420160801031011308/01/16 03:10:31  5-MIN K0J4 010810Z AUTO 00000KT 8SM CLR 22/21 A3008 170 93 1100 000/00 RMK AO2 T02220211 PNO $
63870K0J4 0J420160801031511308/01/16 03:15:31  5-MIN K0J4 010815Z AUTO 00000KT 9SM CLR 22/21 A3008 160 93 1100 000/00 RMK AO2 T02220211 PNO $
63870K0J4 0J420160801032011308/01/16 03:20:31  5-MIN K0J4 010820Z AUTO 00000KT 9SM CLR 22/21 A3008 170 93 1100 000/00 RMK AO2 T02220211 PNO $
63870K0J4 0J420160801032511308/01/16 03:25:31  5-MIN K0J4 010825Z AUTO 00000KT 9SM CLR 22/21 A3008 170 93 1100 000/00 RMK AO2 T02220211 PNO $
63870K0J4 0J420160801033011308/01/16 03:30:31  5-MIN K0J4 010830Z AUTO 00000KT 9SM CLR 22/21 A3008 170 93 1100 000/00 RMK AO2 T02220211 PNO $
63870K0J4 0J420160801033511308/01/16 03:35:31  5-MIN K0J4 010835Z AUTO 00000KT 8SM CLR 22/21 A3008 170 93 1100 000/00 RMK AO2 T02220211 PNO $
63870K0J4 0J420160801034011308/01/16 03:40:31  5-MIN K0J4 010840Z AUTO 00000KT 9SM CLR 22/21 A3008 170 93 1100 000/00 RMK AO2 T02220211 PNO $
63870K0J4 0J420160801034511308/01/16 03:45:31  5-MIN K0J4 010845Z AUTO 00000KT 9SM CLR 22/21 A3008 170 93 1100 000/00 RMK AO2 T02220211 PNO $
63870K0J4 0J420160801035011408/01/16 03:50:31  5-MIN K0J4 010850Z AUTO 00000KT 10SM CLR 22/21 A3008 170 93 1100 000/00 RMK AO2 T02220211 PNO $
63870K0J4 0J420160801035513308/01/16 03:55:31  5-MIN K0J4 010855Z AUTO 00000KT 10SM CLR 22/21 A3008 170 97 1000 000/00 RMK AO2 SLP181 6//// T02170211 50004 PNO $
63870K0J4 0J420160801040011408/01/16 04:00:31  5-MIN K0J4 010900Z AUTO 00000KT 10SM CLR 22/21 A3008 170 97 1000 000/00 RMK AO2 T02170211 PNO $
63870K0J4 0J420160801040511408/01/16 04:05:31  5-MIN K0J4 010905Z AUTO 00000KT 10SM CLR 22/21 A3008 170 97 1000 000/00 RMK AO2 T02170211 PNO $
63870K0J4 0J420160801041011408/01/16 04:10:31  5-MIN K0J4 010910Z AUTO 00000KT 10SM CLR 22/21 A3008 170 93 1100 000/00 RMK AO2 T02220211 PNO $
63870K0J4 0J420160801041511408/01/16 04:15:31  5-MIN K0J4 010915Z AUTO 00000KT 10SM CLR 22/21 A3008 170 93 1100 000/00 RMK AO2 T02220211 PNO $
63870K0J4 0J420160801042011308/01/16 04:20:31  5-MIN K0J4 010920Z AUTO 00000KT 8SM CLR 22/21 A3008 170 97 1000 000/00 RMK AO2 T02170211 PNO $
63870K0J4 0J420160801042511308/01/16 04:25:31  5-MIN K0J4 010925Z AUTO 00000KT 8SM CLR 22/21 A3008 170 93 1100 000/00 RMK AO2 T02220211 PNO $
63870K0J4 0J420160801043011308/01/16 04:30:31  5-MIN K0J4 010930Z AUTO 00000KT 9SM CLR 22/21 A3008 170 93 1100 000/00 RMK AO2 T02220211 PNO $
63870K0J4 0J420160801043511308/01/16 04:35:31  5-MIN K0J4 010935Z AUTO 00000KT 9SM CLR 22/21 A3008 170 93 1100 000/00 RMK AO2 T02220211 PNO $
63870K0J4 0J420160801044011308/01/16 04:40:31  5-MIN K0J4 010940Z AUTO 33003KT 9SM CLR 22/21 A3008 170 97 1000 330/03 RMK AO2 T02170211 PNO $
63870K0J4 0J420160801044511308/01/16 04:45:31  5-MIN K0J4 010945Z AUTO 34003KT 9SM CLR 22/21 A3008 170 97 1000 340/03 RMK AO2 T02170211 PNO $
63870K0J4 0J420160801045011308/01/16 04:50:31  5-MIN K0J4 010950Z AUTO 34003KT 9SM CLR 22/21 A3008 160 93 1100 340/03 RMK AO2 T02220211 PNO $
63870K0J4 0J420160801045510608/01/16 04:55:31  5-MIN K0J4 010955Z AUTO 35003KT 8SM FEW001 22/21 A3009 160 97 1000 350/03 RMK AO2 PNO $
63870K0J4 0J420160801050011908/01/16 05:00:31  5-MIN K0J4 011000Z AUTO 00000KT 5SM BR SCT001 22/21 A3009 160 97 1000 000/00 RMK AO2 T02170211 PNO $
63870K0J4 0J420160801050511908/01/16 05:05:31  5-MIN K0J4 011005Z AUTO 00000KT 3SM BR BKN001 22/21 A3009 160 97 1000 000/00 RMK AO2 T02170211 PNO $
63870K0J4 0J420160801051011908/01/16 05:10:31  5-MIN K0J4 011010Z AUTO 00000KT 2SM BR BKN001 22/21 A3009 160 97 1000 000/00 RMK AO2 T02170211 PNO $
63870K0J4 0J420160801051512308/01/16 05:15:31  5-MIN K0J4 011015Z AUTO 00000KT 1 1/4SM BR BKN001 22/21 A3009 160 97 1000 000/00 RMK AO2 T02170211 PNO $
63870K0J4 0J420160801052011808/01/16 05:20:31  5-MIN K0J4 011020Z AUTO 00000KT 1SM BR VV001 22/21 A3009 160 93 1000 000/00 RMK AO2 T02170206 PNO $
63870K0J4 0J420160801052512308/01/16 05:25:31  5-MIN K0J4 011025Z AUTO 36003KT 1 1/4SM BR OVC001 22/21 A3009 160 93 1000 360/03 RMK AO2 T02170206 PNO $
63870K0J4 0J420160801053011908/01/16 05:30:31  5-MIN K0J4 011030Z AUTO 00000KT 3SM BR BKN001 22/21 A3009 160 97 1000 000/00 RMK AO2 T02170211 PNO $
63870K0J4 0J420160801053511608/01/16 05:35:31  5-MIN K0J4 011035Z AUTO 00000KT 9SM BKN001 22/21 A3009 160 93 1100 000/00 RMK AO2 T02220211 PNO $
63870K0J4 0J420160801054011708/01/16 05:40:31  5-MIN K0J4 011040Z AUTO 00000KT 10SM SCT001 22/21 A3009 160 97 1000 000/00 RMK AO2 T02170211 PNO $
63870K0J4 0J420160801054512708/01/16 05:45:31  5-MIN K0J4 011045Z AUTO 00000KT 10SM -RA FEW001 22/21 A3009 160 97 1000 000/00 RMK AO2 RAB44 T02170211 PNO $
63870K0J4 0J420160801055012708/01/16 05:50:31  5-MIN K0J4 011050Z AUTO 00000KT 10SM -RA FEW001 22/21 A3009 160 97 1000 000/00 RMK AO2 RAB44 T02170211 PNO $
63870K0J4 0J420160801055513008/01/16 05:55:31  5-MIN K0J4 011055Z AUTO 00000KT 10SM CLR 22/21 A3009 160 97 1000 000/00 RMK AO2 RAB44E52 SLP186 T02170211 PNO $
63870K0J4 0J420160801060011408/01/16 06:00:31  5-MIN K0J4 011100Z AUTO 00000KT 10SM CLR 22/21 A3009 160 93 1000 000/00 RMK AO2 T02170206 PNO $
63870K0J4 0J420160801060511308/01/16 06:05:31  5-MIN K0J4 011105Z AUTO 00000KT 9SM CLR 22/21 A3009 160 93 1000 000/00 RMK AO2 T02170206 PNO $
63870K0J4 0J420160801061011308/01/16 06:10:31  5-MIN K0J4 011110Z AUTO 00000KT 9SM CLR 22/21 A3009 160 97 1000 000/00 RMK AO2 T02170211 PNO $
63870K0J4 0J420160801061511308/01/16 06:15:31  5-MIN K0J4 011115Z AUTO 00000KT 9SM CLR 22/21 A3010 150 97 1000 000/00 RMK AO2 T02170211 PNO $
63870K0J4 0J420160801062011308/01/16 06:20:31  5-MIN K0J4 011120Z AUTO 00000KT 9SM CLR 22/21 A3010 150 93 1000 000/00 RMK AO2 T02170206 PNO $
63870K0J4 0J420160801062511308/01/16 06:25:31  5-MIN K0J4 011125Z AUTO 00000KT 8SM CLR 22/21 A3010 150 97 1000 000/00 RMK AO2 T02170211 PNO $
63870K0J4 0J420160801063011308/01/16 06:30:31  5-MIN K0J4 011130Z AUTO 00000KT 8SM CLR 22/21 A3010 150 97 1000 000/00 RMK AO2 T02170211 PNO $
63870K0J4 0J420160801063511408/01/16 06:35:31  5-MIN K0J4 011135Z AUTO 00000KT 10SM CLR 22/21 A3010 150 93 1100 000/00 RMK AO2 T02220211 PNO $
63870K0J4 0J420160801064011408/01/16 06:40:31  5-MIN K0J4 011140Z AUTO 00000KT 10SM CLR 22/21 A3010 150 93 1100 000/00 RMK AO2 T02220211 PNO $
63870K0J4 0J420160801064511408/01/16 06:45:31  5-MIN K0J4 011145Z AUTO 00000KT 10SM CLR 22/22 A3010 150 97 1100 000/00 RMK AO2 T02220217 PNO $
63870K0J4 0J420160801065011408/01/16 06:50:31  5-MIN K0J4 011150Z AUTO 00000KT 10SM CLR 23/22 A3010 150 93 1100 000/00 RMK AO2 T02280217 PNO $
63870K0J4 0J420160801065515108/01/16 06:55:31  5-MIN K0J4 011155Z AUTO 00000KT 10SM CLR 23/22 A3011 150 93 1100 000/00 RMK AO2 SLP191 6//// 7//// T02280217 10228 20211 50001 PNO $
63870K0J4 0J420160801070011408/01/16 07:00:31  5-MIN K0J4 011200Z AUTO 00000KT 10SM CLR 23/22 A3011 140 93 1100 000/00 RMK AO2 T02280217 PNO $
63870K0J4 0J420160801070511408/01/16 07:05:31  5-MIN K0J4 011205Z AUTO 00000KT 10SM CLR 23/22 A3011 140 93 1100 000/00 RMK AO2 T02280217 PNO $
63870K0J4 0J420160801071011408/01/16 07:10:31  5-MIN K0J4 011210Z AUTO 00000KT 10SM CLR 23/22 A3011 140 93 1200 000/00 RMK AO2 T02330222 PNO $
63870K0J4 0J420160801071511408/01/16 07:15:31  5-MIN K0J4 011215Z AUTO 00000KT 10SM CLR 24/22 A3011 140 90 1200 000/00 RMK AO2 T02390222 PNO $
63870K0J4 0J420160801072011408/01/16 07:20:31  5-MIN K0J4 011220Z AUTO 00000KT 10SM CLR 24/23 A3011 140 93 1200 000/00 RMK AO2 T02390228 PNO $
63870K0J4 0J420160801072511408/01/16 07:25:31  5-MIN K0J4 011225Z AUTO 00000KT 10SM CLR 24/23 A3011 140 90 1300 000/00 RMK AO2 T02440228 PNO $
63870K0J4 0J420160801073011408/01/16 07:30:31  5-MIN K0J4 011230Z AUTO 00000KT 10SM CLR 24/23 A3011 140 90 1300 000/00 RMK AO2 T02440228 PNO $
63870K0J4 0J420160801073511408/01/16 07:35:31  5-MIN K0J4 011235Z AUTO 00000KT 10SM CLR 25/23 A3012 130 87 1400 000/00 RMK AO2 T02500228 PNO $
63870K0J4 0J420160801074011408/01/16 07:40:31  5-MIN K0J4 011240Z AUTO 00000KT 10SM CLR 25/23 A3012 130 87 1400 000/00 RMK AO2 T02500228 PNO $
63870K0J4 0J420160801074511408/01/16 07:45:31  5-MIN K0J4 011245Z AUTO 00000KT 10SM CLR 25/23 A3012 130 87 1400 000/00 RMK AO2 T02500228 PNO $
63870K0J4 0J420160801075011408/01/16 07:50:31  5-MIN K0J4 011250Z AUTO 07003KT 10SM CLR 26/23 A3012 130 84 1400 070/03 RMK AO2 T02560228 PNO $
63870K0J4 0J420160801075512108/01/16 07:55:31  5-MIN K0J4 011255Z AUTO 04003KT 10SM CLR 26/23 A3012 130 84 1400 040/03 RMK AO2 SLP195 T02560228 PNO $
63870K0J4 0J420160801080011408/01/16 08:00:31  5-MIN K0J4 011300Z AUTO 05003KT 10SM CLR 26/23 A3012 130 84 1400 050/03 RMK AO2 T02560228 PNO $
63870K0J4 0J420160801080511408/01/16 08:05:31  5-MIN K0J4 011305Z AUTO 00000KT 10SM CLR 26/23 A3012 130 87 1400 000/00 RMK AO2 T02560233 PNO $
63870K0J4 0J420160801081011408/01/16 08:10:31  5-MIN K0J4 011310Z AUTO 00000KT 10SM CLR 26/23 A3012 130 84 1500 000/00 RMK AO2 T02610233 PNO $
63870K0J4 0J420160801081511408/01/16 08:15:31  5-MIN K0J4 011315Z AUTO 00000KT 10SM CLR 26/23 A3012 130 84 1500 000/00 RMK AO2 T02610233 PNO $
63870K0J4 0J420160801082011408/01/16 08:20:31  5-MIN K0J4 011320Z AUTO 00000KT 10SM CLR 26/23 A3012 130 84 1500 000/00 RMK AO2 T02610233 PNO $
63870K0J4 0J420160801082511408/01/16 08:25:31  5-MIN K0J4 011325Z AUTO 00000KT 10SM CLR 26/23 A3013 120 84 1500 000/00 RMK AO2 T02610233 PNO $
63870K0J4 0J420160801083011408/01/16 08:30:31  5-MIN K0J4 011330Z AUTO 11003KT 10SM CLR 26/23 A3013 130 84 1500 110/03 RMK AO2 T02610233 PNO $
63870K0J4 0J420160801083511408/01/16 08:35:31  5-MIN K0J4 011335Z AUTO 07003KT 10SM CLR 27/24 A3013 130 84 1500 070/03 RMK AO2 T02670239 PNO $
63870K0J4 0J420160801084011408/01/16 08:40:31  5-MIN K0J4 011340Z AUTO 06003KT 10SM CLR 27/23 A3013 130 82 1500 060/03 RMK AO2 T02670233 PNO $
63870K0J4 0J420160801084511408/01/16 08:45:31  5-MIN K0J4 011345Z AUTO 07003KT 10SM CLR 27/24 A3013 120 82 1600 070/03 RMK AO2 T02720239 PNO $
63870K0J4 0J420160801085011408/01/16 08:50:31  5-MIN K0J4 011350Z AUTO 00000KT 10SM CLR 27/23 A3013 120 79 1600 000/00 RMK AO2 T02720233 PNO $
63870K0J4 0J420160801085512108/01/16 08:55:31  5-MIN K0J4 011355Z AUTO 00000KT 10SM CLR 27/23 A3013 120 79 1600 000/00 RMK AO2 SLP199 T02720233 PNO $
63870K0J4 0J420160801090011408/01/16 09:00:31  5-MIN K0J4 011400Z AUTO 00000KT 10SM CLR 27/23 A3013 120 79 1600 000/00 RMK AO2 T02720233 PNO $
63870K0J4 0J420160801090511408/01/16 09:05:31  5-MIN K0J4 011405Z AUTO 11003KT 10SM CLR 28/23 A3013 120 76 1700 110/03 RMK AO2 T02780233 PNO $
63870K0J4 0J420160801091011408/01/16 09:10:31  5-MIN K0J4 011410Z AUTO 08003KT 10SM CLR 28/23 A3013 120 76 1700 080/03 RMK AO2 T02780233 PNO $
63870K0J4 0J420160801091511408/01/16 09:15:31  5-MIN K0J4 011415Z AUTO 10004KT 10SM CLR 28/24 A3013 120 76 1700 100/04 RMK AO2 T02830239 PNO $
63870K0J4 0J420160801092011408/01/16 09:20:31  5-MIN K0J4 011420Z AUTO 00000KT 10SM CLR 28/23 A3013 120 76 1700 000/00 RMK AO2 T02780233 PNO $
63870K0J4 0J420160801092511408/01/16 09:25:31  5-MIN K0J4 011425Z AUTO 00000KT 10SM CLR 29/23 A3013 120 71 1800 000/00 RMK AO2 T02890233 PNO $
63870K0J4 0J420160801093011408/01/16 09:30:31  5-MIN K0J4 011430Z AUTO 00000KT 10SM CLR 29/23 A3013 120 71 1800 000/00 RMK AO2 T02890233 PNO $
63870K0J4 0J420160801093511408/01/16 09:35:31  5-MIN K0J4 011435Z AUTO 00000KT 10SM CLR 28/23 A3013 120 74 1700 000/00 RMK AO2 T02830233 PNO $
63870K0J4 0J420160801094011408/01/16 09:40:31  5-MIN K0J4 011440Z AUTO 09003KT 10SM CLR 29/24 A3013 120 74 1800 090/03 RMK AO2 T02890239 PNO $
63870K0J4 0J420160801094511408/01/16 09:45:31  5-MIN K0J4 011445Z AUTO 00000KT 10SM CLR 29/24 A3013 120 74 1800 000/00 RMK AO2 T02890239 PNO $
63870K0J4 0J420160801095011708/01/16 09:50:31  5-MIN K0J4 011450Z AUTO 00000KT 10SM FEW017 29/24 A3014 120 71 1800 000/00 RMK AO2 T02940239 PNO $
63870K0J4 0J420160801095513608/01/16 09:55:31  5-MIN K0J4 011455Z AUTO 00000KT 10SM FEW017 29/24 A3014 120 71 1800 000/00 RMK AO2 SLP201 6//// T02940239 53009 PNO $
63870K0J4 0J420160801100011708/01/16 10:00:31  5-MIN K0J4 011500Z AUTO 01004KT 10SM SCT017 29/24 A3014 120 71 1800 010/04 RMK AO2 T02940239 PNO $
63870K0J4 0J420160801100511508/01/16 10:05:31  5-MIN K0J4 011505Z AUTO 00000KT 10SM SCT017 29/24 A3014 110 71 1800 000/00 RMK AO2 T02940239 PNO
63870K0J4 0J420160801101011708/01/16 10:10:31  5-MIN K0J4 011510Z AUTO 00000KT 10SM BKN017 29/23 A3014 110 69 1800 000/00 RMK AO2 T02940233 PNO $
63870K0J4 0J420160801101511708/01/16 10:15:31  5-MIN K0J4 011515Z AUTO 00000KT 10SM BKN018 29/24 A3014 110 71 1800 000/00 RMK AO2 T02940239 PNO $
63870K0J4 0J420160801102012408/01/16 10:20:31  5-MIN K0J4 011520Z AUTO VRB03KT 10SM BKN018 BKN026 29/24 A3014 110 74 1800 VRB/03 RMK AO2 T02890239 PNO $
63870K0J4 0J420160801102507408/01/16 10:25:31  5-MIN K0J4 011525Z AUTO M M M M /M RMK AO2 FZRANO PNO $
63870K0J4 0J420160801103010508/01/16 10:30:31  5-MIN K0J4 011530Z AUTO 00000KT 30/24 A3014 120 69 1900 000/00 RMK AO2 T03000239 PNO $
63870K0J4 0J420160801103511008/01/16 10:35:31  5-MIN K0J4 011535Z AUTO 00000KT 10SM 30/24 A3014 110 69 1900 000/00 RMK AO2 T03000239 PNO $
63870K0J4 0J420160801104006708/01/16 10:40:31  5-MIN K0J4 011540Z AUTO M M M M /M RMK AO2 PNO $
63870K0J4 0J420160801104510508/01/16 10:45:31  5-MIN K0J4 011545Z AUTO 00000KT 29/24 A3014 110 71 1800 000/00 RMK AO2 T02940239 PNO $
63870K0J4 0J420160801105011008/01/16 10:50:31  5-MIN K0J4 011550Z AUTO 00000KT 10SM 29/23 A3014 110 69 1800 000/00 RMK AO2 T02940233 PNO $
63870K0J4 0J420160801105511108/01/16 10:55:31  5-MIN K0J4 011555Z AUTO 00000KT 10SM 29/24 A3014 120 71 1800 000/00 RMK AO2 SLP201 T02940239
63870K0J4 0J420160801110010408/01/16 11:00:31  5-MIN K0J4 011600Z AUTO 02004KT 10SM 31/24 A3013 120 67 2000 020/04 RMK AO2 T03060239
63870K0J4 0J420160801110510408/01/16 11:05:31  5-MIN K0J4 011605Z AUTO VRB03KT 10SM 31/23 A3013 120 65 2000 VRB/03 RMK AO2 T03060233
63870K0J4 0J420160801111011808/01/16 11:10:31  5-MIN K0J4 011610Z AUTO 00000KT 10SM FEW023 SCT029 31/24 A3013 120 65 2000 000/00 RMK AO2 T03110239
63870K0J4 0J420160801111511108/01/16 11:15:31  5-MIN K0J4 011615Z AUTO VRB03KT 10SM SCT023 31/24 A3013 120 67 2000 VRB/03 RMK AO2 T03060239
63870K0J4 0J420160801112006308/01/16 11:20:31  5-MIN K0J4 011620Z AUTO M M M M /M RMK AO2 $
63870K0J4 0J420160801112510108/01/16 11:25:31  5-MIN K0J4 011625Z AUTO 00000KT 31/24 A3012 130 67 2000 000/00 RMK AO2 T03060239 $
63870K0J4 0J420160801113010608/01/16 11:30:31  5-MIN K0J4 011630Z AUTO 00000KT 10SM 30/23 A3012 130 67 1900 000/00 RMK AO2 T03000233 $
63870K0J4 0J420160801113510608/01/16 11:35:31  5-MIN K0J4 011635Z AUTO 00000KT 10SM 31/23 A3012 130 65 2000 000/00 RMK AO2 T03060233 $
63870K0J4 0J420160801114010608/01/16 11:40:31  5-MIN K0J4 011640Z AUTO 00000KT 10SM 31/24 A3012 130 65 2000 000/00 RMK AO2 T03110239 $
63870K0J4 0J420160801114510608/01/16 11:45:31  5-MIN K0J4 011645Z AUTO 00000KT 10SM 30/23 A3012 130 67 1900 000/00 RMK AO2 T03000233 $
63870K0J4 0J420160801115012008/01/16 11:50:31  5-MIN K0J4 011650Z AUTO 21004KT 10SM SCT026 SCT035 30/23 A3012 130 67 1900 210/04 RMK AO2 T03000233 $
63870K0J4 0J420160801120007308/01/16 12:00:31  5-MIN K0J4 011700Z AUTO 00000KT M M M 000/00 RMK AO2 $
63870K0J4 0J420160801120510108/01/16 12:05:31  5-MIN K0J4 011705Z AUTO 00000KT 30/24 A3012 130 69 1900 000/00 RMK AO2 T03000239 $
63870K0J4 0J420160801121010608/01/16 12:10:31  5-MIN K0J4 011710Z AUTO 00000KT 10SM 30/23 A3012 140 67 1900 000/00 RMK AO2 T03000233 $
63870K0J4 0J420160801121510608/01/16 12:15:31  5-MIN K0J4 011715Z AUTO 00000KT 10SM 31/23 A3012 140 63 2100 000/00 RMK AO2 T03110233 $
63870K0J4 0J420160801122010608/01/16 12:20:31  5-MIN K0J4 011720Z AUTO 00000KT 10SM 32/23 A3012 140 61 2100 000/00 RMK AO2 T03170233 $
63870K0J4 0J420160801122510608/01/16 12:25:31  5-MIN K0J4 011725Z AUTO 00000KT 10SM 31/23 A3011 140 63 2100 000/00 RMK AO2 T03110233 $
63870K0J4 0J420160801123012008/01/16 12:30:31  5-MIN K0J4 011730Z AUTO 33004KT 10SM FEW030 BKN065 31/23 A3011 140 65 2000 330/04 RMK AO2 T03060233 $
63870K0J4 0J420160801123514208/01/16 12:35:31  5-MIN K0J4 011735Z AUTO 34005KT 5SM +RA SCT030 SCT038 BKN065 30/24 A3012 130 69 1900 340/05 RMK AO2 RAB32 P0000 T03000239 $
63870K0J4 0J420160801124014608/01/16 12:40:31  5-MIN K0J4 011740Z AUTO 34004KT 3SM VCTS RA SCT030 BKN042 OVC060 28/24 A3012 130 79 1700 340/04 RMK AO2 RAB32 P0000 T02830244 $
63870K0J4 0J420160801124515008/01/16 12:45:31  5-MIN K0J4 011745Z AUTO 00000KT 4SM -TSRA FEW029 BKN039 OVC060 29/25 A3012 130 79 1800 000/00 RMK AO2 RAB32 TSB44 P0000 T02890250 $
63870K0J4 0J420160801125014608/01/16 12:50:31  5-MIN K0J4 011750Z AUTO 00000KT 9SM -TSRA BKN031 BKN060 28/25 A3011 140 82 1700 000/00 RMK AO2 RAB32 TSB44B48 P0000 T02830250 $
63870K0J4 0J420160801125517908/01/16 12:55:31  5-MIN K0J4 011755Z AUTO 00000KT 10SM TS FEW027 SCT033 BKN060 29/26 A3011 140 82 1800 000/00 RMK AO2 RAB32E54 TSB44B48 SLP193 P0000 6//// T02890256 10317 20211 $
63870K0J4 0J420160801130012808/01/16 13:00:31  5-MIN K0J4 011800Z AUTO 16005KT 10SM TS FEW027 SCT035 BKN050 29/26 A3012 130 82 1800 160/05 RMK AO2 T02890256
63870K0J4 0J420160801130513408/01/16 13:05:31  5-MIN K0J4 011805Z AUTO 17009G17KT 10SM TS FEW018 BKN037 BKN047 27/24 A3012 130 84 1600 170/09G17 RMK AO2 T02720244
63870K0J4 0J420160801131013408/01/16 13:10:31  5-MIN K0J4 011810Z AUTO 18009G17KT 10SM TS SCT020 BKN029 BKN039 26/23 A3013 120 84 1400 180/09G17 RMK AO2 T02560228
63870K0J4 0J420160801131514108/01/16 13:15:31  5-MIN K0J4 011815Z AUTO VRB03G17KT 10SM TS FEW015 BKN022 BKN029 25/23 A3014 110 87 1300 VRB/03G17 RMK AO2 PRESRR T02500228
63870K0J4 0J420160801132014208/01/16 13:20:31  5-MIN K0J4 011820Z AUTO 2SM +TSRA BR SCT009 BKN022 BKN029 25/23 A3015 110 87 1300 M /M RMK AO2 RAB17 PRESRR P0000 T02500228
63870K0J4 0J420160801132517508/01/16 13:25:31  5-MIN K0J4 011825Z AUTO 22007KT 150V290 1 1/2SM +TSRA BR SCT009 BKN022 OVC039 24/23 A3014 110 90 1300 220/07 150V290 RMK AO2 VIS 3/4V5 RAB17 P0000 T02440228
63870K0J4 0J420160801133015308/01/16 13:30:31  5-MIN K0J4 011830Z AUTO 18011G16KT 3/4SM +TSRA BR SCT009 BKN023 OVC030 24/23 A3014 120 90 1300 180/11G16 RMK AO2 RAB17 T02440228 PNO $
63870K0J4 0J420160801133515208/01/16 13:35:31  5-MIN K0J4 011835Z AUTO VRB06G16KT 3/4SM TSRA BR SCT009 BKN023 OVC085 24/23 A3015 110 93 1200 VRB/06G16 RMK AO2 RAB17 T02390228 PNO $
63870K0J4 0J420160801134013508/01/16 13:40:31  5-MIN K0J4 011840Z AUTO 2SM -TSRA BR FEW009 BKN025 OVC085 24/23 A3015 100 93 1200 M /M RMK AO2 RAB17 T02390228 PNO $
63870K0J4 0J420160801134514508/01/16 13:45:31  5-MIN K0J4 011845Z AUTO 19013KT 5SM -TSRA BR FEW009 BKN039 OVC085 24/23 A3015 100 93 1200 190/13 RMK AO2 RAB17 T02390228 PNO $
63870K0J4 0J420160801135014208/01/16 13:50:31  5-MIN K0J4 011850Z AUTO 18010KT 8SM -TSRA FEW007 BKN043 OVC090 24/23 A3016 100 93 1200 180/10 RMK AO2 RAB17 T02390228 PNO $
63870K0J4 0J420160801135515008/01/16 13:55:31  5-MIN K0J4 011855Z AUTO 18008KT 10SM -TSRA FEW005 BKN043 OVC090 24/23 A3015 100 97 1200 180/08 RMK AO2 RAB17 SLP207 T02390233 PNO $
63870K0J4 0J420160801140013708/01/16 14:00:31  5-MIN K0J4 011900Z AUTO 18007KT 10SM -TSRA FEW005 SCT038 BKN060 24/23 A3015 100 93 1200 180/07 RMK AO2 T02390228 PNO $
63870K0J4 0J420160801140513708/01/16 14:05:31  5-MIN K0J4 011905Z AUTO 18007KT 10SM -TSRA FEW040 SCT060 SCT080 24/23 A3015 110 93 1200 180/07 RMK AO2 T02390228 PNO $
63870K0J4 0J420160801141014808/01/16 14:10:31  5-MIN K0J4 011910Z AUTO 19008KT 10SM VCTS FEW040 FEW060 SCT080 24/23 A3014 110 93 1200 190/08 RMK AO2 RAE07 TSE10 T02390228 PNO $
63870K0J4 0J420160801141514208/01/16 14:15:31  5-MIN K0J4 011915Z AUTO 19005KT 10SM TS FEW037 FEW055 24/23 A3014 110 90 1300 190/05 RMK AO2 RAE07 TSE10B13 T02440228 PNO $
63870K0J4 0J420160801142014508/01/16 14:20:31  5-MIN K0J4 011920Z AUTO 17003KT 10SM TS FEW005 FEW037 24/23 A3014 120 90 1300 170/03 RMK AO2 RAE07 TSE10B13B16 T02440228 PNO $
63870K0J4 0J420160801142514508/01/16 14:25:31  5-MIN K0J4 011925Z AUTO 21006KT 10SM TS FEW005 FEW090 24/23 A3013 120 90 1300 210/06 RMK AO2 RAE07 TSE10B13B16 T02440228 PNO $
63870K0J4 0J420160801143014508/01/16 14:30:31  5-MIN K0J4 011930Z AUTO 22005KT 10SM TS FEW006 SCT090 24/23 A3013 130 90 1300 220/05 RMK AO2 RAE07 TSE10B13B16 T02440228 PNO $
63870K0J4 0J420160801143514508/01/16 14:35:31  5-MIN K0J4 011935Z AUTO 00000KT 10SM FEW100 SCT120 24/23 A3013 120 90 1300 000/00 RMK AO2 RAE07 TSE10B13B16E32 T02440228 PNO $
63870K0J4 0J420160801144014508/01/16 14:40:31  5-MIN K0J4 011940Z AUTO 00000KT 10SM SCT100 SCT120 24/23 A3013 130 90 1300 000/00 RMK AO2 RAE07 TSE10B13B16E32 T02440228 PNO $
63870K0J4 0J420160801144514508/01/16 14:45:31  5-MIN K0J4 011945Z AUTO 00000KT 10SM SCT100 BKN120 25/23 A3012 130 87 1400 000/00 RMK AO2 RAE07 TSE10B13B16E32 T02500228 PNO $
63870K0J4 0J420160801145014508/01/16 14:50:31  5-MIN K0J4 011950Z AUTO 00000KT 10SM SCT100 SCT120 25/23 A3012 130 87 1400 000/00 RMK AO2 RAE07 TSE10B13B16E32 T02500228 PNO $
63870K0J4 0J420160801145514908/01/16 14:55:31  5-MIN K0J4 011955Z AUTO 00000KT 10SM TS SCT110 24/23 A3012 130 90 1300 000/00 RMK AO2 RAE07 TSE10B13B16E32B51 SLP196 T02440228 PNO
63870K0J4 0J420160801150011808/01/16 15:00:31  5-MIN K0J4 012000Z AUTO 00000KT 10SM TS BKN110 24/23 A3012 130 90 1300 000/00 RMK AO2 T02440228 PNO
63870K0J4 0J420160801150511808/01/16 15:05:31  5-MIN K0J4 012005Z AUTO 00000KT 10SM TS BKN110 25/23 A3011 140 90 1400 000/00 RMK AO2 T02500233 PNO
63870K0J4 0J420160801151012108/01/16 15:10:31  5-MIN K0J4 012010Z AUTO 12005KT 10SM BKN110 24/23 A3011 140 90 1300 120/05 RMK AO2 TSE06 T02440228 PNO
63870K0J4 0J420160801151513808/01/16 15:15:31  5-MIN K0J4 012015Z AUTO 14004KT 10SM -RA FEW100 BKN120 25/23 A3011 150 90 1400 140/04 RMK AO2 RAB15 TSE06 T02500233 PNO
63870K0J4 0J420160801152013808/01/16 15:20:31  5-MIN K0J4 012020Z AUTO 15003KT 10SM -RA SCT100 BKN120 25/23 A3011 140 90 1400 150/03 RMK AO2 RAB15 TSE06 T02500233 PNO
63870K0J4 0J420160801152514508/01/16 15:25:31  5-MIN K0J4 012025Z AUTO 00000KT 10SM -RA FEW005 BKN100 OVC120 25/23 A3010 150 90 1400 000/00 RMK AO2 RAB15 TSE06 T02500233 PNO
63870K0J4 0J420160801153014508/01/16 15:30:31  5-MIN K0J4 012030Z AUTO 17004KT 10SM -RA SCT005 BKN100 OVC120 24/23 A3010 150 93 1300 170/04 RMK AO2 RAB15 TSE06 T02440233 PNO
63870K0J4 0J420160801153514508/01/16 15:35:31  5-MIN K0J4 012035Z AUTO VRB04KT 10SM -RA SCT005 BKN050 OVC120 25/23 A3009 160 90 1400 VRB/04 RMK AO2 RAB15 TSE06 T02500233 PNO
63870K0J4 0J420160801154015208/01/16 15:40:31  5-MIN K0J4 012040Z AUTO 18006KT 10SM -RA FEW005 BKN044 OVC095 25/23 A3008 170 90 1400 180/06 RMK AO2 RAB15 TSE06 PRESFR T02500233 PNO
63870K0J4 0J420160801154514508/01/16 15:45:31  5-MIN K0J4 012045Z AUTO 19006KT 10SM -RA FEW005 BKN039 BKN055 26/23 A3008 170 87 1500 190/06 RMK AO2 RAB15 TSE06 T02560233 PNO
63870K0J4 0J420160801155014508/01/16 15:50:31  5-MIN K0J4 012050Z AUTO 18004KT 10SM -RA SCT005 SCT032 BKN044 26/23 A3009 160 87 1500 180/04 RMK AO2 RAB15 TSE06 T02560233 PNO
63870K0J4 0J420160801155515808/01/16 15:55:31  5-MIN K0J4 012055Z AUTO 21006KT 10SM -RA FEW005 BKN042 BKN050 26/24 A3008 170 87 1500 210/06 RMK AO2 RAB15 TSE06 SLP183 6//// T02610239 PNO
63870K0J4 0J420160801160013008/01/16 16:00:31  5-MIN K0J4 012100Z AUTO 21006KT 10SM FEW007 SCT042 26/23 A3008 170 87 1500 210/06 RMK AO2 RAE2059 T02560233 PNO
63870K0J4 0J420160801160513008/01/16 16:05:31  5-MIN K0J4 012105Z AUTO 18005KT 10SM FEW007 FEW035 26/23 A3008 170 87 1500 180/05 RMK AO2 RAE2059 T02560233 PNO
63870K0J4 0J420160801161012308/01/16 16:10:31  5-MIN K0J4 012110Z AUTO 18005KT 10SM FEW007 26/23 A3008 170 84 1500 180/05 RMK AO2 RAE2059 T02610233 PNO
63870K0J4 0J420160801161512308/01/16 16:15:31  5-MIN K0J4 012115Z AUTO 18005KT 10SM FEW007 26/23 A3007 180 84 1500 180/05 RMK AO2 RAE2059 T02610233 PNO
63870K0J4 0J420160801162012008/01/16 16:20:31  5-MIN K0J4 012120Z AUTO 16006KT 10SM CLR 26/24 A3007 180 87 1500 160/06 RMK AO2 RAE2059 T02610239 PNO
63870K0J4 0J420160801162512008/01/16 16:25:31  5-MIN K0J4 012125Z AUTO 17006KT 10SM CLR 26/24 A3007 170 87 1500 170/06 RMK AO2 RAE2059 T02610239 PNO
63870K0J4 0J420160801163012008/01/16 16:30:31  5-MIN K0J4 012130Z AUTO 17005KT 10SM CLR 26/24 A3008 170 87 1500 170/05 RMK AO2 RAE2059 T02610239 PNO
63870K0J4 0J420160801163512008/01/16 16:35:31  5-MIN K0J4 012135Z AUTO 17005KT 10SM CLR 26/24 A3008 170 87 1500 170/05 RMK AO2 RAE2059 T02610239 PNO
63870K0J4 0J420160801164012008/01/16 16:40:31  5-MIN K0J4 012140Z AUTO 17005KT 10SM CLR 26/23 A3008 170 84 1500 170/05 RMK AO2 RAE2059 T02610233 PNO
63870K0J4 0J420160801164512008/01/16 16:45:31  5-MIN K0J4 012145Z AUTO 19004KT 10SM CLR 27/24 A3008 170 84 1600 190/04 RMK AO2 RAE2059 T02670239 PNO
63870K0J4 0J420160801165012008/01/16 16:50:31  5-MIN K0J4 012150Z AUTO 19005KT 10SM CLR 26/23 A3008 170 84 1500 190/05 RMK AO2 RAE2059 T02610233 PNO
63870K0J4 0J420160801165512708/01/16 16:55:31  5-MIN K0J4 012155Z AUTO 20004KT 10SM CLR 26/23 A3008 160 84 1500 200/04 RMK AO2 RAE2059 SLP183 T02610233 PNO
63870K0J4 0J420160801170011208/01/16 17:00:31  5-MIN K0J4 012200Z AUTO 17005KT 10SM CLR 27/23 A3008 160 82 1600 170/05 RMK AO2 T02670233 PNO
63870K0J4 0J420160801170511208/01/16 17:05:31  5-MIN K0J4 012205Z AUTO 20004KT 10SM CLR 27/23 A3008 170 82 1600 200/04 RMK AO2 T02670233 PNO
63870K0J4 0J420160801171011208/01/16 17:10:31  5-MIN K0J4 012210Z AUTO 18004KT 10SM CLR 27/23 A3008 170 82 1600 180/04 RMK AO2 T02670233 PNO
63870K0J4 0J420160801171511208/01/16 17:15:31  5-MIN K0J4 012215Z AUTO 20005KT 10SM CLR 27/23 A3008 170 79 1700 200/05 RMK AO2 T02720233 PNO
63870K0J4 0J420160801172011208/01/16 17:20:31  5-MIN K0J4 012220Z AUTO 20006KT 10SM CLR 27/23 A3007 170 82 1600 200/06 RMK AO2 T02670233 PNO
63870K0J4 0J420160801172511208/01/16 17:25:31  5-MIN K0J4 012225Z AUTO 18006KT 10SM CLR 27/23 A3007 180 82 1600 180/06 RMK AO2 T02670233 PNO
63870K0J4 0J420160801173011208/01/16 17:30:31  5-MIN K0J4 012230Z AUTO 20005KT 10SM CLR 27/23 A3007 180 82 1600 200/05 RMK AO2 T02670233 PNO
63870K0J4 0J420160801173511208/01/16 17:35:31  5-MIN K0J4 012235Z AUTO 20004KT 10SM CLR 27/23 A3007 180 79 1700 200/04 RMK AO2 T02720233 PNO
63870K0J4 0J420160801174011208/01/16 17:40:31  5-MIN K0J4 012240Z AUTO 20003KT 10SM CLR 27/23 A3008 170 79 1700 200/03 RMK AO2 T02720233 PNO
63870K0J4 0J420160801174511208/01/16 17:45:31  5-MIN K0J4 012245Z AUTO 00000KT 10SM CLR 27/23 A3008 170 79 1700 000/00 RMK AO2 T02720233 PNO
63870K0J4 0J420160801175011208/01/16 17:50:31  5-MIN K0J4 012250Z AUTO VRB03KT 10SM CLR 27/23 A3008 170 76 1700 VRB/03 RMK AO2 T02720228 PNO
63870K0J4 0J420160801175511908/01/16 17:55:31  5-MIN K0J4 012255Z AUTO VRB03KT 10SM CLR 27/23 A3008 170 76 1700 VRB/03 RMK AO2 SLP182 T02720228 PNO
63870K0J4 0J420160801180011208/01/16 18:00:31  5-MIN K0J4 012300Z AUTO 14004KT 10SM CLR 27/23 A3009 160 79 1600 140/04 RMK AO2 T02720233 PNO
63870K0J4 0J420160801180511208/01/16 18:05:31  5-MIN K0J4 012305Z AUTO 14004KT 10SM CLR 27/23 A3009 160 79 1600 140/04 RMK AO2 T02720233 PNO
63870K0J4 0J420160801181011208/01/16 18:10:31  5-MIN K0J4 012310Z AUTO 00000KT 10SM CLR 27/23 A3009 160 79 1600 000/00 RMK AO2 T02720233 PNO
63870K0J4 0J420160801181511208/01/16 18:15:31  5-MIN K0J4 012315Z AUTO 14003KT 10SM CLR 27/23 A3009 160 79 1600 140/03 RMK AO2 T02720233 PNO
63870K0J4 0J420160801182011208/01/16 18:20:31  5-MIN K0J4 012320Z AUTO 00000KT 10SM CLR 27/23 A3010 150 79 1600 000/00 RMK AO2 T02720233 PNO
63870K0J4 0J420160801182511208/01/16 18:25:31  5-MIN K0J4 012325Z AUTO 00000KT 10SM CLR 27/23 A3010 150 79 1600 000/00 RMK AO2 T02720233 PNO
63870K0J4 0J420160801183011208/01/16 18:30:31  5-MIN K0J4 012330Z AUTO 00000KT 10SM CLR 27/23 A3010 150 79 1600 000/00 RMK AO2 T02720233 PNO
63870K0J4 0J420160801183511208/01/16 18:35:31  5-MIN K0J4 012335Z AUTO 00000KT 10SM CLR 27/23 A3010 150 79 1600 000/00 RMK AO2 T02720233 PNO
63870K0J4 0J420160801184011208/01/16 18:40:31  5-MIN K0J4 012340Z AUTO 14003KT 10SM CLR 27/23 A3010 150 82 1600 140/03 RMK AO2 T02670233 PNO
63870K0J4 0J420160801184511208/01/16 18:45:31  5-MIN K0J4 012345Z AUTO 14003KT 10SM CLR 27/23 A3009 160 82 1600 140/03 RMK AO2 T02670233 PNO
63870K0J4 0J420160801185011208/01/16 18:50:31  5-MIN K0J4 012350Z AUTO 00000KT 10SM CLR 27/23 A3009 160 82 1600 000/00 RMK AO2 T02670233 PNO
63870K0J4 0J420160801185514308/01/16 18:55:31  5-MIN K0J4 012355Z AUTO 00000KT 10SM CLR 27/24 A3009 160 84 1600 000/00 RMK AO2 SLP185 6//// T02670239 10289 20239 58012 PNO
63870K0J4 0J420160801190011208/01/16 19:00:31  5-MIN K0J4 020000Z AUTO 00000KT 10SM CLR 27/24 A3009 160 84 1600 000/00 RMK AO2 T02670239 PNO
63870K0J4 0J420160801190511208/01/16 19:05:31  5-MIN K0J4 020005Z AUTO 17003KT 10SM CLR 26/24 A3009 160 87 1500 170/03 RMK AO2 T02610239 PNO
63870K0J4 0J420160801191011208/01/16 19:10:31  5-MIN K0J4 020010Z AUTO 00000KT 10SM CLR 26/24 A3010 150 87 1500 000/00 RMK AO2 T02610239 PNO
63870K0J4 0J420160801191511208/01/16 19:15:31  5-MIN K0J4 020015Z AUTO 00000KT 10SM CLR 26/24 A3010 150 87 1500 000/00 RMK AO2 T02610239 PNO
63870K0J4 0J420160801192011208/01/16 19:20:31  5-MIN K0J4 020020Z AUTO 18003KT 10SM CLR 26/24 A3010 150 87 1500 180/03 RMK AO2 T02610239 PNO
63870K0J4 0J420160801192511208/01/16 19:25:31  5-MIN K0J4 020025Z AUTO 00000KT 10SM CLR 26/24 A3010 150 87 1500 000/00 RMK AO2 T02610239 PNO
63870K0J4 0J420160801193011208/01/16 19:30:31  5-MIN K0J4 020030Z AUTO 18003KT 10SM CLR 26/24 A3010 150 90 1500 180/03 RMK AO2 T02560239 PNO
63870K0J4 0J420160801193511208/01/16 19:35:31  5-MIN K0J4 020035Z AUTO 16004KT 10SM CLR 26/24 A3009 160 90 1500 160/04 RMK AO2 T02560239 PNO
63870K0J4 0J420160801194011208/01/16 19:40:31  5-MIN K0J4 020040Z AUTO 18004KT 10SM CLR 26/24 A3009 160 90 1500 180/04 RMK AO2 T02560239 PNO
63870K0J4 0J420160801194511208/01/16 19:45:31  5-MIN K0J4 020045Z AUTO 19004KT 10SM CLR 26/24 A3009 160 90 1500 190/04 RMK AO2 T02560239 PNO
63870K0J4 0J420160801195011208/01/16 19:50:31  5-MIN K0J4 020050Z AUTO 17004KT 10SM CLR 26/24 A3009 160 90 1500 170/04 RMK AO2 T02560239 PNO
63870K0J4 0J420160801195511908/01/16 19:55:31  5-MIN K0J4 020055Z AUTO 16004KT 10SM CLR 26/24 A3009 160 90 1500 160/04 RMK AO2 SLP184 T02560239 PNO
63870K0J4 0J420160801200011208/01/16 20:00:31  5-MIN K0J4 020100Z AUTO 15004KT 10SM CLR 25/24 A3009 160 93 1400 150/04 RMK AO2 T02500239 PNO
63870K0J4 0J420160801200511208/01/16 20:05:31  5-MIN K0J4 020105Z AUTO 15003KT 10SM CLR 25/24 A3009 160 93 1400 150/03 RMK AO2 T02500239 PNO
63870K0J4 0J420160801201011208/01/16 20:10:31  5-MIN K0J4 020110Z AUTO 00000KT 10SM CLR 25/24 A3010 150 93 1400 000/00 RMK AO2 T02500239 PNO
63870K0J4 0J420160801201511208/01/16 20:15:31  5-MIN K0J4 020115Z AUTO 00000KT 10SM CLR 25/24 A3010 150 93 1400 000/00 RMK AO2 T02500239 PNO
63870K0J4 0J420160801202011208/01/16 20:20:31  5-MIN K0J4 020120Z AUTO 00000KT 10SM CLR 25/24 A3010 150 93 1400 000/00 RMK AO2 T02500239 PNO
63870K0J4 0J420160801202511208/01/16 20:25:31  5-MIN K0J4 020125Z AUTO 18003KT 10SM CLR 25/24 A3010 150 93 1400 180/03 RMK AO2 T02500239 PNO
63870K0J4 0J420160801203011208/01/16 20:30:31  5-MIN K0J4 020130Z AUTO 18003KT 10SM CLR 25/24 A3010 150 93 1400 180/03 RMK AO2 T02500239 PNO
63870K0J4 0J420160801203511208/01/16 20:35:31  5-MIN K0J4 020135Z AUTO 16003KT 10SM CLR 25/24 A3010 150 93 1400 160/03 RMK AO2 T02500239 PNO
63870K0J4 0J420160801204011208/01/16 20:40:31  5-MIN K0J4 020140Z AUTO 00000KT 10SM CLR 25/24 A3011 140 93 1400 000/00 RMK AO2 T02500239 PNO
63870K0J4 0J420160801204511208/01/16 20:45:31  5-MIN K0J4 020145Z AUTO 00000KT 10SM CLR 25/24 A3011 140 93 1400 000/00 RMK AO2 T02500239 PNO
63870K0J4 0J420160801205011208/01/16 20:50:31  5-MIN K0J4 020150Z AUTO 00000KT 10SM CLR 25/24 A3011 140 93 1400 000/00 RMK AO2 T02500239 PNO
63870K0J4 0J420160801205511908/01/16 20:55:31  5-MIN K0J4 020155Z AUTO 00000KT 10SM CLR 25/24 A3012 140 93 1400 000/00 RMK AO2 SLP193 T02500239 PNO
63870K0J4 0J420160801210011208/01/16 21:00:31  5-MIN K0J4 020200Z AUTO 00000KT 10SM CLR 25/24 A3012 140 93 1400 000/00 RMK AO2 T02500239 PNO
63870K0J4 0J420160801210511208/01/16 21:05:31  5-MIN K0J4 020205Z AUTO 00000KT 10SM CLR 25/23 A3012 130 90 1400 000/00 RMK AO2 T02500233 PNO
63870K0J4 0J420160801211011208/01/16 21:10:31  5-MIN K0J4 020210Z AUTO 00000KT 10SM CLR 24/23 A3012 130 93 1300 000/00 RMK AO2 T02440233 PNO
63870K0J4 0J420160801211511208/01/16 21:15:31  5-MIN K0J4 020215Z AUTO 16003KT 10SM CLR 24/23 A3012 130 93 1300 160/03 RMK AO2 T02440233 PNO
63870K0J4 0J420160801212011208/01/16 21:20:31  5-MIN K0J4 020220Z AUTO 17003KT 10SM CLR 24/23 A3013 130 93 1300 170/03 RMK AO2 T02440233 PNO
63870K0J4 0J420160801212511208/01/16 21:25:31  5-MIN K0J4 020225Z AUTO 00000KT 10SM CLR 24/23 A3013 120 93 1300 000/00 RMK AO2 T02440233 PNO
63870K0J4 0J420160801213011508/01/16 21:30:31  5-MIN K0J4 020230Z AUTO 17004KT 10SM FEW042 24/23 A3013 120 93 1300 170/04 RMK AO2 T02440233 PNO
63870K0J4 0J420160801213511508/01/16 21:35:31  5-MIN K0J4 020235Z AUTO 19004KT 10SM FEW042 24/23 A3013 120 93 1300 190/04 RMK AO2 T02440233 PNO
63870K0J4 0J420160801214011508/01/16 21:40:31  5-MIN K0J4 020240Z AUTO 20003KT 10SM FEW040 25/23 A3014 120 90 1300 200/03 RMK AO2 T02500233 PNO
63870K0J4 0J420160801214511508/01/16 21:45:31  5-MIN K0J4 020245Z AUTO 21004KT 10SM FEW040 25/23 A3014 120 90 1300 210/04 RMK AO2 T02500233 PNO
63870K0J4 0J420160801215011508/01/16 21:50:31  5-MIN K0J4 020250Z AUTO 22004KT 10SM FEW039 24/23 A3014 120 93 1300 220/04 RMK AO2 T02440233 PNO
63870K0J4 0J420160801215513408/01/16 21:55:31  5-MIN K0J4 020255Z AUTO 22003KT 10SM SCT039 24/23 A3014 120 93 1300 220/03 RMK AO2 SLP200 6//// T02440233 53004 PNO
63870K0J4 0J420160801220011508/01/16 22:00:31  5-MIN K0J4 020300Z AUTO 24003KT 10SM SCT039 24/23 A3014 120 93 1300 240/03 RMK AO2 T02440233 PNO
63870K0J4 0J420160801220511508/01/16 22:05:31  5-MIN K0J4 020305Z AUTO 24003KT 10SM SCT039 24/23 A3014 120 93 1300 240/03 RMK AO2 T02440233 PNO
63870K0J4 0J420160801221011508/01/16 22:10:31  5-MIN K0J4 020310Z AUTO 22003KT 10SM FEW040 24/23 A3014 120 93 1300 220/03 RMK AO2 T02440233 PNO
63870K0J4 0J420160801221511508/01/16 22:15:31  5-MIN K0J4 020315Z AUTO 00000KT 10SM FEW040 24/23 A3014 120 93 1300 000/00 RMK AO2 T02440233 PNO
63870K0J4 0J420160801222011508/01/16 22:20:31  5-MIN K0J4 020320Z AUTO 00000KT 10SM FEW040 24/23 A3014 120 93 1300 000/00 RMK AO2 T02440233 PNO
63870K0J4 0J420160801222511508/01/16 22:25:31  5-MIN K0J4 020325Z AUTO 00000KT 10SM FEW040 24/23 A3014 110 93 1300 000/00 RMK AO2 T02440233 PNO
63870K0J4 0J420160801223011208/01/16 22:30:31  5-MIN K0J4 020330Z AUTO 00000KT 10SM CLR 24/23 A3014 110 93 1300 000/00 RMK AO2 T02440233 PNO
63870K0J4 0J420160801223511208/01/16 22:35:31  5-MIN K0J4 020335Z AUTO 17003KT 10SM CLR 24/23 A3014 110 90 1300 170/03 RMK AO2 T02440228 PNO
63870K0J4 0J420160801224011208/01/16 22:40:31  5-MIN K0J4 020340Z AUTO 18004KT 10SM CLR 24/23 A3014 110 90 1300 180/04 RMK AO2 T02440228 PNO
63870K0J4 0J420160801224511208/01/16 22:45:31  5-MIN K0J4 020345Z AUTO 19004KT 10SM CLR 24/23 A3014 110 90 1300 190/04 RMK AO2 T02440228 PNO
63870K0J4 0J420160801225011208/01/16 22:50:31  5-MIN K0J4 020350Z AUTO 18003KT 10SM CLR 24/23 A3014 120 90 1300 180/03 RMK AO2 T02440228 PNO
63870K0J4 0J420160801225511908/01/16 22:55:31  5-MIN K0J4 020355Z AUTO 18003KT 10SM CLR 24/23 A3014 120 90 1300 180/03 RMK AO2 SLP201 T02440228 PNO
63870K0J4 0J420160801230011208/01/16 23:00:31  5-MIN K0J4 020400Z AUTO 18003KT 10SM CLR 24/23 A3014 120 90 1300 180/03 RMK AO2 T02440228 PNO
63870K0J4 0J420160801230511208/01/16 23:05:31  5-MIN K0J4 020405Z AUTO 18003KT 10SM CLR 24/23 A3014 120 90 1300 180/03 RMK AO2 T02440228 PNO
63870K0J4 0J420160801231011208/01/16 23:10:31  5-MIN K0J4 020410Z AUTO 00000KT 10SM CLR 24/23 A3013 120 90 1300 000/00 RMK AO2 T02440228 PNO
63870K0J4 0J420160801231511208/01/16 23:15:31  5-MIN K0J4 020415Z AUTO 00000KT 10SM CLR 24/23 A3013 120 90 1300 000/00 RMK AO2 T02440228 PNO
63870K0J4 0J420160801232011208/01/16 23:20:31  5-MIN K0J4 020420Z AUTO 17003KT 10SM CLR 24/23 A3013 130 90 1300 170/03 RMK AO2 T02440228 PNO
63870K0J4 0J420160801232511208/01/16 23:25:31  5-MIN K0J4 020425Z AUTO 00000KT 10SM CLR 24/23 A3013 130 93 1200 000/00 RMK AO2 T02390228 PNO
63870K0J4 0J420160801233011208/01/16 23:30:31  5-MIN K0J4 020430Z AUTO 00000KT 10SM CLR 24/23 A3012 130 93 1200 000/00 RMK AO2 T02390228 PNO
63870K0J4 0J420160801233511208/01/16 23:35:31  5-MIN K0J4 020435Z AUTO 00000KT 10SM CLR 24/23 A3012 130 93 1200 000/00 RMK AO2 T02390228 PNO
63870K0J4 0J420160801234011208/01/16 23:40:31  5-MIN K0J4 020440Z AUTO 00000KT 10SM CLR 24/23 A3012 130 93 1200 000/00 RMK AO2 T02390228 PNO
63870K0J4 0J420160801234511208/01/16 23:45:31  5-MIN K0J4 020445Z AUTO 00000KT 10SM CLR 24/23 A3012 130 93 1200 000/00 RMK AO2 T02390228 PNO
63870K0J4 0J420160801235011208/01/16 23:50:31  5-MIN K0J4 020450Z AUTO 17003KT 10SM CLR 24/23 A3011 140 93 1200 170/03 RMK AO2 T02390228 PNO
63870K0J4 0J420160801235512908/01/16 23:55:31  5-MIN K0J4 020455Z AUTO 18003KT 10SM CLR 24/23 A3011 140 93 1200 180/03 RMK AO2 SLP192 T02390228 403170211 PNO
63870K0J4 0J420160802000011208/02/16 00:00:31  5-MIN K0J4 020500Z AUTO 00000KT 10SM CLR 24/23 A3011 140 93 1200 000/00 RMK AO2 T02390228 PNO
63870K0J4 0J420160802000511208/02/16 00:05:31  5-MIN K0J4 020505Z AUTO 00000KT 10SM CLR 24/23 A3011 140 93 1200 000/00 RMK AO2 T02390228 PNO
63870K0J4 0J420160802001011208/02/16 00:10:31  5-MIN K0J4 020510Z AUTO 00000KT 10SM CLR 24/23 A3011 140 93 1200 000/00 RMK AO2 T02390228 PNO
63870K0J4 0J420160802001511208/02/16 00:15:31  5-MIN K0J4 020515Z AUTO 00000KT 10SM CLR 24/23 A3011 140 93 1200 000/00 RMK AO2 T02390228 PNO
63870K0J4 0J420160802002011208/02/16 00:20:31  5-MIN K0J4 020520Z AUTO 20003KT 10SM CLR 24/23 A3011 140 93 1200 200/03 RMK AO2 T02390228 PNO
63870K0J4 0J420160802002511208/02/16 00:25:31  5-MIN K0J4 020525Z AUTO 00000KT 10SM CLR 24/23 A3011 140 93 1200 000/00 RMK AO2 T02390228 PNO
63870K0J4 0J420160802003011208/02/16 00:30:31  5-MIN K0J4 020530Z AUTO 00000KT 10SM CLR 24/23 A3011 140 93 1200 000/00 RMK AO2 T02390228 PNO
63870K0J4 0J420160802003511208/02/16 00:35:31  5-MIN K0J4 020535Z AUTO 00000KT 10SM CLR 24/23 A3011 140 93 1200 000/00 RMK AO2 T02390228 PNO
63870K0J4 0J420160802004011208/02/16 00:40:31  5-MIN K0J4 020540Z AUTO 00000KT 10SM CLR 24/23 A3011 140 93 1200 000/00 RMK AO2 T02390228 PNO
63870K0J4 0J420160802004511208/02/16 00:45:31  5-MIN K0J4 020545Z AUTO 00000KT 10SM CLR 24/23 A3011 150 93 1300 000/00 RMK AO2 T02390228 PNO
63870K0J4 0J420160802005011208/02/16 00:50:31  5-MIN K0J4 020550Z AUTO 00000KT 10SM CLR 24/23 A3010 150 93 1300 000/00 RMK AO2 T02390228 PNO
63870K0J4 0J420160802005514308/02/16 00:55:31  5-MIN K0J4 020555Z AUTO 00000KT 10SM CLR 24/23 A3010 150 93 1300 000/00 RMK AO2 SLP189 6//// T02390228 10267 20239 53015 PNO
63870K0J4 0J420160802010011208/02/16 01:00:31  5-MIN K0J4 020600Z AUTO 00000KT 10SM CLR 24/23 A3010 150 93 1300 000/00 RMK AO2 T02390228 PNO
63870K0J4 0J420160802010511208/02/16 01:05:31  5-MIN K0J4 020605Z AUTO 19003KT 10SM CLR 24/23 A3010 150 93 1300 190/03 RMK AO2 T02390228 PNO
63870K0J4 0J420160802011011208/02/16 01:10:31  5-MIN K0J4 020610Z AUTO 00000KT 10SM CLR 24/23 A3010 150 93 1300 000/00 RMK AO2 T02390228 PNO
63870K0J4 0J420160802011511208/02/16 01:15:31  5-MIN K0J4 020615Z AUTO 00000KT 10SM CLR 24/23 A3010 150 93 1300 000/00 RMK AO2 T02390228 PNO
63870K0J4 0J420160802012011208/02/16 01:20:31  5-MIN K0J4 020620Z AUTO 00000KT 10SM CLR 24/23 A3010 150 93 1300 000/00 RMK AO2 T02390228 PNO
63870K0J4 0J420160802012511208/02/16 01:25:31  5-MIN K0J4 020625Z AUTO 20003KT 10SM CLR 24/23 A3010 150 93 1300 200/03 RMK AO2 T02390228 PNO
63870K0J4 0J420160802013011208/02/16 01:30:31  5-MIN K0J4 020630Z AUTO 00000KT 10SM CLR 24/23 A3010 150 93 1300 000/00 RMK AO2 T02390228 PNO
63870K0J4 0J420160802013511208/02/16 01:35:31  5-MIN K0J4 020635Z AUTO 00000KT 10SM CLR 24/23 A3010 150 93 1300 000/00 RMK AO2 T02390228 PNO
63870K0J4 0J420160802014011208/02/16 01:40:31  5-MIN K0J4 020640Z AUTO 00000KT 10SM CLR 24/23 A3010 150 93 1300 000/00 RMK AO2 T02390228 PNO
63870K0J4 0J420160802014511208/02/16 01:45:31  5-MIN K0J4 020645Z AUTO 00000KT 10SM CLR 24/23 A3010 150 93 1300 000/00 RMK AO2 T02390228 PNO
63870K0J4 0J420160802015011208/02/16 01:50:31  5-MIN K0J4 020650Z AUTO 00000KT 10SM CLR 24/23 A3010 150 93 1300 000/00 RMK AO2 T02390228 PNO
63870K0J4 0J420160802015511908/02/16 01:55:31  5-MIN K0J4 020655Z AUTO 00000KT 10SM CLR 24/23 A3010 150 93 1300 000/00 RMK AO2 SLP188 T02390228 PNO
63870K0J4 0J420160802020011208/02/16 02:00:31  5-MIN K0J4 020700Z AUTO 00000KT 10SM CLR 24/23 A3010 150 93 1300 000/00 RMK AO2 T02390228 PNO
63870K0J4 0J420160802020511208/02/16 02:05:31  5-MIN K0J4 020705Z AUTO 00000KT 10SM CLR 24/23 A3010 150 93 1300 000/00 RMK AO2 T02390228 PNO
63870K0J4 0J420160802021011208/02/16 02:10:31  5-MIN K0J4 020710Z AUTO 00000KT 10SM CLR 24/23 A3010 150 93 1300 000/00 RMK AO2 T02390228 PNO
63870K0J4 0J420160802021511208/02/16 02:15:31  5-MIN K0J4 020715Z AUTO 00000KT 10SM CLR 24/23 A3010 150 93 1300 000/00 RMK AO2 T02390228 PNO
63870K0J4 0J420160802022011208/02/16 02:20:31  5-MIN K0J4 020720Z AUTO 00000KT 10SM CLR 24/23 A3010 150 93 1300 000/00 RMK AO2 T02390228 PNO
63870K0J4 0J420160802022511208/02/16 02:25:31  5-MIN K0J4 020725Z AUTO 00000KT 10SM CLR 23/23 A3010 150 97 1200 000/00 RMK AO2 T02330228 PNO
63870K0J4 0J420160802023011208/02/16 02:30:31  5-MIN K0J4 020730Z AUTO 00000KT 10SM CLR 23/22 A3010 150 93 1200 000/00 RMK AO2 T02330222 PNO
63870K0J4 0J420160802023511208/02/16 02:35:31  5-MIN K0J4 020735Z AUTO 00000KT 10SM CLR 23/22 A3010 150 93 1200 000/00 RMK AO2 T02330222 PNO
63870K0J4 0J420160802024011208/02/16 02:40:31  5-MIN K0J4 020740Z AUTO 00000KT 10SM CLR 23/22 A3010 150 93 1200 000/00 RMK AO2 T02330222 PNO
63870K0J4 0J420160802024511208/02/16 02:45:31  5-MIN K0J4 020745Z AUTO 00000KT 10SM CLR 23/22 A3010 150 93 1200 000/00 RMK AO2 T02330222 PNO
63870K0J4 0J420160802025011208/02/16 02:50:31  5-MIN K0J4 020750Z AUTO 00000KT 10SM CLR 23/23 A3010 150 97 1200 000/00 RMK AO2 T02330228 PNO
63870K0J4 0J420160802025511908/02/16 02:55:31  5-MIN K0J4 020755Z AUTO 00000KT 10SM CLR 24/23 A3010 150 93 1300 000/00 RMK AO2 SLP187 T02390228 PNO
63870K0J4 0J420160802030011208/02/16 03:00:31  5-MIN K0J4 020800Z AUTO 00000KT 10SM CLR 24/23 A3009 160 93 1300 000/00 RMK AO2 T02390228 PNO
63870K0J4 0J420160802030511208/02/16 03:05:31  5-MIN K0J4 020805Z AUTO 00000KT 10SM CLR 24/23 A3009 160 93 1300 000/00 RMK AO2 T02390228 PNO
63870K0J4 0J420160802031011208/02/16 03:10:31  5-MIN K0J4 020810Z AUTO 00000KT 10SM CLR 24/23 A3009 160 93 1300 000/00 RMK AO2 T02390228 PNO
63870K0J4 0J420160802031511208/02/16 03:15:31  5-MIN K0J4 020815Z AUTO 00000KT 10SM CLR 24/23 A3009 160 93 1300 000/00 RMK AO2 T02390228 PNO
63870K0J4 0J420160802032011208/02/16 03:20:31  5-MIN K0J4 020820Z AUTO 21003KT 10SM CLR 23/23 A3009 160 97 1200 210/03 RMK AO2 T02330228 PNO
63870K0J4 0J420160802032511208/02/16 03:25:31  5-MIN K0J4 020825Z AUTO 00000KT 10SM CLR 24/23 A3009 160 93 1300 000/00 RMK AO2 T02390228 PNO
63870K0J4 0J420160802033011208/02/16 03:30:31  5-MIN K0J4 020830Z AUTO 00000KT 10SM CLR 24/23 A3009 160 93 1300 000/00 RMK AO2 T02390228 PNO
63870K0J4 0J420160802033511208/02/16 03:35:31  5-MIN K0J4 020835Z AUTO 00000KT 10SM CLR 24/23 A3009 160 93 1300 000/00 RMK AO2 T02390228 PNO
63870K0J4 0J420160802034011208/02/16 03:40:31  5-MIN K0J4 020840Z AUTO 00000KT 10SM CLR 23/23 A3009 160 97 1200 000/00 RMK AO2 T02330228 PNO
63870K0J4 0J420160802034511208/02/16 03:45:31  5-MIN K0J4 020845Z AUTO 00000KT 10SM CLR 23/22 A3009 160 93 1200 000/00 RMK AO2 T02330222 PNO
63870K0J4 0J420160802035011208/02/16 03:50:31  5-MIN K0J4 020850Z AUTO 00000KT 10SM CLR 23/23 A3009 160 97 1200 000/00 RMK AO2 T02330228 PNO
63870K0J4 0J420160802035513108/02/16 03:55:31  5-MIN K0J4 020855Z AUTO 00000KT 10SM CLR 23/22 A3009 160 93 1200 000/00 RMK AO2 SLP185 6//// T02330222 58012 PNO
63870K0J4 0J420160802040011208/02/16 04:00:31  5-MIN K0J4 020900Z AUTO 00000KT 10SM CLR 23/22 A3009 160 93 1200 000/00 RMK AO2 T02330222 PNO
63870K0J4 0J420160802040511208/02/16 04:05:31  5-MIN K0J4 020905Z AUTO 00000KT 10SM CLR 23/22 A3010 150 93 1200 000/00 RMK AO2 T02330222 PNO
63870K0J4 0J420160802041011208/02/16 04:10:31  5-MIN K0J4 020910Z AUTO 00000KT 10SM CLR 23/22 A3010 150 93 1200 000/00 RMK AO2 T02330222 PNO
63870K0J4 0J420160802041511208/02/16 04:15:31  5-MIN K0J4 020915Z AUTO 00000KT 10SM CLR 23/22 A3010 150 93 1200 000/00 RMK AO2 T02330222 PNO
63870K0J4 0J420160802042011208/02/16 04:20:31  5-MIN K0J4 020920Z AUTO 00000KT 10SM CLR 23/22 A3010 150 93 1200 000/00 RMK AO2 T02330222 PNO
63870K0J4 0J420160802042511208/02/16 04:25:31  5-MIN K0J4 020925Z AUTO 00000KT 10SM CLR 23/22 A3011 140 93 1200 000/00 RMK AO2 T02330222 PNO
63870K0J4 0J420160802043011208/02/16 04:30:31  5-MIN K0J4 020930Z AUTO 00000KT 10SM CLR 23/22 A3011 140 93 1200 000/00 RMK AO2 T02330222 PNO
63870K0J4 0J420160802043511508/02/16 04:35:31  5-MIN K0J4 020935Z AUTO 00000KT 10SM FEW020 23/23 A3011 140 97 1200 000/00 RMK AO2 T02330228 PNO
63870K0J4 0J420160802044011508/02/16 04:40:31  5-MIN K0J4 020940Z AUTO 00000KT 10SM FEW020 24/23 A3011 140 93 1300 000/00 RMK AO2 T02390228 PNO
63870K0J4 0J420160802044511508/02/16 04:45:31  5-MIN K0J4 020945Z AUTO 00000KT 10SM FEW020 24/23 A3011 140 93 1200 000/00 RMK AO2 T02390228 PNO
63870K0J4 0J420160802045011508/02/16 04:50:31  5-MIN K0J4 020950Z AUTO 00000KT 10SM SCT020 24/23 A3011 140 93 1200 000/00 RMK AO2 T02390228 PNO
63870K0J4 0J420160802045512208/02/16 04:55:31  5-MIN K0J4 020955Z AUTO 33003KT 10SM BKN019 24/23 A3011 140 93 1200 330/03 RMK AO2 SLP192 T02390228 PNO
63870K0J4 0J420160802050011508/02/16 05:00:31  5-MIN K0J4 021000Z AUTO 00000KT 10SM BKN021 24/23 A3011 140 93 1200 000/00 RMK AO2 T02390228 PNO
63870K0J4 0J420160802050511508/02/16 05:05:31  5-MIN K0J4 021005Z AUTO 00000KT 10SM BKN021 24/23 A3012 140 93 1200 000/00 RMK AO2 T02390228 PNO
63870K0J4 0J420160802051011508/02/16 05:10:31  5-MIN K0J4 021010Z AUTO 00000KT 10SM BKN021 23/23 A3012 140 97 1200 000/00 RMK AO2 T02330228 PNO
63870K0J4 0J420160802051512108/02/16 05:15:31  5-MIN K0J4 021015Z AUTO 00000KT 9SM BKN021 OVC026 23/22 A3012 140 93 1200 000/00 RMK AO2 T02330222 PNO
63870K0J4 0J420160802052012208/02/16 05:20:31  5-MIN K0J4 021020Z AUTO 00000KT 10SM BKN021 OVC026 23/22 A3012 140 93 1200 000/00 RMK AO2 T02330222 PNO
63870K0J4 0J420160802052512208/02/16 05:25:31  5-MIN K0J4 021025Z AUTO 00000KT 10SM BKN021 BKN029 23/22 A3012 140 93 1200 000/00 RMK AO2 T02330222 PNO
63870K0J4 0J420160802053012208/02/16 05:30:31  5-MIN K0J4 021030Z AUTO 00000KT 10SM BKN024 BKN029 23/22 A3012 130 93 1200 000/00 RMK AO2 T02330222 PNO
63870K0J4 0J420160802053512208/02/16 05:35:31  5-MIN K0J4 021035Z AUTO 00000KT 10SM BKN022 BKN029 23/22 A3012 130 93 1200 000/00 RMK AO2 T02330222 PNO
63870K0J4 0J420160802054012208/02/16 05:40:31  5-MIN K0J4 021040Z AUTO 00000KT 10SM SCT020 BKN026 23/22 A3012 130 93 1200 000/00 RMK AO2 T02330222 PNO
63870K0J4 0J420160802054512208/02/16 05:45:31  5-MIN K0J4 021045Z AUTO 00000KT 10SM BKN020 BKN028 23/22 A3012 140 93 1200 000/00 RMK AO2 T02330222 PNO
63870K0J4 0J420160802055012208/02/16 05:50:31  5-MIN K0J4 021050Z AUTO 00000KT 10SM SCT020 BKN028 23/22 A3012 130 93 1200 000/00 RMK AO2 T02330222 PNO
63870K0J4 0J420160802055512208/02/16 05:55:31  5-MIN K0J4 021055Z AUTO 00000KT 10SM BKN020 23/22 A3012 130 93 1200 000/00 RMK AO2 SLP195 T02330222 PNO
63870K0J4 0J420160802060012908/02/16 06:00:31  5-MIN K0J4 021100Z AUTO 00000KT 10SM BKN020 BKN025 BKN031 23/23 A3012 130 97 1200 000/00 RMK AO2 T02330228 PNO
63870K0J4 0J420160802060512208/02/16 06:05:31  5-MIN K0J4 021105Z AUTO 00000KT 10SM BKN022 BKN031 23/23 A3012 130 97 1200 000/00 RMK AO2 T02330228 PNO
63870K0J4 0J420160802061012108/02/16 06:10:31  5-MIN K0J4 021110Z AUTO 00000KT 9SM BKN022 BKN031 23/23 A3012 130 97 1200 000/00 RMK AO2 T02330228 PNO
63870K0J4 0J420160802061512808/02/16 06:15:31  5-MIN K0J4 021115Z AUTO 00000KT 9SM BKN022 BKN027 BKN032 24/23 A3012 130 93 1200 000/00 RMK AO2 T02390228 PNO
63870K0J4 0J420160802062012208/02/16 06:20:31  5-MIN K0J4 021120Z AUTO 00000KT 10SM BKN022 OVC030 24/23 A3012 140 93 1200 000/00 RMK AO2 T02390228 PNO
63870K0J4 0J420160802062512208/02/16 06:25:31  5-MIN K0J4 021125Z AUTO 00000KT 10SM BKN022 OVC030 24/23 A3011 140 93 1200 000/00 RMK AO2 T02390228 PNO
63870K0J4 0J420160802063012208/02/16 06:30:31  5-MIN K0J4 021130Z AUTO 00000KT 10SM SCT022 BKN030 24/23 A3011 140 93 1200 000/00 RMK AO2 T02390228 PNO
63870K0J4 0J420160802063512208/02/16 06:35:31  5-MIN K0J4 021135Z AUTO 00000KT 10SM SCT022 BKN030 24/23 A3011 140 93 1200 000/00 RMK AO2 T02390228 PNO
63870K0J4 0J420160802064012208/02/16 06:40:31  5-MIN K0J4 021140Z AUTO 00000KT 10SM FEW022 SCT030 24/23 A3011 140 93 1200 000/00 RMK AO2 T02390228 PNO
63870K0J4 0J420160802064512208/02/16 06:45:31  5-MIN K0J4 021145Z AUTO 00000KT 10SM FEW022 FEW030 24/23 A3012 140 93 1200 000/00 RMK AO2 T02390228 PNO
63870K0J4 0J420160802065011508/02/16 06:50:31  5-MIN K0J4 021150Z AUTO 00000KT 10SM FEW030 24/23 A3012 140 93 1200 000/00 RMK AO2 T02390228 PNO
63870K0J4 0J420160802065514908/02/16 06:55:31  5-MIN K0J4 021155Z AUTO 00000KT 10SM CLR 24/23 A3012 130 93 1200 000/00 RMK AO2 SLP194 6//// 7//// T02390228 10239 20233 56003 PNO
63870K0J4 0J420160802070011208/02/16 07:00:31  5-MIN K0J4 021200Z AUTO 00000KT 10SM CLR 24/23 A3012 130 93 1200 000/00 RMK AO2 T02390228 PNO
63870K0J4 0J420160802070511508/02/16 07:05:31  5-MIN K0J4 021205Z AUTO 00000KT 10SM TS CLR 24/23 A3012 130 93 1300 000/00 RMK AO2 T02440233 PNO
63870K0J4 0J420160802071012608/02/16 07:10:31  5-MIN K0J4 021210Z AUTO 00000KT 10SM VCTS FEW045 24/23 A3012 130 93 1300 000/00 RMK AO2 TSE10 T02440233 PNO
63870K0J4 0J420160802071512608/02/16 07:15:31  5-MIN K0J4 021215Z AUTO 00000KT 10SM VCTS SCT045 24/23 A3013 130 93 1300 000/00 RMK AO2 TSE10 T02440233 PNO
63870K0J4 0J420160802072012108/02/16 07:20:31  5-MIN K0J4 021220Z AUTO 16004KT 10SM BKN043 24/23 A3013 120 93 1300 160/04 RMK AO2 TSE10 T02440233 PNO
63870K0J4 0J420160802072512108/02/16 07:25:31  5-MIN K0J4 021225Z AUTO 15003KT 10SM BKN043 24/23 A3013 120 93 1300 150/03 RMK AO2 TSE10 T02440233 PNO
63870K0J4 0J420160802073012808/02/16 07:30:31  5-MIN K0J4 021230Z AUTO 00000KT 10SM BKN043 BKN050 24/23 A3014 120 93 1300 000/00 RMK AO2 TSE10 T02440233 PNO
63870K0J4 0J420160802073512808/02/16 07:35:31  5-MIN K0J4 021235Z AUTO 00000KT 10SM BKN043 OVC055 24/23 A3014 120 93 1300 000/00 RMK AO2 TSE10 T02440233 PNO
63870K0J4 0J420160802074013508/02/16 07:40:31  5-MIN K0J4 021240Z AUTO 20004KT 10SM BKN043 BKN050 OVC060 25/23 A3014 120 90 1300 200/04 RMK AO2 TSE10 T02500233 PNO
63870K0J4 0J420160802074513508/02/16 07:45:31  5-MIN K0J4 021245Z AUTO 21005KT 10SM FEW022 BKN041 BKN050 25/24 A3014 120 93 1300 210/05 RMK AO2 TSE10 T02500239 PNO
63870K0J4 0J420160802075013508/02/16 07:50:31  5-MIN K0J4 021250Z AUTO 20004KT 10SM SCT024 BKN041 BKN050 25/24 A3014 120 93 1300 200/04 RMK AO2 TSE10 T02500239 PNO
63870K0J4 0J420160802075514208/02/16 07:55:31  5-MIN K0J4 021255Z AUTO 20004KT 10SM SCT022 BKN041 BKN050 26/24 A3014 110 90 1400 200/04 RMK AO2 TSE10 SLP201 T02560239 PNO
63870K0J4 0J420160802080012908/02/16 08:00:31  5-MIN K0J4 021300Z AUTO 19005KT 10SM BKN020 BKN047 BKN060 26/24 A3014 110 90 1400 190/05 RMK AO2 T02560239 PNO
63870K0J4 0J420160802080512208/02/16 08:05:31  5-MIN K0J4 021305Z AUTO 18004KT 10SM BKN020 BKN060 26/23 A3014 110 87 1400 180/04 RMK AO2 T02560233 PNO
63870K0J4 0J420160802081011508/02/16 08:10:31  5-MIN K0J4 021310Z AUTO 20003KT 10SM BKN021 26/23 A3014 110 87 1400 200/03 RMK AO2 T02560233 PNO
63870K0J4 0J420160802081511508/02/16 08:15:31  5-MIN K0J4 021315Z AUTO 20003KT 10SM SCT021 26/23 A3014 120 84 1500 200/03 RMK AO2 T02610233 PNO
63870K0J4 0J420160802082011508/02/16 08:20:31  5-MIN K0J4 021320Z AUTO 00000KT 10SM SCT021 27/23 A3014 120 82 1500 000/00 RMK AO2 T02670233 PNO
63870K0J4 0J420160802082511508/02/16 08:25:31  5-MIN K0J4 021325Z AUTO 17003KT 10SM FEW019 27/24 A3013 120 84 1500 170/03 RMK AO2 T02670239 PNO
63870K0J4 0J420160802083011508/02/16 08:30:31  5-MIN K0J4 021330Z AUTO 20003KT 10SM FEW019 27/23 A3013 120 82 1500 200/03 RMK AO2 T02670233 PNO
63870K0J4 0J420160802083511508/02/16 08:35:31  5-MIN K0J4 021335Z AUTO 18003KT 10SM SCT017 27/23 A3013 120 82 1500 180/03 RMK AO2 T02670233 PNO
63870K0J4 0J420160802084011508/02/16 08:40:31  5-MIN K0J4 021340Z AUTO 20005KT 10SM SCT017 27/23 A3013 120 82 1500 200/05 RMK AO2 T02670233 PNO
63870K0J4 0J420160802084511508/02/16 08:45:31  5-MIN K0J4 021345Z AUTO 17004KT 10SM BKN017 27/23 A3014 120 82 1500 170/04 RMK AO2 T02670233 PNO
63870K0J4 0J420160802085012208/02/16 08:50:31  5-MIN K0J4 021350Z AUTO 16003KT 10SM BKN017 BKN022 27/23 A3014 120 82 1500 160/03 RMK AO2 T02670233 PNO
63870K0J4 0J420160802085512908/02/16 08:55:31  5-MIN K0J4 021355Z AUTO 00000KT 10SM BKN017 BKN026 27/23 A3013 120 79 1500 000/00 RMK AO2 SLP199 T02670228 PNO
63870K0J4 0J420160802090012908/02/16 09:00:31  5-MIN K0J4 021400Z AUTO 20003KT 10SM BKN017 BKN026 OVC040 27/23 A3013 120 79 1600 200/03 RMK AO2 T02720233 PNO
63870K0J4 0J420160802090512908/02/16 09:05:31  5-MIN K0J4 021405Z AUTO 21004KT 10SM SCT018 BKN023 OVC040 27/23 A3014 120 79 1500 210/04 RMK AO2 T02670228 PNO
63870K0J4 0J420160802091012908/02/16 09:10:31  5-MIN K0J4 021410Z AUTO 18003KT 10SM SCT018 BKN023 OVC041 27/23 A3014 120 79 1500 180/03 RMK AO2 T02670228 PNO
63870K0J4 0J420160802091513108/02/16 09:15:31  5-MIN K0J4 021415Z AUTO 00000KT 3SM HZ BKN016 BKN023 OVC041 27/23 A3014 110 82 1500 000/00 RMK AO2 T02670233 PNO
63870K0J4 0J420160802092014208/02/16 09:20:31  5-MIN K0J4 021420Z AUTO 11003KT 1 3/4SM +RA BKN016 BKN025 OVC041 27/24 A3014 120 84 1500 110/03 RMK AO2 RAB16 T02670239 PNO
63870K0J4 0J420160802092514508/02/16 09:25:31  5-MIN K0J4 021425Z AUTO 00000KT 2 1/2SM -RA BR BKN016 BKN026 OVC041 26/24 A3014 120 90 1500 000/00 RMK AO2 RAB16 T02610244 PNO
63870K0J4 0J420160802093013208/02/16 09:30:31  5-MIN K0J4 021430Z AUTO 00000KT 10SM -RA BKN016 BKN039 26/24 A3014 120 87 1500 000/00 RMK AO2 RAB16 T02610239 PNO
63870K0J4 0J420160802093513108/02/16 09:35:31  5-MIN K0J4 021435Z AUTO 22003KT 10SM BKN016 OVC032 26/24 A3014 120 90 1500 220/03 RMK AO2 RAB16E34 T02610244 PNO
63870K0J4 0J420160802094012408/02/16 09:40:31  5-MIN K0J4 021440Z AUTO 16003KT 10SM BKN016 26/24 A3014 120 90 1500 160/03 RMK AO2 RAB16E34 T02610244 PNO
63870K0J4 0J420160802094512908/02/16 09:45:31  5-MIN K0J4 021445Z AUTO 15003KT 10SM VCTS BKN016 26/24 A3013 120 90 1500 150/03 RMK AO2 RAB16E34 T02610244 PNO
63870K0J4 0J420160802095013608/02/16 09:50:31  5-MIN K0J4 021450Z AUTO 00000KT 10SM VCTS SCT016 SCT026 26/24 A3013 120 90 1500 000/00 RMK AO2 RAB16E34 T02610244 PNO
63870K0J4 0J420160802095514808/02/16 09:55:31  5-MIN K0J4 021455Z AUTO 00000KT 10SM VCTS FEW016 26/24 A3014 120 90 1500 000/00 RMK AO2 RAB16E34 SLP200 6//// T02610244 51009 PNO
63870K0J4 0J420160802100011508/02/16 10:00:31  5-MIN K0J4 021500Z AUTO 17003KT 10SM FEW016 26/24 A3013 120 90 1500 170/03 RMK AO2 T02610244 PNO
63870K0J4 0J420160802100511508/02/16 10:05:31  5-MIN K0J4 021505Z AUTO 21004KT 10SM FEW016 26/24 A3014 110 90 1500 210/04 RMK AO2 T02610244 PNO
63870K0J4 0J420160802101011208/02/16 10:10:31  5-MIN K0J4 021510Z AUTO 20004KT 10SM CLR 26/24 A3014 110 87 1500 200/04 RMK AO2 T02610239 PNO
63870K0J4 0J420160802101511508/02/16 10:15:31  5-MIN K0J4 021515Z AUTO 18003KT 10SM FEW020 26/23 A3015 110 84 1500 180/03 RMK AO2 T02610233 PNO
63870K0J4 0J420160802102011508/02/16 10:20:31  5-MIN K0J4 021520Z AUTO 18003KT 10SM SCT020 26/24 A3015 110 87 1500 180/03 RMK AO2 T02610239 PNO
63870K0J4 0J420160802102511508/02/16 10:25:31  5-MIN K0J4 021525Z AUTO 21003KT 10SM BKN019 26/24 A3015 100 87 1500 210/03 RMK AO2 T02610239 PNO
63870K0J4 0J420160802103011508/02/16 10:30:31  5-MIN K0J4 021530Z AUTO 21005KT 10SM BKN019 27/24 A3015 100 87 1500 210/05 RMK AO2 T02670244 PNO
63870K0J4 0J420160802103511508/02/16 10:35:31  5-MIN K0J4 021535Z AUTO 22010KT 10SM BKN019 27/24 A3015 100 87 1500 220/10 RMK AO2 T02670244 PNO
63870K0J4 0J420160802104012208/02/16 10:40:31  5-MIN K0J4 021540Z AUTO 21012KT 10SM FEW008 OVC019 26/24 A3015 100 87 1400 210/12 RMK AO2 T02610239 PNO
63870K0J4 0J420160802104512908/02/16 10:45:31  5-MIN K0J4 021545Z AUTO 20013KT 10SM SCT008 SCT012 OVC018 26/24 A3016 100 87 1400 200/13 RMK AO2 T02610239 PNO
63870K0J4 0J420160802105012208/02/16 10:50:31  5-MIN K0J4 021550Z AUTO 20011KT 10SM FEW008 OVC018 27/24 A3016 100 84 1500 200/11 RMK AO2 T02670239 PNO
63870K0J4 0J420160802105513608/02/16 10:55:31  5-MIN K0J4 021555Z AUTO 19013KT 10SM FEW008 SCT014 BKN018 27/23 A3016 100 82 1500 190/13 RMK AO2 SLP208 T02670233 PNO
63870K0J4 0J420160802110012208/02/16 11:00:31  5-MIN K0J4 021600Z AUTO 20013KT 10SM FEW008 BKN016 27/23 A3016 100 82 1500 200/13 RMK AO2 T02670233 PNO
63870K0J4 0J420160802110512208/02/16 11:05:31  5-MIN K0J4 021605Z AUTO 21013KT 10SM FEW008 BKN016 26/23 A3016 100 84 1400 210/13 RMK AO2 T02610233 PNO
63870K0J4 0J420160802111012108/02/16 11:10:31  5-MIN K0J4 021610Z AUTO 22012KT 10SM FEW008 BKN016 26/23 A3016 90 84 1400 220/12 RMK AO2 T02610233 PNO
63870K0J4 0J420160802111511508/02/16 11:15:31  5-MIN K0J4 021615Z AUTO 21013KT 10SM BKN018 27/23 A3016 100 82 1500 210/13 RMK AO2 T02670233 PNO
63870K0J4 0J420160802112011508/02/16 11:20:31  5-MIN K0J4 021620Z AUTO 20012KT 10SM BKN018 27/23 A3016 100 82 1500 200/12 RMK AO2 T02670233 PNO
63870K0J4 0J420160802112512208/02/16 11:25:31  5-MIN K0J4 021625Z AUTO 21014KT 10SM BKN019 OVC027 27/23 A3015 100 82 1500 210/14 RMK AO2 T02670233 PNO
63870K0J4 0J420160802113012208/02/16 11:30:31  5-MIN K0J4 021630Z AUTO 20011KT 10SM BKN019 BKN027 27/23 A3015 100 79 1600 200/11 RMK AO2 T02720233 PNO
63870K0J4 0J420160802113512208/02/16 11:35:31  5-MIN K0J4 021635Z AUTO 21013KT 10SM SCT021 BKN027 28/23 A3015 110 76 1600 210/13 RMK AO2 T02780233 PNO
63870K0J4 0J420160802114012908/02/16 11:40:31  5-MIN K0J4 021640Z AUTO 21012KT 10SM FEW021 BKN027 BKN031 28/23 A3015 100 74 1700 210/12 RMK AO2 T02830233 PNO
63870K0J4 0J420160802114512208/02/16 11:45:31  5-MIN K0J4 021645Z AUTO 21014KT 10SM SCT024 BKN031 28/23 A3015 100 76 1600 210/14 RMK AO2 T02780233 PNO
63870K0J4 0J420160802115013808/02/16 11:50:31  5-MIN K0J4 021650Z AUTO 21012KT 10SM TS SCT026 BKN031 BKN040 27/23 A3014 110 76 1600 210/12 RMK AO2 TSB50 T02720228 PNO
63870K0J4 0J420160802115514508/02/16 11:55:31  5-MIN K0J4 021655Z AUTO 21010KT 10SM TS FEW026 FEW033 BKN040 28/23 A3015 110 76 1600 210/10 RMK AO2 TSB50 SLP204 T02780233 PNO
63870K0J4 0J420160802120013208/02/16 12:00:31  5-MIN K0J4 021700Z AUTO 22009KT 10SM TS FEW026 FEW033 BKN040 28/23 A3014 110 74 1700 220/09 RMK AO2 T02830233 PNO
63870K0J4 0J420160802120513208/02/16 12:05:31  5-MIN K0J4 021705Z AUTO 21010KT 10SM TS FEW026 FEW032 SCT040 28/23 A3014 110 74 1700 210/10 RMK AO2 T02830233 PNO
63870K0J4 0J420160802121013408/02/16 12:10:31  5-MIN K0J4 021710Z AUTO 21008KT 10SM TS FEW028 SCT040 28/23 A3014 110 71 1700 210/08 RMK AO2 TSE07B10 T02830228 PNO
63870K0J4 0J420160802121513008/02/16 12:15:31  5-MIN K0J4 021715Z AUTO 19007KT 10SM TS FEW040 28/23 A3014 110 71 1700 190/07 RMK AO2 TSE07B10B12 T02830228 PNO
63870K0J4 0J420160802122012708/02/16 12:20:31  5-MIN K0J4 021720Z AUTO 18006KT 10SM TS CLR 28/22 A3014 120 71 1700 180/06 RMK AO2 TSE07B10B12 T02780222 PNO
63870K0J4 0J420160802122512708/02/16 12:25:31  5-MIN K0J4 021725Z AUTO 18005KT 10SM TS CLR 28/23 A3014 110 74 1600 180/05 RMK AO2 TSE07B10B12 T02780228 PNO
63870K0J4 0J420160802123012708/02/16 12:30:31  5-MIN K0J4 021730Z AUTO 19003KT 10SM TS CLR 27/22 A3015 110 74 1600 190/03 RMK AO2 TSE07B10B12 T02720222 PNO
63870K0J4 0J420160802123512708/02/16 12:35:31  5-MIN K0J4 021735Z AUTO 00000KT 10SM TS CLR 27/22 A3014 110 74 1600 000/00 RMK AO2 TSE07B10B12 T02720222 PNO
63870K0J4 0J420160802124012708/02/16 12:40:31  5-MIN K0J4 021740Z AUTO 00000KT 10SM TS CLR 27/23 A3014 110 79 1600 000/00 RMK AO2 TSE07B10B12 T02720233 PNO
63870K0J4 0J420160802124512708/02/16 12:45:31  5-MIN K0J4 021745Z AUTO 00000KT 10SM TS CLR 27/23 A3014 110 79 1600 000/00 RMK AO2 TSE07B10B12 T02720233 PNO
63870K0J4 0J420160802125013008/02/16 12:50:31  5-MIN K0J4 021750Z AUTO VRB03KT 10SM TS FEW100 27/23 A3014 110 79 1600 VRB/03 RMK AO2 TSE07B10B12 T02720233 PNO
63870K0J4 0J420160802125512708/02/16 12:55:31  5-MIN K0J4 021755Z AUTO 30003KT 10SM FEW065 SCT100 27/23 A3014 120 82 1500 300/03 RMK AO2 TSE07B10B12E51 PNO
63870K0J4 0J420160802130013408/02/16 13:00:31  5-MIN K0J4 021800Z AUTO VRB03KT 10SM -RA FEW065 SCT100 26/23 A3014 110 84 1500 VRB/03 RMK AO2 RAB1759 T02610233 PNO
63870K0J4 0J420160802130512708/02/16 13:05:31  5-MIN K0J4 021805Z AUTO VRB03KT 10SM -RA FEW100 26/23 A3014 120 87 1400 VRB/03 RMK AO2 RAB1759 T02560233 PNO
63870K0J4 0J420160802131012708/02/16 13:10:31  5-MIN K0J4 021810Z AUTO VRB03KT 10SM -RA FEW100 26/23 A3014 120 87 1400 VRB/03 RMK AO2 RAB1759 T02560233 PNO
63870K0J4 0J420160802131512708/02/16 13:15:31  5-MIN K0J4 021815Z AUTO 00000KT 10SM -RA FEW100 26/23 A3014 110 87 1400 000/00 RMK AO2 RAB1759 T02560233 PNO
63870K0J4 0J420160802132013408/02/16 13:20:31  5-MIN K0J4 021820Z AUTO 00000KT 10SM -RA FEW060 FEW100 26/23 A3014 110 87 1400 000/00 RMK AO2 RAB1759 T02560233 PNO
63870K0J4 0J420160802132513308/02/16 13:25:31  5-MIN K0J4 021825Z AUTO 00000KT 10SM FEW050 SCT100 26/23 A3013 120 87 1400 000/00 RMK AO2 RAB1759E24 T02560233 PNO
63870K0J4 0J420160802133012608/02/16 13:30:31  5-MIN K0J4 021830Z AUTO 00000KT 10SM FEW048 25/23 A3013 120 90 1400 000/00 RMK AO2 RAB1759E24 T02500233 PNO
63870K0J4 0J420160802133512608/02/16 13:35:31  5-MIN K0J4 021835Z AUTO 24003KT 10SM FEW046 25/23 A3013 130 90 1400 240/03 RMK AO2 RAB1759E24 T02500233 PNO
63870K0J4 0J420160802134012608/02/16 13:40:31  5-MIN K0J4 021840Z AUTO 00000KT 10SM FEW048 26/24 A3013 130 90 1400 000/00 RMK AO2 RAB1759E24 T02560239 PNO
63870K0J4 0J420160802134513308/02/16 13:45:31  5-MIN K0J4 021845Z AUTO 00000KT 10SM FEW003 FEW048 26/24 A3012 130 90 1400 000/00 RMK AO2 RAB1759E24 T02560239 PNO
63870K0J4 0J420160802135013308/02/16 13:50:31  5-MIN K0J4 021850Z AUTO 23003KT 10SM FEW003 SCT048 26/24 A3011 140 90 1400 230/03 RMK AO2 RAB1759E24 T02560239 PNO
63870K0J4 0J420160802135514008/02/16 13:55:31  5-MIN K0J4 021855Z AUTO 23004KT 10SM FEW003 26/24 A3011 140 90 1400 230/04 RMK AO2 RAB1759E24 PRESFR SLP190 T02560239 PNO
63870K0J4 0J420160802140011508/02/16 14:00:31  5-MIN K0J4 021900Z AUTO 23003KT 10SM FEW003 26/24 A3010 150 90 1400 230/03 RMK AO2 T02560239 PNO
63870K0J4 0J420160802140511508/02/16 14:05:31  5-MIN K0J4 021905Z AUTO 23004KT 10SM FEW003 26/24 A3010 150 90 1400 230/04 RMK AO2 T02560239 PNO
63870K0J4 0J420160802141011508/02/16 14:10:31  5-MIN K0J4 021910Z AUTO 23004KT 10SM FEW003 26/23 A3010 150 87 1400 230/04 RMK AO2 T02560233 PNO
63870K0J4 0J420160802141511208/02/16 14:15:31  5-MIN K0J4 021915Z AUTO 24004KT 10SM CLR 26/23 A3010 150 87 1400 240/04 RMK AO2 T02560233 PNO
63870K0J4 0J420160802142011208/02/16 14:20:31  5-MIN K0J4 021920Z AUTO VRB05KT 10SM CLR 26/23 A3010 150 84 1500 VRB/05 RMK AO2 T02610233 PNO
63870K0J4 0J420160802142511208/02/16 14:25:31  5-MIN K0J4 021925Z AUTO 23005KT 10SM CLR 26/23 A3010 150 84 1500 230/05 RMK AO2 T02610233 PNO
63870K0J4 0J420160802143011208/02/16 14:30:31  5-MIN K0J4 021930Z AUTO VRB04KT 10SM CLR 26/24 A3010 150 87 1500 VRB/04 RMK AO2 T02610239 PNO
63870K0J4 0J420160802143511508/02/16 14:35:31  5-MIN K0J4 021935Z AUTO VRB04KT 10SM FEW006 26/23 A3009 160 84 1500 VRB/04 RMK AO2 T02610233 PNO
63870K0J4 0J420160802144011508/02/16 14:40:31  5-MIN K0J4 021940Z AUTO VRB04KT 10SM SCT006 26/24 A3009 160 87 1500 VRB/04 RMK AO2 T02610239 PNO
63870K0J4 0J420160802144511508/02/16 14:45:31  5-MIN K0J4 021945Z AUTO VRB04KT 10SM SCT006 26/24 A3009 160 87 1500 VRB/04 RMK AO2 T02610239 PNO
63870K0J4 0J420160802145011508/02/16 14:50:31  5-MIN K0J4 021950Z AUTO 23004KT 10SM SCT007 27/24 A3009 160 84 1600 230/04 RMK AO2 T02670239 PNO
63870K0J4 0J420160802145512208/02/16 14:55:31  5-MIN K0J4 021955Z AUTO 21005KT 10SM SCT007 27/24 A3009 160 84 1600 210/05 RMK AO2 SLP183 T02670239 PNO
63870K0J4 0J420160802150011508/02/16 15:00:31  5-MIN K0J4 022000Z AUTO 20006KT 10SM SCT007 27/24 A3009 160 84 1600 200/06 RMK AO2 T02670239 PNO
63870K0J4 0J420160802150511508/02/16 15:05:31  5-MIN K0J4 022005Z AUTO 23005KT 10SM FEW007 27/23 A3009 160 82 1600 230/05 RMK AO2 T02670233 PNO
63870K0J4 0J420160802151011508/02/16 15:10:31  5-MIN K0J4 022010Z AUTO 22004KT 10SM FEW007 27/23 A3009 160 82 1600 220/04 RMK AO2 T02670233 PNO
63870K0J4 0J420160802151511208/02/16 15:15:31  5-MIN K0J4 022015Z AUTO 00000KT 10SM CLR 27/23 A3009 160 82 1600 000/00 RMK AO2 T02670233 PNO
63870K0J4 0J420160802152011208/02/16 15:20:31  5-MIN K0J4 022020Z AUTO 22005KT 10SM CLR 27/23 A3008 170 79 1700 220/05 RMK AO2 T02720233 PNO
63870K0J4 0J420160802152511208/02/16 15:25:31  5-MIN K0J4 022025Z AUTO 21006KT 10SM CLR 27/23 A3008 170 79 1700 210/06 RMK AO2 T02720233 PNO
63870K0J4 0J420160802153011208/02/16 15:30:31  5-MIN K0J4 022030Z AUTO 23005KT 10SM CLR 27/23 A3008 170 79 1700 230/05 RMK AO2 T02720233 PNO
63870K0J4 0J420160802153511208/02/16 15:35:31  5-MIN K0J4 022035Z AUTO 20004KT 10SM CLR 27/23 A3007 180 79 1700 200/04 RMK AO2 T02720233 PNO
63870K0J4 0J420160802154011208/02/16 15:40:31  5-MIN K0J4 022040Z AUTO 20005KT 10SM CLR 28/23 A3007 180 76 1700 200/05 RMK AO2 T02780233 PNO
63870K0J4 0J420160802154511208/02/16 15:45:31  5-MIN K0J4 022045Z AUTO 23005KT 10SM CLR 28/23 A3007 180 74 1700 230/05 RMK AO2 T02780228 PNO
63870K0J4 0J420160802155011208/02/16 15:50:31  5-MIN K0J4 022050Z AUTO VRB03KT 10SM CLR 28/23 A3007 180 74 1800 VRB/03 RMK AO2 T02830233 PNO
63870K0J4 0J420160802155513108/02/16 15:55:31  5-MIN K0J4 022055Z AUTO 24004KT 10SM CLR 28/23 A3006 180 76 1700 240/04 RMK AO2 SLP175 6//// T02780233 50001 PNO
63870K0J4 0J420160802160011208/02/16 16:00:31  5-MIN K0J4 022100Z AUTO 22007KT 10SM CLR 28/23 A3006 190 76 1700 220/07 RMK AO2 T02780233 PNO
63870K0J4 0J420160802160511208/02/16 16:05:31  5-MIN K0J4 022105Z AUTO 22006KT 10SM CLR 28/23 A3006 190 76 1700 220/06 RMK AO2 T02780233 PNO
63870K0J4 0J420160802161011208/02/16 16:10:31  5-MIN K0J4 022110Z AUTO 23007KT 10SM CLR 28/23 A3005 190 76 1700 230/07 RMK AO2 T02780233 PNO
63870K0J4 0J420160802161511208/02/16 16:15:31  5-MIN K0J4 022115Z AUTO 25004KT 10SM CLR 28/23 A3006 190 76 1700 250/04 RMK AO2 T02780233 PNO
63870K0J4 0J420160802162011208/02/16 16:20:31  5-MIN K0J4 022120Z AUTO 23004KT 10SM CLR 27/23 A3006 190 79 1700 230/04 RMK AO2 T02720233 PNO
63870K0J4 0J420160802162511208/02/16 16:25:31  5-MIN K0J4 022125Z AUTO VRB03KT 10SM CLR 28/23 A3005 190 76 1700 VRB/03 RMK AO2 T02780233 PNO
63870K0J4 0J420160802163011208/02/16 16:30:31  5-MIN K0J4 022130Z AUTO VRB03KT 10SM CLR 28/23 A3005 200 76 1800 VRB/03 RMK AO2 T02780233 PNO
63870K0J4 0J420160802163511208/02/16 16:35:31  5-MIN K0J4 022135Z AUTO VRB03KT 10SM CLR 28/23 A3005 200 76 1800 VRB/03 RMK AO2 T02780233 PNO
63870K0J4 0J420160802164011208/02/16 16:40:31  5-MIN K0J4 022140Z AUTO VRB03KT 10SM CLR 28/23 A3005 200 76 1800 VRB/03 RMK AO2 T02780233 PNO
63870K0J4 0J420160802164511208/02/16 16:45:31  5-MIN K0J4 022145Z AUTO VRB03KT 10SM CLR 28/23 A3005 200 76 1800 VRB/03 RMK AO2 T02780233 PNO
63870K0J4 0J420160802165011208/02/16 16:50:31  5-MIN K0J4 022150Z AUTO VRB04KT 10SM CLR 28/24 A3005 200 76 1800 VRB/04 RMK AO2 T02830239 PNO
63870K0J4 0J420160802165511908/02/16 16:55:31  5-MIN K0J4 022155Z AUTO VRB04KT 10SM CLR 28/24 A3005 200 76 1800 VRB/04 RMK AO2 SLP170 T02830239 PNO
63870K0J4 0J420160802170011208/02/16 17:00:31  5-MIN K0J4 022200Z AUTO VRB03KT 10SM CLR 28/24 A3005 200 76 1800 VRB/03 RMK AO2 T02830239 PNO
63870K0J4 0J420160802170511208/02/16 17:05:31  5-MIN K0J4 022205Z AUTO VRB03KT 10SM CLR 29/23 A3005 190 71 1900 VRB/03 RMK AO2 T02890233 PNO
63870K0J4 0J420160802171011208/02/16 17:10:31  5-MIN K0J4 022210Z AUTO VRB04KT 10SM CLR 28/23 A3006 190 74 1800 VRB/04 RMK AO2 T02830233 PNO
63870K0J4 0J420160802171511208/02/16 17:15:31  5-MIN K0J4 022215Z AUTO VRB03KT 10SM CLR 28/24 A3006 190 76 1800 VRB/03 RMK AO2 T02830239 PNO
63870K0J4 0J420160802172011508/02/16 17:20:31  5-MIN K0J4 022220Z AUTO VRB04KT 10SM FEW014 28/23 A3006 190 74 1800 VRB/04 RMK AO2 T02830233 PNO
63870K0J4 0J420160802172511508/02/16 17:25:31  5-MIN K0J4 022225Z AUTO VRB03KT 10SM FEW014 28/23 A3006 180 74 1800 VRB/03 RMK AO2 T02830233 PNO
63870K0J4 0J420160802173011508/02/16 17:30:31  5-MIN K0J4 022230Z AUTO VRB03KT 10SM FEW014 28/24 A3007 180 76 1800 VRB/03 RMK AO2 T02830239 PNO
63870K0J4 0J420160802173511508/02/16 17:35:31  5-MIN K0J4 022235Z AUTO VRB04KT 10SM FEW014 28/23 A3007 180 76 1700 VRB/04 RMK AO2 T02780233 PNO
63870K0J4 0J420160802174011508/02/16 17:40:31  5-MIN K0J4 022240Z AUTO 00000KT 10SM FEW013 28/23 A3007 180 76 1700 000/00 RMK AO2 T02780233 PNO
63870K0J4 0J420160802174511508/02/16 17:45:31  5-MIN K0J4 022245Z AUTO 00000KT 10SM SCT013 27/23 A3007 180 79 1700 000/00 RMK AO2 T02720233 PNO
63870K0J4 0J420160802175011508/02/16 17:50:31  5-MIN K0J4 022250Z AUTO VRB03KT 10SM BKN013 27/23 A3007 180 79 1700 VRB/03 RMK AO2 T02720233 PNO
63870K0J4 0J420160802175510508/02/16 17:55:31  5-MIN K0J4 022255Z AUTO VRB03KT 10SM SCT012 27/23 A3007 180 79 1700 VRB/03 RMK AO2 PNO
63870K0J4 0J420160802180011508/02/16 18:00:31  5-MIN K0J4 022300Z AUTO VRB03KT 10SM BKN012 27/23 A3007 180 82 1600 VRB/03 RMK AO2 T02670233 PNO
63870K0J4 0J420160802180511508/02/16 18:05:31  5-MIN K0J4 022305Z AUTO VRB03KT 10SM BKN011 27/23 A3006 190 82 1600 VRB/03 RMK AO2 T02670233 PNO
63870K0J4 0J420160802181011508/02/16 18:10:31  5-MIN K0J4 022310Z AUTO 00000KT 10SM SCT011 27/23 A3005 200 82 1600 000/00 RMK AO2 T02670233 PNO
63870K0J4 0J420160802181512208/02/16 18:15:31  5-MIN K0J4 022315Z AUTO 00000KT 10SM FEW011 27/23 A3004 200 79 1700 000/00 RMK AO2 PRESFR T02720233 PNO
63870K0J4 0J420160802182011508/02/16 18:20:31  5-MIN K0J4 022320Z AUTO 02003KT 10SM FEW011 27/23 A3005 200 79 1700 020/03 RMK AO2 T02720233 PNO
63870K0J4 0J420160802182511508/02/16 18:25:31  5-MIN K0J4 022325Z AUTO 01003KT 10SM FEW011 27/23 A3005 190 82 1600 010/03 RMK AO2 T02670233 PNO
63870K0J4 0J420160802183011208/02/16 18:30:31  5-MIN K0J4 022330Z AUTO 00000KT 10SM CLR 27/23 A3005 190 82 1600 000/00 RMK AO2 T02670233 PNO
63870K0J4 0J420160802183511208/02/16 18:35:31  5-MIN K0J4 022335Z AUTO 00000KT 10SM CLR 27/23 A3005 200 82 1600 000/00 RMK AO2 T02670233 PNO
63870K0J4 0J420160802184011208/02/16 18:40:31  5-MIN K0J4 022340Z AUTO 00000KT 10SM CLR 27/23 A3005 190 82 1600 000/00 RMK AO2 T02670233 PNO
63870K0J4 0J420160802184511208/02/16 18:45:31  5-MIN K0J4 022345Z AUTO 00000KT 10SM CLR 26/24 A3005 200 87 1600 000/00 RMK AO2 T02610239 PNO
63870K0J4 0J420160802185011208/02/16 18:50:31  5-MIN K0J4 022350Z AUTO 00000KT 10SM CLR 26/24 A3005 190 87 1600 000/00 RMK AO2 T02610239 PNO
63870K0J4 0J420160802185514308/02/16 18:55:31  5-MIN K0J4 022355Z AUTO 00000KT 10SM CLR 26/24 A3005 190 87 1600 000/00 RMK AO2 SLP172 6//// T02610239 10289 20250 56027 PNO
63870K0J4 0J420160802190011208/02/16 19:00:31  5-MIN K0J4 030000Z AUTO 00000KT 10SM CLR 26/24 A3005 200 87 1600 000/00 RMK AO2 T02610239 PNO
63870K0J4 0J420160802190511208/02/16 19:05:31  5-MIN K0J4 030005Z AUTO 00000KT 10SM CLR 26/24 A3005 200 87 1600 000/00 RMK AO2 T02610239 PNO
63870K0J4 0J420160802191011208/02/16 19:10:31  5-MIN K0J4 030010Z AUTO 00000KT 10SM CLR 26/24 A3005 200 87 1600 000/00 RMK AO2 T02610239 PNO
63870K0J4 0J420160802191511208/02/16 19:15:31  5-MIN K0J4 030015Z AUTO 00000KT 10SM CLR 26/24 A3004 200 87 1600 000/00 RMK AO2 T02610239 PNO
63870K0J4 0J420160802192011208/02/16 19:20:31  5-MIN K0J4 030020Z AUTO 00000KT 10SM CLR 26/24 A3005 200 90 1500 000/00 RMK AO2 T02560239 PNO
63870K0J4 0J420160802192511208/02/16 19:25:31  5-MIN K0J4 030025Z AUTO 22004KT 10SM CLR 26/24 A3004 200 90 1500 220/04 RMK AO2 T02560239 PNO
63870K0J4 0J420160802193011208/02/16 19:30:31  5-MIN K0J4 030030Z AUTO 00000KT 10SM CLR 26/24 A3005 190 90 1500 000/00 RMK AO2 T02560239 PNO
63870K0J4 0J420160802193511208/02/16 19:35:31  5-MIN K0J4 030035Z AUTO 00000KT 10SM CLR 26/24 A3006 190 90 1500 000/00 RMK AO2 T02560239 PNO
63870K0J4 0J420160802194011208/02/16 19:40:31  5-MIN K0J4 030040Z AUTO 00000KT 10SM CLR 26/24 A3006 190 90 1500 000/00 RMK AO2 T02560239 PNO
63870K0J4 0J420160802194511208/02/16 19:45:31  5-MIN K0J4 030045Z AUTO 00000KT 10SM CLR 25/24 A3006 190 93 1400 000/00 RMK AO2 T02500239 PNO
63870K0J4 0J420160802195011208/02/16 19:50:31  5-MIN K0J4 030050Z AUTO 00000KT 10SM CLR 25/24 A3006 190 93 1400 000/00 RMK AO2 T02500239 PNO
63870K0J4 0J420160802195511908/02/16 19:55:31  5-MIN K0J4 030055Z AUTO 00000KT 10SM CLR 25/23 A3006 190 90 1400 000/00 RMK AO2 SLP174 T02500233 PNO
63870K0J4 0J420160802200011208/02/16 20:00:31  5-MIN K0J4 030100Z AUTO 00000KT 10SM CLR 25/23 A3006 190 90 1400 000/00 RMK AO2 T02500233 PNO
63870K0J4 0J420160802200511208/02/16 20:05:31  5-MIN K0J4 030105Z AUTO 00000KT 10SM CLR 25/23 A3006 190 90 1400 000/00 RMK AO2 T02500233 PNO
63870K0J4 0J420160802201011208/02/16 20:10:31  5-MIN K0J4 030110Z AUTO 00000KT 10SM CLR 25/23 A3006 190 90 1400 000/00 RMK AO2 T02500233 PNO
63870K0J4 0J420160802201511208/02/16 20:15:31  5-MIN K0J4 030115Z AUTO 00000KT 10SM CLR 25/23 A3006 190 90 1400 000/00 RMK AO2 T02500233 PNO
63870K0J4 0J420160802202011208/02/16 20:20:31  5-MIN K0J4 030120Z AUTO 00000KT 10SM CLR 24/23 A3006 190 93 1400 000/00 RMK AO2 T02440233 PNO
63870K0J4 0J420160802202511208/02/16 20:25:31  5-MIN K0J4 030125Z AUTO 15003KT 10SM CLR 24/23 A3006 190 93 1400 150/03 RMK AO2 T02440233 PNO
63870K0J4 0J420160802203011208/02/16 20:30:31  5-MIN K0J4 030130Z AUTO 00000KT 10SM CLR 24/23 A3006 190 93 1400 000/00 RMK AO2 T02440233 PNO
63870K0J4 0J420160802203511208/02/16 20:35:31  5-MIN K0J4 030135Z AUTO 12003KT 10SM CLR 24/23 A3006 180 93 1400 120/03 RMK AO2 T02440233 PNO
63870K0J4 0J420160802204011208/02/16 20:40:31  5-MIN K0J4 030140Z AUTO 00000KT 10SM CLR 24/23 A3007 180 93 1400 000/00 RMK AO2 T02440233 PNO
63870K0J4 0J420160802204511208/02/16 20:45:31  5-MIN K0J4 030145Z AUTO 00000KT 10SM CLR 24/23 A3006 180 93 1400 000/00 RMK AO2 T02440233 PNO
63870K0J4 0J420160802205011208/02/16 20:50:31  5-MIN K0J4 030150Z AUTO 00000KT 10SM CLR 24/23 A3006 180 93 1400 000/00 RMK AO2 T02440233 PNO
63870K0J4 0J420160802205511908/02/16 20:55:31  5-MIN K0J4 030155Z AUTO 00000KT 10SM CLR 24/23 A3006 180 93 1400 000/00 RMK AO2 SLP176 T02440233 PNO
63870K0J4 0J420160802210011208/02/16 21:00:31  5-MIN K0J4 030200Z AUTO 00000KT 10SM CLR 24/23 A3007 180 93 1400 000/00 RMK AO2 T02440233 PNO
63870K0J4 0J420160802210511208/02/16 21:05:31  5-MIN K0J4 030205Z AUTO 00000KT 10SM CLR 24/23 A3007 180 93 1400 000/00 RMK AO2 T02440233 PNO
63870K0J4 0J420160802211011208/02/16 21:10:31  5-MIN K0J4 030210Z AUTO 28003KT 10SM CLR 24/23 A3007 180 97 1300 280/03 RMK AO2 T02390233 PNO
63870K0J4 0J420160802211511208/02/16 21:15:31  5-MIN K0J4 030215Z AUTO 00000KT 10SM CLR 24/23 A3007 180 97 1300 000/00 RMK AO2 T02390233 PNO
63870K0J4 0J420160802212011208/02/16 21:20:31  5-MIN K0J4 030220Z AUTO 00000KT 10SM CLR 24/23 A3007 180 93 1400 000/00 RMK AO2 T02440233 PNO
63870K0J4 0J420160802212511208/02/16 21:25:31  5-MIN K0J4 030225Z AUTO 00000KT 10SM CLR 24/23 A3007 170 93 1300 000/00 RMK AO2 T02440233 PNO
63870K0J4 0J420160802213011208/02/16 21:30:31  5-MIN K0J4 030230Z AUTO 00000KT 10SM CLR 24/23 A3008 170 97 1300 000/00 RMK AO2 T02390233 PNO
63870K0J4 0J420160802213511208/02/16 21:35:31  5-MIN K0J4 030235Z AUTO 00000KT 10SM CLR 24/23 A3008 170 97 1300 000/00 RMK AO2 T02390233 PNO
63870K0J4 0J420160802214011208/02/16 21:40:31  5-MIN K0J4 030240Z AUTO 00000KT 10SM CLR 24/23 A3007 170 97 1300 000/00 RMK AO2 T02390233 PNO
63870K0J4 0J420160802214511208/02/16 21:45:31  5-MIN K0J4 030245Z AUTO 00000KT 10SM CLR 24/23 A3007 180 97 1300 000/00 RMK AO2 T02390233 PNO
63870K0J4 0J420160802215011208/02/16 21:50:31  5-MIN K0J4 030250Z AUTO 00000KT 10SM CLR 24/23 A3007 180 97 1300 000/00 RMK AO2 T02390233 PNO
63870K0J4 0J420160802215513108/02/16 21:55:31  5-MIN K0J4 030255Z AUTO 00000KT 10SM CLR 24/23 A3007 180 93 1300 000/00 RMK AO2 SLP179 6//// T02390228 58000 PNO
63870K0J4 0J420160802220011108/02/16 22:00:31  5-MIN K0J4 030300Z AUTO 00000KT 9SM CLR 24/23 A3007 180 93 1300 000/00 RMK AO2 T02390228 PNO
63870K0J4 0J420160802220511208/02/16 22:05:31  5-MIN K0J4 030305Z AUTO 00000KT 10SM CLR 24/23 A3007 170 93 1300 000/00 RMK AO2 T02390228 PNO
63870K0J4 0J420160802221011108/02/16 22:10:31  5-MIN K0J4 030310Z AUTO 00000KT 9SM CLR 24/23 A3007 180 93 1300 000/00 RMK AO2 T02390228 PNO
63870K0J4 0J420160802221511108/02/16 22:15:31  5-MIN K0J4 030315Z AUTO 00000KT 9SM CLR 24/23 A3007 180 93 1300 000/00 RMK AO2 T02390228 PNO
63870K0J4 0J420160802222011208/02/16 22:20:31  5-MIN K0J4 030320Z AUTO 00000KT 10SM CLR 24/23 A3007 180 93 1300 000/00 RMK AO2 T02390228 PNO
63870K0J4 0J420160802222511208/02/16 22:25:31  5-MIN K0J4 030325Z AUTO 23003KT 10SM CLR 24/23 A3006 180 93 1300 230/03 RMK AO2 T02390228 PNO
63870K0J4 0J420160802223011208/02/16 22:30:31  5-MIN K0J4 030330Z AUTO 00000KT 10SM CLR 24/23 A3006 180 93 1300 000/00 RMK AO2 T02390228 PNO
63870K0J4 0J420160802223511208/02/16 22:35:31  5-MIN K0J4 030335Z AUTO 00000KT 10SM CLR 24/23 A3006 190 93 1300 000/00 RMK AO2 T02390228 PNO
63870K0J4 0J420160802224011208/02/16 22:40:31  5-MIN K0J4 030340Z AUTO 00000KT 10SM CLR 24/23 A3006 190 93 1300 000/00 RMK AO2 T02390228 PNO
63870K0J4 0J420160802224511208/02/16 22:45:31  5-MIN K0J4 030345Z AUTO 19003KT 10SM CLR 24/23 A3005 190 93 1300 190/03 RMK AO2 T02390228 PNO
63870K0J4 0J420160802225011208/02/16 22:50:31  5-MIN K0J4 030350Z AUTO 00000KT 10SM CLR 23/23 A3005 190 97 1200 000/00 RMK AO2 T02330228 PNO
63870K0J4 0J420160802225511908/02/16 22:55:31  5-MIN K0J4 030355Z AUTO 00000KT 10SM CLR 23/23 A3005 190 97 1200 000/00 RMK AO2 SLP173 T02330228 PNO
63870K0J4 0J420160802230011208/02/16 23:00:31  5-MIN K0J4 030400Z AUTO 18003KT 10SM CLR 23/23 A3005 190 97 1200 180/03 RMK AO2 T02330228 PNO
63870K0J4 0J420160802230511208/02/16 23:05:31  5-MIN K0J4 030405Z AUTO 20004KT 10SM CLR 23/23 A3005 200 97 1300 200/04 RMK AO2 T02330228 PNO
63870K0J4 0J420160802231011208/02/16 23:10:31  5-MIN K0J4 030410Z AUTO 22004KT 10SM CLR 24/23 A3005 200 93 1300 220/04 RMK AO2 T02390228 PNO
63870K0J4 0J420160802231511208/02/16 23:15:31  5-MIN K0J4 030415Z AUTO 23004KT 10SM CLR 24/23 A3005 200 93 1300 230/04 RMK AO2 T02390228 PNO
63870K0J4 0J420160802232011208/02/16 23:20:31  5-MIN K0J4 030420Z AUTO 24003KT 10SM CLR 24/23 A3004 200 93 1300 240/03 RMK AO2 T02390228 PNO
63870K0J4 0J420160802232511208/02/16 23:25:31  5-MIN K0J4 030425Z AUTO 22003KT 10SM CLR 24/23 A3004 200 93 1300 220/03 RMK AO2 T02390228 PNO
63870K0J4 0J420160802233011208/02/16 23:30:31  5-MIN K0J4 030430Z AUTO 00000KT 10SM CLR 24/23 A3004 200 93 1300 000/00 RMK AO2 T02390228 PNO
63870K0J4 0J420160802233511208/02/16 23:35:31  5-MIN K0J4 030435Z AUTO 00000KT 10SM CLR 24/23 A3004 200 93 1300 000/00 RMK AO2 T02390228 PNO
63870K0J4 0J420160802234011208/02/16 23:40:31  5-MIN K0J4 030440Z AUTO 00000KT 10SM CLR 24/23 A3004 200 93 1300 000/00 RMK AO2 T02390228 PNO
63870K0J4 0J420160802234511208/02/16 23:45:31  5-MIN K0J4 030445Z AUTO 00000KT 10SM CLR 24/23 A3005 200 93 1300 000/00 RMK AO2 T02390228 PNO
63870K0J4 0J420160802235011208/02/16 23:50:31  5-MIN K0J4 030450Z AUTO 00000KT 10SM CLR 23/23 A3005 200 97 1300 000/00 RMK AO2 T02330228 PNO
63870K0J4 0J420160802235512908/02/16 23:55:31  5-MIN K0J4 030455Z AUTO 00000KT 10SM CLR 23/23 A3005 200 97 1300 000/00 RMK AO2 SLP170 T02330228 402890233 PNO
63870K0J4 0J420160803000011208/03/16 00:00:31  5-MIN K0J4 030500Z AUTO 00000KT 10SM CLR 23/23 A3005 200 97 1300 000/00 RMK AO2 T02330228 PNO
63870K0J4 0J420160803000511108/03/16 00:05:31  5-MIN K0J4 030505Z AUTO 00000KT 9SM CLR 23/22 A3005 200 93 1300 000/00 RMK AO2 T02330222 PNO
63870K0J4 0J420160803001011208/03/16 00:10:31  5-MIN K0J4 030510Z AUTO 00000KT 10SM CLR 23/22 A3004 200 93 1300 000/00 RMK AO2 T02330222 PNO
63870K0J4 0J420160803001511208/03/16 00:15:31  5-MIN K0J4 030515Z AUTO 00000KT 10SM CLR 23/22 A3004 200 93 1300 000/00 RMK AO2 T02330222 PNO
63870K0J4 0J420160803002011208/03/16 00:20:31  5-MIN K0J4 030520Z AUTO 00000KT 10SM CLR 23/22 A3004 200 93 1300 000/00 RMK AO2 T02330222 PNO
63870K0J4 0J420160803002511208/03/16 00:25:31  5-MIN K0J4 030525Z AUTO 00000KT 10SM CLR 23/22 A3004 210 93 1300 000/00 RMK AO2 T02330222 PNO
63870K0J4 0J420160803003011208/03/16 00:30:31  5-MIN K0J4 030530Z AUTO 00000KT 10SM CLR 23/22 A3004 210 93 1300 000/00 RMK AO2 T02330222 PNO
63870K0J4 0J420160803003511108/03/16 00:35:31  5-MIN K0J4 030535Z AUTO 00000KT 9SM CLR 23/22 A3004 210 93 1300 000/00 RMK AO2 T02330222 PNO
63870K0J4 0J420160803004011108/03/16 00:40:31  5-MIN K0J4 030540Z AUTO 00000KT 9SM CLR 23/22 A3004 210 93 1300 000/00 RMK AO2 T02330222 PNO
63870K0J4 0J420160803004511108/03/16 00:45:31  5-MIN K0J4 030545Z AUTO 00000KT 9SM CLR 23/22 A3004 210 93 1300 000/00 RMK AO2 T02330222 PNO
63870K0J4 0J420160803005011108/03/16 00:50:31  5-MIN K0J4 030550Z AUTO 00000KT 9SM CLR 23/22 A3004 210 93 1300 000/00 RMK AO2 T02330222 PNO
63870K0J4 0J420160803005514208/03/16 00:55:31  5-MIN K0J4 030555Z AUTO 00000KT 9SM CLR 23/22 A3004 210 93 1300 000/00 RMK AO2 SLP167 6//// T02330222 10261 20233 51007 PNO
63870K0J4 0J420160803010011108/03/16 01:00:31  5-MIN K0J4 030600Z AUTO 00000KT 9SM CLR 23/22 A3004 210 93 1300 000/00 RMK AO2 T02330222 PNO
63870K0J4 0J420160803010511108/03/16 01:05:31  5-MIN K0J4 030605Z AUTO 00000KT 9SM CLR 23/22 A3004 210 93 1300 000/00 RMK AO2 T02330222 PNO
63870K0J4 0J420160803011011108/03/16 01:10:31  5-MIN K0J4 030610Z AUTO 00000KT 9SM CLR 23/22 A3004 210 93 1300 000/00 RMK AO2 T02330222 PNO
63870K0J4 0J420160803011511108/03/16 01:15:31  5-MIN K0J4 030615Z AUTO 00000KT 8SM CLR 23/22 A3004 210 93 1300 000/00 RMK AO2 T02330222 PNO
63870K0J4 0J420160803012011108/03/16 01:20:31  5-MIN K0J4 030620Z AUTO 00000KT 8SM CLR 23/22 A3003 210 93 1300 000/00 RMK AO2 T02330222 PNO
63870K0J4 0J420160803012511108/03/16 01:25:31  5-MIN K0J4 030625Z AUTO 00000KT 8SM CLR 23/22 A3003 210 93 1300 000/00 RMK AO2 T02330222 PNO
63870K0J4 0J420160803111511208/03/16 11:15:31  5-MIN K0J4 031615Z AUTO VRB06KT 10SM CLR 30/24 A3007 180 69 2000 VRB/06 RMK AO2 T03000239 PNO
63870K0J4 0J420160803112011208/03/16 11:20:31  5-MIN K0J4 031620Z AUTO VRB03KT 10SM CLR 30/23 A3006 180 67 2000 VRB/03 RMK AO2 T03000233 PNO
63870K0J4 0J420160803112511208/03/16 11:25:31  5-MIN K0J4 031625Z AUTO VRB03KT 10SM CLR 30/23 A3006 180 67 2000 VRB/03 RMK AO2 T03000233 PNO
63870K0J4 0J420160803113011208/03/16 11:30:31  5-MIN K0J4 031630Z AUTO VRB04KT 10SM CLR 31/23 A3006 180 65 2000 VRB/04 RMK AO2 T03060233 PNO
63870K0J4 0J420160803113511508/03/16 11:35:31  5-MIN K0J4 031635Z AUTO 04003KT 10SM FEW021 31/23 A3006 180 65 2000 040/03 RMK AO2 T03060233 PNO
63870K0J4 0J420160803114011208/03/16 11:40:31  5-MIN K0J4 031640Z AUTO 00000KT 10SM CLR 31/23 A3006 180 65 2000 000/00 RMK AO2 T03060233 PNO
63870K0J4 0J420160803114511508/03/16 11:45:31  5-MIN K0J4 031645Z AUTO VRB04KT 10SM FEW022 31/23 A3006 190 65 2100 VRB/04 RMK AO2 T03060233 PNO
63870K0J4 0J420160803115011508/03/16 11:50:31  5-MIN K0J4 031650Z AUTO VRB05KT 10SM FEW022 30/24 A3006 190 69 2000 VRB/05 RMK AO2 T03000239 PNO
63870K0J4 0J420160803115512208/03/16 11:55:31  5-MIN K0J4 031655Z AUTO VRB05KT 10SM FEW022 30/23 A3006 190 67 2000 VRB/05 RMK AO2 SLP174 T03000233 PNO
63870K0J4 0J420160803120011508/03/16 12:00:31  5-MIN K0J4 031700Z AUTO VRB03KT 10SM FEW022 31/23 A3006 190 65 2100 VRB/03 RMK AO2 T03060233 PNO
63870K0J4 0J420160803120511508/03/16 12:05:31  5-MIN K0J4 031705Z AUTO VRB04KT 10SM FEW022 31/24 A3006 190 65 2100 VRB/04 RMK AO2 T03110239 PNO
63870K0J4 0J420160803121011508/03/16 12:10:31  5-MIN K0J4 031710Z AUTO 19003KT 10SM FEW024 31/24 A3006 190 67 2100 190/03 RMK AO2 T03060239 PNO
63870K0J4 0J420160803121511508/03/16 12:15:31  5-MIN K0J4 031715Z AUTO VRB05KT 10SM FEW024 31/23 A3006 190 65 2100 VRB/05 RMK AO2 T03060233 PNO
63870K0J4 0J420160803122011508/03/16 12:20:31  5-MIN K0J4 031720Z AUTO 00000KT 10SM FEW024 31/23 A3006 190 63 2100 000/00 RMK AO2 T03110233 PNO
63870K0J4 0J420160803123510108/03/16 12:35:31  5-MIN K0J4 031735Z AUTO 00000KT 31/24 A3005 200 65 2100 000/00 RMK AO2 T03110239 $
63870K0J4 0J420160803124010608/03/16 12:40:31  5-MIN K0J4 031740Z AUTO 00000KT 10SM 32/24 A3005 200 63 2200 000/00 RMK AO2 T03170239 $
63870K0J4 0J420160803124510608/03/16 12:45:31  5-MIN K0J4 031745Z AUTO VRB04KT 10SM 32/24 A3004 200 65 2200 VRB/04 RMK AO2 T03170244 $
63870K0J4 0J420160803125010608/03/16 12:50:31  5-MIN K0J4 031750Z AUTO VRB03KT 10SM 31/23 A3004 210 63 2100 VRB/03 RMK AO2 T03110233 $
63870K0J4 0J420160803125513108/03/16 12:55:31  5-MIN K0J4 031755Z AUTO 00000KT 10SM 32/24 A3004 210 63 2200 000/00 RMK AO2 SLP167 6//// T03170239 10317 20222 $
63870K0J4 0J420160803130011308/03/16 13:00:31  5-MIN K0J4 031800Z AUTO 00000KT 10SM SCT029 31/24 A3004 210 65 2100 000/00 RMK AO2 T03110239 $
63870K0J4 0J420160803130511308/03/16 13:05:31  5-MIN K0J4 031805Z AUTO 00000KT 10SM SCT029 32/24 A3004 210 63 2200 000/00 RMK AO2 T03170239 $
63870K0J4 0J420160803131011308/03/16 13:10:31  5-MIN K0J4 031810Z AUTO VRB03KT 10SM BKN029 32/23 A3003 210 61 2200 VRB/03 RMK AO2 T03170233 $
63870K0J4 0J420160803131512008/03/16 13:15:31  5-MIN K0J4 031815Z AUTO VRB03KT 10SM BKN029 BKN035 32/23 A3003 210 61 2200 VRB/03 RMK AO2 T03170233 $
63870K0J4 0J420160803132012008/03/16 13:20:31  5-MIN K0J4 031820Z AUTO VRB03KT 10SM BKN029 BKN035 32/23 A3003 210 59 2300 VRB/03 RMK AO2 T03220233 $
63870K0J4 0J420160803132512008/03/16 13:25:31  5-MIN K0J4 031825Z AUTO 03003KT 10SM SCT029 SCT034 32/23 A3003 220 57 2300 030/03 RMK AO2 T03220228 $
63870K0J4 0J420160803133011308/03/16 13:30:31  5-MIN K0J4 031830Z AUTO 00000KT 10SM SCT031 33/24 A3003 220 59 2300 000/00 RMK AO2 T03280239 $
63870K0J4 0J420160803133511308/03/16 13:35:31  5-MIN K0J4 031835Z AUTO 23005KT 10SM SCT031 32/24 A3002 220 61 2300 230/05 RMK AO2 T03220239 $
63870K0J4 0J420160803134011308/03/16 13:40:31  5-MIN K0J4 031840Z AUTO VRB03KT 10SM FEW031 32/23 A3002 220 59 2300 VRB/03 RMK AO2 T03220233 $
63870K0J4 0J420160803134511308/03/16 13:45:31  5-MIN K0J4 031845Z AUTO 00000KT 10SM FEW031 33/23 A3002 220 55 2400 000/00 RMK AO2 T03330233 $
63870K0J4 0J420160803135011008/03/16 13:50:31  5-MIN K0J4 031850Z AUTO 27003KT 10SM CLR 33/23 A3002 230 57 2300 270/03 RMK AO2 T03280233 $
63870K0J4 0J420160803135511708/03/16 13:55:31  5-MIN K0J4 031855Z AUTO 00000KT 10SM CLR 32/23 A3002 230 59 2300 000/00 RMK AO2 SLP159 T03220233 $
63870K0J4 0J420160803140011008/03/16 14:00:31  5-MIN K0J4 031900Z AUTO 36003KT 10SM CLR 33/23 A3001 230 55 2400 360/03 RMK AO2 T03330233 $
63870K0J4 0J420160803140511008/03/16 14:05:31  5-MIN K0J4 031905Z AUTO 00000KT 10SM CLR 33/23 A3001 230 55 2400 000/00 RMK AO2 T03280228 $
63870K0J4 0J420160803141011308/03/16 14:10:31  5-MIN K0J4 031910Z AUTO 00000KT 10SM FEW039 33/23 A3001 240 55 2400 000/00 RMK AO2 T03330233 $
63870K0J4 0J420160803141511308/03/16 14:15:31  5-MIN K0J4 031915Z AUTO 24003KT 10SM FEW039 33/23 A3001 240 55 2400 240/03 RMK AO2 T03280228 $
63870K0J4 0J420160803142011308/03/16 14:20:31  5-MIN K0J4 031920Z AUTO 00000KT 10SM SCT037 32/23 A3001 240 61 2200 000/00 RMK AO2 T03170233 $
63870K0J4 0J420160803142511308/03/16 14:25:31  5-MIN K0J4 031925Z AUTO VRB03KT 10SM BKN037 33/23 A3000 240 55 2400 VRB/03 RMK AO2 T03280228 $
63870K0J4 0J420160803143011308/03/16 14:30:31  5-MIN K0J4 031930Z AUTO 00000KT 10SM SCT037 33/23 A3000 240 55 2400 000/00 RMK AO2 T03280228 $
63870K0J4 0J420160803143511308/03/16 14:35:31  5-MIN K0J4 031935Z AUTO 00000KT 10SM SCT037 32/22 A3000 240 55 2300 000/00 RMK AO2 T03220222 $
63870K0J4 0J420160803144011308/03/16 14:40:31  5-MIN K0J4 031940Z AUTO 00000KT 10SM SCT038 32/23 A3000 240 59 2300 000/00 RMK AO2 T03220233 $
63870K0J4 0J420160803144512008/03/16 14:45:31  5-MIN K0J4 031945Z AUTO 00000KT 10SM FEW038 SCT045 33/23 A2999 250 57 2400 000/00 RMK AO2 T03280233 $
63870K0J4 0J420160803145011308/03/16 14:50:31  5-MIN K0J4 031950Z AUTO 00000KT 10SM SCT045 32/23 A2999 250 57 2300 000/00 RMK AO2 T03220228 $
63870K0J4 0J420160803145512008/03/16 14:55:31  5-MIN K0J4 031955Z AUTO 00000KT 10SM SCT047 32/23 A2999 250 57 2300 000/00 RMK AO2 SLP150 T03220228 $
63870K0J4 0J420160803150011308/03/16 15:00:31  5-MIN K0J4 032000Z AUTO 00000KT 10SM SCT045 33/23 A2998 260 55 2400 000/00 RMK AO2 T03280228 $
63870K0J4 0J420160803150511308/03/16 15:05:31  5-MIN K0J4 032005Z AUTO VRB03KT 10SM SCT045 33/23 A2998 260 57 2400 VRB/03 RMK AO2 T03280233 $
63870K0J4 0J420160803151011308/03/16 15:10:31  5-MIN K0J4 032010Z AUTO VRB03KT 10SM SCT045 33/23 A2998 260 55 2400 VRB/03 RMK AO2 T03280228 $
63870K0J4 0J420160803151511308/03/16 15:15:31  5-MIN K0J4 032015Z AUTO VRB04KT 10SM SCT045 33/23 A2998 260 55 2400 VRB/04 RMK AO2 T03280228 $
63870K0J4 0J420160803152011308/03/16 15:20:31  5-MIN K0J4 032020Z AUTO 23003KT 10SM SCT043 33/23 A2998 270 55 2400 230/03 RMK AO2 T03280228 $
63870K0J4 0J420160803152511308/03/16 15:25:31  5-MIN K0J4 032025Z AUTO VRB03KT 10SM FEW041 33/23 A2997 270 55 2400 VRB/03 RMK AO2 T03280228 $
63870K0J4 0J420160803153011308/03/16 15:30:31  5-MIN K0J4 032030Z AUTO 00000KT 10SM FEW041 34/23 A2997 270 51 2500 000/00 RMK AO2 T03390228 $
63870K0J4 0J420160803153511308/03/16 15:35:31  5-MIN K0J4 032035Z AUTO VRB04KT 10SM FEW041 33/23 A2997 270 55 2500 VRB/04 RMK AO2 T03330233 $
63870K0J4 0J420160803154011308/03/16 15:40:31  5-MIN K0J4 032040Z AUTO VRB03KT 10SM SCT041 33/23 A2996 280 55 2500 VRB/03 RMK AO2 T03330233 $
63870K0J4 0J420160803154511308/03/16 15:45:31  5-MIN K0J4 032045Z AUTO 00000KT 10SM SCT041 33/23 A2996 280 53 2500 000/00 RMK AO2 T03330228 $
63870K0J4 0J420160803155011308/03/16 15:50:31  5-MIN K0J4 032050Z AUTO VRB03KT 10SM FEW041 34/23 A2996 280 53 2500 VRB/03 RMK AO2 T03390233 $
63870K0J4 0J420160803155512008/03/16 15:55:31  5-MIN K0J4 032055Z AUTO 34004KT 10SM FEW041 34/23 A2996 280 51 2500 340/04 RMK AO2 SLP140 T03390228 $
63870K0J4 0J420160803160011308/03/16 16:00:31  5-MIN K0J4 032100Z AUTO 32003KT 10SM FEW041 33/23 A2996 280 53 2500 320/03 RMK AO2 T03330228 $
63870K0J4 0J420160803160511308/03/16 16:05:31  5-MIN K0J4 032105Z AUTO 00000KT 10SM FEW041 33/22 A2995 280 53 2400 000/00 RMK AO2 T03280222 $
63870K0J4 0J420160803161011008/03/16 16:10:31  5-MIN K0J4 032110Z AUTO 32003KT 10SM CLR 32/23 A2995 290 57 2400 320/03 RMK AO2 T03220228 $
63870K0J4 0J420160803161511308/03/16 16:15:31  5-MIN K0J4 032115Z AUTO 00000KT 10SM FEW041 34/23 A2995 290 51 2500 000/00 RMK AO2 T03390228 $
63870K0J4 0J420160803162011808/03/16 16:20:31  5-MIN K0J4 032120Z AUTO 00000KT 10SM VCTS SCT041 34/23 A2995 290 52 2600 000/00 RMK AO2 T03440233 $
63870K0J4 0J420160803162511808/03/16 16:25:31  5-MIN K0J4 032125Z AUTO VRB03KT 10SM VCTS SCT043 33/23 A2995 290 55 2500 VRB/03 RMK AO2 T03330233 $
63870K0J4 0J420160803163011808/03/16 16:30:31  5-MIN K0J4 032130Z AUTO 00000KT 10SM VCTS FEW043 33/23 A2995 290 55 2400 000/00 RMK AO2 T03280228 $
63870K0J4 0J420160803163511808/03/16 16:35:31  5-MIN K0J4 032135Z AUTO 00000KT 10SM VCTS FEW043 33/23 A2996 280 57 2400 000/00 RMK AO2 T03280233 $
63870K0J4 0J420160803164011808/03/16 16:40:31  5-MIN K0J4 032140Z AUTO 00000KT 10SM VCTS FEW042 33/23 A2995 290 57 2400 000/00 RMK AO2 T03280233 $
63870K0J4 0J420160803164511808/03/16 16:45:31  5-MIN K0J4 032145Z AUTO 00000KT 10SM VCTS FEW044 33/23 A2995 290 55 2400 000/00 RMK AO2 T03280228 $
63870K0J4 0J420160803165011508/03/16 16:50:31  5-MIN K0J4 032150Z AUTO 00000KT 10SM VCTS CLR 32/24 A2995 290 61 2400 000/00 RMK AO2 T03220239 $
63870K0J4 0J420160803165512208/03/16 16:55:31  5-MIN K0J4 032155Z AUTO 00000KT 10SM VCTS CLR 32/24 A2995 290 63 2400 000/00 RMK AO2 SLP136 T03220244 $
63870K0J4 0J420160803170011508/03/16 17:00:31  5-MIN K0J4 032200Z AUTO 00000KT 10SM VCTS CLR 34/24 A2995 290 55 2500 000/00 RMK AO2 T03390239 $
63870K0J4 0J420160803170511508/03/16 17:05:31  5-MIN K0J4 032205Z AUTO VRB03KT 10SM VCTS CLR 34/23 A2995 290 53 2500 VRB/03 RMK AO2 T03390233 $
63870K0J4 0J420160803171011908/03/16 17:10:31  5-MIN K0J4 032210Z AUTO 31003KT 10SM TS CLR 34/23 A2995 290 51 2500 310/03 RMK AO2 TSB10 T03390228 $
63870K0J4 0J420160803171512208/03/16 17:15:31  5-MIN K0J4 032215Z AUTO 04007KT 10SM TS CLR 33/23 A2996 280 53 2500 040/07 RMK AO2 TSB10B11 T03330228 $
63870K0J4 0J420160803172013108/03/16 17:20:31  5-MIN K0J4 032220Z AUTO 09011G16KT 10SM TS SCT047 31/24 A2996 280 65 2200 090/11G16 RMK AO2 TSB10B11 T03110239 $
63870K0J4 0J420160803172513208/03/16 17:25:31  5-MIN K0J4 032225Z AUTO 08009KT 10SM TS SCT047 SCT120 30/24 A2996 280 69 2100 080/09 RMK AO2 TSB10B11 T03000239 $
63870K0J4 0J420160803173013208/03/16 17:30:31  5-MIN K0J4 032230Z AUTO 08011KT 10SM TS BKN045 BKN120 29/24 A2996 280 74 2000 080/11 RMK AO2 TSB10B11 T02890239 $
63870K0J4 0J420160803173514008/03/16 17:35:31  5-MIN K0J4 032235Z AUTO 08008KT 10SM -TSRA BKN043 28/24 A2996 280 76 1900 080/08 RMK AO2 RAB32 TSB10B11 P0000 T02830239 $
63870K0J4 0J420160803174015208/03/16 17:40:31  5-MIN K0J4 032240Z AUTO 10007KT 4SM TSRA BKN043 BKN055 BKN070 27/24 A2996 280 84 1800 100/07 RMK AO2 RAB32 TSB10B11 P0000 T02720244 $
63870K0J4 0J420160803174516308/03/16 17:45:31  5-MIN K0J4 032245Z AUTO 13009KT 1 1/4SM +TSRA BR FEW028 BKN043 OVC065 26/24 A2995 290 87 1700 130/09 RMK AO2 RAB32 TSB10B11B43 P0000 T02610239 $
63870K0J4 0J420160803175016108/03/16 17:50:31  5-MIN K0J4 032250Z AUTO 13005KT 1 1/2SM -TSRA BR BKN043 BKN049 OVC100 26/24 A2995 290 87 1700 130/05 RMK AO2 RAB32 TSB10B11B43 T02610239 PNO $
63870K0J4 0J420160803175516008/03/16 17:55:31  5-MIN K0J4 032255Z AUTO 06003KT 4SM TSRA SCT042 BKN049 OVC100 27/24 A2996 280 84 1700 060/03 RMK AO2 RAB32 TSB10B11B43 SLP140 T02670239 PNO $
63870K0J4 0J420160803180013908/03/16 18:00:31  5-MIN K0J4 032300Z AUTO 10006KT 6SM -TSRA BR SCT042 BKN049 OVC100 27/24 A2996 280 87 1700 100/06 RMK AO2 T02670244 PNO $
63870K0J4 0J420160803180514308/03/16 18:05:31  5-MIN K0J4 032305Z AUTO 16005KT 10SM -TSRA SCT032 BKN048 OVC100 27/24 A2996 280 82 1800 160/05 RMK AO2 TSB01 T02720239 PNO $
63870K0J4 0J420160803181014308/03/16 18:10:31  5-MIN K0J4 032310Z AUTO 12004KT 10SM -TSRA FEW028 BKN045 BKN055 27/24 A2996 280 84 1800 120/04 RMK AO2 TSB01 T02720244 PNO $
63870K0J4 0J420160803181514608/03/16 18:15:31  5-MIN K0J4 032315Z AUTO 09003KT 10SM TS FEW033 SCT047 SCT100 28/24 A2996 280 82 1900 090/03 RMK AO2 RAE14 TSB01 T02780244 PNO $
63870K0J4 0J420160803182014908/03/16 18:20:31  5-MIN K0J4 032320Z AUTO 00000KT 10SM TS FEW033 SCT075 SCT110 28/25 A2996 280 84 1900 000/00 RMK AO2 RAE14 TSB01B19 T02780250 PNO $
63870K0J4 0J420160803182514908/03/16 18:25:31  5-MIN K0J4 032325Z AUTO 00000KT 10SM TS FEW033 FEW075 SCT110 28/25 A2997 270 84 1800 000/00 RMK AO2 RAE14 TSB01B19 T02780250 PNO $
63870K0J4 0J420160803183014608/03/16 18:30:31  5-MIN K0J4 032330Z AUTO 10SM TS FEW020 SCT044 SCT075 28/25 A2998 260 82 1900 M /M RMK AO2 RAE14 TSB01B19 PRESRR T02830250 PNO $
63870K0J4 0J420160803183514908/03/16 18:35:31  5-MIN K0J4 032335Z AUTO 03016KT 10SM TS SCT039 BKN047 BKN075 27/24 A2998 260 82 1800 030/16 RMK AO2 RAE14 TSB01B19 T02720239 PNO $
63870K0J4 0J420160803184014908/03/16 18:40:31  5-MIN K0J4 032340Z AUTO 03011KT 10SM TS SCT039 BKN047 BKN055 27/23 A2999 260 82 1700 030/11 RMK AO2 RAE14 TSB01B19 T02670233 PNO $
63870K0J4 0J420160803184515508/03/16 18:45:31  5-MIN K0J4 032345Z AUTO 03010KT 10SM -TSRA FEW041 SCT047 BKN060 26/23 A2999 260 81 1600 030/10 RMK AO2 RAE14B43 TSB01B19 T02610228 PNO $
63870K0J4 0J420160803185015408/03/16 18:50:31  5-MIN K0J4 032350Z AUTO 03008KT 8SM -TSRA SCT042 BKN060 OVC100 26/23 A2998 260 81 1600 030/08 RMK AO2 RAE14B43 TSB01B19 T02610228 PNO $
63870K0J4 0J420160803185518508/03/16 18:55:31  5-MIN K0J4 032355Z AUTO 03004KT 6SM -TSRA SCT042 BKN060 OVC095 26/23 A2998 260 84 1600 030/04 RMK AO2 RAE14B43 TSB01B19 SLP146 6//// T02560228 10344 20256 58026 PNO $
63870K0J4 0J420160803190013608/03/16 19:00:31  5-MIN K0J4 040000Z AUTO 00000KT 8SM -TSRA FEW042 BKN065 OVC095 26/23 A2997 270 87 1600 000/00 RMK AO2 T02560233 PNO $
63870K0J4 0J420160803190513708/03/16 19:05:31  5-MIN K0J4 040005Z AUTO 11003KT 10SM -TSRA FEW055 SCT070 OVC100 26/23 A2997 270 87 1600 110/03 RMK AO2 T02560233 PNO $
63870K0J4 0J420160803191013708/03/16 19:10:31  5-MIN K0J4 040010Z AUTO 00000KT 10SM -TSRA FEW060 BKN095 OVC110 26/23 A2997 270 87 1600 000/00 RMK AO2 T02560233 PNO $
63870K0J4 0J420160803191513708/03/16 19:15:31  5-MIN K0J4 040015Z AUTO 00000KT 10SM -TSRA FEW075 BKN095 OVC110 26/23 A2997 270 87 1600 000/00 RMK AO2 T02560233 PNO $
63870K0J4 0J420160803192014108/03/16 19:20:31  5-MIN K0J4 040020Z AUTO 00000KT 10SM -RA FEW060 BKN090 BKN110 26/23 A2996 280 87 1600 000/00 RMK AO2 TSE16 T02560233 PNO $
63870K0J4 0J420160803192514308/03/16 19:25:31  5-MIN K0J4 040025Z AUTO 00000KT 10SM FEW060 BKN100 BKN110 26/23 A2996 280 87 1600 000/00 RMK AO2 RAE24 TSE16 T02560233 PNO $
63870K0J4 0J420160803193014308/03/16 19:30:31  5-MIN K0J4 040030Z AUTO 00000KT 10SM FEW060 SCT100 SCT110 26/23 A2996 280 87 1600 000/00 RMK AO2 RAE24 TSE16 T02560233 PNO $
63870K0J4 0J420160803193514308/03/16 19:35:31  5-MIN K0J4 040035Z AUTO 16003KT 10SM FEW060 FEW100 SCT110 25/24 A2996 280 93 1500 160/03 RMK AO2 RAE24 TSE16 T02500239 PNO $
63870K0J4 0J420160803194012908/03/16 19:40:31  5-MIN K0J4 040040Z AUTO 00000KT 10SM FEW060 25/23 A2996 280 90 1500 000/00 RMK AO2 RAE24 TSE16 T02500233 PNO $
63870K0J4 0J420160803194512908/03/16 19:45:31  5-MIN K0J4 040045Z AUTO 00000KT 10SM FEW060 25/23 A2997 270 90 1500 000/00 RMK AO2 RAE24 TSE16 T02500233 PNO $
63870K0J4 0J420160803195012608/03/16 19:50:31  5-MIN K0J4 040050Z AUTO 00000KT 10SM CLR 25/23 A2997 270 90 1500 000/00 RMK AO2 RAE24 TSE16 T02500233 PNO $
63870K0J4 0J420160803195513308/03/16 19:55:31  5-MIN K0J4 040055Z AUTO 12003KT 10SM CLR 25/23 A2997 270 90 1500 120/03 RMK AO2 RAE24 TSE16 SLP145 T02500233 PNO $
63870K0J4 0J420160803200012308/03/16 20:00:31  5-MIN K0J4 040100Z AUTO 00000KT 10SM TS CLR 25/23 A2998 260 90 1500 000/00 RMK AO2 TSB00 T02500233 PNO $
63870K0J4 0J420160803200512608/03/16 20:05:31  5-MIN K0J4 040105Z AUTO 00000KT 10SM TS CLR 25/23 A2998 260 90 1500 000/00 RMK AO2 TSB00B02 T02500233 PNO $
63870K0J4 0J420160803201012608/03/16 20:10:31  5-MIN K0J4 040110Z AUTO 00000KT 10SM TS CLR 25/23 A2998 260 90 1500 000/00 RMK AO2 TSB00B02 T02500233 PNO $
63870K0J4 0J420160803201512608/03/16 20:15:31  5-MIN K0J4 040115Z AUTO 00000KT 10SM TS CLR 25/23 A2998 260 90 1500 000/00 RMK AO2 TSB00B02 T02500233 PNO $
63870K0J4 0J420160803202013508/03/16 20:20:31  5-MIN K0J4 040120Z AUTO 00000KT 10SM -TSRA CLR 25/24 A2998 260 93 1500 000/00 RMK AO2 RAB19 TSB00B02 T02500239 PNO $
63870K0J4 0J420160803202513608/03/16 20:25:31  5-MIN K0J4 040125Z AUTO 00000KT 10SM -RA CLR 25/23 A2998 260 90 1500 000/00 RMK AO2 RAB19 TSB00B02E21 T02500233 PNO $
63870K0J4 0J420160803203013608/03/16 20:30:31  5-MIN K0J4 040130Z AUTO 00000KT 10SM -RA CLR 25/23 A2998 260 90 1500 000/00 RMK AO2 RAB19 TSB00B02E21 T02500233 PNO $
63870K0J4 0J420160803203513508/03/16 20:35:31  5-MIN K0J4 040135Z AUTO 00000KT 10SM CLR 25/23 A2998 260 90 1500 000/00 RMK AO2 RAB19E33 TSB00B02E21 T02500233 PNO $
63870K0J4 0J420160803204013508/03/16 20:40:31  5-MIN K0J4 040140Z AUTO 00000KT 10SM CLR 26/23 A2998 260 84 1600 000/00 RMK AO2 RAB19E33 TSB00B02E21 T02560228 PNO $
63870K0J4 0J420160803204513508/03/16 20:45:31  5-MIN K0J4 040145Z AUTO 11003KT 10SM CLR 26/23 A2998 260 84 1600 110/03 RMK AO2 RAB19E33 TSB00B02E21 T02560228 PNO $
63870K0J4 0J420160803205013508/03/16 20:50:31  5-MIN K0J4 040150Z AUTO 00000KT 10SM CLR 26/23 A2998 260 87 1600 000/00 RMK AO2 RAB19E33 TSB00B02E21 T02560233 PNO $
63870K0J4 0J420160803205514208/03/16 20:55:31  5-MIN K0J4 040155Z AUTO 00000KT 10SM CLR 26/23 A2998 260 87 1600 000/00 RMK AO2 RAB19E33 TSB00B02E21 SLP149 T02560233 PNO $
63870K0J4 0J420160803210011408/03/16 21:00:31  5-MIN K0J4 040200Z AUTO 00000KT 10SM CLR 26/23 A2999 260 87 1600 000/00 RMK AO2 T02560233 PNO $
63870K0J4 0J420160803210511408/03/16 21:05:31  5-MIN K0J4 040205Z AUTO 00000KT 10SM CLR 25/23 A2999 260 90 1500 000/00 RMK AO2 T02500233 PNO $
63870K0J4 0J420160803211011408/03/16 21:10:31  5-MIN K0J4 040210Z AUTO 00000KT 10SM CLR 26/23 A2998 260 87 1600 000/00 RMK AO2 T02560233 PNO $
63870K0J4 0J420160803211511408/03/16 21:15:31  5-MIN K0J4 040215Z AUTO 00000KT 10SM CLR 26/23 A2998 260 87 1600 000/00 RMK AO2 T02560233 PNO $
63870K0J4 0J420160803212011408/03/16 21:20:31  5-MIN K0J4 040220Z AUTO 00000KT 10SM CLR 26/24 A2998 260 90 1600 000/00 RMK AO2 T02560239 PNO $
63870K0J4 0J420160803212511408/03/16 21:25:31  5-MIN K0J4 040225Z AUTO 00000KT 10SM CLR 26/24 A2998 260 90 1600 000/00 RMK AO2 T02560239 PNO $
63870K0J4 0J420160803213011408/03/16 21:30:31  5-MIN K0J4 040230Z AUTO 00000KT 10SM CLR 26/23 A2998 260 87 1600 000/00 RMK AO2 T02560233 PNO $
63870K0J4 0J420160803213511408/03/16 21:35:31  5-MIN K0J4 040235Z AUTO 00000KT 10SM CLR 26/23 A2998 260 87 1600 000/00 RMK AO2 T02560233 PNO $
63870K0J4 0J420160803214011408/03/16 21:40:31  5-MIN K0J4 040240Z AUTO 00000KT 10SM CLR 25/24 A2998 260 93 1500 000/00 RMK AO2 T02500239 PNO $
63870K0J4 0J420160803214511408/03/16 21:45:31  5-MIN K0J4 040245Z AUTO 00000KT 10SM CLR 25/23 A2998 260 90 1500 000/00 RMK AO2 T02500233 PNO $
63870K0J4 0J420160803215011708/03/16 21:50:31  5-MIN K0J4 040250Z AUTO 00000KT 10SM FEW060 25/23 A2998 260 90 1500 000/00 RMK AO2 T02500233 PNO $
63870K0J4 0J420160803215513608/03/16 21:55:31  5-MIN K0J4 040255Z AUTO 21004KT 10SM FEW060 25/23 A2998 260 90 1500 210/04 RMK AO2 SLP148 6//// T02500233 53006 PNO $
63870K0J4 0J420160803220011708/03/16 22:00:31  5-MIN K0J4 040300Z AUTO 23003KT 10SM FEW060 25/23 A2998 260 90 1500 230/03 RMK AO2 T02500233 PNO $
63870K0J4 0J420160803220511708/03/16 22:05:31  5-MIN K0J4 040305Z AUTO 00000KT 10SM FEW060 25/23 A2998 260 90 1500 000/00 RMK AO2 T02500233 PNO $
63870K0J4 0J420160803221012408/03/16 22:10:31  5-MIN K0J4 040310Z AUTO 23003KT 10SM FEW050 FEW060 25/23 A2999 260 90 1500 230/03 RMK AO2 T02500233 PNO $
63870K0J4 0J420160803221511708/03/16 22:15:31  5-MIN K0J4 040315Z AUTO 00000KT 10SM SCT055 25/23 A2999 260 90 1500 000/00 RMK AO2 T02500233 PNO $
63870K0J4 0J420160803222011708/03/16 22:20:31  5-MIN K0J4 040320Z AUTO 18003KT 10SM SCT055 25/23 A2999 260 90 1500 180/03 RMK AO2 T02500233 PNO $
63870K0J4 0J420160803222511708/03/16 22:25:31  5-MIN K0J4 040325Z AUTO 00000KT 10SM SCT055 25/23 A2998 260 90 1500 000/00 RMK AO2 T02500233 PNO $
63870K0J4 0J420160803223011708/03/16 22:30:31  5-MIN K0J4 040330Z AUTO 00000KT 10SM BKN055 25/24 A2998 260 93 1500 000/00 RMK AO2 T02500239 PNO $
63870K0J4 0J420160803223513108/03/16 22:35:31  5-MIN K0J4 040335Z AUTO 00000KT 10SM SCT050 BKN060 BKN085 25/23 A2998 260 90 1500 000/00 RMK AO2 T02500233 PNO $
63870K0J4 0J420160803224014008/03/16 22:40:31  5-MIN K0J4 040340Z AUTO 00000KT 10SM TS BKN055 BKN070 BKN085 25/23 A2998 260 90 1500 000/00 RMK AO2 TSB37 T02500233 PNO $
63870K0J4 0J420160803224514008/03/16 22:45:31  5-MIN K0J4 040345Z AUTO 00000KT 10SM TS SCT055 BKN070 BKN085 25/23 A2998 260 90 1500 000/00 RMK AO2 TSB37 T02500233 PNO $
63870K0J4 0J420160803225014008/03/16 22:50:31  5-MIN K0J4 040350Z AUTO 00000KT 10SM TS FEW049 SCT060 BKN085 24/23 A2998 260 93 1500 000/00 RMK AO2 TSB37 T02440233 PNO $
63870K0J4 0J420160803225512908/03/16 22:55:31  5-MIN K0J4 040355Z AUTO 00000KT 9SM FEW049 SCT060 SCT085 24/23 A2998 260 93 1500 000/00 RMK AO2 TSB37E52 PNO $
63870K0J4 0J420160803230013008/03/16 23:00:31  5-MIN K0J4 040400Z AUTO 00000KT 9SM FEW049 SCT060 BKN085 24/23 A2998 260 93 1500 000/00 RMK AO2 T02440233 PNO $
63870K0J4 0J420160803230512408/03/16 23:05:31  5-MIN K0J4 040405Z AUTO 00000KT 10SM BKN060 BKN110 24/23 A2999 260 93 1400 000/00 RMK AO2 T02440233 PNO $
63870K0J4 0J420160803231012408/03/16 23:10:31  5-MIN K0J4 040410Z AUTO 00000KT 10SM SCT055 BKN110 25/24 A2999 260 93 1500 000/00 RMK AO2 T02500239 PNO $
63870K0J4 0J420160803231512408/03/16 23:15:31  5-MIN K0J4 040415Z AUTO 00000KT 10SM FEW055 BKN110 24/23 A2998 260 93 1500 000/00 RMK AO2 T02440233 PNO $
63870K0J4 0J420160803232012308/03/16 23:20:31  5-MIN K0J4 040420Z AUTO 00000KT 9SM FEW055 BKN110 24/23 A2999 260 93 1400 000/00 RMK AO2 T02440233 PNO $
63870K0J4 0J420160803232512308/03/16 23:25:31  5-MIN K0J4 040425Z AUTO 00000KT 9SM FEW055 SCT110 24/23 A2998 260 93 1500 000/00 RMK AO2 T02440233 PNO $
63870K0J4 0J420160803233012308/03/16 23:30:31  5-MIN K0J4 040430Z AUTO 00000KT 9SM FEW055 SCT110 24/23 A2998 260 93 1500 000/00 RMK AO2 T02440233 PNO $
63870K0J4 0J420160803233511608/03/16 23:35:31  5-MIN K0J4 040435Z AUTO 00000KT 9SM FEW110 24/23 A2998 260 93 1500 000/00 RMK AO2 T02440233 PNO $
63870K0J4 0J420160803234012308/03/16 23:40:31  5-MIN K0J4 040440Z AUTO 00000KT 9SM FEW050 FEW110 24/23 A2998 260 93 1500 000/00 RMK AO2 T02440233 PNO $
63870K0J4 0J420160803234511308/03/16 23:45:31  5-MIN K0J4 040445Z AUTO 00000KT 9SM CLR 24/23 A2998 260 93 1500 000/00 RMK AO2 T02440233 PNO $
63870K0J4 0J420160803235011408/03/16 23:50:31  5-MIN K0J4 040450Z AUTO 00000KT 10SM CLR 25/23 A2998 260 90 1500 000/00 RMK AO2 T02500233 PNO $
63870K0J4 0J420160803235513108/03/16 23:55:31  5-MIN K0J4 040455Z AUTO 00000KT 10SM CLR 25/23 A2998 260 90 1500 000/00 RMK AO2 SLP147 T02500233 403440211 PNO $
63870K0J4 0J420160804000011708/04/16 00:00:31  5-MIN K0J4 040500Z AUTO 00000KT 10SM FEW110 24/23 A2998 260 93 1500 000/00 RMK AO2 T02440233 PNO $
63870K0J4 0J420160804000511708/04/16 00:05:31  5-MIN K0J4 040505Z AUTO 00000KT 10SM SCT100 24/23 A2998 260 93 1500 000/00 RMK AO2 T02440233 PNO $
63870K0J4 0J420160804001012308/04/16 00:10:31  5-MIN K0J4 040510Z AUTO 00000KT 9SM FEW048 SCT100 24/23 A2998 260 93 1500 000/00 RMK AO2 T02440233 PNO $
63870K0J4 0J420160804001512308/04/16 00:15:31  5-MIN K0J4 040515Z AUTO 00000KT 9SM SCT048 BKN100 25/24 A2998 260 93 1500 000/00 RMK AO2 T02500239 PNO $
63870K0J4 0J420160804002012308/04/16 00:20:31  5-MIN K0J4 040520Z AUTO 00000KT 9SM BKN048 BKN100 25/24 A2998 260 93 1500 000/00 RMK AO2 T02500239 PNO $
63870K0J4 0J420160804002512408/04/16 00:25:31  5-MIN K0J4 040525Z AUTO 00000KT 10SM BKN050 BKN100 25/24 A2998 260 93 1500 000/00 RMK AO2 T02500239 PNO $
63870K0J4 0J420160804003013108/04/16 00:30:31  5-MIN K0J4 040530Z AUTO 00000KT 10SM BKN050 BKN055 BKN100 24/23 A2998 260 93 1500 000/00 RMK AO2 T02440233 PNO $
63870K0J4 0J420160804003511708/04/16 00:35:31  5-MIN K0J4 040535Z AUTO 00000KT 10SM BKN050 24/23 A2998 260 93 1500 000/00 RMK AO2 T02440233 PNO $
63870K0J4 0J420160804004011608/04/16 00:40:31  5-MIN K0J4 040540Z AUTO 00000KT 9SM BKN050 24/23 A2998 260 93 1500 000/00 RMK AO2 T02440233 PNO $
63870K0J4 0J420160804004511608/04/16 00:45:31  5-MIN K0J4 040545Z AUTO 00000KT 7SM SCT050 24/23 A2998 270 93 1500 000/00 RMK AO2 T02440233 PNO $
63870K0J4 0J420160804005011608/04/16 00:50:31  5-MIN K0J4 040550Z AUTO 18003KT 7SM FEW050 24/23 A2998 260 93 1500 180/03 RMK AO2 T02440233 PNO $
63870K0J4 0J420160804005514708/04/16 00:55:31  5-MIN K0J4 040555Z AUTO 00000KT 7SM FEW050 24/23 A2998 260 93 1500 000/00 RMK AO2 SLP147 6//// T02440233 10256 20239 50002 PNO $
63870K0J4 0J420160804010011308/04/16 01:00:31  5-MIN K0J4 040600Z AUTO 00000KT 7SM CLR 24/23 A2998 260 93 1500 000/00 RMK AO2 T02440233 PNO $
63870K0J4 0J420160804010511308/04/16 01:05:31  5-MIN K0J4 040605Z AUTO 00000KT 8SM CLR 24/23 A2997 270 93 1500 000/00 RMK AO2 T02440233 PNO $
63870K0J4 0J420160804011011308/04/16 01:10:31  5-MIN K0J4 040610Z AUTO 00000KT 9SM CLR 24/23 A2997 270 93 1500 000/00 RMK AO2 T02440233 PNO $
63870K0J4 0J420160804011511308/04/16 01:15:31  5-MIN K0J4 040615Z AUTO 00000KT 9SM CLR 24/23 A2997 270 93 1500 000/00 RMK AO2 T02440233 PNO $
63870K0J4 0J420160804012011308/04/16 01:20:31  5-MIN K0J4 040620Z AUTO 00000KT 8SM CLR 24/23 A2997 270 93 1500 000/00 RMK AO2 T02440233 PNO $
63870K0J4 0J420160804012511308/04/16 01:25:31  5-MIN K0J4 040625Z AUTO 00000KT 7SM CLR 24/23 A2997 270 97 1400 000/00 RMK AO2 T02390233 PNO $
63870K0J4 0J420160804013011608/04/16 01:30:31  5-MIN K0J4 040630Z AUTO 00000KT 6SM BR CLR 24/23 A2996 280 97 1400 000/00 RMK AO2 T02390233 PNO $
63870K0J4 0J420160804013511608/04/16 01:35:31  5-MIN K0J4 040635Z AUTO 00000KT 6SM BR CLR 24/23 A2996 280 97 1400 000/00 RMK AO2 T02390233 PNO $
63870K0J4 0J420160804014011308/04/16 01:40:31  5-MIN K0J4 040640Z AUTO 00000KT 7SM CLR 24/23 A2996 280 97 1400 000/00 RMK AO2 T02390233 PNO $
63870K0J4 0J420160804014511308/04/16 01:45:31  5-MIN K0J4 040645Z AUTO 00000KT 8SM CLR 24/23 A2996 280 93 1400 000/00 RMK AO2 T02390228 PNO $
63870K0J4 0J420160804015011308/04/16 01:50:31  5-MIN K0J4 040650Z AUTO 00000KT 9SM CLR 24/23 A2996 280 93 1500 000/00 RMK AO2 T02440233 PNO $
63870K0J4 0J420160804015512108/04/16 01:55:31  5-MIN K0J4 040655Z AUTO 00000KT 10SM CLR 24/23 A2996 280 93 1500 000/00 RMK AO2 SLP140 T02440233 PNO $
63870K0J4 0J420160804020011408/04/16 02:00:31  5-MIN K0J4 040700Z AUTO 00000KT 10SM CLR 24/23 A2996 280 93 1500 000/00 RMK AO2 T02440233 PNO $
63870K0J4 0J420160804020511408/04/16 02:05:31  5-MIN K0J4 040705Z AUTO 00000KT 10SM CLR 24/23 A2996 280 93 1500 000/00 RMK AO2 T02440233 PNO $
63870K0J4 0J420160804021011408/04/16 02:10:31  5-MIN K0J4 040710Z AUTO 00000KT 10SM CLR 24/23 A2996 280 93 1500 000/00 RMK AO2 T02440233 PNO $
63870K0J4 0J420160804021511408/04/16 02:15:31  5-MIN K0J4 040715Z AUTO 23003KT 10SM CLR 24/23 A2996 280 93 1500 230/03 RMK AO2 T02440233 PNO $
63870K0J4 0J420160804022011408/04/16 02:20:31  5-MIN K0J4 040720Z AUTO 24003KT 10SM CLR 24/23 A2996 280 93 1500 240/03 RMK AO2 T02440233 PNO $
63870K0J4 0J420160804022511408/04/16 02:25:31  5-MIN K0J4 040725Z AUTO 00000KT 10SM CLR 24/23 A2996 280 93 1500 000/00 RMK AO2 T02440233 PNO $
63870K0J4 0J420160804023012408/04/16 02:30:31  5-MIN K0J4 040730Z AUTO 23003KT 10SM -RA CLR 24/23 A2996 280 93 1500 230/03 RMK AO2 RAB26 T02440233 PNO $
63870K0J4 0J420160804023512408/04/16 02:35:31  5-MIN K0J4 040735Z AUTO 21003KT 10SM -RA CLR 24/23 A2996 280 93 1500 210/03 RMK AO2 RAB26 T02440233 PNO $
63870K0J4 0J420160804024012408/04/16 02:40:31  5-MIN K0J4 040740Z AUTO 00000KT 10SM -RA CLR 24/23 A2996 280 93 1400 000/00 RMK AO2 RAB26 T02390228 PNO $
63870K0J4 0J420160804024512408/04/16 02:45:31  5-MIN K0J4 040745Z AUTO 00000KT 10SM -RA CLR 24/23 A2995 280 93 1400 000/00 RMK AO2 RAB26 T02390228 PNO $
63870K0J4 0J420160804025012308/04/16 02:50:31  5-MIN K0J4 040750Z AUTO 00000KT 10SM CLR 24/23 A2995 290 93 1400 000/00 RMK AO2 RAB26E46 T02390228 PNO $
63870K0J4 0J420160804025513008/04/16 02:55:31  5-MIN K0J4 040755Z AUTO 00000KT 10SM CLR 24/23 A2995 290 90 1500 000/00 RMK AO2 RAB26E46 SLP138 T02440228 PNO $
63870K0J4 0J420160804030011708/04/16 03:00:31  5-MIN K0J4 040800Z AUTO 00000KT 10SM SCT038 24/23 A2995 290 90 1500 000/00 RMK AO2 T02440228 PNO $
63870K0J4 0J420160804030511708/04/16 03:05:31  5-MIN K0J4 040805Z AUTO 00000KT 10SM BKN038 24/23 A2995 290 93 1500 000/00 RMK AO2 T02440233 PNO $
63870K0J4 0J420160804031011708/04/16 03:10:31  5-MIN K0J4 040810Z AUTO 00000KT 10SM BKN038 24/23 A2995 290 93 1400 000/00 RMK AO2 T02390228 PNO $
63870K0J4 0J420160804031511608/04/16 03:15:31  5-MIN K0J4 040815Z AUTO 00000KT 9SM BKN040 24/23 A2996 280 93 1400 000/00 RMK AO2 T02390228 PNO $
63870K0J4 0J420160804032011708/04/16 03:20:31  5-MIN K0J4 040820Z AUTO 00000KT 10SM BKN040 24/23 A2996 280 90 1500 000/00 RMK AO2 T02440228 PNO $
63870K0J4 0J420160804032511708/04/16 03:25:31  5-MIN K0J4 040825Z AUTO 00000KT 10SM BKN040 24/23 A2996 280 90 1500 000/00 RMK AO2 T02440228 PNO $
63870K0J4 0J420160804033011708/04/16 03:30:31  5-MIN K0J4 040830Z AUTO 00000KT 10SM BKN040 24/23 A2996 280 90 1500 000/00 RMK AO2 T02440228 PNO $
63870K0J4 0J420160804033511708/04/16 03:35:31  5-MIN K0J4 040835Z AUTO 00000KT 10SM BKN040 24/23 A2995 280 93 1500 000/00 RMK AO2 T02440233 PNO $
63870K0J4 0J420160804034011708/04/16 03:40:31  5-MIN K0J4 040840Z AUTO 00000KT 10SM BKN040 24/23 A2995 280 90 1500 000/00 RMK AO2 T02440228 PNO $
63870K0J4 0J420160804034511608/04/16 03:45:31  5-MIN K0J4 040845Z AUTO 00000KT 9SM BKN040 24/23 A2995 290 93 1400 000/00 RMK AO2 T02390228 PNO $
63870K0J4 0J420160804035011608/04/16 03:50:31  5-MIN K0J4 040850Z AUTO 00000KT 9SM SCT039 24/23 A2995 290 93 1400 000/00 RMK AO2 T02390228 PNO $
63870K0J4 0J420160804035513608/04/16 03:55:31  5-MIN K0J4 040855Z AUTO 00000KT 10SM SCT039 24/23 A2995 290 93 1400 000/00 RMK AO2 SLP136 6//// T02390228 58001 PNO $
63870K0J4 0J420160804040011608/04/16 04:00:31  5-MIN K0J4 040900Z AUTO 00000KT 9SM SCT037 24/23 A2995 290 93 1400 000/00 RMK AO2 T02390228 PNO $
63870K0J4 0J420160804040511608/04/16 04:05:31  5-MIN K0J4 040905Z AUTO 00000KT 8SM FEW037 24/23 A2995 290 93 1400 000/00 RMK AO2 T02390228 PNO $
63870K0J4 0J420160804041011608/04/16 04:10:31  5-MIN K0J4 040910Z AUTO 00000KT 8SM FEW037 24/23 A2995 290 93 1400 000/00 RMK AO2 T02390228 PNO $
63870K0J4 0J420160804041511608/04/16 04:15:31  5-MIN K0J4 040915Z AUTO 00000KT 8SM FEW037 24/23 A2995 290 93 1400 000/00 RMK AO2 T02390228 PNO $
63870K0J4 0J420160804042011608/04/16 04:20:31  5-MIN K0J4 040920Z AUTO 00000KT 7SM FEW037 24/23 A2996 280 93 1400 000/00 RMK AO2 T02390228 PNO $
63870K0J4 0J420160804042511308/04/16 04:25:31  5-MIN K0J4 040925Z AUTO 00000KT 8SM CLR 24/23 A2995 290 93 1400 000/00 RMK AO2 T02390228 PNO $
63870K0J4 0J420160804043011308/04/16 04:30:31  5-MIN K0J4 040930Z AUTO 00000KT 9SM CLR 24/23 A2996 280 93 1400 000/00 RMK AO2 T02390228 PNO $
63870K0J4 0J420160804043511308/04/16 04:35:31  5-MIN K0J4 040935Z AUTO 00000KT 9SM CLR 24/23 A2996 280 93 1400 000/00 RMK AO2 T02390228 PNO $
63870K0J4 0J420160804044011408/04/16 04:40:31  5-MIN K0J4 040940Z AUTO 00000KT 10SM CLR 24/23 A2996 280 93 1400 000/00 RMK AO2 T02390228 PNO $
63870K0J4 0J420160804044511308/04/16 04:45:31  5-MIN K0J4 040945Z AUTO 25003KT 9SM CLR 24/23 A2996 280 93 1400 250/03 RMK AO2 T02390228 PNO $
63870K0J4 0J420160804045011608/04/16 04:50:31  5-MIN K0J4 040950Z AUTO 00000KT 9SM FEW038 24/23 A2996 280 93 1400 000/00 RMK AO2 T02390228 PNO $
63870K0J4 0J420160804045512308/04/16 04:55:31  5-MIN K0J4 040955Z AUTO 00000KT 9SM SCT038 24/23 A2997 270 93 1400 000/00 RMK AO2 SLP143 T02390228 PNO $
63870K0J4 0J420160804050011608/04/16 05:00:31  5-MIN K0J4 041000Z AUTO 00000KT 9SM BKN038 24/23 A2997 270 93 1400 000/00 RMK AO2 T02390228 PNO $
63870K0J4 0J420160804050511608/04/16 05:05:31  5-MIN K0J4 041005Z AUTO 00000KT 9SM BKN038 24/23 A2997 270 93 1400 000/00 RMK AO2 T02390228 PNO $
63870K0J4 0J420160804051011608/04/16 05:10:31  5-MIN K0J4 041010Z AUTO 13004KT 9SM BKN039 24/23 A2998 260 97 1400 130/04 RMK AO2 T02390233 PNO $
63870K0J4 0J420160804051511608/04/16 05:15:31  5-MIN K0J4 041015Z AUTO 13003KT 9SM OVC039 24/23 A2998 260 97 1400 130/03 RMK AO2 T02390233 PNO $
63870K0J4 0J420160804052011608/04/16 05:20:31  5-MIN K0J4 041020Z AUTO 00000KT 9SM OVC039 24/23 A2998 260 97 1400 000/00 RMK AO2 T02390233 PNO $
63870K0J4 0J420160804052511608/04/16 05:25:31  5-MIN K0J4 041025Z AUTO 00000KT 8SM OVC039 24/23 A2998 260 93 1500 000/00 RMK AO2 T02440233 PNO $
63870K0J4 0J420160804053011608/04/16 05:30:31  5-MIN K0J4 041030Z AUTO 00000KT 8SM OVC039 24/23 A2998 260 93 1500 000/00 RMK AO2 T02440233 PNO $
63870K0J4 0J420160804053512308/04/16 05:35:31  5-MIN K0J4 041035Z AUTO 00000KT 8SM BKN039 OVC048 24/23 A2998 260 93 1500 000/00 RMK AO2 T02440233 PNO $
63870K0J4 0J420160804054011608/04/16 05:40:31  5-MIN K0J4 041040Z AUTO 00000KT 8SM BKN039 24/23 A2998 260 97 1400 000/00 RMK AO2 T02390233 PNO $
63870K0J4 0J420160804054511608/04/16 05:45:31  5-MIN K0J4 041045Z AUTO 00000KT 7SM BKN040 24/23 A2998 260 93 1400 000/00 RMK AO2 T02390228 PNO $
63870K0J4 0J420160804055011608/04/16 05:50:31  5-MIN K0J4 041050Z AUTO 00000KT 8SM SCT040 24/23 A2998 260 93 1400 000/00 RMK AO2 T02390228 PNO $
63870K0J4 0J420160804055512308/04/16 05:55:31  5-MIN K0J4 041055Z AUTO 00000KT 8SM SCT040 24/23 A2998 260 97 1400 000/00 RMK AO2 SLP148 T02390233 PNO $
63870K0J4 0J420160804060011608/04/16 06:00:31  5-MIN K0J4 041100Z AUTO 00000KT 7SM FEW040 24/23 A2998 260 93 1400 000/00 RMK AO2 T02390228 PNO $
63870K0J4 0J420160804060511608/04/16 06:05:31  5-MIN K0J4 041105Z AUTO 22004KT 7SM FEW040 24/23 A2999 260 93 1400 220/04 RMK AO2 T02390228 PNO $
63870K0J4 0J420160804061011308/04/16 06:10:31  5-MIN K0J4 041110Z AUTO 19003KT 7SM CLR 24/23 A2999 250 97 1400 190/03 RMK AO2 T02390233 PNO $
63870K0J4 0J420160804061511608/04/16 06:15:31  5-MIN K0J4 041115Z AUTO 20003KT 6SM BR CLR 24/23 A2999 250 93 1400 200/03 RMK AO2 T02390228 PNO $
63870K0J4 0J420160804062011608/04/16 06:20:31  5-MIN K0J4 041120Z AUTO 21005KT 6SM BR CLR 24/23 A2999 250 97 1400 210/05 RMK AO2 T02390233 PNO $
63870K0J4 0J420160804062511308/04/16 06:25:31  5-MIN K0J4 041125Z AUTO 22005KT 8SM CLR 24/23 A2999 250 97 1400 220/05 RMK AO2 T02390233 PNO $
63870K0J4 0J420160804063011308/04/16 06:30:31  5-MIN K0J4 041130Z AUTO 21006KT 8SM CLR 24/23 A2999 250 97 1400 210/06 RMK AO2 T02390233 PNO $
63870K0J4 0J420160804063511308/04/16 06:35:31  5-MIN K0J4 041135Z AUTO 22005KT 9SM CLR 24/23 A2999 250 97 1400 220/05 RMK AO2 T02390233 PNO $
63870K0J4 0J420160804064011408/04/16 06:40:31  5-MIN K0J4 041140Z AUTO 23005KT 10SM CLR 24/23 A2999 250 93 1400 230/05 RMK AO2 T02390228 PNO $
63870K0J4 0J420160804064511408/04/16 06:45:31  5-MIN K0J4 041145Z AUTO 23003KT 10SM CLR 24/23 A2999 250 93 1400 230/03 RMK AO2 T02390228 PNO $
63870K0J4 0J420160804065011408/04/16 06:50:31  5-MIN K0J4 041150Z AUTO 00000KT 10SM CLR 24/23 A2999 250 93 1400 000/00 RMK AO2 T02440233 PNO $
63870K0J4 0J420160804065515108/04/16 06:55:31  5-MIN K0J4 041155Z AUTO 00000KT 10SM CLR 24/23 A3000 250 93 1400 000/00 RMK AO2 SLP153 6//// 7//// T02440233 10244 20239 56009 PNO $
63870K0J4 0J420160804070011408/04/16 07:00:31  5-MIN K0J4 041200Z AUTO 00000KT 10SM CLR 24/23 A3000 240 93 1400 000/00 RMK AO2 T02440233 PNO $
63870K0J4 0J420160804070511408/04/16 07:05:31  5-MIN K0J4 041205Z AUTO 20004KT 10SM CLR 24/23 A3000 240 93 1400 200/04 RMK AO2 T02440233 PNO $
63870K0J4 0J420160804071011408/04/16 07:10:31  5-MIN K0J4 041210Z AUTO VRB03KT 10SM CLR 25/23 A3000 240 90 1500 VRB/03 RMK AO2 T02500233 PNO $
63870K0J4 0J420160804071511408/04/16 07:15:31  5-MIN K0J4 041215Z AUTO 00000KT 10SM CLR 25/23 A3000 240 90 1500 000/00 RMK AO2 T02500233 PNO $
63870K0J4 0J420160804072011408/04/16 07:20:31  5-MIN K0J4 041220Z AUTO 23003KT 10SM CLR 25/23 A3000 240 90 1500 230/03 RMK AO2 T02500233 PNO $
63870K0J4 0J420160804072511408/04/16 07:25:31  5-MIN K0J4 041225Z AUTO 23004KT 10SM CLR 26/23 A3000 240 87 1600 230/04 RMK AO2 T02560233 PNO $
63870K0J4 0J420160804074007308/04/16 07:40:31  5-MIN K0J4 041240Z AUTO 23004KT M M M 230/04 RMK AO2 $
63870K0J4 0J420160804074510108/04/16 07:45:31  5-MIN K0J4 041245Z AUTO 22004KT 26/24 A3000 240 87 1600 220/04 RMK AO2 T02610239 $
63870K0J4 0J420160804075010608/04/16 07:50:31  5-MIN K0J4 041250Z AUTO 23004KT 10SM 26/24 A3000 240 87 1600 230/04 RMK AO2 T02610239 $
63870K0J4 0J420160804075511308/04/16 07:55:31  5-MIN K0J4 041255Z AUTO 24004KT 10SM 26/24 A3000 240 87 1600 240/04 RMK AO2 SLP154 T02610239 $
63870K0J4 0J420160804080010608/04/16 08:00:31  5-MIN K0J4 041300Z AUTO 22003KT 10SM 26/24 A3001 240 87 1600 220/03 RMK AO2 T02610239 $
63870K0J4 0J420160804080510608/04/16 08:05:31  5-MIN K0J4 041305Z AUTO 00000KT 10SM 27/24 A3001 230 84 1700 000/00 RMK AO2 T02670239 $
63870K0J4 0J420160804082007908/04/16 08:20:31  5-MIN K0J4 041320Z AUTO 25005KT A3001 M M M 250/05 RMK AO2 $
63870K0J4 0J420160804082510108/04/16 08:25:31  5-MIN K0J4 041325Z AUTO VRB05KT 27/24 A3001 230 82 1700 VRB/05 RMK AO2 T02720239 $
63870K0J4 0J420160804083010608/04/16 08:30:31  5-MIN K0J4 041330Z AUTO 24005KT 10SM 27/24 A3002 230 82 1700 240/05 RMK AO2 T02720239 $
63870K0J4 0J420160804083510608/04/16 08:35:31  5-MIN K0J4 041335Z AUTO 25006KT 10SM 27/24 A3002 220 82 1700 250/06 RMK AO2 T02720239 $
63870K0J4 0J420160804084010608/04/16 08:40:31  5-MIN K0J4 041340Z AUTO 23004KT 10SM 28/24 A3002 230 79 1800 230/04 RMK AO2 T02780239 $
63870K0J4 0J420160804084510608/04/16 08:45:31  5-MIN K0J4 041345Z AUTO VRB04KT 10SM 28/24 A3002 230 79 1900 VRB/04 RMK AO2 T02830244 $
63870K0J4 0J420160804085011008/04/16 08:50:31  5-MIN K0J4 041350Z AUTO VRB04KT 10SM CLR 28/24 A3002 230 79 1800 VRB/04 RMK AO2 T02780239 $
63870K0J4 0J420160804085511708/04/16 08:55:31  5-MIN K0J4 041355Z AUTO VRB03KT 10SM CLR 28/24 A3002 230 79 1900 VRB/03 RMK AO2 SLP159 T02830244 $
63870K0J4 0J420160804090011008/04/16 09:00:31  5-MIN K0J4 041400Z AUTO VRB05KT 10SM CLR 29/24 A3002 230 76 1900 VRB/05 RMK AO2 T02890244 $
63870K0J4 0J420160804090511008/04/16 09:05:31  5-MIN K0J4 041405Z AUTO VRB04KT 10SM CLR 29/24 A3002 230 74 1900 VRB/04 RMK AO2 T02890239 $
63870K0J4 0J420160804091011008/04/16 09:10:31  5-MIN K0J4 041410Z AUTO VRB04KT 10SM CLR 28/24 A3002 230 79 1900 VRB/04 RMK AO2 T02830244 $
63870K0J4 0J420160804091511308/04/16 09:15:31  5-MIN K0J4 041415Z AUTO VRB06KT 10SM FEW015 29/24 A3002 220 76 1900 VRB/06 RMK AO2 T02890244 $
63870K0J4 0J420160804092011108/04/16 09:20:31  5-MIN K0J4 041420Z AUTO 23004KT 10SM FEW015 28/24 A3002 230 79 1900 230/04 RMK AO2 T02830244
63870K0J4 0J420160804092511108/04/16 09:25:31  5-MIN K0J4 041425Z AUTO 24006KT 10SM FEW015 28/24 A3002 230 76 1900 240/06 RMK AO2 T02830239
63870K0J4 0J420160804093011108/04/16 09:30:31  5-MIN K0J4 041430Z AUTO VRB03KT 10SM FEW015 29/24 A3002 230 74 1900 VRB/03 RMK AO2 T02890239
63870K0J4 0J420160804093511108/04/16 09:35:31  5-MIN K0J4 041435Z AUTO VRB05KT 10SM FEW015 29/24 A3002 230 74 1900 VRB/05 RMK AO2 T02890239
63870K0J4 0J420160804094010808/04/16 09:40:31  5-MIN K0J4 041440Z AUTO VRB05KT 10SM CLR 29/24 A3002 220 71 2000 VRB/05 RMK AO2 T02940239
63870K0J4 0J420160804094511108/04/16 09:45:31  5-MIN K0J4 041445Z AUTO VRB03KT 10SM FEW017 29/24 A3002 220 74 2000 VRB/03 RMK AO2 T02940244
63870K0J4 0J420160804095011108/04/16 09:50:31  5-MIN K0J4 041450Z AUTO 00000KT 10SM FEW017 29/24 A3002 220 71 2000 000/00 RMK AO2 T02940239
63870K0J4 0J420160804095512408/04/16 09:55:31  5-MIN K0J4 041455Z AUTO VRB04KT 10SM SCT017 29/24 A3002 220 71 2000 VRB/04 RMK AO2 SLP161 6//// T02940239
63870K0J4 0J420160804100011108/04/16 10:00:31  5-MIN K0J4 041500Z AUTO VRB03KT 10SM FEW017 29/24 A3002 220 74 2000 VRB/03 RMK AO2 T02940244
63870K0J4 0J420160804100511108/04/16 10:05:31  5-MIN K0J4 041505Z AUTO VRB04KT 10SM FEW017 30/24 A3002 220 72 2000 VRB/04 RMK AO2 T03000244
63870K0J4 0J420160804101011108/04/16 10:10:31  5-MIN K0J4 041510Z AUTO 32005KT 10SM FEW017 30/24 A3002 220 72 2000 320/05 RMK AO2 T03000244
63870K0J4 0J420160804101511108/04/16 10:15:31  5-MIN K0J4 041515Z AUTO 00000KT 10SM SCT017 29/24 A3002 220 74 2000 000/00 RMK AO2 T02940244
63870K0J4 0J420160804102011108/04/16 10:20:31  5-MIN K0J4 041520Z AUTO 31004KT 10SM SCT017 29/24 A3002 220 74 2000 310/04 RMK AO2 T02940244
63870K0J4 0J420160804102511108/04/16 10:25:31  5-MIN K0J4 041525Z AUTO VRB05KT 10SM SCT017 30/24 A3003 220 72 2000 VRB/05 RMK AO2 T03000244
63870K0J4 0J420160804103011108/04/16 10:30:31  5-MIN K0J4 041530Z AUTO VRB03KT 10SM SCT017 30/24 A3003 220 72 2000 VRB/03 RMK AO2 T03000244
63870K0J4 0J420160804103511108/04/16 10:35:31  5-MIN K0J4 041535Z AUTO 00000KT 10SM FEW017 30/24 A3003 220 72 2000 000/00 RMK AO2 T03000244
63870K0J4 0J420160804104011808/04/16 10:40:31  5-MIN K0J4 041540Z AUTO VRB04KT 10SM FEW017 FEW025 30/24 A3003 220 72 2000 VRB/04 RMK AO2 T03000244
63870K0J4 0J420160804104511808/04/16 10:45:31  5-MIN K0J4 041545Z AUTO VRB03KT 10SM FEW019 FEW025 31/24 A3003 220 69 2100 VRB/03 RMK AO2 T03060244
63870K0J4 0J420160804105011108/04/16 10:50:31  5-MIN K0J4 041550Z AUTO VRB03KT 10SM FEW026 31/24 A3002 220 67 2200 VRB/03 RMK AO2 T03110244
63870K0J4 0J420160804105512508/04/16 10:55:31  5-MIN K0J4 041555Z AUTO 00000KT 10SM FEW026 SCT030 31/24 A3002 220 67 2200 000/00 RMK AO2 SLP161 T03110244
63870K0J4 0J420160804110011808/04/16 11:00:31  5-MIN K0J4 041600Z AUTO VRB04KT 10SM SCT024 BKN031 31/24 A3002 220 67 2200 VRB/04 RMK AO2 T03110244
63870K0J4 0J420160804110511808/04/16 11:05:31  5-MIN K0J4 041605Z AUTO VRB03KT 10SM SCT024 BKN031 30/24 A3002 230 72 2000 VRB/03 RMK AO2 T03000244
63870K0J4 0J420160804111012508/04/16 11:10:31  5-MIN K0J4 041610Z AUTO 00000KT 10SM FEW024 SCT029 BKN035 31/24 A3001 230 69 2100 000/00 RMK AO2 T03060244
63870K0J4 0J420160804111512508/04/16 11:15:31  5-MIN K0J4 041615Z AUTO VRB03KT 10SM FEW023 SCT029 BKN037 31/24 A3001 230 67 2200 VRB/03 RMK AO2 T03110244
63870K0J4 0J420160804112012508/04/16 11:20:31  5-MIN K0J4 041620Z AUTO 00000KT 10SM FEW021 SCT032 BKN042 32/24 A3001 230 63 2200 000/00 RMK AO2 T03170239
63870K0J4 0J420160804112512508/04/16 11:25:31  5-MIN K0J4 041625Z AUTO VRB04KT 10SM FEW021 SCT026 BKN036 32/24 A3001 230 63 2300 VRB/04 RMK AO2 T03220244
63870K0J4 0J420160804113012508/04/16 11:30:31  5-MIN K0J4 041630Z AUTO VRB03KT 10SM SCT026 BKN036 BKN045 32/25 A3001 240 67 2200 VRB/03 RMK AO2 T03170250
63870K0J4 0J420160804113512508/04/16 11:35:31  5-MIN K0J4 041635Z AUTO 00000KT 10SM SCT026 BKN036 BKN045 31/24 A3001 240 67 2100 000/00 RMK AO2 T03060239
63870K0J4 0J420160804114011808/04/16 11:40:31  5-MIN K0J4 041640Z AUTO 00000KT 10SM SCT026 SCT043 31/25 A3000 240 69 2200 000/00 RMK AO2 T03110250
63870K0J4 0J420160804114511108/04/16 11:45:31  5-MIN K0J4 041645Z AUTO 00000KT 10SM FEW026 32/24 A3000 240 61 2300 000/00 RMK AO2 T03220239
63870K0J4 0J420160804115011808/04/16 11:50:31  5-MIN K0J4 041650Z AUTO VRB05KT 10SM FEW026 SCT042 33/24 A3000 240 61 2400 VRB/05 RMK AO2 T03280244
63870K0J4 0J420160804115512508/04/16 11:55:31  5-MIN K0J4 041655Z AUTO 02005KT 10SM FEW026 FEW042 32/23 A3000 240 59 2300 020/05 RMK AO2 SLP154 T03220233
63870K0J4 0J420160804120011808/04/16 12:00:31  5-MIN K0J4 041700Z AUTO 00000KT 10SM FEW026 FEW044 33/24 A3000 240 59 2400 000/00 RMK AO2 T03280239
63870K0J4 0J420160804120510808/04/16 12:05:31  5-MIN K0J4 041705Z AUTO 00000KT 10SM CLR 33/24 A3000 240 59 2400 000/00 RMK AO2 T03280239
63870K0J4 0J420160804121011108/04/16 12:10:31  5-MIN K0J4 041710Z AUTO 05003KT 10SM FEW035 33/23 A3000 240 57 2400 050/03 RMK AO2 T03280233
63870K0J4 0J420160804121511808/04/16 12:15:31  5-MIN K0J4 041715Z AUTO 00000KT 10SM FEW033 SCT048 33/23 A3000 240 55 2400 000/00 RMK AO2 T03280228
63870K0J4 0J420160804122011808/04/16 12:20:31  5-MIN K0J4 041720Z AUTO 00000KT 10SM FEW035 SCT048 32/23 A2999 250 57 2300 000/00 RMK AO2 T03220228
63870K0J4 0J420160804122512508/04/16 12:25:31  5-MIN K0J4 041725Z AUTO VRB04KT 10SM FEW035 SCT043 SCT050 33/24 A3000 250 59 2400 VRB/04 RMK AO2 T03280239
63870K0J4 0J420160804123012508/04/16 12:30:31  5-MIN K0J4 041730Z AUTO VRB04KT 10SM FEW033 SCT043 SCT050 32/24 A2999 250 61 2300 VRB/04 RMK AO2 T03220239
63870K0J4 0J420160804123512508/04/16 12:35:31  5-MIN K0J4 041735Z AUTO 00000KT 10SM FEW033 SCT043 SCT050 32/23 A2999 250 61 2200 000/00 RMK AO2 T03170233
63870K0J4 0J420160804124011808/04/16 12:40:31  5-MIN K0J4 041740Z AUTO 00000KT 10SM FEW036 SCT050 32/23 A2999 250 57 2300 000/00 RMK AO2 T03220228
63870K0J4 0J420160804124511808/04/16 12:45:31  5-MIN K0J4 041745Z AUTO VRB03KT 10SM SCT039 SCT050 33/23 A2999 250 57 2400 VRB/03 RMK AO2 T03280233
63870K0J4 0J420160804125012508/04/16 12:50:31  5-MIN K0J4 041750Z AUTO VRB03KT 10SM FEW035 SCT043 BKN050 32/23 A2999 250 59 2300 VRB/03 RMK AO2 T03220233
63870K0J4 0J420160804125515008/04/16 12:55:31  5-MIN K0J4 041755Z AUTO 01003KT 10SM SCT033 BKN043 BKN050 32/23 A2999 260 59 2300 010/03 RMK AO2 SLP149 6//// T03220233 10328 20244
63870K0J4 0J420160804130011808/04/16 13:00:31  5-MIN K0J4 041800Z AUTO VRB03KT 10SM SCT033 BKN047 32/24 A2999 260 61 2300 VRB/03 RMK AO2 T03220239
63870K0J4 0J420160804130511808/04/16 13:05:31  5-MIN K0J4 041805Z AUTO 00000KT 10SM SCT035 SCT047 33/24 A2998 260 59 2400 000/00 RMK AO2 T03280239
63870K0J4 0J420160804131012508/04/16 13:10:31  5-MIN K0J4 041810Z AUTO 00000KT 10SM FEW035 SCT043 SCT050 32/23 A2998 260 59 2300 000/00 RMK AO2 T03220233
63870K0J4 0J420160804131512508/04/16 13:15:31  5-MIN K0J4 041815Z AUTO 23003KT 10SM FEW033 SCT043 SCT050 32/23 A2998 260 59 2300 230/03 RMK AO2 T03220233
63870K0J4 0J420160804132012508/04/16 13:20:31  5-MIN K0J4 041820Z AUTO 00000KT 10SM FEW033 SCT046 BKN050 32/24 A2998 260 61 2300 000/00 RMK AO2 T03220239
63870K0J4 0J420160804132511808/04/16 13:25:31  5-MIN K0J4 041825Z AUTO 00000KT 10SM SCT045 BKN050 32/23 A2998 260 59 2300 000/00 RMK AO2 T03220233
63870K0J4 0J420160804133011808/04/16 13:30:31  5-MIN K0J4 041830Z AUTO 00000KT 10SM SCT045 BKN050 32/23 A2998 260 57 2300 000/00 RMK AO2 T03220228
63870K0J4 0J420160804133511808/04/16 13:35:31  5-MIN K0J4 041835Z AUTO 12004KT 10SM FEW045 SCT050 33/23 A2998 260 57 2400 120/04 RMK AO2 T03280233
63870K0J4 0J420160804134011808/04/16 13:40:31  5-MIN K0J4 041840Z AUTO 14003KT 10SM FEW044 SCT055 33/23 A2998 260 55 2400 140/03 RMK AO2 T03280228
63870K0J4 0J420160804134511108/04/16 13:45:31  5-MIN K0J4 041845Z AUTO 09003KT 10SM SCT048 33/23 A2998 270 55 2400 090/03 RMK AO2 T03280228
63870K0J4 0J420160804135011108/04/16 13:50:31  5-MIN K0J4 041850Z AUTO 00000KT 10SM SCT048 33/23 A2997 270 55 2400 000/00 RMK AO2 T03280228
63870K0J4 0J420160804135511808/04/16 13:55:31  5-MIN K0J4 041855Z AUTO 00000KT 10SM FEW048 32/22 A2997 270 55 2300 000/00 RMK AO2 SLP144 T03220222
63870K0J4 0J420160804140011108/04/16 14:00:31  5-MIN K0J4 041900Z AUTO 15005KT 10SM FEW048 33/23 A2997 270 55 2400 150/05 RMK AO2 T03280228
63870K0J4 0J420160804140511108/04/16 14:05:31  5-MIN K0J4 041905Z AUTO 13003KT 10SM FEW048 32/23 A2997 270 59 2300 130/03 RMK AO2 T03220233
63870K0J4 0J420160804141011108/04/16 14:10:31  5-MIN K0J4 041910Z AUTO 16004KT 10SM FEW048 32/23 A2996 280 59 2300 160/04 RMK AO2 T03220233
63870K0J4 0J420160804141510808/04/16 14:15:31  5-MIN K0J4 041915Z AUTO 19003KT 10SM CLR 32/23 A2996 280 57 2300 190/03 RMK AO2 T03220228
63870K0J4 0J420160804142010808/04/16 14:20:31  5-MIN K0J4 041920Z AUTO 15004KT 10SM CLR 32/23 A2996 280 59 2300 150/04 RMK AO2 T03220233
63870K0J4 0J420160804142511108/04/16 14:25:31  5-MIN K0J4 041925Z AUTO 18003KT 10SM FEW038 32/23 A2996 280 59 2400 180/03 RMK AO2 T03220233
63870K0J4 0J420160804143011108/04/16 14:30:31  5-MIN K0J4 041930Z AUTO 00000KT 10SM FEW038 32/23 A2996 280 59 2400 000/00 RMK AO2 T03220233
63870K0J4 0J420160804143510808/04/16 14:35:31  5-MIN K0J4 041935Z AUTO 14003KT 10SM CLR 32/23 A2995 290 59 2400 140/03 RMK AO2 T03220233
63870K0J4 0J420160804144010808/04/16 14:40:31  5-MIN K0J4 041940Z AUTO 17004KT 10SM CLR 32/24 A2995 290 61 2400 170/04 RMK AO2 T03220239
63870K0J4 0J420160804144510808/04/16 14:45:31  5-MIN K0J4 041945Z AUTO 16005KT 10SM CLR 32/24 A2995 290 61 2400 160/05 RMK AO2 T03220239
63870K0J4 0J420160804145010808/04/16 14:50:31  5-MIN K0J4 041950Z AUTO 19004KT 10SM CLR 32/23 A2994 290 61 2300 190/04 RMK AO2 T03170233
63870K0J4 0J420160804145511508/04/16 14:55:31  5-MIN K0J4 041955Z AUTO 20003KT 10SM CLR 32/23 A2995 290 61 2300 200/03 RMK AO2 SLP136 T03170233
63870K0J4 0J420160804150010808/04/16 15:00:31  5-MIN K0J4 042000Z AUTO VRB03KT 10SM CLR 32/23 A2995 290 59 2400 VRB/03 RMK AO2 T03220233
63870K0J4 0J420160804150510808/04/16 15:05:31  5-MIN K0J4 042005Z AUTO 19004KT 10SM CLR 32/23 A2994 290 59 2400 190/04 RMK AO2 T03220233
63870K0J4 0J420160804151010808/04/16 15:10:31  5-MIN K0J4 042010Z AUTO 24004KT 10SM CLR 32/24 A2994 300 61 2400 240/04 RMK AO2 T03220239
63870K0J4 0J420160804151510808/04/16 15:15:31  5-MIN K0J4 042015Z AUTO 24003KT 10SM CLR 32/23 A2994 300 61 2300 240/03 RMK AO2 T03170233
63870K0J4 0J420160804152010808/04/16 15:20:31  5-MIN K0J4 042020Z AUTO 24003KT 10SM CLR 32/23 A2995 290 57 2400 240/03 RMK AO2 T03220228
63870K0J4 0J420160804152510808/04/16 15:25:31  5-MIN K0J4 042025Z AUTO 24004KT 10SM CLR 32/23 A2995 290 59 2400 240/04 RMK AO2 T03220233
63870K0J4 0J420160804153010808/04/16 15:30:31  5-MIN K0J4 042030Z AUTO VRB03KT 10SM CLR 32/24 A2995 290 61 2400 VRB/03 RMK AO2 T03220239
63870K0J4 0J420160804153510808/04/16 15:35:31  5-MIN K0J4 042035Z AUTO 24003KT 10SM CLR 32/24 A2996 280 61 2400 240/03 RMK AO2 T03220239
63870K0J4 0J420160804154010808/04/16 15:40:31  5-MIN K0J4 042040Z AUTO 21006KT 10SM CLR 32/24 A2995 290 61 2400 210/06 RMK AO2 T03220239
63870K0J4 0J420160804154510808/04/16 15:45:31  5-MIN K0J4 042045Z AUTO 21005KT 10SM CLR 32/24 A2995 280 63 2400 210/05 RMK AO2 T03220244
63870K0J4 0J420160804155010808/04/16 15:50:31  5-MIN K0J4 042050Z AUTO VRB03KT 10SM CLR 32/24 A2995 290 63 2400 VRB/03 RMK AO2 T03220244
63870K0J4 0J420160804155512108/04/16 15:55:31  5-MIN K0J4 042055Z AUTO VRB04KT 10SM CLR 33/24 A2994 290 61 2400 VRB/04 RMK AO2 SLP134 T03280244 58012
63870K0J4 0J420160804160010808/04/16 16:00:31  5-MIN K0J4 042100Z AUTO 22004KT 10SM CLR 32/24 A2994 300 63 2400 220/04 RMK AO2 T03220244
63870K0J4 0J420160804160511508/04/16 16:05:31  5-MIN K0J4 042105Z AUTO VRB04KT 10SM CLR 32/24 A2993 310 61 2400 VRB/04 RMK AO2 PRESFR T03220239
63870K0J4 0J420160804161010808/04/16 16:10:31  5-MIN K0J4 042110Z AUTO 19006KT 10SM CLR 33/24 A2993 310 61 2400 190/06 RMK AO2 T03280244
63870K0J4 0J420160804161510808/04/16 16:15:31  5-MIN K0J4 042115Z AUTO 21006KT 10SM CLR 32/24 A2993 310 61 2400 210/06 RMK AO2 T03220239
63870K0J4 0J420160804162011308/04/16 16:20:31  5-MIN K0J4 042120Z AUTO 22005KT 10SM VCTS CLR 33/24 A2993 310 59 2400 220/05 RMK AO2 T03280239
63870K0J4 0J420160804162512008/04/16 16:25:31  5-MIN K0J4 042125Z AUTO 22006KT 10SM TS FEW033 33/24 A2993 310 59 2400 220/06 RMK AO2 TSB25 T03280239
63870K0J4 0J420160804163012008/04/16 16:30:31  5-MIN K0J4 042130Z AUTO 20004KT 10SM TS FEW033 33/24 A2994 300 59 2400 200/04 RMK AO2 TSB25 T03280239
63870K0J4 0J420160804163512708/04/16 16:35:31  5-MIN K0J4 042135Z AUTO VRB03KT 10SM TS SCT034 33/23 A2995 290 57 2400 VRB/03 RMK AO2 TSB25 PRESRR T03280233
63870K0J4 0J420160804164012008/04/16 16:40:31  5-MIN K0J4 042140Z AUTO VRB03KT 10SM TS SCT034 32/23 A2996 280 59 2400 VRB/03 RMK AO2 TSB25 T03220233
63870K0J4 0J420160804164512508/04/16 16:45:31  5-MIN K0J4 042145Z AUTO VRB03KT 10SM VCTS SCT034 32/24 A2996 280 63 2300 VRB/03 RMK AO2 TSB25E41 T03170239
63870K0J4 0J420160804165012508/04/16 16:50:31  5-MIN K0J4 042150Z AUTO 00000KT 10SM VCTS FEW034 32/24 A2996 280 63 2300 000/00 RMK AO2 TSB25E41 T03170239
63870K0J4 0J420160804165514308/04/16 16:55:31  5-MIN K0J4 042155Z AUTO 00000KT 10SM TS FEW034 SCT070 31/24 A2996 280 67 2200 000/00 RMK AO2 TSB25E41B51B53 SLP141 T03110244
63870K0J4 0J420160804170012808/04/16 17:00:31  5-MIN K0J4 042200Z AUTO 00000KT 10SM TS SCT034 BKN070 BKN100 31/25 A2996 280 69 2200 000/00 RMK AO2 T03110250
63870K0J4 0J420160804170514408/04/16 17:05:31  5-MIN K0J4 042205Z AUTO 34007KT 300V030 10SM TS FEW024 SCT034 BKN075 31/24 A2996 280 69 2200 340/07 300V030 RMK AO2 T03060244
63870K0J4 0J420160804171015308/04/16 17:10:31  5-MIN K0J4 042210Z AUTO 33007G15KT 300V020 10SM SCT024 BKN034 BKN080 29/24 A2996 280 74 2000 330/07G15 300V020 RMK AO2 TSE08 T02890239
63870K0J4 0J420160804171513708/04/16 17:15:31  5-MIN K0J4 042215Z AUTO VRB03G15KT 10SM SCT024 BKN034 OVC100 28/23 A2996 280 74 1900 VRB/03G15 RMK AO2 TSE08 T02830233
63870K0J4 0J420160804172013708/04/16 17:20:31  5-MIN K0J4 042220Z AUTO VRB03KT 10SM TS SCT024 BKN037 OVC100 28/23 A2996 280 74 1900 VRB/03 RMK AO2 TSE08B16 T02830233
63870K0J4 0J420160804172514008/04/16 17:25:31  5-MIN K0J4 042225Z AUTO 00000KT 10SM TS SCT030 BKN048 OVC090 28/23 A2997 270 71 1900 000/00 RMK AO2 TSE08B16B25 T02830228
63870K0J4 0J420160804173015508/04/16 17:30:31  5-MIN K0J4 042230Z AUTO 22009KT 10SM -TSRA SCT026 BKN042 OVC080 28/23 A2997 270 74 1800 220/09 RMK AO2 RAB30 TSE08B16B25 P0000 T02780228
63870K0J4 0J420160804173515308/04/16 17:35:31  5-MIN K0J4 042235Z AUTO 26004KT 5SM TSRA SCT026 BKN044 OVC075 27/22 A2996 280 74 1800 260/04 RMK AO2 RAB30 TSE08B16B25 P0000 T02720222
63870K0J4 0J420160804174015408/04/16 17:40:31  5-MIN K0J4 042240Z AUTO VRB03KT 5SM -TSRA FEW024 SCT037 BKN048 27/23 A2996 280 79 1700 VRB/03 RMK AO2 RAB30 TSE08B16B25 P0000 T02670228
63870K0J4 0J420160804174515508/04/16 17:45:31  5-MIN K0J4 042245Z AUTO 00000KT 10SM FEW026 SCT043 SCT050 26/23 A2996 280 81 1700 000/00 RMK AO2 RAB30E44 TSE08B16B25E43 P0000 T02610228
63870K0J4 0J420160804175014808/04/16 17:50:31  5-MIN K0J4 042250Z AUTO 00000KT 10SM FEW026 FEW047 27/22 A2996 280 76 1700 000/00 RMK AO2 RAB30E44 TSE08B16B25E43 P0000 T02670222
63870K0J4 0J420160804175515508/04/16 17:55:31  5-MIN K0J4 042255Z AUTO 00000KT 10SM FEW026 FEW045 27/22 A2996 280 74 1800 000/00 RMK AO2 RAB30E44 TSE08B16B25E43 SLP141 P0000 T02720222
63870K0J4 0J420160804180011108/04/16 18:00:31  5-MIN K0J4 042300Z AUTO 25003KT 10SM FEW045 27/22 A2996 280 76 1700 250/03 RMK AO2 T02670222
63870K0J4 0J420160804180511708/04/16 18:05:31  5-MIN K0J4 042305Z AUTO 21005KT 10SM TS CLR 26/23 A2996 280 81 1700 210/05 RMK AO2 TSB01 T02610228
63870K0J4 0J420160804181011708/04/16 18:10:31  5-MIN K0J4 042310Z AUTO 19005KT 10SM TS CLR 26/23 A2996 280 84 1700 190/05 RMK AO2 TSB01 T02610233
63870K0J4 0J420160804181511708/04/16 18:15:31  5-MIN K0J4 042315Z AUTO 00000KT 10SM TS CLR 26/23 A2996 280 87 1600 000/00 RMK AO2 TSB01 T02560233
63870K0J4 0J420160804182011708/04/16 18:20:31  5-MIN K0J4 042320Z AUTO 00000KT 10SM CLR 26/23 A2996 280 87 1600 000/00 RMK AO2 TSB01E17 T02560233
63870K0J4 0J420160804182511708/04/16 18:25:31  5-MIN K0J4 042325Z AUTO 00000KT 10SM CLR 26/23 A2996 280 84 1700 000/00 RMK AO2 TSB01E17 T02610233
63870K0J4 0J420160804183011708/04/16 18:30:31  5-MIN K0J4 042330Z AUTO 00000KT 10SM CLR 26/23 A2995 290 84 1700 000/00 RMK AO2 TSB01E17 T02610233
63870K0J4 0J420160804183511708/04/16 18:35:31  5-MIN K0J4 042335Z AUTO 00000KT 10SM CLR 26/23 A2996 280 84 1700 000/00 RMK AO2 TSB01E17 T02610233
63870K0J4 0J420160804184011708/04/16 18:40:31  5-MIN K0J4 042340Z AUTO 00000KT 10SM CLR 26/23 A2996 280 84 1700 000/00 RMK AO2 TSB01E17 T02610233
63870K0J4 0J420160804184511708/04/16 18:45:31  5-MIN K0J4 042345Z AUTO 00000KT 10SM CLR 26/23 A2996 280 84 1700 000/00 RMK AO2 TSB01E17 T02610233
63870K0J4 0J420160804185011708/04/16 18:50:31  5-MIN K0J4 042350Z AUTO 00000KT 10SM CLR 26/23 A2996 280 84 1700 000/00 RMK AO2 TSB01E17 T02610233
63870K0J4 0J420160804185514808/04/16 18:55:31  5-MIN K0J4 042355Z AUTO 00000KT 10SM CLR 27/23 A2996 280 79 1700 000/00 RMK AO2 TSB01E17 SLP141 60000 T02670228 10328 20256 56016
63870K0J4 0J420160804190010808/04/16 19:00:31  5-MIN K0J4 050000Z AUTO 00000KT 10SM CLR 27/23 A2996 280 79 1700 000/00 RMK AO2 T02670228
63870K0J4 0J420160804190510808/04/16 19:05:31  5-MIN K0J4 050005Z AUTO 00000KT 10SM CLR 27/23 A2996 280 79 1700 000/00 RMK AO2 T02670228
63870K0J4 0J420160804191010808/04/16 19:10:31  5-MIN K0J4 050010Z AUTO 00000KT 10SM CLR 26/23 A2996 280 84 1700 000/00 RMK AO2 T02610233
63870K0J4 0J420160804191510808/04/16 19:15:31  5-MIN K0J4 050015Z AUTO 00000KT 10SM CLR 26/23 A2997 270 84 1700 000/00 RMK AO2 T02610233
63870K0J4 0J420160804192010808/04/16 19:20:31  5-MIN K0J4 050020Z AUTO 00000KT 10SM CLR 26/23 A2997 270 81 1700 000/00 RMK AO2 T02610228
63870K0J4 0J420160804192510808/04/16 19:25:31  5-MIN K0J4 050025Z AUTO 00000KT 10SM CLR 26/23 A2998 260 81 1600 000/00 RMK AO2 T02610228
63870K0J4 0J420160804193011108/04/16 19:30:31  5-MIN K0J4 050030Z AUTO 00000KT 10SM FEW080 26/23 A2998 260 81 1600 000/00 RMK AO2 T02610228
63870K0J4 0J420160804193511108/04/16 19:35:31  5-MIN K0J4 050035Z AUTO 00000KT 10SM FEW080 26/23 A2998 260 84 1600 000/00 RMK AO2 T02610233
63870K0J4 0J420160804194011108/04/16 19:40:31  5-MIN K0J4 050040Z AUTO 00000KT 10SM FEW080 26/23 A2998 260 84 1600 000/00 RMK AO2 T02610233
63870K0J4 0J420160804194511108/04/16 19:45:31  5-MIN K0J4 050045Z AUTO 00000KT 10SM FEW080 26/23 A2998 260 84 1600 000/00 RMK AO2 T02610233
63870K0J4 0J420160804195011108/04/16 19:50:31  5-MIN K0J4 050050Z AUTO 00000KT 10SM SCT080 26/23 A2998 260 81 1600 000/00 RMK AO2 T02610228
63870K0J4 0J420160804195511808/04/16 19:55:31  5-MIN K0J4 050055Z AUTO 36003KT 10SM SCT080 26/23 A2999 260 84 1600 360/03 RMK AO2 SLP149 T02610233
63870K0J4 0J420160804200011108/04/16 20:00:31  5-MIN K0J4 050100Z AUTO 36003KT 10SM FEW080 26/23 A2999 250 81 1600 360/03 RMK AO2 T02610228
63870K0J4 0J420160804200511108/04/16 20:05:31  5-MIN K0J4 050105Z AUTO VRB03KT 10SM FEW080 26/23 A2998 260 84 1600 VRB/03 RMK AO2 T02560228
63870K0J4 0J420160804201011108/04/16 20:10:31  5-MIN K0J4 050110Z AUTO 36003KT 10SM SCT080 26/22 A2998 260 79 1600 360/03 RMK AO2 T02610222
63870K0J4 0J420160804201511108/04/16 20:15:31  5-MIN K0J4 050115Z AUTO 01005KT 10SM BKN075 26/23 A2999 250 84 1600 010/05 RMK AO2 T02560228
63870K0J4 0J420160804202011108/04/16 20:20:31  5-MIN K0J4 050120Z AUTO 03012KT 10SM BKN070 26/23 A3001 240 84 1600 030/12 RMK AO2 T02560228
63870K0J4 0J420160804202513108/04/16 20:25:31  5-MIN K0J4 050125Z AUTO 03012G17KT 10SM FEW019 SCT025 BKN070 26/23 A3001 240 84 1600 030/12G17 RMK AO2 T02560228
63870K0J4 0J420160804203012408/04/16 20:30:31  5-MIN K0J4 050130Z AUTO 03016G21KT 10SM BKN025 BKN070 26/22 A3001 230 81 1500 030/16G21 RMK AO2 T02560222
63870K0J4 0J420160804203512408/04/16 20:35:31  5-MIN K0J4 050135Z AUTO 03015G21KT 10SM BKN025 BKN070 26/22 A3001 240 79 1600 030/15G21 RMK AO2 T02560217
63870K0J4 0J420160804204013108/04/16 20:40:31  5-MIN K0J4 050140Z AUTO 03009G21KT 10SM SCT025 BKN029 OVC070 26/21 A3000 240 76 1600 030/09G21 RMK AO2 T02560211
63870K0J4 0J420160804204513008/04/16 20:45:31  5-MIN K0J4 050145Z AUTO 04008KT 10SM VCTS SCT024 BKN031 OVC050 25/21 A3000 240 79 1500 040/08 RMK AO2 T02500211
63870K0J4 0J420160804205013008/04/16 20:50:31  5-MIN K0J4 050150Z AUTO 03009KT 10SM VCTS SCT026 BKN033 OVC050 24/21 A3000 240 81 1400 030/09 RMK AO2 T02440211
63870K0J4 0J420160804205513708/04/16 20:55:31  5-MIN K0J4 050155Z AUTO 04008KT 10SM VCTS SCT026 SCT033 BKN050 24/21 A3001 230 81 1400 040/08 RMK AO2 SLP157 T02440211
63870K0J4 0J420160804210013008/04/16 21:00:31  5-MIN K0J4 050200Z AUTO 02005KT 10SM VCTS FEW028 SCT033 BKN050 24/21 A3000 240 81 1400 020/05 RMK AO2 T02440211
63870K0J4 0J420160804210513408/04/16 21:05:31  5-MIN K0J4 050205Z AUTO 08005KT 10SM TS FEW031 BKN048 BKN055 24/21 A3001 240 81 1400 080/05 RMK AO2 TSB03 T02440211
63870K0J4 0J420160804211013408/04/16 21:10:31  5-MIN K0J4 050210Z AUTO VRB03KT 10SM TS FEW038 SCT050 BKN100 24/21 A3001 230 81 1400 VRB/03 RMK AO2 TSB03 T02440211
63870K0J4 0J420160804211512708/04/16 21:15:31  5-MIN K0J4 050215Z AUTO 17005KT 10SM TS SCT050 BKN100 24/22 A3001 230 87 1400 170/05 RMK AO2 TSB03 T02390217
63870K0J4 0J420160804212013408/04/16 21:20:31  5-MIN K0J4 050220Z AUTO 00000KT 10SM FEW050 FEW055 SCT100 24/22 A3000 240 87 1400 000/00 RMK AO2 TSB03E19 T02390217
63870K0J4 0J420160804212512708/04/16 21:25:31  5-MIN K0J4 050225Z AUTO 00000KT 10SM FEW055 FEW100 24/21 A3000 240 84 1400 000/00 RMK AO2 TSB03E19 T02390211
63870K0J4 0J420160804213012008/04/16 21:30:31  5-MIN K0J4 050230Z AUTO 00000KT 10SM FEW100 24/22 A3000 240 84 1400 000/00 RMK AO2 TSB03E19 T02440217
63870K0J4 0J420160804213512008/04/16 21:35:31  5-MIN K0J4 050235Z AUTO 20004KT 10SM FEW100 24/22 A3000 250 87 1400 200/04 RMK AO2 TSB03E19 T02390217
63870K0J4 0J420160804214011708/04/16 21:40:31  5-MIN K0J4 050240Z AUTO 20004KT 10SM CLR 24/22 A3000 250 87 1400 200/04 RMK AO2 TSB03E19 T02390217
63870K0J4 0J420160804214511708/04/16 21:45:31  5-MIN K0J4 050245Z AUTO 22003KT 10SM CLR 24/22 A3000 250 87 1400 220/03 RMK AO2 TSB03E19 T02390217
63870K0J4 0J420160804215011708/04/16 21:50:31  5-MIN K0J4 050250Z AUTO 00000KT 10SM CLR 24/22 A3000 250 87 1400 000/00 RMK AO2 TSB03E19 T02390217
63870K0J4 0J420160804215513008/04/16 21:55:31  5-MIN K0J4 050255Z AUTO 32003KT 10SM CLR 24/22 A2999 250 87 1400 320/03 RMK AO2 TSB03E19 SLP152 T02390217 51008
63870K0J4 0J420160804220010808/04/16 22:00:31  5-MIN K0J4 050300Z AUTO 00000KT 10SM CLR 24/22 A2999 250 87 1400 000/00 RMK AO2 T02390217
63870K0J4 0J420160804220510808/04/16 22:05:31  5-MIN K0J4 050305Z AUTO 35003KT 10SM CLR 24/22 A2999 250 87 1400 350/03 RMK AO2 T02390217
63870K0J4 0J420160804221010808/04/16 22:10:31  5-MIN K0J4 050310Z AUTO 00000KT 10SM CLR 24/22 A2999 250 87 1400 000/00 RMK AO2 T02390217
63870K0J4 0J420160804221510808/04/16 22:15:31  5-MIN K0J4 050315Z AUTO 00000KT 10SM CLR 24/22 A2998 260 87 1400 000/00 RMK AO2 T02390217
63870K0J4 0J420160804222010808/04/16 22:20:31  5-MIN K0J4 050320Z AUTO 00000KT 10SM CLR 24/21 A2998 260 84 1400 000/00 RMK AO2 T02390211
63870K0J4 0J420160804222510808/04/16 22:25:31  5-MIN K0J4 050325Z AUTO 00000KT 10SM CLR 24/22 A2998 260 87 1400 000/00 RMK AO2 T02390217
63870K0J4 0J420160804223010808/04/16 22:30:31  5-MIN K0J4 050330Z AUTO 00000KT 10SM CLR 24/22 A2998 260 87 1400 000/00 RMK AO2 T02390217
63870K0J4 0J420160804223510808/04/16 22:35:31  5-MIN K0J4 050335Z AUTO 00000KT 10SM CLR 23/22 A2998 260 90 1300 000/00 RMK AO2 T02330217
63870K0J4 0J420160804224010808/04/16 22:40:31  5-MIN K0J4 050340Z AUTO 00000KT 10SM CLR 23/22 A2998 260 90 1300 000/00 RMK AO2 T02330217
63870K0J4 0J420160804224510808/04/16 22:45:31  5-MIN K0J4 050345Z AUTO 00000KT 10SM CLR 23/22 A2998 260 90 1300 000/00 RMK AO2 T02330217
63870K0J4 0J420160804225010808/04/16 22:50:31  5-MIN K0J4 050350Z AUTO 00000KT 10SM CLR 23/22 A2998 260 90 1300 000/00 RMK AO2 T02330217
63870K0J4 0J420160804225511508/04/16 22:55:31  5-MIN K0J4 050355Z AUTO 00000KT 10SM CLR 23/22 A2998 260 90 1300 000/00 RMK AO2 SLP147 T02330217
63870K0J4 0J420160804230010808/04/16 23:00:31  5-MIN K0J4 050400Z AUTO 00000KT 10SM CLR 23/22 A2998 260 90 1300 000/00 RMK AO2 T02330217
63870K0J4 0J420160804230510808/04/16 23:05:31  5-MIN K0J4 050405Z AUTO 00000KT 10SM CLR 23/22 A2998 260 90 1300 000/00 RMK AO2 T02330217
63870K0J4 0J420160804231010808/04/16 23:10:31  5-MIN K0J4 050410Z AUTO 00000KT 10SM CLR 23/22 A2998 260 90 1300 000/00 RMK AO2 T02330217
63870K0J4 0J420160804231510808/04/16 23:15:31  5-MIN K0J4 050415Z AUTO 00000KT 10SM CLR 23/22 A2998 260 90 1300 000/00 RMK AO2 T02330217
63870K0J4 0J420160804232010808/04/16 23:20:31  5-MIN K0J4 050420Z AUTO 00000KT 10SM CLR 23/22 A2998 260 90 1300 000/00 RMK AO2 T02330217
63870K0J4 0J420160804232510808/04/16 23:25:31  5-MIN K0J4 050425Z AUTO 00000KT 10SM CLR 23/22 A2998 260 90 1300 000/00 RMK AO2 T02330217
63870K0J4 0J420160804233010808/04/16 23:30:31  5-MIN K0J4 050430Z AUTO 00000KT 10SM CLR 23/22 A2998 260 93 1300 000/00 RMK AO2 T02280217
63870K0J4 0J420160804233510808/04/16 23:35:31  5-MIN K0J4 050435Z AUTO 00000KT 10SM CLR 23/22 A2998 260 93 1300 000/00 RMK AO2 T02280217
63870K0J4 0J420160804234010808/04/16 23:40:31  5-MIN K0J4 050440Z AUTO 00000KT 10SM CLR 23/22 A2998 260 93 1300 000/00 RMK AO2 T02280217
63870K0J4 0J420160804234510808/04/16 23:45:31  5-MIN K0J4 050445Z AUTO 00000KT 10SM CLR 23/22 A2998 260 93 1300 000/00 RMK AO2 T02280217
63870K0J4 0J420160804235010808/04/16 23:50:31  5-MIN K0J4 050450Z AUTO 00000KT 10SM CLR 23/22 A2998 260 93 1300 000/00 RMK AO2 T02280217
63870K0J4 0J420160804235512508/04/16 23:55:31  5-MIN K0J4 050455Z AUTO 00000KT 10SM CLR 23/22 A2998 260 93 1300 000/00 RMK AO2 SLP148 T02280217 403280228
63870K0J4 0J420160805000010808/05/16 00:00:31  5-MIN K0J4 050500Z AUTO 00000KT 10SM CLR 23/22 A2998 260 93 1300 000/00 RMK AO2 T02280217
63870K0J4 0J420160805000510808/05/16 00:05:31  5-MIN K0J4 050505Z AUTO 00000KT 10SM CLR 23/22 A2998 260 93 1300 000/00 RMK AO2 T02280217
63870K0J4 0J420160805001010808/05/16 00:10:31  5-MIN K0J4 050510Z AUTO 00000KT 10SM CLR 23/22 A2998 260 93 1300 000/00 RMK AO2 T02280217
63870K0J4 0J420160805001510808/05/16 00:15:31  5-MIN K0J4 050515Z AUTO 00000KT 10SM CLR 23/22 A2998 260 93 1300 000/00 RMK AO2 T02280217
63870K0J4 0J420160805002010808/05/16 00:20:31  5-MIN K0J4 050520Z AUTO 15003KT 10SM CLR 23/22 A2997 270 93 1300 150/03 RMK AO2 T02280217
63870K0J4 0J420160805002510808/05/16 00:25:31  5-MIN K0J4 050525Z AUTO 00000KT 10SM CLR 23/22 A2997 270 93 1300 000/00 RMK AO2 T02280217
63870K0J4 0J420160805003010808/05/16 00:30:31  5-MIN K0J4 050530Z AUTO 00000KT 10SM CLR 22/22 A2997 270 97 1200 000/00 RMK AO2 T02220217
63870K0J4 0J420160805003510808/05/16 00:35:31  5-MIN K0J4 050535Z AUTO 00000KT 10SM CLR 23/22 A2997 270 93 1300 000/00 RMK AO2 T02280217
63870K0J4 0J420160805004010808/05/16 00:40:31  5-MIN K0J4 050540Z AUTO 00000KT 10SM CLR 23/22 A2997 270 93 1300 000/00 RMK AO2 T02280217
63870K0J4 0J420160805004510808/05/16 00:45:31  5-MIN K0J4 050545Z AUTO 00000KT 10SM CLR 23/22 A2997 270 93 1300 000/00 RMK AO2 T02280217
63870K0J4 0J420160805005010808/05/16 00:50:31  5-MIN K0J4 050550Z AUTO 00000KT 10SM CLR 23/22 A2997 270 93 1300 000/00 RMK AO2 T02280217
63870K0J4 0J420160805005513308/05/16 00:55:31  5-MIN K0J4 050555Z AUTO 00000KT 10SM CLR 23/22 A2997 270 93 1300 000/00 RMK AO2 SLP143 T02280217 10267 20222 50010
63870K0J4 0J420160805010010808/05/16 01:00:31  5-MIN K0J4 050600Z AUTO 00000KT 10SM CLR 23/22 A2996 280 93 1300 000/00 RMK AO2 T02280217
63870K0J4 0J420160805010510808/05/16 01:05:31  5-MIN K0J4 050605Z AUTO 00000KT 10SM CLR 23/22 A2996 280 93 1300 000/00 RMK AO2 T02280217
63870K0J4 0J420160805011010808/05/16 01:10:31  5-MIN K0J4 050610Z AUTO 00000KT 10SM CLR 23/22 A2996 280 93 1300 000/00 RMK AO2 T02280217
63870K0J4 0J420160805011510808/05/16 01:15:31  5-MIN K0J4 050615Z AUTO 00000KT 10SM CLR 23/22 A2996 280 93 1300 000/00 RMK AO2 T02280217
63870K0J4 0J420160805012010808/05/16 01:20:31  5-MIN K0J4 050620Z AUTO 00000KT 10SM CLR 23/22 A2996 280 93 1300 000/00 RMK AO2 T02280217
63870K0J4 0J420160805012510808/05/16 01:25:31  5-MIN K0J4 050625Z AUTO 00000KT 10SM CLR 23/22 A2996 280 93 1300 000/00 RMK AO2 T02280217
63870K0J4 0J420160805013010808/05/16 01:30:31  5-MIN K0J4 050630Z AUTO 00000KT 10SM CLR 23/22 A2996 280 93 1300 000/00 RMK AO2 T02280217
63870K0J4 0J420160805013510808/05/16 01:35:31  5-MIN K0J4 050635Z AUTO 00000KT 10SM CLR 23/22 A2996 280 93 1300 000/00 RMK AO2 T02280217
63870K0J4 0J420160805014010808/05/16 01:40:31  5-MIN K0J4 050640Z AUTO 00000KT 10SM CLR 23/22 A2996 280 93 1300 000/00 RMK AO2 T02280217
63870K0J4 0J420160805014510808/05/16 01:45:31  5-MIN K0J4 050645Z AUTO 00000KT 10SM CLR 23/22 A2996 280 93 1300 000/00 RMK AO2 T02280217
63870K0J4 0J420160805015010808/05/16 01:50:31  5-MIN K0J4 050650Z AUTO 18003KT 10SM CLR 23/22 A2996 280 93 1300 180/03 RMK AO2 T02280217
63870K0J4 0J420160805015511508/05/16 01:55:31  5-MIN K0J4 050655Z AUTO 00000KT 10SM CLR 23/22 A2996 280 93 1300 000/00 RMK AO2 SLP140 T02280217
63870K0J4 0J420160805020010808/05/16 02:00:31  5-MIN K0J4 050700Z AUTO 00000KT 10SM CLR 23/22 A2996 280 93 1300 000/00 RMK AO2 T02280217
63870K0J4 0J420160805020510808/05/16 02:05:31  5-MIN K0J4 050705Z AUTO 00000KT 10SM CLR 23/22 A2996 280 93 1300 000/00 RMK AO2 T02280217
63870K0J4 0J420160805021010808/05/16 02:10:31  5-MIN K0J4 050710Z AUTO 00000KT 10SM CLR 23/22 A2996 280 93 1300 000/00 RMK AO2 T02280217
63870K0J4 0J420160805021510808/05/16 02:15:31  5-MIN K0J4 050715Z AUTO 00000KT 10SM CLR 23/22 A2996 280 93 1300 000/00 RMK AO2 T02280217
63870K0J4 0J420160805022010808/05/16 02:20:31  5-MIN K0J4 050720Z AUTO 00000KT 10SM CLR 23/22 A2996 280 93 1300 000/00 RMK AO2 T02280217
63870K0J4 0J420160805022510808/05/16 02:25:31  5-MIN K0J4 050725Z AUTO 00000KT 10SM CLR 23/22 A2996 280 93 1300 000/00 RMK AO2 T02280217
63870K0J4 0J420160805023010808/05/16 02:30:31  5-MIN K0J4 050730Z AUTO 00000KT 10SM CLR 23/22 A2996 280 93 1300 000/00 RMK AO2 T02280217
63870K0J4 0J420160805023510808/05/16 02:35:31  5-MIN K0J4 050735Z AUTO 02004KT 10SM CLR 23/22 A2996 280 93 1300 020/04 RMK AO2 T02280217
63870K0J4 0J420160805024010808/05/16 02:40:31  5-MIN K0J4 050740Z AUTO 05003KT 10SM CLR 22/22 A2997 270 97 1200 050/03 RMK AO2 T02220217
63870K0J4 0J420160805024510808/05/16 02:45:31  5-MIN K0J4 050745Z AUTO 02003KT 10SM CLR 22/22 A2997 270 97 1200 020/03 RMK AO2 T02220217
63870K0J4 0J420160805025010808/05/16 02:50:31  5-MIN K0J4 050750Z AUTO 35003KT 10SM CLR 22/22 A2997 270 97 1200 350/03 RMK AO2 T02220217
63870K0J4 0J420160805025511508/05/16 02:55:31  5-MIN K0J4 050755Z AUTO 00000KT 10SM CLR 23/22 A2997 270 93 1300 000/00 RMK AO2 SLP145 T02280217
63870K0J4 0J420160805030010808/05/16 03:00:31  5-MIN K0J4 050800Z AUTO 00000KT 10SM CLR 23/22 A2997 270 93 1300 000/00 RMK AO2 T02280217
63870K0J4 0J420160805030510808/05/16 03:05:31  5-MIN K0J4 050805Z AUTO 00000KT 10SM CLR 22/22 A2997 270 97 1200 000/00 RMK AO2 T02220217
63870K0J4 0J420160805031011108/05/16 03:10:31  5-MIN K0J4 050810Z AUTO 00000KT 10SM FEW050 22/21 A2997 270 93 1200 000/00 RMK AO2 T02220211
63870K0J4 0J420160805031511108/05/16 03:15:31  5-MIN K0J4 050815Z AUTO 00000KT 10SM SCT050 23/22 A2997 270 93 1300 000/00 RMK AO2 T02280217
63870K0J4 0J420160805032011108/05/16 03:20:31  5-MIN K0J4 050820Z AUTO 00000KT 10SM BKN048 23/22 A2998 270 93 1300 000/00 RMK AO2 T02280217
63870K0J4 0J420160805032511108/05/16 03:25:31  5-MIN K0J4 050825Z AUTO 00000KT 10SM BKN048 23/22 A2998 260 93 1300 000/00 RMK AO2 T02280217
63870K0J4 0J420160805033011108/05/16 03:30:31  5-MIN K0J4 050830Z AUTO 00000KT 10SM BKN048 23/22 A2998 260 93 1300 000/00 RMK AO2 T02280217
63870K0J4 0J420160805033511808/05/16 03:35:31  5-MIN K0J4 050835Z AUTO 00000KT 10SM BKN048 BKN055 23/22 A2998 260 93 1300 000/00 RMK AO2 T02280217
63870K0J4 0J420160805034011808/05/16 03:40:31  5-MIN K0J4 050840Z AUTO 00000KT 10SM BKN050 BKN055 23/22 A2998 260 93 1300 000/00 RMK AO2 T02280217
63870K0J4 0J420160805034511808/05/16 03:45:31  5-MIN K0J4 050845Z AUTO 00000KT 10SM SCT050 BKN055 23/22 A2998 260 93 1300 000/00 RMK AO2 T02280217
63870K0J4 0J420160805035011808/05/16 03:50:31  5-MIN K0J4 050850Z AUTO 02003KT 10SM FEW050 SCT055 23/22 A2998 260 93 1300 020/03 RMK AO2 T02280217
63870K0J4 0J420160805035512408/05/16 03:55:31  5-MIN K0J4 050855Z AUTO 00000KT 10SM FEW050 22/21 A2998 260 93 1200 000/00 RMK AO2 SLP148 T02220211 58009
63870K0J4 0J420160805040011108/05/16 04:00:31  5-MIN K0J4 050900Z AUTO 00000KT 10SM FEW055 22/21 A2998 260 93 1200 000/00 RMK AO2 T02220211
63870K0J4 0J420160805040510808/05/16 04:05:31  5-MIN K0J4 050905Z AUTO 00000KT 10SM CLR 22/21 A2998 260 93 1200 000/00 RMK AO2 T02220211
63870K0J4 0J420160805041010808/05/16 04:10:31  5-MIN K0J4 050910Z AUTO 00000KT 10SM CLR 22/21 A2998 260 93 1200 000/00 RMK AO2 T02220211
63870K0J4 0J420160805041510808/05/16 04:15:31  5-MIN K0J4 050915Z AUTO 00000KT 10SM CLR 22/22 A2998 260 97 1200 000/00 RMK AO2 T02220217
63870K0J4 0J420160805042010808/05/16 04:20:31  5-MIN K0J4 050920Z AUTO 00000KT 10SM CLR 22/22 A2998 260 97 1200 000/00 RMK AO2 T02220217
63870K0J4 0J420160805042510708/05/16 04:25:31  5-MIN K0J4 050925Z AUTO 00000KT 9SM CLR 22/22 A2998 260 97 1200 000/00 RMK AO2 T02220217
63870K0J4 0J420160805043010708/05/16 04:30:31  5-MIN K0J4 050930Z AUTO 00000KT 9SM CLR 22/21 A2998 260 93 1200 000/00 RMK AO2 T02220211
63870K0J4 0J420160805043510708/05/16 04:35:31  5-MIN K0J4 050935Z AUTO 00000KT 9SM CLR 22/22 A2998 260 97 1200 000/00 RMK AO2 T02220217
63870K0J4 0J420160805044010708/05/16 04:40:31  5-MIN K0J4 050940Z AUTO 00000KT 9SM CLR 22/21 A2998 260 93 1200 000/00 RMK AO2 T02220211
63870K0J4 0J420160805044510708/05/16 04:45:31  5-MIN K0J4 050945Z AUTO 00000KT 9SM CLR 22/21 A2998 260 93 1200 000/00 RMK AO2 T02220211
63870K0J4 0J420160805045010708/05/16 04:50:31  5-MIN K0J4 050950Z AUTO 00000KT 9SM CLR 22/21 A2998 260 93 1200 000/00 RMK AO2 T02220211
63870K0J4 0J420160805045511408/05/16 04:55:31  5-MIN K0J4 050955Z AUTO 00000KT 9SM CLR 22/21 A2998 260 93 1200 000/00 RMK AO2 SLP148 T02220211
63870K0J4 0J420160805050010808/05/16 05:00:31  5-MIN K0J4 051000Z AUTO 00000KT 10SM CLR 22/21 A2998 260 93 1200 000/00 RMK AO2 T02220211
63870K0J4 0J420160805050510708/05/16 05:05:31  5-MIN K0J4 051005Z AUTO 00000KT 9SM CLR 22/21 A2998 260 93 1200 000/00 RMK AO2 T02220211
63870K0J4 0J420160805051010708/05/16 05:10:31  5-MIN K0J4 051010Z AUTO 00000KT 8SM CLR 22/21 A2998 260 93 1200 000/00 RMK AO2 T02220211
63870K0J4 0J420160805051510708/05/16 05:15:31  5-MIN K0J4 051015Z AUTO 00000KT 8SM CLR 22/21 A2999 250 93 1200 000/00 RMK AO2 T02220211
63870K0J4 0J420160805052010708/05/16 05:20:31  5-MIN K0J4 051020Z AUTO 00000KT 9SM CLR 22/21 A2999 250 93 1200 000/00 RMK AO2 T02220211
63870K0J4 0J420160805052510708/05/16 05:25:31  5-MIN K0J4 051025Z AUTO 00000KT 9SM CLR 22/21 A2999 250 93 1200 000/00 RMK AO2 T02220211
63870K0J4 0J420160805053010708/05/16 05:30:31  5-MIN K0J4 051030Z AUTO 00000KT 9SM CLR 22/21 A2999 250 93 1200 000/00 RMK AO2 T02220211
63870K0J4 0J420160805053510708/05/16 05:35:31  5-MIN K0J4 051035Z AUTO 00000KT 9SM CLR 22/21 A3000 250 93 1200 000/00 RMK AO2 T02220211
63870K0J4 0J420160805054010808/05/16 05:40:31  5-MIN K0J4 051040Z AUTO 00000KT 10SM CLR 22/21 A3000 240 93 1200 000/00 RMK AO2 T02220211
63870K0J4 0J420160805054511108/05/16 05:45:31  5-MIN K0J4 051045Z AUTO 00000KT 10SM FEW046 22/21 A3000 240 97 1100 000/00 RMK AO2 T02170211
63870K0J4 0J420160805055011108/05/16 05:50:31  5-MIN K0J4 051050Z AUTO 00000KT 10SM SCT046 22/21 A3000 240 93 1200 000/00 RMK AO2 T02220211
63870K0J4 0J420160805055511808/05/16 05:55:31  5-MIN K0J4 051055Z AUTO 00000KT 10SM BKN046 22/21 A3000 240 93 1200 000/00 RMK AO2 SLP155 T02220211
63870K0J4 0J420160805060011108/05/16 06:00:31  5-MIN K0J4 051100Z AUTO 03003KT 10SM BKN045 22/21 A3000 240 93 1200 030/03 RMK AO2 T02220211
63870K0J4 0J420160805060511108/05/16 06:05:31  5-MIN K0J4 051105Z AUTO 05003KT 10SM BKN045 22/21 A3000 240 97 1100 050/03 RMK AO2 T02170211
63870K0J4 0J420160805061011008/05/16 06:10:31  5-MIN K0J4 051110Z AUTO 00000KT 9SM BKN045 22/21 A3000 240 97 1100 000/00 RMK AO2 T02170211
63870K0J4 0J420160805061511008/05/16 06:15:31  5-MIN K0J4 051115Z AUTO 00000KT 9SM BKN045 22/21 A3000 240 97 1100 000/00 RMK AO2 T02170211
63870K0J4 0J420160805062011008/05/16 06:20:31  5-MIN K0J4 051120Z AUTO 00000KT 8SM SCT046 22/21 A3000 240 97 1100 000/00 RMK AO2 T02170211
63870K0J4 0J420160805062511008/05/16 06:25:31  5-MIN K0J4 051125Z AUTO 00000KT 9SM FEW046 22/21 A3000 240 93 1200 000/00 RMK AO2 T02220211
63870K0J4 0J420160805063011008/05/16 06:30:31  5-MIN K0J4 051130Z AUTO 00000KT 9SM FEW048 22/21 A3000 240 93 1200 000/00 RMK AO2 T02220211
63870K0J4 0J420160805063511108/05/16 06:35:31  5-MIN K0J4 051135Z AUTO 00000KT 10SM SCT048 22/21 A3001 240 93 1200 000/00 RMK AO2 T02220211
63870K0J4 0J420160805064011108/05/16 06:40:31  5-MIN K0J4 051140Z AUTO 00000KT 10SM BKN048 22/21 A3001 230 93 1200 000/00 RMK AO2 T02220211
63870K0J4 0J420160805064511108/05/16 06:45:31  5-MIN K0J4 051145Z AUTO 00000KT 10SM BKN047 22/21 A3001 230 93 1200 000/00 RMK AO2 T02220211
63870K0J4 0J420160805065011108/05/16 06:50:31  5-MIN K0J4 051150Z AUTO 00000KT 10SM BKN047 23/22 A3001 230 93 1200 000/00 RMK AO2 T02280217
63870K0J4 0J420160805065514208/05/16 06:55:31  5-MIN K0J4 051155Z AUTO 00000KT 10SM OVC047 23/22 A3001 230 93 1200 000/00 RMK AO2 SLP157 7//// T02280217 10228 20217 53006
63870K0J4 0J420160805070011108/05/16 07:00:31  5-MIN K0J4 051200Z AUTO 00000KT 10SM OVC047 23/22 A3001 240 93 1200 000/00 RMK AO2 T02280217
63870K0J4 0J420160805070511108/05/16 07:05:31  5-MIN K0J4 051205Z AUTO 00000KT 10SM BKN049 23/22 A3001 240 93 1200 000/00 RMK AO2 T02280217
63870K0J4 0J420160805071011108/05/16 07:10:31  5-MIN K0J4 051210Z AUTO 00000KT 10SM OVC049 23/22 A3001 240 93 1200 000/00 RMK AO2 T02280217
63870K0J4 0J420160805071511108/05/16 07:15:31  5-MIN K0J4 051215Z AUTO 00000KT 10SM OVC048 23/22 A3001 240 90 1300 000/00 RMK AO2 T02330217
63870K0J4 0J420160805072011108/05/16 07:20:31  5-MIN K0J4 051220Z AUTO 00000KT 10SM BKN048 23/22 A3001 240 90 1300 000/00 RMK AO2 T02330217
63870K0J4 0J420160805072511108/05/16 07:25:31  5-MIN K0J4 051225Z AUTO 00000KT 10SM BKN048 23/22 A3001 240 90 1300 000/00 RMK AO2 T02330217
63870K0J4 0J420160805073011108/05/16 07:30:31  5-MIN K0J4 051230Z AUTO 00000KT 10SM BKN049 24/22 A3000 240 90 1400 000/00 RMK AO2 T02390222
63870K0J4 0J420160805073511108/05/16 07:35:31  5-MIN K0J4 051235Z AUTO 00000KT 10SM BKN049 24/22 A3000 240 90 1400 000/00 RMK AO2 T02390222
63870K0J4 0J420160805074011108/05/16 07:40:31  5-MIN K0J4 051240Z AUTO 00000KT 10SM SCT049 24/23 A3000 240 90 1400 000/00 RMK AO2 T02440228
63870K0J4 0J420160805074511108/05/16 07:45:31  5-MIN K0J4 051245Z AUTO 00000KT 10SM FEW049 25/23 A3000 250 87 1500 000/00 RMK AO2 T02500228
63870K0J4 0J420160805075011108/05/16 07:50:31  5-MIN K0J4 051250Z AUTO 03003KT 10SM FEW049 26/22 A3000 240 81 1600 030/03 RMK AO2 T02560222
63870K0J4 0J420160805075511508/05/16 07:55:31  5-MIN K0J4 051255Z AUTO 05003KT 10SM CLR 25/23 A3000 240 87 1500 050/03 RMK AO2 SLP154 T02500228
63870K0J4 0J420160805080010808/05/16 08:00:31  5-MIN K0J4 051300Z AUTO 03003KT 10SM CLR 26/23 A3000 240 84 1600 030/03 RMK AO2 T02560228
63870K0J4 0J420160805080510808/05/16 08:05:31  5-MIN K0J4 051305Z AUTO 00000KT 10SM CLR 26/23 A3000 240 81 1600 000/00 RMK AO2 T02610228
63870K0J4 0J420160805081010808/05/16 08:10:31  5-MIN K0J4 051310Z AUTO 00000KT 10SM CLR 26/23 A3001 240 81 1600 000/00 RMK AO2 T02610228
63870K0J4 0J420160805081511108/05/16 08:15:31  5-MIN K0J4 051315Z AUTO 00000KT 10SM FEW049 26/22 A3001 240 79 1600 000/00 RMK AO2 T02610222
63870K0J4 0J420160805082011108/05/16 08:20:31  5-MIN K0J4 051320Z AUTO 00000KT 10SM SCT049 26/22 A3000 240 79 1600 000/00 RMK AO2 T02610222
63870K0J4 0J420160805082511108/05/16 08:25:31  5-MIN K0J4 051325Z AUTO 00000KT 10SM SCT049 26/23 A3001 240 81 1600 000/00 RMK AO2 T02610228
63870K0J4 0J420160805083011108/05/16 08:30:31  5-MIN K0J4 051330Z AUTO 00000KT 10SM SCT049 26/23 A3001 240 81 1600 000/00 RMK AO2 T02610228
63870K0J4 0J420160805083511108/05/16 08:35:31  5-MIN K0J4 051335Z AUTO 00000KT 10SM FEW050 27/23 A3000 240 79 1700 000/00 RMK AO2 T02670228
63870K0J4 0J420160805084011108/05/16 08:40:31  5-MIN K0J4 051340Z AUTO 00000KT 10SM FEW050 27/23 A3000 240 76 1700 000/00 RMK AO2 T02720228
63870K0J4 0J420160805084511108/05/16 08:45:31  5-MIN K0J4 051345Z AUTO 00000KT 10SM FEW050 27/23 A3000 240 76 1700 000/00 RMK AO2 T02720228
63870K0J4 0J420160805085011108/05/16 08:50:31  5-MIN K0J4 051350Z AUTO 07003KT 10SM FEW050 28/23 A3000 240 74 1800 070/03 RMK AO2 T02780228
63870K0J4 0J420160805085511508/05/16 08:55:31  5-MIN K0J4 051355Z AUTO 11003KT 10SM CLR 28/23 A3000 240 76 1800 110/03 RMK AO2 SLP155 T02780233
63870K0J4 0J420160805090010808/05/16 09:00:31  5-MIN K0J4 051400Z AUTO 00000KT 10SM CLR 28/23 A3000 240 76 1800 000/00 RMK AO2 T02780233
63870K0J4 0J420160805090510808/05/16 09:05:31  5-MIN K0J4 051405Z AUTO 00000KT 10SM CLR 28/23 A3000 240 76 1800 000/00 RMK AO2 T02780233
63870K0J4 0J420160805091010808/05/16 09:10:31  5-MIN K0J4 051410Z AUTO 00000KT 10SM CLR 28/24 A3000 240 76 1900 000/00 RMK AO2 T02830239
63870K0J4 0J420160805091510808/05/16 09:15:31  5-MIN K0J4 051415Z AUTO 00000KT 10SM CLR 28/24 A3001 240 76 1900 000/00 RMK AO2 T02830239
63870K0J4 0J420160805092010808/05/16 09:20:31  5-MIN K0J4 051420Z AUTO 00000KT 10SM CLR 28/23 A3001 240 74 1900 000/00 RMK AO2 T02830233
63870K0J4 0J420160805092510808/05/16 09:25:31  5-MIN K0J4 051425Z AUTO 00000KT 10SM CLR 29/23 A3001 240 71 1900 000/00 RMK AO2 T02890233
63870K0J4 0J420160805093010808/05/16 09:30:31  5-MIN K0J4 051430Z AUTO 00000KT 10SM CLR 29/23 A3001 240 71 1900 000/00 RMK AO2 T02890233
63870K0J4 0J420160805093510808/05/16 09:35:31  5-MIN K0J4 051435Z AUTO 09003KT 10SM CLR 29/24 A3000 240 71 2000 090/03 RMK AO2 T02940239
63870K0J4 0J420160805094010808/05/16 09:40:31  5-MIN K0J4 051440Z AUTO 00000KT 10SM CLR 29/24 A3001 240 74 1900 000/00 RMK AO2 T02890239
63870K0J4 0J420160805094510808/05/16 09:45:31  5-MIN K0J4 051445Z AUTO 00000KT 10SM CLR 29/23 A3001 230 69 2000 000/00 RMK AO2 T02940233
63870K0J4 0J420160805095010808/05/16 09:50:31  5-MIN K0J4 051450Z AUTO 00000KT 10SM CLR 30/23 A3001 230 67 2000 000/00 RMK AO2 T03000233
63870K0J4 0J420160805095512108/05/16 09:55:31  5-MIN K0J4 051455Z AUTO 13004KT 10SM CLR 29/23 A3001 230 69 2000 130/04 RMK AO2 SLP158 T02940233 53008
63870K0J4 0J420160805100010808/05/16 10:00:31  5-MIN K0J4 051500Z AUTO 00000KT 10SM CLR 29/23 A3001 230 69 2000 000/00 RMK AO2 T02940233
63870K0J4 0J420160805100510808/05/16 10:05:31  5-MIN K0J4 051505Z AUTO 00000KT 10SM CLR 30/23 A3001 230 67 2000 000/00 RMK AO2 T03000233
63870K0J4 0J420160805101010808/05/16 10:10:31  5-MIN K0J4 051510Z AUTO 00000KT 10SM CLR 31/23 A3001 230 65 2100 000/00 RMK AO2 T03060233
63870K0J4 0J420160805101510808/05/16 10:15:31  5-MIN K0J4 051515Z AUTO VRB03KT 10SM CLR 31/23 A3001 240 65 2100 VRB/03 RMK AO2 T03060233
63870K0J4 0J420160805102010808/05/16 10:20:31  5-MIN K0J4 051520Z AUTO 00000KT 10SM CLR 31/23 A3001 240 65 2100 000/00 RMK AO2 T03060233
63870K0J4 0J420160805102510808/05/16 10:25:31  5-MIN K0J4 051525Z AUTO 15004KT 10SM CLR 31/23 A3001 240 65 2100 150/04 RMK AO2 T03060233
63870K0J4 0J420160805103010808/05/16 10:30:31  5-MIN K0J4 051530Z AUTO 00000KT 10SM CLR 31/23 A3001 240 65 2100 000/00 RMK AO2 T03060233
63870K0J4 0J420160805103510808/05/16 10:35:31  5-MIN K0J4 051535Z AUTO 00000KT 10SM CLR 30/23 A3001 240 67 2100 000/00 RMK AO2 T03000233
63870K0J4 0J420160805104010808/05/16 10:40:31  5-MIN K0J4 051540Z AUTO 00000KT 10SM CLR 31/23 A3001 240 63 2200 000/00 RMK AO2 T03110233
63870K0J4 0J420160805104510808/05/16 10:45:31  5-MIN K0J4 051545Z AUTO 00000KT 10SM CLR 31/23 A3001 240 60 2200 000/00 RMK AO2 T03110228
63870K0J4 0J420160805105010808/05/16 10:50:31  5-MIN K0J4 051550Z AUTO 00000KT 10SM CLR 31/23 A3001 240 62 2100 000/00 RMK AO2 T03060228
63870K0J4 0J420160805105511508/05/16 10:55:31  5-MIN K0J4 051555Z AUTO 00000KT 10SM CLR 31/23 A3001 240 60 2200 000/00 RMK AO2 SLP156 T03110228
63870K0J4 0J420160805110010808/05/16 11:00:31  5-MIN K0J4 051600Z AUTO 18003KT 10SM CLR 31/23 A3000 240 63 2200 180/03 RMK AO2 T03110233
63870K0J4 0J420160805110510808/05/16 11:05:31  5-MIN K0J4 051605Z AUTO 00000KT 10SM CLR 31/23 A3000 240 62 2100 000/00 RMK AO2 T03060228
63870K0J4 0J420160805111010808/05/16 11:10:31  5-MIN K0J4 051610Z AUTO 00000KT 10SM CLR 31/23 A3000 240 60 2200 000/00 RMK AO2 T03110228
63870K0J4 0J420160805111510808/05/16 11:15:31  5-MIN K0J4 051615Z AUTO VRB04KT 10SM CLR 31/23 A3000 240 63 2200 VRB/04 RMK AO2 T03110233
63870K0J4 0J420160805112010808/05/16 11:20:31  5-MIN K0J4 051620Z AUTO VRB03KT 10SM CLR 31/23 A3000 240 62 2100 VRB/03 RMK AO2 T03060228
63870K0J4 0J420160805112510808/05/16 11:25:31  5-MIN K0J4 051625Z AUTO VRB03KT 10SM CLR 31/23 A3000 240 60 2200 VRB/03 RMK AO2 T03110228
63870K0J4 0J420160805113010808/05/16 11:30:31  5-MIN K0J4 051630Z AUTO 00000KT 10SM CLR 31/23 A3000 240 63 2200 000/00 RMK AO2 T03110233
63870K0J4 0J420160805113511108/05/16 11:35:31  5-MIN K0J4 051635Z AUTO VRB03KT 10SM FEW033 31/23 A3000 240 63 2200 VRB/03 RMK AO2 T03110233
63870K0J4 0J420160805114011108/05/16 11:40:31  5-MIN K0J4 051640Z AUTO 00000KT 10SM SCT033 31/23 A3000 240 63 2200 000/00 RMK AO2 T03110233
63870K0J4 0J420160805114511108/05/16 11:45:31  5-MIN K0J4 051645Z AUTO 00000KT 10SM SCT031 32/23 A3000 240 61 2200 000/00 RMK AO2 T03170233
63870K0J4 0J420160805115011108/05/16 11:50:31  5-MIN K0J4 051650Z AUTO 00000KT 10SM FEW031 32/23 A3000 240 61 2200 000/00 RMK AO2 T03170233
63870K0J4 0J420160805115511808/05/16 11:55:31  5-MIN K0J4 051655Z AUTO 00000KT 10SM SCT033 32/23 A3000 240 58 2200 000/00 RMK AO2 SLP153 T03170228
63870K0J4 0J420160805120011108/05/16 12:00:31  5-MIN K0J4 051700Z AUTO VRB04KT 10SM SCT033 32/23 A3000 240 61 2200 VRB/04 RMK AO2 T03170233
63870K0J4 0J420160805120511108/05/16 12:05:31  5-MIN K0J4 051705Z AUTO 00000KT 10SM SCT035 32/23 A3000 240 61 2200 000/00 RMK AO2 T03170233
63870K0J4 0J420160805121011108/05/16 12:10:31  5-MIN K0J4 051710Z AUTO VRB04KT 10SM FEW035 32/23 A3000 240 57 2300 VRB/04 RMK AO2 T03220228
63870K0J4 0J420160805121511108/05/16 12:15:31  5-MIN K0J4 051715Z AUTO 13003KT 10SM FEW037 32/23 A3000 250 59 2300 130/03 RMK AO2 T03220233
63870K0J4 0J420160805122011108/05/16 12:20:31  5-MIN K0J4 051720Z AUTO VRB03KT 10SM SCT037 32/23 A3000 250 57 2300 VRB/03 RMK AO2 T03220228
63870K0J4 0J420160805122511108/05/16 12:25:31  5-MIN K0J4 051725Z AUTO 00000KT 10SM BKN036 32/22 A3000 240 55 2300 000/00 RMK AO2 T03220222
63870K0J4 0J420160805123011808/05/16 12:30:31  5-MIN K0J4 051730Z AUTO 33004KT 10SM SCT036 SCT095 32/22 A3000 240 55 2300 330/04 RMK AO2 T03220222
63870K0J4 0J420160805123511808/05/16 12:35:31  5-MIN K0J4 051735Z AUTO VRB05KT 10SM SCT036 SCT095 32/23 A3000 240 58 2200 VRB/05 RMK AO2 T03170228
63870K0J4 0J420160805124011108/05/16 12:40:31  5-MIN K0J4 051740Z AUTO 02003KT 10SM SCT036 32/24 A3000 240 61 2300 020/03 RMK AO2 T03220239
63870K0J4 0J420160805124511808/05/16 12:45:31  5-MIN K0J4 051745Z AUTO 06004KT 10SM FEW037 SCT048 33/23 A3000 240 57 2400 060/04 RMK AO2 T03280233
63870K0J4 0J420160805125011808/05/16 12:50:31  5-MIN K0J4 051750Z AUTO 05003KT 10SM FEW037 SCT048 32/24 A3000 240 61 2300 050/03 RMK AO2 T03220239
63870K0J4 0J420160805125514308/05/16 12:55:31  5-MIN K0J4 051755Z AUTO 00000KT 10SM FEW037 SCT048 33/24 A3000 250 59 2400 000/00 RMK AO2 SLP153 T03280239 10328 20228 53001
63870K0J4 0J420160805130011808/05/16 13:00:31  5-MIN K0J4 051800Z AUTO 02005KT 10SM SCT037 SCT048 33/23 A3000 240 57 2400 020/05 RMK AO2 T03280233
63870K0J4 0J420160805130511808/05/16 13:05:31  5-MIN K0J4 051805Z AUTO 03004KT 10SM BKN040 BKN050 33/23 A3000 250 55 2400 030/04 RMK AO2 T03280228
63870K0J4 0J420160805131011808/05/16 13:10:31  5-MIN K0J4 051810Z AUTO VRB03KT 10SM BKN040 BKN050 33/23 A3000 250 57 2400 VRB/03 RMK AO2 T03280233
63870K0J4 0J420160805131511808/05/16 13:15:31  5-MIN K0J4 051815Z AUTO 31003KT 10SM SCT038 BKN046 33/23 A2999 250 55 2400 310/03 RMK AO2 T03330233
63870K0J4 0J420160805132011808/05/16 13:20:31  5-MIN K0J4 051820Z AUTO 00000KT 10SM BKN038 BKN046 33/23 A2999 250 55 2400 000/00 RMK AO2 T03330233
63870K0J4 0J420160805132511108/05/16 13:25:31  5-MIN K0J4 051825Z AUTO 03005KT 10SM BKN041 33/23 A2999 250 57 2400 030/05 RMK AO2 T03280233
63870K0J4 0J420160805133011808/05/16 13:30:31  5-MIN K0J4 051830Z AUTO VRB03KT 10SM BKN039 BKN046 33/23 A2999 250 57 2400 VRB/03 RMK AO2 T03280233
63870K0J4 0J420160805133511108/05/16 13:35:31  5-MIN K0J4 051835Z AUTO VRB03KT 10SM BKN039 33/23 A2999 250 57 2400 VRB/03 RMK AO2 T03280233
63870K0J4 0J420160805134011108/05/16 13:40:31  5-MIN K0J4 051840Z AUTO 05003KT 10SM SCT041 33/23 A2998 260 55 2400 050/03 RMK AO2 T03330233
63870K0J4 0J420160805134511808/05/16 13:45:31  5-MIN K0J4 051845Z AUTO 05006KT 10SM SCT039 SCT046 33/23 A2998 260 55 2400 050/06 RMK AO2 T03330233
63870K0J4 0J420160805135011108/05/16 13:50:31  5-MIN K0J4 051850Z AUTO 08004KT 10SM SCT039 33/23 A2998 260 55 2400 080/04 RMK AO2 T03280228
63870K0J4 0J420160805135511808/05/16 13:55:31  5-MIN K0J4 051855Z AUTO 06004KT 10SM FEW039 33/23 A2998 260 57 2400 060/04 RMK AO2 SLP146 T03280233
63870K0J4 0J420160805140011108/05/16 14:00:31  5-MIN K0J4 051900Z AUTO 06003KT 10SM SCT039 33/23 A2997 270 55 2500 060/03 RMK AO2 T03330233
63870K0J4 0J420160805140511108/05/16 14:05:31  5-MIN K0J4 051905Z AUTO 05005KT 10SM BKN039 33/23 A2997 270 57 2400 050/05 RMK AO2 T03280233
63870K0J4 0J420160805141012508/05/16 14:10:31  5-MIN K0J4 051910Z AUTO 08004KT 10SM BKN041 BKN048 BKN080 32/23 A2997 270 59 2300 080/04 RMK AO2 T03220233
63870K0J4 0J420160805141511808/05/16 14:15:31  5-MIN K0J4 051915Z AUTO VRB03KT 10SM BKN041 BKN075 33/23 A2996 280 55 2500 VRB/03 RMK AO2 T03330233
63870K0J4 0J420160805142011808/05/16 14:20:31  5-MIN K0J4 051920Z AUTO 05006KT 10SM BKN041 BKN075 33/23 A2996 280 57 2400 050/06 RMK AO2 T03280233
63870K0J4 0J420160805142511108/05/16 14:25:31  5-MIN K0J4 051925Z AUTO 05004KT 10SM BKN041 32/23 A2996 280 59 2400 050/04 RMK AO2 T03220233
63870K0J4 0J420160805143011108/05/16 14:30:31  5-MIN K0J4 051930Z AUTO 03004KT 10SM BKN040 33/23 A2996 280 57 2400 030/04 RMK AO2 T03280233
63870K0J4 0J420160805143511108/05/16 14:35:31  5-MIN K0J4 051935Z AUTO 00000KT 10SM SCT040 34/23 A2996 280 53 2500 000/00 RMK AO2 T03390233
63870K0J4 0J420160805144011108/05/16 14:40:31  5-MIN K0J4 051940Z AUTO 00000KT 10SM SCT040 34/23 A2995 290 53 2500 000/00 RMK AO2 T03390233
63870K0J4 0J420160805144511808/05/16 14:45:31  5-MIN K0J4 051945Z AUTO 00000KT 10SM FEW040 SCT090 33/22 A2995 290 53 2400 000/00 RMK AO2 T03280222
63870K0J4 0J420160805145011808/05/16 14:50:31  5-MIN K0J4 051950Z AUTO 06004KT 10SM FEW039 FEW090 33/23 A2995 290 55 2400 060/04 RMK AO2 T03280228
63870K0J4 0J420160805145511508/05/16 14:55:31  5-MIN K0J4 051955Z AUTO 01003KT 10SM CLR 33/23 A2995 290 53 2500 010/03 RMK AO2 SLP137 T03330228
63870K0J4 0J420160805150011108/05/16 15:00:31  5-MIN K0J4 052000Z AUTO VRB03KT 10SM FEW070 34/23 A2995 290 51 2500 VRB/03 RMK AO2 T03390228
63870K0J4 0J420160805150511108/05/16 15:05:31  5-MIN K0J4 052005Z AUTO VRB03KT 10SM FEW070 34/22 A2994 300 48 2600 VRB/03 RMK AO2 T03440222
63870K0J4 0J420160805151011108/05/16 15:10:31  5-MIN K0J4 052010Z AUTO VRB04KT 10SM FEW070 34/23 A2994 300 50 2600 VRB/04 RMK AO2 T03440228
63870K0J4 0J420160805151511108/05/16 15:15:31  5-MIN K0J4 052015Z AUTO 10005KT 10SM FEW070 33/23 A2994 300 53 2500 100/05 RMK AO2 T03330228
63870K0J4 0J420160805152011108/05/16 15:20:31  5-MIN K0J4 052020Z AUTO VRB05KT 10SM FEW070 33/23 A2994 300 55 2400 VRB/05 RMK AO2 T03280228
63870K0J4 0J420160805152511108/05/16 15:25:31  5-MIN K0J4 052025Z AUTO 00000KT 10SM FEW070 33/23 A2994 300 53 2500 000/00 RMK AO2 T03330228
63870K0J4 0J420160805153011108/05/16 15:30:31  5-MIN K0J4 052030Z AUTO VRB03KT 10SM FEW043 34/23 A2994 300 51 2600 VRB/03 RMK AO2 T03390228
63870K0J4 0J420160805153511108/05/16 15:35:31  5-MIN K0J4 052035Z AUTO 13003KT 10SM FEW043 34/23 A2994 300 51 2600 130/03 RMK AO2 T03390228
63870K0J4 0J420160805154011108/05/16 15:40:31  5-MIN K0J4 052040Z AUTO 00000KT 10SM FEW043 33/23 A2993 300 53 2500 000/00 RMK AO2 T03330228
63870K0J4 0J420160805154511108/05/16 15:45:31  5-MIN K0J4 052045Z AUTO 00000KT 10SM FEW043 33/23 A2993 300 53 2500 000/00 RMK AO2 T03330228
63870K0J4 0J420160805155011108/05/16 15:50:31  5-MIN K0J4 052050Z AUTO 00000KT 10SM FEW043 34/23 A2993 300 51 2600 000/00 RMK AO2 T03390228
63870K0J4 0J420160805155512408/05/16 15:55:31  5-MIN K0J4 052055Z AUTO 09004KT 10SM SCT043 34/23 A2993 310 50 2600 090/04 RMK AO2 SLP131 T03440228 56005
63870K0J4 0J420160805160011108/05/16 16:00:31  5-MIN K0J4 052100Z AUTO VRB03KT 10SM FEW044 34/23 A2993 310 50 2600 VRB/03 RMK AO2 T03440228
63870K0J4 0J420160805160511108/05/16 16:05:31  5-MIN K0J4 052105Z AUTO 08004KT 10SM FEW044 34/22 A2992 310 48 2600 080/04 RMK AO2 T03440222
63870K0J4 0J420160805161011108/05/16 16:10:31  5-MIN K0J4 052110Z AUTO 08003KT 10SM FEW044 33/22 A2992 310 50 2500 080/03 RMK AO2 T03330217
63870K0J4 0J420160805161511108/05/16 16:15:31  5-MIN K0J4 052115Z AUTO 10003KT 10SM FEW044 33/22 A2992 310 50 2500 100/03 RMK AO2 T03330217
63870K0J4 0J420160805162011108/05/16 16:20:31  5-MIN K0J4 052120Z AUTO 09003KT 10SM FEW044 34/22 A2992 310 48 2600 090/03 RMK AO2 T03390217
63870K0J4 0J420160805162510808/05/16 16:25:31  5-MIN K0J4 052125Z AUTO 11003KT 10SM CLR 34/22 A2992 310 48 2600 110/03 RMK AO2 T03390217
63870K0J4 0J420160805163010808/05/16 16:30:31  5-MIN K0J4 052130Z AUTO 13003KT 10SM CLR 34/22 A2992 310 48 2600 130/03 RMK AO2 T03390217
63870K0J4 0J420160805163510808/05/16 16:35:31  5-MIN K0J4 052135Z AUTO 07003KT 10SM CLR 33/22 A2992 310 50 2500 070/03 RMK AO2 T03330217
63870K0J4 0J420160805164010808/05/16 16:40:31  5-MIN K0J4 052140Z AUTO 00000KT 10SM CLR 34/22 A2992 310 46 2600 000/00 RMK AO2 T03440217
63870K0J4 0J420160805164510808/05/16 16:45:31  5-MIN K0J4 052145Z AUTO 07005KT 10SM CLR 34/22 A2992 310 48 2600 070/05 RMK AO2 T03390217
63870K0J4 0J420160805165010808/05/16 16:50:31  5-MIN K0J4 052150Z AUTO VRB03KT 10SM CLR 34/22 A2993 310 48 2600 VRB/03 RMK AO2 T03390217
63870K0J4 0J420160805165511508/05/16 16:55:31  5-MIN K0J4 052155Z AUTO 20007KT 10SM CLR 32/24 A2992 310 61 2400 200/07 RMK AO2 SLP129 T03220239
63870K0J4 0J420160805170010808/05/16 17:00:31  5-MIN K0J4 052200Z AUTO 20009KT 10SM CLR 32/24 A2993 310 65 2300 200/09 RMK AO2 T03170244
63870K0J4 0J420160805170510808/05/16 17:05:31  5-MIN K0J4 052205Z AUTO 22007KT 10SM CLR 31/24 A2993 310 65 2300 220/07 RMK AO2 T03110239
63870K0J4 0J420160805171010808/05/16 17:10:31  5-MIN K0J4 052210Z AUTO 22007KT 10SM CLR 31/24 A2993 300 67 2300 220/07 RMK AO2 T03110244
63870K0J4 0J420160805171511108/05/16 17:15:31  5-MIN K0J4 052215Z AUTO 22008KT 10SM FEW046 31/24 A2994 300 67 2200 220/08 RMK AO2 T03110244
63870K0J4 0J420160805172011108/05/16 17:20:31  5-MIN K0J4 052220Z AUTO 21007KT 10SM FEW046 32/25 A2994 300 67 2300 210/07 RMK AO2 T03170250
63870K0J4 0J420160805172510808/05/16 17:25:31  5-MIN K0J4 052225Z AUTO 21007KT 10SM CLR 31/25 A2994 300 69 2200 210/07 RMK AO2 T03110250
63870K0J4 0J420160805173010808/05/16 17:30:31  5-MIN K0J4 052230Z AUTO 23008KT 10SM CLR 31/25 A2994 300 72 2200 230/08 RMK AO2 T03060250
63870K0J4 0J420160805173511108/05/16 17:35:31  5-MIN K0J4 052235Z AUTO 23007KT 10SM FEW095 31/24 A2994 300 67 2300 230/07 RMK AO2 T03110244
63870K0J4 0J420160805174011108/05/16 17:40:31  5-MIN K0J4 052240Z AUTO 20010KT 10SM FEW095 31/24 A2993 300 69 2200 200/10 RMK AO2 T03060244
63870K0J4 0J420160805174511608/05/16 17:45:31  5-MIN K0J4 052245Z AUTO 20009KT 10SM VCTS FEW090 30/24 A2993 300 69 2100 200/09 RMK AO2 T03000239
63870K0J4 0J420160805175011608/05/16 17:50:31  5-MIN K0J4 052250Z AUTO 20009KT 10SM VCTS FEW095 30/24 A2994 300 69 2100 200/09 RMK AO2 T03000239
63870K0J4 0J420160805175512308/05/16 17:55:31  5-MIN K0J4 052255Z AUTO 20006KT 10SM VCTS FEW095 29/24 A2994 300 71 2100 200/06 RMK AO2 SLP133 T02940239
63870K0J4 0J420160805180011608/05/16 18:00:31  5-MIN K0J4 052300Z AUTO 18008KT 10SM VCTS FEW090 29/24 A2993 300 71 2100 180/08 RMK AO2 T02940239
63870K0J4 0J420160805180511308/05/16 18:05:31  5-MIN K0J4 052305Z AUTO 18011KT 10SM VCTS CLR 29/24 A2994 300 74 2000 180/11 RMK AO2 T02890239
63870K0J4 0J420160805181012008/05/16 18:10:31  5-MIN K0J4 052310Z AUTO 19008KT 10SM TS FEW050 28/23 A2994 300 71 1900 190/08 RMK AO2 TSB07 T02830228
63870K0J4 0J420160805181512308/05/16 18:15:31  5-MIN K0J4 052315Z AUTO 18008KT 10SM TS SCT048 28/23 A2994 290 71 1900 180/08 RMK AO2 TSB07B12 T02830228
63870K0J4 0J420160805182013008/05/16 18:20:31  5-MIN K0J4 052320Z AUTO 18010KT 10SM TS SCT045 BKN055 28/22 A2994 300 71 1900 180/10 RMK AO2 TSB07B12 T02780222
63870K0J4 0J420160805182513008/05/16 18:25:31  5-MIN K0J4 052325Z AUTO 19010KT 10SM TS SCT045 BKN055 28/22 A2994 300 71 1900 190/10 RMK AO2 TSB07B12 T02780222
63870K0J4 0J420160805183013008/05/16 18:30:31  5-MIN K0J4 052330Z AUTO 19008KT 10SM TS BKN043 BKN050 28/22 A2995 290 69 1900 190/08 RMK AO2 TSB07B12 T02780217
63870K0J4 0J420160805183513008/05/16 18:35:31  5-MIN K0J4 052335Z AUTO 18006KT 10SM TS BKN041 BKN050 28/22 A2996 280 69 1900 180/06 RMK AO2 TSB07B12 T02780217
63870K0J4 0J420160805184013708/05/16 18:40:31  5-MIN K0J4 052340Z AUTO VRB04KT 10SM TS BKN034 OVC045 27/22 A2998 260 74 1800 VRB/04 RMK AO2 TSB07B12 PRESRR T02720222
63870K0J4 0J420160805184513708/05/16 18:45:31  5-MIN K0J4 052345Z AUTO 04009KT 10SM TS BKN034 OVC045 27/22 A2999 250 74 1800 040/09 RMK AO2 TSB07B12 PRESRR T02720222
63870K0J4 0J420160805185015108/05/16 18:50:31  5-MIN K0J4 052350Z AUTO 09011KT 4SM +TSRA FEW025 BKN034 OVC044 27/23 A2999 250 79 1700 090/11 RMK AO2 RAB49 TSB07B12 P0000 T02670228
63870K0J4 0J420160805185514408/05/16 18:55:31  5-MIN K0J4 052355Z AUTO 14010KT 2SM +TSRA BR FEW025 BKN035 OVC055 26/23 A2998 260 87 1600 140/10 RMK AO2 RAB49 TSB07B12 P0000
63870K0J4 0J420160805190013908/05/16 19:00:31  5-MIN K0J4 060000Z AUTO 16009KT 2SM +TSRA BR FEW025 BKN035 OVC080 26/23 A2999 260 87 1600 160/09 RMK AO2 T02560233 PNO $
63870K0J4 0J420160805190514308/05/16 19:05:31  5-MIN K0J4 060005Z AUTO 16005KT 1 3/4SM +TSRA BR SCT032 BKN047 OVC095 25/23 A2999 250 90 1500 160/05 RMK AO2 T02500233 PNO $
63870K0J4 0J420160805191014308/05/16 19:10:31  5-MIN K0J4 060010Z AUTO 16008KT 1 3/4SM +TSRA BR FEW030 BKN040 OVC095 25/23 A3000 250 90 1500 160/08 RMK AO2 T02500233 PNO $
63870K0J4 0J420160805191513908/05/16 19:15:31  5-MIN K0J4 060015Z AUTO 17007KT 3SM -TSRA BR FEW024 BKN035 OVC047 25/23 A2999 250 90 1500 170/07 RMK AO2 T02500233 PNO $
63870K0J4 0J420160805192013608/05/16 19:20:31  5-MIN K0J4 060020Z AUTO 16008KT 8SM -TSRA SCT034 BKN047 OVC095 25/24 A3000 250 93 1500 160/08 RMK AO2 T02500239 PNO $
63870K0J4 0J420160805192513708/05/16 19:25:31  5-MIN K0J4 060025Z AUTO 18007KT 10SM -TSRA SCT029 BKN047 OVC095 25/24 A2999 250 93 1500 180/07 RMK AO2 T02500239 PNO $
63870K0J4 0J420160805193014008/05/16 19:30:31  5-MIN K0J4 060030Z AUTO 19005KT 10SM TS FEW022 BKN075 OVC095 26/24 A2999 250 90 1600 190/05 RMK AO2 RAE26 T02560239 PNO $
63870K0J4 0J420160805193514008/05/16 19:35:31  5-MIN K0J4 060035Z AUTO 20005KT 10SM TS FEW016 BKN070 OVC095 26/24 A2999 250 90 1600 200/05 RMK AO2 RAE26 T02560239 PNO $
63870K0J4 0J420160805194014008/05/16 19:40:31  5-MIN K0J4 060040Z AUTO 00000KT 10SM TS FEW025 BKN065 OVC100 26/24 A3000 250 90 1600 000/00 RMK AO2 RAE26 T02560239 PNO $
63870K0J4 0J420160805194514508/05/16 19:45:31  5-MIN K0J4 060045Z AUTO 19003KT 9SM -TSRA FEW048 BKN065 OVC110 25/24 A3000 250 93 1500 190/03 RMK AO2 RAE26B44 T02500239 PNO $
63870K0J4 0J420160805195015608/05/16 19:50:31  5-MIN K0J4 060050Z AUTO 00000KT 6SM TSRA BR BKN065 BKN080 OVC095 26/24 A3000 250 90 1600 000/00 RMK AO2 RAE26B44 TSB47B50 T02560239 PNO $
63870K0J4 0J420160805195516308/05/16 19:55:31  5-MIN K0J4 060055Z AUTO 18004KT 4SM TSRA BR BKN065 BKN080 OVC095 25/24 A2999 250 93 1500 180/04 RMK AO2 RAE26B44 TSB47B50 SLP152 T02500239 PNO $
63870K0J4 0J420160805200013808/05/16 20:00:31  5-MIN K0J4 060100Z AUTO 19003KT 4SM TSRA BR BKN065 BKN090 OVC110 25/24 A2999 250 93 1500 190/03 RMK AO2 T02500239 PNO $
63870K0J4 0J420160805200513908/05/16 20:05:31  5-MIN K0J4 060105Z AUTO 08006KT 5SM -TSRA BR SCT060 BKN075 OVC110 25/24 A3000 240 93 1500 080/06 RMK AO2 T02500239 PNO $
63870K0J4 0J420160805201014008/05/16 20:10:31  5-MIN K0J4 060110Z AUTO 08008KT 7SM -RA FEW050 BKN070 OVC120 25/24 A3000 240 93 1500 080/08 RMK AO2 TSE09 T02500239 PNO $
63870K0J4 0J420160805201514208/05/16 20:15:31  5-MIN K0J4 060115Z AUTO 09003KT 6SM RA BR FEW023 BKN070 OVC090 25/24 A3000 240 93 1500 090/03 RMK AO2 TSE09 T02500239 PNO $
63870K0J4 0J420160805202014308/05/16 20:20:31  5-MIN K0J4 060120Z AUTO 09004KT 6SM -RA BR FEW013 BKN070 BKN090 25/24 A3000 240 93 1500 090/04 RMK AO2 TSE09 T02500239 PNO $
63870K0J4 0J420160805202514008/05/16 20:25:31  5-MIN K0J4 060125Z AUTO VRB03KT 7SM -RA FEW013 BKN080 BKN090 24/24 A3000 240 97 1400 VRB/03 RMK AO2 TSE09 T02440239 PNO $
63870K0J4 0J420160805203014008/05/16 20:30:31  5-MIN K0J4 060130Z AUTO 00000KT 9SM -RA FEW013 SCT037 BKN080 24/23 A3000 240 93 1400 000/00 RMK AO2 TSE09 T02440233 PNO $
63870K0J4 0J420160805203514008/05/16 20:35:31  5-MIN K0J4 060135Z AUTO 00000KT 9SM -RA FEW012 SCT032 BKN080 24/23 A2999 250 93 1400 000/00 RMK AO2 TSE09 T02440233 PNO $
63870K0J4 0J420160805204014108/05/16 20:40:31  5-MIN K0J4 060140Z AUTO 21003KT 10SM -RA FEW012 SCT029 SCT080 24/23 A2999 250 93 1400 210/03 RMK AO2 TSE09 T02440233 PNO $
63870K0J4 0J420160805204514308/05/16 20:45:31  5-MIN K0J4 060145Z AUTO 21004KT 10SM FEW028 SCT070 SCT080 24/23 A2998 260 93 1500 210/04 RMK AO2 RAE45 TSE09 T02440233 PNO $
63870K0J4 0J420160805205014208/05/16 20:50:31  5-MIN K0J4 060150Z AUTO 22006KT 9SM FEW041 SCT070 BKN080 25/24 A2998 260 93 1500 220/06 RMK AO2 RAE45 TSE09 T02500239 PNO $
63870K0J4 0J420160805205514708/05/16 20:55:31  5-MIN K0J4 060155Z AUTO 24004KT 8SM -RA SCT041 SCT075 BKN100 24/24 A2998 270 97 1500 240/04 RMK AO2 TSE09 SLP146 T02440239 PNO $
63870K0J4 0J420160805210013408/05/16 21:00:31  5-MIN K0J4 060200Z AUTO 24004KT 8SM -RA FEW049 SCT070 BKN090 24/24 A2997 270 97 1500 240/04 RMK AO2 T02440239 PNO $
63870K0J4 0J420160805210513408/05/16 21:05:31  5-MIN K0J4 060205Z AUTO 24004KT 9SM -RA FEW055 SCT070 BKN090 24/23 A2997 270 93 1500 240/04 RMK AO2 T02440233 PNO $
63870K0J4 0J420160805211013508/05/16 21:10:31  5-MIN K0J4 060210Z AUTO 22005KT 10SM -RA FEW055 SCT070 BKN095 24/24 A2997 270 97 1500 220/05 RMK AO2 T02440239 PNO $
63870K0J4 0J420160805211513508/05/16 21:15:31  5-MIN K0J4 060215Z AUTO 24003KT 10SM -RA FEW055 SCT090 BKN110 24/24 A2997 270 97 1500 240/03 RMK AO2 T02440239 PNO $
63870K0J4 0J420160805212013508/05/16 21:20:31  5-MIN K0J4 060220Z AUTO 23003KT 10SM -RA FEW075 FEW090 SCT110 24/23 A2998 260 93 1500 230/03 RMK AO2 T02440233 PNO $
63870K0J4 0J420160805212512808/05/16 21:25:31  5-MIN K0J4 060225Z AUTO 00000KT 10SM -RA FEW095 FEW110 24/24 A2998 260 97 1500 000/00 RMK AO2 T02440239 PNO $
63870K0J4 0J420160805213012908/05/16 21:30:31  5-MIN K0J4 060230Z AUTO 00000KT 8SM FEW090 FEW110 24/24 A2999 250 97 1400 000/00 RMK AO2 RAE26 T02440239 PNO $
63870K0J4 0J420160805213512208/05/16 21:35:31  5-MIN K0J4 060235Z AUTO 00000KT 7SM FEW100 24/23 A2999 250 93 1400 000/00 RMK AO2 RAE26 T02440233 PNO $
63870K0J4 0J420160805214011908/05/16 21:40:31  5-MIN K0J4 060240Z AUTO 00000KT 8SM CLR 24/23 A2999 250 93 1400 000/00 RMK AO2 RAE26 T02440233 PNO $
63870K0J4 0J420160805214512608/05/16 21:45:31  5-MIN K0J4 060245Z AUTO 00000KT 9SM -RA CLR 24/23 A2999 250 93 1400 000/00 RMK AO2 RAE26B43 T02440233 PNO $
63870K0J4 0J420160805215012608/05/16 21:50:31  5-MIN K0J4 060250Z AUTO 00000KT 8SM -RA CLR 24/24 A2999 250 97 1400 000/00 RMK AO2 RAE26B43 T02440239 PNO $
63870K0J4 0J420160805215514408/05/16 21:55:31  5-MIN K0J4 060255Z AUTO 00000KT 7SM CLR 24/24 A2999 250 97 1400 000/00 RMK AO2 RAE26B43E52 SLP152 6//// T02440239 53020 PNO $
63870K0J4 0J420160805220011308/05/16 22:00:31  5-MIN K0J4 060300Z AUTO 00000KT 7SM CLR 24/24 A3000 240 97 1400 000/00 RMK AO2 T02440239 PNO $
63870K0J4 0J420160805220511308/05/16 22:05:31  5-MIN K0J4 060305Z AUTO 00000KT 8SM CLR 24/23 A3000 240 93 1400 000/00 RMK AO2 T02440233 PNO $
63870K0J4 0J420160805221011308/05/16 22:10:31  5-MIN K0J4 060310Z AUTO 00000KT 9SM CLR 24/23 A3000 240 93 1400 000/00 RMK AO2 T02440233 PNO $
63870K0J4 0J420160805221511308/05/16 22:15:31  5-MIN K0J4 060315Z AUTO 23004KT 9SM CLR 24/23 A2999 250 93 1400 230/04 RMK AO2 T02440233 PNO $
63870K0J4 0J420160805222011308/05/16 22:20:31  5-MIN K0J4 060320Z AUTO 00000KT 9SM CLR 24/23 A2999 250 93 1400 000/00 RMK AO2 T02440233 PNO $
63870K0J4 0J420160805222511408/05/16 22:25:31  5-MIN K0J4 060325Z AUTO 00000KT 10SM CLR 24/23 A3000 240 93 1400 000/00 RMK AO2 T02440233 PNO $
63870K0J4 0J420160805223011408/05/16 22:30:31  5-MIN K0J4 060330Z AUTO 00000KT 10SM CLR 24/23 A2999 250 90 1400 000/00 RMK AO2 T02440228 PNO $
63870K0J4 0J420160805223511408/05/16 22:35:31  5-MIN K0J4 060335Z AUTO 00000KT 10SM CLR 24/23 A2999 250 90 1400 000/00 RMK AO2 T02440228 PNO $
63870K0J4 0J420160805224011408/05/16 22:40:31  5-MIN K0J4 060340Z AUTO 00000KT 10SM CLR 24/23 A3000 250 90 1400 000/00 RMK AO2 T02440228 PNO $
63870K0J4 0J420160805224511408/05/16 22:45:31  5-MIN K0J4 060345Z AUTO 00000KT 10SM CLR 24/23 A2999 250 90 1400 000/00 RMK AO2 T02440228 PNO $
63870K0J4 0J420160805225011408/05/16 22:50:31  5-MIN K0J4 060350Z AUTO 00000KT 10SM CLR 24/23 A2999 250 90 1400 000/00 RMK AO2 T02440228 PNO $
63870K0J4 0J420160805225512108/05/16 22:55:31  5-MIN K0J4 060355Z AUTO 00000KT 10SM CLR 24/23 A2999 250 93 1400 000/00 RMK AO2 SLP152 T02390228 PNO $
63870K0J4 0J420160805230011408/05/16 23:00:31  5-MIN K0J4 060400Z AUTO 00000KT 10SM CLR 24/23 A2999 250 93 1400 000/00 RMK AO2 T02390228 PNO $
63870K0J4 0J420160805230511408/05/16 23:05:31  5-MIN K0J4 060405Z AUTO 00000KT 10SM CLR 24/23 A2999 250 93 1400 000/00 RMK AO2 T02390228 PNO $
63870K0J4 0J420160805231011308/05/16 23:10:31  5-MIN K0J4 060410Z AUTO 00000KT 9SM CLR 24/23 A2999 250 93 1400 000/00 RMK AO2 T02390228 PNO $
63870K0J4 0J420160805231511308/05/16 23:15:31  5-MIN K0J4 060415Z AUTO 00000KT 8SM CLR 24/23 A2999 260 93 1400 000/00 RMK AO2 T02390228 PNO $
63870K0J4 0J420160805232011308/05/16 23:20:31  5-MIN K0J4 060420Z AUTO 00000KT 9SM CLR 24/23 A2998 260 93 1400 000/00 RMK AO2 T02390228 PNO $
63870K0J4 0J420160805232511308/05/16 23:25:31  5-MIN K0J4 060425Z AUTO 00000KT 9SM CLR 24/23 A2998 260 93 1400 000/00 RMK AO2 T02390228 PNO $
63870K0J4 0J420160805233011408/05/16 23:30:31  5-MIN K0J4 060430Z AUTO 00000KT 10SM CLR 24/23 A2998 260 93 1400 000/00 RMK AO2 T02390228 PNO $
63870K0J4 0J420160805233511308/05/16 23:35:31  5-MIN K0J4 060435Z AUTO 00000KT 9SM CLR 24/23 A2998 260 93 1400 000/00 RMK AO2 T02390228 PNO $
63870K0J4 0J420160805234011308/05/16 23:40:31  5-MIN K0J4 060440Z AUTO 00000KT 9SM CLR 24/23 A2998 260 93 1400 000/00 RMK AO2 T02390228 PNO $
63870K0J4 0J420160805234511408/05/16 23:45:31  5-MIN K0J4 060445Z AUTO 00000KT 10SM CLR 24/23 A2998 260 93 1400 000/00 RMK AO2 T02390228 PNO $
63870K0J4 0J420160805235012408/05/16 23:50:31  5-MIN K0J4 060450Z AUTO 15003KT 10SM -RA CLR 23/23 A2997 270 97 1300 150/03 RMK AO2 RAB50 T02330228 PNO $
63870K0J4 0J420160805235514108/05/16 23:55:31  5-MIN K0J4 060455Z AUTO 00000KT 10SM -RA CLR 23/23 A2997 270 97 1300 000/00 RMK AO2 RAB50 SLP145 T02330228 403440217 PNO $
63870K0J4 0J420160806000011808/06/16 00:00:31  5-MIN K0J4 060500Z AUTO 00000KT 10SM -RA CLR 23/23 A2997 270 97 1300 000/00 RMK AO2 T02330228 PNO $
63870K0J4 0J420160806000512008/06/16 00:05:31  5-MIN K0J4 060505Z AUTO 00000KT 10SM CLR 24/23 A2997 270 93 1400 000/00 RMK AO2 RAE02 T02390228 PNO $
63870K0J4 0J420160806001012008/06/16 00:10:31  5-MIN K0J4 060510Z AUTO 00000KT 10SM CLR 23/23 A2997 270 97 1300 000/00 RMK AO2 RAE02 T02330228 PNO $
63870K0J4 0J420160806001511908/06/16 00:15:31  5-MIN K0J4 060515Z AUTO 00000KT 9SM CLR 23/22 A2997 270 93 1300 000/00 RMK AO2 RAE02 T02330222 PNO $
63870K0J4 0J420160806002012008/06/16 00:20:31  5-MIN K0J4 060520Z AUTO 00000KT 10SM CLR 23/22 A2997 270 93 1300 000/00 RMK AO2 RAE02 T02330222 PNO $
63870K0J4 0J420160806002512008/06/16 00:25:31  5-MIN K0J4 060525Z AUTO 00000KT 10SM CLR 23/22 A2997 270 93 1300 000/00 RMK AO2 RAE02 T02330222 PNO $
63870K0J4 0J420160806003012008/06/16 00:30:31  5-MIN K0J4 060530Z AUTO 00000KT 10SM CLR 23/22 A2997 270 93 1300 000/00 RMK AO2 RAE02 T02330222 PNO $
63870K0J4 0J420160806003512008/06/16 00:35:31  5-MIN K0J4 060535Z AUTO 00000KT 10SM CLR 23/22 A2997 270 93 1300 000/00 RMK AO2 RAE02 T02330222 PNO $
63870K0J4 0J420160806004011908/06/16 00:40:31  5-MIN K0J4 060540Z AUTO 00000KT 9SM CLR 23/22 A2996 280 93 1300 000/00 RMK AO2 RAE02 T02330222 PNO $
63870K0J4 0J420160806004511908/06/16 00:45:31  5-MIN K0J4 060545Z AUTO 00000KT 7SM CLR 23/22 A2996 280 93 1300 000/00 RMK AO2 RAE02 T02330222 PNO $
63870K0J4 0J420160806005012208/06/16 00:50:31  5-MIN K0J4 060550Z AUTO 00000KT 6SM BR CLR 23/22 A2996 280 93 1300 000/00 RMK AO2 RAE02 T02330222 PNO $
63870K0J4 0J420160806005515008/06/16 00:55:31  5-MIN K0J4 060555Z AUTO 00000KT 7SM CLR 23/22 A2996 280 93 1300 000/00 RMK AO2 RAE02 SLP142 6//// T02330222 10256 20233 53004 PNO $
63870K0J4 0J420160806010011308/06/16 01:00:31  5-MIN K0J4 060600Z AUTO 00000KT 7SM CLR 23/22 A2996 280 93 1300 000/00 RMK AO2 T02330222 PNO $
63870K0J4 0J420160806010511308/06/16 01:05:31  5-MIN K0J4 060605Z AUTO 00000KT 7SM CLR 23/22 A2996 280 93 1400 000/00 RMK AO2 T02330222 PNO $
63870K0J4 0J420160806011011308/06/16 01:10:31  5-MIN K0J4 060610Z AUTO 00000KT 8SM CLR 23/22 A2996 280 93 1400 000/00 RMK AO2 T02330222 PNO $
63870K0J4 0J420160806011511308/06/16 01:15:31  5-MIN K0J4 060615Z AUTO 00000KT 8SM CLR 23/22 A2996 280 93 1400 000/00 RMK AO2 T02330222 PNO $
63870K0J4 0J420160806012011308/06/16 01:20:31  5-MIN K0J4 060620Z AUTO 00000KT 8SM CLR 23/22 A2996 280 93 1400 000/00 RMK AO2 T02330222 PNO $
63870K0J4 0J420160806012511308/06/16 01:25:31  5-MIN K0J4 060625Z AUTO 00000KT 8SM CLR 23/22 A2995 290 93 1400 000/00 RMK AO2 T02330222 PNO $
63870K0J4 0J420160806013011308/06/16 01:30:31  5-MIN K0J4 060630Z AUTO 00000KT 8SM CLR 23/23 A2996 280 97 1400 000/00 RMK AO2 T02330228 PNO $
63870K0J4 0J420160806013511308/06/16 01:35:31  5-MIN K0J4 060635Z AUTO 01003KT 8SM CLR 23/22 A2996 280 93 1400 010/03 RMK AO2 T02330222 PNO $
63870K0J4 0J420160806014011308/06/16 01:40:31  5-MIN K0J4 060640Z AUTO 00000KT 7SM CLR 23/22 A2996 280 93 1300 000/00 RMK AO2 T02330222 PNO $
63870K0J4 0J420160806014511308/06/16 01:45:31  5-MIN K0J4 060645Z AUTO 00000KT 7SM CLR 23/22 A2997 270 93 1300 000/00 RMK AO2 T02330222 PNO $
63870K0J4 0J420160806015011308/06/16 01:50:31  5-MIN K0J4 060650Z AUTO 00000KT 8SM CLR 23/22 A2996 280 93 1300 000/00 RMK AO2 T02330222 PNO $
63870K0J4 0J420160806015512008/06/16 01:55:31  5-MIN K0J4 060655Z AUTO 00000KT 9SM CLR 23/22 A2997 270 93 1300 000/00 RMK AO2 SLP143 T02330222 PNO $
63870K0J4 0J420160806020011308/06/16 02:00:31  5-MIN K0J4 060700Z AUTO 00000KT 9SM CLR 23/22 A2996 280 93 1300 000/00 RMK AO2 T02330222 PNO $
63870K0J4 0J420160806020511308/06/16 02:05:31  5-MIN K0J4 060705Z AUTO 00000KT 8SM CLR 23/22 A2996 280 93 1300 000/00 RMK AO2 T02330222 PNO $
63870K0J4 0J420160806021011308/06/16 02:10:31  5-MIN K0J4 060710Z AUTO 19003KT 8SM CLR 23/22 A2996 280 93 1300 190/03 RMK AO2 T02330222 PNO $
63870K0J4 0J420160806021511308/06/16 02:15:31  5-MIN K0J4 060715Z AUTO 21003KT 8SM CLR 23/22 A2996 280 93 1400 210/03 RMK AO2 T02330222 PNO $
63870K0J4 0J420160806022011308/06/16 02:20:31  5-MIN K0J4 060720Z AUTO 00000KT 8SM CLR 23/22 A2996 280 93 1400 000/00 RMK AO2 T02330222 PNO $
63870K0J4 0J420160806022511308/06/16 02:25:31  5-MIN K0J4 060725Z AUTO 00000KT 7SM CLR 23/22 A2996 280 93 1400 000/00 RMK AO2 T02330222 PNO $
63870K0J4 0J420160806023011308/06/16 02:30:31  5-MIN K0J4 060730Z AUTO 00000KT 8SM CLR 23/22 A2996 280 93 1400 000/00 RMK AO2 T02330222 PNO $
63870K0J4 0J420160806023511308/06/16 02:35:31  5-MIN K0J4 060735Z AUTO 00000KT 8SM CLR 23/22 A2996 280 93 1400 000/00 RMK AO2 T02330222 PNO $
63870K0J4 0J420160806024011308/06/16 02:40:31  5-MIN K0J4 060740Z AUTO 00000KT 7SM CLR 23/22 A2996 280 93 1300 000/00 RMK AO2 T02330222 PNO $
63870K0J4 0J420160806024511308/06/16 02:45:31  5-MIN K0J4 060745Z AUTO 00000KT 7SM CLR 23/22 A2996 280 93 1300 000/00 RMK AO2 T02330222 PNO $
63870K0J4 0J420160806025011308/06/16 02:50:31  5-MIN K0J4 060750Z AUTO 00000KT 8SM CLR 23/22 A2996 280 93 1400 000/00 RMK AO2 T02330222 PNO $
63870K0J4 0J420160806025512008/06/16 02:55:31  5-MIN K0J4 060755Z AUTO 00000KT 8SM CLR 23/22 A2996 280 93 1400 000/00 RMK AO2 SLP141 T02330222 PNO $
63870K0J4 0J420160806030011308/06/16 03:00:31  5-MIN K0J4 060800Z AUTO 00000KT 7SM CLR 23/22 A2996 280 93 1300 000/00 RMK AO2 T02330222 PNO $
63870K0J4 0J420160806030511308/06/16 03:05:31  5-MIN K0J4 060805Z AUTO 00000KT 7SM CLR 23/22 A2996 280 93 1400 000/00 RMK AO2 T02330222 PNO $
63870K0J4 0J420160806031011308/06/16 03:10:31  5-MIN K0J4 060810Z AUTO 00000KT 7SM CLR 23/22 A2996 280 93 1400 000/00 RMK AO2 T02330222 PNO $
63870K0J4 0J420160806031511308/06/16 03:15:31  5-MIN K0J4 060815Z AUTO 00000KT 8SM CLR 23/22 A2996 280 93 1400 000/00 RMK AO2 T02330222 PNO $
63870K0J4 0J420160806032011308/06/16 03:20:31  5-MIN K0J4 060820Z AUTO 00000KT 7SM CLR 23/22 A2996 280 97 1300 000/00 RMK AO2 T02280222 PNO $
63870K0J4 0J420160806032511308/06/16 03:25:31  5-MIN K0J4 060825Z AUTO 00000KT 7SM CLR 23/22 A2996 280 93 1400 000/00 RMK AO2 T02330222 PNO $
63870K0J4 0J420160806033011308/06/16 03:30:31  5-MIN K0J4 060830Z AUTO 00000KT 7SM CLR 23/22 A2996 280 93 1400 000/00 RMK AO2 T02330222 PNO $
63870K0J4 0J420160806033511608/06/16 03:35:31  5-MIN K0J4 060835Z AUTO 00000KT 6SM BR CLR 23/22 A2996 280 97 1300 000/00 RMK AO2 T02280222 PNO $
63870K0J4 0J420160806034011608/06/16 03:40:31  5-MIN K0J4 060840Z AUTO 00000KT 5SM BR CLR 23/22 A2996 280 97 1300 000/00 RMK AO2 T02280222 PNO $
63870K0J4 0J420160806034511608/06/16 03:45:31  5-MIN K0J4 060845Z AUTO 00000KT 6SM BR CLR 23/22 A2996 280 97 1300 000/00 RMK AO2 T02280222 PNO $
63870K0J4 0J420160806035011608/06/16 03:50:31  5-MIN K0J4 060850Z AUTO 00000KT 5SM BR CLR 23/22 A2996 280 97 1300 000/00 RMK AO2 T02280222 PNO $
63870K0J4 0J420160806035513508/06/16 03:55:31  5-MIN K0J4 060855Z AUTO 00000KT 5SM BR CLR 23/22 A2997 270 97 1300 000/00 RMK AO2 SLP142 6//// T02280222 58011 PNO $
63870K0J4 0J420160806040011608/06/16 04:00:31  5-MIN K0J4 060900Z AUTO 00000KT 6SM BR CLR 23/22 A2997 270 97 1300 000/00 RMK AO2 T02280222 PNO $
63870K0J4 0J420160806040511608/06/16 04:05:31  5-MIN K0J4 060905Z AUTO 00000KT 6SM BR CLR 23/22 A2998 260 97 1300 000/00 RMK AO2 T02280222 PNO $
63870K0J4 0J420160806041011308/06/16 04:10:31  5-MIN K0J4 060910Z AUTO 00000KT 7SM CLR 23/22 A2998 260 97 1300 000/00 RMK AO2 T02280222 PNO $
63870K0J4 0J420160806041511608/06/16 04:15:31  5-MIN K0J4 060915Z AUTO 00000KT 6SM BR CLR 23/22 A2998 270 93 1300 000/00 RMK AO2 T02280217 PNO $
63870K0J4 0J420160806042011608/06/16 04:20:31  5-MIN K0J4 060920Z AUTO 25003KT 6SM BR CLR 23/22 A2997 270 93 1300 250/03 RMK AO2 T02280217 PNO $
63870K0J4 0J420160806042511608/06/16 04:25:31  5-MIN K0J4 060925Z AUTO 25003KT 6SM BR CLR 23/22 A2997 270 93 1300 250/03 RMK AO2 T02280217 PNO $
63870K0J4 0J420160806043011608/06/16 04:30:31  5-MIN K0J4 060930Z AUTO 00000KT 6SM BR CLR 23/22 A2997 270 93 1300 000/00 RMK AO2 T02280217 PNO $
63870K0J4 0J420160806043511308/06/16 04:35:31  5-MIN K0J4 060935Z AUTO 00000KT 7SM CLR 23/22 A2997 270 93 1300 000/00 RMK AO2 T02280217 PNO $
63870K0J4 0J420160806044011308/06/16 04:40:31  5-MIN K0J4 060940Z AUTO 00000KT 7SM CLR 23/22 A2997 270 93 1300 000/00 RMK AO2 T02280217 PNO $
63870K0J4 0J420160806044511308/06/16 04:45:31  5-MIN K0J4 060945Z AUTO 00000KT 7SM CLR 23/22 A2997 270 93 1300 000/00 RMK AO2 T02280217 PNO $
63870K0J4 0J420160806045011308/06/16 04:50:31  5-MIN K0J4 060950Z AUTO 25003KT 8SM CLR 23/22 A2997 270 93 1300 250/03 RMK AO2 T02280217 PNO $
63870K0J4 0J420160806045512008/06/16 04:55:31  5-MIN K0J4 060955Z AUTO VRB03KT 9SM CLR 23/22 A2997 270 93 1300 VRB/03 RMK AO2 SLP145 T02280217 PNO $
63870K0J4 0J420160806050011308/06/16 05:00:31  5-MIN K0J4 061000Z AUTO 00000KT 9SM CLR 23/22 A2998 260 93 1300 000/00 RMK AO2 T02280217 PNO $
63870K0J4 0J420160806050511308/06/16 05:05:31  5-MIN K0J4 061005Z AUTO 00000KT 9SM CLR 23/22 A2998 260 93 1300 000/00 RMK AO2 T02280217 PNO $
63870K0J4 0J420160806051011408/06/16 05:10:31  5-MIN K0J4 061010Z AUTO 00000KT 10SM CLR 23/22 A2998 270 93 1300 000/00 RMK AO2 T02280217 PNO $
63870K0J4 0J420160806051511308/06/16 05:15:31  5-MIN K0J4 061015Z AUTO 00000KT 9SM CLR 23/22 A2998 260 93 1300 000/00 RMK AO2 T02280217 PNO $
63870K0J4 0J420160806052011308/06/16 05:20:31  5-MIN K0J4 061020Z AUTO 00000KT 8SM CLR 23/22 A2998 260 93 1300 000/00 RMK AO2 T02280217 PNO $
63870K0J4 0J420160806052511308/06/16 05:25:31  5-MIN K0J4 061025Z AUTO 00000KT 7SM CLR 23/22 A2998 260 93 1300 000/00 RMK AO2 T02280217 PNO $
63870K0J4 0J420160806053011308/06/16 05:30:31  5-MIN K0J4 061030Z AUTO 00000KT 7SM CLR 23/22 A2998 260 93 1300 000/00 RMK AO2 T02280217 PNO $
63870K0J4 0J420160806053511308/06/16 05:35:31  5-MIN K0J4 061035Z AUTO 00000KT 7SM CLR 23/22 A2998 260 93 1300 000/00 RMK AO2 T02280217 PNO $
63870K0J4 0J420160806054011308/06/16 05:40:31  5-MIN K0J4 061040Z AUTO 00000KT 8SM CLR 23/22 A2998 260 93 1300 000/00 RMK AO2 T02280217 PNO $
63870K0J4 0J420160806054511308/06/16 05:45:31  5-MIN K0J4 061045Z AUTO 00000KT 9SM CLR 23/22 A2998 260 93 1300 000/00 RMK AO2 T02280217 PNO $
63870K0J4 0J420160806055011408/06/16 05:50:31  5-MIN K0J4 061050Z AUTO 00000KT 10SM CLR 23/22 A2998 260 93 1300 000/00 RMK AO2 T02280217 PNO $
63870K0J4 0J420160806055512108/06/16 05:55:31  5-MIN K0J4 061055Z AUTO 00000KT 10SM CLR 23/22 A2998 260 93 1300 000/00 RMK AO2 SLP149 T02280217 PNO $
63870K0J4 0J420160806060011308/06/16 06:00:31  5-MIN K0J4 061100Z AUTO 00000KT 9SM CLR 23/22 A2999 260 93 1300 000/00 RMK AO2 T02280217 PNO $
63870K0J4 0J420160806060511308/06/16 06:05:31  5-MIN K0J4 061105Z AUTO 00000KT 8SM CLR 23/22 A2999 250 93 1300 000/00 RMK AO2 T02280217 PNO $
63870K0J4 0J420160806061011308/06/16 06:10:31  5-MIN K0J4 061110Z AUTO 00000KT 7SM CLR 23/22 A2999 260 93 1300 000/00 RMK AO2 T02280217 PNO $
63870K0J4 0J420160806061511308/06/16 06:15:31  5-MIN K0J4 061115Z AUTO 00000KT 7SM CLR 23/22 A2998 260 93 1300 000/00 RMK AO2 T02280217 PNO $
63870K0J4 0J420160806062011608/06/16 06:20:31  5-MIN K0J4 061120Z AUTO 00000KT 6SM BR CLR 23/22 A2999 260 93 1300 000/00 RMK AO2 T02280217 PNO $
63870K0J4 0J420160806062511608/06/16 06:25:31  5-MIN K0J4 061125Z AUTO 00000KT 6SM BR CLR 23/22 A2998 260 93 1300 000/00 RMK AO2 T02280217 PNO $
63870K0J4 0J420160806063011308/06/16 06:30:31  5-MIN K0J4 061130Z AUTO 00000KT 7SM CLR 23/22 A2999 260 93 1300 000/00 RMK AO2 T02280217 PNO $
63870K0J4 0J420160806063511608/06/16 06:35:31  5-MIN K0J4 061135Z AUTO 00000KT 6SM BR CLR 23/22 A2999 260 93 1300 000/00 RMK AO2 T02280217 PNO $
63870K0J4 0J420160806064011308/06/16 06:40:31  5-MIN K0J4 061140Z AUTO 00000KT 7SM CLR 23/22 A2999 250 93 1300 000/00 RMK AO2 T02280217 PNO $
63870K0J4 0J420160806064511308/06/16 06:45:31  5-MIN K0J4 061145Z AUTO 00000KT 7SM CLR 23/22 A2999 250 93 1300 000/00 RMK AO2 T02280217 PNO $
63870K0J4 0J420160806065011308/06/16 06:50:31  5-MIN K0J4 061150Z AUTO 00000KT 8SM CLR 23/22 A2999 250 93 1300 000/00 RMK AO2 T02280217 PNO $
63870K0J4 0J420160806065515008/06/16 06:55:31  5-MIN K0J4 061155Z AUTO 00000KT 8SM CLR 23/22 A2999 250 93 1300 000/00 RMK AO2 SLP151 6//// 7//// T02280217 10233 20228 53002 PNO $
63870K0J4 0J420160806070011308/06/16 07:00:31  5-MIN K0J4 061200Z AUTO 00000KT 9SM CLR 23/22 A2999 250 93 1300 000/00 RMK AO2 T02330222 PNO $
63870K0J4 0J420160806070511308/06/16 07:05:31  5-MIN K0J4 061205Z AUTO 00000KT 9SM CLR 23/22 A2999 250 93 1300 000/00 RMK AO2 T02330222 PNO $
63870K0J4 0J420160806071011408/06/16 07:10:31  5-MIN K0J4 061210Z AUTO 00000KT 10SM CLR 23/22 A2999 250 93 1300 000/00 RMK AO2 T02330222 PNO $
63870K0J4 0J420160806071511408/06/16 07:15:31  5-MIN K0J4 061215Z AUTO 00000KT 10SM CLR 23/22 A2999 250 93 1300 000/00 RMK AO2 T02330222 PNO $
63870K0J4 0J420160806072011408/06/16 07:20:31  5-MIN K0J4 061220Z AUTO 00000KT 10SM CLR 23/22 A2999 250 93 1300 000/00 RMK AO2 T02330222 PNO $
63870K0J4 0J420160806072511408/06/16 07:25:31  5-MIN K0J4 061225Z AUTO 00000KT 10SM CLR 24/22 A2999 250 90 1400 000/00 RMK AO2 T02390222 PNO $
63870K0J4 0J420160806073011408/06/16 07:30:31  5-MIN K0J4 061230Z AUTO 00000KT 10SM CLR 24/22 A2999 250 90 1400 000/00 RMK AO2 T02390222 PNO $
63870K0J4 0J420160806073511408/06/16 07:35:31  5-MIN K0J4 061235Z AUTO VRB03KT 10SM CLR 24/22 A2999 250 90 1400 VRB/03 RMK AO2 T02390222 PNO $
63870K0J4 0J420160806074011408/06/16 07:40:31  5-MIN K0J4 061240Z AUTO VRB03KT 10SM CLR 24/22 A2999 250 87 1400 VRB/03 RMK AO2 T02440222 PNO $
63870K0J4 0J420160806074511408/06/16 07:45:31  5-MIN K0J4 061245Z AUTO VRB03KT 10SM CLR 24/23 A2999 260 90 1400 VRB/03 RMK AO2 T02440228 PNO $
63870K0J4 0J420160806075011408/06/16 07:50:31  5-MIN K0J4 061250Z AUTO 00000KT 10SM CLR 25/23 A2998 260 87 1500 000/00 RMK AO2 T02500228 PNO $
63870K0J4 0J420160806075512108/06/16 07:55:31  5-MIN K0J4 061255Z AUTO VRB03KT 10SM CLR 25/23 A2998 260 87 1500 VRB/03 RMK AO2 SLP149 T02500228 PNO $
63870K0J4 0J420160806080011408/06/16 08:00:31  5-MIN K0J4 061300Z AUTO 00000KT 10SM CLR 25/23 A2998 260 87 1500 000/00 RMK AO2 T02500228 PNO $
63870K0J4 0J420160806080511408/06/16 08:05:31  5-MIN K0J4 061305Z AUTO 35003KT 10SM CLR 26/23 A2998 260 87 1600 350/03 RMK AO2 T02560233 PNO $
63870K0J4 0J420160806081011408/06/16 08:10:31  5-MIN K0J4 061310Z AUTO 00000KT 10SM CLR 26/23 A2998 260 84 1600 000/00 RMK AO2 T02610233 PNO $
63870K0J4 0J420160806081511408/06/16 08:15:31  5-MIN K0J4 061315Z AUTO VRB03KT 10SM CLR 26/23 A2998 260 84 1600 VRB/03 RMK AO2 T02610233 PNO $
63870K0J4 0J420160806082011408/06/16 08:20:31  5-MIN K0J4 061320Z AUTO 00000KT 10SM CLR 26/23 A2998 260 84 1600 000/00 RMK AO2 T02610233 PNO $
63870K0J4 0J420160806082511408/06/16 08:25:31  5-MIN K0J4 061325Z AUTO VRB03KT 10SM CLR 26/23 A2998 260 81 1600 VRB/03 RMK AO2 T02610228 PNO $
63870K0J4 0J420160806083011408/06/16 08:30:31  5-MIN K0J4 061330Z AUTO 35005KT 10SM CLR 26/23 A2998 260 81 1600 350/05 RMK AO2 T02610228 PNO $
63870K0J4 0J420160806083511408/06/16 08:35:31  5-MIN K0J4 061335Z AUTO VRB03KT 10SM CLR 26/23 A2998 260 81 1600 VRB/03 RMK AO2 T02610228 PNO $
63870K0J4 0J420160806084011408/06/16 08:40:31  5-MIN K0J4 061340Z AUTO 01005KT 10SM CLR 27/23 A2998 260 79 1700 010/05 RMK AO2 T02670228 PNO $
63870K0J4 0J420160806084511408/06/16 08:45:31  5-MIN K0J4 061345Z AUTO 36003KT 10SM CLR 27/23 A2998 260 82 1700 360/03 RMK AO2 T02670233 PNO $
63870K0J4 0J420160806085011408/06/16 08:50:31  5-MIN K0J4 061350Z AUTO 02004KT 10SM CLR 27/23 A2998 260 76 1800 020/04 RMK AO2 T02720228 PNO $
63870K0J4 0J420160806085512108/06/16 08:55:31  5-MIN K0J4 061355Z AUTO 36003KT 10SM CLR 27/23 A2998 260 76 1800 360/03 RMK AO2 SLP147 T02720228 PNO $
63870K0J4 0J420160806090011408/06/16 09:00:31  5-MIN K0J4 061400Z AUTO VRB05KT 10SM CLR 27/23 A2998 260 76 1800 VRB/05 RMK AO2 T02720228 PNO $
63870K0J4 0J420160806090511408/06/16 09:05:31  5-MIN K0J4 061405Z AUTO 02004KT 10SM CLR 28/23 A2998 260 74 1800 020/04 RMK AO2 T02780228 PNO $
63870K0J4 0J420160806091011408/06/16 09:10:31  5-MIN K0J4 061410Z AUTO 01006KT 10SM CLR 28/23 A2998 260 74 1800 010/06 RMK AO2 T02780228 PNO $
63870K0J4 0J420160806091511408/06/16 09:15:31  5-MIN K0J4 061415Z AUTO 36004KT 10SM CLR 28/23 A2998 260 74 1800 360/04 RMK AO2 T02780228 PNO $
63870K0J4 0J420160806092011408/06/16 09:20:31  5-MIN K0J4 061420Z AUTO 01003KT 10SM CLR 28/23 A2998 260 74 1900 010/03 RMK AO2 T02830233 PNO $
63870K0J4 0J420160806092511408/06/16 09:25:31  5-MIN K0J4 061425Z AUTO VRB04KT 10SM CLR 28/23 A2998 260 74 1900 VRB/04 RMK AO2 T02830233 PNO $
63870K0J4 0J420160806093011408/06/16 09:30:31  5-MIN K0J4 061430Z AUTO 33005KT 10SM CLR 28/23 A2999 260 74 1900 330/05 RMK AO2 T02830233 PNO $
63870K0J4 0J420160806093511408/06/16 09:35:31  5-MIN K0J4 061435Z AUTO 33004KT 10SM CLR 28/23 A2999 250 71 1900 330/04 RMK AO2 T02830228 PNO $
63870K0J4 0J420160806094011408/06/16 09:40:31  5-MIN K0J4 061440Z AUTO 34004KT 10SM CLR 28/23 A2999 250 71 1900 340/04 RMK AO2 T02830228 PNO $
63870K0J4 0J420160806094511408/06/16 09:45:31  5-MIN K0J4 061445Z AUTO VRB03KT 10SM CLR 29/23 A2999 250 71 1900 VRB/03 RMK AO2 T02890233 PNO $
63870K0J4 0J420160806095011408/06/16 09:50:31  5-MIN K0J4 061450Z AUTO 25003KT 10SM CLR 29/23 A2999 250 71 1900 250/03 RMK AO2 T02890233 PNO $
63870K0J4 0J420160806095513308/06/16 09:55:31  5-MIN K0J4 061455Z AUTO 31004KT 10SM CLR 29/23 A2999 250 71 1900 310/04 RMK AO2 SLP151 6//// T02890233 52008 PNO $
63870K0J4 0J420160806100011408/06/16 10:00:31  5-MIN K0J4 061500Z AUTO VRB04KT 10SM CLR 29/23 A2999 250 71 1900 VRB/04 RMK AO2 T02890233 PNO $
63870K0J4 0J420160806100511408/06/16 10:05:31  5-MIN K0J4 061505Z AUTO 00000KT 10SM CLR 29/23 A2999 250 69 1900 000/00 RMK AO2 T02890228 PNO $
63870K0J4 0J420160806101011408/06/16 10:10:31  5-MIN K0J4 061510Z AUTO 34005KT 10SM CLR 29/23 A2999 250 67 2000 340/05 RMK AO2 T02940228 PNO $
63870K0J4 0J420160806101511408/06/16 10:15:31  5-MIN K0J4 061515Z AUTO 01003KT 10SM CLR 30/23 A2999 250 67 2100 010/03 RMK AO2 T03000233 PNO $
63870K0J4 0J420160806102011408/06/16 10:20:31  5-MIN K0J4 061520Z AUTO 03005KT 10SM CLR 30/23 A2999 250 65 2100 030/05 RMK AO2 T03000228 PNO $
63870K0J4 0J420160806102511408/06/16 10:25:31  5-MIN K0J4 061525Z AUTO VRB04KT 10SM CLR 30/23 A2999 260 65 2100 VRB/04 RMK AO2 T03000228 PNO $
63870K0J4 0J420160806103011408/06/16 10:30:31  5-MIN K0J4 061530Z AUTO 02006KT 10SM CLR 30/23 A2998 260 67 2100 020/06 RMK AO2 T03000233 PNO $
63870K0J4 0J420160806103511408/06/16 10:35:31  5-MIN K0J4 061535Z AUTO VRB03KT 10SM CLR 30/23 A2998 260 65 2100 VRB/03 RMK AO2 T03000228 PNO $
63870K0J4 0J420160806104011408/06/16 10:40:31  5-MIN K0J4 061540Z AUTO 00000KT 10SM CLR 30/23 A2998 260 65 2100 000/00 RMK AO2 T03000228 PNO $
63870K0J4 0J420160806104511408/06/16 10:45:31  5-MIN K0J4 061545Z AUTO 06003KT 10SM CLR 31/23 A2998 260 65 2100 060/03 RMK AO2 T03060233 PNO $
63870K0J4 0J420160806105011408/06/16 10:50:31  5-MIN K0J4 061550Z AUTO VRB04KT 10SM CLR 31/24 A2998 260 65 2200 VRB/04 RMK AO2 T03110239 PNO $
63870K0J4 0J420160806105512108/06/16 10:55:31  5-MIN K0J4 061555Z AUTO 02003KT 10SM CLR 31/23 A2998 260 63 2200 020/03 RMK AO2 SLP148 T03110233 PNO $
63870K0J4 0J420160806110011408/06/16 11:00:31  5-MIN K0J4 061600Z AUTO VRB03KT 10SM CLR 31/23 A2998 260 63 2200 VRB/03 RMK AO2 T03110233 PNO $
63870K0J4 0J420160806110511408/06/16 11:05:31  5-MIN K0J4 061605Z AUTO 03005KT 10SM CLR 31/23 A2998 260 63 2200 030/05 RMK AO2 T03110233 PNO $
63870K0J4 0J420160806111011408/06/16 11:10:31  5-MIN K0J4 061610Z AUTO 00000KT 10SM CLR 31/24 A2998 260 65 2200 000/00 RMK AO2 T03110239 PNO $
63870K0J4 0J420160806111511408/06/16 11:15:31  5-MIN K0J4 061615Z AUTO 02005KT 10SM CLR 31/23 A2998 260 63 2200 020/05 RMK AO2 T03110233 PNO $
63870K0J4 0J420160806112011408/06/16 11:20:31  5-MIN K0J4 061620Z AUTO 01005KT 10SM CLR 31/23 A2998 260 63 2200 010/05 RMK AO2 T03110233 PNO $
63870K0J4 0J420160806112511408/06/16 11:25:31  5-MIN K0J4 061625Z AUTO 00000KT 10SM CLR 31/23 A2998 260 63 2200 000/00 RMK AO2 T03110233 PNO $
63870K0J4 0J420160806113011408/06/16 11:30:31  5-MIN K0J4 061630Z AUTO 00000KT 10SM CLR 31/23 A2998 260 63 2200 000/00 RMK AO2 T03110233 PNO $
63870K0J4 0J420160806113511408/06/16 11:35:31  5-MIN K0J4 061635Z AUTO VRB03KT 10SM CLR 32/23 A2998 260 61 2300 VRB/03 RMK AO2 T03170233 PNO $
63870K0J4 0J420160806114011408/06/16 11:40:31  5-MIN K0J4 061640Z AUTO 34005KT 10SM CLR 32/23 A2998 260 61 2300 340/05 RMK AO2 T03170233 PNO $
63870K0J4 0J420160806114511408/06/16 11:45:31  5-MIN K0J4 061645Z AUTO 33003KT 10SM CLR 32/23 A2998 260 61 2300 330/03 RMK AO2 T03170233 PNO $
63870K0J4 0J420160806115011408/06/16 11:50:31  5-MIN K0J4 061650Z AUTO VRB04KT 10SM CLR 32/23 A2998 270 61 2300 VRB/04 RMK AO2 T03170233 PNO $
63870K0J4 0J420160806115512108/06/16 11:55:31  5-MIN K0J4 061655Z AUTO 01004KT 10SM CLR 32/23 A2997 270 61 2300 010/04 RMK AO2 SLP145 T03170233 PNO $
63870K0J4 0J420160806120011408/06/16 12:00:31  5-MIN K0J4 061700Z AUTO VRB03KT 10SM CLR 32/24 A2997 270 61 2300 VRB/03 RMK AO2 T03220239 PNO $
63870K0J4 0J420160806120511408/06/16 12:05:31  5-MIN K0J4 061705Z AUTO 01005KT 10SM CLR 32/24 A2997 270 61 2300 010/05 RMK AO2 T03220239 PNO $
63870K0J4 0J420160806121011408/06/16 12:10:31  5-MIN K0J4 061710Z AUTO VRB03KT 10SM CLR 32/23 A2997 270 59 2300 VRB/03 RMK AO2 T03220233 PNO $
63870K0J4 0J420160806121511408/06/16 12:15:31  5-MIN K0J4 061715Z AUTO VRB03KT 10SM CLR 32/23 A2997 270 58 2300 VRB/03 RMK AO2 T03170228 PNO $
63870K0J4 0J420160806122011708/06/16 12:20:31  5-MIN K0J4 061720Z AUTO VRB04KT 10SM FEW034 32/23 A2997 270 61 2300 VRB/04 RMK AO2 T03170233 PNO $
63870K0J4 0J420160806122511708/06/16 12:25:31  5-MIN K0J4 061725Z AUTO VRB03KT 10SM FEW034 32/23 A2996 280 59 2300 VRB/03 RMK AO2 T03220233 PNO $
63870K0J4 0J420160806123011708/06/16 12:30:31  5-MIN K0J4 061730Z AUTO VRB03KT 10SM FEW032 32/23 A2996 280 59 2300 VRB/03 RMK AO2 T03220233 PNO $
63870K0J4 0J420160806123511708/06/16 12:35:31  5-MIN K0J4 061735Z AUTO 36005KT 10SM FEW032 33/23 A2996 280 57 2400 360/05 RMK AO2 T03280233 PNO $
63870K0J4 0J420160806124011708/06/16 12:40:31  5-MIN K0J4 061740Z AUTO 03004KT 10SM FEW033 33/23 A2996 280 57 2400 030/04 RMK AO2 T03280233 PNO $
63870K0J4 0J420160806124511708/06/16 12:45:31  5-MIN K0J4 061745Z AUTO VRB05KT 10SM FEW033 33/23 A2996 280 57 2400 VRB/05 RMK AO2 T03280233 PNO $
63870K0J4 0J420160806125011408/06/16 12:50:31  5-MIN K0J4 061750Z AUTO 03005KT 10SM CLR 33/23 A2996 280 57 2400 030/05 RMK AO2 T03280233 PNO $
63870K0J4 0J420160806125514508/06/16 12:55:31  5-MIN K0J4 061755Z AUTO 02005KT 10SM CLR 33/24 A2996 280 57 2500 020/05 RMK AO2 SLP139 6//// T03330239 10333 20233 55001 PNO $
63870K0J4 0J420160806130011408/06/16 13:00:31  5-MIN K0J4 061800Z AUTO 00000KT 10SM CLR 33/23 A2995 290 57 2400 000/00 RMK AO2 T03280233 PNO $
63870K0J4 0J420160806130511708/06/16 13:05:31  5-MIN K0J4 061805Z AUTO 00000KT 10SM FEW034 33/23 A2995 290 57 2400 000/00 RMK AO2 T03280233 PNO $
63870K0J4 0J420160806131011708/06/16 13:10:31  5-MIN K0J4 061810Z AUTO 00000KT 10SM SCT037 32/23 A2995 290 59 2400 000/00 RMK AO2 T03220233 PNO $
63870K0J4 0J420160806131511708/06/16 13:15:31  5-MIN K0J4 061815Z AUTO 00000KT 10SM SCT039 33/23 A2995 290 55 2500 000/00 RMK AO2 T03330233 PNO $
63870K0J4 0J420160806132011708/06/16 13:20:31  5-MIN K0J4 061820Z AUTO 00000KT 10SM BKN039 33/23 A2995 290 57 2400 000/00 RMK AO2 T03280233 PNO $
63870K0J4 0J420160806132511708/06/16 13:25:31  5-MIN K0J4 061825Z AUTO VRB03KT 10SM BKN037 33/24 A2995 290 57 2500 VRB/03 RMK AO2 T03330239 PNO $
63870K0J4 0J420160806133011708/06/16 13:30:31  5-MIN K0J4 061830Z AUTO 00000KT 10SM BKN037 33/23 A2995 290 55 2400 000/00 RMK AO2 T03280228 PNO $
63870K0J4 0J420160806133511708/06/16 13:35:31  5-MIN K0J4 061835Z AUTO 35004KT 10SM SCT037 34/23 A2995 290 53 2500 350/04 RMK AO2 T03390233 PNO $
63870K0J4 0J420160806134011708/06/16 13:40:31  5-MIN K0J4 061840Z AUTO 00000KT 10SM SCT037 34/23 A2995 290 53 2500 000/00 RMK AO2 T03390233 PNO $
63870K0J4 0J420160806134511708/06/16 13:45:31  5-MIN K0J4 061845Z AUTO 00000KT 10SM SCT039 33/23 A2994 290 55 2500 000/00 RMK AO2 T03330233 PNO $
63870K0J4 0J420160806135011708/06/16 13:50:31  5-MIN K0J4 061850Z AUTO 01005KT 10SM SCT039 32/23 A2994 290 59 2400 010/05 RMK AO2 T03220233 PNO $
63870K0J4 0J420160806135512408/06/16 13:55:31  5-MIN K0J4 061855Z AUTO 01003KT 10SM FEW038 33/23 A2994 300 55 2500 010/03 RMK AO2 SLP135 T03330233 PNO $
63870K0J4 0J420160806140011708/06/16 14:00:31  5-MIN K0J4 061900Z AUTO 00000KT 10SM SCT041 33/23 A2994 300 55 2400 000/00 RMK AO2 T03280228 PNO $
63870K0J4 0J420160806140511708/06/16 14:05:31  5-MIN K0J4 061905Z AUTO 03003KT 10SM SCT043 33/23 A2994 300 55 2400 030/03 RMK AO2 T03280228 PNO $
63870K0J4 0J420160806141012408/06/16 14:10:31  5-MIN K0J4 061910Z AUTO 00000KT 10SM SCT043 SCT060 33/23 A2994 300 55 2400 000/00 RMK AO2 T03280228 PNO $
63870K0J4 0J420160806141512408/06/16 14:15:31  5-MIN K0J4 061915Z AUTO VRB04KT 10SM SCT045 BKN060 33/23 A2994 300 55 2500 VRB/04 RMK AO2 T03330233 PNO $
63870K0J4 0J420160806142012408/06/16 14:20:31  5-MIN K0J4 061920Z AUTO 06005KT 10SM SCT045 BKN060 33/23 A2994 300 57 2400 060/05 RMK AO2 T03280233 PNO $
63870K0J4 0J420160806142512408/06/16 14:25:31  5-MIN K0J4 061925Z AUTO 00000KT 10SM BKN045 BKN055 32/24 A2993 300 61 2400 000/00 RMK AO2 T03220239 PNO $
63870K0J4 0J420160806143012408/06/16 14:30:31  5-MIN K0J4 061930Z AUTO 00000KT 10SM SCT045 BKN055 32/23 A2994 300 59 2400 000/00 RMK AO2 T03220233 PNO $
63870K0J4 0J420160806143512408/06/16 14:35:31  5-MIN K0J4 061935Z AUTO 00000KT 10SM FEW043 SCT055 33/24 A2993 300 57 2500 000/00 RMK AO2 T03330239 PNO $
63870K0J4 0J420160806144012408/06/16 14:40:31  5-MIN K0J4 061940Z AUTO 00000KT 10SM SCT043 SCT055 33/23 A2993 310 53 2500 000/00 RMK AO2 T03330228 PNO $
63870K0J4 0J420160806144511708/06/16 14:45:31  5-MIN K0J4 061945Z AUTO 00000KT 10SM FEW043 34/23 A2993 310 53 2600 000/00 RMK AO2 T03390233 PNO $
63870K0J4 0J420160806145012408/06/16 14:50:31  5-MIN K0J4 061950Z AUTO 00000KT 10SM FEW041 FEW050 34/23 A2992 310 52 2600 000/00 RMK AO2 T03440233 PNO $
63870K0J4 0J420160806145512408/06/16 14:55:31  5-MIN K0J4 061955Z AUTO VRB03KT 10SM FEW046 34/23 A2992 320 51 2600 VRB/03 RMK AO2 SLP126 T03390228 PNO $
63870K0J4 0J420160806150011708/06/16 15:00:31  5-MIN K0J4 062000Z AUTO 00000KT 10SM SCT046 34/23 A2992 320 51 2600 000/00 RMK AO2 T03390228 PNO $
63870K0J4 0J420160806150511708/06/16 15:05:31  5-MIN K0J4 062005Z AUTO 23003KT 10SM SCT046 34/23 A2991 320 51 2600 230/03 RMK AO2 T03390228 PNO $
63870K0J4 0J420160806151011708/06/16 15:10:31  5-MIN K0J4 062010Z AUTO VRB03KT 10SM SCT046 34/23 A2991 330 51 2600 VRB/03 RMK AO2 T03390228 PNO $
63870K0J4 0J420160806151511708/06/16 15:15:31  5-MIN K0J4 062015Z AUTO VRB04KT 10SM SCT046 34/23 A2991 330 51 2600 VRB/04 RMK AO2 T03390228 PNO $
63870K0J4 0J420160806152011708/06/16 15:20:31  5-MIN K0J4 062020Z AUTO 00000KT 10SM FEW046 34/23 A2991 330 53 2600 000/00 RMK AO2 T03390233 PNO $
63870K0J4 0J420160806152511708/06/16 15:25:31  5-MIN K0J4 062025Z AUTO VRB03KT 10SM FEW046 34/23 A2990 330 51 2600 VRB/03 RMK AO2 T03390228 PNO $
63870K0J4 0J420160806153011708/06/16 15:30:31  5-MIN K0J4 062030Z AUTO 00000KT 10SM FEW046 34/23 A2990 340 52 2700 000/00 RMK AO2 T03440233 PNO $
63870K0J4 0J420160806153511408/06/16 15:35:31  5-MIN K0J4 062035Z AUTO 00000KT 10SM CLR 34/23 A2989 340 52 2700 000/00 RMK AO2 T03440233 PNO $
63870K0J4 0J420160806154011408/06/16 15:40:31  5-MIN K0J4 062040Z AUTO VRB04KT 10SM CLR 34/23 A2989 340 53 2600 VRB/04 RMK AO2 T03390233 PNO $
63870K0J4 0J420160806154511408/06/16 15:45:31  5-MIN K0J4 062045Z AUTO VRB04KT 10SM CLR 34/23 A2989 340 51 2600 VRB/04 RMK AO2 T03390228 PNO $
63870K0J4 0J420160806155011408/06/16 15:50:31  5-MIN K0J4 062050Z AUTO 24004KT 10SM CLR 34/23 A2990 340 51 2600 240/04 RMK AO2 T03390228 PNO $
63870K0J4 0J420160806155513308/06/16 15:55:31  5-MIN K0J4 062055Z AUTO 00000KT 10SM CLR 33/23 A2989 340 53 2500 000/00 RMK AO2 SLP117 6//// T03330228 58012 PNO $
63870K0J4 0J420160806160011708/06/16 16:00:31  5-MIN K0J4 062100Z AUTO 00000KT 10SM FEW100 33/23 A2989 340 53 2500 000/00 RMK AO2 T03330228 PNO $
63870K0J4 0J420160806160513308/06/16 16:05:31  5-MIN K0J4 062105Z AUTO 00000KT 10SM TS FEW060 FEW100 34/24 A2989 340 55 2600 000/00 RMK AO2 TSB02 T03390239 PNO $
63870K0J4 0J420160806161013308/06/16 16:10:31  5-MIN K0J4 062110Z AUTO 00000KT 10SM TS FEW060 FEW100 34/23 A2989 350 53 2600 000/00 RMK AO2 TSB02 T03390233 PNO $
63870K0J4 0J420160806161513608/06/16 16:15:31  5-MIN K0J4 062115Z AUTO 00000KT 10SM TS FEW060 FEW100 33/23 A2989 350 53 2600 000/00 RMK AO2 TSB02B15 T03330228 PNO $
63870K0J4 0J420160806162014308/06/16 16:20:31  5-MIN K0J4 062120Z AUTO 18003KT 10SM TS FEW049 FEW065 SCT100 33/23 A2989 340 53 2500 180/03 RMK AO2 TSB02B15 T03330228 PNO $
63870K0J4 0J420160806162516208/06/16 16:25:31  5-MIN K0J4 062125Z AUTO 06008KT 020V090 10SM TS SCT049 SCT065 BKN100 32/23 A2990 330 59 2400 060/08 020V090 RMK AO2 TSB02B15B22 T03220233 PNO $
63870K0J4 0J420160806163015208/06/16 16:30:31  5-MIN K0J4 062130Z AUTO 07017G25KT 10SM TS BKN045 BKN050 BKN065 30/22 A2990 330 62 2200 070/17G25 RMK AO2 TSB02B15B22 T03000222 PNO $
63870K0J4 0J420160806163513808/06/16 16:35:31  5-MIN K0J4 062135Z AUTO 06015G25KT 10SM TS BKN045 28/22 A2991 330 66 2000 060/15G25 RMK AO2 TSB02B15B22 T02830217 PNO $
63870K0J4 0J420160806164015808/06/16 16:40:31  5-MIN K0J4 062140Z AUTO 06011G19KT 10SM TS BKN045 28/22 A2991 330 69 1900 060/11G19 RMK AO2 WSHFT 2126 TSB02B15B22E37B38B40 T02780217 PNO $
63870K0J4 0J420160806164519608/06/16 16:45:31  5-MIN K0J4 062145Z AUTO 30007G17KT 270V010 2SM +TSRA FEW030 OVC045 27/22 A2992 310 71 1800 300/07G17 270V010 RMK AO2 WSHFT 2126 RAB43 TSB02B15B22E37B38B40 PRESRR T02720217 PNO $
63870K0J4 0J420160806165017208/06/16 16:50:31  5-MIN K0J4 062150Z AUTO VRB05KT 3/4SM +TSRA BR SCT025 OVC045 25/23 A2992 320 90 1600 VRB/05 RMK AO2 WSHFT 2126 RAB43 TSB02B15B22E37B38B40 T02500233 PNO $
63870K0J4 0J420160806165517308/06/16 16:55:31  5-MIN K0J4 062155Z AUTO 25010G17KT 1SM -TSRA BR FEW022 BKN043 OVC090 24/23 A2991 320 90 1500 250/10G17 RMK AO2 WSHFT 2126 RAB43 TSB02B15B22E37B38B40 PNO $
63870K0J4 0J420160806170014208/06/16 17:00:31  5-MIN K0J4 062200Z AUTO 23014G21KT 7SM -TSRA FEW034 BKN043 BKN050 26/20 A2991 320 71 1700 230/14G21 RMK AO2 T02560200 PNO $
63870K0J4 0J420160806170514308/06/16 17:05:31  5-MIN K0J4 062205Z AUTO 27004G21KT 10SM -TSRA FEW034 SCT045 BKN085 26/19 A2991 330 66 1700 270/04G21 RMK AO2 T02610194 PNO $
63870K0J4 0J420160806171013308/06/16 17:10:31  5-MIN K0J4 062210Z AUTO 00000KT 10SM TS FEW030 SCT043 26/21 A2990 330 73 1700 000/00 RMK AO2 RAE10 T02560206 PNO $
63870K0J4 0J420160806171513308/06/16 17:15:31  5-MIN K0J4 062215Z AUTO 00000KT 10SM TS FEW031 FEW043 26/21 A2991 330 76 1700 000/00 RMK AO2 RAE10 T02560211 PNO $
63870K0J4 0J420160806172012308/06/16 17:20:31  5-MIN K0J4 062220Z AUTO 00000KT 10SM TS CLR 26/22 A2990 330 79 1700 000/00 RMK AO2 RAE10 T02560217 PNO $
63870K0J4 0J420160807023511408/07/16 02:35:31  5-MIN K0J4 070735Z AUTO 00000KT 10SM CLR 23/22 A2989 340 93 1400 000/00 RMK AO2 T02280217 PNO $
63870K0J4 0J420160807024011408/07/16 02:40:31  5-MIN K0J4 070740Z AUTO 00000KT 10SM CLR 23/22 A2989 340 93 1400 000/00 RMK AO2 T02280217 PNO $
63870K0J4 0J420160807024511408/07/16 02:45:31  5-MIN K0J4 070745Z AUTO 00000KT 10SM CLR 23/22 A2990 340 93 1400 000/00 RMK AO2 T02280217 PNO $
63870K0J4 0J420160807025011408/07/16 02:50:31  5-MIN K0J4 070750Z AUTO 00000KT 10SM CLR 23/22 A2990 340 93 1400 000/00 RMK AO2 T02280217 PNO $
63870K0J4 0J420160807025512008/07/16 02:55:31  5-MIN K0J4 070755Z AUTO 00000KT 9SM CLR 23/22 A2990 340 93 1400 000/00 RMK AO2 SLP120 T02280217 PNO $
63870K0J4 0J420160807030011308/07/16 03:00:31  5-MIN K0J4 070800Z AUTO 00000KT 9SM CLR 23/22 A2990 340 93 1400 000/00 RMK AO2 T02280217 PNO $
63870K0J4 0J420160807030511408/07/16 03:05:31  5-MIN K0J4 070805Z AUTO 00000KT 10SM CLR 23/22 A2989 340 93 1400 000/00 RMK AO2 T02280217 PNO $
63870K0J4 0J420160807031011408/07/16 03:10:31  5-MIN K0J4 070810Z AUTO 00000KT 10SM CLR 23/22 A2989 340 93 1400 000/00 RMK AO2 T02280217 PNO $
63870K0J4 0J420160807031511408/07/16 03:15:31  5-MIN K0J4 070815Z AUTO 00000KT 10SM CLR 23/22 A2990 340 93 1400 000/00 RMK AO2 T02280217 PNO $
63870K0J4 0J420160807032011408/07/16 03:20:31  5-MIN K0J4 070820Z AUTO 00000KT 10SM CLR 23/22 A2990 340 93 1400 000/00 RMK AO2 T02280217 PNO $
63870K0J4 0J420160807032511408/07/16 03:25:31  5-MIN K0J4 070825Z AUTO 00000KT 10SM CLR 23/22 A2990 340 93 1400 000/00 RMK AO2 T02280217 PNO $
63870K0J4 0J420160807033011408/07/16 03:30:31  5-MIN K0J4 070830Z AUTO 00000KT 10SM CLR 23/22 A2990 340 93 1400 000/00 RMK AO2 T02280217 PNO $
63870K0J4 0J420160807033511408/07/16 03:35:31  5-MIN K0J4 070835Z AUTO 00000KT 10SM CLR 23/22 A2990 340 93 1400 000/00 RMK AO2 T02280217 PNO $
63870K0J4 0J420160807034011408/07/16 03:40:31  5-MIN K0J4 070840Z AUTO 00000KT 10SM CLR 23/22 A2990 340 93 1400 000/00 RMK AO2 T02280217 PNO $
63870K0J4 0J420160807034511408/07/16 03:45:31  5-MIN K0J4 070845Z AUTO 00000KT 10SM CLR 23/22 A2990 330 93 1400 000/00 RMK AO2 T02280217 PNO $
63870K0J4 0J420160807035011308/07/16 03:50:31  5-MIN K0J4 070850Z AUTO 00000KT 9SM CLR 23/22 A2990 330 93 1400 000/00 RMK AO2 T02280217 PNO $
63870K0J4 0J420160807035513208/07/16 03:55:31  5-MIN K0J4 070855Z AUTO 00000KT 9SM CLR 23/22 A2990 340 93 1400 000/00 RMK AO2 SLP120 6//// T02280217 58007 PNO $
63870K0J4 0J420160807040011308/07/16 04:00:31  5-MIN K0J4 070900Z AUTO 00000KT 9SM CLR 23/22 A2990 330 93 1400 000/00 RMK AO2 T02280217 PNO $
63870K0J4 0J420160807040511308/07/16 04:05:31  5-MIN K0J4 070905Z AUTO 00000KT 9SM CLR 23/22 A2990 340 93 1400 000/00 RMK AO2 T02280217 PNO $
63870K0J4 0J420160807041011308/07/16 04:10:31  5-MIN K0J4 070910Z AUTO 00000KT 9SM CLR 23/22 A2990 330 93 1400 000/00 RMK AO2 T02280217 PNO $
63870K0J4 0J420160807041511308/07/16 04:15:31  5-MIN K0J4 070915Z AUTO 00000KT 9SM CLR 22/21 A2990 330 93 1300 000/00 RMK AO2 T02220211 PNO $
63870K0J4 0J420160807042011308/07/16 04:20:31  5-MIN K0J4 070920Z AUTO 00000KT 9SM CLR 22/21 A2991 330 93 1300 000/00 RMK AO2 T02220211 PNO $
63870K0J4 0J420160807042511308/07/16 04:25:31  5-MIN K0J4 070925Z AUTO 00000KT 9SM CLR 22/21 A2991 320 93 1300 000/00 RMK AO2 T02220211 PNO $
63870K0J4 0J420160807043011308/07/16 04:30:31  5-MIN K0J4 070930Z AUTO 00000KT 9SM CLR 22/21 A2991 320 93 1300 000/00 RMK AO2 T02220211 PNO $
63870K0J4 0J420160807043511408/07/16 04:35:31  5-MIN K0J4 070935Z AUTO 00000KT 10SM CLR 23/21 A2991 320 90 1300 000/00 RMK AO2 T02280211 PNO $
63870K0J4 0J420160807044011408/07/16 04:40:31  5-MIN K0J4 070940Z AUTO 00000KT 10SM CLR 22/21 A2992 320 93 1300 000/00 RMK AO2 T02220211 PNO $
63870K0J4 0J420160807045508508/07/16 04:55:31  5-MIN K0J4 070955Z AUTO 00000KT A2992 M M M 000/00 RMK AO2 SLPNO $
63870K0J4 0J420160807050010108/07/16 05:00:31  5-MIN K0J4 071000Z AUTO 36003KT 23/21 A2992 310 90 1300 360/03 RMK AO2 T02280211 $
63870K0J4 0J420160807050510608/07/16 05:05:31  5-MIN K0J4 071005Z AUTO 36003KT 10SM 23/22 A2992 310 93 1300 360/03 RMK AO2 T02280217 $
63870K0J4 0J420160807051010608/07/16 05:10:31  5-MIN K0J4 071010Z AUTO VRB03KT 10SM 23/22 A2992 310 93 1300 VRB/03 RMK AO2 T02280217 $
63870K0J4 0J420160807051510608/07/16 05:15:31  5-MIN K0J4 071015Z AUTO 00000KT 10SM 23/22 A2993 310 93 1300 000/00 RMK AO2 T02280217 $
63870K0J4 0J420160807052010608/07/16 05:20:31  5-MIN K0J4 071020Z AUTO 00000KT 10SM 23/22 A2993 310 93 1300 000/00 RMK AO2 T02280217 $
63870K0J4 0J420160807052510908/07/16 05:25:31  5-MIN K0J4 071025Z AUTO 00000KT 9SM CLR 23/22 A2993 310 93 1300 000/00 RMK AO2 T02280217 $
63870K0J4 0J420160807053010908/07/16 05:30:31  5-MIN K0J4 071030Z AUTO 00000KT 9SM CLR 23/22 A2993 300 93 1300 000/00 RMK AO2 T02280217 $
63870K0J4 0J420160807053511008/07/16 05:35:31  5-MIN K0J4 071035Z AUTO 00000KT 10SM CLR 23/22 A2993 300 93 1300 000/00 RMK AO2 T02280217 $
63870K0J4 0J420160807054011008/07/16 05:40:31  5-MIN K0J4 071040Z AUTO 00000KT 10SM CLR 23/22 A2994 300 93 1300 000/00 RMK AO2 T02280217 $
63870K0J4 0J420160807054510908/07/16 05:45:31  5-MIN K0J4 071045Z AUTO 00000KT 9SM CLR 23/22 A2994 300 93 1300 000/00 RMK AO2 T02280217 $
63870K0J4 0J420160807055010908/07/16 05:50:31  5-MIN K0J4 071050Z AUTO 00000KT 9SM CLR 23/22 A2994 300 93 1300 000/00 RMK AO2 T02280217 $
63870K0J4 0J420160807055511708/07/16 05:55:31  5-MIN K0J4 071055Z AUTO 00000KT 10SM CLR 23/22 A2994 300 93 1300 000/00 RMK AO2 SLP133 T02280217 $
63870K0J4 0J420160807060010908/07/16 06:00:31  5-MIN K0J4 071100Z AUTO 00000KT 9SM CLR 23/22 A2994 300 93 1300 000/00 RMK AO2 T02280217 $
63870K0J4 0J420160807060510908/07/16 06:05:31  5-MIN K0J4 071105Z AUTO 00000KT 9SM CLR 23/22 A2995 290 93 1300 000/00 RMK AO2 T02280217 $
63870K0J4 0J420160807061011008/07/16 06:10:31  5-MIN K0J4 071110Z AUTO VRB03KT 10SM CLR 23/22 A2995 290 93 1300 VRB/03 RMK AO2 T02280217 $
63870K0J4 0J420160807061511008/07/16 06:15:31  5-MIN K0J4 071115Z AUTO VRB03KT 10SM CLR 23/22 A2995 290 90 1400 VRB/03 RMK AO2 T02330217 $
63870K0J4 0J420160807062011008/07/16 06:20:31  5-MIN K0J4 071120Z AUTO VRB03KT 10SM CLR 23/22 A2995 290 90 1400 VRB/03 RMK AO2 T02330217 $
63870K0J4 0J420160807062511008/07/16 06:25:31  5-MIN K0J4 071125Z AUTO 00000KT 10SM CLR 23/22 A2995 290 90 1400 000/00 RMK AO2 T02330217 $
63870K0J4 0J420160807063010908/07/16 06:30:31  5-MIN K0J4 071130Z AUTO 00000KT 9SM CLR 23/22 A2995 290 90 1400 000/00 RMK AO2 T02330217 $
63870K0J4 0J420160807063510908/07/16 06:35:31  5-MIN K0J4 071135Z AUTO VRB03KT 9SM CLR 23/22 A2995 290 93 1400 VRB/03 RMK AO2 T02330222 $
63870K0J4 0J420160807064010908/07/16 06:40:31  5-MIN K0J4 071140Z AUTO 00000KT 9SM CLR 23/22 A2995 290 93 1400 000/00 RMK AO2 T02330222 $
63870K0J4 0J420160807064511008/07/16 06:45:31  5-MIN K0J4 071145Z AUTO 00000KT 10SM CLR 23/22 A2995 290 93 1400 000/00 RMK AO2 T02330222 $
63870K0J4 0J420160807065011308/07/16 06:50:31  5-MIN K0J4 071150Z AUTO 32004KT 10SM FEW095 24/22 A2995 290 90 1400 320/04 RMK AO2 T02390222 $
63870K0J4 0J420160807065514408/07/16 06:55:31  5-MIN K0J4 071155Z AUTO 00000KT 10SM FEW095 24/22 A2995 290 90 1400 000/00 RMK AO2 SLP137 6//// 7//// T02390222 10239 20222 $
63870K0J4 0J420160807070011008/07/16 07:00:31  5-MIN K0J4 071200Z AUTO VRB03KT 10SM CLR 24/22 A2995 290 90 1400 VRB/03 RMK AO2 T02390222 $
63870K0J4 0J420160807070511308/07/16 07:05:31  5-MIN K0J4 071205Z AUTO VRB03KT 10SM FEW090 24/22 A2995 290 90 1400 VRB/03 RMK AO2 T02390222 $
63870K0J4 0J420160807071011308/07/16 07:10:31  5-MIN K0J4 071210Z AUTO 34003KT 10SM FEW090 24/22 A2995 290 87 1500 340/03 RMK AO2 T02440222 $
63870K0J4 0J420160807071511308/07/16 07:15:31  5-MIN K0J4 071215Z AUTO VRB03KT 10SM FEW090 24/22 A2995 290 87 1500 VRB/03 RMK AO2 T02440222 $
63870K0J4 0J420160807072011308/07/16 07:20:31  5-MIN K0J4 071220Z AUTO 34005KT 10SM FEW090 24/22 A2994 300 87 1500 340/05 RMK AO2 T02440222 $
63870K0J4 0J420160807072511308/07/16 07:25:31  5-MIN K0J4 071225Z AUTO VRB04KT 10SM FEW090 24/22 A2994 300 87 1500 VRB/04 RMK AO2 T02440222 $
63870K0J4 0J420160807073011308/07/16 07:30:31  5-MIN K0J4 071230Z AUTO VRB04KT 10SM FEW090 24/22 A2994 300 87 1500 VRB/04 RMK AO2 T02440222 $
63870K0J4 0J420160807073511008/07/16 07:35:31  5-MIN K0J4 071235Z AUTO VRB04KT 10SM CLR 24/22 A2994 290 87 1500 VRB/04 RMK AO2 T02440222 $
63870K0J4 0J420160807074011008/07/16 07:40:31  5-MIN K0J4 071240Z AUTO 35004KT 10SM CLR 25/22 A2994 300 84 1600 350/04 RMK AO2 T02500222 $
63870K0J4 0J420160807074511008/07/16 07:45:31  5-MIN K0J4 071245Z AUTO 36005KT 10SM CLR 25/22 A2994 300 84 1600 360/05 RMK AO2 T02500222 $
63870K0J4 0J420160807075011008/07/16 07:50:31  5-MIN K0J4 071250Z AUTO VRB03KT 10SM CLR 25/22 A2994 300 84 1600 VRB/03 RMK AO2 T02500222 $
63870K0J4 0J420160807075511708/07/16 07:55:31  5-MIN K0J4 071255Z AUTO 35003KT 10SM CLR 25/22 A2994 300 84 1600 350/03 RMK AO2 SLP134 T02500222 $
63870K0J4 0J420160807080011008/07/16 08:00:31  5-MIN K0J4 071300Z AUTO 36003KT 10SM CLR 25/22 A2994 300 84 1600 360/03 RMK AO2 T02500222 $
63870K0J4 0J420160807080511008/07/16 08:05:31  5-MIN K0J4 071305Z AUTO 36005KT 10SM CLR 26/22 A2994 300 81 1600 360/05 RMK AO2 T02560222 $
63870K0J4 0J420160807081011008/07/16 08:10:31  5-MIN K0J4 071310Z AUTO 01005KT 10SM CLR 26/23 A2994 300 81 1700 010/05 RMK AO2 T02610228 $
63870K0J4 0J420160807081511008/07/16 08:15:31  5-MIN K0J4 071315Z AUTO 36005KT 10SM CLR 26/23 A2994 300 81 1700 360/05 RMK AO2 T02610228 $
63870K0J4 0J420160807082011008/07/16 08:20:31  5-MIN K0J4 071320Z AUTO VRB05KT 10SM CLR 26/23 A2994 300 81 1700 VRB/05 RMK AO2 T02610228 $
63870K0J4 0J420160807082511008/07/16 08:25:31  5-MIN K0J4 071325Z AUTO VRB05KT 10SM CLR 26/23 A2994 300 81 1700 VRB/05 RMK AO2 T02610228 $
63870K0J4 0J420160807083011008/07/16 08:30:31  5-MIN K0J4 071330Z AUTO 36003KT 10SM CLR 27/23 A2994 300 79 1800 360/03 RMK AO2 T02670228 $
63870K0J4 0J420160807083511008/07/16 08:35:31  5-MIN K0J4 071335Z AUTO 01004KT 10SM CLR 27/23 A2994 300 76 1800 010/04 RMK AO2 T02720228 $
63870K0J4 0J420160807084011008/07/16 08:40:31  5-MIN K0J4 071340Z AUTO VRB03KT 10SM CLR 27/23 A2994 300 76 1800 VRB/03 RMK AO2 T02720228 $
63870K0J4 0J420160807084511008/07/16 08:45:31  5-MIN K0J4 071345Z AUTO 02005KT 10SM CLR 27/23 A2994 300 79 1800 020/05 RMK AO2 T02720233 $
63870K0J4 0J420160807085011008/07/16 08:50:31  5-MIN K0J4 071350Z AUTO 35004KT 10SM CLR 27/23 A2994 300 76 1800 350/04 RMK AO2 T02720228 $
63870K0J4 0J420160807085511708/07/16 08:55:31  5-MIN K0J4 071355Z AUTO VRB03KT 10SM CLR 28/23 A2994 300 76 1900 VRB/03 RMK AO2 SLP132 T02780233 $
63870K0J4 0J420160807090011008/07/16 09:00:31  5-MIN K0J4 071400Z AUTO VRB03KT 10SM CLR 28/23 A2994 300 76 1900 VRB/03 RMK AO2 T02780233 $
63870K0J4 0J420160807090511008/07/16 09:05:31  5-MIN K0J4 071405Z AUTO 33004KT 10SM CLR 28/23 A2994 300 76 1900 330/04 RMK AO2 T02780233 $
63870K0J4 0J420160807091011008/07/16 09:10:31  5-MIN K0J4 071410Z AUTO 31004KT 10SM CLR 28/23 A2994 300 74 1900 310/04 RMK AO2 T02830233 $
63870K0J4 0J420160807091511008/07/16 09:15:31  5-MIN K0J4 071415Z AUTO VRB03KT 10SM CLR 28/23 A2994 300 74 1900 VRB/03 RMK AO2 T02830233 $
63870K0J4 0J420160807092506308/07/16 09:25:31  5-MIN K0J4 071425Z AUTO M M M M /M RMK AO2 $
63870K0J4 0J420160807093506308/07/16 09:35:31  5-MIN K0J4 071435Z AUTO M M M M /M RMK AO2 $
63870K0J4 0J420160807094007908/07/16 09:40:31  5-MIN K0J4 071440Z AUTO 35006KT A2994 M M M 350/06 RMK AO2 $
63870K0J4 0J420160807094510608/07/16 09:45:31  5-MIN K0J4 071445Z AUTO 00000KT 10SM 29/23 A2994 300 71 2000 000/00 RMK AO2 T02890233 $
63870K0J4 0J420160807100007308/07/16 10:00:31  5-MIN K0J4 071500Z AUTO VRB03KT M M M VRB/03 RMK AO2 $
63870K0J4 0J420160807100510108/07/16 10:05:31  5-MIN K0J4 071505Z AUTO VRB04KT 30/24 A2994 290 69 2100 VRB/04 RMK AO2 T03000239 $
63870K0J4 0J420160807101010608/07/16 10:10:31  5-MIN K0J4 071510Z AUTO VRB04KT 10SM 30/23 A2994 300 67 2100 VRB/04 RMK AO2 T03000233 $
63870K0J4 0J420160807101510608/07/16 10:15:31  5-MIN K0J4 071515Z AUTO 31006KT 10SM 30/23 A2994 300 67 2100 310/06 RMK AO2 T03000233 $
63870K0J4 0J420160807102010608/07/16 10:20:31  5-MIN K0J4 071520Z AUTO VRB03KT 10SM 30/23 A2994 300 67 2100 VRB/03 RMK AO2 T03000233 $
63870K0J4 0J420160807103510108/07/16 10:35:31  5-MIN K0J4 071535Z AUTO 35004KT 31/23 A2994 300 62 2200 350/04 RMK AO2 T03060228 $
63870K0J4 0J420160807104010608/07/16 10:40:31  5-MIN K0J4 071540Z AUTO 01006KT 10SM 31/23 A2994 300 63 2200 010/06 RMK AO2 T03110233 $
63870K0J4 0J420160807104510608/07/16 10:45:31  5-MIN K0J4 071545Z AUTO 02007KT 10SM 31/23 A2994 300 63 2200 020/07 RMK AO2 T03110233 $
63870K0J4 0J420160807105010608/07/16 10:50:31  5-MIN K0J4 071550Z AUTO VRB05KT 10SM 31/23 A2994 300 63 2200 VRB/05 RMK AO2 T03110233 $
63870K0J4 0J420160807105511308/07/16 10:55:31  5-MIN K0J4 071555Z AUTO 02006KT 10SM 31/23 A2994 300 63 2300 020/06 RMK AO2 SLP133 T03110233 $
63870K0J4 0J420160807110011008/07/16 11:00:31  5-MIN K0J4 071600Z AUTO VRB06KT 10SM CLR 31/23 A2994 300 63 2300 VRB/06 RMK AO2 T03110233 $
63870K0J4 0J420160807110511008/07/16 11:05:31  5-MIN K0J4 071605Z AUTO VRB06KT 10SM CLR 32/24 A2994 300 63 2300 VRB/06 RMK AO2 T03170239 $
63870K0J4 0J420160807111011008/07/16 11:10:31  5-MIN K0J4 071610Z AUTO 30005KT 10SM CLR 32/24 A2994 300 63 2300 300/05 RMK AO2 T03170239 $
63870K0J4 0J420160807111511008/07/16 11:15:31  5-MIN K0J4 071615Z AUTO VRB04KT 10SM CLR 32/23 A2993 300 61 2300 VRB/04 RMK AO2 T03170233 $
63870K0J4 0J420160807112011008/07/16 11:20:31  5-MIN K0J4 071620Z AUTO VRB04KT 10SM CLR 32/24 A2993 300 63 2300 VRB/04 RMK AO2 T03170239 $
63870K0J4 0J420160807113506308/07/16 11:35:31  5-MIN K0J4 071635Z AUTO M M M M /M RMK AO2 $
63870K0J4 0J420160807114007908/07/16 11:40:31  5-MIN K0J4 071640Z AUTO 01006KT A2993 M M M 010/06 RMK AO2 $
63870K0J4 0J420160807114510108/07/16 11:45:31  5-MIN K0J4 071645Z AUTO 34006KT 32/23 A2993 310 61 2300 340/06 RMK AO2 T03170233 $
63870K0J4 0J420160807115010608/07/16 11:50:31  5-MIN K0J4 071650Z AUTO 02005KT 10SM 32/23 A2993 310 59 2400 020/05 RMK AO2 T03220233 $
63870K0J4 0J420160807115511308/07/16 11:55:31  5-MIN K0J4 071655Z AUTO VRB04KT 10SM 32/23 A2993 310 59 2400 VRB/04 RMK AO2 SLP130 T03220233 $
63870K0J4 0J420160807120010608/07/16 12:00:31  5-MIN K0J4 071700Z AUTO VRB03KT 10SM 32/23 A2993 310 59 2400 VRB/03 RMK AO2 T03220233 $
63870K0J4 0J420160807120510608/07/16 12:05:31  5-MIN K0J4 071705Z AUTO VRB05KT 10SM 32/23 A2992 310 59 2400 VRB/05 RMK AO2 T03220233 $
63870K0J4 0J420160807121011008/07/16 12:10:31  5-MIN K0J4 071710Z AUTO VRB05KT 10SM CLR 33/24 A2992 310 59 2500 VRB/05 RMK AO2 T03280239 $
63870K0J4 0J420160807121511008/07/16 12:15:31  5-MIN K0J4 071715Z AUTO VRB05KT 10SM CLR 32/23 A2992 320 59 2400 VRB/05 RMK AO2 T03220233 $
63870K0J4 0J420160807122011008/07/16 12:20:31  5-MIN K0J4 071720Z AUTO 00000KT 10SM CLR 33/23 A2992 320 57 2500 000/00 RMK AO2 T03280233 $
63870K0J4 0J420160807122511008/07/16 12:25:31  5-MIN K0J4 071725Z AUTO VRB04KT 10SM CLR 33/23 A2992 320 57 2500 VRB/04 RMK AO2 T03280233 $
63870K0J4 0J420160807123011008/07/16 12:30:31  5-MIN K0J4 071730Z AUTO 00000KT 10SM CLR 33/23 A2992 320 57 2500 000/00 RMK AO2 T03280233 $
63870K0J4 0J420160807123510308/07/16 12:35:31  5-MIN K0J4 071735Z AUTO 10SM FEW035 33/23 A2992 320 57 2500 M /M RMK AO2 T03280233 $
63870K0J4 0J420160807124011308/07/16 12:40:31  5-MIN K0J4 071740Z AUTO VRB05KT 10SM SCT035 32/23 A2991 320 59 2400 VRB/05 RMK AO2 T03220233 $
63870K0J4 0J420160807124511308/07/16 12:45:31  5-MIN K0J4 071745Z AUTO 00000KT 10SM SCT035 33/24 A2991 320 57 2500 000/00 RMK AO2 T03330239 $
63870K0J4 0J420160807125011308/07/16 12:50:31  5-MIN K0J4 071750Z AUTO VRB03KT 10SM BKN035 32/23 A2991 320 57 2400 VRB/03 RMK AO2 T03220228 $
63870K0J4 0J420160807125513208/07/16 12:55:31  5-MIN K0J4 071755Z AUTO VRB03KT 10SM BKN035 32/23 A2991 330 61 2300 VRB/03 RMK AO2 SLP124 T03170233 10333 20228 $
63870K0J4 0J420160807130011308/07/16 13:00:31  5-MIN K0J4 071800Z AUTO 00000KT 10SM BKN035 32/23 A2991 330 59 2400 000/00 RMK AO2 T03220233 $
63870K0J4 0J420160807130511308/07/16 13:05:31  5-MIN K0J4 071805Z AUTO VRB05KT 10SM BKN035 32/23 A2991 330 59 2400 VRB/05 RMK AO2 T03220233 $
63870K0J4 0J420160807131012008/07/16 13:10:31  5-MIN K0J4 071810Z AUTO 33004KT 10SM BKN035 BKN050 33/24 A2991 330 57 2500 330/04 RMK AO2 T03330239 $
63870K0J4 0J420160807131511308/07/16 13:15:31  5-MIN K0J4 071815Z AUTO 30003KT 10SM BKN035 33/24 A2990 330 57 2500 300/03 RMK AO2 T03330239 $
63870K0J4 0J420160807132011308/07/16 13:20:31  5-MIN K0J4 071820Z AUTO VRB04KT 10SM SCT035 33/23 A2990 330 55 2500 VRB/04 RMK AO2 T03330233 $
63870K0J4 0J420160807132511308/07/16 13:25:31  5-MIN K0J4 071825Z AUTO 32004KT 10SM FEW036 33/24 A2990 330 59 2500 320/04 RMK AO2 T03280239 $
63870K0J4 0J420160807133011308/07/16 13:30:31  5-MIN K0J4 071830Z AUTO VRB04KT 10SM FEW036 33/24 A2990 330 57 2500 VRB/04 RMK AO2 T03330239 $
63870K0J4 0J420160807133512008/07/16 13:35:31  5-MIN K0J4 071835Z AUTO 00000KT 10SM FEW036 FEW049 33/23 A2990 340 55 2500 000/00 RMK AO2 T03330233 $
63870K0J4 0J420160807134011008/07/16 13:40:31  5-MIN K0J4 071840Z AUTO 10SM FEW039 SCT049 33/23 A2990 340 53 2500 M /M RMK AO2 T03330228 $
63870K0J4 0J420160807134512008/07/16 13:45:31  5-MIN K0J4 071845Z AUTO VRB03KT 10SM SCT039 BKN047 33/23 A2990 340 57 2500 VRB/03 RMK AO2 T03280233 $
63870K0J4 0J420160807135012008/07/16 13:50:31  5-MIN K0J4 071850Z AUTO 00000KT 10SM SCT039 SCT047 33/23 A2989 340 55 2500 000/00 RMK AO2 T03330233 $
63870K0J4 0J420160807135511708/07/16 13:55:31  5-MIN K0J4 071855Z AUTO 10SM FEW039 SCT048 33/23 A2989 340 55 2500 M /M RMK AO2 SLP117 T03330233 $
63870K0J4 0J420160807140012708/07/16 14:00:31  5-MIN K0J4 071900Z AUTO VRB03KT 10SM FEW039 SCT050 BKN060 33/23 A2989 340 57 2500 VRB/03 RMK AO2 T03280233 $
63870K0J4 0J420160807140512708/07/16 14:05:31  5-MIN K0J4 071905Z AUTO VRB03KT 10SM FEW039 SCT048 SCT060 33/23 A2989 350 57 2500 VRB/03 RMK AO2 T03280233 $
63870K0J4 0J420160807141012008/07/16 14:10:31  5-MIN K0J4 071910Z AUTO 00000KT 10SM FEW039 FEW049 34/23 A2988 350 51 2600 000/00 RMK AO2 T03390228 $
63870K0J4 0J420160807141511308/07/16 14:15:31  5-MIN K0J4 071915Z AUTO 00000KT 10SM FEW049 34/23 A2988 350 51 2600 000/00 RMK AO2 T03390228 $
63870K0J4 0J420160807142011308/07/16 14:20:31  5-MIN K0J4 071920Z AUTO VRB05KT 10SM FEW049 34/23 A2988 360 53 2600 VRB/05 RMK AO2 T03390233 $
63870K0J4 0J420160807142511308/07/16 14:25:31  5-MIN K0J4 071925Z AUTO VRB03KT 10SM FEW060 34/23 A2988 360 50 2700 VRB/03 RMK AO2 T03440228 $
63870K0J4 0J420160807143011308/07/16 14:30:31  5-MIN K0J4 071930Z AUTO VRB04KT 10SM FEW060 34/23 A2987 360 52 2700 VRB/04 RMK AO2 T03440233 $
63870K0J4 0J420160807143511308/07/16 14:35:31  5-MIN K0J4 071935Z AUTO 25004KT 10SM FEW060 34/23 A2987 360 53 2600 250/04 RMK AO2 T03390233 $
63870K0J4 0J420160807144011308/07/16 14:40:31  5-MIN K0J4 071940Z AUTO 23004KT 10SM FEW060 33/23 A2987 360 53 2600 230/04 RMK AO2 T03330228 $
63870K0J4 0J420160807144511308/07/16 14:45:31  5-MIN K0J4 071945Z AUTO VRB04KT 10SM FEW060 33/23 A2987 370 53 2600 VRB/04 RMK AO2 T03330228 $
63870K0J4 0J420160807145012008/07/16 14:50:31  5-MIN K0J4 071950Z AUTO VRB03KT 10SM SCT044 SCT060 34/23 A2987 370 53 2600 VRB/03 RMK AO2 T03390233 $
63870K0J4 0J420160807145512008/07/16 14:55:31  5-MIN K0J4 071955Z AUTO VRB04KT 10SM SCT044 34/23 A2986 370 51 2600 VRB/04 RMK AO2 SLP108 T03390228 $
63870K0J4 0J420160807150011308/07/16 15:00:31  5-MIN K0J4 072000Z AUTO VRB04KT 10SM SCT044 33/23 A2986 370 53 2600 VRB/04 RMK AO2 T03330228 $
63870K0J4 0J420160807150511308/07/16 15:05:31  5-MIN K0J4 072005Z AUTO 00000KT 10SM FEW044 33/23 A2986 370 55 2600 000/00 RMK AO2 T03330233 $
63870K0J4 0J420160807151011308/07/16 15:10:31  5-MIN K0J4 072010Z AUTO 29003KT 10SM FEW044 33/23 A2986 370 55 2600 290/03 RMK AO2 T03330233 $
63870K0J4 0J420160807151511308/07/16 15:15:31  5-MIN K0J4 072015Z AUTO 00000KT 10SM SCT044 33/23 A2985 380 55 2500 000/00 RMK AO2 T03280228 $
63870K0J4 0J420160807152011308/07/16 15:20:31  5-MIN K0J4 072020Z AUTO VRB03KT 10SM FEW044 33/23 A2985 380 57 2500 VRB/03 RMK AO2 T03280233 $
63870K0J4 0J420160807211512208/07/16 21:15:31  5-MIN K0J4 080215Z AUTO 11005KT 10SM TS OVC041 28/24 A2988 350 79 2000 110/05 RMK AO2 TSB01 T02830244 $
63870K0J4 0J420160807212012208/07/16 21:20:31  5-MIN K0J4 080220Z AUTO 09006KT 10SM TS OVC039 28/24 A2988 350 79 1900 090/06 RMK AO2 TSB01 T02780239 $
63870K0J4 0J420160807212513708/07/16 21:25:31  5-MIN K0J4 080225Z AUTO 11006KT 10SM -TSRA OVC039 28/24 A2989 350 79 1900 110/06 RMK AO2 RAB21 TSB01 P0000 T02780239 $
63870K0J4 0J420160807213013708/07/16 21:30:31  5-MIN K0J4 080230Z AUTO 10005KT 10SM -TSRA OVC037 27/24 A2989 350 82 1900 100/05 RMK AO2 RAB21 TSB01 P0000 T02720239 $
63870K0J4 0J420160807213514408/07/16 21:35:31  5-MIN K0J4 080235Z AUTO 08006KT 10SM -TSRA FEW028 OVC037 27/24 A2989 340 87 1800 080/06 RMK AO2 RAB21 TSB01 P0000 T02670244 $
63870K0J4 0J420160807214014508/07/16 21:40:31  5-MIN K0J4 080240Z AUTO 06011KT 5SM TSRA BR SCT028 OVC036 26/24 A2990 340 90 1700 060/11 RMK AO2 RAB21 TSB01 P0000 T02610244 $
63870K0J4 0J420160807214515708/07/16 21:45:31  5-MIN K0J4 080245Z AUTO 03012KT 1 1/2SM +TSRA BR FEW015 BKN028 OVC036 26/24 A2990 340 93 1700 030/12 RMK AO2 RAB21 TSB01 P0000 T02560244 $
63870K0J4 0J420160807215015108/07/16 21:50:31  5-MIN K0J4 080250Z AUTO 03016KT 1SM +TSRA BR FEW008 BKN027 OVC036 26/24 A2991 330 93 1700 030/16 RMK AO2 RAB21 TSB01 T02560244 PNO $
63870K0J4 0J420160807215515808/07/16 21:55:31  5-MIN K0J4 080255Z AUTO 36012G20KT 1SM +TSRA BR BKN014 BKN027 OVC035 26/24 A2991 320 93 1700 360/12G20 RMK AO2 WSHFT 0238 RAB21 TSB01 PNO $
63870K0J4 0J420160808020007208/08/16 02:00:31  5-MIN K0J4 080700Z AUTO TS M M M M /M RMK AO2 TSB00 $
63870K0J4 0J420160808020511608/08/16 02:05:31  5-MIN K0J4 080705Z AUTO VRB03KT 24/23 A2985 380 93 1500 VRB/03 RMK AO2 TSB00E01 T02390228 PWINO $
63870K0J4 0J420160808021011508/08/16 02:10:31  5-MIN K0J4 080710Z AUTO 00000KT 10SM 24/23 A2985 380 93 1500 000/00 RMK AO2 TSB00E01 T02390228 $
63870K0J4 0J420160808021511508/08/16 02:15:31  5-MIN K0J4 080715Z AUTO 27003KT 10SM 23/23 A2984 390 97 1500 270/03 RMK AO2 TSB00E01 T02330228 $
63870K0J4 0J420160808022011508/08/16 02:20:31  5-MIN K0J4 080720Z AUTO VRB03KT 10SM 24/23 A2984 390 93 1600 VRB/03 RMK AO2 TSB00E01 T02390228 $
63870K0J4 0J420160808022511508/08/16 02:25:31  5-MIN K0J4 080725Z AUTO 28003KT 10SM 24/23 A2984 390 93 1600 280/03 RMK AO2 TSB00E01 T02390228 $
63870K0J4 0J420160808023011908/08/16 02:30:31  5-MIN K0J4 080730Z AUTO 00000KT 10SM CLR 23/23 A2984 390 97 1500 000/00 RMK AO2 TSB00E01 T02330228 $
63870K0J4 0J420160808023511908/08/16 02:35:31  5-MIN K0J4 080735Z AUTO 00000KT 10SM CLR 24/23 A2984 390 93 1600 000/00 RMK AO2 TSB00E01 T02390228 $
63870K0J4 0J420160808024011908/08/16 02:40:31  5-MIN K0J4 080740Z AUTO 00000KT 10SM CLR 24/23 A2984 390 93 1500 000/00 RMK AO2 TSB00E01 T02390228 $
63870K0J4 0J420160808024511908/08/16 02:45:31  5-MIN K0J4 080745Z AUTO 00000KT 10SM CLR 24/23 A2984 390 93 1500 000/00 RMK AO2 TSB00E01 T02390228 $
63870K0J4 0J420160808025011908/08/16 02:50:31  5-MIN K0J4 080750Z AUTO 00000KT 10SM CLR 24/23 A2984 390 93 1500 000/00 RMK AO2 TSB00E01 T02390228 $
63870K0J4 0J420160808025512608/08/16 02:55:31  5-MIN K0J4 080755Z AUTO 00000KT 10SM CLR 24/23 A2984 390 93 1500 000/00 RMK AO2 TSB00E01 SLP101 T02390228 $
63870K0J4 0J420160808030011008/08/16 03:00:31  5-MIN K0J4 080800Z AUTO 02003KT 10SM CLR 24/23 A2984 390 93 1500 020/03 RMK AO2 T02390228 $
63870K0J4 0J420160808030511008/08/16 03:05:31  5-MIN K0J4 080805Z AUTO 00000KT 10SM CLR 24/23 A2984 390 93 1500 000/00 RMK AO2 T02390228 $
63870K0J4 0J420160808031011008/08/16 03:10:31  5-MIN K0J4 080810Z AUTO 00000KT 10SM CLR 24/23 A2984 390 93 1500 000/00 RMK AO2 T02390228 $
63870K0J4 0J420160808031510908/08/16 03:15:31  5-MIN K0J4 080815Z AUTO 00000KT 9SM CLR 24/23 A2985 380 93 1500 000/00 RMK AO2 T02390228 $
63870K0J4 0J420160808032010908/08/16 03:20:31  5-MIN K0J4 080820Z AUTO 00000KT 9SM CLR 24/23 A2985 380 93 1500 000/00 RMK AO2 T02390228 $
63870K0J4 0J420160808032511208/08/16 03:25:31  5-MIN K0J4 080825Z AUTO 00000KT 9SM FEW100 24/23 A2985 380 93 1500 000/00 RMK AO2 T02390228 $
63870K0J4 0J420160808033011208/08/16 03:30:31  5-MIN K0J4 080830Z AUTO 00000KT 9SM FEW100 23/23 A2985 380 97 1500 000/00 RMK AO2 T02330228 $
63870K0J4 0J420160808033512708/08/16 03:35:31  5-MIN K0J4 080835Z AUTO 00000KT 9SM FEW100 24/23 A2985 380 93 1500 000/00 RMK AO2 RAB33E35 P0000 T02390228 $
63870K0J4 0J420160808034012808/08/16 03:40:31  5-MIN K0J4 080840Z AUTO 15003KT 10SM SCT100 23/23 A2985 380 97 1500 150/03 RMK AO2 RAB33E35 P0000 T02330228 $
63870K0J4 0J420160808034512708/08/16 03:45:31  5-MIN K0J4 080845Z AUTO 00000KT 9SM BKN100 23/23 A2986 380 97 1500 000/00 RMK AO2 RAB33E35 P0000 T02330228 $
63870K0J4 0J420160808035012708/08/16 03:50:31  5-MIN K0J4 080850Z AUTO 00000KT 9SM BKN100 23/23 A2986 380 97 1500 000/00 RMK AO2 RAB33E35 P0000 T02330228 $
63870K0J4 0J420160808035514108/08/16 03:55:31  5-MIN K0J4 080855Z AUTO 00000KT 10SM BKN100 23/23 A2985 380 97 1500 000/00 RMK AO2 RAB33E35 SLP105 P0000 6//// T02330228 $
63870K0J4 0J420160808040011208/08/16 04:00:31  5-MIN K0J4 080900Z AUTO 00000KT 9SM BKN100 24/23 A2985 380 93 1500 000/00 RMK AO2 T02390228 $
63870K0J4 0J420160808041009208/08/16 04:10:31  5-MIN K0J4 080910Z AUTO 00000KT A2985 M M M 000/00 RMK AO2 PWINO FZRANO $
63870K0J4 0J420160808041510108/08/16 04:15:31  5-MIN K0J4 080915Z AUTO 00000KT 23/23 A2985 380 97 1500 000/00 RMK AO2 T02330228 $
63870K0J4 0J420160808042010508/08/16 04:20:31  5-MIN K0J4 080920Z AUTO 00000KT 8SM 23/23 A2985 380 97 1500 000/00 RMK AO2 T02330228 $
63870K0J4 0J420160808042510508/08/16 04:25:31  5-MIN K0J4 080925Z AUTO 00000KT 8SM 23/23 A2985 380 97 1500 000/00 RMK AO2 T02330228 $
63870K0J4 0J420160808043010508/08/16 04:30:31  5-MIN K0J4 080930Z AUTO 00000KT 9SM 23/23 A2985 380 97 1500 000/00 RMK AO2 T02330228 $
63870K0J4 0J420160808043510508/08/16 04:35:31  5-MIN K0J4 080935Z AUTO 00000KT 9SM 23/23 A2985 380 97 1500 000/00 RMK AO2 T02330228 $
63870K0J4 0J420160808044011208/08/16 04:40:31  5-MIN K0J4 080940Z AUTO 17004KT 8SM SCT100 23/22 A2986 380 93 1500 170/04 RMK AO2 T02330222 $
63870K0J4 0J420160808044511208/08/16 04:45:31  5-MIN K0J4 080945Z AUTO 17004KT 9SM BKN100 23/23 A2986 370 97 1500 170/04 RMK AO2 T02330228 $
63870K0J4 0J420160808045011208/08/16 04:50:31  5-MIN K0J4 080950Z AUTO 18003KT 9SM BKN100 23/23 A2986 370 97 1500 180/03 RMK AO2 T02330228 $
63870K0J4 0J420160808045512008/08/16 04:55:31  5-MIN K0J4 080955Z AUTO 00000KT 10SM BKN100 23/23 A2986 370 97 1500 000/00 RMK AO2 SLP107 T02330228 $
63870K0J4 0J420160808050011308/08/16 05:00:31  5-MIN K0J4 081000Z AUTO 00000KT 10SM BKN100 23/23 A2986 370 97 1500 000/00 RMK AO2 T02330228 $
63870K0J4 0J420160808050511308/08/16 05:05:31  5-MIN K0J4 081005Z AUTO 00000KT 10SM BKN100 24/23 A2986 370 93 1500 000/00 RMK AO2 T02390228 $
63870K0J4 0J420160808051011308/08/16 05:10:31  5-MIN K0J4 081010Z AUTO 18003KT 10SM BKN100 24/23 A2987 360 93 1500 180/03 RMK AO2 T02390228 $
63870K0J4 0J420160808051512608/08/16 05:15:31  5-MIN K0J4 081015Z AUTO 18003KT 9SM FEW060 SCT070 BKN100 23/23 A2987 360 97 1500 180/03 RMK AO2 T02330228 $
63870K0J4 0J420160808052012608/08/16 05:20:31  5-MIN K0J4 081020Z AUTO 00000KT 9SM SCT060 BKN070 BKN100 23/23 A2988 360 97 1400 000/00 RMK AO2 T02330228 $
63870K0J4 0J420160808052512608/08/16 05:25:31  5-MIN K0J4 081025Z AUTO 19003KT 9SM FEW004 SCT060 BKN070 24/23 A2988 360 93 1500 190/03 RMK AO2 T02390228 $
63870K0J4 0J420160808053012608/08/16 05:30:31  5-MIN K0J4 081030Z AUTO 20006KT 9SM SCT004 BKN060 BKN070 24/23 A2988 360 97 1500 200/06 RMK AO2 T02390233 $
63870K0J4 0J420160808053512608/08/16 05:35:31  5-MIN K0J4 081035Z AUTO 20007KT 9SM BKN004 BKN060 BKN070 24/23 A2987 360 93 1600 200/07 RMK AO2 T02440233 $
63870K0J4 0J420160808055007308/08/16 05:50:31  5-MIN K0J4 081050Z AUTO 19006KT M M M 190/06 RMK AO2 $
63870K0J4 0J420160808055510808/08/16 05:55:31  5-MIN K0J4 081055Z AUTO 19004KT 24/24 A2988 350 97 1600 190/04 RMK AO2 SLP113 T02440239 $
63870K0J4 0J420160808060010508/08/16 06:00:31  5-MIN K0J4 081100Z AUTO 18005KT 8SM 24/24 A2988 350 97 1600 180/05 RMK AO2 T02440239 $
63870K0J4 0J420160808060510508/08/16 06:05:31  5-MIN K0J4 081105Z AUTO 18005KT 8SM 24/24 A2988 350 97 1600 180/05 RMK AO2 T02440239 $
63870K0J4 0J420160808061010508/08/16 06:10:31  5-MIN K0J4 081110Z AUTO 19005KT 8SM 24/24 A2989 350 97 1600 190/05 RMK AO2 T02440239 $
63870K0J4 0J420160808061510508/08/16 06:15:31  5-MIN K0J4 081115Z AUTO 20004KT 8SM 24/24 A2988 350 97 1600 200/04 RMK AO2 T02440239 $
63870K0J4 0J420160808062011208/08/16 06:20:31  5-MIN K0J4 081120Z AUTO 20005KT 8SM OVC005 24/24 A2988 350 97 1600 200/05 RMK AO2 T02440239 $
63870K0J4 0J420160808062511908/08/16 06:25:31  5-MIN K0J4 081125Z AUTO 21007KT 8SM BKN005 OVC060 25/24 A2988 350 93 1600 210/07 RMK AO2 T02500239 $
63870K0J4 0J420160808063011908/08/16 06:30:31  5-MIN K0J4 081130Z AUTO 21005KT 9SM BKN005 BKN060 25/24 A2988 350 93 1600 210/05 RMK AO2 T02500239 $
63870K0J4 0J420160808063511908/08/16 06:35:31  5-MIN K0J4 081135Z AUTO 21005KT 9SM BKN005 BKN060 25/24 A2988 350 93 1600 210/05 RMK AO2 T02500239 $
63870K0J4 0J420160808064011908/08/16 06:40:31  5-MIN K0J4 081140Z AUTO 21006KT 9SM SCT005 SCT060 25/24 A2988 350 93 1600 210/06 RMK AO2 T02500239 $
63870K0J4 0J420160808064511908/08/16 06:45:31  5-MIN K0J4 081145Z AUTO 22005KT 9SM FEW005 SCT060 25/24 A2988 350 93 1600 220/05 RMK AO2 T02500239 $
63870K0J4 0J420160808065012008/08/16 06:50:31  5-MIN K0J4 081150Z AUTO 22005KT 10SM FEW005 FEW060 25/24 A2988 350 93 1600 220/05 RMK AO2 T02500239 $
63870K0J4 0J420160808065514108/08/16 06:55:31  5-MIN K0J4 081155Z AUTO 22005KT 10SM CLR 25/24 A2988 350 93 1600 220/05 RMK AO2 SLP114 6//// 7//// T02500239 10283 20233 $
63870K0J4 0J420160808070011008/08/16 07:00:31  5-MIN K0J4 081200Z AUTO 22003KT 10SM CLR 25/24 A2988 350 93 1600 220/03 RMK AO2 T02500239 $
63870K0J4 0J420160808070511008/08/16 07:05:31  5-MIN K0J4 081205Z AUTO 22006KT 10SM CLR 25/23 A2988 350 90 1600 220/06 RMK AO2 T02500233 $
63870K0J4 0J420160808071011008/08/16 07:10:31  5-MIN K0J4 081210Z AUTO 21006KT 10SM CLR 25/24 A2988 360 93 1600 210/06 RMK AO2 T02500239 $
63870K0J4 0J420160808071511008/08/16 07:15:31  5-MIN K0J4 081215Z AUTO 20006KT 10SM CLR 25/24 A2987 360 93 1600 200/06 RMK AO2 T02500239 $
63870K0J4 0J420160808072011008/08/16 07:20:31  5-MIN K0J4 081220Z AUTO 19005KT 10SM CLR 25/24 A2987 360 93 1600 190/05 RMK AO2 T02500239 $
63870K0J4 0J420160808072511008/08/16 07:25:31  5-MIN K0J4 081225Z AUTO 21005KT 10SM CLR 25/24 A2987 360 93 1600 210/05 RMK AO2 T02500239 $
63870K0J4 0J420160808073011008/08/16 07:30:31  5-MIN K0J4 081230Z AUTO 21004KT 10SM CLR 25/24 A2987 360 93 1600 210/04 RMK AO2 T02500239 $
63870K0J4 0J420160808073511008/08/16 07:35:31  5-MIN K0J4 081235Z AUTO 22004KT 10SM CLR 26/24 A2988 360 90 1700 220/04 RMK AO2 T02560239 $
63870K0J4 0J420160808074011008/08/16 07:40:31  5-MIN K0J4 081240Z AUTO 23003KT 10SM CLR 26/24 A2988 350 90 1700 230/03 RMK AO2 T02560239 $
63870K0J4 0J420160808074511008/08/16 07:45:31  5-MIN K0J4 081245Z AUTO 22004KT 10SM CLR 26/24 A2988 350 90 1700 220/04 RMK AO2 T02560239 $
63870K0J4 0J420160808075011008/08/16 07:50:31  5-MIN K0J4 081250Z AUTO 21004KT 10SM CLR 26/24 A2988 350 90 1700 210/04 RMK AO2 T02560239 $
63870K0J4 0J420160808075511708/08/16 07:55:31  5-MIN K0J4 081255Z AUTO 22004KT 10SM CLR 26/24 A2988 350 90 1700 220/04 RMK AO2 SLP112 T02560239 $
63870K0J4 0J420160808080011008/08/16 08:00:31  5-MIN K0J4 081300Z AUTO 00000KT 10SM CLR 26/24 A2988 350 87 1800 000/00 RMK AO2 T02610239 $
63870K0J4 0J420160808080511308/08/16 08:05:31  5-MIN K0J4 081305Z AUTO VRB03KT 10SM FEW041 26/23 A2988 350 87 1700 VRB/03 RMK AO2 T02560233 $
63870K0J4 0J420160808081011308/08/16 08:10:31  5-MIN K0J4 081310Z AUTO 23005KT 10SM FEW041 26/24 A2988 350 87 1800 230/05 RMK AO2 T02610239 $
63870K0J4 0J420160808081511008/08/16 08:15:31  5-MIN K0J4 081315Z AUTO 20005KT 10SM CLR 26/23 A2988 350 84 1800 200/05 RMK AO2 T02610233 $
63870K0J4 0J420160808082011008/08/16 08:20:31  5-MIN K0J4 081320Z AUTO 21005KT 10SM CLR 26/23 A2988 350 84 1800 210/05 RMK AO2 T02610233 $
63870K0J4 0J420160808082511008/08/16 08:25:31  5-MIN K0J4 081325Z AUTO 22004KT 10SM CLR 26/23 A2988 350 84 1800 220/04 RMK AO2 T02610233 $
63870K0J4 0J420160808083011008/08/16 08:30:31  5-MIN K0J4 081330Z AUTO 22004KT 10SM CLR 26/24 A2988 350 87 1800 220/04 RMK AO2 T02610239 $
63870K0J4 0J420160808083511008/08/16 08:35:31  5-MIN K0J4 081335Z AUTO 24003KT 10SM CLR 27/24 A2988 350 84 1800 240/03 RMK AO2 T02670239 $
63870K0J4 0J420160808084011008/08/16 08:40:31  5-MIN K0J4 081340Z AUTO 22003KT 10SM CLR 26/23 A2988 350 84 1800 220/03 RMK AO2 T02610233 $
63870K0J4 0J420160808084511008/08/16 08:45:31  5-MIN K0J4 081345Z AUTO VRB03KT 10SM CLR 27/23 A2989 350 82 1800 VRB/03 RMK AO2 T02670233 $
63870K0J4 0J420160808085011008/08/16 08:50:31  5-MIN K0J4 081350Z AUTO 00000KT 10SM CLR 27/24 A2989 340 84 1800 000/00 RMK AO2 T02670239 $
63870K0J4 0J420160808085511708/08/16 08:55:31  5-MIN K0J4 081355Z AUTO 20003KT 10SM CLR 27/24 A2989 340 84 1800 200/03 RMK AO2 SLP116 T02670239 $
63870K0J4 0J420160808090011008/08/16 09:00:31  5-MIN K0J4 081400Z AUTO 00000KT 10SM CLR 27/24 A2989 340 84 1800 000/00 RMK AO2 T02670239 $
63870K0J4 0J420160808090511008/08/16 09:05:31  5-MIN K0J4 081405Z AUTO 00000KT 10SM CLR 27/24 A2989 340 84 1800 000/00 RMK AO2 T02670239 $
63870K0J4 0J420160808091011008/08/16 09:10:31  5-MIN K0J4 081410Z AUTO 00000KT 10SM CLR 27/24 A2989 340 82 1900 000/00 RMK AO2 T02720239 $
63870K0J4 0J420160808091511008/08/16 09:15:31  5-MIN K0J4 081415Z AUTO 35003KT 10SM CLR 27/24 A2989 340 82 1900 350/03 RMK AO2 T02720239 $
63870K0J4 0J420160808092011008/08/16 09:20:31  5-MIN K0J4 081420Z AUTO 34003KT 10SM CLR 27/24 A2990 340 82 1900 340/03 RMK AO2 T02720239 $
63870K0J4 0J420160808092511008/08/16 09:25:31  5-MIN K0J4 081425Z AUTO 00000KT 10SM CLR 27/24 A2990 340 82 1900 000/00 RMK AO2 T02720239 $
63870K0J4 0J420160808093011008/08/16 09:30:31  5-MIN K0J4 081430Z AUTO 00000KT 10SM CLR 28/24 A2990 330 82 1900 000/00 RMK AO2 T02780244 $
63870K0J4 0J420160808093511008/08/16 09:35:31  5-MIN K0J4 081435Z AUTO 00000KT 10SM CLR 27/24 A2990 330 82 1900 000/00 RMK AO2 T02720239 $
63870K0J4 0J420160808094011008/08/16 09:40:31  5-MIN K0J4 081440Z AUTO 00000KT 10SM CLR 28/24 A2991 330 82 1900 000/00 RMK AO2 T02780244 $
63870K0J4 0J420160808094511008/08/16 09:45:31  5-MIN K0J4 081445Z AUTO 00000KT 10SM CLR 28/24 A2991 330 82 1900 000/00 RMK AO2 T02780244 $
63870K0J4 0J420160808095011308/08/16 09:50:31  5-MIN K0J4 081450Z AUTO 00000KT 10SM FEW009 28/24 A2991 330 82 1900 000/00 RMK AO2 T02780244 $
63870K0J4 0J420160808095512008/08/16 09:55:31  5-MIN K0J4 081455Z AUTO VRB04KT 10SM FEW009 28/24 A2991 320 82 1900 VRB/04 RMK AO2 SLP123 T02780244 $
63870K0J4 0J420160808100011008/08/16 10:00:31  5-MIN K0J4 081500Z AUTO VRB04KT 10SM CLR 28/24 A2991 320 79 2000 VRB/04 RMK AO2 T02830244 $
63870K0J4 0J420160808100511308/08/16 10:05:31  5-MIN K0J4 081505Z AUTO 00000KT 10SM FEW009 28/25 A2991 320 82 2000 000/00 RMK AO2 T02830250 $
63870K0J4 0J420160808101011308/08/16 10:10:31  5-MIN K0J4 081510Z AUTO 00000KT 10SM FEW009 28/24 A2991 320 79 2000 000/00 RMK AO2 T02830244 $
63870K0J4 0J420160808101511008/08/16 10:15:31  5-MIN K0J4 081515Z AUTO 00000KT 10SM CLR 29/25 A2991 320 79 2000 000/00 RMK AO2 T02890250 $
63870K0J4 0J420160808102011008/08/16 10:20:31  5-MIN K0J4 081520Z AUTO 00000KT 10SM CLR 29/25 A2991 320 76 2100 000/00 RMK AO2 T02940250 $
63870K0J4 0J420160808102511308/08/16 10:25:31  5-MIN K0J4 081525Z AUTO VRB04KT 10SM FEW110 29/25 A2991 320 76 2100 VRB/04 RMK AO2 T02940250 $
63870K0J4 0J420160808103011308/08/16 10:30:31  5-MIN K0J4 081530Z AUTO 00000KT 10SM FEW100 29/24 A2991 320 74 2100 000/00 RMK AO2 T02940244 $
63870K0J4 0J420160808103511308/08/16 10:35:31  5-MIN K0J4 081535Z AUTO 00000KT 10SM SCT100 30/25 A2991 320 74 2200 000/00 RMK AO2 T03000250 $
63870K0J4 0J420160808104011308/08/16 10:40:31  5-MIN K0J4 081540Z AUTO VRB03KT 10SM BKN100 30/25 A2991 330 74 2200 VRB/03 RMK AO2 T03000250 $
63870K0J4 0J420160808104512008/08/16 10:45:31  5-MIN K0J4 081545Z AUTO 00000KT 10SM FEW015 BKN100 29/25 A2991 330 76 2100 000/00 RMK AO2 T02940250 $
63870K0J4 0J420160808105012008/08/16 10:50:31  5-MIN K0J4 081550Z AUTO 00000KT 10SM FEW015 BKN110 30/25 A2991 330 74 2200 000/00 RMK AO2 T03000250 $
63870K0J4 0J420160808105512008/08/16 10:55:31  5-MIN K0J4 081555Z AUTO 00000KT 10SM BKN110 30/25 A2991 330 74 2200 000/00 RMK AO2 SLP122 T03000250 $
63870K0J4 0J420160808110012008/08/16 11:00:31  5-MIN K0J4 081600Z AUTO VRB04KT 10SM FEW015 BKN110 29/25 A2991 330 76 2100 VRB/04 RMK AO2 T02940250 $
63870K0J4 0J420160808110512008/08/16 11:05:31  5-MIN K0J4 081605Z AUTO 21003KT 10SM SCT015 OVC110 29/25 A2990 330 76 2100 210/03 RMK AO2 T02940250 $
63870K0J4 0J420160808111012008/08/16 11:10:31  5-MIN K0J4 081610Z AUTO 23003KT 10SM SCT016 BKN110 29/24 A2990 330 74 2100 230/03 RMK AO2 T02940244 $
63870K0J4 0J420160808111512008/08/16 11:15:31  5-MIN K0J4 081615Z AUTO 00000KT 10SM SCT018 BKN110 29/25 A2990 330 76 2100 000/00 RMK AO2 T02940250 $
63870K0J4 0J420160808112012008/08/16 11:20:31  5-MIN K0J4 081620Z AUTO 00000KT 10SM BKN018 BKN110 29/25 A2990 330 76 2100 000/00 RMK AO2 T02940250 $
63870K0J4 0J420160808112512008/08/16 11:25:31  5-MIN K0J4 081625Z AUTO 21004KT 10SM SCT018 BKN110 30/25 A2990 340 74 2200 210/04 RMK AO2 T03000250 $
63870K0J4 0J420160808113012008/08/16 11:30:31  5-MIN K0J4 081630Z AUTO 00000KT 10SM BKN018 BKN110 29/24 A2990 340 74 2100 000/00 RMK AO2 T02940244 $
63870K0J4 0J420160808113511308/08/16 11:35:31  5-MIN K0J4 081635Z AUTO 00000KT 10SM BKN018 30/24 A2989 340 72 2200 000/00 RMK AO2 T03000244 $
63870K0J4 0J420160808114012008/08/16 11:40:31  5-MIN K0J4 081640Z AUTO 00000KT 10SM BKN020 BKN120 30/24 A2989 340 72 2200 000/00 RMK AO2 T03000244 $
63870K0J4 0J420160808114512008/08/16 11:45:31  5-MIN K0J4 081645Z AUTO VRB03KT 10SM SCT020 BKN120 30/25 A2989 350 74 2200 VRB/03 RMK AO2 T03000250 $
63870K0J4 0J420160808115012008/08/16 11:50:31  5-MIN K0J4 081650Z AUTO VRB03KT 10SM SCT020 SCT120 29/24 A2989 350 74 2100 VRB/03 RMK AO2 T02940244 $
63870K0J4 0J420160808115510108/08/16 11:55:31  5-MIN K0J4 081655Z AUTO 00000KT 10SM BKN020 30/25 A2989 350 74 2200 000/00 RMK AO2
63870K0J4 0J420160808120011108/08/16 12:00:31  5-MIN K0J4 081700Z AUTO 17004KT 10SM SCT019 30/25 A2989 340 74 2200 170/04 RMK AO2 T03000250
63870K0J4 0J420160808120511108/08/16 12:05:31  5-MIN K0J4 081705Z AUTO 00000KT 10SM FEW019 30/24 A2989 350 72 2200 000/00 RMK AO2 T03000244
63870K0J4 0J420160808121011108/08/16 12:10:31  5-MIN K0J4 081710Z AUTO 00000KT 10SM FEW019 30/24 A2988 350 72 2200 000/00 RMK AO2 T03000244
63870K0J4 0J420160808121511108/08/16 12:15:31  5-MIN K0J4 081715Z AUTO 00000KT 10SM FEW019 31/24 A2988 350 69 2300 000/00 RMK AO2 T03060244
63870K0J4 0J420160808122011108/08/16 12:20:31  5-MIN K0J4 081720Z AUTO 11003KT 10SM FEW018 31/25 A2988 360 72 2300 110/03 RMK AO2 T03060250
63870K0J4 0J420160808122510808/08/16 12:25:31  5-MIN K0J4 081725Z AUTO VRB03KT 10SM CLR 31/25 A2988 360 72 2300 VRB/03 RMK AO2 T03060250
63870K0J4 0J420160808123010808/08/16 12:30:31  5-MIN K0J4 081730Z AUTO 00000KT 10SM CLR 31/25 A2987 360 72 2300 000/00 RMK AO2 T03060250
63870K0J4 0J420160808123510808/08/16 12:35:31  5-MIN K0J4 081735Z AUTO VRB03KT 10SM CLR 31/25 A2987 360 72 2300 VRB/03 RMK AO2 T03060250
63870K0J4 0J420160808124010808/08/16 12:40:31  5-MIN K0J4 081740Z AUTO VRB03KT 10SM CLR 31/25 A2987 360 69 2300 VRB/03 RMK AO2 T03110250
63870K0J4 0J420160808124510808/08/16 12:45:31  5-MIN K0J4 081745Z AUTO 14004KT 10SM CLR 31/25 A2986 370 72 2300 140/04 RMK AO2 T03060250
63870K0J4 0J420160808125010808/08/16 12:50:31  5-MIN K0J4 081750Z AUTO 13003KT 10SM CLR 31/25 A2986 370 72 2300 130/03 RMK AO2 T03060250
63870K0J4 0J420160808125513308/08/16 12:55:31  5-MIN K0J4 081755Z AUTO 00000KT 10SM CLR 31/25 A2986 370 72 2300 000/00 RMK AO2 SLP105 T03060250 10311 20256 53010
63870K0J4 0J420160808130010808/08/16 13:00:31  5-MIN K0J4 081800Z AUTO 16003KT 10SM CLR 31/26 A2986 380 74 2300 160/03 RMK AO2 T03060256
63870K0J4 0J420160808130510808/08/16 13:05:31  5-MIN K0J4 081805Z AUTO 00000KT 10SM CLR 31/25 A2985 380 69 2300 000/00 RMK AO2 T03110250
63870K0J4 0J420160808131010808/08/16 13:10:31  5-MIN K0J4 081810Z AUTO 16004KT 10SM CLR 31/25 A2985 380 69 2300 160/04 RMK AO2 T03110250
63870K0J4 0J420160808131510808/08/16 13:15:31  5-MIN K0J4 081815Z AUTO 15003KT 10SM CLR 31/24 A2985 380 67 2300 150/03 RMK AO2 T03060239
63870K0J4 0J420160808132010808/08/16 13:20:31  5-MIN K0J4 081820Z AUTO VRB03KT 10SM CLR 31/24 A2985 380 67 2400 VRB/03 RMK AO2 T03110244
63870K0J4 0J420160808132511108/08/16 13:25:31  5-MIN K0J4 081825Z AUTO 22009KT 10SM FEW023 31/24 A2985 380 67 2300 220/09 RMK AO2 T03110244
63870K0J4 0J420160808133011708/08/16 13:30:31  5-MIN K0J4 081830Z AUTO 21009G15KT 10SM SCT025 30/23 A2985 380 67 2200 210/09G15 RMK AO2 T03000233
63870K0J4 0J420160808133511708/08/16 13:35:31  5-MIN K0J4 081835Z AUTO 22009G15KT 10SM SCT025 30/24 A2985 380 69 2200 220/09G15 RMK AO2 T03000239
63870K0J4 0J420160808134011108/08/16 13:40:31  5-MIN K0J4 081840Z AUTO 21008KT 10SM SCT025 31/24 A2985 380 67 2300 210/08 RMK AO2 T03060239
63870K0J4 0J420160808134511108/08/16 13:45:31  5-MIN K0J4 081845Z AUTO 21010KT 10SM FEW025 31/24 A2985 380 67 2300 210/10 RMK AO2 T03060239
63870K0J4 0J420160808135011108/08/16 13:50:31  5-MIN K0J4 081850Z AUTO 22011KT 10SM FEW025 31/23 A2985 390 65 2300 220/11 RMK AO2 T03060233
63870K0J4 0J420160808135511808/08/16 13:55:31  5-MIN K0J4 081855Z AUTO 21009KT 10SM FEW025 31/24 A2985 380 67 2300 210/09 RMK AO2 SLP102 T03060239
63870K0J4 0J420160808140010808/08/16 14:00:31  5-MIN K0J4 081900Z AUTO 21011KT 10SM CLR 31/24 A2985 380 65 2400 210/11 RMK AO2 T03110239
63870K0J4 0J420160808140510808/08/16 14:05:31  5-MIN K0J4 081905Z AUTO 23010KT 10SM CLR 31/24 A2985 380 65 2300 230/10 RMK AO2 T03110239
63870K0J4 0J420160808141007408/08/16 14:10:31  5-MIN K0J4 081910Z AUTO 22009KT 200V280 10SM CLR 31/24 
63870K0J4 0J420160808231510708/08/16 23:15:31  5-MIN K0J4 090415Z AUTO 00000KT 9SM CLR 24/23 A2989 340 93 1500 000/00 RMK AO2 T02390228
63870K0J4 0J420160808232010708/08/16 23:20:31  5-MIN K0J4 090420Z AUTO 00000KT 9SM CLR 24/23 A2989 340 93 1500 000/00 RMK AO2 T02390228
63870K0J4 0J420160808232510708/08/16 23:25:31  5-MIN K0J4 090425Z AUTO 00000KT 9SM CLR 24/23 A2990 340 93 1500 000/00 RMK AO2 T02390228
63870K0J4 0J420160808233010808/08/16 23:30:31  5-MIN K0J4 090430Z AUTO 00000KT 10SM CLR 24/23 A2989 340 93 1500 000/00 RMK AO2 T02390228
63870K0J4 0J420160808233510808/08/16 23:35:31  5-MIN K0J4 090435Z AUTO 00000KT 10SM CLR 24/23 A2989 340 93 1500 000/00 RMK AO2 T02390228
63870K0J4 0J420160808234010808/08/16 23:40:31  5-MIN K0J4 090440Z AUTO 00000KT 10SM CLR 24/23 A2989 340 93 1500 000/00 RMK AO2 T02390228
63870K0J4 0J420160808234510808/08/16 23:45:31  5-MIN K0J4 090445Z AUTO 00000KT 10SM CLR 24/23 A2990 340 93 1500 000/00 RMK AO2 T02390228
63870K0J4 0J420160808235010808/08/16 23:50:31  5-MIN K0J4 090450Z AUTO 00000KT 10SM CLR 24/23 A2990 340 93 1500 000/00 RMK AO2 T02390228
63870K0J4 0J420160808235512508/08/16 23:55:31  5-MIN K0J4 090455Z AUTO 00000KT 10SM CLR 24/23 A2990 340 93 1500 000/00 RMK AO2 SLP120 T02390228 403440222
63870K0J4 0J420160809000010708/09/16 00:00:31  5-MIN K0J4 090500Z AUTO 18003KT 9SM CLR 24/23 A2990 330 93 1500 180/03 RMK AO2 T02390228
63870K0J4 0J420160809000511008/09/16 00:05:31  5-MIN K0J4 090505Z AUTO 20003KT 8SM FEW001 24/23 A2990 330 93 1500 200/03 RMK AO2 T02390228
63870K0J4 0J420160809001011008/09/16 00:10:31  5-MIN K0J4 090510Z AUTO 20003KT 8SM FEW001 24/23 A2990 330 93 1500 200/03 RMK AO2 T02390228
63870K0J4 0J420160809001510708/09/16 00:15:31  5-MIN K0J4 090515Z AUTO 00000KT 9SM CLR 24/23 A2990 330 97 1500 000/00 RMK AO2 T02390233
63870K0J4 0J420160809002010708/09/16 00:20:31  5-MIN K0J4 090520Z AUTO 00000KT 9SM CLR 24/23 A2991 330 93 1500 000/00 RMK AO2 T02390228
63870K0J4 0J420160809003507308/09/16 00:35:31  5-MIN K0J4 090535Z AUTO 00000KT M M M 000/00 RMK AO2 $
63870K0J4 0J420160809004010108/09/16 00:40:31  5-MIN K0J4 090540Z AUTO 00000KT 24/23 A2990 330 93 1500 000/00 RMK AO2 T02390228 $
63870K0J4 0J420160809004510608/09/16 00:45:31  5-MIN K0J4 090545Z AUTO 00000KT 10SM 24/23 A2990 330 93 1500 000/00 RMK AO2 T02390228 $
63870K0J4 0J420160809005010608/09/16 00:50:31  5-MIN K0J4 090550Z AUTO 00000KT 10SM 24/23 A2990 330 93 1500 000/00 RMK AO2 T02390228 $
63870K0J4 0J420160809005513108/09/16 00:55:31  5-MIN K0J4 090555Z AUTO 00000KT 10SM 24/23 A2990 330 93 1500 000/00 RMK AO2 SLP120 60000 T02390228 10244 20239 $
63870K0J4 0J420160809010010608/09/16 01:00:31  5-MIN K0J4 090600Z AUTO 00000KT 10SM 24/23 A2990 340 93 1500 000/00 RMK AO2 T02390228 $
63870K0J4 0J420160809010511008/09/16 01:05:31  5-MIN K0J4 090605Z AUTO 00000KT 10SM CLR 24/23 A2990 340 93 1500 000/00 RMK AO2 T02390228 $
63870K0J4 0J420160809011011008/09/16 01:10:31  5-MIN K0J4 090610Z AUTO 00000KT 10SM CLR 24/23 A2990 340 93 1500 000/00 RMK AO2 T02390228 $
63870K0J4 0J420160809011511008/09/16 01:15:31  5-MIN K0J4 090615Z AUTO 00000KT 10SM CLR 24/23 A2989 340 93 1500 000/00 RMK AO2 T02390228 $
63870K0J4 0J420160809012011008/09/16 01:20:31  5-MIN K0J4 090620Z AUTO 00000KT 10SM CLR 24/23 A2989 350 93 1500 000/00 RMK AO2 T02390228 $
63870K0J4 0J420160809012511308/09/16 01:25:31  5-MIN K0J4 090625Z AUTO 00000KT 10SM FEW005 24/23 A2989 350 93 1500 000/00 RMK AO2 T02390228 $
63870K0J4 0J420160809013011508/09/16 01:30:31  5-MIN K0J4 090630Z AUTO 00000KT 5SM BR SCT005 24/23 A2989 350 93 1500 000/00 RMK AO2 T02390228 $
63870K0J4 0J420160809013511508/09/16 01:35:31  5-MIN K0J4 090635Z AUTO 00000KT 4SM BR BKN003 24/23 A2989 350 93 1500 000/00 RMK AO2 T02390228 $
63870K0J4 0J420160809014011508/09/16 01:40:31  5-MIN K0J4 090640Z AUTO 00000KT 5SM BR BKN003 24/23 A2989 350 93 1500 000/00 RMK AO2 T02390228 $
63870K0J4 0J420160809014512408/09/16 01:45:31  5-MIN K0J4 090645Z AUTO 00000KT 8SM BKN003 24/23 A2988 350 97 1500 000/00 RMK AO2 CIG 001V005 T02390233 $
63870K0J4 0J420160809015012408/09/16 01:50:31  5-MIN K0J4 090650Z AUTO 00000KT 8SM OVC001 24/23 A2988 350 97 1500 000/00 RMK AO2 CIG 001V004 T02390233 $
63870K0J4 0J420160809015513108/09/16 01:55:31  5-MIN K0J4 090655Z AUTO 00000KT 7SM OVC001 24/23 A2988 350 97 1500 000/00 RMK AO2 CIG 001V004 SLP114 T02390233 $
63870K0J4 0J420160809020011508/09/16 02:00:31  5-MIN K0J4 090700Z AUTO 00000KT 5SM BR OVC001 24/23 A2988 350 97 1500 000/00 RMK AO2 T02390233 $
63870K0J4 0J420160809020511508/09/16 02:05:31  5-MIN K0J4 090705Z AUTO 00000KT 5SM BR OVC001 24/23 A2988 350 93 1500 000/00 RMK AO2 T02390228 $
63870K0J4 0J420160809021011508/09/16 02:10:31  5-MIN K0J4 090710Z AUTO 00000KT 3SM BR OVC001 24/23 A2988 350 93 1500 000/00 RMK AO2 T02390228 $
63870K0J4 0J420160809021511908/09/16 02:15:31  5-MIN K0J4 090715Z AUTO 00000KT 1 1/2SM BR OVC001 24/23 A2988 350 93 1500 000/00 RMK AO2 T02390228 $
63870K0J4 0J420160809022011708/09/16 02:20:31  5-MIN K0J4 090720Z AUTO 00000KT 3/4SM BR OVC001 24/23 A2988 360 93 1500 000/00 RMK AO2 T02390228 $
63870K0J4 0J420160809022511608/09/16 02:25:31  5-MIN K0J4 090725Z AUTO 00000KT 1/2SM FG VV001 24/23 A2988 360 93 1500 000/00 RMK AO2 T02390228 $
63870K0J4 0J420160809023011608/09/16 02:30:31  5-MIN K0J4 090730Z AUTO 00000KT 1/2SM FG VV001 23/23 A2988 350 97 1400 000/00 RMK AO2 T02330228 $
63870K0J4 0J420160809023511608/09/16 02:35:31  5-MIN K0J4 090735Z AUTO 00000KT 1/2SM FG VV001 23/23 A2988 360 97 1400 000/00 RMK AO2 T02330228 $
63870K0J4 0J420160809024011608/09/16 02:40:31  5-MIN K0J4 090740Z AUTO 00000KT 1/4SM FG VV001 23/23 A2987 360 97 1500 000/00 RMK AO2 T02330228 $
63870K0J4 0J420160809024511608/09/16 02:45:31  5-MIN K0J4 090745Z AUTO 00000KT 1/4SM FG VV001 23/23 A2987 360 97 1500 000/00 RMK AO2 T02330228 $
63870K0J4 0J420160809025011608/09/16 02:50:31  5-MIN K0J4 090750Z AUTO 00000KT 1/4SM FG VV001 23/23 A2987 360 97 1500 000/00 RMK AO2 T02330228 $
63870K0J4 0J420160809025512308/09/16 02:55:31  5-MIN K0J4 090755Z AUTO 01003KT 1/4SM FG VV001 23/23 A2987 360 97 1500 010/03 RMK AO2 SLP111 T02330228 $
63870K0J4 0J420160809030011608/09/16 03:00:31  5-MIN K0J4 090800Z AUTO 36003KT 1/4SM FG VV001 23/23 A2987 360 97 1500 360/03 RMK AO2 T02330228 $
63870K0J4 0J420160809030511708/09/16 03:05:31  5-MIN K0J4 090805Z AUTO 00000KT 1/4SM FG VV001 23/23 A2987 360 100 1400 000/00 RMK AO2 T02280228 $
63870K0J4 0J420160809031011608/09/16 03:10:31  5-MIN K0J4 090810Z AUTO 00000KT 1/4SM FG VV001 23/23 A2988 360 97 1400 000/00 RMK AO2 T02330228 $
63870K0J4 0J420160809031511608/09/16 03:15:31  5-MIN K0J4 090815Z AUTO 00000KT 1/4SM FG VV001 23/22 A2988 360 97 1400 000/00 RMK AO2 T02280222 $
63870K0J4 0J420160809032011608/09/16 03:20:31  5-MIN K0J4 090820Z AUTO 36003KT 1/4SM FG VV001 23/22 A2988 360 97 1400 360/03 RMK AO2 T02280222 $
63870K0J4 0J420160809032511608/09/16 03:25:31  5-MIN K0J4 090825Z AUTO 01003KT 1/4SM FG VV001 23/23 A2988 360 97 1400 010/03 RMK AO2 T02330228 $
63870K0J4 0J420160809033011608/09/16 03:30:31  5-MIN K0J4 090830Z AUTO 03003KT 1/4SM FG VV001 23/23 A2988 350 97 1400 030/03 RMK AO2 T02330228 $
63870K0J4 0J420160809033511608/09/16 03:35:31  5-MIN K0J4 090835Z AUTO 03003KT 1/4SM FG VV001 23/23 A2988 350 97 1400 030/03 RMK AO2 T02330228 $
63870K0J4 0J420160809034011608/09/16 03:40:31  5-MIN K0J4 090840Z AUTO 03003KT 1/4SM FG VV001 23/23 A2988 350 97 1400 030/03 RMK AO2 T02330228 $
63870K0J4 0J420160809034511608/09/16 03:45:31  5-MIN K0J4 090845Z AUTO 00000KT 1/4SM FG VV001 23/23 A2988 350 97 1400 000/00 RMK AO2 T02330228 $
63870K0J4 0J420160809035011608/09/16 03:50:31  5-MIN K0J4 090850Z AUTO 00000KT 1/4SM FG VV001 23/23 A2988 350 97 1400 000/00 RMK AO2 T02330228 $
63870K0J4 0J420160809035512308/09/16 03:55:31  5-MIN K0J4 090855Z AUTO 00000KT 1/4SM FG VV001 23/23 A2989 350 97 1400 000/00 RMK AO2 SLP116 T02330228 $
63870K0J4 0J420160809040011608/09/16 04:00:31  5-MIN K0J4 090900Z AUTO 00000KT 1/4SM FG VV001 23/23 A2989 350 97 1400 000/00 RMK AO2 T02330228 $
63870K0J4 0J420160809040511608/09/16 04:05:31  5-MIN K0J4 090905Z AUTO 00000KT 1/4SM FG VV001 23/23 A2989 350 97 1400 000/00 RMK AO2 T02330228 $
63870K0J4 0J420160809041011608/09/16 04:10:31  5-MIN K0J4 090910Z AUTO 36003KT 1/4SM FG VV001 23/23 A2989 350 97 1400 360/03 RMK AO2 T02330228 $
63870K0J4 0J420160809041511608/09/16 04:15:31  5-MIN K0J4 090915Z AUTO 00000KT 1/4SM FG VV001 23/23 A2989 350 97 1400 000/00 RMK AO2 T02330228 $
63870K0J4 0J420160809042011608/09/16 04:20:31  5-MIN K0J4 090920Z AUTO 00000KT 1/4SM FG VV001 23/23 A2989 350 97 1400 000/00 RMK AO2 T02330228 $
63870K0J4 0J420160809042511608/09/16 04:25:31  5-MIN K0J4 090925Z AUTO 00000KT 1/2SM FG VV001 23/23 A2989 350 97 1400 000/00 RMK AO2 T02330228 $
63870K0J4 0J420160809043011608/09/16 04:30:31  5-MIN K0J4 090930Z AUTO 00000KT 1/2SM FG VV001 23/23 A2989 350 97 1400 000/00 RMK AO2 T02330228 $
63870K0J4 0J420160809043511608/09/16 04:35:31  5-MIN K0J4 090935Z AUTO 03003KT 1/2SM FG VV001 23/23 A2989 350 97 1400 030/03 RMK AO2 T02330228 $
63870K0J4 0J420160809044011608/09/16 04:40:31  5-MIN K0J4 090940Z AUTO 02003KT 1/2SM FG VV001 23/23 A2988 350 97 1400 020/03 RMK AO2 T02330228 $
63870K0J4 0J420160809044511608/09/16 04:45:31  5-MIN K0J4 090945Z AUTO 03003KT 3/4SM BR VV001 23/23 A2989 350 97 1400 030/03 RMK AO2 T02330228 $
63870K0J4 0J420160809045011608/09/16 04:50:31  5-MIN K0J4 090950Z AUTO 03003KT 3/4SM BR VV001 23/23 A2989 350 97 1400 030/03 RMK AO2 T02330228 $
63870K0J4 0J420160809045512308/09/16 04:55:31  5-MIN K0J4 090955Z AUTO 03003KT 3/4SM BR VV001 23/23 A2989 340 97 1400 030/03 RMK AO2 SLP117 T02330228 $
63870K0J4 0J420160809050011608/09/16 05:00:31  5-MIN K0J4 091000Z AUTO 03003KT 1/2SM FG VV001 23/23 A2989 340 97 1400 030/03 RMK AO2 T02330228 $
63870K0J4 0J420160809050511608/09/16 05:05:31  5-MIN K0J4 091005Z AUTO 02003KT 1/4SM FG VV001 23/23 A2989 340 97 1400 020/03 RMK AO2 T02330228 $
63870K0J4 0J420160809051011608/09/16 05:10:31  5-MIN K0J4 091010Z AUTO 04003KT 1/4SM FG VV001 23/23 A2990 340 97 1400 040/03 RMK AO2 T02330228 $
63870K0J4 0J420160809051511608/09/16 05:15:31  5-MIN K0J4 091015Z AUTO 00000KT 1/4SM FG VV001 23/23 A2990 340 97 1400 000/00 RMK AO2 T02330228 $
63870K0J4 0J420160809052011608/09/16 05:20:31  5-MIN K0J4 091020Z AUTO 03003KT 1/4SM FG VV001 23/23 A2989 340 97 1400 030/03 RMK AO2 T02330228 $
63870K0J4 0J420160809052511608/09/16 05:25:31  5-MIN K0J4 091025Z AUTO 06003KT 1/2SM FG VV001 23/23 A2990 340 97 1400 060/03 RMK AO2 T02330228 $
63870K0J4 0J420160809053011608/09/16 05:30:31  5-MIN K0J4 091030Z AUTO 06003KT 1/2SM FG VV001 23/23 A2990 340 97 1400 060/03 RMK AO2 T02330228 $
63870K0J4 0J420160809053511608/09/16 05:35:31  5-MIN K0J4 091035Z AUTO 06003KT 1/2SM FG VV001 23/23 A2990 330 97 1400 060/03 RMK AO2 T02330228 $
63870K0J4 0J420160809054011608/09/16 05:40:31  5-MIN K0J4 091040Z AUTO 00000KT 1/2SM FG VV001 23/23 A2990 330 97 1400 000/00 RMK AO2 T02330228 $
63870K0J4 0J420160809054511608/09/16 05:45:31  5-MIN K0J4 091045Z AUTO 04003KT 1/2SM FG VV001 23/23 A2990 330 97 1400 040/03 RMK AO2 T02330228 $
63870K0J4 0J420160809055011608/09/16 05:50:31  5-MIN K0J4 091050Z AUTO 04003KT 1/2SM FG VV001 23/23 A2990 330 97 1400 040/03 RMK AO2 T02330228 $
63870K0J4 0J420160809055512308/09/16 05:55:31  5-MIN K0J4 091055Z AUTO 04003KT 1/2SM FG VV001 23/23 A2990 330 97 1400 040/03 RMK AO2 SLP122 T02330228 $
63870K0J4 0J420160809060011608/09/16 06:00:31  5-MIN K0J4 091100Z AUTO 04003KT 1/2SM FG VV001 23/23 A2991 330 97 1400 040/03 RMK AO2 T02330228 $
63870K0J4 0J420160809060511608/09/16 06:05:31  5-MIN K0J4 091105Z AUTO 00000KT 1/2SM FG VV001 23/23 A2991 330 97 1400 000/00 RMK AO2 T02330228 $
63870K0J4 0J420160809061011608/09/16 06:10:31  5-MIN K0J4 091110Z AUTO 03004KT 1/2SM FG VV001 23/23 A2991 330 97 1400 030/04 RMK AO2 T02330228 $
63870K0J4 0J420160809061511608/09/16 06:15:31  5-MIN K0J4 091115Z AUTO 03003KT 1/4SM FG VV001 23/23 A2991 320 97 1400 030/03 RMK AO2 T02330228 $
63870K0J4 0J420160809062011608/09/16 06:20:31  5-MIN K0J4 091120Z AUTO 02003KT 1/4SM FG VV001 23/23 A2991 320 97 1400 020/03 RMK AO2 T02330228 $
63870K0J4 0J420160809062511608/09/16 06:25:31  5-MIN K0J4 091125Z AUTO 01003KT 1/4SM FG VV001 23/23 A2991 320 97 1400 010/03 RMK AO2 T02330228 $
63870K0J4 0J420160809063011608/09/16 06:30:31  5-MIN K0J4 091130Z AUTO 02003KT 1/4SM FG VV001 24/23 A2992 320 97 1500 020/03 RMK AO2 T02390233 $
63870K0J4 0J420160809063511608/09/16 06:35:31  5-MIN K0J4 091135Z AUTO 00000KT 1/2SM FG VV001 24/23 A2992 320 97 1500 000/00 RMK AO2 T02390233 $
63870K0J4 0J420160809064011608/09/16 06:40:31  5-MIN K0J4 091140Z AUTO VRB03KT 3/4SM BR VV001 24/23 A2992 320 97 1500 VRB/03 RMK AO2 T02390233 $
63870K0J4 0J420160809064511908/09/16 06:45:31  5-MIN K0J4 091145Z AUTO 03003KT 1 1/2SM BR OVC001 24/23 A2992 320 97 1500 030/03 RMK AO2 T02390233 $
63870K0J4 0J420160809065011508/09/16 06:50:31  5-MIN K0J4 091150Z AUTO 00000KT 4SM BR OVC001 24/23 A2992 310 97 1500 000/00 RMK AO2 T02390233 $
63870K0J4 0J420160809065514008/09/16 06:55:31  5-MIN K0J4 091155Z AUTO 02003KT 6SM BR OVC002 24/23 A2992 310 97 1500 020/03 RMK AO2 SLP128 T02390233 10239 20228 55003 $
63870K0J4 0J420160809070011508/09/16 07:00:31  5-MIN K0J4 091200Z AUTO 03003KT 6SM BR OVC002 24/23 A2992 310 97 1500 030/03 RMK AO2 T02390233 $
63870K0J4 0J420160809070511008/09/16 07:05:31  5-MIN K0J4 091205Z AUTO 03003KT 7SM OVC002 24/23 A2993 310 97 1500 030/03 RMK AO2 T02390233
63870K0J4 0J420160809071011308/09/16 07:10:31  5-MIN K0J4 091210Z AUTO 04004KT 4SM BR OVC002 24/23 A2993 310 97 1400 040/04 RMK AO2 T02390233
63870K0J4 0J420160809071512508/09/16 07:15:31  5-MIN K0J4 091215Z AUTO 04003KT 4SM BR OVC002 24/23 A2993 310 97 1400 040/03 RMK AO2 CIG 002V005 T02390233
63870K0J4 0J420160809072012208/09/16 07:20:31  5-MIN K0J4 091220Z AUTO 05004KT 7SM OVC004 24/23 A2993 300 97 1400 050/04 RMK AO2 CIG 002V006 T02390233
63870K0J4 0J420160809072512208/09/16 07:25:31  5-MIN K0J4 091225Z AUTO 04005KT 8SM OVC004 24/23 A2993 310 97 1400 040/05 RMK AO2 CIG 002V006 T02390233
63870K0J4 0J420160809073012208/09/16 07:30:31  5-MIN K0J4 091230Z AUTO 04005KT 7SM OVC004 24/23 A2993 310 97 1400 040/05 RMK AO2 CIG 002V006 T02390233
63870K0J4 0J420160809073512208/09/16 07:35:31  5-MIN K0J4 091235Z AUTO 05005KT 7SM OVC004 24/23 A2993 310 97 1400 050/05 RMK AO2 CIG 002V007 T02390233
63870K0J4 0J420160809074012208/09/16 07:40:31  5-MIN K0J4 091240Z AUTO 04005KT 7SM OVC004 24/23 A2993 310 97 1400 040/05 RMK AO2 CIG 002V007 T02390233
63870K0J4 0J420160809074512508/09/16 07:45:31  5-MIN K0J4 091245Z AUTO 03006KT 6SM BR OVC004 24/23 A2993 310 97 1400 030/06 RMK AO2 CIG 002V007 T02390233
63870K0J4 0J420160809075012508/09/16 07:50:31  5-MIN K0J4 091250Z AUTO 03006KT 5SM BR OVC004 24/23 A2993 300 97 1400 030/06 RMK AO2 CIG 002V007 T02390233
63870K0J4 0J420160809075513208/09/16 07:55:31  5-MIN K0J4 091255Z AUTO 04004KT 4SM BR OVC004 24/23 A2993 300 97 1400 040/04 RMK AO2 CIG 002V007 SLP132 T02390233
63870K0J4 0J420160809080012508/09/16 08:00:31  5-MIN K0J4 091300Z AUTO 05004KT 3SM BR OVC004 24/23 A2994 300 97 1400 050/04 RMK AO2 CIG 002V007 T02390233
63870K0J4 0J420160809080512508/09/16 08:05:31  5-MIN K0J4 091305Z AUTO 05005KT 4SM BR OVC003 24/23 A2994 300 97 1400 050/05 RMK AO2 CIG 002V007 T02390233
63870K0J4 0J420160809081013208/09/16 08:10:31  5-MIN K0J4 091310Z AUTO 05005KT 6SM BR BKN003 OVC008 24/23 A2994 290 97 1400 050/05 RMK AO2 CIG 002V006 T02390233
63870K0J4 0J420160809081512908/09/16 08:15:31  5-MIN K0J4 091315Z AUTO 06006KT 9SM BKN003 OVC008 24/23 A2995 290 93 1500 060/06 RMK AO2 CIG 002V007 T02440233
63870K0J4 0J420160809082013008/09/16 08:20:31  5-MIN K0J4 091320Z AUTO 06005KT 10SM BKN004 OVC008 24/23 A2995 290 93 1500 060/05 RMK AO2 CIG 002V006 T02440233
63870K0J4 0J420160809082513008/09/16 08:25:31  5-MIN K0J4 091325Z AUTO 08003KT 10SM SCT004 OVC008 24/23 A2996 280 93 1500 080/03 RMK AO2 CIG 007V011 T02440233
63870K0J4 0J420160809083013008/09/16 08:30:31  5-MIN K0J4 091330Z AUTO 00000KT 10SM BKN006 OVC010 24/23 A2996 280 93 1500 000/00 RMK AO2 CIG 003V008 T02440233
63870K0J4 0J420160809083511808/09/16 08:35:31  5-MIN K0J4 091335Z AUTO 08004KT 10SM BKN004 OVC010 25/23 A2996 280 90 1500 080/04 RMK AO2 T02500233
63870K0J4 0J420160809084013008/09/16 08:40:31  5-MIN K0J4 091340Z AUTO 10004KT 10SM BKN004 OVC010 25/23 A2996 280 90 1500 100/04 RMK AO2 CIG 004V007 T02500233
63870K0J4 0J420160809084512908/09/16 08:45:31  5-MIN K0J4 091345Z AUTO 08006KT 9SM BKN006 OVC010 24/23 A2996 280 93 1500 080/06 RMK AO2 CIG 004V008 T02440233
63870K0J4 0J420160809085012908/09/16 08:50:31  5-MIN K0J4 091350Z AUTO 08004KT 8SM BKN006 OVC010 25/23 A2995 290 90 1500 080/04 RMK AO2 CIG 004V008 T02500233
63870K0J4 0J420160809085511408/09/16 08:55:31  5-MIN K0J4 091355Z AUTO 07006KT 8SM BKN004 BKN008 OVC012 25/23 A2995 290 90 1600 070/06 RMK AO2
63870K0J4 0J420160809090012908/09/16 09:00:31  5-MIN K0J4 091400Z AUTO 06005KT 9SM BKN006 OVC014 25/23 A2995 290 90 1600 060/05 RMK AO2 CIG 003V010 T02500233
63870K0J4 0J420160809090513608/09/16 09:05:31  5-MIN K0J4 091405Z AUTO 07007KT 9SM SCT006 BKN009 OVC014 25/23 A2995 290 90 1600 070/07 RMK AO2 CIG 007V011 T02500233
63870K0J4 0J420160809091013708/09/16 09:10:31  5-MIN K0J4 091410Z AUTO 09005KT 10SM SCT006 BKN009 OVC015 26/23 A2995 290 87 1600 090/05 RMK AO2 CIG 007V011 T02560233
63870K0J4 0J420160809091513008/09/16 09:15:31  5-MIN K0J4 091415Z AUTO 08006KT 10SM BKN006 OVC015 26/24 A2995 290 90 1600 080/06 RMK AO2 CIG 003V008 T02560239
63870K0J4 0J420160809092013008/09/16 09:20:31  5-MIN K0J4 091420Z AUTO 09006KT 10SM BKN006 OVC015 26/24 A2995 290 87 1700 090/06 RMK AO2 CIG 003V012 T02610239
63870K0J4 0J420160809092513008/09/16 09:25:31  5-MIN K0J4 091425Z AUTO 08008KT 10SM BKN006 OVC015 26/23 A2995 290 87 1600 080/08 RMK AO2 CIG 004V010 T02560233
63870K0J4 0J420160809093012908/09/16 09:30:31  5-MIN K0J4 091430Z AUTO 06005KT 9SM BKN007 OVC013 26/23 A2995 290 87 1600 060/05 RMK AO2 CIG 004V010 T02560233
63870K0J4 0J420160809093512908/09/16 09:35:31  5-MIN K0J4 091435Z AUTO 07005KT 9SM BKN007 OVC013 26/23 A2995 290 87 1600 070/05 RMK AO2 CIG 004V009 T02560233
63870K0J4 0J420160809094013008/09/16 09:40:31  5-MIN K0J4 091440Z AUTO 06006KT 10SM BKN007 OVC013 26/23 A2995 290 87 1600 060/06 RMK AO2 CIG 004V009 T02560233
63870K0J4 0J420160809094511808/09/16 09:45:31  5-MIN K0J4 091445Z AUTO VRB04KT 10SM SCT007 OVC013 26/23 A2995 290 87 1600 VRB/04 RMK AO2 T02560233
63870K0J4 0J420160809095011808/09/16 09:50:31  5-MIN K0J4 091450Z AUTO 06007KT 10SM SCT007 OVC013 26/23 A2995 290 84 1700 060/07 RMK AO2 T02610233
63870K0J4 0J420160809095513108/09/16 09:55:31  5-MIN K0J4 091455Z AUTO 06006KT 10SM SCT007 OVC013 26/23 A2996 280 87 1600 060/06 RMK AO2 SLP139 T02560233 53012
63870K0J4 0J420160809100011808/09/16 10:00:31  5-MIN K0J4 091500Z AUTO 05006KT 10SM SCT008 OVC013 26/23 A2996 280 84 1700 050/06 RMK AO2 T02610233
63870K0J4 0J420160809100511808/09/16 10:05:31  5-MIN K0J4 091505Z AUTO 07006KT 10SM FEW008 OVC013 27/24 A2996 280 84 1700 070/06 RMK AO2 T02670239
63870K0J4 0J420160809101011808/09/16 10:10:31  5-MIN K0J4 091510Z AUTO 00000KT 10SM SCT008 OVC013 26/23 A2996 280 84 1700 000/00 RMK AO2 T02610233
63870K0J4 0J420160809101511808/09/16 10:15:31  5-MIN K0J4 091515Z AUTO 06006KT 10SM BKN008 OVC013 26/23 A2996 280 84 1700 060/06 RMK AO2 T02610233
63870K0J4 0J420160809102011808/09/16 10:20:31  5-MIN K0J4 091520Z AUTO 07004KT 10SM BKN008 OVC013 26/24 A2996 280 87 1700 070/04 RMK AO2 T02610239
63870K0J4 0J420160809102513008/09/16 10:25:31  5-MIN K0J4 091525Z AUTO 08005KT 10SM BKN008 OVC013 26/23 A2996 280 84 1700 080/05 RMK AO2 CIG 007V011 T02610233
63870K0J4 0J420160809103013008/09/16 10:30:31  5-MIN K0J4 091530Z AUTO 08004KT 10SM BKN008 OVC013 26/23 A2996 280 84 1700 080/04 RMK AO2 CIG 007V011 T02610233
63870K0J4 0J420160809103512308/09/16 10:35:31  5-MIN K0J4 091535Z AUTO 09004KT 10SM OVC009 26/23 A2996 280 84 1700 090/04 RMK AO2 CIG 007V011 T02610233
63870K0J4 0J420160809104013008/09/16 10:40:31  5-MIN K0J4 091540Z AUTO 08005KT 10SM BKN009 OVC014 27/24 A2997 270 84 1700 080/05 RMK AO2 CIG 007V012 T02670239
63870K0J4 0J420160809104511808/09/16 10:45:31  5-MIN K0J4 091545Z AUTO 08005KT 10SM BKN009 OVC014 27/24 A2997 270 84 1700 080/05 RMK AO2 T02670239
63870K0J4 0J420160809105011108/09/16 10:50:31  5-MIN K0J4 091550Z AUTO 07005KT 10SM OVC009 27/24 A2997 270 84 1700 070/05 RMK AO2 T02670239
63870K0J4 0J420160809105512508/09/16 10:55:31  5-MIN K0J4 091555Z AUTO 05004KT 10SM BKN009 OVC013 27/24 A2996 280 84 1700 050/04 RMK AO2 SLP142 T02670239
63870K0J4 0J420160809110012508/09/16 11:00:31  5-MIN K0J4 091600Z AUTO 00000KT 10SM SCT009 BKN013 OVC024 27/24 A2996 280 82 1800 000/00 RMK AO2 T02720239
63870K0J4 0J420160809110512508/09/16 11:05:31  5-MIN K0J4 091605Z AUTO 14004KT 10SM FEW009 BKN013 OVC024 27/24 A2996 280 82 1800 140/04 RMK AO2 T02720239
63870K0J4 0J420160809111012508/09/16 11:10:31  5-MIN K0J4 091610Z AUTO VRB03KT 10SM FEW009 SCT013 OVC024 28/24 A2996 280 79 1900 VRB/03 RMK AO2 T02780239
63870K0J4 0J420160809111511808/09/16 11:15:31  5-MIN K0J4 091615Z AUTO 12004KT 10SM SCT013 OVC022 28/24 A2996 280 79 1900 120/04 RMK AO2 T02780239
63870K0J4 0J420160809112011808/09/16 11:20:31  5-MIN K0J4 091620Z AUTO 14003KT 10SM SCT013 OVC022 27/24 A2996 280 82 1800 140/03 RMK AO2 T02720239
63870K0J4 0J420160809112511808/09/16 11:25:31  5-MIN K0J4 091625Z AUTO 07004KT 10SM SCT012 OVC022 28/24 A2996 280 79 1900 070/04 RMK AO2 T02780239
63870K0J4 0J420160809113011808/09/16 11:30:31  5-MIN K0J4 091630Z AUTO 16004KT 10SM SCT012 OVC022 28/24 A2996 280 79 1900 160/04 RMK AO2 T02780239
63870K0J4 0J420160809113511808/09/16 11:35:31  5-MIN K0J4 091635Z AUTO 18005KT 10SM SCT012 OVC024 28/24 A2996 280 79 1900 180/05 RMK AO2 T02780239
63870K0J4 0J420160809114012508/09/16 11:40:31  5-MIN K0J4 091640Z AUTO 18004KT 10SM BKN012 BKN021 OVC026 28/24 A2996 280 79 1900 180/04 RMK AO2 T02780239
63870K0J4 0J420160809114511808/09/16 11:45:31  5-MIN K0J4 091645Z AUTO VRB04KT 10SM BKN014 OVC024 28/24 A2996 280 79 1900 VRB/04 RMK AO2 T02780239
63870K0J4 0J420160809115012508/09/16 11:50:31  5-MIN K0J4 091650Z AUTO 12004KT 10SM SCT014 BKN018 OVC027 28/24 A2995 280 79 1900 120/04 RMK AO2 T02780239
63870K0J4 0J420160809115513208/09/16 11:55:31  5-MIN K0J4 091655Z AUTO VRB03KT 10SM SCT014 BKN018 OVC027 28/24 A2995 290 76 1900 VRB/03 RMK AO2 SLP138 T02830239
63870K0J4 0J420160809120011808/09/16 12:00:31  5-MIN K0J4 091700Z AUTO 17004KT 10SM SCT014 OVC027 28/24 A2995 290 79 1900 170/04 RMK AO2 T02780239
63870K0J4 0J420160809120512508/09/16 12:05:31  5-MIN K0J4 091705Z AUTO 00000KT 10SM FEW014 BKN018 OVC029 28/24 A2995 290 76 1900 000/00 RMK AO2 T02830239
63870K0J4 0J420160809121011808/09/16 12:10:31  5-MIN K0J4 091710Z AUTO 21005KT 10SM SCT018 OVC029 28/24 A2995 290 76 1900 210/05 RMK AO2 T02830239
63870K0J4 0J420160809121511808/09/16 12:15:31  5-MIN K0J4 091715Z AUTO VRB03KT 10SM SCT018 OVC029 28/24 A2995 290 76 1900 VRB/03 RMK AO2 T02830239
63870K0J4 0J420160809122012508/09/16 12:20:31  5-MIN K0J4 091720Z AUTO VRB04KT 10SM SCT018 SCT026 OVC032 28/24 A2995 290 76 1900 VRB/04 RMK AO2 T02830239
63870K0J4 0J420160809122511808/09/16 12:25:31  5-MIN K0J4 091725Z AUTO 00000KT 10SM FEW018 BKN032 29/24 A2994 300 74 2000 000/00 RMK AO2 T02890239
63870K0J4 0J420160809123013408/09/16 12:30:31  5-MIN K0J4 091730Z AUTO VRB03KT 10SM -RA FEW018 BKN032 29/24 A2994 300 71 2100 VRB/03 RMK AO2 RAB30 P0000 T02940239
63870K0J4 0J420160809123513408/09/16 12:35:31  5-MIN K0J4 091735Z AUTO 00000KT 10SM -RA FEW017 BKN034 29/24 A2994 300 71 2100 000/00 RMK AO2 RAB30 P0000 T02940239
63870K0J4 0J420160809124014108/09/16 12:40:31  5-MIN K0J4 091740Z AUTO 00000KT 10SM -RA FEW017 SCT021 BKN036 29/24 A2994 300 71 2100 000/00 RMK AO2 RAB30 P0000 T02940239
63870K0J4 0J420160809124513308/09/16 12:45:31  5-MIN K0J4 091745Z AUTO VRB03KT 10SM SCT021 BKN036 30/24 A2994 300 69 2100 VRB/03 RMK AO2 RAB30E42 P0000 T03000239
63870K0J4 0J420160809125013308/09/16 12:50:31  5-MIN K0J4 091750Z AUTO 35003KT 10SM SCT022 BKN038 29/24 A2993 310 71 2100 350/03 RMK AO2 RAB30E42 P0000 T02940239
63870K0J4 0J420160809125516408/09/16 12:55:31  5-MIN K0J4 091755Z AUTO VRB03KT 10SM SCT022 BKN038 31/24 A2993 310 69 2200 VRB/03 RMK AO2 RAB30E42 SLP130 P0000 60000 T03060244 10306 20239 51011
63870K0J4 0J420160809130011808/09/16 13:00:31  5-MIN K0J4 091800Z AUTO 00000KT 10SM BKN024 BKN036 29/23 A2993 310 69 2100 000/00 RMK AO2 T02940233
63870K0J4 0J420160809130511108/09/16 13:05:31  5-MIN K0J4 091805Z AUTO 00000KT 10SM BKN024 30/23 A2992 320 67 2100 000/00 RMK AO2 T03000233
63870K0J4 0J420160809131011808/09/16 13:10:31  5-MIN K0J4 091810Z AUTO VRB03KT 10SM SCT024 BKN031 30/24 A2992 320 69 2100 VRB/03 RMK AO2 T03000239
63870K0J4 0J420160809131511808/09/16 13:15:31  5-MIN K0J4 091815Z AUTO 00000KT 10SM SCT024 BKN031 30/23 A2992 320 67 2200 000/00 RMK AO2 T03000233
63870K0J4 0J420160809132011808/09/16 13:20:31  5-MIN K0J4 091820Z AUTO 00000KT 10SM BKN024 BKN031 29/24 A2992 320 71 2100 000/00 RMK AO2 T02940239
63870K0J4 0J420160809132511808/09/16 13:25:31  5-MIN K0J4 091825Z AUTO VRB03KT 10SM BKN021 BKN029 29/23 A2991 320 69 2100 VRB/03 RMK AO2 T02940233
63870K0J4 0J420160809133011808/09/16 13:30:31  5-MIN K0J4 091830Z AUTO 33004KT 10SM BKN021 OVC029 29/24 A2991 320 71 2100 330/04 RMK AO2 T02940239
63870K0J4 0J420160809133512508/09/16 13:35:31  5-MIN K0J4 091835Z AUTO VRB03KT 10SM SCT021 BKN027 OVC034 31/24 A2991 320 69 2200 VRB/03 RMK AO2 T03060244
63870K0J4 0J420160809134012508/09/16 13:40:31  5-MIN K0J4 091840Z AUTO 27004KT 10SM SCT021 BKN027 OVC034 30/24 A2991 320 72 2200 270/04 RMK AO2 T03000244
63870K0J4 0J420160809134512508/09/16 13:45:31  5-MIN K0J4 091845Z AUTO VRB03KT 10SM FEW021 BKN027 OVC040 29/24 A2991 330 71 2100 VRB/03 RMK AO2 T02940239
63870K0J4 0J420160809135012508/09/16 13:50:31  5-MIN K0J4 091850Z AUTO 00000KT 10SM FEW021 BKN027 OVC035 29/24 A2991 330 71 2100 000/00 RMK AO2 T02940239
63870K0J4 0J420160809135511508/09/16 13:55:31  5-MIN K0J4 091855Z AUTO 23003KT 10SM SCT025 BKN030 OVC050 29/24 A2991 330 71 2100 230/03 RMK AO2
63870K0J4 0J420160809140012508/09/16 14:00:31  5-MIN K0J4 091900Z AUTO 00000KT 10SM FEW025 BKN032 OVC050 30/24 A2991 330 69 2200 000/00 RMK AO2 T03000239
63870K0J4 0J420160809140512508/09/16 14:05:31  5-MIN K0J4 091905Z AUTO 00000KT 10SM FEW025 BKN039 OVC055 30/24 A2991 330 69 2200 000/00 RMK AO2 T03000239
63870K0J4 0J420160809141012508/09/16 14:10:31  5-MIN K0J4 091910Z AUTO VRB04KT 10SM SCT028 BKN039 OVC055 30/24 A2991 330 69 2200 VRB/04 RMK AO2 T03000239
63870K0J4 0J420160809141514108/09/16 14:15:31  5-MIN K0J4 091915Z AUTO 32003KT 10SM -RA BKN025 BKN033 OVC055 30/24 A2991 330 69 2200 320/03 RMK AO2 RAB15 P0000 T03000239
63870K0J4 0J420160809142014108/09/16 14:20:31  5-MIN K0J4 091920Z AUTO 00000KT 10SM -RA BKN025 BKN033 OVC055 29/25 A2991 330 79 2000 000/00 RMK AO2 RAB15 P0000 T02890250
63870K0J4 0J420160809142514108/09/16 14:25:31  5-MIN K0J4 091925Z AUTO 00000KT 10SM -RA SCT022 BKN027 BKN034 29/25 A2991 330 79 2000 000/00 RMK AO2 RAB15 P0000 T02890250
63870K0J4 0J420160809143014008/09/16 14:30:31  5-MIN K0J4 091930Z AUTO VRB03KT 10SM FEW022 BKN030 BKN034 31/25 A2991 330 72 2200 VRB/03 RMK AO2 RAB15E27 P0000 T03060250
63870K0J4 0J420160809143513308/09/16 14:35:31  5-MIN K0J4 091935Z AUTO 23004KT 10SM FEW022 BKN030 30/24 A2990 330 72 2200 230/04 RMK AO2 RAB15E27 P0000 T03000244
63870K0J4 0J420160809144014008/09/16 14:40:31  5-MIN K0J4 091940Z AUTO 23003KT 10SM FEW022 BKN030 BKN055 30/24 A2990 340 72 2200 230/03 RMK AO2 RAB15E27 P0000 T03000244
63870K0J4 0J420160809144514008/09/16 14:45:31  5-MIN K0J4 091945Z AUTO 23004KT 10SM FEW022 SCT030 BKN055 30/24 A2990 340 72 2200 230/04 RMK AO2 RAB15E27 P0000 T03000244
63870K0J4 0J420160809145013308/09/16 14:50:31  5-MIN K0J4 091950Z AUTO VRB05KT 10SM FEW031 BKN050 30/24 A2990 340 72 2200 VRB/05 RMK AO2 RAB15E27 P0000 T03000244
63870K0J4 0J420160809145514708/09/16 14:55:31  5-MIN K0J4 091955Z AUTO VRB03KT 10SM FEW025 SCT031 BKN050 29/24 A2990 340 74 2100 VRB/03 RMK AO2 RAB15E27 SLP119 P0000 T02940244
63870K0J4 0J420160809150012508/09/16 15:00:31  5-MIN K0J4 092000Z AUTO 22005KT 10SM FEW021 SCT025 OVC050 29/24 A2990 340 71 2100 220/05 RMK AO2 T02940239
63870K0J4 0J420160809150511808/09/16 15:05:31  5-MIN K0J4 092005Z AUTO 23007KT 10SM BKN025 OVC055 29/24 A2989 340 76 2100 230/07 RMK AO2 T02890244
63870K0J4 0J420160809151012508/09/16 15:10:31  5-MIN K0J4 092010Z AUTO 23007KT 10SM SCT024 BKN037 OVC055 29/24 A2989 340 76 2100 230/07 RMK AO2 T02890244
63870K0J4 0J420160809151514008/09/16 15:15:31  5-MIN K0J4 092015Z AUTO 22006KT 5SM -RA SCT024 BKN049 OVC060 29/24 A2989 340 76 2100 220/06 RMK AO2 RAB12 P0000 T02890244
63870K0J4 0J420160809152014008/09/16 15:20:31  5-MIN K0J4 092020Z AUTO 24005KT 2SM +RA SCT024 BKN049 OVC060 28/25 A2989 340 84 1900 240/05 RMK AO2 RAB12 P0000 T02780250
63870K0J4 0J420160809152514508/09/16 15:25:31  5-MIN K0J4 092025Z AUTO 25005KT 3/4SM +RA BR FEW019 BKN049 OVC055 28/26 A2989 340 87 1900 250/05 RMK AO2 RAB12 T02780256 PNO $
63870K0J4 0J420160809153014508/09/16 15:30:31  5-MIN K0J4 092030Z AUTO VRB03KT 1/2SM +RA FG FEW017 BKN036 OVC055 27/26 A2990 340 90 1900 VRB/03 RMK AO2 RAB12 T02720256 PNO $
63870K0J4 0J420160809153514508/09/16 15:35:31  5-MIN K0J4 092035Z AUTO VRB05KT 3/4SM -RA BR FEW010 BKN034 OVC060 27/26 A2990 330 93 1800 VRB/05 RMK AO2 RAB12 T02670256 PNO $
63870K0J4 0J420160809154014308/09/16 15:40:31  5-MIN K0J4 092040Z AUTO 03008KT 5SM -RA BR FEW005 BKN034 OVC055 27/25 A2991 330 90 1800 030/08 RMK AO2 RAB12 T02670250 PNO $
63870K0J4 0J420160809154514308/09/16 15:45:31  5-MIN K0J4 092045Z AUTO 03008KT 6SM -RA BR SCT005 BKN016 OVC055 26/24 A2991 330 93 1700 030/08 RMK AO2 RAB12 T02560244 PNO $
63870K0J4 0J420160809155015308/09/16 15:50:31  5-MIN K0J4 092050Z AUTO 01014G17KT 1 1/2SM +RA BR SCT005 BKN011 OVC034 25/24 A2991 330 93 1600 010/14G17 RMK AO2 RAB12 T02500239 PNO $
63870K0J4 0J420160809155513508/09/16 15:55:31  5-MIN K0J4 092055Z AUTO 01009KT 1/2SM +RA FG FEW005 BKN014 OVC034 25/24 A2991 320 93 1600 010/09 RMK AO2 RAB12 PNO $
63870K0J4 0J420160809160013208/09/16 16:00:31  5-MIN K0J4 092100Z AUTO 02006KT 1/4SM +RA FG FEW005 OVC012 25/24 A2992 320 97 1600 020/06 RMK AO2 T02500244 PNO $
63870K0J4 0J420160809160513908/09/16 16:05:31  5-MIN K0J4 092105Z AUTO 23004KT 1/4SM +RA FG FEW005 SCT010 OVC014 25/24 A2991 330 97 1600 230/04 RMK AO2 T02500244 PNO $
63870K0J4 0J420160809161013208/09/16 16:10:31  5-MIN K0J4 092110Z AUTO 26005KT 1/4SM +RA FG FEW005 OVC016 25/24 A2990 330 93 1600 260/05 RMK AO2 T02500239 PNO $
63870K0J4 0J420160809161513908/09/16 16:15:31  5-MIN K0J4 092115Z AUTO VRB04KT 1/2SM +RA FG FEW008 BKN016 OVC070 25/24 A2990 330 93 1600 VRB/04 RMK AO2 T02500239 PNO $
63870K0J4 0J420160809162013708/09/16 16:20:31  5-MIN K0J4 092120Z AUTO 00000KT 1SM -RA BR BKN014 BKN037 OVC070 25/24 A2991 330 93 1600 000/00 RMK AO2 T02500239 PNO $
63870K0J4 0J420160809162513408/09/16 16:25:31  5-MIN K0J4 092125Z AUTO 32004KT 7SM -RA SCT014 BKN037 OVC070 25/24 A2990 330 93 1600 320/04 RMK AO2 T02500239 PNO $
63870K0J4 0J420160809163014008/09/16 16:30:31  5-MIN K0J4 092130Z AUTO 29005KT 10SM VCTS -RA SCT016 SCT037 OVC070 25/24 A2989 350 93 1600 290/05 RMK AO2 T02500239 PNO $
63870K0J4 0J420160809163514608/09/16 16:35:31  5-MIN K0J4 092135Z AUTO 26004KT 9SM VCTS -RA FEW019 SCT037 OVC070 25/24 A2988 350 93 1600 260/04 RMK AO2 PRESFR T02500239 PNO $
63870K0J4 0J420160809164013908/09/16 16:40:31  5-MIN K0J4 092140Z AUTO 29003KT 9SM VCTS -RA FEW014 BKN070 OVC090 25/24 A2989 350 93 1600 290/03 RMK AO2 T02500239 PNO $
63870K0J4 0J420160809164513908/09/16 16:45:31  5-MIN K0J4 092145Z AUTO 31003KT 7SM VCTS -RA FEW008 BKN065 OVC090 25/24 A2989 340 93 1600 310/03 RMK AO2 T02500239 PNO $
63870K0J4 0J420160809165013908/09/16 16:50:31  5-MIN K0J4 092150Z AUTO 00000KT 8SM VCTS -RA FEW004 BKN065 OVC090 25/24 A2990 340 93 1600 000/00 RMK AO2 T02500239 PNO $
63870K0J4 0J420160809165513608/09/16 16:55:31  5-MIN K0J4 092155Z AUTO 00000KT 10SM TS FEW004 BKN065 OVC090 25/24 A2990 340 93 1600 000/00 RMK AO2 RAE53 TSB52 PNO $
63870K0J4 0J420160809170013408/09/16 17:00:31  5-MIN K0J4 092200Z AUTO 00000KT 10SM TS FEW004 BKN075 OVC100 25/24 A2990 340 93 1600 000/00 RMK AO2 T02500239 PNO $
63870K0J4 0J420160809170513408/09/16 17:05:31  5-MIN K0J4 092205Z AUTO 00000KT 10SM TS FEW005 SCT060 BKN080 26/24 A2990 340 93 1700 000/00 RMK AO2 T02560244 PNO $
63870K0J4 0J420160809171013708/09/16 17:10:31  5-MIN K0J4 092210Z AUTO 00000KT 10SM FEW016 SCT060 BKN090 26/24 A2990 330 93 1700 000/00 RMK AO2 TSE07 T02560244 PNO $
63870K0J4 0J420160809171512708/09/16 17:15:31  5-MIN K0J4 092215Z AUTO 10SM FEW006 SCT033 BKN070 26/24 A2990 330 93 1700 M /M RMK AO2 TSE07 T02560244 PNO $
63870K0J4 0J420160809172013708/09/16 17:20:31  5-MIN K0J4 092220Z AUTO 16005KT 10SM FEW008 SCT032 BKN070 26/24 A2990 330 90 1700 160/05 RMK AO2 TSE07 T02560239 PNO $
63870K0J4 0J420160809172513708/09/16 17:25:31  5-MIN K0J4 092225Z AUTO 23003KT 10SM FEW008 SCT032 BKN090 26/24 A2990 340 87 1700 230/03 RMK AO2 TSE07 T02610239 PNO $
63870K0J4 0J420160809173013708/09/16 17:30:31  5-MIN K0J4 092230Z AUTO 00000KT 10SM FEW008 SCT070 BKN110 26/24 A2990 330 87 1700 000/00 RMK AO2 TSE07 T02610239 PNO $
63870K0J4 0J420160809173513708/09/16 17:35:31  5-MIN K0J4 092235Z AUTO 00000KT 10SM FEW008 SCT031 BKN080 26/24 A2990 330 90 1700 000/00 RMK AO2 TSE07 T02610244 PNO $
63870K0J4 0J420160809174013708/09/16 17:40:31  5-MIN K0J4 092240Z AUTO 11003KT 10SM FEW008 SCT031 BKN065 26/24 A2991 330 90 1700 110/03 RMK AO2 TSE07 T02610244 PNO $
63870K0J4 0J420160809174513008/09/16 17:45:31  5-MIN K0J4 092245Z AUTO 08006KT 10SM FEW029 BKN065 26/24 A2991 320 90 1700 080/06 RMK AO2 TSE07 T02610244 PNO $
63870K0J4 0J420160809175014708/09/16 17:50:31  5-MIN K0J4 092250Z AUTO 08007KT 10SM -RA FEW008 SCT029 BKN060 26/24 A2991 320 90 1700 080/07 RMK AO2 RAB48 TSE07 T02610244 PNO $
63870K0J4 0J420160809175514408/09/16 17:55:31  5-MIN K0J4 092255Z AUTO 07008KT 5SM -TSRA BR FEW008 SCT028 OVC060 26/24 A2991 320 93 1700 070/08 RMK AO2 RAB48 TSE07B55 PNO $
63870K0J4 0J420160809180013908/09/16 18:00:31  5-MIN K0J4 092300Z AUTO 07005KT 1SM +TSRA BR FEW004 BKN027 OVC060 26/24 A2991 320 93 1700 070/05 RMK AO2 T02560244 PNO $
63870K0J4 0J420160809180514108/09/16 18:05:31  5-MIN K0J4 092305Z AUTO 03005KT 3/4SM +TSRA BR FEW004 BKN031 OVC060 25/24 A2991 330 97 1600 030/05 RMK AO2 T02500244 PNO $
63870K0J4 0J420160809181014308/09/16 18:10:31  5-MIN K0J4 092310Z AUTO 00000KT 1 1/4SM +TSRA BR FEW004 BKN035 OVC055 25/24 A2991 330 93 1600 000/00 RMK AO2 T02500239 PNO $
63870K0J4 0J420160809181514608/09/16 18:15:31  5-MIN K0J4 092315Z AUTO 00000KT 2 1/2SM RA BR FEW004 SCT033 OVC055 25/24 A2991 330 93 1600 000/00 RMK AO2 TSE15 T02500239 PNO $
63870K0J4 0J420160809182014208/09/16 18:20:31  5-MIN K0J4 092320Z AUTO 00000KT 3SM RA BR FEW003 SCT033 OVC055 25/24 A2991 330 93 1600 000/00 RMK AO2 TSE15 T02500239 PNO $
63870K0J4 0J420160809182514308/09/16 18:25:31  5-MIN K0J4 092325Z AUTO 00000KT 4SM -RA BR FEW036 BKN055 OVC075 25/24 A2991 330 93 1600 000/00 RMK AO2 TSE15 T02500239 PNO $
63870K0J4 0J420160809183014008/09/16 18:30:31  5-MIN K0J4 092330Z AUTO 11003KT 7SM -RA FEW042 BKN055 OVC075 25/24 A2991 330 93 1600 110/03 RMK AO2 TSE15 T02500239 PNO $
63870K0J4 0J420160809183512708/09/16 18:35:31  5-MIN K0J4 092335Z AUTO 12003KT 10SM -RA OVC055 25/24 A2991 320 93 1600 120/03 RMK AO2 TSE15 T02500239 PNO $
63870K0J4 0J420160809184012608/09/16 18:40:31  5-MIN K0J4 092340Z AUTO 14003KT 8SM -RA OVC060 25/24 A2991 320 93 1600 140/03 RMK AO2 TSE15 T02500239 PNO $
63870K0J4 0J420160809184512608/09/16 18:45:31  5-MIN K0J4 092345Z AUTO 13003KT 7SM -RA OVC060 25/24 A2991 320 93 1600 130/03 RMK AO2 TSE15 T02500239 PNO $
63870K0J4 0J420160809185013308/09/16 18:50:31  5-MIN K0J4 092350Z AUTO 00000KT 7SM -RA FEW002 OVC060 25/24 A2991 320 97 1600 000/00 RMK AO2 TSE15 T02500244 PNO $
63870K0J4 0J420160809185516008/09/16 18:55:31  5-MIN K0J4 092355Z AUTO 00000KT 6SM -RA BR OVC060 26/24 A2991 320 93 1700 000/00 RMK AO2 TSE15 SLP125 6//// T02560244 10306 20250 53004 PNO $
63870K0J4 0J420160809190012908/09/16 19:00:31  5-MIN K0J4 100000Z AUTO 00000KT 4SM RA BR FEW047 OVC060 25/24 A2991 320 97 1600 000/00 RMK AO2 T02500244 PNO $
63870K0J4 0J420160809190512908/09/16 19:05:31  5-MIN K0J4 100005Z AUTO 00000KT 2SM RA BR SCT047 OVC060 26/24 A2992 320 93 1700 000/00 RMK AO2 T02560244 PNO $
63870K0J4 0J420160809191013308/09/16 19:10:31  5-MIN K0J4 100010Z AUTO 00000KT 1 3/4SM RA BR BKN049 OVC060 25/24 A2992 320 97 1600 000/00 RMK AO2 T02500244 PNO $
63870K0J4 0J420160809191513608/09/16 19:15:31  5-MIN K0J4 100015Z AUTO 00000KT 2SM RA BR BKN049 BKN060 OVC075 25/24 A2992 320 97 1600 000/00 RMK AO2 T02500244 PNO $
63870K0J4 0J420160809192013708/09/16 19:20:31  5-MIN K0J4 100020Z AUTO 00000KT 3SM -RA BR SCT050 BKN060 OVC075 25/24 A2991 320 97 1600 000/00 RMK AO2 T02500244 PNO $
63870K0J4 0J420160809192513708/09/16 19:25:31  5-MIN K0J4 100025Z AUTO 00000KT 5SM -RA BR SCT050 SCT065 OVC075 25/24 A2991 320 97 1600 000/00 RMK AO2 T02500244 PNO $
63870K0J4 0J420160809193013008/09/16 19:30:31  5-MIN K0J4 100030Z AUTO 00000KT 6SM -RA BR FEW050 OVC075 25/24 A2991 320 97 1600 000/00 RMK AO2 T02500244 PNO $
63870K0J4 0J420160809193512908/09/16 19:35:31  5-MIN K0J4 100035Z AUTO 00000KT 9SM SCT060 OVC075 25/24 A2991 320 97 1600 000/00 RMK AO2 RAE35 T02500244 PNO $
63870K0J4 0J420160809194012308/09/16 19:40:31  5-MIN K0J4 100040Z AUTO 00000KT 10SM OVC070 25/24 A2992 320 97 1600 000/00 RMK AO2 RAE35 T02500244 PNO $
63870K0J4 0J420160809194512308/09/16 19:45:31  5-MIN K0J4 100045Z AUTO 00000KT 10SM OVC070 25/24 A2992 320 97 1600 000/00 RMK AO2 RAE35 T02500244 PNO $
63870K0J4 0J420160809195012308/09/16 19:50:31  5-MIN K0J4 100050Z AUTO 00000KT 10SM OVC070 26/24 A2992 320 93 1700 000/00 RMK AO2 RAE35 T02560244 PNO $
63870K0J4 0J420160809195513708/09/16 19:55:31  5-MIN K0J4 100055Z AUTO 00000KT 10SM FEW060 OVC080 25/24 A2992 320 97 1600 000/00 RMK AO2 RAE35 SLP127 T02500244 PNO $
63870K0J4 0J420160809200012408/09/16 20:00:31  5-MIN K0J4 100100Z AUTO 36003KT 10SM FEW060 OVC075 25/24 A2992 320 97 1600 360/03 RMK AO2 T02500244 PNO $
63870K0J4 0J420160809200512708/09/16 20:05:31  5-MIN K0J4 100105Z AUTO 00000KT 10SM -RA OVC075 25/24 A2992 320 97 1600 000/00 RMK AO2 RAB05 T02500244 PNO $
63870K0J4 0J420160809201012708/09/16 20:10:31  5-MIN K0J4 100110Z AUTO 00000KT 10SM -RA OVC075 25/24 A2992 320 97 1600 000/00 RMK AO2 RAB05 T02500244 PNO $
63870K0J4 0J420160809201512608/09/16 20:15:31  5-MIN K0J4 100115Z AUTO 00000KT 10SM OVC080 25/24 A2992 320 97 1600 000/00 RMK AO2 RAB05E15 T02500244 PNO $
63870K0J4 0J420160809202013308/09/16 20:20:31  5-MIN K0J4 100120Z AUTO 00000KT 10SM BKN080 OVC090 25/24 A2992 310 97 1600 000/00 RMK AO2 RAB05E15 T02500244 PNO $
63870K0J4 0J420160809202513208/09/16 20:25:31  5-MIN K0J4 100125Z AUTO 00000KT 9SM BKN080 OVC090 25/24 A2993 310 97 1600 000/00 RMK AO2 RAB05E15 T02500244 PNO $
63870K0J4 0J420160809203013308/09/16 20:30:31  5-MIN K0J4 100130Z AUTO 00000KT 10SM SCT080 OVC090 25/24 A2993 310 97 1600 000/00 RMK AO2 RAB05E15 T02500244 PNO $
63870K0J4 0J420160809203512608/09/16 20:35:31  5-MIN K0J4 100135Z AUTO 00000KT 10SM OVC085 25/24 A2993 300 97 1600 000/00 RMK AO2 RAB05E15 T02500244 PNO $
63870K0J4 0J420160809204012608/09/16 20:40:31  5-MIN K0J4 100140Z AUTO 00000KT 10SM OVC085 25/24 A2993 300 97 1600 000/00 RMK AO2 RAB05E15 T02500244 PNO $
63870K0J4 0J420160809204512608/09/16 20:45:31  5-MIN K0J4 100145Z AUTO 00000KT 10SM OVC085 25/24 A2993 310 97 1600 000/00 RMK AO2 RAB05E15 T02500244 PNO $
63870K0J4 0J420160809205012608/09/16 20:50:31  5-MIN K0J4 100150Z AUTO 00000KT 10SM OVC085 25/24 A2993 300 97 1600 000/00 RMK AO2 RAB05E15 T02500244 PNO $
63870K0J4 0J420160809205513308/09/16 20:55:31  5-MIN K0J4 100155Z AUTO 00000KT 10SM OVC085 25/24 A2993 300 97 1600 000/00 RMK AO2 RAB05E15 SLP132 T02500244 PNO $
63870K0J4 0J420160809210011708/09/16 21:00:31  5-MIN K0J4 100200Z AUTO 04003KT 10SM OVC080 25/24 A2993 300 97 1600 040/03 RMK AO2 T02500244 PNO $
63870K0J4 0J420160809210511608/09/16 21:05:31  5-MIN K0J4 100205Z AUTO 06003KT 9SM OVC080 25/24 A2994 300 97 1600 060/03 RMK AO2 T02500244 PNO $
63870K0J4 0J420160809211012308/09/16 21:10:31  5-MIN K0J4 100210Z AUTO 00000KT 8SM FEW001 OVC080 25/24 A2994 300 97 1600 000/00 RMK AO2 T02500244 PNO $
63870K0J4 0J420160809211512308/09/16 21:15:31  5-MIN K0J4 100215Z AUTO 00000KT 7SM FEW001 OVC085 25/24 A2994 300 97 1600 000/00 RMK AO2 T02500244 PNO $
63870K0J4 0J420160809212012308/09/16 21:20:31  5-MIN K0J4 100220Z AUTO 00000KT 8SM FEW001 OVC080 25/24 A2995 290 97 1600 000/00 RMK AO2 T02500244 PNO $
63870K0J4 0J420160809212513008/09/16 21:25:31  5-MIN K0J4 100225Z AUTO 08004KT 7SM FEW001 BKN080 OVC090 25/24 A2995 290 93 1600 080/04 RMK AO2 T02500239 PNO $
63870K0J4 0J420160809213012608/09/16 21:30:31  5-MIN K0J4 100230Z AUTO 08005KT 6SM BR BKN001 OVC080 25/24 A2995 290 93 1600 080/05 RMK AO2 T02500239 PNO $
63870K0J4 0J420160809213512608/09/16 21:35:31  5-MIN K0J4 100235Z AUTO 07004KT 6SM BR BKN001 OVC080 25/24 A2995 290 93 1600 070/04 RMK AO2 T02500239 PNO $
63870K0J4 0J420160809214012608/09/16 21:40:31  5-MIN K0J4 100240Z AUTO 09004KT 6SM BR BKN001 OVC080 25/24 A2995 290 93 1600 090/04 RMK AO2 T02500239 PNO $
63870K0J4 0J420160809214512608/09/16 21:45:31  5-MIN K0J4 100245Z AUTO 09003KT 6SM BR BKN001 OVC075 25/24 A2995 290 93 1500 090/03 RMK AO2 T02500239 PNO $
63870K0J4 0J420160809215011608/09/16 21:50:31  5-MIN K0J4 100250Z AUTO 00000KT 7SM OVC001 25/24 A2995 290 93 1500 000/00 RMK AO2 T02500239 PNO $
63870K0J4 0J420160809215514208/09/16 21:55:31  5-MIN K0J4 100255Z AUTO 09003KT 7SM BKN001 OVC090 25/24 A2995 290 93 1500 090/03 RMK AO2 SLP138 6//// T02500239 55000 PNO $
63870K0J4 0J420160809220012308/09/16 22:00:31  5-MIN K0J4 100300Z AUTO 00000KT 8SM BKN001 OVC090 24/24 A2996 280 97 1500 000/00 RMK AO2 T02440239 PNO $
63870K0J4 0J420160809220513008/09/16 22:05:31  5-MIN K0J4 100305Z AUTO 08003KT 8SM SCT001 BKN090 OVC110 24/24 A2996 280 97 1500 080/03 RMK AO2 T02440239 PNO $
63870K0J4 0J420160809221007508/09/16 22:10:31  5-MIN K0J4 100310Z AUTO 00000KT 8SM FEW001 BKN090 BKN110
63870K0J4 0J420160809221013008/09/16 22:10:31  5-MIN K0J4 100310Z AUTO 00000KT 8SM FEW001 BKN090 BKN110 24/24 A2996 280 97 1500 000/00 RMK AO2 T02440239 PNO $
63870K0J4 0J420160809221513008/09/16 22:15:31  5-MIN K0J4 100315Z AUTO 00000KT 8SM FEW001 BKN090 BKN110 24/24 A2996 280 97 1500 000/00 RMK AO2 T02440239 PNO $
63870K0J4 0J420160809222013008/09/16 22:20:31  5-MIN K0J4 100320Z AUTO 00000KT 8SM FEW001 SCT090 BKN110 24/24 A2996 280 97 1500 000/00 RMK AO2 T02440239 PNO $
63870K0J4 0J420160809222512308/09/16 22:25:31  5-MIN K0J4 100325Z AUTO 00000KT 8SM FEW090 SCT110 24/24 A2996 280 97 1500 000/00 RMK AO2 T02440239 PNO $
63870K0J4 0J420160810082014008/10/16 08:20:31  5-MIN K0J4 101320Z AUTO 09004KT 10SM -RA BKN009 BKN013 26/24 A3000 250 90 1600 090/04 RMK AO2 CIG 005V012 P0000 T02560239
63870K0J4 0J420160810082514008/10/16 08:25:31  5-MIN K0J4 101325Z AUTO 08003KT 10SM -RA BKN009 OVC013 26/23 A3000 250 87 1600 080/03 RMK AO2 CIG 005V012 P0000 T02560233
63870K0J4 0J420160810083014208/10/16 08:30:31  5-MIN K0J4 101330Z AUTO 12003KT 10SM BKN007 OVC013 26/24 A3000 240 90 1600 120/03 RMK AO2 RAE27 CIG 005V011 P0000 T02560239
63870K0J4 0J420160810083514208/10/16 08:35:31  5-MIN K0J4 101335Z AUTO 10004KT 10SM BKN007 OVC013 26/24 A3000 240 90 1600 100/04 RMK AO2 RAE27 CIG 005V011 P0000 T02560239
63870K0J4 0J420160810084014208/10/16 08:40:31  5-MIN K0J4 101340Z AUTO VRB04KT 10SM BKN007 OVC013 26/24 A3000 240 90 1600 VRB/04 RMK AO2 RAE27 CIG 005V010 P0000 T02560239
63870K0J4 0J420160810084514208/10/16 08:45:31  5-MIN K0J4 101345Z AUTO 11003KT 10SM BKN007 OVC013 26/24 A3000 250 90 1600 110/03 RMK AO2 RAE27 CIG 005V012 P0000 T02560239
63870K0J4 0J420160810085014208/10/16 08:50:31  5-MIN K0J4 101350Z AUTO 00000KT 10SM BKN007 OVC013 26/24 A3000 240 90 1600 000/00 RMK AO2 RAE27 CIG 005V011 P0000 T02560239
63870K0J4 0J420160810085515608/10/16 08:55:31  5-MIN K0J4 101355Z AUTO 09004KT 10SM -RA BKN009 OVC013 26/24 A3000 240 90 1600 090/04 RMK AO2 RAE27B55 CIG 005V012 SLP155 P0000 T02560239
63870K0J4 0J420160810090014008/10/16 09:00:31  5-MIN K0J4 101400Z AUTO 08003KT 10SM -RA BKN007 OVC013 26/24 A3000 240 90 1600 080/03 RMK AO2 CIG 005V009 P0000 T02560239
63870K0J4 0J420160810090514008/10/16 09:05:31  5-MIN K0J4 101405Z AUTO 09003KT 10SM -RA BKN007 OVC013 26/24 A3000 240 90 1600 090/03 RMK AO2 CIG 005V011 P0000 T02560239
63870K0J4 0J420160810091014908/10/16 09:10:31  5-MIN K0J4 101410Z AUTO 06005KT 10SM BKN007 BKN013 OVC018 26/24 A3000 240 87 1600 060/05 RMK AO2 RAE09 CIG 005V011 P0000 T02610239
63870K0J4 0J420160810091514908/10/16 09:15:31  5-MIN K0J4 101415Z AUTO 09003KT 10SM SCT007 BKN011 OVC017 26/24 A3000 240 87 1600 090/03 RMK AO2 RAE09 CIG 009V012 P0000 T02610239
63870K0J4 0J420160810092013708/10/16 09:20:31  5-MIN K0J4 101420Z AUTO 06004KT 10SM SCT007 SCT010 OVC017 26/24 A3000 240 87 1600 060/04 RMK AO2 RAE09 P0000 T02610239
63870K0J4 0J420160810093008708/10/16 09:30:31  5-MIN K0J4 101430Z AUTO BKN007 OVC017 M M M M /M RMK AO2 T02610239 $
63870K0J4 0J420160810093509108/10/16 09:35:31  5-MIN K0J4 101435Z AUTO 05003KT A3000 M M M 050/03 RMK AO2 RAE09 P0000 $
63870K0J4 0J420160810094011308/10/16 09:40:31  5-MIN K0J4 101440Z AUTO 09004KT 27/24 A3000 240 84 1700 090/04 RMK AO2 RAE09 P0000 T02670239 $
63870K0J4 0J420160810094511808/10/16 09:45:31  5-MIN K0J4 101445Z AUTO 06003KT 10SM 27/24 A3000 240 84 1700 060/03 RMK AO2 RAE09 P0000 T02670239 $
63870K0J4 0J420160810095011808/10/16 09:50:31  5-MIN K0J4 101450Z AUTO 08004KT 10SM 27/24 A3000 240 84 1700 080/04 RMK AO2 RAE09 P0000 T02670239 $
63870K0J4 0J420160810095513108/10/16 09:55:31  5-MIN K0J4 101455Z AUTO 07005KT 10SM 27/24 A3001 230 84 1700 070/05 RMK AO2 RAE09 SLP157 P0000 6//// T02670239 $
63870K0J4 0J420160810100010608/10/16 10:00:31  5-MIN K0J4 101500Z AUTO 08005KT 10SM 27/24 A3001 230 84 1700 080/05 RMK AO2 T02670239 $
63870K0J4 0J420160810100512708/10/16 10:05:31  5-MIN K0J4 101505Z AUTO 07005KT 10SM SCT009 BKN012 OVC026 27/24 A3001 240 84 1700 070/05 RMK AO2 T02720244 $
63870K0J4 0J420160810101012708/10/16 10:10:31  5-MIN K0J4 101510Z AUTO 09003KT 10SM SCT009 BKN013 OVC026 27/24 A3001 230 82 1700 090/03 RMK AO2 T02720239 $
63870K0J4 0J420160810101512708/10/16 10:15:31  5-MIN K0J4 101515Z AUTO 09003KT 10SM BKN009 BKN015 OVC026 27/24 A3001 240 82 1700 090/03 RMK AO2 T02720239 $
63870K0J4 0J420160810102013908/10/16 10:20:31  5-MIN K0J4 101520Z AUTO VRB03KT 10SM BKN009 BKN015 OVC027 27/24 A3001 240 84 1700 VRB/03 RMK AO2 CIG 007V013 T02720244 $
63870K0J4 0J420160810102512708/10/16 10:25:31  5-MIN K0J4 101525Z AUTO 06004KT 10SM SCT009 BKN012 OVC027 28/24 A3001 240 82 1800 060/04 RMK AO2 T02780244 $
63870K0J4 0J420160810103012708/10/16 10:30:31  5-MIN K0J4 101530Z AUTO 07003KT 10SM FEW009 BKN012 BKN018 28/24 A3001 240 82 1800 070/03 RMK AO2 T02780244 $
63870K0J4 0J420160810103513908/10/16 10:35:31  5-MIN K0J4 101535Z AUTO 08005KT 10SM BKN009 BKN016 OVC027 28/24 A3001 240 79 1800 080/05 RMK AO2 CIG 008V012 T02780239 $
63870K0J4 0J420160810104013208/10/16 10:40:31  5-MIN K0J4 101540Z AUTO 09005KT 10SM BKN010 BKN016 28/24 A3000 240 79 1800 090/05 RMK AO2 CIG 008V012 T02780239 $
63870K0J4 0J420160810104512008/10/16 10:45:31  5-MIN K0J4 101545Z AUTO 00000KT 10SM BKN013 BKN018 28/24 A3000 240 79 1800 000/00 RMK AO2 T02780239 $
63870K0J4 0J420160810105012708/10/16 10:50:31  5-MIN K0J4 101550Z AUTO 00000KT 10SM BKN014 BKN021 OVC041 28/24 A3000 240 76 1900 000/00 RMK AO2 T02830239 $
63870K0J4 0J420160810105513408/10/16 10:55:31  5-MIN K0J4 101555Z AUTO 00000KT 10SM BKN014 BKN031 OVC041 28/24 A3000 250 76 1900 000/00 RMK AO2 SLP152 T02830239 $
63870K0J4 0J420160810110012708/10/16 11:00:31  5-MIN K0J4 101600Z AUTO 07005KT 10SM BKN014 BKN020 BKN031 28/24 A3000 250 79 1900 070/05 RMK AO2 T02830244 $
63870K0J4 0J420160810110512708/10/16 11:05:31  5-MIN K0J4 101605Z AUTO VRB03KT 10SM BKN014 BKN020 BKN031 28/24 A3000 250 79 1900 VRB/03 RMK AO2 T02830244 $
63870K0J4 0J420160810111012708/10/16 11:10:31  5-MIN K0J4 101610Z AUTO 06005KT 10SM BKN014 BKN020 OVC031 28/24 A3000 250 79 1900 060/05 RMK AO2 T02830244 $
63870K0J4 0J420160810111512008/10/16 11:15:31  5-MIN K0J4 101615Z AUTO VRB05KT 10SM BKN016 BKN031 28/24 A3000 250 79 1900 VRB/05 RMK AO2 T02830244 $
63870K0J4 0J420160810112012708/10/16 11:20:31  5-MIN K0J4 101620Z AUTO VRB04KT 10SM SCT013 BKN018 OVC095 29/24 A2999 250 76 1900 VRB/04 RMK AO2 T02890244 $
63870K0J4 0J420160810112512708/10/16 11:25:31  5-MIN K0J4 101625Z AUTO 11005KT 10SM FEW013 SCT018 BKN100 28/24 A2999 250 76 1900 110/05 RMK AO2 T02830239 $
63870K0J4 0J420160810113012708/10/16 11:30:31  5-MIN K0J4 101630Z AUTO VRB04KT 10SM FEW015 SCT020 BKN100 28/24 A2999 250 76 1900 VRB/04 RMK AO2 T02830239 $
63870K0J4 0J420160810113512008/10/16 11:35:31  5-MIN K0J4 101635Z AUTO VRB05KT 10SM FEW015 BKN100 29/24 A2999 250 74 1900 VRB/05 RMK AO2 T02890239 $
63870K0J4 0J420160810114012008/10/16 11:40:31  5-MIN K0J4 101640Z AUTO 12005KT 10SM FEW016 BKN100 29/24 A2999 250 74 1900 120/05 RMK AO2 T02890239 $
63870K0J4 0J420160810114512008/10/16 11:45:31  5-MIN K0J4 101645Z AUTO VRB04KT 10SM FEW016 BKN100 29/24 A2999 250 76 1900 VRB/04 RMK AO2 T02890244 $
63870K0J4 0J420160810115011008/10/16 11:50:31  5-MIN K0J4 101650Z AUTO 10SM SCT018 BKN100 29/24 A2998 260 71 2000 M /M RMK AO2 T02940239 $
63870K0J4 0J420160810115512708/10/16 11:55:31  5-MIN K0J4 101655Z AUTO 06004KT 10SM SCT018 BKN095 30/24 A2998 260 69 2100 060/04 RMK AO2 SLP148 T03000239 $
63870K0J4 0J420160810120012008/10/16 12:00:31  5-MIN K0J4 101700Z AUTO 07005KT 10SM SCT018 BKN090 30/24 A2998 260 72 2100 070/05 RMK AO2 T03000244 $
63870K0J4 0J420160810120512008/10/16 12:05:31  5-MIN K0J4 101705Z AUTO 00000KT 10SM FEW018 SCT090 30/24 A2998 260 72 2100 000/00 RMK AO2 T03000244 $
63870K0J4 0J420160810121012008/10/16 12:10:31  5-MIN K0J4 101710Z AUTO VRB05KT 10SM SCT018 BKN090 30/24 A2998 260 72 2100 VRB/05 RMK AO2 T03000244 $
63870K0J4 0J420160810121512008/10/16 12:15:31  5-MIN K0J4 101715Z AUTO 11005KT 10SM BKN018 BKN090 31/25 A2998 260 72 2100 110/05 RMK AO2 T03060250 $
63870K0J4 0J420160810122012708/10/16 12:20:31  5-MIN K0J4 101720Z AUTO VRB05KT 10SM SCT018 SCT038 SCT095 30/24 A2998 260 72 2100 VRB/05 RMK AO2 T03000244 $
63870K0J4 0J420160810122512708/10/16 12:25:31  5-MIN K0J4 101725Z AUTO 09005KT 10SM FEW018 SCT040 SCT060 29/24 A2998 260 76 2000 090/05 RMK AO2 T02890244 $
63870K0J4 0J420160810123012708/10/16 12:30:31  5-MIN K0J4 101730Z AUTO 10004KT 10SM FEW018 SCT040 BKN055 29/24 A2997 270 74 2000 100/04 RMK AO2 T02890239 $
63870K0J4 0J420160810123512708/10/16 12:35:31  5-MIN K0J4 101735Z AUTO 09004KT 10SM FEW018 SCT040 BKN055 29/24 A2997 270 76 2000 090/04 RMK AO2 T02890244 $
63870K0J4 0J420160810124012008/10/16 12:40:31  5-MIN K0J4 101740Z AUTO 08004KT 10SM SCT040 BKN060 29/24 A2997 270 74 2000 080/04 RMK AO2 T02940244 $
63870K0J4 0J420160810124512008/10/16 12:45:31  5-MIN K0J4 101745Z AUTO 09003KT 10SM SCT042 BKN055 29/24 A2997 270 74 2000 090/03 RMK AO2 T02890239 $
63870K0J4 0J420160810125012708/10/16 12:50:31  5-MIN K0J4 101750Z AUTO 08006KT 10SM FEW032 BKN044 BKN055 29/24 A2997 270 76 2000 080/06 RMK AO2 T02890244 $
63870K0J4 0J420160810125515208/10/16 12:55:31  5-MIN K0J4 101755Z AUTO 08006KT 10SM FEW020 BKN044 OVC055 29/24 A2998 260 74 2000 080/06 RMK AO2 SLP146 6//// T02890239 10306 20244 $
63870K0J4 0J420160810130012708/10/16 13:00:31  5-MIN K0J4 101800Z AUTO 10005KT 10SM SCT022 BKN032 OVC060 28/24 A2998 270 79 1900 100/05 RMK AO2 T02830244 $
63870K0J4 0J420160810130514208/10/16 13:05:31  5-MIN K0J4 101805Z AUTO 08006KT 8SM -RA FEW016 BKN022 OVC045 28/24 A2997 270 82 1800 080/06 RMK AO2 RAB03 P0000 T02780244 $
63870K0J4 0J420160810131014408/10/16 13:10:31  5-MIN K0J4 101810Z AUTO 08005KT 4SM RA BR SCT016 BKN024 OVC047 27/25 A2998 260 87 1800 080/05 RMK AO2 RAB03 P0000 T02720250 $
63870K0J4 0J420160810131514808/10/16 13:15:31  5-MIN K0J4 101815Z AUTO 14004KT 2 1/2SM RA BR FEW017 BKN029 OVC036 27/25 A2998 260 90 1700 140/04 RMK AO2 RAB03 P0000 T02670250 $
63870K0J4 0J420160810132014508/10/16 13:20:31  5-MIN K0J4 101820Z AUTO 15004KT 3SM -RA BR FEW017 BKN031 OVC036 27/25 A2998 260 90 1700 150/04 RMK AO2 RAB03 P0000 T02670250 $
63870K0J4 0J420160810132515308/10/16 13:25:31  5-MIN K0J4 101825Z AUTO 16005KT 2SM +RA BR FEW017 BKN034 OVC047 27/25 A2998 260 90 1700 160/05 RMK AO2 VIS 3/4V5 RAB03 T02670250 PNO $
63870K0J4 0J420160810133014608/10/16 13:30:31  5-MIN K0J4 101830Z AUTO 17005KT 1 3/4SM RA BR SCT017 BKN034 OVC045 27/25 A2998 260 90 1700 170/05 RMK AO2 RAB03 T02670250 PNO $
63870K0J4 0J420160810133514208/10/16 13:35:31  5-MIN K0J4 101835Z AUTO 16003KT 3SM RA BR FEW014 BKN028 OVC038 27/25 A2998 260 90 1700 160/03 RMK AO2 RAB03 T02670250 PNO $
63870K0J4 0J420160810134014708/10/16 13:40:31  5-MIN K0J4 101840Z AUTO 17003KT 2 1/2SM +RA BR SCT012 BKN022 OVC036 27/25 A2998 260 90 1700 170/03 RMK AO2 RAB03 T02670250 PNO $
63870K0J4 0J420160810134514208/10/16 13:45:31  5-MIN K0J4 101845Z AUTO 16006KT 2SM RA BR SCT010 BKN014 OVC033 27/25 A2998 260 90 1700 160/06 RMK AO2 RAB03 T02670250 PNO $
63870K0J4 0J420160810135014708/10/16 13:50:31  5-MIN K0J4 101850Z AUTO 16006KT 1 3/4SM +RA BR FEW006 BKN012 OVC033 26/25 A2998 260 93 1600 160/06 RMK AO2 RAB03 T02610250 PNO $
63870K0J4 0J420160810135513308/10/16 13:55:31  5-MIN K0J4 101855Z AUTO 15006KT 2SM -RA BR SCT007 BKN014 OVC031 26/25 A2998 260 93 1600 150/06 RMK AO2 RAB03 PNO $
63870K0J4 0J420160810140013708/10/16 14:00:31  5-MIN K0J4 101900Z AUTO 18011KT 3SM -RA BR FEW006 BKN022 OVC055 26/24 A2998 260 90 1600 180/11 RMK AO2 T02610244 PNO $
63870K0J4 0J420160810140513708/10/16 14:05:31  5-MIN K0J4 101905Z AUTO 17008KT 3SM -RA BR FEW005 BKN012 OVC055 26/24 A2998 260 90 1600 170/08 RMK AO2 T02610244 PNO $
63870K0J4 0J420160810141013708/10/16 14:10:31  5-MIN K0J4 101910Z AUTO 18008KT 3SM -RA BR FEW006 BKN013 OVC055 26/25 A2998 260 93 1600 180/08 RMK AO2 T02610250 PNO $
63870K0J4 0J420160810141513708/10/16 14:15:31  5-MIN K0J4 101915Z AUTO 19009KT 3SM -RA BR FEW007 BKN032 OVC050 26/24 A2998 270 93 1600 190/09 RMK AO2 T02560244 PNO $
63870K0J4 0J420160810142014108/10/16 14:20:31  5-MIN K0J4 101920Z AUTO 20007KT 2 1/2SM -RA BR FEW006 BKN034 OVC042 26/25 A2998 270 93 1600 200/07 RMK AO2 T02610250 PNO $
63870K0J4 0J420160810142513708/10/16 14:25:31  5-MIN K0J4 101925Z AUTO 20008KT 3SM -RA BR SCT006 BKN036 OVC055 26/25 A2998 260 97 1600 200/08 RMK AO2 T02560250 PNO $
63870K0J4 0J420160810143013708/10/16 14:30:31  5-MIN K0J4 101930Z AUTO 21008KT 4SM -RA BR SCT006 BKN031 OVC039 26/24 A2997 270 93 1600 210/08 RMK AO2 T02560244 PNO $
63870K0J4 0J420160810143513208/10/16 14:35:31  5-MIN K0J4 101935Z AUTO 21008KT 7SM -RA FEW004 SCT031 OVC039 26/24 A2997 270 90 1700 210/08 RMK AO2 T02610244 PNO
63870K0J4 0J420160810144013308/10/16 14:40:31  5-MIN K0J4 101940Z AUTO 22006KT 10SM -RA SCT006 SCT029 OVC039 26/24 A2997 270 90 1700 220/06 RMK AO2 T02610244 PNO
63870K0J4 0J420160810144513308/10/16 14:45:31  5-MIN K0J4 101945Z AUTO 21007KT 10SM -RA SCT006 BKN029 OVC039 26/25 A2997 270 93 1700 210/07 RMK AO2 T02610250 PNO
63870K0J4 0J420160810145013108/10/16 14:50:31  5-MIN K0J4 101950Z AUTO 20006KT 10SM SCT007 BKN029 OVC039 27/25 A2997 270 90 1700 200/06 RMK AO2 RAE47 T02670250
63870K0J4 0J420160810145512108/10/16 14:55:31  5-MIN K0J4 101955Z AUTO 20006KT 10SM SCT007 BKN030 OVC041 27/25 A2997 270 87 1800 200/06 RMK AO2 RAE47
63870K0J4 0J420160810150012508/10/16 15:00:31  5-MIN K0J4 102000Z AUTO 20008KT 10SM FEW007 BKN011 OVC041 27/25 A2996 280 90 1700 200/08 RMK AO2 T02670250
63870K0J4 0J420160810150513708/10/16 15:05:31  5-MIN K0J4 102005Z AUTO 19008KT 10SM BKN009 BKN015 OVC030 27/25 A2996 280 90 1700 190/08 RMK AO2 CIG 005V011 T02670250
63870K0J4 0J420160810151013708/10/16 15:10:31  5-MIN K0J4 102010Z AUTO 20009KT 10SM BKN009 BKN015 OVC030 27/25 A2996 280 90 1700 200/09 RMK AO2 CIG 005V012 T02670250
63870K0J4 0J420160810151513708/10/16 15:15:31  5-MIN K0J4 102015Z AUTO 21007KT 10SM BKN008 BKN015 OVC095 27/25 A2995 290 87 1800 210/07 RMK AO2 CIG 006V012 T02720250
63870K0J4 0J420160810152013708/10/16 15:20:31  5-MIN K0J4 102020Z AUTO 21009KT 10SM BKN008 BKN015 BKN100 27/25 A2995 290 87 1800 210/09 RMK AO2 CIG 006V012 T02720250
63870K0J4 0J420160810152512508/10/16 15:25:31  5-MIN K0J4 102025Z AUTO 22013KT 10SM SCT008 BKN012 BKN100 28/25 A2995 290 84 1900 220/13 RMK AO2 T02780250
63870K0J4 0J420160810153011808/10/16 15:30:31  5-MIN K0J4 102030Z AUTO 21011KT 10SM SCT010 BKN100 28/25 A2995 290 84 1900 210/11 RMK AO2 T02780250
63870K0J4 0J420160810153512508/10/16 15:35:31  5-MIN K0J4 102035Z AUTO 22009KT 10SM FEW008 SCT012 SCT095 28/25 A2995 290 82 1900 220/09 RMK AO2 T02830250
63870K0J4 0J420160810154013108/10/16 15:40:31  5-MIN K0J4 102040Z AUTO 22009G18KT 10SM FEW008 SCT012 SCT095 28/24 A2995 290 82 1900 220/09G18 RMK AO2 T02780244
63870K0J4 0J420160810154512408/10/16 15:45:31  5-MIN K0J4 102045Z AUTO 21011G18KT 10SM SCT014 BKN100 27/24 A2995 290 82 1800 210/11G18 RMK AO2 T02720239
63870K0J4 0J420160810155011108/10/16 15:50:31  5-MIN K0J4 102050Z AUTO 21011KT 10SM BKN016 28/24 A2995 290 82 1900 210/11 RMK AO2 T02780244
63870K0J4 0J420160810155513008/10/16 15:55:31  5-MIN K0J4 102055Z AUTO 21010KT 10SM BKN016 28/24 A2995 280 79 1900 210/10 RMK AO2 SLP139 6//// T02780239 56011
63870K0J4 0J420160810160011108/10/16 16:00:31  5-MIN K0J4 102100Z AUTO 21009KT 10SM BKN016 28/24 A2996 280 82 1900 210/09 RMK AO2 T02780244
63870K0J4 0J420160810160511808/10/16 16:05:31  5-MIN K0J4 102105Z AUTO 21008KT 10SM SCT016 OVC021 28/24 A2996 280 82 1900 210/08 RMK AO2 T02780244
63870K0J4 0J420160810161011808/10/16 16:10:31  5-MIN K0J4 102110Z AUTO 19008KT 10SM SCT014 OVC021 28/24 A2996 280 82 1900 190/08 RMK AO2 T02780244
63870K0J4 0J420160810161512508/10/16 16:15:31  5-MIN K0J4 102115Z AUTO 21009KT 10SM SCT014 BKN021 OVC025 28/24 A2995 280 82 1900 210/09 RMK AO2 T02780244
63870K0J4 0J420160810162012508/10/16 16:20:31  5-MIN K0J4 102120Z AUTO 19007KT 10SM SCT014 BKN019 BKN025 28/24 A2996 280 79 1900 190/07 RMK AO2 T02780239
63870K0J4 0J420160810162511808/10/16 16:25:31  5-MIN K0J4 102125Z AUTO 18007KT 10SM SCT014 OVC022 28/24 A2996 280 79 1900 180/07 RMK AO2 T02780239
63870K0J4 0J420160810163011808/10/16 16:30:31  5-MIN K0J4 102130Z AUTO 20006KT 10SM SCT014 OVC022 27/24 A2995 290 82 1800 200/06 RMK AO2 T02720239
63870K0J4 0J420160810163512508/10/16 16:35:31  5-MIN K0J4 102135Z AUTO 20006KT 10SM SCT013 BKN020 BKN025 27/24 A2995 290 84 1800 200/06 RMK AO2 T02720244
63870K0J4 0J420160810164012508/10/16 16:40:31  5-MIN K0J4 102140Z AUTO 21006KT 10SM FEW013 SCT022 BKN027 27/24 A2995 290 82 1800 210/06 RMK AO2 T02720239
63870K0J4 0J420160810164512508/10/16 16:45:31  5-MIN K0J4 102145Z AUTO 19006KT 10SM FEW013 SCT020 BKN029 27/24 A2995 290 82 1800 190/06 RMK AO2 T02720239
63870K0J4 0J420160810165012508/10/16 16:50:31  5-MIN K0J4 102150Z AUTO 21006KT 10SM FEW013 SCT020 BKN027 27/24 A2995 290 82 1800 210/06 RMK AO2 T02720239
63870K0J4 0J420160810165511508/10/16 16:55:31  5-MIN K0J4 102155Z AUTO 21008KT 10SM FEW016 BKN026 BKN040 27/24 A2995 290 82 1800 210/08 RMK AO2
63870K0J4 0J420160810170012508/10/16 17:00:31  5-MIN K0J4 102200Z AUTO 24005KT 10SM SCT016 SCT023 BKN028 27/24 A2995 290 82 1800 240/05 RMK AO2 T02720239
63870K0J4 0J420160810170512508/10/16 17:05:31  5-MIN K0J4 102205Z AUTO 23005KT 10SM SCT016 BKN021 OVC041 27/24 A2995 280 82 1800 230/05 RMK AO2 T02720239
63870K0J4 0J420160810171012508/10/16 17:10:31  5-MIN K0J4 102210Z AUTO 22004KT 10SM FEW015 BKN024 OVC039 27/24 A2995 280 82 1800 220/04 RMK AO2 T02720239
63870K0J4 0J420160810171512508/10/16 17:15:31  5-MIN K0J4 102215Z AUTO 19005KT 10SM SCT015 BKN024 OVC039 28/24 A2995 280 82 1900 190/05 RMK AO2 T02780244
63870K0J4 0J420160810172014108/10/16 17:20:31  5-MIN K0J4 102220Z AUTO 21006KT 10SM -RA SCT015 BKN020 OVC039 28/24 A2995 280 79 1900 210/06 RMK AO2 RAB16 P0000 T02780239
63870K0J4 0J420160810172514108/10/16 17:25:31  5-MIN K0J4 102225Z AUTO 21008KT 10SM -RA SCT015 BKN020 OVC038 28/24 A2996 280 79 1900 210/08 RMK AO2 RAB16 P0000 T02780239
63870K0J4 0J420160810173014008/10/16 17:30:31  5-MIN K0J4 102230Z AUTO 21006KT 10SM SCT015 BKN020 OVC038 27/24 A2996 280 82 1800 210/06 RMK AO2 RAB16E28 P0000 T02720239
63870K0J4 0J420160810173514008/10/16 17:35:31  5-MIN K0J4 102235Z AUTO 20005KT 10SM SCT015 BKN020 OVC050 27/24 A2996 280 82 1800 200/05 RMK AO2 RAB16E28 P0000 T02720239
63870K0J4 0J420160810174014008/10/16 17:40:31  5-MIN K0J4 102240Z AUTO 19003KT 10SM FEW015 BKN039 OVC050 27/24 A2996 280 82 1800 190/03 RMK AO2 RAB16E28 P0000 T02720239
63870K0J4 0J420160810174514008/10/16 17:45:31  5-MIN K0J4 102245Z AUTO 18004KT 10SM FEW015 BKN039 OVC050 28/24 A2996 280 79 1900 180/04 RMK AO2 RAB16E28 P0000 T02780239
63870K0J4 0J420160810175014008/10/16 17:50:31  5-MIN K0J4 102250Z AUTO 18004KT 10SM FEW017 BKN041 OVC100 28/24 A2996 280 79 1900 180/04 RMK AO2 RAB16E28 P0000 T02780239
63870K0J4 0J420160810175514708/10/16 17:55:31  5-MIN K0J4 102255Z AUTO 16003KT 10SM FEW019 BKN041 OVC100 27/24 A2996 280 82 1800 160/03 RMK AO2 RAB16E28 SLP140 P0000 T02720239
63870K0J4 0J420160810180012508/10/16 18:00:31  5-MIN K0J4 102300Z AUTO 17003KT 10SM SCT019 BKN026 OVC095 27/24 A2996 280 82 1800 170/03 RMK AO2 T02720239
63870K0J4 0J420160810180512508/10/16 18:05:31  5-MIN K0J4 102305Z AUTO 16007KT 10SM SCT019 BKN024 OVC095 27/24 A2996 280 82 1800 160/07 RMK AO2 T02720239
63870K0J4 0J420160810181014108/10/16 18:10:31  5-MIN K0J4 102310Z AUTO 16005KT 10SM -RA FEW019 BKN024 OVC043 27/24 A2996 280 87 1700 160/05 RMK AO2 RAB08 P0000 T02670244
63870K0J4 0J420160810181514008/10/16 18:15:31  5-MIN K0J4 102315Z AUTO 16007KT 9SM -RA FEW018 BKN027 OVC070 26/24 A2997 270 87 1700 160/07 RMK AO2 RAB08 P0000 T02610239
63870K0J4 0J420160810182014008/10/16 18:20:31  5-MIN K0J4 102320Z AUTO 16006KT 8SM -RA SCT016 BKN025 OVC039 26/24 A2997 270 90 1700 160/06 RMK AO2 RAB08 P0000 T02610244
63870K0J4 0J420160810182514008/10/16 18:25:31  5-MIN K0J4 102325Z AUTO 16007KT 9SM -RA BKN019 BKN029 OVC060 26/24 A2997 270 90 1700 160/07 RMK AO2 RAB08 P0000 T02610244
63870K0J4 0J420160810183014008/10/16 18:30:31  5-MIN K0J4 102330Z AUTO 15006KT 7SM -RA SCT019 BKN029 OVC070 26/24 A2997 270 93 1600 150/06 RMK AO2 RAB08 P0000 T02560244
63870K0J4 0J420160810183514008/10/16 18:35:31  5-MIN K0J4 102335Z AUTO 17006KT 8SM -RA SCT024 BKN055 OVC070 26/24 A2997 270 93 1600 170/06 RMK AO2 RAB08 P0000 T02560244
63870K0J4 0J420160810184014108/10/16 18:40:31  5-MIN K0J4 102340Z AUTO 17006KT 10SM -RA FEW017 BKN050 OVC080 26/24 A2997 270 93 1600 170/06 RMK AO2 RAB08 P0000 T02560244
63870K0J4 0J420160810184514108/10/16 18:45:31  5-MIN K0J4 102345Z AUTO 18005KT 10SM -RA FEW018 BKN055 OVC070 26/24 A2997 270 93 1600 180/05 RMK AO2 RAB08 P0000 T02560244
63870K0J4 0J420160810185014108/10/16 18:50:31  5-MIN K0J4 102350Z AUTO 18006KT 10SM -RA FEW036 BKN070 OVC100 26/24 A2998 260 93 1600 180/06 RMK AO2 RAB08 P0000 T02560244
63870K0J4 0J420160810185517208/10/16 18:55:31  5-MIN K0J4 102355Z AUTO 18006KT 10SM -RA FEW005 BKN070 OVC100 26/24 A2998 260 93 1600 180/06 RMK AO2 RAB08 SLP146 P0000 6//// T02560244 10306 20256 58007
63870K0J4 0J420160810190013508/10/16 19:00:31  5-MIN K0J4 110000Z AUTO 18007KT 10SM -RA SCT055 BKN070 OVC100 26/24 A2998 260 93 1600 180/07 RMK AO2 P0000 T02560244
63870K0J4 0J420160810190513408/10/16 19:05:31  5-MIN K0J4 110005Z AUTO 18007KT 9SM -RA FEW006 SCT050 OVC070 26/24 A2998 260 93 1600 180/07 RMK AO2 P0000 T02560244
63870K0J4 0J420160810191013608/10/16 19:10:31  5-MIN K0J4 110010Z AUTO 18007KT 3SM RA BR FEW006 BKN050 OVC070 26/24 A2998 260 93 1600 180/07 RMK AO2 P0000 T02560244
63870K0J4 0J420160810191513708/10/16 19:15:31  5-MIN K0J4 110015Z AUTO 18005KT 2SM -RA BR FEW008 BKN050 OVC070 26/24 A2998 260 93 1600 180/05 RMK AO2 P0000 T02560244
63870K0J4 0J420160810192013708/10/16 19:20:31  5-MIN K0J4 110020Z AUTO 18006KT 3SM -RA BR FEW008 BKN050 OVC085 25/24 A2998 260 97 1500 180/06 RMK AO2 P0000 T02500244
63870K0J4 0J420160810192513708/10/16 19:25:31  5-MIN K0J4 110025Z AUTO 18005KT 6SM -RA BR FEW006 BKN065 OVC080 25/24 A2999 260 93 1500 180/05 RMK AO2 P0000 T02500239
63870K0J4 0J420160810193013608/10/16 19:30:31  5-MIN K0J4 110030Z AUTO 17005KT 9SM FEW006 BKN070 OVC085 25/24 A2999 250 93 1500 170/05 RMK AO2 RAE30 P0000 T02500239
63870K0J4 0J420160810193513708/10/16 19:35:31  5-MIN K0J4 110035Z AUTO 18005KT 10SM FEW004 BKN070 OVC085 25/24 A2999 260 93 1500 180/05 RMK AO2 RAE30 P0000 T02500239
63870K0J4 0J420160810194013708/10/16 19:40:31  5-MIN K0J4 110040Z AUTO 16004KT 10SM FEW008 BKN070 OVC085 25/24 A2999 250 93 1500 160/04 RMK AO2 RAE30 P0000 T02500239
63870K0J4 0J420160810194513708/10/16 19:45:31  5-MIN K0J4 110045Z AUTO 16005KT 10SM FEW007 BKN070 OVC110 25/24 A2999 250 93 1500 160/05 RMK AO2 RAE30 P0000 T02500239
63870K0J4 0J420160810195013708/10/16 19:50:31  5-MIN K0J4 110050Z AUTO 15006KT 10SM FEW004 BKN070 OVC110 25/24 A2999 250 93 1500 150/06 RMK AO2 RAE30 P0000 T02500239
63870K0J4 0J420160810195514408/10/16 19:55:31  5-MIN K0J4 110055Z AUTO 15004KT 10SM FEW004 BKN070 OVC100 25/24 A2999 250 93 1500 150/04 RMK AO2 RAE30 SLP150 P0000 T02500239
63870K0J4 0J420160810200012508/10/16 20:00:31  5-MIN K0J4 110100Z AUTO 15004KT 10SM SCT004 BKN070 OVC110 24/24 A2999 250 97 1400 150/04 RMK AO2 T02440239
63870K0J4 0J420160810200512508/10/16 20:05:31  5-MIN K0J4 110105Z AUTO 14005KT 10SM FEW003 BKN080 OVC110 24/23 A2999 250 93 1400 140/05 RMK AO2 T02440233
63870K0J4 0J420160810201012508/10/16 20:10:31  5-MIN K0J4 110110Z AUTO 13004KT 10SM FEW003 BKN085 OVC100 24/23 A2999 250 93 1400 130/04 RMK AO2 T02440233
63870K0J4 0J420160810201512508/10/16 20:15:31  5-MIN K0J4 110115Z AUTO 15004KT 10SM FEW003 BKN085 BKN100 24/23 A2999 250 93 1400 150/04 RMK AO2 T02440233
63870K0J4 0J420160810202011808/10/16 20:20:31  5-MIN K0J4 110120Z AUTO 14004KT 10SM FEW003 BKN085 24/23 A2999 250 93 1400 140/04 RMK AO2 T02440233
63870K0J4 0J420160810202511108/10/16 20:25:31  5-MIN K0J4 110125Z AUTO 14004KT 10SM SCT080 24/23 A2999 250 93 1400 140/04 RMK AO2 T02440233
63870K0J4 0J420160810203011108/10/16 20:30:31  5-MIN K0J4 110130Z AUTO 14004KT 10SM SCT085 24/23 A3000 250 97 1400 140/04 RMK AO2 T02390233
63870K0J4 0J420160810203511108/10/16 20:35:31  5-MIN K0J4 110135Z AUTO 15004KT 10SM FEW085 24/23 A3000 240 97 1400 150/04 RMK AO2 T02390233
63870K0J4 0J420160810204010808/10/16 20:40:31  5-MIN K0J4 110140Z AUTO 15004KT 10SM CLR 24/23 A3000 240 97 1400 150/04 RMK AO2 T02390233
63870K0J4 0J420160810204510808/10/16 20:45:31  5-MIN K0J4 110145Z AUTO 14003KT 10SM CLR 24/23 A3001 240 97 1400 140/03 RMK AO2 T02390233
63870K0J4 0J420160810205010808/10/16 20:50:31  5-MIN K0J4 110150Z AUTO 15004KT 10SM CLR 24/23 A3001 230 97 1400 150/04 RMK AO2 T02390233
63870K0J4 0J420160810205511508/10/16 20:55:31  5-MIN K0J4 110155Z AUTO 14004KT 10SM CLR 24/23 A3001 230 97 1400 140/04 RMK AO2 SLP158 T02390233
63870K0J4 0J420160810210011108/10/16 21:00:31  5-MIN K0J4 110200Z AUTO 14004KT 10SM FEW003 24/23 A3001 230 97 1400 140/04 RMK AO2 T02390233
63870K0J4 0J420160810210511108/10/16 21:05:31  5-MIN K0J4 110205Z AUTO 15004KT 10SM SCT003 24/23 A3001 230 97 1400 150/04 RMK AO2 T02390233
63870K0J4 0J420160810211011108/10/16 21:10:31  5-MIN K0J4 110210Z AUTO 15004KT 10SM SCT003 24/23 A3002 230 97 1400 150/04 RMK AO2 T02390233
63870K0J4 0J420160810211511108/10/16 21:15:31  5-MIN K0J4 110215Z AUTO 15004KT 10SM BKN003 24/23 A3002 220 93 1400 150/04 RMK AO2 T02440233
63870K0J4 0J420160810212011108/10/16 21:20:31  5-MIN K0J4 110220Z AUTO 15004KT 10SM BKN003 24/23 A3002 220 93 1400 150/04 RMK AO2 T02440233
63870K0J4 0J420160810212511108/10/16 21:25:31  5-MIN K0J4 110225Z AUTO 14004KT 10SM OVC003 24/23 A3002 220 93 1400 140/04 RMK AO2 T02440233
63870K0J4 0J420160810213011108/10/16 21:30:31  5-MIN K0J4 110230Z AUTO 15004KT 10SM OVC003 24/23 A3003 220 93 1400 150/04 RMK AO2 T02440233
63870K0J4 0J420160810213511108/10/16 21:35:31  5-MIN K0J4 110235Z AUTO 13004KT 10SM OVC003 24/23 A3003 220 93 1400 130/04 RMK AO2 T02440233
63870K0J4 0J420160810214011108/10/16 21:40:31  5-MIN K0J4 110240Z AUTO VRB04KT 10SM OVC003 24/24 A3003 220 97 1400 VRB/04 RMK AO2 T02440239
63870K0J4 0J420160810214511108/10/16 21:45:31  5-MIN K0J4 110245Z AUTO 15005KT 10SM OVC003 24/24 A3003 220 97 1400 150/05 RMK AO2 T02440239
63870K0J4 0J420160810215011108/10/16 21:50:31  5-MIN K0J4 110250Z AUTO 16005KT 10SM OVC003 24/24 A3003 210 97 1400 160/05 RMK AO2 T02440239
63870K0J4 0J420160810215513008/10/16 21:55:31  5-MIN K0J4 110255Z AUTO 15003KT 10SM OVC003 24/24 A3003 220 97 1400 150/03 RMK AO2 SLP164 60000 T02440239 53007
63870K0J4 0J420160810220011108/10/16 22:00:31  5-MIN K0J4 110300Z AUTO 15004KT 10SM OVC003 24/24 A3003 210 97 1400 150/04 RMK AO2 T02440239
63870K0J4 0J420160810220511108/10/16 22:05:31  5-MIN K0J4 110305Z AUTO 15003KT 10SM OVC003 24/24 A3003 210 97 1400 150/03 RMK AO2 T02440239
63870K0J4 0J420160810221012708/10/16 22:10:31  5-MIN K0J4 110310Z AUTO 15005KT 10SM -RA OVC003 25/24 A3003 220 93 1500 150/05 RMK AO2 RAB07 P0000 T02500239
63870K0J4 0J420160810221512708/10/16 22:15:31  5-MIN K0J4 110315Z AUTO 14005KT 10SM -RA OVC003 25/24 A3003 220 93 1500 140/05 RMK AO2 RAB07 P0000 T02500239
63870K0J4 0J420160810222014608/10/16 22:20:31  5-MIN K0J4 110320Z AUTO 15007KT 10SM -RA BKN003 OVC015 25/24 A3003 220 93 1500 150/07 RMK AO2 RAB07 CIG 002V008 P0000 T02500239
63870K0J4 0J420160810222514508/10/16 22:25:31  5-MIN K0J4 110325Z AUTO 16005KT 8SM -RA BKN003 OVC017 25/24 A3003 220 93 1500 160/05 RMK AO2 RAB07 CIG 002V008 P0000 T02500239
63870K0J4 0J420160810223014808/10/16 22:30:31  5-MIN K0J4 110330Z AUTO 15005KT 6SM -RA BR BKN003 OVC019 25/24 A3002 220 93 1500 150/05 RMK AO2 RAB07 CIG 002V008 P0000 T02500239
63870K0J4 0J420160810223515208/10/16 22:35:31  5-MIN K0J4 110335Z AUTO 16007KT 8SM -RA BKN004 BKN017 OVC047 25/24 A3002 220 93 1500 160/07 RMK AO2 RAB07 CIG 002V008 P0000 T02500239
63870K0J4 0J420160810224014108/10/16 22:40:31  5-MIN K0J4 110340Z AUTO 16007KT 10SM -RA SCT004 BKN022 OVC047 25/24 A3002 220 93 1500 160/07 RMK AO2 RAB07 P0000 T02500239
63870K0J4 0J420160810224514108/10/16 22:45:31  5-MIN K0J4 110345Z AUTO 17009KT 10SM -RA SCT004 BKN033 OVC047 25/24 A3002 220 93 1500 170/09 RMK AO2 RAB07 P0000 T02500239
63870K0J4 0J420160810225014108/10/16 22:50:31  5-MIN K0J4 110350Z AUTO 17008KT 10SM -RA FEW006 BKN031 OVC100 25/24 A3002 220 93 1500 170/08 RMK AO2 RAB07 P0000 T02500239
63870K0J4 0J420160810225514808/10/16 22:55:31  5-MIN K0J4 110355Z AUTO 16008KT 10SM -RA FEW006 SCT024 BKN031 25/24 A3002 230 93 1500 160/08 RMK AO2 RAB07 SLP160 P0000 T02500239
63870K0J4 0J420160810230013508/10/16 23:00:31  5-MIN K0J4 110400Z AUTO 16008KT 10SM -RA FEW006 BKN022 BKN033 25/24 A3002 230 93 1500 160/08 RMK AO2 P0000 T02500239
63870K0J4 0J420160810230513508/10/16 23:05:31  5-MIN K0J4 110405Z AUTO 16006KT 10SM -RA FEW006 SCT020 BKN033 25/24 A3001 230 93 1500 160/06 RMK AO2 P0000 T02500239
63870K0J4 0J420160810231013708/10/16 23:10:31  5-MIN K0J4 110410Z AUTO 16006KT 10SM FEW008 SCT025 BKN034 25/24 A3001 230 93 1500 160/06 RMK AO2 RAE06 P0000 T02500239
63870K0J4 0J420160810231513708/10/16 23:15:31  5-MIN K0J4 110415Z AUTO 16008KT 10SM FEW008 FEW025 SCT034 25/24 A3001 230 93 1500 160/08 RMK AO2 RAE06 P0000 T02500239
63870K0J4 0J420160810232013008/10/16 23:20:31  5-MIN K0J4 110420Z AUTO 17005KT 10SM FEW025 FEW034 25/24 A3001 230 93 1500 170/05 RMK AO2 RAE06 P0000 T02500239
63870K0J4 0J420160810232513008/10/16 23:25:31  5-MIN K0J4 110425Z AUTO 17008KT 10SM FEW025 FEW034 25/24 A3001 230 93 1500 170/08 RMK AO2 RAE06 P0000 T02500239
63870K0J4 0J420160810233013008/10/16 23:30:31  5-MIN K0J4 110430Z AUTO 17007KT 10SM FEW034 SCT045 25/24 A3001 230 93 1500 170/07 RMK AO2 RAE06 P0000 T02500239
63870K0J4 0J420160810233513708/10/16 23:35:31  5-MIN K0J4 110435Z AUTO 17008KT 10SM FEW017 FEW025 SCT045 25/24 A3001 230 93 1500 170/08 RMK AO2 RAE06 P0000 T02500239
63870K0J4 0J420160810234013008/10/16 23:40:31  5-MIN K0J4 110440Z AUTO 18007KT 10SM SCT015 SCT045 25/24 A3001 230 93 1500 180/07 RMK AO2 RAE06 P0000 T02500239
63870K0J4 0J420160810234513708/10/16 23:45:31  5-MIN K0J4 110445Z AUTO 17007KT 10SM FEW008 BKN015 BKN045 25/24 A3001 230 93 1500 170/07 RMK AO2 RAE06 P0000 T02500239
63870K0J4 0J420160810235013708/10/16 23:50:31  5-MIN K0J4 110450Z AUTO 17007KT 10SM SCT008 BKN015 BKN045 25/24 A3001 230 93 1500 170/07 RMK AO2 RAE06 P0000 T02500239
63870K0J4 0J420160810235513408/10/16 23:55:31  5-MIN K0J4 110455Z AUTO 17006KT 10SM -RA SCT008 BKN014 OVC045 25/24 A3001 230 93 1500 170/06 RMK AO2 RAE06B52 P0000
63870K0J4 0J420160811000014008/11/16 00:00:31  5-MIN K0J4 110500Z AUTO 16007KT 10SM -RA BKN008 OVC014 25/24 A3001 230 93 1500 160/07 RMK AO2 CIG 005V010 P0000 T02500239
63870K0J4 0J420160811000514208/11/16 00:05:31  5-MIN K0J4 110505Z AUTO 17007KT 10SM BKN008 BKN015 25/24 A3001 240 93 1500 170/07 RMK AO2 RAE01 CIG 005V010 P0000 T02500239
63870K0J4 0J420160811001013008/11/16 00:10:31  5-MIN K0J4 110510Z AUTO 17008KT 10SM SCT008 BKN015 25/24 A3001 240 93 1500 170/08 RMK AO2 RAE01 P0000 T02500239
63870K0J4 0J420160811001513708/11/16 00:15:31  5-MIN K0J4 110515Z AUTO 17006KT 10SM SCT008 BKN012 BKN020 25/24 A3001 240 93 1500 170/06 RMK AO2 RAE01 P0000 T02500239
63870K0J4 0J420160811002013708/11/16 00:20:31  5-MIN K0J4 110520Z AUTO 17006KT 10SM FEW008 BKN012 BKN020 25/24 A3001 230 93 1500 170/06 RMK AO2 RAE01 P0000 T02500239
63870K0J4 0J420160811002514908/11/16 00:25:31  5-MIN K0J4 110525Z AUTO 17007KT 10SM FEW006 BKN010 BKN020 25/24 A3001 240 93 1500 170/07 RMK AO2 RAE01 CIG 009V014 P0000 T02500239
63870K0J4 0J420160811003014208/11/16 00:30:31  5-MIN K0J4 110530Z AUTO 18005KT 10SM BKN010 BKN020 25/24 A3001 240 93 1500 180/05 RMK AO2 RAE01 CIG 006V014 P0000 T02500239
63870K0J4 0J420160811003514908/11/16 00:35:31  5-MIN K0J4 110535Z AUTO 18007KT 10SM BKN010 BKN014 BKN020 25/24 A3001 240 93 1500 180/07 RMK AO2 RAE01 CIG 006V012 P0000 T02500239
63870K0J4 0J420160811004014908/11/16 00:40:31  5-MIN K0J4 110540Z AUTO 17008KT 10SM BKN010 BKN014 OVC020 25/24 A3000 240 93 1500 170/08 RMK AO2 RAE01 CIG 006V012 P0000 T02500239
63870K0J4 0J420160811004513708/11/16 00:45:31  5-MIN K0J4 110545Z AUTO 17008KT 10SM BKN012 BKN030 OVC037 25/24 A3000 240 93 1500 170/08 RMK AO2 RAE01 P0000 T02500239
63870K0J4 0J420160811005013708/11/16 00:50:31  5-MIN K0J4 110550Z AUTO 17006KT 10SM SCT010 SCT030 BKN037 25/24 A3000 240 93 1500 170/06 RMK AO2 RAE01 P0000 T02500239
63870K0J4 0J420160811005512708/11/16 00:55:31  5-MIN K0J4 110555Z AUTO 17006KT 10SM FEW008 SCT012 BKN037 25/23 A3000 240 90 1500 170/06 RMK AO2 RAE01 P0000
63870K0J4 0J420160811010012508/11/16 01:00:31  5-MIN K0J4 110600Z AUTO 17006KT 10SM SCT008 SCT015 BKN037 25/24 A3000 240 93 1500 170/06 RMK AO2 T02500239
63870K0J4 0J420160811010512508/11/16 01:05:31  5-MIN K0J4 110605Z AUTO 17007KT 10SM FEW009 SCT013 BKN036 25/24 A3000 240 93 1500 170/07 RMK AO2 T02500239
63870K0J4 0J420160811011012508/11/16 01:10:31  5-MIN K0J4 110610Z AUTO 16005KT 10SM SCT009 BKN015 BKN036 25/24 A3000 240 93 1500 160/05 RMK AO2 T02500239
63870K0J4 0J420160811011511808/11/16 01:15:31  5-MIN K0J4 110615Z AUTO 18005KT 10SM BKN009 BKN015 25/24 A3000 240 93 1500 180/05 RMK AO2 T02500239
63870K0J4 0J420160811012011108/11/16 01:20:31  5-MIN K0J4 110620Z AUTO 16004KT 10SM BKN009 25/24 A3000 240 93 1500 160/04 RMK AO2 T02500239
63870K0J4 0J420160811012511808/11/16 01:25:31  5-MIN K0J4 110625Z AUTO 15003KT 10SM BKN011 BKN018 25/24 A3000 240 93 1500 150/03 RMK AO2 T02500239
63870K0J4 0J420160811013012508/11/16 01:30:31  5-MIN K0J4 110630Z AUTO 16004KT 10SM FEW007 BKN011 OVC018 25/24 A3000 240 93 1500 160/04 RMK AO2 T02500239
63870K0J4 0J420160811013511808/11/16 01:35:31  5-MIN K0J4 110635Z AUTO 15004KT 10SM BKN011 OVC018 24/24 A3000 240 97 1400 150/04 RMK AO2 T02440239
63870K0J4 0J420160811014013008/11/16 01:40:31  5-MIN K0J4 110640Z AUTO 15004KT 10SM BKN010 OVC018 24/24 A3000 240 97 1400 150/04 RMK AO2 CIG 007V013 T02440239
63870K0J4 0J420160811014513708/11/16 01:45:31  5-MIN K0J4 110645Z AUTO 16004KT 10SM BKN008 BKN012 OVC018 25/24 A3000 250 93 1500 160/04 RMK AO2 CIG 005V010 T02500239
63870K0J4 0J420160811015013708/11/16 01:50:31  5-MIN K0J4 110650Z AUTO 16005KT 10SM BKN008 BKN012 OVC018 25/24 A2999 250 93 1500 160/05 RMK AO2 CIG 005V012 T02500239
63870K0J4 0J420160811015513708/11/16 01:55:31  5-MIN K0J4 110655Z AUTO 15005KT 10SM BKN008 BKN018 25/24 A2999 250 93 1500 150/05 RMK AO2 CIG 005V013 SLP152 T02500239
63870K0J4 0J420160811020013708/11/16 02:00:31  5-MIN K0J4 110700Z AUTO 15006KT 10SM FEW005 BKN010 BKN018 25/24 A3000 250 93 1500 150/06 RMK AO2 CIG 007V013 T02500239
63870K0J4 0J420160811020514008/11/16 02:05:31  5-MIN K0J4 110705Z AUTO 15006KT 9SM -RA SCT007 BKN010 OVC018 25/24 A3000 250 93 1500 150/06 RMK AO2 RAB05 P0000 T02500239
63870K0J4 0J420160811021017108/11/16 02:10:31  5-MIN K0J4 110710Z AUTO 15008KT 120V180 6SM -RA BR SCT006 BKN010 BKN015 25/24 A3000 240 93 1500 150/08 120V180 RMK AO2 RAB05 CIG 008V013 P0000 T02500239
63870K0J4 0J420160811021514308/11/16 02:15:31  5-MIN K0J4 110715Z AUTO 18010KT 3SM +RA BR SCT006 BKN009 OVC035 25/24 A2999 250 93 1500 180/10 RMK AO2 RAB05 P0000 T02500239
63870K0J4 0J420160811022014308/11/16 02:20:31  5-MIN K0J4 110720Z AUTO 16005KT 4SM -RA BR FEW006 BKN011 OVC047 25/24 A2999 250 93 1500 160/05 RMK AO2 RAB05 P0000 T02500239
63870K0J4 0J420160811022514008/11/16 02:25:31  5-MIN K0J4 110725Z AUTO 14005KT 9SM -RA SCT006 BKN011 OVC034 25/24 A2999 250 93 1500 140/05 RMK AO2 RAB05 P0000 T02500239
63870K0J4 0J420160811023014108/11/16 02:30:31  5-MIN K0J4 110730Z AUTO 16005KT 10SM -RA FEW005 BKN011 OVC034 25/24 A2999 250 93 1500 160/05 RMK AO2 RAB05 P0000 T02500239
63870K0J4 0J420160811023514108/11/16 02:35:31  5-MIN K0J4 110735Z AUTO 16006KT 10SM -RA BKN010 BKN031 OVC090 24/24 A2999 250 97 1400 160/06 RMK AO2 RAB05 P0000 T02440239
63870K0J4 0J420160811024014008/11/16 02:40:31  5-MIN K0J4 110740Z AUTO 17005KT 9SM -RA SCT010 BKN031 OVC100 24/24 A2999 250 97 1400 170/05 RMK AO2 RAB05 P0000 T02440239
63870K0J4 0J420160811024514008/11/16 02:45:31  5-MIN K0J4 110745Z AUTO 17006KT 9SM -RA SCT010 BKN029 OVC100 24/24 A2999 250 97 1400 170/06 RMK AO2 RAB05 P0000 T02440239
63870K0J4 0J420160811025014308/11/16 02:50:31  5-MIN K0J4 110750Z AUTO 17007KT 6SM -RA BR SCT011 BKN050 OVC100 24/24 A2999 250 97 1400 170/07 RMK AO2 RAB05 P0000 T02440239
63870K0J4 0J420160811025514908/11/16 02:55:31  5-MIN K0J4 110755Z AUTO 18006KT 4SM RA BR FEW011 BKN055 OVC090 24/23 A2999 260 93 1400 180/06 RMK AO2 RAB05 SLP149 T02440233 PNO $
63870K0J4 0J420160811030013708/11/16 03:00:31  5-MIN K0J4 110800Z AUTO 17005KT 5SM -RA BR FEW015 BKN070 OVC095 24/24 A2999 260 97 1400 170/05 RMK AO2 T02440239 PNO $
63870K0J4 0J420160811030513408/11/16 03:05:31  5-MIN K0J4 110805Z AUTO 15005KT 8SM -RA FEW011 BKN070 OVC095 24/23 A2999 260 93 1400 150/05 RMK AO2 T02440233 PNO $
63870K0J4 0J420160811031013508/11/16 03:10:31  5-MIN K0J4 110810Z AUTO 16006KT 10SM -RA FEW008 BKN050 OVC090 24/23 A2999 250 93 1400 160/06 RMK AO2 T02440233 PNO $
63870K0J4 0J420160811031513708/11/16 03:15:31  5-MIN K0J4 110815Z AUTO 16006KT 10SM FEW012 BKN050 BKN070 24/23 A2999 250 93 1400 160/06 RMK AO2 RAE13 T02440233 PNO $
63870K0J4 0J420160811032013708/11/16 03:20:31  5-MIN K0J4 110820Z AUTO 17007KT 10SM FEW017 SCT050 BKN070 24/23 A2999 250 93 1400 170/07 RMK AO2 RAE13 T02440233 PNO $
63870K0J4 0J420160811032513708/11/16 03:25:31  5-MIN K0J4 110825Z AUTO 16006KT 10SM FEW017 BKN050 OVC085 24/23 A2999 250 93 1400 160/06 RMK AO2 RAE13 T02440233 PNO $
63870K0J4 0J420160811033013708/11/16 03:30:31  5-MIN K0J4 110830Z AUTO 16004KT 10SM FEW018 BKN050 OVC080 24/23 A2999 250 93 1400 160/04 RMK AO2 RAE13 T02440233 PNO $
63870K0J4 0J420160811033513708/11/16 03:35:31  5-MIN K0J4 110835Z AUTO 16006KT 10SM SCT016 BKN030 BKN050 24/23 A2999 250 93 1400 160/06 RMK AO2 RAE13 T02440233 PNO $
63870K0J4 0J420160811034013708/11/16 03:40:31  5-MIN K0J4 110840Z AUTO 15005KT 10SM FEW008 BKN016 OVC080 24/23 A2999 250 93 1400 150/05 RMK AO2 RAE13 T02440233 PNO $
63870K0J4 0J420160811034514908/11/16 03:45:31  5-MIN K0J4 110845Z AUTO 15006KT 10SM BKN008 BKN016 OVC080 24/23 A2999 250 93 1400 150/06 RMK AO2 RAE13 CIG 005V011 T02440233 PNO $
63870K0J4 0J420160811035014908/11/16 03:50:31  5-MIN K0J4 110850Z AUTO 16005KT 10SM SCT006 BKN010 OVC029 24/23 A2999 250 93 1400 160/05 RMK AO2 RAE13 CIG 007V011 T02440233 PNO $
63870K0J4 0J420160811035515608/11/16 03:55:31  5-MIN K0J4 110855Z AUTO 17004KT 10SM BKN006 BKN010 OVC015 24/24 A2999 250 97 1400 170/04 RMK AO2 RAE13 SLP152 6//// T02440239 58005 PNO $
63870K0J4 0J420160811040013608/11/16 04:00:31  5-MIN K0J4 110900Z AUTO 16004KT 10SM BKN004 OVC010 24/24 A2999 250 97 1400 160/04 RMK AO2 CIG 004V009 T02440239 PNO $
63870K0J4 0J420160811040512908/11/16 04:05:31  5-MIN K0J4 110905Z AUTO 16003KT 10SM OVC004 24/24 A2999 250 97 1400 160/03 RMK AO2 CIG 004V009 T02440239 PNO $
63870K0J4 0J420160811041012908/11/16 04:10:31  5-MIN K0J4 110910Z AUTO 15003KT 10SM OVC005 24/24 A2999 250 97 1400 150/03 RMK AO2 CIG 004V009 T02440239 PNO $
63870K0J4 0J420160811041512908/11/16 04:15:31  5-MIN K0J4 110915Z AUTO 16004KT 10SM OVC005 24/24 A2999 250 97 1400 160/04 RMK AO2 CIG 004V008 T02440239 PNO $
63870K0J4 0J420160811042013608/11/16 04:20:31  5-MIN K0J4 110920Z AUTO 14004KT 10SM BKN005 OVC024 24/24 A2999 250 97 1400 140/04 RMK AO2 CIG 004V008 T02440239 PNO $
63870K0J4 0J420160811042513608/11/16 04:25:31  5-MIN K0J4 110925Z AUTO 17003KT 10SM BKN005 OVC026 24/24 A2999 250 97 1400 170/03 RMK AO2 CIG 004V008 T02440239 PNO $
63870K0J4 0J420160811043014308/11/16 04:30:31  5-MIN K0J4 110930Z AUTO 15004KT 10SM BKN005 BKN026 OVC035 24/24 A2999 250 97 1400 150/04 RMK AO2 CIG 004V008 T02440239 PNO $
63870K0J4 0J420160811043513108/11/16 04:35:31  5-MIN K0J4 110935Z AUTO 14004KT 10SM SCT005 BKN026 OVC035 24/24 A2999 250 97 1400 140/04 RMK AO2 T02440239 PNO $
63870K0J4 0J420160811044014308/11/16 04:40:31  5-MIN K0J4 110940Z AUTO 14004KT 10SM BKN005 BKN026 OVC035 24/24 A2999 250 97 1400 140/04 RMK AO2 CIG 004V008 T02440239 PNO $
63870K0J4 0J420160811044514308/11/16 04:45:31  5-MIN K0J4 110945Z AUTO 14003KT 10SM BKN005 BKN026 OVC035 24/24 A2999 250 97 1400 140/03 RMK AO2 CIG 004V010 T02440239 PNO $
63870K0J4 0J420160811045013108/11/16 04:50:31  5-MIN K0J4 110950Z AUTO 14004KT 10SM SCT005 BKN011 OVC034 24/24 A2999 250 97 1400 140/04 RMK AO2 T02440239 PNO $
63870K0J4 0J420160811045515008/11/16 04:55:31  5-MIN K0J4 110955Z AUTO 14003KT 10SM SCT005 BKN011 OVC034 24/24 A2999 250 97 1400 140/03 RMK AO2 CIG 008V012 SLP152 T02440239 PNO $
63870K0J4 0J420160811050012408/11/16 05:00:31  5-MIN K0J4 111000Z AUTO 14003KT 10SM SCT005 OVC011 24/24 A2999 250 97 1400 140/03 RMK AO2 T02440239 PNO $
63870K0J4 0J420160811050512408/11/16 05:05:31  5-MIN K0J4 111005Z AUTO 14003KT 10SM SCT005 OVC011 24/24 A3000 250 97 1400 140/03 RMK AO2 T02440239 PNO $
63870K0J4 0J420160811051012408/11/16 05:10:31  5-MIN K0J4 111010Z AUTO 13003KT 10SM SCT006 OVC011 24/24 A3000 250 97 1400 130/03 RMK AO2 T02440239 PNO $
63870K0J4 0J420160811051512408/11/16 05:15:31  5-MIN K0J4 111015Z AUTO 14003KT 10SM SCT006 OVC011 24/24 A3000 250 97 1400 140/03 RMK AO2 T02440239 PNO $
63870K0J4 0J420160811052013608/11/16 05:20:31  5-MIN K0J4 111020Z AUTO 14004KT 10SM BKN004 OVC013 24/24 A3000 250 97 1400 140/04 RMK AO2 CIG 003V008 T02440239 PNO $
63870K0J4 0J420160811052513308/11/16 05:25:31  5-MIN K0J4 111025Z AUTO VRB04KT 9SM -RA SCT004 OVC013 24/24 A3000 240 97 1400 VRB/04 RMK AO2 RAB22 T02440239 PNO $
63870K0J4 0J420160811053013308/11/16 05:30:31  5-MIN K0J4 111030Z AUTO 13004KT 9SM -RA SCT004 OVC013 24/24 A3000 240 97 1400 130/04 RMK AO2 RAB22 T02440239 PNO $
63870K0J4 0J420160811053513308/11/16 05:35:31  5-MIN K0J4 111035Z AUTO 13003KT 10SM SCT005 OVC013 25/24 A3000 240 93 1500 130/03 RMK AO2 RAB22E35 T02500239 PNO $
63870K0J4 0J420160811054014108/11/16 05:40:31  5-MIN K0J4 111040Z AUTO 13004KT 10SM -RA SCT005 BKN011 OVC016 25/24 A3000 240 93 1500 130/04 RMK AO2 RAB22 T02500239 PNO $
63870K0J4 0J420160811054513408/11/16 05:45:31  5-MIN K0J4 111045Z AUTO 11004KT 10SM -RA SCT005 OVC011 25/24 A3001 240 93 1500 110/04 RMK AO2 RAB22 T02500239 PNO $
63870K0J4 0J420160811055015208/11/16 05:50:31  5-MIN K0J4 111050Z AUTO 12005KT 10SM FEW005 BKN010 OVC016 25/24 A3001 240 93 1500 120/05 RMK AO2 RAB22E47 CIG 007V012 T02500239 PNO $
63870K0J4 0J420160811055512808/11/16 05:55:31  5-MIN K0J4 111055Z AUTO 13004KT 10SM OVC008 25/24 A3001 230 93 1500 130/04 RMK AO2 RAB22E47 CIG 003V012 PNO $
63870K0J4 0J420160811060013608/11/16 06:00:31  5-MIN K0J4 111100Z AUTO 14004KT 10SM BKN006 OVC011 25/24 A3001 230 93 1500 140/04 RMK AO2 CIG 003V009 T02500239 PNO $
63870K0J4 0J420160811060513608/11/16 06:05:31  5-MIN K0J4 111105Z AUTO 12003KT 10SM SCT004 OVC009 25/24 A3001 230 93 1500 120/03 RMK AO2 CIG 006V013 T02500239 PNO $
63870K0J4 0J420160811061013608/11/16 06:10:31  5-MIN K0J4 111110Z AUTO 12003KT 10SM BKN006 OVC011 25/24 A3001 230 93 1500 120/03 RMK AO2 CIG 003V009 T02500239 PNO $
63870K0J4 0J420160811061513908/11/16 06:15:31  5-MIN K0J4 111115Z AUTO 13005KT 10SM -RA OVC006 25/24 A3001 230 93 1500 130/05 RMK AO2 RAB15 CIG 002V009 T02500239 PNO $
63870K0J4 0J420160811062014508/11/16 06:20:31  5-MIN K0J4 111120Z AUTO 12004KT 8SM -RA BKN004 OVC009 24/24 A3001 230 97 1400 120/04 RMK AO2 RAB15 CIG 002V007 T02440239 PNO $
63870K0J4 0J420160811062514508/11/16 06:25:31  5-MIN K0J4 111125Z AUTO 13005KT 9SM -RA BKN004 OVC009 25/24 A3001 230 93 1500 130/05 RMK AO2 RAB15 CIG 002V007 T02500239 PNO $
63870K0J4 0J420160811063014508/11/16 06:30:31  5-MIN K0J4 111130Z AUTO 13005KT 10SM SCT004 OVC009 25/24 A3001 230 93 1500 130/05 RMK AO2 RAB15E30 CIG 007V014 T02500239 PNO $
63870K0J4 0J420160811063514508/11/16 06:35:31  5-MIN K0J4 111135Z AUTO 15003KT 9SM -RA BKN004 OVC010 25/24 A3002 230 93 1500 150/03 RMK AO2 RAB15 CIG 002V006 T02500239 PNO $
63870K0J4 0J420160811064014508/11/16 06:40:31  5-MIN K0J4 111140Z AUTO 14005KT 9SM -RA BKN004 OVC010 25/24 A3002 230 93 1500 140/05 RMK AO2 RAB15 CIG 002V006 T02500239 PNO $
63870K0J4 0J420160811064514808/11/16 06:45:31  5-MIN K0J4 111145Z AUTO 15005KT 6SM -RA BR BKN006 OVC010 25/24 A3002 220 93 1500 150/05 RMK AO2 RAB15 CIG 003V009 T02500239 PNO $
63870K0J4 0J420160811065013608/11/16 06:50:31  5-MIN K0J4 111150Z AUTO 16005KT 5SM -RA BR BKN004 OVC010 25/24 A3002 220 93 1500 160/05 RMK AO2 RAB15 T02500239 PNO $
63870K0J4 0J420160811065514208/11/16 06:55:31  5-MIN K0J4 111155Z AUTO 15006KT 7SM -RA SCT004 BKN008 OVC018 25/24 A3002 220 93 1500 150/06 RMK AO2 RAB15 CIG 007V010 PNO $
63870K0J4 0J420160811070013108/11/16 07:00:31  5-MIN K0J4 111200Z AUTO 15005KT 10SM SCT004 BKN012 OVC018 25/24 A3002 220 93 1500 150/05 RMK AO2 T02500239 PNO $
63870K0J4 0J420160811070514308/11/16 07:05:31  5-MIN K0J4 111205Z AUTO 16004KT 10SM SCT004 BKN010 OVC018 25/24 A3002 220 93 1500 160/04 RMK AO2 CIG 007V010 T02500239 PNO $
63870K0J4 0J420160811071014308/11/16 07:10:31  5-MIN K0J4 111210Z AUTO 15004KT 10SM SCT004 BKN008 OVC016 25/24 A3002 220 93 1500 150/04 RMK AO2 CIG 007V011 T02500239 PNO $
63870K0J4 0J420160811071514308/11/16 07:15:31  5-MIN K0J4 111215Z AUTO 15004KT 10SM BKN004 BKN010 OVC016 25/24 A3002 220 93 1500 150/04 RMK AO2 CIG 003V008 T02500239 PNO $
63870K0J4 0J420160811072013108/11/16 07:20:31  5-MIN K0J4 111220Z AUTO 15005KT 10SM BKN004 BKN010 OVC018 25/24 A3003 220 93 1500 150/05 RMK AO2 T02500239 PNO $
63870K0J4 0J420160811072514308/11/16 07:25:31  5-MIN K0J4 111225Z AUTO 17006KT 10SM BKN006 BKN012 OVC017 25/24 A3003 220 93 1500 170/06 RMK AO2 CIG 003V009 T02500239 PNO $
63870K0J4 0J420160811073013608/11/16 07:30:31  5-MIN K0J4 111230Z AUTO 16005KT 10SM BKN006 OVC010 25/24 A3003 220 93 1500 160/05 RMK AO2 CIG 003V007 T02500239 PNO $
63870K0J4 0J420160811073512908/11/16 07:35:31  5-MIN K0J4 111235Z AUTO 15005KT 10SM OVC006 25/24 A3003 210 93 1500 150/05 RMK AO2 CIG 003V011 T02500239 PNO $
63870K0J4 0J420160811074012908/11/16 07:40:31  5-MIN K0J4 111240Z AUTO 15004KT 10SM OVC006 25/24 A3003 210 93 1500 150/04 RMK AO2 CIG 003V008 T02500239 PNO $
63870K0J4 0J420160811074512908/11/16 07:45:31  5-MIN K0J4 111245Z AUTO 15005KT 10SM OVC006 25/24 A3003 210 93 1500 150/05 RMK AO2 CIG 003V011 T02500239 PNO $
63870K0J4 0J420160811075012908/11/16 07:50:31  5-MIN K0J4 111250Z AUTO 15004KT 10SM OVC006 25/24 A3003 210 93 1500 150/04 RMK AO2 CIG 003V009 T02500239 PNO $
63870K0J4 0J420160811075513608/11/16 07:55:31  5-MIN K0J4 111255Z AUTO 15007KT 10SM OVC005 25/24 A3003 210 93 1500 150/07 RMK AO2 CIG 003V009 SLP165 T02500239 PNO $
63870K0J4 0J420160811080014308/11/16 08:00:31  5-MIN K0J4 111300Z AUTO 15007KT 10SM BKN005 BKN017 OVC026 25/24 A3003 210 93 1500 150/07 RMK AO2 CIG 003V008 T02500239 PNO $
63870K0J4 0J420160811080515308/11/16 08:05:31  5-MIN K0J4 111305Z AUTO 15006KT 10SM -RA BKN006 BKN018 OVC026 24/23 A3004 210 93 1400 150/06 RMK AO2 RAB02 CIG 003V008 T02440233 PNO $
63870K0J4 0J420160811081015208/11/16 08:10:31  5-MIN K0J4 111310Z AUTO 15007KT 9SM -RA BKN006 BKN018 OVC026 24/23 A3004 210 93 1400 150/07 RMK AO2 RAB02 CIG 003V008 T02440233 PNO $
63870K0J4 0J420160811081515208/11/16 08:15:31  5-MIN K0J4 111315Z AUTO 15006KT 9SM -RA BKN006 BKN018 OVC029 24/23 A3004 210 93 1400 150/06 RMK AO2 RAB02 CIG 003V008 T02440233 PNO $
63870K0J4 0J420160811082014008/11/16 08:20:31  5-MIN K0J4 111320Z AUTO 15005KT 10SM SCT006 BKN018 OVC060 24/23 A3003 210 93 1400 150/05 RMK AO2 RAB02E20 T02440233 PNO $
63870K0J4 0J420160811082515908/11/16 08:25:31  5-MIN K0J4 111325Z AUTO 15006KT 10SM -RA BKN006 BKN018 OVC060 24/24 A3003 210 97 1400 150/06 RMK AO2 RAB02E20B25 CIG 003V008 T02440239 PNO $
63870K0J4 0J420160811083014708/11/16 08:30:31  5-MIN K0J4 111330Z AUTO 15006KT 10SM -RA BKN005 BKN018 OVC060 24/24 A3003 210 97 1400 150/06 RMK AO2 RAB02E20B25 T02440239 PNO $
63870K0J4 0J420160811083514608/11/16 08:35:31  5-MIN K0J4 111335Z AUTO 15005KT 8SM -RA BKN005 BKN036 OVC060 24/23 A3003 210 93 1400 150/05 RMK AO2 RAB02E20B25 T02440233 PNO $
63870K0J4 0J420160811084013908/11/16 08:40:31  5-MIN K0J4 111340Z AUTO 16006KT 8SM -RA BKN005 OVC060 24/23 A3004 210 93 1400 160/06 RMK AO2 RAB02E20B25 T02440233 PNO $
63870K0J4 0J420160811084514208/11/16 08:45:31  5-MIN K0J4 111345Z AUTO VRB06KT 6SM -RA BR BKN005 OVC060 24/23 A3003 210 93 1400 VRB/06 RMK AO2 RAB02E20B25 T02440233 PNO $
63870K0J4 0J420160811085014108/11/16 08:50:31  5-MIN K0J4 111350Z AUTO 14005KT 4SM RA BR BKN004 OVC060 24/23 A3003 210 93 1400 140/05 RMK AO2 RAB02E20B25 T02440233 PNO $
63870K0J4 0J420160811085515608/11/16 08:55:31  5-MIN K0J4 111355Z AUTO 13005KT 5SM -RA BR BKN004 BKN060 OVC085 24/23 A3003 220 93 1400 130/05 RMK AO2 RAB02E20B25 SLP164 T02440233 PNO $
63870K0J4 0J420160811090013408/11/16 09:00:31  5-MIN K0J4 111400Z AUTO 13004KT 9SM -RA BKN004 BKN060 OVC085 24/24 A3003 210 97 1400 130/04 RMK AO2 T02440239 PNO $
63870K0J4 0J420160811090513508/11/16 09:05:31  5-MIN K0J4 111405Z AUTO 14005KT 10SM -RA SCT004 BKN060 OVC100 24/23 A3004 210 93 1400 140/05 RMK AO2 T02440233 PNO $
63870K0J4 0J420160811091013508/11/16 09:10:31  5-MIN K0J4 111410Z AUTO 14004KT 10SM -RA SCT004 BKN060 OVC085 24/23 A3004 210 93 1400 140/04 RMK AO2 T02440233 PNO $
63870K0J4 0J420160811091513508/11/16 09:15:31  5-MIN K0J4 111415Z AUTO 13004KT 10SM -RA SCT004 BKN060 BKN085 24/24 A3003 210 97 1400 130/04 RMK AO2 T02440239 PNO $
63870K0J4 0J420160811092013708/11/16 09:20:31  5-MIN K0J4 111420Z AUTO 15006KT 10SM SCT003 SCT038 BKN055 25/24 A3003 210 93 1500 150/06 RMK AO2 RAE20 T02500239 PNO $
63870K0J4 0J420160811092513708/11/16 09:25:31  5-MIN K0J4 111425Z AUTO 14005KT 10SM SCT003 SCT030 BKN055 24/24 A3004 210 97 1400 140/05 RMK AO2 RAE20 T02440239 PNO $
63870K0J4 0J420160811093013708/11/16 09:30:31  5-MIN K0J4 111430Z AUTO 16007KT 10SM SCT005 BKN030 BKN055 25/24 A3005 200 93 1400 160/07 RMK AO2 RAE20 T02500239 PNO $
63870K0J4 0J420160811093513408/11/16 09:35:31  5-MIN K0J4 111435Z AUTO 16007KT 9SM -RA SCT005 BKN025 BKN030 25/24 A3005 200 93 1400 160/07 RMK AO2 T02500239 PNO $
63870K0J4 0J420160811094013608/11/16 09:40:31  5-MIN K0J4 111440Z AUTO 13005KT 5SM RA BR FEW005 BKN020 BKN028 24/23 A3005 200 93 1400 130/05 RMK AO2 T02440233 PNO $
63870K0J4 0J420160811094513708/11/16 09:45:31  5-MIN K0J4 111445Z AUTO 14005KT 4SM -RA BR FEW005 BKN016 OVC040 24/23 A3004 200 93 1400 140/05 RMK AO2 T02440233 PNO $
63870K0J4 0J420160811095013708/11/16 09:50:31  5-MIN K0J4 111450Z AUTO 12006KT 5SM -RA BR FEW007 BKN018 OVC037 24/23 A3004 200 93 1400 120/06 RMK AO2 T02440233 PNO $
63870K0J4 0J420160811095515608/11/16 09:55:31  5-MIN K0J4 111455Z AUTO 15006KT 4SM -RA BR SCT007 BKN018 OVC037 24/23 A3004 200 93 1400 150/06 RMK AO2 SLP169 6//// T02440233 53010 PNO $
63870K0J4 0J420160811100013708/11/16 10:00:31  5-MIN K0J4 111500Z AUTO 14005KT 3SM -RA BR SCT009 BKN017 OVC037 24/23 A3004 200 93 1400 140/05 RMK AO2 T02440233 PNO $
63870K0J4 0J420160811100513708/11/16 10:05:31  5-MIN K0J4 111505Z AUTO 16006KT 5SM -RA BR BKN009 BKN017 OVC031 24/23 A3004 200 93 1400 160/06 RMK AO2 T02440233 PNO $
63870K0J4 0J420160811101012708/11/16 10:10:31  5-MIN K0J4 111510Z AUTO 15005KT 7SM -RA BKN009 BKN017 24/23 A3005 200 93 1400 150/05 RMK AO2 T02440233 PNO $
63870K0J4 0J420160811101512008/11/16 10:15:31  5-MIN K0J4 111515Z AUTO 15005KT 8SM -RA OVC009 24/23 A3005 200 93 1400 150/05 RMK AO2 T02440233 PNO $
63870K0J4 0J420160811102012108/11/16 10:20:31  5-MIN K0J4 111520Z AUTO 16007KT 10SM -RA OVC009 24/23 A3005 200 93 1400 160/07 RMK AO2 T02440233 PNO $
63870K0J4 0J420160811102513208/11/16 10:25:31  5-MIN K0J4 111525Z AUTO 16007KT 7SM -RA OVC009 24/23 A3005 200 93 1400 160/07 RMK AO2 CIG 007V014 T02440233 PNO $
63870K0J4 0J420160811103013508/11/16 10:30:31  5-MIN K0J4 111530Z AUTO 17006KT 6SM -RA BR OVC009 24/23 A3005 200 93 1400 170/06 RMK AO2 CIG 006V012 T02440233 PNO $
63870K0J4 0J420160811103513408/11/16 10:35:31  5-MIN K0J4 111535Z AUTO 18006KT 4SM RA BR OVC009 24/23 A3005 200 93 1400 180/06 RMK AO2 CIG 004V012 T02440233 PNO $
63870K0J4 0J420160811104013008/11/16 10:40:31  5-MIN K0J4 111540Z AUTO 17008KT 2SM +RA BR SCT005 OVC009 24/23 A3005 190 93 1400 170/08 RMK AO2 T02440233 PNO $
63870K0J4 0J420160811104513608/11/16 10:45:31  5-MIN K0J4 111545Z AUTO 17008KT 2SM RA BR SCT005 BKN009 OVC030 24/23 A3005 190 93 1400 170/08 RMK AO2 T02440233 PNO $
63870K0J4 0J420160811105014008/11/16 10:50:31  5-MIN K0J4 111550Z AUTO 18009KT 2 1/2SM RA BR FEW005 BKN009 OVC033 24/23 A3005 200 93 1400 180/09 RMK AO2 T02440233 PNO $
63870K0J4 0J420160811105512608/11/16 10:55:31  5-MIN K0J4 111555Z AUTO 19008KT 2SM RA BR SCT007 BKN016 OVC036 24/24 A3005 200 97 1400 190/08 RMK AO2 PNO $
63870K0J4 0J420160811110014008/11/16 11:00:31  5-MIN K0J4 111600Z AUTO 17008KT 2 1/2SM RA BR FEW004 SCT012 OVC036 24/24 A3005 200 97 1400 170/08 RMK AO2 T02440239 PNO $
63870K0J4 0J420160811110513708/11/16 11:05:31  5-MIN K0J4 111605Z AUTO 18009KT 5SM -RA BR FEW005 SCT010 OVC034 24/24 A3005 200 97 1400 180/09 RMK AO2 T02440239 PNO $
63870K0J4 0J420160811111013708/11/16 11:10:31  5-MIN K0J4 111610Z AUTO 19008KT 5SM -RA BR SCT007 BKN036 OVC045 24/24 A3005 200 97 1400 190/08 RMK AO2 T02440239 PNO $
63870K0J4 0J420160811111513708/11/16 11:15:31  5-MIN K0J4 111615Z AUTO 19008KT 4SM -RA BR SCT007 BKN034 OVC044 24/24 A3004 200 97 1400 190/08 RMK AO2 T02440239 PNO $
63870K0J4 0J420160811112013708/11/16 11:20:31  5-MIN K0J4 111620Z AUTO 19008KT 6SM -RA BR SCT007 BKN047 OVC110 25/24 A3004 210 93 1500 190/08 RMK AO2 T02500239 PNO $
63870K0J4 0J420160811112513508/11/16 11:25:31  5-MIN K0J4 111625Z AUTO 19009KT 10SM -RA SCT008 BKN045 OVC110 25/24 A3004 210 93 1500 190/09 RMK AO2 T02500239 PNO $
63870K0J4 0J420160811113013508/11/16 11:30:31  5-MIN K0J4 111630Z AUTO 20008KT 10SM -RA SCT008 BKN050 OVC110 25/23 A3003 210 90 1500 200/08 RMK AO2 T02500233 PNO $
63870K0J4 0J420160811113513508/11/16 11:35:31  5-MIN K0J4 111635Z AUTO 20009KT 10SM -RA SCT008 BKN047 OVC110 25/24 A3003 210 93 1500 200/09 RMK AO2 T02500239 PNO $
63870K0J4 0J420160811114013508/11/16 11:40:31  5-MIN K0J4 111640Z AUTO 20010KT 10SM -RA SCT008 BKN049 BKN110 25/24 A3003 220 93 1500 200/10 RMK AO2 T02500239 PNO $
63870K0J4 0J420160811114513508/11/16 11:45:31  5-MIN K0J4 111645Z AUTO 19009KT 10SM -RA SCT008 SCT049 BKN110 26/24 A3002 220 90 1500 190/09 RMK AO2 T02560239 PNO $
63870K0J4 0J420160811115013008/11/16 11:50:31  5-MIN K0J4 111650Z AUTO 20008KT 10SM SCT008 BKN049 26/24 A3002 220 93 1500 200/08 RMK AO2 RAE50 T02560244 PNO $
63870K0J4 0J420160811115511308/11/16 11:55:31  5-MIN K0J4 111655Z AUTO 18007KT 10SM BKN006 26/24 A3002 220 90 1600 180/07 RMK AO2 RAE50 PNO $
63870K0J4 0J420160811120012908/11/16 12:00:31  5-MIN K0J4 111700Z AUTO 19010KT 10SM BKN006 27/24 A3002 230 87 1700 190/10 RMK AO2 CIG 005V011 T02670244 PNO $
63870K0J4 0J420160811120512908/11/16 12:05:31  5-MIN K0J4 111705Z AUTO 19011KT 10SM BKN007 27/24 A3002 230 87 1700 190/11 RMK AO2 CIG 005V010 T02670244 PNO $
63870K0J4 0J420160811121013608/11/16 12:10:31  5-MIN K0J4 111710Z AUTO 18012KT 10SM BKN007 BKN012 27/24 A3002 230 87 1700 180/12 RMK AO2 CIG 005V010 T02670244 PNO $
63870K0J4 0J420160811121513608/11/16 12:15:31  5-MIN K0J4 111715Z AUTO 18010KT 10SM BKN008 BKN012 27/24 A3002 230 87 1700 180/10 RMK AO2 CIG 005V010 T02670244 PNO $
63870K0J4 0J420160811122012408/11/16 12:20:31  5-MIN K0J4 111720Z AUTO 19012KT 10SM SCT008 BKN012 27/24 A3002 230 82 1700 190/12 RMK AO2 T02720239 PNO $
63870K0J4 0J420160811122514208/11/16 12:25:31  5-MIN K0J4 111725Z AUTO 19010G16KT 10SM BKN010 BKN016 27/24 A3002 220 82 1700 190/10G16 RMK AO2 CIG 006V013 T02720239 PNO $
63870K0J4 0J420160811123013108/11/16 12:30:31  5-MIN K0J4 111730Z AUTO 19010KT 10SM FEW007 BKN012 BKN016 27/24 A3002 220 84 1700 190/10 RMK AO2 T02720244 PNO $
63870K0J4 0J420160811123513108/11/16 12:35:31  5-MIN K0J4 111735Z AUTO 18011KT 10SM SCT012 BKN016 BKN024 27/24 A3002 220 84 1700 180/11 RMK AO2 T02670239 PNO $
63870K0J4 0J420160811124013708/11/16 12:40:31  5-MIN K0J4 111740Z AUTO 18008G17KT 10SM SCT012 BKN018 BKN022 27/24 A3002 220 84 1700 180/08G17 RMK AO2 T02670239 PNO $
63870K0J4 0J420160811124513608/11/16 12:45:31  5-MIN K0J4 111745Z AUTO 19006KT 10SM BKN015 OVC024 27/24 A3002 220 84 1700 190/06 RMK AO2 CIG 010V022 T02670239 PNO $
63870K0J4 0J420160811125013108/11/16 12:50:31  5-MIN K0J4 111750Z AUTO 19008KT 10SM SCT013 BKN018 OVC023 27/24 A3002 220 84 1700 190/08 RMK AO2 T02670239 PNO $
63870K0J4 0J420160811125516208/11/16 12:55:31  5-MIN K0J4 111755Z AUTO 20008KT 10SM SCT013 BKN018 OVC029 27/24 A3002 220 82 1700 200/08 RMK AO2 SLP161 6//// T02720239 10272 20244 53007 PNO $
63870K0J4 0J420160811130013108/11/16 13:00:31  5-MIN K0J4 111800Z AUTO 18007KT 10SM FEW011 BKN018 OVC029 28/24 A3002 220 82 1800 180/07 RMK AO2 T02780244 PNO $
63870K0J4 0J420160811130513108/11/16 13:05:31  5-MIN K0J4 111805Z AUTO 20008KT 10SM FEW013 BKN019 OVC031 28/24 A3002 230 82 1800 200/08 RMK AO2 T02780244 PNO $
63870K0J4 0J420160811131013108/11/16 13:10:31  5-MIN K0J4 111810Z AUTO 18006KT 10SM BKN016 BKN025 OVC030 28/24 A3002 230 79 1800 180/06 RMK AO2 T02780239 PNO $
63870K0J4 0J420160811131513108/11/16 13:15:31  5-MIN K0J4 111815Z AUTO 18009KT 10SM SCT016 BKN023 BKN029 28/24 A3002 230 79 1900 180/09 RMK AO2 T02830244 PNO $
63870K0J4 0J420160811132014708/11/16 13:20:31  5-MIN K0J4 111820Z AUTO 19010KT 160V220 10SM SCT016 BKN025 BKN033 29/24 A3001 230 76 1900 190/10 160V220 RMK AO2 T02890244 PNO $
63870K0J4 0J420160811132513108/11/16 13:25:31  5-MIN K0J4 111825Z AUTO 18006KT 10SM SCT016 BKN025 BKN033 29/25 A3001 230 76 2000 180/06 RMK AO2 T02940250 PNO $
63870K0J4 0J420160811133013108/11/16 13:30:31  5-MIN K0J4 111830Z AUTO 19008KT 10SM SCT016 BKN021 BKN025 29/24 A3001 230 76 1900 190/08 RMK AO2 T02890244 PNO $
63870K0J4 0J420160811133513108/11/16 13:35:31  5-MIN K0J4 111835Z AUTO 19008KT 10SM FEW016 BKN021 BKN028 29/24 A3001 230 74 2000 190/08 RMK AO2 T02940244 PNO $
63870K0J4 0J420160811134013108/11/16 13:40:31  5-MIN K0J4 111840Z AUTO 17009KT 10SM SCT018 SCT025 BKN038 29/24 A3001 240 74 2000 170/09 RMK AO2 T02940244 PNO $
63870K0J4 0J420160811134513108/11/16 13:45:31  5-MIN K0J4 111845Z AUTO 20009KT 10SM FEW018 SCT025 BKN049 29/24 A3000 240 71 2000 200/09 RMK AO2 T02940239 PNO $
63870K0J4 0J420160811135013708/11/16 13:50:31  5-MIN K0J4 111850Z AUTO 19014G25KT 10SM SCT021 BKN032 BKN049 29/24 A3001 240 71 2000 190/14G25 RMK AO2 T02940239 PNO $
63870K0J4 0J420160811135516108/11/16 13:55:31  5-MIN K0J4 111855Z AUTO 17014G26KT 1 1/4SM +RA BR SCT015 BKN025 OVC060 26/24 A3002 230 87 1600 170/14G26 RMK AO2 PK WND 18026/1852 RAB51 PNO $
63870K0J4 0J420160811140014508/11/16 14:00:31  5-MIN K0J4 111900Z AUTO 18012G26KT 3/4SM +RA BR SCT015 BKN023 OVC060 25/24 A3002 230 93 1500 180/12G26 RMK AO2 T02500239 PNO $
63870K0J4 0J420160811140514508/11/16 14:05:31  5-MIN K0J4 111905Z AUTO 19009G18KT 3/4SM +RA BR BKN026 BKN035 OVC050 25/24 A3002 220 93 1500 190/09G18 RMK AO2 T02500239 PNO $
63870K0J4 0J420160811141014608/11/16 14:10:31  5-MIN K0J4 111910Z AUTO 18010G18KT 1 3/4SM RA BR FEW010 BKN035 OVC065 25/24 A3002 220 93 1500 180/10G18 RMK AO2 T02500239 PNO $
63870K0J4 0J420160811141513708/11/16 14:15:31  5-MIN K0J4 111915Z AUTO 17009KT 4SM -RA BR FEW018 BKN035 OVC075 25/24 A3002 230 93 1500 170/09 RMK AO2 T02500239 PNO $
63870K0J4 0J420160811142013408/11/16 14:20:31  5-MIN K0J4 111920Z AUTO 17008KT 7SM -RA FEW009 SCT032 OVC080 25/24 A3002 230 93 1500 170/08 RMK AO2 T02500239 PNO $
63870K0J4 0J420160811142513708/11/16 14:25:31  5-MIN K0J4 111925Z AUTO 17007KT 6SM -RA BR SCT039 BKN070 OVC090 25/24 A3001 230 93 1500 170/07 RMK AO2 T02500239 PNO $
63870K0J4 0J420160811143013008/11/16 14:30:31  5-MIN K0J4 111930Z AUTO 16006KT 6SM -RA BR SCT046 OVC075 25/24 A3001 230 93 1500 160/06 RMK AO2 T02500239 PNO $
63870K0J4 0J420160811143513508/11/16 14:35:31  5-MIN K0J4 111935Z AUTO 15005KT 10SM -RA FEW014 BKN075 OVC090 26/24 A3001 230 90 1500 150/05 RMK AO2 T02560239 PNO $
63870K0J4 0J420160811144013008/11/16 14:40:31  5-MIN K0J4 111940Z AUTO 16007KT 10SM SCT016 BKN075 26/24 A3001 230 93 1500 160/07 RMK AO2 RAE39 T02560244 PNO $
63870K0J4 0J420160811144513708/11/16 14:45:31  5-MIN K0J4 111945Z AUTO 17007KT 10SM FEW012 BKN075 OVC085 26/24 A3001 240 93 1600 170/07 RMK AO2 RAE39 T02560244 PNO $
63870K0J4 0J420160811145013508/11/16 14:50:31  5-MIN K0J4 111950Z AUTO 18008KT 10SM FEW009 BKN029 OVC075 26/24 A3001 240 90 1600 180/08 RMK AO2 RAE39 T02560239 PNO
63870K0J4 0J420160811145515308/11/16 14:55:31  5-MIN K0J4 111955Z AUTO 19009KT 6SM -RA BR FEW010 BKN018 OVC075 26/24 A3001 230 93 1500 190/09 RMK AO2 RAE39B52 SLP157 T02560244 PNO $
63870K0J4 0J420160811150013508/11/16 15:00:31  5-MIN K0J4 112000Z AUTO 18008KT 6SM -RA BR SCT013 BKN020 OVC044 26/24 A3001 240 90 1600 180/08 RMK AO2 T02560239 PNO
63870K0J4 0J420160811150513808/11/16 15:05:31  5-MIN K0J4 112005Z AUTO 18010G17KT 8SM -RA FEW013 BKN030 OVC046 26/24 A3001 230 90 1500 180/10G17 RMK AO2 T02560239 PNO
63870K0J4 0J420160811151014108/11/16 15:10:31  5-MIN K0J4 112010Z AUTO 16007G17KT 10SM -RA SCT017 BKN030 OVC046 26/24 A3000 240 90 1600 160/07G17 RMK AO2 T02560239 PNO $
63870K0J4 0J420160811151513508/11/16 15:15:31  5-MIN K0J4 112015Z AUTO 16007KT 10SM -RA FEW017 BKN046 OVC060 26/24 A3000 240 90 1600 160/07 RMK AO2 T02560239 PNO $
63870K0J4 0J420160811152013508/11/16 15:20:31  5-MIN K0J4 112020Z AUTO 17006KT 10SM -RA FEW015 BKN046 OVC060 26/24 A3000 240 93 1600 170/06 RMK AO2 T02560244 PNO $
63870K0J4 0J420160811152513508/11/16 15:25:31  5-MIN K0J4 112025Z AUTO 16007KT 10SM -RA SCT015 BKN033 OVC060 26/24 A3000 240 90 1600 160/07 RMK AO2 T02560239 PNO $
63870K0J4 0J420160811153013508/11/16 15:30:31  5-MIN K0J4 112030Z AUTO 18009KT 10SM -RA FEW008 BKN015 OVC060 26/24 A3000 240 93 1600 180/09 RMK AO2 T02560244 PNO $
63870K0J4 0J420160811153513308/11/16 15:35:31  5-MIN K0J4 112035Z AUTO 17006KT 10SM -RA SCT008 BKN015 OVC060 26/24 A3000 240 93 1600 170/06 RMK AO2 T02560244 PNO
63870K0J4 0J420160811154013308/11/16 15:40:31  5-MIN K0J4 112040Z AUTO 16007KT 10SM -RA BKN007 BKN015 OVC060 26/24 A3000 240 90 1600 160/07 RMK AO2 T02560239 PNO
63870K0J4 0J420160811154514508/11/16 15:45:31  5-MIN K0J4 112045Z AUTO 16008KT 10SM -RA BKN007 BKN015 OVC019 26/24 A3000 240 93 1600 160/08 RMK AO2 CIG 005V011 T02560244 PNO
63870K0J4 0J420160811155013808/11/16 15:50:31  5-MIN K0J4 112050Z AUTO 15007KT 10SM -RA BKN007 OVC013 26/24 A3000 240 93 1600 150/07 RMK AO2 CIG 005V011 T02560244 PNO
63870K0J4 0J420160811155516408/11/16 15:55:31  5-MIN K0J4 112055Z AUTO 15005KT 10SM -RA BKN007 BKN012 OVC017 26/24 A3000 240 93 1600 150/05 RMK AO2 CIG 005V011 SLP153 6//// T02560244 58008 PNO
63870K0J4 0J420160811160014008/11/16 16:00:31  5-MIN K0J4 112100Z AUTO 15008KT 10SM -RA BKN007 OVC012 26/24 A3000 250 93 1600 150/08 RMK AO2 CIG 005V011 P0000 T02560244
63870K0J4 0J420160811160513508/11/16 16:05:31  5-MIN K0J4 112105Z AUTO 17008KT 10SM OVC010 26/24 A2999 250 93 1600 170/08 RMK AO2 RAE02 CIG 005V014 P0000 T02560244
63870K0J4 0J420160811161014808/11/16 16:10:31  5-MIN K0J4 112110Z AUTO 17010G16KT 10SM BKN008 OVC013 26/24 A2999 250 90 1600 170/10G16 RMK AO2 RAE02 CIG 005V011 P0000 T02560239
63870K0J4 0J420160811161514208/11/16 16:15:31  5-MIN K0J4 112115Z AUTO 17009KT 10SM BKN008 OVC013 26/24 A2999 250 90 1600 170/09 RMK AO2 RAE02 CIG 005V010 P0000 T02560239
63870K0J4 0J420160811162014108/11/16 16:20:31  5-MIN K0J4 112120Z AUTO 17009KT 8SM BKN008 OVC013 26/24 A2999 260 90 1600 170/09 RMK AO2 RAE02 CIG 005V010 P0000 T02560239
63870K0J4 0J420160811162515108/11/16 16:25:31  5-MIN K0J4 112125Z AUTO 16007KT 4SM -RA BR BKN008 OVC013 26/24 A2998 260 93 1600 160/07 RMK AO2 RAE02B21 CIG 004V011 P0000 T02560244
63870K0J4 0J420160811163013908/11/16 16:30:31  5-MIN K0J4 112130Z AUTO 18005KT 4SM -RA BR BKN008 OVC013 26/24 A2998 260 93 1600 180/05 RMK AO2 RAE02B21 P0000 T02560244
63870K0J4 0J420160811163514308/11/16 16:35:31  5-MIN K0J4 112135Z AUTO 17008KT 9SM -RA BKN007 BKN013 OVC070 26/24 A2998 260 90 1600 170/08 RMK AO2 RAE02B21 P0000 T02560239
63870K0J4 0J420160811164014308/11/16 16:40:31  5-MIN K0J4 112140Z AUTO 16008KT 10SM BKN007 BKN065 OVC075 26/24 A2998 260 90 1600 160/08 RMK AO2 RAE02B21E40 P0000 T02560239
63870K0J4 0J420160811164514308/11/16 16:45:31  5-MIN K0J4 112145Z AUTO 18007KT 10SM BKN007 BKN060 BKN075 26/24 A2998 260 90 1600 180/07 RMK AO2 RAE02B21E40 P0000 T02560239
63870K0J4 0J420160811165014308/11/16 16:50:31  5-MIN K0J4 112150Z AUTO 18008KT 10SM SCT007 BKN060 BKN075 26/24 A2998 260 90 1600 180/08 RMK AO2 RAE02B21E40 P0000 T02560239
63870K0J4 0J420160811165515008/11/16 16:55:31  5-MIN K0J4 112155Z AUTO 17010KT 10SM FEW007 SCT065 BKN075 26/24 A2998 260 90 1600 170/10 RMK AO2 RAE02B21E40 SLP149 P0000 T02560239
63870K0J4 0J420160811170012508/11/16 17:00:31  5-MIN K0J4 112200Z AUTO 17007KT 10SM FEW007 SCT060 SCT075 26/24 A2999 260 90 1600 170/07 RMK AO2 T02560239
63870K0J4 0J420160811170512508/11/16 17:05:31  5-MIN K0J4 112205Z AUTO 17009KT 10SM FEW009 FEW012 SCT075 26/24 A2999 260 87 1600 170/09 RMK AO2 T02610239
63870K0J4 0J420160811171011808/11/16 17:10:31  5-MIN K0J4 112210Z AUTO 17009KT 10SM FEW009 FEW014 26/24 A2999 260 87 1600 170/09 RMK AO2 T02610239
63870K0J4 0J420160811171511108/11/16 17:15:31  5-MIN K0J4 112215Z AUTO 18010KT 10SM FEW014 26/24 A2999 250 87 1600 180/10 RMK AO2 T02610239
63870K0J4 0J420160811172011108/11/16 17:20:31  5-MIN K0J4 112220Z AUTO 18011KT 10SM SCT014 26/24 A2999 250 87 1600 180/11 RMK AO2 T02610239
63870K0J4 0J420160811172511108/11/16 17:25:31  5-MIN K0J4 112225Z AUTO 19008KT 10SM SCT014 26/24 A2999 250 87 1600 190/08 RMK AO2 T02610239
63870K0J4 0J420160811173011108/11/16 17:30:31  5-MIN K0J4 112230Z AUTO 18009KT 10SM SCT014 26/24 A2999 250 87 1600 180/09 RMK AO2 T02610239
63870K0J4 0J420160811173511108/11/16 17:35:31  5-MIN K0J4 112235Z AUTO 17008KT 10SM BKN014 26/23 A2999 250 84 1600 170/08 RMK AO2 T02610233
63870K0J4 0J420160811174011108/11/16 17:40:31  5-MIN K0J4 112240Z AUTO 18007KT 10SM BKN014 26/24 A2999 250 87 1600 180/07 RMK AO2 T02610239
63870K0J4 0J420160811174511108/11/16 17:45:31  5-MIN K0J4 112245Z AUTO 18008KT 10SM BKN013 26/23 A2999 250 84 1600 180/08 RMK AO2 T02610233
63870K0J4 0J420160811175011108/11/16 17:50:31  5-MIN K0J4 112250Z AUTO 18008KT 10SM BKN013 26/23 A2999 250 84 1600 180/08 RMK AO2 T02610233
63870K0J4 0J420160811175511808/11/16 17:55:31  5-MIN K0J4 112255Z AUTO 18006KT 10SM BKN013 26/23 A2999 250 84 1600 180/06 RMK AO2 SLP151 T02610233
63870K0J4 0J420160811180011108/11/16 18:00:31  5-MIN K0J4 112300Z AUTO 17009KT 10SM BKN013 26/23 A2999 250 84 1600 170/09 RMK AO2 T02610233
63870K0J4 0J420160811180511108/11/16 18:05:31  5-MIN K0J4 112305Z AUTO 17008KT 10SM BKN015 26/23 A2999 250 84 1600 170/08 RMK AO2 T02610233
63870K0J4 0J420160811181011108/11/16 18:10:31  5-MIN K0J4 112310Z AUTO 16009KT 10SM BKN015 26/23 A2999 250 84 1600 160/09 RMK AO2 T02610233
63870K0J4 0J420160811181511108/11/16 18:15:31  5-MIN K0J4 112315Z AUTO 17008KT 10SM BKN015 26/23 A2999 250 84 1600 170/08 RMK AO2 T02610233
63870K0J4 0J420160811182011108/11/16 18:20:31  5-MIN K0J4 112320Z AUTO 17008KT 10SM BKN015 26/23 A3000 250 84 1600 170/08 RMK AO2 T02610233
63870K0J4 0J420160812042013008/12/16 04:20:31  5-MIN K0J4 120920Z AUTO 18004KT 10SM BKN003 OVC008 24/23 A2995 290 93 1500 180/04 RMK AO2 RAE18 P0000 T02440233
63870K0J4 0J420160812042513008/12/16 04:25:31  5-MIN K0J4 120925Z AUTO 15003KT 10SM BKN005 OVC010 24/23 A2995 290 93 1500 150/03 RMK AO2 RAE18 P0000 T02440233
63870K0J4 0J420160812043014208/12/16 04:30:31  5-MIN K0J4 120930Z AUTO 13003KT 10SM BKN005 OVC010 24/23 A2995 290 93 1500 130/03 RMK AO2 RAE18 CIG 002V008 P0000 T02440233
63870K0J4 0J420160812043513508/12/16 04:35:31  5-MIN K0J4 120935Z AUTO 14004KT 10SM OVC005 24/23 A2996 280 93 1500 140/04 RMK AO2 RAE18 CIG 002V008 P0000 T02440233
63870K0J4 0J420160812044013508/12/16 04:40:31  5-MIN K0J4 120940Z AUTO 14004KT 10SM OVC004 24/23 A2996 280 93 1500 140/04 RMK AO2 RAE18 CIG 002V009 P0000 T02440233
63870K0J4 0J420160812044514108/12/16 04:45:31  5-MIN K0J4 120945Z AUTO 14005KT 9SM BKN004 OVC012 24/23 A2996 280 93 1500 140/05 RMK AO2 RAE18 CIG 003V008 P0000 T02440233
63870K0J4 0J420160812045013808/12/16 04:50:31  5-MIN K0J4 120950Z AUTO VRB05KT 3SM RA BR BKN004 OVC012 24/23 A2996 280 93 1500 VRB/05 RMK AO2 RAE18B49 P0000 T02440233
63870K0J4 0J420160812045513608/12/16 04:55:31  5-MIN K0J4 120955Z AUTO 14006KT 2SM +RA BR BKN004 BKN009 OVC024 24/23 A2996 280 93 1500 140/06 RMK AO2 RAE18B49 P0000
63870K0J4 0J420160812050013608/12/16 05:00:31  5-MIN K0J4 121000Z AUTO 15004KT 2SM RA BR SCT004 BKN010 OVC040 24/23 A2996 280 93 1500 150/04 RMK AO2 T02440233 PNO $
63870K0J4 0J420160812050513708/12/16 05:05:31  5-MIN K0J4 121005Z AUTO 16005KT 3SM -RA BR BKN005 BKN012 OVC025 24/23 A2996 280 93 1500 160/05 RMK AO2 T02440233 PNO $
63870K0J4 0J420160812051013408/12/16 05:10:31  5-MIN K0J4 121010Z AUTO 16003KT 8SM -RA BKN007 BKN012 OVC025 24/24 A2996 280 97 1500 160/03 RMK AO2 T02440239 PNO $
63870K0J4 0J420160812051513708/12/16 05:15:31  5-MIN K0J4 121015Z AUTO 15004KT 10SM FEW005 BKN009 OVC024 24/24 A2996 280 97 1500 150/04 RMK AO2 RAE13 T02440239 PNO $
63870K0J4 0J420160812052013008/12/16 05:20:31  5-MIN K0J4 121020Z AUTO 18004KT 10SM BKN007 OVC012 24/23 A2996 280 93 1500 180/04 RMK AO2 RAE13 T02440233 PNO $
63870K0J4 0J420160812052514908/12/16 05:25:31  5-MIN K0J4 121025Z AUTO 17004KT 10SM FEW003 BKN007 OVC012 24/24 A2996 280 97 1500 170/04 RMK AO2 RAE13 CIG 005V009 T02440239 PNO $
63870K0J4 0J420160812053013508/12/16 05:30:31  5-MIN K0J4 121030Z AUTO 15004KT 10SM OVC005 24/24 A2997 270 97 1500 150/04 RMK AO2 RAE13 CIG 002V011 T02440239 PNO $
63870K0J4 0J420160812053513008/12/16 05:35:31  5-MIN K0J4 121035Z AUTO 14004KT 10SM BKN003 OVC008 24/23 A2996 280 93 1500 140/04 RMK AO2 RAE13 T02440233 PNO $
63870K0J4 0J420160812054014108/12/16 05:40:31  5-MIN K0J4 121040Z AUTO 14003KT 9SM BKN005 OVC013 24/23 A2996 280 93 1500 140/03 RMK AO2 RAE13 CIG 002V010 T02440233 PNO $
63870K0J4 0J420160812054514108/12/16 05:45:31  5-MIN K0J4 121045Z AUTO 15003KT 9SM BKN005 OVC013 24/24 A2997 270 97 1500 150/03 RMK AO2 RAE13 CIG 002V008 T02440239 PNO $
63870K0J4 0J420160812055012908/12/16 05:50:31  5-MIN K0J4 121050Z AUTO 15004KT 9SM BKN003 OVC013 24/24 A2997 270 97 1500 150/04 RMK AO2 RAE13 T02440239 PNO $
63870K0J4 0J420160812055514808/12/16 05:55:31  5-MIN K0J4 121055Z AUTO 17004KT 9SM -RA OVC003 24/24 A2996 280 97 1500 170/04 RMK AO2 RAE13B53 CIG 002V008 SLP142 T02440239 PNO $
63870K0J4 0J420160812060012708/12/16 06:00:31  5-MIN K0J4 121100Z AUTO 15004KT 9SM -RA BKN003 OVC014 24/24 A2997 270 97 1500 150/04 RMK AO2 T02440239 PNO $
63870K0J4 0J420160812060513008/12/16 06:05:31  5-MIN K0J4 121105Z AUTO VRB04KT 10SM BKN003 OVC008 24/24 A2997 270 97 1500 VRB/04 RMK AO2 RAE03 T02440239 PNO $
63870K0J4 0J420160812061014208/12/16 06:10:31  5-MIN K0J4 121110Z AUTO 17004KT 10SM BKN005 OVC010 24/24 A2997 270 97 1500 170/04 RMK AO2 RAE03 CIG 002V007 T02440239 PNO $
63870K0J4 0J420160812061514908/12/16 06:15:31  5-MIN K0J4 121115Z AUTO 17004KT 10SM BKN005 BKN010 OVC021 24/24 A2997 270 97 1500 170/04 RMK AO2 RAE03 CIG 002V008 T02440239 PNO $
63870K0J4 0J420160812062014908/12/16 06:20:31  5-MIN K0J4 121120Z AUTO 16005KT 10SM BKN005 BKN010 OVC021 24/24 A2997 270 97 1500 160/05 RMK AO2 RAE03 CIG 002V007 T02440239 PNO $
63870K0J4 0J420160812062514908/12/16 06:25:31  5-MIN K0J4 121125Z AUTO 16004KT 10SM SCT005 BKN010 OVC037 24/24 A2998 270 97 1500 160/04 RMK AO2 RAE03 CIG 008V013 T02440239 PNO $
63870K0J4 0J420160812063014908/12/16 06:30:31  5-MIN K0J4 121130Z AUTO 16005KT 10SM BKN006 BKN022 OVC037 24/24 A2998 260 97 1500 160/05 RMK AO2 RAE03 CIG 002V013 T02440239 PNO $
63870K0J4 0J420160812063513708/12/16 06:35:31  5-MIN K0J4 121135Z AUTO 17004KT 10SM SCT006 BKN022 OVC037 24/24 A2998 260 97 1500 170/04 RMK AO2 RAE03 T02440239 PNO $
63870K0J4 0J420160812064013708/12/16 06:40:31  5-MIN K0J4 121140Z AUTO 16004KT 10SM SCT008 BKN025 OVC034 24/24 A2998 260 97 1500 160/04 RMK AO2 RAE03 T02440239 PNO $
63870K0J4 0J420160812064513708/12/16 06:45:31  5-MIN K0J4 121145Z AUTO 15003KT 10SM SCT006 BKN011 OVC037 24/24 A2998 260 97 1500 150/03 RMK AO2 RAE03 T02440239 PNO $
63870K0J4 0J420160812065014908/12/16 06:50:31  5-MIN K0J4 121150Z AUTO 15004KT 10SM SCT006 BKN009 OVC037 24/24 A2998 260 97 1500 150/04 RMK AO2 RAE03 CIG 007V011 T02440239 PNO $
63870K0J4 0J420160812065519308/12/16 06:55:31  5-MIN K0J4 121155Z AUTO 16006KT 10SM -RA BKN006 BKN025 OVC032 24/24 A2999 250 97 1400 160/06 RMK AO2 RAE03B53 CIG 003V011 SLP150 6//// 7//// T02440239 10244 20239 55006 PNO $
63870K0J4 0J420160812070014908/12/16 07:00:31  5-MIN K0J4 121200Z AUTO 16005KT 6SM -RA BR BKN006 BKN013 OVC023 24/23 A2999 250 93 1400 160/05 RMK AO2 CIG 003V008 T02440233 PNO $
63870K0J4 0J420160812070514208/12/16 07:05:31  5-MIN K0J4 121205Z AUTO 17007KT 5SM -RA BR BKN006 OVC013 24/24 A2999 250 97 1400 170/07 RMK AO2 CIG 003V008 T02440239 PNO $
63870K0J4 0J420160812071013908/12/16 07:10:31  5-MIN K0J4 121210Z AUTO 16005KT 7SM -RA BKN005 OVC035 24/23 A2999 250 93 1400 160/05 RMK AO2 CIG 003V008 T02440233 PNO $
63870K0J4 0J420160812071514208/12/16 07:15:31  5-MIN K0J4 121215Z AUTO 16005KT 6SM -RA BR BKN005 OVC035 24/23 A3000 250 93 1400 160/05 RMK AO2 CIG 003V008 T02440233 PNO $
63870K0J4 0J420160812072013908/12/16 07:20:31  5-MIN K0J4 121220Z AUTO 16006KT 7SM -RA BKN005 OVC033 24/23 A2999 250 93 1400 160/06 RMK AO2 CIG 003V008 T02440233 PNO $
63870K0J4 0J420160812072513708/12/16 07:25:31  5-MIN K0J4 121225Z AUTO 16005KT 6SM -RA BR BKN005 BKN033 OVC049 24/23 A2999 250 97 1400 160/05 RMK AO2 T02390233 PNO $
63870K0J4 0J420160812073013708/12/16 07:30:31  5-MIN K0J4 121230Z AUTO 16005KT 4SM -RA BR BKN005 BKN035 OVC049 24/23 A2999 250 97 1400 160/05 RMK AO2 T02390233 PNO $
63870K0J4 0J420160812073513708/12/16 07:35:31  5-MIN K0J4 121235Z AUTO 15004KT 5SM -RA BR BKN005 BKN035 OVC070 24/23 A2999 250 97 1400 150/04 RMK AO2 T02390233 PNO $
63870K0J4 0J420160812074013708/12/16 07:40:31  5-MIN K0J4 121240Z AUTO 14004KT 6SM -RA BR SCT005 BKN050 OVC075 24/23 A2999 250 97 1400 140/04 RMK AO2 T02390233 PNO $
63870K0J4 0J420160812074513408/12/16 07:45:31  5-MIN K0J4 121245Z AUTO 15003KT 9SM -RA FEW005 SCT050 OVC080 24/23 A2998 260 97 1400 150/03 RMK AO2 T02390233 PNO $
63870K0J4 0J420160812075013708/12/16 07:50:31  5-MIN K0J4 121250Z AUTO 16003KT 10SM FEW005 SCT049 BKN070 24/23 A2998 260 97 1400 160/03 RMK AO2 RAE48 T02390233 PNO $
63870K0J4 0J420160812075514408/12/16 07:55:31  5-MIN K0J4 121255Z AUTO 14003KT 10SM FEW005 SCT080 BKN100 24/23 A2998 260 97 1400 140/03 RMK AO2 RAE48 SLP146 T02390233 PNO $
63870K0J4 0J420160812080013108/12/16 08:00:31  5-MIN K0J4 121300Z AUTO 00000KT 10SM FEW005 SCT070 SCT090 24/23 A2998 260 97 1400 000/00 RMK AO2 T02390233 PNO $
63870K0J4 0J420160812080512408/12/16 08:05:31  5-MIN K0J4 121305Z AUTO 14004KT 10SM SCT004 BKN080 24/23 A2998 260 97 1400 140/04 RMK AO2 T02390233 PNO $
63870K0J4 0J420160812081012408/12/16 08:10:31  5-MIN K0J4 121310Z AUTO 14004KT 10SM BKN004 BKN085 24/23 A2998 260 97 1400 140/04 RMK AO2 T02390233 PNO $
63870K0J4 0J420160812081512408/12/16 08:15:31  5-MIN K0J4 121315Z AUTO 14005KT 10SM BKN004 BKN100 24/23 A2998 260 97 1400 140/05 RMK AO2 T02390233 PNO $
63870K0J4 0J420160812082012408/12/16 08:20:31  5-MIN K0J4 121320Z AUTO 15004KT 10SM BKN004 BKN017 24/23 A2998 260 97 1400 150/04 RMK AO2 T02390233 PNO $
63870K0J4 0J420160812082513108/12/16 08:25:31  5-MIN K0J4 121325Z AUTO 15005KT 10SM BKN004 BKN017 OVC110 24/23 A2999 260 97 1400 150/05 RMK AO2 T02390233 PNO $
63870K0J4 0J420160812083013108/12/16 08:30:31  5-MIN K0J4 121330Z AUTO 15003KT 10SM BKN004 BKN015 OVC110 24/23 A2999 250 97 1400 150/03 RMK AO2 T02390233 PNO $
63870K0J4 0J420160812083513108/12/16 08:35:31  5-MIN K0J4 121335Z AUTO 16003KT 10SM SCT004 BKN015 BKN110 24/23 A2999 250 97 1400 160/03 RMK AO2 T02390233 PNO $
63870K0J4 0J420160812084013108/12/16 08:40:31  5-MIN K0J4 121340Z AUTO 18004KT 10SM FEW004 SCT015 BKN120 24/23 A2999 250 93 1400 180/04 RMK AO2 T02440233 PNO $
63870K0J4 0J420160812084513108/12/16 08:45:31  5-MIN K0J4 121345Z AUTO 16004KT 10SM FEW003 SCT015 BKN120 24/23 A2999 250 93 1400 160/04 RMK AO2 T02440233 PNO $
63870K0J4 0J420160812085012408/12/16 08:50:31  5-MIN K0J4 121350Z AUTO 16003KT 10SM SCT017 BKN110 24/23 A2999 250 93 1400 160/03 RMK AO2 T02440233 PNO $
63870K0J4 0J420160812085513108/12/16 08:55:31  5-MIN K0J4 121355Z AUTO 14003KT 10SM SCT017 BKN120 24/23 A2999 250 93 1400 140/03 RMK AO2 SLP151 T02440233 PNO $
63870K0J4 0J420160812090013108/12/16 09:00:31  5-MIN K0J4 121400Z AUTO 14003KT 10SM FEW015 FEW032 SCT120 24/23 A2999 250 93 1400 140/03 RMK AO2 T02440233 PNO $
63870K0J4 0J420160812090513108/12/16 09:05:31  5-MIN K0J4 121405Z AUTO 00000KT 10SM FEW015 SCT032 BKN120 24/24 A2999 250 97 1400 000/00 RMK AO2 T02440239 PNO $
63870K0J4 0J420160812091013108/12/16 09:10:31  5-MIN K0J4 121410Z AUTO 11003KT 10SM FEW004 BKN032 BKN110 25/24 A2999 250 93 1500 110/03 RMK AO2 T02500239 PNO $
63870K0J4 0J420160812091513108/12/16 09:15:31  5-MIN K0J4 121415Z AUTO 11004KT 10SM SCT004 SCT016 BKN032 25/24 A3000 250 93 1500 110/04 RMK AO2 T02500239 PNO $
63870K0J4 0J420160812092012408/12/16 09:20:31  5-MIN K0J4 121420Z AUTO 12004KT 10SM BKN004 BKN031 25/24 A3000 240 93 1500 120/04 RMK AO2 T02500239 PNO $
63870K0J4 0J420160812092513108/12/16 09:25:31  5-MIN K0J4 121425Z AUTO 12003KT 10SM BKN005 BKN013 BKN033 25/24 A3000 250 93 1500 120/03 RMK AO2 T02500239 PNO $
63870K0J4 0J420160812093013108/12/16 09:30:31  5-MIN K0J4 121430Z AUTO 13004KT 10SM BKN005 BKN013 BKN033 25/24 A3000 250 93 1500 130/04 RMK AO2 T02500239 PNO $
63870K0J4 0J420160812093513108/12/16 09:35:31  5-MIN K0J4 121435Z AUTO 14005KT 10SM BKN005 BKN013 BKN037 26/24 A3000 250 90 1600 140/05 RMK AO2 T02560239 PNO $
63870K0J4 0J420160812094012408/12/16 09:40:31  5-MIN K0J4 121440Z AUTO 15004KT 10SM BKN005 BKN033 26/24 A3000 250 90 1600 150/04 RMK AO2 T02560239 PNO $
63870K0J4 0J420160812094513608/12/16 09:45:31  5-MIN K0J4 121445Z AUTO 16005KT 10SM BKN005 BKN033 26/24 A3000 250 93 1600 160/05 RMK AO2 CIG 003V008 T02560244 PNO $
63870K0J4 0J420160812095013108/12/16 09:50:31  5-MIN K0J4 121450Z AUTO 16005KT 10SM SCT005 BKN012 BKN033 26/24 A3000 240 93 1600 160/05 RMK AO2 T02560244 PNO $
63870K0J4 0J420160812095512608/12/16 09:55:31  5-MIN K0J4 121455Z AUTO 16007KT 10SM BKN007 BKN035 27/24 A3000 240 87 1700 160/07 RMK AO2 CIG 003V013 PNO $
63870K0J4 0J420160812100013608/12/16 10:00:31  5-MIN K0J4 121500Z AUTO 16006KT 10SM BKN007 BKN032 27/24 A3000 250 87 1700 160/06 RMK AO2 CIG 003V010 T02670244 PNO $
63870K0J4 0J420160812100513608/12/16 10:05:31  5-MIN K0J4 121505Z AUTO VRB05KT 10SM BKN007 BKN034 27/24 A3000 250 87 1700 VRB/05 RMK AO2 CIG 005V010 T02670244 PNO $
63870K0J4 0J420160812101013608/12/16 10:10:31  5-MIN K0J4 121510Z AUTO 18005KT 10SM BKN007 BKN036 27/25 A3000 250 87 1800 180/05 RMK AO2 CIG 005V010 T02720250 PNO $
63870K0J4 0J420160812101514308/12/16 10:15:31  5-MIN K0J4 121515Z AUTO 14010KT 10SM BKN007 BKN011 BKN036 27/24 A2999 250 84 1800 140/10 RMK AO2 CIG 005V009 T02720244 PNO $
63870K0J4 0J420160812102013608/12/16 10:20:31  5-MIN K0J4 121520Z AUTO 17008KT 10SM BKN007 BKN011 27/24 A3000 250 84 1800 170/08 RMK AO2 CIG 005V010 T02720244 PNO $
63870K0J4 0J420160812102512908/12/16 10:25:31  5-MIN K0J4 121525Z AUTO 18006KT 10SM BKN011 28/24 A2999 250 82 1800 180/06 RMK AO2 CIG 005V014 T02780244 PNO $
63870K0J4 0J420160812103012408/12/16 10:30:31  5-MIN K0J4 121530Z AUTO 17008KT 10SM SCT009 BKN013 28/24 A2999 250 82 1800 170/08 RMK AO2 T02780244 PNO $
63870K0J4 0J420160812103511708/12/16 10:35:31  5-MIN K0J4 121535Z AUTO 16009KT 10SM BKN011 28/24 A2999 250 82 1800 160/09 RMK AO2 T02780244 PNO $
63870K0J4 0J420160812104011708/12/16 10:40:31  5-MIN K0J4 121540Z AUTO 18008KT 10SM SCT011 28/24 A2999 250 79 1800 180/08 RMK AO2 T02780239 PNO $
63870K0J4 0J420160812104511708/12/16 10:45:31  5-MIN K0J4 121545Z AUTO 19007KT 10SM SCT011 28/24 A2999 250 79 1900 190/07 RMK AO2 T02830244 PNO $
63870K0J4 0J420160812105013108/12/16 10:50:31  5-MIN K0J4 121550Z AUTO 17008KT 10SM FEW013 FEW018 SCT024 29/24 A2999 250 76 1900 170/08 RMK AO2 T02890244 PNO $
63870K0J4 0J420160812105513108/12/16 10:55:31  5-MIN K0J4 121555Z AUTO 16009KT 10SM SCT016 SCT024 28/24 A2999 250 76 1900 160/09 RMK AO2 SLP152 T02830239 PNO $
63870K0J4 0J420160812110012408/12/16 11:00:31  5-MIN K0J4 121600Z AUTO 17008KT 10SM SCT016 BKN022 28/24 A2999 250 79 1900 170/08 RMK AO2 T02830244 PNO $
63870K0J4 0J420160812110513108/12/16 11:05:31  5-MIN K0J4 121605Z AUTO 17008KT 10SM SCT016 SCT022 BKN029 28/24 A3000 250 76 1900 170/08 RMK AO2 T02830239 PNO $
63870K0J4 0J420160812111012408/12/16 11:10:31  5-MIN K0J4 121610Z AUTO 15007KT 10SM SCT019 BKN026 29/24 A3000 250 74 1900 150/07 RMK AO2 T02890239 PNO $
63870K0J4 0J420160812111512408/12/16 11:15:31  5-MIN K0J4 121615Z AUTO 17009KT 10SM BKN019 BKN026 28/24 A3000 240 76 1900 170/09 RMK AO2 T02830239 PNO $
63870K0J4 0J420160812112013408/12/16 11:20:31  5-MIN K0J4 121620Z AUTO 17007KT 10SM -RA BKN017 BKN023 28/24 A3000 240 79 1800 170/07 RMK AO2 RAB18 T02780239 PNO $
63870K0J4 0J420160812112514008/12/16 11:25:31  5-MIN K0J4 121625Z AUTO 17012G17KT 10SM -RA SCT017 BKN026 28/24 A2999 250 79 1900 170/12G17 RMK AO2 RAB18 T02830244 PNO $
63870K0J4 0J420160812113013908/12/16 11:30:31  5-MIN K0J4 121630Z AUTO 17008G17KT 10SM SCT017 SCT026 29/24 A2999 250 76 1900 170/08G17 RMK AO2 RAB18E30 T02890244 PNO $
63870K0J4 0J420160812113513908/12/16 11:35:31  5-MIN K0J4 121635Z AUTO 21015G22KT 4SM +RA SCT019 BKN023 28/24 A3000 250 79 1800 210/15G22 RMK AO2 RAB18 T02780239 PNO $
63870K0J4 0J420160812114014608/12/16 11:40:31  5-MIN K0J4 121640Z AUTO 20014G22KT 4SM -RA SCT020 BKN031 BKN041 26/23 A3000 250 84 1600 200/14G22 RMK AO2 RAB18 T02610233 PNO $
63870K0J4 0J420160812114514708/12/16 11:45:31  5-MIN K0J4 121645Z AUTO 20011G20KT 10SM -RA FEW019 BKN033 BKN040 26/23 A3000 250 84 1600 200/11G20 RMK AO2 RAB18 T02610233 PNO $
63870K0J4 0J420160812115014108/12/16 11:50:31  5-MIN K0J4 121650Z AUTO 20008KT 10SM -RA FEW019 SCT037 BKN050 26/23 A3000 240 84 1600 200/08 RMK AO2 RAB18 T02610233 PNO $
63870K0J4 0J420160812115514708/12/16 11:55:31  5-MIN K0J4 121655Z AUTO 20007KT 10SM FEW019 BKN040 OVC060 26/23 A3001 240 84 1600 200/07 RMK AO2 RAB18E54 SLP156 T02610233 PNO $
63870K0J4 0J420160812120012408/12/16 12:00:31  5-MIN K0J4 121700Z AUTO 19008KT 10SM FEW019 OVC042 27/24 A3001 240 84 1700 190/08 RMK AO2 T02670239 PNO $
63870K0J4 0J420160812120513108/12/16 12:05:31  5-MIN K0J4 121705Z AUTO 19008KT 10SM FEW033 BKN044 OVC050 27/23 A3001 240 82 1700 190/08 RMK AO2 T02670233 PNO $
63870K0J4 0J420160812121014108/12/16 12:10:31  5-MIN K0J4 121710Z AUTO 19008KT 10SM -RA BKN042 BKN050 OVC060 26/23 A3001 240 84 1600 190/08 RMK AO2 RAB07 T02610233 PNO $
63870K0J4 0J420160812121513308/12/16 12:15:31  5-MIN K0J4 121715Z AUTO 21007KT 9SM -RA SCT042 OVC060 26/23 A3001 230 84 1600 210/07 RMK AO2 RAB07 T02610233 PNO $
63870K0J4 0J420160812122013508/12/16 12:20:31  5-MIN K0J4 121720Z AUTO 21007KT 5SM RA BR SCT042 OVC055 26/24 A3001 240 87 1600 210/07 RMK AO2 RAB07 T02610239 PNO $
63870K0J4 0J420160812122514208/12/16 12:25:31  5-MIN K0J4 121725Z AUTO 21007KT 4SM RA BR FEW044 BKN055 OVC075 26/24 A3000 240 90 1600 210/07 RMK AO2 RAB07 T02560239 PNO $
63870K0J4 0J420160812123014308/12/16 12:30:31  5-MIN K0J4 121730Z AUTO 19006KT 5SM -RA BR BKN046 BKN060 OVC080 26/24 A3000 240 87 1600 190/06 RMK AO2 RAB07 T02610239 PNO $
63870K0J4 0J420160812123514008/12/16 12:35:31  5-MIN K0J4 121735Z AUTO 18006KT 9SM -RA SCT044 BKN060 BKN075 26/24 A3000 240 90 1600 180/06 RMK AO2 RAB07 T02610244 PNO $
63870K0J4 0J420160812124014108/12/16 12:40:31  5-MIN K0J4 121740Z AUTO 18006KT 10SM -RA FEW046 SCT065 BKN075 26/24 A3000 250 87 1600 180/06 RMK AO2 RAB07 T02610239 PNO $
63870K0J4 0J420160812124514108/12/16 12:45:31  5-MIN K0J4 121745Z AUTO 18006KT 10SM -RA FEW048 SCT065 BKN075 26/24 A2999 250 90 1600 180/06 RMK AO2 RAB07 T02610244 PNO $
63870K0J4 0J420160812125014108/12/16 12:50:31  5-MIN K0J4 121750Z AUTO 17005KT 10SM -RA FEW046 SCT065 BKN075 26/24 A2999 250 90 1600 170/05 RMK AO2 RAB07 T02610244 PNO $
63870K0J4 0J420160812125516508/12/16 12:55:31  5-MIN K0J4 121755Z AUTO 19006KT 10SM -RA FEW043 FEW060 26/24 A2999 250 90 1600 190/06 RMK AO2 RAB07 SLP151 6//// T02610244 10289 20239 51006 PNO $
63870K0J4 0J420160812130012508/12/16 13:00:31  5-MIN K0J4 121800Z AUTO 20007KT 10SM FEW060 27/24 A2999 250 87 1700 200/07 RMK AO2 RAE1759 T02670244 PNO $
63870K0J4 0J420160812130512508/12/16 13:05:31  5-MIN K0J4 121805Z AUTO 20007KT 10SM FEW060 27/24 A2999 250 84 1800 200/07 RMK AO2 RAE1759 T02720244 PNO $
63870K0J4 0J420160812131013808/12/16 13:10:31  5-MIN K0J4 121810Z AUTO 20011KT 10SM FEW015 FEW065 27/24 A2999 250 84 1800 200/11 RMK AO2 RAE1759 T02720244 PWINO PNO $
63870K0J4 0J420160812131513108/12/16 13:15:31  5-MIN K0J4 121815Z AUTO 20009KT 10SM FEW015 27/24 A2999 250 82 1800 200/09 RMK AO2 RAE1759 T02720239 PWINO PNO $
63870K0J4 0J420160812132012508/12/16 13:20:31  5-MIN K0J4 121820Z AUTO 19012KT 10SM SCT015 27/24 A2999 250 82 1800 190/12 RMK AO2 RAE1759 T02720239 PNO $
63870K0J4 0J420160812132512508/12/16 13:25:31  5-MIN K0J4 121825Z AUTO 18010KT 10SM SCT015 28/24 A2999 260 79 1900 180/10 RMK AO2 RAE1759 T02830244 PNO $
63870K0J4 0J420160812133013108/12/16 13:30:31  5-MIN K0J4 121830Z AUTO 21010G18KT 10SM BKN015 28/24 A2998 260 79 1900 210/10G18 RMK AO2 RAE1759 T02830244 PNO $
63870K0J4 0J420160812133513108/12/16 13:35:31  5-MIN K0J4 121835Z AUTO 22008G18KT 10SM BKN015 28/25 A2998 260 82 1900 220/08G18 RMK AO2 RAE1759 T02830250 PNO $
63870K0J4 0J420160812134013808/12/16 13:40:31  5-MIN K0J4 121840Z AUTO 19008G16KT 10SM BKN015 BKN060 28/25 A2997 270 82 1900 190/08G16 RMK AO2 RAE1759 T02830250 PNO $
63870K0J4 0J420160812134514408/12/16 13:45:31  5-MIN K0J4 121845Z AUTO 21009G16KT 9SM BKN015 BKN048 BKN060 28/25 A2997 270 84 1800 210/09G16 RMK AO2 RAE1759 T02780250 PNO $
63870K0J4 0J420160812135014508/12/16 13:50:31  5-MIN K0J4 121850Z AUTO 21008KT 8SM -RA BKN015 BKN048 OVC095 27/26 A2997 270 90 1800 210/08 RMK AO2 RAE1759B46 T02720256 PNO $
63870K0J4 0J420160812135513608/12/16 13:55:31  5-MIN K0J4 121855Z AUTO 19007KT 10SM -RA SCT015 SCT048 BKN060 27/26 A2997 270 90 1800 190/07 RMK AO2 RAE1759B46 PNO $
63870K0J4 0J420160812140012508/12/16 14:00:31  5-MIN K0J4 121900Z AUTO 19008KT 10SM FEW015 SCT048 BKN095 27/26 A2997 270 90 1800 190/08 RMK AO2 T02720256
63870K0J4 0J420160812140512508/12/16 14:05:31  5-MIN K0J4 121905Z AUTO 19008KT 10SM FEW015 SCT060 SCT095 28/24 A2997 270 82 1800 190/08 RMK AO2 T02780244
63870K0J4 0J420160812141012508/12/16 14:10:31  5-MIN K0J4 121910Z AUTO 20008KT 10SM FEW017 FEW047 FEW095 28/24 A2997 270 82 1800 200/08 RMK AO2 T02780244
63870K0J4 0J420160812141511108/12/16 14:15:31  5-MIN K0J4 121915Z AUTO 19005KT 10SM FEW095 28/24 A2996 280 82 1900 190/05 RMK AO2 T02780244
63870K0J4 0J420160812142010808/12/16 14:20:31  5-MIN K0J4 121920Z AUTO 19008KT 10SM CLR 28/24 A2996 280 79 1900 190/08 RMK AO2 T02830244
63870K0J4 0J420160812142510808/12/16 14:25:31  5-MIN K0J4 121925Z AUTO 19008KT 10SM CLR 28/24 A2995 280 76 1900 190/08 RMK AO2 T02830239
63870K0J4 0J420160812143012408/12/16 14:30:31  5-MIN K0J4 121930Z AUTO 19010KT 10SM -RA CLR 28/24 A2995 290 76 1900 190/10 RMK AO2 RAB26 P0000 T02830239
63870K0J4 0J420160812143512308/12/16 14:35:31  5-MIN K0J4 121935Z AUTO 21009KT 10SM CLR 28/24 A2995 290 76 1900 210/09 RMK AO2 RAB26E35 P0000 T02830239
63870K0J4 0J420160812144012608/12/16 14:40:31  5-MIN K0J4 121940Z AUTO 21010KT 10SM FEW060 28/24 A2995 290 76 1900 210/10 RMK AO2 RAB26E35 P0000 T02830239
63870K0J4 0J420160812144514008/12/16 14:45:31  5-MIN K0J4 121945Z AUTO 19008KT 10SM FEW017 FEW046 SCT065 29/24 A2995 280 74 2000 190/08 RMK AO2 RAB26E35 P0000 T02890239
63870K0J4 0J420160812145014608/12/16 14:50:31  5-MIN K0J4 121950Z AUTO 17014G21KT 3SM -RA SCT017 SCT025 BKN060 28/24 A2996 280 79 1900 170/14G21 RMK AO2 RAB26 P0004 T02780239
63870K0J4 0J420160812145515608/12/16 14:55:31  5-MIN K0J4 121955Z AUTO 15008G21KT 1SM +RA BR FEW017 SCT027 BKN037 26/24 A2996 280 90 1600 150/08G21 RMK AO2 RAB26 SLP142 P0015 T02560239
63870K0J4 0J420160812150013908/12/16 15:00:31  5-MIN K0J4 122000Z AUTO 17006KT 3/4SM +RA BR FEW017 SCT025 BKN030 25/24 A2997 270 93 1500 170/06 RMK AO2 P0001 T02500239
63870K0J4 0J420160812150515008/12/16 15:05:31  5-MIN K0J4 122005Z AUTO 18005KT 1 3/4SM RA BR SCT017 BKN025 OVC065 25/24 A2997 270 93 1500 180/05 RMK AO2 VIS 3/4V5 P0002 T02500239
63870K0J4 0J420160812151015808/12/16 15:10:31  5-MIN K0J4 122010Z AUTO 21016G20KT 2 1/2SM RA BR FEW009 BKN019 OVC039 25/24 A2997 270 93 1500 210/16G20 RMK AO2 VIS 1 1/4V5 P0004 T02500239
63870K0J4 0J420160812151515508/12/16 15:15:31  5-MIN K0J4 122015Z AUTO 20012G20KT 1 1/2SM +RA BR FEW006 BKN017 OVC027 25/24 A2997 270 93 1500 200/12G20 RMK AO2 VIS 1V4 P0008 T02500239
63870K0J4 0J420160812152014608/12/16 15:20:31  5-MIN K0J4 122020Z AUTO 21011KT 1 3/4SM VCTS +RA BR SCT011 BKN032 OVC075 24/23 A2996 280 93 1500 210/11 RMK AO2 P0010 T02440233
63870K0J4 0J420160812152514208/12/16 15:25:31  5-MIN K0J4 122025Z AUTO 20008KT 3SM VCTS -RA BR FEW007 SCT019 BKN032 24/23 A2996 280 93 1500 200/08 RMK AO2 P0010 T02440233
63870K0J4 0J420160812153013908/12/16 15:30:31  5-MIN K0J4 122030Z AUTO 19007KT 8SM VCTS -RA SCT012 SCT032 BKN065 24/23 A2996 280 93 1500 190/07 RMK AO2 P0010 T02440233
63870K0J4 0J420160812153513408/12/16 15:35:31  5-MIN K0J4 122035Z AUTO 19006KT 9SM -RA FEW010 BKN070 OVC110 24/23 A2996 280 93 1500 190/06 RMK AO2 P0010 T02440233
63870K0J4 0J420160812154013408/12/16 15:40:31  5-MIN K0J4 122040Z AUTO 18007KT 8SM -RA SCT008 BKN070 BKN090 24/23 A2996 280 93 1500 180/07 RMK AO2 P0010 T02440233
63870K0J4 0J420160812154513508/12/16 15:45:31  5-MIN K0J4 122045Z AUTO 17006KT 10SM -RA SCT008 BKN075 BKN090 24/23 A2995 280 93 1500 170/06 RMK AO2 P0010 T02440233
63870K0J4 0J420160812155013508/12/16 15:50:31  5-MIN K0J4 122050Z AUTO 18008KT 10SM -RA BKN007 BKN070 BKN110 24/23 A2995 290 93 1500 180/08 RMK AO2 P0010 T02440233
63870K0J4 0J420160812155515408/12/16 15:55:31  5-MIN K0J4 122055Z AUTO 19008KT 10SM -RA BKN007 BKN060 BKN110 24/23 A2995 290 97 1400 190/08 RMK AO2 SLP138 P0010 6//// T02390233 58002
63870K0J4 0J420160812160013508/12/16 16:00:31  5-MIN K0J4 122100Z AUTO 19008KT 10SM -RA SCT007 BKN042 BKN070 24/23 A2995 290 93 1500 190/08 RMK AO2 P0000 T02440233
63870K0J4 0J420160812160512808/12/16 16:05:31  5-MIN K0J4 122105Z AUTO 19008KT 10SM -RA SCT007 BKN040 24/23 A2995 290 93 1500 190/08 RMK AO2 P0000 T02440233
63870K0J4 0J420160812161013508/12/16 16:10:31  5-MIN K0J4 122110Z AUTO 18007KT 10SM -RA SCT007 BKN040 BKN060 24/23 A2995 290 93 1500 180/07 RMK AO2 P0000 T02440233
63870K0J4 0J420160812161513508/12/16 16:15:31  5-MIN K0J4 122115Z AUTO 18006KT 10SM -RA SCT007 BKN040 BKN060 24/23 A2995 290 93 1500 180/06 RMK AO2 P0000 T02440233
63870K0J4 0J420160812162012808/12/16 16:20:31  5-MIN K0J4 122120Z AUTO 17006KT 10SM -RA BKN005 BKN041 24/23 A2995 280 93 1500 170/06 RMK AO2 P0000 T02440233
63870K0J4 0J420160812162512108/12/16 16:25:31  5-MIN K0J4 122125Z AUTO 17005KT 10SM -RA BKN005 24/23 A2996 280 93 1500 170/05 RMK AO2 P0000 T02440233
63870K0J4 0J420160812163012108/12/16 16:30:31  5-MIN K0J4 122130Z AUTO 18004KT 10SM -RA BKN005 24/23 A2996 280 93 1500 180/04 RMK AO2 P0000 T02440233
63870K0J4 0J420160812163513508/12/16 16:35:31  5-MIN K0J4 122135Z AUTO 17005KT 10SM BKN005 24/23 A2996 280 93 1500 170/05 RMK AO2 RAE33 CIG 004V009 P0000 T02440233
63870K0J4 0J420160812164013008/12/16 16:40:31  5-MIN K0J4 122140Z AUTO 17004KT 10SM BKN005 OVC009 24/23 A2996 280 93 1500 170/04 RMK AO2 RAE33 P0000 T02440233
63870K0J4 0J420160812164514208/12/16 16:45:31  5-MIN K0J4 122145Z AUTO 17004KT 10SM BKN005 OVC009 24/23 A2996 280 93 1500 170/04 RMK AO2 RAE33 CIG 004V008 P0000 T02440233
63870K0J4 0J420160812165014208/12/16 16:50:31  5-MIN K0J4 122150Z AUTO 18005KT 10SM BKN005 OVC010 24/23 A2996 280 93 1500 180/05 RMK AO2 RAE33 CIG 004V008 P0000 T02440233
63870K0J4 0J420160812165514908/12/16 16:55:31  5-MIN K0J4 122155Z AUTO 18005KT 10SM BKN005 OVC010 24/23 A2996 280 93 1500 180/05 RMK AO2 RAE33 CIG 004V009 SLP141 P0000 T02440233
63870K0J4 0J420160812170012308/12/16 17:00:31  5-MIN K0J4 122200Z AUTO 18006KT 10SM BKN008 24/23 A2996 280 93 1500 180/06 RMK AO2 CIG 005V011 T02440233
63870K0J4 0J420160812170512308/12/16 17:05:31  5-MIN K0J4 122205Z AUTO 18007KT 10SM BKN006 24/23 A2996 280 93 1500 180/07 RMK AO2 CIG 005V011 T02440233
63870K0J4 0J420160812171012308/12/16 17:10:31  5-MIN K0J4 122210Z AUTO 19005KT 10SM BKN006 24/23 A2996 280 93 1500 190/05 RMK AO2 CIG 005V011 T02440233
63870K0J4 0J420160812171512308/12/16 17:15:31  5-MIN K0J4 122215Z AUTO 18004KT 10SM BKN006 24/23 A2996 280 93 1500 180/04 RMK AO2 CIG 005V011 T02440233
63870K0J4 0J420160812172012308/12/16 17:20:31  5-MIN K0J4 122220Z AUTO 18005KT 10SM BKN007 25/23 A2997 270 90 1500 180/05 RMK AO2 CIG 005V011 T02500233
63870K0J4 0J420160812172512308/12/16 17:25:31  5-MIN K0J4 122225Z AUTO 19005KT 10SM BKN007 25/23 A2997 270 90 1500 190/05 RMK AO2 CIG 005V010 T02500233
63870K0J4 0J420160812173012308/12/16 17:30:31  5-MIN K0J4 122230Z AUTO 18005KT 10SM BKN007 25/23 A2997 270 90 1500 180/05 RMK AO2 CIG 005V010 T02500233
63870K0J4 0J420160812173513008/12/16 17:35:31  5-MIN K0J4 122235Z AUTO 17006KT 10SM BKN007 BKN017 25/23 A2997 270 90 1500 170/06 RMK AO2 CIG 005V010 T02500233
63870K0J4 0J420160812174013008/12/16 17:40:31  5-MIN K0J4 122240Z AUTO 17004KT 10SM BKN007 BKN017 25/23 A2997 270 90 1500 170/04 RMK AO2 CIG 005V010 T02500233
63870K0J4 0J420160812174513708/12/16 17:45:31  5-MIN K0J4 122245Z AUTO 17004KT 10SM BKN007 BKN015 OVC020 25/23 A2997 270 90 1500 170/04 RMK AO2 CIG 005V011 T02500233
63870K0J4 0J420160812175015308/12/16 17:50:31  5-MIN K0J4 122250Z AUTO 18003KT 10SM -RA BKN009 BKN015 OVC024 25/24 A2997 270 93 1500 180/03 RMK AO2 RAB46 CIG 005V011 P0000 T02500239
63870K0J4 0J420160812175513108/12/16 17:55:31  5-MIN K0J4 122255Z AUTO 18005KT 10SM -RA SCT009 BKN015 OVC026 25/24 A2997 270 93 1500 180/05 RMK AO2 RAB46 P0000
63870K0J4 0J420160812180013708/12/16 18:00:31  5-MIN K0J4 122300Z AUTO 19005KT 10SM FEW009 SCT016 BKN026 25/23 A2996 280 90 1500 190/05 RMK AO2 RAE00 P0000 T02500233
63870K0J4 0J420160812180513708/12/16 18:05:31  5-MIN K0J4 122305Z AUTO 20005KT 10SM FEW009 SCT016 BKN026 25/23 A2996 280 90 1500 200/05 RMK AO2 RAE00 P0000 T02500233
63870K0J4 0J420160812181013708/12/16 18:10:31  5-MIN K0J4 122310Z AUTO 19006KT 10SM SCT009 SCT016 BKN026 25/23 A2996 280 90 1500 190/06 RMK AO2 RAE00 P0000 T02500233
63870K0J4 0J420160812181513708/12/16 18:15:31  5-MIN K0J4 122315Z AUTO 19004KT 10SM FEW009 SCT015 BKN032 25/23 A2996 280 90 1500 190/04 RMK AO2 RAE00 P0000 T02500233
63870K0J4 0J420160812182013708/12/16 18:20:31  5-MIN K0J4 122320Z AUTO 20005KT 10SM FEW009 SCT028 BKN034 25/23 A2996 280 90 1500 200/05 RMK AO2 RAE00 P0000 T02500233
63870K0J4 0J420160812182513708/12/16 18:25:31  5-MIN K0J4 122325Z AUTO 18004KT 10SM FEW009 BKN028 BKN034 25/23 A2996 280 90 1500 180/04 RMK AO2 RAE00 P0000 T02500233
63870K0J4 0J420160812183014408/12/16 18:30:31  5-MIN K0J4 122330Z AUTO 19005KT 10SM -RA FEW011 SCT022 BKN030 25/23 A2996 280 90 1500 190/05 RMK AO2 RAE00B29 P0000 T02500233
63870K0J4 0J420160812183514408/12/16 18:35:31  5-MIN K0J4 122335Z AUTO 19004KT 10SM -RA FEW012 BKN019 OVC033 25/23 A2996 280 90 1500 190/04 RMK AO2 RAE00B29 P0000 T02500233
63870K0J4 0J420160812184014308/12/16 18:40:31  5-MIN K0J4 122340Z AUTO 20005KT 10SM FEW009 BKN019 OVC033 25/23 A2996 280 90 1500 200/05 RMK AO2 RAE00B29E38 P0000 T02500233
63870K0J4 0J420160812184514308/12/16 18:45:31  5-MIN K0J4 122345Z AUTO 18003KT 10SM FEW009 BKN019 OVC027 25/23 A2996 280 90 1500 180/03 RMK AO2 RAE00B29E38 P0000 T02500233
63870K0J4 0J420160812185014308/12/16 18:50:31  5-MIN K0J4 122350Z AUTO 19004KT 10SM FEW009 BKN013 OVC027 25/23 A2996 280 90 1500 190/04 RMK AO2 RAE00B29E38 P0000 T02500233
63870K0J4 0J420160812185517408/12/16 18:55:31  5-MIN K0J4 122355Z AUTO 20007KT 10SM FEW008 BKN013 BKN021 25/23 A2996 280 90 1500 200/07 RMK AO2 RAE00B29E38 SLP140 P0000 6//// T02500233 10283 20239 56013
63870K0J4 0J420160812190011808/12/16 19:00:31  5-MIN K0J4 130000Z AUTO 18004KT 10SM SCT010 BKN016 25/23 A2996 280 90 1500 180/04 RMK AO2 T02500233
63870K0J4 0J420160812190511808/12/16 19:05:31  5-MIN K0J4 130005Z AUTO 19006KT 10SM SCT010 BKN013 25/23 A2996 280 90 1500 190/06 RMK AO2 T02500233
63870K0J4 0J420160812191011808/12/16 19:10:31  5-MIN K0J4 130010Z AUTO 18004KT 10SM SCT010 BKN015 25/23 A2996 280 90 1500 180/04 RMK AO2 T02500233
63870K0J4 0J420160812191511108/12/16 19:15:31  5-MIN K0J4 130015Z AUTO 19004KT 10SM BKN012 25/23 A2997 270 90 1500 190/04 RMK AO2 T02500233
63870K0J4 0J420160812192011108/12/16 19:20:31  5-MIN K0J4 130020Z AUTO 18005KT 10SM SCT012 24/23 A2997 270 93 1500 180/05 RMK AO2 T02440233
63870K0J4 0J420160812192511108/12/16 19:25:31  5-MIN K0J4 130025Z AUTO 19004KT 10SM SCT012 24/23 A2997 270 93 1500 190/04 RMK AO2 T02440233
63870K0J4 0J420160812193011108/12/16 19:30:31  5-MIN K0J4 130030Z AUTO 19006KT 10SM SCT012 24/23 A2997 270 90 1500 190/06 RMK AO2 T02440228
63870K0J4 0J420160812193511108/12/16 19:35:31  5-MIN K0J4 130035Z AUTO 19006KT 10SM FEW011 24/23 A2997 270 90 1500 190/06 RMK AO2 T02440228
63870K0J4 0J420160812194011108/12/16 19:40:31  5-MIN K0J4 130040Z AUTO 19005KT 10SM FEW011 24/23 A2997 270 90 1500 190/05 RMK AO2 T02440228
63870K0J4 0J420160812194511108/12/16 19:45:31  5-MIN K0J4 130045Z AUTO 19003KT 10SM FEW011 24/23 A2997 270 90 1500 190/03 RMK AO2 T02440228
63870K0J4 0J420160812195011108/12/16 19:50:31  5-MIN K0J4 130050Z AUTO 19003KT 10SM FEW011 24/23 A2997 270 90 1500 190/03 RMK AO2 T02440228
63870K0J4 0J420160812195511508/12/16 19:55:31  5-MIN K0J4 130055Z AUTO 18003KT 10SM CLR 24/23 A2997 270 90 1500 180/03 RMK AO2 SLP143 T02440228
63870K0J4 0J420160812200010808/12/16 20:00:31  5-MIN K0J4 130100Z AUTO 17004KT 10SM CLR 24/23 A2997 270 93 1400 170/04 RMK AO2 T02390228
63870K0J4 0J420160812200510808/12/16 20:05:31  5-MIN K0J4 130105Z AUTO 17004KT 10SM CLR 24/23 A2998 270 93 1400 170/04 RMK AO2 T02390228
63870K0J4 0J420160812201010808/12/16 20:10:31  5-MIN K0J4 130110Z AUTO 17004KT 10SM CLR 24/23 A2997 270 93 1400 170/04 RMK AO2 T02390228
63870K0J4 0J420160812201510808/12/16 20:15:31  5-MIN K0J4 130115Z AUTO 17004KT 10SM CLR 24/23 A2998 260 93 1400 170/04 RMK AO2 T02390228
63870K0J4 0J420160812202010808/12/16 20:20:31  5-MIN K0J4 130120Z AUTO 16004KT 10SM CLR 24/23 A2998 260 93 1400 160/04 RMK AO2 T02390228
63870K0J4 0J420160812202510808/12/16 20:25:31  5-MIN K0J4 130125Z AUTO 17003KT 10SM CLR 24/23 A2998 270 93 1400 170/03 RMK AO2 T02390228
63870K0J4 0J420160812203010808/12/16 20:30:31  5-MIN K0J4 130130Z AUTO 17003KT 10SM CLR 24/23 A2997 270 93 1400 170/03 RMK AO2 T02390228
63870K0J4 0J420160812203510808/12/16 20:35:31  5-MIN K0J4 130135Z AUTO 18003KT 10SM CLR 24/23 A2997 270 93 1400 180/03 RMK AO2 T02390228
63870K0J4 0J420160812204010808/12/16 20:40:31  5-MIN K0J4 130140Z AUTO 17003KT 10SM CLR 24/23 A2997 270 93 1400 170/03 RMK AO2 T02390228
63870K0J4 0J420160812204510808/12/16 20:45:31  5-MIN K0J4 130145Z AUTO 00000KT 10SM CLR 24/23 A2997 270 93 1400 000/00 RMK AO2 T02390228
63870K0J4 0J420160812205010808/12/16 20:50:31  5-MIN K0J4 130150Z AUTO 18003KT 10SM CLR 24/23 A2997 270 93 1400 180/03 RMK AO2 T02390228
63870K0J4 0J420160812205511508/12/16 20:55:31  5-MIN K0J4 130155Z AUTO 18004KT 10SM CLR 24/23 A2997 270 93 1400 180/04 RMK AO2 SLP145 T02390228
63870K0J4 0J420160812210010808/12/16 21:00:31  5-MIN K0J4 130200Z AUTO 18004KT 10SM CLR 24/23 A2997 270 93 1400 180/04 RMK AO2 T02390228
63870K0J4 0J420160812210510808/12/16 21:05:31  5-MIN K0J4 130205Z AUTO 18004KT 10SM CLR 24/23 A2998 260 93 1400 180/04 RMK AO2 T02390228
63870K0J4 0J420160812211010808/12/16 21:10:31  5-MIN K0J4 130210Z AUTO 18004KT 10SM CLR 23/23 A2998 260 97 1300 180/04 RMK AO2 T02330228
63870K0J4 0J420160812211510808/12/16 21:15:31  5-MIN K0J4 130215Z AUTO 18004KT 10SM CLR 23/23 A2998 260 97 1300 180/04 RMK AO2 T02330228
63870K0J4 0J420160812212010808/12/16 21:20:31  5-MIN K0J4 130220Z AUTO 17004KT 10SM CLR 23/23 A2999 250 97 1300 170/04 RMK AO2 T02330228
63870K0J4 0J420160812212510808/12/16 21:25:31  5-MIN K0J4 130225Z AUTO 17004KT 10SM CLR 23/23 A2999 250 97 1300 170/04 RMK AO2 T02330228
63870K0J4 0J420160812213011108/12/16 21:30:31  5-MIN K0J4 130230Z AUTO 15004KT 10SM FEW044 23/23 A2999 250 97 1300 150/04 RMK AO2 T02330228
63870K0J4 0J420160812213511108/12/16 21:35:31  5-MIN K0J4 130235Z AUTO 16003KT 10SM FEW044 23/22 A3000 250 93 1300 160/03 RMK AO2 T02330222
63870K0J4 0J420160812214011808/12/16 21:40:31  5-MIN K0J4 130240Z AUTO 15003KT 10SM FEW033 FEW044 23/22 A3000 250 93 1300 150/03 RMK AO2 T02330222
63870K0J4 0J420160812214511808/12/16 21:45:31  5-MIN K0J4 130245Z AUTO 14003KT 10SM SCT036 SCT045 23/22 A3000 250 93 1300 140/03 RMK AO2 T02330222
63870K0J4 0J420160812215011808/12/16 21:50:31  5-MIN K0J4 130250Z AUTO 16003KT 10SM BKN038 BKN045 23/22 A3000 250 93 1300 160/03 RMK AO2 T02330222
63870K0J4 0J420160812215513108/12/16 21:55:31  5-MIN K0J4 130255Z AUTO 16003KT 10SM BKN038 BKN044 23/22 A3000 250 93 1300 160/03 RMK AO2 SLP153 T02330222 58000
63870K0J4 0J420160812220011808/12/16 22:00:31  5-MIN K0J4 130300Z AUTO 16003KT 10SM FEW015 BKN036 23/22 A3000 250 93 1300 160/03 RMK AO2 T02330222
63870K0J4 0J420160812220511808/12/16 22:05:31  5-MIN K0J4 130305Z AUTO 00000KT 10SM FEW015 BKN036 23/22 A3000 250 93 1300 000/00 RMK AO2 T02330222
63870K0J4 0J420160812221011808/12/16 22:10:31  5-MIN K0J4 130310Z AUTO 00000KT 10SM FEW015 SCT038 23/22 A2999 250 93 1300 000/00 RMK AO2 T02330222
63870K0J4 0J420160812221511808/12/16 22:15:31  5-MIN K0J4 130315Z AUTO 00000KT 10SM FEW015 SCT038 23/22 A2999 250 93 1300 000/00 RMK AO2 T02330222
63870K0J4 0J420160812222011808/12/16 22:20:31  5-MIN K0J4 130320Z AUTO 00000KT 10SM FEW015 FEW036 23/22 A3000 250 93 1300 000/00 RMK AO2 T02330222
63870K0J4 0J420160812222511108/12/16 22:25:31  5-MIN K0J4 130325Z AUTO 00000KT 10SM FEW015 23/22 A3000 240 93 1300 000/00 RMK AO2 T02330222
63870K0J4 0J420160812223011108/12/16 22:30:31  5-MIN K0J4 130330Z AUTO 00000KT 10SM SCT015 23/22 A3000 240 93 1300 000/00 RMK AO2 T02330222
63870K0J4 0J420160812223511108/12/16 22:35:31  5-MIN K0J4 130335Z AUTO 14003KT 10SM BKN013 23/22 A3001 240 93 1300 140/03 RMK AO2 T02330222
63870K0J4 0J420160812224011108/12/16 22:40:31  5-MIN K0J4 130340Z AUTO 00000KT 10SM BKN013 23/22 A3001 240 93 1300 000/00 RMK AO2 T02330222
63870K0J4 0J420160812224511108/12/16 22:45:31  5-MIN K0J4 130345Z AUTO 00000KT 10SM BKN013 23/22 A3001 240 93 1300 000/00 RMK AO2 T02330222
63870K0J4 0J420160812225011108/12/16 22:50:31  5-MIN K0J4 130350Z AUTO 00000KT 10SM SCT013 23/22 A3001 230 93 1300 000/00 RMK AO2 T02330222
63870K0J4 0J420160812225511808/12/16 22:55:31  5-MIN K0J4 130355Z AUTO 00000KT 10SM SCT013 23/22 A3001 230 93 1300 000/00 RMK AO2 SLP158 T02330222
63870K0J4 0J420160812230011108/12/16 23:00:31  5-MIN K0J4 130400Z AUTO 15003KT 10SM SCT013 23/22 A3002 230 93 1300 150/03 RMK AO2 T02330222
63870K0J4 0J420160812230511108/12/16 23:05:31  5-MIN K0J4 130405Z AUTO 15003KT 10SM FEW013 23/22 A3002 230 97 1200 150/03 RMK AO2 T02280222
63870K0J4 0J420160812231010808/12/16 23:10:31  5-MIN K0J4 130410Z AUTO 14003KT 10SM CLR 23/22 A3002 230 97 1200 140/03 RMK AO2 T02280222
63870K0J4 0J420160812231510808/12/16 23:15:31  5-MIN K0J4 130415Z AUTO 00000KT 10SM CLR 23/22 A3002 230 97 1200 000/00 RMK AO2 T02280222
63870K0J4 0J420160812232010808/12/16 23:20:31  5-MIN K0J4 130420Z AUTO 00000KT 10SM CLR 23/22 A3002 230 97 1200 000/00 RMK AO2 T02280222
63870K0J4 0J420160812232510808/12/16 23:25:31  5-MIN K0J4 130425Z AUTO 00000KT 10SM CLR 23/22 A3002 230 97 1200 000/00 RMK AO2 T02280222
63870K0J4 0J420160812233010808/12/16 23:30:31  5-MIN K0J4 130430Z AUTO 00000KT 10SM CLR 23/22 A3002 230 97 1200 000/00 RMK AO2 T02280222
63870K0J4 0J420160812233510808/12/16 23:35:31  5-MIN K0J4 130435Z AUTO 14003KT 10SM CLR 23/22 A3002 230 97 1200 140/03 RMK AO2 T02280222
63870K0J4 0J420160812234010808/12/16 23:40:31  5-MIN K0J4 130440Z AUTO 15003KT 10SM CLR 23/22 A3002 230 97 1200 150/03 RMK AO2 T02280222
63870K0J4 0J420160812234510808/12/16 23:45:31  5-MIN K0J4 130445Z AUTO 16003KT 10SM CLR 23/22 A3002 230 97 1200 160/03 RMK AO2 T02280222
63870K0J4 0J420160812235010708/12/16 23:50:31  5-MIN K0J4 130450Z AUTO 15003KT 9SM CLR 23/22 A3002 230 97 1200 150/03 RMK AO2 T02280222
63870K0J4 0J420160812235512408/12/16 23:55:31  5-MIN K0J4 130455Z AUTO 00000KT 9SM CLR 23/22 A3002 230 97 1200 000/00 RMK AO2 SLP159 T02280222 402890228
63870K0J4 0J420160813000010708/13/16 00:00:31  5-MIN K0J4 130500Z AUTO 00000KT 9SM CLR 23/22 A3001 230 97 1200 000/00 RMK AO2 T02280222
63870K0J4 0J420160813000510708/13/16 00:05:31  5-MIN K0J4 130505Z AUTO 00000KT 9SM CLR 23/22 A3001 230 97 1200 000/00 RMK AO2 T02280222
63870K0J4 0J420160813001010708/13/16 00:10:31  5-MIN K0J4 130510Z AUTO 00000KT 9SM CLR 23/22 A3001 230 97 1200 000/00 RMK AO2 T02280222
63870K0J4 0J420160813001510808/13/16 00:15:31  5-MIN K0J4 130515Z AUTO 00000KT 10SM CLR 23/22 A3001 230 97 1200 000/00 RMK AO2 T02280222
63870K0J4 0J420160813002012408/13/16 00:20:31  5-MIN K0J4 130520Z AUTO 16003KT 10SM -RA CLR 23/22 A3001 230 97 1200 160/03 RMK AO2 RAB16 P0000 T02280222
63870K0J4 0J420160813002512408/13/16 00:25:31  5-MIN K0J4 130525Z AUTO 00000KT 10SM -RA CLR 23/22 A3002 230 97 1200 000/00 RMK AO2 RAB16 P0000 T02280222
63870K0J4 0J420160813003012308/13/16 00:30:31  5-MIN K0J4 130530Z AUTO 00000KT 10SM CLR 23/22 A3001 230 97 1200 000/00 RMK AO2 RAB16E27 P0000 T02280222
63870K0J4 0J420160813003512208/13/16 00:35:31  5-MIN K0J4 130535Z AUTO 16003KT 9SM CLR 23/22 A3002 230 97 1200 160/03 RMK AO2 RAB16E27 P0000 T02280222
63870K0J4 0J420160813004012208/13/16 00:40:31  5-MIN K0J4 130540Z AUTO 00000KT 8SM CLR 23/22 A3002 230 97 1200 000/00 RMK AO2 RAB16E27 P0000 T02280222
63870K0J4 0J420160813004512208/13/16 00:45:31  5-MIN K0J4 130545Z AUTO 00000KT 8SM CLR 23/22 A3001 230 97 1200 000/00 RMK AO2 RAB16E27 P0000 T02280222
63870K0J4 0J420160813005012208/13/16 00:50:31  5-MIN K0J4 130550Z AUTO 00000KT 8SM CLR 23/22 A3001 230 97 1200 000/00 RMK AO2 RAB16E27 P0000 T02280222
63870K0J4 0J420160813005515308/13/16 00:55:31  5-MIN K0J4 130555Z AUTO 00000KT 8SM CLR 23/22 A3001 230 97 1200 000/00 RMK AO2 RAB16E27 SLP157 P0000 60000 T02280222 10250 20228 53012
63870K0J4 0J420160813010010708/13/16 01:00:31  5-MIN K0J4 130600Z AUTO 00000KT 8SM CLR 23/22 A3001 240 93 1200 000/00 RMK AO2 T02280217
63870K0J4 0J420160813010510708/13/16 01:05:31  5-MIN K0J4 130605Z AUTO 00000KT 7SM CLR 23/22 A3001 240 97 1200 000/00 RMK AO2 T02280222
63870K0J4 0J420160813011010708/13/16 01:10:31  5-MIN K0J4 130610Z AUTO 00000KT 7SM CLR 23/22 A3000 240 93 1200 000/00 RMK AO2 T02280217
63870K0J4 0J420160813011510708/13/16 01:15:31  5-MIN K0J4 130615Z AUTO 00000KT 7SM CLR 23/22 A3000 240 93 1200 000/00 RMK AO2 T02280217
63870K0J4 0J420160813012010708/13/16 01:20:31  5-MIN K0J4 130620Z AUTO 00000KT 7SM CLR 23/22 A3000 240 93 1200 000/00 RMK AO2 T02280217
63870K0J4 0J420160813012510708/13/16 01:25:31  5-MIN K0J4 130625Z AUTO 00000KT 7SM CLR 23/22 A3000 240 93 1200 000/00 RMK AO2 T02280217
63870K0J4 0J420160813013011008/13/16 01:30:31  5-MIN K0J4 130630Z AUTO 00000KT 7SM FEW017 23/22 A3000 250 93 1200 000/00 RMK AO2 T02280217
63870K0J4 0J420160813013511008/13/16 01:35:31  5-MIN K0J4 130635Z AUTO 00000KT 8SM FEW017 23/22 A2999 250 93 1300 000/00 RMK AO2 T02280217
63870K0J4 0J420160813014011008/13/16 01:40:31  5-MIN K0J4 130640Z AUTO 00000KT 8SM FEW017 23/22 A2999 250 93 1300 000/00 RMK AO2 T02280217
63870K0J4 0J420160813014511008/13/16 01:45:31  5-MIN K0J4 130645Z AUTO 00000KT 8SM FEW017 23/22 A2999 250 93 1300 000/00 RMK AO2 T02280217
63870K0J4 0J420160813015011008/13/16 01:50:31  5-MIN K0J4 130650Z AUTO 00000KT 8SM FEW017 23/22 A2999 250 93 1300 000/00 RMK AO2 T02280217
63870K0J4 0J420160813015511708/13/16 01:55:31  5-MIN K0J4 130655Z AUTO 00000KT 7SM FEW017 23/22 A2999 250 93 1300 000/00 RMK AO2 SLP150 T02280217
63870K0J4 0J420160813020010708/13/16 02:00:31  5-MIN K0J4 130700Z AUTO 00000KT 7SM CLR 22/22 A2998 260 97 1200 000/00 RMK AO2 T02220217
63870K0J4 0J420160813020510708/13/16 02:05:31  5-MIN K0J4 130705Z AUTO 00000KT 8SM CLR 22/21 A2998 260 93 1200 000/00 RMK AO2 T02220211
63870K0J4 0J420160813021010708/13/16 02:10:31  5-MIN K0J4 130710Z AUTO 00000KT 9SM CLR 22/22 A2998 260 97 1200 000/00 RMK AO2 T02220217
63870K0J4 0J420160813021510808/13/16 02:15:31  5-MIN K0J4 130715Z AUTO 00000KT 10SM CLR 22/21 A2998 260 93 1200 000/00 RMK AO2 T02220211
63870K0J4 0J420160813022010808/13/16 02:20:31  5-MIN K0J4 130720Z AUTO 00000KT 10SM CLR 22/21 A2997 270 93 1200 000/00 RMK AO2 T02220211
63870K0J4 0J420160813022510708/13/16 02:25:31  5-MIN K0J4 130725Z AUTO 00000KT 9SM CLR 23/22 A2997 270 93 1300 000/00 RMK AO2 T02280217
63870K0J4 0J420160813023010708/13/16 02:30:31  5-MIN K0J4 130730Z AUTO 00000KT 9SM CLR 23/22 A2997 270 93 1300 000/00 RMK AO2 T02280217
63870K0J4 0J420160813023510708/13/16 02:35:31  5-MIN K0J4 130735Z AUTO 00000KT 9SM CLR 22/22 A2997 270 97 1200 000/00 RMK AO2 T02220217
63870K0J4 0J420160813024010708/13/16 02:40:31  5-MIN K0J4 130740Z AUTO 00000KT 9SM CLR 22/21 A2997 270 93 1200 000/00 RMK AO2 T02220211
63870K0J4 0J420160813024510708/13/16 02:45:31  5-MIN K0J4 130745Z AUTO 00000KT 9SM CLR 22/21 A2997 270 93 1200 000/00 RMK AO2 T02220211
63870K0J4 0J420160813025010708/13/16 02:50:31  5-MIN K0J4 130750Z AUTO 00000KT 9SM CLR 22/22 A2997 270 97 1200 000/00 RMK AO2 T02220217
63870K0J4 0J420160813025511408/13/16 02:55:31  5-MIN K0J4 130755Z AUTO 00000KT 9SM CLR 22/22 A2997 270 97 1200 000/00 RMK AO2 SLP144 T02220217
63870K0J4 0J420160813030010708/13/16 03:00:31  5-MIN K0J4 130800Z AUTO 12003KT 9SM CLR 22/21 A2997 270 93 1200 120/03 RMK AO2 T02220211
63870K0J4 0J420160813030510708/13/16 03:05:31  5-MIN K0J4 130805Z AUTO 13003KT 9SM CLR 22/22 A2997 270 97 1200 130/03 RMK AO2 T02220217
63870K0J4 0J420160813031010708/13/16 03:10:31  5-MIN K0J4 130810Z AUTO 12003KT 9SM CLR 22/22 A2997 270 97 1200 120/03 RMK AO2 T02220217
63870K0J4 0J420160813031510708/13/16 03:15:31  5-MIN K0J4 130815Z AUTO 12003KT 8SM CLR 22/22 A2997 270 97 1200 120/03 RMK AO2 T02220217
63870K0J4 0J420160813032011008/13/16 03:20:31  5-MIN K0J4 130820Z AUTO 11003KT 8SM FEW011 22/22 A2998 270 97 1200 110/03 RMK AO2 T02220217
63870K0J4 0J420160813032511008/13/16 03:25:31  5-MIN K0J4 130825Z AUTO 00000KT 7SM SCT011 22/22 A2997 270 97 1200 000/00 RMK AO2 T02220217
63870K0J4 0J420160813033011708/13/16 03:30:31  5-MIN K0J4 130830Z AUTO 11003KT 8SM FEW003 SCT011 22/22 A2998 270 97 1200 110/03 RMK AO2 T02220217
63870K0J4 0J420160813033511708/13/16 03:35:31  5-MIN K0J4 130835Z AUTO 10003KT 9SM FEW002 SCT012 22/22 A2997 270 97 1200 100/03 RMK AO2 T02220217
63870K0J4 0J420160813034011808/13/16 03:40:31  5-MIN K0J4 130840Z AUTO VRB03KT 10SM FEW002 SCT012 22/22 A2997 270 97 1200 VRB/03 RMK AO2 T02220217
63870K0J4 0J420160813034511708/13/16 03:45:31  5-MIN K0J4 130845Z AUTO 11003KT 9SM FEW002 SCT012 22/22 A2997 270 97 1200 110/03 RMK AO2 T02220217
63870K0J4 0J420160813035012708/13/16 03:50:31  5-MIN K0J4 130850Z AUTO 11003KT 4SM BR SCT002 BKN008 BKN012 22/22 A2997 270 97 1200 110/03 RMK AO2 T02220217
63870K0J4 0J420160813035510708/13/16 03:55:31  5-MIN K0J4 130855Z AUTO 13003KT 1 1/2SM BR BKN002 22/22 A2997 270 97 1200 130/03 RMK AO2
63870K0J4 0J420160813040011208/13/16 04:00:31  5-MIN K0J4 130900Z AUTO 12003KT 1SM BR VV002 22/22 A2998 270 97 1200 120/03 RMK AO2 T02220217
63870K0J4 0J420160813040511408/13/16 04:05:31  5-MIN K0J4 130905Z AUTO 12003KT 3/4SM BR VV002 22/22 A2998 260 97 1200 120/03 RMK AO2 T02220217
63870K0J4 0J420160813041011408/13/16 04:10:31  5-MIN K0J4 130910Z AUTO 12003KT 3/4SM BR VV001 22/22 A2998 260 97 1200 120/03 RMK AO2 T02220217
63870K0J4 0J420160813041511208/13/16 04:15:31  5-MIN K0J4 130915Z AUTO 12003KT 1SM BR VV001 22/22 A2998 260 97 1200 120/03 RMK AO2 T02220217
63870K0J4 0J420160813042011708/13/16 04:20:31  5-MIN K0J4 130920Z AUTO 12003KT 1 1/4SM BR OVC001 22/22 A2998 260 97 1200 120/03 RMK AO2 T02220217
63870K0J4 0J420160813042511308/13/16 04:25:31  5-MIN K0J4 130925Z AUTO 00000KT 2SM BR OVC001 22/22 A2998 260 97 1200 000/00 RMK AO2 T02220217
63870K0J4 0J420160813043011308/13/16 04:30:31  5-MIN K0J4 130930Z AUTO 00000KT 3SM BR OVC001 22/22 A2998 260 97 1200 000/00 RMK AO2 T02220217
63870K0J4 0J420160813043511308/13/16 04:35:31  5-MIN K0J4 130935Z AUTO 12003KT 6SM BR OVC001 22/22 A2998 260 97 1200 120/03 RMK AO2 T02220217
63870K0J4 0J420160813044011008/13/16 04:40:31  5-MIN K0J4 130940Z AUTO 00000KT 8SM OVC001 22/22 A2998 260 97 1200 000/00 RMK AO2 T02220217
63870K0J4 0J420160813044511008/13/16 04:45:31  5-MIN K0J4 130945Z AUTO 00000KT 7SM OVC001 22/22 A2998 260 97 1200 000/00 RMK AO2 T02220217
63870K0J4 0J420160813045011308/13/16 04:50:31  5-MIN K0J4 130950Z AUTO 00000KT 6SM BR OVC001 22/22 A2998 260 97 1200 000/00 RMK AO2 T02220217
63870K0J4 0J420160813045512008/13/16 04:55:31  5-MIN K0J4 130955Z AUTO 00000KT 5SM BR OVC001 22/22 A2999 260 97 1200 000/00 RMK AO2 SLP150 T02220217
63870K0J4 0J420160813050011308/13/16 05:00:31  5-MIN K0J4 131000Z AUTO 00000KT 4SM BR OVC001 22/22 A2999 260 97 1200 000/00 RMK AO2 T02220217
63870K0J4 0J420160813050511708/13/16 05:05:31  5-MIN K0J4 131005Z AUTO 15003KT 2 1/2SM BR OVC001 22/22 A2999 250 97 1200 150/03 RMK AO2 T02220217
63870K0J4 0J420160813051011708/13/16 05:10:31  5-MIN K0J4 131010Z AUTO 00000KT 1 3/4SM BR OVC001 22/22 A2999 250 97 1200 000/00 RMK AO2 T02220217
63870K0J4 0J420160813051511708/13/16 05:15:31  5-MIN K0J4 131015Z AUTO 00000KT 1 1/2SM BR OVC001 22/22 A2999 250 97 1200 000/00 RMK AO2 T02220217
63870K0J4 0J420160813052011708/13/16 05:20:31  5-MIN K0J4 131020Z AUTO 00000KT 1 1/4SM BR OVC001 22/22 A2999 250 97 1200 000/00 RMK AO2 T02220217
63870K0J4 0J420160813052511208/13/16 05:25:31  5-MIN K0J4 131025Z AUTO 00000KT 1SM BR VV001 22/22 A2999 250 97 1200 000/00 RMK AO2 T02220217
63870K0J4 0J420160813053011408/13/16 05:30:31  5-MIN K0J4 131030Z AUTO 00000KT 3/4SM BR VV001 22/22 A2999 250 97 1200 000/00 RMK AO2 T02220217
63870K0J4 0J420160813053511408/13/16 05:35:31  5-MIN K0J4 131035Z AUTO 00000KT 3/4SM BR VV001 22/22 A3000 240 97 1200 000/00 RMK AO2 T02220217
63870K0J4 0J420160813054011208/13/16 05:40:31  5-MIN K0J4 131040Z AUTO 00000KT 1SM BR VV001 22/22 A3000 240 97 1200 000/00 RMK AO2 T02220217
63870K0J4 0J420160813054511208/13/16 05:45:31  5-MIN K0J4 131045Z AUTO 00000KT 1SM BR VV001 22/22 A3000 240 97 1200 000/00 RMK AO2 T02220217
63870K0J4 0J420160813055011708/13/16 05:50:31  5-MIN K0J4 131050Z AUTO 00000KT 1 1/4SM BR OVC001 22/22 A3000 240 97 1200 000/00 RMK AO2 T02220217
63870K0J4 0J420160813055512408/13/16 05:55:31  5-MIN K0J4 131055Z AUTO 00000KT 1 1/4SM BR OVC001 22/22 A3000 240 97 1200 000/00 RMK AO2 SLP155 T02220217
63870K0J4 0J420160813060011308/13/16 06:00:31  5-MIN K0J4 131100Z AUTO 00000KT 1SM BR OVC001 22/22 A3000 240 97 1200 000/00 RMK AO2 T02220217
63870K0J4 0J420160813060511308/13/16 06:05:31  5-MIN K0J4 131105Z AUTO 00000KT 1SM BR OVC001 22/22 A3001 240 97 1200 000/00 RMK AO2 T02220217
63870K0J4 0J420160813061011708/13/16 06:10:31  5-MIN K0J4 131110Z AUTO 00000KT 1 1/4SM BR OVC001 22/22 A3001 230 97 1200 000/00 RMK AO2 T02220217
63870K0J4 0J420160813061511408/13/16 06:15:31  5-MIN K0J4 131115Z AUTO 14003KT 3/4SM BR VV002 23/22 A3001 230 93 1200 140/03 RMK AO2 T02280217
63870K0J4 0J420160813062011408/13/16 06:20:31  5-MIN K0J4 131120Z AUTO 14004KT 1/2SM FG VV002 23/22 A3001 230 93 1200 140/04 RMK AO2 T02280217
63870K0J4 0J420160813062511408/13/16 06:25:31  5-MIN K0J4 131125Z AUTO 15004KT 1/4SM FG VV001 23/22 A3002 230 97 1200 150/04 RMK AO2 T02280222
63870K0J4 0J420160813063011408/13/16 06:30:31  5-MIN K0J4 131130Z AUTO 15005KT 1/4SM FG VV001 23/22 A3002 230 97 1200 150/05 RMK AO2 T02280222
63870K0J4 0J420160813063511408/13/16 06:35:31  5-MIN K0J4 131135Z AUTO VRB05KT 1/4SM FG VV001 23/22 A3002 220 97 1200 VRB/05 RMK AO2 T02280222
63870K0J4 0J420160813064011408/13/16 06:40:31  5-MIN K0J4 131140Z AUTO 14005KT 1/4SM FG VV001 23/22 A3002 220 97 1200 140/05 RMK AO2 T02280222
63870K0J4 0J420160813064511408/13/16 06:45:31  5-MIN K0J4 131145Z AUTO 16004KT 1/4SM FG VV001 23/22 A3002 220 97 1200 160/04 RMK AO2 T02280222
63870K0J4 0J420160813065011408/13/16 06:50:31  5-MIN K0J4 131150Z AUTO 16004KT 1/4SM FG VV001 23/22 A3003 220 97 1200 160/04 RMK AO2 T02280222
63870K0J4 0J420160813065514508/13/16 06:55:31  5-MIN K0J4 131155Z AUTO 15004KT 1/4SM FG VV001 23/22 A3003 220 97 1200 150/04 RMK AO2 SLP163 7//// T02280222 10228 20222 55010
63870K0J4 0J420160813070011408/13/16 07:00:31  5-MIN K0J4 131200Z AUTO 14004KT 1/4SM FG VV001 23/22 A3003 220 97 1200 140/04 RMK AO2 T02280222
63870K0J4 0J420160813070511408/13/16 07:05:31  5-MIN K0J4 131205Z AUTO 14004KT 1/4SM FG VV001 23/22 A3003 210 97 1200 140/04 RMK AO2 T02280222
63870K0J4 0J420160813071011408/13/16 07:10:31  5-MIN K0J4 131210Z AUTO 14005KT 1/4SM FG VV001 23/22 A3003 210 97 1200 140/05 RMK AO2 T02280222
63870K0J4 0J420160813071511408/13/16 07:15:31  5-MIN K0J4 131215Z AUTO 15004KT 1/4SM FG VV001 23/22 A3003 210 97 1200 150/04 RMK AO2 T02280222
63870K0J4 0J420160813072011408/13/16 07:20:31  5-MIN K0J4 131220Z AUTO 15005KT 1/4SM FG VV001 23/23 A3004 210 97 1300 150/05 RMK AO2 T02330228
63870K0J4 0J420160813072511408/13/16 07:25:31  5-MIN K0J4 131225Z AUTO 15005KT 1/4SM FG VV001 23/23 A3004 210 97 1300 150/05 RMK AO2 T02330228
63870K0J4 0J420160813073011408/13/16 07:30:31  5-MIN K0J4 131230Z AUTO 17004KT 1/4SM FG VV001 23/23 A3004 210 97 1300 170/04 RMK AO2 T02330228
63870K0J4 0J420160813073511408/13/16 07:35:31  5-MIN K0J4 131235Z AUTO 16003KT 1/2SM FG VV001 23/23 A3004 210 97 1300 160/03 RMK AO2 T02330228
63870K0J4 0J420160813074011408/13/16 07:40:31  5-MIN K0J4 131240Z AUTO 15005KT 3/4SM BR VV001 23/23 A3004 200 97 1300 150/05 RMK AO2 T02330228
63870K0J4 0J420160813074511708/13/16 07:45:31  5-MIN K0J4 131245Z AUTO 17005KT 1 3/4SM BR OVC001 23/23 A3004 210 97 1300 170/05 RMK AO2 T02330228
63870K0J4 0J420160813075011308/13/16 07:50:31  5-MIN K0J4 131250Z AUTO 17005KT 4SM BR OVC001 24/23 A3004 210 97 1300 170/05 RMK AO2 T02390233
63870K0J4 0J420160813075512008/13/16 07:55:31  5-MIN K0J4 131255Z AUTO 14005KT 6SM BR OVC001 24/23 A3004 210 97 1300 140/05 RMK AO2 SLP167 T02390233
63870K0J4 0J420160813080011008/13/16 08:00:31  5-MIN K0J4 131300Z AUTO 14005KT 8SM OVC001 24/23 A3004 210 97 1300 140/05 RMK AO2 T02390233
63870K0J4 0J420160813080512208/13/16 08:05:31  5-MIN K0J4 131305Z AUTO 15004KT 9SM OVC002 24/23 A3004 210 97 1300 150/04 RMK AO2 CIG 001V005 T02390233
63870K0J4 0J420160813081011008/13/16 08:10:31  5-MIN K0J4 131310Z AUTO 16004KT 9SM BKN002 24/24 A3004 210 97 1400 160/04 RMK AO2 T02440239
63870K0J4 0J420160813081511108/13/16 08:15:31  5-MIN K0J4 131315Z AUTO 15004KT 10SM BKN002 24/24 A3003 210 97 1400 150/04 RMK AO2 T02440239
63870K0J4 0J420160813082011108/13/16 08:20:31  5-MIN K0J4 131320Z AUTO 14003KT 10SM BKN002 24/24 A3003 210 97 1400 140/03 RMK AO2 T02440239
63870K0J4 0J420160813082511108/13/16 08:25:31  5-MIN K0J4 131325Z AUTO 14004KT 10SM SCT003 25/24 A3003 220 93 1500 140/04 RMK AO2 T02500239
63870K0J4 0J420160813083011108/13/16 08:30:31  5-MIN K0J4 131330Z AUTO 14004KT 10SM SCT003 25/24 A3003 210 93 1500 140/04 RMK AO2 T02500239
63870K0J4 0J420160813083511108/13/16 08:35:31  5-MIN K0J4 131335Z AUTO 16005KT 10SM SCT006 26/24 A3003 210 90 1500 160/05 RMK AO2 T02560239
63870K0J4 0J420160813084011108/13/16 08:40:31  5-MIN K0J4 131340Z AUTO 17004KT 10SM SCT006 26/24 A3003 210 93 1500 170/04 RMK AO2 T02560244
63870K0J4 0J420160813084511108/13/16 08:45:31  5-MIN K0J4 131345Z AUTO 15005KT 10SM SCT006 26/24 A3003 210 90 1600 150/05 RMK AO2 T02610244
63870K0J4 0J420160813085011108/13/16 08:50:31  5-MIN K0J4 131350Z AUTO 16004KT 10SM SCT006 26/24 A3003 210 90 1600 160/04 RMK AO2 T02610244
63870K0J4 0J420160813085512508/13/16 08:55:31  5-MIN K0J4 131355Z AUTO 13004KT 10SM SCT007 SCT011 27/24 A3004 210 87 1600 130/04 RMK AO2 SLP166 T02670244
63870K0J4 0J420160813090011108/13/16 09:00:31  5-MIN K0J4 131400Z AUTO 15005KT 10SM SCT009 27/24 A3004 210 84 1700 150/05 RMK AO2 T02720244
63870K0J4 0J420160813090511808/13/16 09:05:31  5-MIN K0J4 131405Z AUTO 13005KT 10SM SCT009 BKN013 27/24 A3004 210 84 1700 130/05 RMK AO2 T02720244
63870K0J4 0J420160813091012508/13/16 09:10:31  5-MIN K0J4 131410Z AUTO 14006KT 10SM SCT009 SCT014 BKN021 28/24 A3004 210 82 1800 140/06 RMK AO2 T02780244
63870K0J4 0J420160813091512508/13/16 09:15:31  5-MIN K0J4 131415Z AUTO 16004KT 10SM FEW010 SCT014 BKN021 28/24 A3003 210 82 1800 160/04 RMK AO2 T02780244
63870K0J4 0J420160813092012508/13/16 09:20:31  5-MIN K0J4 131420Z AUTO 13006KT 10SM FEW010 SCT017 BKN023 28/24 A3003 210 82 1800 130/06 RMK AO2 T02780244
63870K0J4 0J420160813092512508/13/16 09:25:31  5-MIN K0J4 131425Z AUTO 16008KT 10SM FEW010 FEW015 BKN021 28/24 A3003 210 82 1800 160/08 RMK AO2 T02780244
63870K0J4 0J420160813093011808/13/16 09:30:31  5-MIN K0J4 131430Z AUTO 15007KT 10SM FEW014 BKN022 28/24 A3003 210 79 1800 150/07 RMK AO2 T02780239
63870K0J4 0J420160813093511108/13/16 09:35:31  5-MIN K0J4 131435Z AUTO VRB05KT 10SM SCT020 28/24 A3003 210 76 1800 VRB/05 RMK AO2 T02830239
63870K0J4 0J420160813094011108/13/16 09:40:31  5-MIN K0J4 131440Z AUTO 15008KT 10SM SCT020 28/24 A3003 210 76 1800 150/08 RMK AO2 T02830239
63870K0J4 0J420160813094511808/13/16 09:45:31  5-MIN K0J4 131445Z AUTO 15008KT 10SM SCT020 BKN024 28/24 A3003 210 76 1800 150/08 RMK AO2 T02830239
63870K0J4 0J420160813095011808/13/16 09:50:31  5-MIN K0J4 131450Z AUTO 17005KT 10SM BKN018 BKN024 29/24 A3003 210 74 1900 170/05 RMK AO2 T02890239
63870K0J4 0J420160813095512408/13/16 09:55:31  5-MIN K0J4 131455Z AUTO 16007KT 10SM BKN018 29/24 A3003 210 74 1900 160/07 RMK AO2 SLP165 T02890239 53018
63870K0J4 0J420160813100011108/13/16 10:00:31  5-MIN K0J4 131500Z AUTO 17009KT 10SM SCT018 28/24 A3003 210 76 1800 170/09 RMK AO2 T02830239
63870K0J4 0J420160813100511808/13/16 10:05:31  5-MIN K0J4 131505Z AUTO 18010KT 10SM SCT018 SCT024 29/24 A3004 210 74 1900 180/10 RMK AO2 T02890239
63870K0J4 0J420160813101011808/13/16 10:10:31  5-MIN K0J4 131510Z AUTO 18008KT 10SM SCT018 BKN024 29/24 A3004 210 74 1900 180/08 RMK AO2 T02890239
63870K0J4 0J420160813101512508/13/16 10:15:31  5-MIN K0J4 131515Z AUTO 19009KT 10SM FEW018 SCT024 BKN031 28/23 A3004 210 74 1800 190/09 RMK AO2 T02830233
63870K0J4 0J420160813102012508/13/16 10:20:31  5-MIN K0J4 131520Z AUTO 19009KT 10SM FEW018 SCT024 BKN031 28/23 A3004 200 74 1800 190/09 RMK AO2 T02830233
63870K0J4 0J420160813102511808/13/16 10:25:31  5-MIN K0J4 131525Z AUTO 19006KT 10SM SCT022 BKN031 29/24 A3004 200 74 1900 190/06 RMK AO2 T02890239
63870K0J4 0J420160813103013408/13/16 10:30:31  5-MIN K0J4 131530Z AUTO 18010KT 150V210 10SM SCT022 BKN031 29/24 A3004 200 74 1900 180/10 150V210 RMK AO2 T02890239
63870K0J4 0J420160813103511808/13/16 10:35:31  5-MIN K0J4 131535Z AUTO 18008KT 10SM SCT022 BKN031 29/24 A3004 200 71 1900 180/08 RMK AO2 T02940239
63870K0J4 0J420160813104012508/13/16 10:40:31  5-MIN K0J4 131540Z AUTO 17007KT 10SM SCT022 SCT029 BKN034 29/24 A3004 200 71 1900 170/07 RMK AO2 T02940239
63870K0J4 0J420160813104512508/13/16 10:45:31  5-MIN K0J4 131545Z AUTO 17009KT 10SM FEW022 SCT029 SCT033 29/24 A3004 200 71 1900 170/09 RMK AO2 T02940239
63870K0J4 0J420160813105011808/13/16 10:50:31  5-MIN K0J4 131550Z AUTO 19009KT 10SM FEW022 BKN029 29/23 A3004 200 69 1900 190/09 RMK AO2 T02940233
63870K0J4 0J420160813105510808/13/16 10:55:31  5-MIN K0J4 131555Z AUTO 19008KT 10SM SCT022 SCT029 29/24 A3004 200 71 1900 190/08 RMK AO2
63870K0J4 0J420160813110011808/13/16 11:00:31  5-MIN K0J4 131600Z AUTO 20007KT 10SM SCT024 SCT029 29/24 A3004 200 71 1900 200/07 RMK AO2 T02940239
63870K0J4 0J420160813110511808/13/16 11:05:31  5-MIN K0J4 131605Z AUTO 17008KT 10SM SCT024 SCT029 30/24 A3004 200 69 2000 170/08 RMK AO2 T03000239
63870K0J4 0J420160813111011108/13/16 11:10:31  5-MIN K0J4 131610Z AUTO 18010KT 10SM SCT024 30/24 A3004 200 69 2000 180/10 RMK AO2 T03000239
63870K0J4 0J420160813111511108/13/16 11:15:31  5-MIN K0J4 131615Z AUTO 16010KT 10SM FEW023 30/24 A3004 210 69 2000 160/10 RMK AO2 T03000239
63870K0J4 0J420160813112011108/13/16 11:20:31  5-MIN K0J4 131620Z AUTO 17007KT 10SM FEW023 30/24 A3004 210 69 2000 170/07 RMK AO2 T03000239
63870K0J4 0J420160813112511108/13/16 11:25:31  5-MIN K0J4 131625Z AUTO 17009KT 10SM FEW023 30/23 A3004 210 67 2000 170/09 RMK AO2 T03000233
63870K0J4 0J420160813113011108/13/16 11:30:31  5-MIN K0J4 131630Z AUTO 17009KT 10SM FEW027 30/23 A3003 210 67 2000 170/09 RMK AO2 T03000233
63870K0J4 0J420160813113511108/13/16 11:35:31  5-MIN K0J4 131635Z AUTO 19009KT 10SM FEW027 30/23 A3004 210 65 2000 190/09 RMK AO2 T03000228
63870K0J4 0J420160813114011808/13/16 11:40:31  5-MIN K0J4 131640Z AUTO 19009KT 10SM SCT029 SCT060 30/23 A3003 210 67 2000 190/09 RMK AO2 T03000233
63870K0J4 0J420160813114513108/13/16 11:45:31  5-MIN K0J4 131645Z AUTO 17010G16KT 10SM FEW029 SCT033 SCT060 31/23 A3003 210 65 2100 170/10G16 RMK AO2 T03060233
63870K0J4 0J420160813115012508/13/16 11:50:31  5-MIN K0J4 131650Z AUTO 18009KT 10SM FEW030 SCT060 SCT075 30/23 A3003 210 65 2000 180/09 RMK AO2 T03000228
63870K0J4 0J420160813115512508/13/16 11:55:31  5-MIN K0J4 131655Z AUTO 17009KT 10SM SCT030 BKN060 30/23 A3003 210 65 2000 170/09 RMK AO2 SLP165 T03000228
63870K0J4 0J420160813120011808/13/16 12:00:31  5-MIN K0J4 131700Z AUTO 17009KT 10SM BKN030 BKN060 29/23 A3004 210 67 2000 170/09 RMK AO2 T02940228
63870K0J4 0J420160813120514108/13/16 12:05:31  5-MIN K0J4 131705Z AUTO 15007KT 10SM -RA BKN031 BKN035 BKN065 29/23 A3004 210 69 1900 150/07 RMK AO2 RAB01 P0000 T02890228
63870K0J4 0J420160813121014108/13/16 12:10:31  5-MIN K0J4 131710Z AUTO 15005KT 10SM -RA SCT031 BKN047 BKN060 29/24 A3004 210 74 2000 150/05 RMK AO2 RAB01 P0000 T02940244
63870K0J4 0J420160813121514008/13/16 12:15:31  5-MIN K0J4 131715Z AUTO 17007KT 10SM SCT031 SCT035 BKN050 31/24 A3003 210 67 2100 170/07 RMK AO2 RAB01E14 P0000 T03060239
63870K0J4 0J420160813122014608/13/16 12:20:31  5-MIN K0J4 131720Z AUTO 19011G15KT 10SM SCT031 BKN037 BKN050 30/22 A3003 210 62 2000 190/11G15 RMK AO2 RAB01E14 P0000 T03000222
63870K0J4 0J420160813122513908/13/16 12:25:31  5-MIN K0J4 131725Z AUTO 20009KT 4SM RA BKN032 BKN042 BKN055 29/24 A3003 210 74 1900 200/09 RMK AO2 RAB01 P0001 T02890239
63870K0J4 0J420160813123013308/13/16 12:30:31  5-MIN K0J4 131730Z AUTO 19008KT 4SM -RA SCT032 SCT055 29/24 A3003 220 74 1900 190/08 RMK AO2 RAB01 P0001 T02890239
63870K0J4 0J420160813123513208/13/16 12:35:31  5-MIN K0J4 131735Z AUTO 19009G16KT 10SM FEW032 29/25 A3003 220 76 2000 190/09G16 RMK AO2 RAB01E34 P0001 T02940250
63870K0J4 0J420160813124013208/13/16 12:40:31  5-MIN K0J4 131740Z AUTO 19010G17KT 10SM FEW032 30/24 A3003 220 69 2000 190/10G17 RMK AO2 RAB01E34 P0001 T03000239
63870K0J4 0J420160813124512608/13/16 12:45:31  5-MIN K0J4 131745Z AUTO 20011KT 10SM FEW033 31/23 A3003 220 65 2100 200/11 RMK AO2 RAB01E34 P0001 T03060233
63870K0J4 0J420160813125013208/13/16 12:50:31  5-MIN K0J4 131750Z AUTO 19013G19KT 10SM FEW033 31/23 A3003 220 60 2200 190/13G19 RMK AO2 RAB01E34 P0001 T03110228
63870K0J4 0J420160813125516008/13/16 12:55:31  5-MIN K0J4 131755Z AUTO 19012G19KT 10SM CLR 31/23 A3003 220 60 2200 190/12G19 RMK AO2 RAB01E34 SLP163 P0001 60001 T03110228 10311 20228 50002
63870K0J4 0J420160813130011708/13/16 13:00:31  5-MIN K0J4 131800Z AUTO 18010G18KT 10SM FEW040 31/22 A3002 220 58 2200 180/10G18 RMK AO2 T03110222
63870K0J4 0J420160813130510808/13/16 13:05:31  5-MIN K0J4 131805Z AUTO 20014KT 10SM CLR 31/22 A3002 220 58 2200 200/14 RMK AO2 T03110222
63870K0J4 0J420160813131011408/13/16 13:10:31  5-MIN K0J4 131810Z AUTO 20014G20KT 10SM CLR 31/22 A3003 220 56 2200 200/14G20 RMK AO2 T03110217
63870K0J4 0J420160813131511708/13/16 13:15:31  5-MIN K0J4 131815Z AUTO 19012G20KT 10SM FEW039 31/22 A3002 220 56 2200 190/12G20 RMK AO2 T03110217
63870K0J4 0J420160813132011408/13/16 13:20:31  5-MIN K0J4 131820Z AUTO 19013G19KT 10SM CLR 32/22 A3002 220 55 2200 190/13G19 RMK AO2 T03170217
63870K0J4 0J420160813132511408/13/16 13:25:31  5-MIN K0J4 131825Z AUTO 20014G20KT 10SM CLR 32/22 A3002 220 55 2200 200/14G20 RMK AO2 T03170217
63870K0J4 0J420160813133011708/13/16 13:30:31  5-MIN K0J4 131830Z AUTO 19011G20KT 10SM FEW042 31/22 A3002 220 56 2200 190/11G20 RMK AO2 T03110217
63870K0J4 0J420160813133511108/13/16 13:35:31  5-MIN K0J4 131835Z AUTO 17011KT 10SM FEW042 31/22 A3002 220 58 2200 170/11 RMK AO2 T03110222
63870K0J4 0J420160813134011108/13/16 13:40:31  5-MIN K0J4 131840Z AUTO 18012KT 10SM FEW040 31/22 A3002 230 58 2200 180/12 RMK AO2 T03110222
63870K0J4 0J420160813134511108/13/16 13:45:31  5-MIN K0J4 131845Z AUTO 19013KT 10SM FEW040 31/22 A3002 230 58 2200 190/13 RMK AO2 T03110222
63870K0J4 0J420160813135011708/13/16 13:50:31  5-MIN K0J4 131850Z AUTO 18013G19KT 10SM FEW040 31/22 A3001 230 58 2200 180/13G19 RMK AO2 T03110222
63870K0J4 0J420160813135512408/13/16 13:55:31  5-MIN K0J4 131855Z AUTO 19013G19KT 10SM FEW041 31/22 A3001 230 56 2200 190/13G19 RMK AO2 SLP159 T03110217
63870K0J4 0J420160813140010808/13/16 14:00:31  5-MIN K0J4 131900Z AUTO 19012KT 10SM CLR 32/22 A3001 230 56 2200 190/12 RMK AO2 T03170222
63870K0J4 0J420160813140511108/13/16 14:05:31  5-MIN K0J4 131905Z AUTO 17012KT 10SM FEW044 32/22 A3001 230 55 2200 170/12 RMK AO2 T03170217
63870K0J4 0J420160813141011708/13/16 14:10:31  5-MIN K0J4 131910Z AUTO 20014G19KT 10SM SCT044 32/22 A3001 240 55 2300 200/14G19 RMK AO2 T03220222
63870K0J4 0J420160813141511708/13/16 14:15:31  5-MIN K0J4 131915Z AUTO 19012G19KT 10SM SCT044 32/22 A3000 240 55 2200 190/12G19 RMK AO2 T03170217
63870K0J4 0J420160813142011108/13/16 14:20:31  5-MIN K0J4 131920Z AUTO 18012KT 10SM SCT042 32/22 A3000 240 55 2200 180/12 RMK AO2 T03170217
63870K0J4 0J420160814112012008/14/16 11:20:31  5-MIN K0J4 141620Z AUTO 16007KT 10SM SCT031 SCT040 30/23 A3013 130 65 1900 160/07 RMK AO2 T03000228 $
63870K0J4 0J420160814112512008/14/16 11:25:31  5-MIN K0J4 141625Z AUTO 20008KT 10SM SCT031 BKN038 31/23 A3013 130 65 2000 200/08 RMK AO2 T03060233 $
63870K0J4 0J420160814113012708/14/16 11:30:31  5-MIN K0J4 141630Z AUTO 20009KT 10SM SCT030 BKN038 BKN050 31/23 A3012 130 65 2000 200/09 RMK AO2 T03060233 $
63870K0J4 0J420160814113512708/14/16 11:35:31  5-MIN K0J4 141635Z AUTO 20008KT 10SM SCT030 BKN040 BKN050 29/23 A3012 130 67 1900 200/08 RMK AO2 T02940228 $
63870K0J4 0J420160814114012708/14/16 11:40:31  5-MIN K0J4 141640Z AUTO 20007KT 10SM BKN030 BKN040 BKN065 29/23 A3012 130 67 1900 200/07 RMK AO2 T02940228 $
63870K0J4 0J420160814114512708/14/16 11:45:31  5-MIN K0J4 141645Z AUTO 20006KT 10SM SCT030 BKN040 BKN049 30/23 A3012 130 65 1900 200/06 RMK AO2 T03000228 $
63870K0J4 0J420160814115012708/14/16 11:50:31  5-MIN K0J4 141650Z AUTO 20006KT 10SM FEW030 SCT040 BKN047 31/23 A3012 130 62 2000 200/06 RMK AO2 T03060228 $
63870K0J4 0J420160814115513408/14/16 11:55:31  5-MIN K0J4 141655Z AUTO 18007KT 10SM FEW030 SCT049 SCT080 31/23 A3012 130 62 2000 180/07 RMK AO2 SLP196 T03060228 $
63870K0J4 0J420160814120012708/14/16 12:00:31  5-MIN K0J4 141700Z AUTO 19008KT 10SM FEW030 FEW043 SCT075 31/23 A3012 130 60 2000 190/08 RMK AO2 T03110228 $
63870K0J4 0J420160814120512708/14/16 12:05:31  5-MIN K0J4 141705Z AUTO 18007KT 10SM FEW035 FEW065 FEW080 31/22 A3012 130 60 2000 180/07 RMK AO2 T03060222 $
63870K0J4 0J420160814121012008/14/16 12:10:31  5-MIN K0J4 141710Z AUTO 17007KT 10SM FEW065 SCT085 30/22 A3012 130 60 1900 170/07 RMK AO2 T03000217 $
63870K0J4 0J420160814121512008/14/16 12:15:31  5-MIN K0J4 141715Z AUTO 16007KT 10SM FEW060 SCT085 31/22 A3012 140 60 2000 160/07 RMK AO2 T03060222 $
63870K0J4 0J420160814122013608/14/16 12:20:31  5-MIN K0J4 141720Z AUTO 18007KT 140V200 10SM FEW060 SCT080 31/22 A3011 140 58 2100 180/07 140V200 RMK AO2 T03110222 $
63870K0J4 0J420160814122512008/14/16 12:25:31  5-MIN K0J4 141725Z AUTO 18009KT 10SM FEW060 FEW085 32/23 A3011 140 58 2100 180/09 RMK AO2 T03170228 $
63870K0J4 0J420160814123012708/14/16 12:30:31  5-MIN K0J4 141730Z AUTO 18006KT 10SM FEW041 FEW060 SCT085 31/22 A3011 140 58 2100 180/06 RMK AO2 T03110222 $
63870K0J4 0J420160814123513608/14/16 12:35:31  5-MIN K0J4 141735Z AUTO 16008KT 130V190 10SM FEW041 FEW060 32/22 A3011 140 56 2100 160/08 130V190 RMK AO2 T03170222 $
63870K0J4 0J420160814124011308/14/16 12:40:31  5-MIN K0J4 141740Z AUTO 18010KT 10SM FEW041 32/22 A3011 140 55 2100 180/10 RMK AO2 T03170217 $
63870K0J4 0J420160814124512008/14/16 12:45:31  5-MIN K0J4 141745Z AUTO 17010KT 10SM FEW041 FEW060 31/21 A3011 140 54 2100 170/10 RMK AO2 T03110211 $
63870K0J4 0J420160814125012008/14/16 12:50:31  5-MIN K0J4 141750Z AUTO 17008KT 10SM FEW042 SCT055 31/22 A3010 150 56 2100 170/08 RMK AO2 T03110217 $
63870K0J4 0J420160814125514608/14/16 12:55:31  5-MIN K0J4 141755Z AUTO 19005KT 10SM FEW042 FEW055 SCT070 31/22 A3010 150 60 2000 190/05 RMK AO2 SLP189 T03060222 10317 20250 $
63870K0J4 0J420160814130012708/14/16 13:00:31  5-MIN K0J4 141800Z AUTO 18006KT 10SM FEW041 SCT060 SCT070 31/23 A3011 150 62 2000 180/06 RMK AO2 T03060228 $
63870K0J4 0J420160814130512708/14/16 13:05:31  5-MIN K0J4 141805Z AUTO 16005KT 10SM FEW041 SCT060 SCT070 31/23 A3010 150 60 2100 160/05 RMK AO2 T03110228 $
63870K0J4 0J420160814131012708/14/16 13:10:31  5-MIN K0J4 141810Z AUTO 16006KT 10SM FEW040 FEW060 SCT070 32/23 A3010 150 58 2100 160/06 RMK AO2 T03170228 $
63870K0J4 0J420160814131512708/14/16 13:15:31  5-MIN K0J4 141815Z AUTO 17006KT 10SM FEW040 FEW055 SCT085 32/23 A3010 150 58 2100 170/06 RMK AO2 T03170228 $
63870K0J4 0J420160814132012008/14/16 13:20:31  5-MIN K0J4 141820Z AUTO 18005KT 10SM FEW040 FEW060 32/23 A3010 150 58 2100 180/05 RMK AO2 T03170228 $
63870K0J4 0J420160814133007308/14/16 13:30:31  5-MIN K0J4 141830Z AUTO 16004KT M M M 160/04 RMK AO2 $
63870K0J4 0J420160814133510108/14/16 13:35:31  5-MIN K0J4 141835Z AUTO 15006KT 31/23 A3009 160 60 2100 150/06 RMK AO2 T03110228 $
63870K0J4 0J420160814134010608/14/16 13:40:31  5-MIN K0J4 141840Z AUTO 16008KT 10SM 32/23 A3009 160 58 2100 160/08 RMK AO2 T03170228 $
63870K0J4 0J420160814134510608/14/16 13:45:31  5-MIN K0J4 141845Z AUTO 18006KT 10SM 32/23 A3009 160 58 2100 180/06 RMK AO2 T03170228 $
63870K0J4 0J420160814135010608/14/16 13:50:31  5-MIN K0J4 141850Z AUTO 18006KT 10SM 31/22 A3009 160 60 2000 180/06 RMK AO2 T03060222 $
63870K0J4 0J420160814135511308/14/16 13:55:31  5-MIN K0J4 141855Z AUTO VRB05KT 10SM 31/23 A3009 160 60 2100 VRB/05 RMK AO2 SLP183 T03110228 $
63870K0J4 0J420160814140011308/14/16 14:00:31  5-MIN K0J4 141900Z AUTO 20007KT 10SM FEW047 32/23 A3008 160 58 2100 200/07 RMK AO2 T03170228 $
63870K0J4 0J420160814140511308/14/16 14:05:31  5-MIN K0J4 141905Z AUTO 19006KT 10SM FEW047 32/22 A3008 170 55 2200 190/06 RMK AO2 T03220222 $
63870K0J4 0J420160814141011008/14/16 14:10:31  5-MIN K0J4 141910Z AUTO 20006KT 10SM CLR 32/22 A3008 170 55 2200 200/06 RMK AO2 T03220222 $
63870K0J4 0J420160814141511008/14/16 14:15:31  5-MIN K0J4 141915Z AUTO 22009KT 10SM CLR 32/22 A3008 170 55 2200 220/09 RMK AO2 T03220222 $
63870K0J4 0J420160814142011308/14/16 14:20:31  5-MIN K0J4 141920Z AUTO 19009KT 10SM FEW046 32/22 A3008 170 55 2200 190/09 RMK AO2 T03220222 $
63870K0J4 0J420160814142511308/14/16 14:25:31  5-MIN K0J4 141925Z AUTO 19008KT 10SM FEW046 33/22 A3008 170 53 2300 190/08 RMK AO2 T03280222 $
63870K0J4 0J420160814143011008/14/16 14:30:31  5-MIN K0J4 141930Z AUTO 19007KT 10SM CLR 32/22 A3008 170 53 2200 190/07 RMK AO2 T03220217 $
63870K0J4 0J420160814143511008/14/16 14:35:31  5-MIN K0J4 141935Z AUTO 19008KT 10SM CLR 32/22 A3007 180 53 2200 190/08 RMK AO2 T03220217 $
63870K0J4 0J420160814144011008/14/16 14:40:31  5-MIN K0J4 141940Z AUTO 17007KT 10SM CLR 32/22 A3007 180 53 2200 170/07 RMK AO2 T03220217 $
63870K0J4 0J420160814144511008/14/16 14:45:31  5-MIN K0J4 141945Z AUTO 19007KT 10SM CLR 33/22 A3007 180 51 2300 190/07 RMK AO2 T03280217 $
63870K0J4 0J420160814145011308/14/16 14:50:31  5-MIN K0J4 141950Z AUTO 17007KT 10SM FEW045 32/22 A3006 180 53 2200 170/07 RMK AO2 T03220217 $
63870K0J4 0J420160814145512008/14/16 14:55:31  5-MIN K0J4 141955Z AUTO 17005KT 10SM FEW045 32/22 A3006 190 55 2200 170/05 RMK AO2 SLP174 T03170217 $
63870K0J4 0J420160814150012008/14/16 15:00:31  5-MIN K0J4 142000Z AUTO 17008KT 10SM FEW043 SCT055 32/22 A3006 190 55 2200 170/08 RMK AO2 T03220222 $
63870K0J4 0J420160814150512008/14/16 15:05:31  5-MIN K0J4 142005Z AUTO 18005KT 10SM SCT045 SCT060 32/22 A3005 200 53 2200 180/05 RMK AO2 T03220217 $
63870K0J4 0J420160814151012008/14/16 15:10:31  5-MIN K0J4 142010Z AUTO VRB05KT 10SM SCT045 BKN060 33/22 A3005 200 53 2300 VRB/05 RMK AO2 T03280222 $
63870K0J4 0J420160814151512508/14/16 15:15:31  5-MIN K0J4 142015Z AUTO 20009KT 10SM VCTS SCT047 BKN060 33/22 A3005 200 51 2300 200/09 RMK AO2 T03280217 $
63870K0J4 0J420160814152012508/14/16 15:20:31  5-MIN K0J4 142020Z AUTO 18007KT 10SM VCTS FEW047 SCT060 33/22 A3005 200 51 2300 180/07 RMK AO2 T03280217 $
63870K0J4 0J420160814152512508/14/16 15:25:31  5-MIN K0J4 142025Z AUTO 21005KT 10SM VCTS FEW047 SCT060 33/22 A3005 200 51 2300 210/05 RMK AO2 T03280217 $
63870K0J4 0J420160814153012008/14/16 15:30:31  5-MIN K0J4 142030Z AUTO 18006KT 10SM SCT047 SCT060 32/22 A3005 200 53 2300 180/06 RMK AO2 T03220217 $
63870K0J4 0J420160814153512008/14/16 15:35:31  5-MIN K0J4 142035Z AUTO 17008KT 10SM FEW047 SCT055 33/21 A3004 200 49 2300 170/08 RMK AO2 T03280211 $
63870K0J4 0J420160814154012008/14/16 15:40:31  5-MIN K0J4 142040Z AUTO 20011KT 10SM FEW047 FEW060 33/21 A3004 200 49 2300 200/11 RMK AO2 T03280211 $
63870K0J4 0J420160814154512008/14/16 15:45:31  5-MIN K0J4 142045Z AUTO 21008KT 10SM FEW047 FEW060 32/21 A3004 200 49 2300 210/08 RMK AO2 T03220206 $
63870K0J4 0J420160814155012008/14/16 15:50:31  5-MIN K0J4 142050Z AUTO 18009KT 10SM FEW047 SCT055 33/21 A3005 200 49 2300 180/09 RMK AO2 T03280211 $
63870K0J4 0J420160814155514308/14/16 15:55:31  5-MIN K0J4 142055Z AUTO 13007KT 080V170 10SM SCT049 BKN060 32/22 A3006 190 55 2200 130/07 080V170 RMK AO2 SLP173 T03220222 $
63870K0J4 0J420160814160012008/14/16 16:00:31  5-MIN K0J4 142100Z AUTO 12008KT 10SM SCT047 BKN060 31/22 A3006 190 60 2100 120/08 RMK AO2 T03060222 $
63870K0J4 0J420160814160512708/14/16 16:05:31  5-MIN K0J4 142105Z AUTO VRB06KT 10SM SCT047 BKN060 BKN080 29/22 A3006 190 64 1900 VRB/06 RMK AO2 T02940222 $
63870K0J4 0J420160814161014308/14/16 16:10:31  5-MIN K0J4 142110Z AUTO 13006KT 10SM -RA FEW047 SCT060 BKN080 29/22 A3006 190 64 1900 130/06 RMK AO2 RAB08 P0000 T02940222 $
63870K0J4 0J420160814161514208/14/16 16:15:31  5-MIN K0J4 142115Z AUTO VRB05KT 8SM -RA FEW047 SCT060 BKN080 29/23 A3006 180 69 1900 VRB/05 RMK AO2 RAB08 P0000 T02890228 $
63870K0J4 0J420160814162014208/14/16 16:20:31  5-MIN K0J4 142120Z AUTO 12006KT 8SM -RA FEW048 SCT080 BKN100 28/23 A3006 190 76 1700 120/06 RMK AO2 RAB08 P0000 T02780233 $
63870K0J4 0J420160814162514208/14/16 16:25:31  5-MIN K0J4 142125Z AUTO VRB03KT 10SM FEW046 SCT080 BKN100 28/23 A3006 190 76 1700 VRB/03 RMK AO2 RAB08E24 P0000 T02780233 $
63870K0J4 0J420160814163014208/14/16 16:30:31  5-MIN K0J4 142130Z AUTO 17004KT 10SM FEW046 FEW080 SCT100 28/23 A3006 180 74 1800 170/04 RMK AO2 RAB08E24 P0000 T02830233 $
63870K0J4 0J420160814163514208/14/16 16:35:31  5-MIN K0J4 142135Z AUTO 12003KT 10SM FEW046 FEW075 SCT100 29/24 A3007 180 74 1900 120/03 RMK AO2 RAB08E24 P0000 T02890239 $
63870K0J4 0J420160814164013508/14/16 16:40:31  5-MIN K0J4 142140Z AUTO 09003KT 10SM FEW046 FEW100 29/24 A3007 180 71 1900 090/03 RMK AO2 RAB08E24 P0000 T02940239 $
63870K0J4 0J420160814164512808/14/16 16:45:31  5-MIN K0J4 142145Z AUTO VRB03KT 10SM FEW046 29/23 A3006 180 71 1900 VRB/03 RMK AO2 RAB08E24 P0000 T02890233 $
63870K0J4 0J420160814165012808/14/16 16:50:31  5-MIN K0J4 142150Z AUTO 10004KT 10SM FEW046 29/23 A3006 190 71 1900 100/04 RMK AO2 RAB08E24 P0000 T02890233 $
63870K0J4 0J420160814165513208/14/16 16:55:31  5-MIN K0J4 142155Z AUTO 08003KT 10SM CLR 29/23 A3006 190 71 1900 080/03 RMK AO2 RAB08E24 SLP175 P0000 T02890233 $
63870K0J4 0J420160814170011008/14/16 17:00:31  5-MIN K0J4 142200Z AUTO 00000KT 10SM CLR 29/23 A3006 190 71 1900 000/00 RMK AO2 T02890233 $
63870K0J4 0J420160814170511008/14/16 17:05:31  5-MIN K0J4 142205Z AUTO 00000KT 10SM CLR 29/24 A3006 190 74 1900 000/00 RMK AO2 T02890239 $
63870K0J4 0J420160814171011008/14/16 17:10:31  5-MIN K0J4 142210Z AUTO 14006KT 10SM CLR 29/24 A3006 190 71 1900 140/06 RMK AO2 T02940239 $
63870K0J4 0J420160814171511008/14/16 17:15:31  5-MIN K0J4 142215Z AUTO VRB04KT 10SM CLR 29/23 A3006 190 69 1900 VRB/04 RMK AO2 T02890228 $
63870K0J4 0J420160814172011008/14/16 17:20:31  5-MIN K0J4 142220Z AUTO VRB05KT 10SM CLR 29/23 A3006 190 71 1900 VRB/05 RMK AO2 T02890233 $
63870K0J4 0J420160814172511008/14/16 17:25:31  5-MIN K0J4 142225Z AUTO 10004KT 10SM CLR 29/23 A3006 190 71 1900 100/04 RMK AO2 T02890233 $
63870K0J4 0J420160814173011008/14/16 17:30:31  5-MIN K0J4 142230Z AUTO 12004KT 10SM CLR 28/23 A3006 190 71 1800 120/04 RMK AO2 T02830228 $
63870K0J4 0J420160814173511008/14/16 17:35:31  5-MIN K0J4 142235Z AUTO 10004KT 10SM CLR 28/23 A3006 190 71 1800 100/04 RMK AO2 T02830228 $
63870K0J4 0J420160814174011008/14/16 17:40:31  5-MIN K0J4 142240Z AUTO 10003KT 10SM CLR 28/23 A3006 190 71 1800 100/03 RMK AO2 T02830228 $
63870K0J4 0J420160814174511008/14/16 17:45:31  5-MIN K0J4 142245Z AUTO 08004KT 10SM CLR 28/23 A3005 190 74 1800 080/04 RMK AO2 T02830233 $
63870K0J4 0J420160814175011008/14/16 17:50:31  5-MIN K0J4 142250Z AUTO 08003KT 10SM CLR 28/23 A3005 190 71 1800 080/03 RMK AO2 T02830228 $
63870K0J4 0J420160814175511708/14/16 17:55:31  5-MIN K0J4 142255Z AUTO 08003KT 10SM CLR 28/23 A3005 200 71 1800 080/03 RMK AO2 SLP171 T02830228 $
63870K0J4 0J420160814180011008/14/16 18:00:31  5-MIN K0J4 142300Z AUTO 10003KT 10SM CLR 28/23 A3005 200 71 1800 100/03 RMK AO2 T02830228 $
63870K0J4 0J420160814180511008/14/16 18:05:31  5-MIN K0J4 142305Z AUTO 15004KT 10SM CLR 28/23 A3005 200 71 1800 150/04 RMK AO2 T02830228 $
63870K0J4 0J420160814181011008/14/16 18:10:31  5-MIN K0J4 142310Z AUTO 16004KT 10SM CLR 28/23 A3005 200 74 1800 160/04 RMK AO2 T02780228 $
63870K0J4 0J420160814181511008/14/16 18:15:31  5-MIN K0J4 142315Z AUTO 15004KT 10SM CLR 28/23 A3005 200 76 1800 150/04 RMK AO2 T02780233 $
63870K0J4 0J420160814182011008/14/16 18:20:31  5-MIN K0J4 142320Z AUTO 14004KT 10SM CLR 28/23 A3005 200 74 1800 140/04 RMK AO2 T02830233 $
63870K0J4 0J420160814182511008/14/16 18:25:31  5-MIN K0J4 142325Z AUTO 14004KT 10SM CLR 28/23 A3005 200 74 1800 140/04 RMK AO2 T02830233 $
63870K0J4 0J420160814183011008/14/16 18:30:31  5-MIN K0J4 142330Z AUTO 15003KT 10SM CLR 28/23 A3005 190 74 1800 150/03 RMK AO2 T02830233 $
63870K0J4 0J420160814183511008/14/16 18:35:31  5-MIN K0J4 142335Z AUTO 15003KT 10SM CLR 28/23 A3006 190 76 1700 150/03 RMK AO2 T02780233 $
63870K0J4 0J420160814184011008/14/16 18:40:31  5-MIN K0J4 142340Z AUTO 15004KT 10SM CLR 28/23 A3006 190 76 1700 150/04 RMK AO2 T02780233 $
63870K0J4 0J420160814184511008/14/16 18:45:31  5-MIN K0J4 142345Z AUTO 15005KT 10SM CLR 28/23 A3006 180 76 1700 150/05 RMK AO2 T02780233 $
63870K0J4 0J420160814185011008/14/16 18:50:31  5-MIN K0J4 142350Z AUTO 15005KT 10SM CLR 28/23 A3007 180 76 1700 150/05 RMK AO2 T02780233 $
63870K0J4 0J420160814185513508/14/16 18:55:31  5-MIN K0J4 142355Z AUTO 15005KT 10SM CLR 28/23 A3007 180 76 1700 150/05 RMK AO2 SLP178 60000 T02780233 10328 20278 $
63870K0J4 0J420160814190011008/14/16 19:00:31  5-MIN K0J4 150000Z AUTO 14005KT 10SM CLR 28/23 A3007 180 76 1700 140/05 RMK AO2 T02780233 $
63870K0J4 0J420160814190511008/14/16 19:05:31  5-MIN K0J4 150005Z AUTO 15005KT 10SM CLR 28/23 A3008 170 76 1700 150/05 RMK AO2 T02780233 $
63870K0J4 0J420160814191011008/14/16 19:10:31  5-MIN K0J4 150010Z AUTO 14004KT 10SM CLR 27/23 A3008 170 79 1700 140/04 RMK AO2 T02720233 $
63870K0J4 0J420160814191511008/14/16 19:15:31  5-MIN K0J4 150015Z AUTO 14005KT 10SM CLR 27/23 A3008 170 79 1700 140/05 RMK AO2 T02720233 $
63870K0J4 0J420160814192011008/14/16 19:20:31  5-MIN K0J4 150020Z AUTO 12004KT 10SM CLR 27/23 A3008 170 79 1700 120/04 RMK AO2 T02720233 $
63870K0J4 0J420160814192511008/14/16 19:25:31  5-MIN K0J4 150025Z AUTO 13003KT 10SM CLR 27/23 A3009 160 82 1600 130/03 RMK AO2 T02670233 $
63870K0J4 0J420160814193011008/14/16 19:30:31  5-MIN K0J4 150030Z AUTO 00000KT 10SM CLR 27/23 A3009 160 82 1600 000/00 RMK AO2 T02670233 $
63870K0J4 0J420160814193511008/14/16 19:35:31  5-MIN K0J4 150035Z AUTO 11003KT 10SM CLR 26/23 A3009 160 84 1500 110/03 RMK AO2 T02610233 $
63870K0J4 0J420160814194011008/14/16 19:40:31  5-MIN K0J4 150040Z AUTO 09003KT 10SM CLR 26/23 A3009 160 84 1500 090/03 RMK AO2 T02610233 $
63870K0J4 0J420160814194511008/14/16 19:45:31  5-MIN K0J4 150045Z AUTO 09004KT 10SM CLR 26/23 A3009 160 87 1500 090/04 RMK AO2 T02560233 $
63870K0J4 0J420160814195011008/14/16 19:50:31  5-MIN K0J4 150050Z AUTO 09004KT 10SM CLR 26/23 A3010 150 87 1400 090/04 RMK AO2 T02560233 $
63870K0J4 0J420160814195511708/14/16 19:55:31  5-MIN K0J4 150055Z AUTO 10003KT 10SM CLR 25/23 A3010 150 87 1400 100/03 RMK AO2 SLP189 T02500228 $
63870K0J4 0J420160814200011008/14/16 20:00:31  5-MIN K0J4 150100Z AUTO 12004KT 10SM CLR 25/23 A3011 140 87 1400 120/04 RMK AO2 T02500228 $
63870K0J4 0J420160814200511008/14/16 20:05:31  5-MIN K0J4 150105Z AUTO 11004KT 10SM CLR 25/23 A3011 140 87 1400 110/04 RMK AO2 T02500228 $
63870K0J4 0J420160814201011008/14/16 20:10:31  5-MIN K0J4 150110Z AUTO 12004KT 10SM CLR 24/22 A3011 140 87 1300 120/04 RMK AO2 T02440222 $
63870K0J4 0J420160814201511008/14/16 20:15:31  5-MIN K0J4 150115Z AUTO 00000KT 10SM CLR 24/22 A3012 130 87 1300 000/00 RMK AO2 T02440222 $
63870K0J4 0J420160814202011008/14/16 20:20:31  5-MIN K0J4 150120Z AUTO 09003KT 10SM CLR 24/22 A3012 130 87 1300 090/03 RMK AO2 T02440222 $
63870K0J4 0J420160814202511008/14/16 20:25:31  5-MIN K0J4 150125Z AUTO 09003KT 10SM CLR 24/22 A3013 130 87 1300 090/03 RMK AO2 T02440222 $
63870K0J4 0J420160814203011008/14/16 20:30:31  5-MIN K0J4 150130Z AUTO VRB03KT 10SM CLR 24/22 A3013 130 87 1300 VRB/03 RMK AO2 T02440222 $
63870K0J4 0J420160814203511008/14/16 20:35:31  5-MIN K0J4 150135Z AUTO 00000KT 10SM CLR 24/22 A3013 130 90 1200 000/00 RMK AO2 T02390222 $
63870K0J4 0J420160814204011008/14/16 20:40:31  5-MIN K0J4 150140Z AUTO 00000KT 10SM CLR 24/22 A3013 130 90 1200 000/00 RMK AO2 T02390222 $
63870K0J4 0J420160814204511008/14/16 20:45:31  5-MIN K0J4 150145Z AUTO 10003KT 10SM CLR 24/22 A3013 120 87 1200 100/03 RMK AO2 T02390217 $
63870K0J4 0J420160814205011008/14/16 20:50:31  5-MIN K0J4 150150Z AUTO 08003KT 10SM CLR 24/22 A3013 120 87 1200 080/03 RMK AO2 T02390217 $
63870K0J4 0J420160814205511708/14/16 20:55:31  5-MIN K0J4 150155Z AUTO 08006KT 10SM CLR 24/22 A3013 120 87 1200 080/06 RMK AO2 SLP199 T02390217 $
63870K0J4 0J420160814210011008/14/16 21:00:31  5-MIN K0J4 150200Z AUTO 09004KT 10SM CLR 24/22 A3014 120 87 1200 090/04 RMK AO2 T02390217 $
63870K0J4 0J420160814210511008/14/16 21:05:31  5-MIN K0J4 150205Z AUTO 09005KT 10SM CLR 24/22 A3014 110 87 1200 090/05 RMK AO2 T02390217 $
63870K0J4 0J420160814211011008/14/16 21:10:31  5-MIN K0J4 150210Z AUTO 10005KT 10SM CLR 24/22 A3014 110 87 1200 100/05 RMK AO2 T02390217 $
63870K0J4 0J420160814211511008/14/16 21:15:31  5-MIN K0J4 150215Z AUTO 11003KT 10SM CLR 24/22 A3014 110 87 1200 110/03 RMK AO2 T02390217 $
63870K0J4 0J420160814212011008/14/16 21:20:31  5-MIN K0J4 150220Z AUTO 10003KT 10SM CLR 24/22 A3015 110 87 1200 100/03 RMK AO2 T02390217 $
63870K0J4 0J420160814212511008/14/16 21:25:31  5-MIN K0J4 150225Z AUTO VRB04KT 10SM CLR 24/22 A3015 110 87 1200 VRB/04 RMK AO2 T02390217 $
63870K0J4 0J420160814213011008/14/16 21:30:31  5-MIN K0J4 150230Z AUTO 09003KT 10SM CLR 24/22 A3015 110 87 1200 090/03 RMK AO2 T02390217 $
63870K0J4 0J420160814213511008/14/16 21:35:31  5-MIN K0J4 150235Z AUTO 00000KT 10SM CLR 24/22 A3015 100 87 1200 000/00 RMK AO2 T02390217 $
63870K0J4 0J420160814214011008/14/16 21:40:31  5-MIN K0J4 150240Z AUTO 00000KT 10SM CLR 24/22 A3015 100 87 1200 000/00 RMK AO2 T02390217 $
63870K0J4 0J420160814214511008/14/16 21:45:31  5-MIN K0J4 150245Z AUTO 00000KT 10SM CLR 24/22 A3015 100 87 1200 000/00 RMK AO2 T02390217 $
63870K0J4 0J420160814215011008/14/16 21:50:31  5-MIN K0J4 150250Z AUTO 00000KT 10SM CLR 24/22 A3016 100 90 1200 000/00 RMK AO2 T02390222 $
63870K0J4 0J420160814215512308/14/16 21:55:31  5-MIN K0J4 150255Z AUTO 00000KT 10SM CLR 24/22 A3016 100 90 1200 000/00 RMK AO2 SLP207 T02390222 53005 $
63870K0J4 0J420160814220011008/14/16 22:00:31  5-MIN K0J4 150300Z AUTO 00000KT 10SM CLR 24/22 A3016 100 90 1200 000/00 RMK AO2 T02390222 $
63870K0J4 0J420160814220511008/14/16 22:05:31  5-MIN K0J4 150305Z AUTO 00000KT 10SM CLR 24/22 A3015 100 90 1200 000/00 RMK AO2 T02390222 $
63870K0J4 0J420160814221011008/14/16 22:10:31  5-MIN K0J4 150310Z AUTO 00000KT 10SM CLR 24/22 A3016 100 90 1200 000/00 RMK AO2 T02390222 $
63870K0J4 0J420160814221511008/14/16 22:15:31  5-MIN K0J4 150315Z AUTO 00000KT 10SM CLR 24/22 A3015 100 90 1200 000/00 RMK AO2 T02390222 $
63870K0J4 0J420160814222011008/14/16 22:20:31  5-MIN K0J4 150320Z AUTO 00000KT 10SM CLR 24/22 A3015 100 90 1200 000/00 RMK AO2 T02390222 $
63870K0J4 0J420160814222511008/14/16 22:25:31  5-MIN K0J4 150325Z AUTO 00000KT 10SM CLR 24/22 A3015 100 90 1200 000/00 RMK AO2 T02390222 $
63870K0J4 0J420160814223011008/14/16 22:30:31  5-MIN K0J4 150330Z AUTO 00000KT 10SM CLR 24/22 A3015 100 90 1200 000/00 RMK AO2 T02390222 $
63870K0J4 0J420160814223511008/14/16 22:35:31  5-MIN K0J4 150335Z AUTO 12003KT 10SM CLR 24/22 A3015 100 90 1200 120/03 RMK AO2 T02390222 $
63870K0J4 0J420160814224011008/14/16 22:40:31  5-MIN K0J4 150340Z AUTO 12003KT 10SM CLR 23/22 A3015 100 93 1100 120/03 RMK AO2 T02330222 $
63870K0J4 0J420160814224511008/14/16 22:45:31  5-MIN K0J4 150345Z AUTO VRB03KT 10SM CLR 23/22 A3015 100 93 1100 VRB/03 RMK AO2 T02330222 $
63870K0J4 0J420160814225011008/14/16 22:50:31  5-MIN K0J4 150350Z AUTO 14004KT 10SM CLR 23/22 A3015 100 93 1100 140/04 RMK AO2 T02330222 $
63870K0J4 0J420160814225512008/14/16 22:55:31  5-MIN K0J4 150355Z AUTO 15004KT 10SM FEW095 23/22 A3015 100 93 1100 150/04 RMK AO2 SLP205 T02330222 $
63870K0J4 0J420160814230011308/14/16 23:00:31  5-MIN K0J4 150400Z AUTO 00000KT 10SM SCT095 23/22 A3015 110 93 1100 000/00 RMK AO2 T02330222 $
63870K0J4 0J420160814230513608/14/16 23:05:31  5-MIN K0J4 150405Z AUTO 15004KT 10SM -RA FEW017 SCT095 23/22 A3015 110 93 1100 150/04 RMK AO2 RAB03 P0000 T02330222 $
63870K0J4 0J420160814231013608/14/16 23:10:31  5-MIN K0J4 150410Z AUTO VRB03KT 10SM -RA FEW017 SCT095 23/22 A3015 110 93 1100 VRB/03 RMK AO2 RAB03 P0000 T02330222 $
63870K0J4 0J420160814231513508/14/16 23:15:31  5-MIN K0J4 150415Z AUTO VRB04KT 10SM FEW016 SCT100 23/22 A3014 110 93 1100 VRB/04 RMK AO2 RAB03E13 P0000 T02330222 $
63870K0J4 0J420160814232013508/14/16 23:20:31  5-MIN K0J4 150420Z AUTO 12003KT 10SM FEW016 SCT100 23/22 A3014 110 93 1200 120/03 RMK AO2 RAB03E13 P0000 T02330222 $
63870K0J4 0J420160814232513508/14/16 23:25:31  5-MIN K0J4 150425Z AUTO 13003KT 10SM FEW016 SCT095 23/22 A3014 120 93 1200 130/03 RMK AO2 RAB03E13 P0000 T02330222 $
63870K0J4 0J420160814233013508/14/16 23:30:31  5-MIN K0J4 150430Z AUTO 00000KT 10SM FEW016 FEW100 23/22 A3014 110 93 1200 000/00 RMK AO2 RAB03E13 P0000 T02330222 $
63870K0J4 0J420160814233512808/14/16 23:35:31  5-MIN K0J4 150435Z AUTO 11003KT 10SM FEW100 23/22 A3014 120 93 1200 110/03 RMK AO2 RAB03E13 P0000 T02330222 $
63870K0J4 0J420160814234012508/14/16 23:40:31  5-MIN K0J4 150440Z AUTO 11003KT 10SM CLR 23/22 A3014 120 93 1200 110/03 RMK AO2 RAB03E13 P0000 T02330222 $
63870K0J4 0J420160814234512508/14/16 23:45:31  5-MIN K0J4 150445Z AUTO 10004KT 10SM CLR 23/22 A3014 120 90 1200 100/04 RMK AO2 RAB03E13 P0000 T02330217 $
63870K0J4 0J420160814235012508/14/16 23:50:31  5-MIN K0J4 150450Z AUTO 10004KT 10SM CLR 23/22 A3014 120 90 1200 100/04 RMK AO2 RAB03E13 P0000 T02330217 $
63870K0J4 0J420160814235514208/14/16 23:55:31  5-MIN K0J4 150455Z AUTO 12004KT 10SM CLR 23/22 A3014 120 90 1200 120/04 RMK AO2 RAB03E13 SLP200 P0000 T02330217 403280233 $
63870K0J4 0J420160815000011008/15/16 00:00:31  5-MIN K0J4 150500Z AUTO 12005KT 10SM CLR 23/22 A3013 120 90 1200 120/05 RMK AO2 T02330217 $
63870K0J4 0J420160815000511008/15/16 00:05:31  5-MIN K0J4 150505Z AUTO VRB04KT 10SM CLR 23/22 A3013 120 90 1200 VRB/04 RMK AO2 T02330217 $
63870K0J4 0J420160815001011008/15/16 00:10:31  5-MIN K0J4 150510Z AUTO 12003KT 10SM CLR 23/22 A3014 120 90 1200 120/03 RMK AO2 T02330217 $
63870K0J4 0J420160815001511008/15/16 00:15:31  5-MIN K0J4 150515Z AUTO 11004KT 10SM CLR 23/22 A3014 120 90 1200 110/04 RMK AO2 T02330217 $
63870K0J4 0J420160815002011008/15/16 00:20:31  5-MIN K0J4 150520Z AUTO VRB04KT 10SM CLR 23/22 A3013 120 90 1200 VRB/04 RMK AO2 T02330217 $
63870K0J4 0J420160815002511008/15/16 00:25:31  5-MIN K0J4 150525Z AUTO 11004KT 10SM CLR 23/22 A3013 120 90 1200 110/04 RMK AO2 T02330217 $
63870K0J4 0J420160815003011008/15/16 00:30:31  5-MIN K0J4 150530Z AUTO 10003KT 10SM CLR 23/22 A3013 120 90 1200 100/03 RMK AO2 T02330217 $
63870K0J4 0J420160815003511008/15/16 00:35:31  5-MIN K0J4 150535Z AUTO 12004KT 10SM CLR 23/22 A3013 120 93 1100 120/04 RMK AO2 T02280217 $
63870K0J4 0J420160815004011008/15/16 00:40:31  5-MIN K0J4 150540Z AUTO 11003KT 10SM CLR 23/22 A3014 120 93 1100 110/03 RMK AO2 T02280217 $
63870K0J4 0J420160815004511008/15/16 00:45:31  5-MIN K0J4 150545Z AUTO 00000KT 10SM CLR 23/22 A3014 110 93 1100 000/00 RMK AO2 T02280217 $
63870K0J4 0J420160815005011008/15/16 00:50:31  5-MIN K0J4 150550Z AUTO 13003KT 10SM CLR 23/22 A3014 110 93 1100 130/03 RMK AO2 T02280217 $
63870K0J4 0J420160815005514108/15/16 00:55:31  5-MIN K0J4 150555Z AUTO 00000KT 10SM CLR 23/22 A3014 110 93 1100 000/00 RMK AO2 SLP201 60000 T02280217 10278 20228 51028 $
63870K0J4 0J420160815010011008/15/16 01:00:31  5-MIN K0J4 150600Z AUTO 14003KT 10SM CLR 23/22 A3014 110 93 1100 140/03 RMK AO2 T02280217 $
63870K0J4 0J420160815010511008/15/16 01:05:31  5-MIN K0J4 150605Z AUTO 13003KT 10SM CLR 23/22 A3014 110 93 1100 130/03 RMK AO2 T02280217 $
63870K0J4 0J420160815011011008/15/16 01:10:31  5-MIN K0J4 150610Z AUTO 15004KT 10SM CLR 23/22 A3014 120 93 1100 150/04 RMK AO2 T02280217 $
63870K0J4 0J420160815011511008/15/16 01:15:31  5-MIN K0J4 150615Z AUTO 15004KT 10SM CLR 23/21 A3013 120 90 1100 150/04 RMK AO2 T02280211 $
63870K0J4 0J420160815012011008/15/16 01:20:31  5-MIN K0J4 150620Z AUTO 15004KT 10SM CLR 23/21 A3013 120 90 1100 150/04 RMK AO2 T02280211 $
63870K0J4 0J420160815012511008/15/16 01:25:31  5-MIN K0J4 150625Z AUTO 15004KT 10SM CLR 23/21 A3013 120 90 1100 150/04 RMK AO2 T02280211 $
63870K0J4 0J420160815013011008/15/16 01:30:31  5-MIN K0J4 150630Z AUTO 14004KT 10SM CLR 23/21 A3013 120 90 1100 140/04 RMK AO2 T02280211 $
63870K0J4 0J420160815013511008/15/16 01:35:31  5-MIN K0J4 150635Z AUTO 14003KT 10SM CLR 23/21 A3013 120 90 1100 140/03 RMK AO2 T02280211 $
63870K0J4 0J420160815014011008/15/16 01:40:31  5-MIN K0J4 150640Z AUTO 15004KT 10SM CLR 23/21 A3013 130 90 1100 150/04 RMK AO2 T02280211 $
63870K0J4 0J420160815014511008/15/16 01:45:31  5-MIN K0J4 150645Z AUTO 14003KT 10SM CLR 23/21 A3013 130 90 1100 140/03 RMK AO2 T02280211 $
63870K0J4 0J420160815015011008/15/16 01:50:31  5-MIN K0J4 150650Z AUTO 13003KT 10SM CLR 23/21 A3012 130 90 1100 130/03 RMK AO2 T02280211 $
63870K0J4 0J420160815015511708/15/16 01:55:31  5-MIN K0J4 150655Z AUTO 00000KT 10SM CLR 23/21 A3012 130 90 1100 000/00 RMK AO2 SLP195 T02280211 $
63870K0J4 0J420160815020011008/15/16 02:00:31  5-MIN K0J4 150700Z AUTO 12003KT 10SM CLR 23/21 A3012 130 90 1100 120/03 RMK AO2 T02280211 $
63870K0J4 0J420160815020511008/15/16 02:05:31  5-MIN K0J4 150705Z AUTO VRB03KT 10SM CLR 23/21 A3012 140 90 1100 VRB/03 RMK AO2 T02280211 $
63870K0J4 0J420160815021011008/15/16 02:10:31  5-MIN K0J4 150710Z AUTO VRB03KT 10SM CLR 23/21 A3012 140 90 1100 VRB/03 RMK AO2 T02280211 $
63870K0J4 0J420160815021511008/15/16 02:15:31  5-MIN K0J4 150715Z AUTO 12004KT 10SM CLR 23/21 A3012 140 90 1100 120/04 RMK AO2 T02280211 $
63870K0J4 0J420160815022011008/15/16 02:20:31  5-MIN K0J4 150720Z AUTO 12004KT 10SM CLR 23/21 A3012 130 90 1100 120/04 RMK AO2 T02280211 $
63870K0J4 0J420160815022511008/15/16 02:25:31  5-MIN K0J4 150725Z AUTO VRB03KT 10SM CLR 23/21 A3012 130 90 1100 VRB/03 RMK AO2 T02280211 $
63870K0J4 0J420160815023011008/15/16 02:30:31  5-MIN K0J4 150730Z AUTO 00000KT 10SM CLR 23/21 A3012 130 90 1100 000/00 RMK AO2 T02280211 $
63870K0J4 0J420160815023511008/15/16 02:35:31  5-MIN K0J4 150735Z AUTO 14004KT 10SM CLR 23/21 A3012 130 90 1100 140/04 RMK AO2 T02280211 $
63870K0J4 0J420160815024011008/15/16 02:40:31  5-MIN K0J4 150740Z AUTO 13003KT 10SM CLR 23/21 A3012 130 90 1100 130/03 RMK AO2 T02280211 $
63870K0J4 0J420160815024511008/15/16 02:45:31  5-MIN K0J4 150745Z AUTO 13004KT 10SM CLR 23/21 A3012 130 90 1100 130/04 RMK AO2 T02280211 $
63870K0J4 0J420160815025011008/15/16 02:50:31  5-MIN K0J4 150750Z AUTO 14004KT 10SM CLR 23/21 A3012 130 90 1100 140/04 RMK AO2 T02280211 $
63870K0J4 0J420160815025511708/15/16 02:55:31  5-MIN K0J4 150755Z AUTO 09004KT 10SM CLR 23/21 A3011 140 90 1100 090/04 RMK AO2 SLP192 T02280211 $
63870K0J4 0J420160815030011008/15/16 03:00:31  5-MIN K0J4 150800Z AUTO VRB05KT 10SM CLR 23/21 A3012 140 90 1100 VRB/05 RMK AO2 T02280211 $
63870K0J4 0J420160815030511008/15/16 03:05:31  5-MIN K0J4 150805Z AUTO 11003KT 10SM CLR 23/21 A3012 140 90 1100 110/03 RMK AO2 T02280211 $
63870K0J4 0J420160815031011008/15/16 03:10:31  5-MIN K0J4 150810Z AUTO 12003KT 10SM CLR 22/21 A3012 130 93 1000 120/03 RMK AO2 T02220211 $
63870K0J4 0J420160815031511008/15/16 03:15:31  5-MIN K0J4 150815Z AUTO 11003KT 10SM CLR 22/21 A3012 130 93 1000 110/03 RMK AO2 T02220211 $
63870K0J4 0J420160815032011008/15/16 03:20:31  5-MIN K0J4 150820Z AUTO 11004KT 10SM CLR 22/21 A3012 130 93 1000 110/04 RMK AO2 T02220211 $
63870K0J4 0J420160815032511008/15/16 03:25:31  5-MIN K0J4 150825Z AUTO 00000KT 10SM CLR 22/21 A3012 130 93 1000 000/00 RMK AO2 T02220211 $
63870K0J4 0J420160815033011008/15/16 03:30:31  5-MIN K0J4 150830Z AUTO 00000KT 10SM CLR 22/21 A3012 130 93 1000 000/00 RMK AO2 T02220211 $
63870K0J4 0J420160815033511008/15/16 03:35:31  5-MIN K0J4 150835Z AUTO 00000KT 10SM CLR 22/21 A3012 130 93 1000 000/00 RMK AO2 T02220211 $
63870K0J4 0J420160815034011008/15/16 03:40:31  5-MIN K0J4 150840Z AUTO 00000KT 10SM CLR 22/21 A3012 130 93 1000 000/00 RMK AO2 T02220211 $
63870K0J4 0J420160815034511008/15/16 03:45:31  5-MIN K0J4 150845Z AUTO 00000KT 10SM CLR 22/21 A3012 130 93 1000 000/00 RMK AO2 T02220211 $
63870K0J4 0J420160815035011008/15/16 03:50:31  5-MIN K0J4 150850Z AUTO 00000KT 10SM CLR 22/21 A3012 130 93 1000 000/00 RMK AO2 T02220211 $
63870K0J4 0J420160815035512308/15/16 03:55:31  5-MIN K0J4 150855Z AUTO 00000KT 10SM CLR 22/21 A3012 130 93 1000 000/00 RMK AO2 SLP195 T02220211 55005 $
63870K0J4 0J420160815040011008/15/16 04:00:31  5-MIN K0J4 150900Z AUTO 00000KT 10SM CLR 22/21 A3012 140 93 1000 000/00 RMK AO2 T02220211 $
63870K0J4 0J420160815040511008/15/16 04:05:31  5-MIN K0J4 150905Z AUTO 08004KT 10SM CLR 22/21 A3011 140 93 1100 080/04 RMK AO2 T02220211 $
63870K0J4 0J420160815041011008/15/16 04:10:31  5-MIN K0J4 150910Z AUTO 11003KT 10SM CLR 22/21 A3012 140 93 1000 110/03 RMK AO2 T02220211 $
63870K0J4 0J420160815041511008/15/16 04:15:31  5-MIN K0J4 150915Z AUTO 12004KT 10SM CLR 22/21 A3012 130 93 1000 120/04 RMK AO2 T02220211 $
63870K0J4 0J420160815042011008/15/16 04:20:31  5-MIN K0J4 150920Z AUTO 11003KT 10SM CLR 22/21 A3012 130 93 1000 110/03 RMK AO2 T02220211 $
63870K0J4 0J420160815042511308/15/16 04:25:31  5-MIN K0J4 150925Z AUTO 00000KT 10SM FEW070 22/21 A3012 130 93 1000 000/00 RMK AO2 T02220211 $
63870K0J4 0J420160815043011308/15/16 04:30:31  5-MIN K0J4 150930Z AUTO 00000KT 10SM FEW070 22/21 A3012 130 93 1000 000/00 RMK AO2 T02220211 $
63870K0J4 0J420160815043511308/15/16 04:35:31  5-MIN K0J4 150935Z AUTO 12003KT 10SM FEW070 22/21 A3012 130 93 1000 120/03 RMK AO2 T02220211 $
63870K0J4 0J420160815044011308/15/16 04:40:31  5-MIN K0J4 150940Z AUTO 00000KT 10SM FEW070 22/21 A3012 130 93 1000 000/00 RMK AO2 T02220211 $
63870K0J4 0J420160815044511308/15/16 04:45:31  5-MIN K0J4 150945Z AUTO 00000KT 10SM FEW070 22/21 A3013 120 93 1000 000/00 RMK AO2 T02220211 $
63870K0J4 0J420160815045011308/15/16 04:50:31  5-MIN K0J4 150950Z AUTO 00000KT 10SM FEW070 22/21 A3013 120 93 1000 000/00 RMK AO2 T02220211 $
63870K0J4 0J420160815045511708/15/16 04:55:31  5-MIN K0J4 150955Z AUTO 00000KT 10SM CLR 22/21 A3013 120 93 1000 000/00 RMK AO2 SLP198 T02220211 $
63870K0J4 0J420160815050011008/15/16 05:00:31  5-MIN K0J4 151000Z AUTO 00000KT 10SM CLR 22/21 A3013 120 93 1000 000/00 RMK AO2 T02220211 $
63870K0J4 0J420160815050511008/15/16 05:05:31  5-MIN K0J4 151005Z AUTO 11003KT 10SM CLR 22/21 A3013 120 97 1000 110/03 RMK AO2 T02170211 $
63870K0J4 0J420160815051011008/15/16 05:10:31  5-MIN K0J4 151010Z AUTO 00000KT 10SM CLR 22/21 A3013 120 97 1000 000/00 RMK AO2 T02170211 $
63870K0J4 0J420160815051511008/15/16 05:15:31  5-MIN K0J4 151015Z AUTO 11003KT 10SM CLR 22/21 A3013 120 97 1000 110/03 RMK AO2 T02170211 $
63870K0J4 0J420160815052011008/15/16 05:20:31  5-MIN K0J4 151020Z AUTO VRB03KT 10SM CLR 22/21 A3013 120 93 1000 VRB/03 RMK AO2 T02170206 $
63870K0J4 0J420160815052511008/15/16 05:25:31  5-MIN K0J4 151025Z AUTO 00000KT 10SM CLR 22/21 A3014 120 97 1000 000/00 RMK AO2 T02170211 $
63870K0J4 0J420160815053011008/15/16 05:30:31  5-MIN K0J4 151030Z AUTO 09003KT 10SM CLR 22/21 A3014 120 97 1000 090/03 RMK AO2 T02170211 $
63870K0J4 0J420160815053511008/15/16 05:35:31  5-MIN K0J4 151035Z AUTO 09004KT 10SM CLR 22/21 A3014 110 93 1000 090/04 RMK AO2 T02170206 $
63870K0J4 0J420160815054011308/15/16 05:40:31  5-MIN K0J4 151040Z AUTO VRB03KT 10SM FEW110 22/21 A3014 110 93 1000 VRB/03 RMK AO2 T02170206 $
63870K0J4 0J420160815054511308/15/16 05:45:31  5-MIN K0J4 151045Z AUTO 12003KT 10SM FEW110 22/21 A3014 110 97 1000 120/03 RMK AO2 T02170211 $
63870K0J4 0J420160815055011308/15/16 05:50:31  5-MIN K0J4 151050Z AUTO 00000KT 10SM FEW110 22/21 A3015 110 93 1000 000/00 RMK AO2 T02170206 $
63870K0J4 0J420160815055511908/15/16 05:55:31  5-MIN K0J4 151055Z AUTO 00000KT 10SM FEW110 22/21 A3015 110 93 900 000/00 RMK AO2 SLP204 T02170206 $
63870K0J4 0J420160815060011208/15/16 06:00:31  5-MIN K0J4 151100Z AUTO VRB03KT 10SM FEW110 22/21 A3015 110 93 900 VRB/03 RMK AO2 T02170206 $
63870K0J4 0J420160815060511208/15/16 06:05:31  5-MIN K0J4 151105Z AUTO 00000KT 10SM FEW110 22/21 A3015 100 93 900 000/00 RMK AO2 T02170206 $
63870K0J4 0J420160815061011208/15/16 06:10:31  5-MIN K0J4 151110Z AUTO 00000KT 10SM FEW110 22/21 A3015 100 93 900 000/00 RMK AO2 T02170206 $
63870K0J4 0J420160815061511208/15/16 06:15:31  5-MIN K0J4 151115Z AUTO 00000KT 10SM FEW110 22/21 A3016 100 93 900 000/00 RMK AO2 T02170206 $
63870K0J4 0J420160815062011208/15/16 06:20:31  5-MIN K0J4 151120Z AUTO 00000KT 10SM FEW110 22/21 A3016 100 93 900 000/00 RMK AO2 T02170206 $
63870K0J4 0J420160815062511208/15/16 06:25:31  5-MIN K0J4 151125Z AUTO 10003KT 10SM FEW110 22/21 A3016 100 93 900 100/03 RMK AO2 T02170206 $
63870K0J4 0J420160815063011208/15/16 06:30:31  5-MIN K0J4 151130Z AUTO 00000KT 10SM FEW110 22/21 A3016 100 97 900 000/00 RMK AO2 T02170211 $
63870K0J4 0J420160815063511208/15/16 06:35:31  5-MIN K0J4 151135Z AUTO 11003KT 10SM FEW110 22/21 A3016 100 97 900 110/03 RMK AO2 T02170211 $
63870K0J4 0J420160815064010708/15/16 06:40:31  5-MIN K0J4 151140Z AUTO 00000KT 10SM CLR 22/21 A3016 100 97 900 000/00 RMK AO2 T02170211
63870K0J4 0J420160815064510708/15/16 06:45:31  5-MIN K0J4 151145Z AUTO 08004KT 10SM CLR 22/21 A3016 100 97 900 080/04 RMK AO2 T02170211
63870K0J4 0J420160815065010808/15/16 06:50:31  5-MIN K0J4 151150Z AUTO 08004KT 10SM CLR 22/21 A3016 100 90 1000 080/04 RMK AO2 T02220206
63870K0J4 0J420160815065513308/15/16 06:55:31  5-MIN K0J4 151155Z AUTO 09004KT 10SM CLR 22/21 A3016 100 93 1000 090/04 RMK AO2 SLP208 T02220211 10228 20217 55007
63870K0J4 0J420160815070010708/15/16 07:00:31  5-MIN K0J4 151200Z AUTO 10003KT 10SM CLR 22/21 A3016 90 93 1000 100/03 RMK AO2 T02220211
63870K0J4 0J420160815070510708/15/16 07:05:31  5-MIN K0J4 151205Z AUTO 08003KT 10SM CLR 22/21 A3016 90 93 1000 080/03 RMK AO2 T02220211
63870K0J4 0J420160815071010708/15/16 07:10:31  5-MIN K0J4 151210Z AUTO 08003KT 10SM CLR 23/21 A3016 90 90 1100 080/03 RMK AO2 T02280211
63870K0J4 0J420160815071510708/15/16 07:15:31  5-MIN K0J4 151215Z AUTO VRB03KT 10SM CLR 23/21 A3017 90 90 1100 VRB/03 RMK AO2 T02280211
63870K0J4 0J420160815072010708/15/16 07:20:31  5-MIN K0J4 151220Z AUTO 11003KT 10SM CLR 23/21 A3016 90 90 1100 110/03 RMK AO2 T02280211
63870K0J4 0J420160815072510708/15/16 07:25:31  5-MIN K0J4 151225Z AUTO 11003KT 10SM CLR 23/21 A3016 90 90 1100 110/03 RMK AO2 T02280211
63870K0J4 0J420160815073010708/15/16 07:30:31  5-MIN K0J4 151230Z AUTO 10005KT 10SM CLR 23/22 A3017 90 90 1100 100/05 RMK AO2 T02330217
63870K0J4 0J420160815073510708/15/16 07:35:31  5-MIN K0J4 151235Z AUTO 12005KT 10SM CLR 23/21 A3017 90 87 1100 120/05 RMK AO2 T02330211
63870K0J4 0J420160815074011008/15/16 07:40:31  5-MIN K0J4 151240Z AUTO VRB03KT 10SM FEW004 23/22 A3017 90 90 1100 VRB/03 RMK AO2 T02330217
63870K0J4 0J420160815074511008/15/16 07:45:31  5-MIN K0J4 151245Z AUTO 12003KT 10SM FEW004 23/22 A3017 90 90 1100 120/03 RMK AO2 T02330217
63870K0J4 0J420160815075010708/15/16 07:50:31  5-MIN K0J4 151250Z AUTO 11003KT 10SM CLR 24/22 A3017 90 87 1200 110/03 RMK AO2 T02390217
63870K0J4 0J420160815075511408/15/16 07:55:31  5-MIN K0J4 151255Z AUTO 12005KT 10SM CLR 24/22 A3017 90 87 1200 120/05 RMK AO2 SLP211 T02390217
63870K0J4 0J420160815080011008/15/16 08:00:31  5-MIN K0J4 151300Z AUTO 14006KT 10SM FEW120 24/22 A3017 90 87 1200 140/06 RMK AO2 T02390217
63870K0J4 0J420160815080511008/15/16 08:05:31  5-MIN K0J4 151305Z AUTO 13007KT 10SM FEW120 24/22 A3017 90 87 1200 130/07 RMK AO2 T02390217
63870K0J4 0J420160815081011008/15/16 08:10:31  5-MIN K0J4 151310Z AUTO 13005KT 10SM FEW120 24/22 A3017 90 87 1200 130/05 RMK AO2 T02390217
63870K0J4 0J420160815081511008/15/16 08:15:31  5-MIN K0J4 151315Z AUTO 13005KT 10SM FEW120 24/22 A3017 90 84 1200 130/05 RMK AO2 T02440217
63870K0J4 0J420160815082011008/15/16 08:20:31  5-MIN K0J4 151320Z AUTO VRB03KT 10SM FEW120 24/22 A3017 90 84 1200 VRB/03 RMK AO2 T02440217
63870K0J4 0J420160815082510708/15/16 08:25:31  5-MIN K0J4 151325Z AUTO 12003KT 10SM CLR 25/22 A3017 90 84 1300 120/03 RMK AO2 T02500222
63870K0J4 0J420160815083010708/15/16 08:30:31  5-MIN K0J4 151330Z AUTO 12004KT 10SM CLR 26/22 A3017 90 81 1400 120/04 RMK AO2 T02560222
63870K0J4 0J420160815083510708/15/16 08:35:31  5-MIN K0J4 151335Z AUTO 15005KT 10SM CLR 26/22 A3017 90 81 1400 150/05 RMK AO2 T02560222
63870K0J4 0J420160815084010708/15/16 08:40:31  5-MIN K0J4 151340Z AUTO 17005KT 10SM CLR 26/22 A3017 90 81 1400 170/05 RMK AO2 T02560222
63870K0J4 0J420160815084510708/15/16 08:45:31  5-MIN K0J4 151345Z AUTO VRB04KT 10SM CLR 26/22 A3017 90 79 1400 VRB/04 RMK AO2 T02610222
63870K0J4 0J420160815085010708/15/16 08:50:31  5-MIN K0J4 151350Z AUTO 09006KT 10SM CLR 27/23 A3017 90 79 1500 090/06 RMK AO2 T02670228
63870K0J4 0J420160815085511408/15/16 08:55:31  5-MIN K0J4 151355Z AUTO 11004KT 10SM CLR 27/23 A3017 90 79 1500 110/04 RMK AO2 SLP211 T02670228
63870K0J4 0J420160815090010708/15/16 09:00:31  5-MIN K0J4 151400Z AUTO 11006KT 10SM CLR 27/23 A3017 90 76 1600 110/06 RMK AO2 T02720228
63870K0J4 0J420160815090510708/15/16 09:05:31  5-MIN K0J4 151405Z AUTO 10007KT 10SM CLR 27/22 A3017 90 76 1500 100/07 RMK AO2 T02670222
63870K0J4 0J420160815091010708/15/16 09:10:31  5-MIN K0J4 151410Z AUTO 13005KT 10SM CLR 27/23 A3017 80 79 1500 130/05 RMK AO2 T02670228
63870K0J4 0J420160815091510708/15/16 09:15:31  5-MIN K0J4 151415Z AUTO 12005KT 10SM CLR 27/23 A3017 80 76 1600 120/05 RMK AO2 T02720228
63870K0J4 0J420160815092010708/15/16 09:20:31  5-MIN K0J4 151420Z AUTO 13005KT 10SM CLR 27/23 A3017 80 76 1600 130/05 RMK AO2 T02720228
63870K0J4 0J420160815092510708/15/16 09:25:31  5-MIN K0J4 151425Z AUTO 12005KT 10SM CLR 27/23 A3017 80 76 1600 120/05 RMK AO2 T02720228
63870K0J4 0J420160815093010708/15/16 09:30:31  5-MIN K0J4 151430Z AUTO VRB05KT 10SM CLR 28/23 A3017 80 74 1700 VRB/05 RMK AO2 T02830233
63870K0J4 0J420160815093510708/15/16 09:35:31  5-MIN K0J4 151435Z AUTO 15005KT 10SM CLR 28/23 A3017 80 74 1600 150/05 RMK AO2 T02780228
63870K0J4 0J420160815094010708/15/16 09:40:31  5-MIN K0J4 151440Z AUTO 12006KT 10SM CLR 28/23 A3017 80 74 1600 120/06 RMK AO2 T02780228
63870K0J4 0J420160815094510708/15/16 09:45:31  5-MIN K0J4 151445Z AUTO 12007KT 10SM CLR 28/23 A3017 80 74 1600 120/07 RMK AO2 T02780228
63870K0J4 0J420160815095010708/15/16 09:50:31  5-MIN K0J4 151450Z AUTO VRB06KT 10SM CLR 28/23 A3017 80 74 1600 VRB/06 RMK AO2 T02780228
63870K0J4 0J420160815095512008/15/16 09:55:31  5-MIN K0J4 151455Z AUTO 14005KT 10SM CLR 28/23 A3018 80 71 1700 140/05 RMK AO2 SLP214 T02830228 53014
63870K0J4 0J420160815100010708/15/16 10:00:31  5-MIN K0J4 151500Z AUTO 16007KT 10SM CLR 28/22 A3018 80 69 1700 160/07 RMK AO2 T02830222
63870K0J4 0J420160815100510708/15/16 10:05:31  5-MIN K0J4 151505Z AUTO 17007KT 10SM CLR 28/23 A3018 80 71 1700 170/07 RMK AO2 T02830228
63870K0J4 0J420160815101010708/15/16 10:10:31  5-MIN K0J4 151510Z AUTO 15006KT 10SM CLR 29/23 A3018 80 69 1700 150/06 RMK AO2 T02890228
63870K0J4 0J420160815101510708/15/16 10:15:31  5-MIN K0J4 151515Z AUTO 14005KT 10SM CLR 29/23 A3018 80 69 1700 140/05 RMK AO2 T02890228
63870K0J4 0J420160815102010708/15/16 10:20:31  5-MIN K0J4 151520Z AUTO VRB06KT 10SM CLR 29/23 A3018 80 69 1800 VRB/06 RMK AO2 T02940233
63870K0J4 0J420160815102511008/15/16 10:25:31  5-MIN K0J4 151525Z AUTO VRB06KT 10SM FEW021 29/23 A3018 80 69 1800 VRB/06 RMK AO2 T02940233
63870K0J4 0J420160816072511708/16/16 07:25:31  5-MIN K0J4 161225Z AUTO 00000KT 10SM FEW049 SCT060 24/22 A3019 70 87 1200 000/00 RMK AO2 T02440222
63870K0J4 0J420160816073011008/16/16 07:30:31  5-MIN K0J4 161230Z AUTO 08003KT 10SM FEW055 24/22 A3019 70 87 1200 080/03 RMK AO2 T02440222
63870K0J4 0J420160816073511008/16/16 07:35:31  5-MIN K0J4 161235Z AUTO 08003KT 10SM FEW055 25/22 A3018 70 84 1300 080/03 RMK AO2 T02500222
63870K0J4 0J420160816074010708/16/16 07:40:31  5-MIN K0J4 161240Z AUTO 10003KT 10SM CLR 25/23 A3019 70 87 1300 100/03 RMK AO2 T02500228
63870K0J4 0J420160816074510708/16/16 07:45:31  5-MIN K0J4 161245Z AUTO VRB04KT 10SM CLR 25/23 A3019 70 87 1300 VRB/04 RMK AO2 T02500228
63870K0J4 0J420160816075010708/16/16 07:50:31  5-MIN K0J4 161250Z AUTO 10004KT 10SM CLR 25/23 A3019 70 87 1300 100/04 RMK AO2 T02500228
63870K0J4 0J420160816075511408/16/16 07:55:31  5-MIN K0J4 161255Z AUTO 08005KT 10SM CLR 25/23 A3019 70 87 1300 080/05 RMK AO2 SLP218 T02500228
63870K0J4 0J420160816080010708/16/16 08:00:31  5-MIN K0J4 161300Z AUTO 09004KT 10SM CLR 26/23 A3019 70 84 1300 090/04 RMK AO2 T02560228
63870K0J4 0J420160816080510708/16/16 08:05:31  5-MIN K0J4 161305Z AUTO 08004KT 10SM CLR 26/23 A3019 70 84 1300 080/04 RMK AO2 T02560228
63870K0J4 0J420160816081010708/16/16 08:10:31  5-MIN K0J4 161310Z AUTO 08005KT 10SM CLR 26/23 A3020 60 84 1300 080/05 RMK AO2 T02560228
63870K0J4 0J420160816081510708/16/16 08:15:31  5-MIN K0J4 161315Z AUTO 08006KT 10SM CLR 26/23 A3020 60 84 1300 080/06 RMK AO2 T02560228
63870K0J4 0J420160816082010708/16/16 08:20:31  5-MIN K0J4 161320Z AUTO 09007KT 10SM CLR 26/23 A3020 60 81 1400 090/07 RMK AO2 T02610228
63870K0J4 0J420160816082510708/16/16 08:25:31  5-MIN K0J4 161325Z AUTO 09007KT 10SM CLR 26/23 A3020 60 81 1400 090/07 RMK AO2 T02610228
63870K0J4 0J420160816083010708/16/16 08:30:31  5-MIN K0J4 161330Z AUTO 08005KT 10SM CLR 26/23 A3019 60 84 1400 080/05 RMK AO2 T02610233
63870K0J4 0J420160816083510708/16/16 08:35:31  5-MIN K0J4 161335Z AUTO 10005KT 10SM CLR 27/23 A3019 60 82 1500 100/05 RMK AO2 T02670233
63870K0J4 0J420160816084010708/16/16 08:40:31  5-MIN K0J4 161340Z AUTO 08007KT 10SM CLR 27/23 A3019 70 82 1500 080/07 RMK AO2 T02670233
63870K0J4 0J420160816084510708/16/16 08:45:31  5-MIN K0J4 161345Z AUTO 09006KT 10SM CLR 27/23 A3019 70 79 1500 090/06 RMK AO2 T02720233
63870K0J4 0J420160816085010708/16/16 08:50:31  5-MIN K0J4 161350Z AUTO VRB03KT 10SM CLR 27/23 A3019 70 79 1500 VRB/03 RMK AO2 T02720233
63870K0J4 0J420160816085511408/16/16 08:55:31  5-MIN K0J4 161355Z AUTO 09006KT 10SM CLR 27/24 A3019 70 82 1500 090/06 RMK AO2 SLP219 T02720239
63870K0J4 0J420160816090010708/16/16 09:00:31  5-MIN K0J4 161400Z AUTO 10004KT 10SM CLR 27/24 A3019 70 82 1500 100/04 RMK AO2 T02720239
63870K0J4 0J420160816090510708/16/16 09:05:31  5-MIN K0J4 161405Z AUTO 10005KT 10SM CLR 28/24 A3019 70 79 1600 100/05 RMK AO2 T02780239
63870K0J4 0J420160816091010708/16/16 09:10:31  5-MIN K0J4 161410Z AUTO 09005KT 10SM CLR 28/24 A3019 70 79 1700 090/05 RMK AO2 T02830244
63870K0J4 0J420160816091510708/16/16 09:15:31  5-MIN K0J4 161415Z AUTO 08005KT 10SM CLR 28/24 A3019 70 79 1700 080/05 RMK AO2 T02830244
63870K0J4 0J420160816092010708/16/16 09:20:31  5-MIN K0J4 161420Z AUTO 10005KT 10SM CLR 28/24 A3019 70 76 1700 100/05 RMK AO2 T02830239
63870K0J4 0J420160816092510708/16/16 09:25:31  5-MIN K0J4 161425Z AUTO 12006KT 10SM CLR 28/24 A3019 70 76 1700 120/06 RMK AO2 T02830239
63870K0J4 0J420160816093010708/16/16 09:30:31  5-MIN K0J4 161430Z AUTO VRB05KT 10SM CLR 29/24 A3019 70 74 1700 VRB/05 RMK AO2 T02890239
63870K0J4 0J420160816093510708/16/16 09:35:31  5-MIN K0J4 161435Z AUTO 08005KT 10SM CLR 29/24 A3019 60 74 1700 080/05 RMK AO2 T02890239
63870K0J4 0J420160816094010708/16/16 09:40:31  5-MIN K0J4 161440Z AUTO 11006KT 10SM CLR 29/24 A3019 70 74 1700 110/06 RMK AO2 T02890239
63870K0J4 0J420160816094510708/16/16 09:45:31  5-MIN K0J4 161445Z AUTO 10005KT 10SM CLR 29/24 A3019 70 74 1700 100/05 RMK AO2 T02890239
63870K0J4 0J420160816095010708/16/16 09:50:31  5-MIN K0J4 161450Z AUTO 12005KT 10SM CLR 29/24 A3020 60 71 1800 120/05 RMK AO2 T02940239
63870K0J4 0J420160816095512008/16/16 09:55:31  5-MIN K0J4 161455Z AUTO 11006KT 10SM CLR 29/24 A3020 60 71 1800 110/06 RMK AO2 SLP221 T02940239 51011
63870K0J4 0J420160816100010708/16/16 10:00:31  5-MIN K0J4 161500Z AUTO 12004KT 10SM CLR 29/23 A3020 60 69 1800 120/04 RMK AO2 T02940233
63870K0J4 0J420160816100510708/16/16 10:05:31  5-MIN K0J4 161505Z AUTO VRB03KT 10SM CLR 30/24 A3020 60 69 1800 VRB/03 RMK AO2 T03000239
63870K0J4 0J420160816101010708/16/16 10:10:31  5-MIN K0J4 161510Z AUTO 09004KT 10SM CLR 31/24 A3020 60 67 1900 090/04 RMK AO2 T03060239
63870K0J4 0J420160816101510708/16/16 10:15:31  5-MIN K0J4 161515Z AUTO 10006KT 10SM CLR 30/23 A3020 60 67 1800 100/06 RMK AO2 T03000233
63870K0J4 0J420160816102010708/16/16 10:20:31  5-MIN K0J4 161520Z AUTO 11004KT 10SM CLR 30/23 A3020 60 67 1800 110/04 RMK AO2 T03000233
63870K0J4 0J420160816102510708/16/16 10:25:31  5-MIN K0J4 161525Z AUTO 09006KT 10SM CLR 30/23 A3020 60 67 1800 090/06 RMK AO2 T03000233
63870K0J4 0J420160816103010708/16/16 10:30:31  5-MIN K0J4 161530Z AUTO VRB03KT 10SM CLR 30/23 A3020 60 67 1800 VRB/03 RMK AO2 T03000233
63870K0J4 0J420160816103510708/16/16 10:35:31  5-MIN K0J4 161535Z AUTO 08006KT 10SM CLR 31/23 A3020 60 65 1900 080/06 RMK AO2 T03060233
63870K0J4 0J420160816104010708/16/16 10:40:31  5-MIN K0J4 161540Z AUTO VRB06KT 10SM CLR 31/23 A3020 60 65 1900 VRB/06 RMK AO2 T03060233
63870K0J4 0J420160816104510708/16/16 10:45:31  5-MIN K0J4 161545Z AUTO 15004KT 10SM CLR 31/23 A3020 60 65 1900 150/04 RMK AO2 T03060233
63870K0J4 0J420160816105010708/16/16 10:50:31  5-MIN K0J4 161550Z AUTO 12005KT 10SM CLR 31/23 A3020 60 65 1900 120/05 RMK AO2 T03060233
63870K0J4 0J420160816105511408/16/16 10:55:31  5-MIN K0J4 161555Z AUTO 15005KT 10SM CLR 31/23 A3020 60 62 1900 150/05 RMK AO2 SLP222 T03060228
63870K0J4 0J420160816110010708/16/16 11:00:31  5-MIN K0J4 161600Z AUTO 12003KT 10SM CLR 31/23 A3020 60 63 2000 120/03 RMK AO2 T03110233
63870K0J4 0J420160816110510708/16/16 11:05:31  5-MIN K0J4 161605Z AUTO 09007KT 10SM CLR 31/23 A3020 60 63 2000 090/07 RMK AO2 T03110233
63870K0J4 0J420160816111010708/16/16 11:10:31  5-MIN K0J4 161610Z AUTO 13006KT 10SM CLR 32/23 A3020 60 61 2000 130/06 RMK AO2 T03170233
63870K0J4 0J420160816111510708/16/16 11:15:31  5-MIN K0J4 161615Z AUTO 09004KT 10SM CLR 31/23 A3020 60 63 2000 090/04 RMK AO2 T03110233
63870K0J4 0J420160816112010708/16/16 11:20:31  5-MIN K0J4 161620Z AUTO 08008KT 10SM CLR 32/23 A3019 60 61 2000 080/08 RMK AO2 T03170233
63870K0J4 0J420160816112510708/16/16 11:25:31  5-MIN K0J4 161625Z AUTO 13005KT 10SM CLR 32/23 A3019 70 61 2000 130/05 RMK AO2 T03170233
63870K0J4 0J420160816113010708/16/16 11:30:31  5-MIN K0J4 161630Z AUTO 10005KT 10SM CLR 31/23 A3019 70 60 2000 100/05 RMK AO2 T03110228
63870K0J4 0J420160816113510708/16/16 11:35:31  5-MIN K0J4 161635Z AUTO 00000KT 10SM CLR 32/23 A3019 70 61 2000 000/00 RMK AO2 T03170233
63870K0J4 0J420160816114010708/16/16 11:40:31  5-MIN K0J4 161640Z AUTO 14006KT 10SM CLR 32/23 A3019 70 61 2000 140/06 RMK AO2 T03170233
63870K0J4 0J420160816114510708/16/16 11:45:31  5-MIN K0J4 161645Z AUTO 11006KT 10SM CLR 32/23 A3019 70 58 2000 110/06 RMK AO2 T03170228
63870K0J4 0J420160816115010708/16/16 11:50:31  5-MIN K0J4 161650Z AUTO 11004KT 10SM CLR 32/23 A3019 70 58 2000 110/04 RMK AO2 T03170228
63870K0J4 0J420160816115511408/16/16 11:55:31  5-MIN K0J4 161655Z AUTO VRB04KT 10SM CLR 32/23 A3019 70 59 2100 VRB/04 RMK AO2 SLP218 T03220233
63870K0J4 0J420160816120011008/16/16 12:00:31  5-MIN K0J4 161700Z AUTO 20005KT 10SM FEW033 31/23 A3019 70 60 2000 200/05 RMK AO2 T03110228
63870K0J4 0J420160816120511008/16/16 12:05:31  5-MIN K0J4 161705Z AUTO VRB05KT 10SM FEW035 32/23 A3019 70 58 2000 VRB/05 RMK AO2 T03170228
63870K0J4 0J420160816121011008/16/16 12:10:31  5-MIN K0J4 161710Z AUTO VRB04KT 10SM FEW035 32/23 A3018 70 59 2100 VRB/04 RMK AO2 T03220233
63870K0J4 0J420160816121511008/16/16 12:15:31  5-MIN K0J4 161715Z AUTO VRB03KT 10SM FEW033 32/23 A3018 80 58 2000 VRB/03 RMK AO2 T03170228
63870K0J4 0J420160816122011008/16/16 12:20:31  5-MIN K0J4 161720Z AUTO 15005KT 10SM FEW033 32/23 A3018 80 58 2000 150/05 RMK AO2 T03170228
63870K0J4 0J420160816122511008/16/16 12:25:31  5-MIN K0J4 161725Z AUTO 17005KT 10SM FEW033 31/23 A3018 80 60 2000 170/05 RMK AO2 T03110228
63870K0J4 0J420160816123011008/16/16 12:30:31  5-MIN K0J4 161730Z AUTO VRB05KT 10SM FEW033 32/23 A3018 80 61 2000 VRB/05 RMK AO2 T03170233
63870K0J4 0J420160816123511708/16/16 12:35:31  5-MIN K0J4 161735Z AUTO VRB05KT 10SM FEW033 FEW047 32/23 A3018 80 58 2000 VRB/05 RMK AO2 T03170228
63870K0J4 0J420160816124011708/16/16 12:40:31  5-MIN K0J4 161740Z AUTO 11003KT 10SM FEW033 FEW047 32/24 A3018 80 63 2000 110/03 RMK AO2 T03170239
63870K0J4 0J420160816124510708/16/16 12:45:31  5-MIN K0J4 161745Z AUTO 00000KT 10SM CLR 32/23 A3017 80 61 2000 000/00 RMK AO2 T03170233
63870K0J4 0J420160816125011708/16/16 12:50:31  5-MIN K0J4 161750Z AUTO VRB04KT 10SM FEW032 FEW046 32/23 A3017 80 61 2000 VRB/04 RMK AO2 T03170233
63870K0J4 0J420160816125514208/16/16 12:55:31  5-MIN K0J4 161755Z AUTO VRB03KT 10SM FEW032 SCT043 32/23 A3017 90 61 2100 VRB/03 RMK AO2 SLP211 T03170233 10322 20233 53003
63870K0J4 0J420160816130011708/16/16 13:00:31  5-MIN K0J4 161800Z AUTO 00000KT 10SM FEW032 SCT043 32/23 A3017 90 59 2100 000/00 RMK AO2 T03220233
63870K0J4 0J420160816130511008/16/16 13:05:31  5-MIN K0J4 161805Z AUTO 00000KT 10SM SCT036 33/24 A3017 90 59 2200 000/00 RMK AO2 T03280239
63870K0J4 0J420160816131011008/16/16 13:10:31  5-MIN K0J4 161810Z AUTO VRB03KT 10SM SCT034 33/23 A3017 90 57 2200 VRB/03 RMK AO2 T03280233
63870K0J4 0J420160816131511008/16/16 13:15:31  5-MIN K0J4 161815Z AUTO VRB04KT 10SM FEW034 33/23 A3016 90 57 2200 VRB/04 RMK AO2 T03280233
63870K0J4 0J420160816132011008/16/16 13:20:31  5-MIN K0J4 161820Z AUTO 17003KT 10SM SCT036 32/23 A3016 90 57 2100 170/03 RMK AO2 T03220228
63870K0J4 0J420160816132511008/16/16 13:25:31  5-MIN K0J4 161825Z AUTO 19004KT 10SM SCT036 32/23 A3016 90 57 2100 190/04 RMK AO2 T03220228
63870K0J4 0J420160816133011808/16/16 13:30:31  5-MIN K0J4 161830Z AUTO 13005KT 10SM FEW037 FEW085 33/23 A3016 100 57 2200 130/05 RMK AO2 T03280233
63870K0J4 0J420160816133511808/16/16 13:35:31  5-MIN K0J4 161835Z AUTO 18008KT 10SM FEW037 SCT085 33/23 A3016 100 55 2200 180/08 RMK AO2 T03280228
63870K0J4 0J420160816134011108/16/16 13:40:31  5-MIN K0J4 161840Z AUTO 11005KT 10SM SCT039 32/23 A3016 100 57 2100 110/05 RMK AO2 T03220228
63870K0J4 0J420160816134511108/16/16 13:45:31  5-MIN K0J4 161845Z AUTO 12004KT 10SM SCT039 32/23 A3016 100 61 2100 120/04 RMK AO2 T03170233
63870K0J4 0J420160816135011108/16/16 13:50:31  5-MIN K0J4 161850Z AUTO VRB03KT 10SM FEW040 33/24 A3015 100 59 2200 VRB/03 RMK AO2 T03280239
63870K0J4 0J420160816135511808/16/16 13:55:31  5-MIN K0J4 161855Z AUTO 17005KT 10SM FEW040 33/23 A3015 110 57 2200 170/05 RMK AO2 SLP205 T03280233
63870K0J4 0J420160816140011808/16/16 14:00:31  5-MIN K0J4 161900Z AUTO VRB05KT 10SM FEW040 FEW110 32/23 A3014 110 59 2100 VRB/05 RMK AO2 T03220233
63870K0J4 0J420160816140512508/16/16 14:05:31  5-MIN K0J4 161905Z AUTO VRB04KT 10SM FEW038 SCT046 SCT110 33/24 A3014 110 57 2300 VRB/04 RMK AO2 T03330239
63870K0J4 0J420160816141011108/16/16 14:10:31  5-MIN K0J4 161910Z AUTO VRB04KT 10SM FEW042 33/24 A3014 120 57 2300 VRB/04 RMK AO2 T03330239
63870K0J4 0J420160816141511108/16/16 14:15:31  5-MIN K0J4 161915Z AUTO 09006KT 10SM FEW042 33/24 A3013 120 57 2300 090/06 RMK AO2 T03330239
63870K0J4 0J420160816142011108/16/16 14:20:31  5-MIN K0J4 161920Z AUTO VRB04KT 10SM FEW042 33/23 A3013 120 55 2300 VRB/04 RMK AO2 T03330233
63870K0J4 0J420160816142511108/16/16 14:25:31  5-MIN K0J4 161925Z AUTO 00000KT 10SM FEW038 33/23 A3013 130 55 2300 000/00 RMK AO2 T03330233
63870K0J4 0J420160816143010108/16/16 14:30:31  5-MIN K0J4 161930Z AUTO 10SM SCT041 33/23 A3012 130 55 2300 M /M RMK AO2 T03330233
63870K0J4 0J420160816143511108/16/16 14:35:31  5-MIN K0J4 161935Z AUTO VRB03KT 10SM SCT041 32/23 A3012 130 59 2200 VRB/03 RMK AO2 T03220233
63870K0J4 0J420160816144011108/16/16 14:40:31  5-MIN K0J4 161940Z AUTO 09005KT 10SM SCT041 33/24 A3012 140 57 2300 090/05 RMK AO2 T03330239
63870K0J4 0J420160816144511108/16/16 14:45:31  5-MIN K0J4 161945Z AUTO VRB06KT 10SM FEW041 33/23 A3011 140 53 2300 VRB/06 RMK AO2 T03330228
63870K0J4 0J420160816145011108/16/16 14:50:31  5-MIN K0J4 161950Z AUTO VRB04KT 10SM FEW041 33/23 A3011 140 53 2300 VRB/04 RMK AO2 T03330228
63870K0J4 0J420160816145511808/16/16 14:55:31  5-MIN K0J4 161955Z AUTO 07003KT 10SM FEW041 34/23 A3011 140 53 2400 070/03 RMK AO2 SLP191 T03390233
63870K0J4 0J420160816150011108/16/16 15:00:31  5-MIN K0J4 162000Z AUTO 12004KT 10SM FEW041 33/23 A3011 140 55 2300 120/04 RMK AO2 T03330233
63870K0J4 0J420160816150509808/16/16 15:05:31  5-MIN K0J4 162005Z AUTO 10SM CLR 33/23 A3011 140 53 2300 M /M RMK AO2 T03330228
63870K0J4 0J420160816151010808/16/16 15:10:31  5-MIN K0J4 162010Z AUTO 15007KT 10SM CLR 33/23 A3011 140 53 2300 150/07 RMK AO2 T03330228
63870K0J4 0J420160816151511108/16/16 15:15:31  5-MIN K0J4 162015Z AUTO 17006KT 10SM FEW043 33/22 A3011 140 51 2300 170/06 RMK AO2 T03330222
63870K0J4 0J420160816152011108/16/16 15:20:31  5-MIN K0J4 162020Z AUTO 15006KT 10SM FEW043 34/23 A3011 140 51 2400 150/06 RMK AO2 T03390228
63870K0J4 0J420160816152511808/16/16 15:25:31  5-MIN K0J4 162025Z AUTO VRB04KT 10SM SCT042 BKN060 34/23 A3011 150 51 2400 VRB/04 RMK AO2 T03390228
63870K0J4 0J420160816153012708/16/16 15:30:31  5-MIN K0J4 162030Z AUTO 09006KT 10SM TS SCT042 BKN060 34/23 A3010 150 53 2400 090/06 RMK AO2 TSB28 T03390233
63870K0J4 0J420160816153514608/16/16 15:35:31  5-MIN K0J4 162035Z AUTO 09007KT 060V120 10SM TS SCT043 BKN060 34/23 A3010 150 51 2400 090/07 060V120 RMK AO2 TSB28B32 T03390228
63870K0J4 0J420160816154013008/16/16 15:40:31  5-MIN K0J4 162040Z AUTO 15007KT 10SM TS SCT043 BKN060 34/23 A3010 150 51 2400 150/07 RMK AO2 TSB28B32 T03390228
63870K0J4 0J420160816154514308/16/16 15:45:31  5-MIN K0J4 162045Z AUTO 15011G21KT 10SM TS SCT043 SCT050 SCT060 33/23 A3011 140 53 2300 150/11G21 RMK AO2 TSB28B32 T03330228
63870K0J4 0J420160816155014308/16/16 15:50:31  5-MIN K0J4 162050Z AUTO 17013G23KT 10SM TS SCT043 SCT050 BKN060 30/23 A3012 130 65 1900 170/13G23 RMK AO2 TSB28B32 T03000228
63870K0J4 0J420160816155515608/16/16 15:55:31  5-MIN K0J4 162055Z AUTO 17009G23KT 10SM TS SCT043 BKN055 BKN095 29/23 A3012 130 69 1800 170/09G23 RMK AO2 TSB28B32 SLP194 T02890228 58010
63870K0J4 0J420160816160013408/16/16 16:00:31  5-MIN K0J4 162100Z AUTO 17012G21KT 10SM TS FEW043 BKN055 BKN100 29/23 A3013 130 71 1800 170/12G21 RMK AO2 T02890233
63870K0J4 0J420160816160513408/16/16 16:05:31  5-MIN K0J4 162105Z AUTO 18013G19KT 10SM TS SCT047 BKN060 BKN100 28/22 A3013 120 71 1700 180/13G19 RMK AO2 T02780222
63870K0J4 0J420160816161014908/16/16 16:10:31  5-MIN K0J4 162110Z AUTO 18010G19KT 10SM -TSRA SCT044 BKN055 OVC100 27/22 A3013 120 74 1600 180/10G19 RMK AO2 RAB09 P0000 T02720222
63870K0J4 0J420160816161514308/16/16 16:15:31  5-MIN K0J4 162115Z AUTO 18010KT 10SM -TSRA BKN046 BKN055 OVC100 27/22 A3014 110 76 1500 180/10 RMK AO2 RAB09 P0000 T02670222
63870K0J4 0J420160816162014608/16/16 16:20:31  5-MIN K0J4 162120Z AUTO 19009KT 2 1/2SM -TSRA BKN046 BKN055 OVC090 27/22 A3013 120 76 1500 190/09 RMK AO2 RAB09 P0000 T02670222
63870K0J4 0J420160816162514608/16/16 16:25:31  5-MIN K0J4 162125Z AUTO 18010KT 2 1/2SM -TSRA SCT046 BKN055 OVC110 27/22 A3013 130 73 1500 180/10 RMK AO2 RAB09 P0000 T02670217
63870K0J4 0J420160816163014308/16/16 16:30:31  5-MIN K0J4 162130Z AUTO 19008KT 10SM TS SCT046 SCT055 BKN110 27/22 A3013 130 73 1500 190/08 RMK AO2 RAB09E28 P0000 T02670217
63870K0J4 0J420160816163514308/16/16 16:35:31  5-MIN K0J4 162135Z AUTO 20009KT 10SM TS FEW046 SCT055 BKN110 27/22 A3013 130 73 1500 200/09 RMK AO2 RAB09E28 P0000 T02670217
63870K0J4 0J420160816164014308/16/16 16:40:31  5-MIN K0J4 162140Z AUTO 19006KT 10SM TS FEW046 SCT070 SCT110 27/22 A3012 130 73 1500 190/06 RMK AO2 RAB09E28 P0000 T02670217
63870K0J4 0J420160816164513608/16/16 16:45:31  5-MIN K0J4 162145Z AUTO 22007KT 10SM TS FEW048 FEW110 27/22 A3012 130 73 1500 220/07 RMK AO2 RAB09E28 P0000 T02670217
63870K0J4 0J420160816165012908/16/16 16:50:31  5-MIN K0J4 162150Z AUTO 22004KT 10SM TS FEW110 27/22 A3012 130 73 1500 220/04 RMK AO2 RAB09E28 P0000 T02670217
63870K0J4 0J420160816165513308/16/16 16:55:31  5-MIN K0J4 162155Z AUTO 00000KT 10SM TS CLR 27/22 A3012 130 73 1500 000/00 RMK AO2 RAB09E28 SLP196 P0000 T02670217
63870K0J4 0J420160816170011408/16/16 17:00:31  5-MIN K0J4 162200Z AUTO 20004KT 10SM CLR 27/22 A3012 130 73 1500 200/04 RMK AO2 TSE00 T02670217
63870K0J4 0J420160816170511408/16/16 17:05:31  5-MIN K0J4 162205Z AUTO 20004KT 10SM CLR 27/22 A3012 130 73 1500 200/04 RMK AO2 TSE00 T02670217
63870K0J4 0J420160816171011408/16/16 17:10:31  5-MIN K0J4 162210Z AUTO 18005KT 10SM CLR 27/22 A3012 130 76 1500 180/05 RMK AO2 TSE00 T02670222
63870K0J4 0J420160816171511408/16/16 17:15:31  5-MIN K0J4 162215Z AUTO 19005KT 10SM CLR 27/22 A3012 130 76 1600 190/05 RMK AO2 TSE00 T02670222
63870K0J4 0J420160816172011408/16/16 17:20:31  5-MIN K0J4 162220Z AUTO 19005KT 10SM CLR 27/22 A3012 130 76 1500 190/05 RMK AO2 TSE00 T02670222
63870K0J4 0J420160816172511408/16/16 17:25:31  5-MIN K0J4 162225Z AUTO 18003KT 10SM CLR 27/22 A3013 130 76 1500 180/03 RMK AO2 TSE00 T02670222
63870K0J4 0J420160816173011408/16/16 17:30:31  5-MIN K0J4 162230Z AUTO 00000KT 10SM CLR 27/23 A3012 130 79 1500 000/00 RMK AO2 TSE00 T02670228
63870K0J4 0J420160816173511408/16/16 17:35:31  5-MIN K0J4 162235Z AUTO 20003KT 10SM CLR 27/22 A3013 130 76 1500 200/03 RMK AO2 TSE00 T02670222
63870K0J4 0J420160816174011408/16/16 17:40:31  5-MIN K0J4 162240Z AUTO 18003KT 10SM CLR 27/22 A3013 120 76 1500 180/03 RMK AO2 TSE00 T02670222
63870K0J4 0J420160816174511408/16/16 17:45:31  5-MIN K0J4 162245Z AUTO 21003KT 10SM CLR 27/22 A3013 130 76 1500 210/03 RMK AO2 TSE00 T02670222
63870K0J4 0J420160816175011408/16/16 17:50:31  5-MIN K0J4 162250Z AUTO 20003KT 10SM CLR 27/22 A3013 120 71 1600 200/03 RMK AO2 TSE00 T02720217
63870K0J4 0J420160816175512108/16/16 17:55:31  5-MIN K0J4 162255Z AUTO 21004KT 10SM CLR 27/22 A3013 130 71 1600 210/04 RMK AO2 TSE00 SLP197 T02720217
63870K0J4 0J420160816180010808/16/16 18:00:31  5-MIN K0J4 162300Z AUTO 20004KT 10SM CLR 27/22 A3013 130 71 1600 200/04 RMK AO2 T02720217
63870K0J4 0J420160816180510808/16/16 18:05:31  5-MIN K0J4 162305Z AUTO 22003KT 10SM CLR 27/22 A3013 130 71 1600 220/03 RMK AO2 T02720217
63870K0J4 0J420160816181010808/16/16 18:10:31  5-MIN K0J4 162310Z AUTO 18003KT 10SM CLR 27/22 A3013 120 73 1500 180/03 RMK AO2 T02670217
63870K0J4 0J420160816181510808/16/16 18:15:31  5-MIN K0J4 162315Z AUTO 00000KT 10SM CLR 27/22 A3013 120 76 1500 000/00 RMK AO2 T02670222
63870K0J4 0J420160816182010808/16/16 18:20:31  5-MIN K0J4 162320Z AUTO 00000KT 10SM CLR 27/22 A3013 120 76 1500 000/00 RMK AO2 T02670222
63870K0J4 0J420160816182510808/16/16 18:25:31  5-MIN K0J4 162325Z AUTO 00000KT 10SM CLR 27/22 A3014 120 76 1500 000/00 RMK AO2 T02670222
63870K0J4 0J420160816183010808/16/16 18:30:31  5-MIN K0J4 162330Z AUTO 00000KT 10SM CLR 27/23 A3014 110 79 1500 000/00 RMK AO2 T02670228
63870K0J4 0J420160816183510808/16/16 18:35:31  5-MIN K0J4 162335Z AUTO 00000KT 10SM CLR 26/23 A3014 110 81 1500 000/00 RMK AO2 T02610228
63870K0J4 0J420160816184010808/16/16 18:40:31  5-MIN K0J4 162340Z AUTO 00000KT 10SM CLR 26/23 A3014 110 81 1500 000/00 RMK AO2 T02610228
63870K0J4 0J420160816184510808/16/16 18:45:31  5-MIN K0J4 162345Z AUTO 00000KT 10SM CLR 26/22 A3015 110 79 1500 000/00 RMK AO2 T02610222
63870K0J4 0J420160816185010808/16/16 18:50:31  5-MIN K0J4 162350Z AUTO 00000KT 10SM CLR 26/22 A3015 100 79 1500 000/00 RMK AO2 T02610222
63870K0J4 0J420160816185513908/16/16 18:55:31  5-MIN K0J4 162355Z AUTO 00000KT 10SM CLR 26/23 A3015 100 81 1500 000/00 RMK AO2 SLP205 60000 T02610228 10344 20261 55015
63870K0J4 0J420160816190010808/16/16 19:00:31  5-MIN K0J4 170000Z AUTO 00000KT 10SM CLR 26/23 A3015 100 81 1500 000/00 RMK AO2 T02610228
63870K0J4 0J420160816190510808/16/16 19:05:31  5-MIN K0J4 170005Z AUTO 00000KT 10SM CLR 26/23 A3015 110 81 1500 000/00 RMK AO2 T02610228
63870K0J4 0J420160816191010808/16/16 19:10:31  5-MIN K0J4 170010Z AUTO 00000KT 10SM CLR 26/23 A3015 100 81 1500 000/00 RMK AO2 T02610228
63870K0J4 0J420160816191510808/16/16 19:15:31  5-MIN K0J4 170015Z AUTO 00000KT 10SM CLR 26/23 A3016 100 81 1400 000/00 RMK AO2 T02610228
63870K0J4 0J420160816192010708/16/16 19:20:31  5-MIN K0J4 170020Z AUTO 00000KT 10SM CLR 26/23 A3016 90 81 1400 000/00 RMK AO2 T02610228
63870K0J4 0J420160816192510708/16/16 19:25:31  5-MIN K0J4 170025Z AUTO 00000KT 10SM CLR 26/23 A3016 90 84 1400 000/00 RMK AO2 T02560228
63870K0J4 0J420160816193010708/16/16 19:30:31  5-MIN K0J4 170030Z AUTO 00000KT 10SM CLR 26/23 A3016 90 84 1400 000/00 RMK AO2 T02560228
63870K0J4 0J420160816193510708/16/16 19:35:31  5-MIN K0J4 170035Z AUTO 00000KT 10SM CLR 26/23 A3016 90 81 1400 000/00 RMK AO2 T02610228
63870K0J4 0J420160816194010708/16/16 19:40:31  5-MIN K0J4 170040Z AUTO 00000KT 10SM CLR 26/23 A3016 90 81 1400 000/00 RMK AO2 T02610228
63870K0J4 0J420160816194510708/16/16 19:45:31  5-MIN K0J4 170045Z AUTO 00000KT 10SM CLR 26/23 A3017 90 84 1400 000/00 RMK AO2 T02560228
63870K0J4 0J420160816195010708/16/16 19:50:31  5-MIN K0J4 170050Z AUTO 00000KT 10SM CLR 26/23 A3016 90 84 1400 000/00 RMK AO2 T02560228
63870K0J4 0J420160816195511408/16/16 19:55:31  5-MIN K0J4 170055Z AUTO 00000KT 10SM CLR 26/23 A3017 90 84 1400 000/00 RMK AO2 SLP210 T02560228
63870K0J4 0J420160816200007508/16/16 20:00:31  5-MIN K0J4 170100Z AUTO 00000KT 10SM CLR 26/23 A3017 90 
63870K0J4 0J420160817051010708/17/16 05:10:31  5-MIN K0J4 171010Z AUTO 00000KT 10SM CLR 23/22 A3018 80 93 1100 000/00 RMK AO2 T02330222
63870K0J4 0J420160817051510708/17/16 05:15:31  5-MIN K0J4 171015Z AUTO 00000KT 10SM CLR 23/22 A3018 80 93 1100 000/00 RMK AO2 T02330222
63870K0J4 0J420160817052010708/17/16 05:20:31  5-MIN K0J4 171020Z AUTO 00000KT 10SM CLR 23/22 A3018 80 93 1100 000/00 RMK AO2 T02330222
63870K0J4 0J420160817052510708/17/16 05:25:31  5-MIN K0J4 171025Z AUTO 00000KT 10SM CLR 23/22 A3018 80 93 1100 000/00 RMK AO2 T02330222
63870K0J4 0J420160817053010708/17/16 05:30:31  5-MIN K0J4 171030Z AUTO 00000KT 10SM CLR 23/22 A3018 80 93 1100 000/00 RMK AO2 T02330222
63870K0J4 0J420160817053510708/17/16 05:35:31  5-MIN K0J4 171035Z AUTO 00000KT 10SM CLR 23/22 A3018 80 97 1000 000/00 RMK AO2 T02280222
63870K0J4 0J420160817054010708/17/16 05:40:31  5-MIN K0J4 171040Z AUTO 00000KT 10SM CLR 23/22 A3018 80 93 1100 000/00 RMK AO2 T02330222
63870K0J4 0J420160817054510708/17/16 05:45:31  5-MIN K0J4 171045Z AUTO 00000KT 10SM CLR 23/22 A3018 80 93 1100 000/00 RMK AO2 T02330222
63870K0J4 0J420160817055010708/17/16 05:50:31  5-MIN K0J4 171050Z AUTO 00000KT 10SM CLR 23/22 A3018 80 97 1000 000/00 RMK AO2 T02280222
63870K0J4 0J420160817055511408/17/16 05:55:31  5-MIN K0J4 171055Z AUTO 00000KT 10SM CLR 23/22 A3018 80 93 1100 000/00 RMK AO2 SLP214 T02330222
63870K0J4 0J420160817060010708/17/16 06:00:31  5-MIN K0J4 171100Z AUTO 00000KT 10SM CLR 23/22 A3018 80 93 1100 000/00 RMK AO2 T02330222
63870K0J4 0J420160817060510708/17/16 06:05:31  5-MIN K0J4 171105Z AUTO 00000KT 10SM CLR 23/22 A3018 80 93 1100 000/00 RMK AO2 T02330222
63870K0J4 0J420160817061010708/17/16 06:10:31  5-MIN K0J4 171110Z AUTO 00000KT 10SM CLR 23/22 A3018 80 90 1100 000/00 RMK AO2 T02330217
63870K0J4 0J420160817061510708/17/16 06:15:31  5-MIN K0J4 171115Z AUTO 00000KT 10SM CLR 23/22 A3018 80 90 1100 000/00 RMK AO2 T02330217
63870K0J4 0J420160817062010608/17/16 06:20:31  5-MIN K0J4 171120Z AUTO 00000KT 9SM CLR 23/22 A3018 70 93 1000 000/00 RMK AO2 T02280217
63870K0J4 0J420160817062510608/17/16 06:25:31  5-MIN K0J4 171125Z AUTO 00000KT 9SM CLR 23/22 A3019 70 97 1000 000/00 RMK AO2 T02280222
63870K0J4 0J420160817063010708/17/16 06:30:31  5-MIN K0J4 171130Z AUTO 00000KT 10SM CLR 23/22 A3019 70 97 1000 000/00 RMK AO2 T02280222
63870K0J4 0J420160817063511008/17/16 06:35:31  5-MIN K0J4 171135Z AUTO 00000KT 10SM FEW044 23/22 A3019 70 93 1100 000/00 RMK AO2 T02330222
63870K0J4 0J420160817064011008/17/16 06:40:31  5-MIN K0J4 171140Z AUTO 00000KT 10SM SCT044 23/22 A3019 60 93 1100 000/00 RMK AO2 T02330222
63870K0J4 0J420160817064511008/17/16 06:45:31  5-MIN K0J4 171145Z AUTO 00000KT 10SM SCT044 23/22 A3019 70 93 1100 000/00 RMK AO2 T02330222
63870K0J4 0J420160817065010908/17/16 06:50:31  5-MIN K0J4 171150Z AUTO 00000KT 9SM FEW043 23/22 A3019 70 93 1100 000/00 RMK AO2 T02330222
63870K0J4 0J420160817065513408/17/16 06:55:31  5-MIN K0J4 171155Z AUTO 00000KT 9SM FEW043 23/22 A3019 70 93 1100 000/00 RMK AO2 SLP219 T02330222 10239 20228 56007
63870K0J4 0J420160817070010908/17/16 07:00:31  5-MIN K0J4 171200Z AUTO 00000KT 9SM FEW043 23/22 A3019 70 93 1100 000/00 RMK AO2 T02330222
63870K0J4 0J420160817070510908/17/16 07:05:31  5-MIN K0J4 171205Z AUTO 00000KT 9SM SCT043 23/22 A3019 60 93 1100 000/00 RMK AO2 T02330222
63870K0J4 0J420160817071011008/17/16 07:10:31  5-MIN K0J4 171210Z AUTO 00000KT 10SM FEW043 24/23 A3019 60 93 1200 000/00 RMK AO2 T02390228
63870K0J4 0J420160817071511008/17/16 07:15:31  5-MIN K0J4 171215Z AUTO 07003KT 10SM FEW043 24/23 A3019 60 93 1200 070/03 RMK AO2 T02390228
63870K0J4 0J420160817072011008/17/16 07:20:31  5-MIN K0J4 171220Z AUTO 00000KT 10SM FEW042 24/23 A3020 60 90 1200 000/00 RMK AO2 T02440228
63870K0J4 0J420160817072511008/17/16 07:25:31  5-MIN K0J4 171225Z AUTO 00000KT 10SM FEW042 24/23 A3020 60 90 1200 000/00 RMK AO2 T02440228
63870K0J4 0J420160817073011008/17/16 07:30:31  5-MIN K0J4 171230Z AUTO 00000KT 10SM FEW042 24/23 A3020 60 90 1200 000/00 RMK AO2 T02440228
63870K0J4 0J420160817073511008/17/16 07:35:31  5-MIN K0J4 171235Z AUTO 00000KT 10SM FEW042 25/23 A3020 60 90 1300 000/00 RMK AO2 T02500233
63870K0J4 0J420160817074010708/17/16 07:40:31  5-MIN K0J4 171240Z AUTO 00000KT 10SM CLR 25/23 A3020 60 90 1300 000/00 RMK AO2 T02500233
63870K0J4 0J420160817074510708/17/16 07:45:31  5-MIN K0J4 171245Z AUTO 00000KT 10SM CLR 25/23 A3020 50 90 1300 000/00 RMK AO2 T02500233
63870K0J4 0J420160817075010708/17/16 07:50:31  5-MIN K0J4 171250Z AUTO 00000KT 10SM CLR 26/23 A3021 50 87 1300 000/00 RMK AO2 T02560233
63870K0J4 0J420160817075511408/17/16 07:55:31  5-MIN K0J4 171255Z AUTO 00000KT 10SM CLR 26/23 A3021 50 84 1400 000/00 RMK AO2 SLP225 T02610233
63870K0J4 0J420160817080011008/17/16 08:00:31  5-MIN K0J4 171300Z AUTO 00000KT 10SM FEW049 26/23 A3021 50 84 1400 000/00 RMK AO2 T02610233
63870K0J4 0J420160817080511008/17/16 08:05:31  5-MIN K0J4 171305Z AUTO 10003KT 10SM FEW049 27/23 A3021 50 82 1400 100/03 RMK AO2 T02670233
63870K0J4 0J420160817081010708/17/16 08:10:31  5-MIN K0J4 171310Z AUTO 00000KT 10SM CLR 26/23 A3021 50 81 1400 000/00 RMK AO2 T02610228
63870K0J4 0J420160817081510708/17/16 08:15:31  5-MIN K0J4 171315Z AUTO 13003KT 10SM CLR 27/23 A3021 50 82 1400 130/03 RMK AO2 T02670233
63870K0J4 0J420160817082010708/17/16 08:20:31  5-MIN K0J4 171320Z AUTO 16004KT 10SM CLR 27/23 A3021 50 82 1400 160/04 RMK AO2 T02670233
63870K0J4 0J420160817082510708/17/16 08:25:31  5-MIN K0J4 171325Z AUTO 13004KT 10SM CLR 27/23 A3021 50 82 1400 130/04 RMK AO2 T02670233
63870K0J4 0J420160817083010708/17/16 08:30:31  5-MIN K0J4 171330Z AUTO 14003KT 10SM CLR 27/23 A3021 50 79 1500 140/03 RMK AO2 T02720233
63870K0J4 0J420160817083510708/17/16 08:35:31  5-MIN K0J4 171335Z AUTO 14005KT 10SM CLR 27/23 A3021 50 79 1500 140/05 RMK AO2 T02720233
63870K0J4 0J420160817084010708/17/16 08:40:31  5-MIN K0J4 171340Z AUTO VRB03KT 10SM CLR 28/23 A3021 50 76 1600 VRB/03 RMK AO2 T02780233
63870K0J4 0J420160817084510708/17/16 08:45:31  5-MIN K0J4 171345Z AUTO 13004KT 10SM CLR 28/23 A3021 50 76 1600 130/04 RMK AO2 T02780233
63870K0J4 0J420160817085010708/17/16 08:50:31  5-MIN K0J4 171350Z AUTO VRB04KT 10SM CLR 28/23 A3021 50 74 1600 VRB/04 RMK AO2 T02830233
63870K0J4 0J420160817085511408/17/16 08:55:31  5-MIN K0J4 171355Z AUTO 12004KT 10SM CLR 28/23 A3021 50 74 1600 120/04 RMK AO2 SLP225 T02830233
63870K0J4 0J420160817090010708/17/16 09:00:31  5-MIN K0J4 171400Z AUTO 13003KT 10SM CLR 28/23 A3021 50 71 1600 130/03 RMK AO2 T02830228
63870K0J4 0J420160817090510708/17/16 09:05:31  5-MIN K0J4 171405Z AUTO 12004KT 10SM CLR 29/23 A3021 50 71 1700 120/04 RMK AO2 T02890233
63870K0J4 0J420160817091010708/17/16 09:10:31  5-MIN K0J4 171410Z AUTO VRB04KT 10SM CLR 28/23 A3021 50 74 1600 VRB/04 RMK AO2 T02830233
63870K0J4 0J420160817091510708/17/16 09:15:31  5-MIN K0J4 171415Z AUTO 12004KT 10SM CLR 29/23 A3021 50 71 1700 120/04 RMK AO2 T02890233
63870K0J4 0J420160817092010708/17/16 09:20:31  5-MIN K0J4 171420Z AUTO VRB03KT 10SM CLR 29/23 A3021 50 71 1700 VRB/03 RMK AO2 T02890233
63870K0J4 0J420160817092510708/17/16 09:25:31  5-MIN K0J4 171425Z AUTO 11004KT 10SM CLR 29/23 A3021 50 69 1800 110/04 RMK AO2 T02940233
63870K0J4 0J420160817093010708/17/16 09:30:31  5-MIN K0J4 171430Z AUTO 12004KT 10SM CLR 29/23 A3021 50 69 1800 120/04 RMK AO2 T02940233
63870K0J4 0J420160817093510708/17/16 09:35:31  5-MIN K0J4 171435Z AUTO VRB03KT 10SM CLR 30/24 A3021 50 69 1800 VRB/03 RMK AO2 T03000239
63870K0J4 0J420160817094010708/17/16 09:40:31  5-MIN K0J4 171440Z AUTO 09006KT 10SM CLR 30/23 A3021 50 67 1800 090/06 RMK AO2 T03000233
63870K0J4 0J420160817094510708/17/16 09:45:31  5-MIN K0J4 171445Z AUTO 09005KT 10SM CLR 31/23 A3021 50 65 1900 090/05 RMK AO2 T03060233
63870K0J4 0J420160817095010708/17/16 09:50:31  5-MIN K0J4 171450Z AUTO 12003KT 10SM CLR 30/23 A3021 50 67 1800 120/03 RMK AO2 T03000233
63870K0J4 0J420160817095512008/17/16 09:55:31  5-MIN K0J4 171455Z AUTO VRB03KT 10SM CLR 31/23 A3021 50 65 1900 VRB/03 RMK AO2 SLP224 T03060233 53007
63870K0J4 0J420160817100010708/17/16 10:00:31  5-MIN K0J4 171500Z AUTO 11003KT 10SM CLR 31/22 A3021 50 60 1900 110/03 RMK AO2 T03060222
63870K0J4 0J420160817100510708/17/16 10:05:31  5-MIN K0J4 171505Z AUTO VRB05KT 10SM CLR 31/22 A3021 50 60 1900 VRB/05 RMK AO2 T03060222
63870K0J4 0J420160817101010708/17/16 10:10:31  5-MIN K0J4 171510Z AUTO VRB04KT 10SM CLR 30/22 A3021 50 62 1800 VRB/04 RMK AO2 T03000222
63870K0J4 0J420160817101510708/17/16 10:15:31  5-MIN K0J4 171515Z AUTO 16004KT 10SM CLR 31/22 A3021 50 60 1900 160/04 RMK AO2 T03060222
63870K0J4 0J420160817102010708/17/16 10:20:31  5-MIN K0J4 171520Z AUTO VRB03KT 10SM CLR 31/22 A3021 50 58 1900 VRB/03 RMK AO2 T03060217
63870K0J4 0J420160817102510708/17/16 10:25:31  5-MIN K0J4 171525Z AUTO VRB03KT 10SM CLR 31/22 A3021 50 60 1900 VRB/03 RMK AO2 T03060222
63870K0J4 0J420160817103010708/17/16 10:30:31  5-MIN K0J4 171530Z AUTO 11004KT 10SM CLR 31/23 A3021 50 60 1900 110/04 RMK AO2 T03110228
63870K0J4 0J420160817103510708/17/16 10:35:31  5-MIN K0J4 171535Z AUTO 00000KT 10SM CLR 31/22 A3021 50 58 2000 000/00 RMK AO2 T03110222
63870K0J4 0J420160817104010708/17/16 10:40:31  5-MIN K0J4 171540Z AUTO 11005KT 10SM CLR 32/22 A3021 50 56 2000 110/05 RMK AO2 T03170222
63870K0J4 0J420160817104510708/17/16 10:45:31  5-MIN K0J4 171545Z AUTO VRB04KT 10SM CLR 31/23 A3021 50 60 2000 VRB/04 RMK AO2 T03110228
63870K0J4 0J420160817105010708/17/16 10:50:31  5-MIN K0J4 171550Z AUTO VRB03KT 10SM CLR 31/23 A3020 50 60 2000 VRB/03 RMK AO2 T03110228
63870K0J4 0J420160817105511408/17/16 10:55:31  5-MIN K0J4 171555Z AUTO 07003KT 10SM CLR 32/23 A3020 50 58 2000 070/03 RMK AO2 SLP223 T03170228
63870K0J4 0J420160817110010708/17/16 11:00:31  5-MIN K0J4 171600Z AUTO 09006KT 10SM CLR 32/23 A3020 50 58 2000 090/06 RMK AO2 T03170228
63870K0J4 0J420160817110510708/17/16 11:05:31  5-MIN K0J4 171605Z AUTO 14007KT 10SM CLR 31/22 A3020 50 58 2000 140/07 RMK AO2 T03110222
63870K0J4 0J420160817111010708/17/16 11:10:31  5-MIN K0J4 171610Z AUTO 11003KT 10SM CLR 32/22 A3020 50 56 2000 110/03 RMK AO2 T03170222
63870K0J4 0J420160817111509708/17/16 11:15:31  5-MIN K0J4 171615Z AUTO 10SM CLR 32/23 A3021 50 58 2000 M /M RMK AO2 T03170228
63870K0J4 0J420160817112010708/17/16 11:20:31  5-MIN K0J4 171620Z AUTO VRB03KT 10SM CLR 31/23 A3020 50 60 2000 VRB/03 RMK AO2 T03110228
63870K0J4 0J420160817112510708/17/16 11:25:31  5-MIN K0J4 171625Z AUTO 10005KT 10SM CLR 32/23 A3020 60 58 2000 100/05 RMK AO2 T03170228
63870K0J4 0J420160817113010708/17/16 11:30:31  5-MIN K0J4 171630Z AUTO VRB04KT 10SM CLR 32/23 A3020 60 58 2000 VRB/04 RMK AO2 T03170228
63870K0J4 0J420160817113510708/17/16 11:35:31  5-MIN K0J4 171635Z AUTO 00000KT 10SM CLR 32/23 A3020 60 58 2000 000/00 RMK AO2 T03170228
63870K0J4 0J420160817114011008/17/16 11:40:31  5-MIN K0J4 171640Z AUTO 09005KT 10SM FEW032 32/23 A3019 60 57 2100 090/05 RMK AO2 T03220228
63870K0J4 0J420160817114511008/17/16 11:45:31  5-MIN K0J4 171645Z AUTO 15005KT 10SM FEW032 32/23 A3019 60 57 2100 150/05 RMK AO2 T03220228
63870K0J4 0J420160817115011008/17/16 11:50:31  5-MIN K0J4 171650Z AUTO 11004KT 10SM FEW032 32/23 A3020 60 58 2000 110/04 RMK AO2 T03170228
63870K0J4 0J420160817115511708/17/16 11:55:31  5-MIN K0J4 171655Z AUTO 00000KT 10SM FEW032 32/23 A3019 60 58 2000 000/00 RMK AO2 SLP220 T03170228
63870K0J4 0J420160817120011008/17/16 12:00:31  5-MIN K0J4 171700Z AUTO 00000KT 10SM FEW032 32/23 A3019 70 57 2100 000/00 RMK AO2 T03220228
63870K0J4 0J420160817120511008/17/16 12:05:31  5-MIN K0J4 171705Z AUTO VRB04KT 10SM SCT032 31/23 A3019 70 62 1900 VRB/04 RMK AO2 T03060228
63870K0J4 0J420160817121011008/17/16 12:10:31  5-MIN K0J4 171710Z AUTO VRB03KT 10SM SCT033 32/23 A3019 70 61 2000 VRB/03 RMK AO2 T03170233
63870K0J4 0J420160817121511708/17/16 12:15:31  5-MIN K0J4 171715Z AUTO 04005KT 10SM BKN033 BKN043 33/23 A3019 70 57 2200 040/05 RMK AO2 T03280233
63870K0J4 0J420160817122011008/17/16 12:20:31  5-MIN K0J4 171720Z AUTO 00000KT 10SM BKN035 33/23 A3018 70 57 2200 000/00 RMK AO2 T03280233
63870K0J4 0J420160817122511008/17/16 12:25:31  5-MIN K0J4 171725Z AUTO 08004KT 10SM BKN035 32/23 A3018 70 61 2000 080/04 RMK AO2 T03170233
63870K0J4 0J420160817123011708/17/16 12:30:31  5-MIN K0J4 171730Z AUTO VRB04KT 10SM BKN035 BKN047 32/23 A3018 70 59 2100 VRB/04 RMK AO2 T03220233
63870K0J4 0J420160817123511708/17/16 12:35:31  5-MIN K0J4 171735Z AUTO 15004KT 10SM BKN035 BKN049 31/23 A3018 70 60 2000 150/04 RMK AO2 T03110228
63870K0J4 0J420160817124011708/17/16 12:40:31  5-MIN K0J4 171740Z AUTO 00000KT 10SM SCT035 BKN046 32/23 A3018 70 58 2000 000/00 RMK AO2 T03170228
63870K0J4 0J420160817124511708/17/16 12:45:31  5-MIN K0J4 171745Z AUTO 10003KT 10SM SCT037 BKN046 32/23 A3018 80 61 2000 100/03 RMK AO2 T03170233
63870K0J4 0J420160817125011708/17/16 12:50:31  5-MIN K0J4 171750Z AUTO VRB04KT 10SM SCT037 BKN048 32/23 A3018 80 59 2100 VRB/04 RMK AO2 T03220233
63870K0J4 0J420160817125514208/17/16 12:55:31  5-MIN K0J4 171755Z AUTO 07005KT 10SM FEW037 BKN048 33/23 A3018 80 57 2200 070/05 RMK AO2 SLP214 T03280233 10328 20233 50005
63870K0J4 0J420160817130012408/17/16 13:00:31  5-MIN K0J4 171800Z AUTO 05003KT 10SM FEW037 BKN048 BKN055 32/23 A3018 80 59 2100 050/03 RMK AO2 T03220233
63870K0J4 0J420160817130512408/17/16 13:05:31  5-MIN K0J4 171805Z AUTO 10003KT 10SM FEW037 BKN047 BKN055 33/23 A3017 80 57 2200 100/03 RMK AO2 T03280233
63870K0J4 0J420160817131011708/17/16 13:10:31  5-MIN K0J4 171810Z AUTO 00000KT 10SM FEW037 SCT047 33/23 A3017 90 55 2200 000/00 RMK AO2 T03280228
63870K0J4 0J420160817131511708/17/16 13:15:31  5-MIN K0J4 171815Z AUTO 00000KT 10SM FEW037 SCT049 33/23 A3017 90 53 2200 000/00 RMK AO2 T03330228
63870K0J4 0J420160817132011708/17/16 13:20:31  5-MIN K0J4 171820Z AUTO 09005KT 10SM FEW037 SCT047 34/23 A3016 90 53 2300 090/05 RMK AO2 T03390233
63870K0J4 0J420160817132511008/17/16 13:25:31  5-MIN K0J4 171825Z AUTO 08004KT 10SM FEW037 34/23 A3016 90 51 2300 080/04 RMK AO2 T03390228
63870K0J4 0J420160817133011008/17/16 13:30:31  5-MIN K0J4 171830Z AUTO 16003KT 10SM FEW037 32/23 A3016 90 57 2100 160/03 RMK AO2 T03220228
63870K0J4 0J420160817133511108/17/16 13:35:31  5-MIN K0J4 171835Z AUTO 00000KT 10SM SCT040 32/23 A3016 100 59 2100 000/00 RMK AO2 T03220233
63870K0J4 0J420160817134011808/17/16 13:40:31  5-MIN K0J4 171840Z AUTO 06006KT 10SM SCT040 BKN060 33/23 A3016 100 57 2200 060/06 RMK AO2 T03280233
63870K0J4 0J420160817134511808/17/16 13:45:31  5-MIN K0J4 171845Z AUTO 06005KT 10SM SCT040 SCT060 32/23 A3015 100 57 2100 060/05 RMK AO2 T03220228
63870K0J4 0J420160817135011808/17/16 13:50:31  5-MIN K0J4 171850Z AUTO 00000KT 10SM FEW040 FEW060 33/23 A3015 110 55 2200 000/00 RMK AO2 T03280228
63870K0J4 0J420160817135512508/17/16 13:55:31  5-MIN K0J4 171855Z AUTO 06005KT 10SM FEW040 FEW060 34/23 A3015 110 53 2300 060/05 RMK AO2 SLP203 T03390233
63870K0J4 0J420160817140011808/17/16 14:00:31  5-MIN K0J4 171900Z AUTO 13003KT 10SM FEW039 FEW060 33/23 A3015 110 53 2300 130/03 RMK AO2 T03330228
63870K0J4 0J420160817140511808/17/16 14:05:31  5-MIN K0J4 171905Z AUTO VRB04KT 10SM FEW039 FEW060 33/23 A3014 110 55 2200 VRB/04 RMK AO2 T03280228
63870K0J4 0J420160817141011108/17/16 14:10:31  5-MIN K0J4 171910Z AUTO 03005KT 10SM FEW039 33/22 A3014 110 53 2200 030/05 RMK AO2 T03280222
63870K0J4 0J420160817141511108/17/16 14:15:31  5-MIN K0J4 171915Z AUTO VRB03KT 10SM FEW039 33/23 A3014 110 55 2200 VRB/03 RMK AO2 T03280228
63870K0J4 0J420160817142011108/17/16 14:20:31  5-MIN K0J4 171920Z AUTO 05004KT 10SM FEW039 34/23 A3014 120 51 2300 050/04 RMK AO2 T03390228
63870K0J4 0J420160817142511808/17/16 14:25:31  5-MIN K0J4 171925Z AUTO VRB04KT 10SM FEW039 FEW095 34/22 A3013 120 50 2300 VRB/04 RMK AO2 T03390222
63870K0J4 0J420160817143011808/17/16 14:30:31  5-MIN K0J4 171930Z AUTO VRB05KT 10SM FEW038 SCT085 32/23 A3013 120 57 2200 VRB/05 RMK AO2 T03220228
63870K0J4 0J420160817143512508/17/16 14:35:31  5-MIN K0J4 171935Z AUTO 11004KT 10SM FEW038 BKN085 BKN100 32/23 A3012 130 59 2200 110/04 RMK AO2 T03220233
63870K0J4 0J420160817144011808/17/16 14:40:31  5-MIN K0J4 171940Z AUTO 09003KT 10SM SCT085 SCT100 33/23 A3012 130 57 2200 090/03 RMK AO2 T03280233
63870K0J4 0J420160817144511108/17/16 14:45:31  5-MIN K0J4 171945Z AUTO 09003KT 10SM SCT085 34/23 A3012 130 53 2400 090/03 RMK AO2 T03390233
63870K0J4 0J420160817145011108/17/16 14:50:31  5-MIN K0J4 171950Z AUTO 03004KT 10SM SCT085 34/23 A3011 140 51 2400 030/04 RMK AO2 T03390228
63870K0J4 0J420160817145511808/17/16 14:55:31  5-MIN K0J4 171955Z AUTO 05004KT 10SM FEW085 34/23 A3011 140 51 2400 050/04 RMK AO2 SLP191 T03390228
63870K0J4 0J420160817150011108/17/16 15:00:31  5-MIN K0J4 172000Z AUTO 03004KT 10SM FEW095 34/22 A3011 140 50 2400 030/04 RMK AO2 T03390222
63870K0J4 0J420160817150511108/17/16 15:05:31  5-MIN K0J4 172005Z AUTO 00000KT 10SM SCT040 34/22 A3011 140 50 2400 000/00 RMK AO2 T03390222
63870K0J4 0J420160817151011608/17/16 15:10:31  5-MIN K0J4 172010Z AUTO 07007KT 10SM VCTS BKN040 33/22 A3011 140 51 2300 070/07 RMK AO2 T03330222
63870K0J4 0J420160817151512708/17/16 15:15:31  5-MIN K0J4 172015Z AUTO 09006KT 10SM TS BKN040 BKN085 32/23 A3011 140 57 2200 090/06 RMK AO2 TSB11 T03220228
63870K0J4 0J420160817152012708/17/16 15:20:31  5-MIN K0J4 172020Z AUTO 08005KT 10SM TS SCT040 BKN085 32/23 A3011 140 58 2100 080/05 RMK AO2 TSB11 T03170228
63870K0J4 0J420160817152513008/17/16 15:25:31  5-MIN K0J4 172025Z AUTO 09003KT 10SM TS SCT040 SCT085 32/23 A3011 150 61 2100 090/03 RMK AO2 TSB11B22 T03170233
63870K0J4 0J420160817153013008/17/16 15:30:31  5-MIN K0J4 172030Z AUTO 09003KT 10SM TS SCT041 BKN100 32/23 A3011 140 61 2100 090/03 RMK AO2 TSB11B22 T03170233
63870K0J4 0J420160817153514008/17/16 15:35:31  5-MIN K0J4 172035Z AUTO 14004KT 10SM TS FEW041 SCT065 BKN100 32/23 A3011 140 58 2100 140/04 RMK AO2 TSB11B22B32 T03170228
63870K0J4 0J420160817154013708/17/16 15:40:31  5-MIN K0J4 172040Z AUTO 10SM TS SCT041 SCT065 BKN090 30/22 A3013 120 62 1900 M /M RMK AO2 TSB11B22B32 PRESRR T03000222
63870K0J4 0J420160817154515308/17/16 15:45:31  5-MIN K0J4 172045Z AUTO 19012G23KT 10SM TS BKN039 BKN065 BKN100 27/21 A3014 110 69 1600 190/12G23 RMK AO2 TSB11B22B32 PRESRR T02720211
63870K0J4 0J420160817160013208/17/16 16:00:31  5-MIN K0J4 172100Z AUTO 17013G20KT -TSFZRA A3014 M M M 170/13G20 RMK AO2 FZRAB2059 TSB2011B2022B2032B2057 P0000 $
63870K0J4 0J420160817160515408/17/16 16:05:31  5-MIN K0J4 172105Z AUTO 19010G20KT -TSFZRA 24/22 A3013 120 90 1200 190/10G20 RMK AO2 FZRAB2059 TSB2011B2022B2032B2057 P0000 T02390222 $
63870K0J4 0J420160817161016008/17/16 16:10:31  5-MIN K0J4 172110Z AUTO 19007G17KT 3SM TSFZRA BR 24/22 A3013 120 87 1300 190/07G17 RMK AO2 FZRAB2059 TSB2011B2022B2032B2057 P0003 T02440222 $
63870K0J4 0J420160817161515808/17/16 16:15:31  5-MIN K0J4 172115Z AUTO 11005KT 2 1/2SM TSFZRA BR 24/22 A3015 110 90 1200 110/05 RMK AO2 FZRAB2059 TSB2011B2022B2032B2057 P0004 T02390222 $
63870K0J4 0J420160817162016008/17/16 16:20:31  5-MIN K0J4 172120Z AUTO VRB03KT 3SM TSRA BR 24/22 A3015 110 90 1200 VRB/03 RMK AO2 RAB16FZRAB2059E16 TSB2011B2022B2032B2057 P0004 T02390222 $
63870K0J4 0J420160817162516108/17/16 16:25:31  5-MIN K0J4 172125Z AUTO 00000KT 5SM -TSRA BR 24/22 A3014 110 90 1200 000/00 RMK AO2 RAB16FZRAB2059E16 TSB2011B2022B2032B2057 P0005 T02390222 $
63870K0J4 0J420160817163017908/17/16 16:30:31  5-MIN K0J4 172130Z AUTO 32003KT 8SM -TSRA FEW019 SCT095 BKN120 24/22 A3014 120 90 1200 320/03 RMK AO2 RAB16FZRAB2059E16 TSB2011B2022B2032B2057 P0005 T02390222 $
63870K0J4 0J420160817163516608/17/16 16:35:31  5-MIN K0J4 172135Z AUTO 00000KT 10SM -TSRA FEW110 24/22 A3014 110 90 1200 000/00 RMK AO2 RAB16FZRAB2059E16 TSB2011B2022B2032B2057 P0005 T02390222 $
63870K0J4 0J420160817164017308/17/16 16:40:31  5-MIN K0J4 172140Z AUTO 00000KT 10SM -TSRA FEW090 SCT110 24/22 A3015 110 90 1200 000/00 RMK AO2 RAB16FZRAB2059E16 TSB2011B2022B2032B2057 P0005 T02390222 $
63870K0J4 0J420160817164516608/17/16 16:45:31  5-MIN K0J4 172145Z AUTO 33004KT 10SM -TSRA FEW110 24/23 A3014 120 93 1200 330/04 RMK AO2 RAB16FZRAB2059E16 TSB2011B2022B2032B2057 P0005 T02390228 $
63870K0J4 0J420160817165016608/17/16 16:50:31  5-MIN K0J4 172150Z AUTO 00000KT 10SM -TSRA FEW110 24/22 A3013 120 90 1200 000/00 RMK AO2 RAB16FZRAB2059E16 TSB2011B2022B2032B2057 P0005 T02390222 $
63870K0J4 0J420160817165516208/17/16 16:55:31  5-MIN K0J4 172155Z AUTO 00000KT 10SM VCTS -RA SCT110 24/23 A3013 120 93 1200 000/00 RMK AO2 RAB16FZRAB2059E16 TSB2011B2022B2032B2057E52 P0005 $
63870K0J4 0J420160817170011308/17/16 17:00:31  5-MIN K0J4 172200Z AUTO 00000KT 10SM BKN110 23/22 A3013 120 93 1200 000/00 RMK AO2 T02330222 $
63870K0J4 0J420160817170511308/17/16 17:05:31  5-MIN K0J4 172205Z AUTO 00000KT 10SM BKN110 24/22 A3013 120 90 1200 000/00 RMK AO2 T02390222 $
63870K0J4 0J420160817171011308/17/16 17:10:31  5-MIN K0J4 172210Z AUTO 00000KT 10SM BKN110 23/22 A3013 120 93 1200 000/00 RMK AO2 T02330222 $
63870K0J4 0J420160817171511608/17/16 17:15:31  5-MIN K0J4 172215Z AUTO 22004KT 10SM TS SCT110 24/22 A3012 130 90 1200 220/04 RMK AO2 T02390222 $
63870K0J4 0J420160818031510908/18/16 03:15:31  5-MIN K0J4 180815Z AUTO 00000KT 9SM CLR 23/22 A3013 120 93 1100 000/00 RMK AO2 T02280217 $
63870K0J4 0J420160818032011008/18/16 03:20:31  5-MIN K0J4 180820Z AUTO 00000KT 10SM CLR 23/22 A3013 120 93 1100 000/00 RMK AO2 T02280217 $
63870K0J4 0J420160818032511008/18/16 03:25:31  5-MIN K0J4 180825Z AUTO 35003KT 10SM CLR 23/22 A3013 120 93 1100 350/03 RMK AO2 T02280217 $
63870K0J4 0J420160818033011008/18/16 03:30:31  5-MIN K0J4 180830Z AUTO 33004KT 10SM CLR 23/22 A3013 120 93 1100 330/04 RMK AO2 T02280217 $
63870K0J4 0J420160818033511008/18/16 03:35:31  5-MIN K0J4 180835Z AUTO 00000KT 10SM CLR 23/22 A3014 120 93 1100 000/00 RMK AO2 T02280217 $
63870K0J4 0J420160818034011308/18/16 03:40:31  5-MIN K0J4 180840Z AUTO 00000KT 10SM FEW006 23/22 A3014 120 93 1100 000/00 RMK AO2 T02280217 $
63870K0J4 0J420160818034511208/18/16 03:45:31  5-MIN K0J4 180845Z AUTO 00000KT 9SM SCT006 23/22 A3013 120 93 1100 000/00 RMK AO2 T02280217 $
63870K0J4 0J420160818035011208/18/16 03:50:31  5-MIN K0J4 180850Z AUTO 00000KT 8SM BKN006 23/22 A3013 120 93 1100 000/00 RMK AO2 T02280217 $
63870K0J4 0J420160818035512508/18/16 03:55:31  5-MIN K0J4 180855Z AUTO 00000KT 9SM BKN006 23/22 A3013 120 93 1100 000/00 RMK AO2 SLP199 T02280217 50002 $
63870K0J4 0J420160818040011308/18/16 04:00:31  5-MIN K0J4 180900Z AUTO 00000KT 10SM BKN006 23/22 A3013 120 93 1100 000/00 RMK AO2 T02280217 $
63870K0J4 0J420160818040511308/18/16 04:05:31  5-MIN K0J4 180905Z AUTO 00000KT 10SM OVC006 23/22 A3013 130 93 1100 000/00 RMK AO2 T02280217 $
63870K0J4 0J420160818041011308/18/16 04:10:31  5-MIN K0J4 180910Z AUTO 00000KT 10SM OVC006 23/22 A3012 130 93 1100 000/00 RMK AO2 T02280217 $
63870K0J4 0J420160818042507308/18/16 04:25:31  5-MIN K0J4 180925Z AUTO 00000KT M M M 000/00 RMK AO2 $
63870K0J4 0J420160818043010108/18/16 04:30:31  5-MIN K0J4 180930Z AUTO 00000KT 23/22 A3013 130 93 1100 000/00 RMK AO2 T02280217 $
63870K0J4 0J420160818043510608/18/16 04:35:31  5-MIN K0J4 180935Z AUTO 00000KT 10SM 22/22 A3012 130 97 1000 000/00 RMK AO2 T02220217 $
63870K0J4 0J420160818044010608/18/16 04:40:31  5-MIN K0J4 180940Z AUTO 00000KT 10SM 22/21 A3012 130 93 1000 000/00 RMK AO2 T02220211 $
63870K0J4 0J420160818044510608/18/16 04:45:31  5-MIN K0J4 180945Z AUTO 00000KT 10SM 22/21 A3012 130 93 1000 000/00 RMK AO2 T02220211 $
63870K0J4 0J420160818045010608/18/16 04:50:31  5-MIN K0J4 180950Z AUTO 00000KT 10SM 22/21 A3013 130 93 1000 000/00 RMK AO2 T02220211 $
63870K0J4 0J420160818045511708/18/16 04:55:31  5-MIN K0J4 180955Z AUTO 00000KT 10SM CLR 22/21 A3013 130 93 1000 000/00 RMK AO2 SLP197 T02220211 $
63870K0J4 0J420160818050010908/18/16 05:00:31  5-MIN K0J4 181000Z AUTO 00000KT 9SM CLR 22/21 A3013 130 93 1000 000/00 RMK AO2 T02220211 $
63870K0J4 0J420160818050510908/18/16 05:05:31  5-MIN K0J4 181005Z AUTO 00000KT 8SM CLR 22/21 A3013 130 93 1000 000/00 RMK AO2 T02220211 $
63870K0J4 0J420160818051010908/18/16 05:10:31  5-MIN K0J4 181010Z AUTO 00000KT 9SM CLR 22/22 A3013 130 97 1000 000/00 RMK AO2 T02220217 $
63870K0J4 0J420160818051511008/18/16 05:15:31  5-MIN K0J4 181015Z AUTO 00000KT 10SM CLR 22/22 A3013 130 97 1000 000/00 RMK AO2 T02220217 $
63870K0J4 0J420160818052011008/18/16 05:20:31  5-MIN K0J4 181020Z AUTO 00000KT 10SM CLR 22/21 A3013 130 93 1000 000/00 RMK AO2 T02220211 $
63870K0J4 0J420160818052511008/18/16 05:25:31  5-MIN K0J4 181025Z AUTO 00000KT 10SM CLR 22/21 A3013 130 93 1000 000/00 RMK AO2 T02220211 $
63870K0J4 0J420160818053011008/18/16 05:30:31  5-MIN K0J4 181030Z AUTO 34003KT 10SM CLR 22/21 A3013 130 93 1000 340/03 RMK AO2 T02220211 $
63870K0J4 0J420160818053511008/18/16 05:35:31  5-MIN K0J4 181035Z AUTO 00000KT 10SM CLR 22/21 A3013 120 93 1000 000/00 RMK AO2 T02220211 $
63870K0J4 0J420160818054011008/18/16 05:40:31  5-MIN K0J4 181040Z AUTO 00000KT 10SM CLR 22/21 A3013 120 93 1000 000/00 RMK AO2 T02220211 $
63870K0J4 0J420160818054511008/18/16 05:45:31  5-MIN K0J4 181045Z AUTO 00000KT 10SM CLR 22/21 A3013 120 93 1000 000/00 RMK AO2 T02220211 $
63870K0J4 0J420160818055011008/18/16 05:50:31  5-MIN K0J4 181050Z AUTO 00000KT 10SM CLR 22/21 A3013 120 93 1000 000/00 RMK AO2 T02220211 $
63870K0J4 0J420160818055511608/18/16 05:55:31  5-MIN K0J4 181055Z AUTO 00000KT 9SM CLR 22/21 A3013 120 93 1000 000/00 RMK AO2 SLP199 T02220211 $
63870K0J4 0J420160818060011008/18/16 06:00:31  5-MIN K0J4 181100Z AUTO 00000KT 10SM CLR 22/21 A3013 120 93 1000 000/00 RMK AO2 T02220211 $
63870K0J4 0J420160818060511008/18/16 06:05:31  5-MIN K0J4 181105Z AUTO 00000KT 10SM CLR 22/21 A3014 120 97 1000 000/00 RMK AO2 T02170211 $
63870K0J4 0J420160818061011008/18/16 06:10:31  5-MIN K0J4 181110Z AUTO 00000KT 10SM CLR 22/21 A3014 120 97 1000 000/00 RMK AO2 T02170211 $
63870K0J4 0J420160818061511008/18/16 06:15:31  5-MIN K0J4 181115Z AUTO 00000KT 10SM CLR 22/21 A3014 120 97 1000 000/00 RMK AO2 T02170211 $
63870K0J4 0J420160818062011008/18/16 06:20:31  5-MIN K0J4 181120Z AUTO 00000KT 10SM CLR 22/21 A3014 120 93 1000 000/00 RMK AO2 T02220211 $
63870K0J4 0J420160818062511008/18/16 06:25:31  5-MIN K0J4 181125Z AUTO 00000KT 10SM CLR 22/21 A3014 120 93 1000 000/00 RMK AO2 T02220211 $
63870K0J4 0J420160818063011008/18/16 06:30:31  5-MIN K0J4 181130Z AUTO 00000KT 10SM CLR 22/21 A3014 120 93 1000 000/00 RMK AO2 T02220211 $
63870K0J4 0J420160818063511008/18/16 06:35:31  5-MIN K0J4 181135Z AUTO 00000KT 10SM CLR 22/21 A3014 120 93 1000 000/00 RMK AO2 T02220211 $
63870K0J4 0J420160818064012608/18/16 06:40:31  5-MIN K0J4 181140Z AUTO 00000KT 10SM -RA CLR 23/21 A3014 120 90 1100 000/00 RMK AO2 RAB38 P0000 T02280211 $
63870K0J4 0J420160818064512608/18/16 06:45:31  5-MIN K0J4 181145Z AUTO 00000KT 10SM -RA CLR 23/21 A3014 110 90 1100 000/00 RMK AO2 RAB38 P0000 T02280211 $
63870K0J4 0J420160818065012508/18/16 06:50:31  5-MIN K0J4 181150Z AUTO 00000KT 10SM CLR 23/21 A3014 110 90 1100 000/00 RMK AO2 RAB38E47 P0000 T02280211 $
63870K0J4 0J420160818065515608/18/16 06:55:31  5-MIN K0J4 181155Z AUTO 00000KT 10SM CLR 23/21 A3015 110 90 1100 000/00 RMK AO2 RAB38E47 SLP205 P0000 60000 7//// T02280211 10233 20217 $
63870K0J4 0J420160818070011008/18/16 07:00:31  5-MIN K0J4 181200Z AUTO 00000KT 10SM CLR 23/21 A3015 110 90 1100 000/00 RMK AO2 T02280211 $
63870K0J4 0J420160818070511008/18/16 07:05:31  5-MIN K0J4 181205Z AUTO 00000KT 10SM CLR 23/22 A3015 110 90 1100 000/00 RMK AO2 T02330217 $
63870K0J4 0J420160818071011008/18/16 07:10:31  5-MIN K0J4 181210Z AUTO 00000KT 10SM CLR 23/22 A3015 110 90 1100 000/00 RMK AO2 T02330217 $
63870K0J4 0J420160818071511008/18/16 07:15:31  5-MIN K0J4 181215Z AUTO 00000KT 10SM CLR 23/22 A3015 100 90 1100 000/00 RMK AO2 T02330217 $
63870K0J4 0J420160818072011008/18/16 07:20:31  5-MIN K0J4 181220Z AUTO 00000KT 10SM CLR 24/22 A3015 100 90 1200 000/00 RMK AO2 T02390222 $
63870K0J4 0J420160818072511008/18/16 07:25:31  5-MIN K0J4 181225Z AUTO 00000KT 10SM CLR 24/22 A3016 100 90 1200 000/00 RMK AO2 T02390222 $
63870K0J4 0J420160818073011008/18/16 07:30:31  5-MIN K0J4 181230Z AUTO 00000KT 10SM CLR 24/22 A3016 100 87 1300 000/00 RMK AO2 T02440222 $
63870K0J4 0J420160818073511008/18/16 07:35:31  5-MIN K0J4 181235Z AUTO 00000KT 10SM CLR 24/22 A3016 100 87 1300 000/00 RMK AO2 T02440222 $
63870K0J4 0J420160818074011008/18/16 07:40:31  5-MIN K0J4 181240Z AUTO 11003KT 10SM CLR 24/22 A3016 100 87 1300 110/03 RMK AO2 T02440222 $
63870K0J4 0J420160818074511008/18/16 07:45:31  5-MIN K0J4 181245Z AUTO 00000KT 10SM CLR 25/22 A3016 100 84 1300 000/00 RMK AO2 T02500222 $
63870K0J4 0J420160818075011008/18/16 07:50:31  5-MIN K0J4 181250Z AUTO 00000KT 10SM CLR 25/22 A3016 100 84 1300 000/00 RMK AO2 T02500222 $
63870K0J4 0J420160818075511608/18/16 07:55:31  5-MIN K0J4 181255Z AUTO 00000KT 10SM CLR 25/22 A3016 90 84 1300 000/00 RMK AO2 SLP208 T02500222 $
63870K0J4 0J420160818080011008/18/16 08:00:31  5-MIN K0J4 181300Z AUTO 00000KT 10SM CLR 25/22 A3016 100 84 1300 000/00 RMK AO2 T02500222 $
63870K0J4 0J420160818080511008/18/16 08:05:31  5-MIN K0J4 181305Z AUTO 00000KT 10SM CLR 25/22 A3016 100 84 1300 000/00 RMK AO2 T02500222 $
63870K0J4 0J420160818081011008/18/16 08:10:31  5-MIN K0J4 181310Z AUTO 09003KT 10SM CLR 26/23 A3016 100 84 1400 090/03 RMK AO2 T02560228 $
63870K0J4 0J420160818081510908/18/16 08:15:31  5-MIN K0J4 181315Z AUTO 11003KT 10SM CLR 26/22 A3016 90 81 1400 110/03 RMK AO2 T02560222 $
63870K0J4 0J420160818082010908/18/16 08:20:31  5-MIN K0J4 181320Z AUTO 00000KT 10SM CLR 26/23 A3016 90 81 1400 000/00 RMK AO2 T02610228 $
63870K0J4 0J420160818082510908/18/16 08:25:31  5-MIN K0J4 181325Z AUTO 16003KT 10SM CLR 26/23 A3017 90 81 1400 160/03 RMK AO2 T02610228 $
63870K0J4 0J420160818083010908/18/16 08:30:31  5-MIN K0J4 181330Z AUTO 00000KT 10SM CLR 26/23 A3017 90 84 1400 000/00 RMK AO2 T02560228 $
63870K0J4 0J420160818083510908/18/16 08:35:31  5-MIN K0J4 181335Z AUTO 00000KT 10SM CLR 26/23 A3017 90 81 1400 000/00 RMK AO2 T02610228 $
63870K0J4 0J420160818084010908/18/16 08:40:31  5-MIN K0J4 181340Z AUTO 00000KT 10SM CLR 26/23 A3017 90 81 1400 000/00 RMK AO2 T02610228 $
63870K0J4 0J420160818084510908/18/16 08:45:31  5-MIN K0J4 181345Z AUTO 00000KT 10SM CLR 27/23 A3017 90 79 1500 000/00 RMK AO2 T02670228 $
63870K0J4 0J420160818085012508/18/16 08:50:31  5-MIN K0J4 181350Z AUTO 00000KT 10SM -RA CLR 27/23 A3017 90 76 1600 000/00 RMK AO2 RAB50 P0000 T02720228 $
63870K0J4 0J420160818085513208/18/16 08:55:31  5-MIN K0J4 181355Z AUTO 00000KT 10SM -RA CLR 27/23 A3017 90 76 1600 000/00 RMK AO2 RAB50 SLP210 P0000 T02720228 $
63870K0J4 0J420160818090011908/18/16 09:00:31  5-MIN K0J4 181400Z AUTO 00000KT 10SM -RA CLR 27/23 A3016 90 76 1600 000/00 RMK AO2 P0000 T02720228 $
63870K0J4 0J420160818090511908/18/16 09:05:31  5-MIN K0J4 181405Z AUTO 08003KT 10SM -RA CLR 27/23 A3017 90 79 1600 080/03 RMK AO2 P0000 T02720233 $
63870K0J4 0J420160818091012108/18/16 09:10:31  5-MIN K0J4 181410Z AUTO 00000KT 10SM CLR 28/23 A3017 90 76 1600 000/00 RMK AO2 RAE06 P0000 T02780233 $
63870K0J4 0J420160818091512108/18/16 09:15:31  5-MIN K0J4 181415Z AUTO 00000KT 10SM CLR 28/23 A3017 90 74 1700 000/00 RMK AO2 RAE06 P0000 T02830233 $
63870K0J4 0J420160818092012108/18/16 09:20:31  5-MIN K0J4 181420Z AUTO VRB03KT 10SM CLR 28/23 A3017 90 74 1700 VRB/03 RMK AO2 RAE06 P0000 T02830233 $
63870K0J4 0J420160818092512108/18/16 09:25:31  5-MIN K0J4 181425Z AUTO 00000KT 10SM CLR 28/24 A3017 90 76 1700 000/00 RMK AO2 RAE06 P0000 T02830239 $
63870K0J4 0J420160818093012108/18/16 09:30:31  5-MIN K0J4 181430Z AUTO 00000KT 10SM CLR 28/24 A3017 90 76 1700 000/00 RMK AO2 RAE06 P0000 T02830239 $
63870K0J4 0J420160818093512108/18/16 09:35:31  5-MIN K0J4 181435Z AUTO VRB03KT 10SM CLR 29/23 A3016 90 71 1700 VRB/03 RMK AO2 RAE06 P0000 T02890233 $
63870K0J4 0J420160818094012108/18/16 09:40:31  5-MIN K0J4 181440Z AUTO 09004KT 10SM CLR 29/24 A3017 90 74 1700 090/04 RMK AO2 RAE06 P0000 T02890239 $
63870K0J4 0J420160818094512108/18/16 09:45:31  5-MIN K0J4 181445Z AUTO 09003KT 10SM CLR 29/24 A3017 90 74 1700 090/03 RMK AO2 RAE06 P0000 T02890239 $
63870K0J4 0J420160818095012108/18/16 09:50:31  5-MIN K0J4 181450Z AUTO VRB03KT 10SM CLR 29/24 A3017 90 74 1700 VRB/03 RMK AO2 RAE06 P0000 T02890239 $
63870K0J4 0J420160818095513408/18/16 09:55:31  5-MIN K0J4 181455Z AUTO VRB04KT 10SM CLR 29/23 A3017 90 69 1800 VRB/04 RMK AO2 RAE06 SLP211 P0000 60000 T02940233 $
63870K0J4 0J420160818100010908/18/16 10:00:31  5-MIN K0J4 181500Z AUTO 05003KT 10SM CLR 30/23 A3017 90 67 1900 050/03 RMK AO2 T03000233 $
63870K0J4 0J420160818100510908/18/16 10:05:31  5-MIN K0J4 181505Z AUTO 09005KT 10SM CLR 30/23 A3017 90 67 1900 090/05 RMK AO2 T03000233 $
63870K0J4 0J420160818101010908/18/16 10:10:31  5-MIN K0J4 181510Z AUTO 00000KT 10SM CLR 29/23 A3017 90 67 1800 000/00 RMK AO2 T02940228 $
63870K0J4 0J420160818101510908/18/16 10:15:31  5-MIN K0J4 181515Z AUTO 08004KT 10SM CLR 30/23 A3017 90 65 1900 080/04 RMK AO2 T03000228 $
63870K0J4 0J420160818102010908/18/16 10:20:31  5-MIN K0J4 181520Z AUTO 05003KT 10SM CLR 30/23 A3016 90 65 1900 050/03 RMK AO2 T03000228 $
63870K0J4 0J420160818102510908/18/16 10:25:31  5-MIN K0J4 181525Z AUTO 00000KT 10SM CLR 30/23 A3016 90 65 1900 000/00 RMK AO2 T03000228 $
63870K0J4 0J420160818103011208/18/16 10:30:31  5-MIN K0J4 181530Z AUTO 10005KT 10SM FEW021 31/23 A3016 90 65 1900 100/05 RMK AO2 T03060233 $
63870K0J4 0J420160818103511208/18/16 10:35:31  5-MIN K0J4 181535Z AUTO VRB04KT 10SM FEW021 31/23 A3016 90 65 1900 VRB/04 RMK AO2 T03060233 $
63870K0J4 0J420160818104011208/18/16 10:40:31  5-MIN K0J4 181540Z AUTO 04004KT 10SM FEW021 31/23 A3016 90 62 1900 040/04 RMK AO2 T03060228 $
63870K0J4 0J420160818104511208/18/16 10:45:31  5-MIN K0J4 181545Z AUTO VRB03KT 10SM FEW021 31/23 A3016 90 63 2000 VRB/03 RMK AO2 T03110233 $
63870K0J4 0J420160818105011208/18/16 10:50:31  5-MIN K0J4 181550Z AUTO VRB03KT 10SM FEW021 29/23 A3016 90 69 1800 VRB/03 RMK AO2 T02940233 $
63870K0J4 0J420160818105511908/18/16 10:55:31  5-MIN K0J4 181555Z AUTO VRB04KT 10SM FEW021 31/24 A3016 90 67 1900 VRB/04 RMK AO2 SLP209 T03060239 $
63870K0J4 0J420160818110011008/18/16 11:00:31  5-MIN K0J4 181600Z AUTO 04003KT 10SM CLR 30/23 A3016 100 67 1900 040/03 RMK AO2 T03000233 $
63870K0J4 0J420160818110512008/18/16 11:05:31  5-MIN K0J4 181605Z AUTO 00000KT 10SM FEW022 FEW029 31/23 A3016 100 65 1900 000/00 RMK AO2 T03060233 $
63870K0J4 0J420160818111012008/18/16 11:10:31  5-MIN K0J4 181610Z AUTO 17003KT 10SM FEW022 SCT029 31/23 A3016 100 65 1900 170/03 RMK AO2 T03060233 $
63870K0J4 0J420160818111511308/18/16 11:15:31  5-MIN K0J4 181615Z AUTO VRB05KT 10SM FEW026 31/23 A3016 100 62 1900 VRB/05 RMK AO2 T03060228 $
63870K0J4 0J420160818112011308/18/16 11:20:31  5-MIN K0J4 181620Z AUTO 17004KT 10SM FEW026 31/23 A3016 100 62 1900 170/04 RMK AO2 T03060228 $
63870K0J4 0J420160818112512008/18/16 11:25:31  5-MIN K0J4 181625Z AUTO 00000KT 10SM FEW024 FEW029 31/23 A3016 100 65 1900 000/00 RMK AO2 T03060233 $
63870K0J4 0J420160818113012008/18/16 11:30:31  5-MIN K0J4 181630Z AUTO 12003KT 10SM FEW024 FEW029 31/23 A3016 100 63 2000 120/03 RMK AO2 T03110233 $
63870K0J4 0J420160818113512008/18/16 11:35:31  5-MIN K0J4 181635Z AUTO VRB03KT 10SM FEW024 FEW040 31/23 A3016 100 62 1900 VRB/03 RMK AO2 T03060228 $
63870K0J4 0J420160818114011308/18/16 11:40:31  5-MIN K0J4 181640Z AUTO 11004KT 10SM FEW042 31/23 A3016 100 63 2000 110/04 RMK AO2 T03110233 $
63870K0J4 0J420160818114512708/18/16 11:45:31  5-MIN K0J4 181645Z AUTO 00000KT 10SM FEW029 FEW036 FEW044 30/22 A3016 100 62 1900 000/00 RMK AO2 T03000222 $
63870K0J4 0J420160818115012008/18/16 11:50:31  5-MIN K0J4 181650Z AUTO 00000KT 10SM SCT029 SCT036 31/23 A3016 100 62 1900 000/00 RMK AO2 T03060228 $
63870K0J4 0J420160818115510308/18/16 11:55:31  5-MIN K0J4 181655Z AUTO 20003KT 10SM BKN029 31/23 A3015 100 60 2000 200/03 RMK AO2 $
63870K0J4 0J420160818120012008/18/16 12:00:31  5-MIN K0J4 181700Z AUTO 19003KT 10SM BKN029 BKN044 31/23 A3015 100 60 2000 190/03 RMK AO2 T03110228 $
63870K0J4 0J420160818120512008/18/16 12:05:31  5-MIN K0J4 181705Z AUTO 10004KT 10SM SCT029 BKN044 32/23 A3015 100 58 2100 100/04 RMK AO2 T03170228 $
63870K0J4 0J420160818121011308/18/16 12:10:31  5-MIN K0J4 181710Z AUTO VRB04KT 10SM SCT029 32/23 A3015 100 58 2100 VRB/04 RMK AO2 T03170228 $
63870K0J4 0J420160818121511308/18/16 12:15:31  5-MIN K0J4 181715Z AUTO 00000KT 10SM SCT029 31/22 A3015 110 58 2000 000/00 RMK AO2 T03110222 $
63870K0J4 0J420160818122011308/18/16 12:20:31  5-MIN K0J4 181720Z AUTO 00000KT 10SM SCT029 31/23 A3015 110 60 2000 000/00 RMK AO2 T03110228 $
63870K0J4 0J420160818122511308/18/16 12:25:31  5-MIN K0J4 181725Z AUTO 00000KT 10SM SCT033 32/23 A3015 110 58 2100 000/00 RMK AO2 T03170228 $
63870K0J4 0J420160818123011008/18/16 12:30:31  5-MIN K0J4 181730Z AUTO 10SM SCT033 BKN042 31/23 A3014 110 60 2000 M /M RMK AO2 T03110228 $
63870K0J4 0J420160818123512008/18/16 12:35:31  5-MIN K0J4 181735Z AUTO 16003KT 10SM BKN033 BKN046 31/23 A3014 110 62 2000 160/03 RMK AO2 T03060228 $
63870K0J4 0J420160818124012008/18/16 12:40:31  5-MIN K0J4 181740Z AUTO 00000KT 10SM BKN033 BKN047 31/22 A3014 110 58 2000 000/00 RMK AO2 T03110222 $
63870K0J4 0J420160818124513608/18/16 12:45:31  5-MIN K0J4 181745Z AUTO 00000KT 10SM -RA BKN034 BKN047 32/22 A3014 110 56 2100 000/00 RMK AO2 RAB42 P0000 T03170222 $
63870K0J4 0J420160818125013608/18/16 12:50:31  5-MIN K0J4 181750Z AUTO VRB03KT 10SM -RA BKN034 BKN047 31/22 A3014 120 58 2000 VRB/03 RMK AO2 RAB42 P0000 T03110222 $
63870K0J4 0J420160818125516608/18/16 12:55:31  5-MIN K0J4 181755Z AUTO 00000KT 10SM SCT034 BKN047 31/22 A3014 120 58 2000 000/00 RMK AO2 RAB42E51 SLP200 P0000 60000 T03110222 10322 20217 51007 $
63870K0J4 0J420160818130012008/18/16 13:00:31  5-MIN K0J4 181800Z AUTO VRB04KT 10SM BKN034 BKN047 31/22 A3013 120 58 2000 VRB/04 RMK AO2 T03110222 $
63870K0J4 0J420160818130512008/18/16 13:05:31  5-MIN K0J4 181805Z AUTO 21005KT 10SM BKN036 BKN047 32/21 A3013 120 53 2100 210/05 RMK AO2 T03170211 $
63870K0J4 0J420160818131012008/18/16 13:10:31  5-MIN K0J4 181810Z AUTO VRB03KT 10SM SCT036 SCT045 32/21 A3013 120 51 2100 VRB/03 RMK AO2 T03170206 $
63870K0J4 0J420160818131511308/18/16 13:15:31  5-MIN K0J4 181815Z AUTO VRB04KT 10SM SCT037 32/22 A3013 120 53 2200 VRB/04 RMK AO2 T03220217 $
63870K0J4 0J420160818132011308/18/16 13:20:31  5-MIN K0J4 181820Z AUTO 14005KT 10SM SCT037 32/22 A3013 130 55 2100 140/05 RMK AO2 T03170217 $
63870K0J4 0J420160818132511308/18/16 13:25:31  5-MIN K0J4 181825Z AUTO 17004KT 10SM SCT037 31/21 A3012 130 54 2000 170/04 RMK AO2 T03110211 $
63870K0J4 0J420160818133011308/18/16 13:30:31  5-MIN K0J4 181830Z AUTO VRB03KT 10SM SCT040 31/21 A3012 130 56 2000 VRB/03 RMK AO2 T03060211 $
63870K0J4 0J420160818133511308/18/16 13:35:31  5-MIN K0J4 181835Z AUTO 10003KT 10SM FEW040 32/22 A3012 130 55 2100 100/03 RMK AO2 T03170217 $
63870K0J4 0J420160818134011308/18/16 13:40:31  5-MIN K0J4 181840Z AUTO VRB04KT 10SM FEW040 33/21 A3012 130 49 2200 VRB/04 RMK AO2 T03280211 $
63870K0J4 0J420160818134511308/18/16 13:45:31  5-MIN K0J4 181845Z AUTO VRB05KT 10SM FEW040 32/21 A3012 140 51 2200 VRB/05 RMK AO2 T03220211 $
63870K0J4 0J420160818135011308/18/16 13:50:31  5-MIN K0J4 181850Z AUTO 20006KT 10SM FEW040 33/21 A3011 140 49 2200 200/06 RMK AO2 T03280211 $
63870K0J4 0J420160818135512008/18/16 13:55:31  5-MIN K0J4 181855Z AUTO VRB04KT 10SM FEW042 32/21 A3011 140 49 2200 VRB/04 RMK AO2 SLP192 T03220206 $
63870K0J4 0J420160818140011308/18/16 14:00:31  5-MIN K0J4 181900Z AUTO 00000KT 10SM FEW042 32/21 A3011 140 49 2200 000/00 RMK AO2 T03220206 $
63870K0J4 0J420160818140510008/18/16 14:05:31  5-MIN K0J4 181905Z AUTO 10SM CLR 33/20 A3011 150 46 2200 M /M RMK AO2 T03280200 $
63870K0J4 0J420160818141011008/18/16 14:10:31  5-MIN K0J4 181910Z AUTO VRB04KT 10SM CLR 32/21 A3010 150 49 2200 VRB/04 RMK AO2 T03220206 $
63870K0J4 0J420160818141510008/18/16 14:15:31  5-MIN K0J4 181915Z AUTO 10SM CLR 33/21 A3010 150 48 2200 M /M RMK AO2 T03280206 $
63870K0J4 0J420160818142011008/18/16 14:20:31  5-MIN K0J4 181920Z AUTO VRB05KT 10SM CLR 32/19 A3010 150 46 2200 VRB/05 RMK AO2 T03220194 $
63870K0J4 0J420160818142511008/18/16 14:25:31  5-MIN K0J4 181925Z AUTO 23004KT 10SM CLR 32/19 A3010 150 46 2200 230/04 RMK AO2 T03220194 $
63870K0J4 0J420160818143011008/18/16 14:30:31  5-MIN K0J4 181930Z AUTO 20005KT 10SM CLR 33/19 A3010 150 43 2300 200/05 RMK AO2 T03280189 $
63870K0J4 0J420160818143511008/18/16 14:35:31  5-MIN K0J4 181935Z AUTO 24004KT 10SM CLR 32/19 A3009 160 46 2200 240/04 RMK AO2 T03220194 $
63870K0J4 0J420160818144011008/18/16 14:40:31  5-MIN K0J4 181940Z AUTO VRB03KT 10SM CLR 32/19 A3009 160 46 2200 VRB/03 RMK AO2 T03220194 $
63870K0J4 0J420160818144511008/18/16 14:45:31  5-MIN K0J4 181945Z AUTO 21003KT 10SM CLR 33/20 A3009 160 46 2300 210/03 RMK AO2 T03280200 $
63870K0J4 0J420160818145011008/18/16 14:50:31  5-MIN K0J4 181950Z AUTO 15005KT 10SM CLR 33/21 A3008 170 48 2300 150/05 RMK AO2 T03280206 $
63870K0J4 0J420160818145511708/18/16 14:55:31  5-MIN K0J4 181955Z AUTO 18005KT 10SM CLR 33/21 A3008 170 48 2300 180/05 RMK AO2 SLP181 T03280206 $
63870K0J4 0J420160818150011008/18/16 15:00:31  5-MIN K0J4 182000Z AUTO 13004KT 10SM CLR 32/21 A3008 170 49 2200 130/04 RMK AO2 T03220206 $
63870K0J4 0J420160818150511008/18/16 15:05:31  5-MIN K0J4 182005Z AUTO 16004KT 10SM CLR 32/21 A3008 170 49 2200 160/04 RMK AO2 T03220206 $
63870K0J4 0J420160818151011008/18/16 15:10:31  5-MIN K0J4 182010Z AUTO 17005KT 10SM CLR 33/21 A3007 170 48 2300 170/05 RMK AO2 T03280206 $
63870K0J4 0J420160818151511008/18/16 15:15:31  5-MIN K0J4 182015Z AUTO 00000KT 10SM CLR 32/21 A3007 170 49 2200 000/00 RMK AO2 T03220206 $
63870K0J4 0J420160818152011008/18/16 15:20:31  5-MIN K0J4 182020Z AUTO VRB03KT 10SM CLR 33/21 A3007 180 49 2300 VRB/03 RMK AO2 T03280211 $
63870K0J4 0J420160818152511008/18/16 15:25:31  5-MIN K0J4 182025Z AUTO VRB03KT 10SM CLR 33/21 A3007 180 49 2300 VRB/03 RMK AO2 T03280211 $
63870K0J4 0J420160818153011308/18/16 15:30:31  5-MIN K0J4 182030Z AUTO 29003KT 10SM FEW050 33/21 A3007 180 48 2300 290/03 RMK AO2 T03280206 $
63870K0J4 0J420160818153512908/18/16 15:35:31  5-MIN K0J4 182035Z AUTO 22003KT 10SM -RA FEW050 33/21 A3006 180 49 2300 220/03 RMK AO2 RAB33 P0000 T03280211 $
63870K0J4 0J420160818154012908/18/16 15:40:31  5-MIN K0J4 182040Z AUTO VRB03KT 10SM -RA FEW050 33/21 A3006 190 48 2300 VRB/03 RMK AO2 RAB33 P0000 T03280206 $
63870K0J4 0J420160818154512808/18/16 15:45:31  5-MIN K0J4 182045Z AUTO 21005KT 10SM FEW050 33/21 A3006 180 49 2300 210/05 RMK AO2 RAB33E43 P0000 T03280211 $
63870K0J4 0J420160818155012808/18/16 15:50:31  5-MIN K0J4 182050Z AUTO 00000KT 10SM FEW049 32/20 A3006 180 48 2200 000/00 RMK AO2 RAB33E43 P0000 T03220200 $
63870K0J4 0J420160818155514708/18/16 15:55:31  5-MIN K0J4 182055Z AUTO 00000KT 10SM FEW049 32/21 A3006 180 49 2200 000/00 RMK AO2 RAB33E43 SLP175 P0000 60000 T03220206 58012 $
63870K0J4 0J420160818160011008/18/16 16:00:31  5-MIN K0J4 182100Z AUTO 00000KT 10SM CLR 33/22 A3006 190 50 2400 000/00 RMK AO2 T03330217 $
63870K0J4 0J420160818160511008/18/16 16:05:31  5-MIN K0J4 182105Z AUTO 21006KT 10SM CLR 33/21 A3006 190 48 2300 210/06 RMK AO2 T03280206 $
63870K0J4 0J420160818161011008/18/16 16:10:31  5-MIN K0J4 182110Z AUTO VRB04KT 10SM CLR 33/21 A3006 190 48 2300 VRB/04 RMK AO2 T03280206 $
63870K0J4 0J420160818161511008/18/16 16:15:31  5-MIN K0J4 182115Z AUTO 18006KT 10SM CLR 33/21 A3005 200 49 2300 180/06 RMK AO2 T03280211 $
63870K0J4 0J420160818162011008/18/16 16:20:31  5-MIN K0J4 182120Z AUTO 21005KT 10SM CLR 33/21 A3005 200 48 2300 210/05 RMK AO2 T03280206 $
63870K0J4 0J420160818162511008/18/16 16:25:31  5-MIN K0J4 182125Z AUTO VRB03KT 10SM CLR 33/20 A3004 200 46 2300 VRB/03 RMK AO2 T03280200 $
63870K0J4 0J420160818163011008/18/16 16:30:31  5-MIN K0J4 182130Z AUTO VRB03KT 10SM CLR 33/21 A3004 200 48 2300 VRB/03 RMK AO2 T03280206 $
63870K0J4 0J420160818163511008/18/16 16:35:31  5-MIN K0J4 182135Z AUTO 21004KT 10SM CLR 33/21 A3004 200 49 2300 210/04 RMK AO2 T03280211 $
63870K0J4 0J420160818164011008/18/16 16:40:31  5-MIN K0J4 182140Z AUTO 22003KT 10SM CLR 32/21 A3004 200 49 2300 220/03 RMK AO2 T03220206 $
63870K0J4 0J420160818164511008/18/16 16:45:31  5-MIN K0J4 182145Z AUTO 00000KT 10SM CLR 32/21 A3004 200 49 2300 000/00 RMK AO2 T03220206 $
63870K0J4 0J420160818165011008/18/16 16:50:31  5-MIN K0J4 182150Z AUTO 00000KT 10SM CLR 32/21 A3004 200 49 2300 000/00 RMK AO2 T03220206 $
63870K0J4 0J420160818165511708/18/16 16:55:31  5-MIN K0J4 182155Z AUTO 00000KT 10SM CLR 33/21 A3004 210 48 2300 000/00 RMK AO2 SLP167 T03280206 $
63870K0J4 0J420160818170011008/18/16 17:00:31  5-MIN K0J4 182200Z AUTO 23003KT 10SM CLR 33/21 A3004 210 48 2300 230/03 RMK AO2 T03280206 $
63870K0J4 0J420160818170511008/18/16 17:05:31  5-MIN K0J4 182205Z AUTO 00000KT 10SM CLR 32/20 A3003 210 48 2300 000/00 RMK AO2 T03220200 $
63870K0J4 0J420160818171011008/18/16 17:10:31  5-MIN K0J4 182210Z AUTO VRB03KT 10SM CLR 33/20 A3003 210 46 2300 VRB/03 RMK AO2 T03280200 $
63870K0J4 0J420160818171511008/18/16 17:15:31  5-MIN K0J4 182215Z AUTO 00000KT 10SM CLR 33/20 A3004 210 46 2300 000/00 RMK AO2 T03280200 $
63870K0J4 0J420160818172011008/18/16 17:20:31  5-MIN K0J4 182220Z AUTO 23005KT 10SM CLR 33/21 A3004 210 48 2300 230/05 RMK AO2 T03280206 $
63870K0J4 0J420160818172511008/18/16 17:25:31  5-MIN K0J4 182225Z AUTO 19003KT 10SM CLR 32/21 A3004 210 49 2300 190/03 RMK AO2 T03220206 $
63870K0J4 0J420160818173011008/18/16 17:30:31  5-MIN K0J4 182230Z AUTO 20003KT 10SM CLR 33/21 A3004 210 48 2300 200/03 RMK AO2 T03280206 $
63870K0J4 0J420160818173511008/18/16 17:35:31  5-MIN K0J4 182235Z AUTO 19005KT 10SM CLR 33/21 A3004 200 48 2300 190/05 RMK AO2 T03280206 $
63870K0J4 0J420160818174011008/18/16 17:40:31  5-MIN K0J4 182240Z AUTO 16004KT 10SM CLR 32/21 A3004 210 49 2300 160/04 RMK AO2 T03220206 $
63870K0J4 0J420160818174511008/18/16 17:45:31  5-MIN K0J4 182245Z AUTO 18004KT 10SM CLR 32/21 A3004 200 49 2300 180/04 RMK AO2 T03220206 $
63870K0J4 0J420160818175011008/18/16 17:50:31  5-MIN K0J4 182250Z AUTO 17004KT 10SM CLR 32/21 A3004 200 51 2300 170/04 RMK AO2 T03220211 $
63870K0J4 0J420160818175511708/18/16 17:55:31  5-MIN K0J4 182255Z AUTO 21003KT 10SM CLR 32/21 A3004 210 49 2300 210/03 RMK AO2 SLP168 T03220206 $
63870K0J4 0J420160818180011008/18/16 18:00:31  5-MIN K0J4 182300Z AUTO 00000KT 10SM CLR 32/21 A3004 210 51 2300 000/00 RMK AO2 T03220211 $
63870K0J4 0J420160818180511008/18/16 18:05:31  5-MIN K0J4 182305Z AUTO 21003KT 10SM CLR 32/21 A3004 210 51 2300 210/03 RMK AO2 T03220211 $
63870K0J4 0J420160818181011008/18/16 18:10:31  5-MIN K0J4 182310Z AUTO 17004KT 10SM CLR 32/21 A3004 210 51 2300 170/04 RMK AO2 T03220211 $
63870K0J4 0J420160818181511008/18/16 18:15:31  5-MIN K0J4 182315Z AUTO VRB03KT 10SM CLR 32/21 A3004 210 53 2200 VRB/03 RMK AO2 T03170211 $
63870K0J4 0J420160818182011008/18/16 18:20:31  5-MIN K0J4 182320Z AUTO 21005KT 10SM CLR 32/22 A3004 200 55 2200 210/05 RMK AO2 T03170217 $
63870K0J4 0J420160818182511008/18/16 18:25:31  5-MIN K0J4 182325Z AUTO 22007KT 10SM CLR 31/22 A3004 200 58 2100 220/07 RMK AO2 T03110222 $
63870K0J4 0J420160818183011308/18/16 18:30:31  5-MIN K0J4 182330Z AUTO 22006KT 10SM FEW050 31/23 A3005 200 62 2100 220/06 RMK AO2 T03060228 $
63870K0J4 0J420160818183511308/18/16 18:35:31  5-MIN K0J4 182335Z AUTO 22004KT 10SM FEW050 31/23 A3005 200 62 2100 220/04 RMK AO2 T03060228 $
63870K0J4 0J420160818184011308/18/16 18:40:31  5-MIN K0J4 182340Z AUTO 23007KT 10SM FEW050 30/23 A3004 200 65 2000 230/07 RMK AO2 T03000228 $
63870K0J4 0J420160818184511308/18/16 18:45:31  5-MIN K0J4 182345Z AUTO 24004KT 10SM FEW049 30/23 A3005 200 65 2000 240/04 RMK AO2 T03000228 $
63870K0J4 0J420160818185011308/18/16 18:50:31  5-MIN K0J4 182350Z AUTO 23005KT 10SM FEW049 29/23 A3005 200 67 1900 230/05 RMK AO2 T02940228 $
63870K0J4 0J420160818185514408/18/16 18:55:31  5-MIN K0J4 182355Z AUTO 23005KT 10SM FEW049 29/23 A3005 200 67 1900 230/05 RMK AO2 SLP171 60000 T02940228 10333 20294 56025 $
63870K0J4 0J420160818190011308/18/16 19:00:31  5-MIN K0J4 190000Z AUTO 23004KT 10SM FEW049 29/23 A3005 190 67 1900 230/04 RMK AO2 T02940228 $
63870K0J4 0J420160818190511008/18/16 19:05:31  5-MIN K0J4 190005Z AUTO 23004KT 10SM CLR 29/23 A3005 190 69 1900 230/04 RMK AO2 T02890228 $
63870K0J4 0J420160818191011008/18/16 19:10:31  5-MIN K0J4 190010Z AUTO 23004KT 10SM CLR 29/23 A3005 190 69 1900 230/04 RMK AO2 T02890228 $
63870K0J4 0J420160818191511008/18/16 19:15:31  5-MIN K0J4 190015Z AUTO 23006KT 10SM CLR 29/23 A3005 200 69 1900 230/06 RMK AO2 T02890228 $
63870K0J4 0J420160818192011008/18/16 19:20:31  5-MIN K0J4 190020Z AUTO 23005KT 10SM CLR 29/23 A3006 190 69 1900 230/05 RMK AO2 T02890228 $
63870K0J4 0J420160818192511008/18/16 19:25:31  5-MIN K0J4 190025Z AUTO 22004KT 10SM CLR 28/23 A3005 190 74 1800 220/04 RMK AO2 T02830233 $
63870K0J4 0J420160818193011008/18/16 19:30:31  5-MIN K0J4 190030Z AUTO 21003KT 10SM CLR 28/23 A3005 190 76 1700 210/03 RMK AO2 T02780233 $
63870K0J4 0J420160818193511008/18/16 19:35:31  5-MIN K0J4 190035Z AUTO 23004KT 10SM CLR 28/23 A3006 190 76 1700 230/04 RMK AO2 T02780233 $
63870K0J4 0J420160818194011008/18/16 19:40:31  5-MIN K0J4 190040Z AUTO 21006KT 10SM CLR 28/23 A3006 190 71 1800 210/06 RMK AO2 T02830228 $
63870K0J4 0J420160818194511008/18/16 19:45:31  5-MIN K0J4 190045Z AUTO 22005KT 10SM CLR 28/23 A3006 190 74 1700 220/05 RMK AO2 T02780228 $
63870K0J4 0J420160818195011008/18/16 19:50:31  5-MIN K0J4 190050Z AUTO 23005KT 10SM CLR 28/23 A3006 180 74 1700 230/05 RMK AO2 T02780228 $
63870K0J4 0J420160818195511708/18/16 19:55:31  5-MIN K0J4 190055Z AUTO 23004KT 10SM CLR 28/23 A3006 180 74 1700 230/04 RMK AO2 SLP176 T02780228 $
63870K0J4 0J420160818200011008/18/16 20:00:31  5-MIN K0J4 190100Z AUTO 22003KT 10SM CLR 28/23 A3007 180 74 1700 220/03 RMK AO2 T02780228 $
63870K0J4 0J420160818200511008/18/16 20:05:31  5-MIN K0J4 190105Z AUTO 22004KT 10SM CLR 27/23 A3007 180 76 1700 220/04 RMK AO2 T02720228 $
63870K0J4 0J420160818201011008/18/16 20:10:31  5-MIN K0J4 190110Z AUTO 23005KT 10SM CLR 27/23 A3007 180 76 1700 230/05 RMK AO2 T02720228 $
63870K0J4 0J420160818201511008/18/16 20:15:31  5-MIN K0J4 190115Z AUTO 22004KT 10SM CLR 27/23 A3007 180 76 1700 220/04 RMK AO2 T02720228 $
63870K0J4 0J420160818202011008/18/16 20:20:31  5-MIN K0J4 190120Z AUTO 22004KT 10SM CLR 27/23 A3008 170 76 1700 220/04 RMK AO2 T02720228 $
63870K0J4 0J420160818202511008/18/16 20:25:31  5-MIN K0J4 190125Z AUTO 21004KT 10SM CLR 27/23 A3008 170 76 1700 210/04 RMK AO2 T02720228 $
63870K0J4 0J420160818203011008/18/16 20:30:31  5-MIN K0J4 190130Z AUTO 20004KT 10SM CLR 27/23 A3008 170 79 1600 200/04 RMK AO2 T02670228 $
63870K0J4 0J420160818203511008/18/16 20:35:31  5-MIN K0J4 190135Z AUTO 00000KT 10SM CLR 27/23 A3008 170 82 1600 000/00 RMK AO2 T02670233 $
63870K0J4 0J420160818204011008/18/16 20:40:31  5-MIN K0J4 190140Z AUTO 00000KT 10SM CLR 27/23 A3009 160 82 1600 000/00 RMK AO2 T02670233 $
63870K0J4 0J420160818204511008/18/16 20:45:31  5-MIN K0J4 190145Z AUTO 23003KT 10SM CLR 27/23 A3009 160 79 1600 230/03 RMK AO2 T02670228 $
63870K0J4 0J420160818205011008/18/16 20:50:31  5-MIN K0J4 190150Z AUTO 23004KT 10SM CLR 27/23 A3009 160 79 1600 230/04 RMK AO2 T02670228 $
63870K0J4 0J420160818205511708/18/16 20:55:31  5-MIN K0J4 190155Z AUTO 24003KT 10SM CLR 26/23 A3009 160 81 1500 240/03 RMK AO2 SLP185 T02610228 $
63870K0J4 0J420160818210011008/18/16 21:00:31  5-MIN K0J4 190200Z AUTO 23003KT 10SM CLR 26/23 A3010 150 81 1500 230/03 RMK AO2 T02610228 $
63870K0J4 0J420160818210511008/18/16 21:05:31  5-MIN K0J4 190205Z AUTO 00000KT 10SM CLR 26/23 A3010 150 81 1500 000/00 RMK AO2 T02610228 $
63870K0J4 0J420160818211011008/18/16 21:10:31  5-MIN K0J4 190210Z AUTO 00000KT 10SM CLR 26/23 A3010 150 81 1500 000/00 RMK AO2 T02610228 $
63870K0J4 0J420160818211511008/18/16 21:15:31  5-MIN K0J4 190215Z AUTO 24003KT 10SM CLR 26/23 A3010 150 81 1500 240/03 RMK AO2 T02610228 $
63870K0J4 0J420160818212011008/18/16 21:20:31  5-MIN K0J4 190220Z AUTO 24003KT 10SM CLR 26/23 A3010 150 81 1500 240/03 RMK AO2 T02610228 $
63870K0J4 0J420160818212511008/18/16 21:25:31  5-MIN K0J4 190225Z AUTO 23004KT 10SM CLR 26/23 A3010 150 81 1500 230/04 RMK AO2 T02610228 $
63870K0J4 0J420160818213011008/18/16 21:30:31  5-MIN K0J4 190230Z AUTO 22004KT 10SM CLR 26/23 A3010 150 81 1500 220/04 RMK AO2 T02610228 $
63870K0J4 0J420160818213511008/18/16 21:35:31  5-MIN K0J4 190235Z AUTO 20004KT 10SM CLR 26/23 A3010 150 81 1500 200/04 RMK AO2 T02610228 $
63870K0J4 0J420160818214011008/18/16 21:40:31  5-MIN K0J4 190240Z AUTO 22003KT 10SM CLR 26/23 A3011 140 87 1400 220/03 RMK AO2 T02560233 $
63870K0J4 0J420160818214511008/18/16 21:45:31  5-MIN K0J4 190245Z AUTO 22003KT 10SM CLR 26/23 A3011 140 87 1400 220/03 RMK AO2 T02560233 $
63870K0J4 0J420160818215011008/18/16 21:50:31  5-MIN K0J4 190250Z AUTO 23003KT 10SM CLR 26/23 A3011 140 87 1400 230/03 RMK AO2 T02560233 $
63870K0J4 0J420160818215512308/18/16 21:55:31  5-MIN K0J4 190255Z AUTO 23003KT 10SM CLR 26/23 A3011 140 84 1400 230/03 RMK AO2 SLP192 T02560228 55003 $
63870K0J4 0J420160818220011008/18/16 22:00:31  5-MIN K0J4 190300Z AUTO 23003KT 10SM CLR 26/23 A3012 130 84 1400 230/03 RMK AO2 T02560228 $
63870K0J4 0J420160818220511008/18/16 22:05:31  5-MIN K0J4 190305Z AUTO 24004KT 10SM CLR 26/23 A3011 140 84 1400 240/04 RMK AO2 T02560228 $
63870K0J4 0J420160818221011008/18/16 22:10:31  5-MIN K0J4 190310Z AUTO 22004KT 10SM CLR 26/23 A3011 140 84 1400 220/04 RMK AO2 T02560228 $
63870K0J4 0J420160818221511008/18/16 22:15:31  5-MIN K0J4 190315Z AUTO 22004KT 10SM CLR 26/23 A3011 140 87 1400 220/04 RMK AO2 T02560233 $
63870K0J4 0J420160818222011008/18/16 22:20:31  5-MIN K0J4 190320Z AUTO 21004KT 10SM CLR 25/23 A3011 140 90 1400 210/04 RMK AO2 T02500233 $
63870K0J4 0J420160818222511008/18/16 22:25:31  5-MIN K0J4 190325Z AUTO 23003KT 10SM CLR 25/23 A3011 140 90 1400 230/03 RMK AO2 T02500233 $
63870K0J4 0J420160818223011008/18/16 22:30:31  5-MIN K0J4 190330Z AUTO 23004KT 10SM CLR 25/23 A3011 140 90 1400 230/04 RMK AO2 T02500233 $
63870K0J4 0J420160818223511008/18/16 22:35:31  5-MIN K0J4 190335Z AUTO 23003KT 10SM CLR 25/23 A3011 140 87 1400 230/03 RMK AO2 T02500228 $
63870K0J4 0J420160818224011008/18/16 22:40:31  5-MIN K0J4 190340Z AUTO 22003KT 10SM CLR 26/23 A3011 140 84 1400 220/03 RMK AO2 T02560228 $
63870K0J4 0J420160818224511008/18/16 22:45:31  5-MIN K0J4 190345Z AUTO 00000KT 10SM CLR 25/23 A3011 140 90 1400 000/00 RMK AO2 T02500233 $
63870K0J4 0J420160818225011008/18/16 22:50:31  5-MIN K0J4 190350Z AUTO 00000KT 10SM CLR 25/23 A3011 140 87 1400 000/00 RMK AO2 T02500228 $
63870K0J4 0J420160818225511708/18/16 22:55:31  5-MIN K0J4 190355Z AUTO 22003KT 10SM CLR 25/23 A3011 140 90 1400 220/03 RMK AO2 SLP191 T02500233 $
63870K0J4 0J420160818230011008/18/16 23:00:31  5-MIN K0J4 190400Z AUTO 23003KT 10SM CLR 25/23 A3011 140 90 1400 230/03 RMK AO2 T02500233 $
63870K0J4 0J420160818230511008/18/16 23:05:31  5-MIN K0J4 190405Z AUTO 23003KT 10SM CLR 25/23 A3011 150 90 1400 230/03 RMK AO2 T02500233 $
63870K0J4 0J420160818231011008/18/16 23:10:31  5-MIN K0J4 190410Z AUTO 21003KT 10SM CLR 25/23 A3010 150 90 1400 210/03 RMK AO2 T02500233 $
63870K0J4 0J420160818231511008/18/16 23:15:31  5-MIN K0J4 190415Z AUTO 00000KT 10SM CLR 25/23 A3010 150 90 1400 000/00 RMK AO2 T02500233 $
63870K0J4 0J420160818232011008/18/16 23:20:31  5-MIN K0J4 190420Z AUTO 00000KT 10SM CLR 25/23 A3010 150 87 1400 000/00 RMK AO2 T02500228 $
63870K0J4 0J420160818232511008/18/16 23:25:31  5-MIN K0J4 190425Z AUTO 00000KT 10SM CLR 24/23 A3010 150 90 1300 000/00 RMK AO2 T02440228 $
63870K0J4 0J420160818233011008/18/16 23:30:31  5-MIN K0J4 190430Z AUTO 00000KT 10SM CLR 24/23 A3010 150 90 1300 000/00 RMK AO2 T02440228 $
63870K0J4 0J420160818233511008/18/16 23:35:31  5-MIN K0J4 190435Z AUTO 00000KT 10SM CLR 24/23 A3010 150 90 1300 000/00 RMK AO2 T02440228 $
63870K0J4 0J420160818234011008/18/16 23:40:31  5-MIN K0J4 190440Z AUTO 00000KT 10SM CLR 24/23 A3010 150 90 1300 000/00 RMK AO2 T02440228 $
63870K0J4 0J420160818234511008/18/16 23:45:31  5-MIN K0J4 190445Z AUTO 00000KT 10SM CLR 24/23 A3010 150 90 1300 000/00 RMK AO2 T02440228 $
63870K0J4 0J420160818235011008/18/16 23:50:31  5-MIN K0J4 190450Z AUTO 00000KT 10SM CLR 24/23 A3010 150 90 1300 000/00 RMK AO2 T02440228 $
63870K0J4 0J420160818235512708/18/16 23:55:31  5-MIN K0J4 190455Z AUTO 00000KT 10SM CLR 24/23 A3010 150 90 1300 000/00 RMK AO2 SLP188 T02440228 403330217 $
63870K0J4 0J420160819000011008/19/16 00:00:31  5-MIN K0J4 190500Z AUTO 00000KT 10SM CLR 24/23 A3010 150 90 1300 000/00 RMK AO2 T02440228 $
63870K0J4 0J420160819000511008/19/16 00:05:31  5-MIN K0J4 190505Z AUTO 00000KT 10SM CLR 24/23 A3010 150 90 1300 000/00 RMK AO2 T02440228 $
63870K0J4 0J420160819001011008/19/16 00:10:31  5-MIN K0J4 190510Z AUTO 00000KT 10SM CLR 24/23 A3010 150 90 1300 000/00 RMK AO2 T02440228 $
63870K0J4 0J420160819001511008/19/16 00:15:31  5-MIN K0J4 190515Z AUTO 00000KT 10SM CLR 24/23 A3010 150 90 1300 000/00 RMK AO2 T02440228 $
63870K0J4 0J420160819002011008/19/16 00:20:31  5-MIN K0J4 190520Z AUTO 00000KT 10SM CLR 24/23 A3010 150 90 1300 000/00 RMK AO2 T02440228 $
63870K0J4 0J420160819002511008/19/16 00:25:31  5-MIN K0J4 190525Z AUTO 00000KT 10SM CLR 24/23 A3010 150 90 1300 000/00 RMK AO2 T02440228 $
63870K0J4 0J420160819003011008/19/16 00:30:31  5-MIN K0J4 190530Z AUTO 00000KT 10SM CLR 24/23 A3011 150 90 1300 000/00 RMK AO2 T02440228 $
63870K0J4 0J420160819003511008/19/16 00:35:31  5-MIN K0J4 190535Z AUTO 00000KT 10SM CLR 24/23 A3010 150 93 1300 000/00 RMK AO2 T02390228 $
63870K0J4 0J420160819004011008/19/16 00:40:31  5-MIN K0J4 190540Z AUTO 00000KT 10SM CLR 24/23 A3010 150 93 1300 000/00 RMK AO2 T02390228 $
63870K0J4 0J420160819004511008/19/16 00:45:31  5-MIN K0J4 190545Z AUTO 00000KT 10SM CLR 24/23 A3010 150 93 1300 000/00 RMK AO2 T02390228 $
63870K0J4 0J420160819005011008/19/16 00:50:31  5-MIN K0J4 190550Z AUTO 00000KT 10SM CLR 24/23 A3009 160 93 1300 000/00 RMK AO2 T02390228 $
63870K0J4 0J420160819005513508/19/16 00:55:31  5-MIN K0J4 190555Z AUTO 00000KT 10SM CLR 24/23 A3009 160 90 1300 000/00 RMK AO2 SLP186 T02440228 10294 20239 53022 $
63870K0J4 0J420160819010011008/19/16 01:00:31  5-MIN K0J4 190600Z AUTO 00000KT 10SM CLR 24/23 A3010 150 90 1300 000/00 RMK AO2 T02440228 $
63870K0J4 0J420160819010511008/19/16 01:05:31  5-MIN K0J4 190605Z AUTO 00000KT 10SM CLR 24/23 A3010 150 90 1300 000/00 RMK AO2 T02440228 $
63870K0J4 0J420160819011011008/19/16 01:10:31  5-MIN K0J4 190610Z AUTO 00000KT 10SM CLR 24/23 A3010 150 93 1300 000/00 RMK AO2 T02390228 $
63870K0J4 0J420160819011511008/19/16 01:15:31  5-MIN K0J4 190615Z AUTO 00000KT 10SM CLR 24/23 A3010 150 90 1300 000/00 RMK AO2 T02440228 $
63870K0J4 0J420160819012011008/19/16 01:20:31  5-MIN K0J4 190620Z AUTO 00000KT 10SM CLR 24/23 A3010 150 90 1300 000/00 RMK AO2 T02440228 $
63870K0J4 0J420160819012511008/19/16 01:25:31  5-MIN K0J4 190625Z AUTO 00000KT 10SM CLR 24/23 A3010 150 90 1300 000/00 RMK AO2 T02440228 $
63870K0J4 0J420160819013011008/19/16 01:30:31  5-MIN K0J4 190630Z AUTO 00000KT 10SM CLR 24/23 A3010 150 93 1300 000/00 RMK AO2 T02390228 $
63870K0J4 0J420160819013511008/19/16 01:35:31  5-MIN K0J4 190635Z AUTO 00000KT 10SM CLR 24/22 A3010 150 90 1300 000/00 RMK AO2 T02390222 $
63870K0J4 0J420160819014011008/19/16 01:40:31  5-MIN K0J4 190640Z AUTO 00000KT 10SM CLR 24/22 A3009 160 90 1300 000/00 RMK AO2 T02390222 $
63870K0J4 0J420160819014511008/19/16 01:45:31  5-MIN K0J4 190645Z AUTO 00000KT 10SM CLR 24/22 A3009 160 90 1300 000/00 RMK AO2 T02390222 $
63870K0J4 0J420160819015010908/19/16 01:50:31  5-MIN K0J4 190650Z AUTO 00000KT 9SM CLR 24/23 A3009 160 93 1300 000/00 RMK AO2 T02390228 $
63870K0J4 0J420160819015511608/19/16 01:55:31  5-MIN K0J4 190655Z AUTO 00000KT 9SM CLR 24/23 A3009 160 93 1300 000/00 RMK AO2 SLP184 T02390228 $
63870K0J4 0J420160819020010908/19/16 02:00:31  5-MIN K0J4 190700Z AUTO 00000KT 9SM CLR 24/23 A3009 160 93 1300 000/00 RMK AO2 T02390228 $
63870K0J4 0J420160819020512508/19/16 02:05:31  5-MIN K0J4 190705Z AUTO 00000KT 9SM -RA CLR 24/23 A3009 160 93 1300 000/00 RMK AO2 RAB05 P0000 T02390228 $
63870K0J4 0J420160819021012608/19/16 02:10:31  5-MIN K0J4 190710Z AUTO 00000KT 10SM -RA CLR 23/22 A3009 160 93 1200 000/00 RMK AO2 RAB05 P0000 T02330222 $
63870K0J4 0J420160819021512508/19/16 02:15:31  5-MIN K0J4 190715Z AUTO 00000KT 10SM CLR 23/22 A3009 160 93 1200 000/00 RMK AO2 RAB05E15 P0000 T02330222 $
63870K0J4 0J420160819023007808/19/16 02:30:31  5-MIN K0J4 190730Z AUTO M M M M /M RMK AO2 RAB05E15 P0000 $
63870K0J4 0J420160819023509408/19/16 02:35:31  5-MIN K0J4 190735Z AUTO 00000KT A3008 M M M 000/00 RMK AO2 RAB05E15 P0000 $
63870K0J4 0J420160819024012108/19/16 02:40:31  5-MIN K0J4 190740Z AUTO 00000KT 10SM 23/22 A3008 170 93 1200 000/00 RMK AO2 RAB05E15 P0000 T02330222 $
63870K0J4 0J420160819024512108/19/16 02:45:31  5-MIN K0J4 190745Z AUTO 00000KT 10SM 23/22 A3008 170 93 1200 000/00 RMK AO2 RAB05E15 P0000 T02330222 $
63870K0J4 0J420160819025012708/19/16 02:50:31  5-MIN K0J4 190750Z AUTO 00000KT 9SM -RA 23/22 A3008 170 93 1200 000/00 RMK AO2 RAB05E15B46 P0000 T02330222 $
63870K0J4 0J420160819025513308/19/16 02:55:31  5-MIN K0J4 190755Z AUTO 00000KT 9SM 23/22 A3008 170 93 1200 000/00 RMK AO2 RAB05E15B46E55 SLP180 P0000 T02330222 $
63870K0J4 0J420160819030010608/19/16 03:00:31  5-MIN K0J4 190800Z AUTO 00000KT 10SM 23/22 A3007 180 93 1200 000/00 RMK AO2 T02330222 $
63870K0J4 0J420160819030510908/19/16 03:05:31  5-MIN K0J4 190805Z AUTO 00000KT 9SM CLR 23/22 A3007 180 93 1200 000/00 RMK AO2 T02330222 $
63870K0J4 0J420160819031011008/19/16 03:10:31  5-MIN K0J4 190810Z AUTO 00000KT 10SM CLR 23/22 A3007 180 93 1200 000/00 RMK AO2 T02330222 $
63870K0J4 0J420160819031511008/19/16 03:15:31  5-MIN K0J4 190815Z AUTO 00000KT 10SM CLR 23/22 A3007 180 93 1200 000/00 RMK AO2 T02330222 $
63870K0J4 0J420160819032011008/19/16 03:20:31  5-MIN K0J4 190820Z AUTO 00000KT 10SM CLR 23/22 A3007 180 93 1200 000/00 RMK AO2 T02330222 $
63870K0J4 0J420160819032511008/19/16 03:25:31  5-MIN K0J4 190825Z AUTO 00000KT 10SM CLR 23/22 A3007 180 93 1200 000/00 RMK AO2 T02280217 $
63870K0J4 0J420160819033010908/19/16 03:30:31  5-MIN K0J4 190830Z AUTO 00000KT 9SM CLR 23/22 A3007 180 93 1200 000/00 RMK AO2 T02280217 $
63870K0J4 0J420160819033510908/19/16 03:35:31  5-MIN K0J4 190835Z AUTO 00000KT 8SM CLR 23/22 A3007 180 93 1200 000/00 RMK AO2 T02330222 $
63870K0J4 0J420160819034010908/19/16 03:40:31  5-MIN K0J4 190840Z AUTO 00000KT 9SM CLR 23/22 A3007 180 93 1200 000/00 RMK AO2 T02330222 $
63870K0J4 0J420160819034510908/19/16 03:45:31  5-MIN K0J4 190845Z AUTO 00000KT 8SM CLR 23/22 A3007 180 93 1200 000/00 RMK AO2 T02330222 $
63870K0J4 0J420160819035010908/19/16 03:50:31  5-MIN K0J4 190850Z AUTO 00000KT 7SM CLR 23/22 A3006 180 97 1200 000/00 RMK AO2 T02280222 $
63870K0J4 0J420160819035512208/19/16 03:55:31  5-MIN K0J4 190855Z AUTO 00000KT 7SM CLR 23/22 A3006 190 97 1200 000/00 RMK AO2 SLP175 60000 T02280222 $
63870K0J4 0J420160819040010908/19/16 04:00:31  5-MIN K0J4 190900Z AUTO 00000KT 8SM CLR 23/22 A3006 190 93 1200 000/00 RMK AO2 T02330222 $
63870K0J4 0J420160819040510908/19/16 04:05:31  5-MIN K0J4 190905Z AUTO 00000KT 8SM CLR 23/22 A3006 190 93 1200 000/00 RMK AO2 T02330222 $
63870K0J4 0J420160819041010908/19/16 04:10:31  5-MIN K0J4 190910Z AUTO 00000KT 9SM CLR 23/22 A3006 190 93 1200 000/00 RMK AO2 T02280217 $
63870K0J4 0J420160819041510908/19/16 04:15:31  5-MIN K0J4 190915Z AUTO 00000KT 9SM CLR 23/22 A3006 190 93 1200 000/00 RMK AO2 T02330222 $
63870K0J4 0J420160819042010908/19/16 04:20:31  5-MIN K0J4 190920Z AUTO 00000KT 8SM CLR 23/22 A3006 190 93 1200 000/00 RMK AO2 T02280217 $
63870K0J4 0J420160819042510908/19/16 04:25:31  5-MIN K0J4 190925Z AUTO 00000KT 8SM CLR 23/22 A3006 190 93 1200 000/00 RMK AO2 T02330222 $
63870K0J4 0J420160819043010908/19/16 04:30:31  5-MIN K0J4 190930Z AUTO 00000KT 8SM CLR 23/22 A3006 190 93 1200 000/00 RMK AO2 T02330222 $
63870K0J4 0J420160819043510908/19/16 04:35:31  5-MIN K0J4 190935Z AUTO 00000KT 8SM CLR 23/22 A3006 190 97 1200 000/00 RMK AO2 T02280222 $
63870K0J4 0J420160819044010908/19/16 04:40:31  5-MIN K0J4 190940Z AUTO 00000KT 7SM CLR 23/22 A3006 190 97 1200 000/00 RMK AO2 T02280222 $
63870K0J4 0J420160819044510908/19/16 04:45:31  5-MIN K0J4 190945Z AUTO 00000KT 8SM CLR 23/22 A3006 190 97 1200 000/00 RMK AO2 T02280222 $
63870K0J4 0J420160819045010908/19/16 04:50:31  5-MIN K0J4 190950Z AUTO 00000KT 9SM CLR 23/22 A3005 190 93 1200 000/00 RMK AO2 T02280217 $
63870K0J4 0J420160819045511608/19/16 04:55:31  5-MIN K0J4 190955Z AUTO 00000KT 8SM CLR 23/22 A3006 190 93 1200 000/00 RMK AO2 SLP173 T02280217 $
63870K0J4 0J420160819050010908/19/16 05:00:31  5-MIN K0J4 191000Z AUTO 00000KT 9SM CLR 23/22 A3006 190 93 1200 000/00 RMK AO2 T02330222 $
63870K0J4 0J420160819050510908/19/16 05:05:31  5-MIN K0J4 191005Z AUTO 00000KT 9SM CLR 23/22 A3006 190 93 1200 000/00 RMK AO2 T02330222 $
63870K0J4 0J420160819051010908/19/16 05:10:31  5-MIN K0J4 191010Z AUTO 00000KT 9SM CLR 23/22 A3006 190 93 1200 000/00 RMK AO2 T02330222 $
63870K0J4 0J420160819051510908/19/16 05:15:31  5-MIN K0J4 191015Z AUTO 00000KT 8SM CLR 23/22 A3006 190 93 1200 000/00 RMK AO2 T02330222 $
63870K0J4 0J420160819052010908/19/16 05:20:31  5-MIN K0J4 191020Z AUTO 00000KT 8SM CLR 23/22 A3006 190 93 1200 000/00 RMK AO2 T02330222 $
63870K0J4 0J420160819052510908/19/16 05:25:31  5-MIN K0J4 191025Z AUTO 00000KT 8SM CLR 23/22 A3006 190 93 1200 000/00 RMK AO2 T02330222 $
63870K0J4 0J420160819053010908/19/16 05:30:31  5-MIN K0J4 191030Z AUTO 00000KT 8SM CLR 23/22 A3006 190 93 1200 000/00 RMK AO2 T02330222 $
63870K0J4 0J420160819053510908/19/16 05:35:31  5-MIN K0J4 191035Z AUTO 00000KT 9SM CLR 23/22 A3006 190 93 1200 000/00 RMK AO2 T02330222 $
63870K0J4 0J420160819054010908/19/16 05:40:31  5-MIN K0J4 191040Z AUTO 00000KT 9SM CLR 23/22 A3006 190 93 1200 000/00 RMK AO2 T02330222 $
63870K0J4 0J420160819054510908/19/16 05:45:31  5-MIN K0J4 191045Z AUTO 22003KT 9SM CLR 23/22 A3006 180 93 1200 220/03 RMK AO2 T02330222 $
63870K0J4 0J420160819055010908/19/16 05:50:31  5-MIN K0J4 191050Z AUTO 00000KT 9SM CLR 23/22 A3006 180 93 1200 000/00 RMK AO2 T02330222 $
63870K0J4 0J420160819055511608/19/16 05:55:31  5-MIN K0J4 191055Z AUTO 23003KT 9SM CLR 23/22 A3007 180 97 1200 230/03 RMK AO2 SLP177 T02280222 $
63870K0J4 0J420160819060010908/19/16 06:00:31  5-MIN K0J4 191100Z AUTO 00000KT 9SM CLR 23/22 A3007 180 97 1200 000/00 RMK AO2 T02280222 $
63870K0J4 0J420160819060510908/19/16 06:05:31  5-MIN K0J4 191105Z AUTO 00000KT 8SM CLR 23/22 A3007 180 93 1200 000/00 RMK AO2 T02330222 $
63870K0J4 0J420160819061010908/19/16 06:10:31  5-MIN K0J4 191110Z AUTO 00000KT 9SM CLR 23/22 A3007 180 93 1200 000/00 RMK AO2 T02330222 $
63870K0J4 0J420160819061510908/19/16 06:15:31  5-MIN K0J4 191115Z AUTO 00000KT 9SM CLR 23/22 A3007 180 93 1200 000/00 RMK AO2 T02330222 $
63870K0J4 0J420160819062010908/19/16 06:20:31  5-MIN K0J4 191120Z AUTO 00000KT 8SM CLR 23/22 A3007 180 93 1200 000/00 RMK AO2 T02330222 $
63870K0J4 0J420160819062510908/19/16 06:25:31  5-MIN K0J4 191125Z AUTO 00000KT 8SM CLR 23/22 A3007 180 93 1200 000/00 RMK AO2 T02330222 $
63870K0J4 0J420160819063010908/19/16 06:30:31  5-MIN K0J4 191130Z AUTO 23003KT 8SM CLR 23/23 A3007 170 97 1200 230/03 RMK AO2 T02330228 $
63870K0J4 0J420160819063510908/19/16 06:35:31  5-MIN K0J4 191135Z AUTO 00000KT 9SM CLR 23/23 A3008 170 97 1200 000/00 RMK AO2 T02330228 $
63870K0J4 0J420160819064010908/19/16 06:40:31  5-MIN K0J4 191140Z AUTO 00000KT 8SM CLR 23/23 A3008 170 97 1200 000/00 RMK AO2 T02330228 $
63870K0J4 0J420160819064510908/19/16 06:45:31  5-MIN K0J4 191145Z AUTO 00000KT 8SM CLR 23/23 A3008 170 97 1200 000/00 RMK AO2 T02330228 $
63870K0J4 0J420160819065010908/19/16 06:50:31  5-MIN K0J4 191150Z AUTO 24003KT 9SM CLR 24/23 A3008 170 93 1300 240/03 RMK AO2 T02390228 $
63870K0J4 0J420160819065513408/19/16 06:55:31  5-MIN K0J4 191155Z AUTO 00000KT 9SM CLR 24/23 A3008 170 93 1300 000/00 RMK AO2 SLP181 60000 T02390228 10244 20228 $
63870K0J4 0J420160819070011008/19/16 07:00:31  5-MIN K0J4 191200Z AUTO 00000KT 10SM CLR 24/23 A3008 170 93 1300 000/00 RMK AO2 T02390228 $
63870K0J4 0J420160819070511008/19/16 07:05:31  5-MIN K0J4 191205Z AUTO 00000KT 10SM CLR 24/23 A3008 170 93 1300 000/00 RMK AO2 T02440233 $
63870K0J4 0J420160819071010808/19/16 07:10:31  5-MIN K0J4 191210Z AUTO 00000KT 10SM CLR 24/23 A3008 170 93 1300 000/00 RMK AO2 T02440233
63870K0J4 0J420160819071510808/19/16 07:15:31  5-MIN K0J4 191215Z AUTO 00000KT 10SM CLR 24/23 A3008 170 93 1300 000/00 RMK AO2 T02440233
63870K0J4 0J420160819072010808/19/16 07:20:31  5-MIN K0J4 191220Z AUTO 00000KT 10SM CLR 25/23 A3008 170 90 1400 000/00 RMK AO2 T02500233
63870K0J4 0J420160819072510808/19/16 07:25:31  5-MIN K0J4 191225Z AUTO 00000KT 10SM CLR 25/23 A3008 170 90 1400 000/00 RMK AO2 T02500233
63870K0J4 0J420160819073010808/19/16 07:30:31  5-MIN K0J4 191230Z AUTO 00000KT 10SM CLR 26/23 A3008 170 87 1500 000/00 RMK AO2 T02560233
63870K0J4 0J420160819073510808/19/16 07:35:31  5-MIN K0J4 191235Z AUTO 00000KT 10SM CLR 26/23 A3008 170 87 1500 000/00 RMK AO2 T02560233
63870K0J4 0J420160819074010808/19/16 07:40:31  5-MIN K0J4 191240Z AUTO 00000KT 10SM CLR 26/24 A3008 170 90 1500 000/00 RMK AO2 T02560239
63870K0J4 0J420160819074510808/19/16 07:45:31  5-MIN K0J4 191245Z AUTO 00000KT 10SM CLR 26/24 A3008 170 87 1500 000/00 RMK AO2 T02610239
63870K0J4 0J420160819075010808/19/16 07:50:31  5-MIN K0J4 191250Z AUTO 00000KT 10SM CLR 26/24 A3008 170 87 1500 000/00 RMK AO2 T02610239
63870K0J4 0J420160819075511508/19/16 07:55:31  5-MIN K0J4 191255Z AUTO 00000KT 10SM CLR 26/24 A3008 170 87 1500 000/00 RMK AO2 SLP181 T02610239
63870K0J4 0J420160819080010808/19/16 08:00:31  5-MIN K0J4 191300Z AUTO 00000KT 10SM CLR 26/23 A3008 170 84 1500 000/00 RMK AO2 T02610233
63870K0J4 0J420160819080510808/19/16 08:05:31  5-MIN K0J4 191305Z AUTO 00000KT 10SM CLR 27/24 A3008 170 84 1600 000/00 RMK AO2 T02670239
63870K0J4 0J420160819081010808/19/16 08:10:31  5-MIN K0J4 191310Z AUTO 00000KT 10SM CLR 27/24 A3008 170 82 1700 000/00 RMK AO2 T02720239
63870K0J4 0J420160819081510808/19/16 08:15:31  5-MIN K0J4 191315Z AUTO VRB03KT 10SM CLR 27/23 A3008 170 82 1600 VRB/03 RMK AO2 T02670233
63870K0J4 0J420160819082010808/19/16 08:20:31  5-MIN K0J4 191320Z AUTO VRB03KT 10SM CLR 27/23 A3008 170 79 1700 VRB/03 RMK AO2 T02720233
63870K0J4 0J420160819082510808/19/16 08:25:31  5-MIN K0J4 191325Z AUTO VRB04KT 10SM CLR 28/24 A3008 170 79 1700 VRB/04 RMK AO2 T02780239
63870K0J4 0J420160819083010808/19/16 08:30:31  5-MIN K0J4 191330Z AUTO VRB03KT 10SM CLR 27/23 A3008 170 79 1700 VRB/03 RMK AO2 T02720233
63870K0J4 0J420160819083510808/19/16 08:35:31  5-MIN K0J4 191335Z AUTO VRB03KT 10SM CLR 28/23 A3008 170 76 1700 VRB/03 RMK AO2 T02780233
63870K0J4 0J420160819084010808/19/16 08:40:31  5-MIN K0J4 191340Z AUTO 00000KT 10SM CLR 28/23 A3009 160 76 1700 000/00 RMK AO2 T02780233
63870K0J4 0J420160819084510808/19/16 08:45:31  5-MIN K0J4 191345Z AUTO VRB04KT 10SM CLR 28/23 A3009 160 74 1800 VRB/04 RMK AO2 T02830233
63870K0J4 0J420160819085012308/19/16 08:50:31  5-MIN K0J4 191350Z AUTO VRB04KT 10SM CLR 28/23 A3009 160 74 1800 VRB/04 RMK AO2 RAB46E47 P0000 T02830233
63870K0J4 0J420160819085513008/19/16 08:55:31  5-MIN K0J4 191355Z AUTO 00000KT 10SM CLR 28/23 A3009 160 74 1800 000/00 RMK AO2 RAB46E47 SLP184 P0000 T02830233
63870K0J4 0J420160819090010808/19/16 09:00:31  5-MIN K0J4 191400Z AUTO VRB03KT 10SM CLR 28/23 A3009 160 74 1800 VRB/03 RMK AO2 T02830233
63870K0J4 0J420160819090510808/19/16 09:05:31  5-MIN K0J4 191405Z AUTO 00000KT 10SM CLR 28/23 A3009 160 74 1800 000/00 RMK AO2 T02830233
63870K0J4 0J420160819091010808/19/16 09:10:31  5-MIN K0J4 191410Z AUTO 00000KT 10SM CLR 29/24 A3009 160 74 1800 000/00 RMK AO2 T02890239
63870K0J4 0J420160819091510808/19/16 09:15:31  5-MIN K0J4 191415Z AUTO 00000KT 10SM CLR 28/23 A3009 160 74 1800 000/00 RMK AO2 T02830233
63870K0J4 0J420160819092011108/19/16 09:20:31  5-MIN K0J4 191420Z AUTO 00000KT 10SM FEW019 29/23 A3009 160 71 1800 000/00 RMK AO2 T02890233
63870K0J4 0J420160819092511108/19/16 09:25:31  5-MIN K0J4 191425Z AUTO 23004KT 10SM FEW019 28/23 A3009 160 74 1800 230/04 RMK AO2 T02830233
63870K0J4 0J420160819093011108/19/16 09:30:31  5-MIN K0J4 191430Z AUTO 00000KT 10SM FEW021 29/23 A3009 160 71 1800 000/00 RMK AO2 T02890233
63870K0J4 0J420160819093511108/19/16 09:35:31  5-MIN K0J4 191435Z AUTO VRB04KT 10SM FEW019 29/23 A3009 160 71 1800 VRB/04 RMK AO2 T02890233
63870K0J4 0J420160819094011108/19/16 09:40:31  5-MIN K0J4 191440Z AUTO 02004KT 10SM FEW019 29/23 A3009 160 69 1900 020/04 RMK AO2 T02940233
63870K0J4 0J420160819094511108/19/16 09:45:31  5-MIN K0J4 191445Z AUTO VRB03KT 10SM FEW019 29/23 A3009 160 67 1900 VRB/03 RMK AO2 T02940228
63870K0J4 0J420160819095011808/19/16 09:50:31  5-MIN K0J4 191450Z AUTO 36003KT 10SM FEW021 FEW028 29/23 A3009 160 69 1900 360/03 RMK AO2 T02940233
63870K0J4 0J420160819095513708/19/16 09:55:31  5-MIN K0J4 191455Z AUTO VRB03KT 10SM FEW019 SCT026 30/23 A3009 160 67 2000 VRB/03 RMK AO2 SLP185 60000 T03000233 53006
63870K0J4 0J420160819100011808/19/16 10:00:31  5-MIN K0J4 191500Z AUTO 00000KT 10SM SCT019 BKN026 29/23 A3009 160 71 1800 000/00 RMK AO2 T02890233
63870K0J4 0J420160819100511808/19/16 10:05:31  5-MIN K0J4 191505Z AUTO 00000KT 10SM FEW020 SCT026 29/23 A3009 160 69 1800 000/00 RMK AO2 T02890228
63870K0J4 0J420160819101012508/19/16 10:10:31  5-MIN K0J4 191510Z AUTO VRB03KT 10SM FEW020 SCT027 SCT037 29/23 A3009 160 69 1900 VRB/03 RMK AO2 T02940233
63870K0J4 0J420160819101512508/19/16 10:15:31  5-MIN K0J4 191515Z AUTO VRB03KT 10SM FEW020 SCT027 BKN037 30/23 A3009 160 65 2000 VRB/03 RMK AO2 T03000228
63870K0J4 0J420160819102012508/19/16 10:20:31  5-MIN K0J4 191520Z AUTO VRB04KT 10SM BKN022 BKN030 BKN037 29/23 A3009 160 67 1900 VRB/04 RMK AO2 T02940228
63870K0J4 0J420160819102512508/19/16 10:25:31  5-MIN K0J4 191525Z AUTO 00000KT 10SM FEW022 SCT027 BKN033 29/23 A3010 150 71 1800 000/00 RMK AO2 T02890233
63870K0J4 0J420160819103012508/19/16 10:30:31  5-MIN K0J4 191530Z AUTO 00000KT 10SM FEW022 SCT034 SCT042 29/23 A3010 150 69 1800 000/00 RMK AO2 T02890228
63870K0J4 0J420160819103512508/19/16 10:35:31  5-MIN K0J4 191535Z AUTO 00000KT 10SM FEW022 FEW027 SCT036 31/22 A3009 160 60 2000 000/00 RMK AO2 T03060222
63870K0J4 0J420160819104012508/19/16 10:40:31  5-MIN K0J4 191540Z AUTO VRB03KT 10SM FEW022 SCT030 SCT040 31/22 A3009 160 60 2000 VRB/03 RMK AO2 T03060222
63870K0J4 0J420160819104511108/19/16 10:45:31  5-MIN K0J4 191545Z AUTO VRB04KT 10SM SCT027 31/23 A3009 160 62 2000 VRB/04 RMK AO2 T03060228
63870K0J4 0J420160819105011108/19/16 10:50:31  5-MIN K0J4 191550Z AUTO VRB03KT 10SM BKN027 30/22 A3010 150 62 1900 VRB/03 RMK AO2 T03000222
63870K0J4 0J420160819105512508/19/16 10:55:31  5-MIN K0J4 191555Z AUTO 00000KT 10SM SCT029 BKN039 29/22 A3009 160 64 1900 000/00 RMK AO2 SLP186 T02940222
63870K0J4 0J420160819110011808/19/16 11:00:31  5-MIN K0J4 191600Z AUTO 00000KT 10SM BKN029 BKN039 31/22 A3009 160 60 2000 000/00 RMK AO2 T03060222
63870K0J4 0J420160819110511808/19/16 11:05:31  5-MIN K0J4 191605Z AUTO VRB03KT 10SM BKN029 BKN036 31/22 A3009 160 60 2000 VRB/03 RMK AO2 T03060222
63870K0J4 0J420160819111011808/19/16 11:10:31  5-MIN K0J4 191610Z AUTO 00000KT 10SM SCT029 BKN035 30/22 A3009 160 62 2000 000/00 RMK AO2 T03000222
63870K0J4 0J420160819111511808/19/16 11:15:31  5-MIN K0J4 191615Z AUTO 00000KT 10SM SCT029 SCT037 31/23 A3009 160 62 2000 000/00 RMK AO2 T03060228
63870K0J4 0J420160819112011808/19/16 11:20:31  5-MIN K0J4 191620Z AUTO 00000KT 10SM FEW029 SCT037 31/22 A3009 160 58 2100 000/00 RMK AO2 T03110222
63870K0J4 0J420160819112511808/19/16 11:25:31  5-MIN K0J4 191625Z AUTO VRB03KT 10SM FEW029 SCT047 31/22 A3009 160 56 2100 VRB/03 RMK AO2 T03110217
63870K0J4 0J420160819113011808/19/16 11:30:31  5-MIN K0J4 191630Z AUTO VRB04KT 10SM SCT047 SCT055 31/22 A3009 160 56 2100 VRB/04 RMK AO2 T03110217
63870K0J4 0J420160819113511108/19/16 11:35:31  5-MIN K0J4 191635Z AUTO VRB04KT 10SM SCT049 31/22 A3009 160 58 2000 VRB/04 RMK AO2 T03060217
63870K0J4 0J420160819114011808/19/16 11:40:31  5-MIN K0J4 191640Z AUTO VRB03KT 10SM FEW041 SCT049 30/22 A3009 160 62 2000 VRB/03 RMK AO2 T03000222
63870K0J4 0J420160819114511808/19/16 11:45:31  5-MIN K0J4 191645Z AUTO 00000KT 10SM FEW041 SCT049 31/22 A3009 160 58 2000 000/00 RMK AO2 T03060217
63870K0J4 0J420160819115011808/19/16 11:50:31  5-MIN K0J4 191650Z AUTO 00000KT 10SM FEW041 SCT049 31/21 A3008 160 53 2100 000/00 RMK AO2 T03110206
63870K0J4 0J420160819115512508/19/16 11:55:31  5-MIN K0J4 191655Z AUTO VRB04KT 10SM FEW041 FEW049 31/20 A3008 170 51 2100 VRB/04 RMK AO2 SLP182 T03110200
63870K0J4 0J420160819120011108/19/16 12:00:31  5-MIN K0J4 191700Z AUTO 00000KT 10SM FEW041 31/21 A3008 170 54 2100 000/00 RMK AO2 T03110211
63870K0J4 0J420160819120510808/19/16 12:05:31  5-MIN K0J4 191705Z AUTO VRB06KT 10SM CLR 31/21 A3008 170 54 2100 VRB/06 RMK AO2 T03110211
63870K0J4 0J420160819121010808/19/16 12:10:31  5-MIN K0J4 191710Z AUTO 20006KT 10SM CLR 32/21 A3008 170 51 2200 200/06 RMK AO2 T03170206
63870K0J4 0J420160819121510808/19/16 12:15:31  5-MIN K0J4 191715Z AUTO 21004KT 10SM CLR 31/21 A3007 180 53 2100 210/04 RMK AO2 T03110206
63870K0J4 0J420160819122010808/19/16 12:20:31  5-MIN K0J4 191720Z AUTO VRB04KT 10SM CLR 32/21 A3007 180 53 2200 VRB/04 RMK AO2 T03170211
63870K0J4 0J420160819122510808/19/16 12:25:31  5-MIN K0J4 191725Z AUTO VRB04KT 10SM CLR 32/21 A3007 180 51 2200 VRB/04 RMK AO2 T03170206
63870K0J4 0J420160819123010808/19/16 12:30:31  5-MIN K0J4 191730Z AUTO VRB03KT 10SM CLR 32/20 A3007 180 49 2200 VRB/03 RMK AO2 T03170200
63870K0J4 0J420160819123510808/19/16 12:35:31  5-MIN K0J4 191735Z AUTO 18005KT 10SM CLR 32/20 A3006 180 49 2200 180/05 RMK AO2 T03170200
63870K0J4 0J420160819124010808/19/16 12:40:31  5-MIN K0J4 191740Z AUTO VRB05KT 10SM CLR 32/20 A3006 190 49 2200 VRB/05 RMK AO2 T03170200
63870K0J4 0J420160819124510808/19/16 12:45:31  5-MIN K0J4 191745Z AUTO 00000KT 10SM CLR 32/21 A3006 190 51 2200 000/00 RMK AO2 T03170206
63870K0J4 0J420160819125010808/19/16 12:50:31  5-MIN K0J4 191750Z AUTO 00000KT 10SM CLR 32/21 A3005 190 51 2200 000/00 RMK AO2 T03170206
63870K0J4 0J420160819125513908/19/16 12:55:31  5-MIN K0J4 191755Z AUTO 00000KT 10SM CLR 32/21 A3005 190 51 2200 000/00 RMK AO2 SLP172 60000 T03220211 10322 20239 53004
63870K0J4 0J420160819130010808/19/16 13:00:31  5-MIN K0J4 191800Z AUTO VRB03KT 10SM CLR 32/21 A3005 200 49 2200 VRB/03 RMK AO2 T03220206
63870K0J4 0J420160819130509808/19/16 13:05:31  5-MIN K0J4 191805Z AUTO 10SM CLR 32/21 A3005 200 51 2200 M /M RMK AO2 T03220211
63870K0J4 0J420160819131010808/19/16 13:10:31  5-MIN K0J4 191810Z AUTO 15005KT 10SM CLR 32/21 A3005 200 53 2200 150/05 RMK AO2 T03170211
63870K0J4 0J420160819131510808/19/16 13:15:31  5-MIN K0J4 191815Z AUTO 17003KT 10SM CLR 32/21 A3005 200 51 2200 170/03 RMK AO2 T03170206
63870K0J4 0J420160819132010808/19/16 13:20:31  5-MIN K0J4 191820Z AUTO 18004KT 10SM CLR 32/21 A3004 200 51 2200 180/04 RMK AO2 T03170206
63870K0J4 0J420160820105012008/20/16 10:50:31  5-MIN K0J4 201550Z AUTO VRB04KT 10SM SCT026 SCT040 31/23 A3001 240 62 2100 VRB/04 RMK AO2 T03060228 $
63870K0J4 0J420160820105512008/20/16 10:55:31  5-MIN K0J4 201555Z AUTO VRB04KT 10SM FEW026 31/23 A3001 240 65 2100 VRB/04 RMK AO2 SLP156 T03060233 $
63870K0J4 0J420160820110012008/20/16 11:00:31  5-MIN K0J4 201600Z AUTO 20007KT 10SM FEW026 SCT033 31/23 A3000 240 62 2100 200/07 RMK AO2 T03060228 $
63870K0J4 0J420160820110511308/20/16 11:05:31  5-MIN K0J4 201605Z AUTO 21007KT 10SM FEW026 31/23 A3000 240 62 2100 210/07 RMK AO2 T03060228 $
63870K0J4 0J420160820111012008/20/16 11:10:31  5-MIN K0J4 201610Z AUTO 22004KT 10SM FEW026 SCT033 31/23 A3000 240 60 2200 220/04 RMK AO2 T03110228 $
63870K0J4 0J420160820111511308/20/16 11:15:31  5-MIN K0J4 201615Z AUTO 20008KT 10SM SCT029 31/23 A3000 250 63 2200 200/08 RMK AO2 T03110233 $
63870K0J4 0J420160820112012708/20/16 11:20:31  5-MIN K0J4 201620Z AUTO 21008KT 10SM SCT029 SCT036 BKN044 31/23 A3000 250 60 2200 210/08 RMK AO2 T03110228 $
63870K0J4 0J420160820112512708/20/16 11:25:31  5-MIN K0J4 201625Z AUTO 20008KT 10SM SCT029 BKN040 BKN050 31/22 A3000 250 60 2100 200/08 RMK AO2 T03060222 $
63870K0J4 0J420160820113011308/20/16 11:30:31  5-MIN K0J4 201630Z AUTO 16004KT 10SM SCT029 31/22 A2999 250 60 2100 160/04 RMK AO2 T03060222 $
63870K0J4 0J420160820113510308/20/16 11:35:31  5-MIN K0J4 201635Z AUTO 10SM FEW030 31/23 A2999 250 60 2200 M /M RMK AO2 T03110228 $
63870K0J4 0J420160820114012008/20/16 11:40:31  5-MIN K0J4 201640Z AUTO 21003KT 10SM FEW030 FEW041 31/22 A2999 250 58 2200 210/03 RMK AO2 T03110222 $
63870K0J4 0J420160820114510308/20/16 11:45:31  5-MIN K0J4 201645Z AUTO 10SM FEW032 31/23 A2999 250 60 2200 M /M RMK AO2 T03110228 $
63870K0J4 0J420160820115011308/20/16 11:50:31  5-MIN K0J4 201650Z AUTO VRB04KT 10SM SCT032 31/23 A2999 250 60 2200 VRB/04 RMK AO2 T03110228 $
63870K0J4 0J420160820115512708/20/16 11:55:31  5-MIN K0J4 201655Z AUTO 22006KT 10SM SCT030 SCT037 31/23 A2999 250 60 2200 220/06 RMK AO2 SLP150 T03110228 $
63870K0J4 0J420160820120011308/20/16 12:00:31  5-MIN K0J4 201700Z AUTO 19004KT 10SM SCT030 31/23 A2999 260 60 2200 190/04 RMK AO2 T03110228 $
63870K0J4 0J420160820120511308/20/16 12:05:31  5-MIN K0J4 201705Z AUTO 21004KT 10SM FEW032 32/23 A2999 250 58 2300 210/04 RMK AO2 T03170228 $
63870K0J4 0J420160820121011308/20/16 12:10:31  5-MIN K0J4 201710Z AUTO 19004KT 10SM SCT034 31/23 A2999 250 60 2200 190/04 RMK AO2 T03110228 $
63870K0J4 0J420160820121512708/20/16 12:15:31  5-MIN K0J4 201715Z AUTO VRB04KT 10SM -RA SCT034 31/23 A2998 260 63 2200 VRB/04 RMK AO2 RAB15 P0000 T03110233
63870K0J4 0J420160820122012708/20/16 12:20:31  5-MIN K0J4 201720Z AUTO 22006KT 10SM -RA SCT032 31/23 A2999 250 60 2200 220/06 RMK AO2 RAB15 P0000 T03110228
63870K0J4 0J420160820122512608/20/16 12:25:31  5-MIN K0J4 201725Z AUTO 21006KT 10SM FEW034 32/23 A2999 260 58 2300 210/06 RMK AO2 RAB15E25 P0000 T03170228
63870K0J4 0J420160820123013308/20/16 12:30:31  5-MIN K0J4 201730Z AUTO 20006KT 10SM SCT034 SCT055 31/22 A2999 260 58 2200 200/06 RMK AO2 RAB15E25 P0000 T03110222
63870K0J4 0J420160820123513308/20/16 12:35:31  5-MIN K0J4 201735Z AUTO 00000KT 10SM SCT034 SCT055 32/22 A2998 260 56 2300 000/00 RMK AO2 RAB15E25 P0000 T03170222
63870K0J4 0J420160820124011608/20/16 12:40:31  5-MIN K0J4 201740Z AUTO 10SM FEW034 32/23 A2998 260 58 2300 M /M RMK AO2 RAB15E25 P0000 T03170228
63870K0J4 0J420160820124512608/20/16 12:45:31  5-MIN K0J4 201745Z AUTO VRB04KT 10SM FEW034 32/22 A2998 260 56 2300 VRB/04 RMK AO2 RAB15E25 P0000 T03170222
63870K0J4 0J420160820125012608/20/16 12:50:31  5-MIN K0J4 201750Z AUTO 20009KT 10SM FEW034 32/23 A2998 260 57 2300 200/09 RMK AO2 RAB15E25 P0000 T03220228
63870K0J4 0J420160820125516408/20/16 12:55:31  5-MIN K0J4 201755Z AUTO 22007KT 10SM FEW034 FEW050 32/22 A2998 260 56 2300 220/07 RMK AO2 RAB15E25 SLP147 P0000 60000 T03170222 10322 20233 55000
63870K0J4 0J420160820130011808/20/16 13:00:31  5-MIN K0J4 201800Z AUTO 21007KT 10SM FEW037 FEW050 32/23 A2998 260 58 2300 210/07 RMK AO2 T03170228
63870K0J4 0J420160820130511808/20/16 13:05:31  5-MIN K0J4 201805Z AUTO 20007KT 10SM FEW037 FEW049 32/23 A2997 270 57 2300 200/07 RMK AO2 T03220228
63870K0J4 0J420160820131011808/20/16 13:10:31  5-MIN K0J4 201810Z AUTO 21004KT 10SM FEW040 FEW049 32/22 A2997 270 55 2300 210/04 RMK AO2 T03220222
63870K0J4 0J420160820131511808/20/16 13:15:31  5-MIN K0J4 201815Z AUTO 19006KT 10SM FEW040 FEW049 32/22 A2997 270 55 2300 190/06 RMK AO2 T03220222
63870K0J4 0J420160820132012508/20/16 13:20:31  5-MIN K0J4 201820Z AUTO 21008KT 10SM FEW040 FEW049 SCT065 32/22 A2997 270 56 2300 210/08 RMK AO2 T03170222
63870K0J4 0J420160820132512508/20/16 13:25:31  5-MIN K0J4 201825Z AUTO 19007KT 10SM FEW040 FEW049 BKN065 32/22 A2996 280 55 2300 190/07 RMK AO2 T03220222
63870K0J4 0J420160820133011808/20/16 13:30:31  5-MIN K0J4 201830Z AUTO 22008KT 10SM FEW049 SCT065 33/22 A2996 280 53 2400 220/08 RMK AO2 T03280222
63870K0J4 0J420160820133512508/20/16 13:35:31  5-MIN K0J4 201835Z AUTO 21008KT 10SM FEW043 SCT060 BKN100 32/22 A2996 280 53 2300 210/08 RMK AO2 T03220217
63870K0J4 0J420160820134012508/20/16 13:40:31  5-MIN K0J4 201840Z AUTO VRB05KT 10SM SCT043 BKN060 BKN070 32/22 A2996 280 55 2400 VRB/05 RMK AO2 T03220222
63870K0J4 0J420160820134511808/20/16 13:45:31  5-MIN K0J4 201845Z AUTO 22007KT 10SM BKN041 BKN065 32/22 A2996 280 56 2300 220/07 RMK AO2 T03170222
63870K0J4 0J420160820135011808/20/16 13:50:31  5-MIN K0J4 201850Z AUTO 22008KT 10SM SCT041 BKN065 32/22 A2996 280 56 2300 220/08 RMK AO2 T03170222
63870K0J4 0J420160820135513208/20/16 13:55:31  5-MIN K0J4 201855Z AUTO 22009KT 10SM SCT041 BKN070 BKN100 33/23 A2995 290 55 2400 220/09 RMK AO2 SLP138 T03280228
63870K0J4 0J420160820140012508/20/16 14:00:31  5-MIN K0J4 201900Z AUTO 22007KT 10SM SCT041 BKN070 BKN100 32/23 A2995 290 57 2400 220/07 RMK AO2 T03220228
63870K0J4 0J420160820140511808/20/16 14:05:31  5-MIN K0J4 201905Z AUTO 19010KT 10SM SCT039 BKN070 32/23 A2994 290 57 2400 190/10 RMK AO2 T03220228
63870K0J4 0J420160820141011808/20/16 14:10:31  5-MIN K0J4 201910Z AUTO 21012KT 10SM SCT039 BKN070 33/23 A2994 300 55 2400 210/12 RMK AO2 T03280228
63870K0J4 0J420160820141511808/20/16 14:15:31  5-MIN K0J4 201915Z AUTO 20010KT 10SM FEW037 SCT070 32/23 A2994 300 57 2400 200/10 RMK AO2 T03220228
63870K0J4 0J420160820142011808/20/16 14:20:31  5-MIN K0J4 201920Z AUTO 20010KT 10SM FEW037 FEW070 32/22 A2994 300 55 2400 200/10 RMK AO2 T03220222
63870K0J4 0J420160820142511608/20/16 14:25:31  5-MIN K0J4 201925Z AUTO 23009KT 10SM VCTS FEW037 33/23 A2994 300 55 2400 230/09 RMK AO2 T03280228
63870K0J4 0J420160820143012308/20/16 14:30:31  5-MIN K0J4 201930Z AUTO 23007KT 10SM VCTS FEW037 FEW060 32/22 A2994 300 55 2400 230/07 RMK AO2 T03220222
63870K0J4 0J420160820143512308/20/16 14:35:31  5-MIN K0J4 201935Z AUTO 26005KT 10SM VCTS FEW044 FEW060 32/22 A2995 290 56 2300 260/05 RMK AO2 T03170222
63870K0J4 0J420160820144012308/20/16 14:40:31  5-MIN K0J4 201940Z AUTO VRB06KT 10SM VCTS SCT042 SCT055 30/22 A2994 290 62 2100 VRB/06 RMK AO2 T03000222
63870K0J4 0J420160820144512508/20/16 14:45:31  5-MIN K0J4 201945Z AUTO VRB04KT 10SM SCT042 SCT049 BKN060 29/22 A2994 300 67 2000 VRB/04 RMK AO2 T02890222
63870K0J4 0J420160820145011808/20/16 14:50:31  5-MIN K0J4 201950Z AUTO VRB04KT 10SM SCT044 SCT055 28/22 A2994 300 69 1900 VRB/04 RMK AO2 T02830222
63870K0J4 0J420160820145511808/20/16 14:55:31  5-MIN K0J4 201955Z AUTO VRB05KT 10SM SCT044 28/22 A2994 300 69 1900 VRB/05 RMK AO2 SLP134 T02780217
63870K0J4 0J420160820150011108/20/16 15:00:31  5-MIN K0J4 202000Z AUTO VRB04KT 10SM BKN045 28/22 A2994 290 69 1900 VRB/04 RMK AO2 T02780217
63870K0J4 0J420160820150512508/20/16 15:05:31  5-MIN K0J4 202005Z AUTO VRB05KT 10SM FEW043 SCT050 BKN070 27/22 A2995 290 71 1800 VRB/05 RMK AO2 T02720217
63870K0J4 0J420160820151013408/20/16 15:10:31  5-MIN K0J4 202010Z AUTO VRB06KT 10SM -RA FEW047 BKN070 27/22 A2995 290 74 1800 VRB/06 RMK AO2 RAB07 P0000 T02720222
63870K0J4 0J420160820151513908/20/16 15:15:31  5-MIN K0J4 202015Z AUTO 18007KT 10SM VCTS -RA FEW047 BKN070 28/22 A2994 290 71 1900 180/07 RMK AO2 RAB07 P0000 T02780222
63870K0J4 0J420160820152014508/20/16 15:20:31  5-MIN K0J4 202020Z AUTO VRB03KT 10SM VCTS FEW047 BKN070 BKN100 27/22 A2994 290 74 1800 VRB/03 RMK AO2 RAB07E16 P0000 T02720222
63870K0J4 0J420160820152514508/20/16 15:25:31  5-MIN K0J4 202025Z AUTO 00000KT 10SM VCTS FEW047 SCT070 BKN110 28/23 A2994 290 74 1900 000/00 RMK AO2 RAB07E16 P0000 T02780228
63870K0J4 0J420160820153013808/20/16 15:30:31  5-MIN K0J4 202030Z AUTO 00000KT 10SM VCTS SCT070 BKN110 28/22 A2995 290 71 1900 000/00 RMK AO2 RAB07E16 P0000 T02780222
63870K0J4 0J420160820153514208/20/16 15:35:31  5-MIN K0J4 202035Z AUTO 00000KT 10SM TS FEW070 BKN110 28/22 A2995 290 71 1900 000/00 RMK AO2 RAB07E16 TSB34 P0000 T02780222
63870K0J4 0J420160820154013808/20/16 15:40:31  5-MIN K0J4 202040Z AUTO 33003KT 10SM TS SCT110 28/22 A2995 290 71 1900 330/03 RMK AO2 RAB07E16 TSB34B37 P0000 T02780222
63870K0J4 0J420160820154513808/20/16 15:45:31  5-MIN K0J4 202045Z AUTO 31003KT 10SM TS SCT110 28/23 A2995 290 74 1900 310/03 RMK AO2 RAB07E16 TSB34B37 P0000 T02780228
63870K0J4 0J420160820155013808/20/16 15:50:31  5-MIN K0J4 202050Z AUTO 00000KT 10SM TS SCT110 28/23 A2995 290 74 1900 000/00 RMK AO2 RAB07E16 TSB34B37 P0000 T02780228
63870K0J4 0J420160820155513308/20/16 15:55:31  5-MIN K0J4 202055Z AUTO VRB03KT 10SM VCTS FEW110 28/23 A2995 290 74 1900 VRB/03 RMK AO2 RAB07E16 TSB34B37E52 P0000
63870K0J4 0J420160820160012308/20/16 16:00:31  5-MIN K0J4 202100Z AUTO VRB04KT 10SM VCTS FEW036 SCT110 28/23 A2996 280 74 1900 VRB/04 RMK AO2 T02780228
63870K0J4 0J420160820160512308/20/16 16:05:31  5-MIN K0J4 202105Z AUTO VRB06KT 10SM VCTS SCT036 SCT055 27/23 A2995 280 76 1800 VRB/06 RMK AO2 T02720228
63870K0J4 0J420160820161013008/20/16 16:10:31  5-MIN K0J4 202110Z AUTO VRB04KT 10SM VCTS SCT036 BKN049 BKN055 27/23 A2996 280 76 1800 VRB/04 RMK AO2 T02720228
63870K0J4 0J420160820161514508/20/16 16:15:31  5-MIN K0J4 202115Z AUTO VRB03KT 9SM VCTS -RA SCT036 BKN050 BKN065 27/23 A2995 280 79 1700 VRB/03 RMK AO2 RAB13 P0000 T02670228
63870K0J4 0J420160820162014408/20/16 16:20:31  5-MIN K0J4 202120Z AUTO VRB05KT 2 1/2SM +RA BKN040 BKN050 BKN065 26/23 A2996 280 84 1600 VRB/05 RMK AO2 RAB13 P0004 T02560228
63870K0J4 0J420160820162515308/20/16 16:25:31  5-MIN K0J4 202125Z AUTO VRB04KT 1SM +RA BR FEW030 BKN040 OVC050 25/23 A2996 280 90 1500 VRB/04 RMK AO2 VIS 1/2V3 RAB13 P0011 T02500233
63870K0J4 0J420160820163014508/20/16 16:30:31  5-MIN K0J4 202130Z AUTO VRB03KT 1/2SM +RA FG BKN030 BKN037 OVC060 24/23 A2996 280 93 1500 VRB/03 RMK AO2 RAB13 P0026 T02440233
63870K0J4 0J420160820163514508/20/16 16:35:31  5-MIN K0J4 202135Z AUTO 23003KT 1/2SM +RA FG BKN030 BKN036 OVC044 24/23 A2996 280 93 1500 230/03 RMK AO2 RAB13 P0028 T02440233
63870K0J4 0J420160820164014508/20/16 16:40:31  5-MIN K0J4 202140Z AUTO 22003KT 3/4SM +RA BR BKN035 BKN042 OVC060 24/23 A2996 280 93 1500 220/03 RMK AO2 RAB13 P0035 T02440233
63870K0J4 0J420160820164512808/20/16 16:45:31  5-MIN K0J4 202145Z AUTO 1/2SM +RA FG BKN033 OVC055 24/23 A2996 280 90 1500 M /M RMK AO2 RAB13 P0046 T02440228
63870K0J4 0J420160820165013108/20/16 16:50:31  5-MIN K0J4 202150Z AUTO 17008KT 1/4SM +RA FG OVC028 24/22 A2996 280 90 1400 170/08 RMK AO2 RAB13 P0063 T02390222
63870K0J4 0J420160820165515208/20/16 16:55:31  5-MIN K0J4 202155Z AUTO 18007KT 1/2SM +RA FG BKN027 BKN032 OVC050 23/22 A2996 280 93 1400 180/07 RMK AO2 RAB13 SLP142 P0070 T02330222
63870K0J4 0J420160820170014008/20/16 17:00:31  5-MIN K0J4 202200Z AUTO 00000KT 1 1/4SM RA BR BKN031 BKN055 OVC100 24/23 A2996 280 93 1400 000/00 RMK AO2 P0000 T02390228
63870K0J4 0J420160820170513708/20/16 17:05:31  5-MIN K0J4 202205Z AUTO VRB03KT 4SM -RA BR BKN029 BKN035 OVC100 24/23 A2997 270 93 1400 VRB/03 RMK AO2 P0000 T02390228
63870K0J4 0J420160820171013508/20/16 17:10:31  5-MIN K0J4 202210Z AUTO VRB03KT 10SM -RA SCT026 BKN035 OVC095 24/23 A2997 270 90 1500 VRB/03 RMK AO2 P0000 T02440228
63870K0J4 0J420160820171513708/20/16 17:15:31  5-MIN K0J4 202215Z AUTO 00000KT 10SM SCT026 BKN035 BKN095 24/23 A2997 270 93 1500 000/00 RMK AO2 RAE15 P0000 T02440233
63870K0J4 0J420160820172014608/20/16 17:20:31  5-MIN K0J4 202220Z AUTO VRB03KT 10SM TS FEW030 SCT037 BKN095 25/23 A2997 270 90 1500 VRB/03 RMK AO2 RAE15 TSB16 P0000 T02500233
63870K0J4 0J420160820172514608/20/16 17:25:31  5-MIN K0J4 202225Z AUTO 11004KT 10SM TS FEW030 SCT037 SCT095 25/23 A2997 270 90 1500 110/04 RMK AO2 RAE15 TSB16 P0000 T02500233
63870K0J4 0J420160820173013908/20/16 17:30:31  5-MIN K0J4 202230Z AUTO 10004KT 10SM TS FEW028 FEW037 25/23 A2997 270 87 1500 100/04 RMK AO2 RAE15 TSB16 P0000 T02500228
63870K0J4 0J420160820173513208/20/16 17:35:31  5-MIN K0J4 202235Z AUTO 09004KT 10SM TS FEW037 26/23 A2996 280 84 1600 090/04 RMK AO2 RAE15 TSB16 P0000 T02560228
63870K0J4 0J420160820174012908/20/16 17:40:31  5-MIN K0J4 202240Z AUTO 08004KT 10SM TS CLR 26/23 A2996 280 87 1600 080/04 RMK AO2 RAE15 TSB16 P0000 T02560233
63870K0J4 0J420160820174513208/20/16 17:45:31  5-MIN K0J4 202245Z AUTO 12004KT 10SM TS CLR 26/23 A2996 280 87 1600 120/04 RMK AO2 RAE15 TSB16B42 P0000 T02560233
63870K0J4 0J420160820175013208/20/16 17:50:31  5-MIN K0J4 202250Z AUTO 11005KT 10SM TS CLR 26/23 A2996 280 87 1600 110/05 RMK AO2 RAE15 TSB16B42 P0000 T02560233
63870K0J4 0J420160820175513908/20/16 17:55:31  5-MIN K0J4 202255Z AUTO 12003KT 10SM TS CLR 26/23 A2996 280 87 1600 120/03 RMK AO2 RAE15 TSB16B42 SLP142 P0000 T02560233
63870K0J4 0J420160820180010808/20/16 18:00:31  5-MIN K0J4 202300Z AUTO 00000KT 10SM CLR 26/23 A2997 270 87 1600 000/00 RMK AO2 T02560233
63870K0J4 0J420160820180510808/20/16 18:05:31  5-MIN K0J4 202305Z AUTO 00000KT 10SM CLR 26/23 A2997 270 87 1600 000/00 RMK AO2 T02560233
63870K0J4 0J420160820181010808/20/16 18:10:31  5-MIN K0J4 202310Z AUTO 00000KT 10SM CLR 26/23 A2996 280 87 1600 000/00 RMK AO2 T02560233
63870K0J4 0J420160820181510808/20/16 18:15:31  5-MIN K0J4 202315Z AUTO 00000KT 10SM CLR 26/23 A2996 280 87 1600 000/00 RMK AO2 T02560233
63870K0J4 0J420160820182010808/20/16 18:20:31  5-MIN K0J4 202320Z AUTO 00000KT 10SM CLR 26/23 A2996 280 87 1600 000/00 RMK AO2 T02560233
63870K0J4 0J420160820182510808/20/16 18:25:31  5-MIN K0J4 202325Z AUTO 00000KT 10SM CLR 26/23 A2996 280 87 1600 000/00 RMK AO2 T02560233
63870K0J4 0J420160820183010808/20/16 18:30:31  5-MIN K0J4 202330Z AUTO 19003KT 10SM CLR 26/24 A2996 280 90 1600 190/03 RMK AO2 T02560239
63870K0J4 0J420160820183510808/20/16 18:35:31  5-MIN K0J4 202335Z AUTO 00000KT 10SM CLR 26/24 A2996 280 90 1600 000/00 RMK AO2 T02560239
63870K0J4 0J420160820184010808/20/16 18:40:31  5-MIN K0J4 202340Z AUTO 00000KT 10SM CLR 26/24 A2996 280 90 1600 000/00 RMK AO2 T02560239
63870K0J4 0J420160820184510808/20/16 18:45:31  5-MIN K0J4 202345Z AUTO 00000KT 10SM CLR 26/24 A2995 280 90 1600 000/00 RMK AO2 T02560239
63870K0J4 0J420160820185010808/20/16 18:50:31  5-MIN K0J4 202350Z AUTO 00000KT 10SM CLR 26/24 A2996 280 90 1600 000/00 RMK AO2 T02560239
63870K0J4 0J420160820185513908/20/16 18:55:31  5-MIN K0J4 202355Z AUTO 21003KT 10SM CLR 26/24 A2996 280 90 1600 210/03 RMK AO2 SLP139 60070 T02560239 10328 20233 55008
63870K0J4 0J420160820190010808/20/16 19:00:31  5-MIN K0J4 210000Z AUTO 00000KT 10SM CLR 26/24 A2996 280 90 1600 000/00 RMK AO2 T02560239
63870K0J4 0J420160820190510808/20/16 19:05:31  5-MIN K0J4 210005Z AUTO 00000KT 10SM CLR 26/24 A2996 280 90 1600 000/00 RMK AO2 T02560239
63870K0J4 0J420160820191010808/20/16 19:10:31  5-MIN K0J4 210010Z AUTO 00000KT 10SM CLR 26/24 A2997 270 90 1600 000/00 RMK AO2 T02560239
63870K0J4 0J420160820191510808/20/16 19:15:31  5-MIN K0J4 210015Z AUTO 00000KT 10SM CLR 26/24 A2997 270 90 1600 000/00 RMK AO2 T02560239
63870K0J4 0J420160820192010808/20/16 19:20:31  5-MIN K0J4 210020Z AUTO 00000KT 10SM CLR 25/24 A2997 270 93 1500 000/00 RMK AO2 T02500239
63870K0J4 0J420160820192510808/20/16 19:25:31  5-MIN K0J4 210025Z AUTO 23003KT 10SM CLR 26/24 A2997 270 90 1600 230/03 RMK AO2 T02560239
63870K0J4 0J420160820193010808/20/16 19:30:31  5-MIN K0J4 210030Z AUTO 00000KT 10SM CLR 26/24 A2997 270 93 1600 000/00 RMK AO2 T02560244
63870K0J4 0J420160820193510808/20/16 19:35:31  5-MIN K0J4 210035Z AUTO 00000KT 10SM CLR 26/24 A2997 270 93 1600 000/00 RMK AO2 T02560244
63870K0J4 0J420160820194010808/20/16 19:40:31  5-MIN K0J4 210040Z AUTO 00000KT 10SM CLR 26/24 A2997 270 93 1600 000/00 RMK AO2 T02560244
63870K0J4 0J420160820194510808/20/16 19:45:31  5-MIN K0J4 210045Z AUTO 00000KT 10SM CLR 26/24 A2997 270 93 1600 000/00 RMK AO2 T02560244
63870K0J4 0J420160820195010808/20/16 19:50:31  5-MIN K0J4 210050Z AUTO 00000KT 10SM CLR 26/24 A2997 270 90 1600 000/00 RMK AO2 T02560239
63870K0J4 0J420160820195511508/20/16 19:55:31  5-MIN K0J4 210055Z AUTO 00000KT 10SM CLR 26/24 A2997 270 90 1600 000/00 RMK AO2 SLP143 T02560239
63870K0J4 0J420160820200010808/20/16 20:00:31  5-MIN K0J4 210100Z AUTO 00000KT 10SM CLR 26/24 A2997 270 90 1600 000/00 RMK AO2 T02560239
63870K0J4 0J420160820200510808/20/16 20:05:31  5-MIN K0J4 210105Z AUTO 00000KT 10SM CLR 26/24 A2997 270 93 1600 000/00 RMK AO2 T02560244
63870K0J4 0J420160820201010808/20/16 20:10:31  5-MIN K0J4 210110Z AUTO 00000KT 10SM CLR 25/24 A2997 270 93 1500 000/00 RMK AO2 T02500239
63870K0J4 0J420160820201510808/20/16 20:15:31  5-MIN K0J4 210115Z AUTO 00000KT 10SM CLR 25/24 A2997 270 93 1500 000/00 RMK AO2 T02500239
63870K0J4 0J420160820202010808/20/16 20:20:31  5-MIN K0J4 210120Z AUTO 00000KT 10SM CLR 25/24 A2997 270 93 1500 000/00 RMK AO2 T02500239
63870K0J4 0J420160820202510808/20/16 20:25:31  5-MIN K0J4 210125Z AUTO 00000KT 10SM CLR 25/24 A2997 270 93 1500 000/00 RMK AO2 T02500239
63870K0J4 0J420160820203010808/20/16 20:30:31  5-MIN K0J4 210130Z AUTO 00000KT 10SM CLR 25/24 A2998 260 93 1500 000/00 RMK AO2 T02500239
63870K0J4 0J420160820203510808/20/16 20:35:31  5-MIN K0J4 210135Z AUTO 00000KT 10SM CLR 25/24 A2998 260 93 1500 000/00 RMK AO2 T02500239
63870K0J4 0J420160820204010808/20/16 20:40:31  5-MIN K0J4 210140Z AUTO 00000KT 10SM CLR 26/24 A2998 260 90 1600 000/00 RMK AO2 T02560239
63870K0J4 0J420160820204510808/20/16 20:45:31  5-MIN K0J4 210145Z AUTO 00000KT 10SM CLR 25/24 A2998 260 93 1500 000/00 RMK AO2 T02500239
63870K0J4 0J420160820205010808/20/16 20:50:31  5-MIN K0J4 210150Z AUTO 00000KT 10SM CLR 25/24 A2998 260 93 1500 000/00 RMK AO2 T02500239
63870K0J4 0J420160820205511508/20/16 20:55:31  5-MIN K0J4 210155Z AUTO 00000KT 10SM CLR 25/24 A2998 260 93 1500 000/00 RMK AO2 SLP148 T02500239
63870K0J4 0J420160820210010808/20/16 21:00:31  5-MIN K0J4 210200Z AUTO 00000KT 10SM CLR 25/24 A2998 260 93 1500 000/00 RMK AO2 T02500239
63870K0J4 0J420160820210510808/20/16 21:05:31  5-MIN K0J4 210205Z AUTO 00000KT 10SM CLR 25/24 A2998 260 93 1500 000/00 RMK AO2 T02500239
63870K0J4 0J420160820211010808/20/16 21:10:31  5-MIN K0J4 210210Z AUTO 00000KT 10SM CLR 25/24 A2999 260 93 1500 000/00 RMK AO2 T02500239
63870K0J4 0J420160820211510808/20/16 21:15:31  5-MIN K0J4 210215Z AUTO 22003KT 10SM CLR 25/24 A2998 260 93 1500 220/03 RMK AO2 T02500239
63870K0J4 0J420160820212010808/20/16 21:20:31  5-MIN K0J4 210220Z AUTO 21003KT 10SM CLR 25/24 A2998 260 93 1500 210/03 RMK AO2 T02500239
63870K0J4 0J420160820212510808/20/16 21:25:31  5-MIN K0J4 210225Z AUTO 21003KT 10SM CLR 25/24 A2998 260 93 1500 210/03 RMK AO2 T02500239
63870K0J4 0J420160820213010808/20/16 21:30:31  5-MIN K0J4 210230Z AUTO 21003KT 10SM CLR 25/24 A2998 260 93 1500 210/03 RMK AO2 T02500239
63870K0J4 0J420160820213510808/20/16 21:35:31  5-MIN K0J4 210235Z AUTO 21003KT 10SM CLR 25/24 A2999 260 93 1500 210/03 RMK AO2 T02500239
63870K0J4 0J420160820214010808/20/16 21:40:31  5-MIN K0J4 210240Z AUTO 20003KT 10SM CLR 25/24 A2999 260 93 1500 200/03 RMK AO2 T02500239
63870K0J4 0J420160820214510808/20/16 21:45:31  5-MIN K0J4 210245Z AUTO 21003KT 10SM CLR 25/24 A2999 260 93 1500 210/03 RMK AO2 T02500239
63870K0J4 0J420160820215010808/20/16 21:50:31  5-MIN K0J4 210250Z AUTO 20003KT 10SM CLR 25/24 A2999 260 93 1500 200/03 RMK AO2 T02500239
63870K0J4 0J420160820215512108/20/16 21:55:31  5-MIN K0J4 210255Z AUTO 00000KT 10SM CLR 25/24 A2999 250 93 1500 000/00 RMK AO2 SLP150 T02500239 50001
63870K0J4 0J420160820220010808/20/16 22:00:31  5-MIN K0J4 210300Z AUTO 00000KT 10SM CLR 25/24 A2999 250 93 1500 000/00 RMK AO2 T02500239
63870K0J4 0J420160820220510808/20/16 22:05:31  5-MIN K0J4 210305Z AUTO 00000KT 10SM CLR 25/24 A2999 250 93 1500 000/00 RMK AO2 T02500239
63870K0J4 0J420160820221010808/20/16 22:10:31  5-MIN K0J4 210310Z AUTO 00000KT 10SM CLR 25/23 A2999 260 90 1500 000/00 RMK AO2 T02500233
63870K0J4 0J420160820221510808/20/16 22:15:31  5-MIN K0J4 210315Z AUTO 22003KT 10SM CLR 25/23 A2999 260 90 1500 220/03 RMK AO2 T02500233
63870K0J4 0J420160820222010808/20/16 22:20:31  5-MIN K0J4 210320Z AUTO 00000KT 10SM CLR 25/23 A2998 260 90 1500 000/00 RMK AO2 T02500233
63870K0J4 0J420160820223007308/20/16 22:30:31  5-MIN K0J4 210330Z AUTO 00000KT M M M 000/00 RMK AO2 $
63870K0J4 0J420160820223510108/20/16 22:35:31  5-MIN K0J4 210335Z AUTO 00000KT 24/23 A2998 260 93 1500 000/00 RMK AO2 T02440233 $
63870K0J4 0J420160820224010608/20/16 22:40:31  5-MIN K0J4 210340Z AUTO 00000KT 10SM 25/23 A2998 260 90 1500 000/00 RMK AO2 T02500233 $
63870K0J4 0J420160820224510608/20/16 22:45:31  5-MIN K0J4 210345Z AUTO 00000KT 10SM 25/23 A2998 260 90 1500 000/00 RMK AO2 T02500233 $
63870K0J4 0J420160820225010608/20/16 22:50:31  5-MIN K0J4 210350Z AUTO 00000KT 10SM 24/23 A2998 260 93 1500 000/00 RMK AO2 T02440233 $
63870K0J4 0J420160820225511308/20/16 22:55:31  5-MIN K0J4 210355Z AUTO 00000KT 10SM 24/23 A2998 260 93 1500 000/00 RMK AO2 SLP146 T02440233 $
63870K0J4 0J420160820230011008/20/16 23:00:31  5-MIN K0J4 210400Z AUTO 00000KT 10SM CLR 24/23 A2998 260 93 1500 000/00 RMK AO2 T02440233 $
63870K0J4 0J420160820230511008/20/16 23:05:31  5-MIN K0J4 210405Z AUTO 00000KT 10SM CLR 24/23 A2998 260 93 1500 000/00 RMK AO2 T02440233 $
63870K0J4 0J420160820231011008/20/16 23:10:31  5-MIN K0J4 210410Z AUTO 00000KT 10SM CLR 24/23 A2998 260 93 1500 000/00 RMK AO2 T02440233 $
63870K0J4 0J420160820231511008/20/16 23:15:31  5-MIN K0J4 210415Z AUTO 00000KT 10SM CLR 24/23 A2998 260 93 1400 000/00 RMK AO2 T02390228 $
63870K0J4 0J420160820232011008/20/16 23:20:31  5-MIN K0J4 210420Z AUTO 00000KT 10SM CLR 24/23 A2998 260 93 1400 000/00 RMK AO2 T02390228 $
63870K0J4 0J420160820232511008/20/16 23:25:31  5-MIN K0J4 210425Z AUTO 22003KT 10SM CLR 24/23 A2998 260 97 1400 220/03 RMK AO2 T02390233 $
63870K0J4 0J420160820233011008/20/16 23:30:31  5-MIN K0J4 210430Z AUTO 20003KT 10SM CLR 24/23 A2998 260 93 1500 200/03 RMK AO2 T02440233 $
63870K0J4 0J420160820233511008/20/16 23:35:31  5-MIN K0J4 210435Z AUTO 00000KT 10SM CLR 24/23 A2998 260 93 1400 000/00 RMK AO2 T02390228 $
63870K0J4 0J420160820234011008/20/16 23:40:31  5-MIN K0J4 210440Z AUTO 00000KT 10SM CLR 24/23 A2998 260 93 1400 000/00 RMK AO2 T02390228 $
63870K0J4 0J420160820234511008/20/16 23:45:31  5-MIN K0J4 210445Z AUTO 20004KT 10SM CLR 24/23 A2998 260 93 1400 200/04 RMK AO2 T02390228 $
63870K0J4 0J420160820235011008/20/16 23:50:31  5-MIN K0J4 210450Z AUTO 20003KT 10SM CLR 24/23 A2998 260 90 1500 200/03 RMK AO2 T02440228 $
63870K0J4 0J420160820235512708/20/16 23:55:31  5-MIN K0J4 210455Z AUTO 00000KT 10SM CLR 24/23 A2998 260 93 1400 000/00 RMK AO2 SLP147 T02390228 403280222 $
63870K0J4 0J420160821000011008/21/16 00:00:31  5-MIN K0J4 210500Z AUTO 00000KT 10SM CLR 24/23 A2998 260 90 1500 000/00 RMK AO2 T02440228 $
63870K0J4 0J420160821000511008/21/16 00:05:31  5-MIN K0J4 210505Z AUTO 00000KT 10SM CLR 24/23 A2998 260 93 1500 000/00 RMK AO2 T02440233 $
63870K0J4 0J420160821001011008/21/16 00:10:31  5-MIN K0J4 210510Z AUTO 00000KT 10SM CLR 24/23 A2998 260 93 1500 000/00 RMK AO2 T02440233 $
63870K0J4 0J420160821001511008/21/16 00:15:31  5-MIN K0J4 210515Z AUTO 00000KT 10SM CLR 24/23 A2998 260 90 1500 000/00 RMK AO2 T02440228 $
63870K0J4 0J420160821002011008/21/16 00:20:31  5-MIN K0J4 210520Z AUTO 00000KT 10SM CLR 24/23 A2998 260 90 1500 000/00 RMK AO2 T02440228 $
63870K0J4 0J420160821002511008/21/16 00:25:31  5-MIN K0J4 210525Z AUTO 00000KT 10SM CLR 24/23 A2998 260 93 1500 000/00 RMK AO2 T02440233 $
63870K0J4 0J420160821003011008/21/16 00:30:31  5-MIN K0J4 210530Z AUTO 00000KT 10SM CLR 24/23 A2998 260 93 1400 000/00 RMK AO2 T02390228 $
63870K0J4 0J420160821003511008/21/16 00:35:31  5-MIN K0J4 210535Z AUTO 00000KT 10SM CLR 24/23 A2998 260 93 1400 000/00 RMK AO2 T02390228 $
63870K0J4 0J420160821004011008/21/16 00:40:31  5-MIN K0J4 210540Z AUTO 00000KT 10SM CLR 24/23 A2998 260 90 1500 000/00 RMK AO2 T02440228 $
63870K0J4 0J420160821004511008/21/16 00:45:31  5-MIN K0J4 210545Z AUTO 24003KT 10SM CLR 24/23 A2998 260 93 1400 240/03 RMK AO2 T02390228 $
63870K0J4 0J420160821005011008/21/16 00:50:31  5-MIN K0J4 210550Z AUTO 22003KT 10SM CLR 24/23 A2997 270 90 1500 220/03 RMK AO2 T02440228 $
63870K0J4 0J420160821005512908/21/16 00:55:31  5-MIN K0J4 210555Z AUTO 23003KT 10SM CLR 24/23 A2997 270 90 1500 230/03 RMK AO2 SLP145 T02440228 10256 20239 $
63870K0J4 0J420160821010011008/21/16 01:00:31  5-MIN K0J4 210600Z AUTO 23003KT 10SM CLR 24/23 A2997 270 93 1400 230/03 RMK AO2 T02390228 $
63870K0J4 0J420160821010511008/21/16 01:05:31  5-MIN K0J4 210605Z AUTO 22003KT 10SM CLR 24/23 A2997 270 90 1500 220/03 RMK AO2 T02440228 $
63870K0J4 0J420160821011011008/21/16 01:10:31  5-MIN K0J4 210610Z AUTO 00000KT 10SM CLR 24/23 A2997 270 93 1400 000/00 RMK AO2 T02390228 $
63870K0J4 0J420160821011511008/21/16 01:15:31  5-MIN K0J4 210615Z AUTO 00000KT 10SM CLR 24/23 A2997 270 93 1400 000/00 RMK AO2 T02390228 $
63870K0J4 0J420160821012011008/21/16 01:20:31  5-MIN K0J4 210620Z AUTO 22003KT 10SM CLR 24/23 A2997 270 93 1400 220/03 RMK AO2 T02390228 $
63870K0J4 0J420160821012511008/21/16 01:25:31  5-MIN K0J4 210625Z AUTO 00000KT 10SM CLR 24/23 A2997 270 93 1400 000/00 RMK AO2 T02390228 $
63870K0J4 0J420160821013011008/21/16 01:30:31  5-MIN K0J4 210630Z AUTO 00000KT 10SM CLR 24/23 A2997 270 93 1400 000/00 RMK AO2 T02390228 $
63870K0J4 0J420160821013511008/21/16 01:35:31  5-MIN K0J4 210635Z AUTO 22003KT 10SM CLR 24/23 A2997 270 93 1400 220/03 RMK AO2 T02390228 $
63870K0J4 0J420160821014011008/21/16 01:40:31  5-MIN K0J4 210640Z AUTO 22003KT 10SM CLR 24/23 A2997 270 93 1400 220/03 RMK AO2 T02390228 $
63870K0J4 0J420160821014511008/21/16 01:45:31  5-MIN K0J4 210645Z AUTO 00000KT 10SM CLR 24/23 A2997 270 93 1400 000/00 RMK AO2 T02390228 $
63870K0J4 0J420160821015011008/21/16 01:50:31  5-MIN K0J4 210650Z AUTO 00000KT 10SM CLR 24/23 A2997 270 93 1400 000/00 RMK AO2 T02390228 $
63870K0J4 0J420160821015511708/21/16 01:55:31  5-MIN K0J4 210655Z AUTO 00000KT 10SM CLR 24/23 A2997 270 93 1400 000/00 RMK AO2 SLP143 T02390228 $
63870K0J4 0J420160821020011008/21/16 02:00:31  5-MIN K0J4 210700Z AUTO 00000KT 10SM CLR 24/23 A2997 270 93 1400 000/00 RMK AO2 T02390228 $
63870K0J4 0J420160821020511008/21/16 02:05:31  5-MIN K0J4 210705Z AUTO 00000KT 10SM CLR 24/23 A2996 280 93 1400 000/00 RMK AO2 T02390228 $
63870K0J4 0J420160821021011008/21/16 02:10:31  5-MIN K0J4 210710Z AUTO 00000KT 10SM CLR 24/23 A2997 270 93 1400 000/00 RMK AO2 T02390228 $
63870K0J4 0J420160821021511008/21/16 02:15:31  5-MIN K0J4 210715Z AUTO 00000KT 10SM CLR 24/23 A2997 270 93 1400 000/00 RMK AO2 T02390228 $
63870K0J4 0J420160821022011008/21/16 02:20:31  5-MIN K0J4 210720Z AUTO 00000KT 10SM CLR 24/23 A2997 270 93 1400 000/00 RMK AO2 T02390228 $
63870K0J4 0J420160821022511008/21/16 02:25:31  5-MIN K0J4 210725Z AUTO 00000KT 10SM CLR 24/23 A2997 270 93 1400 000/00 RMK AO2 T02390228 $
63870K0J4 0J420160821023011008/21/16 02:30:31  5-MIN K0J4 210730Z AUTO 00000KT 10SM CLR 24/23 A2997 270 93 1400 000/00 RMK AO2 T02390228 $
63870K0J4 0J420160821023511008/21/16 02:35:31  5-MIN K0J4 210735Z AUTO 00000KT 10SM CLR 24/23 A2996 280 93 1400 000/00 RMK AO2 T02390228 $
63870K0J4 0J420160821024011008/21/16 02:40:31  5-MIN K0J4 210740Z AUTO 00000KT 10SM CLR 24/23 A2997 270 93 1400 000/00 RMK AO2 T02390228 $
63870K0J4 0J420160821024511008/21/16 02:45:31  5-MIN K0J4 210745Z AUTO 00000KT 10SM CLR 24/23 A2997 270 93 1400 000/00 RMK AO2 T02390228 $
63870K0J4 0J420160821025011008/21/16 02:50:31  5-MIN K0J4 210750Z AUTO 23003KT 10SM CLR 24/23 A2997 270 93 1400 230/03 RMK AO2 T02390228 $
63870K0J4 0J420160821025511708/21/16 02:55:31  5-MIN K0J4 210755Z AUTO 22003KT 10SM CLR 24/23 A2997 270 93 1400 220/03 RMK AO2 SLP142 T02390228 $
63870K0J4 0J420160821030011008/21/16 03:00:31  5-MIN K0J4 210800Z AUTO VRB03KT 10SM CLR 24/23 A2997 270 93 1400 VRB/03 RMK AO2 T02390228 $
63870K0J4 0J420160821030511008/21/16 03:05:31  5-MIN K0J4 210805Z AUTO 00000KT 10SM CLR 24/23 A2997 270 93 1400 000/00 RMK AO2 T02390228 $
63870K0J4 0J420160821031011008/21/16 03:10:31  5-MIN K0J4 210810Z AUTO 00000KT 10SM CLR 24/23 A2997 270 93 1400 000/00 RMK AO2 T02390228 $
63870K0J4 0J420160821031511008/21/16 03:15:31  5-MIN K0J4 210815Z AUTO 00000KT 10SM CLR 24/23 A2997 270 93 1400 000/00 RMK AO2 T02390228 $
63870K0J4 0J420160821032011008/21/16 03:20:31  5-MIN K0J4 210820Z AUTO 22003KT 10SM CLR 24/23 A2997 270 93 1400 220/03 RMK AO2 T02390228 $
63870K0J4 0J420160821032511008/21/16 03:25:31  5-MIN K0J4 210825Z AUTO 22003KT 10SM CLR 24/23 A2997 270 93 1400 220/03 RMK AO2 T02390228 $
63870K0J4 0J420160821033011008/21/16 03:30:31  5-MIN K0J4 210830Z AUTO 00000KT 10SM CLR 23/23 A2997 270 97 1300 000/00 RMK AO2 T02330228 $
63870K0J4 0J420160821033511008/21/16 03:35:31  5-MIN K0J4 210835Z AUTO 00000KT 10SM CLR 24/23 A2997 270 93 1400 000/00 RMK AO2 T02390228 $
63870K0J4 0J420160821034011008/21/16 03:40:31  5-MIN K0J4 210840Z AUTO 00000KT 10SM CLR 24/23 A2997 270 93 1400 000/00 RMK AO2 T02390228 $
63870K0J4 0J420160821034511008/21/16 03:45:31  5-MIN K0J4 210845Z AUTO 00000KT 10SM CLR 24/23 A2997 270 93 1400 000/00 RMK AO2 T02390228 $
63870K0J4 0J420160821035011008/21/16 03:50:31  5-MIN K0J4 210850Z AUTO 00000KT 10SM CLR 23/23 A2997 270 97 1300 000/00 RMK AO2 T02330228 $
63870K0J4 0J420160821035511708/21/16 03:55:31  5-MIN K0J4 210855Z AUTO 00000KT 10SM CLR 23/22 A2998 270 93 1300 000/00 RMK AO2 SLP146 T02330222 $
63870K0J4 0J420160821040011008/21/16 04:00:31  5-MIN K0J4 210900Z AUTO 00000KT 10SM CLR 23/22 A2998 260 93 1300 000/00 RMK AO2 T02330222 $
63870K0J4 0J420160821040511008/21/16 04:05:31  5-MIN K0J4 210905Z AUTO 00000KT 10SM CLR 23/22 A2998 260 93 1300 000/00 RMK AO2 T02330222 $
63870K0J4 0J420160821041011008/21/16 04:10:31  5-MIN K0J4 210910Z AUTO 00000KT 10SM CLR 23/22 A2998 260 93 1300 000/00 RMK AO2 T02330222 $
63870K0J4 0J420160821041511008/21/16 04:15:31  5-MIN K0J4 210915Z AUTO 00000KT 10SM CLR 23/23 A2998 260 97 1300 000/00 RMK AO2 T02330228 $
63870K0J4 0J420160821042011008/21/16 04:20:31  5-MIN K0J4 210920Z AUTO 21003KT 10SM CLR 24/23 A2998 260 93 1400 210/03 RMK AO2 T02390228 $
63870K0J4 0J420160821042511008/21/16 04:25:31  5-MIN K0J4 210925Z AUTO 00000KT 10SM CLR 23/22 A2998 260 93 1300 000/00 RMK AO2 T02330222 $
63870K0J4 0J420160821043011008/21/16 04:30:31  5-MIN K0J4 210930Z AUTO 00000KT 10SM CLR 23/22 A2998 260 93 1300 000/00 RMK AO2 T02330222 $
63870K0J4 0J420160821043510908/21/16 04:35:31  5-MIN K0J4 210935Z AUTO 00000KT 9SM CLR 23/22 A2998 260 93 1300 000/00 RMK AO2 T02330222 $
63870K0J4 0J420160821044010908/21/16 04:40:31  5-MIN K0J4 210940Z AUTO 00000KT 9SM CLR 23/22 A2999 260 93 1300 000/00 RMK AO2 T02330222 $
63870K0J4 0J420160821044510908/21/16 04:45:31  5-MIN K0J4 210945Z AUTO 00000KT 9SM CLR 23/22 A2999 260 93 1300 000/00 RMK AO2 T02330222 $
63870K0J4 0J420160821045011008/21/16 04:50:31  5-MIN K0J4 210950Z AUTO 00000KT 10SM CLR 23/22 A2999 250 93 1300 000/00 RMK AO2 T02330222 $
63870K0J4 0J420160821045511708/21/16 04:55:31  5-MIN K0J4 210955Z AUTO 00000KT 10SM CLR 23/22 A2999 250 93 1300 000/00 RMK AO2 SLP150 T02330222 $
63870K0J4 0J420160821050011008/21/16 05:00:31  5-MIN K0J4 211000Z AUTO 00000KT 10SM CLR 23/22 A2999 250 93 1300 000/00 RMK AO2 T02330222 $
63870K0J4 0J420160821050511008/21/16 05:05:31  5-MIN K0J4 211005Z AUTO 00000KT 10SM CLR 23/22 A2999 250 93 1300 000/00 RMK AO2 T02330222 $
63870K0J4 0J420160821051011008/21/16 05:10:31  5-MIN K0J4 211010Z AUTO 00000KT 10SM CLR 23/22 A2999 250 93 1300 000/00 RMK AO2 T02330222 $
63870K0J4 0J420160821051511008/21/16 05:15:31  5-MIN K0J4 211015Z AUTO 00000KT 10SM CLR 23/22 A2999 250 93 1300 000/00 RMK AO2 T02330222 $
63870K0J4 0J420160821052011008/21/16 05:20:31  5-MIN K0J4 211020Z AUTO 00000KT 10SM CLR 23/22 A2999 250 93 1300 000/00 RMK AO2 T02330222 $
63870K0J4 0J420160821052511008/21/16 05:25:31  5-MIN K0J4 211025Z AUTO 00000KT 10SM CLR 23/22 A2999 250 93 1300 000/00 RMK AO2 T02330222 $
63870K0J4 0J420160821053011008/21/16 05:30:31  5-MIN K0J4 211030Z AUTO 00000KT 10SM CLR 23/22 A2999 250 93 1300 000/00 RMK AO2 T02330222 $
63870K0J4 0J420160821053511008/21/16 05:35:31  5-MIN K0J4 211035Z AUTO 00000KT 10SM CLR 23/22 A3000 250 93 1300 000/00 RMK AO2 T02330222 $
63870K0J4 0J420160821054011008/21/16 05:40:31  5-MIN K0J4 211040Z AUTO 22003KT 10SM CLR 23/22 A3000 240 93 1300 220/03 RMK AO2 T02330222 $
63870K0J4 0J420160821054511008/21/16 05:45:31  5-MIN K0J4 211045Z AUTO 00000KT 10SM CLR 23/23 A3000 240 97 1300 000/00 RMK AO2 T02330228 $
63870K0J4 0J420160821055011008/21/16 05:50:31  5-MIN K0J4 211050Z AUTO 00000KT 10SM CLR 23/22 A3000 240 93 1300 000/00 RMK AO2 T02330222 $
63870K0J4 0J420160821055511708/21/16 05:55:31  5-MIN K0J4 211055Z AUTO 00000KT 10SM CLR 23/23 A3000 240 97 1300 000/00 RMK AO2 SLP155 T02330228 $
63870K0J4 0J420160821060011008/21/16 06:00:31  5-MIN K0J4 211100Z AUTO 00000KT 10SM CLR 23/23 A3001 240 97 1300 000/00 RMK AO2 T02330228 $
63870K0J4 0J420160821060511008/21/16 06:05:31  5-MIN K0J4 211105Z AUTO 00000KT 10SM CLR 23/22 A3001 240 93 1300 000/00 RMK AO2 T02330222 $
63870K0J4 0J420160821061011008/21/16 06:10:31  5-MIN K0J4 211110Z AUTO 00000KT 10SM CLR 24/23 A3001 230 93 1400 000/00 RMK AO2 T02390228 $
63870K0J4 0J420160821061510908/21/16 06:15:31  5-MIN K0J4 211115Z AUTO 00000KT 9SM CLR 23/22 A3001 230 93 1300 000/00 RMK AO2 T02330222 $
63870K0J4 0J420160821062010908/21/16 06:20:31  5-MIN K0J4 211120Z AUTO 00000KT 8SM CLR 23/22 A3001 230 93 1300 000/00 RMK AO2 T02330222 $
63870K0J4 0J420160821062510908/21/16 06:25:31  5-MIN K0J4 211125Z AUTO 00000KT 9SM CLR 23/22 A3001 230 93 1300 000/00 RMK AO2 T02330222 $
63870K0J4 0J420160821063010908/21/16 06:30:31  5-MIN K0J4 211130Z AUTO 00000KT 9SM CLR 24/23 A3001 230 93 1400 000/00 RMK AO2 T02390228 $
63870K0J4 0J420160821063511008/21/16 06:35:31  5-MIN K0J4 211135Z AUTO 00000KT 10SM CLR 24/23 A3002 230 93 1400 000/00 RMK AO2 T02390228 $
63870K0J4 0J420160821064011008/21/16 06:40:31  5-MIN K0J4 211140Z AUTO 00000KT 10SM CLR 24/23 A3002 230 93 1300 000/00 RMK AO2 T02390228 $
63870K0J4 0J420160821064511008/21/16 06:45:31  5-MIN K0J4 211145Z AUTO 00000KT 10SM CLR 24/23 A3002 220 93 1300 000/00 RMK AO2 T02390228 $
63870K0J4 0J420160821065011008/21/16 06:50:31  5-MIN K0J4 211150Z AUTO 00000KT 10SM CLR 24/23 A3002 230 93 1300 000/00 RMK AO2 T02390228 $
63870K0J4 0J420160821065514108/21/16 06:55:31  5-MIN K0J4 211155Z AUTO 00000KT 10SM CLR 24/23 A3002 230 93 1400 000/00 RMK AO2 SLP160 70070 T02440233 10244 20233 53002 $
63870K0J4 0J420160821070011008/21/16 07:00:31  5-MIN K0J4 211200Z AUTO 00000KT 10SM CLR 24/23 A3002 220 93 1400 000/00 RMK AO2 T02440233 $
63870K0J4 0J420160821070511008/21/16 07:05:31  5-MIN K0J4 211205Z AUTO 00000KT 10SM CLR 25/23 A3002 220 90 1500 000/00 RMK AO2 T02500233 $
63870K0J4 0J420160821071011008/21/16 07:10:31  5-MIN K0J4 211210Z AUTO 00000KT 10SM CLR 25/23 A3002 220 90 1500 000/00 RMK AO2 T02500233 $
63870K0J4 0J420160821071511008/21/16 07:15:31  5-MIN K0J4 211215Z AUTO 00000KT 10SM CLR 25/23 A3002 220 90 1500 000/00 RMK AO2 T02500233 $
63870K0J4 0J420160821072011008/21/16 07:20:31  5-MIN K0J4 211220Z AUTO 00000KT 10SM CLR 26/24 A3002 220 90 1500 000/00 RMK AO2 T02560239 $
63870K0J4 0J420160821072511008/21/16 07:25:31  5-MIN K0J4 211225Z AUTO 00000KT 10SM CLR 26/24 A3003 220 90 1500 000/00 RMK AO2 T02560239 $
63870K0J4 0J420160821073011008/21/16 07:30:31  5-MIN K0J4 211230Z AUTO 00000KT 10SM CLR 26/24 A3003 220 90 1500 000/00 RMK AO2 T02560239 $
63870K0J4 0J420160821073511008/21/16 07:35:31  5-MIN K0J4 211235Z AUTO 00000KT 10SM CLR 26/24 A3003 220 87 1600 000/00 RMK AO2 T02610239 $
63870K0J4 0J420160821074011008/21/16 07:40:31  5-MIN K0J4 211240Z AUTO 00000KT 10SM CLR 26/24 A3003 210 87 1600 000/00 RMK AO2 T02610239 $
63870K0J4 0J420160821074511008/21/16 07:45:31  5-MIN K0J4 211245Z AUTO 00000KT 10SM CLR 27/24 A3003 210 84 1600 000/00 RMK AO2 T02670239 $
63870K0J4 0J420160821075011008/21/16 07:50:31  5-MIN K0J4 211250Z AUTO 00000KT 10SM CLR 27/24 A3003 210 84 1600 000/00 RMK AO2 T02670239 $
63870K0J4 0J420160821075511708/21/16 07:55:31  5-MIN K0J4 211255Z AUTO 00000KT 10SM CLR 27/24 A3003 210 84 1600 000/00 RMK AO2 SLP165 T02670239 $
63870K0J4 0J420160821080011008/21/16 08:00:31  5-MIN K0J4 211300Z AUTO 00000KT 10SM CLR 27/24 A3004 210 82 1700 000/00 RMK AO2 T02720239 $
63870K0J4 0J420160821080511008/21/16 08:05:31  5-MIN K0J4 211305Z AUTO 00000KT 10SM CLR 27/24 A3004 210 82 1700 000/00 RMK AO2 T02720239 $
63870K0J4 0J420160821081011008/21/16 08:10:31  5-MIN K0J4 211310Z AUTO 00000KT 10SM CLR 27/24 A3004 210 84 1700 000/00 RMK AO2 T02720244 $
63870K0J4 0J420160821081510808/21/16 08:15:31  5-MIN K0J4 211315Z AUTO 00000KT 10SM CLR 27/24 A3004 210 84 1700 000/00 RMK AO2 T02720244
63870K0J4 0J420160821082010808/21/16 08:20:31  5-MIN K0J4 211320Z AUTO 24004KT 10SM CLR 28/24 A3004 210 82 1800 240/04 RMK AO2 T02780244
63870K0J4 0J420160821082510808/21/16 08:25:31  5-MIN K0J4 211325Z AUTO VRB03KT 10SM CLR 28/24 A3004 210 82 1800 VRB/03 RMK AO2 T02780244
63870K0J4 0J420160821083010808/21/16 08:30:31  5-MIN K0J4 211330Z AUTO 00000KT 10SM CLR 28/24 A3004 210 82 1800 000/00 RMK AO2 T02780244
63870K0J4 0J420160821083510808/21/16 08:35:31  5-MIN K0J4 211335Z AUTO VRB03KT 10SM CLR 28/24 A3004 210 82 1800 VRB/03 RMK AO2 T02780244
63870K0J4 0J420160821084010808/21/16 08:40:31  5-MIN K0J4 211340Z AUTO VRB03KT 10SM CLR 28/24 A3004 210 79 1800 VRB/03 RMK AO2 T02830244
63870K0J4 0J420160821084510808/21/16 08:45:31  5-MIN K0J4 211345Z AUTO VRB04KT 10SM CLR 28/24 A3004 200 79 1800 VRB/04 RMK AO2 T02830244
63870K0J4 0J420160821085010808/21/16 08:50:31  5-MIN K0J4 211350Z AUTO VRB03KT 10SM CLR 28/24 A3004 200 79 1800 VRB/03 RMK AO2 T02830244
63870K0J4 0J420160821085511808/21/16 08:55:31  5-MIN K0J4 211355Z AUTO VRB03KT 10SM FEW019 29/24 A3004 200 76 1900 VRB/03 RMK AO2 SLP169 T02890244
63870K0J4 0J420160821090011108/21/16 09:00:31  5-MIN K0J4 211400Z AUTO 00000KT 10SM FEW017 28/24 A3004 200 79 1800 000/00 RMK AO2 T02830244
63870K0J4 0J420160821090511808/21/16 09:05:31  5-MIN K0J4 211405Z AUTO VRB03KT 10SM SCT015 SCT024 28/24 A3004 200 79 1800 VRB/03 RMK AO2 T02830244
63870K0J4 0J420160821091011808/21/16 09:10:31  5-MIN K0J4 211410Z AUTO VRB03KT 10SM SCT015 SCT024 28/24 A3004 200 79 1800 VRB/03 RMK AO2 T02830244
63870K0J4 0J420160821091511808/21/16 09:15:31  5-MIN K0J4 211415Z AUTO VRB04KT 10SM SCT015 BKN021 28/24 A3004 200 79 1800 VRB/04 RMK AO2 T02830244
63870K0J4 0J420160821092011808/21/16 09:20:31  5-MIN K0J4 211420Z AUTO VRB04KT 10SM BKN015 BKN021 29/24 A3005 200 76 1900 VRB/04 RMK AO2 T02890244
63870K0J4 0J420160821092511108/21/16 09:25:31  5-MIN K0J4 211425Z AUTO 24006KT 10SM BKN015 29/24 A3005 200 76 1900 240/06 RMK AO2 T02890244
63870K0J4 0J420160821093011808/21/16 09:30:31  5-MIN K0J4 211430Z AUTO VRB04KT 10SM SCT015 BKN021 29/24 A3005 200 74 1900 VRB/04 RMK AO2 T02940244
63870K0J4 0J420160821093511808/21/16 09:35:31  5-MIN K0J4 211435Z AUTO 23005KT 10SM SCT015 SCT021 29/24 A3005 200 76 1900 230/05 RMK AO2 T02890244
63870K0J4 0J420160821094011808/21/16 09:40:31  5-MIN K0J4 211440Z AUTO 23005KT 10SM FEW015 SCT021 29/24 A3005 200 74 1900 230/05 RMK AO2 T02890239
63870K0J4 0J420160821094511808/21/16 09:45:31  5-MIN K0J4 211445Z AUTO 23005KT 10SM FEW017 SCT028 29/24 A3005 200 76 1900 230/05 RMK AO2 T02890244
63870K0J4 0J420160821095012508/21/16 09:50:31  5-MIN K0J4 211450Z AUTO VRB04KT 10SM FEW017 SCT024 SCT031 29/24 A3005 200 74 1900 VRB/04 RMK AO2 T02940244
63870K0J4 0J420160821095513108/21/16 09:55:31  5-MIN K0J4 211455Z AUTO VRB05KT 10SM SCT024 BKN031 29/24 A3005 190 71 1900 VRB/05 RMK AO2 SLP172 T02940239 53014
63870K0J4 0J420160821100012508/21/16 10:00:31  5-MIN K0J4 211500Z AUTO VRB03KT 10SM SCT020 BKN025 BKN029 29/24 A3005 190 71 1900 VRB/03 RMK AO2 T02940239
63870K0J4 0J420160821100512508/21/16 10:05:31  5-MIN K0J4 211505Z AUTO 00000KT 10SM BKN020 BKN025 BKN031 29/24 A3006 190 74 1900 000/00 RMK AO2 T02890239
63870K0J4 0J420160821101012508/21/16 10:10:31  5-MIN K0J4 211510Z AUTO VRB03KT 10SM SCT020 BKN031 BKN041 29/24 A3006 190 71 1900 VRB/03 RMK AO2 T02940239
63870K0J4 0J420160821101512508/21/16 10:15:31  5-MIN K0J4 211515Z AUTO VRB05KT 10SM SCT020 BKN026 BKN031 30/24 A3006 190 69 2000 VRB/05 RMK AO2 T03000239
63870K0J4 0J420160821102011808/21/16 10:20:31  5-MIN K0J4 211520Z AUTO VRB05KT 10SM BKN020 BKN029 30/24 A3006 190 69 2000 VRB/05 RMK AO2 T03000239
63870K0J4 0J420160821102511808/21/16 10:25:31  5-MIN K0J4 211525Z AUTO VRB04KT 10SM BKN021 BKN029 29/24 A3006 190 71 1900 VRB/04 RMK AO2 T02940239
63870K0J4 0J420160821103011808/21/16 10:30:31  5-MIN K0J4 211530Z AUTO VRB04KT 10SM BKN021 BKN028 29/24 A3006 190 74 1900 VRB/04 RMK AO2 T02890239
63870K0J4 0J420160821103512508/21/16 10:35:31  5-MIN K0J4 211535Z AUTO VRB03KT 10SM SCT021 SCT028 SCT120 29/24 A3006 190 71 1900 VRB/03 RMK AO2 T02940239
63870K0J4 0J420160821104012508/21/16 10:40:31  5-MIN K0J4 211540Z AUTO VRB03KT 10SM SCT021 SCT028 SCT120 31/24 A3005 190 67 2100 VRB/03 RMK AO2 T03060239
63870K0J4 0J420160821104512708/21/16 10:45:31  5-MIN K0J4 211545Z AUTO 32004KT 10SM -RA FEW022 31/23 A3006 190 65 2100 320/04 RMK AO2 RAB42 P0000 T03060233
63870K0J4 0J420160821105013408/21/16 10:50:31  5-MIN K0J4 211550Z AUTO 32004KT 10SM -RA FEW022 SCT028 31/23 A3006 190 62 2100 320/04 RMK AO2 RAB42 P0000 T03060228
63870K0J4 0J420160821105513308/21/16 10:55:31  5-MIN K0J4 211555Z AUTO VRB04KT 10SM SCT028 30/23 A3006 190 67 2000 VRB/04 RMK AO2 RAB42E53 SLP173 P0000 T03000233
63870K0J4 0J420160821110011108/21/16 11:00:31  5-MIN K0J4 211600Z AUTO 31004KT 10SM SCT028 30/23 A3005 190 67 2000 310/04 RMK AO2 T03000233
63870K0J4 0J420160821110511808/21/16 11:05:31  5-MIN K0J4 211605Z AUTO 00000KT 10SM SCT028 BKN036 29/23 A3006 190 69 1900 000/00 RMK AO2 T02940233
63870K0J4 0J420160821111014008/21/16 11:10:31  5-MIN K0J4 211610Z AUTO 00000KT 9SM -RA FEW028 SCT036 BKN090 29/24 A3006 190 74 1900 000/00 RMK AO2 RAB07 P0000 T02890239
63870K0J4 0J420160821111514108/21/16 11:15:31  5-MIN K0J4 211615Z AUTO 00000KT 10SM -RA FEW028 SCT038 BKN090 29/24 A3006 190 74 1900 000/00 RMK AO2 RAB07 P0000 T02890239
63870K0J4 0J420160821112014008/21/16 11:20:31  5-MIN K0J4 211620Z AUTO 00000KT 10SM FEW028 SCT036 SCT090 31/24 A3006 190 69 2100 000/00 RMK AO2 RAB07E19 P0000 T03060244
63870K0J4 0J420160821112514008/21/16 11:25:31  5-MIN K0J4 211625Z AUTO 25004KT 10SM FEW028 FEW036 SCT090 31/24 A3006 190 67 2100 250/04 RMK AO2 RAB07E19 P0000 T03060239
63870K0J4 0J420160821113014008/21/16 11:30:31  5-MIN K0J4 211630Z AUTO VRB05KT 10SM FEW026 SCT034 SCT090 31/24 A3006 190 67 2100 VRB/05 RMK AO2 RAB07E19 P0000 T03060239
63870K0J4 0J420160821113514008/21/16 11:35:31  5-MIN K0J4 211635Z AUTO 32004KT 10SM FEW026 SCT034 BKN090 29/23 A3005 190 67 1900 320/04 RMK AO2 RAB07E19 P0000 T02940228
63870K0J4 0J420160821114013308/21/16 11:40:31  5-MIN K0J4 211640Z AUTO VRB04KT 10SM FEW028 FEW034 30/23 A3005 190 67 2000 VRB/04 RMK AO2 RAB07E19 P0000 T03000233
63870K0J4 0J420160821114513308/21/16 11:45:31  5-MIN K0J4 211645Z AUTO VRB03KT 10SM FEW028 FEW033 30/23 A3005 190 65 2000 VRB/03 RMK AO2 RAB07E19 P0000 T03000228
63870K0J4 0J420160821115013308/21/16 11:50:31  5-MIN K0J4 211650Z AUTO 00000KT 10SM FEW027 FEW033 30/23 A3005 190 65 2000 000/00 RMK AO2 RAB07E19 P0000 T03000228
63870K0J4 0J420160821115514008/21/16 11:55:31  5-MIN K0J4 211655Z AUTO 00000KT 10SM FEW030 SCT100 31/23 A3005 200 63 2100 000/00 RMK AO2 RAB07E19 SLP171 P0000 T03110233
63870K0J4 0J420160821120013308/21/16 12:00:31  5-MIN K0J4 211700Z AUTO VRB03KT 3SM RA FEW044 SCT070 SCT100 31/23 A3005 200 65 2100 VRB/03 RMK AO2 P0002 T03060233
63870K0J4 0J420160821120513808/21/16 12:05:31  5-MIN K0J4 211705Z AUTO 00000KT 1 1/2SM -RA FEW035 SCT045 BKN060 29/23 A3005 200 71 1900 000/00 RMK AO2 P0005 T02890233
63870K0J4 0J420160821121013408/21/16 12:10:31  5-MIN K0J4 211710Z AUTO 23004KT 2SM -RA FEW035 SCT045 BKN110 28/24 A3005 200 82 1800 230/04 RMK AO2 P0005 T02780244
63870K0J4 0J420160821121513708/21/16 12:15:31  5-MIN K0J4 211715Z AUTO VRB03KT 10SM FEW033 SCT060 BKN110 28/24 A3005 200 79 1800 VRB/03 RMK AO2 RAE14 P0005 T02780239
63870K0J4 0J420160821122013708/21/16 12:20:31  5-MIN K0J4 211720Z AUTO 20006KT 10SM FEW033 SCT060 BKN110 28/24 A3005 190 82 1800 200/06 RMK AO2 RAE14 P0005 T02780244
63870K0J4 0J420160821122513708/21/16 12:25:31  5-MIN K0J4 211725Z AUTO 18006KT 10SM FEW034 SCT060 BKN110 28/24 A3005 200 76 1800 180/06 RMK AO2 RAE14 P0005 T02830239
63870K0J4 0J420160821123013708/21/16 12:30:31  5-MIN K0J4 211730Z AUTO 20005KT 10SM FEW034 SCT085 BKN110 28/25 A3005 190 82 1800 200/05 RMK AO2 RAE14 P0005 T02830250
63870K0J4 0J420160821123513008/21/16 12:35:31  5-MIN K0J4 211735Z AUTO 21005KT 10SM SCT085 BKN110 29/24 A3005 200 76 1900 210/05 RMK AO2 RAE14 P0005 T02890244
63870K0J4 0J420160821124013008/21/16 12:40:31  5-MIN K0J4 211740Z AUTO 19007KT 10SM FEW090 BKN110 30/24 A3005 200 69 2000 190/07 RMK AO2 RAE14 P0005 T03000239
63870K0J4 0J420160821124513008/21/16 12:45:31  5-MIN K0J4 211745Z AUTO 18009KT 10SM FEW090 SCT110 29/23 A3005 200 69 1900 180/09 RMK AO2 RAE14 P0005 T02940233
63870K0J4 0J420160821125013508/21/16 12:50:31  5-MIN K0J4 211750Z AUTO 19008KT 10SM VCTS FEW090 SCT110 28/23 A3005 200 74 1800 190/08 RMK AO2 RAE14 P0005 T02830233
63870K0J4 0J420160821125515908/21/16 12:55:31  5-MIN K0J4 211755Z AUTO 18007KT 10SM VCTS FEW090 27/24 A3005 200 82 1700 180/07 RMK AO2 RAE14 SLP170 P0005 60005 T02720239 10311 20244 51012
63870K0J4 0J420160821130011308/21/16 13:00:31  5-MIN K0J4 211800Z AUTO 17005KT 10SM VCTS CLR 27/24 A3004 200 84 1600 170/05 RMK AO2 T02670239
63870K0J4 0J420160821130512408/21/16 13:05:31  5-MIN K0J4 211805Z AUTO 18005KT 10SM -RA CLR 27/24 A3004 200 84 1600 180/05 RMK AO2 RAB03 P0000 T02670239
63870K0J4 0J420160821131012708/21/16 13:10:31  5-MIN K0J4 211810Z AUTO 19006KT 10SM -RA FEW065 27/24 A3004 200 82 1700 190/06 RMK AO2 RAB03 P0000 T02720239
63870K0J4 0J420160821131514508/21/16 13:15:31  5-MIN K0J4 211815Z AUTO 20006KT 10SM TS FEW050 SCT070 27/24 A3004 200 82 1700 200/06 RMK AO2 RAB03E13 TSB11B14 P0000 T02720239
63870K0J4 0J420160821132014508/21/16 13:20:31  5-MIN K0J4 211820Z AUTO 23007KT 10SM TS SCT048 BKN070 27/24 A3005 190 82 1700 230/07 RMK AO2 RAB03E13 TSB11B14 P0000 T02720239
63870K0J4 0J420160821132514508/21/16 13:25:31  5-MIN K0J4 211825Z AUTO VRB04KT 10SM TS BKN048 BKN070 27/24 A3005 190 82 1700 VRB/04 RMK AO2 RAB03E13 TSB11B14 P0000 T02720239
63870K0J4 0J420160821133015708/21/16 13:30:31  5-MIN K0J4 211830Z AUTO VRB05KT 3SM -TSRA SCT043 BKN050 BKN070 27/24 A3005 190 84 1600 VRB/05 RMK AO2 RAB03E13B27 TSB11B14 P0003 T02670239
63870K0J4 0J420160821133516308/21/16 13:35:31  5-MIN K0J4 211835Z AUTO 23007KT 3/4SM +RA BR FEW024 BKN048 OVC070 26/24 A3005 200 90 1500 230/07 RMK AO2 RAB03E13B27 TSB11B14E35 P0009 T02560239
63870K0J4 0J420160821134015508/21/16 13:40:31  5-MIN K0J4 211840Z AUTO VRB03KT 3/4SM RA BR FEW028 OVC050 26/24 A3005 190 90 1500 VRB/03 RMK AO2 RAB03E13B27 TSB11B14E35 P0009 T02560239
63870K0J4 0J420160821134515808/21/16 13:45:31  5-MIN K0J4 211845Z AUTO 33004KT 1 1/2SM +RA BR FEW032 OVC047 26/24 A3005 190 90 1500 330/04 RMK AO2 RAB03E13B27 TSB11B14E35 P0015 T02560239
63870K0J4 0J420160821135016308/21/16 13:50:31  5-MIN K0J4 211850Z AUTO VRB05KT 1/2SM +RA FG SCT028 SCT035 OVC047 25/24 A3005 190 93 1400 VRB/05 RMK AO2 RAB03E13B27 TSB11B14E35 P0028 T02500239
63870K0J4 0J420160821135515808/21/16 13:55:31  5-MIN K0J4 211855Z AUTO 29003KT 1/2SM VCTS +RA FG BKN032 BKN047 OVC055 24/23 A3005 200 93 1400 290/03 RMK AO2 RAB03E13B27 TSB11B14E35 P0032
63870K0J4 0J420160821140014108/21/16 14:00:31  5-MIN K0J4 211900Z AUTO 25003KT 1SM VCTS RA BR SCT037 BKN049 OVC070 24/23 A3005 200 93 1400 250/03 RMK AO2 P0001 T02440233
63870K0J4 0J420160821140514508/21/16 14:05:31  5-MIN K0J4 211905Z AUTO 20005KT 1 3/4SM VCTS RA BR SCT039 BKN049 OVC075 24/23 A3004 200 93 1400 200/05 RMK AO2 P0002 T02440233
63870K0J4 0J420160821141014208/21/16 14:10:31  5-MIN K0J4 211910Z AUTO 22004KT 4SM VCTS -RA BR SCT039 BKN048 OVC075 25/23 A3004 210 90 1500 220/04 RMK AO2 P0002 T02500233
63870K0J4 0J420160821141514008/21/16 14:15:31  5-MIN K0J4 211915Z AUTO 24004KT 10SM VCTS -RA SCT039 BKN070 OVC085 25/23 A3004 210 90 1500 240/04 RMK AO2 P0002 T02500233
63870K0J4 0J420160821142014308/21/16 14:20:31  5-MIN K0J4 211920Z AUTO 00000KT 10SM -TSRA SCT041 BKN055 OVC075 25/23 A3003 210 90 1500 000/00 RMK AO2 TSB16 P0002 T02500233
63870K0J4 0J420160821142514308/21/16 14:25:31  5-MIN K0J4 211925Z AUTO 00000KT 10SM -TSRA SCT041 SCT055 BKN070 26/23 A3003 210 87 1500 000/00 RMK AO2 TSB16 P0002 T02560233
63870K0J4 0J420160821143013608/21/16 14:30:31  5-MIN K0J4 211930Z AUTO 22003KT 10SM -TSRA FEW040 BKN075 26/23 A3003 210 87 1500 220/03 RMK AO2 TSB16 P0002 T02560233
63870K0J4 0J420160821143514608/21/16 14:35:31  5-MIN K0J4 211935Z AUTO VRB03KT 10SM FEW040 SCT075 BKN090 26/23 A3004 210 84 1600 VRB/03 RMK AO2 RAE35 TSB16E31 P0002 T02610233
63870K0J4 0J420160821144014608/21/16 14:40:31  5-MIN K0J4 211940Z AUTO 00000KT 10SM FEW040 FEW070 BKN090 27/24 A3004 210 84 1600 000/00 RMK AO2 RAE35 TSB16E31 P0002 T02670239
63870K0J4 0J420160821144514608/21/16 14:45:31  5-MIN K0J4 211945Z AUTO 33005KT 10SM FEW030 SCT036 BKN085 27/24 A3004 200 87 1600 330/05 RMK AO2 RAE35 TSB16E31 P0002 T02670244
63870K0J4 0J420160821145014608/21/16 14:50:31  5-MIN K0J4 211950Z AUTO 00000KT 10SM SCT030 SCT037 BKN085 26/24 A3004 210 87 1600 000/00 RMK AO2 RAE35 TSB16E31 P0002 T02610239
63870K0J4 0J420160821145515308/21/16 14:55:31  5-MIN K0J4 211955Z AUTO 00000KT 10SM SCT030 BKN037 BKN085 26/24 A3004 210 87 1600 000/00 RMK AO2 RAE35 TSB16E31 SLP167 P0002 T02610239
63870K0J4 0J420160821150012508/21/16 15:00:31  5-MIN K0J4 212000Z AUTO 00000KT 10SM SCT030 SCT037 BKN085 27/24 A3003 210 82 1700 000/00 RMK AO2 T02720239
63870K0J4 0J420160821150512508/21/16 15:05:31  5-MIN K0J4 212005Z AUTO 00000KT 10SM FEW030 SCT037 SCT085 28/24 A3004 210 82 1800 000/00 RMK AO2 T02780244
63870K0J4 0J420160821151011808/21/16 15:10:31  5-MIN K0J4 212010Z AUTO 00000KT 10SM FEW030 SCT037 28/24 A3004 210 82 1800 000/00 RMK AO2 T02780244
63870K0J4 0J420160821151511108/21/16 15:15:31  5-MIN K0J4 212015Z AUTO 00000KT 10SM FEW030 28/24 A3004 210 82 1800 000/00 RMK AO2 T02780244
63870K0J4 0J420160821152011108/21/16 15:20:31  5-MIN K0J4 212020Z AUTO 00000KT 10SM FEW030 27/24 A3003 210 84 1700 000/00 RMK AO2 T02720244
63870K0J4 0J420160821152510808/21/16 15:25:31  5-MIN K0J4 212025Z AUTO 00000KT 10SM CLR 28/24 A3004 210 79 1800 000/00 RMK AO2 T02830244
63870K0J4 0J420160821153010808/21/16 15:30:31  5-MIN K0J4 212030Z AUTO 02003KT 10SM CLR 28/24 A3003 210 76 1800 020/03 RMK AO2 T02830239
63870K0J4 0J420160821153512408/21/16 15:35:31  5-MIN K0J4 212035Z AUTO 05005KT 10SM -RA CLR 28/24 A3003 210 79 1800 050/05 RMK AO2 RAB31 P0000 T02830244
63870K0J4 0J420160821154012708/21/16 15:40:31  5-MIN K0J4 212040Z AUTO 05004KT 10SM -RA FEW120 29/24 A3003 220 76 1900 050/04 RMK AO2 RAB31 P0000 T02890244
63870K0J4 0J420160821154512608/21/16 15:45:31  5-MIN K0J4 212045Z AUTO 00000KT 10SM FEW120 29/24 A3002 220 76 1900 000/00 RMK AO2 RAB31E41 P0000 T02890244
63870K0J4 0J420160821155012708/21/16 15:50:31  5-MIN K0J4 212050Z AUTO VRB03KT 10SM -RA FEW120 28/24 A3002 220 79 1800 VRB/03 RMK AO2 RAB31 P0000 T02830244
63870K0J4 0J420160821155514508/21/16 15:55:31  5-MIN K0J4 212055Z AUTO 23005KT 10SM FEW120 28/24 A3002 220 76 1800 230/05 RMK AO2 RAB31E53 SLP162 P0000 60035 T02830239 58003
63870K0J4 0J420160821160011108/21/16 16:00:31  5-MIN K0J4 212100Z AUTO 23004KT 10SM FEW120 28/23 A3002 220 74 1800 230/04 RMK AO2 T02830233
63870K0J4 0J420160821160511108/21/16 16:05:31  5-MIN K0J4 212105Z AUTO 27003KT 10SM FEW120 28/24 A3003 220 76 1800 270/03 RMK AO2 T02830239
63870K0J4 0J420160821161012708/21/16 16:10:31  5-MIN K0J4 212110Z AUTO 25004KT 10SM -RA FEW019 28/24 A3003 220 76 1800 250/04 RMK AO2 RAB07 P0000 T02830239
63870K0J4 0J420160821161512708/21/16 16:15:31  5-MIN K0J4 212115Z AUTO 22006KT 10SM -RA FEW019 28/24 A3003 220 76 1800 220/06 RMK AO2 RAB07 P0000 T02830239
63870K0J4 0J420160821162012608/21/16 16:20:31  5-MIN K0J4 212120Z AUTO 23004KT 10SM FEW019 28/24 A3003 220 76 1800 230/04 RMK AO2 RAB07E16 P0000 T02830239
63870K0J4 0J420160821162512608/21/16 16:25:31  5-MIN K0J4 212125Z AUTO 23004KT 10SM FEW019 28/24 A3003 220 79 1800 230/04 RMK AO2 RAB07E16 P0000 T02780239
63870K0J4 0J420160821163012608/21/16 16:30:31  5-MIN K0J4 212130Z AUTO 24003KT 10SM FEW019 28/24 A3003 220 79 1800 240/03 RMK AO2 RAB07E16 P0000 T02780239
63870K0J4 0J420160821163512608/21/16 16:35:31  5-MIN K0J4 212135Z AUTO 00000KT 10SM FEW019 28/24 A3003 220 79 1800 000/00 RMK AO2 RAB07E16 P0000 T02780239
63870K0J4 0J420160821164012308/21/16 16:40:31  5-MIN K0J4 212140Z AUTO 00000KT 10SM CLR 28/24 A3003 220 79 1800 000/00 RMK AO2 RAB07E16 P0000 T02830244
63870K0J4 0J420160821164512308/21/16 16:45:31  5-MIN K0J4 212145Z AUTO 00000KT 10SM CLR 28/24 A3003 220 82 1800 000/00 RMK AO2 RAB07E16 P0000 T02780244
63870K0J4 0J420160821165012308/21/16 16:50:31  5-MIN K0J4 212150Z AUTO 00000KT 10SM CLR 28/24 A3003 220 82 1800 000/00 RMK AO2 RAB07E16 P0000 T02780244
63870K0J4 0J420160821165513008/21/16 16:55:31  5-MIN K0J4 212155Z AUTO 22003KT 10SM CLR 28/24 A3003 220 79 1800 220/03 RMK AO2 RAB07E16 SLP163 P0000 T02780239
63870K0J4 0J420160821170010808/21/16 17:00:31  5-MIN K0J4 212200Z AUTO 22003KT 10SM CLR 28/24 A3003 220 79 1800 220/03 RMK AO2 T02780239
63870K0J4 0J420160821170510808/21/16 17:05:31  5-MIN K0J4 212205Z AUTO 24004KT 10SM CLR 27/23 A3003 220 79 1700 240/04 RMK AO2 T02720233
63870K0J4 0J420160821171010808/21/16 17:10:31  5-MIN K0J4 212210Z AUTO 23003KT 10SM CLR 27/23 A3003 220 79 1700 230/03 RMK AO2 T02720233
63870K0J4 0J420160821171510808/21/16 17:15:31  5-MIN K0J4 212215Z AUTO 00000KT 10SM CLR 27/23 A3003 220 79 1700 000/00 RMK AO2 T02720233
63870K0J4 0J420160821172010808/21/16 17:20:31  5-MIN K0J4 212220Z AUTO 00000KT 10SM CLR 27/24 A3003 210 82 1700 000/00 RMK AO2 T02720239
63870K0J4 0J420160821172510808/21/16 17:25:31  5-MIN K0J4 212225Z AUTO 00000KT 10SM CLR 27/24 A3003 210 82 1700 000/00 RMK AO2 T02720239
63870K0J4 0J420160821173010808/21/16 17:30:31  5-MIN K0J4 212230Z AUTO 00000KT 10SM CLR 27/24 A3003 210 82 1700 000/00 RMK AO2 T02720239
63870K0J4 0J420160821173510808/21/16 17:35:31  5-MIN K0J4 212235Z AUTO 00000KT 10SM CLR 27/24 A3003 220 82 1700 000/00 RMK AO2 T02720239
63870K0J4 0J420160821174010808/21/16 17:40:31  5-MIN K0J4 212240Z AUTO 00000KT 10SM CLR 27/24 A3003 210 82 1700 000/00 RMK AO2 T02720239
63870K0J4 0J420160821174510808/21/16 17:45:31  5-MIN K0J4 212245Z AUTO 28003KT 10SM CLR 27/24 A3003 210 84 1700 280/03 RMK AO2 T02720244
63870K0J4 0J420160821175010808/21/16 17:50:31  5-MIN K0J4 212250Z AUTO VRB03KT 10SM CLR 27/24 A3004 210 84 1600 VRB/03 RMK AO2 T02670239
63870K0J4 0J420160821175511508/21/16 17:55:31  5-MIN K0J4 212255Z AUTO 00000KT 10SM CLR 27/24 A3004 210 84 1600 000/00 RMK AO2 SLP168 T02670239
63870K0J4 0J420160821180010808/21/16 18:00:31  5-MIN K0J4 212300Z AUTO VRB03KT 10SM CLR 27/24 A3004 200 84 1600 VRB/03 RMK AO2 T02670239
63870K0J4 0J420160821180510808/21/16 18:05:31  5-MIN K0J4 212305Z AUTO 00000KT 10SM CLR 27/24 A3005 200 84 1600 000/00 RMK AO2 T02670239
63870K0J4 0J420160821181010808/21/16 18:10:31  5-MIN K0J4 212310Z AUTO 00000KT 10SM CLR 27/24 A3005 200 84 1600 000/00 RMK AO2 T02670239
63870K0J4 0J420160821181510808/21/16 18:15:31  5-MIN K0J4 212315Z AUTO VRB03KT 10SM CLR 26/23 A3004 210 84 1600 VRB/03 RMK AO2 T02610233
63870K0J4 0J420160821182010808/21/16 18:20:31  5-MIN K0J4 212320Z AUTO 00000KT 10SM CLR 26/23 A3004 210 84 1600 000/00 RMK AO2 T02610233
63870K0J4 0J420160821182510808/21/16 18:25:31  5-MIN K0J4 212325Z AUTO 00000KT 10SM CLR 26/23 A3004 210 84 1600 000/00 RMK AO2 T02610233
63870K0J4 0J420160821183010808/21/16 18:30:31  5-MIN K0J4 212330Z AUTO 00000KT 10SM CLR 26/23 A3005 200 84 1600 000/00 RMK AO2 T02610233
63870K0J4 0J420160821183510808/21/16 18:35:31  5-MIN K0J4 212335Z AUTO 00000KT 10SM CLR 26/23 A3005 200 84 1600 000/00 RMK AO2 T02610233
63870K0J4 0J420160821184010808/21/16 18:40:31  5-MIN K0J4 212340Z AUTO 00000KT 10SM CLR 26/23 A3005 200 84 1600 000/00 RMK AO2 T02610233
63870K0J4 0J420160821184510808/21/16 18:45:31  5-MIN K0J4 212345Z AUTO 00000KT 10SM CLR 26/23 A3005 200 84 1600 000/00 RMK AO2 T02610233
63870K0J4 0J420160821185011108/21/16 18:50:31  5-MIN K0J4 212350Z AUTO 00000KT 10SM FEW095 26/23 A3005 190 84 1600 000/00 RMK AO2 T02610233
63870K0J4 0J420160821185514908/21/16 18:55:31  5-MIN K0J4 212355Z AUTO 00000KT 10SM SCT100 SCT120 26/23 A3005 200 87 1500 000/00 RMK AO2 SLP171 60035 T02560233 10306 20244 58007
63870K0J4 0J420160821190011808/21/16 19:00:31  5-MIN K0J4 220000Z AUTO 00000KT 10SM FEW100 SCT120 26/23 A3005 200 87 1500 000/00 RMK AO2 T02560233
63870K0J4 0J420160821190511808/21/16 19:05:31  5-MIN K0J4 220005Z AUTO 00000KT 10SM FEW100 BKN120 26/23 A3005 200 87 1500 000/00 RMK AO2 T02560233
63870K0J4 0J420160821191011808/21/16 19:10:31  5-MIN K0J4 220010Z AUTO 00000KT 10SM FEW100 BKN120 26/23 A3005 200 84 1500 000/00 RMK AO2 T02560228
63870K0J4 0J420160821191511108/21/16 19:15:31  5-MIN K0J4 220015Z AUTO 00000KT 10SM BKN110 26/23 A3005 200 87 1500 000/00 RMK AO2 T02560233
63870K0J4 0J420160821192011108/21/16 19:20:31  5-MIN K0J4 220020Z AUTO VRB03KT 10SM SCT110 25/23 A3005 200 90 1400 VRB/03 RMK AO2 T02500233
63870K0J4 0J420160821192511108/21/16 19:25:31  5-MIN K0J4 220025Z AUTO 00000KT 10SM SCT110 26/23 A3005 200 84 1500 000/00 RMK AO2 T02560228
63870K0J4 0J420160821193011108/21/16 19:30:31  5-MIN K0J4 220030Z AUTO 00000KT 10SM FEW110 26/23 A3005 200 84 1500 000/00 RMK AO2 T02560228
63870K0J4 0J420160821193511108/21/16 19:35:31  5-MIN K0J4 220035Z AUTO 00000KT 10SM SCT110 25/23 A3005 190 87 1400 000/00 RMK AO2 T02500228
63870K0J4 0J420160821194011108/21/16 19:40:31  5-MIN K0J4 220040Z AUTO 00000KT 10SM FEW110 25/23 A3005 190 87 1400 000/00 RMK AO2 T02500228
63870K0J4 0J420160821194511108/21/16 19:45:31  5-MIN K0J4 220045Z AUTO 00000KT 10SM FEW110 25/23 A3005 190 87 1400 000/00 RMK AO2 T02500228
63870K0J4 0J420160821195011108/21/16 19:50:31  5-MIN K0J4 220050Z AUTO 00000KT 10SM FEW110 25/23 A3005 190 87 1400 000/00 RMK AO2 T02500228
63870K0J4 0J420160821195511808/21/16 19:55:31  5-MIN K0J4 220055Z AUTO 22003KT 10SM FEW110 25/23 A3005 200 90 1400 220/03 RMK AO2 SLP172 T02500233
63870K0J4 0J420160821200011108/21/16 20:00:31  5-MIN K0J4 220100Z AUTO 00000KT 10SM FEW110 25/23 A3005 190 90 1400 000/00 RMK AO2 T02500233
63870K0J4 0J420160821200510808/21/16 20:05:31  5-MIN K0J4 220105Z AUTO 00000KT 10SM CLR 25/23 A3006 190 90 1400 000/00 RMK AO2 T02500233
63870K0J4 0J420160821201010808/21/16 20:10:31  5-MIN K0J4 220110Z AUTO 00000KT 10SM CLR 25/23 A3006 190 90 1400 000/00 RMK AO2 T02500233
63870K0J4 0J420160821201510808/21/16 20:15:31  5-MIN K0J4 220115Z AUTO 00000KT 10SM CLR 25/23 A3006 190 90 1400 000/00 RMK AO2 T02500233
63870K0J4 0J420160821202010808/21/16 20:20:31  5-MIN K0J4 220120Z AUTO 00000KT 10SM CLR 25/23 A3006 180 90 1400 000/00 RMK AO2 T02500233
63870K0J4 0J420160821203010808/21/16 20:30:31  5-MIN K0J4 220130Z AUTO 00000KT 10SM CLR 25/23 A3007 180 90 1400 000/00 RMK AO2 T02500233
63870K0J4 0J420160821203510808/21/16 20:35:31  5-MIN K0J4 220135Z AUTO 00000KT 10SM CLR 25/23 A3007 180 90 1400 000/00 RMK AO2 T02500233
63870K0J4 0J420160821204010808/21/16 20:40:31  5-MIN K0J4 220140Z AUTO 00000KT 10SM CLR 25/23 A3008 170 90 1400 000/00 RMK AO2 T02500233
63870K0J4 0J420160821204510808/21/16 20:45:31  5-MIN K0J4 220145Z AUTO 00000KT 10SM CLR 25/23 A3008 170 90 1400 000/00 RMK AO2 T02500233
63870K0J4 0J420160821205010808/21/16 20:50:31  5-MIN K0J4 220150Z AUTO 00000KT 10SM CLR 24/23 A3008 170 90 1300 000/00 RMK AO2 T02440228
63870K0J4 0J420160821205511508/21/16 20:55:31  5-MIN K0J4 220155Z AUTO 00000KT 10SM CLR 24/23 A3008 170 93 1300 000/00 RMK AO2 SLP181 T02440233
63870K0J4 0J420160821210010808/21/16 21:00:31  5-MIN K0J4 220200Z AUTO 00000KT 10SM CLR 24/23 A3008 170 93 1300 000/00 RMK AO2 T02440233
63870K0J4 0J420160821210510808/21/16 21:05:31  5-MIN K0J4 220205Z AUTO 00000KT 10SM CLR 24/23 A3008 170 93 1300 000/00 RMK AO2 T02440233
63870K0J4 0J420160821211010808/21/16 21:10:31  5-MIN K0J4 220210Z AUTO 00000KT 10SM CLR 24/23 A3008 170 93 1300 000/00 RMK AO2 T02440233
63870K0J4 0J420160821211510808/21/16 21:15:31  5-MIN K0J4 220215Z AUTO 00000KT 10SM CLR 25/23 A3008 170 90 1400 000/00 RMK AO2 T02500233
63870K0J4 0J420160821212010808/21/16 21:20:31  5-MIN K0J4 220220Z AUTO 00000KT 10SM CLR 24/23 A3008 170 93 1300 000/00 RMK AO2 T02440233
63870K0J4 0J420160821212510808/21/16 21:25:31  5-MIN K0J4 220225Z AUTO 00000KT 10SM CLR 24/23 A3008 170 93 1300 000/00 RMK AO2 T02440233
63870K0J4 0J420160821213010808/21/16 21:30:31  5-MIN K0J4 220230Z AUTO 00000KT 10SM CLR 24/23 A3008 170 93 1300 000/00 RMK AO2 T02440233
63870K0J4 0J420160821213510808/21/16 21:35:31  5-MIN K0J4 220235Z AUTO 00000KT 10SM CLR 24/23 A3008 170 93 1300 000/00 RMK AO2 T02440233
63870K0J4 0J420160821214010808/21/16 21:40:31  5-MIN K0J4 220240Z AUTO 00000KT 10SM CLR 24/23 A3008 170 93 1300 000/00 RMK AO2 T02440233
63870K0J4 0J420160821214510808/21/16 21:45:31  5-MIN K0J4 220245Z AUTO 00000KT 10SM CLR 24/23 A3008 170 90 1300 000/00 RMK AO2 T02440228
63870K0J4 0J420160821215010808/21/16 21:50:31  5-MIN K0J4 220250Z AUTO 00000KT 10SM CLR 24/23 A3008 170 90 1300 000/00 RMK AO2 T02440228
63870K0J4 0J420160821215512108/21/16 21:55:31  5-MIN K0J4 220255Z AUTO 00000KT 10SM CLR 24/23 A3008 170 90 1300 000/00 RMK AO2 SLP181 T02440228 53009
63870K0J4 0J420160821220010808/21/16 22:00:31  5-MIN K0J4 220300Z AUTO 00000KT 10SM CLR 24/23 A3008 170 90 1300 000/00 RMK AO2 T02440228
63870K0J4 0J420160821220510808/21/16 22:05:31  5-MIN K0J4 220305Z AUTO 00000KT 10SM CLR 24/23 A3008 170 90 1300 000/00 RMK AO2 T02440228
63870K0J4 0J420160821221010808/21/16 22:10:31  5-MIN K0J4 220310Z AUTO 00000KT 10SM CLR 24/23 A3008 170 90 1300 000/00 RMK AO2 T02440228
63870K0J4 0J420160821221510808/21/16 22:15:31  5-MIN K0J4 220315Z AUTO 00000KT 10SM CLR 24/23 A3008 170 93 1300 000/00 RMK AO2 T02390228
63870K0J4 0J420160821222010808/21/16 22:20:31  5-MIN K0J4 220320Z AUTO 00000KT 10SM CLR 24/23 A3008 170 93 1300 000/00 RMK AO2 T02390228
63870K0J4 0J420160821222510808/21/16 22:25:31  5-MIN K0J4 220325Z AUTO 00000KT 10SM CLR 24/23 A3007 170 93 1300 000/00 RMK AO2 T02390228
63870K0J4 0J420160821223010808/21/16 22:30:31  5-MIN K0J4 220330Z AUTO 00000KT 10SM CLR 24/23 A3008 170 93 1300 000/00 RMK AO2 T02390228
63870K0J4 0J420160821223510808/21/16 22:35:31  5-MIN K0J4 220335Z AUTO 00000KT 10SM CLR 24/23 A3008 170 93 1300 000/00 RMK AO2 T02390228
63870K0J4 0J420160821224010808/21/16 22:40:31  5-MIN K0J4 220340Z AUTO 00000KT 10SM CLR 24/22 A3008 170 90 1300 000/00 RMK AO2 T02390222
63870K0J4 0J420160821224510808/21/16 22:45:31  5-MIN K0J4 220345Z AUTO 00000KT 10SM CLR 24/23 A3008 170 93 1300 000/00 RMK AO2 T02390228
63870K0J4 0J420160821225010808/21/16 22:50:31  5-MIN K0J4 220350Z AUTO 00000KT 10SM CLR 24/23 A3008 170 93 1300 000/00 RMK AO2 T02390228
63870K0J4 0J420160821225511508/21/16 22:55:31  5-MIN K0J4 220355Z AUTO 00000KT 10SM CLR 24/22 A3008 170 90 1300 000/00 RMK AO2 SLP181 T02390222
63870K0J4 0J420160821230010808/21/16 23:00:31  5-MIN K0J4 220400Z AUTO 00000KT 10SM CLR 24/22 A3008 170 90 1300 000/00 RMK AO2 T02390222
63870K0J4 0J420160821230510808/21/16 23:05:31  5-MIN K0J4 220405Z AUTO 00000KT 10SM CLR 24/23 A3008 170 93 1300 000/00 RMK AO2 T02390228
63870K0J4 0J420160821231010808/21/16 23:10:31  5-MIN K0J4 220410Z AUTO 00000KT 10SM CLR 24/22 A3008 170 90 1300 000/00 RMK AO2 T02390222
63870K0J4 0J420160821231510808/21/16 23:15:31  5-MIN K0J4 220415Z AUTO 00000KT 10SM CLR 24/22 A3008 170 90 1300 000/00 RMK AO2 T02390222
63870K0J4 0J420160821232010808/21/16 23:20:31  5-MIN K0J4 220420Z AUTO 00000KT 10SM CLR 23/22 A3007 170 93 1200 000/00 RMK AO2 T02330222
63870K0J4 0J420160821232510808/21/16 23:25:31  5-MIN K0J4 220425Z AUTO 00000KT 10SM CLR 23/22 A3007 180 93 1200 000/00 RMK AO2 T02330222
63870K0J4 0J420160821233010808/21/16 23:30:31  5-MIN K0J4 220430Z AUTO 00000KT 10SM CLR 23/22 A3007 170 93 1200 000/00 RMK AO2 T02330222
63870K0J4 0J420160821233510808/21/16 23:35:31  5-MIN K0J4 220435Z AUTO 00000KT 10SM CLR 23/23 A3007 180 97 1200 000/00 RMK AO2 T02330228
63870K0J4 0J420160821234010808/21/16 23:40:31  5-MIN K0J4 220440Z AUTO 00000KT 10SM CLR 23/22 A3007 180 93 1200 000/00 RMK AO2 T02330222
63870K0J4 0J420160821234510808/21/16 23:45:31  5-MIN K0J4 220445Z AUTO 00000KT 10SM CLR 23/22 A3007 180 93 1200 000/00 RMK AO2 T02330222
63870K0J4 0J420160821235010808/21/16 23:50:31  5-MIN K0J4 220450Z AUTO 00000KT 10SM CLR 23/22 A3007 180 93 1200 000/00 RMK AO2 T02330222
63870K0J4 0J420160821235512508/21/16 23:55:31  5-MIN K0J4 220455Z AUTO 00000KT 10SM CLR 23/22 A3007 180 93 1200 000/00 RMK AO2 SLP177 T02330222 403110233
63870K0J4 0J420160822000010808/22/16 00:00:31  5-MIN K0J4 220500Z AUTO 00000KT 10SM CLR 23/22 A3007 180 93 1200 000/00 RMK AO2 T02330222
63870K0J4 0J420160822000510808/22/16 00:05:31  5-MIN K0J4 220505Z AUTO 00000KT 10SM CLR 23/22 A3006 180 93 1200 000/00 RMK AO2 T02330222
63870K0J4 0J420160822001010808/22/16 00:10:31  5-MIN K0J4 220510Z AUTO 00000KT 10SM CLR 23/22 A3007 180 93 1200 000/00 RMK AO2 T02330222
63870K0J4 0J420160822001510808/22/16 00:15:31  5-MIN K0J4 220515Z AUTO 00000KT 10SM CLR 23/22 A3007 180 93 1200 000/00 RMK AO2 T02330222
63870K0J4 0J420160822002010808/22/16 00:20:31  5-MIN K0J4 220520Z AUTO 00000KT 10SM CLR 23/22 A3006 180 93 1200 000/00 RMK AO2 T02330222
63870K0J4 0J420160822002512408/22/16 00:25:31  5-MIN K0J4 220525Z AUTO 00000KT 10SM -RA CLR 23/22 A3007 180 93 1200 000/00 RMK AO2 RAB25 P0000 T02330222
63870K0J4 0J420160822003012408/22/16 00:30:31  5-MIN K0J4 220530Z AUTO 00000KT 10SM -RA CLR 23/22 A3007 180 93 1200 000/00 RMK AO2 RAB25 P0000 T02330222
63870K0J4 0J420160822003512308/22/16 00:35:31  5-MIN K0J4 220535Z AUTO 00000KT 10SM CLR 23/22 A3006 180 93 1200 000/00 RMK AO2 RAB25E34 P0000 T02330222
63870K0J4 0J420160822004012408/22/16 00:40:31  5-MIN K0J4 220540Z AUTO 22003KT 10SM -RA CLR 23/22 A3006 190 93 1200 220/03 RMK AO2 RAB25 P0000 T02330222
63870K0J4 0J420160822004512408/22/16 00:45:31  5-MIN K0J4 220545Z AUTO 00000KT 10SM -RA CLR 23/22 A3006 180 93 1200 000/00 RMK AO2 RAB25 P0000 T02330222
63870K0J4 0J420160822005012408/22/16 00:50:31  5-MIN K0J4 220550Z AUTO 00000KT 10SM -RA CLR 23/22 A3006 190 93 1200 000/00 RMK AO2 RAB25 P0000 T02330222
63870K0J4 0J420160822005515508/22/16 00:55:31  5-MIN K0J4 220555Z AUTO 00000KT 10SM -RA CLR 23/22 A3006 190 97 1200 000/00 RMK AO2 RAB25 SLP174 P0000 60000 T02280222 10256 20228 53010
63870K0J4 0J420160822010010808/22/16 01:00:31  5-MIN K0J4 220600Z AUTO 00000KT 10SM CLR 23/22 A3006 190 97 1200 000/00 RMK AO2 T02280222
63870K0J4 0J420160822010510808/22/16 01:05:31  5-MIN K0J4 220605Z AUTO 00000KT 10SM CLR 23/22 A3006 190 97 1200 000/00 RMK AO2 T02280222
63870K0J4 0J420160822011010808/22/16 01:10:31  5-MIN K0J4 220610Z AUTO 00000KT 10SM CLR 23/22 A3006 190 93 1200 000/00 RMK AO2 T02330222
63870K0J4 0J420160822011510808/22/16 01:15:31  5-MIN K0J4 220615Z AUTO 00000KT 10SM CLR 23/22 A3006 190 93 1200 000/00 RMK AO2 T02330222
63870K0J4 0J420160822012010808/22/16 01:20:31  5-MIN K0J4 220620Z AUTO 00000KT 10SM CLR 23/22 A3006 190 97 1200 000/00 RMK AO2 T02280222
63870K0J4 0J420160822012512408/22/16 01:25:31  5-MIN K0J4 220625Z AUTO 00000KT 10SM -RA CLR 23/22 A3006 190 97 1200 000/00 RMK AO2 RAB24 P0000 T02280222
63870K0J4 0J420160822013012408/22/16 01:30:31  5-MIN K0J4 220630Z AUTO 00000KT 10SM -RA CLR 23/22 A3006 190 93 1200 000/00 RMK AO2 RAB24 P0000 T02330222
63870K0J4 0J420160822013512408/22/16 01:35:31  5-MIN K0J4 220635Z AUTO 00000KT 10SM -RA CLR 23/22 A3006 190 97 1200 000/00 RMK AO2 RAB24 P0000 T02280222
63870K0J4 0J420160822014012408/22/16 01:40:31  5-MIN K0J4 220640Z AUTO 00000KT 10SM -RA CLR 23/22 A3006 190 93 1200 000/00 RMK AO2 RAB24 P0000 T02330222
63870K0J4 0J420160822014512308/22/16 01:45:31  5-MIN K0J4 220645Z AUTO 00000KT 10SM CLR 23/22 A3006 190 93 1200 000/00 RMK AO2 RAB24E43 P0000 T02330222
63870K0J4 0J420160822015012308/22/16 01:50:31  5-MIN K0J4 220650Z AUTO 00000KT 10SM CLR 23/22 A3005 190 93 1200 000/00 RMK AO2 RAB24E43 P0000 T02330222
63870K0J4 0J420160822015513008/22/16 01:55:31  5-MIN K0J4 220655Z AUTO 00000KT 10SM CLR 23/22 A3005 190 93 1200 000/00 RMK AO2 RAB24E43 SLP172 P0000 T02330222
63870K0J4 0J420160822020010808/22/16 02:00:31  5-MIN K0J4 220700Z AUTO 00000KT 10SM CLR 23/22 A3006 190 93 1200 000/00 RMK AO2 T02330222
63870K0J4 0J420160822020510808/22/16 02:05:31  5-MIN K0J4 220705Z AUTO 00000KT 10SM CLR 23/22 A3006 190 93 1200 000/00 RMK AO2 T02330222
63870K0J4 0J420160822021010808/22/16 02:10:31  5-MIN K0J4 220710Z AUTO 00000KT 10SM CLR 23/22 A3006 190 93 1200 000/00 RMK AO2 T02330222
63870K0J4 0J420160822021510708/22/16 02:15:31  5-MIN K0J4 220715Z AUTO 00000KT 9SM CLR 23/22 A3006 190 93 1200 000/00 RMK AO2 T02280217
63870K0J4 0J420160822022010708/22/16 02:20:31  5-MIN K0J4 220720Z AUTO 00000KT 9SM CLR 23/22 A3006 190 93 1200 000/00 RMK AO2 T02280217
63870K0J4 0J420160822022512408/22/16 02:25:31  5-MIN K0J4 220725Z AUTO 00000KT 10SM -RA CLR 23/22 A3006 190 93 1200 000/00 RMK AO2 RAB22 P0000 T02280217
63870K0J4 0J420160822023012408/22/16 02:30:31  5-MIN K0J4 220730Z AUTO 00000KT 10SM -RA CLR 23/22 A3006 190 93 1200 000/00 RMK AO2 RAB22 P0000 T02280217
63870K0J4 0J420160822023512308/22/16 02:35:31  5-MIN K0J4 220735Z AUTO 00000KT 10SM CLR 23/22 A3006 190 93 1200 000/00 RMK AO2 RAB22E33 P0000 T02280217
63870K0J4 0J420160822024012308/22/16 02:40:31  5-MIN K0J4 220740Z AUTO 00000KT 10SM CLR 23/22 A3006 190 93 1200 000/00 RMK AO2 RAB22E33 P0000 T02280217
63870K0J4 0J420160822024512308/22/16 02:45:31  5-MIN K0J4 220745Z AUTO 00000KT 9SM -RA CLR 23/22 A3006 190 93 1200 000/00 RMK AO2 RAB22 P0000 T02280217
63870K0J4 0J420160822025012408/22/16 02:50:31  5-MIN K0J4 220750Z AUTO 00000KT 10SM -RA CLR 23/22 A3006 190 93 1200 000/00 RMK AO2 RAB22 P0000 T02280217
63870K0J4 0J420160822025513008/22/16 02:55:31  5-MIN K0J4 220755Z AUTO 00000KT 10SM CLR 23/22 A3006 190 93 1200 000/00 RMK AO2 RAB22E53 SLP174 P0000 T02280217
63870K0J4 0J420160822030010808/22/16 03:00:31  5-MIN K0J4 220800Z AUTO 00000KT 10SM CLR 23/22 A3006 190 93 1200 000/00 RMK AO2 T02280217
63870K0J4 0J420160822030510708/22/16 03:05:31  5-MIN K0J4 220805Z AUTO 00000KT 9SM CLR 23/22 A3006 190 93 1200 000/00 RMK AO2 T02280217
63870K0J4 0J420160822031010708/22/16 03:10:31  5-MIN K0J4 220810Z AUTO 00000KT 9SM CLR 23/22 A3006 190 93 1200 000/00 RMK AO2 T02280217
63870K0J4 0J420160822031510708/22/16 03:15:31  5-MIN K0J4 220815Z AUTO 00000KT 9SM CLR 23/22 A3006 190 93 1200 000/00 RMK AO2 T02280217
63870K0J4 0J420160822032010708/22/16 03:20:31  5-MIN K0J4 220820Z AUTO 00000KT 9SM CLR 23/22 A3006 190 93 1200 000/00 RMK AO2 T02280217
63870K0J4 0J420160822032510708/22/16 03:25:31  5-MIN K0J4 220825Z AUTO 00000KT 9SM CLR 23/22 A3006 190 93 1200 000/00 RMK AO2 T02280217
63870K0J4 0J420160822033010708/22/16 03:30:31  5-MIN K0J4 220830Z AUTO 00000KT 9SM CLR 23/22 A3006 190 93 1200 000/00 RMK AO2 T02280217
63870K0J4 0J420160822033512408/22/16 03:35:31  5-MIN K0J4 220835Z AUTO 00000KT 10SM -RA CLR 22/21 A3006 190 93 1100 000/00 RMK AO2 RAB31 P0000 T02220211
63870K0J4 0J420160822034012408/22/16 03:40:31  5-MIN K0J4 220840Z AUTO 00000KT 10SM -RA CLR 22/22 A3006 190 97 1100 000/00 RMK AO2 RAB31 P0000 T02220217
63870K0J4 0J420160822034512408/22/16 03:45:31  5-MIN K0J4 220845Z AUTO 00000KT 10SM -RA CLR 23/22 A3006 190 93 1200 000/00 RMK AO2 RAB31 P0000 T02280217
63870K0J4 0J420160822035012208/22/16 03:50:31  5-MIN K0J4 220850Z AUTO 00000KT 9SM CLR 23/22 A3006 190 93 1200 000/00 RMK AO2 RAB31E49 P0000 T02280217
63870K0J4 0J420160822035514208/22/16 03:55:31  5-MIN K0J4 220855Z AUTO 00000KT 8SM -RA CLR 23/22 A3006 190 93 1200 000/00 RMK AO2 RAB31 SLP175 P0000 60000 T02280217 58007
63870K0J4 0J420160822040010708/22/16 04:00:31  5-MIN K0J4 220900Z AUTO 00000KT 9SM CLR 22/21 A3006 180 93 1100 000/00 RMK AO2 T02220211
63870K0J4 0J420160822040510808/22/16 04:05:31  5-MIN K0J4 220905Z AUTO 00000KT 10SM CLR 22/21 A3007 180 93 1100 000/00 RMK AO2 T02220211
63870K0J4 0J420160822041010808/22/16 04:10:31  5-MIN K0J4 220910Z AUTO 00000KT 10SM CLR 22/21 A3007 180 93 1100 000/00 RMK AO2 T02220211
63870K0J4 0J420160822041510808/22/16 04:15:31  5-MIN K0J4 220915Z AUTO 00000KT 10SM CLR 22/21 A3007 180 93 1100 000/00 RMK AO2 T02220211
63870K0J4 0J420160822042010808/22/16 04:20:31  5-MIN K0J4 220920Z AUTO 00000KT 10SM CLR 22/21 A3007 180 93 1100 000/00 RMK AO2 T02220211
63870K0J4 0J420160822042510808/22/16 04:25:31  5-MIN K0J4 220925Z AUTO 00000KT 10SM CLR 22/21 A3007 180 93 1100 000/00 RMK AO2 T02220211
63870K0J4 0J420160822043010808/22/16 04:30:31  5-MIN K0J4 220930Z AUTO 00000KT 10SM CLR 22/21 A3007 180 93 1100 000/00 RMK AO2 T02220211
63870K0J4 0J420160822043510808/22/16 04:35:31  5-MIN K0J4 220935Z AUTO 00000KT 10SM CLR 22/21 A3007 170 93 1100 000/00 RMK AO2 T02220211
63870K0J4 0J420160822044010808/22/16 04:40:31  5-MIN K0J4 220940Z AUTO 00000KT 10SM CLR 22/21 A3007 170 93 1100 000/00 RMK AO2 T02220211
63870K0J4 0J420160822044510708/22/16 04:45:31  5-MIN K0J4 220945Z AUTO 00000KT 9SM CLR 22/21 A3008 170 93 1100 000/00 RMK AO2 T02220211
63870K0J4 0J420160822045010708/22/16 04:50:31  5-MIN K0J4 220950Z AUTO 00000KT 8SM CLR 23/22 A3008 170 93 1200 000/00 RMK AO2 T02280217
63870K0J4 0J420160822045511408/22/16 04:55:31  5-MIN K0J4 220955Z AUTO 00000KT 8SM CLR 22/22 A3008 170 97 1100 000/00 RMK AO2 SLP181 T02220217
63870K0J4 0J420160822050010708/22/16 05:00:31  5-MIN K0J4 221000Z AUTO 00000KT 8SM CLR 22/21 A3008 170 93 1100 000/00 RMK AO2 T02220211
63870K0J4 0J420160822050510708/22/16 05:05:31  5-MIN K0J4 221005Z AUTO 00000KT 8SM CLR 22/21 A3008 170 93 1100 000/00 RMK AO2 T02220211
63870K0J4 0J420160822051010708/22/16 05:10:31  5-MIN K0J4 221010Z AUTO 00000KT 8SM CLR 22/21 A3009 160 93 1100 000/00 RMK AO2 T02220211
63870K0J4 0J420160822051510708/22/16 05:15:31  5-MIN K0J4 221015Z AUTO 00000KT 8SM CLR 22/21 A3009 160 93 1100 000/00 RMK AO2 T02220211
63870K0J4 0J420160822052010708/22/16 05:20:31  5-MIN K0J4 221020Z AUTO 00000KT 8SM CLR 22/21 A3009 160 93 1100 000/00 RMK AO2 T02220211
63870K0J4 0J420160822052510708/22/16 05:25:31  5-MIN K0J4 221025Z AUTO 00000KT 9SM CLR 22/21 A3009 160 93 1100 000/00 RMK AO2 T02220211
63870K0J4 0J420160822053010708/22/16 05:30:31  5-MIN K0J4 221030Z AUTO 00000KT 9SM CLR 22/21 A3009 160 93 1100 000/00 RMK AO2 T02220211
63870K0J4 0J420160822053510708/22/16 05:35:31  5-MIN K0J4 221035Z AUTO 00000KT 9SM CLR 22/21 A3009 160 97 1000 000/00 RMK AO2 T02170211
63870K0J4 0J420160822054010808/22/16 05:40:31  5-MIN K0J4 221040Z AUTO 00000KT 10SM CLR 22/21 A3009 160 93 1000 000/00 RMK AO2 T02170206
63870K0J4 0J420160822054510808/22/16 05:45:31  5-MIN K0J4 221045Z AUTO 00000KT 10SM CLR 22/21 A3009 160 93 1100 000/00 RMK AO2 T02220211
63870K0J4 0J420160822055010808/22/16 05:50:31  5-MIN K0J4 221050Z AUTO 00000KT 10SM CLR 22/21 A3009 160 93 1100 000/00 RMK AO2 T02220211
63870K0J4 0J420160822055511508/22/16 05:55:31  5-MIN K0J4 221055Z AUTO 00000KT 10SM CLR 22/21 A3010 160 93 1100 000/00 RMK AO2 SLP186 T02220211
63870K0J4 0J420160822060010808/22/16 06:00:31  5-MIN K0J4 221100Z AUTO 00000KT 10SM CLR 22/21 A3010 150 93 1000 000/00 RMK AO2 T02170206
63870K0J4 0J420160822060510808/22/16 06:05:31  5-MIN K0J4 221105Z AUTO 00000KT 10SM CLR 22/21 A3010 150 90 1100 000/00 RMK AO2 T02220206
63870K0J4 0J420160822061010808/22/16 06:10:31  5-MIN K0J4 221110Z AUTO 00000KT 10SM CLR 22/21 A3010 150 90 1100 000/00 RMK AO2 T02220206
63870K0J4 0J420160822061510708/22/16 06:15:31  5-MIN K0J4 221115Z AUTO 00000KT 9SM CLR 22/21 A3010 150 93 1100 000/00 RMK AO2 T02220211
63870K0J4 0J420160822062010708/22/16 06:20:31  5-MIN K0J4 221120Z AUTO 00000KT 8SM CLR 22/21 A3010 150 93 1100 000/00 RMK AO2 T02220211
63870K0J4 0J420160822062510708/22/16 06:25:31  5-MIN K0J4 221125Z AUTO 00000KT 8SM CLR 23/22 A3010 150 93 1100 000/00 RMK AO2 T02280217
63870K0J4 0J420160822063010708/22/16 06:30:31  5-MIN K0J4 221130Z AUTO 00000KT 8SM CLR 23/22 A3011 150 93 1100 000/00 RMK AO2 T02280217
63870K0J4 0J420160822063510708/22/16 06:35:31  5-MIN K0J4 221135Z AUTO 00000KT 9SM CLR 23/22 A3011 140 93 1100 000/00 RMK AO2 T02280217
63870K0J4 0J420160822064010708/22/16 06:40:31  5-MIN K0J4 221140Z AUTO 00000KT 9SM CLR 23/22 A3011 140 93 1100 000/00 RMK AO2 T02280217
63870K0J4 0J420160822064510708/22/16 06:45:31  5-MIN K0J4 221145Z AUTO 00000KT 8SM CLR 23/22 A3011 140 93 1100 000/00 RMK AO2 T02280217
63870K0J4 0J420160822065010708/22/16 06:50:31  5-MIN K0J4 221150Z AUTO 00000KT 9SM CLR 23/22 A3011 140 93 1100 000/00 RMK AO2 T02280217
63870K0J4 0J420160822065514508/22/16 06:55:31  5-MIN K0J4 221155Z AUTO 00000KT 10SM CLR 23/22 A3012 140 93 1200 000/00 RMK AO2 SLP193 60000 70040 T02330222 10233 20217 53001
63870K0J4 0J420160822070010808/22/16 07:00:31  5-MIN K0J4 221200Z AUTO 00000KT 10SM CLR 23/22 A3012 130 97 1100 000/00 RMK AO2 T02280222
63870K0J4 0J420160822070510808/22/16 07:05:31  5-MIN K0J4 221205Z AUTO 00000KT 10SM CLR 23/22 A3012 130 93 1100 000/00 RMK AO2 T02280217
63870K0J4 0J420160822071010808/22/16 07:10:31  5-MIN K0J4 221210Z AUTO 00000KT 10SM CLR 23/22 A3012 130 93 1100 000/00 RMK AO2 T02280217
63870K0J4 0J420160822071510808/22/16 07:15:31  5-MIN K0J4 221215Z AUTO 00000KT 10SM CLR 23/22 A3012 130 90 1200 000/00 RMK AO2 T02330217
63870K0J4 0J420160822072010808/22/16 07:20:31  5-MIN K0J4 221220Z AUTO 00000KT 10SM CLR 23/22 A3012 130 93 1200 000/00 RMK AO2 T02330222
63870K0J4 0J420160822072510808/22/16 07:25:31  5-MIN K0J4 221225Z AUTO 00000KT 10SM CLR 23/22 A3012 130 93 1200 000/00 RMK AO2 T02330222
63870K0J4 0J420160822073010808/22/16 07:30:31  5-MIN K0J4 221230Z AUTO 00000KT 10SM CLR 23/22 A3012 130 93 1200 000/00 RMK AO2 T02330222
63870K0J4 0J420160822073510808/22/16 07:35:31  5-MIN K0J4 221235Z AUTO 00000KT 10SM CLR 24/22 A3012 130 90 1200 000/00 RMK AO2 T02390222
63870K0J4 0J420160822074010808/22/16 07:40:31  5-MIN K0J4 221240Z AUTO 00000KT 10SM CLR 24/22 A3013 130 90 1200 000/00 RMK AO2 T02390222
63870K0J4 0J420160822074510808/22/16 07:45:31  5-MIN K0J4 221245Z AUTO 00000KT 10SM CLR 24/22 A3013 120 90 1200 000/00 RMK AO2 T02390222
63870K0J4 0J420160822075010808/22/16 07:50:31  5-MIN K0J4 221250Z AUTO 00000KT 10SM CLR 24/23 A3013 120 90 1300 000/00 RMK AO2 T02440228
63870K0J4 0J420160822075511508/22/16 07:55:31  5-MIN K0J4 221255Z AUTO 00000KT 10SM CLR 25/23 A3013 120 87 1300 000/00 RMK AO2 SLP199 T02500228
63870K0J4 0J420160822080010808/22/16 08:00:31  5-MIN K0J4 221300Z AUTO 00000KT 10SM CLR 25/23 A3013 120 87 1300 000/00 RMK AO2 T02500228
63870K0J4 0J420160822080510808/22/16 08:05:31  5-MIN K0J4 221305Z AUTO 00000KT 10SM CLR 26/23 A3014 120 84 1400 000/00 RMK AO2 T02560228
63870K0J4 0J420160822081010808/22/16 08:10:31  5-MIN K0J4 221310Z AUTO 00000KT 10SM CLR 26/23 A3014 120 84 1400 000/00 RMK AO2 T02560228
63870K0J4 0J420160822081512408/22/16 08:15:31  5-MIN K0J4 221315Z AUTO 03003KT 10SM -RA CLR 26/23 A3014 120 81 1500 030/03 RMK AO2 RAB13 P0000 T02610228
63870K0J4 0J420160822082012408/22/16 08:20:31  5-MIN K0J4 221320Z AUTO 01003KT 10SM -RA CLR 26/22 A3014 110 79 1500 010/03 RMK AO2 RAB13 P0000 T02610222
63870K0J4 0J420160822082512308/22/16 08:25:31  5-MIN K0J4 221325Z AUTO 34004KT 10SM CLR 26/22 A3014 110 79 1500 340/04 RMK AO2 RAB13E22 P0000 T02610222
63870K0J4 0J420160822083012308/22/16 08:30:31  5-MIN K0J4 221330Z AUTO 36005KT 10SM CLR 27/23 A3014 110 79 1500 360/05 RMK AO2 RAB13E22 P0000 T02670228
63870K0J4 0J420160822083512308/22/16 08:35:31  5-MIN K0J4 221335Z AUTO 36003KT 10SM CLR 27/22 A3014 110 76 1500 360/03 RMK AO2 RAB13E22 P0000 T02670222
63870K0J4 0J420160822084012308/22/16 08:40:31  5-MIN K0J4 221340Z AUTO 36004KT 10SM CLR 27/22 A3014 110 76 1500 360/04 RMK AO2 RAB13E22 P0000 T02670222
63870K0J4 0J420160822084512308/22/16 08:45:31  5-MIN K0J4 221345Z AUTO 02004KT 10SM CLR 27/22 A3014 110 73 1500 020/04 RMK AO2 RAB13E22 P0000 T02670217
63870K0J4 0J420160822085012308/22/16 08:50:31  5-MIN K0J4 221350Z AUTO VRB03KT 10SM CLR 27/22 A3014 110 76 1500 VRB/03 RMK AO2 RAB13E22 P0000 T02670222
63870K0J4 0J420160822085513008/22/16 08:55:31  5-MIN K0J4 221355Z AUTO VRB04KT 10SM CLR 27/22 A3014 110 74 1600 VRB/04 RMK AO2 RAB13E22 SLP203 P0000 T02720222
63870K0J4 0J420160822090010808/22/16 09:00:31  5-MIN K0J4 221400Z AUTO VRB03KT 10SM CLR 27/22 A3015 110 76 1500 VRB/03 RMK AO2 T02670222
63870K0J4 0J420160822090510808/22/16 09:05:31  5-MIN K0J4 221405Z AUTO 00000KT 10SM CLR 27/22 A3015 100 74 1600 000/00 RMK AO2 T02720222
63870K0J4 0J420160822091010808/22/16 09:10:31  5-MIN K0J4 221410Z AUTO 36003KT 10SM CLR 28/22 A3015 100 71 1600 360/03 RMK AO2 T02780222
63870K0J4 0J420160822091510808/22/16 09:15:31  5-MIN K0J4 221415Z AUTO 00000KT 10SM CLR 28/22 A3015 100 71 1600 000/00 RMK AO2 T02780222
63870K0J4 0J420160822092010808/22/16 09:20:31  5-MIN K0J4 221420Z AUTO 00000KT 10SM CLR 28/22 A3015 100 71 1600 000/00 RMK AO2 T02780222
63870K0J4 0J420160822092510808/22/16 09:25:31  5-MIN K0J4 221425Z AUTO 00000KT 10SM CLR 27/22 A3016 100 74 1600 000/00 RMK AO2 T02720222
63870K0J4 0J420160822093010808/22/16 09:30:31  5-MIN K0J4 221430Z AUTO 00000KT 10SM CLR 28/22 A3016 100 71 1600 000/00 RMK AO2 T02780222
63870K0J4 0J420160822093510808/22/16 09:35:31  5-MIN K0J4 221435Z AUTO 00000KT 10SM CLR 28/22 A3016 100 69 1700 000/00 RMK AO2 T02830222
63870K0J4 0J420160822094010808/22/16 09:40:31  5-MIN K0J4 221440Z AUTO 00000KT 10SM CLR 28/22 A3016 100 69 1700 000/00 RMK AO2 T02830222
63870K0J4 0J420160822094510808/22/16 09:45:31  5-MIN K0J4 221445Z AUTO 00000KT 10SM CLR 28/23 A3016 100 71 1700 000/00 RMK AO2 T02830228
63870K0J4 0J420160822095010808/22/16 09:50:31  5-MIN K0J4 221450Z AUTO 00000KT 10SM CLR 29/22 A3016 100 67 1800 000/00 RMK AO2 T02890222
63870K0J4 0J420160822095512708/22/16 09:55:31  5-MIN K0J4 221455Z AUTO 00000KT 10SM CLR 29/23 A3016 100 69 1800 000/00 RMK AO2 SLP207 60000 T02890228 53018
63870K0J4 0J420160822100010808/22/16 10:00:31  5-MIN K0J4 221500Z AUTO 04003KT 10SM CLR 29/23 A3016 100 69 1800 040/03 RMK AO2 T02890228
63870K0J4 0J420160822100510808/22/16 10:05:31  5-MIN K0J4 221505Z AUTO 00000KT 10SM CLR 29/23 A3016 100 67 1800 000/00 RMK AO2 T02940228
63870K0J4 0J420160822101010708/22/16 10:10:31  5-MIN K0J4 221510Z AUTO 00000KT 10SM CLR 29/22 A3016 90 64 1800 000/00 RMK AO2 T02940222
63870K0J4 0J420160822101510808/22/16 10:15:31  5-MIN K0J4 221515Z AUTO 00000KT 10SM CLR 29/22 A3016 100 67 1800 000/00 RMK AO2 T02890222
63870K0J4 0J420160822102010808/22/16 10:20:31  5-MIN K0J4 221520Z AUTO 00000KT 10SM CLR 29/23 A3016 100 69 1800 000/00 RMK AO2 T02890228
63870K0J4 0J420160822102511108/22/16 10:25:31  5-MIN K0J4 221525Z AUTO 08004KT 10SM FEW021 30/23 A3016 100 65 1900 080/04 RMK AO2 T03000228
63870K0J4 0J420160822103011008/22/16 10:30:31  5-MIN K0J4 221530Z AUTO 00000KT 10SM FEW021 30/23 A3016 90 65 1900 000/00 RMK AO2 T03000228
63870K0J4 0J420160822103511008/22/16 10:35:31  5-MIN K0J4 221535Z AUTO 00000KT 10SM FEW022 30/23 A3016 90 65 1900 000/00 RMK AO2 T03000228
63870K0J4 0J420160822104011008/22/16 10:40:31  5-MIN K0J4 221540Z AUTO VRB03KT 10SM FEW022 31/23 A3016 90 62 1900 VRB/03 RMK AO2 T03060228
63870K0J4 0J420160822104510808/22/16 10:45:31  5-MIN K0J4 221545Z AUTO 00000KT 10SM CLR 29/23 A3016 100 67 1800 000/00 RMK AO2 T02940228
63870K0J4 0J420160822105010808/22/16 10:50:31  5-MIN K0J4 221550Z AUTO VRB03KT 10SM CLR 29/23 A3016 100 67 1800 VRB/03 RMK AO2 T02940228
63870K0J4 0J420160822105511808/22/16 10:55:31  5-MIN K0J4 221555Z AUTO 00000KT 10SM FEW025 29/22 A3016 100 64 1800 000/00 RMK AO2 SLP208 T02940222
63870K0J4 0J420160822110011008/22/16 11:00:31  5-MIN K0J4 221600Z AUTO 22005KT 10SM SCT025 30/23 A3016 90 65 1900 220/05 RMK AO2 T03000228
63870K0J4 0J420160822110511008/22/16 11:05:31  5-MIN K0J4 221605Z AUTO 00000KT 10SM BKN025 30/23 A3016 90 65 1900 000/00 RMK AO2 T03000228
63870K0J4 0J420160822111011008/22/16 11:10:31  5-MIN K0J4 221610Z AUTO VRB03KT 10SM BKN025 31/23 A3016 90 65 1900 VRB/03 RMK AO2 T03060233
63870K0J4 0J420160822111511108/22/16 11:15:31  5-MIN K0J4 221615Z AUTO 14004KT 10SM BKN025 30/23 A3016 100 65 1900 140/04 RMK AO2 T03000228
63870K0J4 0J420160822112011108/22/16 11:20:31  5-MIN K0J4 221620Z AUTO VRB03KT 10SM BKN025 31/23 A3016 100 65 1900 VRB/03 RMK AO2 T03060233
63870K0J4 0J420160822112511008/22/16 11:25:31  5-MIN K0J4 221625Z AUTO 00000KT 10SM SCT025 31/23 A3016 90 63 2000 000/00 RMK AO2 T03110233
63870K0J4 0J420160822113011108/22/16 11:30:31  5-MIN K0J4 221630Z AUTO 31003KT 10SM FEW025 31/22 A3016 100 60 1900 310/03 RMK AO2 T03060222
63870K0J4 0J420160822113510808/22/16 11:35:31  5-MIN K0J4 221635Z AUTO 00000KT 10SM CLR 31/23 A3016 100 62 1900 000/00 RMK AO2 T03060228
63870K0J4 0J420160822114010808/22/16 11:40:31  5-MIN K0J4 221640Z AUTO 00000KT 10SM CLR 31/22 A3016 100 60 1900 000/00 RMK AO2 T03060222
63870K0J4 0J420160822114510808/22/16 11:45:31  5-MIN K0J4 221645Z AUTO 17005KT 10SM CLR 30/22 A3015 100 62 1900 170/05 RMK AO2 T03000222
63870K0J4 0J420160822115010808/22/16 11:50:31  5-MIN K0J4 221650Z AUTO 21004KT 10SM CLR 31/23 A3015 100 62 1900 210/04 RMK AO2 T03060228
63870K0J4 0J420160822115511508/22/16 11:55:31  5-MIN K0J4 221655Z AUTO 16005KT 10SM CLR 31/23 A3015 100 62 1900 160/05 RMK AO2 SLP206 T03060228
63870K0J4 0J420160822120010808/22/16 12:00:31  5-MIN K0J4 221700Z AUTO 00000KT 10SM CLR 31/23 A3015 100 62 1900 000/00 RMK AO2 T03060228
63870K0J4 0J420160822120511108/22/16 12:05:31  5-MIN K0J4 221705Z AUTO 00000KT 10SM FEW030 32/23 A3015 100 61 2100 000/00 RMK AO2 T03170233
63870K0J4 0J420160822121011108/22/16 12:10:31  5-MIN K0J4 221710Z AUTO VRB04KT 10SM SCT030 32/23 A3015 100 61 2100 VRB/04 RMK AO2 T03170233
63870K0J4 0J420160822121511108/22/16 12:15:31  5-MIN K0J4 221715Z AUTO 36003KT 10SM BKN030 32/23 A3015 100 58 2100 360/03 RMK AO2 T03170228
63870K0J4 0J420160822122011108/22/16 12:20:31  5-MIN K0J4 221720Z AUTO 35003KT 10SM BKN030 31/23 A3015 100 63 2000 350/03 RMK AO2 T03110233
63870K0J4 0J420160822122511108/22/16 12:25:31  5-MIN K0J4 221725Z AUTO 01004KT 10SM BKN030 31/23 A3015 100 65 2000 010/04 RMK AO2 T03060233
63870K0J4 0J420160822123011108/22/16 12:30:31  5-MIN K0J4 221730Z AUTO 32003KT 10SM BKN030 31/23 A3015 100 62 2000 320/03 RMK AO2 T03060228
63870K0J4 0J420160822123511108/22/16 12:35:31  5-MIN K0J4 221735Z AUTO 32003KT 10SM BKN030 31/22 A3015 110 60 2000 320/03 RMK AO2 T03060222
63870K0J4 0J420160822124011108/22/16 12:40:31  5-MIN K0J4 221740Z AUTO 00000KT 10SM BKN032 31/23 A3015 110 60 2000 000/00 RMK AO2 T03110228
63870K0J4 0J420160822124511808/22/16 12:45:31  5-MIN K0J4 221745Z AUTO 00000KT 10SM FEW030 BKN036 31/23 A3015 110 63 2000 000/00 RMK AO2 T03110233
63870K0J4 0J420160822125011808/22/16 12:50:31  5-MIN K0J4 221750Z AUTO 00000KT 10SM FEW030 SCT037 31/23 A3015 110 60 2000 000/00 RMK AO2 T03110228
63870K0J4 0J420160822125514208/22/16 12:55:31  5-MIN K0J4 221755Z AUTO 00000KT 10SM FEW037 32/23 A3014 110 59 2100 000/00 RMK AO2 SLP203 60000 T03220233 10322 20228 51014
63870K0J4 0J420160822130011108/22/16 13:00:31  5-MIN K0J4 221800Z AUTO 23005KT 10SM FEW037 32/23 A3014 110 58 2100 230/05 RMK AO2 T03170228
63870K0J4 0J420160822130511108/22/16 13:05:31  5-MIN K0J4 221805Z AUTO 21004KT 10SM FEW037 32/23 A3014 110 58 2100 210/04 RMK AO2 T03170228
63870K0J4 0J420160822131011108/22/16 13:10:31  5-MIN K0J4 221810Z AUTO VRB04KT 10SM FEW035 32/22 A3014 110 56 2100 VRB/04 RMK AO2 T03170222
63870K0J4 0J420160822131511108/22/16 13:15:31  5-MIN K0J4 221815Z AUTO 00000KT 10SM SCT035 33/23 A3014 110 55 2200 000/00 RMK AO2 T03280228
63870K0J4 0J420160822132011108/22/16 13:20:31  5-MIN K0J4 221820Z AUTO VRB04KT 10SM BKN033 32/23 A3014 110 57 2100 VRB/04 RMK AO2 T03220228
63870K0J4 0J420160822132511108/22/16 13:25:31  5-MIN K0J4 221825Z AUTO 02004KT 10SM BKN033 32/23 A3014 120 58 2100 020/04 RMK AO2 T03170228
63870K0J4 0J420160822133011108/22/16 13:30:31  5-MIN K0J4 221830Z AUTO 04003KT 10SM BKN036 32/23 A3014 120 58 2100 040/03 RMK AO2 T03170228
63870K0J4 0J420160822133511808/22/16 13:35:31  5-MIN K0J4 221835Z AUTO 05003KT 10SM BKN036 OVC046 31/22 A3013 120 58 2000 050/03 RMK AO2 T03110222
63870K0J4 0J420160822134011808/22/16 13:40:31  5-MIN K0J4 221840Z AUTO VRB03KT 10SM BKN036 BKN046 31/22 A3013 120 58 2000 VRB/03 RMK AO2 T03110222
63870K0J4 0J420160822134512508/22/16 13:45:31  5-MIN K0J4 221845Z AUTO 00000KT 10SM SCT034 BKN045 BKN090 31/23 A3013 120 60 2000 000/00 RMK AO2 T03110228
63870K0J4 0J420160822135012508/22/16 13:50:31  5-MIN K0J4 221850Z AUTO 00000KT 10SM FEW036 SCT045 BKN090 32/23 A3013 120 57 2200 000/00 RMK AO2 T03220228
63870K0J4 0J420160822135513208/22/16 13:55:31  5-MIN K0J4 221855Z AUTO 00000KT 10SM FEW038 SCT047 BKN090 32/22 A3013 130 55 2200 000/00 RMK AO2 SLP197 T03220222
63870K0J4 0J420160822140012508/22/16 14:00:31  5-MIN K0J4 221900Z AUTO 35003KT 10SM FEW047 SCT070 BKN090 32/22 A3013 130 56 2100 350/03 RMK AO2 T03170222
63870K0J4 0J420160822140511808/22/16 14:05:31  5-MIN K0J4 221905Z AUTO 00000KT 10SM SCT075 BKN090 31/22 A3012 130 58 2000 000/00 RMK AO2 T03110222
63870K0J4 0J420160822141011808/22/16 14:10:31  5-MIN K0J4 221910Z AUTO 00000KT 10SM SCT075 BKN090 31/23 A3012 130 60 2000 000/00 RMK AO2 T03110228
63870K0J4 0J420160822141512508/22/16 14:15:31  5-MIN K0J4 221915Z AUTO 00000KT 10SM SCT080 SCT090 BKN110 32/23 A3012 130 57 2200 000/00 RMK AO2 T03220228
63870K0J4 0J420160822142011808/22/16 14:20:31  5-MIN K0J4 221920Z AUTO 00000KT 10SM SCT080 BKN110 32/22 A3011 140 55 2200 000/00 RMK AO2 T03220222
63870K0J4 0J420160822142512508/22/16 14:25:31  5-MIN K0J4 221925Z AUTO 00000KT 10SM FEW075 SCT090 BKN110 32/22 A3011 140 55 2200 000/00 RMK AO2 T03220222
63870K0J4 0J420160822143011808/22/16 14:30:31  5-MIN K0J4 221930Z AUTO VRB03KT 10SM FEW080 SCT110 32/22 A3011 140 55 2200 VRB/03 RMK AO2 T03220222
63870K0J4 0J420160822143511808/22/16 14:35:31  5-MIN K0J4 221935Z AUTO 00000KT 10SM FEW090 FEW110 31/22 A3011 150 58 2100 000/00 RMK AO2 T03110222
63870K0J4 0J420160822144011108/22/16 14:40:31  5-MIN K0J4 221940Z AUTO 11003KT 10SM FEW110 32/22 A3010 150 55 2200 110/03 RMK AO2 T03220222
63870K0J4 0J420160822144510808/22/16 14:45:31  5-MIN K0J4 221945Z AUTO 00000KT 10SM CLR 32/22 A3010 150 56 2100 000/00 RMK AO2 T03170222
63870K0J4 0J420160822145010808/22/16 14:50:31  5-MIN K0J4 221950Z AUTO 13003KT 10SM CLR 31/23 A3010 150 60 2100 130/03 RMK AO2 T03110228
63870K0J4 0J420160822145511508/22/16 14:55:31  5-MIN K0J4 221955Z AUTO 00000KT 10SM CLR 32/22 A3010 150 56 2100 000/00 RMK AO2 SLP189 T03170222
63870K0J4 0J420160822150010808/22/16 15:00:31  5-MIN K0J4 222000Z AUTO 00000KT 10SM CLR 32/22 A3010 150 55 2200 000/00 RMK AO2 T03220222
63870K0J4 0J420160822150510808/22/16 15:05:31  5-MIN K0J4 222005Z AUTO 00000KT 10SM CLR 33/22 A3010 150 53 2300 000/00 RMK AO2 T03280222
63870K0J4 0J420160822151010808/22/16 15:10:31  5-MIN K0J4 222010Z AUTO 00000KT 10SM CLR 32/22 A3010 150 53 2200 000/00 RMK AO2 T03220217
63870K0J4 0J420160822151510808/22/16 15:15:31  5-MIN K0J4 222015Z AUTO 00000KT 10SM CLR 32/22 A3010 150 55 2200 000/00 RMK AO2 T03220222
63870K0J4 0J420160822152010808/22/16 15:20:31  5-MIN K0J4 222020Z AUTO 00000KT 10SM CLR 32/22 A3010 150 55 2200 000/00 RMK AO2 T03220222
63870K0J4 0J420160822152510808/22/16 15:25:31  5-MIN K0J4 222025Z AUTO 00000KT 10SM CLR 32/22 A3010 150 53 2200 000/00 RMK AO2 T03220217
63870K0J4 0J420160822153010808/22/16 15:30:31  5-MIN K0J4 222030Z AUTO 00000KT 10SM CLR 33/23 A3010 150 55 2300 000/00 RMK AO2 T03280228
63870K0J4 0J420160822153510808/22/16 15:35:31  5-MIN K0J4 222035Z AUTO 00000KT 10SM CLR 32/23 A3010 150 61 2100 000/00 RMK AO2 T03170233
63870K0J4 0J420160822154010808/22/16 15:40:31  5-MIN K0J4 222040Z AUTO 00000KT 10SM CLR 33/22 A3010 150 53 2300 000/00 RMK AO2 T03280222
63870K0J4 0J420160822154512408/22/16 15:45:31  5-MIN K0J4 222045Z AUTO 00000KT 10SM -RA CLR 33/22 A3010 150 51 2300 000/00 RMK AO2 RAB45 P0000 T03280217
63870K0J4 0J420160822155012408/22/16 15:50:31  5-MIN K0J4 222050Z AUTO 00000KT 10SM -RA CLR 33/22 A3010 150 51 2300 000/00 RMK AO2 RAB45 P0000 T03330222
63870K0J4 0J420160822155514508/22/16 15:55:31  5-MIN K0J4 222055Z AUTO 00000KT 10SM FEW070 33/22 A3010 150 51 2300 000/00 RMK AO2 RAB45E55 SLP188 P0000 60000 T03330222 58005
63870K0J4 0J420160822160011108/22/16 16:00:31  5-MIN K0J4 222100Z AUTO VRB04KT 10SM FEW070 33/22 A3010 150 51 2300 VRB/04 RMK AO2 T03330222
63870K0J4 0J420160822160511108/22/16 16:05:31  5-MIN K0J4 222105Z AUTO 08004KT 10SM SCT070 33/23 A3010 150 53 2300 080/04 RMK AO2 T03330228
63870K0J4 0J420160822161011108/22/16 16:10:31  5-MIN K0J4 222110Z AUTO 08004KT 10SM SCT070 33/22 A3010 150 51 2300 080/04 RMK AO2 T03330222
63870K0J4 0J420160822161511808/22/16 16:15:31  5-MIN K0J4 222115Z AUTO 00000KT 10SM SCT042 SCT070 33/23 A3010 150 53 2300 000/00 RMK AO2 T03330228
63870K0J4 0J420160822162012508/22/16 16:20:31  5-MIN K0J4 222120Z AUTO 00000KT 10SM SCT042 BKN050 BKN070 34/22 A3010 150 50 2400 000/00 RMK AO2 T03390222
63870K0J4 0J420160822162512508/22/16 16:25:31  5-MIN K0J4 222125Z AUTO 04003KT 10SM BKN042 BKN050 BKN070 34/22 A3010 150 50 2400 040/03 RMK AO2 T03390222
63870K0J4 0J420160822163011808/22/16 16:30:31  5-MIN K0J4 222130Z AUTO 00000KT 10SM BKN042 BKN070 34/23 A3010 150 51 2400 000/00 RMK AO2 T03390228
63870K0J4 0J420160822163511108/22/16 16:35:31  5-MIN K0J4 222135Z AUTO VRB03KT 10SM BKN042 34/23 A3010 150 51 2400 VRB/03 RMK AO2 T03390228
63870K0J4 0J420160822164011108/22/16 16:40:31  5-MIN K0J4 222140Z AUTO 03005KT 10SM OVC043 34/22 A3010 150 50 2400 030/05 RMK AO2 T03390222
63870K0J4 0J420160822164511708/22/16 16:45:31  5-MIN K0J4 222145Z AUTO 03013G21KT 10SM OVC043 33/23 A3011 140 55 2200 030/13G21 RMK AO2 T03280228
63870K0J4 0J420160822165011708/22/16 16:50:31  5-MIN K0J4 222150Z AUTO 01010G21KT 10SM OVC043 29/23 A3011 140 67 1900 010/10G21 RMK AO2 T02940228
63870K0J4 0J420160822165512508/22/16 16:55:31  5-MIN K0J4 222155Z AUTO 03011KT 10SM BKN043 OVC070 29/23 A3011 140 69 1800 030/11 RMK AO2 SLP191 T02890228
63870K0J4 0J420160822170012508/22/16 17:00:31  5-MIN K0J4 222200Z AUTO 04011KT 10SM BKN043 BKN070 BKN085 28/23 A3011 140 71 1800 040/11 RMK AO2 T02830228
63870K0J4 0J420160822170511808/22/16 17:05:31  5-MIN K0J4 222205Z AUTO 02011KT 10SM SCT043 BKN085 28/23 A3010 150 74 1700 020/11 RMK AO2 T02780228
63870K0J4 0J420160822171012708/22/16 17:10:31  5-MIN K0J4 222210Z AUTO 03007KT 10SM -RA SCT041 28/23 A3011 140 74 1700 030/07 RMK AO2 RAB08 P0000 T02780228
63870K0J4 0J420160822171512708/22/16 17:15:31  5-MIN K0J4 222215Z AUTO 03009KT 10SM -RA FEW041 27/23 A3011 150 79 1600 030/09 RMK AO2 RAB08 P0000 T02720233
63870K0J4 0J420160822172012808/22/16 17:20:31  5-MIN K0J4 222220Z AUTO 03008KT 10SM VCTS CLR 27/23 A3011 140 79 1600 030/08 RMK AO2 RAB08E19 P0000 T02670228
63870K0J4 0J420160822172512808/22/16 17:25:31  5-MIN K0J4 222225Z AUTO 04004KT 10SM VCTS CLR 27/23 A3011 140 79 1600 040/04 RMK AO2 RAB08E19 P0000 T02670228
63870K0J4 0J420160822173012808/22/16 17:30:31  5-MIN K0J4 222230Z AUTO 17004KT 10SM VCTS CLR 27/23 A3012 140 82 1600 170/04 RMK AO2 RAB08E19 P0000 T02670233
63870K0J4 0J420160822173513508/22/16 17:35:31  5-MIN K0J4 222235Z AUTO 17005KT 10SM TS CLR 26/23 A3011 140 84 1500 170/05 RMK AO2 RAB08E19 TSB31B32 P0000 T02610233
63870K0J4 0J420160822174013508/22/16 17:40:31  5-MIN K0J4 222240Z AUTO 21004KT 10SM TS CLR 27/23 A3012 130 82 1500 210/04 RMK AO2 RAB08E19 TSB31B32 P0000 T02670233
63870K0J4 0J420160822174513808/22/16 17:45:31  5-MIN K0J4 222245Z AUTO 23004KT 10SM TS FEW045 27/23 A3013 130 82 1500 230/04 RMK AO2 RAB08E19 TSB31B32 P0000 T02670233
63870K0J4 0J420160822175013808/22/16 17:50:31  5-MIN K0J4 222250Z AUTO 23004KT 10SM TS SCT047 27/23 A3013 120 82 1500 230/04 RMK AO2 RAB08E19 TSB31B32 P0000 T02670233
63870K0J4 0J420160822175514508/22/16 17:55:31  5-MIN K0J4 222255Z AUTO 24004KT 10SM TS SCT049 27/23 A3014 120 82 1500 240/04 RMK AO2 RAB08E19 TSB31B32 SLP201 P0000 T02670233
63870K0J4 0J420160822180012108/22/16 18:00:31  5-MIN K0J4 222300Z AUTO 00000KT 10SM TS FEW049 SCT110 27/23 A3014 110 82 1500 000/00 RMK AO2 T02670233
63870K0J4 0J420160822180512108/22/16 18:05:31  5-MIN K0J4 222305Z AUTO 00000KT 10SM TS FEW048 SCT110 27/23 A3014 110 79 1600 000/00 RMK AO2 T02720233
63870K0J4 0J420160822181012108/22/16 18:10:31  5-MIN K0J4 222310Z AUTO 27003KT 10SM TS FEW042 SCT050 27/23 A3014 120 82 1500 270/03 RMK AO2 T02670233
63870K0J4 0J420160822181512108/22/16 18:15:31  5-MIN K0J4 222315Z AUTO 00000KT 10SM TS FEW042 FEW050 27/23 A3013 120 82 1500 000/00 RMK AO2 T02670233
63870K0J4 0J420160822182012108/22/16 18:20:31  5-MIN K0J4 222320Z AUTO 19003KT 10SM TS FEW042 FEW110 27/23 A3014 120 82 1500 190/03 RMK AO2 T02670233
63870K0J4 0J420160822182512808/22/16 18:25:31  5-MIN K0J4 222325Z AUTO 25003KT 10SM TS FEW042 SCT080 SCT110 27/23 A3014 120 79 1600 250/03 RMK AO2 T02720233
63870K0J4 0J420160822183013608/22/16 18:30:31  5-MIN K0J4 222330Z AUTO 00000KT 10SM -TSRA FEW044 BKN080 27/23 A3014 120 82 1500 000/00 RMK AO2 RAB30 P0000 T02670233
63870K0J4 0J420160822183513608/22/16 18:35:31  5-MIN K0J4 222335Z AUTO 00000KT 10SM -TSRA FEW044 SCT080 27/23 A3014 120 82 1500 000/00 RMK AO2 RAB30 P0000 T02670233
63870K0J4 0J420160822184013308/22/16 18:40:31  5-MIN K0J4 222340Z AUTO 00000KT 10SM -RA FEW080 27/23 A3014 120 82 1500 000/00 RMK AO2 RAB30 TSE38 P0000 T02670233
63870K0J4 0J420160822184514008/22/16 18:45:31  5-MIN K0J4 222345Z AUTO 29003KT 10SM -RA FEW080 SCT110 26/24 A3014 120 87 1500 290/03 RMK AO2 RAB30 TSE38 P0000 T02610239
63870K0J4 0J420160822185014008/22/16 18:50:31  5-MIN K0J4 222350Z AUTO 00000KT 10SM -RA FEW080 SCT110 26/23 A3013 120 84 1500 000/00 RMK AO2 RAB30 TSE38 P0000 T02610233
63870K0J4 0J420160822185516308/22/16 18:55:31  5-MIN K0J4 222355Z AUTO 00000KT 10SM FEW110 26/24 A3013 120 87 1500 000/00 RMK AO2 RAB30E51 TSE38 SLP199 P0000 60000 T02610239 10339 20261 56015
63870K0J4 0J420160822190011108/22/16 19:00:31  5-MIN K0J4 230000Z AUTO 31003KT 10SM FEW110 26/24 A3013 120 87 1500 310/03 RMK AO2 T02610239
63870K0J4 0J420160822190512708/22/16 19:05:31  5-MIN K0J4 230005Z AUTO 00000KT 10SM -RA FEW110 26/24 A3013 120 87 1500 000/00 RMK AO2 RAB05 P0000 T02610239
63870K0J4 0J420160822191012708/22/16 19:10:31  5-MIN K0J4 230010Z AUTO 00000KT 10SM -RA FEW110 26/24 A3014 120 87 1500 000/00 RMK AO2 RAB05 P0000 T02610239
63870K0J4 0J420160822191512408/22/16 19:15:31  5-MIN K0J4 230015Z AUTO 00000KT 10SM -RA CLR 26/24 A3014 120 87 1500 000/00 RMK AO2 RAB05 P0000 T02610239
63870K0J4 0J420160822192012408/22/16 19:20:31  5-MIN K0J4 230020Z AUTO 00000KT 10SM -RA CLR 26/24 A3014 120 87 1500 000/00 RMK AO2 RAB05 P0000 T02610239
63870K0J4 0J420160822192512308/22/16 19:25:31  5-MIN K0J4 230025Z AUTO 00000KT 10SM CLR 26/24 A3014 110 90 1400 000/00 RMK AO2 RAB05E22 P0000 T02560239
63870K0J4 0J420160822193012308/22/16 19:30:31  5-MIN K0J4 230030Z AUTO 00000KT 10SM CLR 26/24 A3014 110 90 1400 000/00 RMK AO2 RAB05E22 P0000 T02560239
63870K0J4 0J420160822193512308/22/16 19:35:31  5-MIN K0J4 230035Z AUTO 00000KT 10SM CLR 26/23 A3014 110 87 1400 000/00 RMK AO2 RAB05E22 P0000 T02560233
63870K0J4 0J420160822194012308/22/16 19:40:31  5-MIN K0J4 230040Z AUTO 00000KT 10SM CLR 26/24 A3014 110 90 1400 000/00 RMK AO2 RAB05E22 P0000 T02560239
63870K0J4 0J420160822194512308/22/16 19:45:31  5-MIN K0J4 230045Z AUTO 00000KT 10SM CLR 26/23 A3014 110 87 1400 000/00 RMK AO2 RAB05E22 P0000 T02560233
63870K0J4 0J420160822195012308/22/16 19:50:31  5-MIN K0J4 230050Z AUTO 00000KT 10SM CLR 26/24 A3015 110 90 1400 000/00 RMK AO2 RAB05E22 P0000 T02560239
63870K0J4 0J420160822195513008/22/16 19:55:31  5-MIN K0J4 230055Z AUTO 00000KT 10SM CLR 25/23 A3015 110 90 1300 000/00 RMK AO2 RAB05E22 SLP204 P0000 T02500233
63870K0J4 0J420160822200011808/22/16 20:00:31  5-MIN K0J4 230100Z AUTO 00000KT 10SM -RA CLR 25/23 A3014 110 90 1300 000/00 RMK AO2 P0000 T02500233
63870K0J4 0J420160822200511808/22/16 20:05:31  5-MIN K0J4 230105Z AUTO 00000KT 10SM -RA CLR 25/23 A3014 110 90 1300 000/00 RMK AO2 P0000 T02500233
63870K0J4 0J420160822201012008/22/16 20:10:31  5-MIN K0J4 230110Z AUTO 00000KT 10SM CLR 25/23 A3015 110 90 1300 000/00 RMK AO2 RAE08 P0000 T02500233
63870K0J4 0J420160822201511808/22/16 20:15:31  5-MIN K0J4 230115Z AUTO 00000KT 10SM -RA CLR 25/23 A3015 110 90 1300 000/00 RMK AO2 P0000 T02500233
63870K0J4 0J420160822202011808/22/16 20:20:31  5-MIN K0J4 230120Z AUTO 00000KT 10SM -RA CLR 25/23 A3015 110 90 1300 000/00 RMK AO2 P0000 T02500233
63870K0J4 0J420160822202512008/22/16 20:25:31  5-MIN K0J4 230125Z AUTO 00000KT 10SM CLR 25/23 A3015 100 90 1300 000/00 RMK AO2 RAE23 P0000 T02500233
63870K0J4 0J420160822203012008/22/16 20:30:31  5-MIN K0J4 230130Z AUTO 00000KT 10SM CLR 25/23 A3015 100 90 1300 000/00 RMK AO2 RAE23 P0000 T02500233
63870K0J4 0J420160822203512008/22/16 20:35:31  5-MIN K0J4 230135Z AUTO 00000KT 10SM CLR 25/23 A3016 100 90 1300 000/00 RMK AO2 RAE23 P0000 T02500233
63870K0J4 0J420160822204012008/22/16 20:40:31  5-MIN K0J4 230140Z AUTO 00000KT 10SM CLR 25/23 A3016 100 90 1300 000/00 RMK AO2 RAE23 P0000 T02500233
63870K0J4 0J420160822204512008/22/16 20:45:31  5-MIN K0J4 230145Z AUTO 00000KT 10SM CLR 25/23 A3016 100 90 1300 000/00 RMK AO2 RAE23 P0000 T02500233
63870K0J4 0J420160822205011908/22/16 20:50:31  5-MIN K0J4 230150Z AUTO 00000KT 10SM CLR 25/23 A3016 90 90 1300 000/00 RMK AO2 RAE23 P0000 T02500233
63870K0J4 0J420160822205512608/22/16 20:55:31  5-MIN K0J4 230155Z AUTO 00000KT 10SM CLR 25/23 A3016 90 90 1300 000/00 RMK AO2 RAE23 SLP210 P0000 T02500233
63870K0J4 0J420160822210010708/22/16 21:00:31  5-MIN K0J4 230200Z AUTO 00000KT 10SM CLR 25/23 A3017 90 90 1300 000/00 RMK AO2 T02500233
63870K0J4 0J420160822210510708/22/16 21:05:31  5-MIN K0J4 230205Z AUTO 00000KT 10SM CLR 25/23 A3017 90 90 1300 000/00 RMK AO2 T02500233
63870K0J4 0J420160822211010708/22/16 21:10:31  5-MIN K0J4 230210Z AUTO VRB03KT 10SM CLR 25/23 A3017 80 87 1300 VRB/03 RMK AO2 T02500228
63870K0J4 0J420160822211510708/22/16 21:15:31  5-MIN K0J4 230215Z AUTO 00000KT 10SM CLR 25/23 A3018 80 87 1300 000/00 RMK AO2 T02500228
63870K0J4 0J420160822212010708/22/16 21:20:31  5-MIN K0J4 230220Z AUTO VRB03KT 10SM CLR 25/23 A3018 80 87 1300 VRB/03 RMK AO2 T02500228
63870K0J4 0J420160822212510708/22/16 21:25:31  5-MIN K0J4 230225Z AUTO 00000KT 10SM CLR 25/23 A3018 70 87 1300 000/00 RMK AO2 T02500228
63870K0J4 0J420160822213010708/22/16 21:30:31  5-MIN K0J4 230230Z AUTO VRB03KT 10SM CLR 25/23 A3018 70 87 1300 VRB/03 RMK AO2 T02500228
63870K0J4 0J420160822213510708/22/16 21:35:31  5-MIN K0J4 230235Z AUTO 00000KT 10SM CLR 25/23 A3018 70 87 1300 000/00 RMK AO2 T02500228
63870K0J4 0J420160822214010708/22/16 21:40:31  5-MIN K0J4 230240Z AUTO 00000KT 10SM CLR 25/23 A3018 70 87 1300 000/00 RMK AO2 T02500228
63870K0J4 0J420160822214510708/22/16 21:45:31  5-MIN K0J4 230245Z AUTO 00000KT 10SM CLR 25/23 A3018 70 87 1300 000/00 RMK AO2 T02500228
63870K0J4 0J420160822215010708/22/16 21:50:31  5-MIN K0J4 230250Z AUTO 00000KT 10SM CLR 25/23 A3019 70 87 1300 000/00 RMK AO2 T02500228
63870K0J4 0J420160822215512608/22/16 21:55:31  5-MIN K0J4 230255Z AUTO 00000KT 10SM CLR 25/23 A3019 70 87 1300 000/00 RMK AO2 SLP218 60000 T02500228 50012
63870K0J4 0J420160822220010708/22/16 22:00:31  5-MIN K0J4 230300Z AUTO 00000KT 10SM CLR 24/23 A3019 70 90 1200 000/00 RMK AO2 T02440228
63870K0J4 0J420160822220510708/22/16 22:05:31  5-MIN K0J4 230305Z AUTO 00000KT 10SM CLR 24/23 A3019 70 90 1200 000/00 RMK AO2 T02440228
63870K0J4 0J420160822221010708/22/16 22:10:31  5-MIN K0J4 230310Z AUTO 00000KT 10SM CLR 24/23 A3019 70 90 1200 000/00 RMK AO2 T02440228
63870K0J4 0J420160822221510708/22/16 22:15:31  5-MIN K0J4 230315Z AUTO 00000KT 10SM CLR 25/23 A3019 70 87 1300 000/00 RMK AO2 T02500228
63870K0J4 0J420160822222010708/22/16 22:20:31  5-MIN K0J4 230320Z AUTO 00000KT 10SM CLR 25/23 A3019 70 87 1300 000/00 RMK AO2 T02500228
63870K0J4 0J420160822222510708/22/16 22:25:31  5-MIN K0J4 230325Z AUTO 00000KT 10SM CLR 25/23 A3019 70 87 1300 000/00 RMK AO2 T02500228
63870K0J4 0J420160822223010708/22/16 22:30:31  5-MIN K0J4 230330Z AUTO 00000KT 10SM CLR 24/23 A3019 70 90 1200 000/00 RMK AO2 T02440228
63870K0J4 0J420160822223510708/22/16 22:35:31  5-MIN K0J4 230335Z AUTO 00000KT 10SM CLR 24/23 A3019 70 90 1200 000/00 RMK AO2 T02440228
63870K0J4 0J420160822224010708/22/16 22:40:31  5-MIN K0J4 230340Z AUTO 00000KT 10SM CLR 24/23 A3019 70 90 1200 000/00 RMK AO2 T02440228
63870K0J4 0J420160822224510708/22/16 22:45:31  5-MIN K0J4 230345Z AUTO 00000KT 10SM CLR 24/23 A3019 70 90 1200 000/00 RMK AO2 T02440228
63870K0J4 0J420160822225010708/22/16 22:50:31  5-MIN K0J4 230350Z AUTO 34003KT 10SM CLR 24/23 A3019 70 90 1200 340/03 RMK AO2 T02440228
63870K0J4 0J420160822225511408/22/16 22:55:31  5-MIN K0J4 230355Z AUTO 33003KT 10SM CLR 24/23 A3019 70 90 1200 330/03 RMK AO2 SLP218 T02440228
63870K0J4 0J420160822230010708/22/16 23:00:31  5-MIN K0J4 230400Z AUTO 00000KT 10SM CLR 24/23 A3019 70 90 1200 000/00 RMK AO2 T02440228
63870K0J4 0J420160822230510708/22/16 23:05:31  5-MIN K0J4 230405Z AUTO 00000KT 10SM CLR 24/23 A3018 70 90 1200 000/00 RMK AO2 T02440228
63870K0J4 0J420160822231010708/22/16 23:10:31  5-MIN K0J4 230410Z AUTO 00000KT 10SM CLR 24/23 A3018 70 90 1200 000/00 RMK AO2 T02440228
63870K0J4 0J420160822231510708/22/16 23:15:31  5-MIN K0J4 230415Z AUTO 00000KT 10SM CLR 24/23 A3018 70 90 1200 000/00 RMK AO2 T02440228
63870K0J4 0J420160822232010708/22/16 23:20:31  5-MIN K0J4 230420Z AUTO 00000KT 10SM CLR 24/23 A3018 70 90 1200 000/00 RMK AO2 T02440228
63870K0J4 0J420160822232510708/22/16 23:25:31  5-MIN K0J4 230425Z AUTO 00000KT 10SM CLR 24/23 A3018 80 90 1200 000/00 RMK AO2 T02440228
63870K0J4 0J420160822233010708/22/16 23:30:31  5-MIN K0J4 230430Z AUTO 00000KT 10SM CLR 24/23 A3018 80 90 1200 000/00 RMK AO2 T02440228
63870K0J4 0J420160822233510708/22/16 23:35:31  5-MIN K0J4 230435Z AUTO 00000KT 10SM CLR 24/23 A3018 80 90 1200 000/00 RMK AO2 T02440228
63870K0J4 0J420160822234010708/22/16 23:40:31  5-MIN K0J4 230440Z AUTO 00000KT 10SM CLR 24/23 A3018 80 93 1200 000/00 RMK AO2 T02390228
63870K0J4 0J420160822234510708/22/16 23:45:31  5-MIN K0J4 230445Z AUTO 00000KT 10SM CLR 24/23 A3018 80 93 1200 000/00 RMK AO2 T02390228
63870K0J4 0J420160822235010708/22/16 23:50:31  5-MIN K0J4 230450Z AUTO 00000KT 10SM CLR 24/23 A3018 80 90 1200 000/00 RMK AO2 T02440228
63870K0J4 0J420160822235512408/22/16 23:55:31  5-MIN K0J4 230455Z AUTO 00000KT 10SM CLR 24/23 A3017 80 90 1200 000/00 RMK AO2 SLP213 T02440228 403390217
63870K0J4 0J420160823000010708/23/16 00:00:31  5-MIN K0J4 230500Z AUTO 00000KT 10SM CLR 24/23 A3017 80 93 1200 000/00 RMK AO2 T02390228
63870K0J4 0J420160823000510708/23/16 00:05:31  5-MIN K0J4 230505Z AUTO 00000KT 10SM CLR 24/23 A3017 90 93 1200 000/00 RMK AO2 T02390228
63870K0J4 0J420160823001010708/23/16 00:10:31  5-MIN K0J4 230510Z AUTO 00000KT 10SM CLR 24/23 A3017 90 93 1200 000/00 RMK AO2 T02390228
63870K0J4 0J420160823001510708/23/16 00:15:31  5-MIN K0J4 230515Z AUTO 00000KT 10SM CLR 24/23 A3017 90 93 1200 000/00 RMK AO2 T02390228
63870K0J4 0J420160823002010708/23/16 00:20:31  5-MIN K0J4 230520Z AUTO 00000KT 10SM CLR 24/23 A3017 90 93 1200 000/00 RMK AO2 T02390228
63870K0J4 0J420160823002510708/23/16 00:25:31  5-MIN K0J4 230525Z AUTO 34003KT 10SM CLR 24/23 A3016 90 93 1200 340/03 RMK AO2 T02390228
63870K0J4 0J420160823003010708/23/16 00:30:31  5-MIN K0J4 230530Z AUTO 00000KT 10SM CLR 24/23 A3016 90 93 1200 000/00 RMK AO2 T02390228
63870K0J4 0J420160823003510708/23/16 00:35:31  5-MIN K0J4 230535Z AUTO 00000KT 10SM CLR 24/23 A3016 90 93 1200 000/00 RMK AO2 T02390228
63870K0J4 0J420160823004010708/23/16 00:40:31  5-MIN K0J4 230540Z AUTO 00000KT 10SM CLR 24/23 A3017 90 93 1200 000/00 RMK AO2 T02390228
63870K0J4 0J420160823004510708/23/16 00:45:31  5-MIN K0J4 230545Z AUTO 00000KT 10SM CLR 24/23 A3017 90 93 1200 000/00 RMK AO2 T02390228
63870K0J4 0J420160823005010708/23/16 00:50:31  5-MIN K0J4 230550Z AUTO 00000KT 10SM CLR 24/23 A3017 90 93 1200 000/00 RMK AO2 T02390228
63870K0J4 0J420160823005513808/23/16 00:55:31  5-MIN K0J4 230555Z AUTO 00000KT 10SM CLR 24/23 A3017 90 93 1200 000/00 RMK AO2 SLP210 60000 T02390228 10261 20239 53019
63870K0J4 0J420160823010010708/23/16 01:00:31  5-MIN K0J4 230600Z AUTO 00000KT 10SM CLR 24/23 A3016 90 93 1200 000/00 RMK AO2 T02390228
63870K0J4 0J420160823010510708/23/16 01:05:31  5-MIN K0J4 230605Z AUTO 00000KT 10SM CLR 24/23 A3017 90 93 1200 000/00 RMK AO2 T02390228
63870K0J4 0J420160823011010708/23/16 01:10:31  5-MIN K0J4 230610Z AUTO 00000KT 10SM CLR 24/23 A3017 90 93 1200 000/00 RMK AO2 T02390228
63870K0J4 0J420160823011510708/23/16 01:15:31  5-MIN K0J4 230615Z AUTO 00000KT 10SM CLR 24/22 A3016 90 90 1200 000/00 RMK AO2 T02390222
63870K0J4 0J420160823012010708/23/16 01:20:31  5-MIN K0J4 230620Z AUTO 00000KT 10SM CLR 24/22 A3016 90 90 1200 000/00 RMK AO2 T02390222
63870K0J4 0J420160823012510708/23/16 01:25:31  5-MIN K0J4 230625Z AUTO 00000KT 10SM CLR 23/22 A3016 90 93 1100 000/00 RMK AO2 T02330222
63870K0J4 0J420160823013010608/23/16 01:30:31  5-MIN K0J4 230630Z AUTO 00000KT 9SM CLR 23/22 A3016 90 93 1100 000/00 RMK AO2 T02330222
63870K0J4 0J420160823013510708/23/16 01:35:31  5-MIN K0J4 230635Z AUTO 00000KT 10SM CLR 23/22 A3016 90 93 1100 000/00 RMK AO2 T02330222
63870K0J4 0J420160823014010708/23/16 01:40:31  5-MIN K0J4 230640Z AUTO 00000KT 10SM CLR 23/22 A3016 90 93 1100 000/00 RMK AO2 T02330222
63870K0J4 0J420160823014510708/23/16 01:45:31  5-MIN K0J4 230645Z AUTO 00000KT 10SM CLR 23/22 A3016 90 93 1100 000/00 RMK AO2 T02330222
63870K0J4 0J420160823015010708/23/16 01:50:31  5-MIN K0J4 230650Z AUTO 00000KT 10SM CLR 23/22 A3016 90 93 1100 000/00 RMK AO2 T02330222
63870K0J4 0J420160823015511508/23/16 01:55:31  5-MIN K0J4 230655Z AUTO 00000KT 10SM CLR 23/23 A3016 100 97 1100 000/00 RMK AO2 SLP208 T02330228
63870K0J4 0J420160823020010808/23/16 02:00:31  5-MIN K0J4 230700Z AUTO 00000KT 10SM CLR 23/22 A3016 100 93 1100 000/00 RMK AO2 T02330222
63870K0J4 0J420160823020510808/23/16 02:05:31  5-MIN K0J4 230705Z AUTO 31003KT 10SM CLR 23/22 A3016 100 93 1100 310/03 RMK AO2 T02330222
63870K0J4 0J420160823021010608/23/16 02:10:31  5-MIN K0J4 230710Z AUTO 30003KT 9SM CLR 23/22 A3016 90 93 1100 300/03 RMK AO2 T02330222
63870K0J4 0J420160823021510708/23/16 02:15:31  5-MIN K0J4 230715Z AUTO 32003KT 8SM CLR 23/22 A3016 100 93 1100 320/03 RMK AO2 T02330222
63870K0J4 0J420160823022010708/23/16 02:20:31  5-MIN K0J4 230720Z AUTO VRB03KT 9SM CLR 23/22 A3016 100 93 1100 VRB/03 RMK AO2 T02330222
63870K0J4 0J420160823022510808/23/16 02:25:31  5-MIN K0J4 230725Z AUTO 32003KT 10SM CLR 23/22 A3016 100 93 1100 320/03 RMK AO2 T02330222
63870K0J4 0J420160823023010708/23/16 02:30:31  5-MIN K0J4 230730Z AUTO 00000KT 10SM CLR 23/22 A3016 90 93 1100 000/00 RMK AO2 T02330222
63870K0J4 0J420160823023510708/23/16 02:35:31  5-MIN K0J4 230735Z AUTO 00000KT 10SM CLR 23/22 A3016 90 93 1100 000/00 RMK AO2 T02330222
63870K0J4 0J420160823024010708/23/16 02:40:31  5-MIN K0J4 230740Z AUTO 00000KT 10SM CLR 23/22 A3016 90 93 1100 000/00 RMK AO2 T02330222
63870K0J4 0J420160823024510908/23/16 02:45:31  5-MIN K0J4 230745Z AUTO VRB03KT 9SM FEW002 23/22 A3016 90 93 1100 VRB/03 RMK AO2 T02330222
63870K0J4 0J420160823025010908/23/16 02:50:31  5-MIN K0J4 230750Z AUTO 00000KT 9SM FEW002 23/22 A3016 90 93 1100 000/00 RMK AO2 T02330222
63870K0J4 0J420160823025511308/23/16 02:55:31  5-MIN K0J4 230755Z AUTO 00000KT 9SM CLR 23/22 A3016 90 93 1100 000/00 RMK AO2 SLP209 T02330222
63870K0J4 0J420160823030010608/23/16 03:00:31  5-MIN K0J4 230800Z AUTO 00000KT 9SM CLR 23/22 A3016 90 93 1100 000/00 RMK AO2 T02330222
63870K0J4 0J420160823030510708/23/16 03:05:31  5-MIN K0J4 230805Z AUTO 00000KT 9SM CLR 23/22 A3016 100 93 1100 000/00 RMK AO2 T02330222
63870K0J4 0J420160823031010708/23/16 03:10:31  5-MIN K0J4 230810Z AUTO 00000KT 9SM CLR 23/22 A3016 100 93 1100 000/00 RMK AO2 T02330222
63870K0J4 0J420160823031510708/23/16 03:15:31  5-MIN K0J4 230815Z AUTO 00000KT 9SM CLR 23/22 A3016 100 93 1100 000/00 RMK AO2 T02330222
63870K0J4 0J420160823032010708/23/16 03:20:31  5-MIN K0J4 230820Z AUTO 00000KT 9SM CLR 23/22 A3016 100 93 1100 000/00 RMK AO2 T02330222
63870K0J4 0J420160823032510708/23/16 03:25:31  5-MIN K0J4 230825Z AUTO 00000KT 9SM CLR 23/22 A3016 100 93 1100 000/00 RMK AO2 T02330222
63870K0J4 0J420160823033010608/23/16 03:30:31  5-MIN K0J4 230830Z AUTO 00000KT 9SM CLR 23/22 A3016 90 93 1100 000/00 RMK AO2 T02330222
63870K0J4 0J420160823033510708/23/16 03:35:31  5-MIN K0J4 230835Z AUTO 00000KT 9SM CLR 23/22 A3016 100 93 1100 000/00 RMK AO2 T02330222
63870K0J4 0J420160823034010708/23/16 03:40:31  5-MIN K0J4 230840Z AUTO 00000KT 8SM CLR 23/22 A3016 100 93 1100 000/00 RMK AO2 T02330222
63870K0J4 0J420160823034510708/23/16 03:45:31  5-MIN K0J4 230845Z AUTO 00000KT 9SM CLR 23/22 A3016 100 93 1100 000/00 RMK AO2 T02330222
63870K0J4 0J420160823035010708/23/16 03:50:31  5-MIN K0J4 230850Z AUTO 00000KT 9SM CLR 23/22 A3016 100 93 1100 000/00 RMK AO2 T02330222
63870K0J4 0J420160823035512108/23/16 03:55:31  5-MIN K0J4 230855Z AUTO 00000KT 10SM CLR 23/22 A3016 100 93 1100 000/00 RMK AO2 SLP208 T02330222 58008
63870K0J4 0J420160823040010808/23/16 04:00:31  5-MIN K0J4 230900Z AUTO 00000KT 10SM CLR 23/22 A3016 100 93 1100 000/00 RMK AO2 T02330222
63870K0J4 0J420160823040510608/23/16 04:05:31  5-MIN K0J4 230905Z AUTO 00000KT 9SM CLR 23/22 A3016 90 93 1100 000/00 RMK AO2 T02330222
63870K0J4 0J420160823041010608/23/16 04:10:31  5-MIN K0J4 230910Z AUTO 00000KT 8SM CLR 23/22 A3016 90 93 1100 000/00 RMK AO2 T02330222
63870K0J4 0J420160823041510908/23/16 04:15:31  5-MIN K0J4 230915Z AUTO 00000KT 8SM SCT001 23/22 A3016 90 93 1100 000/00 RMK AO2 T02330222
63870K0J4 0J420160823042010908/23/16 04:20:31  5-MIN K0J4 230920Z AUTO 00000KT 7SM BKN001 23/22 A3016 90 93 1100 000/00 RMK AO2 T02330222
63870K0J4 0J420160823042511608/23/16 04:25:31  5-MIN K0J4 230925Z AUTO 00000KT 2 1/2SM BR BKN001 23/22 A3016 90 93 1100 000/00 RMK AO2 T02330222
63870K0J4 0J420160823043012808/23/16 04:30:31  5-MIN K0J4 230930Z AUTO 00000KT 1 1/2SM BR BKN001 23/22 A3017 90 93 1100 000/00 RMK AO2 VIS 1V2 1/2 T02330222
63870K0J4 0J420160823043512408/23/16 04:35:31  5-MIN K0J4 230935Z AUTO 00000KT 1 1/2SM BR OVC001 23/22 A3016 90 93 1100 000/00 RMK AO2 VIS 1V3 T02330222
63870K0J4 0J420160823044011208/23/16 04:40:31  5-MIN K0J4 230940Z AUTO 00000KT 1SM BR OVC001 23/22 A3016 90 93 1100 000/00 RMK AO2 T02330222
63870K0J4 0J420160823044511308/23/16 04:45:31  5-MIN K0J4 230945Z AUTO 01003KT 3/4SM BR VV001 23/22 A3016 90 93 1100 010/03 RMK AO2 T02330222
63870K0J4 0J420160823045011308/23/16 04:50:31  5-MIN K0J4 230950Z AUTO 00000KT 1/2SM FG VV001 23/22 A3017 90 97 1100 000/00 RMK AO2 T02280222
63870K0J4 0J420160823045512008/23/16 04:55:31  5-MIN K0J4 230955Z AUTO 00000KT 1/2SM FG VV001 23/22 A3017 90 97 1100 000/00 RMK AO2 SLP212 T02280222
63870K0J4 0J420160823050011108/23/16 05:00:31  5-MIN K0J4 231000Z AUTO 00000KT 1SM BR VV001 23/22 A3017 80 97 1000 000/00 RMK AO2 T02280222
63870K0J4 0J420160823050511608/23/16 05:05:31  5-MIN K0J4 231005Z AUTO 00000KT 1 3/4SM BR BKN001 23/22 A3018 80 97 1000 000/00 RMK AO2 T02280222
63870K0J4 0J420160823051011208/23/16 05:10:31  5-MIN K0J4 231010Z AUTO 00000KT 6SM BR BKN001 23/22 A3018 80 97 1000 000/00 RMK AO2 T02280222
63870K0J4 0J420160823051510908/23/16 05:15:31  5-MIN K0J4 231015Z AUTO 00000KT 8SM SCT001 23/22 A3018 80 97 1000 000/00 RMK AO2 T02280222
63870K0J4 0J420160823052010908/23/16 05:20:31  5-MIN K0J4 231020Z AUTO 03003KT 9SM FEW001 23/22 A3018 80 97 1000 030/03 RMK AO2 T02280222
63870K0J4 0J420160823052510908/23/16 05:25:31  5-MIN K0J4 231025Z AUTO 00000KT 9SM FEW001 23/22 A3018 80 97 1000 000/00 RMK AO2 T02280222
63870K0J4 0J420160823053010908/23/16 05:30:31  5-MIN K0J4 231030Z AUTO 00000KT 8SM SCT001 23/22 A3018 80 97 1000 000/00 RMK AO2 T02280222
63870K0J4 0J420160823053510908/23/16 05:35:31  5-MIN K0J4 231035Z AUTO 00000KT 8SM BKN001 23/22 A3018 80 97 1000 000/00 RMK AO2 T02280222
63870K0J4 0J420160823054010908/23/16 05:40:31  5-MIN K0J4 231040Z AUTO 00000KT 8SM BKN001 23/22 A3018 70 97 1000 000/00 RMK AO2 T02280222
63870K0J4 0J420160823054510908/23/16 05:45:31  5-MIN K0J4 231045Z AUTO 00000KT 8SM BKN001 23/22 A3019 70 93 1000 000/00 RMK AO2 T02280217
63870K0J4 0J420160823055012808/23/16 05:50:31  5-MIN K0J4 231050Z AUTO 00000KT 6SM -RA BR OVC001 23/22 A3019 70 97 1000 000/00 RMK AO2 RAB50 P0000 T02280222
63870K0J4 0J420160823055513208/23/16 05:55:31  5-MIN K0J4 231055Z AUTO 00000KT 2 1/2SM -RA BR OVC001 23/22 A3019 70 97 1000 000/00 RMK AO2 VIS 3/4V5 RAB50 P0000
63870K0J4 0J420160823060013608/23/16 06:00:31  5-MIN K0J4 231100Z AUTO 00000KT 1 3/4SM -RA BR OVC001 23/22 A3019 70 97 1000 000/00 RMK AO2 VIS 3/4V5 P0000 T02280222
63870K0J4 0J420160823060513808/23/16 06:05:31  5-MIN K0J4 231105Z AUTO 00000KT 2 1/2SM BR OVC001 23/22 A3019 70 93 1000 000/00 RMK AO2 VIS 3/4V5 RAE02 P0000 T02280217
63870K0J4 0J420160823061012408/23/16 06:10:31  5-MIN K0J4 231110Z AUTO 00000KT 5SM BR OVC001 23/22 A3019 70 93 1000 000/00 RMK AO2 RAE02 P0000 T02280217
63870K0J4 0J420160823061512408/23/16 06:15:31  5-MIN K0J4 231115Z AUTO 00000KT 5SM BR OVC001 23/22 A3019 60 93 1000 000/00 RMK AO2 RAE02 P0000 T02280217
63870K0J4 0J420160823062013808/23/16 06:20:31  5-MIN K0J4 231120Z AUTO 33004KT 1 1/2SM BR OVC001 23/22 A3020 60 93 1000 330/04 RMK AO2 VIS 1/4V5 RAE02 P0000 T02280217
63870K0J4 0J420160823062512608/23/16 06:25:31  5-MIN K0J4 231125Z AUTO 00000KT 1/2SM FG OVC001 23/22 A3020 60 93 1000 000/00 RMK AO2 RAE02 P0000 T02280217
63870K0J4 0J420160823063012608/23/16 06:30:31  5-MIN K0J4 231130Z AUTO 00000KT 1/4SM FG OVC001 23/22 A3020 60 97 1000 000/00 RMK AO2 RAE02 P0000 T02280222
63870K0J4 0J420160823063512508/23/16 06:35:31  5-MIN K0J4 231135Z AUTO 00000KT 1/4SM FG VV001 23/22 A3020 60 97 1000 000/00 RMK AO2 RAE02 P0000 T02280222
63870K0J4 0J420160823064012508/23/16 06:40:31  5-MIN K0J4 231140Z AUTO 00000KT 1/4SM FG VV001 23/22 A3020 60 97 1000 000/00 RMK AO2 RAE02 P0000 T02280222
63870K0J4 0J420160823064512508/23/16 06:45:31  5-MIN K0J4 231145Z AUTO 00000KT 1/4SM FG VV001 23/22 A3020 60 97 1000 000/00 RMK AO2 RAE02 P0000 T02280222
63870K0J4 0J420160823065012508/23/16 06:50:31  5-MIN K0J4 231150Z AUTO 00000KT 1/4SM FG VV001 23/22 A3020 60 97 1000 000/00 RMK AO2 RAE02 P0000 T02280222
63870K0J4 0J420160823065515608/23/16 06:55:31  5-MIN K0J4 231155Z AUTO 00000KT 1/2SM FG VV001 23/22 A3020 50 97 1000 000/00 RMK AO2 RAE02 SLP224 P0000 60000 T02280222 10239 20228 56002
63870K0J4 0J420160823070011308/23/16 07:00:31  5-MIN K0J4 231200Z AUTO 00000KT 3/4SM BR VV001 23/22 A3021 50 97 1000 000/00 RMK AO2 T02280222
63870K0J4 0J420160823070511608/23/16 07:05:31  5-MIN K0J4 231205Z AUTO 00000KT 2 1/2SM BR BKN001 23/22 A3021 50 93 1100 000/00 RMK AO2 T02330222
63870K0J4 0J420160823071011208/23/16 07:10:31  5-MIN K0J4 231210Z AUTO 00000KT 6SM BR BKN001 23/22 A3021 50 93 1100 000/00 RMK AO2 T02330222
63870K0J4 0J420160823071510908/23/16 07:15:31  5-MIN K0J4 231215Z AUTO 00000KT 9SM SCT001 23/23 A3021 50 97 1100 000/00 RMK AO2 T02330228
63870K0J4 0J420160823072011008/23/16 07:20:31  5-MIN K0J4 231220Z AUTO 00000KT 10SM SCT001 24/23 A3021 50 93 1100 000/00 RMK AO2 T02390228
63870K0J4 0J420160823072511008/23/16 07:25:31  5-MIN K0J4 231225Z AUTO 00000KT 10SM FEW001 24/23 A3021 50 90 1200 000/00 RMK AO2 T02440228
63870K0J4 0J420160823073010708/23/16 07:30:31  5-MIN K0J4 231230Z AUTO 00000KT 10SM CLR 24/23 A3021 50 90 1200 000/00 RMK AO2 T02440228
63870K0J4 0J420160823073510708/23/16 07:35:31  5-MIN K0J4 231235Z AUTO 00000KT 10SM CLR 24/23 A3021 50 90 1200 000/00 RMK AO2 T02440228
63870K0J4 0J420160823074010708/23/16 07:40:31  5-MIN K0J4 231240Z AUTO 00000KT 10SM CLR 25/23 A3021 50 87 1300 000/00 RMK AO2 T02500228
63870K0J4 0J420160823074510708/23/16 07:45:31  5-MIN K0J4 231245Z AUTO 00000KT 10SM CLR 26/23 A3021 50 84 1300 000/00 RMK AO2 T02560228
63870K0J4 0J420160823075010708/23/16 07:50:31  5-MIN K0J4 231250Z AUTO 02003KT 10SM CLR 26/23 A3022 40 84 1300 020/03 RMK AO2 T02560228
63870K0J4 0J420160823075511408/23/16 07:55:31  5-MIN K0J4 231255Z AUTO 02003KT 10SM CLR 26/23 A3022 40 84 1300 020/03 RMK AO2 SLP228 T02560228
63870K0J4 0J420160823080010708/23/16 08:00:31  5-MIN K0J4 231300Z AUTO 36004KT 10SM CLR 26/23 A3022 40 81 1400 360/04 RMK AO2 T02610228
63870K0J4 0J420160823080510708/23/16 08:05:31  5-MIN K0J4 231305Z AUTO 01003KT 10SM CLR 26/23 A3022 40 84 1400 010/03 RMK AO2 T02610233
63870K0J4 0J420160823081010708/23/16 08:10:31  5-MIN K0J4 231310Z AUTO 02004KT 10SM CLR 26/23 A3022 40 84 1400 020/04 RMK AO2 T02610233
63870K0J4 0J420160823081510708/23/16 08:15:31  5-MIN K0J4 231315Z AUTO 36004KT 10SM CLR 27/23 A3022 40 82 1400 360/04 RMK AO2 T02670233
63870K0J4 0J420160823082010708/23/16 08:20:31  5-MIN K0J4 231320Z AUTO 01005KT 10SM CLR 26/23 A3022 40 84 1400 010/05 RMK AO2 T02610233
63870K0J4 0J420160823082510708/23/16 08:25:31  5-MIN K0J4 231325Z AUTO 03004KT 10SM CLR 27/23 A3022 40 82 1400 030/04 RMK AO2 T02670233
63870K0J4 0J420160823083010708/23/16 08:30:31  5-MIN K0J4 231330Z AUTO 02005KT 10SM CLR 27/23 A3023 40 82 1400 020/05 RMK AO2 T02670233
63870K0J4 0J420160823083510708/23/16 08:35:31  5-MIN K0J4 231335Z AUTO 03005KT 10SM CLR 27/23 A3022 40 82 1400 030/05 RMK AO2 T02670233
63870K0J4 0J420160823084010708/23/16 08:40:31  5-MIN K0J4 231340Z AUTO 03004KT 10SM CLR 27/23 A3023 40 79 1500 030/04 RMK AO2 T02720233
63870K0J4 0J420160823084510708/23/16 08:45:31  5-MIN K0J4 231345Z AUTO 04004KT 10SM CLR 27/23 A3023 30 79 1500 040/04 RMK AO2 T02720233
63870K0J4 0J420160823085010708/23/16 08:50:31  5-MIN K0J4 231350Z AUTO 36003KT 10SM CLR 28/23 A3023 30 76 1600 360/03 RMK AO2 T02780233
63870K0J4 0J420160823085511408/23/16 08:55:31  5-MIN K0J4 231355Z AUTO 03004KT 10SM CLR 28/23 A3023 30 76 1600 030/04 RMK AO2 SLP232 T02780233
63870K0J4 0J420160823090010708/23/16 09:00:31  5-MIN K0J4 231400Z AUTO 01004KT 10SM CLR 28/23 A3023 30 76 1600 010/04 RMK AO2 T02780233
63870K0J4 0J420160823090510708/23/16 09:05:31  5-MIN K0J4 231405Z AUTO 02005KT 10SM CLR 28/23 A3023 30 74 1600 020/05 RMK AO2 T02830233
63870K0J4 0J420160823091010708/23/16 09:10:31  5-MIN K0J4 231410Z AUTO 03006KT 10SM CLR 28/23 A3023 30 76 1600 030/06 RMK AO2 T02780233
63870K0J4 0J420160823091510708/23/16 09:15:31  5-MIN K0J4 231415Z AUTO 03004KT 10SM CLR 28/23 A3023 30 74 1600 030/04 RMK AO2 T02830233
63870K0J4 0J420160823092010708/23/16 09:20:31  5-MIN K0J4 231420Z AUTO 03005KT 10SM CLR 28/23 A3023 30 74 1600 030/05 RMK AO2 T02830233
63870K0J4 0J420160823092510708/23/16 09:25:31  5-MIN K0J4 231425Z AUTO 03004KT 10SM CLR 28/23 A3023 30 74 1600 030/04 RMK AO2 T02830233
63870K0J4 0J420160823093010708/23/16 09:30:31  5-MIN K0J4 231430Z AUTO 04005KT 10SM CLR 28/23 A3023 30 74 1600 040/05 RMK AO2 T02830233
63870K0J4 0J420160823093510708/23/16 09:35:31  5-MIN K0J4 231435Z AUTO 02005KT 10SM CLR 29/23 A3023 30 71 1700 020/05 RMK AO2 T02890233
63870K0J4 0J420160823094010708/23/16 09:40:31  5-MIN K0J4 231440Z AUTO 04004KT 10SM CLR 29/24 A3024 30 74 1700 040/04 RMK AO2 T02890239
63870K0J4 0J420160823094510708/23/16 09:45:31  5-MIN K0J4 231445Z AUTO VRB03KT 10SM CLR 29/24 A3024 20 71 1700 VRB/03 RMK AO2 T02940239
63870K0J4 0J420160823095010708/23/16 09:50:31  5-MIN K0J4 231450Z AUTO 05004KT 10SM CLR 29/24 A3024 20 71 1700 050/04 RMK AO2 T02940239
63870K0J4 0J420160823095512008/23/16 09:55:31  5-MIN K0J4 231455Z AUTO 03003KT 10SM CLR 30/24 A3024 20 69 1800 030/03 RMK AO2 SLP234 T03000239 53015
63870K0J4 0J420160823100010708/23/16 10:00:31  5-MIN K0J4 231500Z AUTO 05004KT 10SM CLR 30/24 A3024 20 69 1800 050/04 RMK AO2 T03000239
63870K0J4 0J420160823100510708/23/16 10:05:31  5-MIN K0J4 231505Z AUTO VRB04KT 10SM CLR 31/23 A3024 20 65 1900 VRB/04 RMK AO2 T03060233
63870K0J4 0J420160823101010708/23/16 10:10:31  5-MIN K0J4 231510Z AUTO 03006KT 10SM CLR 31/23 A3024 20 65 1800 030/06 RMK AO2 T03060233
63870K0J4 0J420160823101510708/23/16 10:15:31  5-MIN K0J4 231515Z AUTO 05004KT 10SM CLR 31/23 A3024 20 65 1900 050/04 RMK AO2 T03060233
63870K0J4 0J420160823102010708/23/16 10:20:31  5-MIN K0J4 231520Z AUTO VRB03KT 10SM CLR 31/23 A3024 20 63 1900 VRB/03 RMK AO2 T03110233
63870K0J4 0J420160823102510708/23/16 10:25:31  5-MIN K0J4 231525Z AUTO 04004KT 10SM CLR 31/23 A3024 20 60 1900 040/04 RMK AO2 T03110228
63870K0J4 0J420160823103010708/23/16 10:30:31  5-MIN K0J4 231530Z AUTO 03004KT 10SM CLR 31/22 A3024 20 58 1900 030/04 RMK AO2 T03110222
63870K0J4 0J420160823103510708/23/16 10:35:31  5-MIN K0J4 231535Z AUTO 01005KT 10SM CLR 32/23 A3024 20 61 2000 010/05 RMK AO2 T03170233
63870K0J4 0J420160823104010708/23/16 10:40:31  5-MIN K0J4 231540Z AUTO 02006KT 10SM CLR 32/23 A3024 20 58 2000 020/06 RMK AO2 T03170228
63870K0J4 0J420160823104510708/23/16 10:45:31  5-MIN K0J4 231545Z AUTO 34004KT 10SM CLR 32/23 A3024 20 58 2000 340/04 RMK AO2 T03170228
63870K0J4 0J420160823105012308/23/16 10:50:31  5-MIN K0J4 231550Z AUTO 02005KT 10SM -RA CLR 32/23 A3024 20 58 2000 020/05 RMK AO2 RAB50 P0000 T03170228
63870K0J4 0J420160823105513008/23/16 10:55:31  5-MIN K0J4 231555Z AUTO 02006KT 10SM -RA CLR 32/23 A3024 20 58 2000 020/06 RMK AO2 RAB50 SLP235 P0000 T03170228
63870K0J4 0J420160823110010708/23/16 11:00:31  5-MIN K0J4 231600Z AUTO 02005KT 10SM CLR 32/23 A3024 20 58 2000 020/05 RMK AO2 T03170228
63870K0J4 0J420160823110510708/23/16 11:05:31  5-MIN K0J4 231605Z AUTO 00000KT 10SM CLR 32/23 A3024 20 58 2000 000/00 RMK AO2 T03170228
63870K0J4 0J420160823111010708/23/16 11:10:31  5-MIN K0J4 231610Z AUTO VRB04KT 10SM CLR 32/23 A3024 20 58 2000 VRB/04 RMK AO2 T03170228
63870K0J4 0J420160823111511008/23/16 11:15:31  5-MIN K0J4 231615Z AUTO VRB03KT 10SM FEW030 32/23 A3024 20 59 2000 VRB/03 RMK AO2 T03220233
63870K0J4 0J420160823112011008/23/16 11:20:31  5-MIN K0J4 231620Z AUTO VRB03KT 10SM FEW030 33/23 A3024 20 57 2100 VRB/03 RMK AO2 T03280233
63870K0J4 0J420160823112510708/23/16 11:25:31  5-MIN K0J4 231625Z AUTO VRB05KT 10SM CLR 32/23 A3024 20 58 2000 VRB/05 RMK AO2 T03170228
63870K0J4 0J420160823113010708/23/16 11:30:31  5-MIN K0J4 231630Z AUTO 08003KT 10SM CLR 31/22 A3024 20 58 1900 080/03 RMK AO2 T03110222
63870K0J4 0J420160823113510708/23/16 11:35:31  5-MIN K0J4 231635Z AUTO 00000KT 10SM CLR 32/22 A3024 20 55 2000 000/00 RMK AO2 T03220222
63870K0J4 0J420160823114009708/23/16 11:40:31  5-MIN K0J4 231640Z AUTO 10SM CLR 32/23 A3024 30 57 2000 M /M RMK AO2 T03220228
63870K0J4 0J420160823114510708/23/16 11:45:31  5-MIN K0J4 231645Z AUTO VRB03KT 10SM CLR 32/23 A3023 30 57 2000 VRB/03 RMK AO2 T03220228
63870K0J4 0J420160823115010708/23/16 11:50:31  5-MIN K0J4 231650Z AUTO 07005KT 10SM CLR 32/23 A3023 30 57 2000 070/05 RMK AO2 T03220228
63870K0J4 0J420160823115511408/23/16 11:55:31  5-MIN K0J4 231655Z AUTO VRB04KT 10SM CLR 33/23 A3023 30 55 2100 VRB/04 RMK AO2 SLP232 T03280228
63870K0J4 0J420160823120010708/23/16 12:00:31  5-MIN K0J4 231700Z AUTO 05005KT 10SM CLR 33/23 A3023 30 55 2100 050/05 RMK AO2 T03280228
63870K0J4 0J420160823120510708/23/16 12:05:31  5-MIN K0J4 231705Z AUTO 05005KT 10SM CLR 33/22 A3023 30 53 2100 050/05 RMK AO2 T03280222
63870K0J4 0J420160823121009708/23/16 12:10:31  5-MIN K0J4 231710Z AUTO 10SM CLR 33/22 A3023 30 53 2100 M /M RMK AO2 T03280222
63870K0J4 0J420160823121510708/23/16 12:15:31  5-MIN K0J4 231715Z AUTO VRB04KT 10SM CLR 33/22 A3022 40 53 2100 VRB/04 RMK AO2 T03280222
63870K0J4 0J420160823122010708/23/16 12:20:31  5-MIN K0J4 231720Z AUTO 35003KT 10SM CLR 33/22 A3022 40 51 2100 350/03 RMK AO2 T03280217
63870K0J4 0J420160823122510708/23/16 12:25:31  5-MIN K0J4 231725Z AUTO 03003KT 10SM CLR 32/22 A3022 40 55 2100 030/03 RMK AO2 T03220222
63870K0J4 0J420160823123010708/23/16 12:30:31  5-MIN K0J4 231730Z AUTO 04003KT 10SM CLR 33/22 A3022 40 53 2100 040/03 RMK AO2 T03280222
63870K0J4 0J420160823123510708/23/16 12:35:31  5-MIN K0J4 231735Z AUTO VRB03KT 10SM CLR 33/23 A3022 40 55 2100 VRB/03 RMK AO2 T03280228
63870K0J4 0J420160823124010708/23/16 12:40:31  5-MIN K0J4 231740Z AUTO VRB04KT 10SM CLR 33/22 A3022 40 51 2200 VRB/04 RMK AO2 T03330222
63870K0J4 0J420160823124510708/23/16 12:45:31  5-MIN K0J4 231745Z AUTO 11003KT 10SM CLR 33/22 A3021 50 51 2200 110/03 RMK AO2 T03330222
63870K0J4 0J420160823125011008/23/16 12:50:31  5-MIN K0J4 231750Z AUTO 00000KT 10SM FEW039 33/22 A3021 50 53 2100 000/00 RMK AO2 T03280222
63870K0J4 0J420160823125514108/23/16 12:55:31  5-MIN K0J4 231755Z AUTO 00000KT 10SM FEW039 33/22 A3021 50 53 2100 000/00 RMK AO2 SLP225 60000 T03280222 10333 20228 51011
63870K0J4 0J420160823130011008/23/16 13:00:31  5-MIN K0J4 231800Z AUTO 06003KT 10SM SCT042 33/22 A3021 50 51 2200 060/03 RMK AO2 T03330222
63870K0J4 0J420160823130511008/23/16 13:05:31  5-MIN K0J4 231805Z AUTO VRB04KT 10SM SCT042 33/22 A3021 50 51 2200 VRB/04 RMK AO2 T03330222
63870K0J4 0J420160823131011008/23/16 13:10:31  5-MIN K0J4 231810Z AUTO 11003KT 10SM FEW042 34/22 A3020 50 50 2300 110/03 RMK AO2 T03390222
63870K0J4 0J420160823131511008/23/16 13:15:31  5-MIN K0J4 231815Z AUTO 08003KT 10SM FEW042 34/22 A3020 60 50 2300 080/03 RMK AO2 T03390222
63870K0J4 0J420160823132011008/23/16 13:20:31  5-MIN K0J4 231820Z AUTO 06003KT 10SM FEW042 34/22 A3020 60 50 2300 060/03 RMK AO2 T03390222
63870K0J4 0J420160823132511008/23/16 13:25:31  5-MIN K0J4 231825Z AUTO 03006KT 10SM FEW042 34/22 A3019 60 48 2300 030/06 RMK AO2 T03390217
63870K0J4 0J420160823133011008/23/16 13:30:31  5-MIN K0J4 231830Z AUTO 02005KT 10SM FEW042 33/22 A3019 70 50 2200 020/05 RMK AO2 T03330217
63870K0J4 0J420160823133511008/23/16 13:35:31  5-MIN K0J4 231835Z AUTO 00000KT 10SM FEW043 33/22 A3019 70 51 2200 000/00 RMK AO2 T03280217
63870K0J4 0J420160823134011008/23/16 13:40:31  5-MIN K0J4 231840Z AUTO 06004KT 10SM FEW043 33/22 A3019 70 50 2200 060/04 RMK AO2 T03330217
63870K0J4 0J420160823134510008/23/16 13:45:31  5-MIN K0J4 231845Z AUTO 10SM FEW043 34/22 A3018 70 46 2300 M /M RMK AO2 T03440217
63870K0J4 0J420160823135011008/23/16 13:50:31  5-MIN K0J4 231850Z AUTO 36006KT 10SM FEW043 34/21 A3018 70 46 2300 360/06 RMK AO2 T03390211
63870K0J4 0J420160823135511408/23/16 13:55:31  5-MIN K0J4 231855Z AUTO 00000KT 10SM CLR 34/22 A3018 80 48 2300 000/00 RMK AO2 SLP215 T03390217
63870K0J4 0J420160823140010708/23/16 14:00:31  5-MIN K0J4 231900Z AUTO 09005KT 10SM CLR 34/22 A3018 80 48 2300 090/05 RMK AO2 T03440222
63870K0J4 0J420160823140510708/23/16 14:05:31  5-MIN K0J4 231905Z AUTO 16004KT 10SM CLR 34/22 A3018 80 48 2300 160/04 RMK AO2 T03390217
63870K0J4 0J420160823141010708/23/16 14:10:31  5-MIN K0J4 231910Z AUTO 11004KT 10SM CLR 33/22 A3017 80 50 2200 110/04 RMK AO2 T03330217
63870K0J4 0J420160823141511708/23/16 14:15:31  5-MIN K0J4 231915Z AUTO VRB04KT 10SM FEW049 FEW055 34/22 A3017 80 48 2300 VRB/04 RMK AO2 T03390217
63870K0J4 0J420160823142011708/23/16 14:20:31  5-MIN K0J4 231920Z AUTO 04006KT 10SM SCT047 SCT055 33/22 A3017 90 51 2200 040/06 RMK AO2 T03330222
63870K0J4 0J420160823142511708/23/16 14:25:31  5-MIN K0J4 231925Z AUTO 36003KT 10SM BKN045 BKN055 32/22 A3017 90 55 2100 360/03 RMK AO2 T03220222
63870K0J4 0J420160823143011708/23/16 14:30:31  5-MIN K0J4 231930Z AUTO 00000KT 10SM BKN045 BKN055 33/22 A3017 90 53 2200 000/00 RMK AO2 T03280222
63870K0J4 0J420160823143511708/23/16 14:35:31  5-MIN K0J4 231935Z AUTO 10004KT 10SM BKN047 BKN055 34/22 A3017 90 50 2300 100/04 RMK AO2 T03390222
63870K0J4 0J420160823144011008/23/16 14:40:31  5-MIN K0J4 231940Z AUTO 12003KT 10SM SCT047 34/22 A3017 90 50 2300 120/03 RMK AO2 T03390222
63870K0J4 0J420160823144511008/23/16 14:45:31  5-MIN K0J4 231945Z AUTO 09003KT 10SM SCT047 34/22 A3016 90 50 2300 090/03 RMK AO2 T03390222
63870K0J4 0J420160823145011708/23/16 14:50:31  5-MIN K0J4 231950Z AUTO 03006KT 10SM SCT047 SCT070 33/22 A3016 90 50 2200 030/06 RMK AO2 T03330217
63870K0J4 0J420160823145512508/23/16 14:55:31  5-MIN K0J4 231955Z AUTO 02003KT 10SM SCT047 SCT070 33/22 A3016 100 53 2200 020/03 RMK AO2 SLP208 T03280222
63870K0J4 0J420160823150011108/23/16 15:00:31  5-MIN K0J4 232000Z AUTO 36005KT 10SM FEW047 33/22 A3016 100 51 2200 360/05 RMK AO2 T03330222
63870K0J4 0J420160823150511108/23/16 15:05:31  5-MIN K0J4 232005Z AUTO VRB05KT 10SM SCT045 34/22 A3016 100 50 2300 VRB/05 RMK AO2 T03390222
63870K0J4 0J420160823151011108/23/16 15:10:31  5-MIN K0J4 232010Z AUTO 01005KT 10SM SCT045 34/22 A3015 100 50 2300 010/05 RMK AO2 T03390222
63870K0J4 0J420160823151511108/23/16 15:15:31  5-MIN K0J4 232015Z AUTO VRB04KT 10SM FEW045 34/22 A3015 100 48 2300 VRB/04 RMK AO2 T03390217
63870K0J4 0J420160823152011108/23/16 15:20:31  5-MIN K0J4 232020Z AUTO VRB03KT 10SM FEW045 34/22 A3015 110 48 2300 VRB/03 RMK AO2 T03390217
63870K0J4 0J420160823152511108/23/16 15:25:31  5-MIN K0J4 232025Z AUTO 00000KT 10SM FEW045 34/22 A3015 110 50 2300 000/00 RMK AO2 T03390222
63870K0J4 0J420160823153011108/23/16 15:30:31  5-MIN K0J4 232030Z AUTO VRB04KT 10SM FEW046 34/22 A3015 110 48 2400 VRB/04 RMK AO2 T03440222
63870K0J4 0J420160823153511808/23/16 15:35:31  5-MIN K0J4 232035Z AUTO VRB03KT 10SM FEW046 SCT055 34/22 A3015 110 48 2400 VRB/03 RMK AO2 T03440222
63870K0J4 0J420160823154011808/23/16 15:40:31  5-MIN K0J4 232040Z AUTO VRB03KT 10SM SCT046 SCT055 33/22 A3014 110 50 2300 VRB/03 RMK AO2 T03330217
63870K0J4 0J420160823154511108/23/16 15:45:31  5-MIN K0J4 232045Z AUTO 02005KT 10SM SCT049 34/22 A3014 120 46 2400 020/05 RMK AO2 T03440217
63870K0J4 0J420160823155011108/23/16 15:50:31  5-MIN K0J4 232050Z AUTO 03005KT 10SM SCT049 34/22 A3014 120 50 2300 030/05 RMK AO2 T03390222
63870K0J4 0J420160823155512408/23/16 15:55:31  5-MIN K0J4 232055Z AUTO 04005KT 10SM SCT049 33/22 A3014 120 51 2200 040/05 RMK AO2 SLP201 T03280217 58009
63870K0J4 0J420160823160011108/23/16 16:00:31  5-MIN K0J4 232100Z AUTO 06004KT 10SM SCT049 33/22 A3014 120 50 2300 060/04 RMK AO2 T03330217
63870K0J4 0J420160823160511108/23/16 16:05:31  5-MIN K0J4 232105Z AUTO 00000KT 10SM FEW049 34/21 A3014 120 46 2300 000/00 RMK AO2 T03390211
63870K0J4 0J420160823161011108/23/16 16:10:31  5-MIN K0J4 232110Z AUTO 00000KT 10SM FEW049 34/22 A3014 120 46 2400 000/00 RMK AO2 T03440217
63870K0J4 0J420160823161510808/23/16 16:15:31  5-MIN K0J4 232115Z AUTO 00000KT 10SM CLR 34/23 A3014 120 50 2400 000/00 RMK AO2 T03440228
63870K0J4 0J420160823162011108/23/16 16:20:31  5-MIN K0J4 232120Z AUTO 09005KT 10SM FEW055 34/22 A3014 120 50 2300 090/05 RMK AO2 T03390222
63870K0J4 0J420160823162511108/23/16 16:25:31  5-MIN K0J4 232125Z AUTO 00000KT 10SM SCT055 34/22 A3013 120 48 2400 000/00 RMK AO2 T03440222
63870K0J4 0J420160823163011808/23/16 16:30:31  5-MIN K0J4 232130Z AUTO 04006KT 10SM BKN050 BKN060 34/22 A3013 120 48 2400 040/06 RMK AO2 T03440222
63870K0J4 0J420160823163511808/23/16 16:35:31  5-MIN K0J4 232135Z AUTO 05006KT 10SM BKN050 BKN060 34/22 A3014 120 46 2400 050/06 RMK AO2 T03440217
63870K0J4 0J420160823164011108/23/16 16:40:31  5-MIN K0J4 232140Z AUTO 06004KT 10SM SCT055 33/22 A3014 120 51 2200 060/04 RMK AO2 T03280217
63870K0J4 0J420160823164511808/23/16 16:45:31  5-MIN K0J4 232145Z AUTO VRB03KT 10SM SCT050 SCT060 33/22 A3014 120 51 2300 VRB/03 RMK AO2 T03330222
63870K0J4 0J420160823165011108/23/16 16:50:31  5-MIN K0J4 232150Z AUTO 09003KT 10SM SCT050 34/22 A3014 120 48 2400 090/03 RMK AO2 T03440222
63870K0J4 0J420160823165511808/23/16 16:55:31  5-MIN K0J4 232155Z AUTO 00000KT 10SM FEW050 34/22 A3014 120 46 2400 000/00 RMK AO2 SLP200 T03440217
63870K0J4 0J420160823170011108/23/16 17:00:31  5-MIN K0J4 232200Z AUTO VRB03KT 10SM FEW050 34/22 A3014 110 46 2400 VRB/03 RMK AO2 T03440217
63870K0J4 0J420160823170511108/23/16 17:05:31  5-MIN K0J4 232205Z AUTO VRB04KT 10SM FEW047 34/22 A3014 120 50 2300 VRB/04 RMK AO2 T03390222
63870K0J4 0J420160823171011108/23/16 17:10:31  5-MIN K0J4 232210Z AUTO 05004KT 10SM SCT047 34/22 A3013 120 50 2300 050/04 RMK AO2 T03390222
63870K0J4 0J420160823171511108/23/16 17:15:31  5-MIN K0J4 232215Z AUTO 04006KT 10SM SCT047 34/22 A3013 120 50 2300 040/06 RMK AO2 T03390222
63870K0J4 0J420160823172011108/23/16 17:20:31  5-MIN K0J4 232220Z AUTO 04005KT 10SM FEW047 34/22 A3013 120 50 2300 040/05 RMK AO2 T03390222
63870K0J4 0J420160823172511108/23/16 17:25:31  5-MIN K0J4 232225Z AUTO 04005KT 10SM FEW047 34/22 A3013 120 50 2300 040/05 RMK AO2 T03390222
63870K0J4 0J420160823173011108/23/16 17:30:31  5-MIN K0J4 232230Z AUTO 04005KT 10SM FEW047 34/22 A3013 120 48 2300 040/05 RMK AO2 T03390217
63870K0J4 0J420160823173511108/23/16 17:35:31  5-MIN K0J4 232235Z AUTO 02004KT 10SM FEW047 33/22 A3013 120 51 2300 020/04 RMK AO2 T03330222
63870K0J4 0J420160823174010808/23/16 17:40:31  5-MIN K0J4 232240Z AUTO 03003KT 10SM CLR 34/22 A3014 120 50 2300 030/03 RMK AO2 T03390222
63870K0J4 0J420160823174510808/23/16 17:45:31  5-MIN K0J4 232245Z AUTO 03004KT 10SM CLR 34/22 A3014 110 50 2300 030/04 RMK AO2 T03390222
63870K0J4 0J420160823175010808/23/16 17:50:31  5-MIN K0J4 232250Z AUTO 04005KT 10SM CLR 33/22 A3014 110 51 2300 040/05 RMK AO2 T03330222
63870K0J4 0J420160823175511508/23/16 17:55:31  5-MIN K0J4 232255Z AUTO 05004KT 10SM CLR 33/22 A3014 110 51 2300 050/04 RMK AO2 SLP203 T03330222
63870K0J4 0J420160823180010808/23/16 18:00:31  5-MIN K0J4 232300Z AUTO 04003KT 10SM CLR 33/22 A3015 110 51 2300 040/03 RMK AO2 T03330222
63870K0J4 0J420160823180510808/23/16 18:05:31  5-MIN K0J4 232305Z AUTO 05004KT 10SM CLR 33/23 A3014 110 53 2300 050/04 RMK AO2 T03330228
63870K0J4 0J420160823181010808/23/16 18:10:31  5-MIN K0J4 232310Z AUTO 06005KT 10SM CLR 33/23 A3015 110 55 2200 060/05 RMK AO2 T03280228
63870K0J4 0J420160823181510808/23/16 18:15:31  5-MIN K0J4 232315Z AUTO 04004KT 10SM CLR 32/23 A3015 110 57 2100 040/04 RMK AO2 T03220228
63870K0J4 0J420160823182010808/23/16 18:20:31  5-MIN K0J4 232320Z AUTO 00000KT 10SM CLR 32/23 A3015 110 61 2100 000/00 RMK AO2 T03170233
63870K0J4 0J420160823182510808/23/16 18:25:31  5-MIN K0J4 232325Z AUTO 00000KT 10SM CLR 31/24 A3015 110 65 2000 000/00 RMK AO2 T03110239
63870K0J4 0J420160823183010808/23/16 18:30:31  5-MIN K0J4 232330Z AUTO 00000KT 10SM CLR 31/24 A3015 100 65 2000 000/00 RMK AO2 T03110239
63870K0J4 0J420160823183510808/23/16 18:35:31  5-MIN K0J4 232335Z AUTO 00000KT 10SM CLR 32/24 A3015 100 63 2100 000/00 RMK AO2 T03170239
63870K0J4 0J420160823184010808/23/16 18:40:31  5-MIN K0J4 232340Z AUTO 02003KT 10SM CLR 31/23 A3015 110 63 2000 020/03 RMK AO2 T03110233
63870K0J4 0J420160823184510808/23/16 18:45:31  5-MIN K0J4 232345Z AUTO 00000KT 10SM CLR 31/23 A3015 110 65 2000 000/00 RMK AO2 T03060233
63870K0J4 0J420160823185010808/23/16 18:50:31  5-MIN K0J4 232350Z AUTO 00000KT 10SM CLR 31/23 A3015 110 65 2000 000/00 RMK AO2 T03060233
63870K0J4 0J420160823185513308/23/16 18:55:31  5-MIN K0J4 232355Z AUTO 00000KT 10SM CLR 30/24 A3015 110 69 1900 000/00 RMK AO2 SLP205 T03000239 10344 20300 56024
63870K0J4 0J420160823190010808/23/16 19:00:31  5-MIN K0J4 240000Z AUTO 00000KT 10SM CLR 29/24 A3015 100 76 1800 000/00 RMK AO2 T02890244
63870K0J4 0J420160823190510808/23/16 19:05:31  5-MIN K0J4 240005Z AUTO 00000KT 10SM CLR 29/24 A3015 100 76 1800 000/00 RMK AO2 T02890244
63870K0J4 0J420160823191010808/23/16 19:10:31  5-MIN K0J4 240010Z AUTO 00000KT 10SM CLR 29/24 A3015 100 74 1800 000/00 RMK AO2 T02890239
63870K0J4 0J420160823191510808/23/16 19:15:31  5-MIN K0J4 240015Z AUTO 00000KT 10SM CLR 29/24 A3015 100 76 1800 000/00 RMK AO2 T02890244
63870K0J4 0J420160823192010808/23/16 19:20:31  5-MIN K0J4 240020Z AUTO 00000KT 10SM CLR 28/24 A3016 100 79 1700 000/00 RMK AO2 T02830244
63870K0J4 0J420160823192510808/23/16 19:25:31  5-MIN K0J4 240025Z AUTO 00000KT 10SM CLR 28/25 A3016 100 82 1700 000/00 RMK AO2 T02830250
63870K0J4 0J420160823193010808/23/16 19:30:31  5-MIN K0J4 240030Z AUTO 00000KT 10SM CLR 29/24 A3016 100 76 1800 000/00 RMK AO2 T02890244
63870K0J4 0J420160823193510808/23/16 19:35:31  5-MIN K0J4 240035Z AUTO 00000KT 10SM CLR 28/24 A3016 100 79 1700 000/00 RMK AO2 T02830244
63870K0J4 0J420160823194010708/23/16 19:40:31  5-MIN K0J4 240040Z AUTO 00000KT 10SM CLR 28/24 A3016 90 79 1700 000/00 RMK AO2 T02830244
63870K0J4 0J420160823194510708/23/16 19:45:31  5-MIN K0J4 240045Z AUTO 00000KT 10SM CLR 28/24 A3016 90 79 1700 000/00 RMK AO2 T02830244
63870K0J4 0J420160823195010708/23/16 19:50:31  5-MIN K0J4 240050Z AUTO 00000KT 10SM CLR 28/25 A3016 90 84 1600 000/00 RMK AO2 T02780250
63870K0J4 0J420160823195511408/23/16 19:55:31  5-MIN K0J4 240055Z AUTO 00000KT 10SM CLR 28/24 A3017 90 82 1600 000/00 RMK AO2 SLP210 T02780244
63870K0J4 0J420160823200010708/23/16 20:00:31  5-MIN K0J4 240100Z AUTO 00000KT 10SM CLR 28/24 A3017 90 79 1700 000/00 RMK AO2 T02830244
63870K0J4 0J420160823200510708/23/16 20:05:31  5-MIN K0J4 240105Z AUTO 00000KT 10SM CLR 28/25 A3017 90 84 1600 000/00 RMK AO2 T02780250
63870K0J4 0J420160823201010708/23/16 20:10:31  5-MIN K0J4 240110Z AUTO 00000KT 10SM CLR 28/24 A3017 90 82 1600 000/00 RMK AO2 T02780244
63870K0J4 0J420160823201510708/23/16 20:15:31  5-MIN K0J4 240115Z AUTO 00000KT 10SM CLR 28/24 A3017 80 82 1600 000/00 RMK AO2 T02780244
63870K0J4 0J420160823202010708/23/16 20:20:31  5-MIN K0J4 240120Z AUTO 00000KT 10SM CLR 27/25 A3017 80 87 1600 000/00 RMK AO2 T02720250
63870K0J4 0J420160823202510708/23/16 20:25:31  5-MIN K0J4 240125Z AUTO 00000KT 10SM CLR 27/25 A3018 80 87 1500 000/00 RMK AO2 T02720250
63870K0J4 0J420160823203010708/23/16 20:30:31  5-MIN K0J4 240130Z AUTO 00000KT 10SM CLR 28/24 A3018 80 82 1600 000/00 RMK AO2 T02780244
63870K0J4 0J420160823203510708/23/16 20:35:31  5-MIN K0J4 240135Z AUTO 00000KT 10SM CLR 28/24 A3018 80 82 1600 000/00 RMK AO2 T02780244
63870K0J4 0J420160823204010708/23/16 20:40:31  5-MIN K0J4 240140Z AUTO 00000KT 10SM CLR 27/24 A3018 80 84 1500 000/00 RMK AO2 T02720244
63870K0J4 0J420160823204510708/23/16 20:45:31  5-MIN K0J4 240145Z AUTO 00000KT 10SM CLR 27/24 A3017 80 84 1600 000/00 RMK AO2 T02720244
63870K0J4 0J420160823205010708/23/16 20:50:31  5-MIN K0J4 240150Z AUTO 00000KT 10SM CLR 27/24 A3017 80 82 1600 000/00 RMK AO2 T02720239
63870K0J4 0J420160823205511408/23/16 20:55:31  5-MIN K0J4 240155Z AUTO 00000KT 10SM CLR 27/24 A3018 80 82 1500 000/00 RMK AO2 SLP214 T02720239
63870K0J4 0J420160823210010708/23/16 21:00:31  5-MIN K0J4 240200Z AUTO 00000KT 10SM CLR 27/24 A3018 80 87 1500 000/00 RMK AO2 T02670244
63870K0J4 0J420160823210510708/23/16 21:05:31  5-MIN K0J4 240205Z AUTO 00000KT 10SM CLR 27/24 A3018 80 84 1500 000/00 RMK AO2 T02720244
63870K0J4 0J420160823211010708/23/16 21:10:31  5-MIN K0J4 240210Z AUTO 00000KT 10SM CLR 27/24 A3018 80 84 1500 000/00 RMK AO2 T02670239
63870K0J4 0J420160823211510708/23/16 21:15:31  5-MIN K0J4 240215Z AUTO 00000KT 10SM CLR 27/24 A3018 80 82 1500 000/00 RMK AO2 T02720239
63870K0J4 0J420160823212010708/23/16 21:20:31  5-MIN K0J4 240220Z AUTO 00000KT 10SM CLR 27/24 A3018 80 84 1500 000/00 RMK AO2 T02670239
63870K0J4 0J420160823212510708/23/16 21:25:31  5-MIN K0J4 240225Z AUTO 00000KT 10SM CLR 27/24 A3018 80 87 1500 000/00 RMK AO2 T02670244
63870K0J4 0J420160823213010708/23/16 21:30:31  5-MIN K0J4 240230Z AUTO 00000KT 10SM CLR 27/24 A3018 80 87 1500 000/00 RMK AO2 T02670244
63870K0J4 0J420160823213510708/23/16 21:35:31  5-MIN K0J4 240235Z AUTO 00000KT 10SM CLR 27/24 A3018 70 87 1500 000/00 RMK AO2 T02670244
63870K0J4 0J420160823214011008/23/16 21:40:31  5-MIN K0J4 240240Z AUTO 00000KT 10SM FEW049 27/24 A3018 70 87 1500 000/00 RMK AO2 T02670244
63870K0J4 0J420160823214511008/23/16 21:45:31  5-MIN K0J4 240245Z AUTO 09007KT 10SM SCT049 27/24 A3019 60 87 1500 090/07 RMK AO2 T02670244
63870K0J4 0J420160823215011708/23/16 21:50:31  5-MIN K0J4 240250Z AUTO 09007KT 10SM SCT049 BKN060 28/23 A3020 60 76 1600 090/07 RMK AO2 T02780233
63870K0J4 0J420160823215513608/23/16 21:55:31  5-MIN K0J4 240255Z AUTO 11011G17KT 10SM BKN049 BKN060 27/23 A3020 60 79 1500 110/11G17 RMK AO2 SLP222 T02720233 53005
63870K0J4 0J420160823220012308/23/16 22:00:31  5-MIN K0J4 240300Z AUTO VRB06G17KT 10SM BKN049 BKN080 27/23 A3021 50 79 1500 VRB/06G17 RMK AO2 T02720233
63870K0J4 0J420160823220512408/23/16 22:05:31  5-MIN K0J4 240305Z AUTO 09007KT 10SM BKN049 BKN055 BKN095 27/23 A3021 50 79 1500 090/07 RMK AO2 T02720233
63870K0J4 0J420160823221012408/23/16 22:10:31  5-MIN K0J4 240310Z AUTO 09007KT 10SM BKN049 BKN055 BKN095 27/23 A3022 40 76 1500 090/07 RMK AO2 T02720228
63870K0J4 0J420160823221512408/23/16 22:15:31  5-MIN K0J4 240315Z AUTO 10006KT 10SM BKN049 BKN080 BKN095 27/23 A3021 50 76 1500 100/06 RMK AO2 T02720228
63870K0J4 0J420160823222012408/23/16 22:20:31  5-MIN K0J4 240320Z AUTO 11005KT 10SM SCT049 BKN080 BKN095 27/23 A3021 50 79 1400 110/05 RMK AO2 T02670228
63870K0J4 0J420160823222512408/23/16 22:25:31  5-MIN K0J4 240325Z AUTO VRB04KT 10SM SCT049 SCT080 SCT095 27/22 A3021 50 76 1500 VRB/04 RMK AO2 T02670222
63870K0J4 0J420160823223011008/23/16 22:30:31  5-MIN K0J4 240330Z AUTO 10005KT 10SM FEW049 27/22 A3020 50 76 1500 100/05 RMK AO2 T02670222
63870K0J4 0J420160823223511008/23/16 22:35:31  5-MIN K0J4 240335Z AUTO 11004KT 10SM FEW049 27/22 A3020 60 76 1500 110/04 RMK AO2 T02670222
63870K0J4 0J420160823224011008/23/16 22:40:31  5-MIN K0J4 240340Z AUTO 10003KT 10SM FEW047 26/22 A3020 60 79 1400 100/03 RMK AO2 T02610222
63870K0J4 0J420160823224510708/23/16 22:45:31  5-MIN K0J4 240345Z AUTO VRB03KT 10SM CLR 26/22 A3020 60 79 1400 VRB/03 RMK AO2 T02610222
63870K0J4 0J420160823225010708/23/16 22:50:31  5-MIN K0J4 240350Z AUTO 09003KT 10SM CLR 26/22 A3020 60 79 1400 090/03 RMK AO2 T02610222
63870K0J4 0J420160823225511408/23/16 22:55:31  5-MIN K0J4 240355Z AUTO 09004KT 10SM CLR 26/22 A3020 60 79 1400 090/04 RMK AO2 SLP220 T02610222
63870K0J4 0J420160823230010708/23/16 23:00:31  5-MIN K0J4 240400Z AUTO 00000KT 10SM CLR 26/22 A3019 60 79 1400 000/00 RMK AO2 T02610222
63870K0J4 0J420160823230510708/23/16 23:05:31  5-MIN K0J4 240405Z AUTO 00000KT 10SM CLR 26/22 A3019 70 79 1400 000/00 RMK AO2 T02610222
63870K0J4 0J420160823231010708/23/16 23:10:31  5-MIN K0J4 240410Z AUTO 00000KT 10SM CLR 26/22 A3019 70 81 1300 000/00 RMK AO2 T02560222
63870K0J4 0J420160823231510708/23/16 23:15:31  5-MIN K0J4 240415Z AUTO 00000KT 10SM CLR 26/22 A3019 70 81 1300 000/00 RMK AO2 T02560222
63870K0J4 0J420160823232010708/23/16 23:20:31  5-MIN K0J4 240420Z AUTO 00000KT 10SM CLR 26/22 A3019 70 81 1300 000/00 RMK AO2 T02560222
63870K0J4 0J420160823232510708/23/16 23:25:31  5-MIN K0J4 240425Z AUTO 00000KT 10SM CLR 26/23 A3018 70 84 1400 000/00 RMK AO2 T02560228
63870K0J4 0J420160823233010708/23/16 23:30:31  5-MIN K0J4 240430Z AUTO 00000KT 10SM CLR 26/22 A3018 70 81 1400 000/00 RMK AO2 T02560222
63870K0J4 0J420160823233510708/23/16 23:35:31  5-MIN K0J4 240435Z AUTO 03003KT 10SM CLR 25/22 A3018 70 84 1300 030/03 RMK AO2 T02500222
63870K0J4 0J420160823234010708/23/16 23:40:31  5-MIN K0J4 240440Z AUTO 00000KT 10SM CLR 25/23 A3018 80 87 1300 000/00 RMK AO2 T02500228
63870K0J4 0J420160823234510708/23/16 23:45:31  5-MIN K0J4 240445Z AUTO 07003KT 10SM CLR 25/23 A3018 70 87 1300 070/03 RMK AO2 T02500228
63870K0J4 0J420160823235010708/23/16 23:50:31  5-MIN K0J4 240450Z AUTO 04003KT 10SM CLR 25/23 A3018 80 87 1300 040/03 RMK AO2 T02500228
63870K0J4 0J420160823235512408/23/16 23:55:31  5-MIN K0J4 240455Z AUTO 00000KT 10SM CLR 25/22 A3018 70 84 1300 000/00 RMK AO2 SLP215 T02500222 403440228
63870K0J4 0J420160824000010708/24/16 00:00:31  5-MIN K0J4 240500Z AUTO 00000KT 10SM CLR 25/23 A3018 80 87 1300 000/00 RMK AO2 T02500228
63870K0J4 0J420160824000510708/24/16 00:05:31  5-MIN K0J4 240505Z AUTO 00000KT 10SM CLR 25/22 A3018 80 84 1300 000/00 RMK AO2 T02500222
63870K0J4 0J420160824001010708/24/16 00:10:31  5-MIN K0J4 240510Z AUTO 00000KT 10SM CLR 25/22 A3017 80 84 1300 000/00 RMK AO2 T02500222
63870K0J4 0J420160824001510708/24/16 00:15:31  5-MIN K0J4 240515Z AUTO 09003KT 10SM CLR 25/22 A3017 80 84 1300 090/03 RMK AO2 T02500222
63870K0J4 0J420160824002010708/24/16 00:20:31  5-MIN K0J4 240520Z AUTO 00000KT 10SM CLR 25/22 A3017 90 84 1300 000/00 RMK AO2 T02500222
63870K0J4 0J420160824002510708/24/16 00:25:31  5-MIN K0J4 240525Z AUTO 00000KT 10SM CLR 25/22 A3017 90 84 1300 000/00 RMK AO2 T02500222
63870K0J4 0J420160824003010708/24/16 00:30:31  5-MIN K0J4 240530Z AUTO 00000KT 10SM CLR 25/22 A3017 90 84 1300 000/00 RMK AO2 T02500222
63870K0J4 0J420160824003510708/24/16 00:35:31  5-MIN K0J4 240535Z AUTO 00000KT 10SM CLR 25/22 A3017 90 84 1300 000/00 RMK AO2 T02500222
63870K0J4 0J420160824004010708/24/16 00:40:31  5-MIN K0J4 240540Z AUTO 00000KT 10SM CLR 25/22 A3017 80 84 1300 000/00 RMK AO2 T02500222
63870K0J4 0J420160824004510708/24/16 00:45:31  5-MIN K0J4 240545Z AUTO 00000KT 10SM CLR 25/22 A3017 80 84 1300 000/00 RMK AO2 T02500222
63870K0J4 0J420160824005010708/24/16 00:50:31  5-MIN K0J4 240550Z AUTO 00000KT 10SM CLR 25/23 A3017 90 87 1300 000/00 RMK AO2 T02500228
63870K0J4 0J420160824005513208/24/16 00:55:31  5-MIN K0J4 240555Z AUTO 00000KT 10SM CLR 25/23 A3017 90 87 1300 000/00 RMK AO2 SLP211 T02500228 10294 20250 53018
63870K0J4 0J420160824010010708/24/16 01:00:31  5-MIN K0J4 240600Z AUTO 00000KT 10SM CLR 24/23 A3017 80 90 1200 000/00 RMK AO2 T02440228
63870K0J4 0J420160824010510708/24/16 01:05:31  5-MIN K0J4 240605Z AUTO 00000KT 10SM CLR 24/23 A3017 80 90 1200 000/00 RMK AO2 T02440228
63870K0J4 0J420160824011010708/24/16 01:10:31  5-MIN K0J4 240610Z AUTO 00000KT 10SM CLR 24/22 A3017 90 87 1200 000/00 RMK AO2 T02440222
63870K0J4 0J420160824011510708/24/16 01:15:31  5-MIN K0J4 240615Z AUTO 00000KT 10SM CLR 24/22 A3017 90 87 1200 000/00 RMK AO2 T02440222
63870K0J4 0J420160824012010708/24/16 01:20:31  5-MIN K0J4 240620Z AUTO 00000KT 10SM CLR 25/22 A3017 90 84 1300 000/00 RMK AO2 T02500222
63870K0J4 0J420160824012510708/24/16 01:25:31  5-MIN K0J4 240625Z AUTO 00000KT 10SM CLR 24/23 A3017 90 90 1200 000/00 RMK AO2 T02440228
63870K0J4 0J420160824013010708/24/16 01:30:31  5-MIN K0J4 240630Z AUTO 00000KT 10SM CLR 24/23 A3017 90 90 1200 000/00 RMK AO2 T02440228
63870K0J4 0J420160824013510708/24/16 01:35:31  5-MIN K0J4 240635Z AUTO 00000KT 10SM CLR 24/23 A3017 90 90 1200 000/00 RMK AO2 T02440228
63870K0J4 0J420160824014010708/24/16 01:40:31  5-MIN K0J4 240640Z AUTO 00000KT 10SM CLR 24/23 A3017 90 90 1200 000/00 RMK AO2 T02440228
63870K0J4 0J420160824014510708/24/16 01:45:31  5-MIN K0J4 240645Z AUTO 00000KT 10SM CLR 24/22 A3017 90 87 1200 000/00 RMK AO2 T02440222
63870K0J4 0J420160824015010708/24/16 01:50:31  5-MIN K0J4 240650Z AUTO 00000KT 10SM CLR 24/22 A3017 90 87 1200 000/00 RMK AO2 T02440222
63870K0J4 0J420160824015511408/24/16 01:55:31  5-MIN K0J4 240655Z AUTO 00000KT 10SM CLR 24/23 A3017 90 90 1200 000/00 RMK AO2 SLP210 T02440228
63870K0J4 0J420160824020010708/24/16 02:00:31  5-MIN K0J4 240700Z AUTO 00000KT 10SM CLR 24/22 A3017 90 87 1200 000/00 RMK AO2 T02440222
63870K0J4 0J420160824020510708/24/16 02:05:31  5-MIN K0J4 240705Z AUTO 00000KT 10SM CLR 24/22 A3017 90 90 1200 000/00 RMK AO2 T02390222
63870K0J4 0J420160824021010708/24/16 02:10:31  5-MIN K0J4 240710Z AUTO 00000KT 10SM CLR 24/22 A3017 90 90 1200 000/00 RMK AO2 T02390222
63870K0J4 0J420160824021510708/24/16 02:15:31  5-MIN K0J4 240715Z AUTO 00000KT 10SM CLR 24/22 A3017 90 90 1200 000/00 RMK AO2 T02390222
63870K0J4 0J420160824022010708/24/16 02:20:31  5-MIN K0J4 240720Z AUTO 00000KT 10SM CLR 24/22 A3017 90 90 1200 000/00 RMK AO2 T02390222
63870K0J4 0J420160824022510708/24/16 02:25:31  5-MIN K0J4 240725Z AUTO 00000KT 10SM CLR 24/22 A3017 90 90 1200 000/00 RMK AO2 T02390222
63870K0J4 0J420160824023010708/24/16 02:30:31  5-MIN K0J4 240730Z AUTO 00000KT 10SM CLR 24/22 A3017 90 90 1200 000/00 RMK AO2 T02390222
63870K0J4 0J420160824023510708/24/16 02:35:31  5-MIN K0J4 240735Z AUTO 00000KT 10SM CLR 24/22 A3017 90 90 1200 000/00 RMK AO2 T02390222
63870K0J4 0J420160824024010708/24/16 02:40:31  5-MIN K0J4 240740Z AUTO 10003KT 10SM CLR 24/22 A3017 90 90 1200 100/03 RMK AO2 T02390222
63870K0J4 0J420160824024510708/24/16 02:45:31  5-MIN K0J4 240745Z AUTO 00000KT 10SM CLR 24/22 A3017 90 90 1200 000/00 RMK AO2 T02390222
63870K0J4 0J420160824025010708/24/16 02:50:31  5-MIN K0J4 240750Z AUTO 00000KT 10SM CLR 24/22 A3017 90 90 1200 000/00 RMK AO2 T02390222
63870K0J4 0J420160824025511408/24/16 02:55:31  5-MIN K0J4 240755Z AUTO 00000KT 10SM CLR 24/22 A3017 90 90 1200 000/00 RMK AO2 SLP210 T02390222
63870K0J4 0J420160824030010708/24/16 03:00:31  5-MIN K0J4 240800Z AUTO 00000KT 10SM CLR 24/22 A3017 90 90 1200 000/00 RMK AO2 T02390222
63870K0J4 0J420160824030510708/24/16 03:05:31  5-MIN K0J4 240805Z AUTO 00000KT 10SM CLR 24/22 A3017 90 90 1200 000/00 RMK AO2 T02390222
63870K0J4 0J420160824031010708/24/16 03:10:31  5-MIN K0J4 240810Z AUTO 00000KT 10SM CLR 24/22 A3017 90 90 1200 000/00 RMK AO2 T02390222
63870K0J4 0J420160824031510708/24/16 03:15:31  5-MIN K0J4 240815Z AUTO 00000KT 10SM CLR 24/22 A3017 90 90 1200 000/00 RMK AO2 T02390222
63870K0J4 0J420160824032010708/24/16 03:20:31  5-MIN K0J4 240820Z AUTO 00000KT 10SM CLR 24/22 A3017 90 90 1200 000/00 RMK AO2 T02390222
63870K0J4 0J420160824032510708/24/16 03:25:31  5-MIN K0J4 240825Z AUTO 00000KT 10SM CLR 24/22 A3016 90 90 1200 000/00 RMK AO2 T02390222
63870K0J4 0J420160824033010708/24/16 03:30:31  5-MIN K0J4 240830Z AUTO 08003KT 10SM CLR 24/22 A3016 90 90 1200 080/03 RMK AO2 T02390222
63870K0J4 0J420160824033510708/24/16 03:35:31  5-MIN K0J4 240835Z AUTO 09004KT 10SM CLR 24/22 A3017 90 90 1200 090/04 RMK AO2 T02390222
63870K0J4 0J420160824034010708/24/16 03:40:31  5-MIN K0J4 240840Z AUTO 09003KT 10SM CLR 24/22 A3017 90 90 1200 090/03 RMK AO2 T02390222
63870K0J4 0J420160824034510708/24/16 03:45:31  5-MIN K0J4 240845Z AUTO 00000KT 10SM CLR 24/23 A3017 90 93 1200 000/00 RMK AO2 T02390228
63870K0J4 0J420160824035010708/24/16 03:50:31  5-MIN K0J4 240850Z AUTO 00000KT 10SM CLR 24/23 A3017 90 93 1200 000/00 RMK AO2 T02390228
63870K0J4 0J420160824035512008/24/16 03:55:31  5-MIN K0J4 240855Z AUTO 00000KT 10SM CLR 24/23 A3017 90 93 1200 000/00 RMK AO2 SLP210 T02390228 56011
63870K0J4 0J420160824040010708/24/16 04:00:31  5-MIN K0J4 240900Z AUTO 09003KT 10SM CLR 24/23 A3017 90 93 1200 090/03 RMK AO2 T02390228
63870K0J4 0J420160824040510708/24/16 04:05:31  5-MIN K0J4 240905Z AUTO 00000KT 10SM CLR 24/22 A3017 90 90 1200 000/00 RMK AO2 T02390222
63870K0J4 0J420160824041010608/24/16 04:10:31  5-MIN K0J4 240910Z AUTO 08003KT 9SM CLR 23/23 A3017 90 97 1100 080/03 RMK AO2 T02330228
63870K0J4 0J420160824041510608/24/16 04:15:31  5-MIN K0J4 240915Z AUTO 00000KT 9SM CLR 23/23 A3017 90 97 1100 000/00 RMK AO2 T02330228
63870K0J4 0J420160824042010608/24/16 04:20:31  5-MIN K0J4 240920Z AUTO 00000KT 9SM CLR 23/23 A3017 90 97 1100 000/00 RMK AO2 T02330228
63870K0J4 0J420160824042510608/24/16 04:25:31  5-MIN K0J4 240925Z AUTO 00000KT 9SM CLR 23/22 A3017 90 93 1100 000/00 RMK AO2 T02330222
63870K0J4 0J420160824043010608/24/16 04:30:31  5-MIN K0J4 240930Z AUTO 00000KT 9SM CLR 23/22 A3017 90 93 1100 000/00 RMK AO2 T02330222
63870K0J4 0J420160824043510608/24/16 04:35:31  5-MIN K0J4 240935Z AUTO 00000KT 9SM CLR 23/22 A3017 90 93 1100 000/00 RMK AO2 T02330222
63870K0J4 0J420160824044010608/24/16 04:40:31  5-MIN K0J4 240940Z AUTO 09003KT 9SM CLR 23/22 A3017 90 93 1100 090/03 RMK AO2 T02330222
63870K0J4 0J420160824044510608/24/16 04:45:31  5-MIN K0J4 240945Z AUTO 00000KT 9SM CLR 23/22 A3017 90 93 1100 000/00 RMK AO2 T02330222
63870K0J4 0J420160824045010608/24/16 04:50:31  5-MIN K0J4 240950Z AUTO 00000KT 9SM CLR 23/22 A3017 80 93 1100 000/00 RMK AO2 T02330222
63870K0J4 0J420160824045511308/24/16 04:55:31  5-MIN K0J4 240955Z AUTO 00000KT 9SM CLR 23/22 A3017 80 93 1100 000/00 RMK AO2 SLP211 T02330222
63870K0J4 0J420160824050010608/24/16 05:00:31  5-MIN K0J4 241000Z AUTO 00000KT 9SM CLR 23/22 A3017 80 93 1100 000/00 RMK AO2 T02330222
63870K0J4 0J420160824050510608/24/16 05:05:31  5-MIN K0J4 241005Z AUTO 00000KT 9SM CLR 23/22 A3018 80 93 1100 000/00 RMK AO2 T02330222
63870K0J4 0J420160824051010608/24/16 05:10:31  5-MIN K0J4 241010Z AUTO 00000KT 9SM CLR 23/22 A3018 80 93 1100 000/00 RMK AO2 T02330222
63870K0J4 0J420160824051510608/24/16 05:15:31  5-MIN K0J4 241015Z AUTO 09003KT 9SM CLR 23/22 A3018 80 93 1100 090/03 RMK AO2 T02330222
63870K0J4 0J420160824052010608/24/16 05:20:31  5-MIN K0J4 241020Z AUTO 00000KT 9SM CLR 23/22 A3018 80 93 1100 000/00 RMK AO2 T02330222
63870K0J4 0J420160824052510608/24/16 05:25:31  5-MIN K0J4 241025Z AUTO 00000KT 8SM CLR 23/22 A3018 80 93 1100 000/00 RMK AO2 T02330222
63870K0J4 0J420160824053010608/24/16 05:30:31  5-MIN K0J4 241030Z AUTO 00000KT 8SM CLR 23/22 A3018 80 93 1100 000/00 RMK AO2 T02330222
63870K0J4 0J420160824053510608/24/16 05:35:31  5-MIN K0J4 241035Z AUTO 00000KT 8SM CLR 23/22 A3018 80 93 1100 000/00 RMK AO2 T02330222
63870K0J4 0J420160824054010608/24/16 05:40:31  5-MIN K0J4 241040Z AUTO 08004KT 7SM CLR 23/22 A3018 80 93 1100 080/04 RMK AO2 T02330222
63870K0J4 0J420160824054510608/24/16 05:45:31  5-MIN K0J4 241045Z AUTO 00000KT 7SM CLR 23/22 A3018 80 93 1100 000/00 RMK AO2 T02330222
63870K0J4 0J420160824055010608/24/16 05:50:31  5-MIN K0J4 241050Z AUTO 09003KT 7SM CLR 23/22 A3018 80 93 1100 090/03 RMK AO2 T02330222
63870K0J4 0J420160824055509908/24/16 05:55:31  5-MIN K0J4 241055Z AUTO 09004KT 7SM FEW001 23/22 A3018 80 93 1100 090/04 RMK AO2
63870K0J4 0J420160824060010908/24/16 06:00:31  5-MIN K0J4 241100Z AUTO 09004KT 7SM FEW001 23/22 A3018 80 93 1100 090/04 RMK AO2 T02330222
63870K0J4 0J420160824060510908/24/16 06:05:31  5-MIN K0J4 241105Z AUTO 08004KT 7SM FEW001 23/22 A3018 70 93 1100 080/04 RMK AO2 T02330222
63870K0J4 0J420160824061010908/24/16 06:10:31  5-MIN K0J4 241110Z AUTO 09003KT 7SM FEW001 23/22 A3019 70 93 1100 090/03 RMK AO2 T02330222
63870K0J4 0J420160824061511208/24/16 06:15:31  5-MIN K0J4 241115Z AUTO 11003KT 6SM BR FEW001 23/22 A3019 70 93 1100 110/03 RMK AO2 T02330222
63870K0J4 0J420160824062011208/24/16 06:20:31  5-MIN K0J4 241120Z AUTO VRB03KT 6SM BR FEW001 23/23 A3019 70 97 1100 VRB/03 RMK AO2 T02330228
63870K0J4 0J420160824062511208/24/16 06:25:31  5-MIN K0J4 241125Z AUTO 00000KT 6SM BR FEW001 23/23 A3019 60 97 1100 000/00 RMK AO2 T02330228
63870K0J4 0J420160824063010908/24/16 06:30:31  5-MIN K0J4 241130Z AUTO 10003KT 6SM BR CLR 23/22 A3020 60 93 1100 100/03 RMK AO2 T02330222
63870K0J4 0J420160824063510908/24/16 06:35:31  5-MIN K0J4 241135Z AUTO 00000KT 6SM BR CLR 23/23 A3020 60 97 1100 000/00 RMK AO2 T02330228
63870K0J4 0J420160824064011208/24/16 06:40:31  5-MIN K0J4 241140Z AUTO 00000KT 6SM BR FEW002 23/23 A3020 60 97 1100 000/00 RMK AO2 T02330228
63870K0J4 0J420160824064511208/24/16 06:45:31  5-MIN K0J4 241145Z AUTO 10003KT 6SM BR FEW002 23/22 A3020 60 93 1100 100/03 RMK AO2 T02330222
63870K0J4 0J420160824065011208/24/16 06:50:31  5-MIN K0J4 241150Z AUTO 00000KT 6SM BR SCT002 23/23 A3021 50 97 1100 000/00 RMK AO2 T02330228
63870K0J4 0J420160824065513708/24/16 06:55:31  5-MIN K0J4 241155Z AUTO 09003KT 6SM BR FEW002 24/23 A3021 50 93 1100 090/03 RMK AO2 SLP225 T02390228 10244 20233 56002
63870K0J4 0J420160824070011208/24/16 07:00:31  5-MIN K0J4 241200Z AUTO 10003KT 6SM BR FEW001 23/23 A3021 50 97 1100 100/03 RMK AO2 T02330228
63870K0J4 0J420160824070511208/24/16 07:05:31  5-MIN K0J4 241205Z AUTO 00000KT 6SM BR FEW001 24/23 A3021 50 93 1100 000/00 RMK AO2 T02390228
63870K0J4 0J420160824071011208/24/16 07:10:31  5-MIN K0J4 241210Z AUTO 00000KT 6SM BR FEW001 24/23 A3021 50 90 1200 000/00 RMK AO2 T02440228
63870K0J4 0J420160824071511208/24/16 07:15:31  5-MIN K0J4 241215Z AUTO 00000KT 6SM BR FEW001 24/23 A3021 50 93 1100 000/00 RMK AO2 T02390228
63870K0J4 0J420160824072011208/24/16 07:20:31  5-MIN K0J4 241220Z AUTO VRB03KT 6SM BR FEW001 24/23 A3021 50 93 1100 VRB/03 RMK AO2 T02390228
63870K0J4 0J420160824072510908/24/16 07:25:31  5-MIN K0J4 241225Z AUTO 00000KT 7SM FEW002 24/23 A3021 40 93 1100 000/00 RMK AO2 T02390228
63870K0J4 0J420160824073010908/24/16 07:30:31  5-MIN K0J4 241230Z AUTO 00000KT 7SM SCT002 24/23 A3022 40 93 1100 000/00 RMK AO2 T02390228
63870K0J4 0J420160824073510908/24/16 07:35:31  5-MIN K0J4 241235Z AUTO 00000KT 7SM FEW002 24/23 A3022 40 93 1100 000/00 RMK AO2 T02390228
63870K0J4 0J420160824074010908/24/16 07:40:31  5-MIN K0J4 241240Z AUTO 09003KT 8SM SCT002 24/23 A3022 40 93 1100 090/03 RMK AO2 T02390228
63870K0J4 0J420160824074510908/24/16 07:45:31  5-MIN K0J4 241245Z AUTO 09003KT 8SM FEW002 24/23 A3021 40 93 1200 090/03 RMK AO2 T02440233
63870K0J4 0J420160824075010908/24/16 07:50:31  5-MIN K0J4 241250Z AUTO 09004KT 8SM FEW002 24/23 A3022 40 93 1200 090/04 RMK AO2 T02440233
63870K0J4 0J420160824075511608/24/16 07:55:31  5-MIN K0J4 241255Z AUTO VRB03KT 9SM FEW002 25/23 A3022 40 90 1300 VRB/03 RMK AO2 SLP228 T02500233
63870K0J4 0J420160824080011008/24/16 08:00:31  5-MIN K0J4 241300Z AUTO 11003KT 10SM FEW002 25/23 A3022 40 90 1200 110/03 RMK AO2 T02500233
63870K0J4 0J420160824080511008/24/16 08:05:31  5-MIN K0J4 241305Z AUTO 00000KT 10SM FEW004 25/23 A3022 40 90 1200 000/00 RMK AO2 T02500233
63870K0J4 0J420160824081011008/24/16 08:10:31  5-MIN K0J4 241310Z AUTO 08005KT 10SM SCT004 26/23 A3022 40 87 1300 080/05 RMK AO2 T02560233
63870K0J4 0J420160824081511008/24/16 08:15:31  5-MIN K0J4 241315Z AUTO 09005KT 10SM SCT006 26/23 A3022 40 87 1300 090/05 RMK AO2 T02560233
63870K0J4 0J420160824082011008/24/16 08:20:31  5-MIN K0J4 241320Z AUTO 10005KT 10SM SCT006 26/23 A3022 40 87 1300 100/05 RMK AO2 T02560233
63870K0J4 0J420160824082511008/24/16 08:25:31  5-MIN K0J4 241325Z AUTO 08005KT 10SM SCT006 26/23 A3022 40 84 1400 080/05 RMK AO2 T02610233
63870K0J4 0J420160824083012208/24/16 08:30:31  5-MIN K0J4 241330Z AUTO VRB05KT 10SM BKN006 26/23 A3022 40 84 1400 VRB/05 RMK AO2 CIG 004V008 T02610233
63870K0J4 0J420160824083512208/24/16 08:35:31  5-MIN K0J4 241335Z AUTO 12006KT 10SM BKN006 27/23 A3022 40 82 1400 120/06 RMK AO2 CIG 005V008 T02670233
63870K0J4 0J420160824084012208/24/16 08:40:31  5-MIN K0J4 241340Z AUTO 11006KT 10SM BKN006 27/24 A3022 40 84 1400 110/06 RMK AO2 CIG 005V009 T02670239
63870K0J4 0J420160824084511008/24/16 08:45:31  5-MIN K0J4 241345Z AUTO 10006KT 10SM SCT007 27/23 A3022 40 82 1400 100/06 RMK AO2 T02670233
63870K0J4 0J420160824085011008/24/16 08:50:31  5-MIN K0J4 241350Z AUTO 11005KT 10SM SCT007 27/24 A3022 40 84 1400 110/05 RMK AO2 T02670239
63870K0J4 0J420160824085511708/24/16 08:55:31  5-MIN K0J4 241355Z AUTO VRB04KT 10SM SCT007 27/24 A3022 40 82 1500 VRB/04 RMK AO2 SLP230 T02720239
63870K0J4 0J420160824090011008/24/16 09:00:31  5-MIN K0J4 241400Z AUTO VRB06KT 10SM SCT008 27/24 A3023 40 82 1500 VRB/06 RMK AO2 T02720239
63870K0J4 0J420160824090511008/24/16 09:05:31  5-MIN K0J4 241405Z AUTO VRB04KT 10SM FEW008 28/24 A3022 40 79 1600 VRB/04 RMK AO2 T02780239
63870K0J4 0J420160824091011008/24/16 09:10:31  5-MIN K0J4 241410Z AUTO 08005KT 10SM FEW008 28/24 A3022 40 79 1600 080/05 RMK AO2 T02780239
63870K0J4 0J420160824091511008/24/16 09:15:31  5-MIN K0J4 241415Z AUTO 08005KT 10SM FEW008 28/24 A3022 40 79 1600 080/05 RMK AO2 T02780239
63870K0J4 0J420160824092011008/24/16 09:20:31  5-MIN K0J4 241420Z AUTO VRB03KT 10SM FEW010 28/24 A3022 40 76 1600 VRB/03 RMK AO2 T02830239
63870K0J4 0J420160824092511008/24/16 09:25:31  5-MIN K0J4 241425Z AUTO 08005KT 10SM FEW010 28/24 A3022 40 76 1600 080/05 RMK AO2 T02830239
63870K0J4 0J420160824093011008/24/16 09:30:31  5-MIN K0J4 241430Z AUTO 09006KT 10SM FEW010 29/24 A3022 40 74 1700 090/06 RMK AO2 T02890239
63870K0J4 0J420160824093511008/24/16 09:35:31  5-MIN K0J4 241435Z AUTO 08006KT 10SM FEW010 29/24 A3022 40 74 1700 080/06 RMK AO2 T02890239
63870K0J4 0J420160824094011008/24/16 09:40:31  5-MIN K0J4 241440Z AUTO 10005KT 10SM FEW010 28/24 A3022 40 76 1600 100/05 RMK AO2 T02830239
63870K0J4 0J420160824094511008/24/16 09:45:31  5-MIN K0J4 241445Z AUTO VRB04KT 10SM FEW012 28/24 A3022 40 79 1600 VRB/04 RMK AO2 T02830244
63870K0J4 0J420160824095011008/24/16 09:50:31  5-MIN K0J4 241450Z AUTO 09005KT 10SM FEW012 28/24 A3023 40 76 1600 090/05 RMK AO2 T02830239
63870K0J4 0J420160824095512308/24/16 09:55:31  5-MIN K0J4 241455Z AUTO 11005KT 10SM FEW012 28/24 A3023 30 79 1600 110/05 RMK AO2 SLP231 T02830244 53014
63870K0J4 0J420160824100011008/24/16 10:00:31  5-MIN K0J4 241500Z AUTO 13004KT 10SM FEW012 29/24 A3022 40 76 1700 130/04 RMK AO2 T02890244
63870K0J4 0J420160824100510708/24/16 10:05:31  5-MIN K0J4 241505Z AUTO VRB04KT 10SM CLR 29/24 A3022 40 74 1700 VRB/04 RMK AO2 T02940244
63870K0J4 0J420160824101010708/24/16 10:10:31  5-MIN K0J4 241510Z AUTO VRB05KT 10SM CLR 29/24 A3022 40 74 1700 VRB/05 RMK AO2 T02940244
63870K0J4 0J420160824101511008/24/16 10:15:31  5-MIN K0J4 241515Z AUTO 08006KT 10SM FEW013 29/24 A3022 40 74 1700 080/06 RMK AO2 T02940244
63870K0J4 0J420160824102011008/24/16 10:20:31  5-MIN K0J4 241520Z AUTO VRB03KT 10SM FEW013 29/24 A3022 40 74 1700 VRB/03 RMK AO2 T02940244
63870K0J4 0J420160824102511008/24/16 10:25:31  5-MIN K0J4 241525Z AUTO 09006KT 10SM FEW015 29/24 A3022 40 74 1700 090/06 RMK AO2 T02940244
63870K0J4 0J420160824103011008/24/16 10:30:31  5-MIN K0J4 241530Z AUTO 00000KT 10SM FEW015 29/24 A3022 40 74 1700 000/00 RMK AO2 T02940244
63870K0J4 0J420160824103511008/24/16 10:35:31  5-MIN K0J4 241535Z AUTO 13007KT 10SM FEW015 30/24 A3022 40 72 1800 130/07 RMK AO2 T03000244
63870K0J4 0J420160824104011008/24/16 10:40:31  5-MIN K0J4 241540Z AUTO 10004KT 10SM FEW015 29/24 A3022 40 74 1800 100/04 RMK AO2 T02940244
63870K0J4 0J420160824104511008/24/16 10:45:31  5-MIN K0J4 241545Z AUTO 08003KT 10SM FEW017 31/24 A3022 40 69 1900 080/03 RMK AO2 T03060244
63870K0J4 0J420160824105011008/24/16 10:50:31  5-MIN K0J4 241550Z AUTO 00000KT 10SM SCT017 30/24 A3022 40 72 1800 000/00 RMK AO2 T03000244
63870K0J4 0J420160824105511708/24/16 10:55:31  5-MIN K0J4 241555Z AUTO 13004KT 10SM SCT017 30/24 A3022 40 72 1800 130/04 RMK AO2 SLP227 T03000244
63870K0J4 0J420160824110011008/24/16 11:00:31  5-MIN K0J4 241600Z AUTO 11005KT 10SM FEW017 31/24 A3022 40 69 1900 110/05 RMK AO2 T03060244
63870K0J4 0J420160824110511008/24/16 11:05:31  5-MIN K0J4 241605Z AUTO 08005KT 10SM FEW017 31/24 A3021 50 67 1900 080/05 RMK AO2 T03060239
63870K0J4 0J420160824111011708/24/16 11:10:31  5-MIN K0J4 241610Z AUTO VRB05KT 10SM FEW020 SCT026 31/24 A3021 50 67 1900 VRB/05 RMK AO2 T03110244
63870K0J4 0J420160824111511708/24/16 11:15:31  5-MIN K0J4 241615Z AUTO 09004KT 10SM FEW020 SCT026 30/24 A3021 50 72 1800 090/04 RMK AO2 T03000244
63870K0J4 0J420160824112011008/24/16 11:20:31  5-MIN K0J4 241620Z AUTO 07006KT 10SM SCT023 31/24 A3021 50 67 1900 070/06 RMK AO2 T03060239
63870K0J4 0J420160824112511008/24/16 11:25:31  5-MIN K0J4 241625Z AUTO VRB05KT 10SM SCT023 31/24 A3021 50 65 1900 VRB/05 RMK AO2 T03110239
63870K0J4 0J420160824113011708/24/16 11:30:31  5-MIN K0J4 241630Z AUTO VRB06KT 10SM SCT023 SCT027 31/24 A3021 50 67 1900 VRB/06 RMK AO2 T03110244
63870K0J4 0J420160824113511708/24/16 11:35:31  5-MIN K0J4 241635Z AUTO 08007KT 10SM SCT023 BKN029 32/24 A3021 50 65 2000 080/07 RMK AO2 T03170244
63870K0J4 0J420160824114011708/24/16 11:40:31  5-MIN K0J4 241640Z AUTO VRB04KT 10SM SCT024 BKN031 32/24 A3021 50 63 2000 VRB/04 RMK AO2 T03170239
63870K0J4 0J420160824114511008/24/16 11:45:31  5-MIN K0J4 241645Z AUTO 07007KT 10SM SCT024 31/24 A3021 50 67 1900 070/07 RMK AO2 T03110244
63870K0J4 0J420160824115011708/24/16 11:50:31  5-MIN K0J4 241650Z AUTO 07007KT 10SM SCT022 SCT029 32/24 A3020 50 65 2000 070/07 RMK AO2 T03170244
63870K0J4 0J420160824115513108/24/16 11:55:31  5-MIN K0J4 241655Z AUTO 08005KT 10SM SCT022 BKN029 BKN044 31/24 A3020 60 67 2000 080/05 RMK AO2 SLP223 T03110244
63870K0J4 0J420160824120012408/24/16 12:00:31  5-MIN K0J4 241700Z AUTO 06006KT 10SM SCT022 BKN029 BKN044 31/24 A3020 60 67 2000 060/06 RMK AO2 T03110244
63870K0J4 0J420160824120511708/24/16 12:05:31  5-MIN K0J4 241705Z AUTO 05007KT 10SM SCT024 BKN029 32/24 A3020 60 63 2000 050/07 RMK AO2 T03170239
63870K0J4 0J420160824121011708/24/16 12:10:31  5-MIN K0J4 241710Z AUTO 06008KT 10SM SCT024 SCT034 31/24 A3020 60 65 2000 060/08 RMK AO2 T03110239
63870K0J4 0J420160824121512408/24/16 12:15:31  5-MIN K0J4 241715Z AUTO 07006KT 10SM SCT024 SCT028 BKN034 32/24 A3020 60 65 2000 070/06 RMK AO2 T03170244
63870K0J4 0J420160824122012408/24/16 12:20:31  5-MIN K0J4 241720Z AUTO 09008KT 10SM FEW024 SCT034 SCT043 31/23 A3020 60 65 1900 090/08 RMK AO2 T03060233
63870K0J4 0J420160824122512408/24/16 12:25:31  5-MIN K0J4 241725Z AUTO VRB06KT 10SM FEW025 FEW034 SCT043 32/24 A3020 60 63 2000 VRB/06 RMK AO2 T03170239
63870K0J4 0J420160824123012408/24/16 12:30:31  5-MIN K0J4 241730Z AUTO 09007KT 10SM FEW025 FEW034 SCT044 31/23 A3019 60 65 1900 090/07 RMK AO2 T03060233
63870K0J4 0J420160824123512408/24/16 12:35:31  5-MIN K0J4 241735Z AUTO VRB04KT 10SM FEW032 FEW044 SCT090 32/24 A3019 70 61 2100 VRB/04 RMK AO2 T03220239
63870K0J4 0J420160824124011708/24/16 12:40:31  5-MIN K0J4 241740Z AUTO 06005KT 10SM FEW044 FEW090 32/24 A3019 70 61 2100 060/05 RMK AO2 T03220239
63870K0J4 0J420160824124511708/24/16 12:45:31  5-MIN K0J4 241745Z AUTO VRB04KT 10SM FEW032 FEW044 32/23 A3019 70 59 2100 VRB/04 RMK AO2 T03220233
63870K0J4 0J420160824125011008/24/16 12:50:31  5-MIN K0J4 241750Z AUTO VRB06KT 10SM FEW032 32/24 A3019 70 61 2100 VRB/06 RMK AO2 T03220239
63870K0J4 0J420160824125513508/24/16 12:55:31  5-MIN K0J4 241755Z AUTO 12006KT 10SM SCT032 32/23 A3018 70 59 2100 120/06 RMK AO2 SLP215 T03220233 10328 20233 51005
63870K0J4 0J420160824130011008/24/16 13:00:31  5-MIN K0J4 241800Z AUTO 10006KT 10SM SCT033 32/24 A3018 80 61 2100 100/06 RMK AO2 T03220239
63870K0J4 0J420160824130511008/24/16 13:05:31  5-MIN K0J4 241805Z AUTO VRB06KT 10SM SCT033 32/23 A3018 80 59 2100 VRB/06 RMK AO2 T03220233
63870K0J4 0J420160824131011008/24/16 13:10:31  5-MIN K0J4 241810Z AUTO 09006KT 10SM BKN033 32/23 A3018 80 59 2100 090/06 RMK AO2 T03220233
63870K0J4 0J420160824131512408/24/16 13:15:31  5-MIN K0J4 241815Z AUTO 09007KT 10SM BKN033 BKN042 BKN060 32/23 A3017 80 59 2100 090/07 RMK AO2 T03220233
63870K0J4 0J420160824132012408/24/16 13:20:31  5-MIN K0J4 241820Z AUTO 08007KT 10SM SCT033 BKN047 BKN060 31/23 A3017 90 60 2000 080/07 RMK AO2 T03110228
63870K0J4 0J420160824132511708/24/16 13:25:31  5-MIN K0J4 241825Z AUTO 12007KT 10SM SCT033 BKN055 32/23 A3017 90 58 2100 120/07 RMK AO2 T03170228
63870K0J4 0J420160824133012408/24/16 13:30:31  5-MIN K0J4 241830Z AUTO 12005KT 10SM FEW034 SCT050 BKN060 32/22 A3017 80 55 2100 120/05 RMK AO2 T03220222
63870K0J4 0J420160824133514008/24/16 13:35:31  5-MIN K0J4 241835Z AUTO 13007KT 090V180 10SM FEW034 SCT050 SCT060 32/22 A3017 90 55 2100 130/07 090V180 RMK AO2 T03220222
63870K0J4 0J420160824134011708/24/16 13:40:31  5-MIN K0J4 241840Z AUTO 08006KT 10SM FEW037 SCT055 33/23 A3017 90 53 2200 080/06 RMK AO2 T03330228
63870K0J4 0J420160824134512408/24/16 13:45:31  5-MIN K0J4 241845Z AUTO VRB06KT 10SM FEW039 SCT050 SCT060 33/23 A3017 90 53 2200 VRB/06 RMK AO2 T03330228
63870K0J4 0J420160824135011708/24/16 13:50:31  5-MIN K0J4 241850Z AUTO VRB06KT 10SM FEW039 SCT050 33/23 A3017 90 55 2200 VRB/06 RMK AO2 T03330233
63870K0J4 0J420160824135512408/24/16 13:55:31  5-MIN K0J4 241855Z AUTO 07011KT 10SM FEW039 FEW050 33/24 A3017 90 57 2200 070/11 RMK AO2 SLP210 T03330239
63870K0J4 0J420160824140011708/24/16 14:00:31  5-MIN K0J4 241900Z AUTO 05008KT 10SM FEW039 FEW050 32/23 A3017 90 57 2100 050/08 RMK AO2 T03220228
63870K0J4 0J420160824140513308/24/16 14:05:31  5-MIN K0J4 241905Z AUTO 10007KT 040V140 10SM FEW039 FEW050 33/23 A3016 90 55 2200 100/07 040V140 RMK AO2 T03330233
63870K0J4 0J420160824141011708/24/16 14:10:31  5-MIN K0J4 241910Z AUTO 10009KT 10SM FEW039 FEW050 33/23 A3016 90 55 2200 100/09 RMK AO2 T03280228
63870K0J4 0J420160824141510708/24/16 14:15:31  5-MIN K0J4 241915Z AUTO 08006KT 10SM CLR 33/23 A3016 90 57 2200 080/06 RMK AO2 T03280233
63870K0J4 0J420160824142012308/24/16 14:20:31  5-MIN K0J4 241920Z AUTO 11008KT 090V150 10SM CLR 33/23 A3016 90 55 2200 110/08 090V150 RMK AO2 T03280228
63870K0J4 0J420160824142511008/24/16 14:25:31  5-MIN K0J4 241925Z AUTO 13005KT 10SM FEW040 33/23 A3016 90 55 2200 130/05 RMK AO2 T03280228
63870K0J4 0J420160824143011008/24/16 14:30:31  5-MIN K0J4 241930Z AUTO 10007KT 10SM SCT040 32/23 A3016 90 57 2100 100/07 RMK AO2 T03220228
63870K0J4 0J420160824143511108/24/16 14:35:31  5-MIN K0J4 241935Z AUTO 08008KT 10SM SCT040 32/23 A3016 100 57 2100 080/08 RMK AO2 T03220228
63870K0J4 0J420160824144011108/24/16 14:40:31  5-MIN K0J4 241940Z AUTO VRB05KT 10SM FEW040 33/23 A3016 100 57 2200 VRB/05 RMK AO2 T03280233
63870K0J4 0J420160824144512708/24/16 14:45:31  5-MIN K0J4 241945Z AUTO 11008KT 070V150 10SM FEW040 33/23 A3016 100 55 2200 110/08 070V150 RMK AO2 T03280228
63870K0J4 0J420160824145011108/24/16 14:50:31  5-MIN K0J4 241950Z AUTO 11007KT 10SM FEW040 33/22 A3015 100 51 2300 110/07 RMK AO2 T03330222
63870K0J4 0J420160824145511808/24/16 14:55:31  5-MIN K0J4 241955Z AUTO VRB05KT 10SM FEW040 33/22 A3015 100 53 2200 VRB/05 RMK AO2 SLP205 T03280222
63870K0J4 0J420160824150010808/24/16 15:00:31  5-MIN K0J4 242000Z AUTO 10006KT 10SM CLR 33/22 A3015 110 53 2200 100/06 RMK AO2 T03280222
63870K0J4 0J420160824150510808/24/16 15:05:31  5-MIN K0J4 242005Z AUTO VRB05KT 10SM CLR 33/23 A3015 110 53 2300 VRB/05 RMK AO2 T03330228
63870K0J4 0J420160824151010808/24/16 15:10:31  5-MIN K0J4 242010Z AUTO 10006KT 10SM CLR 33/23 A3015 110 53 2300 100/06 RMK AO2 T03330228
63870K0J4 0J420160824151510808/24/16 15:15:31  5-MIN K0J4 242015Z AUTO VRB04KT 10SM CLR 33/22 A3015 110 51 2300 VRB/04 RMK AO2 T03330222
63870K0J4 0J420160825011010808/25/16 01:10:31  5-MIN K0J4 250610Z AUTO 00000KT 10SM CLR 24/23 A3013 120 93 1200 000/00 RMK AO2 T02390228
63870K0J4 0J420160825011510808/25/16 01:15:31  5-MIN K0J4 250615Z AUTO 00000KT 10SM CLR 24/23 A3013 120 93 1200 000/00 RMK AO2 T02390228
63870K0J4 0J420160825012010808/25/16 01:20:31  5-MIN K0J4 250620Z AUTO 00000KT 10SM CLR 24/23 A3013 130 93 1200 000/00 RMK AO2 T02390228
63870K0J4 0J420160825012510808/25/16 01:25:31  5-MIN K0J4 250625Z AUTO 00000KT 10SM CLR 24/23 A3012 130 93 1200 000/00 RMK AO2 T02390228
63870K0J4 0J420160825013010808/25/16 01:30:31  5-MIN K0J4 250630Z AUTO 00000KT 10SM CLR 24/23 A3012 130 93 1200 000/00 RMK AO2 T02390228
63870K0J4 0J420160825013510808/25/16 01:35:31  5-MIN K0J4 250635Z AUTO 00000KT 10SM CLR 24/23 A3012 130 93 1200 000/00 RMK AO2 T02390228
63870K0J4 0J420160825014010808/25/16 01:40:31  5-MIN K0J4 250640Z AUTO 00000KT 10SM CLR 24/23 A3012 130 93 1200 000/00 RMK AO2 T02390228
63870K0J4 0J420160825014510808/25/16 01:45:31  5-MIN K0J4 250645Z AUTO 00000KT 10SM CLR 24/23 A3012 130 93 1200 000/00 RMK AO2 T02390228
63870K0J4 0J420160825015010808/25/16 01:50:31  5-MIN K0J4 250650Z AUTO 00000KT 10SM CLR 24/22 A3012 130 90 1200 000/00 RMK AO2 T02390222
63870K0J4 0J420160825015511508/25/16 01:55:31  5-MIN K0J4 250655Z AUTO 00000KT 10SM CLR 23/22 A3012 130 93 1200 000/00 RMK AO2 SLP194 T02330222
63870K0J4 0J420160825020010808/25/16 02:00:31  5-MIN K0J4 250700Z AUTO 00000KT 10SM CLR 23/22 A3012 140 93 1200 000/00 RMK AO2 T02330222
63870K0J4 0J420160825020510808/25/16 02:05:31  5-MIN K0J4 250705Z AUTO 00000KT 10SM CLR 23/22 A3011 140 93 1200 000/00 RMK AO2 T02330222
63870K0J4 0J420160825021010808/25/16 02:10:31  5-MIN K0J4 250710Z AUTO 00000KT 10SM CLR 24/22 A3011 140 90 1200 000/00 RMK AO2 T02390222
63870K0J4 0J420160825021510808/25/16 02:15:31  5-MIN K0J4 250715Z AUTO 00000KT 10SM CLR 24/22 A3011 140 90 1200 000/00 RMK AO2 T02390222
63870K0J4 0J420160825022010808/25/16 02:20:31  5-MIN K0J4 250720Z AUTO 00000KT 10SM CLR 24/22 A3011 140 90 1200 000/00 RMK AO2 T02390222
63870K0J4 0J420160825023510108/25/16 02:35:31  5-MIN K0J4 250735Z AUTO 00000KT 23/22 A3012 140 93 1200 000/00 RMK AO2 T02330222 $
63870K0J4 0J420160825024010608/25/16 02:40:31  5-MIN K0J4 250740Z AUTO 00000KT 10SM 23/22 A3012 140 93 1200 000/00 RMK AO2 T02330222 $
63870K0J4 0J420160825024510608/25/16 02:45:31  5-MIN K0J4 250745Z AUTO 00000KT 10SM 23/22 A3012 140 90 1200 000/00 RMK AO2 T02330217 $
63870K0J4 0J420160825025010608/25/16 02:50:31  5-MIN K0J4 250750Z AUTO 00000KT 10SM 23/22 A3012 130 93 1200 000/00 RMK AO2 T02330222 $
63870K0J4 0J420160825025511308/25/16 02:55:31  5-MIN K0J4 250755Z AUTO 00000KT 10SM 23/22 A3012 130 93 1200 000/00 RMK AO2 SLP194 T02330222 $
63870K0J4 0J420160825030011008/25/16 03:00:31  5-MIN K0J4 250800Z AUTO 00000KT 10SM CLR 23/22 A3012 130 93 1200 000/00 RMK AO2 T02330222 $
63870K0J4 0J420160825030511008/25/16 03:05:31  5-MIN K0J4 250805Z AUTO 00000KT 10SM CLR 23/22 A3012 130 93 1200 000/00 RMK AO2 T02330222 $
63870K0J4 0J420160825031011008/25/16 03:10:31  5-MIN K0J4 250810Z AUTO 00000KT 10SM CLR 23/22 A3012 130 93 1200 000/00 RMK AO2 T02330222 $
63870K0J4 0J420160825031511008/25/16 03:15:31  5-MIN K0J4 250815Z AUTO 00000KT 10SM CLR 23/22 A3012 130 93 1200 000/00 RMK AO2 T02330222 $
63870K0J4 0J420160825032011008/25/16 03:20:31  5-MIN K0J4 250820Z AUTO 00000KT 10SM CLR 24/22 A3012 140 90 1200 000/00 RMK AO2 T02390222 $
63870K0J4 0J420160825032511008/25/16 03:25:31  5-MIN K0J4 250825Z AUTO 08004KT 10SM CLR 24/22 A3011 140 90 1200 080/04 RMK AO2 T02390222 $
63870K0J4 0J420160825033011008/25/16 03:30:31  5-MIN K0J4 250830Z AUTO 09003KT 10SM CLR 24/22 A3012 140 90 1200 090/03 RMK AO2 T02390222 $
63870K0J4 0J420160825033511008/25/16 03:35:31  5-MIN K0J4 250835Z AUTO 08003KT 10SM CLR 24/22 A3012 130 90 1200 080/03 RMK AO2 T02390222 $
63870K0J4 0J420160825034011008/25/16 03:40:31  5-MIN K0J4 250840Z AUTO 08003KT 10SM CLR 24/22 A3012 130 90 1200 080/03 RMK AO2 T02390222 $
63870K0J4 0J420160825034511008/25/16 03:45:31  5-MIN K0J4 250845Z AUTO 08003KT 10SM CLR 24/23 A3012 130 93 1200 080/03 RMK AO2 T02390228 $
63870K0J4 0J420160825035011008/25/16 03:50:31  5-MIN K0J4 250850Z AUTO 00000KT 10SM CLR 24/23 A3012 130 93 1200 000/00 RMK AO2 T02390228 $
63870K0J4 0J420160825035511708/25/16 03:55:31  5-MIN K0J4 250855Z AUTO 07003KT 10SM CLR 24/23 A3012 130 93 1200 070/03 RMK AO2 SLP194 T02390228 $
63870K0J4 0J420160825040011008/25/16 04:00:31  5-MIN K0J4 250900Z AUTO 00000KT 10SM CLR 24/23 A3012 130 93 1200 000/00 RMK AO2 T02390228 $
63870K0J4 0J420160825040511008/25/16 04:05:31  5-MIN K0J4 250905Z AUTO 00000KT 10SM CLR 24/23 A3012 130 93 1200 000/00 RMK AO2 T02390228 $
63870K0J4 0J420160825041011008/25/16 04:10:31  5-MIN K0J4 250910Z AUTO 00000KT 10SM CLR 24/23 A3012 130 93 1200 000/00 RMK AO2 T02390228 $
63870K0J4 0J420160825041511008/25/16 04:15:31  5-MIN K0J4 250915Z AUTO 00000KT 10SM CLR 24/23 A3012 130 93 1200 000/00 RMK AO2 T02390228 $
63870K0J4 0J420160825042011008/25/16 04:20:31  5-MIN K0J4 250920Z AUTO 00000KT 10SM CLR 24/22 A3012 130 90 1200 000/00 RMK AO2 T02390222 $
63870K0J4 0J420160825042511008/25/16 04:25:31  5-MIN K0J4 250925Z AUTO 00000KT 10SM CLR 24/22 A3012 130 90 1200 000/00 RMK AO2 T02390222 $
63870K0J4 0J420160825043011008/25/16 04:30:31  5-MIN K0J4 250930Z AUTO 00000KT 10SM CLR 24/22 A3012 130 90 1200 000/00 RMK AO2 T02390222 $
63870K0J4 0J420160825043511008/25/16 04:35:31  5-MIN K0J4 250935Z AUTO 00000KT 10SM CLR 23/22 A3013 130 93 1200 000/00 RMK AO2 T02330222 $
63870K0J4 0J420160825044011008/25/16 04:40:31  5-MIN K0J4 250940Z AUTO 00000KT 10SM CLR 24/22 A3013 120 90 1200 000/00 RMK AO2 T02390222 $
63870K0J4 0J420160825044511008/25/16 04:45:31  5-MIN K0J4 250945Z AUTO 00000KT 10SM CLR 24/22 A3013 120 90 1200 000/00 RMK AO2 T02390222 $
63870K0J4 0J420160825045011008/25/16 04:50:31  5-MIN K0J4 250950Z AUTO 00000KT 10SM CLR 23/22 A3013 120 93 1200 000/00 RMK AO2 T02330222 $
63870K0J4 0J420160825045511708/25/16 04:55:31  5-MIN K0J4 250955Z AUTO 00000KT 10SM CLR 23/22 A3013 120 90 1200 000/00 RMK AO2 SLP199 T02330217 $
63870K0J4 0J420160825050011008/25/16 05:00:31  5-MIN K0J4 251000Z AUTO 07003KT 10SM CLR 23/22 A3014 120 90 1200 070/03 RMK AO2 T02330217 $
63870K0J4 0J420160825050511008/25/16 05:05:31  5-MIN K0J4 251005Z AUTO 00000KT 10SM CLR 23/22 A3014 110 90 1200 000/00 RMK AO2 T02330217 $
63870K0J4 0J420160825051010908/25/16 05:10:31  5-MIN K0J4 251010Z AUTO 00000KT 9SM CLR 23/22 A3014 110 93 1100 000/00 RMK AO2 T02330222 $
63870K0J4 0J420160825051510908/25/16 05:15:31  5-MIN K0J4 251015Z AUTO 08003KT 9SM CLR 23/22 A3014 110 93 1100 080/03 RMK AO2 T02330222 $
63870K0J4 0J420160825052010908/25/16 05:20:31  5-MIN K0J4 251020Z AUTO 00000KT 8SM CLR 23/22 A3014 110 93 1100 000/00 RMK AO2 T02330222 $
63870K0J4 0J420160825052510908/25/16 05:25:31  5-MIN K0J4 251025Z AUTO 07003KT 8SM CLR 23/22 A3014 110 93 1100 070/03 RMK AO2 T02330222 $
63870K0J4 0J420160825053010908/25/16 05:30:31  5-MIN K0J4 251030Z AUTO 08003KT 8SM CLR 23/22 A3014 110 93 1100 080/03 RMK AO2 T02330222 $
63870K0J4 0J420160825053510908/25/16 05:35:31  5-MIN K0J4 251035Z AUTO 07003KT 7SM CLR 23/22 A3015 110 93 1100 070/03 RMK AO2 T02330222 $
63870K0J4 0J420160825054010908/25/16 05:40:31  5-MIN K0J4 251040Z AUTO 00000KT 8SM CLR 23/22 A3015 110 93 1100 000/00 RMK AO2 T02330222 $
63870K0J4 0J420160825054511008/25/16 05:45:31  5-MIN K0J4 251045Z AUTO 00000KT 10SM CLR 23/22 A3015 110 93 1100 000/00 RMK AO2 T02330222 $
63870K0J4 0J420160825055011008/25/16 05:50:31  5-MIN K0J4 251050Z AUTO 00000KT 10SM CLR 23/22 A3015 100 93 1100 000/00 RMK AO2 T02330222 $
63870K0J4 0J420160825055511708/25/16 05:55:31  5-MIN K0J4 251055Z AUTO 07003KT 10SM CLR 23/22 A3015 100 90 1100 070/03 RMK AO2 SLP206 T02330217 $
63870K0J4 0J420160825060011008/25/16 06:00:31  5-MIN K0J4 251100Z AUTO 00000KT 10SM CLR 23/22 A3016 100 90 1100 000/00 RMK AO2 T02330217 $
63870K0J4 0J420160825060511308/25/16 06:05:31  5-MIN K0J4 251105Z AUTO 00000KT 10SM FEW075 23/22 A3016 100 90 1100 000/00 RMK AO2 T02330217 $
63870K0J4 0J420160825061011308/25/16 06:10:31  5-MIN K0J4 251110Z AUTO 00000KT 10SM SCT075 23/22 A3016 100 90 1100 000/00 RMK AO2 T02330217 $
63870K0J4 0J420160825061511208/25/16 06:15:31  5-MIN K0J4 251115Z AUTO 00000KT 10SM BKN075 23/22 A3016 90 90 1100 000/00 RMK AO2 T02330217 $
63870K0J4 0J420160825062011208/25/16 06:20:31  5-MIN K0J4 251120Z AUTO 00000KT 10SM BKN075 23/22 A3016 90 93 1100 000/00 RMK AO2 T02330222 $
63870K0J4 0J420160825062511208/25/16 06:25:31  5-MIN K0J4 251125Z AUTO 00000KT 10SM OVC075 24/22 A3016 90 90 1200 000/00 RMK AO2 T02390222 $
63870K0J4 0J420160825063011108/25/16 06:30:31  5-MIN K0J4 251130Z AUTO 00000KT 9SM OVC075 24/22 A3016 90 90 1200 000/00 RMK AO2 T02390222 $
63870K0J4 0J420160825063511108/25/16 06:35:31  5-MIN K0J4 251135Z AUTO 08003KT 9SM OVC075 24/22 A3016 90 90 1200 080/03 RMK AO2 T02390222 $
63870K0J4 0J420160825064011108/25/16 06:40:31  5-MIN K0J4 251140Z AUTO 07003KT 9SM OVC075 24/22 A3016 90 90 1200 070/03 RMK AO2 T02390222 $
63870K0J4 0J420160825064511108/25/16 06:45:31  5-MIN K0J4 251145Z AUTO 07005KT 9SM OVC075 24/22 A3017 90 90 1200 070/05 RMK AO2 T02390222 $
63870K0J4 0J420160825065011108/25/16 06:50:31  5-MIN K0J4 251150Z AUTO 07004KT 9SM OVC075 23/22 A3017 90 93 1100 070/04 RMK AO2 T02330222 $
63870K0J4 0J420160825065513008/25/16 06:55:31  5-MIN K0J4 251155Z AUTO 08004KT 9SM OVC075 23/22 A3017 90 93 1100 080/04 RMK AO2 SLP211 T02330222 10239 20233 $
63870K0J4 0J420160825070011208/25/16 07:00:31  5-MIN K0J4 251200Z AUTO 08004KT 10SM OVC075 23/22 A3017 80 90 1100 080/04 RMK AO2 T02330217 $
63870K0J4 0J420160825070511208/25/16 07:05:31  5-MIN K0J4 251205Z AUTO 08003KT 10SM OVC075 24/22 A3017 80 90 1200 080/03 RMK AO2 T02390222 $
63870K0J4 0J420160825071011008/25/16 07:10:31  5-MIN K0J4 251210Z AUTO 08003KT 10SM OVC075 24/22 A3017 80 84 1200 080/03 RMK AO2 T02440217
63870K0J4 0J420160825071511008/25/16 07:15:31  5-MIN K0J4 251215Z AUTO 08003KT 10SM OVC075 24/22 A3017 80 87 1200 080/03 RMK AO2 T02390217
63870K0J4 0J420160825072011008/25/16 07:20:31  5-MIN K0J4 251220Z AUTO 07003KT 10SM OVC075 24/22 A3018 80 87 1200 070/03 RMK AO2 T02390217
63870K0J4 0J420160825072511008/25/16 07:25:31  5-MIN K0J4 251225Z AUTO 06004KT 10SM OVC080 24/22 A3018 80 87 1200 060/04 RMK AO2 T02390217
63870K0J4 0J420160825073011008/25/16 07:30:31  5-MIN K0J4 251230Z AUTO 07003KT 10SM OVC080 24/22 A3018 80 87 1200 070/03 RMK AO2 T02390217
63870K0J4 0J420160825073511008/25/16 07:35:31  5-MIN K0J4 251235Z AUTO 07003KT 10SM OVC080 24/22 A3018 80 90 1200 070/03 RMK AO2 T02390222
63870K0J4 0J420160825074011008/25/16 07:40:31  5-MIN K0J4 251240Z AUTO 00000KT 10SM OVC080 24/22 A3018 80 90 1200 000/00 RMK AO2 T02390222
63870K0J4 0J420160825074511008/25/16 07:45:31  5-MIN K0J4 251245Z AUTO 00000KT 10SM OVC080 24/22 A3018 80 90 1200 000/00 RMK AO2 T02390222
63870K0J4 0J420160825075011008/25/16 07:50:31  5-MIN K0J4 251250Z AUTO 06004KT 10SM OVC080 24/22 A3018 80 90 1200 060/04 RMK AO2 T02390222
63870K0J4 0J420160825075511708/25/16 07:55:31  5-MIN K0J4 251255Z AUTO 06004KT 10SM OVC080 24/22 A3018 80 90 1200 060/04 RMK AO2 SLP216 T02390222
63870K0J4 0J420160825080011008/25/16 08:00:31  5-MIN K0J4 251300Z AUTO 07004KT 10SM OVC080 24/22 A3018 70 90 1200 070/04 RMK AO2 T02390222
63870K0J4 0J420160825080511008/25/16 08:05:31  5-MIN K0J4 251305Z AUTO 07004KT 10SM OVC080 24/22 A3018 70 87 1200 070/04 RMK AO2 T02440222
63870K0J4 0J420160825081011008/25/16 08:10:31  5-MIN K0J4 251310Z AUTO 09004KT 10SM OVC080 24/22 A3018 70 87 1200 090/04 RMK AO2 T02440222
63870K0J4 0J420160825081511708/25/16 08:15:31  5-MIN K0J4 251315Z AUTO 08004KT 10SM FEW070 OVC085 24/22 A3019 70 84 1200 080/04 RMK AO2 T02440217
63870K0J4 0J420160825082011708/25/16 08:20:31  5-MIN K0J4 251320Z AUTO 08003KT 10SM SCT065 OVC085 25/22 A3019 70 84 1300 080/03 RMK AO2 T02500222
63870K0J4 0J420160825082511708/25/16 08:25:31  5-MIN K0J4 251325Z AUTO 08004KT 10SM SCT070 OVC085 25/22 A3019 70 84 1300 080/04 RMK AO2 T02500222
63870K0J4 0J420160825083011708/25/16 08:30:31  5-MIN K0J4 251330Z AUTO 08004KT 10SM BKN070 OVC085 25/22 A3019 70 84 1300 080/04 RMK AO2 T02500222
63870K0J4 0J420160825083511708/25/16 08:35:31  5-MIN K0J4 251335Z AUTO 08004KT 10SM SCT065 OVC085 25/22 A3019 70 84 1300 080/04 RMK AO2 T02500222
63870K0J4 0J420160825084011708/25/16 08:40:31  5-MIN K0J4 251340Z AUTO 09005KT 10SM SCT065 BKN085 25/22 A3019 70 84 1300 090/05 RMK AO2 T02500222
63870K0J4 0J420160825084511708/25/16 08:45:31  5-MIN K0J4 251345Z AUTO VRB04KT 10SM BKN070 BKN085 25/22 A3019 70 84 1300 VRB/04 RMK AO2 T02500222
63870K0J4 0J420160825085011708/25/16 08:50:31  5-MIN K0J4 251350Z AUTO 09004KT 10SM BKN070 BKN085 25/22 A3019 70 84 1300 090/04 RMK AO2 T02500222
63870K0J4 0J420160825085512408/25/16 08:55:31  5-MIN K0J4 251355Z AUTO VRB04KT 10SM SCT070 OVC085 26/22 A3019 70 81 1300 VRB/04 RMK AO2 SLP219 T02560222
63870K0J4 0J420160825090011708/25/16 09:00:31  5-MIN K0J4 251400Z AUTO 13004KT 10SM SCT065 OVC085 26/22 A3019 70 81 1300 130/04 RMK AO2 T02560222
63870K0J4 0J420160825090511708/25/16 09:05:31  5-MIN K0J4 251405Z AUTO VRB04KT 10SM BKN060 OVC085 25/22 A3019 70 81 1300 VRB/04 RMK AO2 T02500217
63870K0J4 0J420160825091011708/25/16 09:10:31  5-MIN K0J4 251410Z AUTO 11004KT 10SM BKN060 OVC085 26/22 A3019 70 81 1300 110/04 RMK AO2 T02560222
63870K0J4 0J420160825091511708/25/16 09:15:31  5-MIN K0J4 251415Z AUTO 10005KT 10SM BKN060 OVC085 26/22 A3019 60 79 1300 100/05 RMK AO2 T02560217
63870K0J4 0J420160825092011708/25/16 09:20:31  5-MIN K0J4 251420Z AUTO 13004KT 10SM SCT060 OVC085 26/22 A3019 60 81 1300 130/04 RMK AO2 T02560222
63870K0J4 0J420160825092511708/25/16 09:25:31  5-MIN K0J4 251425Z AUTO 09005KT 10SM SCT060 OVC085 26/22 A3019 60 79 1300 090/05 RMK AO2 T02560217
63870K0J4 0J420160825093011708/25/16 09:30:31  5-MIN K0J4 251430Z AUTO 10005KT 10SM FEW060 OVC085 26/22 A3019 60 79 1400 100/05 RMK AO2 T02610222
63870K0J4 0J420160825093511708/25/16 09:35:31  5-MIN K0J4 251435Z AUTO 09005KT 10SM FEW060 OVC085 26/22 A3019 70 76 1400 090/05 RMK AO2 T02610217
63870K0J4 0J420160825094011008/25/16 09:40:31  5-MIN K0J4 251440Z AUTO 09006KT 10SM OVC085 27/22 A3019 70 76 1500 090/06 RMK AO2 T02670222
63870K0J4 0J420160825094511708/25/16 09:45:31  5-MIN K0J4 251445Z AUTO 08006KT 10SM FEW060 OVC085 27/22 A3019 70 76 1500 080/06 RMK AO2 T02670222
63870K0J4 0J420160825095011708/25/16 09:50:31  5-MIN K0J4 251450Z AUTO 07006KT 10SM FEW060 OVC085 27/22 A3019 70 74 1500 070/06 RMK AO2 T02720222
63870K0J4 0J420160825095513008/25/16 09:55:31  5-MIN K0J4 251455Z AUTO 08007KT 10SM FEW060 OVC085 27/22 A3019 70 71 1500 080/07 RMK AO2 SLP218 T02720217 51018
63870K0J4 0J420160825100011708/25/16 10:00:31  5-MIN K0J4 251500Z AUTO 12006KT 10SM FEW060 OVC085 27/22 A3019 70 73 1500 120/06 RMK AO2 T02670217
63870K0J4 0J420160825100511708/25/16 10:05:31  5-MIN K0J4 251505Z AUTO 12005KT 10SM FEW060 OVC085 27/21 A3019 70 69 1500 120/05 RMK AO2 T02720211
63870K0J4 0J420160825101011708/25/16 10:10:31  5-MIN K0J4 251510Z AUTO VRB06KT 10SM FEW060 OVC085 28/22 A3019 70 69 1600 VRB/06 RMK AO2 T02780217
63870K0J4 0J420160825101511708/25/16 10:15:31  5-MIN K0J4 251515Z AUTO 09003KT 10SM FEW060 OVC085 28/22 A3018 70 66 1700 090/03 RMK AO2 T02830217
63870K0J4 0J420160825102011708/25/16 10:20:31  5-MIN K0J4 251520Z AUTO 09005KT 10SM FEW060 BKN085 28/21 A3018 70 66 1600 090/05 RMK AO2 T02780211
63870K0J4 0J420160825102511008/25/16 10:25:31  5-MIN K0J4 251525Z AUTO 08005KT 10SM BKN085 28/21 A3018 80 64 1700 080/05 RMK AO2 T02830211
63870K0J4 0J420160825103011008/25/16 10:30:31  5-MIN K0J4 251530Z AUTO 09005KT 10SM BKN085 28/21 A3018 80 64 1700 090/05 RMK AO2 T02830211
63870K0J4 0J420160825103511008/25/16 10:35:31  5-MIN K0J4 251535Z AUTO 11004KT 10SM BKN085 28/21 A3018 80 64 1700 110/04 RMK AO2 T02830211
63870K0J4 0J420160825104011008/25/16 10:40:31  5-MIN K0J4 251540Z AUTO 09005KT 10SM BKN085 28/22 A3018 80 66 1700 090/05 RMK AO2 T02830217
63870K0J4 0J420160825104511008/25/16 10:45:31  5-MIN K0J4 251545Z AUTO 08006KT 10SM OVC085 29/21 A3018 70 62 1700 080/06 RMK AO2 T02890211
63870K0J4 0J420160825105011708/25/16 10:50:31  5-MIN K0J4 251550Z AUTO VRB05KT 10SM FEW055 OVC085 29/21 A3018 70 60 1800 VRB/05 RMK AO2 T02940211
63870K0J4 0J420160825105512408/25/16 10:55:31  5-MIN K0J4 251555Z AUTO VRB04KT 10SM FEW055 BKN085 29/21 A3018 70 60 1800 VRB/04 RMK AO2 SLP216 T02940211
63870K0J4 0J420160825110011008/25/16 11:00:31  5-MIN K0J4 251600Z AUTO VRB05KT 10SM BKN085 29/21 A3018 80 58 1800 VRB/05 RMK AO2 T02940206
63870K0J4 0J420160825110511008/25/16 11:05:31  5-MIN K0J4 251605Z AUTO 12005KT 10SM BKN085 29/21 A3018 80 58 1800 120/05 RMK AO2 T02940206
63870K0J4 0J420160825111011008/25/16 11:10:31  5-MIN K0J4 251610Z AUTO 14007KT 10SM SCT085 29/21 A3018 80 58 1800 140/07 RMK AO2 T02940206
63870K0J4 0J420160825111511008/25/16 11:15:31  5-MIN K0J4 251615Z AUTO 12006KT 10SM FEW085 30/20 A3018 80 54 1900 120/06 RMK AO2 T03000200
63870K0J4 0J420160825112011008/25/16 11:20:31  5-MIN K0J4 251620Z AUTO 13007KT 10SM FEW080 30/20 A3018 80 54 1900 130/07 RMK AO2 T03000200
63870K0J4 0J420160825112511008/25/16 11:25:31  5-MIN K0J4 251625Z AUTO VRB05KT 10SM FEW080 30/19 A3018 80 52 1900 VRB/05 RMK AO2 T03000194
63870K0J4 0J420160825113010708/25/16 11:30:31  5-MIN K0J4 251630Z AUTO VRB05KT 10SM CLR 30/19 A3018 80 52 1900 VRB/05 RMK AO2 T03000194
63870K0J4 0J420160825113510708/25/16 11:35:31  5-MIN K0J4 251635Z AUTO 08005KT 10SM CLR 31/20 A3017 80 52 1900 080/05 RMK AO2 T03060200
63870K0J4 0J420160825114010708/25/16 11:40:31  5-MIN K0J4 251640Z AUTO VRB05KT 10SM CLR 31/20 A3017 80 51 2000 VRB/05 RMK AO2 T03110200
63870K0J4 0J420160825114510708/25/16 11:45:31  5-MIN K0J4 251645Z AUTO 09007KT 10SM CLR 31/20 A3017 90 52 1900 090/07 RMK AO2 T03060200
63870K0J4 0J420160825115010708/25/16 11:50:31  5-MIN K0J4 251650Z AUTO 09006KT 10SM CLR 31/20 A3017 90 52 1900 090/06 RMK AO2 T03060200
63870K0J4 0J420160825115511408/25/16 11:55:31  5-MIN K0J4 251655Z AUTO VRB04KT 10SM CLR 31/20 A3016 90 52 1900 VRB/04 RMK AO2 SLP210 T03060200
63870K0J4 0J420160825120010708/25/16 12:00:31  5-MIN K0J4 251700Z AUTO 13005KT 10SM CLR 31/20 A3016 90 51 2000 130/05 RMK AO2 T03110200
63870K0J4 0J420160825120510808/25/16 12:05:31  5-MIN K0J4 251705Z AUTO 12006KT 10SM CLR 31/21 A3016 100 53 2000 120/06 RMK AO2 T03110206
63870K0J4 0J420160825121010808/25/16 12:10:31  5-MIN K0J4 251710Z AUTO 07007KT 10SM CLR 31/20 A3016 100 51 2000 070/07 RMK AO2 T03110200
63870K0J4 0J420160825121510808/25/16 12:15:31  5-MIN K0J4 251715Z AUTO 10006KT 10SM CLR 31/21 A3016 100 53 2000 100/06 RMK AO2 T03110206
63870K0J4 0J420160825122010808/25/16 12:20:31  5-MIN K0J4 251720Z AUTO 00000KT 10SM CLR 31/21 A3016 100 53 2000 000/00 RMK AO2 T03110206
63870K0J4 0J420160825122509808/25/16 12:25:31  5-MIN K0J4 251725Z AUTO 10SM CLR 31/21 A3016 100 53 2000 M /M RMK AO2 T03110206
63870K0J4 0J420160825123010808/25/16 12:30:31  5-MIN K0J4 251730Z AUTO 10006KT 10SM CLR 31/20 A3015 100 51 2000 100/06 RMK AO2 T03110200
63870K0J4 0J420160825123510808/25/16 12:35:31  5-MIN K0J4 251735Z AUTO 09007KT 10SM CLR 31/20 A3015 100 51 2000 090/07 RMK AO2 T03110200
63870K0J4 0J420160825124011108/25/16 12:40:31  5-MIN K0J4 251740Z AUTO VRB03KT 10SM FEW042 31/20 A3015 100 52 1900 VRB/03 RMK AO2 T03060200
63870K0J4 0J420160825124511108/25/16 12:45:31  5-MIN K0J4 251745Z AUTO VRB05KT 10SM FEW040 31/21 A3015 110 53 2000 VRB/05 RMK AO2 T03110206
63870K0J4 0J420160825125012708/25/16 12:50:31  5-MIN K0J4 251750Z AUTO 07007KT 040V100 10SM SCT040 32/21 A3015 110 51 2100 070/07 040V100 RMK AO2 T03170206
63870K0J4 0J420160825125513608/25/16 12:55:31  5-MIN K0J4 251755Z AUTO 04007KT 10SM SCT040 32/21 A3015 110 51 2100 040/07 RMK AO2 SLP204 T03170206 10317 20233 50006
63870K0J4 0J420160825130010108/25/16 13:00:31  5-MIN K0J4 251800Z AUTO 10SM FEW041 31/20 A3014 110 51 2000 M /M RMK AO2 T03110200
63870K0J4 0J420160825130511108/25/16 13:05:31  5-MIN K0J4 251805Z AUTO 05006KT 10SM FEW041 31/19 A3014 110 49 2000 050/06 RMK AO2 T03110194
63870K0J4 0J420160825131011108/25/16 13:10:31  5-MIN K0J4 251810Z AUTO 08008KT 10SM FEW041 32/20 A3014 120 48 2100 080/08 RMK AO2 T03220200
63870K0J4 0J420160825131511108/25/16 13:15:31  5-MIN K0J4 251815Z AUTO 08005KT 10SM FEW041 32/19 A3013 120 47 2100 080/05 RMK AO2 T03170194
63870K0J4 0J420160825132010808/25/16 13:20:31  5-MIN K0J4 251820Z AUTO 08005KT 10SM CLR 32/20 A3013 120 49 2100 080/05 RMK AO2 T03170200
63870K0J4 0J420160825132510808/25/16 13:25:31  5-MIN K0J4 251825Z AUTO 10006KT 10SM CLR 32/20 A3013 120 48 2200 100/06 RMK AO2 T03220200
63870K0J4 0J420160825133010808/25/16 13:30:31  5-MIN K0J4 251830Z AUTO 09007KT 10SM CLR 32/20 A3013 120 49 2100 090/07 RMK AO2 T03170200
63870K0J4 0J420160825133510808/25/16 13:35:31  5-MIN K0J4 251835Z AUTO VRB05KT 10SM CLR 31/20 A3012 130 51 2000 VRB/05 RMK AO2 T03110200
63870K0J4 0J420160825134010808/25/16 13:40:31  5-MIN K0J4 251840Z AUTO 05007KT 10SM CLR 32/20 A3012 130 48 2200 050/07 RMK AO2 T03220200
63870K0J4 0J420160825134510808/25/16 13:45:31  5-MIN K0J4 251845Z AUTO 04007KT 10SM CLR 32/19 A3012 140 47 2100 040/07 RMK AO2 T03170194
63870K0J4 0J420160825135011108/25/16 13:50:31  5-MIN K0J4 251850Z AUTO 05006KT 10SM FEW046 32/20 A3012 140 49 2100 050/06 RMK AO2 T03170200
63870K0J4 0J420160825135511808/25/16 13:55:31  5-MIN K0J4 251855Z AUTO VRB05KT 10SM FEW046 32/20 A3011 140 49 2100 VRB/05 RMK AO2 SLP192 T03170200
63870K0J4 0J420160825140011108/25/16 14:00:31  5-MIN K0J4 251900Z AUTO 05007KT 10SM FEW046 32/20 A3011 140 49 2100 050/07 RMK AO2 T03170200
63870K0J4 0J420160825140511108/25/16 14:05:31  5-MIN K0J4 251905Z AUTO 08008KT 10SM FEW046 32/20 A3011 140 48 2200 080/08 RMK AO2 T03220200
63870K0J4 0J420160825141011108/25/16 14:10:31  5-MIN K0J4 251910Z AUTO 09007KT 10SM FEW046 32/21 A3011 140 49 2200 090/07 RMK AO2 T03220206
63870K0J4 0J420160825141511108/25/16 14:15:31  5-MIN K0J4 251915Z AUTO VRB05KT 10SM FEW046 32/21 A3011 150 51 2100 VRB/05 RMK AO2 T03170206
63870K0J4 0J420160825142010808/25/16 14:20:31  5-MIN K0J4 251920Z AUTO 10006KT 10SM CLR 32/20 A3010 150 48 2200 100/06 RMK AO2 T03220200
63870K0J4 0J420160825142510808/25/16 14:25:31  5-MIN K0J4 251925Z AUTO VRB04KT 10SM CLR 32/21 A3010 150 49 2200 VRB/04 RMK AO2 T03220206
63870K0J4 0J420160825143010808/25/16 14:30:31  5-MIN K0J4 251930Z AUTO 08005KT 10SM CLR 32/21 A3009 160 49 2200 080/05 RMK AO2 T03220206
63870K0J4 0J420160825143510808/25/16 14:35:31  5-MIN K0J4 251935Z AUTO 05008KT 10SM CLR 32/21 A3009 160 49 2200 050/08 RMK AO2 T03220206
63870K0J4 0J420160825144011108/25/16 14:40:31  5-MIN K0J4 251940Z AUTO 06008KT 10SM FEW049 32/21 A3009 160 49 2200 060/08 RMK AO2 T03220206
63870K0J4 0J420160825144511108/25/16 14:45:31  5-MIN K0J4 251945Z AUTO 06009KT 10SM FEW049 32/21 A3009 160 49 2200 060/09 RMK AO2 T03220206
63870K0J4 0J420160825145011108/25/16 14:50:31  5-MIN K0J4 251950Z AUTO 04006KT 10SM FEW049 32/20 A3008 170 48 2200 040/06 RMK AO2 T03220200
63870K0J4 0J420160825145511808/25/16 14:55:31  5-MIN K0J4 251955Z AUTO 04010KT 10SM FEW049 33/21 A3008 170 48 2300 040/10 RMK AO2 SLP181 T03280206
63870K0J4 0J420160825150011108/25/16 15:00:31  5-MIN K0J4 252000Z AUTO 04007KT 10SM FEW049 32/21 A3008 170 49 2200 040/07 RMK AO2 T03220206
63870K0J4 0J420160825150511108/25/16 15:05:31  5-MIN K0J4 252005Z AUTO 07008KT 10SM FEW050 33/21 A3008 170 48 2300 070/08 RMK AO2 T03280206
63870K0J4 0J420160825151010808/25/16 15:10:31  5-MIN K0J4 252010Z AUTO 08007KT 10SM CLR 33/21 A3008 170 48 2300 080/07 RMK AO2 T03280206
63870K0J4 0J420160825151511108/25/16 15:15:31  5-MIN K0J4 252015Z AUTO 07008KT 10SM FEW055 33/21 A3008 170 48 2300 070/08 RMK AO2 T03280206
63870K0J4 0J420160825152011108/25/16 15:20:31  5-MIN K0J4 252020Z AUTO 07009KT 10SM FEW055 32/21 A3008 170 49 2200 070/09 RMK AO2 T03220206
63870K0J4 0J420160825152511108/25/16 15:25:31  5-MIN K0J4 252025Z AUTO 06008KT 10SM FEW055 33/20 A3007 180 46 2300 060/08 RMK AO2 T03280200
63870K0J4 0J420160825153011108/25/16 15:30:31  5-MIN K0J4 252030Z AUTO 06009KT 10SM FEW050 32/20 A3007 180 48 2200 060/09 RMK AO2 T03220200
63870K0J4 0J420160825153511108/25/16 15:35:31  5-MIN K0J4 252035Z AUTO 06010KT 10SM FEW050 32/20 A3007 180 48 2200 060/10 RMK AO2 T03220200
63870K0J4 0J420160825154011108/25/16 15:40:31  5-MIN K0J4 252040Z AUTO 06009KT 10SM FEW050 32/20 A3007 180 48 2200 060/09 RMK AO2 T03220200
63870K0J4 0J420160825154511108/25/16 15:45:31  5-MIN K0J4 252045Z AUTO 08009KT 10SM FEW050 32/20 A3006 180 48 2200 080/09 RMK AO2 T03220200
63870K0J4 0J420160825155011108/25/16 15:50:31  5-MIN K0J4 252050Z AUTO 06009KT 10SM FEW050 32/21 A3006 190 49 2200 060/09 RMK AO2 T03220206
63870K0J4 0J420160825155513008/25/16 15:55:31  5-MIN K0J4 252055Z AUTO 07011G16KT 10SM FEW049 33/20 A3006 190 46 2300 070/11G16 RMK AO2 SLP175 T03280200 58015
63870K0J4 0J420160825160011408/25/16 16:00:31  5-MIN K0J4 252100Z AUTO 06008G16KT 10SM CLR 32/20 A3006 190 48 2200 060/08G16 RMK AO2 T03220200
63870K0J4 0J420160825160510808/25/16 16:05:31  5-MIN K0J4 252105Z AUTO 04011KT 10SM CLR 32/20 A3006 190 48 2200 040/11 RMK AO2 T03220200
63870K0J4 0J420160825161010808/25/16 16:10:31  5-MIN K0J4 252110Z AUTO 06008KT 10SM CLR 32/20 A3006 190 48 2200 060/08 RMK AO2 T03220200
63870K0J4 0J420160825161510808/25/16 16:15:31  5-MIN K0J4 252115Z AUTO 05010KT 10SM CLR 32/20 A3006 190 48 2200 050/10 RMK AO2 T03220200
63870K0J4 0J420160825162010808/25/16 16:20:31  5-MIN K0J4 252120Z AUTO 06007KT 10SM CLR 32/21 A3006 190 49 2200 060/07 RMK AO2 T03220206
63870K0J4 0J420160825162511108/25/16 16:25:31  5-MIN K0J4 252125Z AUTO 03009KT 10SM FEW050 32/21 A3006 190 49 2200 030/09 RMK AO2 T03220206
63870K0J4 0J420160825163011108/25/16 16:30:31  5-MIN K0J4 252130Z AUTO 05008KT 10SM FEW050 32/21 A3006 190 49 2200 050/08 RMK AO2 T03220206
63870K0J4 0J420160825163511108/25/16 16:35:31  5-MIN K0J4 252135Z AUTO VRB05KT 10SM FEW050 32/20 A3005 190 48 2200 VRB/05 RMK AO2 T03220200
63870K0J4 0J420160825164011808/25/16 16:40:31  5-MIN K0J4 252140Z AUTO 09006KT 10SM FEW050 FEW060 33/21 A3005 190 49 2300 090/06 RMK AO2 T03280211
63870K0J4 0J420160825164511808/25/16 16:45:31  5-MIN K0J4 252145Z AUTO 07008KT 10SM FEW050 FEW060 32/21 A3005 200 49 2200 070/08 RMK AO2 T03220206
63870K0J4 0J420160825165011808/25/16 16:50:31  5-MIN K0J4 252150Z AUTO 05008KT 10SM FEW050 FEW060 32/21 A3005 200 49 2200 050/08 RMK AO2 T03220206
63870K0J4 0J420160825165511808/25/16 16:55:31  5-MIN K0J4 252155Z AUTO 08005KT 10SM FEW050 32/21 A3005 200 49 2200 080/05 RMK AO2 SLP171 T03220206
63870K0J4 0J420160825170010808/25/16 17:00:31  5-MIN K0J4 252200Z AUTO 07010KT 10SM CLR 32/21 A3005 190 49 2200 070/10 RMK AO2 T03220206
63870K0J4 0J420160825170511108/25/16 17:05:31  5-MIN K0J4 252205Z AUTO 07008KT 10SM FEW050 32/20 A3005 200 49 2200 070/08 RMK AO2 T03170200
63870K0J4 0J420160825171011108/25/16 17:10:31  5-MIN K0J4 252210Z AUTO 07007KT 10SM FEW055 32/21 A3005 200 51 2200 070/07 RMK AO2 T03170206
63870K0J4 0J420160825171511108/25/16 17:15:31  5-MIN K0J4 252215Z AUTO 07006KT 10SM FEW055 32/21 A3005 200 51 2200 070/06 RMK AO2 T03170206
63870K0J4 0J420160825172010808/25/16 17:20:31  5-MIN K0J4 252220Z AUTO 07007KT 10SM CLR 32/21 A3005 200 51 2200 070/07 RMK AO2 T03170206
63870K0J4 0J420160825172510808/25/16 17:25:31  5-MIN K0J4 252225Z AUTO 07007KT 10SM CLR 32/21 A3005 200 51 2200 070/07 RMK AO2 T03170206
63870K0J4 0J420160825173010808/25/16 17:30:31  5-MIN K0J4 252230Z AUTO 07005KT 10SM CLR 31/21 A3004 200 54 2100 070/05 RMK AO2 T03060206
63870K0J4 0J420160825173510808/25/16 17:35:31  5-MIN K0J4 252235Z AUTO 07005KT 10SM CLR 31/21 A3004 200 54 2100 070/05 RMK AO2 T03110211
63870K0J4 0J420160825174010808/25/16 17:40:31  5-MIN K0J4 252240Z AUTO 07005KT 10SM CLR 31/21 A3004 200 54 2100 070/05 RMK AO2 T03110211
63870K0J4 0J420160825174510808/25/16 17:45:31  5-MIN K0J4 252245Z AUTO 08005KT 10SM CLR 31/21 A3004 210 54 2100 080/05 RMK AO2 T03110211
63870K0J4 0J420160825175010808/25/16 17:50:31  5-MIN K0J4 252250Z AUTO 08004KT 10SM CLR 31/21 A3004 210 54 2100 080/04 RMK AO2 T03110211
63870K0J4 0J420160825175511508/25/16 17:55:31  5-MIN K0J4 252255Z AUTO 08005KT 10SM CLR 31/21 A3004 210 54 2100 080/05 RMK AO2 SLP168 T03110211
63870K0J4 0J420160825180010808/25/16 18:00:31  5-MIN K0J4 252300Z AUTO 07005KT 10SM CLR 31/22 A3004 210 56 2100 070/05 RMK AO2 T03110217
63870K0J4 0J420160825180510808/25/16 18:05:31  5-MIN K0J4 252305Z AUTO 08004KT 10SM CLR 31/22 A3004 210 56 2100 080/04 RMK AO2 T03110217
63870K0J4 0J420160825181010808/25/16 18:10:31  5-MIN K0J4 252310Z AUTO 09005KT 10SM CLR 31/21 A3004 210 56 2100 090/05 RMK AO2 T03060211
63870K0J4 0J420160825181510808/25/16 18:15:31  5-MIN K0J4 252315Z AUTO 09004KT 10SM CLR 31/22 A3004 210 58 2100 090/04 RMK AO2 T03060217
63870K0J4 0J420160825182010808/25/16 18:20:31  5-MIN K0J4 252320Z AUTO 09003KT 10SM CLR 30/22 A3004 200 60 2000 090/03 RMK AO2 T03000217
63870K0J4 0J420160825182510808/25/16 18:25:31  5-MIN K0J4 252325Z AUTO 08003KT 10SM CLR 30/22 A3004 200 60 2000 080/03 RMK AO2 T03000217
63870K0J4 0J420160825183010808/25/16 18:30:31  5-MIN K0J4 252330Z AUTO 00000KT 10SM CLR 30/22 A3004 200 60 2000 000/00 RMK AO2 T03000217
63870K0J4 0J420160825183510808/25/16 18:35:31  5-MIN K0J4 252335Z AUTO 08003KT 10SM CLR 30/22 A3004 200 62 2000 080/03 RMK AO2 T03000222
63870K0J4 0J420160825184010808/25/16 18:40:31  5-MIN K0J4 252340Z AUTO 00000KT 10SM CLR 29/22 A3004 200 62 1900 000/00 RMK AO2 T02940217
63870K0J4 0J420160825184510808/25/16 18:45:31  5-MIN K0J4 252345Z AUTO 00000KT 10SM CLR 29/22 A3005 200 62 1900 000/00 RMK AO2 T02940217
63870K0J4 0J420160825185010808/25/16 18:50:31  5-MIN K0J4 252350Z AUTO 00000KT 10SM CLR 29/22 A3005 200 62 1900 000/00 RMK AO2 T02940217
63870K0J4 0J420160825185513308/25/16 18:55:31  5-MIN K0J4 252355Z AUTO 00000KT 10SM CLR 29/22 A3005 200 67 1900 000/00 RMK AO2 SLP171 T02890222 10328 20289 56028
63870K0J4 0J420160825190010808/25/16 19:00:31  5-MIN K0J4 260000Z AUTO 00000KT 10SM CLR 28/23 A3005 190 74 1700 000/00 RMK AO2 T02780228
63870K0J4 0J420160825190510808/25/16 19:05:31  5-MIN K0J4 260005Z AUTO 00000KT 10SM CLR 28/23 A3006 190 74 1700 000/00 RMK AO2 T02780228
63870K0J4 0J420160825191010808/25/16 19:10:31  5-MIN K0J4 260010Z AUTO 00000KT 10SM CLR 28/23 A3006 190 74 1700 000/00 RMK AO2 T02780228
63870K0J4 0J420160825191510808/25/16 19:15:31  5-MIN K0J4 260015Z AUTO 00000KT 10SM CLR 27/23 A3006 190 79 1700 000/00 RMK AO2 T02720233
63870K0J4 0J420160825192010808/25/16 19:20:31  5-MIN K0J4 260020Z AUTO 00000KT 10SM CLR 27/23 A3006 180 82 1600 000/00 RMK AO2 T02670233
63870K0J4 0J420160825192510808/25/16 19:25:31  5-MIN K0J4 260025Z AUTO 00000KT 10SM CLR 27/23 A3006 180 76 1700 000/00 RMK AO2 T02720228
63870K0J4 0J420160825193010808/25/16 19:30:31  5-MIN K0J4 260030Z AUTO 00000KT 10SM CLR 27/23 A3006 180 79 1600 000/00 RMK AO2 T02670228
63870K0J4 0J420160825193510808/25/16 19:35:31  5-MIN K0J4 260035Z AUTO 00000KT 10SM CLR 27/23 A3006 180 79 1600 000/00 RMK AO2 T02670228
63870K0J4 0J420160825194010808/25/16 19:40:31  5-MIN K0J4 260040Z AUTO 00000KT 10SM CLR 27/23 A3007 180 79 1600 000/00 RMK AO2 T02670228
63870K0J4 0J420160825194510808/25/16 19:45:31  5-MIN K0J4 260045Z AUTO 00000KT 10SM CLR 27/23 A3007 180 79 1600 000/00 RMK AO2 T02670228
63870K0J4 0J420160825195010808/25/16 19:50:31  5-MIN K0J4 260050Z AUTO 00000KT 10SM CLR 26/23 A3007 180 84 1500 000/00 RMK AO2 T02610233
63870K0J4 0J420160825195511508/25/16 19:55:31  5-MIN K0J4 260055Z AUTO 00000KT 10SM CLR 26/23 A3007 180 87 1500 000/00 RMK AO2 SLP178 T02560233
63870K0J4 0J420160825200010808/25/16 20:00:31  5-MIN K0J4 260100Z AUTO 00000KT 10SM CLR 26/23 A3007 180 87 1500 000/00 RMK AO2 T02560233
63870K0J4 0J420160825200510808/25/16 20:05:31  5-MIN K0J4 260105Z AUTO 00000KT 10SM CLR 26/23 A3007 170 84 1500 000/00 RMK AO2 T02610233
63870K0J4 0J420160825201010808/25/16 20:10:31  5-MIN K0J4 260110Z AUTO 00000KT 10SM CLR 26/23 A3008 170 87 1500 000/00 RMK AO2 T02560233
63870K0J4 0J420160825201510808/25/16 20:15:31  5-MIN K0J4 260115Z AUTO 00000KT 10SM CLR 26/23 A3008 170 87 1500 000/00 RMK AO2 T02560233
63870K0J4 0J420160825202010808/25/16 20:20:31  5-MIN K0J4 260120Z AUTO 00000KT 10SM CLR 26/23 A3008 170 87 1500 000/00 RMK AO2 T02560233
63870K0J4 0J420160825202510808/25/16 20:25:31  5-MIN K0J4 260125Z AUTO 00000KT 10SM CLR 26/23 A3009 160 84 1500 000/00 RMK AO2 T02560228
63870K0J4 0J420160825203010808/25/16 20:30:31  5-MIN K0J4 260130Z AUTO 00000KT 10SM CLR 26/23 A3009 160 84 1500 000/00 RMK AO2 T02560228
63870K0J4 0J420160825203510808/25/16 20:35:31  5-MIN K0J4 260135Z AUTO 00000KT 10SM CLR 26/23 A3009 160 84 1500 000/00 RMK AO2 T02560228
63870K0J4 0J420160825204010808/25/16 20:40:31  5-MIN K0J4 260140Z AUTO 00000KT 10SM CLR 26/23 A3009 160 84 1500 000/00 RMK AO2 T02560228
63870K0J4 0J420160825204510808/25/16 20:45:31  5-MIN K0J4 260145Z AUTO 00000KT 10SM CLR 26/23 A3009 160 84 1500 000/00 RMK AO2 T02560228
63870K0J4 0J420160825205010808/25/16 20:50:31  5-MIN K0J4 260150Z AUTO 00000KT 10SM CLR 26/23 A3009 160 84 1500 000/00 RMK AO2 T02560228
63870K0J4 0J420160825205511508/25/16 20:55:31  5-MIN K0J4 260155Z AUTO 00000KT 10SM CLR 25/23 A3009 160 87 1400 000/00 RMK AO2 SLP185 T02500228
63870K0J4 0J420160825210010808/25/16 21:00:31  5-MIN K0J4 260200Z AUTO 00000KT 10SM CLR 25/23 A3009 160 87 1400 000/00 RMK AO2 T02500228
63870K0J4 0J420160825210510808/25/16 21:05:31  5-MIN K0J4 260205Z AUTO 00000KT 10SM CLR 25/23 A3009 160 87 1400 000/00 RMK AO2 T02500228
63870K0J4 0J420160825211010808/25/16 21:10:31  5-MIN K0J4 260210Z AUTO 00000KT 10SM CLR 25/23 A3009 160 87 1400 000/00 RMK AO2 T02500228
63870K0J4 0J420160825211510808/25/16 21:15:31  5-MIN K0J4 260215Z AUTO 00000KT 10SM CLR 25/23 A3010 150 87 1400 000/00 RMK AO2 T02500228
63870K0J4 0J420160825212010808/25/16 21:20:31  5-MIN K0J4 260220Z AUTO 00000KT 10SM CLR 25/23 A3010 150 87 1400 000/00 RMK AO2 T02500228
63870K0J4 0J420160825212511108/25/16 21:25:31  5-MIN K0J4 260225Z AUTO 00000KT 10SM FEW065 25/23 A3010 150 87 1400 000/00 RMK AO2 T02500228
63870K0J4 0J420160825213011108/25/16 21:30:31  5-MIN K0J4 260230Z AUTO 00000KT 10SM FEW065 24/23 A3010 150 90 1300 000/00 RMK AO2 T02440228
63870K0J4 0J420160825213511108/25/16 21:35:31  5-MIN K0J4 260235Z AUTO 00000KT 10SM FEW065 25/22 A3010 150 84 1400 000/00 RMK AO2 T02500222
63870K0J4 0J420160825214011108/25/16 21:40:31  5-MIN K0J4 260240Z AUTO 00000KT 10SM FEW065 25/22 A3010 150 84 1400 000/00 RMK AO2 T02500222
63870K0J4 0J420160825214511108/25/16 21:45:31  5-MIN K0J4 260245Z AUTO 00000KT 10SM FEW065 25/22 A3009 160 84 1400 000/00 RMK AO2 T02500222
63870K0J4 0J420160825215011108/25/16 21:50:31  5-MIN K0J4 260250Z AUTO 00000KT 10SM FEW065 24/23 A3009 160 90 1300 000/00 RMK AO2 T02440228
63870K0J4 0J420160825215512408/25/16 21:55:31  5-MIN K0J4 260255Z AUTO 00000KT 10SM SCT065 24/23 A3009 160 90 1300 000/00 RMK AO2 SLP186 T02440228 55003
63870K0J4 0J420160825220011108/25/16 22:00:31  5-MIN K0J4 260300Z AUTO 00000KT 10SM FEW065 24/22 A3009 160 87 1300 000/00 RMK AO2 T02440222
63870K0J4 0J420160825220511108/25/16 22:05:31  5-MIN K0J4 260305Z AUTO 00000KT 10SM FEW060 24/22 A3009 160 87 1300 000/00 RMK AO2 T02440222
63870K0J4 0J420160825221011108/25/16 22:10:31  5-MIN K0J4 260310Z AUTO 00000KT 10SM FEW065 24/22 A3009 160 87 1300 000/00 RMK AO2 T02440222
63870K0J4 0J420160825221511108/25/16 22:15:31  5-MIN K0J4 260315Z AUTO 00000KT 10SM FEW060 24/22 A3009 160 87 1300 000/00 RMK AO2 T02440222
63870K0J4 0J420160825222011108/25/16 22:20:31  5-MIN K0J4 260320Z AUTO 00000KT 10SM FEW060 24/22 A3009 160 87 1300 000/00 RMK AO2 T02440222
63870K0J4 0J420160825222510808/25/16 22:25:31  5-MIN K0J4 260325Z AUTO 00000KT 10SM CLR 24/22 A3009 160 90 1300 000/00 RMK AO2 T02390222
63870K0J4 0J420160825223010808/25/16 22:30:31  5-MIN K0J4 260330Z AUTO 00000KT 10SM CLR 24/22 A3009 160 90 1300 000/00 RMK AO2 T02390222
63870K0J4 0J420160825223510808/25/16 22:35:31  5-MIN K0J4 260335Z AUTO 00000KT 10SM CLR 24/22 A3009 160 87 1300 000/00 RMK AO2 T02390217
63870K0J4 0J420160825224010808/25/16 22:40:31  5-MIN K0J4 260340Z AUTO 00000KT 10SM CLR 24/22 A3009 160 87 1300 000/00 RMK AO2 T02390217
63870K0J4 0J420160825224510808/25/16 22:45:31  5-MIN K0J4 260345Z AUTO 00000KT 10SM CLR 24/22 A3009 160 87 1300 000/00 RMK AO2 T02390217
63870K0J4 0J420160825225010808/25/16 22:50:31  5-MIN K0J4 260350Z AUTO 00000KT 10SM CLR 24/22 A3009 160 87 1300 000/00 RMK AO2 T02390217
63870K0J4 0J420160825225511508/25/16 22:55:31  5-MIN K0J4 260355Z AUTO 00000KT 10SM CLR 24/22 A3009 160 87 1300 000/00 RMK AO2 SLP185 T02390217
63870K0J4 0J420160825230010808/25/16 23:00:31  5-MIN K0J4 260400Z AUTO 00000KT 10SM CLR 24/22 A3009 160 87 1300 000/00 RMK AO2 T02390217
63870K0J4 0J420160825230510808/25/16 23:05:31  5-MIN K0J4 260405Z AUTO 00000KT 10SM CLR 23/22 A3009 160 90 1200 000/00 RMK AO2 T02330217
63870K0J4 0J420160825231012408/25/16 23:10:31  5-MIN K0J4 260410Z AUTO 00000KT 10SM -RA CLR 23/22 A3009 160 90 1200 000/00 RMK AO2 RAB06 P0000 T02330217
63870K0J4 0J420160825231512308/25/16 23:15:31  5-MIN K0J4 260415Z AUTO 00000KT 10SM CLR 23/22 A3010 150 90 1200 000/00 RMK AO2 RAB06E15 P0000 T02330217
63870K0J4 0J420160825232012308/25/16 23:20:31  5-MIN K0J4 260420Z AUTO 00000KT 10SM CLR 23/22 A3010 150 90 1200 000/00 RMK AO2 RAB06E15 P0000 T02330217
63870K0J4 0J420160825232512308/25/16 23:25:31  5-MIN K0J4 260425Z AUTO 00000KT 10SM CLR 23/21 A3010 150 87 1200 000/00 RMK AO2 RAB06E15 P0000 T02330211
63870K0J4 0J420160825233012308/25/16 23:30:31  5-MIN K0J4 260430Z AUTO 00000KT 10SM CLR 23/22 A3010 150 90 1200 000/00 RMK AO2 RAB06E15 P0000 T02330217
63870K0J4 0J420160825233512308/25/16 23:35:31  5-MIN K0J4 260435Z AUTO 00000KT 10SM CLR 23/22 A3010 150 90 1200 000/00 RMK AO2 RAB06E15 P0000 T02330217
63870K0J4 0J420160825234012308/25/16 23:40:31  5-MIN K0J4 260440Z AUTO 00000KT 10SM CLR 23/21 A3010 150 90 1100 000/00 RMK AO2 RAB06E15 P0000 T02280211
63870K0J4 0J420160825234512308/25/16 23:45:31  5-MIN K0J4 260445Z AUTO 00000KT 10SM CLR 23/21 A3010 150 90 1100 000/00 RMK AO2 RAB06E15 P0000 T02280211
63870K0J4 0J420160825235012308/25/16 23:50:31  5-MIN K0J4 260450Z AUTO 00000KT 10SM CLR 23/21 A3010 150 90 1100 000/00 RMK AO2 RAB06E15 P0000 T02280211
63870K0J4 0J420160825235514008/25/16 23:55:31  5-MIN K0J4 260455Z AUTO 00000KT 10SM CLR 23/21 A3010 150 90 1100 000/00 RMK AO2 RAB06E15 SLP189 P0000 T02280211 403280228
63870K0J4 0J420160826000010808/26/16 00:00:31  5-MIN K0J4 260500Z AUTO 00000KT 10SM CLR 23/22 A3010 150 90 1200 000/00 RMK AO2 T02330217
63870K0J4 0J420160826000510808/26/16 00:05:31  5-MIN K0J4 260505Z AUTO 00000KT 10SM CLR 23/22 A3010 150 93 1100 000/00 RMK AO2 T02280217
63870K0J4 0J420160826001010808/26/16 00:10:31  5-MIN K0J4 260510Z AUTO 00000KT 10SM CLR 23/21 A3010 150 90 1100 000/00 RMK AO2 T02280211
63870K0J4 0J420160826001510808/26/16 00:15:31  5-MIN K0J4 260515Z AUTO 01004KT 10SM CLR 23/21 A3010 150 90 1100 010/04 RMK AO2 T02280211
63870K0J4 0J420160826002010808/26/16 00:20:31  5-MIN K0J4 260520Z AUTO 02004KT 10SM CLR 23/21 A3010 150 90 1100 020/04 RMK AO2 T02280211
63870K0J4 0J420160826002510808/26/16 00:25:31  5-MIN K0J4 260525Z AUTO 02003KT 10SM CLR 23/22 A3010 150 90 1200 020/03 RMK AO2 T02330217
63870K0J4 0J420160826003010808/26/16 00:30:31  5-MIN K0J4 260530Z AUTO 00000KT 10SM CLR 23/22 A3010 150 90 1200 000/00 RMK AO2 T02330217
63870K0J4 0J420160826003510808/26/16 00:35:31  5-MIN K0J4 260535Z AUTO 00000KT 10SM CLR 23/22 A3010 150 90 1200 000/00 RMK AO2 T02330217
63870K0J4 0J420160826004010808/26/16 00:40:31  5-MIN K0J4 260540Z AUTO 00000KT 10SM CLR 23/22 A3010 150 90 1200 000/00 RMK AO2 T02330217
63870K0J4 0J420160826004510808/26/16 00:45:31  5-MIN K0J4 260545Z AUTO 00000KT 10SM CLR 23/21 A3010 150 90 1100 000/00 RMK AO2 T02280211
63870K0J4 0J420160826005010708/26/16 00:50:31  5-MIN K0J4 260550Z AUTO 04003KT 9SM CLR 23/21 A3009 160 90 1100 040/03 RMK AO2 T02280211
63870K0J4 0J420160826005513908/26/16 00:55:31  5-MIN K0J4 260555Z AUTO 00000KT 10SM CLR 23/21 A3009 160 90 1100 000/00 RMK AO2 SLP186 60000 T02280211 10278 20228 51014
63870K0J4 0J420160826010010808/26/16 01:00:31  5-MIN K0J4 260600Z AUTO 03003KT 10SM CLR 23/21 A3009 160 90 1100 030/03 RMK AO2 T02280211
63870K0J4 0J420160826010510808/26/16 01:05:31  5-MIN K0J4 260605Z AUTO 03003KT 10SM CLR 23/21 A3009 160 90 1100 030/03 RMK AO2 T02280211
63870K0J4 0J420160826011010808/26/16 01:10:31  5-MIN K0J4 260610Z AUTO 04003KT 10SM CLR 23/21 A3009 160 90 1100 040/03 RMK AO2 T02280211
63870K0J4 0J420160826011510808/26/16 01:15:31  5-MIN K0J4 260615Z AUTO 04003KT 10SM CLR 23/21 A3009 160 87 1200 040/03 RMK AO2 T02330211
63870K0J4 0J420160826012010808/26/16 01:20:31  5-MIN K0J4 260620Z AUTO 03003KT 10SM CLR 23/21 A3009 160 87 1200 030/03 RMK AO2 T02330211
63870K0J4 0J420160826012510808/26/16 01:25:31  5-MIN K0J4 260625Z AUTO 04003KT 10SM CLR 23/21 A3008 160 90 1100 040/03 RMK AO2 T02280211
63870K0J4 0J420160826013010808/26/16 01:30:31  5-MIN K0J4 260630Z AUTO 00000KT 10SM CLR 22/21 A3008 160 90 1100 000/00 RMK AO2 T02220206
63870K0J4 0J420160826013510808/26/16 01:35:31  5-MIN K0J4 260635Z AUTO 00000KT 10SM CLR 23/21 A3008 160 87 1100 000/00 RMK AO2 T02280206
63870K0J4 0J420160826014010808/26/16 01:40:31  5-MIN K0J4 260640Z AUTO 00000KT 10SM CLR 23/21 A3009 160 87 1100 000/00 RMK AO2 T02280206
63870K0J4 0J420160826014510808/26/16 01:45:31  5-MIN K0J4 260645Z AUTO 00000KT 10SM CLR 23/21 A3009 160 87 1100 000/00 RMK AO2 T02280206
63870K0J4 0J420160826015010808/26/16 01:50:31  5-MIN K0J4 260650Z AUTO 00000KT 10SM CLR 23/21 A3009 160 84 1200 000/00 RMK AO2 T02330206
63870K0J4 0J420160826015511508/26/16 01:55:31  5-MIN K0J4 260655Z AUTO 00000KT 10SM CLR 23/21 A3009 160 84 1200 000/00 RMK AO2 SLP184 T02330206
63870K0J4 0J420160826020010808/26/16 02:00:31  5-MIN K0J4 260700Z AUTO 00000KT 10SM CLR 22/20 A3009 160 87 1100 000/00 RMK AO2 T02220200
63870K0J4 0J420160826020510808/26/16 02:05:31  5-MIN K0J4 260705Z AUTO 00000KT 10SM CLR 22/20 A3009 160 90 1000 000/00 RMK AO2 T02170200
63870K0J4 0J420160826021010808/26/16 02:10:31  5-MIN K0J4 260710Z AUTO 00000KT 10SM CLR 22/20 A3009 160 90 1000 000/00 RMK AO2 T02170200
63870K0J4 0J420160826021510808/26/16 02:15:31  5-MIN K0J4 260715Z AUTO 00000KT 10SM CLR 22/21 A3009 160 90 1100 000/00 RMK AO2 T02220206
63870K0J4 0J420160826022010808/26/16 02:20:31  5-MIN K0J4 260720Z AUTO 00000KT 10SM CLR 22/21 A3008 160 90 1100 000/00 RMK AO2 T02220206
63870K0J4 0J420160826022510808/26/16 02:25:31  5-MIN K0J4 260725Z AUTO 00000KT 10SM CLR 22/21 A3008 170 90 1100 000/00 RMK AO2 T02220206
63870K0J4 0J420160826023012408/26/16 02:30:31  5-MIN K0J4 260730Z AUTO 00000KT 10SM -RA CLR 22/21 A3008 170 90 1100 000/00 RMK AO2 RAB30 P0000 T02220206
63870K0J4 0J420160826023512408/26/16 02:35:31  5-MIN K0J4 260735Z AUTO 00000KT 10SM -RA CLR 22/21 A3008 170 90 1100 000/00 RMK AO2 RAB30 P0000 T02220206
63870K0J4 0J420160826024012408/26/16 02:40:31  5-MIN K0J4 260740Z AUTO 00000KT 10SM -RA CLR 22/21 A3007 170 93 1000 000/00 RMK AO2 RAB30 P0000 T02170206
63870K0J4 0J420160826024512308/26/16 02:45:31  5-MIN K0J4 260745Z AUTO 00000KT 10SM CLR 22/20 A3007 180 90 1000 000/00 RMK AO2 RAB30E44 P0000 T02170200
63870K0J4 0J420160826025012308/26/16 02:50:31  5-MIN K0J4 260750Z AUTO 00000KT 10SM CLR 22/20 A3007 180 90 1000 000/00 RMK AO2 RAB30E44 P0000 T02170200
63870K0J4 0J420160826025513008/26/16 02:55:31  5-MIN K0J4 260755Z AUTO 00000KT 10SM CLR 22/20 A3007 180 90 1000 000/00 RMK AO2 RAB30E44 SLP178 P0000 T02170200
63870K0J4 0J420160826030010808/26/16 03:00:31  5-MIN K0J4 260800Z AUTO 00000KT 10SM CLR 22/21 A3007 180 90 1100 000/00 RMK AO2 T02220206
63870K0J4 0J420160826030510808/26/16 03:05:31  5-MIN K0J4 260805Z AUTO 00000KT 10SM CLR 22/20 A3007 180 87 1100 000/00 RMK AO2 T02220200
63870K0J4 0J420160826031010808/26/16 03:10:31  5-MIN K0J4 260810Z AUTO 00000KT 10SM CLR 22/21 A3007 180 90 1100 000/00 RMK AO2 T02220206
63870K0J4 0J420160826031510808/26/16 03:15:31  5-MIN K0J4 260815Z AUTO 00000KT 10SM CLR 22/21 A3007 180 90 1100 000/00 RMK AO2 T02220206
63870K0J4 0J420160826032010808/26/16 03:20:31  5-MIN K0J4 260820Z AUTO 00000KT 10SM CLR 22/20 A3007 180 90 1000 000/00 RMK AO2 T02170200
63870K0J4 0J420160826032510808/26/16 03:25:31  5-MIN K0J4 260825Z AUTO 00000KT 10SM CLR 22/20 A3007 180 87 1100 000/00 RMK AO2 T02220200
63870K0J4 0J420160826033010808/26/16 03:30:31  5-MIN K0J4 260830Z AUTO 00000KT 10SM CLR 22/21 A3007 180 90 1100 000/00 RMK AO2 T02220206
63870K0J4 0J420160826033510808/26/16 03:35:31  5-MIN K0J4 260835Z AUTO 06003KT 10SM CLR 22/20 A3006 180 87 1100 060/03 RMK AO2 T02220200
63870K0J4 0J420160826034010808/26/16 03:40:31  5-MIN K0J4 260840Z AUTO 06003KT 10SM CLR 22/20 A3006 180 87 1100 060/03 RMK AO2 T02220200
63870K0J4 0J420160826034510808/26/16 03:45:31  5-MIN K0J4 260845Z AUTO 07004KT 10SM CLR 22/20 A3006 180 87 1100 070/04 RMK AO2 T02220200
63870K0J4 0J420160826035010808/26/16 03:50:31  5-MIN K0J4 260850Z AUTO 08003KT 10SM CLR 22/21 A3006 180 90 1100 080/03 RMK AO2 T02220206
63870K0J4 0J420160826035512708/26/16 03:55:31  5-MIN K0J4 260855Z AUTO 09003KT 10SM CLR 23/21 A3007 180 87 1200 090/03 RMK AO2 SLP177 60000 T02280206 50000
63870K0J4 0J420160826040010808/26/16 04:00:31  5-MIN K0J4 260900Z AUTO 09004KT 10SM CLR 23/21 A3007 180 87 1200 090/04 RMK AO2 T02280206
63870K0J4 0J420160826040510808/26/16 04:05:31  5-MIN K0J4 260905Z AUTO 08004KT 10SM CLR 23/20 A3007 180 84 1200 080/04 RMK AO2 T02280200
63870K0J4 0J420160826041010808/26/16 04:10:31  5-MIN K0J4 260910Z AUTO 07004KT 10SM CLR 23/20 A3007 180 84 1200 070/04 RMK AO2 T02280200
63870K0J4 0J420160826041510808/26/16 04:15:31  5-MIN K0J4 260915Z AUTO 06004KT 10SM CLR 23/21 A3006 180 87 1200 060/04 RMK AO2 T02280206
63870K0J4 0J420160826042010808/26/16 04:20:31  5-MIN K0J4 260920Z AUTO 07004KT 10SM CLR 23/21 A3007 180 87 1200 070/04 RMK AO2 T02280206
63870K0J4 0J420160826042510808/26/16 04:25:31  5-MIN K0J4 260925Z AUTO 06003KT 10SM CLR 22/21 A3007 180 90 1100 060/03 RMK AO2 T02220206
63870K0J4 0J420160826043010808/26/16 04:30:31  5-MIN K0J4 260930Z AUTO 06004KT 10SM CLR 22/21 A3006 180 90 1100 060/04 RMK AO2 T02220206
63870K0J4 0J420160826043510808/26/16 04:35:31  5-MIN K0J4 260935Z AUTO 06003KT 10SM CLR 22/21 A3006 180 90 1100 060/03 RMK AO2 T02220206
63870K0J4 0J420160826044010808/26/16 04:40:31  5-MIN K0J4 260940Z AUTO 00000KT 10SM CLR 22/20 A3007 180 87 1100 000/00 RMK AO2 T02220200
63870K0J4 0J420160826044510808/26/16 04:45:31  5-MIN K0J4 260945Z AUTO 04003KT 10SM CLR 22/20 A3007 180 87 1100 040/03 RMK AO2 T02220200
63870K0J4 0J420160826045010808/26/16 04:50:31  5-MIN K0J4 260950Z AUTO 03003KT 10SM CLR 22/20 A3007 180 87 1100 030/03 RMK AO2 T02220200
63870K0J4 0J420160826045511508/26/16 04:55:31  5-MIN K0J4 260955Z AUTO 04003KT 10SM CLR 22/20 A3007 180 87 1100 040/03 RMK AO2 SLP177 T02220200
63870K0J4 0J420160826050010808/26/16 05:00:31  5-MIN K0J4 261000Z AUTO 03003KT 10SM CLR 22/20 A3007 180 87 1100 030/03 RMK AO2 T02220200
63870K0J4 0J420160826050510808/26/16 05:05:31  5-MIN K0J4 261005Z AUTO 03003KT 10SM CLR 22/20 A3006 180 87 1100 030/03 RMK AO2 T02220200
63870K0J4 0J420160826051010808/26/16 05:10:31  5-MIN K0J4 261010Z AUTO 04003KT 10SM CLR 22/19 A3006 180 84 1100 040/03 RMK AO2 T02220194
63870K0J4 0J420160826051510808/26/16 05:15:31  5-MIN K0J4 261015Z AUTO 02003KT 10SM CLR 22/19 A3007 180 84 1100 020/03 RMK AO2 T02220194
63870K0J4 0J420160826052010808/26/16 05:20:31  5-MIN K0J4 261020Z AUTO 00000KT 10SM CLR 22/19 A3006 180 84 1100 000/00 RMK AO2 T02220194
63870K0J4 0J420160826052510808/26/16 05:25:31  5-MIN K0J4 261025Z AUTO 00000KT 10SM CLR 22/19 A3006 180 84 1100 000/00 RMK AO2 T02220194
63870K0J4 0J420160826053010808/26/16 05:30:31  5-MIN K0J4 261030Z AUTO 00000KT 10SM CLR 22/19 A3007 180 84 1100 000/00 RMK AO2 T02220194
63870K0J4 0J420160826053510808/26/16 05:35:31  5-MIN K0J4 261035Z AUTO 00000KT 10SM CLR 22/19 A3007 180 84 1100 000/00 RMK AO2 T02220194
63870K0J4 0J420160826054010808/26/16 05:40:31  5-MIN K0J4 261040Z AUTO 00000KT 10SM CLR 22/19 A3007 180 84 1100 000/00 RMK AO2 T02220194
63870K0J4 0J420160826054510808/26/16 05:45:31  5-MIN K0J4 261045Z AUTO 00000KT 10SM CLR 22/19 A3007 180 87 1000 000/00 RMK AO2 T02170194
63870K0J4 0J420160826055010808/26/16 05:50:31  5-MIN K0J4 261050Z AUTO 00000KT 10SM CLR 22/19 A3007 180 87 1000 000/00 RMK AO2 T02170194
63870K0J4 0J420160826055511508/26/16 05:55:31  5-MIN K0J4 261055Z AUTO 00000KT 10SM CLR 21/19 A3007 180 90 1000 000/00 RMK AO2 SLP178 T02110194
63870K0J4 0J420160826060010808/26/16 06:00:31  5-MIN K0J4 261100Z AUTO 00000KT 10SM CLR 21/19 A3007 180 90 1000 000/00 RMK AO2 T02110194
63870K0J4 0J420160826060510808/26/16 06:05:31  5-MIN K0J4 261105Z AUTO 07003KT 10SM CLR 22/19 A3007 180 87 1000 070/03 RMK AO2 T02170194
63870K0J4 0J420160826061010808/26/16 06:10:31  5-MIN K0J4 261110Z AUTO 08003KT 10SM CLR 22/19 A3007 180 87 1000 080/03 RMK AO2 T02170194
63870K0J4 0J420160826061510808/26/16 06:15:31  5-MIN K0J4 261115Z AUTO 08003KT 10SM CLR 22/19 A3007 180 87 1000 080/03 RMK AO2 T02170194
63870K0J4 0J420160826062010808/26/16 06:20:31  5-MIN K0J4 261120Z AUTO 10003KT 10SM CLR 22/19 A3007 180 84 1100 100/03 RMK AO2 T02220194
63870K0J4 0J420160826062510808/26/16 06:25:31  5-MIN K0J4 261125Z AUTO 09003KT 10SM CLR 22/19 A3007 170 84 1100 090/03 RMK AO2 T02220194
63870K0J4 0J420160826063010808/26/16 06:30:31  5-MIN K0J4 261130Z AUTO 08004KT 10SM CLR 22/19 A3008 170 87 1000 080/04 RMK AO2 T02170194
63870K0J4 0J420160826063510808/26/16 06:35:31  5-MIN K0J4 261135Z AUTO 07003KT 10SM CLR 22/19 A3008 170 87 1000 070/03 RMK AO2 T02170194
63870K0J4 0J420160826064010808/26/16 06:40:31  5-MIN K0J4 261140Z AUTO 06003KT 10SM CLR 22/19 A3008 170 87 1000 060/03 RMK AO2 T02170194
63870K0J4 0J420160826064510808/26/16 06:45:31  5-MIN K0J4 261145Z AUTO 08003KT 10SM CLR 22/19 A3008 170 84 1100 080/03 RMK AO2 T02220194
63870K0J4 0J420160826065010808/26/16 06:50:31  5-MIN K0J4 261150Z AUTO 00000KT 10SM CLR 22/19 A3008 170 84 1100 000/00 RMK AO2 T02220194
63870K0J4 0J420160826065513908/26/16 06:55:31  5-MIN K0J4 261155Z AUTO 00000KT 10SM CLR 22/20 A3008 170 87 1100 000/00 RMK AO2 SLP182 60000 T02220200 10233 20211 56008
63870K0J4 0J420160826070010808/26/16 07:00:31  5-MIN K0J4 261200Z AUTO 00000KT 10SM CLR 23/20 A3008 170 84 1200 000/00 RMK AO2 T02280200
63870K0J4 0J420160826070510808/26/16 07:05:31  5-MIN K0J4 261205Z AUTO 07003KT 10SM CLR 23/20 A3008 170 84 1100 070/03 RMK AO2 T02280200
63870K0J4 0J420160826071010808/26/16 07:10:31  5-MIN K0J4 261210Z AUTO 07005KT 10SM CLR 23/20 A3008 170 84 1100 070/05 RMK AO2 T02280200
63870K0J4 0J420160826071510808/26/16 07:15:31  5-MIN K0J4 261215Z AUTO 08005KT 10SM CLR 23/20 A3009 160 84 1100 080/05 RMK AO2 T02280200
63870K0J4 0J420160826072010808/26/16 07:20:31  5-MIN K0J4 261220Z AUTO 08006KT 10SM CLR 23/20 A3009 160 81 1200 080/06 RMK AO2 T02330200
63870K0J4 0J420160826072510808/26/16 07:25:31  5-MIN K0J4 261225Z AUTO 07005KT 10SM CLR 23/20 A3008 170 81 1200 070/05 RMK AO2 T02330200
63870K0J4 0J420160826073010808/26/16 07:30:31  5-MIN K0J4 261230Z AUTO 07006KT 10SM CLR 23/20 A3008 160 81 1200 070/06 RMK AO2 T02330200
63870K0J4 0J420160826073510808/26/16 07:35:31  5-MIN K0J4 261235Z AUTO 07005KT 10SM CLR 23/20 A3009 160 81 1200 070/05 RMK AO2 T02330200
63870K0J4 0J420160826074010808/26/16 07:40:31  5-MIN K0J4 261240Z AUTO 07004KT 10SM CLR 24/21 A3009 160 81 1300 070/04 RMK AO2 T02390206
63870K0J4 0J420160826074510808/26/16 07:45:31  5-MIN K0J4 261245Z AUTO 08004KT 10SM CLR 24/21 A3009 160 81 1300 080/04 RMK AO2 T02390206
63870K0J4 0J420160826075010808/26/16 07:50:31  5-MIN K0J4 261250Z AUTO 08004KT 10SM CLR 24/21 A3009 160 78 1300 080/04 RMK AO2 T02440206
63870K0J4 0J420160826075511508/26/16 07:55:31  5-MIN K0J4 261255Z AUTO 08004KT 10SM CLR 24/21 A3008 160 78 1300 080/04 RMK AO2 SLP183 T02440206
63870K0J4 0J420160826080010808/26/16 08:00:31  5-MIN K0J4 261300Z AUTO 08004KT 10SM CLR 24/21 A3009 160 78 1300 080/04 RMK AO2 T02440206
63870K0J4 0J420160826080510808/26/16 08:05:31  5-MIN K0J4 261305Z AUTO 07006KT 10SM CLR 25/21 A3009 160 79 1400 070/06 RMK AO2 T02500211
63870K0J4 0J420160826081010808/26/16 08:10:31  5-MIN K0J4 261310Z AUTO 08004KT 10SM CLR 25/21 A3009 160 79 1400 080/04 RMK AO2 T02500211
63870K0J4 0J420160826081510808/26/16 08:15:31  5-MIN K0J4 261315Z AUTO 08005KT 10SM CLR 26/21 A3009 160 76 1500 080/05 RMK AO2 T02560211
63870K0J4 0J420160826082010808/26/16 08:20:31  5-MIN K0J4 261320Z AUTO 09006KT 10SM CLR 25/21 A3009 160 79 1400 090/06 RMK AO2 T02500211
63870K0J4 0J420160826082510808/26/16 08:25:31  5-MIN K0J4 261325Z AUTO 08005KT 10SM CLR 26/21 A3009 160 73 1500 080/05 RMK AO2 T02610211
63870K0J4 0J420160826083010808/26/16 08:30:31  5-MIN K0J4 261330Z AUTO 10005KT 10SM CLR 26/22 A3009 160 76 1500 100/05 RMK AO2 T02610217
63870K0J4 0J420160826083510808/26/16 08:35:31  5-MIN K0J4 261335Z AUTO 08006KT 10SM CLR 26/21 A3009 160 73 1500 080/06 RMK AO2 T02610211
63870K0J4 0J420160826084010808/26/16 08:40:31  5-MIN K0J4 261340Z AUTO 11004KT 10SM CLR 27/22 A3009 160 73 1600 110/04 RMK AO2 T02670217
63870K0J4 0J420160826084510808/26/16 08:45:31  5-MIN K0J4 261345Z AUTO 13005KT 10SM CLR 26/22 A3010 150 76 1500 130/05 RMK AO2 T02610217
63870K0J4 0J420160826085010808/26/16 08:50:31  5-MIN K0J4 261350Z AUTO VRB05KT 10SM CLR 26/21 A3010 150 73 1500 VRB/05 RMK AO2 T02610211
63870K0J4 0J420160826085511508/26/16 08:55:31  5-MIN K0J4 261355Z AUTO 13004KT 10SM CLR 27/22 A3010 150 73 1600 130/04 RMK AO2 SLP187 T02670217
63870K0J4 0J420160826090010808/26/16 09:00:31  5-MIN K0J4 261400Z AUTO 09005KT 10SM CLR 27/21 A3010 150 71 1600 090/05 RMK AO2 T02670211
63870K0J4 0J420160826090510808/26/16 09:05:31  5-MIN K0J4 261405Z AUTO 13004KT 10SM CLR 27/21 A3010 150 71 1600 130/04 RMK AO2 T02670211
63870K0J4 0J420160826091010808/26/16 09:10:31  5-MIN K0J4 261410Z AUTO VRB05KT 10SM CLR 27/21 A3010 150 69 1600 VRB/05 RMK AO2 T02720211
63870K0J4 0J420160826091510808/26/16 09:15:31  5-MIN K0J4 261415Z AUTO 09005KT 10SM CLR 27/21 A3010 150 69 1600 090/05 RMK AO2 T02720211
63870K0J4 0J420160826092010808/26/16 09:20:31  5-MIN K0J4 261420Z AUTO VRB04KT 10SM CLR 28/22 A3010 150 69 1700 VRB/04 RMK AO2 T02780217
63870K0J4 0J420160826092510808/26/16 09:25:31  5-MIN K0J4 261425Z AUTO 12004KT 10SM CLR 28/21 A3010 150 66 1700 120/04 RMK AO2 T02780211
63870K0J4 0J420160826093010808/26/16 09:30:31  5-MIN K0J4 261430Z AUTO 10005KT 10SM CLR 28/21 A3010 150 66 1700 100/05 RMK AO2 T02780211
63870K0J4 0J420160826093510808/26/16 09:35:31  5-MIN K0J4 261435Z AUTO 11006KT 10SM CLR 28/22 A3010 150 66 1800 110/06 RMK AO2 T02830217
63870K0J4 0J420160826094010808/26/16 09:40:31  5-MIN K0J4 261440Z AUTO VRB05KT 10SM CLR 28/21 A3010 150 64 1800 VRB/05 RMK AO2 T02830211
63870K0J4 0J420160826094510808/26/16 09:45:31  5-MIN K0J4 261445Z AUTO 13004KT 10SM CLR 28/21 A3010 150 64 1800 130/04 RMK AO2 T02830211
63870K0J4 0J420160826095010808/26/16 09:50:31  5-MIN K0J4 261450Z AUTO VRB04KT 10SM CLR 28/21 A3011 140 62 1800 VRB/04 RMK AO2 T02830206
63870K0J4 0J420160826095512108/26/16 09:55:31  5-MIN K0J4 261455Z AUTO VRB03KT 10SM CLR 29/21 A3011 140 62 1800 VRB/03 RMK AO2 SLP190 T02890211 53004
63870K0J4 0J420160826100010808/26/16 10:00:31  5-MIN K0J4 261500Z AUTO VRB03KT 10SM CLR 29/21 A3011 140 60 1800 VRB/03 RMK AO2 T02890206
63870K0J4 0J420160826100510808/26/16 10:05:31  5-MIN K0J4 261505Z AUTO 06006KT 10SM CLR 29/21 A3011 140 62 1800 060/06 RMK AO2 T02890211
63870K0J4 0J420160826101010808/26/16 10:10:31  5-MIN K0J4 261510Z AUTO 10006KT 10SM CLR 29/21 A3011 140 60 1900 100/06 RMK AO2 T02940211
63870K0J4 0J420160826101510808/26/16 10:15:31  5-MIN K0J4 261515Z AUTO 07007KT 10SM CLR 29/21 A3011 140 60 1900 070/07 RMK AO2 T02940211
63870K0J4 0J420160826102010808/26/16 10:20:31  5-MIN K0J4 261520Z AUTO VRB04KT 10SM CLR 29/21 A3011 140 58 1900 VRB/04 RMK AO2 T02940206
63870K0J4 0J420160826102510808/26/16 10:25:31  5-MIN K0J4 261525Z AUTO VRB04KT 10SM CLR 30/21 A3011 140 56 1900 VRB/04 RMK AO2 T03000206
63870K0J4 0J420160826103010808/26/16 10:30:31  5-MIN K0J4 261530Z AUTO VRB04KT 10SM CLR 30/21 A3011 140 56 1900 VRB/04 RMK AO2 T03000206
63870K0J4 0J420160826103510808/26/16 10:35:31  5-MIN K0J4 261535Z AUTO VRB06KT 10SM CLR 31/21 A3011 140 54 2000 VRB/06 RMK AO2 T03060206
63870K0J4 0J420160826104010808/26/16 10:40:31  5-MIN K0J4 261540Z AUTO VRB06KT 10SM CLR 30/20 A3011 140 54 1900 VRB/06 RMK AO2 T03000200
63870K0J4 0J420160826104510808/26/16 10:45:31  5-MIN K0J4 261545Z AUTO 10005KT 10SM CLR 31/21 A3011 140 54 2000 100/05 RMK AO2 T03060206
63870K0J4 0J420160826105010808/26/16 10:50:31  5-MIN K0J4 261550Z AUTO 08007KT 10SM CLR 31/21 A3011 150 56 2000 080/07 RMK AO2 T03060211
63870K0J4 0J420160826105511508/26/16 10:55:31  5-MIN K0J4 261555Z AUTO 08007KT 10SM CLR 31/21 A3011 150 54 2000 080/07 RMK AO2 SLP190 T03060206
63870K0J4 0J420160826110010808/26/16 11:00:31  5-MIN K0J4 261600Z AUTO 07006KT 10SM CLR 31/21 A3010 150 53 2100 070/06 RMK AO2 T03110206
63870K0J4 0J420160826110510808/26/16 11:05:31  5-MIN K0J4 261605Z AUTO 07009KT 10SM CLR 31/21 A3010 150 53 2100 070/09 RMK AO2 T03110206
63870K0J4 0J420160826111010808/26/16 11:10:31  5-MIN K0J4 261610Z AUTO 07008KT 10SM CLR 31/20 A3010 150 52 2000 070/08 RMK AO2 T03060200
63870K0J4 0J420160826111510808/26/16 11:15:31  5-MIN K0J4 261615Z AUTO 10007KT 10SM CLR 31/21 A3010 150 53 2100 100/07 RMK AO2 T03110206
63870K0J4 0J420160826112010808/26/16 11:20:31  5-MIN K0J4 261620Z AUTO 09005KT 10SM CLR 31/20 A3010 150 52 2000 090/05 RMK AO2 T03060200
63870K0J4 0J420160826112511108/26/16 11:25:31  5-MIN K0J4 261625Z AUTO 09007KT 10SM FEW039 32/21 A3009 160 51 2100 090/07 RMK AO2 T03170206
63870K0J4 0J420160826113011108/26/16 11:30:31  5-MIN K0J4 261630Z AUTO 07008KT 10SM FEW039 32/21 A3009 160 51 2100 070/08 RMK AO2 T03170206
63870K0J4 0J420160826113511108/26/16 11:35:31  5-MIN K0J4 261635Z AUTO 06010KT 10SM SCT039 32/21 A3009 160 53 2100 060/10 RMK AO2 T03170211
63870K0J4 0J420160826114011108/26/16 11:40:31  5-MIN K0J4 261640Z AUTO 09007KT 10SM FEW039 31/21 A3009 160 53 2100 090/07 RMK AO2 T03110206
63870K0J4 0J420160826114511108/26/16 11:45:31  5-MIN K0J4 261645Z AUTO 11007KT 10SM FEW039 31/20 A3009 160 51 2100 110/07 RMK AO2 T03110200
63870K0J4 0J420160826115012708/26/16 11:50:31  5-MIN K0J4 261650Z AUTO 08008KT 040V110 10SM SCT039 31/20 A3009 160 52 2000 080/08 040V110 RMK AO2 T03060200
63870K0J4 0J420160826115512408/26/16 11:55:31  5-MIN K0J4 261655Z AUTO 06010G14KT 10SM FEW040 32/21 A3009 160 51 2100 060/10G14 RMK AO2 SLP183 T03170206
63870K0J4 0J420160826120011108/26/16 12:00:31  5-MIN K0J4 261700Z AUTO 11009KT 10SM FEW040 31/20 A3008 170 51 2100 110/09 RMK AO2 T03110200
63870K0J4 0J420160826120510808/26/16 12:05:31  5-MIN K0J4 261705Z AUTO 08009KT 10SM CLR 32/20 A3008 170 49 2100 080/09 RMK AO2 T03170200
63870K0J4 0J420160826121010808/26/16 12:10:31  5-MIN K0J4 261710Z AUTO 10009KT 10SM CLR 31/19 A3008 170 49 2100 100/09 RMK AO2 T03110194
63870K0J4 0J420160826121510808/26/16 12:15:31  5-MIN K0J4 261715Z AUTO 10007KT 10SM CLR 31/19 A3008 170 49 2100 100/07 RMK AO2 T03110194
63870K0J4 0J420160826122012408/26/16 12:20:31  5-MIN K0J4 261720Z AUTO 08007KT 050V110 10SM CLR 32/20 A3008 170 49 2200 080/07 050V110 RMK AO2 T03170200
63870K0J4 0J420160826122510808/26/16 12:25:31  5-MIN K0J4 261725Z AUTO 07008KT 10SM CLR 32/19 A3008 170 46 2200 070/08 RMK AO2 T03220194
63870K0J4 0J420160826123010808/26/16 12:30:31  5-MIN K0J4 261730Z AUTO 07007KT 10SM CLR 32/19 A3008 170 47 2200 070/07 RMK AO2 T03170194
63870K0J4 0J420160826123510808/26/16 12:35:31  5-MIN K0J4 261735Z AUTO 07010KT 10SM CLR 32/19 A3008 170 46 2200 070/10 RMK AO2 T03220194
63870K0J4 0J420160826124010808/26/16 12:40:31  5-MIN K0J4 261740Z AUTO 09005KT 10SM CLR 32/19 A3007 170 47 2200 090/05 RMK AO2 T03170194
63870K0J4 0J420160826124511708/26/16 12:45:31  5-MIN K0J4 261745Z AUTO 08009G14KT 10SM FEW049 32/18 A3008 170 43 2200 080/09G14 RMK AO2 T03220183
63870K0J4 0J420160826125010808/26/16 12:50:31  5-MIN K0J4 261750Z AUTO 08007KT 10SM CLR 32/19 A3007 170 44 2200 080/07 RMK AO2 T03220189
63870K0J4 0J420160826125513308/26/16 12:55:31  5-MIN K0J4 261755Z AUTO 07008KT 10SM CLR 32/19 A3007 170 44 2200 070/08 RMK AO2 SLP179 T03220189 10328 20228 53009
63870K0J4 0J420160826130010808/26/16 13:00:31  5-MIN K0J4 261800Z AUTO 07006KT 10SM CLR 32/18 A3007 170 43 2200 070/06 RMK AO2 T03220183
63870K0J4 0J420160826130512408/26/16 13:05:31  5-MIN K0J4 261805Z AUTO 08008KT 050V130 10SM CLR 32/19 A3007 170 44 2200 080/08 050V130 RMK AO2 T03220189
63870K0J4 0J420160826131011408/26/16 13:10:31  5-MIN K0J4 261810Z AUTO 07010G15KT 10SM CLR 32/18 A3007 180 43 2200 070/10G15 RMK AO2 T03220183
63870K0J4 0J420160826131510808/26/16 13:15:31  5-MIN K0J4 261815Z AUTO 09008KT 10SM CLR 33/19 A3007 180 43 2300 090/08 RMK AO2 T03280189
63870K0J4 0J420160826132010808/26/16 13:20:31  5-MIN K0J4 261820Z AUTO 08008KT 10SM CLR 33/19 A3006 190 43 2300 080/08 RMK AO2 T03280189
63870K0J4 0J420160826132510808/26/16 13:25:31  5-MIN K0J4 261825Z AUTO 05009KT 10SM CLR 33/19 A3006 190 44 2300 050/09 RMK AO2 T03280194
63870K0J4 0J420160826133010808/26/16 13:30:31  5-MIN K0J4 261830Z AUTO 05010KT 10SM CLR 32/19 A3005 190 44 2200 050/10 RMK AO2 T03220189
63870K0J4 0J420160826133512408/26/16 13:35:31  5-MIN K0J4 261835Z AUTO 04008KT 010V080 10SM CLR 32/19 A3005 200 44 2200 040/08 010V080 RMK AO2 T03220189
63870K0J4 0J420160826134010808/26/16 13:40:31  5-MIN K0J4 261840Z AUTO 08009KT 10SM CLR 33/19 A3005 200 43 2300 080/09 RMK AO2 T03280189
63870K0J4 0J420160826134510808/26/16 13:45:31  5-MIN K0J4 261845Z AUTO 09006KT 10SM CLR 32/19 A3005 200 44 2200 090/06 RMK AO2 T03220189
63870K0J4 0J420160826135010808/26/16 13:50:31  5-MIN K0J4 261850Z AUTO 04009KT 10SM CLR 32/18 A3005 200 43 2300 040/09 RMK AO2 T03220183
63870K0J4 0J420160826135511808/26/16 13:55:31  5-MIN K0J4 261855Z AUTO 07008KT 10SM FEW055 33/19 A3005 200 43 2300 070/08 RMK AO2 SLP169 T03280189
63870K0J4 0J420160826140011108/26/16 14:00:31  5-MIN K0J4 261900Z AUTO 07007KT 10SM SCT055 33/19 A3004 200 43 2300 070/07 RMK AO2 T03280189
63870K0J4 0J420160826140511108/26/16 14:05:31  5-MIN K0J4 261905Z AUTO 06009KT 10SM FEW055 33/19 A3004 200 43 2300 060/09 RMK AO2 T03280189
63870K0J4 0J420160826141012708/26/16 14:10:31  5-MIN K0J4 261910Z AUTO 07009KT 030V100 10SM FEW055 33/18 A3004 210 41 2300 070/09 030V100 RMK AO2 T03280183
63870K0J4 0J420160826141511708/26/16 14:15:31  5-MIN K0J4 261915Z AUTO 08010G15KT 10SM FEW055 32/18 A3004 210 41 2300 080/10G15 RMK AO2 T03220178
63870K0J4 0J420160826142011708/26/16 14:20:31  5-MIN K0J4 261920Z AUTO 09007G15KT 10SM FEW055 32/17 A3004 210 40 2200 090/07G15 RMK AO2 T03170167
63870K0J4 0J420160826142511108/26/16 14:25:31  5-MIN K0J4 261925Z AUTO 10009KT 10SM FEW055 33/18 A3004 210 40 2300 100/09 RMK AO2 T03280178
63870K0J4 0J420160826143010808/26/16 14:30:31  5-MIN K0J4 261930Z AUTO 12007KT 10SM CLR 33/18 A3003 210 40 2300 120/07 RMK AO2 T03280178
63870K0J4 0J420160826143512708/26/16 14:35:31  5-MIN K0J4 261935Z AUTO 12007KT 090V150 10SM FEW060 33/18 A3003 220 40 2300 120/07 090V150 RMK AO2 T03280178
63870K0J4 0J420160826144011108/26/16 14:40:31  5-MIN K0J4 261940Z AUTO VRB05KT 10SM FEW060 33/18 A3003 220 40 2300 VRB/05 RMK AO2 T03280178
63870K0J4 0J420160826144512708/26/16 14:45:31  5-MIN K0J4 261945Z AUTO 12007KT 090V150 10SM FEW060 33/17 A3003 220 39 2300 120/07 090V150 RMK AO2 T03280172
63870K0J4 0J420160826145011108/26/16 14:50:31  5-MIN K0J4 261950Z AUTO VRB05KT 10SM FEW060 33/17 A3002 220 39 2300 VRB/05 RMK AO2 T03280172
63870K0J4 0J420160826145513408/26/16 14:55:31  5-MIN K0J4 261955Z AUTO 09007KT 060V120 10SM FEW060 33/18 A3002 220 40 2300 090/07 060V120 RMK AO2 SLP161 T03280178
63870K0J4 0J420160826150011108/26/16 15:00:31  5-MIN K0J4 262000Z AUTO 06010KT 10SM FEW060 33/18 A3002 230 40 2400 060/10 RMK AO2 T03330183
63870K0J4 0J420160826150510808/26/16 15:05:31  5-MIN K0J4 262005Z AUTO 07009KT 10SM CLR 33/18 A3001 230 40 2300 070/09 RMK AO2 T03280178
63870K0J4 0J420160826151010808/26/16 15:10:31  5-MIN K0J4 262010Z AUTO 08010KT 10SM CLR 32/18 A3002 230 41 2300 080/10 RMK AO2 T03220178
63870K0J4 0J420160826151510808/26/16 15:15:31  5-MIN K0J4 262015Z AUTO 10004KT 10SM CLR 32/18 A3002 230 44 2200 100/04 RMK AO2 T03170183
63870K0J4 0J420160826152010808/26/16 15:20:31  5-MIN K0J4 262020Z AUTO VRB06KT 10SM CLR 33/18 A3002 230 40 2300 VRB/06 RMK AO2 T03280178
63870K0J4 0J420160826152510808/26/16 15:25:31  5-MIN K0J4 262025Z AUTO 12005KT 10SM CLR 33/18 A3002 230 40 2300 120/05 RMK AO2 T03280178
63870K0J4 0J420160826153010808/26/16 15:30:31  5-MIN K0J4 262030Z AUTO VRB06KT 10SM CLR 33/18 A3002 230 40 2400 VRB/06 RMK AO2 T03330183
63870K0J4 0J420160826153510808/26/16 15:35:31  5-MIN K0J4 262035Z AUTO 07008KT 10SM CLR 33/18 A3002 230 41 2300 070/08 RMK AO2 T03280183
63870K0J4 0J420160826154010808/26/16 15:40:31  5-MIN K0J4 262040Z AUTO VRB06KT 10SM CLR 33/18 A3002 230 41 2300 VRB/06 RMK AO2 T03280183
63870K0J4 0J420160826154511108/26/16 15:45:31  5-MIN K0J4 262045Z AUTO VRB05KT 10SM FEW060 32/18 A3001 230 43 2200 VRB/05 RMK AO2 T03170178
63870K0J4 0J420160826155011108/26/16 15:50:31  5-MIN K0J4 262050Z AUTO 12003KT 10SM FEW060 32/19 A3001 230 44 2300 120/03 RMK AO2 T03220189
63870K0J4 0J420160826155512408/26/16 15:55:31  5-MIN K0J4 262055Z AUTO VRB04KT 10SM FEW060 33/19 A3001 230 43 2300 VRB/04 RMK AO2 SLP159 T03280189 58011
63870K0J4 0J420160826160011108/26/16 16:00:31  5-MIN K0J4 262100Z AUTO 06007KT 10SM FEW060 33/18 A3001 230 40 2400 060/07 RMK AO2 T03330183
63870K0J4 0J420160826160511108/26/16 16:05:31  5-MIN K0J4 262105Z AUTO VRB04KT 10SM FEW060 32/18 A3001 230 41 2300 VRB/04 RMK AO2 T03220178
63870K0J4 0J420160826161011108/26/16 16:10:31  5-MIN K0J4 262110Z AUTO VRB05KT 10SM FEW060 33/18 A3001 230 41 2400 VRB/05 RMK AO2 T03280183
63870K0J4 0J420160826161511108/26/16 16:15:31  5-MIN K0J4 262115Z AUTO VRB06KT 10SM FEW060 33/18 A3001 230 41 2400 VRB/06 RMK AO2 T03280183
63870K0J4 0J420160826162011108/26/16 16:20:31  5-MIN K0J4 262120Z AUTO 06007KT 10SM FEW060 33/18 A3001 230 41 2400 060/07 RMK AO2 T03280183
63870K0J4 0J420160826162511108/26/16 16:25:31  5-MIN K0J4 262125Z AUTO 08005KT 10SM FEW060 32/19 A3001 230 44 2300 080/05 RMK AO2 T03220189
63870K0J4 0J420160826163011108/26/16 16:30:31  5-MIN K0J4 262130Z AUTO 08004KT 10SM FEW060 32/19 A3001 240 46 2200 080/04 RMK AO2 T03170189
63870K0J4 0J420160826163511108/26/16 16:35:31  5-MIN K0J4 262135Z AUTO 10005KT 10SM FEW060 32/19 A3001 240 44 2300 100/05 RMK AO2 T03220189
63870K0J4 0J420160826164010808/26/16 16:40:31  5-MIN K0J4 262140Z AUTO 09007KT 10SM CLR 32/18 A3001 240 43 2300 090/07 RMK AO2 T03220183
63870K0J4 0J420160826164510808/26/16 16:45:31  5-MIN K0J4 262145Z AUTO 07006KT 10SM CLR 33/18 A3001 240 41 2400 070/06 RMK AO2 T03280183
63870K0J4 0J420160826165010808/26/16 16:50:31  5-MIN K0J4 262150Z AUTO 07006KT 10SM CLR 33/18 A3001 240 41 2400 070/06 RMK AO2 T03280183
63870K0J4 0J420160826165511508/26/16 16:55:31  5-MIN K0J4 262155Z AUTO 06008KT 10SM CLR 33/18 A3000 240 41 2400 060/08 RMK AO2 SLP156 T03280183
63870K0J4 0J420160826170010808/26/16 17:00:31  5-MIN K0J4 262200Z AUTO 08008KT 10SM CLR 32/18 A3000 240 43 2300 080/08 RMK AO2 T03220183
63870K0J4 0J420160826170510808/26/16 17:05:31  5-MIN K0J4 262205Z AUTO 09005KT 10SM CLR 32/19 A3001 240 44 2300 090/05 RMK AO2 T03220189
63870K0J4 0J420160826171010808/26/16 17:10:31  5-MIN K0J4 262210Z AUTO 08009KT 10SM CLR 32/18 A3001 240 43 2300 080/09 RMK AO2 T03220183
63870K0J4 0J420160826171510808/26/16 17:15:31  5-MIN K0J4 262215Z AUTO 07007KT 10SM CLR 32/18 A3001 240 43 2300 070/07 RMK AO2 T03220183
63870K0J4 0J420160826172010808/26/16 17:20:31  5-MIN K0J4 262220Z AUTO 08005KT 10SM CLR 32/19 A3001 240 44 2300 080/05 RMK AO2 T03220189
63870K0J4 0J420160826172510808/26/16 17:25:31  5-MIN K0J4 262225Z AUTO 08007KT 10SM CLR 32/19 A3001 240 44 2300 080/07 RMK AO2 T03220189
63870K0J4 0J420160826173010808/26/16 17:30:31  5-MIN K0J4 262230Z AUTO 08005KT 10SM CLR 32/19 A3001 240 44 2300 080/05 RMK AO2 T03220189
63870K0J4 0J420160826173510808/26/16 17:35:31  5-MIN K0J4 262235Z AUTO 08007KT 10SM CLR 32/19 A3000 240 44 2300 080/07 RMK AO2 T03220189
63870K0J4 0J420160826174010808/26/16 17:40:31  5-MIN K0J4 262240Z AUTO 08007KT 10SM CLR 32/19 A3001 240 44 2300 080/07 RMK AO2 T03220189
63870K0J4 0J420160826174510808/26/16 17:45:31  5-MIN K0J4 262245Z AUTO 11004KT 10SM CLR 32/19 A3001 240 46 2200 110/04 RMK AO2 T03170189
63870K0J4 0J420160826175010808/26/16 17:50:31  5-MIN K0J4 262250Z AUTO 10004KT 10SM CLR 32/19 A3000 240 46 2200 100/04 RMK AO2 T03170189
63870K0J4 0J420160826175511508/26/16 17:55:31  5-MIN K0J4 262255Z AUTO 09005KT 10SM CLR 32/19 A3000 240 46 2200 090/05 RMK AO2 SLP155 T03170189
63870K0J4 0J420160826180010808/26/16 18:00:31  5-MIN K0J4 262300Z AUTO 08003KT 10SM CLR 32/19 A3001 240 47 2200 080/03 RMK AO2 T03170194
63870K0J4 0J420160826180510808/26/16 18:05:31  5-MIN K0J4 262305Z AUTO 11003KT 10SM CLR 32/19 A3001 240 47 2200 110/03 RMK AO2 T03170194
63870K0J4 0J420160826181010808/26/16 18:10:31  5-MIN K0J4 262310Z AUTO 00000KT 10SM CLR 31/19 A3001 240 49 2200 000/00 RMK AO2 T03110194
63870K0J4 0J420160826181510808/26/16 18:15:31  5-MIN K0J4 262315Z AUTO 11003KT 10SM CLR 31/19 A3001 240 49 2200 110/03 RMK AO2 T03110194
63870K0J4 0J420160826182010808/26/16 18:20:31  5-MIN K0J4 262320Z AUTO 12003KT 10SM CLR 31/19 A3001 240 51 2100 120/03 RMK AO2 T03060194
63870K0J4 0J420160826182510808/26/16 18:25:31  5-MIN K0J4 262325Z AUTO 00000KT 10SM CLR 31/19 A3000 240 51 2100 000/00 RMK AO2 T03060194
63870K0J4 0J420160826183010808/26/16 18:30:31  5-MIN K0J4 262330Z AUTO 00000KT 10SM CLR 30/19 A3001 240 52 2100 000/00 RMK AO2 T03000194
63870K0J4 0J420160826183510808/26/16 18:35:31  5-MIN K0J4 262335Z AUTO 00000KT 10SM CLR 30/19 A3001 240 52 2100 000/00 RMK AO2 T03000194
63870K0J4 0J420160826184010808/26/16 18:40:31  5-MIN K0J4 262340Z AUTO 00000KT 10SM CLR 30/19 A3001 240 52 2100 000/00 RMK AO2 T03000194
63870K0J4 0J420160826184510808/26/16 18:45:31  5-MIN K0J4 262345Z AUTO 00000KT 10SM CLR 30/19 A3001 230 52 2000 000/00 RMK AO2 T03000194
63870K0J4 0J420160826185010808/26/16 18:50:31  5-MIN K0J4 262350Z AUTO 00000KT 10SM CLR 30/19 A3001 230 52 2000 000/00 RMK AO2 T03000194
63870K0J4 0J420160826185513308/26/16 18:55:31  5-MIN K0J4 262355Z AUTO 00000KT 10SM CLR 29/20 A3001 230 56 2000 000/00 RMK AO2 SLP157 T02940200 10333 20294 56021
63870K0J4 0J420160826190010808/26/16 19:00:31  5-MIN K0J4 270000Z AUTO 00000KT 10SM CLR 29/21 A3001 230 60 1900 000/00 RMK AO2 T02890206
63870K0J4 0J420160826190510808/26/16 19:05:31  5-MIN K0J4 270005Z AUTO 00000KT 10SM CLR 28/21 A3001 230 64 1900 000/00 RMK AO2 T02830211
63870K0J4 0J420160826191010808/26/16 19:10:31  5-MIN K0J4 270010Z AUTO 00000KT 10SM CLR 27/22 A3002 230 74 1700 000/00 RMK AO2 T02720222
63870K0J4 0J420160826191510808/26/16 19:15:31  5-MIN K0J4 270015Z AUTO 00000KT 10SM CLR 27/22 A3002 230 71 1700 000/00 RMK AO2 T02720217
63870K0J4 0J420160826192010808/26/16 19:20:31  5-MIN K0J4 270020Z AUTO 00000KT 10SM CLR 27/22 A3002 220 73 1700 000/00 RMK AO2 T02670217
63870K0J4 0J420160826192510808/26/16 19:25:31  5-MIN K0J4 270025Z AUTO 00000KT 10SM CLR 27/22 A3002 220 73 1700 000/00 RMK AO2 T02670217
63870K0J4 0J420160826193010808/26/16 19:30:31  5-MIN K0J4 270030Z AUTO 00000KT 10SM CLR 26/22 A3002 220 76 1600 000/00 RMK AO2 T02610217
63870K0J4 0J420160826193510808/26/16 19:35:31  5-MIN K0J4 270035Z AUTO 00000KT 10SM CLR 26/21 A3002 220 73 1600 000/00 RMK AO2 T02610211
63870K0J4 0J420160826194010808/26/16 19:40:31  5-MIN K0J4 270040Z AUTO 00000KT 10SM CLR 26/21 A3003 220 73 1600 000/00 RMK AO2 T02610211
63870K0J4 0J420160826194510808/26/16 19:45:31  5-MIN K0J4 270045Z AUTO 00000KT 10SM CLR 26/22 A3003 220 79 1500 000/00 RMK AO2 T02560217
63870K0J4 0J420160826195010808/26/16 19:50:31  5-MIN K0J4 270050Z AUTO 00000KT 10SM CLR 26/21 A3003 220 76 1500 000/00 RMK AO2 T02560211
63870K0J4 0J420160826195511508/26/16 19:55:31  5-MIN K0J4 270055Z AUTO 00000KT 10SM CLR 26/21 A3003 210 76 1500 000/00 RMK AO2 SLP164 T02560211
63870K0J4 0J420160826200010808/26/16 20:00:31  5-MIN K0J4 270100Z AUTO 00000KT 10SM CLR 25/22 A3003 210 81 1500 000/00 RMK AO2 T02500217
63870K0J4 0J420160826200510808/26/16 20:05:31  5-MIN K0J4 270105Z AUTO 00000KT 10SM CLR 25/22 A3004 210 81 1500 000/00 RMK AO2 T02500217
63870K0J4 0J420160826201010808/26/16 20:10:31  5-MIN K0J4 270110Z AUTO 00000KT 10SM CLR 25/22 A3004 210 81 1500 000/00 RMK AO2 T02500217
63870K0J4 0J420160826201510808/26/16 20:15:31  5-MIN K0J4 270115Z AUTO 00000KT 10SM CLR 25/22 A3004 210 81 1500 000/00 RMK AO2 T02500217
63870K0J4 0J420160826202010808/26/16 20:20:31  5-MIN K0J4 270120Z AUTO 00000KT 10SM CLR 25/22 A3004 210 81 1500 000/00 RMK AO2 T02500217
63870K0J4 0J420160826202510808/26/16 20:25:31  5-MIN K0J4 270125Z AUTO 00000KT 10SM CLR 24/22 A3004 210 84 1400 000/00 RMK AO2 T02440217
63870K0J4 0J420160826203010808/26/16 20:30:31  5-MIN K0J4 270130Z AUTO 00000KT 10SM CLR 25/22 A3003 210 81 1500 000/00 RMK AO2 T02500217
63870K0J4 0J420160826203510808/26/16 20:35:31  5-MIN K0J4 270135Z AUTO 00000KT 10SM CLR 24/22 A3003 210 84 1400 000/00 RMK AO2 T02440217
63870K0J4 0J420160826204010808/26/16 20:40:31  5-MIN K0J4 270140Z AUTO 00000KT 10SM CLR 24/21 A3003 210 81 1400 000/00 RMK AO2 T02440211
63870K0J4 0J420160826204510808/26/16 20:45:31  5-MIN K0J4 270145Z AUTO 00000KT 10SM CLR 24/21 A3003 210 84 1300 000/00 RMK AO2 T02390211
63870K0J4 0J420160826205010808/26/16 20:50:31  5-MIN K0J4 270150Z AUTO 00000KT 10SM CLR 24/21 A3003 210 81 1400 000/00 RMK AO2 T02440211
63870K0J4 0J420160826205511508/26/16 20:55:31  5-MIN K0J4 270155Z AUTO 00000KT 10SM CLR 24/21 A3003 210 84 1300 000/00 RMK AO2 SLP166 T02390211
63870K0J4 0J420160826210010808/26/16 21:00:31  5-MIN K0J4 270200Z AUTO 00000KT 10SM CLR 24/22 A3003 210 87 1300 000/00 RMK AO2 T02390217
63870K0J4 0J420160826210510808/26/16 21:05:31  5-MIN K0J4 270205Z AUTO 00000KT 10SM CLR 24/21 A3004 210 81 1400 000/00 RMK AO2 T02440211
63870K0J4 0J420160826211010808/26/16 21:10:31  5-MIN K0J4 270210Z AUTO 00000KT 10SM CLR 24/21 A3004 210 81 1400 000/00 RMK AO2 T02440211
63870K0J4 0J420160826211510708/26/16 21:15:31  5-MIN K0J4 270215Z AUTO 00000KT 9SM CLR 24/21 A3004 210 81 1400 000/00 RMK AO2 T02440211
63870K0J4 0J420160826212010708/26/16 21:20:31  5-MIN K0J4 270220Z AUTO 00000KT 9SM CLR 24/21 A3004 200 84 1300 000/00 RMK AO2 T02390211
63870K0J4 0J420160826212510708/26/16 21:25:31  5-MIN K0J4 270225Z AUTO 00000KT 9SM CLR 23/21 A3004 200 87 1300 000/00 RMK AO2 T02330211
63870K0J4 0J420160826213010708/26/16 21:30:31  5-MIN K0J4 270230Z AUTO 00000KT 9SM CLR 24/21 A3005 200 84 1300 000/00 RMK AO2 T02390211
63870K0J4 0J420160826213510708/26/16 21:35:31  5-MIN K0J4 270235Z AUTO 00000KT 8SM CLR 24/21 A3004 200 84 1300 000/00 RMK AO2 T02390211
63870K0J4 0J420160826214010708/26/16 21:40:31  5-MIN K0J4 270240Z AUTO 00000KT 8SM CLR 24/21 A3005 200 84 1300 000/00 RMK AO2 T02390211
63870K0J4 0J420160826214510708/26/16 21:45:31  5-MIN K0J4 270245Z AUTO 00000KT 8SM CLR 23/21 A3005 200 87 1300 000/00 RMK AO2 T02330211
63870K0J4 0J420160826215010708/26/16 21:50:31  5-MIN K0J4 270250Z AUTO 00000KT 8SM CLR 23/21 A3005 200 87 1300 000/00 RMK AO2 T02330211
63870K0J4 0J420160826215512008/26/16 21:55:31  5-MIN K0J4 270255Z AUTO 00000KT 8SM CLR 23/21 A3005 200 87 1300 000/00 RMK AO2 SLP170 T02330211 55000
63870K0J4 0J420160826220010708/26/16 22:00:31  5-MIN K0J4 270300Z AUTO 00000KT 7SM CLR 23/21 A3005 200 87 1300 000/00 RMK AO2 T02330211
63870K0J4 0J420160826220511008/26/16 22:05:31  5-MIN K0J4 270305Z AUTO 00000KT 6SM BR CLR 23/21 A3005 200 87 1200 000/00 RMK AO2 T02280206
63870K0J4 0J420160826221011008/26/16 22:10:31  5-MIN K0J4 270310Z AUTO 00000KT 6SM BR CLR 23/21 A3004 200 87 1200 000/00 RMK AO2 T02280206
63870K0J4 0J420160826221511008/26/16 22:15:31  5-MIN K0J4 270315Z AUTO 00000KT 6SM BR CLR 23/21 A3004 200 87 1200 000/00 RMK AO2 T02280206
63870K0J4 0J420160826222011008/26/16 22:20:31  5-MIN K0J4 270320Z AUTO 00000KT 6SM BR CLR 23/21 A3004 210 87 1200 000/00 RMK AO2 T02280206
63870K0J4 0J420160826222510708/26/16 22:25:31  5-MIN K0J4 270325Z AUTO 00000KT 7SM CLR 23/21 A3004 210 87 1200 000/00 RMK AO2 T02280206
63870K0J4 0J420160826223009708/26/16 22:30:31  5-MIN K0J4 270330Z AUTO 7SM CLR 23/21 A3004 210 87 1200 M /M RMK AO2 T02280206
63870K0J4 0J420160826223510708/26/16 22:35:31  5-MIN K0J4 270335Z AUTO 17004KT 8SM CLR 23/21 A3004 200 87 1200 170/04 RMK AO2 T02280206
63870K0J4 0J420160826224010708/26/16 22:40:31  5-MIN K0J4 270340Z AUTO 00000KT 9SM CLR 23/21 A3004 200 84 1300 000/00 RMK AO2 T02330206
63870K0J4 0J420160826224510808/26/16 22:45:31  5-MIN K0J4 270345Z AUTO 00000KT 10SM CLR 23/21 A3005 200 84 1300 000/00 RMK AO2 T02330206
63870K0J4 0J420160826225010808/26/16 22:50:31  5-MIN K0J4 270350Z AUTO 00000KT 10SM CLR 23/21 A3005 200 87 1300 000/00 RMK AO2 T02330211
63870K0J4 0J420160826225511508/26/16 22:55:31  5-MIN K0J4 270355Z AUTO 00000KT 10SM CLR 23/21 A3005 200 87 1300 000/00 RMK AO2 SLP170 T02330211
63870K0J4 0J420160826230010808/26/16 23:00:31  5-MIN K0J4 270400Z AUTO 00000KT 10SM CLR 23/21 A3004 200 87 1300 000/00 RMK AO2 T02330211
63870K0J4 0J420160826230510808/26/16 23:05:31  5-MIN K0J4 270405Z AUTO 00000KT 10SM CLR 23/21 A3004 200 87 1200 000/00 RMK AO2 T02280206
63870K0J4 0J420160826231010808/26/16 23:10:31  5-MIN K0J4 270410Z AUTO 00000KT 10SM CLR 23/21 A3004 200 87 1200 000/00 RMK AO2 T02280206
63870K0J4 0J420160826231510708/26/16 23:15:31  5-MIN K0J4 270415Z AUTO 00000KT 9SM CLR 23/21 A3004 200 87 1300 000/00 RMK AO2 T02330211
63870K0J4 0J420160826232010708/26/16 23:20:31  5-MIN K0J4 270420Z AUTO 00000KT 9SM CLR 23/21 A3005 200 90 1200 000/00 RMK AO2 T02280211
63870K0J4 0J420160826232510708/26/16 23:25:31  5-MIN K0J4 270425Z AUTO 00000KT 9SM CLR 23/21 A3004 200 87 1200 000/00 RMK AO2 T02280206
63870K0J4 0J420160826233010808/26/16 23:30:31  5-MIN K0J4 270430Z AUTO 00000KT 10SM CLR 23/21 A3004 200 87 1200 000/00 RMK AO2 T02280206
63870K0J4 0J420160826233510808/26/16 23:35:31  5-MIN K0J4 270435Z AUTO 00000KT 10SM CLR 23/21 A3005 200 87 1200 000/00 RMK AO2 T02280206
63870K0J4 0J420160826234010808/26/16 23:40:31  5-MIN K0J4 270440Z AUTO 00000KT 10SM CLR 23/21 A3005 200 87 1200 000/00 RMK AO2 T02280206
63870K0J4 0J420160826234510808/26/16 23:45:31  5-MIN K0J4 270445Z AUTO 00000KT 10SM CLR 23/21 A3004 200 87 1200 000/00 RMK AO2 T02280206
63870K0J4 0J420160826235010808/26/16 23:50:31  5-MIN K0J4 270450Z AUTO 00000KT 10SM CLR 23/21 A3004 200 87 1200 000/00 RMK AO2 T02280206
63870K0J4 0J420160826235512508/26/16 23:55:31  5-MIN K0J4 270455Z AUTO 00000KT 10SM CLR 23/21 A3004 200 87 1200 000/00 RMK AO2 SLP168 T02280206 403330211
63870K0J4 0J420160827000010808/27/16 00:00:31  5-MIN K0J4 270500Z AUTO 00000KT 10SM CLR 23/21 A3004 210 87 1200 000/00 RMK AO2 T02280206
63870K0J4 0J420160827000510808/27/16 00:05:31  5-MIN K0J4 270505Z AUTO 00000KT 10SM CLR 23/21 A3004 210 87 1200 000/00 RMK AO2 T02280206
63870K0J4 0J420160827001010808/27/16 00:10:31  5-MIN K0J4 270510Z AUTO 00000KT 10SM CLR 23/21 A3004 210 87 1200 000/00 RMK AO2 T02280206
63870K0J4 0J420160827001510808/27/16 00:15:31  5-MIN K0J4 270515Z AUTO 00000KT 10SM CLR 23/21 A3004 210 84 1300 000/00 RMK AO2 T02330206
63870K0J4 0J420160827002010808/27/16 00:20:31  5-MIN K0J4 270520Z AUTO 00000KT 10SM CLR 23/21 A3004 210 87 1200 000/00 RMK AO2 T02280206
63870K0J4 0J420160827002510808/27/16 00:25:31  5-MIN K0J4 270525Z AUTO 00000KT 10SM CLR 22/20 A3003 210 87 1100 000/00 RMK AO2 T02220200
63870K0J4 0J420160827003010808/27/16 00:30:31  5-MIN K0J4 270530Z AUTO 00000KT 10SM CLR 22/20 A3003 210 87 1100 000/00 RMK AO2 T02220200
63870K0J4 0J420160827003510808/27/16 00:35:31  5-MIN K0J4 270535Z AUTO 00000KT 10SM CLR 22/20 A3003 210 87 1100 000/00 RMK AO2 T02220200
63870K0J4 0J420160827004010808/27/16 00:40:31  5-MIN K0J4 270540Z AUTO 00000KT 10SM CLR 22/20 A3003 210 87 1100 000/00 RMK AO2 T02220200
63870K0J4 0J420160827004510808/27/16 00:45:31  5-MIN K0J4 270545Z AUTO 00000KT 10SM CLR 22/20 A3003 220 87 1100 000/00 RMK AO2 T02220200
63870K0J4 0J420160827005010808/27/16 00:50:31  5-MIN K0J4 270550Z AUTO 08003KT 10SM CLR 22/20 A3003 220 87 1100 080/03 RMK AO2 T02220200
63870K0J4 0J420160827005513308/27/16 00:55:31  5-MIN K0J4 270555Z AUTO 09003KT 10SM CLR 22/20 A3003 220 87 1100 090/03 RMK AO2 SLP163 T02220200 10294 20222 51012
63870K0J4 0J420160827010010808/27/16 01:00:31  5-MIN K0J4 270600Z AUTO 08003KT 10SM CLR 23/20 A3003 220 84 1200 080/03 RMK AO2 T02280200
63870K0J4 0J420160827010510808/27/16 01:05:31  5-MIN K0J4 270605Z AUTO 08003KT 10SM CLR 23/20 A3002 220 84 1200 080/03 RMK AO2 T02280200
63870K0J4 0J420160827011010808/27/16 01:10:31  5-MIN K0J4 270610Z AUTO 08003KT 10SM CLR 23/20 A3002 220 84 1200 080/03 RMK AO2 T02280200
63870K0J4 0J420160827011510808/27/16 01:15:31  5-MIN K0J4 270615Z AUTO 08003KT 10SM CLR 23/20 A3002 220 81 1300 080/03 RMK AO2 T02330200
63870K0J4 0J420160827012010808/27/16 01:20:31  5-MIN K0J4 270620Z AUTO 07003KT 10SM CLR 23/20 A3002 230 81 1300 070/03 RMK AO2 T02330200
63870K0J4 0J420160827012510808/27/16 01:25:31  5-MIN K0J4 270625Z AUTO 07004KT 10SM CLR 23/21 A3002 230 87 1200 070/04 RMK AO2 T02280206
63870K0J4 0J420160827013010808/27/16 01:30:31  5-MIN K0J4 270630Z AUTO 08003KT 10SM CLR 23/21 A3001 230 87 1200 080/03 RMK AO2 T02280206
63870K0J4 0J420160827013510808/27/16 01:35:31  5-MIN K0J4 270635Z AUTO 09004KT 10SM CLR 23/21 A3001 230 87 1200 090/04 RMK AO2 T02280206
63870K0J4 0J420160827014010808/27/16 01:40:31  5-MIN K0J4 270640Z AUTO 08004KT 10SM CLR 23/21 A3001 230 84 1300 080/04 RMK AO2 T02330206
63870K0J4 0J420160827014510808/27/16 01:45:31  5-MIN K0J4 270645Z AUTO 07003KT 10SM CLR 23/21 A3001 230 87 1200 070/03 RMK AO2 T02280206
63870K0J4 0J420160827015010808/27/16 01:50:31  5-MIN K0J4 270650Z AUTO 08003KT 10SM CLR 23/21 A3001 230 87 1200 080/03 RMK AO2 T02280206
63870K0J4 0J420160827015511508/27/16 01:55:31  5-MIN K0J4 270655Z AUTO 08003KT 10SM CLR 23/21 A3001 230 87 1200 080/03 RMK AO2 SLP158 T02280206
63870K0J4 0J420160827020010808/27/16 02:00:31  5-MIN K0J4 270700Z AUTO 07003KT 10SM CLR 23/21 A3001 230 87 1200 070/03 RMK AO2 T02280206
63870K0J4 0J420160827020510808/27/16 02:05:31  5-MIN K0J4 270705Z AUTO 06004KT 10SM CLR 23/21 A3001 230 87 1200 060/04 RMK AO2 T02280206
63870K0J4 0J420160827021010808/27/16 02:10:31  5-MIN K0J4 270710Z AUTO 07004KT 10SM CLR 23/21 A3001 240 87 1200 070/04 RMK AO2 T02280206
63870K0J4 0J420160827021510808/27/16 02:15:31  5-MIN K0J4 270715Z AUTO 08003KT 10SM CLR 23/21 A3001 240 87 1200 080/03 RMK AO2 T02280206
63870K0J4 0J420160827022010808/27/16 02:20:31  5-MIN K0J4 270720Z AUTO 08004KT 10SM CLR 23/21 A3000 240 87 1200 080/04 RMK AO2 T02280206
63870K0J4 0J420160827022510808/27/16 02:25:31  5-MIN K0J4 270725Z AUTO 08004KT 10SM CLR 23/21 A3001 240 87 1200 080/04 RMK AO2 T02280206
63870K0J4 0J420160827023010808/27/16 02:30:31  5-MIN K0J4 270730Z AUTO 08003KT 10SM CLR 23/21 A3000 240 87 1200 080/03 RMK AO2 T02280206
63870K0J4 0J420160827023510808/27/16 02:35:31  5-MIN K0J4 270735Z AUTO 07003KT 10SM CLR 23/21 A3000 240 87 1200 070/03 RMK AO2 T02280206
63870K0J4 0J420160827024010808/27/16 02:40:31  5-MIN K0J4 270740Z AUTO 07003KT 10SM CLR 23/21 A3000 240 87 1200 070/03 RMK AO2 T02280206
63870K0J4 0J420160827024510808/27/16 02:45:31  5-MIN K0J4 270745Z AUTO 07004KT 10SM CLR 23/21 A3001 240 87 1200 070/04 RMK AO2 T02280206
63870K0J4 0J420160827025010808/27/16 02:50:31  5-MIN K0J4 270750Z AUTO 08003KT 10SM CLR 23/21 A3001 240 87 1200 080/03 RMK AO2 T02280206
63870K0J4 0J420160827025511508/27/16 02:55:31  5-MIN K0J4 270755Z AUTO 07003KT 10SM CLR 23/21 A3001 230 87 1200 070/03 RMK AO2 SLP157 T02280206
63870K0J4 0J420160827030010808/27/16 03:00:31  5-MIN K0J4 270800Z AUTO 07003KT 10SM CLR 23/21 A3001 230 87 1200 070/03 RMK AO2 T02280206
63870K0J4 0J420160827030510808/27/16 03:05:31  5-MIN K0J4 270805Z AUTO 06003KT 10SM CLR 23/21 A3001 230 87 1200 060/03 RMK AO2 T02280206
63870K0J4 0J420160827031010808/27/16 03:10:31  5-MIN K0J4 270810Z AUTO 00000KT 10SM CLR 23/21 A3001 230 87 1200 000/00 RMK AO2 T02280206
63870K0J4 0J420160827031510808/27/16 03:15:31  5-MIN K0J4 270815Z AUTO 08003KT 10SM CLR 23/21 A3001 230 87 1200 080/03 RMK AO2 T02280206
63870K0J4 0J420160827032010808/27/16 03:20:31  5-MIN K0J4 270820Z AUTO 00000KT 10SM CLR 23/21 A3001 230 87 1200 000/00 RMK AO2 T02280206
63870K0J4 0J420160827032510808/27/16 03:25:31  5-MIN K0J4 270825Z AUTO 06003KT 10SM CLR 23/21 A3001 230 87 1200 060/03 RMK AO2 T02280206
63870K0J4 0J420160827033010808/27/16 03:30:31  5-MIN K0J4 270830Z AUTO 00000KT 10SM CLR 23/21 A3001 230 87 1200 000/00 RMK AO2 T02280206
63870K0J4 0J420160827033510808/27/16 03:35:31  5-MIN K0J4 270835Z AUTO 00000KT 10SM CLR 22/21 A3001 230 90 1200 000/00 RMK AO2 T02220206
63870K0J4 0J420160827034010808/27/16 03:40:31  5-MIN K0J4 270840Z AUTO 00000KT 10SM CLR 23/21 A3002 230 87 1200 000/00 RMK AO2 T02280206
63870K0J4 0J420160827034510808/27/16 03:45:31  5-MIN K0J4 270845Z AUTO 00000KT 10SM CLR 22/21 A3002 230 90 1200 000/00 RMK AO2 T02220206
63870K0J4 0J420160827035010808/27/16 03:50:31  5-MIN K0J4 270850Z AUTO 00000KT 10SM CLR 22/20 A3002 230 90 1100 000/00 RMK AO2 T02170200
63870K0J4 0J420160827035512108/27/16 03:55:31  5-MIN K0J4 270855Z AUTO 02003KT 10SM CLR 22/20 A3002 230 90 1100 020/03 RMK AO2 SLP159 T02170200 58006
63870K0J4 0J420160827040010808/27/16 04:00:31  5-MIN K0J4 270900Z AUTO 06003KT 10SM CLR 22/20 A3002 230 90 1100 060/03 RMK AO2 T02170200
63870K0J4 0J420160827040510808/27/16 04:05:31  5-MIN K0J4 270905Z AUTO 04003KT 10SM CLR 22/20 A3002 230 90 1100 040/03 RMK AO2 T02170200
63870K0J4 0J420160827041010808/27/16 04:10:31  5-MIN K0J4 270910Z AUTO 00000KT 10SM CLR 22/20 A3002 230 90 1100 000/00 RMK AO2 T02170200
63870K0J4 0J420160827041510808/27/16 04:15:31  5-MIN K0J4 270915Z AUTO 00000KT 10SM CLR 22/20 A3002 230 87 1200 000/00 RMK AO2 T02220200
63870K0J4 0J420160827042010808/27/16 04:20:31  5-MIN K0J4 270920Z AUTO 00000KT 10SM CLR 22/20 A3002 230 90 1100 000/00 RMK AO2 T02170200
63870K0J4 0J420160827042510808/27/16 04:25:31  5-MIN K0J4 270925Z AUTO 00000KT 10SM CLR 22/20 A3002 230 90 1100 000/00 RMK AO2 T02170200
63870K0J4 0J420160827043010808/27/16 04:30:31  5-MIN K0J4 270930Z AUTO 00000KT 10SM CLR 22/20 A3002 220 87 1200 000/00 RMK AO2 T02220200
63870K0J4 0J420160827043510808/27/16 04:35:31  5-MIN K0J4 270935Z AUTO 00000KT 10SM CLR 22/20 A3002 220 87 1200 000/00 RMK AO2 T02220200
63870K0J4 0J420160827044010808/27/16 04:40:31  5-MIN K0J4 270940Z AUTO 00000KT 10SM CLR 22/20 A3002 220 90 1100 000/00 RMK AO2 T02170200
63870K0J4 0J420160827044510808/27/16 04:45:31  5-MIN K0J4 270945Z AUTO 00000KT 10SM CLR 21/19 A3002 220 90 1000 000/00 RMK AO2 T02110194
63870K0J4 0J420160827045010808/27/16 04:50:31  5-MIN K0J4 270950Z AUTO 00000KT 10SM CLR 21/19 A3002 220 90 1000 000/00 RMK AO2 T02110194
63870K0J4 0J420160827045511508/27/16 04:55:31  5-MIN K0J4 270955Z AUTO 00000KT 10SM CLR 21/19 A3002 220 90 1000 000/00 RMK AO2 SLP162 T02110194
63870K0J4 0J420160827050010808/27/16 05:00:31  5-MIN K0J4 271000Z AUTO 00000KT 10SM CLR 21/19 A3002 220 93 1000 000/00 RMK AO2 T02060194
63870K0J4 0J420160827050510808/27/16 05:05:31  5-MIN K0J4 271005Z AUTO 00000KT 10SM CLR 21/19 A3002 220 90 1000 000/00 RMK AO2 T02110194
63870K0J4 0J420160827051010808/27/16 05:10:31  5-MIN K0J4 271010Z AUTO 00000KT 10SM CLR 22/20 A3003 220 90 1100 000/00 RMK AO2 T02170200
63870K0J4 0J420160827051510808/27/16 05:15:31  5-MIN K0J4 271015Z AUTO 00000KT 10SM CLR 22/20 A3003 220 90 1100 000/00 RMK AO2 T02170200
63870K0J4 0J420160827052010808/27/16 05:20:31  5-MIN K0J4 271020Z AUTO 03003KT 10SM CLR 22/20 A3003 220 90 1100 030/03 RMK AO2 T02170200
63870K0J4 0J420160827052510808/27/16 05:25:31  5-MIN K0J4 271025Z AUTO 00000KT 10SM CLR 22/20 A3003 220 90 1100 000/00 RMK AO2 T02170200
63870K0J4 0J420160827053010808/27/16 05:30:31  5-MIN K0J4 271030Z AUTO 00000KT 10SM CLR 22/20 A3003 210 90 1100 000/00 RMK AO2 T02170200
63870K0J4 0J420160827053510808/27/16 05:35:31  5-MIN K0J4 271035Z AUTO 00000KT 10SM CLR 21/19 A3004 210 90 1000 000/00 RMK AO2 T02110194
63870K0J4 0J420160827054010808/27/16 05:40:31  5-MIN K0J4 271040Z AUTO 00000KT 10SM CLR 21/19 A3004 210 90 1000 000/00 RMK AO2 T02110194
63870K0J4 0J420160827054510808/27/16 05:45:31  5-MIN K0J4 271045Z AUTO 00000KT 10SM CLR 21/19 A3004 210 90 1000 000/00 RMK AO2 T02110194
63870K0J4 0J420160827055010808/27/16 05:50:31  5-MIN K0J4 271050Z AUTO 00000KT 10SM CLR 22/20 A3004 210 90 1100 000/00 RMK AO2 T02170200
63870K0J4 0J420160827055511508/27/16 05:55:31  5-MIN K0J4 271055Z AUTO 00000KT 10SM CLR 21/19 A3004 200 90 1000 000/00 RMK AO2 SLP168 T02110194
63870K0J4 0J420160827060010808/27/16 06:00:31  5-MIN K0J4 271100Z AUTO 00000KT 10SM CLR 21/19 A3004 200 90 1000 000/00 RMK AO2 T02110194
63870K0J4 0J420160827060510808/27/16 06:05:31  5-MIN K0J4 271105Z AUTO 00000KT 10SM CLR 21/19 A3005 200 90 1000 000/00 RMK AO2 T02110194
63870K0J4 0J420160827061010808/27/16 06:10:31  5-MIN K0J4 271110Z AUTO 00000KT 10SM CLR 22/20 A3005 200 90 1100 000/00 RMK AO2 T02170200
63870K0J4 0J420160827061510708/27/16 06:15:31  5-MIN K0J4 271115Z AUTO 00000KT 10SM CLR 21/19 A3005 200 93 900 000/00 RMK AO2 T02060194
63870K0J4 0J420160827062010708/27/16 06:20:31  5-MIN K0J4 271120Z AUTO 00000KT 10SM CLR 21/19 A3005 200 93 900 000/00 RMK AO2 T02060194
63870K0J4 0J420160827062510808/27/16 06:25:31  5-MIN K0J4 271125Z AUTO 00000KT 10SM CLR 21/19 A3005 200 90 1000 000/00 RMK AO2 T02110194
63870K0J4 0J420160827063010808/27/16 06:30:31  5-MIN K0J4 271130Z AUTO 06003KT 10SM CLR 22/20 A3005 200 90 1100 060/03 RMK AO2 T02170200
63870K0J4 0J420160827063510808/27/16 06:35:31  5-MIN K0J4 271135Z AUTO 00000KT 10SM CLR 22/20 A3005 200 90 1100 000/00 RMK AO2 T02170200
63870K0J4 0J420160827064010808/27/16 06:40:31  5-MIN K0J4 271140Z AUTO 06003KT 10SM CLR 22/20 A3005 190 90 1100 060/03 RMK AO2 T02170200
63870K0J4 0J420160827064510808/27/16 06:45:31  5-MIN K0J4 271145Z AUTO 06003KT 10SM CLR 22/20 A3005 190 90 1100 060/03 RMK AO2 T02170200
63870K0J4 0J420160827065010808/27/16 06:50:31  5-MIN K0J4 271150Z AUTO 06003KT 10SM CLR 22/20 A3005 190 87 1100 060/03 RMK AO2 T02220200
63870K0J4 0J420160827065513308/27/16 06:55:31  5-MIN K0J4 271155Z AUTO 06004KT 10SM CLR 22/21 A3006 190 90 1100 060/04 RMK AO2 SLP173 T02220206 10233 20206 55003
63870K0J4 0J420160827070010808/27/16 07:00:31  5-MIN K0J4 271200Z AUTO 06004KT 10SM CLR 23/21 A3005 190 87 1200 060/04 RMK AO2 T02280206
63870K0J4 0J420160827070510808/27/16 07:05:31  5-MIN K0J4 271205Z AUTO 07005KT 10SM CLR 23/21 A3005 190 87 1200 070/05 RMK AO2 T02280206
63870K0J4 0J420160827071010808/27/16 07:10:31  5-MIN K0J4 271210Z AUTO 07005KT 10SM CLR 22/21 A3005 190 93 1100 070/05 RMK AO2 T02220211
63870K0J4 0J420160827071510808/27/16 07:15:31  5-MIN K0J4 271215Z AUTO 07005KT 10SM CLR 23/21 A3005 190 87 1200 070/05 RMK AO2 T02280206
63870K0J4 0J420160827072010808/27/16 07:20:31  5-MIN K0J4 271220Z AUTO 07005KT 10SM CLR 23/21 A3006 190 87 1200 070/05 RMK AO2 T02330211
63870K0J4 0J420160827072510808/27/16 07:25:31  5-MIN K0J4 271225Z AUTO 07005KT 10SM CLR 23/21 A3006 190 84 1200 070/05 RMK AO2 T02330206
63870K0J4 0J420160827073010808/27/16 07:30:31  5-MIN K0J4 271230Z AUTO 07006KT 10SM CLR 23/21 A3006 190 87 1200 070/06 RMK AO2 T02330211
63870K0J4 0J420160827073510808/27/16 07:35:31  5-MIN K0J4 271235Z AUTO 07006KT 10SM CLR 23/21 A3006 190 87 1200 070/06 RMK AO2 T02330211
63870K0J4 0J420160827074010808/27/16 07:40:31  5-MIN K0J4 271240Z AUTO 07006KT 10SM CLR 24/21 A3006 190 84 1300 070/06 RMK AO2 T02390211
63870K0J4 0J420160827074510808/27/16 07:45:31  5-MIN K0J4 271245Z AUTO 07005KT 10SM CLR 24/21 A3006 190 84 1300 070/05 RMK AO2 T02390211
63870K0J4 0J420160827075010808/27/16 07:50:31  5-MIN K0J4 271250Z AUTO 07006KT 10SM CLR 24/21 A3005 190 81 1400 070/06 RMK AO2 T02440211
63870K0J4 0J420160827075511508/27/16 07:55:31  5-MIN K0J4 271255Z AUTO 07006KT 10SM CLR 24/21 A3005 190 81 1400 070/06 RMK AO2 SLP172 T02440211
63870K0J4 0J420160827080010808/27/16 08:00:31  5-MIN K0J4 271300Z AUTO 08006KT 10SM CLR 24/21 A3005 190 81 1400 080/06 RMK AO2 T02440211
63870K0J4 0J420160827080510808/27/16 08:05:31  5-MIN K0J4 271305Z AUTO 08007KT 10SM CLR 25/21 A3005 190 79 1400 080/07 RMK AO2 T02500211
63870K0J4 0J420160827081010808/27/16 08:10:31  5-MIN K0J4 271310Z AUTO 08004KT 10SM CLR 25/21 A3006 190 79 1400 080/04 RMK AO2 T02500211
63870K0J4 0J420160827081510808/27/16 08:15:31  5-MIN K0J4 271315Z AUTO 08006KT 10SM CLR 25/21 A3006 190 79 1400 080/06 RMK AO2 T02500211
63870K0J4 0J420160827082010808/27/16 08:20:31  5-MIN K0J4 271320Z AUTO 09006KT 10SM CLR 26/21 A3006 190 76 1500 090/06 RMK AO2 T02560211
63870K0J4 0J420160827082510808/27/16 08:25:31  5-MIN K0J4 271325Z AUTO 09005KT 10SM CLR 26/22 A3006 190 79 1500 090/05 RMK AO2 T02560217
63870K0J4 0J420160827083010808/27/16 08:30:31  5-MIN K0J4 271330Z AUTO 09006KT 10SM CLR 26/22 A3005 190 79 1500 090/06 RMK AO2 T02560217
63870K0J4 0J420160827083510808/27/16 08:35:31  5-MIN K0J4 271335Z AUTO 09007KT 10SM CLR 26/22 A3006 190 76 1600 090/07 RMK AO2 T02610217
63870K0J4 0J420160827084010808/27/16 08:40:31  5-MIN K0J4 271340Z AUTO 07005KT 10SM CLR 26/22 A3005 190 76 1600 070/05 RMK AO2 T02610217
63870K0J4 0J420160827084510808/27/16 08:45:31  5-MIN K0J4 271345Z AUTO 07006KT 10SM CLR 26/22 A3005 200 76 1600 070/06 RMK AO2 T02610217
63870K0J4 0J420160827085010808/27/16 08:50:31  5-MIN K0J4 271350Z AUTO 07005KT 10SM CLR 26/21 A3005 200 73 1600 070/05 RMK AO2 T02610211
63870K0J4 0J420160827085511508/27/16 08:55:31  5-MIN K0J4 271355Z AUTO 07006KT 10SM CLR 27/22 A3005 200 73 1600 070/06 RMK AO2 SLP171 T02670217
63870K0J4 0J420160827090010808/27/16 09:00:31  5-MIN K0J4 271400Z AUTO 06006KT 10SM CLR 27/21 A3005 190 71 1600 060/06 RMK AO2 T02670211
63870K0J4 0J420160827090510808/27/16 09:05:31  5-MIN K0J4 271405Z AUTO 07006KT 10SM CLR 27/22 A3005 190 71 1700 070/06 RMK AO2 T02720217
63870K0J4 0J420160827091010808/27/16 09:10:31  5-MIN K0J4 271410Z AUTO 08005KT 10SM CLR 27/21 A3005 190 69 1700 080/05 RMK AO2 T02720211
63870K0J4 0J420160827091510808/27/16 09:15:31  5-MIN K0J4 271415Z AUTO 07006KT 10SM CLR 28/22 A3005 190 69 1700 070/06 RMK AO2 T02780217
63870K0J4 0J420160827092010808/27/16 09:20:31  5-MIN K0J4 271420Z AUTO 07004KT 10SM CLR 28/21 A3005 190 66 1700 070/04 RMK AO2 T02780211
63870K0J4 0J420160827092510808/27/16 09:25:31  5-MIN K0J4 271425Z AUTO 10005KT 10SM CLR 28/22 A3006 190 69 1700 100/05 RMK AO2 T02780217
63870K0J4 0J420160827200010808/27/16 20:00:31  5-MIN K0J4 280100Z AUTO 00000KT 10SM CLR 26/23 A3001 240 84 1600 000/00 RMK AO2 T02610233
63870K0J4 0J420160827200510808/27/16 20:05:31  5-MIN K0J4 280105Z AUTO 06003KT 10SM CLR 26/23 A3001 230 84 1600 060/03 RMK AO2 T02610233
63870K0J4 0J420160827201010808/27/16 20:10:31  5-MIN K0J4 280110Z AUTO 06003KT 10SM CLR 26/23 A3001 230 84 1600 060/03 RMK AO2 T02610233
63870K0J4 0J420160827201510808/27/16 20:15:31  5-MIN K0J4 280115Z AUTO 00000KT 10SM CLR 26/23 A3001 230 84 1600 000/00 RMK AO2 T02610233
63870K0J4 0J420160827202010808/27/16 20:20:31  5-MIN K0J4 280120Z AUTO 04003KT 10SM CLR 26/23 A3002 230 84 1600 040/03 RMK AO2 T02610233
63870K0J4 0J420160827202510808/27/16 20:25:31  5-MIN K0J4 280125Z AUTO 05004KT 10SM CLR 26/23 A3002 220 81 1600 050/04 RMK AO2 T02610228
63870K0J4 0J420160827203010808/27/16 20:30:31  5-MIN K0J4 280130Z AUTO 04003KT 10SM CLR 26/23 A3002 220 84 1500 040/03 RMK AO2 T02560228
63870K0J4 0J420160827203510808/27/16 20:35:31  5-MIN K0J4 280135Z AUTO 04003KT 10SM CLR 26/23 A3002 220 84 1500 040/03 RMK AO2 T02560228
63870K0J4 0J420160827204010808/27/16 20:40:31  5-MIN K0J4 280140Z AUTO 04003KT 10SM CLR 26/23 A3002 220 84 1500 040/03 RMK AO2 T02560228
63870K0J4 0J420160827204510808/27/16 20:45:31  5-MIN K0J4 280145Z AUTO 04003KT 10SM CLR 26/23 A3003 220 84 1500 040/03 RMK AO2 T02560228
63870K0J4 0J420160827205010808/27/16 20:50:31  5-MIN K0J4 280150Z AUTO 00000KT 10SM CLR 26/23 A3003 220 84 1500 000/00 RMK AO2 T02560228
63870K0J4 0J420160827205511508/27/16 20:55:31  5-MIN K0J4 280155Z AUTO 00000KT 10SM CLR 26/23 A3003 210 84 1500 000/00 RMK AO2 SLP165 T02560228
63870K0J4 0J420160827210010808/27/16 21:00:31  5-MIN K0J4 280200Z AUTO 00000KT 10SM CLR 26/23 A3003 210 84 1500 000/00 RMK AO2 T02560228
63870K0J4 0J420160827210510808/27/16 21:05:31  5-MIN K0J4 280205Z AUTO 00000KT 10SM CLR 26/23 A3004 210 84 1500 000/00 RMK AO2 T02560228
63870K0J4 0J420160827211010808/27/16 21:10:31  5-MIN K0J4 280210Z AUTO 00000KT 10SM CLR 26/23 A3004 210 81 1600 000/00 RMK AO2 T02610228
63870K0J4 0J420160827211510808/27/16 21:15:31  5-MIN K0J4 280215Z AUTO 00000KT 10SM CLR 26/23 A3004 210 84 1500 000/00 RMK AO2 T02560228
63870K0J4 0J420160827212010808/27/16 21:20:31  5-MIN K0J4 280220Z AUTO 00000KT 10SM CLR 26/23 A3004 210 84 1500 000/00 RMK AO2 T02560228
63870K0J4 0J420160827212510808/27/16 21:25:31  5-MIN K0J4 280225Z AUTO 00000KT 10SM CLR 25/23 A3004 210 87 1500 000/00 RMK AO2 T02500228
63870K0J4 0J420160827213010808/27/16 21:30:31  5-MIN K0J4 280230Z AUTO 00000KT 10SM CLR 25/23 A3004 200 87 1400 000/00 RMK AO2 T02500228
63870K0J4 0J420160827213510808/27/16 21:35:31  5-MIN K0J4 280235Z AUTO 00000KT 10SM CLR 25/23 A3004 200 87 1400 000/00 RMK AO2 T02500228
63870K0J4 0J420160827214010808/27/16 21:40:31  5-MIN K0J4 280240Z AUTO 00000KT 10SM CLR 25/23 A3004 200 87 1400 000/00 RMK AO2 T02500228
63870K0J4 0J420160827214510808/27/16 21:45:31  5-MIN K0J4 280245Z AUTO 00000KT 10SM CLR 26/23 A3005 200 84 1500 000/00 RMK AO2 T02560228
63870K0J4 0J420160827215010808/27/16 21:50:31  5-MIN K0J4 280250Z AUTO 00000KT 10SM CLR 25/23 A3005 200 87 1400 000/00 RMK AO2 T02500228
63870K0J4 0J420160827215512108/27/16 21:55:31  5-MIN K0J4 280255Z AUTO 00000KT 10SM CLR 26/23 A3004 200 84 1500 000/00 RMK AO2 SLP169 T02560228 55003
63870K0J4 0J420160827220010808/27/16 22:00:31  5-MIN K0J4 280300Z AUTO 00000KT 10SM CLR 25/23 A3004 200 87 1400 000/00 RMK AO2 T02500228
63870K0J4 0J420160827220510808/27/16 22:05:31  5-MIN K0J4 280305Z AUTO 00000KT 10SM CLR 25/23 A3004 200 87 1400 000/00 RMK AO2 T02500228
63870K0J4 0J420160827221010808/27/16 22:10:31  5-MIN K0J4 280310Z AUTO 00000KT 10SM CLR 25/23 A3004 210 87 1500 000/00 RMK AO2 T02500228
63870K0J4 0J420160827221510808/27/16 22:15:31  5-MIN K0J4 280315Z AUTO 00000KT 10SM CLR 26/22 A3004 210 81 1500 000/00 RMK AO2 T02560222
63870K0J4 0J420160827222010808/27/16 22:20:31  5-MIN K0J4 280320Z AUTO 00000KT 10SM CLR 26/22 A3003 210 76 1600 000/00 RMK AO2 T02610217
63870K0J4 0J420160827222510808/27/16 22:25:31  5-MIN K0J4 280325Z AUTO 00000KT 10SM CLR 26/22 A3003 210 79 1600 000/00 RMK AO2 T02610222
63870K0J4 0J420160827223010808/27/16 22:30:31  5-MIN K0J4 280330Z AUTO 00000KT 10SM CLR 25/22 A3003 210 84 1500 000/00 RMK AO2 T02500222
63870K0J4 0J420160827223510808/27/16 22:35:31  5-MIN K0J4 280335Z AUTO 00000KT 10SM CLR 26/22 A3003 210 79 1500 000/00 RMK AO2 T02560217
63870K0J4 0J420160827224010808/27/16 22:40:31  5-MIN K0J4 280340Z AUTO 00000KT 10SM CLR 26/22 A3004 210 81 1500 000/00 RMK AO2 T02560222
63870K0J4 0J420160827224510808/27/16 22:45:31  5-MIN K0J4 280345Z AUTO 00000KT 10SM CLR 25/22 A3004 210 84 1500 000/00 RMK AO2 T02500222
63870K0J4 0J420160827225010808/27/16 22:50:31  5-MIN K0J4 280350Z AUTO 00000KT 10SM CLR 26/22 A3004 210 81 1500 000/00 RMK AO2 T02560222
63870K0J4 0J420160827225511508/27/16 22:55:31  5-MIN K0J4 280355Z AUTO 00000KT 10SM CLR 25/22 A3004 210 84 1500 000/00 RMK AO2 SLP167 T02500222
63870K0J4 0J420160827230010808/27/16 23:00:31  5-MIN K0J4 280400Z AUTO 00000KT 10SM CLR 25/22 A3004 210 84 1500 000/00 RMK AO2 T02500222
63870K0J4 0J420160827230510808/27/16 23:05:31  5-MIN K0J4 280405Z AUTO 00000KT 10SM CLR 25/22 A3004 210 84 1500 000/00 RMK AO2 T02500222
63870K0J4 0J420160827231010808/27/16 23:10:31  5-MIN K0J4 280410Z AUTO 00000KT 10SM CLR 25/22 A3004 210 84 1500 000/00 RMK AO2 T02500222
63870K0J4 0J420160827231510808/27/16 23:15:31  5-MIN K0J4 280415Z AUTO 00000KT 10SM CLR 25/22 A3004 210 84 1500 000/00 RMK AO2 T02500222
63870K0J4 0J420160827232010808/27/16 23:20:31  5-MIN K0J4 280420Z AUTO 00000KT 10SM CLR 25/22 A3004 200 81 1500 000/00 RMK AO2 T02500217
63870K0J4 0J420160827232510808/27/16 23:25:31  5-MIN K0J4 280425Z AUTO 08003KT 10SM CLR 26/21 A3004 200 76 1500 080/03 RMK AO2 T02560211
63870K0J4 0J420160827233010808/27/16 23:30:31  5-MIN K0J4 280430Z AUTO 07004KT 10SM CLR 26/21 A3004 200 76 1500 070/04 RMK AO2 T02560211
63870K0J4 0J420160827233510808/27/16 23:35:31  5-MIN K0J4 280435Z AUTO 06004KT 10SM CLR 26/21 A3004 200 76 1500 060/04 RMK AO2 T02560211
63870K0J4 0J420160827234010808/27/16 23:40:31  5-MIN K0J4 280440Z AUTO 07003KT 10SM CLR 26/21 A3004 200 76 1500 070/03 RMK AO2 T02560211
63870K0J4 0J420160827234510808/27/16 23:45:31  5-MIN K0J4 280445Z AUTO 06003KT 10SM CLR 26/21 A3004 200 76 1500 060/03 RMK AO2 T02560211
63870K0J4 0J420160827235011108/27/16 23:50:31  5-MIN K0J4 280450Z AUTO 07003KT 10SM SCT090 26/21 A3004 200 76 1500 070/03 RMK AO2 T02560211
63870K0J4 0J420160827235512808/27/16 23:55:31  5-MIN K0J4 280455Z AUTO 06003KT 10SM SCT090 26/21 A3004 200 76 1500 060/03 RMK AO2 SLP169 T02560211 403220206
63870K0J4 0J420160828000011108/28/16 00:00:31  5-MIN K0J4 280500Z AUTO 00000KT 10SM FEW090 26/21 A3004 200 76 1500 000/00 RMK AO2 T02560211
63870K0J4 0J420160828000511108/28/16 00:05:31  5-MIN K0J4 280505Z AUTO 00000KT 10SM FEW090 26/21 A3004 200 76 1500 000/00 RMK AO2 T02560211
63870K0J4 0J420160828001011108/28/16 00:10:31  5-MIN K0J4 280510Z AUTO 05003KT 10SM FEW090 26/21 A3004 200 73 1500 050/03 RMK AO2 T02560206
63870K0J4 0J420160828001511108/28/16 00:15:31  5-MIN K0J4 280515Z AUTO 00000KT 10SM FEW090 26/21 A3004 210 73 1500 000/00 RMK AO2 T02560206
63870K0J4 0J420160828002010808/28/16 00:20:31  5-MIN K0J4 280520Z AUTO 04003KT 10SM CLR 26/21 A3004 200 73 1500 040/03 RMK AO2 T02560206
63870K0J4 0J420160828002510808/28/16 00:25:31  5-MIN K0J4 280525Z AUTO 00000KT 10SM CLR 25/21 A3004 210 79 1500 000/00 RMK AO2 T02500211
63870K0J4 0J420160828005513308/28/16 00:55:31  5-MIN K0J4 280555Z AUTO 03003KT 10SM CLR 24/21 A3003 220 84 1300 030/03 RMK AO2 SLP164 T02390211 10283 20239 51017
63870K0J4 0J420160828010010808/28/16 01:00:31  5-MIN K0J4 280600Z AUTO 04003KT 10SM CLR 24/21 A3003 220 84 1300 040/03 RMK AO2 T02390211
63870K0J4 0J420160828010513408/28/16 01:05:31  5-MIN K0J4 280605Z AUTO 03004IN K0J4 280845Z AUTO 04004KT 10SM CLR 23/21 A3002 220 84 1300 040/04 RMK AO2 T02330206
63870K0J4 0J420160828035010808/28/16 03:50:31  5-MIN K0J4 280850Z AUTO 04003KT 10SM CLR 23/21 A3002 220 84 1300 040/03 RMK AO2 T02330206
63870K0J4 0J420160828035512108/28/16 03:55:31  5-MIN K0J4 280855Z AUTO 05003KT 10SM CLR 23/21 A3002 220 84 1300 050/03 RMK AO2 SLP161 T02330206 58005
63870K0J4 0J420160828040012608/28/16 04:00:31  5-MIN K0J4 280900Z AUTO 05003KT 10SM CLR 23/21 A3002 220 24/22 A3008 170 87 1300 080/07 RMK AO2 T02440222 $
63870K0J4 0J420160828075510308/28/16 07:55:31  5-MIN K0J4 281255Z AUTO 08008KT 10SM FEW008 24/22 A3008 170 87 1300 080/08 RMK AO2 $
63870K0J4 0J420160828172013208/28/16 17:20:31  5-MIN K0J4 282220Z AUTO 00000KT 10SM BKN070 BKN090 27/24 A2999 250 87 1700 000/00 RMK AO2 RAE18 P0000 T02670244 $
63870K0J4 0J420160828172513208/28/16 17:25:31  5-MIN K0J4 282225Z AUTO 00000KT 10SM BKN070 BKN085 27/24 A2999 250 87 1700 000/00 RMK AO2 RAE18 P0000 T02670244 $
63870K0J4 0J420160828173013208/28/16 17:30:31  5-MIN K0J4 282230Z AUTO 00000KT 10SM BKN070 BKN090 27/24 A2999 250 87 1700 000/00 RMK AO2 RAE18 P0000 T02670244 $
63870K0J4 0J420160828173513208/28/16 17:35:31  5-MIN K0J4 282235Z AUTO 00000KT 10SM BKN070 BKN090 27/24 A2999 250 87 1700 000/00 RMK AO2 RAE18 P0000 T02670244 $
63870K0J4 0J420160828174012508/28/16 17:40:31  5-MIN K0J4 282240Z AUTO 00000KT 10SM BKN070 27/24 A2999 250 87 1700 000/00 RMK AO2 RAE18 P0000 T02670244 $
63870K0J4 0J420160828174512508/28/16 17:45:31  5-MIN K0J4 282245Z AUTO 00000KT 10SM BKN070 27/25 A2998 260 87 1800 000/00 RMK AO2 RAE18 P0000 T02720250 $
63870K0J4 0J420160828175012508/28/16 17:50:31  5-MIN K0J4 282250Z AUTO 36003KT 10SM SCT070 27/24 A2998 260 87 1700 360/03 RMK AO2 RAE18 P0000 T02670244 $
63870K0J4 0J420160828175513208/28/16 17:55:31  5-MIN K0J4 282255Z AUTO 00000KT 10SM SCT070 27/24 A2998 260 87 1700 000/00 RMK AO2 RAE18 SLP148 P0000 T02670244 $
63870K0J4 0J420160828180011308/28/16 18:00:31  5-MIN K0J4 282300Z AUTO 00000KT 10SM FEW070 27/24 A2998 260 84 1800 000/00 RMK AO2 T02720244 $
63870K0J4 0J420160828180511308/28/16 18:05:31  5-MIN K0J4 282305Z AUTO 35003KT 10SM FEW070 27/24 A2998 260 87 1700 350/03 RMK AO2 T02670244 $
63870K0J4 0J420160828181011308/28/16 18:10:31  5-MIN K0J4 282310Z AUTO 00000KT 10SM FEW065 27/25 A2999 250 90 1700 000/00 RMK AO2 T02670250 $
63870K0J4 0J420160828181511008/28/16 18:15:31  5-MIN K0J4 282315Z AUTO 35003KT 10SM CLR 27/25 A2999 250 90 1700 350/03 RMK AO2 T02670250 $
63870K0J4 0J420160828182011008/28/16 18:20:31  5-MIN K0J4 282320Z AUTO 00000KT 10SM CLR 27/24 A2999 250 87 1700 000/00 RMK AO2 T02670244 $
63870K0J4 0J420160828182511008/28/16 18:25:31  5-MIN K0J4 282325Z AUTO 00000KT 10SM CLR 27/24 A2999 250 87 1700 000/00 RMK AO2 T02670244 $
63870K0J4 0J420160828183011008/28/16 18:30:31  5-MIN K0J4 282330Z AUTO 00000KT 10SM CLR 27/24 A3000 250 87 1700 000/00 RMK AO2 T02670244 $
63870K0J4 0J420160828183511008/28/16 18:35:31  5-MIN K0J4 282335Z AUTO 00000KT 10SM CLR 27/24 A3000 250 87 1700 000/00 RMK AO2 T02670244 $
63870K0J4 0J420160828184011008/28/16 18:40:31  5-MIN K0J4 282340Z AUTO 00000KT 10SM CLR 27/24 A3000 240 87 1700 000/00 RMK AO2 T02670244 $
63870K0J4 0J420160828184511008/28/16 18:45:31  5-MIN K0J4 282345Z AUTO 00000KT 10SM CLR 26/24 A3000 240 90 1600 000/00 RMK AO2 T02610244 $
63870K0J4 0J420160828185011008/28/16 18:50:31  5-MIN K0J4 282350Z AUTO 00000KT 10SM CLR 26/24 A3000 240 90 1600 000/00 RMK AO2 T02610244 $
63870K0J4 0J420160828185514108/28/16 18:55:31  5-MIN K0J4 282355Z AUTO 00000KT 10SM CLR 26/24 A3000 240 93 1600 000/00 RMK AO2 SLP154 60047 T02560244 10333 20239 56017 $
63870K0J4 0J420160828190011008/28/16 19:00:31  5-MIN K0J4 290000Z AUTO 00000KT 10SM CLR 26/24 A3000 240 93 1600 000/00 RMK AO2 T02560244 $
63870K0J4 0J420160828190511008/28/16 19:05:31  5-MIN K0J4 290005Z AUTO 00000KT 10SM CLR 26/24 A3000 240 93 1600 000/00 RMK AO2 T02560244 $
63870K0J4 0J420160828191011008/28/16 19:10:31  5-MIN K0J4 290010Z AUTO 00000KT 10SM CLR 26/24 A3000 250 93 1600 000/00 RMK AO2 T02560244 $
63870K0J4 0J420160828191511008/28/16 19:15:31  5-MIN K0J4 290015Z AUTO 00000KT 10SM CLR 26/24 A3000 250 90 1600 000/00 RMK AO2 T02610244 $
63870K0J4 0J420160828192011008/28/16 19:20:31  5-MIN K0J4 290020Z AUTO 00000KT 10SM CLR 26/24 A3000 250 90 1600 000/00 RMK AO2 T02610244 $
63870K0J4 0J420160828192511008/28/16 19:25:31  5-MIN K0J4 290025Z AUTO 00000KT 10SM CLR 26/24 A3000 240 93 1600 000/00 RMK AO2 T02560244 $
63870K0J4 0J420160828193011008/28/16 19:30:31  5-MIN K0J4 290030Z AUTO 00000KT 10SM CLR 26/24 A3000 240 90 1600 000/00 RMK AO2 T02560239 $
63870K0J4 0J420160828193511008/28/16 19:35:31  5-MIN K0J4 290035Z AUTO 00000KT 10SM CLR 26/24 A3000 240 90 1600 000/00 RMK AO2 T02560239 $
63870K0J4 0J420160828194011008/28/16 19:40:31  5-MIN K0J4 290040Z AUTO 00000KT 10SM CLR 26/24 A3000 240 93 1600 000/00 RMK AO2 T02560244 $
63870K0J4 0J420160828194511008/28/16 19:45:31  5-MIN K0J4 290045Z AUTO 00000KT 10SM CLR 26/24 A3000 240 90 1600 000/00 RMK AO2 T02560239 $
63870K0J4 0J420160828195011008/28/16 19:50:31  5-MIN K0J4 290050Z AUTO 00000KT 10SM CLR 26/24 A3000 240 90 1600 000/00 RMK AO2 T02560239 $
63870K0J4 0J420160828195511708/28/16 19:55:31  5-MIN K0J4 290055Z AUTO 00000KT 10SM CLR 26/24 A3000 240 90 1600 000/00 RMK AO2 SLP156 T02560239 $
63870K0J4 0J420160828200011008/28/16 20:00:31  5-MIN K0J4 290100Z AUTO 00000KT 10SM CLR 26/24 A3000 240 90 1600 000/00 RMK AO2 T02560239 $
63870K0J4 0J420160828200511008/28/16 20:05:31  5-MIN K0J4 290105Z AUTO 00000KT 10SM CLR 26/24 A3000 240 90 1600 000/00 RMK AO2 T02560239 $
63870K0J4 0J420160828201011008/28/16 20:10:31  5-MIN K0J4 290110Z AUTO 00000KT 10SM CLR 25/23 A3001 240 90 1500 000/00 RMK AO2 T02500233 $
63870K0J4 0J420160828201511008/28/16 20:15:31  5-MIN K0J4 290115Z AUTO 00000KT 10SM CLR 25/23 A3001 240 90 1500 000/00 RMK AO2 T02500233 $
63870K0J4 0J420160828202011008/28/16 20:20:31  5-MIN K0J4 290120Z AUTO 00000KT 10SM CLR 25/23 A3001 240 90 1500 000/00 RMK AO2 T02500233 $
63870K0J4 0J420160828202511008/28/16 20:25:31  5-MIN K0J4 290125Z AUTO 00000KT 10SM CLR 25/23 A3001 240 90 1500 000/00 RMK AO2 T02500233 $
63870K0J4 0J420160828203011008/28/16 20:30:31  5-MIN K0J4 290130Z AUTO 00000KT 10SM CLR 25/23 A3001 230 90 1500 000/00 RMK AO2 T02500233 $
63870K0J4 0J420160828203511008/28/16 20:35:31  5-MIN K0J4 290135Z AUTO 00000KT 10SM CLR 25/23 A3001 230 90 1500 000/00 RMK AO2 T02500233 $
63870K0J4 0J420160828204011008/28/16 20:40:31  5-MIN K0J4 290140Z AUTO 36003KT 10SM CLR 25/23 A3001 230 90 1500 360/03 RMK AO2 T02500233 $
63870K0J4 0J420160828204511008/28/16 20:45:31  5-MIN K0J4 290145Z AUTO 00000KT 10SM CLR 25/24 A3001 230 93 1500 000/00 RMK AO2 T02500239 $
63870K0J4 0J420160828205011008/28/16 20:50:31  5-MIN K0J4 290150Z AUTO 00000KT 10SM CLR 25/24 A3001 230 93 1500 000/00 RMK AO2 T02500239 $
63870K0J4 0J420160828205511708/28/16 20:55:31  5-MIN K0J4 290155Z AUTO 00000KT 10SM CLR 25/23 A3001 230 90 1500 000/00 RMK AO2 SLP159 T02500233 $
63870K0J4 0J420160828210011008/28/16 21:00:31  5-MIN K0J4 290200Z AUTO 00000KT 10SM CLR 25/24 A3002 230 93 1500 000/00 RMK AO2 T02500239 $
63870K0J4 0J420160828210511008/28/16 21:05:31  5-MIN K0J4 290205Z AUTO 00000KT 10SM CLR 25/24 A3002 220 93 1500 000/00 RMK AO2 T02500239 $
63870K0J4 0J420160828211011008/28/16 21:10:31  5-MIN K0J4 290210Z AUTO 00000KT 10SM CLR 25/24 A3002 220 93 1500 000/00 RMK AO2 T02500239 $
63870K0J4 0J420160828211511008/28/16 21:15:31  5-MIN K0J4 290215Z AUTO 00000KT 10SM CLR 25/23 A3003 220 90 1500 000/00 RMK AO2 T02500233 $
63870K0J4 0J420160828212011008/28/16 21:20:31  5-MIN K0J4 290220Z AUTO 00000KT 10SM CLR 25/24 A3002 220 93 1500 000/00 RMK AO2 T02500239 $
63870K0J4 0J420160828212511008/28/16 21:25:31  5-MIN K0J4 290225Z AUTO 00000KT 10SM CLR 25/24 A3003 220 93 1500 000/00 RMK AO2 T02500239 $
63870K0J4 0J420160828213011008/28/16 21:30:31  5-MIN K0J4 290230Z AUTO 00000KT 10SM CLR 25/23 A3003 220 90 1500 000/00 RMK AO2 T02500233 $
63870K0J4 0J420160828213511008/28/16 21:35:31  5-MIN K0J4 290235Z AUTO 20005KT 10SM CLR 24/23 A3003 220 93 1400 200/05 RMK AO2 T02440233 $
63870K0J4 0J420160828214011008/28/16 21:40:31  5-MIN K0J4 290240Z AUTO 19004KT 10SM CLR 25/24 A3003 210 93 1500 190/04 RMK AO2 T02500239 $
63870K0J4 0J420160828214511008/28/16 21:45:31  5-MIN K0J4 290245Z AUTO 00000KT 10SM CLR 25/24 A3003 210 93 1500 000/00 RMK AO2 T02500239 $
63870K0J4 0J420160828215011008/28/16 21:50:31  5-MIN K0J4 290250Z AUTO 20003KT 10SM CLR 25/24 A3003 210 93 1500 200/03 RMK AO2 T02500239 $
63870K0J4 0J420160828215512308/28/16 21:55:31  5-MIN K0J4 290255Z AUTO 00000KT 10SM CLR 25/23 A3004 210 90 1500 000/00 RMK AO2 SLP166 T02500233 55003 $
63870K0J4 0J420160828220011008/28/16 22:00:31  5-MIN K0J4 290300Z AUTO 00000KT 10SM CLR 25/23 A3003 210 90 1500 000/00 RMK AO2 T02500233 $
63870K0J4 0J420160828220511008/28/16 22:05:31  5-MIN K0J4 290305Z AUTO 22003KT 10SM CLR 25/23 A3003 210 90 1500 220/03 RMK AO2 T02500233 $
63870K0J4 0J420160828221011008/28/16 22:10:31  5-MIN K0J4 290310Z AUTO 00000KT 10SM CLR 25/23 A3003 210 90 1500 000/00 RMK AO2 T02500233 $
63870K0J4 0J420160828221511008/28/16 22:15:31  5-MIN K0J4 290315Z AUTO 00000KT 10SM CLR 25/23 A3003 210 90 1500 000/00 RMK AO2 T02500233 $
63870K0J4 0J420160828222011008/28/16 22:20:31  5-MIN K0J4 290320Z AUTO 00000KT 10SM CLR 24/23 A3003 210 93 1400 000/00 RMK AO2 T02440233 $
63870K0J4 0J420160828222511008/28/16 22:25:31  5-MIN K0J4 290325Z AUTO 00000KT 10SM CLR 24/23 A3003 210 93 1400 000/00 RMK AO2 T02440233 $
63870K0J4 0J420160828223011008/28/16 22:30:31  5-MIN K0J4 290330Z AUTO 00000KT 10SM CLR 24/23 A3003 210 93 1400 000/00 RMK AO2 T02440233 $
63870K0J4 0J420160828223511008/28/16 22:35:31  5-MIN K0J4 290335Z AUTO 00000KT 10SM CLR 24/23 A3003 210 93 1400 000/00 RMK AO2 T02440233 $
63870K0J4 0J420160828224011008/28/16 22:40:31  5-MIN K0J4 290340Z AUTO 00000KT 10SM CLR 24/23 A3004 210 93 1400 000/00 RMK AO2 T02440233 $
63870K0J4 0J420160828224511008/28/16 22:45:31  5-MIN K0J4 290345Z AUTO 00000KT 10SM CLR 24/23 A3004 210 93 1400 000/00 RMK AO2 T02440233 $
63870K0J4 0J420160828225010908/28/16 22:50:31  5-MIN K0J4 290350Z AUTO 00000KT 9SM CLR 24/23 A3003 210 93 1400 000/00 RMK AO2 T02440233 $
63870K0J4 0J420160828225511608/28/16 22:55:31  5-MIN K0J4 290355Z AUTO 00000KT 9SM CLR 24/23 A3003 210 93 1400 000/00 RMK AO2 SLP166 T02440233 $
63870K0J4 0J420160828230011008/28/16 23:00:31  5-MIN K0J4 290400Z AUTO 00000KT 10SM CLR 24/23 A3003 210 93 1400 000/00 RMK AO2 T02440233 $
63870K0J4 0J420160828230511008/28/16 23:05:31  5-MIN K0J4 290405Z AUTO 00000KT 10SM CLR 24/23 A3003 210 93 1400 000/00 RMK AO2 T02440233 $
63870K0J4 0J420160828231011008/28/16 23:10:31  5-MIN K0J4 290410Z AUTO 00000KT 10SM CLR 24/23 A3003 210 93 1400 000/00 RMK AO2 T02440233 $
63870K0J4 0J420160828231511008/28/16 23:15:31  5-MIN K0J4 290415Z AUTO 00000KT 10SM CLR 24/23 A3003 210 90 1400 000/00 RMK AO2 T02440228 $
63870K0J4 0J420160828232010908/28/16 23:20:31  5-MIN K0J4 290420Z AUTO 00000KT 9SM CLR 24/23 A3003 210 93 1300 000/00 RMK AO2 T02390228 $
63870K0J4 0J420160828232510908/28/16 23:25:31  5-MIN K0J4 290425Z AUTO 00000KT 9SM CLR 24/23 A3003 220 93 1300 000/00 RMK AO2 T02390228 $
63870K0J4 0J420160828233010908/28/16 23:30:31  5-MIN K0J4 290430Z AUTO 00000KT 9SM CLR 24/23 A3003 220 93 1300 000/00 RMK AO2 T02390228 $
63870K0J4 0J420160828233510908/28/16 23:35:31  5-MIN K0J4 290435Z AUTO 00000KT 9SM CLR 24/23 A3002 220 93 1300 000/00 RMK AO2 T02390228 $
63870K0J4 0J420160828234010908/28/16 23:40:31  5-MIN K0J4 290440Z AUTO 00000KT 9SM CLR 23/22 A3002 220 93 1300 000/00 RMK AO2 T02330222 $
63870K0J4 0J420160828234510908/28/16 23:45:31  5-MIN K0J4 290445Z AUTO 00000KT 9SM CLR 24/23 A3002 220 93 1300 000/00 RMK AO2 T02390228 $
63870K0J4 0J420160828235010908/28/16 23:50:31  5-MIN K0J4 290450Z AUTO 00000KT 9SM CLR 23/22 A3002 230 93 1300 000/00 RMK AO2 T02330222 $
63870K0J4 0J420160828235512608/28/16 23:55:31  5-MIN K0J4 290455Z AUTO 00000KT 9SM CLR 23/22 A3002 230 93 1300 000/00 RMK AO2 SLP160 T02330222 403330228 $
63870K0J4 0J420160829000010908/29/16 00:00:31  5-MIN K0J4 290500Z AUTO 00000KT 9SM CLR 23/22 A3002 230 93 1300 000/00 RMK AO2 T02330222 $
63870K0J4 0J420160829000510908/29/16 00:05:31  5-MIN K0J4 290505Z AUTO 00000KT 9SM CLR 23/22 A3002 230 93 1300 000/00 RMK AO2 T02330222 $
63870K0J4 0J420160829001011008/29/16 00:10:31  5-MIN K0J4 290510Z AUTO 00000KT 10SM CLR 23/22 A3002 220 93 1300 000/00 RMK AO2 T02330222 $
63870K0J4 0J420160829001511008/29/16 00:15:31  5-MIN K0J4 290515Z AUTO 00000KT 10SM CLR 23/22 A3002 230 93 1300 000/00 RMK AO2 T02330222 $
63870K0J4 0J420160829002011008/29/16 00:20:31  5-MIN K0J4 290520Z AUTO 00000KT 10SM CLR 23/23 A3002 230 97 1300 000/00 RMK AO2 T02330228 $
63870K0J4 0J420160829002511008/29/16 00:25:31  5-MIN K0J4 290525Z AUTO 00000KT 10SM CLR 24/23 A3002 230 93 1300 000/00 RMK AO2 T02390228 $
63870K0J4 0J420160829003011008/29/16 00:30:31  5-MIN K0J4 290530Z AUTO 00000KT 10SM CLR 23/23 A3002 230 97 1300 000/00 RMK AO2 T02330228 $
63870K0J4 0J420160829003511008/29/16 00:35:31  5-MIN K0J4 290535Z AUTO 00000KT 10SM CLR 23/23 A3002 230 97 1300 000/00 RMK AO2 T02330228 $
63870K0J4 0J420160829004011008/29/16 00:40:31  5-MIN K0J4 290540Z AUTO 00000KT 10SM CLR 24/23 A3002 230 93 1300 000/00 RMK AO2 T02390228 $
63870K0J4 0J420160829004511008/29/16 00:45:31  5-MIN K0J4 290545Z AUTO 00000KT 10SM CLR 24/23 A3002 230 93 1400 000/00 RMK AO2 T02390228 $
63870K0J4 0J420160829005011008/29/16 00:50:31  5-MIN K0J4 290550Z AUTO 00000KT 10SM CLR 24/23 A3002 230 93 1400 000/00 RMK AO2 T02390228 $
63870K0J4 0J420160829005513508/29/16 00:55:31  5-MIN K0J4 290555Z AUTO 00000KT 10SM CLR 24/23 A3001 230 93 1400 000/00 RMK AO2 SLP159 T02390228 10261 20233 53012 $
63870K0J4 0J420160829010011008/29/16 01:00:31  5-MIN K0J4 290600Z AUTO 00000KT 10SM CLR 24/23 A3001 230 93 1400 000/00 RMK AO2 T02390228 $
63870K0J4 0J420160829010511008/29/16 01:05:31  5-MIN K0J4 290605Z AUTO 00000KT 10SM CLR 23/22 A3002 230 93 1300 000/00 RMK AO2 T02330222 $
63870K0J4 0J420160829011011008/29/16 01:10:31  5-MIN K0J4 290610Z AUTO 03003KT 10SM CLR 24/23 A3002 230 93 1400 030/03 RMK AO2 T02390228 $
63870K0J4 0J420160829011511008/29/16 01:15:31  5-MIN K0J4 290615Z AUTO 02003KT 10SM CLR 23/22 A3002 230 93 1300 020/03 RMK AO2 T02330222 $
63870K0J4 0J420160829012011008/29/16 01:20:31  5-MIN K0J4 290620Z AUTO 03005KT 10SM CLR 23/22 A3002 230 93 1300 030/05 RMK AO2 T02330222 $
63870K0J4 0J420160829012511008/29/16 01:25:31  5-MIN K0J4 290625Z AUTO 03004KT 10SM CLR 24/22 A3001 230 90 1400 030/04 RMK AO2 T02390222 $
63870K0J4 0J420160829013011008/29/16 01:30:31  5-MIN K0J4 290630Z AUTO 03003KT 10SM CLR 24/22 A3001 230 90 1400 030/03 RMK AO2 T02390222 $
63870K0J4 0J420160829013511008/29/16 01:35:31  5-MIN K0J4 290635Z AUTO 03003KT 10SM CLR 24/22 A3001 230 90 1400 030/03 RMK AO2 T02390222 $
63870K0J4 0J420160829014011008/29/16 01:40:31  5-MIN K0J4 290640Z AUTO 00000KT 10SM CLR 24/22 A3001 230 90 1400 000/00 RMK AO2 T02390222 $
63870K0J4 0J420160829014511008/29/16 01:45:31  5-MIN K0J4 290645Z AUTO 00000KT 10SM CLR 24/22 A3001 230 90 1400 000/00 RMK AO2 T02390222 $
63870K0J4 0J420160829015011008/29/16 01:50:31  5-MIN K0J4 290650Z AUTO 00000KT 10SM CLR 24/22 A3001 230 90 1400 000/00 RMK AO2 T02390222 $
63870K0J4 0J420160829015511708/29/16 01:55:31  5-MIN K0J4 290655Z AUTO 00000KT 10SM CLR 24/22 A3001 230 90 1400 000/00 RMK AO2 SLP158 T02390222 $
63870K0J4 0J420160829020011008/29/16 02:00:31  5-MIN K0J4 290700Z AUTO 00000KT 10SM CLR 24/22 A3001 230 90 1400 000/00 RMK AO2 T02390222 $
63870K0J4 0J420160829020511008/29/16 02:05:31  5-MIN K0J4 290705Z AUTO 00000KT 10SM CLR 23/22 A3001 230 93 1300 000/00 RMK AO2 T02330222 $
63870K0J4 0J420160829021011008/29/16 02:10:31  5-MIN K0J4 290710Z AUTO 00000KT 10SM CLR 23/22 A3001 230 90 1300 000/00 RMK AO2 T02330217 $
63870K0J4 0J420160829021511008/29/16 02:15:31  5-MIN K0J4 290715Z AUTO 05003KT 10SM CLR 23/22 A3001 230 90 1300 050/03 RMK AO2 T02330217 $
63870K0J4 0J420160829022011008/29/16 02:20:31  5-MIN K0J4 290720Z AUTO 05003KT 10SM CLR 23/22 A3001 230 93 1300 050/03 RMK AO2 T02330222 $
63870K0J4 0J420160829022511008/29/16 02:25:31  5-MIN K0J4 290725Z AUTO 04004KT 10SM CLR 23/22 A3001 230 93 1300 040/04 RMK AO2 T02330222 $
63870K0J4 0J420160829023011008/29/16 02:30:31  5-MIN K0J4 290730Z AUTO 04004KT 10SM CLR 23/22 A3002 230 93 1300 040/04 RMK AO2 T02330222 $
63870K0J4 0J420160829023511008/29/16 02:35:31  5-MIN K0J4 290735Z AUTO 05003KT 10SM CLR 23/22 A3002 230 90 1300 050/03 RMK AO2 T02330217 $
63870K0J4 0J420160829024011008/29/16 02:40:31  5-MIN K0J4 290740Z AUTO 05003KT 10SM CLR 23/22 A3002 230 90 1300 050/03 RMK AO2 T02330217 $
63870K0J4 0J420160829024511008/29/16 02:45:31  5-MIN K0J4 290745Z AUTO 06003KT 10SM CLR 23/22 A3002 230 90 1300 060/03 RMK AO2 T02330217 $
63870K0J4 0J420160829025011008/29/16 02:50:31  5-MIN K0J4 290750Z AUTO 08003KT 10SM CLR 24/22 A3002 230 87 1400 080/03 RMK AO2 T02390217 $
63870K0J4 0J420160829025511708/29/16 02:55:31  5-MIN K0J4 290755Z AUTO 00000KT 10SM CLR 23/22 A3002 220 90 1300 000/00 RMK AO2 SLP161 T02330217 $
63870K0J4 0J420160829030011008/29/16 03:00:31  5-MIN K0J4 290800Z AUTO 07003KT 10SM CLR 23/22 A3002 230 90 1300 070/03 RMK AO2 T02330217 $
63870K0J4 0J420160829030511008/29/16 03:05:31  5-MIN K0J4 290805Z AUTO 07004KT 10SM CLR 23/22 A3002 220 90 1300 070/04 RMK AO2 T02330217 $
63870K0J4 0J420160829031011008/29/16 03:10:31  5-MIN K0J4 290810Z AUTO 07003KT 10SM CLR 23/22 A3002 220 90 1300 070/03 RMK AO2 T02330217 $
63870K0J4 0J420160829031511008/29/16 03:15:31  5-MIN K0J4 290815Z AUTO 06003KT 10SM CLR 23/22 A3002 220 90 1300 060/03 RMK AO2 T02330217 $
63870K0J4 0J420160829032011008/29/16 03:20:31  5-MIN K0J4 290820Z AUTO 07003KT 10SM CLR 23/22 A3002 220 90 1300 070/03 RMK AO2 T02330217 $
63870K0J4 0J420160829032511008/29/16 03:25:31  5-MIN K0J4 290825Z AUTO 06003KT 10SM CLR 23/21 A3002 220 87 1300 060/03 RMK AO2 T02330211 $
63870K0J4 0J420160829033011008/29/16 03:30:31  5-MIN K0J4 290830Z AUTO 06004KT 10SM CLR 23/21 A3002 220 87 1300 060/04 RMK AO2 T02330211 $
63870K0J4 0J420160829033511008/29/16 03:35:31  5-MIN K0J4 290835Z AUTO 07003KT 10SM CLR 23/21 A3002 220 87 1300 070/03 RMK AO2 T02330211 $
63870K0J4 0J420160829034011008/29/16 03:40:31  5-MIN K0J4 290840Z AUTO 06003KT 10SM CLR 23/21 A3002 220 87 1300 060/03 RMK AO2 T02330211 $
63870K0J4 0J420160829034511008/29/16 03:45:31  5-MIN K0J4 290845Z AUTO 00000KT 10SM CLR 23/21 A3003 220 87 1300 000/00 RMK AO2 T02330211 $
63870K0J4 0J420160829035011008/29/16 03:50:31  5-MIN K0J4 290850Z AUTO 00000KT 10SM CLR 23/21 A3003 220 90 1200 000/00 RMK AO2 T02280211 $
63870K0J4 0J420160829035512308/29/16 03:55:31  5-MIN K0J4 290855Z AUTO 00000KT 10SM CLR 23/21 A3002 220 90 1200 000/00 RMK AO2 SLP162 T02280211 58006 $
63870K0J4 0J420160829040011008/29/16 04:00:31  5-MIN K0J4 290900Z AUTO 00000KT 10SM CLR 23/21 A3002 220 90 1200 000/00 RMK AO2 T02280211 $
63870K0J4 0J420160829040511008/29/16 04:05:31  5-MIN K0J4 290905Z AUTO 08003KT 10SM CLR 23/21 A3002 220 90 1200 080/03 RMK AO2 T02280211 $
63870K0J4 0J420160829041011008/29/16 04:10:31  5-MIN K0J4 290910Z AUTO 08003KT 10SM CLR 23/21 A3002 220 90 1200 080/03 RMK AO2 T02280211 $
63870K0J4 0J420160829041511008/29/16 04:15:31  5-MIN K0J4 290915Z AUTO 08003KT 10SM CLR 23/21 A3002 220 87 1300 080/03 RMK AO2 T02330211 $
63870K0J4 0J420160829042011008/29/16 04:20:31  5-MIN K0J4 290920Z AUTO 08004KT 10SM CLR 23/21 A3002 220 90 1200 080/04 RMK AO2 T02280211 $
63870K0J4 0J420160829042511008/29/16 04:25:31  5-MIN K0J4 290925Z AUTO 07003KT 10SM CLR 23/21 A3002 220 90 1200 070/03 RMK AO2 T02280211 $
63870K0J4 0J420160829043011008/29/16 04:30:31  5-MIN K0J4 290930Z AUTO 07003KT 10SM CLR 23/21 A3002 220 90 1200 070/03 RMK AO2 T02280211 $
63870K0J4 0J420160829043511008/29/16 04:35:31  5-MIN K0J4 290935Z AUTO 07003KT 10SM CLR 23/21 A3002 230 90 1200 070/03 RMK AO2 T02280211 $
63870K0J4 0J420160829044011008/29/16 04:40:31  5-MIN K0J4 290940Z AUTO 07003KT 10SM CLR 23/21 A3002 220 90 1200 070/03 RMK AO2 T02280211 $
63870K0J4 0J420160829044511008/29/16 04:45:31  5-MIN K0J4 290945Z AUTO 07004KT 10SM CLR 23/21 A3002 220 90 1200 070/04 RMK AO2 T02280211 $
63870K0J4 0J420160829045011008/29/16 04:50:31  5-MIN K0J4 290950Z AUTO 07003KT 10SM CLR 23/21 A3002 220 90 1200 070/03 RMK AO2 T02280211 $
63870K0J4 0J420160829045511708/29/16 04:55:31  5-MIN K0J4 290955Z AUTO 07004KT 10SM CLR 23/21 A3002 230 90 1200 070/04 RMK AO2 SLP161 T02280211 $
63870K0J4 0J420160829050011008/29/16 05:00:31  5-MIN K0J4 291000Z AUTO 07003KT 10SM CLR 23/21 A3002 220 90 1200 070/03 RMK AO2 T02280211 $
63870K0J4 0J420160829050511008/29/16 05:05:31  5-MIN K0J4 291005Z AUTO 07003KT 10SM CLR 23/21 A3002 220 90 1200 070/03 RMK AO2 T02280211 $
63870K0J4 0J420160829051011008/29/16 05:10:31  5-MIN K0J4 291010Z AUTO 07004KT 10SM CLR 23/21 A3002 220 87 1200 070/04 RMK AO2 T02280206 $
63870K0J4 0J420160829051511008/29/16 05:15:31  5-MIN K0J4 291015Z AUTO 08003KT 10SM CLR 23/21 A3002 220 87 1200 080/03 RMK AO2 T02280206 $
63870K0J4 0J420160829052011008/29/16 05:20:31  5-MIN K0J4 291020Z AUTO 08003KT 10SM CLR 22/21 A3002 220 90 1200 080/03 RMK AO2 T02220206 $
63870K0J4 0J420160829052511008/29/16 05:25:31  5-MIN K0J4 291025Z AUTO 06003KT 10SM CLR 22/21 A3002 220 90 1200 060/03 RMK AO2 T02220206 $
63870K0J4 0J420160829053011008/29/16 05:30:31  5-MIN K0J4 291030Z AUTO 06004KT 10SM CLR 22/21 A3003 220 90 1200 060/04 RMK AO2 T02220206 $
63870K0J4 0J420160829053511008/29/16 05:35:31  5-MIN K0J4 291035Z AUTO 06003KT 10SM CLR 22/21 A3003 220 90 1200 060/03 RMK AO2 T02220206 $
63870K0J4 0J420160829054011008/29/16 05:40:31  5-MIN K0J4 291040Z AUTO 07004KT 10SM CLR 22/21 A3003 220 90 1100 070/04 RMK AO2 T02220206 $
63870K0J4 0J420160829054511008/29/16 05:45:31  5-MIN K0J4 291045Z AUTO 06004KT 10SM CLR 22/21 A3003 220 90 1100 060/04 RMK AO2 T02220206 $
63870K0J4 0J420160829055011008/29/16 05:50:31  5-MIN K0J4 291050Z AUTO 06004KT 10SM CLR 22/21 A3003 220 90 1100 060/04 RMK AO2 T02220206 $
63870K0J4 0J420160829055511708/29/16 05:55:31  5-MIN K0J4 291055Z AUTO 06004KT 10SM CLR 22/21 A3003 210 90 1100 060/04 RMK AO2 SLP165 T02220206 $
63870K0J4 0J420160829060011008/29/16 06:00:31  5-MIN K0J4 291100Z AUTO 06004KT 10SM CLR 22/21 A3003 210 90 1100 060/04 RMK AO2 T02220206 $
63870K0J4 0J420160829060511008/29/16 06:05:31  5-MIN K0J4 291105Z AUTO 06004KT 10SM CLR 22/21 A3003 210 90 1100 060/04 RMK AO2 T02220206 $
63870K0J4 0J420160829061011008/29/16 06:10:31  5-MIN K0J4 291110Z AUTO 07004KT 10SM CLR 22/21 A3003 210 93 1100 070/04 RMK AO2 T02220211 $
63870K0J4 0J420160829061511008/29/16 06:15:31  5-MIN K0J4 291115Z AUTO 07004KT 10SM CLR 22/21 A3004 210 93 1100 070/04 RMK AO2 T02220211 $
63870K0J4 0J420160829062011008/29/16 06:20:31  5-MIN K0J4 291120Z AUTO 06004KT 10SM CLR 22/21 A3004 210 90 1100 060/04 RMK AO2 T02220206 $
63870K0J4 0J420160829062511008/29/16 06:25:31  5-MIN K0J4 291125Z AUTO 07004KT 10SM CLR 22/21 A3004 210 93 1100 070/04 RMK AO2 T02220211 $
63870K0J4 0J420160829063011008/29/16 06:30:31  5-MIN K0J4 291130Z AUTO 07004KT 10SM CLR 22/21 A3004 210 93 1100 070/04 RMK AO2 T02220211 $
63870K0J4 0J420160829063511008/29/16 06:35:31  5-MIN K0J4 291135Z AUTO 06004KT 10SM CLR 22/21 A3004 210 93 1100 060/04 RMK AO2 T02220211 $
63870K0J4 0J420160829064011008/29/16 06:40:31  5-MIN K0J4 291140Z AUTO 06004KT 10SM CLR 22/21 A3004 210 93 1100 060/04 RMK AO2 T02220211 $
63870K0J4 0J420160829064511008/29/16 06:45:31  5-MIN K0J4 291145Z AUTO 06005KT 10SM CLR 23/21 A3004 200 90 1200 060/05 RMK AO2 T02280211 $
63870K0J4 0J420160829065011008/29/16 06:50:31  5-MIN K0J4 291150Z AUTO 05005KT 10SM CLR 23/21 A3004 200 90 1200 050/05 RMK AO2 T02280211 $
63870K0J4 0J420160829065514108/29/16 06:55:31  5-MIN K0J4 291155Z AUTO 05005KT 10SM CLR 23/21 A3005 200 90 1200 050/05 RMK AO2 SLP170 70047 T02280211 10239 20222 53002 $
63870K0J4 0J420160829070011008/29/16 07:00:31  5-MIN K0J4 291200Z AUTO 06005KT 10SM CLR 23/21 A3005 200 90 1200 060/05 RMK AO2 T02280211 $
63870K0J4 0J420160829070511008/29/16 07:05:31  5-MIN K0J4 291205Z AUTO 06006KT 10SM CLR 23/22 A3005 200 93 1200 060/06 RMK AO2 T02280217 $
63870K0J4 0J420160829071011008/29/16 07:10:31  5-MIN K0J4 291210Z AUTO 06005KT 10SM CLR 23/22 A3005 200 90 1300 060/05 RMK AO2 T02330217 $
63870K0J4 0J420160829071511008/29/16 07:15:31  5-MIN K0J4 291215Z AUTO 06005KT 10SM CLR 23/22 A3005 200 90 1300 060/05 RMK AO2 T02330217 $
63870K0J4 0J420160829072011008/29/16 07:20:31  5-MIN K0J4 291220Z AUTO 06006KT 10SM CLR 23/22 A3005 200 90 1300 060/06 RMK AO2 T02330217 $
63870K0J4 0J420160829072510808/29/16 07:25:31  5-MIN K0J4 291225Z AUTO 06006KT 10SM CLR 24/22 A3005 200 87 1300 060/06 RMK AO2 T02390217
63870K0J4 0J420160829073010808/29/16 07:30:31  5-MIN K0J4 291230Z AUTO 06006KT 10SM CLR 24/22 A3005 200 90 1300 060/06 RMK AO2 T02390222
63870K0J4 0J420160829073510808/29/16 07:35:31  5-MIN K0J4 291235Z AUTO 07006KT 10SM CLR 24/22 A3005 190 90 1300 070/06 RMK AO2 T02390222
63870K0J4 0J420160829074010808/29/16 07:40:31  5-MIN K0J4 291240Z AUTO 06007KT 10SM CLR 24/22 A3005 200 87 1400 060/07 RMK AO2 T02440222
63870K0J4 0J420160829074510808/29/16 07:45:31  5-MIN K0J4 291245Z AUTO 06008KT 10SM CLR 24/22 A3005 200 87 1400 060/08 RMK AO2 T02440222
63870K0J4 0J420160829075010808/29/16 07:50:31  5-MIN K0J4 291250Z AUTO 07006KT 10SM CLR 24/22 A3005 190 87 1400 070/06 RMK AO2 T02440222
63870K0J4 0J420160829075511508/29/16 07:55:31  5-MIN K0J4 291255Z AUTO 07008KT 10SM CLR 24/22 A3005 190 87 1400 070/08 RMK AO2 SLP172 T02440222
63870K0J4 0J420160829080010808/29/16 08:00:31  5-MIN K0J4 291300Z AUTO 07007KT 10SM CLR 24/23 A3005 190 90 1400 070/07 RMK AO2 T02440228
63870K0J4 0J420160829080511108/29/16 08:05:31  5-MIN K0J4 291305Z AUTO 07007KT 10SM FEW006 25/23 A3005 190 87 1400 070/07 RMK AO2 T02500228
63870K0J4 0J420160829081011108/29/16 08:10:31  5-MIN K0J4 291310Z AUTO 08009KT 10SM FEW006 25/23 A3005 190 87 1400 080/09 RMK AO2 T02500228
63870K0J4 0J420160829081511108/29/16 08:15:31  5-MIN K0J4 291315Z AUTO 07008KT 10SM FEW006 25/23 A3006 190 87 1400 070/08 RMK AO2 T02500228
63870K0J4 0J420160829082011108/29/16 08:20:31  5-MIN K0J4 291320Z AUTO 07007KT 10SM FEW007 26/23 A3006 190 84 1500 070/07 RMK AO2 T02560228
63870K0J4 0J420160829082511108/29/16 08:25:31  5-MIN K0J4 291325Z AUTO 07007KT 10SM FEW007 26/23 A3006 190 84 1500 070/07 RMK AO2 T02560228
63870K0J4 0J420160829083011108/29/16 08:30:31  5-MIN K0J4 291330Z AUTO 07006KT 10SM SCT007 26/23 A3006 190 84 1600 070/06 RMK AO2 T02610233
63870K0J4 0J420160829083511108/29/16 08:35:31  5-MIN K0J4 291335Z AUTO 08008KT 10SM SCT007 26/23 A3006 190 84 1600 080/08 RMK AO2 T02610233
63870K0J4 0J420160829084011108/29/16 08:40:31  5-MIN K0J4 291340Z AUTO 08007KT 10SM SCT007 26/23 A3006 190 84 1600 080/07 RMK AO2 T02610233
63870K0J4 0J420160829084511108/29/16 08:45:31  5-MIN K0J4 291345Z AUTO 09007KT 10SM FEW007 27/23 A3006 190 82 1600 090/07 RMK AO2 T02670233
63870K0J4 0J420160829085011108/29/16 08:50:31  5-MIN K0J4 291350Z AUTO 08009KT 10SM SCT009 27/23 A3006 190 82 1600 080/09 RMK AO2 T02670233
63870K0J4 0J420160829085511808/29/16 08:55:31  5-MIN K0J4 291355Z AUTO 07009KT 10SM SCT009 27/23 A3006 190 82 1600 070/09 RMK AO2 SLP175 T02670233
63870K0J4 0J420160829090011108/29/16 09:00:31  5-MIN K0J4 291400Z AUTO 07007KT 10SM SCT011 27/23 A3006 180 79 1700 070/07 RMK AO2 T02720233
63870K0J4 0J420160829090511108/29/16 09:05:31  5-MIN K0J4 291405Z AUTO 08007KT 10SM SCT011 27/23 A3007 180 79 1700 080/07 RMK AO2 T02720233
63870K0J4 0J420160829091011108/29/16 09:10:31  5-MIN K0J4 291410Z AUTO 08009KT 10SM SCT011 27/23 A3007 180 79 1700 080/09 RMK AO2 T02720233
63870K0J4 0J420160829091511108/29/16 09:15:31  5-MIN K0J4 291415Z AUTO 09008KT 10SM SCT013 27/23 A3007 180 79 1700 090/08 RMK AO2 T02720233
63870K0J4 0J420160829092011108/29/16 09:20:31  5-MIN K0J4 291420Z AUTO 09008KT 10SM SCT013 27/23 A3007 180 79 1700 090/08 RMK AO2 T02720233
63870K0J4 0J420160829092511808/29/16 09:25:31  5-MIN K0J4 291425Z AUTO 10008KT 10SM SCT013 SCT019 27/23 A3007 180 76 1700 100/08 RMK AO2 T02720228
63870K0J4 0J420160829093011108/29/16 09:30:31  5-MIN K0J4 291430Z AUTO 09005KT 10SM SCT016 28/23 A3007 180 74 1700 090/05 RMK AO2 T02780228
63870K0J4 0J420160829093511108/29/16 09:35:31  5-MIN K0J4 291435Z AUTO 09007KT 10SM SCT016 28/23 A3007 180 76 1700 090/07 RMK AO2 T02780233
63870K0J4 0J420160829094011808/29/16 09:40:31  5-MIN K0J4 291440Z AUTO 09008KT 10SM BKN016 BKN024 27/23 A3007 180 76 1700 090/08 RMK AO2 T02720228
63870K0J4 0J420160829094511808/29/16 09:45:31  5-MIN K0J4 291445Z AUTO 08008KT 10SM BKN016 BKN024 28/23 A3007 180 74 1700 080/08 RMK AO2 T02780228
63870K0J4 0J420160829095011108/29/16 09:50:31  5-MIN K0J4 291450Z AUTO 08007KT 10SM BKN020 28/23 A3007 180 74 1700 080/07 RMK AO2 T02780228
63870K0J4 0J420160829095512408/29/16 09:55:31  5-MIN K0J4 291455Z AUTO 07009KT 10SM BKN020 28/23 A3007 180 71 1800 070/09 RMK AO2 SLP178 T02830228 53008
63870K0J4 0J420160829100011108/29/16 10:00:31  5-MIN K0J4 291500Z AUTO 06007KT 10SM SCT020 28/23 A3007 180 71 1800 060/07 RMK AO2 T02830228
63870K0J4 0J420160829100511108/29/16 10:05:31  5-MIN K0J4 291505Z AUTO 07009KT 10SM SCT020 29/23 A3007 180 69 1900 070/09 RMK AO2 T02890228
63870K0J4 0J420160829101011108/29/16 10:10:31  5-MIN K0J4 291510Z AUTO 08010KT 10SM BKN022 28/22 A3007 180 69 1800 080/10 RMK AO2 T02830222
63870K0J4 0J420160829101511808/29/16 10:15:31  5-MIN K0J4 291515Z AUTO 08009KT 10SM SCT020 SCT025 29/23 A3007 180 69 1900 080/09 RMK AO2 T02890228
63870K0J4 0J420160829102011108/29/16 10:20:31  5-MIN K0J4 291520Z AUTO 08008KT 10SM SCT022 28/23 A3007 180 71 1800 080/08 RMK AO2 T02830228
63870K0J4 0J420160829102511108/29/16 10:25:31  5-MIN K0J4 291525Z AUTO 09008KT 10SM FEW022 28/22 A3007 180 69 1800 090/08 RMK AO2 T02830222
63870K0J4 0J420160829103011808/29/16 10:30:31  5-MIN K0J4 291530Z AUTO 07009KT 10SM FEW022 SCT030 29/22 A3007 180 64 1900 070/09 RMK AO2 T02940222
63870K0J4 0J420160829103511808/29/16 10:35:31  5-MIN K0J4 291535Z AUTO 07009KT 10SM FEW022 SCT030 29/22 A3007 180 67 1900 070/09 RMK AO2 T02890222
63870K0J4 0J420160829104011808/29/16 10:40:31  5-MIN K0J4 291540Z AUTO 06009KT 10SM SCT025 SCT030 28/22 A3007 180 66 1800 060/09 RMK AO2 T02830217
63870K0J4 0J420160829104511808/29/16 10:45:31  5-MIN K0J4 291545Z AUTO 06010KT 10SM SCT025 SCT032 29/22 A3006 180 64 1900 060/10 RMK AO2 T02890217
63870K0J4 0J420160829105011808/29/16 10:50:31  5-MIN K0J4 291550Z AUTO 08009KT 10SM SCT025 SCT032 29/22 A3006 180 64 1900 080/09 RMK AO2 T02940222
63870K0J4 0J420160829105512508/29/16 10:55:31  5-MIN K0J4 291555Z AUTO 08009KT 10SM SCT025 SCT032 29/22 A3007 180 64 1900 080/09 RMK AO2 SLP177 T02940222
63870K0J4 0J420160829110011108/29/16 11:00:31  5-MIN K0J4 291600Z AUTO 09006KT 10SM FEW025 29/22 A3007 180 62 1900 090/06 RMK AO2 T02940217
63870K0J4 0J420160829110511808/29/16 11:05:31  5-MIN K0J4 291605Z AUTO 07011KT 10SM FEW025 FEW032 30/22 A3006 180 60 2000 070/11 RMK AO2 T03000217
63870K0J4 0J420160829111011808/29/16 11:10:31  5-MIN K0J4 291610Z AUTO 06008KT 10SM FEW026 SCT032 30/22 A3006 180 60 2000 060/08 RMK AO2 T03000217
63870K0J4 0J420160829111511108/29/16 11:15:31  5-MIN K0J4 291615Z AUTO 06011KT 10SM SCT031 30/22 A3006 180 60 2000 060/11 RMK AO2 T03000217
63870K0J4 0J420160829112011108/29/16 11:20:31  5-MIN K0J4 291620Z AUTO 06010KT 10SM SCT031 30/22 A3006 180 60 2000 060/10 RMK AO2 T03000217
63870K0J4 0J420160829112512708/29/16 11:25:31  5-MIN K0J4 291625Z AUTO 07007KT 030V160 10SM BKN031 31/22 A3006 190 58 2100 070/07 030V160 RMK AO2 T03060217
63870K0J4 0J420160829113011108/29/16 11:30:31  5-MIN K0J4 291630Z AUTO 05007KT 10SM SCT032 31/21 A3006 190 56 2100 050/07 RMK AO2 T03060211
63870K0J4 0J420160829113511708/29/16 11:35:31  5-MIN K0J4 291635Z AUTO 04010G16KT 10SM BKN032 31/21 A3006 190 56 2100 040/10G16 RMK AO2 T03060211
63870K0J4 0J420160829114011708/29/16 11:40:31  5-MIN K0J4 291640Z AUTO 06009G16KT 10SM SCT032 31/21 A3006 190 54 2100 060/09G16 RMK AO2 T03060206
63870K0J4 0J420160829114511108/29/16 11:45:31  5-MIN K0J4 291645Z AUTO 06008KT 10SM FEW032 31/21 A3006 190 54 2100 060/08 RMK AO2 T03060206
63870K0J4 0J420160829115011108/29/16 11:50:31  5-MIN K0J4 291650Z AUTO 05009KT 10SM FEW034 31/20 A3006 190 51 2100 050/09 RMK AO2 T03110200
63870K0J4 0J420160829115511808/29/16 11:55:31  5-MIN K0J4 291655Z AUTO 09006KT 10SM FEW034 31/21 A3006 190 53 2100 090/06 RMK AO2 SLP173 T03110206
63870K0J4 0J420160829120011108/29/16 12:00:31  5-MIN K0J4 291700Z AUTO 07009KT 10SM FEW034 31/20 A3006 190 51 2100 070/09 RMK AO2 T03110200
63870K0J4 0J420160829120511108/29/16 12:05:31  5-MIN K0J4 291705Z AUTO 09010KT 10SM FEW042 31/21 A3005 190 53 2100 090/10 RMK AO2 T03110206
63870K0J4 0J420160829121011108/29/16 12:10:31  5-MIN K0J4 291710Z AUTO VRB06KT 10SM FEW042 31/21 A3005 190 53 2100 VRB/06 RMK AO2 T03110206
63870K0J4 0J420160829121511708/29/16 12:15:31  5-MIN K0J4 291715Z AUTO 05012G16KT 10SM FEW040 31/21 A3005 190 54 2100 050/12G16 RMK AO2 T03110211
63870K0J4 0J420160829122011708/29/16 12:20:31  5-MIN K0J4 291720Z AUTO 05011G16KT 10SM FEW040 31/21 A3005 190 54 2100 050/11G16 RMK AO2 T03060206
63870K0J4 0J420160829122511108/29/16 12:25:31  5-MIN K0J4 291725Z AUTO 06010KT 10SM FEW040 31/20 A3005 190 52 2100 060/10 RMK AO2 T03060200
63870K0J4 0J420160829123011108/29/16 12:30:31  5-MIN K0J4 291730Z AUTO 06009KT 10SM FEW042 32/20 A3005 190 49 2200 060/09 RMK AO2 T03170200
63870K0J4 0J420160829123511108/29/16 12:35:31  5-MIN K0J4 291735Z AUTO 05009KT 10SM FEW042 32/20 A3005 190 49 2200 050/09 RMK AO2 T03170200
63870K0J4 0J420160829124011108/29/16 12:40:31  5-MIN K0J4 291740Z AUTO 05009KT 10SM FEW042 32/19 A3005 200 47 2200 050/09 RMK AO2 T03170194
63870K0J4 0J420160829124510808/29/16 12:45:31  5-MIN K0J4 291745Z AUTO 09007KT 10SM CLR 32/19 A3005 200 47 2200 090/07 RMK AO2 T03170194
63870K0J4 0J420160829125010808/29/16 12:50:31  5-MIN K0J4 291750Z AUTO 06010KT 10SM CLR 31/19 A3005 200 47 2100 060/10 RMK AO2 T03110189
63870K0J4 0J420160829125513308/29/16 12:55:31  5-MIN K0J4 291755Z AUTO 06011KT 10SM CLR 32/19 A3005 200 46 2200 060/11 RMK AO2 SLP171 T03170189 10322 20222 53008
63870K0J4 0J420160829130010808/29/16 13:00:31  5-MIN K0J4 291800Z AUTO 05011KT 10SM CLR 32/18 A3005 200 43 2200 050/11 RMK AO2 T03170178
63870K0J4 0J420160829130510808/29/16 13:05:31  5-MIN K0J4 291805Z AUTO 05008KT 10SM CLR 32/18 A3005 200 44 2200 050/08 RMK AO2 T03170183
63870K0J4 0J420160829131010808/29/16 13:10:31  5-MIN K0J4 291810Z AUTO 09006KT 10SM CLR 32/18 A3005 200 44 2200 090/06 RMK AO2 T03170183
63870K0J4 0J420160829131510808/29/16 13:15:31  5-MIN K0J4 291815Z AUTO 04009KT 10SM CLR 32/19 A3005 200 46 2200 040/09 RMK AO2 T03170189
63870K0J4 0J420160829132010808/29/16 13:20:31  5-MIN K0J4 291820Z AUTO 07008KT 10SM CLR 32/19 A3005 200 46 2200 070/08 RMK AO2 T03170189
63870K0J4 0J420160829132512408/29/16 13:25:31  5-MIN K0J4 291825Z AUTO 06007KT 020V080 10SM CLR 32/19 A3005 200 44 2300 060/07 020V080 RMK AO2 T03220189
63870K0J4 0J420160829133010808/29/16 13:30:31  5-MIN K0J4 291830Z AUTO 05010KT 10SM CLR 32/18 A3004 200 43 2200 050/10 RMK AO2 T03170178
63870K0J4 0J420160829133510808/29/16 13:35:31  5-MIN K0J4 291835Z AUTO 03007KT 10SM CLR 32/19 A3004 210 44 2300 030/07 RMK AO2 T03220189
63870K0J4 0J420160829134011408/29/16 13:40:31  5-MIN K0J4 291840Z AUTO 06011G16KT 10SM CLR 32/19 A3004 210 44 2300 060/11G16 RMK AO2 T03220189
63870K0J4 0J420160829134513008/29/16 13:45:31  5-MIN K0J4 291845Z AUTO 06008G16KT 030V090 10SM CLR 32/19 A3004 200 44 2300 060/08G16 030V090 RMK AO2 T03220189
63870K0J4 0J420160829135010808/29/16 13:50:31  5-MIN K0J4 291850Z AUTO 06009KT 10SM CLR 32/18 A3004 210 43 2300 060/09 RMK AO2 T03220183
63870K0J4 0J420160829135512108/29/16 13:55:31  5-MIN K0J4 291855Z AUTO 07009G15KT 10SM CLR 32/18 A3004 210 43 2300 070/09G15 RMK AO2 SLP167 T03220183
63870K0J4 0J420160829140010808/29/16 14:00:31  5-MIN K0J4 291900Z AUTO 06008KT 10SM CLR 32/19 A3004 210 44 2300 060/08 RMK AO2 T03220189
63870K0J4 0J420160829140510808/29/16 14:05:31  5-MIN K0J4 291905Z AUTO VRB06KT 10SM CLR 33/19 A3004 210 44 2300 VRB/06 RMK AO2 T03280194
63870K0J4 0J420160829141011108/29/16 14:10:31  5-MIN K0J4 291910Z AUTO 05010KT 10SM FEW050 32/19 A3004 210 44 2300 050/10 RMK AO2 T03220189
63870K0J4 0J420160829141511108/29/16 14:15:31  5-MIN K0J4 291915Z AUTO 07009KT 10SM FEW050 32/19 A3004 210 46 2300 070/09 RMK AO2 T03220194
63870K0J4 0J420160829142011108/29/16 14:20:31  5-MIN K0J4 291920Z AUTO 07007KT 10SM FEW050 32/19 A3003 210 44 2300 070/07 RMK AO2 T03220189
63870K0J4 0J420160829142511108/29/16 14:25:31  5-MIN K0J4 291925Z AUTO 11008KT 10SM FEW050 33/19 A3002 220 44 2300 110/08 RMK AO2 T03280194
63870K0J4 0J420160829143011108/29/16 14:30:31  5-MIN K0J4 291930Z AUTO 08007KT 10SM FEW050 33/19 A3002 220 43 2300 080/07 RMK AO2 T03280189
63870K0J4 0J420160829143512708/29/16 14:35:31  5-MIN K0J4 291935Z AUTO 05008KT 030V090 10SM FEW050 33/20 A3002 220 46 2300 050/08 030V090 RMK AO2 T03280200
63870K0J4 0J420160829144010808/29/16 14:40:31  5-MIN K0J4 291940Z AUTO 05008KT 10SM CLR 33/19 A3002 230 44 2300 050/08 RMK AO2 T03280194
63870K0J4 0J420160829144510808/29/16 14:45:31  5-MIN K0J4 291945Z AUTO 05006KT 10SM CLR 33/19 A3002 230 44 2300 050/06 RMK AO2 T03280194
63870K0J4 0J420160829145012708/29/16 14:50:31  5-MIN K0J4 291950Z AUTO 06008KT 030V090 10SM FEW050 33/19 A3002 230 44 2300 060/08 030V090 RMK AO2 T03280194
63870K0J4 0J420160829145511808/29/16 14:55:31  5-MIN K0J4 291955Z AUTO 06009KT 10SM FEW050 33/19 A3001 230 44 2300 060/09 RMK AO2 SLP159 T03280194
63870K0J4 0J420160829150011108/29/16 15:00:31  5-MIN K0J4 292000Z AUTO 04007KT 10SM FEW050 32/19 A3001 230 46 2300 040/07 RMK AO2 T03220194
63870K0J4 0J420160829150511108/29/16 15:05:31  5-MIN K0J4 292005Z AUTO 07006KT 10SM FEW050 33/19 A3001 240 44 2400 070/06 RMK AO2 T03280194
63870K0J4 0J420160829151011108/29/16 15:10:31  5-MIN K0J4 292010Z AUTO VRB05KT 10SM FEW050 33/19 A3000 240 44 2400 VRB/05 RMK AO2 T03280194
63870K0J4 0J420160829151511108/29/16 15:15:31  5-MIN K0J4 292015Z AUTO 06008KT 10SM FEW050 33/20 A3000 240 45 2400 060/08 RMK AO2 T03330200
63870K0J4 0J420160829152010808/29/16 15:20:31  5-MIN K0J4 292020Z AUTO 04008KT 10SM CLR 33/19 A3000 240 44 2400 040/08 RMK AO2 T03280194
63870K0J4 0J420160829152510808/29/16 15:25:31  5-MIN K0J4 292025Z AUTO 08008KT 10SM CLR 33/19 A3000 250 44 2400 080/08 RMK AO2 T03280194
63870K0J4 0J420160829153010808/29/16 15:30:31  5-MIN K0J4 292030Z AUTO 05006KT 10SM CLR 33/19 A2999 250 43 2400 050/06 RMK AO2 T03280189
63870K0J4 0J420160829153510808/29/16 15:35:31  5-MIN K0J4 292035Z AUTO 07008KT 10SM CLR 33/19 A2999 250 43 2400 070/08 RMK AO2 T03280189
63870K0J4 0J420160829154010808/29/16 15:40:31  5-MIN K0J4 292040Z AUTO 05007KT 10SM CLR 33/19 A2999 250 43 2400 050/07 RMK AO2 T03280189
63870K0J4 0J420160829154510808/29/16 15:45:31  5-MIN K0J4 292045Z AUTO 03009KT 10SM CLR 33/19 A2999 250 43 2400 030/09 RMK AO2 T03280189
63870K0J4 0J420160829155010808/29/16 15:50:31  5-MIN K0J4 292050Z AUTO 05007KT 10SM CLR 33/20 A2999 250 46 2400 050/07 RMK AO2 T03280200
63870K0J4 0J420160829155512108/29/16 15:55:31  5-MIN K0J4 292055Z AUTO 04009KT 10SM CLR 33/19 A2999 250 43 2400 040/09 RMK AO2 SLP150 T03280189 58007
63870K0J4 0J420160829160010808/29/16 16:00:31  5-MIN K0J4 292100Z AUTO 05008KT 10SM CLR 33/19 A2999 260 43 2400 050/08 RMK AO2 T03280189
63870K0J4 0J420160829160510808/29/16 16:05:31  5-MIN K0J4 292105Z AUTO 06008KT 10SM CLR 33/19 A2999 260 43 2400 060/08 RMK AO2 T03280189
63870K0J4 0J420160829161010808/29/16 16:10:31  5-MIN K0J4 292110Z AUTO 06009KT 10SM CLR 33/19 A2999 250 43 2400 060/09 RMK AO2 T03280189
63870K0J4 0J420160829161510808/29/16 16:15:31  5-MIN K0J4 292115Z AUTO 06008KT 10SM CLR 32/18 A2999 250 43 2300 060/08 RMK AO2 T03220183
63870K0J4 0J420160829162010808/29/16 16:20:31  5-MIN K0J4 292120Z AUTO 06007KT 10SM CLR 33/18 A2998 260 41 2400 060/07 RMK AO2 T03280183
63870K0J4 0J420160829162510808/29/16 16:25:31  5-MIN K0J4 292125Z AUTO 05006KT 10SM CLR 33/19 A2998 260 43 2400 050/06 RMK AO2 T03280189
63870K0J4 0J420160829163010808/29/16 16:30:31  5-MIN K0J4 292130Z AUTO 06007KT 10SM CLR 33/19 A2998 260 43 2400 060/07 RMK AO2 T03280189
63870K0J4 0J420160829163510808/29/16 16:35:31  5-MIN K0J4 292135Z AUTO 05007KT 10SM CLR 33/19 A2998 260 43 2400 050/07 RMK AO2 T03280189
63870K0J4 0J420160829164010808/29/16 16:40:31  5-MIN K0J4 292140Z AUTO 07008KT 10SM CLR 33/18 A2998 260 41 2400 070/08 RMK AO2 T03280183
63870K0J4 0J420160829164510808/29/16 16:45:31  5-MIN K0J4 292145Z AUTO 05009KT 10SM CLR 33/18 A2997 270 41 2400 050/09 RMK AO2 T03280183
63870K0J4 0J420160829165010808/29/16 16:50:31  5-MIN K0J4 292150Z AUTO 05008KT 10SM CLR 33/18 A2997 270 41 2400 050/08 RMK AO2 T03280183
63870K0J4 0J420160829165511508/29/16 16:55:31  5-MIN K0J4 292155Z AUTO 06007KT 10SM CLR 33/18 A2997 270 41 2400 060/07 RMK AO2 SLP144 T03280183
63870K0J4 0J420160829170010808/29/16 17:00:31  5-MIN K0J4 292200Z AUTO 06008KT 10SM CLR 32/18 A2997 270 43 2300 060/08 RMK AO2 T03220183
63870K0J4 0J420160829170510808/29/16 17:05:31  5-MIN K0J4 292205Z AUTO 03007KT 10SM CLR 33/18 A2997 270 41 2400 030/07 RMK AO2 T03280183
63870K0J4 0J420160829171010808/29/16 17:10:31  5-MIN K0J4 292210Z AUTO 06008KT 10SM CLR 32/18 A2997 270 43 2300 060/08 RMK AO2 T03220183
63870K0J4 0J420160829171510808/29/16 17:15:31  5-MIN K0J4 292215Z AUTO 05007KT 10SM CLR 33/18 A2997 270 41 2400 050/07 RMK AO2 T03280183
63870K0J4 0J420160829172010808/29/16 17:20:31  5-MIN K0J4 292220Z AUTO 07005KT 10SM CLR 32/18 A2997 270 43 2300 070/05 RMK AO2 T03220183
63870K0J4 0J420160829172510808/29/16 17:25:31  5-MIN K0J4 292225Z AUTO 04005KT 10SM CLR 32/19 A2996 280 44 2300 040/05 RMK AO2 T03220189
63870K0J4 0J420160829173010808/29/16 17:30:31  5-MIN K0J4 292230Z AUTO 06006KT 10SM CLR 32/18 A2996 280 43 2300 060/06 RMK AO2 T03220183
63870K0J4 0J420160829173510808/29/16 17:35:31  5-MIN K0J4 292235Z AUTO 05006KT 10SM CLR 32/18 A2996 280 43 2300 050/06 RMK AO2 T03220183
63870K0J4 0J420160829174010808/29/16 17:40:31  5-MIN K0J4 292240Z AUTO 06005KT 10SM CLR 32/18 A2996 280 43 2300 060/05 RMK AO2 T03220183
63870K0J4 0J420160829174510808/29/16 17:45:31  5-MIN K0J4 292245Z AUTO 06005KT 10SM CLR 32/18 A2996 280 43 2300 060/05 RMK AO2 T03220183
63870K0J4 0J420160829175010808/29/16 17:50:31  5-MIN K0J4 292250Z AUTO 05004KT 10SM CLR 32/19 A2996 280 44 2300 050/04 RMK AO2 T03220189
63870K0J4 0J420160829175511508/29/16 17:55:31  5-MIN K0J4 292255Z AUTO 00000KT 10SM CLR 32/19 A2996 280 44 2300 000/00 RMK AO2 SLP142 T03220189
63870K0J4 0J420160829180010808/29/16 18:00:31  5-MIN K0J4 292300Z AUTO 03003KT 10SM CLR 32/20 A2997 270 49 2300 030/03 RMK AO2 T03170200
63870K0J4 0J420160829180510808/29/16 18:05:31  5-MIN K0J4 292305Z AUTO 03003KT 10SM CLR 32/19 A2997 270 47 2300 030/03 RMK AO2 T03170194
63870K0J4 0J420160829181010808/29/16 18:10:31  5-MIN K0J4 292310Z AUTO 02003KT 10SM CLR 31/20 A2997 270 51 2200 020/03 RMK AO2 T03110200
63870K0J4 0J420160829181510808/29/16 18:15:31  5-MIN K0J4 292315Z AUTO 02004KT 10SM CLR 31/20 A2997 270 52 2200 020/04 RMK AO2 T03060200
63870K0J4 0J420160829182010808/29/16 18:20:31  5-MIN K0J4 292320Z AUTO 01003KT 10SM CLR 30/21 A2997 270 56 2100 010/03 RMK AO2 T03000206
63870K0J4 0J420160829182510808/29/16 18:25:31  5-MIN K0J4 292325Z AUTO 03003KT 10SM CLR 30/20 A2997 270 54 2100 030/03 RMK AO2 T03000200
63870K0J4 0J420160829183010808/29/16 18:30:31  5-MIN K0J4 292330Z AUTO 02003KT 10SM CLR 30/20 A2997 270 54 2100 020/03 RMK AO2 T03000200
63870K0J4 0J420160829183510808/29/16 18:35:31  5-MIN K0J4 292335Z AUTO 00000KT 10SM CLR 30/19 A2997 270 52 2100 000/00 RMK AO2 T03000194
63870K0J4 0J420160829184010808/29/16 18:40:31  5-MIN K0J4 292340Z AUTO 00000KT 10SM CLR 29/20 A2997 270 56 2000 000/00 RMK AO2 T02940200
63870K0J4 0J420160829184510808/29/16 18:45:31  5-MIN K0J4 292345Z AUTO 03003KT 10SM CLR 29/21 A2997 270 60 2000 030/03 RMK AO2 T02890206
63870K0J4 0J420160829185010808/29/16 18:50:31  5-MIN K0J4 292350Z AUTO 00000KT 10SM CLR 29/20 A2997 270 58 2000 000/00 RMK AO2 T02890200
63870K0J4 0J420160829185513308/29/16 18:55:31  5-MIN K0J4 292355Z AUTO 00000KT 10SM CLR 28/21 A2997 270 66 1800 000/00 RMK AO2 SLP144 T02780211 10333 20278 58021
63870K0J4 0J420160829190010808/29/16 19:00:31  5-MIN K0J4 300000Z AUTO 00000KT 10SM CLR 27/22 A2997 270 71 1800 000/00 RMK AO2 T02720217
63870K0J4 0J420160829190510808/29/16 19:05:31  5-MIN K0J4 300005Z AUTO 00000KT 10SM CLR 27/22 A2997 270 71 1800 000/00 RMK AO2 T02720217
63870K0J4 0J420160829191010808/29/16 19:10:31  5-MIN K0J4 300010Z AUTO 00000KT 10SM CLR 27/21 A2998 260 69 1800 000/00 RMK AO2 T02720211
63870K0J4 0J420160829191510808/29/16 19:15:31  5-MIN K0J4 300015Z AUTO 00000KT 10SM CLR 27/22 A2997 270 76 1700 000/00 RMK AO2 T02670222
63870K0J4 0J420160829192010808/29/16 19:20:31  5-MIN K0J4 300020Z AUTO 00000KT 10SM CLR 27/22 A2997 270 76 1700 000/00 RMK AO2 T02670222
63870K0J4 0J420160829192510808/29/16 19:25:31  5-MIN K0J4 300025Z AUTO 00000KT 10SM CLR 27/21 A2997 270 71 1700 000/00 RMK AO2 T02670211
63870K0J4 0J420160829193010808/29/16 19:30:31  5-MIN K0J4 300030Z AUTO 00000KT 10SM CLR 27/22 A2998 260 73 1700 000/00 RMK AO2 T02670217
63870K0J4 0J420160829193510808/29/16 19:35:31  5-MIN K0J4 300035Z AUTO 01003KT 10SM CLR 26/22 A2998 260 79 1600 010/03 RMK AO2 T02560217
63870K0J4 0J420160829194010808/29/16 19:40:31  5-MIN K0J4 300040Z AUTO 03004KT 10SM CLR 25/22 A2998 260 84 1500 030/04 RMK AO2 T02500222
63870K0J4 0J420160829194512408/29/16 19:45:31  5-MIN K0J4 300045Z AUTO 03008KT 10SM -RA CLR 26/22 A2999 260 79 1600 030/08 RMK AO2 RAB44 P0000 T02560217
63870K0J4 0J420160829195012408/29/16 19:50:31  5-MIN K0J4 300050Z AUTO 02005KT 10SM -RA CLR 27/21 A2999 250 69 1700 020/05 RMK AO2 RAB44 P0000 T02670206
63870K0J4 0J420160829195513008/29/16 19:55:31  5-MIN K0J4 300055Z AUTO 03006KT 10SM CLR 27/21 A2999 250 69 1700 030/06 RMK AO2 RAB44E54 SLP152 P0000 T02670206
63870K0J4 0J420160829200010808/29/16 20:00:31  5-MIN K0J4 300100Z AUTO 03005KT 10SM CLR 27/21 A2999 250 71 1700 030/05 RMK AO2 T02670211
63870K0J4 0J420160829200510808/29/16 20:05:31  5-MIN K0J4 300105Z AUTO 03006KT 10SM CLR 27/21 A3000 250 71 1700 030/06 RMK AO2 T02670211
63870K0J4 0J420160829201010808/29/16 20:10:31  5-MIN K0J4 300110Z AUTO 04005KT 10SM CLR 26/21 A3000 240 73 1600 040/05 RMK AO2 T02610211
63870K0J4 0J420160829201510808/29/16 20:15:31  5-MIN K0J4 300115Z AUTO 04005KT 10SM CLR 26/21 A3000 240 73 1600 040/05 RMK AO2 T02610211
63870K0J4 0J420160829202010808/29/16 20:20:31  5-MIN K0J4 300120Z AUTO 04005KT 10SM CLR 26/21 A3000 240 73 1600 040/05 RMK AO2 T02610211
63870K0J4 0J420160829202510808/29/16 20:25:31  5-MIN K0J4 300125Z AUTO 04005KT 10SM CLR 26/21 A3000 240 73 1600 040/05 RMK AO2 T02610211
63870K0J4 0J420160829203010808/29/16 20:30:31  5-MIN K0J4 300130Z AUTO 04005KT 10SM CLR 26/21 A3000 240 73 1600 040/05 RMK AO2 T02610211
63870K0J4 0J420160829203510808/29/16 20:35:31  5-MIN K0J4 300135Z AUTO 04006KT 10SM CLR 26/21 A3001 240 73 1600 040/06 RMK AO2 T02610211
63870K0J4 0J420160829204011108/29/16 20:40:31  5-MIN K0J4 300140Z AUTO 04007KT 10SM FEW060 26/21 A3001 240 73 1600 040/07 RMK AO2 T02610211
63870K0J4 0J420160829204511108/29/16 20:45:31  5-MIN K0J4 300145Z AUTO 03007KT 10SM FEW060 26/21 A3001 240 73 1600 030/07 RMK AO2 T02610211
63870K0J4 0J420160829205011108/29/16 20:50:31  5-MIN K0J4 300150Z AUTO 04005KT 10SM FEW060 26/21 A3001 240 73 1600 040/05 RMK AO2 T02610211
63870K0J4 0J420160829205511808/29/16 20:55:31  5-MIN K0J4 300155Z AUTO 03005KT 10SM FEW060 26/21 A3001 240 73 1600 030/05 RMK AO2 SLP156 T02610211
63870K0J4 0J420160829210011108/29/16 21:00:31  5-MIN K0J4 300200Z AUTO 03005KT 10SM FEW060 26/21 A3001 240 73 1600 030/05 RMK AO2 T02610211
63870K0J4 0J420160829210510808/29/16 21:05:31  5-MIN K0J4 300205Z AUTO 02006KT 10SM CLR 26/21 A3000 240 76 1600 020/06 RMK AO2 T02560211
63870K0J4 0J420160829211010808/29/16 21:10:31  5-MIN K0J4 300210Z AUTO 02006KT 10SM CLR 26/21 A3001 240 76 1600 020/06 RMK AO2 T02560211
63870K0J4 0J420160829211510808/29/16 21:15:31  5-MIN K0J4 300215Z AUTO 02006KT 10SM CLR 26/21 A3001 230 71 1600 020/06 RMK AO2 T02610206
63870K0J4 0J420160829212010808/29/16 21:20:31  5-MIN K0J4 300220Z AUTO 01005KT 10SM CLR 26/21 A3001 230 76 1500 010/05 RMK AO2 T02560211
63870K0J4 0J420160829212510808/29/16 21:25:31  5-MIN K0J4 300225Z AUTO 01005KT 10SM CLR 26/21 A3001 230 71 1600 010/05 RMK AO2 T02610206
63870K0J4 0J420160829213010808/29/16 21:30:31  5-MIN K0J4 300230Z AUTO 01005KT 10SM CLR 26/21 A3001 230 73 1500 010/05 RMK AO2 T02560206
63870K0J4 0J420160829213510808/29/16 21:35:31  5-MIN K0J4 300235Z AUTO 02005KT 10SM CLR 26/21 A3001 230 73 1500 020/05 RMK AO2 T02560206
63870K0J4 0J420160829214010808/29/16 21:40:31  5-MIN K0J4 300240Z AUTO 03006KT 10SM CLR 26/21 A3002 230 73 1500 030/06 RMK AO2 T02560206
63870K0J4 0J420160829214510808/29/16 21:45:31  5-MIN K0J4 300245Z AUTO 02006KT 10SM CLR 26/21 A3001 230 73 1500 020/06 RMK AO2 T02560206
63870K0J4 0J420160829215010808/29/16 21:50:31  5-MIN K0J4 300250Z AUTO 03006KT 10SM CLR 25/21 A3001 230 76 1500 030/06 RMK AO2 T02500206
63870K0J4 0J420160829215512708/29/16 21:55:31  5-MIN K0J4 300255Z AUTO 03005KT 10SM CLR 25/21 A3002 230 79 1500 030/05 RMK AO2 SLP159 60000 T02500211 55005
63870K0J4 0J420160829220010808/29/16 22:00:31  5-MIN K0J4 300300Z AUTO 03004KT 10SM CLR 25/21 A3001 230 79 1500 030/04 RMK AO2 T02500211
63870K0J4 0J420160829220511108/29/16 22:05:31  5-MIN K0J4 300305Z AUTO 03005KT 10SM FEW080 25/21 A3001 230 79 1500 030/05 RMK AO2 T02500211
63870K0J4 0J420160829221011808/29/16 22:10:31  5-MIN K0J4 300310Z AUTO 02005KT 10SM FEW060 SCT080 25/21 A3002 230 79 1500 020/05 RMK AO2 T02500211
63870K0J4 0J420160829221511808/29/16 22:15:31  5-MIN K0J4 300315Z AUTO 02005KT 10SM SCT060 SCT075 25/21 A3001 230 79 1500 020/05 RMK AO2 T02500211
63870K0J4 0J420160829222011808/29/16 22:20:31  5-MIN K0J4 300320Z AUTO 03004KT 10SM FEW060 SCT075 25/21 A3001 230 79 1500 030/04 RMK AO2 T02500211
63870K0J4 0J420160829222511808/29/16 22:25:31  5-MIN K0J4 300325Z AUTO 04005KT 10SM FEW060 FEW080 25/21 A3001 230 79 1500 040/05 RMK AO2 T02500211
63870K0J4 0J420160829223011808/29/16 22:30:31  5-MIN K0J4 300330Z AUTO 04005KT 10SM FEW060 SCT075 24/21 A3001 230 81 1400 040/05 RMK AO2 T02440211
63870K0J4 0J420160829223511808/29/16 22:35:31  5-MIN K0J4 300335Z AUTO 04005KT 10SM FEW060 SCT075 24/21 A3001 230 81 1400 040/05 RMK AO2 T02440211
63870K0J4 0J420160829224011108/29/16 22:40:31  5-MIN K0J4 300340Z AUTO 04005KT 10SM FEW075 24/21 A3001 230 81 1400 040/05 RMK AO2 T02440211
63870K0J4 0J420160829224510808/29/16 22:45:31  5-MIN K0J4 300345Z AUTO 03004KT 10SM CLR 24/21 A3001 230 81 1400 030/04 RMK AO2 T02440211
63870K0J4 0J420160829225010808/29/16 22:50:31  5-MIN K0J4 300350Z AUTO 03004KT 10SM CLR 24/21 A3001 230 81 1400 030/04 RMK AO2 T02440211
63870K0J4 0J420160829225511508/29/16 22:55:31  5-MIN K0J4 300355Z AUTO 03004KT 10SM CLR 24/21 A3001 230 81 1400 030/04 RMK AO2 SLP158 T02440211
63870K0J4 0J420160829230010808/29/16 23:00:31  5-MIN K0J4 300400Z AUTO 03005KT 10SM CLR 24/21 A3001 230 81 1400 030/05 RMK AO2 T02440211
63870K0J4 0J420160829230510808/29/16 23:05:31  5-MIN K0J4 300405Z AUTO 04005KT 10SM CLR 24/21 A3001 230 81 1400 040/05 RMK AO2 T02440211
63870K0J4 0J420160829231010808/29/16 23:10:31  5-MIN K0J4 300410Z AUTO 04004KT 10SM CLR 24/21 A3001 230 81 1400 040/04 RMK AO2 T02440211
63870K0J4 0J420160829231510808/29/16 23:15:31  5-MIN K0J4 300415Z AUTO 04004KT 10SM CLR 24/21 A3001 230 81 1400 040/04 RMK AO2 T02440211
63870K0J4 0J420160829232010808/29/16 23:20:31  5-MIN K0J4 300420Z AUTO 04004KT 10SM CLR 24/21 A3001 230 84 1400 040/04 RMK AO2 T02390211
63870K0J4 0J420160829232510808/29/16 23:25:31  5-MIN K0J4 300425Z AUTO 04004KT 10SM CLR 24/21 A3001 240 81 1400 040/04 RMK AO2 T02440211
63870K0J4 0J420160829233010808/29/16 23:30:31  5-MIN K0J4 300430Z AUTO 03004KT 10SM CLR 24/21 A3000 240 84 1400 030/04 RMK AO2 T02390211
63870K0J4 0J420160829233510808/29/16 23:35:31  5-MIN K0J4 300435Z AUTO 03004KT 10SM CLR 24/21 A3000 240 84 1400 030/04 RMK AO2 T02390211
63870K0J4 0J420160829234010808/29/16 23:40:31  5-MIN K0J4 300440Z AUTO 03005KT 10SM CLR 24/21 A3000 240 84 1400 030/05 RMK AO2 T02390211
63870K0J4 0J420160829234510808/29/16 23:45:31  5-MIN K0J4 300445Z AUTO 03004KT 10SM CLR 24/21 A3000 240 84 1400 030/04 RMK AO2 T02390211
63870K0J4 0J420160829235010808/29/16 23:50:31  5-MIN K0J4 300450Z AUTO 05004KT 10SM CLR 24/21 A3000 240 84 1400 050/04 RMK AO2 T02390211
63870K0J4 0J420160829235512508/29/16 23:55:31  5-MIN K0J4 300455Z AUTO 05004KT 10SM CLR 24/21 A3000 240 84 1400 050/04 RMK AO2 SLP155 T02390211 403330222
63870K0J4 0J420160830000010808/30/16 00:00:31  5-MIN K0J4 300500Z AUTO 05004KT 10SM CLR 23/21 A3000 240 87 1300 050/04 RMK AO2 T02330211
63870K0J4 0J420160830000510808/30/16 00:05:31  5-MIN K0J4 300505Z AUTO 05005KT 10SM CLR 24/21 A3000 240 84 1400 050/05 RMK AO2 T02390211
63870K0J4 0J420160830001010808/30/16 00:10:31  5-MIN K0J4 300510Z AUTO 05006KT 10SM CLR 24/21 A3000 240 84 1400 050/06 RMK AO2 T02390211
63870K0J4 0J420160830001510808/30/16 00:15:31  5-MIN K0J4 300515Z AUTO 05006KT 10SM CLR 24/21 A3000 240 84 1400 050/06 RMK AO2 T02390211
63870K0J4 0J420160830002010808/30/16 00:20:31  5-MIN K0J4 300520Z AUTO 05007KT 10SM CLR 24/21 A3000 240 84 1400 050/07 RMK AO2 T02390211
63870K0J4 0J420160830002510808/30/16 00:25:31  5-MIN K0J4 300525Z AUTO 05005KT 10SM CLR 24/21 A3000 240 84 1400 050/05 RMK AO2 T02390211
63870K0J4 0J420160830003010808/30/16 00:30:31  5-MIN K0J4 300530Z AUTO 05005KT 10SM CLR 24/21 A3000 240 84 1400 050/05 RMK AO2 T02390211
63870K0J4 0J420160830003510808/30/16 00:35:31  5-MIN K0J4 300535Z AUTO 05006KT 10SM CLR 24/21 A3000 240 84 1400 050/06 RMK AO2 T02390211
63870K0J4 0J420160830004010808/30/16 00:40:31  5-MIN K0J4 300540Z AUTO 05006KT 10SM CLR 24/21 A3000 240 84 1400 050/06 RMK AO2 T02390211
63870K0J4 0J420160830004510808/30/16 00:45:31  5-MIN K0J4 300545Z AUTO 05006KT 10SM CLR 24/21 A3000 240 84 1400 050/06 RMK AO2 T02390211
63870K0J4 0J420160830005010808/30/16 00:50:31  5-MIN K0J4 300550Z AUTO 05006KT 10SM CLR 24/21 A3000 240 84 1400 050/06 RMK AO2 T02390211
63870K0J4 0J420160830005513908/30/16 00:55:31  5-MIN K0J4 300555Z AUTO 05005KT 10SM CLR 24/21 A3000 240 84 1400 050/05 RMK AO2 SLP155 60000 T02390211 10272 20233 51015
63870K0J4 0J420160830010010808/30/16 01:00:31  5-MIN K0J4 300600Z AUTO 06005KT 10SM CLR 24/21 A3000 240 84 1400 060/05 RMK AO2 T02390211
63870K0J4 0J420160830010510808/30/16 01:05:31  5-MIN K0J4 300605Z AUTO 06004KT 10SM CLR 24/22 A3000 240 87 1400 060/04 RMK AO2 T02390217
63870K0J4 0J420160830011010808/30/16 01:10:31  5-MIN K0J4 300610Z AUTO 05004KT 10SM CLR 24/21 A3000 240 84 1400 050/04 RMK AO2 T02390211
63870K0J4 0J420160830011510808/30/16 01:15:31  5-MIN K0J4 300615Z AUTO 05003KT 10SM CLR 24/21 A3000 240 84 1400 050/03 RMK AO2 T02390211
63870K0J4 0J420160830012010808/30/16 01:20:31  5-MIN K0J4 300620Z AUTO 06003KT 10SM CLR 23/21 A3000 240 87 1300 060/03 RMK AO2 T02330211
63870K0J4 0J420160830012510808/30/16 01:25:31  5-MIN K0J4 300625Z AUTO 04004KT 10SM CLR 23/21 A3000 240 87 1300 040/04 RMK AO2 T02330211
63870K0J4 0J420160830013010808/30/16 01:30:31  5-MIN K0J4 300630Z AUTO 06003KT 10SM CLR 23/21 A3000 240 87 1300 060/03 RMK AO2 T02330211
63870K0J4 0J420160830013510808/30/16 01:35:31  5-MIN K0J4 300635Z AUTO 07005KT 10SM CLR 23/21 A3000 240 87 1300 070/05 RMK AO2 T02330211
63870K0J4 0J420160830014010808/30/16 01:40:31  5-MIN K0J4 300640Z AUTO 07006KT 10SM CLR 24/21 A3000 240 84 1400 070/06 RMK AO2 T02390211
63870K0J4 0J420160830014510808/30/16 01:45:31  5-MIN K0J4 300645Z AUTO 07005KT 10SM CLR 24/21 A3000 240 84 1400 070/05 RMK AO2 T02390211
63870K0J4 0J420160830015010808/30/16 01:50:31  5-MIN K0J4 300650Z AUTO 07005KT 10SM CLR 23/21 A3000 240 87 1300 070/05 RMK AO2 T02330211
63870K0J4 0J420160830015511508/30/16 01:55:31  5-MIN K0J4 300655Z AUTO 07004KT 10SM CLR 24/21 A3000 240 84 1400 070/04 RMK AO2 SLP154 T02390211
63870K0J4 0J420160830020010808/30/16 02:00:31  5-MIN K0J4 300700Z AUTO 07004KT 10SM CLR 23/21 A3000 240 87 1300 070/04 RMK AO2 T02330211
63870K0J4 0J420160830020510808/30/16 02:05:31  5-MIN K0J4 300705Z AUTO 08003KT 10SM CLR 23/21 A3000 240 87 1300 080/03 RMK AO2 T02330211
63870K0J4 0J420160830021010808/30/16 02:10:31  5-MIN K0J4 300710Z AUTO 08004KT 10SM CLR 23/21 A3000 250 87 1300 080/04 RMK AO2 T02330211
63870K0J4 0J420160830021510808/30/16 02:15:31  5-MIN K0J4 300715Z AUTO 07004KT 10SM CLR 23/21 A3000 240 87 1300 070/04 RMK AO2 T02330211
63870K0J4 0J420160830022010808/30/16 02:20:31  5-MIN K0J4 300720Z AUTO 07005KT 10SM CLR 23/21 A3000 240 87 1300 070/05 RMK AO2 T02330211
63870K0J4 0J420160830022510808/30/16 02:25:31  5-MIN K0J4 300725Z AUTO 07005KT 10SM CLR 23/21 A3000 240 87 1300 070/05 RMK AO2 T02330211
63870K0J4 0J420160830023010808/30/16 02:30:31  5-MIN K0J4 300730Z AUTO 07004KT 10SM CLR 23/21 A3000 240 87 1300 070/04 RMK AO2 T02330211
63870K0J4 0J420160830023510808/30/16 02:35:31  5-MIN K0J4 300735Z AUTO 07005KT 10SM CLR 23/21 A3000 240 87 1300 070/05 RMK AO2 T02330211
63870K0J4 0J420160830024010808/30/16 02:40:31  5-MIN K0J4 300740Z AUTO 06004KT 10SM CLR 23/21 A3000 240 87 1300 060/04 RMK AO2 T02330211
63870K0J4 0J420160830024510808/30/16 02:45:31  5-MIN K0J4 300745Z AUTO 06004KT 10SM CLR 23/21 A3000 240 87 1300 060/04 RMK AO2 T02330211
63870K0J4 0J420160830025010808/30/16 02:50:31  5-MIN K0J4 300750Z AUTO 07005KT 10SM CLR 23/21 A3000 240 87 1300 070/05 RMK AO2 T02330211
63870K0J4 0J420160830025511508/30/16 02:55:31  5-MIN K0J4 300755Z AUTO 07004KT 10SM CLR 23/21 A3000 240 87 1300 070/04 RMK AO2 SLP153 T02330211
63870K0J4 0J420160830030010808/30/16 03:00:31  5-MIN K0J4 300800Z AUTO 07004KT 10SM CLR 23/21 A3000 240 87 1300 070/04 RMK AO2 T02330211
63870K0J4 0J420160830030510808/30/16 03:05:31  5-MIN K0J4 300805Z AUTO 07003KT 10SM CLR 23/21 A3000 250 87 1300 070/03 RMK AO2 T02330211
63870K0J4 0J420160830031010808/30/16 03:10:31  5-MIN K0J4 300810Z AUTO 07004KT 10SM CLR 23/21 A3000 250 87 1300 070/04 RMK AO2 T02330211
63870K0J4 0J420160830031510808/30/16 03:15:31  5-MIN K0J4 300815Z AUTO 04003KT 10SM CLR 23/21 A3000 250 87 1300 040/03 RMK AO2 T02330211
63870K0J4 0J420160830032010808/30/16 03:20:31  5-MIN K0J4 300820Z AUTO 05003KT 10SM CLR 23/21 A2999 250 90 1200 050/03 RMK AO2 T02280211
63870K0J4 0J420160830032510808/30/16 03:25:31  5-MIN K0J4 300825Z AUTO 06004KT 10SM CLR 23/21 A2999 250 90 1300 060/04 RMK AO2 T02280211
63870K0J4 0J420160830033010808/30/16 03:30:31  5-MIN K0J4 300830Z AUTO 05003KT 10SM CLR 23/21 A2999 250 90 1300 050/03 RMK AO2 T02280211
63870K0J4 0J420160830033510808/30/16 03:35:31  5-MIN K0J4 300835Z AUTO 05003KT 10SM CLR 23/21 A2999 250 90 1300 050/03 RMK AO2 T02280211
63870K0J4 0J420160830034010808/30/16 03:40:31  5-MIN K0J4 300840Z AUTO 06004KT 10SM CLR 23/21 A2999 250 90 1300 060/04 RMK AO2 T02280211
63870K0J4 0J420160830034510808/30/16 03:45:31  5-MIN K0J4 300845Z AUTO 05003KT 10SM CLR 23/21 A2999 250 90 1300 050/03 RMK AO2 T02280211
63870K0J4 0J420160830035010808/30/16 03:50:31  5-MIN K0J4 300850Z AUTO 06003KT 10SM CLR 23/21 A2999 250 90 1300 060/03 RMK AO2 T02280211
63870K0J4 0J420160830035512108/30/16 03:55:31  5-MIN K0J4 300855Z AUTO 07003KT 10SM CLR 23/21 A2999 250 90 1300 070/03 RMK AO2 SLP151 T02280211 56004
63870K0J4 0J420160830040010808/30/16 04:00:31  5-MIN K0J4 300900Z AUTO 07003KT 10SM CLR 23/21 A2999 250 90 1300 070/03 RMK AO2 T02280211
63870K0J4 0J420160830040510808/30/16 04:05:31  5-MIN K0J4 300905Z AUTO 07003KT 10SM CLR 23/21 A2999 250 90 1300 070/03 RMK AO2 T02280211
63870K0J4 0J420160830041010808/30/16 04:10:31  5-MIN K0J4 300910Z AUTO 07003KT 10SM CLR 23/21 A2999 250 90 1300 070/03 RMK AO2 T02280211
63870K0J4 0J420160830041510808/30/16 04:15:31  5-MIN K0J4 300915Z AUTO 08004KT 10SM CLR 23/21 A2999 250 90 1300 080/04 RMK AO2 T02280211
63870K0J4 0J420160830042010808/30/16 04:20:31  5-MIN K0J4 300920Z AUTO 06004KT 10SM CLR 23/21 A2999 250 90 1300 060/04 RMK AO2 T02280211
63870K0J4 0J420160830042510808/30/16 04:25:31  5-MIN K0J4 300925Z AUTO 05004KT 10SM CLR 23/21 A2999 250 90 1300 050/04 RMK AO2 T02280211
63870K0J4 0J420160830043010808/30/16 04:30:31  5-MIN K0J4 300930Z AUTO 05004KT 10SM CLR 23/21 A2999 250 90 1300 050/04 RMK AO2 T02280211
63870K0J4 0J420160830043510808/30/16 04:35:31  5-MIN K0J4 300935Z AUTO 05003KT 10SM CLR 23/21 A2999 250 90 1300 050/03 RMK AO2 T02280211
63870K0J4 0J420160830044010808/30/16 04:40:31  5-MIN K0J4 300940Z AUTO 05003KT 10SM CLR 23/21 A2999 250 90 1300 050/03 RMK AO2 T02280211
63870K0J4 0J420160830044510808/30/16 04:45:31  5-MIN K0J4 300945Z AUTO 05003KT 10SM CLR 23/21 A2999 250 90 1300 050/03 RMK AO2 T02280211
63870K0J4 0J420160830045010808/30/16 04:50:31  5-MIN K0J4 300950Z AUTO 05003KT 10SM CLR 23/21 A2999 250 90 1300 050/03 RMK AO2 T02280211
63870K0J4 0J420160830045511508/30/16 04:55:31  5-MIN K0J4 300955Z AUTO 05003KT 10SM CLR 23/21 A2999 250 90 1300 050/03 RMK AO2 SLP150 T02280211
63870K0J4 0J420160830050010808/30/16 05:00:31  5-MIN K0J4 301000Z AUTO 05004KT 10SM CLR 22/21 A2999 250 93 1200 050/04 RMK AO2 T02220211
63870K0J4 0J420160830050510808/30/16 05:05:31  5-MIN K0J4 301005Z AUTO 05004KT 10SM CLR 23/21 A2999 250 90 1300 050/04 RMK AO2 T02280211
63870K0J4 0J420160830051010808/30/16 05:10:31  5-MIN K0J4 301010Z AUTO 05004KT 10SM CLR 23/21 A2999 250 90 1300 050/04 RMK AO2 T02280211
63870K0J4 0J420160830051510808/30/16 05:15:31  5-MIN K0J4 301015Z AUTO 05004KT 10SM CLR 23/21 A2999 250 90 1300 050/04 RMK AO2 T02280211
63870K0J4 0J420160830052010808/30/16 05:20:31  5-MIN K0J4 301020Z AUTO 05004KT 10SM CLR 23/21 A2999 250 90 1300 050/04 RMK AO2 T02280211
63870K0J4 0J420160830052510808/30/16 05:25:31  5-MIN K0J4 301025Z AUTO 06004KT 10SM CLR 23/21 A2999 250 90 1300 060/04 RMK AO2 T02280211
63870K0J4 0J420160830053010808/30/16 05:30:31  5-MIN K0J4 301030Z AUTO 05004KT 10SM CLR 23/21 A2999 250 90 1300 050/04 RMK AO2 T02280211
63870K0J4 0J420160830053510808/30/16 05:35:31  5-MIN K0J4 301035Z AUTO 05004KT 10SM CLR 23/21 A2999 250 90 1300 050/04 RMK AO2 T02280211
63870K0J4 0J420160830054010808/30/16 05:40:31  5-MIN K0J4 301040Z AUTO 06004KT 10SM CLR 23/21 A2999 250 90 1200 060/04 RMK AO2 T02280211
63870K0J4 0J420160830054510808/30/16 05:45:31  5-MIN K0J4 301045Z AUTO 05003KT 10SM CLR 23/21 A2999 250 90 1300 050/03 RMK AO2 T02280211
63870K0J4 0J420160830055010808/30/16 05:50:31  5-MIN K0J4 301050Z AUTO 05003KT 10SM CLR 22/21 A2999 250 93 1200 050/03 RMK AO2 T02220211
63870K0J4 0J420160830055511508/30/16 05:55:31  5-MIN K0J4 301055Z AUTO 05004KT 10SM CLR 22/21 A2999 250 93 1200 050/04 RMK AO2 SLP152 T02220211
63870K0J4 0J420160830060010808/30/16 06:00:31  5-MIN K0J4 301100Z AUTO 05004KT 10SM CLR 22/21 A2999 250 93 1200 050/04 RMK AO2 T02220211
63870K0J4 0J420160830060510808/30/16 06:05:31  5-MIN K0J4 301105Z AUTO 04004KT 10SM CLR 22/21 A2999 250 93 1200 040/04 RMK AO2 T02220211
63870K0J4 0J420160830061010808/30/16 06:10:31  5-MIN K0J4 301110Z AUTO 05004KT 10SM CLR 22/21 A2999 250 93 1200 050/04 RMK AO2 T02220211
63870K0J4 0J420160830061510808/30/16 06:15:31  5-MIN K0J4 301115Z AUTO 05004KT 10SM CLR 22/21 A2999 250 93 1200 050/04 RMK AO2 T02220211
63870K0J4 0J420160830062010808/30/16 06:20:31  5-MIN K0J4 301120Z AUTO 05005KT 10SM CLR 22/21 A3000 250 93 1200 050/05 RMK AO2 T02220211
63870K0J4 0J420160830062510808/30/16 06:25:31  5-MIN K0J4 301125Z AUTO 05005KT 10SM CLR 22/21 A2999 250 93 1200 050/05 RMK AO2 T02220211
63870K0J4 0J420160830063010808/30/16 06:30:31  5-MIN K0J4 301130Z AUTO 05005KT 10SM CLR 22/21 A3000 250 93 1200 050/05 RMK AO2 T02220211
63870K0J4 0J420160830063510808/30/16 06:35:31  5-MIN K0J4 301135Z AUTO 06006KT 10SM CLR 22/21 A3000 250 93 1200 060/06 RMK AO2 T02220211
63870K0J4 0J420160830064010808/30/16 06:40:31  5-MIN K0J4 301140Z AUTO 06005KT 10SM CLR 23/21 A3000 240 90 1200 060/05 RMK AO2 T02280211
63870K0J4 0J420160830064510808/30/16 06:45:31  5-MIN K0J4 301145Z AUTO 06006KT 10SM CLR 23/21 A3000 240 90 1200 060/06 RMK AO2 T02280211
63870K0J4 0J420160830065010808/30/16 06:50:31  5-MIN K0J4 301150Z AUTO 06006KT 10SM CLR 23/21 A3000 240 90 1200 060/06 RMK AO2 T02280211
63870K0J4 0J420160830065513308/30/16 06:55:31  5-MIN K0J4 301155Z AUTO 06006KT 10SM CLR 23/21 A3001 240 90 1200 060/06 RMK AO2 SLP156 T02280211 10239 20222 58003
63870K0J4 0J420160830070010808/30/16 07:00:31  5-MIN K0J4 301200Z AUTO 05005KT 10SM CLR 23/21 A3001 230 90 1200 050/05 RMK AO2 T02280211
63870K0J4 0J420160830070510808/30/16 07:05:31  5-MIN K0J4 301205Z AUTO 05005KT 10SM CLR 23/22 A3001 240 90 1300 050/05 RMK AO2 T02330217
63870K0J4 0J420160830071010808/30/16 07:10:31  5-MIN K0J4 301210Z AUTO 05005KT 10SM CLR 23/22 A3001 230 90 1300 050/05 RMK AO2 T02330217
63870K0J4 0J420160830071510808/30/16 07:15:31  5-MIN K0J4 301215Z AUTO 06006KT 10SM CLR 23/22 A3001 230 90 1300 060/06 RMK AO2 T02330217
63870K0J4 0J420160830072010808/30/16 07:20:31  5-MIN K0J4 301220Z AUTO 05006KT 10SM CLR 24/22 A3001 230 87 1400 050/06 RMK AO2 T02390217
63870K0J4 0J420160830072510808/30/16 07:25:31  5-MIN K0J4 301225Z AUTO 06006KT 10SM CLR 24/22 A3001 230 87 1400 060/06 RMK AO2 T02390217
63870K0J4 0J420160830073010808/30/16 07:30:31  5-MIN K0J4 301230Z AUTO 06006KT 10SM CLR 24/22 A3001 230 87 1400 060/06 RMK AO2 T02390217
63870K0J4 0J420160830073510808/30/16 07:35:31  5-MIN K0J4 301235Z AUTO 06005KT 10SM CLR 24/22 A3001 230 87 1400 060/05 RMK AO2 T02440222
63870K0J4 0J420160830074010808/30/16 07:40:31  5-MIN K0J4 301240Z AUTO 06008KT 10SM CLR 24/22 A3001 230 87 1400 060/08 RMK AO2 T02440222
63870K0J4 0J420160830074510808/30/16 07:45:31  5-MIN K0J4 301245Z AUTO 07007KT 10SM CLR 24/22 A3002 230 87 1400 070/07 RMK AO2 T02440222
63870K0J4 0J420160830075010808/30/16 07:50:31  5-MIN K0J4 301250Z AUTO 07007KT 10SM CLR 25/22 A3002 220 84 1500 070/07 RMK AO2 T02500222
63870K0J4 0J420160830075511508/30/16 07:55:31  5-MIN K0J4 301255Z AUTO 08008KT 10SM CLR 25/22 A3002 220 84 1500 080/08 RMK AO2 SLP161 T02500222
63870K0J4 0J420160830080011108/30/16 08:00:31  5-MIN K0J4 301300Z AUTO 07008KT 10SM FEW008 25/22 A3002 220 84 1500 070/08 RMK AO2 T02500222
63870K0J4 0J420160830080511108/30/16 08:05:31  5-MIN K0J4 301305Z AUTO 07009KT 10SM FEW008 25/22 A3002 220 84 1500 070/09 RMK AO2 T02500222
63870K0J4 0J420160830081011108/30/16 08:10:31  5-MIN K0J4 301310Z AUTO 07009KT 10SM FEW008 26/22 A3002 230 81 1500 070/09 RMK AO2 T02560222
63870K0J4 0J420160830081511108/30/16 08:15:31  5-MIN K0J4 301315Z AUTO 07007KT 10SM FEW008 26/23 A3002 230 84 1500 070/07 RMK AO2 T02560228
63870K0J4 0J420160830082011108/30/16 08:20:31  5-MIN K0J4 301320Z AUTO 07007KT 10SM SCT008 26/22 A3002 220 81 1500 070/07 RMK AO2 T02560222
63870K0J4 0J420160830082511108/30/16 08:25:31  5-MIN K0J4 301325Z AUTO 09006KT 10SM SCT009 26/23 A3002 230 81 1600 090/06 RMK AO2 T02610228
63870K0J4 0J420160830083011108/30/16 08:30:31  5-MIN K0J4 301330Z AUTO 09008KT 10SM SCT009 27/23 A3002 230 79 1700 090/08 RMK AO2 T02670228
63870K0J4 0J420160830083511108/30/16 08:35:31  5-MIN K0J4 301335Z AUTO 08009KT 10SM BKN009 27/23 A3002 220 79 1700 080/09 RMK AO2 T02670228
63870K0J4 0J420160830084012308/30/16 08:40:31  5-MIN K0J4 301340Z AUTO 08010KT 10SM BKN009 27/23 A3002 220 79 1700 080/10 RMK AO2 CIG 008V012 T02670228
63870K0J4 0J420160830084511108/30/16 08:45:31  5-MIN K0J4 301345Z AUTO 08009KT 10SM SCT009 27/23 A3002 220 79 1700 080/09 RMK AO2 T02670228
63870K0J4 0J420160830085011108/30/16 08:50:31  5-MIN K0J4 301350Z AUTO 09008KT 10SM FEW009 26/22 A3002 220 79 1600 090/08 RMK AO2 T02610222
63870K0J4 0J420160830085511808/30/16 08:55:31  5-MIN K0J4 301355Z AUTO 09006KT 10SM SCT013 27/23 A3002 220 79 1700 090/06 RMK AO2 SLP162 T02670228
63870K0J4 0J420160830090011108/30/16 09:00:31  5-MIN K0J4 301400Z AUTO 07009KT 10SM SCT013 27/23 A3002 220 79 1700 070/09 RMK AO2 T02670228
63870K0J4 0J420160830090511108/30/16 09:05:31  5-MIN K0J4 301405Z AUTO 07009KT 10SM SCT015 27/23 A3002 220 76 1700 070/09 RMK AO2 T02720228
63870K0J4 0J420160830091011708/30/16 09:10:31  5-MIN K0J4 301410Z AUTO 08009G16KT 10SM BKN015 27/22 A3002 220 76 1700 080/09G16 RMK AO2 T02670222
63870K0J4 0J420160830091511708/30/16 09:15:31  5-MIN K0J4 301415Z AUTO 09009G16KT 10SM BKN017 27/23 A3002 220 76 1700 090/09G16 RMK AO2 T02720228
63870K0J4 0J420160830092011108/30/16 09:20:31  5-MIN K0J4 301420Z AUTO 09008KT 10SM BKN017 28/22 A3002 220 71 1800 090/08 RMK AO2 T02780222
63870K0J4 0J420160830092511108/30/16 09:25:31  5-MIN K0J4 301425Z AUTO 09009KT 10SM BKN017 28/22 A3002 220 71 1800 090/09 RMK AO2 T02780222
63870K0J4 0J420160830093011108/30/16 09:30:31  5-MIN K0J4 301430Z AUTO 06010KT 10SM SCT017 28/23 A3002 220 74 1800 060/10 RMK AO2 T02780228
63870K0J4 0J420160830093511108/30/16 09:35:31  5-MIN K0J4 301435Z AUTO 07009KT 10SM BKN018 28/23 A3002 220 71 1800 070/09 RMK AO2 T02830228
63870K0J4 0J420160830094011108/30/16 09:40:31  5-MIN K0J4 301440Z AUTO 09009KT 10SM BKN018 28/23 A3002 220 71 1800 090/09 RMK AO2 T02830228
63870K0J4 0J420160830094511108/30/16 09:45:31  5-MIN K0J4 301445Z AUTO 07009KT 10SM BKN018 29/23 A3002 220 69 1900 070/09 RMK AO2 T02890228
63870K0J4 0J420160830095011108/30/16 09:50:31  5-MIN K0J4 301450Z AUTO 10009KT 10SM SCT018 28/22 A3002 220 69 1800 100/09 RMK AO2 T02830222
63870K0J4 0J420160830095512408/30/16 09:55:31  5-MIN K0J4 301455Z AUTO 09009KT 10SM SCT018 29/23 A3002 220 69 1900 090/09 RMK AO2 SLP162 T02890228 53005
63870K0J4 0J420160830100011108/30/16 10:00:31  5-MIN K0J4 301500Z AUTO 08008KT 10SM SCT019 29/23 A3002 220 69 1900 080/08 RMK AO2 T02890228
63870K0J4 0J420160830100511108/30/16 10:05:31  5-MIN K0J4 301505Z AUTO 09009KT 10SM FEW019 29/22 A3002 220 67 1900 090/09 RMK AO2 T02890222
63870K0J4 0J420160830101011108/30/16 10:10:31  5-MIN K0J4 301510Z AUTO 07006KT 10SM FEW019 29/22 A3002 220 67 1900 070/06 RMK AO2 T02890222
63870K0J4 0J420160830101511808/30/16 10:15:31  5-MIN K0J4 301515Z AUTO 07008KT 10SM FEW021 FEW027 29/22 A3002 220 67 1900 070/08 RMK AO2 T02890222
63870K0J4 0J420160830102011108/30/16 10:20:31  5-MIN K0J4 301520Z AUTO 06008KT 10SM FEW027 28/22 A3002 220 69 1800 060/08 RMK AO2 T02830222
63870K0J4 0J420160830102511808/30/16 10:25:31  5-MIN K0J4 301525Z AUTO 06010KT 10SM SCT024 SCT029 29/23 A3003 220 67 2000 060/10 RMK AO2 T02940228
63870K0J4 0J420160830103011808/30/16 10:30:31  5-MIN K0J4 301530Z AUTO 07010KT 10SM SCT024 BKN030 29/22 A3003 220 67 1900 070/10 RMK AO2 T02890222
63870K0J4 0J420160830103511808/30/16 10:35:31  5-MIN K0J4 301535Z AUTO 07010KT 10SM SCT024 SCT032 29/22 A3003 220 64 1900 070/10 RMK AO2 T02890217
63870K0J4 0J420160830104011808/30/16 10:40:31  5-MIN K0J4 301540Z AUTO 07009KT 10SM SCT027 BKN032 29/22 A3003 220 62 2000 070/09 RMK AO2 T02940217
63870K0J4 0J420160830104511808/30/16 10:45:31  5-MIN K0J4 301545Z AUTO 08008KT 10SM SCT027 BKN032 29/22 A3003 220 64 2000 080/08 RMK AO2 T02940222
63870K0J4 0J420160830105013108/30/16 10:50:31  5-MIN K0J4 301550Z AUTO 07011G18KT 10SM FEW024 BKN030 BKN038 29/22 A3003 220 62 2000 070/11G18 RMK AO2 T02940217
63870K0J4 0J420160830105513808/30/16 10:55:31  5-MIN K0J4 301555Z AUTO 08008G18KT 10SM SCT028 BKN035 BKN042 29/22 A3003 220 62 2000 080/08G18 RMK AO2 SLP163 T02940217
63870K0J4 0J420160830110011808/30/16 11:00:31  5-MIN K0J4 301600Z AUTO 07010KT 10SM SCT030 BKN038 29/22 A3003 220 64 1900 070/10 RMK AO2 T02890217
63870K0J4 0J420160830110511808/30/16 11:05:31  5-MIN K0J4 301605Z AUTO 09009KT 10SM SCT030 BKN038 29/22 A3002 220 62 2000 090/09 RMK AO2 T02940217
63870K0J4 0J420160830111011808/30/16 11:10:31  5-MIN K0J4 301610Z AUTO 07010KT 10SM FEW030 BKN038 30/22 A3002 220 60 2000 070/10 RMK AO2 T03000217
63870K0J4 0J420160830111511108/30/16 11:15:31  5-MIN K0J4 301615Z AUTO 08011KT 10SM SCT033 31/22 A3002 220 58 2100 080/11 RMK AO2 T03060217
63870K0J4 0J420160830112011108/30/16 11:20:31  5-MIN K0J4 301620Z AUTO 06011KT 10SM BKN033 30/22 A3002 220 60 2000 060/11 RMK AO2 T03000217
63870K0J4 0J420160830112511108/30/16 11:25:31  5-MIN K0J4 301625Z AUTO 08008KT 10SM BKN033 29/21 A3002 220 60 2000 080/08 RMK AO2 T02940211
63870K0J4 0J420160830113011108/30/16 11:30:31  5-MIN K0J4 301630Z AUTO 08010KT 10SM SCT033 31/21 A3002 220 56 2100 080/10 RMK AO2 T03060211
63870K0J4 0J420160830113511108/30/16 11:35:31  5-MIN K0J4 301635Z AUTO 09011KT 10SM SCT034 30/21 A3002 220 56 2000 090/11 RMK AO2 T03000206
63870K0J4 0J420160830114011108/30/16 11:40:31  5-MIN K0J4 301640Z AUTO 08011KT 10SM SCT034 31/21 A3002 220 54 2200 080/11 RMK AO2 T03110211
63870K0J4 0J420160830114511708/30/16 11:45:31  5-MIN K0J4 301645Z AUTO 08009G16KT 10SM SCT036 31/21 A3002 230 56 2100 080/09G16 RMK AO2 T03060211
63870K0J4 0J420160830115011108/30/16 11:50:31  5-MIN K0J4 301650Z AUTO 06012KT 10SM SCT036 31/21 A3002 230 56 2100 060/12 RMK AO2 T03060211
63870K0J4 0J420160830115511808/30/16 11:55:31  5-MIN K0J4 301655Z AUTO 08009KT 10SM SCT036 31/21 A3001 230 54 2100 080/09 RMK AO2 SLP159 T03060206
63870K0J4 0J420160830120011808/30/16 12:00:31  5-MIN K0J4 301700Z AUTO 08010KT 10SM FEW036 SCT045 30/21 A3001 230 56 2000 080/10 RMK AO2 T03000206
63870K0J4 0J420160830120511808/30/16 12:05:31  5-MIN K0J4 301705Z AUTO 08010KT 10SM FEW036 SCT045 29/21 A3001 230 58 2000 080/10 RMK AO2 T02940206
63870K0J4 0J420160830121011808/30/16 12:10:31  5-MIN K0J4 301710Z AUTO 08011KT 10SM FEW036 FEW046 31/21 A3001 230 54 2200 080/11 RMK AO2 T03110211
63870K0J4 0J420160830121511808/30/16 12:15:31  5-MIN K0J4 301715Z AUTO 07013KT 10SM FEW036 FEW046 31/21 A3001 240 54 2200 070/13 RMK AO2 T03110211
63870K0J4 0J420160830122013308/30/16 12:20:31  5-MIN K0J4 301720Z AUTO 08009G15KT 050V130 10SM FEW044 31/21 A3001 240 54 2200 080/09G15 050V130 RMK AO2 T03110211
63870K0J4 0J420160830122511108/30/16 12:25:31  5-MIN K0J4 301725Z AUTO 07009KT 10SM FEW044 31/21 A3000 240 53 2200 070/09 RMK AO2 T03110206
63870K0J4 0J420160830123011108/30/16 12:30:31  5-MIN K0J4 301730Z AUTO 07009KT 10SM FEW044 31/21 A3000 240 54 2200 070/09 RMK AO2 T03110211
63870K0J4 0J420160830123511108/30/16 12:35:31  5-MIN K0J4 301735Z AUTO 08010KT 10SM FEW044 32/21 A3000 240 53 2200 080/10 RMK AO2 T03170211
63870K0J4 0J420160830124011708/30/16 12:40:31  5-MIN K0J4 301740Z AUTO 06010G17KT 10SM FEW042 32/21 A3000 240 53 2200 060/10G17 RMK AO2 T03170211
63870K0J4 0J420160830124511108/30/16 12:45:31  5-MIN K0J4 301745Z AUTO 08010KT 10SM SCT042 32/21 A3000 240 51 2200 080/10 RMK AO2 T03170206
63870K0J4 0J420160830125011108/30/16 12:50:31  5-MIN K0J4 301750Z AUTO 08009KT 10SM FEW044 32/21 A3000 240 51 2200 080/09 RMK AO2 T03170206
63870K0J4 0J420160830125513608/30/16 12:55:31  5-MIN K0J4 301755Z AUTO 07007KT 10SM FEW042 32/21 A3000 240 51 2200 070/07 RMK AO2 SLP154 T03170206 10317 20228 51006
63870K0J4 0J420160830130011108/30/16 13:00:31  5-MIN K0J4 301800Z AUTO 06010KT 10SM SCT042 31/21 A3000 240 53 2200 060/10 RMK AO2 T03110206
63870K0J4 0J420160830130511108/30/16 13:05:31  5-MIN K0J4 301805Z AUTO 08006KT 10SM FEW042 32/21 A3000 240 51 2300 080/06 RMK AO2 T03220211
63870K0J4 0J420160830131012708/30/16 13:10:31  5-MIN K0J4 301810Z AUTO 07009KT 040V110 10SM FEW042 32/21 A3000 250 51 2300 070/09 040V110 RMK AO2 T03220211
63870K0J4 0J420160830131511708/30/16 13:15:31  5-MIN K0J4 301815Z AUTO 09010G17KT 10SM FEW042 32/21 A2999 250 49 2300 090/10G17 RMK AO2 T03220206
63870K0J4 0J420160830132011708/30/16 13:20:31  5-MIN K0J4 301820Z AUTO 08009G17KT 10SM FEW042 32/21 A2999 250 49 2300 080/09G17 RMK AO2 T03220206
63870K0J4 0J420160830132511108/30/16 13:25:31  5-MIN K0J4 301825Z AUTO VRB06KT 10SM FEW042 32/21 A2999 250 51 2300 VRB/06 RMK AO2 T03220211
63870K0J4 0J420160830133011108/30/16 13:30:31  5-MIN K0J4 301830Z AUTO 04009KT 10SM SCT043 32/21 A2999 250 51 2300 040/09 RMK AO2 T03220211
63870K0J4 0J420160830133511108/30/16 13:35:31  5-MIN K0J4 301835Z AUTO 05010KT 10SM SCT043 32/21 A2998 260 53 2300 050/10 RMK AO2 T03170211
63870K0J4 0J420160830134011108/30/16 13:40:31  5-MIN K0J4 301840Z AUTO 05009KT 10SM SCT043 31/21 A2998 260 56 2100 050/09 RMK AO2 T03060211
63870K0J4 0J420160830134511108/30/16 13:45:31  5-MIN K0J4 301845Z AUTO 06007KT 10SM SCT043 32/22 A2998 260 53 2300 060/07 RMK AO2 T03220217
63870K0J4 0J420160830135011108/30/16 13:50:31  5-MIN K0J4 301850Z AUTO 09009KT 10SM SCT043 32/21 A2998 260 53 2300 090/09 RMK AO2 T03170211
63870K0J4 0J420160830135511808/30/16 13:55:31  5-MIN K0J4 301855Z AUTO 04010KT 10SM FEW043 32/21 A2998 260 53 2300 040/10 RMK AO2 SLP146 T03170211
63870K0J4 0J420160830140012408/30/16 14:00:31  5-MIN K0J4 301900Z AUTO 06011G16KT 10SM FEW043 SCT055 32/21 A2997 270 51 2300 060/11G16 RMK AO2 T03170206
63870K0J4 0J420160830140511108/30/16 14:05:31  5-MIN K0J4 301905Z AUTO 06009KT 10SM FEW055 32/21 A2997 270 49 2300 060/09 RMK AO2 T03220206
63870K0J4 0J420160830141011108/30/16 14:10:31  5-MIN K0J4 301910Z AUTO 05009KT 10SM FEW049 32/21 A2997 270 49 2300 050/09 RMK AO2 T03220206
63870K0J4 0J420160830141511808/30/16 14:15:31  5-MIN K0J4 301915Z AUTO 06010KT 10SM FEW049 FEW060 32/21 A2997 270 51 2300 060/10 RMK AO2 T03170206
63870K0J4 0J420160830142011808/30/16 14:20:31  5-MIN K0J4 301920Z AUTO 06008KT 10SM FEW046 FEW060 32/21 A2996 280 51 2300 060/08 RMK AO2 T03220211
63870K0J4 0J420160831112511308/31/16 11:25:31  5-MIN K0J4 311625Z AUTO 05011KT 10SM SCT035 29/21 A2994 300 60 2000 050/11 RMK AO2 T02890206 $
63870K0J4 0J420160831113011308/31/16 11:30:31  5-MIN K0J4 311630Z AUTO 06013KT 10SM SCT037 29/21 A2994 300 60 2000 060/13 RMK AO2 T02890206 $
63870K0J4 0J420160831113511908/31/16 11:35:31  5-MIN K0J4 311635Z AUTO 06009G17KT 10SM SCT037 29/21 A2993 300 58 2100 060/09G17 RMK AO2 T02940206 $
63870K0J4 0J420160831114011908/31/16 11:40:31  5-MIN K0J4 311640Z AUTO 05012G18KT 10SM SCT039 29/21 A2993 300 58 2100 050/12G18 RMK AO2 T02940206 $
63870K0J4 0J420160831114511308/31/16 11:45:31  5-MIN K0J4 311645Z AUTO 06011KT 10SM BKN039 29/21 A2993 310 58 2100 060/11 RMK AO2 T02940206 $
63870K0J4 0J420160831115011308/31/16 11:50:31  5-MIN K0J4 311650Z AUTO 08009KT 10SM BKN039 30/21 A2993 310 56 2100 080/09 RMK AO2 T03000206 $
63870K0J4 0J420160831115512008/31/16 11:55:31  5-MIN K0J4 311655Z AUTO 07009KT 10SM BKN037 30/21 A2993 310 58 2100 070/09 RMK AO2 SLP130 T03000211 $
63870K0J4 0J420160831120012008/31/16 12:00:31  5-MIN K0J4 311700Z AUTO 06010KT 10SM BKN037 BKN047 30/21 A2993 310 58 2100 060/10 RMK AO2 T03000211 $
63870K0J4 0J420160831120512008/31/16 12:05:31  5-MIN K0J4 311705Z AUTO 06010KT 10SM SCT037 BKN048 29/21 A2993 310 60 2100 060/10 RMK AO2 T02940211 $
63870K0J4 0J420160831121012008/31/16 12:10:31  5-MIN K0J4 311710Z AUTO 08008KT 10SM SCT036 BKN048 30/21 A2992 310 58 2100 080/08 RMK AO2 T03000211 $
63870K0J4 0J420160831121512008/31/16 12:15:31  5-MIN K0J4 311715Z AUTO 08009KT 10SM FEW036 BKN048 31/21 A2992 310 56 2200 080/09 RMK AO2 T03060211 $
63870K0J4 0J420160831122012608/31/16 12:20:31  5-MIN K0J4 311720Z AUTO 09011G16KT 10SM SCT036 BKN048 32/22 A2992 320 55 2300 090/11G16 RMK AO2 T03170217 $
63870K0J4 0J420160831122512608/31/16 12:25:31  5-MIN K0J4 311725Z AUTO 05010G16KT 10SM SCT036 BKN048 30/21 A2992 320 58 2100 050/10G16 RMK AO2 T03000211 $
63870K0J4 0J420160831123012008/31/16 12:30:31  5-MIN K0J4 311730Z AUTO 05009KT 10SM FEW036 BKN047 31/21 A2992 320 56 2200 050/09 RMK AO2 T03060211 $
63870K0J4 0J420160831123512008/31/16 12:35:31  5-MIN K0J4 311735Z AUTO 06010KT 10SM SCT037 BKN049 31/22 A2991 320 56 2300 060/10 RMK AO2 T03110217 $
63870K0J4 0J420160831124012008/31/16 12:40:31  5-MIN K0J4 311740Z AUTO 05012KT 10SM BKN037 BKN046 31/21 A2991 320 54 2300 050/12 RMK AO2 T03110211 $
63870K0J4 0J420160831124512008/31/16 12:45:31  5-MIN K0J4 311745Z AUTO 05008KT 10SM BKN037 BKN049 30/21 A2991 330 58 2200 050/08 RMK AO2 T03000211 $
63870K0J4 0J420160831125012008/31/16 12:50:31  5-MIN K0J4 311750Z AUTO 05012KT 10SM SCT038 BKN047 30/21 A2991 330 58 2200 050/12 RMK AO2 T03000211 $
63870K0J4 0J420160831125514508/31/16 12:55:31  5-MIN K0J4 311755Z AUTO 07009KT 10SM FEW038 SCT050 31/21 A2991 330 56 2200 070/09 RMK AO2 SLP122 T03060211 10317 20228 53005 $
63870K0J4 0J420160831130012008/31/16 13:00:31  5-MIN K0J4 311800Z AUTO 09008KT 10SM FEW038 SCT048 31/21 A2990 330 54 2300 090/08 RMK AO2 T03110211 $
63870K0J4 0J420160831130511908/31/16 13:05:31  5-MIN K0J4 311805Z AUTO 06013G17KT 10SM FEW039 32/21 A2990 330 53 2400 060/13G17 RMK AO2 T03170211 $
63870K0J4 0J420160831131012608/31/16 13:10:31  5-MIN K0J4 311810Z AUTO 07007G17KT 10SM FEW039 SCT048 32/22 A2990 340 53 2400 070/07G17 RMK AO2 T03220217 $
63870K0J4 0J420160831131512008/31/16 13:15:31  5-MIN K0J4 311815Z AUTO 05008KT 10SM SCT039 SCT050 31/21 A2990 340 54 2300 050/08 RMK AO2 T03110211 $
63870K0J4 0J420160831132012008/31/16 13:20:31  5-MIN K0J4 311820Z AUTO 05008KT 10SM SCT039 SCT050 31/21 A2990 340 56 2200 050/08 RMK AO2 T03060211 $
63870K0J4 0J420160831132512708/31/16 13:25:31  5-MIN K0J4 311825Z AUTO 05011KT 10SM SCT039 BKN047 BKN060 31/21 A2990 340 54 2300 050/11 RMK AO2 T03110211 $
63870K0J4 0J420160831133012708/31/16 13:30:31  5-MIN K0J4 311830Z AUTO 05010KT 10SM SCT039 SCT047 BKN065 30/21 A2989 340 56 2200 050/10 RMK AO2 T03000206 $
63870K0J4 0J420160831133512708/31/16 13:35:31  5-MIN K0J4 311835Z AUTO 07009KT 10SM FEW039 SCT046 BKN065 30/21 A2989 340 56 2200 070/09 RMK AO2 T03000206 $
63870K0J4 0J420160831134012708/31/16 13:40:31  5-MIN K0J4 311840Z AUTO 07008KT 10SM FEW039 FEW050 BKN065 31/21 A2989 350 56 2200 070/08 RMK AO2 T03060211 $
63870K0J4 0J420160831134512708/31/16 13:45:31  5-MIN K0J4 311845Z AUTO 07008KT 10SM FEW039 FEW048 SCT065 32/21 A2989 350 53 2400 070/08 RMK AO2 T03170211 $
63870K0J4 0J420160831135012708/31/16 13:50:31  5-MIN K0J4 311850Z AUTO 05009KT 10SM FEW039 SCT048 BKN065 32/21 A2988 350 53 2400 050/09 RMK AO2 T03170211 $
63870K0J4 0J420160831135513408/31/16 13:55:31  5-MIN K0J4 311855Z AUTO 05010KT 10SM SCT039 SCT050 BKN065 31/21 A2988 350 56 2300 050/10 RMK AO2 SLP114 T03060211 $
63870K0J4 0J420160831140012708/31/16 14:00:31  5-MIN K0J4 311900Z AUTO 06008KT 10SM FEW040 SCT050 BKN060 31/21 A2988 350 56 2300 060/08 RMK AO2 T03060211 $
63870K0J4 0J420160831140513408/31/16 14:05:31  5-MIN K0J4 311905Z AUTO 07010KT 040V100 10SM FEW040 SCT050 32/22 A2988 360 55 2400 070/10 040V100 RMK AO2 T03170217
63870K0J4 0J420160831141011808/31/16 14:10:31  5-MIN K0J4 311910Z AUTO 07008KT 10SM FEW040 SCT050 32/22 A2988 360 53 2400 070/08 RMK AO2 T03220217
63870K0J4 0J420160831141512408/31/16 14:15:31  5-MIN K0J4 311915Z AUTO 08010G15KT 10SM FEW040 FEW050 32/21 A2987 360 51 2400 080/10G15 RMK AO2 T03220211
63870K0J4 0J420160831142006308/31/16 14:20:31  5-MIN K0J4 311920Z AUTO M M M M /M RMK AO2 $
63870K0J4 0J420160831142509908/31/16 14:25:31  5-MIN K0J4 311925Z AUTO 05009KT 32/21 A2987 360 51 2500 050/09 RMK AO2 T03220211
63870K0J4 0J420160831143010408/31/16 14:30:31  5-MIN K0J4 311930Z AUTO 05009KT 10SM 31/21 A2987 360 54 2300 050/09 RMK AO2 T03110211
63870K0J4 0J420160831143510408/31/16 14:35:31  5-MIN K0J4 311935Z AUTO 05008KT 10SM 31/21 A2986 370 56 2300 050/08 RMK AO2 T03060211
63870K0J4 0J420160831144010408/31/16 14:40:31  5-MIN K0J4 311940Z AUTO 06007KT 10SM 32/21 A2986 370 51 2500 060/07 RMK AO2 T03220211
63870K0J4 0J420160831144511008/31/16 14:45:31  5-MIN K0J4 311945Z AUTO 06010G18KT 10SM 31/21 A2986 370 54 2300 060/10G18 RMK AO2 T03110211
63870K0J4 0J420160831145012408/31/16 14:50:31  5-MIN K0J4 311950Z AUTO 05009G18KT 10SM FEW043 BKN070 32/21 A2986 370 51 2400 050/09G18 RMK AO2 T03170206
63870K0J4 0J420160831145511808/31/16 14:55:31  5-MIN K0J4 311955Z AUTO 04008KT 10SM SCT070 32/21 A2986 370 51 2500 040/08 RMK AO2 SLP106 T03220211
63870K0J4 0J420160831150011108/31/16 15:00:31  5-MIN K0J4 312000Z AUTO 07007KT 10SM SCT065 33/21 A2986 380 49 2500 070/07 RMK AO2 T03280211
63870K0J4 0J420160831150512708/31/16 15:05:31  5-MIN K0J4 312005Z AUTO 08010KT 10SM FEW043 SCT050 BKN065 33/21 A2986 370 49 2500 080/10 RMK AO2 T03280211 $
63870K0J4 0J420160831151012708/31/16 15:10:31  5-MIN K0J4 312010Z AUTO 06009KT 10SM FEW045 SCT055 BKN070 32/21 A2986 380 51 2500 060/09 RMK AO2 T03220211 $
63870K0J4 0J420160831151512708/31/16 15:15:31  5-MIN K0J4 312015Z AUTO 06009KT 10SM FEW045 SCT055 BKN070 31/21 A2986 370 54 2300 060/09 RMK AO2 T03110211 $
63870K0J4 0J420160831152012708/31/16 15:20:31  5-MIN K0J4 312020Z AUTO 05008KT 10SM FEW045 SCT055 BKN075 31/21 A2986 380 54 2300 050/08 RMK AO2 T03110211 $
63870K0J4 0J420160831152512708/31/16 15:25:31  5-MIN K0J4 312025Z AUTO 05008KT 10SM FEW045 FEW055 BKN075 32/21 A2986 380 53 2400 050/08 RMK AO2 T03170211 $
63870K0J4 0J420160831153012708/31/16 15:30:31  5-MIN K0J4 312030Z AUTO 05008KT 10SM FEW045 FEW055 BKN075 32/21 A2986 380 51 2500 050/08 RMK AO2 T03220211 $
63870K0J4 0J420160831153511308/31/16 15:35:31  5-MIN K0J4 312035Z AUTO 04010KT 10SM BKN070 32/21 A2985 380 49 2500 040/10 RMK AO2 T03220206 $
63870K0J4 0J420160831154011308/31/16 15:40:31  5-MIN K0J4 312040Z AUTO 08009KT 10SM BKN075 32/21 A2985 380 51 2500 080/09 RMK AO2 T03220211 $
63870K0J4 0J420160831154511308/31/16 15:45:31  5-MIN K0J4 312045Z AUTO 07008KT 10SM BKN075 31/21 A2985 380 54 2300 070/08 RMK AO2 T03110211 $
63870K0J4 0J420160831155011308/31/16 15:50:31  5-MIN K0J4 312050Z AUTO 09006KT 10SM SCT075 32/22 A2985 380 53 2500 090/06 RMK AO2 T03220217 $
63870K0J4 0J420160831155512708/31/16 15:55:31  5-MIN K0J4 312055Z AUTO VRB05KT 10SM FEW045 SCT075 33/21 A2985 380 49 2500 VRB/05 RMK AO2 SLP104 T03280211 $
63870K0J4 0J420160831160012708/31/16 16:00:31  5-MIN K0J4 312100Z AUTO 06006KT 10SM FEW045 FEW055 BKN075 32/21 A2985 380 53 2400 060/06 RMK AO2 T03170211 $
63870K0J4 0J420160831160513308/31/16 16:05:31  5-MIN K0J4 312105Z AUTO 06009G15KT 10SM FEW045 FEW055 BKN080 31/21 A2985 380 54 2300 060/09G15 RMK AO2 T03110211 $
63870K0J4 0J420160831161012008/31/16 16:10:31  5-MIN K0J4 312110Z AUTO 04006KT 10SM FEW045 BKN080 31/21 A2985 390 54 2400 040/06 RMK AO2 T03110211 $
63870K0J4 0J420160831161512008/31/16 16:15:31  5-MIN K0J4 312115Z AUTO 04008KT 10SM FEW045 BKN080 32/21 A2984 390 53 2400 040/08 RMK AO2 T03170211 $
63870K0J4 0J420160831162012008/31/16 16:20:31  5-MIN K0J4 312120Z AUTO 03007KT 10SM FEW045 BKN080 32/21 A2984 390 53 2400 030/07 RMK AO2 T03170211 $
63870K0J4 0J420160831162511308/31/16 16:25:31  5-MIN K0J4 312125Z AUTO 07010KT 10SM BKN080 31/21 A2985 380 54 2400 070/10 RMK AO2 T03110211 $
63870K0J4 0J420160831163011308/31/16 16:30:31  5-MIN K0J4 312130Z AUTO 07007KT 10SM BKN080 31/22 A2985 380 56 2400 070/07 RMK AO2 T03110217 $
63870K0J4 0J420160831163511308/31/16 16:35:31  5-MIN K0J4 312135Z AUTO 06009KT 10SM SCT080 32/21 A2985 390 53 2400 060/09 RMK AO2 T03170211 $
63870K0J4 0J420160831164011308/31/16 16:40:31  5-MIN K0J4 312140Z AUTO 06007KT 10SM FEW080 32/21 A2984 390 53 2400 060/07 RMK AO2 T03170211 $
63870K0J4 0J420160831164511308/31/16 16:45:31  5-MIN K0J4 312145Z AUTO 05006KT 10SM FEW080 32/21 A2984 390 51 2500 050/06 RMK AO2 T03220211 $
63870K0J4 0J420160831165011308/31/16 16:50:31  5-MIN K0J4 312150Z AUTO 04005KT 10SM FEW080 32/21 A2984 390 51 2500 040/05 RMK AO2 T03220211 $
63870K0J4 0J420160831165512008/31/16 16:55:31  5-MIN K0J4 312155Z AUTO 04006KT 10SM SCT080 32/22 A2984 390 53 2500 040/06 RMK AO2 SLP100 T03220217 $
63870K0J4 0J420160831170011308/31/16 17:00:31  5-MIN K0J4 312200Z AUTO 03006KT 10SM BKN080 32/21 A2984 390 51 2500 030/06 RMK AO2 T03220211 $
63870K0J4 0J420160831170512008/31/16 17:05:31  5-MIN K0J4 312205Z AUTO 05007KT 10SM FEW046 BKN080 32/21 A2984 390 51 2500 050/07 RMK AO2 T03220211 $
63870K0J4 0J420160831171012008/31/16 17:10:31  5-MIN K0J4 312210Z AUTO 08006KT 10SM FEW046 SCT080 32/21 A2984 390 53 2400 080/06 RMK AO2 T03170211 $
63870K0J4 0J420160831171512008/31/16 17:15:31  5-MIN K0J4 312215Z AUTO 08007KT 10SM FEW046 SCT080 32/21 A2984 390 53 2400 080/07 RMK AO2 T03170211 $
63870K0J4 0J420160831172012008/31/16 17:20:31  5-MIN K0J4 312220Z AUTO 07005KT 10SM FEW046 SCT080 32/21 A2984 390 53 2400 070/05 RMK AO2 T03170211 $
63870K0J4 0J420160831172512008/31/16 17:25:31  5-MIN K0J4 312225Z AUTO 06004KT 10SM FEW046 FEW080 32/21 A2984 390 51 2500 060/04 RMK AO2 T03220211 $
63870K0J4 0J420160831173012008/31/16 17:30:31  5-MIN K0J4 312230Z AUTO 07003KT 10SM FEW046 FEW080 32/21 A2984 390 51 2500 070/03 RMK AO2 T03220211 $
63870K0J4 0J420160831173511308/31/16 17:35:31  5-MIN K0J4 312235Z AUTO 05006KT 10SM FEW080 32/21 A2984 390 51 2500 050/06 RMK AO2 T03220211 $
63870K0J4 0J420160831174011308/31/16 17:40:31  5-MIN K0J4 312240Z AUTO 05007KT 10SM FEW080 32/21 A2984 390 51 2500 050/07 RMK AO2 T03220211 $
63870K0J4 0J420160831174511308/31/16 17:45:31  5-MIN K0J4 312245Z AUTO 05007KT 10SM FEW080 32/21 A2984 390 53 2400 050/07 RMK AO2 T03170211 $
63870K0J4 0J420160831175011308/31/16 17:50:31  5-MIN K0J4 312250Z AUTO 06009KT 10SM FEW080 32/21 A2984 390 51 2400 060/09 RMK AO2 T03170206 $
63870K0J4 0J420160831175512008/31/16 17:55:31  5-MIN K0J4 312255Z AUTO 06007KT 10SM FEW080 32/21 A2984 390 51 2400 060/07 RMK AO2 SLP099 T03170206 $
63870K0J4 0J420160831180011008/31/16 18:00:31  5-MIN K0J4 312300Z AUTO 04007KT 10SM CLR 32/21 A2984 390 51 2400 040/07 RMK AO2 T03170206 $
63870K0J4 0J420160831180511008/31/16 18:05:31  5-MIN K0J4 312305Z AUTO 03004KT 10SM CLR 31/21 A2984 400 54 2400 030/04 RMK AO2 T03110211 $
63870K0J4 0J420160831181011008/31/16 18:10:31  5-MIN K0J4 312310Z AUTO 04004KT 10SM CLR 31/21 A2983 400 54 2400 040/04 RMK AO2 T03110211 $
63870K0J4 0J420160831181511008/31/16 18:15:31  5-MIN K0J4 312315Z AUTO 04004KT 10SM CLR 31/21 A2983 400 56 2300 040/04 RMK AO2 T03060211 $
63870K0J4 0J420160831182011008/31/16 18:20:31  5-MIN K0J4 312320Z AUTO 04005KT 10SM CLR 31/21 A2984 390 56 2300 040/05 RMK AO2 T03060211 $
63870K0J4 0J420160831182511008/31/16 18:25:31  5-MIN K0J4 312325Z AUTO 04004KT 10SM CLR 30/21 A2984 390 58 2200 040/04 RMK AO2 T03000211 $
63870K0J4 0J420160831183011008/31/16 18:30:31  5-MIN K0J4 312330Z AUTO 02004KT 10SM CLR 30/22 A2983 400 60 2200 020/04 RMK AO2 T03000217 $
63870K0J4 0J420160831183511008/31/16 18:35:31  5-MIN K0J4 312335Z AUTO 02003KT 10SM CLR 29/22 A2983 400 62 2200 020/03 RMK AO2 T02940217 $
63870K0J4 0J420160831184011008/31/16 18:40:31  5-MIN K0J4 312340Z AUTO 02004KT 10SM CLR 29/22 A2984 390 62 2200 020/04 RMK AO2 T02940217 $
63870K0J4 0J420160831184511008/31/16 18:45:31  5-MIN K0J4 312345Z AUTO 02003KT 10SM CLR 29/22 A2984 400 62 2200 020/03 RMK AO2 T02940217 $
63870K0J4 0J420160831185011008/31/16 18:50:31  5-MIN K0J4 312350Z AUTO 02003KT 10SM CLR 29/22 A2983 400 64 2100 020/03 RMK AO2 T02890217 $
63870K0J4 0J420160831185512908/31/16 18:55:31  5-MIN K0J4 312355Z AUTO 02003KT 10SM CLR 28/22 A2983 400 69 2100 020/03 RMK AO2 SLP098 T02830222 10328 20283 $
63870K0J4 0J420160831190011008/31/16 19:00:31  5-MIN K0J4 010000Z AUTO 02003KT 10SM CLR 28/22 A2984 400 69 2100 020/03 RMK AO2 T02830222 $
63870K0J4 0J420160831190511008/31/16 19:05:31  5-MIN K0J4 010005Z AUTO 03004KT 10SM CLR 28/22 A2984 390 71 2000 030/04 RMK AO2 T02780222 $
63870K0J4 0J420160831191011008/31/16 19:10:31  5-MIN K0J4 010010Z AUTO 03004KT 10SM CLR 28/22 A2984 390 71 2000 030/04 RMK AO2 T02780222 $
63870K0J4 0J420160831191511008/31/16 19:15:31  5-MIN K0J4 010015Z AUTO 05006KT 10SM CLR 28/22 A2984 390 71 2000 050/06 RMK AO2 T02780222 $
63870K0J4 0J420160831192011008/31/16 19:20:31  5-MIN K0J4 010020Z AUTO VRB04KT 10SM CLR 29/22 A2984 390 64 2100 VRB/04 RMK AO2 T02890217 $
63870K0J4 0J420160831192511008/31/16 19:25:31  5-MIN K0J4 010025Z AUTO 05004KT 10SM CLR 28/22 A2985 390 71 2000 050/04 RMK AO2 T02780222 $
63870K0J4 0J420160831193011008/31/16 19:30:31  5-MIN K0J4 010030Z AUTO 05004KT 10SM CLR 27/22 A2985 380 74 1900 050/04 RMK AO2 T02720222 $
63870K0J4 0J420160831193511008/31/16 19:35:31  5-MIN K0J4 010035Z AUTO 05003KT 10SM CLR 27/22 A2985 380 74 1900 050/03 RMK AO2 T02720222 $
63870K0J4 0J420160831194011008/31/16 19:40:31  5-MIN K0J4 010040Z AUTO 05004KT 10SM CLR 27/22 A2985 380 74 1900 050/04 RMK AO2 T02720222 $
63870K0J4 0J420160831194511008/31/16 19:45:31  5-MIN K0J4 010045Z AUTO 05003KT 10SM CLR 27/22 A2986 380 74 1900 050/03 RMK AO2 T02720222 $
63870K0J4 0J420160831195011008/31/16 19:50:31  5-MIN K0J4 010050Z AUTO 05004KT 10SM CLR 27/22 A2986 380 74 1900 050/04 RMK AO2 T02720222 $
63870K0J4 0J420160831195511708/31/16 19:55:31  5-MIN K0J4 010055Z AUTO 05004KT 10SM CLR 27/22 A2986 370 74 1900 050/04 RMK AO2 SLP106 T02720222 $
63870K0J4 0J420160831200011008/31/16 20:00:31  5-MIN K0J4 010100Z AUTO 05003KT 10SM CLR 27/22 A2986 370 74 1900 050/03 RMK AO2 T02720222 $
63870K0J4 0J420160831200511308/31/16 20:05:31  5-MIN K0J4 010105Z AUTO 05003KT 10SM FEW050 27/22 A2986 370 74 1900 050/03 RMK AO2 T02720222 $
63870K0J4 0J420160831201011308/31/16 20:10:31  5-MIN K0J4 010110Z AUTO 05003KT 10SM SCT050 27/22 A2986 370 74 1900 050/03 RMK AO2 T02720222 $
63870K0J4 0J420160831201511308/31/16 20:15:31  5-MIN K0J4 010115Z AUTO 05003KT 10SM SCT050 27/22 A2986 370 74 1900 050/03 RMK AO2 T02720222 $
63870K0J4 0J420160831202011308/31/16 20:20:31  5-MIN K0J4 010120Z AUTO 04003KT 10SM SCT050 27/22 A2986 370 74 1900 040/03 RMK AO2 T02720222 $
63870K0J4 0J420160831202512908/31/16 20:25:31  5-MIN K0J4 010125Z AUTO 05003KT 10SM -RA SCT050 27/22 A2986 370 74 1900 050/03 RMK AO2 RAB22 P0000 T02720222 $
63870K0J4 0J420160831203012808/31/16 20:30:31  5-MIN K0J4 010130Z AUTO 06004KT 10SM BKN050 27/22 A2987 370 71 1900 060/04 RMK AO2 RAB22E29 P0000 T02720217 $
63870K0J4 0J420160831203513508/31/16 20:35:31  5-MIN K0J4 010135Z AUTO 05003KT 10SM BKN050 BKN060 27/22 A2987 360 74 1900 050/03 RMK AO2 RAB22E29 P0000 T02720222 $
63870K0J4 0J420160831204013508/31/16 20:40:31  5-MIN K0J4 010140Z AUTO 06004KT 10SM BKN050 BKN065 27/22 A2987 360 74 1900 060/04 RMK AO2 RAB22E29 P0000 T02720222 $
63870K0J4 0J420160831204513608/31/16 20:45:31  5-MIN K0J4 010145Z AUTO 06004KT 10SM -RA BKN048 OVC065 28/22 A2987 360 71 2000 060/04 RMK AO2 RAB22 P0000 T02780222 $
63870K0J4 0J420160831205013608/31/16 20:50:31  5-MIN K0J4 010150Z AUTO 06005KT 10SM -RA BKN045 OVC055 28/22 A2987 360 71 2000 060/05 RMK AO2 RAB22 P0000 T02780222 $
63870K0J4 0J420160831205514208/31/16 20:55:31  5-MIN K0J4 010155Z AUTO 14007KT 10SM BKN045 OVC055 27/22 A2988 350 74 1900 140/07 RMK AO2 RAB22E51 SLP113 P0000 T02720222 $
63870K0J4 0J420160831210012008/31/16 21:00:31  5-MIN K0J4 010200Z AUTO VRB04KT 10SM BKN045 OVC055 27/22 A2988 360 76 1800 VRB/04 RMK AO2 T02670222 $
63870K0J4 0J420160831210512008/31/16 21:05:31  5-MIN K0J4 010205Z AUTO 00000KT 10SM SCT043 BKN055 27/22 A2988 360 76 1800 000/00 RMK AO2 T02670222 $
63870K0J4 0J420160831211012008/31/16 21:10:31  5-MIN K0J4 010210Z AUTO 07003KT 10SM SCT045 BKN060 27/22 A2988 350 76 1800 070/03 RMK AO2 T02670222 $
63870K0J4 0J420160831211512008/31/16 21:15:31  5-MIN K0J4 010215Z AUTO 04005KT 10SM SCT043 BKN055 27/22 A2988 350 76 1800 040/05 RMK AO2 T02670222 $
63870K0J4 0J420160831212012008/31/16 21:20:31  5-MIN K0J4 010220Z AUTO 04005KT 10SM FEW043 BKN055 27/22 A2988 350 76 1800 040/05 RMK AO2 T02670222 $
63870K0J4 0J420160831212512708/31/16 21:25:31  5-MIN K0J4 010225Z AUTO 03005KT 10SM FEW042 SCT060 BKN095 27/22 A2988 350 76 1800 030/05 RMK AO2 T02670222 $
63870K0J4 0J420160831213012708/31/16 21:30:31  5-MIN K0J4 010230Z AUTO 00000KT 10SM FEW050 SCT060 BKN095 27/22 A2988 350 76 1800 000/00 RMK AO2 T02670222 $
63870K0J4 0J420160831213512708/31/16 21:35:31  5-MIN K0J4 010235Z AUTO 00000KT 10SM FEW041 SCT055 BKN095 27/22 A2988 350 76 1800 000/00 RMK AO2 T02670222 $
63870K0J4 0J420160831214012708/31/16 21:40:31  5-MIN K0J4 010240Z AUTO 00000KT 10SM SCT039 BKN055 BKN095 27/23 A2989 350 79 1800 000/00 RMK AO2 T02670228 $
63870K0J4 0J420160831214512708/31/16 21:45:31  5-MIN K0J4 010245Z AUTO 00000KT 10SM SCT039 SCT050 BKN060 27/23 A2989 350 79 1800 000/00 RMK AO2 T02670228 $
63870K0J4 0J420160831215012708/31/16 21:50:31  5-MIN K0J4 010250Z AUTO 00000KT 10SM SCT039 BKN060 OVC095 27/22 A2989 340 76 1800 000/00 RMK AO2 T02670222 $
63870K0J4 0J420160831215514608/31/16 21:55:31  5-MIN K0J4 010255Z AUTO 00000KT 10SM BKN039 BKN055 OVC095 27/22 A2989 340 76 1800 000/00 RMK AO2 SLP117 60000 T02670222 56006 $
63870K0J4 0J420160831220012708/31/16 22:00:31  5-MIN K0J4 010300Z AUTO 08004KT 10SM BKN037 BKN044 OVC055 27/23 A2989 340 79 1800 080/04 RMK AO2 T02670228 $
63870K0J4 0J420160831220512708/31/16 22:05:31  5-MIN K0J4 010305Z AUTO 00000KT 10SM BKN037 BKN065 BKN090 27/23 A2989 350 79 1800 000/00 RMK AO2 T02670228 $
63870K0J4 0J420160831221014308/31/16 22:10:31  5-MIN K0J4 010310Z AUTO 00000KT 10SM -RA SCT037 SCT046 BKN065 27/22 A2989 350 76 1800 000/00 RMK AO2 RAB07 P0000 T02670222 $
63870K0J4 0J420160831221513608/31/16 22:15:31  5-MIN K0J4 010315Z AUTO 11003KT 10SM -RA SCT037 SCT090 27/22 A2989 350 76 1800 110/03 RMK AO2 RAB07 P0000 T02670222 $
63870K0J4 0J420160831222013608/31/16 22:20:31  5-MIN K0J4 010320Z AUTO 00000KT 10SM -RA FEW037 SCT090 27/22 A2989 350 74 1900 000/00 RMK AO2 RAB07 P0000 T02720222 $
63870K0J4 0J420160831222513508/31/16 22:25:31  5-MIN K0J4 010325Z AUTO 00000KT 10SM FEW037 FEW090 27/22 A2989 350 76 1800 000/00 RMK AO2 RAB07E24 P0000 T02670222 $
63870K0J4 0J420160831223012808/31/16 22:30:31  5-MIN K0J4 010330Z AUTO 11003KT 10SM FEW090 27/22 A2989 350 76 1800 110/03 RMK AO2 RAB07E24 P0000 T02670222 $
63870K0J4 0J420160831223512508/31/16 22:35:31  5-MIN K0J4 010335Z AUTO 10003KT 10SM CLR 27/22 A2989 350 76 1800 100/03 RMK AO2 RAB07E24 P0000 T02670222 $
63870K0J4 0J420160831224012508/31/16 22:40:31  5-MIN K0J4 010340Z AUTO 00000KT 10SM CLR 26/22 A2989 350 79 1700 000/00 RMK AO2 RAB07E24 P0000 T02610222 $
63870K0J4 0J420160831224512508/31/16 22:45:31  5-MIN K0J4 010345Z AUTO VRB03KT 10SM CLR 26/22 A2989 340 79 1700 VRB/03 RMK AO2 RAB07E24 P0000 T02610222 $
63870K0J4 0J420160831225012508/31/16 22:50:31  5-MIN K0J4 010350Z AUTO 00000KT 10SM CLR 26/22 A2989 340 79 1700 000/00 RMK AO2 RAB07E24 P0000 T02610222 $
63870K0J4 0J420160831225513208/31/16 22:55:31  5-MIN K0J4 010355Z AUTO 00000KT 10SM CLR 26/22 A2989 350 79 1700 000/00 RMK AO2 RAB07E24 SLP116 P0000 T02610222 $
63870K0J4 0J420160831230011008/31/16 23:00:31  5-MIN K0J4 010400Z AUTO 10003KT 10SM CLR 26/23 A2989 340 81 1700 100/03 RMK AO2 T02610228 $
63870K0J4 0J420160831230511008/31/16 23:05:31  5-MIN K0J4 010405Z AUTO 00000KT 10SM CLR 26/23 A2989 340 81 1700 000/00 RMK AO2 T02610228 $
63870K0J4 0J420160831231011008/31/16 23:10:31  5-MIN K0J4 010410Z AUTO 00000KT 10SM CLR 26/23 A2989 340 81 1700 000/00 RMK AO2 T02610228 $
63870K0J4 0J420160831231511008/31/16 23:15:31  5-MIN K0J4 010415Z AUTO 00000KT 10SM CLR 26/23 A2989 340 84 1700 000/00 RMK AO2 T02560228 $
63870K0J4 0J420160831232011008/31/16 23:20:31  5-MIN K0J4 010420Z AUTO 00000KT 10SM CLR 26/23 A2989 340 84 1700 000/00 RMK AO2 T02560228 $
