04847KADG ADG20160125210511101/25/16 21:05:31  5-MIN KADG 260205Z AUTO 20011KT 10SM OVC021 04/01 A2977 940 79 -100 210/11 RMK AO2 T00390006
04847KADG ADG20160125211011101/25/16 21:10:31  5-MIN KADG 260210Z AUTO 20013KT 10SM OVC021 04/01 A2977 940 79 -100 200/13 RMK AO2 T00390006
04847KADG ADG20160125211511101/25/16 21:15:31  5-MIN KADG 260215Z AUTO 20011KT 10SM OVC019 04/01 A2977 940 79 -100 210/11 RMK AO2 T00390006
04847KADG ADG20160125212011101/25/16 21:20:31  5-MIN KADG 260220Z AUTO 20012KT 10SM OVC019 03/01 A2977 940 85 -200 210/12 RMK AO2 T00330011
04847KADG ADG20160125212511101/25/16 21:25:31  5-MIN KADG 260225Z AUTO 20010KT 10SM OVC019 04/01 A2976 940 82 -100 210/10 RMK AO2 T00390011
04847KADG ADG20160125213011101/25/16 21:30:31  5-MIN KADG 260230Z AUTO 20010KT 10SM OVC019 04/01 A2976 950 82 -100 210/10 RMK AO2 T00390011
04847KADG ADG20160125213511101/25/16 21:35:31  5-MIN KADG 260235Z AUTO 20011KT 10SM OVC019 04/01 A2976 950 82 -100 210/11 RMK AO2 T00390011
04847KADG ADG20160125214011101/25/16 21:40:31  5-MIN KADG 260240Z AUTO 21010KT 10SM OVC019 04/01 A2976 950 82 -100 210/10 RMK AO2 T00390011
04847KADG ADG20160125214511101/25/16 21:45:31  5-MIN KADG 260245Z AUTO 20009KT 10SM OVC019 04/01 A2976 950 82 -100 210/09 RMK AO2 T00390011
04847KADG ADG20160125215013001/25/16 21:50:31  5-MIN KADG 260250Z AUTO 20009KT 10SM OVC019 04/01 A2976 950 82 -100 210/09 RMK AO2 SLP086 60000 T00390011 55007
04847KADG ADG20160125215511101/25/16 21:55:31  5-MIN KADG 260255Z AUTO 20011KT 10SM OVC019 04/01 A2975 960 82 -100 210/11 RMK AO2 T00390011
04847KADG ADG20160125220011101/25/16 22:00:31  5-MIN KADG 260300Z AUTO 20009KT 10SM OVC019 04/01 A2975 960 82 -100 210/09 RMK AO2 T00390011
04847KADG ADG20160125220511101/25/16 22:05:31  5-MIN KADG 260305Z AUTO 20011KT 10SM OVC019 04/01 A2975 960 82 -100 210/11 RMK AO2 T00390011
04847KADG ADG20160125221010801/25/16 22:10:31  5-MIN KADG 260310Z AUTO 21011KT 10SM OVC019 04/01 A2975 960 79 0 220/11 RMK AO2 T00440011
04847KADG ADG20160125221510801/25/16 22:15:31  5-MIN KADG 260315Z AUTO 21012KT 10SM OVC019 04/01 A2975 960 79 0 220/12 RMK AO2 T00440011
04847KADG ADG20160125222010801/25/16 22:20:31  5-MIN KADG 260320Z AUTO 21012KT 10SM OVC021 04/01 A2974 960 79 0 220/12 RMK AO2 T00440011
04847KADG ADG20160125222510801/25/16 22:25:31  5-MIN KADG 260325Z AUTO 21011KT 10SM OVC021 05/01 A2974 970 76 0 220/11 RMK AO2 T00500011
04847KADG ADG20160125223010801/25/16 22:30:31  5-MIN KADG 260330Z AUTO 21012KT 10SM OVC021 05/02 A2974 970 79 0 220/12 RMK AO2 T00500017
04847KADG ADG20160125223510801/25/16 22:35:31  5-MIN KADG 260335Z AUTO 21013KT 10SM OVC021 05/02 A2974 970 79 0 220/13 RMK AO2 T00500017
04847KADG ADG20160125224010801/25/16 22:40:31  5-MIN KADG 260340Z AUTO 21011KT 10SM OVC021 05/02 A2974 970 79 0 220/11 RMK AO2 T00500017
04847KADG ADG20160125224510801/25/16 22:45:31  5-MIN KADG 260345Z AUTO 22012KT 10SM OVC021 05/02 A2973 970 79 0 220/12 RMK AO2 T00500017
04847KADG ADG20160125225011501/25/16 22:50:31  5-MIN KADG 260350Z AUTO 21013KT 10SM OVC021 05/02 A2973 970 79 0 220/13 RMK AO2 SLP077 T00500017
04847KADG ADG20160125225511601/25/16 22:55:31  5-MIN KADG 260355Z AUTO 22013G19KT 10SM OVC020 06/02 A2973 970 76 100 220/13G19 RMK AO2 T00560017
04847KADG ADG20160125230011601/25/16 23:00:31  5-MIN KADG 260400Z AUTO 22013G19KT 10SM OVC020 06/02 A2973 980 76 100 220/13G19 RMK AO2 T00560017
04847KADG ADG20160125230511001/25/16 23:05:31  5-MIN KADG 260405Z AUTO 22015KT 10SM OVC019 06/02 A2973 980 76 100 220/15 RMK AO2 T00560017
04847KADG ADG20160125231011001/25/16 23:10:31  5-MIN KADG 260410Z AUTO 22015KT 10SM OVC019 06/02 A2973 980 79 100 220/15 RMK AO2 T00560022
04847KADG ADG20160125231511001/25/16 23:15:31  5-MIN KADG 260415Z AUTO 22015KT 10SM OVC019 06/02 A2973 980 79 100 230/15 RMK AO2 T00560022
04847KADG ADG20160125232011601/25/16 23:20:31  5-MIN KADG 260420Z AUTO 22015G23KT 10SM OVC019 06/02 A2972 980 76 200 230/15G23 RMK AO2 T00610022
04847KADG ADG20160125232511601/25/16 23:25:31  5-MIN KADG 260425Z AUTO 22017G23KT 10SM OVC019 06/02 A2972 980 76 200 230/17G23 RMK AO2 T00610022
04847KADG ADG20160125233011601/25/16 23:30:31  5-MIN KADG 260430Z AUTO 22016G23KT 10SM OVC018 06/02 A2972 980 76 200 230/16G23 RMK AO2 T00610022
04847KADG ADG20160125233511601/25/16 23:35:31  5-MIN KADG 260435Z AUTO 22015G23KT 10SM OVC018 06/02 A2972 990 76 200 230/15G23 RMK AO2 T00610022
04847KADG ADG20160125234011001/25/16 23:40:31  5-MIN KADG 260440Z AUTO 22015KT 10SM OVC017 06/02 A2972 990 76 200 230/15 RMK AO2 T00610022
04847KADG ADG20160125234511001/25/16 23:45:31  5-MIN KADG 260445Z AUTO 23013KT 10SM OVC017 06/02 A2972 990 76 200 230/13 RMK AO2 T00610022
04847KADG ADG20160125235012701/25/16 23:50:31  5-MIN KADG 260450Z AUTO 22015KT 10SM OVC017 06/02 A2972 990 76 200 230/15 RMK AO2 SLP071 T00610022 400611050
04847KADG ADG20160125235511001/25/16 23:55:31  5-MIN KADG 260455Z AUTO 22012KT 10SM OVC017 06/03 A2972 990 79 200 230/12 RMK AO2 T00610028
04847KADG ADG20160126000011601/26/16 00:00:31  5-MIN KADG 260500Z AUTO 23018G22KT 10SM OVC017 06/03 A2972 990 79 200 230/18G22 RMK AO2 T00610028
04847KADG ADG20160126000511601/26/16 00:05:31  5-MIN KADG 260505Z AUTO 23015G22KT 10SM OVC017 06/03 A2972 990 79 200 230/15G22 RMK AO2 T00610028
04847KADG ADG20160126001011001/26/16 00:10:31  5-MIN KADG 260510Z AUTO 23015KT 10SM OVC015 06/03 A2972 990 79 200 230/15 RMK AO2 T00610028
04847KADG ADG20160126001511001/26/16 00:15:31  5-MIN KADG 260515Z AUTO 23015KT 10SM OVC015 06/03 A2972 990 79 200 230/15 RMK AO2 T00610028
04847KADG ADG20160126002011601/26/16 00:20:31  5-MIN KADG 260520Z AUTO 22019G23KT 10SM OVC015 06/03 A2972 990 82 100 230/19G23 RMK AO2 T00560028
04847KADG ADG20160126002511601/26/16 00:25:31  5-MIN KADG 260525Z AUTO 23016G23KT 10SM OVC015 06/03 A2971 990 79 200 230/16G23 RMK AO2 T00610028
04847KADG ADG20160126003011601/26/16 00:30:31  5-MIN KADG 260530Z AUTO 23017G23KT 10SM OVC015 06/03 A2971 990 82 100 240/17G23 RMK AO2 T00560028
04847KADG ADG20160126003511601/26/16 00:35:31  5-MIN KADG 260535Z AUTO 23018G24KT 10SM OVC014 06/03 A2971 990 85 100 230/18G24 RMK AO2 T00560033
04847KADG ADG20160126004011701/26/16 00:40:31  5-MIN KADG 260540Z AUTO 23017G24KT 10SM OVC014 06/03 A2971 1000 85 100 230/17G24 RMK AO2 T00560033
04847KADG ADG20160126004513501/26/16 00:45:31  5-MIN KADG 260545Z AUTO 23017G26KT 10SM OVC013 06/03 A2971 1000 85 100 230/17G26 RMK AO2 PK WND 23026/0541 T00560033
04847KADG ADG20160126005016601/26/16 00:50:31  5-MIN KADG 260550Z AUTO 23016G26KT 10SM OVC013 06/04 A2971 1000 89 100 230/16G26 RMK AO2 PK WND 23026/0541 SLP066 60000 T00560039 10061 20033 58024
04847KADG ADG20160126005511101/26/16 00:55:31  5-MIN KADG 260555Z AUTO 22016KT 10SM OVC013 06/04 A2971 1000 89 100 230/16 RMK AO2 T00560039
04847KADG ADG20160126010011101/26/16 01:00:31  5-MIN KADG 260600Z AUTO 22015KT 10SM OVC013 06/04 A2970 1000 89 100 230/15 RMK AO2 T00560039
04847KADG ADG20160126010511701/26/16 01:05:31  5-MIN KADG 260605Z AUTO 22015G23KT 10SM OVC013 06/04 A2970 1000 89 100 230/15G23 RMK AO2 T00560039
04847KADG ADG20160126011011701/26/16 01:10:31  5-MIN KADG 260610Z AUTO 22016G23KT 10SM OVC013 06/04 A2970 1010 89 200 230/16G23 RMK AO2 T00560039
04847KADG ADG20160126011511701/26/16 01:15:31  5-MIN KADG 260615Z AUTO 23013G22KT 10SM OVC013 06/04 A2970 1010 89 100 230/13G22 RMK AO2 T00560039
04847KADG ADG20160126012011701/26/16 01:20:31  5-MIN KADG 260620Z AUTO 22016G20KT 10SM OVC013 06/04 A2969 1010 89 200 230/16G20 RMK AO2 T00560039
04847KADG ADG20160126012511101/26/16 01:25:31  5-MIN KADG 260625Z AUTO 22017KT 10SM OVC013 06/04 A2969 1010 89 200 230/17 RMK AO2 T00560039
04847KADG ADG20160126013011701/26/16 01:30:31  5-MIN KADG 260630Z AUTO 22014G21KT 10SM OVC012 06/04 A2969 1020 89 200 230/14G21 RMK AO2 T00560039
04847KADG ADG20160126013511701/26/16 01:35:31  5-MIN KADG 260635Z AUTO 22016G22KT 10SM OVC012 06/04 A2968 1020 86 200 230/16G22 RMK AO2 T00610039
04847KADG ADG20160126014011101/26/16 01:40:31  5-MIN KADG 260640Z AUTO 22013KT 10SM OVC012 06/04 A2969 1020 89 200 230/13 RMK AO2 T00560039
04847KADG ADG20160126014511101/26/16 01:45:31  5-MIN KADG 260645Z AUTO 22014KT 10SM OVC012 06/04 A2968 1020 89 200 230/14 RMK AO2 T00560039
04847KADG ADG20160126015011801/26/16 01:50:31  5-MIN KADG 260650Z AUTO 22014KT 10SM OVC012 06/04 A2968 1020 89 200 230/14 RMK AO2 SLP058 T00560039
04847KADG ADG20160126015511101/26/16 01:55:31  5-MIN KADG 260655Z AUTO 23015KT 10SM OVC012 06/04 A2968 1020 86 200 230/15 RMK AO2 T00610039
04847KADG ADG20160126020011101/26/16 02:00:31  5-MIN KADG 260700Z AUTO 23015KT 10SM OVC012 06/04 A2968 1020 89 200 230/15 RMK AO2 T00560039
04847KADG ADG20160126020511101/26/16 02:05:31  5-MIN KADG 260705Z AUTO 22014KT 10SM OVC012 06/04 A2968 1020 89 200 230/14 RMK AO2 T00560039
04847KADG ADG20160126021011101/26/16 02:10:31  5-MIN KADG 260710Z AUTO 22014KT 10SM OVC012 06/04 A2969 1020 86 200 230/14 RMK AO2 T00610039
04847KADG ADG20160126021511101/26/16 02:15:31  5-MIN KADG 260715Z AUTO 23017KT 10SM OVC012 06/04 A2969 1020 86 200 230/17 RMK AO2 T00610039
04847KADG ADG20160126022011001/26/16 02:20:31  5-MIN KADG 260720Z AUTO 23016KT 8SM OVC012 06/04 A2969 1020 86 200 230/16 RMK AO2 T00610039
04847KADG ADG20160126022511001/26/16 02:25:31  5-MIN KADG 260725Z AUTO 23015KT 7SM OVC012 06/04 A2968 1020 86 200 230/15 RMK AO2 T00610039
04847KADG ADG20160126023011001/26/16 02:30:31  5-MIN KADG 260730Z AUTO 23016KT 7SM OVC012 06/04 A2968 1020 89 200 230/16 RMK AO2 T00610044
04847KADG ADG20160126023511001/26/16 02:35:31  5-MIN KADG 260735Z AUTO 23015KT 8SM OVC012 06/04 A2969 1020 89 200 230/15 RMK AO2 T00610044
04847KADG ADG20160126024011701/26/16 02:40:31  5-MIN KADG 260740Z AUTO 23014KT 8SM BKN012 OVC025 06/04 A2968 1020 89 200 230/14 RMK AO2 T00610044
04847KADG ADG20160126024513301/26/16 02:45:31  5-MIN KADG 260745Z AUTO 22015KT 7SM -RA BKN012 OVC020 06/04 A2968 1020 89 200 230/15 RMK AO2 RAB42 P0000 T00610044
04847KADG ADG20160126025014701/26/16 02:50:31  5-MIN KADG 260750Z AUTO 22016KT 9SM -RA BKN014 BKN020 OVC025 06/04 A2968 1030 89 200 230/16 RMK AO2 RAB42 SLP056 P0000 T00610044
04847KADG ADG20160126025512501/26/16 02:55:31  5-MIN KADG 260755Z AUTO 23014KT 10SM BKN014 BKN020 OVC025 06/04 A2968 1020 89 200 230/14 RMK AO2 T00610044
04847KADG ADG20160126030011701/26/16 03:00:31  5-MIN KADG 260800Z AUTO 23015KT 9SM BKN014 OVC018 07/04 A2968 1020 86 300 230/15 RMK AO2 T00670044
04847KADG ADG20160126030513301/26/16 03:05:31  5-MIN KADG 260805Z AUTO 23017KT 8SM -RA BKN014 OVC018 07/05 A2968 1030 89 300 230/17 RMK AO2 RAB01 P0000 T00670050
04847KADG ADG20160126031013301/26/16 03:10:31  5-MIN KADG 260810Z AUTO 23016KT 8SM -RA BKN013 OVC018 07/05 A2968 1030 89 300 240/16 RMK AO2 RAB01 P0000 T00670050
04847KADG ADG20160126031512501/26/16 03:15:31  5-MIN KADG 260815Z AUTO 23014KT 8SM OVC013 07/05 A2968 1030 89 300 230/14 RMK AO2 RAB01E11 P0000 T00670050
04847KADG ADG20160126032012501/26/16 03:20:31  5-MIN KADG 260820Z AUTO 23014KT 8SM OVC012 07/05 A2968 1030 89 300 240/14 RMK AO2 RAB01E11 P0000 T00670050
04847KADG ADG20160126032513101/26/16 03:25:31  5-MIN KADG 260825Z AUTO 23013G20KT 9SM OVC012 07/05 A2967 1030 89 300 240/13G20 RMK AO2 RAB01E11 P0000 T00670050
04847KADG ADG20160126033013101/26/16 03:30:31  5-MIN KADG 260830Z AUTO 23016G20KT 9SM OVC012 07/05 A2967 1030 89 300 230/16G20 RMK AO2 RAB01E11 P0000 T00670050
04847KADG ADG20160126033512601/26/16 03:35:31  5-MIN KADG 260835Z AUTO 23014KT 10SM OVC012 07/05 A2967 1030 89 300 240/14 RMK AO2 RAB01E11 P0000 T00670050
04847KADG ADG20160126034012501/26/16 03:40:31  5-MIN KADG 260840Z AUTO 23013KT 9SM OVC012 07/05 A2967 1030 89 300 240/13 RMK AO2 RAB01E11 P0000 T00670050
04847KADG ADG20160126034512501/26/16 03:45:31  5-MIN KADG 260845Z AUTO 23012KT 9SM OVC012 07/05 A2967 1030 89 300 240/12 RMK AO2 RAB01E11 P0000 T00670050
04847KADG ADG20160126035015001/26/16 03:50:31  5-MIN KADG 260850Z AUTO 24011G19KT 9SM OVC012 07/05 A2967 1030 89 300 240/11G19 RMK AO2 RAB01E11 SLP053 P0000 60000 T00670050 56015
04847KADG ADG20160126035513201/26/16 03:55:31  5-MIN KADG 260855Z AUTO 24008G19KT 8SM -RA OVC012 07/05 A2967 1030 89 300 250/08G19 RMK AO2 RAB54 P0000 T00670050
04847KADG ADG20160126040012801/26/16 04:00:31  5-MIN KADG 260900Z AUTO 25008KT 8SM -RA OVC012 06/05 A2967 1030 93 200 250/08 RMK AO2 RAB0854 P0000 T00610050
04847KADG ADG20160126040512801/26/16 04:05:31  5-MIN KADG 260905Z AUTO 25009KT 8SM -RA OVC012 06/05 A2967 1030 93 200 260/09 RMK AO2 RAB0854 P0000 T00610050
04847KADG ADG20160126041014201/26/16 04:10:31  5-MIN KADG 260910Z AUTO 25010KT 8SM -RA BKN012 BKN019 OVC034 06/05 A2967 1030 93 200 260/10 RMK AO2 RAB0854 P0000 T00610050
04847KADG ADG20160126041514901/26/16 04:15:31  5-MIN KADG 260915Z AUTO 26014G19KT 10SM -RA BKN012 BKN019 OVC040 07/05 A2967 1030 89 300 270/14G19 RMK AO2 RAB0854 P0000 T00670050
04847KADG ADG20160126042016601/26/16 04:20:31  5-MIN KADG 260920Z AUTO 26019G32KT 10SM BKN012 BKN019 OVC038 07/04 A2968 1030 86 300 260/19G32 RMK AO2 PK WND 27032/0920 RAB0854E16 P0000 T00670044
04847KADG ADG20160126042516601/26/16 04:25:31  5-MIN KADG 260925Z AUTO 26014G32KT 10SM SCT012 BKN031 OVC040 07/04 A2968 1030 82 300 270/14G32 RMK AO2 PK WND 27032/0920 RAB0854E16 P0000 T00670039
04847KADG ADG20160126043016601/26/16 04:30:31  5-MIN KADG 260930Z AUTO 26015G26KT 10SM FEW012 BKN023 OVC042 07/03 A2968 1020 79 300 270/15G26 RMK AO2 PK WND 27032/0920 RAB0854E16 P0000 T00670033
04847KADG ADG20160126043516601/26/16 04:35:31  5-MIN KADG 260935Z AUTO 26018G29KT 10SM FEW012 BKN025 OVC040 07/03 A2968 1020 79 300 270/18G29 RMK AO2 PK WND 27032/0920 RAB0854E16 P0000 T00670033
04847KADG ADG20160126044016601/26/16 04:40:31  5-MIN KADG 260940Z AUTO 27016G29KT 10SM FEW014 BKN025 OVC040 06/03 A2969 1020 79 200 270/16G29 RMK AO2 PK WND 27032/0920 RAB0854E16 P0000 T00610028
04847KADG ADG20160126044516601/26/16 04:45:31  5-MIN KADG 260945Z AUTO 26020G31KT 10SM SCT019 BKN024 OVC040 06/02 A2969 1010 76 200 270/20G31 RMK AO2 PK WND 27032/0920 RAB0854E16 P0000 T00610022
04847KADG ADG20160126045017301/26/16 04:50:31  5-MIN KADG 260950Z AUTO 25018G31KT 10SM FEW019 BKN029 OVC035 06/01 A2969 1010 73 200 260/18G31 RMK AO2 PK WND 27032/0920 RAB0854E16 SLP061 P0000 T00560011
04847KADG ADG20160126045514201/26/16 04:55:31  5-MIN KADG 260955Z AUTO 25018G34KT 10SM BKN023 OVC031 06/01 A2969 1010 73 200 250/18G34 RMK AO2 PK WND 25029/0954 T00560011
04847KADG ADG20160126050014201/26/16 05:00:31  5-MIN KADG 261000Z AUTO 25017G34KT 10SM BKN021 OVC028 05/01 A2970 1010 76 100 260/17G34 RMK AO2 PK WND 25030/0957 T00500011
04847KADG ADG20160126050514201/26/16 05:05:31  5-MIN KADG 261005Z AUTO 25016G30KT 10SM BKN021 OVC028 05/01 A2970 1000 76 100 260/16G30 RMK AO2 PK WND 25030/0957 T00500011
04847KADG ADG20160126051014001/26/16 05:10:31  5-MIN KADG 261010Z AUTO 25016G27KT 10SM SCT021 OVC028 04/01 A2970 1000 79 0 260/16G27 RMK AO2 PK WND 25030/0957 T00440011
04847KADG ADG20160126051514001/26/16 05:15:31  5-MIN KADG 261015Z AUTO 25014G26KT 10SM SCT023 OVC029 04/01 A2970 1010 79 0 260/14G26 RMK AO2 PK WND 25030/0957 T00440011
04847KADG ADG20160126052014001/26/16 05:20:31  5-MIN KADG 261020Z AUTO 25014G26KT 10SM BKN021 OVC027 04/01 A2970 1000 79 0 260/14G26 RMK AO2 PK WND 25030/0957 T00440011
04847KADG ADG20160126052514001/26/16 05:25:31  5-MIN KADG 261025Z AUTO 26014G23KT 10SM BKN021 OVC027 04/01 A2971 1000 82 0 260/14G23 RMK AO2 PK WND 25030/0957 T00390011
04847KADG ADG20160126053014001/26/16 05:30:31  5-MIN KADG 261030Z AUTO 26016G24KT 10SM BKN019 OVC027 04/01 A2971 1000 79 0 260/16G24 RMK AO2 PK WND 25030/0957 T00390006
04847KADG ADG20160126053514001/26/16 05:35:31  5-MIN KADG 261035Z AUTO 26017G29KT 10SM BKN019 OVC029 04/01 A2971 1000 79 0 260/17G29 RMK AO2 PK WND 25030/0957 T00390006
04847KADG ADG20160126054013201/26/16 05:40:31  5-MIN KADG 261040Z AUTO 26014G29KT 10SM OVC019 04/01 A2972 990 79 0 270/14G29 RMK AO2 PK WND 25030/0957 T00390006
04847KADG ADG20160126054513901/26/16 05:45:31  5-MIN KADG 261045Z AUTO 27017G27KT 10SM BKN017 OVC022 04/01 A2972 990 79 0 280/17G27 RMK AO2 PK WND 25030/0957 T00390006
04847KADG ADG20160126055013901/26/16 05:50:31  5-MIN KADG 261050Z AUTO 27014G28KT 10SM OVC017 04/00 A2972 980 76 0 280/14G28 RMK AO2 PK WND 25030/0957 SLP073 T00390000
04847KADG ADG20160126055513501/26/16 05:55:31  5-MIN KADG 261055Z AUTO 27019G29KT 10SM OVC017 03/00 A2973 980 79 -100 270/19G29 RMK AO2 PK WND 26029/1055 T00330000
04847KADG ADG20160126060013501/26/16 06:00:31  5-MIN KADG 261100Z AUTO 27016G32KT 10SM OVC017 03/00 A2973 980 79 -100 270/16G32 RMK AO2 PK WND 26032/1056 T00330000
04847KADG ADG20160126060513501/26/16 06:05:31  5-MIN KADG 261105Z AUTO 27018G32KT 10SM OVC017 03/00 A2973 980 79 -100 270/18G32 RMK AO2 PK WND 26032/1056 T00330000
04847KADG ADG20160126061013501/26/16 06:10:31  5-MIN KADG 261110Z AUTO 26014G27KT 10SM OVC017 03/00 A2973 980 79 -100 270/14G27 RMK AO2 PK WND 26032/1056 T00330000
04847KADG ADG20160126061513501/26/16 06:15:31  5-MIN KADG 261115Z AUTO 27014G27KT 10SM OVC015 03/00 A2973 980 82 -200 280/14G27 RMK AO2 PK WND 26032/1056 T00280000
04847KADG ADG20160126062013501/26/16 06:20:31  5-MIN KADG 261120Z AUTO 27014G21KT 10SM OVC015 03/00 A2973 980 82 -200 270/14G21 RMK AO2 PK WND 26032/1056 T00280000
04847KADG ADG20160126062512901/26/16 06:25:31  5-MIN KADG 261125Z AUTO 27013KT 10SM OVC013 03/01 A2973 970 85 -200 270/13 RMK AO2 PK WND 26032/1056 T00280006
04847KADG ADG20160126063013501/26/16 06:30:31  5-MIN KADG 261130Z AUTO 27014G20KT 10SM OVC013 03/01 A2974 970 85 -200 270/14G20 RMK AO2 PK WND 26032/1056 T00280006
04847KADG ADG20160126063513501/26/16 06:35:31  5-MIN KADG 261135Z AUTO 27015G21KT 10SM OVC011 03/01 A2974 970 85 -200 270/15G21 RMK AO2 PK WND 26032/1056 T00280006
04847KADG ADG20160126064013501/26/16 06:40:31  5-MIN KADG 261140Z AUTO 26014G23KT 10SM OVC011 03/01 A2974 960 85 -200 270/14G23 RMK AO2 PK WND 26032/1056 T00280006
04847KADG ADG20160126064516301/26/16 06:45:31  5-MIN KADG 261145Z AUTO 26013G24KT 10SM -RA OVC011 02/01 A2975 960 89 -300 270/13G24 RMK AO2 PK WND 26032/1056 RAB42 CIG 009V013 P0000 T00220006
04847KADG ADG20160126065014101/26/16 06:50:31  5-MIN KADG 261150Z AUTO 26019G27KT 10SM -RA OVC009 02/00 A2975 960 85 -300 270/19G27 RMK AO2 PK WND 26032/1056 RAB42 P0000
04847KADG ADG20160126065511701/26/16 06:55:31  5-MIN KADG 261155Z AUTO 26016G27KT 10SM OVC009 02/00 A2975 960 85 -300 260/16G27 RMK AO2 T00220000
04847KADG ADG20160126070011701/26/16 07:00:31  5-MIN KADG 261200Z AUTO 26017G24KT 10SM OVC009 02/00 A2975 960 85 -300 260/17G24 RMK AO2 T00220000
04847KADG ADG20160126070513501/26/16 07:05:31  5-MIN KADG 261205Z AUTO 26019G26KT 10SM OVC010 02/00 A2976 950 85 -300 270/19G26 RMK AO2 PK WND 25026/1203 T00220000
04847KADG ADG20160126071013501/26/16 07:10:31  5-MIN KADG 261210Z AUTO 26018G27KT 10SM OVC010 02/00 A2976 950 89 -400 270/18G27 RMK AO2 PK WND 27027/1210 T00170000
04847KADG ADG20160126071514701/26/16 07:15:31  5-MIN KADG 261215Z AUTO 26015G27KT 10SM OVC010 02/00 A2976 950 89 -400 260/15G27 RMK AO2 PK WND 27027/1210 CIG 009V013 T00170000
04847KADG ADG20160126072013601/26/16 07:20:31  5-MIN KADG 261220Z AUTO 26014G25KT 10SM OVC010 02/M01 A2977 940 85 -400 270/14G25 RMK AO2 PK WND 27027/1210 T00171006
04847KADG ADG20160126072514701/26/16 07:25:31  5-MIN KADG 261225Z AUTO 26015G25KT 10SM OVC010 02/00 A2977 940 89 -400 270/15G25 RMK AO2 PK WND 27027/1210 CIG 008V013 T00170000
04847KADG ADG20160126073014701/26/16 07:30:31  5-MIN KADG 261230Z AUTO 26013G21KT 10SM OVC010 02/00 A2977 940 89 -400 260/13G21 RMK AO2 PK WND 27027/1210 CIG 008V013 T00170000
04847KADG ADG20160126073514601/26/16 07:35:31  5-MIN KADG 261235Z AUTO 26012G21KT 9SM OVC010 02/00 A2978 930 89 -400 270/12G21 RMK AO2 PK WND 27027/1210 CIG 008V013 T00170000
04847KADG ADG20160126074013501/26/16 07:40:31  5-MIN KADG 261240Z AUTO 27015G24KT 9SM OVC010 02/M01 A2978 930 85 -400 280/15G24 RMK AO2 PK WND 27027/1210 T00171006
04847KADG ADG20160126074516401/26/16 07:45:31  5-MIN KADG 261245Z AUTO 27014G25KT 240V300 10SM OVC009 02/M01 A2978 930 85 -400 270/14G25 250V310 RMK AO2 PK WND 27027/1210 CIG 008V014 T00171006
04847KADG ADG20160126075016201/26/16 07:50:31  5-MIN KADG 261250Z AUTO 27017G30KT 10SM BKN009 OVC016 02/M01 A2979 920 82 -400 280/17G30 RMK AO2 PK WND 27030/1247 CIG 008V014 SLP096 T00171011
04847KADG ADG20160126075513701/26/16 07:55:31  5-MIN KADG 261255Z AUTO 27019G30KT 10SM BKN009 OVC016 01/M02 A2979 920 82 -500 280/19G30 RMK AO2 CIG 008V014 T00111017
04847KADG ADG20160126080014301/26/16 08:00:31  5-MIN KADG 261300Z AUTO 28017G28KT 10SM SCT009 OVC016 01/M02 A2980 920 82 -500 280/17G28 RMK AO2 PK WND 27027/1256 T00111017
04847KADG ADG20160126080513601/26/16 08:05:31  5-MIN KADG 261305Z AUTO 27021G29KT 10SM OVC016 01/M02 A2980 910 82 -500 280/21G29 RMK AO2 PK WND 25029/1301 T00111017
04847KADG ADG20160126081013601/26/16 08:10:31  5-MIN KADG 261310Z AUTO 28019G29KT 10SM OVC016 01/M02 A2980 910 82 -500 280/19G29 RMK AO2 PK WND 25029/1301 T00111017
04847KADG ADG20160126081513601/26/16 08:15:31  5-MIN KADG 261315Z AUTO 27014G28KT 10SM OVC016 01/M02 A2980 910 82 -500 280/14G28 RMK AO2 PK WND 25029/1301 T00111017
04847KADG ADG20160126082013601/26/16 08:20:31  5-MIN KADG 261320Z AUTO 27014G27KT 10SM OVC016 01/M02 A2981 900 82 -500 280/14G27 RMK AO2 PK WND 25029/1301 T00111017
04847KADG ADG20160126082513601/26/16 08:25:31  5-MIN KADG 261325Z AUTO 28017G24KT 10SM OVC016 01/M02 A2981 900 82 -500 290/17G24 RMK AO2 PK WND 25029/1301 T00111017
04847KADG ADG20160126083013601/26/16 08:30:31  5-MIN KADG 261330Z AUTO 28014G24KT 10SM OVC016 01/M02 A2982 900 82 -500 280/14G24 RMK AO2 PK WND 25029/1301 T00111017
04847KADG ADG20160126083513601/26/16 08:35:31  5-MIN KADG 261335Z AUTO 28013G23KT 10SM OVC016 01/M02 A2982 890 78 -500 290/13G23 RMK AO2 PK WND 25029/1301 T00111022
04847KADG ADG20160126084013601/26/16 08:40:31  5-MIN KADG 261340Z AUTO 28013G23KT 10SM OVC016 01/M02 A2982 890 82 -500 290/13G23 RMK AO2 PK WND 25029/1301 T00111017
04847KADG ADG20160126084513601/26/16 08:45:31  5-MIN KADG 261345Z AUTO 27014G24KT 10SM OVC016 01/M02 A2983 890 82 -500 280/14G24 RMK AO2 PK WND 25029/1301 T00111017
04847KADG ADG20160126085014201/26/16 08:50:31  5-MIN KADG 261350Z AUTO 28017G25KT 9SM OVC016 01/M02 A2983 890 78 -500 290/17G25 RMK AO2 PK WND 25029/1301 SLP109 T00111022
04847KADG ADG20160126085511701/26/16 08:55:31  5-MIN KADG 261355Z AUTO 27012G25KT 9SM OVC016 01/M02 A2983 880 78 -500 280/12G25 RMK AO2 T00111022
04847KADG ADG20160126090011701/26/16 09:00:31  5-MIN KADG 261400Z AUTO 28015G23KT 9SM OVC016 01/M02 A2983 880 78 -500 290/15G23 RMK AO2 T00111022
04847KADG ADG20160126090511701/26/16 09:05:31  5-MIN KADG 261405Z AUTO 28016G23KT 8SM OVC015 01/M02 A2983 880 82 -500 280/16G23 RMK AO2 T00111017
04847KADG ADG20160126091011701/26/16 09:10:31  5-MIN KADG 261410Z AUTO 27014G22KT 7SM OVC015 01/M02 A2983 880 78 -500 270/14G22 RMK AO2 T00111022
04847KADG ADG20160126091511701/26/16 09:15:31  5-MIN KADG 261415Z AUTO 27014G22KT 7SM OVC015 01/M02 A2984 880 78 -500 270/14G22 RMK AO2 T00111022
04847KADG ADG20160126092011701/26/16 09:20:31  5-MIN KADG 261420Z AUTO 27012G22KT 7SM OVC015 01/M02 A2984 880 78 -500 280/12G22 RMK AO2 T00111022
04847KADG ADG20160126092511701/26/16 09:25:31  5-MIN KADG 261425Z AUTO 27013G21KT 7SM OVC015 01/M02 A2984 870 78 -500 280/13G21 RMK AO2 T00111022
04847KADG ADG20160126093011701/26/16 09:30:31  5-MIN KADG 261430Z AUTO 27015G24KT 7SM OVC015 01/M02 A2985 870 82 -600 280/15G24 RMK AO2 T00061022
04847KADG ADG20160126093511701/26/16 09:35:31  5-MIN KADG 261435Z AUTO 27017G24KT 7SM OVC015 01/M02 A2985 870 82 -600 270/17G24 RMK AO2 T00061022
04847KADG ADG20160126094011701/26/16 09:40:31  5-MIN KADG 261440Z AUTO 27016G24KT 7SM OVC015 01/M02 A2985 860 82 -600 280/16G24 RMK AO2 T00061022
04847KADG ADG20160126094511701/26/16 09:45:31  5-MIN KADG 261445Z AUTO 27017G23KT 7SM OVC015 01/M02 A2986 860 82 -600 280/17G23 RMK AO2 T00061022
04847KADG ADG20160126095013001/26/16 09:50:31  5-MIN KADG 261450Z AUTO 28019G24KT 7SM OVC015 01/M02 A2987 850 82 -600 280/19G24 RMK AO2 SLP122 T00061022 52027
04847KADG ADG20160126095512001/26/16 09:55:31  5-MIN KADG 261455Z AUTO 28015G25KT 6SM HZ OVC015 01/M02 A2987 850 82 -600 280/15G25 RMK AO2 T00061022
04847KADG ADG20160126100012001/26/16 10:00:31  5-MIN KADG 261500Z AUTO 28013G25KT 6SM HZ OVC015 01/M03 A2987 850 78 -600 280/13G25 RMK AO2 T00061028
04847KADG ADG20160126100511701/26/16 10:05:31  5-MIN KADG 261505Z AUTO 27015G23KT 7SM OVC015 01/M02 A2987 850 82 -600 280/15G23 RMK AO2 T00061022
04847KADG ADG20160126101013501/26/16 10:10:31  5-MIN KADG 261510Z AUTO 26015G27KT 7SM OVC015 01/M02 A2988 840 82 -600 270/15G27 RMK AO2 PK WND 26027/1510 T00061022
04847KADG ADG20160126101513501/26/16 10:15:31  5-MIN KADG 261515Z AUTO 27015G27KT 7SM OVC015 01/M03 A2988 840 78 -600 270/15G27 RMK AO2 PK WND 26027/1510 T00061028
04847KADG ADG20160126102013501/26/16 10:20:31  5-MIN KADG 261520Z AUTO 27013G29KT 7SM OVC015 01/M03 A2988 840 78 -600 270/13G29 RMK AO2 PK WND 26029/1516 T00061028
04847KADG ADG20160126102513501/26/16 10:25:31  5-MIN KADG 261525Z AUTO 28016G29KT 8SM OVC016 01/M03 A2989 830 78 -600 280/16G29 RMK AO2 PK WND 26029/1516 T00061028
04847KADG ADG20160126103013501/26/16 10:30:31  5-MIN KADG 261530Z AUTO 27012G24KT 8SM OVC016 01/M03 A2989 830 78 -600 270/12G24 RMK AO2 PK WND 26029/1516 T00061028
04847KADG ADG20160126103513501/26/16 10:35:31  5-MIN KADG 261535Z AUTO 27013G20KT 8SM OVC016 01/M03 A2989 830 78 -600 280/13G20 RMK AO2 PK WND 26029/1516 T00061028
04847KADG ADG20160126104013501/26/16 10:40:31  5-MIN KADG 261540Z AUTO 27017G24KT 8SM OVC016 01/M03 A2989 830 78 -600 280/17G24 RMK AO2 PK WND 26029/1516 T00061028
04847KADG ADG20160126104513501/26/16 10:45:31  5-MIN KADG 261545Z AUTO 28019G27KT 8SM OVC016 01/M03 A2989 820 78 -600 280/19G27 RMK AO2 PK WND 26029/1516 T00061028
04847KADG ADG20160126105014201/26/16 10:50:31  5-MIN KADG 261550Z AUTO 27013G27KT 9SM OVC017 01/M03 A2990 820 75 -700 280/13G27 RMK AO2 PK WND 26029/1516 SLP134 T00061033
04847KADG ADG20160126105511701/26/16 10:55:31  5-MIN KADG 261555Z AUTO 27014G25KT 9SM OVC017 01/M03 A2990 820 78 -700 270/14G25 RMK AO2 T00061028
04847KADG ADG20160126110011701/26/16 11:00:31  5-MIN KADG 261600Z AUTO 27017G24KT 9SM OVC017 01/M03 A2990 820 78 -700 280/17G24 RMK AO2 T00061028
04847KADG ADG20160126110511701/26/16 11:05:31  5-MIN KADG 261605Z AUTO 27014G24KT 9SM OVC017 01/M03 A2990 810 78 -700 280/14G24 RMK AO2 T00061028
04847KADG ADG20160126111011701/26/16 11:10:31  5-MIN KADG 261610Z AUTO 26017G25KT 9SM OVC017 01/M03 A2991 810 78 -700 270/17G25 RMK AO2 T00061028
04847KADG ADG20160126111511701/26/16 11:15:31  5-MIN KADG 261615Z AUTO 27015G25KT 9SM OVC016 01/M03 A2991 810 78 -700 270/15G25 RMK AO2 T00061028
04847KADG ADG20160126112011701/26/16 11:20:31  5-MIN KADG 261620Z AUTO 27014G23KT 9SM OVC016 01/M03 A2991 810 78 -700 280/14G23 RMK AO2 T00061028
04847KADG ADG20160126112511701/26/16 11:25:31  5-MIN KADG 261625Z AUTO 27013G23KT 9SM OVC016 01/M03 A2991 810 78 -700 280/13G23 RMK AO2 T00061028
04847KADG ADG20160126113013501/26/16 11:30:31  5-MIN KADG 261630Z AUTO 27016G26KT 9SM OVC016 01/M03 A2992 800 78 -700 280/16G26 RMK AO2 PK WND 28026/1628 T00061028
04847KADG ADG20160126113513501/26/16 11:35:31  5-MIN KADG 261635Z AUTO 27013G26KT 9SM OVC016 01/M03 A2992 800 78 -700 280/13G26 RMK AO2 PK WND 28026/1628 T00061028
04847KADG ADG20160126114013501/26/16 11:40:31  5-MIN KADG 261640Z AUTO 27013G21KT 9SM OVC016 01/M03 A2992 800 78 -700 280/13G21 RMK AO2 PK WND 28026/1628 T00061028
04847KADG ADG20160126114513501/26/16 11:45:31  5-MIN KADG 261645Z AUTO 27013G21KT 9SM OVC016 01/M03 A2992 800 78 -700 270/13G21 RMK AO2 PK WND 28026/1628 T00061028
04847KADG ADG20160126115014201/26/16 11:50:31  5-MIN KADG 261650Z AUTO 27013G19KT 9SM OVC016 01/M03 A2992 800 78 -700 280/13G19 RMK AO2 PK WND 28026/1628 SLP140 T00061028
04847KADG ADG20160126115511701/26/16 11:55:31  5-MIN KADG 261655Z AUTO 28014G20KT 9SM OVC016 01/M03 A2993 800 75 -700 280/14G20 RMK AO2 T00061033
04847KADG ADG20160126120011801/26/16 12:00:31  5-MIN KADG 261700Z AUTO 28016G20KT 10SM OVC016 01/M03 A2992 800 75 -700 280/16G20 RMK AO2 T00061033
04847KADG ADG20160126120513601/26/16 12:05:31  5-MIN KADG 261705Z AUTO 28017G26KT 10SM OVC016 01/M03 A2992 800 75 -700 290/17G26 RMK AO2 PK WND 27026/1703 T00061033
04847KADG ADG20160126121013601/26/16 12:10:31  5-MIN KADG 261710Z AUTO 28014G26KT 10SM OVC018 01/M04 A2992 800 72 -700 280/14G26 RMK AO2 PK WND 27026/1703 T00061039
04847KADG ADG20160126121513601/26/16 12:15:31  5-MIN KADG 261715Z AUTO 28016G25KT 10SM OVC018 01/M04 A2993 790 72 -700 290/16G25 RMK AO2 PK WND 27026/1703 T00061039
04847KADG ADG20160126122013601/26/16 12:20:31  5-MIN KADG 261720Z AUTO 28017G27KT 10SM OVC020 01/M04 A2993 790 72 -700 280/17G27 RMK AO2 PK WND 28027/1718 T00061039
04847KADG ADG20160126122513601/26/16 12:25:31  5-MIN KADG 261725Z AUTO 29018G27KT 10SM OVC020 01/M04 A2993 790 72 -700 290/18G27 RMK AO2 PK WND 28027/1718 T00061039
04847KADG ADG20160126123013601/26/16 12:30:31  5-MIN KADG 261730Z AUTO 28015G27KT 10SM OVC020 01/M04 A2993 790 72 -700 280/15G27 RMK AO2 PK WND 28027/1718 T00061039
04847KADG ADG20160126123513601/26/16 12:35:31  5-MIN KADG 261735Z AUTO 29015G27KT 10SM OVC020 01/M04 A2993 790 72 -700 290/15G27 RMK AO2 PK WND 28027/1718 T00061039
04847KADG ADG20160126124013601/26/16 12:40:31  5-MIN KADG 261740Z AUTO 28014G22KT 10SM OVC020 01/M04 A2993 790 72 -700 290/14G22 RMK AO2 PK WND 28027/1718 T00061039
04847KADG ADG20160126124513601/26/16 12:45:31  5-MIN KADG 261745Z AUTO 28016G24KT 10SM OVC020 01/M04 A2993 790 72 -700 290/16G24 RMK AO2 PK WND 28027/1718 T00061039
04847KADG ADG20160126125016101/26/16 12:50:31  5-MIN KADG 261750Z AUTO 28012G24KT 10SM OVC020 01/M04 A2993 790 72 -700 290/12G24 RMK AO2 PK WND 28027/1718 SLP143 T00061039 10022 20006 53027
04847KADG ADG20160126125511801/26/16 12:55:31  5-MIN KADG 261755Z AUTO 28011G22KT 10SM OVC020 01/M04 A2993 790 72 -700 290/11G22 RMK AO2 T00061039
04847KADG ADG20160126130011801/26/16 13:00:31  5-MIN KADG 261800Z AUTO 28014G23KT 10SM OVC020 01/M04 A2993 790 72 -700 290/14G23 RMK AO2 T00061039
04847KADG ADG20160126130511801/26/16 13:05:31  5-MIN KADG 261805Z AUTO 29014G23KT 10SM OVC020 00/M04 A2993 790 75 -800 300/14G23 RMK AO2 T00001039
04847KADG ADG20160126131013601/26/16 13:10:31  5-MIN KADG 261810Z AUTO 29020G27KT 10SM OVC019 00/M04 A2993 790 75 -800 290/20G27 RMK AO2 PK WND 30027/1810 T00001039
04847KADG ADG20160126131513601/26/16 13:15:31  5-MIN KADG 261815Z AUTO 29014G27KT 10SM OVC019 00/M04 A2993 790 75 -800 300/14G27 RMK AO2 PK WND 30027/1810 T00001039
04847KADG ADG20160126132013601/26/16 13:20:31  5-MIN KADG 261820Z AUTO 30017G25KT 10SM OVC019 01/M04 A2993 790 72 -700 300/17G25 RMK AO2 PK WND 30027/1810 T00061039
04847KADG ADG20160126132513601/26/16 13:25:31  5-MIN KADG 261825Z AUTO 29014G25KT 10SM OVC019 01/M04 A2993 790 72 -700 290/14G25 RMK AO2 PK WND 30027/1810 T00061039
04847KADG ADG20160126133013601/26/16 13:30:31  5-MIN KADG 261830Z AUTO 29019G24KT 10SM OVC021 01/M04 A2994 790 72 -700 300/19G24 RMK AO2 PK WND 30027/1810 T00061039
04847KADG ADG20160126133513601/26/16 13:35:31  5-MIN KADG 261835Z AUTO 29015G27KT 10SM OVC021 01/M04 A2994 780 69 -700 290/15G27 RMK AO2 PK WND 30027/1810 T00061044
04847KADG ADG20160126134013601/26/16 13:40:31  5-MIN KADG 261840Z AUTO 29016G27KT 10SM OVC023 01/M04 A2994 790 69 -700 290/16G27 RMK AO2 PK WND 30027/1810 T00061044
04847KADG ADG20160126134513601/26/16 13:45:31  5-MIN KADG 261845Z AUTO 29015G25KT 10SM OVC023 01/M04 A2994 790 69 -700 290/15G25 RMK AO2 PK WND 30027/1810 T00061044
04847KADG ADG20160126135014301/26/16 13:50:31  5-MIN KADG 261850Z AUTO 28013G24KT 10SM OVC023 01/M04 A2994 780 69 -700 290/13G24 RMK AO2 PK WND 30027/1810 SLP147 T00061044
04847KADG ADG20160126135511201/26/16 13:55:31  5-MIN KADG 261855Z AUTO 28013KT 10SM OVC024 01/M04 A2994 780 72 -700 290/13 RMK AO2 T00061039
04847KADG ADG20160126140011801/26/16 14:00:31  5-MIN KADG 261900Z AUTO 29015G20KT 10SM OVC022 01/M04 A2995 770 72 -700 290/15G20 RMK AO2 T00061039
04847KADG ADG20160126140511801/26/16 14:05:31  5-MIN KADG 261905Z AUTO 28012G20KT 10SM OVC022 01/M04 A2995 770 72 -700 290/12G20 RMK AO2 T00061039
04847KADG ADG20160126141011801/26/16 14:10:31  5-MIN KADG 261910Z AUTO 29016G24KT 10SM OVC022 01/M04 A2995 770 72 -700 290/16G24 RMK AO2 T00061039
04847KADG ADG20160126141511801/26/16 14:15:31  5-MIN KADG 261915Z AUTO 28013G24KT 10SM OVC022 01/M04 A2995 770 69 -700 290/13G24 RMK AO2 T00061044
04847KADG ADG20160126142011801/26/16 14:20:31  5-MIN KADG 261920Z AUTO 29014G22KT 10SM OVC022 01/M04 A2995 770 69 -700 300/14G22 RMK AO2 T00061044
04847KADG ADG20160126142511801/26/16 14:25:31  5-MIN KADG 261925Z AUTO 27016G21KT 10SM OVC024 01/M04 A2995 770 69 -700 270/16G21 RMK AO2 T00061044
04847KADG ADG20160126143011801/26/16 14:30:31  5-MIN KADG 261930Z AUTO 27013G21KT 10SM OVC024 01/M04 A2996 770 69 -700 280/13G21 RMK AO2 T00061044
04847KADG ADG20160126143511801/26/16 14:35:31  5-MIN KADG 261935Z AUTO 28010G21KT 10SM OVC024 01/M04 A2995 770 69 -700 290/10G21 RMK AO2 T00061044
04847KADG ADG20160126144011801/26/16 14:40:31  5-MIN KADG 261940Z AUTO 28013G19KT 10SM OVC024 01/M04 A2995 770 69 -700 290/13G19 RMK AO2 T00061044
04847KADG ADG20160126144511801/26/16 14:45:31  5-MIN KADG 261945Z AUTO 28012G19KT 10SM OVC024 01/M04 A2995 770 69 -700 290/12G19 RMK AO2 T00061044
04847KADG ADG20160126145012501/26/16 14:50:31  5-MIN KADG 261950Z AUTO 27009G17KT 10SM OVC025 01/M04 A2995 770 72 -700 280/09G17 RMK AO2 SLP152 T00061039
04847KADG ADG20160126145511801/26/16 14:55:31  5-MIN KADG 261955Z AUTO 28010G17KT 10SM OVC025 01/M04 A2996 770 72 -700 280/10G17 RMK AO2 T00061039
04847KADG ADG20160126150011801/26/16 15:00:31  5-MIN KADG 262000Z AUTO 28013G18KT 10SM OVC025 01/M04 A2996 770 72 -700 280/13G18 RMK AO2 T00061039
04847KADG ADG20160126150511801/26/16 15:05:31  5-MIN KADG 262005Z AUTO 28013G20KT 10SM OVC025 01/M04 A2996 770 72 -700 280/13G20 RMK AO2 T00061039
04847KADG ADG20160126151011801/26/16 15:10:31  5-MIN KADG 262010Z AUTO 27014G20KT 10SM OVC025 01/M04 A2996 770 72 -700 280/14G20 RMK AO2 T00061039
04847KADG ADG20160126151511801/26/16 15:15:31  5-MIN KADG 262015Z AUTO 28013G20KT 10SM OVC025 01/M04 A2996 760 72 -700 290/13G20 RMK AO2 T00061039
04847KADG ADG20160126152011801/26/16 15:20:31  5-MIN KADG 262020Z AUTO 28014G20KT 10SM OVC025 01/M04 A2996 760 72 -700 290/14G20 RMK AO2 T00061039
04847KADG ADG20160126152511801/26/16 15:25:31  5-MIN KADG 262025Z AUTO 28012G20KT 10SM OVC025 01/M04 A2996 760 72 -700 290/12G20 RMK AO2 T00061039
04847KADG ADG20160126153011801/26/16 15:30:31  5-MIN KADG 262030Z AUTO 28012G19KT 10SM OVC025 01/M04 A2997 760 72 -700 290/12G19 RMK AO2 T00061039
04847KADG ADG20160126153511801/26/16 15:35:31  5-MIN KADG 262035Z AUTO 28014G24KT 10SM OVC025 01/M04 A2997 760 69 -700 280/14G24 RMK AO2 T00061044
04847KADG ADG20160126154011801/26/16 15:40:31  5-MIN KADG 262040Z AUTO 27011G24KT 10SM OVC025 01/M04 A2997 760 72 -700 280/11G24 RMK AO2 T00061039
04847KADG ADG20160126154511801/26/16 15:45:31  5-MIN KADG 262045Z AUTO 28013G19KT 10SM OVC026 01/M04 A2997 750 72 -700 290/13G19 RMK AO2 T00061039
04847KADG ADG20160126155013101/26/16 15:50:31  5-MIN KADG 262050Z AUTO 28011G19KT 10SM OVC026 01/M04 A2997 750 72 -700 290/11G19 RMK AO2 SLP158 T00061039 51020
04847KADG ADG20160126155511201/26/16 15:55:31  5-MIN KADG 262055Z AUTO 28010KT 10SM OVC026 01/M04 A2998 750 72 -700 290/10 RMK AO2 T00061039
04847KADG ADG20160126160011801/26/16 16:00:31  5-MIN KADG 262100Z AUTO 28012G18KT 10SM OVC026 01/M04 A2998 750 72 -700 290/12G18 RMK AO2 T00061039
04847KADG ADG20160126160511801/26/16 16:05:31  5-MIN KADG 262105Z AUTO 29011G20KT 10SM OVC026 01/M04 A2998 750 72 -700 290/11G20 RMK AO2 T00061039
04847KADG ADG20160126161011801/26/16 16:10:31  5-MIN KADG 262110Z AUTO 28013G21KT 10SM OVC027 01/M04 A2998 750 72 -700 290/13G21 RMK AO2 T00061039
04847KADG ADG20160126161511801/26/16 16:15:31  5-MIN KADG 262115Z AUTO 29014G21KT 10SM OVC027 01/M04 A2998 740 69 -700 290/14G21 RMK AO2 T00061044
04847KADG ADG20160126162011801/26/16 16:20:31  5-MIN KADG 262120Z AUTO 28011G20KT 10SM OVC025 01/M04 A2998 740 72 -700 290/11G20 RMK AO2 T00061039
04847KADG ADG20160126162511201/26/16 16:25:31  5-MIN KADG 262125Z AUTO 28011KT 10SM OVC025 01/M04 A2999 740 72 -800 290/11 RMK AO2 T00061039
04847KADG ADG20160126163011201/26/16 16:30:31  5-MIN KADG 262130Z AUTO 28013KT 10SM OVC026 01/M04 A2999 740 72 -800 290/13 RMK AO2 T00061039
04847KADG ADG20160126163511201/26/16 16:35:31  5-MIN KADG 262135Z AUTO 28011KT 10SM OVC026 01/M04 A2999 740 72 -800 280/11 RMK AO2 T00061039
04847KADG ADG20160126164011801/26/16 16:40:31  5-MIN KADG 262140Z AUTO 27009G18KT 10SM OVC026 01/M04 A2999 740 72 -800 280/09G18 RMK AO2 T00061039
04847KADG ADG20160126164511201/26/16 16:45:31  5-MIN KADG 262145Z AUTO 28011KT 10SM OVC024 01/M04 A2999 730 72 -800 280/11 RMK AO2 T00061039
04847KADG ADG20160126165011901/26/16 16:50:31  5-MIN KADG 262150Z AUTO 28009KT 10SM OVC024 01/M04 A3000 730 72 -800 290/09 RMK AO2 SLP165 T00061039
04847KADG ADG20160126165511801/26/16 16:55:31  5-MIN KADG 262155Z AUTO 29011G16KT 10SM OVC024 01/M04 A3000 730 72 -800 290/11G16 RMK AO2 T00061039
04847KADG ADG20160126170011801/26/16 17:00:31  5-MIN KADG 262200Z AUTO 28012G16KT 10SM OVC024 01/M04 A3000 730 72 -800 290/12G16 RMK AO2 T00061039
04847KADG ADG20160126170511201/26/16 17:05:31  5-MIN KADG 262205Z AUTO 27011KT 10SM OVC023 01/M04 A3000 730 72 -800 280/11 RMK AO2 T00061039
04847KADG ADG20160126171011201/26/16 17:10:31  5-MIN KADG 262210Z AUTO 28011KT 10SM OVC023 01/M04 A3000 730 72 -800 280/11 RMK AO2 T00061039
04847KADG ADG20160126171511801/26/16 17:15:31  5-MIN KADG 262215Z AUTO 29011G20KT 10SM OVC023 01/M04 A3000 720 72 -800 290/11G20 RMK AO2 T00061039
04847KADG ADG20160126172011801/26/16 17:20:31  5-MIN KADG 262220Z AUTO 29009G20KT 10SM OVC023 01/M04 A3001 720 72 -800 290/09G20 RMK AO2 T00061039
04847KADG ADG20160126172511201/26/16 17:25:31  5-MIN KADG 262225Z AUTO 28010KT 10SM OVC023 01/M04 A3001 720 72 -800 290/10 RMK AO2 T00061039
04847KADG ADG20160126173011201/26/16 17:30:31  5-MIN KADG 262230Z AUTO 29012KT 10SM OVC023 01/M04 A3001 720 72 -800 300/12 RMK AO2 T00061039
04847KADG ADG20160126173511201/26/16 17:35:31  5-MIN KADG 262235Z AUTO 27009KT 10SM OVC023 01/M04 A3001 720 72 -800 280/09 RMK AO2 T00061039
04847KADG ADG20160126174011801/26/16 17:40:31  5-MIN KADG 262240Z AUTO 27011G18KT 10SM OVC023 01/M04 A3001 710 72 -800 280/11G18 RMK AO2 T00061039
04847KADG ADG20160126174511801/26/16 17:45:31  5-MIN KADG 262245Z AUTO 28009G18KT 10SM OVC023 01/M04 A3002 710 72 -800 280/09G18 RMK AO2 T00061039
04847KADG ADG20160126175011901/26/16 17:50:31  5-MIN KADG 262250Z AUTO 28007KT 10SM OVC023 01/M04 A3002 710 72 -800 280/07 RMK AO2 SLP175 T00061039
04847KADG ADG20160126175511201/26/16 17:55:31  5-MIN KADG 262255Z AUTO 28008KT 10SM OVC022 01/M04 A3003 700 72 -800 280/08 RMK AO2 T00061039
04847KADG ADG20160126180011801/26/16 18:00:31  5-MIN KADG 262300Z AUTO 27010G17KT 10SM OVC022 00/M04 A3003 700 75 -900 270/10G17 RMK AO2 T00001039
04847KADG ADG20160126180511801/26/16 18:05:31  5-MIN KADG 262305Z AUTO 27009G17KT 10SM OVC022 00/M04 A3003 700 75 -900 270/09G17 RMK AO2 T00001039
04847KADG ADG20160126181011201/26/16 18:10:31  5-MIN KADG 262310Z AUTO 27008KT 10SM OVC021 00/M04 A3003 700 75 -900 280/08 RMK AO2 T00001039
04847KADG ADG20160126181511801/26/16 18:15:31  5-MIN KADG 262315Z AUTO 28009G16KT 10SM OVC021 00/M04 A3004 690 75 -900 290/09G16 RMK AO2 T00001039
04847KADG ADG20160126182011801/26/16 18:20:31  5-MIN KADG 262320Z AUTO 27007G16KT 10SM OVC021 00/M04 A3004 690 75 -900 280/07G16 RMK AO2 T00001039
04847KADG ADG20160126182511201/26/16 18:25:31  5-MIN KADG 262325Z AUTO 28012KT 10SM OVC021 00/M04 A3004 690 75 -900 290/12 RMK AO2 T00001039
04847KADG ADG20160126183011201/26/16 18:30:31  5-MIN KADG 262330Z AUTO 27010KT 10SM OVC021 00/M04 A3004 690 75 -900 280/10 RMK AO2 T00001039
04847KADG ADG20160126183511801/26/16 18:35:31  5-MIN KADG 262335Z AUTO 29011G16KT 10SM OVC021 00/M04 A3004 690 75 -900 290/11G16 RMK AO2 T00001039
04847KADG ADG20160126184011801/26/16 18:40:31  5-MIN KADG 262340Z AUTO 28011G18KT 10SM OVC019 00/M04 A3005 680 75 -900 290/11G18 RMK AO2 T00001039
04847KADG ADG20160126184511801/26/16 18:45:31  5-MIN KADG 262345Z AUTO 28013G21KT 10SM OVC019 00/M04 A3005 680 75 -900 290/13G21 RMK AO2 T00001039
04847KADG ADG20160126185014301/26/16 18:50:31  5-MIN KADG 262350Z AUTO 28012G21KT 10SM OVC019 00/M04 A3005 680 75 -900 290/12G21 RMK AO2 SLP187 T00001039 10006 20000 53015
04847KADG ADG20160126185511801/26/16 18:55:31  5-MIN KADG 262355Z AUTO 28014G22KT 10SM OVC019 00/M04 A3005 680 75 -900 290/14G22 RMK AO2 T00001039
04847KADG ADG20160126190011801/26/16 19:00:31  5-MIN KADG 270000Z AUTO 29010G22KT 10SM OVC018 00/M04 A3005 680 75 -900 300/10G22 RMK AO2 T00001039
04847KADG ADG20160126190511801/26/16 19:05:31  5-MIN KADG 270005Z AUTO 29009G18KT 10SM OVC018 00/M04 A3005 680 75 -900 300/09G18 RMK AO2 T00001039
04847KADG ADG20160126191011201/26/16 19:10:31  5-MIN KADG 270010Z AUTO 28009KT 10SM OVC018 00/M04 A3005 680 75 -900 290/09 RMK AO2 T00001039
04847KADG ADG20160126191511201/26/16 19:15:31  5-MIN KADG 270015Z AUTO 29011KT 10SM OVC018 00/M04 A3006 680 75 -900 290/11 RMK AO2 T00001039
04847KADG ADG20160126192011201/26/16 19:20:31  5-MIN KADG 270020Z AUTO 29009KT 10SM OVC019 00/M04 A3006 670 75 -900 290/09 RMK AO2 T00001039
04847KADG ADG20160126192511201/26/16 19:25:31  5-MIN KADG 270025Z AUTO 29009KT 10SM OVC019 00/M04 A3006 670 75 -900 290/09 RMK AO2 T00001039
04847KADG ADG20160126193011201/26/16 19:30:31  5-MIN KADG 270030Z AUTO 29009KT 10SM OVC019 00/M04 A3006 670 75 -900 300/09 RMK AO2 T00001039
04847KADG ADG20160126193511201/26/16 19:35:31  5-MIN KADG 270035Z AUTO 29009KT 10SM OVC020 00/M04 A3006 670 75 -900 290/09 RMK AO2 T00001039
04847KADG ADG20160126194011201/26/16 19:40:31  5-MIN KADG 270040Z AUTO 29008KT 10SM OVC020 00/M04 A3007 670 75 -900 300/08 RMK AO2 T00001039
04847KADG ADG20160126194511201/26/16 19:45:31  5-MIN KADG 270045Z AUTO 28007KT 10SM OVC020 00/M04 A3007 670 75 -900 290/07 RMK AO2 T00001039
04847KADG ADG20160126195011901/26/16 19:50:31  5-MIN KADG 270050Z AUTO 28010KT 10SM OVC020 00/M04 A3007 660 75 -900 290/10 RMK AO2 SLP192 T00001039
04847KADG ADG20160126195511201/26/16 19:55:31  5-MIN KADG 270055Z AUTO 28011KT 10SM OVC020 00/M04 A3007 660 75 -900 290/11 RMK AO2 T00001039
04847KADG ADG20160126200011201/26/16 20:00:31  5-MIN KADG 270100Z AUTO 28007KT 10SM OVC020 00/M04 A3007 660 75 -900 280/07 RMK AO2 T00001039
04847KADG ADG20160127091011401/27/16 09:10:31  5-MIN KADG 271410Z AUTO 27008KT 10SM OVC031 M02/M07 A3022 530 72 -1400 270/08 RMK AO2 T10221067
04847KADG ADG20160127091511401/27/16 09:15:31  5-MIN KADG 271415Z AUTO 27009KT 10SM OVC031 M02/M07 A3022 530 72 -1400 280/09 RMK AO2 T10221067
04847KADG ADG20160127092011401/27/16 09:20:31  5-MIN KADG 271420Z AUTO 28010KT 10SM OVC031 M02/M07 A3022 530 72 -1400 280/10 RMK AO2 T10221067
04847KADG ADG20160127092511401/27/16 09:25:31  5-MIN KADG 271425Z AUTO 28009KT 10SM OVC031 M02/M07 A3022 530 72 -1400 280/09 RMK AO2 T10221067
04847KADG ADG20160127093011401/27/16 09:30:31  5-MIN KADG 271430Z AUTO 27008KT 10SM OVC031 M02/M07 A3022 530 72 -1400 270/08 RMK AO2 T10221067
04847KADG ADG20160127093511401/27/16 09:35:31  5-MIN KADG 271435Z AUTO 26007KT 10SM BKN032 M02/M07 A3022 530 72 -1400 270/07 RMK AO2 T10221067
04847KADG ADG20160127094011401/27/16 09:40:31  5-MIN KADG 271440Z AUTO 26007KT 10SM BKN032 M02/M07 A3021 530 72 -1400 260/07 RMK AO2 T10221067
04847KADG ADG20160127094511401/27/16 09:45:31  5-MIN KADG 271445Z AUTO 27008KT 10SM SCT032 M02/M06 A3021 530 72 -1300 270/08 RMK AO2 T10171061
04847KADG ADG20160127095012701/27/16 09:50:31  5-MIN KADG 271450Z AUTO 26007KT 10SM SCT032 M02/M06 A3021 530 72 -1300 270/07 RMK AO2 SLP243 T10171061 53015
04847KADG ADG20160127095512001/27/16 09:55:31  5-MIN KADG 271455Z AUTO 27012G16KT 10SM FEW032 M02/M06 A3021 530 72 -1300 280/12G16 RMK AO2 T10171061
04847KADG ADG20160127100011101/27/16 10:00:31  5-MIN KADG 271500Z AUTO 28009KT 10SM CLR M01/M06 A3021 530 69 -1200 280/09 RMK AO2 T10111061
04847KADG ADG20160127100512001/27/16 10:05:31  5-MIN KADG 271505Z AUTO 27011G17KT 10SM FEW038 M01/M06 A3022 530 69 -1200 280/11G17 RMK AO2 T10111061
04847KADG ADG20160127101012001/27/16 10:10:31  5-MIN KADG 271510Z AUTO 28011G18KT 10SM SCT038 M01/M07 A3022 530 66 -1200 290/11G18 RMK AO2 T10111067
04847KADG ADG20160127101511401/27/16 10:15:31  5-MIN KADG 271515Z AUTO 28012KT 10SM SCT038 M01/M06 A3022 530 69 -1200 290/12 RMK AO2 T10111061
04847KADG ADG20160127102011401/27/16 10:20:31  5-MIN KADG 271520Z AUTO 27013KT 10SM BKN039 M01/M07 A3022 530 66 -1200 270/13 RMK AO2 T10111067
04847KADG ADG20160127102512001/27/16 10:25:31  5-MIN KADG 271525Z AUTO 26012G18KT 10SM BKN039 M01/M07 A3022 530 66 -1200 270/12G18 RMK AO2 T10111067
04847KADG ADG20160127103012001/27/16 10:30:31  5-MIN KADG 271530Z AUTO 27012G19KT 10SM OVC039 M01/M07 A3022 530 63 -1200 280/12G19 RMK AO2 T10061067
04847KADG ADG20160127103512001/27/16 10:35:31  5-MIN KADG 271535Z AUTO 28012G19KT 10SM OVC039 M01/M07 A3022 520 66 -1200 280/12G19 RMK AO2 T10111067
04847KADG ADG20160127104011401/27/16 10:40:31  5-MIN KADG 271540Z AUTO 28011KT 10SM OVC037 M01/M07 A3022 520 63 -1200 280/11 RMK AO2 T10061067
04847KADG ADG20160127104512001/27/16 10:45:31  5-MIN KADG 271545Z AUTO 29012G19KT 10SM OVC037 M01/M07 A3022 520 66 -1200 300/12G19 RMK AO2 T10111067
04847KADG ADG20160127105012701/27/16 10:50:31  5-MIN KADG 271550Z AUTO 28012G19KT 10SM OVC037 M01/M07 A3022 520 66 -1200 290/12G19 RMK AO2 SLP246 T10111067
04847KADG ADG20160127105511401/27/16 10:55:31  5-MIN KADG 271555Z AUTO 29012KT 10SM OVC037 M01/M07 A3022 520 66 -1200 300/12 RMK AO2 T10111067
04847KADG ADG20160127110011401/27/16 11:00:31  5-MIN KADG 271600Z AUTO 27011KT 10SM OVC036 M01/M07 A3022 520 66 -1200 280/11 RMK AO2 T10111067
04847KADG ADG20160127110511401/27/16 11:05:31  5-MIN KADG 271605Z AUTO 27012KT 10SM OVC036 M01/M07 A3022 520 66 -1200 280/12 RMK AO2 T10111067
04847KADG ADG20160127111011401/27/16 11:10:31  5-MIN KADG 271610Z AUTO 28013KT 10SM OVC036 M01/M07 A3023 520 66 -1200 280/13 RMK AO2 T10111067
04847KADG ADG20160127111511401/27/16 11:15:31  5-MIN KADG 271615Z AUTO 28010KT 10SM OVC036 M01/M07 A3022 520 66 -1200 290/10 RMK AO2 T10111067
04847KADG ADG20160127112011401/27/16 11:20:31  5-MIN KADG 271620Z AUTO 27011KT 10SM OVC036 M01/M07 A3022 520 66 -1200 280/11 RMK AO2 T10111067
04847KADG ADG20160127112511401/27/16 11:25:31  5-MIN KADG 271625Z AUTO 28012KT 10SM OVC036 M01/M07 A3022 520 66 -1200 280/12 RMK AO2 T10111067
04847KADG ADG20160127113012001/27/16 11:30:31  5-MIN KADG 271630Z AUTO 28012G18KT 10SM OVC036 M01/M07 A3023 520 66 -1200 290/12G18 RMK AO2 T10111067
04847KADG ADG20160127113511401/27/16 11:35:31  5-MIN KADG 271635Z AUTO 27013KT 10SM OVC036 M01/M07 A3022 520 66 -1200 270/13 RMK AO2 T10111067
04847KADG ADG20160127114012701/27/16 11:40:31  5-MIN KADG 271640Z AUTO 26013G19KT 10SM FEW023 OVC035 M01/M07 A3022 520 66 -1200 270/13G19 RMK AO2 T10111067
04847KADG ADG20160127114512701/27/16 11:45:31  5-MIN KADG 271645Z AUTO 26009G19KT 10SM FEW023 OVC035 M02/M07 A3022 520 69 -1300 270/09G19 RMK AO2 T10171067
04847KADG ADG20160127115013401/27/16 11:50:31  5-MIN KADG 271650Z AUTO 27014G18KT 10SM FEW023 OVC034 M01/M07 A3022 520 66 -1200 280/14G18 RMK AO2 SLP245 T10111067
04847KADG ADG20160127115512001/27/16 11:55:31  5-MIN KADG 271655Z AUTO 27010G18KT 10SM OVC034 M01/M07 A3022 520 66 -1200 280/10G18 RMK AO2 T10111067
04847KADG ADG20160127120011401/27/16 12:00:31  5-MIN KADG 271700Z AUTO 27012KT 10SM OVC034 M01/M07 A3022 530 66 -1200 280/12 RMK AO2 T10111067
04847KADG ADG20160127120512701/27/16 12:05:31  5-MIN KADG 271705Z AUTO 25008G17KT 10SM FEW024 OVC034 M02/M07 A3022 530 69 -1300 260/08G17 RMK AO2 T10171067
04847KADG ADG20160127121012101/27/16 12:10:31  5-MIN KADG 271710Z AUTO 26010KT 10SM SCT026 OVC034 M02/M07 A3022 530 69 -1300 270/10 RMK AO2 T10171067
04847KADG ADG20160127121512101/27/16 12:15:31  5-MIN KADG 271715Z AUTO 25007KT 10SM BKN026 OVC033 M02/M07 A3022 530 69 -1300 260/07 RMK AO2 T10171067
04847KADG ADG20160127122012101/27/16 12:20:31  5-MIN KADG 271720Z AUTO 25008KT 10SM BKN024 OVC033 M02/M07 A3022 530 69 -1300 250/08 RMK AO2 T10171067
04847KADG ADG20160127122512101/27/16 12:25:31  5-MIN KADG 271725Z AUTO 26008KT 10SM BKN024 OVC033 M02/M07 A3022 530 66 -1300 270/08 RMK AO2 T10171072
04847KADG ADG20160127123011401/27/16 12:30:31  5-MIN KADG 271730Z AUTO 26008KT 10SM OVC024 M02/M07 A3022 530 69 -1300 270/08 RMK AO2 T10171067
04847KADG ADG20160127123511401/27/16 12:35:31  5-MIN KADG 271735Z AUTO 26006KT 10SM OVC024 M02/M07 A3021 530 69 -1300 270/06 RMK AO2 T10171067
04847KADG ADG20160127124011401/27/16 12:40:31  5-MIN KADG 271740Z AUTO 26006KT 10SM OVC024 M02/M07 A3021 540 69 -1300 270/06 RMK AO2 T10171067
04847KADG ADG20160127124511401/27/16 12:45:31  5-MIN KADG 271745Z AUTO 27009KT 10SM OVC024 M02/M07 A3020 540 69 -1300 280/09 RMK AO2 T10171067
04847KADG ADG20160127125013901/27/16 12:50:31  5-MIN KADG 271750Z AUTO 25008KT 10SM OVC024 M02/M07 A3020 540 66 -1300 260/08 RMK AO2 SLP238 T10171072 11006 21033 51006
04847KADG ADG20160127125511401/27/16 12:55:31  5-MIN KADG 271755Z AUTO 25008KT 10SM OVC024 M02/M07 A3019 550 69 -1300 250/08 RMK AO2 T10221072
04847KADG ADG20160127130011401/27/16 13:00:31  5-MIN KADG 271800Z AUTO 25009KT 10SM OVC024 M02/M07 A3019 550 69 -1300 260/09 RMK AO2 T10171067
04847KADG ADG20160127130511401/27/16 13:05:31  5-MIN KADG 271805Z AUTO 26008KT 10SM OVC024 M02/M07 A3019 550 69 -1300 270/08 RMK AO2 T10171067
04847KADG ADG20160127131011401/27/16 13:10:31  5-MIN KADG 271810Z AUTO 25007KT 10SM OVC024 M02/M07 A3019 550 69 -1300 260/07 RMK AO2 T10171067
04847KADG ADG20160127131511401/27/16 13:15:31  5-MIN KADG 271815Z AUTO 25009KT 10SM OVC024 M02/M07 A3018 560 72 -1300 260/09 RMK AO2 T10221067
04847KADG ADG20160127132011401/27/16 13:20:31  5-MIN KADG 271820Z AUTO 25007KT 10SM OVC024 M02/M07 A3018 560 69 -1300 260/07 RMK AO2 T10171067
04847KADG ADG20160127132511401/27/16 13:25:31  5-MIN KADG 271825Z AUTO 26009KT 10SM OVC024 M02/M07 A3018 570 69 -1300 270/09 RMK AO2 T10171067
04847KADG ADG20160127133011401/27/16 13:30:31  5-MIN KADG 271830Z AUTO 25008KT 10SM OVC024 M02/M07 A3017 570 69 -1200 260/08 RMK AO2 T10171067
04847KADG ADG20160127133511401/27/16 13:35:31  5-MIN KADG 271835Z AUTO 25007KT 10SM OVC024 M02/M07 A3017 570 69 -1200 250/07 RMK AO2 T10171067
04847KADG ADG20160127134011401/27/16 13:40:31  5-MIN KADG 271840Z AUTO 25009KT 10SM OVC024 M02/M07 A3016 580 69 -1200 260/09 RMK AO2 T10171067
04847KADG ADG20160127134511401/27/16 13:45:31  5-MIN KADG 271845Z AUTO 25008KT 10SM OVC024 M02/M07 A3016 580 69 -1300 250/08 RMK AO2 T10221072
04847KADG ADG20160127135012101/27/16 13:50:31  5-MIN KADG 271850Z AUTO 25008KT 10SM OVC024 M02/M07 A3016 580 69 -1300 260/08 RMK AO2 SLP226 T10221072
04847KADG ADG20160127135511401/27/16 13:55:31  5-MIN KADG 271855Z AUTO 26009KT 10SM OVC024 M02/M07 A3016 580 69 -1300 260/09 RMK AO2 T10221072
04847KADG ADG20160127140011401/27/16 14:00:31  5-MIN KADG 271900Z AUTO 26007KT 10SM OVC024 M02/M08 A3015 590 66 -1300 270/07 RMK AO2 T10221078
04847KADG ADG20160127140511401/27/16 14:05:31  5-MIN KADG 271905Z AUTO 25009KT 10SM OVC024 M02/M07 A3015 590 69 -1300 260/09 RMK AO2 T10221072
04847KADG ADG20160127141011401/27/16 14:10:31  5-MIN KADG 271910Z AUTO 26010KT 10SM OVC024 M02/M08 A3015 590 66 -1300 260/10 RMK AO2 T10221078
04847KADG ADG20160127141511401/27/16 14:15:31  5-MIN KADG 271915Z AUTO 24008KT 10SM OVC024 M02/M08 A3015 590 66 -1300 250/08 RMK AO2 T10221078
04847KADG ADG20160127142011401/27/16 14:20:31  5-MIN KADG 271920Z AUTO 24009KT 10SM OVC025 M02/M08 A3014 590 66 -1300 250/09 RMK AO2 T10221078
04847KADG ADG20160127142511401/27/16 14:25:31  5-MIN KADG 271925Z AUTO 26009KT 10SM OVC025 M02/M08 A3014 600 66 -1300 260/09 RMK AO2 T10221078
04847KADG ADG20160127143011401/27/16 14:30:31  5-MIN KADG 271930Z AUTO 27008KT 10SM OVC025 M02/M08 A3014 600 66 -1300 280/08 RMK AO2 T10221078
04847KADG ADG20160127143511401/27/16 14:35:31  5-MIN KADG 271935Z AUTO 24008KT 10SM OVC025 M02/M08 A3013 610 66 -1300 250/08 RMK AO2 T10221078
04847KADG ADG20160127144011401/27/16 14:40:31  5-MIN KADG 271940Z AUTO 25009KT 10SM OVC025 M02/M08 A3013 610 66 -1300 260/09 RMK AO2 T10221078
04847KADG ADG20160127144511401/27/16 14:45:31  5-MIN KADG 271945Z AUTO 26008KT 10SM OVC025 M02/M08 A3013 610 66 -1300 260/08 RMK AO2 T10221078
04847KADG ADG20160127145012101/27/16 14:50:31  5-MIN KADG 271950Z AUTO 27009KT 10SM OVC025 M02/M08 A3013 610 66 -1300 280/09 RMK AO2 SLP214 T10221078
04847KADG ADG20160127145511401/27/16 14:55:31  5-MIN KADG 271955Z AUTO 25009KT 10SM OVC025 M02/M08 A3013 610 66 -1300 260/09 RMK AO2 T10221078
04847KADG ADG20160127150012001/27/16 15:00:31  5-MIN KADG 272000Z AUTO 24013G17KT 10SM OVC025 M02/M08 A3012 610 66 -1300 240/13G17 RMK AO2 T10221078
04847KADG ADG20160127150512001/27/16 15:05:31  5-MIN KADG 272005Z AUTO 25010G17KT 10SM OVC025 M02/M08 A3012 610 66 -1300 250/10G17 RMK AO2 T10221078
04847KADG ADG20160127151012001/27/16 15:10:31  5-MIN KADG 272010Z AUTO 25008G17KT 10SM OVC025 M02/M08 A3013 610 66 -1300 260/08G17 RMK AO2 T10221078
04847KADG ADG20160127151512001/27/16 15:15:31  5-MIN KADG 272015Z AUTO 25009G16KT 10SM OVC026 M03/M08 A3013 610 66 -1300 250/09G16 RMK AO2 T10281083
04847KADG ADG20160127152011401/27/16 15:20:31  5-MIN KADG 272020Z AUTO 26011KT 10SM OVC026 M03/M08 A3012 610 66 -1300 270/11 RMK AO2 T10281083
04847KADG ADG20160127152511401/27/16 15:25:31  5-MIN KADG 272025Z AUTO 24010KT 10SM OVC026 M03/M08 A3012 620 66 -1300 250/10 RMK AO2 T10281083
04847KADG ADG20160127153011401/27/16 15:30:31  5-MIN KADG 272030Z AUTO 23013KT 10SM OVC026 M03/M09 A3012 620 63 -1300 240/13 RMK AO2 T10281089
04847KADG ADG20160127153512001/27/16 15:35:31  5-MIN KADG 272035Z AUTO 26011G18KT 10SM OVC027 M03/M09 A3012 620 63 -1300 270/11G18 RMK AO2 T10281089
04847KADG ADG20160127154011401/27/16 15:40:31  5-MIN KADG 272040Z AUTO 27010KT 10SM OVC027 M03/M09 A3012 620 63 -1300 280/10 RMK AO2 T10281089
04847KADG ADG20160127154511401/27/16 15:45:31  5-MIN KADG 272045Z AUTO 26010KT 10SM OVC027 M03/M09 A3011 620 63 -1300 270/10 RMK AO2 T10281089
04847KADG ADG20160127155012701/27/16 15:50:31  5-MIN KADG 272050Z AUTO 27010KT 10SM OVC028 M03/M09 A3011 620 63 -1300 280/10 RMK AO2 SLP209 T10281089 58006
04847KADG ADG20160127155511401/27/16 15:55:31  5-MIN KADG 272055Z AUTO 27010KT 10SM OVC028 M03/M09 A3011 630 63 -1300 280/10 RMK AO2 T10281089
04847KADG ADG20160127160011401/27/16 16:00:31  5-MIN KADG 272100Z AUTO 26008KT 10SM OVC028 M02/M08 A3011 630 63 -1200 270/08 RMK AO2 T10221083
04847KADG ADG20160127160511401/27/16 16:05:31  5-MIN KADG 272105Z AUTO 26011KT 10SM OVC028 M03/M09 A3011 630 63 -1300 260/11 RMK AO2 T10281089
04847KADG ADG20160127161011401/27/16 16:10:31  5-MIN KADG 272110Z AUTO 25011KT 10SM OVC029 M03/M09 A3010 630 63 -1300 250/11 RMK AO2 T10281089
04847KADG ADG20160127161511401/27/16 16:15:31  5-MIN KADG 272115Z AUTO 26011KT 10SM OVC029 M03/M09 A3010 630 63 -1300 260/11 RMK AO2 T10281089
04847KADG ADG20160127162011401/27/16 16:20:31  5-MIN KADG 272120Z AUTO 25011KT 10SM OVC029 M03/M09 A3010 630 63 -1300 260/11 RMK AO2 T10281089
04847KADG ADG20160127162512001/27/16 16:25:31  5-MIN KADG 272125Z AUTO 26012G17KT 10SM OVC029 M03/M09 A3010 630 63 -1300 270/12G17 RMK AO2 T10281089
04847KADG ADG20160127163012001/27/16 16:30:31  5-MIN KADG 272130Z AUTO 25008G17KT 10SM OVC029 M03/M09 A3010 630 63 -1300 260/08G17 RMK AO2 T10281089
04847KADG ADG20160127163512001/27/16 16:35:31  5-MIN KADG 272135Z AUTO 25011G15KT 10SM OVC029 M03/M09 A3010 640 63 -1300 250/11G15 RMK AO2 T10281089
04847KADG ADG20160127164012001/27/16 16:40:31  5-MIN KADG 272140Z AUTO 26009G15KT 10SM OVC029 M03/M09 A3009 640 63 -1300 270/09G15 RMK AO2 T10281089
04847KADG ADG20160127164512001/27/16 16:45:31  5-MIN KADG 272145Z AUTO 25011G17KT 10SM OVC029 M03/M09 A3009 640 63 -1300 250/11G17 RMK AO2 T10281089
04847KADG ADG20160127165012701/27/16 16:50:31  5-MIN KADG 272150Z AUTO 24009G17KT 10SM OVC028 M03/M09 A3009 650 63 -1300 250/09G17 RMK AO2 SLP201 T10281089
04847KADG ADG20160127165511401/27/16 16:55:31  5-MIN KADG 272155Z AUTO 25011KT 10SM OVC028 M03/M09 A3009 650 63 -1300 260/11 RMK AO2 T10281089
04847KADG ADG20160127170011401/27/16 17:00:31  5-MIN KADG 272200Z AUTO 25008KT 10SM OVC028 M03/M09 A3009 650 63 -1300 250/08 RMK AO2 T10281089
04847KADG ADG20160127170511401/27/16 17:05:31  5-MIN KADG 272205Z AUTO 23012KT 10SM OVC028 M03/M08 A3008 650 66 -1300 230/12 RMK AO2 T10281083
04847KADG ADG20160127171011401/27/16 17:10:31  5-MIN KADG 272210Z AUTO 24009KT 10SM OVC027 M03/M08 A3008 650 66 -1300 250/09 RMK AO2 T10281083
04847KADG ADG20160127171511401/27/16 17:15:31  5-MIN KADG 272215Z AUTO 24009KT 10SM OVC027 M03/M08 A3008 650 66 -1300 240/09 RMK AO2 T10281083
04847KADG ADG20160127172011401/27/16 17:20:31  5-MIN KADG 272220Z AUTO 24010KT 10SM OVC027 M03/M08 A3008 650 66 -1300 240/10 RMK AO2 T10281083
04847KADG ADG20160127172511401/27/16 17:25:31  5-MIN KADG 272225Z AUTO 24008KT 10SM OVC025 M03/M08 A3008 650 66 -1300 250/08 RMK AO2 T10281083
04847KADG ADG20160127173012001/27/16 17:30:31  5-MIN KADG 272230Z AUTO 24013G17KT 10SM OVC025 M03/M08 A3008 650 66 -1300 250/13G17 RMK AO2 T10281083
04847KADG ADG20160127173512001/27/16 17:35:31  5-MIN KADG 272235Z AUTO 24011G18KT 10SM OVC025 M03/M08 A3008 660 66 -1300 250/11G18 RMK AO2 T10281083
04847KADG ADG20160127174012001/27/16 17:40:31  5-MIN KADG 272240Z AUTO 25011G18KT 10SM OVC025 M03/M08 A3007 660 68 -1300 250/11G18 RMK AO2 T10331083
04847KADG ADG20160127174512001/27/16 17:45:31  5-MIN KADG 272245Z AUTO 23014G17KT 10SM OVC024 M03/M08 A3007 660 68 -1300 240/14G17 RMK AO2 T10331083
04847KADG ADG20160127175012701/27/16 17:50:31  5-MIN KADG 272250Z AUTO 25008G17KT 10SM OVC024 M03/M08 A3007 660 68 -1300 250/08G17 RMK AO2 SLP196 T10331083
04847KADG ADG20160127175511401/27/16 17:55:31  5-MIN KADG 272255Z AUTO 25009KT 10SM OVC024 M03/M08 A3007 660 68 -1300 260/09 RMK AO2 T10331083
04847KADG ADG20160127180011401/27/16 18:00:31  5-MIN KADG 272300Z AUTO 24009KT 10SM OVC024 M03/M08 A3008 660 68 -1300 250/09 RMK AO2 T10331083
04847KADG ADG20160127180512001/27/16 18:05:31  5-MIN KADG 272305Z AUTO 24011G18KT 10SM OVC024 M03/M08 A3008 660 68 -1400 250/11G18 RMK AO2 T10331083
04847KADG ADG20160127181012001/27/16 18:10:31  5-MIN KADG 272310Z AUTO 24012G20KT 10SM OVC024 M03/M08 A3008 650 68 -1400 240/12G20 RMK AO2 T10331083
04847KADG ADG20160127181512001/27/16 18:15:31  5-MIN KADG 272315Z AUTO 23013G20KT 10SM OVC024 M03/M08 A3008 660 68 -1400 240/13G20 RMK AO2 T10331083
04847KADG ADG20160127182012001/27/16 18:20:31  5-MIN KADG 272320Z AUTO 23012G20KT 10SM OVC024 M03/M08 A3007 660 68 -1300 240/12G20 RMK AO2 T10331083
04847KADG ADG20160127182511401/27/16 18:25:31  5-MIN KADG 272325Z AUTO 24012KT 10SM OVC025 M03/M08 A3007 660 68 -1300 240/12 RMK AO2 T10331083
04847KADG ADG20160127183011401/27/16 18:30:31  5-MIN KADG 272330Z AUTO 23014KT 10SM OVC025 M03/M08 A3007 660 68 -1300 240/14 RMK AO2 T10331083
04847KADG ADG20160127183512001/27/16 18:35:31  5-MIN KADG 272335Z AUTO 24010G18KT 10SM OVC025 M03/M08 A3007 670 68 -1300 250/10G18 RMK AO2 T10331083
04847KADG ADG20160127184011401/27/16 18:40:31  5-MIN KADG 272340Z AUTO 23010KT 10SM OVC025 M03/M08 A3006 670 68 -1300 240/10 RMK AO2 T10331083
04847KADG ADG20160127184511401/27/16 18:45:31  5-MIN KADG 272345Z AUTO 23012KT 10SM OVC025 M03/M08 A3006 670 68 -1300 240/12 RMK AO2 T10331083
04847KADG ADG20160127185013901/27/16 18:50:31  5-MIN KADG 272350Z AUTO 23010KT 10SM OVC025 M03/M08 A3006 670 71 -1300 230/10 RMK AO2 SLP192 T10331078 11017 21033 56028
04847KADG ADG20160127185511401/27/16 18:55:31  5-MIN KADG 272355Z AUTO 23010KT 10SM OVC025 M03/M08 A3006 670 71 -1300 240/10 RMK AO2 T10331078
04847KADG ADG20160127190011401/27/16 19:00:31  5-MIN KADG 280000Z AUTO 23011KT 10SM OVC027 M03/M08 A3006 670 71 -1300 230/11 RMK AO2 T10331078
04847KADG ADG20160127190511401/27/16 19:05:31  5-MIN KADG 280005Z AUTO 24010KT 10SM OVC027 M03/M08 A3006 670 71 -1300 240/10 RMK AO2 T10331078
04847KADG ADG20160127191011401/27/16 19:10:31  5-MIN KADG 280010Z AUTO 23009KT 10SM OVC026 M03/M08 A3006 670 71 -1300 240/09 RMK AO2 T10331078
04847KADG ADG20160127191511401/27/16 19:15:31  5-MIN KADG 280015Z AUTO 23009KT 10SM OVC026 M03/M08 A3006 680 68 -1300 240/09 RMK AO2 T10281078
04847KADG ADG20160127192011401/27/16 19:20:31  5-MIN KADG 280020Z AUTO 23010KT 10SM OVC026 M03/M08 A3006 670 68 -1300 240/10 RMK AO2 T10281078
04847KADG ADG20160127192511401/27/16 19:25:31  5-MIN KADG 280025Z AUTO 23010KT 10SM OVC026 M03/M08 A3005 680 68 -1300 240/10 RMK AO2 T10281078
04847KADG ADG20160127193011401/27/16 19:30:31  5-MIN KADG 280030Z AUTO 23010KT 10SM OVC026 M03/M08 A3005 680 68 -1200 240/10 RMK AO2 T10281078
04847KADG ADG20160127193511401/27/16 19:35:31  5-MIN KADG 280035Z AUTO 23012KT 10SM OVC026 M03/M08 A3005 680 68 -1200 240/12 RMK AO2 T10281078
04847KADG ADG20160127194011401/27/16 19:40:31  5-MIN KADG 280040Z AUTO 24010KT 10SM OVC026 M03/M08 A3005 680 68 -1200 240/10 RMK AO2 T10281078
04847KADG ADG20160127194511401/27/16 19:45:31  5-MIN KADG 280045Z AUTO 23010KT 10SM OVC026 M03/M07 A3004 690 71 -1200 240/10 RMK AO2 T10281072
04847KADG ADG20160127195012101/27/16 19:50:31  5-MIN KADG 280050Z AUTO 23011KT 10SM OVC025 M03/M07 A3004 690 71 -1200 230/11 RMK AO2 SLP185 T10281072
04847KADG ADG20160127195512001/27/16 19:55:31  5-MIN KADG 280055Z AUTO 23012G18KT 10SM OVC025 M03/M07 A3004 690 71 -1200 240/12G18 RMK AO2 T10281072
04847KADG ADG20160127200012001/27/16 20:00:31  5-MIN KADG 280100Z AUTO 24012G18KT 10SM OVC025 M03/M08 A3004 690 68 -1200 250/12G18 RMK AO2 T10281078
04847KADG ADG20160127200512001/27/16 20:05:31  5-MIN KADG 280105Z AUTO 24015G22KT 10SM OVC025 M03/M08 A3004 690 68 -1200 250/15G22 RMK AO2 T10281078
04847KADG ADG20160127201012001/27/16 20:10:31  5-MIN KADG 280110Z AUTO 24015G22KT 10SM OVC026 M03/M08 A3004 690 68 -1200 240/15G22 RMK AO2 T10281078
04847KADG ADG20160127201512001/27/16 20:15:31  5-MIN KADG 280115Z AUTO 24010G20KT 10SM OVC026 M03/M08 A3004 690 68 -1200 250/10G20 RMK AO2 T10281078
04847KADG ADG20160127202011401/27/16 20:20:31  5-MIN KADG 280120Z AUTO 24009KT 10SM OVC026 M03/M08 A3004 690 68 -1200 250/09 RMK AO2 T10281078
04847KADG ADG20160127202512001/27/16 20:25:31  5-MIN KADG 280125Z AUTO 24011G19KT 10SM OVC026 M03/M08 A3003 700 66 -1200 250/11G19 RMK AO2 T10281083
04847KADG ADG20160127203013801/27/16 20:30:31  5-MIN KADG 280130Z AUTO 24017G26KT 10SM OVC027 M03/M08 A3003 700 66 -1200 240/17G26 RMK AO2 PK WND 23026/0127 T10281083
04847KADG ADG20160127203513801/27/16 20:35:31  5-MIN KADG 280135Z AUTO 24011G26KT 10SM OVC027 M03/M09 A3003 700 63 -1200 250/11G26 RMK AO2 PK WND 23026/0127 T10281089
04847KADG ADG20160127204013801/27/16 20:40:31  5-MIN KADG 280140Z AUTO 24012G21KT 10SM OVC029 M03/M09 A3003 700 63 -1200 240/12G21 RMK AO2 PK WND 23026/0127 T10281089
04847KADG ADG20160127204513801/27/16 20:45:31  5-MIN KADG 280145Z AUTO 24012G21KT 10SM OVC029 M03/M09 A3003 700 63 -1200 250/12G21 RMK AO2 PK WND 23026/0127 T10281089
04847KADG ADG20160127205007401/27/16 20:50:31  5-MIN KADG 280150Z AUTO 24012G22KT 10SM OVC029 M03/M09 
04847KADG ADG20160127205014501/27/16 20:50:31  5-MIN KADG 280150Z AUTO 24012G22KT 10SM OVC029 M03/M09 A3002 710 65 -1300 250/12G22 RMK AO2 PK WND 23026/0127 SLP178 T10331089
04847KADG ADG20160127205512001/27/16 20:55:31  5-MIN KADG 280155Z AUTO 24013G22KT 10SM OVC029 M03/M09 A3002 710 65 -1300 240/13G22 RMK AO2 T10331089
04847KADG ADG20160127210011401/27/16 21:00:31  5-MIN KADG 280200Z AUTO 23013KT 10SM OVC029 M03/M09 A3001 710 65 -1300 240/13 RMK AO2 T10331089
04847KADG ADG20160127210511401/27/16 21:05:31  5-MIN KADG 280205Z AUTO 24012KT 10SM BKN029 M03/M09 A3001 710 65 -1300 240/12 RMK AO2 T10331089
04847KADG ADG20160127211012001/27/16 21:10:31  5-MIN KADG 280210Z AUTO 23013G21KT 10SM BKN029 M03/M09 A3001 720 65 -1300 240/13G21 RMK AO2 T10331089
04847KADG ADG20160127211512001/27/16 21:15:31  5-MIN KADG 280215Z AUTO 24014G21KT 10SM SCT029 M03/M09 A3001 720 65 -1300 250/14G21 RMK AO2 T10331089
04847KADG ADG20160127212012001/27/16 21:20:31  5-MIN KADG 280220Z AUTO 23013G20KT 10SM SCT029 M03/M09 A3001 720 63 -1300 240/13G20 RMK AO2 T10331094
04847KADG ADG20160127212512001/27/16 21:25:31  5-MIN KADG 280225Z AUTO 23011G20KT 10SM FEW029 M03/M09 A3001 720 65 -1300 240/11G20 RMK AO2 T10331089
04847KADG ADG20160127213011401/27/16 21:30:31  5-MIN KADG 280230Z AUTO 23011KT 10SM FEW029 M04/M09 A3001 720 68 -1300 240/11 RMK AO2 T10391089
04847KADG ADG20160127213511101/27/16 21:35:31  5-MIN KADG 280235Z AUTO 23012KT 10SM CLR M04/M09 A3001 720 68 -1300 240/12 RMK AO2 T10391089
04847KADG ADG20160127214011101/27/16 21:40:31  5-MIN KADG 280240Z AUTO 23011KT 10SM CLR M04/M09 A3001 720 68 -1300 240/11 RMK AO2 T10391089
04847KADG ADG20160127214511101/27/16 21:45:31  5-MIN KADG 280245Z AUTO 23012KT 10SM CLR M04/M09 A3001 710 68 -1300 240/12 RMK AO2 T10391089
04847KADG ADG20160127215012401/27/16 21:50:31  5-MIN KADG 280250Z AUTO 23011KT 10SM CLR M04/M09 A3001 720 68 -1300 240/11 RMK AO2 SLP175 T10391089 56017
04847KADG ADG20160127215511101/27/16 21:55:31  5-MIN KADG 280255Z AUTO 23011KT 10SM CLR M04/M09 A3001 720 68 -1300 230/11 RMK AO2 T10391089
04847KADG ADG20160127220011101/27/16 22:00:31  5-MIN KADG 280300Z AUTO 22010KT 10SM CLR M04/M09 A3000 720 68 -1300 230/10 RMK AO2 T10391089
04847KADG ADG20160127220511101/27/16 22:05:31  5-MIN KADG 280305Z AUTO 23012KT 10SM CLR M03/M09 A3000 730 65 -1300 230/12 RMK AO2 T10331089
04847KADG ADG20160127221011101/27/16 22:10:31  5-MIN KADG 280310Z AUTO 23014KT 10SM CLR M03/M09 A3000 730 65 -1300 230/14 RMK AO2 T10331089
04847KADG ADG20160127221511101/27/16 22:15:31  5-MIN KADG 280315Z AUTO 22010KT 10SM CLR M04/M09 A3000 730 68 -1300 230/10 RMK AO2 T10391089
04847KADG ADG20160127222011701/27/16 22:20:31  5-MIN KADG 280320Z AUTO 23015G19KT 10SM CLR M04/M09 A2999 730 68 -1300 230/15G19 RMK AO2 T10391089
04847KADG ADG20160127222511101/27/16 22:25:31  5-MIN KADG 280325Z AUTO 22014KT 10SM CLR M04/M09 A2999 740 68 -1300 230/14 RMK AO2 T10391089
04847KADG ADG20160127223011401/27/16 22:30:31  5-MIN KADG 280330Z AUTO 22014KT 10SM FEW120 M03/M08 A2998 740 68 -1200 230/14 RMK AO2 T10331083
04847KADG ADG20160127223511401/27/16 22:35:31  5-MIN KADG 280335Z AUTO 23014KT 10SM SCT110 M03/M08 A2998 750 68 -1200 230/14 RMK AO2 T10331083
04847KADG ADG20160127224012001/27/16 22:40:31  5-MIN KADG 280340Z AUTO 22014G21KT 10SM BKN110 M03/M08 A2998 750 68 -1200 230/14G21 RMK AO2 T10331083
04847KADG ADG20160127224512001/27/16 22:45:31  5-MIN KADG 280345Z AUTO 22016G22KT 10SM BKN110 M03/M08 A2997 750 68 -1200 230/16G22 RMK AO2 T10331083
04847KADG ADG20160127225012701/27/16 22:50:31  5-MIN KADG 280350Z AUTO 23018G23KT 10SM BKN110 M03/M08 A2997 750 68 -1200 240/18G23 RMK AO2 SLP161 T10331083
04847KADG ADG20160127225512001/27/16 22:55:31  5-MIN KADG 280355Z AUTO 23016G23KT 10SM OVC100 M03/M08 A2997 760 68 -1200 240/16G23 RMK AO2 T10331083
04847KADG ADG20160127230012701/27/16 23:00:31  5-MIN KADG 280400Z AUTO 23018G23KT 10SM BKN090 OVC110 M03/M08 A2997 750 68 -1200 240/18G23 RMK AO2 T10331083
04847KADG ADG20160127230512701/27/16 23:05:31  5-MIN KADG 280405Z AUTO 23016G24KT 10SM BKN080 OVC100 M03/M08 A2997 760 68 -1200 240/16G24 RMK AO2 T10331083
04847KADG ADG20160127231013401/27/16 23:10:31  5-MIN KADG 280410Z AUTO 23016G24KT 10SM SCT070 BKN090 OVC110 M03/M08 A2997 760 68 -1200 240/16G24 RMK AO2 T10331083
04847KADG ADG20160127231512101/27/16 23:15:31  5-MIN KADG 280415Z AUTO 23015KT 10SM BKN080 OVC100 M03/M08 A2996 760 68 -1200 240/15 RMK AO2 T10331083
04847KADG ADG20160127232012001/27/16 23:20:31  5-MIN KADG 280420Z AUTO 23016G23KT 10SM OVC080 M03/M08 A2996 760 68 -1200 240/16G23 RMK AO2 T10331083
04847KADG ADG20160127232512001/27/16 23:25:31  5-MIN KADG 280425Z AUTO 22017G23KT 10SM OVC080 M03/M08 A2995 770 68 -1200 230/17G23 RMK AO2 T10331083
04847KADG ADG20160127233012001/27/16 23:30:31  5-MIN KADG 280430Z AUTO 23016G23KT 10SM OVC080 M03/M08 A2995 770 68 -1200 240/16G23 RMK AO2 T10331083
04847KADG ADG20160127233511401/27/16 23:35:31  5-MIN KADG 280435Z AUTO 23015KT 10SM OVC080 M03/M08 A2995 770 71 -1200 240/15 RMK AO2 T10331078
04847KADG ADG20160127234013801/27/16 23:40:31  5-MIN KADG 280440Z AUTO 23018G26KT 10SM OVC080 M03/M08 A2995 770 71 -1200 230/18G26 RMK AO2 PK WND 22026/0440 T10331078
04847KADG ADG20160127234513801/27/16 23:45:31  5-MIN KADG 280445Z AUTO 23015G26KT 10SM OVC085 M03/M08 A2995 780 71 -1200 230/15G26 RMK AO2 PK WND 22026/0440 T10331078
04847KADG ADG20160127235015601/27/16 23:50:31  5-MIN KADG 280450Z AUTO 23015KT 10SM BKN080 OVC095 M03/M08 A2994 780 71 -1200 230/15 RMK AO2 PK WND 22026/0440 SLP151 T10331078 410061039
04847KADG ADG20160127235511401/27/16 23:55:31  5-MIN KADG 280455Z AUTO 23015KT 10SM OVC080 M03/M08 A2994 780 68 -1100 230/15 RMK AO2 T10281078
04847KADG ADG20160128000012101/28/16 00:00:31  5-MIN KADG 280500Z AUTO 23017KT 10SM FEW065 OVC080 M03/M08 A2993 790 68 -1100 240/17 RMK AO2 T10281078
04847KADG ADG20160128000512101/28/16 00:05:31  5-MIN KADG 280505Z AUTO 23013KT 10SM SCT055 OVC080 M03/M08 A2993 790 68 -1100 240/13 RMK AO2 T10281078
04847KADG ADG20160128001012101/28/16 00:10:31  5-MIN KADG 280510Z AUTO 23014KT 10SM BKN050 OVC080 M03/M08 A2993 790 68 -1100 240/14 RMK AO2 T10281078
04847KADG ADG20160128001512601/28/16 00:15:31  5-MIN KADG 280515Z AUTO 23017G24KT 9SM BKN047 OVC075 M03/M08 A2992 800 68 -1100 230/17G24 RMK AO2 T10281078
04847KADG ADG20160128002014201/28/16 00:20:31  5-MIN KADG 280520Z AUTO 22016G24KT 5SM -SN BKN045 OVC075 M03/M08 A2992 800 68 -1100 230/16G24 RMK AO2 SNB17 P0000 T10281078
04847KADG ADG20160128002514901/28/16 00:25:31  5-MIN KADG 280525Z AUTO 23015G22KT 4SM -SN BKN047 BKN055 OVC070 M03/M07 A2992 800 74 -1200 230/15G22 RMK AO2 SNB17 P0000 T10331072
04847KADG ADG20160128003014201/28/16 00:30:31  5-MIN KADG 280530Z AUTO 22017G23KT 6SM -SN BKN049 OVC070 M03/M07 A2991 810 74 -1200 230/17G23 RMK AO2 SNB17 P0000 T10331072
04847KADG ADG20160128003514201/28/16 00:35:31  5-MIN KADG 280535Z AUTO 23018KT 9SM BKN049 BKN070 OVC085 M03/M07 A2991 810 71 -1100 240/18 RMK AO2 SNB17E33 P0000 T10281072
04847KADG ADG20160128004014901/28/16 00:40:31  5-MIN KADG 280540Z AUTO 23017G22KT 10SM SCT047 BKN070 OVC100 M03/M07 A2991 810 71 -1100 230/17G22 RMK AO2 SNB17E33 P0000 T10281072
04847KADG ADG20160128004514901/28/16 00:45:31  5-MIN KADG 280545Z AUTO 23016G25KT 10SM SCT050 BKN080 OVC100 M03/M07 A2991 810 71 -1100 240/16G25 RMK AO2 SNB17E33 P0000 T10281072
04847KADG ADG20160128005018001/28/16 00:50:31  5-MIN KADG 280550Z AUTO 23016G25KT 10SM FEW060 SCT080 OVC100 M03/M07 A2990 820 71 -1100 230/16G25 RMK AO2 SNB17E33 SLP137 P0000 60000 T10281072 11028 21039 56016
04847KADG ADG20160128005512701/28/16 00:55:31  5-MIN KADG 280555Z AUTO 23016G22KT 10SM FEW065 OVC100 M03/M07 A2990 820 71 -1100 240/16G22 RMK AO2 T10281072
04847KADG ADG20160128010012701/28/16 01:00:31  5-MIN KADG 280600Z AUTO 23013G22KT 10SM FEW080 OVC100 M03/M07 A2990 820 71 -1100 240/13G22 RMK AO2 T10281072
04847KADG ADG20160128010511401/28/16 01:05:31  5-MIN KADG 280605Z AUTO 23014KT 10SM OVC100 M03/M07 A2989 820 71 -1100 240/14 RMK AO2 T10281072
04847KADG ADG20160128011011401/28/16 01:10:31  5-MIN KADG 280610Z AUTO 23016KT 10SM OVC100 M03/M07 A2989 830 71 -1100 240/16 RMK AO2 T10281072
04847KADG ADG20160128011511401/28/16 01:15:31  5-MIN KADG 280615Z AUTO 24013KT 10SM OVC100 M03/M07 A2989 830 71 -1100 240/13 RMK AO2 T10281072
04847KADG ADG20160128012012001/28/16 01:20:31  5-MIN KADG 280620Z AUTO 23015G24KT 10SM OVC100 M03/M07 A2988 830 71 -1100 240/15G24 RMK AO2 T10281072
04847KADG ADG20160128012512001/28/16 01:25:31  5-MIN KADG 280625Z AUTO 23015G24KT 10SM OVC100 M03/M07 A2988 840 71 -1100 240/15G24 RMK AO2 T10281072
04847KADG ADG20160128013011401/28/16 01:30:31  5-MIN KADG 280630Z AUTO 23017KT 10SM OVC100 M03/M07 A2987 840 71 -1000 240/17 RMK AO2 T10281072
04847KADG ADG20160128013512101/28/16 01:35:31  5-MIN KADG 280635Z AUTO 23014KT 10SM OVC100 M03/M07 A2987 850 71 -1000 230/14 RMK AO2 PRESFR T10281072
04847KADG ADG20160128014012101/28/16 01:40:31  5-MIN KADG 280640Z AUTO 22017KT 10SM OVC100 M03/M07 A2986 860 71 -1000 230/17 RMK AO2 PRESFR T10281072
04847KADG ADG20160128014511401/28/16 01:45:31  5-MIN KADG 280645Z AUTO 23017KT 10SM OVC100 M03/M07 A2985 860 71 -1000 230/17 RMK AO2 T10281072
04847KADG ADG20160128015012801/28/16 01:50:31  5-MIN KADG 280650Z AUTO 23015KT 10SM FEW045 OVC100 M03/M07 A2985 870 71 -1000 230/15 RMK AO2 SLP119 T10281072
04847KADG ADG20160128015511401/28/16 01:55:31  5-MIN KADG 280655Z AUTO 23016KT 10SM OVC100 M03/M07 A2984 870 71 -1000 230/16 RMK AO2 T10281072
04847KADG ADG20160128020011401/28/16 02:00:31  5-MIN KADG 280700Z AUTO 22014KT 10SM OVC100 M03/M07 A2984 880 71 -1000 230/14 RMK AO2 T10281072
04847KADG ADG20160128020511401/28/16 02:05:31  5-MIN KADG 280705Z AUTO 23016KT 10SM OVC100 M03/M07 A2984 880 71 -1000 230/16 RMK AO2 T10281072
04847KADG ADG20160128021011401/28/16 02:10:31  5-MIN KADG 280710Z AUTO 23016KT 10SM OVC095 M03/M07 A2983 880 71 -1000 230/16 RMK AO2 T10281072
04847KADG ADG20160128021512001/28/16 02:15:31  5-MIN KADG 280715Z AUTO 23016G23KT 10SM OVC090 M03/M07 A2983 880 71 -1000 240/16G23 RMK AO2 T10281072
04847KADG ADG20160128022011401/28/16 02:20:31  5-MIN KADG 280720Z AUTO 23015KT 10SM OVC090 M03/M07 A2983 890 71 -1000 230/15 RMK AO2 T10281072
04847KADG ADG20160128022511401/28/16 02:25:31  5-MIN KADG 280725Z AUTO 23014KT 10SM OVC090 M03/M07 A2982 890 71 -1000 240/14 RMK AO2 T10281072
04847KADG ADG20160128023012701/28/16 02:30:31  5-MIN KADG 280730Z AUTO 23017G23KT 10SM FEW070 OVC090 M03/M07 A2982 890 71 -1000 240/17G23 RMK AO2 T10281072
04847KADG ADG20160128023512701/28/16 02:35:31  5-MIN KADG 280735Z AUTO 23016G23KT 10SM SCT065 OVC085 M03/M07 A2982 890 71 -1000 240/16G23 RMK AO2 T10281072
04847KADG ADG20160128024012701/28/16 02:40:31  5-MIN KADG 280740Z AUTO 23014G23KT 10SM BKN070 OVC085 M03/M07 A2981 900 71 -1000 230/14G23 RMK AO2 T10281072
04847KADG ADG20160128024512701/28/16 02:45:31  5-MIN KADG 280745Z AUTO 23017G23KT 10SM BKN070 OVC085 M03/M07 A2981 900 71 -1000 230/17G23 RMK AO2 T10281072
04847KADG ADG20160128025012801/28/16 02:50:31  5-MIN KADG 280750Z AUTO 23017KT 10SM BKN065 OVC085 M03/M07 A2981 910 71 -1000 230/17 RMK AO2 SLP105 T10281072
04847KADG ADG20160128025511401/28/16 02:55:31  5-MIN KADG 280755Z AUTO 23017KT 10SM OVC065 M03/M07 A2980 910 71 -1000 230/17 RMK AO2 T10281072
04847KADG ADG20160128030011401/28/16 03:00:31  5-MIN KADG 280800Z AUTO 23016KT 10SM OVC065 M03/M07 A2980 910 71 -1000 240/16 RMK AO2 T10281072
04847KADG ADG20160128030512101/28/16 03:05:31  5-MIN KADG 280805Z AUTO 23014KT 10SM BKN065 OVC085 M03/M07 A2980 910 71 -1000 230/14 RMK AO2 T10281072
04847KADG ADG20160128031012101/28/16 03:10:31  5-MIN KADG 280810Z AUTO 23015KT 10SM BKN065 OVC080 M03/M07 A2979 920 71 -1000 240/15 RMK AO2 T10281072
04847KADG ADG20160128031512001/28/16 03:15:31  5-MIN KADG 280815Z AUTO 23016KT 10SM SCT065 OVC080 M02/M07 A2979 920 69 -900 240/16 RMK AO2 T10221072
04847KADG ADG20160128032012001/28/16 03:20:31  5-MIN KADG 280820Z AUTO 23014KT 10SM FEW065 OVC080 M03/M07 A2979 920 75 -900 240/14 RMK AO2 T10281067
04847KADG ADG20160128032512001/28/16 03:25:31  5-MIN KADG 280825Z AUTO 23016KT 10SM FEW060 OVC080 M02/M07 A2978 930 69 -900 240/16 RMK AO2 T10221072
04847KADG ADG20160128033011301/28/16 03:30:31  5-MIN KADG 280830Z AUTO 23015KT 10SM OVC080 M02/M07 A2978 930 69 -900 230/15 RMK AO2 T10221072
04847KADG ADG20160128033511301/28/16 03:35:31  5-MIN KADG 280835Z AUTO 23015KT 10SM BKN080 M03/M07 A2978 930 75 -900 240/15 RMK AO2 T10281067
04847KADG ADG20160128034011301/28/16 03:40:31  5-MIN KADG 280840Z AUTO 23014KT 10SM BKN080 M03/M07 A2977 940 75 -900 240/14 RMK AO2 T10281067
04847KADG ADG20160128034511301/28/16 03:45:31  5-MIN KADG 280845Z AUTO 23014KT 10SM BKN080 M02/M07 A2977 940 72 -900 240/14 RMK AO2 T10221067
04847KADG ADG20160128035012601/28/16 03:50:31  5-MIN KADG 280850Z AUTO 23013KT 10SM BKN080 M02/M07 A2977 940 72 -800 240/13 RMK AO2 SLP091 T10221067 57036
04847KADG ADG20160128035511901/28/16 03:55:31  5-MIN KADG 280855Z AUTO 23012G21KT 10SM BKN080 M02/M07 A2976 950 72 -800 230/12G21 RMK AO2 T10221067
04847KADG ADG20160128040011901/28/16 04:00:31  5-MIN KADG 280900Z AUTO 23016G21KT 10SM BKN080 M02/M07 A2976 950 72 -800 240/16G21 RMK AO2 T10221067
04847KADG ADG20160128040511901/28/16 04:05:31  5-MIN KADG 280905Z AUTO 23013G21KT 10SM BKN080 M02/M07 A2975 950 72 -800 230/13G21 RMK AO2 T10221067
04847KADG ADG20160128041011301/28/16 04:10:31  5-MIN KADG 280910Z AUTO 23015KT 10SM BKN075 M02/M07 A2975 960 72 -800 230/15 RMK AO2 T10221067
04847KADG ADG20160128041511301/28/16 04:15:31  5-MIN KADG 280915Z AUTO 23012KT 10SM SCT080 M02/M07 A2975 960 72 -800 230/12 RMK AO2 T10221067
04847KADG ADG20160128042011301/28/16 04:20:31  5-MIN KADG 280920Z AUTO 23014KT 10SM SCT080 M02/M07 A2974 960 72 -800 240/14 RMK AO2 T10221067
04847KADG ADG20160128042511301/28/16 04:25:31  5-MIN KADG 280925Z AUTO 23016KT 10SM BKN080 M02/M07 A2974 970 72 -800 230/16 RMK AO2 T10221067
04847KADG ADG20160128043011301/28/16 04:30:31  5-MIN KADG 280930Z AUTO 23014KT 10SM BKN080 M02/M07 A2974 970 72 -800 240/14 RMK AO2 T10221067
04847KADG ADG20160128043511301/28/16 04:35:31  5-MIN KADG 280935Z AUTO 23014KT 10SM SCT080 M02/M07 A2974 970 72 -800 240/14 RMK AO2 T10221067
04847KADG ADG20160128044011301/28/16 04:40:31  5-MIN KADG 280940Z AUTO 23013KT 10SM SCT080 M02/M07 A2973 970 72 -800 240/13 RMK AO2 T10221067
04847KADG ADG20160128044512001/28/16 04:45:31  5-MIN KADG 280945Z AUTO 23012KT 10SM FEW060 SCT080 M02/M07 A2973 980 72 -800 240/12 RMK AO2 T10221067
04847KADG ADG20160128045012701/28/16 04:50:31  5-MIN KADG 280950Z AUTO 23013KT 10SM FEW060 SCT080 M02/M07 A2973 980 72 -800 240/13 RMK AO2 SLP079 T10221067
04847KADG ADG20160128045511301/28/16 04:55:31  5-MIN KADG 280955Z AUTO 23014KT 10SM FEW060 M02/M07 A2973 980 72 -800 240/14 RMK AO2 T10221067
04847KADG ADG20160128050011301/28/16 05:00:31  5-MIN KADG 281000Z AUTO 23013KT 10SM FEW060 M02/M07 A2973 980 72 -800 240/13 RMK AO2 T10221067
04847KADG ADG20160128050512001/28/16 05:05:31  5-MIN KADG 281005Z AUTO 23011KT 10SM SCT040 SCT060 M02/M07 A2972 980 72 -800 240/11 RMK AO2 T10221067
04847KADG ADG20160128051012001/28/16 05:10:31  5-MIN KADG 281010Z AUTO 24014KT 10SM BKN040 BKN060 M02/M06 A2972 980 75 -800 240/14 RMK AO2 T10221061
04847KADG ADG20160128051511301/28/16 05:15:31  5-MIN KADG 281015Z AUTO 23014KT 10SM BKN038 M02/M06 A2972 980 75 -800 230/14 RMK AO2 T10221061
04847KADG ADG20160128052011301/28/16 05:20:31  5-MIN KADG 281020Z AUTO 23013KT 10SM BKN038 M02/M06 A2972 990 75 -800 240/13 RMK AO2 T10221061
04847KADG ADG20160128052511301/28/16 05:25:31  5-MIN KADG 281025Z AUTO 23016KT 10SM OVC036 M02/M06 A2972 990 75 -800 240/16 RMK AO2 T10221061
04847KADG ADG20160128053011301/28/16 05:30:31  5-MIN KADG 281030Z AUTO 24014KT 10SM OVC036 M02/M06 A2972 990 75 -800 240/14 RMK AO2 T10221061
04847KADG ADG20160128053511301/28/16 05:35:31  5-MIN KADG 281035Z AUTO 23013KT 10SM BKN036 M02/M06 A2972 990 75 -800 240/13 RMK AO2 T10221061
04847KADG ADG20160128054011901/28/16 05:40:31  5-MIN KADG 281040Z AUTO 24011G20KT 10SM BKN036 M02/M06 A2971 990 75 -800 240/11G20 RMK AO2 T10221061
04847KADG ADG20160128054512001/28/16 05:45:31  5-MIN KADG 281045Z AUTO 23014G20KT 10SM SCT036 M02/M06 A2971 1000 75 -800 240/14G20 RMK AO2 T10221061
04847KADG ADG20160128055012701/28/16 05:50:31  5-MIN KADG 281050Z AUTO 24014G20KT 10SM SCT036 M02/M06 A2971 1000 75 -800 240/14G20 RMK AO2 SLP071 T10221061
04847KADG ADG20160128055512001/28/16 05:55:31  5-MIN KADG 281055Z AUTO 24010G17KT 10SM FEW036 M02/M06 A2971 1000 75 -800 250/10G17 RMK AO2 T10221061
04847KADG ADG20160128060011101/28/16 06:00:31  5-MIN KADG 281100Z AUTO 24011KT 10SM CLR M02/M06 A2971 1000 75 -800 240/11 RMK AO2 T10221061
04847KADG ADG20160128060511101/28/16 06:05:31  5-MIN KADG 281105Z AUTO 24012KT 10SM CLR M02/M06 A2971 1000 75 -800 240/12 RMK AO2 T10221061
04847KADG ADG20160128061011401/28/16 06:10:31  5-MIN KADG 281110Z AUTO 25010KT 10SM SCT036 M02/M06 A2971 1000 72 -700 250/10 RMK AO2 T10171061
04847KADG ADG20160128061511401/28/16 06:15:31  5-MIN KADG 281115Z AUTO 24011KT 10SM BKN036 M02/M06 A2971 1000 72 -700 250/11 RMK AO2 T10171061
04847KADG ADG20160128062011401/28/16 06:20:31  5-MIN KADG 281120Z AUTO 24012KT 10SM BKN035 M02/M06 A2971 1000 72 -700 240/12 RMK AO2 T10171061
04847KADG ADG20160128062512001/28/16 06:25:31  5-MIN KADG 281125Z AUTO 24013G20KT 10SM BKN035 M02/M06 A2971 1000 72 -700 240/13G20 RMK AO2 T10171061
04847KADG ADG20160128063012001/28/16 06:30:31  5-MIN KADG 281130Z AUTO 23012G20KT 10SM OVC035 M02/M06 A2970 1000 72 -700 240/12G20 RMK AO2 T10171061
04847KADG ADG20160128063511401/28/16 06:35:31  5-MIN KADG 281135Z AUTO 24012KT 10SM OVC035 M02/M06 A2970 1000 72 -700 240/12 RMK AO2 T10171061
04847KADG ADG20160128064011401/28/16 06:40:31  5-MIN KADG 281140Z AUTO 24012KT 10SM BKN035 M02/M06 A2970 1000 75 -800 240/12 RMK AO2 T10221061
04847KADG ADG20160128064512001/28/16 06:45:31  5-MIN KADG 281145Z AUTO 23013G17KT 10SM BKN035 M02/M06 A2970 1010 75 -800 240/13G17 RMK AO2 T10221061
04847KADG ADG20160128065015201/28/16 06:50:31  5-MIN KADG 281150Z AUTO 24011G17KT 10SM FEW029 BKN035 M02/M06 A2970 1010 75 -800 240/11G17 RMK AO2 SLP068 T10221061 11017 21028 56046
04847KADG ADG20160128065512101/28/16 06:55:31  5-MIN KADG 281155Z AUTO 23013KT 10SM SCT029 BKN035 M02/M06 A2970 1010 75 -800 240/13 RMK AO2 T10221061
04847KADG ADG20160128070012101/28/16 07:00:31  5-MIN KADG 281200Z AUTO 24011KT 10SM BKN029 BKN035 M02/M06 A2970 1010 75 -800 240/11 RMK AO2 T10221061
04847KADG ADG20160128070511401/28/16 07:05:31  5-MIN KADG 281205Z AUTO 24013KT 10SM BKN029 M02/M06 A2969 1010 75 -800 240/13 RMK AO2 T10221061
04847KADG ADG20160128071011401/28/16 07:10:31  5-MIN KADG 281210Z AUTO 24011KT 10SM BKN028 M02/M06 A2969 1010 75 -800 240/11 RMK AO2 T10221061
04847KADG ADG20160128071511401/28/16 07:15:31  5-MIN KADG 281215Z AUTO 24012KT 10SM OVC028 M02/M06 A2969 1020 75 -800 240/12 RMK AO2 T10221061
04847KADG ADG20160128072011401/28/16 07:20:31  5-MIN KADG 281220Z AUTO 23013KT 10SM OVC027 M02/M06 A2969 1020 75 -800 240/13 RMK AO2 T10221061
04847KADG ADG20160128072511401/28/16 07:25:31  5-MIN KADG 281225Z AUTO 23012KT 10SM BKN027 M02/M06 A2968 1020 75 -800 240/12 RMK AO2 T10221061
04847KADG ADG20160128073012001/28/16 07:30:31  5-MIN KADG 281230Z AUTO 23013G21KT 10SM BKN027 M02/M06 A2968 1020 75 -800 240/13G21 RMK AO2 T10221061
04847KADG ADG20160128073512001/28/16 07:35:31  5-MIN KADG 281235Z AUTO 23015G21KT 10SM SCT026 M02/M06 A2968 1020 75 -700 230/15G21 RMK AO2 T10221061
04847KADG ADG20160128074011401/28/16 07:40:31  5-MIN KADG 281240Z AUTO 23012KT 10SM SCT026 M03/M06 A2968 1030 78 -800 240/12 RMK AO2 T10281061
04847KADG ADG20160128074511401/28/16 07:45:31  5-MIN KADG 281245Z AUTO 23012KT 10SM FEW026 M03/M06 A2967 1030 78 -800 240/12 RMK AO2 T10281061
04847KADG ADG20160128075012101/28/16 07:50:31  5-MIN KADG 281250Z AUTO 23014KT 10SM FEW026 M03/M06 A2967 1030 78 -800 230/14 RMK AO2 SLP058 T10281061
04847KADG ADG20160128075511101/28/16 07:55:31  5-MIN KADG 281255Z AUTO 23015KT 10SM CLR M02/M06 A2967 1040 75 -700 230/15 RMK AO2 T10221061
04847KADG ADG20160128080011101/28/16 08:00:31  5-MIN KADG 281300Z AUTO 23014KT 10SM CLR M02/M06 A2966 1040 78 -700 240/14 RMK AO2 T10221056
04847KADG ADG20160128080511101/28/16 08:05:31  5-MIN KADG 281305Z AUTO 23012KT 10SM CLR M02/M06 A2966 1050 78 -700 240/12 RMK AO2 T10221056
04847KADG ADG20160128081011101/28/16 08:10:31  5-MIN KADG 281310Z AUTO 23013KT 10SM CLR M03/M06 A2965 1050 81 -800 240/13 RMK AO2 T10281056
04847KADG ADG20160128081511101/28/16 08:15:31  5-MIN KADG 281315Z AUTO 23012KT 10SM CLR M02/M06 A2965 1050 78 -700 240/12 RMK AO2 T10221056
04847KADG ADG20160128082011101/28/16 08:20:31  5-MIN KADG 281320Z AUTO 23014KT 10SM CLR M02/M06 A2965 1050 78 -700 240/14 RMK AO2 T10221056
04847KADG ADG20160128082511101/28/16 08:25:31  5-MIN KADG 281325Z AUTO 23013KT 10SM CLR M02/M06 A2965 1050 78 -700 240/13 RMK AO2 T10221056
04847KADG ADG20160128083011101/28/16 08:30:31  5-MIN KADG 281330Z AUTO 23013KT 10SM CLR M02/M06 A2964 1060 78 -700 240/13 RMK AO2 T10221056
04847KADG ADG20160128083511101/28/16 08:35:31  5-MIN KADG 281335Z AUTO 23013KT 10SM CLR M02/M06 A2964 1060 78 -700 240/13 RMK AO2 T10221056
04847KADG ADG20160128084011101/28/16 08:40:31  5-MIN KADG 281340Z AUTO 23013KT 10SM CLR M02/M06 A2964 1060 78 -700 240/13 RMK AO2 T10221056
04847KADG ADG20160128084511101/28/16 08:45:31  5-MIN KADG 281345Z AUTO 23013KT 10SM CLR M02/M06 A2964 1060 75 -600 240/13 RMK AO2 T10171056
04847KADG ADG20160128085011801/28/16 08:50:31  5-MIN KADG 281350Z AUTO 23013KT 10SM CLR M02/M06 A2964 1060 75 -600 240/13 RMK AO2 SLP048 T10171056
04847KADG ADG20160128085511101/28/16 08:55:31  5-MIN KADG 281355Z AUTO 24012KT 10SM CLR M02/M06 A2964 1060 75 -600 250/12 RMK AO2 T10171056
04847KADG ADG20160128090011101/28/16 09:00:31  5-MIN KADG 281400Z AUTO 24011KT 10SM CLR M02/M05 A2964 1060 78 -600 240/11 RMK AO2 T10171050
04847KADG ADG20160128090511701/28/16 09:05:31  5-MIN KADG 281405Z AUTO 24013G18KT 10SM CLR M01/M05 A2964 1060 75 -600 240/13G18 RMK AO2 T10111050
04847KADG ADG20160128091011101/28/16 09:10:31  5-MIN KADG 281410Z AUTO 24013KT 10SM CLR M01/M05 A2963 1070 75 -600 240/13 RMK AO2 T10111050
04847KADG ADG20160128091511101/28/16 09:15:31  5-MIN KADG 281415Z AUTO 24014KT 10SM CLR M01/M05 A2963 1070 75 -600 240/14 RMK AO2 T10111050
04847KADG ADG20160128092011701/28/16 09:20:31  5-MIN KADG 281420Z AUTO 24013G18KT 10SM CLR M01/M05 A2963 1070 75 -600 250/13G18 RMK AO2 T10111050
04847KADG ADG20160128092511101/28/16 09:25:31  5-MIN KADG 281425Z AUTO 24012KT 10SM CLR M01/M05 A2963 1070 72 -500 250/12 RMK AO2 T10061050
04847KADG ADG20160128093011101/28/16 09:30:31  5-MIN KADG 281430Z AUTO 24011KT 10SM CLR M01/M05 A2963 1070 72 -500 250/11 RMK AO2 T10061050
04847KADG ADG20160128093511101/28/16 09:35:31  5-MIN KADG 281435Z AUTO 24011KT 10SM CLR M01/M04 A2963 1070 75 -500 250/11 RMK AO2 T10061044
04847KADG ADG20160128094011001/28/16 09:40:31  5-MIN KADG 281440Z AUTO 24011KT 10SM CLR 00/M04 A2963 1070 72 -400 250/11 RMK AO2 T00001044
04847KADG ADG20160128094511601/28/16 09:45:31  5-MIN KADG 281445Z AUTO 24013G20KT 10SM CLR 00/M04 A2963 1070 72 -400 250/13G20 RMK AO2 T00001044
04847KADG ADG20160128095012901/28/16 09:50:31  5-MIN KADG 281450Z AUTO 24014G20KT 10SM CLR 00/M04 A2962 1080 72 -400 250/14G20 RMK AO2 SLP043 T00001044 56022
04847KADG ADG20160128095511601/28/16 09:55:31  5-MIN KADG 281455Z AUTO 25013G19KT 10SM CLR 00/M04 A2962 1080 72 -400 250/13G19 RMK AO2 T00001044
04847KADG ADG20160128100011601/28/16 10:00:31  5-MIN KADG 281500Z AUTO 25009G19KT 10SM CLR 01/M04 A2962 1080 69 -300 250/09G19 RMK AO2 T00061044
04847KADG ADG20160128100511601/28/16 10:05:31  5-MIN KADG 281505Z AUTO 26013G21KT 10SM CLR 01/M04 A2962 1080 69 -300 260/13G21 RMK AO2 T00061044
04847KADG ADG20160128101011901/28/16 10:10:31  5-MIN KADG 281510Z AUTO 24012G21KT 10SM FEW031 01/M04 A2962 1080 69 -300 250/12G21 RMK AO2 T00061044
04847KADG ADG20160128101511301/28/16 10:15:31  5-MIN KADG 281515Z AUTO 25013KT 10SM SCT031 01/M04 A2962 1080 66 -300 260/13 RMK AO2 T00111044
04847KADG ADG20160128102011901/28/16 10:20:31  5-MIN KADG 281520Z AUTO 25012G19KT 10SM BKN031 01/M04 A2962 1080 69 -300 260/12G19 RMK AO2 T00111039
04847KADG ADG20160128102511901/28/16 10:25:31  5-MIN KADG 281525Z AUTO 24013G19KT 10SM BKN030 01/M04 A2961 1090 69 -300 250/13G19 RMK AO2 T00111039
04847KADG ADG20160128103011301/28/16 10:30:31  5-MIN KADG 281530Z AUTO 24013KT 10SM BKN030 01/M04 A2961 1090 69 -200 250/13 RMK AO2 T00111039
04847KADG ADG20160128103511301/28/16 10:35:31  5-MIN KADG 281535Z AUTO 25013KT 10SM BKN030 01/M04 A2961 1090 69 -200 250/13 RMK AO2 T00111039
04847KADG ADG20160128104011901/28/16 10:40:31  5-MIN KADG 281540Z AUTO 24012G19KT 10SM SCT030 02/M04 A2961 1090 66 -200 250/12G19 RMK AO2 T00171039
04847KADG ADG20160128104511901/28/16 10:45:31  5-MIN KADG 281545Z AUTO 24011G19KT 10SM SCT030 02/M04 A2960 1090 66 -200 250/11G19 RMK AO2 T00171039
04847KADG ADG20160128105012601/28/16 10:50:31  5-MIN KADG 281550Z AUTO 23012G18KT 10SM FEW030 02/M04 A2960 1090 66 -200 240/12G18 RMK AO2 SLP035 T00171039
04847KADG ADG20160128105511901/28/16 10:55:31  5-MIN KADG 281555Z AUTO 24012G20KT 10SM FEW029 02/M03 A2960 1100 67 -100 250/12G20 RMK AO2 T00221033
04847KADG ADG20160128110011601/28/16 11:00:31  5-MIN KADG 281600Z AUTO 24013G21KT 10SM CLR 02/M03 A2960 1100 67 -100 250/13G21 RMK AO2 T00221033
04847KADG ADG20160128110511901/28/16 11:05:31  5-MIN KADG 281605Z AUTO 24011G21KT 10SM FEW023 02/M03 A2960 1100 67 -100 250/11G21 RMK AO2 T00221033
04847KADG ADG20160128111011601/28/16 11:10:31  5-MIN KADG 281610Z AUTO 25012G21KT 10SM FEW023 03/M03 A2960 1100 64 0 250/12G21 RMK AO2 T00281033
04847KADG ADG20160128111511601/28/16 11:15:31  5-MIN KADG 281615Z AUTO 26013G21KT 10SM FEW023 03/M03 A2960 1100 64 0 260/13G21 RMK AO2 T00281033
04847KADG ADG20160128112011601/28/16 11:20:31  5-MIN KADG 281620Z AUTO 26012G21KT 10SM SCT023 03/M03 A2960 1100 67 0 270/12G21 RMK AO2 T00281028
04847KADG ADG20160128112512301/28/16 11:25:31  5-MIN KADG 281625Z AUTO 26014G22KT 10SM SCT024 BKN036 03/M03 A2960 1100 67 0 260/14G22 RMK AO2 T00281028
04847KADG ADG20160128113012301/28/16 11:30:31  5-MIN KADG 281630Z AUTO 26015G22KT 10SM SCT024 BKN036 03/M03 A2960 1100 67 0 270/15G22 RMK AO2 T00281028
04847KADG ADG20160128113512601/28/16 11:35:31  5-MIN KADG 281635Z AUTO 26014G21KT 10SM SCT024 BKN034 02/M03 A2959 1100 67 -100 270/14G21 RMK AO2 T00221033
04847KADG ADG20160128114012301/28/16 11:40:31  5-MIN KADG 281640Z AUTO 26011G20KT 10SM SCT024 BKN034 03/M03 A2959 1100 67 0 260/11G20 RMK AO2 T00281028
04847KADG ADG20160128114512301/28/16 11:45:31  5-MIN KADG 281645Z AUTO 25012G19KT 10SM SCT024 OVC033 03/M03 A2959 1110 67 0 260/12G19 RMK AO2 T00281028
04847KADG ADG20160128115013501/28/16 11:50:31  5-MIN KADG 281650Z AUTO 25010G19KT 10SM SCT024 OVC033 03/M03 A2959 1110 67 0 260/10G19 RMK AO2 SLP030 T00281028 TSNO
04847KADG ADG20160128115512801/28/16 11:55:31  5-MIN KADG 281655Z AUTO 26012G19KT 10SM BKN024 OVC033 03/M03 A2959 1110 67 0 260/12G19 RMK AO2 T00281028 TSNO
04847KADG ADG20160128120012801/28/16 12:00:31  5-MIN KADG 281700Z AUTO 24012G19KT 10SM BKN025 OVC035 03/M03 A2959 1110 67 0 250/12G19 RMK AO2 T00281028 TSNO
04847KADG ADG20160128120512301/28/16 12:05:31  5-MIN KADG 281705Z AUTO 25013G18KT 10SM BKN025 OVC032 03/M03 A2959 1110 67 0 260/13G18 RMK AO2 T00281028
04847KADG ADG20160128121012301/28/16 12:10:31  5-MIN KADG 281710Z AUTO 25011G18KT 10SM BKN025 OVC034 03/M03 A2958 1110 67 0 250/11G18 RMK AO2 T00281028
04847KADG ADG20160128121511601/28/16 12:15:31  5-MIN KADG 281715Z AUTO 25010G19KT 10SM OVC025 03/M03 A2958 1110 67 0 260/10G19 RMK AO2 T00281028
04847KADG ADG20160128122011601/28/16 12:20:31  5-MIN KADG 281720Z AUTO 26014G19KT 10SM OVC025 03/M03 A2958 1120 67 0 260/14G19 RMK AO2 T00281028
04847KADG ADG20160128122511601/28/16 12:25:31  5-MIN KADG 281725Z AUTO 25013G20KT 10SM OVC025 03/M03 A2958 1120 67 0 260/13G20 RMK AO2 T00281028
04847KADG ADG20160128123011601/28/16 12:30:31  5-MIN KADG 281730Z AUTO 25011G20KT 10SM OVC025 03/M02 A2958 1120 69 0 250/11G20 RMK AO2 T00281022
04847KADG ADG20160128123511601/28/16 12:35:31  5-MIN KADG 281735Z AUTO 25012G19KT 10SM OVC024 03/M02 A2957 1120 69 0 260/12G19 RMK AO2 T00281022
04847KADG ADG20160128124011601/28/16 12:40:31  5-MIN KADG 281740Z AUTO 26013G18KT 10SM OVC024 03/M02 A2957 1120 69 0 260/13G18 RMK AO2 T00281022
04847KADG ADG20160128124511001/28/16 12:45:31  5-MIN KADG 281745Z AUTO 24012KT 10SM OVC024 03/M02 A2957 1120 69 0 250/12 RMK AO2 T00281022
04847KADG ADG20160128125014101/28/16 12:50:31  5-MIN KADG 281750Z AUTO 25010G16KT 10SM OVC024 03/M02 A2957 1130 69 0 260/10G16 RMK AO2 SLP022 T00281022 10033 21028 56024
04847KADG ADG20160128125511601/28/16 12:55:31  5-MIN KADG 281755Z AUTO 25012G16KT 10SM OVC024 03/M02 A2957 1130 69 0 260/12G16 RMK AO2 T00281022
04847KADG ADG20160128130011001/28/16 13:00:31  5-MIN KADG 281800Z AUTO 26012KT 10SM OVC024 03/M02 A2957 1130 69 0 270/12 RMK AO2 T00281022
04847KADG ADG20160128130511601/28/16 13:05:31  5-MIN KADG 281805Z AUTO 26012G19KT 10SM OVC024 03/M02 A2957 1130 69 0 270/12G19 RMK AO2 T00281022
04847KADG ADG20160128131011601/28/16 13:10:31  5-MIN KADG 281810Z AUTO 26013G19KT 10SM OVC024 03/M02 A2956 1130 69 0 270/13G19 RMK AO2 T00281022
04847KADG ADG20160128131511601/28/16 13:15:31  5-MIN KADG 281815Z AUTO 25012G19KT 10SM OVC024 03/M02 A2956 1130 69 0 250/12G19 RMK AO2 T00281022
04847KADG ADG20160128132011601/28/16 13:20:31  5-MIN KADG 281820Z AUTO 25013G19KT 10SM OVC024 03/M02 A2956 1130 69 0 260/13G19 RMK AO2 T00281022
04847KADG ADG20160128132511601/28/16 13:25:31  5-MIN KADG 281825Z AUTO 26008G19KT 10SM OVC024 03/M02 A2956 1130 69 0 260/08G19 RMK AO2 T00281022
04847KADG ADG20160128133011001/28/16 13:30:31  5-MIN KADG 281830Z AUTO 26010KT 10SM OVC024 03/M02 A2956 1140 67 0 270/10 RMK AO2 T00331022
04847KADG ADG20160128133511601/28/16 13:35:31  5-MIN KADG 281835Z AUTO 27009G17KT 10SM OVC024 03/M02 A2956 1140 67 0 270/09G17 RMK AO2 T00331022
04847KADG ADG20160128134011601/28/16 13:40:31  5-MIN KADG 281840Z AUTO 27010G17KT 10SM OVC024 03/M02 A2956 1140 67 0 270/10G17 RMK AO2 T00331022
04847KADG ADG20160128134511601/28/16 13:45:31  5-MIN KADG 281845Z AUTO 27012G16KT 10SM OVC024 03/M02 A2956 1140 67 0 280/12G16 RMK AO2 T00331022
04847KADG ADG20160128135012301/28/16 13:50:31  5-MIN KADG 281850Z AUTO 27011G18KT 10SM OVC023 03/M02 A2956 1130 67 0 280/11G18 RMK AO2 SLP019 T00331022
04847KADG ADG20160128135511601/28/16 13:55:31  5-MIN KADG 281855Z AUTO 27013G18KT 10SM OVC023 03/M02 A2956 1140 69 0 270/13G18 RMK AO2 T00281022
04847KADG ADG20160128140011601/28/16 14:00:31  5-MIN KADG 281900Z AUTO 27013G19KT 10SM OVC023 03/M02 A2956 1130 69 0 280/13G19 RMK AO2 T00281022
04847KADG ADG20160128140511601/28/16 14:05:31  5-MIN KADG 281905Z AUTO 27010G19KT 10SM OVC023 03/M02 A2956 1130 69 0 280/10G19 RMK AO2 T00281022
04847KADG ADG20160128141011601/28/16 14:10:31  5-MIN KADG 281910Z AUTO 28012G20KT 10SM OVC023 03/M02 A2956 1130 69 0 280/12G20 RMK AO2 T00281022
04847KADG ADG20160128141511601/28/16 14:15:31  5-MIN KADG 281915Z AUTO 28011G20KT 10SM OVC023 03/M02 A2956 1130 69 0 280/11G20 RMK AO2 T00281022
04847KADG ADG20160128142011001/28/16 14:20:31  5-MIN KADG 281920Z AUTO 28011KT 10SM OVC023 03/M02 A2956 1130 72 0 280/11 RMK AO2 T00281017
04847KADG ADG20160128142511601/28/16 14:25:31  5-MIN KADG 281925Z AUTO 28014G21KT 10SM OVC023 03/M02 A2956 1130 72 0 280/14G21 RMK AO2 T00281017
04847KADG ADG20160128143011601/28/16 14:30:31  5-MIN KADG 281930Z AUTO 28011G21KT 10SM OVC022 03/M02 A2957 1130 72 0 290/11G21 RMK AO2 T00281017
04847KADG ADG20160128143511001/28/16 14:35:31  5-MIN KADG 281935Z AUTO 28013KT 10SM OVC020 03/M02 A2957 1130 72 0 280/13 RMK AO2 T00281017
04847KADG ADG20160128144011601/28/16 14:40:31  5-MIN KADG 281940Z AUTO 28011G18KT 10SM OVC020 03/M02 A2957 1130 72 0 280/11G18 RMK AO2 T00281017
04847KADG ADG20160128144511001/28/16 14:45:31  5-MIN KADG 281945Z AUTO 28011KT 10SM OVC020 03/M02 A2957 1120 72 0 280/11 RMK AO2 T00281017
04847KADG ADG20160128145012301/28/16 14:50:31  5-MIN KADG 281950Z AUTO 28014G19KT 10SM OVC020 03/M02 A2957 1130 72 0 280/14G19 RMK AO2 SLP023 T00281017
04847KADG ADG20160128145511901/28/16 14:55:31  5-MIN KADG 281955Z AUTO 28010G19KT 10SM OVC019 02/M02 A2957 1120 75 -100 290/10G19 RMK AO2 T00221017
04847KADG ADG20160128150011901/28/16 15:00:31  5-MIN KADG 282000Z AUTO 28010G18KT 10SM OVC019 02/M02 A2957 1120 75 -100 290/10G18 RMK AO2 T00221017
04847KADG ADG20160128150511901/28/16 15:05:31  5-MIN KADG 282005Z AUTO 28013G18KT 10SM OVC019 02/M02 A2957 1120 75 -100 290/13G18 RMK AO2 T00221017
04847KADG ADG20160128151011901/28/16 15:10:31  5-MIN KADG 282010Z AUTO 27013G20KT 10SM OVC018 02/M02 A2958 1120 75 -100 280/13G20 RMK AO2 T00221017
04847KADG ADG20160128151511901/28/16 15:15:31  5-MIN KADG 282015Z AUTO 27009G20KT 10SM OVC018 02/M02 A2958 1120 75 -100 280/09G20 RMK AO2 T00221017
04847KADG ADG20160128152011301/28/16 15:20:31  5-MIN KADG 282020Z AUTO 28009KT 10SM OVC018 02/M02 A2958 1120 75 -100 280/09 RMK AO2 T00221017
04847KADG ADG20160128152512701/28/16 15:25:31  5-MIN KADG 282025Z AUTO 28011KT 8SM UP OVC018 02/M02 A2958 1120 75 -100 290/11 RMK AO2 UPB21 P0000 T00221017
04847KADG ADG20160128153012701/28/16 15:30:31  5-MIN KADG 282030Z AUTO 28012KT 8SM UP OVC018 02/M02 A2958 1120 75 -100 280/12 RMK AO2 UPB21 P0000 T00221017
04847KADG ADG20160128153513301/28/16 15:35:31  5-MIN KADG 282035Z AUTO 27009G16KT 9SM OVC018 02/M02 A2958 1120 75 -100 280/09G16 RMK AO2 UPB21E35 P0000 T00221017
04847KADG ADG20160128154012701/28/16 15:40:31  5-MIN KADG 282040Z AUTO 27008KT 9SM OVC018 02/M02 A2958 1120 75 -100 280/08 RMK AO2 UPB21E35 P0000 T00221017
04847KADG ADG20160128154514201/28/16 15:45:31  5-MIN KADG 282045Z AUTO 27011KT 5SM -SN OVC018 02/M01 A2958 1120 78 -100 280/11 RMK AO2 UPB21E43SNB41E42B43 P0000 T00221011
04847KADG ADG20160128155016101/28/16 15:50:31  5-MIN KADG 282050Z AUTO 28011KT 5SM -SN OVC020 02/M01 A2958 1120 82 -100 280/11 RMK AO2 UPB21E43SNB41E42B43 SLP026 P0000 60000 T00171011 58018
04847KADG ADG20160128155512201/28/16 15:55:31  5-MIN KADG 282055Z AUTO 27010KT 5SM -SN OVC020 02/M01 A2958 1110 82 -100 280/10 RMK AO2 P0000 T00171011
04847KADG ADG20160128160013501/28/16 16:00:31  5-MIN KADG 282100Z AUTO 27009G16KT 6SM -SN BKN020 OVC024 02/M01 A2959 1110 82 -200 280/09G16 RMK AO2 P0000 T00171011
04847KADG ADG20160128160513801/28/16 16:05:31  5-MIN KADG 282105Z AUTO 27010KT 7SM BKN020 BKN026 OVC031 02/M01 A2959 1110 82 -200 280/10 RMK AO2 SNE04 P0000 T00171011
04847KADG ADG20160128161013101/28/16 16:10:31  5-MIN KADG 282110Z AUTO 28011KT 8SM SCT020 OVC028 02/M01 A2959 1110 82 -200 280/11 RMK AO2 SNE04 P0000 T00171011
04847KADG ADG20160128161513801/28/16 16:15:31  5-MIN KADG 282115Z AUTO 27009KT 7SM SCT020 BKN029 OVC034 02/M01 A2958 1110 85 -100 270/09 RMK AO2 SNE04 P0000 T00171006
04847KADG ADG20160128162013801/28/16 16:20:31  5-MIN KADG 282120Z AUTO 27008KT 7SM FEW020 SCT025 OVC032 02/M01 A2959 1110 85 -200 280/08 RMK AO2 SNE04 P0000 T00171006
04847KADG ADG20160128162513101/28/16 16:25:31  5-MIN KADG 282125Z AUTO 27008KT 8SM SCT029 OVC036 02/M01 A2959 1110 85 -200 280/08 RMK AO2 SNE04 P0000 T00171006
04847KADG ADG20160128163012401/28/16 16:30:31  5-MIN KADG 282130Z AUTO 26008KT 8SM OVC036 02/M01 A2959 1110 85 -200 270/08 RMK AO2 SNE04 P0000 T00171006
04847KADG ADG20160128163512401/28/16 16:35:31  5-MIN KADG 282135Z AUTO 27009KT 7SM OVC036 02/M01 A2959 1110 85 -200 280/09 RMK AO2 SNE04 P0000 T00171006
04847KADG ADG20160128164012401/28/16 16:40:31  5-MIN KADG 282140Z AUTO 26008KT 7SM OVC036 02/M01 A2959 1110 85 -200 270/08 RMK AO2 SNE04 P0000 T00171006
04847KADG ADG20160128164512401/28/16 16:45:31  5-MIN KADG 282145Z AUTO 26009KT 7SM OVC038 02/M01 A2959 1110 85 -200 270/09 RMK AO2 SNE04 P0000 T00171006
04847KADG ADG20160128165013101/28/16 16:50:31  5-MIN KADG 282150Z AUTO 27009KT 7SM OVC038 02/M01 A2959 1110 85 -200 280/09 RMK AO2 SNE04 SLP028 P0000 T00171006
04847KADG ADG20160128165511201/28/16 16:55:31  5-MIN KADG 282155Z AUTO 27008KT 7SM OVC040 02/M01 A2959 1110 85 -200 270/08 RMK AO2 T00171006
04847KADG ADG20160128170011901/28/16 17:00:31  5-MIN KADG 282200Z AUTO 26008KT 7SM FEW026 OVC040 02/M01 A2959 1100 85 -200 270/08 RMK AO2 T00171006
04847KADG ADG20160128170513401/28/16 17:05:31  5-MIN KADG 282205Z AUTO 27008KT 7SM UP FEW026 OVC040 02/M01 A2959 1100 85 -200 270/08 RMK AO2 UPB05 P0000 T00171006
04847KADG ADG20160128171013401/28/16 17:10:31  5-MIN KADG 282210Z AUTO 27008KT 7SM UP FEW028 OVC040 02/M01 A2959 1100 85 -200 270/08 RMK AO2 UPB05 P0000 T00171006
04847KADG ADG20160128171514101/28/16 17:15:31  5-MIN KADG 282215Z AUTO 27009KT 7SM FEW020 FEW028 OVC039 02/M01 A2960 1100 85 -200 270/09 RMK AO2 UPB05E14 P0000 T00171006
04847KADG ADG20160128172015301/28/16 17:20:31  5-MIN KADG 282220Z AUTO 27010KT 5SM -SN BR SCT020 SCT026 OVC039 02/M01 A2960 1100 85 -200 280/10 RMK AO2 UPB05E14SNB18 P0000 T00171006
04847KADG ADG20160128172514601/28/16 17:25:31  5-MIN KADG 282225Z AUTO 27010KT 4SM -SN BR BKN020 OVC036 02/M01 A2960 1100 85 -200 270/10 RMK AO2 UPB05E14SNB18 P0000 T00171006
04847KADG ADG20160128173015301/28/16 17:30:31  5-MIN KADG 282230Z AUTO 27008KT 5SM -SN BR FEW014 BKN020 OVC036 02/M01 A2960 1100 85 -200 280/08 RMK AO2 UPB05E14SNB18 P0000 T00171006
04847KADG ADG20160128173515201/28/16 17:35:31  5-MIN KADG 282235Z AUTO 27008KT 5SM BR BKN015 BKN020 OVC036 02/M01 A2960 1100 85 -200 280/08 RMK AO2 UPB05E14SNB18E35 P0000 T00171006
04847KADG ADG20160128174014601/28/16 17:40:31  5-MIN KADG 282240Z AUTO 28011KT 5SM -SN BR BKN017 OVC021 02/M01 A2960 1100 85 -200 280/11 RMK AO2 UPB05E14SNB18 P0000 T00171006
04847KADG ADG20160128174513901/28/16 17:45:31  5-MIN KADG 282245Z AUTO 27008KT 6SM -SN BR OVC017 01/M01 A2960 1100 89 -200 280/08 RMK AO2 UPB05E14SNB18 P0000 T00111006
04847KADG ADG20160128175014601/28/16 17:50:31  5-MIN KADG 282250Z AUTO 27009KT 6SM -SN BR OVC017 01/M01 A2961 1090 89 -200 280/09 RMK AO2 UPB05E14SNB18 SLP035 P0000 T00111006
04847KADG ADG20160128175512201/28/16 17:55:31  5-MIN KADG 282255Z AUTO 28009KT 6SM BR BKN017 OVC055 01/M01 A2961 1090 89 -200 280/09 RMK AO2 T00111006
04847KADG ADG20160128180011901/28/16 18:00:31  5-MIN KADG 282300Z AUTO 27009KT 7SM BKN017 OVC050 01/M01 A2961 1090 89 -200 270/09 RMK AO2 T00111006
04847KADG ADG20160128180512901/28/16 18:05:31  5-MIN KADG 282305Z AUTO 27010KT 6SM BR FEW013 SCT018 OVC050 01/M01 A2961 1090 89 -200 280/10 RMK AO2 T00111006
04847KADG ADG20160128181014501/28/16 18:10:31  5-MIN KADG 282310Z AUTO 27009KT 6SM -SN BR FEW010 BKN019 OVC050 01/M01 A2961 1090 89 -300 270/09 RMK AO2 SNB07 P0000 T00111006
04847KADG ADG20160128181514501/28/16 18:15:31  5-MIN KADG 282315Z AUTO 26009KT 6SM -SN BR BKN019 BKN041 OVC050 01/M01 A2961 1080 89 -300 270/09 RMK AO2 SNB07 P0000 T00111006
04847KADG ADG20160128182014401/28/16 18:20:31  5-MIN KADG 282320Z AUTO 27008KT 6SM BR SCT019 BKN024 OVC050 01/M01 A2962 1080 89 -300 280/08 RMK AO2 SNB07E17 P0000 T00111006
04847KADG ADG20160128182514101/28/16 18:25:31  5-MIN KADG 282325Z AUTO 27009KT 7SM BKN019 BKN030 OVC050 01/M01 A2962 1080 89 -300 280/09 RMK AO2 SNB07E17 P0000 T00111006
04847KADG ADG20160128183014101/28/16 18:30:31  5-MIN KADG 282330Z AUTO 27008KT 7SM FEW014 BKN019 OVC050 01/M01 A2962 1080 89 -300 280/08 RMK AO2 SNB07E17 P0000 T00111006
04847KADG ADG20160128183514101/28/16 18:35:31  5-MIN KADG 282335Z AUTO 28009KT 7SM FEW014 BKN019 OVC035 01/M01 A2962 1080 89 -300 280/09 RMK AO2 SNB07E17 P0000 T00111006
04847KADG ADG20160128184015101/28/16 18:40:31  5-MIN KADG 282340Z AUTO 28008KT 6SM -SN BR FEW016 BKN021 OVC037 01/M01 A2962 1080 89 -300 280/08 RMK AO2 SNB07E17B39 P0000 T00111006
04847KADG ADG20160128184514401/28/16 18:45:31  5-MIN KADG 282345Z AUTO 28008KT 6SM -SN BR BKN019 OVC037 01/M01 A2962 1080 89 -300 280/08 RMK AO2 SNB07E17B39 P0000 T00111006
04847KADG ADG20160128185018201/28/16 18:50:31  5-MIN KADG 282350Z AUTO 27008KT 6SM -SN BR BKN016 BKN021 OVC038 01/M01 A2962 1080 89 -300 280/08 RMK AO2 SNB07E17B39 SLP041 P0000 60000 T00111006 10033 20011 53004
04847KADG ADG20160128185512901/28/16 18:55:31  5-MIN KADG 282355Z AUTO 28007KT 6SM BR BKN016 BKN021 OVC038 01/M01 A2962 1080 89 -300 290/07 RMK AO2 T00111006
04847KADG ADG20160128190014701/28/16 19:00:31  5-MIN KADG 290000Z AUTO 28008KT 6SM -SN BR FEW012 BKN018 OVC039 01/M01 A2962 1070 89 -300 290/08 RMK AO2 SNB2359 P0000 T00111006
04847KADG ADG20160128190514701/28/16 19:05:31  5-MIN KADG 290005Z AUTO 28006KT 6SM -SN BR BKN016 BKN021 OVC039 01/M01 A2962 1070 89 -300 280/06 RMK AO2 SNB2359 P0000 T00111006
04847KADG ADG20160128191013201/28/16 19:10:31  5-MIN KADG 290010Z AUTO 28006KT 6SM BR OVC016 01/M01 A2963 1070 89 -300 280/06 RMK AO2 SNB2359E09 P0000 T00111006
04847KADG ADG20160128191513901/28/16 19:15:31  5-MIN KADG 290015Z AUTO 28007KT 6SM BR BKN014 OVC020 01/M01 A2963 1070 89 -300 290/07 RMK AO2 SNB2359E09 P0000 T00111006
04847KADG ADG20160128192013601/28/16 19:20:31  5-MIN KADG 290020Z AUTO 29006KT 7SM BKN014 OVC019 01/M01 A2963 1070 89 -300 290/06 RMK AO2 SNB2359E09 P0000 T00111006
04847KADG ADG20160128192514601/28/16 19:25:31  5-MIN KADG 290025Z AUTO 31008KT 4SM -SN BR BKN012 OVC019 01/M01 A2964 1060 89 -300 320/08 RMK AO2 SNB2359E09B23 P0000 T00111006
04847KADG ADG20160128193016401/28/16 19:30:31  5-MIN KADG 290030Z AUTO 34009G15KT 3SM -SN BR BKN009 OVC017 01/M01 A2964 1060 89 -300 340/09G15 RMK AO2 SNB2359E09B23 CIG 007V014 P0000 T00111006
04847KADG ADG20160128193515301/28/16 19:35:31  5-MIN KADG 290035Z AUTO 33008KT 5SM -SN BR FEW007 BKN011 OVC017 01/M01 A2964 1060 89 -300 340/08 RMK AO2 SNB2359E09B23 P0000 T00111006
04847KADG ADG20160128194016201/28/16 19:40:31  5-MIN KADG 290040Z AUTO 33008KT 7SM -SN BKN009 BKN014 OVC038 01/M01 A2964 1060 85 -300 340/08 RMK AO2 SNB2359E09B23 CIG 007V012 P0000 T00111011
04847KADG ADG20160128194514901/28/16 19:45:31  5-MIN KADG 290045Z AUTO 33009KT 9SM SCT009 BKN016 OVC047 01/M02 A2964 1060 82 -300 330/09 RMK AO2 SNB2359E09B23E43 P0000 T00111017
04847KADG ADG20160128195015701/28/16 19:50:31  5-MIN KADG 290050Z AUTO 33007KT 10SM SCT009 SCT015 OVC044 01/M02 A2964 1060 82 -300 340/07 RMK AO2 SNB2359E09B23E43 SLP048 P0000 T00111017
04847KADG ADG20160128195512601/28/16 19:55:31  5-MIN KADG 290055Z AUTO 33009G16KT 10SM FEW009 OVC042 01/M02 A2964 1060 82 -400 330/09G16 RMK AO2 T00061022
04847KADG ADG20160128200012601/28/16 20:00:31  5-MIN KADG 290100Z AUTO 33010G19KT 10SM FEW009 OVC041 01/M03 A2965 1060 78 -400 330/10G19 RMK AO2 T00061028
04847KADG ADG20160128200512601/28/16 20:05:31  5-MIN KADG 290105Z AUTO 32011G19KT 10SM BKN041 OVC047 01/M03 A2965 1050 78 -400 330/11G19 RMK AO2 T00061028
04847KADG ADG20160128201012001/28/16 20:10:31  5-MIN KADG 290110Z AUTO 32010KT 10SM FEW032 OVC041 01/M03 A2965 1050 75 -400 320/10 RMK AO2 T00061033
04847KADG ADG20160128201512001/28/16 20:15:31  5-MIN KADG 290115Z AUTO 32011KT 10SM SCT030 OVC043 01/M03 A2965 1050 75 -400 330/11 RMK AO2 T00061033
04847KADG ADG20160128202012001/28/16 20:20:31  5-MIN KADG 290120Z AUTO 32010KT 10SM BKN030 OVC041 01/M03 A2965 1050 75 -400 330/10 RMK AO2 T00061033
04847KADG ADG20160128202512001/28/16 20:25:31  5-MIN KADG 290125Z AUTO 32010KT 10SM BKN030 OVC043 01/M03 A2965 1050 75 -400 330/10 RMK AO2 T00061033
04847KADG ADG20160128203012001/28/16 20:30:31  5-MIN KADG 290130Z AUTO 32009KT 10SM BKN030 OVC045 01/M03 A2965 1050 75 -400 330/09 RMK AO2 T00061033
04847KADG ADG20160128203511301/28/16 20:35:31  5-MIN KADG 290135Z AUTO 32010KT 10SM OVC030 01/M03 A2966 1050 75 -400 330/10 RMK AO2 T00061033
04847KADG ADG20160128204011301/28/16 20:40:31  5-MIN KADG 290140Z AUTO 32010KT 10SM OVC030 01/M03 A2966 1040 75 -400 320/10 RMK AO2 T00061033
04847KADG ADG20160128204511901/28/16 20:45:31  5-MIN KADG 290145Z AUTO 32011G17KT 10SM OVC031 01/M03 A2966 1040 75 -400 320/11G17 RMK AO2 T00061033
04847KADG ADG20160128205012601/28/16 20:50:31  5-MIN KADG 290150Z AUTO 32011G17KT 10SM OVC031 01/M04 A2966 1040 72 -400 330/11G17 RMK AO2 SLP054 T00061039
04847KADG ADG20160128205511301/28/16 20:55:31  5-MIN KADG 290155Z AUTO 32012KT 10SM OVC031 01/M04 A2966 1040 72 -400 320/12 RMK AO2 T00061039
04847KADG ADG20160128210011301/28/16 21:00:31  5-MIN KADG 290200Z AUTO 33009KT 10SM OVC033 01/M04 A2966 1040 72 -400 330/09 RMK AO2 T00061039
04847KADG ADG20160128210511301/28/16 21:05:31  5-MIN KADG 290205Z AUTO 33009KT 10SM OVC035 00/M04 A2966 1040 75 -400 330/09 RMK AO2 T00001039
04847KADG ADG20160128211012001/28/16 21:10:31  5-MIN KADG 290210Z AUTO 32011KT 10SM BKN035 OVC041 00/M04 A2966 1040 72 -400 320/11 RMK AO2 T00001044
04847KADG ADG20160128211511301/28/16 21:15:31  5-MIN KADG 290215Z AUTO 33010KT 10SM OVC037 00/M04 A2966 1040 72 -400 330/10 RMK AO2 T00001044
04847KADG ADG20160128212011301/28/16 21:20:31  5-MIN KADG 290220Z AUTO 33010KT 10SM OVC039 00/M04 A2966 1040 72 -400 340/10 RMK AO2 T00001044
04847KADG ADG20160128212511301/28/16 21:25:31  5-MIN KADG 290225Z AUTO 33011KT 10SM OVC041 00/M04 A2966 1040 72 -400 330/11 RMK AO2 T00001044
04847KADG ADG20160128213011901/28/16 21:30:31  5-MIN KADG 290230Z AUTO 32008G17KT 10SM OVC043 00/M04 A2967 1040 72 -500 330/08G17 RMK AO2 T00001044
04847KADG ADG20160128213511301/28/16 21:35:31  5-MIN KADG 290235Z AUTO 32010KT 10SM OVC043 00/M04 A2967 1030 72 -500 330/10 RMK AO2 T00001044
04847KADG ADG20160128214011301/28/16 21:40:31  5-MIN KADG 290240Z AUTO 33009KT 10SM OVC041 00/M04 A2967 1030 72 -500 330/09 RMK AO2 T00001044
04847KADG ADG20160128214511901/28/16 21:45:31  5-MIN KADG 290245Z AUTO 33008G16KT 10SM OVC041 00/M04 A2967 1030 72 -500 330/08G16 RMK AO2 T00001044
04847KADG ADG20160128215013801/28/16 21:50:31  5-MIN KADG 290250Z AUTO 33009G16KT 10SM OVC041 00/M04 A2967 1030 72 -500 330/09G16 RMK AO2 SLP056 60000 T00001044 53013
04847KADG ADG20160128215511301/28/16 21:55:31  5-MIN KADG 290255Z AUTO 32010KT 10SM OVC041 00/M04 A2967 1030 72 -500 330/10 RMK AO2 T00001044
04847KADG ADG20160128220011301/28/16 22:00:31  5-MIN KADG 290300Z AUTO 33008KT 10SM OVC041 00/M05 A2967 1030 69 -500 330/08 RMK AO2 T00001050
04847KADG ADG20160128220511301/28/16 22:05:31  5-MIN KADG 290305Z AUTO 33009KT 10SM OVC041 00/M04 A2967 1030 72 -500 330/09 RMK AO2 T00001044
04847KADG ADG20160128221011301/28/16 22:10:31  5-MIN KADG 290310Z AUTO 32008KT 10SM OVC041 00/M04 A2967 1030 72 -500 330/08 RMK AO2 T00001044
04847KADG ADG20160128221511301/28/16 22:15:31  5-MIN KADG 290315Z AUTO 31008KT 10SM OVC041 00/M04 A2967 1030 72 -500 320/08 RMK AO2 T00001044
04847KADG ADG20160128222011301/28/16 22:20:31  5-MIN KADG 290320Z AUTO 32009KT 10SM OVC041 00/M04 A2967 1030 72 -500 330/09 RMK AO2 T00001044
04847KADG ADG20160128222512001/28/16 22:25:31  5-MIN KADG 290325Z AUTO 32009KT 10SM BKN041 OVC050 00/M04 A2967 1030 72 -500 330/09 RMK AO2 T00001044
04847KADG ADG20160128223012001/28/16 22:30:31  5-MIN KADG 290330Z AUTO 32009KT 10SM BKN041 OVC050 00/M04 A2967 1030 72 -500 330/09 RMK AO2 T00001044
04847KADG ADG20160128223512001/28/16 22:35:31  5-MIN KADG 290335Z AUTO 32008KT 10SM SCT041 OVC049 00/M04 A2967 1030 72 -500 320/08 RMK AO2 T00001044
04847KADG ADG20160128224012001/28/16 22:40:31  5-MIN KADG 290340Z AUTO 31011KT 10SM FEW041 OVC050 00/M04 A2967 1030 72 -500 320/11 RMK AO2 T00001044
04847KADG ADG20160128224512101/28/16 22:45:31  5-MIN KADG 290345Z AUTO 31010KT 10SM FEW024 OVC050 M01/M04 A2967 1030 75 -500 320/10 RMK AO2 T10061044
04847KADG ADG20160128225012801/28/16 22:50:31  5-MIN KADG 290350Z AUTO 31009KT 10SM FEW024 OVC050 M01/M04 A2967 1030 75 -500 320/09 RMK AO2 SLP058 T10061044
04847KADG ADG20160128225512101/28/16 22:55:31  5-MIN KADG 290355Z AUTO 32011KT 10SM FEW023 OVC055 M01/M04 A2968 1030 75 -500 320/11 RMK AO2 T10061044
04847KADG ADG20160128230012101/28/16 23:00:31  5-MIN KADG 290400Z AUTO 32008KT 10SM FEW023 OVC055 M01/M04 A2968 1030 75 -500 320/08 RMK AO2 T10061044
04847KADG ADG20160128230512101/28/16 23:05:31  5-MIN KADG 290405Z AUTO 32008KT 10SM FEW023 OVC055 M01/M04 A2968 1030 75 -500 330/08 RMK AO2 T10061044
04847KADG ADG20160128231012101/28/16 23:10:31  5-MIN KADG 290410Z AUTO 32009KT 10SM FEW023 OVC055 M01/M04 A2968 1030 75 -500 330/09 RMK AO2 T10061044
04847KADG ADG20160128231512101/28/16 23:15:31  5-MIN KADG 290415Z AUTO 32009KT 10SM FEW023 OVC055 M01/M04 A2968 1030 75 -500 320/09 RMK AO2 T10061044
04847KADG ADG20160128232012101/28/16 23:20:31  5-MIN KADG 290420Z AUTO 31009KT 10SM FEW023 OVC055 M01/M04 A2968 1020 75 -500 320/09 RMK AO2 T10061044
04847KADG ADG20160128232512101/28/16 23:25:31  5-MIN KADG 290425Z AUTO 31009KT 10SM SCT023 OVC060 M01/M04 A2968 1020 75 -500 320/09 RMK AO2 T10061044
04847KADG ADG20160128233012101/28/16 23:30:31  5-MIN KADG 290430Z AUTO 32011KT 10SM SCT023 OVC055 M01/M04 A2969 1020 75 -500 330/11 RMK AO2 T10061044
04847KADG ADG20160128233512801/28/16 23:35:31  5-MIN KADG 290435Z AUTO 32011KT 10SM FEW021 BKN026 OVC055 M01/M04 A2969 1020 75 -500 320/11 RMK AO2 T10061044
04847KADG ADG20160128234012801/28/16 23:40:31  5-MIN KADG 290440Z AUTO 31012KT 10SM BKN023 BKN050 OVC060 M01/M04 A2969 1020 75 -500 320/12 RMK AO2 T10061044
04847KADG ADG20160128234513401/28/16 23:45:31  5-MIN KADG 290445Z AUTO 32008G16KT 10SM SCT021 BKN026 OVC055 M01/M04 A2969 1020 75 -500 330/08G16 RMK AO2 T10061044
04847KADG ADG20160128235013801/28/16 23:50:31  5-MIN KADG 290450Z AUTO 33013KT 10SM BKN024 OVC055 M01/M04 A2969 1020 75 -500 330/13 RMK AO2 SLP063 T10061044 400331033
04847KADG ADG20160128235512101/28/16 23:55:31  5-MIN KADG 290455Z AUTO 32008KT 10SM BKN024 OVC055 M01/M04 A2969 1010 75 -500 330/08 RMK AO2 T10061044
04847KADG ADG20160129000012101/29/16 00:00:31  5-MIN KADG 290500Z AUTO 33010KT 10SM BKN024 OVC050 M01/M04 A2969 1010 75 -600 330/10 RMK AO2 T10061044
04847KADG ADG20160129000512701/29/16 00:05:31  5-MIN KADG 290505Z AUTO 33008G16KT 10SM BKN022 OVC050 M01/M04 A2969 1010 75 -500 340/08G16 RMK AO2 T10061044
04847KADG ADG20160129001012701/29/16 00:10:31  5-MIN KADG 290510Z AUTO 33009G16KT 10SM BKN022 OVC055 M01/M04 A2969 1010 75 -500 330/09G16 RMK AO2 T10061044
04847KADG ADG20160129001512101/29/16 00:15:31  5-MIN KADG 290515Z AUTO 33010KT 10SM BKN023 OVC055 M01/M05 A2969 1010 72 -600 330/10 RMK AO2 T10061050
04847KADG ADG20160129002012801/29/16 00:20:31  5-MIN KADG 290520Z AUTO 34010KT 10SM FEW021 SCT025 OVC055 M01/M06 A2969 1010 69 -600 350/10 RMK AO2 T10061056
04847KADG ADG20160129002512801/29/16 00:25:31  5-MIN KADG 290525Z AUTO 34010KT 10SM FEW021 FEW027 OVC055 M01/M06 A2969 1020 72 -600 340/10 RMK AO2 T10111056
04847KADG ADG20160129003013401/29/16 00:30:31  5-MIN KADG 290530Z AUTO 34011G21KT 10SM FEW027 FEW031 BKN055 M01/M06 A2969 1010 69 -600 340/11G21 RMK AO2 T10111061
04847KADG ADG20160129003512701/29/16 00:35:31  5-MIN KADG 290535Z AUTO 33011G21KT 10SM FEW029 BKN055 M01/M07 A2969 1010 66 -600 340/11G21 RMK AO2 T10111067
04847KADG ADG20160129004012701/29/16 00:40:31  5-MIN KADG 290540Z AUTO 33014G20KT 10SM FEW029 SCT055 M02/M07 A2969 1010 69 -700 340/14G20 RMK AO2 T10171067
04847KADG ADG20160129004513401/29/16 00:45:31  5-MIN KADG 290545Z AUTO 33012G20KT 10SM FEW029 FEW044 SCT055 M02/M07 A2970 1010 69 -700 330/12G20 RMK AO2 T10171067
04847KADG ADG20160129005015801/29/16 00:50:31  5-MIN KADG 290550Z AUTO 34010G19KT 10SM FEW029 SCT044 M02/M07 A2970 1010 69 -700 340/10G19 RMK AO2 SLP066 60000 T10171067 10011 21017 51016
04847KADG ADG20160129005512701/29/16 00:55:31  5-MIN KADG 290555Z AUTO 33011G19KT 10SM FEW029 BKN044 M02/M06 A2970 1010 72 -700 340/11G19 RMK AO2 T10171061
04847KADG ADG20160129010012001/29/16 01:00:31  5-MIN KADG 290600Z AUTO 33010G18KT 10SM BKN044 M01/M06 A2970 1010 69 -600 340/10G18 RMK AO2 T10111061
04847KADG ADG20160129010512001/29/16 01:05:31  5-MIN KADG 290605Z AUTO 33010G18KT 10SM BKN042 M02/M06 A2970 1010 72 -700 330/10G18 RMK AO2 T10171061
04847KADG ADG20160129011011401/29/16 01:10:31  5-MIN KADG 290610Z AUTO 34010KT 10SM OVC040 M02/M06 A2970 1010 72 -700 340/10 RMK AO2 T10171061
04847KADG ADG20160129011513401/29/16 01:15:31  5-MIN KADG 290615Z AUTO 35013G22KT 10SM FEW024 SCT032 OVC042 M02/M06 A2970 1010 72 -700 350/13G22 RMK AO2 T10171061
04847KADG ADG20160129012013401/29/16 01:20:31  5-MIN KADG 290620Z AUTO 35013G22KT 10SM SCT022 BKN032 OVC042 M02/M07 A2970 1000 69 -700 360/13G22 RMK AO2 T10171067
04847KADG ADG20160129012513401/29/16 01:25:31  5-MIN KADG 290625Z AUTO 35011G21KT 10SM BKN024 BKN032 OVC042 M02/M07 A2970 1000 69 -700 360/11G21 RMK AO2 T10171067
04847KADG ADG20160129013013401/29/16 01:30:31  5-MIN KADG 290630Z AUTO 35010G18KT 10SM SCT024 BKN034 OVC041 M02/M07 A2970 1000 69 -700 360/10G18 RMK AO2 T10171067
04847KADG ADG20160129013512801/29/16 01:35:31  5-MIN KADG 290635Z AUTO 35010KT 10SM SCT024 BKN033 BKN040 M02/M07 A2970 1000 69 -800 350/10 RMK AO2 T10221072
04847KADG ADG20160129014013401/29/16 01:40:31  5-MIN KADG 290640Z AUTO 35013G17KT 10SM SCT024 BKN033 BKN040 M02/M07 A2971 1000 69 -800 350/13G17 RMK AO2 T10221072
04847KADG ADG20160129014512801/29/16 01:45:31  5-MIN KADG 290645Z AUTO 35013KT 10SM FEW024 SCT033 SCT041 M02/M08 A2971 1000 66 -800 360/13 RMK AO2 T10221078
04847KADG ADG20160129015013401/29/16 01:50:31  5-MIN KADG 290650Z AUTO 36012KT 10SM FEW024 FEW034 SCT041 M03/M08 A2971 990 68 -900 360/12 RMK AO2 SLP071 T10281078
04847KADG ADG20160129015511901/29/16 01:55:31  5-MIN KADG 290655Z AUTO 35013G19KT 10SM SCT034 M03/M08 A2971 990 66 -900 360/13G19 RMK AO2 T10281083
04847KADG ADG20160129020011901/29/16 02:00:31  5-MIN KADG 290700Z AUTO 34010G19KT 10SM SCT034 M03/M08 A2972 990 66 -900 350/10G19 RMK AO2 T10281083
04847KADG ADG20160129020511901/29/16 02:05:31  5-MIN KADG 290705Z AUTO 34010G19KT 10SM SCT034 M03/M09 A2972 990 63 -900 350/10G19 RMK AO2 T10281089
04847KADG ADG20160129021011301/29/16 02:10:31  5-MIN KADG 290710Z AUTO 35010KT 10SM FEW034 M03/M09 A2972 990 65 -900 350/10 RMK AO2 T10331089
04847KADG ADG20160129021511901/29/16 02:15:31  5-MIN KADG 290715Z AUTO 34013G24KT 10SM FEW034 M03/M09 A2972 980 65 -900 350/13G24 RMK AO2 T10331089
04847KADG ADG20160129022011901/29/16 02:20:31  5-MIN KADG 290720Z AUTO 34011G24KT 10SM SCT034 M03/M09 A2973 980 65 -900 350/11G24 RMK AO2 T10331089
04847KADG ADG20160129022511301/29/16 02:25:31  5-MIN KADG 290725Z AUTO 34011KT 10SM SCT034 M03/M09 A2973 980 65 -900 340/11 RMK AO2 T10331089
04847KADG ADG20160129023011301/29/16 02:30:31  5-MIN KADG 290730Z AUTO 33013KT 10SM BKN034 M03/M09 A2973 980 65 -900 340/13 RMK AO2 T10331089
04847KADG ADG20160129023511901/29/16 02:35:31  5-MIN KADG 290735Z AUTO 33009G17KT 10SM BKN034 M03/M09 A2973 980 65 -900 340/09G17 RMK AO2 T10331089
04847KADG ADG20160129024011301/29/16 02:40:31  5-MIN KADG 290740Z AUTO 33009KT 10SM BKN034 M03/M09 A2973 980 65 -900 340/09 RMK AO2 T10331089
04847KADG ADG20160129024511301/29/16 02:45:31  5-MIN KADG 290745Z AUTO 34010KT 10SM OVC034 M03/M09 A2973 980 65 -900 340/10 RMK AO2 T10331089
04847KADG ADG20160129025012001/29/16 02:50:31  5-MIN KADG 290750Z AUTO 34008KT 10SM OVC034 M03/M09 A2973 980 65 -900 340/08 RMK AO2 SLP077 T10331089
04847KADG ADG20160129025511301/29/16 02:55:31  5-MIN KADG 290755Z AUTO 34011KT 10SM OVC034 M03/M09 A2973 980 63 -900 340/11 RMK AO2 T10331094
04847KADG ADG20160129030011301/29/16 03:00:31  5-MIN KADG 290800Z AUTO 35012KT 10SM OVC034 M03/M09 A2973 980 65 -900 360/12 RMK AO2 T10331089
04847KADG ADG20160129030511901/29/16 03:05:31  5-MIN KADG 290805Z AUTO 34016G21KT 10SM OVC034 M03/M09 A2973 980 65 -900 350/16G21 RMK AO2 T10331089
04847KADG ADG20160129031012001/29/16 03:10:31  5-MIN KADG 290810Z AUTO 34011G21KT 10SM OVC034 M03/M09 A2973 970 63 -1000 340/11G21 RMK AO2 T10331094
04847KADG ADG20160129031512001/29/16 03:15:31  5-MIN KADG 290815Z AUTO 34013G19KT 10SM OVC034 M03/M09 A2974 970 63 -1000 350/13G19 RMK AO2 T10331094
04847KADG ADG20160129032012001/29/16 03:20:31  5-MIN KADG 290820Z AUTO 33013G20KT 10SM OVC034 M03/M09 A2974 970 63 -1000 340/13G20 RMK AO2 T10331094
04847KADG ADG20160129032512001/29/16 03:25:31  5-MIN KADG 290825Z AUTO 34014G20KT 10SM OVC032 M03/M09 A2974 970 63 -1000 350/14G20 RMK AO2 T10331094
04847KADG ADG20160129033012001/29/16 03:30:31  5-MIN KADG 290830Z AUTO 35016G22KT 10SM OVC032 M03/M09 A2974 970 63 -1000 360/16G22 RMK AO2 T10331094
04847KADG ADG20160129033512001/29/16 03:35:31  5-MIN KADG 290835Z AUTO 36014G22KT 10SM OVC032 M03/M09 A2974 970 63 -1000 360/14G22 RMK AO2 T10331094
04847KADG ADG20160129034012001/29/16 03:40:31  5-MIN KADG 290840Z AUTO 34011G21KT 10SM OVC030 M03/M09 A2974 970 63 -1000 350/11G21 RMK AO2 T10331094
04847KADG ADG20160129034511401/29/16 03:45:31  5-MIN KADG 290845Z AUTO 35009KT 10SM OVC030 M03/M09 A2974 960 63 -1000 350/09 RMK AO2 T10331094
04847KADG ADG20160129035010401/29/16 03:50:31  5-MIN KADG 290850Z AUTO 35012KT 10SM OVC029 M03/M09 A2974 960 63 -1000 350/12 RMK AO2
04847KADG ADG20160129035511401/29/16 03:55:31  5-MIN KADG 290855Z AUTO 35012KT 10SM OVC029 M03/M09 A2974 960 65 -1000 360/12 RMK AO2 T10331089
04847KADG ADG20160129040011401/29/16 04:00:31  5-MIN KADG 290900Z AUTO 35010KT 10SM OVC030 M03/M09 A2975 960 65 -1000 350/10 RMK AO2 T10331089
04847KADG ADG20160129040512001/29/16 04:05:31  5-MIN KADG 290905Z AUTO 35012G20KT 10SM OVC030 M03/M09 A2975 960 65 -1000 350/12G20 RMK AO2 T10331089
04847KADG ADG20160129041012001/29/16 04:10:31  5-MIN KADG 290910Z AUTO 34011G21KT 10SM OVC029 M03/M09 A2975 960 65 -1000 350/11G21 RMK AO2 T10331089
04847KADG ADG20160129041512001/29/16 04:15:31  5-MIN KADG 290915Z AUTO 34013G21KT 10SM OVC029 M04/M09 A2976 950 68 -1100 350/13G21 RMK AO2 T10391089
04847KADG ADG20160129042012001/29/16 04:20:31  5-MIN KADG 290920Z AUTO 35015G19KT 10SM OVC029 M04/M09 A2976 950 65 -1100 350/15G19 RMK AO2 T10391094
04847KADG ADG20160129042512001/29/16 04:25:31  5-MIN KADG 290925Z AUTO 35015G21KT 10SM OVC029 M04/M09 A2976 950 65 -1100 360/15G21 RMK AO2 T10391094
04847KADG ADG20160129043012001/29/16 04:30:31  5-MIN KADG 290930Z AUTO 34016G24KT 10SM OVC029 M04/M10 A2976 950 63 -1100 350/16G24 RMK AO2 T10391100
04847KADG ADG20160129043512001/29/16 04:35:31  5-MIN KADG 290935Z AUTO 35015G25KT 10SM OVC030 M04/M10 A2976 940 63 -1100 360/15G25 RMK AO2 T10391100
04847KADG ADG20160129044012001/29/16 04:40:31  5-MIN KADG 290940Z AUTO 36015G25KT 10SM OVC030 M04/M10 A2977 940 63 -1100 360/15G25 RMK AO2 T10391100
04847KADG ADG20160129044512001/29/16 04:45:31  5-MIN KADG 290945Z AUTO 34014G24KT 10SM OVC030 M04/M10 A2977 940 63 -1100 350/14G24 RMK AO2 T10391100
04847KADG ADG20160129045012701/29/16 04:50:31  5-MIN KADG 290950Z AUTO 35012G19KT 10SM OVC030 M04/M09 A2977 940 65 -1100 360/12G19 RMK AO2 SLP092 T10391094
04847KADG ADG20160129045512001/29/16 04:55:31  5-MIN KADG 290955Z AUTO 35012G19KT 10SM OVC030 M04/M10 A2977 940 63 -1100 360/12G19 RMK AO2 T10391100
04847KADG ADG20160129050012001/29/16 05:00:31  5-MIN KADG 291000Z AUTO 35012G20KT 10SM OVC030 M04/M09 A2978 930 65 -1100 360/12G20 RMK AO2 T10391094
04847KADG ADG20160129050512001/29/16 05:05:31  5-MIN KADG 291005Z AUTO 35010G20KT 10SM OVC031 M04/M10 A2978 930 63 -1100 360/10G20 RMK AO2 T10391100
04847KADG ADG20160129051012001/29/16 05:10:31  5-MIN KADG 291010Z AUTO 35012G18KT 10SM OVC031 M04/M10 A2978 930 63 -1100 360/12G18 RMK AO2 T10391100
04847KADG ADG20160129051511401/29/16 05:15:31  5-MIN KADG 291015Z AUTO 35011KT 10SM OVC031 M04/M10 A2979 920 63 -1100 350/11 RMK AO2 T10391100
04847KADG ADG20160129052012001/29/16 05:20:31  5-MIN KADG 291020Z AUTO 35007G17KT 10SM OVC031 M04/M10 A2979 920 63 -1100 360/07G17 RMK AO2 T10391100
04847KADG ADG20160129052512001/29/16 05:25:31  5-MIN KADG 291025Z AUTO 35014G18KT 10SM OVC031 M04/M10 A2979 920 63 -1100 350/14G18 RMK AO2 T10391100
04847KADG ADG20160129053012001/29/16 05:30:31  5-MIN KADG 291030Z AUTO 35011G18KT 10SM OVC031 M04/M09 A2979 920 65 -1100 360/11G18 RMK AO2 T10391094
04847KADG ADG20160129053511401/29/16 05:35:31  5-MIN KADG 291035Z AUTO 34010KT 10SM OVC031 M04/M09 A2980 920 65 -1100 350/10 RMK AO2 T10391094
04847KADG ADG20160129054011401/29/16 05:40:31  5-MIN KADG 291040Z AUTO 34010KT 10SM OVC031 M04/M09 A2980 920 68 -1200 350/10 RMK AO2 T10441094
04847KADG ADG20160129054511401/29/16 05:45:31  5-MIN KADG 291045Z AUTO 34012KT 10SM OVC030 M04/M10 A2980 910 65 -1200 350/12 RMK AO2 T10441100
04847KADG ADG20160129055014301/29/16 05:50:31  5-MIN KADG 291050Z AUTO 33009G17KT 300V010 10SM OVC030 M04/M09 A2980 910 68 -1200 340/09G17 310V020 RMK AO2 SLP103 T10441094
04847KADG ADG20160129055511401/29/16 05:55:31  5-MIN KADG 291055Z AUTO 35007KT 10SM OVC030 M04/M09 A2980 910 68 -1200 350/07 RMK AO2 T10441094
04847KADG ADG20160129060012001/29/16 06:00:31  5-MIN KADG 291100Z AUTO 34010G21KT 10SM OVC030 M04/M09 A2981 910 68 -1200 350/10G21 RMK AO2 T10441094
04847KADG ADG20160129060512001/29/16 06:05:31  5-MIN KADG 291105Z AUTO 34010G21KT 10SM OVC030 M04/M10 A2981 900 65 -1200 350/10G21 RMK AO2 T10441100
04847KADG ADG20160129081512001/29/16 08:15:31  5-MIN KADG 291315Z AUTO 34013G18KT 10SM OVC029 M05/M11 A2988 840 62 -1300 350/13G18 RMK AO2 T10501111
04847KADG ADG20160129082012001/29/16 08:20:31  5-MIN KADG 291320Z AUTO 33012G18KT 10SM OVC029 M05/M11 A2988 840 62 -1300 340/12G18 RMK AO2 T10501111
04847KADG ADG20160129082511401/29/16 08:25:31  5-MIN KADG 291325Z AUTO 34009KT 10SM OVC029 M05/M11 A2988 840 62 -1300 340/09 RMK AO2 T10501111
04847KADG ADG20160129083012001/29/16 08:30:31  5-MIN KADG 291330Z AUTO 35011G17KT 10SM OVC029 M05/M11 A2989 830 62 -1300 350/11G17 RMK AO2 T10501111
04847KADG ADG20160129083511401/29/16 08:35:31  5-MIN KADG 291335Z AUTO 35014KT 10SM OVC029 M05/M11 A2989 830 62 -1300 360/14 RMK AO2 T10501111
04847KADG ADG20160129084011401/29/16 08:40:31  5-MIN KADG 291340Z AUTO 35011KT 10SM OVC029 M05/M11 A2989 830 65 -1300 360/11 RMK AO2 T10501106
04847KADG ADG20160129084511401/29/16 08:45:31  5-MIN KADG 291345Z AUTO 35009KT 10SM OVC029 M04/M11 A2989 830 62 -1300 350/09 RMK AO2 T10441106
04847KADG ADG20160129085012101/29/16 08:50:31  5-MIN KADG 291350Z AUTO 32010KT 10SM OVC029 M04/M11 A2989 830 62 -1300 330/10 RMK AO2 SLP132 T10441106
04847KADG ADG20160129085512001/29/16 08:55:31  5-MIN KADG 291355Z AUTO 34013G17KT 10SM OVC027 M04/M11 A2989 830 62 -1300 350/13G17 RMK AO2 T10441106
04847KADG ADG20160129090012001/29/16 09:00:31  5-MIN KADG 291400Z AUTO 34011G17KT 10SM OVC027 M05/M11 A2989 830 65 -1300 340/11G17 RMK AO2 T10501106
04847KADG ADG20160129090511401/29/16 09:05:31  5-MIN KADG 291405Z AUTO 33009KT 10SM OVC027 M05/M11 A2989 830 65 -1300 340/09 RMK AO2 T10501106
04847KADG ADG20160129091011401/29/16 09:10:31  5-MIN KADG 291410Z AUTO 33009KT 10SM OVC027 M04/M11 A2989 830 62 -1300 340/09 RMK AO2 T10441106
04847KADG ADG20160129091512001/29/16 09:15:31  5-MIN KADG 291415Z AUTO 34010G17KT 10SM OVC027 M05/M11 A2989 830 65 -1300 340/10G17 RMK AO2 T10501106
04847KADG ADG20160129092011401/29/16 09:20:31  5-MIN KADG 291420Z AUTO 33010KT 10SM OVC027 M04/M11 A2989 820 62 -1300 340/10 RMK AO2 T10441106
04847KADG ADG20160129092511401/29/16 09:25:31  5-MIN KADG 291425Z AUTO 33012KT 10SM OVC027 M05/M11 A2990 820 65 -1400 340/12 RMK AO2 T10501106
04847KADG ADG20160129093011401/29/16 09:30:31  5-MIN KADG 291430Z AUTO 33011KT 10SM OVC027 M05/M11 A2990 820 62 -1400 340/11 RMK AO2 T10501111
04847KADG ADG20160129093511401/29/16 09:35:31  5-MIN KADG 291435Z AUTO 33011KT 10SM OVC027 M05/M11 A2990 820 62 -1400 340/11 RMK AO2 T10501111
04847KADG ADG20160129094011401/29/16 09:40:31  5-MIN KADG 291440Z AUTO 34009KT 10SM OVC027 M05/M11 A2990 820 65 -1400 340/09 RMK AO2 T10501106
04847KADG ADG20160129094511401/29/16 09:45:31  5-MIN KADG 291445Z AUTO 34009KT 10SM BKN027 M04/M11 A2991 810 62 -1300 350/09 RMK AO2 T10441106
04847KADG ADG20160129095013301/29/16 09:50:31  5-MIN KADG 291450Z AUTO 34008G17KT 10SM BKN027 M05/M11 A2991 810 62 -1400 350/08G17 RMK AO2 SLP140 T10501111 53029
04847KADG ADG20160129095512001/29/16 09:55:31  5-MIN KADG 291455Z AUTO 32010G17KT 10SM BKN027 M04/M11 A2991 810 62 -1300 330/10G17 RMK AO2 T10441106
04847KADG ADG20160129100011401/29/16 10:00:31  5-MIN KADG 291500Z AUTO 34010KT 10SM BKN027 M04/M11 A2992 800 62 -1300 340/10 RMK AO2 T10441106
04847KADG ADG20160129100511401/29/16 10:05:31  5-MIN KADG 291505Z AUTO 35011KT 10SM BKN027 M04/M11 A2992 800 62 -1300 350/11 RMK AO2 T10441106
04847KADG ADG20160129101012001/29/16 10:10:31  5-MIN KADG 291510Z AUTO 32009G16KT 10SM BKN027 M04/M11 A2992 800 62 -1300 330/09G16 RMK AO2 T10441106
04847KADG ADG20160129101511401/29/16 10:15:31  5-MIN KADG 291515Z AUTO 33008KT 10SM BKN027 M04/M11 A2992 800 62 -1300 340/08 RMK AO2 T10441106
04847KADG ADG20160129102011401/29/16 10:20:31  5-MIN KADG 291520Z AUTO 36012KT 10SM BKN027 M04/M11 A2993 800 62 -1300 360/12 RMK AO2 T10441106
04847KADG ADG20160129102511401/29/16 10:25:31  5-MIN KADG 291525Z AUTO 34009KT 10SM BKN028 M04/M11 A2993 790 62 -1300 350/09 RMK AO2 T10441106
04847KADG ADG20160129103011401/29/16 10:30:31  5-MIN KADG 291530Z AUTO 33008KT 10SM BKN028 M04/M11 A2993 790 60 -1300 340/08 RMK AO2 T10441111
04847KADG ADG20160129103511401/29/16 10:35:31  5-MIN KADG 291535Z AUTO 33007KT 10SM OVC028 M04/M11 A2993 790 62 -1300 340/07 RMK AO2 T10441106
04847KADG ADG20160129104011401/29/16 10:40:31  5-MIN KADG 291540Z AUTO 34010KT 10SM OVC028 M03/M11 A2993 790 57 -1200 350/10 RMK AO2 T10331106
04847KADG ADG20160129104511401/29/16 10:45:31  5-MIN KADG 291545Z AUTO 34008KT 10SM BKN028 M04/M11 A2994 790 60 -1300 350/08 RMK AO2 T10391106
04847KADG ADG20160129105012101/29/16 10:50:31  5-MIN KADG 291550Z AUTO 36010KT 10SM BKN028 M03/M11 A2994 780 57 -1200 010/10 RMK AO2 SLP150 T10331106
04847KADG ADG20160129105511401/29/16 10:55:31  5-MIN KADG 291555Z AUTO 34008KT 10SM BKN028 M04/M11 A2994 780 60 -1300 350/08 RMK AO2 T10391106
04847KADG ADG20160129110011401/29/16 11:00:31  5-MIN KADG 291600Z AUTO 32008KT 10SM BKN028 M04/M11 A2995 780 60 -1300 320/08 RMK AO2 T10391106
04847KADG ADG20160129110511401/29/16 11:05:31  5-MIN KADG 291605Z AUTO 33006KT 10SM BKN028 M04/M10 A2995 780 63 -1300 330/06 RMK AO2 T10391100
04847KADG ADG20160129111012001/29/16 11:10:31  5-MIN KADG 291610Z AUTO 31010G16KT 10SM BKN028 M03/M10 A2995 780 60 -1200 320/10G16 RMK AO2 T10331100
04847KADG ADG20160129111512001/29/16 11:15:31  5-MIN KADG 291615Z AUTO 30010G16KT 10SM OVC028 M03/M10 A2995 780 60 -1200 300/10G16 RMK AO2 T10331100
04847KADG ADG20160129112012001/29/16 11:20:31  5-MIN KADG 291620Z AUTO 31011G16KT 10SM OVC028 M04/M11 A2995 770 60 -1300 320/11G16 RMK AO2 T10391106
04847KADG ADG20160129112512001/29/16 11:25:31  5-MIN KADG 291625Z AUTO 30007G16KT 10SM BKN028 M03/M11 A2995 770 57 -1200 310/07G16 RMK AO2 T10331106
04847KADG ADG20160129113012001/29/16 11:30:31  5-MIN KADG 291630Z AUTO 31011G16KT 10SM BKN028 M03/M11 A2995 770 57 -1200 310/11G16 RMK AO2 T10331106
04847KADG ADG20160129113512001/29/16 11:35:31  5-MIN KADG 291635Z AUTO 30007G16KT 10SM SCT028 M03/M11 A2995 770 55 -1100 310/07G16 RMK AO2 T10281106
04847KADG ADG20160129114011401/29/16 11:40:31  5-MIN KADG 291640Z AUTO 34009KT 10SM SCT028 M03/M11 A2995 770 57 -1200 350/09 RMK AO2 T10331106
04847KADG ADG20160129114511401/29/16 11:45:31  5-MIN KADG 291645Z AUTO 36010KT 10SM FEW028 M03/M11 A2994 780 55 -1100 360/10 RMK AO2 T10281106
04847KADG ADG20160129115012101/29/16 11:50:31  5-MIN KADG 291650Z AUTO 35009KT 10SM FEW028 M03/M11 A2994 780 55 -1100 360/09 RMK AO2 SLP151 T10281106
04847KADG ADG20160129115511101/29/16 11:55:31  5-MIN KADG 291655Z AUTO 34007KT 10SM CLR M03/M11 A2994 790 55 -1100 340/07 RMK AO2 T10281106
04847KADG ADG20160129120011101/29/16 12:00:31  5-MIN KADG 291700Z AUTO 31007KT 10SM CLR M03/M11 A2993 790 55 -1100 320/07 RMK AO2 T10281106
04847KADG ADG20160129120511101/29/16 12:05:31  5-MIN KADG 291705Z AUTO 35010KT 10SM CLR M03/M11 A2994 790 55 -1100 360/10 RMK AO2 T10281106
04847KADG ADG20160129121011101/29/16 12:10:31  5-MIN KADG 291710Z AUTO 34007KT 10SM CLR M03/M11 A2993 790 55 -1100 350/07 RMK AO2 T10281106
04847KADG ADG20160129121511101/29/16 12:15:31  5-MIN KADG 291715Z AUTO 30008KT 10SM CLR M03/M11 A2994 790 55 -1100 310/08 RMK AO2 T10281106
04847KADG ADG20160129122011101/29/16 12:20:31  5-MIN KADG 291720Z AUTO 30008KT 10SM CLR M03/M11 A2994 780 55 -1100 310/08 RMK AO2 T10281106
04847KADG ADG20160129122511101/29/16 12:25:31  5-MIN KADG 291725Z AUTO 29006KT 10SM CLR M03/M10 A2994 780 58 -1100 300/06 RMK AO2 T10281100
04847KADG ADG20160129123012701/29/16 12:30:31  5-MIN KADG 291730Z AUTO 32009KT 280V340 10SM CLR M03/M10 A2994 780 58 -1100 320/09 290V350 RMK AO2 T10281100
04847KADG ADG20160129123511101/29/16 12:35:31  5-MIN KADG 291735Z AUTO 29011KT 10SM CLR M02/M10 A2995 780 55 -1100 290/11 RMK AO2 T10221100
04847KADG ADG20160129124011101/29/16 12:40:31  5-MIN KADG 291740Z AUTO 32009KT 10SM CLR M02/M11 A2995 780 53 -1100 320/09 RMK AO2 T10221106
04847KADG ADG20160129124511701/29/16 12:45:31  5-MIN KADG 291745Z AUTO 31008G19KT 10SM CLR M02/M11 A2995 780 53 -1100 310/08G19 RMK AO2 T10221106
04847KADG ADG20160129125014201/29/16 12:50:31  5-MIN KADG 291750Z AUTO 31009G19KT 10SM CLR M02/M11 A2995 780 53 -1100 320/09G19 RMK AO2 SLP152 T10221106 11022 21050 53015
04847KADG ADG20160129125511101/29/16 12:55:31  5-MIN KADG 291755Z AUTO 31011KT 10SM CLR M02/M11 A2994 780 53 -1100 310/11 RMK AO2 T10221106
04847KADG ADG20160129130011101/29/16 13:00:31  5-MIN KADG 291800Z AUTO 35007KT 10SM CLR M02/M11 A2994 780 53 -1100 350/07 RMK AO2 T10221106
04847KADG ADG20160129130511101/29/16 13:05:31  5-MIN KADG 291805Z AUTO 33010KT 10SM CLR M02/M10 A2994 780 53 -1000 340/10 RMK AO2 T10171100
04847KADG ADG20160129131011101/29/16 13:10:31  5-MIN KADG 291810Z AUTO 34009KT 10SM CLR M02/M10 A2995 780 53 -1000 350/09 RMK AO2 T10171100
04847KADG ADG20160129131512701/29/16 13:15:31  5-MIN KADG 291815Z AUTO 30009KT 270V330 10SM CLR M02/M11 A2994 780 51 -1000 300/09 280V340 RMK AO2 T10171106
04847KADG ADG20160129132011101/29/16 13:20:31  5-MIN KADG 291820Z AUTO 30010KT 10SM CLR M02/M11 A2994 780 51 -1000 310/10 RMK AO2 T10171106
04847KADG ADG20160129132511101/29/16 13:25:31  5-MIN KADG 291825Z AUTO 33010KT 10SM CLR M02/M10 A2994 780 53 -1000 340/10 RMK AO2 T10171100
04847KADG ADG20160129133011101/29/16 13:30:31  5-MIN KADG 291830Z AUTO 30008KT 10SM CLR M02/M10 A2994 780 53 -1000 300/08 RMK AO2 T10171100
04847KADG ADG20160129133511101/29/16 13:35:31  5-MIN KADG 291835Z AUTO 30010KT 10SM CLR M02/M10 A2994 780 53 -1000 310/10 RMK AO2 T10171100
04847KADG ADG20160129134011101/29/16 13:40:31  5-MIN KADG 291840Z AUTO 30011KT 10SM CLR M02/M11 A2994 780 51 -1000 310/11 RMK AO2 T10171106
04847KADG ADG20160129134511101/29/16 13:45:31  5-MIN KADG 291845Z AUTO 29010KT 10SM CLR M02/M12 A2994 780 46 -1000 290/10 RMK AO2 T10171117
04847KADG ADG20160129135011801/29/16 13:50:31  5-MIN KADG 291850Z AUTO 29008KT 10SM CLR M02/M11 A2994 780 49 -1000 300/08 RMK AO2 SLP150 T10171111
04847KADG ADG20160129135512601/29/16 13:55:31  5-MIN KADG 291855Z AUTO 31008KT 270V340 10SM CLR M01/M11 A2994 780 49 -900 320/08 280V350 RMK AO2 T10111106
04847KADG ADG20160129140011001/29/16 14:00:31  5-MIN KADG 291900Z AUTO 33009KT 10SM CLR M01/M11 A2994 780 49 -900 340/09 RMK AO2 T10111106
04847KADG ADG20160129140511001/29/16 14:05:31  5-MIN KADG 291905Z AUTO 31009KT 10SM CLR M01/M10 A2993 790 51 -900 320/09 RMK AO2 T10111100
04847KADG ADG20160129141011001/29/16 14:10:31  5-MIN KADG 291910Z AUTO 30009KT 10SM CLR M01/M10 A2993 790 51 -900 300/09 RMK AO2 T10111100
04847KADG ADG20160129141511001/29/16 14:15:31  5-MIN KADG 291915Z AUTO 29008KT 10SM CLR M01/M10 A2993 790 51 -900 300/08 RMK AO2 T10111100
04847KADG ADG20160129142011001/29/16 14:20:31  5-MIN KADG 291920Z AUTO 29010KT 10SM CLR M01/M11 A2993 790 49 -900 300/10 RMK AO2 T10111106
04847KADG ADG20160129142511001/29/16 14:25:31  5-MIN KADG 291925Z AUTO 28010KT 10SM CLR M01/M11 A2993 790 49 -900 280/10 RMK AO2 T10111106
04847KADG ADG20160129143011001/29/16 14:30:31  5-MIN KADG 291930Z AUTO 29009KT 10SM CLR M01/M11 A2993 790 49 -900 300/09 RMK AO2 T10111106
04847KADG ADG20160129143511001/29/16 14:35:31  5-MIN KADG 291935Z AUTO 31007KT 10SM CLR M01/M11 A2993 790 49 -900 320/07 RMK AO2 T10111106
04847KADG ADG20160129144011001/29/16 14:40:31  5-MIN KADG 291940Z AUTO 30009KT 10SM CLR M01/M11 A2993 790 49 -900 300/09 RMK AO2 T10111106
04847KADG ADG20160129144511001/29/16 14:45:31  5-MIN KADG 291945Z AUTO 30010KT 10SM CLR M01/M11 A2993 790 49 -900 310/10 RMK AO2 T10111106
04847KADG ADG20160129145011701/29/16 14:50:31  5-MIN KADG 291950Z AUTO 30008KT 10SM CLR M01/M11 A2993 790 49 -900 300/08 RMK AO2 SLP149 T10111106
04847KADG ADG20160129145511001/29/16 14:55:31  5-MIN KADG 291955Z AUTO 32009KT 10SM CLR M01/M11 A2993 790 45 -800 320/09 RMK AO2 T10061111
04847KADG ADG20160129150011001/29/16 15:00:31  5-MIN KADG 292000Z AUTO 30008KT 10SM CLR M01/M11 A2993 790 45 -800 300/08 RMK AO2 T10061111
04847KADG ADG20160129150511001/29/16 15:05:31  5-MIN KADG 292005Z AUTO 31007KT 10SM CLR M01/M11 A2993 790 49 -900 320/07 RMK AO2 T10111106
04847KADG ADG20160129151011001/29/16 15:10:31  5-MIN KADG 292010Z AUTO 27006KT 10SM CLR M01/M11 A2993 790 47 -800 270/06 RMK AO2 T10061106
04847KADG ADG20160129151511001/29/16 15:15:31  5-MIN KADG 292015Z AUTO 27008KT 10SM CLR M01/M11 A2993 790 49 -900 270/08 RMK AO2 T10111106
04847KADG ADG20160129152011001/29/16 15:20:31  5-MIN KADG 292020Z AUTO 29008KT 10SM CLR M01/M10 A2993 790 49 -800 300/08 RMK AO2 T10061100
04847KADG ADG20160129152511001/29/16 15:25:31  5-MIN KADG 292025Z AUTO 32007KT 10SM CLR M01/M10 A2992 800 49 -800 330/07 RMK AO2 T10061100
04847KADG ADG20160129153011001/29/16 15:30:31  5-MIN KADG 292030Z AUTO 32008KT 10SM CLR M01/M10 A2993 790 49 -800 330/08 RMK AO2 T10061100
04847KADG ADG20160129153511001/29/16 15:35:31  5-MIN KADG 292035Z AUTO 28006KT 10SM CLR M01/M10 A2993 790 49 -800 290/06 RMK AO2 T10061100
04847KADG ADG20160129154011001/29/16 15:40:31  5-MIN KADG 292040Z AUTO 31009KT 10SM CLR M01/M10 A2993 790 49 -800 310/09 RMK AO2 T10061100
04847KADG ADG20160129154510901/29/16 15:45:31  5-MIN KADG 292045Z AUTO 31006KT 10SM CLR 00/M10 A2993 790 47 -800 320/06 RMK AO2 T00001100
04847KADG ADG20160129155012301/29/16 15:50:31  5-MIN KADG 292050Z AUTO VRB06KT 10SM CLR M01/M09 A2993 790 51 -800 VRB/06 RMK AO2 SLP149 T10061094 51010
04847KADG ADG20160129155511001/29/16 15:55:31  5-MIN KADG 292055Z AUTO 30008KT 10SM CLR M01/M10 A2993 790 49 -800 310/08 RMK AO2 T10061100
04847KADG ADG20160129160011001/29/16 16:00:31  5-MIN KADG 292100Z AUTO 28006KT 10SM CLR M01/M09 A2994 790 51 -800 290/06 RMK AO2 T10061094
04847KADG ADG20160129160511001/29/16 16:05:31  5-MIN KADG 292105Z AUTO 31006KT 10SM CLR M01/M10 A2994 790 49 -800 310/06 RMK AO2 T10061100
04847KADG ADG20160129161011001/29/16 16:10:31  5-MIN KADG 292110Z AUTO VRB06KT 10SM CLR M01/M10 A2994 790 49 -800 VRB/06 RMK AO2 T10061100
04847KADG ADG20160129161511001/29/16 16:15:31  5-MIN KADG 292115Z AUTO 31007KT 10SM CLR M01/M11 A2994 790 47 -800 320/07 RMK AO2 T10061106
04847KADG ADG20160129162011001/29/16 16:20:31  5-MIN KADG 292120Z AUTO 30009KT 10SM CLR M01/M10 A2994 780 49 -800 310/09 RMK AO2 T10061100
04847KADG ADG20160129162511001/29/16 16:25:31  5-MIN KADG 292125Z AUTO 26005KT 10SM CLR M01/M10 A2994 780 49 -800 270/05 RMK AO2 T10061100
04847KADG ADG20160129163011001/29/16 16:30:31  5-MIN KADG 292130Z AUTO VRB05KT 10SM CLR M01/M10 A2994 780 49 -800 VRB/05 RMK AO2 T10061100
04847KADG ADG20160129163511001/29/16 16:35:31  5-MIN KADG 292135Z AUTO 28008KT 10SM CLR M01/M09 A2995 780 51 -800 290/08 RMK AO2 T10061094
04847KADG ADG20160129164011001/29/16 16:40:31  5-MIN KADG 292140Z AUTO 28009KT 10SM CLR M01/M10 A2995 770 49 -900 280/09 RMK AO2 T10061100
04847KADG ADG20160129164511001/29/16 16:45:31  5-MIN KADG 292145Z AUTO 27006KT 10SM CLR M01/M10 A2995 770 51 -900 280/06 RMK AO2 T10111100
04847KADG ADG20160129165011701/29/16 16:50:31  5-MIN KADG 292150Z AUTO 27008KT 10SM CLR M01/M10 A2995 770 51 -900 280/08 RMK AO2 SLP155 T10111100
04847KADG ADG20160129165511001/29/16 16:55:31  5-MIN KADG 292155Z AUTO 27008KT 10SM CLR M01/M10 A2995 770 51 -900 270/08 RMK AO2 T10111100
04847KADG ADG20160129170011001/29/16 17:00:31  5-MIN KADG 292200Z AUTO 28007KT 10SM CLR M01/M10 A2995 770 51 -900 280/07 RMK AO2 T10111100
04847KADG ADG20160129170511001/29/16 17:05:31  5-MIN KADG 292205Z AUTO 29008KT 10SM CLR M01/M10 A2995 780 51 -900 300/08 RMK AO2 T10111100
04847KADG ADG20160129171011001/29/16 17:10:31  5-MIN KADG 292210Z AUTO 28006KT 10SM CLR M01/M10 A2995 780 51 -900 290/06 RMK AO2 T10111100
04847KADG ADG20160129171511001/29/16 17:15:31  5-MIN KADG 292215Z AUTO 27005KT 10SM CLR M01/M10 A2995 770 51 -900 270/05 RMK AO2 T10111100
04847KADG ADG20160129172011001/29/16 17:20:31  5-MIN KADG 292220Z AUTO 27006KT 10SM CLR M01/M10 A2995 770 51 -900 270/06 RMK AO2 T10111100
04847KADG ADG20160129172511001/29/16 17:25:31  5-MIN KADG 292225Z AUTO 25003KT 10SM CLR M01/M10 A2995 770 51 -900 260/03 RMK AO2 T10111100
04847KADG ADG20160129173011101/29/16 17:30:31  5-MIN KADG 292230Z AUTO 26005KT 10SM CLR M02/M09 A2995 770 55 -1000 260/05 RMK AO2 T10171094
04847KADG ADG20160129173511101/29/16 17:35:31  5-MIN KADG 292235Z AUTO 27003KT 10SM CLR M02/M09 A2995 770 55 -1000 280/03 RMK AO2 T10171094
04847KADG ADG20160129174011101/29/16 17:40:31  5-MIN KADG 292240Z AUTO 27004KT 10SM CLR M02/M09 A2995 780 55 -1000 270/04 RMK AO2 T10171094
04847KADG ADG20160129174511101/29/16 17:45:31  5-MIN KADG 292245Z AUTO 26003KT 10SM CLR M02/M09 A2994 780 55 -1000 260/03 RMK AO2 T10171094
04847KADG ADG20160129175011801/29/16 17:50:31  5-MIN KADG 292250Z AUTO 24003KT 10SM CLR M02/M09 A2995 780 58 -1100 250/03 RMK AO2 SLP154 T10221094
04847KADG ADG20160129175511101/29/16 17:55:31  5-MIN KADG 292255Z AUTO 25004KT 10SM CLR M02/M09 A2995 770 60 -1100 260/04 RMK AO2 T10221089
04847KADG ADG20160129180011101/29/16 18:00:31  5-MIN KADG 292300Z AUTO 26004KT 10SM CLR M02/M09 A2995 770 60 -1100 260/04 RMK AO2 T10221089
04847KADG ADG20160129180511101/29/16 18:05:31  5-MIN KADG 292305Z AUTO 26004KT 10SM CLR M02/M09 A2995 770 58 -1100 270/04 RMK AO2 T10221094
04847KADG ADG20160129181011101/29/16 18:10:31  5-MIN KADG 292310Z AUTO 25003KT 10SM CLR M02/M09 A2995 770 58 -1100 260/03 RMK AO2 T10221094
04847KADG ADG20160129181511101/29/16 18:15:31  5-MIN KADG 292315Z AUTO 26003KT 10SM CLR M03/M09 A2995 780 60 -1100 260/03 RMK AO2 T10281094
04847KADG ADG20160129182011101/29/16 18:20:31  5-MIN KADG 292320Z AUTO 00000KT 10SM CLR M03/M09 A2994 780 60 -1100 000/00 RMK AO2 T10281094
04847KADG ADG20160129182511101/29/16 18:25:31  5-MIN KADG 292325Z AUTO 24003KT 10SM CLR M03/M09 A2995 780 60 -1100 240/03 RMK AO2 T10281094
04847KADG ADG20160129183011101/29/16 18:30:31  5-MIN KADG 292330Z AUTO 00000KT 10SM CLR M03/M09 A2994 780 60 -1100 000/00 RMK AO2 T10281094
04847KADG ADG20160129183511101/29/16 18:35:31  5-MIN KADG 292335Z AUTO 22004KT 10SM CLR M03/M09 A2994 780 60 -1100 230/04 RMK AO2 T10281094
04847KADG ADG20160129184011101/29/16 18:40:31  5-MIN KADG 292340Z AUTO 00000KT 10SM CLR M03/M09 A2994 780 65 -1200 000/00 RMK AO2 T10331089
04847KADG ADG20160129184511101/29/16 18:45:31  5-MIN KADG 292345Z AUTO 00000KT 10SM CLR M03/M09 A2995 770 65 -1200 000/00 RMK AO2 T10331089
04847KADG ADG20160129185013601/29/16 18:50:31  5-MIN KADG 292350Z AUTO 00000KT 10SM CLR M03/M09 A2995 770 63 -1200 000/00 RMK AO2 SLP155 T10331094 10000 21033 56003
04847KADG ADG20160129185511101/29/16 18:55:31  5-MIN KADG 292355Z AUTO 20003KT 10SM CLR M03/M09 A2995 780 65 -1200 210/03 RMK AO2 T10331089
04847KADG ADG20160129190011101/29/16 19:00:31  5-MIN KADG 300000Z AUTO 19003KT 10SM CLR M03/M09 A2994 780 65 -1200 190/03 RMK AO2 T10331089
04847KADG ADG20160129190511101/29/16 19:05:31  5-MIN KADG 300005Z AUTO 19003KT 10SM CLR M04/M09 A2994 780 68 -1300 200/03 RMK AO2 T10391089
04847KADG ADG20160129191011101/29/16 19:10:31  5-MIN KADG 300010Z AUTO 19003KT 10SM CLR M04/M09 A2994 780 68 -1300 200/03 RMK AO2 T10391089
04847KADG ADG20160129191511101/29/16 19:15:31  5-MIN KADG 300015Z AUTO 19003KT 10SM CLR M04/M08 A2994 780 71 -1300 190/03 RMK AO2 T10391083
04847KADG ADG20160129192011101/29/16 19:20:31  5-MIN KADG 300020Z AUTO 18003KT 10SM CLR M04/M08 A2994 790 71 -1300 190/03 RMK AO2 T10391083
04847KADG ADG20160129192511101/29/16 19:25:31  5-MIN KADG 300025Z AUTO 18003KT 10SM CLR M04/M08 A2994 790 71 -1300 180/03 RMK AO2 T10391083
04847KADG ADG20160129193011101/29/16 19:30:31  5-MIN KADG 300030Z AUTO 00000KT 10SM CLR M04/M08 A2994 780 74 -1300 000/00 RMK AO2 T10441083
04847KADG ADG20160129193511401/29/16 19:35:31  5-MIN KADG 300035Z AUTO 00000KT 10SM FEW100 M04/M09 A2994 780 71 -1300 000/00 RMK AO2 T10441089
04847KADG ADG20160129194012101/29/16 19:40:31  5-MIN KADG 300040Z AUTO 17003KT 10SM FEW100 SCT120 M04/M08 A2994 780 71 -1300 170/03 RMK AO2 T10391083
04847KADG ADG20160129194512101/29/16 19:45:31  5-MIN KADG 300045Z AUTO 00000KT 10SM FEW100 SCT120 M04/M08 A2994 780 74 -1300 000/00 RMK AO2 T10441083
04847KADG ADG20160129195012801/29/16 19:50:31  5-MIN KADG 300050Z AUTO 17003KT 10SM FEW100 SCT120 M04/M09 A2994 780 71 -1300 180/03 RMK AO2 SLP152 T10441089
04847KADG ADG20160129195512101/29/16 19:55:31  5-MIN KADG 300055Z AUTO 18003KT 10SM FEW100 SCT120 M04/M08 A2994 780 71 -1300 180/03 RMK AO2 T10391083
04847KADG ADG20160129200011401/29/16 20:00:31  5-MIN KADG 300100Z AUTO 18003KT 10SM SCT110 M04/M08 A2994 780 74 -1300 180/03 RMK AO2 T10441083
04847KADG ADG20160129200511401/29/16 20:05:31  5-MIN KADG 300105Z AUTO 17004KT 10SM BKN110 M05/M08 A2994 790 77 -1400 180/04 RMK AO2 T10501083
04847KADG ADG20160129201011401/29/16 20:10:31  5-MIN KADG 300110Z AUTO 18004KT 10SM BKN110 M04/M08 A2993 790 78 -1300 180/04 RMK AO2 T10441078
04847KADG ADG20160129201511401/29/16 20:15:31  5-MIN KADG 300115Z AUTO 18004KT 10SM BKN110 M04/M08 A2993 790 78 -1300 190/04 RMK AO2 T10441078
04847KADG ADG20160129202011401/29/16 20:20:31  5-MIN KADG 300120Z AUTO 18005KT 10SM BKN110 M04/M08 A2993 790 78 -1300 190/05 RMK AO2 T10441078
04847KADG ADG20160129202511401/29/16 20:25:31  5-MIN KADG 300125Z AUTO 18005KT 10SM BKN110 M04/M08 A2993 790 78 -1300 180/05 RMK AO2 T10441078
04847KADG ADG20160129203011401/29/16 20:30:31  5-MIN KADG 300130Z AUTO 18005KT 10SM SCT110 M04/M08 A2993 790 74 -1300 180/05 RMK AO2 T10441083
04847KADG ADG20160129203511401/29/16 20:35:31  5-MIN KADG 300135Z AUTO 18005KT 10SM SCT110 M04/M08 A2993 790 74 -1300 180/05 RMK AO2 T10441083
04847KADG ADG20160129204011401/29/16 20:40:31  5-MIN KADG 300140Z AUTO 18005KT 10SM FEW110 M04/M08 A2992 800 74 -1300 180/05 RMK AO2 T10441083
04847KADG ADG20160129204511401/29/16 20:45:31  5-MIN KADG 300145Z AUTO 18005KT 10SM FEW120 M05/M09 A2992 800 74 -1400 190/05 RMK AO2 T10501089
04847KADG ADG20160129205012101/29/16 20:50:31  5-MIN KADG 300150Z AUTO 18005KT 10SM SCT120 M04/M08 A2992 800 74 -1300 190/05 RMK AO2 SLP146 T10441083
04847KADG ADG20160129205511401/29/16 20:55:31  5-MIN KADG 300155Z AUTO 19005KT 10SM FEW110 M04/M08 A2992 800 74 -1300 190/05 RMK AO2 T10441083
04847KADG ADG20160129210011401/29/16 21:00:31  5-MIN KADG 300200Z AUTO 19005KT 10SM SCT110 M04/M08 A2992 800 74 -1300 190/05 RMK AO2 T10441083
04847KADG ADG20160129210511401/29/16 21:05:31  5-MIN KADG 300205Z AUTO 18005KT 10SM BKN110 M04/M08 A2991 810 74 -1300 190/05 RMK AO2 T10441083
04847KADG ADG20160129211011401/29/16 21:10:31  5-MIN KADG 300210Z AUTO 19005KT 10SM BKN110 M04/M08 A2992 800 78 -1300 200/05 RMK AO2 T10441078
04847KADG ADG20160129211511401/29/16 21:15:31  5-MIN KADG 300215Z AUTO 19006KT 10SM BKN110 M04/M08 A2992 800 74 -1200 190/06 RMK AO2 T10391078
04847KADG ADG20160129212011401/29/16 21:20:31  5-MIN KADG 300220Z AUTO 19005KT 10SM BKN110 M04/M08 A2992 800 74 -1200 200/05 RMK AO2 T10391078
04847KADG ADG20160129212512101/29/16 21:25:31  5-MIN KADG 300225Z AUTO 18006KT 10SM FEW100 OVC110 M04/M08 A2992 800 74 -1200 190/06 RMK AO2 T10391078
04847KADG ADG20160129213012101/29/16 21:30:31  5-MIN KADG 300230Z AUTO 17005KT 10SM SCT095 OVC110 M04/M07 A2992 810 78 -1200 180/05 RMK AO2 T10391072
04847KADG ADG20160129213511401/29/16 21:35:31  5-MIN KADG 300235Z AUTO 18006KT 10SM OVC110 M04/M07 A2992 800 78 -1200 190/06 RMK AO2 T10391072
04847KADG ADG20160129214011401/29/16 21:40:31  5-MIN KADG 300240Z AUTO 19006KT 10SM OVC110 M03/M07 A2992 800 74 -1200 190/06 RMK AO2 T10331072
04847KADG ADG20160129214511401/29/16 21:45:31  5-MIN KADG 300245Z AUTO 18007KT 10SM OVC110 M03/M07 A2991 810 74 -1200 190/07 RMK AO2 T10331072
04847KADG ADG20160129215013401/29/16 21:50:31  5-MIN KADG 300250Z AUTO 19006KT 10SM BKN100 OVC120 M03/M07 A2991 810 74 -1200 190/06 RMK AO2 SLP142 T10331072 50004
04847KADG ADG20160129215512101/29/16 21:55:31  5-MIN KADG 300255Z AUTO 18007KT 10SM BKN100 OVC120 M03/M07 A2991 810 71 -1100 190/07 RMK AO2 T10281072
04847KADG ADG20160129220011401/29/16 22:00:31  5-MIN KADG 300300Z AUTO 19007KT 10SM OVC100 M03/M07 A2991 810 75 -1100 200/07 RMK AO2 T10281067
04847KADG ADG20160129220511401/29/16 22:05:31  5-MIN KADG 300305Z AUTO 20006KT 10SM OVC100 M03/M07 A2991 810 75 -1100 200/06 RMK AO2 T10281067
04847KADG ADG20160129221011401/29/16 22:10:31  5-MIN KADG 300310Z AUTO 20007KT 10SM OVC100 M03/M07 A2991 810 75 -1100 210/07 RMK AO2 T10281067
04847KADG ADG20160129221512101/29/16 22:15:31  5-MIN KADG 300315Z AUTO 21006KT 10SM SCT090 OVC100 M03/M07 A2990 810 75 -1100 210/06 RMK AO2 T10281067
04847KADG ADG20160129222012101/29/16 22:20:31  5-MIN KADG 300320Z AUTO 19006KT 10SM BKN090 BKN100 M03/M07 A2990 820 75 -1100 200/06 RMK AO2 T10281067
04847KADG ADG20160129222512101/29/16 22:25:31  5-MIN KADG 300325Z AUTO 18007KT 10SM BKN090 BKN100 M03/M07 A2989 820 75 -1100 190/07 RMK AO2 T10281067
04847KADG ADG20160129223011401/29/16 22:30:31  5-MIN KADG 300330Z AUTO 19007KT 10SM BKN090 M03/M07 A2990 820 75 -1100 190/07 RMK AO2 T10281067
04847KADG ADG20160129223511401/29/16 22:35:31  5-MIN KADG 300335Z AUTO 19008KT 10SM BKN090 M03/M07 A2989 820 75 -1100 200/08 RMK AO2 T10281067
04847KADG ADG20160129224011401/29/16 22:40:31  5-MIN KADG 300340Z AUTO 19007KT 10SM OVC090 M02/M07 A2989 830 72 -1000 200/07 RMK AO2 T10221067
04847KADG ADG20160129224511401/29/16 22:45:31  5-MIN KADG 300345Z AUTO 19007KT 10SM OVC095 M02/M07 A2989 830 72 -1000 200/07 RMK AO2 T10221067
04847KADG ADG20160129225012101/29/16 22:50:31  5-MIN KADG 300350Z AUTO 19006KT 10SM OVC095 M02/M07 A2989 830 72 -1000 200/06 RMK AO2 SLP133 T10221067
04847KADG ADG20160129225511401/29/16 22:55:31  5-MIN KADG 300355Z AUTO 19006KT 10SM OVC095 M02/M06 A2988 830 75 -1000 190/06 RMK AO2 T10221061
04847KADG ADG20160129230011401/29/16 23:00:31  5-MIN KADG 300400Z AUTO 19008KT 10SM BKN095 M02/M06 A2987 840 75 -1000 190/08 RMK AO2 T10221061
04847KADG ADG20160129230511401/29/16 23:05:31  5-MIN KADG 300405Z AUTO 18007KT 10SM BKN100 M02/M06 A2987 850 75 -1000 190/07 RMK AO2 T10221061
04847KADG ADG20160129231011401/29/16 23:10:31  5-MIN KADG 300410Z AUTO 19008KT 10SM SCT100 M02/M06 A2987 850 75 -1000 200/08 RMK AO2 T10221061
04847KADG ADG20160129231511401/29/16 23:15:31  5-MIN KADG 300415Z AUTO 19008KT 10SM FEW100 M02/M06 A2987 850 75 -1000 200/08 RMK AO2 T10221061
04847KADG ADG20160129232011401/29/16 23:20:31  5-MIN KADG 300420Z AUTO 19007KT 10SM FEW100 M02/M06 A2986 850 75 -1000 200/07 RMK AO2 T10221061
04847KADG ADG20160129232511101/29/16 23:25:31  5-MIN KADG 300425Z AUTO 18007KT 10SM CLR M02/M06 A2986 860 75 -1000 190/07 RMK AO2 T10221061
04847KADG ADG20160129233011101/29/16 23:30:31  5-MIN KADG 300430Z AUTO 18007KT 10SM CLR M02/M06 A2986 860 75 -1000 190/07 RMK AO2 T10221061
04847KADG ADG20160129233511101/29/16 23:35:31  5-MIN KADG 300435Z AUTO 18008KT 10SM CLR M02/M06 A2986 860 75 -1000 190/08 RMK AO2 T10221061
04847KADG ADG20160129234011101/29/16 23:40:31  5-MIN KADG 300440Z AUTO 19007KT 10SM CLR M02/M06 A2986 860 75 -1000 200/07 RMK AO2 T10221061
04847KADG ADG20160129234511101/29/16 23:45:31  5-MIN KADG 300445Z AUTO 19008KT 10SM CLR M02/M06 A2985 860 75 -1000 190/08 RMK AO2 T10221061
04847KADG ADG20160129235012701/29/16 23:50:31  5-MIN KADG 300450Z AUTO 19008KT 10SM CLR M02/M06 A2985 860 75 -900 200/08 RMK AO2 SLP120 T10221061 400001050
04847KADG ADG20160129235511001/29/16 23:55:31  5-MIN KADG 300455Z AUTO 18008KT 10SM CLR M02/M06 A2984 870 75 -900 190/08 RMK AO2 T10171056
04847KADG ADG20160130000011001/30/16 00:00:31  5-MIN KADG 300500Z AUTO 18008KT 10SM CLR M02/M06 A2984 870 72 -900 190/08 RMK AO2 T10171061
04847KADG ADG20160130000511001/30/16 00:05:31  5-MIN KADG 300505Z AUTO 19009KT 10SM CLR M02/M06 A2985 870 72 -900 200/09 RMK AO2 T10171061
04847KADG ADG20160130001011001/30/16 00:10:31  5-MIN KADG 300510Z AUTO 19008KT 10SM CLR M02/M06 A2984 870 72 -900 200/08 RMK AO2 T10171061
04847KADG ADG20160130001511001/30/16 00:15:31  5-MIN KADG 300515Z AUTO 19007KT 10SM CLR M02/M06 A2984 880 75 -900 200/07 RMK AO2 T10171056
04847KADG ADG20160130002011001/30/16 00:20:31  5-MIN KADG 300520Z AUTO 19008KT 10SM CLR M02/M06 A2984 880 75 -900 190/08 RMK AO2 T10171056
04847KADG ADG20160130002511001/30/16 00:25:31  5-MIN KADG 300525Z AUTO 19007KT 10SM CLR M02/M06 A2984 880 75 -900 190/07 RMK AO2 T10171056
04847KADG ADG20160130003011001/30/16 00:30:31  5-MIN KADG 300530Z AUTO 19007KT 10SM CLR M02/M06 A2983 880 75 -900 190/07 RMK AO2 T10171056
04847KADG ADG20160130003511001/30/16 00:35:31  5-MIN KADG 300535Z AUTO 19007KT 10SM CLR M02/M06 A2984 880 75 -900 200/07 RMK AO2 T10171056
04847KADG ADG20160130004011001/30/16 00:40:31  5-MIN KADG 300540Z AUTO 19007KT 10SM CLR M02/M06 A2984 880 75 -900 200/07 RMK AO2 T10171056
04847KADG ADG20160130004511001/30/16 00:45:31  5-MIN KADG 300545Z AUTO 20008KT 10SM CLR M01/M06 A2984 870 69 -800 210/08 RMK AO2 T10111061
04847KADG ADG20160130005013501/30/16 00:50:31  5-MIN KADG 300550Z AUTO 20008KT 10SM CLR M01/M06 A2983 880 69 -800 210/08 RMK AO2 SLP114 T10111061 11011 21050 58012
04847KADG ADG20160130005511301/30/16 00:55:31  5-MIN KADG 300555Z AUTO 20010KT 10SM FEW120 M01/M06 A2983 880 69 -800 200/10 RMK AO2 T10111061
04847KADG ADG20160130010011301/30/16 01:00:31  5-MIN KADG 300600Z AUTO 21010KT 10SM FEW120 M01/M06 A2983 880 69 -800 210/10 RMK AO2 T10111061
04847KADG ADG20160130010511301/30/16 01:05:31  5-MIN KADG 300605Z AUTO 20010KT 10SM FEW120 M01/M06 A2983 880 66 -700 210/10 RMK AO2 T10061061
04847KADG ADG20160130011011301/30/16 01:10:31  5-MIN KADG 300610Z AUTO 20011KT 10SM FEW120 M01/M06 A2983 880 66 -700 210/11 RMK AO2 T10061061
04847KADG ADG20160130011511301/30/16 01:15:31  5-MIN KADG 300615Z AUTO 20010KT 10SM FEW120 M01/M06 A2983 880 66 -700 210/10 RMK AO2 T10061061
04847KADG ADG20160130012011301/30/16 01:20:31  5-MIN KADG 300620Z AUTO 21012KT 10SM FEW120 M01/M06 A2983 880 66 -700 210/12 RMK AO2 T10061061
04847KADG ADG20160130012511301/30/16 01:25:31  5-MIN KADG 300625Z AUTO 21011KT 10SM FEW120 M01/M06 A2983 880 66 -700 210/11 RMK AO2 T10061061
04847KADG ADG20160130013011301/30/16 01:30:31  5-MIN KADG 300630Z AUTO 20011KT 10SM FEW120 M01/M06 A2983 890 66 -700 210/11 RMK AO2 T10061061
04847KADG ADG20160130013511001/30/16 01:35:31  5-MIN KADG 300635Z AUTO 20011KT 10SM CLR M01/M06 A2982 890 66 -700 210/11 RMK AO2 T10061061
04847KADG ADG20160130014011001/30/16 01:40:31  5-MIN KADG 300640Z AUTO 20011KT 10SM CLR M01/M06 A2982 900 66 -700 200/11 RMK AO2 T10061061
04847KADG ADG20160130014511701/30/16 01:45:31  5-MIN KADG 300645Z AUTO 19009KT 10SM CLR M01/M06 A2981 900 69 -800 200/09 RMK AO2 PRESFR T10111061
04847KADG ADG20160130015011701/30/16 01:50:31  5-MIN KADG 300650Z AUTO 20010KT 10SM CLR M01/M06 A2981 910 69 -800 200/10 RMK AO2 SLP104 T10111061
04847KADG ADG20160130015511001/30/16 01:55:31  5-MIN KADG 300655Z AUTO 20010KT 10SM CLR M01/M06 A2980 910 69 -800 200/10 RMK AO2 T10111061
04847KADG ADG20160130020011001/30/16 02:00:31  5-MIN KADG 300700Z AUTO 20009KT 10SM CLR M01/M06 A2980 910 69 -700 200/09 RMK AO2 T10111061
04847KADG ADG20160130020511001/30/16 02:05:31  5-MIN KADG 300705Z AUTO 20010KT 10SM CLR M01/M06 A2980 910 69 -700 200/10 RMK AO2 T10111061
04847KADG ADG20160130021011001/30/16 02:10:31  5-MIN KADG 300710Z AUTO 20010KT 10SM CLR M01/M06 A2981 910 69 -800 210/10 RMK AO2 T10111061
04847KADG ADG20160130021511001/30/16 02:15:31  5-MIN KADG 300715Z AUTO 21010KT 10SM CLR M01/M06 A2982 900 69 -800 220/10 RMK AO2 T10111061
04847KADG ADG20160130022011001/30/16 02:20:31  5-MIN KADG 300720Z AUTO 21008KT 10SM CLR M01/M06 A2982 890 69 -800 210/08 RMK AO2 T10111061
04847KADG ADG20160130022511001/30/16 02:25:31  5-MIN KADG 300725Z AUTO 21008KT 10SM CLR M01/M06 A2982 890 69 -800 210/08 RMK AO2 T10111061
04847KADG ADG20160130023011001/30/16 02:30:31  5-MIN KADG 300730Z AUTO 21009KT 10SM CLR M02/M06 A2982 890 72 -800 220/09 RMK AO2 T10171061
04847KADG ADG20160130023511001/30/16 02:35:31  5-MIN KADG 300735Z AUTO 21008KT 10SM CLR M02/M06 A2982 890 72 -800 210/08 RMK AO2 T10171061
04847KADG ADG20160130024011001/30/16 02:40:31  5-MIN KADG 300740Z AUTO 21007KT 10SM CLR M02/M06 A2982 890 72 -800 220/07 RMK AO2 T10171061
04847KADG ADG20160130024511001/30/16 02:45:31  5-MIN KADG 300745Z AUTO 21007KT 10SM CLR M02/M06 A2982 900 72 -800 210/07 RMK AO2 T10171061
04847KADG ADG20160130025011701/30/16 02:50:31  5-MIN KADG 300750Z AUTO 21007KT 10SM CLR M02/M06 A2982 890 72 -800 210/07 RMK AO2 SLP108 T10171061
04847KADG ADG20160130025511001/30/16 02:55:31  5-MIN KADG 300755Z AUTO 20006KT 10SM CLR M02/M06 A2982 900 75 -900 200/06 RMK AO2 T10221061
04847KADG ADG20160130030011001/30/16 03:00:31  5-MIN KADG 300800Z AUTO 19006KT 10SM CLR M02/M06 A2981 900 72 -800 190/06 RMK AO2 T10171061
04847KADG ADG20160130030511001/30/16 03:05:31  5-MIN KADG 300805Z AUTO 19007KT 10SM CLR M02/M06 A2981 910 75 -900 200/07 RMK AO2 T10221061
04847KADG ADG20160130031011001/30/16 03:10:31  5-MIN KADG 300810Z AUTO 19007KT 10SM CLR M02/M06 A2980 910 75 -900 190/07 RMK AO2 T10221061
04847KADG ADG20160130031511001/30/16 03:15:31  5-MIN KADG 300815Z AUTO 19007KT 10SM CLR M02/M06 A2980 910 75 -900 190/07 RMK AO2 T10221061
04847KADG ADG20160130032011001/30/16 03:20:31  5-MIN KADG 300820Z AUTO 20006KT 10SM CLR M02/M06 A2980 910 75 -900 200/06 RMK AO2 T10221061
04847KADG ADG20160130032511001/30/16 03:25:31  5-MIN KADG 300825Z AUTO 19007KT 10SM CLR M02/M06 A2979 920 75 -900 200/07 RMK AO2 T10221061
04847KADG ADG20160130033011001/30/16 03:30:31  5-MIN KADG 300830Z AUTO 19007KT 10SM CLR M02/M06 A2979 920 75 -900 200/07 RMK AO2 T10221061
04847KADG ADG20160130033511001/30/16 03:35:31  5-MIN KADG 300835Z AUTO 19008KT 10SM CLR M02/M06 A2978 930 75 -900 200/08 RMK AO2 T10221061
04847KADG ADG20160130034011001/30/16 03:40:31  5-MIN KADG 300840Z AUTO 19008KT 10SM CLR M02/M06 A2978 930 75 -900 200/08 RMK AO2 T10221061
04847KADG ADG20160130034511001/30/16 03:45:31  5-MIN KADG 300845Z AUTO 19007KT 10SM CLR M02/M06 A2978 930 72 -800 200/07 RMK AO2 T10171061
04847KADG ADG20160130035012301/30/16 03:50:31  5-MIN KADG 300850Z AUTO 19007KT 10SM CLR M02/M06 A2978 930 72 -800 200/07 RMK AO2 SLP094 T10171061 56026
04847KADG ADG20160130035511001/30/16 03:55:31  5-MIN KADG 300855Z AUTO 19008KT 10SM CLR M02/M06 A2977 940 75 -800 200/08 RMK AO2 T10171056
04847KADG ADG20160130040011001/30/16 04:00:31  5-MIN KADG 300900Z AUTO 19009KT 10SM CLR M02/M06 A2977 940 75 -800 200/09 RMK AO2 T10171056
04847KADG ADG20160130040511001/30/16 04:05:31  5-MIN KADG 300905Z AUTO 19009KT 10SM CLR M02/M06 A2977 940 75 -800 190/09 RMK AO2 T10171056
04847KADG ADG20160130041011001/30/16 04:10:31  5-MIN KADG 300910Z AUTO 20008KT 10SM CLR M02/M06 A2977 940 75 -800 200/08 RMK AO2 T10171056
04847KADG ADG20160130041511001/30/16 04:15:31  5-MIN KADG 300915Z AUTO 20008KT 10SM CLR M02/M06 A2977 940 75 -800 200/08 RMK AO2 T10171056
04847KADG ADG20160130042011001/30/16 04:20:31  5-MIN KADG 300920Z AUTO 20007KT 10SM CLR M02/M06 A2977 940 75 -800 200/07 RMK AO2 T10171056
04847KADG ADG20160130042511001/30/16 04:25:31  5-MIN KADG 300925Z AUTO 20007KT 10SM CLR M02/M06 A2977 940 75 -800 200/07 RMK AO2 T10171056
04847KADG ADG20160130043011001/30/16 04:30:31  5-MIN KADG 300930Z AUTO 20007KT 10SM CLR M02/M06 A2977 940 75 -800 200/07 RMK AO2 T10171056
04847KADG ADG20160130043511001/30/16 04:35:31  5-MIN KADG 300935Z AUTO 20009KT 10SM CLR M02/M06 A2976 940 75 -800 210/09 RMK AO2 T10171056
04847KADG ADG20160130044011001/30/16 04:40:31  5-MIN KADG 300940Z AUTO 20010KT 10SM CLR M01/M06 A2976 950 72 -700 200/10 RMK AO2 T10111056
04847KADG ADG20160130044511001/30/16 04:45:31  5-MIN KADG 300945Z AUTO 19011KT 10SM CLR M01/M06 A2975 960 72 -700 200/11 RMK AO2 T10111056
04847KADG ADG20160130045011701/30/16 04:50:31  5-MIN KADG 300950Z AUTO 20010KT 10SM CLR M01/M06 A2975 960 72 -700 200/10 RMK AO2 SLP084 T10111056
04847KADG ADG20160130045511001/30/16 04:55:31  5-MIN KADG 300955Z AUTO 19010KT 10SM CLR M01/M06 A2974 960 72 -700 200/10 RMK AO2 T10111056
04847KADG ADG20160130050011001/30/16 05:00:31  5-MIN KADG 301000Z AUTO 20010KT 10SM CLR M01/M06 A2974 970 72 -700 200/10 RMK AO2 T10111056
04847KADG ADG20160130050511001/30/16 05:05:31  5-MIN KADG 301005Z AUTO 20010KT 10SM CLR M01/M06 A2974 970 72 -700 210/10 RMK AO2 T10111056
04847KADG ADG20160130051011001/30/16 05:10:31  5-MIN KADG 301010Z AUTO 20010KT 10SM CLR M01/M06 A2974 970 72 -700 210/10 RMK AO2 T10111056
04847KADG ADG20160130051511001/30/16 05:15:31  5-MIN KADG 301015Z AUTO 20010KT 10SM CLR M01/M06 A2973 970 72 -700 210/10 RMK AO2 T10111056
04847KADG ADG20160130052011001/30/16 05:20:31  5-MIN KADG 301020Z AUTO 21011KT 10SM CLR M01/M06 A2973 970 72 -700 210/11 RMK AO2 T10111056
04847KADG ADG20160130052511001/30/16 05:25:31  5-MIN KADG 301025Z AUTO 21010KT 10SM CLR M01/M06 A2973 970 72 -700 210/10 RMK AO2 T10111056
04847KADG ADG20160130053011001/30/16 05:30:31  5-MIN KADG 301030Z AUTO 21011KT 10SM CLR M01/M06 A2973 970 72 -700 210/11 RMK AO2 T10111056
04847KADG ADG20160130053511001/30/16 05:35:31  5-MIN KADG 301035Z AUTO 21010KT 10SM CLR M01/M06 A2973 980 72 -700 220/10 RMK AO2 T10111056
04847KADG ADG20160130054011001/30/16 05:40:31  5-MIN KADG 301040Z AUTO 21011KT 10SM CLR M01/M06 A2973 970 72 -700 220/11 RMK AO2 T10111056
04847KADG ADG20160130054511001/30/16 05:45:31  5-MIN KADG 301045Z AUTO 21010KT 10SM CLR M01/M06 A2974 970 69 -600 220/10 RMK AO2 T10061056
04847KADG ADG20160130055011701/30/16 05:50:31  5-MIN KADG 301050Z AUTO 21011KT 10SM CLR M01/M06 A2973 970 69 -600 220/11 RMK AO2 SLP079 T10061056
04847KADG ADG20160130055511001/30/16 05:55:31  5-MIN KADG 301055Z AUTO 22011KT 10SM CLR M01/M05 A2973 970 75 -700 230/11 RMK AO2 T10111050
04847KADG ADG20160130060011001/30/16 06:00:31  5-MIN KADG 301100Z AUTO 22009KT 10SM CLR M01/M05 A2973 970 72 -600 230/09 RMK AO2 T10061050
04847KADG ADG20160130060511001/30/16 06:05:31  5-MIN KADG 301105Z AUTO 22009KT 10SM CLR M01/M05 A2973 980 75 -700 230/09 RMK AO2 T10111050
04847KADG ADG20160130061011001/30/16 06:10:31  5-MIN KADG 301110Z AUTO 21008KT 10SM CLR M01/M05 A2973 980 75 -700 220/08 RMK AO2 T10111050
04847KADG ADG20160130061511001/30/16 06:15:31  5-MIN KADG 301115Z AUTO 21008KT 10SM CLR M01/M05 A2973 980 75 -700 220/08 RMK AO2 T10111050
04847KADG ADG20160130062011001/30/16 06:20:31  5-MIN KADG 301120Z AUTO 21008KT 10SM CLR M01/M05 A2973 980 75 -700 220/08 RMK AO2 T10111050
04847KADG ADG20160130062511001/30/16 06:25:31  5-MIN KADG 301125Z AUTO 21009KT 10SM CLR M01/M05 A2973 980 75 -700 220/09 RMK AO2 T10111050
04847KADG ADG20160130063011001/30/16 06:30:31  5-MIN KADG 301130Z AUTO 21008KT 10SM CLR M01/M05 A2973 980 75 -700 220/08 RMK AO2 T10111050
04847KADG ADG20160130063511001/30/16 06:35:31  5-MIN KADG 301135Z AUTO 21009KT 10SM CLR M01/M05 A2972 980 75 -700 220/09 RMK AO2 T10111050
04847KADG ADG20160130064011001/30/16 06:40:31  5-MIN KADG 301140Z AUTO 21009KT 10SM CLR M01/M05 A2972 990 75 -700 210/09 RMK AO2 T10111050
04847KADG ADG20160130064511001/30/16 06:45:31  5-MIN KADG 301145Z AUTO 21009KT 10SM CLR M01/M05 A2972 990 75 -700 220/09 RMK AO2 T10111050
04847KADG ADG20160130065013501/30/16 06:50:31  5-MIN KADG 301150Z AUTO 22009KT 10SM CLR M01/M05 A2972 990 75 -700 230/09 RMK AO2 SLP076 T10111050 11006 21022 58018
04847KADG ADG20160130065511001/30/16 06:55:31  5-MIN KADG 301155Z AUTO 21009KT 10SM CLR M01/M05 A2972 990 75 -700 220/09 RMK AO2 T10111050
04847KADG ADG20160130070011001/30/16 07:00:31  5-MIN KADG 301200Z AUTO 21009KT 10SM CLR M01/M05 A2972 990 75 -700 220/09 RMK AO2 T10111050
04847KADG ADG20160130070511001/30/16 07:05:31  5-MIN KADG 301205Z AUTO 21008KT 10SM CLR M01/M05 A2972 990 75 -700 220/08 RMK AO2 T10111050
04847KADG ADG20160130171510801/30/16 17:15:31  5-MIN KADG 302215Z AUTO 25005KT 10SM CLR 07/01 A2970 1010 62 400 250/05 RMK AO2 T00720006
04847KADG ADG20160130172010801/30/16 17:20:31  5-MIN KADG 302220Z AUTO 25004KT 10SM CLR 07/01 A2970 1000 65 300 250/04 RMK AO2 T00670006
04847KADG ADG20160130172510801/30/16 17:25:31  5-MIN KADG 302225Z AUTO 25005KT 10SM CLR 07/01 A2970 1000 65 300 250/05 RMK AO2 T00670006
04847KADG ADG20160130173010801/30/16 17:30:31  5-MIN KADG 302230Z AUTO 25005KT 10SM CLR 07/01 A2970 1000 65 300 260/05 RMK AO2 T00670006
04847KADG ADG20160130173510801/30/16 17:35:31  5-MIN KADG 302235Z AUTO 24004KT 10SM CLR 07/01 A2970 1010 65 300 240/04 RMK AO2 T00670006
04847KADG ADG20160130174010801/30/16 17:40:31  5-MIN KADG 302240Z AUTO 23005KT 10SM CLR 06/01 A2970 1010 67 200 240/05 RMK AO2 T00610006
04847KADG ADG20160130174510801/30/16 17:45:31  5-MIN KADG 302245Z AUTO 23005KT 10SM CLR 06/01 A2970 1010 70 100 240/05 RMK AO2 T00560006
04847KADG ADG20160130175011501/30/16 17:50:31  5-MIN KADG 302250Z AUTO 24004KT 10SM CLR 06/01 A2970 1000 70 100 240/04 RMK AO2 SLP066 T00560006
04847KADG ADG20160130175510801/30/16 17:55:31  5-MIN KADG 302255Z AUTO 24003KT 10SM CLR 05/00 A2970 1000 70 100 250/03 RMK AO2 T00500000
04847KADG ADG20160130180010801/30/16 18:00:31  5-MIN KADG 302300Z AUTO 24003KT 10SM CLR 06/00 A2970 1000 67 100 250/03 RMK AO2 T00560000
04847KADG ADG20160130180510801/30/16 18:05:31  5-MIN KADG 302305Z AUTO 26004KT 10SM CLR 06/01 A2971 1000 70 100 260/04 RMK AO2 T00560006
04847KADG ADG20160130181010801/30/16 18:10:31  5-MIN KADG 302310Z AUTO 26004KT 10SM CLR 06/01 A2971 1000 67 200 260/04 RMK AO2 T00610006
04847KADG ADG20160130181510701/30/16 18:15:31  5-MIN KADG 302315Z AUTO 25004KT 10SM CLR 06/01 A2971 990 67 200 260/04 RMK AO2 T00610006
04847KADG ADG20160130182010701/30/16 18:20:31  5-MIN KADG 302320Z AUTO 26004KT 10SM CLR 06/01 A2972 980 67 200 270/04 RMK AO2 T00610006
04847KADG ADG20160130182510701/30/16 18:25:31  5-MIN KADG 302325Z AUTO 27003KT 10SM CLR 06/01 A2973 980 67 200 270/03 RMK AO2 T00610006
04847KADG ADG20160130183010701/30/16 18:30:31  5-MIN KADG 302330Z AUTO 27004KT 10SM CLR 06/01 A2973 980 67 200 270/04 RMK AO2 T00610006
04847KADG ADG20160130183510701/30/16 18:35:31  5-MIN KADG 302335Z AUTO 25003KT 10SM CLR 06/01 A2973 980 70 200 260/03 RMK AO2 T00610011
04847KADG ADG20160130184010701/30/16 18:40:31  5-MIN KADG 302340Z AUTO 25003KT 10SM CLR 06/01 A2973 980 70 200 250/03 RMK AO2 T00610011
04847KADG ADG20160130184510701/30/16 18:45:31  5-MIN KADG 302345Z AUTO 25003KT 10SM CLR 06/01 A2973 980 70 200 260/03 RMK AO2 T00610011
04847KADG ADG20160130185013201/30/16 18:50:31  5-MIN KADG 302350Z AUTO 24003KT 10SM CLR 06/01 A2973 980 70 200 250/03 RMK AO2 SLP075 T00610011 10100 20050 53003
04847KADG ADG20160130185510701/30/16 18:55:31  5-MIN KADG 302355Z AUTO 00000KT 10SM CLR 06/01 A2973 980 70 100 000/00 RMK AO2 T00560006
04847KADG ADG20160130190010701/30/16 19:00:31  5-MIN KADG 310000Z AUTO 24004KT 10SM CLR 06/01 A2973 980 73 100 240/04 RMK AO2 T00560011
04847KADG ADG20160130190510501/30/16 19:05:31  5-MIN KADG 310005Z AUTO 25003KT 10SM CLR 05/01 A2973 970 73 0 250/03 RMK AO2 T00500006
04847KADG ADG20160130191010501/30/16 19:10:31  5-MIN KADG 310010Z AUTO 25003KT 10SM CLR 04/01 A2974 970 76 0 260/03 RMK AO2 T00440006
04847KADG ADG20160130191510501/30/16 19:15:31  5-MIN KADG 310015Z AUTO 25003KT 10SM CLR 04/01 A2974 970 76 0 260/03 RMK AO2 T00440006
04847KADG ADG20160130192010501/30/16 19:20:31  5-MIN KADG 310020Z AUTO 26003KT 10SM CLR 04/01 A2974 970 79 0 270/03 RMK AO2 T00390006
04847KADG ADG20160130192510501/30/16 19:25:31  5-MIN KADG 310025Z AUTO 27003KT 10SM CLR 04/01 A2974 970 76 0 280/03 RMK AO2 T00440006
04847KADG ADG20160130193010801/30/16 19:30:31  5-MIN KADG 310030Z AUTO 27003KT 10SM CLR 03/00 A2974 970 79 -100 280/03 RMK AO2 T00330000
04847KADG ADG20160130193510801/30/16 19:35:31  5-MIN KADG 310035Z AUTO 25003KT 10SM CLR 04/00 A2974 970 76 -100 250/03 RMK AO2 T00390000
04847KADG ADG20160130194010801/30/16 19:40:31  5-MIN KADG 310040Z AUTO 25003KT 10SM CLR 03/00 A2974 970 82 -200 260/03 RMK AO2 T00280000
04847KADG ADG20160130194510901/30/16 19:45:31  5-MIN KADG 310045Z AUTO 23003KT 10SM CLR 02/M01 A2974 970 85 -300 240/03 RMK AO2 T00171006
04847KADG ADG20160130195011601/30/16 19:50:31  5-MIN KADG 310050Z AUTO 00000KT 10SM CLR 02/M01 A2974 970 85 -300 000/00 RMK AO2 SLP080 T00171006
04847KADG ADG20160130195510901/30/16 19:55:31  5-MIN KADG 310055Z AUTO 23003KT 10SM CLR 02/M01 A2974 970 82 -300 240/03 RMK AO2 T00221006
04847KADG ADG20160130200010901/30/16 20:00:31  5-MIN KADG 310100Z AUTO 23003KT 10SM CLR 02/M01 A2974 970 82 -300 230/03 RMK AO2 T00221006
04847KADG ADG20160130200510901/30/16 20:05:31  5-MIN KADG 310105Z AUTO 22003KT 10SM CLR 02/M01 A2974 970 85 -300 220/03 RMK AO2 T00171006
04847KADG ADG20160130201010901/30/16 20:10:31  5-MIN KADG 310110Z AUTO 22003KT 10SM CLR 02/M01 A2974 970 82 -300 230/03 RMK AO2 T00221006
04847KADG ADG20160130201510901/30/16 20:15:31  5-MIN KADG 310115Z AUTO 24003KT 10SM CLR 02/M01 A2974 970 82 -300 240/03 RMK AO2 T00221006
04847KADG ADG20160130202010801/30/16 20:20:31  5-MIN KADG 310120Z AUTO 00000KT 10SM CLR 03/00 A2974 970 82 -200 000/00 RMK AO2 T00280000
04847KADG ADG20160130202510901/30/16 20:25:31  5-MIN KADG 310125Z AUTO 00000KT 10SM CLR 02/M01 A2974 970 82 -300 000/00 RMK AO2 T00221006
04847KADG ADG20160130203010801/30/16 20:30:31  5-MIN KADG 310130Z AUTO 25003KT 10SM CLR 02/00 A2974 970 85 -300 260/03 RMK AO2 T00220000
04847KADG ADG20160130203510901/30/16 20:35:31  5-MIN KADG 310135Z AUTO 24003KT 10SM CLR 02/M01 A2974 970 82 -300 250/03 RMK AO2 T00221006
04847KADG ADG20160130204010801/30/16 20:40:31  5-MIN KADG 310140Z AUTO 25003KT 10SM CLR 02/00 A2974 970 85 -300 250/03 RMK AO2 T00220000
04847KADG ADG20160130204510901/30/16 20:45:31  5-MIN KADG 310145Z AUTO 25004KT 10SM CLR 02/M01 A2974 970 82 -300 260/04 RMK AO2 T00221006
04847KADG ADG20160130205011501/30/16 20:50:31  5-MIN KADG 310150Z AUTO 24003KT 10SM CLR 03/01 A2973 980 82 -100 240/03 RMK AO2 SLP077 T00330006
04847KADG ADG20160130205510901/30/16 20:55:31  5-MIN KADG 310155Z AUTO 23004KT 10SM CLR 01/M01 A2973 980 89 -400 240/04 RMK AO2 T00111006
04847KADG ADG20160130210010901/30/16 21:00:31  5-MIN KADG 310200Z AUTO 25003KT 10SM CLR 00/M02 A2974 970 88 -500 260/03 RMK AO2 T00001017
04847KADG ADG20160130210510901/30/16 21:05:31  5-MIN KADG 310205Z AUTO 25004KT 10SM CLR 01/M02 A2974 970 85 -500 260/04 RMK AO2 T00061017
04847KADG ADG20160130211010901/30/16 21:10:31  5-MIN KADG 310210Z AUTO 25005KT 10SM CLR 02/M01 A2974 970 85 -300 260/05 RMK AO2 T00171006
04847KADG ADG20160130211510801/30/16 21:15:31  5-MIN KADG 310215Z AUTO 26005KT 10SM CLR 03/01 A2974 970 82 -100 260/05 RMK AO2 T00330006
04847KADG ADG20160130212010801/30/16 21:20:31  5-MIN KADG 310220Z AUTO 26004KT 10SM CLR 03/01 A2974 960 82 -100 260/04 RMK AO2 T00330006
04847KADG ADG20160130212510501/30/16 21:25:31  5-MIN KADG 310225Z AUTO 26005KT 10SM CLR 04/01 A2974 960 76 0 260/05 RMK AO2 T00440006
04847KADG ADG20160130213010501/30/16 21:30:31  5-MIN KADG 310230Z AUTO 25005KT 10SM CLR 04/01 A2974 970 79 0 250/05 RMK AO2 T00440011
04847KADG ADG20160130213510501/30/16 21:35:31  5-MIN KADG 310235Z AUTO 25003KT 10SM CLR 04/01 A2974 970 79 0 250/03 RMK AO2 T00390006
04847KADG ADG20160130214010801/30/16 21:40:31  5-MIN KADG 310240Z AUTO 25004KT 10SM CLR 03/00 A2973 970 79 -100 250/04 RMK AO2 T00330000
04847KADG ADG20160130214510801/30/16 21:45:31  5-MIN KADG 310245Z AUTO 26005KT 10SM CLR 04/01 A2974 970 79 -100 260/05 RMK AO2 T00390006
04847KADG ADG20160130215012101/30/16 21:50:31  5-MIN KADG 310250Z AUTO 25005KT 10SM CLR 04/01 A2974 970 79 -100 260/05 RMK AO2 SLP077 T00390006 53020
04847KADG ADG20160130215510801/30/16 21:55:31  5-MIN KADG 310255Z AUTO 25005KT 10SM CLR 04/01 A2974 970 79 -100 260/05 RMK AO2 T00390006
04847KADG ADG20160130220010501/30/16 22:00:31  5-MIN KADG 310300Z AUTO 25005KT 10SM CLR 04/01 A2974 970 76 0 260/05 RMK AO2 T00440006
04847KADG ADG20160130220510801/30/16 22:05:31  5-MIN KADG 310305Z AUTO 26005KT 10SM CLR 04/01 A2974 970 79 -100 260/05 RMK AO2 T00390006
04847KADG ADG20160130221010801/30/16 22:10:31  5-MIN KADG 310310Z AUTO 26005KT 10SM CLR 04/01 A2974 970 79 -100 270/05 RMK AO2 T00390006
04847KADG ADG20160130221510801/30/16 22:15:31  5-MIN KADG 310315Z AUTO 24005KT 10SM CLR 04/01 A2974 970 79 -100 250/05 RMK AO2 T00390006
04847KADG ADG20160130222010501/30/16 22:20:31  5-MIN KADG 310320Z AUTO 25005KT 10SM CLR 04/01 A2973 970 79 0 260/05 RMK AO2 T00390006
04847KADG ADG20160130222510501/30/16 22:25:31  5-MIN KADG 310325Z AUTO 25005KT 10SM CLR 04/01 A2973 970 79 0 250/05 RMK AO2 T00390006
04847KADG ADG20160130223010501/30/16 22:30:31  5-MIN KADG 310330Z AUTO 25005KT 10SM CLR 04/01 A2973 970 79 0 260/05 RMK AO2 T00390006
04847KADG ADG20160130223510501/30/16 22:35:31  5-MIN KADG 310335Z AUTO 25004KT 10SM CLR 04/01 A2973 980 76 0 250/04 RMK AO2 T00440006
04847KADG ADG20160130224010501/30/16 22:40:31  5-MIN KADG 310340Z AUTO 25004KT 10SM CLR 04/01 A2973 970 76 0 260/04 RMK AO2 T00440006
04847KADG ADG20160130224510501/30/16 22:45:31  5-MIN KADG 310345Z AUTO 26004KT 10SM CLR 04/01 A2973 970 76 0 270/04 RMK AO2 T00440006
04847KADG ADG20160130225011201/30/16 22:50:31  5-MIN KADG 310350Z AUTO 26004KT 10SM CLR 04/01 A2973 980 76 0 260/04 RMK AO2 SLP074 T00440006
04847KADG ADG20160130225510501/30/16 22:55:31  5-MIN KADG 310355Z AUTO 25004KT 10SM CLR 04/01 A2973 980 79 0 260/04 RMK AO2 T00440011
04847KADG ADG20160130230010501/30/16 23:00:31  5-MIN KADG 310400Z AUTO 26004KT 10SM CLR 04/01 A2973 980 79 0 270/04 RMK AO2 T00440011
04847KADG ADG20160130230510501/30/16 23:05:31  5-MIN KADG 310405Z AUTO 26004KT 10SM CLR 04/01 A2973 980 79 0 270/04 RMK AO2 T00440011
04847KADG ADG20160130231010501/30/16 23:10:31  5-MIN KADG 310410Z AUTO 26004KT 10SM CLR 05/01 A2973 980 76 0 260/04 RMK AO2 T00500011
04847KADG ADG20160130231510501/30/16 23:15:31  5-MIN KADG 310415Z AUTO 25004KT 10SM CLR 05/01 A2973 980 76 0 250/04 RMK AO2 T00500011
04847KADG ADG20160130232010501/30/16 23:20:31  5-MIN KADG 310420Z AUTO 24004KT 10SM CLR 04/01 A2973 980 79 0 250/04 RMK AO2 T00440011
04847KADG ADG20160130232510501/30/16 23:25:31  5-MIN KADG 310425Z AUTO 24004KT 10SM CLR 04/01 A2973 980 79 0 250/04 RMK AO2 T00440011
04847KADG ADG20160130233010801/30/16 23:30:31  5-MIN KADG 310430Z AUTO 24003KT 10SM CLR 03/01 A2972 980 82 -100 250/03 RMK AO2 T00330006
04847KADG ADG20160130233510801/30/16 23:35:31  5-MIN KADG 310435Z AUTO 23003KT 10SM CLR 03/00 A2972 980 82 -200 240/03 RMK AO2 T00280000
04847KADG ADG20160130234010801/30/16 23:40:31  5-MIN KADG 310440Z AUTO 25003KT 10SM CLR 03/01 A2973 980 85 -200 250/03 RMK AO2 T00280006
04847KADG ADG20160130234510801/30/16 23:45:31  5-MIN KADG 310445Z AUTO 25003KT 10SM CLR 03/01 A2973 980 82 -100 260/03 RMK AO2 T00330006
04847KADG ADG20160130235012201/30/16 23:50:31  5-MIN KADG 310450Z AUTO 26004KT 10SM CLR 04/01 A2973 980 79 0 260/04 RMK AO2 SLP073 T00390006 401001022
04847KADG ADG20160130235510501/30/16 23:55:31  5-MIN KADG 310455Z AUTO 26005KT 10SM CLR 04/01 A2973 980 79 0 270/05 RMK AO2 T00390006
04847KADG ADG20160131000010501/31/16 00:00:31  5-MIN KADG 310500Z AUTO 26004KT 10SM CLR 04/01 A2973 980 82 0 270/04 RMK AO2 T00390011
04847KADG ADG20160131000510501/31/16 00:05:31  5-MIN KADG 310505Z AUTO 26004KT 10SM CLR 04/01 A2973 980 79 0 270/04 RMK AO2 T00440011
04847KADG ADG20160131001010501/31/16 00:10:31  5-MIN KADG 310510Z AUTO 26005KT 10SM CLR 04/01 A2972 980 79 0 270/05 RMK AO2 T00440011
04847KADG ADG20160131001510501/31/16 00:15:31  5-MIN KADG 310515Z AUTO 25005KT 10SM CLR 04/01 A2973 980 79 0 260/05 RMK AO2 T00440011
04847KADG ADG20160131002010501/31/16 00:20:31  5-MIN KADG 310520Z AUTO 25005KT 10SM CLR 04/01 A2972 980 79 0 260/05 RMK AO2 T00440011
04847KADG ADG20160131002510501/31/16 00:25:31  5-MIN KADG 310525Z AUTO 25005KT 10SM CLR 04/01 A2973 980 79 0 250/05 RMK AO2 T00440011
04847KADG ADG20160131003010501/31/16 00:30:31  5-MIN KADG 310530Z AUTO 25005KT 10SM CLR 04/01 A2972 980 79 0 250/05 RMK AO2 T00440011
04847KADG ADG20160131003510501/31/16 00:35:31  5-MIN KADG 310535Z AUTO 24005KT 10SM CLR 04/01 A2973 980 79 0 250/05 RMK AO2 T00440011
04847KADG ADG20160131004010801/31/16 00:40:31  5-MIN KADG 310540Z AUTO 24004KT 10SM FEW120 04/01 A2973 980 82 0 250/04 RMK AO2 T00390011
04847KADG ADG20160131004510801/31/16 00:45:31  5-MIN KADG 310545Z AUTO 24005KT 10SM SCT120 04/01 A2973 980 82 0 240/05 RMK AO2 T00390011
04847KADG ADG20160131005013301/31/16 00:50:31  5-MIN KADG 310550Z AUTO 24005KT 10SM BKN110 04/01 A2973 980 82 0 250/05 RMK AO2 SLP073 T00390011 10056 20000 51004
04847KADG ADG20160131005510801/31/16 00:55:31  5-MIN KADG 310555Z AUTO 24005KT 10SM BKN110 04/01 A2973 980 82 0 250/05 RMK AO2 T00390011
04847KADG ADG20160131010010801/31/16 01:00:31  5-MIN KADG 310600Z AUTO 24004KT 10SM BKN110 04/01 A2973 980 82 0 240/04 RMK AO2 T00390011
04847KADG ADG20160131010510801/31/16 01:05:31  5-MIN KADG 310605Z AUTO 23005KT 10SM OVC110 04/01 A2972 980 82 0 240/05 RMK AO2 T00390011
04847KADG ADG20160131011010801/31/16 01:10:31  5-MIN KADG 310610Z AUTO 24004KT 10SM OVC110 04/01 A2972 980 82 0 250/04 RMK AO2 T00390011
04847KADG ADG20160131011510801/31/16 01:15:31  5-MIN KADG 310615Z AUTO 24005KT 10SM OVC110 04/01 A2972 980 79 0 240/05 RMK AO2 T00440011
04847KADG ADG20160131012010801/31/16 01:20:31  5-MIN KADG 310620Z AUTO 24005KT 10SM OVC110 04/01 A2973 980 82 0 250/05 RMK AO2 T00390011
04847KADG ADG20160131012510801/31/16 01:25:31  5-MIN KADG 310625Z AUTO 23006KT 10SM OVC110 04/01 A2973 980 82 0 240/06 RMK AO2 T00390011
04847KADG ADG20160131013010801/31/16 01:30:31  5-MIN KADG 310630Z AUTO 24008KT 10SM OVC110 04/01 A2973 970 79 0 240/08 RMK AO2 T00440011
04847KADG ADG20160131013510801/31/16 01:35:31  5-MIN KADG 310635Z AUTO 24007KT 10SM OVC100 04/02 A2973 980 82 0 240/07 RMK AO2 T00440017
04847KADG ADG20160131014010801/31/16 01:40:31  5-MIN KADG 310640Z AUTO 23009KT 10SM OVC100 04/02 A2973 980 82 0 240/09 RMK AO2 T00440017
04847KADG ADG20160131014510801/31/16 01:45:31  5-MIN KADG 310645Z AUTO 24007KT 10SM BKN100 05/02 A2973 980 79 0 240/07 RMK AO2 T00500017
04847KADG ADG20160131015011501/31/16 01:50:31  5-MIN KADG 310650Z AUTO 24008KT 10SM BKN100 05/02 A2973 980 79 0 240/08 RMK AO2 SLP073 T00500017
04847KADG ADG20160131015511501/31/16 01:55:31  5-MIN KADG 310655Z AUTO 24007KT 10SM SCT100 BKN120 05/02 A2973 980 79 0 250/07 RMK AO2 T00500017
04847KADG ADG20160131020011501/31/16 02:00:31  5-MIN KADG 310700Z AUTO 24006KT 10SM FEW095 BKN120 04/02 A2973 980 82 0 250/06 RMK AO2 T00440017
04847KADG ADG20160131020511501/31/16 02:05:31  5-MIN KADG 310705Z AUTO 25005KT 10SM FEW090 BKN120 04/02 A2973 980 82 0 250/05 RMK AO2 T00440017
04847KADG ADG20160131021010801/31/16 02:10:31  5-MIN KADG 310710Z AUTO 25005KT 10SM BKN120 04/02 A2973 980 82 0 260/05 RMK AO2 T00440017
04847KADG ADG20160131021510801/31/16 02:15:31  5-MIN KADG 310715Z AUTO 26005KT 10SM BKN120 04/01 A2973 980 79 0 260/05 RMK AO2 T00440011
04847KADG ADG20160131022010801/31/16 02:20:31  5-MIN KADG 310720Z AUTO 24006KT 10SM OVC120 04/01 A2973 980 79 0 240/06 RMK AO2 T00440011
04847KADG ADG20160131022511501/31/16 02:25:31  5-MIN KADG 310725Z AUTO 25004KT 10SM SCT100 OVC120 04/01 A2973 980 79 0 260/04 RMK AO2 T00440011
04847KADG ADG20160131023011501/31/16 02:30:31  5-MIN KADG 310730Z AUTO 25005KT 10SM BKN100 OVC120 04/01 A2973 980 79 0 250/05 RMK AO2 T00440011
04847KADG ADG20160131023511501/31/16 02:35:31  5-MIN KADG 310735Z AUTO 24007KT 10SM BKN095 OVC120 04/01 A2973 980 79 0 240/07 RMK AO2 T00440011
04847KADG ADG20160131024011501/31/16 02:40:31  5-MIN KADG 310740Z AUTO 24005KT 10SM BKN085 OVC110 04/02 A2973 980 82 0 250/05 RMK AO2 T00440017
04847KADG ADG20160131024511501/31/16 02:45:31  5-MIN KADG 310745Z AUTO 24006KT 10SM SCT080 OVC100 04/01 A2973 980 79 0 240/06 RMK AO2 T00440011
04847KADG ADG20160131025012201/31/16 02:50:31  5-MIN KADG 310750Z AUTO 25005KT 10SM BKN090 OVC110 04/01 A2973 980 79 0 250/05 RMK AO2 SLP072 T00440011
04847KADG ADG20160131025511501/31/16 02:55:31  5-MIN KADG 310755Z AUTO 25005KT 10SM SCT090 OVC110 04/02 A2973 980 82 0 250/05 RMK AO2 T00440017
04847KADG ADG20160131030011501/31/16 03:00:31  5-MIN KADG 310800Z AUTO 24004KT 10SM SCT090 OVC110 04/01 A2972 980 79 0 250/04 RMK AO2 T00440011
04847KADG ADG20160131030511501/31/16 03:05:31  5-MIN KADG 310805Z AUTO 25005KT 10SM FEW080 OVC100 04/01 A2972 980 79 0 260/05 RMK AO2 T00440011
04847KADG ADG20160131031010801/31/16 03:10:31  5-MIN KADG 310810Z AUTO 26004KT 10SM OVC100 04/02 A2972 980 82 0 260/04 RMK AO2 T00440017
04847KADG ADG20160131031512201/31/16 03:15:31  5-MIN KADG 310815Z AUTO 25004KT 10SM FEW055 BKN090 OVC110 04/02 A2972 980 82 0 260/04 RMK AO2 T00440017
04847KADG ADG20160131032012201/31/16 03:20:31  5-MIN KADG 310820Z AUTO 25005KT 10SM FEW055 BKN095 OVC110 04/02 A2972 990 82 0 260/05 RMK AO2 T00440017
04847KADG ADG20160131032512201/31/16 03:25:31  5-MIN KADG 310825Z AUTO 25005KT 10SM FEW055 BKN095 BKN110 04/02 A2972 980 82 0 250/05 RMK AO2 T00440017
04847KADG ADG20160131033012201/31/16 03:30:31  5-MIN KADG 310830Z AUTO 25005KT 10SM FEW055 SCT095 BKN110 04/02 A2972 990 82 0 260/05 RMK AO2 T00440017
04847KADG ADG20160131033512201/31/16 03:35:31  5-MIN KADG 310835Z AUTO 25005KT 10SM FEW055 SCT090 SCT110 04/02 A2972 990 82 0 260/05 RMK AO2 T00440017
04847KADG ADG20160131034012201/31/16 03:40:31  5-MIN KADG 310840Z AUTO 24005KT 10SM FEW055 FEW095 SCT110 04/02 A2972 990 82 0 250/05 RMK AO2 T00440017
04847KADG ADG20160131034510801/31/16 03:45:31  5-MIN KADG 310845Z AUTO 25005KT 10SM FEW110 04/01 A2971 990 79 0 260/05 RMK AO2 T00440011
04847KADG ADG20160131035011901/31/16 03:50:31  5-MIN KADG 310850Z AUTO 26004KT 10SM CLR 04/01 A2971 1000 82 0 270/04 RMK AO2 SLP065 T00390011 55003
04847KADG ADG20160131035510601/31/16 03:55:31  5-MIN KADG 310855Z AUTO 24003KT 10SM CLR 04/01 A2971 1000 79 0 250/03 RMK AO2 T00440011
04847KADG ADG20160131040010601/31/16 04:00:31  5-MIN KADG 310900Z AUTO 25004KT 10SM CLR 04/02 A2971 1000 82 0 250/04 RMK AO2 T00440017
04847KADG ADG20160131040510601/31/16 04:05:31  5-MIN KADG 310905Z AUTO 26003KT 10SM CLR 04/01 A2970 1000 82 0 270/03 RMK AO2 T00390011
04847KADG ADG20160131041010601/31/16 04:10:31  5-MIN KADG 310910Z AUTO 25004KT 10SM CLR 04/01 A2970 1000 79 0 260/04 RMK AO2 T00440011
04847KADG ADG20160131041510601/31/16 04:15:31  5-MIN KADG 310915Z AUTO 24003KT 10SM CLR 04/02 A2970 1000 82 0 250/03 RMK AO2 T00440017
04847KADG ADG20160131042010601/31/16 04:20:31  5-MIN KADG 310920Z AUTO 23004KT 10SM CLR 04/01 A2970 1010 82 0 240/04 RMK AO2 T00390011
04847KADG ADG20160131042510901/31/16 04:25:31  5-MIN KADG 310925Z AUTO 22004KT 10SM CLR 03/01 A2969 1010 85 -100 220/04 RMK AO2 T00330011
04847KADG ADG20160131043010901/31/16 04:30:31  5-MIN KADG 310930Z AUTO 22005KT 10SM CLR 03/01 A2970 1010 89 -100 220/05 RMK AO2 T00280011
04847KADG ADG20160131043510901/31/16 04:35:31  5-MIN KADG 310935Z AUTO 22005KT 10SM CLR 02/01 A2970 1000 89 -200 220/05 RMK AO2 T00220006
04847KADG ADG20160131044010901/31/16 04:40:31  5-MIN KADG 310940Z AUTO 23007KT 10SM CLR 03/01 A2970 1000 85 -200 230/07 RMK AO2 T00280006
04847KADG ADG20160131044510901/31/16 04:45:31  5-MIN KADG 310945Z AUTO 23005KT 10SM CLR 03/01 A2970 1010 85 -100 240/05 RMK AO2 T00330011
04847KADG ADG20160131045011301/31/16 04:50:31  5-MIN KADG 310950Z AUTO 24004KT 10SM CLR 04/01 A2970 1000 82 0 240/04 RMK AO2 SLP064 T00390011
04847KADG ADG20160131045510601/31/16 04:55:31  5-MIN KADG 310955Z AUTO 24003KT 10SM CLR 04/01 A2970 1000 82 0 250/03 RMK AO2 T00390011
04847KADG ADG20160131050010901/31/16 05:00:31  5-MIN KADG 311000Z AUTO 23006KT 10SM CLR 03/01 A2970 1000 85 -100 230/06 RMK AO2 T00330011
04847KADG ADG20160131050510901/31/16 05:05:31  5-MIN KADG 311005Z AUTO 23008KT 10SM CLR 03/01 A2971 1000 89 -200 230/08 RMK AO2 T00280011
04847KADG ADG20160131051010501/31/16 05:10:31  5-MIN KADG 311010Z AUTO 23009KT 10SM CLR 04/02 A2971 990 82 0 240/09 RMK AO2 T00440017
04847KADG ADG20160131151511101/31/16 15:15:31  5-MIN KADG 312015Z AUTO 22014KT 9SM OVC019 11/08 A2952 1170 83 1000 230/14 RMK AO2 T01110083
04847KADG ADG20160131152011101/31/16 15:20:31  5-MIN KADG 312020Z AUTO 22013KT 7SM OVC018 11/08 A2952 1170 83 1000 220/13 RMK AO2 T01110083
04847KADG ADG20160131152512701/31/16 15:25:31  5-MIN KADG 312025Z AUTO 22013KT 6SM -RA OVC018 11/08 A2952 1170 83 1000 220/13 RMK AO2 RAB24 P0000 T01110083
04847KADG ADG20160131153013001/31/16 15:30:31  5-MIN KADG 312030Z AUTO 22014KT 5SM -RA BR OVC018 11/08 A2952 1170 86 1000 230/14 RMK AO2 RAB24 P0000 T01060083
04847KADG ADG20160131153512901/31/16 15:35:31  5-MIN KADG 312035Z AUTO 22012KT 5SM BR OVC017 11/09 A2952 1170 89 1000 230/12 RMK AO2 RAB24E33 P0000 T01060089
04847KADG ADG20160131154012901/31/16 15:40:31  5-MIN KADG 312040Z AUTO 22012KT 6SM BR OVC015 11/09 A2952 1170 89 1000 230/12 RMK AO2 RAB24E33 P0000 T01060089
04847KADG ADG20160131154512901/31/16 15:45:31  5-MIN KADG 312045Z AUTO 23012KT 6SM BR OVC015 11/09 A2952 1170 89 1000 230/12 RMK AO2 RAB24E33 P0000 T01060089
04847KADG ADG20160131155014801/31/16 15:50:31  5-MIN KADG 312050Z AUTO 22012KT 6SM BR OVC015 11/09 A2952 1170 89 1000 230/12 RMK AO2 RAB24E33 SLP002 P0000 60000 T01060089 58032
04847KADG ADG20160131155511101/31/16 15:55:31  5-MIN KADG 312055Z AUTO 22011KT 8SM OVC015 11/09 A2952 1170 89 1000 230/11 RMK AO2 T01060089
04847KADG ADG20160131160011101/31/16 16:00:31  5-MIN KADG 312100Z AUTO 22010KT 9SM OVC015 11/09 A2952 1170 89 1000 230/10 RMK AO2 T01060089
04847KADG ADG20160131160511101/31/16 16:05:31  5-MIN KADG 312105Z AUTO 23011KT 9SM OVC017 11/09 A2953 1170 89 1000 230/11 RMK AO2 T01060089
04847KADG ADG20160131161011101/31/16 16:10:31  5-MIN KADG 312110Z AUTO 23010KT 7SM OVC017 11/09 A2952 1170 89 1000 230/10 RMK AO2 T01060089
04847KADG ADG20160131161511001/31/16 16:15:31  5-MIN KADG 312115Z AUTO 22010KT 7SM OVC017 10/09 A2952 1170 93 900 230/10 RMK AO2 T01000089
04847KADG ADG20160131162011701/31/16 16:20:31  5-MIN KADG 312120Z AUTO 22011KT 9SM BKN017 OVC023 10/09 A2952 1170 93 900 230/11 RMK AO2 T01000089
04847KADG ADG20160131162511101/31/16 16:25:31  5-MIN KADG 312125Z AUTO 22009KT 10SM OVC020 11/08 A2953 1170 86 900 230/09 RMK AO2 T01060083
04847KADG ADG20160131163011701/31/16 16:30:31  5-MIN KADG 312130Z AUTO 24007KT 9SM BKN017 OVC022 11/08 A2953 1160 86 900 250/07 RMK AO2 T01060083
04847KADG ADG20160131163513301/31/16 16:35:31  5-MIN KADG 312135Z AUTO 24009KT 8SM -RA BKN017 OVC022 11/08 A2953 1160 86 900 240/09 RMK AO2 RAB31 P0000 T01060083
04847KADG ADG20160131164013301/31/16 16:40:31  5-MIN KADG 312140Z AUTO 22011KT 7SM -RA BKN017 OVC022 10/08 A2953 1170 89 900 230/11 RMK AO2 RAB31 P0000 T01000083
04847KADG ADG20160131164513601/31/16 16:45:31  5-MIN KADG 312145Z AUTO 24007KT 6SM -RA BR BKN017 OVC022 10/08 A2954 1160 89 900 250/07 RMK AO2 RAB31 P0000 T01000083
04847KADG ADG20160131165015001/31/16 16:50:31  5-MIN KADG 312150Z AUTO 23011KT 6SM -RA BR BKN017 BKN023 OVC029 10/08 A2953 1160 89 900 230/11 RMK AO2 RAB31 SLP006 P0000 T01000083
04847KADG ADG20160131165513401/31/16 16:55:31  5-MIN KADG 312155Z AUTO 22013KT 7SM -RA SCT016 BKN023 OVC029 10/08 A2954 1160 89 900 230/13 RMK AO2 P0000 T01000083
04847KADG ADG20160131170012701/31/16 17:00:31  5-MIN KADG 312200Z AUTO 23010KT 7SM -RA BKN019 OVC026 10/08 A2954 1160 89 900 230/10 RMK AO2 P0000 T01000083
04847KADG ADG20160131170513701/31/16 17:05:31  5-MIN KADG 312205Z AUTO 22012KT 6SM -RA BR SCT017 BKN024 OVC029 10/08 A2954 1160 89 900 230/12 RMK AO2 P0000 T01000083
04847KADG ADG20160131171013001/31/16 17:10:31  5-MIN KADG 312210Z AUTO 23011KT 6SM -RA BR SCT018 OVC022 10/08 A2954 1150 89 900 230/11 RMK AO2 P0000 T01000083
04847KADG ADG20160131171513001/31/16 17:15:31  5-MIN KADG 312215Z AUTO 22012KT 6SM -RA BR BKN021 OVC034 10/08 A2954 1150 89 900 220/12 RMK AO2 P0000 T01000083
04847KADG ADG20160131172013401/31/16 17:20:31  5-MIN KADG 312220Z AUTO 22012KT 7SM -RA SCT019 BKN025 OVC034 10/08 A2954 1150 89 900 220/12 RMK AO2 P0000 T01000083
04847KADG ADG20160131172513701/31/16 17:25:31  5-MIN KADG 312225Z AUTO 22013KT 10SM FEW019 BKN025 OVC036 10/08 A2954 1160 89 900 220/13 RMK AO2 RAE24 P0000 T01000083
04847KADG ADG20160131173013701/31/16 17:30:31  5-MIN KADG 312230Z AUTO 22014KT 10SM FEW019 SCT025 OVC036 10/08 A2954 1160 89 900 220/14 RMK AO2 RAE24 P0000 T01000083
04847KADG ADG20160131173513701/31/16 17:35:31  5-MIN KADG 312235Z AUTO 22014KT 10SM FEW021 BKN036 OVC060 10/08 A2954 1160 89 900 220/14 RMK AO2 RAE24 P0000 T01000083
04847KADG ADG20160131174013701/31/16 17:40:31  5-MIN KADG 312240Z AUTO 22014KT 10SM FEW021 BKN036 OVC070 10/08 A2954 1160 89 900 230/14 RMK AO2 RAE24 P0000 T01000083
04847KADG ADG20160131174514301/31/16 17:45:31  5-MIN KADG 312245Z AUTO 22013KT 9SM -RA FEW024 BKN042 OVC070 10/08 A2954 1160 89 900 230/13 RMK AO2 RAE24B45 P0000 T01000083
04847KADG ADG20160131175015001/31/16 17:50:31  5-MIN KADG 312250Z AUTO 22014KT 9SM -RA SCT033 BKN042 OVC060 10/08 A2954 1160 89 900 230/14 RMK AO2 RAE24B45 SLP007 P0000 T01000083
04847KADG ADG20160131175513501/31/16 17:55:31  5-MIN KADG 312255Z AUTO 22014KT 10SM -RA BKN033 BKN042 OVC050 10/08 A2954 1160 89 900 230/14 RMK AO2 P0000 T01000083
04847KADG ADG20160131180013401/31/16 18:00:31  5-MIN KADG 312300Z AUTO 22013KT 9SM -RA SCT030 BKN034 OVC055 11/09 A2953 1160 89 900 230/13 RMK AO2 P0000 T01060089
04847KADG ADG20160131180513401/31/16 18:05:31  5-MIN KADG 312305Z AUTO 22014KT 9SM -RA FEW025 BKN031 OVC050 11/09 A2954 1160 89 900 230/14 RMK AO2 P0000 T01060089
04847KADG ADG20160131181013401/31/16 18:10:31  5-MIN KADG 312310Z AUTO 22015KT 9SM -RA SCT025 BKN030 OVC041 11/09 A2953 1160 89 900 230/15 RMK AO2 P0000 T01060089
04847KADG ADG20160131181513401/31/16 18:15:31  5-MIN KADG 312315Z AUTO 23015KT 9SM -RA BKN025 BKN030 OVC039 11/09 A2953 1160 89 900 230/15 RMK AO2 P0000 T01060089
04847KADG ADG20160131182012701/31/16 18:20:31  5-MIN KADG 312320Z AUTO 23015KT 9SM -RA BKN025 OVC034 11/09 A2953 1160 89 900 230/15 RMK AO2 P0000 T01060089
04847KADG ADG20160131182512701/31/16 18:25:31  5-MIN KADG 312325Z AUTO 23015KT 9SM -RA BKN025 OVC034 11/09 A2954 1160 89 900 240/15 RMK AO2 P0000 T01060089
04847KADG ADG20160131183013701/31/16 18:30:31  5-MIN KADG 312330Z AUTO 23014KT 6SM -RA BR BKN025 BKN030 OVC038 11/09 A2953 1160 89 900 230/14 RMK AO2 P0000 T01060089
04847KADG ADG20160131183513001/31/16 18:35:31  5-MIN KADG 312335Z AUTO 23014KT 5SM -RA BR BKN026 OVC038 11/09 A2953 1160 89 900 230/14 RMK AO2 P0000 T01060089
04847KADG ADG20160131184013701/31/16 18:40:31  5-MIN KADG 312340Z AUTO 23012KT 6SM -RA BR BKN026 BKN030 OVC040 10/09 A2953 1160 93 900 230/12 RMK AO2 P0000 T01000089
04847KADG ADG20160131184513001/31/16 18:45:31  5-MIN KADG 312345Z AUTO 23013KT 6SM -RA BR BKN026 OVC030 11/09 A2954 1160 89 900 240/13 RMK AO2 P0000 T01060089
04847KADG ADG20160131185016101/31/16 18:50:31  5-MIN KADG 312350Z AUTO 23014KT 5SM -RA BR BKN024 OVC030 10/09 A2953 1160 93 900 230/14 RMK AO2 SLP006 P0000 60000 T01000089 10122 20100 56015
04847KADG ADG20160131185513001/31/16 18:55:31  5-MIN KADG 312355Z AUTO 23012KT 6SM -RA BR BKN022 OVC030 10/09 A2953 1160 93 900 240/12 RMK AO2 P0000 T01000089
04847KADG ADG20160131190012701/31/16 19:00:31  5-MIN KADG 010000Z AUTO 23013KT 8SM -RA BKN024 OVC041 10/09 A2953 1160 93 900 240/13 RMK AO2 P0000 T01000089
04847KADG ADG20160131190512701/31/16 19:05:31  5-MIN KADG 010005Z AUTO 24012KT 8SM -RA BKN024 OVC041 11/09 A2953 1160 89 900 240/12 RMK AO2 P0000 T01060089
04847KADG ADG20160131191012701/31/16 19:10:31  5-MIN KADG 010010Z AUTO 24010KT 9SM -RA BKN024 OVC029 11/09 A2953 1160 89 900 250/10 RMK AO2 P0000 T01060089
04847KADG ADG20160131191512001/31/16 19:15:31  5-MIN KADG 010015Z AUTO 25007KT 9SM -RA OVC024 10/09 A2954 1150 93 900 260/07 RMK AO2 P0000 T01000089
04847KADG ADG20160131192013001/31/16 19:20:31  5-MIN KADG 010020Z AUTO 29009KT 5SM -RA BR FEW017 OVC023 10/09 A2955 1150 93 900 290/09 RMK AO2 P0001 T01000089
04847KADG ADG20160131192513001/31/16 19:25:31  5-MIN KADG 010025Z AUTO 26009KT 4SM -RA BR FEW012 OVC023 10/09 A2955 1140 93 900 270/09 RMK AO2 P0002 T01000089
04847KADG ADG20160131193014301/31/16 19:30:31  5-MIN KADG 010030Z AUTO 26011G16KT 4SM -RA BR FEW012 BKN023 OVC029 10/09 A2955 1140 93 900 270/11G16 RMK AO2 P0003 T01000089
04847KADG ADG20160131193513701/31/16 19:35:31  5-MIN KADG 010035Z AUTO 26009KT 4SM -RA BR FEW012 BKN023 OVC043 10/09 A2955 1140 93 900 260/09 RMK AO2 P0003 T01000089
04847KADG ADG20160131194014301/31/16 19:40:31  5-MIN KADG 010040Z AUTO 25012G21KT 5SM -RA BR FEW012 BKN023 OVC047 11/09 A2955 1150 89 900 260/12G21 RMK AO2 P0003 T01060089
04847KADG ADG20160131194514001/31/16 19:45:31  5-MIN KADG 010045Z AUTO 24010G21KT 8SM -RA FEW012 BKN025 OVC080 11/09 A2955 1150 89 900 250/10G21 RMK AO2 P0003 T01060089
04847KADG ADG20160131195012701/31/16 19:50:31  5-MIN KADG 010050Z AUTO 24010KT 10SM FEW012 BKN041 OVC080 11/09 A2955 1150 89 900 250/10 RMK AO2 RAE49 P0003
04847KADG ADG20160131195513101/31/16 19:55:31  5-MIN KADG 010055Z AUTO 26015G23KT 10SM SCT020 BKN026 OVC080 11/09 A2955 1150 89 900 260/15G23 RMK AO2 T01060089
04847KADG ADG20160131200014801/31/16 20:00:31  5-MIN KADG 010100Z AUTO 26012G23KT 8SM -RA SCT020 BKN026 OVC080 11/09 A2955 1140 89 900 260/12G23 RMK AO2 RAB0056 P0000 T01060089
04847KADG ADG20160131200514801/31/16 20:05:31  5-MIN KADG 010105Z AUTO 26012G20KT 7SM -RA SCT017 BKN024 OVC080 11/09 A2956 1140 93 900 270/12G20 RMK AO2 RAB0056 P0000 T01060094
04847KADG ADG20160131201014201/31/16 20:10:31  5-MIN KADG 010110Z AUTO 27010KT 7SM -RA FEW010 BKN017 OVC075 11/09 A2956 1130 93 900 280/10 RMK AO2 RAB0056 P0000 T01060094
04847KADG ADG20160131201514801/31/16 20:15:31  5-MIN KADG 010115Z AUTO 27012G17KT 7SM -RA SCT010 BKN017 OVC022 11/09 A2956 1130 93 900 280/12G17 RMK AO2 RAB0056 P0000 T01060094
04847KADG ADG20160131202014501/31/16 20:20:31  5-MIN KADG 010120Z AUTO 26012KT 6SM -RA BR SCT010 BKN017 OVC022 11/09 A2956 1130 93 900 270/12 RMK AO2 RAB0056 P0000 T01060094
04847KADG ADG20160131202513801/31/16 20:25:31  5-MIN KADG 010125Z AUTO 26011KT 5SM -RA BR SCT010 OVC017 11/09 A2956 1130 93 900 270/11 RMK AO2 RAB0056 P0000 T01060094
04847KADG ADG20160131203015701/31/16 20:30:31  5-MIN KADG 010130Z AUTO 26010KT 5SM -RA BR BKN010 BKN016 OVC030 10/09 A2957 1130 96 800 270/10 RMK AO2 RAB0056 CIG 007V012 P0000 T01000094
04847KADG ADG20160131203515701/31/16 20:35:31  5-MIN KADG 010135Z AUTO 26010KT 5SM -RA BR BKN009 BKN016 OVC038 10/09 A2957 1130 96 800 270/10 RMK AO2 RAB0056 CIG 007V012 P0000 T01000094
04847KADG ADG20160131204014201/31/16 20:40:31  5-MIN KADG 010140Z AUTO 27008KT 7SM -RA SCT009 BKN016 OVC045 10/09 A2957 1120 96 800 270/08 RMK AO2 RAB0056 P0000 T01000094
04847KADG ADG20160131204514201/31/16 20:45:31  5-MIN KADG 010145Z AUTO 27012KT 9SM -RA SCT009 BKN028 OVC047 10/09 A2957 1120 93 800 280/12 RMK AO2 RAB0056 P0000 T01000089
04847KADG ADG20160131205015601/31/16 20:50:31  5-MIN KADG 010150Z AUTO 28010G18KT 10SM -RA FEW008 BKN028 OVC047 10/09 A2958 1120 93 800 290/10G18 RMK AO2 RAB0056 SLP021 P0000 T01000089
04847KADG ADG20160131205514301/31/16 20:55:31  5-MIN KADG 010155Z AUTO 29014G18KT 10SM FEW010 BKN026 OVC055 10/09 A2958 1110 93 800 290/14G18 RMK AO2 RAE54 P0000 T01000089
04847KADG ADG20160131210013901/31/16 21:00:31  5-MIN KADG 010200Z AUTO 29012KT 10SM FEW008 BKN045 OVC055 10/08 A2959 1110 89 800 300/12 RMK AO2 RAE0154 P0000 T01000083
04847KADG ADG20160131210513901/31/16 21:05:31  5-MIN KADG 010205Z AUTO 29012KT 10SM SCT014 BKN045 OVC055 10/08 A2959 1110 89 800 300/12 RMK AO2 RAE0154 P0000 T01000083
04847KADG ADG20160131211014501/31/16 21:10:31  5-MIN KADG 010210Z AUTO 30014G20KT 10SM SCT014 BKN050 OVC065 10/08 A2959 1110 86 800 300/14G20 RMK AO2 RAE0154 P0000 T01000078
04847KADG ADG20160131211514501/31/16 21:15:31  5-MIN KADG 010215Z AUTO 29014G21KT 10SM SCT014 BKN049 OVC065 09/07 A2959 1100 86 700 300/14G21 RMK AO2 RAE0154 P0000 T00940072
04847KADG ADG20160131212014501/31/16 21:20:31  5-MIN KADG 010220Z AUTO 29012G21KT 10SM SCT016 BKN049 OVC070 09/07 A2959 1100 86 700 300/12G21 RMK AO2 RAE0154 P0000 T00940072
04847KADG ADG20160131212513201/31/16 21:25:31  5-MIN KADG 010225Z AUTO 29009KT 10SM SCT016 OVC065 09/07 A2960 1100 89 700 300/09 RMK AO2 RAE0154 P0000 T00890072
04847KADG ADG20160131213013901/31/16 21:30:31  5-MIN KADG 010230Z AUTO 29009KT 10SM SCT016 SCT055 OVC070 09/07 A2960 1100 89 700 300/09 RMK AO2 RAE0154 P0000 T00890072
04847KADG ADG20160131213513201/31/16 21:35:31  5-MIN KADG 010235Z AUTO 29011KT 10SM SCT016 OVC070 09/07 A2960 1090 86 700 290/11 RMK AO2 RAE0154 P0000 T00890067
04847KADG ADG20160131214013201/31/16 21:40:31  5-MIN KADG 010240Z AUTO 29012KT 10SM BKN016 OVC070 09/07 A2961 1090 86 700 290/12 RMK AO2 RAE0154 P0000 T00890067
04847KADG ADG20160131214513901/31/16 21:45:31  5-MIN KADG 010245Z AUTO 29012KT 10SM BKN017 BKN070 OVC080 09/07 A2961 1080 86 700 290/12 RMK AO2 RAE0154 P0000 T00890067
04847KADG ADG20160131215015701/31/16 21:50:31  5-MIN KADG 010250Z AUTO 29012G21KT 10SM BKN017 OVC070 09/07 A2961 1090 86 700 300/12G21 RMK AO2 RAE0154 SLP033 P0000 60003 T00890067 50004
04847KADG ADG20160131215512401/31/16 21:55:31  5-MIN KADG 010255Z AUTO 29010G21KT 10SM BKN017 OVC075 08/06 A2962 1080 86 600 290/10G21 RMK AO2 T00830061
04847KADG ADG20160131220011801/31/16 22:00:31  5-MIN KADG 010300Z AUTO 28009KT 10SM BKN017 OVC022 08/06 A2962 1080 86 600 290/09 RMK AO2 T00830061
04847KADG ADG20160131220511101/31/16 22:05:31  5-MIN KADG 010305Z AUTO 29008KT 10SM OVC017 08/06 A2962 1080 86 600 290/08 RMK AO2 T00830061
04847KADG ADG20160131221011001/31/16 22:10:31  5-MIN KADG 010310Z AUTO 30007KT 9SM OVC017 08/06 A2962 1080 86 600 310/07 RMK AO2 T00830061
04847KADG ADG20160131221512301/31/16 22:15:31  5-MIN KADG 010315Z AUTO 30011G20KT 9SM BKN016 OVC023 08/06 A2963 1070 89 500 300/11G20 RMK AO2 T00780061
04847KADG ADG20160131222013001/31/16 22:20:31  5-MIN KADG 010320Z AUTO 30013G20KT 9SM BKN014 BKN023 OVC029 08/06 A2963 1070 89 500 300/13G20 RMK AO2 T00780061
04847KADG ADG20160131222513101/31/16 22:25:31  5-MIN KADG 010325Z AUTO 29013G21KT 10SM SCT016 BKN023 OVC029 08/06 A2964 1060 86 500 300/13G21 RMK AO2 T00780056
04847KADG ADG20160131223013801/31/16 22:30:31  5-MIN KADG 010330Z AUTO 30015G25KT 10SM FEW014 BKN020 OVC029 08/05 A2965 1060 82 500 300/15G25 RMK AO2 PRESRR T00780050
04847KADG ADG20160131223513101/31/16 22:35:31  5-MIN KADG 010335Z AUTO 30017G25KT 10SM FEW014 BKN022 OVC029 08/05 A2965 1060 82 500 310/17G25 RMK AO2 T00780050
04847KADG ADG20160131224013101/31/16 22:40:31  5-MIN KADG 010340Z AUTO 30017G24KT 10SM FEW014 BKN022 OVC029 08/05 A2965 1050 82 500 310/17G24 RMK AO2 T00780050
04847KADG ADG20160131224512401/31/16 22:45:31  5-MIN KADG 010345Z AUTO 30015G23KT 10SM BKN022 OVC029 08/05 A2964 1060 82 500 300/15G23 RMK AO2 T00780050
04847KADG ADG20160131225013801/31/16 22:50:31  5-MIN KADG 010350Z AUTO 30017G23KT 10SM BKN018 BKN023 OVC029 07/05 A2964 1060 86 400 310/17G23 RMK AO2 SLP043 T00720050
04847KADG ADG20160131225512401/31/16 22:55:31  5-MIN KADG 010355Z AUTO 30014G21KT 10SM BKN018 OVC023 07/05 A2965 1050 86 400 300/14G21 RMK AO2 T00720050
04847KADG ADG20160131230012401/31/16 23:00:31  5-MIN KADG 010400Z AUTO 30014G20KT 10SM BKN018 OVC023 07/05 A2965 1050 86 400 300/14G20 RMK AO2 T00720050
04847KADG ADG20160131230511701/31/16 23:05:31  5-MIN KADG 010405Z AUTO 30016G25KT 10SM OVC019 07/04 A2966 1040 82 400 310/16G25 RMK AO2 T00720044
04847KADG ADG20160131231011701/31/16 23:10:31  5-MIN KADG 010410Z AUTO 30018G25KT 10SM OVC019 07/04 A2966 1040 82 300 310/18G25 RMK AO2 T00670039
04847KADG ADG20160131231512401/31/16 23:15:31  5-MIN KADG 010415Z AUTO 30018G25KT 10SM BKN019 OVC024 07/04 A2967 1040 82 300 310/18G25 RMK AO2 T00670039
04847KADG ADG20160131232014201/31/16 23:20:31  5-MIN KADG 010420Z AUTO 30021G26KT 10SM BKN019 OVC024 07/04 A2967 1030 82 300 310/21G26 RMK AO2 PK WND 30026/0420 T00670039
04847KADG ADG20160131232514201/31/16 23:25:31  5-MIN KADG 010425Z AUTO 30017G26KT 10SM BKN019 OVC023 07/03 A2968 1030 79 300 310/17G26 RMK AO2 PK WND 30026/0420 T00670033
04847KADG ADG20160131233014201/31/16 23:30:31  5-MIN KADG 010430Z AUTO 30015G25KT 10SM BKN017 OVC023 06/03 A2967 1030 82 200 300/15G25 RMK AO2 PK WND 30026/0420 T00610033
04847KADG ADG20160131233514201/31/16 23:35:31  5-MIN KADG 010435Z AUTO 31016G23KT 10SM BKN017 OVC023 06/03 A2968 1030 82 200 310/16G23 RMK AO2 PK WND 30026/0420 T00610033
04847KADG ADG20160131234014201/31/16 23:40:31  5-MIN KADG 010440Z AUTO 30018G23KT 10SM BKN015 OVC023 06/03 A2968 1020 85 200 310/18G23 RMK AO2 PK WND 30026/0420 T00560033
04847KADG ADG20160131234514201/31/16 23:45:31  5-MIN KADG 010445Z AUTO 30014G22KT 10SM BKN015 OVC022 06/03 A2969 1010 85 200 310/14G22 RMK AO2 PK WND 30026/0420 T00560033
04847KADG ADG20160131235015201/31/16 23:50:31  5-MIN KADG 010450Z AUTO 30013G22KT 10SM OVC015 06/03 A2969 1010 85 200 300/13G22 RMK AO2 PK WND 30026/0420 SLP061 T00560033 401220022
04847KADG ADG20160131235511101/31/16 23:55:31  5-MIN KADG 010455Z AUTO 29015KT 10SM OVC015 06/03 A2970 1010 85 100 300/15 RMK AO2 T00560033
