53915KARA ARA20161201000010912/01/16 00:00:31  5-MIN KARA 010600Z AUTO 32003KT 10SM CLR 09/03 A3008 -110 65 -800 320/03 RMK AO2 T00890028
53915KARA ARA20161201000510912/01/16 00:05:31  5-MIN KARA 010605Z AUTO 32003KT 10SM CLR 09/03 A3008 -120 68 -800 320/03 RMK AO2 T00890033
53915KARA ARA20161201001010912/01/16 00:10:31  5-MIN KARA 010610Z AUTO 32003KT 10SM CLR 09/03 A3008 -120 65 -700 320/03 RMK AO2 T00940033
53915KARA ARA20161201001510912/01/16 00:15:31  5-MIN KARA 010615Z AUTO 33003KT 10SM CLR 09/03 A3008 -120 68 -800 330/03 RMK AO2 T00890033
53915KARA ARA20161201002010912/01/16 00:20:31  5-MIN KARA 010620Z AUTO 00000KT 10SM CLR 08/03 A3008 -120 68 -900 000/00 RMK AO2 T00830028
53915KARA ARA20161201002510912/01/16 00:25:31  5-MIN KARA 010625Z AUTO 00000KT 10SM CLR 08/02 A3008 -120 65 -900 000/00 RMK AO2 T00830022
53915KARA ARA20161201003010912/01/16 00:30:31  5-MIN KARA 010630Z AUTO 34003KT 10SM CLR 08/03 A3008 -110 68 -900 330/03 RMK AO2 T00830028
53915KARA ARA20161201003510912/01/16 00:35:31  5-MIN KARA 010635Z AUTO 34004KT 10SM CLR 08/03 A3008 -110 68 -900 340/04 RMK AO2 T00830028
53915KARA ARA20161201004010912/01/16 00:40:31  5-MIN KARA 010640Z AUTO 34005KT 10SM CLR 08/03 A3008 -110 68 -900 340/05 RMK AO2 T00830028
53915KARA ARA20161201004510912/01/16 00:45:31  5-MIN KARA 010645Z AUTO 34005KT 10SM CLR 08/03 A3008 -110 73 -900 340/05 RMK AO2 T00780033
53915KARA ARA20161201005011612/01/16 00:50:31  5-MIN KARA 010650Z AUTO 34005KT 10SM CLR 08/04 A3008 -110 76 -900 340/05 RMK AO2 SLP184 T00780039
53915KARA ARA20161201005511012/01/16 00:55:31  5-MIN KARA 010655Z AUTO 34005KT 10SM CLR 07/03 A3008 -120 76 -1000 340/05 RMK AO2 T00720033
53915KARA ARA20161201010011012/01/16 01:00:31  5-MIN KARA 010700Z AUTO 34004KT 10SM CLR 07/02 A3008 -120 73 -1100 340/04 RMK AO2 T00670022
53915KARA ARA20161201010511012/01/16 01:05:31  5-MIN KARA 010705Z AUTO 34004KT 10SM CLR 07/03 A3008 -120 76 -1100 340/04 RMK AO2 T00670028
53915KARA ARA20161201011011012/01/16 01:10:31  5-MIN KARA 010710Z AUTO 36005KT 10SM CLR 07/02 A3008 -120 73 -1100 350/05 RMK AO2 T00670022
53915KARA ARA20161201011511012/01/16 01:15:31  5-MIN KARA 010715Z AUTO 35005KT 10SM CLR 07/02 A3008 -120 70 -1000 350/05 RMK AO2 T00720022
53915KARA ARA20161201012011012/01/16 01:20:31  5-MIN KARA 010720Z AUTO 34005KT 10SM CLR 07/02 A3008 -120 70 -1000 340/05 RMK AO2 T00720022
53915KARA ARA20161201012511012/01/16 01:25:31  5-MIN KARA 010725Z AUTO 35005KT 10SM CLR 07/02 A3008 -120 73 -1100 350/05 RMK AO2 T00670022
53915KARA ARA20161201013011012/01/16 01:30:31  5-MIN KARA 010730Z AUTO 35005KT 10SM CLR 07/02 A3009 -120 73 -1100 350/05 RMK AO2 T00670022
53915KARA ARA20161201013511012/01/16 01:35:31  5-MIN KARA 010735Z AUTO 35004KT 10SM CLR 07/02 A3009 -120 73 -1100 350/04 RMK AO2 T00670022
53915KARA ARA20161201014011012/01/16 01:40:31  5-MIN KARA 010740Z AUTO 35004KT 10SM CLR 07/03 A3009 -120 76 -1100 350/04 RMK AO2 T00670028
53915KARA ARA20161201014511012/01/16 01:45:31  5-MIN KARA 010745Z AUTO 35005KT 10SM CLR 07/03 A3009 -120 76 -1100 340/05 RMK AO2 T00670028
53915KARA ARA20161201015011712/01/16 01:50:31  5-MIN KARA 010750Z AUTO 35005KT 10SM CLR 07/02 A3009 -120 73 -1100 340/05 RMK AO2 SLP187 T00670022
53915KARA ARA20161201015511012/01/16 01:55:31  5-MIN KARA 010755Z AUTO 35006KT 10SM CLR 07/02 A3009 -120 70 -1000 350/06 RMK AO2 T00720022
53915KARA ARA20161201020011012/01/16 02:00:31  5-MIN KARA 010800Z AUTO 35006KT 10SM CLR 07/02 A3009 -120 68 -1000 350/06 RMK AO2 T00720017
53915KARA ARA20161201020511012/01/16 02:05:31  5-MIN KARA 010805Z AUTO 35006KT 10SM CLR 07/02 A3009 -120 68 -1000 350/06 RMK AO2 T00720017
53915KARA ARA20161201021011012/01/16 02:10:31  5-MIN KARA 010810Z AUTO 36006KT 10SM CLR 07/02 A3009 -130 68 -1000 360/06 RMK AO2 T00720017
53915KARA ARA20161201021511012/01/16 02:15:31  5-MIN KARA 010815Z AUTO 36006KT 10SM CLR 07/01 A3009 -130 65 -1000 360/06 RMK AO2 T00720011
53915KARA ARA20161201022011012/01/16 02:20:31  5-MIN KARA 010820Z AUTO 36006KT 10SM CLR 07/01 A3009 -130 67 -1100 360/06 RMK AO2 T00670011
53915KARA ARA20161201022511012/01/16 02:25:31  5-MIN KARA 010825Z AUTO 36006KT 10SM CLR 07/01 A3009 -130 67 -1100 360/06 RMK AO2 T00670011
53915KARA ARA20161201023011012/01/16 02:30:31  5-MIN KARA 010830Z AUTO 36005KT 10SM CLR 07/01 A3009 -130 67 -1100 360/05 RMK AO2 T00670011
53915KARA ARA20161201023511012/01/16 02:35:31  5-MIN KARA 010835Z AUTO 01005KT 10SM CLR 06/01 A3010 -130 70 -1200 360/05 RMK AO2 T00610011
53915KARA ARA20161201024011012/01/16 02:40:31  5-MIN KARA 010840Z AUTO 36005KT 10SM CLR 06/01 A3010 -130 70 -1200 360/05 RMK AO2 T00610011
53915KARA ARA20161201024511012/01/16 02:45:31  5-MIN KARA 010845Z AUTO 01007KT 10SM CLR 07/01 A3010 -130 67 -1100 010/07 RMK AO2 T00670011
53915KARA ARA20161201025012312/01/16 02:50:31  5-MIN KARA 010850Z AUTO 01007KT 10SM CLR 07/01 A3010 -130 67 -1100 010/07 RMK AO2 SLP191 T00670011 51011
53915KARA ARA20161201025511012/01/16 02:55:31  5-MIN KARA 010855Z AUTO 01007KT 10SM CLR 07/02 A3010 -130 68 -1000 010/07 RMK AO2 T00720017
53915KARA ARA20161201030011012/01/16 03:00:31  5-MIN KARA 010900Z AUTO 36007KT 10SM CLR 07/02 A3010 -130 68 -1000 360/07 RMK AO2 T00720017
53915KARA ARA20161201030511012/01/16 03:05:31  5-MIN KARA 010905Z AUTO 01007KT 10SM CLR 07/02 A3010 -140 68 -1000 010/07 RMK AO2 T00720017
53915KARA ARA20161201031011012/01/16 03:10:31  5-MIN KARA 010910Z AUTO 01006KT 10SM CLR 07/02 A3010 -140 70 -1100 010/06 RMK AO2 T00670017
53915KARA ARA20161201031511012/01/16 03:15:31  5-MIN KARA 010915Z AUTO 01006KT 10SM CLR 07/02 A3010 -140 70 -1100 010/06 RMK AO2 T00670017
53915KARA ARA20161201032011012/01/16 03:20:31  5-MIN KARA 010920Z AUTO 01005KT 10SM CLR 07/02 A3010 -140 70 -1100 010/05 RMK AO2 T00670017
53915KARA ARA20161201032511012/01/16 03:25:31  5-MIN KARA 010925Z AUTO 01006KT 10SM CLR 07/02 A3010 -140 70 -1100 010/06 RMK AO2 T00670017
53915KARA ARA20161201033011012/01/16 03:30:31  5-MIN KARA 010930Z AUTO 01006KT 10SM CLR 07/01 A3011 -140 67 -1100 010/06 RMK AO2 T00670011
53915KARA ARA20161201033511012/01/16 03:35:31  5-MIN KARA 010935Z AUTO 01006KT 10SM CLR 07/01 A3011 -140 67 -1100 010/06 RMK AO2 T00670011
53915KARA ARA20161201034011012/01/16 03:40:31  5-MIN KARA 010940Z AUTO 01006KT 10SM CLR 06/01 A3011 -140 70 -1200 010/06 RMK AO2 T00610011
53915KARA ARA20161201034511012/01/16 03:45:31  5-MIN KARA 010945Z AUTO 01006KT 10SM CLR 06/01 A3011 -140 70 -1200 010/06 RMK AO2 T00610011
53915KARA ARA20161201035011712/01/16 03:50:31  5-MIN KARA 010950Z AUTO 01006KT 10SM CLR 06/02 A3011 -140 73 -1200 010/06 RMK AO2 SLP194 T00610017
53915KARA ARA20161201035511012/01/16 03:55:31  5-MIN KARA 010955Z AUTO 02006KT 10SM CLR 06/02 A3011 -140 73 -1200 010/06 RMK AO2 T00610017
53915KARA ARA20161201040011012/01/16 04:00:31  5-MIN KARA 011000Z AUTO 02007KT 10SM CLR 06/02 A3010 -140 73 -1200 020/07 RMK AO2 T00610017
53915KARA ARA20161201040511012/01/16 04:05:31  5-MIN KARA 011005Z AUTO 02007KT 10SM CLR 07/02 A3010 -140 70 -1100 010/07 RMK AO2 T00670017
53915KARA ARA20161201041011012/01/16 04:10:31  5-MIN KARA 011010Z AUTO 02007KT 10SM CLR 07/02 A3011 -140 70 -1100 010/07 RMK AO2 T00670017
53915KARA ARA20161201041511012/01/16 04:15:31  5-MIN KARA 011015Z AUTO 01007KT 10SM CLR 07/02 A3011 -140 70 -1100 010/07 RMK AO2 T00670017
53915KARA ARA20161201042011012/01/16 04:20:31  5-MIN KARA 011020Z AUTO 02007KT 10SM CLR 07/02 A3010 -140 70 -1100 020/07 RMK AO2 T00670017
53915KARA ARA20161201042511012/01/16 04:25:31  5-MIN KARA 011025Z AUTO 02007KT 10SM CLR 06/02 A3010 -140 73 -1200 020/07 RMK AO2 T00610017
53915KARA ARA20161201043011012/01/16 04:30:31  5-MIN KARA 011030Z AUTO 02007KT 10SM CLR 06/02 A3010 -140 73 -1200 020/07 RMK AO2 T00610017
53915KARA ARA20161201043511012/01/16 04:35:31  5-MIN KARA 011035Z AUTO 02007KT 10SM CLR 06/02 A3011 -140 73 -1200 020/07 RMK AO2 T00610017
53915KARA ARA20161201044011012/01/16 04:40:31  5-MIN KARA 011040Z AUTO 02007KT 10SM CLR 07/02 A3010 -140 70 -1100 020/07 RMK AO2 T00670017
53915KARA ARA20161201044511012/01/16 04:45:31  5-MIN KARA 011045Z AUTO 02007KT 10SM CLR 07/02 A3010 -140 70 -1100 020/07 RMK AO2 T00670017
53915KARA ARA20161201045011712/01/16 04:50:31  5-MIN KARA 011050Z AUTO 02007KT 10SM CLR 07/02 A3011 -140 70 -1100 020/07 RMK AO2 SLP194 T00670017
53915KARA ARA20161201045511012/01/16 04:55:31  5-MIN KARA 011055Z AUTO 02007KT 10SM CLR 07/02 A3011 -140 70 -1100 020/07 RMK AO2 T00670017
53915KARA ARA20161201050011012/01/16 05:00:31  5-MIN KARA 011100Z AUTO 02006KT 10SM CLR 07/02 A3011 -140 70 -1100 020/06 RMK AO2 T00670017
53915KARA ARA20161201050511012/01/16 05:05:31  5-MIN KARA 011105Z AUTO 01007KT 10SM CLR 07/02 A3011 -140 70 -1100 010/07 RMK AO2 T00670017
53915KARA ARA20161201051011012/01/16 05:10:31  5-MIN KARA 011110Z AUTO 02006KT 10SM CLR 07/02 A3011 -150 70 -1100 020/06 RMK AO2 T00670017
53915KARA ARA20161201051511012/01/16 05:15:31  5-MIN KARA 011115Z AUTO 02006KT 10SM CLR 06/02 A3011 -150 73 -1200 020/06 RMK AO2 T00610017
53915KARA ARA20161201052011012/01/16 05:20:31  5-MIN KARA 011120Z AUTO 01006KT 10SM CLR 06/02 A3011 -150 73 -1200 010/06 RMK AO2 T00610017
53915KARA ARA20161201052511012/01/16 05:25:31  5-MIN KARA 011125Z AUTO 02006KT 10SM CLR 06/02 A3012 -150 73 -1200 020/06 RMK AO2 T00610017
53915KARA ARA20161201053010512/01/16 05:30:31  5-MIN KARA 011130Z 02005KT 10SM CLR 06/02 A3012 -150 76 -1200 020/05 RMK AO2 T00560017
53915KARA ARA20161201053510512/01/16 05:35:31  5-MIN KARA 011135Z 03005KT 10SM CLR 06/02 A3012 -150 76 -1200 030/05 RMK AO2 T00560017
53915KARA ARA20161201054010512/01/16 05:40:31  5-MIN KARA 011140Z 03006KT 10SM CLR 06/02 A3012 -150 76 -1200 030/06 RMK AO2 T00560017
53915KARA ARA20161201054510512/01/16 05:45:31  5-MIN KARA 011145Z 04005KT 10SM CLR 06/02 A3012 -150 76 -1200 040/05 RMK AO2 T00560017
53915KARA ARA20161201055013012/01/16 05:50:31  5-MIN KARA 011150Z 04006KT 10SM CLR 06/02 A3012 -150 73 -1200 030/06 RMK AO2 SLP199 T00610017 10094 20056 53007
53915KARA ARA20161201055510512/01/16 05:55:31  5-MIN KARA 011155Z 04006KT 10SM CLR 07/02 A3012 -160 73 -1100 040/06 RMK AO2 T00670022
53915KARA ARA20161201060010512/01/16 06:00:31  5-MIN KARA 011200Z 04005KT 10SM CLR 07/02 A3013 -160 73 -1100 040/05 RMK AO2 T00670022
53915KARA ARA20161201060510512/01/16 06:05:31  5-MIN KARA 011205Z 05006KT 10SM CLR 07/02 A3013 -160 73 -1100 050/06 RMK AO2 T00670022
53915KARA ARA20161201061010512/01/16 06:10:31  5-MIN KARA 011210Z 05006KT 10SM CLR 07/02 A3013 -160 70 -1100 050/06 RMK AO2 T00720022
53915KARA ARA20161201061510512/01/16 06:15:31  5-MIN KARA 011215Z 05006KT 10SM CLR 07/02 A3013 -160 70 -1100 040/06 RMK AO2 T00720022
53915KARA ARA20161201062010512/01/16 06:20:31  5-MIN KARA 011220Z 05007KT 10SM CLR 07/02 A3013 -170 73 -1100 050/07 RMK AO2 T00670022
53915KARA ARA20161201062510512/01/16 06:25:31  5-MIN KARA 011225Z 06005KT 10SM CLR 07/02 A3013 -170 73 -1100 060/05 RMK AO2 T00670022
53915KARA ARA20161201063010512/01/16 06:30:31  5-MIN KARA 011230Z 05007KT 10SM CLR 07/02 A3013 -160 73 -1100 040/07 RMK AO2 T00670022
53915KARA ARA20161201063510512/01/16 06:35:31  5-MIN KARA 011235Z 05006KT 10SM CLR 07/02 A3013 -170 73 -1100 050/06 RMK AO2 T00670022
53915KARA ARA20161201064010512/01/16 06:40:31  5-MIN KARA 011240Z 05006KT 10SM CLR 07/02 A3014 -170 73 -1100 050/06 RMK AO2 T00670022
53915KARA ARA20161201064510512/01/16 06:45:31  5-MIN KARA 011245Z 05006KT 10SM CLR 07/02 A3014 -170 73 -1100 050/06 RMK AO2 T00670022
53915KARA ARA20161201065011212/01/16 06:50:31  5-MIN KARA 011250Z 04006KT 10SM CLR 07/02 A3014 -170 73 -1100 040/06 RMK AO2 SLP206 T00670022
53915KARA ARA20161201065510512/01/16 06:55:31  5-MIN KARA 011255Z 03006KT 10SM CLR 07/02 A3014 -170 73 -1100 030/06 RMK AO2 T00670022
53915KARA ARA20161201070010512/01/16 07:00:31  5-MIN KARA 011300Z 04005KT 10SM CLR 07/02 A3015 -180 73 -1100 040/05 RMK AO2 T00670022
53915KARA ARA20161201070510512/01/16 07:05:31  5-MIN KARA 011305Z 04005KT 10SM CLR 07/02 A3015 -180 73 -1100 040/05 RMK AO2 T00670022
53915KARA ARA20161201071010512/01/16 07:10:31  5-MIN KARA 011310Z 04004KT 10SM CLR 07/02 A3015 -180 73 -1100 040/04 RMK AO2 T00670022
53915KARA ARA20161201071510512/01/16 07:15:31  5-MIN KARA 011315Z 03004KT 10SM CLR 07/02 A3015 -180 73 -1100 030/04 RMK AO2 T00670022
53915KARA ARA20161201072010512/01/16 07:20:31  5-MIN KARA 011320Z 03004KT 10SM CLR 07/03 A3015 -180 73 -1100 030/04 RMK AO2 T00720028
53915KARA ARA20161201072510512/01/16 07:25:31  5-MIN KARA 011325Z 03005KT 10SM CLR 07/03 A3016 -190 73 -1100 030/05 RMK AO2 T00720028
53915KARA ARA20161201073010512/01/16 07:30:31  5-MIN KARA 011330Z 03004KT 10SM CLR 08/03 A3015 -180 73 -1000 030/04 RMK AO2 T00780033
53915KARA ARA20161201073510412/01/16 07:35:31  5-MIN KARA 011335Z 04005KT 10SM CLR 08/03 A3016 -190 70 -900 040/05 RMK AO2 T00830033
53915KARA ARA20161201074010412/01/16 07:40:31  5-MIN KARA 011340Z 04007KT 10SM CLR 09/03 A3016 -190 68 -900 040/07 RMK AO2 T00890033
53915KARA ARA20161201074510412/01/16 07:45:31  5-MIN KARA 011345Z 05007KT 10SM CLR 09/03 A3016 -190 68 -900 040/07 RMK AO2 T00890033
53915KARA ARA20161201075011112/01/16 07:50:31  5-MIN KARA 011350Z 04007KT 10SM CLR 09/03 A3016 -190 68 -900 040/07 RMK AO2 SLP213 T00890033
53915KARA ARA20161201075510412/01/16 07:55:31  5-MIN KARA 011355Z 05007KT 10SM CLR 09/03 A3016 -190 63 -800 050/07 RMK AO2 T00940028
53915KARA ARA20161201080010412/01/16 08:00:31  5-MIN KARA 011400Z 05008KT 10SM CLR 09/03 A3016 -190 63 -800 050/08 RMK AO2 T00940028
53915KARA ARA20161201080510412/01/16 08:05:31  5-MIN KARA 011405Z 05007KT 10SM CLR 09/03 A3017 -200 63 -800 050/07 RMK AO2 T00940028
53915KARA ARA20161201081010412/01/16 08:10:31  5-MIN KARA 011410Z 05007KT 10SM CLR 10/03 A3017 -200 60 -800 050/07 RMK AO2 T01000028
53915KARA ARA20161201081510412/01/16 08:15:31  5-MIN KARA 011415Z 06008KT 10SM CLR 10/02 A3017 -200 58 -800 060/08 RMK AO2 T01000022
53915KARA ARA20161201082010412/01/16 08:20:31  5-MIN KARA 011420Z 05009KT 10SM CLR 10/03 A3018 -200 60 -800 050/09 RMK AO2 T01000028
53915KARA ARA20161201082510412/01/16 08:25:31  5-MIN KARA 011425Z 05009KT 10SM CLR 10/02 A3018 -200 58 -800 050/09 RMK AO2 T01000022
53915KARA ARA20161201083010412/01/16 08:30:31  5-MIN KARA 011430Z 04010KT 10SM CLR 11/02 A3018 -210 54 -700 040/10 RMK AO2 T01060017
53915KARA ARA20161201083510412/01/16 08:35:31  5-MIN KARA 011435Z 04009KT 10SM CLR 11/02 A3018 -210 56 -700 040/09 RMK AO2 T01060022
53915KARA ARA20161201084010412/01/16 08:40:31  5-MIN KARA 011440Z 04007KT 10SM CLR 11/02 A3018 -210 54 -600 040/07 RMK AO2 T01110022
53915KARA ARA20161201084510412/01/16 08:45:31  5-MIN KARA 011445Z 05008KT 10SM CLR 11/03 A3018 -210 56 -600 050/08 RMK AO2 T01110028
53915KARA ARA20161201085011712/01/16 08:50:31  5-MIN KARA 011450Z 04008KT 10SM CLR 11/02 A3018 -210 54 -600 040/08 RMK AO2 SLP219 T01110022 53009
53915KARA ARA20161201085510412/01/16 08:55:31  5-MIN KARA 011455Z 05008KT 10SM CLR 12/03 A3018 -210 54 -600 050/08 RMK AO2 T01170028
53915KARA ARA20161201090010412/01/16 09:00:31  5-MIN KARA 011500Z 05006KT 10SM CLR 12/02 A3019 -210 52 -600 050/06 RMK AO2 T01170022
53915KARA ARA20161201090510412/01/16 09:05:31  5-MIN KARA 011505Z 06006KT 10SM CLR 12/03 A3019 -210 54 -600 060/06 RMK AO2 T01170028
53915KARA ARA20161201091010412/01/16 09:10:31  5-MIN KARA 011510Z 05006KT 10SM CLR 12/03 A3019 -210 52 -500 050/06 RMK AO2 T01220028
53915KARA ARA20161201091510412/01/16 09:15:31  5-MIN KARA 011515Z 05007KT 10SM CLR 13/03 A3019 -210 50 -400 050/07 RMK AO2 T01280028
53915KARA ARA20161201092010412/01/16 09:20:31  5-MIN KARA 011520Z 04007KT 10SM CLR 13/02 A3018 -210 48 -400 040/07 RMK AO2 T01280022
53915KARA ARA20161201092510412/01/16 09:25:31  5-MIN KARA 011525Z 04007KT 10SM CLR 13/03 A3018 -210 50 -400 040/07 RMK AO2 T01280028
53915KARA ARA20161201093010412/01/16 09:30:31  5-MIN KARA 011530Z 04006KT 10SM CLR 13/02 A3018 -210 46 -400 040/06 RMK AO2 T01330022
53915KARA ARA20161201093510412/01/16 09:35:31  5-MIN KARA 011535Z 05005KT 10SM CLR 13/02 A3019 -210 46 -400 050/05 RMK AO2 T01330022
53915KARA ARA20161201094010412/01/16 09:40:31  5-MIN KARA 011540Z 06008KT 10SM CLR 13/02 A3018 -210 46 -400 060/08 RMK AO2 T01330022
53915KARA ARA20161201094510412/01/16 09:45:31  5-MIN KARA 011545Z 07009KT 10SM CLR 13/01 A3019 -210 43 -400 070/09 RMK AO2 T01330011
53915KARA ARA20161201095011112/01/16 09:50:31  5-MIN KARA 011550Z 05010KT 10SM CLR 14/02 A3018 -210 41 -200 050/10 RMK AO2 SLP220 T01440017
53915KARA ARA20161201095510412/01/16 09:55:31  5-MIN KARA 011555Z 05009KT 10SM CLR 14/01 A3018 -210 40 -200 050/09 RMK AO2 T01440011
53915KARA ARA20161201100010412/01/16 10:00:31  5-MIN KARA 011600Z 05008KT 10SM CLR 14/01 A3018 -210 38 -200 050/08 RMK AO2 T01440006
53915KARA ARA20161201100510412/01/16 10:05:31  5-MIN KARA 011605Z 05011KT 10SM CLR 14/01 A3018 -210 38 -200 040/11 RMK AO2 T01440006
53915KARA ARA20161201101010412/01/16 10:10:31  5-MIN KARA 011610Z 04008KT 10SM CLR 15/01 A3018 -210 37 -200 040/08 RMK AO2 T01500006
53915KARA ARA20161201101510412/01/16 10:15:31  5-MIN KARA 011615Z 06008KT 10SM CLR 15/01 A3018 -210 37 -200 050/08 RMK AO2 T01500006
53915KARA ARA20161201102010412/01/16 10:20:31  5-MIN KARA 011620Z 05009KT 10SM CLR 15/01 A3018 -210 37 -200 050/09 RMK AO2 T01500006
53915KARA ARA20161201102510412/01/16 10:25:31  5-MIN KARA 011625Z 05008KT 10SM CLR 15/01 A3018 -210 37 -200 050/08 RMK AO2 T01500006
53915KARA ARA20161201103010412/01/16 10:30:31  5-MIN KARA 011630Z 05011KT 10SM CLR 15/00 A3018 -210 35 -200 050/11 RMK AO2 T01500000
53915KARA ARA20161201103510512/01/16 10:35:31  5-MIN KARA 011635Z 06009KT 10SM CLR 15/M01 A3018 -210 34 -200 060/09 RMK AO2 T01501006
53915KARA ARA20161201104010412/01/16 10:40:31  5-MIN KARA 011640Z 04011KT 10SM CLR 16/00 A3018 -210 34 -100 040/11 RMK AO2 T01560000
53915KARA ARA20161201104510512/01/16 10:45:31  5-MIN KARA 011645Z 06011KT 10SM CLR 16/M01 A3017 -200 31 -100 060/11 RMK AO2 T01561011
53915KARA ARA20161201105011212/01/16 10:50:31  5-MIN KARA 011650Z 06010KT 10SM CLR 16/M01 A3017 -200 33 -100 060/10 RMK AO2 SLP215 T01561006
53915KARA ARA20161201105510512/01/16 10:55:31  5-MIN KARA 011655Z 07011KT 10SM CLR 16/M01 A3017 -200 31 -100 070/11 RMK AO2 T01561011
53915KARA ARA20161201110010512/01/16 11:00:31  5-MIN KARA 011700Z 05010KT 10SM CLR 16/M01 A3016 -190 31 -100 040/10 RMK AO2 T01561011
53915KARA ARA20161201110510212/01/16 11:05:31  5-MIN KARA 011705Z 03012KT 10SM CLR 16/M01 A3016 -190 30 0 030/12 RMK AO2 T01611011
53915KARA ARA20161201111010212/01/16 11:10:31  5-MIN KARA 011710Z 05012KT 10SM CLR 16/M01 A3016 -190 30 0 040/12 RMK AO2 T01611011
53915KARA ARA20161201111510212/01/16 11:15:31  5-MIN KARA 011715Z 05008KT 10SM CLR 16/M01 A3016 -190 32 0 050/08 RMK AO2 T01611006
53915KARA ARA20161201112010212/01/16 11:20:31  5-MIN KARA 011720Z 04010KT 10SM CLR 17/M01 A3016 -190 31 0 040/10 RMK AO2 T01671006
53915KARA ARA20161201112510212/01/16 11:25:31  5-MIN KARA 011725Z 03010KT 10SM CLR 17/M01 A3016 -190 31 0 030/10 RMK AO2 T01671006
53915KARA ARA20161201113010212/01/16 11:30:31  5-MIN KARA 011730Z 06009KT 10SM CLR 17/M01 A3015 -180 31 0 060/09 RMK AO2 T01671006
53915KARA ARA20161201113510212/01/16 11:35:31  5-MIN KARA 011735Z 04009KT 10SM CLR 17/M01 A3015 -180 29 0 040/09 RMK AO2 T01671011
53915KARA ARA20161201114010212/01/16 11:40:31  5-MIN KARA 011740Z 03010KT 10SM CLR 17/M01 A3015 -180 29 0 030/10 RMK AO2 T01671011
53915KARA ARA20161201114510212/01/16 11:45:31  5-MIN KARA 011745Z 04010KT 10SM CLR 17/M02 A3015 -180 28 0 040/10 RMK AO2 T01671017
53915KARA ARA20161201115012712/01/16 11:50:31  5-MIN KARA 011750Z 05010KT 10SM CLR 17/M02 A3015 -180 28 0 050/10 RMK AO2 SLP208 T01671017 10172 20067 53020
53915KARA ARA20161201115510212/01/16 11:55:31  5-MIN KARA 011755Z 05010KT 10SM CLR 17/M01 A3014 -170 29 0 050/10 RMK AO2 T01671011
53915KARA ARA20161201120010212/01/16 12:00:31  5-MIN KARA 011800Z 04009KT 10SM CLR 17/M02 A3015 -180 28 0 040/09 RMK AO2 T01671017
53915KARA ARA20161201120510412/01/16 12:05:31  5-MIN KARA 011805Z 05008KT 10SM CLR 17/M01 A3014 -180 28 100 050/08 RMK AO2 T01721011
53915KARA ARA20161201121010212/01/16 12:10:31  5-MIN KARA 011810Z 06008KT 10SM CLR 17/M01 A3015 -180 29 0 050/08 RMK AO2 T01671011
53915KARA ARA20161201121510212/01/16 12:15:31  5-MIN KARA 011815Z 04005KT 10SM CLR 17/M01 A3014 -180 29 0 040/05 RMK AO2 T01671011
53915KARA ARA20161201122010412/01/16 12:20:31  5-MIN KARA 011820Z 04006KT 10SM CLR 17/M01 A3014 -170 29 100 040/06 RMK AO2 T01721006
53915KARA ARA20161201122510412/01/16 12:25:31  5-MIN KARA 011825Z 05007KT 10SM CLR 18/M01 A3014 -170 27 100 050/07 RMK AO2 T01781011
53915KARA ARA20161201123010412/01/16 12:30:31  5-MIN KARA 011830Z 03008KT 10SM CLR 18/M01 A3014 -170 28 200 030/08 RMK AO2 T01781006
53915KARA ARA20161201123510412/01/16 12:35:31  5-MIN KARA 011835Z 05009KT 10SM CLR 18/M01 A3013 -160 28 200 050/09 RMK AO2 T01781006
53915KARA ARA20161201124010412/01/16 12:40:31  5-MIN KARA 011840Z 04009KT 10SM CLR 18/M01 A3013 -160 28 200 030/09 RMK AO2 T01781006
53915KARA ARA20161201124510412/01/16 12:45:31  5-MIN KARA 011845Z 04008KT 10SM CLR 18/M01 A3012 -160 28 200 040/08 RMK AO2 T01781006
53915KARA ARA20161201125011112/01/16 12:50:31  5-MIN KARA 011850Z 03010KT 10SM CLR 18/M01 A3012 -160 27 200 020/10 RMK AO2 SLP200 T01831006
53915KARA ARA20161201125510412/01/16 12:55:31  5-MIN KARA 011855Z 03007KT 10SM CLR 18/M01 A3012 -150 28 200 030/07 RMK AO2 T01781006
53915KARA ARA20161201130010412/01/16 13:00:31  5-MIN KARA 011900Z 06008KT 10SM CLR 18/M01 A3011 -150 28 200 060/08 RMK AO2 T01781006
53915KARA ARA20161201130510412/01/16 13:05:31  5-MIN KARA 011905Z 04010KT 10SM CLR 17/M01 A3011 -150 29 100 040/10 RMK AO2 T01721006
53915KARA ARA20161201131010412/01/16 13:10:31  5-MIN KARA 011910Z 05010KT 10SM CLR 17/M01 A3011 -150 29 100 050/10 RMK AO2 T01721006
53915KARA ARA20161201131510412/01/16 13:15:31  5-MIN KARA 011915Z 04010KT 10SM CLR 17/M01 A3011 -150 29 100 040/10 RMK AO2 T01721006
53915KARA ARA20161201132010412/01/16 13:20:31  5-MIN KARA 011920Z 06007KT 10SM CLR 17/M01 A3011 -150 29 100 060/07 RMK AO2 T01721006
53915KARA ARA20161201132510412/01/16 13:25:31  5-MIN KARA 011925Z 06009KT 10SM CLR 17/M01 A3012 -150 29 100 060/09 RMK AO2 T01721006
53915KARA ARA20161201133010312/01/16 13:30:31  5-MIN KARA 011930Z 05006KT 10SM CLR 17/00 A3011 -150 31 100 040/06 RMK AO2 T01720000
53915KARA ARA20161201133510312/01/16 13:35:31  5-MIN KARA 011935Z 07008KT 10SM CLR 17/00 A3011 -140 31 100 060/08 RMK AO2 T01720000
53915KARA ARA20161201134010412/01/16 13:40:31  5-MIN KARA 011940Z 05006KT 10SM CLR 17/M01 A3011 -150 29 100 050/06 RMK AO2 T01721006
53915KARA ARA20161201134510412/01/16 13:45:31  5-MIN KARA 011945Z 05007KT 10SM CLR 17/M01 A3011 -140 29 100 050/07 RMK AO2 T01721006
53915KARA ARA20161201135011012/01/16 13:50:31  5-MIN KARA 011950Z 05008KT 10SM CLR 17/00 A3011 -140 31 100 050/08 RMK AO2 SLP195 T01720000
53915KARA ARA20161201135510412/01/16 13:55:31  5-MIN KARA 011955Z 06006KT 10SM CLR 17/M01 A3011 -140 29 100 060/06 RMK AO2 T01721006
53915KARA ARA20161201140010412/01/16 14:00:31  5-MIN KARA 012000Z 05008KT 10SM CLR 17/M01 A3010 -140 29 100 050/08 RMK AO2 T01721006
53915KARA ARA20161201140510412/01/16 14:05:31  5-MIN KARA 012005Z 04008KT 10SM CLR 17/M01 A3010 -140 28 100 040/08 RMK AO2 T01721011
53915KARA ARA20161201141010412/01/16 14:10:31  5-MIN KARA 012010Z 05006KT 10SM CLR 17/M01 A3010 -140 28 100 050/06 RMK AO2 T01721011
53915KARA ARA20161201141510412/01/16 14:15:31  5-MIN KARA 012015Z 05007KT 10SM CLR 17/M01 A3010 -140 29 100 050/07 RMK AO2 T01721006
53915KARA ARA20161201142010412/01/16 14:20:31  5-MIN KARA 012020Z 04007KT 10SM CLR 17/M01 A3010 -140 29 100 040/07 RMK AO2 T01721006
53915KARA ARA20161201142510412/01/16 14:25:31  5-MIN KARA 012025Z 05005KT 10SM CLR 17/M01 A3010 -140 29 100 050/05 RMK AO2 T01721006
53915KARA ARA20161201143010412/01/16 14:30:31  5-MIN KARA 012030Z 05007KT 10SM CLR 17/M01 A3010 -140 29 100 050/07 RMK AO2 T01721006
53915KARA ARA20161201143510412/01/16 14:35:31  5-MIN KARA 012035Z 06007KT 10SM CLR 18/M01 A3010 -130 28 200 060/07 RMK AO2 T01781006
53915KARA ARA20161201144010412/01/16 14:40:31  5-MIN KARA 012040Z 05007KT 10SM CLR 18/M01 A3010 -130 28 200 050/07 RMK AO2 T01781006
53915KARA ARA20161201144510412/01/16 14:45:31  5-MIN KARA 012045Z 06006KT 10SM CLR 17/M01 A3009 -130 29 100 060/06 RMK AO2 T01721006
53915KARA ARA20161201145011712/01/16 14:50:31  5-MIN KARA 012050Z 05006KT 10SM CLR 17/M01 A3009 -130 29 100 050/06 RMK AO2 SLP190 T01721006 58013
53915KARA ARA20161201145510412/01/16 14:55:31  5-MIN KARA 012055Z 06006KT 10SM CLR 18/M01 A3010 -130 28 200 060/06 RMK AO2 T01781006
53915KARA ARA20161201150010412/01/16 15:00:31  5-MIN KARA 012100Z 06007KT 10SM CLR 18/M01 A3009 -130 28 200 060/07 RMK AO2 T01781006
53915KARA ARA20161201150510412/01/16 15:05:31  5-MIN KARA 012105Z 06008KT 10SM CLR 18/M01 A3009 -130 28 200 060/08 RMK AO2 T01781006
53915KARA ARA20161201151010412/01/16 15:10:31  5-MIN KARA 012110Z 07006KT 10SM CLR 18/M01 A3009 -130 28 200 070/06 RMK AO2 T01781006
53915KARA ARA20161201151510412/01/16 15:15:31  5-MIN KARA 012115Z 04007KT 10SM CLR 18/M01 A3009 -120 27 300 040/07 RMK AO2 T01831006
53915KARA ARA20161201152010412/01/16 15:20:31  5-MIN KARA 012120Z 05005KT 10SM CLR 18/M01 A3009 -120 28 200 050/05 RMK AO2 T01781006
53915KARA ARA20161201152510412/01/16 15:25:31  5-MIN KARA 012125Z 06007KT 10SM CLR 18/M01 A3009 -130 28 200 060/07 RMK AO2 T01781006
53915KARA ARA20161201153010412/01/16 15:30:31  5-MIN KARA 012130Z 04005KT 10SM CLR 18/M01 A3009 -120 28 200 040/05 RMK AO2 T01781006
53915KARA ARA20161201153510312/01/16 15:35:31  5-MIN KARA 012135Z 05006KT 10SM CLR 18/00 A3009 -120 30 200 050/06 RMK AO2 T01780000
53915KARA ARA20161201154010412/01/16 15:40:31  5-MIN KARA 012140Z 06007KT 10SM CLR 17/M01 A3009 -120 29 100 060/07 RMK AO2 T01721006
53915KARA ARA20161201154510412/01/16 15:45:31  5-MIN KARA 012145Z 07008KT 10SM CLR 17/M01 A3009 -120 29 100 070/08 RMK AO2 T01721006
53915KARA ARA20161201155011112/01/16 15:50:31  5-MIN KARA 012150Z 06008KT 10SM CLR 17/M01 A3009 -120 29 100 060/08 RMK AO2 SLP188 T01721006
53915KARA ARA20161201155510412/01/16 15:55:31  5-MIN KARA 012155Z 08007KT 10SM CLR 17/M01 A3009 -130 29 100 080/07 RMK AO2 T01721006
53915KARA ARA20161201160010412/01/16 16:00:31  5-MIN KARA 012200Z 07005KT 10SM CLR 17/M01 A3009 -120 29 100 070/05 RMK AO2 T01721006
53915KARA ARA20161201160510412/01/16 16:05:31  5-MIN KARA 012205Z 07007KT 10SM CLR 17/M01 A3009 -120 29 100 070/07 RMK AO2 T01721006
53915KARA ARA20161201161010412/01/16 16:10:31  5-MIN KARA 012210Z 07006KT 10SM CLR 17/M01 A3009 -120 29 100 070/06 RMK AO2 T01721006
53915KARA ARA20161201161510312/01/16 16:15:31  5-MIN KARA 012215Z 09006KT 10SM CLR 17/00 A3008 -120 31 100 090/06 RMK AO2 T01720000
53915KARA ARA20161201162010412/01/16 16:20:31  5-MIN KARA 012220Z 07007KT 10SM CLR 17/M01 A3008 -120 29 100 070/07 RMK AO2 T01721006
53915KARA ARA20161201162510312/01/16 16:25:31  5-MIN KARA 012225Z 07005KT 10SM CLR 17/00 A3009 -120 32 100 070/05 RMK AO2 T01670000
53915KARA ARA20161201163010112/01/16 16:30:31  5-MIN KARA 012230Z 08006KT 10SM CLR 16/00 A3008 -120 33 0 080/06 RMK AO2 T01610000
53915KARA ARA20161201163510112/01/16 16:35:31  5-MIN KARA 012235Z 08005KT 10SM CLR 16/01 A3008 -120 34 0 080/05 RMK AO2 T01610006
53915KARA ARA20161201164010112/01/16 16:40:31  5-MIN KARA 012240Z 07005KT 10SM CLR 16/01 A3008 -120 36 0 070/05 RMK AO2 T01560006
53915KARA ARA20161201164510112/01/16 16:45:31  5-MIN KARA 012245Z 08005KT 10SM CLR 16/01 A3008 -120 36 0 080/05 RMK AO2 T01560006
53915KARA ARA20161201165010812/01/16 16:50:31  5-MIN KARA 012250Z 08005KT 10SM CLR 16/01 A3008 -120 36 0 080/05 RMK AO2 SLP186 T01560006
53915KARA ARA20161201165510412/01/16 16:55:31  5-MIN KARA 012255Z 08004KT 10SM CLR 15/01 A3008 -120 38 -100 080/04 RMK AO2 T01500011
53915KARA ARA20161201170010412/01/16 17:00:31  5-MIN KARA 012300Z 07004KT 10SM CLR 15/02 A3008 -110 40 -100 070/04 RMK AO2 T01500017
53915KARA ARA20161201170510412/01/16 17:05:31  5-MIN KARA 012305Z 08003KT 10SM CLR 15/01 A3008 -120 38 -100 080/03 RMK AO2 T01500011
53915KARA ARA20161201171010412/01/16 17:10:31  5-MIN KARA 012310Z 08003KT 10SM CLR 15/01 A3009 -120 38 -100 080/03 RMK AO2 T01500011
53915KARA ARA20161201171510412/01/16 17:15:31  5-MIN KARA 012315Z 07004KT 10SM CLR 15/01 A3008 -120 38 -100 070/04 RMK AO2 T01500011
53915KARA ARA20161201172010412/01/16 17:20:31  5-MIN KARA 012320Z 06005KT 10SM CLR 14/01 A3008 -120 40 -100 060/05 RMK AO2 T01440011
53915KARA ARA20161201172510412/01/16 17:25:31  5-MIN KARA 012325Z 06004KT 10SM CLR 14/01 A3009 -120 41 -200 060/04 RMK AO2 T01390011
53915KARA ARA20161201173010412/01/16 17:30:31  5-MIN KARA 012330Z 08004KT 10SM CLR 14/02 A3009 -120 43 -200 080/04 RMK AO2 T01390017
53915KARA ARA20161201173510412/01/16 17:35:31  5-MIN KARA 012335Z 09004KT 10SM CLR 14/02 A3008 -120 43 -200 080/04 RMK AO2 T01390017
53915KARA ARA20161201174010412/01/16 17:40:31  5-MIN KARA 012340Z 09004KT 10SM CLR 13/03 A3008 -120 48 -300 090/04 RMK AO2 T01330028
53915KARA ARA20161201174510712/01/16 17:45:31  5-MIN KARA 012345Z 08005KT 10SM FEW120 14/03 A3009 -120 47 -200 080/05 RMK AO2 T01390028
53915KARA ARA20161201175013212/01/16 17:50:31  5-MIN KARA 012350Z 07004KT 10SM FEW120 14/03 A3009 -120 47 -200 070/04 RMK AO2 SLP187 T01390028 10183 20133 56017
53915KARA ARA20161201175510712/01/16 17:55:31  5-MIN KARA 012355Z 07005KT 10SM FEW120 14/02 A3009 -120 45 -200 060/05 RMK AO2 T01390022
53915KARA ARA20161201180010712/01/16 18:00:31  5-MIN KARA 020000Z 07004KT 10SM FEW120 14/02 A3009 -130 45 -200 070/04 RMK AO2 T01390022
53915KARA ARA20161201180510712/01/16 18:05:31  5-MIN KARA 020005Z 07004KT 10SM FEW120 14/02 A3009 -120 45 -200 070/04 RMK AO2 T01390022
53915KARA ARA20161201181010712/01/16 18:10:31  5-MIN KARA 020010Z 08004KT 10SM SCT120 14/02 A3009 -120 45 -200 080/04 RMK AO2 T01390022
53915KARA ARA20161201181510712/01/16 18:15:31  5-MIN KARA 020015Z 07004KT 10SM FEW120 14/03 A3009 -120 47 -200 070/04 RMK AO2 T01390028
53915KARA ARA20161201182010712/01/16 18:20:31  5-MIN KARA 020020Z 08004KT 10SM FEW120 14/03 A3009 -120 47 -200 080/04 RMK AO2 T01390028
53915KARA ARA20161201182510712/01/16 18:25:31  5-MIN KARA 020025Z 08003KT 10SM SCT120 14/03 A3009 -130 45 -100 080/03 RMK AO2 T01440028
53915KARA ARA20161201183010712/01/16 18:30:31  5-MIN KARA 020030Z 08004KT 10SM BKN120 14/03 A3009 -130 48 -200 080/04 RMK AO2 T01390033
53915KARA ARA20161201183510712/01/16 18:35:31  5-MIN KARA 020035Z 07004KT 10SM BKN120 13/04 A3009 -130 52 -300 070/04 RMK AO2 T01330039
53915KARA ARA20161201184010712/01/16 18:40:31  5-MIN KARA 020040Z 07004KT 10SM BKN120 14/03 A3010 -130 48 -200 070/04 RMK AO2 T01390033
53915KARA ARA20161201184510712/01/16 18:45:31  5-MIN KARA 020045Z 08003KT 10SM BKN120 14/03 A3010 -130 47 -200 070/03 RMK AO2 T01390028
53915KARA ARA20161201185011412/01/16 18:50:31  5-MIN KARA 020050Z 08003KT 10SM BKN120 14/02 A3010 -140 45 -200 080/03 RMK AO2 SLP193 T01390022
53915KARA ARA20161201185510712/01/16 18:55:31  5-MIN KARA 020055Z 09003KT 10SM BKN110 14/03 A3010 -140 47 -200 080/03 RMK AO2 T01390028
53915KARA ARA20161201190010712/01/16 19:00:31  5-MIN KARA 020100Z 09003KT 10SM SCT110 13/04 A3010 -140 52 -300 090/03 RMK AO2 T01330039
53915KARA ARA20161201190510712/01/16 19:05:31  5-MIN KARA 020105Z 10003KT 10SM BKN110 13/03 A3010 -140 50 -300 100/03 RMK AO2 T01330033
53915KARA ARA20161201191010712/01/16 19:10:31  5-MIN KARA 020110Z 11003KT 10SM BKN110 13/04 A3011 -140 54 -400 110/03 RMK AO2 T01280039
53915KARA ARA20161201191510712/01/16 19:15:31  5-MIN KARA 020115Z 11003KT 10SM BKN110 12/04 A3011 -140 59 -400 110/03 RMK AO2 T01220044
53915KARA ARA20161201192010712/01/16 19:20:31  5-MIN KARA 020120Z 10003KT 10SM BKN110 12/06 A3011 -140 63 -400 100/03 RMK AO2 T01220056
53915KARA ARA20161201192510712/01/16 19:25:31  5-MIN KARA 020125Z 10003KT 10SM BKN110 12/06 A3011 -140 63 -400 100/03 RMK AO2 T01220056
53915KARA ARA20161201193010712/01/16 19:30:31  5-MIN KARA 020130Z 09004KT 10SM BKN110 12/06 A3010 -140 63 -400 080/04 RMK AO2 T01220056
53915KARA ARA20161201193510712/01/16 19:35:31  5-MIN KARA 020135Z 09004KT 10SM BKN120 13/05 A3010 -140 59 -400 090/04 RMK AO2 T01280050
53915KARA ARA20161201194010712/01/16 19:40:31  5-MIN KARA 020140Z 09004KT 10SM BKN120 13/04 A3011 -140 56 -400 080/04 RMK AO2 T01280044
53915KARA ARA20161201194510712/01/16 19:45:31  5-MIN KARA 020145Z 09005KT 10SM BKN120 13/04 A3010 -130 56 -300 090/05 RMK AO2 T01280044
53915KARA ARA20161201195011412/01/16 19:50:31  5-MIN KARA 020150Z 08005KT 10SM BKN120 13/04 A3010 -130 56 -300 080/05 RMK AO2 SLP192 T01280044
53915KARA ARA20161201195510712/01/16 19:55:31  5-MIN KARA 020155Z 08005KT 10SM OVC120 13/04 A3010 -130 52 -300 080/05 RMK AO2 T01330039
53915KARA ARA20161201200010712/01/16 20:00:31  5-MIN KARA 020200Z 09005KT 10SM OVC110 13/03 A3010 -140 50 -300 080/05 RMK AO2 T01330033
53915KARA ARA20161201200510712/01/16 20:05:31  5-MIN KARA 020205Z 08004KT 10SM OVC110 13/04 A3010 -140 52 -300 080/04 RMK AO2 T01330039
53915KARA ARA20161201201010712/01/16 20:10:31  5-MIN KARA 020210Z 08004KT 10SM OVC110 13/03 A3011 -140 50 -300 080/04 RMK AO2 T01330033
53915KARA ARA20161201201510712/01/16 20:15:31  5-MIN KARA 020215Z 08004KT 10SM OVC110 13/03 A3011 -140 48 -300 080/04 RMK AO2 T01330028
53915KARA ARA20161201202010712/01/16 20:20:31  5-MIN KARA 020220Z 08004KT 10SM OVC110 13/03 A3011 -140 48 -300 080/04 RMK AO2 T01330028
53915KARA ARA20161201202510712/01/16 20:25:31  5-MIN KARA 020225Z 09003KT 10SM OVC110 13/02 A3011 -140 46 -300 090/03 RMK AO2 T01330022
53915KARA ARA20161201203010712/01/16 20:30:31  5-MIN KARA 020230Z 10003KT 10SM BKN110 12/03 A3011 -150 54 -400 100/03 RMK AO2 T01220033
53915KARA ARA20161201203510712/01/16 20:35:31  5-MIN KARA 020235Z 00000KT 10SM BKN110 12/04 A3011 -150 56 -400 000/00 RMK AO2 T01220039
53915KARA ARA20161201204010712/01/16 20:40:31  5-MIN KARA 020240Z 13003KT 10SM SCT110 12/04 A3012 -150 61 -500 130/03 RMK AO2 T01170044
53915KARA ARA20161201204510712/01/16 20:45:31  5-MIN KARA 020245Z 15003KT 10SM SCT110 12/04 A3012 -150 61 -500 150/03 RMK AO2 T01170044
53915KARA ARA20161201205012512/01/16 20:50:31  5-MIN KARA 020250Z AUTO 15003KT 10SM FEW110 12/05 A3012 -150 63 -500 150/03 RMK AO2 SLP198 T01170050 55002
53915KARA ARA20161201205510912/01/16 20:55:31  5-MIN KARA 020255Z AUTO 14003KT 10SM CLR 11/05 A3012 -150 66 -600 140/03 RMK AO2 T01110050
53915KARA ARA20161201210010912/01/16 21:00:31  5-MIN KARA 020300Z AUTO 14003KT 10SM CLR 11/06 A3012 -150 71 -600 140/03 RMK AO2 T01060056
53915KARA ARA20161201210510912/01/16 21:05:31  5-MIN KARA 020305Z AUTO 14003KT 10SM CLR 11/06 A3012 -150 71 -600 140/03 RMK AO2 T01060056
53915KARA ARA20161201211010912/01/16 21:10:31  5-MIN KARA 020310Z AUTO 14003KT 10SM CLR 11/06 A3012 -150 74 -600 140/03 RMK AO2 T01060061
53915KARA ARA20161201211510912/01/16 21:15:31  5-MIN KARA 020315Z AUTO 00000KT 10SM CLR 10/06 A3012 -150 77 -700 000/00 RMK AO2 T01000061
53915KARA ARA20161201212010912/01/16 21:20:31  5-MIN KARA 020320Z AUTO 00000KT 10SM CLR 10/06 A3012 -150 74 -700 000/00 RMK AO2 T01000056
53915KARA ARA20161201212510912/01/16 21:25:31  5-MIN KARA 020325Z AUTO 00000KT 10SM CLR 10/06 A3012 -160 74 -700 000/00 RMK AO2 T01000056
53915KARA ARA20161201213010912/01/16 21:30:31  5-MIN KARA 020330Z AUTO 00000KT 10SM CLR 09/06 A3013 -160 76 -800 000/00 RMK AO2 T00940056
53915KARA ARA20161201213510912/01/16 21:35:31  5-MIN KARA 020335Z AUTO 00000KT 10SM CLR 10/06 A3013 -160 77 -700 000/00 RMK AO2 T01000061
53915KARA ARA20161201214010912/01/16 21:40:31  5-MIN KARA 020340Z AUTO 00000KT 10SM CLR 10/06 A3013 -160 74 -700 000/00 RMK AO2 T01000056
53915KARA ARA20161201214510912/01/16 21:45:31  5-MIN KARA 020345Z AUTO 00000KT 10SM CLR 09/06 A3013 -160 76 -800 000/00 RMK AO2 T00940056
53915KARA ARA20161201215011612/01/16 21:50:31  5-MIN KARA 020350Z AUTO 00000KT 10SM CLR 09/06 A3013 -170 79 -900 000/00 RMK AO2 SLP203 T00890056
53915KARA ARA20161201215510912/01/16 21:55:31  5-MIN KARA 020355Z AUTO 00000KT 10SM CLR 09/06 A3014 -170 76 -800 000/00 RMK AO2 T00940056
53915KARA ARA20161201220010912/01/16 22:00:31  5-MIN KARA 020400Z AUTO 00000KT 10SM CLR 09/06 A3014 -170 76 -800 000/00 RMK AO2 T00940056
53915KARA ARA20161201220510912/01/16 22:05:31  5-MIN KARA 020405Z AUTO 00000KT 10SM CLR 09/06 A3014 -170 76 -800 000/00 RMK AO2 T00940056
53915KARA ARA20161201221010912/01/16 22:10:31  5-MIN KARA 020410Z AUTO 00000KT 10SM CLR 09/06 A3014 -170 79 -800 000/00 RMK AO2 T00940061
53915KARA ARA20161201221510912/01/16 22:15:31  5-MIN KARA 020415Z AUTO 00000KT 10SM CLR 09/06 A3014 -170 79 -800 000/00 RMK AO2 T00940061
53915KARA ARA20161201222010912/01/16 22:20:31  5-MIN KARA 020420Z AUTO 00000KT 10SM CLR 09/06 A3014 -170 79 -900 000/00 RMK AO2 T00890056
53915KARA ARA20161201222511412/01/16 22:25:31  5-MIN KARA 020425Z AUTO 02003KT 10SM CLR 09/06 A3014 -170 79 -900 010/03 RMK AO2 T00890056 TSNO
53915KARA ARA20161201223011412/01/16 22:30:31  5-MIN KARA 020430Z AUTO 01003KT 10SM CLR 09/06 A3014 -170 79 -900 010/03 RMK AO2 T00890056 TSNO
53915KARA ARA20161201223511412/01/16 22:35:31  5-MIN KARA 020435Z AUTO 35003KT 10SM CLR 09/05 A3014 -180 76 -900 350/03 RMK AO2 T00890050 TSNO
53915KARA ARA20161201224011412/01/16 22:40:31  5-MIN KARA 020440Z AUTO 35004KT 10SM CLR 09/05 A3014 -180 76 -900 350/04 RMK AO2 T00890050 TSNO
53915KARA ARA20161201224511412/01/16 22:45:31  5-MIN KARA 020445Z AUTO 36005KT 10SM CLR 09/05 A3015 -180 76 -900 350/05 RMK AO2 T00890050 TSNO
53915KARA ARA20161201225012112/01/16 22:50:31  5-MIN KARA 020450Z AUTO 36005KT 10SM CLR 09/04 A3015 -180 73 -900 350/05 RMK AO2 SLP207 T00890044 TSNO
53915KARA ARA20161201225511412/01/16 22:55:31  5-MIN KARA 020455Z AUTO 01004KT 10SM CLR 08/04 A3015 -180 76 -900 360/04 RMK AO2 T00830044 TSNO
53915KARA ARA20161201230011412/01/16 23:00:31  5-MIN KARA 020500Z AUTO 01005KT 10SM CLR 08/04 A3014 -180 76 -900 010/05 RMK AO2 T00830044 TSNO
53915KARA ARA20161201230511512/01/16 23:05:31  5-MIN KARA 020505Z AUTO 36004KT 10SM CLR 08/04 A3015 -180 79 -1000 360/04 RMK AO2 T00780044 TSNO
53915KARA ARA20161201231011512/01/16 23:10:31  5-MIN KARA 020510Z AUTO 01003KT 10SM CLR 08/04 A3015 -180 79 -1000 010/03 RMK AO2 T00780044 TSNO
53915KARA ARA20161201231511412/01/16 23:15:31  5-MIN KARA 020515Z AUTO 02003KT 10SM CLR 08/04 A3014 -180 76 -900 020/03 RMK AO2 T00830044 TSNO
53915KARA ARA20161201232011712/01/16 23:20:31  5-MIN KARA 020520Z AUTO 00000KT 10SM FEW085 08/04 A3014 -180 76 -900 000/00 RMK AO2 T00830044 TSNO
53915KARA ARA20161201232511212/01/16 23:25:31  5-MIN KARA 020525Z AUTO 00000KT 10SM SCT085 08/05 A3015 -180 79 -900 000/00 RMK AO2 T00830050
53915KARA ARA20161201233011212/01/16 23:30:31  5-MIN KARA 020530Z AUTO 00000KT 10SM BKN085 09/05 A3014 -170 76 -900 000/00 RMK AO2 T00890050
53915KARA ARA20161201233511212/01/16 23:35:31  5-MIN KARA 020535Z AUTO 00000KT 10SM BKN085 09/06 A3014 -170 76 -800 000/00 RMK AO2 T00940056
53915KARA ARA20161201234011212/01/16 23:40:31  5-MIN KARA 020540Z AUTO 00000KT 10SM BKN085 09/06 A3014 -170 79 -900 000/00 RMK AO2 T00890056
53915KARA ARA20161201234511212/01/16 23:45:31  5-MIN KARA 020545Z AUTO 00000KT 10SM OVC085 09/06 A3014 -170 76 -800 000/00 RMK AO2 T00940056
53915KARA ARA20161201235014712/01/16 23:50:31  5-MIN KARA 020550Z AUTO 03003KT 10SM OVC085 10/06 A3014 -170 77 -700 030/03 RMK AO2 SLP204 T01000061 10144 20078 401830056 52009
53915KARA ARA20161201235511212/01/16 23:55:31  5-MIN KARA 020555Z AUTO 00000KT 10SM OVC085 10/06 A3014 -170 77 -700 000/00 RMK AO2 T01000061
53915KARA ARA20161202000011212/02/16 00:00:31  5-MIN KARA 020600Z AUTO 00000KT 10SM OVC085 10/07 A3013 -170 80 -700 000/00 RMK AO2 T01000067
53915KARA ARA20161202000511212/02/16 00:05:31  5-MIN KARA 020605Z AUTO 00000KT 10SM BKN085 10/07 A3013 -170 80 -700 000/00 RMK AO2 T01000067
53915KARA ARA20161202001011212/02/16 00:10:31  5-MIN KARA 020610Z AUTO 00000KT 10SM BKN085 10/07 A3013 -160 80 -700 000/00 RMK AO2 T01000067
53915KARA ARA20161202001511212/02/16 00:15:31  5-MIN KARA 020615Z AUTO 00000KT 10SM SCT085 09/06 A3013 -170 79 -800 000/00 RMK AO2 T00940061
53915KARA ARA20161202002011212/02/16 00:20:31  5-MIN KARA 020620Z AUTO 11003KT 10SM FEW085 09/06 A3013 -170 83 -900 110/03 RMK AO2 T00890061
53915KARA ARA20161202002511212/02/16 00:25:31  5-MIN KARA 020625Z AUTO 10003KT 10SM FEW085 09/06 A3014 -170 83 -900 100/03 RMK AO2 T00890061
53915KARA ARA20161202003010912/02/16 00:30:31  5-MIN KARA 020630Z AUTO 09003KT 10SM CLR 09/06 A3013 -170 83 -900 080/03 RMK AO2 T00890061
53915KARA ARA20161202003510912/02/16 00:35:31  5-MIN KARA 020635Z AUTO 00000KT 10SM CLR 08/06 A3013 -170 86 -900 000/00 RMK AO2 T00830061
53915KARA ARA20161202004010912/02/16 00:40:31  5-MIN KARA 020640Z AUTO 00000KT 10SM CLR 08/06 A3014 -170 82 -900 000/00 RMK AO2 T00830056
53915KARA ARA20161202004511212/02/16 00:45:31  5-MIN KARA 020645Z AUTO 00000KT 10SM FEW085 08/06 A3014 -170 82 -900 000/00 RMK AO2 T00830056
53915KARA ARA20161202005011912/02/16 00:50:31  5-MIN KARA 020650Z AUTO 00000KT 10SM SCT085 09/06 A3014 -170 79 -900 000/00 RMK AO2 SLP204 T00890056
53915KARA ARA20161202005511212/02/16 00:55:31  5-MIN KARA 020655Z AUTO 00000KT 10SM SCT085 09/06 A3014 -170 79 -900 000/00 RMK AO2 T00890056
53915KARA ARA20161202010011212/02/16 01:00:31  5-MIN KARA 020700Z AUTO 07003KT 10SM FEW085 08/05 A3014 -170 79 -900 070/03 RMK AO2 T00830050
53915KARA ARA20161202010511212/02/16 01:05:31  5-MIN KARA 020705Z AUTO 07004KT 10SM FEW085 08/05 A3014 -170 79 -900 070/04 RMK AO2 T00830050
53915KARA ARA20161202011011212/02/16 01:10:31  5-MIN KARA 020710Z AUTO 06004KT 10SM FEW085 08/05 A3014 -170 79 -900 060/04 RMK AO2 T00830050
53915KARA ARA20161202011511212/02/16 01:15:31  5-MIN KARA 020715Z AUTO 05004KT 10SM FEW085 08/04 A3014 -170 76 -900 050/04 RMK AO2 T00830044
53915KARA ARA20161202012010912/02/16 01:20:31  5-MIN KARA 020720Z AUTO 03005KT 10SM CLR 09/05 A3014 -170 76 -900 030/05 RMK AO2 T00890050
53915KARA ARA20161202012510912/02/16 01:25:31  5-MIN KARA 020725Z AUTO 04003KT 10SM CLR 09/06 A3014 -170 79 -900 040/03 RMK AO2 T00890056
53915KARA ARA20161202013011212/02/16 01:30:31  5-MIN KARA 020730Z AUTO 04004KT 10SM SCT085 09/06 A3014 -170 79 -900 040/04 RMK AO2 T00890056
53915KARA ARA20161202013511212/02/16 01:35:31  5-MIN KARA 020735Z AUTO 04004KT 10SM BKN090 09/06 A3014 -170 76 -800 040/04 RMK AO2 T00940056
53915KARA ARA20161202014011212/02/16 01:40:31  5-MIN KARA 020740Z AUTO 04004KT 10SM BKN090 09/06 A3014 -170 79 -800 040/04 RMK AO2 T00940061
53915KARA ARA20161202014511212/02/16 01:45:31  5-MIN KARA 020745Z AUTO 03005KT 10SM BKN090 09/06 A3014 -170 79 -800 030/05 RMK AO2 T00940061
53915KARA ARA20161202015011912/02/16 01:50:31  5-MIN KARA 020750Z AUTO 02003KT 10SM BKN090 09/07 A3014 -170 83 -800 020/03 RMK AO2 SLP206 T00940067
53915KARA ARA20161202015511212/02/16 01:55:31  5-MIN KARA 020755Z AUTO 03005KT 10SM OVC090 09/07 A3014 -170 83 -800 030/05 RMK AO2 T00940067
53915KARA ARA20161202020011212/02/16 02:00:31  5-MIN KARA 020800Z AUTO 01004KT 10SM OVC090 09/07 A3014 -170 83 -800 010/04 RMK AO2 T00940067
53915KARA ARA20161202020511212/02/16 02:05:31  5-MIN KARA 020805Z AUTO 03004KT 10SM OVC090 09/07 A3014 -170 83 -800 030/04 RMK AO2 T00940067
53915KARA ARA20161202021011212/02/16 02:10:31  5-MIN KARA 020810Z AUTO 03004KT 10SM OVC090 11/07 A3014 -170 80 -700 030/04 RMK AO2 T01060072
53915KARA ARA20161202021511212/02/16 02:15:31  5-MIN KARA 020815Z AUTO 04005KT 10SM OVC090 11/08 A3014 -170 83 -700 040/05 RMK AO2 T01060078
53915KARA ARA20161202022011212/02/16 02:20:31  5-MIN KARA 020820Z AUTO 04005KT 10SM OVC090 11/07 A3014 -170 80 -700 040/05 RMK AO2 T01060072
53915KARA ARA20161202022511212/02/16 02:25:31  5-MIN KARA 020825Z AUTO 03005KT 10SM OVC090 11/07 A3014 -170 77 -600 030/05 RMK AO2 T01110072
53915KARA ARA20161202023011212/02/16 02:30:31  5-MIN KARA 020830Z AUTO 02004KT 10SM OVC090 11/07 A3014 -180 80 -700 020/04 RMK AO2 T01060072
53915KARA ARA20161202023511212/02/16 02:35:31  5-MIN KARA 020835Z AUTO 03006KT 10SM OVC090 11/07 A3014 -170 80 -700 030/06 RMK AO2 T01060072
53915KARA ARA20161202024011212/02/16 02:40:31  5-MIN KARA 020840Z AUTO 04007KT 10SM OVC090 11/07 A3014 -170 77 -700 040/07 RMK AO2 T01060067
53915KARA ARA20161202024511212/02/16 02:45:31  5-MIN KARA 020845Z AUTO 04005KT 10SM OVC090 11/06 A3014 -170 74 -700 040/05 RMK AO2 T01060061
53915KARA ARA20161202025012512/02/16 02:50:31  5-MIN KARA 020850Z AUTO 05005KT 10SM OVC090 11/06 A3014 -170 74 -700 050/05 RMK AO2 SLP206 T01060061 50007
53915KARA ARA20161202025511212/02/16 02:55:31  5-MIN KARA 020855Z AUTO 06005KT 10SM OVC090 11/06 A3014 -170 71 -600 050/05 RMK AO2 T01110061
53915KARA ARA20161202030011212/02/16 03:00:31  5-MIN KARA 020900Z AUTO 06005KT 10SM OVC090 11/06 A3014 -170 68 -600 060/05 RMK AO2 T01110056
53915KARA ARA20161202030511212/02/16 03:05:31  5-MIN KARA 020905Z AUTO 07005KT 10SM OVC090 11/06 A3014 -170 68 -600 070/05 RMK AO2 T01110056
53915KARA ARA20161202031011212/02/16 03:10:31  5-MIN KARA 020910Z AUTO 07005KT 10SM OVC090 11/06 A3014 -170 68 -600 060/05 RMK AO2 T01110056
53915KARA ARA20161202031511212/02/16 03:15:31  5-MIN KARA 020915Z AUTO 07004KT 10SM OVC090 11/06 A3014 -170 71 -700 070/04 RMK AO2 T01060056
53915KARA ARA20161202032011212/02/16 03:20:31  5-MIN KARA 020920Z AUTO 05005KT 10SM OVC090 11/06 A3014 -170 71 -700 050/05 RMK AO2 T01060056
53915KARA ARA20161202032511212/02/16 03:25:31  5-MIN KARA 020925Z AUTO 04004KT 10SM OVC090 11/06 A3015 -180 71 -700 040/04 RMK AO2 T01060056
53915KARA ARA20161202033011212/02/16 03:30:31  5-MIN KARA 020930Z AUTO 04005KT 10SM OVC090 11/06 A3014 -180 71 -700 040/05 RMK AO2 T01060056
53915KARA ARA20161202033511212/02/16 03:35:31  5-MIN KARA 020935Z AUTO 05006KT 10SM OVC090 11/06 A3014 -180 68 -600 050/06 RMK AO2 T01110056
53915KARA ARA20161202034011212/02/16 03:40:31  5-MIN KARA 020940Z AUTO 05005KT 10SM OVC090 11/06 A3014 -170 68 -600 050/05 RMK AO2 T01110056
53915KARA ARA20161202034511212/02/16 03:45:31  5-MIN KARA 020945Z AUTO 07005KT 10SM OVC090 11/06 A3014 -170 71 -700 070/05 RMK AO2 T01060056
53915KARA ARA20161202035011912/02/16 03:50:31  5-MIN KARA 020950Z AUTO 07005KT 10SM OVC090 11/06 A3014 -170 68 -600 070/05 RMK AO2 SLP206 T01110056
53915KARA ARA20161202035511212/02/16 03:55:31  5-MIN KARA 020955Z AUTO 08005KT 10SM OVC090 11/06 A3014 -170 68 -600 080/05 RMK AO2 T01110056
53915KARA ARA20161202040011212/02/16 04:00:31  5-MIN KARA 021000Z AUTO 08006KT 10SM OVC090 11/05 A3014 -170 68 -700 070/06 RMK AO2 T01060050
53915KARA ARA20161202040511212/02/16 04:05:31  5-MIN KARA 021005Z AUTO 07006KT 10SM OVC090 11/06 A3014 -170 71 -700 070/06 RMK AO2 T01060056
53915KARA ARA20161202041011212/02/16 04:10:31  5-MIN KARA 021010Z AUTO 07005KT 10SM OVC090 11/05 A3014 -170 68 -700 070/05 RMK AO2 T01060050
53915KARA ARA20161202041511212/02/16 04:15:31  5-MIN KARA 021015Z AUTO 06006KT 10SM OVC090 11/05 A3014 -170 68 -700 060/06 RMK AO2 T01060050
53915KARA ARA20161202042011212/02/16 04:20:31  5-MIN KARA 021020Z AUTO 07005KT 10SM OVC090 11/05 A3014 -170 68 -700 070/05 RMK AO2 T01060050
53915KARA ARA20161202042511212/02/16 04:25:31  5-MIN KARA 021025Z AUTO 07005KT 10SM OVC090 11/05 A3014 -170 68 -700 070/05 RMK AO2 T01060050
53915KARA ARA20161202043011212/02/16 04:30:31  5-MIN KARA 021030Z AUTO 07005KT 10SM OVC090 11/05 A3014 -170 66 -600 070/05 RMK AO2 T01110050
53915KARA ARA20161202043511212/02/16 04:35:31  5-MIN KARA 021035Z AUTO 07005KT 10SM OVC090 11/05 A3014 -170 68 -700 070/05 RMK AO2 T01060050
53915KARA ARA20161202044011212/02/16 04:40:31  5-MIN KARA 021040Z AUTO 07006KT 10SM OVC090 11/05 A3014 -170 68 -700 070/06 RMK AO2 T01060050
53915KARA ARA20161202044511212/02/16 04:45:31  5-MIN KARA 021045Z AUTO 07004KT 10SM OVC090 11/05 A3014 -170 68 -700 070/04 RMK AO2 T01060050
53915KARA ARA20161202045011912/02/16 04:50:31  5-MIN KARA 021050Z AUTO 07003KT 10SM OVC090 11/05 A3015 -180 68 -700 060/03 RMK AO2 SLP208 T01060050
53915KARA ARA20161202045511212/02/16 04:55:31  5-MIN KARA 021055Z AUTO 09003KT 10SM OVC090 11/05 A3015 -180 68 -700 090/03 RMK AO2 T01060050
53915KARA ARA20161202050011212/02/16 05:00:31  5-MIN KARA 021100Z AUTO 08004KT 10SM OVC090 11/05 A3015 -180 68 -700 080/04 RMK AO2 T01060050
53915KARA ARA20161202050511212/02/16 05:05:31  5-MIN KARA 021105Z AUTO 08004KT 10SM OVC090 11/05 A3015 -180 68 -700 080/04 RMK AO2 T01060050
53915KARA ARA20161202051011212/02/16 05:10:31  5-MIN KARA 021110Z AUTO 08004KT 10SM OVC090 11/05 A3016 -190 68 -700 080/04 RMK AO2 T01060050
53915KARA ARA20161202051511212/02/16 05:15:31  5-MIN KARA 021115Z AUTO 06006KT 10SM OVC090 11/05 A3015 -180 68 -700 060/06 RMK AO2 T01060050
53915KARA ARA20161202052011212/02/16 05:20:31  5-MIN KARA 021120Z AUTO 05008KT 10SM OVC090 11/05 A3014 -180 68 -700 040/08 RMK AO2 T01060050
53915KARA ARA20161202052511212/02/16 05:25:31  5-MIN KARA 021125Z AUTO 06005KT 10SM OVC090 11/06 A3015 -180 71 -700 050/05 RMK AO2 T01060056
53915KARA ARA20161202053011212/02/16 05:30:31  5-MIN KARA 021130Z AUTO 05006KT 10SM OVC090 11/06 A3015 -180 71 -700 050/06 RMK AO2 T01060056
53915KARA ARA20161202053511212/02/16 05:35:31  5-MIN KARA 021135Z AUTO 05005KT 10SM OVC090 11/06 A3016 -190 71 -700 050/05 RMK AO2 T01060056
53915KARA ARA20161202054010712/02/16 05:40:31  5-MIN KARA 021140Z 04005KT 10SM OVC090 11/06 A3016 -190 71 -700 040/05 RMK AO2 T01060056
53915KARA ARA20161202054510712/02/16 05:45:31  5-MIN KARA 021145Z 05004KT 10SM OVC090 11/06 A3016 -190 71 -700 050/04 RMK AO2 T01060056
53915KARA ARA20161202055013212/02/16 05:50:31  5-MIN KARA 021150Z 06003KT 10SM OVC090 11/06 A3017 -190 71 -700 060/03 RMK AO2 SLP214 T01060056 10111 20078 50002
53915KARA ARA20161202055510712/02/16 05:55:31  5-MIN KARA 021155Z 08003KT 10SM OVC090 10/06 A3017 -200 74 -800 080/03 RMK AO2 T01000056
53915KARA ARA20161202060010712/02/16 06:00:31  5-MIN KARA 021200Z 08004KT 10SM OVC090 11/06 A3017 -200 71 -700 070/04 RMK AO2 T01060056
53915KARA ARA20161202060510712/02/16 06:05:31  5-MIN KARA 021205Z 07004KT 10SM OVC090 10/05 A3017 -200 71 -800 070/04 RMK AO2 T01000050
53915KARA ARA20161202061010712/02/16 06:10:31  5-MIN KARA 021210Z 07004KT 10SM OVC090 10/05 A3017 -200 71 -800 070/04 RMK AO2 T01000050
53915KARA ARA20161202061510712/02/16 06:15:31  5-MIN KARA 021215Z 07005KT 10SM OVC090 10/05 A3017 -200 71 -800 070/05 RMK AO2 T01000050
53915KARA ARA20161202062010712/02/16 06:20:31  5-MIN KARA 021220Z 08005KT 10SM OVC090 10/05 A3017 -200 71 -800 080/05 RMK AO2 T01000050
53915KARA ARA20161202062510712/02/16 06:25:31  5-MIN KARA 021225Z 08004KT 10SM OVC090 10/05 A3018 -200 71 -800 070/04 RMK AO2 T01000050
53915KARA ARA20161202063010712/02/16 06:30:31  5-MIN KARA 021230Z 07004KT 10SM OVC090 10/06 A3018 -210 74 -800 070/04 RMK AO2 T01000056
53915KARA ARA20161202063510712/02/16 06:35:31  5-MIN KARA 021235Z 06005KT 10SM OVC090 10/06 A3018 -200 74 -800 060/05 RMK AO2 T01000056
53915KARA ARA20161202064010712/02/16 06:40:31  5-MIN KARA 021240Z 06005KT 10SM OVC090 10/06 A3017 -200 74 -800 060/05 RMK AO2 T01000056
53915KARA ARA20161202064510712/02/16 06:45:31  5-MIN KARA 021245Z 07005KT 10SM OVC090 10/06 A3018 -200 74 -800 060/05 RMK AO2 T01000056
53915KARA ARA20161202065011412/02/16 06:50:31  5-MIN KARA 021250Z 06006KT 10SM OVC090 11/06 A3017 -200 71 -700 060/06 RMK AO2 SLP217 T01060056
53915KARA ARA20161202065510712/02/16 06:55:31  5-MIN KARA 021255Z 07006KT 10SM OVC090 11/06 A3018 -210 71 -700 060/06 RMK AO2 T01060056
53915KARA ARA20161202070010712/02/16 07:00:31  5-MIN KARA 021300Z 07005KT 10SM OVC090 11/06 A3018 -210 71 -700 070/05 RMK AO2 T01060056
53915KARA ARA20161202070510712/02/16 07:05:31  5-MIN KARA 021305Z 08004KT 10SM OVC090 11/06 A3018 -210 71 -700 080/04 RMK AO2 T01060056
53915KARA ARA20161202071010712/02/16 07:10:31  5-MIN KARA 021310Z 08004KT 10SM OVC090 11/06 A3019 -210 71 -700 080/04 RMK AO2 T01060056
53915KARA ARA20161202071510712/02/16 07:15:31  5-MIN KARA 021315Z 08004KT 10SM OVC090 11/06 A3018 -210 71 -700 080/04 RMK AO2 T01060056
53915KARA ARA20161202072010712/02/16 07:20:31  5-MIN KARA 021320Z 07005KT 10SM OVC090 11/06 A3018 -210 71 -700 070/05 RMK AO2 T01060056
53915KARA ARA20161202072510712/02/16 07:25:31  5-MIN KARA 021325Z 08005KT 10SM OVC090 11/06 A3019 -210 71 -700 080/05 RMK AO2 T01060056
53915KARA ARA20161202073010712/02/16 07:30:31  5-MIN KARA 021330Z 07005KT 10SM OVC090 11/06 A3018 -210 71 -700 070/05 RMK AO2 T01060056
53915KARA ARA20161202073510712/02/16 07:35:31  5-MIN KARA 021335Z 07007KT 10SM OVC090 11/06 A3018 -210 71 -600 060/07 RMK AO2 T01110061
53915KARA ARA20161202074010712/02/16 07:40:31  5-MIN KARA 021340Z 07007KT 10SM OVC090 11/06 A3018 -210 68 -600 070/07 RMK AO2 T01110056
53915KARA ARA20161202074510712/02/16 07:45:31  5-MIN KARA 021345Z 07007KT 10SM OVC090 11/06 A3019 -210 68 -600 070/07 RMK AO2 T01110056
53915KARA ARA20161202075011412/02/16 07:50:31  5-MIN KARA 021350Z 08007KT 10SM OVC090 11/06 A3018 -210 68 -600 070/07 RMK AO2 SLP220 T01110056
53915KARA ARA20161202075510712/02/16 07:55:31  5-MIN KARA 021355Z 07006KT 10SM OVC090 12/06 A3019 -220 68 -600 070/06 RMK AO2 T01170061
53915KARA ARA20161202080010712/02/16 08:00:31  5-MIN KARA 021400Z 07007KT 10SM OVC090 12/06 A3020 -220 66 -500 070/07 RMK AO2 T01220061
53915KARA ARA20161202080510712/02/16 08:05:31  5-MIN KARA 021405Z 07007KT 10SM OVC090 12/06 A3020 -220 66 -500 070/07 RMK AO2 T01220061
53915KARA ARA20161202081010712/02/16 08:10:31  5-MIN KARA 021410Z 07008KT 10SM OVC090 12/06 A3020 -220 66 -500 070/08 RMK AO2 T01220061
53915KARA ARA20161202081507512/02/16 08:15:31  5-MIN KARA 021415Z 07008KT 10SM OVC090 12/06 A3020 -230 
53915KARA ARA20161202181512412/02/16 18:15:31  5-MIN KARA 030015Z 07010KT 10SM -RA BKN070 OVC120 14/08 A3016 -190 66 -300 070/10 RMK AO2 P0001 T01390078
53915KARA ARA20161202182013112/02/16 18:20:31  5-MIN KARA 030020Z 07011KT 10SM -RA BKN065 BKN080 BKN120 13/08 A3015 -180 69 -300 070/11 RMK AO2 P0001 T01330078
53915KARA ARA20161202182512412/02/16 18:25:31  5-MIN KARA 030025Z 07011KT 10SM -RA SCT065 BKN120 13/08 A3015 -180 69 -300 070/11 RMK AO2 P0001 T01330078
53915KARA ARA20161202183013112/02/16 18:30:31  5-MIN KARA 030030Z 07010KT 10SM -RA SCT065 SCT075 SCT120 13/08 A3014 -170 69 -300 070/10 RMK AO2 P0001 T01330078
53915KARA ARA20161202183513812/02/16 18:35:31  5-MIN KARA 030035Z 07011KT 10SM -RA FEW060 SCT075 SCT120 13/08 A3014 -170 69 -300 070/11 RMK AO2 PRESFR P0001 T01330078
53915KARA ARA20161202184012412/02/16 18:40:31  5-MIN KARA 030040Z 07010KT 10SM -RA FEW060 SCT120 13/08 A3014 -170 69 -300 070/10 RMK AO2 P0001 T01330078
53915KARA ARA20161202184512412/02/16 18:45:31  5-MIN KARA 030045Z 06011KT 10SM -RA FEW055 SCT120 13/08 A3014 -170 69 -300 060/11 RMK AO2 P0001 T01330078
53915KARA ARA20161202185012412/02/16 18:50:31  5-MIN KARA 030050Z 06012KT 10SM -RA SCT120 13/08 A3014 -170 69 -300 060/12 RMK AO2 SLP205 P0001 T01330078
53915KARA ARA20161202185511712/02/16 18:55:31  5-MIN KARA 030055Z 06013KT 10SM -RA SCT120 13/08 A3014 -170 69 -300 060/13 RMK AO2 P0000 T01330078
53915KARA ARA20161202190012112/02/16 19:00:31  5-MIN KARA 030100Z 06012KT 10SM BKN120 13/07 A3014 -170 66 -300 060/12 RMK AO2 RAE0057 P0000 T01330072
53915KARA ARA20161202190512812/02/16 19:05:31  5-MIN KARA 030105Z 05011KT 10SM FEW060 BKN120 13/07 A3014 -170 66 -300 050/11 RMK AO2 RAE0057 P0000 T01330072
53915KARA ARA20161202191012812/02/16 19:10:31  5-MIN KARA 030110Z 05011KT 10SM SCT060 OVC120 13/07 A3014 -170 64 -300 050/11 RMK AO2 RAE0057 P0000 T01330067
53915KARA ARA20161202191512812/02/16 19:15:31  5-MIN KARA 030115Z 06012KT 10SM BKN055 OVC120 13/07 A3014 -170 64 -300 060/12 RMK AO2 RAE0057 P0000 T01330067
53915KARA ARA20161202192012812/02/16 19:20:31  5-MIN KARA 030120Z 06010KT 10SM BKN055 OVC120 13/06 A3015 -180 61 -300 060/10 RMK AO2 RAE0057 P0000 T01330061
53915KARA ARA20161202192512812/02/16 19:25:31  5-MIN KARA 030125Z 06012KT 10SM BKN055 OVC120 13/06 A3015 -180 61 -300 060/12 RMK AO2 RAE0057 P0000 T01330061
53915KARA ARA20161202193012112/02/16 19:30:31  5-MIN KARA 030130Z 06012KT 10SM OVC055 13/06 A3015 -180 59 -300 060/12 RMK AO2 RAE0057 P0000 T01330056
53915KARA ARA20161202193512112/02/16 19:35:31  5-MIN KARA 030135Z 06012KT 10SM OVC055 14/06 A3016 -190 57 -300 060/12 RMK AO2 RAE0057 P0000 T01390056
53915KARA ARA20161202194012112/02/16 19:40:31  5-MIN KARA 030140Z 06012KT 10SM OVC055 13/05 A3016 -190 57 -300 060/12 RMK AO2 RAE0057 P0000 T01330050
53915KARA ARA20161202194512112/02/16 19:45:31  5-MIN KARA 030145Z 06014KT 10SM OVC055 13/05 A3016 -190 57 -300 060/14 RMK AO2 RAE0057 P0000 T01330050
53915KARA ARA20161202195012812/02/16 19:50:31  5-MIN KARA 030150Z 07012KT 10SM OVC055 14/05 A3016 -190 55 -300 070/12 RMK AO2 RAE0057 SLP211 P0000 T01390050
53915KARA ARA20161202195510712/02/16 19:55:31  5-MIN KARA 030155Z 06012KT 10SM OVC055 13/05 A3015 -180 57 -300 060/12 RMK AO2 T01330050
53915KARA ARA20161202200010712/02/16 20:00:31  5-MIN KARA 030200Z 06012KT 10SM OVC055 14/04 A3016 -190 52 -300 060/12 RMK AO2 T01390044
53915KARA ARA20161202200510712/02/16 20:05:31  5-MIN KARA 030205Z 07011KT 10SM OVC055 13/04 A3016 -190 54 -300 070/11 RMK AO2 T01330044
53915KARA ARA20161202201010712/02/16 20:10:31  5-MIN KARA 030210Z 06012KT 10SM OVC055 14/04 A3015 -180 52 -300 060/12 RMK AO2 T01390044
53915KARA ARA20161202201511412/02/16 20:15:31  5-MIN KARA 030215Z 06013KT 10SM BKN055 OVC110 14/04 A3014 -170 52 -300 060/13 RMK AO2 T01390044
53915KARA ARA20161202202011412/02/16 20:20:31  5-MIN KARA 030220Z 06012KT 10SM BKN055 OVC110 14/04 A3015 -180 52 -300 060/12 RMK AO2 T01390044
53915KARA ARA20161202202511412/02/16 20:25:31  5-MIN KARA 030225Z 07011KT 10SM BKN055 OVC110 14/04 A3015 -180 50 -300 060/11 RMK AO2 T01390039
53915KARA ARA20161202203011412/02/16 20:30:31  5-MIN KARA 030230Z 07011KT 10SM BKN055 OVC110 14/04 A3016 -190 52 -300 060/11 RMK AO2 T01390044
53915KARA ARA20161202203511412/02/16 20:35:31  5-MIN KARA 030235Z 07011KT 10SM BKN055 OVC110 14/04 A3016 -190 52 -300 070/11 RMK AO2 T01390044
53915KARA ARA20161202204011412/02/16 20:40:31  5-MIN KARA 030240Z 07010KT 10SM BKN055 OVC110 14/04 A3015 -180 52 -300 070/10 RMK AO2 T01390044
53915KARA ARA20161202204510712/02/16 20:45:31  5-MIN KARA 030245Z 06011KT 10SM OVC055 14/04 A3015 -180 52 -300 060/11 RMK AO2 T01390044
53915KARA ARA20161202205012612/02/16 20:50:31  5-MIN KARA 030250Z 07012KT 10SM OVC050 14/04 A3015 -180 52 -300 060/12 RMK AO2 SLP210 60001 T01390044 50008
53915KARA ARA20161202205510712/02/16 20:55:31  5-MIN KARA 030255Z 07012KT 10SM OVC055 14/04 A3015 -180 51 -200 070/12 RMK AO2 T01440044
53915KARA ARA20161202210011212/02/16 21:00:31  5-MIN KARA 030300Z AUTO 07012KT 10SM OVC055 14/04 A3015 -180 51 -200 070/12 RMK AO2 T01440044
53915KARA ARA20161202210511912/02/16 21:05:31  5-MIN KARA 030305Z AUTO 07013KT 10SM BKN055 OVC100 14/04 A3014 -170 52 -300 070/13 RMK AO2 T01390044
53915KARA ARA20161202211012612/02/16 21:10:31  5-MIN KARA 030310Z AUTO 07011KT 10SM FEW050 BKN060 OVC100 14/04 A3014 -170 51 -200 070/11 RMK AO2 T01440044
53915KARA ARA20161202211511912/02/16 21:15:31  5-MIN KARA 030315Z AUTO 07011KT 10SM BKN055 OVC100 14/05 A3014 -170 53 -200 060/11 RMK AO2 T01440050
53915KARA ARA20161202212012612/02/16 21:20:31  5-MIN KARA 030320Z AUTO 06012KT 10SM BKN055 BKN075 OVC100 14/05 A3014 -170 55 -300 060/12 RMK AO2 T01390050
53915KARA ARA20161202212512612/02/16 21:25:31  5-MIN KARA 030325Z AUTO 07010KT 10SM SCT055 BKN075 OVC110 14/05 A3013 -160 53 -200 070/10 RMK AO2 T01440050
53915KARA ARA20161202213012612/02/16 21:30:31  5-MIN KARA 030330Z AUTO 07010KT 10SM FEW050 SCT060 BKN085 14/05 A3014 -170 55 -300 070/10 RMK AO2 T01390050
53915KARA ARA20161202213512612/02/16 21:35:31  5-MIN KARA 030335Z AUTO 08009KT 10SM SCT044 SCT050 BKN070 14/05 A3015 -180 53 -200 080/09 RMK AO2 T01440050
53915KARA ARA20161202214012612/02/16 21:40:31  5-MIN KARA 030340Z AUTO 08010KT 10SM BKN044 BKN050 OVC085 14/05 A3015 -180 53 -200 070/10 RMK AO2 T01440050
53915KARA ARA20161202214512612/02/16 21:45:31  5-MIN KARA 030345Z AUTO 07012KT 10SM BKN042 BKN050 OVC085 14/05 A3015 -180 53 -200 070/12 RMK AO2 T01440050
53915KARA ARA20161202215012612/02/16 21:50:31  5-MIN KARA 030350Z AUTO 08008KT 10SM BKN045 BKN085 14/05 A3015 -180 53 -200 080/08 RMK AO2 SLP209 T01440050
53915KARA ARA20161202215511212/02/16 21:55:31  5-MIN KARA 030355Z AUTO 08009KT 10SM BKN045 14/05 A3016 -190 53 -200 080/09 RMK AO2 T01440050
53915KARA ARA20161202220011212/02/16 22:00:31  5-MIN KARA 030400Z AUTO 08009KT 10SM OVC045 14/06 A3015 -180 55 -200 070/09 RMK AO2 T01440056
53915KARA ARA20161202220511212/02/16 22:05:31  5-MIN KARA 030405Z AUTO 08008KT 10SM OVC047 14/06 A3015 -180 55 -200 080/08 RMK AO2 T01440056
53915KARA ARA20161202221011212/02/16 22:10:31  5-MIN KARA 030410Z AUTO 09009KT 10SM OVC047 14/06 A3015 -180 55 -200 090/09 RMK AO2 T01440056
53915KARA ARA20161202221511212/02/16 22:15:31  5-MIN KARA 030415Z AUTO 08008KT 10SM OVC047 14/06 A3016 -190 55 -200 080/08 RMK AO2 T01440056
53915KARA ARA20161202222011212/02/16 22:20:31  5-MIN KARA 030420Z AUTO 08008KT 10SM OVC047 14/06 A3016 -190 57 -200 080/08 RMK AO2 T01440061
53915KARA ARA20161202222511212/02/16 22:25:31  5-MIN KARA 030425Z AUTO 09010KT 10SM OVC047 14/06 A3016 -190 55 -200 080/10 RMK AO2 T01440056
53915KARA ARA20161202223011212/02/16 22:30:31  5-MIN KARA 030430Z AUTO 08010KT 10SM OVC047 14/06 A3016 -190 55 -200 080/10 RMK AO2 T01440056
53915KARA ARA20161202223511212/02/16 22:35:31  5-MIN KARA 030435Z AUTO 09010KT 10SM OVC046 14/06 A3016 -190 57 -200 090/10 RMK AO2 T01440061
53915KARA ARA20161202224011212/02/16 22:40:31  5-MIN KARA 030440Z AUTO 08011KT 10SM OVC046 14/06 A3015 -180 57 -200 080/11 RMK AO2 T01440061
53915KARA ARA20161202224511212/02/16 22:45:31  5-MIN KARA 030445Z AUTO 08010KT 10SM OVC046 14/06 A3015 -180 57 -200 080/10 RMK AO2 T01440061
53915KARA ARA20161202225012612/02/16 22:50:31  5-MIN KARA 030450Z AUTO 08010KT 10SM OVC046 14/07 A3014 -170 59 -200 080/10 RMK AO2 PRESFR SLP205 T01440067
53915KARA ARA20161202225511212/02/16 22:55:31  5-MIN KARA 030455Z AUTO 07009KT 10SM OVC046 14/07 A3014 -170 61 -300 070/09 RMK AO2 T01390067
53915KARA ARA20161202230011212/02/16 23:00:31  5-MIN KARA 030500Z AUTO 07009KT 10SM OVC046 14/07 A3015 -180 61 -300 070/09 RMK AO2 T01390067
53915KARA ARA20161202230511212/02/16 23:05:31  5-MIN KARA 030505Z AUTO 06009KT 10SM OVC044 14/07 A3015 -180 64 -300 050/09 RMK AO2 T01390072
53915KARA ARA20161202231011212/02/16 23:10:31  5-MIN KARA 030510Z AUTO 06008KT 10SM OVC044 14/07 A3015 -180 64 -300 060/08 RMK AO2 T01390072
53915KARA ARA20161202231511212/02/16 23:15:31  5-MIN KARA 030515Z AUTO 06006KT 10SM OVC044 14/08 A3015 -180 66 -300 060/06 RMK AO2 T01390078
53915KARA ARA20161202232011212/02/16 23:20:31  5-MIN KARA 030520Z AUTO 06007KT 10SM OVC044 14/08 A3015 -180 66 -300 060/07 RMK AO2 T01390078
53915KARA ARA20161202232511212/02/16 23:25:31  5-MIN KARA 030525Z AUTO 06008KT 10SM OVC044 14/08 A3015 -180 66 -300 060/08 RMK AO2 T01390078
53915KARA ARA20161202233011212/02/16 23:30:31  5-MIN KARA 030530Z AUTO 05009KT 10SM OVC044 14/08 A3015 -180 69 -300 050/09 RMK AO2 T01390083
53915KARA ARA20161202233511212/02/16 23:35:31  5-MIN KARA 030535Z AUTO 05008KT 10SM OVC044 14/08 A3015 -180 69 -300 050/08 RMK AO2 T01390083
53915KARA ARA20161202234011212/02/16 23:40:31  5-MIN KARA 030540Z AUTO 05010KT 10SM OVC044 14/08 A3014 -170 66 -300 050/10 RMK AO2 T01390078
53915KARA ARA20161202234511212/02/16 23:45:31  5-MIN KARA 030545Z AUTO 05011KT 10SM OVC046 14/08 A3014 -170 66 -300 050/11 RMK AO2 T01390078
53915KARA ARA20161202235015312/02/16 23:50:31  5-MIN KARA 030550Z AUTO 06009KT 10SM OVC048 14/08 A3014 -170 66 -300 050/09 RMK AO2 SLP205 60001 T01390078 10144 20133 402060078 53001
53915KARA ARA20161202235511912/02/16 23:55:31  5-MIN KARA 030555Z AUTO 05010KT 10SM BKN048 OVC060 14/08 A3014 -170 66 -300 050/10 RMK AO2 T01390078
53915KARA ARA20161203000011912/03/16 00:00:31  5-MIN KARA 030600Z AUTO 06010KT 10SM BKN048 OVC065 14/08 A3013 -170 66 -300 060/10 RMK AO2 T01390078
53915KARA ARA20161203000511912/03/16 00:05:31  5-MIN KARA 030605Z AUTO 07010KT 10SM SCT048 OVC065 14/07 A3013 -160 64 -200 070/10 RMK AO2 T01390072
53915KARA ARA20161203001011912/03/16 00:10:31  5-MIN KARA 030610Z AUTO 07010KT 10SM SCT050 BKN065 13/07 A3013 -160 66 -300 070/10 RMK AO2 T01330072
53915KARA ARA20161203001511912/03/16 00:15:31  5-MIN KARA 030615Z AUTO 07009KT 10SM FEW050 BKN065 13/07 A3013 -160 66 -300 070/09 RMK AO2 T01330072
53915KARA ARA20161203002011912/03/16 00:20:31  5-MIN KARA 030620Z AUTO 06010KT 10SM FEW050 SCT065 13/07 A3012 -160 66 -300 060/10 RMK AO2 T01330072
53915KARA ARA20161203002511212/03/16 00:25:31  5-MIN KARA 030625Z AUTO 08010KT 10SM FEW065 13/07 A3012 -160 66 -300 070/10 RMK AO2 T01330072
53915KARA ARA20161203003011212/03/16 00:30:31  5-MIN KARA 030630Z AUTO 07010KT 10SM FEW065 13/07 A3011 -150 66 -300 070/10 RMK AO2 T01330072
53915KARA ARA20161203003510912/03/16 00:35:31  5-MIN KARA 030635Z AUTO 07009KT 10SM CLR 13/07 A3011 -150 66 -300 070/09 RMK AO2 T01330072
53915KARA ARA20161203004010912/03/16 00:40:31  5-MIN KARA 030640Z AUTO 08010KT 10SM CLR 13/07 A3011 -150 66 -300 080/10 RMK AO2 T01330072
53915KARA ARA20161203004511212/03/16 00:45:31  5-MIN KARA 030645Z AUTO 08009KT 10SM SCT085 13/07 A3011 -140 66 -300 080/09 RMK AO2 T01330072
53915KARA ARA20161203005011912/03/16 00:50:31  5-MIN KARA 030650Z AUTO 08008KT 10SM BKN085 13/07 A3011 -140 66 -300 080/08 RMK AO2 SLP195 T01330072
53915KARA ARA20161203005511212/03/16 00:55:31  5-MIN KARA 030655Z AUTO 08008KT 10SM BKN085 13/07 A3011 -140 66 -300 080/08 RMK AO2 T01330072
53915KARA ARA20161203010011212/03/16 01:00:31  5-MIN KARA 030700Z AUTO 06008KT 10SM BKN090 13/07 A3010 -140 66 -300 060/08 RMK AO2 T01330072
53915KARA ARA20161203010511212/03/16 01:05:31  5-MIN KARA 030705Z AUTO 07008KT 10SM BKN090 13/07 A3011 -140 66 -300 070/08 RMK AO2 T01330072
53915KARA ARA20161203011011212/03/16 01:10:31  5-MIN KARA 030710Z AUTO 07007KT 10SM OVC090 13/07 A3011 -140 66 -300 070/07 RMK AO2 T01330072
53915KARA ARA20161203011511212/03/16 01:15:31  5-MIN KARA 030715Z AUTO 07008KT 10SM OVC090 13/07 A3011 -140 66 -300 070/08 RMK AO2 T01330072
53915KARA ARA20161203012011912/03/16 01:20:31  5-MIN KARA 030720Z AUTO 07007KT 10SM FEW080 OVC095 13/07 A3011 -140 66 -300 070/07 RMK AO2 T01330072
53915KARA ARA20161203012511912/03/16 01:25:31  5-MIN KARA 030725Z AUTO 06007KT 10SM FEW080 OVC095 13/07 A3011 -140 66 -300 060/07 RMK AO2 T01330072
53915KARA ARA20161203013011912/03/16 01:30:31  5-MIN KARA 030730Z AUTO 07007KT 10SM SCT075 OVC095 14/07 A3011 -140 64 -200 070/07 RMK AO2 T01390072
53915KARA ARA20161203013511912/03/16 01:35:31  5-MIN KARA 030735Z AUTO 07007KT 10SM BKN075 OVC100 14/07 A3010 -140 64 -200 070/07 RMK AO2 T01390072
53915KARA ARA20161203014011912/03/16 01:40:31  5-MIN KARA 030740Z AUTO 05007KT 10SM BKN070 OVC100 14/07 A3011 -140 64 -200 050/07 RMK AO2 T01390072
53915KARA ARA20161203014511912/03/16 01:45:31  5-MIN KARA 030745Z AUTO 05007KT 10SM BKN070 OVC100 14/07 A3011 -140 64 -200 050/07 RMK AO2 T01390072
53915KARA ARA20161203015011912/03/16 01:50:31  5-MIN KARA 030750Z AUTO 06007KT 10SM OVC070 14/07 A3011 -140 64 -200 060/07 RMK AO2 SLP194 T01390072
53915KARA ARA20161203015511912/03/16 01:55:31  5-MIN KARA 030755Z AUTO 08009KT 10SM BKN070 OVC110 13/07 A3010 -130 66 -300 070/09 RMK AO2 T01330072
53915KARA ARA20161203020012612/03/16 02:00:31  5-MIN KARA 030800Z AUTO 08009KT 10SM BKN070 OVC110 13/07 A3009 -120 66 -300 070/09 RMK AO2 PRESFR T01330072
53915KARA ARA20161203020511912/03/16 02:05:31  5-MIN KARA 030805Z AUTO 07008KT 10SM SCT070 BKN110 13/07 A3009 -130 66 -300 060/08 RMK AO2 T01330072
53915KARA ARA20161203021011912/03/16 02:10:31  5-MIN KARA 030810Z AUTO 06007KT 10SM SCT070 BKN110 13/07 A3010 -130 66 -300 060/07 RMK AO2 T01330072
53915KARA ARA20161203021512612/03/16 02:15:31  5-MIN KARA 030815Z AUTO 07007KT 10SM FEW040 SCT065 BKN110 13/07 A3010 -140 66 -300 060/07 RMK AO2 T01330072
53915KARA ARA20161203022011912/03/16 02:20:31  5-MIN KARA 030820Z AUTO 06006KT 10SM SCT040 BKN110 14/07 A3010 -140 64 -200 060/06 RMK AO2 T01390072
53915KARA ARA20161203022511912/03/16 02:25:31  5-MIN KARA 030825Z AUTO 08009KT 10SM BKN038 BKN110 14/07 A3009 -120 64 -200 080/09 RMK AO2 T01390072
53915KARA ARA20161203023011912/03/16 02:30:31  5-MIN KARA 030830Z AUTO 09010KT 10SM BKN036 14/07 A3007 -110 64 -200 090/10 RMK AO2 PRESFR T01390072
53915KARA ARA20161203023511212/03/16 02:35:31  5-MIN KARA 030835Z AUTO 09012KT 10SM BKN036 14/07 A3007 -100 64 -200 090/12 RMK AO2 T01390072
53915KARA ARA20161203024011812/03/16 02:40:31  5-MIN KARA 030840Z AUTO 09011G20KT 10SM OVC036 14/07 A3007 -110 59 -100 080/11G20 RMK AO2 T01440067
53915KARA ARA20161203024511512/03/16 02:45:31  5-MIN KARA 030845Z AUTO 08012G20KT 10SM OVC036 15/07 A3007 -110 57 0 080/12G20 RMK AO2 T01500067
53915KARA ARA20161203025013112/03/16 02:50:31  5-MIN KARA 030850Z AUTO 08009G19KT 10SM OVC036 14/07 A3008 -110 59 -100 080/09G19 RMK AO2 SLP184 T01440067 58004
53915KARA ARA20161203025511212/03/16 02:55:31  5-MIN KARA 030855Z AUTO 09012KT 10SM OVC036 15/07 A3008 -120 57 -100 090/12 RMK AO2 T01500067
53915KARA ARA20161203030012512/03/16 03:00:31  5-MIN KARA 030900Z AUTO 09014G20KT 10SM BKN038 OVC070 15/07 A3007 -110 57 -100 090/14G20 RMK AO2 T01500067
53915KARA ARA20161203030511612/03/16 03:05:31  5-MIN KARA 030905Z AUTO 09013KT 10SM BKN038 OVC070 15/07 A3007 -110 57 0 080/13 RMK AO2 T01500067
53915KARA ARA20161203031011912/03/16 03:10:31  5-MIN KARA 030910Z AUTO 09010KT 10SM BKN036 OVC070 15/07 A3008 -110 57 -100 090/10 RMK AO2 T01500067
53915KARA ARA20161203031511912/03/16 03:15:31  5-MIN KARA 030915Z AUTO 09010KT 10SM BKN036 OVC070 15/07 A3008 -120 59 -100 090/10 RMK AO2 T01500072
53915KARA ARA20161203032011912/03/16 03:20:31  5-MIN KARA 030920Z AUTO 09011KT 10SM BKN036 OVC075 15/07 A3008 -120 59 -100 090/11 RMK AO2 T01500072
53915KARA ARA20161203032513512/03/16 03:25:31  5-MIN KARA 030925Z AUTO 09011KT 10SM -RA BKN033 OVC075 15/07 A3008 -110 59 -100 080/11 RMK AO2 RAB22 P0000 T01500072
53915KARA ARA20161203033012812/03/16 03:30:31  5-MIN KARA 030930Z AUTO 09012KT 10SM -RA OVC033 14/07 A3008 -110 61 -100 090/12 RMK AO2 RAB22 P0000 T01440072
53915KARA ARA20161203033512812/03/16 03:35:31  5-MIN KARA 030935Z AUTO 11012KT 10SM -RA OVC033 14/08 A3007 -110 64 -100 100/12 RMK AO2 RAB22 P0000 T01440078
53915KARA ARA20161203034012812/03/16 03:40:31  5-MIN KARA 030940Z AUTO 09014KT 10SM -RA OVC033 14/08 A3007 -100 64 -100 090/14 RMK AO2 RAB22 P0000 T01440078
53915KARA ARA20161203034513512/03/16 03:45:31  5-MIN KARA 030945Z AUTO 09012KT 10SM -RA BKN033 OVC070 14/08 A3006 -100 64 -100 090/12 RMK AO2 RAB22 P0000 T01440078
53915KARA ARA20161203035013412/03/16 03:50:31  5-MIN KARA 030950Z AUTO 09011KT 10SM BKN033 14/08 A3006 -100 64 -100 090/11 RMK AO2 RAB22E50 SLP179 P0000 T01440078
53915KARA ARA20161203035511212/03/16 03:55:31  5-MIN KARA 030955Z AUTO 09011KT 10SM BKN033 14/08 A3006 -100 64 -100 090/11 RMK AO2 T01440078
53915KARA ARA20161203040011212/03/16 04:00:31  5-MIN KARA 031000Z AUTO 09010KT 10SM OVC033 14/08 A3006 -100 64 -100 090/10 RMK AO2 T01440078
53915KARA ARA20161203040510912/03/16 04:05:31  5-MIN KARA 031005Z AUTO 08012KT 10SM OVC033 15/08 A3006 -100 62 0 080/12 RMK AO2 T01500078
53915KARA ARA20161203041010812/03/16 04:10:31  5-MIN KARA 031010Z AUTO 09013KT 10SM OVC033 15/08 A3005 -90 62 0 090/13 RMK AO2 T01500078
53915KARA ARA20161203041510812/03/16 04:15:31  5-MIN KARA 031015Z AUTO 09014KT 10SM OVC033 15/08 A3005 -90 62 0 090/14 RMK AO2 T01500078
53915KARA ARA20161203042010812/03/16 04:20:31  5-MIN KARA 031020Z AUTO 09013KT 10SM OVC033 15/08 A3005 -90 62 0 090/13 RMK AO2 T01500078
53915KARA ARA20161203042510912/03/16 04:25:31  5-MIN KARA 031025Z AUTO 08010KT 10SM OVC033 15/08 A3006 -100 62 0 080/10 RMK AO2 T01500078
53915KARA ARA20161203043010912/03/16 04:30:31  5-MIN KARA 031030Z AUTO 07011KT 10SM OVC032 15/08 A3007 -100 62 0 070/11 RMK AO2 T01500078
53915KARA ARA20161203043510912/03/16 04:35:31  5-MIN KARA 031035Z AUTO 05009KT 10SM OVC032 15/08 A3007 -110 62 0 050/09 RMK AO2 T01500078
53915KARA ARA20161203044011212/03/16 04:40:31  5-MIN KARA 031040Z AUTO 05011KT 10SM OVC032 15/08 A3007 -110 62 -100 050/11 RMK AO2 T01500078
53915KARA ARA20161203044511212/03/16 04:45:31  5-MIN KARA 031045Z AUTO 06012KT 10SM OVC034 15/08 A3007 -110 62 -100 060/12 RMK AO2 T01500078
53915KARA ARA20161203045012312/03/16 04:50:31  5-MIN KARA 031050Z AUTO 07013KT 10SM BKN034 OVC049 15/08 A3007 -100 62 0 070/13 RMK AO2 SLP180 T01500078
53915KARA ARA20161203045512912/03/16 04:55:31  5-MIN KARA 031055Z AUTO 07013KT 10SM -RA BKN034 OVC049 14/08 A3007 -110 66 -100 070/13 RMK AO2 P0000 T01440083
53915KARA ARA20161203050013512/03/16 05:00:31  5-MIN KARA 031100Z AUTO 07011KT 9SM +RA FEW030 SCT037 OVC049 14/08 A3007 -100 69 -200 070/11 RMK AO2 P0001 T01390083
53915KARA ARA20161203050513512/03/16 05:05:31  5-MIN KARA 031105Z AUTO 07009KT 9SM -RA FEW026 SCT037 OVC049 14/09 A3007 -110 71 -200 070/09 RMK AO2 P0001 T01390089
53915KARA ARA20161203051013512/03/16 05:10:31  5-MIN KARA 031110Z AUTO 07007KT 7SM +RA FEW024 BKN037 OVC050 14/09 A3008 -120 71 -200 060/07 RMK AO2 P0003 T01390089
53915KARA ARA20161203051512812/03/16 05:15:31  5-MIN KARA 031115Z AUTO 06008KT 5SM +RA BKN039 OVC050 14/09 A3008 -120 71 -200 060/08 RMK AO2 P0005 T01390089
53915KARA ARA20161203052012812/03/16 05:20:31  5-MIN KARA 031120Z AUTO 07007KT 5SM +RA BKN041 OVC050 13/09 A3009 -120 74 -300 070/07 RMK AO2 P0006 T01330089
53915KARA ARA20161203052512712/03/16 05:25:31  5-MIN KARA 031125Z AUTO 06006KT 5SM RA BKN041 OVC050 13/09 A3009 -120 77 -300 060/06 RMK AO2 P0008 T01330094
53915KARA ARA20161203053012812/03/16 05:30:31  5-MIN KARA 031130Z AUTO 05009KT 3SM +RA BKN041 OVC050 13/09 A3008 -120 80 -300 050/09 RMK AO2 P0013 T01280094
53915KARA ARA20161203053514012/03/16 05:35:31  5-MIN KARA 031135Z AUTO 05009KT 2 1/2SM +RA BKN039 OVC049 13/09 A3007 -110 80 -300 050/09 RMK AO2 VIS 2V3 P0017 T01280094
53915KARA ARA20161203054012012/03/16 05:40:31  5-MIN KARA 031140Z 05007KT 2 1/2SM +RA OVC039 13/09 A3008 -110 80 -300 050/07 RMK AO2 P0021 T01280094
53915KARA ARA20161203054512012/03/16 05:45:31  5-MIN KARA 031145Z 06009KT 2 1/2SM +RA OVC040 12/09 A3008 -110 83 -400 060/09 RMK AO2 P0026 T01220094
53915KARA ARA20161203055015712/03/16 05:50:31  5-MIN KARA 031150Z 06010KT 2 1/2SM +RA OVC040 12/09 A3007 -110 83 -400 060/10 RMK AO2 SLP183 P0030 60030 70036 T01220094 10150 20122 56019
53915KARA ARA20161203055512312/03/16 05:55:31  5-MIN KARA 031155Z 07009KT 3SM +RA BKN040 OVC050 12/09 A3007 -110 83 -400 070/09 RMK AO2 P0001 T01220094
53915KARA ARA20161203060013012/03/16 06:00:31  5-MIN KARA 031200Z 07009KT 4SM +RA BKN040 BKN047 OVC055 12/09 A3007 -110 83 -400 070/09 RMK AO2 P0003 T01220094
53915KARA ARA20161203060512312/03/16 06:05:31  5-MIN KARA 031205Z 07009KT 4SM +RA BKN042 OVC050 12/09 A3007 -110 83 -400 070/09 RMK AO2 P0004 T01220094
53915KARA ARA20161203061012212/03/16 06:10:31  5-MIN KARA 031210Z 07009KT 6SM RA BKN042 OVC050 12/09 A3007 -110 83 -400 070/09 RMK AO2 P0005 T01220094
53915KARA ARA20161203061511512/03/16 06:15:31  5-MIN KARA 031215Z 07010KT 6SM RA OVC041 12/09 A3007 -110 83 -400 070/10 RMK AO2 P0005 T01220094
53915KARA ARA20161203062011512/03/16 06:20:31  5-MIN KARA 031220Z 07008KT 6SM RA OVC041 12/09 A3008 -120 83 -400 070/08 RMK AO2 P0006 T01220094
53915KARA ARA20161203062511812/03/16 06:25:31  5-MIN KARA 031225Z 07010KT 6SM RA BR OVC041 12/10 A3008 -110 86 -400 060/10 RMK AO2 P0006 T01220100
53915KARA ARA20161203063011812/03/16 06:30:31  5-MIN KARA 031230Z 06008KT 6SM RA BR OVC041 12/10 A3008 -110 86 -400 060/08 RMK AO2 P0007 T01220100
53915KARA ARA20161203063511812/03/16 06:35:31  5-MIN KARA 031235Z 06010KT 6SM RA BR OVC041 12/10 A3008 -110 86 -400 060/10 RMK AO2 P0007 T01220100
53915KARA ARA20161203064013212/03/16 06:40:31  5-MIN KARA 031240Z 06006KT 6SM RA BR BKN041 BKN048 OVC080 12/10 A3008 -120 86 -400 060/06 RMK AO2 P0008 T01220100
53915KARA ARA20161203064513012/03/16 06:45:31  5-MIN KARA 031245Z 05006KT 7SM -RA BKN041 BKN048 OVC080 12/10 A3008 -120 86 -400 050/06 RMK AO2 P0008 T01220100
53915KARA ARA20161203065013012/03/16 06:50:31  5-MIN KARA 031250Z 05007KT 8SM -RA BKN040 OVC048 12/10 A3008 -120 86 -400 050/07 RMK AO2 SLP185 P0009 T01220100
53915KARA ARA20161203065512512/03/16 06:55:31  5-MIN KARA 031255Z 05009KT 6SM RA BR BKN040 OVC048 12/10 A3008 -120 86 -400 050/09 RMK AO2 P0000 T01220100
53915KARA ARA20161203070012512/03/16 07:00:31  5-MIN KARA 031300Z 05010KT 6SM RA BR BKN040 OVC050 12/10 A3008 -120 89 -500 050/10 RMK AO2 P0001 T01170100
53915KARA ARA20161203070512512/03/16 07:05:31  5-MIN KARA 031305Z 05010KT 6SM RA BR BKN038 OVC048 12/09 A3008 -120 86 -500 040/10 RMK AO2 P0002 T01170094
53915KARA ARA20161203071012212/03/16 07:10:31  5-MIN KARA 031310Z 04010KT 7SM RA BKN038 OVC048 12/09 A3008 -120 86 -500 040/10 RMK AO2 P0002 T01170094
53915KARA ARA20161203071513712/03/16 07:15:31  5-MIN KARA 031315Z 05011KT 6SM RA BR BKN038 OVC048 12/09 A3008 -120 86 -500 050/11 RMK AO2 LTG DSNT SW P0004 T01170094
53915KARA ARA20161203072014412/03/16 07:20:31  5-MIN KARA 031320Z 05013KT 4SM +RA BR BKN038 OVC047 11/09 A3008 -120 89 -500 050/13 RMK AO2 LTG DSNT SW AND W P0008 T01110094
53915KARA ARA20161203072515112/03/16 07:25:31  5-MIN KARA 031325Z 05014KT 5SM -RA BR BKN038 BKN046 OVC055 11/09 A3007 -110 86 -500 050/14 RMK AO2 LTG DSNT SW AND W P0008 T01110089
53915KARA ARA20161203073014912/03/16 07:30:31  5-MIN KARA 031330Z 05013KT 10SM -RA SCT037 BKN046 OVC060 11/09 A3007 -110 86 -500 040/13 RMK AO2 LTG DSNT SW AND W P0008 T01110089
53915KARA ARA20161203073512412/03/16 07:35:31  5-MIN KARA 031335Z 05013KT 10SM -RA BKN039 OVC050 11/09 A3007 -110 86 -500 050/13 RMK AO2 P0008 T01110089
53915KARA ARA20161203074012412/03/16 07:40:31  5-MIN KARA 031340Z 05012KT 10SM -RA BKN039 OVC050 11/09 A3008 -110 86 -500 050/12 RMK AO2 P0008 T01110089
53915KARA ARA20161203074512412/03/16 07:45:31  5-MIN KARA 031345Z 05011KT 10SM -RA BKN039 OVC050 11/09 A3008 -120 86 -500 050/11 RMK AO2 P0008 T01110089
53915KARA ARA20161203075012412/03/16 07:50:31  5-MIN KARA 031350Z 06011KT 10SM -RA OVC039 11/09 A3008 -120 86 -500 060/11 RMK AO2 SLP185 P0008 T01110089
53915KARA ARA20161203075511712/03/16 07:55:31  5-MIN KARA 031355Z 06012KT 10SM -RA OVC039 11/09 A3007 -110 86 -500 060/12 RMK AO2 P0000 T01110089
53915KARA ARA20161203080011712/03/16 08:00:31  5-MIN KARA 031400Z 06011KT 10SM -RA OVC039 11/09 A3008 -120 86 -500 060/11 RMK AO2 P0000 T01110089
53915KARA ARA20161203080511712/03/16 08:05:31  5-MIN KARA 031405Z 06012KT 10SM -RA OVC039 11/09 A3009 -120 86 -500 060/12 RMK AO2 P0000 T01110089
53915KARA ARA20161203081012512/03/16 08:10:31  5-MIN KARA 031410Z 06010KT 6SM RA BR BKN039 OVC049 11/09 A3009 -130 86 -500 060/10 RMK AO2 P0001 T01110089
53915KARA ARA20161203081512212/03/16 08:15:31  5-MIN KARA 031415Z 06011KT 4SM RA BKN037 OVC049 11/08 A3009 -120 83 -500 060/11 RMK AO2 P0002 T01110083
53915KARA ARA20161203082011612/03/16 08:20:31  5-MIN KARA 031420Z 06011KT 6SM -RA OVC037 11/08 A3009 -120 83 -500 060/11 RMK AO2 P0002 T01110083
53915KARA ARA20161203082511612/03/16 08:25:31  5-MIN KARA 031425Z 06012KT 9SM -RA OVC037 11/08 A3008 -120 83 -500 060/12 RMK AO2 P0002 T01110083
53915KARA ARA20161203083011712/03/16 08:30:31  5-MIN KARA 031430Z 07010KT 10SM -RA OVC037 11/09 A3009 -120 86 -500 070/10 RMK AO2 P0002 T01110089
53915KARA ARA20161203083511712/03/16 08:35:31  5-MIN KARA 031435Z 07011KT 10SM -RA OVC037 11/09 A3009 -120 86 -500 070/11 RMK AO2 P0003 T01110089
53915KARA ARA20161203084013012/03/16 08:40:31  5-MIN KARA 031440Z 07015G21KT 10SM -RA BKN038 OVC055 11/08 A3008 -110 83 -500 070/15G21 RMK AO2 P0003 T01110083
53915KARA ARA20161203084513012/03/16 08:45:31  5-MIN KARA 031445Z 07014G21KT 10SM -RA BKN038 OVC055 11/08 A3008 -110 83 -500 070/14G21 RMK AO2 P0003 T01110083
53915KARA ARA20161203085014312/03/16 08:50:31  5-MIN KARA 031450Z 07010KT 10SM -RA BKN040 OVC055 11/08 A3008 -120 83 -500 070/10 RMK AO2 SLP185 P0003 60020 T01110083 55003
53915KARA ARA20161203085512412/03/16 08:55:31  5-MIN KARA 031455Z 07011KT 10SM -RA BKN040 OVC060 11/08 A3008 -120 83 -500 070/11 RMK AO2 P0000 T01110083
53915KARA ARA20161203090012412/03/16 09:00:31  5-MIN KARA 031500Z 06011KT 10SM -RA BKN040 OVC055 11/08 A3008 -120 83 -500 060/11 RMK AO2 P0000 T01110083
53915KARA ARA20161203090512612/03/16 09:05:31  5-MIN KARA 031505Z 07011KT 10SM BKN040 OVC055 11/08 A3008 -120 83 -500 070/11 RMK AO2 RAE03 P0000 T01110083
53915KARA ARA20161203091012412/03/16 09:10:31  5-MIN KARA 031510Z 07009KT 10SM -RA BKN040 OVC055 12/08 A3008 -120 80 -500 070/09 RMK AO2 P0000 T01170083
53915KARA ARA20161203091511712/03/16 09:15:31  5-MIN KARA 031515Z 07010KT 10SM -RA OVC040 12/08 A3008 -120 80 -500 070/10 RMK AO2 P0000 T01170083
53915KARA ARA20161203092011712/03/16 09:20:31  5-MIN KARA 031520Z 07010KT 10SM -RA OVC040 12/08 A3009 -120 80 -500 070/10 RMK AO2 P0000 T01170083
53915KARA ARA20161203092511712/03/16 09:25:31  5-MIN KARA 031525Z 07011KT 10SM -RA OVC038 12/08 A3009 -120 80 -500 070/11 RMK AO2 P0000 T01170083
53915KARA ARA20161203093011712/03/16 09:30:31  5-MIN KARA 031530Z 08013KT 10SM -RA OVC038 12/08 A3008 -120 80 -500 080/13 RMK AO2 P0000 T01170083
53915KARA ARA20161203093512412/03/16 09:35:31  5-MIN KARA 031535Z 08014KT 10SM -RA BKN039 OVC050 12/08 A3008 -120 80 -500 080/14 RMK AO2 P0000 T01170083
53915KARA ARA20161203094012412/03/16 09:40:31  5-MIN KARA 031540Z 07014KT 10SM -RA BKN039 OVC050 12/08 A3007 -110 80 -400 070/14 RMK AO2 P0000 T01170083
53915KARA ARA20161203094512412/03/16 09:45:31  5-MIN KARA 031545Z 08011KT 10SM -RA BKN039 OVC050 12/08 A3008 -120 80 -500 070/11 RMK AO2 P0000 T01170083
53915KARA ARA20161203095013312/03/16 09:50:31  5-MIN KARA 031550Z 07010KT 10SM BKN037 OVC050 12/08 A3008 -120 80 -500 070/10 RMK AO2 RAE46 SLP186 P0000 T01170083
53915KARA ARA20161203095511412/03/16 09:55:31  5-MIN KARA 031555Z 08013KT 10SM BKN037 OVC048 12/08 A3008 -110 80 -500 080/13 RMK AO2 T01170083
53915KARA ARA20161203100011412/03/16 10:00:31  5-MIN KARA 031600Z 07013KT 10SM BKN037 OVC048 12/08 A3007 -100 77 -400 070/13 RMK AO2 T01220083
53915KARA ARA20161203100510712/03/16 10:05:31  5-MIN KARA 031605Z 07013KT 10SM OVC037 12/08 A3007 -110 77 -400 070/13 RMK AO2 T01220083
53915KARA ARA20161203101012612/03/16 10:10:31  5-MIN KARA 031610Z 08012G21KT 10SM FEW025 OVC037 12/09 A3005 -90 80 -400 080/12G21 RMK AO2 PRESFR T01220089
53915KARA ARA20161203101513512/03/16 10:15:31  5-MIN KARA 031615Z 08012G21KT 10SM -RA FEW025 OVC037 12/09 A3005 -90 80 -400 080/12G21 RMK AO2 RAB12 P0000 T01220089
53915KARA ARA20161203102012212/03/16 10:20:31  5-MIN KARA 031620Z 09015KT 10SM -RA OVC037 13/08 A3005 -90 74 -300 090/15 RMK AO2 RAB12 P0000 T01280083
53915KARA ARA20161203102512812/03/16 10:25:31  5-MIN KARA 031625Z 09015KT 10SM OVC037 13/09 A3004 -80 77 -300 090/15 RMK AO2 RAB12E21 PRESFR P0000 T01280089
53915KARA ARA20161203103013412/03/16 10:30:31  5-MIN KARA 031630Z 09015G22KT 10SM OVC037 13/09 A3003 -70 77 -300 090/15G22 RMK AO2 RAB12E21 PRESFR P0000 T01280089
53915KARA ARA20161203103512712/03/16 10:35:31  5-MIN KARA 031635Z 09016G25KT 10SM OVC036 13/09 A3003 -70 74 -200 090/16G25 RMK AO2 RAB12E21 P0000 T01330089
53915KARA ARA20161203104012712/03/16 10:40:31  5-MIN KARA 031640Z 09016G25KT 10SM BKN036 13/09 A3002 -60 74 -200 090/16G25 RMK AO2 RAB12E21 P0000 T01330089
53915KARA ARA20161203104512712/03/16 10:45:31  5-MIN KARA 031645Z 09016G24KT 10SM BKN036 13/09 A3002 -60 74 -200 090/16G24 RMK AO2 RAB12E21 P0000 T01330089
53915KARA ARA20161203105012812/03/16 10:50:31  5-MIN KARA 031650Z 09015KT 10SM BKN036 13/09 A3001 -60 74 -200 090/15 RMK AO2 RAB12E21 SLP163 P0000 T01330089
53915KARA ARA20161203105512612/03/16 10:55:31  5-MIN KARA 031655Z 09014G23KT 10SM SCT036 BKN043 BKN090 14/09 A3001 -50 74 -100 090/14G23 RMK AO2 T01390094
53915KARA ARA20161203110012612/03/16 11:00:31  5-MIN KARA 031700Z 09014G23KT 10SM FEW036 BKN043 BKN090 14/09 A3001 -50 74 -100 090/14G23 RMK AO2 T01390094
53915KARA ARA20161203110511312/03/16 11:05:31  5-MIN KARA 031705Z 09014KT 10SM SCT040 SCT090 14/09 A3001 -50 74 -100 090/14 RMK AO2 T01390094
53915KARA ARA20161203111011612/03/16 11:10:31  5-MIN KARA 031710Z 09013G19KT 10SM BKN040 BKN090 14/09 A3000 -50 72 0 090/13G19 RMK AO2 T01440094
53915KARA ARA20161203111510912/03/16 11:15:31  5-MIN KARA 031715Z 08013G18KT 10SM BKN040 14/09 A3000 -40 72 0 080/13G18 RMK AO2 T01440094
53915KARA ARA20161203112011012/03/16 11:20:31  5-MIN KARA 031720Z 08011KT 10SM SCT040 BKN070 14/09 A2999 -30 72 0 080/11 RMK AO2 T01440094
53915KARA ARA20161203112511712/03/16 11:25:31  5-MIN KARA 031725Z 08013KT 10SM FEW040 SCT070 14/09 A2998 -30 72 0 080/13 RMK AO2 PRESFR T01440094
53915KARA ARA20161203113011712/03/16 11:30:31  5-MIN KARA 031730Z 08013KT 10SM FEW040 SCT070 15/09 A2997 -10 69 0 080/13 RMK AO2 PRESFR T01500094
53915KARA ARA20161203113512512/03/16 11:35:31  5-MIN KARA 031735Z 09017G23KT 10SM FEW040 FEW070 16/10 A2996 -10 69 100 090/17G23 RMK AO2 PRESFR T01560100
53915KARA ARA20161203114011112/03/16 11:40:31  5-MIN KARA 031740Z 09016G23KT 10SM FEW070 16/10 A2996 -10 69 100 090/16G23 RMK AO2 T01560100
53915KARA ARA20161203114511112/03/16 11:45:31  5-MIN KARA 031745Z 10015G23KT 10SM FEW070 16/10 A2997 -10 69 100 100/15G23 RMK AO2 T01560100
53915KARA ARA20161203115013312/03/16 11:50:31  5-MIN KARA 031750Z 10015KT 10SM CLR 16/10 A2997 -10 69 100 090/15 RMK AO2 SLP146 60020 T01560100 10156 20111 51001
53915KARA ARA20161203115510212/03/16 11:55:31  5-MIN KARA 031755Z 10013KT 10SM CLR 16/11 A2997 -10 69 200 100/13 RMK AO2 T01610106
53915KARA ARA20161203120010212/03/16 12:00:31  5-MIN KARA 031800Z 10012KT 10SM CLR 17/11 A2997 -10 67 200 090/12 RMK AO2 T01670106
53915KARA ARA20161203120510612/03/16 12:05:31  5-MIN KARA 031805Z 10015G22KT 10SM CLR 17/11 A2996 0 67 200 100/15G22 RMK AO2 T01670106
53915KARA ARA20161203121010612/03/16 12:10:31  5-MIN KARA 031810Z 10015G22KT 10SM CLR 17/11 A2995 0 69 200 100/15G22 RMK AO2 T01670111
53915KARA ARA20161203121510312/03/16 12:15:31  5-MIN KARA 031815Z 10014KT 10SM FEW045 17/11 A2995 0 67 300 100/14 RMK AO2 T01720111
53915KARA ARA20161203122010312/03/16 12:20:31  5-MIN KARA 031820Z 09013KT 10SM SCT043 17/11 A2995 0 67 300 090/13 RMK AO2 T01720111
53915KARA ARA20161203122510312/03/16 12:25:31  5-MIN KARA 031825Z 09011KT 10SM SCT043 17/11 A2995 0 67 300 090/11 RMK AO2 T01720111
53915KARA ARA20161203123010312/03/16 12:30:31  5-MIN KARA 031830Z 10010KT 10SM SCT043 18/11 A2995 0 64 400 090/10 RMK AO2 T01780111
53915KARA ARA20161203123510312/03/16 12:35:31  5-MIN KARA 031835Z 08009KT 10SM BKN043 18/11 A2996 0 64 400 080/09 RMK AO2 T01780111
53915KARA ARA20161203124011012/03/16 12:40:31  5-MIN KARA 031840Z 09008KT 10SM BKN037 BKN044 17/11 A2995 0 67 300 090/08 RMK AO2 T01720111
53915KARA ARA20161203124511012/03/16 12:45:31  5-MIN KARA 031845Z 09010KT 10SM BKN037 BKN044 18/12 A2995 0 67 400 090/10 RMK AO2 T01780117
53915KARA ARA20161203125011012/03/16 12:50:31  5-MIN KARA 031850Z 09010KT 10SM OVC039 18/12 A2995 0 67 400 090/10 RMK AO2 SLP141 T01780117
53915KARA ARA20161203125510312/03/16 12:55:31  5-MIN KARA 031855Z 09013KT 10SM OVC037 18/12 A2994 0 67 400 090/13 RMK AO2 T01780117
53915KARA ARA20161203130010412/03/16 13:00:31  5-MIN KARA 031900Z 10012KT 10SM OVC037 18/12 A2994 10 69 400 100/12 RMK AO2 T01780122
53915KARA ARA20161203130510912/03/16 13:05:31  5-MIN KARA 031905Z 10014G21KT 10SM OVC037 18/12 A2994 0 67 400 100/14G21 RMK AO2 T01830122
53915KARA ARA20161203131011012/03/16 13:10:31  5-MIN KARA 031910Z 09015G21KT 10SM OVC037 18/12 A2994 10 67 400 090/15G21 RMK AO2 T01830122
53915KARA ARA20161203131511012/03/16 13:15:31  5-MIN KARA 031915Z 10014G21KT 10SM OVC037 18/12 A2994 10 67 400 100/14G21 RMK AO2 T01830122
53915KARA ARA20161203132010412/03/16 13:20:31  5-MIN KARA 031920Z 10015KT 10SM OVC037 18/12 A2994 10 67 400 100/15 RMK AO2 T01830122
53915KARA ARA20161203132510912/03/16 13:25:31  5-MIN KARA 031925Z 10011G20KT 10SM OVC037 18/12 A2994 0 67 400 100/11G20 RMK AO2 T01830122
53915KARA ARA20161203133010412/03/16 13:30:31  5-MIN KARA 031930Z 10013KT 10SM OVC037 18/12 A2994 10 67 400 100/13 RMK AO2 T01830122
53915KARA ARA20161203133510412/03/16 13:35:31  5-MIN KARA 031935Z 10015KT 10SM OVC037 18/12 A2994 10 67 400 100/15 RMK AO2 T01830122
53915KARA ARA20161203134010412/03/16 13:40:31  5-MIN KARA 031940Z 10014KT 10SM OVC037 18/12 A2994 10 67 400 090/14 RMK AO2 T01830122
53915KARA ARA20161203134510412/03/16 13:45:31  5-MIN KARA 031945Z 10015KT 10SM OVC037 18/12 A2994 10 67 400 100/15 RMK AO2 T01830122
53915KARA ARA20161203135011112/03/16 13:50:31  5-MIN KARA 031950Z 09016KT 10SM OVC035 18/12 A2994 10 67 400 090/16 RMK AO2 SLP137 T01830122
53915KARA ARA20161203135510412/03/16 13:55:31  5-MIN KARA 031955Z 10014KT 10SM OVC035 18/12 A2994 10 67 400 100/14 RMK AO2 T01830122
53915KARA ARA20161203140010412/03/16 14:00:31  5-MIN KARA 032000Z 10016KT 10SM OVC036 18/12 A2994 10 67 400 100/16 RMK AO2 T01830122
53915KARA ARA20161203140510412/03/16 14:05:31  5-MIN KARA 032005Z 10014KT 10SM OVC034 18/12 A2994 10 67 400 100/14 RMK AO2 T01830122
53915KARA ARA20161203141010412/03/16 14:10:31  5-MIN KARA 032010Z 10012KT 10SM OVC034 18/12 A2994 10 67 400 100/12 RMK AO2 T01830122
53915KARA ARA20161203141510412/03/16 14:15:31  5-MIN KARA 032015Z 09008KT 10SM OVC032 18/12 A2994 10 67 400 090/08 RMK AO2 T01830122
53915KARA ARA20161203142011612/03/16 14:20:31  5-MIN KARA 032020Z 10010G16KT 9SM BKN030 OVC036 18/12 A2994 10 67 400 100/10G16 RMK AO2 T01830122
53915KARA ARA20161203142510912/03/16 14:25:31  5-MIN KARA 032025Z 09009G16KT 9SM OVC030 18/12 A2994 10 69 400 090/09G16 RMK AO2 T01780122
53915KARA ARA20161203143010312/03/16 14:30:31  5-MIN KARA 032030Z 08009KT 7SM OVC028 18/12 A2994 10 69 400 080/09 RMK AO2 T01780122
53915KARA ARA20161203143510312/03/16 14:35:31  5-MIN KARA 032035Z 09008KT 7SM OVC028 18/12 A2994 10 69 400 080/08 RMK AO2 T01780122
53915KARA ARA20161203144011112/03/16 14:40:31  5-MIN KARA 032040Z AUTO 09005KT 6SM HZ OVC028 18/12 A2994 10 69 400 090/05 RMK AO2 T01780122
53915KARA ARA20161203144511112/03/16 14:45:31  5-MIN KARA 032045Z AUTO 08005KT 6SM HZ OVC028 18/12 A2994 10 69 400 080/05 RMK AO2 T01780122
53915KARA ARA20161203145011612/03/16 14:50:31  5-MIN KARA 032050Z VRB04KT 7SM OVC027 18/12 A2994 10 69 400 VRB/04 RMK AO2 SLP137 T01780122 58039
53915KARA ARA20161203145511912/03/16 14:55:31  5-MIN KARA 032055Z VRB04KT 7SM -RA OVC027 18/12 A2994 10 69 400 VRB/04 RMK AO2 RAB55 P0000 T01780122
53915KARA ARA20161203150012112/03/16 15:00:31  5-MIN KARA 032100Z 08009KT 7SM -RA OVC025 18/12 A2994 10 69 400 080/09 RMK AO2 RAB2055 P0000 T01780122
53915KARA ARA20161203150512112/03/16 15:05:31  5-MIN KARA 032105Z 08010KT 8SM -RA OVC025 17/12 A2993 10 72 300 080/10 RMK AO2 RAB2055 P0000 T01720122
53915KARA ARA20161203151012912/03/16 15:10:31  5-MIN KARA 032110Z 08011KT 10SM -RA BKN025 OVC032 17/13 A2993 20 75 300 080/11 RMK AO2 RAB2055 P0000 T01720128
53915KARA ARA20161203151512912/03/16 15:15:31  5-MIN KARA 032115Z 08009KT 10SM -RA BKN025 OVC032 17/13 A2993 20 75 300 080/09 RMK AO2 RAB2055 P0000 T01720128
53915KARA ARA20161203152012912/03/16 15:20:31  5-MIN KARA 032120Z 09009KT 10SM -RA BKN026 OVC032 17/13 A2992 20 75 300 090/09 RMK AO2 RAB2055 P0000 T01720128
53915KARA ARA20161203152512912/03/16 15:25:31  5-MIN KARA 032125Z 10007KT 10SM -RA BKN026 OVC032 17/13 A2993 20 75 300 100/07 RMK AO2 RAB2055 P0000 T01720128
53915KARA ARA20161203153012812/03/16 15:30:31  5-MIN KARA 032130Z 09007KT 8SM -RA BKN026 OVC032 17/13 A2993 20 75 300 090/07 RMK AO2 RAB2055 P0000 T01720128
53915KARA ARA20161203153512812/03/16 15:35:31  5-MIN KARA 032135Z 09007KT 8SM -RA BKN026 OVC032 17/13 A2992 20 75 300 090/07 RMK AO2 RAB2055 P0000 T01720128
53915KARA ARA20161203154012112/03/16 15:40:31  5-MIN KARA 032140Z 09008KT 10SM OVC024 17/13 A2992 30 75 300 090/08 RMK AO2 RAB2055E40 P0000 T01720128
53915KARA ARA20161203154512112/03/16 15:45:31  5-MIN KARA 032145Z 10009KT 10SM OVC024 17/13 A2992 30 75 300 100/09 RMK AO2 RAB2055E40 P0000 T01720128
53915KARA ARA20161203155012812/03/16 15:50:31  5-MIN KARA 032150Z 09012KT 10SM OVC024 17/13 A2992 30 75 300 090/12 RMK AO2 RAB2055E40 SLP129 P0000 T01720128
53915KARA ARA20161203155510412/03/16 15:55:31  5-MIN KARA 032155Z 09008KT 10SM OVC024 17/12 A2991 40 72 300 090/08 RMK AO2 T01720122
53915KARA ARA20161203160010412/03/16 16:00:31  5-MIN KARA 032200Z 10011KT 10SM OVC024 17/12 A2991 30 72 300 100/11 RMK AO2 T01720122
53915KARA ARA20161203160510412/03/16 16:05:31  5-MIN KARA 032205Z 11010KT 10SM OVC024 17/12 A2992 30 72 300 100/10 RMK AO2 T01720122
53915KARA ARA20161203161011012/03/16 16:10:31  5-MIN KARA 032210Z 10013G18KT 10SM OVC024 17/12 A2991 30 72 300 100/13G18 RMK AO2 T01720122
53915KARA ARA20161203161510412/03/16 16:15:31  5-MIN KARA 032215Z 10011KT 10SM OVC024 17/12 A2992 30 72 300 100/11 RMK AO2 T01720122
53915KARA ARA20161203162010412/03/16 16:20:31  5-MIN KARA 032220Z 10012KT 10SM OVC024 17/12 A2991 40 72 300 100/12 RMK AO2 T01720122
53915KARA ARA20161203162510412/03/16 16:25:31  5-MIN KARA 032225Z 10012KT 10SM OVC023 17/12 A2991 40 72 400 100/12 RMK AO2 T01720122
53915KARA ARA20161203163011712/03/16 16:30:31  5-MIN KARA 032230Z 10015G19KT 10SM BKN023 OVC034 17/12 A2990 40 72 400 100/15G19 RMK AO2 T01720122
53915KARA ARA20161203163512412/03/16 16:35:31  5-MIN KARA 032235Z 09013G19KT 10SM BKN023 BKN034 OVC045 17/12 A2990 50 72 400 090/13G19 RMK AO2 T01720122
53915KARA ARA20161203164013312/03/16 16:40:31  5-MIN KARA 032240Z 13008G20KT 080V170 10SM BKN023 OVC034 17/12 A2991 40 72 400 130/08G20 080V170 RMK AO2 T01720122
53915KARA ARA20161203164513112/03/16 16:45:31  5-MIN KARA 032245Z VRB06G20KT 10SM BKN021 BKN026 OVC034 17/13 A2993 20 75 300 VRB/06G20 RMK AO2 PRESRR T01720128
53915KARA ARA20161203165014312/03/16 16:50:31  5-MIN KARA 032250Z 09023KT 10SM BKN021 BKN026 OVC047 17/12 A2991 40 72 300 090/23 RMK AO2 PK WND 10027/2250 SLP127 T01720122
53915KARA ARA20161203165515212/03/16 16:55:31  5-MIN KARA 032255Z 09021G27KT 10SM -RA SCT021 BKN035 OVC060 17/12 A2989 60 72 400 090/21G27 RMK AO2 PK WND 10026/2255 P0000 T01720122
53915KARA ARA20161203170016312/03/16 17:00:31  5-MIN KARA 032300Z 10024G30KT 10SM -RA FEW021 SCT035 BKN046 17/12 A2989 50 72 400 100/24G30 RMK AO2 PK WND 10030/2300 WSHFT 2246 P0000 T01720122
53915KARA ARA20161203170516312/03/16 17:05:31  5-MIN KARA 032305Z 10020G30KT 10SM -RA FEW021 SCT026 BKN055 17/12 A2991 40 72 400 100/20G30 RMK AO2 PK WND 10030/2301 WSHFT 2246 P0000 T01720122
53915KARA ARA20161203171016312/03/16 17:10:31  5-MIN KARA 032310Z 10015G30KT 10SM -RA FEW021 SCT028 BKN050 17/12 A2991 30 72 300 100/15G30 RMK AO2 PK WND 10030/2301 WSHFT 2246 P0000 T01720122
53915KARA ARA20161204031514812/04/16 03:15:31  5-MIN KARA 040915Z AUTO 11005KT 4SM +RA BR FEW010 BKN070 OVC090 18/17 A2988 60 90 500 110/05 RMK AO2 LTG DSNT E-S P0004 T01830167
53915KARA ARA20161204032014712/04/16 03:20:31  5-MIN KARA 040920Z AUTO 11004KT 4SM RA BR FEW010 BKN075 OVC100 18/17 A2988 60 93 500 110/04 RMK AO2 LTG DSNT E-S P0005 T01830172
53915KARA ARA20161204032514812/04/16 03:25:31  5-MIN KARA 040925Z AUTO 08003KT 5SM +RA BR FEW070 BKN095 OVC120 18/17 A2988 60 93 500 080/03 RMK AO2 LTG DSNT E-S P0007 T01830172
53915KARA ARA20161204033014812/04/16 03:30:31  5-MIN KARA 040930Z AUTO 09004KT 5SM +RA BR FEW005 SCT070 OVC095 18/17 A2989 60 93 500 090/04 RMK AO2 LTG DSNT E-S P0009 T01830172
53915KARA ARA20161204033515312/04/16 03:35:31  5-MIN KARA 040935Z AUTO 09005KT 5SM +RA BR FEW005 BKN095 OVC120 18/17 A2989 60 93 500 080/05 RMK AO2 LTG DSNT E AND SE P0011 T01830172
53915KARA ARA20161204034014612/04/16 03:40:31  5-MIN KARA 040940Z AUTO 08005KT 5SM +RA BR FEW048 BKN100 OVC120 18/17 A2988 60 93 500 080/05 RMK AO2 LTG DSNT E P0013 T01830172
53915KARA ARA20161204034514612/04/16 03:45:31  5-MIN KARA 040945Z AUTO 05005KT 6SM -RA BR FEW048 BKN095 OVC110 18/17 A2988 70 93 500 050/05 RMK AO2 LTG DSNT E P0013 T01830172
53915KARA ARA20161204035015612/04/16 03:50:31  5-MIN KARA 040950Z AUTO 04004KT 9SM -RA FEW005 BKN095 OVC110 18/17 A2987 70 93 500 040/04 RMK AO2 LTG DSNT E AND S SLP115 P0013 T01830172
53915KARA ARA20161204035514512/04/16 03:55:31  5-MIN KARA 040955Z AUTO 04004KT 9SM -RA FEW005 BKN095 OVC110 18/17 A2987 70 93 500 040/04 RMK AO2 LTG DSNT E-S P0000 T01830172
53915KARA ARA20161204040014512/04/16 04:00:31  5-MIN KARA 041000Z AUTO 08004KT 8SM -RA FEW032 SCT060 OVC110 18/17 A2987 70 93 500 080/04 RMK AO2 LTG DSNT E-S P0000 T01830172
53915KARA ARA20161204040514512/04/16 04:05:31  5-MIN KARA 041005Z AUTO 10006KT 8SM -RA FEW037 BKN060 OVC110 18/17 A2987 80 93 500 100/06 RMK AO2 LTG DSNT E-S P0000 T01830172
53915KARA ARA20161204041014912/04/16 04:10:31  5-MIN KARA 041010Z AUTO 12009KT 7SM -RA BKN060 BKN080 OVC110 18/17 A2987 70 93 500 120/09 RMK AO2 LTG DSNT E AND S P0001 T01830172
53915KARA ARA20161204041515112/04/16 04:15:31  5-MIN KARA 041015Z AUTO 13009KT 4SM RA BR BKN060 BKN070 OVC110 18/17 A2986 80 93 500 130/09 RMK AO2 LTG DSNT E AND S P0002 T01830172
53915KARA ARA20161204042015012/04/16 04:20:31  5-MIN KARA 041020Z AUTO 13009KT 2 1/2SM +RA BR BKN060 BKN070 OVC110 18/17 A2986 80 93 500 130/09 RMK AO2 LTG DSNT S P0006 T01830172
53915KARA ARA20161204042515712/04/16 04:25:31  5-MIN KARA 041025Z AUTO 13009KT 2 1/2SM +RA BR BKN060 BKN080 OVC090 18/17 A2986 90 93 500 130/09 RMK AO2 LTG DSNT SE AND S P0007 T01830172
53915KARA ARA20161204043015312/04/16 04:30:31  5-MIN KARA 041030Z AUTO 13009KT 3SM +RA BR SCT060 BKN075 OVC090 19/17 A2986 90 90 600 130/09 RMK AO2 LTG DSNT SE AND S P0009 T01890172
53915KARA ARA20161204043514612/04/16 04:35:31  5-MIN KARA 041035Z AUTO 14008KT 4SM +RA BR SCT060 OVC080 19/17 A2986 90 90 600 140/08 RMK AO2 LTG DSNT SE AND S P0011 T01890172
53915KARA ARA20161204044016012/04/16 04:40:31  5-MIN KARA 041040Z AUTO 14013G17KT 3SM +RA BR SCT055 BKN070 OVC085 19/18 A2985 90 93 600 140/13G17 RMK AO2 LTG DSNT SE AND SW P0016 T01890178
53915KARA ARA20161204044514912/04/16 04:45:31  5-MIN KARA 041045Z AUTO 16012KT 3SM RA BR FEW055 SCT070 OVC085 19/18 A2985 90 90 700 160/12 RMK AO2 LTG DSNT SE-SW P0016 T01940178
53915KARA ARA20161204045015412/04/16 04:50:31  5-MIN KARA 041050Z AUTO 18009KT 7SM -RA FEW055 BKN080 OVC090 19/18 A2986 80 93 700 180/09 RMK AO2 LTG DSNT SE-SW SLP110 P0017 T01940183
53915KARA ARA20161204045515212/04/16 04:55:31  5-MIN KARA 041055Z AUTO 17010KT 6SM RA BR FEW055 SCT065 OVC080 20/18 A2987 80 90 700 170/10 RMK AO2 LTG DSNT SE AND S P0002 T02000183
53915KARA ARA20161204050015712/04/16 05:00:31  5-MIN KARA 041100Z AUTO 16009KT 2 1/2SM +RA BR SCT046 BKN065 OVC080 20/18 A2986 80 90 700 160/09 RMK AO2 LTG DSNT SE AND S P0009 T02000183
53915KARA ARA20161204050514612/04/16 05:05:31  5-MIN KARA 041105Z AUTO 16014KT 2SM +RA BR BKN044 OVC080 19/18 A2986 80 93 700 160/14 RMK AO2 LTG DSNT SE AND S P0016 T01940183
53915KARA ARA20161204051014612/04/16 05:10:31  5-MIN KARA 041110Z AUTO 14015KT 2SM +RA BR BKN041 OVC080 20/18 A2986 90 90 700 140/15 RMK AO2 LTG DSNT SE AND S P0023 T02000183
53915KARA ARA20161204051514012/04/16 05:15:31  5-MIN KARA 041115Z AUTO 15013KT 3SM -RA BR SCT041 OVC085 20/18 A2986 80 90 700 150/13 RMK AO2 LTG DSNT SE P0023 T02000183
53915KARA ARA20161204052014012/04/16 05:20:31  5-MIN KARA 041120Z AUTO 16010KT 6SM +RA BR SCT041 OVC085 20/18 A2987 80 90 700 160/10 RMK AO2 LTG DSNT SE P0026 T02000183
53915KARA ARA20161204052513912/04/16 05:25:31  5-MIN KARA 041125Z AUTO 15008KT 5SM RA BR SCT039 OVC085 20/19 A2987 70 93 700 150/08 RMK AO2 LTG DSNT SE P0027 T02000189
53915KARA ARA20161204053012712/04/16 05:30:31  5-MIN KARA 041130Z AUTO 13003KT 6SM RA BR FEW041 OVC080 20/18 A2986 80 90 700 130/03 RMK AO2 P0028 T02000183
53915KARA ARA20161204053513512/04/16 05:35:31  5-MIN KARA 041135Z AUTO 17003KT 5SM +RA BR FEW031 BKN080 OVC100 20/19 A2986 80 93 700 170/03 RMK AO2 P0030 T02000189
53915KARA ARA20161204054012712/04/16 05:40:31  5-MIN KARA 041140Z AUTO 17005KT 5SM RA BR BKN080 OVC110 20/19 A2986 80 93 700 170/05 RMK AO2 P0031 T02000189
53915KARA ARA20161204054512212/04/16 05:45:31  5-MIN KARA 041145Z 19004KT 6SM RA BR BKN085 OVC110 20/18 A2986 80 90 700 190/04 RMK AO2 P0031 T02000183
53915KARA ARA20161204055015912/04/16 05:50:31  5-MIN KARA 041150Z 16006KT 6SM RA BR BKN090 OVC110 20/18 A2987 80 90 700 160/06 RMK AO2 SLP113 P0032 60158 70195 T02000183 10200 20172 51005
53915KARA ARA20161204055511912/04/16 05:55:31  5-MIN KARA 041155Z 17005KT 7SM RA BKN090 OVC110 20/18 A2987 80 90 700 170/05 RMK AO2 P0000 T02000183
53915KARA ARA20161204060012012/04/16 06:00:31  5-MIN KARA 041200Z 15005KT 9SM -RA BKN085 OVC110 19/18 A2987 70 93 700 150/05 RMK AO2 P0000 T01940183
53915KARA ARA20161204060512812/04/16 06:05:31  5-MIN KARA 041205Z 18007KT 10SM -RA FEW012 BKN090 OVC110 19/18 A2988 70 93 600 170/07 RMK AO2 P0001 T01940183
53915KARA ARA20161204061014212/04/16 06:10:31  5-MIN KARA 041210Z 30008KT 240V320 9SM RA SCT010 BKN090 OVC110 20/18 A2988 60 90 700 300/08 240V320 RMK AO2 P0001 T02000183
53915KARA ARA20161204061513212/04/16 06:15:31  5-MIN KARA 041215Z 30010KT 7SM +RA BKN008 OVC085 19/18 A2988 60 93 600 300/10 RMK AO2 CIG 004V014 P0003 T01940183
53915KARA ARA20161204062014212/04/16 06:20:31  5-MIN KARA 041220Z 29010KT 6SM +RA BR SCT005 BKN011 OVC085 19/18 A2988 60 90 600 290/10 RMK AO2 CIG 007V014 P0005 T01940178
53915KARA ARA20161204062513012/04/16 06:25:31  5-MIN KARA 041225Z 31008KT 4SM +RA BR BKN005 BKN011 OVC080 19/18 A2988 60 90 600 310/08 RMK AO2 P0007 T01940178
53915KARA ARA20161204063012312/04/16 06:30:31  5-MIN KARA 041230Z 30010KT 4SM +RA BR BKN005 OVC011 19/18 A2988 60 90 600 300/10 RMK AO2 P0009 T01940178
53915KARA ARA20161204063512812/04/16 06:35:31  5-MIN KARA 041235Z 32013G17KT 5SM RA BR BKN005 OVC011 18/17 A2988 60 93 500 320/13G17 RMK AO2 P0010 T01830172
53915KARA ARA20161204064012012/04/16 06:40:31  5-MIN KARA 041240Z 32012KT 8SM -RA BKN005 OVC009 18/16 A2989 60 90 400 310/12 RMK AO2 P0010 T01780161
53915KARA ARA20161204064512112/04/16 06:45:31  5-MIN KARA 041245Z 31010KT 10SM -RA BKN005 OVC009 17/15 A2989 60 90 300 310/10 RMK AO2 P0010 T01670150
53915KARA ARA20161204065012712/04/16 06:50:31  5-MIN KARA 041250Z 32009KT 7SM +RA BKN005 OVC009 16/15 A2989 50 93 200 320/09 RMK AO2 SLP121 P0012 T01610150
53915KARA ARA20161204065512212/04/16 06:55:31  5-MIN KARA 041255Z 35005KT 6SM RA BR BKN005 OVC009 16/15 A2989 50 93 200 350/05 RMK AO2 P0000 T01610150
53915KARA ARA20161204070012612/04/16 07:00:31  5-MIN KARA 041300Z 36004KT 9SM RA BKN004 BKN009 OVC120 16/15 A2989 50 93 200 360/04 RMK AO2 P0001 T01610150
53915KARA ARA20161204070512812/04/16 07:05:31  5-MIN KARA 041305Z 32003KT 10SM -RA BKN004 BKN015 OVC120 16/15 A2990 40 93 200 320/03 RMK AO2 P0001 T01610150
53915KARA ARA20161204071012812/04/16 07:10:31  5-MIN KARA 041310Z 31005KT 10SM -RA SCT004 BKN015 OVC120 16/14 A2991 40 90 200 310/05 RMK AO2 P0001 T01610144
53915KARA ARA20161204071512812/04/16 07:15:31  5-MIN KARA 041315Z 31003KT 10SM -RA SCT004 BKN017 OVC120 16/14 A2991 40 90 200 310/03 RMK AO2 P0001 T01610144
53915KARA ARA20161204072012812/04/16 07:20:31  5-MIN KARA 041320Z 01003KT 10SM -RA FEW004 BKN017 OVC120 16/14 A2990 40 90 200 360/03 RMK AO2 P0001 T01610144
53915KARA ARA20161204072512812/04/16 07:25:31  5-MIN KARA 041325Z 36003KT 10SM -RA FEW009 BKN017 OVC120 16/14 A2990 40 90 200 360/03 RMK AO2 P0001 T01610144
53915KARA ARA20161204073012812/04/16 07:30:31  5-MIN KARA 041330Z 36004KT 10SM -RA SCT009 BKN017 OVC120 16/14 A2991 40 90 200 360/04 RMK AO2 P0001 T01610144
53915KARA ARA20161204073512112/04/16 07:35:31  5-MIN KARA 041335Z 36004KT 10SM -RA SCT009 OVC017 16/14 A2991 40 90 200 360/04 RMK AO2 P0001 T01610144
53915KARA ARA20161204074013312/04/16 07:40:31  5-MIN KARA 041340Z 01004KT 10SM -RA BKN009 OVC017 16/14 A2991 40 90 200 010/04 RMK AO2 CIG 006V012 P0002 T01610144
53915KARA ARA20161204074513312/04/16 07:45:31  5-MIN KARA 041345Z 03004KT 10SM -RA BKN007 OVC017 16/14 A2991 40 90 200 030/04 RMK AO2 CIG 005V010 P0002 T01610144
53915KARA ARA20161204075013812/04/16 07:50:31  5-MIN KARA 041350Z 04005KT 7SM RA BKN007 OVC017 17/15 A2991 40 90 300 040/05 RMK AO2 CIG 005V010 SLP126 P0003 T01670150
53915KARA ARA20161204075512512/04/16 07:55:31  5-MIN KARA 041355Z 04006KT 7SM -RA OVC007 17/15 A2990 40 90 300 040/06 RMK AO2 CIG 005V010 P0000 T01670150
53915KARA ARA20161204080011912/04/16 08:00:31  5-MIN KARA 041400Z 05008KT 7SM RA BKN006 OVC018 17/15 A2990 50 90 300 050/08 RMK AO2 P0001 T01670150
53915KARA ARA20161204080512912/04/16 08:05:31  5-MIN KARA 041405Z 06007KT 6SM RA BR BKN006 BKN009 BKN120 17/15 A2989 60 90 300 060/07 RMK AO2 P0001 T01670150
53915KARA ARA20161204081012312/04/16 08:10:31  5-MIN KARA 041410Z 05007KT 6SM -RA BR BKN006 BKN120 17/15 A2988 60 90 300 050/07 RMK AO2 P0001 T01670150
53915KARA ARA20161204081512012/04/16 08:15:31  5-MIN KARA 041415Z 05007KT 9SM -RA SCT005 BKN120 17/15 A2988 60 90 300 050/07 RMK AO2 P0001 T01670150
53915KARA ARA20161204082012812/04/16 08:20:31  5-MIN KARA 041420Z 08006KT 10SM -RA FEW005 SCT065 SCT120 17/15 A2988 60 90 300 080/06 RMK AO2 P0001 T01670150
53915KARA ARA20161204082512812/04/16 08:25:31  5-MIN KARA 041425Z 08005KT 10SM -RA FEW005 FEW065 SCT110 17/15 A2989 60 90 300 080/05 RMK AO2 P0001 T01670150
53915KARA ARA20161204083012012/04/16 08:30:31  5-MIN KARA 041430Z 10007KT 9SM -RA FEW100 SCT120 17/15 A2989 60 90 300 100/07 RMK AO2 P0001 T01670150
53915KARA ARA20161204083512712/04/16 08:35:31  5-MIN KARA 041435Z 09007KT 8SM -RA FEW070 FEW095 BKN120 17/16 A2988 60 93 300 090/07 RMK AO2 P0002 T01670156
53915KARA ARA20161204084012212/04/16 08:40:31  5-MIN KARA 041440Z 11006KT 8SM FEW095 SCT110 17/16 A2989 50 93 300 110/06 RMK AO2 RAE40 P0002 T01670156
53915KARA ARA20161204084512212/04/16 08:45:31  5-MIN KARA 041445Z 11006KT 8SM FEW100 BKN110 17/16 A2990 50 90 400 110/06 RMK AO2 RAE40 P0002 T01720156
53915KARA ARA20161204085014112/04/16 08:50:31  5-MIN KARA 041450Z 10005KT 7SM SCT090 BKN110 17/16 A2989 50 90 400 100/05 RMK AO2 RAE40 SLP122 P0002 60017 T01720156 55008
53915KARA ARA20161204085512012/04/16 08:55:31  5-MIN KARA 041455Z 11005KT 7SM -RA BKN090 BKN120 17/16 A2990 50 90 400 110/05 RMK AO2 P0000 T01720156
53915KARA ARA20161204090012012/04/16 09:00:31  5-MIN KARA 041500Z 11004KT 7SM -RA SCT080 BKN100 17/16 A2990 50 90 400 110/04 RMK AO2 P0000 T01720156
53915KARA ARA20161204090511312/04/16 09:05:31  5-MIN KARA 041505Z 11004KT 7SM -RA OVC100 17/16 A2990 40 93 400 110/04 RMK AO2 P0000 T01720161
53915KARA ARA20161204091012012/04/16 09:10:31  5-MIN KARA 041510Z 11003KT 7SM -RA FEW008 OVC095 17/16 A2991 40 93 400 110/03 RMK AO2 P0000 T01720161
53915KARA ARA20161204091512012/04/16 09:15:31  5-MIN KARA 041515Z 00000KT 8SM -RA SCT008 OVC095 18/16 A2991 30 90 400 000/00 RMK AO2 P0000 T01780161
53915KARA ARA20161204092012912/04/16 09:20:31  5-MIN KARA 041520Z 13004KT 8SM BKN008 BKN080 OVC100 17/16 A2991 30 93 300 130/04 RMK AO2 RAE17 P0000 T01720161
53915KARA ARA20161204092513212/04/16 09:25:31  5-MIN KARA 041525Z 00000KT 7SM -RA BKN008 OVC100 18/16 A2992 30 90 400 000/00 RMK AO2 CIG 005V008 P0000 T01780161
53915KARA ARA20161204093013212/04/16 09:30:31  5-MIN KARA 041530Z 00000KT 7SM -RA BKN006 OVC100 18/16 A2992 30 90 400 000/00 RMK AO2 CIG 004V008 P0000 T01780161
53915KARA ARA20161204093512512/04/16 09:35:31  5-MIN KARA 041535Z 00000KT 7SM -RA OVC006 18/17 A2993 20 93 400 000/00 RMK AO2 CIG 004V008 P0000 T01780167
53915KARA ARA20161204094012012/04/16 09:40:31  5-MIN KARA 041540Z 00000KT 7SM -RA BKN004 OVC008 18/17 A2993 20 93 400 000/00 RMK AO2 P0000 T01780167
53915KARA ARA20161204094512012/04/16 09:45:31  5-MIN KARA 041545Z 32010KT 7SM -RA OVC004 18/17 A2994 10 93 400 310/10 RMK AO2 PRESRR P0000 T01780167
53915KARA ARA20161204095012312/04/16 09:50:31  5-MIN KARA 041550Z 32007KT 6SM -RA BR OVC004 17/16 A2994 10 90 300 320/07 RMK AO2 SLP138 P0000 T01720156
53915KARA ARA20161204095511512/04/16 09:55:31  5-MIN KARA 041555Z 32012KT 6SM -RA BR OVC004 17/16 A2994 0 90 300 320/12 RMK AO2 P0000 T01720156
53915KARA ARA20161204100011212/04/16 10:00:31  5-MIN KARA 041600Z 32011KT 7SM -RA OVC004 17/16 A2995 0 90 300 320/11 RMK AO2 P0000 T01720156
53915KARA ARA20161204100511212/04/16 10:05:31  5-MIN KARA 041605Z 32011KT 8SM -RA OVC004 17/16 A2996 0 93 200 310/11 RMK AO2 P0000 T01670156
53915KARA ARA20161204101011412/04/16 10:10:31  5-MIN KARA 041610Z 30013KT 9SM -RA OVC004 17/15 A2996 -10 90 200 300/13 RMK AO2 P0000 T01670150
53915KARA ARA20161204101511412/04/16 10:15:31  5-MIN KARA 041615Z 31015KT 8SM -RA OVC004 16/14 A2997 -10 90 200 300/15 RMK AO2 P0000 T01610144
53915KARA ARA20161204102011712/04/16 10:20:31  5-MIN KARA 041620Z 31012KT 6SM -RA BR OVC004 16/14 A2997 -10 90 100 310/12 RMK AO2 P0000 T01560139
53915KARA ARA20161204102512112/04/16 10:25:31  5-MIN KARA 041625Z 31014KT 5SM RA BR OVC004 15/13 A2998 -30 90 0 310/14 RMK AO2 PRESRR P0000 T01500133
53915KARA ARA20161204103011412/04/16 10:30:31  5-MIN KARA 041630Z 32010KT 4SM RA BR OVC004 14/13 A2998 -20 90 0 320/10 RMK AO2 P0001 T01440128
53915KARA ARA20161204103513012/04/16 10:35:31  5-MIN KARA 041635Z 32015KT 3SM +RA BR OVC004 14/13 A2998 -20 93 -100 320/15 RMK AO2 CIG 003V009 P0003 T01390128
53915KARA ARA20161204104012512/04/16 10:40:31  5-MIN KARA 041640Z 32013KT 2SM +RA BR BKN004 OVC009 14/12 A2998 -20 90 -100 320/13 RMK AO2 P0006 T01390122
53915KARA ARA20161204104512512/04/16 10:45:31  5-MIN KARA 041645Z 32013KT 2SM +RA BR BKN004 OVC009 13/12 A2998 -20 93 -100 320/13 RMK AO2 P0008 T01330122
53915KARA ARA20161204105011912/04/16 10:50:31  5-MIN KARA 041650Z 33013KT 2 1/2SM +RA BR BKN006 OVC011 13/12 A2997 -20 89 -100 330/13 RMK AO2 P0010
53915KARA ARA20161204105512912/04/16 10:55:31  5-MIN KARA 041655Z 33010KT 2 1/2SM +RA BR BKN006 OVC011 13/12 A2998 -20 89 -100 330/10 RMK AO2 P0001 T01330117
53915KARA ARA20161204110014412/04/16 11:00:31  5-MIN KARA 041700Z 33011KT 2 1/2SM +RA BR BKN006 BKN011 OVC026 13/12 A2997 -10 89 -100 330/11 RMK AO2 VIS 2V3 P0003 T01330117
53915KARA ARA20161204110513212/04/16 11:05:31  5-MIN KARA 041705Z 33014KT 2SM +RA BR BKN006 BKN010 OVC026 13/11 A2997 -20 89 -200 330/14 RMK AO2 P0006 T01280111
53915KARA ARA20161204111013212/04/16 11:10:31  5-MIN KARA 041710Z 32010KT 2SM +RA BR BKN006 BKN010 OVC026 13/11 A2999 -30 89 -200 320/10 RMK AO2 P0008 T01280111
53915KARA ARA20161204111512512/04/16 11:15:31  5-MIN KARA 041715Z 34012KT 2SM +RA BR BKN006 OVC010 13/11 A2997 -10 89 -200 340/12 RMK AO2 P0010 T01280111
53915KARA ARA20161204112012512/04/16 11:20:31  5-MIN KARA 041720Z 35011KT 2SM +RA BR BKN006 OVC035 13/11 A2996 -10 89 -200 350/11 RMK AO2 P0012 T01280111
53915KARA ARA20161204112512812/04/16 11:25:31  5-MIN KARA 041725Z 33012KT 2 1/2SM RA BR BKN005 OVC037 12/11 A2997 -20 93 -300 330/12 RMK AO2 P0012 T01220111
53915KARA ARA20161204113012912/04/16 11:30:31  5-MIN KARA 041730Z 34011KT 2 1/2SM +RA BR BKN005 OVC040 12/11 A2997 -10 93 -300 340/11 RMK AO2 P0014 T01220111
53915KARA ARA20161204113512912/04/16 11:35:31  5-MIN KARA 041735Z 34011KT 1 3/4SM +RA BR BKN005 OVC011 12/11 A2996 -10 89 -300 340/11 RMK AO2 P0017 T01220106
53915KARA ARA20161204114012912/04/16 11:40:31  5-MIN KARA 041740Z 33009KT 2 1/2SM -RA BR BKN005 OVC041 12/11 A2997 -20 93 -300 330/09 RMK AO2 P0018 T01220111
53915KARA ARA20161204114511512/04/16 11:45:31  5-MIN KARA 041745Z 34009KT 7SM -RA OVC005 12/11 A2996 -10 93 -300 340/09 RMK AO2 P0018 T01220111
53915KARA ARA20161204115010512/04/16 11:50:31  5-MIN KARA 041750Z 33009KT 7SM -RA OVC005 12/11 A2996 -10 89 -300 330/09 RMK AO2 P0018
53915KARA ARA20161204115513012/04/16 11:55:31  5-MIN KARA 041755Z 35009KT 6SM -RA BR OVC005 12/11 A2996 -10 93 -300 350/09 RMK AO2 CIG 004V008 P0000 T01220111
53915KARA ARA20161204120011612/04/16 12:00:31  5-MIN KARA 041800Z 35010KT 5SM -RA BR OVC005 12/11 A2996 0 89 -300 350/10 RMK AO2 P0000 T01220106
53915KARA ARA20161204120511612/04/16 12:05:31  5-MIN KARA 041805Z 01010KT 5SM -RA BR OVC005 12/11 A2995 0 89 -200 010/10 RMK AO2 P0001 T01220106
53915KARA ARA20161204121011612/04/16 12:10:31  5-MIN KARA 041810Z 36011KT 3SM -RA BR OVC005 12/11 A2994 0 89 -200 360/11 RMK AO2 P0001 T01220106
53915KARA ARA20161204121512412/04/16 12:15:31  5-MIN KARA 041815Z 01010KT 3SM -RA BR BKN005 OVC040 12/11 A2994 10 89 -200 010/10 RMK AO2 P0001 T01220106
53915KARA ARA20161204122012412/04/16 12:20:31  5-MIN KARA 041820Z 02009KT 5SM -RA BR BKN005 OVC040 13/11 A2993 10 89 -200 020/09 RMK AO2 P0001 T01280111
53915KARA ARA20161204122512112/04/16 12:25:31  5-MIN KARA 041825Z 02008KT 8SM -RA BKN005 OVC040 13/11 A2993 20 89 -200 020/08 RMK AO2 P0001 T01280111
53915KARA ARA20161204123012412/04/16 12:30:31  5-MIN KARA 041830Z 02009KT 10SM BKN005 OVC040 13/11 A2993 20 89 -200 020/09 RMK AO2 RAE29 P0001 T01280111
53915KARA ARA20161204123512412/04/16 12:35:31  5-MIN KARA 041835Z 03008KT 10SM SCT005 OVC041 13/11 A2992 20 89 -100 030/08 RMK AO2 RAE29 P0001 T01280111
53915KARA ARA20161204124012212/04/16 12:40:31  5-MIN KARA 041840Z 05006KT 10SM -RA SCT005 OVC041 13/11 A2992 20 89 -100 050/06 RMK AO2 P0001 T01280111
53915KARA ARA20161204124512212/04/16 12:45:31  5-MIN KARA 041845Z 05006KT 10SM -RA SCT005 OVC041 13/12 A2993 20 93 -100 050/06 RMK AO2 P0001 T01280117
53915KARA ARA20161204125011912/04/16 12:50:31  5-MIN KARA 041850Z 06006KT 10SM -RA SCT005 BKN015 OVC042 13/12 A2992 20 93 -100 060/06 RMK AO2 P0001
53915KARA ARA20161204125512912/04/16 12:55:31  5-MIN KARA 041855Z 05007KT 10SM -RA SCT005 SCT015 OVC042 13/12 A2992 30 89 -100 050/07 RMK AO2 P0000 T01330117
53915KARA ARA20161204130012812/04/16 13:00:31  5-MIN KARA 041900Z 06007KT 8SM -RA SCT005 SCT015 OVC042 13/12 A2992 20 89 -100 060/07 RMK AO2 P0000 T01330117
53915KARA ARA20161204130512812/04/16 13:05:31  5-MIN KARA 041905Z 05006KT 7SM -RA FEW005 BKN042 OVC055 13/12 A2992 30 89 -100 050/06 RMK AO2 P0001 T01330117
53915KARA ARA20161204131013012/04/16 13:10:31  5-MIN KARA 041910Z 05006KT 4SM RA BR FEW005 BKN042 OVC050 13/11 A2992 20 89 -100 050/06 RMK AO2 P0001 T01280111
53915KARA ARA20161204131513112/04/16 13:15:31  5-MIN KARA 041915Z 02007KT 4SM -RA BR FEW005 BKN042 OVC050 13/12 A2992 30 93 -100 020/07 RMK AO2 P0001 T01280117
53915KARA ARA20161204132013512/04/16 13:20:31  5-MIN KARA 041920Z 02009KT 2 1/2SM +RA BR FEW005 BKN042 OVC050 13/11 A2992 30 86 -100 020/09 RMK AO2 P0002 T01330111
53915KARA ARA20161204132513412/04/16 13:25:31  5-MIN KARA 041925Z 03007KT 1 3/4SM RA BR FEW005 BKN040 OVC055 13/12 A2992 30 93 -100 030/07 RMK AO2 P0003 T01280117
53915KARA ARA20161204133013412/04/16 13:30:31  5-MIN KARA 041930Z 01008KT 1 1/2SM RA BR FEW005 BKN040 OVC055 13/12 A2992 30 89 -100 010/08 RMK AO2 P0004 T01330117
53915KARA ARA20161204133513112/04/16 13:35:31  5-MIN KARA 041935Z 01007KT 2SM -RA BR FEW005 BKN040 OVC060 13/12 A2992 30 89 -100 010/07 RMK AO2 P0004 T01330117
53915KARA ARA20161204134013412/04/16 13:40:31  5-MIN KARA 041940Z 36007KT 2 1/2SM RA BR SCT005 BKN040 OVC060 13/12 A2992 20 89 -100 360/07 RMK AO2 P0005 T01330117
53915KARA ARA20161204134513112/04/16 13:45:31  5-MIN KARA 041945Z 36009KT 3SM -RA BR SCT004 BKN038 OVC055 13/12 A2992 30 89 -100 360/09 RMK AO2 P0005 T01330117
53915KARA ARA20161204135013812/04/16 13:50:31  5-MIN KARA 041950Z 35010KT 3SM -RA BR FEW004 BKN044 OVC055 13/12 A2992 30 89 -100 350/10 RMK AO2 SLP131 P0005 T01330117
53915KARA ARA20161204135513112/04/16 13:55:31  5-MIN KARA 041955Z 35010KT 4SM -RA BR FEW004 BKN046 OVC060 13/12 A2993 20 89 -100 350/10 RMK AO2 P0000 T01330117
53915KARA ARA20161204140013012/04/16 14:00:31  5-MIN KARA 042000Z 35011KT 4SM RA BR FEW004 BKN044 OVC060 13/12 A2992 30 89 -100 350/11 RMK AO2 P0000 T01330117
53915KARA ARA20161204140513412/04/16 14:05:31  5-MIN KARA 042005Z 36009KT 2 1/2SM RA BR FEW004 BKN042 OVC060 13/12 A2992 30 89 -100 360/09 RMK AO2 P0001 T01330117
53915KARA ARA20161204141013412/04/16 14:10:31  5-MIN KARA 042010Z 35010KT 2 1/2SM RA BR FEW004 BKN044 OVC060 13/12 A2992 30 89 -100 350/10 RMK AO2 P0002 T01330117
53915KARA ARA20161204141512812/04/16 14:15:31  5-MIN KARA 042015Z 35010KT 2 1/2SM +RA BR BKN042 OVC060 13/12 A2992 20 89 -100 350/10 RMK AO2 P0004 T01330117
53915KARA ARA20161204142012812/04/16 14:20:31  5-MIN KARA 042020Z 35010KT 1 3/4SM +RA BR BKN038 OVC065 13/12 A2993 20 93 -100 350/10 RMK AO2 P0007 T01330122
53915KARA ARA20161204142512812/04/16 14:25:31  5-MIN KARA 042025Z 35009KT 1 3/4SM +RA BR BKN038 OVC070 13/12 A2993 20 93 -100 350/09 RMK AO2 P0009 T01330122
53915KARA ARA20161204143013112/04/16 14:30:31  5-MIN KARA 042030Z 35008KT 2SM +RA BR FEW005 BKN040 OVC065 13/12 A2993 20 93 -100 350/08 RMK AO2 P0011 T01330122
53915KARA ARA20161204143513512/04/16 14:35:31  5-MIN KARA 042035Z 35009KT 2 1/2SM +RA BR SCT005 BKN040 OVC065 13/12 A2993 20 93 -100 350/09 RMK AO2 P0012 T01330122
53915KARA ARA20161204144013512/04/16 14:40:31  5-MIN KARA 042040Z 35010KT 2 1/2SM +RA BR SCT005 BKN039 OVC070 13/12 A2993 20 93 -100 350/10 RMK AO2 P0014 T01330122
53915KARA ARA20161204144512812/04/16 14:45:31  5-MIN KARA 042045Z 35010KT 3SM +RA BR SCT004 BKN044 OVC070 14/12 A2993 10 90 0 350/10 RMK AO2 P0015 T01390122
53915KARA ARA20161204145014712/04/16 14:50:31  5-MIN KARA 042050Z 35010KT 3SM +RA BR FEW004 BKN049 OVC080 14/12 A2994 10 90 0 350/10 RMK AO2 SLP137 P0016 60023 T01390122 53006
53915KARA ARA20161204145512812/04/16 14:55:31  5-MIN KARA 042055Z 35011KT 3SM +RA BR FEW004 BKN049 OVC080 14/12 A2994 10 90 0 350/11 RMK AO2 P0000 T01390122
53915KARA ARA20161204150012812/04/16 15:00:31  5-MIN KARA 042100Z 35013KT 3SM +RA BR FEW004 BKN050 OVC075 14/12 A2994 10 90 0 350/13 RMK AO2 P0002 T01390122
53915KARA ARA20161204150512812/04/16 15:05:31  5-MIN KARA 042105Z 35013KT 3SM +RA BR FEW006 BKN050 OVC075 14/12 A2993 20 90 0 350/13 RMK AO2 P0004 T01390122
53915KARA ARA20161204151012812/04/16 15:10:31  5-MIN KARA 042110Z 36012KT 3SM +RA BR FEW006 BKN070 OVC080 14/12 A2993 20 90 0 360/12 RMK AO2 P0005 T01390122
53915KARA ARA20161204151512712/04/16 15:15:31  5-MIN KARA 042115Z 36013KT 4SM RA BR FEW006 BKN055 OVC075 14/12 A2993 20 90 0 360/13 RMK AO2 P0006 T01390122
53915KARA ARA20161204152013012/04/16 15:20:31  5-MIN KARA 042120Z 36014KT 6SM RA BR SCT006 BKN050 OVC075 13/12 A2992 30 93 -100 360/14 RMK AO2 P0007 T01330122
53915KARA ARA20161204152512712/04/16 15:25:31  5-MIN KARA 042125Z 01014KT 6SM RA BR BKN004 BKN050 OVC075 14/12 A2991 40 90 0 010/14 RMK AO2 P0007 T01390122
53915KARA ARA20161204153012512/04/16 15:30:31  5-MIN KARA 042130Z 01014KT 7SM -RA SCT004 BKN047 OVC110 14/12 A2991 30 90 0 010/14 RMK AO2 P0007 T01390122
53915KARA ARA20161204153512712/04/16 15:35:31  5-MIN KARA 042135Z 36013KT 8SM RA BKN004 BKN060 OVC110 13/12 A2992 20 93 -100 360/13 RMK AO2 P0008 T01330122
53915KARA ARA20161204154013212/04/16 15:40:31  5-MIN KARA 042140Z 01015KT 7SM RA BKN005 OVC110 13/12 A2992 20 89 -100 360/15 RMK AO2 LTG DSNT SE P0008 T01330117
53915KARA ARA20161204154513512/04/16 15:45:31  5-MIN KARA 042145Z 36015KT 5SM RA BR BKN005 OVC110 13/12 A2993 20 89 -100 360/15 RMK AO2 LTG DSNT SE P0009 T01330117
53915KARA ARA20161204155015512/04/16 15:50:31  5-MIN KARA 042150Z 01014G21KT 5SM RA BR BKN005 BKN060 OVC110 13/12 A2994 10 89 -100 010/14G21 RMK AO2 LTG DSNT SE SLP137 P0010 T01330117
53915KARA ARA20161204155512312/04/16 15:55:31  5-MIN KARA 042155Z 36014KT 6SM RA BR BKN005 OVC110 13/12 A2994 10 89 -100 360/14 RMK AO2 P0000 T01330117
53915KARA ARA20161204160013012/04/16 16:00:31  5-MIN KARA 042200Z 36015KT 6SM RA BR BKN006 BKN055 OVC110 13/12 A2993 20 89 -100 360/15 RMK AO2 P0001 T01330117
53915KARA ARA20161204160513112/04/16 16:05:31  5-MIN KARA 042205Z 01014KT 4SM +RA BR BKN006 BKN060 OVC100 13/11 A2992 20 86 -100 010/14 RMK AO2 P0004 T01330111
53915KARA ARA20161204161013712/04/16 16:10:31  5-MIN KARA 042210Z 02016G21KT 4SM +RA BR SCT006 BKN055 OVC100 13/11 A2992 30 89 -100 020/16G21 RMK AO2 P0005 T01280111
53915KARA ARA20161204161513712/04/16 16:15:31  5-MIN KARA 042215Z 03014G20KT 4SM +RA BR BKN006 BKN022 OVC080 13/11 A2992 30 89 -100 030/14G20 RMK AO2 P0008 T01280111
53915KARA ARA20161204162013712/04/16 16:20:31  5-MIN KARA 042220Z 03011G20KT 4SM +RA BR BKN006 BKN022 OVC080 13/11 A2992 20 89 -100 030/11G20 RMK AO2 P0010 T01280111
53915KARA ARA20161204162513112/04/16 16:25:31  5-MIN KARA 042225Z 03012KT 4SM +RA BR BKN006 BKN050 OVC080 13/11 A2992 30 89 -100 030/12 RMK AO2 P0011 T01280111
53915KARA ARA20161204163013112/04/16 16:30:31  5-MIN KARA 042230Z 03011KT 5SM +RA BR BKN006 BKN050 OVC080 13/11 A2992 30 89 -100 020/11 RMK AO2 P0013 T01280111
53915KARA ARA20161204163513012/04/16 16:35:31  5-MIN KARA 042235Z 03011KT 6SM RA BR BKN006 BKN048 OVC080 13/11 A2993 20 89 -100 030/11 RMK AO2 P0013 T01280111
53915KARA ARA20161204164011312/04/16 16:40:31  5-MIN KARA 042240Z 02010KT 8SM RA BKN006 13/11 A2993 10 89 -200 020/10 RMK AO2 P0014 T01280111
53915KARA ARA20161204164512012/04/16 16:45:31  5-MIN KARA 042245Z 36010KT 8SM RA OVC006 13/11 A2994 10 89 -200 360/10 RMK AO2 PRESRR P0015 T01280111
53915KARA ARA20161204165012012/04/16 16:50:31  5-MIN KARA 042250Z 02009KT 8SM RA OVC006 13/11 A2994 10 89 -200 020/09 RMK AO2 SLP137 P0016 T01280111
53915KARA ARA20161204165512712/04/16 16:55:31  5-MIN KARA 042255Z 03010KT 8SM RA BKN006 BKN049 OVC090 13/11 A2992 30 89 -100 030/10 RMK AO2 P0001 T01280111
53915KARA ARA20161204170012412/04/16 17:00:31  5-MIN KARA 042300Z 03006KT 6SM +RA BR BKN006 OVC090 13/11 A2993 20 89 -200 030/06 RMK AO2 P0002 T01280111
53915KARA ARA20161204170513012/04/16 17:05:31  5-MIN KARA 042305Z 04006KT 6SM RA BR BKN006 BKN050 OVC090 13/11 A2994 10 89 -200 040/06 RMK AO2 P0003 T01280111
53915KARA ARA20161204171012712/04/16 17:10:31  5-MIN KARA 042310Z 07003KT 9SM -RA BKN006 BKN041 OVC090 13/11 A2995 0 89 -200 070/03 RMK AO2 P0003 T01280111
53915KARA ARA20161204171512812/04/16 17:15:31  5-MIN KARA 042315Z 09006KT 10SM -RA SCT009 BKN050 OVC095 13/12 A2995 0 93 -200 090/06 RMK AO2 P0003 T01280117
53915KARA ARA20161204172012712/04/16 17:20:31  5-MIN KARA 042320Z 10005KT 7SM +RA SCT009 BKN055 OVC095 13/11 A2995 0 89 -200 100/05 RMK AO2 P0005 T01280111
53915KARA ARA20161204172513012/04/16 17:25:31  5-MIN KARA 042325Z 08004KT 5SM +RA BR SCT007 BKN055 OVC110 13/11 A2995 0 89 -200 080/04 RMK AO2 P0006 T01280111
53915KARA ARA20161204173012912/04/16 17:30:31  5-MIN KARA 042330Z 11004KT 6SM RA BR SCT007 BKN085 OVC110 13/12 A2995 0 93 -200 100/04 RMK AO2 P0007 T01280117
53915KARA ARA20161204173512712/04/16 17:35:31  5-MIN KARA 042335Z 10007KT 7SM RA FEW009 BKN085 OVC110 13/12 A2994 10 93 -200 100/07 RMK AO2 P0008 T01280117
53915KARA ARA20161204174012712/04/16 17:40:31  5-MIN KARA 042340Z 10010KT 8SM RA FEW009 SCT080 BKN110 13/11 A2993 10 89 -200 100/10 RMK AO2 P0009 T01280111
53915KARA ARA20161204174512012/04/16 17:45:31  5-MIN KARA 042345Z 11008KT 9SM RA FEW007 BKN110 13/12 A2994 10 93 -200 110/08 RMK AO2 P0009 T01280117
53915KARA ARA20161204175014312/04/16 17:50:31  5-MIN KARA 042350Z 11007KT 9SM RA BKN110 13/12 A2994 0 93 -200 100/07 RMK AO2 SLP139 P0010 60062 T01280117 10139 20122 51006
53915KARA ARA20161204175511212/04/16 17:55:31  5-MIN KARA 042355Z 12006KT 9SM RA BKN110 13/12 A2995 0 89 -100 110/06 RMK AO2 P0000 T01330117
53915KARA ARA20161204180013012/04/16 18:00:31  5-MIN KARA 050000Z 12004KT 10SM -RA FEW005 BKN120 13/12 A2996 -10 89 -100 110/04 RMK AO2 PRESRR P0000 T01330117
53915KARA ARA20161204180512112/04/16 18:05:31  5-MIN KARA 050005Z 10006KT 10SM -RA SCT005 BKN110 13/12 A2995 0 89 -100 100/06 RMK AO2 P0001 T01330117
53915KARA ARA20161204181012112/04/16 18:10:31  5-MIN KARA 050010Z 09007KT 10SM -RA SCT005 BKN110 13/12 A2995 0 89 -100 090/07 RMK AO2 P0001 T01330117
53915KARA ARA20161204181512212/04/16 18:15:31  5-MIN KARA 050015Z 09007KT 10SM -RA SCT005 BKN120 13/12 A2994 10 89 -100 090/07 RMK AO2 P0001 T01330117
53915KARA ARA20161204182012712/04/16 18:20:31  5-MIN KARA 050020Z 09006KT 9SM RA SCT005 BKN100 BKN120 13/12 A2994 10 89 -100 080/06 RMK AO2 P0002 T01330117
53915KARA ARA20161204182512712/04/16 18:25:31  5-MIN KARA 050025Z 07004KT 8SM RA SCT006 SCT100 BKN120 13/12 A2994 10 89 -100 070/04 RMK AO2 P0003 T01330117
53915KARA ARA20161204183012612/04/16 18:30:31  5-MIN KARA 050030Z 09005KT 8SM RA SCT006 SCT100 BKN110 13/12 A2995 0 93 -100 080/05 RMK AO2 P0003 T01330122
53915KARA ARA20161204183512612/04/16 18:35:31  5-MIN KARA 050035Z 08003KT 7SM RA FEW006 FEW100 BKN110 13/12 A2995 0 93 -100 070/03 RMK AO2 P0004 T01330122
53915KARA ARA20161204184012112/04/16 18:40:31  5-MIN KARA 050040Z 02003KT 7SM RA BKN110 14/12 A2996 -10 90 -100 020/03 RMK AO2 PRESRR P0004 T01390122
53915KARA ARA20161204184513412/04/16 18:45:31  5-MIN KARA 050045Z AUTO 32010KT 8SM -RA FEW005 BKN110 14/12 A2999 -30 90 -100 320/10 RMK AO2 PRESRR P0004 T01390122
53915KARA ARA20161204185014112/04/16 18:50:31  5-MIN KARA 050050Z AUTO 32006KT 9SM -RA SCT005 BKN110 13/12 A2999 -30 93 -200 320/06 RMK AO2 PRESRR SLP155 P0005 T01330122
53915KARA ARA20161204185512612/04/16 18:55:31  5-MIN KARA 050055Z AUTO 34007KT 9SM RA BKN005 OVC110 13/12 A2999 -30 89 -200 340/07 RMK AO2 P0000 T01330117
53915KARA ARA20161204190012612/04/16 19:00:31  5-MIN KARA 050100Z AUTO 35008KT 8SM RA BKN005 OVC110 13/12 A2998 -20 89 -100 350/08 RMK AO2 P0001 T01330117
53915KARA ARA20161204190512712/04/16 19:05:31  5-MIN KARA 050105Z AUTO 36008KT 9SM -RA BKN005 OVC110 13/12 A2998 -20 89 -100 360/08 RMK AO2 P0001 T01330117
53915KARA ARA20161204191013112/04/16 19:10:31  5-MIN KARA 050110Z AUTO 01006KT 8SM RA OVC006 13/12 A2998 -20 89 -100 010/06 RMK AO2 CIG 005V008 P0002 T01330117
53915KARA ARA20161204191513112/04/16 19:15:31  5-MIN KARA 050115Z AUTO 01005KT 7SM RA OVC006 13/12 A2999 -30 89 -200 010/05 RMK AO2 CIG 005V008 P0003 T01330117
53915KARA ARA20161204192013212/04/16 19:20:31  5-MIN KARA 050120Z AUTO 01004KT 7SM -RA OVC007 13/12 A3000 -40 89 -200 010/04 RMK AO2 CIG 005V008 P0003 T01330117
53915KARA ARA20161204192513112/04/16 19:25:31  5-MIN KARA 050125Z AUTO 36005KT 8SM RA OVC007 13/12 A3000 -40 93 -200 360/05 RMK AO2 CIG 005V008 P0004 T01330122
53915KARA ARA20161204193013112/04/16 19:30:31  5-MIN KARA 050130Z AUTO 36007KT 8SM RA OVC007 13/12 A2999 -30 89 -200 360/07 RMK AO2 CIG 005V008 P0004 T01330117
53915KARA ARA20161204193513812/04/16 19:35:31  5-MIN KARA 050135Z AUTO 01010KT 8SM RA OVC007 13/12 A2996 -10 89 -100 010/10 RMK AO2 CIG 005V009 PRESFR P0004 T01330117
53915KARA ARA20161204194013612/04/16 19:40:31  5-MIN KARA 050140Z AUTO 01010KT 8SM RA OVC007 13/12 A2995 0 89 -100 010/10 RMK AO2 CIG 005V009 PRESFR P0005 T01330117
53915KARA ARA20161204194512912/04/16 19:45:31  5-MIN KARA 050145Z AUTO 01012KT 8SM RA OVC005 13/12 A2995 0 89 -100 010/12 RMK AO2 CIG 004V008 P0006 T01330117
53915KARA ARA20161204195013112/04/16 19:50:31  5-MIN KARA 050150Z AUTO 01012KT 9SM RA BKN005 OVC009 13/12 A2995 0 93 -200 010/12 RMK AO2 SLP142 P0006 T01280117
53915KARA ARA20161204195512612/04/16 19:55:31  5-MIN KARA 050155Z AUTO 02007KT 9SM RA BKN005 OVC009 13/12 A2997 -10 93 -200 020/07 RMK AO2 P0000 T01280117
53915KARA ARA20161204200012112/04/16 20:00:31  5-MIN KARA 050200Z AUTO 02008KT 10SM -RA OVC005 13/11 A2997 -10 89 -200 020/08 RMK AO2 P0001 T01280111
53915KARA ARA20161204200511912/04/16 20:05:31  5-MIN KARA 050205Z AUTO 03010KT 10SM -RA OVC005 13/11 A2996 0 89 -200 030/10 RMK AO2 P0001 T01280111
53915KARA ARA20161204201013312/04/16 20:10:31  5-MIN KARA 050210Z AUTO 05009KT 10SM -RA OVC005 13/11 A2996 -10 89 -200 050/09 RMK AO2 CIG 004V009 P0001 T01280111
53915KARA ARA20161204201512112/04/16 20:15:31  5-MIN KARA 050215Z AUTO 04007KT 10SM -RA OVC005 13/11 A2996 -10 89 -200 040/07 RMK AO2 P0001 T01280111
53915KARA ARA20161204202012112/04/16 20:20:31  5-MIN KARA 050220Z AUTO 05009KT 10SM -RA OVC006 13/11 A2996 -10 89 -200 040/09 RMK AO2 P0001 T01280111
53915KARA ARA20161204202511912/04/16 20:25:31  5-MIN KARA 050225Z AUTO 05009KT 10SM -RA OVC006 13/11 A2996 0 89 -200 050/09 RMK AO2 P0001 T01280111
53915KARA ARA20161204203013112/04/16 20:30:31  5-MIN KARA 050230Z AUTO 06008KT 10SM -RA OVC006 13/11 A2995 0 89 -200 060/08 RMK AO2 CIG 005V009 P0001 T01280111
53915KARA ARA20161204203513112/04/16 20:35:31  5-MIN KARA 050235Z AUTO 05009KT 10SM -RA OVC006 13/11 A2995 0 89 -200 050/09 RMK AO2 CIG 005V009 P0002 T01280111
53915KARA ARA20161204204011912/04/16 20:40:31  5-MIN KARA 050240Z AUTO 03007KT 10SM -RA OVC006 13/11 A2996 0 89 -200 030/07 RMK AO2 P0002 T01280111
53915KARA ARA20161204204512112/04/16 20:45:31  5-MIN KARA 050245Z AUTO 03008KT 10SM -RA OVC006 13/11 A2996 -10 89 -200 030/08 RMK AO2 P0002 T01280111
53915KARA ARA20161204205014212/04/16 20:50:31  5-MIN KARA 050250Z AUTO 04009KT 10SM OVC006 13/11 A2996 -10 89 -200 030/09 RMK AO2 RAE47 SLP145 P0002 60013 T01280111 53003
53915KARA ARA20161204205510912/04/16 20:55:31  5-MIN KARA 050255Z AUTO 03009KT 10SM OVC006 13/11 A2996 0 89 -200 030/09 RMK AO2 T01280111
53915KARA ARA20161204210011112/04/16 21:00:31  5-MIN KARA 050300Z AUTO 03007KT 10SM OVC006 13/11 A2996 -10 89 -200 030/07 RMK AO2 T01280111
53915KARA ARA20161204210512512/04/16 21:05:31  5-MIN KARA 050305Z AUTO 04008KT 10SM -RA OVC006 13/11 A2996 0 89 -200 040/08 RMK AO2 RAB03 P0000 T01280111
53915KARA ARA20161204211012512/04/16 21:10:31  5-MIN KARA 050310Z AUTO 04008KT 10SM -RA OVC006 13/11 A2996 0 89 -200 040/08 RMK AO2 RAB03 P0000 T01280111
53915KARA ARA20161204211512512/04/16 21:15:31  5-MIN KARA 050315Z AUTO 04008KT 10SM -RA OVC006 13/11 A2996 0 89 -200 040/08 RMK AO2 RAB03 P0000 T01280111
53915KARA ARA20161204212012512/04/16 21:20:31  5-MIN KARA 050320Z AUTO 04008KT 10SM -RA OVC006 13/11 A2996 0 89 -200 040/08 RMK AO2 RAB03 P0000 T01280111
53915KARA ARA20161204212512612/04/16 21:25:31  5-MIN KARA 050325Z AUTO 03007KT 10SM OVC006 13/11 A2996 -10 89 -200 030/07 RMK AO2 RAB03E22 P0000 T01280111
53915KARA ARA20161204213014212/04/16 21:30:31  5-MIN KARA 050330Z AUTO 02007KT 330V030 10SM OVC006 13/11 A2996 -10 89 -200 010/07 330V030 RMK AO2 RAB03E22 P0000 T01280111
53915KARA ARA20161204213512612/04/16 21:35:31  5-MIN KARA 050335Z AUTO 02006KT 10SM OVC005 13/11 A2996 -10 89 -200 020/06 RMK AO2 RAB03E22 P0000 T01280111
53915KARA ARA20161204214012612/04/16 21:40:31  5-MIN KARA 050340Z AUTO 03008KT 10SM OVC005 13/11 A2996 -10 89 -200 030/08 RMK AO2 RAB03E22 P0000 T01280111
53915KARA ARA20161204214512612/04/16 21:45:31  5-MIN KARA 050345Z AUTO 03008KT 10SM OVC005 13/11 A2996 -10 89 -200 030/08 RMK AO2 RAB03E22 P0000 T01280111
53915KARA ARA20161204215013312/04/16 21:50:31  5-MIN KARA 050350Z AUTO 02009KT 10SM OVC005 13/11 A2996 -10 89 -200 020/09 RMK AO2 RAB03E22 SLP144 P0000 T01280111
53915KARA ARA20161204215511712/04/16 21:55:31  5-MIN KARA 050355Z AUTO 03011KT 10SM OVC005 13/11 A2994 10 89 -200 020/11 RMK AO2 PRESFR T01280111
53915KARA ARA20161204220010912/04/16 22:00:31  5-MIN KARA 050400Z AUTO 03009KT 10SM OVC005 12/11 A2995 0 93 -200 030/09 RMK AO2 T01220111
53915KARA ARA20161204220510912/04/16 22:05:31  5-MIN KARA 050405Z AUTO 03009KT 10SM OVC005 12/11 A2994 0 89 -200 030/09 RMK AO2 T01220106
53915KARA ARA20161204221010912/04/16 22:10:31  5-MIN KARA 050410Z AUTO 03010KT 10SM OVC005 12/11 A2994 0 89 -200 020/10 RMK AO2 T01220106
53915KARA ARA20161204221510912/04/16 22:15:31  5-MIN KARA 050415Z AUTO 02011KT 10SM OVC005 12/11 A2994 0 89 -200 020/11 RMK AO2 T01220106
53915KARA ARA20161204222011012/04/16 22:20:31  5-MIN KARA 050420Z AUTO 02013KT 10SM OVC005 12/11 A2994 10 89 -200 020/13 RMK AO2 T01220106
53915KARA ARA20161204222510912/04/16 22:25:31  5-MIN KARA 050425Z AUTO 02009KT 10SM OVC005 12/11 A2994 0 89 -200 020/09 RMK AO2 T01220106
53915KARA ARA20161204223011012/04/16 22:30:31  5-MIN KARA 050430Z AUTO 02010KT 10SM OVC005 12/11 A2994 10 89 -200 020/10 RMK AO2 T01220106
53915KARA ARA20161204223511012/04/16 22:35:31  5-MIN KARA 050435Z AUTO 01013KT 10SM OVC005 12/11 A2994 10 89 -200 010/13 RMK AO2 T01220106
53915KARA ARA20161204224011012/04/16 22:40:31  5-MIN KARA 050440Z AUTO 02011KT 10SM OVC004 12/11 A2994 10 89 -200 020/11 RMK AO2 T01220106
53915KARA ARA20161204224511012/04/16 22:45:31  5-MIN KARA 050445Z AUTO 02012KT 10SM OVC004 12/11 A2993 10 89 -200 020/12 RMK AO2 T01220106
53915KARA ARA20161204225011712/04/16 22:50:31  5-MIN KARA 050450Z AUTO 02011KT 10SM OVC004 12/11 A2994 10 89 -200 020/11 RMK AO2 SLP137 T01220106
53915KARA ARA20161204225511012/04/16 22:55:31  5-MIN KARA 050455Z AUTO 01012KT 10SM OVC004 12/11 A2994 10 89 -200 010/12 RMK AO2 T01220106
53915KARA ARA20161204230011012/04/16 23:00:31  5-MIN KARA 050500Z AUTO 01012KT 10SM OVC004 12/11 A2994 10 89 -200 010/12 RMK AO2 T01220106
53915KARA ARA20161204230511012/04/16 23:05:31  5-MIN KARA 050505Z AUTO 01011KT 10SM OVC004 12/11 A2993 10 89 -200 010/11 RMK AO2 T01220106
53915KARA ARA20161204231010912/04/16 23:10:31  5-MIN KARA 050510Z AUTO 02014KT 9SM OVC004 12/11 A2993 10 89 -200 020/14 RMK AO2 T01220106
53915KARA ARA20161204231510912/04/16 23:15:31  5-MIN KARA 050515Z AUTO 02013KT 9SM OVC004 12/11 A2993 10 89 -200 010/13 RMK AO2 T01220106
53915KARA ARA20161204232010912/04/16 23:20:31  5-MIN KARA 050520Z AUTO 02013KT 9SM OVC004 12/11 A2993 20 89 -200 010/13 RMK AO2 T01220106
53915KARA ARA20161204232510912/04/16 23:25:31  5-MIN KARA 050525Z AUTO 01011KT 9SM OVC005 12/11 A2993 20 89 -200 010/11 RMK AO2 T01220106
53915KARA ARA20161204233011012/04/16 23:30:31  5-MIN KARA 050530Z AUTO 01009KT 10SM OVC005 12/11 A2993 20 89 -200 010/09 RMK AO2 T01220106
53915KARA ARA20161204233511012/04/16 23:35:31  5-MIN KARA 050535Z AUTO 01010KT 10SM OVC005 12/11 A2993 20 89 -200 010/10 RMK AO2 T01220106
53915KARA ARA20161204234010912/04/16 23:40:31  5-MIN KARA 050540Z AUTO 36011KT 8SM OVC005 12/11 A2993 20 89 -200 360/11 RMK AO2 T01220106
53915KARA ARA20161204234511212/04/16 23:45:31  5-MIN KARA 050545Z AUTO 36013KT 6SM BR OVC005 12/11 A2993 10 89 -200 360/13 RMK AO2 T01220106
53915KARA ARA20161204235015312/04/16 23:50:31  5-MIN KARA 050550Z AUTO 01012KT 5SM BR OVC005 12/11 A2993 20 89 -200 010/12 RMK AO2 SLP135 60013 T01220106 10139 20122 402000122 50002
53915KARA ARA20161204235511212/04/16 23:55:31  5-MIN KARA 050555Z AUTO 36012KT 4SM BR OVC005 12/11 A2993 20 89 -200 360/12 RMK AO2 T01220106
53915KARA ARA20161205000011212/05/16 00:00:31  5-MIN KARA 050600Z AUTO 36011KT 5SM BR OVC004 12/11 A2993 20 89 -200 360/11 RMK AO2 T01220106
53915KARA ARA20161205000511212/05/16 00:05:31  5-MIN KARA 050605Z AUTO 01009KT 5SM BR OVC004 12/11 A2993 20 89 -200 360/09 RMK AO2 T01220106
53915KARA ARA20161205001011212/05/16 00:10:31  5-MIN KARA 050610Z AUTO 02012KT 5SM BR OVC004 12/11 A2992 20 89 -200 020/12 RMK AO2 T01220106
53915KARA ARA20161205001511212/05/16 00:15:31  5-MIN KARA 050615Z AUTO 02012KT 5SM BR OVC004 12/11 A2992 30 89 -200 020/12 RMK AO2 T01220106
53915KARA ARA20161205002011212/05/16 00:20:31  5-MIN KARA 050620Z AUTO 03012KT 5SM BR OVC004 12/11 A2992 30 89 -200 030/12 RMK AO2 T01220106
53915KARA ARA20161205002511212/05/16 00:25:31  5-MIN KARA 050625Z AUTO 01012KT 5SM BR OVC004 12/11 A2992 30 89 -200 010/12 RMK AO2 T01220106
53915KARA ARA20161205003011212/05/16 00:30:31  5-MIN KARA 050630Z AUTO 01011KT 5SM BR OVC004 12/11 A2993 20 89 -200 010/11 RMK AO2 T01220106
53915KARA ARA20161205003511212/05/16 00:35:31  5-MIN KARA 050635Z AUTO 02012KT 5SM BR OVC004 12/11 A2992 30 89 -200 020/12 RMK AO2 T01220106
53915KARA ARA20161205004011212/05/16 00:40:31  5-MIN KARA 050640Z AUTO 02012KT 5SM BR OVC004 12/11 A2993 20 93 -300 020/12 RMK AO2 T01170106
53915KARA ARA20161205004511212/05/16 00:45:31  5-MIN KARA 050645Z AUTO 02011KT 6SM BR OVC004 12/11 A2992 20 93 -300 020/11 RMK AO2 T01170106
53915KARA ARA20161205005011912/05/16 00:50:31  5-MIN KARA 050650Z AUTO 03011KT 6SM BR OVC004 12/11 A2992 20 93 -300 030/11 RMK AO2 SLP132 T01170106
53915KARA ARA20161205005510912/05/16 00:55:31  5-MIN KARA 050655Z AUTO 02010KT 7SM OVC004 12/11 A2993 20 93 -300 020/10 RMK AO2 T01170106
53915KARA ARA20161205010010912/05/16 01:00:31  5-MIN KARA 050700Z AUTO 02011KT 7SM OVC004 12/11 A2992 20 93 -300 020/11 RMK AO2 T01170106
53915KARA ARA20161205010510912/05/16 01:05:31  5-MIN KARA 050705Z AUTO 01010KT 8SM OVC004 12/11 A2992 30 89 -200 010/10 RMK AO2 T01220106
53915KARA ARA20161205011010912/05/16 01:10:31  5-MIN KARA 050710Z AUTO 01009KT 8SM OVC004 12/11 A2992 30 93 -300 010/09 RMK AO2 T01170106
53915KARA ARA20161205011510912/05/16 01:15:31  5-MIN KARA 050715Z AUTO 03011KT 8SM OVC004 12/11 A2992 20 93 -300 020/11 RMK AO2 T01170106
53915KARA ARA20161205012010912/05/16 01:20:31  5-MIN KARA 050720Z AUTO 03010KT 8SM OVC004 12/11 A2992 30 93 -300 020/10 RMK AO2 T01170106
53915KARA ARA20161205012510912/05/16 01:25:31  5-MIN KARA 050725Z AUTO 02008KT 8SM OVC004 12/11 A2992 20 93 -300 020/08 RMK AO2 T01170106
53915KARA ARA20161205013010912/05/16 01:30:31  5-MIN KARA 050730Z AUTO 04007KT 8SM OVC004 12/11 A2992 20 93 -300 040/07 RMK AO2 T01170106
53915KARA ARA20161205013510912/05/16 01:35:31  5-MIN KARA 050735Z AUTO 05007KT 8SM OVC004 12/11 A2992 30 93 -300 050/07 RMK AO2 T01170106
53915KARA ARA20161205014010912/05/16 01:40:31  5-MIN KARA 050740Z AUTO 04008KT 8SM OVC004 12/11 A2992 30 89 -200 040/08 RMK AO2 T01220106
53915KARA ARA20161205014510912/05/16 01:45:31  5-MIN KARA 050745Z AUTO 03010KT 9SM OVC004 12/11 A2992 20 89 -200 030/10 RMK AO2 T01220106
53915KARA ARA20161205015011712/05/16 01:50:31  5-MIN KARA 050750Z AUTO 04007KT 10SM OVC004 12/11 A2992 20 89 -200 040/07 RMK AO2 SLP132 T01220106
53915KARA ARA20161205015511012/05/16 01:55:31  5-MIN KARA 050755Z AUTO 03009KT 10SM OVC004 12/11 A2992 30 89 -200 030/09 RMK AO2 T01220106
53915KARA ARA20161205020011012/05/16 02:00:31  5-MIN KARA 050800Z AUTO 04009KT 10SM OVC004 12/11 A2992 30 89 -200 040/09 RMK AO2 T01220106
53915KARA ARA20161205020511012/05/16 02:05:31  5-MIN KARA 050805Z AUTO 05009KT 10SM OVC005 12/11 A2991 30 89 -200 040/09 RMK AO2 T01220106
53915KARA ARA20161205021011012/05/16 02:10:31  5-MIN KARA 050810Z AUTO 04009KT 10SM OVC005 12/11 A2991 40 89 -200 040/09 RMK AO2 T01220106
53915KARA ARA20161205021511012/05/16 02:15:31  5-MIN KARA 050815Z AUTO 05009KT 10SM OVC005 12/11 A2991 40 89 -200 040/09 RMK AO2 T01220106
53915KARA ARA20161205022011012/05/16 02:20:31  5-MIN KARA 050820Z AUTO 05009KT 10SM OVC005 12/11 A2991 40 89 -200 050/09 RMK AO2 T01220106
53915KARA ARA20161205022511012/05/16 02:25:31  5-MIN KARA 050825Z AUTO 03010KT 10SM OVC004 12/11 A2991 40 89 -200 030/10 RMK AO2 T01220106
53915KARA ARA20161205023011012/05/16 02:30:31  5-MIN KARA 050830Z AUTO 03010KT 10SM OVC004 12/11 A2991 30 89 -200 030/10 RMK AO2 T01220106
53915KARA ARA20161205023511012/05/16 02:35:31  5-MIN KARA 050835Z AUTO 03011KT 10SM OVC004 12/11 A2991 30 89 -200 030/11 RMK AO2 T01220106
53915KARA ARA20161205024011012/05/16 02:40:31  5-MIN KARA 050840Z AUTO 03011KT 10SM OVC004 12/11 A2991 30 89 -200 030/11 RMK AO2 T01220106
53915KARA ARA20161205024511012/05/16 02:45:31  5-MIN KARA 050845Z AUTO 03010KT 10SM OVC005 12/11 A2991 40 89 -200 030/10 RMK AO2 T01220106
53915KARA ARA20161205025012312/05/16 02:50:31  5-MIN KARA 050850Z AUTO 03012KT 10SM OVC005 12/11 A2991 30 89 -200 020/12 RMK AO2 SLP128 T01220106 58005
53915KARA ARA20161205025511012/05/16 02:55:31  5-MIN KARA 050855Z AUTO 02010KT 10SM OVC005 12/11 A2991 30 89 -200 020/10 RMK AO2 T01220106
53915KARA ARA20161205030011012/05/16 03:00:31  5-MIN KARA 050900Z AUTO 04010KT 10SM OVC005 12/11 A2991 40 89 -200 030/10 RMK AO2 T01220106
53915KARA ARA20161205030511012/05/16 03:05:31  5-MIN KARA 050905Z AUTO 04010KT 10SM OVC005 12/11 A2990 40 89 -200 040/10 RMK AO2 T01220106
53915KARA ARA20161205031011012/05/16 03:10:31  5-MIN KARA 050910Z AUTO 05011KT 10SM OVC005 12/11 A2990 50 89 -200 050/11 RMK AO2 T01220106
53915KARA ARA20161205031511012/05/16 03:15:31  5-MIN KARA 050915Z AUTO 04010KT 10SM OVC005 12/10 A2990 40 86 -200 040/10 RMK AO2 T01220100
53915KARA ARA20161205032010912/05/16 03:20:31  5-MIN KARA 050920Z AUTO 03010KT 9SM OVC005 12/11 A2990 40 89 -200 030/10 RMK AO2 T01220106
53915KARA ARA20161205032510912/05/16 03:25:31  5-MIN KARA 050925Z AUTO 05009KT 9SM OVC005 12/10 A2989 50 86 -200 050/09 RMK AO2 T01220100
53915KARA ARA20161205033010912/05/16 03:30:31  5-MIN KARA 050930Z AUTO 06010KT 9SM OVC005 12/10 A2989 60 89 -200 060/10 RMK AO2 T01170100
53915KARA ARA20161205033511712/05/16 03:35:31  5-MIN KARA 050935Z AUTO 06012KT 10SM OVC005 12/10 A2987 70 89 -200 060/12 RMK AO2 PRESFR T01170100
53915KARA ARA20161205034011012/05/16 03:40:31  5-MIN KARA 050940Z AUTO 06009KT 10SM OVC005 12/10 A2987 70 89 -200 060/09 RMK AO2 T01170100
53915KARA ARA20161205034511012/05/16 03:45:31  5-MIN KARA 050945Z AUTO 04011KT 10SM OVC004 12/10 A2988 70 89 -200 040/11 RMK AO2 T01170100
53915KARA ARA20161205035011712/05/16 03:50:31  5-MIN KARA 050950Z AUTO 04009KT 10SM OVC004 12/10 A2989 60 89 -200 040/09 RMK AO2 SLP119 T01170100
53915KARA ARA20161205035510912/05/16 03:55:31  5-MIN KARA 050955Z AUTO 05010KT 9SM OVC004 12/10 A2988 60 89 -200 050/10 RMK AO2 T01170100
53915KARA ARA20161205040010912/05/16 04:00:31  5-MIN KARA 051000Z AUTO 06009KT 9SM OVC004 12/10 A2987 70 89 -200 060/09 RMK AO2 T01170100
53915KARA ARA20161205040512512/05/16 04:05:31  5-MIN KARA 051005Z AUTO 05009KT 8SM -RA OVC004 12/10 A2988 70 89 -200 050/09 RMK AO2 RAB01 P0000 T01170100
53915KARA ARA20161205041012512/05/16 04:10:31  5-MIN KARA 051010Z AUTO 04007KT 7SM -RA OVC004 12/10 A2988 60 89 -200 040/07 RMK AO2 RAB01 P0000 T01170100
53915KARA ARA20161205041512512/05/16 04:15:31  5-MIN KARA 051015Z AUTO 05009KT 7SM -RA OVC004 12/11 A2989 60 93 -200 040/09 RMK AO2 RAB01 P0000 T01170106
53915KARA ARA20161205042013712/05/16 04:20:31  5-MIN KARA 051020Z AUTO 04009KT 7SM -RA OVC004 12/11 A2989 60 93 -200 040/09 RMK AO2 LTG DSNT SW RAB01 P0000 T01170106
53915KARA ARA20161205042513712/05/16 04:25:31  5-MIN KARA 051025Z AUTO 04007KT 7SM -RA OVC004 12/11 A2989 50 89 -200 040/07 RMK AO2 LTG DSNT SW RAB01 P0000 T01220106
53915KARA ARA20161205043013312/05/16 04:30:31  5-MIN KARA 051030Z AUTO 04008KT 6SM -RA BR OVC004 12/11 A2989 60 89 -200 030/08 RMK AO2 RAB01 P0000 T01220106 TSNO
53915KARA ARA20161205043513312/05/16 04:35:31  5-MIN KARA 051035Z AUTO 04010KT 5SM -RA BR OVC003 12/11 A2988 60 89 -200 040/10 RMK AO2 RAB01 P0001 T01220106 TSNO
53915KARA ARA20161205044013312/05/16 04:40:31  5-MIN KARA 051040Z AUTO 06008KT 5SM -RA BR OVC003 12/11 A2988 60 89 -200 050/08 RMK AO2 RAB01 P0001 T01220106 TSNO
53915KARA ARA20161205044513212/05/16 04:45:31  5-MIN KARA 051045Z AUTO 05006KT 5SM RA BR OVC003 12/11 A2988 60 89 -200 050/06 RMK AO2 RAB01 P0001 T01220106 TSNO
53915KARA ARA20161205045014012/05/16 04:50:31  5-MIN KARA 051050Z AUTO 05006KT 5SM -RA BR OVC003 12/11 A2989 60 89 -200 050/06 RMK AO2 RAB01 SLP119 P0001 T01220106 TSNO
53915KARA ARA20161205045512712/05/16 04:55:31  5-MIN KARA 051055Z AUTO 05006KT 6SM -RA BR OVC003 12/11 A2989 60 89 -200 050/06 RMK AO2 P0001 T01220106 TSNO
53915KARA ARA20161205050012212/05/16 05:00:31  5-MIN KARA 051100Z AUTO 06005KT 6SM -RA BR OVC003 12/11 A2989 60 89 -200 060/05 RMK AO2 P0001 T01220106
53915KARA ARA20161205050512212/05/16 05:05:31  5-MIN KARA 051105Z AUTO 07006KT 6SM -RA BR OVC003 12/11 A2989 60 89 -200 060/06 RMK AO2 P0001 T01220106
53915KARA ARA20161205051012112/05/16 05:10:31  5-MIN KARA 051110Z AUTO 05005KT 6SM RA BR OVC003 12/11 A2989 60 89 -200 050/05 RMK AO2 P0002 T01220106
53915KARA ARA20161205051512112/05/16 05:15:31  5-MIN KARA 051115Z AUTO 05005KT 5SM RA BR OVC003 12/11 A2989 60 89 -200 050/05 RMK AO2 P0002 T01220106
53915KARA ARA20161205052012112/05/16 05:20:31  5-MIN KARA 051120Z AUTO 04006KT 5SM RA BR OVC004 12/11 A2989 60 89 -200 040/06 RMK AO2 P0003 T01220106
53915KARA ARA20161205052512112/05/16 05:25:31  5-MIN KARA 051125Z AUTO 04005KT 4SM RA BR OVC004 12/11 A2989 60 89 -200 040/05 RMK AO2 P0003 T01220106
53915KARA ARA20161205053011612/05/16 05:30:31  5-MIN KARA 051130Z 04005KT 4SM RA BR OVC004 12/11 A2989 60 89 -200 040/05 RMK AO2 P0004 T01220106
53915KARA ARA20161205053511612/05/16 05:35:31  5-MIN KARA 051135Z 33005KT 4SM RA BR OVC004 12/11 A2989 50 93 -200 330/05 RMK AO2 P0005 T01220111
53915KARA ARA20161205054011712/05/16 05:40:31  5-MIN KARA 051140Z 32003KT 4SM +RA BR OVC004 12/11 A2989 50 93 -200 320/03 RMK AO2 P0005 T01220111
53915KARA ARA20161205054512412/05/16 05:45:31  5-MIN KARA 051145Z 08009KT 3SM +RA BR BKN004 OVC040 12/11 A2987 70 89 -200 080/09 RMK AO2 P0007 T01220106
53915KARA ARA20161205055017512/05/16 05:50:31  5-MIN KARA 051150Z 09011KT 3SM +RA BR BKN004 BKN018 OVC042 12/11 A2986 90 89 -100 090/11 RMK AO2 PRESFR SLP109 P0009 60010 70131 T01220106 10122 20117 55004
53915KARA ARA20161205055513012/05/16 05:55:31  5-MIN KARA 051155Z 10010KT 4SM RA BR SCT004 BKN018 OVC085 12/11 A2986 90 89 -100 100/10 RMK AO2 P0001 T01220106
53915KARA ARA20161205060013012/05/16 06:00:31  5-MIN KARA 051200Z 10008KT 5SM RA BR SCT004 BKN041 OVC085 12/11 A2986 90 93 -100 100/08 RMK AO2 P0002 T01220111
53915KARA ARA20161205060513012/05/16 06:05:31  5-MIN KARA 051205Z 10009KT 5SM RA BR FEW004 BKN041 OVC085 12/11 A2985 90 93 -100 100/09 RMK AO2 P0003 T01220111
53915KARA ARA20161205061013012/05/16 06:10:31  5-MIN KARA 051210Z 10008KT 5SM RA BR FEW016 BKN043 OVC085 12/11 A2986 90 93 -100 100/08 RMK AO2 P0004 T01220111
53915KARA ARA20161205061513012/05/16 06:15:31  5-MIN KARA 051215Z 10006KT 5SM RA BR SCT036 BKN055 OVC085 12/11 A2986 90 93 -100 100/06 RMK AO2 P0004 T01220111
53915KARA ARA20161205062013112/05/16 06:20:31  5-MIN KARA 051220Z 10006KT 5SM +RA BR SCT039 BKN055 OVC085 12/11 A2986 80 93 -100 100/06 RMK AO2 P0005 T01220111
53915KARA ARA20161205062513112/05/16 06:25:31  5-MIN KARA 051225Z 08006KT 4SM +RA BR FEW037 BKN060 OVC075 13/11 A2986 80 89 -100 070/06 RMK AO2 P0006 T01280111
53915KARA ARA20161205063013112/05/16 06:30:31  5-MIN KARA 051230Z 07004KT 4SM +RA BR FEW005 BKN065 OVC080 13/11 A2986 80 89 -100 060/04 RMK AO2 P0008 T01280111
53915KARA ARA20161205063513112/05/16 06:35:31  5-MIN KARA 051235Z 06005KT 3SM +RA BR FEW005 BKN055 OVC070 13/11 A2987 70 89 -100 060/05 RMK AO2 P0009 T01280111
53915KARA ARA20161205064013112/05/16 06:40:31  5-MIN KARA 051240Z 07003KT 3SM +RA BR FEW005 BKN040 OVC070 13/11 A2987 70 89 -100 070/03 RMK AO2 P0010 T01280111
53915KARA ARA20161205064513112/05/16 06:45:31  5-MIN KARA 051245Z 08006KT 3SM +RA BR FEW005 BKN046 OVC080 13/11 A2987 80 89 -100 080/06 RMK AO2 P0011 T01280111
53915KARA ARA20161205065013812/05/16 06:50:31  5-MIN KARA 051250Z 08004KT 4SM +RA BR FEW005 BKN049 OVC075 13/12 A2987 80 93 -100 080/04 RMK AO2 SLP112 P0012 T01280117
53915KARA ARA20161205065513012/05/16 06:55:31  5-MIN KARA 051255Z 09003KT 5SM RA BR FEW005 SCT043 OVC070 13/12 A2987 70 93 -100 090/03 RMK AO2 P0000 T01280117
53915KARA ARA20161205070013112/05/16 07:00:31  5-MIN KARA 051300Z 09005KT 5SM +RA BR FEW005 SCT042 OVC070 13/12 A2987 70 93 -100 090/05 RMK AO2 P0000 T01280117
53915KARA ARA20161205070512812/05/16 07:05:31  5-MIN KARA 051305Z 09007KT 4SM +RA BR FEW036 BKN070 OVC080 13/12 A2987 80 89 0 090/07 RMK AO2 T01330117 PNO $
53915KARA ARA20161205071012112/05/16 07:10:31  5-MIN KARA 051310Z 08006KT 4SM +RA BR SCT049 OVC070 13/12 A2986 80 89 0 080/06 RMK AO2 T01330117 PNO $
53915KARA ARA20161205071514012/05/16 07:15:31  5-MIN KARA 051315Z 08008KT 4SM +RA BR FEW049 BKN070 OVC090 13/12 A2986 80 89 0 080/08 RMK AO2 LTG DSNT SW T01330117 PNO $
53915KARA ARA20161205072014012/05/16 07:20:31  5-MIN KARA 051320Z 08007KT 5SM +RA BR FEW050 BKN070 OVC095 13/12 A2986 80 89 0 070/07 RMK AO2 LTG DSNT SW T01330117 PNO $
53915KARA ARA20161205072514012/05/16 07:25:31  5-MIN KARA 051325Z 06007KT 4SM +RA BR FEW036 BKN070 OVC090 13/12 A2986 80 89 0 060/07 RMK AO2 LTG DSNT SW T01330117 PNO $
53915KARA ARA20161205073012812/05/16 07:30:31  5-MIN KARA 051330Z 05007KT 4SM +RA BR FEW036 BKN090 OVC110 13/12 A2986 80 89 0 050/07 RMK AO2 T01330117 PNO $
53915KARA ARA20161205073512712/05/16 07:35:31  5-MIN KARA 051335Z 02007KT 4SM RA BR FEW006 BKN095 OVC110 13/12 A2987 70 89 0 020/07 RMK AO2 T01330117 PNO $
53915KARA ARA20161205074012812/05/16 07:40:31  5-MIN KARA 051340Z 02008KT 4SM +RA BR SCT006 BKN095 OVC110 13/12 A2987 70 89 0 020/08 RMK AO2 T01330117 PNO $
53915KARA ARA20161205074512812/05/16 07:45:31  5-MIN KARA 051345Z 04007KT 3SM +RA BR BKN004 BKN044 OVC110 13/12 A2987 70 89 0 040/07 RMK AO2 T01330117 PNO $
53915KARA ARA20161205075013912/05/16 07:50:31  5-MIN KARA 051350Z 02009KT 2 1/2SM +RA BR BKN004 BKN044 OVC110 13/12 A2986 80 89 0 020/09 RMK AO2 SLP112 T01330117 PNO $
53915KARA ARA20161205075513012/05/16 07:55:31  5-MIN KARA 051355Z 03008KT 3SM +RA BR BKN004 BKN040 OVC110 13/12 A2986 80 89 0 030/08 RMK AO2 P0000 T01330117 $
53915KARA ARA20161205080011612/05/16 08:00:31  5-MIN KARA 051400Z 36008KT 3SM +RA BR OVC004 13/12 A2986 80 89 0 360/08 RMK AO2 P0001 T01330117 $
53915KARA ARA20161205080512712/05/16 08:05:31  5-MIN KARA 051405Z 01009KT 4SM RA BR OVC004 13/12 A2986 80 89 0 010/09 RMK AO2 CIG 003V008 P0002 T01330117 $
53915KARA ARA20161205081011512/05/16 08:10:31  5-MIN KARA 051410Z 36010KT 4SM RA BR OVC004 13/12 A2986 80 89 0 360/10 RMK AO2 P0002 T01330117 $
53915KARA ARA20161205081511812/05/16 08:15:31  5-MIN KARA 051415Z 36012KT 5SM RA BR OVC004 13/12 A2986 80 93 -100 360/12 RMK AO2 P0003 T01280117 $
53915KARA ARA20161205082011812/05/16 08:20:31  5-MIN KARA 051420Z 35013KT 5SM RA BR OVC004 13/11 A2987 70 89 -100 350/13 RMK AO2 P0004 T01280111 $
53915KARA ARA20161205082513712/05/16 08:25:31  5-MIN KARA 051425Z 35010KT 4SM +RA BR OVC004 12/11 A2987 80 93 -100 350/10 RMK AO2 LTG DSNT SE AND S P0005 T01220111 $
53915KARA ARA20161205083013712/05/16 08:30:31  5-MIN KARA 051430Z 36011KT 4SM +RA BR OVC004 12/11 A2985 90 89 -100 360/11 RMK AO2 LTG DSNT SE AND S P0007 T01220106 $
53915KARA ARA20161205083513612/05/16 08:35:31  5-MIN KARA 051435Z 02012KT 4SM RA BR OVC004 12/11 A2986 80 89 -100 020/12 RMK AO2 LTG DSNT SE AND S P0008 T01220106 $
53915KARA ARA20161205084012912/05/16 08:40:31  5-MIN KARA 051440Z 02012KT 5SM RA BR OVC004 12/11 A2985 90 89 -100 020/12 RMK AO2 LTG DSNT S P0009 T01220106 $
53915KARA ARA20161205084513012/05/16 08:45:31  5-MIN KARA 051445Z 03010KT 4SM +RA BR OVC004 12/11 A2986 80 89 -100 020/10 RMK AO2 LTG DSNT S P0010 T01220106 $
53915KARA ARA20161205085014912/05/16 08:50:31  5-MIN KARA 051450Z 02011KT 3SM +RA BR OVC004 12/11 A2985 90 89 -100 020/11 RMK AO2 LTG DSNT S SLP107 P0011 6//// T01220106 58009 $
53915KARA ARA20161205085513012/05/16 08:55:31  5-MIN KARA 051455Z 02010KT 3SM +RA BR OVC004 12/11 A2986 90 89 -100 020/10 RMK AO2 LTG DSNT S P0001 T01220106 $
53915KARA ARA20161205090014412/05/16 09:00:31  5-MIN KARA 051500Z 03009KT 3SM +RA BR BKN004 OVC019 12/11 A2986 80 89 -100 030/09 RMK AO2 LTG DSNT SE AND S P0002 T01220106 $
53915KARA ARA20161205090515112/05/16 09:05:31  5-MIN KARA 051505Z 02012KT 3SM +RA BR BKN005 BKN010 OVC019 12/11 A2985 90 89 -100 020/12 RMK AO2 LTG DSNT SE AND S P0003 T01220106 $
53915KARA ARA20161205091014812/05/16 09:10:31  5-MIN KARA 051510Z 03010KT 3SM +RA BR BKN005 BKN019 OVC043 12/11 A2985 90 89 -100 030/10 RMK AO2 LTG DSNT SE-SW P0004 T01220106 $
53915KARA ARA20161205091514612/05/16 09:15:31  5-MIN KARA 051515Z 04011KT 3SM +RA BR BKN005 BKN019 OVC042 12/11 A2985 90 89 -100 040/11 RMK AO2 LTG DSNT SE-SW P0006 T01220106
53915KARA ARA20161205092015812/05/16 09:20:31  5-MIN KARA 051520Z 02012KT 2 1/2SM +RA BR BKN005 BKN019 OVC038 12/11 A2984 100 89 -100 020/12 RMK AO2 LTG DSNT SE-SW PRESFR P0007 T01220106
53915KARA ARA20161205092514912/05/16 09:25:31  5-MIN KARA 051525Z 36011KT 3SM RA BR BKN005 BKN041 OVC100 12/11 A2985 100 89 -100 360/11 RMK AO2 LTG DSNT SE AND S P0008 T01220106
53915KARA ARA20161205093015012/05/16 09:30:31  5-MIN KARA 051530Z 03011KT 4SM RA BR BKN005 BKN041 OVC100 12/11 A2982 120 89 -100 030/11 RMK AO2 LTG DSNT SE PRESFR P0010 T01220106
53915KARA ARA20161205093514112/05/16 09:35:31  5-MIN KARA 051535Z 03006KT 4SM RA BR BKN005 OVC044 12/11 A2985 90 89 -100 030/06 RMK AO2 LTG DSNT E AND SE P0011 T01220106
53915KARA ARA20161205094013612/05/16 09:40:31  5-MIN KARA 051540Z 04006KT 4SM RA BR BKN005 OVC044 12/11 A2986 90 89 -100 040/06 RMK AO2 LTG DSNT E-S P0012 T01220106
53915KARA ARA20161205094514512/05/16 09:45:31  5-MIN KARA 051545Z 07005KT 3SM +RA BR BKN005 OVC044 12/11 A2987 70 89 -200 070/05 RMK AO2 LTG DSNT E-SW PRESRR P0014 T01220106
53915KARA ARA20161205095012612/05/16 09:50:31  5-MIN KARA 051550Z VRB04KT 2 1/2SM +RA BR OVC005 12/11 A2987 70 93 -100 VRB/04 RMK AO2 LTG DSNT SE-SW P0015
53915KARA ARA20161205095514312/05/16 09:55:31  5-MIN KARA 051555Z 03011KT 1 3/4SM +RA BR BKN005 OVC040 12/11 A2985 90 89 -100 030/11 RMK AO2 LTG DSNT SE-SW P0001 T01220106
53915KARA ARA20161205100014712/05/16 10:00:31  5-MIN KARA 051600Z VRB05KT 1 3/4SM +RA BR BKN005 OVC044 12/11 A2984 100 89 -100 VRB/05 RMK AO2 LTG DSNT S AND SW P0003 T01220106
53915KARA ARA20161205100514312/05/16 10:05:31  5-MIN KARA 051605Z 02005KT 1 3/4SM +RA BR BKN005 OVC027 12/11 A2985 100 93 -100 020/05 RMK AO2 LTG DSNT E-SW P0004 T01220111
53915KARA ARA20161205101014312/05/16 10:10:31  5-MIN KARA 051610Z 04007KT 1 1/2SM +RA BR BKN005 OVC034 12/11 A2984 100 89 -100 040/07 RMK AO2 LTG DSNT E-SW P0006 T01220106
53915KARA ARA20161205101514912/05/16 10:15:31  5-MIN KARA 051615Z VRB03KT 1 1/2SM +RA BR SCT005 BKN037 OVC050 12/11 A2985 90 93 -100 VRB/03 RMK AO2 LTG DSNT E-SW P0008 T01220111
53915KARA ARA20161205102013612/05/16 10:20:31  5-MIN KARA 051620Z 01006KT 1 1/2SM +RA BR FEW005 BKN037 OVC050 12/11 A2983 110 93 -100 010/06 RMK AO2 P0010 T01220111
53915KARA ARA20161205102513312/05/16 10:25:31  5-MIN KARA 051625Z 04006KT 1 3/4SM +RA BR FEW005 BKN042 OVC055 13/11 A2983 110 89 0 040/06 RMK AO2 P0011 T01280111
53915KARA ARA20161205103014412/05/16 10:30:31  5-MIN KARA 051630Z 06005KT 2 1/2SM +RA BR FEW005 BKN044 OVC055 13/11 A2983 110 89 0 060/05 RMK AO2 LTG DSNT E P0013 T01280111
53915KARA ARA20161205103513712/05/16 10:35:31  5-MIN KARA 051635Z 04007KT 2 1/2SM +RA BR FEW007 OVC048 13/11 A2983 110 89 0 040/07 RMK AO2 LTG DSNT E P0015 T01280111
53915KARA ARA20161205104014412/05/16 10:40:31  5-MIN KARA 051640Z 06004KT 2 1/2SM +RA BR SCT005 OVC048 13/11 A2983 110 89 0 060/04 RMK AO2 LTG DSNT E AND SE P0017 T01280111
53915KARA ARA20161205104514712/05/16 10:45:31  5-MIN KARA 051645Z 06006KT 3SM +RA BR SCT005 BKN048 OVC055 13/11 A2983 110 89 0 060/06 RMK AO2 LTG DSNT E AND SE P0019 T01280111
53915KARA ARA20161205105012912/05/16 10:50:31  5-MIN KARA 051650Z 05006KT 4SM RA BR SCT004 OVC050 13/11 A2982 120 89 0 040/06 RMK AO2 LTG DSNT E AND SE P0021
53915KARA ARA20161205105514012/05/16 10:55:31  5-MIN KARA 051655Z 08006KT 4SM +RA BR BKN004 BKN050 OVC100 13/12 A2983 110 93 0 080/06 RMK AO2 LTG DSNT E P0001 T01280117
53915KARA ARA20161205110014012/05/16 11:00:31  5-MIN KARA 051700Z 08006KT 4SM +RA BR BKN004 BKN050 OVC095 13/11 A2982 120 89 0 080/06 RMK AO2 LTG DSNT E P0002 T01280111
53915KARA ARA20161205110514712/05/16 11:05:31  5-MIN KARA 051705Z 08008KT 4SM +RA BR BKN004 BKN050 OVC070 13/12 A2982 120 93 0 080/08 RMK AO2 LTG DSNT NE AND E P0004 T01280117
53915KARA ARA20161205111014612/05/16 11:10:31  5-MIN KARA 051710Z 06005KT 4SM RA BR BKN004 BKN055 OVC070 13/12 A2982 120 89 0 060/05 RMK AO2 LTG DSNT NE AND E P0006 T01330117
53915KARA ARA20161205111514712/05/16 11:15:31  5-MIN KARA 051715Z 03007KT 6SM -RA BR BKN005 BKN011 OVC055 13/12 A2981 130 89 0 030/07 RMK AO2 LTG DSNT NE AND E P0008 T01330117
53915KARA ARA20161205112012712/05/16 11:20:31  5-MIN KARA 051720Z 04005KT 10SM -RA BKN005 BKN011 OVC095 13/12 A2982 120 89 0 040/05 RMK AO2 P0010 T01330117
53915KARA ARA20161205112512012/05/16 11:25:31  5-MIN KARA 051725Z 03007KT 10SM -RA BKN005 OVC013 13/12 A2981 130 93 0 030/07 RMK AO2 P0012 T01330122
53915KARA ARA20161205113012212/05/16 11:30:31  5-MIN KARA 051730Z 02007KT 10SM -RA BKN005 OVC013 14/12 A2980 140 90 100 020/07 RMK AO2 P0014 T01390122
53915KARA ARA20161205113512212/05/16 11:35:31  5-MIN KARA 051735Z 02008KT 10SM -RA BKN005 OVC013 14/12 A2980 140 90 100 020/08 RMK AO2 P0017 T01390122
53915KARA ARA20161205114011512/05/16 11:40:31  5-MIN KARA 051740Z 01006KT 10SM -RA OVC004 14/12 A2980 140 90 100 010/06 RMK AO2 P0019 T01390122
53915KARA ARA20161205114511312/05/16 11:45:31  5-MIN KARA 051745Z 02008KT 10SM -RA OVC004 13/12 A2980 140 93 0 020/08 RMK AO2 P0021 T01330122
53915KARA ARA20161205115014412/05/16 11:50:31  5-MIN KARA 051750Z 02007KT 10SM -RA OVC004 13/12 A2979 140 93 0 020/07 RMK AO2 SLP088 P0024 6//// T01330122 10139 20122 58001
53915KARA ARA20161205115511312/05/16 11:55:31  5-MIN KARA 051755Z 02008KT 10SM -RA OVC004 13/12 A2979 150 93 0 020/08 RMK AO2 P0001 T01330122
53915KARA ARA20161205120012012/05/16 12:00:31  5-MIN KARA 051800Z 03009KT 10SM -RA OVC004 13/12 A2978 160 93 0 030/09 RMK AO2 PRESFR P0003 T01330122
53915KARA ARA20161205120511312/05/16 12:05:31  5-MIN KARA 051805Z 04009KT 10SM -RA OVC004 13/12 A2978 160 93 0 040/09 RMK AO2 P0006 T01330122
53915KARA ARA20161205121011312/05/16 12:10:31  5-MIN KARA 051810Z 04010KT 10SM -RA OVC004 13/12 A2977 170 93 0 040/10 RMK AO2 P0008 T01330122
53915KARA ARA20161205121511112/05/16 12:15:31  5-MIN KARA 051815Z 04009KT 9SM RA OVC004 13/12 A2977 170 93 0 040/09 RMK AO2 P0010 T01330122
53915KARA ARA20161205122011312/05/16 12:20:31  5-MIN KARA 051820Z 05010KT 8SM RA OVC004 13/12 A2976 170 93 100 040/10 RMK AO2 P0012 T01330122
53915KARA ARA20161205122511312/05/16 12:25:31  5-MIN KARA 051825Z 05008KT 8SM RA OVC004 13/12 A2976 170 93 100 050/08 RMK AO2 P0015 T01330122
53915KARA ARA20161205123011312/05/16 12:30:31  5-MIN KARA 051830Z 03009KT 8SM RA OVC004 13/12 A2977 170 93 100 030/09 RMK AO2 P0017 T01330122
53915KARA ARA20161205123512512/05/16 12:35:31  5-MIN KARA 051835Z 04008KT 7SM RA OVC004 13/12 A2976 170 93 100 040/08 RMK AO2 LTG DSNT SW P0019 T01330122
53915KARA ARA20161205124012812/05/16 12:40:31  5-MIN KARA 051840Z 06009KT 6SM RA BR OVC004 13/12 A2976 180 93 100 060/09 RMK AO2 LTG DSNT SW P0021 T01330122
53915KARA ARA20161205124512812/05/16 12:45:31  5-MIN KARA 051845Z 07008KT 5SM RA BR OVC004 13/12 A2976 180 93 100 070/08 RMK AO2 LTG DSNT SW P0023 T01330122
53915KARA ARA20161205125013812/05/16 12:50:31  5-MIN KARA 051850Z 07008KT 4SM +RA BR BKN004 BKN008 OVC024 13/12 A2976 180 93 100 070/08 RMK AO2 SLP075 P0025 T01330122
53915KARA ARA20161205125513112/05/16 12:55:31  5-MIN KARA 051855Z 07007KT 3SM +RA BR BKN004 BKN009 OVC024 13/12 A2975 190 93 100 070/07 RMK AO2 P0001 T01330122
53915KARA ARA20161205130014212/05/16 13:00:31  5-MIN KARA 051900Z 07008KT 2SM +RA BR BKN004 BKN009 OVC034 13/12 A2974 190 93 100 070/08 RMK AO2 LTG DSNT S P0002 T01330122
53915KARA ARA20161205130514912/05/16 13:05:31  5-MIN KARA 051905Z 07007KT 2SM +RA BR BKN004 BKN024 OVC075 13/12 A2973 200 93 100 070/07 RMK AO2 LTG DSNT S PRESFR P0004 T01330122
53915KARA ARA20161205131014212/05/16 13:10:31  5-MIN KARA 051910Z 07008KT 3SM +RA BR SCT004 BKN021 OVC075 14/12 A2973 210 90 200 070/08 RMK AO2 LTG DSNT S P0006 T01390122
53915KARA ARA20161205131514112/05/16 13:15:31  5-MIN KARA 051915Z 06006KT 4SM RA BR SCT005 BKN021 OVC075 14/12 A2973 200 90 200 050/06 RMK AO2 LTG DSNT S P0007 T01390122
53915KARA ARA20161205132014212/05/16 13:20:31  5-MIN KARA 051920Z 08006KT 4SM +RA BR BKN005 BKN019 OVC075 14/12 A2973 200 90 200 080/06 RMK AO2 LTG DSNT S P0009 T01390122
53915KARA ARA20161205132514912/05/16 13:25:31  5-MIN KARA 051925Z 08009KT 4SM +RA BR SCT005 BKN019 OVC100 14/13 A2972 210 93 200 080/09 RMK AO2 LTG DSNT SE AND S P0011 T01390128
53915KARA ARA20161205133014812/05/16 13:30:31  5-MIN KARA 051930Z 08011KT 5SM RA BR FEW004 BKN075 OVC100 14/13 A2971 220 90 200 080/11 RMK AO2 LTG DSNT SE AND S P0012 T01440128
53915KARA ARA20161205133515312/05/16 13:35:31  5-MIN KARA 051935Z 09009KT 8SM -RA FEW004 BKN050 OVC100 14/13 A2970 230 90 300 090/09 RMK AO2 LTG DSNT SE AND S PRESFR P0014 T01440128
53915KARA ARA20161205134014112/05/16 13:40:31  5-MIN KARA 051940Z 10008KT 10SM -RA SCT004 BKN018 OVC070 14/13 A2971 230 90 300 100/08 RMK AO2 LTG DSNT SE P0015 T01440128
53915KARA ARA20161205134514312/05/16 13:45:31  5-MIN KARA 051945Z 09009KT 10SM BKN004 BKN050 OVC100 14/13 A2971 220 93 200 090/09 RMK AO2 LTG DSNT SE RAE45 P0015 T01440133
53915KARA ARA20161205135013812/05/16 13:50:31  5-MIN KARA 051950Z 08006KT 10SM BKN004 BKN048 OVC075 14/13 A2971 230 93 300 080/06 RMK AO2 RAE45 SLP058 P0015 T01440133
53915KARA ARA20161205135511912/05/16 13:55:31  5-MIN KARA 051955Z 34005KT 10SM BKN004 BKN048 OVC060 15/13 A2972 210 90 300 340/05 RMK AO2 T01500133
53915KARA ARA20161205140013012/05/16 14:00:31  5-MIN KARA 052000Z 01005KT 10SM -RA BKN004 OVC050 15/14 A2972 210 93 300 360/05 RMK AO2 RAB1957 P0000 T01500139
53915KARA ARA20161205140512312/05/16 14:05:31  5-MIN KARA 052005Z 04006KT 10SM -RA OVC004 15/13 A2972 210 90 300 040/06 RMK AO2 RAB1957 P0000 T01500133
53915KARA ARA20161205141012212/05/16 14:10:31  5-MIN KARA 052010Z 03005KT 10SM OVC004 15/14 A2971 220 93 300 030/05 RMK AO2 RAB1957E08 P0000 T01500139
53915KARA ARA20161205141512212/05/16 14:15:31  5-MIN KARA 052015Z 05006KT 10SM OVC004 15/14 A2971 220 93 300 050/06 RMK AO2 RAB1957E08 P0000 T01500139
53915KARA ARA20161205142012212/05/16 14:20:31  5-MIN KARA 052020Z 06006KT 10SM OVC004 16/14 A2970 230 90 400 060/06 RMK AO2 RAB1957E08 P0000 T01560139
53915KARA ARA20161205142512912/05/16 14:25:31  5-MIN KARA 052025Z 06006KT 10SM OVC004 16/14 A2970 240 90 400 060/06 RMK AO2 RAB1957E08 PRESFR P0000 T01560139
53915KARA ARA20161205143012212/05/16 14:30:31  5-MIN KARA 052030Z 04004KT 10SM OVC004 16/14 A2970 230 90 400 040/04 RMK AO2 RAB1957E08 P0000 T01560139
53915KARA ARA20161205143513412/05/16 14:35:31  5-MIN KARA 052035Z 07004KT 10SM OVC004 16/14 A2970 230 90 400 070/04 RMK AO2 LTG DSNT SE RAB1957E08 P0000 T01560139
53915KARA ARA20161205144013412/05/16 14:40:31  5-MIN KARA 052040Z 08006KT 10SM OVC004 16/14 A2970 230 90 400 080/06 RMK AO2 LTG DSNT SE RAB1957E08 P0000 T01560139
53915KARA ARA20161205144513412/05/16 14:45:31  5-MIN KARA 052045Z 08006KT 10SM OVC004 16/14 A2970 230 86 500 080/06 RMK AO2 LTG DSNT SE RAB1957E08 P0000 T01610139
53915KARA ARA20161205145014112/05/16 14:50:31  5-MIN KARA 052050Z 07006KT 10SM OVC004 16/14 A2970 230 90 500 070/06 RMK AO2 RAB1957E08 SLP056 P0000 60041 T01610144 58021
53915KARA ARA20161205145510512/05/16 14:55:31  5-MIN KARA 052055Z 07006KT 10SM OVC004 16/14 A2969 240 90 500 070/06 RMK AO2 T01610144
53915KARA ARA20161205150010512/05/16 15:00:31  5-MIN KARA 052100Z 07007KT 10SM OVC004 16/14 A2968 250 90 500 070/07 RMK AO2 T01610144
53915KARA ARA20161205150510512/05/16 15:05:31  5-MIN KARA 052105Z 07006KT 10SM OVC004 16/14 A2969 240 90 500 070/06 RMK AO2 T01610144
53915KARA ARA20161205151010512/05/16 15:10:31  5-MIN KARA 052110Z 09008KT 10SM OVC004 16/14 A2968 250 90 500 090/08 RMK AO2 T01610144
53915KARA ARA20161205151510512/05/16 15:15:31  5-MIN KARA 052115Z 09009KT 10SM OVC004 17/14 A2968 250 86 500 090/09 RMK AO2 T01670144
53915KARA ARA20161205152010512/05/16 15:20:31  5-MIN KARA 052120Z 10008KT 10SM OVC004 17/15 A2968 250 90 500 100/08 RMK AO2 T01670150
53915KARA ARA20161205152510512/05/16 15:25:31  5-MIN KARA 052125Z 11008KT 10SM OVC004 17/15 A2969 240 90 500 110/08 RMK AO2 T01670150
53915KARA ARA20161205153010512/05/16 15:30:31  5-MIN KARA 052130Z 10008KT 10SM OVC005 17/15 A2968 250 90 500 100/08 RMK AO2 T01670150
53915KARA ARA20161205153510512/05/16 15:35:31  5-MIN KARA 052135Z 10008KT 10SM OVC005 17/15 A2968 250 90 500 100/08 RMK AO2 T01670150
53915KARA ARA20161205154010512/05/16 15:40:31  5-MIN KARA 052140Z 10008KT 10SM OVC005 17/15 A2968 250 90 500 100/08 RMK AO2 T01670150
53915KARA ARA20161205154510412/05/16 15:45:31  5-MIN KARA 052145Z 10008KT 9SM OVC005 17/15 A2967 260 90 600 100/08 RMK AO2 T01670150
53915KARA ARA20161205155011112/05/16 15:50:31  5-MIN KARA 052150Z 10008KT 8SM OVC005 17/16 A2967 260 90 600 100/08 RMK AO2 SLP047 T01720156
53915KARA ARA20161205155510412/05/16 15:55:31  5-MIN KARA 052155Z 10010KT 8SM OVC005 17/16 A2967 260 90 600 100/10 RMK AO2 T01720156
53915KARA ARA20161205160010412/05/16 16:00:31  5-MIN KARA 052200Z 10009KT 8SM OVC005 17/15 A2967 260 87 600 100/09 RMK AO2 T01720150
53915KARA ARA20161205160510412/05/16 16:05:31  5-MIN KARA 052205Z 10008KT 9SM OVC005 17/15 A2967 260 87 600 100/08 RMK AO2 T01720150
53915KARA ARA20161205161010412/05/16 16:10:31  5-MIN KARA 052210Z 10007KT 9SM OVC005 17/15 A2968 250 87 600 100/07 RMK AO2 T01720150
53915KARA ARA20161205161510412/05/16 16:15:31  5-MIN KARA 052215Z 11008KT 9SM OVC005 17/15 A2967 260 90 600 110/08 RMK AO2 T01670150
53915KARA ARA20161205162010412/05/16 16:20:31  5-MIN KARA 052220Z 11008KT 9SM OVC005 17/15 A2967 260 90 600 110/08 RMK AO2 T01670150
53915KARA ARA20161205162510412/05/16 16:25:31  5-MIN KARA 052225Z 10006KT 9SM OVC005 17/15 A2967 260 90 600 100/06 RMK AO2 T01670150
53915KARA ARA20161205163010412/05/16 16:30:31  5-MIN KARA 052230Z 11007KT 8SM OVC005 17/15 A2967 260 90 600 100/07 RMK AO2 T01670150
53915KARA ARA20161205163510412/05/16 16:35:31  5-MIN KARA 052235Z 11006KT 8SM OVC005 17/15 A2967 260 90 600 110/06 RMK AO2 T01670150
53915KARA ARA20161205164010412/05/16 16:40:31  5-MIN KARA 052240Z 12007KT 8SM OVC005 17/15 A2967 260 87 600 110/07 RMK AO2 T01720150
53915KARA ARA20161205164510412/05/16 16:45:31  5-MIN KARA 052245Z 12006KT 8SM OVC005 17/15 A2967 260 87 600 120/06 RMK AO2 T01720150
53915KARA ARA20161205165011112/05/16 16:50:31  5-MIN KARA 052250Z 12006KT 8SM OVC005 17/16 A2967 260 90 600 120/06 RMK AO2 SLP045 T01720156
53915KARA ARA20161205165510412/05/16 16:55:31  5-MIN KARA 052255Z 11006KT 8SM OVC005 17/16 A2967 260 90 600 110/06 RMK AO2 T01720156
53915KARA ARA20161205170010412/05/16 17:00:31  5-MIN KARA 052300Z 12005KT 8SM OVC005 17/16 A2967 260 90 600 120/05 RMK AO2 T01720156
53915KARA ARA20161205170510412/05/16 17:05:31  5-MIN KARA 052305Z 11004KT 7SM OVC005 17/16 A2967 260 90 600 110/04 RMK AO2 T01720156
53915KARA ARA20161205171010412/05/16 17:10:31  5-MIN KARA 052310Z 11005KT 7SM OVC005 17/16 A2967 260 90 600 110/05 RMK AO2 T01720156
53915KARA ARA20161205171510412/05/16 17:15:31  5-MIN KARA 052315Z 11005KT 7SM OVC005 17/16 A2967 250 90 600 110/05 RMK AO2 T01720156
53915KARA ARA20161205172010412/05/16 17:20:31  5-MIN KARA 052320Z 09005KT 7SM OVC005 17/16 A2966 260 90 600 090/05 RMK AO2 T01720156
53915KARA ARA20161205172510412/05/16 17:25:31  5-MIN KARA 052325Z 08005KT 7SM OVC005 17/16 A2966 270 90 600 070/05 RMK AO2 T01720156
53915KARA ARA20161205173010412/05/16 17:30:31  5-MIN KARA 052330Z 08005KT 7SM OVC004 17/16 A2967 260 90 600 080/05 RMK AO2 T01720156
53915KARA ARA20161205173510412/05/16 17:35:31  5-MIN KARA 052335Z 10004KT 7SM OVC004 17/16 A2967 260 90 600 100/04 RMK AO2 T01720156
53915KARA ARA20161205174010412/05/16 17:40:31  5-MIN KARA 052340Z 09005KT 7SM OVC004 17/16 A2967 260 90 600 090/05 RMK AO2 T01720156
53915KARA ARA20161205174510412/05/16 17:45:31  5-MIN KARA 052345Z 12005KT 7SM OVC004 17/16 A2968 250 90 600 120/05 RMK AO2 T01720156
53915KARA ARA20161205175013812/05/16 17:50:31  5-MIN KARA 052350Z 12007KT 6SM BR OVC004 17/16 A2968 250 90 600 120/07 RMK AO2 SLP048 60041 T01720156 10172 20133 56032
53915KARA ARA20161205175510712/05/16 17:55:31  5-MIN KARA 052355Z 12007KT 6SM BR OVC004 17/16 A2968 250 90 600 120/07 RMK AO2 T01720156
53915KARA ARA20161205180010712/05/16 18:00:31  5-MIN KARA 060000Z 12006KT 6SM BR OVC004 17/16 A2968 250 90 600 110/06 RMK AO2 T01720156
53915KARA ARA20161205180510712/05/16 18:05:31  5-MIN KARA 060005Z 12006KT 5SM BR OVC003 17/16 A2968 250 90 600 120/06 RMK AO2 T01720156
53915KARA ARA20161205181010712/05/16 18:10:31  5-MIN KARA 060010Z 11005KT 5SM BR OVC003 17/16 A2968 250 90 600 110/05 RMK AO2 T01720156
53915KARA ARA20161205181510712/05/16 18:15:31  5-MIN KARA 060015Z 11004KT 5SM BR OVC003 17/16 A2967 250 90 600 110/04 RMK AO2 T01720156
53915KARA ARA20161205182010712/05/16 18:20:31  5-MIN KARA 060020Z 11004KT 5SM BR OVC003 17/16 A2967 260 90 600 110/04 RMK AO2 T01720156
53915KARA ARA20161205182510712/05/16 18:25:31  5-MIN KARA 060025Z 12004KT 5SM BR OVC003 17/16 A2967 260 90 600 120/04 RMK AO2 T01720156
53915KARA ARA20161205183010712/05/16 18:30:31  5-MIN KARA 060030Z 10004KT 5SM BR OVC003 17/16 A2967 260 90 600 100/04 RMK AO2 T01720156
53915KARA ARA20161205183510712/05/16 18:35:31  5-MIN KARA 060035Z 10004KT 5SM BR OVC003 17/16 A2967 260 90 600 100/04 RMK AO2 T01720156
53915KARA ARA20161205184010712/05/16 18:40:31  5-MIN KARA 060040Z 09005KT 5SM BR OVC003 17/16 A2966 270 90 600 090/05 RMK AO2 T01720156
53915KARA ARA20161205184510712/05/16 18:45:31  5-MIN KARA 060045Z 10005KT 5SM BR OVC003 17/16 A2966 270 90 600 100/05 RMK AO2 T01720156
53915KARA ARA20161205185011412/05/16 18:50:31  5-MIN KARA 060050Z 12004KT 5SM BR OVC003 17/16 A2967 260 90 600 120/04 RMK AO2 SLP046 T01720156
53915KARA ARA20161205185510712/05/16 18:55:31  5-MIN KARA 060055Z 12006KT 5SM BR OVC003 17/16 A2967 260 90 600 120/06 RMK AO2 T01720156
53915KARA ARA20161205190010712/05/16 19:00:31  5-MIN KARA 060100Z 12006KT 6SM BR OVC003 17/16 A2967 260 90 600 120/06 RMK AO2 T01720156
53915KARA ARA20161205190510712/05/16 19:05:31  5-MIN KARA 060105Z 13006KT 6SM BR OVC003 17/16 A2967 260 90 600 120/06 RMK AO2 T01720156
53915KARA ARA20161205191010712/05/16 19:10:31  5-MIN KARA 060110Z 12004KT 5SM BR OVC003 17/16 A2967 260 90 600 120/04 RMK AO2 T01720156
53915KARA ARA20161205191510712/05/16 19:15:31  5-MIN KARA 060115Z 13005KT 5SM BR OVC003 17/16 A2967 260 90 600 120/05 RMK AO2 T01720156
53915KARA ARA20161205192010712/05/16 19:20:31  5-MIN KARA 060120Z 12005KT 6SM BR OVC003 17/16 A2967 260 90 600 120/05 RMK AO2 T01720156
53915KARA ARA20161205192510712/05/16 19:25:31  5-MIN KARA 060125Z 00000KT 6SM BR OVC003 17/16 A2967 260 90 600 000/00 RMK AO2 T01720156
53915KARA ARA20161205193010712/05/16 19:30:31  5-MIN KARA 060130Z 00000KT 6SM BR OVC003 17/16 A2967 260 93 600 000/00 RMK AO2 T01720161
53915KARA ARA20161205193510712/05/16 19:35:31  5-MIN KARA 060135Z 00000KT 6SM BR OVC003 17/16 A2967 260 93 600 000/00 RMK AO2 T01720161
53915KARA ARA20161205194010712/05/16 19:40:31  5-MIN KARA 060140Z 15003KT 6SM BR OVC003 17/16 A2967 260 90 600 140/03 RMK AO2 T01720156
53915KARA ARA20161205194510712/05/16 19:45:31  5-MIN KARA 060145Z 14004KT 6SM BR OVC003 17/16 A2967 260 90 600 140/04 RMK AO2 T01720156
53915KARA ARA20161205195013112/05/16 19:50:31  5-MIN KARA 060150Z AUTO 13004KT 6SM BR OVC003 17/16 A2967 260 90 600 130/04 RMK AO2 CIG 003V006 SLP046 T01720156
53915KARA ARA20161205195512412/05/16 19:55:31  5-MIN KARA 060155Z AUTO 15004KT 6SM BR OVC003 17/16 A2967 260 90 600 140/04 RMK AO2 CIG 003V008 T01720156
53915KARA ARA20161205200013112/05/16 20:00:31  5-MIN KARA 060200Z AUTO 14004KT 6SM BR BKN005 OVC009 17/16 A2967 260 93 600 130/04 RMK AO2 CIG 003V007 T01720161
53915KARA ARA20161205200513112/05/16 20:05:31  5-MIN KARA 060205Z AUTO 13004KT 6SM BR BKN005 OVC014 17/16 A2967 260 93 600 130/04 RMK AO2 CIG 003V009 T01720161
53915KARA ARA20161205201013812/05/16 20:10:31  5-MIN KARA 060210Z AUTO 00000KT 6SM BR BKN005 BKN010 OVC014 17/16 A2967 260 93 600 000/00 RMK AO2 CIG 003V008 T01720161
53915KARA ARA20161205201511912/05/16 20:15:31  5-MIN KARA 060215Z AUTO 00000KT 6SM BR BKN005 OVC014 17/16 A2966 260 93 600 000/00 RMK AO2 T01720161
53915KARA ARA20161205202011912/05/16 20:20:31  5-MIN KARA 060220Z AUTO 12003KT 5SM BR BKN006 OVC014 17/16 A2966 270 93 600 120/03 RMK AO2 T01720161
53915KARA ARA20161205202511912/05/16 20:25:31  5-MIN KARA 060225Z AUTO 00000KT 5SM BR BKN006 OVC010 17/16 A2966 270 93 600 000/00 RMK AO2 T01720161
53915KARA ARA20161205203011212/05/16 20:30:31  5-MIN KARA 060230Z AUTO 13004KT 5SM BR OVC006 17/16 A2966 270 90 600 130/04 RMK AO2 T01720156
53915KARA ARA20161205203511212/05/16 20:35:31  5-MIN KARA 060235Z AUTO 14004KT 5SM BR OVC006 17/16 A2966 260 93 600 140/04 RMK AO2 T01720161
53915KARA ARA20161205204011212/05/16 20:40:31  5-MIN KARA 060240Z AUTO 00000KT 5SM BR OVC006 17/16 A2967 260 93 600 000/00 RMK AO2 T01720161
53915KARA ARA20161205204511212/05/16 20:45:31  5-MIN KARA 060245Z AUTO 21003KT 5SM BR OVC006 17/16 A2967 260 93 600 210/03 RMK AO2 T01720161
53915KARA ARA20161205205012512/05/16 20:50:31  5-MIN KARA 060250Z AUTO 00000KT 5SM BR OVC006 17/16 A2967 260 93 600 000/00 RMK AO2 SLP046 T01720161 55006
53915KARA ARA20161205205512112/05/16 20:55:31  5-MIN KARA 060255Z AUTO 5SM BR OVC005 17/16 A2969 240 90 600 M /M RMK AO2 CIG 002V006 PRESRR T01720156
53915KARA ARA20161205210012412/05/16 21:00:31  5-MIN KARA 060300Z AUTO 27008KT 5SM BR OVC005 17/16 A2968 250 93 600 260/08 RMK AO2 CIG 002V006 T01720161
53915KARA ARA20161205210514012/05/16 21:05:31  5-MIN KARA 060305Z AUTO 27010KT 4SM -RA BR OVC003 17/16 A2969 240 93 600 270/10 RMK AO2 RAB02 CIG 002V006 P0000 T01720161
53915KARA ARA20161205211012812/05/16 21:10:31  5-MIN KARA 060310Z AUTO 27011KT 4SM -RA BR OVC003 17/16 A2969 240 90 600 270/11 RMK AO2 RAB02 P0000 T01720156
53915KARA ARA20161205211513312/05/16 21:15:31  5-MIN KARA 060315Z AUTO 27016G20KT 2SM BR OVC003 17/16 A2970 240 93 500 270/16G20 RMK AO2 RAB02E11 P0000 T01670156
53915KARA ARA20161205212013112/05/16 21:20:31  5-MIN KARA 060320Z AUTO 28015KT 1 3/4SM BR OVC003 16/14 A2970 230 90 400 280/15 RMK AO2 RAB02E11 P0000 T01560139
53915KARA ARA20161205212513112/05/16 21:25:31  5-MIN KARA 060325Z AUTO 28016KT 2 1/2SM BR OVC003 15/13 A2970 230 90 300 280/16 RMK AO2 RAB02E11 P0000 T01500133
53915KARA ARA20161205213012712/05/16 21:30:31  5-MIN KARA 060330Z AUTO 28015KT 3SM BR OVC003 14/13 A2970 230 93 300 280/15 RMK AO2 RAB02E11 P0000 T01440133
53915KARA ARA20161205213513912/05/16 21:35:31  5-MIN KARA 060335Z AUTO 28015KT 4SM BR OVC003 14/13 A2971 220 90 300 280/15 RMK AO2 RAB02E11 CIG 002V006 P0000 T01440128
53915KARA ARA20161205214013912/05/16 21:40:31  5-MIN KARA 060340Z AUTO 28017KT 4SM BR OVC003 14/13 A2971 220 93 200 280/17 RMK AO2 RAB02E11 CIG 002V006 P0000 T01390128
53915KARA ARA20161205214513312/05/16 21:45:31  5-MIN KARA 060345Z AUTO 27013G20KT 4SM BR OVC003 14/12 A2972 220 90 200 270/13G20 RMK AO2 RAB02E11 P0000 T01390122
53915KARA ARA20161205215013412/05/16 21:50:31  5-MIN KARA 060350Z AUTO 28012KT 4SM BR OVC003 14/12 A2972 210 90 200 280/12 RMK AO2 RAB02E11 SLP064 P0000 T01390122
53915KARA ARA20161205215511212/05/16 21:55:31  5-MIN KARA 060355Z AUTO 28013KT 4SM BR OVC003 14/12 A2972 210 90 200 270/13 RMK AO2 T01390122
53915KARA ARA20161205220011212/05/16 22:00:31  5-MIN KARA 060400Z AUTO 27012KT 4SM BR OVC003 14/12 A2973 200 90 200 270/12 RMK AO2 T01390122
53915KARA ARA20161205220512812/05/16 22:05:31  5-MIN KARA 060405Z AUTO 27008KT 3SM -RA BR OVC003 14/12 A2973 210 90 200 270/08 RMK AO2 RAB04 P0000 T01390122
53915KARA ARA20161205221013212/05/16 22:10:31  5-MIN KARA 060410Z AUTO 27009KT 2 1/2SM -RA BR OVC003 14/12 A2973 210 90 200 270/09 RMK AO2 RAB04 P0000 T01390122
53915KARA ARA20161205221512812/05/16 22:15:31  5-MIN KARA 060415Z AUTO 27008KT 3SM -RA BR OVC003 13/12 A2972 210 93 100 270/08 RMK AO2 RAB04 P0000 T01330122
53915KARA ARA20161205222013212/05/16 22:20:31  5-MIN KARA 060420Z AUTO 27010KT 4SM BR OVC003 13/12 A2973 200 93 100 270/10 RMK AO2 RAB04E20 P0000 T01330122 TSNO
53915KARA ARA20161205222512712/05/16 22:25:31  5-MIN KARA 060425Z AUTO 27009KT 5SM BR OVC003 13/12 A2973 200 93 100 270/09 RMK AO2 RAB04E20 P0000 T01330122
53915KARA ARA20161205223012412/05/16 22:30:31  5-MIN KARA 060430Z AUTO 27011KT 9SM OVC003 13/12 A2974 190 93 100 270/11 RMK AO2 RAB04E20 P0000 T01330122
53915KARA ARA20161205223512512/05/16 22:35:31  5-MIN KARA 060435Z AUTO 27012KT 10SM OVC004 14/12 A2974 190 90 100 270/12 RMK AO2 RAB04E20 P0000 T01390122
53915KARA ARA20161205224012512/05/16 22:40:31  5-MIN KARA 060440Z AUTO 27013KT 10SM OVC004 14/12 A2975 190 90 100 270/13 RMK AO2 RAB04E20 P0000 T01390122
53915KARA ARA20161205224512512/05/16 22:45:31  5-MIN KARA 060445Z AUTO 27010KT 10SM OVC005 14/12 A2975 180 90 100 270/10 RMK AO2 RAB04E20 P0000 T01390122
53915KARA ARA20161205225013212/05/16 22:50:31  5-MIN KARA 060450Z AUTO 26011KT 10SM OVC005 14/12 A2975 180 90 100 260/11 RMK AO2 RAB04E20 SLP073 P0000 T01390122
53915KARA ARA20161205225511012/05/16 22:55:31  5-MIN KARA 060455Z AUTO 26007KT 10SM OVC005 14/12 A2975 190 90 100 250/07 RMK AO2 T01390122
53915KARA ARA20161205230011012/05/16 23:00:31  5-MIN KARA 060500Z AUTO 25010KT 10SM OVC005 14/12 A2975 180 90 100 250/10 RMK AO2 T01390122
53915KARA ARA20161205230511012/05/16 23:05:31  5-MIN KARA 060505Z AUTO 25010KT 10SM OVC004 14/12 A2975 180 90 100 250/10 RMK AO2 T01390122
53915KARA ARA20161205231011012/05/16 23:10:31  5-MIN KARA 060510Z AUTO 25006KT 10SM OVC004 14/12 A2975 190 90 100 250/06 RMK AO2 T01390122
53915KARA ARA20161205231511012/05/16 23:15:31  5-MIN KARA 060515Z AUTO 25007KT 10SM OVC004 14/12 A2975 190 90 100 250/07 RMK AO2 T01390122
53915KARA ARA20161205232011012/05/16 23:20:31  5-MIN KARA 060520Z AUTO 25012KT 10SM OVC004 14/12 A2975 180 90 100 250/12 RMK AO2 T01390122
53915KARA ARA20161205232510912/05/16 23:25:31  5-MIN KARA 060525Z AUTO 25010KT 9SM OVC004 14/12 A2976 180 90 100 240/10 RMK AO2 T01390122
53915KARA ARA20161205233010912/05/16 23:30:31  5-MIN KARA 060530Z AUTO 25009KT 8SM OVC005 14/12 A2976 180 90 100 250/09 RMK AO2 T01390122
53915KARA ARA20161205233511212/05/16 23:35:31  5-MIN KARA 060535Z AUTO 25012KT 6SM BR OVC005 14/12 A2976 170 90 100 250/12 RMK AO2 T01390122
53915KARA ARA20161205234012812/05/16 23:40:31  5-MIN KARA 060540Z AUTO 25011KT 5SM -RA BR OVC005 14/12 A2976 170 90 100 250/11 RMK AO2 RAB38 P0000 T01390122
53915KARA ARA20161205234513112/05/16 23:45:31  5-MIN KARA 060545Z AUTO 26012KT 7SM BKN005 OVC013 14/12 A2976 170 90 100 250/12 RMK AO2 RAB38E45 P0000 T01390122
53915KARA ARA20161205235017912/05/16 23:50:31  5-MIN KARA 060550Z AUTO 24014G21KT 10SM BKN005 OVC011 14/12 A2976 170 90 100 240/14G21 RMK AO2 RAB38E45 SLP077 P0000 60000 T01390122 10172 20133 401720117 55001
53915KARA ARA20161205235513512/05/16 23:55:31  5-MIN KARA 060555Z AUTO 25013G21KT 10SM BKN005 OVC011 14/12 A2976 180 86 100 250/13G21 RMK AO2 CIG 004V008 T01390117
53915KARA ARA20161206000012312/06/16 00:00:31  5-MIN KARA 060600Z AUTO 25016G19KT 10SM SCT005 OVC011 14/12 A2976 170 86 100 250/16G19 RMK AO2 T01390117
53915KARA ARA20161206000512312/06/16 00:05:31  5-MIN KARA 060605Z AUTO 26013G21KT 10SM FEW007 OVC011 14/12 A2976 170 86 100 260/13G21 RMK AO2 T01390117
53915KARA ARA20161206001012212/06/16 00:10:31  5-MIN KARA 060610Z AUTO 25014KT 10SM OVC011 14/12 A2976 170 86 100 250/14 RMK AO2 CIG 005V015 T01390117
53915KARA ARA20161206001512812/06/16 00:15:31  5-MIN KARA 060615Z AUTO 26014G19KT 10SM OVC010 14/12 A2976 170 86 100 260/14G19 RMK AO2 CIG 008V014 T01390117
53915KARA ARA20161206002011612/06/16 00:20:31  5-MIN KARA 060620Z AUTO 25018G24KT 10SM OVC010 14/11 A2977 170 83 100 250/18G24 RMK AO2 T01390111
53915KARA ARA20161206002511612/06/16 00:25:31  5-MIN KARA 060625Z AUTO 26017G24KT 10SM OVC010 14/11 A2976 170 83 100 260/17G24 RMK AO2 T01390111
53915KARA ARA20161206003011612/06/16 00:30:31  5-MIN KARA 060630Z AUTO 26013G24KT 10SM OVC010 14/11 A2977 170 83 100 260/13G24 RMK AO2 T01390111
53915KARA ARA20161206003511612/06/16 00:35:31  5-MIN KARA 060635Z AUTO 27016G22KT 10SM OVC010 13/11 A2977 170 86 100 270/16G22 RMK AO2 T01330111
53915KARA ARA20161206004011412/06/16 00:40:31  5-MIN KARA 060640Z AUTO 26012G22KT 10SM OVC010 13/11 A2977 170 86 0 260/12G22 RMK AO2 T01330111
53915KARA ARA20161206004511412/06/16 00:45:31  5-MIN KARA 060645Z AUTO 26013G21KT 10SM OVC009 13/11 A2977 160 86 0 260/13G21 RMK AO2 T01330111
53915KARA ARA20161206005012112/06/16 00:50:31  5-MIN KARA 060650Z AUTO 26016G21KT 10SM OVC009 13/11 A2977 160 86 0 260/16G21 RMK AO2 SLP081 T01330111
53915KARA ARA20161206005511312/06/16 00:55:31  5-MIN KARA 060655Z AUTO 27012G21KT 9SM OVC009 13/11 A2977 160 86 0 270/12G21 RMK AO2 T01330111
53915KARA ARA20161206010011312/06/16 01:00:31  5-MIN KARA 060700Z AUTO 27015G21KT 8SM OVC007 13/11 A2977 160 86 0 260/15G21 RMK AO2 T01330111
53915KARA ARA20161206010512912/06/16 01:05:31  5-MIN KARA 060705Z AUTO 26014G22KT 7SM -RA OVC007 13/11 A2977 160 86 0 260/14G22 RMK AO2 RAB05 P0000 T01330111
53915KARA ARA20161206011012912/06/16 01:10:31  5-MIN KARA 060710Z AUTO 26010G22KT 7SM -RA OVC007 13/11 A2977 160 89 0 260/10G22 RMK AO2 RAB05 P0000 T01280111
53915KARA ARA20161206011512812/06/16 01:15:31  5-MIN KARA 060715Z AUTO 26014G22KT 7SM OVC007 13/11 A2978 160 89 0 260/14G22 RMK AO2 RAB05E12 P0000 T01280111
53915KARA ARA20161206012014012/06/16 01:20:31  5-MIN KARA 060720Z AUTO 26014G22KT 8SM OVC007 13/11 A2978 160 89 0 260/14G22 RMK AO2 RAB05E12 CIG 006V010 P0000 T01280111
53915KARA ARA20161206012514012/06/16 01:25:31  5-MIN KARA 060725Z AUTO 26013G21KT 9SM OVC007 13/11 A2978 160 89 0 260/13G21 RMK AO2 RAB05E12 CIG 006V013 P0000 T01280111
53915KARA ARA20161206013013412/06/16 01:30:31  5-MIN KARA 060730Z AUTO 26012KT 9SM OVC007 13/11 A2978 160 89 0 260/12 RMK AO2 RAB05E12 CIG 006V013 P0000 T01280111
53915KARA ARA20161206013512912/06/16 01:35:31  5-MIN KARA 060735Z AUTO 26010KT 8SM BKN007 OVC010 13/11 A2978 160 89 0 260/10 RMK AO2 RAB05E12 P0000 T01280111
53915KARA ARA20161206014012912/06/16 01:40:31  5-MIN KARA 060740Z AUTO 26008KT 9SM BKN007 OVC010 13/11 A2978 160 89 0 260/08 RMK AO2 RAB05E12 P0000 T01280111
53915KARA ARA20161206014512912/06/16 01:45:31  5-MIN KARA 060745Z AUTO 26013G17KT 10SM OVC006 13/11 A2978 160 89 0 260/13G17 RMK AO2 RAB05E12 P0000 T01280111
53915KARA ARA20161206015013612/06/16 01:50:31  5-MIN KARA 060750Z AUTO 26011G18KT 10SM OVC006 13/11 A2978 150 89 0 260/11G18 RMK AO2 RAB05E12 SLP085 P0000 T01280111
53915KARA ARA20161206015511412/06/16 01:55:31  5-MIN KARA 060755Z AUTO 27012G20KT 10SM OVC006 13/11 A2978 150 86 0 270/12G20 RMK AO2 T01280106
53915KARA ARA20161206020011412/06/16 02:00:31  5-MIN KARA 060800Z AUTO 27012G20KT 10SM OVC006 13/11 A2979 150 86 0 270/12G20 RMK AO2 T01280106
53915KARA ARA20161206020510812/06/16 02:05:31  5-MIN KARA 060805Z AUTO 27010KT 10SM OVC006 13/11 A2979 150 86 0 270/10 RMK AO2 T01280106
53915KARA ARA20161206021010812/06/16 02:10:31  5-MIN KARA 060810Z AUTO 26010KT 10SM OVC006 13/11 A2979 150 86 0 260/10 RMK AO2 T01280106
53915KARA ARA20161206021510812/06/16 02:15:31  5-MIN KARA 060815Z AUTO 27009KT 10SM OVC006 13/11 A2979 140 86 0 270/09 RMK AO2 T01280106
53915KARA ARA20161206022010812/06/16 02:20:31  5-MIN KARA 060820Z AUTO 27008KT 10SM OVC006 13/11 A2979 140 86 0 270/08 RMK AO2 T01280106
53915KARA ARA20161206022511512/06/16 02:25:31  5-MIN KARA 060825Z AUTO 26008KT 10SM BKN006 OVC012 13/11 A2980 140 86 0 260/08 RMK AO2 T01280106
53915KARA ARA20161206023013312/06/16 02:30:31  5-MIN KARA 060830Z AUTO 26010G16KT 10SM BKN007 OVC012 13/11 A2980 140 86 0 260/10G16 RMK AO2 CIG 006V010 T01280106
53915KARA ARA20161206023512712/06/16 02:35:31  5-MIN KARA 060835Z AUTO 26014KT 10SM BKN007 OVC012 13/11 A2980 130 86 0 260/14 RMK AO2 CIG 006V010 T01280106
53915KARA ARA20161206024012112/06/16 02:40:31  5-MIN KARA 060840Z AUTO 26015G18KT 10SM BKN007 OVC012 13/11 A2981 130 86 0 260/15G18 RMK AO2 T01280106
53915KARA ARA20161206024512112/06/16 02:45:31  5-MIN KARA 060845Z AUTO 28013G20KT 10SM BKN008 OVC013 13/11 A2981 130 86 0 280/13G20 RMK AO2 T01280106
53915KARA ARA20161206025014012/06/16 02:50:31  5-MIN KARA 060850Z AUTO 28013G20KT 10SM BKN008 OVC013 13/10 A2982 120 83 0 280/13G20 RMK AO2 SLP095 60000 T01280100 51014
53915KARA ARA20161206025511112/06/16 02:55:31  5-MIN KARA 060855Z AUTO 27013KT 10SM OVC008 12/10 A2982 120 86 -100 270/13 RMK AO2 T01220100
53915KARA ARA20161206030011712/06/16 03:00:31  5-MIN KARA 060900Z AUTO 27015G21KT 10SM OVC008 12/10 A2982 120 86 -100 270/15G21 RMK AO2 T01220100
53915KARA ARA20161206030512412/06/16 03:05:31  5-MIN KARA 060905Z AUTO 26016G21KT 10SM BKN008 OVC015 12/09 A2982 120 83 -100 260/16G21 RMK AO2 T01220094
53915KARA ARA20161206031013012/06/16 03:10:31  5-MIN KARA 060910Z AUTO 27015KT 10SM BKN008 OVC015 12/09 A2982 120 83 -100 270/15 RMK AO2 CIG 007V012 T01220094
53915KARA ARA20161206031513012/06/16 03:15:31  5-MIN KARA 060915Z AUTO 26013KT 10SM BKN008 OVC015 12/09 A2983 110 83 -100 260/13 RMK AO2 CIG 008V011 T01220094
53915KARA ARA20161206032011112/06/16 03:20:31  5-MIN KARA 060920Z AUTO 25011KT 10SM OVC010 12/09 A2983 110 83 -100 250/11 RMK AO2 T01220094
53915KARA ARA20161206032511712/06/16 03:25:31  5-MIN KARA 060925Z AUTO 26012G19KT 10SM OVC010 12/09 A2983 110 83 -100 260/12G19 RMK AO2 T01220094
53915KARA ARA20161206033011112/06/16 03:30:31  5-MIN KARA 060930Z AUTO 26010KT 10SM OVC011 12/09 A2984 100 83 -100 260/10 RMK AO2 T01220094
53915KARA ARA20161206033511112/06/16 03:35:31  5-MIN KARA 060935Z AUTO 27013KT 10SM OVC011 12/09 A2984 100 83 -100 270/13 RMK AO2 T01220094
53915KARA ARA20161206034011012/06/16 03:40:31  5-MIN KARA 060940Z AUTO 26010KT 9SM OVC011 12/09 A2983 110 83 -100 260/10 RMK AO2 T01220094
53915KARA ARA20161206034511012/06/16 03:45:31  5-MIN KARA 060945Z AUTO 27012KT 8SM OVC011 12/09 A2983 110 86 -200 270/12 RMK AO2 T01170094
53915KARA ARA20161206035012912/06/16 03:50:31  5-MIN KARA 060950Z AUTO 26011KT 7SM OVC011 12/09 A2984 100 86 -200 260/11 RMK AO2 CIG 007V014 SLP103 T01170094
53915KARA ARA20161206035512512/06/16 03:55:31  5-MIN KARA 060955Z AUTO 26010KT 6SM BR OVC009 12/10 A2984 100 89 -200 260/10 RMK AO2 CIG 007V014 T01170100
53915KARA ARA20161206040014912/06/16 04:00:31  5-MIN KARA 061000Z AUTO 26011G18KT 6SM -RA BR OVC009 12/10 A2984 100 89 -200 260/11G18 RMK AO2 RAB0956 CIG 007V014 P0000 T01170100
53915KARA ARA20161206040514612/06/16 04:05:31  5-MIN KARA 061005Z AUTO 28012G18KT 7SM -RA OVC009 12/10 A2984 100 89 -200 280/12G18 RMK AO2 RAB0956 CIG 007V013 P0000 T01170100
53915KARA ARA20161206041014712/06/16 04:10:31  5-MIN KARA 061010Z AUTO 28011KT 9SM -RA BKN009 OVC015 12/10 A2984 100 89 -200 280/11 RMK AO2 RAB0956 CIG 007V011 P0000 T01170100
53915KARA ARA20161206041514712/06/16 04:15:31  5-MIN KARA 061015Z AUTO 28012KT 10SM BKN009 OVC015 12/10 A2984 100 89 -200 280/12 RMK AO2 RAB0956E13 CIG 007V012 P0000 T01170100
53915KARA ARA20161206042015212/06/16 04:20:31  5-MIN KARA 061020Z AUTO 28010G18KT 9SM BKN009 OVC014 12/09 A2984 100 86 -200 280/10G18 RMK AO2 RAB0956E13 CIG 007V012 P0000 T01170094
53915KARA ARA20161206042515312/06/16 04:25:31  5-MIN KARA 061025Z AUTO 27009G18KT 8SM -RA BKN009 OVC014 12/10 A2984 100 89 -200 270/09G18 RMK AO2 RAB0956 CIG 007V012 P0000 T01170100
53915KARA ARA20161206043014712/06/16 04:30:31  5-MIN KARA 061030Z AUTO 28009KT 9SM -RA BKN009 OVC014 12/09 A2984 100 86 -200 270/09 RMK AO2 RAB0956 CIG 007V012 P0000 T01170094
53915KARA ARA20161206043512812/06/16 04:35:31  5-MIN KARA 061035Z AUTO 27010KT 10SM OVC012 12/09 A2984 100 86 -200 270/10 RMK AO2 RAB0956E34 P0000 T01170094
53915KARA ARA20161206044012812/06/16 04:40:31  5-MIN KARA 061040Z AUTO 28010KT 10SM OVC012 12/09 A2984 100 86 -200 280/10 RMK AO2 RAB0956E34 P0000 T01170094
53915KARA ARA20161206044512812/06/16 04:45:31  5-MIN KARA 061045Z AUTO 27010KT 10SM OVC012 12/09 A2984 100 86 -200 270/10 RMK AO2 RAB0956E34 P0000 T01170094
53915KARA ARA20161206045013512/06/16 04:50:31  5-MIN KARA 061050Z AUTO 28007KT 10SM OVC013 12/09 A2984 100 86 -200 270/07 RMK AO2 RAB0956E34 SLP103 P0000 T01170094
53915KARA ARA20161206045511112/06/16 04:55:31  5-MIN KARA 061055Z AUTO 26010KT 10SM OVC013 12/09 A2984 100 86 -200 260/10 RMK AO2 T01170094
53915KARA ARA20161206050011112/06/16 05:00:31  5-MIN KARA 061100Z AUTO 27008KT 10SM OVC013 12/09 A2984 100 86 -200 270/08 RMK AO2 T01170094
53915KARA ARA20161206050511112/06/16 05:05:31  5-MIN KARA 061105Z AUTO 26008KT 10SM OVC013 12/09 A2984 100 86 -200 260/08 RMK AO2 T01170094
53915KARA ARA20161206051011112/06/16 05:10:31  5-MIN KARA 061110Z AUTO 26006KT 10SM OVC013 12/09 A2984 100 86 -200 260/06 RMK AO2 T01170094
53915KARA ARA20161206051511812/06/16 05:15:31  5-MIN KARA 061115Z AUTO 26008KT 10SM BKN013 OVC017 12/09 A2985 100 86 -200 260/08 RMK AO2 T01170094
53915KARA ARA20161206052011012/06/16 05:20:31  5-MIN KARA 061120Z AUTO 26009KT 10SM OVC013 12/09 A2985 90 83 -200 260/09 RMK AO2 T01170089
53915KARA ARA20161206052511012/06/16 05:25:31  5-MIN KARA 061125Z AUTO 27006KT 10SM OVC015 12/09 A2985 90 83 -200 270/06 RMK AO2 T01170089
53915KARA ARA20161206053011012/06/16 05:30:31  5-MIN KARA 061130Z AUTO 26006KT 10SM OVC015 12/09 A2986 90 86 -200 260/06 RMK AO2 T01170094
53915KARA ARA20161206053511012/06/16 05:35:31  5-MIN KARA 061135Z AUTO 26007KT 10SM OVC015 12/09 A2986 80 86 -200 260/07 RMK AO2 T01170094
53915KARA ARA20161206054011012/06/16 05:40:31  5-MIN KARA 061140Z AUTO 27007KT 10SM OVC015 12/09 A2986 80 86 -200 270/07 RMK AO2 T01170094
53915KARA ARA20161206054511012/06/16 05:45:31  5-MIN KARA 061145Z AUTO 25006KT 10SM OVC015 12/09 A2987 80 86 -200 250/06 RMK AO2 T01170094
53915KARA ARA20161206055009512/06/16 05:50:31  5-MIN KARA 061150Z 26006KT 10SM OVC013 12/09 A2987 70 86 -200 260/06 RMK AO2
53915KARA ARA20161206055505612/06/16 05:55:31  5-MIN KARA 061155Z 26008KT 10SM OVC01
53915KARA ARA20161206181510312/06/16 18:15:31  5-MIN KARA 070015Z 03009KT 10SM FEW032 14/11 A2999 -30 80 0 020/09 RMK AO2 T01440111
53915KARA ARA20161206182010612/06/16 18:20:31  5-MIN KARA 070020Z 03007KT 10SM SCT032 14/11 A2999 -30 83 -100 030/07 RMK AO2 T01390111
53915KARA ARA20161206182510312/06/16 18:25:31  5-MIN KARA 070025Z 04008KT 10SM BKN032 14/11 A2999 -30 80 0 040/08 RMK AO2 T01440111
53915KARA ARA20161206183010312/06/16 18:30:31  5-MIN KARA 070030Z 04008KT 10SM BKN031 14/11 A2999 -30 80 0 040/08 RMK AO2 T01440111
53915KARA ARA20161206183510312/06/16 18:35:31  5-MIN KARA 070035Z 04006KT 10SM BKN031 14/11 A2999 -30 80 0 040/06 RMK AO2 T01440111
53915KARA ARA20161206184010612/06/16 18:40:31  5-MIN KARA 070040Z 03008KT 10SM OVC029 14/11 A2999 -40 83 -100 030/08 RMK AO2 T01390111
53915KARA ARA20161206184510612/06/16 18:45:31  5-MIN KARA 070045Z 03009KT 10SM OVC029 14/11 A2999 -40 80 -100 030/09 RMK AO2 T01390106
53915KARA ARA20161206185009612/06/16 18:50:31  5-MIN KARA 070050Z 05010KT 10SM OVC031 14/11 A2999 -40 83 -100 040/10 RMK AO2
53915KARA ARA20161206185510612/06/16 18:55:31  5-MIN KARA 070055Z 04007KT 10SM OVC031 14/11 A2999 -40 83 -100 040/07 RMK AO2 T01390111
53915KARA ARA20161206190010612/06/16 19:00:31  5-MIN KARA 070100Z 05008KT 10SM OVC029 14/11 A2999 -30 80 -100 050/08 RMK AO2 T01390106
53915KARA ARA20161206190510612/06/16 19:05:31  5-MIN KARA 070105Z 04007KT 10SM BKN029 13/11 A2999 -40 83 -200 040/07 RMK AO2 T01330106
53915KARA ARA20161206191010612/06/16 19:10:31  5-MIN KARA 070110Z 05008KT 10SM BKN029 13/11 A2999 -40 83 -200 050/08 RMK AO2 T01330106
53915KARA ARA20161206191511312/06/16 19:15:31  5-MIN KARA 070115Z 05005KT 10SM FEW008 SCT030 13/11 A3000 -40 83 -200 050/05 RMK AO2 T01330106
53915KARA ARA20161206192011312/06/16 19:20:31  5-MIN KARA 070120Z 07009KT 10SM FEW008 SCT030 13/11 A3000 -40 83 -200 070/09 RMK AO2 T01330106
53915KARA ARA20161206192511312/06/16 19:25:31  5-MIN KARA 070125Z 06008KT 10SM FEW008 FEW030 13/11 A3000 -40 83 -200 060/08 RMK AO2 T01330106
53915KARA ARA20161206193010612/06/16 19:30:31  5-MIN KARA 070130Z 07007KT 10SM SCT008 13/11 A3001 -50 83 -200 060/07 RMK AO2 T01330106
53915KARA ARA20161206193510612/06/16 19:35:31  5-MIN KARA 070135Z 05009KT 10SM BKN008 13/11 A3000 -50 86 -200 050/09 RMK AO2 T01280106
53915KARA ARA20161206194010612/06/16 19:40:31  5-MIN KARA 070140Z 07009KT 10SM BKN008 13/11 A3000 -50 86 -200 070/09 RMK AO2 T01280106
53915KARA ARA20161206194510612/06/16 19:45:31  5-MIN KARA 070145Z 07009KT 10SM BKN007 13/11 A3001 -50 86 -200 070/09 RMK AO2 T01280106
53915KARA ARA20161206195011312/06/16 19:50:31  5-MIN KARA 070150Z 06011KT 10SM OVC007 13/11 A3001 -50 86 -200 060/11 RMK AO2 SLP160 T01280106
53915KARA ARA20161206195510612/06/16 19:55:31  5-MIN KARA 070155Z 06008KT 10SM OVC007 13/11 A3001 -50 86 -200 060/08 RMK AO2 T01280106
53915KARA ARA20161206200010612/06/16 20:00:31  5-MIN KARA 070200Z 06006KT 10SM OVC006 13/11 A3001 -50 86 -200 060/06 RMK AO2 T01280106
53915KARA ARA20161206200510612/06/16 20:05:31  5-MIN KARA 070205Z 07007KT 10SM OVC006 13/11 A3001 -50 86 -200 070/07 RMK AO2 T01280106
53915KARA ARA20161206201010612/06/16 20:10:31  5-MIN KARA 070210Z 06009KT 10SM OVC006 13/11 A3001 -50 86 -200 060/09 RMK AO2 T01280106
53915KARA ARA20161206201510612/06/16 20:15:31  5-MIN KARA 070215Z 06008KT 10SM OVC006 12/11 A3001 -50 89 -300 060/08 RMK AO2 T01220106
53915KARA ARA20161206202010612/06/16 20:20:31  5-MIN KARA 070220Z 05009KT 10SM OVC006 12/11 A3001 -50 89 -300 050/09 RMK AO2 T01220106
53915KARA ARA20161206202510612/06/16 20:25:31  5-MIN KARA 070225Z 05010KT 10SM OVC005 12/11 A3001 -50 89 -300 050/10 RMK AO2 T01220106
53915KARA ARA20161206203010612/06/16 20:30:31  5-MIN KARA 070230Z 04008KT 10SM OVC005 12/11 A3001 -50 89 -300 040/08 RMK AO2 T01220106
53915KARA ARA20161206203510612/06/16 20:35:31  5-MIN KARA 070235Z 04008KT 10SM OVC005 12/11 A3002 -60 89 -300 040/08 RMK AO2 T01220106
53915KARA ARA20161206204010612/06/16 20:40:31  5-MIN KARA 070240Z 04008KT 10SM OVC005 12/11 A3002 -60 89 -300 040/08 RMK AO2 T01220106
53915KARA ARA20161206204510612/06/16 20:45:31  5-MIN KARA 070245Z 04009KT 10SM OVC005 12/11 A3002 -60 89 -300 040/09 RMK AO2 T01220106
53915KARA ARA20161206205011812/06/16 20:50:31  5-MIN KARA 070250Z AUTO 04006KT 10SM OVC005 12/11 A3002 -60 89 -300 040/06 RMK AO2 SLP165 T01220106
53915KARA ARA20161206205511112/06/16 20:55:31  5-MIN KARA 070255Z AUTO 06006KT 10SM OVC005 13/11 A3002 -60 86 -300 060/06 RMK AO2 T01280106
53915KARA ARA20161206210011112/06/16 21:00:31  5-MIN KARA 070300Z AUTO 05005KT 10SM OVC005 13/11 A3003 -70 86 -300 050/05 RMK AO2 T01280106
53915KARA ARA20161206210511112/06/16 21:05:31  5-MIN KARA 070305Z AUTO 04008KT 10SM OVC005 13/11 A3003 -70 86 -300 040/08 RMK AO2 T01280106
53915KARA ARA20161206211011112/06/16 21:10:31  5-MIN KARA 070310Z AUTO 05008KT 10SM OVC005 13/11 A3003 -70 86 -300 050/08 RMK AO2 T01280106
53915KARA ARA20161206211511112/06/16 21:15:31  5-MIN KARA 070315Z AUTO 04007KT 10SM OVC005 13/11 A3003 -70 86 -300 040/07 RMK AO2 T01280106
53915KARA ARA20161206212011112/06/16 21:20:31  5-MIN KARA 070320Z AUTO 05006KT 10SM OVC005 13/11 A3003 -70 86 -300 050/06 RMK AO2 T01280106
53915KARA ARA20161206212511112/06/16 21:25:31  5-MIN KARA 070325Z AUTO 07009KT 10SM OVC005 13/11 A3003 -70 86 -300 060/09 RMK AO2 T01280106
53915KARA ARA20161206213011112/06/16 21:30:31  5-MIN KARA 070330Z AUTO 05006KT 10SM OVC005 13/11 A3003 -70 86 -300 050/06 RMK AO2 T01280106
53915KARA ARA20161206213511112/06/16 21:35:31  5-MIN KARA 070335Z AUTO 06006KT 10SM OVC005 13/11 A3004 -80 86 -300 060/06 RMK AO2 T01280106
53915KARA ARA20161206214011112/06/16 21:40:31  5-MIN KARA 070340Z AUTO 07005KT 10SM OVC005 13/11 A3004 -80 86 -300 070/05 RMK AO2 T01280106
53915KARA ARA20161206214511112/06/16 21:45:31  5-MIN KARA 070345Z AUTO 07005KT 10SM OVC005 13/11 A3004 -80 86 -300 070/05 RMK AO2 T01280106
53915KARA ARA20161206215011812/06/16 21:50:31  5-MIN KARA 070350Z AUTO 05007KT 10SM OVC005 13/11 A3004 -80 86 -300 050/07 RMK AO2 SLP171 T01280106
53915KARA ARA20161206215511112/06/16 21:55:31  5-MIN KARA 070355Z AUTO 06005KT 10SM OVC005 13/11 A3004 -80 86 -300 060/05 RMK AO2 T01280106
53915KARA ARA20161206220011112/06/16 22:00:31  5-MIN KARA 070400Z AUTO 06007KT 10SM OVC005 13/11 A3004 -80 86 -300 060/07 RMK AO2 T01280106
53915KARA ARA20161206220511112/06/16 22:05:31  5-MIN KARA 070405Z AUTO 07008KT 10SM OVC005 13/11 A3004 -80 86 -300 070/08 RMK AO2 T01280106
53915KARA ARA20161206221011112/06/16 22:10:31  5-MIN KARA 070410Z AUTO 07007KT 10SM OVC005 13/11 A3004 -80 86 -300 060/07 RMK AO2 T01280106
53915KARA ARA20161206221511112/06/16 22:15:31  5-MIN KARA 070415Z AUTO 07008KT 10SM OVC005 13/11 A3004 -80 86 -300 070/08 RMK AO2 T01280106
53915KARA ARA20161206222011112/06/16 22:20:31  5-MIN KARA 070420Z AUTO 07007KT 10SM OVC005 13/11 A3004 -80 86 -300 070/07 RMK AO2 T01280106
53915KARA ARA20161206222511112/06/16 22:25:31  5-MIN KARA 070425Z AUTO 07007KT 10SM OVC005 13/11 A3004 -80 86 -300 070/07 RMK AO2 T01280106
53915KARA ARA20161206223011112/06/16 22:30:31  5-MIN KARA 070430Z AUTO 08007KT 10SM OVC005 13/11 A3004 -80 86 -300 080/07 RMK AO2 T01280106
53915KARA ARA20161206223511112/06/16 22:35:31  5-MIN KARA 070435Z AUTO 07007KT 10SM OVC005 13/11 A3004 -80 86 -300 070/07 RMK AO2 T01280106
53915KARA ARA20161206224011112/06/16 22:40:31  5-MIN KARA 070440Z AUTO 07008KT 10SM OVC005 13/11 A3004 -80 86 -300 070/08 RMK AO2 T01280106
53915KARA ARA20161206224511112/06/16 22:45:31  5-MIN KARA 070445Z AUTO 07006KT 10SM OVC005 13/11 A3004 -80 86 -300 070/06 RMK AO2 T01280106
53915KARA ARA20161206225011812/06/16 22:50:31  5-MIN KARA 070450Z AUTO 07006KT 10SM OVC005 13/11 A3004 -70 86 -300 070/06 RMK AO2 SLP170 T01280106
53915KARA ARA20161206225511112/06/16 22:55:31  5-MIN KARA 070455Z AUTO 07007KT 10SM OVC005 13/11 A3003 -70 86 -300 060/07 RMK AO2 T01280106
53915KARA ARA20161206230011112/06/16 23:00:31  5-MIN KARA 070500Z AUTO 06006KT 10SM OVC005 13/11 A3003 -70 86 -300 060/06 RMK AO2 T01280106
53915KARA ARA20161206230511112/06/16 23:05:31  5-MIN KARA 070505Z AUTO 05007KT 10SM OVC005 13/11 A3003 -70 86 -300 050/07 RMK AO2 T01280106
53915KARA ARA20161206231011112/06/16 23:10:31  5-MIN KARA 070510Z AUTO 06007KT 10SM OVC005 13/11 A3003 -70 86 -300 060/07 RMK AO2 T01280106
53915KARA ARA20161206231511112/06/16 23:15:31  5-MIN KARA 070515Z AUTO 06008KT 10SM OVC005 13/11 A3003 -70 86 -300 060/08 RMK AO2 T01280106
53915KARA ARA20161206232011012/06/16 23:20:31  5-MIN KARA 070520Z AUTO 05006KT 9SM OVC006 13/11 A3003 -70 86 -300 050/06 RMK AO2 T01280106
53915KARA ARA20161206232511012/06/16 23:25:31  5-MIN KARA 070525Z AUTO 04009KT 8SM OVC006 13/11 A3003 -70 86 -300 040/09 RMK AO2 T01280106
53915KARA ARA20161206233011012/06/16 23:30:31  5-MIN KARA 070530Z AUTO 04007KT 8SM OVC006 13/11 A3003 -70 86 -300 040/07 RMK AO2 T01280106
53915KARA ARA20161206233511012/06/16 23:35:31  5-MIN KARA 070535Z AUTO 05007KT 8SM OVC006 13/11 A3003 -70 86 -300 050/07 RMK AO2 T01280106
53915KARA ARA20161206234011012/06/16 23:40:31  5-MIN KARA 070540Z AUTO 05006KT 7SM OVC005 13/11 A3003 -70 86 -300 050/06 RMK AO2 T01280106
53915KARA ARA20161206234511012/06/16 23:45:31  5-MIN KARA 070545Z AUTO 05006KT 7SM OVC005 13/11 A3003 -70 86 -300 050/06 RMK AO2 T01280106
53915KARA ARA20161206235014512/06/16 23:50:31  5-MIN KARA 070550Z AUTO 05007KT 7SM OVC005 13/11 A3003 -70 86 -300 050/07 RMK AO2 SLP168 T01280106 10144 20122 402000117 51015
53915KARA ARA20161206235511012/06/16 23:55:31  5-MIN KARA 070555Z AUTO 07007KT 8SM OVC005 13/11 A3003 -70 86 -300 070/07 RMK AO2 T01280106
53915KARA ARA20161207000011012/07/16 00:00:31  5-MIN KARA 070600Z AUTO 06006KT 8SM OVC005 13/11 A3003 -70 86 -300 060/06 RMK AO2 T01280106
53915KARA ARA20161207000511012/07/16 00:05:31  5-MIN KARA 070605Z AUTO 05008KT 7SM OVC006 13/11 A3003 -70 86 -300 050/08 RMK AO2 T01280106
53915KARA ARA20161207001011012/07/16 00:10:31  5-MIN KARA 070610Z AUTO 05008KT 7SM OVC006 13/11 A3003 -70 86 -300 050/08 RMK AO2 T01280106
53915KARA ARA20161207001511012/07/16 00:15:31  5-MIN KARA 070615Z AUTO 07006KT 7SM OVC006 13/11 A3003 -70 86 -300 060/06 RMK AO2 T01280106
53915KARA ARA20161207002011012/07/16 00:20:31  5-MIN KARA 070620Z AUTO 07006KT 8SM OVC006 13/11 A3003 -70 86 -300 060/06 RMK AO2 T01280106
53915KARA ARA20161207002512212/07/16 00:25:31  5-MIN KARA 070625Z AUTO 07007KT 8SM OVC006 13/11 A3003 -70 86 -300 070/07 RMK AO2 CIG 005V010 T01280106
53915KARA ARA20161207003012212/07/16 00:30:31  5-MIN KARA 070630Z AUTO 07008KT 7SM OVC006 13/11 A3003 -70 86 -300 060/08 RMK AO2 CIG 005V010 T01280106
53915KARA ARA20161207003511512/07/16 00:35:31  5-MIN KARA 070635Z AUTO 07006KT 7SM OVC006 13/11 A3003 -70 86 -300 060/06 RMK AO2 T01280106 TSNO
53915KARA ARA20161207004011012/07/16 00:40:31  5-MIN KARA 070640Z AUTO 08005KT 7SM OVC006 13/11 A3003 -70 86 -300 070/05 RMK AO2 T01280106
53915KARA ARA20161207004511012/07/16 00:45:31  5-MIN KARA 070645Z AUTO 07007KT 7SM OVC006 13/11 A3003 -70 86 -300 070/07 RMK AO2 T01280106
53915KARA ARA20161207005011712/07/16 00:50:31  5-MIN KARA 070650Z AUTO 07007KT 7SM OVC006 13/11 A3003 -70 86 -300 060/07 RMK AO2 SLP167 T01280106
53915KARA ARA20161207005511012/07/16 00:55:31  5-MIN KARA 070655Z AUTO 07007KT 7SM OVC006 13/11 A3003 -70 86 -300 070/07 RMK AO2 T01280106
53915KARA ARA20161207010011012/07/16 01:00:31  5-MIN KARA 070700Z AUTO 07007KT 7SM OVC006 13/11 A3002 -60 86 -300 070/07 RMK AO2 T01280106
53915KARA ARA20161207010511012/07/16 01:05:31  5-MIN KARA 070705Z AUTO 06007KT 7SM OVC006 13/11 A3002 -60 86 -300 060/07 RMK AO2 T01280106
53915KARA ARA20161207011011012/07/16 01:10:31  5-MIN KARA 070710Z AUTO 08006KT 7SM OVC006 13/11 A3002 -60 86 -300 080/06 RMK AO2 T01280106
53915KARA ARA20161207011511012/07/16 01:15:31  5-MIN KARA 070715Z AUTO 09007KT 7SM OVC006 13/11 A3002 -60 86 -300 090/07 RMK AO2 T01280106
53915KARA ARA20161207012011012/07/16 01:20:31  5-MIN KARA 070720Z AUTO 07005KT 7SM OVC006 13/11 A3003 -70 86 -300 070/05 RMK AO2 T01280106
53915KARA ARA20161207012511012/07/16 01:25:31  5-MIN KARA 070725Z AUTO 07007KT 7SM OVC006 13/11 A3003 -70 86 -300 070/07 RMK AO2 T01280106
53915KARA ARA20161207013011012/07/16 01:30:31  5-MIN KARA 070730Z AUTO 05005KT 7SM OVC006 13/11 A3003 -70 86 -300 050/05 RMK AO2 T01280106
53915KARA ARA20161207013511012/07/16 01:35:31  5-MIN KARA 070735Z AUTO 06006KT 7SM OVC006 13/11 A3003 -70 86 -300 060/06 RMK AO2 T01280106
53915KARA ARA20161207014011012/07/16 01:40:31  5-MIN KARA 070740Z AUTO 05007KT 7SM OVC005 13/11 A3003 -70 86 -300 050/07 RMK AO2 T01280106
53915KARA ARA20161207014511012/07/16 01:45:31  5-MIN KARA 070745Z AUTO 07006KT 7SM OVC005 13/11 A3004 -70 86 -300 070/06 RMK AO2 T01280106
53915KARA ARA20161207015011712/07/16 01:50:31  5-MIN KARA 070750Z AUTO 05006KT 7SM OVC005 13/11 A3003 -70 86 -300 050/06 RMK AO2 SLP169 T01280106
53915KARA ARA20161207015511012/07/16 01:55:31  5-MIN KARA 070755Z AUTO 07007KT 7SM OVC005 13/11 A3003 -70 86 -300 070/07 RMK AO2 T01280106
53915KARA ARA20161207020011012/07/16 02:00:31  5-MIN KARA 070800Z AUTO 05007KT 7SM OVC005 13/11 A3004 -80 86 -300 050/07 RMK AO2 T01280106
53915KARA ARA20161207020511312/07/16 02:05:31  5-MIN KARA 070805Z AUTO 05007KT 6SM BR OVC005 13/11 A3003 -70 86 -300 050/07 RMK AO2 T01280106
53915KARA ARA20161207021011312/07/16 02:10:31  5-MIN KARA 070810Z AUTO 06006KT 6SM BR OVC005 13/11 A3003 -70 86 -300 050/06 RMK AO2 T01280106
53915KARA ARA20161207021511312/07/16 02:15:31  5-MIN KARA 070815Z AUTO 09005KT 6SM BR OVC005 13/11 A3003 -70 86 -300 080/05 RMK AO2 T01280106
53915KARA ARA20161207022011312/07/16 02:20:31  5-MIN KARA 070820Z AUTO 07006KT 6SM BR OVC005 13/11 A3003 -70 86 -300 070/06 RMK AO2 T01280106
53915KARA ARA20161207022511312/07/16 02:25:31  5-MIN KARA 070825Z AUTO 06006KT 6SM BR OVC005 13/11 A3003 -70 86 -300 060/06 RMK AO2 T01280106
53915KARA ARA20161207023011312/07/16 02:30:31  5-MIN KARA 070830Z AUTO 08004KT 6SM BR OVC005 13/11 A3003 -70 89 -300 080/04 RMK AO2 T01280111
53915KARA ARA20161207023511012/07/16 02:35:31  5-MIN KARA 070835Z AUTO 06006KT 7SM OVC005 13/11 A3003 -70 86 -300 050/06 RMK AO2 T01280106
53915KARA ARA20161207024011012/07/16 02:40:31  5-MIN KARA 070840Z AUTO 08006KT 7SM OVC005 13/11 A3004 -70 86 -300 080/06 RMK AO2 T01280106
53915KARA ARA20161207024511012/07/16 02:45:31  5-MIN KARA 070845Z AUTO 06005KT 7SM OVC005 13/11 A3004 -80 86 -300 060/05 RMK AO2 T01280106
53915KARA ARA20161207025012312/07/16 02:50:31  5-MIN KARA 070850Z AUTO 07007KT 7SM OVC005 13/11 A3004 -80 86 -300 070/07 RMK AO2 SLP171 T01280106 50003
53915KARA ARA20161207025511012/07/16 02:55:31  5-MIN KARA 070855Z AUTO 08004KT 7SM OVC005 13/11 A3004 -80 86 -300 070/04 RMK AO2 T01280106
53915KARA ARA20161207030011012/07/16 03:00:31  5-MIN KARA 070900Z AUTO 08005KT 7SM OVC005 13/11 A3004 -80 86 -300 070/05 RMK AO2 T01280106
53915KARA ARA20161207030511012/07/16 03:05:31  5-MIN KARA 070905Z AUTO 08006KT 7SM OVC005 13/11 A3004 -80 86 -300 080/06 RMK AO2 T01280106
53915KARA ARA20161207031011012/07/16 03:10:31  5-MIN KARA 070910Z AUTO 09005KT 7SM OVC005 13/11 A3004 -80 86 -300 080/05 RMK AO2 T01280106
53915KARA ARA20161207031511012/07/16 03:15:31  5-MIN KARA 070915Z AUTO 09006KT 7SM OVC005 13/11 A3004 -80 86 -300 080/06 RMK AO2 T01280106
53915KARA ARA20161207032011012/07/16 03:20:31  5-MIN KARA 070920Z AUTO 07005KT 7SM OVC005 13/11 A3004 -80 86 -300 070/05 RMK AO2 T01280106
53915KARA ARA20161207032511012/07/16 03:25:31  5-MIN KARA 070925Z AUTO 08004KT 7SM OVC005 13/11 A3004 -80 86 -300 080/04 RMK AO2 T01280106
53915KARA ARA20161207033011012/07/16 03:30:31  5-MIN KARA 070930Z AUTO 08006KT 7SM OVC005 13/11 A3004 -80 86 -300 080/06 RMK AO2 T01280106
53915KARA ARA20161207033511012/07/16 03:35:31  5-MIN KARA 070935Z AUTO 06005KT 7SM OVC005 13/11 A3004 -80 86 -300 060/05 RMK AO2 T01280106
53915KARA ARA20161207034011012/07/16 03:40:31  5-MIN KARA 070940Z AUTO 04005KT 7SM OVC005 13/11 A3004 -80 86 -300 040/05 RMK AO2 T01280106
53915KARA ARA20161207034511312/07/16 03:45:31  5-MIN KARA 070945Z AUTO 03006KT 6SM BR OVC005 13/11 A3004 -80 86 -300 030/06 RMK AO2 T01280106
53915KARA ARA20161207035012012/07/16 03:50:31  5-MIN KARA 070950Z AUTO 03008KT 6SM BR OVC005 13/11 A3004 -80 86 -300 030/08 RMK AO2 SLP173 T01280106
53915KARA ARA20161207035511312/07/16 03:55:31  5-MIN KARA 070955Z AUTO 03006KT 5SM BR OVC004 13/11 A3005 -90 86 -300 030/06 RMK AO2 T01280106
53915KARA ARA20161207040011312/07/16 04:00:31  5-MIN KARA 071000Z AUTO 04007KT 6SM BR OVC004 13/11 A3005 -90 86 -300 040/07 RMK AO2 T01280106
53915KARA ARA20161207040511312/07/16 04:05:31  5-MIN KARA 071005Z AUTO 04006KT 6SM BR OVC004 13/11 A3005 -90 86 -300 040/06 RMK AO2 T01280106
53915KARA ARA20161207041011312/07/16 04:10:31  5-MIN KARA 071010Z AUTO 04005KT 6SM BR OVC004 13/11 A3005 -90 86 -300 040/05 RMK AO2 T01280106
53915KARA ARA20161207041511012/07/16 04:15:31  5-MIN KARA 071015Z AUTO 05006KT 7SM OVC004 13/11 A3005 -90 86 -300 050/06 RMK AO2 T01280106
53915KARA ARA20161207042011012/07/16 04:20:31  5-MIN KARA 071020Z AUTO 07006KT 7SM OVC004 13/11 A3005 -90 86 -300 070/06 RMK AO2 T01280106
53915KARA ARA20161207042511312/07/16 04:25:31  5-MIN KARA 071025Z AUTO 06007KT 6SM BR OVC004 13/11 A3005 -80 86 -300 060/07 RMK AO2 T01280106
53915KARA ARA20161207043011312/07/16 04:30:31  5-MIN KARA 071030Z AUTO 06006KT 6SM BR OVC004 13/11 A3005 -80 86 -300 060/06 RMK AO2 T01280106
53915KARA ARA20161207043511312/07/16 04:35:31  5-MIN KARA 071035Z AUTO 06005KT 6SM BR OVC004 13/11 A3004 -80 86 -300 060/05 RMK AO2 T01280106
53915KARA ARA20161207044011312/07/16 04:40:31  5-MIN KARA 071040Z AUTO 07005KT 6SM BR OVC004 13/11 A3005 -90 86 -300 060/05 RMK AO2 T01280106
53915KARA ARA20161207044511012/07/16 04:45:31  5-MIN KARA 071045Z AUTO 08005KT 7SM OVC004 13/11 A3005 -90 86 -300 080/05 RMK AO2 T01280106
53915KARA ARA20161207045012012/07/16 04:50:31  5-MIN KARA 071050Z AUTO 07006KT 6SM BR OVC004 13/11 A3005 -90 86 -300 060/06 RMK AO2 SLP175 T01280106
53915KARA ARA20161207045511012/07/16 04:55:31  5-MIN KARA 071055Z AUTO 06004KT 7SM OVC004 13/11 A3005 -90 86 -300 060/04 RMK AO2 T01280106
53915KARA ARA20161207050011012/07/16 05:00:31  5-MIN KARA 071100Z AUTO 07004KT 7SM OVC004 13/11 A3005 -90 86 -300 070/04 RMK AO2 T01280106
53915KARA ARA20161207050511012/07/16 05:05:31  5-MIN KARA 071105Z AUTO 05006KT 7SM OVC004 13/11 A3005 -90 86 -300 050/06 RMK AO2 T01280106
53915KARA ARA20161207051011012/07/16 05:10:31  5-MIN KARA 071110Z AUTO 07005KT 7SM OVC004 13/11 A3005 -90 86 -300 070/05 RMK AO2 T01280106
53915KARA ARA20161207051511112/07/16 05:15:31  5-MIN KARA 071115Z AUTO 07005KT 7SM OVC004 13/11 A3006 -100 86 -300 070/05 RMK AO2 T01280106
53915KARA ARA20161207052011112/07/16 05:20:31  5-MIN KARA 071120Z AUTO 07005KT 7SM OVC004 13/11 A3006 -100 86 -300 060/05 RMK AO2 T01280106
53915KARA ARA20161207052511112/07/16 05:25:31  5-MIN KARA 071125Z AUTO 07006KT 7SM OVC005 13/11 A3006 -100 86 -300 070/06 RMK AO2 T01280106
53915KARA ARA20161207053011412/07/16 05:30:31  5-MIN KARA 071130Z AUTO 04005KT 6SM BR OVC005 13/11 A3006 -100 86 -300 040/05 RMK AO2 T01280106
53915KARA ARA20161207053511412/07/16 05:35:31  5-MIN KARA 071135Z AUTO 05004KT 6SM BR OVC005 13/11 A3006 -100 89 -300 050/04 RMK AO2 T01280111
53915KARA ARA20161207054011412/07/16 05:40:31  5-MIN KARA 071140Z AUTO 04005KT 6SM BR OVC005 13/11 A3006 -100 89 -300 040/05 RMK AO2 T01280111
53915KARA ARA20161207054510912/07/16 05:45:31  5-MIN KARA 071145Z 03005KT 6SM BR OVC005 13/11 A3006 -100 86 -300 030/05 RMK AO2 T01280106
53915KARA ARA20161207055013412/07/16 05:50:31  5-MIN KARA 071150Z 04005KT 6SM BR OVC005 13/11 A3007 -100 86 -300 040/05 RMK AO2 SLP180 T01280106 10128 20128 53002
53915KARA ARA20161207055510912/07/16 05:55:31  5-MIN KARA 071155Z 04006KT 6SM BR OVC004 13/11 A3007 -100 89 -300 040/06 RMK AO2 T01280111
53915KARA ARA20161207060010612/07/16 06:00:31  5-MIN KARA 071200Z 04006KT 7SM OVC004 13/11 A3007 -100 86 -300 040/06 RMK AO2 T01280106
53915KARA ARA20161207060510612/07/16 06:05:31  5-MIN KARA 071205Z 08004KT 7SM OVC004 13/11 A3007 -110 86 -300 080/04 RMK AO2 T01280106
53915KARA ARA20161207061010612/07/16 06:10:31  5-MIN KARA 071210Z 08005KT 7SM OVC004 13/11 A3007 -110 86 -300 080/05 RMK AO2 T01280106
53915KARA ARA20161207101510912/07/16 10:15:31  5-MIN KARA 071615Z 04005KT 6SM HZ OVC008 15/12 A3014 -170 80 -100 040/05 RMK AO2 T01500117
53915KARA ARA20161207102010912/07/16 10:20:31  5-MIN KARA 071620Z 03005KT 6SM HZ OVC008 15/12 A3014 -170 80 -100 030/05 RMK AO2 T01500117
53915KARA ARA20161207102510912/07/16 10:25:31  5-MIN KARA 071625Z 03004KT 6SM HZ OVC008 15/12 A3014 -170 80 -100 030/04 RMK AO2 T01500117
53915KARA ARA20161207103010912/07/16 10:30:31  5-MIN KARA 071630Z 07004KT 6SM HZ OVC008 15/12 A3014 -170 80 -100 070/04 RMK AO2 T01500117
53915KARA ARA20161207103510912/07/16 10:35:31  5-MIN KARA 071635Z 04005KT 6SM HZ OVC009 15/12 A3014 -170 80 -100 040/05 RMK AO2 T01500117
53915KARA ARA20161207104010912/07/16 10:40:31  5-MIN KARA 071640Z VRB03KT 6SM HZ OVC009 15/12 A3014 -170 80 -100 VRB/03 RMK AO2 T01500117
53915KARA ARA20161207104510912/07/16 10:45:31  5-MIN KARA 071645Z 00000KT 6SM HZ OVC009 15/12 A3013 -170 80 -100 000/00 RMK AO2 T01500117
53915KARA ARA20161207105011612/07/16 10:50:31  5-MIN KARA 071650Z VRB03KT 6SM HZ OVC009 16/12 A3013 -160 77 -100 VRB/03 RMK AO2 SLP203 T01560117
53915KARA ARA20161207105510912/07/16 10:55:31  5-MIN KARA 071655Z 11004KT 6SM HZ OVC009 16/12 A3013 -170 77 -100 110/04 RMK AO2 T01560117
53915KARA ARA20161207110010912/07/16 11:00:31  5-MIN KARA 071700Z 09003KT 6SM HZ OVC009 16/12 A3013 -160 77 -100 090/03 RMK AO2 T01560117
53915KARA ARA20161207110511312/07/16 11:05:31  5-MIN KARA 071705Z 07005KT 6SM HZ BKN009 OVC020 16/12 A3013 -160 77 0 070/05 RMK AO2 T01560117
53915KARA ARA20161207111011312/07/16 11:10:31  5-MIN KARA 071710Z 06005KT 6SM HZ BKN009 OVC020 16/12 A3013 -160 77 0 060/05 RMK AO2 T01560117
53915KARA ARA20161207111511312/07/16 11:15:31  5-MIN KARA 071715Z 05003KT 6SM HZ BKN010 OVC020 16/12 A3012 -160 77 0 050/03 RMK AO2 T01560117
53915KARA ARA20161207112011312/07/16 11:20:31  5-MIN KARA 071720Z 08005KT 6SM HZ BKN010 OVC020 16/12 A3012 -150 75 0 080/05 RMK AO2 T01610117
53915KARA ARA20161207112511312/07/16 11:25:31  5-MIN KARA 071725Z VRB03KT 6SM HZ BKN010 OVC020 16/12 A3012 -150 77 0 VRB/03 RMK AO2 T01560117
53915KARA ARA20161207113010612/07/16 11:30:31  5-MIN KARA 071730Z 05006KT 6SM HZ OVC010 16/12 A3012 -150 75 0 050/06 RMK AO2 T01610117
53915KARA ARA20161207113510612/07/16 11:35:31  5-MIN KARA 071735Z 00000KT 6SM HZ OVC010 16/12 A3011 -150 75 0 000/00 RMK AO2 T01610117
53915KARA ARA20161207114010612/07/16 11:40:31  5-MIN KARA 071740Z 08003KT 6SM HZ OVC010 16/12 A3011 -140 75 0 080/03 RMK AO2 T01610117
53915KARA ARA20161207114511312/07/16 11:45:31  5-MIN KARA 071745Z 08004KT 6SM HZ BKN011 OVC018 16/12 A3011 -140 75 0 080/04 RMK AO2 T01610117
53915KARA ARA20161207115013812/07/16 11:50:31  5-MIN KARA 071750Z 00000KT 6SM HZ BKN011 OVC018 16/12 A3011 -140 77 0 000/00 RMK AO2 SLP194 T01610122 10161 20128 51017
53915KARA ARA20161207115511512/07/16 11:55:31  5-MIN KARA 071755Z 00000KT 6SM HZ BKN011 OVC018 17/12 A3010 -140 75 100 000/00 RMK AO2 T01670122
53915KARA ARA20161207120011512/07/16 12:00:31  5-MIN KARA 071800Z 00000KT 6SM HZ BKN011 OVC019 17/12 A3010 -130 75 100 000/00 RMK AO2 T01670122
53915KARA ARA20161207120511512/07/16 12:05:31  5-MIN KARA 071805Z 09004KT 6SM HZ BKN011 OVC019 17/12 A3010 -130 75 100 090/04 RMK AO2 T01670122
53915KARA ARA20161207121011512/07/16 12:10:31  5-MIN KARA 071810Z VRB03KT 6SM HZ SCT011 OVC018 17/12 A3009 -130 75 100 VRB/03 RMK AO2 T01670122
53915KARA ARA20161207121511512/07/16 12:15:31  5-MIN KARA 071815Z 05003KT 6SM HZ SCT012 OVC018 17/12 A3009 -130 72 100 050/03 RMK AO2 T01720122
53915KARA ARA20161207122011512/07/16 12:20:31  5-MIN KARA 071820Z VRB03KT 6SM HZ SCT012 OVC019 17/12 A3009 -120 72 100 VRB/03 RMK AO2 T01720122
53915KARA ARA20161207122511212/07/16 12:25:31  5-MIN KARA 071825Z 01004KT 7SM BKN014 OVC019 18/12 A3009 -120 69 200 010/04 RMK AO2 T01780122
53915KARA ARA20161207123011212/07/16 12:30:31  5-MIN KARA 071830Z 00000KT 7SM SCT014 OVC019 17/12 A3009 -120 72 100 000/00 RMK AO2 T01720122
53915KARA ARA20161207123510512/07/16 12:35:31  5-MIN KARA 071835Z 00000KT 7SM OVC017 17/12 A3009 -120 72 100 000/00 RMK AO2 T01720122
53915KARA ARA20161207124010512/07/16 12:40:31  5-MIN KARA 071840Z 11003KT 7SM OVC017 17/12 A3008 -120 72 100 110/03 RMK AO2 T01720122
53915KARA ARA20161207124510512/07/16 12:45:31  5-MIN KARA 071845Z 11003KT 7SM OVC017 17/12 A3008 -120 72 100 110/03 RMK AO2 T01720122
53915KARA ARA20161207125011212/07/16 12:50:31  5-MIN KARA 071850Z 00000KT 7SM OVC017 17/12 A3008 -120 72 200 000/00 RMK AO2 SLP186 T01720122
53915KARA ARA20161207125510512/07/16 12:55:31  5-MIN KARA 071855Z 00000KT 7SM OVC017 17/12 A3008 -120 72 200 000/00 RMK AO2 T01720122
53915KARA ARA20161207130010512/07/16 13:00:31  5-MIN KARA 071900Z 12003KT 7SM OVC017 17/12 A3008 -120 72 200 120/03 RMK AO2 T01720122
53915KARA ARA20161207130510512/07/16 13:05:31  5-MIN KARA 071905Z 14003KT 8SM OVC017 17/12 A3008 -110 72 200 140/03 RMK AO2 T01720122
53915KARA ARA20161207131010512/07/16 13:10:31  5-MIN KARA 071910Z 36003KT 8SM OVC017 18/12 A3007 -110 67 200 360/03 RMK AO2 T01780117
53915KARA ARA20161207131510512/07/16 13:15:31  5-MIN KARA 071915Z 00000KT 8SM BKN017 18/12 A3007 -110 67 200 000/00 RMK AO2 T01780117
53915KARA ARA20161207132010512/07/16 13:20:31  5-MIN KARA 071920Z 00000KT 8SM BKN018 18/12 A3007 -110 67 200 000/00 RMK AO2 T01780117
53915KARA ARA20161207132510512/07/16 13:25:31  5-MIN KARA 071925Z 33004KT 8SM BKN018 18/12 A3007 -110 69 200 330/04 RMK AO2 T01780122
53915KARA ARA20161207133010512/07/16 13:30:31  5-MIN KARA 071930Z 35003KT 7SM BKN018 18/12 A3007 -110 69 200 350/03 RMK AO2 T01780122
53915KARA ARA20161207133510512/07/16 13:35:31  5-MIN KARA 071935Z 00000KT 8SM BKN018 18/12 A3007 -110 69 200 000/00 RMK AO2 T01780122
53915KARA ARA20161207134010512/07/16 13:40:31  5-MIN KARA 071940Z 34004KT 8SM BKN019 18/12 A3007 -100 67 300 340/04 RMK AO2 T01830122
53915KARA ARA20161207134510512/07/16 13:45:31  5-MIN KARA 071945Z 00000KT 8SM OVC019 18/12 A3007 -100 67 200 000/00 RMK AO2 T01780117
53915KARA ARA20161207135011212/07/16 13:50:31  5-MIN KARA 071950Z 00000KT 8SM OVC019 18/12 A3006 -100 67 200 000/00 RMK AO2 SLP180 T01780117
53915KARA ARA20161207135510512/07/16 13:55:31  5-MIN KARA 071955Z 00000KT 9SM OVC019 18/12 A3007 -100 67 200 000/00 RMK AO2 T01780117
53915KARA ARA20161207140010512/07/16 14:00:31  5-MIN KARA 072000Z 00000KT 9SM OVC019 18/12 A3007 -100 69 200 000/00 RMK AO2 T01780122
53915KARA ARA20161207140510512/07/16 14:05:31  5-MIN KARA 072005Z VRB03KT 9SM OVC019 18/12 A3007 -100 69 200 VRB/03 RMK AO2 T01780122
53915KARA ARA20161207141010512/07/16 14:10:31  5-MIN KARA 072010Z 00000KT 9SM OVC018 18/12 A3007 -100 67 200 000/00 RMK AO2 T01780117
53915KARA ARA20161207141510512/07/16 14:15:31  5-MIN KARA 072015Z 00000KT 9SM OVC018 18/12 A3007 -100 67 300 000/00 RMK AO2 T01830122
53915KARA ARA20161207142010512/07/16 14:20:31  5-MIN KARA 072020Z 00000KT 9SM OVC018 18/12 A3007 -100 67 300 000/00 RMK AO2 T01830122
53915KARA ARA20161207142510612/07/16 14:25:31  5-MIN KARA 072025Z 00000KT 10SM OVC018 18/12 A3006 -100 67 300 000/00 RMK AO2 T01830122
53915KARA ARA20161207143010512/07/16 14:30:31  5-MIN KARA 072030Z 00000KT 9SM OVC019 18/12 A3006 -100 67 300 000/00 RMK AO2 T01830122
53915KARA ARA20161207143510612/07/16 14:35:31  5-MIN KARA 072035Z 00000KT 10SM OVC019 18/12 A3006 -100 67 200 000/00 RMK AO2 T01780117
53915KARA ARA20161207144010512/07/16 14:40:31  5-MIN KARA 072040Z 03003KT 9SM OVC019 18/12 A3006 -100 67 300 030/03 RMK AO2 T01830122
53915KARA ARA20161207144510512/07/16 14:45:31  5-MIN KARA 072045Z 00000KT 9SM OVC019 18/12 A3006 -100 65 300 000/00 RMK AO2 T01830117
53915KARA ARA20161207145011912/07/16 14:50:31  5-MIN KARA 072050Z 31003KT 10SM OVC019 18/12 A3007 -100 67 300 310/03 RMK AO2 SLP180 T01830122 58004
53915KARA ARA20161207145510612/07/16 14:55:31  5-MIN KARA 072055Z 00000KT 10SM OVC019 18/12 A3007 -100 67 200 000/00 RMK AO2 T01780117
53915KARA ARA20161207150010612/07/16 15:00:31  5-MIN KARA 072100Z 00000KT 10SM OVC019 18/12 A3007 -110 67 200 000/00 RMK AO2 T01780117
53915KARA ARA20161207150510612/07/16 15:05:31  5-MIN KARA 072105Z 33004KT 10SM OVC020 18/12 A3007 -110 65 300 330/04 RMK AO2 T01830117
53915KARA ARA20161207151010612/07/16 15:10:31  5-MIN KARA 072110Z 34004KT 10SM OVC020 18/12 A3007 -110 65 300 330/04 RMK AO2 T01830117
53915KARA ARA20161207151510612/07/16 15:15:31  5-MIN KARA 072115Z 00000KT 10SM OVC020 18/12 A3007 -110 65 300 000/00 RMK AO2 T01830117
53915KARA ARA20161207152010612/07/16 15:20:31  5-MIN KARA 072120Z 33005KT 10SM OVC020 18/12 A3007 -110 65 300 330/05 RMK AO2 T01830117
53915KARA ARA20161207152510612/07/16 15:25:31  5-MIN KARA 072125Z 34004KT 10SM OVC020 18/12 A3007 -110 65 300 340/04 RMK AO2 T01830117
53915KARA ARA20161207153010612/07/16 15:30:31  5-MIN KARA 072130Z 33004KT 10SM OVC020 18/12 A3007 -110 65 300 330/04 RMK AO2 T01830117
53915KARA ARA20161207153510612/07/16 15:35:31  5-MIN KARA 072135Z 00000KT 10SM OVC020 18/12 A3007 -110 65 300 000/00 RMK AO2 T01830117
53915KARA ARA20161207154010612/07/16 15:40:31  5-MIN KARA 072140Z VRB03KT 10SM OVC020 18/12 A3007 -110 65 300 VRB/03 RMK AO2 T01830117
53915KARA ARA20161207154510612/07/16 15:45:31  5-MIN KARA 072145Z 32004KT 10SM OVC020 18/12 A3007 -110 65 300 320/04 RMK AO2 T01830117
53915KARA ARA20161207155012012/07/16 15:50:31  5-MIN KARA 072150Z 34003KT 10SM BKN022 OVC039 18/12 A3007 -110 65 300 340/03 RMK AO2 SLP183 T01830117
53915KARA ARA20161207155511312/07/16 15:55:31  5-MIN KARA 072155Z 31003KT 10SM BKN022 OVC039 18/12 A3008 -110 67 200 310/03 RMK AO2 T01780117
53915KARA ARA20161207160010612/07/16 16:00:31  5-MIN KARA 072200Z 00000KT 10SM OVC021 18/12 A3008 -110 67 200 000/00 RMK AO2 T01780117
53915KARA ARA20161207160510612/07/16 16:05:31  5-MIN KARA 072205Z 00000KT 10SM OVC021 18/12 A3008 -110 65 300 000/00 RMK AO2 T01830117
53915KARA ARA20161207161010612/07/16 16:10:31  5-MIN KARA 072210Z 00000KT 10SM OVC021 18/12 A3008 -110 65 300 000/00 RMK AO2 T01830117
53915KARA ARA20161207161510612/07/16 16:15:31  5-MIN KARA 072215Z 06005KT 10SM OVC023 18/12 A3007 -110 65 300 060/05 RMK AO2 T01830117
53915KARA ARA20161207162010612/07/16 16:20:31  5-MIN KARA 072220Z 06003KT 10SM OVC023 18/12 A3008 -110 67 300 060/03 RMK AO2 T01830122
53915KARA ARA20161207162510512/07/16 16:25:31  5-MIN KARA 072225Z 04004KT 9SM OVC023 18/12 A3008 -110 67 300 040/04 RMK AO2 T01830122
53915KARA ARA20161207163010512/07/16 16:30:31  5-MIN KARA 072230Z 05005KT 9SM OVC023 18/12 A3008 -120 69 200 050/05 RMK AO2 T01780122
53915KARA ARA20161207163510512/07/16 16:35:31  5-MIN KARA 072235Z 05006KT 9SM OVC023 18/12 A3008 -120 69 200 040/06 RMK AO2 T01780122
53915KARA ARA20161207164010612/07/16 16:40:31  5-MIN KARA 072240Z 04006KT 10SM OVC022 18/12 A3008 -120 69 200 040/06 RMK AO2 T01780122
53915KARA ARA20161207164511312/07/16 16:45:31  5-MIN KARA 072245Z 04006KT 10SM BKN020 OVC025 17/12 A3008 -120 72 100 040/06 RMK AO2 T01720122
53915KARA ARA20161207165011312/07/16 16:50:31  5-MIN KARA 072250Z 05004KT 10SM OVC020 17/12 A3009 -120 69 100 050/04 RMK AO2 SLP187 T01720117
53915KARA ARA20161207165510512/07/16 16:55:31  5-MIN KARA 072255Z 05005KT 9SM OVC020 17/12 A3009 -120 72 100 050/05 RMK AO2 T01720122
53915KARA ARA20161207170010512/07/16 17:00:31  5-MIN KARA 072300Z 05005KT 9SM BKN020 17/12 A3009 -120 75 100 050/05 RMK AO2 T01670122
53915KARA ARA20161207170510512/07/16 17:05:31  5-MIN KARA 072305Z 05006KT 9SM BKN020 17/12 A3009 -130 75 100 050/06 RMK AO2 T01670122
53915KARA ARA20161207171011212/07/16 17:10:31  5-MIN KARA 072310Z 05006KT 9SM BKN020 OVC025 17/12 A3009 -130 75 100 040/06 RMK AO2 T01670122
53915KARA ARA20161207171510512/07/16 17:15:31  5-MIN KARA 072315Z 03006KT 8SM OVC020 17/12 A3009 -130 75 100 030/06 RMK AO2 T01670122
53915KARA ARA20161207172010512/07/16 17:20:31  5-MIN KARA 072320Z 03006KT 8SM OVC020 17/12 A3010 -130 75 100 030/06 RMK AO2 T01670122
53915KARA ARA20161207172510512/07/16 17:25:31  5-MIN KARA 072325Z 02007KT 9SM OVC021 17/12 A3010 -140 75 100 020/07 RMK AO2 T01670122
53915KARA ARA20161207173010512/07/16 17:30:31  5-MIN KARA 072330Z 03006KT 9SM OVC021 17/12 A3010 -140 75 100 030/06 RMK AO2 T01670122
53915KARA ARA20161207173510512/07/16 17:35:31  5-MIN KARA 072335Z 03006KT 9SM OVC021 17/12 A3010 -140 75 100 030/06 RMK AO2 T01670122
53915KARA ARA20161207174010512/07/16 17:40:31  5-MIN KARA 072340Z 03006KT 9SM OVC022 17/12 A3010 -140 75 100 030/06 RMK AO2 T01670122
53915KARA ARA20161207174510512/07/16 17:45:31  5-MIN KARA 072345Z 02007KT 9SM OVC022 17/12 A3011 -140 75 100 020/07 RMK AO2 T01670122
53915KARA ARA20161207175012812/07/16 17:50:31  5-MIN KARA 072350Z 36008KT 9SM OVC022 16/12 A3011 -140 77 0 360/08 RMK AO2 SLP195 T01610122 10183 20161 56013
53915KARA ARA20161207175510312/07/16 17:55:31  5-MIN KARA 072355Z 36008KT 9SM OVC022 16/12 A3011 -150 75 0 360/08 RMK AO2 T01610117
53915KARA ARA20161207180010412/07/16 18:00:31  5-MIN KARA 080000Z 01006KT 10SM OVC022 16/12 A3012 -150 77 0 010/06 RMK AO2 T01560117
53915KARA ARA20161207180510412/07/16 18:05:31  5-MIN KARA 080005Z 02009KT 10SM OVC022 16/12 A3012 -150 80 0 020/09 RMK AO2 T01560122
53915KARA ARA20161207181010412/07/16 18:10:31  5-MIN KARA 080010Z 02008KT 10SM OVC022 16/12 A3012 -150 77 0 010/08 RMK AO2 T01560117
53915KARA ARA20161207181510412/07/16 18:15:31  5-MIN KARA 080015Z 02009KT 10SM OVC021 16/12 A3012 -150 77 0 020/09 RMK AO2 T01560117
53915KARA ARA20161207182010412/07/16 18:20:31  5-MIN KARA 080020Z 03007KT 10SM OVC021 16/12 A3012 -160 77 0 020/07 RMK AO2 T01560117
53915KARA ARA20161207182510312/07/16 18:25:31  5-MIN KARA 080025Z 02009KT 9SM OVC021 16/12 A3013 -160 77 0 020/09 RMK AO2 T01560117
53915KARA ARA20161207183010312/07/16 18:30:31  5-MIN KARA 080030Z 03008KT 9SM OVC021 16/12 A3013 -160 77 0 030/08 RMK AO2 T01560117
53915KARA ARA20161207183510612/07/16 18:35:31  5-MIN KARA 080035Z 02008KT 9SM OVC021 16/12 A3013 -160 77 -100 020/08 RMK AO2 T01560117
53915KARA ARA20161207184010612/07/16 18:40:31  5-MIN KARA 080040Z 02007KT 9SM OVC021 16/12 A3013 -170 77 -100 020/07 RMK AO2 T01560117
53915KARA ARA20161207184510612/07/16 18:45:31  5-MIN KARA 080045Z 02007KT 9SM OVC021 16/12 A3014 -170 77 -100 020/07 RMK AO2 T01560117
53915KARA ARA20161207185011312/07/16 18:50:31  5-MIN KARA 080050Z 02006KT 9SM OVC021 16/12 A3014 -170 77 -100 020/06 RMK AO2 SLP205 T01560117
53915KARA ARA20161207185510612/07/16 18:55:31  5-MIN KARA 080055Z 02007KT 9SM OVC021 16/12 A3014 -170 77 -100 020/07 RMK AO2 T01560117
53915KARA ARA20161207190010612/07/16 19:00:31  5-MIN KARA 080100Z 02007KT 9SM OVC021 16/12 A3014 -170 77 -100 020/07 RMK AO2 T01560117
53915KARA ARA20161207190510612/07/16 19:05:31  5-MIN KARA 080105Z 02006KT 8SM OVC021 16/12 A3014 -170 77 -100 020/06 RMK AO2 T01560117
53915KARA ARA20161207191010612/07/16 19:10:31  5-MIN KARA 080110Z 02006KT 8SM OVC021 16/12 A3014 -170 77 -100 010/06 RMK AO2 T01560117
53915KARA ARA20161207191510612/07/16 19:15:31  5-MIN KARA 080115Z 01006KT 8SM OVC020 16/12 A3014 -170 77 -100 010/06 RMK AO2 T01560117
53915KARA ARA20161207192010612/07/16 19:20:31  5-MIN KARA 080120Z 01006KT 8SM OVC020 16/12 A3015 -180 77 -100 010/06 RMK AO2 T01560117
53915KARA ARA20161207192510612/07/16 19:25:31  5-MIN KARA 080125Z 01007KT 8SM OVC020 15/12 A3014 -180 80 -100 010/07 RMK AO2 T01500117
53915KARA ARA20161207193010612/07/16 19:30:31  5-MIN KARA 080130Z 01007KT 8SM OVC020 15/12 A3015 -180 80 -100 010/07 RMK AO2 T01500117
53915KARA ARA20161207193510612/07/16 19:35:31  5-MIN KARA 080135Z 02007KT 8SM OVC020 15/12 A3015 -180 80 -100 020/07 RMK AO2 T01500117
53915KARA ARA20161207194010612/07/16 19:40:31  5-MIN KARA 080140Z 02007KT 8SM OVC020 15/12 A3015 -180 80 -100 020/07 RMK AO2 T01500117
53915KARA ARA20161207194510612/07/16 19:45:31  5-MIN KARA 080145Z 02007KT 8SM OVC020 15/12 A3015 -180 80 -100 020/07 RMK AO2 T01500117
53915KARA ARA20161207195011312/07/16 19:50:31  5-MIN KARA 080150Z 03007KT 8SM OVC020 15/12 A3015 -180 80 -100 020/07 RMK AO2 SLP209 T01500117
53915KARA ARA20161207195510612/07/16 19:55:31  5-MIN KARA 080155Z 02008KT 8SM OVC020 15/12 A3016 -190 80 -100 020/08 RMK AO2 T01500117
53915KARA ARA20161207200010612/07/16 20:00:31  5-MIN KARA 080200Z 03007KT 8SM OVC020 15/12 A3015 -180 80 -100 020/07 RMK AO2 T01500117
53915KARA ARA20161207200510612/07/16 20:05:31  5-MIN KARA 080205Z 03008KT 8SM OVC020 15/12 A3016 -190 80 -100 030/08 RMK AO2 T01500117
53915KARA ARA20161207201010612/07/16 20:10:31  5-MIN KARA 080210Z 03009KT 8SM OVC019 15/12 A3015 -180 80 -100 030/09 RMK AO2 T01500117
53915KARA ARA20161207201510612/07/16 20:15:31  5-MIN KARA 080215Z 03007KT 7SM OVC019 15/12 A3016 -190 80 -100 030/07 RMK AO2 T01500117
53915KARA ARA20161207202010612/07/16 20:20:31  5-MIN KARA 080220Z 04007KT 7SM OVC019 15/12 A3016 -190 80 -100 040/07 RMK AO2 T01500117
53915KARA ARA20161207202510612/07/16 20:25:31  5-MIN KARA 080225Z 04008KT 7SM OVC019 15/12 A3016 -190 80 -100 030/08 RMK AO2 T01500117
53915KARA ARA20161207203010612/07/16 20:30:31  5-MIN KARA 080230Z 04006KT 7SM OVC019 15/12 A3015 -180 80 -100 040/06 RMK AO2 T01500117
53915KARA ARA20161207203510612/07/16 20:35:31  5-MIN KARA 080235Z 03006KT 7SM OVC020 15/12 A3016 -190 80 -100 030/06 RMK AO2 T01500117
53915KARA ARA20161207204010612/07/16 20:40:31  5-MIN KARA 080240Z 02007KT 7SM OVC020 15/12 A3016 -190 80 -100 020/07 RMK AO2 T01500117
53915KARA ARA20161207204510612/07/16 20:45:31  5-MIN KARA 080245Z 03007KT 7SM OVC020 15/12 A3016 -190 80 -100 030/07 RMK AO2 T01500117
53915KARA ARA20161207205011912/07/16 20:50:31  5-MIN KARA 080250Z 03007KT 7SM OVC020 14/12 A3016 -190 83 -200 030/07 RMK AO2 SLP212 T01440117 53016
53915KARA ARA20161207205511112/07/16 20:55:31  5-MIN KARA 080255Z AUTO 03006KT 7SM OVC019 14/12 A3016 -190 83 -200 030/06 RMK AO2 T01440117
53915KARA ARA20161207210011112/07/16 21:00:31  5-MIN KARA 080300Z AUTO 03008KT 7SM OVC019 14/12 A3016 -190 83 -200 020/08 RMK AO2 T01440117
53915KARA ARA20161207210511112/07/16 21:05:31  5-MIN KARA 080305Z AUTO 02007KT 7SM OVC019 14/12 A3016 -190 83 -200 020/07 RMK AO2 T01440117
53915KARA ARA20161207211011112/07/16 21:10:31  5-MIN KARA 080310Z AUTO 03007KT 7SM OVC017 14/12 A3016 -190 83 -200 030/07 RMK AO2 T01440117
53915KARA ARA20161207211511112/07/16 21:15:31  5-MIN KARA 080315Z AUTO 02008KT 7SM OVC017 14/12 A3016 -190 83 -200 020/08 RMK AO2 T01440117
53915KARA ARA20161207212011812/07/16 21:20:31  5-MIN KARA 080320Z AUTO 02006KT 7SM BKN017 OVC024 14/12 A3016 -190 83 -200 020/06 RMK AO2 T01440117
53915KARA ARA20161207212511812/07/16 21:25:31  5-MIN KARA 080325Z AUTO 02006KT 7SM BKN017 OVC024 14/12 A3017 -200 83 -200 020/06 RMK AO2 T01440117
53915KARA ARA20161207213011812/07/16 21:30:31  5-MIN KARA 080330Z AUTO 02007KT 7SM BKN017 OVC024 14/12 A3017 -200 83 -200 020/07 RMK AO2 T01440117
53915KARA ARA20161207213511812/07/16 21:35:31  5-MIN KARA 080335Z AUTO 02007KT 7SM BKN019 OVC024 14/12 A3017 -200 83 -200 020/07 RMK AO2 T01440117
53915KARA ARA20161207214011812/07/16 21:40:31  5-MIN KARA 080340Z AUTO 04006KT 7SM BKN019 OVC024 14/12 A3017 -200 83 -200 040/06 RMK AO2 T01440117
53915KARA ARA20161207214511812/07/16 21:45:31  5-MIN KARA 080345Z AUTO 05006KT 8SM BKN021 OVC026 14/12 A3017 -200 83 -200 050/06 RMK AO2 T01440117
53915KARA ARA20161207215012512/07/16 21:50:31  5-MIN KARA 080350Z AUTO 04008KT 8SM SCT021 OVC026 14/12 A3017 -200 83 -200 040/08 RMK AO2 SLP215 T01440117
53915KARA ARA20161207215511812/07/16 21:55:31  5-MIN KARA 080355Z AUTO 04011KT 9SM SCT021 OVC027 14/11 A3017 -200 80 -200 040/11 RMK AO2 T01440111
53915KARA ARA20161207220011912/07/16 22:00:31  5-MIN KARA 080400Z AUTO 05010KT 10SM FEW021 OVC027 14/11 A3017 -190 80 -200 050/10 RMK AO2 T01440111
53915KARA ARA20161207220511912/07/16 22:05:31  5-MIN KARA 080405Z AUTO 06011KT 10SM FEW021 BKN027 14/11 A3016 -190 83 -300 060/11 RMK AO2 T01390111
53915KARA ARA20161207221011212/07/16 22:10:31  5-MIN KARA 080410Z AUTO 05009KT 10SM BKN027 14/11 A3016 -190 83 -300 050/09 RMK AO2 T01390111
53915KARA ARA20161207221511212/07/16 22:15:31  5-MIN KARA 080415Z AUTO 04009KT 10SM BKN027 14/11 A3017 -190 83 -300 040/09 RMK AO2 T01390111
53915KARA ARA20161207222011212/07/16 22:20:31  5-MIN KARA 080420Z AUTO 05009KT 10SM SCT027 14/11 A3016 -190 83 -300 050/09 RMK AO2 T01390111
53915KARA ARA20161207222511212/07/16 22:25:31  5-MIN KARA 080425Z AUTO 05009KT 10SM FEW027 14/11 A3016 -190 83 -300 050/09 RMK AO2 T01390111
53915KARA ARA20161207223011212/07/16 22:30:31  5-MIN KARA 080430Z AUTO 04008KT 10SM FEW027 14/11 A3016 -190 83 -300 040/08 RMK AO2 T01390111
53915KARA ARA20161207223510912/07/16 22:35:31  5-MIN KARA 080435Z AUTO 05009KT 10SM CLR 14/11 A3016 -190 83 -300 050/09 RMK AO2 T01390111
53915KARA ARA20161207224010912/07/16 22:40:31  5-MIN KARA 080440Z AUTO 05009KT 10SM CLR 14/11 A3015 -180 83 -300 050/09 RMK AO2 T01390111
53915KARA ARA20161207224510912/07/16 22:45:31  5-MIN KARA 080445Z AUTO 07012KT 10SM CLR 14/11 A3015 -180 83 -300 070/12 RMK AO2 T01390111
53915KARA ARA20161207225011612/07/16 22:50:31  5-MIN KARA 080450Z AUTO 08012KT 10SM CLR 14/11 A3014 -170 83 -300 080/12 RMK AO2 SLP205 T01390111
53915KARA ARA20161207225510912/07/16 22:55:31  5-MIN KARA 080455Z AUTO 08009KT 10SM CLR 14/11 A3014 -170 83 -300 080/09 RMK AO2 T01390111
53915KARA ARA20161207230010912/07/16 23:00:31  5-MIN KARA 080500Z AUTO 08011KT 10SM CLR 13/11 A3014 -170 86 -300 080/11 RMK AO2 T01330111
53915KARA ARA20161207230510912/07/16 23:05:31  5-MIN KARA 080505Z AUTO 08011KT 10SM CLR 13/11 A3014 -170 86 -300 080/11 RMK AO2 T01330111
53915KARA ARA20161207231010912/07/16 23:10:31  5-MIN KARA 080510Z AUTO 08010KT 10SM CLR 13/11 A3013 -160 86 -300 070/10 RMK AO2 T01330111
53915KARA ARA20161207231510912/07/16 23:15:31  5-MIN KARA 080515Z AUTO 08009KT 10SM CLR 13/11 A3013 -160 86 -300 080/09 RMK AO2 T01330111
53915KARA ARA20161207232010912/07/16 23:20:31  5-MIN KARA 080520Z AUTO 09010KT 10SM CLR 13/11 A3013 -160 86 -300 090/10 RMK AO2 T01330111
53915KARA ARA20161207232510912/07/16 23:25:31  5-MIN KARA 080525Z AUTO 09007KT 10SM CLR 13/11 A3013 -160 86 -300 080/07 RMK AO2 T01330111
53915KARA ARA20161207233010912/07/16 23:30:31  5-MIN KARA 080530Z AUTO 05003KT 10SM CLR 13/11 A3014 -180 86 -300 040/03 RMK AO2 T01330111
53915KARA ARA20161207233511612/07/16 23:35:31  5-MIN KARA 080535Z AUTO 02004KT 10SM CLR 13/11 A3015 -180 86 -300 020/04 RMK AO2 PRESRR T01330111
53915KARA ARA20161207234011912/07/16 23:40:31  5-MIN KARA 080540Z AUTO 01003KT 10SM FEW080 13/11 A3016 -190 83 -300 010/03 RMK AO2 PRESRR T01330106
53915KARA ARA20161207234512612/07/16 23:45:31  5-MIN KARA 080545Z AUTO 35003KT 10SM FEW009 SCT080 13/11 A3016 -190 83 -400 350/03 RMK AO2 PRESRR T01330106
53915KARA ARA20161207235015412/07/16 23:50:31  5-MIN KARA 080550Z AUTO 36004KT 10SM SCT009 BKN080 13/11 A3017 -200 86 -400 360/04 RMK AO2 SLP214 T01330111 10161 20133 401830128 53002
53915KARA ARA20161207235511912/07/16 23:55:31  5-MIN KARA 080555Z AUTO 02004KT 10SM BKN009 BKN080 13/11 A3017 -200 86 -400 020/04 RMK AO2 T01330111
53915KARA ARA20161208000011912/08/16 00:00:31  5-MIN KARA 080600Z AUTO 01005KT 10SM BKN009 BKN080 14/11 A3017 -200 83 -300 010/05 RMK AO2 T01390111
53915KARA ARA20161208000511212/08/16 00:05:31  5-MIN KARA 080605Z AUTO 36003KT 10SM OVC009 13/11 A3017 -200 86 -400 350/03 RMK AO2 T01330111
53915KARA ARA20161208001011812/08/16 00:10:31  5-MIN KARA 080610Z AUTO 02004KT 9SM BKN009 OVC025 13/11 A3017 -200 86 -400 020/04 RMK AO2 T01330111
53915KARA ARA20161208001511912/08/16 00:15:31  5-MIN KARA 080615Z AUTO 36004KT 10SM BKN009 OVC025 14/11 A3017 -200 83 -300 360/04 RMK AO2 T01390111
53915KARA ARA20161208002011912/08/16 00:20:31  5-MIN KARA 080620Z AUTO 36003KT 10SM SCT009 OVC025 14/11 A3017 -200 83 -300 360/03 RMK AO2 T01390111
53915KARA ARA20161208002511912/08/16 00:25:31  5-MIN KARA 080625Z AUTO 02004KT 10SM SCT009 OVC027 14/11 A3016 -190 83 -300 020/04 RMK AO2 T01390111
53915KARA ARA20161208003011912/08/16 00:30:31  5-MIN KARA 080630Z AUTO 03005KT 10SM FEW009 OVC027 14/11 A3016 -190 83 -300 030/05 RMK AO2 T01390111
53915KARA ARA20161208003511212/08/16 00:35:31  5-MIN KARA 080635Z AUTO 04005KT 10SM OVC027 14/11 A3016 -190 83 -300 030/05 RMK AO2 T01390111
53915KARA ARA20161208004011212/08/16 00:40:31  5-MIN KARA 080640Z AUTO 03007KT 10SM OVC027 14/11 A3016 -190 83 -300 020/07 RMK AO2 T01390111
53915KARA ARA20161208004511912/08/16 00:45:31  5-MIN KARA 080645Z AUTO 02007KT 10SM FEW011 OVC027 14/11 A3016 -190 83 -300 020/07 RMK AO2 T01390111
53915KARA ARA20161208005012612/08/16 00:50:31  5-MIN KARA 080650Z AUTO 03007KT 10SM SCT011 OVC027 13/11 A3016 -190 86 -400 030/07 RMK AO2 SLP214 T01330111
53915KARA ARA20161208005511912/08/16 00:55:31  5-MIN KARA 080655Z AUTO 03007KT 10SM SCT011 OVC027 14/11 A3016 -190 83 -300 030/07 RMK AO2 T01390111
53915KARA ARA20161208010011912/08/16 01:00:31  5-MIN KARA 080700Z AUTO 03009KT 10SM SCT011 OVC027 13/11 A3016 -190 83 -400 030/09 RMK AO2 T01330106
53915KARA ARA20161208010511912/08/16 01:05:31  5-MIN KARA 080705Z AUTO 03008KT 10SM BKN011 OVC029 13/11 A3017 -200 83 -400 030/08 RMK AO2 T01330106
53915KARA ARA20161208011011912/08/16 01:10:31  5-MIN KARA 080710Z AUTO 03008KT 10SM BKN011 OVC029 13/11 A3017 -200 83 -400 030/08 RMK AO2 T01330106
53915KARA ARA20161208011511912/08/16 01:15:31  5-MIN KARA 080715Z AUTO 05010KT 10SM BKN011 OVC029 13/11 A3016 -190 83 -400 050/10 RMK AO2 T01330106
53915KARA ARA20161208012011912/08/16 01:20:31  5-MIN KARA 080720Z AUTO 04009KT 10SM SCT011 OVC030 13/11 A3016 -190 83 -300 040/09 RMK AO2 T01330106
53915KARA ARA20161208012511912/08/16 01:25:31  5-MIN KARA 080725Z AUTO 04009KT 10SM SCT011 OVC030 13/11 A3017 -190 83 -400 040/09 RMK AO2 T01330106
53915KARA ARA20161208013011912/08/16 01:30:31  5-MIN KARA 080730Z AUTO 03008KT 10SM SCT011 OVC029 13/11 A3017 -200 83 -400 030/08 RMK AO2 T01330106
53915KARA ARA20161208013513112/08/16 01:35:31  5-MIN KARA 080735Z AUTO 03009KT 10SM BKN009 OVC029 13/11 A3017 -200 83 -400 030/09 RMK AO2 CIG 008V012 T01330106
53915KARA ARA20161208014013112/08/16 01:40:31  5-MIN KARA 080740Z AUTO 02009KT 10SM BKN009 OVC029 13/11 A3017 -200 83 -400 020/09 RMK AO2 CIG 008V012 T01330106
53915KARA ARA20161208014513112/08/16 01:45:31  5-MIN KARA 080745Z AUTO 02009KT 10SM BKN010 OVC029 13/11 A3018 -200 83 -400 020/09 RMK AO2 CIG 008V012 T01330106
53915KARA ARA20161208015013112/08/16 01:50:31  5-MIN KARA 080750Z AUTO 02010KT 10SM OVC010 13/11 A3018 -200 83 -400 020/10 RMK AO2 CIG 008V012 SLP217 T01330106
53915KARA ARA20161208015512412/08/16 01:55:31  5-MIN KARA 080755Z AUTO 03010KT 10SM OVC010 13/11 A3018 -210 83 -400 030/10 RMK AO2 CIG 008V012 T01330106
53915KARA ARA20161208020012412/08/16 02:00:31  5-MIN KARA 080800Z AUTO 03010KT 10SM OVC010 13/11 A3018 -210 83 -400 030/10 RMK AO2 CIG 008V012 T01330106
53915KARA ARA20161208020511212/08/16 02:05:31  5-MIN KARA 080805Z AUTO 03010KT 10SM OVC010 13/11 A3018 -210 83 -400 030/10 RMK AO2 T01330106
53915KARA ARA20161208021011212/08/16 02:10:31  5-MIN KARA 080810Z AUTO 04010KT 10SM OVC010 13/11 A3017 -200 83 -400 040/10 RMK AO2 T01330106
53915KARA ARA20161208021511212/08/16 02:15:31  5-MIN KARA 080815Z AUTO 03011KT 10SM OVC011 13/11 A3017 -200 83 -400 030/11 RMK AO2 T01330106
53915KARA ARA20161208022011212/08/16 02:20:31  5-MIN KARA 080820Z AUTO 03012KT 10SM OVC011 13/11 A3017 -200 83 -400 030/12 RMK AO2 T01330106
53915KARA ARA20161208022511212/08/16 02:25:31  5-MIN KARA 080825Z AUTO 03009KT 10SM OVC011 13/11 A3018 -200 83 -400 030/09 RMK AO2 T01330106
53915KARA ARA20161208023011212/08/16 02:30:31  5-MIN KARA 080830Z AUTO 03008KT 10SM OVC012 13/11 A3018 -200 83 -400 030/08 RMK AO2 T01330106
53915KARA ARA20161208023511212/08/16 02:35:31  5-MIN KARA 080835Z AUTO 03009KT 10SM OVC012 13/10 A3018 -210 80 -400 030/09 RMK AO2 T01330100
53915KARA ARA20161208024011212/08/16 02:40:31  5-MIN KARA 080840Z AUTO 02010KT 10SM OVC012 13/10 A3018 -210 80 -400 020/10 RMK AO2 T01330100
53915KARA ARA20161208024511212/08/16 02:45:31  5-MIN KARA 080845Z AUTO 02009KT 10SM OVC014 13/10 A3018 -210 80 -400 020/09 RMK AO2 T01330100
53915KARA ARA20161208025012512/08/16 02:50:31  5-MIN KARA 080850Z AUTO 02010KT 10SM OVC014 13/10 A3019 -210 80 -400 020/10 RMK AO2 SLP221 T01330100 55000
53915KARA ARA20161208025511212/08/16 02:55:31  5-MIN KARA 080855Z AUTO 03009KT 10SM OVC014 13/10 A3018 -210 80 -400 030/09 RMK AO2 T01330100
53915KARA ARA20161208030011212/08/16 03:00:31  5-MIN KARA 080900Z AUTO 03010KT 10SM OVC016 13/10 A3018 -210 80 -400 030/10 RMK AO2 T01330100
53915KARA ARA20161208030511212/08/16 03:05:31  5-MIN KARA 080905Z AUTO 02011KT 10SM OVC016 13/10 A3019 -220 80 -400 020/11 RMK AO2 T01330100
53915KARA ARA20161208031011912/08/16 03:10:31  5-MIN KARA 080910Z AUTO 01010KT 10SM FEW011 OVC018 13/10 A3019 -220 80 -400 010/10 RMK AO2 T01330100
53915KARA ARA20161208031511912/08/16 03:15:31  5-MIN KARA 080915Z AUTO 02010KT 10SM FEW011 OVC018 13/10 A3019 -220 80 -400 010/10 RMK AO2 T01330100
53915KARA ARA20161208032011212/08/16 03:20:31  5-MIN KARA 080920Z AUTO 01013KT 10SM OVC018 13/10 A3019 -210 83 -400 010/13 RMK AO2 T01280100
53915KARA ARA20161208032511212/08/16 03:25:31  5-MIN KARA 080925Z AUTO 02015KT 10SM OVC018 13/09 A3018 -210 80 -400 020/15 RMK AO2 T01280094
53915KARA ARA20161208033011112/08/16 03:30:31  5-MIN KARA 080930Z AUTO 02013KT 9SM OVC018 13/09 A3019 -210 80 -400 020/13 RMK AO2 T01280094
53915KARA ARA20161208033512712/08/16 03:35:31  5-MIN KARA 080935Z AUTO 02009KT 8SM -RA OVC018 13/09 A3019 -220 80 -500 020/09 RMK AO2 RAB31 P0000 T01280094
53915KARA ARA20161208034012712/08/16 03:40:31  5-MIN KARA 080940Z AUTO 01012KT 7SM -RA OVC018 13/09 A3020 -230 80 -500 010/12 RMK AO2 RAB31 P0000 T01280094
53915KARA ARA20161208034513312/08/16 03:45:31  5-MIN KARA 080945Z AUTO 01010KT 8SM OVC018 13/09 A3020 -230 80 -500 010/10 RMK AO2 RAB31E44 PRESRR P0000 T01280094
53915KARA ARA20161208035014012/08/16 03:50:31  5-MIN KARA 080950Z AUTO 36013KT 8SM OVC018 13/09 A3021 -240 80 -500 360/13 RMK AO2 RAB31E44 PRESRR SLP229 P0000 T01280094
53915KARA ARA20161208035511112/08/16 03:55:31  5-MIN KARA 080955Z AUTO 01012KT 9SM OVC018 13/09 A3021 -230 80 -500 010/12 RMK AO2 T01280094
53915KARA ARA20161208040011812/08/16 04:00:31  5-MIN KARA 081000Z AUTO 01013KT 8SM FEW013 OVC020 12/09 A3021 -230 83 -500 010/13 RMK AO2 T01220094
53915KARA ARA20161208040511812/08/16 04:05:31  5-MIN KARA 081005Z AUTO 02014KT 7SM FEW013 OVC020 12/09 A3020 -230 83 -500 020/14 RMK AO2 T01220094
53915KARA ARA20161208041013412/08/16 04:10:31  5-MIN KARA 081010Z AUTO 36014KT 7SM -RA FEW013 OVC020 12/09 A3021 -240 83 -500 360/14 RMK AO2 RAB06 P0000 T01220094
53915KARA ARA20161208041513412/08/16 04:15:31  5-MIN KARA 081015Z AUTO 02013KT 8SM -RA FEW013 OVC020 12/09 A3021 -230 83 -500 020/13 RMK AO2 RAB06 P0000 T01220094
53915KARA ARA20161208042014012/08/16 04:20:31  5-MIN KARA 081020Z AUTO 02015G20KT 8SM -RA BKN021 OVC026 12/09 A3020 -230 83 -500 020/15G20 RMK AO2 RAB06 P0000 T01220094
53915KARA ARA20161208042513412/08/16 04:25:31  5-MIN KARA 081025Z AUTO 03015KT 8SM -RA BKN021 OVC026 12/09 A3020 -230 83 -500 030/15 RMK AO2 RAB06 P0000 T01220094
53915KARA ARA20161208043014112/08/16 04:30:31  5-MIN KARA 081030Z AUTO 02013KT 8SM -RA FEW011 BKN021 OVC026 12/09 A3021 -240 83 -500 020/13 RMK AO2 RAB06 P0000 T01220094
53915KARA ARA20161208043512612/08/16 04:35:31  5-MIN KARA 081035Z AUTO 02014KT 9SM OVC023 12/09 A3022 -240 83 -600 020/14 RMK AO2 RAB06E35 P0000 T01170089
53915KARA ARA20161208044014012/08/16 04:40:31  5-MIN KARA 081040Z AUTO 02014KT 9SM FEW016 OVC023 12/09 A3022 -250 83 -600 020/14 RMK AO2 RAB06E35 PRESRR P0000 T01170089
53915KARA ARA20161208044513312/08/16 04:45:31  5-MIN KARA 081045Z AUTO 02012KT 9SM SCT014 OVC024 12/09 A3023 -250 83 -600 020/12 RMK AO2 RAB06E35 P0000 T01170089
53915KARA ARA20161208045014712/08/16 04:50:31  5-MIN KARA 081050Z AUTO 03015KT 9SM SCT014 BKN021 OVC026 12/09 A3022 -240 83 -600 030/15 RMK AO2 RAB06E35 SLP232 P0000 T01170089
53915KARA ARA20161208045512812/08/16 04:55:31  5-MIN KARA 081055Z AUTO 03012KT 8SM -RA BKN014 OVC026 12/09 A3022 -240 83 -600 030/12 RMK AO2 P0000 T01170089
53915KARA ARA20161208050012812/08/16 05:00:31  5-MIN KARA 081100Z AUTO 03012KT 6SM -RA BKN012 OVC026 12/09 A3022 -250 83 -600 030/12 RMK AO2 P0000 T01170089
53915KARA ARA20161208050512812/08/16 05:05:31  5-MIN KARA 081105Z AUTO 02010KT 5SM -RA BKN012 OVC021 12/09 A3023 -260 83 -600 020/10 RMK AO2 P0000 T01170089
53915KARA ARA20161208051012412/08/16 05:10:31  5-MIN KARA 081110Z AUTO 02011KT 5SM -RA BR OVC012 12/09 A3023 -260 86 -600 020/11 RMK AO2 P0000 T01170094
53915KARA ARA20161208051512812/08/16 05:15:31  5-MIN KARA 081115Z AUTO 03011KT 6SM -RA BKN012 OVC029 12/09 A3023 -250 83 -600 030/11 RMK AO2 P0000 T01170089
53915KARA ARA20161208052012412/08/16 05:20:31  5-MIN KARA 081120Z AUTO 03013KT 6SM -RA BR OVC012 12/09 A3023 -250 86 -600 030/13 RMK AO2 P0000 T01170094
53915KARA ARA20161208052512812/08/16 05:25:31  5-MIN KARA 081125Z AUTO 03015KT 7SM -RA BKN012 OVC031 12/09 A3024 -260 86 -600 030/15 RMK AO2 P0000 T01170094
53915KARA ARA20161208053013012/08/16 05:30:31  5-MIN KARA 081130Z AUTO 02013KT 8SM BKN012 OVC031 12/09 A3024 -260 83 -600 020/13 RMK AO2 RAE26 P0000 T01170089
53915KARA ARA20161208053513112/08/16 05:35:31  5-MIN KARA 081135Z 03015G20KT 8SM BKN012 OVC031 12/09 A3024 -270 86 -600 030/15G20 RMK AO2 RAE26 P0000 T01170094
53915KARA ARA20161208054013112/08/16 05:40:31  5-MIN KARA 081140Z 03012G20KT 8SM BKN012 OVC031 12/09 A3025 -270 83 -600 030/12G20 RMK AO2 RAE26 P0000 T01170089
53915KARA ARA20161208054513212/08/16 05:45:31  5-MIN KARA 081145Z 02014KT 8SM BKN012 BKN016 OVC032 12/09 A3025 -270 86 -600 020/14 RMK AO2 RAE26 P0000 T01170094
53915KARA ARA20161208055015612/08/16 05:50:31  5-MIN KARA 081150Z 03012KT 9SM BKN012 OVC032 12/09 A3025 -270 83 -600 030/12 RMK AO2 RAE26 SLP242 P0000 60000 T01170089 10139 20117 51006
53915KARA ARA20161208055512712/08/16 05:55:31  5-MIN KARA 081155Z 02015G22KT 10SM BKN012 BKN016 OVC034 12/09 A3025 -270 83 -700 020/15G22 RMK AO2 T01170089
53915KARA ARA20161208060012712/08/16 06:00:31  5-MIN KARA 081200Z 03015G23KT 10SM BKN011 BKN016 OVC034 12/08 A3025 -270 80 -700 030/15G23 RMK AO2 T01170083
53915KARA ARA20161208060512712/08/16 06:05:31  5-MIN KARA 081205Z 02014G23KT 10SM SCT011 SCT017 OVC034 11/08 A3025 -280 83 -700 020/14G23 RMK AO2 T01110083
53915KARA ARA20161208061011412/08/16 06:10:31  5-MIN KARA 081210Z 02015KT 10SM SCT011 OVC034 11/08 A3026 -280 83 -700 020/15 RMK AO2 T01110083
53915KARA ARA20161208061511412/08/16 06:15:31  5-MIN KARA 081215Z 02016KT 10SM SCT013 OVC034 11/08 A3026 -280 83 -700 020/16 RMK AO2 T01110083
53915KARA ARA20161208062011412/08/16 06:20:31  5-MIN KARA 081220Z 02015KT 10SM SCT013 OVC034 11/08 A3026 -280 83 -700 020/15 RMK AO2 T01110083
53915KARA ARA20161208062511412/08/16 06:25:31  5-MIN KARA 081225Z 02014KT 10SM SCT013 OVC035 11/08 A3026 -280 83 -700 020/14 RMK AO2 T01110083
53915KARA ARA20161208063012012/08/16 06:30:31  5-MIN KARA 081230Z 02015G19KT 10SM BKN013 OVC035 11/08 A3027 -290 83 -700 020/15G19 RMK AO2 T01110083
53915KARA ARA20161208063512012/08/16 06:35:31  5-MIN KARA 081235Z 02014G21KT 10SM BKN013 OVC035 11/08 A3027 -290 83 -700 020/14G21 RMK AO2 T01110083
53915KARA ARA20161208064012112/08/16 06:40:31  5-MIN KARA 081240Z 02017KT 10SM BKN013 OVC035 11/08 A3028 -300 83 -800 020/17 RMK AO2 PRESRR T01110083
53915KARA ARA20161208064510712/08/16 06:45:31  5-MIN KARA 081245Z 02014KT 10SM OVC013 11/08 A3028 -300 83 -800 020/14 RMK AO2 T01110083
53915KARA ARA20161208065011412/08/16 06:50:31  5-MIN KARA 081250Z 02012KT 10SM OVC013 11/08 A3028 -300 83 -800 020/12 RMK AO2 SLP253 T01110083
53915KARA ARA20161208065511312/08/16 06:55:31  5-MIN KARA 081255Z 02015G21KT 10SM OVC012 11/08 A3028 -300 83 -800 020/15G21 RMK AO2 T01110083
53915KARA ARA20161208070010712/08/16 07:00:31  5-MIN KARA 081300Z 03015KT 10SM OVC012 11/08 A3028 -300 83 -800 030/15 RMK AO2 T01110083
53915KARA ARA20161208070510712/08/16 07:05:31  5-MIN KARA 081305Z 02014KT 10SM OVC012 11/08 A3029 -310 83 -800 020/14 RMK AO2 T01110083
53915KARA ARA20161208071010712/08/16 07:10:31  5-MIN KARA 081310Z 03016KT 10SM OVC012 11/08 A3029 -310 83 -800 020/16 RMK AO2 T01110083
53915KARA ARA20161208071513212/08/16 07:15:31  5-MIN KARA 081315Z 02014G19KT 10SM BKN010 OVC015 11/08 A3030 -310 83 -800 020/14G19 RMK AO2 CIG 009V012 T01110083
53915KARA ARA20161208072011312/08/16 07:20:31  5-MIN KARA 081320Z 02015G19KT 10SM OVC013 11/08 A3030 -320 83 -800 020/15G19 RMK AO2 T01110083
53915KARA ARA20161208072513212/08/16 07:25:31  5-MIN KARA 081325Z 02016G22KT 10SM BKN010 OVC016 11/08 A3030 -320 83 -800 020/16G22 RMK AO2 CIG 009V012 T01110083
53915KARA ARA20161208073013612/08/16 07:30:31  5-MIN KARA 081330Z 02014G22KT 10SM -RA BKN010 OVC018 11/08 A3030 -320 83 -800 020/14G22 RMK AO2 RAB26 P0000 T01110083
53915KARA ARA20161208073513512/08/16 07:35:31  5-MIN KARA 081335Z 02017G22KT 7SM -RA BKN012 OVC018 11/08 A3030 -320 83 -800 020/17G22 RMK AO2 RAB26 P0000 T01110083
53915KARA ARA20161208074012812/08/16 07:40:31  5-MIN KARA 081340Z 02013G22KT 5SM -RA OVC012 11/08 A3030 -320 83 -800 020/13G22 RMK AO2 RAB26 P0000 T01110083
53915KARA ARA20161208074515012/08/16 07:45:31  5-MIN KARA 081345Z 36015G20KT 4SM -RA BR BKN009 OVC014 10/08 A3031 -320 86 -900 360/15G20 RMK AO2 RAB26 CIG 007V011 P0000 T01000078
53915KARA ARA20161208075015012/08/16 07:50:31  5-MIN KARA 081350Z 01017G21KT 4SM -RA BR OVC009 10/08 A3031 -320 86 -900 010/17G21 RMK AO2 RAB26 CIG 007V013 SLP261 P0000 T01000078
53915KARA ARA20161208075513112/08/16 07:55:31  5-MIN KARA 081355Z 01016KT 4SM -RA BR OVC009 10/08 A3031 -330 86 -900 010/16 RMK AO2 CIG 007V011 P0000 T01000078
53915KARA ARA20161208080013112/08/16 08:00:31  5-MIN KARA 081400Z 01015KT 4SM -RA BR OVC007 10/08 A3031 -330 86 -900 010/15 RMK AO2 CIG 007V010 P0000 T01000078
53915KARA ARA20161208080511912/08/16 08:05:31  5-MIN KARA 081405Z 02015KT 4SM -RA BR OVC007 10/08 A3031 -330 86 -900 020/15 RMK AO2 P0000 T01000078
53915KARA ARA20161208081011912/08/16 08:10:31  5-MIN KARA 081410Z 02012KT 5SM -RA BR OVC007 10/08 A3032 -330 86 -900 010/12 RMK AO2 P0000 T01000078
53915KARA ARA20161208081511912/08/16 08:15:31  5-MIN KARA 081415Z 01015KT 6SM -RA BR OVC007 10/08 A3032 -340 86 -900 010/15 RMK AO2 P0000 T01000078
53915KARA ARA20161208082011612/08/16 08:20:31  5-MIN KARA 081420Z 02014KT 7SM -RA OVC008 10/08 A3032 -340 86 -900 020/14 RMK AO2 P0000 T01000078
53915KARA ARA20161208082511612/08/16 08:25:31  5-MIN KARA 081425Z 02014KT 7SM -RA OVC008 10/08 A3032 -340 86 -900 020/14 RMK AO2 P0000 T01000078
53915KARA ARA20161208083011612/08/16 08:30:31  5-MIN KARA 081430Z 02013KT 8SM -RA OVC008 10/08 A3033 -340 86 -900 020/13 RMK AO2 P0000 T01000078
53915KARA ARA20161208083511612/08/16 08:35:31  5-MIN KARA 081435Z 03014KT 8SM -RA OVC008 10/08 A3032 -340 86 -900 030/14 RMK AO2 P0000 T01000078
53915KARA ARA20161208084012212/08/16 08:40:31  5-MIN KARA 081440Z 03014G22KT 7SM -RA OVC008 10/08 A3032 -340 86 -900 030/14G22 RMK AO2 P0001 T01000078
53915KARA ARA20161208084512512/08/16 08:45:31  5-MIN KARA 081445Z 03016G22KT 6SM -RA BR OVC008 10/08 A3033 -340 86 -900 030/16G22 RMK AO2 P0001 T01000078
53915KARA ARA20161208085013512/08/16 08:50:31  5-MIN KARA 081450Z 04014KT 7SM -RA OVC009 10/08 A3033 -340 86 -900 030/14 RMK AO2 SLP268 P0001 60001 T01000078 53023
53915KARA ARA20161208085512312/08/16 08:55:31  5-MIN KARA 081455Z 02016G21KT 8SM -RA OVC009 10/08 A3034 -350 86 -1000 020/16G21 RMK AO2 P0000 T01000078
53915KARA ARA20161208090011712/08/16 09:00:31  5-MIN KARA 081500Z 02014KT 7SM -RA OVC009 10/07 A3034 -360 83 -1000 020/14 RMK AO2 P0000 T01000072
53915KARA ARA20161208090512312/08/16 09:05:31  5-MIN KARA 081505Z 03017G22KT 6SM -RA OVC009 10/07 A3034 -360 83 -1000 020/17G22 RMK AO2 P0000 T01000072
53915KARA ARA20161208091012312/08/16 09:10:31  5-MIN KARA 081510Z 03016G22KT 6SM -RA OVC009 10/07 A3035 -360 83 -1000 030/16G22 RMK AO2 P0000 T01000072
53915KARA ARA20161208095013312/08/16 09:50:31  5-MIN KARA 081550Z 01013G23KT 10SM OVC012 10/07 A3037 -380 80 -1000 010/13G23 RMK AO2 RAE44 SLP282 P0000 T01000067
53915KARA ARA20161208095510812/08/16 09:55:31  5-MIN KARA 081555Z 01014KT 10SM OVC012 09/07 A3037 -380 83 -1100 010/14 RMK AO2 T00940067
53915KARA ARA20161208100010812/08/16 10:00:31  5-MIN KARA 081600Z 01016KT 10SM OVC012 09/07 A3037 -380 86 -1100 010/16 RMK AO2 T00940072
53915KARA ARA20161208100510812/08/16 10:05:31  5-MIN KARA 081605Z 02014KT 10SM OVC011 09/07 A3037 -380 83 -1100 010/14 RMK AO2 T00940067
53915KARA ARA20161208101012912/08/16 10:10:31  5-MIN KARA 081610Z 02016G21KT 9SM -RA OVC011 09/07 A3037 -380 83 -1100 010/16G21 RMK AO2 RAB09 P0000 T00940067
53915KARA ARA20161208101512912/08/16 10:15:31  5-MIN KARA 081615Z 01014G21KT 8SM -RA OVC011 09/07 A3037 -380 83 -1100 010/14G21 RMK AO2 RAB09 P0000 T00940067
53915KARA ARA20161208102012912/08/16 10:20:31  5-MIN KARA 081620Z 02016G22KT 8SM -RA OVC011 09/07 A3037 -380 83 -1100 020/16G22 RMK AO2 RAB09 P0000 T00940067
53915KARA ARA20161208102512912/08/16 10:25:31  5-MIN KARA 081625Z 02013G22KT 8SM -RA OVC011 09/07 A3037 -380 83 -1100 020/13G22 RMK AO2 RAB09 P0000 T00940067
53915KARA ARA20161208103012912/08/16 10:30:31  5-MIN KARA 081630Z 02015G23KT 9SM -RA OVC011 09/07 A3037 -390 83 -1100 010/15G23 RMK AO2 RAB09 P0000 T00940067
53915KARA ARA20161208103513012/08/16 10:35:31  5-MIN KARA 081635Z 01015G23KT 10SM -RA OVC011 09/07 A3038 -390 83 -1100 010/15G23 RMK AO2 RAB09 P0000 T00940067
53915KARA ARA20161208104012912/08/16 10:40:31  5-MIN KARA 081640Z 01018G24KT 10SM OVC011 09/07 A3037 -380 83 -1100 010/18G24 RMK AO2 RAB09E36 P0000 T00940067
53915KARA ARA20161208104512912/08/16 10:45:31  5-MIN KARA 081645Z 01015G24KT 8SM -RA OVC011 09/06 A3037 -380 83 -1100 010/15G24 RMK AO2 RAB09 P0000 T00890061
53915KARA ARA20161208105013012/08/16 10:50:31  5-MIN KARA 081650Z 01019KT 9SM -RA OVC011 09/06 A3036 -380 83 -1100 010/19 RMK AO2 RAB09 SLP281 P0000 T00890061
53915KARA ARA20161208105510712/08/16 10:55:31  5-MIN KARA 081655Z 02015KT 9SM OVC012 09/06 A3036 -380 83 -1100 020/15 RMK AO2 T00890061
53915KARA ARA20161208110012912/08/16 11:00:31  5-MIN KARA 081700Z 02018G24KT 9SM -RA OVC012 09/06 A3036 -370 83 -1100 010/18G24 RMK AO2 RAB00 P0000 T00890061
53915KARA ARA20161208110512912/08/16 11:05:31  5-MIN KARA 081705Z 02016G24KT 7SM -RA OVC012 09/06 A3036 -370 83 -1100 020/16G24 RMK AO2 RAB00 P0000 T00890061
53915KARA ARA20161208111012312/08/16 11:10:31  5-MIN KARA 081710Z 02017KT 7SM -RA OVC012 09/06 A3036 -380 83 -1100 020/17 RMK AO2 RAB00 P0000 T00890061
53915KARA ARA20161208111512912/08/16 11:15:31  5-MIN KARA 081715Z 03015G22KT 7SM -RA OVC012 09/06 A3036 -380 83 -1100 030/15G22 RMK AO2 RAB00 P0000 T00890061
53915KARA ARA20161208112012312/08/16 11:20:31  5-MIN KARA 081720Z 02015KT 8SM -RA OVC012 09/06 A3036 -380 83 -1100 020/15 RMK AO2 RAB00 P0000 T00890061
53915KARA ARA20161208112512312/08/16 11:25:31  5-MIN KARA 081725Z 02016KT 9SM -RA OVC013 09/06 A3036 -370 83 -1100 020/16 RMK AO2 RAB00 P0000 T00890061
53915KARA ARA20161208113012312/08/16 11:30:31  5-MIN KARA 081730Z 02017KT 10SM OVC013 09/06 A3036 -370 83 -1100 010/17 RMK AO2 RAB00E27 P0000 T00890061
53915KARA ARA20161208113512312/08/16 11:35:31  5-MIN KARA 081735Z 02019KT 10SM OVC013 09/06 A3035 -360 79 -1100 020/19 RMK AO2 RAB00E27 P0000 T00890056
53915KARA ARA20161208114012912/08/16 11:40:31  5-MIN KARA 081740Z 02016G23KT 10SM OVC013 09/06 A3035 -370 79 -1100 020/16G23 RMK AO2 RAB00E27 P0000 T00890056
53915KARA ARA20161208114512912/08/16 11:45:31  5-MIN KARA 081745Z 03016G23KT 10SM OVC013 09/06 A3035 -370 79 -1100 030/16G23 RMK AO2 RAB00E27 P0000 T00890056
53915KARA ARA20161208115016012/08/16 11:50:31  5-MIN KARA 081750Z 02014G24KT 10SM OVC014 09/06 A3036 -370 79 -1100 020/14G24 RMK AO2 RAB00E27 SLP278 P0000 60001 T00890056 10117 20089 53017
53915KARA ARA20161208115511412/08/16 11:55:31  5-MIN KARA 081755Z 02014G24KT 10SM OVC014 09/06 A3035 -370 79 -1100 020/14G24 RMK AO2 T00890056
53915KARA ARA20161208120012512/08/16 12:00:31  5-MIN KARA 081800Z 02015KT 9SM -RA OVC014 09/06 A3035 -360 79 -1100 010/15 RMK AO2 RAB1759 P0000 T00890056
53915KARA ARA20161208120513112/08/16 12:05:31  5-MIN KARA 081805Z 02018G22KT 8SM -RA OVC014 09/06 A3035 -360 79 -1100 020/18G22 RMK AO2 RAB1759 P0000 T00890056
53915KARA ARA20161208121013112/08/16 12:10:31  5-MIN KARA 081810Z 03014G22KT 8SM -RA OVC014 09/06 A3034 -360 79 -1100 030/14G22 RMK AO2 RAB1759 P0000 T00890056
53915KARA ARA20161208121512512/08/16 12:15:31  5-MIN KARA 081815Z 02017KT 8SM -RA OVC014 09/06 A3034 -360 79 -1100 020/17 RMK AO2 RAB1759 P0000 T00890056
53915KARA ARA20161208122012412/08/16 12:20:31  5-MIN KARA 081820Z 03016KT 8SM OVC014 09/06 A3035 -360 79 -1100 030/16 RMK AO2 RAB1759E19 P0000 T00890056
53915KARA ARA20161208122512412/08/16 12:25:31  5-MIN KARA 081825Z 03017KT 8SM OVC016 09/06 A3034 -360 79 -1100 030/17 RMK AO2 RAB1759E19 P0000 T00890056
53915KARA ARA20161208123013112/08/16 12:30:31  5-MIN KARA 081830Z 03011KT 8SM BKN016 OVC050 09/06 A3034 -350 79 -1100 030/11 RMK AO2 RAB1759E19 P0000 T00890056
53915KARA ARA20161208123513112/08/16 12:35:31  5-MIN KARA 081835Z 02012KT 8SM BKN016 OVC055 09/06 A3034 -350 79 -1100 020/12 RMK AO2 RAB1759E19 P0000 T00890056
53915KARA ARA20161208124013112/08/16 12:40:31  5-MIN KARA 081840Z 02013KT 9SM BKN016 OVC055 09/06 A3034 -350 79 -1100 020/13 RMK AO2 RAB1759E19 P0000 T00890056
53915KARA ARA20161208124513112/08/16 12:45:31  5-MIN KARA 081845Z 02013KT 9SM BKN016 OVC055 09/06 A3034 -350 79 -1100 020/13 RMK AO2 RAB1759E19 P0000 T00890056
53915KARA ARA20161208125013812/08/16 12:50:31  5-MIN KARA 081850Z 02014KT 9SM BKN016 OVC055 09/06 A3034 -350 79 -1100 020/14 RMK AO2 RAB1759E19 SLP273 P0000 T00890056
53915KARA ARA20161208125511412/08/16 12:55:31  5-MIN KARA 081855Z 02013KT 9SM BKN016 OVC055 09/06 A3034 -360 79 -1100 010/13 RMK AO2 T00890056
53915KARA ARA20161208130012112/08/16 13:00:31  5-MIN KARA 081900Z 02015G21KT 10SM BKN016 OVC021 09/05 A3034 -350 76 -1100 020/15G21 RMK AO2 T00890050
53915KARA ARA20161208130512112/08/16 13:05:31  5-MIN KARA 081905Z 01015G21KT 10SM BKN016 OVC021 09/05 A3034 -360 76 -1100 010/15G21 RMK AO2 T00890050
53915KARA ARA20161208131012212/08/16 13:10:31  5-MIN KARA 081910Z 02013KT 10SM BKN016 BKN021 OVC055 09/05 A3034 -360 76 -1100 020/13 RMK AO2 T00890050
53915KARA ARA20161208131511512/08/16 13:15:31  5-MIN KARA 081915Z 02015KT 10SM BKN016 OVC055 09/05 A3034 -360 76 -1100 010/15 RMK AO2 T00890050
53915KARA ARA20161208132012212/08/16 13:20:31  5-MIN KARA 081920Z 01014KT 10SM FEW014 BKN018 OVC060 09/04 A3034 -360 73 -1100 010/14 RMK AO2 T00890044
53915KARA ARA20161208132512212/08/16 13:25:31  5-MIN KARA 081925Z 02015KT 10SM SCT018 SCT050 OVC060 09/04 A3034 -360 73 -1100 020/15 RMK AO2 T00890044
53915KARA ARA20161208133013812/08/16 13:30:31  5-MIN KARA 081930Z 02015KT 10SM -RA FEW018 SCT050 OVC060 09/04 A3034 -360 73 -1100 020/15 RMK AO2 RAB28 P0000 T00890044
53915KARA ARA20161208133513112/08/16 13:35:31  5-MIN KARA 081935Z 36013KT 10SM -RA FEW018 OVC065 09/04 A3034 -350 73 -1100 360/13 RMK AO2 RAB28 P0000 T00890044
53915KARA ARA20161208134013712/08/16 13:40:31  5-MIN KARA 081940Z 01011KT 9SM -RA FEW018 FEW046 OVC070 09/05 A3034 -350 76 -1100 010/11 RMK AO2 RAB28 P0000 T00890050
53915KARA ARA20161208134512912/08/16 13:45:31  5-MIN KARA 081945Z 01012KT 6SM RA FEW018 OVC065 08/05 A3034 -360 79 -1200 010/12 RMK AO2 RAB28 P0000 T00830050
53915KARA ARA20161208135012912/08/16 13:50:31  5-MIN KARA 081950Z 01014KT 5SM RA OVC070 09/05 A3034 -360 76 -1100 010/14 RMK AO2 RAB28 SLP273 P0000 T00890050
53915KARA ARA20161208135512312/08/16 13:55:31  5-MIN KARA 081955Z 02015KT 5SM RA FEW018 OVC070 09/05 A3034 -350 76 -1100 010/15 RMK AO2 T00890050 PNO $
53915KARA ARA20161208140012312/08/16 14:00:31  5-MIN KARA 082000Z 01013KT 6SM RA FEW018 OVC075 09/05 A3033 -350 76 -1100 010/13 RMK AO2 T00890050 PNO $
53915KARA ARA20161208140512412/08/16 14:05:31  5-MIN KARA 082005Z 02015KT 7SM -RA FEW018 OVC075 09/06 A3034 -350 79 -1100 020/15 RMK AO2 T00890056 PNO $
53915KARA ARA20161208141011712/08/16 14:10:31  5-MIN KARA 082010Z 02015KT 9SM -RA OVC080 09/06 A3033 -350 79 -1100 020/15 RMK AO2 T00890056 PNO $
53915KARA ARA20161208141511812/08/16 14:15:31  5-MIN KARA 082015Z 02013KT 10SM -RA OVC080 09/05 A3033 -350 76 -1100 020/13 RMK AO2 T00890050 PNO $
53915KARA ARA20161208142011812/08/16 14:20:31  5-MIN KARA 082020Z 01013KT 10SM -RA OVC080 09/05 A3033 -350 76 -1100 010/13 RMK AO2 T00890050 PNO $
53915KARA ARA20161208142511812/08/16 14:25:31  5-MIN KARA 082025Z 01011KT 10SM -RA OVC080 09/05 A3034 -350 76 -1100 010/11 RMK AO2 T00890050 PNO $
53915KARA ARA20161208143011812/08/16 14:30:31  5-MIN KARA 082030Z 01014KT 10SM -RA OVC080 09/05 A3034 -350 76 -1100 010/14 RMK AO2 T00890050 PNO $
53915KARA ARA20161208143511812/08/16 14:35:31  5-MIN KARA 082035Z 01014KT 10SM -RA OVC080 09/04 A3034 -350 73 -1100 010/14 RMK AO2 T00890044 PNO $
53915KARA ARA20161208144011612/08/16 14:40:31  5-MIN KARA 082040Z 01011KT 10SM OVC080 09/04 A3034 -350 71 -1000 010/11 RMK AO2 RAE38 T00940044 $
53915KARA ARA20161208144511612/08/16 14:45:31  5-MIN KARA 082045Z 01013KT 10SM OVC085 09/05 A3034 -350 74 -1000 010/13 RMK AO2 RAE38 T00940050 $
53915KARA ARA20161208145014812/08/16 14:50:31  5-MIN KARA 082050Z 02017G21KT 10SM BKN085 OVC100 09/04 A3034 -350 68 -1000 020/17G21 RMK AO2 RAE38 SLP272 6//// T00940039 50008 $
53915KARA ARA20161208145512312/08/16 14:55:31  5-MIN KARA 082055Z 02012G21KT 10SM BKN090 OVC100 09/04 A3034 -350 68 -1000 010/12G21 RMK AO2 T00940039 $
53915KARA ARA20161208150012312/08/16 15:00:31  5-MIN KARA 082100Z 02016G24KT 10SM BKN090 OVC100 09/04 A3034 -350 68 -1000 020/16G24 RMK AO2 T00940039 $
53915KARA ARA20161208150511612/08/16 15:05:31  5-MIN KARA 082105Z 01015G24KT 10SM OVC090 09/04 A3033 -350 68 -1000 010/15G24 RMK AO2 T00940039 $
53915KARA ARA20161208151012312/08/16 15:10:31  5-MIN KARA 082110Z 01015G24KT 10SM FEW080 OVC095 09/03 A3033 -350 65 -1000 010/15G24 RMK AO2 T00940033 $
53915KARA ARA20161208151511612/08/16 15:15:31  5-MIN KARA 082115Z 02015G24KT 10SM OVC090 09/04 A3034 -350 68 -1000 020/15G24 RMK AO2 T00940039 $
53915KARA ARA20161208152011012/08/16 15:20:31  5-MIN KARA 082120Z 02014KT 10SM OVC090 09/03 A3034 -360 65 -1000 020/14 RMK AO2 T00940033 $
53915KARA ARA20161208152511612/08/16 15:25:31  5-MIN KARA 082125Z 01016G23KT 10SM OVC085 09/03 A3035 -360 63 -1000 010/16G23 RMK AO2 T00940028 $
53915KARA ARA20161208153011612/08/16 15:30:31  5-MIN KARA 082130Z 02016G23KT 10SM OVC085 09/03 A3035 -370 63 -1000 010/16G23 RMK AO2 T00940028 $
53915KARA ARA20161208153511612/08/16 15:35:31  5-MIN KARA 082135Z 01016G22KT 10SM OVC080 09/03 A3035 -370 63 -1000 010/16G22 RMK AO2 T00940028 $
53915KARA ARA20161208154011612/08/16 15:40:31  5-MIN KARA 082140Z 01014G22KT 10SM OVC080 09/03 A3035 -370 63 -1000 010/14G22 RMK AO2 T00940028 $
53915KARA ARA20161208154511012/08/16 15:45:31  5-MIN KARA 082145Z 02015KT 10SM OVC080 09/03 A3036 -370 63 -1000 020/15 RMK AO2 T00940028 $
53915KARA ARA20161208155011712/08/16 15:50:31  5-MIN KARA 082150Z 02014KT 10SM OVC080 09/03 A3035 -370 63 -1000 010/14 RMK AO2 SLP278 T00940028 $
53915KARA ARA20161208155511012/08/16 15:55:31  5-MIN KARA 082155Z 01014KT 10SM OVC080 09/03 A3035 -370 63 -1000 010/14 RMK AO2 T00940028 $
53915KARA ARA20161208160011012/08/16 16:00:31  5-MIN KARA 082200Z 01014KT 10SM OVC080 09/02 A3036 -370 60 -1000 010/14 RMK AO2 T00940022 $
53915KARA ARA20161208160511012/08/16 16:05:31  5-MIN KARA 082205Z 01014KT 10SM OVC080 09/02 A3036 -380 60 -1000 010/14 RMK AO2 T00940022 $
53915KARA ARA20161208161011012/08/16 16:10:31  5-MIN KARA 082210Z 01014KT 10SM OVC080 09/02 A3036 -380 58 -1100 010/14 RMK AO2 T00940017 $
53915KARA ARA20161208161511012/08/16 16:15:31  5-MIN KARA 082215Z 36010KT 10SM OVC080 09/02 A3037 -380 58 -1100 360/10 RMK AO2 T00940017 $
53915KARA ARA20161208162011012/08/16 16:20:31  5-MIN KARA 082220Z 01013KT 10SM OVC085 09/02 A3037 -380 58 -1100 010/13 RMK AO2 T00940017 $
53915KARA ARA20161208162511012/08/16 16:25:31  5-MIN KARA 082225Z 36011KT 10SM OVC085 09/02 A3037 -390 60 -1100 360/11 RMK AO2 T00940022 $
53915KARA ARA20161208163011012/08/16 16:30:31  5-MIN KARA 082230Z 36012KT 10SM OVC085 09/02 A3038 -390 58 -1100 360/12 RMK AO2 T00940017 $
53915KARA ARA20161208163511612/08/16 16:35:31  5-MIN KARA 082235Z 36015G20KT 10SM OVC085 09/02 A3038 -400 58 -1100 360/15G20 RMK AO2 T00940017 $
53915KARA ARA20161208164011012/08/16 16:40:31  5-MIN KARA 082240Z 36013KT 10SM OVC085 09/02 A3039 -400 58 -1100 360/13 RMK AO2 T00940017 $
53915KARA ARA20161208164511012/08/16 16:45:31  5-MIN KARA 082245Z 36013KT 10SM OVC085 09/02 A3039 -400 58 -1100 360/13 RMK AO2 T00940017 $
53915KARA ARA20161208165011712/08/16 16:50:31  5-MIN KARA 082250Z 01017KT 10SM OVC085 09/01 A3039 -400 56 -1100 010/17 RMK AO2 SLP290 T00940011 $
53915KARA ARA20161208165511012/08/16 16:55:31  5-MIN KARA 082255Z 01014KT 10SM OVC090 09/01 A3039 -400 56 -1100 010/14 RMK AO2 T00940011 $
53915KARA ARA20161208170011612/08/16 17:00:31  5-MIN KARA 082300Z 01016G20KT 10SM OVC090 09/01 A3039 -400 58 -1100 010/16G20 RMK AO2 T00890011 $
53915KARA ARA20161208170511612/08/16 17:05:31  5-MIN KARA 082305Z 01017G22KT 10SM OVC090 09/01 A3039 -400 58 -1100 010/17G22 RMK AO2 T00890011 $
53915KARA ARA20161208171013212/08/16 17:10:31  5-MIN KARA 082310Z 01013G22KT 10SM -RA OVC090 09/02 A3039 -400 60 -1100 010/13G22 RMK AO2 RAB06 P0000 T00890017 $
53915KARA ARA20161208171512612/08/16 17:15:31  5-MIN KARA 082315Z 01014KT 10SM -RA OVC095 08/02 A3040 -410 63 -1200 010/14 RMK AO2 RAB06 P0000 T00830017 $
53915KARA ARA20161208172012612/08/16 17:20:31  5-MIN KARA 082320Z 01015KT 10SM -RA OVC090 08/02 A3039 -400 63 -1200 010/15 RMK AO2 RAB06 P0000 T00830017 $
53915KARA ARA20161208172512512/08/16 17:25:31  5-MIN KARA 082325Z 01015KT 10SM OVC090 08/01 A3039 -400 60 -1200 010/15 RMK AO2 RAB06E24 P0000 T00830011 $
53915KARA ARA20161208173013212/08/16 17:30:31  5-MIN KARA 082330Z 02016KT 10SM FEW075 OVC090 08/01 A3039 -400 60 -1200 020/16 RMK AO2 RAB06E24 P0000 T00830011 $
53915KARA ARA20161208173513212/08/16 17:35:31  5-MIN KARA 082335Z 02013KT 10SM FEW080 OVC095 08/01 A3039 -400 60 -1200 020/13 RMK AO2 RAB06E24 P0000 T00830011 $
53915KARA ARA20161208174013812/08/16 17:40:31  5-MIN KARA 082340Z 02015G22KT 10SM FEW075 OVC095 08/01 A3039 -400 60 -1200 020/15G22 RMK AO2 RAB06E24 P0000 T00830011 $
53915KARA ARA20161208174514512/08/16 17:45:31  5-MIN KARA 082345Z 01015G22KT 10SM -RA FEW070 OVC100 08/01 A3040 -410 58 -1200 010/15G22 RMK AO2 RAB06E24B45 P0000 T00830006 $
53915KARA ARA20161208175018312/08/16 17:50:31  5-MIN KARA 082350Z 01016G22KT 10SM -RA FEW070 BKN095 OVC110 08/01 A3040 -410 60 -1200 010/16G22 RMK AO2 RAB06E24B45 SLP293 P0001 6//// T00830011 10094 20083 56006 $
53915KARA ARA20161208175514012/08/16 17:55:31  5-MIN KARA 082355Z 01015G24KT 10SM -RA FEW044 BKN100 OVC110 08/01 A3041 -420 62 -1300 010/15G24 RMK AO2 P0000 T00780011 $
53915KARA ARA20161208180014012/08/16 18:00:31  5-MIN KARA 090000Z 01017G24KT 10SM -RA FEW044 FEW070 BKN100 08/01 A3040 -410 62 -1300 010/17G24 RMK AO2 P0000 T00780011 $
53915KARA ARA20161208180514212/08/16 18:05:31  5-MIN KARA 090005Z 01016G22KT 10SM FEW044 BKN100 BKN110 08/01 A3040 -410 60 -1300 010/16G22 RMK AO2 RAE05 P0000 T00780006 $
53915KARA ARA20161208181013612/08/16 18:10:31  5-MIN KARA 090010Z 01016KT 10SM FEW044 BKN100 BKN110 08/01 A3040 -410 62 -1300 010/16 RMK AO2 RAE05 P0000 T00780011 $
53915KARA ARA20161208181512912/08/16 18:15:31  5-MIN KARA 090015Z 02016KT 10SM FEW044 OVC100 08/01 A3040 -410 60 -1300 020/16 RMK AO2 RAE05 P0000 T00780006 $
53915KARA ARA20161208182012912/08/16 18:20:31  5-MIN KARA 090020Z 02017KT 10SM FEW044 BKN100 08/01 A3040 -410 60 -1300 020/17 RMK AO2 RAE05 P0000 T00780006 $
53915KARA ARA20161208182512812/08/16 18:25:31  5-MIN KARA 090025Z 02013G22KT 10SM BKN100 08/01 A3040 -410 60 -1300 020/13G22 RMK AO2 RAE05 P0000 T00780006 $
53915KARA ARA20161208183012812/08/16 18:30:31  5-MIN KARA 090030Z 02017G21KT 10SM BKN100 08/01 A3040 -410 60 -1300 020/17G21 RMK AO2 RAE05 P0000 T00780006 $
53915KARA ARA20161208183512812/08/16 18:35:31  5-MIN KARA 090035Z 02013G21KT 10SM BKN100 08/01 A3041 -420 60 -1300 020/13G21 RMK AO2 RAE05 P0000 T00780006 $
53915KARA ARA20161208184012912/08/16 18:40:31  5-MIN KARA 090040Z 01015KT 10SM BKN110 08/01 A3042 -430 58 -1300 360/15 RMK AO2 RAE05 PRESRR P0000 T00830006 $
53915KARA ARA20161208184512212/08/16 18:45:31  5-MIN KARA 090045Z 02015KT 10SM BKN110 08/01 A3042 -430 58 -1300 020/15 RMK AO2 RAE05 P0000 T00830006 $
53915KARA ARA20161208185014912/08/16 18:50:31  5-MIN KARA 090050Z 02018G21KT 10SM FEW075 FEW090 OVC110 08/00 A3042 -430 55 -1200 010/18G21 RMK AO2 RAE05 SLP299 P0000 T00830000 $
53915KARA ARA20161208185513312/08/16 18:55:31  5-MIN KARA 090055Z 01013G21KT 10SM -RA FEW080 OVC110 08/01 A3043 -430 60 -1300 010/13G21 RMK AO2 P0000 T00780006 $
53915KARA ARA20161208190012712/08/16 19:00:31  5-MIN KARA 090100Z 01013KT 10SM -RA FEW090 BKN110 08/01 A3043 -440 60 -1300 010/13 RMK AO2 P0000 T00780006 $
53915KARA ARA20161208190512712/08/16 19:05:31  5-MIN KARA 090105Z 01014KT 10SM -RA FEW090 BKN110 08/00 A3044 -440 58 -1300 010/14 RMK AO2 P0000 T00780000 $
53915KARA ARA20161208191012912/08/16 19:10:31  5-MIN KARA 090110Z 01013KT 10SM FEW080 BKN110 08/00 A3044 -450 58 -1300 010/13 RMK AO2 RAE06 P0000 T00780000 $
53915KARA ARA20161208191512912/08/16 19:15:31  5-MIN KARA 090115Z 01017KT 10SM FEW080 SCT110 08/00 A3044 -450 58 -1300 010/17 RMK AO2 RAE06 P0000 T00780000 $
53915KARA ARA20161208192012212/08/16 19:20:31  5-MIN KARA 090120Z 02016KT 10SM FEW110 08/00 A3044 -450 58 -1300 010/16 RMK AO2 RAE06 P0000 T00780000 $
53915KARA ARA20161208192512312/08/16 19:25:31  5-MIN KARA 090125Z 01015KT 10SM FEW120 08/M01 A3045 -450 55 -1300 010/15 RMK AO2 RAE06 P0000 T00781006 $
53915KARA ARA20161208193012212/08/16 19:30:31  5-MIN KARA 090130Z 01011KT 10SM FEW110 08/00 A3045 -460 58 -1400 010/11 RMK AO2 RAE06 P0000 T00780000 $
53915KARA ARA20161208193512512/08/16 19:35:31  5-MIN KARA 090135Z 01015G19KT 10SM CLR 07/00 A3045 -460 60 -1400 010/15G19 RMK AO2 RAE06 P0000 T00720000 $
53915KARA ARA20161208194012612/08/16 19:40:31  5-MIN KARA 090140Z 02018G23KT 10SM CLR 08/M01 A3045 -460 55 -1400 020/18G23 RMK AO2 RAE06 P0000 T00781006 $
53915KARA ARA20161208194512612/08/16 19:45:31  5-MIN KARA 090145Z 01015G23KT 10SM CLR 07/M01 A3045 -450 57 -1400 010/15G23 RMK AO2 RAE06 P0000 T00721006 $
53915KARA ARA20161208195012712/08/16 19:50:31  5-MIN KARA 090150Z 01014KT 10SM CLR 07/M01 A3046 -460 57 -1400 010/14 RMK AO2 RAE06 SLP312 P0000 T00721006 $
53915KARA ARA20161208195510812/08/16 19:55:31  5-MIN KARA 090155Z 01015KT 10SM CLR 07/M01 A3046 -470 57 -1400 010/15 RMK AO2 T00721006 $
53915KARA ARA20161208200010812/08/16 20:00:31  5-MIN KARA 090200Z 01016KT 10SM CLR 07/M01 A3046 -470 57 -1400 010/16 RMK AO2 T00721006 $
53915KARA ARA20161208200510812/08/16 20:05:31  5-MIN KARA 090205Z 01014KT 10SM CLR 07/M01 A3047 -470 57 -1400 010/14 RMK AO2 T00721006 $
53915KARA ARA20161208201010812/08/16 20:10:31  5-MIN KARA 090210Z 01014KT 10SM CLR 07/M01 A3046 -470 57 -1400 010/14 RMK AO2 T00721006 $
53915KARA ARA20161208201510812/08/16 20:15:31  5-MIN KARA 090215Z 02014KT 10SM CLR 07/M01 A3046 -470 57 -1400 020/14 RMK AO2 T00721006 $
53915KARA ARA20161208202011412/08/16 20:20:31  5-MIN KARA 090220Z 02014G24KT 10SM CLR 07/M01 A3046 -470 57 -1400 010/14G24 RMK AO2 T00721006 $
53915KARA ARA20161208202511412/08/16 20:25:31  5-MIN KARA 090225Z 02015G24KT 10SM CLR 07/M01 A3046 -470 57 -1400 020/15G24 RMK AO2 T00721006 $
53915KARA ARA20161208203011412/08/16 20:30:31  5-MIN KARA 090230Z 02018G22KT 10SM CLR 07/M01 A3046 -470 57 -1400 020/18G22 RMK AO2 T00721006 $
53915KARA ARA20161208203511112/08/16 20:35:31  5-MIN KARA 090235Z 02016KT 10SM FEW120 07/M01 A3047 -470 55 -1400 020/16 RMK AO2 T00721011 $
53915KARA ARA20161208204012212/08/16 20:40:31  5-MIN KARA 090240Z AUTO 02018G23KT 10SM FEW120 07/M01 A3047 -470 55 -1400 020/18G23 RMK AO2 T00721011 $
53915KARA ARA20161208204511912/08/16 20:45:31  5-MIN KARA 090245Z AUTO 02015G23KT 10SM CLR 07/M01 A3047 -470 55 -1400 020/15G23 RMK AO2 T00721011 $
53915KARA ARA20161208205014112/08/16 20:50:31  5-MIN KARA 090250Z AUTO 02015G23KT 10SM FEW120 07/M01 A3047 -480 55 -1400 020/15G23 RMK AO2 SLP318 60000 T00721011 51023 $
53915KARA ARA20161208205512212/08/16 20:55:31  5-MIN KARA 090255Z AUTO 02015G22KT 10SM FEW120 07/M01 A3047 -470 57 -1400 020/15G22 RMK AO2 T00721006 $
53915KARA ARA20161208210011612/08/16 21:00:31  5-MIN KARA 090300Z AUTO 03015KT 10SM FEW120 07/M01 A3046 -470 57 -1400 030/15 RMK AO2 T00721006 $
53915KARA ARA20161208210511312/08/16 21:05:31  5-MIN KARA 090305Z AUTO 03015KT 10SM CLR 07/M01 A3046 -470 55 -1400 030/15 RMK AO2 T00721011 $
53915KARA ARA20161208211011912/08/16 21:10:31  5-MIN KARA 090310Z AUTO 02016G22KT 10SM CLR 07/M01 A3046 -470 55 -1400 020/16G22 RMK AO2 T00721011 $
53915KARA ARA20161208211511912/08/16 21:15:31  5-MIN KARA 090315Z AUTO 02017G23KT 10SM CLR 07/M01 A3046 -470 55 -1400 020/17G23 RMK AO2 T00721011 $
53915KARA ARA20161208212011912/08/16 21:20:31  5-MIN KARA 090320Z AUTO 02016G24KT 10SM CLR 07/M01 A3046 -470 55 -1400 020/16G24 RMK AO2 T00721011 $
53915KARA ARA20161208212512212/08/16 21:25:31  5-MIN KARA 090325Z AUTO 03019G24KT 10SM SCT120 07/M01 A3046 -470 55 -1400 030/19G24 RMK AO2 T00721011 $
53915KARA ARA20161208213012212/08/16 21:30:31  5-MIN KARA 090330Z AUTO 03018G23KT 10SM SCT120 07/M01 A3047 -470 55 -1400 030/18G23 RMK AO2 T00721011 $
53915KARA ARA20161208213512212/08/16 21:35:31  5-MIN KARA 090335Z AUTO 02015G24KT 10SM FEW120 07/M01 A3047 -480 55 -1400 020/15G24 RMK AO2 T00721011 $
53915KARA ARA20161208214011612/08/16 21:40:31  5-MIN KARA 090340Z AUTO 02011KT 10SM SCT120 07/M01 A3048 -480 55 -1500 020/11 RMK AO2 T00721011 $
53915KARA ARA20161208214512312/08/16 21:45:31  5-MIN KARA 090345Z AUTO 02013KT 10SM SCT120 07/M01 A3049 -490 55 -1500 020/13 RMK AO2 PRESRR T00721011 $
53915KARA ARA20161208215012312/08/16 21:50:31  5-MIN KARA 090350Z AUTO 02013KT 10SM SCT120 07/M01 A3049 -490 55 -1500 020/13 RMK AO2 SLP323 T00721011 $
53915KARA ARA20161208215511612/08/16 21:55:31  5-MIN KARA 090355Z AUTO 02013KT 10SM FEW120 07/M01 A3049 -490 55 -1500 020/13 RMK AO2 T00721011 $
53915KARA ARA20161208220011612/08/16 22:00:31  5-MIN KARA 090400Z AUTO 02013KT 10SM FEW120 07/M01 A3049 -500 55 -1500 010/13 RMK AO2 T00721011 $
53915KARA ARA20161208220512212/08/16 22:05:31  5-MIN KARA 090405Z AUTO 02016G22KT 10SM FEW120 07/M01 A3049 -490 55 -1500 020/16G22 RMK AO2 T00721011 $
53915KARA ARA20161208221012212/08/16 22:10:31  5-MIN KARA 090410Z AUTO 02014G22KT 10SM FEW120 07/M01 A3049 -490 55 -1500 020/14G22 RMK AO2 T00721011 $
53915KARA ARA20161208221511312/08/16 22:15:31  5-MIN KARA 090415Z AUTO 02016KT 10SM CLR 07/M01 A3049 -490 57 -1500 020/16 RMK AO2 T00671011 $
53915KARA ARA20161208222011312/08/16 22:20:31  5-MIN KARA 090420Z AUTO 02014KT 10SM CLR 07/M01 A3049 -490 57 -1500 020/14 RMK AO2 T00671011 $
53915KARA ARA20161208222511312/08/16 22:25:31  5-MIN KARA 090425Z AUTO 02015KT 10SM CLR 07/M02 A3050 -500 55 -1500 020/15 RMK AO2 T00671017 $
53915KARA ARA20161208223011312/08/16 22:30:31  5-MIN KARA 090430Z AUTO 02012KT 10SM CLR 07/M02 A3050 -500 55 -1500 020/12 RMK AO2 T00671017 $
53915KARA ARA20161208223511912/08/16 22:35:31  5-MIN KARA 090435Z AUTO 02012G19KT 10SM CLR 07/M02 A3051 -510 55 -1600 020/12G19 RMK AO2 T00671017 $
53915KARA ARA20161208224012212/08/16 22:40:31  5-MIN KARA 090440Z AUTO 02010G19KT 10SM FEW095 07/M01 A3051 -510 57 -1600 010/10G19 RMK AO2 T00671011 $
53915KARA ARA20161208224511612/08/16 22:45:31  5-MIN KARA 090445Z AUTO 02011KT 10SM FEW095 07/M01 A3050 -500 57 -1500 020/11 RMK AO2 T00671011 $
53915KARA ARA20161208225012312/08/16 22:50:31  5-MIN KARA 090450Z AUTO 02011KT 10SM FEW095 07/M01 A3050 -500 57 -1500 020/11 RMK AO2 SLP328 T00671011 $
53915KARA ARA20161208225511612/08/16 22:55:31  5-MIN KARA 090455Z AUTO 01015KT 10SM FEW095 07/M01 A3050 -500 57 -1500 010/15 RMK AO2 T00671011 $
53915KARA ARA20161208230011612/08/16 23:00:31  5-MIN KARA 090500Z AUTO 02012KT 10SM FEW095 07/M01 A3050 -500 57 -1500 020/12 RMK AO2 T00671011 $
53915KARA ARA20161208230511612/08/16 23:05:31  5-MIN KARA 090505Z AUTO 02014KT 10SM FEW095 07/M02 A3050 -500 55 -1500 020/14 RMK AO2 T00671017 $
53915KARA ARA20161208231011312/08/16 23:10:31  5-MIN KARA 090510Z AUTO 03014KT 10SM CLR 07/M02 A3050 -500 55 -1500 030/14 RMK AO2 T00671017 $
53915KARA ARA20161208231511912/08/16 23:15:31  5-MIN KARA 090515Z AUTO 02014G21KT 10SM CLR 07/M02 A3050 -500 53 -1500 020/14G21 RMK AO2 T00671022 $
53915KARA ARA20161208232011312/08/16 23:20:31  5-MIN KARA 090520Z AUTO 03013KT 10SM CLR 07/M02 A3050 -500 55 -1500 020/13 RMK AO2 T00671017 $
53915KARA ARA20161208232511312/08/16 23:25:31  5-MIN KARA 090525Z AUTO 02012KT 10SM CLR 07/M02 A3050 -500 55 -1500 010/12 RMK AO2 T00671017 $
53915KARA ARA20161208233011312/08/16 23:30:31  5-MIN KARA 090530Z AUTO 02015KT 10SM CLR 07/M02 A3050 -500 55 -1500 020/15 RMK AO2 T00671017 $
53915KARA ARA20161208233511312/08/16 23:35:31  5-MIN KARA 090535Z AUTO 02014KT 10SM CLR 06/M02 A3050 -500 57 -1600 020/14 RMK AO2 T00611017 $
53915KARA ARA20161208234011612/08/16 23:40:31  5-MIN KARA 090540Z AUTO 02017KT 10SM SCT110 06/M02 A3050 -500 55 -1600 020/17 RMK AO2 T00611022 $
53915KARA ARA20161208234512212/08/16 23:45:31  5-MIN KARA 090545Z AUTO 02018G21KT 10SM SCT110 06/M02 A3050 -500 55 -1600 020/18G21 RMK AO2 T00611022 $
53915KARA ARA20161208235016312/08/16 23:50:31  5-MIN KARA 090550Z AUTO 02015G22KT 10SM SCT110 06/M02 A3050 -500 55 -1600 020/15G22 RMK AO2 SLP328 60000 T00611022 10083 20061 401390061 51022 $
53915KARA ARA20161208235512212/08/16 23:55:31  5-MIN KARA 090555Z AUTO 02014G22KT 10SM FEW110 06/M02 A3050 -510 55 -1600 020/14G22 RMK AO2 T00611022 $
53915KARA ARA20161209000011612/09/16 00:00:31  5-MIN KARA 090600Z AUTO 02015KT 10SM SCT110 06/M02 A3051 -510 55 -1600 020/15 RMK AO2 T00611022 $
53915KARA ARA20161209000512212/09/16 00:05:31  5-MIN KARA 090605Z AUTO 02012G20KT 10SM SCT110 06/M02 A3051 -510 55 -1600 020/12G20 RMK AO2 T00611022 $
53915KARA ARA20161209001011612/09/16 00:10:31  5-MIN KARA 090610Z AUTO 01012KT 10SM FEW110 06/M02 A3050 -500 55 -1600 010/12 RMK AO2 T00611022 $
53915KARA ARA20161209001511612/09/16 00:15:31  5-MIN KARA 090615Z AUTO 02014KT 10SM FEW110 06/M02 A3050 -500 55 -1600 020/14 RMK AO2 T00611022 $
53915KARA ARA20161209002011612/09/16 00:20:31  5-MIN KARA 090620Z AUTO 01013KT 10SM FEW100 06/M02 A3050 -500 57 -1600 010/13 RMK AO2 T00611017 $
53915KARA ARA20161209002511612/09/16 00:25:31  5-MIN KARA 090625Z AUTO 01015KT 10SM FEW100 06/M02 A3050 -500 55 -1600 010/15 RMK AO2 T00611022 $
53915KARA ARA20161209003011312/09/16 00:30:31  5-MIN KARA 090630Z AUTO 02014KT 10SM CLR 06/M02 A3050 -500 55 -1600 020/14 RMK AO2 T00611022 $
53915KARA ARA20161209003511312/09/16 00:35:31  5-MIN KARA 090635Z AUTO 01014KT 10SM CLR 06/M02 A3050 -500 55 -1600 010/14 RMK AO2 T00611022 $
53915KARA ARA20161209004011312/09/16 00:40:31  5-MIN KARA 090640Z AUTO 02013KT 10SM CLR 06/M02 A3050 -500 57 -1700 010/13 RMK AO2 T00561022 $
53915KARA ARA20161209004511612/09/16 00:45:31  5-MIN KARA 090645Z AUTO 01012KT 10SM FEW095 06/M02 A3050 -500 57 -1700 010/12 RMK AO2 T00561022 $
53915KARA ARA20161209005012312/09/16 00:50:31  5-MIN KARA 090650Z AUTO 02012KT 10SM FEW090 06/M03 A3050 -500 55 -1700 020/12 RMK AO2 SLP326 T00561028 $
53915KARA ARA20161209005511612/09/16 00:55:31  5-MIN KARA 090655Z AUTO 02014KT 10SM FEW090 06/M03 A3050 -500 55 -1700 020/14 RMK AO2 T00561028 $
53915KARA ARA20161209010012212/09/16 01:00:31  5-MIN KARA 090700Z AUTO 02017G22KT 10SM FEW090 06/M03 A3050 -500 53 -1700 020/17G22 RMK AO2 T00561033 $
53915KARA ARA20161209010512212/09/16 01:05:31  5-MIN KARA 090705Z AUTO 02018G22KT 10SM FEW090 06/M04 A3050 -500 50 -1700 020/18G22 RMK AO2 T00561039 $
53915KARA ARA20161209011012312/09/16 01:10:31  5-MIN KARA 090710Z AUTO 02014KT 10SM FEW090 FEW110 06/M04 A3049 -500 50 -1700 020/14 RMK AO2 T00561039 $
53915KARA ARA20161209011512312/09/16 01:15:31  5-MIN KARA 090715Z AUTO 01013KT 10SM SCT090 SCT110 06/M04 A3050 -500 50 -1700 010/13 RMK AO2 T00561039 $
53915KARA ARA20161209012011612/09/16 01:20:31  5-MIN KARA 090720Z AUTO 01016KT 10SM SCT100 06/M04 A3050 -500 50 -1700 010/16 RMK AO2 T00561039 $
53915KARA ARA20161209012512312/09/16 01:25:31  5-MIN KARA 090725Z AUTO 02016KT 10SM FEW090 FEW110 06/M04 A3050 -500 48 -1700 020/16 RMK AO2 T00561044 $
53915KARA ARA20161209013011612/09/16 01:30:31  5-MIN KARA 090730Z AUTO 02014KT 10SM FEW100 06/M04 A3051 -510 48 -1700 020/14 RMK AO2 T00561044 $
53915KARA ARA20161209013512212/09/16 01:35:31  5-MIN KARA 090735Z AUTO 02017G22KT 10SM FEW100 05/M04 A3050 -500 50 -1800 020/17G22 RMK AO2 T00501044 $
53915KARA ARA20161209014012212/09/16 01:40:31  5-MIN KARA 090740Z AUTO 02017G22KT 10SM FEW095 05/M04 A3050 -500 50 -1700 020/17G22 RMK AO2 T00501044 $
53915KARA ARA20161209014511312/09/16 01:45:31  5-MIN KARA 090745Z AUTO 02016KT 10SM CLR 05/M04 A3050 -500 50 -1800 010/16 RMK AO2 T00501044 $
53915KARA ARA20161209015012012/09/16 01:50:31  5-MIN KARA 090750Z AUTO 02015KT 10SM CLR 05/M04 A3050 -500 50 -1800 010/15 RMK AO2 SLP328 T00501044 $
53915KARA ARA20161209015511312/09/16 01:55:31  5-MIN KARA 090755Z AUTO 02017KT 10SM CLR 05/M04 A3050 -500 50 -1800 020/17 RMK AO2 T00501044 $
53915KARA ARA20161209020011312/09/16 02:00:31  5-MIN KARA 090800Z AUTO 02014KT 10SM CLR 05/M04 A3050 -500 50 -1700 020/14 RMK AO2 T00501044 $
53915KARA ARA20161209020511312/09/16 02:05:31  5-MIN KARA 090805Z AUTO 02015KT 10SM CLR 05/M04 A3050 -500 50 -1700 020/15 RMK AO2 T00501044 $
53915KARA ARA20161209021011912/09/16 02:10:31  5-MIN KARA 090810Z AUTO 02014G22KT 10SM CLR 05/M04 A3050 -500 50 -1700 020/14G22 RMK AO2 T00501044 $
53915KARA ARA20161209021511912/09/16 02:15:31  5-MIN KARA 090815Z AUTO 02015G22KT 10SM CLR 05/M04 A3050 -500 50 -1800 020/15G22 RMK AO2 T00501044 $
53915KARA ARA20161209022011312/09/16 02:20:31  5-MIN KARA 090820Z AUTO 01014KT 10SM CLR 05/M04 A3050 -500 50 -1800 010/14 RMK AO2 T00501044 $
53915KARA ARA20161209022511612/09/16 02:25:31  5-MIN KARA 090825Z AUTO 02014KT 10SM FEW110 05/M04 A3050 -500 50 -1800 020/14 RMK AO2 T00501044 $
53915KARA ARA20161209023011612/09/16 02:30:31  5-MIN KARA 090830Z AUTO 02014KT 10SM FEW110 05/M04 A3050 -500 50 -1700 020/14 RMK AO2 T00501044 $
53915KARA ARA20161209023511612/09/16 02:35:31  5-MIN KARA 090835Z AUTO 02013KT 10SM SCT110 05/M04 A3050 -500 50 -1700 010/13 RMK AO2 T00501044 $
53915KARA ARA20161209024011612/09/16 02:40:31  5-MIN KARA 090840Z AUTO 02014KT 10SM BKN110 05/M04 A3050 -500 50 -1800 010/14 RMK AO2 T00501044 $
53915KARA ARA20161209024511612/09/16 02:45:31  5-MIN KARA 090845Z AUTO 02013KT 10SM BKN110 05/M04 A3050 -510 50 -1800 020/13 RMK AO2 T00501044 $
53915KARA ARA20161209025012912/09/16 02:50:31  5-MIN KARA 090850Z AUTO 02015KT 10SM BKN110 05/M04 A3051 -510 50 -1800 020/15 RMK AO2 SLP329 T00501044 51012 $
53915KARA ARA20161209025511612/09/16 02:55:31  5-MIN KARA 090855Z AUTO 02014KT 10SM SCT110 04/M04 A3051 -510 52 -1800 020/14 RMK AO2 T00441044 $
53915KARA ARA20161209030011612/09/16 03:00:31  5-MIN KARA 090900Z AUTO 02014KT 10SM SCT110 04/M04 A3051 -510 52 -1800 020/14 RMK AO2 T00441044 $
53915KARA ARA20161209030511612/09/16 03:05:31  5-MIN KARA 090905Z AUTO 02015KT 10SM FEW110 04/M04 A3051 -510 52 -1800 020/15 RMK AO2 T00441044 $
53915KARA ARA20161209031011612/09/16 03:10:31  5-MIN KARA 090910Z AUTO 02016KT 10SM FEW110 04/M05 A3051 -510 50 -1800 020/16 RMK AO2 T00441050 $
53915KARA ARA20161209031511312/09/16 03:15:31  5-MIN KARA 090915Z AUTO 02016KT 10SM CLR 04/M05 A3051 -510 50 -1800 020/16 RMK AO2 T00441050 $
53915KARA ARA20161209032011312/09/16 03:20:31  5-MIN KARA 090920Z AUTO 02013KT 10SM CLR 04/M05 A3051 -510 50 -1800 020/13 RMK AO2 T00441050 $
53915KARA ARA20161209032511312/09/16 03:25:31  5-MIN KARA 090925Z AUTO 02013KT 10SM CLR 04/M04 A3051 -510 52 -1800 010/13 RMK AO2 T00441044 $
53915KARA ARA20161209033011312/09/16 03:30:31  5-MIN KARA 090930Z AUTO 01013KT 10SM CLR 04/M05 A3051 -510 50 -1800 010/13 RMK AO2 T00441050 $
53915KARA ARA20161209033511612/09/16 03:35:31  5-MIN KARA 090935Z AUTO 02013KT 10SM FEW100 04/M05 A3051 -510 50 -1800 010/13 RMK AO2 T00441050 $
53915KARA ARA20161209034011612/09/16 03:40:31  5-MIN KARA 090940Z AUTO 01011KT 10SM SCT100 04/M05 A3052 -520 52 -1900 010/11 RMK AO2 T00391050 $
53915KARA ARA20161209034511612/09/16 03:45:31  5-MIN KARA 090945Z AUTO 01012KT 10SM BKN100 04/M05 A3051 -510 52 -1900 010/12 RMK AO2 T00391050 $
53915KARA ARA20161209035012312/09/16 03:50:31  5-MIN KARA 090950Z AUTO 01013KT 10SM SCT100 04/M05 A3051 -510 52 -1900 010/13 RMK AO2 SLP331 T00391050 $
53915KARA ARA20161209035511612/09/16 03:55:31  5-MIN KARA 090955Z AUTO 01012KT 10SM SCT100 04/M05 A3051 -510 52 -1900 010/12 RMK AO2 T00391050 $
53915KARA ARA20161209040011612/09/16 04:00:31  5-MIN KARA 091000Z AUTO 02012KT 10SM SCT100 04/M05 A3051 -510 52 -1900 010/12 RMK AO2 T00391050 $
53915KARA ARA20161209040511612/09/16 04:05:31  5-MIN KARA 091005Z AUTO 02012KT 10SM FEW100 04/M05 A3051 -510 52 -1900 010/12 RMK AO2 T00391050 $
53915KARA ARA20161209041011612/09/16 04:10:31  5-MIN KARA 091010Z AUTO 02012KT 10SM FEW100 04/M05 A3051 -510 52 -1900 020/12 RMK AO2 T00391050 $
53915KARA ARA20161209041511312/09/16 04:15:31  5-MIN KARA 091015Z AUTO 02011KT 10SM CLR 03/M05 A3051 -510 54 -2000 010/11 RMK AO2 T00331050 $
53915KARA ARA20161209042011312/09/16 04:20:31  5-MIN KARA 091020Z AUTO 02012KT 10SM CLR 03/M05 A3051 -510 54 -2000 010/12 RMK AO2 T00331050 $
53915KARA ARA20161209042511312/09/16 04:25:31  5-MIN KARA 091025Z AUTO 01011KT 10SM CLR 03/M05 A3051 -510 54 -2000 010/11 RMK AO2 T00331050 $
53915KARA ARA20161209043011312/09/16 04:30:31  5-MIN KARA 091030Z AUTO 02011KT 10SM CLR 03/M05 A3051 -510 54 -2000 020/11 RMK AO2 T00331050 $
53915KARA ARA20161209043511312/09/16 04:35:31  5-MIN KARA 091035Z AUTO 02010KT 10SM CLR 03/M05 A3051 -510 54 -2000 020/10 RMK AO2 T00331050 $
53915KARA ARA20161209044011312/09/16 04:40:31  5-MIN KARA 091040Z AUTO 02010KT 10SM CLR 03/M05 A3051 -510 54 -2000 010/10 RMK AO2 T00331050 $
53915KARA ARA20161209044511312/09/16 04:45:31  5-MIN KARA 091045Z AUTO 02011KT 10SM CLR 03/M05 A3051 -510 54 -2000 020/11 RMK AO2 T00331050 $
53915KARA ARA20161209045012612/09/16 04:50:31  5-MIN KARA 091050Z AUTO 02014G18KT 10SM CLR 03/M05 A3051 -510 54 -2000 020/14G18 RMK AO2 SLP332 T00331050 $
53915KARA ARA20161209045511312/09/16 04:55:31  5-MIN KARA 091055Z AUTO 02015KT 10SM CLR 03/M06 A3051 -510 52 -2000 020/15 RMK AO2 T00331056 $
53915KARA ARA20161209050012212/09/16 05:00:31  5-MIN KARA 091100Z AUTO 02015G22KT 10SM FEW120 03/M06 A3051 -510 52 -2000 020/15G22 RMK AO2 T00331056 $
53915KARA ARA20161209050512212/09/16 05:05:31  5-MIN KARA 091105Z AUTO 02014G22KT 10SM FEW120 03/M06 A3051 -510 50 -2000 020/14G22 RMK AO2 T00331061 $
53915KARA ARA20161209051012212/09/16 05:10:31  5-MIN KARA 091110Z AUTO 02016G22KT 10SM FEW120 03/M06 A3051 -510 50 -2000 020/16G22 RMK AO2 T00331061 $
53915KARA ARA20161209051512212/09/16 05:15:31  5-MIN KARA 091115Z AUTO 02013G22KT 10SM FEW120 03/M06 A3052 -520 50 -2000 020/13G22 RMK AO2 T00331061 $
53915KARA ARA20161209052011612/09/16 05:20:31  5-MIN KARA 091120Z AUTO 02010KT 10SM FEW120 03/M06 A3052 -520 52 -2000 020/10 RMK AO2 T00331056 $
53915KARA ARA20161209052511612/09/16 05:25:31  5-MIN KARA 091125Z AUTO 02012KT 10SM FEW120 03/M06 A3052 -520 50 -2000 020/12 RMK AO2 T00331061 $
53915KARA ARA20161209053011312/09/16 05:30:31  5-MIN KARA 091130Z AUTO 02014KT 10SM CLR 03/M06 A3052 -520 50 -2000 020/14 RMK AO2 T00331061 $
53915KARA ARA20161209053511312/09/16 05:35:31  5-MIN KARA 091135Z AUTO 02013KT 10SM CLR 03/M06 A3052 -520 50 -2000 020/13 RMK AO2 T00331061 $
53915KARA ARA20161209054010812/09/16 05:40:31  5-MIN KARA 091140Z 03015KT 10SM CLR 03/M06 A3052 -520 50 -2000 020/15 RMK AO2 T00331061 $
53915KARA ARA20161209054510812/09/16 05:45:31  5-MIN KARA 091145Z 02013KT 10SM CLR 03/M07 A3052 -520 48 -2000 020/13 RMK AO2 T00331067 $
53915KARA ARA20161209055013912/09/16 05:50:31  5-MIN KARA 091150Z 02014KT 10SM CLR 03/M07 A3052 -520 48 -2000 020/14 RMK AO2 SLP335 7//// T00331067 10061 20033 53001 $
53915KARA ARA20161209055511412/09/16 05:55:31  5-MIN KARA 091155Z 02013G20KT 10SM CLR 03/M07 A3053 -520 48 -2000 020/13G20 RMK AO2 T00331067 $
53915KARA ARA20161209060011412/09/16 06:00:31  5-MIN KARA 091200Z 02014G20KT 10SM CLR 03/M07 A3053 -530 50 -2100 020/14G20 RMK AO2 T00281067 $
53915KARA ARA20161209060510812/09/16 06:05:31  5-MIN KARA 091205Z 02016KT 10SM CLR 03/M07 A3053 -530 50 -2100 020/16 RMK AO2 T00281067 $
53915KARA ARA20161209061010812/09/16 06:10:31  5-MIN KARA 091210Z 02014KT 10SM CLR 03/M07 A3053 -530 50 -2100 020/14 RMK AO2 T00281067 $
53915KARA ARA20161209061510812/09/16 06:15:31  5-MIN KARA 091215Z 02013KT 10SM CLR 03/M07 A3053 -530 50 -2100 020/13 RMK AO2 T00281067 $
53915KARA ARA20161209062010812/09/16 06:20:31  5-MIN KARA 091220Z 03013KT 10SM CLR 03/M07 A3053 -530 50 -2100 030/13 RMK AO2 T00281067 $
53915KARA ARA20161209062510812/09/16 06:25:31  5-MIN KARA 091225Z 03013KT 10SM CLR 02/M07 A3054 -530 52 -2100 030/13 RMK AO2 T00221067 $
53915KARA ARA20161209063010812/09/16 06:30:31  5-MIN KARA 091230Z 02012KT 10SM CLR 02/M07 A3054 -530 52 -2100 020/12 RMK AO2 T00221067 $
53915KARA ARA20161209063510812/09/16 06:35:31  5-MIN KARA 091235Z 02015KT 10SM CLR 02/M07 A3054 -530 52 -2100 020/15 RMK AO2 T00221067 $
53915KARA ARA20161209064010812/09/16 06:40:31  5-MIN KARA 091240Z 02011KT 10SM CLR 02/M07 A3054 -540 50 -2100 020/11 RMK AO2 T00221072 $
53915KARA ARA20161209064510812/09/16 06:45:31  5-MIN KARA 091245Z 02013KT 10SM CLR 02/M07 A3054 -540 52 -2100 010/13 RMK AO2 T00221067 $
53915KARA ARA20161209065011512/09/16 06:50:31  5-MIN KARA 091250Z 02014KT 10SM CLR 02/M07 A3055 -540 50 -2200 020/14 RMK AO2 SLP343 T00221072 $
53915KARA ARA20161209065510812/09/16 06:55:31  5-MIN KARA 091255Z 03015KT 10SM CLR 02/M07 A3055 -550 50 -2200 030/15 RMK AO2 T00221072 $
53915KARA ARA20161209070011412/09/16 07:00:31  5-MIN KARA 091300Z 03015G20KT 10SM CLR 02/M07 A3055 -550 50 -2200 030/15G20 RMK AO2 T00221072 $
53915KARA ARA20161209070510812/09/16 07:05:31  5-MIN KARA 091305Z 03011KT 10SM CLR 02/M07 A3055 -550 50 -2200 020/11 RMK AO2 T00221072 $
53915KARA ARA20161209071010812/09/16 07:10:31  5-MIN KARA 091310Z 03011KT 10SM CLR 02/M07 A3055 -550 52 -2200 030/11 RMK AO2 T00221067 $
53915KARA ARA20161209071511412/09/16 07:15:31  5-MIN KARA 091315Z 03015G19KT 10SM CLR 02/M07 A3055 -550 50 -2200 030/15G19 RMK AO2 T00221072 $
53915KARA ARA20161209072010812/09/16 07:20:31  5-MIN KARA 091320Z 03015KT 10SM CLR 02/M07 A3055 -550 50 -2200 030/15 RMK AO2 T00221072 $
53915KARA ARA20161209072510812/09/16 07:25:31  5-MIN KARA 091325Z 03012KT 10SM CLR 02/M07 A3055 -550 50 -2200 030/12 RMK AO2 T00221072 $
53915KARA ARA20161209073011412/09/16 07:30:31  5-MIN KARA 091330Z 03016G21KT 10SM CLR 02/M07 A3055 -550 50 -2200 030/16G21 RMK AO2 T00221072 $
53915KARA ARA20161209073511412/09/16 07:35:31  5-MIN KARA 091335Z 03016G21KT 10SM CLR 02/M07 A3055 -550 50 -2200 030/16G21 RMK AO2 T00221072 $
53915KARA ARA20161209074011412/09/16 07:40:31  5-MIN KARA 091340Z 03014G22KT 10SM CLR 02/M07 A3056 -550 50 -2200 020/14G22 RMK AO2 T00221072 $
53915KARA ARA20161209074511412/09/16 07:45:31  5-MIN KARA 091345Z 03013G22KT 10SM CLR 02/M07 A3056 -560 50 -2200 030/13G22 RMK AO2 T00221072 $
53915KARA ARA20161209075011512/09/16 07:50:31  5-MIN KARA 091350Z 03015KT 10SM CLR 03/M07 A3056 -560 48 -2100 030/15 RMK AO2 SLP349 T00281072 $
53915KARA ARA20161209075510812/09/16 07:55:31  5-MIN KARA 091355Z 04015KT 10SM CLR 03/M07 A3056 -560 48 -2100 040/15 RMK AO2 T00281072 $
53915KARA ARA20161209080010812/09/16 08:00:31  5-MIN KARA 091400Z 04015KT 10SM CLR 03/M07 A3056 -560 48 -2100 030/15 RMK AO2 T00281072 $
53915KARA ARA20161209080510812/09/16 08:05:31  5-MIN KARA 091405Z 03015KT 10SM CLR 03/M07 A3057 -560 48 -2100 030/15 RMK AO2 T00281072 $
53915KARA ARA20161209081010812/09/16 08:10:31  5-MIN KARA 091410Z 03011KT 10SM CLR 03/M07 A3057 -560 48 -2000 030/11 RMK AO2 T00331067 $
53915KARA ARA20161209081510812/09/16 08:15:31  5-MIN KARA 091415Z 03014KT 10SM CLR 03/M07 A3057 -570 46 -2000 020/14 RMK AO2 T00331072 $
53915KARA ARA20161209082010812/09/16 08:20:31  5-MIN KARA 091420Z 03015KT 10SM CLR 03/M07 A3058 -570 46 -2000 030/15 RMK AO2 T00331072 $
53915KARA ARA20161209082510812/09/16 08:25:31  5-MIN KARA 091425Z 03014KT 10SM CLR 03/M07 A3058 -570 46 -2000 030/14 RMK AO2 T00331072 $
53915KARA ARA20161209083011412/09/16 08:30:31  5-MIN KARA 091430Z 04014G20KT 10SM CLR 03/M07 A3058 -580 46 -2100 040/14G20 RMK AO2 T00331072 $
53915KARA ARA20161209083510812/09/16 08:35:31  5-MIN KARA 091435Z 04014KT 10SM CLR 04/M07 A3058 -570 44 -2000 040/14 RMK AO2 T00391072 $
53915KARA ARA20161209084010812/09/16 08:40:31  5-MIN KARA 091440Z 05012KT 10SM CLR 04/M07 A3058 -570 44 -2000 040/12 RMK AO2 T00391072 $
53915KARA ARA20161209084510812/09/16 08:45:31  5-MIN KARA 091445Z 04012KT 10SM CLR 04/M07 A3058 -580 44 -2000 040/12 RMK AO2 T00391072 $
53915KARA ARA20161209085012112/09/16 08:50:31  5-MIN KARA 091450Z 03015KT 10SM CLR 04/M07 A3058 -570 44 -2000 030/15 RMK AO2 SLP354 T00391072 53006 $
53915KARA ARA20161209085510812/09/16 08:55:31  5-MIN KARA 091455Z 04014KT 10SM CLR 04/M07 A3058 -580 44 -2000 040/14 RMK AO2 T00391072 $
53915KARA ARA20161209090010812/09/16 09:00:31  5-MIN KARA 091500Z 04015KT 10SM CLR 04/M07 A3058 -570 42 -1900 040/15 RMK AO2 T00441072 $
53915KARA ARA20161209090510812/09/16 09:05:31  5-MIN KARA 091505Z 04014KT 10SM CLR 04/M08 A3058 -580 41 -1900 040/14 RMK AO2 T00441078 $
53915KARA ARA20161209091010812/09/16 09:10:31  5-MIN KARA 091510Z 04012KT 10SM CLR 04/M07 A3058 -580 42 -1900 040/12 RMK AO2 T00441072 $
53915KARA ARA20161209091510812/09/16 09:15:31  5-MIN KARA 091515Z 04013KT 10SM CLR 05/M07 A3058 -580 41 -1800 040/13 RMK AO2 T00501072 $
53915KARA ARA20161209092010812/09/16 09:20:31  5-MIN KARA 091520Z 03015KT 10SM CLR 05/M07 A3058 -580 41 -1800 030/15 RMK AO2 T00501072 $
53915KARA ARA20161209092510812/09/16 09:25:31  5-MIN KARA 091525Z 03013KT 10SM CLR 05/M07 A3058 -580 41 -1800 030/13 RMK AO2 T00501072 $
53915KARA ARA20161209093010812/09/16 09:30:31  5-MIN KARA 091530Z 05012KT 10SM CLR 06/M07 A3059 -580 41 -1800 050/12 RMK AO2 T00561067 $
53915KARA ARA20161209093510812/09/16 09:35:31  5-MIN KARA 091535Z 05013KT 10SM CLR 05/M07 A3059 -580 41 -1900 050/13 RMK AO2 T00501072 $
53915KARA ARA20161209094010812/09/16 09:40:31  5-MIN KARA 091540Z 03013KT 10SM CLR 06/M07 A3059 -580 39 -1800 030/13 RMK AO2 T00561072 $
53915KARA ARA20161209094510812/09/16 09:45:31  5-MIN KARA 091545Z 02010KT 10SM CLR 06/M07 A3059 -590 39 -1800 020/10 RMK AO2 T00561072 $
53915KARA ARA20161209095011512/09/16 09:50:31  5-MIN KARA 091550Z 04009KT 10SM CLR 06/M07 A3059 -590 39 -1800 040/09 RMK AO2 SLP359 T00561072 $
53915KARA ARA20161209095510812/09/16 09:55:31  5-MIN KARA 091555Z 05012KT 10SM CLR 06/M07 A3059 -590 39 -1700 040/12 RMK AO2 T00611067 $
53915KARA ARA20161209100010812/09/16 10:00:31  5-MIN KARA 091600Z 03011KT 10SM CLR 06/M07 A3059 -590 38 -1700 030/11 RMK AO2 T00611072 $
53915KARA ARA20161209100510812/09/16 10:05:31  5-MIN KARA 091605Z 03011KT 10SM CLR 06/M07 A3059 -590 38 -1700 030/11 RMK AO2 T00611072 $
53915KARA ARA20161209101010812/09/16 10:10:31  5-MIN KARA 091610Z 03010KT 10SM CLR 06/M07 A3059 -580 38 -1700 030/10 RMK AO2 T00611072 $
53915KARA ARA20161209101510812/09/16 10:15:31  5-MIN KARA 091615Z 03012KT 10SM CLR 06/M07 A3059 -580 38 -1700 030/12 RMK AO2 T00611072 $
53915KARA ARA20161209102010812/09/16 10:20:31  5-MIN KARA 091620Z 04013KT 10SM CLR 07/M07 A3058 -580 36 -1600 030/13 RMK AO2 T00671072 $
53915KARA ARA20161209102510812/09/16 10:25:31  5-MIN KARA 091625Z 03013KT 10SM CLR 07/M07 A3058 -580 36 -1600 030/13 RMK AO2 T00671072 $
53915KARA ARA20161209103010812/09/16 10:30:31  5-MIN KARA 091630Z 04012KT 10SM CLR 07/M07 A3058 -580 36 -1600 040/12 RMK AO2 T00671072 $
53915KARA ARA20161209103510812/09/16 10:35:31  5-MIN KARA 091635Z 06010KT 10SM CLR 07/M07 A3058 -580 36 -1600 050/10 RMK AO2 T00671072 $
53915KARA ARA20161209104010812/09/16 10:40:31  5-MIN KARA 091640Z 03011KT 10SM CLR 07/M07 A3058 -570 35 -1600 030/11 RMK AO2 T00721072 $
53915KARA ARA20161209104510812/09/16 10:45:31  5-MIN KARA 091645Z 03013KT 10SM CLR 07/M07 A3058 -570 35 -1600 020/13 RMK AO2 T00721072 $
53915KARA ARA20161209105011512/09/16 10:50:31  5-MIN KARA 091650Z 03012KT 10SM CLR 07/M07 A3058 -570 35 -1600 030/12 RMK AO2 SLP353 T00721072 $
53915KARA ARA20161209105510812/09/16 10:55:31  5-MIN KARA 091655Z 05013KT 10SM CLR 07/M07 A3058 -570 35 -1600 050/13 RMK AO2 T00721072 $
53915KARA ARA20161209110010812/09/16 11:00:31  5-MIN KARA 091700Z 05012KT 10SM CLR 08/M07 A3057 -570 34 -1500 050/12 RMK AO2 T00781072 $
53915KARA ARA20161209110510812/09/16 11:05:31  5-MIN KARA 091705Z 01011KT 10SM CLR 08/M07 A3057 -560 34 -1500 010/11 RMK AO2 T00781072 $
53915KARA ARA20161209111010812/09/16 11:10:31  5-MIN KARA 091710Z 01014KT 10SM CLR 08/M07 A3057 -560 34 -1500 010/14 RMK AO2 T00781072 $
53915KARA ARA20161209111510812/09/16 11:15:31  5-MIN KARA 091715Z 02011KT 10SM CLR 08/M07 A3056 -560 34 -1500 020/11 RMK AO2 T00781072 $
53915KARA ARA20161209112011412/09/16 11:20:31  5-MIN KARA 091720Z 04011G17KT 10SM CLR 08/M07 A3056 -560 34 -1500 040/11G17 RMK AO2 T00781072 $
53915KARA ARA20161209112510812/09/16 11:25:31  5-MIN KARA 091725Z 03015KT 10SM CLR 08/M07 A3056 -550 34 -1400 030/15 RMK AO2 T00831067 $
53915KARA ARA20161209113011412/09/16 11:30:31  5-MIN KARA 091730Z 03013G17KT 10SM CLR 08/M07 A3055 -550 34 -1400 030/13G17 RMK AO2 T00831067 $
53915KARA ARA20161209113510812/09/16 11:35:31  5-MIN KARA 091735Z 03012KT 10SM CLR 09/M07 A3054 -540 32 -1300 020/12 RMK AO2 T00891067 $
53915KARA ARA20161209114010812/09/16 11:40:31  5-MIN KARA 091740Z 01013KT 10SM CLR 09/M07 A3054 -540 31 -1300 010/13 RMK AO2 T00891072 $
53915KARA ARA20161209114510812/09/16 11:45:31  5-MIN KARA 091745Z 04012KT 10SM CLR 09/M07 A3054 -540 32 -1300 040/12 RMK AO2 T00891067 $
53915KARA ARA20161209115013312/09/16 11:50:31  5-MIN KARA 091750Z 03012KT 10SM CLR 09/M08 A3054 -530 30 -1300 030/12 RMK AO2 SLP339 T00891078 10089 20022 51019 $
53915KARA ARA20161209115510812/09/16 11:55:31  5-MIN KARA 091755Z 03012KT 10SM CLR 09/M07 A3053 -530 32 -1300 030/12 RMK AO2 T00891067 $
53915KARA ARA20161209120010812/09/16 12:00:31  5-MIN KARA 091800Z 04011KT 10SM CLR 08/M07 A3053 -530 32 -1400 040/11 RMK AO2 T00831072 $
53915KARA ARA20161209120510812/09/16 12:05:31  5-MIN KARA 091805Z 03015KT 10SM CLR 09/M07 A3052 -520 31 -1300 030/15 RMK AO2 T00891072 $
53915KARA ARA20161209121010812/09/16 12:10:31  5-MIN KARA 091810Z 04013KT 10SM CLR 09/M07 A3052 -520 31 -1300 040/13 RMK AO2 T00891072 $
53915KARA ARA20161209121510812/09/16 12:15:31  5-MIN KARA 091815Z 02014KT 10SM CLR 09/M07 A3051 -510 31 -1200 020/14 RMK AO2 T00941067 $
53915KARA ARA20161209122010812/09/16 12:20:31  5-MIN KARA 091820Z 04013KT 10SM CLR 09/M07 A3051 -510 30 -1200 030/13 RMK AO2 T00941072 $
53915KARA ARA20161209122510812/09/16 12:25:31  5-MIN KARA 091825Z 03014KT 10SM CLR 09/M07 A3051 -510 31 -1200 020/14 RMK AO2 T00941067 $
53915KARA ARA20161209123010812/09/16 12:30:31  5-MIN KARA 091830Z 01014KT 10SM CLR 09/M07 A3050 -500 31 -1200 010/14 RMK AO2 T00941067 $
53915KARA ARA20161209123510812/09/16 12:35:31  5-MIN KARA 091835Z 02013KT 10SM CLR 09/M07 A3050 -500 31 -1200 020/13 RMK AO2 T00941067 $
53915KARA ARA20161209124010812/09/16 12:40:31  5-MIN KARA 091840Z 03013KT 10SM CLR 09/M07 A3050 -500 31 -1200 030/13 RMK AO2 T00941067 $
53915KARA ARA20161209124510812/09/16 12:45:31  5-MIN KARA 091845Z 03011KT 10SM CLR 09/M07 A3050 -500 30 -1200 030/11 RMK AO2 T00941072 $
53915KARA ARA20161209125011512/09/16 12:50:31  5-MIN KARA 091850Z 01014KT 10SM CLR 10/M07 A3049 -490 29 -1100 010/14 RMK AO2 SLP325 T01001072 $
53915KARA ARA20161209125511412/09/16 12:55:31  5-MIN KARA 091855Z 02013G20KT 10SM CLR 10/M07 A3049 -490 29 -1100 020/13G20 RMK AO2 T01001072 $
53915KARA ARA20161209130011412/09/16 13:00:31  5-MIN KARA 091900Z 01010G20KT 10SM CLR 10/M06 A3049 -490 31 -1100 010/10G20 RMK AO2 T01001061 $
53915KARA ARA20161209130510812/09/16 13:05:31  5-MIN KARA 091905Z 04012KT 10SM CLR 10/M07 A3048 -490 30 -1100 040/12 RMK AO2 T01001067 $
53915KARA ARA20161209131010812/09/16 13:10:31  5-MIN KARA 091910Z 02013KT 10SM CLR 10/M07 A3048 -480 30 -1100 020/13 RMK AO2 T01001067 $
53915KARA ARA20161209131510812/09/16 13:15:31  5-MIN KARA 091915Z 02014KT 10SM CLR 10/M07 A3048 -480 30 -1100 020/14 RMK AO2 T01001067 $
53915KARA ARA20161209132010812/09/16 13:20:31  5-MIN KARA 091920Z 03014KT 10SM CLR 10/M07 A3048 -480 30 -1100 030/14 RMK AO2 T01001067 $
53915KARA ARA20161209132510812/09/16 13:25:31  5-MIN KARA 091925Z 01012KT 10SM CLR 10/M07 A3048 -480 30 -1100 010/12 RMK AO2 T01001067 $
53915KARA ARA20161209133010812/09/16 13:30:31  5-MIN KARA 091930Z 03010KT 10SM CLR 10/M07 A3047 -480 30 -1100 030/10 RMK AO2 T01001067 $
53915KARA ARA20161209133510612/09/16 13:35:31  5-MIN KARA 091935Z 02016KT 10SM CLR 10/M07 A3047 -480 30 -1100 010/16 RMK AO2 T01001067
53915KARA ARA20161209134011212/09/16 13:40:31  5-MIN KARA 091940Z 01012G19KT 10SM CLR 11/M07 A3047 -480 29 -1000 010/12G19 RMK AO2 T01061067
53915KARA ARA20161209134511212/09/16 13:45:31  5-MIN KARA 091945Z 02012G19KT 10SM CLR 11/M07 A3048 -480 29 -1000 020/12G19 RMK AO2 T01061067
53915KARA ARA20161209135011312/09/16 13:50:31  5-MIN KARA 091950Z 02013KT 10SM CLR 11/M07 A3048 -480 29 -1000 020/13 RMK AO2 SLP319 T01061067
53915KARA ARA20161209135510612/09/16 13:55:31  5-MIN KARA 091955Z 02013KT 10SM CLR 11/M07 A3048 -480 28 -1000 020/13 RMK AO2 T01111067
53915KARA ARA20161209140010612/09/16 14:00:31  5-MIN KARA 092000Z 03012KT 10SM CLR 11/M07 A3048 -480 29 -1000 030/12 RMK AO2 T01061067
53915KARA ARA20161209140510612/09/16 14:05:31  5-MIN KARA 092005Z 04012KT 10SM CLR 11/M07 A3047 -480 28 -1000 040/12 RMK AO2 T01111067
53915KARA ARA20161209141010612/09/16 14:10:31  5-MIN KARA 092010Z 03011KT 10SM CLR 11/M07 A3048 -480 28 -1000 030/11 RMK AO2 T01111067
53915KARA ARA20161209141510612/09/16 14:15:31  5-MIN KARA 092015Z 03011KT 10SM CLR 11/M07 A3048 -480 29 -1000 030/11 RMK AO2 T01061067
53915KARA ARA20161209142010612/09/16 14:20:31  5-MIN KARA 092020Z 03011KT 10SM CLR 11/M07 A3048 -480 29 -1000 030/11 RMK AO2 T01061067
53915KARA ARA20161209142510612/09/16 14:25:31  5-MIN KARA 092025Z 02011KT 10SM CLR 11/M07 A3048 -480 29 -1000 020/11 RMK AO2 T01061067
53915KARA ARA20161209143010612/09/16 14:30:31  5-MIN KARA 092030Z 01011KT 10SM CLR 11/M07 A3048 -480 29 -1000 010/11 RMK AO2 T01061067
53915KARA ARA20161209143511712/09/16 14:35:31  5-MIN KARA 092035Z AUTO 01010G17KT 10SM CLR 11/M07 A3048 -480 28 -1000 010/10G17 RMK AO2 T01111067
53915KARA ARA20161209144011712/09/16 14:40:31  5-MIN KARA 092040Z AUTO 01009G17KT 10SM CLR 11/M07 A3048 -480 28 -1000 010/09G17 RMK AO2 T01111067
53915KARA ARA20161209144511112/09/16 14:45:31  5-MIN KARA 092045Z AUTO 02010KT 10SM CLR 11/M07 A3048 -480 28 -1000 020/10 RMK AO2 T01111067
53915KARA ARA20161209145012412/09/16 14:50:31  5-MIN KARA 092050Z AUTO 02010KT 10SM CLR 11/M06 A3048 -480 29 -1000 020/10 RMK AO2 SLP320 T01111061 58017
53915KARA ARA20161209145511112/09/16 14:55:31  5-MIN KARA 092055Z AUTO 02008KT 10SM CLR 11/M07 A3048 -480 28 -1000 020/08 RMK AO2 T01111067
53915KARA ARA20161209150011112/09/16 15:00:31  5-MIN KARA 092100Z AUTO 01011KT 10SM CLR 11/M07 A3048 -480 28 -1000 010/11 RMK AO2 T01111067
53915KARA ARA20161209150511112/09/16 15:05:31  5-MIN KARA 092105Z AUTO 36010KT 10SM CLR 11/M07 A3048 -480 28 -1000 360/10 RMK AO2 T01111067
53915KARA ARA20161209151011112/09/16 15:10:31  5-MIN KARA 092110Z AUTO 03009KT 10SM CLR 11/M07 A3048 -480 28 -1000 030/09 RMK AO2 T01111067
53915KARA ARA20161209151511112/09/16 15:15:31  5-MIN KARA 092115Z AUTO 04007KT 10SM CLR 11/M07 A3048 -480 28 -1000 040/07 RMK AO2 T01111067
53915KARA ARA20161209152011112/09/16 15:20:31  5-MIN KARA 092120Z AUTO 01009KT 10SM CLR 11/M07 A3048 -480 28 -1000 010/09 RMK AO2 T01111067
53915KARA ARA20161209152511112/09/16 15:25:31  5-MIN KARA 092125Z AUTO 03008KT 10SM CLR 11/M07 A3048 -480 28 -1000 030/08 RMK AO2 T01111067
53915KARA ARA20161209153011112/09/16 15:30:31  5-MIN KARA 092130Z AUTO 05008KT 10SM CLR 11/M07 A3048 -480 28 -1000 040/08 RMK AO2 T01111067
53915KARA ARA20161209153511112/09/16 15:35:31  5-MIN KARA 092135Z AUTO 03008KT 10SM CLR 11/M07 A3048 -490 28 -1000 030/08 RMK AO2 T01111067
53915KARA ARA20161209154011112/09/16 15:40:31  5-MIN KARA 092140Z AUTO 02009KT 10SM CLR 11/M07 A3048 -490 28 -1000 020/09 RMK AO2 T01111067
53915KARA ARA20161209154511112/09/16 15:45:31  5-MIN KARA 092145Z AUTO 36008KT 10SM CLR 11/M07 A3049 -490 28 -1000 360/08 RMK AO2 T01111067
53915KARA ARA20161209155011812/09/16 15:50:31  5-MIN KARA 092150Z AUTO 36008KT 10SM CLR 11/M07 A3049 -490 28 -1000 360/08 RMK AO2 SLP322 T01111067
53915KARA ARA20161209155511112/09/16 15:55:31  5-MIN KARA 092155Z AUTO 04006KT 10SM CLR 11/M07 A3048 -490 28 -1000 040/06 RMK AO2 T01111067
53915KARA ARA20161209160011112/09/16 16:00:31  5-MIN KARA 092200Z AUTO 02008KT 10SM CLR 11/M07 A3048 -490 28 -1000 020/08 RMK AO2 T01111067
53915KARA ARA20161209160511112/09/16 16:05:31  5-MIN KARA 092205Z AUTO 01008KT 10SM CLR 11/M07 A3049 -490 28 -1000 010/08 RMK AO2 T01111067
53915KARA ARA20161209161011112/09/16 16:10:31  5-MIN KARA 092210Z AUTO 01009KT 10SM CLR 11/M07 A3049 -490 29 -1100 010/09 RMK AO2 T01061067
53915KARA ARA20161209161511112/09/16 16:15:31  5-MIN KARA 092215Z AUTO 36009KT 10SM CLR 11/M07 A3049 -490 29 -1100 360/09 RMK AO2 T01061067
53915KARA ARA20161209162011112/09/16 16:20:31  5-MIN KARA 092220Z AUTO 36009KT 10SM CLR 11/M07 A3049 -490 29 -1100 360/09 RMK AO2 T01061067
53915KARA ARA20161209162511112/09/16 16:25:31  5-MIN KARA 092225Z AUTO 01009KT 10SM CLR 10/M07 A3050 -500 30 -1100 010/09 RMK AO2 T01001067
53915KARA ARA20161209163011112/09/16 16:30:31  5-MIN KARA 092230Z AUTO 01007KT 10SM CLR 10/M07 A3049 -500 30 -1100 010/07 RMK AO2 T01001067
53915KARA ARA20161209163511112/09/16 16:35:31  5-MIN KARA 092235Z AUTO 36008KT 10SM CLR 10/M06 A3049 -490 31 -1100 360/08 RMK AO2 T01001061
53915KARA ARA20161209164011112/09/16 16:40:31  5-MIN KARA 092240Z AUTO 01007KT 10SM CLR 09/M06 A3049 -490 33 -1200 010/07 RMK AO2 T00941061
53915KARA ARA20161209164511112/09/16 16:45:31  5-MIN KARA 092245Z AUTO 01007KT 10SM CLR 09/M06 A3049 -490 34 -1200 010/07 RMK AO2 T00941056
53915KARA ARA20161209165011812/09/16 16:50:31  5-MIN KARA 092250Z AUTO 02006KT 10SM CLR 09/M05 A3049 -490 37 -1300 020/06 RMK AO2 SLP325 T00891050
53915KARA ARA20161209165511112/09/16 16:55:31  5-MIN KARA 092255Z AUTO 36006KT 10SM CLR 09/M05 A3049 -490 37 -1300 360/06 RMK AO2 T00891050
53915KARA ARA20161209170011112/09/16 17:00:31  5-MIN KARA 092300Z AUTO 35006KT 10SM CLR 08/M04 A3049 -490 40 -1300 350/06 RMK AO2 T00831044
53915KARA ARA20161209170511112/09/16 17:05:31  5-MIN KARA 092305Z AUTO 36006KT 10SM CLR 08/M04 A3049 -490 43 -1400 360/06 RMK AO2 T00781039
53915KARA ARA20161209171011112/09/16 17:10:31  5-MIN KARA 092310Z AUTO 36006KT 10SM CLR 07/M04 A3049 -490 45 -1500 360/06 RMK AO2 T00721039
53915KARA ARA20161209171511112/09/16 17:15:31  5-MIN KARA 092315Z AUTO 35006KT 10SM CLR 07/M04 A3049 -490 45 -1500 350/06 RMK AO2 T00721039
53915KARA ARA20161209172011112/09/16 17:20:31  5-MIN KARA 092320Z AUTO 35006KT 10SM CLR 07/M04 A3049 -500 43 -1500 350/06 RMK AO2 T00721044
53915KARA ARA20161209172511112/09/16 17:25:31  5-MIN KARA 092325Z AUTO 34006KT 10SM CLR 07/M03 A3050 -500 49 -1500 340/06 RMK AO2 T00671033
53915KARA ARA20161209173011112/09/16 17:30:31  5-MIN KARA 092330Z AUTO 34007KT 10SM CLR 06/M02 A3050 -500 55 -1600 340/07 RMK AO2 T00611022
53915KARA ARA20161209173511112/09/16 17:35:31  5-MIN KARA 092335Z AUTO 34005KT 10SM CLR 06/M02 A3050 -500 55 -1600 340/05 RMK AO2 T00611022
53915KARA ARA20161209174011112/09/16 17:40:31  5-MIN KARA 092340Z AUTO 33005KT 10SM CLR 06/M02 A3050 -500 55 -1600 330/05 RMK AO2 T00611022
53915KARA ARA20161209174511112/09/16 17:45:31  5-MIN KARA 092345Z AUTO 34005KT 10SM CLR 06/M02 A3051 -510 57 -1600 340/05 RMK AO2 T00611017
53915KARA ARA20161209175013612/09/16 17:50:31  5-MIN KARA 092350Z AUTO 34005KT 10SM CLR 06/M02 A3050 -510 55 -1600 340/05 RMK AO2 SLP329 T00611022 10111 20061 55019
53915KARA ARA20161209175511112/09/16 17:55:31  5-MIN KARA 092355Z AUTO 35006KT 10SM CLR 06/M03 A3050 -500 51 -1600 350/06 RMK AO2 T00611033
53915KARA ARA20161209180011112/09/16 18:00:31  5-MIN KARA 100000Z AUTO 36006KT 10SM CLR 06/M04 A3050 -500 50 -1700 360/06 RMK AO2 T00561039
53915KARA ARA20161209180511112/09/16 18:05:31  5-MIN KARA 100005Z AUTO 36006KT 10SM CLR 06/M03 A3051 -510 53 -1700 360/06 RMK AO2 T00561033
53915KARA ARA20161209181011112/09/16 18:10:31  5-MIN KARA 100010Z AUTO 36007KT 10SM CLR 06/M03 A3051 -510 53 -1700 360/07 RMK AO2 T00561033
53915KARA ARA20161211132011912/11/16 13:20:31  5-MIN KARA 111920Z 16018G23KT 10SM FEW026 SCT080 22/12 A3010 -140 52 600 160/18G23 RMK AO2 T02170117
53915KARA ARA20161211132514612/11/16 13:25:31  5-MIN KARA 111925Z 15022G27KT 10SM -RA SCT080 22/12 A3010 -130 52 600 150/22G27 RMK AO2 PK WND 16027/1925 RAB25 P0000 T02170117
53915KARA ARA20161211133014612/11/16 13:30:31  5-MIN KARA 111930Z 16016G27KT 10SM -RA FEW080 22/12 A3009 -130 52 700 160/16G27 RMK AO2 PK WND 16027/1925 RAB25 P0000 T02170117
53915KARA ARA20161211133514312/11/16 13:35:31  5-MIN KARA 111935Z 17012G25KT 10SM -RA CLR 22/12 A3010 -130 52 700 170/12G25 RMK AO2 PK WND 16027/1925 RAB25 P0000 T02170117
53915KARA ARA20161211134014212/11/16 13:40:31  5-MIN KARA 111940Z 17015G25KT 10SM CLR 22/12 A3009 -130 52 700 170/15G25 RMK AO2 PK WND 16027/1925 RAB25E38 P0000 T02170117
53915KARA ARA20161211134514212/11/16 13:45:31  5-MIN KARA 111945Z 16016G22KT 10SM CLR 22/12 A3009 -130 52 700 150/16G22 RMK AO2 PK WND 16027/1925 RAB25E38 P0000 T02170117
53915KARA ARA20161211135014312/11/16 13:50:31  5-MIN KARA 111950Z 17016KT 10SM CLR 22/12 A3009 -130 52 700 160/16 RMK AO2 PK WND 16027/1925 RAB25E38 SLP189 P0000 T02170117
53915KARA ARA20161211135510912/11/16 13:55:31  5-MIN KARA 111955Z 16017G24KT 10SM CLR 22/12 A3009 -130 54 700 160/17G24 RMK AO2 T02170122
53915KARA ARA20161211140010912/11/16 14:00:31  5-MIN KARA 112000Z 15015G24KT 10SM CLR 22/12 A3009 -120 52 700 150/15G24 RMK AO2 T02170117
53915KARA ARA20161211140512812/11/16 14:05:31  5-MIN KARA 112005Z 15019G24KT 10SM -RA FEW080 22/12 A3009 -120 52 700 150/19G24 RMK AO2 RAB05 P0000 T02170117
53915KARA ARA20161211141012712/11/16 14:10:31  5-MIN KARA 112010Z 16018G25KT 10SM SCT080 21/12 A3008 -120 54 600 160/18G25 RMK AO2 RAB05E07 P0000 T02110117
53915KARA ARA20161211141512712/11/16 14:15:31  5-MIN KARA 112015Z 17016G25KT 10SM SCT080 21/12 A3008 -120 54 600 170/16G25 RMK AO2 RAB05E15 P0000 T02110117
53915KARA ARA20161211142013412/11/16 14:20:31  5-MIN KARA 112020Z 16016G22KT 10SM FEW027 BKN080 21/12 A3008 -120 56 600 160/16G22 RMK AO2 RAB05E15 P0000 T02110122
53915KARA ARA20161211142513412/11/16 14:25:31  5-MIN KARA 112025Z 16017G22KT 10SM FEW027 BKN080 21/12 A3008 -120 56 600 160/17G22 RMK AO2 RAB05E15 P0000 T02110122
53915KARA ARA20161211143013412/11/16 14:30:31  5-MIN KARA 112030Z 17014G22KT 10SM FEW026 BKN080 21/12 A3008 -120 56 600 170/14G22 RMK AO2 RAB05E15 P0000 T02110122
53915KARA ARA20161211143513412/11/16 14:35:31  5-MIN KARA 112035Z 17013G20KT 10SM SCT026 BKN080 21/12 A3009 -120 56 600 170/13G20 RMK AO2 RAB05E15 P0000 T02110122
53915KARA ARA20161211144013412/11/16 14:40:31  5-MIN KARA 112040Z 17013G21KT 10SM SCT026 BKN080 21/12 A3008 -120 56 500 170/13G21 RMK AO2 RAB05E15 P0000 T02060117
53915KARA ARA20161211144513912/11/16 14:45:31  5-MIN KARA 112045Z AUTO 17012G21KT 10SM BKN027 BKN085 21/12 A3008 -120 58 500 170/12G21 RMK AO2 RAB05E15 P0000 T02060122
53915KARA ARA20161211145015312/11/16 14:50:31  5-MIN KARA 112050Z 16016G22KT 10SM BKN027 OVC080 21/12 A3008 -120 58 500 160/16G22 RMK AO2 RAB05E15 SLP185 P0000 60000 T02060122 56021
53915KARA ARA20161211145511912/11/16 14:55:31  5-MIN KARA 112055Z 16013G22KT 10SM BKN027 OVC080 21/12 A3007 -110 56 600 160/13G22 RMK AO2 T02110122
53915KARA ARA20161211150010612/11/16 15:00:31  5-MIN KARA 112100Z 15017KT 10SM BKN027 21/12 A3007 -110 56 600 150/17 RMK AO2 T02110122
53915KARA ARA20161211150510612/11/16 15:05:31  5-MIN KARA 112105Z 15017KT 10SM BKN027 21/12 A3006 -100 56 600 150/17 RMK AO2 T02110122
53915KARA ARA20161211151011912/11/16 15:10:31  5-MIN KARA 112110Z 15018G24KT 10SM BKN027 21/12 A3006 -100 56 600 150/18G24 RMK AO2 PRESFR T02110122
53915KARA ARA20161211151514612/11/16 15:15:31  5-MIN KARA 112115Z 16018G26KT 10SM -RA SCT027 21/12 A3006 -100 56 600 160/18G26 RMK AO2 PK WND 15026/2112 RAB13 P0000 T02060117
53915KARA ARA20161211152014612/11/16 15:20:31  5-MIN KARA 112120Z 16021G26KT 10SM -RA FEW027 21/12 A3006 -100 56 600 160/21G26 RMK AO2 PK WND 16026/2119 RAB13 P0000 T02110122
53915KARA ARA20161211152514612/11/16 15:25:31  5-MIN KARA 112125Z 17018G26KT 10SM -RA FEW027 21/12 A3006 -100 58 600 160/18G26 RMK AO2 PK WND 16026/2119 RAB13 P0000 T02060122
53915KARA ARA20161211153014312/11/16 15:30:31  5-MIN KARA 112130Z 15015G21KT 10SM -RA CLR 21/12 A3006 -100 58 600 150/15G21 RMK AO2 PK WND 16026/2119 RAB13 P0000 T02060122
53915KARA ARA20161211153513912/11/16 15:35:31  5-MIN KARA 112135Z 15014KT 10SM FEW026 21/12 A3006 -100 58 600 150/14 RMK AO2 PK WND 16026/2119 RAB13E31 P0000 T02060122
53915KARA ARA20161211154013912/11/16 15:40:31  5-MIN KARA 112140Z 16014KT 10SM SCT026 21/12 A3007 -100 58 600 160/14 RMK AO2 PK WND 16026/2119 RAB13E31 P0000 T02060122
53915KARA ARA20161211154513912/11/16 15:45:31  5-MIN KARA 112145Z 16015KT 10SM BKN027 21/12 A3007 -110 58 600 160/15 RMK AO2 PK WND 16026/2119 RAB13E31 P0000 T02060122
53915KARA ARA20161211155014612/11/16 15:50:31  5-MIN KARA 112150Z 15013KT 10SM BKN027 21/12 A3007 -110 56 600 150/13 RMK AO2 PK WND 16026/2119 RAB13E31 SLP181 P0000 T02060117
53915KARA ARA20161211155510612/11/16 15:55:31  5-MIN KARA 112155Z 15014KT 10SM SCT027 21/12 A3007 -110 56 600 150/14 RMK AO2 T02060117
53915KARA ARA20161211160010612/11/16 16:00:31  5-MIN KARA 112200Z 16016KT 10SM SCT027 21/12 A3007 -110 58 600 150/16 RMK AO2 T02060122
53915KARA ARA20161211160510612/11/16 16:05:31  5-MIN KARA 112205Z 15013KT 10SM SCT027 20/12 A3007 -110 60 500 150/13 RMK AO2 T02000122
53915KARA ARA20161211161010612/11/16 16:10:31  5-MIN KARA 112210Z 16011KT 10SM SCT027 20/12 A3007 -110 60 500 160/11 RMK AO2 T02000122
53915KARA ARA20161211161510612/11/16 16:15:31  5-MIN KARA 112215Z 16011KT 10SM FEW026 20/12 A3007 -110 58 500 150/11 RMK AO2 T02000117
53915KARA ARA20161211162010612/11/16 16:20:31  5-MIN KARA 112220Z 15009KT 10SM FEW026 19/12 A3008 -110 60 400 150/09 RMK AO2 T01940117
53915KARA ARA20161211162510312/11/16 16:25:31  5-MIN KARA 112225Z 16012KT 10SM CLR 19/12 A3008 -120 60 400 150/12 RMK AO2 T01940117
53915KARA ARA20161211163010612/11/16 16:30:31  5-MIN KARA 112230Z 14011KT 10SM FEW031 19/12 A3008 -120 62 300 140/11 RMK AO2 T01890117
53915KARA ARA20161211163510612/11/16 16:35:31  5-MIN KARA 112235Z 15010KT 10SM SCT031 19/12 A3008 -120 62 300 150/10 RMK AO2 T01890117
53915KARA ARA20161211164010612/11/16 16:40:31  5-MIN KARA 112240Z 15010KT 10SM SCT031 19/12 A3008 -120 62 300 150/10 RMK AO2 T01890117
53915KARA ARA20161211164510612/11/16 16:45:31  5-MIN KARA 112245Z 15010KT 10SM BKN031 19/12 A3008 -120 62 300 150/10 RMK AO2 T01890117
53915KARA ARA20161211165011312/11/16 16:50:31  5-MIN KARA 112250Z 15011KT 10SM BKN031 19/12 A3008 -110 62 400 150/11 RMK AO2 SLP183 T01890117
53915KARA ARA20161211165510612/11/16 16:55:31  5-MIN KARA 112255Z 15010KT 10SM OVC030 19/12 A3008 -110 62 400 140/10 RMK AO2 T01890117
53915KARA ARA20161211170010612/11/16 17:00:31  5-MIN KARA 112300Z 14010KT 10SM OVC030 19/12 A3008 -110 65 400 140/10 RMK AO2 T01890122
53915KARA ARA20161211170510612/11/16 17:05:31  5-MIN KARA 112305Z 14010KT 10SM OVC030 19/12 A3007 -110 65 400 140/10 RMK AO2 T01890122
53915KARA ARA20161211171010612/11/16 17:10:31  5-MIN KARA 112310Z 14011KT 10SM OVC030 18/12 A3007 -110 67 300 140/11 RMK AO2 T01830122
53915KARA ARA20161211171510612/11/16 17:15:31  5-MIN KARA 112315Z 14010KT 10SM OVC030 18/12 A3007 -110 67 300 140/10 RMK AO2 T01830122
53915KARA ARA20161211172010612/11/16 17:20:31  5-MIN KARA 112320Z 14010KT 10SM BKN030 18/12 A3007 -100 67 200 140/10 RMK AO2 T01780117
53915KARA ARA20161211172510612/11/16 17:25:31  5-MIN KARA 112325Z 14010KT 10SM BKN029 18/12 A3006 -100 67 200 140/10 RMK AO2 T01780117
53915KARA ARA20161211173011312/11/16 17:30:31  5-MIN KARA 112330Z 14009KT 10SM SCT029 BKN075 17/12 A3006 -100 69 200 140/09 RMK AO2 T01720117
53915KARA ARA20161211173511312/11/16 17:35:31  5-MIN KARA 112335Z 15009KT 10SM SCT029 SCT075 17/12 A3007 -100 69 200 150/09 RMK AO2 T01720117
53915KARA ARA20161211174011312/11/16 17:40:31  5-MIN KARA 112340Z 15009KT 10SM FEW029 FEW075 17/12 A3006 -100 69 200 150/09 RMK AO2 T01720117
53915KARA ARA20161211174510612/11/16 17:45:31  5-MIN KARA 112345Z 15009KT 10SM FEW075 17/12 A3006 -100 69 200 150/09 RMK AO2 T01720117
53915KARA ARA20161211175013712/11/16 17:50:31  5-MIN KARA 112350Z 14009KT 10SM FEW075 17/12 A3006 -100 69 200 140/09 RMK AO2 SLP180 60000 T01720117 10222 20172 56013
53915KARA ARA20161211175510312/11/16 17:55:31  5-MIN KARA 112355Z 14009KT 10SM CLR 17/12 A3007 -100 72 100 140/09 RMK AO2 T01670117
53915KARA ARA20161211180010312/11/16 18:00:31  5-MIN KARA 120000Z 14009KT 10SM CLR 17/12 A3007 -100 72 100 140/09 RMK AO2 T01670117
53915KARA ARA20161211180510312/11/16 18:05:31  5-MIN KARA 120005Z 14009KT 10SM CLR 17/12 A3007 -100 72 100 140/09 RMK AO2 T01670117
53915KARA ARA20161211181010312/11/16 18:10:31  5-MIN KARA 120010Z 15008KT 10SM CLR 17/12 A3007 -100 72 100 140/08 RMK AO2 T01670117
53915KARA ARA20161211181510312/11/16 18:15:31  5-MIN KARA 120015Z 14009KT 10SM CLR 17/12 A3007 -100 72 100 140/09 RMK AO2 T01670117
53915KARA ARA20161211182010312/11/16 18:20:31  5-MIN KARA 120020Z 14009KT 10SM CLR 17/12 A3007 -100 75 100 140/09 RMK AO2 T01670122
53915KARA ARA20161211182510112/11/16 18:25:31  5-MIN KARA 120025Z 14008KT 10SM CLR 16/12 A3007 -110 75 0 140/08 RMK AO2 T01610117
53915KARA ARA20161211183010112/11/16 18:30:31  5-MIN KARA 120030Z 14007KT 10SM CLR 16/12 A3007 -110 75 0 140/07 RMK AO2 T01610117
53915KARA ARA20161211183510412/11/16 18:35:31  5-MIN KARA 120035Z 15006KT 10SM FEW080 16/12 A3007 -110 75 0 150/06 RMK AO2 T01610117
53915KARA ARA20161211184010412/11/16 18:40:31  5-MIN KARA 120040Z 14006KT 10SM FEW080 16/12 A3007 -110 75 0 140/06 RMK AO2 T01610117
53915KARA ARA20161211184510912/11/16 18:45:31  5-MIN KARA 120045Z AUTO 14007KT 10SM SCT080 16/12 A3007 -110 75 0 140/07 RMK AO2 T01610117
53915KARA ARA20161211185011612/11/16 18:50:31  5-MIN KARA 120050Z AUTO 15005KT 10SM BKN080 16/12 A3007 -110 75 0 150/05 RMK AO2 SLP183 T01610117
53915KARA ARA20161211185510912/11/16 18:55:31  5-MIN KARA 120055Z AUTO 15008KT 10SM BKN080 16/12 A3007 -110 77 0 140/08 RMK AO2 T01610122
53915KARA ARA20161211190010912/11/16 19:00:31  5-MIN KARA 120100Z AUTO 14007KT 10SM BKN080 16/12 A3007 -110 77 0 140/07 RMK AO2 T01610122
53915KARA ARA20161211190510912/11/16 19:05:31  5-MIN KARA 120105Z AUTO 14007KT 10SM BKN080 16/12 A3007 -100 77 0 140/07 RMK AO2 T01610122
53915KARA ARA20161211191010912/11/16 19:10:31  5-MIN KARA 120110Z AUTO 14007KT 10SM OVC080 16/12 A3007 -100 77 0 130/07 RMK AO2 T01610122
53915KARA ARA20161211191510912/11/16 19:15:31  5-MIN KARA 120115Z AUTO 14006KT 10SM OVC080 16/12 A3007 -100 77 0 140/06 RMK AO2 T01610122
53915KARA ARA20161211192010912/11/16 19:20:31  5-MIN KARA 120120Z AUTO 15005KT 10SM OVC080 16/12 A3007 -110 77 0 150/05 RMK AO2 T01610122
53915KARA ARA20161211192510912/11/16 19:25:31  5-MIN KARA 120125Z AUTO 14007KT 10SM OVC080 16/12 A3007 -110 77 0 140/07 RMK AO2 T01610122
53915KARA ARA20161211193010912/11/16 19:30:31  5-MIN KARA 120130Z AUTO 13007KT 10SM OVC080 16/12 A3006 -100 77 0 130/07 RMK AO2 T01610122
53915KARA ARA20161211193510912/11/16 19:35:31  5-MIN KARA 120135Z AUTO 14007KT 10SM BKN080 16/12 A3006 -100 77 0 140/07 RMK AO2 T01610122
53915KARA ARA20161211194010912/11/16 19:40:31  5-MIN KARA 120140Z AUTO 15005KT 10SM BKN080 16/12 A3007 -110 77 0 150/05 RMK AO2 T01560117
53915KARA ARA20161211194510912/11/16 19:45:31  5-MIN KARA 120145Z AUTO 14006KT 10SM SCT080 16/12 A3007 -110 77 0 140/06 RMK AO2 T01560117
53915KARA ARA20161211195012312/11/16 19:50:31  5-MIN KARA 120150Z AUTO 14007KT 10SM FEW060 SCT080 15/12 A3007 -100 80 0 140/07 RMK AO2 SLP181 T01500117
53915KARA ARA20161211195511612/11/16 19:55:31  5-MIN KARA 120155Z AUTO 15007KT 10SM SCT060 BKN080 16/12 A3007 -100 80 0 140/07 RMK AO2 T01560122
53915KARA ARA20161211200011612/11/16 20:00:31  5-MIN KARA 120200Z AUTO 15006KT 10SM BKN060 BKN080 16/12 A3007 -110 80 0 140/06 RMK AO2 T01560122
53915KARA ARA20161211200511612/11/16 20:05:31  5-MIN KARA 120205Z AUTO 14006KT 10SM BKN060 BKN080 16/12 A3007 -100 77 0 140/06 RMK AO2 T01610122
53915KARA ARA20161211201011612/11/16 20:10:31  5-MIN KARA 120210Z AUTO 14006KT 10SM BKN060 BKN080 16/12 A3007 -110 77 0 140/06 RMK AO2 T01610122
53915KARA ARA20161211201511612/11/16 20:15:31  5-MIN KARA 120215Z AUTO 14006KT 10SM BKN060 BKN080 16/12 A3007 -110 77 0 140/06 RMK AO2 T01610122
53915KARA ARA20161211202011612/11/16 20:20:31  5-MIN KARA 120220Z AUTO 14006KT 10SM BKN060 OVC080 16/12 A3007 -110 77 0 140/06 RMK AO2 T01610122
53915KARA ARA20161211202511612/11/16 20:25:31  5-MIN KARA 120225Z AUTO 14007KT 10SM BKN060 OVC080 16/12 A3007 -110 77 0 140/07 RMK AO2 T01610122
53915KARA ARA20161211203011612/11/16 20:30:31  5-MIN KARA 120230Z AUTO 13006KT 10SM BKN060 BKN080 16/12 A3007 -110 80 0 130/06 RMK AO2 T01560122
53915KARA ARA20161211203511612/11/16 20:35:31  5-MIN KARA 120235Z AUTO 14006KT 10SM BKN060 BKN080 16/12 A3007 -110 80 0 130/06 RMK AO2 T01560122
53915KARA ARA20161211204011612/11/16 20:40:31  5-MIN KARA 120240Z AUTO 14006KT 10SM BKN060 BKN080 16/12 A3007 -110 80 0 130/06 RMK AO2 T01560122
53915KARA ARA20161211204511612/11/16 20:45:31  5-MIN KARA 120245Z AUTO 14006KT 10SM BKN060 OVC080 16/12 A3007 -110 77 0 140/06 RMK AO2 T01610122
53915KARA ARA20161211205012912/11/16 20:50:31  5-MIN KARA 120250Z AUTO 14006KT 10SM BKN055 OVC080 16/13 A3007 -110 80 0 140/06 RMK AO2 SLP181 T01610128 58001
53915KARA ARA20161211205511612/11/16 20:55:31  5-MIN KARA 120255Z AUTO 14006KT 10SM BKN055 BKN080 16/13 A3007 -110 80 0 140/06 RMK AO2 T01610128
53915KARA ARA20161211210011612/11/16 21:00:31  5-MIN KARA 120300Z AUTO 14006KT 10SM SCT060 OVC080 16/13 A3007 -110 80 0 140/06 RMK AO2 T01610128
53915KARA ARA20161211210511612/11/16 21:05:31  5-MIN KARA 120305Z AUTO 14006KT 10SM SCT055 OVC080 16/13 A3007 -110 80 0 140/06 RMK AO2 T01610128
53915KARA ARA20161211211011612/11/16 21:10:31  5-MIN KARA 120310Z AUTO 15004KT 10SM SCT055 OVC080 16/13 A3007 -110 80 0 150/04 RMK AO2 T01610128
53915KARA ARA20161211211511612/11/16 21:15:31  5-MIN KARA 120315Z AUTO 15004KT 10SM SCT055 OVC080 16/13 A3007 -110 80 0 140/04 RMK AO2 T01610128
53915KARA ARA20161211212011612/11/16 21:20:31  5-MIN KARA 120320Z AUTO 14004KT 10SM FEW055 OVC080 16/13 A3007 -110 80 0 140/04 RMK AO2 T01610128
53915KARA ARA20161211212511612/11/16 21:25:31  5-MIN KARA 120325Z AUTO 15005KT 10SM FEW055 OVC080 16/13 A3007 -110 80 0 150/05 RMK AO2 T01610128
53915KARA ARA20161211213012312/11/16 21:30:31  5-MIN KARA 120330Z AUTO 15005KT 10SM FEW027 FEW055 OVC080 16/13 A3007 -110 80 0 150/05 RMK AO2 T01610128
53915KARA ARA20161211213512312/11/16 21:35:31  5-MIN KARA 120335Z AUTO 15006KT 10SM SCT027 SCT055 OVC080 16/13 A3007 -110 80 0 150/06 RMK AO2 T01610128
53915KARA ARA20161211214012312/11/16 21:40:31  5-MIN KARA 120340Z AUTO 16007KT 10SM SCT027 BKN055 OVC080 16/13 A3007 -110 83 0 150/07 RMK AO2 T01610133
53915KARA ARA20161211214511812/11/16 21:45:31  5-MIN KARA 120345Z AUTO 15008KT 10SM SCT029 OVC080 17/13 A3007 -110 80 100 150/08 RMK AO2 T01670133
53915KARA ARA20161211215012512/11/16 21:50:31  5-MIN KARA 120350Z AUTO 15008KT 10SM SCT029 OVC080 17/13 A3007 -110 80 100 150/08 RMK AO2 SLP181 T01670133
53915KARA ARA20161211215511812/11/16 21:55:31  5-MIN KARA 120355Z AUTO 15009KT 10SM SCT029 OVC080 17/13 A3007 -100 80 100 150/09 RMK AO2 T01670133
53915KARA ARA20161211220011812/11/16 22:00:31  5-MIN KARA 120400Z AUTO 15009KT 10SM SCT029 OVC080 17/13 A3006 -100 80 100 150/09 RMK AO2 T01670133
53915KARA ARA20161211220511812/11/16 22:05:31  5-MIN KARA 120405Z AUTO 16009KT 10SM SCT030 OVC080 17/13 A3007 -100 80 100 150/09 RMK AO2 T01670133
53915KARA ARA20161211221011812/11/16 22:10:31  5-MIN KARA 120410Z AUTO 15010KT 10SM FEW030 OVC080 17/13 A3006 -100 80 100 150/10 RMK AO2 T01670133
53915KARA ARA20161211221511812/11/16 22:15:31  5-MIN KARA 120415Z AUTO 15010KT 10SM SCT030 OVC080 17/13 A3006 -100 80 100 150/10 RMK AO2 T01670133
53915KARA ARA20161211222011812/11/16 22:20:31  5-MIN KARA 120420Z AUTO 16010KT 10SM FEW030 OVC080 17/13 A3006 -100 78 200 160/10 RMK AO2 T01720133
53915KARA ARA20161211222511812/11/16 22:25:31  5-MIN KARA 120425Z AUTO 16010KT 10SM FEW029 OVC080 17/14 A3006 -100 80 200 160/10 RMK AO2 T01720139
53915KARA ARA20161211223011812/11/16 22:30:31  5-MIN KARA 120430Z AUTO 16009KT 10SM FEW029 OVC080 17/14 A3006 -100 80 200 160/09 RMK AO2 T01720139
53915KARA ARA20161211223511812/11/16 22:35:31  5-MIN KARA 120435Z AUTO 16008KT 10SM FEW029 OVC080 17/14 A3006 -100 80 200 160/08 RMK AO2 T01720139
53915KARA ARA20161211224011812/11/16 22:40:31  5-MIN KARA 120440Z AUTO 17006KT 10SM FEW029 OVC080 18/14 A3007 -100 78 200 170/06 RMK AO2 T01780139
53915KARA ARA20161211224511812/11/16 22:45:31  5-MIN KARA 120445Z AUTO 18007KT 10SM FEW050 OVC080 18/14 A3007 -110 81 200 170/07 RMK AO2 T01780144
53915KARA ARA20161211225012512/11/16 22:50:31  5-MIN KARA 120450Z AUTO 17006KT 10SM SCT050 OVC080 18/14 A3007 -100 78 300 170/06 RMK AO2 SLP180 T01830144
53915KARA ARA20161211225511812/11/16 22:55:31  5-MIN KARA 120455Z AUTO 17006KT 10SM SCT050 OVC080 18/14 A3006 -100 78 300 170/06 RMK AO2 T01830144
53915KARA ARA20161211230011812/11/16 23:00:31  5-MIN KARA 120500Z AUTO 15007KT 10SM BKN050 OVC080 18/14 A3006 -100 81 200 150/07 RMK AO2 T01780144
53915KARA ARA20161211230511812/11/16 23:05:31  5-MIN KARA 120505Z AUTO 16007KT 10SM BKN050 OVC080 18/14 A3006 -100 81 200 160/07 RMK AO2 T01780144
53915KARA ARA20161211231011112/11/16 23:10:31  5-MIN KARA 120510Z AUTO 16007KT 10SM OVC050 18/14 A3006 -100 81 200 160/07 RMK AO2 T01780144
53915KARA ARA20161211231511112/11/16 23:15:31  5-MIN KARA 120515Z AUTO 15006KT 10SM OVC050 18/14 A3006 -100 81 200 150/06 RMK AO2 T01780144
53915KARA ARA20161211232011112/11/16 23:20:31  5-MIN KARA 120520Z AUTO 15006KT 10SM OVC050 18/14 A3006 -100 81 200 140/06 RMK AO2 T01780144
53915KARA ARA20161211232511112/11/16 23:25:31  5-MIN KARA 120525Z AUTO 14006KT 10SM OVC050 18/14 A3006 -100 81 200 140/06 RMK AO2 T01780144
53915KARA ARA20161211233011112/11/16 23:30:31  5-MIN KARA 120530Z AUTO 15006KT 10SM OVC049 18/14 A3006 -100 81 200 150/06 RMK AO2 T01780144
53915KARA ARA20161211233511812/11/16 23:35:31  5-MIN KARA 120535Z AUTO 15006KT 10SM BKN049 OVC080 18/14 A3006 -100 81 200 150/06 RMK AO2 T01780144
53915KARA ARA20161211234011812/11/16 23:40:31  5-MIN KARA 120540Z AUTO 15007KT 10SM BKN049 OVC075 18/14 A3006 -100 81 200 150/07 RMK AO2 T01780144
53915KARA ARA20161211234511712/11/16 23:45:31  5-MIN KARA 120545Z AUTO 15007KT 10SM BKN049 OVC075 18/14 A3006 -90 81 200 150/07 RMK AO2 T01780144
53915KARA ARA20161211235015212/11/16 23:50:31  5-MIN KARA 120550Z AUTO 15007KT 10SM BKN048 OVC075 18/14 A3005 -90 81 200 150/07 RMK AO2 SLP176 T01780144 10183 20150 402220056 51001
53915KARA ARA20161211235511712/11/16 23:55:31  5-MIN KARA 120555Z AUTO 15006KT 10SM SCT048 OVC075 17/14 A3005 -90 83 200 150/06 RMK AO2 T01720144
53915KARA ARA20161212000011712/12/16 00:00:31  5-MIN KARA 120600Z AUTO 15006KT 10SM FEW048 OVC075 17/14 A3006 -90 80 200 150/06 RMK AO2 T01720139
53915KARA ARA20161212000511712/12/16 00:05:31  5-MIN KARA 120605Z AUTO 16005KT 10SM FEW048 OVC075 17/14 A3006 -90 83 100 160/05 RMK AO2 T01670139
53915KARA ARA20161212001011012/12/16 00:10:31  5-MIN KARA 120610Z AUTO 16005KT 10SM BKN075 17/14 A3006 -90 83 100 160/05 RMK AO2 T01670139
53915KARA ARA20161212001511612/12/16 00:15:31  5-MIN KARA 120615Z AUTO 16005KT 9SM FEW055 BKN075 17/14 A3006 -90 83 100 150/05 RMK AO2 T01670139
53915KARA ARA20161212002011612/12/16 00:20:31  5-MIN KARA 120620Z AUTO 15006KT 9SM FEW055 BKN075 17/14 A3006 -90 83 100 150/06 RMK AO2 T01670139
53915KARA ARA20161212002511712/12/16 00:25:31  5-MIN KARA 120625Z AUTO 16006KT 10SM FEW055 BKN075 17/14 A3006 -90 86 100 160/06 RMK AO2 T01670144
53915KARA ARA20161212003011712/12/16 00:30:31  5-MIN KARA 120630Z AUTO 16007KT 10SM FEW055 BKN075 17/14 A3006 -90 86 100 160/07 RMK AO2 T01670144
53915KARA ARA20161212003511712/12/16 00:35:31  5-MIN KARA 120635Z AUTO 16007KT 10SM FEW055 BKN080 17/14 A3005 -90 86 100 160/07 RMK AO2 T01670144
53915KARA ARA20161212004011712/12/16 00:40:31  5-MIN KARA 120640Z AUTO 15007KT 10SM FEW055 BKN080 17/14 A3005 -90 86 100 150/07 RMK AO2 T01670144
53915KARA ARA20161212004511012/12/16 00:45:31  5-MIN KARA 120645Z AUTO 15008KT 10SM OVC080 17/14 A3005 -90 83 200 150/08 RMK AO2 T01720144
53915KARA ARA20161212005011712/12/16 00:50:31  5-MIN KARA 120650Z AUTO 15007KT 10SM OVC080 17/14 A3005 -90 83 200 150/07 RMK AO2 SLP176 T01720144
53915KARA ARA20161212005511012/12/16 00:55:31  5-MIN KARA 120655Z AUTO 15008KT 10SM OVC080 17/14 A3005 -90 83 200 150/08 RMK AO2 T01720144
53915KARA ARA20161212010011012/12/16 01:00:31  5-MIN KARA 120700Z AUTO 15007KT 10SM OVC080 17/14 A3005 -90 83 200 150/07 RMK AO2 T01720144
53915KARA ARA20161212010510912/12/16 01:05:31  5-MIN KARA 120705Z AUTO 16007KT 9SM OVC075 17/14 A3005 -90 83 200 160/07 RMK AO2 T01720144
53915KARA ARA20161212011010912/12/16 01:10:31  5-MIN KARA 120710Z AUTO 16007KT 9SM OVC075 17/15 A3005 -90 87 200 160/07 RMK AO2 T01720150
53915KARA ARA20161212011511012/12/16 01:15:31  5-MIN KARA 120715Z AUTO 15007KT 10SM OVC075 17/15 A3005 -90 87 200 150/07 RMK AO2 T01720150
53915KARA ARA20161212012011012/12/16 01:20:31  5-MIN KARA 120720Z AUTO 16008KT 10SM OVC075 17/15 A3004 -80 87 200 160/08 RMK AO2 T01720150
53915KARA ARA20161212012510912/12/16 01:25:31  5-MIN KARA 120725Z AUTO 16008KT 9SM OVC075 17/15 A3004 -80 87 200 160/08 RMK AO2 T01720150
53915KARA ARA20161212013010912/12/16 01:30:31  5-MIN KARA 120730Z AUTO 16007KT 9SM OVC075 18/15 A3004 -80 83 300 160/07 RMK AO2 T01780150
53915KARA ARA20161212013510912/12/16 01:35:31  5-MIN KARA 120735Z AUTO 16005KT 9SM OVC075 18/16 A3005 -90 87 300 160/05 RMK AO2 T01780156
53915KARA ARA20161212014010912/12/16 01:40:31  5-MIN KARA 120740Z AUTO 18004KT 9SM OVC080 18/16 A3005 -90 87 300 180/04 RMK AO2 T01780156
53915KARA ARA20161212014510912/12/16 01:45:31  5-MIN KARA 120745Z AUTO 18005KT 8SM OVC080 18/16 A3005 -90 87 200 180/05 RMK AO2 T01780156
53915KARA ARA20161212015011612/12/16 01:50:31  5-MIN KARA 120750Z AUTO 17003KT 7SM OVC080 18/16 A3005 -90 87 200 170/03 RMK AO2 SLP176 T01780156
53915KARA ARA20161212015510912/12/16 01:55:31  5-MIN KARA 120755Z AUTO 17005KT 7SM OVC080 18/16 A3005 -90 87 200 170/05 RMK AO2 T01780156
53915KARA ARA20161212020011212/12/16 02:00:31  5-MIN KARA 120800Z AUTO 17004KT 6SM BR OVC080 18/16 A3005 -90 87 200 170/04 RMK AO2 T01780156
53915KARA ARA20161212020511212/12/16 02:05:31  5-MIN KARA 120805Z AUTO 17004KT 6SM HZ OVC080 18/16 A3005 -90 84 300 160/04 RMK AO2 T01830156
53915KARA ARA20161212021011212/12/16 02:10:31  5-MIN KARA 120810Z AUTO 17004KT 5SM HZ OVC080 18/16 A3005 -90 84 300 170/04 RMK AO2 T01830156
53915KARA ARA20161212021511212/12/16 02:15:31  5-MIN KARA 120815Z AUTO 15004KT 5SM HZ OVC080 18/16 A3005 -90 84 300 150/04 RMK AO2 T01830156
53915KARA ARA20161212022011212/12/16 02:20:31  5-MIN KARA 120820Z AUTO 15004KT 5SM BR OVC080 18/16 A3005 -90 87 300 150/04 RMK AO2 T01780156
53915KARA ARA20161212022511212/12/16 02:25:31  5-MIN KARA 120825Z AUTO 16006KT 5SM BR OVC080 18/16 A3005 -80 87 300 160/06 RMK AO2 T01780156
53915KARA ARA20161212023011212/12/16 02:30:31  5-MIN KARA 120830Z AUTO 16007KT 6SM BR OVC080 18/16 A3004 -80 87 300 160/07 RMK AO2 T01780156
53915KARA ARA20161212023510912/12/16 02:35:31  5-MIN KARA 120835Z AUTO 15006KT 7SM OVC080 18/16 A3004 -80 84 300 150/06 RMK AO2 T01830156
53915KARA ARA20161212024011212/12/16 02:40:31  5-MIN KARA 120840Z AUTO 14005KT 6SM BR OVC080 18/16 A3004 -80 87 300 130/05 RMK AO2 T01780156
53915KARA ARA20161212024511212/12/16 02:45:31  5-MIN KARA 120845Z AUTO 14005KT 6SM BR OVC080 18/16 A3004 -80 87 300 140/05 RMK AO2 T01780156
53915KARA ARA20161212025012512/12/16 02:50:31  5-MIN KARA 120850Z AUTO 14005KT 6SM BR OVC080 17/16 A3004 -80 90 200 140/05 RMK AO2 SLP171 T01720156 58005
53915KARA ARA20161212025511212/12/16 02:55:31  5-MIN KARA 120855Z AUTO 15004KT 6SM BR OVC080 18/16 A3004 -80 87 300 150/04 RMK AO2 T01780156
53915KARA ARA20161212030011212/12/16 03:00:31  5-MIN KARA 120900Z AUTO 15005KT 6SM BR OVC080 18/16 A3004 -80 87 300 150/05 RMK AO2 T01780156
53915KARA ARA20161212030511212/12/16 03:05:31  5-MIN KARA 120905Z AUTO 15004KT 5SM BR OVC080 18/16 A3004 -80 90 300 150/04 RMK AO2 T01780161
53915KARA ARA20161212031011212/12/16 03:10:31  5-MIN KARA 120910Z AUTO 15004KT 5SM BR OVC080 18/16 A3004 -80 87 300 150/04 RMK AO2 T01780156
53915KARA ARA20161212031511212/12/16 03:15:31  5-MIN KARA 120915Z AUTO 17005KT 6SM BR OVC080 18/16 A3004 -80 87 300 170/05 RMK AO2 T01780156
53915KARA ARA20161212032010912/12/16 03:20:31  5-MIN KARA 120920Z AUTO 17006KT 7SM OVC080 18/16 A3004 -80 87 300 170/06 RMK AO2 T01830161
53915KARA ARA20161212032510912/12/16 03:25:31  5-MIN KARA 120925Z AUTO 17005KT 9SM BKN085 18/16 A3004 -80 87 300 170/05 RMK AO2 T01830161
53915KARA ARA20161212033011012/12/16 03:30:31  5-MIN KARA 120930Z AUTO 17005KT 10SM BKN085 18/16 A3003 -70 87 300 170/05 RMK AO2 T01830161
53915KARA ARA20161212033511012/12/16 03:35:31  5-MIN KARA 120935Z AUTO 17006KT 10SM SCT085 18/16 A3003 -70 90 300 170/06 RMK AO2 T01780161
53915KARA ARA20161212034011012/12/16 03:40:31  5-MIN KARA 120940Z AUTO 17006KT 10SM SCT085 18/16 A3003 -70 87 300 170/06 RMK AO2 T01780156
53915KARA ARA20161212034511012/12/16 03:45:31  5-MIN KARA 120945Z AUTO 17006KT 10SM FEW085 18/16 A3003 -70 87 300 170/06 RMK AO2 T01830161
53915KARA ARA20161212035011712/12/16 03:50:31  5-MIN KARA 120950Z AUTO 17007KT 10SM FEW080 18/16 A3003 -70 87 300 170/07 RMK AO2 SLP167 T01830161
53915KARA ARA20161212035510712/12/16 03:55:31  5-MIN KARA 120955Z AUTO 17006KT 10SM CLR 18/16 A3003 -70 87 300 170/06 RMK AO2 T01830161
53915KARA ARA20161212040011012/12/16 04:00:31  5-MIN KARA 121000Z AUTO 17005KT 10SM FEW080 18/16 A3003 -70 87 300 170/05 RMK AO2 T01830161
53915KARA ARA20161212040511012/12/16 04:05:31  5-MIN KARA 121005Z AUTO 17006KT 10SM FEW080 18/16 A3003 -70 87 300 170/06 RMK AO2 T01830161
53915KARA ARA20161212041011012/12/16 04:10:31  5-MIN KARA 121010Z AUTO 17006KT 10SM FEW080 18/16 A3003 -70 87 300 170/06 RMK AO2 T01830161
53915KARA ARA20161212041511012/12/16 04:15:31  5-MIN KARA 121015Z AUTO 17005KT 10SM FEW080 18/16 A3003 -70 87 300 170/05 RMK AO2 T01830161
53915KARA ARA20161212042011012/12/16 04:20:31  5-MIN KARA 121020Z AUTO 18005KT 10SM FEW080 18/16 A3002 -70 87 300 180/05 RMK AO2 T01830161
53915KARA ARA20161212042511012/12/16 04:25:31  5-MIN KARA 121025Z AUTO 17004KT 10SM FEW080 18/16 A3002 -60 90 300 160/04 RMK AO2 T01780161
53915KARA ARA20161212043011012/12/16 04:30:31  5-MIN KARA 121030Z AUTO 16004KT 10SM FEW080 18/16 A3002 -60 87 300 160/04 RMK AO2 T01780156
53915KARA ARA20161212043511012/12/16 04:35:31  5-MIN KARA 121035Z AUTO 16004KT 10SM FEW080 17/16 A3002 -60 90 200 160/04 RMK AO2 T01720156
53915KARA ARA20161212044010712/12/16 04:40:31  5-MIN KARA 121040Z AUTO 17004KT 10SM CLR 17/16 A3003 -70 90 200 170/04 RMK AO2 T01720156
53915KARA ARA20161212044511012/12/16 04:45:31  5-MIN KARA 121045Z AUTO 18003KT 10SM FEW085 18/16 A3003 -70 87 300 180/03 RMK AO2 T01780156
53915KARA ARA20161212045011712/12/16 04:50:31  5-MIN KARA 121050Z AUTO 21003KT 10SM SCT080 18/16 A3003 -70 87 300 210/03 RMK AO2 SLP167 T01780156
53915KARA ARA20161212045511012/12/16 04:55:31  5-MIN KARA 121055Z AUTO 21003KT 10SM SCT085 18/16 A3003 -70 90 300 210/03 RMK AO2 T01780161
53915KARA ARA20161212050011012/12/16 05:00:31  5-MIN KARA 121100Z AUTO 20005KT 10SM SCT085 18/16 A3003 -70 90 300 200/05 RMK AO2 T01780161
53915KARA ARA20161212050511012/12/16 05:05:31  5-MIN KARA 121105Z AUTO 20008KT 10SM BKN085 19/17 A3002 -60 87 400 200/08 RMK AO2 T01890167
53915KARA ARA20161212051011012/12/16 05:10:31  5-MIN KARA 121110Z AUTO 20010KT 10SM BKN085 19/17 A3002 -60 87 400 200/10 RMK AO2 T01890167
53915KARA ARA20161212051511012/12/16 05:15:31  5-MIN KARA 121115Z AUTO 20009KT 10SM BKN085 19/17 A3002 -60 87 400 200/09 RMK AO2 T01890167
53915KARA ARA20161212052011012/12/16 05:20:31  5-MIN KARA 121120Z AUTO 20009KT 10SM SCT085 19/16 A3002 -60 84 400 200/09 RMK AO2 T01890161
53915KARA ARA20161212052511012/12/16 05:25:31  5-MIN KARA 121125Z AUTO 19009KT 10SM SCT085 18/16 A3002 -60 87 300 190/09 RMK AO2 T01830161
53915KARA ARA20161212053011012/12/16 05:30:31  5-MIN KARA 121130Z AUTO 20009KT 10SM FEW085 18/16 A3002 -60 87 300 200/09 RMK AO2 T01830161
53915KARA ARA20161212053511012/12/16 05:35:31  5-MIN KARA 121135Z AUTO 20009KT 10SM FEW085 18/16 A3002 -60 87 300 200/09 RMK AO2 T01830161
53915KARA ARA20161212054010712/12/16 05:40:31  5-MIN KARA 121140Z AUTO 20008KT 10SM CLR 18/16 A3002 -60 87 300 200/08 RMK AO2 T01830161
53915KARA ARA20161212054510212/12/16 05:45:31  5-MIN KARA 121145Z 20008KT 10SM CLR 18/16 A3002 -60 87 300 200/08 RMK AO2 T01830161
53915KARA ARA20161212055012712/12/16 05:50:31  5-MIN KARA 121150Z 19007KT 10SM CLR 18/16 A3002 -60 87 400 190/07 RMK AO2 SLP164 T01830161 10189 20167 58005
53915KARA ARA20161212055510212/12/16 05:55:31  5-MIN KARA 121155Z 20007KT 10SM CLR 18/16 A3002 -60 87 300 190/07 RMK AO2 T01830161
53915KARA ARA20161212060010212/12/16 06:00:31  5-MIN KARA 121200Z 20006KT 10SM CLR 18/16 A3003 -70 87 300 200/06 RMK AO2 T01830161
53915KARA ARA20161212060510212/12/16 06:05:31  5-MIN KARA 121205Z 20007KT 10SM CLR 18/16 A3003 -70 87 300 200/07 RMK AO2 T01830161
53915KARA ARA20161212061010212/12/16 06:10:31  5-MIN KARA 121210Z 20006KT 10SM CLR 18/16 A3003 -70 87 300 200/06 RMK AO2 T01830161
53915KARA ARA20161212061510212/12/16 06:15:31  5-MIN KARA 121215Z 20006KT 10SM CLR 18/16 A3003 -70 87 300 200/06 RMK AO2 T01830161
53915KARA ARA20161212062010212/12/16 06:20:31  5-MIN KARA 121220Z 20006KT 10SM CLR 18/16 A3003 -70 87 300 200/06 RMK AO2 T01830161
53915KARA ARA20161212062510212/12/16 06:25:31  5-MIN KARA 121225Z 21007KT 10SM CLR 18/17 A3003 -70 90 300 210/07 RMK AO2 T01830167
53915KARA ARA20161212063010212/12/16 06:30:31  5-MIN KARA 121230Z 21008KT 10SM CLR 19/17 A3003 -70 87 400 210/08 RMK AO2 T01890167
53915KARA ARA20161212063510212/12/16 06:35:31  5-MIN KARA 121235Z 21009KT 10SM CLR 19/17 A3004 -80 87 400 210/09 RMK AO2 T01890167
53915KARA ARA20161212064010212/12/16 06:40:31  5-MIN KARA 121240Z 20008KT 10SM CLR 19/17 A3004 -80 87 400 200/08 RMK AO2 T01890167
53915KARA ARA20161212064510212/12/16 06:45:31  5-MIN KARA 121245Z 21008KT 10SM CLR 18/16 A3004 -80 87 300 200/08 RMK AO2 T01830161
53915KARA ARA20161212065010912/12/16 06:50:31  5-MIN KARA 121250Z 21007KT 10SM CLR 18/16 A3004 -80 87 300 210/07 RMK AO2 SLP171 T01830161
53915KARA ARA20161212065510212/12/16 06:55:31  5-MIN KARA 121255Z 21006KT 10SM CLR 18/16 A3004 -80 90 300 200/06 RMK AO2 T01780161
53915KARA ARA20161212070010212/12/16 07:00:31  5-MIN KARA 121300Z 21007KT 10SM CLR 18/16 A3004 -80 90 300 210/07 RMK AO2 T01780161
53915KARA ARA20161212070510212/12/16 07:05:31  5-MIN KARA 121305Z 20007KT 10SM CLR 18/16 A3004 -80 90 300 200/07 RMK AO2 T01780161
53915KARA ARA20161212071010212/12/16 07:10:31  5-MIN KARA 121310Z 20008KT 10SM CLR 18/16 A3004 -80 90 300 200/08 RMK AO2 T01780161
53915KARA ARA20161212071510212/12/16 07:15:31  5-MIN KARA 121315Z 20008KT 10SM CLR 18/16 A3004 -80 90 300 200/08 RMK AO2 T01780161
53915KARA ARA20161212072010212/12/16 07:20:31  5-MIN KARA 121320Z 19007KT 10SM CLR 18/16 A3004 -80 90 300 190/07 RMK AO2 T01780161
53915KARA ARA20161212072510212/12/16 07:25:31  5-MIN KARA 121325Z 19007KT 10SM CLR 18/16 A3004 -80 90 300 190/07 RMK AO2 T01780161
53915KARA ARA20161212073010212/12/16 07:30:31  5-MIN KARA 121330Z 19007KT 10SM CLR 18/16 A3004 -80 90 300 190/07 RMK AO2 T01780161
53915KARA ARA20161212073510212/12/16 07:35:31  5-MIN KARA 121335Z 19007KT 10SM CLR 18/16 A3004 -80 87 300 190/07 RMK AO2 T01830161
53915KARA ARA20161212074010212/12/16 07:40:31  5-MIN KARA 121340Z 19006KT 10SM CLR 18/17 A3004 -80 90 300 190/06 RMK AO2 T01830167
53915KARA ARA20161212074510212/12/16 07:45:31  5-MIN KARA 121345Z 19006KT 10SM CLR 19/17 A3004 -80 87 400 180/06 RMK AO2 T01890167
53915KARA ARA20161212075010912/12/16 07:50:31  5-MIN KARA 121350Z 19006KT 10SM CLR 19/17 A3005 -80 87 400 180/06 RMK AO2 SLP173 T01890167
53915KARA ARA20161212075510212/12/16 07:55:31  5-MIN KARA 121355Z 19007KT 10SM CLR 19/17 A3005 -80 87 500 180/07 RMK AO2 T01940172
53915KARA ARA20161212080010212/12/16 08:00:31  5-MIN KARA 121400Z 19008KT 10SM CLR 19/17 A3005 -90 87 500 190/08 RMK AO2 T01940172
53915KARA ARA20161212080510212/12/16 08:05:31  5-MIN KARA 121405Z 19007KT 10SM CLR 19/17 A3005 -90 87 400 190/07 RMK AO2 T01940172
53915KARA ARA20161212081010212/12/16 08:10:31  5-MIN KARA 121410Z 19006KT 10SM CLR 20/17 A3005 -90 84 500 190/06 RMK AO2 T02000172
53915KARA ARA20161212081510212/12/16 08:15:31  5-MIN KARA 121415Z 19006KT 10SM CLR 20/17 A3005 -90 84 500 190/06 RMK AO2 T02000172
53915KARA ARA20161212082010212/12/16 08:20:31  5-MIN KARA 121420Z 19007KT 10SM CLR 21/17 A3005 -90 81 600 190/07 RMK AO2 T02060172
53915KARA ARA20161212082510312/12/16 08:25:31  5-MIN KARA 121425Z 19006KT 10SM CLR 21/17 A3006 -100 81 600 190/06 RMK AO2 T02060172
53915KARA ARA20161212083010312/12/16 08:30:31  5-MIN KARA 121430Z 18007KT 10SM CLR 21/18 A3006 -100 81 600 180/07 RMK AO2 T02110178
53915KARA ARA20161212083510312/12/16 08:35:31  5-MIN KARA 121435Z 18006KT 10SM CLR 21/18 A3006 -100 81 600 180/06 RMK AO2 T02110178
53915KARA ARA20161212084010312/12/16 08:40:31  5-MIN KARA 121440Z 18007KT 10SM CLR 22/18 A3006 -100 78 700 180/07 RMK AO2 T02170178
53915KARA ARA20161212084510312/12/16 08:45:31  5-MIN KARA 121445Z 18006KT 10SM CLR 22/18 A3007 -100 78 700 180/06 RMK AO2 T02170178
53915KARA ARA20161212085011612/12/16 08:50:31  5-MIN KARA 121450Z 19006KT 10SM CLR 22/18 A3007 -100 75 700 190/06 RMK AO2 SLP180 T02220178 56006
53915KARA ARA20161212085510312/12/16 08:55:31  5-MIN KARA 121455Z 20008KT 10SM CLR 22/18 A3007 -100 75 700 200/08 RMK AO2 T02220178
53915KARA ARA20161212090010612/12/16 09:00:31  5-MIN KARA 121500Z 20010KT 10SM FEW100 23/18 A3007 -110 73 800 200/10 RMK AO2 T02280178
53915KARA ARA20161212090510612/12/16 09:05:31  5-MIN KARA 121505Z 20009KT 10SM FEW100 23/18 A3007 -110 73 800 200/09 RMK AO2 T02280178
53915KARA ARA20161212091010612/12/16 09:10:31  5-MIN KARA 121510Z 20011KT 10SM FEW100 23/18 A3007 -110 73 800 200/11 RMK AO2 T02280178
53915KARA ARA20161212091510612/12/16 09:15:31  5-MIN KARA 121515Z 20011KT 10SM FEW100 23/18 A3007 -110 73 800 200/11 RMK AO2 T02280178
53915KARA ARA20161212092010612/12/16 09:20:31  5-MIN KARA 121520Z 20012KT 10SM FEW100 23/18 A3008 -110 73 800 200/12 RMK AO2 T02280178
53915KARA ARA20161212092510612/12/16 09:25:31  5-MIN KARA 121525Z 20011KT 10SM FEW100 23/18 A3008 -110 70 900 200/11 RMK AO2 T02330178
53915KARA ARA20161212093010312/12/16 09:30:31  5-MIN KARA 121530Z 19013KT 10SM CLR 23/18 A3008 -120 73 900 190/13 RMK AO2 T02330183
53915KARA ARA20161212093510312/12/16 09:35:31  5-MIN KARA 121535Z 20011KT 10SM CLR 23/18 A3008 -120 70 900 200/11 RMK AO2 T02330178
53915KARA ARA20161212094010312/12/16 09:40:31  5-MIN KARA 121540Z 19012KT 10SM CLR 24/18 A3008 -120 68 900 190/12 RMK AO2 T02390178
53915KARA ARA20161212094510312/12/16 09:45:31  5-MIN KARA 121545Z 20014KT 10SM CLR 24/18 A3008 -120 68 900 200/14 RMK AO2 T02390178
53915KARA ARA20161212095011012/12/16 09:50:31  5-MIN KARA 121550Z 20014KT 10SM CLR 24/18 A3008 -120 68 900 200/14 RMK AO2 SLP186 T02390178
53915KARA ARA20161212095510312/12/16 09:55:31  5-MIN KARA 121555Z 21012KT 10SM CLR 24/18 A3008 -120 71 900 200/12 RMK AO2 T02390183
53915KARA ARA20161212100010412/12/16 10:00:31  5-MIN KARA 121600Z 20010KT 10SM CLR 24/18 A3008 -120 68 1000 200/10 RMK AO2 T02440183
53915KARA ARA20161212100510412/12/16 10:05:31  5-MIN KARA 121605Z 19011KT 10SM CLR 24/18 A3008 -120 68 1000 190/11 RMK AO2 T02440183
53915KARA ARA20161212101011012/12/16 10:10:31  5-MIN KARA 121610Z 20012G18KT 10SM CLR 25/18 A3008 -120 66 1000 200/12G18 RMK AO2 T02500183
53915KARA ARA20161212101511012/12/16 10:15:31  5-MIN KARA 121615Z 21014G18KT 10SM CLR 24/18 A3008 -120 68 1000 210/14G18 RMK AO2 T02440183
53915KARA ARA20161212102010412/12/16 10:20:31  5-MIN KARA 121620Z 20013KT 10SM CLR 25/18 A3008 -120 66 1100 200/13 RMK AO2 T02500183
53915KARA ARA20161212102510412/12/16 10:25:31  5-MIN KARA 121625Z 20013KT 10SM CLR 24/18 A3008 -110 68 1000 200/13 RMK AO2 T02440183
53915KARA ARA20161212103010412/12/16 10:30:31  5-MIN KARA 121630Z 20015KT 10SM CLR 25/18 A3007 -110 66 1100 200/15 RMK AO2 T02500183
53915KARA ARA20161212103510712/12/16 10:35:31  5-MIN KARA 121635Z 19014KT 10SM FEW042 25/18 A3007 -110 66 1100 190/14 RMK AO2 T02500183
53915KARA ARA20161212104010712/12/16 10:40:31  5-MIN KARA 121640Z 20013KT 10SM SCT042 25/18 A3007 -110 66 1100 190/13 RMK AO2 T02500183
53915KARA ARA20161212104511312/12/16 10:45:31  5-MIN KARA 121645Z 20011G20KT 10SM SCT042 25/18 A3007 -110 66 1100 200/11G20 RMK AO2 T02500183
53915KARA ARA20161212105012012/12/16 10:50:31  5-MIN KARA 121650Z 21013G21KT 10SM SCT042 25/18 A3007 -100 66 1100 210/13G21 RMK AO2 SLP180 T02500183
53915KARA ARA20161212105511312/12/16 10:55:31  5-MIN KARA 121655Z 21013G21KT 10SM SCT042 25/18 A3006 -100 66 1100 210/13G21 RMK AO2 T02500183
53915KARA ARA20161212110010712/12/16 11:00:31  5-MIN KARA 121700Z 20014KT 10SM SCT042 26/18 A3006 -100 64 1100 200/14 RMK AO2 T02560183
53915KARA ARA20161212110510712/12/16 11:05:31  5-MIN KARA 121705Z 20014KT 10SM SCT042 26/19 A3006 -100 66 1100 200/14 RMK AO2 T02560189
53915KARA ARA20161212111011412/12/16 11:10:31  5-MIN KARA 121710Z 21016KT 10SM FEW020 BKN042 26/19 A3006 -100 66 1100 210/16 RMK AO2 T02560189
53915KARA ARA20161212111511412/12/16 11:15:31  5-MIN KARA 121715Z 21015KT 10SM FEW020 BKN043 26/19 A3006 -100 66 1100 210/15 RMK AO2 T02560189
53915KARA ARA20161212112011412/12/16 11:20:31  5-MIN KARA 121720Z 21015KT 10SM SCT020 BKN043 26/19 A3007 -100 66 1100 200/15 RMK AO2 T02560189
53915KARA ARA20161212112511412/12/16 11:25:31  5-MIN KARA 121725Z 21013KT 10SM BKN020 OVC043 24/18 A3007 -100 68 1000 210/13 RMK AO2 T02440183
53915KARA ARA20161212113011412/12/16 11:30:31  5-MIN KARA 121730Z 21012KT 10SM BKN020 OVC043 24/19 A3007 -100 71 1000 210/12 RMK AO2 T02440189
53915KARA ARA20161212113511412/12/16 11:35:31  5-MIN KARA 121735Z 21014KT 10SM BKN020 OVC045 24/19 A3006 -100 71 1000 210/14 RMK AO2 T02440189
53915KARA ARA20161212114011412/12/16 11:40:31  5-MIN KARA 121740Z 22013KT 10SM BKN020 OVC027 24/19 A3006 -100 71 1000 210/13 RMK AO2 T02440189
53915KARA ARA20161212114511412/12/16 11:45:31  5-MIN KARA 121745Z 21014KT 10SM BKN020 OVC027 24/19 A3006 -100 71 1000 210/14 RMK AO2 T02440189
53915KARA ARA20161212115015112/12/16 11:50:31  5-MIN KARA 121750Z 21016G20KT 10SM BKN020 BKN027 OVC036 24/19 A3005 -90 71 1000 210/16G20 RMK AO2 SLP176 T02440189 10261 20178 53016
53915KARA ARA20161212115512012/12/16 11:55:31  5-MIN KARA 121755Z 21014KT 10SM BKN020 BKN027 OVC050 24/19 A3005 -90 71 1000 210/14 RMK AO2 T02440189
53915KARA ARA20161212120012012/12/16 12:00:31  5-MIN KARA 121800Z 20012KT 10SM SCT020 BKN025 OVC050 25/19 A3005 -90 68 1100 200/12 RMK AO2 T02500189
53915KARA ARA20161212120512012/12/16 12:05:31  5-MIN KARA 121805Z 20014KT 10SM BKN020 BKN028 OVC055 25/19 A3005 -80 68 1100 200/14 RMK AO2 T02500189
53915KARA ARA20161212121012012/12/16 12:10:31  5-MIN KARA 121810Z 20014KT 10SM SCT020 BKN028 BKN037 26/19 A3004 -80 64 1200 200/14 RMK AO2 T02610189
53915KARA ARA20161212121512012/12/16 12:15:31  5-MIN KARA 121815Z 20012KT 10SM FEW020 SCT028 BKN060 26/19 A3004 -80 64 1200 200/12 RMK AO2 T02610189
53915KARA ARA20161212122012012/12/16 12:20:31  5-MIN KARA 121820Z 19014KT 10SM FEW020 SCT033 SCT060 25/19 A3004 -80 68 1100 190/14 RMK AO2 T02500189
53915KARA ARA20161212122511312/12/16 12:25:31  5-MIN KARA 121825Z 20012KT 10SM FEW019 SCT060 25/19 A3003 -70 71 1100 200/12 RMK AO2 T02500194
53915KARA ARA20161212123011912/12/16 12:30:31  5-MIN KARA 121830Z 21017G20KT 10SM SCT019 SCT060 25/19 A3003 -70 68 1100 210/17G20 RMK AO2 T02500189
53915KARA ARA20161212123512612/12/16 12:35:31  5-MIN KARA 121835Z 20013G20KT 10SM FEW018 SCT033 SCT060 24/19 A3003 -70 71 1000 200/13G20 RMK AO2 T02440189
53915KARA ARA20161212124012612/12/16 12:40:31  5-MIN KARA 121840Z 19014G19KT 10SM FEW018 SCT036 BKN070 26/19 A3003 -70 68 1200 190/14G19 RMK AO2 T02560194
53915KARA ARA20161212124512012/12/16 12:45:31  5-MIN KARA 121845Z 20012KT 10SM FEW018 SCT036 BKN070 26/19 A3002 -60 66 1200 200/12 RMK AO2 T02610194
53915KARA ARA20161212125013312/12/16 12:50:31  5-MIN KARA 121850Z 19013G21KT 10SM FEW018 SCT031 BKN065 26/19 A3002 -60 66 1200 190/13G21 RMK AO2 SLP165 T02560189
53915KARA ARA20161212125512612/12/16 12:55:31  5-MIN KARA 121855Z 20009G21KT 10SM FEW018 SCT031 BKN065 25/19 A3002 -60 68 1100 190/09G21 RMK AO2 T02500189
53915KARA ARA20161212130012012/12/16 13:00:31  5-MIN KARA 121900Z 19013KT 10SM FEW018 SCT041 BKN070 26/19 A3002 -60 66 1200 190/13 RMK AO2 T02560189
53915KARA ARA20161212130512012/12/16 13:05:31  5-MIN KARA 121905Z 19013KT 10SM FEW023 SCT042 BKN065 25/19 A3001 -60 68 1100 190/13 RMK AO2 T02500189
53915KARA ARA20161212131012012/12/16 13:10:31  5-MIN KARA 121910Z 19014KT 10SM FEW023 FEW039 OVC065 25/19 A3002 -60 68 1100 190/14 RMK AO2 T02500189
53915KARA ARA20161212131512012/12/16 13:15:31  5-MIN KARA 121915Z 19012KT 10SM FEW023 BKN060 OVC070 24/19 A3002 -60 71 1100 190/12 RMK AO2 T02440189
53915KARA ARA20161212132013612/12/16 13:20:31  5-MIN KARA 121920Z 20010KT 10SM -RA FEW023 BKN045 OVC070 24/19 A3001 -60 73 1100 190/10 RMK AO2 RAB16 P0000 T02440194
53915KARA ARA20161212132513612/12/16 13:25:31  5-MIN KARA 121925Z 19009KT 10SM -RA SCT025 BKN038 OVC065 24/19 A3001 -50 73 1100 190/09 RMK AO2 RAB16 P0000 T02440194
53915KARA ARA20161212133013512/12/16 13:30:31  5-MIN KARA 121930Z 20009KT 10SM BKN025 BKN038 OVC065 24/19 A3001 -50 73 1100 190/09 RMK AO2 RAB16E27 P0000 T02440194
53915KARA ARA20161212133513512/12/16 13:35:31  5-MIN KARA 121935Z 20009KT 10SM SCT023 BKN046 OVC065 24/19 A3001 -50 73 1100 200/09 RMK AO2 RAB16E27 P0000 T02440194
53915KARA ARA20161212134014112/12/16 13:40:31  5-MIN KARA 121940Z 19013G18KT 10SM SCT020 BKN026 OVC070 24/19 A3001 -50 71 1100 190/13G18 RMK AO2 RAB16E27 P0000 T02440189
53915KARA ARA20161212134514012/12/16 13:45:31  5-MIN KARA 121945Z 20010KT 5SM RA SCT020 BKN027 OVC065 24/19 A3001 -50 76 1000 200/10 RMK AO2 RAB16E27B43 P0001 T02390194
53915KARA ARA20161212135014612/12/16 13:50:31  5-MIN KARA 121950Z 19010KT 4SM RA SCT020 BKN026 OVC070 23/20 A3000 -50 81 900 190/10 RMK AO2 RAB16E27B43 SLP159 P0002 T02330200
53915KARA ARA20161212135512812/12/16 13:55:31  5-MIN KARA 121955Z 20012KT 7SM -RA SCT020 BKN028 OVC065 23/20 A3000 -50 81 900 200/12 RMK AO2 P0000 T02330200
53915KARA ARA20161212140013012/12/16 14:00:31  5-MIN KARA 122000Z 20010KT 10SM -RA SCT020 BKN028 OVC055 23/20 A3000 -40 81 1000 190/10 RMK AO2 P0000 T02330200
53915KARA ARA20161212140513012/12/16 14:05:31  5-MIN KARA 122005Z 20010KT 10SM -RA SCT020 BKN040 OVC070 23/20 A3000 -40 81 1000 190/10 RMK AO2 P0000 T02330200
53915KARA ARA20161212141013812/12/16 14:10:31  5-MIN KARA 122010Z 20013G17KT 10SM SCT018 BKN044 OVC060 24/21 A3000 -40 81 1000 200/13G17 RMK AO2 RAE07 P0000 T02390206
53915KARA ARA20161212141513812/12/16 14:15:31  5-MIN KARA 122015Z 21013G18KT 10SM SCT020 BKN037 BKN046 25/21 A2999 -40 76 1200 210/13G18 RMK AO2 RAE07 P0000 T02500206
53915KARA ARA20161212142013212/12/16 14:20:31  5-MIN KARA 122020Z 21014KT 10SM FEW020 SCT039 BKN046 25/20 A2999 -30 73 1200 210/14 RMK AO2 RAE07 P0000 T02500200
53915KARA ARA20161212142513212/12/16 14:25:31  5-MIN KARA 122025Z 20014KT 10SM SCT018 SCT044 BKN065 24/20 A2999 -40 76 1100 200/14 RMK AO2 RAE07 P0000 T02440200
53915KARA ARA20161212143013812/12/16 14:30:31  5-MIN KARA 122030Z 22014G20KT 10SM BKN018 BKN050 BKN070 24/20 A2999 -30 76 1100 220/14G20 RMK AO2 RAE07 P0000 T02440200
53915KARA ARA20161212143512512/12/16 14:35:31  5-MIN KARA 122035Z 21016KT 10SM BKN018 BKN024 24/20 A2999 -40 76 1100 210/16 RMK AO2 RAE07 P0000 T02440200
53915KARA ARA20161212144012512/12/16 14:40:31  5-MIN KARA 122040Z 21016KT 10SM SCT018 BKN026 24/20 A2999 -40 76 1100 210/16 RMK AO2 RAE07 P0000 T02440200
53915KARA ARA20161212144513012/12/16 14:45:31  5-MIN KARA 122045Z AUTO 21013KT 10SM SCT018 SCT026 24/20 A2999 -30 76 1100 210/13 RMK AO2 RAE07 P0000 T02440200
53915KARA ARA20161212145014412/12/16 14:50:31  5-MIN KARA 122050Z 21012KT 10SM SCT017 SCT026 24/20 A2999 -30 76 1100 210/12 RMK AO2 RAE07 SLP155 P0000 60002 T02440200 56021
53915KARA ARA20161212145511312/12/16 14:55:31  5-MIN KARA 122055Z 21011KT 10SM FEW017 SCT025 25/20 A2999 -40 73 1100 200/11 RMK AO2 T02500200
53915KARA ARA20161212150011312/12/16 15:00:31  5-MIN KARA 122100Z 21011KT 10SM FEW015 FEW025 25/20 A2999 -40 73 1100 210/11 RMK AO2 T02500200
53915KARA ARA20161212150510612/12/16 15:05:31  5-MIN KARA 122105Z 21009KT 10SM FEW015 24/20 A2999 -40 76 1100 210/09 RMK AO2 T02440200
53915KARA ARA20161212151010612/12/16 15:10:31  5-MIN KARA 122110Z 21013KT 10SM FEW015 25/20 A2999 -40 73 1100 200/13 RMK AO2 T02500200
53915KARA ARA20161212151510612/12/16 15:15:31  5-MIN KARA 122115Z 21013KT 10SM SCT015 24/20 A2999 -40 76 1100 210/13 RMK AO2 T02440200
53915KARA ARA20161212152010612/12/16 15:20:31  5-MIN KARA 122120Z 21010KT 10SM FEW015 24/20 A2999 -40 76 1100 210/10 RMK AO2 T02440200
53915KARA ARA20161212152510612/12/16 15:25:31  5-MIN KARA 122125Z 20010KT 10SM FEW015 24/20 A2999 -40 76 1100 200/10 RMK AO2 T02440200
53915KARA ARA20161212153010612/12/16 15:30:31  5-MIN KARA 122130Z 20011KT 10SM FEW015 24/20 A2999 -40 76 1100 200/11 RMK AO2 T02440200
53915KARA ARA20161212153510612/12/16 15:35:31  5-MIN KARA 122135Z 20011KT 10SM FEW015 24/20 A2999 -40 78 1000 190/11 RMK AO2 T02390200
53915KARA ARA20161212154010312/12/16 15:40:31  5-MIN KARA 122140Z 20010KT 10SM CLR 24/20 A2999 -40 78 1000 200/10 RMK AO2 T02390200
53915KARA ARA20161212154510312/12/16 15:45:31  5-MIN KARA 122145Z 20009KT 10SM CLR 24/20 A2999 -40 78 1000 200/09 RMK AO2 T02390200
53915KARA ARA20161212155011312/12/16 15:50:31  5-MIN KARA 122150Z 21009KT 10SM FEW014 24/20 A3000 -40 78 1000 210/09 RMK AO2 SLP157 T02390200
53915KARA ARA20161212155510612/12/16 15:55:31  5-MIN KARA 122155Z 21010KT 10SM FEW012 24/20 A3000 -40 78 1000 210/10 RMK AO2 T02390200
53915KARA ARA20161212160010612/12/16 16:00:31  5-MIN KARA 122200Z 20007KT 10SM FEW012 24/20 A3000 -40 78 1000 200/07 RMK AO2 T02390200
53915KARA ARA20161212160510612/12/16 16:05:31  5-MIN KARA 122205Z 20006KT 10SM FEW012 24/20 A3000 -40 78 1000 190/06 RMK AO2 T02390200
53915KARA ARA20161212161010612/12/16 16:10:31  5-MIN KARA 122210Z 20007KT 10SM FEW012 24/20 A3000 -40 78 1000 200/07 RMK AO2 T02390200
53915KARA ARA20161212161510612/12/16 16:15:31  5-MIN KARA 122215Z 21009KT 10SM FEW012 23/20 A3000 -40 81 1000 210/09 RMK AO2 T02330200
53915KARA ARA20161212162010612/12/16 16:20:31  5-MIN KARA 122220Z 22007KT 10SM FEW012 23/19 A3000 -40 78 1000 220/07 RMK AO2 T02330194
53915KARA ARA20161212162510612/12/16 16:25:31  5-MIN KARA 122225Z 20008KT 10SM SCT012 23/20 A3000 -40 81 1000 200/08 RMK AO2 T02330200
53915KARA ARA20161212163010512/12/16 16:30:31  5-MIN KARA 122230Z 21006KT 10SM SCT012 23/19 A3000 -40 81 900 210/06 RMK AO2 T02280194
53915KARA ARA20161212163510512/12/16 16:35:31  5-MIN KARA 122235Z 20007KT 10SM BKN012 23/20 A3000 -40 84 900 200/07 RMK AO2 T02280200
53915KARA ARA20161212164011212/12/16 16:40:31  5-MIN KARA 122240Z 20005KT 10SM SCT010 BKN014 23/20 A3000 -40 84 900 200/05 RMK AO2 T02280200
53915KARA ARA20161212164512412/12/16 16:45:31  5-MIN KARA 122245Z 21006KT 10SM BKN010 BKN014 23/19 A3000 -40 81 900 210/06 RMK AO2 CIG 009V012 T02280194
53915KARA ARA20161212165012612/12/16 16:50:31  5-MIN KARA 122250Z 21006KT 10SM SCT010 BKN014 BKN018 23/19 A3000 -40 81 900 210/06 RMK AO2 SLP158 T02280194
53915KARA ARA20161212165511912/12/16 16:55:31  5-MIN KARA 122255Z 22006KT 10SM SCT010 BKN013 OVC025 22/19 A3000 -40 84 800 210/06 RMK AO2 T02220194
53915KARA ARA20161212170011912/12/16 17:00:31  5-MIN KARA 122300Z 22007KT 10SM SCT009 BKN013 OVC025 22/19 A3000 -40 84 800 220/07 RMK AO2 T02220194
53915KARA ARA20161212170511912/12/16 17:05:31  5-MIN KARA 122305Z 21005KT 10SM FEW009 BKN013 OVC025 22/19 A3000 -40 84 800 210/05 RMK AO2 T02220194
53915KARA ARA20161212171011912/12/16 17:10:31  5-MIN KARA 122310Z 21007KT 10SM FEW009 SCT013 BKN025 22/19 A3000 -40 87 800 200/07 RMK AO2 T02170194
53915KARA ARA20161212171511912/12/16 17:15:31  5-MIN KARA 122315Z 20005KT 10SM FEW009 BKN026 BKN065 22/19 A3000 -40 87 800 200/05 RMK AO2 T02170194
53915KARA ARA20161212172011912/12/16 17:20:31  5-MIN KARA 122320Z 20007KT 10SM FEW008 SCT026 BKN060 22/19 A3000 -40 87 800 200/07 RMK AO2 T02170194
53915KARA ARA20161212172511212/12/16 17:25:31  5-MIN KARA 122325Z 20007KT 10SM FEW026 SCT060 22/19 A3000 -40 87 800 200/07 RMK AO2 T02170194
53915KARA ARA20161212173011212/12/16 17:30:31  5-MIN KARA 122330Z 21006KT 10SM FEW026 FEW060 22/19 A3000 -40 87 800 210/06 RMK AO2 T02170194
53915KARA ARA20161212173510512/12/16 17:35:31  5-MIN KARA 122335Z 21007KT 10SM SCT065 22/19 A3000 -40 87 800 210/07 RMK AO2 T02170194
53915KARA ARA20161212174010512/12/16 17:40:31  5-MIN KARA 122340Z 21006KT 10SM BKN065 22/19 A3000 -50 87 800 210/06 RMK AO2 T02170194
53915KARA ARA20161212174510512/12/16 17:45:31  5-MIN KARA 122345Z 21005KT 10SM BKN065 22/19 A3000 -50 87 800 210/05 RMK AO2 T02170194
53915KARA ARA20161212175013612/12/16 17:50:31  5-MIN KARA 122350Z 20006KT 10SM BKN070 22/19 A3000 -50 87 800 200/06 RMK AO2 SLP159 60002 T02170194 10261 20217 55009
53915KARA ARA20161212175510512/12/16 17:55:31  5-MIN KARA 122355Z 21006KT 10SM BKN065 22/19 A3001 -50 87 800 210/06 RMK AO2 T02170194
53915KARA ARA20161212180011212/12/16 18:00:31  5-MIN KARA 130000Z 21005KT 10SM FEW006 OVC065 22/20 A3001 -50 90 800 210/05 RMK AO2 T02170200
53915KARA ARA20161212180511212/12/16 18:05:31  5-MIN KARA 130005Z 21007KT 10SM SCT006 OVC065 22/20 A3001 -50 90 800 210/07 RMK AO2 T02170200
53915KARA ARA20161212181011912/12/16 18:10:31  5-MIN KARA 130010Z 20007KT 10SM SCT006 BKN012 OVC065 22/20 A3001 -50 90 800 200/07 RMK AO2 T02170200
53915KARA ARA20161212181511912/12/16 18:15:31  5-MIN KARA 130015Z 19006KT 10SM SCT006 BKN012 OVC065 22/20 A3001 -50 90 800 190/06 RMK AO2 T02170200
53915KARA ARA20161212182013112/12/16 18:20:31  5-MIN KARA 130020Z 19006KT 10SM BKN006 BKN012 OVC065 22/20 A3001 -50 90 800 190/06 RMK AO2 CIG 005V010 T02170200
53915KARA ARA20161212182512412/12/16 18:25:31  5-MIN KARA 130025Z 20007KT 10SM BKN006 OVC012 22/20 A3001 -50 90 700 200/07 RMK AO2 CIG 005V011 T02170200
53915KARA ARA20161212183011112/12/16 18:30:31  5-MIN KARA 130030Z 19007KT 9SM BKN006 OVC010 22/20 A3001 -50 90 800 190/07 RMK AO2 T02170200
53915KARA ARA20161212183511112/12/16 18:35:31  5-MIN KARA 130035Z 19006KT 9SM BKN004 OVC010 22/19 A3001 -50 87 800 190/06 RMK AO2 T02170194
53915KARA ARA20161212184010412/12/16 18:40:31  5-MIN KARA 130040Z 19006KT 8SM OVC004 22/19 A3001 -50 87 800 190/06 RMK AO2 T02170194
53915KARA ARA20161212184510412/12/16 18:45:31  5-MIN KARA 130045Z 20006KT 8SM OVC004 21/19 A3001 -50 90 700 190/06 RMK AO2 T02110194
53915KARA ARA20161212185011112/12/16 18:50:31  5-MIN KARA 130050Z 20007KT 7SM OVC004 21/19 A3001 -50 90 700 200/07 RMK AO2 SLP161 T02110194
53915KARA ARA20161212185510412/12/16 18:55:31  5-MIN KARA 130055Z 20006KT 7SM OVC004 21/19 A3001 -50 90 700 200/06 RMK AO2 T02110194
53915KARA ARA20161212190010412/12/16 19:00:31  5-MIN KARA 130100Z 21007KT 7SM OVC004 21/19 A3001 -50 90 700 210/07 RMK AO2 T02110194
53915KARA ARA20161212190510412/12/16 19:05:31  5-MIN KARA 130105Z 21007KT 7SM OVC004 21/19 A3001 -50 90 700 210/07 RMK AO2 T02110194
53915KARA ARA20161212191010412/12/16 19:10:31  5-MIN KARA 130110Z 21006KT 7SM OVC004 21/20 A3002 -60 93 700 210/06 RMK AO2 T02110200
53915KARA ARA20161212191510712/12/16 19:15:31  5-MIN KARA 130115Z 20009KT 6SM BR OVC004 21/20 A3001 -60 93 700 200/09 RMK AO2 T02110200
53915KARA ARA20161212192010712/12/16 19:20:31  5-MIN KARA 130120Z 20009KT 4SM BR OVC004 21/19 A3001 -60 90 700 200/09 RMK AO2 T02110194
53915KARA ARA20161212192511112/12/16 19:25:31  5-MIN KARA 130125Z 21009KT 2 1/2SM BR OVC003 21/19 A3001 -60 90 700 210/09 RMK AO2 T02110194
53915KARA ARA20161212193011112/12/16 19:30:31  5-MIN KARA 130130Z 21008KT 2 1/2SM BR OVC003 21/19 A3002 -60 90 700 210/08 RMK AO2 T02110194
53915KARA ARA20161212193511112/12/16 19:35:31  5-MIN KARA 130135Z 20008KT 1 3/4SM BR OVC002 21/19 A3002 -60 93 600 200/08 RMK AO2 T02060194
53915KARA ARA20161212194011112/12/16 19:40:31  5-MIN KARA 130140Z 20008KT 1 1/2SM BR OVC002 21/19 A3002 -60 93 600 200/08 RMK AO2 T02060194
53915KARA ARA20161212194511612/12/16 19:45:31  5-MIN KARA 130145Z AUTO 20007KT 1 1/4SM BR OVC002 21/19 A3001 -50 93 600 190/07 RMK AO2 T02060194
53915KARA ARA20161212195013912/12/16 19:50:31  5-MIN KARA 130150Z AUTO 20009KT 1 1/4SM -RA BR OVC002 21/19 A3001 -50 93 600 190/09 RMK AO2 RAB47 SLP162 P0000 T02060194
53915KARA ARA20161212195512612/12/16 19:55:31  5-MIN KARA 130155Z AUTO 20008KT 1 1/2SM -RA BR OVC002 21/19 A3001 -50 93 600 200/08 RMK AO2 P0000 T02060194
53915KARA ARA20161212200012612/12/16 20:00:31  5-MIN KARA 130200Z AUTO 20006KT 2SM BR OVC002 21/19 A3001 -50 93 600 200/06 RMK AO2 RAE0159 P0000 T02060194
53915KARA ARA20161212200512612/12/16 20:05:31  5-MIN KARA 130205Z AUTO 20008KT 3SM BR OVC002 21/19 A3001 -50 93 600 200/08 RMK AO2 RAE0159 P0000 T02060194
53915KARA ARA20161212201012612/12/16 20:10:31  5-MIN KARA 130210Z AUTO 20007KT 4SM BR OVC002 21/19 A3001 -50 93 600 200/07 RMK AO2 RAE0159 P0000 T02060194
53915KARA ARA20161212201512612/12/16 20:15:31  5-MIN KARA 130215Z AUTO 21007KT 5SM BR OVC002 21/19 A3001 -50 90 700 210/07 RMK AO2 RAE0159 P0000 T02110194
53915KARA ARA20161212202012612/12/16 20:20:31  5-MIN KARA 130220Z AUTO 20009KT 6SM BR OVC002 21/19 A3001 -50 90 700 200/09 RMK AO2 RAE0159 P0000 T02110194
53915KARA ARA20161212202512312/12/16 20:25:31  5-MIN KARA 130225Z AUTO 20008KT 7SM OVC003 21/19 A3001 -50 90 700 200/08 RMK AO2 RAE0159 P0000 T02110194
53915KARA ARA20161212203011312/12/16 20:30:31  5-MIN KARA 130230Z AUTO 7SM OVC003 21/20 A3001 -50 93 700 M /M RMK AO2 RAE0159 P0000 T02110200
53915KARA ARA20161212203512612/12/16 20:35:31  5-MIN KARA 130235Z AUTO 21006KT 6SM BR OVC003 21/20 A3001 -50 93 700 210/06 RMK AO2 RAE0159 P0000 T02110200
53915KARA ARA20161212204012312/12/16 20:40:31  5-MIN KARA 130240Z AUTO 20007KT 7SM OVC003 21/20 A3001 -60 93 700 200/07 RMK AO2 RAE0159 P0000 T02110200
53915KARA ARA20161212204512312/12/16 20:45:31  5-MIN KARA 130245Z AUTO 20007KT 7SM OVC003 21/20 A3002 -60 93 700 200/07 RMK AO2 RAE0159 P0000 T02110200
53915KARA ARA20161212205011312/12/16 20:50:31  5-MIN KARA 130250Z AUTO 20006KT 8SM OVC004 21/20 A3002 -60 93 700 200/06 RMK AO2 RAE0159 P0000
53915KARA ARA20161212205510912/12/16 20:55:31  5-MIN KARA 130255Z AUTO 20007KT 8SM OVC004 22/20 A3001 -60 90 700 200/07 RMK AO2 T02170200
53915KARA ARA20161212210010912/12/16 21:00:31  5-MIN KARA 130300Z AUTO 20009KT 8SM OVC005 22/20 A3001 -50 90 700 200/09 RMK AO2 T02170200
53915KARA ARA20161212210510912/12/16 21:05:31  5-MIN KARA 130305Z AUTO 19010KT 8SM OVC005 22/20 A3001 -50 90 800 190/10 RMK AO2 T02170200
53915KARA ARA20161212211010912/12/16 21:10:31  5-MIN KARA 130310Z AUTO 19009KT 8SM OVC005 22/20 A3000 -50 90 800 190/09 RMK AO2 T02170200
53915KARA ARA20161212221512412/12/16 22:15:31  5-MIN KARA 130415Z AUTO 20010KT 4SM BR OVC003 21/19 A3001 -50 90 700 200/10 RMK AO2 LTG DSNT NE T02110194
53915KARA ARA20161212222012412/12/16 22:20:31  5-MIN KARA 130420Z AUTO 21010KT 4SM BR OVC003 21/19 A3001 -60 90 700 210/10 RMK AO2 LTG DSNT NE T02110194
53915KARA ARA20161212222512412/12/16 22:25:31  5-MIN KARA 130425Z AUTO 20011KT 3SM BR OVC003 21/19 A3001 -50 90 700 200/11 RMK AO2 LTG DSNT NE T02110194
53915KARA ARA20161212223011212/12/16 22:30:31  5-MIN KARA 130430Z AUTO 21010KT 2SM BR OVC002 21/19 A3001 -60 90 700 210/10 RMK AO2 T02110194
53915KARA ARA20161212223511212/12/16 22:35:31  5-MIN KARA 130435Z AUTO 20008KT 2SM BR OVC002 21/19 A3001 -50 90 700 200/08 RMK AO2 T02110194
53915KARA ARA20161212224011212/12/16 22:40:31  5-MIN KARA 130440Z AUTO 20009KT 2SM BR OVC002 21/19 A3001 -50 93 600 190/09 RMK AO2 T02060194
53915KARA ARA20161212224511612/12/16 22:45:31  5-MIN KARA 130445Z AUTO 20009KT 1 1/2SM BR OVC002 21/19 A3001 -60 93 600 200/09 RMK AO2 T02060194
53915KARA ARA20161212225010412/12/16 22:50:31  5-MIN KARA 130450Z AUTO 20009KT 3/4SM BR OVC002 21/19 A3001 -50 93 600 200/09 RMK AO2
53915KARA ARA20161212225511312/12/16 22:55:31  5-MIN KARA 130455Z AUTO 20008KT 3/4SM BR VV002 21/19 A3001 -50 93 600 200/08 RMK AO2 T02060194
53915KARA ARA20161212230011312/12/16 23:00:31  5-MIN KARA 130500Z AUTO 20007KT 3/4SM BR VV002 21/19 A3001 -50 93 600 200/07 RMK AO2 T02060194
53915KARA ARA20161212230511612/12/16 23:05:31  5-MIN KARA 130505Z AUTO 21007KT 1 1/4SM BR OVC002 21/19 A3001 -50 93 600 210/07 RMK AO2 T02060194
53915KARA ARA20161212231011612/12/16 23:10:31  5-MIN KARA 130510Z AUTO 21008KT 1 1/4SM BR OVC002 21/19 A3001 -50 93 600 200/08 RMK AO2 T02060194
53915KARA ARA20161212231511112/12/16 23:15:31  5-MIN KARA 130515Z AUTO 21009KT 1SM BR VV002 21/19 A3001 -50 93 600 200/09 RMK AO2 T02060194
53915KARA ARA20161212232011312/12/16 23:20:31  5-MIN KARA 130520Z AUTO 22009KT 3/4SM BR VV002 21/19 A3001 -50 93 600 220/09 RMK AO2 T02060194
53915KARA ARA20161212232511312/12/16 23:25:31  5-MIN KARA 130525Z AUTO 22009KT 1/2SM FG VV002 21/19 A3001 -50 93 600 210/09 RMK AO2 T02060194
53915KARA ARA20161212233011312/12/16 23:30:31  5-MIN KARA 130530Z AUTO 22007KT 1/2SM FG VV002 21/19 A3001 -50 93 600 220/07 RMK AO2 T02060194
53915KARA ARA20161212233511312/12/16 23:35:31  5-MIN KARA 130535Z AUTO 21008KT 1/4SM FG VV002 21/19 A3001 -50 90 600 210/08 RMK AO2 T02060189
53915KARA ARA20161212234011312/12/16 23:40:31  5-MIN KARA 130540Z AUTO 21007KT 1/2SM FG VV002 20/19 A3001 -50 93 600 210/07 RMK AO2 T02000189
53915KARA ARA20161212234511312/12/16 23:45:31  5-MIN KARA 130545Z AUTO 21009KT 1/2SM FG VV002 20/19 A3001 -50 93 600 210/09 RMK AO2 T02000189
53915KARA ARA20161212235015412/12/16 23:50:31  5-MIN KARA 130550Z AUTO 21007KT 1/2SM FG VV002 20/19 A3001 -50 93 600 210/07 RMK AO2 SLP160 60000 T02000189 10217 20200 402610167 51002
53915KARA ARA20161212235511312/12/16 23:55:31  5-MIN KARA 130555Z AUTO 20007KT 1/2SM FG VV002 20/19 A3000 -50 93 600 200/07 RMK AO2 T02000189
53915KARA ARA20161213000011312/13/16 00:00:31  5-MIN KARA 130600Z AUTO 20007KT 1/2SM FG VV002 21/19 A3000 -50 93 600 200/07 RMK AO2 T02060194
53915KARA ARA20161213000511312/13/16 00:05:31  5-MIN KARA 130605Z AUTO 20008KT 1/2SM FG VV002 21/19 A3000 -40 90 600 200/08 RMK AO2 T02060189
53915KARA ARA20161213001011312/13/16 00:10:31  5-MIN KARA 130610Z AUTO 20008KT 1/2SM FG VV002 21/19 A3000 -40 93 600 200/08 RMK AO2 T02060194
53915KARA ARA20161213001511312/13/16 00:15:31  5-MIN KARA 130615Z AUTO 20009KT 1/2SM FG VV002 21/19 A3000 -40 93 600 200/09 RMK AO2 T02060194
53915KARA ARA20161213002011312/13/16 00:20:31  5-MIN KARA 130620Z AUTO 21009KT 1/2SM FG VV002 21/19 A3000 -40 90 600 200/09 RMK AO2 T02060189
53915KARA ARA20161213002511312/13/16 00:25:31  5-MIN KARA 130625Z AUTO 21010KT 1/2SM FG VV002 20/19 A2999 -40 93 600 210/10 RMK AO2 T02000189
53915KARA ARA20161213003011312/13/16 00:30:31  5-MIN KARA 130630Z AUTO 21008KT 1/2SM FG VV002 20/19 A2999 -40 93 600 210/08 RMK AO2 T02000189
53915KARA ARA20161213003511312/13/16 00:35:31  5-MIN KARA 130635Z AUTO 20008KT 1/2SM FG VV002 20/19 A2999 -40 93 600 200/08 RMK AO2 T02000189
53915KARA ARA20161213004011312/13/16 00:40:31  5-MIN KARA 130640Z AUTO 20007KT 1/2SM FG VV002 20/19 A2999 -40 93 600 200/07 RMK AO2 T02000189
53915KARA ARA20161213004511312/13/16 00:45:31  5-MIN KARA 130645Z AUTO 20007KT 1/2SM FG VV002 20/19 A2999 -40 93 600 200/07 RMK AO2 T02000189
53915KARA ARA20161213005010312/13/16 00:50:31  5-MIN KARA 130650Z AUTO 20007KT 1/4SM FG VV002 20/19 A2999 -40 93 600 200/07 RMK AO2
53915KARA ARA20161213005511312/13/16 00:55:31  5-MIN KARA 130655Z AUTO 20007KT 1/4SM FG VV002 20/19 A3000 -40 93 600 200/07 RMK AO2 T02000189
53915KARA ARA20161213010011312/13/16 01:00:31  5-MIN KARA 130700Z AUTO 21006KT 1/2SM FG VV002 20/19 A3000 -40 93 600 210/06 RMK AO2 T02000189
53915KARA ARA20161213010511312/13/16 01:05:31  5-MIN KARA 130705Z AUTO 21007KT 1/2SM FG VV002 20/19 A3000 -40 93 600 210/07 RMK AO2 T02000189
53915KARA ARA20161213011011312/13/16 01:10:31  5-MIN KARA 130710Z AUTO 22007KT 1/2SM FG VV002 20/19 A3000 -50 93 600 220/07 RMK AO2 T02000189
53915KARA ARA20161213011511312/13/16 01:15:31  5-MIN KARA 130715Z AUTO 21006KT 1/2SM FG VV002 20/19 A3000 -50 93 600 210/06 RMK AO2 T02000189
53915KARA ARA20161213012011312/13/16 01:20:31  5-MIN KARA 130720Z AUTO 20006KT 1/2SM FG VV002 20/19 A3000 -40 93 600 200/06 RMK AO2 T02000189
53915KARA ARA20161213012511312/13/16 01:25:31  5-MIN KARA 130725Z AUTO 20006KT 1/2SM FG VV002 20/19 A3000 -40 93 600 200/06 RMK AO2 T02000189
53915KARA ARA20161213013011312/13/16 01:30:31  5-MIN KARA 130730Z AUTO 20005KT 1/2SM FG VV002 20/19 A3000 -40 93 600 200/05 RMK AO2 T02000189
53915KARA ARA20161213013511312/13/16 01:35:31  5-MIN KARA 130735Z AUTO 20006KT 1/2SM FG VV002 20/19 A3000 -40 93 600 200/06 RMK AO2 T02000189
53915KARA ARA20161213014011312/13/16 01:40:31  5-MIN KARA 130740Z AUTO 20007KT 3/4SM BR VV002 21/19 A3000 -40 93 600 200/07 RMK AO2 T02060194
53915KARA ARA20161213014511112/13/16 01:45:31  5-MIN KARA 130745Z AUTO 20007KT 1SM BR VV002 21/19 A3000 -40 93 600 190/07 RMK AO2 T02060194
53915KARA ARA20161213015012012/13/16 01:50:31  5-MIN KARA 130750Z AUTO 19007KT 3/4SM BR VV002 20/19 A3000 -40 93 600 190/07 RMK AO2 SLP157 T02000189
53915KARA ARA20161213015511312/13/16 01:55:31  5-MIN KARA 130755Z AUTO 19007KT 3/4SM BR VV002 20/19 A2999 -40 93 600 190/07 RMK AO2 T02000189
53915KARA ARA20161213020011312/13/16 02:00:31  5-MIN KARA 130800Z AUTO 19006KT 3/4SM BR VV002 20/19 A3000 -40 93 600 190/06 RMK AO2 T02000189
53915KARA ARA20161213020511312/13/16 02:05:31  5-MIN KARA 130805Z AUTO 20006KT 3/4SM BR VV002 20/19 A3000 -40 93 600 190/06 RMK AO2 T02000189
53915KARA ARA20161213021011312/13/16 02:10:31  5-MIN KARA 130810Z AUTO 20006KT 3/4SM BR VV002 20/19 A3000 -40 93 600 200/06 RMK AO2 T02000189
53915KARA ARA20161213021511312/13/16 02:15:31  5-MIN KARA 130815Z AUTO 21007KT 3/4SM BR VV002 20/19 A3000 -40 93 600 210/07 RMK AO2 T02000189
53915KARA ARA20161213022011112/13/16 02:20:31  5-MIN KARA 130820Z AUTO 21006KT 1SM BR VV002 20/19 A3000 -40 93 600 210/06 RMK AO2 T02000189
53915KARA ARA20161213022511312/13/16 02:25:31  5-MIN KARA 130825Z AUTO 20006KT 3/4SM BR VV002 20/19 A3000 -40 93 600 200/06 RMK AO2 T02000189
53915KARA ARA20161213023011312/13/16 02:30:31  5-MIN KARA 130830Z AUTO 20006KT 3/4SM BR VV002 20/19 A2999 -40 93 600 200/06 RMK AO2 T02000189
53915KARA ARA20161213023511312/13/16 02:35:31  5-MIN KARA 130835Z AUTO 19006KT 3/4SM BR VV002 20/19 A2999 -40 93 600 190/06 RMK AO2 T02000189
53915KARA ARA20161213024011112/13/16 02:40:31  5-MIN KARA 130840Z AUTO 20006KT 1SM BR VV002 20/19 A2999 -40 93 600 200/06 RMK AO2 T02000189
53915KARA ARA20161213024511112/13/16 02:45:31  5-MIN KARA 130845Z AUTO 20006KT 1SM BR VV002 20/19 A2999 -40 93 600 200/06 RMK AO2 T02000189
53915KARA ARA20161213025012912/13/16 02:50:31  5-MIN KARA 130850Z AUTO 20007KT 1 1/4SM BR OVC002 20/19 A2999 -40 93 600 200/07 RMK AO2 SLP156 T02000189 58003
53915KARA ARA20161213025511612/13/16 02:55:31  5-MIN KARA 130855Z AUTO 20006KT 1 1/4SM BR OVC002 20/19 A2999 -40 93 600 200/06 RMK AO2 T02000189
53915KARA ARA20161213030011612/13/16 03:00:31  5-MIN KARA 130900Z AUTO 20006KT 1 1/4SM BR OVC002 20/19 A2999 -40 93 600 200/06 RMK AO2 T02000189
53915KARA ARA20161213030511212/13/16 03:05:31  5-MIN KARA 130905Z AUTO 20006KT 1SM BR OVC002 20/19 A2999 -30 93 600 200/06 RMK AO2 T02000189
53915KARA ARA20161213031011312/13/16 03:10:31  5-MIN KARA 130910Z AUTO 20006KT 3/4SM BR VV002 20/19 A2999 -30 93 600 200/06 RMK AO2 T02000189
53915KARA ARA20161213031512912/13/16 03:15:31  5-MIN KARA 130915Z AUTO 20008KT 3/4SM -RA BR VV002 20/19 A2999 -30 93 600 200/08 RMK AO2 RAB11 P0000 T02000189
53915KARA ARA20161213032012912/13/16 03:20:31  5-MIN KARA 130920Z AUTO 20006KT 1/2SM -RA FG VV002 20/19 A2999 -30 93 600 200/06 RMK AO2 RAB11 P0000 T02000189
53915KARA ARA20161213032512912/13/16 03:25:31  5-MIN KARA 130925Z AUTO 20006KT 1/2SM -RA FG VV002 20/19 A2999 -30 93 600 200/06 RMK AO2 RAB11 P0000 T02000189
53915KARA ARA20161213033012912/13/16 03:30:31  5-MIN KARA 130930Z AUTO 21005KT 1/2SM -RA FG VV002 20/19 A2999 -30 93 600 210/05 RMK AO2 RAB11 P0000 T02000189
53915KARA ARA20161213033512812/13/16 03:35:31  5-MIN KARA 130935Z AUTO 21007KT 1/2SM FG VV002 20/19 A2999 -30 93 600 210/07 RMK AO2 RAB11E33 P0000 T02000189
53915KARA ARA20161213034012912/13/16 03:40:31  5-MIN KARA 130940Z AUTO 22008KT 1/2SM -RA FG VV002 21/19 A2999 -40 90 600 220/08 RMK AO2 RAB11 P0000 T02060189
53915KARA ARA20161213034512912/13/16 03:45:31  5-MIN KARA 130945Z AUTO 22008KT 1/2SM -RA FG VV002 21/19 A2999 -40 90 600 220/08 RMK AO2 RAB11 P0000 T02060189
53915KARA ARA20161213035013612/13/16 03:50:31  5-MIN KARA 130950Z AUTO 22008KT 3/4SM -RA BR VV002 21/19 A2999 -30 93 600 220/08 RMK AO2 RAB11 SLP155 P0000 T02060194
53915KARA ARA20161213035511312/13/16 03:55:31  5-MIN KARA 130955Z AUTO 22006KT 3/4SM BR VV002 21/19 A2999 -30 93 600 210/06 RMK AO2 T02060194
53915KARA ARA20161213040013112/13/16 04:00:31  5-MIN KARA 131000Z AUTO 22006KT 3/4SM -RA BR VV002 21/19 A2999 -30 93 600 220/06 RMK AO2 RAB0957 P0000 T02060194
53915KARA ARA20161213040512912/13/16 04:05:31  5-MIN KARA 131005Z AUTO 21006KT 1SM -RA BR VV002 21/19 A2999 -30 93 600 210/06 RMK AO2 RAB0957 P0000 T02060194
53915KARA ARA20161213041012912/13/16 04:10:31  5-MIN KARA 131010Z AUTO 21006KT 1SM -RA BR VV002 21/19 A2999 -30 93 600 210/06 RMK AO2 RAB0957 P0000 T02060194
53915KARA ARA20161213041512912/13/16 04:15:31  5-MIN KARA 131015Z AUTO 21005KT 1SM -RA BR VV003 21/19 A2999 -30 93 600 210/05 RMK AO2 RAB0957 P0000 T02060194
53915KARA ARA20161213042012912/13/16 04:20:31  5-MIN KARA 131020Z AUTO 22004KT 1SM -RA BR VV003 21/19 A2999 -30 93 600 220/04 RMK AO2 RAB0957 P0000 T02060194
53915KARA ARA20161213042513412/13/16 04:25:31  5-MIN KARA 131025Z AUTO 22006KT 1 1/4SM -RA BR OVC003 21/19 A3000 -40 93 600 220/06 RMK AO2 RAB0957 P0000 T02060194
53915KARA ARA20161213043013412/13/16 04:30:31  5-MIN KARA 131030Z AUTO 22007KT 1 1/4SM -RA BR OVC003 21/19 A3000 -40 93 600 210/07 RMK AO2 RAB0957 P0000 T02060194
53915KARA ARA20161213043513312/13/16 04:35:31  5-MIN KARA 131035Z AUTO 21006KT 1 1/4SM BR OVC003 21/19 A2999 -40 93 600 210/06 RMK AO2 RAB0957E35 P0000 T02060194
53915KARA ARA20161213044012812/13/16 04:40:31  5-MIN KARA 131040Z AUTO 22006KT 1SM BR VV002 21/19 A2999 -40 93 600 220/06 RMK AO2 RAB0957E35 P0000 T02060194
53915KARA ARA20161213044512812/13/16 04:45:31  5-MIN KARA 131045Z AUTO 21005KT 1SM BR VV002 21/19 A2999 -40 93 600 210/05 RMK AO2 RAB0957E35 P0000 T02060194
53915KARA ARA20161213045014012/13/16 04:50:31  5-MIN KARA 131050Z AUTO 21006KT 1 1/2SM BR OVC002 21/19 A2999 -40 93 600 210/06 RMK AO2 RAB0957E35 SLP156 P0000 T02060194
53915KARA ARA20161213045511212/13/16 04:55:31  5-MIN KARA 131055Z AUTO 22006KT 2SM BR OVC002 21/19 A2999 -40 93 600 220/06 RMK AO2 T02060194
53915KARA ARA20161213050011212/13/16 05:00:31  5-MIN KARA 131100Z AUTO 22004KT 3SM BR OVC002 21/19 A2999 -30 93 600 220/04 RMK AO2 T02060194
53915KARA ARA20161213050511212/13/16 05:05:31  5-MIN KARA 131105Z AUTO 22005KT 4SM BR OVC002 21/19 A2999 -40 93 600 220/05 RMK AO2 T02060194
53915KARA ARA20161213051011212/13/16 05:10:31  5-MIN KARA 131110Z AUTO 21004KT 4SM BR OVC002 21/19 A2999 -40 93 600 210/04 RMK AO2 T02060194
53915KARA ARA20161213051511212/13/16 05:15:31  5-MIN KARA 131115Z AUTO 20004KT 4SM BR OVC002 21/19 A2999 -40 93 600 200/04 RMK AO2 T02060194
53915KARA ARA20161213052011212/13/16 05:20:31  5-MIN KARA 131120Z AUTO 20004KT 4SM BR OVC002 21/19 A2999 -40 93 600 200/04 RMK AO2 T02060194
53915KARA ARA20161213052511212/13/16 05:25:31  5-MIN KARA 131125Z AUTO 21004KT 4SM BR OVC003 21/19 A2999 -30 93 600 210/04 RMK AO2 T02060194
53915KARA ARA20161213053011212/13/16 05:30:31  5-MIN KARA 131130Z AUTO 21004KT 4SM BR OVC003 21/19 A2999 -30 93 600 200/04 RMK AO2 T02060194
53915KARA ARA20161213053511212/13/16 05:35:31  5-MIN KARA 131135Z AUTO 21004KT 4SM BR OVC003 21/19 A2999 -30 93 600 210/04 RMK AO2 T02060194
53915KARA ARA20161213054011212/13/16 05:40:31  5-MIN KARA 131140Z AUTO 20005KT 4SM BR OVC003 21/19 A2999 -30 93 600 200/05 RMK AO2 T02060194
53915KARA ARA20161213054512812/13/16 05:45:31  5-MIN KARA 131145Z AUTO 21005KT 4SM -RA BR OVC003 21/19 A2999 -40 93 600 210/05 RMK AO2 RAB45 P0000 T02060194
53915KARA ARA20161213055016712/13/16 05:50:31  5-MIN KARA 131150Z 20004KT 4SM -RA BR BKN003 OVC016 21/19 A3000 -40 93 600 200/04 RMK AO2 RAB45 SLP156 P0000 60000 70002 T02060194 10206 20200 56004
53915KARA ARA20161213055513112/13/16 05:55:31  5-MIN KARA 131155Z 19005KT 4SM -RA BR BKN003 BKN013 OVC065 21/19 A2999 -40 93 600 190/05 RMK AO2 P0000 T02060194
53915KARA ARA20161213060013512/13/16 06:00:31  5-MIN KARA 131200Z 20004KT 4SM BR BKN002 BKN013 OVC065 21/19 A2999 -40 93 600 200/04 RMK AO2 RAE1159 P0000 T02060194
53915KARA ARA20161213060512812/13/16 06:05:31  5-MIN KARA 131205Z 20004KT 4SM BR BKN002 OVC013 21/19 A3000 -40 93 600 200/04 RMK AO2 RAE1159 P0000 T02060194
53915KARA ARA20161213061012812/13/16 06:10:31  5-MIN KARA 131210Z 21005KT 3SM BR BKN002 OVC013 21/19 A3000 -40 93 600 200/05 RMK AO2 RAE1159 P0000 T02060194
53915KARA ARA20161213061513212/13/16 06:15:31  5-MIN KARA 131215Z 20005KT 2 1/2SM BR BKN002 OVC011 21/19 A2999 -40 93 600 200/05 RMK AO2 RAE1159 P0000 T02060194
53915KARA ARA20161213062012512/13/16 06:20:31  5-MIN KARA 131220Z 20006KT 2 1/2SM BR OVC002 21/19 A3000 -40 90 700 200/06 RMK AO2 RAE1159 P0000 T02110194
53915KARA ARA20161213062512112/13/16 06:25:31  5-MIN KARA 131225Z 20006KT 2SM BR OVC002 21/19 A3000 -40 90 700 200/06 RMK AO2 RAE1159 P0000 T02110194
53915KARA ARA20161213063012512/13/16 06:30:31  5-MIN KARA 131230Z 20007KT 2 1/2SM BR OVC002 21/20 A3000 -40 93 700 200/07 RMK AO2 RAE1159 P0000 T02110200
53915KARA ARA20161213063512112/13/16 06:35:31  5-MIN KARA 131235Z 20007KT 3SM BR OVC002 21/20 A3000 -40 93 700 200/07 RMK AO2 RAE1159 P0000 T02110200
53915KARA ARA20161213064012112/13/16 06:40:31  5-MIN KARA 131240Z 20008KT 4SM BR OVC002 21/20 A3000 -40 93 700 200/08 RMK AO2 RAE1159 P0000 T02110200
53915KARA ARA20161213064512112/13/16 06:45:31  5-MIN KARA 131245Z 20007KT 4SM BR OVC002 21/20 A3000 -40 93 700 200/07 RMK AO2 RAE1159 P0000 T02110200
53915KARA ARA20161213065012812/13/16 06:50:31  5-MIN KARA 131250Z 20007KT 5SM BR OVC002 21/20 A3000 -40 93 700 200/07 RMK AO2 RAE1159 SLP158 P0001 T02110200
53915KARA ARA20161213065510712/13/16 06:55:31  5-MIN KARA 131255Z 20006KT 5SM BR OVC002 21/20 A3000 -40 93 700 200/06 RMK AO2 T02110200
53915KARA ARA20161213070010712/13/16 07:00:31  5-MIN KARA 131300Z 21008KT 5SM BR OVC003 21/20 A3000 -50 93 700 210/08 RMK AO2 T02110200
53915KARA ARA20161213070510712/13/16 07:05:31  5-MIN KARA 131305Z 21008KT 5SM BR OVC003 21/20 A3001 -50 93 700 210/08 RMK AO2 T02110200
53915KARA ARA20161213071010712/13/16 07:10:31  5-MIN KARA 131310Z 21007KT 5SM BR OVC003 21/20 A3001 -50 93 700 210/07 RMK AO2 T02110200
53915KARA ARA20161213071510712/13/16 07:15:31  5-MIN KARA 131315Z 20007KT 4SM BR OVC003 21/20 A3001 -50 93 700 200/07 RMK AO2 T02110200
53915KARA ARA20161213072010712/13/16 07:20:31  5-MIN KARA 131320Z 20007KT 4SM BR OVC003 21/20 A3001 -50 93 700 200/07 RMK AO2 T02110200
53915KARA ARA20161213072510712/13/16 07:25:31  5-MIN KARA 131325Z 21008KT 4SM BR OVC003 22/20 A3001 -50 90 700 200/08 RMK AO2 T02170200
53915KARA ARA20161213073010712/13/16 07:30:31  5-MIN KARA 131330Z 20008KT 4SM BR OVC003 22/20 A3001 -50 90 700 200/08 RMK AO2 T02170200
53915KARA ARA20161213073510712/13/16 07:35:31  5-MIN KARA 131335Z 20007KT 4SM BR OVC003 22/20 A3001 -50 90 700 200/07 RMK AO2 T02170200
53915KARA ARA20161213074010712/13/16 07:40:31  5-MIN KARA 131340Z 20008KT 3SM BR OVC003 22/20 A3001 -50 90 700 200/08 RMK AO2 T02170200
53915KARA ARA20161213074510712/13/16 07:45:31  5-MIN KARA 131345Z 21007KT 4SM BR OVC003 22/21 A3002 -60 93 700 210/07 RMK AO2 T02170206
53915KARA ARA20161213075011412/13/16 07:50:31  5-MIN KARA 131350Z 21006KT 6SM BR OVC003 22/21 A3002 -60 93 700 210/06 RMK AO2 SLP164 T02170206
53915KARA ARA20161213075510712/13/16 07:55:31  5-MIN KARA 131355Z 21007KT 6SM BR OVC003 22/21 A3002 -60 93 700 210/07 RMK AO2 T02170206
53915KARA ARA20161213080010712/13/16 08:00:31  5-MIN KARA 131400Z 22008KT 6SM BR OVC003 22/21 A3002 -60 93 700 220/08 RMK AO2 T02170206
53915KARA ARA20161213080510712/13/16 08:05:31  5-MIN KARA 131405Z 21010KT 6SM BR OVC003 22/21 A3002 -60 93 700 210/10 RMK AO2 T02170206
53915KARA ARA20161213081010712/13/16 08:10:31  5-MIN KARA 131410Z 21008KT 5SM BR OVC003 22/21 A3002 -60 93 700 200/08 RMK AO2 T02170206
53915KARA ARA20161213081510712/13/16 08:15:31  5-MIN KARA 131415Z 21009KT 4SM BR OVC003 22/21 A3002 -60 93 700 210/09 RMK AO2 T02170206
53915KARA ARA20161213082010712/13/16 08:20:31  5-MIN KARA 131420Z 21007KT 4SM BR OVC003 22/21 A3002 -60 93 700 210/07 RMK AO2 T02170206
53915KARA ARA20161213082510712/13/16 08:25:31  5-MIN KARA 131425Z 21007KT 3SM BR OVC003 22/21 A3002 -60 93 700 210/07 RMK AO2 T02170206
53915KARA ARA20161213083011112/13/16 08:30:31  5-MIN KARA 131430Z 20007KT 2 1/2SM BR OVC003 22/21 A3002 -60 93 700 200/07 RMK AO2 T02170206
53915KARA ARA20161213083510712/13/16 08:35:31  5-MIN KARA 131435Z 20009KT 2SM BR OVC003 22/21 A3002 -60 93 700 200/09 RMK AO2 T02170206
53915KARA ARA20161213084011112/13/16 08:40:31  5-MIN KARA 131440Z 21008KT 1 3/4SM BR OVC003 22/21 A3002 -60 93 700 210/08 RMK AO2 T02170206
53915KARA ARA20161213084510712/13/16 08:45:31  5-MIN KARA 131445Z 22006KT 2SM BR OVC002 22/21 A3003 -70 90 800 210/06 RMK AO2 T02220206
53915KARA ARA20161213085013012/13/16 08:50:31  5-MIN KARA 131450Z 21007KT 2 1/2SM BR OVC002 22/21 A3003 -70 93 700 210/07 RMK AO2 SLP167 60001 T02170206 53000
53915KARA ARA20161213085510712/13/16 08:55:31  5-MIN KARA 131455Z 21006KT 3SM BR OVC002 22/21 A3002 -70 93 700 210/06 RMK AO2 T02170206
53915KARA ARA20161213090010712/13/16 09:00:31  5-MIN KARA 131500Z 22008KT 3SM BR OVC002 22/21 A3003 -70 93 700 210/08 RMK AO2 T02170206
53915KARA ARA20161213090510712/13/16 09:05:31  5-MIN KARA 131505Z 21007KT 4SM BR OVC002 22/21 A3003 -70 93 700 210/07 RMK AO2 T02170206
53915KARA ARA20161213091010712/13/16 09:10:31  5-MIN KARA 131510Z 22006KT 4SM BR OVC002 22/21 A3003 -70 90 800 220/06 RMK AO2 T02220206
53915KARA ARA20161213091510712/13/16 09:15:31  5-MIN KARA 131515Z 21007KT 4SM BR OVC002 22/21 A3003 -70 90 800 210/07 RMK AO2 T02220206
53915KARA ARA20161213092010712/13/16 09:20:31  5-MIN KARA 131520Z 22007KT 4SM BR OVC003 22/21 A3003 -70 90 800 210/07 RMK AO2 T02220206
53915KARA ARA20161213092510712/13/16 09:25:31  5-MIN KARA 131525Z 21008KT 4SM BR OVC003 22/21 A3003 -70 90 800 210/08 RMK AO2 T02220206
53915KARA ARA20161213093010712/13/16 09:30:31  5-MIN KARA 131530Z 23008KT 4SM BR OVC003 22/21 A3004 -80 90 800 220/08 RMK AO2 T02220206
53915KARA ARA20161213093510712/13/16 09:35:31  5-MIN KARA 131535Z 23008KT 4SM BR OVC003 22/21 A3003 -70 90 800 230/08 RMK AO2 T02220206
53915KARA ARA20161213094010712/13/16 09:40:31  5-MIN KARA 131540Z 22008KT 5SM BR OVC003 22/21 A3003 -70 90 800 220/08 RMK AO2 T02220206
53915KARA ARA20161213094510712/13/16 09:45:31  5-MIN KARA 131545Z 21007KT 5SM BR OVC003 22/21 A3003 -70 90 800 210/07 RMK AO2 T02220206
53915KARA ARA20161213095011412/13/16 09:50:31  5-MIN KARA 131550Z 21007KT 6SM BR OVC003 22/21 A3003 -70 90 800 210/07 RMK AO2 SLP170 T02220206
53915KARA ARA20161213095510412/13/16 09:55:31  5-MIN KARA 131555Z 22008KT 7SM OVC003 22/21 A3003 -70 90 800 210/08 RMK AO2 T02220206
53915KARA ARA20161213100010412/13/16 10:00:31  5-MIN KARA 131600Z 21010KT 8SM OVC003 22/21 A3003 -70 90 800 210/10 RMK AO2 T02220206
53915KARA ARA20161213100512012/13/16 10:05:31  5-MIN KARA 131605Z 21010KT 8SM -RA OVC003 22/21 A3003 -70 90 800 210/10 RMK AO2 RAB02 P0000 T02220206
53915KARA ARA20161213101012012/13/16 10:10:31  5-MIN KARA 131610Z 21009KT 9SM -RA OVC003 23/21 A3003 -70 87 900 210/09 RMK AO2 RAB02 P0000 T02280206
53915KARA ARA20161214082510912/14/16 08:25:31  5-MIN KARA 141425Z 35010KT 3SM BR OVC004 13/12 A3013 -160 89 -300 350/10 RMK AO2 T01330117
53915KARA ARA20161214083010912/14/16 08:30:31  5-MIN KARA 141430Z 36010KT 3SM BR OVC004 13/12 A3013 -160 89 -300 360/10 RMK AO2 T01330117
53915KARA ARA20161214083510912/14/16 08:35:31  5-MIN KARA 141435Z 36009KT 3SM BR OVC004 13/12 A3013 -170 89 -300 360/09 RMK AO2 T01330117
53915KARA ARA20161214084010912/14/16 08:40:31  5-MIN KARA 141440Z 36009KT 4SM BR OVC004 13/12 A3014 -170 89 -300 360/09 RMK AO2 T01330117
53915KARA ARA20161214084510912/14/16 08:45:31  5-MIN KARA 141445Z 36008KT 4SM BR OVC004 13/12 A3014 -170 89 -300 360/08 RMK AO2 T01330117
53915KARA ARA20161214085012212/14/16 08:50:31  5-MIN KARA 141450Z 36008KT 4SM BR OVC004 13/12 A3014 -170 89 -300 360/08 RMK AO2 SLP204 T01330117 51004
53915KARA ARA20161214085510912/14/16 08:55:31  5-MIN KARA 141455Z 35007KT 3SM BR OVC004 13/11 A3013 -160 86 -300 350/07 RMK AO2 T01330111
53915KARA ARA20161214090010912/14/16 09:00:31  5-MIN KARA 141500Z 36008KT 3SM BR OVC004 13/11 A3013 -160 86 -300 360/08 RMK AO2 T01330111
53915KARA ARA20161214090510912/14/16 09:05:31  5-MIN KARA 141505Z 36009KT 3SM BR OVC004 13/11 A3013 -160 86 -300 360/09 RMK AO2 T01330111
53915KARA ARA20161214091010912/14/16 09:10:31  5-MIN KARA 141510Z 36008KT 4SM BR OVC004 13/12 A3013 -160 89 -300 360/08 RMK AO2 T01330117
53915KARA ARA20161214091510912/14/16 09:15:31  5-MIN KARA 141515Z 36008KT 4SM BR OVC004 13/12 A3013 -160 89 -300 360/08 RMK AO2 T01330117
53915KARA ARA20161214092010912/14/16 09:20:31  5-MIN KARA 141520Z 35009KT 4SM BR OVC004 13/12 A3013 -160 89 -300 350/09 RMK AO2 T01330117
53915KARA ARA20161214092510912/14/16 09:25:31  5-MIN KARA 141525Z 36009KT 4SM BR OVC004 13/12 A3013 -160 89 -300 360/09 RMK AO2 T01330117
53915KARA ARA20161214093010912/14/16 09:30:31  5-MIN KARA 141530Z 36008KT 4SM BR OVC004 13/11 A3014 -170 86 -300 360/08 RMK AO2 T01330111
53915KARA ARA20161214093510912/14/16 09:35:31  5-MIN KARA 141535Z 01007KT 4SM BR OVC004 13/12 A3014 -170 89 -300 010/07 RMK AO2 T01330117
53915KARA ARA20161214094010912/14/16 09:40:31  5-MIN KARA 141540Z 01007KT 4SM BR OVC004 13/12 A3014 -170 89 -300 010/07 RMK AO2 T01330117
53915KARA ARA20161214094510912/14/16 09:45:31  5-MIN KARA 141545Z 02009KT 4SM BR OVC005 13/12 A3014 -170 89 -300 020/09 RMK AO2 T01330117
53915KARA ARA20161214095010312/14/16 09:50:31  5-MIN KARA 141550Z 01009KT 2 1/2SM BR OVC005 13/12 A3014 -170 89 -300 010/09 RMK AO2
53915KARA ARA20161214095510912/14/16 09:55:31  5-MIN KARA 141555Z 01009KT 2SM BR OVC005 13/12 A3014 -170 89 -300 010/09 RMK AO2 T01330117
53915KARA ARA20161214100010912/14/16 10:00:31  5-MIN KARA 141600Z 02007KT 2SM BR OVC005 13/12 A3014 -170 89 -300 010/07 RMK AO2 T01330117
53915KARA ARA20161214100510912/14/16 10:05:31  5-MIN KARA 141605Z 02008KT 2SM BR OVC005 13/12 A3013 -170 89 -300 010/08 RMK AO2 T01330117
53915KARA ARA20161214101010912/14/16 10:10:31  5-MIN KARA 141610Z 03007KT 2SM BR OVC004 13/12 A3014 -170 89 -300 020/07 RMK AO2 T01330117
53915KARA ARA20161214101511312/14/16 10:15:31  5-MIN KARA 141615Z 03007KT 2 1/2SM BR OVC004 13/12 A3014 -170 89 -300 020/07 RMK AO2 T01330117
53915KARA ARA20161214102011312/14/16 10:20:31  5-MIN KARA 141620Z 02008KT 2 1/2SM BR OVC004 13/12 A3014 -170 89 -300 020/08 RMK AO2 T01330117
53915KARA ARA20161214102510912/14/16 10:25:31  5-MIN KARA 141625Z 02008KT 3SM BR OVC004 13/12 A3013 -170 89 -300 020/08 RMK AO2 T01330117
53915KARA ARA20161214103010912/14/16 10:30:31  5-MIN KARA 141630Z 02007KT 3SM BR OVC004 14/12 A3014 -170 86 -300 020/07 RMK AO2 T01390117
53915KARA ARA20161214103510912/14/16 10:35:31  5-MIN KARA 141635Z 01008KT 3SM BR OVC004 13/12 A3013 -160 89 -300 010/08 RMK AO2 T01330117
53915KARA ARA20161214104010912/14/16 10:40:31  5-MIN KARA 141640Z 03006KT 3SM BR OVC004 13/11 A3013 -160 86 -300 030/06 RMK AO2 T01330111
53915KARA ARA20161214104510912/14/16 10:45:31  5-MIN KARA 141645Z 02006KT 3SM BR OVC004 13/11 A3013 -160 86 -300 020/06 RMK AO2 T01330111
53915KARA ARA20161214105011612/14/16 10:50:31  5-MIN KARA 141650Z 01006KT 3SM BR OVC004 13/12 A3013 -160 89 -300 010/06 RMK AO2 SLP200 T01330117
53915KARA ARA20161214105510912/14/16 10:55:31  5-MIN KARA 141655Z 02006KT 3SM BR OVC004 13/11 A3012 -160 86 -300 020/06 RMK AO2 T01330111
53915KARA ARA20161214110010912/14/16 11:00:31  5-MIN KARA 141700Z 03006KT 3SM BR OVC004 13/12 A3012 -160 89 -300 030/06 RMK AO2 T01330117
53915KARA ARA20161214110510912/14/16 11:05:31  5-MIN KARA 141705Z 01006KT 3SM BR OVC004 13/12 A3012 -150 89 -300 010/06 RMK AO2 T01330117
53915KARA ARA20161214111010912/14/16 11:10:31  5-MIN KARA 141710Z 01006KT 3SM BR OVC004 14/12 A3012 -150 86 -200 010/06 RMK AO2 T01390117
53915KARA ARA20161214111510912/14/16 11:15:31  5-MIN KARA 141715Z 03004KT 3SM BR OVC004 14/12 A3012 -150 86 -200 020/04 RMK AO2 T01390117
53915KARA ARA20161214112010912/14/16 11:20:31  5-MIN KARA 141720Z 01007KT 4SM BR OVC004 14/12 A3012 -150 86 -200 010/07 RMK AO2 T01390117
53915KARA ARA20161214112510912/14/16 11:25:31  5-MIN KARA 141725Z 02008KT 4SM BR OVC004 14/12 A3011 -150 86 -200 020/08 RMK AO2 T01390117
53915KARA ARA20161214113010912/14/16 11:30:31  5-MIN KARA 141730Z 01006KT 4SM BR OVC004 14/12 A3011 -150 86 -200 010/06 RMK AO2 T01390117
53915KARA ARA20161214113510912/14/16 11:35:31  5-MIN KARA 141735Z 36006KT 4SM BR OVC004 14/12 A3011 -140 86 -200 360/06 RMK AO2 T01390117
53915KARA ARA20161214114010912/14/16 11:40:31  5-MIN KARA 141740Z 36007KT 4SM BR OVC004 14/12 A3011 -140 86 -200 360/07 RMK AO2 T01390117
53915KARA ARA20161214114510912/14/16 11:45:31  5-MIN KARA 141745Z 35006KT 4SM BR OVC004 14/12 A3011 -140 86 -200 350/06 RMK AO2 T01390117
53915KARA ARA20161214115013412/14/16 11:50:31  5-MIN KARA 141750Z 35005KT 4SM BR OVC004 14/12 A3010 -140 86 -200 350/05 RMK AO2 SLP193 T01390117 10139 20133 51023
53915KARA ARA20161214115510912/14/16 11:55:31  5-MIN KARA 141755Z 01005KT 5SM HZ OVC005 14/12 A3010 -140 83 -200 010/05 RMK AO2 T01440117
53915KARA ARA20161214120010912/14/16 12:00:31  5-MIN KARA 141800Z 35005KT 5SM HZ OVC005 14/12 A3010 -140 83 -200 350/05 RMK AO2 T01440117
53915KARA ARA20161214120510912/14/16 12:05:31  5-MIN KARA 141805Z 34005KT 5SM HZ OVC005 14/12 A3010 -140 83 -200 340/05 RMK AO2 T01440117
53915KARA ARA20161214121010912/14/16 12:10:31  5-MIN KARA 141810Z 35006KT 5SM HZ OVC005 14/12 A3011 -140 83 -200 350/06 RMK AO2 T01440117
53915KARA ARA20161214121510912/14/16 12:15:31  5-MIN KARA 141815Z 34007KT 5SM HZ OVC005 14/12 A3010 -140 83 -200 340/07 RMK AO2 T01440117
53915KARA ARA20161214122010912/14/16 12:20:31  5-MIN KARA 141820Z 35005KT 6SM HZ OVC006 14/12 A3010 -140 83 -200 350/05 RMK AO2 T01440117
53915KARA ARA20161214122510912/14/16 12:25:31  5-MIN KARA 141825Z 34006KT 6SM HZ OVC006 15/12 A3010 -140 83 -100 340/06 RMK AO2 T01500122
53915KARA ARA20161214123010912/14/16 12:30:31  5-MIN KARA 141830Z 36006KT 6SM HZ OVC006 15/12 A3010 -140 80 -100 360/06 RMK AO2 T01500117
53915KARA ARA20161214123510912/14/16 12:35:31  5-MIN KARA 141835Z 33006KT 6SM HZ OVC006 15/12 A3010 -130 80 -100 330/06 RMK AO2 T01500117
53915KARA ARA20161214124010912/14/16 12:40:31  5-MIN KARA 141840Z 35007KT 6SM HZ OVC006 15/12 A3010 -130 80 -100 340/07 RMK AO2 T01500117
53915KARA ARA20161214124510912/14/16 12:45:31  5-MIN KARA 141845Z 35007KT 5SM HZ OVC006 15/12 A3010 -130 83 -100 350/07 RMK AO2 T01500122
53915KARA ARA20161214125011612/14/16 12:50:31  5-MIN KARA 141850Z 35007KT 6SM HZ OVC006 15/12 A3009 -130 83 -100 350/07 RMK AO2 SLP190 T01500122
53915KARA ARA20161214125510612/14/16 12:55:31  5-MIN KARA 141855Z 36007KT 7SM OVC006 15/12 A3010 -130 80 -100 350/07 RMK AO2 T01500117
53915KARA ARA20161214130010612/14/16 13:00:31  5-MIN KARA 141900Z 36009KT 7SM OVC006 15/12 A3009 -130 80 -100 360/09 RMK AO2 T01500117
53915KARA ARA20161214130510612/14/16 13:05:31  5-MIN KARA 141905Z 36009KT 7SM OVC007 15/12 A3009 -130 80 -100 360/09 RMK AO2 T01500117
53915KARA ARA20161214131010612/14/16 13:10:31  5-MIN KARA 141910Z 35008KT 7SM OVC007 15/12 A3009 -130 83 -100 340/08 RMK AO2 T01500122
53915KARA ARA20161214131510612/14/16 13:15:31  5-MIN KARA 141915Z 36008KT 7SM OVC007 15/12 A3009 -120 83 -100 360/08 RMK AO2 T01500122
53915KARA ARA20161214132010312/14/16 13:20:31  5-MIN KARA 141920Z 34008KT 7SM OVC007 16/12 A3008 -120 80 0 340/08 RMK AO2 T01560122
53915KARA ARA20161214132510612/14/16 13:25:31  5-MIN KARA 141925Z 35008KT 7SM OVC007 15/12 A3009 -120 83 -100 350/08 RMK AO2 T01500122
53915KARA ARA20161214133010612/14/16 13:30:31  5-MIN KARA 141930Z 36007KT 7SM OVC007 15/12 A3009 -120 83 -100 360/07 RMK AO2 T01500122
53915KARA ARA20161214133510312/14/16 13:35:31  5-MIN KARA 141935Z 01008KT 7SM OVC007 16/12 A3009 -120 80 0 010/08 RMK AO2 T01560122
53915KARA ARA20161214134010312/14/16 13:40:31  5-MIN KARA 141940Z 35008KT 8SM OVC007 16/12 A3009 -120 80 0 350/08 RMK AO2 T01560122
53915KARA ARA20161214134510312/14/16 13:45:31  5-MIN KARA 141945Z 35010KT 8SM OVC007 16/12 A3009 -130 77 0 350/10 RMK AO2 T01560117
53915KARA ARA20161214135011012/14/16 13:50:31  5-MIN KARA 141950Z 34008KT 8SM OVC008 16/12 A3009 -130 77 0 340/08 RMK AO2 SLP189 T01560117
53915KARA ARA20161214135510312/14/16 13:55:31  5-MIN KARA 141955Z 34010KT 8SM OVC008 16/12 A3009 -130 80 0 340/10 RMK AO2 T01560122
53915KARA ARA20161214140010312/14/16 14:00:31  5-MIN KARA 142000Z 34009KT 9SM OVC008 16/12 A3009 -130 77 0 340/09 RMK AO2 T01560117
53915KARA ARA20161214140510312/14/16 14:05:31  5-MIN KARA 142005Z 34008KT 9SM OVC009 16/12 A3010 -130 77 0 340/08 RMK AO2 T01560117
53915KARA ARA20161214141010312/14/16 14:10:31  5-MIN KARA 142010Z 35009KT 9SM OVC009 16/12 A3010 -130 77 0 350/09 RMK AO2 T01560117
53915KARA ARA20161214141510312/14/16 14:15:31  5-MIN KARA 142015Z 34009KT 9SM OVC009 16/12 A3010 -130 77 0 340/09 RMK AO2 T01560117
53915KARA ARA20161214142010312/14/16 14:20:31  5-MIN KARA 142020Z 34009KT 9SM OVC009 16/12 A3010 -130 77 0 340/09 RMK AO2 T01560117
53915KARA ARA20161214142510612/14/16 14:25:31  5-MIN KARA 142025Z 34009KT 8SM OVC009 15/12 A3009 -130 80 -100 340/09 RMK AO2 T01500117
53915KARA ARA20161214143010312/14/16 14:30:31  5-MIN KARA 142030Z 34010KT 8SM OVC009 16/12 A3009 -130 80 0 330/10 RMK AO2 T01560122
53915KARA ARA20161214143510612/14/16 14:35:31  5-MIN KARA 142035Z 34008KT 8SM OVC009 15/12 A3009 -130 80 -100 330/08 RMK AO2 T01500117
53915KARA ARA20161214144011112/14/16 14:40:31  5-MIN KARA 142040Z AUTO 34009KT 8SM OVC009 15/12 A3010 -130 80 -100 340/09 RMK AO2 T01500117
53915KARA ARA20161214144511112/14/16 14:45:31  5-MIN KARA 142045Z AUTO 34009KT 8SM OVC009 15/12 A3010 -130 80 -100 340/09 RMK AO2 T01500117
53915KARA ARA20161214145011912/14/16 14:50:31  5-MIN KARA 142050Z 36009KT 8SM OVC009 15/12 A3010 -140 80 -100 360/09 RMK AO2 SLP193 T01500117 58010
53915KARA ARA20161214145510612/14/16 14:55:31  5-MIN KARA 142055Z 36008KT 8SM OVC008 14/12 A3010 -140 83 -200 360/08 RMK AO2 T01440117
53915KARA ARA20161214150010612/14/16 15:00:31  5-MIN KARA 142100Z 35009KT 8SM OVC008 14/12 A3010 -140 83 -200 350/09 RMK AO2 T01440117
53915KARA ARA20161214150510612/14/16 15:05:31  5-MIN KARA 142105Z 36008KT 8SM OVC008 14/12 A3010 -140 83 -200 350/08 RMK AO2 T01440117
53915KARA ARA20161214151010612/14/16 15:10:31  5-MIN KARA 142110Z 35007KT 8SM OVC008 14/12 A3010 -130 83 -100 350/07 RMK AO2 T01440117
53915KARA ARA20161214151510612/14/16 15:15:31  5-MIN KARA 142115Z 36007KT 8SM OVC008 14/11 A3010 -130 80 -100 360/07 RMK AO2 T01440111
53915KARA ARA20161214152010612/14/16 15:20:31  5-MIN KARA 142120Z 01008KT 8SM OVC008 14/11 A3010 -140 80 -100 010/08 RMK AO2 T01440111
53915KARA ARA20161214152510612/14/16 15:25:31  5-MIN KARA 142125Z 01008KT 8SM OVC008 14/11 A3010 -130 80 -100 010/08 RMK AO2 T01440111
53915KARA ARA20161214153010612/14/16 15:30:31  5-MIN KARA 142130Z 35008KT 8SM OVC008 14/11 A3010 -130 80 -100 350/08 RMK AO2 T01440111
53915KARA ARA20161214153510612/14/16 15:35:31  5-MIN KARA 142135Z 01009KT 8SM OVC008 14/11 A3010 -130 80 -100 010/09 RMK AO2 T01440111
53915KARA ARA20161214154010612/14/16 15:40:31  5-MIN KARA 142140Z 35009KT 8SM OVC008 14/11 A3010 -140 80 -100 350/09 RMK AO2 T01440111
53915KARA ARA20161214154510612/14/16 15:45:31  5-MIN KARA 142145Z 36007KT 8SM OVC008 14/11 A3010 -140 80 -200 360/07 RMK AO2 T01440111
53915KARA ARA20161214155011312/14/16 15:50:31  5-MIN KARA 142150Z 02008KT 8SM OVC008 14/11 A3010 -140 80 -200 020/08 RMK AO2 SLP193 T01440111
53915KARA ARA20161214155510612/14/16 15:55:31  5-MIN KARA 142155Z 03009KT 8SM OVC008 14/11 A3010 -140 83 -200 020/09 RMK AO2 T01390111
53915KARA ARA20161214160010612/14/16 16:00:31  5-MIN KARA 142200Z 02009KT 8SM OVC008 14/11 A3010 -140 83 -200 020/09 RMK AO2 T01390111
53915KARA ARA20161214160510612/14/16 16:05:31  5-MIN KARA 142205Z 01008KT 8SM OVC008 14/11 A3011 -140 83 -200 010/08 RMK AO2 T01390111
53915KARA ARA20161214161010612/14/16 16:10:31  5-MIN KARA 142210Z 01009KT 8SM OVC008 14/11 A3011 -140 83 -200 010/09 RMK AO2 T01390111
53915KARA ARA20161214161510612/14/16 16:15:31  5-MIN KARA 142215Z 01011KT 8SM OVC008 14/11 A3011 -140 80 -200 010/11 RMK AO2 T01390106
53915KARA ARA20161214162010612/14/16 16:20:31  5-MIN KARA 142220Z 01010KT 8SM OVC008 14/11 A3011 -150 80 -200 010/10 RMK AO2 T01390106
53915KARA ARA20161214162510612/14/16 16:25:31  5-MIN KARA 142225Z 01009KT 8SM OVC008 14/11 A3012 -150 80 -200 010/09 RMK AO2 T01390106
53915KARA ARA20161214163010612/14/16 16:30:31  5-MIN KARA 142230Z 36009KT 9SM OVC008 13/11 A3012 -150 83 -300 360/09 RMK AO2 T01330106
53915KARA ARA20161214163510612/14/16 16:35:31  5-MIN KARA 142235Z 34009KT 9SM OVC008 13/11 A3012 -150 83 -300 340/09 RMK AO2 T01330106
53915KARA ARA20161214164010612/14/16 16:40:31  5-MIN KARA 142240Z 35009KT 9SM OVC008 13/11 A3012 -160 83 -300 350/09 RMK AO2 T01330106
53915KARA ARA20161214164510612/14/16 16:45:31  5-MIN KARA 142245Z 35011KT 9SM OVC008 13/11 A3013 -160 83 -300 350/11 RMK AO2 T01330106
53915KARA ARA20161214165011312/14/16 16:50:31  5-MIN KARA 142250Z 36011KT 9SM OVC008 13/11 A3013 -160 83 -300 360/11 RMK AO2 SLP201 T01330106
53915KARA ARA20161214165510612/14/16 16:55:31  5-MIN KARA 142255Z 35012KT 9SM OVC009 13/10 A3013 -160 80 -300 350/12 RMK AO2 T01330100
53915KARA ARA20161214170010612/14/16 17:00:31  5-MIN KARA 142300Z 36013KT 9SM OVC009 13/10 A3012 -160 80 -300 360/13 RMK AO2 T01330100
53915KARA ARA20161214170510612/14/16 17:05:31  5-MIN KARA 142305Z 35012KT 9SM OVC009 13/10 A3012 -160 83 -400 350/12 RMK AO2 T01280100
53915KARA ARA20161214171010612/14/16 17:10:31  5-MIN KARA 142310Z 35010KT 9SM OVC009 13/10 A3013 -160 83 -400 350/10 RMK AO2 T01280100
53915KARA ARA20161214171510612/14/16 17:15:31  5-MIN KARA 142315Z 01010KT 9SM OVC009 13/10 A3013 -160 83 -400 010/10 RMK AO2 T01280100
53915KARA ARA20161214172010612/14/16 17:20:31  5-MIN KARA 142320Z 36010KT 9SM OVC008 13/10 A3013 -160 83 -400 360/10 RMK AO2 T01280100
53915KARA ARA20161214172510712/14/16 17:25:31  5-MIN KARA 142325Z 36011KT 10SM OVC008 13/10 A3013 -160 83 -400 360/11 RMK AO2 T01280100
53915KARA ARA20161214173010712/14/16 17:30:31  5-MIN KARA 142330Z 34010KT 10SM OVC007 12/10 A3013 -160 86 -500 340/10 RMK AO2 T01220100
53915KARA ARA20161214173510712/14/16 17:35:31  5-MIN KARA 142335Z 36010KT 10SM OVC007 12/10 A3013 -170 86 -500 360/10 RMK AO2 T01220100
53915KARA ARA20161214174010712/14/16 17:40:31  5-MIN KARA 142340Z 35010KT 10SM OVC007 12/10 A3014 -170 86 -500 350/10 RMK AO2 T01220100
53915KARA ARA20161214174510712/14/16 17:45:31  5-MIN KARA 142345Z 02011KT 10SM OVC007 12/09 A3014 -170 83 -500 010/11 RMK AO2 T01220094
53915KARA ARA20161214175013212/14/16 17:50:31  5-MIN KARA 142350Z 36012KT 10SM OVC007 12/09 A3014 -170 83 -500 350/12 RMK AO2 SLP204 T01220094 10156 20122 55001
53915KARA ARA20161214175510712/14/16 17:55:31  5-MIN KARA 142355Z 35011KT 10SM OVC007 12/09 A3014 -170 86 -500 350/11 RMK AO2 T01170094
53915KARA ARA20161214180010712/14/16 18:00:31  5-MIN KARA 150000Z 35010KT 10SM OVC007 12/09 A3014 -170 86 -500 350/10 RMK AO2 T01170094
53915KARA ARA20161214180510712/14/16 18:05:31  5-MIN KARA 150005Z 35010KT 10SM OVC007 12/09 A3014 -170 86 -500 350/10 RMK AO2 T01170094
53915KARA ARA20161214181010712/14/16 18:10:31  5-MIN KARA 150010Z 36009KT 10SM OVC007 12/09 A3014 -170 86 -500 360/09 RMK AO2 T01170094
53915KARA ARA20161214181510712/14/16 18:15:31  5-MIN KARA 150015Z 36010KT 10SM OVC007 12/09 A3014 -170 86 -500 360/10 RMK AO2 T01170094
53915KARA ARA20161214182010712/14/16 18:20:31  5-MIN KARA 150020Z 01014KT 10SM OVC007 12/09 A3015 -180 86 -500 010/14 RMK AO2 T01170094
53915KARA ARA20161214182510712/14/16 18:25:31  5-MIN KARA 150025Z 02014KT 10SM OVC007 12/09 A3015 -190 83 -500 010/14 RMK AO2 T01170089
53915KARA ARA20161214183010712/14/16 18:30:31  5-MIN KARA 150030Z 02015KT 10SM OVC007 12/09 A3016 -190 83 -500 010/15 RMK AO2 T01170089
53915KARA ARA20161214183510712/14/16 18:35:31  5-MIN KARA 150035Z 01010KT 10SM OVC008 12/09 A3016 -190 83 -500 010/10 RMK AO2 T01170089
53915KARA ARA20161214184010712/14/16 18:40:31  5-MIN KARA 150040Z 36011KT 10SM OVC008 12/09 A3016 -190 83 -600 360/11 RMK AO2 T01170089
53915KARA ARA20161214184510712/14/16 18:45:31  5-MIN KARA 150045Z 36012KT 10SM OVC008 12/09 A3016 -190 83 -600 360/12 RMK AO2 T01170089
53915KARA ARA20161214185011412/14/16 18:50:31  5-MIN KARA 150050Z 36013KT 10SM OVC008 12/09 A3016 -190 83 -600 350/13 RMK AO2 SLP213 T01170089
53915KARA ARA20161214185510712/14/16 18:55:31  5-MIN KARA 150055Z 35013KT 10SM OVC008 12/09 A3017 -200 83 -600 350/13 RMK AO2 T01170089
53915KARA ARA20161214190010712/14/16 19:00:31  5-MIN KARA 150100Z 35016KT 10SM OVC008 12/08 A3017 -200 80 -600 350/16 RMK AO2 T01170083
53915KARA ARA20161214190510712/14/16 19:05:31  5-MIN KARA 150105Z 36015KT 10SM OVC009 12/08 A3017 -200 80 -600 350/15 RMK AO2 T01170083
53915KARA ARA20161214191010712/14/16 19:10:31  5-MIN KARA 150110Z 36012KT 10SM OVC009 11/08 A3017 -200 83 -600 360/12 RMK AO2 T01110083
53915KARA ARA20161214191510712/14/16 19:15:31  5-MIN KARA 150115Z 36014KT 10SM OVC009 11/08 A3017 -200 83 -600 360/14 RMK AO2 T01110083
53915KARA ARA20161214192010712/14/16 19:20:31  5-MIN KARA 150120Z 35014KT 10SM OVC009 11/08 A3018 -200 83 -600 350/14 RMK AO2 T01110083
53915KARA ARA20161214192510712/14/16 19:25:31  5-MIN KARA 150125Z 35014KT 10SM OVC009 11/08 A3018 -210 83 -600 350/14 RMK AO2 T01110083
53915KARA ARA20161214193010712/14/16 19:30:31  5-MIN KARA 150130Z 35011KT 10SM OVC009 11/08 A3018 -210 83 -600 350/11 RMK AO2 T01110083
53915KARA ARA20161214193510712/14/16 19:35:31  5-MIN KARA 150135Z 35011KT 10SM OVC010 11/08 A3018 -210 83 -600 350/11 RMK AO2 T01110083
53915KARA ARA20161214194010712/14/16 19:40:31  5-MIN KARA 150140Z 35011KT 10SM OVC010 11/08 A3018 -210 83 -600 350/11 RMK AO2 T01110083
53915KARA ARA20161214194510712/14/16 19:45:31  5-MIN KARA 150145Z 35011KT 10SM OVC010 11/08 A3018 -210 83 -600 350/11 RMK AO2 T01110083
53915KARA ARA20161214195011412/14/16 19:50:31  5-MIN KARA 150150Z 36012KT 10SM OVC010 11/08 A3018 -210 83 -600 360/12 RMK AO2 SLP218 T01110083
53915KARA ARA20161214195510712/14/16 19:55:31  5-MIN KARA 150155Z 36010KT 10SM OVC010 11/08 A3018 -210 83 -600 360/10 RMK AO2 T01110083
53915KARA ARA20161214200010712/14/16 20:00:31  5-MIN KARA 150200Z 36009KT 10SM OVC010 11/08 A3018 -210 83 -600 360/09 RMK AO2 T01110083
53915KARA ARA20161214200510712/14/16 20:05:31  5-MIN KARA 150205Z 36009KT 10SM OVC009 11/08 A3018 -210 83 -600 360/09 RMK AO2 T01110083
53915KARA ARA20161214201010712/14/16 20:10:31  5-MIN KARA 150210Z 01010KT 10SM OVC009 11/08 A3018 -210 83 -600 360/10 RMK AO2 T01110083
53915KARA ARA20161214201510712/14/16 20:15:31  5-MIN KARA 150215Z 03012KT 10SM OVC009 11/08 A3018 -210 83 -600 030/12 RMK AO2 T01110083
53915KARA ARA20161214202010712/14/16 20:20:31  5-MIN KARA 150220Z 03012KT 10SM OVC009 11/08 A3018 -210 83 -600 030/12 RMK AO2 T01110083
53915KARA ARA20161214202510712/14/16 20:25:31  5-MIN KARA 150225Z 03011KT 10SM OVC009 11/08 A3019 -210 83 -600 030/11 RMK AO2 T01110083
53915KARA ARA20161214203010712/14/16 20:30:31  5-MIN KARA 150230Z 03011KT 10SM OVC009 11/08 A3019 -220 83 -600 030/11 RMK AO2 T01110083
53915KARA ARA20161214203510712/14/16 20:35:31  5-MIN KARA 150235Z 02012KT 10SM OVC009 11/08 A3019 -220 83 -700 020/12 RMK AO2 T01110083
53915KARA ARA20161214204010712/14/16 20:40:31  5-MIN KARA 150240Z 01010KT 10SM OVC009 11/08 A3020 -220 80 -700 010/10 RMK AO2 T01110078
53915KARA ARA20161214204510712/14/16 20:45:31  5-MIN KARA 150245Z 36009KT 10SM OVC009 11/08 A3020 -230 80 -700 360/09 RMK AO2 T01110078
53915KARA ARA20161214205012012/14/16 20:50:31  5-MIN KARA 150250Z 36008KT 10SM OVC009 11/08 A3020 -230 80 -700 360/08 RMK AO2 SLP226 T01110078 53012
53915KARA ARA20161214205511212/14/16 20:55:31  5-MIN KARA 150255Z AUTO 36010KT 10SM OVC009 11/08 A3021 -230 80 -700 360/10 RMK AO2 T01110078
53915KARA ARA20161214210011212/14/16 21:00:31  5-MIN KARA 150300Z AUTO 36009KT 10SM OVC009 11/08 A3021 -230 80 -700 360/09 RMK AO2 T01110078
53915KARA ARA20161214210511212/14/16 21:05:31  5-MIN KARA 150305Z AUTO 36008KT 10SM OVC009 11/08 A3021 -230 83 -700 360/08 RMK AO2 T01060078
53915KARA ARA20161214211011212/14/16 21:10:31  5-MIN KARA 150310Z AUTO 36008KT 10SM OVC010 11/08 A3021 -230 83 -700 360/08 RMK AO2 T01060078
53915KARA ARA20161214211511212/14/16 21:15:31  5-MIN KARA 150315Z AUTO 04011KT 10SM OVC010 11/08 A3021 -230 83 -700 040/11 RMK AO2 T01060078
53915KARA ARA20161214212011212/14/16 21:20:31  5-MIN KARA 150320Z AUTO 05010KT 10SM OVC010 11/08 A3021 -230 83 -700 040/10 RMK AO2 T01060078
53915KARA ARA20161214212511212/14/16 21:25:31  5-MIN KARA 150325Z AUTO 04010KT 10SM OVC010 11/07 A3021 -230 80 -700 040/10 RMK AO2 T01060072
53915KARA ARA20161214213011212/14/16 21:30:31  5-MIN KARA 150330Z AUTO 04010KT 10SM OVC010 11/07 A3021 -240 80 -700 040/10 RMK AO2 T01060072
53915KARA ARA20161214213511212/14/16 21:35:31  5-MIN KARA 150335Z AUTO 03012KT 10SM OVC010 11/07 A3021 -240 80 -700 030/12 RMK AO2 T01060072
53915KARA ARA20161214214011212/14/16 21:40:31  5-MIN KARA 150340Z AUTO 01011KT 10SM OVC010 10/07 A3022 -240 80 -800 010/11 RMK AO2 T01000067
53915KARA ARA20161214214511212/14/16 21:45:31  5-MIN KARA 150345Z AUTO 36009KT 10SM OVC011 10/07 A3022 -240 80 -800 360/09 RMK AO2 T01000067
53915KARA ARA20161214215011912/14/16 21:50:31  5-MIN KARA 150350Z AUTO 01009KT 10SM OVC011 10/07 A3022 -240 80 -800 010/09 RMK AO2 SLP231 T01000067
53915KARA ARA20161214215511212/14/16 21:55:31  5-MIN KARA 150355Z AUTO 01007KT 10SM OVC011 10/07 A3021 -240 80 -800 010/07 RMK AO2 T01000067
53915KARA ARA20161214220011212/14/16 22:00:31  5-MIN KARA 150400Z AUTO 36007KT 10SM OVC011 10/07 A3022 -240 80 -800 360/07 RMK AO2 T01000067
53915KARA ARA20161214220511212/14/16 22:05:31  5-MIN KARA 150405Z AUTO 36008KT 10SM OVC011 10/07 A3022 -240 80 -800 360/08 RMK AO2 T01000067
53915KARA ARA20161214221011212/14/16 22:10:31  5-MIN KARA 150410Z AUTO 01006KT 10SM OVC011 10/07 A3022 -240 80 -800 010/06 RMK AO2 T01000067
53915KARA ARA20161214221511212/14/16 22:15:31  5-MIN KARA 150415Z AUTO 02007KT 10SM OVC010 10/07 A3022 -240 83 -800 020/07 RMK AO2 T01000072
53915KARA ARA20161214222011212/14/16 22:20:31  5-MIN KARA 150420Z AUTO 03008KT 10SM OVC010 10/07 A3022 -240 83 -800 030/08 RMK AO2 T01000072
53915KARA ARA20161214222511212/14/16 22:25:31  5-MIN KARA 150425Z AUTO 36007KT 10SM OVC010 10/07 A3022 -240 83 -800 360/07 RMK AO2 T01000072
53915KARA ARA20161214223011212/14/16 22:30:31  5-MIN KARA 150430Z AUTO 02010KT 10SM OVC010 10/07 A3022 -250 83 -800 020/10 RMK AO2 T01000072
53915KARA ARA20161214223511212/14/16 22:35:31  5-MIN KARA 150435Z AUTO 01008KT 10SM OVC010 10/07 A3023 -250 80 -800 010/08 RMK AO2 T01000067
53915KARA ARA20161214224011212/14/16 22:40:31  5-MIN KARA 150440Z AUTO 01010KT 10SM OVC010 10/07 A3023 -250 83 -800 010/10 RMK AO2 T01000072
53915KARA ARA20161214224511212/14/16 22:45:31  5-MIN KARA 150445Z AUTO 01010KT 10SM OVC011 10/07 A3022 -250 80 -800 010/10 RMK AO2 T01000067
53915KARA ARA20161214225011912/14/16 22:50:31  5-MIN KARA 150450Z AUTO 02009KT 10SM OVC011 10/07 A3022 -250 80 -800 020/09 RMK AO2 SLP233 T01000067
53915KARA ARA20161214225511212/14/16 22:55:31  5-MIN KARA 150455Z AUTO 01011KT 10SM OVC011 10/07 A3022 -250 80 -800 010/11 RMK AO2 T01000067
53915KARA ARA20161214230011212/14/16 23:00:31  5-MIN KARA 150500Z AUTO 01010KT 10SM OVC011 10/07 A3022 -250 80 -800 010/10 RMK AO2 T01000067
53915KARA ARA20161214230511212/14/16 23:05:31  5-MIN KARA 150505Z AUTO 02012KT 10SM OVC011 10/07 A3022 -250 80 -800 020/12 RMK AO2 T01000067
53915KARA ARA20161214231011212/14/16 23:10:31  5-MIN KARA 150510Z AUTO 01010KT 10SM OVC011 10/07 A3023 -250 80 -800 010/10 RMK AO2 T01000067
53915KARA ARA20161214231511212/14/16 23:15:31  5-MIN KARA 150515Z AUTO 01011KT 10SM OVC010 10/07 A3023 -250 80 -800 010/11 RMK AO2 T01000067
53915KARA ARA20161214232011212/14/16 23:20:31  5-MIN KARA 150520Z AUTO 01012KT 10SM OVC010 10/07 A3023 -250 80 -800 010/12 RMK AO2 T01000067
53915KARA ARA20161214232511212/14/16 23:25:31  5-MIN KARA 150525Z AUTO 01013KT 10SM OVC010 10/07 A3023 -250 80 -800 010/13 RMK AO2 T01000067
53915KARA ARA20161214233011212/14/16 23:30:31  5-MIN KARA 150530Z AUTO 01009KT 10SM OVC010 10/07 A3023 -250 80 -800 010/09 RMK AO2 T01000067
53915KARA ARA20161214233511212/14/16 23:35:31  5-MIN KARA 150535Z AUTO 01007KT 10SM OVC010 10/07 A3023 -250 80 -800 010/07 RMK AO2 T01000067
53915KARA ARA20161214234011212/14/16 23:40:31  5-MIN KARA 150540Z AUTO 36011KT 10SM OVC010 10/07 A3023 -260 80 -800 360/11 RMK AO2 T01000067
53915KARA ARA20161214234511212/14/16 23:45:31  5-MIN KARA 150545Z AUTO 01012KT 10SM OVC010 09/07 A3023 -260 83 -900 360/12 RMK AO2 T00940067
53915KARA ARA20161214235014712/14/16 23:50:31  5-MIN KARA 150550Z AUTO 01010KT 10SM OVC010 09/07 A3023 -260 83 -900 010/10 RMK AO2 SLP236 T00940067 10117 20094 401720094 51023
53915KARA ARA20161214235511212/14/16 23:55:31  5-MIN KARA 150555Z AUTO 01009KT 10SM OVC010 09/07 A3024 -260 83 -900 010/09 RMK AO2 T00940067
53915KARA ARA20161215000011212/15/16 00:00:31  5-MIN KARA 150600Z AUTO 36013KT 10SM OVC010 09/07 A3024 -260 83 -900 360/13 RMK AO2 T00940067
53915KARA ARA20161215000511212/15/16 00:05:31  5-MIN KARA 150605Z AUTO 01009KT 10SM OVC010 09/06 A3024 -260 79 -900 360/09 RMK AO2 T00940061
53915KARA ARA20161215001011212/15/16 00:10:31  5-MIN KARA 150610Z AUTO 02010KT 10SM OVC010 09/06 A3024 -260 79 -900 020/10 RMK AO2 T00940061
53915KARA ARA20161215001511212/15/16 00:15:31  5-MIN KARA 150615Z AUTO 01010KT 10SM OVC010 09/06 A3024 -260 79 -900 010/10 RMK AO2 T00940061
53915KARA ARA20161215002011212/15/16 00:20:31  5-MIN KARA 150620Z AUTO 36011KT 10SM OVC010 09/06 A3024 -260 79 -900 360/11 RMK AO2 T00940061
53915KARA ARA20161215002511312/15/16 00:25:31  5-MIN KARA 150625Z AUTO 36013KT 10SM OVC009 09/06 A3024 -260 83 -1000 360/13 RMK AO2 T00890061
53915KARA ARA20161215003011312/15/16 00:30:31  5-MIN KARA 150630Z AUTO 01011KT 10SM OVC009 09/06 A3024 -260 83 -1000 010/11 RMK AO2 T00890061
53915KARA ARA20161215003511312/15/16 00:35:31  5-MIN KARA 150635Z AUTO 01013KT 10SM OVC009 09/06 A3024 -270 83 -1000 010/13 RMK AO2 T00890061
53915KARA ARA20161215004011312/15/16 00:40:31  5-MIN KARA 150640Z AUTO 01013KT 10SM OVC009 09/06 A3024 -270 83 -1000 010/13 RMK AO2 T00890061
53915KARA ARA20161215004511312/15/16 00:45:31  5-MIN KARA 150645Z AUTO 01011KT 10SM OVC009 09/06 A3024 -270 83 -1000 010/11 RMK AO2 T00890061
53915KARA ARA20161215005011912/15/16 00:50:31  5-MIN KARA 150650Z AUTO 01012KT 9SM OVC009 09/06 A3024 -270 83 -1000 010/12 RMK AO2 SLP241 T00890061
53915KARA ARA20161215005511212/15/16 00:55:31  5-MIN KARA 150655Z AUTO 36011KT 9SM OVC009 09/06 A3025 -270 83 -1000 350/11 RMK AO2 T00890061
53915KARA ARA20161215010011212/15/16 01:00:31  5-MIN KARA 150700Z AUTO 36012KT 8SM OVC009 08/06 A3025 -270 82 -1100 360/12 RMK AO2 T00830056
53915KARA ARA20161215010511212/15/16 01:05:31  5-MIN KARA 150705Z AUTO 36012KT 8SM OVC008 08/06 A3025 -270 82 -1100 360/12 RMK AO2 T00830056
53915KARA ARA20161215011011212/15/16 01:10:31  5-MIN KARA 150710Z AUTO 36011KT 8SM OVC008 08/06 A3025 -270 82 -1100 360/11 RMK AO2 T00830056
53915KARA ARA20161215011511212/15/16 01:15:31  5-MIN KARA 150715Z AUTO 36013KT 8SM OVC007 08/06 A3025 -270 82 -1100 360/13 RMK AO2 T00830056
53915KARA ARA20161215012011212/15/16 01:20:31  5-MIN KARA 150720Z AUTO 36012KT 8SM OVC007 08/06 A3026 -280 82 -1100 360/12 RMK AO2 T00830056
53915KARA ARA20161215012511212/15/16 01:25:31  5-MIN KARA 150725Z AUTO 36013KT 8SM OVC007 08/06 A3026 -280 82 -1100 360/13 RMK AO2 T00830056
53915KARA ARA20161215013011212/15/16 01:30:31  5-MIN KARA 150730Z AUTO 35012KT 8SM OVC007 08/06 A3026 -280 82 -1100 350/12 RMK AO2 T00830056
53915KARA ARA20161215013511212/15/16 01:35:31  5-MIN KARA 150735Z AUTO 36012KT 8SM OVC007 08/06 A3026 -280 82 -1100 360/12 RMK AO2 T00830056
53915KARA ARA20161215014011212/15/16 01:40:31  5-MIN KARA 150740Z AUTO 01012KT 8SM OVC007 08/06 A3026 -280 82 -1100 010/12 RMK AO2 T00830056
53915KARA ARA20161215014511212/15/16 01:45:31  5-MIN KARA 150745Z AUTO 36013KT 8SM OVC007 08/06 A3026 -280 82 -1100 360/13 RMK AO2 T00830056
53915KARA ARA20161215015011912/15/16 01:50:31  5-MIN KARA 150750Z AUTO 36012KT 8SM OVC007 08/06 A3026 -280 86 -1100 360/12 RMK AO2 SLP246 T00780056
53915KARA ARA20161215015511212/15/16 01:55:31  5-MIN KARA 150755Z AUTO 36012KT 8SM OVC007 08/06 A3026 -280 86 -1100 360/12 RMK AO2 T00780056
53915KARA ARA20161215020011212/15/16 02:00:31  5-MIN KARA 150800Z AUTO 01011KT 8SM OVC007 08/06 A3026 -280 86 -1100 010/11 RMK AO2 T00780056
53915KARA ARA20161215020511212/15/16 02:05:31  5-MIN KARA 150805Z AUTO 01010KT 8SM OVC007 08/06 A3026 -280 86 -1100 010/10 RMK AO2 T00780056
53915KARA ARA20161215021011212/15/16 02:10:31  5-MIN KARA 150810Z AUTO 01010KT 8SM OVC007 08/06 A3026 -280 86 -1100 010/10 RMK AO2 T00780056
53915KARA ARA20161215021511212/15/16 02:15:31  5-MIN KARA 150815Z AUTO 01009KT 8SM OVC007 08/06 A3026 -280 86 -1100 010/09 RMK AO2 T00780056
53915KARA ARA20161215022011212/15/16 02:20:31  5-MIN KARA 150820Z AUTO 36012KT 8SM OVC007 08/05 A3026 -280 82 -1100 360/12 RMK AO2 T00780050
53915KARA ARA20161215022511212/15/16 02:25:31  5-MIN KARA 150825Z AUTO 01012KT 9SM OVC007 08/05 A3026 -280 82 -1100 010/12 RMK AO2 T00780050
53915KARA ARA20161215023011212/15/16 02:30:31  5-MIN KARA 150830Z AUTO 01011KT 8SM OVC007 08/05 A3026 -280 82 -1100 010/11 RMK AO2 T00780050
53915KARA ARA20161215023511212/15/16 02:35:31  5-MIN KARA 150835Z AUTO 01011KT 8SM OVC007 08/05 A3026 -280 82 -1100 010/11 RMK AO2 T00780050
53915KARA ARA20161215024011212/15/16 02:40:31  5-MIN KARA 150840Z AUTO 01009KT 9SM OVC007 08/05 A3026 -280 82 -1100 010/09 RMK AO2 T00780050
53915KARA ARA20161215024511212/15/16 02:45:31  5-MIN KARA 150845Z AUTO 01009KT 8SM OVC007 08/05 A3026 -280 82 -1100 010/09 RMK AO2 T00780050
53915KARA ARA20161215025012512/15/16 02:50:31  5-MIN KARA 150850Z AUTO 36011KT 8SM OVC007 08/05 A3026 -280 82 -1100 360/11 RMK AO2 SLP246 T00780050 53010
53915KARA ARA20161215025511212/15/16 02:55:31  5-MIN KARA 150855Z AUTO 02011KT 8SM OVC007 08/05 A3026 -280 82 -1100 010/11 RMK AO2 T00780050
53915KARA ARA20161215030011212/15/16 03:00:31  5-MIN KARA 150900Z AUTO 01011KT 8SM OVC007 08/05 A3026 -280 82 -1100 010/11 RMK AO2 T00780050
53915KARA ARA20161215030511212/15/16 03:05:31  5-MIN KARA 150905Z AUTO 01012KT 8SM OVC007 08/05 A3027 -290 82 -1100 010/12 RMK AO2 T00780050
53915KARA ARA20161215031011212/15/16 03:10:31  5-MIN KARA 150910Z AUTO 01010KT 8SM OVC007 08/05 A3027 -290 82 -1100 010/10 RMK AO2 T00780050
53915KARA ARA20161215031511212/15/16 03:15:31  5-MIN KARA 150915Z AUTO 02010KT 8SM OVC007 08/05 A3027 -290 82 -1100 020/10 RMK AO2 T00780050
53915KARA ARA20161215032011212/15/16 03:20:31  5-MIN KARA 150920Z AUTO 01009KT 8SM OVC007 08/05 A3027 -290 82 -1100 010/09 RMK AO2 T00780050
53915KARA ARA20161215032511212/15/16 03:25:31  5-MIN KARA 150925Z AUTO 01009KT 8SM OVC007 08/05 A3027 -290 82 -1100 010/09 RMK AO2 T00780050
53915KARA ARA20161215033011212/15/16 03:30:31  5-MIN KARA 150930Z AUTO 01011KT 8SM OVC007 08/05 A3027 -290 82 -1100 010/11 RMK AO2 T00780050
53915KARA ARA20161215033511212/15/16 03:35:31  5-MIN KARA 150935Z AUTO 01008KT 8SM OVC007 08/05 A3027 -290 82 -1100 010/08 RMK AO2 T00780050
53915KARA ARA20161215034011212/15/16 03:40:31  5-MIN KARA 150940Z AUTO 01008KT 8SM OVC007 08/05 A3026 -290 82 -1100 010/08 RMK AO2 T00780050
53915KARA ARA20161215034511212/15/16 03:45:31  5-MIN KARA 150945Z AUTO 02011KT 8SM OVC007 08/05 A3026 -290 82 -1100 020/11 RMK AO2 T00780050
53915KARA ARA20161215035011912/15/16 03:50:31  5-MIN KARA 150950Z AUTO 03011KT 8SM OVC007 08/05 A3027 -290 82 -1100 030/11 RMK AO2 SLP248 T00780050
53915KARA ARA20161215035511212/15/16 03:55:31  5-MIN KARA 150955Z AUTO 02013KT 8SM OVC007 08/05 A3027 -290 82 -1100 020/13 RMK AO2 T00780050
53915KARA ARA20161215040011212/15/16 04:00:31  5-MIN KARA 151000Z AUTO 02011KT 8SM OVC007 08/05 A3027 -290 82 -1100 020/11 RMK AO2 T00780050
53915KARA ARA20161215040511212/15/16 04:05:31  5-MIN KARA 151005Z AUTO 02011KT 9SM OVC007 08/05 A3027 -290 82 -1100 020/11 RMK AO2 T00780050
53915KARA ARA20161215041011212/15/16 04:10:31  5-MIN KARA 151010Z AUTO 02013KT 9SM OVC008 08/05 A3027 -290 82 -1100 020/13 RMK AO2 T00780050
53915KARA ARA20161215041511212/15/16 04:15:31  5-MIN KARA 151015Z AUTO 03009KT 9SM OVC008 08/05 A3026 -290 82 -1100 030/09 RMK AO2 T00780050
53915KARA ARA20161215042011212/15/16 04:20:31  5-MIN KARA 151020Z AUTO 01011KT 9SM OVC008 08/05 A3026 -290 82 -1100 010/11 RMK AO2 T00780050
53915KARA ARA20161215042511212/15/16 04:25:31  5-MIN KARA 151025Z AUTO 02010KT 9SM OVC008 08/05 A3027 -290 82 -1100 020/10 RMK AO2 T00780050
53915KARA ARA20161215043011212/15/16 04:30:31  5-MIN KARA 151030Z AUTO 03010KT 8SM OVC008 08/05 A3027 -290 82 -1100 030/10 RMK AO2 T00780050
53915KARA ARA20161215043511212/15/16 04:35:31  5-MIN KARA 151035Z AUTO 03008KT 8SM OVC008 08/05 A3027 -290 82 -1100 030/08 RMK AO2 T00780050
53915KARA ARA20161215044011212/15/16 04:40:31  5-MIN KARA 151040Z AUTO 04014KT 9SM OVC008 08/05 A3027 -290 82 -1100 040/14 RMK AO2 T00780050
53915KARA ARA20161215044511212/15/16 04:45:31  5-MIN KARA 151045Z AUTO 04013KT 9SM OVC008 08/05 A3027 -290 82 -1100 040/13 RMK AO2 T00780050
53915KARA ARA20161215045013212/15/16 04:50:31  5-MIN KARA 151050Z AUTO 04013KT 10SM OVC008 08/05 A3027 -290 82 -1200 040/13 RMK AO2 CIG 008V011 SLP251 T00780050
53915KARA ARA20161215045512512/15/16 04:55:31  5-MIN KARA 151055Z AUTO 05013KT 10SM OVC010 08/05 A3028 -300 82 -1200 050/13 RMK AO2 CIG 008V012 T00780050
53915KARA ARA20161215050012512/15/16 05:00:31  5-MIN KARA 151100Z AUTO 03014KT 10SM OVC010 08/04 A3028 -300 76 -1100 030/14 RMK AO2 CIG 008V012 T00830044
53915KARA ARA20161215050511312/15/16 05:05:31  5-MIN KARA 151105Z AUTO 04013KT 10SM OVC010 08/04 A3028 -300 76 -1100 040/13 RMK AO2 T00830044
53915KARA ARA20161215051011312/15/16 05:10:31  5-MIN KARA 151110Z AUTO 04012KT 10SM OVC010 08/04 A3028 -300 76 -1100 040/12 RMK AO2 T00830044
53915KARA ARA20161215051511312/15/16 05:15:31  5-MIN KARA 151115Z AUTO 04008KT 10SM OVC012 08/04 A3028 -300 76 -1100 040/08 RMK AO2 T00830044
53915KARA ARA20161215052011312/15/16 05:20:31  5-MIN KARA 151120Z AUTO 04012KT 10SM OVC012 08/04 A3028 -300 76 -1100 040/12 RMK AO2 T00830044
53915KARA ARA20161215052511312/15/16 05:25:31  5-MIN KARA 151125Z AUTO 04010KT 10SM OVC012 08/04 A3028 -300 76 -1100 040/10 RMK AO2 T00830044
53915KARA ARA20161215053011312/15/16 05:30:31  5-MIN KARA 151130Z AUTO 04012KT 10SM OVC013 08/04 A3029 -310 76 -1100 040/12 RMK AO2 T00830044
53915KARA ARA20161215053510812/15/16 05:35:31  5-MIN KARA 151135Z 03012KT 10SM OVC013 08/04 A3029 -310 76 -1100 030/12 RMK AO2 T00830044
53915KARA ARA20161215054010812/15/16 05:40:31  5-MIN KARA 151140Z 03010KT 10SM OVC013 08/04 A3029 -310 76 -1100 030/10 RMK AO2 T00830044
53915KARA ARA20161215054510812/15/16 05:45:31  5-MIN KARA 151145Z 03011KT 10SM OVC014 08/04 A3029 -310 76 -1100 030/11 RMK AO2 T00830044
53915KARA ARA20161215055013312/15/16 05:50:31  5-MIN KARA 151150Z 04014KT 10SM OVC014 08/04 A3030 -320 76 -1100 040/14 RMK AO2 SLP259 T00830044 10094 20078 51009
53915KARA ARA20161215055510812/15/16 05:55:31  5-MIN KARA 151155Z 04012KT 10SM OVC015 08/04 A3030 -320 73 -1100 040/12 RMK AO2 T00830039
53915KARA ARA20161215060010812/15/16 06:00:31  5-MIN KARA 151200Z 04011KT 10SM OVC015 08/04 A3030 -320 73 -1100 040/11 RMK AO2 T00830039
53915KARA ARA20161215060510812/15/16 06:05:31  5-MIN KARA 151205Z 04010KT 10SM OVC017 08/04 A3030 -310 73 -1100 040/10 RMK AO2 T00830039
53915KARA ARA20161215061010812/15/16 06:10:31  5-MIN KARA 151210Z 03008KT 10SM OVC017 08/04 A3030 -310 76 -1100 030/08 RMK AO2 T00830044
53915KARA ARA20161215061510812/15/16 06:15:31  5-MIN KARA 151215Z 03008KT 10SM OVC017 08/04 A3030 -320 76 -1100 030/08 RMK AO2 T00830044
53915KARA ARA20161215062010812/15/16 06:20:31  5-MIN KARA 151220Z 01009KT 10SM OVC015 08/04 A3030 -320 76 -1100 010/09 RMK AO2 T00830044
53915KARA ARA20161215062510812/15/16 06:25:31  5-MIN KARA 151225Z 02010KT 10SM OVC015 08/04 A3030 -320 76 -1100 020/10 RMK AO2 T00830044
53915KARA ARA20161215063010812/15/16 06:30:31  5-MIN KARA 151230Z 01010KT 10SM OVC015 08/04 A3030 -320 73 -1100 010/10 RMK AO2 T00830039
53915KARA ARA20161215063510812/15/16 06:35:31  5-MIN KARA 151235Z 02011KT 10SM OVC015 08/04 A3031 -330 76 -1200 020/11 RMK AO2 T00780039
53915KARA ARA20161215064010812/15/16 06:40:31  5-MIN KARA 151240Z 02011KT 10SM OVC015 08/04 A3031 -330 76 -1200 020/11 RMK AO2 T00780039
53915KARA ARA20161215064510812/15/16 06:45:31  5-MIN KARA 151245Z 01012KT 10SM OVC015 08/04 A3031 -330 76 -1200 010/12 RMK AO2 T00780039
53915KARA ARA20161215065011412/15/16 06:50:31  5-MIN KARA 151250Z 02013KT 9SM OVC015 08/04 A3032 -330 76 -1200 010/13 RMK AO2 SLP265 T00780039
53915KARA ARA20161215065510712/15/16 06:55:31  5-MIN KARA 151255Z 03011KT 9SM OVC015 08/04 A3032 -330 76 -1200 020/11 RMK AO2 T00780039
53915KARA ARA20161215070010712/15/16 07:00:31  5-MIN KARA 151300Z 02010KT 9SM OVC015 08/04 A3032 -340 76 -1200 020/10 RMK AO2 T00780039
53915KARA ARA20161215070510712/15/16 07:05:31  5-MIN KARA 151305Z 02009KT 9SM OVC015 08/04 A3032 -340 76 -1200 020/09 RMK AO2 T00780039
53915KARA ARA20161215071010712/15/16 07:10:31  5-MIN KARA 151310Z 02009KT 9SM OVC015 08/04 A3032 -340 76 -1200 020/09 RMK AO2 T00780039
53915KARA ARA20161215071510712/15/16 07:15:31  5-MIN KARA 151315Z 01013KT 9SM OVC015 08/04 A3033 -340 76 -1200 010/13 RMK AO2 T00780039
53915KARA ARA20161215072010712/15/16 07:20:31  5-MIN KARA 151320Z 01013KT 8SM OVC013 08/04 A3033 -340 76 -1200 010/13 RMK AO2 T00780039
53915KARA ARA20161215072510712/15/16 07:25:31  5-MIN KARA 151325Z 01012KT 8SM OVC013 07/04 A3033 -350 79 -1300 360/12 RMK AO2 T00720039
53915KARA ARA20161215073010712/15/16 07:30:31  5-MIN KARA 151330Z 01014KT 8SM OVC013 07/04 A3033 -350 79 -1300 010/14 RMK AO2 T00720039
53915KARA ARA20161215073510712/15/16 07:35:31  5-MIN KARA 151335Z 02013KT 8SM OVC013 07/04 A3033 -350 79 -1300 010/13 RMK AO2 T00720039
53915KARA ARA20161215074010712/15/16 07:40:31  5-MIN KARA 151340Z 02012KT 8SM OVC012 07/03 A3034 -350 76 -1300 010/12 RMK AO2 T00720033
53915KARA ARA20161215074510712/15/16 07:45:31  5-MIN KARA 151345Z 01010KT 8SM OVC012 07/03 A3034 -350 76 -1300 010/10 RMK AO2 T00720033
53915KARA ARA20161215075011412/15/16 07:50:31  5-MIN KARA 151350Z 02011KT 8SM OVC012 07/03 A3034 -360 76 -1300 020/11 RMK AO2 SLP274 T00720033
53915KARA ARA20161215075510712/15/16 07:55:31  5-MIN KARA 151355Z 01012KT 8SM OVC012 07/03 A3035 -360 76 -1300 010/12 RMK AO2 T00720033
53915KARA ARA20161215080010712/15/16 08:00:31  5-MIN KARA 151400Z 01012KT 8SM OVC013 07/03 A3035 -360 76 -1300 010/12 RMK AO2 T00720033
53915KARA ARA20161215080510712/15/16 08:05:31  5-MIN KARA 151405Z 01011KT 8SM OVC013 07/03 A3035 -370 76 -1300 010/11 RMK AO2 T00720033
53915KARA ARA20161215081010712/15/16 08:10:31  5-MIN KARA 151410Z 01010KT 8SM OVC013 07/03 A3036 -370 76 -1300 010/10 RMK AO2 T00720033
53915KARA ARA20161215081510712/15/16 08:15:31  5-MIN KARA 151415Z 01011KT 8SM OVC013 07/03 A3036 -370 76 -1300 010/11 RMK AO2 T00720033
53915KARA ARA20161215082010712/15/16 08:20:31  5-MIN KARA 151420Z 01012KT 8SM OVC013 07/03 A3036 -370 76 -1400 360/12 RMK AO2 T00670028
53915KARA ARA20161215082510712/15/16 08:25:31  5-MIN KARA 151425Z 01011KT 8SM OVC013 07/03 A3036 -370 79 -1400 010/11 RMK AO2 T00670033
53915KARA ARA20161215083010712/15/16 08:30:31  5-MIN KARA 151430Z 02011KT 8SM OVC013 07/03 A3036 -370 76 -1300 010/11 RMK AO2 T00720033
53915KARA ARA20161215083510712/15/16 08:35:31  5-MIN KARA 151435Z 01007KT 8SM OVC013 07/03 A3036 -370 76 -1300 010/07 RMK AO2 T00720033
53915KARA ARA20161215084010712/15/16 08:40:31  5-MIN KARA 151440Z 01011KT 8SM OVC013 07/03 A3036 -370 76 -1300 010/11 RMK AO2 T00720033
53915KARA ARA20161215084510712/15/16 08:45:31  5-MIN KARA 151445Z 02011KT 9SM OVC013 07/03 A3036 -370 76 -1300 020/11 RMK AO2 T00720033
53915KARA ARA20161215085012012/15/16 08:50:31  5-MIN KARA 151450Z 04011KT 8SM OVC013 07/03 A3036 -370 76 -1300 040/11 RMK AO2 SLP280 T00720033 53013
53915KARA ARA20161215085510712/15/16 08:55:31  5-MIN KARA 151455Z 03011KT 8SM OVC013 07/03 A3036 -370 76 -1300 030/11 RMK AO2 T00720033
53915KARA ARA20161215090010712/15/16 09:00:31  5-MIN KARA 151500Z 02009KT 8SM OVC013 07/03 A3036 -380 76 -1300 020/09 RMK AO2 T00720033
53915KARA ARA20161215090510712/15/16 09:05:31  5-MIN KARA 151505Z 03014KT 9SM OVC013 07/03 A3037 -380 76 -1300 020/14 RMK AO2 T00720033
53915KARA ARA20161215091010712/15/16 09:10:31  5-MIN KARA 151510Z 03011KT 8SM OVC013 07/03 A3037 -380 73 -1300 030/11 RMK AO2 T00720028
53915KARA ARA20161215091510712/15/16 09:15:31  5-MIN KARA 151515Z 03013KT 8SM OVC013 07/03 A3037 -380 76 -1300 030/13 RMK AO2 T00720033
53915KARA ARA20161215092010712/15/16 09:20:31  5-MIN KARA 151520Z 04013KT 9SM OVC013 07/03 A3037 -380 73 -1300 040/13 RMK AO2 T00720028
53915KARA ARA20161215092510712/15/16 09:25:31  5-MIN KARA 151525Z 02013KT 9SM OVC013 08/03 A3037 -380 73 -1300 020/13 RMK AO2 T00780033
53915KARA ARA20161215093010712/15/16 09:30:31  5-MIN KARA 151530Z 03012KT 9SM OVC013 08/03 A3037 -380 70 -1300 030/12 RMK AO2 T00780028
53915KARA ARA20161215093510712/15/16 09:35:31  5-MIN KARA 151535Z 03011KT 9SM OVC013 08/03 A3037 -390 70 -1300 030/11 RMK AO2 T00780028
53915KARA ARA20161215094010712/15/16 09:40:31  5-MIN KARA 151540Z 03012KT 9SM OVC015 08/03 A3038 -390 70 -1300 030/12 RMK AO2 T00780028
53915KARA ARA20161215094510712/15/16 09:45:31  5-MIN KARA 151545Z 02011KT 9SM OVC015 08/03 A3038 -390 70 -1300 010/11 RMK AO2 T00780028
53915KARA ARA20161215095011412/15/16 09:50:31  5-MIN KARA 151550Z 03012KT 9SM OVC015 08/03 A3038 -390 68 -1200 020/12 RMK AO2 SLP285 T00830028
53915KARA ARA20161215095510712/15/16 09:55:31  5-MIN KARA 151555Z 02012KT 9SM OVC015 08/03 A3038 -390 68 -1200 020/12 RMK AO2 T00830028
53915KARA ARA20161215100010812/15/16 10:00:31  5-MIN KARA 151600Z 02012KT 10SM OVC015 08/03 A3038 -390 68 -1200 020/12 RMK AO2 T00830028
53915KARA ARA20161215100510812/15/16 10:05:31  5-MIN KARA 151605Z 36011KT 10SM OVC016 08/03 A3038 -390 68 -1200 360/11 RMK AO2 T00830028
53915KARA ARA20161215101010812/15/16 10:10:31  5-MIN KARA 151610Z 02011KT 10SM OVC016 08/03 A3037 -380 68 -1200 020/11 RMK AO2 T00830028
53915KARA ARA20161215101510812/15/16 10:15:31  5-MIN KARA 151615Z 01013KT 10SM OVC016 08/03 A3037 -380 68 -1200 010/13 RMK AO2 T00830028
53915KARA ARA20161215102010812/15/16 10:20:31  5-MIN KARA 151620Z 02011KT 10SM OVC016 08/02 A3037 -380 65 -1200 020/11 RMK AO2 T00830022
53915KARA ARA20161215102510812/15/16 10:25:31  5-MIN KARA 151625Z 04012KT 10SM BKN017 09/03 A3036 -380 65 -1100 040/12 RMK AO2 T00890028
53915KARA ARA20161215103010812/15/16 10:30:31  5-MIN KARA 151630Z 02013KT 10SM SCT017 09/03 A3036 -370 63 -1000 020/13 RMK AO2 T00940028
53915KARA ARA20161215103510812/15/16 10:35:31  5-MIN KARA 151635Z 02012KT 10SM SCT018 09/03 A3036 -370 63 -1000 020/12 RMK AO2 T00940028
53915KARA ARA20161215104010812/15/16 10:40:31  5-MIN KARA 151640Z 03011KT 10SM FEW018 09/03 A3036 -370 63 -1000 030/11 RMK AO2 T00940028
53915KARA ARA20161215104511412/15/16 10:45:31  5-MIN KARA 151645Z 05012G18KT 10SM FEW018 10/03 A3036 -370 60 -1000 050/12G18 RMK AO2 T01000028
53915KARA ARA20161215105011212/15/16 10:50:31  5-MIN KARA 151650Z 04013KT 10SM CLR 10/03 A3036 -370 60 -1000 030/13 RMK AO2 SLP279 T01000028
53915KARA ARA20161215105510512/15/16 10:55:31  5-MIN KARA 151655Z 02012KT 10SM CLR 10/03 A3035 -370 60 -1000 020/12 RMK AO2 T01000028
53915KARA ARA20161215110010512/15/16 11:00:31  5-MIN KARA 151700Z 05013KT 10SM CLR 10/03 A3035 -370 60 -1000 050/13 RMK AO2 T01000028
53915KARA ARA20161215110510412/15/16 11:05:31  5-MIN KARA 151705Z 02013KT 10SM CLR 11/02 A3035 -360 56 -900 020/13 RMK AO2 T01060022
53915KARA ARA20161215111010412/15/16 11:10:31  5-MIN KARA 151710Z 04014KT 10SM CLR 11/03 A3035 -360 58 -900 030/14 RMK AO2 T01060028
53915KARA ARA20161215111510412/15/16 11:15:31  5-MIN KARA 151715Z 03012KT 10SM CLR 11/02 A3035 -360 56 -900 030/12 RMK AO2 T01060022
53915KARA ARA20161215112010412/15/16 11:20:31  5-MIN KARA 151720Z 04013KT 10SM CLR 11/02 A3034 -360 56 -900 040/13 RMK AO2 T01060022
53915KARA ARA20161215112510412/15/16 11:25:31  5-MIN KARA 151725Z 06012KT 10SM CLR 11/02 A3034 -350 56 -900 060/12 RMK AO2 T01060022
53915KARA ARA20161215113010312/15/16 11:30:31  5-MIN KARA 151730Z 04011KT 8SM CLR 11/02 A3034 -350 56 -900 040/11 RMK AO2 T01060022
53915KARA ARA20161215113510312/15/16 11:35:31  5-MIN KARA 151735Z 04010KT 7SM CLR 11/02 A3033 -350 56 -900 040/10 RMK AO2 T01060022
53915KARA ARA20161215114010312/15/16 11:40:31  5-MIN KARA 151740Z 05010KT 8SM CLR 11/02 A3033 -350 54 -800 050/10 RMK AO2 T01110022
53915KARA ARA20161215114510312/15/16 11:45:31  5-MIN KARA 151745Z 03010KT 9SM CLR 11/02 A3033 -340 54 -800 030/10 RMK AO2 T01110022
53915KARA ARA20161215115012912/15/16 11:50:31  5-MIN KARA 151750Z 04011KT 10SM CLR 11/02 A3033 -340 54 -800 040/11 RMK AO2 SLP268 T01110022 10111 20067 51021
53915KARA ARA20161215115510412/15/16 11:55:31  5-MIN KARA 151755Z 06010KT 10SM CLR 11/02 A3032 -340 54 -800 050/10 RMK AO2 T01110022
53915KARA ARA20161215120010312/15/16 12:00:31  5-MIN KARA 151800Z 04011KT 9SM CLR 11/02 A3032 -340 54 -800 040/11 RMK AO2 T01110022
53915KARA ARA20161215120510312/15/16 12:05:31  5-MIN KARA 151805Z 04011KT 8SM CLR 12/03 A3032 -330 54 -700 030/11 RMK AO2 T01170028
53915KARA ARA20161215121010312/15/16 12:10:31  5-MIN KARA 151810Z 05010KT 8SM CLR 12/03 A3031 -330 54 -700 050/10 RMK AO2 T01170028
53915KARA ARA20161215121510312/15/16 12:15:31  5-MIN KARA 151815Z 04011KT 7SM CLR 12/02 A3031 -330 52 -700 040/11 RMK AO2 T01170022
53915KARA ARA20161215122010312/15/16 12:20:31  5-MIN KARA 151820Z 05011KT 8SM CLR 12/03 A3031 -330 52 -700 040/11 RMK AO2 T01220028
53915KARA ARA20161215122510312/15/16 12:25:31  5-MIN KARA 151825Z 05012KT 8SM CLR 12/02 A3031 -320 52 -700 040/12 RMK AO2 T01170022
53915KARA ARA20161215123010312/15/16 12:30:31  5-MIN KARA 151830Z 05009KT 8SM CLR 12/02 A3030 -320 52 -700 050/09 RMK AO2 T01170022
53915KARA ARA20161215123510312/15/16 12:35:31  5-MIN KARA 151835Z 04012KT 9SM CLR 12/03 A3030 -320 52 -600 040/12 RMK AO2 T01220028
53915KARA ARA20161215124010412/15/16 12:40:31  5-MIN KARA 151840Z 05010KT 10SM CLR 12/02 A3029 -310 50 -600 040/10 RMK AO2 T01220022
53915KARA ARA20161215124509412/15/16 12:45:31  5-MIN KARA 151845Z 10SM CLR 12/02 A3029 -310 50 -600 M /M RMK AO2 T01220022
53915KARA ARA20161215125011112/15/16 12:50:31  5-MIN KARA 151850Z 02010KT 10SM CLR 12/02 A3029 -310 50 -600 020/10 RMK AO2 SLP257 T01220022
53915KARA ARA20161215125510412/15/16 12:55:31  5-MIN KARA 151855Z 06010KT 10SM CLR 12/02 A3029 -310 50 -600 060/10 RMK AO2 T01220022
53915KARA ARA20161215130011012/15/16 13:00:31  5-MIN KARA 151900Z 04010G17KT 10SM CLR 12/02 A3029 -310 50 -600 040/10G17 RMK AO2 T01220022
53915KARA ARA20161215130510412/15/16 13:05:31  5-MIN KARA 151905Z 05010KT 10SM CLR 13/02 A3029 -310 48 -600 050/10 RMK AO2 T01280022
53915KARA ARA20161215131010412/15/16 13:10:31  5-MIN KARA 151910Z 05010KT 10SM CLR 13/02 A3028 -300 48 -600 050/10 RMK AO2 T01280022
53915KARA ARA20161215131510412/15/16 13:15:31  5-MIN KARA 151915Z 05010KT 10SM CLR 13/02 A3028 -300 46 -500 050/10 RMK AO2 T01330022
53915KARA ARA20161215132010412/15/16 13:20:31  5-MIN KARA 151920Z 05010KT 10SM CLR 13/02 A3028 -300 48 -500 050/10 RMK AO2 T01280022
53915KARA ARA20161215132510412/15/16 13:25:31  5-MIN KARA 151925Z 05009KT 10SM CLR 13/02 A3027 -290 48 -500 040/09 RMK AO2 T01280022
53915KARA ARA20161215133010412/15/16 13:30:31  5-MIN KARA 151930Z 02009KT 10SM CLR 13/02 A3027 -290 48 -500 020/09 RMK AO2 T01280022
53915KARA ARA20161215133510412/15/16 13:35:31  5-MIN KARA 151935Z 04009KT 10SM CLR 13/02 A3027 -290 46 -500 040/09 RMK AO2 T01330022
53915KARA ARA20161215134010412/15/16 13:40:31  5-MIN KARA 151940Z 03010KT 10SM CLR 13/02 A3027 -300 46 -500 030/10 RMK AO2 T01330022
53915KARA ARA20161215134510412/15/16 13:45:31  5-MIN KARA 151945Z 04012KT 10SM CLR 13/02 A3027 -290 46 -500 040/12 RMK AO2 T01330022
53915KARA ARA20161215135011112/15/16 13:50:31  5-MIN KARA 151950Z 04010KT 10SM CLR 13/02 A3027 -290 46 -500 040/10 RMK AO2 SLP248 T01330022
53915KARA ARA20161215135510412/15/16 13:55:31  5-MIN KARA 151955Z 05010KT 10SM CLR 13/02 A3026 -290 46 -500 050/10 RMK AO2 T01330022
53915KARA ARA20161215140010312/15/16 14:00:31  5-MIN KARA 152000Z 05010KT 9SM CLR 13/02 A3026 -280 46 -500 040/10 RMK AO2 T01330022
53915KARA ARA20161215140510312/15/16 14:05:31  5-MIN KARA 152005Z 03012KT 7SM CLR 13/02 A3026 -280 46 -500 020/12 RMK AO2 T01330022
53915KARA ARA20161215141010912/15/16 14:10:31  5-MIN KARA 152010Z 04012KT 2SM HZ FEW020 13/02 A3026 -280 46 -500 040/12 RMK AO2 T01330022
53915KARA ARA20161215141511312/15/16 14:15:31  5-MIN KARA 152015Z 05010KT 1 1/2SM HZ SCT020 13/02 A3026 -280 48 -500 050/10 RMK AO2 T01280022
53915KARA ARA20161215142011312/15/16 14:20:31  5-MIN KARA 152020Z 04013KT 2 1/2SM HZ FEW020 13/02 A3026 -280 48 -500 040/13 RMK AO2 T01280022
53915KARA ARA20161215142511312/15/16 14:25:31  5-MIN KARA 152025Z 04009KT 2 1/2SM HZ FEW020 13/02 A3026 -280 46 -500 040/09 RMK AO2 T01330022
53915KARA ARA20161215143010912/15/16 14:30:31  5-MIN KARA 152030Z 05010KT 3SM HZ FEW020 13/02 A3026 -280 46 -500 040/10 RMK AO2 T01330022
53915KARA ARA20161215143510912/15/16 14:35:31  5-MIN KARA 152035Z 04008KT 6SM HZ FEW019 13/02 A3026 -280 46 -500 040/08 RMK AO2 T01330022
53915KARA ARA20161215144010612/15/16 14:40:31  5-MIN KARA 152040Z 02010KT 7SM FEW019 13/02 A3026 -280 46 -500 020/10 RMK AO2 T01330022
53915KARA ARA20161215144510612/15/16 14:45:31  5-MIN KARA 152045Z 03009KT 6SM HZ CLR 13/02 A3026 -280 46 -500 030/09 RMK AO2 T01330022
53915KARA ARA20161215145011912/15/16 14:50:31  5-MIN KARA 152050Z 04010KT 6SM HZ CLR 13/02 A3026 -280 46 -500 040/10 RMK AO2 SLP246 T01330022 58011
53915KARA ARA20161215145510312/15/16 14:55:31  5-MIN KARA 152055Z 04010KT 8SM CLR 13/02 A3026 -280 46 -500 040/10 RMK AO2 T01330022
53915KARA ARA20161215150010312/15/16 15:00:31  5-MIN KARA 152100Z 02011KT 8SM CLR 13/02 A3026 -280 46 -500 020/11 RMK AO2 T01330022
53915KARA ARA20161215150510312/15/16 15:05:31  5-MIN KARA 152105Z 05011KT 8SM CLR 13/02 A3026 -280 46 -500 050/11 RMK AO2 T01330022
53915KARA ARA20161215151010312/15/16 15:10:31  5-MIN KARA 152110Z 03011KT 9SM CLR 13/02 A3026 -280 46 -500 020/11 RMK AO2 T01330022
53915KARA ARA20161215151510312/15/16 15:15:31  5-MIN KARA 152115Z 03010KT 9SM CLR 13/02 A3026 -280 46 -500 030/10 RMK AO2 T01330022
53915KARA ARA20161215152010312/15/16 15:20:31  5-MIN KARA 152120Z 04008KT 8SM CLR 14/02 A3026 -280 45 -400 040/08 RMK AO2 T01390022
53915KARA ARA20161215152510612/15/16 15:25:31  5-MIN KARA 152125Z 02009KT 6SM HZ CLR 14/02 A3026 -280 45 -400 020/09 RMK AO2 T01390022
53915KARA ARA20161215153010612/15/16 15:30:31  5-MIN KARA 152130Z 03009KT 5SM HZ CLR 13/02 A3026 -280 46 -500 020/09 RMK AO2 T01330022
53915KARA ARA20161215153510612/15/16 15:35:31  5-MIN KARA 152135Z 02009KT 6SM HZ CLR 13/02 A3026 -280 46 -500 020/09 RMK AO2 T01330022
53915KARA ARA20161215154010312/15/16 15:40:31  5-MIN KARA 152140Z 02009KT 8SM CLR 13/02 A3026 -280 45 -500 020/09 RMK AO2 T01330017
53915KARA ARA20161215154510312/15/16 15:45:31  5-MIN KARA 152145Z 03010KT 8SM CLR 13/02 A3026 -280 45 -500 030/10 RMK AO2 T01330017
53915KARA ARA20161215155011012/15/16 15:50:31  5-MIN KARA 152150Z 04009KT 9SM CLR 13/02 A3026 -280 45 -500 040/09 RMK AO2 SLP246 T01330017
53915KARA ARA20161215155510312/15/16 15:55:31  5-MIN KARA 152155Z 03009KT 8SM CLR 13/02 A3026 -280 45 -500 030/09 RMK AO2 T01330017
53915KARA ARA20161215160010312/15/16 16:00:31  5-MIN KARA 152200Z 04009KT 8SM CLR 13/02 A3026 -280 46 -500 040/09 RMK AO2 T01280017
53915KARA ARA20161215160510312/15/16 16:05:31  5-MIN KARA 152205Z 03008KT 9SM CLR 13/02 A3026 -280 45 -500 030/08 RMK AO2 T01330017
53915KARA ARA20161215161010312/15/16 16:10:31  5-MIN KARA 152210Z 03007KT 8SM CLR 13/02 A3026 -280 45 -500 030/07 RMK AO2 T01330017
53915KARA ARA20161215161510312/15/16 16:15:31  5-MIN KARA 152215Z 04008KT 8SM CLR 13/02 A3026 -290 46 -500 030/08 RMK AO2 T01280017
53915KARA ARA20161215162010412/15/16 16:20:31  5-MIN KARA 152220Z 03007KT 10SM CLR 13/02 A3027 -290 46 -500 030/07 RMK AO2 T01280017
53915KARA ARA20161215162510412/15/16 16:25:31  5-MIN KARA 152225Z 05009KT 10SM CLR 13/02 A3027 -290 46 -500 040/09 RMK AO2 T01280017
53915KARA ARA20161215163010412/15/16 16:30:31  5-MIN KARA 152230Z 03009KT 10SM CLR 13/02 A3027 -290 46 -500 030/09 RMK AO2 T01280017
53915KARA ARA20161215163510412/15/16 16:35:31  5-MIN KARA 152235Z 03007KT 10SM CLR 13/02 A3027 -290 46 -500 020/07 RMK AO2 T01280017
53915KARA ARA20161215164010312/15/16 16:40:31  5-MIN KARA 152240Z 03007KT 8SM CLR 12/02 A3027 -290 48 -600 030/07 RMK AO2 T01220017
53915KARA ARA20161215164510612/15/16 16:45:31  5-MIN KARA 152245Z 02008KT 6SM HZ CLR 12/02 A3027 -290 48 -600 020/08 RMK AO2 T01220017
53915KARA ARA20161215165011312/15/16 16:50:31  5-MIN KARA 152250Z 03006KT 6SM HZ CLR 12/02 A3027 -290 50 -700 030/06 RMK AO2 SLP248 T01170017
53915KARA ARA20161215165510312/15/16 16:55:31  5-MIN KARA 152255Z 02007KT 7SM CLR 12/02 A3027 -290 50 -700 020/07 RMK AO2 T01170017
53915KARA ARA20161215170010312/15/16 17:00:31  5-MIN KARA 152300Z 03007KT 9SM CLR 11/02 A3027 -290 52 -700 030/07 RMK AO2 T01110017
53915KARA ARA20161215170510412/15/16 17:05:31  5-MIN KARA 152305Z 03006KT 10SM CLR 11/02 A3027 -290 54 -700 030/06 RMK AO2 T01110022
53915KARA ARA20161215171010412/15/16 17:10:31  5-MIN KARA 152310Z 03006KT 10SM CLR 11/02 A3027 -290 56 -800 020/06 RMK AO2 T01060022
53915KARA ARA20161215171510412/15/16 17:15:31  5-MIN KARA 152315Z 02006KT 10SM CLR 11/02 A3027 -290 56 -800 020/06 RMK AO2 T01060022
53915KARA ARA20161215172010412/15/16 17:20:31  5-MIN KARA 152320Z 02005KT 10SM CLR 10/02 A3027 -290 58 -900 020/05 RMK AO2 T01000022
53915KARA ARA20161215172510412/15/16 17:25:31  5-MIN KARA 152325Z 01006KT 10SM CLR 10/02 A3027 -300 56 -900 010/06 RMK AO2 T01000017
53915KARA ARA20161215173010412/15/16 17:30:31  5-MIN KARA 152330Z 01005KT 10SM CLR 10/02 A3028 -300 56 -900 360/05 RMK AO2 T01000017
53915KARA ARA20161215173510412/15/16 17:35:31  5-MIN KARA 152335Z 01005KT 10SM CLR 10/02 A3028 -300 56 -900 010/05 RMK AO2 T01000017
53915KARA ARA20161215174010512/15/16 17:40:31  5-MIN KARA 152340Z 02005KT 10SM CLR 09/02 A3028 -300 58 -1000 010/05 RMK AO2 T00940017
53915KARA ARA20161215174510512/15/16 17:45:31  5-MIN KARA 152345Z 01005KT 10SM CLR 09/02 A3028 -300 58 -1000 010/05 RMK AO2 T00940017
53915KARA ARA20161215175013012/15/16 17:50:31  5-MIN KARA 152350Z 02005KT 10SM CLR 09/02 A3028 -300 58 -1000 020/05 RMK AO2 SLP253 T00940017 10139 20094 56023
53915KARA ARA20161215175510512/15/16 17:55:31  5-MIN KARA 152355Z 02005KT 10SM CLR 09/02 A3028 -300 58 -1000 010/05 RMK AO2 T00940017
53915KARA ARA20161215180010512/15/16 18:00:31  5-MIN KARA 160000Z 02005KT 10SM CLR 09/02 A3028 -300 58 -1000 020/05 RMK AO2 T00940017
53915KARA ARA20161215180510512/15/16 18:05:31  5-MIN KARA 160005Z 02005KT 10SM CLR 09/02 A3028 -300 58 -1000 020/05 RMK AO2 T00940017
53915KARA ARA20161215181010512/15/16 18:10:31  5-MIN KARA 160010Z 02006KT 10SM CLR 09/02 A3028 -300 58 -1000 010/06 RMK AO2 T00940017
53915KARA ARA20161215181510512/15/16 18:15:31  5-MIN KARA 160015Z 02006KT 10SM CLR 09/02 A3028 -300 58 -1000 020/06 RMK AO2 T00940017
53915KARA ARA20161215182010512/15/16 18:20:31  5-MIN KARA 160020Z 02006KT 10SM CLR 09/02 A3028 -300 60 -1000 020/06 RMK AO2 T00890017
53915KARA ARA20161215182510512/15/16 18:25:31  5-MIN KARA 160025Z 02006KT 10SM CLR 09/02 A3028 -300 60 -1000 020/06 RMK AO2 T00890017
53915KARA ARA20161215183010512/15/16 18:30:31  5-MIN KARA 160030Z 02006KT 10SM CLR 08/02 A3029 -300 65 -1100 020/06 RMK AO2 T00830022
53915KARA ARA20161215183510512/15/16 18:35:31  5-MIN KARA 160035Z 01006KT 10SM CLR 09/02 A3029 -300 63 -1000 010/06 RMK AO2 T00890022
53915KARA ARA20161215184010512/15/16 18:40:31  5-MIN KARA 160040Z 01006KT 10SM CLR 09/02 A3028 -300 60 -1000 010/06 RMK AO2 T00890017
53915KARA ARA20161215184510512/15/16 18:45:31  5-MIN KARA 160045Z 02006KT 10SM CLR 09/02 A3028 -300 60 -1000 010/06 RMK AO2 T00890017
53915KARA ARA20161215185011212/15/16 18:50:31  5-MIN KARA 160050Z 02006KT 10SM CLR 09/02 A3028 -300 63 -1000 010/06 RMK AO2 SLP254 T00890022
53915KARA ARA20161215185510512/15/16 18:55:31  5-MIN KARA 160055Z 01005KT 10SM CLR 08/02 A3028 -300 65 -1100 010/05 RMK AO2 T00830022
53915KARA ARA20161215190010512/15/16 19:00:31  5-MIN KARA 160100Z 36006KT 10SM CLR 08/02 A3028 -300 65 -1100 360/06 RMK AO2 T00830022
53915KARA ARA20161215190510512/15/16 19:05:31  5-MIN KARA 160105Z 01005KT 10SM CLR 08/02 A3028 -300 65 -1100 010/05 RMK AO2 T00830022
53915KARA ARA20161215191010512/15/16 19:10:31  5-MIN KARA 160110Z 02005KT 10SM CLR 08/02 A3028 -300 65 -1100 020/05 RMK AO2 T00830022
53915KARA ARA20161215191510512/15/16 19:15:31  5-MIN KARA 160115Z 01005KT 10SM CLR 08/02 A3028 -300 65 -1100 010/05 RMK AO2 T00830022
53915KARA ARA20161215192010512/15/16 19:20:31  5-MIN KARA 160120Z 36004KT 10SM CLR 08/02 A3028 -300 63 -1100 360/04 RMK AO2 T00830017
53915KARA ARA20161215192510512/15/16 19:25:31  5-MIN KARA 160125Z 35005KT 10SM CLR 08/02 A3029 -300 65 -1100 350/05 RMK AO2 T00830022
53915KARA ARA20161215193010512/15/16 19:30:31  5-MIN KARA 160130Z 01006KT 10SM CLR 08/02 A3028 -300 68 -1200 010/06 RMK AO2 T00780022
53915KARA ARA20161215193510512/15/16 19:35:31  5-MIN KARA 160135Z 36005KT 10SM CLR 07/02 A3028 -300 70 -1200 360/05 RMK AO2 T00720022
53915KARA ARA20161215194010512/15/16 19:40:31  5-MIN KARA 160140Z 36005KT 10SM CLR 07/02 A3029 -310 70 -1200 360/05 RMK AO2 T00720022
53915KARA ARA20161215194510512/15/16 19:45:31  5-MIN KARA 160145Z 01005KT 10SM CLR 07/02 A3029 -310 70 -1200 010/05 RMK AO2 T00720022
53915KARA ARA20161215195011212/15/16 19:50:31  5-MIN KARA 160150Z 01005KT 10SM CLR 07/02 A3029 -310 70 -1200 010/05 RMK AO2 SLP256 T00720022
53915KARA ARA20161215195510512/15/16 19:55:31  5-MIN KARA 160155Z 01006KT 10SM CLR 08/02 A3029 -310 68 -1200 010/06 RMK AO2 T00780022
53915KARA ARA20161215200010512/15/16 20:00:31  5-MIN KARA 160200Z 02007KT 10SM CLR 07/02 A3029 -310 70 -1200 020/07 RMK AO2 T00720022
53915KARA ARA20161215200510512/15/16 20:05:31  5-MIN KARA 160205Z 02007KT 10SM CLR 08/02 A3029 -310 68 -1200 020/07 RMK AO2 T00780022
53915KARA ARA20161215201010512/15/16 20:10:31  5-MIN KARA 160210Z 03007KT 10SM CLR 08/02 A3029 -300 68 -1200 030/07 RMK AO2 T00780022
53915KARA ARA20161215201510512/15/16 20:15:31  5-MIN KARA 160215Z 03008KT 10SM CLR 08/02 A3028 -300 68 -1200 030/08 RMK AO2 T00780022
53915KARA ARA20161215202010512/15/16 20:20:31  5-MIN KARA 160220Z 03007KT 10SM CLR 08/02 A3028 -300 65 -1200 030/07 RMK AO2 T00780017
53915KARA ARA20161215202510512/15/16 20:25:31  5-MIN KARA 160225Z 03007KT 10SM CLR 08/02 A3028 -300 65 -1200 030/07 RMK AO2 T00780017
53915KARA ARA20161215203010512/15/16 20:30:31  5-MIN KARA 160230Z 03007KT 10SM CLR 08/02 A3028 -300 65 -1200 030/07 RMK AO2 T00780017
53915KARA ARA20161215203510512/15/16 20:35:31  5-MIN KARA 160235Z 04005KT 10SM CLR 08/02 A3028 -300 65 -1200 040/05 RMK AO2 T00780017
53915KARA ARA20161215204010512/15/16 20:40:31  5-MIN KARA 160240Z 04006KT 10SM CLR 08/02 A3028 -300 65 -1200 040/06 RMK AO2 T00780017
53915KARA ARA20161215204511012/15/16 20:45:31  5-MIN KARA 160245Z AUTO 05007KT 10SM CLR 08/02 A3028 -300 65 -1200 040/07 RMK AO2 T00780017
53915KARA ARA20161215205012312/15/16 20:50:31  5-MIN KARA 160250Z AUTO 05008KT 10SM CLR 08/02 A3028 -300 63 -1100 050/08 RMK AO2 SLP252 T00830017 53008
53915KARA ARA20161215205511012/15/16 20:55:31  5-MIN KARA 160255Z AUTO 05009KT 10SM CLR 08/02 A3027 -300 63 -1100 050/09 RMK AO2 T00830017
53915KARA ARA20161215210011012/15/16 21:00:31  5-MIN KARA 160300Z AUTO 05009KT 10SM CLR 08/02 A3027 -290 63 -1100 050/09 RMK AO2 T00830017
53915KARA ARA20161215210511012/15/16 21:05:31  5-MIN KARA 160305Z AUTO 05007KT 10SM CLR 08/02 A3027 -290 63 -1100 050/07 RMK AO2 T00830017
53915KARA ARA20161215211011012/15/16 21:10:31  5-MIN KARA 160310Z AUTO 05006KT 10SM CLR 08/01 A3027 -290 60 -1100 050/06 RMK AO2 T00830011
53915KARA ARA20161215211511012/15/16 21:15:31  5-MIN KARA 160315Z AUTO 05006KT 10SM CLR 08/01 A3027 -290 62 -1100 050/06 RMK AO2 T00780011
53915KARA ARA20161215212011012/15/16 21:20:31  5-MIN KARA 160320Z AUTO 06006KT 10SM CLR 08/01 A3027 -290 62 -1100 060/06 RMK AO2 T00780011
53915KARA ARA20161215212511012/15/16 21:25:31  5-MIN KARA 160325Z AUTO 05004KT 10SM CLR 07/01 A3027 -290 65 -1200 050/04 RMK AO2 T00720011
53915KARA ARA20161215213011012/15/16 21:30:31  5-MIN KARA 160330Z AUTO 06003KT 10SM CLR 07/01 A3027 -290 65 -1200 060/03 RMK AO2 T00720011
53915KARA ARA20161215213511012/15/16 21:35:31  5-MIN KARA 160335Z AUTO 07004KT 10SM CLR 07/01 A3026 -290 65 -1200 070/04 RMK AO2 T00720011
53915KARA ARA20161215214011012/15/16 21:40:31  5-MIN KARA 160340Z AUTO 06004KT 10SM CLR 07/01 A3026 -280 65 -1200 060/04 RMK AO2 T00720011
53915KARA ARA20161215214511012/15/16 21:45:31  5-MIN KARA 160345Z AUTO 07004KT 10SM CLR 07/01 A3026 -280 65 -1200 070/04 RMK AO2 T00720011
53915KARA ARA20161215215011712/15/16 21:50:31  5-MIN KARA 160350Z AUTO 07004KT 10SM CLR 07/01 A3026 -280 67 -1300 070/04 RMK AO2 SLP247 T00670011
53915KARA ARA20161215215511012/15/16 21:55:31  5-MIN KARA 160355Z AUTO 08003KT 10SM CLR 07/01 A3026 -280 67 -1300 080/03 RMK AO2 T00670011
53915KARA ARA20161215220011012/15/16 22:00:31  5-MIN KARA 160400Z AUTO 08004KT 10SM CLR 07/02 A3026 -280 70 -1300 080/04 RMK AO2 T00670017
53915KARA ARA20161215220511012/15/16 22:05:31  5-MIN KARA 160405Z AUTO 08003KT 10SM CLR 06/01 A3026 -280 70 -1300 080/03 RMK AO2 T00610011
53915KARA ARA20161215221011012/15/16 22:10:31  5-MIN KARA 160410Z AUTO 06003KT 10SM CLR 06/01 A3026 -280 70 -1300 060/03 RMK AO2 T00610011
53915KARA ARA20161215221511012/15/16 22:15:31  5-MIN KARA 160415Z AUTO 02003KT 10SM CLR 06/01 A3026 -280 70 -1300 020/03 RMK AO2 T00610011
53915KARA ARA20161215222011012/15/16 22:20:31  5-MIN KARA 160420Z AUTO 00000KT 10SM CLR 07/02 A3026 -280 70 -1300 000/00 RMK AO2 T00670017
53915KARA ARA20161215222511012/15/16 22:25:31  5-MIN KARA 160425Z AUTO 00000KT 10SM CLR 06/02 A3026 -280 73 -1300 000/00 RMK AO2 T00610017
53915KARA ARA20161215223011012/15/16 22:30:31  5-MIN KARA 160430Z AUTO 02003KT 10SM CLR 06/02 A3026 -280 79 -1400 020/03 RMK AO2 T00560022
53915KARA ARA20161215223511012/15/16 22:35:31  5-MIN KARA 160435Z AUTO 03003KT 10SM CLR 06/01 A3026 -280 73 -1400 020/03 RMK AO2 T00560011
53915KARA ARA20161215224011012/15/16 22:40:31  5-MIN KARA 160440Z AUTO 04004KT 10SM CLR 06/02 A3026 -280 76 -1400 030/04 RMK AO2 T00560017
53915KARA ARA20161215224511012/15/16 22:45:31  5-MIN KARA 160445Z AUTO 03004KT 10SM CLR 06/02 A3026 -280 76 -1400 030/04 RMK AO2 T00560017
53915KARA ARA20161215225011712/15/16 22:50:31  5-MIN KARA 160450Z AUTO 03004KT 10SM CLR 06/02 A3025 -280 73 -1300 020/04 RMK AO2 SLP244 T00610017
53915KARA ARA20161215225511012/15/16 22:55:31  5-MIN KARA 160455Z AUTO 04004KT 10SM CLR 06/02 A3025 -280 76 -1400 040/04 RMK AO2 T00560017
53915KARA ARA20161215230011012/15/16 23:00:31  5-MIN KARA 160500Z AUTO 06003KT 10SM CLR 06/02 A3025 -270 73 -1300 060/03 RMK AO2 T00610017
53915KARA ARA20161215230511012/15/16 23:05:31  5-MIN KARA 160505Z AUTO 07003KT 10SM CLR 06/02 A3024 -270 73 -1300 070/03 RMK AO2 T00610017
53915KARA ARA20161215231011012/15/16 23:10:31  5-MIN KARA 160510Z AUTO 00000KT 10SM CLR 06/02 A3024 -260 73 -1300 000/00 RMK AO2 T00610017
53915KARA ARA20161215231511012/15/16 23:15:31  5-MIN KARA 160515Z AUTO 00000KT 10SM CLR 06/02 A3024 -260 76 -1400 000/00 RMK AO2 T00560017
53915KARA ARA20161215232011012/15/16 23:20:31  5-MIN KARA 160520Z AUTO 00000KT 10SM CLR 06/02 A3024 -260 76 -1400 000/00 RMK AO2 T00560017
53915KARA ARA20161215232511012/15/16 23:25:31  5-MIN KARA 160525Z AUTO 00000KT 10SM CLR 06/02 A3024 -260 79 -1400 000/00 RMK AO2 T00560022
53915KARA ARA20161215233011012/15/16 23:30:31  5-MIN KARA 160530Z AUTO 00000KT 10SM CLR 06/02 A3023 -260 79 -1400 000/00 RMK AO2 T00560022
53915KARA ARA20161215233511012/15/16 23:35:31  5-MIN KARA 160535Z AUTO 00000KT 10SM CLR 06/02 A3023 -260 79 -1400 000/00 RMK AO2 T00560022
53915KARA ARA20161215234011012/15/16 23:40:31  5-MIN KARA 160540Z AUTO 00000KT 10SM CLR 05/02 A3023 -250 79 -1400 000/00 RMK AO2 T00500017
53915KARA ARA20161215234511012/15/16 23:45:31  5-MIN KARA 160545Z AUTO 00000KT 10SM CLR 05/02 A3023 -250 79 -1400 000/00 RMK AO2 T00500017
53915KARA ARA20161215235014512/15/16 23:50:31  5-MIN KARA 160550Z AUTO 00000KT 10SM CLR 05/02 A3023 -250 79 -1400 000/00 RMK AO2 SLP235 T00500017 10094 20044 401390044 58002
53915KARA ARA20161215235511012/15/16 23:55:31  5-MIN KARA 160555Z AUTO 36003KT 10SM CLR 06/02 A3023 -250 76 -1400 360/03 RMK AO2 T00560017
53915KARA ARA20161216000011012/16/16 00:00:31  5-MIN KARA 160600Z AUTO 34004KT 10SM CLR 05/02 A3023 -250 79 -1400 340/04 RMK AO2 T00500017
53915KARA ARA20161216000511012/16/16 00:05:31  5-MIN KARA 160605Z AUTO 34004KT 10SM CLR 05/02 A3023 -250 82 -1400 340/04 RMK AO2 T00500022
53915KARA ARA20161216001011012/16/16 00:10:31  5-MIN KARA 160610Z AUTO 34004KT 10SM CLR 05/02 A3023 -250 82 -1400 340/04 RMK AO2 T00500022
53915KARA ARA20161216001511012/16/16 00:15:31  5-MIN KARA 160615Z AUTO 36004KT 10SM CLR 05/02 A3023 -250 82 -1400 350/04 RMK AO2 T00500022
53915KARA ARA20161216002011012/16/16 00:20:31  5-MIN KARA 160620Z AUTO 01004KT 10SM CLR 05/02 A3022 -250 79 -1400 010/04 RMK AO2 T00500017
53915KARA ARA20161216002511012/16/16 00:25:31  5-MIN KARA 160625Z AUTO 01004KT 10SM CLR 05/01 A3022 -250 76 -1400 010/04 RMK AO2 T00500011
53915KARA ARA20161216003011012/16/16 00:30:31  5-MIN KARA 160630Z AUTO 02004KT 10SM CLR 05/01 A3022 -250 76 -1400 020/04 RMK AO2 T00500011
53915KARA ARA20161216003511012/16/16 00:35:31  5-MIN KARA 160635Z AUTO 03004KT 10SM CLR 04/01 A3022 -240 79 -1500 020/04 RMK AO2 T00440011
53915KARA ARA20161216004011012/16/16 00:40:31  5-MIN KARA 160640Z AUTO 02004KT 10SM CLR 04/01 A3022 -240 79 -1500 020/04 RMK AO2 T00440011
53915KARA ARA20161216004511012/16/16 00:45:31  5-MIN KARA 160645Z AUTO 02004KT 10SM CLR 05/01 A3022 -240 76 -1400 020/04 RMK AO2 T00500011
53915KARA ARA20161216005011712/16/16 00:50:31  5-MIN KARA 160650Z AUTO 02003KT 10SM CLR 05/02 A3022 -240 79 -1400 020/03 RMK AO2 SLP231 T00500017
53915KARA ARA20161216005511012/16/16 00:55:31  5-MIN KARA 160655Z AUTO 02004KT 10SM CLR 05/02 A3022 -240 79 -1400 020/04 RMK AO2 T00500017
53915KARA ARA20161216010011012/16/16 01:00:31  5-MIN KARA 160700Z AUTO 03003KT 10SM CLR 05/02 A3022 -240 79 -1400 030/03 RMK AO2 T00500017
53915KARA ARA20161216010511012/16/16 01:05:31  5-MIN KARA 160705Z AUTO 05004KT 10SM CLR 05/02 A3021 -240 79 -1400 050/04 RMK AO2 T00500017
53915KARA ARA20161216011011012/16/16 01:10:31  5-MIN KARA 160710Z AUTO 07005KT 10SM CLR 04/01 A3021 -240 79 -1500 060/05 RMK AO2 T00440011
53915KARA ARA20161216011511012/16/16 01:15:31  5-MIN KARA 160715Z AUTO 06006KT 10SM CLR 05/02 A3021 -240 79 -1400 060/06 RMK AO2 T00500017
53915KARA ARA20161216012011012/16/16 01:20:31  5-MIN KARA 160720Z AUTO 06006KT 10SM CLR 06/02 A3021 -230 76 -1300 050/06 RMK AO2 T00610022
53915KARA ARA20161216012511012/16/16 01:25:31  5-MIN KARA 160725Z AUTO 05007KT 10SM CLR 07/03 A3021 -230 76 -1200 050/07 RMK AO2 T00670028
53915KARA ARA20161216013011012/16/16 01:30:31  5-MIN KARA 160730Z AUTO 06005KT 10SM CLR 07/03 A3021 -230 76 -1200 060/05 RMK AO2 T00670028
53915KARA ARA20161216013511012/16/16 01:35:31  5-MIN KARA 160735Z AUTO 07005KT 10SM CLR 07/02 A3021 -230 73 -1200 060/05 RMK AO2 T00670022
53915KARA ARA20161216014011012/16/16 01:40:31  5-MIN KARA 160740Z AUTO 08005KT 10SM CLR 06/02 A3021 -230 76 -1300 070/05 RMK AO2 T00610022
53915KARA ARA20161216014511012/16/16 01:45:31  5-MIN KARA 160745Z AUTO 09004KT 10SM CLR 06/02 A3020 -230 76 -1300 090/04 RMK AO2 T00610022
53915KARA ARA20161216015011712/16/16 01:50:31  5-MIN KARA 160750Z AUTO 09004KT 10SM CLR 06/02 A3020 -230 79 -1300 080/04 RMK AO2 SLP226 T00560022
53915KARA ARA20161216015511012/16/16 01:55:31  5-MIN KARA 160755Z AUTO 09004KT 10SM CLR 06/02 A3020 -230 76 -1300 090/04 RMK AO2 T00560017
53915KARA ARA20161216020011012/16/16 02:00:31  5-MIN KARA 160800Z AUTO 09004KT 10SM CLR 06/02 A3020 -220 76 -1300 090/04 RMK AO2 T00560017
53915KARA ARA20161216020511012/16/16 02:05:31  5-MIN KARA 160805Z AUTO 09004KT 10SM CLR 05/02 A3019 -220 79 -1400 090/04 RMK AO2 T00500017
53915KARA ARA20161216021011012/16/16 02:10:31  5-MIN KARA 160810Z AUTO 09003KT 10SM CLR 05/02 A3020 -220 79 -1400 090/03 RMK AO2 T00500017
53915KARA ARA20161216021511012/16/16 02:15:31  5-MIN KARA 160815Z AUTO 10003KT 10SM CLR 05/02 A3020 -220 79 -1400 100/03 RMK AO2 T00500017
53915KARA ARA20161216022011012/16/16 02:20:31  5-MIN KARA 160820Z AUTO 10003KT 10SM CLR 04/02 A3019 -220 82 -1500 100/03 RMK AO2 T00440017
53915KARA ARA20161216022511012/16/16 02:25:31  5-MIN KARA 160825Z AUTO 11003KT 10SM CLR 05/02 A3019 -220 79 -1400 110/03 RMK AO2 T00500017
53915KARA ARA20161216023011012/16/16 02:30:31  5-MIN KARA 160830Z AUTO 11003KT 10SM CLR 05/02 A3019 -220 79 -1400 110/03 RMK AO2 T00500017
53915KARA ARA20161216023511012/16/16 02:35:31  5-MIN KARA 160835Z AUTO 10003KT 10SM CLR 05/02 A3019 -220 79 -1400 100/03 RMK AO2 T00500017
53915KARA ARA20161216024011012/16/16 02:40:31  5-MIN KARA 160840Z AUTO 08004KT 10SM CLR 05/02 A3019 -220 79 -1400 080/04 RMK AO2 T00500017
53915KARA ARA20161216024511012/16/16 02:45:31  5-MIN KARA 160845Z AUTO 08003KT 10SM CLR 05/02 A3019 -220 82 -1400 080/03 RMK AO2 T00500022
53915KARA ARA20161216025012312/16/16 02:50:31  5-MIN KARA 160850Z AUTO 00000KT 10SM CLR 06/02 A3019 -220 79 -1300 000/00 RMK AO2 SLP223 T00560022 58016
53915KARA ARA20161216025511312/16/16 02:55:31  5-MIN KARA 160855Z AUTO 00000KT 10SM FEW026 05/02 A3019 -220 82 -1400 000/00 RMK AO2 T00500022
53915KARA ARA20161216030011312/16/16 03:00:31  5-MIN KARA 160900Z AUTO 06003KT 10SM SCT026 06/02 A3019 -220 79 -1300 060/03 RMK AO2 T00560022
53915KARA ARA20161216030511312/16/16 03:05:31  5-MIN KARA 160905Z AUTO 05003KT 10SM BKN026 06/02 A3019 -220 76 -1300 050/03 RMK AO2 T00610022
53915KARA ARA20161216031011312/16/16 03:10:31  5-MIN KARA 160910Z AUTO 05004KT 10SM BKN026 07/03 A3020 -220 76 -1200 050/04 RMK AO2 T00670028
53915KARA ARA20161216031511312/16/16 03:15:31  5-MIN KARA 160915Z AUTO 05004KT 10SM OVC026 07/03 A3019 -220 79 -1200 050/04 RMK AO2 T00670033
53915KARA ARA20161216032011312/16/16 03:20:31  5-MIN KARA 160920Z AUTO 07004KT 10SM OVC026 07/03 A3019 -220 76 -1100 070/04 RMK AO2 T00720033
53915KARA ARA20161216032511312/16/16 03:25:31  5-MIN KARA 160925Z AUTO 06005KT 10SM OVC025 07/03 A3019 -220 79 -1200 060/05 RMK AO2 T00670033
53915KARA ARA20161216033011312/16/16 03:30:31  5-MIN KARA 160930Z AUTO 06005KT 10SM OVC025 07/03 A3019 -220 76 -1100 060/05 RMK AO2 T00720033
53915KARA ARA20161216033511312/16/16 03:35:31  5-MIN KARA 160935Z AUTO 06006KT 10SM OVC025 07/03 A3019 -220 76 -1100 060/06 RMK AO2 T00720033
53915KARA ARA20161216034011312/16/16 03:40:31  5-MIN KARA 160940Z AUTO 06006KT 10SM OVC025 07/03 A3019 -210 76 -1100 060/06 RMK AO2 T00720033
53915KARA ARA20161216034511312/16/16 03:45:31  5-MIN KARA 160945Z AUTO 06005KT 10SM OVC025 07/03 A3019 -210 76 -1100 060/05 RMK AO2 T00720033
53915KARA ARA20161216035012012/16/16 03:50:31  5-MIN KARA 160950Z AUTO 06005KT 10SM OVC025 07/03 A3019 -210 76 -1100 060/05 RMK AO2 SLP221 T00720033
53915KARA ARA20161216035511312/16/16 03:55:31  5-MIN KARA 160955Z AUTO 06005KT 10SM OVC025 07/03 A3018 -210 76 -1100 050/05 RMK AO2 T00720033
53915KARA ARA20161216040011312/16/16 04:00:31  5-MIN KARA 161000Z AUTO 05004KT 10SM OVC026 08/03 A3019 -210 73 -1100 050/04 RMK AO2 T00780033
53915KARA ARA20161216040511312/16/16 04:05:31  5-MIN KARA 161005Z AUTO 06004KT 10SM OVC026 08/03 A3019 -210 73 -1100 060/04 RMK AO2 T00780033
53915KARA ARA20161216041011312/16/16 04:10:31  5-MIN KARA 161010Z AUTO 05004KT 10SM OVC026 08/03 A3019 -220 73 -1100 050/04 RMK AO2 T00780033
53915KARA ARA20161216041511312/16/16 04:15:31  5-MIN KARA 161015Z AUTO 04004KT 10SM OVC026 08/03 A3019 -220 73 -1100 040/04 RMK AO2 T00780033
53915KARA ARA20161216042011312/16/16 04:20:31  5-MIN KARA 161020Z AUTO 05004KT 10SM OVC026 08/03 A3019 -210 73 -1100 050/04 RMK AO2 T00780033
53915KARA ARA20161216042511312/16/16 04:25:31  5-MIN KARA 161025Z AUTO 05005KT 10SM OVC026 08/03 A3019 -210 73 -1100 050/05 RMK AO2 T00780033
53915KARA ARA20161216043011312/16/16 04:30:31  5-MIN KARA 161030Z AUTO 06005KT 10SM OVC026 08/03 A3018 -210 73 -1000 060/05 RMK AO2 T00780033
53915KARA ARA20161216043511312/16/16 04:35:31  5-MIN KARA 161035Z AUTO 07004KT 10SM OVC026 08/03 A3018 -210 73 -1000 070/04 RMK AO2 T00780033
53915KARA ARA20161216044011312/16/16 04:40:31  5-MIN KARA 161040Z AUTO 07004KT 10SM OVC026 08/03 A3018 -210 73 -1000 070/04 RMK AO2 T00780033
53915KARA ARA20161216044511312/16/16 04:45:31  5-MIN KARA 161045Z AUTO 07004KT 10SM OVC026 08/03 A3018 -210 73 -1000 070/04 RMK AO2 T00780033
53915KARA ARA20161216045012012/16/16 04:50:31  5-MIN KARA 161050Z AUTO 07004KT 10SM OVC026 08/03 A3018 -210 73 -1000 060/04 RMK AO2 SLP220 T00780033
53915KARA ARA20161216045511312/16/16 04:55:31  5-MIN KARA 161055Z AUTO 06004KT 10SM OVC026 08/04 A3018 -210 76 -1000 060/04 RMK AO2 T00780039
53915KARA ARA20161216050011312/16/16 05:00:31  5-MIN KARA 161100Z AUTO 07005KT 10SM OVC026 08/03 A3018 -210 73 -1000 070/05 RMK AO2 T00780033
53915KARA ARA20161216050511312/16/16 05:05:31  5-MIN KARA 161105Z AUTO 07005KT 10SM OVC026 08/03 A3019 -210 73 -1000 070/05 RMK AO2 T00780033
53915KARA ARA20161216051011312/16/16 05:10:31  5-MIN KARA 161110Z AUTO 06004KT 10SM OVC026 08/04 A3019 -210 76 -1000 060/04 RMK AO2 T00780039
53915KARA ARA20161216051511312/16/16 05:15:31  5-MIN KARA 161115Z AUTO 06004KT 10SM OVC026 08/04 A3019 -210 76 -1000 060/04 RMK AO2 T00780039
53915KARA ARA20161216052011312/16/16 05:20:31  5-MIN KARA 161120Z AUTO 06004KT 10SM OVC026 08/04 A3018 -210 76 -1000 060/04 RMK AO2 T00780039
53915KARA ARA20161216052511312/16/16 05:25:31  5-MIN KARA 161125Z AUTO 07004KT 10SM OVC026 08/04 A3018 -210 76 -1000 070/04 RMK AO2 T00780039
53915KARA ARA20161216053011312/16/16 05:30:31  5-MIN KARA 161130Z AUTO 07004KT 10SM OVC026 08/04 A3018 -210 76 -1000 070/04 RMK AO2 T00780039
53915KARA ARA20161216053511312/16/16 05:35:31  5-MIN KARA 161135Z AUTO 06004KT 10SM OVC026 08/04 A3018 -210 73 -1000 060/04 RMK AO2 T00830039
53915KARA ARA20161216054010812/16/16 05:40:31  5-MIN KARA 161140Z 07005KT 10SM OVC026 08/04 A3018 -210 73 -1000 070/05 RMK AO2 T00830039
53915KARA ARA20161216054510812/16/16 05:45:31  5-MIN KARA 161145Z 06004KT 10SM OVC026 08/04 A3019 -210 73 -1000 060/04 RMK AO2 T00830039
53915KARA ARA20161216055013312/16/16 05:50:31  5-MIN KARA 161150Z 06003KT 10SM OVC026 08/04 A3019 -210 73 -1000 060/03 RMK AO2 SLP221 T00830039 10083 20044 56013
53915KARA ARA20161216055510812/16/16 05:55:31  5-MIN KARA 161155Z 07004KT 10SM OVC026 08/04 A3018 -210 73 -1000 070/04 RMK AO2 T00830039
53915KARA ARA20161216060010812/16/16 06:00:31  5-MIN KARA 161200Z 08004KT 10SM OVC026 08/04 A3018 -210 73 -1000 080/04 RMK AO2 T00830039
53915KARA ARA20161216060510812/16/16 06:05:31  5-MIN KARA 161205Z 08005KT 10SM OVC026 08/04 A3018 -210 73 -1000 080/05 RMK AO2 T00830039
53915KARA ARA20161216061010812/16/16 06:10:31  5-MIN KARA 161210Z 08005KT 10SM OVC026 08/04 A3018 -200 73 -1000 080/05 RMK AO2 T00830039
53915KARA ARA20161216061510812/16/16 06:15:31  5-MIN KARA 161215Z 08006KT 10SM OVC026 08/04 A3018 -200 73 -1000 080/06 RMK AO2 T00830039
53915KARA ARA20161216062010812/16/16 06:20:31  5-MIN KARA 161220Z 08007KT 10SM OVC026 08/04 A3017 -200 73 -1000 080/07 RMK AO2 T00830039
53915KARA ARA20161216062511512/16/16 06:25:31  5-MIN KARA 161225Z 08008KT 10SM BKN026 OVC048 08/04 A3016 -190 73 -1000 080/08 RMK AO2 T00830039
53915KARA ARA20161216063011512/16/16 06:30:31  5-MIN KARA 161230Z 08007KT 10SM BKN026 OVC048 08/04 A3017 -190 73 -1000 080/07 RMK AO2 T00830039
53915KARA ARA20161216063511512/16/16 06:35:31  5-MIN KARA 161235Z 08006KT 10SM BKN026 OVC048 08/04 A3016 -190 73 -1000 080/06 RMK AO2 T00830039
53915KARA ARA20161216064011512/16/16 06:40:31  5-MIN KARA 161240Z 08006KT 10SM BKN026 OVC048 08/04 A3017 -200 73 -1000 080/06 RMK AO2 T00830039
53915KARA ARA20161216064511412/16/16 06:45:31  5-MIN KARA 161245Z 08008KT 10SM FEW026 OVC048 09/04 A3016 -190 73 -900 080/08 RMK AO2 T00890044
53915KARA ARA20161216065010412/16/16 06:50:31  5-MIN KARA 161250Z 09010KT 10SM FEW026 OVC048 09/04 A3015 -180 71 -900 090/10 RMK AO2
53915KARA ARA20161216065511412/16/16 06:55:31  5-MIN KARA 161255Z 10009KT 10SM FEW026 OVC050 09/04 A3015 -180 73 -900 090/09 RMK AO2 T00890044
53915KARA ARA20161216070011412/16/16 07:00:31  5-MIN KARA 161300Z 10008KT 10SM FEW026 OVC050 09/04 A3015 -180 73 -900 100/08 RMK AO2 T00890044
53915KARA ARA20161216070510712/16/16 07:05:31  5-MIN KARA 161305Z 10008KT 10SM OVC055 09/04 A3015 -190 73 -900 100/08 RMK AO2 T00890044
53915KARA ARA20161216071010712/16/16 07:10:31  5-MIN KARA 161310Z 10007KT 10SM OVC055 09/04 A3016 -190 73 -900 100/07 RMK AO2 T00890044
53915KARA ARA20161216071510712/16/16 07:15:31  5-MIN KARA 161315Z 10009KT 10SM OVC060 09/04 A3015 -180 73 -900 100/09 RMK AO2 T00890044
53915KARA ARA20161216072010712/16/16 07:20:31  5-MIN KARA 161320Z 11007KT 10SM OVC060 09/04 A3016 -190 73 -900 100/07 RMK AO2 T00890044
53915KARA ARA20161216072510712/16/16 07:25:31  5-MIN KARA 161325Z 11007KT 10SM OVC060 09/04 A3015 -180 73 -900 100/07 RMK AO2 T00890044
53915KARA ARA20161216073010712/16/16 07:30:31  5-MIN KARA 161330Z 11008KT 10SM OVC060 09/05 A3014 -170 74 -800 110/08 RMK AO2 T00940050
53915KARA ARA20161216073510712/16/16 07:35:31  5-MIN KARA 161335Z 11010KT 10SM OVC060 09/05 A3014 -170 74 -800 110/10 RMK AO2 T00940050
53915KARA ARA20161216074010712/16/16 07:40:31  5-MIN KARA 161340Z 11010KT 10SM OVC060 09/05 A3014 -170 74 -800 110/10 RMK AO2 T00940050
53915KARA ARA20161216074510712/16/16 07:45:31  5-MIN KARA 161345Z 11008KT 10SM OVC060 09/05 A3014 -170 74 -800 110/08 RMK AO2 T00940050
53915KARA ARA20161216075011412/16/16 07:50:31  5-MIN KARA 161350Z 11008KT 10SM OVC060 10/05 A3014 -170 71 -700 110/08 RMK AO2 SLP206 T01000050
53915KARA ARA20161216075510712/16/16 07:55:31  5-MIN KARA 161355Z 11008KT 10SM OVC060 10/05 A3015 -180 71 -700 110/08 RMK AO2 T01000050
53915KARA ARA20161216080010712/16/16 08:00:31  5-MIN KARA 161400Z 12008KT 10SM OVC065 10/05 A3015 -180 71 -700 110/08 RMK AO2 T01000050
53915KARA ARA20161216080510712/16/16 08:05:31  5-MIN KARA 161405Z 11008KT 10SM OVC065 11/05 A3015 -180 68 -700 110/08 RMK AO2 T01060050
53915KARA ARA20161216081010712/16/16 08:10:31  5-MIN KARA 161410Z 11009KT 10SM OVC065 11/06 A3015 -180 71 -700 110/09 RMK AO2 T01060056
53915KARA ARA20161216081510712/16/16 08:15:31  5-MIN KARA 161415Z 11010KT 10SM OVC065 11/06 A3014 -170 71 -700 110/10 RMK AO2 T01060056
53915KARA ARA20161216082010712/16/16 08:20:31  5-MIN KARA 161420Z 11009KT 10SM OVC065 11/06 A3014 -170 71 -700 110/09 RMK AO2 T01060056
53915KARA ARA20161216082510712/16/16 08:25:31  5-MIN KARA 161425Z 11007KT 10SM OVC065 11/06 A3014 -180 68 -600 110/07 RMK AO2 T01110056
53915KARA ARA20161216083010712/16/16 08:30:31  5-MIN KARA 161430Z 11008KT 10SM OVC065 11/06 A3015 -180 71 -600 110/08 RMK AO2 T01110061
53915KARA ARA20161216083510712/16/16 08:35:31  5-MIN KARA 161435Z 10008KT 10SM OVC065 12/06 A3015 -180 68 -500 100/08 RMK AO2 T01170061
53915KARA ARA20161216084010712/16/16 08:40:31  5-MIN KARA 161440Z 11006KT 10SM OVC065 12/06 A3015 -180 68 -500 110/06 RMK AO2 T01170061
53915KARA ARA20161216084510712/16/16 08:45:31  5-MIN KARA 161445Z 10007KT 10SM OVC065 12/06 A3015 -180 68 -500 100/07 RMK AO2 T01170061
53915KARA ARA20161216085012012/16/16 08:50:31  5-MIN KARA 161450Z 10008KT 10SM OVC065 12/06 A3015 -180 66 -500 100/08 RMK AO2 SLP208 T01220061 55002
53915KARA ARA20161216085510712/16/16 08:55:31  5-MIN KARA 161455Z 10007KT 10SM OVC065 12/07 A3015 -180 68 -500 100/07 RMK AO2 T01220067
53915KARA ARA20161216090010712/16/16 09:00:31  5-MIN KARA 161500Z 10008KT 10SM OVC065 12/07 A3015 -180 68 -500 100/08 RMK AO2 T01220067
53915KARA ARA20161216090510712/16/16 09:05:31  5-MIN KARA 161505Z 11009KT 10SM OVC065 12/07 A3015 -180 68 -500 100/09 RMK AO2 T01220067
53915KARA ARA20161216091010712/16/16 09:10:31  5-MIN KARA 161510Z 11009KT 10SM OVC065 13/07 A3015 -180 66 -400 110/09 RMK AO2 T01280067
53915KARA ARA20161216091510712/16/16 09:15:31  5-MIN KARA 161515Z 11010KT 10SM OVC065 13/07 A3014 -170 66 -400 110/10 RMK AO2 T01280067
53915KARA ARA20161216092010712/16/16 09:20:31  5-MIN KARA 161520Z 11010KT 10SM OVC065 13/07 A3014 -170 69 -400 110/10 RMK AO2 T01280072
53915KARA ARA20161216092510712/16/16 09:25:31  5-MIN KARA 161525Z 12010KT 10SM OVC065 13/07 A3014 -170 66 -300 120/10 RMK AO2 T01330072
53915KARA ARA20161216093010712/16/16 09:30:31  5-MIN KARA 161530Z 12009KT 10SM OVC065 13/07 A3014 -170 66 -300 120/09 RMK AO2 T01330072
53915KARA ARA20161216093510712/16/16 09:35:31  5-MIN KARA 161535Z 12010KT 10SM OVC065 14/08 A3013 -170 66 -300 120/10 RMK AO2 T01390078
53915KARA ARA20161216094010712/16/16 09:40:31  5-MIN KARA 161540Z 12009KT 10SM OVC065 14/08 A3013 -160 64 -200 120/09 RMK AO2 T01440078
53915KARA ARA20161216094510712/16/16 09:45:31  5-MIN KARA 161545Z 12009KT 10SM OVC065 15/08 A3013 -160 62 -100 120/09 RMK AO2 T01500078
53915KARA ARA20161216095011412/16/16 09:50:31  5-MIN KARA 161550Z 13010KT 10SM OVC065 15/08 A3013 -160 64 -100 130/10 RMK AO2 SLP202 T01500083
53915KARA ARA20161216095510712/16/16 09:55:31  5-MIN KARA 161555Z 13011KT 10SM OVC065 16/08 A3013 -160 62 -100 130/11 RMK AO2 T01560083
53915KARA ARA20161216100010412/16/16 10:00:31  5-MIN KARA 161600Z 13011KT 10SM OVC065 16/09 A3013 -160 64 0 130/11 RMK AO2 T01560089
53915KARA ARA20161216100510412/16/16 10:05:31  5-MIN KARA 161605Z 13010KT 10SM OVC065 16/09 A3012 -160 64 0 130/10 RMK AO2 T01560089
53915KARA ARA20161216101010412/16/16 10:10:31  5-MIN KARA 161610Z 13013KT 10SM OVC065 16/09 A3012 -160 64 0 130/13 RMK AO2 T01610094
53915KARA ARA20161216101510412/16/16 10:15:31  5-MIN KARA 161615Z 13011KT 10SM OVC065 16/09 A3012 -150 64 0 130/11 RMK AO2 T01610094
53915KARA ARA20161216102010412/16/16 10:20:31  5-MIN KARA 161620Z 13010KT 10SM OVC065 16/09 A3012 -150 64 0 130/10 RMK AO2 T01610094
53915KARA ARA20161216102510412/16/16 10:25:31  5-MIN KARA 161625Z 13010KT 10SM OVC065 16/09 A3012 -150 64 0 130/10 RMK AO2 T01610094
53915KARA ARA20161216103010412/16/16 10:30:31  5-MIN KARA 161630Z 14013KT 10SM OVC065 17/10 A3012 -150 64 0 140/13 RMK AO2 T01670100
53915KARA ARA20161216103510412/16/16 10:35:31  5-MIN KARA 161635Z 13013KT 10SM OVC065 17/10 A3011 -150 64 0 130/13 RMK AO2 T01670100
53915KARA ARA20161216104010612/16/16 10:40:31  5-MIN KARA 161640Z 14012KT 10SM OVC065 17/10 A3011 -150 64 100 140/12 RMK AO2 T01670100
53915KARA ARA20161216104510612/16/16 10:45:31  5-MIN KARA 161645Z 13011KT 10SM OVC065 17/10 A3011 -140 64 100 130/11 RMK AO2 T01670100
53915KARA ARA20161216105011312/16/16 10:50:31  5-MIN KARA 161650Z 13013KT 10SM OVC065 17/10 A3011 -140 64 100 130/13 RMK AO2 SLP194 T01670100
53915KARA ARA20161216105510612/16/16 10:55:31  5-MIN KARA 161655Z 14012KT 10SM OVC065 17/10 A3010 -140 64 100 130/12 RMK AO2 T01670100
53915KARA ARA20161216110010612/16/16 11:00:31  5-MIN KARA 161700Z 14012KT 10SM OVC065 17/10 A3011 -140 62 100 140/12 RMK AO2 T01720100
53915KARA ARA20161216110510612/16/16 11:05:31  5-MIN KARA 161705Z 14011KT 10SM OVC065 17/11 A3010 -140 64 100 140/11 RMK AO2 T01720106
53915KARA ARA20161216111010612/16/16 11:10:31  5-MIN KARA 161710Z 13011KT 10SM OVC065 17/11 A3011 -140 64 100 130/11 RMK AO2 T01720106
53915KARA ARA20161216111510612/16/16 11:15:31  5-MIN KARA 161715Z 13010KT 10SM OVC065 18/11 A3010 -140 62 200 130/10 RMK AO2 T01780106
53915KARA ARA20161216112010612/16/16 11:20:31  5-MIN KARA 161720Z 14012KT 10SM OVC065 18/11 A3010 -130 62 200 140/12 RMK AO2 T01780106
53915KARA ARA20161216112510612/16/16 11:25:31  5-MIN KARA 161725Z 15009KT 10SM OVC065 18/11 A3010 -130 62 300 150/09 RMK AO2 T01830111
53915KARA ARA20161216113010612/16/16 11:30:31  5-MIN KARA 161730Z 15010KT 10SM OVC065 19/12 A3010 -130 62 300 150/10 RMK AO2 T01890117
53915KARA ARA20161216113510612/16/16 11:35:31  5-MIN KARA 161735Z 15011KT 10SM OVC070 19/12 A3009 -130 62 300 150/11 RMK AO2 T01890117
53915KARA ARA20161216114010612/16/16 11:40:31  5-MIN KARA 161740Z 15010KT 10SM OVC070 19/12 A3009 -120 60 400 150/10 RMK AO2 T01940117
53915KARA ARA20161216114510612/16/16 11:45:31  5-MIN KARA 161745Z 16011KT 10SM OVC070 19/12 A3009 -120 60 400 150/11 RMK AO2 T01940117
53915KARA ARA20161216115013112/16/16 11:50:31  5-MIN KARA 161750Z 15009KT 10SM OVC070 19/12 A3008 -120 60 400 150/09 RMK AO2 SLP185 T01940117 10194 20083 55012
53915KARA ARA20161216115510612/16/16 11:55:31  5-MIN KARA 161755Z 15011KT 10SM OVC070 20/12 A3008 -110 60 500 150/11 RMK AO2 T02000122
53915KARA ARA20161216120010612/16/16 12:00:31  5-MIN KARA 161800Z 16012KT 10SM OVC070 21/13 A3007 -110 60 500 160/12 RMK AO2 T02060128
53915KARA ARA20161216120511212/16/16 12:05:31  5-MIN KARA 161805Z 17012G18KT 10SM OVC070 21/13 A3007 -110 61 600 170/12G18 RMK AO2 T02110133
53915KARA ARA20161216121011912/16/16 12:10:31  5-MIN KARA 161810Z 17014G18KT 10SM FEW044 OVC070 21/13 A3007 -110 61 600 170/14G18 RMK AO2 T02110133
53915KARA ARA20161216121512012/16/16 12:15:31  5-MIN KARA 161815Z 16013KT 10SM FEW030 FEW044 OVC070 21/14 A3006 -100 63 600 160/13 RMK AO2 T02110139
53915KARA ARA20161216122011212/16/16 12:20:31  5-MIN KARA 161820Z 16014KT 10SM FEW030 OVC070 21/14 A3006 -90 63 600 160/14 RMK AO2 T02110139
53915KARA ARA20161216122511812/16/16 12:25:31  5-MIN KARA 161825Z 15016G21KT 10SM FEW030 OVC070 22/14 A3005 -90 63 700 150/16G21 RMK AO2 T02170144
53915KARA ARA20161216123012512/16/16 12:30:31  5-MIN KARA 161830Z 17015G21KT 10SM FEW030 SCT044 OVC070 21/14 A3005 -90 63 600 170/15G21 RMK AO2 T02110139
53915KARA ARA20161216123511912/16/16 12:35:31  5-MIN KARA 161835Z 18014KT 10SM FEW030 BKN044 OVC070 21/14 A3005 -90 63 600 170/14 RMK AO2 T02110139
53915KARA ARA20161216124011212/16/16 12:40:31  5-MIN KARA 161840Z 17012KT 10SM BKN043 OVC070 21/14 A3005 -90 63 600 170/12 RMK AO2 T02110139
53915KARA ARA20161216124511812/16/16 12:45:31  5-MIN KARA 161845Z 15016G22KT 10SM BKN043 OVC070 21/14 A3004 -80 65 600 150/16G22 RMK AO2 T02110144
53915KARA ARA20161216125013212/16/16 12:50:31  5-MIN KARA 161850Z 17014G22KT 10SM FEW024 BKN043 OVC070 22/14 A3004 -80 61 700 170/14G22 RMK AO2 SLP171 T02170139
53915KARA ARA20161216125512512/16/16 12:55:31  5-MIN KARA 161855Z 16018G23KT 10SM BKN043 BKN050 BKN070 22/14 A3004 -80 59 800 160/18G23 RMK AO2 T02220139
53915KARA ARA20161216130011812/16/16 13:00:31  5-MIN KARA 161900Z 17014G23KT 10SM BKN045 BKN075 22/14 A3003 -70 61 700 170/14G23 RMK AO2 T02170139
53915KARA ARA20161216130511212/16/16 13:05:31  5-MIN KARA 161905Z 18014KT 10SM BKN045 OVC070 21/14 A3003 -70 63 700 180/14 RMK AO2 T02110139
53915KARA ARA20161216131011212/16/16 13:10:31  5-MIN KARA 161910Z 17014KT 10SM BKN045 OVC070 21/14 A3003 -70 63 700 160/14 RMK AO2 T02110139
53915KARA ARA20161216131511212/16/16 13:15:31  5-MIN KARA 161915Z 17014KT 10SM BKN045 OVC070 21/14 A3003 -70 63 700 170/14 RMK AO2 T02110139
53915KARA ARA20161216132010512/16/16 13:20:31  5-MIN KARA 161920Z 16013KT 10SM OVC043 21/14 A3002 -60 63 700 160/13 RMK AO2 T02110139
53915KARA ARA20161216132510512/16/16 13:25:31  5-MIN KARA 161925Z 17012KT 10SM OVC043 21/14 A3002 -60 63 700 170/12 RMK AO2 T02110139
53915KARA ARA20161216133011112/16/16 13:30:31  5-MIN KARA 161930Z 16015G19KT 10SM OVC043 21/14 A3002 -60 63 700 160/15G19 RMK AO2 T02110139
53915KARA ARA20161216133511112/16/16 13:35:31  5-MIN KARA 161935Z 16017G22KT 10SM OVC043 21/14 A3001 -60 63 700 160/17G22 RMK AO2 T02110139
53915KARA ARA20161216134010512/16/16 13:40:31  5-MIN KARA 161940Z 16016KT 10SM OVC042 21/14 A3001 -50 63 700 160/16 RMK AO2 T02110139
53915KARA ARA20161216134511812/16/16 13:45:31  5-MIN KARA 161945Z 15019G22KT 10SM BKN042 OVC050 21/14 A3000 -40 65 600 150/19G22 RMK AO2 T02060139
53915KARA ARA20161216135012512/16/16 13:50:31  5-MIN KARA 161950Z 16015G22KT 10SM SCT042 OVC049 21/14 A3000 -40 63 700 160/15G22 RMK AO2 SLP157 T02110139
53915KARA ARA20161216135511812/16/16 13:55:31  5-MIN KARA 161955Z 16015G22KT 10SM BKN045 OVC055 21/14 A3000 -40 63 700 160/15G22 RMK AO2 T02110139
53915KARA ARA20161216140011112/16/16 14:00:31  5-MIN KARA 162000Z 15017G22KT 10SM OVC047 21/14 A3000 -40 65 600 150/17G22 RMK AO2 T02060139
53915KARA ARA20161216140511112/16/16 14:05:31  5-MIN KARA 162005Z 17013G22KT 10SM OVC047 21/14 A3000 -40 65 600 160/13G22 RMK AO2 T02060139
53915KARA ARA20161216141011112/16/16 14:10:31  5-MIN KARA 162010Z 16015G22KT 10SM OVC047 21/14 A3000 -40 65 600 160/15G22 RMK AO2 T02060139
53915KARA ARA20161216141511112/16/16 14:15:31  5-MIN KARA 162015Z 16014G21KT 10SM OVC047 21/14 A2999 -40 67 600 160/14G21 RMK AO2 T02060144
53915KARA ARA20161216142010512/16/16 14:20:31  5-MIN KARA 162020Z 16013KT 10SM OVC047 21/14 A2999 -40 65 700 150/13 RMK AO2 T02110144
53915KARA ARA20161216142510512/16/16 14:25:31  5-MIN KARA 162025Z 16015KT 10SM OVC047 21/14 A2999 -30 67 600 160/15 RMK AO2 T02060144
53915KARA ARA20161216143011912/16/16 14:30:31  5-MIN KARA 162030Z 16017KT 10SM BKN047 BKN060 OVC070 21/14 A2999 -30 67 600 160/17 RMK AO2 T02060144
53915KARA ARA20161216143511712/16/16 14:35:31  5-MIN KARA 162035Z AUTO 16017KT 10SM BKN045 OVC070 21/14 A2999 -30 67 600 160/17 RMK AO2 T02060144
53915KARA ARA20161216144012412/16/16 14:40:31  5-MIN KARA 162040Z AUTO 16015KT 10SM SCT045 BKN055 OVC075 21/14 A2999 -30 67 600 160/15 RMK AO2 T02060144
53915KARA ARA20161216144513012/16/16 14:45:31  5-MIN KARA 162045Z AUTO 15013G21KT 10SM SCT045 BKN055 OVC070 21/14 A2999 -30 65 700 150/13G21 RMK AO2 T02110144
53915KARA ARA20161216145013812/16/16 14:50:31  5-MIN KARA 162050Z 16016G23KT 10SM BKN048 BKN060 OVC070 21/14 A2999 -30 67 600 160/16G23 RMK AO2 SLP153 T02060144 58025
53915KARA ARA20161216145511912/16/16 14:55:31  5-MIN KARA 162055Z 16015KT 10SM BKN050 BKN055 OVC075 21/14 A2998 -30 67 700 160/15 RMK AO2 T02060144
53915KARA ARA20161216150011912/16/16 15:00:31  5-MIN KARA 162100Z 16014KT 10SM BKN048 BKN055 OVC075 21/14 A2998 -30 67 700 160/14 RMK AO2 T02060144
53915KARA ARA20161216150510512/16/16 15:05:31  5-MIN KARA 162105Z 15016KT 10SM OVC048 21/14 A2998 -20 67 700 150/16 RMK AO2 T02060144
53915KARA ARA20161216151010512/16/16 15:10:31  5-MIN KARA 162110Z 16013KT 10SM OVC048 21/14 A2998 -20 67 700 160/13 RMK AO2 T02060144
53915KARA ARA20161216151511212/16/16 15:15:31  5-MIN KARA 162115Z 16014KT 10SM BKN046 OVC055 21/14 A2998 -20 67 700 160/14 RMK AO2 T02060144
53915KARA ARA20161217012012812/17/16 01:20:31  5-MIN KARA 170720Z AUTO 18011G18KT 9SM FEW007 SCT013 BKN044 21/19 A2994 10 87 800 170/11G18 RMK AO2 T02110189
53915KARA ARA20161217012512112/17/16 01:25:31  5-MIN KARA 170725Z AUTO 18012G18KT 9SM FEW007 BKN044 21/19 A2993 10 87 800 180/12G18 RMK AO2 T02110189
53915KARA ARA20161217013012112/17/16 01:30:31  5-MIN KARA 170730Z AUTO 17011G18KT 9SM SCT007 BKN044 21/19 A2993 20 87 800 170/11G18 RMK AO2 T02110189
53915KARA ARA20161217013511512/17/16 01:35:31  5-MIN KARA 170735Z AUTO 18010KT 9SM SCT009 BKN046 21/19 A2993 10 87 800 180/10 RMK AO2 T02110189
53915KARA ARA20161217014011512/17/16 01:40:31  5-MIN KARA 170740Z AUTO 18010KT 9SM FEW009 BKN046 21/19 A2993 10 90 800 180/10 RMK AO2 T02110194
53915KARA ARA20161217014511512/17/16 01:45:31  5-MIN KARA 170745Z AUTO 18011KT 9SM FEW008 OVC046 21/19 A2993 20 90 800 180/11 RMK AO2 T02110194
53915KARA ARA20161217015012912/17/16 01:50:31  5-MIN KARA 170750Z AUTO 18011KT 9SM FEW008 SCT013 OVC046 21/19 A2993 20 90 800 180/11 RMK AO2 SLP135 T02110194
53915KARA ARA20161217015512212/17/16 01:55:31  5-MIN KARA 170755Z AUTO 18012KT 9SM SCT008 BKN013 OVC046 22/19 A2993 20 87 800 180/12 RMK AO2 T02170194
53915KARA ARA20161217020012212/17/16 02:00:31  5-MIN KARA 170800Z AUTO 18010KT 9SM SCT008 BKN013 OVC046 22/19 A2993 10 87 800 180/10 RMK AO2 T02170194
53915KARA ARA20161217020512212/17/16 02:05:31  5-MIN KARA 170805Z AUTO 18011KT 9SM SCT008 BKN013 OVC047 22/19 A2993 10 87 800 180/11 RMK AO2 T02170194
53915KARA ARA20161217021012212/17/16 02:10:31  5-MIN KARA 170810Z AUTO 18010KT 9SM SCT008 BKN013 OVC047 22/19 A2993 20 87 800 170/10 RMK AO2 T02170194
53915KARA ARA20161217021512212/17/16 02:15:31  5-MIN KARA 170815Z AUTO 18010KT 9SM SCT007 BKN013 OVC047 22/19 A2993 20 87 800 180/10 RMK AO2 T02170194
53915KARA ARA20161217022012212/17/16 02:20:31  5-MIN KARA 170820Z AUTO 18012KT 9SM SCT007 BKN013 OVC047 22/19 A2993 20 87 800 170/12 RMK AO2 T02170194
53915KARA ARA20161217022512112/17/16 02:25:31  5-MIN KARA 170825Z AUTO 18011G19KT 9SM BKN007 OVC047 22/19 A2993 20 87 800 180/11G19 RMK AO2 T02170194
53915KARA ARA20161217023012812/17/16 02:30:31  5-MIN KARA 170830Z AUTO 18009G19KT 9SM SCT007 BKN014 OVC047 22/19 A2993 10 87 800 180/09G19 RMK AO2 T02170194
53915KARA ARA20161217023512212/17/16 02:35:31  5-MIN KARA 170835Z AUTO 18010KT 9SM SCT007 BKN014 OVC047 22/19 A2993 20 87 800 180/10 RMK AO2 T02170194
53915KARA ARA20161217024013412/17/16 02:40:31  5-MIN KARA 170840Z AUTO 18011KT 8SM BKN007 BKN014 OVC047 22/19 A2993 20 87 800 180/11 RMK AO2 CIG 006V010 T02170194
53915KARA ARA20161217024513412/17/16 02:45:31  5-MIN KARA 170845Z AUTO 18012KT 8SM BKN007 BKN014 OVC047 22/19 A2993 20 87 800 180/12 RMK AO2 CIG 005V010 T02170194
53915KARA ARA20161217025014012/17/16 02:50:31  5-MIN KARA 170850Z AUTO 17011KT 8SM BKN006 OVC014 22/19 A2992 20 87 800 170/11 RMK AO2 CIG 005V010 SLP132 T02170194 55005
53915KARA ARA20161217025512212/17/16 02:55:31  5-MIN KARA 170855Z AUTO 18010KT 8SM BKN006 BKN014 OVC050 22/19 A2992 20 87 800 180/10 RMK AO2 T02170194
53915KARA ARA20161217030012212/17/16 03:00:31  5-MIN KARA 170900Z AUTO 18012KT 8SM BKN006 BKN014 OVC050 22/19 A2992 30 87 900 180/12 RMK AO2 T02170194
53915KARA ARA20161217030512212/17/16 03:05:31  5-MIN KARA 170905Z AUTO 18011KT 8SM BKN006 BKN014 OVC050 22/19 A2992 30 87 900 180/11 RMK AO2 T02170194
53915KARA ARA20161217031011512/17/16 03:10:31  5-MIN KARA 170910Z AUTO 18011KT 8SM BKN006 OVC014 22/19 A2991 40 87 900 180/11 RMK AO2 T02170194
53915KARA ARA20161217031511512/17/16 03:15:31  5-MIN KARA 170915Z AUTO 18012KT 8SM BKN006 OVC050 21/19 A2990 40 90 800 180/12 RMK AO2 T02110194
53915KARA ARA20161217032012212/17/16 03:20:31  5-MIN KARA 170920Z AUTO 18011KT 8SM BKN006 BKN017 OVC050 22/19 A2990 40 87 900 180/11 RMK AO2 T02170194
53915KARA ARA20161217032512212/17/16 03:25:31  5-MIN KARA 170925Z AUTO 18010KT 8SM BKN006 BKN040 OVC050 21/19 A2991 40 90 800 180/10 RMK AO2 T02110194
53915KARA ARA20161217033011512/17/16 03:30:31  5-MIN KARA 170930Z AUTO 18009KT 8SM BKN006 BKN040 21/19 A2991 40 90 800 180/09 RMK AO2 T02110194
53915KARA ARA20161217033511512/17/16 03:35:31  5-MIN KARA 170935Z AUTO 18010KT 8SM BKN006 OVC015 21/19 A2991 40 90 800 180/10 RMK AO2 T02110194
53915KARA ARA20161217034011512/17/16 03:40:31  5-MIN KARA 170940Z AUTO 18010KT 8SM BKN006 OVC015 22/19 A2991 40 87 900 180/10 RMK AO2 T02170194
53915KARA ARA20161217034510812/17/16 03:45:31  5-MIN KARA 170945Z AUTO 18011KT 8SM OVC006 21/19 A2991 40 90 800 180/11 RMK AO2 T02110194
53915KARA ARA20161217035011512/17/16 03:50:31  5-MIN KARA 170950Z AUTO 18011KT 8SM OVC006 21/19 A2991 40 90 800 180/11 RMK AO2 SLP126 T02110194
53915KARA ARA20161217035512212/17/16 03:55:31  5-MIN KARA 170955Z AUTO 18010KT 8SM BKN006 BKN021 OVC034 21/19 A2991 40 90 800 180/10 RMK AO2 T02110194
53915KARA ARA20161217040012212/17/16 04:00:31  5-MIN KARA 171000Z AUTO 18010KT 8SM BKN006 BKN015 OVC033 22/19 A2991 40 87 900 180/10 RMK AO2 T02170194
53915KARA ARA20161217040512212/17/16 04:05:31  5-MIN KARA 171005Z AUTO 18009KT 8SM SCT006 BKN011 OVC033 22/20 A2991 40 90 900 180/09 RMK AO2 T02170200
53915KARA ARA20161217041012212/17/16 04:10:31  5-MIN KARA 171010Z AUTO 18010KT 8SM SCT006 BKN011 OVC016 22/19 A2991 40 87 900 180/10 RMK AO2 T02170194
53915KARA ARA20161217041512212/17/16 04:15:31  5-MIN KARA 171015Z AUTO 18011KT 8SM SCT006 BKN012 OVC019 22/19 A2991 40 87 900 180/11 RMK AO2 T02170194
53915KARA ARA20161217042013412/17/16 04:20:31  5-MIN KARA 171020Z AUTO 18010KT 8SM SCT006 BKN010 OVC016 22/19 A2991 40 87 900 180/10 RMK AO2 CIG 009V013 T02170194
53915KARA ARA20161217042512212/17/16 04:25:31  5-MIN KARA 171025Z AUTO 18011KT 8SM SCT006 BKN010 OVC016 22/19 A2991 30 87 900 180/11 RMK AO2 T02170194
53915KARA ARA20161217043012812/17/16 04:30:31  5-MIN KARA 171030Z AUTO 19010G18KT 8SM SCT006 BKN010 OVC021 22/19 A2991 30 87 900 180/10G18 RMK AO2 T02170194
53915KARA ARA20161217043512812/17/16 04:35:31  5-MIN KARA 171035Z AUTO 18010G18KT 9SM FEW006 BKN010 OVC040 22/19 A2991 30 87 900 180/10G18 RMK AO2 T02170194
53915KARA ARA20161217044012212/17/16 04:40:31  5-MIN KARA 171040Z AUTO 18010KT 9SM FEW006 BKN018 OVC040 22/19 A2992 30 87 900 180/10 RMK AO2 T02170194
53915KARA ARA20161217044512212/17/16 04:45:31  5-MIN KARA 171045Z AUTO 18011KT 9SM FEW006 BKN016 OVC021 22/19 A2991 30 87 900 180/11 RMK AO2 T02170194
53915KARA ARA20161217045012912/17/16 04:50:31  5-MIN KARA 171050Z AUTO 19009KT 9SM SCT010 BKN019 OVC039 22/19 A2991 30 87 900 190/09 RMK AO2 SLP129 T02170194
53915KARA ARA20161217045512212/17/16 04:55:31  5-MIN KARA 171055Z AUTO 18010KT 9SM FEW010 BKN022 OVC042 22/19 A2991 30 87 900 180/10 RMK AO2 T02170194
53915KARA ARA20161217050012212/17/16 05:00:31  5-MIN KARA 171100Z AUTO 18010KT 9SM FEW010 BKN018 OVC044 22/19 A2992 30 87 900 180/10 RMK AO2 T02170194
53915KARA ARA20161217050512212/17/16 05:05:31  5-MIN KARA 171105Z AUTO 17009KT 9SM FEW010 BKN018 OVC044 22/19 A2991 30 87 900 170/09 RMK AO2 T02170194
53915KARA ARA20161217051012212/17/16 05:10:31  5-MIN KARA 171110Z AUTO 18009KT 8SM FEW010 BKN018 OVC046 21/19 A2992 30 90 800 180/09 RMK AO2 T02110194
53915KARA ARA20161217051512212/17/16 05:15:31  5-MIN KARA 171115Z AUTO 17009KT 8SM FEW008 SCT019 OVC045 21/19 A2991 30 90 800 170/09 RMK AO2 T02110194
53915KARA ARA20161217052012212/17/16 05:20:31  5-MIN KARA 171120Z AUTO 17009KT 7SM FEW008 FEW017 BKN045 21/19 A2991 30 90 800 170/09 RMK AO2 T02110194
53915KARA ARA20161217052512212/17/16 05:25:31  5-MIN KARA 171125Z AUTO 18009KT 8SM FEW008 FEW017 BKN045 21/19 A2992 30 90 800 180/09 RMK AO2 T02110194
53915KARA ARA20161217053012212/17/16 05:30:31  5-MIN KARA 171130Z AUTO 17008KT 7SM FEW017 SCT031 BKN045 21/19 A2992 30 90 800 170/08 RMK AO2 T02110194
53915KARA ARA20161217053512212/17/16 05:35:31  5-MIN KARA 171135Z AUTO 18009KT 7SM FEW011 SCT021 BKN035 21/19 A2992 30 90 800 180/09 RMK AO2 T02110194
53915KARA ARA20161217054011712/17/16 05:40:31  5-MIN KARA 171140Z 18010KT 7SM FEW013 SCT021 BKN045 21/19 A2992 30 90 800 180/10 RMK AO2 T02110194
53915KARA ARA20161217054511712/17/16 05:45:31  5-MIN KARA 171145Z 18009KT 7SM FEW010 SCT019 BKN038 21/19 A2992 30 90 800 180/09 RMK AO2 T02110194
53915KARA ARA20161217055014212/17/16 05:50:31  5-MIN KARA 171150Z 18009KT 7SM FEW005 SCT019 BKN038 21/19 A2992 30 90 800 180/09 RMK AO2 SLP130 T02110194 10217 20211 56009
53915KARA ARA20161217055511712/17/16 05:55:31  5-MIN KARA 171155Z 18008KT 7SM FEW005 SCT012 BKN034 21/19 A2992 30 90 800 180/08 RMK AO2 T02110194
53915KARA ARA20161217060011712/17/16 06:00:31  5-MIN KARA 171200Z 17009KT 7SM FEW005 SCT018 OVC036 21/19 A2992 30 90 800 170/09 RMK AO2 T02110194
53915KARA ARA20161217060511712/17/16 06:05:31  5-MIN KARA 171205Z 17009KT 7SM FEW005 SCT018 OVC038 21/19 A2991 30 90 800 170/09 RMK AO2 T02110194
53915KARA ARA20161217061012012/17/16 06:10:31  5-MIN KARA 171210Z 17009KT 6SM BR SCT005 SCT017 OVC038 21/19 A2991 40 90 800 170/09 RMK AO2 T02110194
53915KARA ARA20161217061511712/17/16 06:15:31  5-MIN KARA 171215Z 17010KT 7SM FEW005 BKN035 BKN043 21/19 A2991 30 90 800 170/10 RMK AO2 T02110194
53915KARA ARA20161217062011712/17/16 06:20:31  5-MIN KARA 171220Z 17010KT 7SM FEW005 SCT035 BKN043 21/19 A2991 30 90 800 170/10 RMK AO2 T02110194
53915KARA ARA20161217062511012/17/16 06:25:31  5-MIN KARA 171225Z 17009KT 7SM FEW005 OVC043 21/19 A2991 30 90 800 170/09 RMK AO2 T02110194
53915KARA ARA20161217063011712/17/16 06:30:31  5-MIN KARA 171230Z 18010KT 7SM FEW005 FEW037 BKN043 21/19 A2991 30 90 800 180/10 RMK AO2 T02110194
53915KARA ARA20161217063511012/17/16 06:35:31  5-MIN KARA 171235Z 18009KT 7SM FEW005 BKN044 21/19 A2991 30 90 800 180/09 RMK AO2 T02110194
53915KARA ARA20161217064011012/17/16 06:40:31  5-MIN KARA 171240Z 17009KT 7SM FEW005 BKN044 21/19 A2991 30 90 800 170/09 RMK AO2 T02110194
53915KARA ARA20161217064511012/17/16 06:45:31  5-MIN KARA 171245Z 18008KT 7SM FEW005 BKN044 21/19 A2991 30 90 800 180/08 RMK AO2 T02110194
53915KARA ARA20161217065011712/17/16 06:50:31  5-MIN KARA 171250Z 18008KT 7SM FEW005 BKN044 21/20 A2991 30 93 800 180/08 RMK AO2 SLP129 T02110200
53915KARA ARA20161217065511712/17/16 06:55:31  5-MIN KARA 171255Z 18009KT 7SM FEW005 FEW035 OVC044 22/20 A2992 30 90 900 180/09 RMK AO2 T02170200
53915KARA ARA20161217070011712/17/16 07:00:31  5-MIN KARA 171300Z 18010KT 7SM FEW006 FEW035 OVC045 22/20 A2991 30 90 900 180/10 RMK AO2 T02170200
53915KARA ARA20161217070511012/17/16 07:05:31  5-MIN KARA 171305Z 17010KT 7SM FEW034 OVC045 22/20 A2991 30 90 900 170/10 RMK AO2 T02170200
53915KARA ARA20161217071011312/17/16 07:10:31  5-MIN KARA 171310Z 17010KT 6SM BR FEW034 BKN046 22/20 A2991 30 90 900 170/10 RMK AO2 T02170200
53915KARA ARA20161217071511312/17/16 07:15:31  5-MIN KARA 171315Z 17010KT 6SM BR FEW034 BKN046 22/20 A2991 30 90 900 170/10 RMK AO2 T02170200
53915KARA ARA20161217072011312/17/16 07:20:31  5-MIN KARA 171320Z 17012KT 6SM BR FEW034 OVC046 22/20 A2991 30 90 900 170/12 RMK AO2 T02170200
53915KARA ARA20161217072510312/17/16 07:25:31  5-MIN KARA 171325Z 17011KT 7SM BKN046 22/20 A2991 30 90 900 170/11 RMK AO2 T02170200
53915KARA ARA20161217073010312/17/16 07:30:31  5-MIN KARA 171330Z 18011KT 7SM BKN045 22/20 A2991 30 90 900 170/11 RMK AO2 T02170200
53915KARA ARA20161217073510312/17/16 07:35:31  5-MIN KARA 171335Z 18013KT 7SM BKN045 22/20 A2992 30 90 900 180/13 RMK AO2 T02170200
53915KARA ARA20161217074010312/17/16 07:40:31  5-MIN KARA 171340Z 18010KT 8SM BKN045 22/20 A2992 30 90 900 180/10 RMK AO2 T02170200
53915KARA ARA20161217074510312/17/16 07:45:31  5-MIN KARA 171345Z 18012KT 8SM BKN045 22/20 A2992 30 87 900 180/12 RMK AO2 T02220200
53915KARA ARA20161217075011012/17/16 07:50:31  5-MIN KARA 171350Z 19009KT 9SM OVC045 22/20 A2993 20 87 900 180/09 RMK AO2 SLP133 T02220200
53915KARA ARA20161217075510312/17/16 07:55:31  5-MIN KARA 171355Z 19010KT 9SM OVC045 22/20 A2993 20 87 900 190/10 RMK AO2 T02220200
53915KARA ARA20161217080010312/17/16 08:00:31  5-MIN KARA 171400Z 19009KT 9SM OVC045 22/20 A2993 20 87 900 190/09 RMK AO2 T02220200
53915KARA ARA20161217080510312/17/16 08:05:31  5-MIN KARA 171405Z 18010KT 9SM OVC045 22/20 A2993 20 87 900 180/10 RMK AO2 T02220200
53915KARA ARA20161217081010312/17/16 08:10:31  5-MIN KARA 171410Z 18009KT 9SM OVC045 22/20 A2993 20 87 900 180/09 RMK AO2 T02220200
53915KARA ARA20161217081510312/17/16 08:15:31  5-MIN KARA 171415Z 17010KT 9SM OVC045 22/20 A2993 20 87 900 170/10 RMK AO2 T02220200
53915KARA ARA20161217082010312/17/16 08:20:31  5-MIN KARA 171420Z 17012KT 9SM OVC045 22/20 A2993 20 87 900 170/12 RMK AO2 T02220200
53915KARA ARA20161217082510312/17/16 08:25:31  5-MIN KARA 171425Z 18011KT 9SM OVC045 22/20 A2993 20 87 900 170/11 RMK AO2 T02220200
53915KARA ARA20161217083010412/17/16 08:30:31  5-MIN KARA 171430Z 17011KT 9SM OVC045 23/20 A2993 20 84 1000 170/11 RMK AO2 T02280200
53915KARA ARA20161217083510412/17/16 08:35:31  5-MIN KARA 171435Z 17011KT 9SM OVC045 23/20 A2993 20 84 1000 170/11 RMK AO2 T02280200
53915KARA ARA20161217084010412/17/16 08:40:31  5-MIN KARA 171440Z 18012KT 9SM OVC044 23/20 A2993 20 84 1000 180/12 RMK AO2 T02280200
53915KARA ARA20161217084510512/17/16 08:45:31  5-MIN KARA 171445Z 17012KT 10SM OVC044 23/20 A2993 20 84 1000 170/12 RMK AO2 T02280200
53915KARA ARA20161217085011812/17/16 08:50:31  5-MIN KARA 171450Z 18012KT 10SM OVC042 23/21 A2993 20 87 1000 180/12 RMK AO2 SLP134 T02280206 55002
53915KARA ARA20161217085510512/17/16 08:55:31  5-MIN KARA 171455Z 18011KT 10SM OVC042 23/20 A2994 10 81 1000 180/11 RMK AO2 T02330200
53915KARA ARA20161217090010512/17/16 09:00:31  5-MIN KARA 171500Z 18014KT 10SM OVC042 23/20 A2994 10 81 1000 170/14 RMK AO2 T02330200
53915KARA ARA20161217090510512/17/16 09:05:31  5-MIN KARA 171505Z 18014KT 10SM OVC042 23/21 A2994 10 84 1000 180/14 RMK AO2 T02330206
53915KARA ARA20161217091011212/17/16 09:10:31  5-MIN KARA 171510Z 18013KT 10SM FEW034 OVC042 23/20 A2994 10 81 1000 180/13 RMK AO2 T02330200
53915KARA ARA20161217091510512/17/16 09:15:31  5-MIN KARA 171515Z 18013KT 10SM OVC040 23/21 A2994 10 84 1000 180/13 RMK AO2 T02330206
53915KARA ARA20161217092010512/17/16 09:20:31  5-MIN KARA 171520Z 18014KT 10SM OVC040 23/21 A2994 10 84 1000 180/14 RMK AO2 T02330206
53915KARA ARA20161217092511112/17/16 09:25:31  5-MIN KARA 171525Z 18013G20KT 10SM OVC040 23/21 A2994 10 84 1000 170/13G20 RMK AO2 T02330206
53915KARA ARA20161217093011112/17/16 09:30:31  5-MIN KARA 171530Z 18013G20KT 10SM OVC040 24/21 A2993 10 81 1100 180/13G20 RMK AO2 T02390206
53915KARA ARA20161217093511112/17/16 09:35:31  5-MIN KARA 171535Z 18013G23KT 10SM OVC041 24/21 A2993 10 81 1100 180/13G23 RMK AO2 T02390206
53915KARA ARA20161217094011112/17/16 09:40:31  5-MIN KARA 171540Z 18014G23KT 10SM OVC041 24/20 A2994 10 78 1100 180/14G23 RMK AO2 T02390200
53915KARA ARA20161217094511112/17/16 09:45:31  5-MIN KARA 171545Z 18013G21KT 10SM OVC041 24/21 A2994 10 81 1100 180/13G21 RMK AO2 T02390206
53915KARA ARA20161217095011812/17/16 09:50:31  5-MIN KARA 171550Z 17015G21KT 10SM OVC041 24/21 A2994 10 78 1100 170/15G21 RMK AO2 SLP137 T02440206
53915KARA ARA20161217095511112/17/16 09:55:31  5-MIN KARA 171555Z 18013G20KT 10SM OVC041 24/21 A2994 10 78 1100 180/13G20 RMK AO2 T02440206
53915KARA ARA20161217100011112/17/16 10:00:31  5-MIN KARA 171600Z 18015G21KT 10SM OVC040 24/21 A2994 10 78 1200 180/15G21 RMK AO2 T02440206
53915KARA ARA20161217100511112/17/16 10:05:31  5-MIN KARA 171605Z 18018G24KT 10SM OVC040 24/21 A2994 10 78 1200 180/18G24 RMK AO2 T02440206
53915KARA ARA20161217101011112/17/16 10:10:31  5-MIN KARA 171610Z 18015G24KT 10SM OVC040 25/21 A2993 10 76 1200 180/15G24 RMK AO2 T02500206
53915KARA ARA20161217101510512/17/16 10:15:31  5-MIN KARA 171615Z 18013KT 10SM OVC040 24/21 A2993 20 78 1200 180/13 RMK AO2 T02440206
53915KARA ARA20161217102011112/17/16 10:20:31  5-MIN KARA 171620Z 18015G20KT 10SM BKN039 24/21 A2993 10 78 1200 180/15G20 RMK AO2 T02440206
53915KARA ARA20161217102511112/17/16 10:25:31  5-MIN KARA 171625Z 18015G20KT 10SM BKN039 24/21 A2993 10 78 1200 180/15G20 RMK AO2 T02440206
53915KARA ARA20161217103010512/17/16 10:30:31  5-MIN KARA 171630Z 18016KT 10SM BKN039 24/20 A2993 10 76 1200 180/16 RMK AO2 T02440200
53915KARA ARA20161217103511112/17/16 10:35:31  5-MIN KARA 171635Z 18014G21KT 10SM BKN039 24/20 A2993 10 76 1200 180/14G21 RMK AO2 T02440200
53915KARA ARA20161217104011812/17/16 10:40:31  5-MIN KARA 171640Z 18010G20KT 10SM FEW025 BKN039 25/21 A2993 20 76 1200 180/10G20 RMK AO2 T02500206
53915KARA ARA20161217104511812/17/16 10:45:31  5-MIN KARA 171645Z 18014G20KT 10SM FEW025 BKN038 24/20 A2993 20 76 1200 180/14G20 RMK AO2 T02440200
53915KARA ARA20161217105013212/17/16 10:50:31  5-MIN KARA 171650Z 18012G20KT 10SM FEW024 FEW030 BKN038 24/20 A2993 20 76 1200 180/12G20 RMK AO2 SLP134 T02440200
53915KARA ARA20161217105511812/17/16 10:55:31  5-MIN KARA 171655Z 17016G20KT 10SM FEW026 BKN038 24/20 A2993 20 76 1200 170/16G20 RMK AO2 T02440200
53915KARA ARA20161217110011812/17/16 11:00:31  5-MIN KARA 171700Z 17012G20KT 10SM FEW024 BKN036 24/20 A2993 20 76 1200 170/12G20 RMK AO2 T02440200
53915KARA ARA20161217110512512/17/16 11:05:31  5-MIN KARA 171705Z 18011G19KT 10SM FEW012 FEW024 BKN034 25/20 A2992 20 73 1200 180/11G19 RMK AO2 T02500200
53915KARA ARA20161217111012512/17/16 11:10:31  5-MIN KARA 171710Z 19014G20KT 10SM FEW015 BKN032 BKN040 25/20 A2992 20 73 1200 190/14G20 RMK AO2 T02500200
53915KARA ARA20161217111512512/17/16 11:15:31  5-MIN KARA 171715Z 18013G22KT 10SM SCT015 SCT019 OVC032 25/20 A2992 20 73 1200 180/13G22 RMK AO2 T02500200
53915KARA ARA20161217112011812/17/16 11:20:31  5-MIN KARA 171720Z 18014G22KT 10SM BKN015 OVC032 25/21 A2992 20 76 1200 180/14G22 RMK AO2 T02500206
53915KARA ARA20161217112512512/17/16 11:25:31  5-MIN KARA 171725Z 19014G20KT 10SM BKN015 BKN027 OVC032 25/21 A2992 30 76 1200 190/14G20 RMK AO2 T02500206
53915KARA ARA20161217113012512/17/16 11:30:31  5-MIN KARA 171730Z 19016G22KT 10SM BKN015 BKN026 OVC032 25/20 A2992 30 73 1200 190/16G22 RMK AO2 T02500200
53915KARA ARA20161217113512512/17/16 11:35:31  5-MIN KARA 171735Z 18014G22KT 10SM BKN015 BKN021 OVC036 25/21 A2991 30 76 1200 180/14G22 RMK AO2 T02500206
53915KARA ARA20161217114012512/17/16 11:40:31  5-MIN KARA 171740Z 18015G22KT 10SM BKN015 BKN021 OVC036 26/21 A2991 30 73 1300 180/15G22 RMK AO2 T02560206
53915KARA ARA20161217114512512/17/16 11:45:31  5-MIN KARA 171745Z 19017G22KT 10SM BKN015 BKN023 OVC036 26/20 A2990 40 71 1300 190/17G22 RMK AO2 T02560200
53915KARA ARA20161217115015012/17/16 11:50:31  5-MIN KARA 171750Z 18015G21KT 10SM SCT017 BKN023 OVC036 26/21 A2991 40 71 1400 180/15G21 RMK AO2 SLP126 T02610206 10261 20211 53006
53915KARA ARA20161217115512512/17/16 11:55:31  5-MIN KARA 171755Z 19016G21KT 10SM SCT017 BKN023 OVC036 26/20 A2990 40 71 1300 180/16G21 RMK AO2 T02560200
53915KARA ARA20161217120012512/17/16 12:00:31  5-MIN KARA 171800Z 18014G21KT 10SM SCT017 BKN033 OVC040 26/20 A2990 40 68 1400 180/14G21 RMK AO2 T02610200
53915KARA ARA20161217120512512/17/16 12:05:31  5-MIN KARA 171805Z 18017G22KT 10SM SCT015 BKN028 OVC035 26/21 A2990 50 71 1400 180/17G22 RMK AO2 T02610206
53915KARA ARA20161217121012512/17/16 12:10:31  5-MIN KARA 171810Z 18014G22KT 10SM SCT015 BKN033 OVC041 26/21 A2989 50 73 1300 180/14G22 RMK AO2 T02560206
53915KARA ARA20161217121512512/17/16 12:15:31  5-MIN KARA 171815Z 18016G23KT 10SM SCT015 BKN033 OVC041 26/21 A2990 50 73 1300 180/16G23 RMK AO2 T02560206
53915KARA ARA20161217122012512/17/16 12:20:31  5-MIN KARA 171820Z 19014G23KT 10SM FEW015 SCT020 BKN036 26/21 A2990 50 73 1300 190/14G23 RMK AO2 T02560206
53915KARA ARA20161217122512512/17/16 12:25:31  5-MIN KARA 171825Z 18015G22KT 10SM FEW015 SCT020 BKN034 26/20 A2989 50 71 1300 180/15G22 RMK AO2 T02560200
53915KARA ARA20161217123012512/17/16 12:30:31  5-MIN KARA 171830Z 18013G22KT 10SM FEW015 SCT020 BKN034 26/21 A2989 50 73 1300 180/13G22 RMK AO2 T02560206
53915KARA ARA20161217123511912/17/16 12:35:31  5-MIN KARA 171835Z 18014KT 10SM SCT015 SCT020 BKN043 26/21 A2989 60 73 1300 170/14 RMK AO2 T02560206
53915KARA ARA20161217124012512/17/16 12:40:31  5-MIN KARA 171840Z 18014G21KT 10SM SCT015 SCT021 BKN043 26/20 A2988 60 71 1300 170/14G21 RMK AO2 T02560200
53915KARA ARA20161217124512512/17/16 12:45:31  5-MIN KARA 171845Z 17013G21KT 10SM SCT015 SCT022 BKN043 26/20 A2988 60 71 1300 170/13G21 RMK AO2 T02560200
53915KARA ARA20161217125013212/17/16 12:50:31  5-MIN KARA 171850Z 17015G21KT 10SM SCT015 SCT025 BKN038 26/21 A2988 70 73 1300 170/15G21 RMK AO2 SLP116 T02560206
53915KARA ARA20161217125512512/17/16 12:55:31  5-MIN KARA 171855Z 17018G23KT 10SM SCT015 SCT027 BKN034 26/21 A2987 70 71 1400 170/18G23 RMK AO2 T02610206
53915KARA ARA20161217130012512/17/16 13:00:31  5-MIN KARA 171900Z 18015G23KT 10SM SCT017 BKN025 BKN031 26/20 A2988 70 71 1300 180/15G23 RMK AO2 T02560200
53915KARA ARA20161217130512512/17/16 13:05:31  5-MIN KARA 171905Z 19016G22KT 10SM BKN016 BKN025 BKN042 26/20 A2987 70 71 1300 190/16G22 RMK AO2 T02560200
53915KARA ARA20161217131012512/17/16 13:10:31  5-MIN KARA 171910Z 17015G22KT 10SM SCT016 BKN030 BKN042 26/21 A2987 70 71 1400 170/15G22 RMK AO2 T02610206
53915KARA ARA20161217131512512/17/16 13:15:31  5-MIN KARA 171915Z 18014G20KT 10SM SCT016 BKN023 BKN029 26/20 A2986 80 71 1400 180/14G20 RMK AO2 T02560200
53915KARA ARA20161217231511112/17/16 23:15:31  5-MIN KARA 180515Z AUTO 18008KT 6SM BR OVC026 22/21 A2992 20 90 900 180/08 RMK AO2 T02220206
53915KARA ARA20161217232010812/17/16 23:20:31  5-MIN KARA 180520Z AUTO 17007KT 7SM OVC026 22/21 A2992 20 90 900 170/07 RMK AO2 T02220206
53915KARA ARA20161217232511812/17/16 23:25:31  5-MIN KARA 180525Z AUTO 17008KT 6SM BR BKN025 OVC030 22/21 A2992 20 90 900 170/08 RMK AO2 T02220206
53915KARA ARA20161217233011112/17/16 23:30:31  5-MIN KARA 180530Z AUTO 17008KT 6SM BR OVC027 22/20 A2992 20 87 900 170/08 RMK AO2 T02220200
53915KARA ARA20161217233510812/17/16 23:35:31  5-MIN KARA 180535Z AUTO 17010KT 7SM OVC027 22/20 A2992 30 87 900 170/10 RMK AO2 T02220200
53915KARA ARA20161217234010812/17/16 23:40:31  5-MIN KARA 180540Z AUTO 18008KT 7SM OVC027 22/20 A2992 30 87 900 180/08 RMK AO2 T02220200
53915KARA ARA20161217234511512/17/16 23:45:31  5-MIN KARA 180545Z AUTO 18009KT 7SM BKN025 OVC030 22/20 A2992 20 87 900 180/09 RMK AO2 T02220200
53915KARA ARA20161217235015012/17/16 23:50:31  5-MIN KARA 180550Z AUTO 18008KT 7SM BKN025 OVC032 22/20 A2993 20 87 900 180/08 RMK AO2 SLP133 T02220200 10228 20222 402610211 51011
53915KARA ARA20161217235511512/17/16 23:55:31  5-MIN KARA 180555Z AUTO 18008KT 7SM SCT025 OVC034 22/20 A2993 20 87 900 180/08 RMK AO2 T02220200
53915KARA ARA20161218000011512/18/16 00:00:31  5-MIN KARA 180600Z AUTO 18008KT 8SM FEW025 OVC034 22/20 A2993 20 87 900 180/08 RMK AO2 T02220200
53915KARA ARA20161218000511512/18/16 00:05:31  5-MIN KARA 180605Z AUTO 18007KT 8SM FEW025 OVC034 22/20 A2993 20 87 900 180/07 RMK AO2 T02220200
53915KARA ARA20161218001011512/18/16 00:10:31  5-MIN KARA 180610Z AUTO 18009KT 7SM FEW025 OVC034 22/20 A2992 20 87 900 180/09 RMK AO2 T02220200
53915KARA ARA20161218001510812/18/16 00:15:31  5-MIN KARA 180615Z AUTO 18009KT 7SM OVC034 22/20 A2992 30 87 900 180/09 RMK AO2 T02220200
53915KARA ARA20161218002010812/18/16 00:20:31  5-MIN KARA 180620Z AUTO 18009KT 7SM OVC034 22/20 A2992 20 87 900 180/09 RMK AO2 T02220200
53915KARA ARA20161218002510812/18/16 00:25:31  5-MIN KARA 180625Z AUTO 18007KT 7SM OVC035 22/20 A2992 20 87 900 180/07 RMK AO2 T02220200
53915KARA ARA20161218003010812/18/16 00:30:31  5-MIN KARA 180630Z AUTO 18007KT 7SM OVC035 22/20 A2992 20 87 900 180/07 RMK AO2 T02220200
53915KARA ARA20161218003510812/18/16 00:35:31  5-MIN KARA 180635Z AUTO 18008KT 7SM OVC035 22/20 A2992 20 87 900 180/08 RMK AO2 T02220200
53915KARA ARA20161218004010812/18/16 00:40:31  5-MIN KARA 180640Z AUTO 18008KT 7SM OVC035 22/20 A2992 20 87 900 180/08 RMK AO2 T02220200
53915KARA ARA20161218004510812/18/16 00:45:31  5-MIN KARA 180645Z AUTO 18008KT 7SM OVC035 22/20 A2992 30 90 900 180/08 RMK AO2 T02170200
53915KARA ARA20161218005011512/18/16 00:50:31  5-MIN KARA 180650Z AUTO 19006KT 7SM OVC035 22/20 A2992 20 90 800 190/06 RMK AO2 SLP132 T02170200
53915KARA ARA20161218005510812/18/16 00:55:31  5-MIN KARA 180655Z AUTO 19006KT 7SM OVC035 22/20 A2992 20 90 800 190/06 RMK AO2 T02170200
53915KARA ARA20161218010010812/18/16 01:00:31  5-MIN KARA 180700Z AUTO 19007KT 7SM OVC035 22/20 A2992 30 90 800 190/07 RMK AO2 T02170200
53915KARA ARA20161218010510812/18/16 01:05:31  5-MIN KARA 180705Z AUTO 18009KT 7SM OVC035 22/20 A2992 30 90 900 180/09 RMK AO2 T02170200
53915KARA ARA20161218011010812/18/16 01:10:31  5-MIN KARA 180710Z AUTO 18007KT 7SM OVC035 22/20 A2992 20 90 800 180/07 RMK AO2 T02170200
53915KARA ARA20161218011510812/18/16 01:15:31  5-MIN KARA 180715Z AUTO 19007KT 7SM OVC035 22/20 A2993 20 90 800 180/07 RMK AO2 T02170200
53915KARA ARA20161218012010812/18/16 01:20:31  5-MIN KARA 180720Z AUTO 19005KT 7SM OVC035 22/20 A2993 20 90 800 190/05 RMK AO2 T02170200
53915KARA ARA20161218012510812/18/16 01:25:31  5-MIN KARA 180725Z AUTO 19005KT 7SM OVC035 22/20 A2993 10 90 800 190/05 RMK AO2 T02170200
53915KARA ARA20161218013010812/18/16 01:30:31  5-MIN KARA 180730Z AUTO 18007KT 7SM OVC035 22/20 A2993 10 90 800 180/07 RMK AO2 T02170200
53915KARA ARA20161218013511112/18/16 01:35:31  5-MIN KARA 180735Z AUTO 18007KT 6SM BR OVC035 22/20 A2993 10 90 800 180/07 RMK AO2 T02170200
53915KARA ARA20161218014011112/18/16 01:40:31  5-MIN KARA 180740Z AUTO 18006KT 6SM BR OVC035 22/19 A2994 10 87 800 180/06 RMK AO2 T02170194
53915KARA ARA20161218014511812/18/16 01:45:31  5-MIN KARA 180745Z AUTO 18006KT 6SM BR BKN030 OVC036 22/19 A2994 10 87 800 180/06 RMK AO2 T02170194
53915KARA ARA20161218015012512/18/16 01:50:31  5-MIN KARA 180750Z AUTO 18006KT 6SM BR BKN030 OVC036 21/19 A2994 10 90 800 180/06 RMK AO2 SLP137 T02110194
53915KARA ARA20161218015511812/18/16 01:55:31  5-MIN KARA 180755Z AUTO 18006KT 6SM BR BKN030 OVC036 21/19 A2994 10 90 800 180/06 RMK AO2 T02110194
53915KARA ARA20161218020011112/18/16 02:00:31  5-MIN KARA 180800Z AUTO 18005KT 6SM BR OVC028 21/19 A2994 10 90 800 180/05 RMK AO2 T02110194
53915KARA ARA20161218020511012/18/16 02:05:31  5-MIN KARA 180805Z AUTO 18005KT 6SM BR OVC028 21/19 A2994 0 90 800 180/05 RMK AO2 T02110194
53915KARA ARA20161218021011012/18/16 02:10:31  5-MIN KARA 180810Z AUTO 17006KT 6SM BR OVC028 21/19 A2994 0 90 800 170/06 RMK AO2 T02110194
53915KARA ARA20161218021511712/18/16 02:15:31  5-MIN KARA 180815Z AUTO 17005KT 6SM BR BKN028 OVC090 21/19 A2995 0 90 800 170/05 RMK AO2 T02110194
53915KARA ARA20161218022011712/18/16 02:20:31  5-MIN KARA 180820Z AUTO 17006KT 6SM BR BKN027 BKN090 21/19 A2995 0 90 800 170/06 RMK AO2 T02110194
53915KARA ARA20161218022511712/18/16 02:25:31  5-MIN KARA 180825Z AUTO 16007KT 5SM BR SCT027 BKN090 21/19 A2995 0 90 800 160/07 RMK AO2 T02110194
53915KARA ARA20161218023011712/18/16 02:30:31  5-MIN KARA 180830Z AUTO 17006KT 5SM BR SCT027 BKN090 21/19 A2995 0 90 800 170/06 RMK AO2 T02110194
53915KARA ARA20161218023512412/18/16 02:35:31  5-MIN KARA 180835Z AUTO 17007KT 5SM BR FEW027 SCT070 BKN090 21/19 A2995 0 90 800 170/07 RMK AO2 T02110194
53915KARA ARA20161218024011712/18/16 02:40:31  5-MIN KARA 180840Z AUTO 17006KT 5SM BR SCT065 BKN090 21/19 A2995 0 90 800 170/06 RMK AO2 T02110194
53915KARA ARA20161218024511712/18/16 02:45:31  5-MIN KARA 180845Z AUTO 18006KT 5SM BR BKN070 BKN090 21/19 A2995 0 90 800 170/06 RMK AO2 T02110194
53915KARA ARA20161218025013012/18/16 02:50:31  5-MIN KARA 180850Z AUTO 18006KT 5SM BR BKN070 BKN090 21/19 A2995 0 90 800 180/06 RMK AO2 SLP141 T02110194 53014
53915KARA ARA20161218025511012/18/16 02:55:31  5-MIN KARA 180855Z AUTO 18006KT 5SM BR BKN065 21/19 A2995 0 90 800 180/06 RMK AO2 T02110194
53915KARA ARA20161218030011012/18/16 03:00:31  5-MIN KARA 180900Z AUTO 18005KT 5SM BR OVC065 21/19 A2995 0 90 700 180/05 RMK AO2 T02110194
53915KARA ARA20161218030511012/18/16 03:05:31  5-MIN KARA 180905Z AUTO 19007KT 6SM BR OVC060 21/19 A2995 0 90 700 190/07 RMK AO2 T02110194
53915KARA ARA20161218031011012/18/16 03:10:31  5-MIN KARA 180910Z AUTO 19006KT 6SM BR OVC060 21/19 A2996 0 90 700 190/06 RMK AO2 T02110194
53915KARA ARA20161218031511712/18/16 03:15:31  5-MIN KARA 180915Z AUTO 20005KT 5SM BR BKN055 OVC070 21/19 A2996 0 90 700 200/05 RMK AO2 T02110194
53915KARA ARA20161218032011012/18/16 03:20:31  5-MIN KARA 180920Z AUTO 19005KT 5SM BR OVC055 21/19 A2996 0 90 700 190/05 RMK AO2 T02110194
53915KARA ARA20161218032511012/18/16 03:25:31  5-MIN KARA 180925Z AUTO 19004KT 5SM BR OVC055 21/19 A2996 0 90 700 190/04 RMK AO2 T02110194
53915KARA ARA20161218033011212/18/16 03:30:31  5-MIN KARA 180930Z AUTO 19004KT 5SM BR OVC055 21/19 A2996 -10 90 700 190/04 RMK AO2 T02110194
53915KARA ARA20161218033511912/18/16 03:35:31  5-MIN KARA 180935Z AUTO 20003KT 5SM BR FEW039 OVC055 21/19 A2996 -10 90 700 200/03 RMK AO2 T02110194
53915KARA ARA20161218034011612/18/16 03:40:31  5-MIN KARA 180940Z AUTO 6SM BR FEW006 SCT037 OVC055 20/18 A2998 -20 90 600 M /M RMK AO2 T02000183
53915KARA ARA20161218034517012/18/16 03:45:31  5-MIN KARA 180945Z AUTO 33025G33KT 8SM -RA SCT008 BKN037 OVC055 16/13 A2999 -30 83 100 330/25G33 RMK AO2 PK WND 33033/0945 RAB42 PRESRR P0000 T01560128
53915KARA ARA20161218035017012/18/16 03:50:31  5-MIN KARA 180950Z AUTO 34024G33KT 9SM -RA BKN008 BKN013 OVC055 14/12 A3000 -40 83 0 340/24G33 RMK AO2 PK WND 33033/0945 RAB42 CIG 005V011 PRESRR P0000
53915KARA ARA20161218035517212/18/16 03:55:31  5-MIN KARA 180955Z AUTO 34022G30KT 2 1/2SM +RA BR SCT008 BKN013 OVC055 13/11 A3001 -50 86 -200 340/22G30 RMK AO2 PK WND 33028/0955 PRESRR P0003 T01330111
53915KARA ARA20161218040017612/18/16 04:00:31  5-MIN KARA 181000Z AUTO 34024G30KT 2SM +RA BR SCT008 BKN013 OVC037 13/11 A3002 -60 89 -300 340/24G30 RMK AO2 PK WND 35030/1000 VIS 1V5 PRESRR P0003 T01280111
53915KARA ARA20161218040516812/18/16 04:05:31  5-MIN KARA 181005Z AUTO 35017G32KT 4SM +RA BR SCT008 BKN016 OVC021 12/11 A3003 -70 89 -300 350/17G32 RMK AO2 PK WND 35032/1001 PRESRR P0004 T01220106
53915KARA ARA20161218041016112/18/16 04:10:31  5-MIN KARA 181010Z AUTO 35020G32KT 3SM +RA BR SCT009 SCT014 OVC021 12/11 A3002 -60 89 -300 340/20G32 RMK AO2 PK WND 35032/1001 P0010 T01220106
53915KARA ARA20161218041516112/18/16 04:15:31  5-MIN KARA 181015Z AUTO 34018G31KT 3SM +RA BR SCT009 BKN014 OVC021 12/11 A3003 -70 89 -300 340/18G31 RMK AO2 PK WND 35032/1001 P0011 T01220106
53915KARA ARA20161218042015812/18/16 04:20:31  5-MIN KARA 181020Z AUTO 34015G24KT 7SM -RA BKN009 BKN018 OVC024 12/10 A3003 -70 86 -300 340/15G24 RMK AO2 PK WND 35032/1001 P0011 T01220100
53915KARA ARA20161218042514212/18/16 04:25:31  5-MIN KARA 181025Z AUTO 7SM -RA SCT009 BKN020 OVC026 12/10 A3004 -80 86 -300 M /M RMK AO2 PK WND 35032/1001 P0013 T01220100
53915KARA ARA20161218043016012/18/16 04:30:31  5-MIN KARA 181030Z AUTO 35016G23KT 6SM RA BR SCT009 BKN020 OVC026 12/10 A3004 -80 89 -400 350/16G23 RMK AO2 PK WND 35032/1001 P0013 T01170100
53915KARA ARA20161218043515912/18/16 04:35:31  5-MIN KARA 181035Z AUTO 35018G23KT 10SM -RA BKN009 BKN021 OVC026 12/09 A3004 -80 86 -400 350/18G23 RMK AO2 PK WND 35032/1001 P0013 T01170094
53915KARA ARA20161218044014612/18/16 04:40:31  5-MIN KARA 181040Z AUTO 35014KT 10SM -RA BKN011 OVC026 12/09 A3005 -90 86 -400 350/14 RMK AO2 PK WND 35032/1001 P0014 T01170094
53915KARA ARA20161218044514412/18/16 04:45:31  5-MIN KARA 181045Z AUTO 35017KT 9SM RA BKN011 OVC026 12/09 A3006 -90 86 -400 350/17 RMK AO2 PK WND 35032/1001 P0014 T01170094
53915KARA ARA20161218045015912/18/16 04:50:31  5-MIN KARA 181050Z AUTO 35016G23KT 10SM -RA BKN010 OVC026 12/09 A3005 -90 86 -400 350/16G23 RMK AO2 PK WND 35032/1001 SLP176 P0014 T01170094
53915KARA ARA20161218045512812/18/16 04:55:31  5-MIN KARA 181055Z AUTO 35017G23KT 10SM -RA OVC010 11/09 A3006 -100 89 -500 350/17G23 RMK AO2 P0000 T01110094
53915KARA ARA20161218050012812/18/16 05:00:31  5-MIN KARA 181100Z AUTO 36017G24KT 10SM -RA OVC010 11/09 A3006 -100 89 -500 360/17G24 RMK AO2 P0000 T01110094
53915KARA ARA20161218050513012/18/16 05:05:31  5-MIN KARA 181105Z AUTO 36016G23KT 10SM OVC010 11/09 A3007 -100 89 -500 350/16G23 RMK AO2 RAE05 P0000 T01110094
53915KARA ARA20161218051012412/18/16 05:10:31  5-MIN KARA 181110Z AUTO 36019KT 10SM OVC010 11/09 A3007 -110 89 -500 360/19 RMK AO2 RAE05 P0000 T01110094
53915KARA ARA20161218051512812/18/16 05:15:31  5-MIN KARA 181115Z AUTO 36018G24KT 10SM -RA OVC010 12/09 A3007 -110 83 -400 360/18G24 RMK AO2 P0000 T01170089
53915KARA ARA20161218052016512/18/16 05:20:31  5-MIN KARA 181120Z AUTO 36019G26KT 10SM -RA OVC010 11/09 A3008 -120 86 -500 360/19G26 RMK AO2 PK WND 36026/1119 CIG 008V014 PRESRR P0000 T01110089
53915KARA ARA20161218052515312/18/16 05:25:31  5-MIN KARA 181125Z AUTO 36023G29KT 10SM -RA OVC010 11/09 A3009 -120 86 -500 360/23G29 RMK AO2 PK WND 36029/1125 PRESRR P0000 T01110089
53915KARA ARA20161218053014612/18/16 05:30:31  5-MIN KARA 181130Z AUTO 01019G29KT 10SM -RA OVC012 11/08 A3009 -130 83 -500 010/19G29 RMK AO2 PK WND 36029/1125 P0000 T01110083
53915KARA ARA20161218053514512/18/16 05:35:31  5-MIN KARA 181135Z AUTO 36015G28KT 10SM RA OVC012 11/08 A3010 -130 83 -500 360/15G28 RMK AO2 PK WND 36029/1125 P0001 T01110083
53915KARA ARA20161218054014612/18/16 05:40:31  5-MIN KARA 181140Z AUTO 01018G27KT 10SM -RA OVC010 11/08 A3010 -130 83 -500 010/18G27 RMK AO2 PK WND 36029/1125 P0001 T01110083
53915KARA ARA20161218054514112/18/16 05:45:31  5-MIN KARA 181145Z 01021G28KT 10SM -RA OVC010 11/08 A3010 -130 86 -600 010/21G28 RMK AO2 PK WND 36029/1125 P0001 T01060083
53915KARA ARA20161218055017812/18/16 05:50:31  5-MIN KARA 181150Z 36025G32KT 10SM -RA OVC011 11/08 A3010 -140 83 -600 360/25G32 RMK AO2 PK WND 01032/1148 SLP193 P0001 60023 70023 T01060078 10222 20106 53008
53915KARA ARA20161218055514312/18/16 05:55:31  5-MIN KARA 181155Z 36027G32KT 4SM -RA BR OVC011 10/08 A3011 -140 86 -700 360/27G32 RMK AO2 PK WND 36031/1154 P0001 T01000078
53915KARA ARA20161218060014612/18/16 06:00:31  5-MIN KARA 181200Z 01022G31KT 3SM RA BKN011 OVC020 10/07 A3011 -150 83 -700 010/22G31 RMK AO2 PK WND 36031/1154 P0002 T01000072
53915KARA ARA20161218060515412/18/16 06:05:31  5-MIN KARA 181205Z 36026G35KT 6SM -RA BKN011 BKN019 OVC028 10/07 A3012 -150 83 -700 360/26G35 RMK AO2 PK WND 36035/1204 P0002 T01000072
53915KARA ARA20161218061015512/18/16 06:10:31  5-MIN KARA 181210Z 36025G35KT 10SM -RA SCT011 BKN019 OVC030 09/07 A3012 -150 83 -800 360/25G35 RMK AO2 PK WND 36035/1204 P0002 T00940067
53915KARA ARA20161218061515512/18/16 06:15:31  5-MIN KARA 181215Z 01020G34KT 10SM -RA SCT011 SCT017 OVC030 09/07 A3012 -150 83 -800 360/20G34 RMK AO2 PK WND 36035/1204 P0002 T00940067
53915KARA ARA20161218062015512/18/16 06:20:31  5-MIN KARA 181220Z 01013G31KT 10SM -RA FEW011 SCT017 OVC030 09/07 A3013 -160 83 -800 010/13G31 RMK AO2 PK WND 36035/1204 P0003 T00940067
53915KARA ARA20161218062514812/18/16 06:25:31  5-MIN KARA 181225Z 01024G32KT 10SM -RA SCT016 OVC030 09/07 A3013 -160 83 -800 010/24G32 RMK AO2 PK WND 36035/1204 P0003 T00940067
53915KARA ARA20161218063014812/18/16 06:30:31  5-MIN KARA 181230Z 01021G32KT 10SM -RA SCT016 OVC030 09/07 A3013 -160 83 -800 010/21G32 RMK AO2 PK WND 36035/1204 P0003 T00940067
53915KARA ARA20161218063514712/18/16 06:35:31  5-MIN KARA 181235Z 01017G27KT 9SM -RA SCT016 OVC031 09/07 A3014 -170 83 -800 010/17G27 RMK AO2 PK WND 36035/1204 P0003 T00940067
53915KARA ARA20161218064014712/18/16 06:40:31  5-MIN KARA 181240Z 01019G25KT 9SM -RA BKN014 OVC031 09/07 A3014 -170 83 -800 010/19G25 RMK AO2 PK WND 36035/1204 P0003 T00940067
53915KARA ARA20161218064514812/18/16 06:45:31  5-MIN KARA 181245Z 01020G26KT 10SM -RA BKN014 OVC032 09/07 A3015 -180 83 -800 010/20G26 RMK AO2 PK WND 36035/1204 P0003 T00940067
53915KARA ARA20161218065015512/18/16 06:50:31  5-MIN KARA 181250Z 01020G27KT 10SM -RA BKN014 OVC032 09/06 A3015 -180 79 -800 010/20G27 RMK AO2 PK WND 36035/1204 SLP209 P0003 T00940061
53915KARA ARA20161218065513012/18/16 06:55:31  5-MIN KARA 181255Z 01020G27KT 10SM -RA BKN014 OVC034 09/07 A3015 -180 86 -900 010/20G27 RMK AO2 P0000 T00890067
53915KARA ARA20161218070013012/18/16 07:00:31  5-MIN KARA 181300Z 01019G27KT 10SM -RA BKN014 OVC034 09/06 A3015 -180 83 -900 010/19G27 RMK AO2 P0000 T00890061
53915KARA ARA20161218070514812/18/16 07:05:31  5-MIN KARA 181305Z 02019G26KT 10SM -RA BKN014 OVC034 09/06 A3016 -190 83 -900 020/19G26 RMK AO2 PK WND 02026/1302 P0000 T00890061
53915KARA ARA20161218071014812/18/16 07:10:31  5-MIN KARA 181310Z 01016G27KT 10SM -RA BKN015 OVC034 09/06 A3016 -190 83 -900 010/16G27 RMK AO2 PK WND 02027/1306 P0000 T00890061
53915KARA ARA20161218071514812/18/16 07:15:31  5-MIN KARA 181315Z 01017G27KT 10SM -RA BKN015 OVC035 09/06 A3017 -200 83 -900 010/17G27 RMK AO2 PK WND 02027/1306 P0000 T00890061
53915KARA ARA20161218072014812/18/16 07:20:31  5-MIN KARA 181320Z 01020G24KT 10SM -RA BKN015 OVC035 09/06 A3017 -200 83 -900 010/20G24 RMK AO2 PK WND 02027/1306 P0000 T00890061
53915KARA ARA20161218072514112/18/16 07:25:31  5-MIN KARA 181325Z 01015G24KT 10SM -RA OVC015 09/06 A3017 -200 83 -900 010/15G24 RMK AO2 PK WND 02027/1306 P0000 T00890061
53915KARA ARA20161218073014112/18/16 07:30:31  5-MIN KARA 181330Z 02018G25KT 10SM -RA OVC015 09/06 A3017 -200 83 -900 010/18G25 RMK AO2 PK WND 02027/1306 P0000 T00890061
53915KARA ARA20161218073514112/18/16 07:35:31  5-MIN KARA 181335Z 01015G25KT 10SM -RA OVC015 09/06 A3018 -210 83 -900 010/15G25 RMK AO2 PK WND 02027/1306 P0000 T00890061
53915KARA ARA20161218074013512/18/16 07:40:31  5-MIN KARA 181340Z 01015KT 10SM -RA OVC015 09/06 A3019 -210 83 -900 010/15 RMK AO2 PK WND 02027/1306 P0000 T00890061
53915KARA ARA20161218074514112/18/16 07:45:31  5-MIN KARA 181345Z 01014G22KT 10SM -RA OVC015 09/07 A3019 -220 86 -900 010/14G22 RMK AO2 PK WND 02027/1306 P0000 T00890067
53915KARA ARA20161218075013112/18/16 07:50:31  5-MIN KARA 181350Z 01017G22KT 10SM -RA OVC014 09/06 A3019 -220 83 -900 010/17G22 RMK AO2 PK WND 02027/1306 P0000
53915KARA ARA20161218075511312/18/16 07:55:31  5-MIN KARA 181355Z 01018G24KT 10SM OVC014 09/06 A3020 -220 83 -900 010/18G24 RMK AO2 T00890061
53915KARA ARA20161218080012912/18/16 08:00:31  5-MIN KARA 181400Z 01015G24KT 10SM -RA OVC014 09/06 A3020 -230 83 -900 010/15G24 RMK AO2 RAB00 P0000 T00890061
53915KARA ARA20161218080515512/18/16 08:05:31  5-MIN KARA 181405Z 01023G34KT 10SM -RA BKN013 OVC041 08/06 A3021 -230 82 -1000 010/23G34 RMK AO2 PK WND 01034/1404 RAB00 P0000 T00830056
53915KARA ARA20161218081015512/18/16 08:10:31  5-MIN KARA 181410Z 01025G34KT 10SM -RA BKN013 OVC041 08/04 A3021 -230 76 -1100 010/25G34 RMK AO2 PK WND 01034/1404 RAB00 P0000 T00780039
53915KARA ARA20161218081515512/18/16 08:15:31  5-MIN KARA 181415Z 02023G32KT 10SM -RA SCT013 OVC041 08/04 A3021 -230 76 -1100 010/23G32 RMK AO2 PK WND 01034/1404 RAB00 P0000 T00780039
53915KARA ARA20161218082015512/18/16 08:20:31  5-MIN KARA 181420Z 01024G30KT 10SM -RA SCT013 OVC041 08/04 A3021 -240 79 -1100 010/24G30 RMK AO2 PK WND 01034/1404 RAB00 P0000 T00780044
53915KARA ARA20161218082515512/18/16 08:25:31  5-MIN KARA 181425Z 01021G30KT 10SM -RA FEW013 OVC042 07/04 A3022 -240 79 -1200 010/21G30 RMK AO2 PK WND 01034/1404 RAB00 P0000 T00720039
53915KARA ARA20161218083015512/18/16 08:30:31  5-MIN KARA 181430Z 02024G33KT 10SM -RA FEW017 OVC042 07/04 A3022 -240 79 -1200 010/24G33 RMK AO2 PK WND 01034/1404 RAB00 P0000 T00720039
53915KARA ARA20161218083515512/18/16 08:35:31  5-MIN KARA 181435Z 01028G35KT 10SM -RA FEW017 OVC044 07/03 A3021 -240 76 -1100 010/28G35 RMK AO2 PK WND 03035/1433 RAB00 P0000 T00720033
53915KARA ARA20161218084015512/18/16 08:40:31  5-MIN KARA 181440Z 02023G35KT 10SM -RA FEW017 OVC044 07/03 A3021 -240 76 -1100 020/23G35 RMK AO2 PK WND 03035/1433 RAB00 P0000 T00720033
53915KARA ARA20161218084515512/18/16 08:45:31  5-MIN KARA 181445Z 01020G31KT 10SM -RA FEW017 OVC044 07/03 A3022 -250 76 -1200 010/20G31 RMK AO2 PK WND 03035/1433 RAB00 P0000 T00720033
53915KARA ARA20161218085017412/18/16 08:50:31  5-MIN KARA 181450Z 02019G30KT 10SM -RA FEW017 OVC045 07/03 A3023 -250 76 -1200 020/19G30 RMK AO2 PK WND 03035/1433 RAB00 SLP235 P0000 60003 T00720033 51054
53915KARA ARA20161218085513812/18/16 08:55:31  5-MIN KARA 181455Z 01016G24KT 10SM -RA FEW015 OVC045 07/04 A3023 -260 79 -1200 010/16G24 RMK AO2 PRESRR P0000 T00720039
53915KARA ARA20161218090013512/18/16 09:00:31  5-MIN KARA 181500Z 02018G24KT 10SM FEW015 OVC045 07/04 A3023 -260 79 -1200 020/18G24 RMK AO2 RAE1459 P0000 T00720039
53915KARA ARA20161218090515312/18/16 09:05:31  5-MIN KARA 181505Z 01021G25KT 10SM SCT015 OVC045 07/03 A3023 -260 76 -1200 010/21G25 RMK AO2 PK WND 01026/1505 RAE1459 P0000 T00720033
53915KARA ARA20161218091014912/18/16 09:10:31  5-MIN KARA 181510Z 01024G30KT 10SM -RA SCT015 OVC045 07/03 A3024 -260 79 -1200 010/24G30 RMK AO2 PK WND 01030/1510 P0000 T00670033
53915KARA ARA20161218091514912/18/16 09:15:31  5-MIN KARA 181515Z 01022G30KT 10SM -RA SCT016 OVC045 07/03 A3024 -260 76 -1200 010/22G30 RMK AO2 PK WND 01030/1510 P0000 T00670028
53915KARA ARA20161218092014912/18/16 09:20:31  5-MIN KARA 181520Z 01021G29KT 10SM -RA SCT016 OVC046 07/03 A3025 -270 76 -1300 010/21G29 RMK AO2 PK WND 01030/1510 P0000 T00670028
53915KARA ARA20161218092514912/18/16 09:25:31  5-MIN KARA 181525Z 01020G27KT 10SM -RA FEW016 OVC046 07/03 A3025 -270 76 -1300 010/20G27 RMK AO2 PK WND 01030/1510 P0000 T00670028
53915KARA ARA20161218093014912/18/16 09:30:31  5-MIN KARA 181530Z 01022G29KT 10SM -RA FEW016 OVC047 07/02 A3025 -280 73 -1300 010/22G29 RMK AO2 PK WND 01030/1510 P0000 T00670022
53915KARA ARA20161218093514912/18/16 09:35:31  5-MIN KARA 181535Z 01018G30KT 10SM -RA FEW017 OVC047 07/02 A3025 -270 73 -1300 010/18G30 RMK AO2 PK WND 01030/1510 P0000 T00670022
53915KARA ARA20161218094014912/18/16 09:40:31  5-MIN KARA 181540Z 01018G30KT 10SM -RA FEW017 OVC047 07/02 A3026 -280 73 -1300 010/18G30 RMK AO2 PK WND 01030/1510 P0000 T00670022
53915KARA ARA20161218094515112/18/16 09:45:31  5-MIN KARA 181545Z 02018G25KT 10SM FEW017 OVC047 07/02 A3026 -280 73 -1300 020/18G25 RMK AO2 PK WND 01030/1510 RAE44 P0000 T00670022
53915KARA ARA20161218095015612/18/16 09:50:31  5-MIN KARA 181550Z 02021G27KT 10SM -RA FEW017 OVC047 07/02 A3026 -280 73 -1300 020/21G27 RMK AO2 PK WND 01030/1510 SLP245 P0000 T00670022
53915KARA ARA20161218095513112/18/16 09:55:31  5-MIN KARA 181555Z 02017G27KT 10SM -RA FEW017 OVC047 07/02 A3026 -280 73 -1300 010/17G27 RMK AO2 P0000 T00670022
53915KARA ARA20161218100013112/18/16 10:00:31  5-MIN KARA 181600Z 02018G25KT 10SM -RA FEW018 OVC047 07/02 A3026 -280 73 -1300 020/18G25 RMK AO2 P0000 T00670022
53915KARA ARA20161218100515112/18/16 10:05:31  5-MIN KARA 181605Z 01019G26KT 10SM FEW018 OVC047 06/02 A3027 -290 76 -1300 010/19G26 RMK AO2 PK WND 01026/1605 RAE03 P0000 T00610022
53915KARA ARA20161218101014912/18/16 10:10:31  5-MIN KARA 181610Z 02019G26KT 10SM -RA SCT018 OVC047 06/02 A3027 -290 76 -1300 020/19G26 RMK AO2 PK WND 01026/1605 P0000 T00610022
53915KARA ARA20161218101514912/18/16 10:15:31  5-MIN KARA 181615Z 02017G25KT 10SM -RA SCT018 OVC047 06/02 A3027 -290 76 -1400 020/17G25 RMK AO2 PK WND 01026/1605 P0000 T00610022
53915KARA ARA20161218102014912/18/16 10:20:31  5-MIN KARA 181620Z 02019G26KT 10SM -RA SCT018 OVC047 06/02 A3026 -280 76 -1300 010/19G26 RMK AO2 PK WND 03026/1618 P0000 T00610022
53915KARA ARA20161218102515112/18/16 10:25:31  5-MIN KARA 181625Z 01016G26KT 10SM SCT018 OVC048 06/02 A3027 -290 76 -1300 010/16G26 RMK AO2 PK WND 03026/1618 RAE24 P0000 T00610022
53915KARA ARA20161218103015112/18/16 10:30:31  5-MIN KARA 181630Z 02017G26KT 10SM SCT018 OVC048 07/02 A3026 -280 73 -1300 020/17G26 RMK AO2 PK WND 01026/1627 RAE30 P0000 T00670022
53915KARA ARA20161218103515112/18/16 10:35:31  5-MIN KARA 181635Z 01015G26KT 10SM SCT018 OVC048 07/02 A3027 -290 73 -1300 010/15G26 RMK AO2 PK WND 01026/1627 RAE30 P0000 T00670022
53915KARA ARA20161218104015112/18/16 10:40:31  5-MIN KARA 181640Z 01015G22KT 10SM SCT018 OVC048 06/02 A3028 -300 76 -1400 010/15G22 RMK AO2 PK WND 01026/1627 RAE30 P0000 T00610022
53915KARA ARA20161218104515112/18/16 10:45:31  5-MIN KARA 181645Z 01017G22KT 10SM BKN018 OVC048 06/02 A3027 -290 76 -1400 010/17G22 RMK AO2 PK WND 01026/1627 RAE30 P0000 T00610022
53915KARA ARA20161218105015212/18/16 10:50:31  5-MIN KARA 181650Z 02018KT 10SM BKN016 OVC048 06/02 A3027 -290 73 -1300 020/18 RMK AO2 PK WND 01026/1627 RAE30 SLP248 P0000 T00610017
53915KARA ARA20161218105511512/18/16 10:55:31  5-MIN KARA 181655Z 02015KT 10SM BKN016 OVC048 06/02 A3026 -280 73 -1300 010/15 RMK AO2 T00610017
53915KARA ARA20161218110012812/18/16 11:00:31  5-MIN KARA 181700Z 02019G24KT 10SM BKN016 OVC049 06/02 A3025 -270 76 -1300 020/19G24 RMK AO2 PRESFR T00610022
53915KARA ARA20161218110514412/18/16 11:05:31  5-MIN KARA 181705Z 02018G25KT 10SM -RA BKN016 BKN049 OVC060 06/02 A3025 -270 76 -1300 020/18G25 RMK AO2 RAB04 P0000 T00610022
53915KARA ARA20161218111016212/18/16 11:10:31  5-MIN KARA 181710Z 01021G26KT 10SM -RA BKN016 BKN049 OVC060 07/02 A3025 -280 73 -1300 010/21G26 RMK AO2 PK WND 01026/1710 RAB04 P0000 T00670022
53915KARA ARA20161218111516212/18/16 11:15:31  5-MIN KARA 181715Z 02020G27KT 10SM -RA BKN016 BKN050 OVC060 06/02 A3026 -280 73 -1300 020/20G27 RMK AO2 PK WND 02027/1715 RAB04 P0000 T00610017
53915KARA ARA20161218112015512/18/16 11:20:31  5-MIN KARA 181720Z 02019G28KT 10SM -RA BKN017 OVC055 06/02 A3027 -290 73 -1300 020/19G28 RMK AO2 PK WND 02028/1717 RAB04 P0000 T00610017
53915KARA ARA20161218112515512/18/16 11:25:31  5-MIN KARA 181725Z 02020G28KT 10SM -RA BKN017 OVC055 06/02 A3026 -280 73 -1300 020/20G28 RMK AO2 PK WND 02028/1717 RAB04 P0000 T00610017
53915KARA ARA20161218113015512/18/16 11:30:31  5-MIN KARA 181730Z 01017G30KT 10SM -RA BKN017 OVC060 06/02 A3026 -280 73 -1300 010/17G30 RMK AO2 PK WND 03030/1727 RAB04 P0000 T00610017
53915KARA ARA20161218113515512/18/16 11:35:31  5-MIN KARA 181735Z 01017G30KT 10SM -RA BKN018 OVC055 06/02 A3025 -270 73 -1300 010/17G30 RMK AO2 PK WND 03030/1727 RAB04 P0000 T00610017
53915KARA ARA20161218114015512/18/16 11:40:31  5-MIN KARA 181740Z 36018KT 10SM BKN018 BKN055 OVC070 07/02 A3025 -270 70 -1300 360/18 RMK AO2 PK WND 03030/1727 RAB04E38 P0000 T00670017
53915KARA ARA20161218114516112/18/16 11:45:31  5-MIN KARA 181745Z 02019G25KT 10SM BKN018 BKN055 OVC070 07/02 A3024 -270 70 -1300 010/19G25 RMK AO2 PK WND 03030/1727 RAB04E38 P0000 T00670017
53915KARA ARA20161218115018612/18/16 11:50:31  5-MIN KARA 181750Z 01020G25KT 10SM -RA BKN018 OVC065 07/02 A3024 -260 70 -1200 010/20G25 RMK AO2 PK WND 03030/1727 RAB04 SLP240 P0000 60003 T00670017 10100 20061 51041
53915KARA ARA20161218115513812/18/16 11:55:31  5-MIN KARA 181755Z 36020G27KT 10SM -RA BKN017 BKN070 OVC110 07/02 A3024 -270 70 -1200 360/20G27 RMK AO2 P0000 T00720022
53915KARA ARA20161218120015612/18/16 12:00:31  5-MIN KARA 181800Z 01018G28KT 10SM -RA BKN017 BKN070 OVC100 07/02 A3025 -270 70 -1200 360/18G28 RMK AO2 PK WND 01028/1756 P0000 T00720022
53915KARA ARA20161218120515612/18/16 12:05:31  5-MIN KARA 181805Z 01022G30KT 10SM -RA BKN017 BKN070 OVC100 07/02 A3025 -270 68 -1200 010/22G30 RMK AO2 PK WND 36030/1805 P0000 T00720017
53915KARA ARA20161218121015612/18/16 12:10:31  5-MIN KARA 181810Z 01017G30KT 10SM -RA BKN017 BKN075 OVC100 07/02 A3024 -270 70 -1300 360/17G30 RMK AO2 PK WND 36030/1805 P0000 T00670017
53915KARA ARA20161218121515612/18/16 12:15:31  5-MIN KARA 181815Z 36018G27KT 10SM -RA BKN017 BKN075 OVC100 07/02 A3024 -260 70 -1200 360/18G27 RMK AO2 PK WND 36030/1805 P0000 T00670017
53915KARA ARA20161218122015612/18/16 12:20:31  5-MIN KARA 181820Z 36021G25KT 10SM -RA BKN016 BKN075 OVC100 06/01 A3023 -260 70 -1300 360/21G25 RMK AO2 PK WND 36030/1805 P0000 T00610011
53915KARA ARA20161218122515612/18/16 12:25:31  5-MIN KARA 181825Z 01019G28KT 10SM -RA SCT016 BKN075 BKN120 06/01 A3023 -260 70 -1300 010/19G28 RMK AO2 PK WND 36030/1805 P0000 T00610011
53915KARA ARA20161218123015612/18/16 12:30:31  5-MIN KARA 181830Z 01018G28KT 10SM -RA SCT016 BKN075 BKN110 06/02 A3024 -260 73 -1300 010/18G28 RMK AO2 PK WND 36030/1805 P0000 T00610017
53915KARA ARA20161218123515612/18/16 12:35:31  5-MIN KARA 181835Z 01020G25KT 10SM -RA BKN016 BKN075 BKN110 06/01 A3023 -250 70 -1300 360/20G25 RMK AO2 PK WND 36030/1805 P0000 T00610011
53915KARA ARA20161218124015612/18/16 12:40:31  5-MIN KARA 181840Z 01022G28KT 10SM -RA BKN016 BKN080 BKN110 06/01 A3023 -250 70 -1300 010/22G28 RMK AO2 PK WND 36030/1805 P0000 T00610011
53915KARA ARA20161218124514912/18/16 12:45:31  5-MIN KARA 181845Z 01020G28KT 10SM -RA BKN016 BKN110 07/02 A3023 -250 68 -1200 010/20G28 RMK AO2 PK WND 36030/1805 P0000 T00720017
53915KARA ARA20161218125015612/18/16 12:50:31  5-MIN KARA 181850Z 36020G26KT 10SM -RA BKN016 BKN110 07/02 A3024 -260 68 -1200 360/20G26 RMK AO2 PK WND 36030/1805 SLP238 P0000 T00720017
53915KARA ARA20161218125512412/18/16 12:55:31  5-MIN KARA 181855Z 35020G26KT 10SM -RA BKN016 07/01 A3024 -260 67 -1200 350/20G26 RMK AO2 P0000 T00670011
53915KARA ARA20161218130012412/18/16 13:00:31  5-MIN KARA 181900Z 01017G24KT 10SM -RA BKN016 06/01 A3024 -260 70 -1300 010/17G24 RMK AO2 P0000 T00610011
53915KARA ARA20161218130512412/18/16 13:05:31  5-MIN KARA 181905Z 02019G24KT 10SM -RA BKN016 06/01 A3024 -260 70 -1300 020/19G24 RMK AO2 P0000 T00610011
53915KARA ARA20161218131014412/18/16 13:10:31  5-MIN KARA 181910Z 01019G27KT 10SM BKN016 06/01 A3025 -280 70 -1400 010/19G27 RMK AO2 PK WND 01027/1909 RAE07 P0000 T00560006
53915KARA ARA20161218131514412/18/16 13:15:31  5-MIN KARA 181915Z 01017G27KT 10SM OVC016 06/01 A3025 -270 70 -1400 010/17G27 RMK AO2 PK WND 01027/1909 RAE13 P0000 T00560006
53915KARA ARA20161218132014412/18/16 13:20:31  5-MIN KARA 181920Z 01015G23KT 10SM OVC016 06/01 A3024 -260 70 -1400 010/15G23 RMK AO2 PK WND 01027/1909 RAE13 P0000 T00560006
53915KARA ARA20161218132515612/18/16 13:25:31  5-MIN KARA 181925Z 01021G27KT 10SM -RA BKN016 BKN060 OVC075 06/01 A3024 -260 70 -1300 010/21G27 RMK AO2 PK WND 02027/1921 P0000 T00610011
53915KARA ARA20161218133015612/18/16 13:30:31  5-MIN KARA 181930Z 02017G27KT 10SM -RA BKN016 BKN050 OVC080 06/01 A3024 -260 70 -1300 020/17G27 RMK AO2 PK WND 02027/1921 P0000 T00610011
53915KARA ARA20161218133514912/18/16 13:35:31  5-MIN KARA 181935Z 01019G26KT 10SM -RA BKN016 OVC039 06/01 A3024 -260 70 -1400 010/19G26 RMK AO2 PK WND 02027/1921 P0000 T00560006
53915KARA ARA20161218134014912/18/16 13:40:31  5-MIN KARA 181940Z 36019G26KT 10SM -RA BKN016 OVC035 05/01 A3024 -260 73 -1500 360/19G26 RMK AO2 PK WND 02027/1921 P0000 T00500006
53915KARA ARA20161218134513612/18/16 13:45:31  5-MIN KARA 181945Z 01016KT 10SM -RA BKN016 05/01 A3024 -260 76 -1500 010/16 RMK AO2 PK WND 02027/1921 P0000 T00500011
53915KARA ARA20161218135014312/18/16 13:50:31  5-MIN KARA 181950Z 01017KT 10SM -RA BKN016 05/01 A3024 -260 76 -1500 010/17 RMK AO2 PK WND 02027/1921 SLP239 P0000 T00500011
53915KARA ARA20161218135512012/18/16 13:55:31  5-MIN KARA 181955Z 01016KT 10SM OVC014 06/01 A3025 -270 73 -1400 010/16 RMK AO2 RAE54 P0000 T00560011
53915KARA ARA20161218140012412/18/16 14:00:31  5-MIN KARA 182000Z 01021G24KT 10SM -RA OVC014 05/01 A3025 -280 73 -1500 010/21G24 RMK AO2 P0000 T00500006
53915KARA ARA20161218140511812/18/16 14:05:31  5-MIN KARA 182005Z 01017KT 10SM -RA OVC015 05/01 A3025 -280 73 -1500 360/17 RMK AO2 P0000 T00500006
53915KARA ARA20161218141012412/18/16 14:10:31  5-MIN KARA 182010Z 01016G24KT 10SM -RA OVC015 05/01 A3025 -280 73 -1500 010/16G24 RMK AO2 P0000 T00500006
53915KARA ARA20161218141512012/18/16 14:15:31  5-MIN KARA 182015Z 02017KT 10SM OVC015 05/01 A3025 -270 73 -1500 020/17 RMK AO2 RAE11 P0000 T00500006
53915KARA ARA20161218142012612/18/16 14:20:31  5-MIN KARA 182020Z 02020G24KT 10SM OVC015 04/00 A3025 -270 73 -1500 020/20G24 RMK AO2 RAE11 P0000 T00440000
53915KARA ARA20161218142513312/18/16 14:25:31  5-MIN KARA 182025Z 01019G24KT 10SM BKN015 OVC070 05/00 A3025 -270 70 -1500 010/19G24 RMK AO2 RAE11 P0000 T00500000
53915KARA ARA20161218143015812/18/16 14:30:31  5-MIN KARA 182030Z 02020G26KT 10SM -RA BKN016 OVC070 04/00 A3024 -270 73 -1500 020/20G26 RMK AO2 PK WND 02026/2027 RAE11B28 P0000 T00440000
53915KARA ARA20161218143515812/18/16 14:35:31  5-MIN KARA 182035Z 02020G26KT 10SM -RA BKN016 OVC070 04/00 A3024 -270 73 -1500 020/20G26 RMK AO2 PK WND 02026/2032 RAE11B28 P0000 T00440000
53915KARA ARA20161218144015812/18/16 14:40:31  5-MIN KARA 182040Z 01015G25KT 10SM -RA BKN016 OVC075 04/00 A3026 -280 73 -1500 010/15G25 RMK AO2 PK WND 02026/2032 RAE11B28 P0000 T00440000
53915KARA ARA20161218144515612/18/16 14:45:31  5-MIN KARA 182045Z AUTO 01014KT 10SM BKN016 OVC070 04/00 A3026 -280 73 -1500 010/14 RMK AO2 PK WND 02026/2032 RAE11B28E45 P0000 T00440000
53915KARA ARA20161218145017512/18/16 14:50:31  5-MIN KARA 182050Z AUTO 02017KT 10SM BKN016 OVC075 04/00 A3026 -280 73 -1500 020/17 RMK AO2 PK WND 02026/2032 RAE11B28E45 SLP244 P0000 60000 T00440000 58005
53915KARA ARA20161218145512612/18/16 14:55:31  5-MIN KARA 182055Z AUTO 01016G23KT 10SM BKN016 OVC075 04/00 A3026 -280 73 -1500 010/16G23 RMK AO2 T00440000
53915KARA ARA20161218150012612/18/16 15:00:31  5-MIN KARA 182100Z AUTO 02020G24KT 10SM BKN016 OVC075 04/00 A3026 -280 73 -1500 020/20G24 RMK AO2 T00440000
53915KARA ARA20161218150513512/18/16 15:05:31  5-MIN KARA 182105Z AUTO 02014G24KT 10SM -RA OVC016 04/00 A3027 -290 73 -1600 020/14G24 RMK AO2 RAB02 P0000 T00440000
53915KARA ARA20161218151013512/18/16 15:10:31  5-MIN KARA 182110Z AUTO 02019G24KT 10SM -RA OVC016 04/00 A3027 -290 73 -1600 020/19G24 RMK AO2 RAB02 P0000 T00440000
53915KARA ARA20161218151515912/18/16 15:15:31  5-MIN KARA 182115Z AUTO 03020G26KT 10SM BKN016 OVC080 04/00 A3027 -290 73 -1600 020/20G26 RMK AO2 PK WND 02026/2112 RAB02E11 P0000 T00440000
53915KARA ARA20161218152016612/18/16 15:20:31  5-MIN KARA 182120Z AUTO 02019G26KT 10SM -RA BKN016 OVC080 04/00 A3027 -290 73 -1600 010/19G26 RMK AO2 PK WND 02026/2112 RAB02E11B17 P0000 T00440000
53915KARA ARA20161218152516512/18/16 15:25:31  5-MIN KARA 182125Z AUTO 01018G23KT 10SM BKN018 OVC080 04/00 A3027 -290 73 -1600 010/18G23 RMK AO2 PK WND 02026/2112 RAB02E11B17E25 P0000 T00440000
53915KARA ARA20161218153016512/18/16 15:30:31  5-MIN KARA 182130Z AUTO 02020G26KT 10SM SCT018 OVC080 04/00 A3027 -290 73 -1600 020/20G26 RMK AO2 PK WND 02026/2130 RAB02E11B17E25 P0000 T00440000
53915KARA ARA20161218153516112/18/16 15:35:31  5-MIN KARA 182135Z AUTO 02020KT 10SM -RA FEW018 OVC080 04/M01 A3027 -300 70 -1600 020/20 RMK AO2 PK WND 02026/2130 RAB02E11B17 P0000 T00441006
53915KARA ARA20161218154016712/18/16 15:40:31  5-MIN KARA 182140Z AUTO 01019G24KT 10SM -RA FEW020 OVC085 05/M01 A3027 -290 67 -1500 010/19G24 RMK AO2 PK WND 02026/2130 RAB02E11B17 P0000 T00501006
53915KARA ARA20161218154516612/18/16 15:45:31  5-MIN KARA 182145Z AUTO 01017G24KT 10SM SCT020 OVC085 05/M01 A3028 -300 67 -1500 010/17G24 RMK AO2 PK WND 02026/2130 RAB02E11B17E44 P0000 T00501006
53915KARA ARA20161218155014912/18/16 15:50:31  5-MIN KARA 182150Z AUTO 02016KT 10SM BKN020 OVC085 05/00 A3028 -300 70 -1500 020/16 RMK AO2 PK WND 02026/2130 RAB02E11B17E44 P0000
53915KARA ARA20161218155512012/18/16 15:55:31  5-MIN KARA 182155Z AUTO 02014KT 10SM BKN020 OVC085 05/00 A3028 -300 70 -1500 010/14 RMK AO2 T00500000
53915KARA ARA20161218160012612/18/16 16:00:31  5-MIN KARA 182200Z AUTO 01018G21KT 10SM BKN020 OVC085 05/00 A3029 -300 70 -1500 010/18G21 RMK AO2 T00500000
53915KARA ARA20161218160512712/18/16 16:05:31  5-MIN KARA 182205Z AUTO 01016G21KT 10SM BKN020 OVC085 05/M01 A3029 -310 67 -1500 010/16G21 RMK AO2 T00501006
53915KARA ARA20161218161012112/18/16 16:10:31  5-MIN KARA 182210Z AUTO 01016KT 10SM SCT020 OVC085 05/M01 A3029 -310 67 -1500 010/16 RMK AO2 T00501006
53915KARA ARA20161218161514512/18/16 16:15:31  5-MIN KARA 182215Z AUTO 01019G26KT 10SM SCT020 OVC085 05/M01 A3029 -310 67 -1500 010/19G26 RMK AO2 PK WND 01026/2213 T00501006
53915KARA ARA20161218162016112/18/16 16:20:31  5-MIN KARA 182220Z AUTO 01018G26KT 10SM -RA FEW020 OVC085 05/M01 A3029 -310 67 -1500 010/18G26 RMK AO2 PK WND 01026/2213 RAB16 P0000 T00501006
53915KARA ARA20161218162516712/18/16 16:25:31  5-MIN KARA 182225Z AUTO 01018G25KT 10SM FEW020 FEW055 OVC090 05/M01 A3030 -320 67 -1500 010/18G25 RMK AO2 PK WND 01026/2213 RAB16E24 P0000 T00501006
53915KARA ARA20161218163017412/18/16 16:30:31  5-MIN KARA 182230Z AUTO 02015G25KT 10SM FEW037 FEW055 OVC090 05/M01 A3031 -330 67 -1500 020/15G25 RMK AO2 PK WND 01026/2213 RAB16E24 PRESRR P0000 T00501006
53915KARA ARA20161218163514812/18/16 16:35:31  5-MIN KARA 182235Z AUTO 02017KT 10SM -RA OVC090 05/M01 A3031 -330 67 -1500 020/17 RMK AO2 PK WND 01026/2213 RAB16 P0000 T00501006
53915KARA ARA20161218164014812/18/16 16:40:31  5-MIN KARA 182240Z AUTO 02013KT 10SM -RA OVC090 05/M01 A3031 -330 67 -1500 010/13 RMK AO2 PK WND 01026/2213 RAB16 P0000 T00501006
53915KARA ARA20161218164515312/18/16 16:45:31  5-MIN KARA 182245Z AUTO 02018G22KT 10SM OVC090 06/M01 A3031 -330 65 -1500 020/18G22 RMK AO2 PK WND 01026/2213 RAB16E43 P0000 T00561006
53915KARA ARA20161218165016012/18/16 16:50:31  5-MIN KARA 182250Z AUTO 02020G24KT 10SM OVC090 05/M01 A3031 -320 67 -1500 020/20G24 RMK AO2 PK WND 01026/2213 RAB16E43 SLP262 P0000 T00501006
53915KARA ARA20161218165511412/18/16 16:55:31  5-MIN KARA 182255Z AUTO 01019KT 10SM OVC090 06/M01 A3031 -320 65 -1500 010/19 RMK AO2 T00561006
53915KARA ARA20161218170015612/18/16 17:00:31  5-MIN KARA 182300Z AUTO 01021G27KT 10SM -RA OVC090 05/M01 A3032 -330 67 -1500 010/21G27 RMK AO2 PK WND 02027/2257 RAB2258 P0000 T00501006
53915KARA ARA20161218170515612/18/16 17:05:31  5-MIN KARA 182305Z AUTO 02017G27KT 10SM -RA OVC090 05/M01 A3032 -340 64 -1500 020/17G27 RMK AO2 PK WND 02027/2257 RAB2258 P0000 T00501011
53915KARA ARA20161218171015012/18/16 17:10:31  5-MIN KARA 182310Z AUTO 02017KT 10SM -RA OVC090 06/M01 A3033 -340 65 -1500 020/17 RMK AO2 PK WND 02027/2257 RAB2258 P0000 T00561006
53915KARA ARA20161218171515512/18/16 17:15:31  5-MIN KARA 182315Z AUTO 02019G26KT 10SM OVC090 05/M01 A3033 -340 67 -1600 020/19G26 RMK AO2 PK WND 02027/2257 RAB2258E11 P0000 T00501006
53915KARA ARA20161218172015512/18/16 17:20:31  5-MIN KARA 182320Z AUTO 02019G26KT 10SM OVC090 05/M01 A3033 -340 64 -1600 020/19G26 RMK AO2 PK WND 02027/2257 RAB2258E11 P0000 T00501011
53915KARA ARA20161218172514912/18/16 17:25:31  5-MIN KARA 182325Z AUTO 36017KT 10SM OVC090 05/M01 A3033 -340 67 -1600 360/17 RMK AO2 PK WND 02027/2257 RAB2258E11 P0000 T00501006
53915KARA ARA20161218173014912/18/16 17:30:31  5-MIN KARA 182330Z AUTO 01015KT 10SM OVC095 05/M01 A3033 -350 67 -1600 010/15 RMK AO2 PK WND 02027/2257 RAB2258E11 P0000 T00501006
53915KARA ARA20161218173515612/18/16 17:35:31  5-MIN KARA 182335Z AUTO 01014KT 10SM FEW023 OVC095 05/M01 A3034 -350 67 -1600 360/14 RMK AO2 PK WND 02027/2257 RAB2258E11 P0000 T00501006
53915KARA ARA20161218174016212/18/16 17:40:31  5-MIN KARA 182340Z AUTO 02017G23KT 10SM FEW023 OVC095 05/M01 A3034 -360 67 -1600 020/17G23 RMK AO2 PK WND 02027/2257 RAB2258E11 P0000 T00501006
53915KARA ARA20161218174516212/18/16 17:45:31  5-MIN KARA 182345Z AUTO 01017G23KT 10SM FEW023 OVC095 05/M01 A3035 -360 67 -1600 010/17G23 RMK AO2 PK WND 02027/2257 RAB2258E11 P0000 T00501006
53915KARA ARA20161218175018712/18/16 17:50:31  5-MIN KARA 182350Z AUTO 02017KT 10SM FEW023 OVC100 05/M01 A3035 -360 64 -1600 020/17 RMK AO2 PK WND 02027/2257 RAB2258E11 SLP276 P0000 60000 T00501011 10078 20044 53005
53915KARA ARA20161218175512712/18/16 17:55:31  5-MIN KARA 182355Z AUTO 02016G24KT 10SM FEW023 OVC100 05/M01 A3035 -360 64 -1600 020/16G24 RMK AO2 T00501011
53915KARA ARA20161218180013812/18/16 18:00:31  5-MIN KARA 190000Z AUTO 01019G26KT 10SM OVC100 05/M01 A3035 -370 64 -1600 010/19G26 RMK AO2 PK WND 01026/2359 T00501011
53915KARA ARA20161218180513812/18/16 18:05:31  5-MIN KARA 190005Z AUTO 02021G26KT 10SM OVC100 05/M01 A3036 -370 64 -1600 020/21G26 RMK AO2 PK WND 01026/2359 T00501011
53915KARA ARA20161218181015412/18/16 18:10:31  5-MIN KARA 190010Z AUTO 01019G25KT 10SM -RA OVC110 05/M01 A3036 -370 64 -1600 010/19G25 RMK AO2 PK WND 01026/2359 RAB07 P0000 T00501011
53915KARA ARA20161218181515412/18/16 18:15:31  5-MIN KARA 190015Z AUTO 01016G25KT 10SM -RA OVC110 04/M01 A3036 -370 67 -1700 010/16G25 RMK AO2 PK WND 01026/2359 RAB07 P0000 T00441011
53915KARA ARA20161218182014712/18/16 18:20:31  5-MIN KARA 190020Z AUTO 36017KT 10SM OVC110 04/M01 A3036 -370 67 -1700 360/17 RMK AO2 PK WND 01026/2359 RAB07E16 P0000 T00441011
53915KARA ARA20161218182515312/18/16 18:25:31  5-MIN KARA 190025Z AUTO 01018G26KT 10SM OVC110 04/M02 A3035 -370 64 -1700 010/18G26 RMK AO2 PK WND 36026/0024 RAB07E16 P0000 T00441017
53915KARA ARA20161218183015312/18/16 18:30:31  5-MIN KARA 190030Z AUTO 36019G26KT 10SM OVC110 04/M02 A3035 -370 64 -1700 360/19G26 RMK AO2 PK WND 36026/0024 RAB07E16 P0000 T00441017
53915KARA ARA20161218183515412/18/16 18:35:31  5-MIN KARA 190035Z AUTO 01018KT 10SM -RA OVC110 04/M02 A3035 -370 64 -1700 010/18 RMK AO2 PK WND 36026/0024 RAB07E16B32 P0000 T00441017
53915KARA ARA20161218184015912/18/16 18:40:31  5-MIN KARA 190040Z AUTO 01019G25KT 10SM BKN110 04/M02 A3034 -360 67 -1700 010/19G25 RMK AO2 PK WND 36026/0024 RAB07E16B32E36 P0000 T00391017
53915KARA ARA20161218184515912/18/16 18:45:31  5-MIN KARA 190045Z AUTO 01015G25KT 10SM BKN110 04/M02 A3034 -360 67 -1700 010/15G25 RMK AO2 PK WND 36026/0024 RAB07E16B32E36 P0000 T00391017
53915KARA ARA20161218185016612/18/16 18:50:31  5-MIN KARA 190050Z AUTO 01020G25KT 10SM BKN110 04/M02 A3034 -360 67 -1700 010/20G25 RMK AO2 PK WND 36026/0024 RAB07E16B32E36 SLP274 P0000 T00391017
53915KARA ARA20161218185512012/18/16 18:55:31  5-MIN KARA 190055Z AUTO 01019G25KT 10SM SCT110 04/M02 A3034 -360 67 -1700 010/19G25 RMK AO2 T00391017
53915KARA ARA20161218190012012/18/16 19:00:31  5-MIN KARA 190100Z AUTO 01022G25KT 10SM FEW110 04/M02 A3034 -350 67 -1700 010/22G25 RMK AO2 T00391017
53915KARA ARA20161218190515412/18/16 19:05:31  5-MIN KARA 190105Z AUTO 36020G26KT 10SM -RA FEW110 04/M02 A3034 -360 67 -1700 360/20G26 RMK AO2 PK WND 36026/0105 RAB01 P0000 T00391017
53915KARA ARA20161218191015112/18/16 19:10:31  5-MIN KARA 190110Z AUTO 01018G26KT 10SM -RA CLR 04/M02 A3035 -370 67 -1700 360/18G26 RMK AO2 PK WND 36026/0105 RAB01 P0000 T00391017
53915KARA ARA20161218191515012/18/16 19:15:31  5-MIN KARA 190115Z AUTO 01016G23KT 10SM CLR 03/M02 A3036 -370 70 -1800 010/16G23 RMK AO2 PK WND 36026/0105 RAB01E12 P0000 T00331017
53915KARA ARA20161218192015012/18/16 19:20:31  5-MIN KARA 190120Z AUTO 01016G23KT 10SM CLR 03/M02 A3036 -370 70 -1800 010/16G23 RMK AO2 PK WND 36026/0105 RAB01E12 P0000 T00331017
53915KARA ARA20161218192515712/18/16 19:25:31  5-MIN KARA 190125Z AUTO 02019G23KT 10SM CLR 03/M02 A3037 -380 67 -1800 020/19G23 RMK AO2 PK WND 36026/0105 RAB01E12 PRESRR P0000 T00331022
53915KARA ARA20161218193015712/18/16 19:30:31  5-MIN KARA 190130Z AUTO 01021G26KT 10SM CLR 03/M02 A3037 -390 67 -1800 010/21G26 RMK AO2 PK WND 36026/0105 RAB01E12 PRESRR P0000 T00331022
53915KARA ARA20161218193515912/18/16 19:35:31  5-MIN KARA 190135Z AUTO 01020G26KT 10SM -SN CLR 03/M03 A3037 -390 64 -1800 010/20G26 RMK AO2 PK WND 36026/0105 RAB01E12SNB35 P0000 T00331028
53915KARA ARA20161218194015812/18/16 19:40:31  5-MIN KARA 190140Z AUTO 02019G28KT 9SM -SN CLR 03/M03 A3037 -390 64 -1800 020/19G28 RMK AO2 PK WND 02028/0136 RAB01E12SNB35 P0000 T00331028
53915KARA ARA20161218194515812/18/16 19:45:31  5-MIN KARA 190145Z AUTO 02018G28KT 9SM -SN CLR 03/M02 A3037 -390 67 -1800 020/18G28 RMK AO2 PK WND 02028/0136 RAB01E12SNB35 P0000 T00331022
53915KARA ARA20161218195016412/18/16 19:50:31  5-MIN KARA 190150Z AUTO 02018G26KT 9SM CLR 03/M02 A3038 -390 67 -1800 020/18G26 RMK AO2 PK WND 02028/0136 RAB01E12SNB35E48 SLP287 P0000 T00331022
53915KARA ARA20161218195513512/18/16 19:55:31  5-MIN KARA 190155Z AUTO 02020G27KT 10SM CLR 03/M03 A3038 -390 64 -1800 020/20G27 RMK AO2 PK WND 02027/0155 T00331028
53915KARA ARA20161218200013512/18/16 20:00:31  5-MIN KARA 190200Z AUTO 02021G27KT 10SM CLR 03/M03 A3038 -400 67 -1900 010/21G27 RMK AO2 PK WND 02027/0155 T00281028
53915KARA ARA20161218200515012/18/16 20:05:31  5-MIN KARA 190205Z AUTO 02016G27KT 10SM CLR 03/M03 A3039 -400 67 -1900 020/16G27 RMK AO2 PK WND 02027/0201 SNB01E05 P0000 T00281028
53915KARA ARA20161218201015012/18/16 20:10:31  5-MIN KARA 190210Z AUTO 01013G27KT 10SM CLR 03/M02 A3039 -400 69 -1900 010/13G27 RMK AO2 PK WND 02027/0201 SNB01E05 P0000 T00281022
53915KARA ARA20161218201515012/18/16 20:15:31  5-MIN KARA 190215Z AUTO 02019G24KT 10SM CLR 03/M03 A3039 -400 67 -1900 020/19G24 RMK AO2 PK WND 02027/0201 SNB01E05 P0000 T00281028
53915KARA ARA20161218202015012/18/16 20:20:31  5-MIN KARA 190220Z AUTO 02020G24KT 10SM CLR 03/M03 A3040 -410 67 -1900 020/20G24 RMK AO2 PK WND 02027/0201 SNB01E05 P0000 T00281028
53915KARA ARA20161218202515012/18/16 20:25:31  5-MIN KARA 190225Z AUTO 02016G24KT 10SM CLR 03/M03 A3040 -410 67 -1900 020/16G24 RMK AO2 PK WND 02027/0201 SNB01E05 P0000 T00281028
53915KARA ARA20161218203015012/18/16 20:30:31  5-MIN KARA 190230Z AUTO 02021G26KT 10SM CLR 03/M03 A3040 -410 67 -1900 020/21G26 RMK AO2 PK WND 02027/0201 SNB01E05 P0000 T00281028
53915KARA ARA20161218203515712/18/16 20:35:31  5-MIN KARA 190235Z AUTO 02016G26KT 10SM -SN CLR 03/M03 A3040 -410 67 -1900 020/16G26 RMK AO2 PK WND 02027/0201 SNB01E05B31 P0000 T00281028
53915KARA ARA20161218204015512/18/16 20:40:31  5-MIN KARA 190240Z AUTO 02018G26KT 9SM CLR 03/M03 A3040 -410 67 -1900 020/18G26 RMK AO2 PK WND 02027/0201 SNB01E05B31E40 P0000 T00281028
53915KARA ARA20161218204515512/18/16 20:45:31  5-MIN KARA 190245Z AUTO 02018G26KT 9SM CLR 03/M03 A3040 -410 67 -1900 020/18G26 RMK AO2 PK WND 02027/0201 SNB01E05B31E40 P0000 T00281028
53915KARA ARA20161218205017512/18/16 20:50:31  5-MIN KARA 190250Z AUTO 02021G26KT 10SM CLR 03/M03 A3040 -410 67 -1900 020/21G26 RMK AO2 PK WND 02027/0201 SNB01E05B31E40 SLP295 P0000 60000 T00281028 53031
53915KARA ARA20161218205512712/18/16 20:55:31  5-MIN KARA 190255Z AUTO 02017G26KT 10SM -SN CLR 03/M03 A3041 -410 67 -1900 020/17G26 RMK AO2 P0000 T00281028
53915KARA ARA20161218210012612/18/16 21:00:31  5-MIN KARA 190300Z AUTO 03017G26KT 9SM -SN CLR 03/M03 A3040 -410 67 -1900 030/17G26 RMK AO2 P0000 T00281028
53915KARA ARA20161218210512812/18/16 21:05:31  5-MIN KARA 190305Z AUTO 02014G23KT 9SM CLR 03/M03 A3040 -410 67 -1900 020/14G23 RMK AO2 SNE01 P0000 T00281028
53915KARA ARA20161218211012312/18/16 21:10:31  5-MIN KARA 190310Z AUTO 03015KT 10SM CLR 03/M03 A3040 -410 67 -1900 020/15 RMK AO2 SNE01 P0000 T00281028
53915KARA ARA20161218211512912/18/16 21:15:31  5-MIN KARA 190315Z AUTO 03012G21KT 10SM CLR 03/M03 A3041 -420 67 -1900 030/12G21 RMK AO2 SNE01 P0000 T00281028
53915KARA ARA20161218212013212/18/16 21:20:31  5-MIN KARA 190320Z AUTO 02015G23KT 10SM FEW037 03/M03 A3041 -420 67 -1900 020/15G23 RMK AO2 SNE01 P0000 T00281028
53915KARA ARA20161218212513212/18/16 21:25:31  5-MIN KARA 190325Z AUTO 02018G25KT 10SM FEW037 03/M03 A3041 -420 67 -1900 020/18G25 RMK AO2 SNE01 P0000 T00281028
53915KARA ARA20161218213015712/18/16 21:30:31  5-MIN KARA 190330Z AUTO 02019G26KT 10SM -SN FEW037 03/M03 A3041 -420 64 -1900 020/19G26 RMK AO2 PK WND 03026/0326 SNE01B28 P0000 T00281033
53915KARA ARA20161218213515612/18/16 21:35:31  5-MIN KARA 190335Z AUTO 03021G27KT 9SM -SN FEW037 03/M03 A3041 -420 64 -1900 030/21G27 RMK AO2 PK WND 04027/0334 SNE01B28 P0000 T00281033
53915KARA ARA20161218214015612/18/16 21:40:31  5-MIN KARA 190340Z AUTO 03021G27KT 9SM -SN FEW037 03/M03 A3041 -420 64 -1900 030/21G27 RMK AO2 PK WND 04027/0334 SNE01B28 P0000 T00281033
53915KARA ARA20161218214515612/18/16 21:45:31  5-MIN KARA 190345Z AUTO 02018G29KT 9SM -SN FEW037 03/M03 A3041 -420 64 -1900 020/18G29 RMK AO2 PK WND 03029/0343 SNE01B28 P0000 T00281033
53915KARA ARA20161218215016012/18/16 21:50:31  5-MIN KARA 190350Z AUTO 02018G29KT 9SM -SN CLR 03/M03 A3041 -420 64 -1900 020/18G29 RMK AO2 PK WND 03029/0343 SNE01B28 SLP298 P0000 T00281033
53915KARA ARA20161218215512612/18/16 21:55:31  5-MIN KARA 190355Z AUTO 02015G24KT 9SM -SN CLR 02/M03 A3042 -430 69 -2000 010/15G24 RMK AO2 P0000 T00221028
53915KARA ARA20161218220012412/18/16 22:00:31  5-MIN KARA 190400Z AUTO 02015KT 9SM CLR 02/M03 A3042 -430 69 -2000 020/15 RMK AO2 SNE0358 P0000 T00221028
53915KARA ARA20161218220512512/18/16 22:05:31  5-MIN KARA 190405Z AUTO 02014KT 10SM CLR 02/M03 A3042 -430 69 -2000 020/14 RMK AO2 SNE0358 P0000 T00221028
53915KARA ARA20161218221013112/18/16 22:10:31  5-MIN KARA 190410Z AUTO 02016G21KT 10SM CLR 02/M03 A3042 -430 69 -2000 020/16G21 RMK AO2 SNE0358 P0000 T00221028
53915KARA ARA20161218221513112/18/16 22:15:31  5-MIN KARA 190415Z AUTO 01015G21KT 10SM CLR 02/M03 A3042 -430 69 -2000 010/15G21 RMK AO2 SNE0358 P0000 T00221028
53915KARA ARA20161218222012512/18/16 22:20:31  5-MIN KARA 190420Z AUTO 02016KT 10SM CLR 02/M03 A3043 -440 67 -2000 020/16 RMK AO2 SNE0358 P0000 T00221033
53915KARA ARA20161218222512512/18/16 22:25:31  5-MIN KARA 190425Z AUTO 01016KT 10SM CLR 02/M03 A3043 -440 67 -2000 010/16 RMK AO2 SNE0358 P0000 T00221033
53915KARA ARA20161218223012512/18/16 22:30:31  5-MIN KARA 190430Z AUTO 01015KT 10SM CLR 02/M03 A3043 -440 67 -2000 010/15 RMK AO2 SNE0358 P0000 T00221033
53915KARA ARA20161218223513112/18/16 22:35:31  5-MIN KARA 190435Z AUTO 02015G24KT 10SM CLR 02/M03 A3043 -440 67 -2000 010/15G24 RMK AO2 SNE0358 P0000 T00221033
53915KARA ARA20161218224013112/18/16 22:40:31  5-MIN KARA 190440Z AUTO 02016G24KT 10SM CLR 02/M03 A3044 -440 67 -2000 010/16G24 RMK AO2 SNE0358 P0000 T00221033
53915KARA ARA20161218224513112/18/16 22:45:31  5-MIN KARA 190445Z AUTO 02014G22KT 10SM CLR 02/M03 A3044 -450 67 -2000 020/14G22 RMK AO2 SNE0358 P0000 T00221033
53915KARA ARA20161218225014112/18/16 22:50:31  5-MIN KARA 190450Z AUTO 01017G22KT 10SM FEW034 02/M03 A3044 -450 67 -2000 010/17G22 RMK AO2 SNE0358 SLP308 P0000 T00221033
53915KARA ARA20161218225511412/18/16 22:55:31  5-MIN KARA 190455Z AUTO 02015KT 10SM SCT034 02/M03 A3044 -450 67 -2000 020/15 RMK AO2 T00221033
53915KARA ARA20161218230011412/18/16 23:00:31  5-MIN KARA 190500Z AUTO 01015KT 10SM BKN036 03/M03 A3044 -450 64 -2000 010/15 RMK AO2 T00281033
53915KARA ARA20161218230512012/18/16 23:05:31  5-MIN KARA 190505Z AUTO 02012G21KT 10SM BKN036 03/M03 A3044 -450 64 -2000 020/12G21 RMK AO2 T00281033
53915KARA ARA20161218231012012/18/16 23:10:31  5-MIN KARA 190510Z AUTO 02015G22KT 10SM BKN035 03/M03 A3044 -450 64 -2000 020/15G22 RMK AO2 T00281033
53915KARA ARA20161218231512012/18/16 23:15:31  5-MIN KARA 190515Z AUTO 02015G22KT 10SM OVC035 03/M03 A3045 -450 64 -2000 010/15G22 RMK AO2 T00281033
53915KARA ARA20161218232011412/18/16 23:20:31  5-MIN KARA 190520Z AUTO 01015KT 10SM OVC035 03/M03 A3045 -450 64 -2000 010/15 RMK AO2 T00281033
53915KARA ARA20161218232511412/18/16 23:25:31  5-MIN KARA 190525Z AUTO 01016KT 10SM OVC035 03/M03 A3045 -460 64 -2000 010/16 RMK AO2 T00281033
53915KARA ARA20161218233011412/18/16 23:30:31  5-MIN KARA 190530Z AUTO 02017KT 10SM OVC035 03/M03 A3044 -450 64 -2000 020/17 RMK AO2 T00281033
53915KARA ARA20161218233512012/18/16 23:35:31  5-MIN KARA 190535Z AUTO 02017G25KT 10SM OVC035 03/M03 A3045 -450 64 -2000 010/17G25 RMK AO2 T00281033
53915KARA ARA20161218234012012/18/16 23:40:31  5-MIN KARA 190540Z AUTO 02016G25KT 10SM OVC035 02/M03 A3046 -460 67 -2000 020/16G25 RMK AO2 T00221033
53915KARA ARA20161218234512012/18/16 23:45:31  5-MIN KARA 190545Z AUTO 36016G24KT 10SM OVC035 03/M03 A3046 -460 64 -2000 360/16G24 RMK AO2 T00281033
53915KARA ARA20161218235015512/18/16 23:50:31  5-MIN KARA 190550Z AUTO 01017KT 10SM OVC035 02/M03 A3046 -460 67 -2000 010/17 RMK AO2 SLP312 60000 T00221033 10050 20022 402220022 53020
53915KARA ARA20161218235511412/18/16 23:55:31  5-MIN KARA 190555Z AUTO 02016KT 10SM OVC035 02/M03 A3045 -460 67 -2000 020/16 RMK AO2 T00221033
53915KARA ARA20161219000012012/19/16 00:00:31  5-MIN KARA 190600Z AUTO 01014G21KT 10SM OVC035 02/M03 A3045 -460 67 -2000 360/14G21 RMK AO2 T00221033
53915KARA ARA20161219000512012/19/16 00:05:31  5-MIN KARA 190605Z AUTO 02017G21KT 10SM OVC035 02/M03 A3046 -460 67 -2000 010/17G21 RMK AO2 T00221033
53915KARA ARA20161219001011412/19/16 00:10:31  5-MIN KARA 190610Z AUTO 02015KT 10SM OVC035 02/M04 A3045 -450 64 -2000 020/15 RMK AO2 T00221039
53915KARA ARA20161219001512012/19/16 00:15:31  5-MIN KARA 190615Z AUTO 02018G25KT 10SM OVC033 02/M03 A3045 -460 67 -2000 020/18G25 RMK AO2 T00221033
53915KARA ARA20161219002012012/19/16 00:20:31  5-MIN KARA 190620Z AUTO 02016G25KT 10SM OVC033 02/M04 A3045 -460 64 -2000 020/16G25 RMK AO2 T00221039
53915KARA ARA20161219002512012/19/16 00:25:31  5-MIN KARA 190625Z AUTO 02019G25KT 10SM OVC033 02/M03 A3045 -460 67 -2000 020/19G25 RMK AO2 T00221033
53915KARA ARA20161219003012012/19/16 00:30:31  5-MIN KARA 190630Z AUTO 02017G25KT 10SM OVC033 02/M04 A3045 -450 64 -2000 020/17G25 RMK AO2 T00221039
53915KARA ARA20161219003512012/19/16 00:35:31  5-MIN KARA 190635Z AUTO 02017G23KT 10SM OVC033 02/M03 A3045 -450 67 -2000 010/17G23 RMK AO2 T00221033
53915KARA ARA20161219004012012/19/16 00:40:31  5-MIN KARA 190640Z AUTO 02012G23KT 10SM OVC033 02/M03 A3045 -450 67 -2000 020/12G23 RMK AO2 T00221033
53915KARA ARA20161219004512012/19/16 00:45:31  5-MIN KARA 190645Z AUTO 02018G22KT 10SM OVC033 02/M03 A3045 -460 67 -2000 020/18G22 RMK AO2 T00221033
53915KARA ARA20161219005012712/19/16 00:50:31  5-MIN KARA 190650Z AUTO 02012G23KT 10SM OVC033 02/M03 A3046 -460 67 -2000 020/12G23 RMK AO2 SLP313 T00221033
53915KARA ARA20161219005512012/19/16 00:55:31  5-MIN KARA 190655Z AUTO 02018G23KT 10SM OVC033 02/M03 A3046 -460 67 -2000 020/18G23 RMK AO2 T00221033
53915KARA ARA20161219010011412/19/16 01:00:31  5-MIN KARA 190700Z AUTO 01015KT 10SM OVC033 02/M03 A3046 -460 67 -2000 010/15 RMK AO2 T00221033
53915KARA ARA20161219010511412/19/16 01:05:31  5-MIN KARA 190705Z AUTO 01017KT 10SM OVC033 02/M03 A3046 -460 67 -2000 010/17 RMK AO2 T00221033
53915KARA ARA20161219011012012/19/16 01:10:31  5-MIN KARA 190710Z AUTO 01014G22KT 10SM OVC032 02/M04 A3046 -460 64 -2000 010/14G22 RMK AO2 T00221039
53915KARA ARA20161219011513812/19/16 01:15:31  5-MIN KARA 190715Z AUTO 01015G27KT 10SM OVC032 02/M04 A3046 -470 64 -2100 010/15G27 RMK AO2 PK WND 01027/0712 T00221039
53915KARA ARA20161219012013812/19/16 01:20:31  5-MIN KARA 190720Z AUTO 01017G27KT 10SM OVC032 02/M04 A3047 -470 64 -2100 010/17G27 RMK AO2 PK WND 01027/0712 T00221039
53915KARA ARA20161219012513212/19/16 01:25:31  5-MIN KARA 190725Z AUTO 02018KT 10SM OVC032 02/M04 A3047 -470 64 -2100 020/18 RMK AO2 PK WND 01027/0712 T00221039
53915KARA ARA20161219013013212/19/16 01:30:31  5-MIN KARA 190730Z AUTO 01016KT 10SM OVC032 02/M04 A3046 -470 64 -2100 010/16 RMK AO2 PK WND 01027/0712 T00221039
53915KARA ARA20161219013513212/19/16 01:35:31  5-MIN KARA 190735Z AUTO 01014KT 10SM OVC032 02/M04 A3046 -470 64 -2100 010/14 RMK AO2 PK WND 01027/0712 T00221039
53915KARA ARA20161219014013812/19/16 01:40:31  5-MIN KARA 190740Z AUTO 01018G23KT 10SM OVC032 02/M04 A3046 -470 64 -2100 010/18G23 RMK AO2 PK WND 01027/0712 T00221039
53915KARA ARA20161219014513812/19/16 01:45:31  5-MIN KARA 190745Z AUTO 01014G23KT 10SM OVC032 02/M04 A3046 -470 64 -2100 010/14G23 RMK AO2 PK WND 01027/0712 T00221039
53915KARA ARA20161219015014512/19/16 01:50:31  5-MIN KARA 190750Z AUTO 01018G23KT 10SM OVC032 02/M03 A3047 -470 67 -2100 010/18G23 RMK AO2 PK WND 01027/0712 SLP316 T00221033
53915KARA ARA20161219015512012/19/16 01:55:31  5-MIN KARA 190755Z AUTO 01017G23KT 10SM OVC032 02/M04 A3047 -470 66 -2100 010/17G23 RMK AO2 T00171039
53915KARA ARA20161219020011412/19/16 02:00:31  5-MIN KARA 190800Z AUTO 01014KT 10SM OVC032 02/M04 A3047 -470 66 -2100 010/14 RMK AO2 T00171039
53915KARA ARA20161219020512012/19/16 02:05:31  5-MIN KARA 190805Z AUTO 01015G22KT 10SM OVC032 02/M04 A3047 -480 66 -2100 010/15G22 RMK AO2 T00171039
53915KARA ARA20161219021012012/19/16 02:10:31  5-MIN KARA 190810Z AUTO 01018G23KT 10SM OVC032 02/M04 A3047 -480 66 -2100 010/18G23 RMK AO2 T00171039
53915KARA ARA20161219021512012/19/16 02:15:31  5-MIN KARA 190815Z AUTO 01018G23KT 10SM OVC032 02/M04 A3047 -480 64 -2100 010/18G23 RMK AO2 T00171044
53915KARA ARA20161219022012012/19/16 02:20:31  5-MIN KARA 190820Z AUTO 01021G24KT 10SM OVC032 02/M04 A3047 -470 64 -2100 010/21G24 RMK AO2 T00171044
53915KARA ARA20161219022513012/19/16 02:25:31  5-MIN KARA 190825Z AUTO 02019KT 10SM -SN OVC031 02/M04 A3046 -470 64 -2100 010/19 RMK AO2 SNB21 P0000 T00171044
53915KARA ARA20161219023013512/19/16 02:30:31  5-MIN KARA 190830Z AUTO 01016G25KT 9SM -SN OVC031 02/M04 A3047 -480 66 -2100 010/16G25 RMK AO2 SNB21 P0000 T00171039
53915KARA ARA20161219023512812/19/16 02:35:31  5-MIN KARA 190835Z AUTO 36016KT 9SM OVC031 02/M04 A3047 -480 66 -2100 360/16 RMK AO2 SNB21E31 P0000 T00171039
53915KARA ARA20161219024013512/19/16 02:40:31  5-MIN KARA 190840Z AUTO 01020G23KT 10SM OVC031 02/M04 A3047 -480 66 -2100 010/20G23 RMK AO2 SNB21E31 P0000 T00171039
53915KARA ARA20161219024513012/19/16 02:45:31  5-MIN KARA 190845Z AUTO 01018KT 10SM -SN OVC031 02/M04 A3047 -480 66 -2100 010/18 RMK AO2 SNB21 P0000 T00171039
53915KARA ARA20161219025012512/19/16 02:50:31  5-MIN KARA 190850Z AUTO 01017G25KT 9SM -SN OVC029 02/M04 A3047 -480 66 -2100 010/17G25 RMK AO2 SNB21 P0000
53915KARA ARA20161219025512912/19/16 02:55:31  5-MIN KARA 190855Z AUTO 01016G26KT 9SM -SN OVC029 02/M04 A3048 -480 66 -2100 010/16G26 RMK AO2 P0000 T00171039
53915KARA ARA20161219030013312/19/16 03:00:31  5-MIN KARA 190900Z AUTO 01017G26KT 9SM OVC029 02/M04 A3048 -480 66 -2100 010/17G26 RMK AO2 SNE0858 P0000 T00171039
53915KARA ARA20161219030513412/19/16 03:05:31  5-MIN KARA 190905Z AUTO 01017G25KT 10SM OVC029 01/M04 A3048 -480 69 -2200 360/17G25 RMK AO2 SNE0858 P0000 T00111039
53915KARA ARA20161219031014812/19/16 03:10:31  5-MIN KARA 190910Z AUTO 01020G27KT 10SM -SN OVC029 01/M04 A3047 -480 66 -2200 010/20G27 RMK AO2 PK WND 01027/0910 P0000 T00111044
53915KARA ARA20161219031514712/19/16 03:15:31  5-MIN KARA 190915Z AUTO 01019G27KT 9SM -SN OVC029 01/M04 A3048 -480 66 -2200 010/19G27 RMK AO2 PK WND 01027/0910 P0000 T00111044
53915KARA ARA20161219032014712/19/16 03:20:31  5-MIN KARA 190920Z AUTO 02021G25KT 9SM -SN OVC029 01/M04 A3047 -470 66 -2200 020/21G25 RMK AO2 PK WND 01027/0910 P0000 T00111044
53915KARA ARA20161219032515412/19/16 03:25:31  5-MIN KARA 190925Z AUTO 01020G25KT 9SM -SN BKN029 OVC035 01/M04 A3047 -480 66 -2200 010/20G25 RMK AO2 PK WND 01027/0910 P0000 T00111044
53915KARA ARA20161219033015412/19/16 03:30:31  5-MIN KARA 190930Z AUTO 01020G25KT 9SM -SN BKN029 OVC035 01/M04 A3047 -470 66 -2200 010/20G25 RMK AO2 PK WND 01027/0910 P0000 T00111044
53915KARA ARA20161219033515412/19/16 03:35:31  5-MIN KARA 190935Z AUTO 02017G25KT 9SM -SN BKN029 OVC035 01/M04 A3047 -480 66 -2200 010/17G25 RMK AO2 PK WND 01027/0910 P0000 T00111044
53915KARA ARA20161219034015412/19/16 03:40:31  5-MIN KARA 190940Z AUTO 01017G27KT 9SM -SN BKN029 OVC035 01/M04 A3047 -480 66 -2200 010/17G27 RMK AO2 PK WND 01027/0937 P0000 T00111044
53915KARA ARA20161219034515412/19/16 03:45:31  5-MIN KARA 190945Z AUTO 01015G27KT 9SM -SN BKN029 OVC035 01/M04 A3047 -480 66 -2200 010/15G27 RMK AO2 PK WND 01027/0937 P0000 T00111044
53915KARA ARA20161219035016312/19/16 03:50:31  5-MIN KARA 190950Z AUTO 01013G22KT 9SM BKN028 OVC035 01/M04 A3048 -480 66 -2200 010/13G22 RMK AO2 PK WND 01027/0937 SNE48 SLP319 P0000 T00111044
53915KARA ARA20161219035512012/19/16 03:55:31  5-MIN KARA 190955Z AUTO 01018G24KT 10SM OVC028 01/M04 A3047 -480 66 -2200 010/18G24 RMK AO2 T00111044
53915KARA ARA20161219040012012/19/16 04:00:31  5-MIN KARA 191000Z AUTO 01019G25KT 10SM OVC028 01/M04 A3047 -470 66 -2200 010/19G25 RMK AO2 T00111044
53915KARA ARA20161219040512012/19/16 04:05:31  5-MIN KARA 191005Z AUTO 01018G25KT 10SM OVC028 01/M04 A3047 -470 66 -2200 010/18G25 RMK AO2 T00111044
53915KARA ARA20161219041012012/19/16 04:10:31  5-MIN KARA 191010Z AUTO 02018G24KT 10SM OVC028 01/M04 A3047 -480 66 -2200 020/18G24 RMK AO2 T00111044
53915KARA ARA20161219041512012/19/16 04:15:31  5-MIN KARA 191015Z AUTO 01015G23KT 10SM OVC029 01/M04 A3048 -480 66 -2200 010/15G23 RMK AO2 T00111044
53915KARA ARA20161219042012012/19/16 04:20:31  5-MIN KARA 191020Z AUTO 02017G23KT 10SM OVC029 01/M04 A3047 -480 66 -2200 020/17G23 RMK AO2 T00111044
53915KARA ARA20161219042512012/19/16 04:25:31  5-MIN KARA 191025Z AUTO 01018G23KT 10SM OVC029 01/M04 A3047 -470 66 -2200 010/18G23 RMK AO2 T00111044
53915KARA ARA20161219043011412/19/16 04:30:31  5-MIN KARA 191030Z AUTO 02017KT 10SM OVC028 01/M04 A3047 -480 66 -2200 010/17 RMK AO2 T00111044
53915KARA ARA20161219043511412/19/16 04:35:31  5-MIN KARA 191035Z AUTO 01017KT 10SM OVC028 01/M04 A3047 -470 66 -2200 010/17 RMK AO2 T00111044
53915KARA ARA20161219044011412/19/16 04:40:31  5-MIN KARA 191040Z AUTO 02019KT 10SM OVC028 01/M04 A3047 -470 66 -2200 020/19 RMK AO2 T00111044
53915KARA ARA20161219044511412/19/16 04:45:31  5-MIN KARA 191045Z AUTO 01016KT 10SM OVC028 01/M04 A3046 -470 66 -2200 010/16 RMK AO2 T00111044
53915KARA ARA20161219045012112/19/16 04:50:31  5-MIN KARA 191050Z AUTO 02015KT 10SM OVC028 01/M04 A3046 -470 66 -2200 020/15 RMK AO2 SLP314 T00111044
53915KARA ARA20161219045511412/19/16 04:55:31  5-MIN KARA 191055Z AUTO 01014KT 10SM OVC028 01/M04 A3046 -470 66 -2200 010/14 RMK AO2 T00111044
53915KARA ARA20161219050012012/19/16 05:00:31  5-MIN KARA 191100Z AUTO 02016G23KT 10SM OVC028 01/M04 A3047 -470 66 -2200 020/16G23 RMK AO2 T00111044
53915KARA ARA20161219050512012/19/16 05:05:31  5-MIN KARA 191105Z AUTO 02017G23KT 10SM OVC029 01/M04 A3046 -470 66 -2200 020/17G23 RMK AO2 T00111044
53915KARA ARA20161219051011412/19/16 05:10:31  5-MIN KARA 191110Z AUTO 01013KT 10SM OVC029 01/M04 A3047 -470 66 -2200 010/13 RMK AO2 T00111044
53915KARA ARA20161219051511412/19/16 05:15:31  5-MIN KARA 191115Z AUTO 02017KT 10SM OVC029 01/M04 A3047 -470 66 -2200 020/17 RMK AO2 T00111044
53915KARA ARA20161219052011412/19/16 05:20:31  5-MIN KARA 191120Z AUTO 01017KT 10SM OVC029 01/M04 A3047 -470 66 -2200 010/17 RMK AO2 T00111044
53915KARA ARA20161219052512012/19/16 05:25:31  5-MIN KARA 191125Z AUTO 01017G23KT 10SM OVC029 01/M04 A3047 -470 66 -2200 010/17G23 RMK AO2 T00111044
53915KARA ARA20161219053012012/19/16 05:30:31  5-MIN KARA 191130Z AUTO 01015G23KT 10SM OVC029 01/M04 A3048 -480 66 -2200 010/15G23 RMK AO2 T00111044
53915KARA ARA20161219053511412/19/16 05:35:31  5-MIN KARA 191135Z AUTO 01015KT 10SM OVC029 01/M04 A3048 -480 69 -2300 010/15 RMK AO2 T00061044
53915KARA ARA20161219054011412/19/16 05:40:31  5-MIN KARA 191140Z AUTO 01015KT 10SM OVC029 01/M04 A3049 -490 69 -2300 010/15 RMK AO2 T00061044
53915KARA ARA20161219054512712/19/16 05:45:31  5-MIN KARA 191145Z AUTO 01015G22KT 10SM OVC029 01/M04 A3050 -500 69 -2300 010/15G22 RMK AO2 PRESRR T00061044
53915KARA ARA20161219055015112/19/16 05:50:31  5-MIN KARA 191150Z AUTO 36018KT 10SM OVC029 01/M04 A3050 -500 69 -2300 360/18 RMK AO2 SLP327 60000 70003 T00061044 10022 20006 51006
53915KARA ARA20161219055512012/19/16 05:55:31  5-MIN KARA 191155Z AUTO 01018G26KT 10SM OVC029 01/M05 A3050 -500 66 -2300 360/18G26 RMK AO2 T00061050
53915KARA ARA20161219060012012/19/16 06:00:31  5-MIN KARA 191200Z AUTO 01017G26KT 10SM OVC029 01/M05 A3050 -500 66 -2300 010/17G26 RMK AO2 T00061050
53915KARA ARA20161219060512012/19/16 06:05:31  5-MIN KARA 191205Z AUTO 02016G24KT 10SM OVC029 01/M05 A3050 -500 66 -2300 020/16G24 RMK AO2 T00061050
53915KARA ARA20161219061012012/19/16 06:10:31  5-MIN KARA 191210Z AUTO 01020G24KT 10SM OVC030 01/M05 A3050 -500 66 -2300 010/20G24 RMK AO2 T00061050
53915KARA ARA20161219061512012/19/16 06:15:31  5-MIN KARA 191215Z AUTO 01015G24KT 10SM OVC030 01/M05 A3050 -500 66 -2300 010/15G24 RMK AO2 T00061050
53915KARA ARA20161219062011412/19/16 06:20:31  5-MIN KARA 191220Z AUTO 01016KT 10SM OVC030 01/M05 A3050 -500 66 -2300 010/16 RMK AO2 T00061050
53915KARA ARA20161219062512012/19/16 06:25:31  5-MIN KARA 191225Z AUTO 01017G25KT 10SM OVC030 01/M05 A3050 -500 66 -2300 010/17G25 RMK AO2 T00061050
53915KARA ARA20161219063012012/19/16 06:30:31  5-MIN KARA 191230Z AUTO 01017G25KT 10SM OVC030 01/M05 A3050 -500 66 -2300 010/17G25 RMK AO2 T00061050
53915KARA ARA20161219063512012/19/16 06:35:31  5-MIN KARA 191235Z AUTO 02020G24KT 10SM OVC030 01/M05 A3050 -500 66 -2300 020/20G24 RMK AO2 T00061050
53915KARA ARA20161219064012012/19/16 06:40:31  5-MIN KARA 191240Z AUTO 02017G24KT 10SM OVC030 00/M05 A3050 -500 69 -2400 020/17G24 RMK AO2 T00001050
53915KARA ARA20161219064511412/19/16 06:45:31  5-MIN KARA 191245Z AUTO 01020KT 10SM OVC030 00/M05 A3050 -500 69 -2400 010/20 RMK AO2 T00001050
53915KARA ARA20161219065014512/19/16 06:50:31  5-MIN KARA 191250Z AUTO 01019G26KT 10SM OVC030 00/M05 A3050 -500 69 -2400 010/19G26 RMK AO2 PK WND 01026/1248 SLP327 T00001050
53915KARA ARA20161219065512012/19/16 06:55:31  5-MIN KARA 191255Z AUTO 02019G26KT 10SM OVC032 00/M05 A3050 -500 69 -2400 010/19G26 RMK AO2 T00001050
53915KARA ARA20161219070012012/19/16 07:00:31  5-MIN KARA 191300Z AUTO 02019G24KT 10SM OVC032 00/M05 A3051 -510 69 -2400 010/19G24 RMK AO2 T00001050
53915KARA ARA20161219070512012/19/16 07:05:31  5-MIN KARA 191305Z AUTO 01016G24KT 10SM OVC032 00/M05 A3051 -510 69 -2400 010/16G24 RMK AO2 T00001050
53915KARA ARA20161219071011412/19/16 07:10:31  5-MIN KARA 191310Z AUTO 02016KT 10SM OVC033 00/M05 A3051 -510 69 -2400 020/16 RMK AO2 T00001050
53915KARA ARA20161219071511412/19/16 07:15:31  5-MIN KARA 191315Z AUTO 02015KT 10SM OVC033 00/M05 A3051 -510 69 -2400 020/15 RMK AO2 T00001050
53915KARA ARA20161219072011412/19/16 07:20:31  5-MIN KARA 191320Z AUTO 02013KT 10SM OVC033 00/M05 A3052 -520 69 -2400 020/13 RMK AO2 T00001050
53915KARA ARA20161219072511412/19/16 07:25:31  5-MIN KARA 191325Z AUTO 02014KT 10SM BKN034 00/M05 A3051 -510 69 -2400 020/14 RMK AO2 T00001050
53915KARA ARA20161219073011412/19/16 07:30:31  5-MIN KARA 191330Z AUTO 02012KT 10SM BKN034 00/M05 A3052 -520 69 -2400 010/12 RMK AO2 T00001050
53915KARA ARA20161219073512012/19/16 07:35:31  5-MIN KARA 191335Z AUTO 02014G20KT 10SM SCT034 00/M05 A3052 -520 69 -2400 020/14G20 RMK AO2 T00001050
53915KARA ARA20161219074012012/19/16 07:40:31  5-MIN KARA 191340Z AUTO 02014G20KT 10SM SCT034 00/M05 A3052 -520 69 -2400 020/14G20 RMK AO2 T00001050
53915KARA ARA20161219074511412/19/16 07:45:31  5-MIN KARA 191345Z AUTO 02015KT 10SM FEW034 00/M05 A3053 -530 69 -2400 010/15 RMK AO2 T00001050
53915KARA ARA20161219075011812/19/16 07:50:31  5-MIN KARA 191350Z AUTO 01013KT 10SM CLR 00/M05 A3053 -530 69 -2400 010/13 RMK AO2 SLP337 T00001050
53915KARA ARA20161219075511112/19/16 07:55:31  5-MIN KARA 191355Z AUTO 02013KT 10SM CLR 00/M05 A3053 -530 69 -2400 010/13 RMK AO2 T00001050
53915KARA ARA20161219080011712/19/16 08:00:31  5-MIN KARA 191400Z AUTO 01010G19KT 10SM CLR 00/M05 A3053 -530 69 -2400 010/10G19 RMK AO2 T00001050
53915KARA ARA20161219080511112/19/16 08:05:31  5-MIN KARA 191405Z AUTO 02013KT 10SM CLR 01/M04 A3053 -530 69 -2300 020/13 RMK AO2 T00061044
53915KARA ARA20161219081011712/19/16 08:10:31  5-MIN KARA 191410Z AUTO 02016G21KT 10SM CLR 01/M05 A3053 -530 66 -2300 020/16G21 RMK AO2 T00061050
53915KARA ARA20161219081511712/19/16 08:15:31  5-MIN KARA 191415Z AUTO 01016G21KT 10SM CLR 01/M05 A3054 -530 66 -2400 010/16G21 RMK AO2 T00061050
53915KARA ARA20161219082010612/19/16 08:20:31  5-MIN KARA 191420Z 01014KT 10SM CLR 01/M05 A3054 -540 66 -2400 010/14 RMK AO2 T00061050
53915KARA ARA20161219082510612/19/16 08:25:31  5-MIN KARA 191425Z 02015KT 10SM CLR 01/M04 A3054 -540 69 -2400 020/15 RMK AO2 T00061044
53915KARA ARA20161219083010612/19/16 08:30:31  5-MIN KARA 191430Z 02015KT 10SM CLR 01/M04 A3054 -540 66 -2300 020/15 RMK AO2 T00111044
53915KARA ARA20161219083511212/19/16 08:35:31  5-MIN KARA 191435Z 01017G21KT 10SM CLR 01/M04 A3054 -540 66 -2300 010/17G21 RMK AO2 T00111044
53915KARA ARA20161219084010612/19/16 08:40:31  5-MIN KARA 191440Z 02016KT 10SM CLR 01/M04 A3054 -540 66 -2300 020/16 RMK AO2 T00111044
53915KARA ARA20161219084511212/19/16 08:45:31  5-MIN KARA 191445Z 01014G23KT 10SM CLR 01/M04 A3054 -540 66 -2300 010/14G23 RMK AO2 T00111044
53915KARA ARA20161219085012512/19/16 08:50:31  5-MIN KARA 191450Z 01017G23KT 10SM CLR 02/M04 A3054 -540 64 -2200 010/17G23 RMK AO2 SLP342 T00171044 53009
53915KARA ARA20161219085511212/19/16 08:55:31  5-MIN KARA 191455Z 01014G22KT 10SM CLR 02/M04 A3054 -540 64 -2200 010/14G22 RMK AO2 T00171044
53915KARA ARA20161219090010612/19/16 09:00:31  5-MIN KARA 191500Z 02013KT 10SM CLR 02/M04 A3054 -540 64 -2200 020/13 RMK AO2 T00171044
53915KARA ARA20161219090510612/19/16 09:05:31  5-MIN KARA 191505Z 02015KT 10SM CLR 02/M04 A3055 -540 61 -2200 020/15 RMK AO2 T00221044
53915KARA ARA20161219091010612/19/16 09:10:31  5-MIN KARA 191510Z 01014KT 10SM CLR 02/M04 A3055 -550 61 -2200 010/14 RMK AO2 T00221044
53915KARA ARA20161219091510612/19/16 09:15:31  5-MIN KARA 191515Z 01015KT 10SM CLR 02/M04 A3055 -550 61 -2200 010/15 RMK AO2 T00221044
53915KARA ARA20161219092010612/19/16 09:20:31  5-MIN KARA 191520Z 01015KT 10SM CLR 03/M04 A3056 -560 59 -2100 010/15 RMK AO2 T00281044
53915KARA ARA20161219092511212/19/16 09:25:31  5-MIN KARA 191525Z 03016G21KT 10SM CLR 03/M04 A3056 -560 59 -2100 020/16G21 RMK AO2 T00281044
53915KARA ARA20161219093010612/19/16 09:30:31  5-MIN KARA 191530Z 02014KT 10SM CLR 03/M04 A3057 -560 61 -2100 020/14 RMK AO2 T00281039
53915KARA ARA20161219093510612/19/16 09:35:31  5-MIN KARA 191535Z 36013KT 10SM CLR 03/M04 A3057 -560 59 -2100 360/13 RMK AO2 T00281044
53915KARA ARA20161219094010612/19/16 09:40:31  5-MIN KARA 191540Z 01014KT 10SM CLR 03/M04 A3056 -560 59 -2100 010/14 RMK AO2 T00281044
53915KARA ARA20161219094510612/19/16 09:45:31  5-MIN KARA 191545Z 36015KT 10SM CLR 03/M04 A3056 -560 59 -2100 360/15 RMK AO2 T00281044
53915KARA ARA20161219095011312/19/16 09:50:31  5-MIN KARA 191550Z 36013KT 10SM CLR 03/M04 A3056 -560 59 -2100 360/13 RMK AO2 SLP349 T00281044
53915KARA ARA20161219095510612/19/16 09:55:31  5-MIN KARA 191555Z 36013KT 10SM CLR 03/M04 A3056 -560 59 -2100 360/13 RMK AO2 T00281044
53915KARA ARA20161219100010612/19/16 10:00:31  5-MIN KARA 191600Z 36013KT 10SM CLR 03/M04 A3057 -560 57 -2000 360/13 RMK AO2 T00331044
53915KARA ARA20161219100510612/19/16 10:05:31  5-MIN KARA 191605Z 36015KT 10SM CLR 03/M04 A3056 -560 57 -2000 360/15 RMK AO2 T00331044
53915KARA ARA20161219101011212/19/16 10:10:31  5-MIN KARA 191610Z 02013G22KT 10SM CLR 04/M04 A3056 -550 57 -2000 020/13G22 RMK AO2 T00391039
53915KARA ARA20161219101511212/19/16 10:15:31  5-MIN KARA 191615Z 01014G22KT 10SM CLR 04/M04 A3056 -550 57 -2000 010/14G22 RMK AO2 T00391039
53915KARA ARA20161219102010612/19/16 10:20:31  5-MIN KARA 191620Z 02014KT 10SM CLR 04/M04 A3055 -550 54 -1900 020/14 RMK AO2 T00391044
53915KARA ARA20161219102510612/19/16 10:25:31  5-MIN KARA 191625Z 02017KT 10SM CLR 04/M04 A3055 -540 54 -1900 020/17 RMK AO2 T00391044
53915KARA ARA20161219103010612/19/16 10:30:31  5-MIN KARA 191630Z 02013KT 10SM CLR 04/M04 A3055 -540 54 -1900 020/13 RMK AO2 T00391044
53915KARA ARA20161219103510612/19/16 10:35:31  5-MIN KARA 191635Z 36015KT 10SM CLR 04/M04 A3055 -540 55 -1900 360/15 RMK AO2 T00441039
53915KARA ARA20161219104010612/19/16 10:40:31  5-MIN KARA 191640Z 36015KT 10SM CLR 04/M04 A3055 -540 57 -1900 360/15 RMK AO2 T00391039
53915KARA ARA20161219104510612/19/16 10:45:31  5-MIN KARA 191645Z 36012KT 10SM CLR 04/M04 A3055 -540 55 -1900 350/12 RMK AO2 T00441039
53915KARA ARA20161219105011312/19/16 10:50:31  5-MIN KARA 191650Z 36014KT 10SM CLR 04/M04 A3054 -540 55 -1900 360/14 RMK AO2 SLP342 T00441039
53915KARA ARA20161219105510612/19/16 10:55:31  5-MIN KARA 191655Z 01014KT 10SM CLR 05/M04 A3054 -540 52 -1800 010/14 RMK AO2 T00501039
53915KARA ARA20161219110011212/19/16 11:00:31  5-MIN KARA 191700Z 01012G20KT 10SM CLR 05/M04 A3054 -540 52 -1800 010/12G20 RMK AO2 T00501039
53915KARA ARA20161219110511212/19/16 11:05:31  5-MIN KARA 191705Z 02014G21KT 10SM CLR 05/M04 A3053 -530 52 -1800 020/14G21 RMK AO2 T00501039
53915KARA ARA20161219111011212/19/16 11:10:31  5-MIN KARA 191710Z 36013G21KT 10SM CLR 06/M03 A3053 -530 53 -1700 360/13G21 RMK AO2 T00561033
53915KARA ARA20161219111510612/19/16 11:15:31  5-MIN KARA 191715Z 35013KT 10SM CLR 06/M03 A3054 -530 53 -1700 350/13 RMK AO2 T00561033
53915KARA ARA20161219112010612/19/16 11:20:31  5-MIN KARA 191720Z 36013KT 10SM CLR 06/M04 A3054 -530 50 -1700 360/13 RMK AO2 T00561039
53915KARA ARA20161219112510612/19/16 11:25:31  5-MIN KARA 191725Z 36015KT 10SM CLR 06/M04 A3053 -530 50 -1700 360/15 RMK AO2 T00561039
53915KARA ARA20161219113010612/19/16 11:30:31  5-MIN KARA 191730Z 36015KT 10SM CLR 06/M04 A3053 -530 50 -1700 360/15 RMK AO2 T00561039
53915KARA ARA20161219113510612/19/16 11:35:31  5-MIN KARA 191735Z 01014KT 10SM CLR 06/M03 A3053 -520 53 -1700 010/14 RMK AO2 T00561033
53915KARA ARA20161219114010612/19/16 11:40:31  5-MIN KARA 191740Z 35013KT 10SM CLR 06/M03 A3052 -520 53 -1700 350/13 RMK AO2 T00561033
53915KARA ARA20161219114510612/19/16 11:45:31  5-MIN KARA 191745Z 01014KT 10SM CLR 06/M03 A3052 -520 51 -1600 010/14 RMK AO2 T00611033
53915KARA ARA20161219115013412/19/16 11:50:31  5-MIN KARA 191750Z 01013KT 10SM SCT090 07/M03 A3052 -520 49 -1600 010/13 RMK AO2 SLP333 T00671033 10067 20000 53014
53915KARA ARA20161219115510912/19/16 11:55:31  5-MIN KARA 191755Z 36016KT 10SM BKN090 07/M03 A3052 -520 49 -1600 360/16 RMK AO2 T00671033
53915KARA ARA20161219120010912/19/16 12:00:31  5-MIN KARA 191800Z 36014KT 10SM BKN090 07/M04 A3052 -520 47 -1600 350/14 RMK AO2 T00671039
53915KARA ARA20161219120510912/19/16 12:05:31  5-MIN KARA 191805Z 36015KT 10SM BKN090 06/M04 A3052 -520 50 -1700 360/15 RMK AO2 T00561039
53915KARA ARA20161219121010912/19/16 12:10:31  5-MIN KARA 191810Z 01014KT 10SM OVC090 05/M04 A3052 -520 50 -1800 360/14 RMK AO2 T00501044
53915KARA ARA20161219121510912/19/16 12:15:31  5-MIN KARA 191815Z 36015KT 10SM OVC090 06/M04 A3052 -510 50 -1700 360/15 RMK AO2 T00561039
53915KARA ARA20161219122010912/19/16 12:20:31  5-MIN KARA 191820Z 36013KT 10SM OVC090 05/M04 A3051 -510 52 -1800 350/13 RMK AO2 T00501039
53915KARA ARA20161219122510912/19/16 12:25:31  5-MIN KARA 191825Z 36013KT 10SM OVC090 05/M03 A3051 -510 55 -1800 360/13 RMK AO2 T00501033
53915KARA ARA20161219123010912/19/16 12:30:31  5-MIN KARA 191830Z 36010KT 10SM OVC090 05/M03 A3051 -510 55 -1800 360/10 RMK AO2 T00501033
53915KARA ARA20161219123511512/19/16 12:35:31  5-MIN KARA 191835Z 36015G20KT 10SM OVC090 06/M03 A3051 -510 51 -1600 360/15G20 RMK AO2 T00611033
53915KARA ARA20161219124010912/19/16 12:40:31  5-MIN KARA 191840Z 01013KT 10SM OVC090 06/M03 A3050 -500 53 -1700 010/13 RMK AO2 T00561033
53915KARA ARA20161219124510912/19/16 12:45:31  5-MIN KARA 191845Z 01015KT 10SM OVC085 06/M03 A3050 -500 51 -1600 010/15 RMK AO2 T00611033
53915KARA ARA20161219125011612/19/16 12:50:31  5-MIN KARA 191850Z 36016KT 10SM OVC085 06/M04 A3050 -500 50 -1700 360/16 RMK AO2 SLP326 T00561039
53915KARA ARA20161219125510912/19/16 12:55:31  5-MIN KARA 191855Z 35015KT 10SM OVC085 06/M03 A3050 -500 53 -1700 350/15 RMK AO2 T00561033
53915KARA ARA20161219130010912/19/16 13:00:31  5-MIN KARA 191900Z 36015KT 10SM OVC085 06/M03 A3050 -500 51 -1600 360/15 RMK AO2 T00611033
53915KARA ARA20161219130510912/19/16 13:05:31  5-MIN KARA 191905Z 01014KT 10SM BKN090 05/M04 A3050 -500 52 -1700 010/14 RMK AO2 T00501039
53915KARA ARA20161219131011612/19/16 13:10:31  5-MIN KARA 191910Z 01015KT 10SM SCT080 BKN100 05/M04 A3050 -500 52 -1700 360/15 RMK AO2 T00501039
53915KARA ARA20161219131511612/19/16 13:15:31  5-MIN KARA 191915Z 36014KT 10SM SCT080 BKN100 05/M04 A3050 -500 52 -1700 360/14 RMK AO2 T00501039
53915KARA ARA20161219132011612/19/16 13:20:31  5-MIN KARA 191920Z 36013KT 10SM SCT080 BKN100 06/M03 A3049 -490 53 -1700 360/13 RMK AO2 T00561033
53915KARA ARA20161219132511612/19/16 13:25:31  5-MIN KARA 191925Z 36013KT 10SM FEW080 SCT100 06/M03 A3049 -490 53 -1700 360/13 RMK AO2 T00561033
53915KARA ARA20161219133011612/19/16 13:30:31  5-MIN KARA 191930Z 01011KT 10SM FEW080 FEW100 07/M03 A3049 -490 49 -1500 010/11 RMK AO2 T00671033
53915KARA ARA20161219133512212/19/16 13:35:31  5-MIN KARA 191935Z 01015G19KT 10SM FEW080 FEW100 07/M04 A3049 -490 47 -1500 010/15G19 RMK AO2 T00671039
53915KARA ARA20161219134010912/19/16 13:40:31  5-MIN KARA 191940Z 02015KT 10SM FEW080 07/M04 A3048 -490 47 -1500 020/15 RMK AO2 T00671039
53915KARA ARA20161219134510912/19/16 13:45:31  5-MIN KARA 191945Z 02015KT 10SM FEW080 06/M04 A3048 -490 48 -1600 020/15 RMK AO2 T00611039
53915KARA ARA20161219135012312/19/16 13:50:31  5-MIN KARA 191950Z 02012KT 10SM FEW080 FEW090 06/M04 A3048 -490 48 -1600 020/12 RMK AO2 SLP322 T00611039
53915KARA ARA20161219135510912/19/16 13:55:31  5-MIN KARA 191955Z 02012KT 10SM SCT090 07/M03 A3048 -480 49 -1500 020/12 RMK AO2 T00671033
53915KARA ARA20161219140010912/19/16 14:00:31  5-MIN KARA 192000Z 36012KT 10SM BKN095 06/M03 A3048 -480 51 -1600 360/12 RMK AO2 T00611033
53915KARA ARA20161219140510912/19/16 14:05:31  5-MIN KARA 192005Z 02013KT 10SM BKN095 07/M04 A3048 -480 47 -1500 020/13 RMK AO2 T00671039
53915KARA ARA20161219141010912/19/16 14:10:31  5-MIN KARA 192010Z 03012KT 10SM BKN095 06/M04 A3048 -480 48 -1600 030/12 RMK AO2 T00611039
53915KARA ARA20161219141510912/19/16 14:15:31  5-MIN KARA 192015Z 36011KT 10SM OVC095 07/M03 A3048 -490 49 -1500 360/11 RMK AO2 T00671033
53915KARA ARA20161219142010912/19/16 14:20:31  5-MIN KARA 192020Z 35011KT 10SM OVC095 07/M03 A3048 -490 49 -1500 350/11 RMK AO2 T00671033
53915KARA ARA20161219142510912/19/16 14:25:31  5-MIN KARA 192025Z 02011KT 10SM OVC095 07/M03 A3048 -480 49 -1500 020/11 RMK AO2 T00671033
53915KARA ARA20161219143010912/19/16 14:30:31  5-MIN KARA 192030Z 02012KT 10SM OVC095 07/M03 A3048 -480 47 -1500 020/12 RMK AO2 T00721033
53915KARA ARA20161219143511512/19/16 14:35:31  5-MIN KARA 192035Z 03013G19KT 10SM OVC095 07/M03 A3048 -480 47 -1500 030/13G19 RMK AO2 T00721033
53915KARA ARA20161219144011512/19/16 14:40:31  5-MIN KARA 192040Z 02014G19KT 10SM OVC095 07/M04 A3048 -480 45 -1500 020/14G19 RMK AO2 T00721039
53915KARA ARA20161219144510912/19/16 14:45:31  5-MIN KARA 192045Z 02013KT 10SM OVC095 07/M04 A3048 -490 45 -1500 020/13 RMK AO2 T00721039
53915KARA ARA20161219145012212/19/16 14:50:31  5-MIN KARA 192050Z 02014KT 10SM OVC095 07/M04 A3048 -480 45 -1500 020/14 RMK AO2 SLP321 T00721039 58009
53915KARA ARA20161219145510912/19/16 14:55:31  5-MIN KARA 192055Z 02013KT 10SM OVC095 07/M03 A3048 -490 47 -1500 010/13 RMK AO2 T00721033
53915KARA ARA20161219150010912/19/16 15:00:31  5-MIN KARA 192100Z 36013KT 10SM OVC095 08/M03 A3048 -490 45 -1400 360/13 RMK AO2 T00781033
53915KARA ARA20161219150510912/19/16 15:05:31  5-MIN KARA 192105Z 02013KT 10SM BKN095 07/M03 A3048 -480 47 -1500 020/13 RMK AO2 T00721033
53915KARA ARA20161219151010912/19/16 15:10:31  5-MIN KARA 192110Z 02013KT 10SM BKN095 08/M03 A3048 -490 45 -1400 020/13 RMK AO2 T00781033
53915KARA ARA20161219151510912/19/16 15:15:31  5-MIN KARA 192115Z 01015KT 10SM SCT095 08/M03 A3048 -480 43 -1300 010/15 RMK AO2 T00831033
53915KARA ARA20161219152010912/19/16 15:20:31  5-MIN KARA 192120Z 01014KT 10SM SCT095 08/M04 A3048 -480 43 -1400 010/14 RMK AO2 T00781039
53915KARA ARA20161219152510912/19/16 15:25:31  5-MIN KARA 192125Z 01016KT 10SM FEW095 08/M04 A3048 -480 43 -1400 010/16 RMK AO2 T00781039
53915KARA ARA20161219153010612/19/16 15:30:31  5-MIN KARA 192130Z 01015KT 10SM CLR 08/M04 A3048 -480 43 -1400 010/15 RMK AO2 T00781039
53915KARA ARA20161219153510612/19/16 15:35:31  5-MIN KARA 192135Z 36014KT 10SM CLR 07/M04 A3048 -490 45 -1500 360/14 RMK AO2 T00721039
53915KARA ARA20161219154010612/19/16 15:40:31  5-MIN KARA 192140Z 02018KT 10SM CLR 07/M04 A3048 -490 45 -1500 020/18 RMK AO2 T00721039
53915KARA ARA20161219154510612/19/16 15:45:31  5-MIN KARA 192145Z 02015KT 10SM CLR 07/M04 A3048 -490 45 -1500 020/15 RMK AO2 T00721039
53915KARA ARA20161219155011312/19/16 15:50:31  5-MIN KARA 192150Z 01015KT 10SM CLR 07/M04 A3048 -490 45 -1500 010/15 RMK AO2 SLP322 T00721039
53915KARA ARA20161219155510612/19/16 15:55:31  5-MIN KARA 192155Z 01015KT 10SM CLR 07/M04 A3048 -490 45 -1500 010/15 RMK AO2 T00721039
53915KARA ARA20161219160010612/19/16 16:00:31  5-MIN KARA 192200Z 36013KT 10SM CLR 07/M04 A3048 -490 45 -1500 360/13 RMK AO2 T00721039
53915KARA ARA20161219160510612/19/16 16:05:31  5-MIN KARA 192205Z 36012KT 10SM CLR 07/M04 A3048 -480 45 -1500 360/12 RMK AO2 T00721039
53915KARA ARA20161219161010612/19/16 16:10:31  5-MIN KARA 192210Z 36011KT 10SM CLR 07/M03 A3048 -490 47 -1500 360/11 RMK AO2 T00721033
53915KARA ARA20161219161510612/19/16 16:15:31  5-MIN KARA 192215Z 01013KT 10SM CLR 07/M03 A3049 -490 47 -1500 360/13 RMK AO2 T00721033
53915KARA ARA20161219162010612/19/16 16:20:31  5-MIN KARA 192220Z 36015KT 10SM CLR 07/M03 A3049 -490 49 -1500 360/15 RMK AO2 T00671033
53915KARA ARA20161219162510612/19/16 16:25:31  5-MIN KARA 192225Z 36014KT 10SM CLR 07/M03 A3049 -490 49 -1500 360/14 RMK AO2 T00671033
53915KARA ARA20161219163010612/19/16 16:30:31  5-MIN KARA 192230Z 01012KT 10SM CLR 07/M03 A3050 -500 49 -1500 010/12 RMK AO2 T00671033
53915KARA ARA20161219163510612/19/16 16:35:31  5-MIN KARA 192235Z 02013KT 10SM CLR 07/M04 A3050 -500 47 -1500 020/13 RMK AO2 T00671039
53915KARA ARA20161219164010612/19/16 16:40:31  5-MIN KARA 192240Z 36011KT 10SM CLR 06/M04 A3050 -500 48 -1600 360/11 RMK AO2 T00611039
53915KARA ARA20161219164510612/19/16 16:45:31  5-MIN KARA 192245Z 36010KT 10SM CLR 06/M03 A3050 -500 51 -1600 360/10 RMK AO2 T00611033
53915KARA ARA20161219165011312/19/16 16:50:31  5-MIN KARA 192250Z 36012KT 10SM CLR 06/M03 A3050 -500 51 -1600 360/12 RMK AO2 SLP328 T00611033
53915KARA ARA20161219165510612/19/16 16:55:31  5-MIN KARA 192255Z 35011KT 10SM CLR 06/M04 A3050 -500 50 -1700 350/11 RMK AO2 T00561039
53915KARA ARA20161219170010612/19/16 17:00:31  5-MIN KARA 192300Z 36011KT 10SM CLR 06/M04 A3050 -500 50 -1700 360/11 RMK AO2 T00561039
53915KARA ARA20161219170510912/19/16 17:05:31  5-MIN KARA 192305Z 36011KT 10SM SCT080 06/M03 A3050 -510 53 -1700 360/11 RMK AO2 T00561033
53915KARA ARA20161219171010912/19/16 17:10:31  5-MIN KARA 192310Z 36013KT 10SM BKN080 06/M03 A3051 -510 53 -1700 360/13 RMK AO2 T00561033
53915KARA ARA20161219171510912/19/16 17:15:31  5-MIN KARA 192315Z 36012KT 10SM BKN080 06/M04 A3051 -510 50 -1700 360/12 RMK AO2 T00561039
53915KARA ARA20161219172010912/19/16 17:20:31  5-MIN KARA 192320Z 36011KT 10SM BKN080 06/M04 A3051 -510 50 -1700 360/11 RMK AO2 T00561039
53915KARA ARA20161219172510912/19/16 17:25:31  5-MIN KARA 192325Z 36010KT 10SM OVC080 06/M04 A3051 -510 50 -1700 360/10 RMK AO2 T00561039
53915KARA ARA20161219173010912/19/16 17:30:31  5-MIN KARA 192330Z 36010KT 10SM OVC080 05/M04 A3051 -510 52 -1800 360/10 RMK AO2 T00501039
53915KARA ARA20161219173510912/19/16 17:35:31  5-MIN KARA 192335Z 01013KT 10SM OVC080 05/M04 A3051 -510 52 -1800 010/13 RMK AO2 T00501039
53915KARA ARA20161219174010912/19/16 17:40:31  5-MIN KARA 192340Z 36012KT 10SM BKN080 05/M04 A3051 -510 52 -1800 360/12 RMK AO2 T00501039
53915KARA ARA20161219174510912/19/16 17:45:31  5-MIN KARA 192345Z 36012KT 10SM BKN080 05/M04 A3051 -510 52 -1800 360/12 RMK AO2 T00501039
53915KARA ARA20161219175013412/19/16 17:50:31  5-MIN KARA 192350Z 36012KT 10SM SCT080 04/M04 A3051 -510 55 -1800 360/12 RMK AO2 SLP332 T00441039 10083 20044 56012
53915KARA ARA20161219175510912/19/16 17:55:31  5-MIN KARA 192355Z 36011KT 10SM SCT080 04/M04 A3051 -510 55 -1800 360/11 RMK AO2 T00441039
53915KARA ARA20161219180010912/19/16 18:00:31  5-MIN KARA 200000Z 36013KT 10SM FEW080 04/M04 A3052 -520 55 -1800 360/13 RMK AO2 T00441039
53915KARA ARA20161219180510612/19/16 18:05:31  5-MIN KARA 200005Z 36011KT 10SM CLR 04/M04 A3052 -510 55 -1800 360/11 RMK AO2 T00441039
53915KARA ARA20161219181010612/19/16 18:10:31  5-MIN KARA 200010Z 36010KT 10SM CLR 04/M04 A3052 -520 55 -1800 360/10 RMK AO2 T00441039
53915KARA ARA20161219181510612/19/16 18:15:31  5-MIN KARA 200015Z 01011KT 10SM CLR 04/M04 A3052 -520 55 -1800 010/11 RMK AO2 T00441039
53915KARA ARA20161219182010612/19/16 18:20:31  5-MIN KARA 200020Z 01010KT 10SM CLR 04/M04 A3052 -520 55 -1800 010/10 RMK AO2 T00441039
53915KARA ARA20161219182510612/19/16 18:25:31  5-MIN KARA 200025Z 01011KT 10SM CLR 04/M04 A3053 -520 55 -1800 010/11 RMK AO2 T00441039
53915KARA ARA20161219183010612/19/16 18:30:31  5-MIN KARA 200030Z 01011KT 10SM CLR 04/M04 A3053 -530 52 -1900 010/11 RMK AO2 T00441044
53915KARA ARA20161219183510612/19/16 18:35:31  5-MIN KARA 200035Z 01011KT 10SM CLR 04/M04 A3053 -530 52 -1900 010/11 RMK AO2 T00441044
53915KARA ARA20161219184010612/19/16 18:40:31  5-MIN KARA 200040Z 01010KT 10SM CLR 04/M04 A3053 -530 52 -1900 010/10 RMK AO2 T00441044
53915KARA ARA20161219184510612/19/16 18:45:31  5-MIN KARA 200045Z 01010KT 10SM CLR 04/M04 A3053 -530 52 -1900 010/10 RMK AO2 T00441044
53915KARA ARA20161219185011312/19/16 18:50:31  5-MIN KARA 200050Z 01009KT 10SM CLR 04/M04 A3053 -530 52 -1900 010/09 RMK AO2 SLP338 T00441044
53915KARA ARA20161219185510612/19/16 18:55:31  5-MIN KARA 200055Z 01010KT 10SM CLR 04/M04 A3053 -530 57 -1900 010/10 RMK AO2 T00391039
53915KARA ARA20161219190010612/19/16 19:00:31  5-MIN KARA 200100Z 01010KT 10SM CLR 04/M04 A3053 -530 57 -1900 010/10 RMK AO2 T00391039
53915KARA ARA20161219190510612/19/16 19:05:31  5-MIN KARA 200105Z 01010KT 10SM CLR 04/M04 A3054 -530 57 -1900 360/10 RMK AO2 T00391039
53915KARA ARA20161219191010612/19/16 19:10:31  5-MIN KARA 200110Z 01008KT 10SM CLR 04/M04 A3054 -540 57 -1900 010/08 RMK AO2 T00391039
53915KARA ARA20161219191510612/19/16 19:15:31  5-MIN KARA 200115Z 01009KT 10SM CLR 04/M04 A3054 -540 57 -1900 010/09 RMK AO2 T00391039
53915KARA ARA20161219192010612/19/16 19:20:31  5-MIN KARA 200120Z 01010KT 10SM CLR 04/M04 A3054 -540 57 -1900 010/10 RMK AO2 T00391039
53915KARA ARA20161219192510612/19/16 19:25:31  5-MIN KARA 200125Z 01009KT 10SM CLR 04/M04 A3054 -540 57 -1900 010/09 RMK AO2 T00391039
53915KARA ARA20161219193010612/19/16 19:30:31  5-MIN KARA 200130Z 01011KT 10SM CLR 04/M04 A3054 -540 57 -1900 010/11 RMK AO2 T00391039
53915KARA ARA20161219193510612/19/16 19:35:31  5-MIN KARA 200135Z 01011KT 10SM CLR 04/M04 A3054 -540 54 -1900 010/11 RMK AO2 T00391044
53915KARA ARA20161219194010612/19/16 19:40:31  5-MIN KARA 200140Z 02010KT 10SM CLR 04/M04 A3055 -540 54 -1900 020/10 RMK AO2 T00391044
53915KARA ARA20161219194510612/19/16 19:45:31  5-MIN KARA 200145Z 01007KT 10SM CLR 04/M04 A3055 -550 54 -1900 010/07 RMK AO2 T00391044
53915KARA ARA20161219195011312/19/16 19:50:31  5-MIN KARA 200150Z 01011KT 10SM CLR 04/M04 A3055 -550 54 -1900 010/11 RMK AO2 SLP345 T00391044
53915KARA ARA20161219195510612/19/16 19:55:31  5-MIN KARA 200155Z 02012KT 10SM CLR 04/M04 A3055 -550 54 -1900 010/12 RMK AO2 T00391044
53915KARA ARA20161219200010612/19/16 20:00:31  5-MIN KARA 200200Z 01009KT 10SM CLR 03/M04 A3056 -550 57 -2000 010/09 RMK AO2 T00331044
53915KARA ARA20161219200510612/19/16 20:05:31  5-MIN KARA 200205Z 01010KT 10SM CLR 03/M04 A3056 -550 57 -2000 010/10 RMK AO2 T00331044
53915KARA ARA20161219201010612/19/16 20:10:31  5-MIN KARA 200210Z 01009KT 10SM CLR 03/M04 A3055 -550 57 -2000 010/09 RMK AO2 T00331044
53915KARA ARA20161219201510612/19/16 20:15:31  5-MIN KARA 200215Z 01012KT 10SM CLR 03/M04 A3055 -550 57 -2000 010/12 RMK AO2 T00331044
53915KARA ARA20161219202010612/19/16 20:20:31  5-MIN KARA 200220Z 01010KT 10SM CLR 03/M04 A3056 -550 57 -2000 010/10 RMK AO2 T00331044
53915KARA ARA20161219202510612/19/16 20:25:31  5-MIN KARA 200225Z 01008KT 10SM CLR 03/M04 A3056 -550 57 -2000 360/08 RMK AO2 T00331044
53915KARA ARA20161219203011112/19/16 20:30:31  5-MIN KARA 200230Z AUTO 01007KT 10SM CLR 03/M04 A3056 -550 57 -2000 010/07 RMK AO2 T00331044
53915KARA ARA20161219203511112/19/16 20:35:31  5-MIN KARA 200235Z AUTO 01009KT 10SM CLR 03/M04 A3056 -550 59 -2100 010/09 RMK AO2 T00281044
53915KARA ARA20161219204011112/19/16 20:40:31  5-MIN KARA 200240Z AUTO 01009KT 10SM CLR 03/M04 A3055 -550 61 -2100 010/09 RMK AO2 T00281039
53915KARA ARA20161219204511112/19/16 20:45:31  5-MIN KARA 200245Z AUTO 01009KT 10SM CLR 03/M04 A3055 -550 61 -2100 010/09 RMK AO2 T00281039
53915KARA ARA20161219205012412/19/16 20:50:31  5-MIN KARA 200250Z AUTO 01008KT 10SM CLR 03/M04 A3055 -550 61 -2100 010/08 RMK AO2 SLP345 T00281039 53011
53915KARA ARA20161219205511112/19/16 20:55:31  5-MIN KARA 200255Z AUTO 01008KT 10SM CLR 03/M04 A3055 -550 61 -2100 010/08 RMK AO2 T00281039
53915KARA ARA20161219210011112/19/16 21:00:31  5-MIN KARA 200300Z AUTO 01010KT 10SM CLR 03/M04 A3055 -550 61 -2100 010/10 RMK AO2 T00281039
53915KARA ARA20161219210511112/19/16 21:05:31  5-MIN KARA 200305Z AUTO 01008KT 10SM CLR 03/M04 A3055 -550 61 -2100 010/08 RMK AO2 T00281039
53915KARA ARA20161219211011112/19/16 21:10:31  5-MIN KARA 200310Z AUTO 01008KT 10SM CLR 03/M04 A3055 -550 61 -2100 010/08 RMK AO2 T00281039
53915KARA ARA20161219211511112/19/16 21:15:31  5-MIN KARA 200315Z AUTO 01010KT 10SM CLR 03/M04 A3055 -550 61 -2100 010/10 RMK AO2 T00281039
53915KARA ARA20161219212011112/19/16 21:20:31  5-MIN KARA 200320Z AUTO 01009KT 10SM CLR 03/M04 A3055 -540 61 -2100 010/09 RMK AO2 T00281039
53915KARA ARA20161219212511112/19/16 21:25:31  5-MIN KARA 200325Z AUTO 01010KT 10SM CLR 03/M04 A3054 -540 61 -2100 010/10 RMK AO2 T00281039
53915KARA ARA20161219213011112/19/16 21:30:31  5-MIN KARA 200330Z AUTO 01009KT 10SM CLR 03/M04 A3054 -540 61 -2100 010/09 RMK AO2 T00281039
53915KARA ARA20161219213511112/19/16 21:35:31  5-MIN KARA 200335Z AUTO 01008KT 10SM CLR 03/M04 A3054 -540 61 -2100 010/08 RMK AO2 T00281039
53915KARA ARA20161219214011112/19/16 21:40:31  5-MIN KARA 200340Z AUTO 02009KT 10SM CLR 03/M04 A3054 -540 61 -2100 020/09 RMK AO2 T00281039
53915KARA ARA20161219214511112/19/16 21:45:31  5-MIN KARA 200345Z AUTO 02008KT 10SM CLR 03/M04 A3054 -540 61 -2100 020/08 RMK AO2 T00281039
53915KARA ARA20161219215011812/19/16 21:50:31  5-MIN KARA 200350Z AUTO 01008KT 10SM CLR 02/M04 A3054 -540 64 -2100 010/08 RMK AO2 SLP341 T00221039
53915KARA ARA20161219215511112/19/16 21:55:31  5-MIN KARA 200355Z AUTO 01007KT 10SM CLR 02/M04 A3054 -540 64 -2100 010/07 RMK AO2 T00221039
53915KARA ARA20161219220011112/19/16 22:00:31  5-MIN KARA 200400Z AUTO 02007KT 10SM CLR 02/M04 A3053 -530 64 -2100 020/07 RMK AO2 T00221039
53915KARA ARA20161219220511112/19/16 22:05:31  5-MIN KARA 200405Z AUTO 02007KT 10SM CLR 02/M04 A3053 -530 64 -2100 020/07 RMK AO2 T00221039
53915KARA ARA20161219221011112/19/16 22:10:31  5-MIN KARA 200410Z AUTO 02007KT 10SM CLR 02/M04 A3053 -530 64 -2100 020/07 RMK AO2 T00221039
53915KARA ARA20161219221511112/19/16 22:15:31  5-MIN KARA 200415Z AUTO 02007KT 10SM CLR 02/M03 A3053 -530 67 -2100 010/07 RMK AO2 T00221033
53915KARA ARA20161219222011112/19/16 22:20:31  5-MIN KARA 200420Z AUTO 01006KT 10SM CLR 02/M04 A3053 -530 64 -2100 010/06 RMK AO2 T00221039
53915KARA ARA20161219222511112/19/16 22:25:31  5-MIN KARA 200425Z AUTO 01007KT 10SM CLR 02/M04 A3053 -530 64 -2100 010/07 RMK AO2 T00221039
53915KARA ARA20161219223011112/19/16 22:30:31  5-MIN KARA 200430Z AUTO 01008KT 10SM CLR 02/M04 A3053 -530 64 -2100 010/08 RMK AO2 T00221039
53915KARA ARA20161219223511112/19/16 22:35:31  5-MIN KARA 200435Z AUTO 01008KT 10SM CLR 02/M04 A3053 -520 64 -2100 010/08 RMK AO2 T00221039
53915KARA ARA20161219224011112/19/16 22:40:31  5-MIN KARA 200440Z AUTO 01008KT 10SM CLR 02/M04 A3053 -520 64 -2100 010/08 RMK AO2 T00221039
53915KARA ARA20161219224511112/19/16 22:45:31  5-MIN KARA 200445Z AUTO 01009KT 10SM CLR 02/M04 A3053 -530 64 -2100 010/09 RMK AO2 T00221039
53915KARA ARA20161219225011812/19/16 22:50:31  5-MIN KARA 200450Z AUTO 01008KT 10SM CLR 02/M04 A3053 -530 64 -2100 010/08 RMK AO2 SLP336 T00221039
53915KARA ARA20161219225511112/19/16 22:55:31  5-MIN KARA 200455Z AUTO 01009KT 10SM CLR 02/M04 A3053 -530 64 -2100 010/09 RMK AO2 T00221039
53915KARA ARA20161219230011112/19/16 23:00:31  5-MIN KARA 200500Z AUTO 01009KT 10SM CLR 02/M04 A3052 -520 64 -2100 010/09 RMK AO2 T00221039
53915KARA ARA20161219230511112/19/16 23:05:31  5-MIN KARA 200505Z AUTO 02009KT 10SM CLR 02/M04 A3052 -520 64 -2100 020/09 RMK AO2 T00221039
53915KARA ARA20161219231011112/19/16 23:10:31  5-MIN KARA 200510Z AUTO 02010KT 10SM CLR 02/M04 A3052 -520 64 -2100 020/10 RMK AO2 T00221039
53915KARA ARA20161219231511112/19/16 23:15:31  5-MIN KARA 200515Z AUTO 02009KT 10SM CLR 02/M04 A3052 -520 64 -2100 020/09 RMK AO2 T00221039
53915KARA ARA20161219232011112/19/16 23:20:31  5-MIN KARA 200520Z AUTO 02009KT 10SM CLR 02/M04 A3052 -520 64 -2100 020/09 RMK AO2 T00221039
53915KARA ARA20161219232511112/19/16 23:25:31  5-MIN KARA 200525Z AUTO 02011KT 10SM CLR 02/M04 A3052 -520 64 -2100 020/11 RMK AO2 T00221039
53915KARA ARA20161219233011112/19/16 23:30:31  5-MIN KARA 200530Z AUTO 03008KT 10SM CLR 02/M04 A3052 -520 64 -2100 030/08 RMK AO2 T00221039
53915KARA ARA20161219233511112/19/16 23:35:31  5-MIN KARA 200535Z AUTO 03011KT 10SM CLR 02/M04 A3051 -510 64 -2100 030/11 RMK AO2 T00221039
53915KARA ARA20161219234011112/19/16 23:40:31  5-MIN KARA 200540Z AUTO 03011KT 10SM CLR 02/M04 A3051 -510 64 -2100 020/11 RMK AO2 T00221039
53915KARA ARA20161219234511112/19/16 23:45:31  5-MIN KARA 200545Z AUTO 02012KT 10SM CLR 02/M04 A3051 -510 64 -2100 020/12 RMK AO2 T00221039
53915KARA ARA20161219235014612/19/16 23:50:31  5-MIN KARA 200550Z AUTO 03009KT 10SM CLR 02/M04 A3051 -510 64 -2100 030/09 RMK AO2 SLP331 T00221039 10044 20022 400830000 51014
53915KARA ARA20161219235511112/19/16 23:55:31  5-MIN KARA 200555Z AUTO 03009KT 10SM CLR 02/M04 A3051 -510 64 -2100 030/09 RMK AO2 T00221039
53915KARA ARA20161220000011112/20/16 00:00:31  5-MIN KARA 200600Z AUTO 02009KT 10SM CLR 02/M04 A3050 -500 66 -2200 020/09 RMK AO2 T00171039
53915KARA ARA20161220000511112/20/16 00:05:31  5-MIN KARA 200605Z AUTO 02008KT 10SM CLR 02/M04 A3050 -500 66 -2200 020/08 RMK AO2 T00171039
53915KARA ARA20161220001011112/20/16 00:10:31  5-MIN KARA 200610Z AUTO 02010KT 10SM CLR 02/M04 A3050 -500 66 -2200 020/10 RMK AO2 T00171039
53915KARA ARA20161220001511112/20/16 00:15:31  5-MIN KARA 200615Z AUTO 02008KT 10SM CLR 02/M04 A3050 -500 66 -2200 020/08 RMK AO2 T00171039
53915KARA ARA20161220002011112/20/16 00:20:31  5-MIN KARA 200620Z AUTO 04007KT 10SM CLR 02/M04 A3049 -490 66 -2200 040/07 RMK AO2 T00171039
53915KARA ARA20161220002511112/20/16 00:25:31  5-MIN KARA 200625Z AUTO 03011KT 10SM CLR 02/M04 A3049 -490 64 -2200 030/11 RMK AO2 T00171044
53915KARA ARA20161220003011112/20/16 00:30:31  5-MIN KARA 200630Z AUTO 03008KT 10SM CLR 02/M04 A3049 -490 66 -2200 030/08 RMK AO2 T00171039
53915KARA ARA20161220003511112/20/16 00:35:31  5-MIN KARA 200635Z AUTO 03011KT 10SM CLR 02/M04 A3049 -490 64 -2200 030/11 RMK AO2 T00171044
53915KARA ARA20161220004011112/20/16 00:40:31  5-MIN KARA 200640Z AUTO 03008KT 10SM CLR 02/M04 A3049 -490 64 -2200 030/08 RMK AO2 T00171044
53915KARA ARA20161220004511112/20/16 00:45:31  5-MIN KARA 200645Z AUTO 02011KT 10SM CLR 02/M04 A3049 -490 66 -2200 020/11 RMK AO2 T00171039
53915KARA ARA20161220005011812/20/16 00:50:31  5-MIN KARA 200650Z AUTO 03007KT 10SM CLR 02/M04 A3049 -490 64 -2200 030/07 RMK AO2 SLP323 T00171044
53915KARA ARA20161220005511112/20/16 00:55:31  5-MIN KARA 200655Z AUTO 03009KT 10SM CLR 01/M04 A3049 -490 69 -2200 030/09 RMK AO2 T00111039
53915KARA ARA20161220010011112/20/16 01:00:31  5-MIN KARA 200700Z AUTO 03009KT 10SM CLR 02/M04 A3049 -490 64 -2200 030/09 RMK AO2 T00171044
53915KARA ARA20161220010511112/20/16 01:05:31  5-MIN KARA 200705Z AUTO 04010KT 10SM CLR 01/M04 A3049 -490 66 -2200 040/10 RMK AO2 T00111044
53915KARA ARA20161220011011112/20/16 01:10:31  5-MIN KARA 200710Z AUTO 03008KT 10SM CLR 01/M04 A3049 -490 66 -2200 030/08 RMK AO2 T00111044
53915KARA ARA20161220011511112/20/16 01:15:31  5-MIN KARA 200715Z AUTO 02008KT 10SM CLR 01/M04 A3049 -490 69 -2200 020/08 RMK AO2 T00111039
53915KARA ARA20161220012011112/20/16 01:20:31  5-MIN KARA 200720Z AUTO 02007KT 10SM CLR 01/M04 A3049 -490 69 -2200 020/07 RMK AO2 T00111039
53915KARA ARA20161220012511112/20/16 01:25:31  5-MIN KARA 200725Z AUTO 03009KT 10SM CLR 01/M04 A3049 -490 69 -2200 030/09 RMK AO2 T00111039
53915KARA ARA20161220013011112/20/16 01:30:31  5-MIN KARA 200730Z AUTO 02009KT 10SM CLR 01/M04 A3049 -490 66 -2200 020/09 RMK AO2 T00111044
53915KARA ARA20161220013511112/20/16 01:35:31  5-MIN KARA 200735Z AUTO 01007KT 10SM CLR 01/M04 A3049 -490 66 -2200 010/07 RMK AO2 T00111044
53915KARA ARA20161220014011112/20/16 01:40:31  5-MIN KARA 200740Z AUTO 01006KT 10SM CLR 01/M04 A3049 -490 72 -2300 010/06 RMK AO2 T00061039
53915KARA ARA20161220014511112/20/16 01:45:31  5-MIN KARA 200745Z AUTO 01008KT 10SM CLR 01/M04 A3049 -490 69 -2300 010/08 RMK AO2 T00061044
53915KARA ARA20161220015011812/20/16 01:50:31  5-MIN KARA 200750Z AUTO 01007KT 10SM CLR 01/M04 A3049 -500 72 -2300 010/07 RMK AO2 SLP325 T00061039
53915KARA ARA20161220015511112/20/16 01:55:31  5-MIN KARA 200755Z AUTO 01007KT 10SM CLR 01/M04 A3049 -500 72 -2300 010/07 RMK AO2 T00061039
53915KARA ARA20161220020011112/20/16 02:00:31  5-MIN KARA 200800Z AUTO 01008KT 10SM CLR 01/M04 A3050 -500 69 -2300 010/08 RMK AO2 T00061044
53915KARA ARA20161220020511112/20/16 02:05:31  5-MIN KARA 200805Z AUTO 02009KT 10SM CLR 01/M04 A3049 -500 69 -2300 020/09 RMK AO2 T00061044
53915KARA ARA20161220021011112/20/16 02:10:31  5-MIN KARA 200810Z AUTO 03008KT 10SM CLR 01/M04 A3049 -490 69 -2300 020/08 RMK AO2 T00061044
53915KARA ARA20161220021511112/20/16 02:15:31  5-MIN KARA 200815Z AUTO 02009KT 10SM CLR 01/M04 A3049 -490 72 -2300 010/09 RMK AO2 T00061039
53915KARA ARA20161220022011112/20/16 02:20:31  5-MIN KARA 200820Z AUTO 02008KT 10SM CLR 01/M04 A3049 -490 69 -2300 020/08 RMK AO2 T00061044
53915KARA ARA20161220022511112/20/16 02:25:31  5-MIN KARA 200825Z AUTO 02008KT 10SM CLR 01/M04 A3049 -490 69 -2300 020/08 RMK AO2 T00061044
53915KARA ARA20161220023011112/20/16 02:30:31  5-MIN KARA 200830Z AUTO 02008KT 10SM CLR 01/M04 A3049 -490 69 -2300 020/08 RMK AO2 T00061044
53915KARA ARA20161220023511112/20/16 02:35:31  5-MIN KARA 200835Z AUTO 03008KT 10SM CLR 01/M04 A3049 -490 69 -2300 030/08 RMK AO2 T00061044
53915KARA ARA20161220024011112/20/16 02:40:31  5-MIN KARA 200840Z AUTO 02009KT 10SM CLR 01/M04 A3049 -490 72 -2300 020/09 RMK AO2 T00061039
53915KARA ARA20161220024511112/20/16 02:45:31  5-MIN KARA 200845Z AUTO 03009KT 10SM CLR 01/M04 A3049 -490 69 -2300 030/09 RMK AO2 T00061044
53915KARA ARA20161220025012412/20/16 02:50:31  5-MIN KARA 200850Z AUTO 03008KT 10SM CLR 01/M04 A3049 -490 66 -2200 030/08 RMK AO2 SLP323 T00111044 58016
53915KARA ARA20161220025511112/20/16 02:55:31  5-MIN KARA 200855Z AUTO 03009KT 10SM CLR 01/M04 A3049 -490 69 -2300 030/09 RMK AO2 T00061044
53915KARA ARA20161220030011112/20/16 03:00:31  5-MIN KARA 200900Z AUTO 02009KT 10SM CLR 01/M04 A3049 -490 69 -2300 020/09 RMK AO2 T00061044
53915KARA ARA20161220030511112/20/16 03:05:31  5-MIN KARA 200905Z AUTO 03009KT 10SM CLR 01/M04 A3049 -490 69 -2300 030/09 RMK AO2 T00061044
53915KARA ARA20161220031011112/20/16 03:10:31  5-MIN KARA 200910Z AUTO 03008KT 10SM CLR 01/M04 A3049 -490 69 -2300 030/08 RMK AO2 T00061044
53915KARA ARA20161220031511112/20/16 03:15:31  5-MIN KARA 200915Z AUTO 03010KT 10SM CLR 01/M04 A3049 -490 69 -2300 030/10 RMK AO2 T00061044
53915KARA ARA20161220032011112/20/16 03:20:31  5-MIN KARA 200920Z AUTO 04006KT 10SM CLR 01/M04 A3049 -490 69 -2300 040/06 RMK AO2 T00061044
53915KARA ARA20161220032511112/20/16 03:25:31  5-MIN KARA 200925Z AUTO 04007KT 10SM CLR 01/M04 A3049 -490 69 -2300 030/07 RMK AO2 T00061044
53915KARA ARA20161220033011112/20/16 03:30:31  5-MIN KARA 200930Z AUTO 02008KT 10SM CLR 01/M04 A3049 -490 69 -2300 020/08 RMK AO2 T00061044
53915KARA ARA20161220033511112/20/16 03:35:31  5-MIN KARA 200935Z AUTO 02008KT 10SM CLR 01/M04 A3049 -490 69 -2300 020/08 RMK AO2 T00061044
53915KARA ARA20161220034011112/20/16 03:40:31  5-MIN KARA 200940Z AUTO 02008KT 10SM CLR 01/M04 A3048 -490 69 -2300 020/08 RMK AO2 T00061044
53915KARA ARA20161220034511112/20/16 03:45:31  5-MIN KARA 200945Z AUTO 02007KT 10SM CLR 01/M04 A3049 -490 69 -2300 010/07 RMK AO2 T00061044
53915KARA ARA20161220035011812/20/16 03:50:31  5-MIN KARA 200950Z AUTO 01007KT 10SM CLR 00/M04 A3049 -490 72 -2400 010/07 RMK AO2 SLP322 T00001044
53915KARA ARA20161220035511112/20/16 03:55:31  5-MIN KARA 200955Z AUTO 01007KT 10SM CLR 00/M04 A3048 -490 72 -2400 010/07 RMK AO2 T00001044
53915KARA ARA20161220040011112/20/16 04:00:31  5-MIN KARA 201000Z AUTO 01008KT 10SM CLR 00/M04 A3049 -490 72 -2400 010/08 RMK AO2 T00001044
53915KARA ARA20161220040511112/20/16 04:05:31  5-MIN KARA 201005Z AUTO 02007KT 10SM CLR 00/M04 A3048 -490 72 -2400 020/07 RMK AO2 T00001044
53915KARA ARA20161220041011112/20/16 04:10:31  5-MIN KARA 201010Z AUTO 02006KT 10SM CLR 01/M04 A3048 -490 69 -2300 020/06 RMK AO2 T00061044
53915KARA ARA20161220041511112/20/16 04:15:31  5-MIN KARA 201015Z AUTO 03007KT 10SM CLR 01/M04 A3048 -480 69 -2300 020/07 RMK AO2 T00061044
53915KARA ARA20161220042011112/20/16 04:20:31  5-MIN KARA 201020Z AUTO 02007KT 10SM CLR 01/M04 A3048 -490 69 -2300 020/07 RMK AO2 T00061044
53915KARA ARA20161220042511112/20/16 04:25:31  5-MIN KARA 201025Z AUTO 02007KT 10SM CLR 01/M04 A3049 -490 69 -2300 020/07 RMK AO2 T00061044
53915KARA ARA20161220043011112/20/16 04:30:31  5-MIN KARA 201030Z AUTO 02009KT 10SM CLR 01/M04 A3049 -490 69 -2300 020/09 RMK AO2 T00061044
53915KARA ARA20161220043511112/20/16 04:35:31  5-MIN KARA 201035Z AUTO 01008KT 10SM CLR 01/M04 A3049 -490 69 -2300 010/08 RMK AO2 T00061044
53915KARA ARA20161220044011112/20/16 04:40:31  5-MIN KARA 201040Z AUTO 01008KT 10SM CLR 00/M04 A3049 -500 72 -2400 010/08 RMK AO2 T00001044
53915KARA ARA20161220044511112/20/16 04:45:31  5-MIN KARA 201045Z AUTO 02007KT 10SM CLR 00/M04 A3049 -490 72 -2400 020/07 RMK AO2 T00001044
53915KARA ARA20161220045011812/20/16 04:50:31  5-MIN KARA 201050Z AUTO 02007KT 10SM CLR 00/M04 A3049 -490 72 -2400 020/07 RMK AO2 SLP325 T00001044
53915KARA ARA20161220045511112/20/16 04:55:31  5-MIN KARA 201055Z AUTO 36007KT 10SM CLR 00/M04 A3049 -490 72 -2400 360/07 RMK AO2 T00001044
53915KARA ARA20161220050011212/20/16 05:00:31  5-MIN KARA 201100Z AUTO 36007KT 10SM CLR M01/M04 A3049 -490 75 -2400 360/07 RMK AO2 T10061044
53915KARA ARA20161220050511212/20/16 05:05:31  5-MIN KARA 201105Z AUTO 35006KT 10SM CLR M01/M04 A3050 -500 75 -2400 350/06 RMK AO2 T10061044
53915KARA ARA20161220051011212/20/16 05:10:31  5-MIN KARA 201110Z AUTO 36005KT 10SM CLR M01/M04 A3049 -490 75 -2400 360/05 RMK AO2 T10061044
53915KARA ARA20161220051511212/20/16 05:15:31  5-MIN KARA 201115Z AUTO 36005KT 10SM CLR M01/M04 A3049 -490 75 -2400 360/05 RMK AO2 T10061044
53915KARA ARA20161220052011212/20/16 05:20:31  5-MIN KARA 201120Z AUTO 36005KT 10SM CLR M01/M04 A3049 -490 75 -2400 350/05 RMK AO2 T10061044
53915KARA ARA20161220052511212/20/16 05:25:31  5-MIN KARA 201125Z AUTO 36005KT 10SM CLR M01/M04 A3049 -490 78 -2400 360/05 RMK AO2 T10061039
53915KARA ARA20161220053011212/20/16 05:30:31  5-MIN KARA 201130Z AUTO 01005KT 10SM CLR M01/M04 A3049 -490 75 -2400 010/05 RMK AO2 T10061044
53915KARA ARA20161220053511212/20/16 05:35:31  5-MIN KARA 201135Z AUTO 01006KT 10SM CLR M01/M04 A3049 -490 78 -2400 010/06 RMK AO2 T10061039
53915KARA ARA20161220054011212/20/16 05:40:31  5-MIN KARA 201140Z AUTO 01006KT 10SM CLR M01/M04 A3049 -490 78 -2400 010/06 RMK AO2 T10061039
53915KARA ARA20161220054511212/20/16 05:45:31  5-MIN KARA 201145Z AUTO 02005KT 10SM CLR M01/M04 A3049 -490 78 -2400 020/05 RMK AO2 T10061039
53915KARA ARA20161220055013712/20/16 05:50:31  5-MIN KARA 201150Z AUTO 02005KT 10SM CLR M01/M04 A3049 -490 78 -2400 020/05 RMK AO2 SLP324 T10061039 10022 21006 56007
53915KARA ARA20161220055511212/20/16 05:55:31  5-MIN KARA 201155Z AUTO 02005KT 10SM CLR M01/M04 A3049 -490 78 -2400 020/05 RMK AO2 T10061039
53915KARA ARA20161220060011212/20/16 06:00:31  5-MIN KARA 201200Z AUTO 01005KT 10SM CLR M01/M04 A3050 -500 78 -2400 010/05 RMK AO2 T10061039
53915KARA ARA20161220060511212/20/16 06:05:31  5-MIN KARA 201205Z AUTO 35005KT 10SM CLR M01/M04 A3051 -510 78 -2500 350/05 RMK AO2 T10061039
53915KARA ARA20161220061011212/20/16 06:10:31  5-MIN KARA 201210Z AUTO 35004KT 10SM CLR M01/M04 A3050 -500 78 -2500 350/04 RMK AO2 T10061039
53915KARA ARA20161220061511212/20/16 06:15:31  5-MIN KARA 201215Z AUTO 35005KT 10SM CLR M01/M04 A3050 -500 78 -2500 350/05 RMK AO2 T10061039
53915KARA ARA20161220062011212/20/16 06:20:31  5-MIN KARA 201220Z AUTO 35006KT 10SM CLR M01/M04 A3051 -510 78 -2500 340/06 RMK AO2 T10061039
53915KARA ARA20161220062511212/20/16 06:25:31  5-MIN KARA 201225Z AUTO 35006KT 10SM CLR M01/M04 A3051 -510 78 -2500 350/06 RMK AO2 T10061039
53915KARA ARA20161220063011212/20/16 06:30:31  5-MIN KARA 201230Z AUTO 35006KT 10SM CLR M01/M04 A3051 -510 78 -2500 350/06 RMK AO2 T10061039
53915KARA ARA20161220063511212/20/16 06:35:31  5-MIN KARA 201235Z AUTO 35005KT 10SM CLR M01/M04 A3051 -510 78 -2500 350/05 RMK AO2 T10061039
53915KARA ARA20161220064011212/20/16 06:40:31  5-MIN KARA 201240Z AUTO 35005KT 10SM CLR M01/M04 A3051 -510 78 -2500 350/05 RMK AO2 T10061039
53915KARA ARA20161220064511212/20/16 06:45:31  5-MIN KARA 201245Z AUTO 35005KT 10SM CLR M01/M04 A3051 -510 78 -2500 350/05 RMK AO2 T10111044
53915KARA ARA20161220065011912/20/16 06:50:31  5-MIN KARA 201250Z AUTO 35005KT 10SM CLR M01/M04 A3051 -510 81 -2500 350/05 RMK AO2 SLP332 T10111039
53915KARA ARA20161220065511212/20/16 06:55:31  5-MIN KARA 201255Z AUTO 36004KT 10SM CLR M01/M04 A3052 -520 81 -2500 360/04 RMK AO2 T10111039
53915KARA ARA20161220070011212/20/16 07:00:31  5-MIN KARA 201300Z AUTO 35003KT 10SM CLR M01/M04 A3052 -520 81 -2500 350/03 RMK AO2 T10111039
53915KARA ARA20161220070511212/20/16 07:05:31  5-MIN KARA 201305Z AUTO 35005KT 10SM CLR M01/M04 A3053 -520 78 -2500 350/05 RMK AO2 T10061039
53915KARA ARA20161220071011212/20/16 07:10:31  5-MIN KARA 201310Z AUTO 01004KT 10SM CLR M01/M04 A3052 -520 78 -2500 010/04 RMK AO2 T10061039
53915KARA ARA20161220071511212/20/16 07:15:31  5-MIN KARA 201315Z AUTO 36004KT 10SM CLR M01/M04 A3052 -520 78 -2500 360/04 RMK AO2 T10061039
53915KARA ARA20161220072011212/20/16 07:20:31  5-MIN KARA 201320Z AUTO 01005KT 10SM CLR M01/M04 A3052 -520 78 -2500 010/05 RMK AO2 T10061039
53915KARA ARA20161220072511112/20/16 07:25:31  5-MIN KARA 201325Z AUTO 36006KT 10SM CLR 00/M04 A3053 -530 75 -2400 360/06 RMK AO2 T00001039
53915KARA ARA20161220073011112/20/16 07:30:31  5-MIN KARA 201330Z AUTO 01005KT 10SM CLR 00/M03 A3053 -530 78 -2400 360/05 RMK AO2 T00001033
53915KARA ARA20161220073511112/20/16 07:35:31  5-MIN KARA 201335Z AUTO 36006KT 10SM CLR 01/M03 A3054 -530 75 -2300 360/06 RMK AO2 T00061033
53915KARA ARA20161220074011112/20/16 07:40:31  5-MIN KARA 201340Z AUTO 01005KT 10SM CLR 01/M03 A3054 -540 75 -2400 010/05 RMK AO2 T00061033
53915KARA ARA20161220074511112/20/16 07:45:31  5-MIN KARA 201345Z AUTO 01006KT 10SM CLR 01/M03 A3054 -540 75 -2400 010/06 RMK AO2 T00061033
53915KARA ARA20161220075011812/20/16 07:50:31  5-MIN KARA 201350Z AUTO 02006KT 10SM CLR 01/M03 A3054 -530 72 -2300 020/06 RMK AO2 SLP340 T00111033
53915KARA ARA20161220075511112/20/16 07:55:31  5-MIN KARA 201355Z AUTO 02007KT 10SM CLR 01/M03 A3053 -530 72 -2300 010/07 RMK AO2 T00111033
53915KARA ARA20161220080010612/20/16 08:00:31  5-MIN KARA 201400Z 02006KT 10SM CLR 01/M03 A3053 -530 72 -2300 020/06 RMK AO2 T00111033
53915KARA ARA20161220080510612/20/16 08:05:31  5-MIN KARA 201405Z 01005KT 10SM CLR 02/M03 A3054 -540 69 -2200 010/05 RMK AO2 T00171033
53915KARA ARA20161220081010612/20/16 08:10:31  5-MIN KARA 201410Z 36005KT 10SM CLR 02/M03 A3054 -540 69 -2200 360/05 RMK AO2 T00171033
53915KARA ARA20161220081510612/20/16 08:15:31  5-MIN KARA 201415Z 02005KT 10SM CLR 02/M03 A3054 -540 69 -2100 010/05 RMK AO2 T00221028
53915KARA ARA20161220082010612/20/16 08:20:31  5-MIN KARA 201420Z 01007KT 10SM CLR 02/M03 A3054 -540 69 -2100 010/07 RMK AO2 T00221028
53915KARA ARA20161220082510612/20/16 08:25:31  5-MIN KARA 201425Z 02007KT 10SM CLR 02/M03 A3054 -540 67 -2100 010/07 RMK AO2 T00221033
53915KARA ARA20161220083010612/20/16 08:30:31  5-MIN KARA 201430Z 02006KT 10SM CLR 02/M03 A3053 -530 67 -2100 020/06 RMK AO2 T00221033
53915KARA ARA20161220083510612/20/16 08:35:31  5-MIN KARA 201435Z 04006KT 10SM CLR 03/M03 A3053 -530 64 -2100 040/06 RMK AO2 T00281033
53915KARA ARA20161220084010612/20/16 08:40:31  5-MIN KARA 201440Z 03006KT 10SM CLR 03/M03 A3053 -530 64 -2100 030/06 RMK AO2 T00281033
53915KARA ARA20161220084510612/20/16 08:45:31  5-MIN KARA 201445Z 02006KT 10SM CLR 03/M03 A3054 -530 64 -2100 020/06 RMK AO2 T00281033
53915KARA ARA20161220085011912/20/16 08:50:31  5-MIN KARA 201450Z 02007KT 10SM CLR 03/M03 A3054 -530 64 -2000 020/07 RMK AO2 SLP339 T00331028 52001
53915KARA ARA20161220085510612/20/16 08:55:31  5-MIN KARA 201455Z 03007KT 10SM CLR 03/M03 A3054 -540 64 -2000 030/07 RMK AO2 T00331028
53915KARA ARA20161220090010612/20/16 09:00:31  5-MIN KARA 201500Z 02007KT 10SM CLR 03/M03 A3054 -540 64 -2000 020/07 RMK AO2 T00331028
53915KARA ARA20161220090510612/20/16 09:05:31  5-MIN KARA 201505Z 02006KT 10SM CLR 04/M03 A3054 -540 62 -1900 020/06 RMK AO2 T00391028
53915KARA ARA20161220091010612/20/16 09:10:31  5-MIN KARA 201510Z 02004KT 10SM CLR 04/M03 A3054 -540 62 -1900 010/04 RMK AO2 T00391028
53915KARA ARA20161220091510612/20/16 09:15:31  5-MIN KARA 201515Z 02005KT 10SM CLR 04/M03 A3055 -540 59 -1900 010/05 RMK AO2 T00441028
53915KARA ARA20161220092010612/20/16 09:20:31  5-MIN KARA 201520Z 04007KT 10SM CLR 04/M03 A3054 -540 59 -1900 040/07 RMK AO2 T00441028
53915KARA ARA20161220092510612/20/16 09:25:31  5-MIN KARA 201525Z 04007KT 10SM CLR 04/M03 A3054 -540 59 -1900 040/07 RMK AO2 T00441028
53915KARA ARA20161220093010612/20/16 09:30:31  5-MIN KARA 201530Z 05005KT 10SM CLR 04/M03 A3054 -540 59 -1900 050/05 RMK AO2 T00441028
53915KARA ARA20161220093510612/20/16 09:35:31  5-MIN KARA 201535Z 05006KT 10SM CLR 04/M03 A3054 -530 59 -1900 050/06 RMK AO2 T00441028
53915KARA ARA20161220094010612/20/16 09:40:31  5-MIN KARA 201540Z 06007KT 10SM CLR 05/M03 A3053 -530 57 -1800 060/07 RMK AO2 T00501028
53915KARA ARA20161220094510612/20/16 09:45:31  5-MIN KARA 201545Z 03005KT 10SM CLR 05/M03 A3053 -530 57 -1800 030/05 RMK AO2 T00501028
53915KARA ARA20161220095011312/20/16 09:50:31  5-MIN KARA 201550Z 04007KT 10SM CLR 06/M02 A3053 -530 57 -1700 040/07 RMK AO2 SLP338 T00561022
53915KARA ARA20161220095510612/20/16 09:55:31  5-MIN KARA 201555Z 05007KT 10SM CLR 06/M02 A3054 -530 57 -1700 050/07 RMK AO2 T00561022
53915KARA ARA20161220100010612/20/16 10:00:31  5-MIN KARA 201600Z 01005KT 10SM CLR 06/M02 A3053 -530 57 -1700 010/05 RMK AO2 T00561022
53915KARA ARA20161220100510612/20/16 10:05:31  5-MIN KARA 201605Z 05006KT 10SM CLR 06/M02 A3053 -530 55 -1600 050/06 RMK AO2 T00611022
53915KARA ARA20161220101010612/20/16 10:10:31  5-MIN KARA 201610Z 05006KT 10SM CLR 06/M02 A3053 -530 55 -1600 040/06 RMK AO2 T00611022
53915KARA ARA20161220101510612/20/16 10:15:31  5-MIN KARA 201615Z VRB06KT 10SM CLR 07/M02 A3052 -520 55 -1600 VRB/06 RMK AO2 T00671017
53915KARA ARA20161220102010612/20/16 10:20:31  5-MIN KARA 201620Z 05006KT 10SM CLR 07/M02 A3052 -520 55 -1600 050/06 RMK AO2 T00671017
53915KARA ARA20161220102510612/20/16 10:25:31  5-MIN KARA 201625Z 05005KT 10SM CLR 07/M02 A3053 -530 55 -1600 050/05 RMK AO2 T00671017
53915KARA ARA20161220103010612/20/16 10:30:31  5-MIN KARA 201630Z 02005KT 10SM CLR 07/M02 A3053 -530 55 -1600 020/05 RMK AO2 T00671017
53915KARA ARA20161220103510612/20/16 10:35:31  5-MIN KARA 201635Z 04005KT 10SM CLR 07/M02 A3053 -520 53 -1500 040/05 RMK AO2 T00721017
53915KARA ARA20161220104010612/20/16 10:40:31  5-MIN KARA 201640Z 03006KT 10SM CLR 08/M02 A3052 -520 51 -1400 030/06 RMK AO2 T00781017
53915KARA ARA20161220104510612/20/16 10:45:31  5-MIN KARA 201645Z 04006KT 10SM CLR 08/M02 A3052 -520 51 -1400 040/06 RMK AO2 T00781017
53915KARA ARA20161220105011312/20/16 10:50:31  5-MIN KARA 201650Z 03008KT 10SM CLR 08/M01 A3052 -520 51 -1400 030/08 RMK AO2 SLP333 T00831011
53915KARA ARA20161220105510612/20/16 10:55:31  5-MIN KARA 201655Z 33005KT 10SM CLR 08/M02 A3051 -510 51 -1400 330/05 RMK AO2 T00781017
53915KARA ARA20161220110010612/20/16 11:00:31  5-MIN KARA 201700Z 01007KT 10SM CLR 09/M02 A3051 -510 47 -1300 010/07 RMK AO2 T00891017
53915KARA ARA20161220110510612/20/16 11:05:31  5-MIN KARA 201705Z 04007KT 10SM CLR 09/M02 A3050 -500 47 -1300 040/07 RMK AO2 T00891017
53915KARA ARA20161220111010612/20/16 11:10:31  5-MIN KARA 201710Z VRB05KT 10SM CLR 09/M01 A3050 -500 49 -1300 VRB/05 RMK AO2 T00891011
53915KARA ARA20161220111510612/20/16 11:15:31  5-MIN KARA 201715Z 01005KT 10SM CLR 09/M01 A3050 -500 49 -1300 010/05 RMK AO2 T00891011
53915KARA ARA20161220112010612/20/16 11:20:31  5-MIN KARA 201720Z VRB03KT 10SM CLR 09/M01 A3050 -500 47 -1200 VRB/03 RMK AO2 T00941011
53915KARA ARA20161220112510612/20/16 11:25:31  5-MIN KARA 201725Z 34005KT 10SM CLR 09/M01 A3050 -500 47 -1200 340/05 RMK AO2 T00941011
53915KARA ARA20161220113010612/20/16 11:30:31  5-MIN KARA 201730Z 04005KT 10SM CLR 09/M01 A3049 -490 47 -1200 030/05 RMK AO2 T00941011
53915KARA ARA20161220113510612/20/16 11:35:31  5-MIN KARA 201735Z 36004KT 10SM CLR 10/M01 A3049 -490 46 -1100 360/04 RMK AO2 T01001011
53915KARA ARA20161220114010612/20/16 11:40:31  5-MIN KARA 201740Z 34005KT 10SM CLR 10/M01 A3048 -480 46 -1100 340/05 RMK AO2 T01001011
53915KARA ARA20161220114510612/20/16 11:45:31  5-MIN KARA 201745Z VRB03KT 10SM CLR 10/M01 A3048 -480 46 -1100 VRB/03 RMK AO2 T01001011
53915KARA ARA20161220115013812/20/16 11:50:31  5-MIN KARA 201750Z VRB04KT 10SM CLR 11/M02 A3047 -470 42 -1000 VRB/04 RMK AO2 PRESFR SLP317 T01061017 10106 21011 51016
53915KARA ARA20161220115510612/20/16 11:55:31  5-MIN KARA 201755Z VRB04KT 10SM CLR 11/M01 A3047 -470 42 -1000 VRB/04 RMK AO2 T01111011
53915KARA ARA20161220120010612/20/16 12:00:31  5-MIN KARA 201800Z 01005KT 10SM CLR 11/M01 A3046 -470 42 -1000 010/05 RMK AO2 T01111011
53915KARA ARA20161220120510612/20/16 12:05:31  5-MIN KARA 201805Z VRB03KT 10SM CLR 11/M01 A3046 -460 42 -1000 VRB/03 RMK AO2 T01111011
53915KARA ARA20161220121010612/20/16 12:10:31  5-MIN KARA 201810Z 33007KT 10SM CLR 11/M01 A3046 -460 42 -1000 330/07 RMK AO2 T01111011
53915KARA ARA20161220121510612/20/16 12:15:31  5-MIN KARA 201815Z VRB03KT 10SM CLR 11/M01 A3045 -460 44 -1000 VRB/03 RMK AO2 T01061011
53915KARA ARA20161220122011212/20/16 12:20:31  5-MIN KARA 201820Z VRB04KT 10SM CLR 11/M01 A3044 -450 42 -900 VRB/04 RMK AO2 PRESFR T01111011
53915KARA ARA20161220122511212/20/16 12:25:31  5-MIN KARA 201825Z 34005KT 10SM CLR 12/M01 A3044 -440 41 -900 340/05 RMK AO2 PRESFR T01171011
53915KARA ARA20161220123011212/20/16 12:30:31  5-MIN KARA 201830Z VRB05KT 10SM CLR 12/M01 A3043 -440 39 -800 VRB/05 RMK AO2 PRESFR T01221011
53915KARA ARA20161220123510512/20/16 12:35:31  5-MIN KARA 201835Z 36005KT 10SM CLR 12/M01 A3043 -440 39 -800 360/05 RMK AO2 T01221011
53915KARA ARA20161220124010512/20/16 12:40:31  5-MIN KARA 201840Z 02007KT 10SM CLR 13/M01 A3043 -440 38 -700 020/07 RMK AO2 T01281011
53915KARA ARA20161220124510512/20/16 12:45:31  5-MIN KARA 201845Z 02005KT 10SM CLR 12/M02 A3043 -430 38 -800 020/05 RMK AO2 T01221017
53915KARA ARA20161220125011212/20/16 12:50:31  5-MIN KARA 201850Z 02006KT 10SM CLR 13/M02 A3042 -430 36 -700 020/06 RMK AO2 SLP300 T01281017
53915KARA ARA20161220125510512/20/16 12:55:31  5-MIN KARA 201855Z 01005KT 10SM CLR 13/M01 A3042 -430 36 -600 010/05 RMK AO2 T01331011
53915KARA ARA20161220130010512/20/16 13:00:31  5-MIN KARA 201900Z 35007KT 10SM CLR 13/M02 A3041 -420 36 -700 350/07 RMK AO2 T01281017
53915KARA ARA20161220130510512/20/16 13:05:31  5-MIN KARA 201905Z VRB05KT 10SM CLR 13/M01 A3041 -420 36 -600 VRB/05 RMK AO2 T01331011
53915KARA ARA20161220131010512/20/16 13:10:31  5-MIN KARA 201910Z 04007KT 10SM CLR 13/M01 A3040 -410 36 -600 040/07 RMK AO2 T01331011
53915KARA ARA20161220131510512/20/16 13:15:31  5-MIN KARA 201915Z VRB04KT 10SM CLR 13/M02 A3040 -410 36 -700 VRB/04 RMK AO2 T01281017
53915KARA ARA20161220132010512/20/16 13:20:31  5-MIN KARA 201920Z 06007KT 10SM CLR 13/M02 A3040 -410 35 -600 060/07 RMK AO2 T01331017
53915KARA ARA20161220132510512/20/16 13:25:31  5-MIN KARA 201925Z 03006KT 10SM CLR 13/M02 A3039 -400 34 -600 030/06 RMK AO2 T01331022
53915KARA ARA20161220133010512/20/16 13:30:31  5-MIN KARA 201930Z 06007KT 10SM CLR 13/M02 A3039 -400 36 -700 060/07 RMK AO2 T01281017
53915KARA ARA20161220133510512/20/16 13:35:31  5-MIN KARA 201935Z 05006KT 10SM CLR 13/M02 A3039 -400 35 -600 040/06 RMK AO2 T01331017
53915KARA ARA20161220134010512/20/16 13:40:31  5-MIN KARA 201940Z 06007KT 10SM CLR 13/M02 A3039 -400 34 -600 050/07 RMK AO2 T01331022
53915KARA ARA20161220134510512/20/16 13:45:31  5-MIN KARA 201945Z 05006KT 10SM CLR 13/M02 A3039 -400 34 -600 050/06 RMK AO2 T01331022
53915KARA ARA20161220135011212/20/16 13:50:31  5-MIN KARA 201950Z 05006KT 10SM CLR 13/M02 A3039 -400 36 -700 050/06 RMK AO2 SLP290 T01281017
53915KARA ARA20161220135510512/20/16 13:55:31  5-MIN KARA 201955Z 06006KT 10SM CLR 13/M02 A3039 -400 35 -600 050/06 RMK AO2 T01331017
53915KARA ARA20161220140010512/20/16 14:00:31  5-MIN KARA 202000Z 02005KT 10SM CLR 14/M02 A3039 -400 34 -500 020/05 RMK AO2 T01391017
53915KARA ARA20161220140510412/20/16 14:05:31  5-MIN KARA 202005Z 03007KT 9SM CLR 14/M02 A3039 -400 32 -500 030/07 RMK AO2 T01391022
53915KARA ARA20161220141010412/20/16 14:10:31  5-MIN KARA 202010Z 06005KT 8SM CLR 14/M02 A3039 -400 34 -500 060/05 RMK AO2 T01391017
53915KARA ARA20161220141510412/20/16 14:15:31  5-MIN KARA 202015Z 03005KT 7SM CLR 14/M02 A3038 -400 34 -500 030/05 RMK AO2 T01391017
53915KARA ARA20161220142010412/20/16 14:20:31  5-MIN KARA 202020Z 04006KT 8SM CLR 14/M02 A3038 -390 34 -500 040/06 RMK AO2 T01391017
53915KARA ARA20161220142510412/20/16 14:25:31  5-MIN KARA 202025Z 04006KT 9SM CLR 14/M02 A3038 -390 33 -500 040/06 RMK AO2 T01441017
53915KARA ARA20161220143010412/20/16 14:30:31  5-MIN KARA 202030Z VRB05KT 9SM CLR 14/M02 A3038 -390 33 -500 VRB/05 RMK AO2 T01441017
53915KARA ARA20161220143510412/20/16 14:35:31  5-MIN KARA 202035Z 02004KT 8SM CLR 14/M02 A3038 -390 33 -500 020/04 RMK AO2 T01441017
53915KARA ARA20161220144010412/20/16 14:40:31  5-MIN KARA 202040Z VRB04KT 8SM CLR 14/M01 A3037 -380 34 -500 VRB/04 RMK AO2 T01441011
53915KARA ARA20161220144510412/20/16 14:45:31  5-MIN KARA 202045Z 04006KT 8SM CLR 14/M01 A3037 -390 34 -500 040/06 RMK AO2 T01441011
53915KARA ARA20161220145011712/20/16 14:50:31  5-MIN KARA 202050Z 04007KT 8SM CLR 15/M02 A3037 -380 31 -400 040/07 RMK AO2 SLP284 T01501017 58024
53915KARA ARA20161220145510412/20/16 14:55:31  5-MIN KARA 202055Z 04006KT 9SM CLR 15/M02 A3037 -380 31 -400 040/06 RMK AO2 T01501017
53915KARA ARA20161220150010512/20/16 15:00:31  5-MIN KARA 202100Z 02005KT 10SM CLR 15/M02 A3037 -380 30 -400 020/05 RMK AO2 T01501022
53915KARA ARA20161220150510512/20/16 15:05:31  5-MIN KARA 202105Z 02006KT 10SM CLR 15/M02 A3037 -380 30 -400 020/06 RMK AO2 T01501022
53915KARA ARA20161220151010512/20/16 15:10:31  5-MIN KARA 202110Z 04005KT 10SM CLR 15/M02 A3037 -380 31 -400 040/05 RMK AO2 T01501017
53915KARA ARA20161220151510512/20/16 15:15:31  5-MIN KARA 202115Z 04006KT 10SM CLR 15/M02 A3037 -380 31 -400 040/06 RMK AO2 T01501017
53915KARA ARA20161220152010512/20/16 15:20:31  5-MIN KARA 202120Z 02007KT 10SM CLR 15/M02 A3037 -380 30 -400 020/07 RMK AO2 T01501022
53915KARA ARA20161220152510512/20/16 15:25:31  5-MIN KARA 202125Z 04006KT 10SM CLR 15/M02 A3037 -380 30 -400 040/06 RMK AO2 T01501022
53915KARA ARA20161220153010512/20/16 15:30:31  5-MIN KARA 202130Z 04006KT 10SM CLR 15/M02 A3037 -380 30 -400 030/06 RMK AO2 T01501022
53915KARA ARA20161220153510512/20/16 15:35:31  5-MIN KARA 202135Z 04006KT 10SM CLR 15/M02 A3037 -380 30 -400 040/06 RMK AO2 T01501022
53915KARA ARA20161220154010512/20/16 15:40:31  5-MIN KARA 202140Z 02005KT 10SM CLR 15/M03 A3037 -380 29 -400 020/05 RMK AO2 T01501028
53915KARA ARA20161220154510512/20/16 15:45:31  5-MIN KARA 202145Z 01005KT 10SM CLR 15/M02 A3037 -380 30 -400 360/05 RMK AO2 T01501022
53915KARA ARA20161220155011212/20/16 15:50:31  5-MIN KARA 202150Z 04004KT 10SM CLR 15/M02 A3036 -380 31 -400 030/04 RMK AO2 SLP281 T01501017
53915KARA ARA20161220155510512/20/16 15:55:31  5-MIN KARA 202155Z 03006KT 10SM CLR 15/M02 A3036 -380 31 -400 030/06 RMK AO2 T01501017
53915KARA ARA20161220160010512/20/16 16:00:31  5-MIN KARA 202200Z 02003KT 10SM CLR 15/M02 A3036 -370 31 -400 010/03 RMK AO2 T01501017
53915KARA ARA20161220160510512/20/16 16:05:31  5-MIN KARA 202205Z 02003KT 10SM CLR 15/M02 A3036 -380 31 -400 020/03 RMK AO2 T01501017
53915KARA ARA20161220161010512/20/16 16:10:31  5-MIN KARA 202210Z 34004KT 10SM CLR 15/M02 A3036 -380 31 -400 340/04 RMK AO2 T01501017
53915KARA ARA20161220161510512/20/16 16:15:31  5-MIN KARA 202215Z 33004KT 10SM CLR 14/M01 A3036 -370 35 -400 330/04 RMK AO2 T01441006
53915KARA ARA20161220162010412/20/16 16:20:31  5-MIN KARA 202220Z 34005KT 10SM CLR 14/00 A3036 -380 38 -500 340/05 RMK AO2 T01390000
53915KARA ARA20161220162510412/20/16 16:25:31  5-MIN KARA 202225Z 34005KT 10SM CLR 14/00 A3036 -370 38 -500 340/05 RMK AO2 T01390000
53915KARA ARA20161220163010512/20/16 16:30:31  5-MIN KARA 202230Z 35006KT 10SM CLR 14/M01 A3036 -370 37 -500 350/06 RMK AO2 T01391006
53915KARA ARA20161220163510412/20/16 16:35:31  5-MIN KARA 202235Z 35005KT 10SM CLR 14/00 A3036 -370 38 -500 350/05 RMK AO2 T01390000
53915KARA ARA20161220164010412/20/16 16:40:31  5-MIN KARA 202240Z 35004KT 10SM CLR 13/01 A3036 -370 41 -600 350/04 RMK AO2 T01330006
53915KARA ARA20161220164510412/20/16 16:45:31  5-MIN KARA 202245Z 35005KT 10SM CLR 13/00 A3036 -370 40 -600 350/05 RMK AO2 T01330000
53915KARA ARA20161220165011112/20/16 16:50:31  5-MIN KARA 202250Z 34004KT 10SM CLR 13/00 A3036 -370 41 -600 340/04 RMK AO2 SLP279 T01280000
53915KARA ARA20161220165510412/20/16 16:55:31  5-MIN KARA 202255Z 34005KT 10SM CLR 12/01 A3036 -370 44 -700 340/05 RMK AO2 T01220006
53915KARA ARA20161220170010412/20/16 17:00:31  5-MIN KARA 202300Z 35005KT 10SM CLR 12/01 A3036 -370 44 -700 350/05 RMK AO2 T01220006
53915KARA ARA20161220170510412/20/16 17:05:31  5-MIN KARA 202305Z 35006KT 10SM CLR 12/01 A3036 -370 44 -700 350/06 RMK AO2 T01220006
53915KARA ARA20161220171010412/20/16 17:10:31  5-MIN KARA 202310Z 36007KT 10SM CLR 12/01 A3036 -370 46 -800 360/07 RMK AO2 T01170006
53915KARA ARA20161220171510412/20/16 17:15:31  5-MIN KARA 202315Z 36007KT 10SM CLR 11/01 A3035 -370 48 -800 360/07 RMK AO2 T01110006
53915KARA ARA20161220172010412/20/16 17:20:31  5-MIN KARA 202320Z 36006KT 10SM CLR 11/01 A3035 -370 50 -900 360/06 RMK AO2 T01060006
53915KARA ARA20161220172510512/20/16 17:25:31  5-MIN KARA 202325Z 36006KT 10SM CLR 10/01 A3035 -360 54 -1000 360/06 RMK AO2 T01000011
53915KARA ARA20161220173010512/20/16 17:30:31  5-MIN KARA 202330Z 36006KT 10SM CLR 10/01 A3035 -370 54 -1000 360/06 RMK AO2 T01000011
53915KARA ARA20161220173510512/20/16 17:35:31  5-MIN KARA 202335Z 36006KT 10SM CLR 10/01 A3035 -370 54 -1000 360/06 RMK AO2 T01000011
53915KARA ARA20161220174010512/20/16 17:40:31  5-MIN KARA 202340Z 36005KT 10SM CLR 10/01 A3035 -360 54 -1000 360/05 RMK AO2 T01000011
53915KARA ARA20161220174510512/20/16 17:45:31  5-MIN KARA 202345Z 01004KT 10SM CLR 10/01 A3035 -360 54 -1000 360/04 RMK AO2 T01000011
53915KARA ARA20161220175013012/20/16 17:50:31  5-MIN KARA 202350Z 01005KT 10SM CLR 10/01 A3035 -360 54 -1000 010/05 RMK AO2 SLP276 T01000011 10150 20100 56033
53915KARA ARA20161220175510512/20/16 17:55:31  5-MIN KARA 202355Z 01005KT 10SM CLR 09/01 A3035 -360 56 -1000 010/05 RMK AO2 T00940011
53915KARA ARA20161220180010512/20/16 18:00:31  5-MIN KARA 210000Z 01006KT 10SM CLR 09/01 A3034 -360 53 -1000 010/06 RMK AO2 T00940006
53915KARA ARA20161220180510512/20/16 18:05:31  5-MIN KARA 210005Z 02006KT 10SM CLR 09/01 A3034 -360 58 -1100 010/06 RMK AO2 T00890011
53915KARA ARA20161220181010512/20/16 18:10:31  5-MIN KARA 210010Z 01005KT 10SM CLR 09/01 A3034 -360 53 -1000 010/05 RMK AO2 T00940006
53915KARA ARA20161220181510512/20/16 18:15:31  5-MIN KARA 210015Z 02005KT 10SM CLR 09/01 A3034 -360 53 -1000 010/05 RMK AO2 T00940006
53915KARA ARA20161220182010512/20/16 18:20:31  5-MIN KARA 210020Z 02004KT 10SM CLR 09/01 A3034 -360 53 -1000 020/04 RMK AO2 T00940006
53915KARA ARA20161220182510512/20/16 18:25:31  5-MIN KARA 210025Z 02004KT 10SM CLR 09/01 A3034 -360 53 -1000 020/04 RMK AO2 T00940006
53915KARA ARA20161220183010512/20/16 18:30:31  5-MIN KARA 210030Z 02004KT 10SM CLR 09/01 A3034 -360 53 -1000 020/04 RMK AO2 T00940006
53915KARA ARA20161220183510512/20/16 18:35:31  5-MIN KARA 210035Z 02005KT 10SM CLR 09/01 A3034 -360 53 -1000 020/05 RMK AO2 T00940006
53915KARA ARA20161220184010512/20/16 18:40:31  5-MIN KARA 210040Z 02005KT 10SM CLR 09/01 A3034 -360 56 -1100 020/05 RMK AO2 T00890006
53915KARA ARA20161220184510512/20/16 18:45:31  5-MIN KARA 210045Z 01003KT 10SM CLR 09/01 A3034 -360 53 -1000 010/03 RMK AO2 T00940006
53915KARA ARA20161220185011212/20/16 18:50:31  5-MIN KARA 210050Z 01003KT 10SM CLR 09/01 A3034 -360 53 -1000 010/03 RMK AO2 SLP275 T00940006
53915KARA ARA20161220185510512/20/16 18:55:31  5-MIN KARA 210055Z 01003KT 10SM CLR 09/01 A3035 -360 56 -1100 010/03 RMK AO2 T00890006
53915KARA ARA20161220190010512/20/16 19:00:31  5-MIN KARA 210100Z 00000KT 10SM CLR 09/01 A3035 -360 58 -1100 000/00 RMK AO2 T00890011
53915KARA ARA20161220190510512/20/16 19:05:31  5-MIN KARA 210105Z 00000KT 10SM CLR 08/01 A3035 -360 60 -1200 000/00 RMK AO2 T00830011
53915KARA ARA20161220191010512/20/16 19:10:31  5-MIN KARA 210110Z 00000KT 10SM CLR 07/02 A3035 -360 68 -1300 000/00 RMK AO2 T00720017
53915KARA ARA20161220191510512/20/16 19:15:31  5-MIN KARA 210115Z 00000KT 10SM CLR 07/02 A3035 -360 68 -1300 000/00 RMK AO2 T00720017
53915KARA ARA20161220192010512/20/16 19:20:31  5-MIN KARA 210120Z 30003KT 10SM CLR 08/02 A3035 -370 65 -1200 300/03 RMK AO2 T00780017
53915KARA ARA20161220192510512/20/16 19:25:31  5-MIN KARA 210125Z 29003KT 10SM CLR 08/02 A3035 -360 65 -1200 290/03 RMK AO2 T00780017
53915KARA ARA20161220193010512/20/16 19:30:31  5-MIN KARA 210130Z 27003KT 10SM CLR 07/02 A3035 -360 68 -1300 270/03 RMK AO2 T00720017
53915KARA ARA20161220193510512/20/16 19:35:31  5-MIN KARA 210135Z 25003KT 10SM CLR 07/02 A3035 -360 73 -1400 250/03 RMK AO2 T00670022
53915KARA ARA20161220194010512/20/16 19:40:31  5-MIN KARA 210140Z 26003KT 10SM CLR 07/03 A3035 -360 76 -1400 260/03 RMK AO2 T00670028
53915KARA ARA20161220194510512/20/16 19:45:31  5-MIN KARA 210145Z 25005KT 10SM CLR 07/02 A3035 -370 73 -1400 250/05 RMK AO2 T00670022
53915KARA ARA20161220195011212/20/16 19:50:31  5-MIN KARA 210150Z 26004KT 10SM CLR 07/03 A3035 -370 76 -1400 260/04 RMK AO2 SLP278 T00670028
53915KARA ARA20161220195510512/20/16 19:55:31  5-MIN KARA 210155Z 29005KT 10SM CLR 07/03 A3036 -370 73 -1300 290/05 RMK AO2 T00720028
53915KARA ARA20161220200010512/20/16 20:00:31  5-MIN KARA 210200Z 31005KT 10SM CLR 07/03 A3036 -370 73 -1300 310/05 RMK AO2 T00720028
53915KARA ARA20161220200510512/20/16 20:05:31  5-MIN KARA 210205Z 33007KT 10SM CLR 08/02 A3036 -370 68 -1200 330/07 RMK AO2 T00780022
53915KARA ARA20161220201010512/20/16 20:10:31  5-MIN KARA 210210Z 34005KT 10SM CLR 08/02 A3036 -370 65 -1200 340/05 RMK AO2 T00780017
53915KARA ARA20161220201510512/20/16 20:15:31  5-MIN KARA 210215Z 34004KT 10SM CLR 08/01 A3036 -370 62 -1200 340/04 RMK AO2 T00780011
53915KARA ARA20161220202010512/20/16 20:20:31  5-MIN KARA 210220Z 32003KT 10SM CLR 07/02 A3036 -370 70 -1400 320/03 RMK AO2 T00670017
53915KARA ARA20161220202510512/20/16 20:25:31  5-MIN KARA 210225Z 00000KT 10SM CLR 06/02 A3036 -370 73 -1500 000/00 RMK AO2 T00610017
53915KARA ARA20161220203010512/20/16 20:30:31  5-MIN KARA 210230Z 00000KT 10SM CLR 07/02 A3036 -370 70 -1400 000/00 RMK AO2 T00670017
53915KARA ARA20161220203510512/20/16 20:35:31  5-MIN KARA 210235Z 36004KT 10SM CLR 07/01 A3036 -370 65 -1300 360/04 RMK AO2 T00720011
53915KARA ARA20161220204010512/20/16 20:40:31  5-MIN KARA 210240Z 01003KT 10SM CLR 07/01 A3036 -370 65 -1300 010/03 RMK AO2 T00720011
53915KARA ARA20161220204510812/20/16 20:45:31  5-MIN KARA 210245Z 01003KT 10SM FEW090 07/01 A3036 -370 65 -1300 010/03 RMK AO2 T00720011
53915KARA ARA20161220205012612/20/16 20:50:31  5-MIN KARA 210250Z AUTO 02004KT 10SM SCT090 08/01 A3036 -370 62 -1200 020/04 RMK AO2 SLP279 T00780011 57008
53915KARA ARA20161220205511312/20/16 20:55:31  5-MIN KARA 210255Z AUTO 03004KT 10SM BKN090 08/02 A3036 -370 65 -1200 030/04 RMK AO2 T00780017
53915KARA ARA20161220210011312/20/16 21:00:31  5-MIN KARA 210300Z AUTO 04004KT 10SM BKN090 08/02 A3035 -370 65 -1200 040/04 RMK AO2 T00780017
53915KARA ARA20161220210511312/20/16 21:05:31  5-MIN KARA 210305Z AUTO 05003KT 10SM BKN090 08/02 A3035 -360 65 -1200 050/03 RMK AO2 T00830022
53915KARA ARA20161220211011312/20/16 21:10:31  5-MIN KARA 210310Z AUTO 00000KT 10SM OVC090 09/02 A3034 -360 63 -1100 000/00 RMK AO2 T00890022
53915KARA ARA20161220211511312/20/16 21:15:31  5-MIN KARA 210315Z AUTO 12003KT 10SM OVC090 08/03 A3034 -360 68 -1200 120/03 RMK AO2 T00830028
53915KARA ARA20161220212011312/20/16 21:20:31  5-MIN KARA 210320Z AUTO 00000KT 10SM OVC090 08/03 A3034 -360 70 -1200 000/00 RMK AO2 T00830033
53915KARA ARA20161220212511312/20/16 21:25:31  5-MIN KARA 210325Z AUTO 00000KT 10SM OVC090 08/03 A3034 -350 70 -1200 000/00 RMK AO2 T00830033
53915KARA ARA20161220213011312/20/16 21:30:31  5-MIN KARA 210330Z AUTO 00000KT 10SM OVC090 08/04 A3034 -350 73 -1200 000/00 RMK AO2 T00830039
53915KARA ARA20161220213511312/20/16 21:35:31  5-MIN KARA 210335Z AUTO 00000KT 10SM OVC090 09/04 A3034 -350 73 -1100 000/00 RMK AO2 T00890044
53915KARA ARA20161220214011312/20/16 21:40:31  5-MIN KARA 210340Z AUTO 00000KT 10SM OVC090 09/04 A3033 -350 71 -1100 000/00 RMK AO2 T00890039
53915KARA ARA20161220214511312/20/16 21:45:31  5-MIN KARA 210345Z AUTO 00000KT 10SM OVC090 09/04 A3033 -340 68 -1000 000/00 RMK AO2 T00940039
53915KARA ARA20161220215012012/20/16 21:50:31  5-MIN KARA 210350Z AUTO 00000KT 10SM OVC090 09/04 A3033 -340 71 -1000 000/00 RMK AO2 SLP269 T00940044
53915KARA ARA20161220215511212/20/16 21:55:31  5-MIN KARA 210355Z AUTO 06003KT 10SM OVC090 10/03 A3033 -350 63 -900 060/03 RMK AO2 T01000033
53915KARA ARA20161220220011212/20/16 22:00:31  5-MIN KARA 210400Z AUTO 00000KT 10SM OVC090 10/02 A3033 -350 58 -900 000/00 RMK AO2 T01000022
53915KARA ARA20161220220511212/20/16 22:05:31  5-MIN KARA 210405Z AUTO 00000KT 10SM OVC090 10/03 A3033 -350 63 -900 000/00 RMK AO2 T01000033
53915KARA ARA20161220221011312/20/16 22:10:31  5-MIN KARA 210410Z AUTO 00000KT 10SM OVC090 09/04 A3033 -350 68 -1000 000/00 RMK AO2 T00940039
53915KARA ARA20161220221511312/20/16 22:15:31  5-MIN KARA 210415Z AUTO 00000KT 10SM OVC090 09/04 A3034 -350 68 -1000 000/00 RMK AO2 T00940039
53915KARA ARA20161220222011312/20/16 22:20:31  5-MIN KARA 210420Z AUTO 00000KT 10SM OVC090 09/03 A3034 -360 68 -1100 000/00 RMK AO2 T00890033
53915KARA ARA20161220222511312/20/16 22:25:31  5-MIN KARA 210425Z AUTO 30003KT 10SM BKN090 08/04 A3034 -360 73 -1200 300/03 RMK AO2 T00830039
53915KARA ARA20161220223011312/20/16 22:30:31  5-MIN KARA 210430Z AUTO 00000KT 10SM BKN090 08/04 A3034 -360 76 -1200 000/00 RMK AO2 T00830044
53915KARA ARA20161220223511312/20/16 22:35:31  5-MIN KARA 210435Z AUTO 24003KT 10SM SCT090 07/04 A3034 -350 79 -1300 240/03 RMK AO2 T00720039
53915KARA ARA20161220224011312/20/16 22:40:31  5-MIN KARA 210440Z AUTO 25003KT 10SM SCT090 07/04 A3034 -350 79 -1300 250/03 RMK AO2 T00720039
53915KARA ARA20161220224511312/20/16 22:45:31  5-MIN KARA 210445Z AUTO 25004KT 10SM FEW090 07/04 A3034 -350 79 -1300 250/04 RMK AO2 T00720039
53915KARA ARA20161220225012012/20/16 22:50:31  5-MIN KARA 210450Z AUTO 25003KT 10SM FEW090 07/04 A3033 -350 79 -1300 250/03 RMK AO2 SLP270 T00720039
53915KARA ARA20161220225511012/20/16 22:55:31  5-MIN KARA 210455Z AUTO 24004KT 10SM CLR 07/04 A3033 -350 79 -1300 240/04 RMK AO2 T00720039
53915KARA ARA20161220230011012/20/16 23:00:31  5-MIN KARA 210500Z AUTO 27003KT 10SM CLR 07/03 A3033 -350 76 -1300 270/03 RMK AO2 T00720033
53915KARA ARA20161220230511012/20/16 23:05:31  5-MIN KARA 210505Z AUTO 00000KT 10SM CLR 07/04 A3032 -340 79 -1300 000/00 RMK AO2 T00720039
53915KARA ARA20161220231011012/20/16 23:10:31  5-MIN KARA 210510Z AUTO 00000KT 10SM CLR 07/04 A3032 -340 79 -1300 000/00 RMK AO2 T00720039
53915KARA ARA20161220231511012/20/16 23:15:31  5-MIN KARA 210515Z AUTO 31003KT 10SM CLR 07/04 A3032 -340 79 -1300 310/03 RMK AO2 T00720039
53915KARA ARA20161220232011012/20/16 23:20:31  5-MIN KARA 210520Z AUTO 00000KT 10SM CLR 07/04 A3032 -340 79 -1300 000/00 RMK AO2 T00720039
53915KARA ARA20161220232511012/20/16 23:25:31  5-MIN KARA 210525Z AUTO 00000KT 10SM CLR 07/03 A3032 -340 79 -1300 000/00 RMK AO2 T00670033
53915KARA ARA20161220233011012/20/16 23:30:31  5-MIN KARA 210530Z AUTO 00000KT 10SM CLR 07/03 A3032 -340 79 -1300 000/00 RMK AO2 T00670033
53915KARA ARA20161220233511012/20/16 23:35:31  5-MIN KARA 210535Z AUTO 29003KT 10SM CLR 07/03 A3032 -340 79 -1300 290/03 RMK AO2 T00670033
53915KARA ARA20161220234011012/20/16 23:40:31  5-MIN KARA 210540Z AUTO 00000KT 10SM CLR 07/03 A3032 -340 79 -1300 000/00 RMK AO2 T00670033
53915KARA ARA20161220234511012/20/16 23:45:31  5-MIN KARA 210545Z AUTO 00000KT 10SM CLR 07/03 A3032 -330 79 -1300 000/00 RMK AO2 T00670033
53915KARA ARA20161220235014512/20/16 23:50:31  5-MIN KARA 210550Z AUTO 01004KT 10SM CLR 06/03 A3031 -330 79 -1400 010/04 RMK AO2 SLP264 T00610028 10100 20061 401501011 53003
53915KARA ARA20161220235511012/20/16 23:55:31  5-MIN KARA 210555Z AUTO 01004KT 10SM CLR 06/03 A3032 -330 79 -1400 010/04 RMK AO2 T00610028
53915KARA ARA20161221000011012/21/16 00:00:31  5-MIN KARA 210600Z AUTO 01005KT 10SM CLR 07/03 A3032 -330 76 -1300 360/05 RMK AO2 T00670028
53915KARA ARA20161221000511012/21/16 00:05:31  5-MIN KARA 210605Z AUTO 36006KT 10SM CLR 07/02 A3032 -340 73 -1300 350/06 RMK AO2 T00670022
53915KARA ARA20161221001011012/21/16 00:10:31  5-MIN KARA 210610Z AUTO 35004KT 10SM CLR 07/02 A3032 -340 73 -1300 350/04 RMK AO2 T00670022
53915KARA ARA20161221001511012/21/16 00:15:31  5-MIN KARA 210615Z AUTO 35003KT 10SM CLR 06/02 A3032 -340 76 -1400 350/03 RMK AO2 T00610022
53915KARA ARA20161221002011012/21/16 00:20:31  5-MIN KARA 210620Z AUTO 34003KT 10SM CLR 06/02 A3032 -330 76 -1400 340/03 RMK AO2 T00610022
53915KARA ARA20161221002511012/21/16 00:25:31  5-MIN KARA 210625Z AUTO 33004KT 10SM CLR 06/03 A3032 -330 79 -1400 330/04 RMK AO2 T00610028
53915KARA ARA20161221003011312/21/16 00:30:31  5-MIN KARA 210630Z AUTO 33004KT 10SM FEW090 06/03 A3032 -330 79 -1400 330/04 RMK AO2 T00610028
53915KARA ARA20161221003511312/21/16 00:35:31  5-MIN KARA 210635Z AUTO 33004KT 10SM SCT085 06/03 A3031 -330 79 -1400 330/04 RMK AO2 T00610028
53915KARA ARA20161221004011312/21/16 00:40:31  5-MIN KARA 210640Z AUTO 32004KT 10SM BKN085 06/03 A3032 -330 82 -1400 320/04 RMK AO2 T00610033
53915KARA ARA20161221004511312/21/16 00:45:31  5-MIN KARA 210645Z AUTO 32003KT 10SM BKN085 07/03 A3032 -330 79 -1300 320/03 RMK AO2 T00670033
53915KARA ARA20161221005012012/21/16 00:50:31  5-MIN KARA 210650Z AUTO 32003KT 10SM BKN085 07/03 A3032 -330 79 -1300 320/03 RMK AO2 SLP265 T00670033
53915KARA ARA20161221005511312/21/16 00:55:31  5-MIN KARA 210655Z AUTO 32003KT 10SM OVC090 07/03 A3032 -330 79 -1300 320/03 RMK AO2 T00670033
53915KARA ARA20161221010011312/21/16 01:00:31  5-MIN KARA 210700Z AUTO 32003KT 10SM OVC085 07/04 A3032 -330 79 -1300 320/03 RMK AO2 T00720039
53915KARA ARA20161221010511312/21/16 01:05:31  5-MIN KARA 210705Z AUTO 33003KT 10SM OVC085 07/03 A3031 -330 76 -1300 330/03 RMK AO2 T00720033
53915KARA ARA20161221011011312/21/16 01:10:31  5-MIN KARA 210710Z AUTO 00000KT 10SM OVC085 07/03 A3031 -330 76 -1300 000/00 RMK AO2 T00720033
53915KARA ARA20161221011511312/21/16 01:15:31  5-MIN KARA 210715Z AUTO 00000KT 10SM OVC090 07/03 A3031 -330 76 -1300 000/00 RMK AO2 T00720033
53915KARA ARA20161221012011312/21/16 01:20:31  5-MIN KARA 210720Z AUTO 00000KT 10SM OVC085 07/03 A3031 -330 76 -1300 000/00 RMK AO2 T00720033
53915KARA ARA20161221012511312/21/16 01:25:31  5-MIN KARA 210725Z AUTO 00000KT 10SM BKN085 07/03 A3031 -330 76 -1300 000/00 RMK AO2 T00720033
53915KARA ARA20161221013011312/21/16 01:30:31  5-MIN KARA 210730Z AUTO 00000KT 10SM BKN085 08/03 A3031 -330 73 -1200 000/00 RMK AO2 T00780033
53915KARA ARA20161221013511312/21/16 01:35:31  5-MIN KARA 210735Z AUTO 00000KT 10SM SCT085 08/03 A3031 -330 73 -1200 000/00 RMK AO2 T00780033
53915KARA ARA20161221014011312/21/16 01:40:31  5-MIN KARA 210740Z AUTO 00000KT 10SM BKN085 08/03 A3031 -330 73 -1200 000/00 RMK AO2 T00780033
53915KARA ARA20161221014511312/21/16 01:45:31  5-MIN KARA 210745Z AUTO 01003KT 10SM BKN085 08/03 A3031 -330 73 -1200 010/03 RMK AO2 T00780033
53915KARA ARA20161221015012012/21/16 01:50:31  5-MIN KARA 210750Z AUTO 02003KT 10SM BKN085 08/03 A3031 -330 73 -1200 020/03 RMK AO2 SLP263 T00780033
53915KARA ARA20161221015511312/21/16 01:55:31  5-MIN KARA 210755Z AUTO 02003KT 10SM BKN085 08/03 A3031 -330 73 -1200 020/03 RMK AO2 T00780033
53915KARA ARA20161221020011312/21/16 02:00:31  5-MIN KARA 210800Z AUTO 02003KT 10SM OVC085 08/04 A3031 -330 76 -1200 010/03 RMK AO2 T00780039
53915KARA ARA20161221020511312/21/16 02:05:31  5-MIN KARA 210805Z AUTO 01003KT 10SM OVC085 08/04 A3031 -330 73 -1100 010/03 RMK AO2 T00830039
53915KARA ARA20161221021011312/21/16 02:10:31  5-MIN KARA 210810Z AUTO 01003KT 10SM OVC085 08/03 A3031 -330 70 -1100 010/03 RMK AO2 T00830033
53915KARA ARA20161221021511312/21/16 02:15:31  5-MIN KARA 210815Z AUTO 01003KT 10SM OVC085 08/03 A3031 -330 70 -1100 010/03 RMK AO2 T00830033
53915KARA ARA20161221022011312/21/16 02:20:31  5-MIN KARA 210820Z AUTO 00000KT 10SM OVC085 08/03 A3031 -320 70 -1100 000/00 RMK AO2 T00830033
53915KARA ARA20161221022511312/21/16 02:25:31  5-MIN KARA 210825Z AUTO 00000KT 10SM OVC085 08/03 A3030 -320 70 -1100 000/00 RMK AO2 T00830033
53915KARA ARA20161221023011312/21/16 02:30:31  5-MIN KARA 210830Z AUTO 00000KT 10SM OVC085 08/04 A3030 -320 73 -1100 000/00 RMK AO2 T00830039
53915KARA ARA20161221023511312/21/16 02:35:31  5-MIN KARA 210835Z AUTO 00000KT 10SM OVC085 09/04 A3031 -320 71 -1100 000/00 RMK AO2 T00890039
53915KARA ARA20161221024011312/21/16 02:40:31  5-MIN KARA 210840Z AUTO 00000KT 10SM OVC085 09/03 A3031 -320 68 -1100 000/00 RMK AO2 T00890033
53915KARA ARA20161221024511312/21/16 02:45:31  5-MIN KARA 210845Z AUTO 00000KT 10SM OVC085 08/04 A3031 -320 76 -1100 000/00 RMK AO2 T00830044
53915KARA ARA20161221025012612/21/16 02:50:31  5-MIN KARA 210850Z AUTO 00000KT 10SM OVC085 08/04 A3031 -320 79 -1200 000/00 RMK AO2 SLP261 T00780044 56015
53915KARA ARA20161221025511312/21/16 02:55:31  5-MIN KARA 210855Z AUTO 00000KT 10SM OVC085 08/04 A3030 -320 79 -1200 000/00 RMK AO2 T00780044
53915KARA ARA20161221030011312/21/16 03:00:31  5-MIN KARA 210900Z AUTO 00000KT 10SM OVC080 08/04 A3030 -320 76 -1100 000/00 RMK AO2 T00830044
53915KARA ARA20161221030512012/21/16 03:05:31  5-MIN KARA 210905Z AUTO 00000KT 10SM BKN075 OVC090 08/04 A3030 -320 76 -1100 000/00 RMK AO2 T00830044
53915KARA ARA20161221031012012/21/16 03:10:31  5-MIN KARA 210910Z AUTO 00000KT 10SM BKN075 OVC090 08/04 A3031 -320 76 -1100 000/00 RMK AO2 T00830044
53915KARA ARA20161221031511312/21/16 03:15:31  5-MIN KARA 210915Z AUTO 00000KT 10SM OVC075 08/04 A3031 -320 76 -1100 000/00 RMK AO2 T00830044
53915KARA ARA20161221032011312/21/16 03:20:31  5-MIN KARA 210920Z AUTO 00000KT 10SM OVC075 08/04 A3031 -320 73 -1100 000/00 RMK AO2 T00830039
53915KARA ARA20161221032511312/21/16 03:25:31  5-MIN KARA 210925Z AUTO 00000KT 10SM OVC075 08/04 A3031 -320 73 -1100 000/00 RMK AO2 T00830039
53915KARA ARA20161221033011312/21/16 03:30:31  5-MIN KARA 210930Z AUTO 00000KT 10SM OVC075 08/04 A3031 -330 73 -1100 000/00 RMK AO2 T00830039
53915KARA ARA20161221033511312/21/16 03:35:31  5-MIN KARA 210935Z AUTO 00000KT 10SM OVC075 09/04 A3030 -320 73 -1000 000/00 RMK AO2 T00890044
53915KARA ARA20161221034011312/21/16 03:40:31  5-MIN KARA 210940Z AUTO 00000KT 10SM OVC075 09/04 A3030 -320 71 -1000 000/00 RMK AO2 T00890039
53915KARA ARA20161221034511312/21/16 03:45:31  5-MIN KARA 210945Z AUTO 00000KT 10SM OVC075 09/04 A3030 -320 73 -1000 000/00 RMK AO2 T00890044
53915KARA ARA20161221035012012/21/16 03:50:31  5-MIN KARA 210950Z AUTO 00000KT 10SM OVC075 09/04 A3030 -320 71 -1000 000/00 RMK AO2 SLP259 T00890039
53915KARA ARA20161221035511312/21/16 03:55:31  5-MIN KARA 210955Z AUTO 00000KT 10SM OVC075 09/04 A3030 -320 71 -1000 000/00 RMK AO2 T00890039
53915KARA ARA20161221040011312/21/16 04:00:31  5-MIN KARA 211000Z AUTO 00000KT 10SM OVC075 09/04 A3030 -310 71 -1000 000/00 RMK AO2 T00890039
53915KARA ARA20161221040511312/21/16 04:05:31  5-MIN KARA 211005Z AUTO 00000KT 10SM OVC075 09/03 A3029 -310 68 -1000 000/00 RMK AO2 T00890033
53915KARA ARA20161221041011312/21/16 04:10:31  5-MIN KARA 211010Z AUTO 00000KT 10SM OVC075 09/03 A3029 -310 68 -1000 000/00 RMK AO2 T00890033
53915KARA ARA20161221041511312/21/16 04:15:31  5-MIN KARA 211015Z AUTO 00000KT 10SM OVC075 09/04 A3029 -310 71 -1000 000/00 RMK AO2 T00890039
53915KARA ARA20161221042011312/21/16 04:20:31  5-MIN KARA 211020Z AUTO 00000KT 10SM OVC075 09/04 A3029 -310 71 -1000 000/00 RMK AO2 T00890039
53915KARA ARA20161221042511312/21/16 04:25:31  5-MIN KARA 211025Z AUTO 00000KT 10SM OVC075 09/04 A3029 -310 68 -1000 000/00 RMK AO2 T00940039
53915KARA ARA20161221043011312/21/16 04:30:31  5-MIN KARA 211030Z AUTO 00000KT 10SM OVC070 09/03 A3029 -310 65 -1000 000/00 RMK AO2 T00940033
53915KARA ARA20161221043511312/21/16 04:35:31  5-MIN KARA 211035Z AUTO 00000KT 10SM OVC070 09/03 A3029 -310 65 -1000 000/00 RMK AO2 T00940033
53915KARA ARA20161221044011312/21/16 04:40:31  5-MIN KARA 211040Z AUTO 00000KT 10SM OVC070 09/03 A3029 -310 65 -1000 000/00 RMK AO2 T00940033
53915KARA ARA20161221044511312/21/16 04:45:31  5-MIN KARA 211045Z AUTO 00000KT 10SM OVC070 09/04 A3029 -310 68 -1000 000/00 RMK AO2 T00940039
53915KARA ARA20161221045012012/21/16 04:50:31  5-MIN KARA 211050Z AUTO 00000KT 10SM OVC070 09/04 A3029 -310 71 -1000 000/00 RMK AO2 SLP256 T00940044
53915KARA ARA20161221045511312/21/16 04:55:31  5-MIN KARA 211055Z AUTO 00000KT 10SM OVC070 09/03 A3029 -310 65 -1000 000/00 RMK AO2 T00940033
53915KARA ARA20161221050011312/21/16 05:00:31  5-MIN KARA 211100Z AUTO 00000KT 10SM OVC070 09/03 A3029 -310 65 -1000 000/00 RMK AO2 T00940033
53915KARA ARA20161221050511312/21/16 05:05:31  5-MIN KARA 211105Z AUTO 00000KT 10SM OVC070 09/03 A3029 -310 65 -1000 000/00 RMK AO2 T00940033
53915KARA ARA20161221051011312/21/16 05:10:31  5-MIN KARA 211110Z AUTO 00000KT 10SM OVC070 09/03 A3029 -310 65 -1000 000/00 RMK AO2 T00940033
53915KARA ARA20161221051511212/21/16 05:15:31  5-MIN KARA 211115Z AUTO 00000KT 10SM OVC070 10/03 A3029 -310 63 -900 000/00 RMK AO2 T01000033
53915KARA ARA20161221052011212/21/16 05:20:31  5-MIN KARA 211120Z AUTO 00000KT 10SM OVC070 10/04 A3029 -310 65 -900 000/00 RMK AO2 T01000039
53915KARA ARA20161221052511212/21/16 05:25:31  5-MIN KARA 211125Z AUTO 00000KT 10SM OVC070 10/04 A3029 -310 68 -900 000/00 RMK AO2 T01000044
53915KARA ARA20161221053011212/21/16 05:30:31  5-MIN KARA 211130Z AUTO 00000KT 10SM OVC070 10/04 A3029 -310 68 -900 000/00 RMK AO2 T01000044
53915KARA ARA20161221053511212/21/16 05:35:31  5-MIN KARA 211135Z AUTO 00000KT 10SM OVC070 10/04 A3029 -310 65 -900 000/00 RMK AO2 T01000039
53915KARA ARA20161221054011212/21/16 05:40:31  5-MIN KARA 211140Z AUTO 00000KT 10SM OVC070 10/03 A3029 -310 63 -900 000/00 RMK AO2 T01000033
53915KARA ARA20161221054511212/21/16 05:45:31  5-MIN KARA 211145Z AUTO 07003KT 10SM OVC070 10/04 A3029 -310 65 -900 070/03 RMK AO2 T01000039
53915KARA ARA20161221055013212/21/16 05:50:31  5-MIN KARA 211150Z 00000KT 10SM OVC070 10/04 A3029 -310 65 -900 000/00 RMK AO2 SLP257 T01000039 10100 20061 58003
53915KARA ARA20161221055510712/21/16 05:55:31  5-MIN KARA 211155Z 03003KT 10SM OVC070 10/04 A3029 -310 65 -900 030/03 RMK AO2 T01000039
53915KARA ARA20161221060010712/21/16 06:00:31  5-MIN KARA 211200Z 06003KT 10SM OVC070 10/04 A3029 -310 65 -900 060/03 RMK AO2 T01000039
53915KARA ARA20161221060510712/21/16 06:05:31  5-MIN KARA 211205Z 08004KT 10SM OVC070 10/04 A3029 -310 65 -900 080/04 RMK AO2 T01000039
53915KARA ARA20161221061010712/21/16 06:10:31  5-MIN KARA 211210Z 09003KT 10SM OVC070 10/04 A3029 -310 65 -900 090/03 RMK AO2 T01000039
53915KARA ARA20161221061510712/21/16 06:15:31  5-MIN KARA 211215Z 09003KT 10SM OVC070 10/04 A3029 -310 65 -900 090/03 RMK AO2 T01000039
53915KARA ARA20161221062010712/21/16 06:20:31  5-MIN KARA 211220Z 00000KT 10SM OVC070 10/04 A3029 -310 65 -900 000/00 RMK AO2 T01000039
53915KARA ARA20161221062510712/21/16 06:25:31  5-MIN KARA 211225Z 09003KT 10SM OVC070 10/04 A3029 -310 65 -900 090/03 RMK AO2 T01000039
53915KARA ARA20161221063010712/21/16 06:30:31  5-MIN KARA 211230Z 00000KT 10SM OVC070 10/04 A3030 -310 65 -900 000/00 RMK AO2 T01000039
53915KARA ARA20161221063510712/21/16 06:35:31  5-MIN KARA 211235Z 08003KT 10SM OVC070 10/04 A3030 -310 68 -900 080/03 RMK AO2 T01000044
53915KARA ARA20161221064010712/21/16 06:40:31  5-MIN KARA 211240Z 10003KT 10SM OVC070 10/04 A3029 -310 65 -900 100/03 RMK AO2 T01000039
53915KARA ARA20161221064510712/21/16 06:45:31  5-MIN KARA 211245Z 09003KT 10SM OVC070 10/04 A3030 -320 68 -900 090/03 RMK AO2 T01000044
53915KARA ARA20161221065011412/21/16 06:50:31  5-MIN KARA 211250Z 04004KT 10SM OVC070 10/04 A3030 -320 68 -900 040/04 RMK AO2 SLP260 T01000044
53915KARA ARA20161221065510712/21/16 06:55:31  5-MIN KARA 211255Z 07003KT 10SM OVC070 10/04 A3030 -320 68 -900 070/03 RMK AO2 T01000044
53915KARA ARA20161221070010712/21/16 07:00:31  5-MIN KARA 211300Z 07004KT 10SM OVC070 10/04 A3030 -320 68 -900 070/04 RMK AO2 T01000044
53915KARA ARA20161221070510712/21/16 07:05:31  5-MIN KARA 211305Z 09004KT 10SM OVC070 10/04 A3030 -320 68 -900 090/04 RMK AO2 T01000044
53915KARA ARA20161221071010712/21/16 07:10:31  5-MIN KARA 211310Z 10004KT 10SM OVC070 10/04 A3030 -320 68 -900 100/04 RMK AO2 T01000044
53915KARA ARA20161221071510712/21/16 07:15:31  5-MIN KARA 211315Z 11005KT 10SM OVC070 10/04 A3030 -320 68 -900 110/05 RMK AO2 T01000044
53915KARA ARA20161221072010712/21/16 07:20:31  5-MIN KARA 211320Z 11006KT 10SM OVC070 10/04 A3030 -310 68 -900 110/06 RMK AO2 T01000044
53915KARA ARA20161221072510712/21/16 07:25:31  5-MIN KARA 211325Z 12004KT 10SM OVC075 10/04 A3029 -310 68 -900 110/04 RMK AO2 T01000044
53915KARA ARA20161221073010712/21/16 07:30:31  5-MIN KARA 211330Z 12005KT 10SM OVC075 10/05 A3029 -310 71 -900 120/05 RMK AO2 T01000050
53915KARA ARA20161221073510712/21/16 07:35:31  5-MIN KARA 211335Z 11003KT 10SM OVC075 10/05 A3029 -310 71 -900 110/03 RMK AO2 T01000050
53915KARA ARA20161221074010712/21/16 07:40:31  5-MIN KARA 211340Z 13003KT 10SM OVC075 10/05 A3029 -310 71 -900 120/03 RMK AO2 T01000050
53915KARA ARA20161221074510712/21/16 07:45:31  5-MIN KARA 211345Z 00000KT 10SM OVC075 10/05 A3029 -310 71 -900 000/00 RMK AO2 T01000050
53915KARA ARA20161221075011412/21/16 07:50:31  5-MIN KARA 211350Z 12003KT 10SM OVC075 11/05 A3029 -310 68 -800 120/03 RMK AO2 SLP257 T01060050
53915KARA ARA20161221075510712/21/16 07:55:31  5-MIN KARA 211355Z 12003KT 10SM OVC075 11/05 A3029 -310 68 -800 110/03 RMK AO2 T01060050
53915KARA ARA20161221080010712/21/16 08:00:31  5-MIN KARA 211400Z 12004KT 10SM OVC080 11/05 A3029 -310 68 -800 120/04 RMK AO2 T01060050
53915KARA ARA20161221080510712/21/16 08:05:31  5-MIN KARA 211405Z 13003KT 10SM OVC080 11/05 A3029 -310 68 -800 130/03 RMK AO2 T01060050
53915KARA ARA20161221081010712/21/16 08:10:31  5-MIN KARA 211410Z 13004KT 10SM OVC080 11/05 A3029 -310 66 -800 130/04 RMK AO2 T01110050
53915KARA ARA20161221081510712/21/16 08:15:31  5-MIN KARA 211415Z 13004KT 10SM OVC080 11/04 A3029 -310 63 -800 130/04 RMK AO2 T01110044
53915KARA ARA20161221082010712/21/16 08:20:31  5-MIN KARA 211420Z 12004KT 10SM OVC080 11/04 A3029 -310 63 -800 120/04 RMK AO2 T01110044
53915KARA ARA20161221082510712/21/16 08:25:31  5-MIN KARA 211425Z 12004KT 10SM OVC080 11/04 A3030 -310 63 -800 120/04 RMK AO2 T01110044
53915KARA ARA20161221083010712/21/16 08:30:31  5-MIN KARA 211430Z 13005KT 10SM OVC080 12/04 A3030 -320 61 -700 130/05 RMK AO2 T01170044
53915KARA ARA20161221083510712/21/16 08:35:31  5-MIN KARA 211435Z 13003KT 10SM OVC080 12/04 A3030 -320 61 -700 130/03 RMK AO2 T01170044
53915KARA ARA20161221084010712/21/16 08:40:31  5-MIN KARA 211440Z 14004KT 10SM OVC080 12/04 A3030 -320 61 -700 140/04 RMK AO2 T01170044
53915KARA ARA20161221084510712/21/16 08:45:31  5-MIN KARA 211445Z VRB03KT 10SM OVC080 12/04 A3030 -320 61 -700 VRB/03 RMK AO2 T01170044
53915KARA ARA20161221085012012/21/16 08:50:31  5-MIN KARA 211450Z 12003KT 10SM OVC080 12/05 A3030 -320 61 -600 120/03 RMK AO2 SLP261 T01220050 55004
53915KARA ARA20161221085510712/21/16 08:55:31  5-MIN KARA 211455Z 13004KT 10SM OVC080 12/05 A3031 -320 61 -600 120/04 RMK AO2 T01220050
53915KARA ARA20161221090010712/21/16 09:00:31  5-MIN KARA 211500Z 14006KT 10SM OVC080 12/05 A3031 -320 61 -600 140/06 RMK AO2 T01220050
53915KARA ARA20161221090510712/21/16 09:05:31  5-MIN KARA 211505Z 14005KT 10SM OVC080 12/05 A3031 -320 61 -600 140/05 RMK AO2 T01220050
53915KARA ARA20161221091010712/21/16 09:10:31  5-MIN KARA 211510Z 13004KT 10SM OVC080 12/05 A3031 -330 61 -700 130/04 RMK AO2 T01220050
53915KARA ARA20161221091510712/21/16 09:15:31  5-MIN KARA 211515Z 15006KT 10SM OVC080 13/05 A3031 -330 59 -600 150/06 RMK AO2 T01280050
53915KARA ARA20161221092010712/21/16 09:20:31  5-MIN KARA 211520Z 14006KT 10SM OVC080 13/05 A3031 -330 59 -600 140/06 RMK AO2 T01280050
53915KARA ARA20161221092510712/21/16 09:25:31  5-MIN KARA 211525Z 15005KT 10SM OVC080 13/05 A3031 -330 59 -600 150/05 RMK AO2 T01280050
53915KARA ARA20161221093010712/21/16 09:30:31  5-MIN KARA 211530Z 16003KT 10SM OVC080 13/06 A3031 -330 61 -600 160/03 RMK AO2 T01280056
53915KARA ARA20161221093510712/21/16 09:35:31  5-MIN KARA 211535Z 16005KT 10SM OVC080 13/06 A3031 -330 59 -500 160/05 RMK AO2 T01330056
53915KARA ARA20161221094010712/21/16 09:40:31  5-MIN KARA 211540Z 17004KT 10SM OVC080 13/06 A3031 -330 59 -500 170/04 RMK AO2 T01330056
53915KARA ARA20161221094510712/21/16 09:45:31  5-MIN KARA 211545Z 16004KT 10SM OVC080 13/06 A3031 -320 59 -500 160/04 RMK AO2 T01330056
53915KARA ARA20161221095011412/21/16 09:50:31  5-MIN KARA 211550Z 15005KT 10SM OVC080 14/06 A3030 -320 57 -400 150/05 RMK AO2 SLP261 T01390056
53915KARA ARA20161221095510712/21/16 09:55:31  5-MIN KARA 211555Z 16005KT 10SM OVC080 14/06 A3030 -320 57 -400 160/05 RMK AO2 T01390056
53915KARA ARA20161221100010712/21/16 10:00:31  5-MIN KARA 211600Z 13006KT 10SM OVC080 14/06 A3030 -320 57 -400 130/06 RMK AO2 T01390056
53915KARA ARA20161221100510712/21/16 10:05:31  5-MIN KARA 211605Z 15004KT 10SM OVC080 14/06 A3030 -320 59 -400 150/04 RMK AO2 T01390061
53915KARA ARA20161221101010712/21/16 10:10:31  5-MIN KARA 211610Z 14004KT 10SM OVC080 14/06 A3030 -320 55 -400 140/04 RMK AO2 T01440056
53915KARA ARA20161221101510712/21/16 10:15:31  5-MIN KARA 211615Z 14004KT 10SM OVC080 14/06 A3030 -320 57 -400 140/04 RMK AO2 T01440061
53915KARA ARA20161221102010712/21/16 10:20:31  5-MIN KARA 211620Z 12004KT 10SM OVC080 14/06 A3030 -320 55 -400 120/04 RMK AO2 T01440056
53915KARA ARA20161221102510712/21/16 10:25:31  5-MIN KARA 211625Z 17004KT 10SM OVC080 15/06 A3030 -320 53 -300 170/04 RMK AO2 T01500056
53915KARA ARA20161221103010712/21/16 10:30:31  5-MIN KARA 211630Z VRB03KT 10SM OVC080 15/06 A3030 -320 53 -300 VRB/03 RMK AO2 T01500056
53915KARA ARA20161221103510712/21/16 10:35:31  5-MIN KARA 211635Z VRB03KT 10SM OVC080 15/06 A3030 -320 53 -300 VRB/03 RMK AO2 T01500056
53915KARA ARA20161221104010712/21/16 10:40:31  5-MIN KARA 211640Z 12004KT 10SM OVC080 15/06 A3030 -320 53 -300 120/04 RMK AO2 T01500056
53915KARA ARA20161221104510712/21/16 10:45:31  5-MIN KARA 211645Z 16004KT 10SM OVC080 15/06 A3030 -320 53 -300 160/04 RMK AO2 T01500056
53915KARA ARA20161221105011412/21/16 10:50:31  5-MIN KARA 211650Z 17004KT 10SM OVC080 15/05 A3030 -310 51 -300 170/04 RMK AO2 SLP258 T01500050
53915KARA ARA20161221105510712/21/16 10:55:31  5-MIN KARA 211655Z 18004KT 10SM OVC080 16/06 A3029 -310 51 -200 180/04 RMK AO2 T01560056
53915KARA ARA20161221110010712/21/16 11:00:31  5-MIN KARA 211700Z VRB04KT 10SM OVC080 16/06 A3029 -310 51 -200 VRB/04 RMK AO2 T01560056
53915KARA ARA20161221110510712/21/16 11:05:31  5-MIN KARA 211705Z 16005KT 10SM OVC080 16/06 A3029 -310 51 -200 160/05 RMK AO2 T01560056
53915KARA ARA20161221111010712/21/16 11:10:31  5-MIN KARA 211710Z 16004KT 10SM OVC080 16/06 A3029 -310 51 -200 160/04 RMK AO2 T01560056
53915KARA ARA20161221111510712/21/16 11:15:31  5-MIN KARA 211715Z VRB03KT 10SM OVC080 16/05 A3029 -300 49 -200 VRB/03 RMK AO2 T01560050
53915KARA ARA20161221112010712/21/16 11:20:31  5-MIN KARA 211720Z 16003KT 10SM OVC080 16/06 A3028 -300 49 -200 160/03 RMK AO2 T01610056
53915KARA ARA20161221112510712/21/16 11:25:31  5-MIN KARA 211725Z 17003KT 10SM OVC080 16/06 A3028 -300 49 -200 170/03 RMK AO2 T01610056
53915KARA ARA20161221113010712/21/16 11:30:31  5-MIN KARA 211730Z 00000KT 10SM OVC080 16/06 A3028 -300 49 -200 000/00 RMK AO2 T01610056
53915KARA ARA20161221113510712/21/16 11:35:31  5-MIN KARA 211735Z 14005KT 10SM OVC080 16/06 A3027 -290 49 -100 140/05 RMK AO2 T01610056
53915KARA ARA20161221114010712/21/16 11:40:31  5-MIN KARA 211740Z 17003KT 10SM OVC080 17/06 A3027 -290 47 -100 160/03 RMK AO2 T01670056
53915KARA ARA20161221114510712/21/16 11:45:31  5-MIN KARA 211745Z 00000KT 10SM OVC080 16/06 A3026 -290 49 -100 000/00 RMK AO2 T01610056
53915KARA ARA20161221115013212/21/16 11:50:31  5-MIN KARA 211750Z 00000KT 10SM OVC080 17/06 A3027 -290 47 -100 000/00 RMK AO2 SLP248 T01670056 10167 20100 53004
53915KARA ARA20161221115510712/21/16 11:55:31  5-MIN KARA 211755Z VRB03KT 10SM OVC080 17/06 A3027 -290 47 -100 VRB/03 RMK AO2 T01670056
53915KARA ARA20161221120010712/21/16 12:00:31  5-MIN KARA 211800Z 00000KT 10SM BKN080 17/06 A3027 -290 47 -100 000/00 RMK AO2 T01670056
53915KARA ARA20161221120510412/21/16 12:05:31  5-MIN KARA 211805Z 00000KT 10SM BKN080 17/06 A3026 -280 47 0 000/00 RMK AO2 T01720061
53915KARA ARA20161221121010412/21/16 12:10:31  5-MIN KARA 211810Z 00000KT 10SM SCT080 17/06 A3026 -280 46 0 000/00 RMK AO2 T01720056
53915KARA ARA20161221121510412/21/16 12:15:31  5-MIN KARA 211815Z 00000KT 10SM FEW080 18/06 A3026 -280 46 0 000/00 RMK AO2 T01780061
53915KARA ARA20161221122010612/21/16 12:20:31  5-MIN KARA 211820Z VRB03KT 10SM FEW080 18/06 A3025 -270 44 100 VRB/03 RMK AO2 T01830061
53915KARA ARA20161221122510112/21/16 12:25:31  5-MIN KARA 211825Z 11003KT 10SM CLR 18/06 A3025 -270 46 0 110/03 RMK AO2 T01780061
53915KARA ARA20161221123010312/21/16 12:30:31  5-MIN KARA 211830Z 00000KT 10SM CLR 18/06 A3025 -270 44 100 000/00 RMK AO2 T01830061
53915KARA ARA20161221123510312/21/16 12:35:31  5-MIN KARA 211835Z 22005KT 10SM CLR 18/06 A3025 -270 44 100 220/05 RMK AO2 T01830061
53915KARA ARA20161221124010312/21/16 12:40:31  5-MIN KARA 211840Z VRB03KT 10SM CLR 18/06 A3024 -270 44 100 VRB/03 RMK AO2 T01830061
53915KARA ARA20161221124510312/21/16 12:45:31  5-MIN KARA 211845Z 19005KT 10SM CLR 19/06 A3024 -260 43 200 190/05 RMK AO2 T01890061
53915KARA ARA20161221125011012/21/16 12:50:31  5-MIN KARA 211850Z 00000KT 10SM CLR 19/07 A3024 -260 44 200 000/00 RMK AO2 SLP239 T01890067
53915KARA ARA20161221125510312/21/16 12:55:31  5-MIN KARA 211855Z 11003KT 10SM CLR 19/06 A3024 -260 41 200 100/03 RMK AO2 T01940061
53915KARA ARA20161221130010612/21/16 13:00:31  5-MIN KARA 211900Z 12005KT 10SM FEW075 19/07 A3023 -260 43 200 120/05 RMK AO2 T01940067
53915KARA ARA20161221130510612/21/16 13:05:31  5-MIN KARA 211905Z 00000KT 10SM SCT075 19/06 A3023 -250 43 200 000/00 RMK AO2 T01890061
53915KARA ARA20161221131010612/21/16 13:10:31  5-MIN KARA 211910Z 24004KT 10SM BKN075 19/06 A3023 -250 43 200 240/04 RMK AO2 T01890061
53915KARA ARA20161221131510612/21/16 13:15:31  5-MIN KARA 211915Z VRB03KT 10SM BKN075 19/06 A3022 -250 43 200 VRB/03 RMK AO2 T01890061
53915KARA ARA20161221132010612/21/16 13:20:31  5-MIN KARA 211920Z 19004KT 10SM BKN075 19/06 A3022 -250 41 300 190/04 RMK AO2 T01940061
53915KARA ARA20161221132510612/21/16 13:25:31  5-MIN KARA 211925Z 17005KT 10SM SCT075 19/06 A3022 -240 41 300 170/05 RMK AO2 T01940061
53915KARA ARA20161221133010612/21/16 13:30:31  5-MIN KARA 211930Z 19005KT 10SM BKN075 19/06 A3021 -240 40 300 190/05 RMK AO2 T01940056
53915KARA ARA20161221133510612/21/16 13:35:31  5-MIN KARA 211935Z 17006KT 10SM BKN075 19/06 A3021 -240 41 200 170/06 RMK AO2 T01890056
53915KARA ARA20161221134010612/21/16 13:40:31  5-MIN KARA 211940Z 17005KT 10SM BKN075 19/06 A3021 -240 41 300 170/05 RMK AO2 T01940061
53915KARA ARA20161221134510612/21/16 13:45:31  5-MIN KARA 211945Z 19004KT 10SM BKN075 19/06 A3021 -230 41 300 190/04 RMK AO2 T01940061
53915KARA ARA20161221135011312/21/16 13:50:31  5-MIN KARA 211950Z 19007KT 10SM BKN075 19/06 A3021 -240 41 300 190/07 RMK AO2 SLP229 T01940061
53915KARA ARA20161221135510612/21/16 13:55:31  5-MIN KARA 211955Z 18005KT 10SM OVC075 19/06 A3021 -230 41 300 180/05 RMK AO2 T01940061
53915KARA ARA20161221140010612/21/16 14:00:31  5-MIN KARA 212000Z 21006KT 10SM OVC075 20/07 A3021 -240 41 300 210/06 RMK AO2 T02000067
53915KARA ARA20161221140510612/21/16 14:05:31  5-MIN KARA 212005Z 22006KT 10SM OVC075 20/07 A3021 -230 41 300 220/06 RMK AO2 T02000067
53915KARA ARA20161221141010612/21/16 14:10:31  5-MIN KARA 212010Z 22006KT 10SM OVC075 19/08 A3021 -230 46 300 220/06 RMK AO2 T01940078
53915KARA ARA20161221141510612/21/16 14:15:31  5-MIN KARA 212015Z 22004KT 10SM OVC075 20/08 A3021 -230 45 300 210/04 RMK AO2 T02000078
53915KARA ARA20161221142010612/21/16 14:20:31  5-MIN KARA 212020Z 22006KT 10SM OVC075 20/08 A3021 -230 45 300 220/06 RMK AO2 T02000078
53915KARA ARA20161221142510612/21/16 14:25:31  5-MIN KARA 212025Z 22007KT 10SM BKN075 19/08 A3021 -230 48 300 210/07 RMK AO2 T01940083
53915KARA ARA20161221143010612/21/16 14:30:31  5-MIN KARA 212030Z 19006KT 10SM BKN075 20/09 A3020 -230 48 300 190/06 RMK AO2 T02000089
53915KARA ARA20161221143510612/21/16 14:35:31  5-MIN KARA 212035Z 19006KT 10SM SCT075 20/09 A3020 -230 50 300 190/06 RMK AO2 T02000094
53915KARA ARA20161221144010612/21/16 14:40:31  5-MIN KARA 212040Z 20008KT 10SM FEW075 20/09 A3020 -230 50 300 190/08 RMK AO2 T02000094
53915KARA ARA20161221144510612/21/16 14:45:31  5-MIN KARA 212045Z 22006KT 10SM FEW070 19/09 A3020 -220 52 300 210/06 RMK AO2 T01940094
53915KARA ARA20161221145011612/21/16 14:50:31  5-MIN KARA 212050Z 20007KT 10SM CLR 19/09 A3020 -220 52 300 190/07 RMK AO2 SLP224 T01940094 58012
53915KARA ARA20161221145510312/21/16 14:55:31  5-MIN KARA 212055Z 21007KT 10SM CLR 20/09 A3019 -220 50 300 210/07 RMK AO2 T02000094
53915KARA ARA20161221150010312/21/16 15:00:31  5-MIN KARA 212100Z 22008KT 10SM CLR 19/10 A3019 -220 54 300 220/08 RMK AO2 T01940100
53915KARA ARA20161221150510312/21/16 15:05:31  5-MIN KARA 212105Z 20007KT 10SM CLR 20/10 A3019 -220 52 300 200/07 RMK AO2 T02000100
53915KARA ARA20161221151010312/21/16 15:10:31  5-MIN KARA 212110Z 21008KT 10SM CLR 20/11 A3019 -220 54 300 210/08 RMK AO2 T02000106
53915KARA ARA20161221151510312/21/16 15:15:31  5-MIN KARA 212115Z 21007KT 10SM CLR 20/11 A3019 -220 54 400 210/07 RMK AO2 T02000106
53915KARA ARA20161221152010312/21/16 15:20:31  5-MIN KARA 212120Z 21008KT 10SM CLR 20/10 A3019 -220 52 400 210/08 RMK AO2 T02000100
53915KARA ARA20161221152510312/21/16 15:25:31  5-MIN KARA 212125Z 20007KT 10SM CLR 20/11 A3019 -220 54 300 200/07 RMK AO2 T02000106
53915KARA ARA20161221153010312/21/16 15:30:31  5-MIN KARA 212130Z 19007KT 10SM CLR 20/11 A3019 -220 54 300 190/07 RMK AO2 T02000106
53915KARA ARA20161221153510312/21/16 15:35:31  5-MIN KARA 212135Z 18007KT 10SM CLR 20/11 A3019 -220 54 300 180/07 RMK AO2 T02000106
53915KARA ARA20161221154010312/21/16 15:40:31  5-MIN KARA 212140Z 19006KT 10SM CLR 19/11 A3019 -220 56 300 190/06 RMK AO2 T01940106
53915KARA ARA20161221154510312/21/16 15:45:31  5-MIN KARA 212145Z 18006KT 10SM CLR 19/11 A3019 -220 56 300 180/06 RMK AO2 T01940106
53915KARA ARA20161221155011012/21/16 15:50:31  5-MIN KARA 212150Z 18006KT 10SM CLR 19/11 A3020 -220 56 300 180/06 RMK AO2 SLP224 T01940106
53915KARA ARA20161221155510312/21/16 15:55:31  5-MIN KARA 212155Z 18007KT 10SM CLR 19/11 A3020 -220 56 300 170/07 RMK AO2 T01940106
53915KARA ARA20161221160010312/21/16 16:00:31  5-MIN KARA 212200Z 19006KT 10SM CLR 19/11 A3020 -220 58 200 190/06 RMK AO2 T01890106
53915KARA ARA20161221160510312/21/16 16:05:31  5-MIN KARA 212205Z 19006KT 10SM CLR 19/11 A3019 -220 56 300 180/06 RMK AO2 T01940106
53915KARA ARA20161221161010312/21/16 16:10:31  5-MIN KARA 212210Z 19005KT 10SM CLR 19/11 A3019 -220 58 200 190/05 RMK AO2 T01890106
53915KARA ARA20161221161510312/21/16 16:15:31  5-MIN KARA 212215Z 20006KT 10SM CLR 19/11 A3019 -220 58 200 200/06 RMK AO2 T01890106
53915KARA ARA20161221162010312/21/16 16:20:31  5-MIN KARA 212220Z 17005KT 10SM CLR 19/11 A3020 -220 60 200 170/05 RMK AO2 T01890111
53915KARA ARA20161221162510312/21/16 16:25:31  5-MIN KARA 212225Z 18006KT 10SM CLR 18/11 A3020 -220 60 200 170/06 RMK AO2 T01830106
53915KARA ARA20161221163010312/21/16 16:30:31  5-MIN KARA 212230Z 18006KT 10SM CLR 18/11 A3019 -220 62 200 180/06 RMK AO2 T01830111
53915KARA ARA20161221163510312/21/16 16:35:31  5-MIN KARA 212235Z 18006KT 10SM CLR 18/11 A3019 -220 62 100 180/06 RMK AO2 T01780106
53915KARA ARA20161221164010312/21/16 16:40:31  5-MIN KARA 212240Z 19006KT 10SM CLR 18/11 A3019 -220 62 100 180/06 RMK AO2 T01780106
53915KARA ARA20161221164510112/21/16 16:45:31  5-MIN KARA 212245Z 18006KT 10SM CLR 17/11 A3019 -220 64 0 180/06 RMK AO2 T01720106
53915KARA ARA20161221165010812/21/16 16:50:31  5-MIN KARA 212250Z 19005KT 10SM CLR 17/11 A3019 -220 64 0 190/05 RMK AO2 SLP224 T01720106
53915KARA ARA20161221165510112/21/16 16:55:31  5-MIN KARA 212255Z 19005KT 10SM CLR 17/11 A3020 -220 67 0 190/05 RMK AO2 T01670106
53915KARA ARA20161221170010412/21/16 17:00:31  5-MIN KARA 212300Z 19005KT 10SM FEW021 17/11 A3020 -220 67 0 190/05 RMK AO2 T01670106
53915KARA ARA20161221170510712/21/16 17:05:31  5-MIN KARA 212305Z 19005KT 10SM SCT021 16/11 A3019 -220 69 -100 190/05 RMK AO2 T01610106
53915KARA ARA20161221171010712/21/16 17:10:31  5-MIN KARA 212310Z 19005KT 10SM SCT021 16/11 A3019 -220 69 -100 190/05 RMK AO2 T01610106
53915KARA ARA20161221171510412/21/16 17:15:31  5-MIN KARA 212315Z 18006KT 10SM BKN021 17/11 A3019 -220 69 0 180/06 RMK AO2 T01670111
53915KARA ARA20161221172010412/21/16 17:20:31  5-MIN KARA 212320Z 19005KT 10SM BKN020 17/11 A3019 -220 69 0 190/05 RMK AO2 T01670111
53915KARA ARA20161221172510412/21/16 17:25:31  5-MIN KARA 212325Z 19004KT 10SM OVC020 17/11 A3019 -220 69 0 190/04 RMK AO2 T01670111
53915KARA ARA20161221173010712/21/16 17:30:31  5-MIN KARA 212330Z 20004KT 10SM OVC020 16/11 A3020 -220 72 -100 200/04 RMK AO2 T01610111
53915KARA ARA20161221173510712/21/16 17:35:31  5-MIN KARA 212335Z 20004KT 10SM OVC020 16/11 A3020 -220 72 -100 200/04 RMK AO2 T01610111
53915KARA ARA20161221174010712/21/16 17:40:31  5-MIN KARA 212340Z 19003KT 10SM OVC020 16/11 A3020 -220 72 -100 190/03 RMK AO2 T01610111
53915KARA ARA20161221174510712/21/16 17:45:31  5-MIN KARA 212345Z 18003KT 10SM OVC020 16/11 A3020 -220 72 -100 180/03 RMK AO2 T01610111
53915KARA ARA20161221175013212/21/16 17:50:31  5-MIN KARA 212350Z 18003KT 10SM OVC020 16/12 A3020 -220 75 -100 180/03 RMK AO2 SLP224 T01610117 10200 20161 56025
53915KARA ARA20161221175510712/21/16 17:55:31  5-MIN KARA 212355Z 18003KT 10SM OVC020 16/12 A3019 -220 75 -100 180/03 RMK AO2 T01610117
53915KARA ARA20161221180010712/21/16 18:00:31  5-MIN KARA 220000Z 18003KT 10SM OVC019 16/12 A3020 -220 75 -100 180/03 RMK AO2 T01610117
53915KARA ARA20161221180510712/21/16 18:05:31  5-MIN KARA 220005Z 18004KT 10SM OVC019 16/12 A3020 -220 75 -100 180/04 RMK AO2 T01610117
53915KARA ARA20161221181010712/21/16 18:10:31  5-MIN KARA 220010Z 18004KT 10SM OVC019 16/12 A3020 -220 75 -100 180/04 RMK AO2 T01610117
53915KARA ARA20161221181510712/21/16 18:15:31  5-MIN KARA 220015Z 18005KT 10SM OVC019 16/12 A3020 -220 75 -100 180/05 RMK AO2 T01610117
53915KARA ARA20161221182010712/21/16 18:20:31  5-MIN KARA 220020Z 17005KT 10SM OVC019 16/12 A3020 -220 77 -100 170/05 RMK AO2 T01560117
53915KARA ARA20161221182510712/21/16 18:25:31  5-MIN KARA 220025Z 17004KT 10SM OVC020 16/12 A3020 -220 77 -100 170/04 RMK AO2 T01560117
53915KARA ARA20161221183010712/21/16 18:30:31  5-MIN KARA 220030Z 17004KT 10SM OVC020 16/12 A3020 -220 77 -100 170/04 RMK AO2 T01560117
53915KARA ARA20161221183510712/21/16 18:35:31  5-MIN KARA 220035Z 18004KT 10SM BKN020 15/11 A3020 -220 77 -200 180/04 RMK AO2 T01500111
53915KARA ARA20161221184010712/21/16 18:40:31  5-MIN KARA 220040Z 18004KT 10SM BKN020 15/11 A3020 -230 77 -200 180/04 RMK AO2 T01500111
53915KARA ARA20161221184510712/21/16 18:45:31  5-MIN KARA 220045Z 19004KT 10SM OVC020 14/11 A3020 -230 80 -300 190/04 RMK AO2 T01440111
53915KARA ARA20161221185011412/21/16 18:50:31  5-MIN KARA 220050Z 19004KT 10SM OVC021 14/11 A3020 -230 80 -300 190/04 RMK AO2 SLP227 T01440111
53915KARA ARA20161221185510712/21/16 18:55:31  5-MIN KARA 220055Z 20003KT 10SM OVC021 14/11 A3021 -230 80 -300 200/03 RMK AO2 T01440111
53915KARA ARA20161221190010712/21/16 19:00:31  5-MIN KARA 220100Z 00000KT 10SM OVC021 14/11 A3021 -230 80 -300 000/00 RMK AO2 T01440111
53915KARA ARA20161221190510712/21/16 19:05:31  5-MIN KARA 220105Z 00000KT 10SM OVC021 14/11 A3021 -230 80 -300 000/00 RMK AO2 T01440111
53915KARA ARA20161221191010712/21/16 19:10:31  5-MIN KARA 220110Z 00000KT 10SM OVC020 14/11 A3021 -230 80 -300 000/00 RMK AO2 T01440111
53915KARA ARA20161221191510712/21/16 19:15:31  5-MIN KARA 220115Z 00000KT 10SM OVC020 14/12 A3021 -240 83 -300 000/00 RMK AO2 T01440117
53915KARA ARA20161221192010712/21/16 19:20:31  5-MIN KARA 220120Z 25003KT 10SM OVC020 14/12 A3021 -240 83 -300 250/03 RMK AO2 T01440117
53915KARA ARA20161221192510712/21/16 19:25:31  5-MIN KARA 220125Z 25003KT 10SM OVC019 14/12 A3022 -240 83 -300 240/03 RMK AO2 T01440117
53915KARA ARA20161221193010712/21/16 19:30:31  5-MIN KARA 220130Z 27003KT 10SM OVC017 14/12 A3022 -240 83 -300 270/03 RMK AO2 T01440117
53915KARA ARA20161221193510612/21/16 19:35:31  5-MIN KARA 220135Z 00000KT 9SM OVC017 14/12 A3022 -250 83 -300 000/00 RMK AO2 T01440117
53915KARA ARA20161221194010612/21/16 19:40:31  5-MIN KARA 220140Z 00000KT 9SM OVC017 15/12 A3022 -250 83 -200 000/00 RMK AO2 T01500122
53915KARA ARA20161221194510612/21/16 19:45:31  5-MIN KARA 220145Z 00000KT 9SM OVC017 15/12 A3023 -250 83 -200 000/00 RMK AO2 T01500122
53915KARA ARA20161221195011312/21/16 19:50:31  5-MIN KARA 220150Z 00000KT 9SM OVC018 15/12 A3023 -250 83 -200 000/00 RMK AO2 SLP236 T01500122
53915KARA ARA20161221195510612/21/16 19:55:31  5-MIN KARA 220155Z 00000KT 9SM OVC020 15/12 A3023 -260 83 -200 000/00 RMK AO2 T01500122
53915KARA ARA20161221200010612/21/16 20:00:31  5-MIN KARA 220200Z 28003KT 9SM OVC020 15/12 A3023 -260 83 -200 280/03 RMK AO2 T01500122
53915KARA ARA20161221200510612/21/16 20:05:31  5-MIN KARA 220205Z 00000KT 9SM OVC020 15/12 A3023 -260 83 -200 000/00 RMK AO2 T01500122
53915KARA ARA20161221201010612/21/16 20:10:31  5-MIN KARA 220210Z 00000KT 9SM OVC021 15/12 A3023 -260 83 -200 000/00 RMK AO2 T01500122
53915KARA ARA20161221201510612/21/16 20:15:31  5-MIN KARA 220215Z 00000KT 9SM OVC021 15/12 A3024 -260 83 -200 000/00 RMK AO2 T01500122
53915KARA ARA20161221202010612/21/16 20:20:31  5-MIN KARA 220220Z 00000KT 9SM OVC021 15/12 A3024 -260 83 -200 000/00 RMK AO2 T01500122
53915KARA ARA20161221202510612/21/16 20:25:31  5-MIN KARA 220225Z 00000KT 9SM OVC021 15/12 A3024 -260 83 -200 000/00 RMK AO2 T01500122
53915KARA ARA20161221203010612/21/16 20:30:31  5-MIN KARA 220230Z 00000KT 9SM OVC022 15/12 A3024 -260 83 -200 000/00 RMK AO2 T01500122
53915KARA ARA20161221203510612/21/16 20:35:31  5-MIN KARA 220235Z 00000KT 9SM OVC022 15/12 A3024 -260 83 -200 000/00 RMK AO2 T01500122
53915KARA ARA20161221204010612/21/16 20:40:31  5-MIN KARA 220240Z 14003KT 9SM OVC022 15/12 A3024 -260 83 -200 140/03 RMK AO2 T01500122
53915KARA ARA20161221204511112/21/16 20:45:31  5-MIN KARA 220245Z AUTO 00000KT 9SM OVC023 15/12 A3024 -260 83 -200 000/00 RMK AO2 T01500122
53915KARA ARA20161221205012412/21/16 20:50:31  5-MIN KARA 220250Z AUTO 00000KT 9SM OVC023 15/12 A3024 -260 83 -200 000/00 RMK AO2 SLP239 T01500122 50000
53915KARA ARA20161221205511112/21/16 20:55:31  5-MIN KARA 220255Z AUTO 00000KT 9SM OVC024 15/12 A3024 -260 83 -200 000/00 RMK AO2 T01500122
53915KARA ARA20161221210011212/21/16 21:00:31  5-MIN KARA 220300Z AUTO 16003KT 10SM OVC024 15/12 A3023 -260 83 -200 160/03 RMK AO2 T01500122
53915KARA ARA20161221210511112/21/16 21:05:31  5-MIN KARA 220305Z AUTO 15004KT 9SM OVC024 14/12 A3023 -260 86 -300 140/04 RMK AO2 T01440122
53915KARA ARA20161221211011112/21/16 21:10:31  5-MIN KARA 220310Z AUTO 14005KT 9SM OVC025 14/12 A3023 -250 86 -300 140/05 RMK AO2 T01440122
53915KARA ARA20161221211511112/21/16 21:15:31  5-MIN KARA 220315Z AUTO 13005KT 9SM OVC025 14/12 A3023 -250 86 -300 130/05 RMK AO2 T01440122
53915KARA ARA20161221212011112/21/16 21:20:31  5-MIN KARA 220320Z AUTO 13005KT 9SM OVC025 14/12 A3022 -250 86 -300 130/05 RMK AO2 T01440122
53915KARA ARA20161221212511112/21/16 21:25:31  5-MIN KARA 220325Z AUTO 13006KT 8SM OVC025 15/13 A3022 -250 86 -200 130/06 RMK AO2 T01500128
53915KARA ARA20161221213011112/21/16 21:30:31  5-MIN KARA 220330Z AUTO 13006KT 8SM OVC025 15/13 A3022 -250 86 -200 130/06 RMK AO2 T01500128
53915KARA ARA20161221213511112/21/16 21:35:31  5-MIN KARA 220335Z AUTO 13007KT 8SM OVC025 16/13 A3022 -250 83 -200 130/07 RMK AO2 T01560128
53915KARA ARA20161221214011112/21/16 21:40:31  5-MIN KARA 220340Z AUTO 14007KT 8SM OVC025 16/13 A3022 -250 83 -200 130/07 RMK AO2 T01560128
53915KARA ARA20161221214511112/21/16 21:45:31  5-MIN KARA 220345Z AUTO 14007KT 8SM OVC025 16/13 A3022 -250 83 -200 130/07 RMK AO2 T01560128
53915KARA ARA20161221215011812/21/16 21:50:31  5-MIN KARA 220350Z AUTO 14008KT 8SM OVC025 16/13 A3022 -250 83 -200 140/08 RMK AO2 SLP233 T01560128
53915KARA ARA20161221215511112/21/16 21:55:31  5-MIN KARA 220355Z AUTO 14007KT 8SM OVC025 16/13 A3022 -250 83 -200 140/07 RMK AO2 T01560128
53915KARA ARA20161221220011112/21/16 22:00:31  5-MIN KARA 220400Z AUTO 13006KT 8SM OVC025 16/13 A3022 -250 83 -200 130/06 RMK AO2 T01560128
53915KARA ARA20161221220511112/21/16 22:05:31  5-MIN KARA 220405Z AUTO 13007KT 8SM OVC025 16/13 A3022 -250 86 -200 130/07 RMK AO2 T01560133
53915KARA ARA20161221221011112/21/16 22:10:31  5-MIN KARA 220410Z AUTO 14007KT 8SM OVC025 16/13 A3022 -250 86 -200 140/07 RMK AO2 T01560133
53915KARA ARA20161221221511112/21/16 22:15:31  5-MIN KARA 220415Z AUTO 13006KT 8SM OVC025 16/13 A3022 -250 86 -200 130/06 RMK AO2 T01560133
53915KARA ARA20161221222011112/21/16 22:20:31  5-MIN KARA 220420Z AUTO 13007KT 8SM OVC025 16/13 A3022 -250 86 -200 130/07 RMK AO2 T01560133
53915KARA ARA20161221222511112/21/16 22:25:31  5-MIN KARA 220425Z AUTO 13008KT 8SM OVC025 16/13 A3022 -250 86 -200 130/08 RMK AO2 T01560133
53915KARA ARA20161221223011112/21/16 22:30:31  5-MIN KARA 220430Z AUTO 13008KT 8SM OVC025 16/13 A3022 -240 86 -200 130/08 RMK AO2 T01560133
53915KARA ARA20161221223511112/21/16 22:35:31  5-MIN KARA 220435Z AUTO 14007KT 8SM OVC025 16/13 A3022 -240 86 -200 130/07 RMK AO2 T01560133
53915KARA ARA20161221224011112/21/16 22:40:31  5-MIN KARA 220440Z AUTO 14006KT 8SM OVC025 16/13 A3022 -240 86 -200 140/06 RMK AO2 T01560133
53915KARA ARA20161221224511112/21/16 22:45:31  5-MIN KARA 220445Z AUTO 14007KT 8SM OVC025 16/13 A3022 -240 86 -200 140/07 RMK AO2 T01560133
53915KARA ARA20161221225011812/21/16 22:50:31  5-MIN KARA 220450Z AUTO 15006KT 8SM OVC025 16/13 A3022 -240 86 -200 150/06 RMK AO2 SLP232 T01560133
53915KARA ARA20161221225511112/21/16 22:55:31  5-MIN KARA 220455Z AUTO 15006KT 8SM OVC025 16/13 A3022 -240 86 -200 150/06 RMK AO2 T01560133
53915KARA ARA20161221230011112/21/16 23:00:31  5-MIN KARA 220500Z AUTO 15008KT 8SM OVC025 16/13 A3022 -240 86 -100 140/08 RMK AO2 T01560133
53915KARA ARA20161221230511112/21/16 23:05:31  5-MIN KARA 220505Z AUTO 14008KT 8SM OVC025 16/13 A3022 -240 86 -100 140/08 RMK AO2 T01560133
53915KARA ARA20161221231011112/21/16 23:10:31  5-MIN KARA 220510Z AUTO 14007KT 7SM OVC025 16/13 A3022 -240 86 -100 140/07 RMK AO2 T01560133
53915KARA ARA20161221231511112/21/16 23:15:31  5-MIN KARA 220515Z AUTO 14008KT 7SM OVC026 16/13 A3021 -240 86 -100 140/08 RMK AO2 T01560133
53915KARA ARA20161221232011112/21/16 23:20:31  5-MIN KARA 220520Z AUTO 14007KT 7SM OVC026 16/13 A3022 -240 83 -100 140/07 RMK AO2 T01610133
53915KARA ARA20161221232511112/21/16 23:25:31  5-MIN KARA 220525Z AUTO 15006KT 7SM OVC026 16/13 A3022 -240 83 -100 150/06 RMK AO2 T01610133
53915KARA ARA20161221233011112/21/16 23:30:31  5-MIN KARA 220530Z AUTO 15006KT 7SM OVC026 16/14 A3021 -240 86 -100 140/06 RMK AO2 T01610139
53915KARA ARA20161221233511112/21/16 23:35:31  5-MIN KARA 220535Z AUTO 15007KT 7SM OVC026 16/14 A3021 -240 86 -100 140/07 RMK AO2 T01610139
53915KARA ARA20161221234011112/21/16 23:40:31  5-MIN KARA 220540Z AUTO 15007KT 7SM OVC026 16/14 A3021 -240 86 -100 150/07 RMK AO2 T01610139
53915KARA ARA20161221234511112/21/16 23:45:31  5-MIN KARA 220545Z AUTO 15006KT 8SM OVC026 16/14 A3021 -240 86 -100 150/06 RMK AO2 T01610139
53915KARA ARA20161221235014612/21/16 23:50:31  5-MIN KARA 220550Z AUTO 16006KT 8SM OVC026 16/14 A3021 -240 86 -100 160/06 RMK AO2 SLP229 T01610139 10161 20144 402000061 51014
53915KARA ARA20161221235511112/21/16 23:55:31  5-MIN KARA 220555Z AUTO 16006KT 8SM OVC026 16/14 A3021 -240 86 -100 160/06 RMK AO2 T01610139
53915KARA ARA20161222000011112/22/16 00:00:31  5-MIN KARA 220600Z AUTO 16006KT 8SM OVC026 16/14 A3021 -240 86 -100 160/06 RMK AO2 T01610139
53915KARA ARA20161222000511112/22/16 00:05:31  5-MIN KARA 220605Z AUTO 15006KT 8SM OVC026 16/14 A3021 -240 86 -100 150/06 RMK AO2 T01610139
53915KARA ARA20161222001011112/22/16 00:10:31  5-MIN KARA 220610Z AUTO 16006KT 8SM OVC026 16/14 A3021 -240 86 -100 160/06 RMK AO2 T01610139
53915KARA ARA20161222001511112/22/16 00:15:31  5-MIN KARA 220615Z AUTO 16005KT 8SM OVC026 16/14 A3022 -240 86 -100 160/05 RMK AO2 T01610139
53915KARA ARA20161222002011112/22/16 00:20:31  5-MIN KARA 220620Z AUTO 17005KT 8SM OVC026 16/14 A3022 -240 86 -100 170/05 RMK AO2 T01610139
53915KARA ARA20161222002511112/22/16 00:25:31  5-MIN KARA 220625Z AUTO 17004KT 8SM OVC025 16/14 A3022 -250 86 -100 170/04 RMK AO2 T01610139
53915KARA ARA20161222003011112/22/16 00:30:31  5-MIN KARA 220630Z AUTO 17003KT 8SM OVC025 16/14 A3022 -250 86 -100 170/03 RMK AO2 T01610139
53915KARA ARA20161222003511112/22/16 00:35:31  5-MIN KARA 220635Z AUTO 00000KT 8SM OVC025 16/14 A3022 -250 90 -100 000/00 RMK AO2 T01610144
53915KARA ARA20161222004011112/22/16 00:40:31  5-MIN KARA 220640Z AUTO 00000KT 8SM OVC025 16/14 A3022 -250 90 -100 000/00 RMK AO2 T01610144
53915KARA ARA20161222004511112/22/16 00:45:31  5-MIN KARA 220645Z AUTO 16004KT 8SM OVC025 16/14 A3022 -250 86 -100 160/04 RMK AO2 T01610139
53915KARA ARA20161222005011812/22/16 00:50:31  5-MIN KARA 220650Z AUTO 15004KT 8SM OVC025 16/14 A3022 -250 86 -100 150/04 RMK AO2 SLP233 T01610139
53915KARA ARA20161222005511112/22/16 00:55:31  5-MIN KARA 220655Z AUTO 15004KT 8SM OVC024 16/14 A3022 -240 86 -100 150/04 RMK AO2 T01610139
53915KARA ARA20161222010011112/22/16 01:00:31  5-MIN KARA 220700Z AUTO 16004KT 8SM OVC024 16/14 A3022 -240 86 -100 160/04 RMK AO2 T01610139
53915KARA ARA20161222010511112/22/16 01:05:31  5-MIN KARA 220705Z AUTO 17003KT 8SM OVC024 16/14 A3022 -240 90 -100 160/03 RMK AO2 T01610144
53915KARA ARA20161222011011112/22/16 01:10:31  5-MIN KARA 220710Z AUTO 17003KT 8SM OVC024 16/14 A3022 -240 90 -100 170/03 RMK AO2 T01610144
53915KARA ARA20161222011511112/22/16 01:15:31  5-MIN KARA 220715Z AUTO 16003KT 8SM OVC023 16/14 A3021 -240 90 -100 160/03 RMK AO2 T01610144
53915KARA ARA20161222012011112/22/16 01:20:31  5-MIN KARA 220720Z AUTO 16003KT 8SM OVC023 16/14 A3021 -240 90 -100 160/03 RMK AO2 T01610144
53915KARA ARA20161222012511112/22/16 01:25:31  5-MIN KARA 220725Z AUTO 15004KT 8SM OVC023 16/14 A3021 -240 86 -100 150/04 RMK AO2 T01610139
53915KARA ARA20161222013011112/22/16 01:30:31  5-MIN KARA 220730Z AUTO 15004KT 8SM OVC023 16/14 A3021 -230 86 -100 150/04 RMK AO2 T01610139
53915KARA ARA20161222013511112/22/16 01:35:31  5-MIN KARA 220735Z AUTO 15004KT 8SM OVC023 16/14 A3021 -230 86 -100 150/04 RMK AO2 T01610139
53915KARA ARA20161222014011112/22/16 01:40:31  5-MIN KARA 220740Z AUTO 15004KT 8SM OVC023 16/14 A3021 -230 90 -100 150/04 RMK AO2 T01610144
53915KARA ARA20161222014511112/22/16 01:45:31  5-MIN KARA 220745Z AUTO 15004KT 8SM OVC023 16/14 A3021 -230 90 -100 150/04 RMK AO2 T01610144
53915KARA ARA20161222015011812/22/16 01:50:31  5-MIN KARA 220750Z AUTO 16004KT 8SM OVC023 16/14 A3021 -230 90 -100 160/04 RMK AO2 SLP228 T01610144
53915KARA ARA20161222015511112/22/16 01:55:31  5-MIN KARA 220755Z AUTO 00000KT 8SM OVC023 16/14 A3021 -230 90 -100 000/00 RMK AO2 T01610144
53915KARA ARA20161222020011112/22/16 02:00:31  5-MIN KARA 220800Z AUTO 17003KT 8SM OVC023 16/14 A3021 -230 90 -100 170/03 RMK AO2 T01610144
53915KARA ARA20161222020511112/22/16 02:05:31  5-MIN KARA 220805Z AUTO 16003KT 8SM OVC023 16/14 A3021 -230 90 -100 160/03 RMK AO2 T01610144
53915KARA ARA20161222021011112/22/16 02:10:31  5-MIN KARA 220810Z AUTO 17003KT 8SM OVC023 16/14 A3021 -240 90 -100 160/03 RMK AO2 T01610144
53915KARA ARA20161222021511112/22/16 02:15:31  5-MIN KARA 220815Z AUTO 00000KT 8SM OVC023 16/14 A3021 -240 90 -100 000/00 RMK AO2 T01610144
53915KARA ARA20161222022011112/22/16 02:20:31  5-MIN KARA 220820Z AUTO 00000KT 8SM OVC023 16/14 A3021 -240 90 -100 000/00 RMK AO2 T01610144
53915KARA ARA20161222022511112/22/16 02:25:31  5-MIN KARA 220825Z AUTO 00000KT 8SM OVC022 16/14 A3021 -240 90 -100 000/00 RMK AO2 T01610144
53915KARA ARA20161222023010812/22/16 02:30:31  5-MIN KARA 220830Z AUTO 00000KT 8SM OVC022 17/14 A3021 -240 86 0 000/00 RMK AO2 T01670144
53915KARA ARA20161222023510812/22/16 02:35:31  5-MIN KARA 220835Z AUTO 00000KT 8SM OVC022 17/14 A3022 -240 86 0 000/00 RMK AO2 T01670144
53915KARA ARA20161222024011112/22/16 02:40:31  5-MIN KARA 220840Z AUTO 30003KT 8SM OVC022 16/14 A3022 -240 86 -100 300/03 RMK AO2 T01610139
53915KARA ARA20161222024513012/22/16 02:45:31  5-MIN KARA 220845Z AUTO 31005KT 6SM -RA BR OVC022 16/14 A3022 -240 86 -100 310/05 RMK AO2 RAB43 P0000 T01610139
53915KARA ARA20161222025014912/22/16 02:50:31  5-MIN KARA 220850Z AUTO 32004KT 6SM -RA BR OVC022 16/14 A3022 -240 86 -100 320/04 RMK AO2 RAB43 SLP232 P0000 60000 T01610139 56009
53915KARA ARA20161222025513012/22/16 02:55:31  5-MIN KARA 220855Z AUTO 32004KT 5SM -RA BR OVC022 16/14 A3022 -240 86 -100 320/04 RMK AO2 RAB55 P0000 T01610139
53915KARA ARA20161222030013212/22/16 03:00:31  5-MIN KARA 220900Z AUTO 33004KT 4SM -RA BR OVC022 16/14 A3022 -250 93 -200 330/04 RMK AO2 RAB0855 P0000 T01560144
53915KARA ARA20161222030513212/22/16 03:05:31  5-MIN KARA 220905Z AUTO 33004KT 4SM -RA BR OVC022 16/14 A3022 -250 93 -200 330/04 RMK AO2 RAB0855 P0000 T01560144
53915KARA ARA20161222031013912/22/16 03:10:31  5-MIN KARA 220910Z AUTO 00000KT 4SM -RA BR FEW014 OVC022 16/14 A3022 -250 93 -200 000/00 RMK AO2 RAB0855 P0000 T01560144
53915KARA ARA20161222131512212/22/16 13:15:31  5-MIN KARA 221915Z 07008KT 6SM HZ FEW006 BKN019 OVC029 19/17 A3023 -250 84 200 060/08 RMK AO2 T01940167
53915KARA ARA20161222132012212/22/16 13:20:31  5-MIN KARA 221920Z 06007KT 6SM HZ FEW006 BKN019 OVC030 19/17 A3022 -250 84 300 060/07 RMK AO2 T01940167
53915KARA ARA20161222132511912/22/16 13:25:31  5-MIN KARA 221925Z 06007KT 7SM FEW006 BKN013 OVC030 19/16 A3022 -250 84 200 060/07 RMK AO2 T01890161
53915KARA ARA20161222133011912/22/16 13:30:31  5-MIN KARA 221930Z 05008KT 9SM BKN013 BKN019 OVC032 19/16 A3022 -250 84 200 050/08 RMK AO2 T01890161
53915KARA ARA20161222133511312/22/16 13:35:31  5-MIN KARA 221935Z 05008KT 10SM BKN013 OVC019 19/16 A3022 -250 84 200 050/08 RMK AO2 T01890161
53915KARA ARA20161222134012012/22/16 13:40:31  5-MIN KARA 221940Z 05007KT 10SM SCT007 BKN013 OVC019 19/16 A3022 -250 84 200 050/07 RMK AO2 T01890161
53915KARA ARA20161222134512512/22/16 13:45:31  5-MIN KARA 221945Z 06006KT 10SM BKN007 OVC013 19/16 A3022 -250 84 200 060/06 RMK AO2 CIG 007V011 T01890161
53915KARA ARA20161222135012012/22/16 13:50:31  5-MIN KARA 221950Z 05007KT 10SM BKN007 OVC013 19/16 A3022 -250 84 200 050/07 RMK AO2 SLP233 T01890161
53915KARA ARA20161222135511312/22/16 13:55:31  5-MIN KARA 221955Z 06006KT 10SM BKN007 OVC013 18/16 A3022 -250 84 100 060/06 RMK AO2 T01830156
53915KARA ARA20161222140011812/22/16 14:00:31  5-MIN KARA 222000Z 05005KT 10SM OVC007 18/16 A3022 -250 84 100 050/05 RMK AO2 CIG 007V010 T01830156
53915KARA ARA20161222140511812/22/16 14:05:31  5-MIN KARA 222005Z 06006KT 10SM OVC009 19/16 A3022 -250 81 200 050/06 RMK AO2 CIG 007V011 T01890156
53915KARA ARA20161222141011812/22/16 14:10:31  5-MIN KARA 222010Z 05006KT 10SM OVC009 19/16 A3022 -240 81 200 050/06 RMK AO2 CIG 007V012 T01890156
53915KARA ARA20161222141510612/22/16 14:15:31  5-MIN KARA 222015Z 07006KT 10SM OVC011 19/16 A3021 -240 81 200 070/06 RMK AO2 T01890156
53915KARA ARA20161222142010612/22/16 14:20:31  5-MIN KARA 222020Z 08007KT 10SM OVC011 19/16 A3021 -240 81 200 070/07 RMK AO2 T01890156
53915KARA ARA20161222142510612/22/16 14:25:31  5-MIN KARA 222025Z 07006KT 10SM OVC011 19/16 A3021 -240 81 200 060/06 RMK AO2 T01890156
53915KARA ARA20161222143010612/22/16 14:30:31  5-MIN KARA 222030Z 06004KT 10SM OVC011 19/16 A3021 -240 78 300 060/04 RMK AO2 T01940156
53915KARA ARA20161222143510612/22/16 14:35:31  5-MIN KARA 222035Z 04006KT 10SM OVC011 19/16 A3021 -240 78 300 040/06 RMK AO2 T01940156
53915KARA ARA20161222144010612/22/16 14:40:31  5-MIN KARA 222040Z 04006KT 10SM OVC013 19/16 A3021 -240 78 300 040/06 RMK AO2 T01940156
53915KARA ARA20161222144510612/22/16 14:45:31  5-MIN KARA 222045Z 04005KT 10SM OVC013 19/16 A3021 -240 78 300 040/05 RMK AO2 T01940156
53915KARA ARA20161222145011912/22/16 14:50:31  5-MIN KARA 222050Z 05006KT 10SM OVC013 19/16 A3022 -240 78 300 050/06 RMK AO2 SLP231 T01940156 58007
53915KARA ARA20161222145510612/22/16 14:55:31  5-MIN KARA 222055Z 04006KT 10SM OVC013 19/16 A3022 -240 78 300 030/06 RMK AO2 T01940156
53915KARA ARA20161222150010612/22/16 15:00:31  5-MIN KARA 222100Z 05004KT 10SM OVC014 19/16 A3022 -240 78 300 050/04 RMK AO2 T01940156
53915KARA ARA20161222150511312/22/16 15:05:31  5-MIN KARA 222105Z 07006KT 10SM BKN014 OVC022 19/16 A3022 -240 78 300 070/06 RMK AO2 T01940156
53915KARA ARA20161222151011312/22/16 15:10:31  5-MIN KARA 222110Z 06006KT 10SM BKN014 OVC022 20/16 A3022 -240 75 300 060/06 RMK AO2 T02000156
53915KARA ARA20161222151511312/22/16 15:15:31  5-MIN KARA 222115Z 05006KT 10SM BKN014 OVC022 19/16 A3022 -240 78 300 050/06 RMK AO2 T01940156
53915KARA ARA20161222152011312/22/16 15:20:31  5-MIN KARA 222120Z 04007KT 10SM BKN015 OVC022 19/16 A3022 -240 78 300 030/07 RMK AO2 T01940156
53915KARA ARA20161222152512012/22/16 15:25:31  5-MIN KARA 222125Z 05007KT 10SM SCT015 BKN022 OVC031 19/16 A3022 -240 78 300 050/07 RMK AO2 T01940156
53915KARA ARA20161222153012012/22/16 15:30:31  5-MIN KARA 222130Z 04006KT 10SM FEW014 BKN022 OVC031 19/16 A3022 -240 78 300 030/06 RMK AO2 T01940156
53915KARA ARA20161222153512012/22/16 15:35:31  5-MIN KARA 222135Z 05006KT 10SM FEW014 BKN021 OVC031 19/15 A3022 -240 75 300 050/06 RMK AO2 T01940150
53915KARA ARA20161222154012012/22/16 15:40:31  5-MIN KARA 222140Z 05006KT 10SM FEW014 BKN021 OVC031 19/15 A3022 -240 75 300 050/06 RMK AO2 T01940150
53915KARA ARA20161222154512012/22/16 15:45:31  5-MIN KARA 222145Z 04007KT 10SM FEW014 SCT021 OVC031 19/15 A3022 -240 75 300 040/07 RMK AO2 T01940150
53915KARA ARA20161222155012012/22/16 15:50:31  5-MIN KARA 222150Z 04007KT 10SM FEW021 OVC029 19/15 A3022 -250 75 300 040/07 RMK AO2 SLP232 T01940150
53915KARA ARA20161222155511312/22/16 15:55:31  5-MIN KARA 222155Z 05006KT 10SM FEW019 OVC029 19/15 A3022 -250 75 300 050/06 RMK AO2 T01940150
53915KARA ARA20161222160010612/22/16 16:00:31  5-MIN KARA 222200Z 05006KT 10SM OVC029 19/15 A3022 -240 75 300 050/06 RMK AO2 T01940150
53915KARA ARA20161222160510612/22/16 16:05:31  5-MIN KARA 222205Z 06006KT 10SM OVC029 19/15 A3022 -240 75 300 060/06 RMK AO2 T01940150
53915KARA ARA20161222161010612/22/16 16:10:31  5-MIN KARA 222210Z 07005KT 10SM OVC027 19/15 A3022 -240 75 300 060/05 RMK AO2 T01940150
53915KARA ARA20161222161510612/22/16 16:15:31  5-MIN KARA 222215Z 07005KT 10SM BKN027 19/15 A3021 -240 75 300 070/05 RMK AO2 T01940150
53915KARA ARA20161222162010612/22/16 16:20:31  5-MIN KARA 222220Z 07006KT 10SM BKN027 19/15 A3021 -240 75 300 070/06 RMK AO2 T01940150
53915KARA ARA20161222162510612/22/16 16:25:31  5-MIN KARA 222225Z 07005KT 10SM SCT027 19/15 A3022 -240 75 300 070/05 RMK AO2 T01940150
53915KARA ARA20161222163010612/22/16 16:30:31  5-MIN KARA 222230Z 09005KT 10SM FEW027 19/15 A3022 -240 75 300 080/05 RMK AO2 T01940150
53915KARA ARA20161222163510612/22/16 16:35:31  5-MIN KARA 222235Z 09005KT 10SM FEW027 19/15 A3022 -240 75 300 080/05 RMK AO2 T01940150
53915KARA ARA20161222164010312/22/16 16:40:31  5-MIN KARA 222240Z 08004KT 10SM CLR 19/15 A3022 -240 75 300 080/04 RMK AO2 T01940150
53915KARA ARA20161222164510312/22/16 16:45:31  5-MIN KARA 222245Z 07004KT 10SM CLR 19/15 A3022 -250 75 200 070/04 RMK AO2 T01940150
53915KARA ARA20161222165011012/22/16 16:50:31  5-MIN KARA 222250Z 06004KT 10SM CLR 19/14 A3023 -250 75 200 060/04 RMK AO2 SLP234 T01890144
53915KARA ARA20161222165510312/22/16 16:55:31  5-MIN KARA 222255Z 04003KT 10SM CLR 19/14 A3023 -250 75 200 040/03 RMK AO2 T01890144
53915KARA ARA20161222170010312/22/16 17:00:31  5-MIN KARA 222300Z 04003KT 10SM CLR 19/14 A3023 -250 75 200 040/03 RMK AO2 T01890144
53915KARA ARA20161222170510312/22/16 17:05:31  5-MIN KARA 222305Z 03004KT 10SM CLR 18/14 A3023 -250 78 100 030/04 RMK AO2 T01830144
53915KARA ARA20161222171010112/22/16 17:10:31  5-MIN KARA 222310Z 03004KT 10SM CLR 18/14 A3023 -250 81 0 030/04 RMK AO2 T01780144
53915KARA ARA20161222171510112/22/16 17:15:31  5-MIN KARA 222315Z 02004KT 10SM CLR 18/14 A3023 -260 81 0 020/04 RMK AO2 T01780144
53915KARA ARA20161222172010112/22/16 17:20:31  5-MIN KARA 222320Z 36005KT 10SM CLR 17/14 A3024 -260 80 0 360/05 RMK AO2 T01720139
53915KARA ARA20161222172510112/22/16 17:25:31  5-MIN KARA 222325Z 01005KT 10SM CLR 17/14 A3024 -260 83 0 360/05 RMK AO2 T01670139
53915KARA ARA20161222173010112/22/16 17:30:31  5-MIN KARA 222330Z 01005KT 10SM CLR 17/14 A3024 -260 83 0 360/05 RMK AO2 T01670139
53915KARA ARA20161222173510412/22/16 17:35:31  5-MIN KARA 222335Z 35004KT 10SM FEW037 17/14 A3024 -260 80 0 350/04 RMK AO2 T01720139
53915KARA ARA20161222174010412/22/16 17:40:31  5-MIN KARA 222340Z 36004KT 10SM SCT037 17/14 A3024 -260 83 0 360/04 RMK AO2 T01670139
53915KARA ARA20161222174510412/22/16 17:45:31  5-MIN KARA 222345Z 35004KT 10SM SCT037 17/14 A3024 -260 83 0 350/04 RMK AO2 T01670139
53915KARA ARA20161222175013212/22/16 17:50:31  5-MIN KARA 222350Z 35004KT 10SM SCT036 16/14 A3025 -270 86 -100 350/04 RMK AO2 SLP242 T01610139 10200 20161 56006
53915KARA ARA20161222175510712/22/16 17:55:31  5-MIN KARA 222355Z 35004KT 10SM BKN034 17/14 A3025 -270 83 -100 350/04 RMK AO2 T01670139
53915KARA ARA20161222180010712/22/16 18:00:31  5-MIN KARA 230000Z 35004KT 10SM BKN034 17/14 A3025 -270 86 -100 350/04 RMK AO2 T01670144
53915KARA ARA20161222180510712/22/16 18:05:31  5-MIN KARA 230005Z 35004KT 10SM BKN032 17/14 A3025 -270 86 -100 350/04 RMK AO2 T01670144
53915KARA ARA20161222181010412/22/16 18:10:31  5-MIN KARA 230010Z 36005KT 10SM BKN032 17/14 A3025 -280 83 0 360/05 RMK AO2 T01720144
53915KARA ARA20161222181510712/22/16 18:15:31  5-MIN KARA 230015Z 01004KT 10SM OVC032 17/14 A3025 -280 83 -100 010/04 RMK AO2 T01670139
53915KARA ARA20161222182010712/22/16 18:20:31  5-MIN KARA 230020Z 36004KT 10SM OVC031 17/14 A3026 -280 86 -100 350/04 RMK AO2 T01670144
53915KARA ARA20161222182510412/22/16 18:25:31  5-MIN KARA 230025Z 36004KT 10SM OVC031 17/14 A3026 -280 83 0 360/04 RMK AO2 T01720144
53915KARA ARA20161222183011112/22/16 18:30:31  5-MIN KARA 230030Z 36005KT 10SM SCT025 OVC031 17/14 A3026 -280 83 0 360/05 RMK AO2 T01720144
53915KARA ARA20161222183510412/22/16 18:35:31  5-MIN KARA 230035Z 01005KT 10SM OVC029 17/14 A3026 -280 83 0 010/05 RMK AO2 T01720144
53915KARA ARA20161222184011112/22/16 18:40:31  5-MIN KARA 230040Z 01005KT 10SM FEW025 OVC031 18/14 A3026 -280 81 0 010/05 RMK AO2 T01780144
53915KARA ARA20161222184511112/22/16 18:45:31  5-MIN KARA 230045Z 01004KT 10SM FEW025 OVC031 18/15 A3026 -280 83 0 010/04 RMK AO2 T01780150
53915KARA ARA20161222185011812/22/16 18:50:31  5-MIN KARA 230050Z 36004KT 10SM FEW025 OVC033 18/14 A3026 -280 81 0 360/04 RMK AO2 SLP246 T01780144
53915KARA ARA20161222185511112/22/16 18:55:31  5-MIN KARA 230055Z 36004KT 10SM FEW025 OVC033 18/14 A3026 -280 81 0 360/04 RMK AO2 T01780144
53915KARA ARA20161222190010412/22/16 19:00:31  5-MIN KARA 230100Z 02003KT 10SM OVC033 18/14 A3026 -280 81 0 020/03 RMK AO2 T01780144
53915KARA ARA20161222190511112/22/16 19:05:31  5-MIN KARA 230105Z 03003KT 10SM FEW026 OVC033 18/14 A3026 -280 81 0 030/03 RMK AO2 T01780144
53915KARA ARA20161222191011112/22/16 19:10:31  5-MIN KARA 230110Z 04004KT 10SM FEW025 OVC035 18/14 A3026 -280 81 0 040/04 RMK AO2 T01780144
53915KARA ARA20161222191511112/22/16 19:15:31  5-MIN KARA 230115Z 04004KT 10SM SCT027 OVC035 18/14 A3026 -280 81 0 040/04 RMK AO2 T01780144
53915KARA ARA20161222192011112/22/16 19:20:31  5-MIN KARA 230120Z 05004KT 10SM BKN027 OVC035 18/14 A3026 -280 81 0 040/04 RMK AO2 T01780144
53915KARA ARA20161222192511112/22/16 19:25:31  5-MIN KARA 230125Z 05005KT 10SM BKN027 OVC035 18/14 A3027 -290 81 0 050/05 RMK AO2 T01780144
53915KARA ARA20161222193011112/22/16 19:30:31  5-MIN KARA 230130Z 04005KT 10SM BKN027 OVC035 18/14 A3027 -290 81 0 040/05 RMK AO2 T01780144
53915KARA ARA20161222193511112/22/16 19:35:31  5-MIN KARA 230135Z 03004KT 10SM BKN025 OVC033 18/14 A3027 -290 81 0 030/04 RMK AO2 T01780144
53915KARA ARA20161222194010412/22/16 19:40:31  5-MIN KARA 230140Z 03005KT 10SM OVC025 18/14 A3027 -290 81 0 030/05 RMK AO2 T01780144
53915KARA ARA20161222194510412/22/16 19:45:31  5-MIN KARA 230145Z 03004KT 10SM OVC025 18/14 A3027 -290 81 0 030/04 RMK AO2 T01780144
53915KARA ARA20161222195011812/22/16 19:50:31  5-MIN KARA 230150Z 03005KT 10SM BKN025 OVC030 18/14 A3027 -290 81 0 030/05 RMK AO2 SLP249 T01780144
53915KARA ARA20161222195511112/22/16 19:55:31  5-MIN KARA 230155Z 04006KT 10SM BKN025 OVC030 18/14 A3027 -290 81 0 040/06 RMK AO2 T01780144
53915KARA ARA20161222200011112/22/16 20:00:31  5-MIN KARA 230200Z 04005KT 10SM BKN024 OVC030 18/14 A3027 -290 81 0 040/05 RMK AO2 T01780144
53915KARA ARA20161222200511112/22/16 20:05:31  5-MIN KARA 230205Z 04006KT 10SM BKN024 OVC030 18/14 A3027 -290 81 0 040/06 RMK AO2 T01780144
53915KARA ARA20161222201011112/22/16 20:10:31  5-MIN KARA 230210Z 04006KT 10SM BKN024 OVC030 18/14 A3027 -290 81 0 040/06 RMK AO2 T01780144
53915KARA ARA20161222201511112/22/16 20:15:31  5-MIN KARA 230215Z 04007KT 10SM BKN024 OVC030 18/14 A3027 -290 81 0 040/07 RMK AO2 T01780144
53915KARA ARA20161222202011112/22/16 20:20:31  5-MIN KARA 230220Z 04007KT 10SM BKN024 OVC031 18/14 A3027 -290 78 0 040/07 RMK AO2 T01780139
53915KARA ARA20161222202511112/22/16 20:25:31  5-MIN KARA 230225Z 04007KT 10SM BKN024 OVC031 18/14 A3027 -290 78 0 040/07 RMK AO2 T01780139
53915KARA ARA20161222203011112/22/16 20:30:31  5-MIN KARA 230230Z 04007KT 10SM BKN023 OVC031 18/14 A3027 -290 78 0 040/07 RMK AO2 T01780139
53915KARA ARA20161222203510412/22/16 20:35:31  5-MIN KARA 230235Z 04007KT 10SM OVC023 18/14 A3027 -290 78 0 040/07 RMK AO2 T01780139
53915KARA ARA20161222204010412/22/16 20:40:31  5-MIN KARA 230240Z 04008KT 10SM OVC023 17/14 A3027 -290 80 0 040/08 RMK AO2 T01720139
53915KARA ARA20161222204510912/22/16 20:45:31  5-MIN KARA 230245Z AUTO 05007KT 10SM OVC023 17/14 A3027 -290 80 0 050/07 RMK AO2 T01720139
53915KARA ARA20161222205012912/22/16 20:50:31  5-MIN KARA 230250Z AUTO 05008KT 10SM BKN025 OVC029 17/14 A3026 -290 80 0 050/08 RMK AO2 SLP247 T01720139 53010
53915KARA ARA20161222205511612/22/16 20:55:31  5-MIN KARA 230255Z AUTO 05007KT 10SM BKN025 OVC029 17/14 A3026 -290 80 0 050/07 RMK AO2 T01720139
53915KARA ARA20161222210011612/22/16 21:00:31  5-MIN KARA 230300Z AUTO 05007KT 10SM BKN025 OVC031 17/14 A3026 -280 80 0 050/07 RMK AO2 T01720139
53915KARA ARA20161222210511612/22/16 21:05:31  5-MIN KARA 230305Z AUTO 05007KT 10SM BKN025 OVC031 17/14 A3026 -280 80 0 050/07 RMK AO2 T01720139
53915KARA ARA20161222211011612/22/16 21:10:31  5-MIN KARA 230310Z AUTO 05007KT 10SM SCT025 OVC033 17/14 A3027 -290 80 0 050/07 RMK AO2 T01720139
53915KARA ARA20161222211511612/22/16 21:15:31  5-MIN KARA 230315Z AUTO 05007KT 10SM FEW025 BKN033 17/14 A3027 -290 80 0 050/07 RMK AO2 T01720139
53915KARA ARA20161222212011612/22/16 21:20:31  5-MIN KARA 230320Z AUTO 04006KT 10SM SCT025 BKN033 17/14 A3027 -290 80 0 040/06 RMK AO2 T01720139
53915KARA ARA20161222212511912/22/16 21:25:31  5-MIN KARA 230325Z AUTO 05006KT 10SM BKN028 BKN035 17/14 A3027 -290 83 -100 040/06 RMK AO2 T01670139
53915KARA ARA20161222213011912/22/16 21:30:31  5-MIN KARA 230330Z AUTO 05007KT 10SM BKN027 BKN035 17/14 A3027 -290 83 -100 050/07 RMK AO2 T01670139
53915KARA ARA20161222213511912/22/16 21:35:31  5-MIN KARA 230335Z AUTO 05007KT 10SM SCT027 BKN033 17/14 A3027 -290 83 -100 040/07 RMK AO2 T01670139
53915KARA ARA20161222214011912/22/16 21:40:31  5-MIN KARA 230340Z AUTO 04006KT 10SM SCT027 OVC035 17/14 A3027 -290 83 -100 040/06 RMK AO2 T01670139
53915KARA ARA20161222214511812/22/16 21:45:31  5-MIN KARA 230345Z AUTO 04007KT 9SM SCT027 OVC035 17/14 A3027 -290 83 -100 040/07 RMK AO2 T01670139
53915KARA ARA20161222215012512/22/16 21:50:31  5-MIN KARA 230350Z AUTO 04007KT 9SM SCT024 OVC035 17/14 A3027 -290 83 -100 040/07 RMK AO2 SLP249 T01670139
53915KARA ARA20161222215511812/22/16 21:55:31  5-MIN KARA 230355Z AUTO 04007KT 9SM SCT024 BKN033 17/14 A3027 -290 83 -100 040/07 RMK AO2 T01670139
53915KARA ARA20161222220011812/22/16 22:00:31  5-MIN KARA 230400Z AUTO 04007KT 8SM FEW024 BKN035 16/14 A3027 -290 86 -100 030/07 RMK AO2 T01610139
53915KARA ARA20161222220511812/22/16 22:05:31  5-MIN KARA 230405Z AUTO 04007KT 8SM SCT024 BKN035 16/14 A3027 -290 86 -100 040/07 RMK AO2 T01610139
53915KARA ARA20161222221011812/22/16 22:10:31  5-MIN KARA 230410Z AUTO 05007KT 8SM FEW024 SCT035 16/14 A3027 -290 86 -100 050/07 RMK AO2 T01610139
53915KARA ARA20161222221511112/22/16 22:15:31  5-MIN KARA 230415Z AUTO 04007KT 8SM FEW024 16/14 A3027 -290 86 -100 040/07 RMK AO2 T01610139
53915KARA ARA20161222222010812/22/16 22:20:31  5-MIN KARA 230420Z AUTO 05007KT 7SM CLR 16/14 A3027 -290 86 -100 050/07 RMK AO2 T01610139
53915KARA ARA20161222222511112/22/16 22:25:31  5-MIN KARA 230425Z AUTO 05006KT 7SM SCT039 16/14 A3027 -290 86 -100 050/06 RMK AO2 T01610139
53915KARA ARA20161222223011112/22/16 22:30:31  5-MIN KARA 230430Z AUTO 05006KT 7SM BKN039 16/14 A3027 -290 86 -100 050/06 RMK AO2 T01610139
53915KARA ARA20161222223511112/22/16 22:35:31  5-MIN KARA 230435Z AUTO 05006KT 7SM BKN038 16/14 A3027 -290 86 -100 050/06 RMK AO2 T01610139
53915KARA ARA20161222224011112/22/16 22:40:31  5-MIN KARA 230440Z AUTO 04007KT 7SM BKN038 16/14 A3027 -290 86 -100 040/07 RMK AO2 T01610139
53915KARA ARA20161222224511112/22/16 22:45:31  5-MIN KARA 230445Z AUTO 05007KT 7SM BKN037 16/14 A3027 -290 86 -100 040/07 RMK AO2 T01610139
53915KARA ARA20161222225012112/22/16 22:50:31  5-MIN KARA 230450Z AUTO 05007KT 6SM BR OVC037 16/14 A3027 -290 86 -100 050/07 RMK AO2 SLP248 T01610139
53915KARA ARA20161222225511412/22/16 22:55:31  5-MIN KARA 230455Z AUTO 05007KT 6SM BR BKN037 16/14 A3027 -290 86 -100 050/07 RMK AO2 T01610139
53915KARA ARA20161222230011412/22/16 23:00:31  5-MIN KARA 230500Z AUTO 05005KT 6SM BR OVC037 16/14 A3026 -290 86 -100 050/05 RMK AO2 T01610139
53915KARA ARA20161222230511412/22/16 23:05:31  5-MIN KARA 230505Z AUTO 06004KT 6SM BR OVC037 16/14 A3026 -280 86 -100 060/04 RMK AO2 T01610139
53915KARA ARA20161222231011412/22/16 23:10:31  5-MIN KARA 230510Z AUTO 06003KT 6SM BR OVC037 16/14 A3026 -290 86 -100 060/03 RMK AO2 T01610139
53915KARA ARA20161222231512112/22/16 23:15:31  5-MIN KARA 230515Z AUTO 06004KT 6SM BR FEW014 OVC037 16/14 A3027 -290 86 -100 050/04 RMK AO2 T01610139
53915KARA ARA20161222232012112/22/16 23:20:31  5-MIN KARA 230520Z AUTO 06004KT 6SM BR SCT012 OVC037 16/14 A3026 -290 86 -100 060/04 RMK AO2 T01610139
53915KARA ARA20161222232512112/22/16 23:25:31  5-MIN KARA 230525Z AUTO 05004KT 6SM BR BKN012 OVC037 16/14 A3026 -290 90 -100 050/04 RMK AO2 T01610144
53915KARA ARA20161222233012112/22/16 23:30:31  5-MIN KARA 230530Z AUTO 05006KT 6SM BR BKN011 OVC037 16/14 A3026 -290 90 -100 040/06 RMK AO2 T01610144
53915KARA ARA20161222233513312/22/16 23:35:31  5-MIN KARA 230535Z AUTO 05005KT 6SM BR BKN011 OVC037 16/14 A3026 -280 90 -100 050/05 RMK AO2 CIG 009V015 T01610144
53915KARA ARA20161222234012612/22/16 23:40:31  5-MIN KARA 230540Z AUTO 05004KT 6SM BR OVC011 16/14 A3026 -280 90 -100 050/04 RMK AO2 CIG 009V015 T01610144
53915KARA ARA20161222234511412/22/16 23:45:31  5-MIN KARA 230545Z AUTO 05005KT 6SM BR OVC010 16/14 A3026 -280 90 -100 050/05 RMK AO2 T01610144
53915KARA ARA20161222235014912/22/16 23:50:31  5-MIN KARA 230550Z AUTO 04005KT 6SM BR OVC010 16/14 A3026 -280 90 -100 040/05 RMK AO2 SLP246 T01610144 10178 20161 402000156 50006
53915KARA ARA20161222235511412/22/16 23:55:31  5-MIN KARA 230555Z AUTO 03004KT 6SM BR OVC010 16/14 A3026 -280 90 -100 030/04 RMK AO2 T01610144
53915KARA ARA20161223000011412/23/16 00:00:31  5-MIN KARA 230600Z AUTO 03004KT 5SM BR OVC010 16/14 A3026 -280 90 -100 030/04 RMK AO2 T01610144
53915KARA ARA20161223000511412/23/16 00:05:31  5-MIN KARA 230605Z AUTO 03004KT 5SM BR OVC010 16/14 A3026 -280 90 -100 030/04 RMK AO2 T01610144
53915KARA ARA20161223001011412/23/16 00:10:31  5-MIN KARA 230610Z AUTO 04004KT 5SM BR OVC010 16/14 A3026 -280 90 -100 040/04 RMK AO2 T01610144
53915KARA ARA20161223001511412/23/16 00:15:31  5-MIN KARA 230615Z AUTO 05003KT 5SM BR OVC009 16/14 A3026 -280 90 -100 050/03 RMK AO2 T01610144
53915KARA ARA20161223002011412/23/16 00:20:31  5-MIN KARA 230620Z AUTO 06003KT 5SM BR OVC009 16/14 A3025 -280 90 -100 060/03 RMK AO2 T01610144
53915KARA ARA20161223002511412/23/16 00:25:31  5-MIN KARA 230625Z AUTO 06004KT 6SM BR OVC009 16/14 A3025 -270 90 -100 060/04 RMK AO2 T01610144
53915KARA ARA20161223003011412/23/16 00:30:31  5-MIN KARA 230630Z AUTO 00000KT 6SM BR OVC009 16/14 A3025 -270 90 -100 000/00 RMK AO2 T01610144
53915KARA ARA20161223003511412/23/16 00:35:31  5-MIN KARA 230635Z AUTO 06003KT 6SM BR OVC008 16/14 A3025 -270 90 -100 060/03 RMK AO2 T01610144
53915KARA ARA20161223004011412/23/16 00:40:31  5-MIN KARA 230640Z AUTO 05003KT 6SM BR OVC008 17/14 A3025 -270 86 -100 050/03 RMK AO2 T01670144
53915KARA ARA20161223004511412/23/16 00:45:31  5-MIN KARA 230645Z AUTO 04003KT 6SM BR OVC008 17/14 A3025 -270 86 -100 040/03 RMK AO2 T01670144
53915KARA ARA20161223005012112/23/16 00:50:31  5-MIN KARA 230650Z AUTO 04004KT 6SM BR OVC008 17/14 A3025 -270 86 -100 040/04 RMK AO2 SLP243 T01670144
53915KARA ARA20161223005511412/23/16 00:55:31  5-MIN KARA 230655Z AUTO 02004KT 5SM BR OVC008 16/14 A3025 -270 90 -100 020/04 RMK AO2 T01610144
53915KARA ARA20161223010011412/23/16 01:00:31  5-MIN KARA 230700Z AUTO 03005KT 5SM BR OVC008 16/14 A3025 -270 90 -100 030/05 RMK AO2 T01610144
53915KARA ARA20161223010511412/23/16 01:05:31  5-MIN KARA 230705Z AUTO 04005KT 5SM BR OVC008 16/14 A3025 -270 90 -100 040/05 RMK AO2 T01610144
53915KARA ARA20161223011011412/23/16 01:10:31  5-MIN KARA 230710Z AUTO 05005KT 5SM BR OVC008 16/14 A3025 -270 90 -100 050/05 RMK AO2 T01610144
53915KARA ARA20161223111511312/23/16 11:15:31  5-MIN KARA 231715Z 15011KT 10SM FEW016 FEW055 22/16 A3023 -250 68 600 150/11 RMK AO2 T02220161
53915KARA ARA20161223112010612/23/16 11:20:31  5-MIN KARA 231720Z 15012KT 10SM FEW050 23/16 A3022 -250 65 600 150/12 RMK AO2 T02280161
53915KARA ARA20161223112510612/23/16 11:25:31  5-MIN KARA 231725Z 16011KT 10SM SCT050 22/16 A3022 -240 68 600 160/11 RMK AO2 T02220161
53915KARA ARA20161223113010612/23/16 11:30:31  5-MIN KARA 231730Z 16008KT 10SM BKN050 22/16 A3022 -240 68 600 160/08 RMK AO2 T02220161
53915KARA ARA20161223113510612/23/16 11:35:31  5-MIN KARA 231735Z 16009KT 10SM BKN050 23/16 A3021 -240 65 600 160/09 RMK AO2 T02280161
53915KARA ARA20161223114010612/23/16 11:40:31  5-MIN KARA 231740Z 14010KT 10SM BKN050 22/16 A3021 -240 68 600 140/10 RMK AO2 T02220161
53915KARA ARA20161223114510612/23/16 11:45:31  5-MIN KARA 231745Z 17011KT 10SM OVC050 23/16 A3021 -230 65 700 160/11 RMK AO2 T02280161
53915KARA ARA20161223115013112/23/16 11:50:31  5-MIN KARA 231750Z 15010KT 10SM OVC050 23/16 A3020 -230 65 700 150/10 RMK AO2 SLP226 T02280161 10228 20161 53008
53915KARA ARA20161223115510612/23/16 11:55:31  5-MIN KARA 231755Z 16012KT 10SM OVC049 23/16 A3020 -220 63 700 160/12 RMK AO2 T02330161
53915KARA ARA20161223120010612/23/16 12:00:31  5-MIN KARA 231800Z 16011KT 10SM OVC049 23/16 A3019 -220 63 700 150/11 RMK AO2 T02330161
53915KARA ARA20161223120510612/23/16 12:05:31  5-MIN KARA 231805Z 15011KT 10SM OVC049 23/16 A3019 -220 63 700 150/11 RMK AO2 T02330161
53915KARA ARA20161223121010612/23/16 12:10:31  5-MIN KARA 231810Z 16013KT 10SM OVC049 23/17 A3019 -220 66 700 160/13 RMK AO2 T02330167
53915KARA ARA20161223121511312/23/16 12:15:31  5-MIN KARA 231815Z 17011KT 10SM FEW038 OVC049 23/16 A3019 -210 63 700 170/11 RMK AO2 T02330161
53915KARA ARA20161223122011312/23/16 12:20:31  5-MIN KARA 231820Z 17011KT 10SM SCT038 OVC049 23/16 A3018 -210 63 700 170/11 RMK AO2 T02330161
53915KARA ARA20161223122511312/23/16 12:25:31  5-MIN KARA 231825Z 15013KT 10SM SCT038 OVC050 23/16 A3018 -210 63 700 150/13 RMK AO2 T02330161
53915KARA ARA20161223123011312/23/16 12:30:31  5-MIN KARA 231830Z 16014KT 10SM BKN038 OVC050 23/16 A3018 -210 63 700 150/14 RMK AO2 T02330161
53915KARA ARA20161223123511312/23/16 12:35:31  5-MIN KARA 231835Z 15013KT 10SM BKN038 OVC050 23/16 A3018 -210 63 800 150/13 RMK AO2 T02330161
53915KARA ARA20161223124011312/23/16 12:40:31  5-MIN KARA 231840Z 15012KT 10SM BKN040 OVC050 23/16 A3017 -200 65 700 150/12 RMK AO2 T02280161
53915KARA ARA20161223124511312/23/16 12:45:31  5-MIN KARA 231845Z 15011KT 10SM BKN040 OVC050 23/17 A3017 -200 66 800 150/11 RMK AO2 T02330167
53915KARA ARA20161223125012012/23/16 12:50:31  5-MIN KARA 231850Z 15011KT 10SM SCT040 OVC050 23/17 A3017 -200 66 800 150/11 RMK AO2 SLP215 T02330167
53915KARA ARA20161223125511312/23/16 12:55:31  5-MIN KARA 231855Z 16010KT 10SM SCT042 OVC050 24/17 A3016 -190 63 800 160/10 RMK AO2 T02390167
53915KARA ARA20161223130011312/23/16 13:00:31  5-MIN KARA 231900Z 15012KT 10SM SCT042 OVC050 24/17 A3016 -190 63 800 150/12 RMK AO2 T02390167
53915KARA ARA20161223130510612/23/16 13:05:31  5-MIN KARA 231905Z 16012KT 10SM OVC050 24/17 A3015 -180 63 800 160/12 RMK AO2 T02390167
53915KARA ARA20161223131010612/23/16 13:10:31  5-MIN KARA 231910Z 15012KT 10SM OVC050 24/17 A3015 -180 63 800 150/12 RMK AO2 T02390167
53915KARA ARA20161223131510612/23/16 13:15:31  5-MIN KARA 231915Z 14013KT 10SM OVC050 24/17 A3015 -180 63 800 140/13 RMK AO2 T02390167
53915KARA ARA20161223132010612/23/16 13:20:31  5-MIN KARA 231920Z 15013KT 10SM OVC050 24/17 A3015 -180 63 800 150/13 RMK AO2 T02390167
53915KARA ARA20161223132510612/23/16 13:25:31  5-MIN KARA 231925Z 18012KT 10SM OVC050 24/17 A3014 -180 63 900 170/12 RMK AO2 T02390167
53915KARA ARA20161223133010612/23/16 13:30:31  5-MIN KARA 231930Z 17010KT 10SM OVC050 24/17 A3014 -170 63 900 170/10 RMK AO2 T02390167
53915KARA ARA20161223133510612/23/16 13:35:31  5-MIN KARA 231935Z 17010KT 10SM OVC050 24/17 A3014 -170 63 900 170/10 RMK AO2 T02390167
53915KARA ARA20161223134010612/23/16 13:40:31  5-MIN KARA 231940Z 17012KT 10SM OVC050 24/17 A3014 -170 63 900 170/12 RMK AO2 T02390167
53915KARA ARA20161223134510612/23/16 13:45:31  5-MIN KARA 231945Z 17012KT 10SM OVC050 24/17 A3014 -170 63 900 170/12 RMK AO2 T02390167
53915KARA ARA20161223135011312/23/16 13:50:31  5-MIN KARA 231950Z 18012KT 10SM OVC050 24/17 A3014 -170 63 900 180/12 RMK AO2 SLP205 T02390167
53915KARA ARA20161223135510612/23/16 13:55:31  5-MIN KARA 231955Z 17011KT 10SM OVC050 24/17 A3014 -170 63 900 170/11 RMK AO2 T02390167
53915KARA ARA20161223140010612/23/16 14:00:31  5-MIN KARA 232000Z 18012KT 10SM OVC050 24/17 A3014 -170 63 900 180/12 RMK AO2 T02390167
53915KARA ARA20161223140510612/23/16 14:05:31  5-MIN KARA 232005Z 17011KT 10SM OVC050 24/17 A3014 -170 61 900 170/11 RMK AO2 T02440167
53915KARA ARA20161223141010612/23/16 14:10:31  5-MIN KARA 232010Z 17012KT 10SM OVC050 24/17 A3014 -170 63 900 170/12 RMK AO2 T02390167
53915KARA ARA20161223141511412/23/16 14:15:31  5-MIN KARA 232015Z 15012KT 10SM FEW025 OVC050 25/17 A3013 -170 59 1000 150/12 RMK AO2 T02500167
53915KARA ARA20161223142011412/23/16 14:20:31  5-MIN KARA 232020Z 15013KT 10SM SCT025 OVC050 25/17 A3013 -160 59 1000 150/13 RMK AO2 T02500167
53915KARA ARA20161223142511412/23/16 14:25:31  5-MIN KARA 232025Z 16013KT 10SM SCT026 OVC050 25/17 A3013 -170 59 1000 150/13 RMK AO2 T02500167
53915KARA ARA20161223143011412/23/16 14:30:31  5-MIN KARA 232030Z 15013KT 10SM BKN026 OVC050 25/16 A3013 -170 57 1000 150/13 RMK AO2 T02500161
53915KARA ARA20161223143511912/23/16 14:35:31  5-MIN KARA 232035Z AUTO 16013KT 10SM BKN026 BKN050 25/16 A3013 -170 57 1000 160/13 RMK AO2 T02500161
53915KARA ARA20161223144011812/23/16 14:40:31  5-MIN KARA 232040Z AUTO 17014KT 10SM SCT026 BKN050 24/16 A3013 -170 59 900 170/14 RMK AO2 T02440161
53915KARA ARA20161223144511812/23/16 14:45:31  5-MIN KARA 232045Z AUTO 16013KT 10SM SCT026 BKN050 24/16 A3013 -170 59 900 160/13 RMK AO2 T02440161
53915KARA ARA20161223145012412/23/16 14:50:31  5-MIN KARA 232050Z AUTO 16014KT 10SM SCT028 24/16 A3013 -170 61 900 160/14 RMK AO2 SLP204 T02390161 58019
53915KARA ARA20161223145511812/23/16 14:55:31  5-MIN KARA 232055Z AUTO 17012KT 10SM FEW028 SCT050 24/16 A3014 -170 61 900 170/12 RMK AO2 T02390161
53915KARA ARA20161223150011812/23/16 15:00:31  5-MIN KARA 232100Z AUTO 17011KT 10SM FEW028 BKN050 23/16 A3014 -170 63 800 170/11 RMK AO2 T02330161
53915KARA ARA20161223150511812/23/16 15:05:31  5-MIN KARA 232105Z AUTO 16011KT 10SM FEW028 BKN050 23/16 A3014 -170 63 800 160/11 RMK AO2 T02330161
53915KARA ARA20161223151011812/23/16 15:10:31  5-MIN KARA 232110Z AUTO 16014KT 10SM FEW030 BKN050 23/16 A3014 -170 63 800 160/14 RMK AO2 T02330161
53915KARA ARA20161223151511112/23/16 15:15:31  5-MIN KARA 232115Z AUTO 18010KT 10SM BKN050 23/16 A3014 -170 63 800 170/10 RMK AO2 T02330161
53915KARA ARA20161223152011112/23/16 15:20:31  5-MIN KARA 232120Z AUTO 17012KT 10SM OVC050 24/16 A3014 -170 61 900 170/12 RMK AO2 T02390161
53915KARA ARA20161223152511112/23/16 15:25:31  5-MIN KARA 232125Z AUTO 17013KT 10SM BKN050 24/16 A3014 -170 61 900 170/13 RMK AO2 T02390161
53915KARA ARA20161223153011112/23/16 15:30:31  5-MIN KARA 232130Z AUTO 16015KT 10SM BKN050 23/16 A3014 -170 63 800 160/15 RMK AO2 T02330161
53915KARA ARA20161223153511812/23/16 15:35:31  5-MIN KARA 232135Z AUTO 16014KT 10SM FEW040 BKN050 23/16 A3014 -170 63 800 160/14 RMK AO2 T02330161
53915KARA ARA20161223154011812/23/16 15:40:31  5-MIN KARA 232140Z AUTO 16014KT 10SM FEW040 BKN050 23/16 A3014 -170 65 700 160/14 RMK AO2 T02280161
53915KARA ARA20161223154511812/23/16 15:45:31  5-MIN KARA 232145Z AUTO 16013KT 10SM FEW040 BKN050 23/16 A3014 -170 65 700 160/13 RMK AO2 T02280161
53915KARA ARA20161223155012512/23/16 15:50:31  5-MIN KARA 232150Z AUTO 16014KT 10SM FEW041 SCT048 23/16 A3014 -170 65 700 160/14 RMK AO2 SLP206 T02280161
53915KARA ARA20161223155511812/23/16 15:55:31  5-MIN KARA 232155Z AUTO 17013KT 10SM FEW041 SCT048 23/16 A3014 -170 65 700 170/13 RMK AO2 T02280161
53915KARA ARA20161223160011812/23/16 16:00:31  5-MIN KARA 232200Z AUTO 16014KT 10SM SCT041 SCT048 23/16 A3014 -170 65 700 160/14 RMK AO2 T02280161
53915KARA ARA20161223160511112/23/16 16:05:31  5-MIN KARA 232205Z AUTO 16012KT 10SM BKN043 23/16 A3014 -170 65 700 160/12 RMK AO2 T02280161
53915KARA ARA20161223161011112/23/16 16:10:31  5-MIN KARA 232210Z AUTO 16013KT 10SM SCT043 23/16 A3014 -170 65 700 150/13 RMK AO2 T02280161
53915KARA ARA20161223161511812/23/16 16:15:31  5-MIN KARA 232215Z AUTO 17010KT 10SM FEW025 SCT043 23/16 A3015 -180 65 700 170/10 RMK AO2 T02280161
53915KARA ARA20161223162011812/23/16 16:20:31  5-MIN KARA 232220Z AUTO 17012KT 10SM FEW025 SCT043 23/16 A3014 -180 65 700 170/12 RMK AO2 T02280161
53915KARA ARA20161223162511812/23/16 16:25:31  5-MIN KARA 232225Z AUTO 18009KT 10SM FEW025 SCT042 22/16 A3015 -180 68 700 180/09 RMK AO2 T02220161
53915KARA ARA20161223163011112/23/16 16:30:31  5-MIN KARA 232230Z AUTO 18009KT 10SM FEW042 22/16 A3014 -180 68 700 170/09 RMK AO2 T02220161
53915KARA ARA20161223163511112/23/16 16:35:31  5-MIN KARA 232235Z AUTO 18008KT 10SM FEW042 22/16 A3015 -180 68 700 180/08 RMK AO2 T02220161
53915KARA ARA20161223164011112/23/16 16:40:31  5-MIN KARA 232240Z AUTO 18010KT 10SM FEW042 22/16 A3015 -180 68 700 180/10 RMK AO2 T02220161
53915KARA ARA20161223164511112/23/16 16:45:31  5-MIN KARA 232245Z AUTO 18010KT 10SM SCT044 22/16 A3015 -180 70 600 180/10 RMK AO2 T02170161
53915KARA ARA20161223165011312/23/16 16:50:31  5-MIN KARA 232250Z 18009KT 10SM BKN044 22/16 A3015 -180 70 600 180/09 RMK AO2 SLP210 T02170161
53915KARA ARA20161223165510612/23/16 16:55:31  5-MIN KARA 232255Z 18010KT 10SM BKN044 22/16 A3015 -180 70 600 180/10 RMK AO2 T02170161
53915KARA ARA20161223170010612/23/16 17:00:31  5-MIN KARA 232300Z 18010KT 10SM BKN044 21/16 A3015 -180 73 500 180/10 RMK AO2 T02110161
53915KARA ARA20161223170510612/23/16 17:05:31  5-MIN KARA 232305Z 18008KT 10SM BKN045 21/16 A3015 -180 73 500 170/08 RMK AO2 T02110161
53915KARA ARA20161223171010612/23/16 17:10:31  5-MIN KARA 232310Z 17008KT 10SM BKN045 21/16 A3015 -180 73 500 170/08 RMK AO2 T02110161
53915KARA ARA20161223171510612/23/16 17:15:31  5-MIN KARA 232315Z 17008KT 10SM SCT045 21/16 A3015 -180 73 500 170/08 RMK AO2 T02110161
53915KARA ARA20161223172010612/23/16 17:20:31  5-MIN KARA 232320Z 17007KT 10SM SCT045 21/16 A3015 -180 75 500 170/07 RMK AO2 T02060161
53915KARA ARA20161223172510612/23/16 17:25:31  5-MIN KARA 232325Z 17008KT 10SM SCT045 21/16 A3015 -180 75 500 170/08 RMK AO2 T02060161
53915KARA ARA20161223173010612/23/16 17:30:31  5-MIN KARA 232330Z 17007KT 10SM SCT045 21/16 A3016 -190 75 500 170/07 RMK AO2 T02060161
53915KARA ARA20161223173510612/23/16 17:35:31  5-MIN KARA 232335Z 17006KT 10SM BKN047 21/16 A3016 -190 75 500 170/06 RMK AO2 T02060161
53915KARA ARA20161223174010612/23/16 17:40:31  5-MIN KARA 232340Z 17006KT 10SM BKN047 20/16 A3016 -190 78 400 160/06 RMK AO2 T02000161
53915KARA ARA20161223174510612/23/16 17:45:31  5-MIN KARA 232345Z 17005KT 10SM BKN047 20/16 A3016 -190 78 400 170/05 RMK AO2 T02000161
53915KARA ARA20161223175013112/23/16 17:50:31  5-MIN KARA 232350Z 17005KT 10SM SCT048 20/16 A3016 -190 78 400 170/05 RMK AO2 SLP211 T02000161 10256 20200 56021
53915KARA ARA20161223175510612/23/16 17:55:31  5-MIN KARA 232355Z 17005KT 10SM BKN048 20/16 A3016 -190 78 400 170/05 RMK AO2 T02000161
53915KARA ARA20161223180010612/23/16 18:00:31  5-MIN KARA 240000Z 16005KT 10SM SCT048 19/16 A3016 -190 81 300 160/05 RMK AO2 T01940161
53915KARA ARA20161223180510612/23/16 18:05:31  5-MIN KARA 240005Z 17005KT 10SM FEW048 19/16 A3016 -190 81 300 160/05 RMK AO2 T01940161
53915KARA ARA20161223181010612/23/16 18:10:31  5-MIN KARA 240010Z 16005KT 10SM FEW048 19/16 A3016 -190 81 300 160/05 RMK AO2 T01940161
53915KARA ARA20161223181510612/23/16 18:15:31  5-MIN KARA 240015Z 16006KT 10SM FEW048 19/16 A3016 -190 81 300 160/06 RMK AO2 T01940161
53915KARA ARA20161223182010612/23/16 18:20:31  5-MIN KARA 240020Z 16007KT 10SM FEW048 19/16 A3016 -190 81 300 160/07 RMK AO2 T01940161
53915KARA ARA20161223182510312/23/16 18:25:31  5-MIN KARA 240025Z 16007KT 10SM CLR 19/16 A3016 -190 81 300 160/07 RMK AO2 T01940161
53915KARA ARA20161223183010312/23/16 18:30:31  5-MIN KARA 240030Z 15008KT 10SM CLR 19/16 A3016 -190 81 300 150/08 RMK AO2 T01940161
53915KARA ARA20161223183510312/23/16 18:35:31  5-MIN KARA 240035Z 15008KT 10SM CLR 19/16 A3016 -190 81 300 150/08 RMK AO2 T01940161
53915KARA ARA20161223184010312/23/16 18:40:31  5-MIN KARA 240040Z 16006KT 10SM CLR 19/16 A3016 -190 81 300 160/06 RMK AO2 T01940161
53915KARA ARA20161223184510312/23/16 18:45:31  5-MIN KARA 240045Z 16006KT 10SM CLR 19/16 A3017 -200 81 300 160/06 RMK AO2 T01940161
53915KARA ARA20161223185011312/23/16 18:50:31  5-MIN KARA 240050Z 16005KT 10SM FEW049 19/16 A3017 -200 81 300 160/05 RMK AO2 SLP215 T01940161
53915KARA ARA20161223185510612/23/16 18:55:31  5-MIN KARA 240055Z 16006KT 10SM SCT049 19/16 A3017 -200 81 300 160/06 RMK AO2 T01940161
53915KARA ARA20161223190010612/23/16 19:00:31  5-MIN KARA 240100Z 15006KT 10SM FEW050 19/16 A3017 -200 84 200 150/06 RMK AO2 T01890161
53915KARA ARA20161223190510612/23/16 19:05:31  5-MIN KARA 240105Z 15007KT 10SM FEW050 19/16 A3017 -200 84 200 150/07 RMK AO2 T01890161
53915KARA ARA20161223191010612/23/16 19:10:31  5-MIN KARA 240110Z 15006KT 10SM FEW050 18/16 A3017 -200 87 200 150/06 RMK AO2 T01830161
53915KARA ARA20161223191510612/23/16 19:15:31  5-MIN KARA 240115Z 15007KT 10SM FEW050 18/16 A3017 -200 87 200 150/07 RMK AO2 T01830161
53915KARA ARA20161223192010612/23/16 19:20:31  5-MIN KARA 240120Z 15007KT 10SM FEW050 18/16 A3017 -200 87 200 150/07 RMK AO2 T01830161
53915KARA ARA20161223192510312/23/16 19:25:31  5-MIN KARA 240125Z 14006KT 10SM CLR 18/16 A3017 -200 87 200 140/06 RMK AO2 T01830161
53915KARA ARA20161223193010312/23/16 19:30:31  5-MIN KARA 240130Z 14006KT 10SM CLR 18/16 A3017 -200 87 200 140/06 RMK AO2 T01830161
53915KARA ARA20161223193510312/23/16 19:35:31  5-MIN KARA 240135Z 14005KT 10SM CLR 18/16 A3017 -200 87 100 140/05 RMK AO2 T01780156
53915KARA ARA20161223194010312/23/16 19:40:31  5-MIN KARA 240140Z 13005KT 10SM CLR 18/16 A3017 -200 87 100 130/05 RMK AO2 T01780156
53915KARA ARA20161223194510312/23/16 19:45:31  5-MIN KARA 240145Z 13005KT 10SM CLR 18/16 A3017 -200 87 100 130/05 RMK AO2 T01780156
53915KARA ARA20161223195011012/23/16 19:50:31  5-MIN KARA 240150Z 13005KT 10SM CLR 18/16 A3017 -200 87 100 130/05 RMK AO2 SLP216 T01780156
53915KARA ARA20161223195510112/23/16 19:55:31  5-MIN KARA 240155Z 14005KT 10SM CLR 17/16 A3017 -200 90 0 140/05 RMK AO2 T01720156
53915KARA ARA20161223200010112/23/16 20:00:31  5-MIN KARA 240200Z 14004KT 10SM CLR 17/15 A3017 -200 87 0 140/04 RMK AO2 T01720150
53915KARA ARA20161223200510112/23/16 20:05:31  5-MIN KARA 240205Z 14005KT 10SM CLR 17/15 A3017 -200 87 0 140/05 RMK AO2 T01720150
53915KARA ARA20161223201010112/23/16 20:10:31  5-MIN KARA 240210Z 14006KT 10SM CLR 17/16 A3017 -200 90 0 140/06 RMK AO2 T01720156
53915KARA ARA20161223201510312/23/16 20:15:31  5-MIN KARA 240215Z 14006KT 10SM CLR 18/16 A3017 -200 87 100 140/06 RMK AO2 T01780156
53915KARA ARA20161223202010312/23/16 20:20:31  5-MIN KARA 240220Z 14006KT 10SM CLR 18/16 A3017 -200 90 100 140/06 RMK AO2 T01780161
53915KARA ARA20161223202510312/23/16 20:25:31  5-MIN KARA 240225Z 14006KT 10SM CLR 18/16 A3017 -200 90 100 140/06 RMK AO2 T01780161
53915KARA ARA20161223203010312/23/16 20:30:31  5-MIN KARA 240230Z 14007KT 10SM CLR 18/16 A3017 -200 90 100 140/07 RMK AO2 T01780161
53915KARA ARA20161223203510312/23/16 20:35:31  5-MIN KARA 240235Z 14006KT 10SM CLR 18/16 A3017 -200 90 100 140/06 RMK AO2 T01780161
53915KARA ARA20161223204010312/23/16 20:40:31  5-MIN KARA 240240Z 14006KT 10SM CLR 18/16 A3017 -200 90 100 140/06 RMK AO2 T01780161
53915KARA ARA20161223204510312/23/16 20:45:31  5-MIN KARA 240245Z 14006KT 10SM CLR 18/16 A3017 -200 90 100 140/06 RMK AO2 T01780161
53915KARA ARA20161223205011512/23/16 20:50:31  5-MIN KARA 240250Z 14006KT 9SM CLR 18/16 A3017 -200 90 100 140/06 RMK AO2 SLP217 T01780161 53008
53915KARA ARA20161223205510712/23/16 20:55:31  5-MIN KARA 240255Z AUTO 14006KT 8SM CLR 18/16 A3017 -200 90 100 140/06 RMK AO2 T01780161
53915KARA ARA20161223210010512/23/16 21:00:31  5-MIN KARA 240300Z AUTO 14005KT 8SM CLR 17/16 A3017 -200 93 0 140/05 RMK AO2 T01720161
53915KARA ARA20161223210510512/23/16 21:05:31  5-MIN KARA 240305Z AUTO 14005KT 8SM CLR 17/16 A3017 -200 93 0 140/05 RMK AO2 T01720161
53915KARA ARA20161223211010512/23/16 21:10:31  5-MIN KARA 240310Z AUTO 13005KT 8SM CLR 17/16 A3017 -200 93 0 130/05 RMK AO2 T01720161
53915KARA ARA20161223211510512/23/16 21:15:31  5-MIN KARA 240315Z AUTO 13005KT 8SM CLR 17/16 A3017 -200 93 0 130/05 RMK AO2 T01720161
53915KARA ARA20161223212010712/23/16 21:20:31  5-MIN KARA 240320Z AUTO 13005KT 8SM CLR 18/16 A3018 -210 90 100 130/05 RMK AO2 T01780161
53915KARA ARA20161223212510712/23/16 21:25:31  5-MIN KARA 240325Z AUTO 12005KT 8SM CLR 18/16 A3018 -210 90 100 120/05 RMK AO2 T01780161
53915KARA ARA20161223213010712/23/16 21:30:31  5-MIN KARA 240330Z AUTO 12005KT 9SM CLR 18/16 A3018 -210 90 100 120/05 RMK AO2 T01780161
53915KARA ARA20161223213510712/23/16 21:35:31  5-MIN KARA 240335Z AUTO 12006KT 9SM CLR 18/16 A3018 -210 90 100 120/06 RMK AO2 T01780161
53915KARA ARA20161223214010712/23/16 21:40:31  5-MIN KARA 240340Z AUTO 12006KT 8SM CLR 18/16 A3018 -210 90 100 120/06 RMK AO2 T01780161
53915KARA ARA20161223214510712/23/16 21:45:31  5-MIN KARA 240345Z AUTO 12005KT 8SM CLR 18/16 A3018 -210 90 100 120/05 RMK AO2 T01780161
53915KARA ARA20161223215011412/23/16 21:50:31  5-MIN KARA 240350Z AUTO 12005KT 8SM CLR 18/16 A3018 -210 90 100 120/05 RMK AO2 SLP219 T01780161
53915KARA ARA20161223215510712/23/16 21:55:31  5-MIN KARA 240355Z AUTO 12005KT 8SM CLR 18/16 A3018 -210 90 100 120/05 RMK AO2 T01780161
53915KARA ARA20161223220010712/23/16 22:00:31  5-MIN KARA 240400Z AUTO 12005KT 8SM CLR 18/16 A3018 -210 90 100 110/05 RMK AO2 T01780161
53915KARA ARA20161223220510712/23/16 22:05:31  5-MIN KARA 240405Z AUTO 12004KT 8SM CLR 18/16 A3019 -210 90 100 110/04 RMK AO2 T01780161
53915KARA ARA20161223221011012/23/16 22:10:31  5-MIN KARA 240410Z AUTO 12005KT 8SM FEW040 18/16 A3019 -210 90 100 120/05 RMK AO2 T01780161
53915KARA ARA20161223221511012/23/16 22:15:31  5-MIN KARA 240415Z AUTO 13005KT 8SM SCT040 18/16 A3019 -210 90 100 130/05 RMK AO2 T01780161
53915KARA ARA20161223222010812/23/16 22:20:31  5-MIN KARA 240420Z AUTO 13004KT 7SM SCT039 17/16 A3019 -210 93 0 130/04 RMK AO2 T01720161
53915KARA ARA20161223222511112/23/16 22:25:31  5-MIN KARA 240425Z AUTO 12003KT 6SM BR SCT039 17/16 A3019 -220 90 0 120/03 RMK AO2 T01720156
53915KARA ARA20161223223011112/23/16 22:30:31  5-MIN KARA 240430Z AUTO 11003KT 5SM BR FEW039 17/16 A3019 -220 90 0 110/03 RMK AO2 T01720156
53915KARA ARA20161223223511112/23/16 22:35:31  5-MIN KARA 240435Z AUTO 12004KT 5SM BR FEW039 17/16 A3019 -220 93 0 120/04 RMK AO2 T01670156
53915KARA ARA20161223224011812/23/16 22:40:31  5-MIN KARA 240440Z AUTO 11005KT 4SM BR FEW032 SCT039 17/16 A3019 -220 90 0 110/05 RMK AO2 T01720156
53915KARA ARA20161223224509312/23/16 22:45:31  5-MIN KARA 240445Z AUTO 11005KT 4SM BR FEW032 17/16 A3019 -210 93 0 100/0 
53915KARA ARA20161223224511112/23/16 22:45:31  5-MIN KARA 240445Z AUTO 11005KT 4SM BR FEW032 17/16 A3019 -210 93 0 100/05 RMK AO2 T01670156
53915KARA ARA20161223225011812/23/16 22:50:31  5-MIN KARA 240450Z AUTO 11006KT 4SM BR FEW032 17/16 A3019 -210 93 0 110/06 RMK AO2 SLP221 T01670156
53915KARA ARA20161223225511112/23/16 22:55:31  5-MIN KARA 240455Z AUTO 11005KT 4SM BR FEW032 17/16 A3019 -210 93 0 110/05 RMK AO2 T01670156
53915KARA ARA20161223230011112/23/16 23:00:31  5-MIN KARA 240500Z AUTO 11005KT 5SM BR FEW032 17/16 A3019 -210 93 0 110/05 RMK AO2 T01670156
53915KARA ARA20161223230511112/23/16 23:05:31  5-MIN KARA 240505Z AUTO 12005KT 5SM BR FEW032 17/16 A3019 -210 93 0 110/05 RMK AO2 T01670156
53915KARA ARA20161223231011112/23/16 23:10:31  5-MIN KARA 240510Z AUTO 11005KT 5SM BR FEW032 17/16 A3018 -210 93 0 110/05 RMK AO2 T01670156
53915KARA ARA20161223231511112/23/16 23:15:31  5-MIN KARA 240515Z AUTO 11005KT 5SM BR FEW022 17/16 A3018 -210 93 0 110/05 RMK AO2 T01670156
53915KARA ARA20161223232011812/23/16 23:20:31  5-MIN KARA 240520Z AUTO 11004KT 4SM BR SCT022 SCT032 17/16 A3018 -210 93 0 110/04 RMK AO2 T01670156
53915KARA ARA20161223232511812/23/16 23:25:31  5-MIN KARA 240525Z AUTO 10004KT 4SM BR SCT022 BKN032 17/16 A3018 -210 93 0 100/04 RMK AO2 T01670156
53915KARA ARA20161223233011812/23/16 23:30:31  5-MIN KARA 240530Z AUTO 10003KT 3SM BR FEW022 BKN032 17/16 A3018 -210 93 0 090/03 RMK AO2 T01670156
53915KARA ARA20161223233511812/23/16 23:35:31  5-MIN KARA 240535Z AUTO 09003KT 4SM BR FEW022 BKN033 17/16 A3018 -210 90 0 090/03 RMK AO2 T01720156
53915KARA ARA20161223234012512/23/16 23:40:31  5-MIN KARA 240540Z AUTO 09004KT 4SM BR FEW022 FEW027 OVC035 17/16 A3018 -210 90 0 090/04 RMK AO2 T01720156
53915KARA ARA20161223234512512/23/16 23:45:31  5-MIN KARA 240545Z AUTO 10004KT 4SM BR FEW022 SCT029 OVC035 17/16 A3018 -210 93 0 100/04 RMK AO2 T01720161
53915KARA ARA20161223235015512/23/16 23:50:31  5-MIN KARA 240550Z AUTO 10005KT 4SM BR FEW022 OVC035 18/16 A3018 -210 90 100 100/05 RMK AO2 SLP219 T01780161 10200 20167 402560161 51005
53915KARA ARA20161223235511812/23/16 23:55:31  5-MIN KARA 240555Z AUTO 11005KT 4SM BR FEW022 OVC037 17/16 A3018 -210 93 0 100/05 RMK AO2 T01720161
53915KARA ARA20161224000012012/24/16 00:00:31  5-MIN KARA 240600Z AUTO 11005KT 4SM BR FEW021 OVC037 18/16 A3018 -210 90 100 110/05 RMK AO2 T01780161
53915KARA ARA20161224000512012/24/16 00:05:31  5-MIN KARA 240605Z AUTO 12005KT 4SM BR FEW021 BKN037 18/16 A3017 -200 90 100 110/05 RMK AO2 T01780161
53915KARA ARA20161224001012712/24/16 00:10:31  5-MIN KARA 240610Z AUTO 12006KT 4SM BR FEW021 FEW028 OVC037 18/16 A3017 -200 90 100 120/06 RMK AO2 T01780161
53915KARA ARA20161224001514312/24/16 00:15:31  5-MIN KARA 240615Z AUTO 14004KT 5SM -RA BR FEW019 SCT026 OVC037 18/17 A3017 -200 93 100 140/04 RMK AO2 RAB12 P0000 T01780167
53915KARA ARA20161224002014312/24/16 00:20:31  5-MIN KARA 240620Z AUTO 15004KT 5SM -RA BR FEW019 SCT024 OVC037 18/17 A3017 -200 93 100 140/04 RMK AO2 RAB12 P0000 T01780167
53915KARA ARA20161224002514212/24/16 00:25:31  5-MIN KARA 240625Z AUTO 14003KT 5SM BR FEW021 SCT029 OVC039 18/17 A3017 -200 93 100 140/03 RMK AO2 RAB12E22 P0000 T01780167
53915KARA ARA20161224003014212/24/16 00:30:31  5-MIN KARA 240630Z AUTO 15003KT 4SM BR FEW021 FEW029 OVC037 18/17 A3017 -200 93 100 150/03 RMK AO2 RAB12E22 P0000 T01780167
53915KARA ARA20161224003514212/24/16 00:35:31  5-MIN KARA 240635Z AUTO 15004KT 4SM BR FEW020 FEW028 OVC039 18/16 A3017 -200 90 100 150/04 RMK AO2 RAB12E22 P0000 T01780161
53915KARA ARA20161224004013512/24/16 00:40:31  5-MIN KARA 240640Z AUTO 14005KT 4SM BR FEW018 BKN039 17/16 A3017 -200 93 100 140/05 RMK AO2 RAB12E22 P0000 T01720161
53915KARA ARA20161224004512812/24/16 00:45:31  5-MIN KARA 240645Z AUTO 13005KT 4SM BR BKN039 17/16 A3017 -200 90 100 130/05 RMK AO2 RAB12E22 P0000 T01720156
53915KARA ARA20161224005013512/24/16 00:50:31  5-MIN KARA 240650Z AUTO 13006KT 4SM BR OVC039 17/16 A3017 -200 93 100 130/06 RMK AO2 RAB12E22 SLP215 P0000 T01720161
53915KARA ARA20161224005511312/24/16 00:55:31  5-MIN KARA 240655Z AUTO 12007KT 5SM BR OVC039 18/17 A3016 -190 93 100 120/07 RMK AO2 T01780167
53915KARA ARA20161224010011312/24/16 01:00:31  5-MIN KARA 240700Z AUTO 12007KT 6SM BR OVC037 18/17 A3016 -190 90 200 120/07 RMK AO2 T01830167
53915KARA ARA20161224010511012/24/16 01:05:31  5-MIN KARA 240705Z AUTO 12007KT 7SM OVC037 18/17 A3016 -190 90 200 120/07 RMK AO2 T01830167
53915KARA ARA20161224011011012/24/16 01:10:31  5-MIN KARA 240710Z AUTO 13008KT 7SM OVC037 18/17 A3016 -190 90 200 130/08 RMK AO2 T01830167
53915KARA ARA20161224011511012/24/16 01:15:31  5-MIN KARA 240715Z AUTO 13008KT 7SM OVC037 18/17 A3016 -190 90 200 130/08 RMK AO2 T01830167
53915KARA ARA20161224012011012/24/16 01:20:31  5-MIN KARA 240720Z AUTO 13007KT 8SM OVC036 18/17 A3016 -190 90 200 130/07 RMK AO2 T01830167
53915KARA ARA20161224012511012/24/16 01:25:31  5-MIN KARA 240725Z AUTO 13007KT 8SM OVC036 18/17 A3016 -190 90 200 130/07 RMK AO2 T01830167
53915KARA ARA20161224013011012/24/16 01:30:31  5-MIN KARA 240730Z AUTO 13008KT 8SM OVC036 18/17 A3016 -190 90 200 130/08 RMK AO2 T01830167
53915KARA ARA20161224013511012/24/16 01:35:31  5-MIN KARA 240735Z AUTO 12009KT 8SM OVC036 18/17 A3016 -190 90 200 120/09 RMK AO2 T01830167
53915KARA ARA20161224014011012/24/16 01:40:31  5-MIN KARA 240740Z AUTO 12008KT 8SM OVC038 18/17 A3016 -190 90 200 120/08 RMK AO2 T01830167
53915KARA ARA20161224014511012/24/16 01:45:31  5-MIN KARA 240745Z AUTO 12007KT 8SM OVC038 18/17 A3016 -190 90 200 120/07 RMK AO2 T01830167
53915KARA ARA20161224015011712/24/16 01:50:31  5-MIN KARA 240750Z AUTO 12007KT 8SM OVC038 18/17 A3016 -190 90 200 120/07 RMK AO2 SLP213 T01830167
53915KARA ARA20161224015511012/24/16 01:55:31  5-MIN KARA 240755Z AUTO 12008KT 8SM OVC038 18/17 A3016 -190 90 200 120/08 RMK AO2 T01830167
53915KARA ARA20161224020011012/24/16 02:00:31  5-MIN KARA 240800Z AUTO 13008KT 8SM OVC038 18/17 A3016 -190 90 200 130/08 RMK AO2 T01830167
53915KARA ARA20161224020511012/24/16 02:05:31  5-MIN KARA 240805Z AUTO 13009KT 8SM OVC038 19/17 A3016 -190 87 300 130/09 RMK AO2 T01890167
53915KARA ARA20161224021011012/24/16 02:10:31  5-MIN KARA 240810Z AUTO 13007KT 8SM OVC038 19/17 A3016 -190 87 300 120/07 RMK AO2 T01890167
53915KARA ARA20161224021511012/24/16 02:15:31  5-MIN KARA 240815Z AUTO 12008KT 8SM OVC039 19/17 A3016 -190 90 300 120/08 RMK AO2 T01890172
53915KARA ARA20161224022011012/24/16 02:20:31  5-MIN KARA 240820Z AUTO 13009KT 8SM OVC039 19/17 A3016 -190 90 300 120/09 RMK AO2 T01890172
53915KARA ARA20161224022511012/24/16 02:25:31  5-MIN KARA 240825Z AUTO 12009KT 8SM OVC039 19/17 A3016 -190 90 300 120/09 RMK AO2 T01890172
53915KARA ARA20161224023011012/24/16 02:30:31  5-MIN KARA 240830Z AUTO 12010KT 8SM OVC039 19/17 A3016 -190 90 300 120/10 RMK AO2 T01890172
53915KARA ARA20161224023511012/24/16 02:35:31  5-MIN KARA 240835Z AUTO 12009KT 9SM OVC041 19/17 A3016 -190 90 300 120/09 RMK AO2 T01890172
53915KARA ARA20161224024011012/24/16 02:40:31  5-MIN KARA 240840Z AUTO 13010KT 9SM OVC041 19/17 A3016 -190 90 300 120/10 RMK AO2 T01890172
53915KARA ARA20161224024511012/24/16 02:45:31  5-MIN KARA 240845Z AUTO 13007KT 9SM OVC041 19/17 A3016 -190 90 300 130/07 RMK AO2 T01890172
53915KARA ARA20161224025012912/24/16 02:50:31  5-MIN KARA 240850Z AUTO 13007KT 9SM OVC043 19/17 A3016 -190 90 300 130/07 RMK AO2 SLP213 60000 T01890172 50002
53915KARA ARA20161224025511012/24/16 02:55:31  5-MIN KARA 240855Z AUTO 13007KT 9SM OVC043 19/17 A3016 -190 90 300 130/07 RMK AO2 T01890172
53915KARA ARA20161224030011012/24/16 03:00:31  5-MIN KARA 240900Z AUTO 14005KT 9SM OVC043 19/17 A3016 -190 90 300 130/05 RMK AO2 T01890172
53915KARA ARA20161224030511012/24/16 03:05:31  5-MIN KARA 240905Z AUTO 15004KT 9SM OVC043 19/17 A3017 -190 90 300 150/04 RMK AO2 T01890172
53915KARA ARA20161224031011012/24/16 03:10:31  5-MIN KARA 240910Z AUTO 16004KT 9SM OVC043 19/17 A3017 -200 90 200 160/04 RMK AO2 T01890172
53915KARA ARA20161224031511012/24/16 03:15:31  5-MIN KARA 240915Z AUTO 15004KT 9SM OVC042 19/17 A3017 -200 90 200 150/04 RMK AO2 T01890172
53915KARA ARA20161224032011012/24/16 03:20:31  5-MIN KARA 240920Z AUTO 14004KT 8SM OVC042 19/17 A3016 -190 90 300 140/04 RMK AO2 T01890172
53915KARA ARA20161224032511012/24/16 03:25:31  5-MIN KARA 240925Z AUTO 14005KT 8SM OVC042 18/17 A3016 -190 93 200 140/05 RMK AO2 T01830172
53915KARA ARA20161224033011012/24/16 03:30:31  5-MIN KARA 240930Z AUTO 13004KT 8SM OVC043 19/17 A3016 -190 90 300 130/04 RMK AO2 T01890172
53915KARA ARA20161224033511012/24/16 03:35:31  5-MIN KARA 240935Z AUTO 14004KT 8SM OVC043 19/17 A3016 -190 90 300 140/04 RMK AO2 T01890172
53915KARA ARA20161224034011012/24/16 03:40:31  5-MIN KARA 240940Z AUTO 14003KT 8SM OVC043 19/17 A3016 -190 90 300 140/03 RMK AO2 T01890172
53915KARA ARA20161224034511012/24/16 03:45:31  5-MIN KARA 240945Z AUTO 16004KT 8SM OVC043 19/17 A3016 -190 90 300 150/04 RMK AO2 T01890172
53915KARA ARA20161224035011712/24/16 03:50:31  5-MIN KARA 240950Z AUTO 16005KT 9SM OVC044 19/17 A3016 -190 90 300 160/05 RMK AO2 SLP213 T01890172
53915KARA ARA20161224035511012/24/16 03:55:31  5-MIN KARA 240955Z AUTO 16006KT 9SM OVC044 19/17 A3016 -190 90 300 160/06 RMK AO2 T01890172
53915KARA ARA20161224040011012/24/16 04:00:31  5-MIN KARA 241000Z AUTO 15007KT 9SM OVC044 19/17 A3016 -190 90 300 150/07 RMK AO2 T01890172
53915KARA ARA20161224040511012/24/16 04:05:31  5-MIN KARA 241005Z AUTO 15008KT 9SM OVC044 19/17 A3015 -180 90 300 150/08 RMK AO2 T01890172
53915KARA ARA20161224041011012/24/16 04:10:31  5-MIN KARA 241010Z AUTO 14007KT 9SM OVC044 19/17 A3015 -180 90 300 140/07 RMK AO2 T01890172
53915KARA ARA20161224041511012/24/16 04:15:31  5-MIN KARA 241015Z AUTO 14007KT 9SM OVC044 19/17 A3016 -190 90 300 140/07 RMK AO2 T01890172
53915KARA ARA20161224042011012/24/16 04:20:31  5-MIN KARA 241020Z AUTO 14008KT 9SM OVC044 18/17 A3015 -180 90 200 140/08 RMK AO2 T01830167
53915KARA ARA20161224042511012/24/16 04:25:31  5-MIN KARA 241025Z AUTO 15009KT 9SM BKN045 18/17 A3015 -180 90 200 140/09 RMK AO2 T01830167
53915KARA ARA20161224043011012/24/16 04:30:31  5-MIN KARA 241030Z AUTO 15008KT 8SM BKN045 18/17 A3015 -180 90 200 150/08 RMK AO2 T01830167
53915KARA ARA20161224043511012/24/16 04:35:31  5-MIN KARA 241035Z AUTO 15008KT 8SM BKN045 18/17 A3015 -180 90 200 140/08 RMK AO2 T01830167
53915KARA ARA20161224044011012/24/16 04:40:31  5-MIN KARA 241040Z AUTO 14007KT 8SM SCT045 18/17 A3015 -180 90 200 140/07 RMK AO2 T01830167
53915KARA ARA20161224044511012/24/16 04:45:31  5-MIN KARA 241045Z AUTO 14006KT 8SM SCT045 18/17 A3015 -180 93 100 140/06 RMK AO2 T01780167
53915KARA ARA20161224045011712/24/16 04:50:31  5-MIN KARA 241050Z AUTO 14008KT 8SM FEW043 18/17 A3015 -180 93 100 140/08 RMK AO2 SLP207 T01780167
53915KARA ARA20161224045511012/24/16 04:55:31  5-MIN KARA 241055Z AUTO 15008KT 8SM FEW043 18/16 A3014 -180 90 100 150/08 RMK AO2 T01780161
53915KARA ARA20161224050011012/24/16 05:00:31  5-MIN KARA 241100Z AUTO 15007KT 8SM FEW043 18/16 A3015 -180 90 100 140/07 RMK AO2 T01780161
53915KARA ARA20161224050510712/24/16 05:05:31  5-MIN KARA 241105Z AUTO 14006KT 8SM CLR 18/17 A3015 -180 93 100 140/06 RMK AO2 T01780167
53915KARA ARA20161224051010712/24/16 05:10:31  5-MIN KARA 241110Z AUTO 14005KT 8SM CLR 18/16 A3015 -180 90 100 140/05 RMK AO2 T01780161
53915KARA ARA20161224051510712/24/16 05:15:31  5-MIN KARA 241115Z AUTO 14006KT 8SM CLR 18/16 A3015 -180 90 100 140/06 RMK AO2 T01780161
53915KARA ARA20161224052010712/24/16 05:20:31  5-MIN KARA 241120Z AUTO 14007KT 7SM CLR 18/16 A3015 -180 90 100 140/07 RMK AO2 T01780161
53915KARA ARA20161224052510712/24/16 05:25:31  5-MIN KARA 241125Z AUTO 14006KT 7SM CLR 17/16 A3015 -180 93 100 140/06 RMK AO2 T01720161
53915KARA ARA20161224053010712/24/16 05:30:31  5-MIN KARA 241130Z AUTO 14006KT 7SM CLR 17/16 A3015 -180 93 100 140/06 RMK AO2 T01720161
53915KARA ARA20161224053510212/24/16 05:35:31  5-MIN KARA 241135Z 15006KT 7SM CLR 17/16 A3015 -180 93 100 150/06 RMK AO2 T01720161
53915KARA ARA20161224054010212/24/16 05:40:31  5-MIN KARA 241140Z 15005KT 7SM CLR 17/16 A3015 -180 93 100 150/05 RMK AO2 T01720161
53915KARA ARA20161224054510212/24/16 05:45:31  5-MIN KARA 241145Z 15005KT 7SM CLR 17/16 A3015 -180 93 100 150/05 RMK AO2 T01720161
53915KARA ARA20161224055013312/24/16 05:50:31  5-MIN KARA 241150Z 15005KT 7SM CLR 17/16 A3015 -180 93 100 150/05 RMK AO2 SLP210 60000 T01720161 10189 20172 55005
53915KARA ARA20161224055510212/24/16 05:55:31  5-MIN KARA 241155Z 14005KT 7SM CLR 17/16 A3016 -190 93 100 140/05 RMK AO2 T01720161
53915KARA ARA20161224060010212/24/16 06:00:31  5-MIN KARA 241200Z 14005KT 7SM CLR 17/16 A3016 -190 93 100 140/05 RMK AO2 T01720161
53915KARA ARA20161224060510212/24/16 06:05:31  5-MIN KARA 241205Z 14004KT 7SM CLR 17/16 A3016 -190 93 100 140/04 RMK AO2 T01720161
53915KARA ARA20161224061010212/24/16 06:10:31  5-MIN KARA 241210Z 13003KT 7SM CLR 17/16 A3016 -190 93 100 130/03 RMK AO2 T01720161
53915KARA ARA20161224061510512/24/16 06:15:31  5-MIN KARA 241215Z 00000KT 5SM BR CLR 17/16 A3017 -200 93 100 000/00 RMK AO2 T01720161
53915KARA ARA20161224062010912/24/16 06:20:31  5-MIN KARA 241220Z 00000KT 1 1/2SM BR CLR 17/16 A3017 -200 93 100 000/00 RMK AO2 T01720161
53915KARA ARA20161224062510512/24/16 06:25:31  5-MIN KARA 241225Z 00000KT 1SM BR CLR 17/16 A3017 -200 90 100 000/00 RMK AO2 T01720156
53915KARA ARA20161224063010712/24/16 06:30:31  5-MIN KARA 241230Z 00000KT 1 1/2SM BR CLR 17/16 A3017 -200 93 0 000/00 RMK AO2 T01670156
53915KARA ARA20161224063510312/24/16 06:35:31  5-MIN KARA 241235Z 00000KT 1SM BR CLR 17/16 A3018 -210 93 0 000/00 RMK AO2 T01670156
53915KARA ARA20161224064010712/24/16 06:40:31  5-MIN KARA 241240Z 00000KT 1/2SM FG VV008 17/16 A3018 -210 93 0 000/00 RMK AO2 T01670156
53915KARA ARA20161224064510712/24/16 06:45:31  5-MIN KARA 241245Z 36003KT 1/4SM FG VV008 16/15 A3018 -210 93 0 360/03 RMK AO2 T01610150
53915KARA ARA20161224065010012/24/16 06:50:31  5-MIN KARA 241250Z 35003KT 1/4SM FG VV008 16/14 A3018 -210 93 -100 350/03 RMK AO2
53915KARA ARA20161224065511012/24/16 06:55:31  5-MIN KARA 241255Z 00000KT 1/2SM FG VV008 16/15 A3019 -210 96 -100 000/00 RMK AO2 T01560150
53915KARA ARA20161224070010712/24/16 07:00:31  5-MIN KARA 241300Z 00000KT 1/4SM FG VV008 16/15 A3019 -210 93 0 000/00 RMK AO2 T01610150
53915KARA ARA20161224070511012/24/16 07:05:31  5-MIN KARA 241305Z 00000KT 1/4SM FG VV008 16/15 A3019 -220 96 -100 000/00 RMK AO2 T01560150
53915KARA ARA20161224071012612/24/16 07:10:31  5-MIN KARA 241310Z 00000KT 1/4SM -RA FG VV008 15/14 A3019 -220 96 -200 000/00 RMK AO2 RAB09 P0000 T01500144
53915KARA ARA20161224071512612/24/16 07:15:31  5-MIN KARA 241315Z 11003KT M1/4SM FG VV007 15/14 A3019 -220 93 -200 110/03 RMK AO2 RAB09E12 P0000 T01500139
53915KARA ARA20161224072012712/24/16 07:20:31  5-MIN KARA 241320Z 10003KT M1/4SM -RA FG VV007 15/14 A3019 -220 93 -200 090/03 RMK AO2 RAB09 P0000 T01500139
53915KARA ARA20161224072512712/24/16 07:25:31  5-MIN KARA 241325Z 08003KT M1/4SM -RA FG VV006 15/13 A3019 -220 90 -200 070/03 RMK AO2 RAB09 P0000 T01500133
53915KARA ARA20161224073012512/24/16 07:30:31  5-MIN KARA 241330Z 08004KT 1/4SM FG VV006 15/14 A3019 -220 93 -200 080/04 RMK AO2 RAB09E27 P0000 T01500139
53915KARA ARA20161224073512512/24/16 07:35:31  5-MIN KARA 241335Z 10003KT 1/4SM FG VV006 16/14 A3019 -220 93 -100 100/03 RMK AO2 RAB09E27 P0000 T01560144
53915KARA ARA20161224074012512/24/16 07:40:31  5-MIN KARA 241340Z 11004KT 1/4SM FG VV007 16/14 A3019 -220 93 -100 110/04 RMK AO2 RAB09E27 P0000 T01560144
53915KARA ARA20161224074512512/24/16 07:45:31  5-MIN KARA 241345Z 12004KT 1/4SM FG VV007 16/14 A3019 -220 90 -100 120/04 RMK AO2 RAB09E27 P0000 T01610144
53915KARA ARA20161224075012912/24/16 07:50:31  5-MIN KARA 241350Z 11003KT 1/4SM FG VV007 17/16 A3019 -220 90 0 110/03 RMK AO2 RAB09E27 SLP224 P0000 T01720156
53915KARA ARA20161224075511012/24/16 07:55:31  5-MIN KARA 241355Z 10003KT 1 1/2SM BR SCT008 17/16 A3020 -220 93 0 100/03 RMK AO2 T01720161
53915KARA ARA20161224080012612/24/16 08:00:31  5-MIN KARA 241400Z 11003KT 3SM -RA BR FEW008 18/17 A3020 -220 93 100 110/03 RMK AO2 RAB1357 P0000 T01780167
53915KARA ARA20161224080512512/24/16 08:05:31  5-MIN KARA 241405Z 12004KT 3SM BR FEW008 18/17 A3020 -220 93 100 120/04 RMK AO2 RAB1357E02 P0000 T01780167
53915KARA ARA20161224081012512/24/16 08:10:31  5-MIN KARA 241410Z 12004KT 3SM BR FEW008 18/17 A3020 -220 90 200 120/04 RMK AO2 RAB1357E07 P0000 T01830167
53915KARA ARA20161224081512212/24/16 08:15:31  5-MIN KARA 241415Z 13004KT 4SM BR CLR 18/17 A3020 -220 93 200 130/04 RMK AO2 RAB1357E07 P0000 T01830172
53915KARA ARA20161224082012212/24/16 08:20:31  5-MIN KARA 241420Z 13004KT 4SM BR CLR 19/17 A3020 -220 90 200 130/04 RMK AO2 RAB1357E07 P0000 T01890172
53915KARA ARA20161224082512912/24/16 08:25:31  5-MIN KARA 241425Z 13005KT 5SM -RA BR CLR 19/18 A3020 -230 93 200 130/05 RMK AO2 RAB1357E07B24 P0000 T01890178
53915KARA ARA20161224083012612/24/16 08:30:31  5-MIN KARA 241430Z 13007KT 7SM -RA CLR 19/18 A3020 -230 93 200 130/07 RMK AO2 RAB1357E07B24 P0000 T01890178
53915KARA ARA20161224083512512/24/16 08:35:31  5-MIN KARA 241435Z 14007KT 8SM CLR 19/18 A3020 -230 90 300 140/07 RMK AO2 RAB1357E07B24E33 P0000 T01940178
53915KARA ARA20161224084012512/24/16 08:40:31  5-MIN KARA 241440Z 14006KT 8SM CLR 19/18 A3020 -230 90 300 140/06 RMK AO2 RAB1357E07B24E33 P0000 T01940178
53915KARA ARA20161224084512512/24/16 08:45:31  5-MIN KARA 241445Z 15007KT 9SM CLR 20/18 A3020 -230 87 300 150/07 RMK AO2 RAB1357E07B24E33 P0000 T02000178
53915KARA ARA20161224085014512/24/16 08:50:31  5-MIN KARA 241450Z 14006KT 10SM CLR 20/18 A3021 -230 87 300 140/06 RMK AO2 RAB1357E07B24E33 SLP228 P0000 60000 T02000178 55003
53915KARA ARA20161224085510312/24/16 08:55:31  5-MIN KARA 241455Z 15006KT 10SM CLR 21/18 A3021 -230 87 400 150/06 RMK AO2 T02060183
53915KARA ARA20161224090010312/24/16 09:00:31  5-MIN KARA 241500Z 15007KT 10SM CLR 21/18 A3021 -230 87 400 140/07 RMK AO2 T02060183
53915KARA ARA20161224090510312/24/16 09:05:31  5-MIN KARA 241505Z 14008KT 10SM CLR 21/18 A3021 -240 84 500 140/08 RMK AO2 T02110183
53915KARA ARA20161224091010312/24/16 09:10:31  5-MIN KARA 241510Z 14007KT 10SM CLR 21/18 A3021 -240 84 500 140/07 RMK AO2 T02110183
53915KARA ARA20161224091510312/24/16 09:15:31  5-MIN KARA 241515Z 13007KT 10SM CLR 22/18 A3021 -240 81 500 130/07 RMK AO2 T02170183
53915KARA ARA20161224092010312/24/16 09:20:31  5-MIN KARA 241520Z 15006KT 10SM CLR 22/18 A3021 -240 81 500 150/06 RMK AO2 T02170183
53915KARA ARA20161224092510312/24/16 09:25:31  5-MIN KARA 241525Z 14006KT 10SM CLR 22/19 A3021 -240 81 600 140/06 RMK AO2 T02220189
53915KARA ARA20161224093010312/24/16 09:30:31  5-MIN KARA 241530Z 16009KT 10SM CLR 22/18 A3022 -240 78 600 160/09 RMK AO2 T02220183
53915KARA ARA20161224093510312/24/16 09:35:31  5-MIN KARA 241535Z 16007KT 10SM CLR 23/18 A3022 -240 76 600 160/07 RMK AO2 T02280183
53915KARA ARA20161224094010312/24/16 09:40:31  5-MIN KARA 241540Z 15009KT 10SM CLR 23/19 A3022 -240 78 600 150/09 RMK AO2 T02280189
53915KARA ARA20161224094510312/24/16 09:45:31  5-MIN KARA 241545Z 16007KT 10SM CLR 23/19 A3021 -240 78 600 160/07 RMK AO2 T02280189
53915KARA ARA20161224095011012/24/16 09:50:31  5-MIN KARA 241550Z 15008KT 10SM CLR 23/19 A3022 -240 76 700 150/08 RMK AO2 SLP231 T02330189
53915KARA ARA20161224095510312/24/16 09:55:31  5-MIN KARA 241555Z 16008KT 10SM CLR 23/19 A3021 -240 76 700 150/08 RMK AO2 T02330189
53915KARA ARA20161224100010312/24/16 10:00:31  5-MIN KARA 241600Z 16010KT 10SM CLR 23/19 A3021 -240 76 700 150/10 RMK AO2 T02330189
53915KARA ARA20161224100510312/24/16 10:05:31  5-MIN KARA 241605Z 16011KT 10SM CLR 24/19 A3021 -240 73 800 160/11 RMK AO2 T02390189
53915KARA ARA20161224101010312/24/16 10:10:31  5-MIN KARA 241610Z 16012KT 10SM CLR 24/19 A3021 -230 71 800 160/12 RMK AO2 T02440189
53915KARA ARA20161225071513112/25/16 07:15:31  5-MIN KARA 251315Z 12008KT 7SM BKN010 BKN013 OVC019 21/19 A3015 -180 87 500 120/08 RMK AO2 CIG 008V011 T02110189
53915KARA ARA20161225072013112/25/16 07:20:31  5-MIN KARA 251320Z 12011KT 7SM BKN010 BKN014 OVC060 21/19 A3015 -180 87 500 120/11 RMK AO2 CIG 008V013 T02110189
53915KARA ARA20161225072511912/25/16 07:25:31  5-MIN KARA 251325Z 12010KT 8SM SCT010 BKN014 OVC060 21/19 A3015 -180 87 500 120/10 RMK AO2 T02110189
53915KARA ARA20161225073011912/25/16 07:30:31  5-MIN KARA 251330Z 13011KT 9SM SCT010 BKN016 OVC060 21/19 A3015 -180 87 500 130/11 RMK AO2 T02110189
53915KARA ARA20161225073511912/25/16 07:35:31  5-MIN KARA 251335Z 13010KT 9SM SCT010 BKN016 OVC060 21/19 A3015 -180 87 500 130/10 RMK AO2 T02110189
53915KARA ARA20161225074012012/25/16 07:40:31  5-MIN KARA 251340Z 13010KT 10SM BKN011 BKN017 OVC060 21/19 A3015 -180 87 500 130/10 RMK AO2 T02110189
53915KARA ARA20161225074512012/25/16 07:45:31  5-MIN KARA 251345Z 13011KT 10SM BKN011 BKN016 OVC060 21/19 A3015 -180 90 500 130/11 RMK AO2 T02110194
53915KARA ARA20161225075012012/25/16 07:50:31  5-MIN KARA 251350Z 13012KT 10SM BKN011 OVC016 22/19 A3015 -180 84 600 130/12 RMK AO2 SLP210 T02170189
53915KARA ARA20161225075511312/25/16 07:55:31  5-MIN KARA 251355Z 13011KT 10SM BKN011 OVC016 22/19 A3016 -190 84 600 130/11 RMK AO2 T02170189
53915KARA ARA20161225080012512/25/16 08:00:31  5-MIN KARA 251400Z 13009KT 10SM BKN011 OVC016 22/19 A3016 -190 84 600 130/09 RMK AO2 CIG 008V013 T02170189
53915KARA ARA20161225080512412/25/16 08:05:31  5-MIN KARA 251405Z 14011KT 9SM BKN011 OVC015 22/19 A3016 -190 87 600 140/11 RMK AO2 CIG 008V013 T02170194
53915KARA ARA20161225081010612/25/16 08:10:31  5-MIN KARA 251410Z 13010KT 10SM OVC011 22/19 A3016 -190 87 600 130/10 RMK AO2 T02170194
53915KARA ARA20161225081510612/25/16 08:15:31  5-MIN KARA 251415Z 13009KT 10SM OVC011 22/19 A3016 -190 87 600 130/09 RMK AO2 T02170194
53915KARA ARA20161225082011712/25/16 08:20:31  5-MIN KARA 251420Z 12009KT 9SM OVC011 22/19 A3016 -190 87 600 120/09 RMK AO2 CIG 008V013 T02170194
53915KARA ARA20161225082510612/25/16 08:25:31  5-MIN KARA 251425Z 13010KT 10SM OVC011 22/19 A3016 -190 87 600 130/10 RMK AO2 T02170194
53915KARA ARA20161225083010612/25/16 08:30:31  5-MIN KARA 251430Z 13011KT 10SM OVC011 22/19 A3016 -190 87 600 130/11 RMK AO2 T02170194
53915KARA ARA20161225083511312/25/16 08:35:31  5-MIN KARA 251435Z 13012KT 10SM BKN011 OVC017 22/19 A3016 -190 84 600 130/12 RMK AO2 T02220194
53915KARA ARA20161225084011312/25/16 08:40:31  5-MIN KARA 251440Z 13015KT 10SM BKN011 OVC017 22/19 A3016 -190 84 600 130/15 RMK AO2 T02220194
53915KARA ARA20161225084511312/25/16 08:45:31  5-MIN KARA 251445Z 14012KT 10SM BKN011 OVC019 22/19 A3016 -190 84 600 140/12 RMK AO2 T02220194
53915KARA ARA20161225085012612/25/16 08:50:31  5-MIN KARA 251450Z 13011KT 10SM BKN011 OVC018 22/19 A3016 -190 84 600 130/11 RMK AO2 SLP213 T02220194 55002
53915KARA ARA20161225085511312/25/16 08:55:31  5-MIN KARA 251455Z 12011KT 10SM BKN012 OVC018 22/19 A3016 -190 84 600 120/11 RMK AO2 T02220194
53915KARA ARA20161225090011312/25/16 09:00:31  5-MIN KARA 251500Z 14012KT 10SM BKN012 OVC018 23/19 A3017 -190 81 700 130/12 RMK AO2 T02280194
53915KARA ARA20161225090510612/25/16 09:05:31  5-MIN KARA 251505Z 14014KT 10SM OVC014 23/19 A3017 -200 81 700 140/14 RMK AO2 T02280194
53915KARA ARA20161225091010612/25/16 09:10:31  5-MIN KARA 251510Z 13010KT 10SM OVC012 23/19 A3017 -200 81 700 130/10 RMK AO2 T02280194
53915KARA ARA20161225091511312/25/16 09:15:31  5-MIN KARA 251515Z 13011KT 10SM BKN012 OVC017 23/19 A3017 -200 81 700 130/11 RMK AO2 T02280194
53915KARA ARA20161225092010612/25/16 09:20:31  5-MIN KARA 251520Z 13010KT 10SM OVC012 23/19 A3018 -200 81 700 130/10 RMK AO2 T02280194
53915KARA ARA20161225092510612/25/16 09:25:31  5-MIN KARA 251525Z 14012KT 10SM OVC012 23/19 A3018 -210 81 700 140/12 RMK AO2 T02280194
53915KARA ARA20161225093011212/25/16 09:30:31  5-MIN KARA 251530Z 14012G20KT 10SM OVC012 23/19 A3018 -210 81 700 140/12G20 RMK AO2 T02280194
53915KARA ARA20161225093511212/25/16 09:35:31  5-MIN KARA 251535Z 14013G20KT 10SM OVC012 23/19 A3018 -200 78 800 140/13G20 RMK AO2 T02330194
53915KARA ARA20161225094011312/25/16 09:40:31  5-MIN KARA 251540Z 14012KT 10SM BKN012 OVC017 23/19 A3018 -200 78 800 140/12 RMK AO2 T02330194
53915KARA ARA20161225094510612/25/16 09:45:31  5-MIN KARA 251545Z 13013KT 10SM OVC014 23/19 A3017 -200 78 800 130/13 RMK AO2 T02330194
53915KARA ARA20161225095011312/25/16 09:50:31  5-MIN KARA 251550Z 13017KT 10SM OVC014 23/19 A3018 -200 78 800 130/17 RMK AO2 SLP217 T02330194
53915KARA ARA20161225095511312/25/16 09:55:31  5-MIN KARA 251555Z 13016KT 10SM BKN014 OVC022 24/19 A3017 -200 76 800 130/16 RMK AO2 T02390194
53915KARA ARA20161225100011312/25/16 10:00:31  5-MIN KARA 251600Z 14014KT 10SM BKN014 BKN022 24/19 A3017 -200 76 800 140/14 RMK AO2 T02390194
53915KARA ARA20161225100511312/25/16 10:05:31  5-MIN KARA 251605Z 14014KT 10SM BKN014 BKN022 24/19 A3017 -200 76 800 140/14 RMK AO2 T02390194
53915KARA ARA20161225101011312/25/16 10:10:31  5-MIN KARA 251610Z 14014KT 10SM BKN014 BKN022 24/19 A3017 -200 73 900 140/14 RMK AO2 T02440194
53915KARA ARA20161225101511312/25/16 10:15:31  5-MIN KARA 251615Z 14015KT 10SM BKN016 BKN022 25/19 A3017 -200 71 900 140/15 RMK AO2 T02500194
53915KARA ARA20161225102011912/25/16 10:20:31  5-MIN KARA 251620Z 15016G21KT 10SM BKN016 BKN022 25/19 A3017 -200 71 900 150/16G21 RMK AO2 T02500194
53915KARA ARA20161225102511412/25/16 10:25:31  5-MIN KARA 251625Z 14018KT 10SM SCT019 BKN023 25/19 A3017 -200 68 1000 140/18 RMK AO2 T02500189
53915KARA ARA20161225103013012/25/16 10:30:31  5-MIN KARA 251630Z 15016KT 10SM -RA SCT019 BKN023 25/19 A3017 -200 68 1000 150/16 RMK AO2 RAB29 P0000 T02500189
53915KARA ARA20161225103513012/25/16 10:35:31  5-MIN KARA 251635Z 14015KT 10SM -RA BKN021 BKN025 25/19 A3017 -200 68 1000 140/15 RMK AO2 RAB29 P0000 T02500189
53915KARA ARA20161225104012212/25/16 10:40:31  5-MIN KARA 251640Z 15016KT 10SM BKN021 25/19 A3017 -200 68 1000 150/16 RMK AO2 RAB29E36 P0000 T02500189
53915KARA ARA20161225104512212/25/16 10:45:31  5-MIN KARA 251645Z 15016KT 10SM BKN021 25/19 A3017 -200 68 1000 150/16 RMK AO2 RAB29E36 P0000 T02500189
53915KARA ARA20161225105012912/25/16 10:50:31  5-MIN KARA 251650Z 15013KT 10SM BKN021 25/19 A3017 -200 68 1000 150/13 RMK AO2 RAB29E36 SLP215 P0000 T02500189
53915KARA ARA20161225105511412/25/16 10:55:31  5-MIN KARA 251655Z 15017KT 10SM BKN021 BKN028 25/19 A3016 -190 68 1000 150/17 RMK AO2 T02500189
53915KARA ARA20161225110012012/25/16 11:00:31  5-MIN KARA 251700Z 15016G21KT 10SM SCT021 BKN028 26/19 A3016 -190 66 1000 150/16G21 RMK AO2 T02560189
53915KARA ARA20161225110510712/25/16 11:05:31  5-MIN KARA 251705Z 16017KT 10SM BKN024 26/18 A3016 -190 64 1000 160/17 RMK AO2 T02560183
53915KARA ARA20161225111011412/25/16 11:10:31  5-MIN KARA 251710Z 15015KT 10SM SCT024 BKN032 26/18 A3016 -190 64 1000 150/15 RMK AO2 T02560183
53915KARA ARA20161225111512712/25/16 11:15:31  5-MIN KARA 251715Z 16013G22KT 10SM SCT022 SCT028 BKN037 26/18 A3016 -190 64 1000 160/13G22 RMK AO2 T02560183
53915KARA ARA20161225112011412/25/16 11:20:31  5-MIN KARA 251720Z 15019KT 10SM BKN024 BKN035 26/19 A3016 -190 66 1000 150/19 RMK AO2 T02560189
53915KARA ARA20161225112512012/25/16 11:25:31  5-MIN KARA 251725Z 16016G22KT 10SM SCT024 BKN035 27/19 A3015 -180 62 1200 160/16G22 RMK AO2 T02670189
53915KARA ARA20161225113012012/25/16 11:30:31  5-MIN KARA 251730Z 15013G22KT 10SM SCT024 SCT033 26/18 A3015 -180 62 1100 150/13G22 RMK AO2 T02610183
53915KARA ARA20161225113512012/25/16 11:35:31  5-MIN KARA 251735Z 16017G22KT 10SM SCT024 BKN033 26/18 A3015 -180 62 1100 160/17G22 RMK AO2 T02610183
53915KARA ARA20161225114012012/25/16 11:40:31  5-MIN KARA 251740Z 16016G22KT 10SM SCT024 BKN033 26/18 A3015 -180 62 1100 160/16G22 RMK AO2 T02610183
53915KARA ARA20161225114512012/25/16 11:45:31  5-MIN KARA 251745Z 15015G21KT 10SM SCT024 BKN031 27/18 A3014 -170 60 1200 150/15G21 RMK AO2 T02670183
53915KARA ARA20161225115015112/25/16 11:50:31  5-MIN KARA 251750Z 15017G21KT 10SM SCT024 BKN031 27/19 A3014 -170 60 1200 150/17G21 RMK AO2 SLP206 60000 T02720189 10272 20206 51010
53915KARA ARA20161225115511412/25/16 11:55:31  5-MIN KARA 251755Z 15017KT 10SM BKN024 BKN030 27/18 A3014 -170 60 1200 150/17 RMK AO2 T02670183
53915KARA ARA20161225120011412/25/16 12:00:31  5-MIN KARA 251800Z 15016KT 10SM SCT025 BKN030 26/18 A3014 -170 62 1100 150/16 RMK AO2 T02610183
53915KARA ARA20161225120512012/25/16 12:05:31  5-MIN KARA 251805Z 16013G23KT 10SM SCT025 SCT030 26/18 A3014 -170 59 1100 160/13G23 RMK AO2 T02610178
53915KARA ARA20161225121011312/25/16 12:10:31  5-MIN KARA 251810Z 15016G23KT 10SM SCT027 26/18 A3013 -170 64 1100 150/16G23 RMK AO2 T02560183
53915KARA ARA20161225121511412/25/16 12:15:31  5-MIN KARA 251815Z 15016KT 10SM FEW025 SCT031 26/18 A3013 -160 61 1100 150/16 RMK AO2 T02560178
53915KARA ARA20161225122010712/25/16 12:20:31  5-MIN KARA 251820Z 15017KT 10SM BKN028 26/18 A3013 -160 64 1100 150/17 RMK AO2 T02560183
53915KARA ARA20161225122511312/25/16 12:25:31  5-MIN KARA 251825Z 15016G21KT 10SM BKN028 26/18 A3013 -160 64 1100 150/16G21 RMK AO2 T02560183
53915KARA ARA20161225123012012/25/16 12:30:31  5-MIN KARA 251830Z 14016G21KT 10SM BKN028 BKN032 27/18 A3012 -160 60 1200 140/16G21 RMK AO2 T02670183
53915KARA ARA20161225123510712/25/16 12:35:31  5-MIN KARA 251835Z 15017KT 10SM BKN026 26/18 A3012 -150 62 1100 150/17 RMK AO2 T02610183
53915KARA ARA20161225124011312/25/16 12:40:31  5-MIN KARA 251840Z 15016G22KT 10SM BKN026 27/18 A3012 -150 60 1200 150/16G22 RMK AO2 T02670183
53915KARA ARA20161225124511312/25/16 12:45:31  5-MIN KARA 251845Z 15015G22KT 10SM BKN026 27/18 A3012 -150 60 1200 150/15G22 RMK AO2 T02670183
53915KARA ARA20161225125012112/25/16 12:50:31  5-MIN KARA 251850Z 16014KT 10SM BKN026 BKN030 27/18 A3011 -150 60 1200 160/14 RMK AO2 SLP197 T02670183
53915KARA ARA20161225125510712/25/16 12:55:31  5-MIN KARA 251855Z 15016KT 10SM BKN026 27/18 A3011 -150 58 1300 140/16 RMK AO2 T02720183
53915KARA ARA20161225130010712/25/16 13:00:31  5-MIN KARA 251900Z 15013KT 10SM BKN026 26/18 A3011 -140 62 1100 150/13 RMK AO2 T02610183
53915KARA ARA20161225130510712/25/16 13:05:31  5-MIN KARA 251905Z 16012KT 10SM BKN026 27/18 A3011 -140 60 1200 160/12 RMK AO2 T02670183
53915KARA ARA20161225131010712/25/16 13:10:31  5-MIN KARA 251910Z 16015KT 10SM SCT028 27/18 A3011 -140 60 1200 160/15 RMK AO2 T02670183
53915KARA ARA20161225131510712/25/16 13:15:31  5-MIN KARA 251915Z 15017KT 10SM SCT028 26/18 A3011 -140 62 1100 150/17 RMK AO2 T02610183
53915KARA ARA20161225132012112/25/16 13:20:31  5-MIN KARA 251920Z 16017KT 10SM SCT028 BKN036 BKN065 26/18 A3011 -140 59 1100 160/17 RMK AO2 T02610178
53915KARA ARA20161225132512712/25/16 13:25:31  5-MIN KARA 251925Z 17012G23KT 10SM FEW029 SCT036 BKN065 26/18 A3010 -140 59 1200 170/12G23 RMK AO2 T02610178
53915KARA ARA20161225133012712/25/16 13:30:31  5-MIN KARA 251930Z 16016G23KT 10SM FEW029 SCT038 BKN065 26/18 A3010 -140 59 1200 160/16G23 RMK AO2 T02610178
53915KARA ARA20161225133512712/25/16 13:35:31  5-MIN KARA 251935Z 16018G21KT 10SM FEW029 SCT038 BKN065 26/18 A3010 -140 59 1200 160/18G21 RMK AO2 T02610178
53915KARA ARA20161225134012712/25/16 13:40:31  5-MIN KARA 251940Z 17018G22KT 10SM FEW029 SCT039 BKN065 26/18 A3010 -130 59 1200 170/18G22 RMK AO2 T02610178
53915KARA ARA20161225134511412/25/16 13:45:31  5-MIN KARA 251945Z 17018KT 10SM SCT039 BKN065 26/18 A3010 -130 59 1200 160/18 RMK AO2 T02610178
53915KARA ARA20161225135012112/25/16 13:50:31  5-MIN KARA 251950Z 16017KT 10SM BKN039 BKN065 27/18 A3010 -130 57 1200 160/17 RMK AO2 SLP190 T02670178
53915KARA ARA20161225135512012/25/16 13:55:31  5-MIN KARA 251955Z 15016G21KT 10SM BKN039 BKN065 26/18 A3010 -130 59 1200 150/16G21 RMK AO2 T02610178
53915KARA ARA20161225140012012/25/16 14:00:31  5-MIN KARA 252000Z 15019G23KT 10SM BKN041 BKN065 26/18 A3010 -130 62 1200 150/19G23 RMK AO2 T02610183
53915KARA ARA20161225140511412/25/16 14:05:31  5-MIN KARA 252005Z 16019KT 10SM BKN041 BKN060 26/18 A3010 -130 62 1200 160/19 RMK AO2 T02610183
53915KARA ARA20161225141011412/25/16 14:10:31  5-MIN KARA 252010Z 16018KT 10SM SCT041 BKN060 26/18 A3010 -130 62 1200 160/18 RMK AO2 T02610183
53915KARA ARA20161225141512012/25/16 14:15:31  5-MIN KARA 252015Z 15019G23KT 10SM SCT041 OVC060 26/19 A3010 -130 64 1200 150/19G23 RMK AO2 T02610189
53915KARA ARA20161225142012012/25/16 14:20:31  5-MIN KARA 252020Z 16017G23KT 10SM FEW041 BKN060 26/19 A3010 -130 64 1200 150/17G23 RMK AO2 T02610189
53915KARA ARA20161225142511412/25/16 14:25:31  5-MIN KARA 252025Z 15017KT 10SM FEW041 BKN060 26/19 A3009 -130 64 1200 150/17 RMK AO2 T02610189
53915KARA ARA20161225143011312/25/16 14:30:31  5-MIN KARA 252030Z 16014G22KT 10SM BKN060 27/19 A3009 -130 62 1200 160/14G22 RMK AO2 T02670189
53915KARA ARA20161225143511312/25/16 14:35:31  5-MIN KARA 252035Z 16015G22KT 10SM SCT060 27/19 A3009 -130 62 1200 160/15G22 RMK AO2 T02670189
53915KARA ARA20161225144010712/25/16 14:40:31  5-MIN KARA 252040Z 16016KT 10SM SCT060 27/19 A3009 -130 62 1200 160/16 RMK AO2 T02670189
53915KARA ARA20161225144510712/25/16 14:45:31  5-MIN KARA 252045Z 15018KT 10SM FEW060 26/19 A3009 -130 64 1200 150/18 RMK AO2 T02610189
53915KARA ARA20161225145012612/25/16 14:50:31  5-MIN KARA 252050Z 15017G22KT 10SM FEW055 26/19 A3009 -120 64 1200 150/17G22 RMK AO2 SLP188 T02610189 58008
53915KARA ARA20161225145511312/25/16 14:55:31  5-MIN KARA 252055Z 15017G24KT 10SM FEW024 26/19 A3009 -120 64 1200 150/17G24 RMK AO2 T02610189
53915KARA ARA20161225150011312/25/16 15:00:31  5-MIN KARA 252100Z 16015G24KT 10SM FEW024 26/19 A3009 -120 64 1200 160/15G24 RMK AO2 T02610189
53915KARA ARA20161225150510712/25/16 15:05:31  5-MIN KARA 252105Z 16016KT 10SM FEW024 26/19 A3009 -120 64 1200 160/16 RMK AO2 T02610189
53915KARA ARA20161225151011412/25/16 15:10:31  5-MIN KARA 252110Z 15016KT 10SM SCT024 SCT070 26/19 A3009 -130 66 1200 150/16 RMK AO2 T02610194
53915KARA ARA20161225151511412/25/16 15:15:31  5-MIN KARA 252115Z 16015KT 10SM SCT024 BKN070 26/19 A3009 -120 66 1200 160/15 RMK AO2 T02610194
53915KARA ARA20161225152011412/25/16 15:20:31  5-MIN KARA 252120Z 15013KT 10SM SCT023 BKN070 26/19 A3009 -120 66 1200 150/13 RMK AO2 T02610194
53915KARA ARA20161225152511412/25/16 15:25:31  5-MIN KARA 252125Z 15017KT 10SM BKN023 BKN070 26/19 A3009 -130 68 1100 150/17 RMK AO2 T02560194
53915KARA ARA20161225153011412/25/16 15:30:31  5-MIN KARA 252130Z 16013KT 10SM BKN023 BKN070 26/19 A3009 -130 68 1100 160/13 RMK AO2 T02560194
53915KARA ARA20161225153511412/25/16 15:35:31  5-MIN KARA 252135Z 15011KT 10SM BKN023 OVC070 26/19 A3009 -130 68 1100 150/11 RMK AO2 T02560194
53915KARA ARA20161225154011412/25/16 15:40:31  5-MIN KARA 252140Z 15015KT 10SM BKN023 BKN070 26/19 A3009 -130 68 1100 150/15 RMK AO2 T02560194
53915KARA ARA20161225154511412/25/16 15:45:31  5-MIN KARA 252145Z 15016KT 10SM BKN021 BKN065 25/19 A3009 -130 71 1000 150/16 RMK AO2 T02500194
53915KARA ARA20161225155012112/25/16 15:50:31  5-MIN KARA 252150Z 15018KT 10SM BKN021 BKN027 25/19 A3009 -130 71 1000 150/18 RMK AO2 SLP190 T02500194
53915KARA ARA20161225155512412/25/16 15:55:31  5-MIN KARA 252155Z 15016KT 10SM -RA BKN021 BKN027 25/19 A3010 -130 71 1000 150/16 RMK AO2 P0000 T02500194
53915KARA ARA20161225160011912/25/16 16:00:31  5-MIN KARA 252200Z 15015KT 10SM BKN021 25/19 A3009 -130 71 1000 150/15 RMK AO2 RAE00 P0000 T02500194
53915KARA ARA20161225160511912/25/16 16:05:31  5-MIN KARA 252205Z 16013KT 10SM SCT021 25/19 A3010 -130 71 1000 160/13 RMK AO2 RAE00 P0000 T02500194
53915KARA ARA20161225161011912/25/16 16:10:31  5-MIN KARA 252210Z 16014KT 10SM SCT021 24/19 A3010 -130 73 1000 160/14 RMK AO2 RAE00 P0000 T02440194
53915KARA ARA20161225161511912/25/16 16:15:31  5-MIN KARA 252215Z 16016KT 10SM BKN019 24/20 A3010 -140 76 1000 150/16 RMK AO2 RAE00 P0000 T02440200
53915KARA ARA20161225162011912/25/16 16:20:31  5-MIN KARA 252220Z 16015KT 10SM SCT019 24/20 A3010 -140 76 1000 160/15 RMK AO2 RAE00 P0000 T02440200
53915KARA ARA20161225162511912/25/16 16:25:31  5-MIN KARA 252225Z 16013KT 10SM SCT019 24/20 A3010 -130 76 1000 160/13 RMK AO2 RAE00 P0000 T02440200
53915KARA ARA20161225163011912/25/16 16:30:31  5-MIN KARA 252230Z 15015KT 10SM SCT019 24/20 A3010 -130 76 1000 150/15 RMK AO2 RAE00 P0000 T02440200
53915KARA ARA20161225163511812/25/16 16:35:31  5-MIN KARA 252235Z 15016KT 10SM FEW018 24/20 A3010 -140 78 900 150/16 RMK AO2 RAE00 P0000 T02390200
53915KARA ARA20161225164011812/25/16 16:40:31  5-MIN KARA 252240Z 15014KT 10SM FEW018 24/20 A3010 -140 78 900 150/14 RMK AO2 RAE00 P0000 T02390200
53915KARA ARA20161225164511812/25/16 16:45:31  5-MIN KARA 252245Z 15013KT 10SM FEW018 24/20 A3010 -140 78 900 150/13 RMK AO2 RAE00 P0000 T02390200
53915KARA ARA20161225165012212/25/16 16:50:31  5-MIN KARA 252250Z 15013KT 10SM CLR 24/20 A3010 -140 78 900 150/13 RMK AO2 RAE00 SLP192 P0000 T02390200
53915KARA ARA20161225165510312/25/16 16:55:31  5-MIN KARA 252255Z 15013KT 10SM CLR 24/20 A3010 -140 78 900 150/13 RMK AO2 T02390200
53915KARA ARA20161225170010312/25/16 17:00:31  5-MIN KARA 252300Z 16013KT 10SM CLR 24/20 A3011 -140 78 900 160/13 RMK AO2 T02390200
53915KARA ARA20161225170510312/25/16 17:05:31  5-MIN KARA 252305Z 15013KT 10SM CLR 24/20 A3011 -140 78 900 150/13 RMK AO2 T02390200
53915KARA ARA20161225171010312/25/16 17:10:31  5-MIN KARA 252310Z 15011KT 10SM CLR 23/20 A3011 -140 81 800 150/11 RMK AO2 T02330200
53915KARA ARA20161225171510312/25/16 17:15:31  5-MIN KARA 252315Z 15011KT 10SM CLR 23/20 A3011 -140 81 800 150/11 RMK AO2 T02330200
53915KARA ARA20161225172010312/25/16 17:20:31  5-MIN KARA 252320Z 15012KT 10SM CLR 23/20 A3011 -140 81 800 150/12 RMK AO2 T02330200
53915KARA ARA20161225172510312/25/16 17:25:31  5-MIN KARA 252325Z 15010KT 10SM CLR 23/20 A3011 -140 81 800 150/10 RMK AO2 T02330200
53915KARA ARA20161225173010312/25/16 17:30:31  5-MIN KARA 252330Z 15009KT 10SM CLR 23/20 A3011 -150 81 800 150/09 RMK AO2 T02330200
53915KARA ARA20161225173510312/25/16 17:35:31  5-MIN KARA 252335Z 15009KT 10SM CLR 23/20 A3012 -150 84 800 150/09 RMK AO2 T02280200
53915KARA ARA20161225174010312/25/16 17:40:31  5-MIN KARA 252340Z 15009KT 10SM CLR 23/20 A3012 -150 84 800 150/09 RMK AO2 T02280200
53915KARA ARA20161225174510312/25/16 17:45:31  5-MIN KARA 252345Z 14008KT 10SM CLR 23/20 A3012 -150 84 800 140/08 RMK AO2 T02280200
53915KARA ARA20161225175013412/25/16 17:50:31  5-MIN KARA 252350Z 14009KT 10SM CLR 23/20 A3012 -150 84 800 140/09 RMK AO2 SLP198 60000 T02280200 10272 20228 56018
53915KARA ARA20161225175510312/25/16 17:55:31  5-MIN KARA 252355Z 14007KT 10SM CLR 23/20 A3012 -150 84 800 140/07 RMK AO2 T02280200
53915KARA ARA20161225180010312/25/16 18:00:31  5-MIN KARA 260000Z 14009KT 10SM CLR 23/20 A3012 -160 84 700 140/09 RMK AO2 T02280200
53915KARA ARA20161225180510312/25/16 18:05:31  5-MIN KARA 260005Z 14009KT 10SM CLR 23/20 A3012 -160 84 700 140/09 RMK AO2 T02280200
53915KARA ARA20161225181010312/25/16 18:10:31  5-MIN KARA 260010Z 14009KT 10SM CLR 23/20 A3012 -160 84 700 140/09 RMK AO2 T02280200
53915KARA ARA20161225181510612/25/16 18:15:31  5-MIN KARA 260015Z 14008KT 10SM FEW012 23/20 A3013 -160 84 700 140/08 RMK AO2 T02280200
53915KARA ARA20161225182010612/25/16 18:20:31  5-MIN KARA 260020Z 14011KT 10SM FEW012 23/20 A3013 -160 84 700 140/11 RMK AO2 T02280200
53915KARA ARA20161225182510312/25/16 18:25:31  5-MIN KARA 260025Z 14011KT 10SM CLR 23/20 A3013 -160 84 700 140/11 RMK AO2 T02280200
53915KARA ARA20161225183010612/25/16 18:30:31  5-MIN KARA 260030Z 14011KT 10SM FEW012 23/20 A3013 -160 84 700 140/11 RMK AO2 T02280200
53915KARA ARA20161225183510612/25/16 18:35:31  5-MIN KARA 260035Z 13011KT 10SM FEW012 23/20 A3013 -160 84 700 130/11 RMK AO2 T02280200
53915KARA ARA20161225184010612/25/16 18:40:31  5-MIN KARA 260040Z 13010KT 10SM SCT012 23/20 A3013 -160 84 700 130/10 RMK AO2 T02280200
53915KARA ARA20161225184510612/25/16 18:45:31  5-MIN KARA 260045Z 13010KT 10SM BKN011 23/20 A3013 -160 84 700 130/10 RMK AO2 T02280200
53915KARA ARA20161225185009612/25/16 18:50:31  5-MIN KARA 260050Z 13010KT 10SM BKN011 23/20 A3013 -160 84 700 130/10 RMK AO2
53915KARA ARA20161225185510612/25/16 18:55:31  5-MIN KARA 260055Z 13010KT 10SM BKN013 23/20 A3013 -160 84 700 130/10 RMK AO2 T02280200
53915KARA ARA20161225190010612/25/16 19:00:31  5-MIN KARA 260100Z 14011KT 10SM BKN013 23/20 A3013 -160 84 700 130/11 RMK AO2 T02280200
53915KARA ARA20161225190510612/25/16 19:05:31  5-MIN KARA 260105Z 14012KT 10SM OVC013 23/20 A3013 -170 84 700 130/12 RMK AO2 T02280200
53915KARA ARA20161225191010612/25/16 19:10:31  5-MIN KARA 260110Z 14013KT 10SM OVC013 23/21 A3013 -160 87 700 140/13 RMK AO2 T02280206
53915KARA ARA20161226051511012/26/16 05:15:31  5-MIN KARA 261115Z AUTO 14004KT 9SM OVC009 21/19 A3019 -210 90 500 140/04 RMK AO2 T02110194
53915KARA ARA20161226052011012/26/16 05:20:31  5-MIN KARA 261120Z AUTO 13004KT 9SM OVC009 21/19 A3019 -210 90 500 130/04 RMK AO2 T02110194
53915KARA ARA20161226052511012/26/16 05:25:31  5-MIN KARA 261125Z AUTO 13004KT 9SM OVC009 21/19 A3019 -210 90 500 130/04 RMK AO2 T02110194
53915KARA ARA20161226053011012/26/16 05:30:31  5-MIN KARA 261130Z AUTO 12004KT 9SM OVC009 21/19 A3019 -220 90 500 120/04 RMK AO2 T02110194
53915KARA ARA20161226053511112/26/16 05:35:31  5-MIN KARA 261135Z AUTO 13004KT 10SM OVC009 21/19 A3019 -220 90 500 120/04 RMK AO2 T02110194
53915KARA ARA20161226054010612/26/16 05:40:31  5-MIN KARA 261140Z 13005KT 10SM OVC009 21/19 A3019 -220 90 500 130/05 RMK AO2 T02110194
53915KARA ARA20161226054510612/26/16 05:45:31  5-MIN KARA 261145Z 13005KT 10SM OVC009 21/19 A3019 -220 90 500 130/05 RMK AO2 T02110194
53915KARA ARA20161226055013112/26/16 05:50:31  5-MIN KARA 261150Z 12006KT 10SM OVC009 21/19 A3019 -220 90 500 120/06 RMK AO2 SLP222 T02110194 10228 20206 53002
53915KARA ARA20161226055510612/26/16 05:55:31  5-MIN KARA 261155Z 12005KT 10SM OVC009 22/19 A3019 -220 87 500 120/05 RMK AO2 T02170194
53915KARA ARA20161226060010612/26/16 06:00:31  5-MIN KARA 261200Z 13006KT 10SM OVC009 22/19 A3019 -220 87 500 120/06 RMK AO2 T02170194
53915KARA ARA20161226060511812/26/16 06:05:31  5-MIN KARA 261205Z 13006KT 10SM OVC009 22/19 A3020 -220 87 500 130/06 RMK AO2 CIG 007V013 T02170194
53915KARA ARA20161226061010612/26/16 06:10:31  5-MIN KARA 261210Z 13008KT 10SM OVC009 22/19 A3020 -220 87 500 130/08 RMK AO2 T02170194
53915KARA ARA20161226061511812/26/16 06:15:31  5-MIN KARA 261215Z 13007KT 10SM OVC008 22/19 A3020 -230 87 500 130/07 RMK AO2 CIG 007V012 T02170194
53915KARA ARA20161226062010612/26/16 06:20:31  5-MIN KARA 261220Z 13006KT 10SM OVC008 22/19 A3020 -230 87 500 130/06 RMK AO2 T02170194
53915KARA ARA20161226062511812/26/16 06:25:31  5-MIN KARA 261225Z 13007KT 10SM OVC008 22/19 A3020 -230 87 500 130/07 RMK AO2 CIG 007V013 T02170194
53915KARA ARA20161226063011812/26/16 06:30:31  5-MIN KARA 261230Z 13008KT 10SM OVC008 22/19 A3020 -230 87 500 130/08 RMK AO2 CIG 007V013 T02170194
53915KARA ARA20161226063511812/26/16 06:35:31  5-MIN KARA 261235Z 14008KT 10SM OVC008 22/19 A3021 -230 87 500 140/08 RMK AO2 CIG 007V013 T02170194
53915KARA ARA20161226064011812/26/16 06:40:31  5-MIN KARA 261240Z 14007KT 10SM OVC008 22/20 A3021 -230 90 500 140/07 RMK AO2 CIG 007V013 T02170200
53915KARA ARA20161226064511812/26/16 06:45:31  5-MIN KARA 261245Z 14007KT 10SM OVC008 22/20 A3021 -230 90 500 140/07 RMK AO2 CIG 007V013 T02170200
53915KARA ARA20161226065012512/26/16 06:50:31  5-MIN KARA 261250Z 14007KT 10SM OVC008 22/20 A3021 -240 90 500 140/07 RMK AO2 CIG 007V012 SLP229 T02170200
53915KARA ARA20161226065510612/26/16 06:55:31  5-MIN KARA 261255Z 14007KT 10SM OVC008 22/20 A3021 -230 90 500 140/07 RMK AO2 T02170200
53915KARA ARA20161226070011812/26/16 07:00:31  5-MIN KARA 261300Z 14007KT 10SM OVC008 22/20 A3021 -240 90 500 140/07 RMK AO2 CIG 007V012 T02170200
53915KARA ARA20161226070510612/26/16 07:05:31  5-MIN KARA 261305Z 14008KT 10SM OVC008 22/20 A3021 -240 90 500 140/08 RMK AO2 T02170200
53915KARA ARA20161226071010612/26/16 07:10:31  5-MIN KARA 261310Z 14008KT 10SM OVC008 22/20 A3021 -240 90 500 140/08 RMK AO2 T02170200
53915KARA ARA20161226071510612/26/16 07:15:31  5-MIN KARA 261315Z 14008KT 10SM OVC008 22/20 A3022 -240 90 500 140/08 RMK AO2 T02170200
53915KARA ARA20161226072011812/26/16 07:20:31  5-MIN KARA 261320Z 14008KT 10SM OVC008 22/20 A3022 -240 90 500 140/08 RMK AO2 CIG 007V012 T02170200
53915KARA ARA20161226072511812/26/16 07:25:31  5-MIN KARA 261325Z 14007KT 10SM OVC008 22/20 A3022 -240 90 500 130/07 RMK AO2 CIG 007V012 T02170200
53915KARA ARA20161226073011812/26/16 07:30:31  5-MIN KARA 261330Z 13008KT 10SM OVC008 22/20 A3022 -250 87 600 130/08 RMK AO2 CIG 007V012 T02220200
53915KARA ARA20161226073511812/26/16 07:35:31  5-MIN KARA 261335Z 13008KT 10SM OVC008 22/20 A3022 -250 87 600 130/08 RMK AO2 CIG 007V012 T02220200
53915KARA ARA20161226074011812/26/16 07:40:31  5-MIN KARA 261340Z 13008KT 10SM OVC010 22/20 A3022 -250 87 600 130/08 RMK AO2 CIG 007V013 T02220200
53915KARA ARA20161226074511812/26/16 07:45:31  5-MIN KARA 261345Z 13009KT 10SM OVC010 22/20 A3022 -250 87 600 130/09 RMK AO2 CIG 007V013 T02220200
53915KARA ARA20161226075012512/26/16 07:50:31  5-MIN KARA 261350Z 14009KT 10SM OVC010 22/20 A3023 -250 87 600 140/09 RMK AO2 CIG 007V013 SLP234 T02220200
53915KARA ARA20161226075511812/26/16 07:55:31  5-MIN KARA 261355Z 14009KT 10SM OVC010 22/20 A3023 -250 87 600 140/09 RMK AO2 CIG 007V013 T02220200
53915KARA ARA20161226080011812/26/16 08:00:31  5-MIN KARA 261400Z 14010KT 10SM OVC010 22/20 A3023 -260 87 600 140/10 RMK AO2 CIG 007V013 T02220200
53915KARA ARA20161226080511812/26/16 08:05:31  5-MIN KARA 261405Z 14010KT 10SM OVC010 22/20 A3023 -260 87 600 140/10 RMK AO2 CIG 008V013 T02220200
53915KARA ARA20161226081011812/26/16 08:10:31  5-MIN KARA 261410Z 14011KT 10SM OVC010 22/20 A3023 -260 87 600 140/11 RMK AO2 CIG 008V013 T02220200
53915KARA ARA20161226081511812/26/16 08:15:31  5-MIN KARA 261415Z 14010KT 10SM OVC010 22/20 A3024 -260 87 600 140/10 RMK AO2 CIG 007V013 T02220200
53915KARA ARA20161226082011812/26/16 08:20:31  5-MIN KARA 261420Z 14009KT 10SM OVC008 23/20 A3024 -260 84 600 140/09 RMK AO2 CIG 007V012 T02280200
53915KARA ARA20161226082511812/26/16 08:25:31  5-MIN KARA 261425Z 14010KT 10SM OVC008 23/20 A3024 -270 84 600 140/10 RMK AO2 CIG 007V011 T02280200
53915KARA ARA20161226083010612/26/16 08:30:31  5-MIN KARA 261430Z 14011KT 10SM OVC008 23/20 A3024 -270 84 600 140/11 RMK AO2 T02280200
53915KARA ARA20161226083510612/26/16 08:35:31  5-MIN KARA 261435Z 14011KT 10SM OVC008 23/20 A3024 -270 84 600 140/11 RMK AO2 T02280200
53915KARA ARA20161226084010612/26/16 08:40:31  5-MIN KARA 261440Z 14011KT 10SM OVC008 23/20 A3024 -270 84 600 140/11 RMK AO2 T02280200
53915KARA ARA20161226084510612/26/16 08:45:31  5-MIN KARA 261445Z 14011KT 10SM OVC008 23/20 A3025 -270 84 600 140/11 RMK AO2 T02280200
53915KARA ARA20161226085011912/26/16 08:50:31  5-MIN KARA 261450Z 15009KT 10SM OVC008 23/20 A3025 -270 84 600 150/09 RMK AO2 SLP242 T02280200 53008
53915KARA ARA20161226085510612/26/16 08:55:31  5-MIN KARA 261455Z 15010KT 10SM OVC008 23/21 A3025 -270 87 600 140/10 RMK AO2 T02280206
53915KARA ARA20161226090011212/26/16 09:00:31  5-MIN KARA 261500Z 14012G16KT 10SM OVC008 23/20 A3026 -280 84 600 140/12G16 RMK AO2 T02280200
53915KARA ARA20161226090511812/26/16 09:05:31  5-MIN KARA 261505Z 15010KT 10SM OVC008 23/20 A3026 -280 81 700 150/10 RMK AO2 CIG 007V012 T02330200
53915KARA ARA20161226091011812/26/16 09:10:31  5-MIN KARA 261510Z 15009KT 10SM OVC009 23/20 A3026 -280 81 700 150/09 RMK AO2 CIG 007V012 T02330200
53915KARA ARA20161226091511812/26/16 09:15:31  5-MIN KARA 261515Z 15009KT 10SM OVC009 23/21 A3026 -280 84 700 150/09 RMK AO2 CIG 007V012 T02330206
53915KARA ARA20161226092011812/26/16 09:20:31  5-MIN KARA 261520Z 15010KT 10SM OVC009 23/20 A3027 -290 81 700 150/10 RMK AO2 CIG 007V012 T02330200
53915KARA ARA20161226092511812/26/16 09:25:31  5-MIN KARA 261525Z 15010KT 10SM OVC010 23/20 A3027 -290 81 600 150/10 RMK AO2 CIG 009V014 T02330200
53915KARA ARA20161226093011812/26/16 09:30:31  5-MIN KARA 261530Z 15010KT 10SM OVC010 23/20 A3027 -290 81 600 150/10 RMK AO2 CIG 009V014 T02330200
53915KARA ARA20161226093511812/26/16 09:35:31  5-MIN KARA 261535Z 15007KT 10SM OVC010 23/21 A3027 -290 84 700 150/07 RMK AO2 CIG 009V014 T02330206
53915KARA ARA20161226094010612/26/16 09:40:31  5-MIN KARA 261540Z 15011KT 10SM OVC010 23/20 A3027 -290 81 600 150/11 RMK AO2 T02330200
53915KARA ARA20161226094510612/26/16 09:45:31  5-MIN KARA 261545Z 15009KT 10SM OVC012 23/20 A3027 -290 81 600 150/09 RMK AO2 T02330200
53915KARA ARA20161226095012012/26/16 09:50:31  5-MIN KARA 261550Z 15009KT 10SM BKN012 OVC018 23/20 A3027 -290 81 600 150/09 RMK AO2 SLP250 T02330200
53915KARA ARA20161226095510612/26/16 09:55:31  5-MIN KARA 261555Z 15009KT 10SM OVC015 24/21 A3027 -290 81 700 150/09 RMK AO2 T02390206
53915KARA ARA20161226100011312/26/16 10:00:31  5-MIN KARA 261600Z 15010KT 10SM BKN013 OVC018 24/21 A3027 -290 81 700 150/10 RMK AO2 T02390206
53915KARA ARA20161226100511312/26/16 10:05:31  5-MIN KARA 261605Z 14010KT 10SM BKN013 OVC018 24/21 A3027 -290 81 700 140/10 RMK AO2 T02390206
53915KARA ARA20161226101011312/26/16 10:10:31  5-MIN KARA 261610Z 15011KT 10SM BKN015 OVC022 24/21 A3027 -290 81 700 140/11 RMK AO2 T02390206
53915KARA ARA20161226101511312/26/16 10:15:31  5-MIN KARA 261615Z 16010KT 10SM BKN013 OVC020 24/21 A3027 -290 81 700 150/10 RMK AO2 T02390206
53915KARA ARA20161226102011312/26/16 10:20:31  5-MIN KARA 261620Z 14012KT 10SM BKN013 OVC020 24/21 A3027 -290 78 800 140/12 RMK AO2 T02440206
53915KARA ARA20161226102511312/26/16 10:25:31  5-MIN KARA 261625Z 15011KT 10SM BKN014 OVC020 24/21 A3027 -290 78 800 150/11 RMK AO2 T02440206
53915KARA ARA20161226103011312/26/16 10:30:31  5-MIN KARA 261630Z 14011KT 10SM BKN016 OVC022 25/21 A3027 -290 76 800 140/11 RMK AO2 T02500206
53915KARA ARA20161226103511312/26/16 10:35:31  5-MIN KARA 261635Z 15010KT 10SM BKN016 OVC022 25/21 A3027 -290 76 800 150/10 RMK AO2 T02500206
53915KARA ARA20161226104012012/26/16 10:40:31  5-MIN KARA 261640Z 15010KT 10SM BKN016 BKN022 OVC036 26/21 A3027 -290 73 900 150/10 RMK AO2 T02560206
53915KARA ARA20161226104512012/26/16 10:45:31  5-MIN KARA 261645Z 15011KT 10SM BKN016 BKN021 OVC047 26/21 A3026 -280 73 900 150/11 RMK AO2 T02560206
53915KARA ARA20161226105012712/26/16 10:50:31  5-MIN KARA 261650Z 17011KT 10SM BKN016 BKN021 OVC047 26/20 A3026 -280 71 900 170/11 RMK AO2 SLP247 T02560200
53915KARA ARA20161226105511312/26/16 10:55:31  5-MIN KARA 261655Z 16013KT 10SM BKN016 OVC038 26/20 A3026 -280 71 900 160/13 RMK AO2 T02560200
53915KARA ARA20161226110012012/26/16 11:00:31  5-MIN KARA 261700Z 15015KT 10SM SCT018 BKN038 OVC060 26/20 A3026 -280 71 900 150/15 RMK AO2 T02560200
53915KARA ARA20161226110512112/26/16 11:05:31  5-MIN KARA 261705Z 16013KT 10SM SCT018 BKN038 OVC047 26/20 A3026 -280 68 1000 160/13 RMK AO2 T02610200
53915KARA ARA20161226111012112/26/16 11:10:31  5-MIN KARA 261710Z 16013KT 10SM SCT018 BKN038 OVC045 26/20 A3026 -280 68 1000 160/13 RMK AO2 T02610200
53915KARA ARA20161226111512112/26/16 11:15:31  5-MIN KARA 261715Z 16011KT 10SM SCT020 BKN038 BKN045 26/20 A3026 -280 68 1000 160/11 RMK AO2 T02610200
53915KARA ARA20161226112012112/26/16 11:20:31  5-MIN KARA 261720Z 16015KT 10SM SCT020 BKN038 BKN046 27/20 A3025 -280 66 1000 160/15 RMK AO2 T02670200
53915KARA ARA20161226112512112/26/16 11:25:31  5-MIN KARA 261725Z 16011KT 10SM SCT020 BKN038 BKN046 26/20 A3025 -270 68 1000 160/11 RMK AO2 T02610200
53915KARA ARA20161226113012112/26/16 11:30:31  5-MIN KARA 261730Z 17013KT 10SM SCT020 BKN038 BKN046 27/20 A3025 -270 66 1000 170/13 RMK AO2 T02670200
53915KARA ARA20161226113512012/26/16 11:35:31  5-MIN KARA 261735Z 17011KT 10SM SCT020 BKN038 BKN046 26/19 A3025 -270 68 900 170/11 RMK AO2 T02560194
53915KARA ARA20161226114012112/26/16 11:40:31  5-MIN KARA 261740Z 16012KT 10SM SCT020 BKN041 BKN049 27/20 A3025 -270 66 1100 150/12 RMK AO2 T02670200
53915KARA ARA20161226114512112/26/16 11:45:31  5-MIN KARA 261745Z 16012KT 10SM FEW021 SCT029 BKN039 27/19 A3024 -270 64 1100 160/12 RMK AO2 T02670194
53915KARA ARA20161226115014612/26/16 11:50:31  5-MIN KARA 261750Z 15014KT 10SM FEW021 BKN039 OVC060 27/20 A3024 -260 64 1100 150/14 RMK AO2 SLP239 T02720200 10272 20217 53020
53915KARA ARA20161226115512112/26/16 11:55:31  5-MIN KARA 261755Z 16014KT 10SM FEW021 BKN043 BKN060 27/19 A3024 -260 62 1100 160/14 RMK AO2 T02720194
53915KARA ARA20161226120012112/26/16 12:00:31  5-MIN KARA 261800Z 16013KT 10SM FEW023 BKN039 BKN047 27/19 A3024 -260 64 1100 150/13 RMK AO2 T02670194
53915KARA ARA20161226120512112/26/16 12:05:31  5-MIN KARA 261805Z 15014KT 10SM FEW023 SCT039 BKN047 27/19 A3023 -260 64 1100 150/14 RMK AO2 T02670194
53915KARA ARA20161226121012112/26/16 12:10:31  5-MIN KARA 261810Z 17015KT 10SM FEW023 SCT029 BKN042 27/19 A3023 -250 62 1100 170/15 RMK AO2 T02720194
53915KARA ARA20161226121512112/26/16 12:15:31  5-MIN KARA 261815Z 16015KT 10SM FEW025 SCT033 BKN042 27/19 A3023 -250 64 1100 160/15 RMK AO2 T02670194
53915KARA ARA20161226122012112/26/16 12:20:31  5-MIN KARA 261820Z 16014KT 10SM FEW025 BKN039 BKN049 26/19 A3022 -250 66 1000 160/14 RMK AO2 T02610194
53915KARA ARA20161226122512112/26/16 12:25:31  5-MIN KARA 261825Z 16014KT 10SM FEW025 BKN039 BKN047 27/20 A3022 -250 66 1100 150/14 RMK AO2 T02670200
53915KARA ARA20161226123012112/26/16 12:30:31  5-MIN KARA 261830Z 16012KT 10SM FEW025 SCT034 OVC042 27/19 A3022 -250 64 1100 160/12 RMK AO2 T02670194
53915KARA ARA20161226123512112/26/16 12:35:31  5-MIN KARA 261835Z 15013KT 10SM SCT024 BKN042 OVC048 27/20 A3022 -240 66 1100 140/13 RMK AO2 T02670200
53915KARA ARA20161226124012112/26/16 12:40:31  5-MIN KARA 261840Z 17014KT 10SM FEW024 BKN043 OVC050 27/19 A3021 -240 64 1100 170/14 RMK AO2 T02670194
53915KARA ARA20161226124512112/26/16 12:45:31  5-MIN KARA 261845Z 17013KT 10SM FEW024 BKN043 OVC050 27/19 A3021 -240 64 1100 170/13 RMK AO2 T02670194
53915KARA ARA20161226125012812/26/16 12:50:31  5-MIN KARA 261850Z 17012KT 10SM SCT026 BKN031 OVC055 26/19 A3021 -230 66 1000 170/12 RMK AO2 SLP229 T02610194
53915KARA ARA20161226125512112/26/16 12:55:31  5-MIN KARA 261855Z 17012KT 10SM BKN025 BKN031 OVC050 26/19 A3021 -230 66 1000 170/12 RMK AO2 T02610194
53915KARA ARA20161226130012112/26/16 13:00:31  5-MIN KARA 261900Z 16013KT 10SM SCT023 BKN029 OVC050 27/19 A3020 -230 64 1100 160/13 RMK AO2 T02670194
53915KARA ARA20161226130512712/26/16 13:05:31  5-MIN KARA 261905Z 16015G20KT 10SM FEW023 BKN029 OVC050 27/19 A3020 -230 64 1100 160/15G20 RMK AO2 T02670194
53915KARA ARA20161226131012712/26/16 13:10:31  5-MIN KARA 261910Z 17014G20KT 10SM SCT025 BKN033 OVC050 27/20 A3020 -230 64 1200 170/14G20 RMK AO2 T02720200
53915KARA ARA20161226131512112/26/16 13:15:31  5-MIN KARA 261915Z 17015KT 10SM BKN025 BKN033 OVC048 27/19 A3020 -230 62 1200 170/15 RMK AO2 T02720194
53915KARA ARA20161226132012112/26/16 13:20:31  5-MIN KARA 261920Z 17014KT 10SM BKN025 BKN037 OVC048 28/19 A3019 -210 60 1200 170/14 RMK AO2 T02780194
53915KARA ARA20161226132512012/26/16 13:25:31  5-MIN KARA 261925Z 18014G21KT 10SM BKN024 BKN037 27/19 A3019 -220 62 1200 180/14G21 RMK AO2 T02720194
53915KARA ARA20161226133012012/26/16 13:30:31  5-MIN KARA 261930Z 17015G21KT 10SM SCT024 BKN031 27/19 A3019 -220 62 1200 170/15G21 RMK AO2 T02720194
53915KARA ARA20161226133511312/26/16 13:35:31  5-MIN KARA 261935Z 17015G22KT 10SM SCT024 27/19 A3019 -220 62 1200 170/15G22 RMK AO2 T02720194
53915KARA ARA20161226134012012/26/16 13:40:31  5-MIN KARA 261940Z 18015G22KT 10SM SCT024 BKN035 27/19 A3019 -220 64 1100 180/15G22 RMK AO2 T02670194
53915KARA ARA20161226134511312/26/16 13:45:31  5-MIN KARA 261945Z 17014G22KT 10SM SCT026 27/20 A3019 -220 64 1200 170/14G22 RMK AO2 T02720200
53915KARA ARA20161226135012012/26/16 13:50:31  5-MIN KARA 261950Z 18015G21KT 10SM FEW026 27/20 A3019 -220 66 1100 180/15G21 RMK AO2 SLP223 T02670200
53915KARA ARA20161226135512012/26/16 13:55:31  5-MIN KARA 261955Z 17016G20KT 10SM FEW026 SCT047 27/20 A3020 -220 66 1100 170/16G20 RMK AO2 T02670200
53915KARA ARA20161226140012012/26/16 14:00:31  5-MIN KARA 262000Z 17015G20KT 10SM FEW026 SCT049 26/20 A3020 -220 68 1000 170/15G20 RMK AO2 T02610200
53915KARA ARA20161226140512012/26/16 14:05:31  5-MIN KARA 262005Z 17012G20KT 10SM FEW026 BKN049 26/20 A3020 -220 68 1000 170/12G20 RMK AO2 T02610200
53915KARA ARA20161226141012012/26/16 14:10:31  5-MIN KARA 262010Z 16017G20KT 10SM FEW022 BKN050 26/20 A3019 -220 68 1000 160/17G20 RMK AO2 T02610200
53915KARA ARA20161226141512112/26/16 14:15:31  5-MIN KARA 262015Z 17013KT 10SM FEW021 FEW035 BKN050 27/20 A3020 -220 66 1100 170/13 RMK AO2 T02670200
53915KARA ARA20161226142012712/26/16 14:20:31  5-MIN KARA 262020Z 18013G21KT 10SM FEW021 SCT035 BKN050 26/20 A3020 -220 68 1000 170/13G21 RMK AO2 T02610200
53915KARA ARA20161226142512712/26/16 14:25:31  5-MIN KARA 262025Z 18012G21KT 10SM FEW019 SCT037 BKN050 26/20 A3020 -220 68 1000 180/12G21 RMK AO2 T02610200
53915KARA ARA20161226143012712/26/16 14:30:31  5-MIN KARA 262030Z 17013G19KT 10SM FEW019 SCT038 BKN050 26/20 A3019 -220 68 1100 170/13G19 RMK AO2 T02610200
53915KARA ARA20161226143512112/26/16 14:35:31  5-MIN KARA 262035Z 18014KT 10SM FEW019 SCT038 BKN050 26/20 A3019 -220 71 1000 180/14 RMK AO2 T02560200
53915KARA ARA20161226144012612/26/16 14:40:31  5-MIN KARA 262040Z AUTO 17014KT 10SM FEW019 SCT038 BKN050 26/20 A3020 -220 68 1000 170/14 RMK AO2 T02610200
53915KARA ARA20161226144512612/26/16 14:45:31  5-MIN KARA 262045Z AUTO 17014KT 10SM FEW019 SCT038 BKN050 26/20 A3019 -220 71 1000 170/14 RMK AO2 T02560200
53915KARA ARA20161226145013912/26/16 14:50:31  5-MIN KARA 262050Z AUTO 17014KT 10SM FEW019 SCT038 BKN050 26/20 A3019 -220 71 1000 170/14 RMK AO2 SLP224 T02560200 58005
53915KARA ARA20161226145512612/26/16 14:55:31  5-MIN KARA 262055Z AUTO 17011KT 10SM SCT020 SCT034 BKN041 26/20 A3019 -220 71 1000 170/11 RMK AO2 T02560200
53915KARA ARA20161226150013212/26/16 15:00:31  5-MIN KARA 262100Z AUTO 18012G17KT 10SM SCT020 BKN050 BKN070 26/20 A3019 -220 71 1000 180/12G17 RMK AO2 T02560200
53915KARA ARA20161226150512612/26/16 15:05:31  5-MIN KARA 262105Z AUTO 18011KT 10SM SCT020 SCT042 BKN075 26/20 A3019 -220 71 1000 180/11 RMK AO2 T02560200
53915KARA ARA20161226151011912/26/16 15:10:31  5-MIN KARA 262110Z AUTO 18011KT 10SM SCT018 BKN075 26/20 A3020 -220 71 1000 180/11 RMK AO2 T02560200
53915KARA ARA20161226151511912/26/16 15:15:31  5-MIN KARA 262115Z AUTO 18012KT 10SM SCT018 BKN070 26/21 A3020 -220 73 1000 180/12 RMK AO2 T02560206
53915KARA ARA20161226152011912/26/16 15:20:31  5-MIN KARA 262120Z AUTO 18013KT 10SM SCT018 BKN075 26/20 A3019 -220 71 1000 180/13 RMK AO2 T02560200
53915KARA ARA20161226152511912/26/16 15:25:31  5-MIN KARA 262125Z AUTO 18013KT 10SM FEW018 BKN075 26/20 A3020 -220 71 1000 170/13 RMK AO2 T02560200
53915KARA ARA20161226153012512/26/16 15:30:31  5-MIN KARA 262130Z AUTO 18012G19KT 10SM FEW018 BKN080 26/20 A3020 -220 71 1000 170/12G19 RMK AO2 T02560200
53915KARA ARA20161226153513112/26/16 15:35:31  5-MIN KARA 262135Z AUTO 18012G19KT 10SM FEW016 FEW021 BKN080 25/20 A3019 -220 73 900 180/12G19 RMK AO2 T02500200
53915KARA ARA20161226154013112/26/16 15:40:31  5-MIN KARA 262140Z AUTO 18009G18KT 10SM FEW016 FEW021 BKN080 25/20 A3020 -220 73 900 170/09G18 RMK AO2 T02500200
53915KARA ARA20161226154511812/26/16 15:45:31  5-MIN KARA 262145Z AUTO 17011KT 10SM SCT018 BKN080 25/20 A3020 -230 73 900 170/11 RMK AO2 T02500200
53915KARA ARA20161226155012012/26/16 15:50:31  5-MIN KARA 262150Z 18011KT 10SM FEW018 SCT080 25/20 A3020 -230 73 900 180/11 RMK AO2 SLP225 T02500200
53915KARA ARA20161226155511312/26/16 15:55:31  5-MIN KARA 262155Z 18009KT 10SM FEW017 SCT080 25/20 A3020 -230 73 900 180/09 RMK AO2 T02500200
53915KARA ARA20161226160011312/26/16 16:00:31  5-MIN KARA 262200Z 17010KT 10SM SCT017 SCT080 25/20 A3020 -230 73 900 170/10 RMK AO2 T02500200
53915KARA ARA20161226160511312/26/16 16:05:31  5-MIN KARA 262205Z 16011KT 10SM FEW017 SCT080 25/20 A3020 -230 73 900 160/11 RMK AO2 T02500200
53915KARA ARA20161226161011312/26/16 16:10:31  5-MIN KARA 262210Z 17011KT 10SM FEW017 SCT080 24/20 A3020 -230 76 800 170/11 RMK AO2 T02440200
53915KARA ARA20161226161511312/26/16 16:15:31  5-MIN KARA 262215Z 17012KT 10SM FEW017 SCT080 24/20 A3020 -230 76 800 170/12 RMK AO2 T02440200
53915KARA ARA20161226162011312/26/16 16:20:31  5-MIN KARA 262220Z 17010KT 10SM FEW017 SCT080 24/20 A3020 -230 76 900 170/10 RMK AO2 T02440200
53915KARA ARA20161226162511312/26/16 16:25:31  5-MIN KARA 262225Z 18011KT 10SM FEW016 SCT080 24/20 A3020 -230 76 900 180/11 RMK AO2 T02440200
53915KARA ARA20161226163010612/26/16 16:30:31  5-MIN KARA 262230Z 17010KT 10SM FEW080 24/20 A3020 -230 76 900 170/10 RMK AO2 T02440200
53915KARA ARA20161226163510612/26/16 16:35:31  5-MIN KARA 262235Z 18009KT 10SM FEW080 24/20 A3020 -230 76 900 180/09 RMK AO2 T02440200
53915KARA ARA20161226164010612/26/16 16:40:31  5-MIN KARA 262240Z 17010KT 10SM FEW080 24/20 A3020 -230 76 900 170/10 RMK AO2 T02440200
53915KARA ARA20161226164510312/26/16 16:45:31  5-MIN KARA 262245Z 17009KT 10SM CLR 24/20 A3020 -230 76 800 170/09 RMK AO2 T02440200
53915KARA ARA20161226165011012/26/16 16:50:31  5-MIN KARA 262250Z 17007KT 10SM CLR 24/20 A3020 -230 78 800 170/07 RMK AO2 SLP226 T02390200
53915KARA ARA20161226165510312/26/16 16:55:31  5-MIN KARA 262255Z 17007KT 10SM CLR 24/20 A3020 -230 78 800 170/07 RMK AO2 T02390200
53915KARA ARA20161226170010312/26/16 17:00:31  5-MIN KARA 262300Z 17009KT 10SM CLR 24/20 A3020 -230 78 800 170/09 RMK AO2 T02390200
53915KARA ARA20161226170510312/26/16 17:05:31  5-MIN KARA 262305Z 17006KT 10SM CLR 24/20 A3021 -230 78 800 170/06 RMK AO2 T02390200
53915KARA ARA20161226171010312/26/16 17:10:31  5-MIN KARA 262310Z 18009KT 10SM CLR 24/20 A3021 -230 78 800 170/09 RMK AO2 T02390200
53915KARA ARA20161226171510312/26/16 17:15:31  5-MIN KARA 262315Z 17009KT 10SM CLR 23/20 A3021 -230 81 700 170/09 RMK AO2 T02330200
53915KARA ARA20161226172010312/26/16 17:20:31  5-MIN KARA 262320Z 17007KT 10SM CLR 23/20 A3021 -230 81 700 170/07 RMK AO2 T02330200
53915KARA ARA20161226172510312/26/16 17:25:31  5-MIN KARA 262325Z 17007KT 10SM CLR 23/20 A3021 -230 81 700 170/07 RMK AO2 T02330200
53915KARA ARA20161226173010312/26/16 17:30:31  5-MIN KARA 262330Z 17007KT 10SM CLR 23/20 A3021 -240 81 700 170/07 RMK AO2 T02330200
53915KARA ARA20161226173510312/26/16 17:35:31  5-MIN KARA 262335Z 17006KT 10SM CLR 23/20 A3021 -240 81 700 170/06 RMK AO2 T02330200
53915KARA ARA20161226174010612/26/16 17:40:31  5-MIN KARA 262340Z 17005KT 10SM SCT070 23/20 A3022 -240 84 600 170/05 RMK AO2 T02280200
53915KARA ARA20161226174510612/26/16 17:45:31  5-MIN KARA 262345Z 17005KT 10SM SCT070 23/20 A3022 -240 84 600 170/05 RMK AO2 T02280200
53915KARA ARA20161226175013112/26/16 17:50:31  5-MIN KARA 262350Z 17006KT 10SM SCT070 23/20 A3022 -240 84 600 170/06 RMK AO2 SLP232 T02280200 10278 20228 56014
53915KARA ARA20161226175510612/26/16 17:55:31  5-MIN KARA 262355Z 17007KT 10SM FEW070 23/20 A3022 -240 84 600 170/07 RMK AO2 T02280200
53915KARA ARA20161226180010612/26/16 18:00:31  5-MIN KARA 270000Z 17006KT 10SM SCT070 23/20 A3022 -250 84 600 170/06 RMK AO2 T02280200
53915KARA ARA20161226180510612/26/16 18:05:31  5-MIN KARA 270005Z 18005KT 10SM SCT070 23/20 A3023 -250 84 600 170/05 RMK AO2 T02280200
53915KARA ARA20161226181010612/26/16 18:10:31  5-MIN KARA 270010Z 18005KT 10SM BKN070 23/20 A3023 -250 84 600 180/05 RMK AO2 T02280200
53915KARA ARA20161226181510612/26/16 18:15:31  5-MIN KARA 270015Z 18006KT 10SM BKN070 23/20 A3023 -250 84 600 180/06 RMK AO2 T02280200
53915KARA ARA20161226182010612/26/16 18:20:31  5-MIN KARA 270020Z 18006KT 10SM BKN070 23/20 A3023 -260 84 600 180/06 RMK AO2 T02280200
53915KARA ARA20161226182510612/26/16 18:25:31  5-MIN KARA 270025Z 17006KT 10SM BKN070 23/20 A3024 -260 84 600 170/06 RMK AO2 T02280200
53915KARA ARA20161226183010612/26/16 18:30:31  5-MIN KARA 270030Z 17006KT 10SM BKN070 23/20 A3024 -260 84 600 170/06 RMK AO2 T02280200
53915KARA ARA20161226183510612/26/16 18:35:31  5-MIN KARA 270035Z 17006KT 10SM SCT070 22/20 A3024 -260 87 600 170/06 RMK AO2 T02220200
53915KARA ARA20161226184010612/26/16 18:40:31  5-MIN KARA 270040Z 17005KT 10SM SCT070 22/20 A3024 -260 87 600 160/05 RMK AO2 T02220200
53915KARA ARA20161226184510612/26/16 18:45:31  5-MIN KARA 270045Z 17005KT 10SM FEW070 22/20 A3024 -260 87 600 170/05 RMK AO2 T02220200
53915KARA ARA20161226185011012/26/16 18:50:31  5-MIN KARA 270050Z 17005KT 10SM CLR 22/20 A3024 -260 87 600 160/05 RMK AO2 SLP239 T02220200
53915KARA ARA20161226185510312/26/16 18:55:31  5-MIN KARA 270055Z 17005KT 10SM CLR 22/20 A3024 -260 87 600 170/05 RMK AO2 T02220200
53915KARA ARA20161226190010312/26/16 19:00:31  5-MIN KARA 270100Z 17005KT 10SM CLR 22/20 A3024 -270 87 500 170/05 RMK AO2 T02220200
53915KARA ARA20161226190510312/26/16 19:05:31  5-MIN KARA 270105Z 17006KT 10SM CLR 22/20 A3024 -270 87 500 170/06 RMK AO2 T02220200
53915KARA ARA20161226191010312/26/16 19:10:31  5-MIN KARA 270110Z 17005KT 10SM CLR 22/20 A3024 -270 87 500 170/05 RMK AO2 T02220200
53915KARA ARA20161226191510312/26/16 19:15:31  5-MIN KARA 270115Z 17005KT 10SM CLR 22/20 A3024 -270 87 500 170/05 RMK AO2 T02220200
53915KARA ARA20161226192010312/26/16 19:20:31  5-MIN KARA 270120Z 17005KT 10SM CLR 22/20 A3025 -270 87 500 170/05 RMK AO2 T02220200
53915KARA ARA20161226192510312/26/16 19:25:31  5-MIN KARA 270125Z 17005KT 10SM CLR 22/20 A3025 -270 87 500 170/05 RMK AO2 T02220200
53915KARA ARA20161226193010312/26/16 19:30:31  5-MIN KARA 270130Z 17006KT 10SM CLR 22/20 A3025 -270 87 500 170/06 RMK AO2 T02220200
53915KARA ARA20161226193510312/26/16 19:35:31  5-MIN KARA 270135Z 17005KT 10SM CLR 22/20 A3025 -270 87 500 170/05 RMK AO2 T02220200
53915KARA ARA20161226194010312/26/16 19:40:31  5-MIN KARA 270140Z 17005KT 10SM CLR 22/20 A3025 -270 90 500 160/05 RMK AO2 T02170200
53915KARA ARA20161226194510312/26/16 19:45:31  5-MIN KARA 270145Z 17005KT 10SM CLR 22/20 A3025 -270 90 500 160/05 RMK AO2 T02170200
53915KARA ARA20161226195011012/26/16 19:50:31  5-MIN KARA 270150Z 16005KT 10SM CLR 22/20 A3025 -270 90 500 160/05 RMK AO2 SLP241 T02170200
53915KARA ARA20161226195510312/26/16 19:55:31  5-MIN KARA 270155Z 16006KT 10SM CLR 22/19 A3025 -270 87 500 160/06 RMK AO2 T02170194
53915KARA ARA20161226200010312/26/16 20:00:31  5-MIN KARA 270200Z 16006KT 10SM CLR 22/20 A3024 -270 90 500 160/06 RMK AO2 T02170200
53915KARA ARA20161226200510312/26/16 20:05:31  5-MIN KARA 270205Z 15007KT 10SM CLR 22/20 A3024 -260 90 500 150/07 RMK AO2 T02170200
53915KARA ARA20161226201010312/26/16 20:10:31  5-MIN KARA 270210Z 15007KT 10SM CLR 22/19 A3024 -270 87 500 150/07 RMK AO2 T02170194
53915KARA ARA20161226201510312/26/16 20:15:31  5-MIN KARA 270215Z 15007KT 10SM CLR 22/20 A3025 -270 90 500 150/07 RMK AO2 T02170200
53915KARA ARA20161226202010612/26/16 20:20:31  5-MIN KARA 270220Z 15007KT 10SM FEW021 22/20 A3025 -270 90 500 150/07 RMK AO2 T02170200
53915KARA ARA20161226202510612/26/16 20:25:31  5-MIN KARA 270225Z 15006KT 10SM SCT021 22/20 A3025 -270 90 500 150/06 RMK AO2 T02170200
53915KARA ARA20161226203010612/26/16 20:30:31  5-MIN KARA 270230Z 16007KT 10SM BKN021 22/20 A3025 -270 90 500 160/07 RMK AO2 T02170200
53915KARA ARA20161226203511112/26/16 20:35:31  5-MIN KARA 270235Z AUTO 15006KT 10SM BKN021 22/20 A3025 -270 90 500 150/06 RMK AO2 T02170200
53915KARA ARA20161226204011112/26/16 20:40:31  5-MIN KARA 270240Z AUTO 16005KT 10SM BKN021 22/20 A3025 -280 90 500 160/05 RMK AO2 T02170200
53915KARA ARA20161226204511112/26/16 20:45:31  5-MIN KARA 270245Z AUTO 17005KT 10SM BKN021 22/20 A3025 -270 90 500 160/05 RMK AO2 T02170200
53915KARA ARA20161226205012312/26/16 20:50:31  5-MIN KARA 270250Z AUTO 15006KT 9SM BKN021 22/19 A3025 -270 87 500 150/06 RMK AO2 SLP242 T02170194 53008
53915KARA ARA20161226205511012/26/16 20:55:31  5-MIN KARA 270255Z AUTO 16005KT 9SM SCT021 21/19 A3025 -270 90 400 150/05 RMK AO2 T02110194
53915KARA ARA20161226210011012/26/16 21:00:31  5-MIN KARA 270300Z AUTO 16005KT 8SM FEW021 21/19 A3025 -270 90 400 160/05 RMK AO2 T02110194
53915KARA ARA20161226210511012/26/16 21:05:31  5-MIN KARA 270305Z AUTO 15006KT 8SM FEW023 21/19 A3025 -270 90 400 150/06 RMK AO2 T02110194
53915KARA ARA20161226211010712/26/16 21:10:31  5-MIN KARA 270310Z AUTO 15006KT 8SM CLR 21/19 A3025 -280 90 300 150/06 RMK AO2 T02060189
53915KARA ARA20161226211510712/26/16 21:15:31  5-MIN KARA 270315Z AUTO 16005KT 8SM CLR 21/19 A3025 -280 90 300 150/05 RMK AO2 T02060189
53915KARA ARA20161226212010712/26/16 21:20:31  5-MIN KARA 270320Z AUTO 16005KT 8SM CLR 21/19 A3026 -280 93 300 160/05 RMK AO2 T02060194
53915KARA ARA20161226212510712/26/16 21:25:31  5-MIN KARA 270325Z AUTO 17004KT 8SM CLR 21/19 A3026 -280 90 400 170/04 RMK AO2 T02110194
53915KARA ARA20161226213010712/26/16 21:30:31  5-MIN KARA 270330Z AUTO 16004KT 8SM CLR 21/19 A3026 -280 90 400 160/04 RMK AO2 T02110194
53915KARA ARA20161226213510712/26/16 21:35:31  5-MIN KARA 270335Z AUTO 16004KT 7SM CLR 21/19 A3026 -280 90 300 160/04 RMK AO2 T02060189
53915KARA ARA20161226214011012/26/16 21:40:31  5-MIN KARA 270340Z AUTO 15005KT 6SM BR CLR 20/19 A3025 -280 93 300 150/05 RMK AO2 T02000189
53915KARA ARA20161226214511012/26/16 21:45:31  5-MIN KARA 270345Z AUTO 14005KT 6SM BR CLR 20/19 A3025 -270 93 300 140/05 RMK AO2 T02000189
53915KARA ARA20161226215011712/26/16 21:50:31  5-MIN KARA 270350Z AUTO 14005KT 6SM BR CLR 20/19 A3025 -280 93 300 140/05 RMK AO2 SLP244 T02000189
53915KARA ARA20161226215511012/26/16 21:55:31  5-MIN KARA 270355Z AUTO 13005KT 6SM BR CLR 20/19 A3025 -280 93 300 130/05 RMK AO2 T02000189
53915KARA ARA20161226220011012/26/16 22:00:31  5-MIN KARA 270400Z AUTO 14005KT 6SM BR CLR 21/19 A3026 -280 90 300 140/05 RMK AO2 T02060189
53915KARA ARA20161226220511012/26/16 22:05:31  5-MIN KARA 270405Z AUTO 14004KT 6SM BR CLR 21/19 A3025 -280 90 300 140/04 RMK AO2 T02060189
53915KARA ARA20161226221011012/26/16 22:10:31  5-MIN KARA 270410Z AUTO 14005KT 6SM BR CLR 21/19 A3025 -280 90 300 140/05 RMK AO2 T02060189
53915KARA ARA20161226221511312/26/16 22:15:31  5-MIN KARA 270415Z AUTO 14005KT 6SM BR FEW024 21/19 A3025 -280 90 300 140/05 RMK AO2 T02060189
53915KARA ARA20161226222011312/26/16 22:20:31  5-MIN KARA 270420Z AUTO 14006KT 6SM BR FEW024 21/19 A3025 -280 90 300 140/06 RMK AO2 T02060189
53915KARA ARA20161226222511312/26/16 22:25:31  5-MIN KARA 270425Z AUTO 14006KT 6SM BR SCT022 21/19 A3026 -280 90 300 130/06 RMK AO2 T02060189
53915KARA ARA20161226223012012/26/16 22:30:31  5-MIN KARA 270430Z AUTO 14005KT 6SM BR FEW005 BKN022 21/19 A3026 -280 93 300 140/05 RMK AO2 T02060194
53915KARA ARA20161226223511712/26/16 22:35:31  5-MIN KARA 270435Z AUTO 14005KT 7SM SCT005 BKN022 21/19 A3026 -280 90 400 140/05 RMK AO2 T02110194
53915KARA ARA20161226224011712/26/16 22:40:31  5-MIN KARA 270440Z AUTO 14005KT 7SM BKN005 BKN022 21/20 A3026 -280 93 400 140/05 RMK AO2 T02110200
53915KARA ARA20161226224511712/26/16 22:45:31  5-MIN KARA 270445Z AUTO 14007KT 7SM BKN005 BKN022 22/20 A3026 -280 90 500 140/07 RMK AO2 T02170200
53915KARA ARA20161226225011012/26/16 22:50:31  5-MIN KARA 270450Z AUTO 14008KT 6SM BR BKN004 OVC022 22/20 A3025 -280 90 500 140/08 RMK AO2
53915KARA ARA20161226225511312/26/16 22:55:31  5-MIN KARA 270455Z AUTO 14006KT 6SM BR OVC004 22/20 A3026 -280 90 500 140/06 RMK AO2 T02170200
53915KARA ARA20161226230011312/26/16 23:00:31  5-MIN KARA 270500Z AUTO 14006KT 5SM BR OVC004 22/20 A3025 -280 90 500 130/06 RMK AO2 T02170200
53915KARA ARA20161226230511312/26/16 23:05:31  5-MIN KARA 270505Z AUTO 14005KT 5SM BR OVC004 22/20 A3026 -280 90 500 140/05 RMK AO2 T02170200
53915KARA ARA20161226231011312/26/16 23:10:31  5-MIN KARA 270510Z AUTO 14005KT 6SM BR OVC004 22/21 A3025 -280 93 500 130/05 RMK AO2 T02170206
53915KARA ARA20161226231511312/26/16 23:15:31  5-MIN KARA 270515Z AUTO 14005KT 6SM BR OVC004 22/21 A3025 -280 93 500 130/05 RMK AO2 T02170206
53915KARA ARA20161226232011312/26/16 23:20:31  5-MIN KARA 270520Z AUTO 14005KT 6SM BR OVC004 22/21 A3025 -280 93 500 140/05 RMK AO2 T02170206
53915KARA ARA20161226232511312/26/16 23:25:31  5-MIN KARA 270525Z AUTO 15007KT 6SM BR OVC004 22/21 A3025 -270 93 500 140/07 RMK AO2 T02170206
53915KARA ARA20161226233011312/26/16 23:30:31  5-MIN KARA 270530Z AUTO 15006KT 6SM BR OVC004 22/21 A3025 -270 93 500 150/06 RMK AO2 T02170206
53915KARA ARA20161226233511312/26/16 23:35:31  5-MIN KARA 270535Z AUTO 15006KT 6SM BR OVC004 22/21 A3025 -270 93 500 150/06 RMK AO2 T02170206
53915KARA ARA20161226234011312/26/16 23:40:31  5-MIN KARA 270540Z AUTO 16007KT 6SM BR OVC004 22/21 A3025 -270 90 500 150/07 RMK AO2 T02220206
53915KARA ARA20161226234511312/26/16 23:45:31  5-MIN KARA 270545Z AUTO 15007KT 6SM BR OVC004 22/21 A3025 -270 90 500 150/07 RMK AO2 T02220206
53915KARA ARA20161226235014512/26/16 23:50:31  5-MIN KARA 270550Z AUTO 16006KT 7SM OVC004 22/21 A3025 -270 90 500 160/06 RMK AO2 SLP243 T02220206 10228 20200 402780200 51011
53915KARA ARA20161226235511312/26/16 23:55:31  5-MIN KARA 270555Z AUTO 16007KT 6SM BR OVC004 22/21 A3025 -280 90 500 160/07 RMK AO2 T02220206
53915KARA ARA20161227000011312/27/16 00:00:31  5-MIN KARA 270600Z AUTO 16006KT 6SM BR OVC005 22/21 A3025 -280 90 500 160/06 RMK AO2 T02220206
53915KARA ARA20161227000511312/27/16 00:05:31  5-MIN KARA 270605Z AUTO 16006KT 6SM BR OVC005 22/21 A3025 -270 90 500 160/06 RMK AO2 T02220206
53915KARA ARA20161227001011312/27/16 00:10:31  5-MIN KARA 270610Z AUTO 16007KT 6SM BR OVC005 22/21 A3025 -270 90 500 160/07 RMK AO2 T02220206
53915KARA ARA20161227001511312/27/16 00:15:31  5-MIN KARA 270615Z AUTO 15007KT 6SM BR OVC005 22/21 A3025 -270 90 500 150/07 RMK AO2 T02220206
53915KARA ARA20161227002011312/27/16 00:20:31  5-MIN KARA 270620Z AUTO 15007KT 6SM BR OVC005 22/21 A3025 -270 90 500 150/07 RMK AO2 T02220206
53915KARA ARA20161227002511312/27/16 00:25:31  5-MIN KARA 270625Z AUTO 15007KT 6SM BR OVC005 22/21 A3025 -270 90 500 150/07 RMK AO2 T02220206
53915KARA ARA20161227003011312/27/16 00:30:31  5-MIN KARA 270630Z AUTO 15006KT 6SM BR OVC005 22/21 A3024 -270 90 500 150/06 RMK AO2 T02220206
53915KARA ARA20161227003511312/27/16 00:35:31  5-MIN KARA 270635Z AUTO 15007KT 6SM BR OVC005 22/21 A3024 -270 90 600 150/07 RMK AO2 T02220206
53915KARA ARA20161227004011312/27/16 00:40:31  5-MIN KARA 270640Z AUTO 16006KT 6SM BR OVC005 22/21 A3024 -260 90 600 150/06 RMK AO2 T02220206
53915KARA ARA20161227004511312/27/16 00:45:31  5-MIN KARA 270645Z AUTO 16006KT 6SM BR OVC005 22/21 A3024 -260 90 600 160/06 RMK AO2 T02220206
53915KARA ARA20161227005012012/27/16 00:50:31  5-MIN KARA 270650Z AUTO 16005KT 6SM BR OVC005 22/21 A3024 -270 90 600 160/05 RMK AO2 SLP240 T02220206
53915KARA ARA20161227005511312/27/16 00:55:31  5-MIN KARA 270655Z AUTO 15006KT 6SM BR OVC005 22/21 A3024 -260 90 600 150/06 RMK AO2 T02220206
53915KARA ARA20161227010011312/27/16 01:00:31  5-MIN KARA 270700Z AUTO 16006KT 6SM BR OVC005 22/21 A3024 -260 90 600 150/06 RMK AO2 T02220206
53915KARA ARA20161227010511312/27/16 01:05:31  5-MIN KARA 270705Z AUTO 16005KT 6SM BR OVC005 22/21 A3024 -260 90 600 160/05 RMK AO2 T02220206
53915KARA ARA20161227011011312/27/16 01:10:31  5-MIN KARA 270710Z AUTO 16005KT 6SM BR OVC005 22/21 A3024 -260 90 600 150/05 RMK AO2 T02220206
53915KARA ARA20161227011511312/27/16 01:15:31  5-MIN KARA 270715Z AUTO 15005KT 6SM BR OVC005 22/21 A3024 -260 90 600 150/05 RMK AO2 T02220206
53915KARA ARA20161227012011312/27/16 01:20:31  5-MIN KARA 270720Z AUTO 15006KT 6SM BR OVC005 22/21 A3024 -260 90 600 150/06 RMK AO2 T02220206
53915KARA ARA20161227012511012/27/16 01:25:31  5-MIN KARA 270725Z AUTO 15006KT 7SM OVC005 22/21 A3024 -260 90 600 150/06 RMK AO2 T02220206
53915KARA ARA20161227013011012/27/16 01:30:31  5-MIN KARA 270730Z AUTO 15007KT 7SM OVC006 22/21 A3024 -260 90 600 150/07 RMK AO2 T02220206
53915KARA ARA20161227013511012/27/16 01:35:31  5-MIN KARA 270735Z AUTO 16007KT 7SM OVC006 22/21 A3024 -260 90 600 160/07 RMK AO2 T02220206
53915KARA ARA20161227014011012/27/16 01:40:31  5-MIN KARA 270740Z AUTO 16006KT 7SM OVC006 22/21 A3024 -260 90 600 160/06 RMK AO2 T02220206
53915KARA ARA20161227014511012/27/16 01:45:31  5-MIN KARA 270745Z AUTO 16008KT 7SM OVC006 22/21 A3023 -260 90 600 160/08 RMK AO2 T02220206
53915KARA ARA20161227015011712/27/16 01:50:31  5-MIN KARA 270750Z AUTO 15007KT 7SM OVC006 22/21 A3023 -250 90 600 150/07 RMK AO2 SLP236 T02220206
53915KARA ARA20161227015511312/27/16 01:55:31  5-MIN KARA 270755Z AUTO 16006KT 6SM BR OVC006 22/21 A3023 -250 90 600 150/06 RMK AO2 T02220206
53915KARA ARA20161227020011312/27/16 02:00:31  5-MIN KARA 270800Z AUTO 15006KT 6SM BR OVC006 22/21 A3023 -260 90 600 150/06 RMK AO2 T02220206
53915KARA ARA20161227020511312/27/16 02:05:31  5-MIN KARA 270805Z AUTO 16006KT 6SM BR OVC006 22/21 A3024 -260 90 600 160/06 RMK AO2 T02220206
53915KARA ARA20161227021011312/27/16 02:10:31  5-MIN KARA 270810Z AUTO 16006KT 6SM BR OVC005 22/21 A3024 -260 90 600 160/06 RMK AO2 T02220206
53915KARA ARA20161227021511312/27/16 02:15:31  5-MIN KARA 270815Z AUTO 17006KT 6SM BR OVC005 22/21 A3024 -260 90 600 170/06 RMK AO2 T02220206
53915KARA ARA20161227022011312/27/16 02:20:31  5-MIN KARA 270820Z AUTO 17005KT 6SM BR OVC005 22/21 A3024 -260 90 600 170/05 RMK AO2 T02220206
53915KARA ARA20161227022511312/27/16 02:25:31  5-MIN KARA 270825Z AUTO 16006KT 6SM BR OVC005 22/21 A3024 -260 90 600 160/06 RMK AO2 T02220206
53915KARA ARA20161227023011312/27/16 02:30:31  5-MIN KARA 270830Z AUTO 16006KT 6SM BR OVC005 22/21 A3024 -260 90 600 160/06 RMK AO2 T02220206
53915KARA ARA20161227023511312/27/16 02:35:31  5-MIN KARA 270835Z AUTO 16006KT 6SM BR OVC005 22/21 A3024 -260 90 600 160/06 RMK AO2 T02220206
53915KARA ARA20161227024011312/27/16 02:40:31  5-MIN KARA 270840Z AUTO 16006KT 6SM BR OVC005 22/21 A3023 -260 90 600 160/06 RMK AO2 T02220206
53915KARA ARA20161227024511312/27/16 02:45:31  5-MIN KARA 270845Z AUTO 16005KT 5SM BR OVC004 22/21 A3023 -260 90 600 160/05 RMK AO2 T02220206
53915KARA ARA20161227025010312/27/16 02:50:31  5-MIN KARA 270850Z AUTO 16006KT 5SM BR OVC004 22/21 A3024 -260 90 600 160/06 RMK AO2
53915KARA ARA20161227025511312/27/16 02:55:31  5-MIN KARA 270855Z AUTO 16005KT 5SM BR OVC004 22/21 A3024 -260 90 600 160/05 RMK AO2 T02220206
53915KARA ARA20161227030011312/27/16 03:00:31  5-MIN KARA 270900Z AUTO 16004KT 5SM BR OVC004 22/21 A3024 -260 90 600 160/04 RMK AO2 T02220206
53915KARA ARA20161227030511312/27/16 03:05:31  5-MIN KARA 270905Z AUTO 16005KT 5SM BR OVC004 22/21 A3024 -260 90 600 160/05 RMK AO2 T02220206
53915KARA ARA20161227031011312/27/16 03:10:31  5-MIN KARA 270910Z AUTO 16004KT 4SM BR OVC004 22/21 A3024 -260 90 600 160/04 RMK AO2 T02220206
53915KARA ARA20161227031511312/27/16 03:15:31  5-MIN KARA 270915Z AUTO 17004KT 4SM BR OVC004 22/21 A3024 -260 90 600 170/04 RMK AO2 T02220206
53915KARA ARA20161227032012912/27/16 03:20:31  5-MIN KARA 270920Z AUTO 00000KT 4SM -RA BR OVC004 22/21 A3024 -260 93 600 000/00 RMK AO2 RAB18 P0000 T02220211
53915KARA ARA20161227032512912/27/16 03:25:31  5-MIN KARA 270925Z AUTO 18003KT 4SM -RA BR OVC004 22/21 A3024 -260 93 600 180/03 RMK AO2 RAB18 P0000 T02220211
53915KARA ARA20161227033012912/27/16 03:30:31  5-MIN KARA 270930Z AUTO 17003KT 4SM -RA BR OVC004 22/21 A3023 -260 90 600 170/03 RMK AO2 RAB18 P0000 T02220206
53915KARA ARA20161227033512912/27/16 03:35:31  5-MIN KARA 270935Z AUTO 18003KT 4SM -RA BR OVC004 22/21 A3023 -260 90 600 180/03 RMK AO2 RAB18 P0001 T02220206
53915KARA ARA20161227034012912/27/16 03:40:31  5-MIN KARA 270940Z AUTO 18005KT 4SM -RA BR OVC004 22/21 A3023 -260 90 600 180/05 RMK AO2 RAB18 P0001 T02220206
53915KARA ARA20161227034512912/27/16 03:45:31  5-MIN KARA 270945Z AUTO 18004KT 5SM -RA BR OVC004 22/21 A3023 -260 90 600 180/04 RMK AO2 RAB18 P0001 T02220206
53915KARA ARA20161227035014812/27/16 03:50:31  5-MIN KARA 270950Z AUTO 17004KT 6SM -RA BR OVC004 22/21 A3023 -260 90 600 170/04 RMK AO2 RAB18 CIG 003V008 SLP237 P0001 T02220206
53915KARA ARA20161227035513512/27/16 03:55:31  5-MIN KARA 270955Z AUTO 19003KT 6SM -RA BR OVC004 22/21 A3023 -260 93 600 180/03 RMK AO2 CIG 003V008 P0000 T02220211
53915KARA ARA20161227040012312/27/16 04:00:31  5-MIN KARA 271000Z AUTO 18004KT 6SM -RA BR OVC004 22/21 A3023 -250 90 600 180/04 RMK AO2 P0000 T02220206
53915KARA ARA20161227040513712/27/16 04:05:31  5-MIN KARA 271005Z AUTO 17004KT 6SM BR OVC004 22/21 A3023 -250 93 600 170/04 RMK AO2 RAE01 CIG 003V008 P0000 T02220211
53915KARA ARA20161227041012512/27/16 04:10:31  5-MIN KARA 271010Z AUTO 18004KT 6SM BR OVC004 22/21 A3023 -250 90 600 170/04 RMK AO2 RAE01 P0000 T02220206
53915KARA ARA20161227041512212/27/16 04:15:31  5-MIN KARA 271015Z AUTO 19004KT 7SM OVC004 22/21 A3023 -250 90 600 180/04 RMK AO2 RAE01 P0000 T02220206
53915KARA ARA20161227042012912/27/16 04:20:31  5-MIN KARA 271020Z AUTO 18005KT 7SM BKN004 OVC012 22/21 A3023 -250 90 600 180/05 RMK AO2 RAE01 P0000 T02220206
53915KARA ARA20161227042512912/27/16 04:25:31  5-MIN KARA 271025Z AUTO 18004KT 7SM BKN004 OVC012 22/21 A3023 -250 90 600 180/04 RMK AO2 RAE01 P0000 T02220206
53915KARA ARA20161227043014112/27/16 04:30:31  5-MIN KARA 271030Z AUTO 18004KT 7SM BKN004 OVC012 22/21 A3023 -250 90 600 180/04 RMK AO2 RAE01 CIG 003V008 P0000 T02220206
53915KARA ARA20161227043513612/27/16 04:35:31  5-MIN KARA 271035Z AUTO 19004KT 7SM BKN005 BKN009 OVC012 22/21 A3023 -250 93 500 190/04 RMK AO2 RAE01 P0000 T02170206
53915KARA ARA20161227044012912/27/16 04:40:31  5-MIN KARA 271040Z AUTO 20004KT 8SM BKN005 OVC012 22/21 A3023 -250 93 500 200/04 RMK AO2 RAE01 P0000 T02170206
53915KARA ARA20161227044514112/27/16 04:45:31  5-MIN KARA 271045Z AUTO 19005KT 8SM BKN005 OVC012 22/21 A3023 -250 93 500 180/05 RMK AO2 RAE01 CIG 003V008 P0000 T02170206
53915KARA ARA20161227045013112/27/16 04:50:31  5-MIN KARA 271050Z AUTO 19005KT 8SM BKN004 OVC012 22/21 A3023 -250 93 500 190/05 RMK AO2 RAE01 CIG 003V008 P0000
53915KARA ARA20161227045511012/27/16 04:55:31  5-MIN KARA 271055Z AUTO 18005KT 7SM OVC004 22/21 A3023 -260 93 500 180/05 RMK AO2 T02170206
53915KARA ARA20161227050011312/27/16 05:00:31  5-MIN KARA 271100Z AUTO 18004KT 4SM BR OVC004 22/21 A3023 -250 93 500 180/04 RMK AO2 T02170206
53915KARA ARA20161227050511312/27/16 05:05:31  5-MIN KARA 271105Z AUTO VRB03KT 3SM BR OVC002 22/21 A3023 -250 93 500 VRB/03 RMK AO2 T02170206
53915KARA ARA20161227051011312/27/16 05:10:31  5-MIN KARA 271110Z AUTO 23003KT 3SM BR OVC002 22/21 A3023 -260 93 500 230/03 RMK AO2 T02170206
53915KARA ARA20161227051511312/27/16 05:15:31  5-MIN KARA 271115Z AUTO 22004KT 2SM BR OVC002 22/20 A3024 -260 90 500 220/04 RMK AO2 T02170200
53915KARA ARA20161227052011312/27/16 05:20:31  5-MIN KARA 271120Z AUTO 21004KT 1SM BR OVC002 22/20 A3024 -260 90 500 210/04 RMK AO2 T02170200
53915KARA ARA20161227052511412/27/16 05:25:31  5-MIN KARA 271125Z AUTO 21004KT 3/4SM BR VV003 22/20 A3024 -260 90 500 200/04 RMK AO2 T02170200
53915KARA ARA20161227053011412/27/16 05:30:31  5-MIN KARA 271130Z AUTO 22003KT 3/4SM BR VV003 22/20 A3024 -260 90 500 210/03 RMK AO2 T02170200
53915KARA ARA20161227053511412/27/16 05:35:31  5-MIN KARA 271135Z AUTO 21003KT 3/4SM BR VV003 22/20 A3024 -260 90 500 210/03 RMK AO2 T02170200
53915KARA ARA20161227054011412/27/16 05:40:31  5-MIN KARA 271140Z AUTO 20003KT 1/2SM FG VV003 22/20 A3023 -260 90 500 200/03 RMK AO2 T02170200
53915KARA ARA20161227054511412/27/16 05:45:31  5-MIN KARA 271145Z AUTO 21003KT 1/2SM FG VV002 22/20 A3024 -260 90 500 210/03 RMK AO2 T02170200
53915KARA ARA20161227055014612/27/16 05:50:31  5-MIN KARA 271150Z 21004KT 1/2SM FG VV003 22/20 A3024 -260 90 500 210/04 RMK AO2 SLP238 60001 70001 T02170200 10222 20217 55001
53915KARA ARA20161227055510912/27/16 05:55:31  5-MIN KARA 271155Z 24003KT 1/2SM FG VV003 22/20 A3024 -260 90 500 230/03 RMK AO2 T02170200
53915KARA ARA20161227060012712/27/16 06:00:31  5-MIN KARA 271200Z 22004KT 1/2SM -RA FG VV003 21/20 A3024 -260 93 400 220/04 RMK AO2 RAB1157 P0000 T02110200
53915KARA ARA20161227060512712/27/16 06:05:31  5-MIN KARA 271205Z 21004KT 3/4SM -RA BR VV003 21/20 A3024 -260 93 400 210/04 RMK AO2 RAB1157 P0000 T02110200
53915KARA ARA20161227061012712/27/16 06:10:31  5-MIN KARA 271210Z 21004KT 3/4SM -RA BR VV003 21/20 A3024 -260 93 400 210/04 RMK AO2 RAB1157 P0000 T02110200
53915KARA ARA20161227061513012/27/16 06:15:31  5-MIN KARA 271215Z 20004KT 1 1/4SM -RA BR OVC003 21/20 A3024 -260 93 400 200/04 RMK AO2 RAB1157 P0000 T02110200
53915KARA ARA20161227062013012/27/16 06:20:31  5-MIN KARA 271220Z 20004KT 1 1/2SM -RA BR OVC003 21/20 A3024 -260 93 400 200/04 RMK AO2 RAB1157 P0000 T02110200
53915KARA ARA20161227062513012/27/16 06:25:31  5-MIN KARA 271225Z 19003KT 1 1/4SM -RA BR OVC003 21/20 A3024 -260 93 400 190/03 RMK AO2 RAB1157 P0000 T02110200
53915KARA ARA20161227063012512/27/16 06:30:31  5-MIN KARA 271230Z 18004KT 1SM -RA BR VV003 21/20 A3024 -260 93 400 180/04 RMK AO2 RAB1157 P0000 T02110200
53915KARA ARA20161227063512712/27/16 06:35:31  5-MIN KARA 271235Z 18003KT 3/4SM -RA BR VV003 21/20 A3024 -260 93 400 180/03 RMK AO2 RAB1157 P0000 T02110200
53915KARA ARA20161227064012712/27/16 06:40:31  5-MIN KARA 271240Z 00000KT 3/4SM -RA BR VV003 21/20 A3024 -260 93 400 000/00 RMK AO2 RAB1157 P0000 T02110200
53915KARA ARA20161227064512712/27/16 06:45:31  5-MIN KARA 271245Z 00000KT 1/2SM -RA FG VV003 21/20 A3024 -260 93 400 000/00 RMK AO2 RAB1157 P0000 T02110200
53915KARA ARA20161227065013412/27/16 06:50:31  5-MIN KARA 271250Z 15003KT 3/4SM -RA BR VV002 21/20 A3024 -260 93 400 150/03 RMK AO2 RAB1157 SLP239 P0000 T02110200
53915KARA ARA20161227065511912/27/16 06:55:31  5-MIN KARA 271255Z 16003KT 3/4SM -RA BR VV002 21/20 A3024 -260 93 400 160/03 RMK AO2 P0000 T02110200
53915KARA ARA20161227070011912/27/16 07:00:31  5-MIN KARA 271300Z 00000KT 3/4SM -RA BR VV002 21/20 A3024 -260 93 400 000/00 RMK AO2 P0000 T02110200
53915KARA ARA20161227070511912/27/16 07:05:31  5-MIN KARA 271305Z 17003KT 1/2SM -RA FG VV002 21/20 A3024 -260 93 400 170/03 RMK AO2 P0000 T02110200
53915KARA ARA20161227071011912/27/16 07:10:31  5-MIN KARA 271310Z 00000KT 1/4SM -RA FG VV002 21/20 A3024 -260 93 400 000/00 RMK AO2 P0000 T02110200
53915KARA ARA20161227071511912/27/16 07:15:31  5-MIN KARA 271315Z 00000KT 1/4SM -RA FG VV002 21/20 A3024 -260 93 400 000/00 RMK AO2 P0000 T02110200
53915KARA ARA20161227072011912/27/16 07:20:31  5-MIN KARA 271320Z 00000KT 1/4SM -RA FG VV002 21/20 A3024 -260 93 400 000/00 RMK AO2 P0000 T02110200
53915KARA ARA20161227072511912/27/16 07:25:31  5-MIN KARA 271325Z 00000KT 1/4SM -RA FG VV002 21/20 A3024 -260 93 400 000/00 RMK AO2 P0000 T02110200
53915KARA ARA20161227073011912/27/16 07:30:31  5-MIN KARA 271330Z 00000KT 1/4SM -RA FG VV002 21/20 A3024 -270 93 400 000/00 RMK AO2 P0000 T02110200
53915KARA ARA20161227073511912/27/16 07:35:31  5-MIN KARA 271335Z 00000KT 1/4SM -RA FG VV002 21/20 A3024 -260 93 400 000/00 RMK AO2 P0000 T02110200
53915KARA ARA20161227074011912/27/16 07:40:31  5-MIN KARA 271340Z 18003KT 1/4SM -RA FG VV002 21/20 A3024 -260 93 400 180/03 RMK AO2 P0000 T02110200
53915KARA ARA20161227074511912/27/16 07:45:31  5-MIN KARA 271345Z 19003KT 1/4SM -RA FG VV002 21/20 A3024 -260 93 400 190/03 RMK AO2 P0000 T02110200
53915KARA ARA20161227075012612/27/16 07:50:31  5-MIN KARA 271350Z 18004KT 1/4SM -RA FG VV002 21/20 A3024 -260 93 400 170/04 RMK AO2 SLP239 P0000 T02110200
53915KARA ARA20161227075511912/27/16 07:55:31  5-MIN KARA 271355Z 18004KT 1/4SM -RA FG VV002 21/20 A3024 -260 93 400 180/04 RMK AO2 P0000 T02110200
53915KARA ARA20161227080011912/27/16 08:00:31  5-MIN KARA 271400Z 18004KT 1/4SM -RA FG VV002 21/20 A3024 -260 93 400 180/04 RMK AO2 P0000 T02110200
53915KARA ARA20161227080511912/27/16 08:05:31  5-MIN KARA 271405Z 18004KT 1/4SM -RA FG VV002 21/20 A3024 -260 93 400 180/04 RMK AO2 P0000 T02110200
53915KARA ARA20161227081011912/27/16 08:10:31  5-MIN KARA 271410Z 18004KT 3/4SM -RA BR VV003 21/20 A3024 -260 93 400 180/04 RMK AO2 P0000 T02110200
53915KARA ARA20161227081511912/27/16 08:15:31  5-MIN KARA 271415Z 19003KT 3/4SM -RA BR VV003 21/20 A3024 -260 93 400 190/03 RMK AO2 P0000 T02110200
53915KARA ARA20161227082011912/27/16 08:20:31  5-MIN KARA 271420Z 20004KT 3/4SM -RA BR VV003 21/20 A3024 -260 93 400 200/04 RMK AO2 P0000 T02110200
53915KARA ARA20161227082511912/27/16 08:25:31  5-MIN KARA 271425Z 20003KT 3/4SM -RA BR VV003 21/20 A3024 -270 93 400 200/03 RMK AO2 P0000 T02110200
53915KARA ARA20161227083011912/27/16 08:30:31  5-MIN KARA 271430Z 00000KT 3/4SM -RA BR VV003 21/20 A3024 -270 93 400 000/00 RMK AO2 P0000 T02110200
53915KARA ARA20161227083511912/27/16 08:35:31  5-MIN KARA 271435Z 19003KT 3/4SM -RA BR VV003 21/20 A3025 -270 93 400 190/03 RMK AO2 P0000 T02110200
53915KARA ARA20161227084011912/27/16 08:40:31  5-MIN KARA 271440Z 19004KT 3/4SM -RA BR VV003 21/20 A3025 -270 93 400 190/04 RMK AO2 P0000 T02110200
53915KARA ARA20161227084512012/27/16 08:45:31  5-MIN KARA 271445Z 19003KT 3/4SM -RA BR OVC003 21/20 A3025 -270 93 400 190/03 RMK AO2 P0000 T02110200
53915KARA ARA20161227085013912/27/16 08:50:31  5-MIN KARA 271450Z 19003KT 3/4SM -RA BR OVC003 22/21 A3025 -270 93 500 180/03 RMK AO2 SLP242 P0000 60000 T02170206 53000
53915KARA ARA20161227085511812/27/16 08:55:31  5-MIN KARA 271455Z 00000KT 1SM -RA BR OVC002 22/21 A3025 -270 93 500 000/00 RMK AO2 P0000 T02170206
53915KARA ARA20161227090012012/27/16 09:00:31  5-MIN KARA 271500Z 19004KT 3/4SM -RA BR OVC002 22/21 A3025 -270 93 500 190/04 RMK AO2 P0000 T02170206
53915KARA ARA20161227090512012/27/16 09:05:31  5-MIN KARA 271505Z 22004KT 3/4SM -RA BR OVC002 22/21 A3026 -280 93 500 220/04 RMK AO2 P0000 T02170206
53915KARA ARA20161227091011812/27/16 09:10:31  5-MIN KARA 271510Z 21003KT 1SM -RA BR OVC002 22/21 A3026 -280 93 500 210/03 RMK AO2 P0000 T02170206
53915KARA ARA20161227091512212/27/16 09:15:31  5-MIN KARA 271515Z 18003KT 1 1/4SM -RA BR OVC002 22/21 A3026 -280 93 500 180/03 RMK AO2 P0000 T02170206
53915KARA ARA20161227092012212/27/16 09:20:31  5-MIN KARA 271520Z 20005KT 2 1/2SM -RA BR OVC002 22/21 A3026 -280 93 500 200/05 RMK AO2 P0000 T02170206
53915KARA ARA20161227092511812/27/16 09:25:31  5-MIN KARA 271525Z 21003KT 4SM -RA BR OVC002 22/21 A3026 -280 93 500 210/03 RMK AO2 P0000 T02170206
53915KARA ARA20161227093011812/27/16 09:30:31  5-MIN KARA 271530Z 25003KT 3SM -RA BR OVC002 22/21 A3026 -280 93 500 250/03 RMK AO2 P0000 T02170206
53915KARA ARA20161227093511812/27/16 09:35:31  5-MIN KARA 271535Z 22004KT 4SM -RA BR OVC002 22/21 A3026 -280 93 500 220/04 RMK AO2 P0000 T02170206
53915KARA ARA20161227094011812/27/16 09:40:31  5-MIN KARA 271540Z VRB03KT 4SM -RA BR OVC002 22/21 A3026 -280 93 500 VRB/03 RMK AO2 P0000 T02170206
53915KARA ARA20161227094511812/27/16 09:45:31  5-MIN KARA 271545Z 00000KT 5SM -RA BR OVC003 22/21 A3026 -280 93 500 000/00 RMK AO2 P0000 T02170206
53915KARA ARA20161227095012512/27/16 09:50:31  5-MIN KARA 271550Z 27004KT 6SM -RA BR OVC003 22/21 A3026 -280 93 500 270/04 RMK AO2 SLP247 P0000 T02170206
53915KARA ARA20161227095511512/27/16 09:55:31  5-MIN KARA 271555Z 00000KT 7SM -RA OVC003 22/21 A3026 -280 93 500 000/00 RMK AO2 P0000 T02170206
53915KARA ARA20161227100011512/27/16 10:00:31  5-MIN KARA 271600Z 00000KT 8SM -RA OVC003 22/21 A3026 -280 93 500 000/00 RMK AO2 P0000 T02170206
53915KARA ARA20161227100511512/27/16 10:05:31  5-MIN KARA 271605Z 19003KT 9SM -RA OVC003 22/21 A3026 -280 93 500 190/03 RMK AO2 P0000 T02170206
53915KARA ARA20161227101011612/27/16 10:10:31  5-MIN KARA 271610Z 00000KT 10SM -RA OVC003 22/21 A3026 -290 93 500 000/00 RMK AO2 P0000 T02170206
53915KARA ARA20161227101511612/27/16 10:15:31  5-MIN KARA 271615Z 00000KT 10SM -RA OVC003 22/21 A3027 -290 90 500 000/00 RMK AO2 P0000 T02220206
53915KARA ARA20161227102011612/27/16 10:20:31  5-MIN KARA 271620Z 00000KT 10SM -RA OVC003 22/21 A3026 -290 90 500 000/00 RMK AO2 P0000 T02220206
53915KARA ARA20161227102511612/27/16 10:25:31  5-MIN KARA 271625Z 00000KT 10SM -RA OVC004 22/21 A3026 -280 90 500 000/00 RMK AO2 P0000 T02220206
53915KARA ARA20161227103011812/27/16 10:30:31  5-MIN KARA 271630Z 00000KT 10SM OVC004 22/20 A3026 -280 87 500 000/00 RMK AO2 RAE30 P0000 T02220200
53915KARA ARA20161227103511612/27/16 10:35:31  5-MIN KARA 271635Z 00000KT 10SM -RA OVC004 22/21 A3026 -280 90 500 000/00 RMK AO2 P0000 T02220206
53915KARA ARA20161227104011612/27/16 10:40:31  5-MIN KARA 271640Z 22003KT 10SM -RA OVC004 22/21 A3025 -280 90 500 220/03 RMK AO2 P0000 T02220206
53915KARA ARA20161227104511812/27/16 10:45:31  5-MIN KARA 271645Z 00000KT 10SM OVC004 22/21 A3025 -280 90 500 000/00 RMK AO2 RAE45 P0000 T02220206
53915KARA ARA20161227105012512/27/16 10:50:31  5-MIN KARA 271650Z 00000KT 10SM OVC004 22/21 A3025 -270 90 500 000/00 RMK AO2 RAE45 SLP243 P0000 T02220206
53915KARA ARA20161227105510612/27/16 10:55:31  5-MIN KARA 271655Z 00000KT 10SM OVC004 23/21 A3025 -270 87 600 000/00 RMK AO2 T02280206
53915KARA ARA20161227110010612/27/16 11:00:31  5-MIN KARA 271700Z 00000KT 10SM OVC004 23/21 A3025 -270 87 600 000/00 RMK AO2 T02280206
53915KARA ARA20161227110514112/27/16 11:05:31  5-MIN KARA 271705Z 00000KT 10SM -RA BKN004 OVC010 23/21 A3025 -270 87 600 000/00 RMK AO2 RAB05 CIG 004V007 P0000 T02280206
53915KARA ARA20161227111014012/27/16 11:10:31  5-MIN KARA 271710Z 16003KT 10SM BKN005 OVC010 23/21 A3025 -270 84 700 160/03 RMK AO2 RAB05E08 CIG 004V008 P0000 T02330206
53915KARA ARA20161227111513312/27/16 11:15:31  5-MIN KARA 271715Z 00000KT 10SM OVC007 23/21 A3024 -260 87 600 000/00 RMK AO2 RAB05E08 CIG 004V011 P0000 T02280206
53915KARA ARA20161227112013312/27/16 11:20:31  5-MIN KARA 271720Z 00000KT 10SM OVC007 23/21 A3024 -260 84 700 000/00 RMK AO2 RAB05E08 CIG 004V011 P0000 T02330206
53915KARA ARA20161227112513312/27/16 11:25:31  5-MIN KARA 271725Z 00000KT 10SM OVC006 23/21 A3024 -260 84 700 000/00 RMK AO2 RAB05E08 CIG 006V009 P0000 T02330206
53915KARA ARA20161227113013212/27/16 11:30:31  5-MIN KARA 271730Z 26003KT 9SM OVC006 23/21 A3024 -260 84 700 260/03 RMK AO2 RAB05E08 CIG 006V011 P0000 T02330206
53915KARA ARA20161227113513212/27/16 11:35:31  5-MIN KARA 271735Z 00000KT 9SM OVC008 23/21 A3024 -260 84 700 000/00 RMK AO2 RAB05E08 CIG 006V011 P0000 T02330206
53915KARA ARA20161227114013312/27/16 11:40:31  5-MIN KARA 271740Z 00000KT 10SM OVC008 23/20 A3023 -260 81 700 000/00 RMK AO2 RAB05E08 CIG 006V011 P0000 T02330200
53915KARA ARA20161227114513312/27/16 11:45:31  5-MIN KARA 271745Z 00000KT 10SM OVC008 23/21 A3023 -250 84 700 000/00 RMK AO2 RAB05E08 CIG 006V013 P0000 T02330206
53915KARA ARA20161227115017112/27/16 11:50:31  5-MIN KARA 271750Z 21003KT 10SM BKN008 OVC021 23/20 A3023 -250 81 700 210/03 RMK AO2 RAB05E08 CIG 006V013 SLP235 P0000 60000 T02330200 10233 20211 53004
53915KARA ARA20161227115512512/27/16 11:55:31  5-MIN KARA 271755Z 00000KT 10SM BKN009 OVC019 23/21 A3023 -250 84 700 000/00 RMK AO2 CIG 007V013 T02330206
53915KARA ARA20161227120013112/27/16 12:00:31  5-MIN KARA 271800Z 00000KT 10SM -RA SCT011 OVC019 24/21 A3022 -250 81 800 000/00 RMK AO2 RAB1759 P0000 T02390206
53915KARA ARA20161227120514912/27/16 12:05:31  5-MIN KARA 271805Z 30003KT 9SM -RA BKN009 BKN016 OVC021 23/21 A3022 -250 84 700 300/03 RMK AO2 RAB1759 CIG 007V011 P0000 T02330206
53915KARA ARA20161227121014812/27/16 12:10:31  5-MIN KARA 271810Z 00000KT 4SM RA BKN009 BKN016 OVC023 23/20 A3022 -240 84 600 000/00 RMK AO2 RAB1759 CIG 007V012 P0001 T02280200
53915KARA ARA20161227121513712/27/16 12:15:31  5-MIN KARA 271815Z 00000KT 3SM -RA SCT009 BKN014 OVC021 23/21 A3022 -240 84 700 000/00 RMK AO2 RAB1759 P0002 T02330206
53915KARA ARA20161227122013712/27/16 12:20:31  5-MIN KARA 271820Z 00000KT 7SM -RA FEW009 BKN012 OVC024 23/21 A3021 -240 84 700 000/00 RMK AO2 RAB1759 P0002 T02330206
53915KARA ARA20161227122513812/27/16 12:25:31  5-MIN KARA 271825Z 00000KT 10SM -RA FEW008 BKN014 OVC030 23/21 A3021 -240 84 700 000/00 RMK AO2 RAB1759 P0002 T02330206
53915KARA ARA20161227123013112/27/16 12:30:31  5-MIN KARA 271830Z 00000KT 10SM -RA FEW008 BKN014 23/21 A3021 -240 84 700 000/00 RMK AO2 RAB1759 P0002 T02330206
53915KARA ARA20161227123513012/27/16 12:35:31  5-MIN KARA 271835Z 00000KT 10SM FEW008 SCT013 24/21 A3020 -230 81 800 000/00 RMK AO2 RAB1759E32 P0002 T02440211
53915KARA ARA20161227124012312/27/16 12:40:31  5-MIN KARA 271840Z 00000KT 10SM SCT013 25/21 A3020 -230 76 900 000/00 RMK AO2 RAB1759E32 P0002 T02500206
53915KARA ARA20161227124512312/27/16 12:45:31  5-MIN KARA 271845Z 00000KT 10SM FEW013 24/21 A3020 -230 78 900 000/00 RMK AO2 RAB1759E32 P0002 T02440206
53915KARA ARA20161227125013012/27/16 12:50:31  5-MIN KARA 271850Z 00000KT 10SM FEW013 24/21 A3020 -230 78 900 000/00 RMK AO2 RAB1759E32 SLP226 P0002 T02440206
53915KARA ARA20161227125510612/27/16 12:55:31  5-MIN KARA 271855Z 25003KT 10SM FEW012 24/20 A3020 -220 76 900 250/03 RMK AO2 T02440200
53915KARA ARA20161227130010312/27/16 13:00:31  5-MIN KARA 271900Z 00000KT 10SM CLR 24/20 A3019 -220 76 900 000/00 RMK AO2 T02440200
53915KARA ARA20161227130510312/27/16 13:05:31  5-MIN KARA 271905Z 00000KT 10SM CLR 24/21 A3019 -220 78 900 000/00 RMK AO2 T02440206
53915KARA ARA20161227131010312/27/16 13:10:31  5-MIN KARA 271910Z 00000KT 10SM CLR 25/20 A3019 -220 73 900 000/00 RMK AO2 T02500200
53915KARA ARA20161227131510612/27/16 13:15:31  5-MIN KARA 271915Z 00000KT 10SM FEW043 25/20 A3019 -220 73 900 000/00 RMK AO2 T02500200
53915KARA ARA20161227132011312/27/16 13:20:31  5-MIN KARA 271920Z 00000KT 10SM FEW026 SCT041 25/20 A3019 -220 73 900 000/00 RMK AO2 T02500200
53915KARA ARA20161227132513612/27/16 13:25:31  5-MIN KARA 271925Z 00000KT 10SM -RA SCT024 SCT037 BKN044 25/20 A3018 -210 73 900 000/00 RMK AO2 RAB22 P0000 T02500200
53915KARA ARA20161227133012912/27/16 13:30:31  5-MIN KARA 271930Z 34003KT 10SM -RA BKN022 BKN041 25/20 A3019 -210 73 900 340/03 RMK AO2 RAB22 P0000 T02500200
53915KARA ARA20161227133512912/27/16 13:35:31  5-MIN KARA 271935Z 33005KT 10SM -RA BKN022 BKN041 24/20 A3019 -210 76 900 330/05 RMK AO2 RAB22 P0000 T02440200
53915KARA ARA20161227134013512/27/16 13:40:31  5-MIN KARA 271940Z 34005KT 10SM BKN020 BKN025 OVC041 24/20 A3019 -210 76 900 340/05 RMK AO2 RAB22E36 P0000 T02440200
53915KARA ARA20161227134512112/27/16 13:45:31  5-MIN KARA 271945Z 34004KT 10SM OVC019 25/20 A3018 -210 73 900 340/04 RMK AO2 RAB22E36 P0000 T02500200
53915KARA ARA20161227135012812/27/16 13:50:31  5-MIN KARA 271950Z 01003KT 10SM BKN021 25/20 A3018 -210 73 900 010/03 RMK AO2 RAB22E36 SLP219 P0000 T02500200
53915KARA ARA20161227135512012/27/16 13:55:31  5-MIN KARA 271955Z 34003KT 10SM FEW017 BKN023 BKN034 25/20 A3018 -210 73 900 340/03 RMK AO2 T02500200
53915KARA ARA20161227140014212/27/16 14:00:31  5-MIN KARA 272000Z 3300MIN KARA 272005Z 34005KT 10SM FEW017 SCT023 BKN038 26/20 A3018 -210 71 1000 340/05 RMK AO2 T02560200
53915KARA ARA20161227141012112/27/16 14:10:31  5-MIN KARA 272010Z 31003KT 10SM FEW023 SCT036 SCT043 26/20 A3017 -200 71 1000 310/03 RMK AO2 T02560200
53915KARA ARA20161227141511412/27/16 14:15:31  5-MIN KARA 272015Z 35003KT 10SM FEW036 BKN070 26/20 A3017 -200 68 1100 350/03 RMK AO2 T02610200
53915KARA ARA20161227142011412/27/16 14:20:31  5-MIN KARA 272020Z 00000KT 10SM FEW036 BKN065 26/20 A3017 -200 68 1100 000/00 RMK AO2 T02610200
53915KARA ARA20161227142512112/27/16 14:25:31  5-MIN KARA 272025Z 00000KT 10SM FEW019 FEW038 BKN060 26/20 A3017 -200 68 1100 000/00 RMK AO2 T02610200
53915KARA ARA20161227143011412/27/16 14:30:31  5-MIN KARA 272030Z VRB03KT 10SM SCT019 BKN065 26/20 A3017 -200 71 1000 VRB/03 RMK AO2 T02560200
53915KARA ARA20161227143511412/27/16 14:35:31  5-MIN KARA 272035Z VRB03KT 10SM BKN019 BKN065 27/20 A3017 -190 66 1100 VRB/03 RMK AO2 T02670200
53915KARA ARA20161227144011412/27/16 14:40:31  5-MIN KARA 272040Z 06003KT 10SM SCT019 BKN060 27/19 A3016 -190 64 1100 060/03 RMK AO2 T02670194
53915KARA ARA20161227144511412/27/16 14:45:31  5-MIN KARA 272045Z 00000KT 10SM SCT019 BKN060 26/19 A3016 -190 68 1000 000/00 RMK AO2 T02560194
53915KARA ARA20161227145013312/27/16 14:50:31  5-MIN KARA 272050Z 00000KT 10SM SCT019 BKN060 26/19 A3016 -190 68 1000 000/00 RMK AO2 SLP213 60002 T02560194 58008
53915KARA ARA20161227145510712/27/16 14:55:31  5-MIN KARA 272055Z 00000KT 10SM SCT019 26/19 A3016 -190 68 1000 000/00 RMK AO2 T02560194
53915KARA ARA20161227150010712/27/16 15:00:31  5-MIN KARA 272100Z 03004KT 10SM SCT021 26/19 A3016 -190 66 1100 030/04 RMK AO2 T02610194
53915KARA ARA20161227150512112/27/16 15:05:31  5-MIN KARA 272105Z 02003KT 10SM SCT023 SCT027 BKN065 26/19 A3016 -190 66 1100 020/03 RMK AO2 T02610194
53915KARA ARA20161227151011412/27/16 15:10:31  5-MIN KARA 272110Z 01004KT 10SM SCT023 BKN060 26/19 A3016 -190 66 1100 010/04 RMK AO2 T02610194
53915KARA ARA20161227151511412/27/16 15:15:31  5-MIN KARA 272115Z 02003KT 10SM SCT023 BKN060 26/19 A3016 -190 66 1100 020/03 RMK AO2 T02610194
53915KARA ARA20161227152011412/27/16 15:20:31  5-MIN KARA 272120Z 00000KT 10SM FEW023 BKN060 26/19 A3016 -190 66 1100 000/00 RMK AO2 T02610194
53915KARA ARA20161227152511412/27/16 15:25:31  5-MIN KARA 272125Z 00000KT 10SM FEW023 BKN060 26/19 A3016 -190 66 1100 000/00 RMK AO2 T02610194
53915KARA ARA20161227153011412/27/16 15:30:31  5-MIN KARA 272130Z 00000KT 10SM FEW023 OVC060 26/19 A3016 -190 66 1100 000/00 RMK AO2 T02610194
53915KARA ARA20161227153510712/27/16 15:35:31  5-MIN KARA 272135Z 00000KT 10SM BKN060 26/19 A3016 -190 66 1100 000/00 RMK AO2 T02610194
53915KARA ARA20161227154010712/27/16 15:40:31  5-MIN KARA 272140Z 00000KT 10SM BKN060 26/19 A3016 -190 66 1100 000/00 RMK AO2 T02610194
53915KARA ARA20161227154510712/27/16 15:45:31  5-MIN KARA 272145Z 00000KT 10SM SCT060 26/19 A3016 -190 66 1100 000/00 RMK AO2 T02610194
53915KARA ARA20161227155011312/27/16 15:50:31  5-MIN KARA 272150Z 00000KT 7SM SCT060 26/19 A3016 -190 68 1000 000/00 RMK AO2 SLP211 T02560194
53915KARA ARA20161227155510912/27/16 15:55:31  5-MIN KARA 272155Z 00000KT 6SM HZ FEW060 26/19 A3015 -190 68 1000 000/00 RMK AO2 T02560194
53915KARA ARA20161227160010312/27/16 16:00:31  5-MIN KARA 272200Z 00000KT 8SM CLR 25/19 A3015 -180 71 1000 000/00 RMK AO2 T02500194
53915KARA ARA20161227160510312/27/16 16:05:31  5-MIN KARA 272205Z 21003KT 10SM CLR 24/19 A3016 -190 73 900 210/03 RMK AO2 T02440194
53915KARA ARA20161227161010312/27/16 16:10:31  5-MIN KARA 272210Z 22004KT 10SM CLR 24/19 A3016 -190 73 900 220/04 RMK AO2 T02440194
53915KARA ARA20161227161510312/27/16 16:15:31  5-MIN KARA 272215Z 23003KT 10SM CLR 24/19 A3016 -190 73 900 220/03 RMK AO2 T02440194
53915KARA ARA20161227162010312/27/16 16:20:31  5-MIN KARA 272220Z 23004KT 10SM CLR 24/20 A3016 -190 78 800 230/04 RMK AO2 T02390200
53915KARA ARA20161227162510312/27/16 16:25:31  5-MIN KARA 272225Z 22004KT 10SM CLR 24/20 A3016 -190 78 800 220/04 RMK AO2 T02390200
53915KARA ARA20161227163010312/27/16 16:30:31  5-MIN KARA 272230Z 22003KT 10SM CLR 24/19 A3016 -190 76 800 220/03 RMK AO2 T02390194
53915KARA ARA20161227163510312/27/16 16:35:31  5-MIN KARA 272235Z 22003KT 10SM CLR 24/19 A3016 -190 76 800 220/03 RMK AO2 T02390194
53915KARA ARA20161227164010312/27/16 16:40:31  5-MIN KARA 272240Z 22004KT 10SM CLR 23/19 A3016 -190 78 800 220/04 RMK AO2 T02330194
53915KARA ARA20161227164510312/27/16 16:45:31  5-MIN KARA 272245Z 21004KT 10SM CLR 23/19 A3016 -190 78 800 210/04 RMK AO2 T02330194
53915KARA ARA20161227165011012/27/16 16:50:31  5-MIN KARA 272250Z 21006KT 10SM CLR 23/19 A3016 -190 78 800 210/06 RMK AO2 SLP211 T02330194
53915KARA ARA20161227165510612/27/16 16:55:31  5-MIN KARA 272255Z 21007KT 10SM FEW065 23/20 A3015 -180 81 800 210/07 RMK AO2 T02330200
53915KARA ARA20161227170010612/27/16 17:00:31  5-MIN KARA 272300Z 21006KT 10SM SCT065 23/20 A3015 -180 81 800 210/06 RMK AO2 T02330200
53915KARA ARA20161227170510612/27/16 17:05:31  5-MIN KARA 272305Z 21005KT 10SM SCT065 23/20 A3015 -180 81 800 200/05 RMK AO2 T02330200
53915KARA ARA20161227171010612/27/16 17:10:31  5-MIN KARA 272310Z 20008KT 10SM FEW065 23/20 A3015 -180 84 700 200/08 RMK AO2 T02280200
53915KARA ARA20161227171510612/27/16 17:15:31  5-MIN KARA 272315Z 20007KT 10SM SCT065 23/20 A3015 -180 84 700 200/07 RMK AO2 T02280200
53915KARA ARA20161227172010612/27/16 17:20:31  5-MIN KARA 272320Z 20006KT 10SM SCT065 23/19 A3015 -180 81 700 200/06 RMK AO2 T02280194
53915KARA ARA20161227172510612/27/16 17:25:31  5-MIN KARA 272325Z 19006KT 10SM SCT065 23/19 A3015 -180 81 700 190/06 RMK AO2 T02280194
53915KARA ARA20161227173010612/27/16 17:30:31  5-MIN KARA 272330Z 20006KT 10SM FEW065 22/19 A3015 -180 84 700 190/06 RMK AO2 T02220194
53915KARA ARA20161227173510612/27/16 17:35:31  5-MIN KARA 272335Z 20006KT 10SM FEW065 22/19 A3015 -180 84 700 200/06 RMK AO2 T02220194
53915KARA ARA20161227174011312/27/16 17:40:31  5-MIN KARA 272340Z 20005KT 10SM FEW033 FEW065 22/19 A3015 -180 84 700 200/05 RMK AO2 T02220194
53915KARA ARA20161227174510612/27/16 17:45:31  5-MIN KARA 272345Z 22006KT 10SM FEW033 22/19 A3015 -180 87 600 210/06 RMK AO2 T02170194
53915KARA ARA20161227175013412/27/16 17:50:31  5-MIN KARA 272350Z 21006KT 10SM CLR 22/19 A3015 -180 87 600 210/06 RMK AO2 SLP209 60002 T02170194 10267 20217 56022
53915KARA ARA20161227175510212/27/16 17:55:31  5-MIN KARA 272355Z 22007KT 9SM CLR 22/19 A3015 -180 87 600 210/07 RMK AO2 T02170194
53915KARA ARA20161227180010212/27/16 18:00:31  5-MIN KARA 280000Z 22006KT 7SM CLR 22/19 A3015 -180 87 600 220/06 RMK AO2 T02170194
53915KARA ARA20161227180510512/27/16 18:05:31  5-MIN KARA 280005Z 22005KT 5SM BR CLR 22/19 A3015 -180 87 600 220/05 RMK AO2 T02170194
53915KARA ARA20161227181010512/27/16 18:10:31  5-MIN KARA 280010Z 22006KT 4SM BR CLR 22/19 A3015 -180 87 600 220/06 RMK AO2 T02170194
53915KARA ARA20161227181510812/27/16 18:15:31  5-MIN KARA 280015Z 22006KT 4SM BR FEW065 21/19 A3015 -180 90 500 220/06 RMK AO2 T02110194
53915KARA ARA20161227182010812/27/16 18:20:31  5-MIN KARA 280020Z 22006KT 4SM BR FEW065 21/19 A3015 -180 90 500 220/06 RMK AO2 T02110194
53915KARA ARA20161227182510812/27/16 18:25:31  5-MIN KARA 280025Z 23006KT 4SM BR FEW065 21/19 A3015 -180 90 500 220/06 RMK AO2 T02110194
53915KARA ARA20161227183010812/27/16 18:30:31  5-MIN KARA 280030Z 22005KT 4SM BR FEW065 21/19 A3015 -180 90 500 220/05 RMK AO2 T02110194
53915KARA ARA20161227183510812/27/16 18:35:31  5-MIN KARA 280035Z 21004KT 5SM BR FEW065 21/19 A3015 -180 90 500 210/04 RMK AO2 T02110194
53915KARA ARA20161227184010812/27/16 18:40:31  5-MIN KARA 280040Z 19003KT 5SM BR FEW065 21/19 A3016 -190 90 500 190/03 RMK AO2 T02110194
53915KARA ARA20161227184510512/27/16 18:45:31  5-MIN KARA 280045Z 00000KT 6SM BR CLR 21/19 A3016 -190 90 500 000/00 RMK AO2 T02060189
53915KARA ARA20161227185010912/27/16 18:50:31  5-MIN KARA 280050Z 17004KT 7SM CLR 20/18 A3016 -190 90 400 160/04 RMK AO2 SLP212 T02000183
53915KARA ARA20161227185510512/27/16 18:55:31  5-MIN KARA 280055Z 17003KT 9SM FEW060 20/18 A3016 -190 90 400 160/03 RMK AO2 T02000183
53915KARA ARA20161227190010512/27/16 19:00:31  5-MIN KARA 280100Z 18004KT 9SM FEW060 20/18 A3016 -190 90 400 180/04 RMK AO2 T02000183
53915KARA ARA20161227190510612/27/16 19:05:31  5-MIN KARA 280105Z 19004KT 10SM FEW060 20/19 A3016 -190 93 400 190/04 RMK AO2 T02000189
53915KARA ARA20161227191010512/27/16 19:10:31  5-MIN KARA 280110Z 20004KT 9SM FEW060 20/19 A3016 -190 93 400 200/04 RMK AO2 T02000189
53915KARA ARA20161227191510512/27/16 19:15:31  5-MIN KARA 280115Z 20004KT 9SM FEW060 20/18 A3016 -190 90 400 200/04 RMK AO2 T02000183
53915KARA ARA20161227192010512/27/16 19:20:31  5-MIN KARA 280120Z 21004KT 9SM FEW060 20/18 A3016 -190 90 400 210/04 RMK AO2 T02000183
53915KARA ARA20161227192510312/27/16 19:25:31  5-MIN KARA 280125Z 21004KT 10SM CLR 20/18 A3016 -190 90 400 210/04 RMK AO2 T02000183
53915KARA ARA20161227193010612/27/16 19:30:31  5-MIN KARA 280130Z 21004KT 10SM FEW100 20/19 A3017 -190 93 400 210/04 RMK AO2 T02000189
53915KARA ARA20161227193510612/27/16 19:35:31  5-MIN KARA 280135Z 19003KT 10SM SCT100 20/19 A3017 -200 93 400 190/03 RMK AO2 T02000189
53915KARA ARA20161227194010612/27/16 19:40:31  5-MIN KARA 280140Z 00000KT 10SM SCT100 20/19 A3017 -200 93 400 000/00 RMK AO2 T02000189
53915KARA ARA20161227194511212/27/16 19:45:31  5-MIN KARA 280145Z 00000KT 9SM FEW060 SCT100 20/18 A3017 -200 90 400 000/00 RMK AO2 T02000183
53915KARA ARA20161227195011912/27/16 19:50:31  5-MIN KARA 280150Z 00000KT 8SM SCT060 BKN100 20/19 A3017 -200 93 400 000/00 RMK AO2 SLP216 T02000189
53915KARA ARA20161227195511212/27/16 19:55:31  5-MIN KARA 280155Z 00000KT 8SM BKN060 BKN100 20/19 A3017 -200 93 400 000/00 RMK AO2 T02000189
53915KARA ARA20161227200011212/27/16 20:00:31  5-MIN KARA 280200Z 00000KT 8SM BKN060 BKN100 20/19 A3017 -200 93 400 000/00 RMK AO2 T02000189
53915KARA ARA20161227200510812/27/16 20:05:31  5-MIN KARA 280205Z 22003KT 6SM BR BKN060 20/19 A3017 -200 93 400 220/03 RMK AO2 T02000189
53915KARA ARA20161227201010812/27/16 20:10:31  5-MIN KARA 280210Z 00000KT 5SM BR OVC065 20/18 A3017 -200 90 400 000/00 RMK AO2 T02000183
53915KARA ARA20161227201510812/27/16 20:15:31  5-MIN KARA 280215Z 00000KT 5SM BR OVC065 20/18 A3017 -200 90 400 000/00 RMK AO2 T02000183
53915KARA ARA20161227202010812/27/16 20:20:31  5-MIN KARA 280220Z 00000KT 6SM BR OVC065 20/19 A3017 -200 93 400 000/00 RMK AO2 T02000189
53915KARA ARA20161227202510512/27/16 20:25:31  5-MIN KARA 280225Z 22003KT 7SM OVC065 21/19 A3017 -200 87 500 220/03 RMK AO2 T02110189
53915KARA ARA20161227203010812/27/16 20:30:31  5-MIN KARA 280230Z 00000KT 6SM BR OVC065 20/18 A3018 -210 90 400 000/00 RMK AO2 T02000183
53915KARA ARA20161227203510812/27/16 20:35:31  5-MIN KARA 280235Z 00000KT 5SM BR OVC065 20/19 A3018 -210 93 400 000/00 RMK AO2 T02000189
53915KARA ARA20161227204010812/27/16 20:40:31  5-MIN KARA 280240Z 00000KT 5SM BR OVC065 21/19 A3019 -220 90 400 000/00 RMK AO2 T02060189
53915KARA ARA20161227204511312/27/16 20:45:31  5-MIN KARA 280245Z AUTO 00000KT 5SM BR OVC065 20/19 A3019 -220 93 400 000/00 RMK AO2 T02000189
53915KARA ARA20161227205012612/27/16 20:50:31  5-MIN KARA 280250Z AUTO 00000KT 5SM BR OVC065 20/19 A3019 -210 93 400 000/00 RMK AO2 SLP221 T02000189 58005
53915KARA ARA20161227205511312/27/16 20:55:31  5-MIN KARA 280255Z AUTO 16003KT 5SM BR OVC070 20/18 A3018 -210 90 400 160/03 RMK AO2 T02000183
53915KARA ARA20161227210011312/27/16 21:00:31  5-MIN KARA 280300Z AUTO 15003KT 5SM BR BKN070 20/18 A3019 -210 90 400 150/03 RMK AO2 T02000183
53915KARA ARA20161227210511312/27/16 21:05:31  5-MIN KARA 280305Z AUTO 16005KT 5SM BR BKN070 19/18 A3018 -210 90 300 160/05 RMK AO2 T01940178
53915KARA ARA20161227211011712/27/16 21:10:31  5-MIN KARA 280310Z AUTO 18004KT 7SM FEW003 BKN070 19/18 A3018 -210 90 300 180/04 RMK AO2 T01940178
53915KARA ARA20161227211511712/27/16 21:15:31  5-MIN KARA 280315Z AUTO 00000KT 8SM SCT003 BKN070 20/18 A3019 -220 90 400 000/00 RMK AO2 T02000183
53915KARA ARA20161227212011712/27/16 21:20:31  5-MIN KARA 280320Z AUTO 00000KT 7SM BKN003 BKN070 19/18 A3019 -220 93 300 000/00 RMK AO2 T01940183
53915KARA ARA20161227212511312/27/16 21:25:31  5-MIN KARA 280325Z AUTO 00000KT 6SM BR BKN003 19/18 A3019 -220 90 300 000/00 RMK AO2 T01940178
53915KARA ARA20161227213011312/27/16 21:30:31  5-MIN KARA 280330Z AUTO 18003KT 5SM BR OVC003 19/18 A3019 -220 93 300 170/03 RMK AO2 T01940183
53915KARA ARA20161227213511712/27/16 21:35:31  5-MIN KARA 280335Z AUTO 17005KT 2 1/2SM BR OVC002 20/18 A3019 -220 90 300 170/05 RMK AO2 T02000183
53915KARA ARA20161227214011712/27/16 21:40:31  5-MIN KARA 280340Z AUTO 18003KT 1 1/4SM BR OVC002 20/19 A3019 -220 93 300 170/03 RMK AO2 T02000189
53915KARA ARA20161227214511412/27/16 21:45:31  5-MIN KARA 280345Z AUTO 16003KT 1/2SM FG VV002 20/19 A3019 -220 93 400 160/03 RMK AO2 T02000189
53915KARA ARA20161227215012012/27/16 21:50:31  5-MIN KARA 280350Z AUTO 17003KT 1/4SM -RA FG VV002 20/19 A3019 -220 93 400 170/03 RMK AO2 RAB48 P0000
53915KARA ARA20161227215512412/27/16 21:55:31  5-MIN KARA 280355Z AUTO 19003KT 1/4SM -RA FG VV002 20/19 A3019 -220 93 400 190/03 RMK AO2 P0000 T02000189
53915KARA ARA20161227220012412/27/16 22:00:31  5-MIN KARA 280400Z AUTO 20004KT 1/4SM -RA FG VV002 20/19 A3019 -220 93 400 200/04 RMK AO2 P0000 T02000189
53915KARA ARA20161227220512412/27/16 22:05:31  5-MIN KARA 280405Z AUTO 22003KT 1/4SM -RA FG VV002 20/19 A3019 -220 93 400 220/03 RMK AO2 P0000 T02000189
53915KARA ARA20161227221012412/27/16 22:10:31  5-MIN KARA 280410Z AUTO 21003KT 1/4SM -RA FG VV002 20/19 A3019 -220 93 400 210/03 RMK AO2 P0000 T02000189
53915KARA ARA20161227221512412/27/16 22:15:31  5-MIN KARA 280415Z AUTO 21003KT 1/4SM -RA FG VV002 20/19 A3019 -210 93 400 210/03 RMK AO2 P0000 T02000189
53915KARA ARA20161227222012412/27/16 22:20:31  5-MIN KARA 280420Z AUTO 21003KT 1/4SM -RA FG VV002 20/19 A3019 -220 93 400 210/03 RMK AO2 P0000 T02000189
53915KARA ARA20161227222512412/27/16 22:25:31  5-MIN KARA 280425Z AUTO 20003KT 1/4SM -RA FG VV002 20/19 A3019 -210 93 400 190/03 RMK AO2 P0000 T02000189
53915KARA ARA20161227223012412/27/16 22:30:31  5-MIN KARA 280430Z AUTO 20003KT 1/4SM -RA FG VV002 20/19 A3019 -210 93 400 200/03 RMK AO2 P0000 T02000189
53915KARA ARA20161227223512412/27/16 22:35:31  5-MIN KARA 280435Z AUTO 20004KT 1/4SM -RA FG VV002 20/19 A3019 -220 93 400 200/04 RMK AO2 P0000 T02000189
53915KARA ARA20161227224012412/27/16 22:40:31  5-MIN KARA 280440Z AUTO 19004KT 1/4SM -RA FG VV002 20/19 A3019 -220 93 400 190/04 RMK AO2 P0000 T02000189
53915KARA ARA20161227224512412/27/16 22:45:31  5-MIN KARA 280445Z AUTO 19003KT 1/4SM -RA FG VV002 20/19 A3019 -220 93 400 190/03 RMK AO2 P0000 T02000189
53915KARA ARA20161227225013112/27/16 22:50:31  5-MIN KARA 280450Z AUTO 19003KT 1/4SM -RA FG VV002 20/19 A3019 -210 93 400 190/03 RMK AO2 SLP221 P0000 T02000189
53915KARA ARA20161227225512412/27/16 22:55:31  5-MIN KARA 280455Z AUTO 19003KT 1/4SM -RA FG VV002 20/19 A3019 -210 93 400 190/03 RMK AO2 P0000 T02000189
53915KARA ARA20161227230012412/27/16 23:00:31  5-MIN KARA 280500Z AUTO 20003KT 1/4SM -RA FG VV002 19/19 A3019 -210 97 300 200/03 RMK AO2 P0000 T01940189
53915KARA ARA20161227230512412/27/16 23:05:31  5-MIN KARA 280505Z AUTO 19003KT 1/4SM -RA FG VV002 20/19 A3018 -210 93 400 190/03 RMK AO2 P0000 T02000189
53915KARA ARA20161227231012412/27/16 23:10:31  5-MIN KARA 280510Z AUTO 00000KT 1/4SM -RA FG VV002 20/19 A3018 -210 93 400 000/00 RMK AO2 P0000 T02000189
53915KARA ARA20161227231512412/27/16 23:15:31  5-MIN KARA 280515Z AUTO 00000KT 1/4SM -RA FG VV002 20/19 A3019 -210 93 400 000/00 RMK AO2 P0000 T02000189
53915KARA ARA20161227232012412/27/16 23:20:31  5-MIN KARA 280520Z AUTO 00000KT 1/4SM -RA FG VV002 20/19 A3019 -210 93 400 000/00 RMK AO2 P0000 T02000189
53915KARA ARA20161227232512412/27/16 23:25:31  5-MIN KARA 280525Z AUTO 00000KT 1/4SM -RA FG VV002 20/19 A3019 -210 93 400 000/00 RMK AO2 P0000 T02000189
53915KARA ARA20161227233012412/27/16 23:30:31  5-MIN KARA 280530Z AUTO 00000KT 1/4SM -RA FG VV002 20/19 A3019 -210 93 400 000/00 RMK AO2 P0000 T02000189
53915KARA ARA20161227233512412/27/16 23:35:31  5-MIN KARA 280535Z AUTO 00000KT 1/4SM -RA FG VV002 20/19 A3018 -210 93 400 000/00 RMK AO2 P0000 T02000189
53915KARA ARA20161227234012412/27/16 23:40:31  5-MIN KARA 280540Z AUTO 00000KT 1/4SM -RA FG VV002 20/19 A3018 -210 93 400 000/00 RMK AO2 P0000 T02000189
53915KARA ARA20161227234512412/27/16 23:45:31  5-MIN KARA 280545Z AUTO 00000KT 1/4SM -RA FG VV002 20/19 A3018 -210 93 400 000/00 RMK AO2 P0000 T02000189
53915KARA ARA20161227235016512/27/16 23:50:31  5-MIN KARA 280550Z AUTO 00000KT 1/4SM -RA FG VV002 20/19 A3018 -210 93 400 000/00 RMK AO2 SLP219 P0000 60000 T02000189 10217 20194 402670194 53012
53915KARA ARA20161227235512412/27/16 23:55:31  5-MIN KARA 280555Z AUTO 00000KT 1/4SM -RA FG VV002 20/19 A3018 -210 93 400 000/00 RMK AO2 P0000 T02000189
53915KARA ARA20161228000012412/28/16 00:00:31  5-MIN KARA 280600Z AUTO 00000KT 1/4SM -RA FG VV002 20/19 A3018 -200 93 400 000/00 RMK AO2 P0000 T02000189
53915KARA ARA20161228000512412/28/16 00:05:31  5-MIN KARA 280605Z AUTO 16003KT 1/4SM -RA FG VV002 20/19 A3018 -200 93 400 160/03 RMK AO2 P0000 T02000189
53915KARA ARA20161228001012412/28/16 00:10:31  5-MIN KARA 280610Z AUTO 00000KT 1/4SM -RA FG VV002 20/18 A3018 -200 90 400 000/00 RMK AO2 P0000 T02000183
53915KARA ARA20161228001512412/28/16 00:15:31  5-MIN KARA 280615Z AUTO 15004KT 1/4SM -RA FG VV002 19/18 A3017 -200 93 300 150/04 RMK AO2 P0000 T01940183
53915KARA ARA20161228002012412/28/16 00:20:31  5-MIN KARA 280620Z AUTO 15004KT 1/4SM -RA FG VV002 19/18 A3017 -200 93 300 150/04 RMK AO2 P0000 T01940183
53915KARA ARA20161228002512412/28/16 00:25:31  5-MIN KARA 280625Z AUTO 16003KT 1/4SM -RA FG VV002 19/18 A3016 -190 93 300 160/03 RMK AO2 P0000 T01940183
53915KARA ARA20161228003012412/28/16 00:30:31  5-MIN KARA 280630Z AUTO 15003KT 1/4SM -RA FG VV002 19/18 A3016 -190 93 300 150/03 RMK AO2 P0000 T01940183
53915KARA ARA20161228003512412/28/16 00:35:31  5-MIN KARA 280635Z AUTO 14003KT 1/4SM -RA FG VV002 19/18 A3016 -190 93 300 140/03 RMK AO2 P0000 T01940183
53915KARA ARA20161228004012412/28/16 00:40:31  5-MIN KARA 280640Z AUTO 14003KT 1/4SM -RA FG VV002 19/19 A3016 -190 97 300 140/03 RMK AO2 P0000 T01940189
53915KARA ARA20161228004512412/28/16 00:45:31  5-MIN KARA 280645Z AUTO 00000KT 1/4SM -RA FG VV002 19/18 A3016 -190 93 300 000/00 RMK AO2 P0000 T01940183
53915KARA ARA20161228005013112/28/16 00:50:31  5-MIN KARA 280650Z AUTO 00000KT 1/4SM -RA FG VV002 19/18 A3016 -190 93 300 000/00 RMK AO2 SLP213 P0000 T01940183
53915KARA ARA20161228005512412/28/16 00:55:31  5-MIN KARA 280655Z AUTO 10003KT 1/4SM -RA FG VV002 19/18 A3016 -190 93 300 100/03 RMK AO2 P0000 T01940183
53915KARA ARA20161228010012412/28/16 01:00:31  5-MIN KARA 280700Z AUTO 11003KT 1/4SM -RA FG VV002 19/18 A3016 -190 93 300 110/03 RMK AO2 P0000 T01940183
53915KARA ARA20161228010512412/28/16 01:05:31  5-MIN KARA 280705Z AUTO 00000KT 1/4SM -RA FG VV002 19/18 A3016 -190 93 300 000/00 RMK AO2 P0000 T01940183
53915KARA ARA20161228011012412/28/16 01:10:31  5-MIN KARA 280710Z AUTO 00000KT 1/4SM -RA FG VV002 19/18 A3016 -190 93 300 000/00 RMK AO2 P0000 T01940183
53915KARA ARA20161228011512412/28/16 01:15:31  5-MIN KARA 280715Z AUTO 00000KT 1/4SM -RA FG VV002 19/18 A3016 -190 93 300 000/00 RMK AO2 P0001 T01940183
53915KARA ARA20161228012012412/28/16 01:20:31  5-MIN KARA 280720Z AUTO 00000KT 1/4SM -RA FG VV002 19/18 A3016 -190 93 300 000/00 RMK AO2 P0001 T01940183
53915KARA ARA20161228012512412/28/16 01:25:31  5-MIN KARA 280725Z AUTO 00000KT 1/4SM -RA FG VV002 19/18 A3016 -190 93 300 000/00 RMK AO2 P0001 T01940183
53915KARA ARA20161228013012612/28/16 01:30:31  5-MIN KARA 280730Z AUTO 00000KT 1/4SM FG VV002 19/18 A3016 -190 93 300 000/00 RMK AO2 RAE28 P0001 T01940183
53915KARA ARA20161228013512612/28/16 01:35:31  5-MIN KARA 280735Z AUTO 00000KT 1/4SM FG VV002 19/18 A3017 -200 93 300 000/00 RMK AO2 RAE28 P0001 T01940183
53915KARA ARA20161228014012412/28/16 01:40:31  5-MIN KARA 280740Z AUTO 00000KT 1/4SM -RA FG VV002 19/18 A3017 -200 93 300 000/00 RMK AO2 P0001 T01940183
53915KARA ARA20161228014512412/28/16 01:45:31  5-MIN KARA 280745Z AUTO 00000KT 1/4SM -RA FG VV002 19/18 A3017 -190 93 300 000/00 RMK AO2 P0001 T01940183
53915KARA ARA20161228015013112/28/16 01:50:31  5-MIN KARA 280750Z AUTO 00000KT 1/4SM -RA FG VV002 19/18 A3017 -200 93 300 000/00 RMK AO2 SLP214 P0001 T01940183
53915KARA ARA20161228015513012/28/16 01:55:31  5-MIN KARA 280755Z AUTO 14003KT 1/4SM -RA FG VV002 19/18 A3016 -190 93 300 140/03 RMK AO2 RAB55 P0000 T01940183
53915KARA ARA20161228020013212/28/16 02:00:31  5-MIN KARA 280800Z AUTO 13003KT 1/4SM -RA FG VV002 19/18 A3016 -190 93 300 130/03 RMK AO2 RAB0755 P0000 T01940183
53915KARA ARA20161228020513212/28/16 02:05:31  5-MIN KARA 280805Z AUTO 14003KT 1/4SM -RA FG VV002 19/18 A3016 -190 93 300 140/03 RMK AO2 RAB0755 P0000 T01940183
53915KARA ARA20161228021013212/28/16 02:10:31  5-MIN KARA 280810Z AUTO 14004KT 1/4SM -RA FG VV002 19/18 A3015 -180 93 300 140/04 RMK AO2 RAB0755 P0000 T01940183
53915KARA ARA20161228021513212/28/16 02:15:31  5-MIN KARA 280815Z AUTO 14004KT 1/4SM -RA FG VV002 19/18 A3015 -180 93 300 140/04 RMK AO2 RAB0755 P0000 T01940183
53915KARA ARA20161228022013212/28/16 02:20:31  5-MIN KARA 280820Z AUTO 14003KT 1/4SM -RA FG VV002 19/18 A3016 -190 93 300 140/03 RMK AO2 RAB0755 P0000 T01940183
53915KARA ARA20161228022513212/28/16 02:25:31  5-MIN KARA 280825Z AUTO 00000KT 1/4SM -RA FG VV002 19/18 A3016 -190 93 300 000/00 RMK AO2 RAB0755 P0000 T01940183
53915KARA ARA20161228023013212/28/16 02:30:31  5-MIN KARA 280830Z AUTO 00000KT 1/4SM -RA FG VV002 19/18 A3016 -190 93 300 000/00 RMK AO2 RAB0755 P0000 T01940183
53915KARA ARA20161228023513212/28/16 02:35:31  5-MIN KARA 280835Z AUTO 15003KT 1/4SM -RA FG VV002 19/18 A3016 -190 93 300 150/03 RMK AO2 RAB0755 P0000 T01940183
53915KARA ARA20161228024013212/28/16 02:40:31  5-MIN KARA 280840Z AUTO 15004KT 1/4SM -RA FG VV002 19/18 A3015 -180 93 300 140/04 RMK AO2 RAB0755 P0000 T01940183
53915KARA ARA20161228024513212/28/16 02:45:31  5-MIN KARA 280845Z AUTO 15004KT 1/4SM -RA FG VV002 19/18 A3015 -180 93 300 150/04 RMK AO2 RAB0755 P0000 T01940183
53915KARA ARA20161228025015112/28/16 02:50:31  5-MIN KARA 280850Z AUTO 16003KT 1/4SM -RA FG VV002 19/18 A3015 -180 93 300 160/03 RMK AO2 RAB0755 SLP208 P0000 60001 T01940183 58003
53915KARA ARA20161228025512412/28/16 02:55:31  5-MIN KARA 280855Z AUTO 15003KT 1/4SM -RA FG VV002 19/18 A3015 -180 93 300 150/03 RMK AO2 P0000 T01940183
53915KARA ARA20161228030012412/28/16 03:00:31  5-MIN KARA 280900Z AUTO 16003KT 1/4SM -RA FG VV002 19/18 A3015 -180 93 300 150/03 RMK AO2 P0000 T01940183
53915KARA ARA20161228030512412/28/16 03:05:31  5-MIN KARA 280905Z AUTO 00000KT 1/4SM -RA FG VV002 19/18 A3015 -180 93 300 000/00 RMK AO2 P0000 T01940183
53915KARA ARA20161228031012412/28/16 03:10:31  5-MIN KARA 280910Z AUTO 17003KT 1/4SM -RA FG VV002 19/18 A3015 -190 93 300 170/03 RMK AO2 P0000 T01940183
53915KARA ARA20161228031512412/28/16 03:15:31  5-MIN KARA 280915Z AUTO 16003KT 1/4SM -RA FG VV002 19/18 A3015 -180 93 300 160/03 RMK AO2 P0000 T01940183
53915KARA ARA20161228032012412/28/16 03:20:31  5-MIN KARA 280920Z AUTO 00000KT 1/4SM -RA FG VV002 19/18 A3016 -190 93 300 000/00 RMK AO2 P0000 T01940183
53915KARA ARA20161228032512412/28/16 03:25:31  5-MIN KARA 280925Z AUTO 00000KT 1/4SM -RA FG VV002 19/18 A3015 -180 93 300 000/00 RMK AO2 P0000 T01940183
53915KARA ARA20161228033012412/28/16 03:30:31  5-MIN KARA 280930Z AUTO 00000KT 1/4SM -RA FG VV002 19/18 A3015 -180 93 300 000/00 RMK AO2 P0000 T01940183
53915KARA ARA20161228033512412/28/16 03:35:31  5-MIN KARA 280935Z AUTO 16003KT 1/4SM -RA FG VV002 19/18 A3015 -180 93 300 160/03 RMK AO2 P0000 T01940183
53915KARA ARA20161228034012412/28/16 03:40:31  5-MIN KARA 280940Z AUTO 15004KT 1/4SM -RA FG VV002 19/18 A3014 -180 93 300 150/04 RMK AO2 P0000 T01940183
53915KARA ARA20161228034512412/28/16 03:45:31  5-MIN KARA 280945Z AUTO 14003KT 1/4SM -RA FG VV003 19/18 A3015 -180 93 300 140/03 RMK AO2 P0000 T01940183
53915KARA ARA20161228035013112/28/16 03:50:31  5-MIN KARA 280950Z AUTO 15003KT 1/4SM -RA FG VV003 19/18 A3014 -180 93 300 150/03 RMK AO2 SLP207 P0000 T01940183
53915KARA ARA20161228035512412/28/16 03:55:31  5-MIN KARA 280955Z AUTO 00000KT 1/4SM -RA FG VV003 19/18 A3014 -180 93 300 000/00 RMK AO2 P0000 T01940183
53915KARA ARA20161228040012412/28/16 04:00:31  5-MIN KARA 281000Z AUTO 17003KT 1/4SM -RA FG VV003 19/18 A3014 -180 93 300 170/03 RMK AO2 P0000 T01940183
53915KARA ARA20161228040512412/28/16 04:05:31  5-MIN KARA 281005Z AUTO 19003KT 1/4SM -RA FG VV003 19/18 A3014 -180 93 300 190/03 RMK AO2 P0000 T01940183
53915KARA ARA20161228041012412/28/16 04:10:31  5-MIN KARA 281010Z AUTO 00000KT 1/4SM -RA FG VV002 19/18 A3014 -170 93 300 000/00 RMK AO2 P0000 T01940183
53915KARA ARA20161228041512412/28/16 04:15:31  5-MIN KARA 281015Z AUTO 00000KT 1/4SM -RA FG VV002 19/18 A3015 -180 93 300 000/00 RMK AO2 P0000 T01940183
53915KARA ARA20161228042012412/28/16 04:20:31  5-MIN KARA 281020Z AUTO 21003KT 1/4SM -RA FG VV002 19/18 A3015 -180 93 300 210/03 RMK AO2 P0000 T01940183
53915KARA ARA20161228042512412/28/16 04:25:31  5-MIN KARA 281025Z AUTO 20003KT 1/4SM -RA FG VV002 19/18 A3014 -180 93 300 200/03 RMK AO2 P0000 T01940183
53915KARA ARA20161228043012412/28/16 04:30:31  5-MIN KARA 281030Z AUTO 00000KT 1/4SM -RA FG VV002 19/18 A3014 -170 93 300 000/00 RMK AO2 P0000 T01940183
53915KARA ARA20161228043512412/28/16 04:35:31  5-MIN KARA 281035Z AUTO 22003KT 1/4SM -RA FG VV002 19/18 A3014 -180 93 300 220/03 RMK AO2 P0000 T01940183
53915KARA ARA20161228044012412/28/16 04:40:31  5-MIN KARA 281040Z AUTO 21003KT 1/4SM -RA FG VV002 19/18 A3015 -180 93 300 200/03 RMK AO2 P0000 T01940183
53915KARA ARA20161228044512412/28/16 04:45:31  5-MIN KARA 281045Z AUTO 00000KT 1/4SM -RA FG VV002 19/18 A3015 -180 93 300 000/00 RMK AO2 P0000 T01940183
53915KARA ARA20161228045011412/28/16 04:50:31  5-MIN KARA 281050Z AUTO 21003KT 1/2SM -RA FG VV002 19/18 A3015 -180 93 300 210/03 RMK AO2 P0000
53915KARA ARA20161228045512412/28/16 04:55:31  5-MIN KARA 281055Z AUTO 20003KT 1/2SM -RA FG VV003 19/18 A3015 -180 93 300 200/03 RMK AO2 P0000 T01940183
53915KARA ARA20161228050012412/28/16 05:00:31  5-MIN KARA 281100Z AUTO 00000KT 1/2SM -RA FG VV003 19/18 A3014 -180 93 300 000/00 RMK AO2 P0000 T01940183
53915KARA ARA20161228050512412/28/16 05:05:31  5-MIN KARA 281105Z AUTO 00000KT 1/2SM -RA FG VV003 19/18 A3014 -170 93 300 000/00 RMK AO2 P0000 T01940183
53915KARA ARA20161228051012412/28/16 05:10:31  5-MIN KARA 281110Z AUTO 00000KT 1/2SM -RA FG VV003 19/18 A3015 -180 93 300 000/00 RMK AO2 P0000 T01940183
53915KARA ARA20161228051512412/28/16 05:15:31  5-MIN KARA 281115Z AUTO 00000KT 1/2SM -RA FG VV003 19/18 A3015 -180 93 300 000/00 RMK AO2 P0000 T01940183
53915KARA ARA20161228052012412/28/16 05:20:31  5-MIN KARA 281120Z AUTO 00000KT 1/2SM -RA FG VV003 19/18 A3015 -180 93 300 000/00 RMK AO2 P0000 T01940183
53915KARA ARA20161228052512412/28/16 05:25:31  5-MIN KARA 281125Z AUTO 00000KT 1/4SM -RA FG VV003 19/18 A3015 -180 93 300 000/00 RMK AO2 P0000 T01940183
53915KARA ARA20161228053011912/28/16 05:30:31  5-MIN KARA 281130Z 21003KT 1/4SM -RA FG VV003 19/18 A3016 -190 93 300 210/03 RMK AO2 P0000 T01940183
53915KARA ARA20161228053511912/28/16 05:35:31  5-MIN KARA 281135Z 00000KT 1/4SM -RA FG VV002 19/18 A3016 -190 93 300 000/00 RMK AO2 P0000 T01940183
53915KARA ARA20161228054011912/28/16 05:40:31  5-MIN KARA 281140Z 00000KT 1/4SM -RA FG VV002 19/18 A3015 -180 93 300 000/00 RMK AO2 P0001 T01940183
53915KARA ARA20161228054511912/28/16 05:45:31  5-MIN KARA 281145Z 00000KT 1/4SM -RA FG VV002 19/18 A3015 -180 93 300 000/00 RMK AO2 P0001 T01940183
53915KARA ARA20161228055015612/28/16 05:50:31  5-MIN KARA 281150Z 00000KT 1/4SM -RA FG VV003 19/18 A3015 -180 93 300 000/00 RMK AO2 SLP210 P0001 60002 70004 T01940183 10200 20194 56010
53915KARA ARA20161228055511912/28/16 05:55:31  5-MIN KARA 281155Z 17003KT 1/2SM -RA FG VV003 19/18 A3015 -190 93 300 170/03 RMK AO2 P0000 T01940183
53915KARA ARA20161228060011912/28/16 06:00:31  5-MIN KARA 281200Z 17003KT 1/2SM -RA FG VV003 19/18 A3016 -190 97 300 170/03 RMK AO2 P0000 T01890183
53915KARA ARA20161228060511912/28/16 06:05:31  5-MIN KARA 281205Z 00000KT 1/4SM -RA FG VV003 19/18 A3016 -190 93 300 000/00 RMK AO2 P0000 T01940183
53915KARA ARA20161228061011912/28/16 06:10:31  5-MIN KARA 281210Z 00000KT 1/4SM -RA FG VV003 19/18 A3016 -190 93 300 000/00 RMK AO2 P0000 T01940183
53915KARA ARA20161228061511912/28/16 06:15:31  5-MIN KARA 281215Z 18003KT 1/4SM -RA FG VV003 19/18 A3016 -190 93 300 180/03 RMK AO2 P0000 T01940183
53915KARA ARA20161228062011912/28/16 06:20:31  5-MIN KARA 281220Z 16003KT 1/4SM -RA FG VV003 19/18 A3016 -190 93 300 160/03 RMK AO2 P0000 T01940183
53915KARA ARA20161228062511912/28/16 06:25:31  5-MIN KARA 281225Z 17004KT 1/4SM -RA FG VV003 19/18 A3015 -180 90 300 170/04 RMK AO2 P0000 T01940178
53915KARA ARA20161228063012112/28/16 06:30:31  5-MIN KARA 281230Z 18004KT 1/4SM FG VV003 19/18 A3016 -190 93 300 180/04 RMK AO2 RAE27 P0000 T01890178
53915KARA ARA20161228063512112/28/16 06:35:31  5-MIN KARA 281235Z 17004KT 1/2SM FG VV003 19/18 A3015 -180 93 300 170/04 RMK AO2 RAE27 P0000 T01890178
53915KARA ARA20161228064012112/28/16 06:40:31  5-MIN KARA 281240Z 16005KT 1/2SM FG VV003 19/18 A3015 -180 90 300 160/05 RMK AO2 RAE27 P0000 T01940178
53915KARA ARA20161228064512112/28/16 06:45:31  5-MIN KARA 281245Z 16004KT 1/2SM FG VV003 19/18 A3015 -180 90 300 160/04 RMK AO2 RAE27 P0000 T01940178
53915KARA ARA20161228065012812/28/16 06:50:31  5-MIN KARA 281250Z 16003KT 3/4SM BR VV003 19/18 A3015 -180 93 300 160/03 RMK AO2 RAE27 SLP208 P0000 T01890178
53915KARA ARA20161228065510912/28/16 06:55:31  5-MIN KARA 281255Z 17003KT 3/4SM BR VV003 19/18 A3015 -180 97 300 170/03 RMK AO2 T01890183
53915KARA ARA20161228070010912/28/16 07:00:31  5-MIN KARA 281300Z 18004KT 3/4SM BR VV003 19/18 A3015 -180 97 300 180/04 RMK AO2 T01890183
53915KARA ARA20161228070510712/28/16 07:05:31  5-MIN KARA 281305Z 17004KT 1SM BR VV003 19/18 A3016 -190 97 300 170/04 RMK AO2 T01890183
53915KARA ARA20161228071010912/28/16 07:10:31  5-MIN KARA 281310Z 17003KT 3/4SM BR VV003 19/18 A3016 -190 93 300 170/03 RMK AO2 T01890178
53915KARA ARA20161228071510912/28/16 07:15:31  5-MIN KARA 281315Z 16004KT 3/4SM BR VV003 19/18 A3016 -190 93 300 160/04 RMK AO2 T01890178
53915KARA ARA20161228072010912/28/16 07:20:31  5-MIN KARA 281320Z 16004KT 3/4SM BR VV003 19/18 A3016 -190 93 300 160/04 RMK AO2 T01890178
53915KARA ARA20161228072511212/28/16 07:25:31  5-MIN KARA 281325Z 16004KT 1 1/4SM BR OVC002 19/18 A3017 -200 93 200 160/04 RMK AO2 T01890178
53915KARA ARA20161228073010812/28/16 07:30:31  5-MIN KARA 281330Z 17003KT 2SM BR OVC002 19/18 A3017 -200 93 200 170/03 RMK AO2 T01890178
53915KARA ARA20161228073511212/28/16 07:35:31  5-MIN KARA 281335Z 17004KT 2 1/2SM BR OVC002 19/18 A3017 -200 93 200 160/04 RMK AO2 T01890178
53915KARA ARA20161228074010812/28/16 07:40:31  5-MIN KARA 281340Z 18003KT 2SM BR OVC002 19/18 A3017 -200 93 200 170/03 RMK AO2 T01890178
53915KARA ARA20161228074510812/28/16 07:45:31  5-MIN KARA 281345Z 18004KT 2SM BR OVC002 19/18 A3017 -200 93 300 180/04 RMK AO2 T01940183
53915KARA ARA20161228075011912/28/16 07:50:31  5-MIN KARA 281350Z 18004KT 2 1/2SM BR OVC002 19/18 A3017 -200 97 200 180/04 RMK AO2 SLP215 T01890183
53915KARA ARA20161228075511212/28/16 07:55:31  5-MIN KARA 281355Z 17005KT 2 1/2SM BR OVC002 19/18 A3017 -200 97 200 170/05 RMK AO2 T01890183
53915KARA ARA20161228080010812/28/16 08:00:31  5-MIN KARA 281400Z 16005KT 3SM BR OVC002 19/18 A3016 -190 90 300 160/05 RMK AO2 T01940178
53915KARA ARA20161228080511212/28/16 08:05:31  5-MIN KARA 281405Z 16006KT 2 1/2SM BR OVC002 19/18 A3016 -190 90 300 160/06 RMK AO2 T01940178
53915KARA ARA20161228081011212/28/16 08:10:31  5-MIN KARA 281410Z 15005KT 1 1/2SM BR OVC002 19/18 A3016 -190 93 300 150/05 RMK AO2 T01940183
53915KARA ARA20161228081511212/28/16 08:15:31  5-MIN KARA 281415Z 15005KT 1 1/4SM BR OVC002 19/18 A3016 -190 93 300 150/05 RMK AO2 T01940183
53915KARA ARA20161228082010812/28/16 08:20:31  5-MIN KARA 281420Z 14004KT 1SM BR OVC002 19/18 A3016 -190 93 300 140/04 RMK AO2 T01940183
53915KARA ARA20161228082510812/28/16 08:25:31  5-MIN KARA 281425Z 16004KT 1SM BR OVC002 19/18 A3016 -190 93 300 160/04 RMK AO2 T01940183
53915KARA ARA20161228083011012/28/16 08:30:31  5-MIN KARA 281430Z 16005KT 3/4SM BR OVC002 19/18 A3017 -200 93 300 160/05 RMK AO2 T01940183
53915KARA ARA20161228083511012/28/16 08:35:31  5-MIN KARA 281435Z 16004KT 3/4SM BR OVC002 19/18 A3017 -200 93 300 160/04 RMK AO2 T01940183
53915KARA ARA20161228084011012/28/16 08:40:31  5-MIN KARA 281440Z 16004KT 3/4SM BR OVC002 19/18 A3017 -200 93 300 160/04 RMK AO2 T01940183
53915KARA ARA20161228084510812/28/16 08:45:31  5-MIN KARA 281445Z 15003KT 1SM BR OVC002 19/18 A3017 -200 93 300 150/03 RMK AO2 T01940183
53915KARA ARA20161228085013112/28/16 08:50:31  5-MIN KARA 281450Z 16003KT 1 1/2SM BR OVC002 20/19 A3017 -200 93 400 150/03 RMK AO2 SLP214 60000 T02000189 53004
53915KARA ARA20161228085511212/28/16 08:55:31  5-MIN KARA 281455Z 00000KT 1 3/4SM BR OVC002 20/19 A3017 -200 93 400 000/00 RMK AO2 T02000189
53915KARA ARA20161228090011212/28/16 09:00:31  5-MIN KARA 281500Z 00000KT 2 1/2SM BR OVC002 20/19 A3017 -200 93 400 000/00 RMK AO2 T02000189
53915KARA ARA20161228090510812/28/16 09:05:31  5-MIN KARA 281505Z 00000KT 3SM BR OVC002 20/19 A3017 -200 93 400 000/00 RMK AO2 T02000189
53915KARA ARA20161228091010812/28/16 09:10:31  5-MIN KARA 281510Z 18003KT 4SM BR OVC002 20/19 A3017 -200 93 400 180/03 RMK AO2 T02000189
53915KARA ARA20161228091510812/28/16 09:15:31  5-MIN KARA 281515Z 18003KT 5SM BR OVC002 20/19 A3017 -200 93 400 180/03 RMK AO2 T02000189
53915KARA ARA20161228092010812/28/16 09:20:31  5-MIN KARA 281520Z 17003KT 4SM BR OVC002 21/19 A3017 -200 90 400 170/03 RMK AO2 T02060189
53915KARA ARA20161228092510812/28/16 09:25:31  5-MIN KARA 281525Z 20004KT 4SM BR OVC002 21/19 A3018 -210 93 400 200/04 RMK AO2 T02060194
53915KARA ARA20161228093010812/28/16 09:30:31  5-MIN KARA 281530Z 20004KT 5SM BR OVC002 21/19 A3018 -210 93 400 200/04 RMK AO2 T02060194
53915KARA ARA20161228093510512/28/16 09:35:31  5-MIN KARA 281535Z 19005KT 8SM OVC002 21/19 A3018 -210 93 400 190/05 RMK AO2 T02060194
53915KARA ARA20161228094010512/28/16 09:40:31  5-MIN KARA 281540Z 21004KT 9SM OVC003 21/19 A3018 -210 93 400 210/04 RMK AO2 T02060194
53915KARA ARA20161228094510512/28/16 09:45:31  5-MIN KARA 281545Z 18003KT 9SM OVC003 21/19 A3018 -210 93 400 180/03 RMK AO2 T02060194
53915KARA ARA20161228095012412/28/16 09:50:31  5-MIN KARA 281550Z 19003KT 9SM OVC003 21/19 A3018 -210 90 500 190/03 RMK AO2 CIG 002V006 SLP218 T02110194
53915KARA ARA20161228095510512/28/16 09:55:31  5-MIN KARA 281555Z 20003KT 9SM OVC003 21/19 A3018 -210 90 500 200/03 RMK AO2 T02110194
53915KARA ARA20161228100010612/28/16 10:00:31  5-MIN KARA 281600Z 23004KT 10SM OVC003 21/19 A3018 -210 90 500 230/04 RMK AO2 T02110194
53915KARA ARA20161228100510612/28/16 10:05:31  5-MIN KARA 281605Z 22005KT 10SM OVC004 21/19 A3018 -210 90 500 220/05 RMK AO2 T02110194
53915KARA ARA20161228101010612/28/16 10:10:31  5-MIN KARA 281610Z 21006KT 10SM OVC004 21/19 A3018 -210 90 500 210/06 RMK AO2 T02110194
53915KARA ARA20161228101510612/28/16 10:15:31  5-MIN KARA 281615Z 23005KT 10SM OVC004 21/19 A3018 -210 90 500 230/05 RMK AO2 T02110194
53915KARA ARA20161228102010612/28/16 10:20:31  5-MIN KARA 281620Z 23006KT 10SM OVC004 21/19 A3018 -210 90 500 230/06 RMK AO2 T02110194
53915KARA ARA20161228102510612/28/16 10:25:31  5-MIN KARA 281625Z 23006KT 10SM OVC004 21/19 A3018 -210 90 500 230/06 RMK AO2 T02110194
53915KARA ARA20161228103010612/28/16 10:30:31  5-MIN KARA 281630Z 23008KT 10SM OVC005 21/19 A3018 -200 90 500 230/08 RMK AO2 T02110194
53915KARA ARA20161228103510612/28/16 10:35:31  5-MIN KARA 281635Z 22007KT 10SM OVC005 21/19 A3017 -200 90 500 220/07 RMK AO2 T02110194
53915KARA ARA20161228104010612/28/16 10:40:31  5-MIN KARA 281640Z 22008KT 10SM OVC005 21/19 A3017 -200 90 500 220/08 RMK AO2 T02110194
53915KARA ARA20161228104510612/28/16 10:45:31  5-MIN KARA 281645Z 21008KT 10SM OVC005 21/19 A3017 -200 90 500 200/08 RMK AO2 T02110194
53915KARA ARA20161228105011312/28/16 10:50:31  5-MIN KARA 281650Z 21006KT 10SM OVC005 21/19 A3017 -200 90 500 210/06 RMK AO2 SLP214 T02110194
53915KARA ARA20161228105510612/28/16 10:55:31  5-MIN KARA 281655Z 21006KT 10SM OVC005 22/19 A3017 -200 87 600 210/06 RMK AO2 T02170194
53915KARA ARA20161228110011312/28/16 11:00:31  5-MIN KARA 281700Z 23005KT 10SM BKN005 OVC009 22/19 A3017 -200 87 600 230/05 RMK AO2 T02170194
53915KARA ARA20161228110511812/28/16 11:05:31  5-MIN KARA 281705Z 22006KT 10SM OVC005 22/19 A3017 -200 87 600 220/06 RMK AO2 CIG 004V010 T02170194
53915KARA ARA20161228111012512/28/16 11:10:31  5-MIN KARA 281710Z 20006KT 10SM BKN005 OVC012 22/20 A3016 -190 87 600 200/06 RMK AO2 CIG 004V009 T02220200
53915KARA ARA20161228111512512/28/16 11:15:31  5-MIN KARA 281715Z 24006KT 10SM BKN006 OVC012 22/19 A3016 -190 87 600 240/06 RMK AO2 CIG 004V009 T02170194
53915KARA ARA20161228112011812/28/16 11:20:31  5-MIN KARA 281720Z 24008KT 10SM OVC006 22/19 A3016 -190 87 600 240/08 RMK AO2 CIG 005V009 T02170194
53915KARA ARA20161228112511812/28/16 11:25:31  5-MIN KARA 281725Z 24007KT 10SM OVC006 22/19 A3015 -180 87 600 240/07 RMK AO2 CIG 006V009 T02170194
53915KARA ARA20161228113011812/28/16 11:30:31  5-MIN KARA 281730Z 22008KT 10SM OVC007 22/19 A3015 -180 84 700 210/08 RMK AO2 CIG 006V011 T02220194
53915KARA ARA20161228113511812/28/16 11:35:31  5-MIN KARA 281735Z 20008KT 10SM OVC007 22/19 A3014 -170 87 600 200/08 RMK AO2 CIG 005V011 T02170194
53915KARA ARA20161228114011812/28/16 11:40:31  5-MIN KARA 281740Z 20009KT 10SM OVC007 22/20 A3014 -170 87 700 200/09 RMK AO2 CIG 005V011 T02220200
53915KARA ARA20161228114512512/28/16 11:45:31  5-MIN KARA 281745Z 21007KT 10SM BKN005 OVC010 22/20 A3014 -170 87 700 210/07 RMK AO2 CIG 005V009 T02220200
53915KARA ARA20161228115014912/28/16 11:50:31  5-MIN KARA 281750Z 20008KT 10SM OVC008 22/20 A3013 -160 87 700 200/08 RMK AO2 CIG 005V010 SLP202 60000 T02220200 10228 20189 51006
53915KARA ARA20161228115511812/28/16 11:55:31  5-MIN KARA 281755Z 21009KT 10SM OVC008 22/19 A3013 -160 84 700 210/09 RMK AO2 CIG 005V010 T02220194
53915KARA ARA20161228120011812/28/16 12:00:31  5-MIN KARA 281800Z 20008KT 10SM OVC008 22/19 A3013 -160 84 700 200/08 RMK AO2 CIG 005V011 T02220194
53915KARA ARA20161228120511812/28/16 12:05:31  5-MIN KARA 281805Z 22007KT 10SM OVC008 22/19 A3013 -160 84 700 220/07 RMK AO2 CIG 005V011 T02220194
53915KARA ARA20161228121011812/28/16 12:10:31  5-MIN KARA 281810Z 20009KT 10SM OVC008 22/19 A3013 -160 84 700 200/09 RMK AO2 CIG 005V011 T02220194
53915KARA ARA20161228121511812/28/16 12:15:31  5-MIN KARA 281815Z 20006KT 10SM OVC008 22/19 A3013 -160 84 700 200/06 RMK AO2 CIG 006V011 T02220194
53915KARA ARA20161228122011812/28/16 12:20:31  5-MIN KARA 281820Z 21007KT 10SM OVC008 22/19 A3013 -160 84 700 210/07 RMK AO2 CIG 006V011 T02220194
53915KARA ARA20161228122511812/28/16 12:25:31  5-MIN KARA 281825Z 22006KT 10SM OVC008 22/19 A3012 -160 84 700 220/06 RMK AO2 CIG 006V011 T02220194
53915KARA ARA20161228123011812/28/16 12:30:31  5-MIN KARA 281830Z 21007KT 10SM OVC008 23/19 A3012 -150 81 800 210/07 RMK AO2 CIG 006V011 T02280194
53915KARA ARA20161228123511812/28/16 12:35:31  5-MIN KARA 281835Z 22007KT 10SM OVC008 23/19 A3012 -150 81 800 220/07 RMK AO2 CIG 006V012 T02280194
53915KARA ARA20161228124011812/28/16 12:40:31  5-MIN KARA 281840Z 22006KT 10SM OVC010 23/19 A3012 -150 81 800 220/06 RMK AO2 CIG 006V012 T02280194
53915KARA ARA20161228124512512/28/16 12:45:31  5-MIN KARA 281845Z 20006KT 10SM BKN010 OVC015 23/19 A3011 -150 81 800 200/06 RMK AO2 CIG 007V012 T02280194
53915KARA ARA20161228125013212/28/16 12:50:31  5-MIN KARA 281850Z 20006KT 10SM BKN010 OVC015 23/19 A3011 -140 81 800 200/06 RMK AO2 CIG 007V012 SLP195 T02280194
53915KARA ARA20161228125511812/28/16 12:55:31  5-MIN KARA 281855Z 21007KT 10SM OVC010 23/19 A3011 -140 81 800 210/07 RMK AO2 CIG 007V012 T02280194
53915KARA ARA20161228130011812/28/16 13:00:31  5-MIN KARA 281900Z 21007KT 10SM OVC010 23/19 A3011 -140 81 800 200/07 RMK AO2 CIG 008V012 T02280194
53915KARA ARA20161228130512512/28/16 13:05:31  5-MIN KARA 281905Z 21009KT 10SM BKN010 OVC015 23/19 A3010 -140 78 800 210/09 RMK AO2 CIG 008V012 T02330194
53915KARA ARA20161228131013212/28/16 13:10:31  5-MIN KARA 281910Z 22008KT 10SM BKN010 BKN015 OVC021 23/19 A3010 -130 78 800 220/08 RMK AO2 CIG 008V012 T02330194
53915KARA ARA20161228232011912/28/16 23:20:31  5-MIN KARA 290520Z AUTO 21004KT 1/2SM FG VV002 21/19 A3009 -130 93 500 210/04 RMK AO2 T02060194 TSNO
53915KARA ARA20161228232511912/28/16 23:25:31  5-MIN KARA 290525Z AUTO 18004KT 1/4SM FG VV002 21/19 A3009 -120 93 500 180/04 RMK AO2 T02060194 TSNO
53915KARA ARA20161228233011912/28/16 23:30:31  5-MIN KARA 290530Z AUTO 19003KT 1/4SM FG VV002 20/19 A3009 -120 97 500 190/03 RMK AO2 T02000194 TSNO
53915KARA ARA20161228233511912/28/16 23:35:31  5-MIN KARA 290535Z AUTO 20003KT 1/2SM FG VV002 20/19 A3009 -120 97 500 200/03 RMK AO2 T02000194 TSNO
53915KARA ARA20161228234011912/28/16 23:40:31  5-MIN KARA 290540Z AUTO 19004KT 1/2SM FG VV002 20/19 A3009 -120 97 500 190/04 RMK AO2 T02000194 TSNO
53915KARA ARA20161228234511912/28/16 23:45:31  5-MIN KARA 290545Z AUTO 19005KT 1/2SM FG VV002 20/19 A3009 -120 93 500 190/05 RMK AO2 T02000189 TSNO
53915KARA ARA20161228235016012/28/16 23:50:31  5-MIN KARA 290550Z AUTO 19005KT 1/2SM FG VV002 20/19 A3008 -120 93 500 190/05 RMK AO2 SLP185 60000 T02000189 10206 20200 402500189 51006 TSNO
53915KARA ARA20161228235511912/28/16 23:55:31  5-MIN KARA 290555Z AUTO 19003KT 1/2SM FG VV002 20/19 A3008 -120 93 500 190/03 RMK AO2 T02000189 TSNO
53915KARA ARA20161229000011912/29/16 00:00:31  5-MIN KARA 290600Z AUTO 20003KT 1/2SM FG VV002 20/19 A3008 -120 97 500 200/03 RMK AO2 T02000194 TSNO
53915KARA ARA20161229000511912/29/16 00:05:31  5-MIN KARA 290605Z AUTO 21003KT 1/2SM FG VV002 20/19 A3008 -120 93 500 210/03 RMK AO2 T02000189 TSNO
53915KARA ARA20161229001011912/29/16 00:10:31  5-MIN KARA 290610Z AUTO 22004KT 1/2SM FG VV002 21/19 A3008 -110 93 500 210/04 RMK AO2 T02060194 TSNO
53915KARA ARA20161229001511912/29/16 00:15:31  5-MIN KARA 290615Z AUTO 22004KT 1/2SM FG VV002 21/19 A3008 -110 93 500 210/04 RMK AO2 T02060194 TSNO
53915KARA ARA20161229002011912/29/16 00:20:31  5-MIN KARA 290620Z AUTO 22005KT 1/2SM FG VV002 21/19 A3008 -110 93 500 210/05 RMK AO2 T02060194 TSNO
53915KARA ARA20161229002511912/29/16 00:25:31  5-MIN KARA 290625Z AUTO 23005KT 1/2SM FG VV002 21/19 A3008 -110 93 500 230/05 RMK AO2 T02060194 TSNO
53915KARA ARA20161229003011912/29/16 00:30:31  5-MIN KARA 290630Z AUTO 23005KT 3/4SM BR VV002 21/19 A3008 -120 93 500 230/05 RMK AO2 T02060194 TSNO
53915KARA ARA20161229003512212/29/16 00:35:31  5-MIN KARA 290635Z AUTO 24006KT 1 1/2SM BR OVC002 21/19 A3008 -120 90 600 240/06 RMK AO2 T02110194 TSNO
53915KARA ARA20161229004011812/29/16 00:40:31  5-MIN KARA 290640Z AUTO 24005KT 3SM BR OVC002 21/20 A3008 -120 93 600 240/05 RMK AO2 T02110200 TSNO
53915KARA ARA20161229004511812/29/16 00:45:31  5-MIN KARA 290645Z AUTO 24007KT 5SM BR OVC002 21/20 A3008 -120 93 600 240/07 RMK AO2 T02110200 TSNO
53915KARA ARA20161229005012512/29/16 00:50:31  5-MIN KARA 290650Z AUTO 24007KT 6SM BR OVC002 21/20 A3008 -120 93 600 240/07 RMK AO2 SLP185 T02110200 TSNO
53915KARA ARA20161229005511512/29/16 00:55:31  5-MIN KARA 290655Z AUTO 25006KT 7SM OVC003 21/20 A3008 -120 93 600 240/06 RMK AO2 T02110200 TSNO
53915KARA ARA20161229010012712/29/16 01:00:31  5-MIN KARA 290700Z AUTO 25006KT 7SM OVC003 21/20 A3008 -110 93 600 240/06 RMK AO2 CIG 002V006 T02110200 TSNO
53915KARA ARA20161229010513412/29/16 01:05:31  5-MIN KARA 290705Z AUTO 25007KT 7SM BKN004 OVC008 21/20 A3008 -110 93 600 240/07 RMK AO2 CIG 003V007 T02110200 TSNO
53915KARA ARA20161229011012712/29/16 01:10:31  5-MIN KARA 290710Z AUTO 25007KT 8SM OVC006 21/20 A3008 -120 93 600 250/07 RMK AO2 CIG 003V010 T02110200 TSNO
53915KARA ARA20161229011512712/29/16 01:15:31  5-MIN KARA 290715Z AUTO 24006KT 8SM OVC006 21/20 A3008 -120 93 600 240/06 RMK AO2 CIG 003V010 T02110200 TSNO
53915KARA ARA20161229012013412/29/16 01:20:31  5-MIN KARA 290720Z AUTO 24006KT 9SM BKN006 OVC012 21/20 A3008 -120 93 600 240/06 RMK AO2 CIG 004V008 T02110200 TSNO
53915KARA ARA20161229012513412/29/16 01:25:31  5-MIN KARA 290725Z AUTO 24006KT 9SM BKN006 OVC014 21/19 A3008 -120 90 600 240/06 RMK AO2 CIG 004V009 T02110194 TSNO
53915KARA ARA20161229013012212/29/16 01:30:31  5-MIN KARA 290730Z AUTO 24007KT 9SM SCT007 OVC016 21/19 A3009 -120 90 600 240/07 RMK AO2 T02110194 TSNO
53915KARA ARA20161229013512912/29/16 01:35:31  5-MIN KARA 290735Z AUTO 24006KT 9SM FEW007 SCT012 OVC018 21/19 A3008 -120 90 600 240/06 RMK AO2 T02110194 TSNO
53915KARA ARA20161229014012912/29/16 01:40:31  5-MIN KARA 290740Z AUTO 24006KT 9SM FEW007 BKN016 OVC022 21/20 A3008 -120 93 600 240/06 RMK AO2 T02110200 TSNO
53915KARA ARA20161229014512212/29/16 01:45:31  5-MIN KARA 290745Z AUTO 25005KT 9SM FEW010 OVC018 21/20 A3008 -120 93 600 250/05 RMK AO2 T02110200 TSNO
53915KARA ARA20161229015012912/29/16 01:50:31  5-MIN KARA 290750Z AUTO 25004KT 8SM SCT010 OVC018 21/20 A3008 -120 93 600 250/04 RMK AO2 SLP186 T02110200 TSNO
53915KARA ARA20161229015512912/29/16 01:55:31  5-MIN KARA 290755Z AUTO 24005KT 8SM FEW010 BKN016 OVC021 21/20 A3008 -120 93 600 240/05 RMK AO2 T02110200 TSNO
53915KARA ARA20161229020012212/29/16 02:00:31  5-MIN KARA 290800Z AUTO 25004KT 8SM FEW010 OVC016 21/20 A3008 -120 93 600 250/04 RMK AO2 T02110200 TSNO
53915KARA ARA20161229020512212/29/16 02:05:31  5-MIN KARA 290805Z AUTO 25004KT 8SM FEW010 OVC016 21/20 A3008 -120 93 600 250/04 RMK AO2 T02110200 TSNO
53915KARA ARA20161229021011512/29/16 02:10:31  5-MIN KARA 290810Z AUTO 24005KT 9SM OVC014 21/20 A3008 -120 93 600 240/05 RMK AO2 T02110200 TSNO
53915KARA ARA20161229021512312/29/16 02:15:31  5-MIN KARA 290815Z AUTO 24006KT 10SM BKN016 OVC020 21/20 A3008 -120 93 600 240/06 RMK AO2 T02110200 TSNO
53915KARA ARA20161229022012312/29/16 02:20:31  5-MIN KARA 290820Z AUTO 25005KT 10SM FEW010 OVC016 21/20 A3008 -120 93 600 250/05 RMK AO2 T02110200 TSNO
53915KARA ARA20161229022513012/29/16 02:25:31  5-MIN KARA 290825Z AUTO 25006KT 10SM FEW010 BKN018 OVC023 21/20 A3008 -120 93 600 250/06 RMK AO2 T02110200 TSNO
53915KARA ARA20161229023013012/29/16 02:30:31  5-MIN KARA 290830Z AUTO 25006KT 10SM FEW010 BKN016 OVC023 21/19 A3009 -120 90 600 250/06 RMK AO2 T02110194 TSNO
53915KARA ARA20161229023514612/29/16 02:35:31  5-MIN KARA 290835Z AUTO 27005KT 10SM -RA FEW009 SCT016 OVC023 22/20 A3009 -120 90 700 270/05 RMK AO2 RAB35 P0000 T02170200 TSNO
53915KARA ARA20161229024014512/29/16 02:40:31  5-MIN KARA 290840Z AUTO 27005KT 9SM -RA SCT007 BKN016 OVC023 22/20 A3009 -130 90 700 270/05 RMK AO2 RAB35 P0000 T02170200 TSNO
53915KARA ARA20161229024514512/29/16 02:45:31  5-MIN KARA 290845Z AUTO 26008KT 9SM -RA SCT007 SCT016 OVC023 22/20 A3009 -120 90 700 260/08 RMK AO2 RAB35 P0000 T02170200 TSNO
53915KARA ARA20161229025016412/29/16 02:50:31  5-MIN KARA 290850Z AUTO 26006KT 10SM FEW008 SCT016 OVC023 22/19 A3009 -120 87 700 250/06 RMK AO2 RAB35E48 SLP188 P0000 60000 T02170194 58000 TSNO
53915KARA ARA20161229025513012/29/16 02:55:31  5-MIN KARA 290855Z AUTO 26005KT 10SM FEW008 SCT016 OVC023 22/19 A3009 -120 87 700 260/05 RMK AO2 T02170194 TSNO
53915KARA ARA20161229030013012/29/16 03:00:31  5-MIN KARA 290900Z AUTO 26007KT 10SM FEW008 FEW016 OVC023 22/19 A3009 -120 87 700 250/07 RMK AO2 T02170194 TSNO
53915KARA ARA20161229030513012/29/16 03:05:31  5-MIN KARA 290905Z AUTO 26006KT 10SM FEW008 FEW016 OVC023 22/19 A3009 -120 87 700 260/06 RMK AO2 T02170194 TSNO
53915KARA ARA20161229031011612/29/16 03:10:31  5-MIN KARA 290910Z AUTO 25006KT 10SM OVC023 22/19 A3009 -120 87 700 250/06 RMK AO2 T02170194 TSNO
53915KARA ARA20161229031512312/29/16 03:15:31  5-MIN KARA 290915Z AUTO 26005KT 10SM FEW011 OVC023 22/19 A3009 -120 87 700 260/05 RMK AO2 T02170194 TSNO
53915KARA ARA20161229032013012/29/16 03:20:31  5-MIN KARA 290920Z AUTO 25006KT 10SM FEW011 SCT014 OVC022 22/19 A3008 -120 87 700 250/06 RMK AO2 T02170194 TSNO
53915KARA ARA20161229032513012/29/16 03:25:31  5-MIN KARA 290925Z AUTO 24006KT 10SM FEW009 BKN017 OVC022 22/19 A3008 -120 87 700 240/06 RMK AO2 T02170194 TSNO
53915KARA ARA20161229033013012/29/16 03:30:31  5-MIN KARA 290930Z AUTO 23006KT 10SM FEW009 SCT014 OVC020 22/19 A3008 -110 87 700 230/06 RMK AO2 T02170194 TSNO
53915KARA ARA20161229033512312/29/16 03:35:31  5-MIN KARA 290935Z AUTO 24005KT 10SM SCT012 OVC020 21/19 A3008 -110 90 600 240/05 RMK AO2 T02110194 TSNO
53915KARA ARA20161229034012312/29/16 03:40:31  5-MIN KARA 290940Z AUTO 25005KT 10SM SCT012 OVC020 21/19 A3008 -120 90 600 250/05 RMK AO2 T02110194 TSNO
53915KARA ARA20161229034512312/29/16 03:45:31  5-MIN KARA 290945Z AUTO 25005KT 10SM FEW010 OVC020 22/19 A3008 -120 87 700 250/05 RMK AO2 T02170194 TSNO
53915KARA ARA20161229035013012/29/16 03:50:31  5-MIN KARA 290950Z AUTO 24005KT 10SM FEW012 OVC020 22/20 A3008 -120 90 700 240/05 RMK AO2 SLP186 T02170200 TSNO
53915KARA ARA20161229035512312/29/16 03:55:31  5-MIN KARA 290955Z AUTO 24005KT 10SM SCT012 OVC019 22/19 A3008 -120 87 700 240/05 RMK AO2 T02170194 TSNO
53915KARA ARA20161229040012312/29/16 04:00:31  5-MIN KARA 291000Z AUTO 23005KT 10SM SCT012 OVC019 22/19 A3008 -120 87 700 230/05 RMK AO2 T02170194 TSNO
53915KARA ARA20161229040512212/29/16 04:05:31  5-MIN KARA 291005Z AUTO 24005KT 9SM BKN012 OVC019 22/20 A3008 -120 90 700 240/05 RMK AO2 T02170200 TSNO
53915KARA ARA20161229041012212/29/16 04:10:31  5-MIN KARA 291010Z AUTO 23005KT 9SM BKN011 OVC019 22/20 A3008 -120 90 700 230/05 RMK AO2 T02170200 TSNO
53915KARA ARA20161229041513412/29/16 04:15:31  5-MIN KARA 291015Z AUTO 25005KT 9SM BKN011 OVC017 22/20 A3008 -120 90 700 250/05 RMK AO2 CIG 008V012 T02170200 TSNO
53915KARA ARA20161229042013412/29/16 04:20:31  5-MIN KARA 291020Z AUTO 25005KT 9SM BKN010 OVC019 22/20 A3009 -120 90 700 250/05 RMK AO2 CIG 008V015 T02170200 TSNO
53915KARA ARA20161229042512712/29/16 04:25:31  5-MIN KARA 291025Z AUTO 25005KT 9SM OVC010 22/20 A3009 -120 90 700 250/05 RMK AO2 CIG 007V015 T02170200 TSNO
53915KARA ARA20161229043015012/29/16 04:30:31  5-MIN KARA 291030Z AUTO 25005KT 8SM -RA BKN010 OVC016 22/20 A3008 -120 90 700 250/05 RMK AO2 RAB30 CIG 007V012 P0000 T02170200 TSNO
53915KARA ARA20161229043514912/29/16 04:35:31  5-MIN KARA 291035Z AUTO 26005KT 8SM BKN008 OVC014 22/20 A3009 -120 90 700 260/05 RMK AO2 RAB30E32 CIG 007V010 P0000 T02170200 TSNO
53915KARA ARA20161229044014912/29/16 04:40:31  5-MIN KARA 291040Z AUTO 26005KT 8SM BKN008 OVC014 22/20 A3009 -120 90 700 260/05 RMK AO2 RAB30E40 CIG 007V010 P0000 T02170200 TSNO
53915KARA ARA20161229044514912/29/16 04:45:31  5-MIN KARA 291045Z AUTO 26005KT 8SM BKN008 OVC014 22/20 A3009 -120 90 700 250/05 RMK AO2 RAB30E40 CIG 007V013 P0000 T02170200 TSNO
53915KARA ARA20161229045015612/29/16 04:50:31  5-MIN KARA 291050Z AUTO 26005KT 8SM BKN008 OVC014 22/20 A3009 -120 90 700 260/05 RMK AO2 RAB30E40 CIG 007V010 SLP188 P0000 T02170200 TSNO
53915KARA ARA20161229045514112/29/16 04:55:31  5-MIN KARA 291055Z AUTO 25006KT 8SM BKN009 BKN016 OVC020 22/20 A3009 -120 90 700 250/06 RMK AO2 CIG 007V011 T02170200 TSNO
53915KARA ARA20161229050014112/29/16 05:00:31  5-MIN KARA 291100Z AUTO 26005KT 9SM BKN009 BKN016 OVC020 22/20 A3009 -120 90 700 260/05 RMK AO2 CIG 007V013 T02170200 TSNO
53915KARA ARA20161229050512912/29/16 05:05:31  5-MIN KARA 291105Z AUTO 25006KT 9SM SCT009 BKN015 OVC022 22/19 A3009 -130 87 700 250/06 RMK AO2 T02170194 TSNO
53915KARA ARA20161229051013412/29/16 05:10:31  5-MIN KARA 291110Z AUTO 25006KT 9SM BKN009 OVC022 22/19 A3009 -130 87 700 250/06 RMK AO2 CIG 006V012 T02170194 TSNO
53915KARA ARA20161229051512312/29/16 05:15:31  5-MIN KARA 291115Z AUTO 26007KT 10SM BKN009 OVC022 22/19 A3009 -130 87 700 260/07 RMK AO2 T02170194 TSNO
53915KARA ARA20161229052012312/29/16 05:20:31  5-MIN KARA 291120Z AUTO 26007KT 10SM BKN008 OVC022 22/19 A3009 -130 87 700 260/07 RMK AO2 T02170194 TSNO
53915KARA ARA20161229052512312/29/16 05:25:31  5-MIN KARA 291125Z AUTO 27005KT 10SM BKN008 OVC022 22/20 A3009 -130 90 700 260/05 RMK AO2 T02170200 TSNO
53915KARA ARA20161229053012312/29/16 05:30:31  5-MIN KARA 291130Z AUTO 26007KT 10SM BKN008 OVC022 22/20 A3010 -130 90 700 260/07 RMK AO2 T02170200 TSNO
53915KARA ARA20161229053513512/29/16 05:35:31  5-MIN KARA 291135Z AUTO 26008KT 10SM BKN008 OVC016 22/19 A3010 -130 87 700 260/08 RMK AO2 CIG 006V012 T02170194 TSNO
53915KARA ARA20161229054013512/29/16 05:40:31  5-MIN KARA 291140Z AUTO 27006KT 10SM BKN008 OVC016 22/19 A3010 -130 87 600 260/06 RMK AO2 CIG 007V012 T02170194 TSNO
53915KARA ARA20161229054513012/29/16 05:45:31  5-MIN KARA 291145Z AUTO 27006KT 10SM BKN008 BKN012 OVC018 22/20 A3010 -130 90 600 270/06 RMK AO2 T02170200 TSNO
53915KARA ARA20161229055014412/29/16 05:50:31  5-MIN KARA 291150Z 26006KT 10SM SCT008 OVC018 22/19 A3010 -130 87 700 260/06 RMK AO2 SLP191 60000 T02170194 10217 20200 53002
53915KARA ARA20161229055512012/29/16 05:55:31  5-MIN KARA 291155Z 26008KT 10SM SCT008 BKN018 OVC027 22/19 A3010 -130 87 600 260/08 RMK AO2 T02170194
53915KARA ARA20161229060011312/29/16 06:00:31  5-MIN KARA 291200Z 27006KT 10SM FEW010 OVC018 22/19 A3010 -130 87 600 260/06 RMK AO2 T02170194
53915KARA ARA20161229060511312/29/16 06:05:31  5-MIN KARA 291205Z 27006KT 10SM SCT010 OVC018 22/20 A3010 -140 90 600 270/06 RMK AO2 T02170200
53915KARA ARA20161229061011312/29/16 06:10:31  5-MIN KARA 291210Z 28007KT 10SM SCT010 OVC020 22/20 A3011 -140 90 600 280/07 RMK AO2 T02170200
53915KARA ARA20161229061512012/29/16 06:15:31  5-MIN KARA 291215Z 27008KT 10SM FEW008 BKN013 OVC020 22/20 A3011 -140 90 600 270/08 RMK AO2 T02170200
53915KARA ARA20161229062012512/29/16 06:20:31  5-MIN KARA 291220Z 27006KT 10SM BKN010 OVC020 22/20 A3011 -150 90 600 270/06 RMK AO2 CIG 007V014 T02170200
53915KARA ARA20161229062513212/29/16 06:25:31  5-MIN KARA 291225Z 27009KT 10SM BKN010 BKN015 OVC020 22/19 A3011 -150 87 600 270/09 RMK AO2 CIG 007V012 T02170194
53915KARA ARA20161229063013212/29/16 06:30:31  5-MIN KARA 291230Z 28008KT 10SM BKN010 BKN015 OVC035 22/19 A3012 -150 87 600 280/08 RMK AO2 CIG 007V012 T02170194
53915KARA ARA20161229063513212/29/16 06:35:31  5-MIN KARA 291235Z 28007KT 10SM BKN010 BKN022 OVC050 22/19 A3011 -150 87 600 270/07 RMK AO2 CIG 007V016 T02170194
53915KARA ARA20161229064012012/29/16 06:40:31  5-MIN KARA 291240Z 27007KT 10SM BKN010 BKN024 OVC050 22/19 A3011 -150 87 600 270/07 RMK AO2 T02170194
53915KARA ARA20161229064512012/29/16 06:45:31  5-MIN KARA 291245Z 28008KT 10SM BKN012 BKN024 OVC090 22/19 A3012 -150 87 600 270/08 RMK AO2 T02170194
53915KARA ARA20161229065012712/29/16 06:50:31  5-MIN KARA 291250Z 28007KT 10SM BKN012 BKN034 OVC085 22/19 A3012 -150 87 600 280/07 RMK AO2 SLP198 T02170194
53915KARA ARA20161229065512012/29/16 06:55:31  5-MIN KARA 291255Z 28006KT 10SM BKN012 BKN034 OVC085 22/19 A3012 -150 87 600 280/06 RMK AO2 T02170194
53915KARA ARA20161229070011912/29/16 07:00:31  5-MIN KARA 291300Z 29005KT 9SM BKN012 BKN050 OVC085 22/19 A3012 -150 87 600 290/05 RMK AO2 T02170194
53915KARA ARA20161229070511212/29/16 07:05:31  5-MIN KARA 291305Z 29006KT 9SM BKN012 OVC085 22/19 A3012 -160 87 600 280/06 RMK AO2 T02170194
53915KARA ARA20161229071011912/29/16 07:10:31  5-MIN KARA 291310Z 28007KT 9SM BKN012 BKN070 OVC085 22/19 A3013 -160 87 600 280/07 RMK AO2 T02170194
53915KARA ARA20161229071511212/29/16 07:15:31  5-MIN KARA 291315Z 28006KT 8SM BKN011 OVC070 22/19 A3013 -160 87 600 280/06 RMK AO2 T02170194
53915KARA ARA20161229072011912/29/16 07:20:31  5-MIN KARA 291320Z 29005KT 8SM BKN011 BKN027 OVC070 22/19 A3013 -160 87 600 290/05 RMK AO2 T02170194
53915KARA ARA20161229072511912/29/16 07:25:31  5-MIN KARA 291325Z 29005KT 8SM BKN011 BKN025 OVC070 22/19 A3013 -160 87 600 290/05 RMK AO2 T02170194
53915KARA ARA20161229073013112/29/16 07:30:31  5-MIN KARA 291330Z 29005KT 8SM BKN011 BKN015 OVC070 22/20 A3013 -160 90 600 290/05 RMK AO2 CIG 008V013 T02170200
53915KARA ARA20161229073511912/29/16 07:35:31  5-MIN KARA 291335Z 29005KT 8SM BKN011 BKN025 OVC070 22/19 A3013 -160 87 600 290/05 RMK AO2 T02170194
53915KARA ARA20161229074011912/29/16 07:40:31  5-MIN KARA 291340Z 29007KT 8SM BKN011 BKN019 OVC034 22/19 A3013 -160 87 600 280/07 RMK AO2 T02170194
53915KARA ARA20161229074511912/29/16 07:45:31  5-MIN KARA 291345Z 29007KT 7SM FEW009 BKN014 OVC026 22/19 A3014 -170 87 600 290/07 RMK AO2 T02170194
53915KARA ARA20161229075012612/29/16 07:50:31  5-MIN KARA 291350Z 30009KT 7SM SCT009 BKN020 OVC026 22/19 A3014 -170 87 600 290/09 RMK AO2 SLP205 T02170194
53915KARA ARA20161229075513212/29/16 07:55:31  5-MIN KARA 291355Z 01020G24KT 8SM SCT011 BKN020 OVC026 22/19 A3016 -190 84 600 360/20G24 RMK AO2 PRESRR T02170189
53915KARA ARA20161229080015112/29/16 08:00:31  5-MIN KARA 291400Z 01019G25KT 10SM -RA FEW011 BKN020 OVC036 19/15 A3017 -200 75 300 010/19G25 RMK AO2 RAB1357 PRESRR P0000 T01940150
53915KARA ARA20161229080515112/29/16 08:05:31  5-MIN KARA 291405Z 02017G25KT 10SM -RA FEW011 BKN027 OVC045 19/14 A3017 -200 72 200 010/17G25 RMK AO2 RAB1357 PRESRR P0000 T01890139
53915KARA ARA20161229081017912/29/16 08:10:31  5-MIN KARA 291410Z 36023G29KT 10SM -RA FEW010 BKN039 OVC049 18/13 A3018 -210 75 100 360/23G29 RMK AO2 PK WND 36029/1410 WSHFT 1354 RAB1357E08B10 P0000 T01780133
53915KARA ARA20161229081518412/29/16 08:15:31  5-MIN KARA 291415Z 01018G30KT 10SM -RA FEW018 BKN050 OVC060 17/13 A3019 -210 75 0 010/18G30 RMK AO2 PK WND 01030/1411 WSHFT 1354 RAB1357E08B10 PRESRR P0000 T01720128
53915KARA ARA20161229082018412/29/16 08:20:31  5-MIN KARA 291420Z 01020G30KT 10SM -RA FEW016 BKN048 OVC080 17/13 A3019 -220 75 0 010/20G30 RMK AO2 PK WND 01030/1411 WSHFT 1354 RAB1357E08B10 PRESRR P0000 T01720128
53915KARA ARA20161229082517712/29/16 08:25:31  5-MIN KARA 291425Z 01023G29KT 10SM -RA FEW032 SCT047 BKN060 17/12 A3019 -220 72 0 010/23G29 RMK AO2 PK WND 01030/1411 WSHFT 1354 RAB1357E08B10 P0000 T01720122
53915KARA ARA20161229083017712/29/16 08:30:31  5-MIN KARA 291430Z 01018G29KT 10SM -RA FEW038 SCT060 BKN080 17/13 A3020 -220 75 0 010/18G29 RMK AO2 PK WND 01030/1411 WSHFT 1354 RAB1357E08B10 P0000 T01720128
53915KARA ARA20161229083517112/29/16 08:35:31  5-MIN KARA 291435Z 02018KT 10SM -RA FEW049 FEW060 SCT080 17/13 A3020 -230 75 0 020/18 RMK AO2 PK WND 01030/1411 WSHFT 1354 RAB1357E08B10 P0000 T01720128
53915KARA ARA20161229084017012/29/16 08:40:31  5-MIN KARA 291440Z 01020G27KT 10SM -RA FEW060 SCT080 17/13 A3020 -230 75 0 010/20G27 RMK AO2 PK WND 01030/1411 WSHFT 1354 RAB1357E08B10 P0000 T01720128
53915KARA ARA20161229084516512/29/16 08:45:31  5-MIN KARA 291445Z 01021G28KT 10SM -RA FEW080 18/13 A3020 -230 72 100 010/21G28 RMK AO2 PK WND 01030/1411 WSHFT 1354 RAB1357E08B10 P0000 T01780128
53915KARA ARA20161229085018412/29/16 08:50:31  5-MIN KARA 291450Z 01021G29KT 10SM -RA FEW075 18/12 A3021 -240 69 100 010/21G29 RMK AO2 PK WND 01030/1411 WSHFT 1354 RAB1357E08B10 SLP229 P0000 60000 T01780122 53003
53915KARA ARA20161229085511912/29/16 08:55:31  5-MIN KARA 291455Z 02017G29KT 10SM -RA CLR 18/13 A3021 -240 70 100 010/17G29 RMK AO2 P0000 T01830128
53915KARA ARA20161229090011912/29/16 09:00:31  5-MIN KARA 291500Z 02019G25KT 10SM -RA CLR 18/13 A3022 -240 70 100 020/19G25 RMK AO2 P0000 T01830128
53915KARA ARA20161229090514412/29/16 09:05:31  5-MIN KARA 291505Z 01019G26KT 10SM -RA CLR 18/12 A3023 -250 67 100 010/19G26 RMK AO2 PK WND 01026/1505 PRESRR P0000 T01830122
53915KARA ARA20161229091013512/29/16 09:10:31  5-MIN KARA 291510Z 02021G28KT 10SM -RA CLR 18/12 A3023 -250 67 0 010/21G28 RMK AO2 PK WND 01028/1509 P0000 T01780117
53915KARA ARA20161229091513712/29/16 09:15:31  5-MIN KARA 291515Z 01020G28KT 10SM -RA CLR 18/12 A3023 -260 65 100 010/20G28 RMK AO2 PK WND 02028/1512 P0000 T01830117
53915KARA ARA20161229092013712/29/16 09:20:31  5-MIN KARA 291520Z 02017G28KT 10SM -RA CLR 18/12 A3024 -260 65 100 020/17G28 RMK AO2 PK WND 02028/1512 P0000 T01830117
53915KARA ARA20161229092513712/29/16 09:25:31  5-MIN KARA 291525Z 02019G26KT 10SM -RA CLR 19/12 A3024 -260 65 200 020/19G26 RMK AO2 PK WND 02028/1512 P0000 T01890122
53915KARA ARA20161229093013912/29/16 09:30:31  5-MIN KARA 291530Z 02020G26KT 10SM CLR 19/12 A3024 -270 62 200 020/20G26 RMK AO2 PK WND 02028/1512 RAE26 P0000 T01890117
53915KARA ARA20161229093513712/29/16 09:35:31  5-MIN KARA 291535Z 03022G28KT 10SM -RA CLR 19/11 A3025 -270 60 200 020/22G28 RMK AO2 PK WND 02028/1512 P0000 T01890111
53915KARA ARA20161229094013712/29/16 09:40:31  5-MIN KARA 291540Z 02022G29KT 10SM -RA CLR 19/11 A3025 -270 58 200 020/22G29 RMK AO2 PK WND 03029/1539 P0000 T01890106
53915KARA ARA20161229094513712/29/16 09:45:31  5-MIN KARA 291545Z 02023G29KT 10SM -RA CLR 19/10 A3025 -270 56 200 020/23G29 RMK AO2 PK WND 02029/1545 P0000 T01890100
53915KARA ARA20161229095014412/29/16 09:50:31  5-MIN KARA 291550Z 03022G31KT 10SM -RA CLR 19/09 A3026 -280 52 100 030/22G31 RMK AO2 PK WND 02031/1547 SLP244 P0000 T01890089
53915KARA ARA20161229095513712/29/16 09:55:31  5-MIN KARA 291555Z 02023G34KT 10SM -RA CLR 19/09 A3026 -280 52 200 020/23G34 RMK AO2 PK WND 02034/1555 P0000 T01940094
53915KARA ARA20161229100013712/29/16 10:00:31  5-MIN KARA 291600Z 02023G34KT 10SM -RA CLR 19/08 A3026 -290 46 200 020/23G34 RMK AO2 PK WND 02034/1555 P0000 T01940078
53915KARA ARA20161229100513712/29/16 10:05:31  5-MIN KARA 291605Z 03021G31KT 10SM -RA CLR 19/08 A3026 -280 46 200 030/21G31 RMK AO2 PK WND 02034/1555 P0000 T01940078
53915KARA ARA20161229101013712/29/16 10:10:31  5-MIN KARA 291610Z 02019G29KT 10SM -RA CLR 19/08 A3026 -280 48 100 020/19G29 RMK AO2 PK WND 02034/1555 P0000 T01890078
53915KARA ARA20161229101513712/29/16 10:15:31  5-MIN KARA 291615Z 02021G30KT 10SM -RA CLR 19/07 A3026 -280 46 100 010/21G30 RMK AO2 PK WND 02034/1555 P0000 T01890072
53915KARA ARA20161229102013712/29/16 10:20:31  5-MIN KARA 291620Z 02022G30KT 10SM -RA CLR 19/07 A3027 -290 46 100 020/22G30 RMK AO2 PK WND 02034/1555 P0000 T01890072
53915KARA ARA20161229102513712/29/16 10:25:31  5-MIN KARA 291625Z 03022G29KT 10SM -RA CLR 19/07 A3027 -290 44 100 030/22G29 RMK AO2 PK WND 02034/1555 P0000 T01890067
53915KARA ARA20161229103013712/29/16 10:30:31  5-MIN KARA 291630Z 03022G29KT 10SM -RA CLR 18/07 A3027 -290 46 100 030/22G29 RMK AO2 PK WND 02034/1555 P0000 T01830067
53915KARA ARA20161229103513112/29/16 10:35:31  5-MIN KARA 291635Z 02020KT 10SM -RA CLR 19/07 A3028 -300 44 100 020/20 RMK AO2 PK WND 02034/1555 P0000 T01890067
53915KARA ARA20161229104013712/29/16 10:40:31  5-MIN KARA 291640Z 01023G28KT 10SM -RA CLR 19/07 A3028 -300 43 200 010/23G28 RMK AO2 PK WND 02034/1555 P0000 T01940067
53915KARA ARA20161229104513712/29/16 10:45:31  5-MIN KARA 291645Z 03022G30KT 10SM -RA CLR 19/05 A3027 -290 38 200 030/22G30 RMK AO2 PK WND 02034/1555 P0000 T01940050
53915KARA ARA20161229105014412/29/16 10:50:31  5-MIN KARA 291650Z 03020G30KT 10SM -RA CLR 19/05 A3027 -290 38 200 030/20G30 RMK AO2 PK WND 02034/1555 SLP251 P0000 T01940050
53915KARA ARA20161229105513712/29/16 10:55:31  5-MIN KARA 291655Z 02024G29KT 10SM -RA CLR 19/06 A3027 -290 41 100 010/24G29 RMK AO2 PK WND 02029/1655 P0000 T01890056
53915KARA ARA20161229110013912/29/16 11:00:31  5-MIN KARA 291700Z 02019G29KT 10SM CLR 19/05 A3027 -290 39 100 020/19G29 RMK AO2 PK WND 02029/1655 RAE00 P0000 T01890050
53915KARA ARA20161229110513912/29/16 11:05:31  5-MIN KARA 291705Z 01022G28KT 10SM CLR 19/05 A3028 -300 38 200 010/22G28 RMK AO2 PK WND 02029/1655 RAE00 P0000 T01940050
53915KARA ARA20161229111013912/29/16 11:10:31  5-MIN KARA 291710Z 02019G28KT 10SM CLR 19/05 A3028 -300 38 200 020/19G28 RMK AO2 PK WND 02029/1655 RAE00 P0000 T01940050
53915KARA ARA20161229111513912/29/16 11:15:31  5-MIN KARA 291715Z 01018G27KT 10SM CLR 19/04 A3027 -290 37 200 010/18G27 RMK AO2 PK WND 02029/1655 RAE00 P0000 T01940044
53915KARA ARA20161229112013912/29/16 11:20:31  5-MIN KARA 291720Z 02024G32KT 10SM CLR 19/03 A3027 -290 35 100 020/24G32 RMK AO2 PK WND 02032/1720 RAE00 P0000 T01890033
53915KARA ARA20161229112513912/29/16 11:25:31  5-MIN KARA 291725Z 01023G32KT 10SM CLR 19/02 A3028 -300 32 100 010/23G32 RMK AO2 PK WND 02032/1720 RAE00 P0000 T01890022
53915KARA ARA20161229113013912/29/16 11:30:31  5-MIN KARA 291730Z 02026G32KT 10SM CLR 18/02 A3028 -300 32 100 020/26G32 RMK AO2 PK WND 01032/1729 RAE00 P0000 T01830017
53915KARA ARA20161229113513912/29/16 11:35:31  5-MIN KARA 291735Z 02020G32KT 10SM CLR 18/02 A3028 -300 32 100 020/20G32 RMK AO2 PK WND 01032/1729 RAE00 P0000 T01830017
53915KARA ARA20161229114013912/29/16 11:40:31  5-MIN KARA 291740Z 02020G31KT 10SM CLR 18/02 A3028 -300 34 100 020/20G31 RMK AO2 PK WND 01032/1729 RAE00 P0000 T01830022
53915KARA ARA20161229114513912/29/16 11:45:31  5-MIN KARA 291745Z 03024G29KT 10SM CLR 18/01 A3028 -300 31 100 030/24G29 RMK AO2 PK WND 01032/1729 RAE00 P0000 T01830011
53915KARA ARA20161229115017012/29/16 11:50:31  5-MIN KARA 291750Z 02014G29KT 10SM CLR 18/02 A3028 -300 34 100 020/14G29 RMK AO2 PK WND 01032/1729 RAE00 SLP253 P0000 60000 T01830022 10217 20172 53039
53915KARA ARA20161229115510912/29/16 11:55:31  5-MIN KARA 291755Z 02019G24KT 10SM CLR 18/02 A3028 -300 34 100 020/19G24 RMK AO2 T01830022
53915KARA ARA20161229120012712/29/16 12:00:31  5-MIN KARA 291800Z 02020G27KT 10SM CLR 18/02 A3028 -300 34 100 020/20G27 RMK AO2 PK WND 02027/1800 T01830022
53915KARA ARA20161229120512712/29/16 12:05:31  5-MIN KARA 291805Z 01017G27KT 10SM CLR 18/02 A3027 -300 34 100 010/17G27 RMK AO2 PK WND 02027/1800 T01830022
53915KARA ARA20161229121012712/29/16 12:10:31  5-MIN KARA 291810Z 02023G27KT 10SM CLR 18/02 A3028 -300 32 100 020/23G27 RMK AO2 PK WND 02027/1809 T01830017
53915KARA ARA20161229121512712/29/16 12:15:31  5-MIN KARA 291815Z 02022G27KT 10SM CLR 18/01 A3027 -290 31 100 020/22G27 RMK AO2 PK WND 02027/1814 T01830011
53915KARA ARA20161229122012712/29/16 12:20:31  5-MIN KARA 291820Z 01021G31KT 10SM CLR 18/01 A3027 -290 30 100 010/21G31 RMK AO2 PK WND 01031/1818 T01830006
53915KARA ARA20161229122512712/29/16 12:25:31  5-MIN KARA 291825Z 01020G31KT 10SM CLR 18/00 A3028 -300 29 100 010/20G31 RMK AO2 PK WND 01031/1818 T01830000
53915KARA ARA20161229123012712/29/16 12:30:31  5-MIN KARA 291830Z 01021G27KT 10SM CLR 18/00 A3027 -290 29 100 010/21G27 RMK AO2 PK WND 01031/1818 T01830000
53915KARA ARA20161229123512612/29/16 12:35:31  5-MIN KARA 291835Z 01020G27KT 10SM CLR 18/M01 A3028 -300 28 0 010/20G27 RMK AO2 PK WND 01031/1818 T01781006
53915KARA ARA20161229124012612/29/16 12:40:31  5-MIN KARA 291840Z 01016G26KT 10SM CLR 18/M01 A3028 -300 28 0 010/16G26 RMK AO2 PK WND 01031/1818 T01781006
53915KARA ARA20161229124512612/29/16 12:45:31  5-MIN KARA 291845Z 02017G22KT 10SM CLR 18/M01 A3027 -290 28 0 010/17G22 RMK AO2 PK WND 01031/1818 T01781006
53915KARA ARA20161229125013312/29/16 12:50:31  5-MIN KARA 291850Z 02017G25KT 10SM CLR 18/M01 A3027 -290 28 0 020/17G25 RMK AO2 PK WND 01031/1818 SLP250 T01781006
53915KARA ARA20161229125510812/29/16 12:55:31  5-MIN KARA 291855Z 02015G25KT 10SM CLR 18/M01 A3028 -300 28 0 020/15G25 RMK AO2 T01781006
53915KARA ARA20161229130010212/29/16 13:00:31  5-MIN KARA 291900Z 01014KT 10SM CLR 18/M01 A3028 -300 28 0 010/14 RMK AO2 T01781006
53915KARA ARA20161229130510212/29/16 13:05:31  5-MIN KARA 291905Z 01014KT 10SM CLR 18/M01 A3027 -290 28 0 010/14 RMK AO2 T01781006
53915KARA ARA20161229131010212/29/16 13:10:31  5-MIN KARA 291910Z 02015KT 10SM CLR 18/M01 A3027 -300 27 0 020/15 RMK AO2 T01781011
53915KARA ARA20161229131510812/29/16 13:15:31  5-MIN KARA 291915Z 02019G25KT 10SM CLR 18/M02 A3027 -290 25 0 010/19G25 RMK AO2 T01781022
53915KARA ARA20161229132010812/29/16 13:20:31  5-MIN KARA 291920Z 02018G25KT 10SM CLR 18/M04 A3027 -290 22 0 020/18G25 RMK AO2 T01781039
53915KARA ARA20161229132511012/29/16 13:25:31  5-MIN KARA 291925Z 02020G24KT 10SM CLR 18/M04 A3027 -290 21 100 020/20G24 RMK AO2 T01831039
53915KARA ARA20161229133012812/29/16 13:30:31  5-MIN KARA 291930Z 02020G26KT 10SM CLR 19/M04 A3027 -290 21 100 010/20G26 RMK AO2 PK WND 01026/1930 T01891039
53915KARA ARA20161229133512812/29/16 13:35:31  5-MIN KARA 291935Z 02020G26KT 10SM CLR 19/M04 A3027 -290 20 100 020/20G26 RMK AO2 PK WND 01026/1930 T01891044
53915KARA ARA20161229134012812/29/16 13:40:31  5-MIN KARA 291940Z 02017G23KT 10SM CLR 19/M04 A3027 -290 20 200 020/17G23 RMK AO2 PK WND 01026/1930 T01941039
53915KARA ARA20161229134512812/29/16 13:45:31  5-MIN KARA 291945Z 02018G24KT 10SM CLR 19/M03 A3027 -290 21 200 020/18G24 RMK AO2 PK WND 01026/1930 T01941033
53915KARA ARA20161229135013512/29/16 13:50:31  5-MIN KARA 291950Z 02017G24KT 10SM CLR 19/M04 A3027 -290 20 100 020/17G24 RMK AO2 PK WND 01026/1930 SLP249 T01891044
53915KARA ARA20161229135511012/29/16 13:55:31  5-MIN KARA 291955Z 03018G24KT 10SM CLR 19/M04 A3027 -290 21 100 030/18G24 RMK AO2 T01891039
53915KARA ARA20161229140011012/29/16 14:00:31  5-MIN KARA 292000Z 02014G23KT 10SM CLR 19/M03 A3027 -290 22 200 020/14G23 RMK AO2 T01941028
53915KARA ARA20161229140510412/29/16 14:05:31  5-MIN KARA 292005Z 01013KT 10SM CLR 19/M02 A3027 -290 24 200 010/13 RMK AO2 T01941017
53915KARA ARA20161229141011012/29/16 14:10:31  5-MIN KARA 292010Z 36016G22KT 10SM CLR 19/M02 A3027 -290 24 100 360/16G22 RMK AO2 T01891017
53915KARA ARA20161229141511012/29/16 14:15:31  5-MIN KARA 292015Z 36015G22KT 10SM CLR 18/M03 A3027 -290 23 100 360/15G22 RMK AO2 T01831028
53915KARA ARA20161229142010412/29/16 14:20:31  5-MIN KARA 292020Z 36015KT 10SM CLR 19/M03 A3027 -290 22 100 360/15 RMK AO2 T01891033
53915KARA ARA20161229142510412/29/16 14:25:31  5-MIN KARA 292025Z 01015KT 10SM CLR 18/M03 A3027 -290 22 100 010/15 RMK AO2 T01831033
53915KARA ARA20161229143010412/29/16 14:30:31  5-MIN KARA 292030Z 36018KT 10SM CLR 18/M04 A3028 -300 21 100 360/18 RMK AO2 T01831039
53915KARA ARA20161229143510212/29/16 14:35:31  5-MIN KARA 292035Z 36014KT 10SM CLR 18/M04 A3028 -300 22 0 360/14 RMK AO2 T01781039
53915KARA ARA20161229144010812/29/16 14:40:31  5-MIN KARA 292040Z 01017G23KT 10SM CLR 18/M04 A3028 -300 22 0 010/17G23 RMK AO2 T01781039
53915KARA ARA20161229144510812/29/16 14:45:31  5-MIN KARA 292045Z 36018G25KT 10SM CLR 18/M04 A3028 -300 21 0 360/18G25 RMK AO2 T01781044
53915KARA ARA20161229145012112/29/16 14:50:31  5-MIN KARA 292050Z 36020G25KT 10SM CLR 17/M06 A3028 -300 20 0 360/20G25 RMK AO2 SLP252 T01721056 51022
53915KARA ARA20161229145510812/29/16 14:55:31  5-MIN KARA 292055Z 01017G28KT 10SM CLR 17/M06 A3028 -300 20 0 010/17G28 RMK AO2 T01721056
53915KARA ARA20161229150010812/29/16 15:00:31  5-MIN KARA 292100Z 01018G28KT 10SM CLR 17/M06 A3028 -300 20 0 010/18G28 RMK AO2 T01721056
53915KARA ARA20161229150512612/29/16 15:05:31  5-MIN KARA 292105Z 02019G29KT 10SM CLR 17/M06 A3029 -310 19 0 010/19G29 RMK AO2 PK WND 02029/2101 T01721061
53915KARA ARA20161229151012612/29/16 15:10:31  5-MIN KARA 292110Z 01019G29KT 10SM CLR 17/M06 A3029 -310 20 0 010/19G29 RMK AO2 PK WND 02029/2101 T01721056
53915KARA ARA20161229151512912/29/16 15:15:31  5-MIN KARA 292115Z 01019G28KT 10SM CLR 17/M06 A3029 -310 20 -100 010/19G28 RMK AO2 PK WND 02029/2101 T01671061
53915KARA ARA20161229152012912/29/16 15:20:31  5-MIN KARA 292120Z 01022G28KT 10SM CLR 17/M06 A3029 -310 21 -100 010/22G28 RMK AO2 PK WND 02029/2101 T01671056
53915KARA ARA20161229152512912/29/16 15:25:31  5-MIN KARA 292125Z 01017G28KT 10SM CLR 17/M06 A3029 -310 21 -100 010/17G28 RMK AO2 PK WND 02029/2101 T01671056
53915KARA ARA20161229153012912/29/16 15:30:31  5-MIN KARA 292130Z 01019G32KT 10SM CLR 17/M07 A3029 -310 19 -100 010/19G32 RMK AO2 PK WND 02032/2128 T01671067
53915KARA ARA20161229153512912/29/16 15:35:31  5-MIN KARA 292135Z 02023G32KT 10SM CLR 17/M07 A3028 -300 19 -100 020/23G32 RMK AO2 PK WND 02032/2128 T01671067
53915KARA ARA20161229154012912/29/16 15:40:31  5-MIN KARA 292140Z 01020G30KT 10SM CLR 17/M06 A3028 -300 20 -100 010/20G30 RMK AO2 PK WND 02032/2128 T01671061
53915KARA ARA20161229154512912/29/16 15:45:31  5-MIN KARA 292145Z 01020G26KT 10SM CLR 17/M06 A3029 -310 21 -100 010/20G26 RMK AO2 PK WND 02032/2128 T01671056
53915KARA ARA20161229155013612/29/16 15:50:31  5-MIN KARA 292150Z 02019G25KT 10SM CLR 17/M05 A3029 -310 22 -100 020/19G25 RMK AO2 PK WND 02032/2128 SLP256 T01671050
53915KARA ARA20161229155511112/29/16 15:55:31  5-MIN KARA 292155Z 02020G27KT 10SM CLR 17/M05 A3029 -310 22 -100 010/20G27 RMK AO2 T01671050
53915KARA ARA20161229160011112/29/16 16:00:31  5-MIN KARA 292200Z 02015G27KT 10SM CLR 17/M04 A3029 -310 23 -100 020/15G27 RMK AO2 T01671044
53915KARA ARA20161229160510512/29/16 16:05:31  5-MIN KARA 292205Z 02018KT 10SM CLR 16/M04 A3029 -310 24 -200 020/18 RMK AO2 T01611044
53915KARA ARA20161229161011112/29/16 16:10:31  5-MIN KARA 292210Z 01017G25KT 10SM CLR 16/M04 A3029 -310 24 -200 010/17G25 RMK AO2 T01611044
53915KARA ARA20161229161511112/29/16 16:15:31  5-MIN KARA 292215Z 02020G25KT 10SM CLR 16/M04 A3029 -310 24 -200 020/20G25 RMK AO2 T01611044
53915KARA ARA20161229162011112/29/16 16:20:31  5-MIN KARA 292220Z 02017G25KT 10SM CLR 16/M04 A3029 -310 25 -200 020/17G25 RMK AO2 T01611039
53915KARA ARA20161229162511112/29/16 16:25:31  5-MIN KARA 292225Z 02016G25KT 10SM CLR 16/M03 A3030 -320 26 -200 020/16G25 RMK AO2 T01611033
53915KARA ARA20161229163011112/29/16 16:30:31  5-MIN KARA 292230Z 01012G23KT 10SM CLR 16/M03 A3030 -320 28 -200 010/12G23 RMK AO2 T01561028
53915KARA ARA20161229163511112/29/16 16:35:31  5-MIN KARA 292235Z 02016G22KT 10SM CLR 16/M03 A3030 -320 27 -200 020/16G22 RMK AO2 T01561033
53915KARA ARA20161229164011112/29/16 16:40:31  5-MIN KARA 292240Z 02013G22KT 10SM CLR 16/M03 A3030 -320 27 -200 010/13G22 RMK AO2 T01561033
53915KARA ARA20161229164511112/29/16 16:45:31  5-MIN KARA 292245Z 02012G22KT 10SM CLR 16/M03 A3030 -320 28 -200 020/12G22 RMK AO2 T01561028
53915KARA ARA20161229165011812/29/16 16:50:31  5-MIN KARA 292250Z 01010G18KT 10SM CLR 16/M03 A3031 -320 28 -200 010/10G18 RMK AO2 SLP261 T01561028
53915KARA ARA20161229165511112/29/16 16:55:31  5-MIN KARA 292255Z 02014G18KT 10SM CLR 15/M03 A3031 -330 29 -300 020/14G18 RMK AO2 T01501028
53915KARA ARA20161229170011112/29/16 17:00:31  5-MIN KARA 292300Z 01014G18KT 10SM CLR 15/M03 A3031 -330 28 -300 010/14G18 RMK AO2 T01501033
53915KARA ARA20161229170510512/29/16 17:05:31  5-MIN KARA 292305Z 01011KT 10SM CLR 15/M03 A3031 -330 28 -300 010/11 RMK AO2 T01501033
53915KARA ARA20161229171010512/29/16 17:10:31  5-MIN KARA 292310Z 01013KT 10SM CLR 15/M03 A3032 -330 28 -300 010/13 RMK AO2 T01501033
53915KARA ARA20161229171510512/29/16 17:15:31  5-MIN KARA 292315Z 01015KT 10SM CLR 15/M04 A3032 -330 27 -300 010/15 RMK AO2 T01501039
53915KARA ARA20161229172010512/29/16 17:20:31  5-MIN KARA 292320Z 01013KT 10SM CLR 15/M04 A3032 -340 27 -300 010/13 RMK AO2 T01501039
53915KARA ARA20161229172510512/29/16 17:25:31  5-MIN KARA 292325Z 01014KT 10SM CLR 15/M04 A3032 -340 27 -300 010/14 RMK AO2 T01501039
53915KARA ARA20161229173010512/29/16 17:30:31  5-MIN KARA 292330Z 36013KT 10SM CLR 14/M04 A3032 -340 28 -400 360/13 RMK AO2 T01441039
53915KARA ARA20161229173511112/29/16 17:35:31  5-MIN KARA 292335Z 01015G20KT 10SM CLR 14/M04 A3032 -340 28 -400 010/15G20 RMK AO2 T01441039
53915KARA ARA20161229174011112/29/16 17:40:31  5-MIN KARA 292340Z 01016G22KT 10SM CLR 14/M04 A3033 -340 28 -400 010/16G22 RMK AO2 T01441039
53915KARA ARA20161229174511112/29/16 17:45:31  5-MIN KARA 292345Z 01016G22KT 10SM CLR 14/M03 A3033 -340 29 -400 010/16G22 RMK AO2 T01441033
53915KARA ARA20161229175013612/29/16 17:50:31  5-MIN KARA 292350Z 02017G22KT 10SM CLR 14/M03 A3033 -350 30 -400 020/17G22 RMK AO2 SLP270 T01441028 10200 20144 53001
53915KARA ARA20161229175510512/29/16 17:55:31  5-MIN KARA 292355Z 01013KT 10SM CLR 14/M03 A3033 -350 31 -500 010/13 RMK AO2 T01391028
53915KARA ARA20161229180010512/29/16 18:00:31  5-MIN KARA 300000Z 01014KT 10SM CLR 14/M03 A3033 -350 31 -500 010/14 RMK AO2 T01391028
53915KARA ARA20161229180511112/29/16 18:05:31  5-MIN KARA 300005Z 01010G19KT 10SM CLR 14/M02 A3033 -350 32 -500 010/10G19 RMK AO2 T01391022
53915KARA ARA20161229181010512/29/16 18:10:31  5-MIN KARA 300010Z 01010KT 10SM CLR 13/M02 A3034 -350 34 -500 010/10 RMK AO2 T01331022
53915KARA ARA20161229181510512/29/16 18:15:31  5-MIN KARA 300015Z 01009KT 10SM CLR 13/M02 A3034 -360 35 -600 010/09 RMK AO2 T01331017
53915KARA ARA20161229182010512/29/16 18:20:31  5-MIN KARA 300020Z 01008KT 10SM CLR 13/M02 A3034 -360 36 -600 010/08 RMK AO2 T01281017
53915KARA ARA20161229182510512/29/16 18:25:31  5-MIN KARA 300025Z 01008KT 10SM CLR 13/M02 A3034 -360 36 -600 010/08 RMK AO2 T01281017
53915KARA ARA20161229183010512/29/16 18:30:31  5-MIN KARA 300030Z 01008KT 10SM CLR 12/M02 A3035 -360 38 -700 010/08 RMK AO2 T01221017
53915KARA ARA20161229183510512/29/16 18:35:31  5-MIN KARA 300035Z 01007KT 10SM CLR 13/M02 A3035 -370 36 -600 010/07 RMK AO2 T01281017
53915KARA ARA20161229184010512/29/16 18:40:31  5-MIN KARA 300040Z 01008KT 10SM CLR 12/M02 A3035 -370 38 -700 010/08 RMK AO2 T01221017
53915KARA ARA20161229184510512/29/16 18:45:31  5-MIN KARA 300045Z 01008KT 10SM CLR 12/M02 A3035 -370 38 -700 010/08 RMK AO2 T01221017
53915KARA ARA20161229185011212/29/16 18:50:31  5-MIN KARA 300050Z 01008KT 10SM CLR 12/M01 A3035 -370 39 -700 010/08 RMK AO2 SLP278 T01221011
53915KARA ARA20161229185510512/29/16 18:55:31  5-MIN KARA 300055Z 01008KT 10SM CLR 12/M02 A3035 -370 38 -700 010/08 RMK AO2 T01221017
53915KARA ARA20161229190010512/29/16 19:00:31  5-MIN KARA 300100Z 01009KT 10SM CLR 12/M02 A3036 -370 38 -700 010/09 RMK AO2 T01221017
53915KARA ARA20161229190510512/29/16 19:05:31  5-MIN KARA 300105Z 01009KT 10SM CLR 12/M02 A3036 -370 38 -700 010/09 RMK AO2 T01221017
53915KARA ARA20161229191010512/29/16 19:10:31  5-MIN KARA 300110Z 01009KT 10SM CLR 12/M02 A3036 -370 38 -700 010/09 RMK AO2 T01221017
53915KARA ARA20161229191510512/29/16 19:15:31  5-MIN KARA 300115Z 01007KT 10SM CLR 12/M02 A3036 -380 39 -800 010/07 RMK AO2 T01171017
53915KARA ARA20161229192010512/29/16 19:20:31  5-MIN KARA 300120Z 01007KT 10SM CLR 12/M02 A3037 -380 39 -800 010/07 RMK AO2 T01171017
53915KARA ARA20161229192510512/29/16 19:25:31  5-MIN KARA 300125Z 02007KT 10SM CLR 11/M02 A3037 -380 41 -900 020/07 RMK AO2 T01111017
53915KARA ARA20161229193010512/29/16 19:30:31  5-MIN KARA 300130Z 02008KT 10SM CLR 11/M02 A3037 -380 41 -900 020/08 RMK AO2 T01111017
53915KARA ARA20161229193510512/29/16 19:35:31  5-MIN KARA 300135Z 01008KT 10SM CLR 11/M02 A3037 -390 41 -900 010/08 RMK AO2 T01111017
53915KARA ARA20161229194010512/29/16 19:40:31  5-MIN KARA 300140Z 01008KT 10SM CLR 12/M02 A3037 -390 39 -800 010/08 RMK AO2 T01171017
53915KARA ARA20161229194510512/29/16 19:45:31  5-MIN KARA 300145Z 01008KT 10SM CLR 12/M02 A3037 -390 39 -800 010/08 RMK AO2 T01171017
53915KARA ARA20161229195011212/29/16 19:50:31  5-MIN KARA 300150Z 01007KT 10SM CLR 12/M02 A3038 -390 38 -800 010/07 RMK AO2 SLP285 T01171022
53915KARA ARA20161229195510512/29/16 19:55:31  5-MIN KARA 300155Z 01008KT 10SM CLR 12/M02 A3038 -390 38 -800 010/08 RMK AO2 T01171022
53915KARA ARA20161229200010512/29/16 20:00:31  5-MIN KARA 300200Z 01008KT 10SM CLR 12/M02 A3038 -390 38 -800 010/08 RMK AO2 T01171022
53915KARA ARA20161229200510512/29/16 20:05:31  5-MIN KARA 300205Z 02010KT 10SM CLR 11/M02 A3038 -390 39 -900 010/10 RMK AO2 T01111022
53915KARA ARA20161229201010512/29/16 20:10:31  5-MIN KARA 300210Z 01009KT 10SM CLR 11/M02 A3038 -390 39 -900 010/09 RMK AO2 T01111022
53915KARA ARA20161229201510512/29/16 20:15:31  5-MIN KARA 300215Z 01007KT 10SM CLR 11/M02 A3038 -390 39 -900 010/07 RMK AO2 T01111022
53915KARA ARA20161229202010512/29/16 20:20:31  5-MIN KARA 300220Z 01006KT 10SM CLR 11/M03 A3038 -390 37 -900 360/06 RMK AO2 T01111028
53915KARA ARA20161229202510512/29/16 20:25:31  5-MIN KARA 300225Z 36005KT 10SM CLR 11/M02 A3038 -390 40 -900 360/05 RMK AO2 T01061022
53915KARA ARA20161229203010612/29/16 20:30:31  5-MIN KARA 300230Z 36006KT 10SM CLR 10/M02 A3039 -400 42 -1000 360/06 RMK AO2 T01001022
53915KARA ARA20161229203511112/29/16 20:35:31  5-MIN KARA 300235Z AUTO 36006KT 10SM CLR 10/M02 A3039 -400 42 -1000 360/06 RMK AO2 T01001022
53915KARA ARA20161229204011612/29/16 20:40:31  5-MIN KARA 300240Z AUTO 36005KT 10SM CLR 09/M02 A3039 -400 44 -1100 360/05 RMK AO2 T00941022 TSNO
53915KARA ARA20161229204511612/29/16 20:45:31  5-MIN KARA 300245Z AUTO 01005KT 10SM CLR 09/M02 A3039 -400 44 -1100 360/05 RMK AO2 T00941022 TSNO
53915KARA ARA20161229205012912/29/16 20:50:31  5-MIN KARA 300250Z AUTO 01005KT 10SM CLR 09/M02 A3039 -400 44 -1100 010/05 RMK AO2 SLP290 T00941022 53018 TSNO
53915KARA ARA20161229205511612/29/16 20:55:31  5-MIN KARA 300255Z AUTO 01005KT 10SM CLR 10/M02 A3039 -400 42 -1000 010/05 RMK AO2 T01001022 TSNO
53915KARA ARA20161229210011612/29/16 21:00:31  5-MIN KARA 300300Z AUTO 36005KT 10SM CLR 09/M02 A3039 -400 44 -1100 360/05 RMK AO2 T00941022 TSNO
53915KARA ARA20161229210511612/29/16 21:05:31  5-MIN KARA 300305Z AUTO 01006KT 10SM CLR 09/M02 A3040 -410 44 -1100 360/06 RMK AO2 T00941022 TSNO
53915KARA ARA20161229211011612/29/16 21:10:31  5-MIN KARA 300310Z AUTO 01005KT 10SM CLR 09/M02 A3040 -410 44 -1100 010/05 RMK AO2 T00941022 TSNO
53915KARA ARA20161229211511612/29/16 21:15:31  5-MIN KARA 300315Z AUTO 01005KT 10SM CLR 09/M02 A3040 -410 45 -1100 010/05 RMK AO2 T00941017 TSNO
53915KARA ARA20161229212011612/29/16 21:20:31  5-MIN KARA 300320Z AUTO 01006KT 10SM CLR 09/M02 A3040 -410 45 -1100 010/06 RMK AO2 T00941017 TSNO
53915KARA ARA20161229212511612/29/16 21:25:31  5-MIN KARA 300325Z AUTO 01005KT 10SM CLR 09/M02 A3041 -420 44 -1100 010/05 RMK AO2 T00941022 TSNO
53915KARA ARA20161229213011612/29/16 21:30:31  5-MIN KARA 300330Z AUTO 01005KT 10SM CLR 09/M02 A3041 -420 44 -1100 010/05 RMK AO2 T00941022 TSNO
53915KARA ARA20161229213511612/29/16 21:35:31  5-MIN KARA 300335Z AUTO 02005KT 10SM CLR 09/M02 A3041 -420 44 -1100 020/05 RMK AO2 T00941022 TSNO
53915KARA ARA20161229214011612/29/16 21:40:31  5-MIN KARA 300340Z AUTO 01005KT 10SM CLR 09/M02 A3041 -420 44 -1100 010/05 RMK AO2 T00941022 TSNO
53915KARA ARA20161229214511612/29/16 21:45:31  5-MIN KARA 300345Z AUTO 02005KT 10SM CLR 09/M02 A3041 -420 47 -1200 020/05 RMK AO2 T00891017 TSNO
53915KARA ARA20161229215012312/29/16 21:50:31  5-MIN KARA 300350Z AUTO 02006KT 10SM CLR 09/M02 A3042 -420 47 -1200 020/06 RMK AO2 SLP299 T00891017 TSNO
53915KARA ARA20161229215511612/29/16 21:55:31  5-MIN KARA 300355Z AUTO 01006KT 10SM CLR 09/M01 A3042 -430 49 -1200 010/06 RMK AO2 T00891011 TSNO
53915KARA ARA20161229220011612/29/16 22:00:31  5-MIN KARA 300400Z AUTO 01006KT 10SM CLR 09/M01 A3042 -430 49 -1200 010/06 RMK AO2 T00891011 TSNO
53915KARA ARA20161229220511612/29/16 22:05:31  5-MIN KARA 300405Z AUTO 01006KT 10SM CLR 09/M01 A3042 -430 49 -1200 010/06 RMK AO2 T00891011 TSNO
53915KARA ARA20161230081510612/30/16 08:15:31  5-MIN KARA 301415Z 03008KT 10SM CLR 08/M01 A3044 -450 55 -1300 030/08 RMK AO2 T00781006
53915KARA ARA20161230082010612/30/16 08:20:31  5-MIN KARA 301420Z 04008KT 10SM CLR 08/M01 A3044 -450 53 -1300 040/08 RMK AO2 T00831006
53915KARA ARA20161230082510612/30/16 08:25:31  5-MIN KARA 301425Z 04009KT 10SM CLR 08/M01 A3045 -450 51 -1300 030/09 RMK AO2 T00831011
53915KARA ARA20161230083010612/30/16 08:30:31  5-MIN KARA 301430Z 04008KT 10SM CLR 08/M01 A3045 -450 51 -1300 040/08 RMK AO2 T00831011
53915KARA ARA20161230083510612/30/16 08:35:31  5-MIN KARA 301435Z 04010KT 10SM CLR 08/M02 A3045 -450 49 -1300 040/10 RMK AO2 T00831017
53915KARA ARA20161230084010612/30/16 08:40:31  5-MIN KARA 301440Z 04009KT 10SM CLR 09/M02 A3045 -450 47 -1200 040/09 RMK AO2 T00891017
53915KARA ARA20161230084510612/30/16 08:45:31  5-MIN KARA 301445Z 04012KT 10SM CLR 09/M02 A3045 -450 47 -1200 040/12 RMK AO2 T00891017
53915KARA ARA20161230085011912/30/16 08:50:31  5-MIN KARA 301450Z 05010KT 10SM CLR 09/M02 A3045 -450 47 -1200 050/10 RMK AO2 SLP309 T00891017 55005
53915KARA ARA20161230085510612/30/16 08:55:31  5-MIN KARA 301455Z 05011KT 10SM CLR 09/M02 A3045 -450 47 -1200 050/11 RMK AO2 T00891017
53915KARA ARA20161230090010612/30/16 09:00:31  5-MIN KARA 301500Z 04011KT 10SM CLR 09/M02 A3045 -460 45 -1200 040/11 RMK AO2 T00891022
53915KARA ARA20161230090510612/30/16 09:05:31  5-MIN KARA 301505Z 05011KT 10SM CLR 09/M02 A3045 -460 45 -1200 050/11 RMK AO2 T00891022
53915KARA ARA20161230091010612/30/16 09:10:31  5-MIN KARA 301510Z 05010KT 10SM CLR 09/M02 A3045 -460 45 -1200 050/10 RMK AO2 T00891022
53915KARA ARA20161230091510612/30/16 09:15:31  5-MIN KARA 301515Z 05011KT 10SM CLR 09/M03 A3046 -460 42 -1200 050/11 RMK AO2 T00941028
53915KARA ARA20161230092010612/30/16 09:20:31  5-MIN KARA 301520Z 05010KT 10SM CLR 09/M03 A3046 -460 42 -1200 050/10 RMK AO2 T00941028
53915KARA ARA20161230092510612/30/16 09:25:31  5-MIN KARA 301525Z 06009KT 10SM CLR 09/M03 A3046 -470 40 -1200 060/09 RMK AO2 T00941033
53915KARA ARA20161230093010612/30/16 09:30:31  5-MIN KARA 301530Z 06007KT 10SM CLR 09/M03 A3046 -470 40 -1200 060/07 RMK AO2 T00941033
53915KARA ARA20161230093510612/30/16 09:35:31  5-MIN KARA 301535Z 07008KT 10SM CLR 10/M03 A3046 -470 39 -1100 060/08 RMK AO2 T01001033
53915KARA ARA20161230094010612/30/16 09:40:31  5-MIN KARA 301540Z 07008KT 10SM CLR 10/M04 A3046 -470 37 -1100 070/08 RMK AO2 T01001039
53915KARA ARA20161230094510612/30/16 09:45:31  5-MIN KARA 301545Z 07009KT 10SM CLR 10/M04 A3046 -470 36 -1100 070/09 RMK AO2 T01001044
53915KARA ARA20161230095011312/30/16 09:50:31  5-MIN KARA 301550Z 07008KT 10SM CLR 10/M04 A3046 -460 37 -1100 070/08 RMK AO2 SLP313 T01001039
53915KARA ARA20161230095510612/30/16 09:55:31  5-MIN KARA 301555Z 07010KT 10SM CLR 10/M04 A3046 -460 36 -1100 070/10 RMK AO2 T01001044
53915KARA ARA20161230100010612/30/16 10:00:31  5-MIN KARA 301600Z 07009KT 10SM CLR 10/M04 A3045 -460 36 -1100 060/09 RMK AO2 T01001044
53915KARA ARA20161230100510612/30/16 10:05:31  5-MIN KARA 301605Z 07006KT 10SM CLR 11/M04 A3046 -460 34 -1000 070/06 RMK AO2 T01061044
53915KARA ARA20161230101010612/30/16 10:10:31  5-MIN KARA 301610Z 06008KT 10SM CLR 11/M04 A3046 -460 34 -1000 060/08 RMK AO2 T01061044
53915KARA ARA20161230101510612/30/16 10:15:31  5-MIN KARA 301615Z 09009KT 10SM CLR 11/M05 A3046 -460 33 -1000 080/09 RMK AO2 T01061050
53915KARA ARA20161230102010612/30/16 10:20:31  5-MIN KARA 301620Z 09008KT 10SM CLR 11/M05 A3045 -460 33 -1000 090/08 RMK AO2 T01061050
53915KARA ARA20161230102510612/30/16 10:25:31  5-MIN KARA 301625Z 06009KT 10SM CLR 11/M05 A3045 -460 33 -1000 060/09 RMK AO2 T01061050
53915KARA ARA20161230103010512/30/16 10:30:31  5-MIN KARA 301630Z 07007KT 10SM CLR 11/M05 A3045 -460 32 -900 070/07 RMK AO2 T01111050
53915KARA ARA20161230103510512/30/16 10:35:31  5-MIN KARA 301635Z 06009KT 10SM CLR 11/M06 A3045 -450 30 -900 060/09 RMK AO2 T01111056
53915KARA ARA20161230104010512/30/16 10:40:31  5-MIN KARA 301640Z 06010KT 10SM CLR 11/M05 A3045 -450 32 -900 060/10 RMK AO2 T01111050
53915KARA ARA20161230104510512/30/16 10:45:31  5-MIN KARA 301645Z 07007KT 10SM CLR 11/M05 A3044 -450 32 -900 070/07 RMK AO2 T01111050
53915KARA ARA20161230105011212/30/16 10:50:31  5-MIN KARA 301650Z 08007KT 10SM CLR 11/M04 A3044 -450 33 -900 080/07 RMK AO2 SLP307 T01111044
53915KARA ARA20161230105510512/30/16 10:55:31  5-MIN KARA 301655Z 08006KT 10SM CLR 11/M04 A3044 -440 33 -900 080/06 RMK AO2 T01111044
53915KARA ARA20161230110010512/30/16 11:00:31  5-MIN KARA 301700Z 08008KT 10SM CLR 11/M05 A3044 -440 32 -900 080/08 RMK AO2 T01111050
53915KARA ARA20161230110510512/30/16 11:05:31  5-MIN KARA 301705Z 09007KT 10SM CLR 11/M05 A3043 -440 32 -900 090/07 RMK AO2 T01111050
53915KARA ARA20161230111010512/30/16 11:10:31  5-MIN KARA 301710Z 07007KT 10SM CLR 11/M06 A3043 -440 30 -900 070/07 RMK AO2 T01111056
53915KARA ARA20161230111510512/30/16 11:15:31  5-MIN KARA 301715Z 08006KT 10SM CLR 11/M05 A3042 -430 32 -900 080/06 RMK AO2 T01111050
53915KARA ARA20161230112010512/30/16 11:20:31  5-MIN KARA 301720Z 07008KT 10SM CLR 12/M05 A3042 -430 30 -800 070/08 RMK AO2 T01171050
53915KARA ARA20161230112510512/30/16 11:25:31  5-MIN KARA 301725Z 08009KT 10SM CLR 12/M05 A3042 -420 30 -800 080/09 RMK AO2 T01171050
53915KARA ARA20161230113010512/30/16 11:30:31  5-MIN KARA 301730Z 08009KT 10SM CLR 12/M05 A3041 -420 30 -800 080/09 RMK AO2 T01171050
53915KARA ARA20161230113510512/30/16 11:35:31  5-MIN KARA 301735Z 10008KT 10SM CLR 12/M05 A3041 -420 30 -800 100/08 RMK AO2 T01171050
53915KARA ARA20161230114010512/30/16 11:40:31  5-MIN KARA 301740Z 06007KT 10SM CLR 12/M05 A3041 -420 30 -800 060/07 RMK AO2 T01171050
53915KARA ARA20161230114510512/30/16 11:45:31  5-MIN KARA 301745Z 08007KT 10SM CLR 12/M05 A3040 -410 30 -800 080/07 RMK AO2 T01171050
53915KARA ARA20161230115013012/30/16 11:50:31  5-MIN KARA 301750Z 06008KT 10SM CLR 12/M04 A3040 -410 32 -800 060/08 RMK AO2 SLP292 T01171044 10117 20056 51008
53915KARA ARA20161230115510512/30/16 11:55:31  5-MIN KARA 301755Z 07009KT 10SM CLR 12/M05 A3040 -410 30 -800 070/09 RMK AO2 T01171050
53915KARA ARA20161230120010512/30/16 12:00:31  5-MIN KARA 301800Z 07007KT 10SM CLR 12/M05 A3039 -400 30 -800 070/07 RMK AO2 T01171050
53915KARA ARA20161230120510512/30/16 12:05:31  5-MIN KARA 301805Z 09007KT 10SM CLR 12/M05 A3038 -390 30 -800 090/07 RMK AO2 T01171050
53915KARA ARA20161230121010512/30/16 12:10:31  5-MIN KARA 301810Z 08006KT 10SM CLR 12/M05 A3038 -390 30 -800 080/06 RMK AO2 T01171050
53915KARA ARA20161230121510512/30/16 12:15:31  5-MIN KARA 301815Z 07008KT 10SM CLR 12/M05 A3038 -390 30 -800 070/08 RMK AO2 T01171050
53915KARA ARA20161230122010512/30/16 12:20:31  5-MIN KARA 301820Z 06007KT 10SM CLR 12/M05 A3038 -390 30 -800 060/07 RMK AO2 T01171050
53915KARA ARA20161230122510512/30/16 12:25:31  5-MIN KARA 301825Z 09006KT 10SM CLR 12/M06 A3038 -390 28 -700 090/06 RMK AO2 T01221056
53915KARA ARA20161230123010512/30/16 12:30:31  5-MIN KARA 301830Z 07006KT 10SM CLR 12/M05 A3038 -390 29 -700 070/06 RMK AO2 T01221050
53915KARA ARA20161230123510512/30/16 12:35:31  5-MIN KARA 301835Z 09009KT 10SM CLR 12/M06 A3037 -380 28 -700 080/09 RMK AO2 T01221056
53915KARA ARA20161230124010512/30/16 12:40:31  5-MIN KARA 301840Z 09008KT 10SM CLR 12/M06 A3037 -380 27 -700 090/08 RMK AO2 T01221061
53915KARA ARA20161230124510512/30/16 12:45:31  5-MIN KARA 301845Z 07007KT 10SM CLR 12/M07 A3037 -380 26 -700 070/07 RMK AO2 T01221067
53915KARA ARA20161230125011212/30/16 12:50:31  5-MIN KARA 301850Z 06007KT 10SM CLR 12/M06 A3036 -370 27 -700 060/07 RMK AO2 SLP280 T01221061
53915KARA ARA20161230125510512/30/16 12:55:31  5-MIN KARA 301855Z 09005KT 10SM CLR 12/M06 A3036 -370 27 -700 090/05 RMK AO2 T01221061
53915KARA ARA20161230130010512/30/16 13:00:31  5-MIN KARA 301900Z 09006KT 10SM CLR 12/M06 A3035 -370 28 -700 090/06 RMK AO2 T01221056
53915KARA ARA20161230130510512/30/16 13:05:31  5-MIN KARA 301905Z 09007KT 10SM CLR 12/M06 A3035 -360 28 -700 090/07 RMK AO2 T01221056
53915KARA ARA20161230131010512/30/16 13:10:31  5-MIN KARA 301910Z 10006KT 10SM CLR 12/M06 A3035 -360 28 -700 100/06 RMK AO2 T01221056
53915KARA ARA20161230131510512/30/16 13:15:31  5-MIN KARA 301915Z 10006KT 10SM CLR 12/M06 A3035 -360 27 -700 100/06 RMK AO2 T01221061
53915KARA ARA20161230132010512/30/16 13:20:31  5-MIN KARA 301920Z 10007KT 10SM CLR 12/M06 A3035 -360 27 -700 100/07 RMK AO2 T01221061
53915KARA ARA20161230132510512/30/16 13:25:31  5-MIN KARA 301925Z 08005KT 10SM CLR 12/M06 A3035 -360 28 -700 080/05 RMK AO2 T01221056
53915KARA ARA20161230133010412/30/16 13:30:31  5-MIN KARA 301930Z 11006KT 9SM CLR 12/M06 A3034 -360 28 -700 110/06 RMK AO2 T01221056
53915KARA ARA20161230133510412/30/16 13:35:31  5-MIN KARA 301935Z 10006KT 8SM CLR 12/M06 A3034 -360 28 -700 100/06 RMK AO2 T01221056
53915KARA ARA20161230134010412/30/16 13:40:31  5-MIN KARA 301940Z VRB04KT 7SM CLR 12/M06 A3034 -350 27 -700 VRB/04 RMK AO2 T01221061
53915KARA ARA20161230134510412/30/16 13:45:31  5-MIN KARA 301945Z 07003KT 8SM CLR 12/M06 A3033 -350 28 -700 070/03 RMK AO2 T01221056
53915KARA ARA20161230135011412/30/16 13:50:31  5-MIN KARA 301950Z 08006KT 6SM HZ CLR 12/M06 A3034 -350 28 -700 080/06 RMK AO2 SLP271 T01221056
53915KARA ARA20161230135510712/30/16 13:55:31  5-MIN KARA 301955Z 08005KT 5SM HZ CLR 12/M06 A3033 -350 28 -700 080/05 RMK AO2 T01221056
53915KARA ARA20161230140010712/30/16 14:00:31  5-MIN KARA 302000Z 09004KT 5SM HZ CLR 12/M06 A3033 -350 28 -700 090/04 RMK AO2 T01221056
53915KARA ARA20161230140510712/30/16 14:05:31  5-MIN KARA 302005Z 09006KT 6SM HZ CLR 12/M05 A3033 -350 29 -700 090/06 RMK AO2 T01221050
53915KARA ARA20161230141010712/30/16 14:10:31  5-MIN KARA 302010Z 09005KT 6SM HZ CLR 13/M06 A3033 -350 27 -600 090/05 RMK AO2 T01281056
53915KARA ARA20161230141510712/30/16 14:15:31  5-MIN KARA 302015Z 08004KT 6SM HZ CLR 13/M06 A3033 -340 27 -600 080/04 RMK AO2 T01281056
53915KARA ARA20161230142010712/30/16 14:20:31  5-MIN KARA 302020Z 10005KT 6SM HZ CLR 13/M06 A3033 -340 27 -600 100/05 RMK AO2 T01281056
53915KARA ARA20161230142510712/30/16 14:25:31  5-MIN KARA 302025Z 10005KT 5SM HZ CLR 12/M06 A3032 -340 28 -700 100/05 RMK AO2 T01221056
53915KARA ARA20161230143010712/30/16 14:30:31  5-MIN KARA 302030Z 09006KT 6SM HZ CLR 13/M05 A3032 -340 28 -600 090/06 RMK AO2 T01281050
53915KARA ARA20161230143510412/30/16 14:35:31  5-MIN KARA 302035Z 09005KT 7SM CLR 12/M06 A3032 -340 28 -700 090/05 RMK AO2 T01221056
53915KARA ARA20161230144010412/30/16 14:40:31  5-MIN KARA 302040Z 12004KT 7SM CLR 12/M05 A3032 -330 29 -700 110/04 RMK AO2 T01221050
53915KARA ARA20161230144510412/30/16 14:45:31  5-MIN KARA 302045Z 10003KT 8SM CLR 13/M05 A3032 -330 28 -600 100/03 RMK AO2 T01281050
53915KARA ARA20161230145011812/30/16 14:50:31  5-MIN KARA 302050Z 08004KT 10SM CLR 13/M05 A3031 -330 28 -600 080/04 RMK AO2 SLP263 T01281050 58017
53915KARA ARA20161230145510512/30/16 14:55:31  5-MIN KARA 302055Z 11004KT 10SM CLR 13/M05 A3031 -330 28 -600 110/04 RMK AO2 T01281050
53915KARA ARA20161230150010512/30/16 15:00:31  5-MIN KARA 302100Z 10005KT 10SM CLR 12/M06 A3031 -330 28 -600 100/05 RMK AO2 T01221056
53915KARA ARA20161230150510512/30/16 15:05:31  5-MIN KARA 302105Z 12006KT 10SM CLR 12/M06 A3031 -320 28 -600 120/06 RMK AO2 T01221056
53915KARA ARA20161230151010512/30/16 15:10:31  5-MIN KARA 302110Z 08005KT 10SM CLR 12/M05 A3030 -320 29 -600 080/05 RMK AO2 T01221050
53915KARA ARA20161230151510512/30/16 15:15:31  5-MIN KARA 302115Z 09006KT 10SM CLR 12/M06 A3030 -320 28 -600 090/06 RMK AO2 T01221056
53915KARA ARA20161230152010812/30/16 15:20:31  5-MIN KARA 302120Z 10004KT 10SM FEW120 12/M06 A3030 -320 28 -600 100/04 RMK AO2 T01221056
53915KARA ARA20161230152510712/30/16 15:25:31  5-MIN KARA 302125Z 08004KT 9SM FEW120 12/M06 A3031 -320 27 -600 080/04 RMK AO2 T01221061
53915KARA ARA20161230153010412/30/16 15:30:31  5-MIN KARA 302130Z 13005KT 9SM CLR 12/M05 A3030 -320 29 -600 130/05 RMK AO2 T01221050
53915KARA ARA20161230153510512/30/16 15:35:31  5-MIN KARA 302135Z 10004KT 10SM CLR 12/M05 A3030 -320 30 -700 100/04 RMK AO2 T01171050
53915KARA ARA20161230154010512/30/16 15:40:31  5-MIN KARA 302140Z 10006KT 10SM CLR 12/M06 A3030 -320 28 -600 100/06 RMK AO2 T01221056
53915KARA ARA20161230154510512/30/16 15:45:31  5-MIN KARA 302145Z 09006KT 10SM CLR 12/M05 A3030 -320 29 -600 090/06 RMK AO2 T01221050
53915KARA ARA20161230155011212/30/16 15:50:31  5-MIN KARA 302150Z 09004KT 10SM CLR 12/M06 A3030 -320 28 -600 090/04 RMK AO2 SLP260 T01221056
53915KARA ARA20161230155510512/30/16 15:55:31  5-MIN KARA 302155Z 09005KT 10SM CLR 12/M05 A3030 -320 30 -700 090/05 RMK AO2 T01171050
53915KARA ARA20161230160010512/30/16 16:00:31  5-MIN KARA 302200Z 12004KT 10SM CLR 12/M04 A3029 -310 32 -700 120/04 RMK AO2 T01171044
53915KARA ARA20161230160510512/30/16 16:05:31  5-MIN KARA 302205Z 11005KT 10SM CLR 12/M04 A3029 -310 32 -700 110/05 RMK AO2 T01171044
53915KARA ARA20161230161010512/30/16 16:10:31  5-MIN KARA 302210Z 12005KT 10SM CLR 12/M04 A3029 -310 32 -700 110/05 RMK AO2 T01171044
53915KARA ARA20161230161510512/30/16 16:15:31  5-MIN KARA 302215Z 13005KT 10SM CLR 12/M04 A3029 -310 32 -700 120/05 RMK AO2 T01171044
53915KARA ARA20161230162010512/30/16 16:20:31  5-MIN KARA 302220Z 12005KT 10SM CLR 12/M04 A3029 -310 33 -700 110/05 RMK AO2 T01171039
53915KARA ARA20161230162510512/30/16 16:25:31  5-MIN KARA 302225Z 13005KT 10SM CLR 12/M04 A3029 -310 32 -700 130/05 RMK AO2 T01171044
53915KARA ARA20161230163010512/30/16 16:30:31  5-MIN KARA 302230Z 12005KT 10SM CLR 12/M04 A3029 -310 32 -700 120/05 RMK AO2 T01171044
53915KARA ARA20161230163510512/30/16 16:35:31  5-MIN KARA 302235Z 12004KT 10SM CLR 12/M04 A3029 -310 32 -700 120/04 RMK AO2 T01171044
53915KARA ARA20161230164010512/30/16 16:40:31  5-MIN KARA 302240Z 11003KT 10SM CLR 12/M03 A3029 -310 35 -700 110/03 RMK AO2 T01171033
53915KARA ARA20161230164510512/30/16 16:45:31  5-MIN KARA 302245Z 10003KT 10SM CLR 12/M04 A3029 -310 33 -700 100/03 RMK AO2 T01171039
53915KARA ARA20161230165011212/30/16 16:50:31  5-MIN KARA 302250Z 11003KT 10SM CLR 12/M04 A3029 -310 33 -700 110/03 RMK AO2 SLP257 T01171039
53915KARA ARA20161230165510512/30/16 16:55:31  5-MIN KARA 302255Z 12003KT 10SM CLR 11/M03 A3029 -310 36 -800 120/03 RMK AO2 T01111033
53915KARA ARA20161230170010512/30/16 17:00:31  5-MIN KARA 302300Z 09003KT 10SM CLR 11/M03 A3029 -310 37 -800 090/03 RMK AO2 T01111028
53915KARA ARA20161230170510512/30/16 17:05:31  5-MIN KARA 302305Z 10004KT 10SM CLR 11/M03 A3029 -310 37 -800 100/04 RMK AO2 T01111028
53915KARA ARA20161230171010512/30/16 17:10:31  5-MIN KARA 302310Z 09003KT 10SM CLR 11/M03 A3029 -310 37 -800 090/03 RMK AO2 T01111028
53915KARA ARA20161230171510512/30/16 17:15:31  5-MIN KARA 302315Z 09003KT 10SM CLR 11/M03 A3029 -310 37 -800 090/03 RMK AO2 T01111028
53915KARA ARA20161230172010512/30/16 17:20:31  5-MIN KARA 302320Z 09004KT 10SM CLR 11/M02 A3028 -300 39 -800 090/04 RMK AO2 T01111022
53915KARA ARA20161230172510512/30/16 17:25:31  5-MIN KARA 302325Z 10004KT 10SM CLR 11/M02 A3028 -300 39 -800 100/04 RMK AO2 T01111022
53915KARA ARA20161230173010812/30/16 17:30:31  5-MIN KARA 302330Z 09003KT 10SM FEW120 11/M02 A3028 -300 39 -800 090/03 RMK AO2 T01111022
53915KARA ARA20161230173510812/30/16 17:35:31  5-MIN KARA 302335Z 00000KT 10SM SCT120 11/M02 A3028 -300 39 -800 000/00 RMK AO2 T01111022
53915KARA ARA20161230174010812/30/16 17:40:31  5-MIN KARA 302340Z 00000KT 10SM SCT120 11/M02 A3029 -310 39 -800 000/00 RMK AO2 T01111022
53915KARA ARA20161230174510812/30/16 17:45:31  5-MIN KARA 302345Z 00000KT 10SM SCT120 12/M02 A3029 -310 38 -700 000/00 RMK AO2 T01171022
53915KARA ARA20161230175013312/30/16 17:50:31  5-MIN KARA 302350Z 00000KT 10SM FEW120 12/M03 A3029 -310 36 -700 000/00 RMK AO2 SLP255 T01171028 10128 20111 56029
53915KARA ARA20161230175510812/30/16 17:55:31  5-MIN KARA 302355Z 00000KT 10SM FEW120 12/M03 A3029 -310 36 -700 000/00 RMK AO2 T01171028
53915KARA ARA20161230180010812/30/16 18:00:31  5-MIN KARA 310000Z 00000KT 10SM FEW120 12/M03 A3029 -310 35 -700 000/00 RMK AO2 T01171033
53915KARA ARA20161230180510812/30/16 18:05:31  5-MIN KARA 310005Z 00000KT 10SM FEW120 11/M01 A3029 -310 42 -800 000/00 RMK AO2 T01111011
53915KARA ARA20161230181010512/30/16 18:10:31  5-MIN KARA 310010Z 00000KT 10SM CLR 11/M01 A3028 -300 46 -800 000/00 RMK AO2 T01061006
53915KARA ARA20161230181510812/30/16 18:15:31  5-MIN KARA 310015Z 00000KT 10SM FEW120 11/M01 A3029 -310 46 -800 000/00 RMK AO2 T01061006
53915KARA ARA20161230182010712/30/16 18:20:31  5-MIN KARA 310020Z 00000KT 10SM SCT120 11/01 A3029 -310 52 -800 000/00 RMK AO2 T01060011
53915KARA ARA20161230182510712/30/16 18:25:31  5-MIN KARA 310025Z 00000KT 10SM BKN120 11/00 A3029 -310 48 -800 000/00 RMK AO2 T01060000
53915KARA ARA20161230183010812/30/16 18:30:31  5-MIN KARA 310030Z 00000KT 10SM BKN120 11/M01 A3029 -310 42 -800 000/00 RMK AO2 T01111011
53915KARA ARA20161230183510712/30/16 18:35:31  5-MIN KARA 310035Z 00000KT 10SM BKN120 11/01 A3030 -310 50 -800 000/00 RMK AO2 T01060006
53915KARA ARA20161230184010712/30/16 18:40:31  5-MIN KARA 310040Z 00000KT 10SM BKN120 11/03 A3029 -310 58 -800 000/00 RMK AO2 T01060028
53915KARA ARA20161230184510712/30/16 18:45:31  5-MIN KARA 310045Z 00000KT 10SM BKN120 11/03 A3029 -310 58 -800 000/00 RMK AO2 T01060028
53915KARA ARA20161230185011412/30/16 18:50:31  5-MIN KARA 310050Z 00000KT 10SM BKN120 11/03 A3029 -310 58 -800 000/00 RMK AO2 SLP255 T01060028
53915KARA ARA20161230185510712/30/16 18:55:31  5-MIN KARA 310055Z 00000KT 10SM SCT120 11/02 A3029 -300 56 -800 000/00 RMK AO2 T01060022
53915KARA ARA20161230190010712/30/16 19:00:31  5-MIN KARA 310100Z 00000KT 10SM SCT120 11/03 A3029 -310 58 -800 000/00 RMK AO2 T01060028
53915KARA ARA20161230190510712/30/16 19:05:31  5-MIN KARA 310105Z 00000KT 10SM SCT120 11/02 A3028 -300 56 -800 000/00 RMK AO2 T01060022
53915KARA ARA20161230191010712/30/16 19:10:31  5-MIN KARA 310110Z 00000KT 10SM SCT120 11/01 A3028 -300 52 -800 000/00 RMK AO2 T01060011
53915KARA ARA20161230191510712/30/16 19:15:31  5-MIN KARA 310115Z 00000KT 10SM FEW120 10/02 A3029 -310 58 -900 000/00 RMK AO2 T01000022
53915KARA ARA20161230192010712/30/16 19:20:31  5-MIN KARA 310120Z 00000KT 10SM SCT110 10/03 A3029 -310 63 -900 000/00 RMK AO2 T01000033
53915KARA ARA20161230192510712/30/16 19:25:31  5-MIN KARA 310125Z 00000KT 10SM SCT110 10/02 A3029 -300 58 -900 000/00 RMK AO2 T01000022
53915KARA ARA20161230193010712/30/16 19:30:31  5-MIN KARA 310130Z 00000KT 10SM SCT120 10/02 A3028 -300 56 -900 000/00 RMK AO2 T01000017
53915KARA ARA20161230193510712/30/16 19:35:31  5-MIN KARA 310135Z 12003KT 10SM BKN120 10/02 A3028 -300 56 -900 120/03 RMK AO2 T01000017
53915KARA ARA20161230194010712/30/16 19:40:31  5-MIN KARA 310140Z 00000KT 10SM BKN120 10/03 A3028 -300 60 -900 000/00 RMK AO2 T01000028
53915KARA ARA20161230194510612/30/16 19:45:31  5-MIN KARA 310145Z 14003KT 9SM BKN120 10/03 A3028 -300 63 -900 130/03 RMK AO2 T01000033
53915KARA ARA20161230195011312/30/16 19:50:31  5-MIN KARA 310150Z 15003KT 9SM BKN120 10/04 A3028 -300 65 -900 150/03 RMK AO2 SLP252 T01000039
53915KARA ARA20161230195510712/30/16 19:55:31  5-MIN KARA 310155Z 16003KT 10SM BKN120 10/04 A3028 -300 65 -900 160/03 RMK AO2 T01000039
53915KARA ARA20161230200010712/30/16 20:00:31  5-MIN KARA 310200Z 15003KT 10SM BKN120 10/03 A3028 -300 63 -900 150/03 RMK AO2 T01000033
53915KARA ARA20161230200510712/30/16 20:05:31  5-MIN KARA 310205Z 15004KT 10SM BKN120 10/03 A3027 -290 63 -900 150/04 RMK AO2 T01000033
53915KARA ARA20161230201010712/30/16 20:10:31  5-MIN KARA 310210Z 14003KT 10SM BKN120 09/04 A3027 -290 68 -900 140/03 RMK AO2 T00940039
53915KARA ARA20161230201510712/30/16 20:15:31  5-MIN KARA 310215Z 00000KT 10SM BKN110 09/05 A3027 -290 74 -900 000/00 RMK AO2 T00940050
53915KARA ARA20161230202010712/30/16 20:20:31  5-MIN KARA 310220Z 00000KT 10SM BKN120 10/04 A3027 -290 68 -900 000/00 RMK AO2 T01000044
53915KARA ARA20161230202510712/30/16 20:25:31  5-MIN KARA 310225Z 00000KT 10SM BKN110 10/04 A3027 -290 65 -900 000/00 RMK AO2 T01000039
53915KARA ARA20161230203010712/30/16 20:30:31  5-MIN KARA 310230Z 00000KT 10SM BKN110 10/04 A3027 -290 65 -900 000/00 RMK AO2 T01000039
53915KARA ARA20161230203510712/30/16 20:35:31  5-MIN KARA 310235Z 00000KT 10SM BKN110 10/03 A3027 -290 63 -900 000/00 RMK AO2 T01000033
53915KARA ARA20161230204010712/30/16 20:40:31  5-MIN KARA 310240Z 00000KT 10SM BKN110 10/04 A3027 -290 65 -900 000/00 RMK AO2 T01000039
53915KARA ARA20161230204510712/30/16 20:45:31  5-MIN KARA 310245Z 00000KT 10SM OVC110 10/03 A3027 -290 63 -900 000/00 RMK AO2 T01000033
53915KARA ARA20161230205012012/30/16 20:50:31  5-MIN KARA 310250Z 15003KT 10SM OVC110 10/03 A3026 -290 63 -900 150/03 RMK AO2 SLP247 T01000033 56008
53915KARA ARA20161230205511712/30/16 20:55:31  5-MIN KARA 310255Z AUTO 16004KT 10SM OVC110 10/03 A3026 -290 63 -900 160/04 RMK AO2 T01000033 TSNO
53915KARA ARA20161230210011712/30/16 21:00:31  5-MIN KARA 310300Z AUTO 14004KT 10SM OVC110 10/03 A3026 -280 60 -900 140/04 RMK AO2 T01000028 TSNO
53915KARA ARA20161230210511712/30/16 21:05:31  5-MIN KARA 310305Z AUTO 13005KT 10SM OVC110 10/03 A3026 -280 63 -900 130/05 RMK AO2 T01000033 TSNO
53915KARA ARA20161230211011712/30/16 21:10:31  5-MIN KARA 310310Z AUTO 13004KT 10SM OVC110 10/03 A3025 -280 60 -900 130/04 RMK AO2 T01000028 TSNO
53915KARA ARA20161230211511712/30/16 21:15:31  5-MIN KARA 310315Z AUTO 14005KT 10SM OVC110 10/02 A3025 -270 58 -800 140/05 RMK AO2 T01000022 TSNO
53915KARA ARA20161230212011712/30/16 21:20:31  5-MIN KARA 310320Z AUTO 14005KT 10SM OVC110 10/02 A3025 -270 58 -900 140/05 RMK AO2 T01000022 TSNO
53915KARA ARA20161230212511712/30/16 21:25:31  5-MIN KARA 310325Z AUTO 13005KT 10SM OVC110 10/02 A3025 -270 58 -900 130/05 RMK AO2 T01000022 TSNO
53915KARA ARA20161230213011612/30/16 21:30:31  5-MIN KARA 310330Z AUTO 12006KT 9SM OVC110 10/02 A3025 -270 56 -800 120/06 RMK AO2 T01000017 TSNO
53915KARA ARA20161230213511612/30/16 21:35:31  5-MIN KARA 310335Z AUTO 13006KT 8SM OVC110 11/01 A3024 -270 52 -800 130/06 RMK AO2 T01060011 TSNO
53915KARA ARA20161230214011612/30/16 21:40:31  5-MIN KARA 310340Z AUTO 14007KT 7SM OVC110 11/01 A3024 -260 52 -800 140/07 RMK AO2 T01060011 TSNO
53915KARA ARA20161230214511612/30/16 21:45:31  5-MIN KARA 310345Z AUTO 14007KT 7SM OVC100 11/01 A3024 -260 52 -800 140/07 RMK AO2 T01060011 TSNO
53915KARA ARA20161230215012312/30/16 21:50:31  5-MIN KARA 310350Z AUTO 14007KT 7SM OVC100 11/01 A3024 -260 52 -800 140/07 RMK AO2 SLP239 T01060011 TSNO
53915KARA ARA20161230215511612/30/16 21:55:31  5-MIN KARA 310355Z AUTO 14007KT 8SM OVC100 11/01 A3023 -260 50 -800 140/07 RMK AO2 T01060006 TSNO
53915KARA ARA20161230220011612/30/16 22:00:31  5-MIN KARA 310400Z AUTO 14009KT 9SM OVC100 11/01 A3023 -250 50 -800 140/09 RMK AO2 T01060006 TSNO
53915KARA ARA20161230220511712/30/16 22:05:31  5-MIN KARA 310405Z AUTO 13008KT 10SM OVC100 11/01 A3022 -250 50 -800 130/08 RMK AO2 T01060006 TSNO
53915KARA ARA20161230221011712/30/16 22:10:31  5-MIN KARA 310410Z AUTO 14008KT 10SM OVC100 11/01 A3022 -250 50 -800 140/08 RMK AO2 T01060006 TSNO
53915KARA ARA20161230221511712/30/16 22:15:31  5-MIN KARA 310415Z AUTO 13006KT 10SM OVC100 11/00 A3023 -250 48 -800 130/06 RMK AO2 T01060000 TSNO
53915KARA ARA20161230222011712/30/16 22:20:31  5-MIN KARA 310420Z AUTO 13006KT 10SM OVC100 11/00 A3023 -250 48 -800 120/06 RMK AO2 T01060000 TSNO
53915KARA ARA20161230222511812/30/16 22:25:31  5-MIN KARA 310425Z AUTO 13006KT 10SM OVC100 11/M01 A3023 -260 46 -800 130/06 RMK AO2 T01061006 TSNO
53915KARA ARA20161230223011712/30/16 22:30:31  5-MIN KARA 310430Z AUTO 13005KT 10SM OVC100 11/00 A3023 -260 48 -800 130/05 RMK AO2 T01060000 TSNO
53915KARA ARA20161230223511812/30/16 22:35:31  5-MIN KARA 310435Z AUTO 13005KT 10SM OVC100 11/M01 A3023 -250 46 -800 130/05 RMK AO2 T01061006 TSNO
53915KARA ARA20161230224011812/30/16 22:40:31  5-MIN KARA 310440Z AUTO 13007KT 10SM OVC100 11/M01 A3023 -250 46 -800 130/07 RMK AO2 T01061006 TSNO
53915KARA ARA20161230224511712/30/16 22:45:31  5-MIN KARA 310445Z AUTO 14007KT 10SM OVC110 11/00 A3022 -250 48 -800 140/07 RMK AO2 T01060000 TSNO
53915KARA ARA20161230225012412/30/16 22:50:31  5-MIN KARA 310450Z AUTO 14007KT 10SM OVC110 11/00 A3022 -240 48 -700 140/07 RMK AO2 SLP231 T01060000 TSNO
53915KARA ARA20161230225512412/30/16 22:55:31  5-MIN KARA 310455Z AUTO 13007KT 10SM OVC110 11/00 A3021 -230 48 -700 130/07 RMK AO2 PRESFR T01060000 TSNO
53915KARA ARA20161230230011712/30/16 23:00:31  5-MIN KARA 310500Z AUTO 13006KT 10SM OVC110 11/01 A3021 -230 50 -700 130/06 RMK AO2 T01060006 TSNO
53915KARA ARA20161230230512412/30/16 23:05:31  5-MIN KARA 310505Z AUTO 13005KT 10SM SCT100 OVC120 11/01 A3021 -230 50 -700 130/05 RMK AO2 T01060006 TSNO
53915KARA ARA20161230231012412/30/16 23:10:31  5-MIN KARA 310510Z AUTO 13005KT 10SM FEW100 BKN120 11/01 A3020 -230 50 -700 120/05 RMK AO2 T01060006 TSNO
53915KARA ARA20161230231511712/30/16 23:15:31  5-MIN KARA 310515Z AUTO 13006KT 10SM BKN110 11/01 A3019 -220 50 -700 130/06 RMK AO2 T01060006 TSNO
53915KARA ARA20161230232012412/30/16 23:20:31  5-MIN KARA 310520Z AUTO 13006KT 10SM SCT100 BKN120 11/01 A3019 -220 50 -700 130/06 RMK AO2 T01060006 TSNO
53915KARA ARA20161230232511712/30/16 23:25:31  5-MIN KARA 310525Z AUTO 12006KT 10SM BKN110 11/01 A3019 -220 50 -700 120/06 RMK AO2 T01060006 TSNO
53915KARA ARA20161230233011712/30/16 23:30:31  5-MIN KARA 310530Z AUTO 13006KT 10SM BKN110 11/01 A3019 -220 50 -700 130/06 RMK AO2 T01060006 TSNO
53915KARA ARA20161230233512412/30/16 23:35:31  5-MIN KARA 310535Z AUTO 14006KT 10SM BKN100 OVC120 11/01 A3019 -220 50 -700 140/06 RMK AO2 T01060006 TSNO
53915KARA ARA20161230234011712/30/16 23:40:31  5-MIN KARA 310540Z AUTO 13006KT 10SM OVC100 11/01 A3019 -210 50 -700 130/06 RMK AO2 T01060006 TSNO
53915KARA ARA20161230234511712/30/16 23:45:31  5-MIN KARA 310545Z AUTO 13005KT 10SM OVC100 11/01 A3019 -210 50 -700 130/05 RMK AO2 T01060006 TSNO
53915KARA ARA20161230235015212/30/16 23:50:31  5-MIN KARA 310550Z AUTO 13006KT 10SM OVC100 11/00 A3018 -210 48 -700 130/06 RMK AO2 SLP220 T01060000 10117 20094 401280044 58007 TSNO
53915KARA ARA20161230235511712/30/16 23:55:31  5-MIN KARA 310555Z AUTO 14006KT 10SM OVC100 11/00 A3018 -210 48 -700 130/06 RMK AO2 T01060000 TSNO
53915KARA ARA20161231000011712/31/16 00:00:31  5-MIN KARA 310600Z AUTO 14006KT 10SM OVC100 11/01 A3018 -210 50 -700 140/06 RMK AO2 T01060006 TSNO
53915KARA ARA20161231000511712/31/16 00:05:31  5-MIN KARA 310605Z AUTO 14007KT 10SM OVC095 11/00 A3017 -200 48 -700 140/07 RMK AO2 T01060000 TSNO
53915KARA ARA20161231001011712/31/16 00:10:31  5-MIN KARA 310610Z AUTO 14007KT 10SM OVC095 11/01 A3017 -200 50 -700 140/07 RMK AO2 T01060006 TSNO
53915KARA ARA20161231001511712/31/16 00:15:31  5-MIN KARA 310615Z AUTO 14009KT 10SM OVC100 11/00 A3017 -200 48 -700 140/09 RMK AO2 T01060000 TSNO
53915KARA ARA20161231002011712/31/16 00:20:31  5-MIN KARA 310620Z AUTO 14008KT 10SM OVC100 11/00 A3017 -200 48 -700 140/08 RMK AO2 T01060000 TSNO
53915KARA ARA20161231002511712/31/16 00:25:31  5-MIN KARA 310625Z AUTO 13010KT 10SM OVC100 11/00 A3016 -190 48 -700 130/10 RMK AO2 T01060000 TSNO
53915KARA ARA20161231003013112/31/16 00:30:31  5-MIN KARA 310630Z AUTO 13009KT 10SM BKN100 OVC120 11/01 A3015 -180 50 -700 130/09 RMK AO2 PRESFR T01060006 TSNO
53915KARA ARA20161231003511712/31/16 00:35:31  5-MIN KARA 310635Z AUTO 13008KT 10SM OVC110 11/01 A3015 -180 50 -700 130/08 RMK AO2 T01060006 TSNO
53915KARA ARA20161231004011712/31/16 00:40:31  5-MIN KARA 310640Z AUTO 13009KT 10SM OVC110 11/00 A3015 -180 48 -700 130/09 RMK AO2 T01060000 TSNO
53915KARA ARA20161231004511712/31/16 00:45:31  5-MIN KARA 310645Z AUTO 13009KT 10SM OVC110 11/00 A3014 -170 48 -700 130/09 RMK AO2 T01060000 TSNO
53915KARA ARA20161231005012412/31/16 00:50:31  5-MIN KARA 310650Z AUTO 14010KT 10SM OVC110 11/00 A3014 -170 48 -700 140/10 RMK AO2 SLP205 T01060000 TSNO
53915KARA ARA20161231005511712/31/16 00:55:31  5-MIN KARA 310655Z AUTO 14008KT 10SM OVC110 11/01 A3014 -170 50 -700 140/08 RMK AO2 T01060006 TSNO
53915KARA ARA20161231010011712/31/16 01:00:31  5-MIN KARA 310700Z AUTO 14007KT 10SM OVC110 11/01 A3015 -180 50 -700 140/07 RMK AO2 T01060006 TSNO
53915KARA ARA20161231010511712/31/16 01:05:31  5-MIN KARA 310705Z AUTO 13007KT 10SM OVC110 11/01 A3015 -180 50 -700 130/07 RMK AO2 T01060006 TSNO
53915KARA ARA20161231011011712/31/16 01:10:31  5-MIN KARA 310710Z AUTO 13006KT 10SM OVC110 11/01 A3014 -170 50 -700 130/06 RMK AO2 T01060006 TSNO
53915KARA ARA20161231011511712/31/16 01:15:31  5-MIN KARA 310715Z AUTO 13007KT 10SM OVC100 11/01 A3014 -170 50 -700 130/07 RMK AO2 T01060006 TSNO
53915KARA ARA20161231012011712/31/16 01:20:31  5-MIN KARA 310720Z AUTO 13007KT 10SM OVC100 11/01 A3013 -170 52 -700 130/07 RMK AO2 T01060011 TSNO
53915KARA ARA20161231012511712/31/16 01:25:31  5-MIN KARA 310725Z AUTO 13008KT 10SM BKN100 11/01 A3013 -160 50 -600 130/08 RMK AO2 T01060006 TSNO
53915KARA ARA20161231013011712/31/16 01:30:31  5-MIN KARA 310730Z AUTO 12007KT 10SM BKN100 11/01 A3013 -160 50 -600 120/07 RMK AO2 T01060006 TSNO
53915KARA ARA20161231013511712/31/16 01:35:31  5-MIN KARA 310735Z AUTO 12008KT 10SM SCT100 11/01 A3013 -160 50 -600 120/08 RMK AO2 T01060006 TSNO
53915KARA ARA20161231014011712/31/16 01:40:31  5-MIN KARA 310740Z AUTO 12009KT 10SM SCT100 11/01 A3012 -150 52 -600 120/09 RMK AO2 T01060011 TSNO
53915KARA ARA20161231014511712/31/16 01:45:31  5-MIN KARA 310745Z AUTO 12008KT 10SM FEW110 11/01 A3012 -160 52 -600 120/08 RMK AO2 T01060011 TSNO
53915KARA ARA20161231015012112/31/16 01:50:31  5-MIN KARA 310750Z AUTO 12006KT 10SM CLR 11/01 A3013 -160 52 -700 120/06 RMK AO2 SLP203 T01060011 TSNO
53915KARA ARA20161231015511712/31/16 01:55:31  5-MIN KARA 310755Z AUTO 13006KT 10SM FEW110 11/01 A3013 -160 52 -600 120/06 RMK AO2 T01060011 TSNO
53915KARA ARA20161231020011712/31/16 02:00:31  5-MIN KARA 310800Z AUTO 12007KT 10SM FEW110 11/01 A3013 -160 52 -600 120/07 RMK AO2 T01060011 TSNO
53915KARA ARA20161231020511712/31/16 02:05:31  5-MIN KARA 310805Z AUTO 12007KT 10SM FEW100 11/02 A3012 -150 54 -600 120/07 RMK AO2 T01060017 TSNO
53915KARA ARA20161231021011712/31/16 02:10:31  5-MIN KARA 310810Z AUTO 12007KT 10SM SCT100 11/02 A3012 -150 54 -600 120/07 RMK AO2 T01060017 TSNO
53915KARA ARA20161231021511712/31/16 02:15:31  5-MIN KARA 310815Z AUTO 12007KT 10SM FEW100 11/02 A3012 -150 54 -600 120/07 RMK AO2 T01060017 TSNO
53915KARA ARA20161231022011712/31/16 02:20:31  5-MIN KARA 310820Z AUTO 13006KT 10SM SCT100 11/02 A3012 -150 54 -600 130/06 RMK AO2 T01060017 TSNO
53915KARA ARA20161231022511712/31/16 02:25:31  5-MIN KARA 310825Z AUTO 12004KT 10SM BKN110 11/02 A3013 -160 52 -600 120/04 RMK AO2 T01110017 TSNO
53915KARA ARA20161231023011712/31/16 02:30:31  5-MIN KARA 310830Z AUTO 10005KT 10SM BKN110 11/02 A3012 -160 52 -600 100/05 RMK AO2 T01110017 TSNO
53915KARA ARA20161231023511712/31/16 02:35:31  5-MIN KARA 310835Z AUTO 09005KT 10SM BKN110 11/02 A3011 -150 54 -600 090/05 RMK AO2 T01110022 TSNO
53915KARA ARA20161231024011712/31/16 02:40:31  5-MIN KARA 310840Z AUTO 10006KT 10SM BKN110 11/02 A3011 -140 54 -600 090/06 RMK AO2 T01110022 TSNO
53915KARA ARA20161231024511712/31/16 02:45:31  5-MIN KARA 310845Z AUTO 10006KT 10SM OVC110 11/02 A3011 -140 54 -600 090/06 RMK AO2 T01060017 TSNO
53915KARA ARA20161231025013012/31/16 02:50:31  5-MIN KARA 310850Z AUTO 09006KT 10SM OVC110 11/02 A3011 -150 52 -600 090/06 RMK AO2 SLP196 T01110017 57028 TSNO
53915KARA ARA20161231025511712/31/16 02:55:31  5-MIN KARA 310855Z AUTO 10006KT 10SM OVC110 11/02 A3011 -140 54 -600 100/06 RMK AO2 T01110022 TSNO
53915KARA ARA20161231030011712/31/16 03:00:31  5-MIN KARA 310900Z AUTO 10007KT 10SM BKN110 11/02 A3011 -140 56 -600 100/07 RMK AO2 T01060022 TSNO
53915KARA ARA20161231030511712/31/16 03:05:31  5-MIN KARA 310905Z AUTO 10007KT 10SM BKN110 11/02 A3010 -140 56 -600 100/07 RMK AO2 T01060022 TSNO
53915KARA ARA20161231031012412/31/16 03:10:31  5-MIN KARA 310910Z AUTO 11007KT 10SM BKN100 BKN120 11/02 A3010 -140 56 -600 110/07 RMK AO2 T01060022 TSNO
53915KARA ARA20161231031512412/31/16 03:15:31  5-MIN KARA 310915Z AUTO 11007KT 10SM BKN100 BKN120 11/02 A3010 -130 54 -500 110/07 RMK AO2 T01110022 TSNO
53915KARA ARA20161231032012412/31/16 03:20:31  5-MIN KARA 310920Z AUTO 11007KT 10SM BKN095 BKN120 11/03 A3010 -130 56 -500 110/07 RMK AO2 T01110028 TSNO
53915KARA ARA20161231032511712/31/16 03:25:31  5-MIN KARA 310925Z AUTO 11007KT 10SM OVC095 11/03 A3009 -130 56 -500 110/07 RMK AO2 T01110028 TSNO
53915KARA ARA20161231033011712/31/16 03:30:31  5-MIN KARA 310930Z AUTO 11007KT 10SM OVC095 11/03 A3009 -120 56 -500 110/07 RMK AO2 T01110028 TSNO
53915KARA ARA20161231033511712/31/16 03:35:31  5-MIN KARA 310935Z AUTO 11007KT 10SM OVC095 11/03 A3009 -120 56 -500 110/07 RMK AO2 T01110028 TSNO
53915KARA ARA20161231034011712/31/16 03:40:31  5-MIN KARA 310940Z AUTO 10007KT 10SM OVC095 11/03 A3008 -120 56 -500 100/07 RMK AO2 T01110028 TSNO
53915KARA ARA20161231034511712/31/16 03:45:31  5-MIN KARA 310945Z AUTO 11006KT 10SM OVC095 11/03 A3008 -120 58 -500 100/06 RMK AO2 T01110033 TSNO
53915KARA ARA20161231035012412/31/16 03:50:31  5-MIN KARA 310950Z AUTO 12007KT 10SM OVC095 11/03 A3008 -120 58 -500 110/07 RMK AO2 SLP186 T01110033 TSNO
53915KARA ARA20161231035511712/31/16 03:55:31  5-MIN KARA 310955Z AUTO 12008KT 10SM OVC095 12/03 A3008 -120 56 -500 120/08 RMK AO2 T01170033 TSNO
53915KARA ARA20161231040011712/31/16 04:00:31  5-MIN KARA 311000Z AUTO 11007KT 10SM OVC095 12/04 A3008 -120 58 -500 110/07 RMK AO2 T01170039 TSNO
53915KARA ARA20161231040511712/31/16 04:05:31  5-MIN KARA 311005Z AUTO 11008KT 10SM OVC095 12/04 A3008 -110 58 -500 110/08 RMK AO2 T01170039 TSNO
53915KARA ARA20161231041011712/31/16 04:10:31  5-MIN KARA 311010Z AUTO 11008KT 10SM OVC095 12/04 A3007 -110 58 -400 110/08 RMK AO2 T01170039 TSNO
53915KARA ARA20161231041512412/31/16 04:15:31  5-MIN KARA 311015Z AUTO 11007KT 10SM FEW042 OVC100 12/04 A3007 -110 58 -500 110/07 RMK AO2 T01170039 TSNO
53915KARA ARA20161231042012412/31/16 04:20:31  5-MIN KARA 311020Z AUTO 11009KT 10SM SCT042 OVC100 12/04 A3007 -110 58 -500 110/09 RMK AO2 T01170039 TSNO
53915KARA ARA20161231042512412/31/16 04:25:31  5-MIN KARA 311025Z AUTO 11009KT 10SM BKN042 OVC100 12/04 A3007 -110 58 -400 110/09 RMK AO2 T01170039 TSNO
53915KARA ARA20161231043012412/31/16 04:30:31  5-MIN KARA 311030Z AUTO 10009KT 10SM BKN040 OVC100 12/04 A3007 -110 61 -400 100/09 RMK AO2 T01170044 TSNO
53915KARA ARA20161231043512412/31/16 04:35:31  5-MIN KARA 311035Z AUTO 11009KT 10SM BKN040 OVC100 12/04 A3007 -100 61 -400 100/09 RMK AO2 T01170044 TSNO
53915KARA ARA20161231044013112/31/16 04:40:31  5-MIN KARA 311040Z AUTO 11009KT 10SM FEW033 BKN042 OVC100 12/04 A3006 -100 61 -400 110/09 RMK AO2 T01170044 TSNO
53915KARA ARA20161231044512412/31/16 04:45:31  5-MIN KARA 311045Z AUTO 11009KT 10SM BKN040 OVC100 12/04 A3006 -100 61 -400 110/09 RMK AO2 T01170044 TSNO
53915KARA ARA20161231045013012/31/16 04:50:31  5-MIN KARA 311050Z AUTO 11010KT 10SM BKN040 OVC100 12/04 A3006 -90 61 -400 110/10 RMK AO2 SLP177 T01170044 TSNO
53915KARA ARA20161231045513012/31/16 04:55:31  5-MIN KARA 311055Z AUTO 11010KT 10SM FEW033 SCT040 OVC100 12/04 A3006 -90 61 -400 110/10 RMK AO2 T01170044 TSNO
53915KARA ARA20161231050012312/31/16 05:00:31  5-MIN KARA 311100Z AUTO 11009KT 10SM SCT040 OVC100 12/05 A3005 -90 63 -400 110/09 RMK AO2 T01170050 TSNO
53915KARA ARA20161231050513012/31/16 05:05:31  5-MIN KARA 311105Z AUTO 11009KT 10SM FEW040 FEW049 OVC100 12/05 A3005 -90 61 -400 110/09 RMK AO2 T01220050 TSNO
53915KARA ARA20161231051013112/31/16 05:10:31  5-MIN KARA 311110Z AUTO 11008KT 10SM FEW040 FEW049 OVC100 12/05 A3006 -100 61 -400 110/08 RMK AO2 T01220050 TSNO
53915KARA ARA20161231051512312/31/16 05:15:31  5-MIN KARA 311115Z AUTO 11011KT 10SM FEW044 OVC100 12/05 A3006 -90 61 -400 110/11 RMK AO2 T01220050 TSNO
53915KARA ARA20161231052012312/31/16 05:20:31  5-MIN KARA 311120Z AUTO 11010KT 10SM SCT044 OVC100 12/05 A3005 -90 61 -400 110/10 RMK AO2 T01220050 TSNO
53915KARA ARA20161231052512312/31/16 05:25:31  5-MIN KARA 311125Z AUTO 11010KT 10SM SCT046 OVC100 12/05 A3005 -90 61 -400 110/10 RMK AO2 T01220050 TSNO
53915KARA ARA20161231053012312/31/16 05:30:31  5-MIN KARA 311130Z AUTO 10009KT 10SM SCT046 OVC110 12/06 A3006 -90 63 -400 100/09 RMK AO2 T01220056 TSNO
53915KARA ARA20161231053511412/31/16 05:35:31  5-MIN KARA 311135Z 10007KT 10SM SCT046 OVC110 12/06 A3006 -100 63 -400 100/07 RMK AO2 T01220056
53915KARA ARA20161231054011412/31/16 05:40:31  5-MIN KARA 311140Z 10008KT 10SM BKN046 OVC110 12/06 A3006 -100 63 -400 100/08 RMK AO2 T01220056
53915KARA ARA20161231054511412/31/16 05:45:31  5-MIN KARA 311145Z 09006KT 10SM BKN046 OVC110 12/06 A3006 -100 63 -400 090/06 RMK AO2 T01220056
53915KARA ARA20161231055013912/31/16 05:50:31  5-MIN KARA 311150Z 09006KT 10SM BKN044 OVC110 12/06 A3006 -100 63 -400 090/06 RMK AO2 SLP180 T01220056 10122 20106 56023
53915KARA ARA20161231055512112/31/16 05:55:31  5-MIN KARA 311155Z 10005KT 10SM BKN040 BKN047 OVC110 12/06 A3007 -100 63 -400 090/05 RMK AO2 T01220056
53915KARA ARA20161231060011412/31/16 06:00:31  5-MIN KARA 311200Z 09006KT 10SM BKN040 OVC047 12/06 A3007 -110 66 -400 090/06 RMK AO2 T01220061
53915KARA ARA20161231060510712/31/16 06:05:31  5-MIN KARA 311205Z 09006KT 10SM OVC040 12/06 A3007 -100 66 -400 090/06 RMK AO2 T01220061
53915KARA ARA20161231061010712/31/16 06:10:31  5-MIN KARA 311210Z 07005KT 10SM OVC040 12/06 A3007 -110 63 -400 070/05 RMK AO2 T01220056
53915KARA ARA20161231061510712/31/16 06:15:31  5-MIN KARA 311215Z 07004KT 10SM OVC039 12/06 A3007 -110 63 -400 070/04 RMK AO2 T01220056
53915KARA ARA20161231062010712/31/16 06:20:31  5-MIN KARA 311220Z 08006KT 10SM OVC042 12/06 A3007 -110 63 -400 080/06 RMK AO2 T01220056
53915KARA ARA20161231062510712/31/16 06:25:31  5-MIN KARA 311225Z 08006KT 10SM OVC042 12/06 A3007 -110 63 -400 080/06 RMK AO2 T01220056
53915KARA ARA20161231063011412/31/16 06:30:31  5-MIN KARA 311230Z 08006KT 10SM BKN040 OVC047 12/06 A3007 -100 63 -400 080/06 RMK AO2 T01220056
53915KARA ARA20161231063511412/31/16 06:35:31  5-MIN KARA 311235Z 08006KT 10SM BKN040 OVC047 12/06 A3007 -100 66 -400 080/06 RMK AO2 T01220061
53915KARA ARA20161231064011412/31/16 06:40:31  5-MIN KARA 311240Z 09006KT 10SM BKN040 OVC049 12/06 A3007 -110 68 -400 090/06 RMK AO2 T01170061
53915KARA ARA20161231064511412/31/16 06:45:31  5-MIN KARA 311245Z 09005KT 10SM BKN039 OVC049 12/07 A3007 -110 71 -400 090/05 RMK AO2 T01170067
53915KARA ARA20161231065012112/31/16 06:50:31  5-MIN KARA 311250Z 09006KT 10SM BKN037 OVC050 12/07 A3007 -100 71 -400 090/06 RMK AO2 SLP181 T01170067
53915KARA ARA20161231065512112/31/16 06:55:31  5-MIN KARA 311255Z 10006KT 10SM SCT037 BKN045 OVC055 12/07 A3007 -100 71 -400 100/06 RMK AO2 T01170067
53915KARA ARA20161231070012112/31/16 07:00:31  5-MIN KARA 311300Z 10007KT 10SM SCT037 BKN047 OVC055 12/07 A3006 -100 71 -400 100/07 RMK AO2 T01170067
53915KARA ARA20161231070512112/31/16 07:05:31  5-MIN KARA 311305Z 11007KT 10SM FEW035 BKN044 OVC055 12/07 A3006 -100 71 -400 110/07 RMK AO2 T01170067
53915KARA ARA20161231071012012/31/16 07:10:31  5-MIN KARA 311310Z 11007KT 10SM FEW035 BKN042 OVC055 12/07 A3006 -90 71 -400 110/07 RMK AO2 T01170067
53915KARA ARA20161231071511312/31/16 07:15:31  5-MIN KARA 311315Z 11006KT 10SM BKN041 OVC055 12/07 A3005 -90 74 -400 110/06 RMK AO2 T01170072
53915KARA ARA20161231072011312/31/16 07:20:31  5-MIN KARA 311320Z 11007KT 10SM BKN041 OVC055 12/07 A3005 -90 74 -400 100/07 RMK AO2 T01170072
53915KARA ARA20161231072511312/31/16 07:25:31  5-MIN KARA 311325Z 11007KT 10SM SCT043 OVC050 12/07 A3005 -90 74 -400 110/07 RMK AO2 T01170072
53915KARA ARA20161231073011312/31/16 07:30:31  5-MIN KARA 311330Z 11007KT 10SM BKN046 OVC055 12/07 A3005 -80 74 -400 110/07 RMK AO2 T01170072
53915KARA ARA20161231073511312/31/16 07:35:31  5-MIN KARA 311335Z 11007KT 10SM BKN046 OVC055 12/07 A3005 -90 71 -400 110/07 RMK AO2 T01220072
53915KARA ARA20161231074011312/31/16 07:40:31  5-MIN KARA 311340Z 12007KT 10SM BKN047 OVC055 12/08 A3005 -90 74 -400 120/07 RMK AO2 T01220078
53915KARA ARA20161231074510612/31/16 07:45:31  5-MIN KARA 311345Z 12007KT 10SM OVC049 12/08 A3005 -90 74 -400 120/07 RMK AO2 T01220078
53915KARA ARA20161231075011312/31/16 07:50:31  5-MIN KARA 311350Z 13007KT 10SM OVC049 12/08 A3004 -80 77 -400 120/07 RMK AO2 SLP173 T01220083
53915KARA ARA20161231075511312/31/16 07:55:31  5-MIN KARA 311355Z 13009KT 10SM FEW032 OVC047 12/08 A3005 -80 77 -400 130/09 RMK AO2 T01220083
53915KARA ARA20161231080011312/31/16 08:00:31  5-MIN KARA 311400Z 13010KT 10SM FEW032 OVC045 12/08 A3004 -80 77 -300 130/10 RMK AO2 T01220083
53915KARA ARA20161231080510612/31/16 08:05:31  5-MIN KARA 311405Z 13010KT 10SM OVC045 12/08 A3004 -80 77 -300 130/10 RMK AO2 T01220083
53915KARA ARA20161231081011312/31/16 08:10:31  5-MIN KARA 311410Z 12010KT 10SM BKN045 OVC060 12/08 A3003 -70 77 -300 120/10 RMK AO2 T01220083
53915KARA ARA20161231081511312/31/16 08:15:31  5-MIN KARA 311415Z 12011KT 10SM BKN045 OVC060 12/08 A3003 -70 77 -300 120/11 RMK AO2 T01220083
53915KARA ARA20161231082011312/31/16 08:20:31  5-MIN KARA 311420Z 13010KT 10SM BKN045 OVC060 13/09 A3003 -70 77 -300 120/10 RMK AO2 T01280089
53915KARA ARA20161231082511312/31/16 08:25:31  5-MIN KARA 311425Z 13010KT 10SM BKN045 OVC060 13/09 A3003 -70 77 -300 130/10 RMK AO2 T01280089
53915KARA ARA20161231083011312/31/16 08:30:31  5-MIN KARA 311430Z 13009KT 10SM BKN047 OVC055 13/09 A3003 -70 77 -300 130/09 RMK AO2 T01280089
53915KARA ARA20161231083510612/31/16 08:35:31  5-MIN KARA 311435Z 13008KT 10SM OVC045 13/09 A3004 -80 77 -300 130/08 RMK AO2 T01280089
53915KARA ARA20161231084010612/31/16 08:40:31  5-MIN KARA 311440Z 13009KT 10SM OVC043 13/09 A3004 -80 74 -200 130/09 RMK AO2 T01330089
53915KARA ARA20161231084510612/31/16 08:45:31  5-MIN KARA 311445Z 13008KT 10SM OVC043 13/09 A3004 -80 77 -200 130/08 RMK AO2 T01330094
53915KARA ARA20161231085011912/31/16 08:50:31  5-MIN KARA 311450Z 13009KT 10SM OVC041 13/09 A3004 -80 77 -200 130/09 RMK AO2 SLP170 T01330094 55015
53915KARA ARA20161231085510612/31/16 08:55:31  5-MIN KARA 311455Z 13008KT 10SM OVC041 13/09 A3004 -80 77 -200 130/08 RMK AO2 T01330094
53915KARA ARA20161231090010612/31/16 09:00:31  5-MIN KARA 311500Z 14009KT 10SM OVC041 14/10 A3004 -80 77 -100 140/09 RMK AO2 T01390100
53915KARA ARA20161231090510612/31/16 09:05:31  5-MIN KARA 311505Z 13010KT 10SM OVC039 14/10 A3004 -80 77 -100 130/10 RMK AO2 T01390100
53915KARA ARA20161231091010612/31/16 09:10:31  5-MIN KARA 311510Z 14010KT 10SM OVC037 14/10 A3003 -70 77 -100 130/10 RMK AO2 T01390100
53915KARA ARA20161231091510612/31/16 09:15:31  5-MIN KARA 311515Z 14011KT 10SM OVC037 14/10 A3004 -70 77 -100 140/11 RMK AO2 T01390100
53915KARA ARA20161231092010612/31/16 09:20:31  5-MIN KARA 311520Z 14009KT 10SM OVC037 14/10 A3004 -70 77 -100 140/09 RMK AO2 T01390100
53915KARA ARA20161231092510612/31/16 09:25:31  5-MIN KARA 311525Z 14012KT 10SM OVC035 14/10 A3004 -80 77 -100 140/12 RMK AO2 T01390100
53915KARA ARA20161231093010612/31/16 09:30:31  5-MIN KARA 311530Z 14009KT 10SM OVC033 14/10 A3004 -80 77 -100 140/09 RMK AO2 T01390100
53915KARA ARA20161231093510612/31/16 09:35:31  5-MIN KARA 311535Z 14009KT 10SM OVC033 14/10 A3004 -80 74 -100 140/09 RMK AO2 T01440100
53915KARA ARA20161231094010612/31/16 09:40:31  5-MIN KARA 311540Z 14009KT 10SM OVC031 14/11 A3003 -70 77 -100 140/09 RMK AO2 T01440106
53915KARA ARA20161231094510612/31/16 09:45:31  5-MIN KARA 311545Z 14009KT 10SM OVC029 14/11 A3003 -70 77 -100 140/09 RMK AO2 T01440106
53915KARA ARA20161231095011012/31/16 09:50:31  5-MIN KARA 311550Z 14008KT 10SM OVC029 15/11 A3003 -70 74 0 140/08 RMK AO2 SLP169 T01500106
53915KARA ARA20161231095510612/31/16 09:55:31  5-MIN KARA 311555Z 14007KT 10SM OVC028 14/11 A3004 -80 77 -100 140/07 RMK AO2 T01440106
53915KARA ARA20161231100010312/31/16 10:00:31  5-MIN KARA 311600Z 14007KT 10SM OVC028 15/11 A3004 -80 74 0 140/07 RMK AO2 T01500106
53915KARA ARA20161231100510312/31/16 10:05:31  5-MIN KARA 311605Z 14006KT 10SM OVC028 15/11 A3003 -70 77 0 140/06 RMK AO2 T01500111
53915KARA ARA20161231101010312/31/16 10:10:31  5-MIN KARA 311610Z 13007KT 10SM OVC027 15/11 A3003 -70 77 0 130/07 RMK AO2 T01500111
53915KARA ARA20161231101510312/31/16 10:15:31  5-MIN KARA 311615Z 13007KT 10SM OVC027 15/11 A3003 -70 77 0 130/07 RMK AO2 T01500111
53915KARA ARA20161231102010312/31/16 10:20:31  5-MIN KARA 311620Z 13007KT 10SM OVC027 16/11 A3002 -70 74 0 130/07 RMK AO2 T01560111
53915KARA ARA20161231102510312/31/16 10:25:31  5-MIN KARA 311625Z 14007KT 10SM OVC026 16/12 A3002 -60 77 0 140/07 RMK AO2 T01560117
53915KARA ARA20161231103010512/31/16 10:30:31  5-MIN KARA 311630Z 14008KT 10SM OVC026 16/12 A3002 -60 77 100 140/08 RMK AO2 T01610122
53915KARA ARA20161231103510512/31/16 10:35:31  5-MIN KARA 311635Z 15007KT 10SM OVC026 16/12 A3002 -60 77 100 140/07 RMK AO2 T01610122
53915KARA ARA20161231104010512/31/16 10:40:31  5-MIN KARA 311640Z 15005KT 10SM OVC028 17/13 A3001 -50 77 200 150/05 RMK AO2 T01670128
53915KARA ARA20161231104510512/31/16 10:45:31  5-MIN KARA 311645Z 14006KT 10SM OVC028 17/13 A3001 -50 77 200 140/06 RMK AO2 T01670128
53915KARA ARA20161231105011812/31/16 10:50:31  5-MIN KARA 311650Z 15006KT 8SM BKN027 OVC034 17/13 A3001 -50 80 200 150/06 RMK AO2 SLP160 T01670133
53915KARA ARA20161231105511112/31/16 10:55:31  5-MIN KARA 311655Z 15006KT 7SM BKN027 OVC034 17/13 A3000 -40 80 200 150/06 RMK AO2 T01670133
53915KARA ARA20161231110011412/31/16 11:00:31  5-MIN KARA 311700Z 15007KT 6SM HZ BKN027 OVC034 17/14 A3000 -40 80 200 150/07 RMK AO2 T01720139
53915KARA ARA20161231110511412/31/16 11:05:31  5-MIN KARA 311705Z 15006KT 6SM HZ BKN027 OVC034 17/14 A3000 -40 83 200 150/06 RMK AO2 T01720144
53915KARA ARA20161231111011112/31/16 11:10:31  5-MIN KARA 311710Z 16008KT 7SM BKN027 OVC034 18/15 A2999 -40 83 300 160/08 RMK AO2 T01780150
53915KARA ARA20161231111511112/31/16 11:15:31  5-MIN KARA 311715Z 16009KT 8SM BKN027 OVC034 18/16 A2998 -30 84 400 160/09 RMK AO2 T01830156
53915KARA ARA20161231112011112/31/16 11:20:31  5-MIN KARA 311720Z 16010KT 9SM BKN029 OVC035 18/16 A2998 -20 84 400 160/10 RMK AO2 T01830156
53915KARA ARA20161231112511112/31/16 11:25:31  5-MIN KARA 311725Z 16009KT 9SM BKN030 OVC037 18/16 A2998 -20 84 400 160/09 RMK AO2 T01830156
53915KARA ARA20161231113011112/31/16 11:30:31  5-MIN KARA 311730Z 16009KT 7SM FEW027 OVC034 18/16 A2998 -20 84 400 160/09 RMK AO2 T01830156
53915KARA ARA20161231113510412/31/16 11:35:31  5-MIN KARA 311735Z 16010KT 7SM OVC034 18/16 A2997 -20 84 400 150/10 RMK AO2 T01830156
53915KARA ARA20161231114010412/31/16 11:40:31  5-MIN KARA 311740Z 16008KT 9SM OVC034 18/16 A2997 -10 84 400 160/08 RMK AO2 T01830156
53915KARA ARA20161231114510412/31/16 11:45:31  5-MIN KARA 311745Z 16008KT 9SM OVC034 19/16 A2996 -10 84 500 160/08 RMK AO2 T01890161
53915KARA ARA20161231115013512/31/16 11:50:31  5-MIN KARA 311750Z 16010KT 10SM OVC035 18/16 A2996 0 84 400 150/10 RMK AO2 PRESFR SLP143 T01830156 10189 20117 58010
53915KARA ARA20161231115510212/31/16 11:55:31  5-MIN KARA 311755Z 16009KT 8SM OVC035 18/16 A2995 0 84 400 160/09 RMK AO2 T01830156
53915KARA ARA20161231120010512/31/16 12:00:31  5-MIN KARA 311800Z 15011KT 6SM HZ OVC036 18/16 A2995 0 84 400 150/11 RMK AO2 T01830156
53915KARA ARA20161231120510212/31/16 12:05:31  5-MIN KARA 311805Z 15011KT 7SM OVC036 18/16 A2994 0 87 400 150/11 RMK AO2 T01830161
53915KARA ARA20161231121010312/31/16 12:10:31  5-MIN KARA 311810Z 16012KT 9SM OVC036 19/16 A2994 10 84 500 160/12 RMK AO2 T01890161
53915KARA ARA20161231121510412/31/16 12:15:31  5-MIN KARA 311815Z 16012KT 10SM OVC036 19/16 A2993 10 84 500 160/12 RMK AO2 T01890161
53915KARA ARA20161231122010412/31/16 12:20:31  5-MIN KARA 311820Z 16012KT 10SM OVC034 19/16 A2993 20 84 500 160/12 RMK AO2 T01890161
53915KARA ARA20161231122510412/31/16 12:25:31  5-MIN KARA 311825Z 16011KT 10SM OVC034 19/16 A2993 20 81 600 160/11 RMK AO2 T01940161
53915KARA ARA20161231123010312/31/16 12:30:31  5-MIN KARA 311830Z 16010KT 7SM OVC034 19/16 A2992 20 81 600 160/10 RMK AO2 T01940161
53915KARA ARA20161231123511212/31/16 12:35:31  5-MIN KARA 311835Z 17011KT 4SM HZ OVC034 19/16 A2992 20 81 600 170/11 RMK AO2 P0001 T01940161
53915KARA ARA20161231124011912/31/16 12:40:31  5-MIN KARA 311840Z 17013KT 3SM HZ BKN034 OVC043 19/16 A2992 30 84 500 170/13 RMK AO2 P0002 T01890161
53915KARA ARA20161231124511912/31/16 12:45:31  5-MIN KARA 311845Z 17012KT 4SM HZ BKN034 OVC045 19/16 A2992 30 84 500 160/12 RMK AO2 P0002 T01890161
53915KARA ARA20161231125012312/31/16 12:50:31  5-MIN KARA 311850Z 17012KT 7SM BKN034 OVC045 19/16 A2991 30 81 600 170/12 RMK AO2 SLP128 P0003 T01940161
53915KARA ARA20161231125511012/31/16 12:55:31  5-MIN KARA 311855Z 17012KT 8SM SCT034 OVC043 19/16 A2991 40 81 600 170/12 RMK AO2 T01940161
53915KARA ARA20161231130011012/31/16 13:00:31  5-MIN KARA 311900Z 17013KT 9SM BKN039 OVC045 19/16 A2990 40 81 600 170/13 RMK AO2 T01940161
53915KARA ARA20161231130510312/31/16 13:05:31  5-MIN KARA 311905Z 16013KT 9SM OVC039 19/16 A2990 50 81 600 160/13 RMK AO2 T01940161
53915KARA ARA20161231131011112/31/16 13:10:31  5-MIN KARA 311910Z 16013KT 10SM BKN035 OVC043 19/17 A2990 50 84 600 160/13 RMK AO2 T01940167
53915KARA ARA20161231131511712/31/16 13:15:31  5-MIN KARA 311915Z 16014G22KT 10SM FEW029 OVC038 20/17 A2989 50 81 700 160/14G22 RMK AO2 T02000167
53915KARA ARA20161231132011712/31/16 13:20:31  5-MIN KARA 311920Z 16013G22KT 10SM BKN036 OVC045 20/17 A2989 50 81 700 160/13G22 RMK AO2 T02000167
53915KARA ARA20161231132511712/31/16 13:25:31  5-MIN KARA 311925Z 16014G20KT 10SM BKN036 OVC045 20/17 A2989 60 81 700 160/14G20 RMK AO2 T02000167
53915KARA ARA20161231133011612/31/16 13:30:31  5-MIN KARA 311930Z 17012G20KT 9SM FEW030 OVC037 20/17 A2989 60 81 700 170/12G20 RMK AO2 T02000167
53915KARA ARA20161231133510312/31/16 13:35:31  5-MIN KARA 311935Z 17012KT 9SM OVC034 20/17 A2988 60 81 700 170/12 RMK AO2 T02000167
53915KARA ARA20161231134011812/31/16 13:40:31  5-MIN KARA 311940Z 16017G21KT 6SM HZ OVC033 20/17 A2988 60 81 700 160/17G21 RMK AO2 P0001 T02000167
53915KARA ARA20161231134512512/31/16 13:45:31  5-MIN KARA 311945Z 17012G21KT 4SM HZ BKN030 OVC036 20/17 A2988 60 81 700 170/12G21 RMK AO2 P0002 T02000167
53915KARA ARA20161231135011512/31/16 13:50:31  5-MIN KARA 311950Z 16012G19KT 3SM HZ BKN028 OVC034 20/17 A2988 70 81 700 160/12G19 RMK AO2 P0003
53915KARA ARA20161231135512312/31/16 13:55:31  5-MIN KARA 311955Z 17012KT 2 1/2SM HZ FEW023 OVC030 20/17 A2987 70 84 700 160/12 RMK AO2 P0001 T02000172
53915KARA ARA20161231140012612/31/16 14:00:31  5-MIN KARA 312000Z 17014KT 2SM BR FEW022 BKN029 OVC033 19/17 A2987 70 87 600 170/14 RMK AO2 P0003 T01940172
53915KARA ARA20161231140512312/31/16 14:05:31  5-MIN KARA 312005Z 17013KT 2 1/2SM BR FEW022 OVC026 19/17 A2987 70 87 700 170/13 RMK AO2 P0003 T01940172
53915KARA ARA20161231141011612/31/16 14:10:31  5-MIN KARA 312010Z 17014KT 2 1/2SM BR OVC025 19/17 A2987 80 87 700 170/14 RMK AO2 P0004 T01940172
53915KARA ARA20161231141511912/31/16 14:15:31  5-MIN KARA 312015Z 17013KT 2SM BR BKN023 OVC028 19/17 A2987 70 87 700 170/13 RMK AO2 P0005 T01940172
53915KARA ARA20161231142011612/31/16 14:20:31  5-MIN KARA 312020Z 17011KT 1 1/4SM BR OVC023 19/17 A2987 70 87 600 170/11 RMK AO2 P0008 T01940172
53915KARA ARA20161231142512312/31/16 14:25:31  5-MIN KARA 312025Z 17012KT 1 1/4SM BR BKN023 OVC027 19/17 A2987 70 87 700 170/12 RMK AO2 P0010 T01940172
53915KARA ARA20161231143012312/31/16 14:30:31  5-MIN KARA 312030Z 17011KT 1 1/2SM BR SCT020 OVC024 19/17 A2987 70 87 700 170/11 RMK AO2 P0013 T01940172
53915KARA ARA20161231143511912/31/16 14:35:31  5-MIN KARA 312035Z 16012KT 3SM BR BKN020 OVC027 19/17 A2987 80 87 700 160/12 RMK AO2 P0015 T01940172
53915KARA ARA20161231144011912/31/16 14:40:31  5-MIN KARA 312040Z 16012KT 4SM BR BKN020 OVC027 19/17 A2986 80 87 700 160/12 RMK AO2 P0016 T01940172
53915KARA ARA20161231144512612/31/16 14:45:31  5-MIN KARA 312045Z 16012KT 3SM BR FEW020 BKN025 OVC032 19/17 A2986 80 87 700 160/12 RMK AO2 P0017 T01940172
53915KARA ARA20161231145014512/31/16 14:50:31  5-MIN KARA 312050Z 16011KT 3SM BR FEW019 BKN025 OVC032 19/17 A2986 80 87 700 160/11 RMK AO2 SLP110 P0017 60023 T01940172 58026
53915KARA ARA20161231145511912/31/16 14:55:31  5-MIN KARA 312055Z 16011G18KT 4SM BR BKN021 OVC028 19/17 A2986 80 87 700 160/11G18 RMK AO2 T01940172
53915KARA ARA20161231150012612/31/16 15:00:31  5-MIN KARA 312100Z 17014KT 4SM BR SCT020 BKN025 OVC031 19/17 A2986 80 87 700 160/14 RMK AO2 P0001 T01940172
53915KARA ARA20161231150512512/31/16 15:05:31  5-MIN KARA 312105Z 17013G21KT 4SM BR BKN020 OVC027 19/17 A2986 80 87 700 160/13G21 RMK AO2 P0001 T01940172
53915KARA ARA20161231151012512/31/16 15:10:31  5-MIN KARA 312110Z 17013G21KT 4SM BR BKN022 OVC029 19/17 A2986 80 87 700 160/13G21 RMK AO2 P0001 T01940172
53915KARA ARA20161231151511912/31/16 15:15:31  5-MIN KARA 312115Z 16013KT 3SM BR SCT020 OVC026 19/17 A2986 90 87 700 160/13 RMK AO2 P0002 T01940172
53915KARA ARA20161231152011912/31/16 15:20:31  5-MIN KARA 312120Z 16011KT 3SM BR SCT020 OVC027 19/17 A2985 90 87 700 160/11 RMK AO2 P0003 T01940172
53915KARA ARA20161231152511612/31/16 15:25:31  5-MIN KARA 312125Z 17010KT 2 1/2SM BR OVC025 19/17 A2985 90 87 700 160/10 RMK AO2 P0004 T01940172
53915KARA ARA20161231153011612/31/16 15:30:31  5-MIN KARA 312130Z 17009KT 2 1/2SM BR OVC023 19/18 A2985 90 90 700 170/09 RMK AO2 P0005 T01940178
53915KARA ARA20161231153512312/31/16 15:35:31  5-MIN KARA 312135Z 17009KT 1 1/2SM BR BKN020 OVC026 19/18 A2986 80 90 700 170/09 RMK AO2 P0007 T01940178
53915KARA ARA20161231154012612/31/16 15:40:31  5-MIN KARA 312140Z 17010KT 1SM BR FEW006 BKN020 OVC024 19/18 A2986 80 90 700 170/10 RMK AO2 P0009 T01940178
53915KARA ARA20161231154513012/31/16 15:45:31  5-MIN KARA 312145Z 17009KT 1 1/4SM BR FEW006 BKN020 OVC026 19/18 A2986 80 90 700 170/09 RMK AO2 P0012 T01940178
53915KARA ARA20161231155011612/31/16 15:50:31  5-MIN KARA 312150Z 16010KT 2SM BR BKN020 BKN024 OVC031 19/18 A2985 90 90 700 160/10 RMK AO2 P0014
53915KARA ARA20161231155512612/31/16 15:55:31  5-MIN KARA 312155Z 17010KT 2SM BR BKN020 BKN024 OVC031 19/18 A2985 90 90 700 170/10 RMK AO2 P0001 T01940178
53915KARA ARA20161231160013012/31/16 16:00:31  5-MIN KARA 312200Z 18009KT 2 1/2SM BR FEW007 BKN020 OVC026 19/18 A2985 90 90 700 180/09 RMK AO2 P0004 T01940178
53915KARA ARA20161231160513012/31/16 16:05:31  5-MIN KARA 312205Z 18011KT 2 1/2SM BR FEW007 BKN020 OVC026 19/18 A2985 90 90 700 180/11 RMK AO2 P0006 T01940178
53915KARA ARA20161231161011612/31/16 16:10:31  5-MIN KARA 312210Z 17011KT 2 1/2SM BR OVC020 19/18 A2985 90 90 700 170/11 RMK AO2 P0008 T01940178
53915KARA ARA20161231161512312/31/16 16:15:31  5-MIN KARA 312215Z 18012KT 2 1/2SM BR BKN022 OVC029 19/18 A2985 90 90 700 170/12 RMK AO2 P0010 T01940178
53915KARA ARA20161231162011912/31/16 16:20:31  5-MIN KARA 312220Z 17012KT 3SM BR BKN019 OVC024 19/18 A2985 90 90 700 170/12 RMK AO2 P0011 T01940178
53915KARA ARA20161231162512612/31/16 16:25:31  5-MIN KARA 312225Z 18010KT 4SM BR FEW013 BKN019 OVC024 19/18 A2986 90 90 700 180/10 RMK AO2 P0012 T01940178
53915KARA ARA20161231163012612/31/16 16:30:31  5-MIN KARA 312230Z 18011KT 3SM BR SCT012 BKN019 OVC024 19/18 A2986 80 90 700 180/11 RMK AO2 P0013 T01940178
53915KARA ARA20161231163513012/31/16 16:35:31  5-MIN KARA 312235Z 18011KT 2 1/2SM BR BKN011 BKN019 OVC024 19/18 A2986 80 90 700 180/11 RMK AO2 P0014 T01940178
53915KARA ARA20161231164012612/31/16 16:40:31  5-MIN KARA 312240Z 18012KT 3SM BR SCT009 BKN013 OVC019 19/18 A2986 80 90 700 180/12 RMK AO2 P0016 T01940178
53915KARA ARA20161231164513212/31/16 16:45:31  5-MIN KARA 312245Z 18014G19KT 4SM BR BKN007 BKN013 OVC018 19/18 A2986 80 90 700 170/14G19 RMK AO2 P0018 T01940178
53915KARA ARA20161231165014412/31/16 16:50:31  5-MIN KARA 312250Z 18011G20KT 4SM BR BKN007 OVC013 19/18 A2986 80 90 700 180/11G20 RMK AO2 CIG 005V009 SLP110 P0019 T01940178
53915KARA ARA20161231165513712/31/16 16:55:31  5-MIN KARA 312255Z 18011G20KT 3SM BR BKN007 OVC013 19/18 A2986 80 90 700 180/11G20 RMK AO2 CIG 005V009 P0001 T01940178
53915KARA ARA20161231170013112/31/16 17:00:31  5-MIN KARA 312300Z 17012KT 4SM BR BKN007 OVC013 19/18 A2986 80 90 700 170/12 RMK AO2 CIG 005V011 P0003 T01940178
53915KARA ARA20161231170513112/31/16 17:05:31  5-MIN KARA 312305Z 18012KT 4SM BR BKN007 OVC013 19/18 A2985 90 90 700 170/12 RMK AO2 CIG 005V009 P0005 T01940178
53915KARA ARA20161231171011912/31/16 17:10:31  5-MIN KARA 312310Z 18011KT 5SM BR BKN007 OVC013 19/18 A2985 90 90 700 180/11 RMK AO2 P0006 T01940178
53915KARA ARA20161231171511912/31/16 17:15:31  5-MIN KARA 312315Z 18012KT 5SM BR BKN007 OVC015 19/18 A2985 90 90 700 180/12 RMK AO2 P0008 T01940178
53915KARA ARA20161231172011912/31/16 17:20:31  5-MIN KARA 312320Z 18013KT 4SM BR BKN006 OVC015 19/18 A2985 90 93 700 180/13 RMK AO2 P0009 T01940183
53915KARA ARA20161231172511912/31/16 17:25:31  5-MIN KARA 312325Z 19010KT 3SM BR BKN006 OVC015 19/18 A2986 90 93 700 190/10 RMK AO2 P0011 T01940183
53915KARA ARA20161231173011612/31/16 17:30:31  5-MIN KARA 312330Z 19011KT 2 1/2SM BR OVC006 19/18 A2985 90 93 700 190/11 RMK AO2 P0013 T01940183
53915KARA ARA20161231173511212/31/16 17:35:31  5-MIN KARA 312335Z 20010KT 2SM BR OVC006 19/18 A2986 80 93 700 200/10 RMK AO2 P0015 T01940183
53915KARA ARA20161231174012212/31/16 17:40:31  5-MIN KARA 312340Z 19011G18KT 2 1/2SM BR OVC006 19/18 A2986 80 93 700 190/11G18 RMK AO2 P0017 T01940183
53915KARA ARA20161231174512212/31/16 17:45:31  5-MIN KARA 312345Z 18013G19KT 2 1/2SM BR OVC006 19/18 A2986 80 93 700 180/13G19 RMK AO2 P0019 T01940183
53915KARA ARA20161231175012012/31/16 17:50:31  5-MIN KARA 312350Z 18012KT 1 3/4SM BR BKN006 BKN013 OVC033 19/18 A2986 80 93 700 180/12 RMK AO2 P0021
53915KARA ARA20161231175512612/31/16 17:55:31  5-MIN KARA 312355Z 19010KT 2SM BR BKN006 BKN013 OVC033 20/18 A2987 80 90 700 190/10 RMK AO2 P0001 T02000183
53915KARA ARA20161231180014812/31/16 18:00:31  5-MIN KARA 010000Z 24010G18KT 200V300 3SM BR BKN006 OVC014 20/18 A2988 60 90 700 240/10G18 200V300 RMK AO2 PRESRR P0004 T02000183
53915KARA ARA20161231180514312/31/16 18:05:31  5-MIN KARA 010005Z 29012G17KT 2 1/2SM BR BKN006 BKN014 OVC024 20/18 A2990 40 90 700 290/12G17 RMK AO2 PRESRR P0006 T02000183
53915KARA ARA20161231181012612/31/16 18:10:31  5-MIN KARA 010010Z 31012KT 1SM BR BKN006 BKN016 OVC024 19/18 A2989 60 93 600 300/12 RMK AO2 P0009 T01940183
