54779K12N 12N20160401012010504/01/16 01:20:31  5-MIN K12N 010620Z AUTO 21010G17KT 18/14 A2970 790 78 1400 220/10G17 RMK AO1 T01830144
54779K12N 12N20160401012512104/01/16 01:25:31  5-MIN K12N 010625Z AUTO 21011G18KT 180V240 18/14 A2970 790 78 1400 230/11G18 190V250 RMK AO1 T01830144
54779K12N 12N20160401013010504/01/16 01:30:31  5-MIN K12N 010630Z AUTO 21013G19KT 18/14 A2970 790 78 1400 230/13G19 RMK AO1 T01830144
54779K12N 12N20160401013510504/01/16 01:35:31  5-MIN K12N 010635Z AUTO 21009G19KT 19/14 A2970 790 75 1500 230/09G19 RMK AO1 T01890144
54779K12N 12N20160401014012104/01/16 01:40:31  5-MIN K12N 010640Z AUTO 21008G24KT 170V240 19/14 A2970 790 75 1500 220/08G24 180V250 RMK AO1 T01890144
54779K12N 12N20160401014510504/01/16 01:45:31  5-MIN K12N 010645Z AUTO 21010G24KT 19/14 A2970 790 75 1500 220/10G24 RMK AO1 T01890144
54779K12N 12N20160401015011204/01/16 01:50:31  5-MIN K12N 010650Z AUTO 21010G19KT 19/14 A2970 790 75 1500 220/10G19 RMK AO1 SLP053 T01890144
54779K12N 12N20160401015512104/01/16 01:55:31  5-MIN K12N 010655Z AUTO 21009G18KT 160V240 19/14 A2971 780 75 1500 220/09G18 170V250 RMK AO1 T01890144
54779K12N 12N20160401020010504/01/16 02:00:31  5-MIN K12N 010700Z AUTO 21008G18KT 19/14 A2971 780 75 1500 220/08G18 RMK AO1 T01890144
54779K12N 12N20160401020510504/01/16 02:05:31  5-MIN K12N 010705Z AUTO 21008G18KT 18/14 A2971 780 78 1400 220/08G18 RMK AO1 T01830144
54779K12N 12N20160401021010504/01/16 02:10:31  5-MIN K12N 010710Z AUTO 21010G22KT 19/15 A2971 780 78 1500 220/10G22 RMK AO1 T01890150
54779K12N 12N20160401021512104/01/16 02:15:31  5-MIN K12N 010715Z AUTO 20010G22KT 160V240 19/15 A2971 780 78 1500 220/10G22 170V250 RMK AO1 T01890150
54779K12N 12N20160401022012104/01/16 02:20:31  5-MIN K12N 010720Z AUTO 21010G18KT 180V240 19/14 A2970 790 75 1500 220/10G18 190V250 RMK AO1 T01890144
54779K12N 12N20160401022510504/01/16 02:25:31  5-MIN K12N 010725Z AUTO 21008G18KT 19/14 A2970 790 75 1500 230/08G18 RMK AO1 T01890144
54779K12N 12N20160401023010504/01/16 02:30:31  5-MIN K12N 010730Z AUTO 21010G17KT 19/14 A2970 790 75 1500 220/10G17 RMK AO1 T01890144
54779K12N 12N20160401023510504/01/16 02:35:31  5-MIN K12N 010735Z AUTO 22013G20KT 19/15 A2970 790 78 1500 230/13G20 RMK AO1 T01890150
54779K12N 12N20160401024012104/01/16 02:40:31  5-MIN K12N 010740Z AUTO 21010G20KT 170V240 19/15 A2970 790 78 1500 230/10G20 180V250 RMK AO1 T01890150
54779K12N 12N20160401024510504/01/16 02:45:31  5-MIN K12N 010745Z AUTO 21010G16KT 18/15 A2970 790 81 1400 230/10G16 RMK AO1 T01830150
54779K12N 12N20160401025011204/01/16 02:50:31  5-MIN K12N 010750Z AUTO 21011G17KT 19/15 A2970 790 78 1500 220/11G17 RMK AO1 SLP050 T01890150
54779K12N 12N20160401025510504/01/16 02:55:31  5-MIN K12N 010755Z AUTO 21006G20KT 19/15 A2970 790 78 1500 220/06G20 RMK AO1 T01890150
54779K12N 12N20160401030012104/01/16 03:00:31  5-MIN K12N 010800Z AUTO 21007G20KT 170V250 18/15 A2970 790 81 1400 220/07G20 180V260 RMK AO1 T01830150
54779K12N 12N20160401030512104/01/16 03:05:31  5-MIN K12N 010805Z AUTO 21008G15KT 180V250 18/15 A2969 800 81 1400 220/08G15 190V260 RMK AO1 T01830150
54779K12N 12N20160401031012104/01/16 03:10:31  5-MIN K12N 010810Z AUTO 21008G15KT 170V230 18/15 A2969 800 81 1400 230/08G15 180V240 RMK AO1 T01830150
54779K12N 12N20160401031511504/01/16 03:15:31  5-MIN K12N 010815Z AUTO 20009KT 160V230 18/15 A2969 800 81 1400 210/09 170V240 RMK AO1 T01830150
54779K12N 12N20160401032010504/01/16 03:20:31  5-MIN K12N 010820Z AUTO 21010G18KT 19/15 A2969 800 78 1500 220/10G18 RMK AO1 T01890150
54779K12N 12N20160401032510504/01/16 03:25:31  5-MIN K12N 010825Z AUTO 20007G18KT 18/15 A2969 800 81 1400 220/07G18 RMK AO1 T01830150
54779K12N 12N20160401033010504/01/16 03:30:31  5-MIN K12N 010830Z AUTO 20010G16KT 18/15 A2969 800 81 1400 220/10G16 RMK AO1 T01830150
54779K12N 12N20160401033510504/01/16 03:35:31  5-MIN K12N 010835Z AUTO 21008G16KT 18/15 A2968 810 81 1400 220/08G16 RMK AO1 T01830150
54779K12N 12N20160401034011104/01/16 03:40:31  5-MIN K12N 010840Z AUTO 22007G14KT 18/15 A2968 800 81 1400 240/07G14 RMK AO1 P0001 T01830150
54779K12N 12N20160401034510504/01/16 03:45:31  5-MIN K12N 010845Z AUTO 21009KT 18/15 A2968 810 81 1400 230/09 RMK AO1 P0001 T01830150
54779K12N 12N20160401035012404/01/16 03:50:31  5-MIN K12N 010850Z AUTO 22008KT 18/15 A2968 810 81 1400 230/08 RMK AO1 SLP044 P0001 60001 T01830150 58016
54779K12N 12N20160401035509904/01/16 03:55:31  5-MIN K12N 010855Z AUTO VRB05KT 18/15 A2968 810 81 1400 VRB/05 RMK AO1 T01830150
54779K12N 12N20160401040009904/01/16 04:00:31  5-MIN K12N 010900Z AUTO VRB04KT 18/15 A2968 810 81 1400 VRB/04 RMK AO1 T01830150
54779K12N 12N20160401040509904/01/16 04:05:31  5-MIN K12N 010905Z AUTO 21004KT 18/15 A2967 820 83 1400 220/04 RMK AO1 T01780150
54779K12N 12N20160401041009904/01/16 04:10:31  5-MIN K12N 010910Z AUTO VRB03KT 18/15 A2967 820 83 1400 VRB/03 RMK AO1 T01780150
54779K12N 12N20160401041509904/01/16 04:15:31  5-MIN K12N 010915Z AUTO 20004KT 18/15 A2967 820 81 1400 220/04 RMK AO1 T01830150
54779K12N 12N20160401042010504/01/16 04:20:31  5-MIN K12N 010920Z AUTO VRB03KT 18/15 A2967 820 83 1400 VRB/03 RMK AO1 P0001 T01780150
54779K12N 12N20160401042510504/01/16 04:25:31  5-MIN K12N 010925Z AUTO 20005KT 18/15 A2967 820 83 1400 210/05 RMK AO1 P0001 T01780150
54779K12N 12N20160401043010504/01/16 04:30:31  5-MIN K12N 010930Z AUTO VRB04KT 18/15 A2967 820 81 1400 VRB/04 RMK AO1 P0001 T01830150
54779K12N 12N20160401043510504/01/16 04:35:31  5-MIN K12N 010935Z AUTO 20006KT 18/15 A2966 830 81 1400 210/06 RMK AO1 P0001 T01830150
54779K12N 12N20160401044010504/01/16 04:40:31  5-MIN K12N 010940Z AUTO VRB05KT 18/15 A2966 830 81 1400 VRB/05 RMK AO1 P0001 T01830150
54779K12N 12N20160401044510504/01/16 04:45:31  5-MIN K12N 010945Z AUTO VRB04KT 18/15 A2966 830 81 1500 VRB/04 RMK AO1 P0001 T01830150
54779K12N 12N20160401045011204/01/16 04:50:31  5-MIN K12N 010950Z AUTO 21006KT 18/15 A2966 830 81 1500 220/06 RMK AO1 SLP038 P0001 T01830150
54779K12N 12N20160401045509904/01/16 04:55:31  5-MIN K12N 010955Z AUTO VRB05KT 18/15 A2966 830 81 1500 VRB/05 RMK AO1 T01830150
54779K12N 12N20160401050009904/01/16 05:00:31  5-MIN K12N 011000Z AUTO VRB06KT 18/15 A2966 830 81 1500 VRB/06 RMK AO1 T01830150
54779K12N 12N20160401050509904/01/16 05:05:31  5-MIN K12N 011005Z AUTO 21005KT 18/16 A2965 830 84 1500 220/05 RMK AO1 T01830156
54779K12N 12N20160401051009904/01/16 05:10:31  5-MIN K12N 011010Z AUTO 21005KT 18/16 A2965 830 84 1500 220/05 RMK AO1 T01830156
54779K12N 12N20160401051509904/01/16 05:15:31  5-MIN K12N 011015Z AUTO VRB06KT 18/16 A2965 840 84 1500 VRB/06 RMK AO1 T01830156
54779K12N 12N20160401052009904/01/16 05:20:31  5-MIN K12N 011020Z AUTO 22006KT 18/16 A2965 840 84 1500 230/06 RMK AO1 T01830156
54779K12N 12N20160401052510504/01/16 05:25:31  5-MIN K12N 011025Z AUTO 21009G14KT 19/16 A2965 840 81 1500 220/09G14 RMK AO1 T01890156
54779K12N 12N20160401053010504/01/16 05:30:31  5-MIN K12N 011030Z AUTO 20005G14KT 18/16 A2965 840 84 1500 220/05G14 RMK AO1 T01830156
54779K12N 12N20160401053509904/01/16 05:35:31  5-MIN K12N 011035Z AUTO VRB05KT 18/16 A2964 840 84 1500 VRB/05 RMK AO1 T01830156
54779K12N 12N20160401054009904/01/16 05:40:31  5-MIN K12N 011040Z AUTO 21007KT 18/16 A2964 840 84 1500 230/07 RMK AO1 T01830156
54779K12N 12N20160401054511504/01/16 05:45:31  5-MIN K12N 011045Z AUTO 21008KT 170V240 18/16 A2964 840 84 1500 220/08 180V250 RMK AO1 T01830156
54779K12N 12N20160401055010604/01/16 05:50:31  5-MIN K12N 011050Z AUTO 21006KT 19/16 A2964 840 81 1500 220/06 RMK AO1 SLP032 T01890156
54779K12N 12N20160401055509904/01/16 05:55:31  5-MIN K12N 011055Z AUTO 21004KT 18/16 A2964 850 84 1500 220/04 RMK AO1 T01830156
54779K12N 12N20160401060009904/01/16 06:00:31  5-MIN K12N 011100Z AUTO 21006KT 19/16 A2963 850 81 1500 220/06 RMK AO1 T01890156
54779K12N 12N20160401060509904/01/16 06:05:31  5-MIN K12N 011105Z AUTO 19005KT 19/16 A2963 860 81 1600 200/05 RMK AO1 T01890156
54779K12N 12N20160401061010604/01/16 06:10:31  5-MIN K12N 011110Z AUTO 19004KT 19/16 A2962 870 81 1600 200/04 RMK AO1 PRESFR T01890156
54779K12N 12N20160401061509904/01/16 06:15:31  5-MIN K12N 011115Z AUTO VRB04KT 19/16 A2961 870 81 1600 VRB/04 RMK AO1 T01890156
54779K12N 12N20160401062009904/01/16 06:20:31  5-MIN K12N 011120Z AUTO 20007KT 18/16 A2962 860 84 1500 210/07 RMK AO1 T01830156
54779K12N 12N20160401062509904/01/16 06:25:31  5-MIN K12N 011125Z AUTO VRB04KT 19/16 A2962 860 81 1600 VRB/04 RMK AO1 T01890156
54779K12N 12N20160401063009904/01/16 06:30:31  5-MIN K12N 011130Z AUTO 20006KT 19/16 A2962 860 81 1600 210/06 RMK AO1 T01890156
54779K12N 12N20160401063509904/01/16 06:35:31  5-MIN K12N 011135Z AUTO 20006KT 19/16 A2962 860 81 1600 210/06 RMK AO1 T01890156
54779K12N 12N20160401064009904/01/16 06:40:31  5-MIN K12N 011140Z AUTO 20005KT 19/16 A2962 860 81 1600 220/05 RMK AO1 T01890156
54779K12N 12N20160401064509904/01/16 06:45:31  5-MIN K12N 011145Z AUTO VRB04KT 19/16 A2962 860 81 1600 VRB/04 RMK AO1 T01890156
54779K12N 12N20160401065013604/01/16 06:50:31  5-MIN K12N 011150Z AUTO VRB05KT 19/16 A2962 860 81 1600 VRB/05 RMK AO1 SLP027 60002 70002 T01890156 10189 20178 58009
54779K12N 12N20160401065509904/01/16 06:55:31  5-MIN K12N 011155Z AUTO VRB05KT 19/16 A2963 860 81 1600 VRB/05 RMK AO1 T01890156
54779K12N 12N20160401070009904/01/16 07:00:31  5-MIN K12N 011200Z AUTO VRB05KT 19/16 A2962 870 81 1600 VRB/05 RMK AO1 T01890156
54779K12N 12N20160401070509904/01/16 07:05:31  5-MIN K12N 011205Z AUTO 20006KT 19/16 A2962 860 81 1600 210/06 RMK AO1 T01890156
54779K12N 12N20160401071009904/01/16 07:10:31  5-MIN K12N 011210Z AUTO 20006KT 19/16 A2962 870 81 1600 210/06 RMK AO1 T01890156
54779K12N 12N20160401071509904/01/16 07:15:31  5-MIN K12N 011215Z AUTO 19003KT 19/16 A2962 870 81 1600 200/03 RMK AO1 T01890156
54779K12N 12N20160401072009904/01/16 07:20:31  5-MIN K12N 011220Z AUTO 20006KT 19/16 A2961 870 81 1600 210/06 RMK AO1 T01890156
54779K12N 12N20160401072509904/01/16 07:25:31  5-MIN K12N 011225Z AUTO 20006KT 19/16 A2961 870 81 1600 220/06 RMK AO1 T01890156
54779K12N 12N20160401073009904/01/16 07:30:31  5-MIN K12N 011230Z AUTO 21006KT 19/16 A2961 870 81 1600 220/06 RMK AO1 T01890156
54779K12N 12N20160401073509904/01/16 07:35:31  5-MIN K12N 011235Z AUTO VRB06KT 19/16 A2961 870 81 1600 VRB/06 RMK AO1 T01890156
54779K12N 12N20160401074009904/01/16 07:40:31  5-MIN K12N 011240Z AUTO 18006KT 19/16 A2961 880 81 1600 200/06 RMK AO1 T01890156
54779K12N 12N20160401074509904/01/16 07:45:31  5-MIN K12N 011245Z AUTO 20006KT 19/16 A2961 870 78 1600 210/06 RMK AO1 T01940156
54779K12N 12N20160401075011204/01/16 07:50:31  5-MIN K12N 011250Z AUTO 21010G15KT 19/16 A2961 870 78 1600 230/10G15 RMK AO1 SLP021 T01940156
54779K12N 12N20160401075510504/01/16 07:55:31  5-MIN K12N 011255Z AUTO VRB06G15KT 19/16 A2961 870 78 1600 VRB/06G15 RMK AO1 T01940156
54779K12N 12N20160401080010504/01/16 08:00:31  5-MIN K12N 011300Z AUTO 22010G14KT 19/16 A2961 870 78 1600 230/10G14 RMK AO1 T01940156
54779K12N 12N20160401080512104/01/16 08:05:31  5-MIN K12N 011305Z AUTO 21007G14KT 170V250 19/16 A2961 870 78 1600 230/07G14 180V260 RMK AO1 T01940156
54779K12N 12N20160401081010504/01/16 08:10:31  5-MIN K12N 011310Z AUTO 21010G17KT 19/16 A2961 870 78 1600 220/10G17 RMK AO1 T01940156
54779K12N 12N20160401081510504/01/16 08:15:31  5-MIN K12N 011315Z AUTO 21007G17KT 19/16 A2961 880 78 1600 220/07G17 RMK AO1 T01940156
54779K12N 12N20160401082009904/01/16 08:20:31  5-MIN K12N 011320Z AUTO 22007KT 19/16 A2961 870 78 1600 230/07 RMK AO1 T01940156
54779K12N 12N20160401082509904/01/16 08:25:31  5-MIN K12N 011325Z AUTO 21008KT 19/16 A2961 870 78 1600 220/08 RMK AO1 T01940156
54779K12N 12N20160401083010504/01/16 08:30:31  5-MIN K12N 011330Z AUTO 21011G16KT 19/16 A2961 880 78 1600 220/11G16 RMK AO1 T01940156
54779K12N 12N20160401083510504/01/16 08:35:31  5-MIN K12N 011335Z AUTO 21007G16KT 19/16 A2960 880 78 1600 230/07G16 RMK AO1 T01940156
54779K12N 12N20160401084010504/01/16 08:40:31  5-MIN K12N 011340Z AUTO 21007G14KT 19/16 A2959 890 78 1700 220/07G14 RMK AO1 T01940156
54779K12N 12N20160401084512804/01/16 08:45:31  5-MIN K12N 011345Z AUTO 20007G14KT 140V220 19/16 A2958 900 78 1700 220/07G14 150V230 RMK AO1 PRESFR T01940156
54779K12N 12N20160401085011304/01/16 08:50:31  5-MIN K12N 011350Z AUTO 20005KT 19/16 A2957 910 78 1700 210/05 RMK AO1 PRESFR SLP008 T01940156
54779K12N 12N20160401085509904/01/16 08:55:31  5-MIN K12N 011355Z AUTO 21004KT 19/16 A2957 910 78 1700 220/04 RMK AO1 T01940156
54779K12N 12N20160401090009904/01/16 09:00:31  5-MIN K12N 011400Z AUTO 21006KT 19/16 A2957 910 78 1700 220/06 RMK AO1 T01940156
54779K12N 12N20160401090509904/01/16 09:05:31  5-MIN K12N 011405Z AUTO 21007KT 19/16 A2958 900 78 1700 220/07 RMK AO1 T01940156
54779K12N 12N20160401091009904/01/16 09:10:31  5-MIN K12N 011410Z AUTO 22008KT 19/16 A2958 900 78 1700 230/08 RMK AO1 T01940156
54779K12N 12N20160401091510604/01/16 09:15:31  5-MIN K12N 011415Z AUTO 22007KT 20/16 A2959 890 75 1700 230/07 RMK AO1 PRESRR T02000156
54779K12N 12N20160401092010604/01/16 09:20:31  5-MIN K12N 011420Z AUTO 21008KT 20/16 A2960 880 75 1700 220/08 RMK AO1 PRESRR T02000156
54779K12N 12N20160401092509904/01/16 09:25:31  5-MIN K12N 011425Z AUTO VRB06KT 19/16 A2960 880 78 1600 VRB/06 RMK AO1 T01940156
54779K12N 12N20160401093011504/01/16 09:30:31  5-MIN K12N 011430Z AUTO 22009KT 200V260 19/16 A2960 880 78 1600 230/09 210V270 RMK AO1 T01940156
54779K12N 12N20160401093509904/01/16 09:35:31  5-MIN K12N 011435Z AUTO VRB06KT 19/16 A2960 880 78 1600 VRB/06 RMK AO1 T01940156
54779K12N 12N20160401094008904/01/16 09:40:31  5-MIN K12N 011440Z AUTO 19/16 A2959 890 78 1700 M /M RMK AO1 T01940156
54779K12N 12N20160401094510504/01/16 09:45:31  5-MIN K12N 011445Z AUTO 21011G16KT 19/16 A2960 890 78 1700 230/11G16 RMK AO1 T01940156
54779K12N 12N20160401095011804/01/16 09:50:31  5-MIN K12N 011450Z AUTO 21005G16KT 19/16 A2960 880 78 1600 220/05G16 RMK AO1 SLP018 T01940156 56018
54779K12N 12N20160401095509904/01/16 09:55:31  5-MIN K12N 011455Z AUTO 22010KT 19/16 A2960 880 78 1600 230/10 RMK AO1 T01940156
54779K12N 12N20160401100010504/01/16 10:00:31  5-MIN K12N 011500Z AUTO 22010G17KT 20/15 A2960 880 72 1700 230/10G17 RMK AO1 T02000150
54779K12N 12N20160401100510504/01/16 10:05:31  5-MIN K12N 011505Z AUTO 21009G17KT 20/15 A2960 880 72 1700 230/09G17 RMK AO1 T02000150
54779K12N 12N20160401101010504/01/16 10:10:31  5-MIN K12N 011510Z AUTO 21009G15KT 20/15 A2960 880 72 1700 220/09G15 RMK AO1 T02000150
54779K12N 12N20160401101510504/01/16 10:15:31  5-MIN K12N 011515Z AUTO 21010G17KT 20/15 A2960 880 72 1700 230/10G17 RMK AO1 T02000150
54779K12N 12N20160401102010504/01/16 10:20:31  5-MIN K12N 011520Z AUTO 20009G17KT 20/15 A2960 890 72 1700 220/09G17 RMK AO1 T02000150
54779K12N 12N20160401102510504/01/16 10:25:31  5-MIN K12N 011525Z AUTO 21008G17KT 20/15 A2959 890 72 1700 220/08G17 RMK AO1 T02000150
54779K12N 12N20160401103010504/01/16 10:30:31  5-MIN K12N 011530Z AUTO 21011G20KT 20/15 A2960 890 72 1700 220/11G20 RMK AO1 T02000150
54779K12N 12N20160401103510504/01/16 10:35:31  5-MIN K12N 011535Z AUTO 21010G20KT 20/15 A2960 890 72 1700 220/10G20 RMK AO1 T02000150
54779K12N 12N20160401104010504/01/16 10:40:31  5-MIN K12N 011540Z AUTO 22012G20KT 20/15 A2960 880 72 1700 230/12G20 RMK AO1 T02000150
54779K12N 12N20160401104510504/01/16 10:45:31  5-MIN K12N 011545Z AUTO 21011G20KT 20/15 A2959 890 72 1700 230/11G20 RMK AO1 T02000150
54779K12N 12N20160401105011204/01/16 10:50:31  5-MIN K12N 011550Z AUTO 22010G19KT 20/15 A2959 890 72 1700 230/10G19 RMK AO1 SLP014 T02000150
54779K12N 12N20160401105510504/01/16 10:55:31  5-MIN K12N 011555Z AUTO 21010G17KT 21/15 A2959 890 70 1800 220/10G17 RMK AO1 T02060150
54779K12N 12N20160401110012104/01/16 11:00:31  5-MIN K12N 011600Z AUTO 21009G17KT 170V240 21/15 A2958 900 70 1800 220/09G17 180V250 RMK AO1 T02060150
54779K12N 12N20160401110510504/01/16 11:05:31  5-MIN K12N 011605Z AUTO 23011G16KT 21/15 A2958 900 70 1800 240/11G16 RMK AO1 T02060150
54779K12N 12N20160401111010504/01/16 11:10:31  5-MIN K12N 011610Z AUTO 22011G16KT 21/15 A2957 910 70 1800 230/11G16 RMK AO1 T02060150
54779K12N 12N20160401111510504/01/16 11:15:31  5-MIN K12N 011615Z AUTO 21008G16KT 21/15 A2957 910 68 1900 220/08G16 RMK AO1 T02110150
54779K12N 12N20160401112012104/01/16 11:20:31  5-MIN K12N 011620Z AUTO 21008G15KT 180V240 21/15 A2957 910 68 1900 220/08G15 190V250 RMK AO1 T02110150
54779K12N 12N20160401112513904/01/16 11:25:31  5-MIN K12N 011625Z AUTO 21012G26KT 160V230 21/15 A2956 920 68 1900 220/12G26 170V240 RMK AO1 PK WND 20026/1623 T02110150
54779K12N 12N20160401113012304/01/16 11:30:31  5-MIN K12N 011630Z AUTO 22009G26KT 21/15 A2956 920 68 1900 230/09G26 RMK AO1 PK WND 20026/1623 T02110150
54779K12N 12N20160401113512304/01/16 11:35:31  5-MIN K12N 011635Z AUTO 22010G23KT 21/15 A2956 920 68 1900 230/10G23 RMK AO1 PK WND 20026/1623 T02110150
54779K12N 12N20160401114012304/01/16 11:40:31  5-MIN K12N 011640Z AUTO 22011G21KT 21/15 A2955 930 68 1900 230/11G21 RMK AO1 PK WND 20026/1623 T02110150
54779K12N 12N20160401114513904/01/16 11:45:31  5-MIN K12N 011645Z AUTO 23008G19KT 180V250 21/15 A2955 930 68 1900 240/08G19 190V260 RMK AO1 PK WND 20026/1623 T02110150
54779K12N 12N20160401115013004/01/16 11:50:31  5-MIN K12N 011650Z AUTO 22011G17KT 22/14 A2954 940 63 2000 240/11G17 RMK AO1 PK WND 20026/1623 SLP998 T02170144
54779K12N 12N20160401115510504/01/16 11:55:31  5-MIN K12N 011655Z AUTO 21008G17KT 22/14 A2954 940 61 2000 220/08G17 RMK AO1 T02220144
54779K12N 12N20160401120009904/01/16 12:00:31  5-MIN K12N 011700Z AUTO VRB06KT 22/14 A2954 940 63 2000 VRB/06 RMK AO1 T02170144
54779K12N 12N20160401120510504/01/16 12:05:31  5-MIN K12N 011705Z AUTO 23008G17KT 22/14 A2954 940 63 2000 240/08G17 RMK AO1 T02170144
54779K12N 12N20160401121010504/01/16 12:10:31  5-MIN K12N 011710Z AUTO 23012G17KT 22/14 A2954 940 59 2000 240/12G17 RMK AO1 T02220139
54779K12N 12N20160401121510504/01/16 12:15:31  5-MIN K12N 011715Z AUTO 22011G21KT 23/14 A2953 940 57 2100 240/11G21 RMK AO1 T02280139
54779K12N 12N20160401122010504/01/16 12:20:31  5-MIN K12N 011720Z AUTO 22011G23KT 23/14 A2954 940 57 2100 230/11G23 RMK AO1 T02280139
54779K12N 12N20160401122512104/01/16 12:25:31  5-MIN K12N 011725Z AUTO 21013G23KT 180V240 23/13 A2953 940 55 2100 230/13G23 190V250 RMK AO1 T02280133
54779K12N 12N20160401123012104/01/16 12:30:31  5-MIN K12N 011730Z AUTO 21010G21KT 190V250 22/13 A2953 950 56 2000 230/10G21 200V260 RMK AO1 T02220133
54779K12N 12N20160401123510504/01/16 12:35:31  5-MIN K12N 011735Z AUTO 22009G21KT 23/13 A2953 950 55 2100 230/09G21 RMK AO1 T02280133
54779K12N 12N20160401124010504/01/16 12:40:31  5-MIN K12N 011740Z AUTO 22011G19KT 23/14 A2953 950 55 2200 230/11G19 RMK AO1 T02330139
54779K12N 12N20160401124512104/01/16 12:45:31  5-MIN K12N 011745Z AUTO 22012G21KT 170V240 23/13 A2953 950 55 2100 230/12G21 180V250 RMK AO1 T02280133
54779K12N 12N20160401125013004/01/16 12:50:31  5-MIN K12N 011750Z AUTO 22012G22KT 23/14 A2953 950 57 2100 230/12G22 RMK AO1 SLP992 T02280139 10233 20189 55007
54779K12N 12N20160401125512104/01/16 12:55:31  5-MIN K12N 011755Z AUTO 22010G22KT 190V260 22/14 A2953 950 59 2000 230/10G22 200V270 RMK AO1 T02220139
54779K12N 12N20160401130012104/01/16 13:00:31  5-MIN K12N 011800Z AUTO 22011G19KT 180V250 22/14 A2952 950 59 2100 230/11G19 190V260 RMK AO1 T02220139
54779K12N 12N20160401130510504/01/16 13:05:31  5-MIN K12N 011805Z AUTO 22012G17KT 23/14 A2952 960 57 2100 230/12G17 RMK AO1 T02280139
54779K12N 12N20160401131010504/01/16 13:10:31  5-MIN K12N 011810Z AUTO 22011G17KT 23/14 A2952 960 55 2200 230/11G17 RMK AO1 T02330139
54779K12N 12N20160401131512104/01/16 13:15:31  5-MIN K12N 011815Z AUTO 23012G23KT 190V260 23/14 A2952 960 57 2100 240/12G23 200V270 RMK AO1 T02280139
54779K12N 12N20160401132010504/01/16 13:20:31  5-MIN K12N 011820Z AUTO 22008G23KT 23/14 A2952 960 57 2100 230/08G23 RMK AO1 T02280139
54779K12N 12N20160401132510504/01/16 13:25:31  5-MIN K12N 011825Z AUTO 22010G20KT 23/14 A2951 960 57 2100 230/10G20 RMK AO1 T02280139
54779K12N 12N20160401133010504/01/16 13:30:31  5-MIN K12N 011830Z AUTO 22007G16KT 23/14 A2951 970 57 2100 230/07G16 RMK AO1 T02280139
54779K12N 12N20160401133512104/01/16 13:35:31  5-MIN K12N 011835Z AUTO 22010G18KT 190V260 24/14 A2951 970 53 2300 240/10G18 200V270 RMK AO1 T02390139
54779K12N 12N20160401134012104/01/16 13:40:31  5-MIN K12N 011840Z AUTO 25008G18KT 190V290 23/13 A2950 980 53 2200 270/08G18 200V300 RMK AO1 T02330133
54779K12N 12N20160401134510504/01/16 13:45:31  5-MIN K12N 011845Z AUTO 22007G20KT 23/13 A2950 980 53 2200 230/07G20 RMK AO1 T02330133
54779K12N 12N20160401135011204/01/16 13:50:31  5-MIN K12N 011850Z AUTO 22012G20KT 23/13 A2950 970 53 2200 230/12G20 RMK AO1 SLP983 T02330133
54779K12N 12N20160401135510504/01/16 13:55:31  5-MIN K12N 011855Z AUTO 22011G20KT 23/13 A2950 980 55 2100 230/11G20 RMK AO1 T02280133
54779K12N 12N20160401140010504/01/16 14:00:31  5-MIN K12N 011900Z AUTO 21008G20KT 23/14 A2949 980 55 2200 230/08G20 RMK AO1 T02330139
54779K12N 12N20160401140512104/01/16 14:05:31  5-MIN K12N 011905Z AUTO 22010G17KT 180V240 24/14 A2949 980 51 2300 230/10G17 190V250 RMK AO1 T02440139
54779K12N 12N20160401141010504/01/16 14:10:31  5-MIN K12N 011910Z AUTO 23012G18KT 24/13 A2949 990 51 2300 250/12G18 RMK AO1 T02390133
54779K12N 12N20160401141510504/01/16 14:15:31  5-MIN K12N 011915Z AUTO VRB06G14KT 24/13 A2949 990 51 2300 VRB/06G14 RMK AO1 T02390133
54779K12N 12N20160401142012104/01/16 14:20:31  5-MIN K12N 011920Z AUTO 22007G14KT 160V240 24/13 A2948 990 51 2300 230/07G14 170V250 RMK AO1 T02390133
54779K12N 12N20160401142510604/01/16 14:25:31  5-MIN K12N 011925Z AUTO 21012G21KT 23/13 A2948 1000 53 2200 220/12G21 RMK AO1 T02330133
54779K12N 12N20160401143010604/01/16 14:30:31  5-MIN K12N 011930Z AUTO 22012G21KT 23/13 A2947 1000 51 2200 230/12G21 RMK AO1 T02330128
54779K12N 12N20160401143510604/01/16 14:35:31  5-MIN K12N 011935Z AUTO 21010G20KT 24/13 A2948 1000 49 2300 230/10G20 RMK AO1 T02390128
54779K12N 12N20160401144010604/01/16 14:40:31  5-MIN K12N 011940Z AUTO 22012G20KT 23/13 A2947 1000 51 2200 240/12G20 RMK AO1 T02330128
54779K12N 12N20160401144510604/01/16 14:45:31  5-MIN K12N 011945Z AUTO 22010G19KT 24/13 A2946 1010 49 2300 230/10G19 RMK AO1 T02390128
54779K12N 12N20160401145011304/01/16 14:50:31  5-MIN K12N 011950Z AUTO 21012G21KT 24/13 A2946 1010 47 2400 220/12G21 RMK AO1 SLP970 T02440128
54779K12N 12N20160401145512204/01/16 14:55:31  5-MIN K12N 011955Z AUTO 20010G21KT 160V230 24/13 A2946 1010 47 2400 210/10G21 170V240 RMK AO1 T02440128
54779K12N 12N20160401150012204/01/16 15:00:31  5-MIN K12N 012000Z AUTO 22009G22KT 180V260 24/13 A2946 1020 49 2300 240/09G22 190V270 RMK AO1 T02390128
54779K12N 12N20160401150510604/01/16 15:05:31  5-MIN K12N 012005Z AUTO 23009G22KT 24/13 A2945 1020 47 2400 240/09G22 RMK AO1 T02440128
54779K12N 12N20160401151010604/01/16 15:10:31  5-MIN K12N 012010Z AUTO 22008G17KT 25/12 A2946 1020 44 2400 240/08G17 RMK AO1 T02500122
54779K12N 12N20160401151510604/01/16 15:15:31  5-MIN K12N 012015Z AUTO 22009G17KT 25/12 A2945 1020 44 2400 240/09G17 RMK AO1 T02500122
54779K12N 12N20160401152010604/01/16 15:20:31  5-MIN K12N 012020Z AUTO 22007G16KT 24/13 A2945 1020 47 2400 230/07G16 RMK AO1 T02440128
54779K12N 12N20160401152512204/01/16 15:25:31  5-MIN K12N 012025Z AUTO 23009G15KT 200V260 24/13 A2945 1020 47 2400 240/09G15 210V270 RMK AO1 T02440128
54779K12N 12N20160401153012204/01/16 15:30:31  5-MIN K12N 012030Z AUTO 23012G19KT 200V270 24/12 A2945 1030 46 2400 240/12G19 210V280 RMK AO1 T02440122
54779K12N 12N20160401153512204/01/16 15:35:31  5-MIN K12N 012035Z AUTO 21007G20KT 150V230 25/12 A2944 1030 44 2500 220/07G20 160V240 RMK AO1 T02500122
54779K12N 12N20160401154010604/01/16 15:40:31  5-MIN K12N 012040Z AUTO 21012G20KT 24/12 A2945 1030 44 2400 220/12G20 RMK AO1 T02440117
54779K12N 12N20160401154512204/01/16 15:45:31  5-MIN K12N 012045Z AUTO 23007G20KT 180V260 24/12 A2945 1030 44 2400 240/07G20 190V270 RMK AO1 T02440117
54779K12N 12N20160401155011304/01/16 15:50:31  5-MIN K12N 012050Z AUTO 22006KT 24/12 A2945 1020 44 2400 230/06 RMK AO1 SLP966 T02440117 58025
54779K12N 12N20160401155511604/01/16 15:55:31  5-MIN K12N 012055Z AUTO 24007KT 200V260 24/12 A2946 1010 46 2400 250/07 210V270 RMK AO1 T02440122
54779K12N 12N20160401160012804/01/16 16:00:31  5-MIN K12N 012100Z AUTO 31009G19KT 250V070 23/12 A2948 990 51 2200 320/09G19 260V080 RMK AO1 PRESRR T02280122
54779K12N 12N20160401160512804/01/16 16:05:31  5-MIN K12N 012105Z AUTO 31008G22KT 270V340 19/14 A2949 980 70 1800 320/08G22 280V350 RMK AO1 PRESRR T01940139
54779K12N 12N20160401161011204/01/16 16:10:31  5-MIN K12N 012110Z AUTO VRB05G22KT 18/14 A2950 980 75 1600 VRB/05G22 RMK AO1 PRESRR T01830139
54779K12N 12N20160401161509904/01/16 16:15:31  5-MIN K12N 012115Z AUTO VRB04KT 18/14 A2950 980 75 1600 VRB/04 RMK AO1 T01830139
54779K12N 12N20160401162009904/01/16 16:20:31  5-MIN K12N 012120Z AUTO VRB03KT 19/14 A2950 980 72 1800 VRB/03 RMK AO1 T01940144
54779K12N 12N20160401162509904/01/16 16:25:31  5-MIN K12N 012125Z AUTO 00000KT 19/14 A2949 980 72 1800 000/00 RMK AO1 T01940144
54779K12N 12N20160401163009904/01/16 16:30:31  5-MIN K12N 012130Z AUTO 00000KT 20/14 A2949 990 70 1800 000/00 RMK AO1 T02000144
54779K12N 12N20160401163509904/01/16 16:35:31  5-MIN K12N 012135Z AUTO 00000KT 21/14 A2948 990 65 1900 000/00 RMK AO1 T02060139
54779K12N 12N20160401164009904/01/16 16:40:31  5-MIN K12N 012140Z AUTO VRB04KT 21/14 A2949 980 63 2000 VRB/04 RMK AO1 T02110139
54779K12N 12N20160401164509904/01/16 16:45:31  5-MIN K12N 012145Z AUTO 25005KT 21/13 A2951 970 63 1900 260/05 RMK AO1 T02060133
54779K12N 12N20160401165010604/01/16 16:50:31  5-MIN K12N 012150Z AUTO 21008KT 21/13 A2952 960 61 1900 230/08 RMK AO1 SLP989 T02110133
54779K12N 12N20160401165509904/01/16 16:55:31  5-MIN K12N 012155Z AUTO VRB04KT 21/13 A2952 960 63 1900 VRB/04 RMK AO1 T02060133
54779K12N 12N20160401170009904/01/16 17:00:31  5-MIN K12N 012200Z AUTO 20006KT 21/13 A2952 960 63 1900 220/06 RMK AO1 T02060133
54779K12N 12N20160401170509904/01/16 17:05:31  5-MIN K12N 012205Z AUTO 22007KT 21/13 A2951 960 63 1900 240/07 RMK AO1 T02060133
54779K12N 12N20160401171009904/01/16 17:10:31  5-MIN K12N 012210Z AUTO 22005KT 21/13 A2951 960 61 1900 240/05 RMK AO1 T02110133
54779K12N 12N20160401171509904/01/16 17:15:31  5-MIN K12N 012215Z AUTO VRB05KT 21/13 A2953 950 58 1900 VRB/05 RMK AO1 T02110128
54779K12N 12N20160401172009904/01/16 17:20:31  5-MIN K12N 012220Z AUTO 21006KT 21/13 A2953 950 60 1900 220/06 RMK AO1 T02060128
54779K12N 12N20160401172509904/01/16 17:25:31  5-MIN K12N 012225Z AUTO VRB04KT 21/13 A2952 960 60 1900 VRB/04 RMK AO1 T02060128
54779K12N 12N20160401173009904/01/16 17:30:31  5-MIN K12N 012230Z AUTO VRB03KT 21/12 A2952 960 56 1900 VRB/03 RMK AO1 T02110122
54779K12N 12N20160401173508904/01/16 17:35:31  5-MIN K12N 012235Z AUTO 21/12 A2953 950 56 1900 M /M RMK AO1 T02110122
54779K12N 12N20160401174009904/01/16 17:40:31  5-MIN K12N 012240Z AUTO 22004KT 21/12 A2953 950 56 1900 230/04 RMK AO1 T02110122
54779K12N 12N20160401174509904/01/16 17:45:31  5-MIN K12N 012245Z AUTO VRB06KT 21/12 A2953 940 54 1900 VRB/06 RMK AO1 T02110117
54779K12N 12N20160401175010604/01/16 17:50:31  5-MIN K12N 012250Z AUTO 22005KT 21/12 A2953 940 54 1900 230/05 RMK AO1 SLP995 T02110117
54779K12N 12N20160401175509904/01/16 17:55:31  5-MIN K12N 012255Z AUTO 21005KT 21/12 A2954 940 54 1900 220/05 RMK AO1 T02110117
54779K12N 12N20160401180011504/01/16 18:00:31  5-MIN K12N 012300Z AUTO 23007KT 190V260 21/12 A2954 940 54 1900 240/07 200V270 RMK AO1 T02110117
54779K12N 12N20160401180509904/01/16 18:05:31  5-MIN K12N 012305Z AUTO 21005KT 21/12 A2954 940 54 1900 230/05 RMK AO1 T02110117
54779K12N 12N20160401181009904/01/16 18:10:31  5-MIN K12N 012310Z AUTO VRB04KT 21/12 A2954 940 54 1900 VRB/04 RMK AO1 T02110117
54779K12N 12N20160401181509904/01/16 18:15:31  5-MIN K12N 012315Z AUTO 21006KT 21/12 A2954 940 54 1900 220/06 RMK AO1 T02110117
54779K12N 12N20160401182009904/01/16 18:20:31  5-MIN K12N 012320Z AUTO VRB04KT 21/12 A2954 940 54 1900 VRB/04 RMK AO1 T02110117
54779K12N 12N20160401182509904/01/16 18:25:31  5-MIN K12N 012325Z AUTO 22004KT 21/12 A2955 930 56 1800 230/04 RMK AO1 T02060117
54779K12N 12N20160401183008904/01/16 18:30:31  5-MIN K12N 012330Z AUTO 21/12 A2954 940 56 1800 M /M RMK AO1 T02060117
54779K12N 12N20160401183509904/01/16 18:35:31  5-MIN K12N 012335Z AUTO 00000KT 21/11 A2954 940 52 1900 000/00 RMK AO1 T02110111
54779K12N 12N20160401184009904/01/16 18:40:31  5-MIN K12N 012340Z AUTO 00000KT 21/11 A2954 940 52 1900 000/00 RMK AO1 T02110111
54779K12N 12N20160401184509904/01/16 18:45:31  5-MIN K12N 012345Z AUTO VRB03KT 21/11 A2954 940 52 1900 VRB/03 RMK AO1 T02110111
54779K12N 12N20160401185012404/01/16 18:50:31  5-MIN K12N 012350Z AUTO VRB03KT 21/11 A2955 930 50 1900 VRB/03 RMK AO1 SLP999 T02110106 10250 20183 56023
54779K12N 12N20160401185509904/01/16 18:55:31  5-MIN K12N 012355Z AUTO VRB05KT 21/11 A2955 930 50 1900 VRB/05 RMK AO1 T02110106
54779K12N 12N20160401190009904/01/16 19:00:31  5-MIN K12N 020000Z AUTO VRB03KT 21/11 A2955 930 50 1900 VRB/03 RMK AO1 T02110106
54779K12N 12N20160401190511504/01/16 19:05:31  5-MIN K12N 020005Z AUTO 30007KT 230V340 21/10 A2955 930 48 1900 320/07 240V350 RMK AO1 T02110100
54779K12N 12N20160401191009904/01/16 19:10:31  5-MIN K12N 020010Z AUTO VRB03KT 21/09 A2956 920 47 1900 VRB/03 RMK AO1 T02110094
54779K12N 12N20160401191512104/01/16 19:15:31  5-MIN K12N 020015Z AUTO 29008G14KT 240V010 21/09 A2956 920 45 1900 300/08G14 250V020 RMK AO1 T02110089
54779K12N 12N20160401192012104/01/16 19:20:31  5-MIN K12N 020020Z AUTO 30007G14KT 250V330 21/08 A2956 920 45 1800 310/07G14 260V340 RMK AO1 T02060083
54779K12N 12N20160401192511504/01/16 19:25:31  5-MIN K12N 020025Z AUTO 29008KT 250V330 21/08 A2957 910 42 1900 300/08 260V340 RMK AO1 T02110078
54779K12N 12N20160401193010604/01/16 19:30:31  5-MIN K12N 020030Z AUTO VRB05KT 21/08 A2958 900 43 1800 VRB/05 RMK AO1 PRESRR T02060078
54779K12N 12N20160401193511504/01/16 19:35:31  5-MIN K12N 020035Z AUTO 27008KT 220V320 21/07 A2958 900 40 1900 290/08 230V330 RMK AO1 T02110072
54779K12N 12N20160401194009904/01/16 19:40:31  5-MIN K12N 020040Z AUTO VRB03KT 21/07 A2959 900 40 1800 VRB/03 RMK AO1 T02060067
54779K12N 12N20160401194509904/01/16 19:45:31  5-MIN K12N 020045Z AUTO 25006KT 21/07 A2959 900 41 1800 260/06 RMK AO1 T02060072
54779K12N 12N20160401195010604/01/16 19:50:31  5-MIN K12N 020050Z AUTO VRB06KT 21/07 A2959 890 40 1800 VRB/06 RMK AO1 SLP015 T02060067
54779K12N 12N20160401195509904/01/16 19:55:31  5-MIN K12N 020055Z AUTO VRB04KT 21/07 A2960 890 40 1800 VRB/04 RMK AO1 T02060067
54779K12N 12N20160401200009904/01/16 20:00:31  5-MIN K12N 020100Z AUTO VRB05KT 21/06 A2960 880 38 1800 VRB/05 RMK AO1 T02060061
54779K12N 12N20160401200510604/01/16 20:05:31  5-MIN K12N 020105Z AUTO 00000KT 21/06 A2961 870 38 1800 000/00 RMK AO1 PRESRR T02060061
54779K12N 12N20160401201009904/01/16 20:10:31  5-MIN K12N 020110Z AUTO VRB03KT 21/06 A2961 870 38 1800 VRB/03 RMK AO1 T02060061
54779K12N 12N20160401201508904/01/16 20:15:31  5-MIN K12N 020115Z AUTO 20/06 A2961 870 38 1700 M /M RMK AO1 T02000056
54779K12N 12N20160401202009904/01/16 20:20:31  5-MIN K12N 020120Z AUTO VRB05KT 20/06 A2962 870 38 1700 VRB/05 RMK AO1 T02000056
54779K12N 12N20160401202509904/01/16 20:25:31  5-MIN K12N 020125Z AUTO VRB04KT 20/06 A2962 870 38 1700 VRB/04 RMK AO1 T02000056
54779K12N 12N20160401203009904/01/16 20:30:31  5-MIN K12N 020130Z AUTO VRB05KT 19/05 A2962 860 38 1600 VRB/05 RMK AO1 T01940050
54779K12N 12N20160401203508904/01/16 20:35:31  5-MIN K12N 020135Z AUTO 19/05 A2962 860 38 1600 M /M RMK AO1 T01940050
54779K12N 12N20160401204009904/01/16 20:40:31  5-MIN K12N 020140Z AUTO VRB04KT 19/04 A2962 860 35 1600 VRB/04 RMK AO1 T01940039
54779K12N 12N20160401204508904/01/16 20:45:31  5-MIN K12N 020145Z AUTO 19/04 A2963 850 37 1600 M /M RMK AO1 T01940044
54779K12N 12N20160401205011204/01/16 20:50:31  5-MIN K12N 020150Z AUTO 36014G23KT 17/05 A2964 850 44 1300 010/14G23 RMK AO1 SLP032 T01720050
54779K12N 12N20160401205510504/01/16 20:55:31  5-MIN K12N 020155Z AUTO 36009G23KT 16/05 A2964 840 47 1200 010/09G23 RMK AO1 T01610050
54779K12N 12N20160401210012104/01/16 21:00:31  5-MIN K12N 020200Z AUTO 36007G19KT 320V020 16/05 A2964 840 47 1200 010/07G19 330V030 RMK AO1 T01610050
54779K12N 12N20160401210510504/01/16 21:05:31  5-MIN K12N 020205Z AUTO 36006G16KT 16/05 A2964 840 47 1200 010/06G16 RMK AO1 T01610050
54779K12N 12N20160401211009904/01/16 21:10:31  5-MIN K12N 020210Z AUTO 36007KT 16/06 A2964 840 51 1100 020/07 RMK AO1 T01560056
54779K12N 12N20160401211509904/01/16 21:15:31  5-MIN K12N 020215Z AUTO 36007KT 16/06 A2964 840 51 1100 010/07 RMK AO1 T01560056
54779K12N 12N20160401212009904/01/16 21:20:31  5-MIN K12N 020220Z AUTO 36007KT 15/05 A2965 840 51 1100 010/07 RMK AO1 T01500050
54779K12N 12N20160401212509904/01/16 21:25:31  5-MIN K12N 020225Z AUTO 35005KT 15/05 A2965 830 51 1100 010/05 RMK AO1 T01500050
54779K12N 12N20160401213009904/01/16 21:30:31  5-MIN K12N 020230Z AUTO 36004KT 15/05 A2965 830 51 1100 020/04 RMK AO1 T01500050
54779K12N 12N20160401213509904/01/16 21:35:31  5-MIN K12N 020235Z AUTO VRB05KT 15/05 A2964 840 51 1100 VRB/05 RMK AO1 T01500050
54779K12N 12N20160401214009904/01/16 21:40:31  5-MIN K12N 020240Z AUTO 00000KT 14/05 A2964 840 53 1000 000/00 RMK AO1 T01440050
54779K12N 12N20160401214509904/01/16 21:45:31  5-MIN K12N 020245Z AUTO VRB03KT 14/06 A2965 840 55 1000 VRB/03 RMK AO1 T01440056
54779K12N 12N20160401215011204/01/16 21:50:31  5-MIN K12N 020250Z AUTO 00000KT 14/06 A2965 830 55 1000 000/00 RMK AO1 SLP037 T01440056 51031
54779K12N 12N20160401215509804/01/16 21:55:31  5-MIN K12N 020255Z AUTO 00000KT 14/06 A2965 830 57 900 000/00 RMK AO1 T01390056
54779K12N 12N20160401220009804/01/16 22:00:31  5-MIN K12N 020300Z AUTO 00000KT 14/06 A2966 830 57 900 000/00 RMK AO1 T01390056
54779K12N 12N20160401220509804/01/16 22:05:31  5-MIN K12N 020305Z AUTO 00000KT 13/06 A2966 830 59 900 000/00 RMK AO1 T01330056
54779K12N 12N20160401221009804/01/16 22:10:31  5-MIN K12N 020310Z AUTO 00000KT 14/06 A2966 830 57 900 000/00 RMK AO1 T01390056
54779K12N 12N20160401221509804/01/16 22:15:31  5-MIN K12N 020315Z AUTO 00000KT 13/06 A2966 830 59 900 000/00 RMK AO1 T01330056
54779K12N 12N20160401222009804/01/16 22:20:31  5-MIN K12N 020320Z AUTO 00000KT 13/06 A2967 820 59 900 000/00 RMK AO1 T01330056
54779K12N 12N20160401222509804/01/16 22:25:31  5-MIN K12N 020325Z AUTO 00000KT 13/06 A2966 820 59 900 000/00 RMK AO1 T01330056
54779K12N 12N20160401223009804/01/16 22:30:31  5-MIN K12N 020330Z AUTO 00000KT 13/06 A2967 820 63 800 000/00 RMK AO1 T01280061
54779K12N 12N20160401223509804/01/16 22:35:31  5-MIN K12N 020335Z AUTO 00000KT 13/06 A2966 820 63 800 000/00 RMK AO1 T01280061
54779K12N 12N20160401224009804/01/16 22:40:31  5-MIN K12N 020340Z AUTO 00000KT 12/06 A2966 830 66 700 000/00 RMK AO1 T01220061
54779K12N 12N20160401224509804/01/16 22:45:31  5-MIN K12N 020345Z AUTO 00000KT 12/06 A2966 830 66 700 000/00 RMK AO1 T01220061
54779K12N 12N20160401225010504/01/16 22:50:31  5-MIN K12N 020350Z AUTO 00000KT 12/07 A2966 830 68 700 000/00 RMK AO1 SLP040 T01220067
54779K12N 12N20160401225509804/01/16 22:55:31  5-MIN K12N 020355Z AUTO 00000KT 12/07 A2966 830 71 700 000/00 RMK AO1 T01220072
54779K12N 12N20160401230009804/01/16 23:00:31  5-MIN K12N 020400Z AUTO 00000KT 12/07 A2966 830 71 700 000/00 RMK AO1 T01220072
54779K12N 12N20160401230509804/01/16 23:05:31  5-MIN K12N 020405Z AUTO 02003KT 12/07 A2966 830 68 700 030/03 RMK AO1 T01220067
54779K12N 12N20160401231009804/01/16 23:10:31  5-MIN K12N 020410Z AUTO 02003KT 12/07 A2966 830 74 700 030/03 RMK AO1 T01170072
54779K12N 12N20160401231509804/01/16 23:15:31  5-MIN K12N 020415Z AUTO 01006KT 12/07 A2966 830 68 700 020/06 RMK AO1 T01220067
54779K12N 12N20160401232009804/01/16 23:20:31  5-MIN K12N 020420Z AUTO 36006KT 13/06 A2966 830 59 900 020/06 RMK AO1 T01330056
54779K12N 12N20160401232509804/01/16 23:25:31  5-MIN K12N 020425Z AUTO 36007KT 13/05 A2966 830 57 900 020/07 RMK AO1 T01330050
54779K12N 12N20160401233009804/01/16 23:30:31  5-MIN K12N 020430Z AUTO VRB06KT 13/06 A2967 820 61 800 VRB/06 RMK AO1 T01280056
54779K12N 12N20160401233511404/01/16 23:35:31  5-MIN K12N 020435Z AUTO 01008KT 340V050 13/05 A2967 820 59 800 020/08 350V060 RMK AO1 T01280050
54779K12N 12N20160401234011404/01/16 23:40:31  5-MIN K12N 020440Z AUTO 02008KT 350V050 13/05 A2967 820 59 800 040/08 360V060 RMK AO1 T01280050
54779K12N 12N20160401234509804/01/16 23:45:31  5-MIN K12N 020445Z AUTO 01007KT 12/04 A2967 820 59 700 030/07 RMK AO1 T01220044
54779K12N 12N20160401235011504/01/16 23:50:31  5-MIN K12N 020450Z AUTO VRB05KT 12/04 A2967 820 59 700 VRB/05 RMK AO1 SLP043 T01220044 402500117
54779K12N 12N20160401235509804/01/16 23:55:31  5-MIN K12N 020455Z AUTO VRB03KT 12/04 A2967 820 56 700 VRB/03 RMK AO1 T01220039
54779K12N 12N20160402000009804/02/16 00:00:31  5-MIN K12N 020500Z AUTO VRB06KT 12/04 A2968 810 58 600 VRB/06 RMK AO1 T01170039
54779K12N 12N20160402000509804/02/16 00:05:31  5-MIN K12N 020505Z AUTO VRB03KT 12/04 A2967 820 58 700 VRB/03 RMK AO1 T01170039
54779K12N 12N20160402001009804/02/16 00:10:31  5-MIN K12N 020510Z AUTO VRB05KT 12/03 A2966 830 56 700 VRB/05 RMK AO1 T01170033
54779K12N 12N20160402001509804/02/16 00:15:31  5-MIN K12N 020515Z AUTO VRB03KT 12/03 A2967 820 56 700 VRB/03 RMK AO1 T01170033
54779K12N 12N20160402002009804/02/16 00:20:31  5-MIN K12N 020520Z AUTO VRB05KT 12/03 A2966 820 56 700 VRB/05 RMK AO1 T01170033
54779K12N 12N20160402002509804/02/16 00:25:31  5-MIN K12N 020525Z AUTO 01004KT 12/03 A2966 830 56 700 030/04 RMK AO1 T01170033
54779K12N 12N20160402003009804/02/16 00:30:31  5-MIN K12N 020530Z AUTO VRB04KT 11/03 A2966 830 58 600 VRB/04 RMK AO1 T01110033
54779K12N 12N20160402003509804/02/16 00:35:31  5-MIN K12N 020535Z AUTO 36006KT 12/03 A2966 830 56 700 010/06 RMK AO1 T01170033
54779K12N 12N20160402004009804/02/16 00:40:31  5-MIN K12N 020540Z AUTO VRB03KT 11/03 A2966 830 58 600 VRB/03 RMK AO1 T01110033
54779K12N 12N20160402004509804/02/16 00:45:31  5-MIN K12N 020545Z AUTO 00000KT 11/04 A2966 830 61 600 000/00 RMK AO1 T01110039
54779K12N 12N20160402005011304/02/16 00:50:31  5-MIN K12N 020550Z AUTO 11/04 A2966 830 61 600 M /M RMK AO1 SLP040 T01110039 10211 20111 51035
54779K12N 12N20160402005509804/02/16 00:55:31  5-MIN K12N 020555Z AUTO VRB05KT 11/03 A2966 830 58 600 VRB/05 RMK AO1 T01110033
54779K12N 12N20160402010009804/02/16 01:00:31  5-MIN K12N 020600Z AUTO VRB05KT 11/03 A2966 820 56 600 VRB/05 RMK AO1 T01110028
54779K12N 12N20160402010509804/02/16 01:05:31  5-MIN K12N 020605Z AUTO 36007KT 11/03 A2966 820 56 600 010/07 RMK AO1 T01110028
54779K12N 12N20160402011009804/02/16 01:10:31  5-MIN K12N 020610Z AUTO 02007KT 11/02 A2967 820 54 600 030/07 RMK AO1 T01110022
54779K12N 12N20160402011509804/02/16 01:15:31  5-MIN K12N 020615Z AUTO 36007KT 11/02 A2967 820 54 600 020/07 RMK AO1 T01110022
54779K12N 12N20160402012011404/02/16 01:20:31  5-MIN K12N 020620Z AUTO 01007KT 340V050 11/02 A2967 820 54 600 020/07 350V060 RMK AO1 T01110022
54779K12N 12N20160402012509804/02/16 01:25:31  5-MIN K12N 020625Z AUTO 35006KT 11/02 A2967 820 54 600 010/06 RMK AO1 T01110022
54779K12N 12N20160402013009804/02/16 01:30:31  5-MIN K12N 020630Z AUTO 00000KT 11/02 A2967 820 54 600 000/00 RMK AO1 T01110022
54779K12N 12N20160402013508804/02/16 01:35:31  5-MIN K12N 020635Z AUTO 11/03 A2967 820 58 500 M /M RMK AO1 T01060028
54779K12N 12N20160402014009804/02/16 01:40:31  5-MIN K12N 020640Z AUTO VRB03KT 11/03 A2967 810 58 500 VRB/03 RMK AO1 T01060028
54779K12N 12N20160402014509804/02/16 01:45:31  5-MIN K12N 020645Z AUTO 36004KT 11/03 A2967 820 58 500 010/04 RMK AO1 T01060028
54779K12N 12N20160402015010504/02/16 01:50:31  5-MIN K12N 020650Z AUTO VRB04KT 11/02 A2966 830 56 500 VRB/04 RMK AO1 SLP040 T01060022
54779K12N 12N20160402015509804/02/16 01:55:31  5-MIN K12N 020655Z AUTO 01004KT 11/02 A2966 830 56 500 020/04 RMK AO1 T01060022
54779K12N 12N20160402020009804/02/16 02:00:31  5-MIN K12N 020700Z AUTO 00000KT 11/03 A2966 830 58 500 000/00 RMK AO1 T01060028
54779K12N 12N20160402020509804/02/16 02:05:31  5-MIN K12N 020705Z AUTO 02003KT 11/03 A2966 830 58 500 030/03 RMK AO1 T01060028
54779K12N 12N20160402021009804/02/16 02:10:31  5-MIN K12N 020710Z AUTO 00000KT 11/03 A2966 830 58 500 000/00 RMK AO1 T01060028
54779K12N 12N20160402021509804/02/16 02:15:31  5-MIN K12N 020715Z AUTO VRB03KT 11/02 A2966 830 56 500 VRB/03 RMK AO1 T01060022
54779K12N 12N20160402022009804/02/16 02:20:31  5-MIN K12N 020720Z AUTO VRB03KT 11/02 A2966 830 56 500 VRB/03 RMK AO1 T01060022
54779K12N 12N20160402022509804/02/16 02:25:31  5-MIN K12N 020725Z AUTO 00000KT 11/02 A2966 830 54 500 000/00 RMK AO1 T01060017
54779K12N 12N20160402023009804/02/16 02:30:31  5-MIN K12N 020730Z AUTO 00000KT 11/02 A2967 820 56 500 000/00 RMK AO1 T01060022
54779K12N 12N20160402023509804/02/16 02:35:31  5-MIN K12N 020735Z AUTO 00000KT 11/02 A2966 820 56 500 000/00 RMK AO1 T01060022
54779K12N 12N20160402024009804/02/16 02:40:31  5-MIN K12N 020740Z AUTO 00000KT 11/02 A2966 830 56 500 000/00 RMK AO1 T01060022
54779K12N 12N20160402024509804/02/16 02:45:31  5-MIN K12N 020745Z AUTO 00000KT 11/02 A2965 830 56 500 000/00 RMK AO1 T01060022
54779K12N 12N20160402025010504/02/16 02:50:31  5-MIN K12N 020750Z AUTO 00000KT 11/02 A2965 840 56 500 000/00 RMK AO1 SLP036 T01060022
54779K12N 12N20160402025509804/02/16 02:55:31  5-MIN K12N 020755Z AUTO 00000KT 11/02 A2965 840 56 500 000/00 RMK AO1 T01060022
54779K12N 12N20160402030009804/02/16 03:00:31  5-MIN K12N 020800Z AUTO 00000KT 11/02 A2965 830 56 500 000/00 RMK AO1 T01060022
54779K12N 12N20160402030509804/02/16 03:05:31  5-MIN K12N 020805Z AUTO 00000KT 10/03 A2965 840 60 500 000/00 RMK AO1 T01000028
54779K12N 12N20160402031009804/02/16 03:10:31  5-MIN K12N 020810Z AUTO 00000KT 10/03 A2965 840 63 500 000/00 RMK AO1 T01000033
54779K12N 12N20160402031509804/02/16 03:15:31  5-MIN K12N 020815Z AUTO 00000KT 10/03 A2964 850 60 500 000/00 RMK AO1 T01000028
54779K12N 12N20160402032009804/02/16 03:20:31  5-MIN K12N 020820Z AUTO 00000KT 11/03 A2965 840 58 500 000/00 RMK AO1 T01060028
54779K12N 12N20160402032509804/02/16 03:25:31  5-MIN K12N 020825Z AUTO 00000KT 11/02 A2966 830 56 500 000/00 RMK AO1 T01060022
54779K12N 12N20160402033009804/02/16 03:30:31  5-MIN K12N 020830Z AUTO 00000KT 10/03 A2966 830 60 500 000/00 RMK AO1 T01000028
54779K12N 12N20160402033509804/02/16 03:35:31  5-MIN K12N 020835Z AUTO 00000KT 10/03 A2965 830 63 500 000/00 RMK AO1 T01000033
54779K12N 12N20160402034009804/02/16 03:40:31  5-MIN K12N 020840Z AUTO 00000KT 10/03 A2965 830 60 500 000/00 RMK AO1 T01000028
54779K12N 12N20160402034509804/02/16 03:45:31  5-MIN K12N 020845Z AUTO 00000KT 10/03 A2965 840 63 500 000/00 RMK AO1 T01000033
54779K12N 12N20160402035011104/02/16 03:50:31  5-MIN K12N 020850Z AUTO 00000KT 10/03 A2964 840 63 500 000/00 RMK AO1 SLP034 T01000033 50002
54779K12N 12N20160402035509804/02/16 03:55:31  5-MIN K12N 020855Z AUTO 00000KT 10/03 A2965 840 63 500 000/00 RMK AO1 T01000033
54779K12N 12N20160402040009804/02/16 04:00:31  5-MIN K12N 020900Z AUTO 00000KT 10/04 A2964 840 65 500 000/00 RMK AO1 T01000039
54779K12N 12N20160402040509804/02/16 04:05:31  5-MIN K12N 020905Z AUTO 00000KT 09/04 A2964 850 68 400 000/00 RMK AO1 T00940039
54779K12N 12N20160402041009804/02/16 04:10:31  5-MIN K12N 020910Z AUTO 00000KT 09/04 A2963 850 68 400 000/00 RMK AO1 T00940039
54779K12N 12N20160402041509804/02/16 04:15:31  5-MIN K12N 020915Z AUTO 00000KT 09/05 A2963 850 74 400 000/00 RMK AO1 T00940050
54779K12N 12N20160402042009804/02/16 04:20:31  5-MIN K12N 020920Z AUTO 00000KT 09/04 A2962 860 71 400 000/00 RMK AO1 T00940044
54779K12N 12N20160402042509804/02/16 04:25:31  5-MIN K12N 020925Z AUTO 00000KT 09/05 A2962 860 74 400 000/00 RMK AO1 T00940050
54779K12N 12N20160402043009804/02/16 04:30:31  5-MIN K12N 020930Z AUTO 00000KT 09/04 A2962 860 71 400 000/00 RMK AO1 T00940044
54779K12N 12N20160402043509804/02/16 04:35:31  5-MIN K12N 020935Z AUTO 00000KT 09/05 A2961 870 74 500 000/00 RMK AO1 T00940050
54779K12N 12N20160402044009804/02/16 04:40:31  5-MIN K12N 020940Z AUTO 00000KT 09/06 A2961 870 79 400 000/00 RMK AO1 T00890056
54779K12N 12N20160402044509804/02/16 04:45:31  5-MIN K12N 020945Z AUTO 00000KT 09/06 A2962 870 79 400 000/00 RMK AO1 T00890056
54779K12N 12N20160402045010504/02/16 04:50:31  5-MIN K12N 020950Z AUTO 00000KT 09/06 A2961 870 79 400 000/00 RMK AO1 SLP025 T00890056
54779K12N 12N20160402045509804/02/16 04:55:31  5-MIN K12N 020955Z AUTO 00000KT 09/06 A2962 870 79 400 000/00 RMK AO1 T00890056
54779K12N 12N20160402050009804/02/16 05:00:31  5-MIN K12N 021000Z AUTO 00000KT 09/06 A2962 860 83 400 000/00 RMK AO1 T00890061
54779K12N 12N20160402050509804/02/16 05:05:31  5-MIN K12N 021005Z AUTO 00000KT 09/06 A2962 870 83 400 000/00 RMK AO1 T00890061
54779K12N 12N20160402051009804/02/16 05:10:31  5-MIN K12N 021010Z AUTO 00000KT 09/06 A2962 870 79 400 000/00 RMK AO1 T00890056
54779K12N 12N20160402051509804/02/16 05:15:31  5-MIN K12N 021015Z AUTO 00000KT 09/06 A2962 860 83 400 000/00 RMK AO1 T00890061
54779K12N 12N20160402052010404/02/16 05:20:31  5-MIN K12N 021020Z AUTO 00000KT 08/07 A2961 870 89 300 000/00 RMK AO1 P0001 T00830067
54779K12N 12N20160402052510404/02/16 05:25:31  5-MIN K12N 021025Z AUTO 00000KT 08/06 A2962 870 86 300 000/00 RMK AO1 P0001 T00830061
54779K12N 12N20160402053010404/02/16 05:30:31  5-MIN K12N 021030Z AUTO 00000KT 08/07 A2961 870 89 300 000/00 RMK AO1 P0001 T00830067
54779K12N 12N20160402053510404/02/16 05:35:31  5-MIN K12N 021035Z AUTO 00000KT 08/07 A2961 870 89 300 000/00 RMK AO1 P0002 T00830067
54779K12N 12N20160402054010404/02/16 05:40:31  5-MIN K12N 021040Z AUTO 00000KT 08/07 A2961 880 89 300 000/00 RMK AO1 P0002 T00830067
54779K12N 12N20160402054510404/02/16 05:45:31  5-MIN K12N 021045Z AUTO 00000KT 08/07 A2961 870 89 300 000/00 RMK AO1 P0002 T00830067
54779K12N 12N20160402055011104/02/16 05:50:31  5-MIN K12N 021050Z AUTO 00000KT 08/07 A2961 880 93 300 000/00 RMK AO1 SLP023 P0002 T00830072
54779K12N 12N20160402055509804/02/16 05:55:31  5-MIN K12N 021055Z AUTO 00000KT 08/07 A2961 880 93 300 000/00 RMK AO1 T00830072
54779K12N 12N20160402060009804/02/16 06:00:31  5-MIN K12N 021100Z AUTO 00000KT 08/07 A2960 880 93 300 000/00 RMK AO1 T00830072
54779K12N 12N20160402060509804/02/16 06:05:31  5-MIN K12N 021105Z AUTO 00000KT 08/07 A2959 890 89 300 000/00 RMK AO1 T00830067
54779K12N 12N20160402061009804/02/16 06:10:31  5-MIN K12N 021110Z AUTO 00000KT 08/07 A2960 880 89 300 000/00 RMK AO1 T00830067
54779K12N 12N20160402061509804/02/16 06:15:31  5-MIN K12N 021115Z AUTO 00000KT 08/07 A2960 880 89 300 000/00 RMK AO1 T00830067
54779K12N 12N20160402062009804/02/16 06:20:31  5-MIN K12N 021120Z AUTO 00000KT 08/07 A2961 880 89 300 000/00 RMK AO1 T00830067
54779K12N 12N20160402062509804/02/16 06:25:31  5-MIN K12N 021125Z AUTO 00000KT 08/07 A2960 880 89 300 000/00 RMK AO1 T00830067
54779K12N 12N20160402063009804/02/16 06:30:31  5-MIN K12N 021130Z AUTO 00000KT 08/07 A2961 880 89 300 000/00 RMK AO1 T00830067
54779K12N 12N20160402063509804/02/16 06:35:31  5-MIN K12N 021135Z AUTO 00000KT 08/07 A2961 870 89 300 000/00 RMK AO1 T00830067
54779K12N 12N20160402064009804/02/16 06:40:31  5-MIN K12N 021140Z AUTO 00000KT 08/07 A2962 860 89 300 000/00 RMK AO1 T00830067
54779K12N 12N20160402064509804/02/16 06:45:31  5-MIN K12N 021145Z AUTO 00000KT 08/07 A2962 860 89 300 000/00 RMK AO1 T00830067
54779K12N 12N20160402065014104/02/16 06:50:31  5-MIN K12N 021150Z AUTO 00000KT 08/07 A2962 860 89 300 000/00 RMK AO1 SLP029 P0001 60004 70004 T00830067 10111 20083 58004
54779K12N 12N20160402065509804/02/16 06:55:31  5-MIN K12N 021155Z AUTO 00000KT 08/07 A2962 860 89 300 000/00 RMK AO1 T00830067
54779K12N 12N20160402070010404/02/16 07:00:31  5-MIN K12N 021200Z AUTO 00000KT 08/07 A2962 860 89 300 000/00 RMK AO1 P0001 T00830067
54779K12N 12N20160402070510404/02/16 07:05:31  5-MIN K12N 021205Z AUTO 00000KT 08/07 A2962 860 93 200 000/00 RMK AO1 P0002 T00780067
54779K12N 12N20160402071010404/02/16 07:10:31  5-MIN K12N 021210Z AUTO 00000KT 08/07 A2962 860 93 200 000/00 RMK AO1 P0003 T00780067
54779K12N 12N20160402071510404/02/16 07:15:31  5-MIN K12N 021215Z AUTO VRB03KT 08/07 A2963 860 89 300 VRB/03 RMK AO1 P0003 T00830067
54779K12N 12N20160402072010404/02/16 07:20:31  5-MIN K12N 021220Z AUTO 00000KT 08/06 A2963 860 89 200 000/00 RMK AO1 P0003 T00780061
54779K12N 12N20160402072510404/02/16 07:25:31  5-MIN K12N 021225Z AUTO 22003KT 08/06 A2963 860 89 200 240/03 RMK AO1 P0004 T00780061
54779K12N 12N20160402073010404/02/16 07:30:31  5-MIN K12N 021230Z AUTO 00000KT 08/06 A2963 860 89 200 000/00 RMK AO1 P0005 T00780061
54779K12N 12N20160402073510404/02/16 07:35:31  5-MIN K12N 021235Z AUTO 19003KT 08/07 A2963 860 93 200 200/03 RMK AO1 P0005 T00780067
54779K12N 12N20160402074010404/02/16 07:40:31  5-MIN K12N 021240Z AUTO VRB03KT 08/06 A2963 860 89 200 VRB/03 RMK AO1 P0005 T00780061
54779K12N 12N20160402074510404/02/16 07:45:31  5-MIN K12N 021245Z AUTO 00000KT 08/07 A2962 860 93 200 000/00 RMK AO1 P0005 T00780067
54779K12N 12N20160402075011104/02/16 07:50:31  5-MIN K12N 021250Z AUTO VRB03KT 08/07 A2962 860 93 200 VRB/03 RMK AO1 SLP029 P0006 T00780067
54779K12N 12N20160402075509804/02/16 07:55:31  5-MIN K12N 021255Z AUTO 00000KT 08/07 A2962 870 89 300 000/00 RMK AO1 T00830067
54779K12N 12N20160402080009804/02/16 08:00:31  5-MIN K12N 021300Z AUTO 00000KT 08/07 A2962 860 93 200 000/00 RMK AO1 T00780067
54779K12N 12N20160402080510404/02/16 08:05:31  5-MIN K12N 021305Z AUTO VRB03KT 08/07 A2962 860 89 300 VRB/03 RMK AO1 P0001 T00830067
54779K12N 12N20160402081010404/02/16 08:10:31  5-MIN K12N 021310Z AUTO 21004KT 08/07 A2962 870 93 200 230/04 RMK AO1 P0002 T00780067
54779K12N 12N20160402081510404/02/16 08:15:31  5-MIN K12N 021315Z AUTO 20004KT 08/06 A2961 870 89 300 210/04 RMK AO1 P0002 T00780061
54779K12N 12N20160402082010404/02/16 08:20:31  5-MIN K12N 021320Z AUTO 21003KT 08/06 A2961 870 89 300 230/03 RMK AO1 P0002 T00780061
54779K12N 12N20160402082510404/02/16 08:25:31  5-MIN K12N 021325Z AUTO 21003KT 08/06 A2961 870 86 300 230/03 RMK AO1 P0002 T00830061
54779K12N 12N20160402083010404/02/16 08:30:31  5-MIN K12N 021330Z AUTO 21005KT 08/06 A2961 870 86 300 230/05 RMK AO1 P0002 T00830061
54779K12N 12N20160402083510404/02/16 08:35:31  5-MIN K12N 021335Z AUTO 22005KT 08/06 A2961 870 86 300 230/05 RMK AO1 P0002 T00830061
54779K12N 12N20160402084010404/02/16 08:40:31  5-MIN K12N 021340Z AUTO 21004KT 08/06 A2961 870 89 200 220/04 RMK AO1 P0002 T00780061
54779K12N 12N20160402084510404/02/16 08:45:31  5-MIN K12N 021345Z AUTO 22005KT 08/06 A2961 870 89 300 230/05 RMK AO1 P0003 T00780061
54779K12N 12N20160402085011104/02/16 08:50:31  5-MIN K12N 021350Z AUTO 22005KT 08/06 A2961 870 89 200 230/05 RMK AO1 SLP028 P0003 T00780061
54779K12N 12N20160402085509804/02/16 08:55:31  5-MIN K12N 021355Z AUTO VRB04KT 08/06 A2961 870 86 200 VRB/04 RMK AO1 T00780056
54779K12N 12N20160402090009804/02/16 09:00:31  5-MIN K12N 021400Z AUTO 21004KT 08/06 A2962 870 89 200 220/04 RMK AO1 T00780061
54779K12N 12N20160402090509804/02/16 09:05:31  5-MIN K12N 021405Z AUTO 22005KT 08/06 A2961 870 86 200 230/05 RMK AO1 T00780056
54779K12N 12N20160402091009804/02/16 09:10:31  5-MIN K12N 021410Z AUTO VRB04KT 08/06 A2961 870 86 300 VRB/04 RMK AO1 T00780056
54779K12N 12N20160402091509804/02/16 09:15:31  5-MIN K12N 021415Z AUTO 23003KT 08/06 A2961 880 86 300 240/03 RMK AO1 T00780056
54779K12N 12N20160402092009804/02/16 09:20:31  5-MIN K12N 021420Z AUTO 22004KT 08/06 A2960 880 86 300 240/04 RMK AO1 T00780056
54779K12N 12N20160402092509804/02/16 09:25:31  5-MIN K12N 021425Z AUTO 22004KT 08/06 A2960 880 86 300 230/04 RMK AO1 T00830061
54779K12N 12N20160402093009804/02/16 09:30:31  5-MIN K12N 021430Z AUTO 20004KT 08/06 A2960 880 86 300 220/04 RMK AO1 T00830061
54779K12N 12N20160402093509804/02/16 09:35:31  5-MIN K12N 021435Z AUTO VRB04KT 08/06 A2960 880 89 300 VRB/04 RMK AO1 T00780061
54779K12N 12N20160402094009804/02/16 09:40:31  5-MIN K12N 021440Z AUTO 22004KT 08/06 A2960 890 86 300 230/04 RMK AO1 T00780056
54779K12N 12N20160402094509804/02/16 09:45:31  5-MIN K12N 021445Z AUTO 21004KT 08/06 A2959 890 86 300 220/04 RMK AO1 T00780056
54779K12N 12N20160402095011704/02/16 09:50:31  5-MIN K12N 021450Z AUTO VRB04KT 08/06 A2958 900 82 400 VRB/04 RMK AO1 SLP018 60009 T00830056 55008
54779K12N 12N20160402095509804/02/16 09:55:31  5-MIN K12N 021455Z AUTO VRB04KT 08/06 A2958 900 82 400 VRB/04 RMK AO1 T00830056
54779K12N 12N20160402100010504/02/16 10:00:31  5-MIN K12N 021500Z AUTO 21005KT 08/05 A2957 910 82 300 220/05 RMK AO1 PRESFR T00780050
54779K12N 12N20160402100509804/02/16 10:05:31  5-MIN K12N 021505Z AUTO VRB03KT 08/05 A2957 910 79 400 VRB/03 RMK AO1 T00830050
54779K12N 12N20160402101009804/02/16 10:10:31  5-MIN K12N 021510Z AUTO 21004KT 08/05 A2956 920 79 400 230/04 RMK AO1 T00830050
54779K12N 12N20160402101509804/02/16 10:15:31  5-MIN K12N 021515Z AUTO VRB05KT 08/05 A2956 920 79 400 VRB/05 RMK AO1 T00830050
54779K12N 12N20160402102010504/02/16 10:20:31  5-MIN K12N 021520Z AUTO VRB05KT 08/05 A2955 930 79 400 VRB/05 RMK AO1 PRESFR T00830050
54779K12N 12N20160402102509804/02/16 10:25:31  5-MIN K12N 021525Z AUTO VRB05KT 08/05 A2955 930 79 400 VRB/05 RMK AO1 T00830050
54779K12N 12N20160402103009804/02/16 10:30:31  5-MIN K12N 021530Z AUTO VRB04KT 08/05 A2955 930 79 400 VRB/04 RMK AO1 T00830050
54779K12N 12N20160402103509804/02/16 10:35:31  5-MIN K12N 021535Z AUTO VRB03KT 08/04 A2955 930 76 400 VRB/03 RMK AO1 T00830044
54779K12N 12N20160402104009804/02/16 10:40:31  5-MIN K12N 021540Z AUTO 23006KT 08/04 A2955 930 76 400 240/06 RMK AO1 T00830044
54779K12N 12N20160402104509804/02/16 10:45:31  5-MIN K12N 021545Z AUTO 21005KT 08/04 A2955 930 76 400 220/05 RMK AO1 T00830044
54779K12N 12N20160402105010504/02/16 10:50:31  5-MIN K12N 021550Z AUTO 23006KT 08/04 A2955 930 76 400 240/06 RMK AO1 SLP007 T00830044
54779K12N 12N20160402105509804/02/16 10:55:31  5-MIN K12N 021555Z AUTO 23007KT 08/04 A2954 940 76 400 250/07 RMK AO1 T00830044
54779K12N 12N20160402110009804/02/16 11:00:31  5-MIN K12N 021600Z AUTO 23008KT 08/04 A2954 940 73 400 240/08 RMK AO1 T00830039
54779K12N 12N20160402110510504/02/16 11:05:31  5-MIN K12N 021605Z AUTO VRB04KT 08/04 A2952 950 73 400 VRB/04 RMK AO1 PRESFR T00830039
54779K12N 12N20160402111009804/02/16 11:10:31  5-MIN K12N 021610Z AUTO VRB04KT 08/04 A2952 960 76 400 VRB/04 RMK AO1 T00830044
54779K12N 12N20160402111510504/02/16 11:15:31  5-MIN K12N 021615Z AUTO VRB03KT 09/04 A2951 970 73 500 VRB/03 RMK AO1 PRESFR T00890044
54779K12N 12N20160402112009804/02/16 11:20:31  5-MIN K12N 021620Z AUTO 25005KT 09/04 A2952 960 73 500 270/05 RMK AO1 T00890044
54779K12N 12N20160402112509804/02/16 11:25:31  5-MIN K12N 021625Z AUTO VRB05KT 09/04 A2952 960 71 500 VRB/05 RMK AO1 T00890039
54779K12N 12N20160402113009804/02/16 11:30:31  5-MIN K12N 021630Z AUTO 23007KT 09/04 A2954 940 71 500 250/07 RMK AO1 T00890039
54779K12N 12N20160402113509804/02/16 11:35:31  5-MIN K12N 021635Z AUTO VRB04KT 09/04 A2953 950 73 500 VRB/04 RMK AO1 T00890044
54779K12N 12N20160402114009804/02/16 11:40:31  5-MIN K12N 021640Z AUTO 21008KT 09/04 A2951 960 73 500 220/08 RMK AO1 T00890044
54779K12N 12N20160402114509804/02/16 11:45:31  5-MIN K12N 021645Z AUTO 22009KT 09/04 A2950 970 73 500 240/09 RMK AO1 T00890044
54779K12N 12N20160402115010504/02/16 11:50:31  5-MIN K12N 021650Z AUTO VRB06KT 09/05 A2951 970 74 600 VRB/06 RMK AO1 SLP992 T00940050
54779K12N 12N20160402115509804/02/16 11:55:31  5-MIN K12N 021655Z AUTO VRB05KT 09/05 A2950 980 74 600 VRB/05 RMK AO1 T00940050
54779K12N 12N20160402120009804/02/16 12:00:31  5-MIN K12N 021700Z AUTO 00000KT 10/06 A2950 980 74 700 000/00 RMK AO1 T01000056
54779K12N 12N20160402120509804/02/16 12:05:31  5-MIN K12N 021705Z AUTO VRB04KT 10/05 A2949 990 71 700 VRB/04 RMK AO1 T01000050
54779K12N 12N20160402121009604/02/16 12:10:31  5-MIN K12N 021710Z AUTO 10/04 A2947 1000 65 700 M /M RMK AO1 PRESFR T01000039
54779K12N 12N20160402121509904/02/16 12:15:31  5-MIN K12N 021715Z AUTO VRB05KT 10/04 A2948 1000 68 700 VRB/05 RMK AO1 T01000044
54779K12N 12N20160402122012204/02/16 12:20:31  5-MIN K12N 021720Z AUTO 25007KT 210V280 11/04 A2946 1010 66 800 260/07 220V290 RMK AO1 PRESFR T01060044
54779K12N 12N20160402122510604/02/16 12:25:31  5-MIN K12N 021725Z AUTO VRB05KT 11/04 A2946 1020 63 800 VRB/05 RMK AO1 PRESFR T01060039
54779K12N 12N20160402123010604/02/16 12:30:31  5-MIN K12N 021730Z AUTO VRB06KT 11/04 A2945 1020 61 800 VRB/06 RMK AO1 PRESFR T01110039
54779K12N 12N20160402123510604/02/16 12:35:31  5-MIN K12N 021735Z AUTO VRB04KT 11/04 A2944 1040 61 900 VRB/04 RMK AO1 PRESFR T01110039
54779K12N 12N20160402124010604/02/16 12:40:31  5-MIN K12N 021740Z AUTO VRB06KT 11/04 A2943 1040 61 900 VRB/06 RMK AO1 PRESFR T01110039
54779K12N 12N20160402124509904/02/16 12:45:31  5-MIN K12N 021745Z AUTO 22007KT 12/04 A2943 1040 58 900 230/07 RMK AO1 T01170039
54779K12N 12N20160402125013004/02/16 12:50:31  5-MIN K12N 021750Z AUTO 26007KT 11/03 A2943 1040 56 900 270/07 RMK AO1 SLP967 60009 T01110028 10117 20078 58014
54779K12N 12N20160402125509904/02/16 12:55:31  5-MIN K12N 021755Z AUTO 22007KT 11/03 A2943 1040 56 900 240/07 RMK AO1 T01110028
54779K12N 12N20160402130009904/02/16 13:00:31  5-MIN K12N 021800Z AUTO VRB03KT 12/02 A2943 1040 52 900 VRB/03 RMK AO1 T01170022
54779K12N 12N20160402130508904/02/16 13:05:31  5-MIN K12N 021805Z AUTO 12/03 A2944 1030 54 900 M /M RMK AO1 T01170028
54779K12N 12N20160402131010504/02/16 13:10:31  5-MIN K12N 021810Z AUTO 24010G17KT 11/02 A2944 1040 54 900 250/10G17 RMK AO1 T01110022
54779K12N 12N20160402131512104/02/16 13:15:31  5-MIN K12N 021815Z AUTO 24007G17KT 190V270 11/02 A2943 1040 52 900 250/07G17 200V280 RMK AO1 T01110017
54779K12N 12N20160402132009904/02/16 13:20:31  5-MIN K12N 021820Z AUTO 23007KT 12/03 A2943 1040 54 900 240/07 RMK AO1 T01170028
54779K12N 12N20160402132510604/02/16 13:25:31  5-MIN K12N 021825Z AUTO 21008G16KT 12/03 A2942 1050 52 1000 230/08G16 RMK AO1 T01220028
54779K12N 12N20160402133010604/02/16 13:30:31  5-MIN K12N 021830Z AUTO 21010G17KT 12/03 A2942 1060 52 1000 230/10G17 RMK AO1 T01220028
54779K12N 12N20160402133511304/02/16 13:35:31  5-MIN K12N 021835Z AUTO VRB06G17KT 12/02 A2941 1060 50 1000 VRB/06G17 RMK AO1 PRESFR T01220022
54779K12N 12N20160402134010004/02/16 13:40:31  5-MIN K12N 021840Z AUTO 22007KT 12/02 A2941 1060 50 1000 230/07 RMK AO1 T01170017
54779K12N 12N20160402134511504/02/16 13:45:31  5-MIN K12N 021845Z AUTO 20007KT 170V240 12/02 A2942 1050 52 900 210/07 180V250 RMK AO1 T01170022
54779K12N 12N20160402135009704/02/16 13:50:31  5-MIN K12N 021850Z AUTO 12/02 A2940 1070 52 1000 M /M RMK AO1 SLP956 T01170022
54779K12N 12N20160402135510004/02/16 13:55:31  5-MIN K12N 021855Z AUTO 22008KT 12/02 A2940 1070 50 1000 240/08 RMK AO1 T01170017
54779K12N 12N20160402140010604/02/16 14:00:31  5-MIN K12N 021900Z AUTO VRB06G15KT 12/02 A2941 1060 50 1000 VRB/06G15 RMK AO1 T01170017
54779K12N 12N20160402140510604/02/16 14:05:31  5-MIN K12N 021905Z AUTO 23004G15KT 12/02 A2939 1080 52 1000 240/04G15 RMK AO1 T01170022
54779K12N 12N20160402141010704/02/16 14:10:31  5-MIN K12N 021910Z AUTO VRB06KT 13/02 A2938 1090 48 1100 VRB/06 RMK AO1 PRESFR T01280022
54779K12N 12N20160402141511604/02/16 14:15:31  5-MIN K12N 021915Z AUTO 25009KT 220V290 13/02 A2938 1090 46 1100 260/09 230V300 RMK AO1 T01280017
54779K12N 12N20160402142010604/02/16 14:20:31  5-MIN K12N 021920Z AUTO VRB06G17KT 13/02 A2939 1080 48 1100 VRB/06G17 RMK AO1 T01280022
54779K12N 12N20160402142510604/02/16 14:25:31  5-MIN K12N 021925Z AUTO VRB06G17KT 13/02 A2938 1090 46 1200 VRB/06G17 RMK AO1 T01330022
54779K12N 12N20160402143010604/02/16 14:30:31  5-MIN K12N 021930Z AUTO VRB04G17KT 13/02 A2937 1100 46 1200 VRB/04G17 RMK AO1 T01330022
54779K12N 12N20160402143509004/02/16 14:35:31  5-MIN K12N 021935Z AUTO 13/02 A2936 1100 46 1100 M /M RMK AO1 T01280017
54779K12N 12N20160402144010004/02/16 14:40:31  5-MIN K12N 021940Z AUTO 23006KT 12/02 A2937 1100 48 1100 240/06 RMK AO1 T01220017
54779K12N 12N20160402144509004/02/16 14:45:31  5-MIN K12N 021945Z AUTO 12/02 A2936 1100 48 1100 M /M RMK AO1 T01220017
54779K12N 12N20160402145012904/02/16 14:50:31  5-MIN K12N 021950Z AUTO 22011G16KT 170V240 12/02 A2936 1100 50 1000 230/11G16 180V250 RMK AO1 SLP944 T01170017
54779K12N 12N20160402145510604/02/16 14:55:31  5-MIN K12N 021955Z AUTO VRB06G16KT 12/02 A2936 1100 50 1000 VRB/06G16 RMK AO1 T01170017
54779K12N 12N20160402150010604/02/16 15:00:31  5-MIN K12N 022000Z AUTO 21010G16KT 12/02 A2936 1110 52 1000 220/10G16 RMK AO1 T01170022
54779K12N 12N20160402150510604/02/16 15:05:31  5-MIN K12N 022005Z AUTO 23006G16KT 12/02 A2935 1110 50 1000 240/06G16 RMK AO1 T01170017
54779K12N 12N20160402151010604/02/16 15:10:31  5-MIN K12N 022010Z AUTO VRB03G14KT 11/02 A2935 1110 52 1000 VRB/03G14 RMK AO1 T01110017
54779K12N 12N20160402151510004/02/16 15:15:31  5-MIN K12N 022015Z AUTO 00000KT 11/02 A2935 1110 54 1000 000/00 RMK AO1 T01110022
54779K12N 12N20160402152010004/02/16 15:20:31  5-MIN K12N 022020Z AUTO VRB03KT 12/02 A2935 1110 50 1000 VRB/03 RMK AO1 T01170017
54779K12N 12N20160402152510004/02/16 15:25:31  5-MIN K12N 022025Z AUTO VRB04KT 12/01 A2935 1120 48 1000 VRB/04 RMK AO1 T01170011
54779K12N 12N20160402153010004/02/16 15:30:31  5-MIN K12N 022030Z AUTO 22005KT 12/01 A2935 1120 46 1000 230/05 RMK AO1 T01170006
54779K12N 12N20160402153510004/02/16 15:35:31  5-MIN K12N 022035Z AUTO VRB04KT 12/01 A2935 1120 46 1000 VRB/04 RMK AO1 T01170006
54779K12N 12N20160402154010004/02/16 15:40:31  5-MIN K12N 022040Z AUTO 22004KT 12/01 A2935 1120 48 1000 230/04 RMK AO1 T01170011
54779K12N 12N20160402154510004/02/16 15:45:31  5-MIN K12N 022045Z AUTO 22004KT 12/01 A2935 1120 46 1000 230/04 RMK AO1 T01170006
54779K12N 12N20160402155011304/02/16 15:50:31  5-MIN K12N 022050Z AUTO VRB04KT 12/01 A2934 1120 46 1000 VRB/04 RMK AO1 SLP937 T01170006 58051
54779K12N 12N20160402155510004/02/16 15:55:31  5-MIN K12N 022055Z AUTO 21005KT 12/00 A2934 1120 44 1000 220/05 RMK AO1 T01170000
54779K12N 12N20160402160010004/02/16 16:00:31  5-MIN K12N 022100Z AUTO VRB04KT 12/00 A2934 1130 44 1000 VRB/04 RMK AO1 T01170000
54779K12N 12N20160402160510004/02/16 16:05:31  5-MIN K12N 022105Z AUTO VRB05KT 12/00 A2934 1130 44 1000 VRB/05 RMK AO1 T01170000
54779K12N 12N20160402161010004/02/16 16:10:31  5-MIN K12N 022110Z AUTO VRB05KT 12/01 A2934 1130 44 1100 VRB/05 RMK AO1 T01220006
54779K12N 12N20160402161510004/02/16 16:15:31  5-MIN K12N 022115Z AUTO VRB05KT 13/01 A2934 1130 43 1200 VRB/05 RMK AO1 T01280006
54779K12N 12N20160402162010004/02/16 16:20:31  5-MIN K12N 022120Z AUTO VRB06KT 13/00 A2934 1130 41 1200 VRB/06 RMK AO1 T01280000
54779K12N 12N20160402162510004/02/16 16:25:31  5-MIN K12N 022125Z AUTO 21006KT 13/00 A2934 1130 41 1200 220/06 RMK AO1 T01280000
54779K12N 12N20160402163010004/02/16 16:30:31  5-MIN K12N 022130Z AUTO 20006KT 13/00 A2934 1130 41 1200 220/06 RMK AO1 T01280000
54779K12N 12N20160402163510004/02/16 16:35:31  5-MIN K12N 022135Z AUTO VRB06KT 13/01 A2934 1130 43 1200 VRB/06 RMK AO1 T01280006
54779K12N 12N20160402164010004/02/16 16:40:31  5-MIN K12N 022140Z AUTO 20006KT 12/01 A2934 1130 44 1100 220/06 RMK AO1 T01220006
54779K12N 12N20160402164510004/02/16 16:45:31  5-MIN K12N 022145Z AUTO 21007KT 12/01 A2934 1130 44 1100 220/07 RMK AO1 T01220006
54779K12N 12N20160402165010704/02/16 16:50:31  5-MIN K12N 022150Z AUTO 21006KT 12/01 A2933 1130 46 1100 220/06 RMK AO1 SLP935 T01220011
54779K12N 12N20160402165510004/02/16 16:55:31  5-MIN K12N 022155Z AUTO VRB04KT 12/01 A2933 1130 44 1100 VRB/04 RMK AO1 T01220006
54779K12N 12N20160402170010004/02/16 17:00:31  5-MIN K12N 022200Z AUTO VRB05KT 12/01 A2933 1140 44 1100 VRB/05 RMK AO1 T01220006
54779K12N 12N20160402170510004/02/16 17:05:31  5-MIN K12N 022205Z AUTO 20007KT 13/01 A2933 1140 43 1200 210/07 RMK AO1 T01280006
54779K12N 12N20160402171010004/02/16 17:10:31  5-MIN K12N 022210Z AUTO 22006KT 13/01 A2933 1140 43 1200 230/06 RMK AO1 T01280006
54779K12N 12N20160402171510004/02/16 17:15:31  5-MIN K12N 022215Z AUTO 23005KT 13/00 A2933 1140 41 1200 240/05 RMK AO1 T01280000
54779K12N 12N20160402172010104/02/16 17:20:31  5-MIN K12N 022220Z AUTO VRB04KT 13/M01 A2933 1140 38 1200 VRB/04 RMK AO1 T01281011
54779K12N 12N20160402172510104/02/16 17:25:31  5-MIN K12N 022225Z AUTO VRB03KT 13/M03 A2933 1140 33 1200 VRB/03 RMK AO1 T01281028
54779K12N 12N20160402173010104/02/16 17:30:31  5-MIN K12N 022230Z AUTO 24005KT 13/M03 A2933 1140 32 1200 250/05 RMK AO1 T01281033
54779K12N 12N20160402173510104/02/16 17:35:31  5-MIN K12N 022235Z AUTO VRB06KT 13/M04 A2933 1140 31 1200 VRB/06 RMK AO1 T01281039
54779K12N 12N20160402174010104/02/16 17:40:31  5-MIN K12N 022240Z AUTO VRB04KT 12/M04 A2933 1140 32 1100 VRB/04 RMK AO1 T01221039
54779K12N 12N20160402174510104/02/16 17:45:31  5-MIN K12N 022245Z AUTO 23006KT 12/M04 A2933 1140 32 1100 240/06 RMK AO1 T01221039
54779K12N 12N20160402175010804/02/16 17:50:31  5-MIN K12N 022250Z AUTO VRB04KT 12/M04 A2933 1140 32 1100 VRB/04 RMK AO1 SLP933 T01221039
54779K12N 12N20160402175510104/02/16 17:55:31  5-MIN K12N 022255Z AUTO VRB04KT 12/M04 A2933 1140 32 1100 VRB/04 RMK AO1 T01221039
54779K12N 12N20160402180010104/02/16 18:00:31  5-MIN K12N 022300Z AUTO VRB04KT 13/M04 A2933 1140 30 1200 VRB/04 RMK AO1 T01281044
54779K12N 12N20160402180510104/02/16 18:05:31  5-MIN K12N 022305Z AUTO VRB03KT 12/M04 A2933 1130 31 1100 VRB/03 RMK AO1 T01221044
54779K12N 12N20160402181010104/02/16 18:10:31  5-MIN K12N 022310Z AUTO VRB04KT 13/M05 A2933 1140 28 1200 VRB/04 RMK AO1 T01281050
54779K12N 12N20160402181509104/02/16 18:15:31  5-MIN K12N 022315Z AUTO 12/M04 A2933 1140 31 1100 M /M RMK AO1 T01221044
54779K12N 12N20160402182010104/02/16 18:20:31  5-MIN K12N 022320Z AUTO VRB04KT 12/M05 A2933 1140 29 1100 VRB/04 RMK AO1 T01221050
54779K12N 12N20160402182510104/02/16 18:25:31  5-MIN K12N 022325Z AUTO VRB03KT 12/M06 A2933 1140 28 1100 VRB/03 RMK AO1 T01221056
54779K12N 12N20160402183010104/02/16 18:30:31  5-MIN K12N 022330Z AUTO 00000KT 12/M06 A2933 1140 28 1100 000/00 RMK AO1 T01221056
54779K12N 12N20160402183510104/02/16 18:35:31  5-MIN K12N 022335Z AUTO 00000KT 12/M06 A2933 1140 28 1000 000/00 RMK AO1 T01171061
54779K12N 12N20160402184010104/02/16 18:40:31  5-MIN K12N 022340Z AUTO 00000KT 12/M06 A2933 1140 28 1000 000/00 RMK AO1 T01171061
54779K12N 12N20160402184510104/02/16 18:45:31  5-MIN K12N 022345Z AUTO 00000KT 12/M07 A2933 1130 27 1000 000/00 RMK AO1 T01171067
54779K12N 12N20160402185012604/02/16 18:50:31  5-MIN K12N 022350Z AUTO 00000KT 11/M06 A2933 1130 30 1000 000/00 RMK AO1 SLP934 T01111056 10133 20111 56027
54779K12N 12N20160402185510104/02/16 18:55:31  5-MIN K12N 022355Z AUTO 00000KT 11/M06 A2933 1130 30 1000 000/00 RMK AO1 T01111056
54779K12N 12N20160402190010004/02/16 19:00:31  5-MIN K12N 030000Z AUTO 00000KT 11/M06 A2934 1130 31 900 000/00 RMK AO1 T01061056
54779K12N 12N20160402190510004/02/16 19:05:31  5-MIN K12N 030005Z AUTO 00000KT 09/M04 A2934 1130 39 800 000/00 RMK AO1 T00941039
54779K12N 12N20160402191010004/02/16 19:10:31  5-MIN K12N 030010Z AUTO 00000KT 08/M02 A2934 1130 47 600 000/00 RMK AO1 T00831022
54779K12N 12N20160402191510004/02/16 19:15:31  5-MIN K12N 030015Z AUTO 00000KT 09/M02 A2934 1120 47 700 000/00 RMK AO1 T00891017
54779K12N 12N20160402192010004/02/16 19:20:31  5-MIN K12N 030020Z AUTO 00000KT 09/M02 A2934 1120 47 700 000/00 RMK AO1 T00891017
54779K12N 12N20160402192509904/02/16 19:25:31  5-MIN K12N 030025Z AUTO 00000KT 08/00 A2934 1120 55 600 000/00 RMK AO1 T00830000
54779K12N 12N20160402193009904/02/16 19:30:31  5-MIN K12N 030030Z AUTO 00000KT 09/01 A2934 1130 58 700 000/00 RMK AO1 T00890011
54779K12N 12N20160402193509904/02/16 19:35:31  5-MIN K12N 030035Z AUTO 00000KT 08/02 A2934 1130 63 600 000/00 RMK AO1 T00830017
54779K12N 12N20160402194009904/02/16 19:40:31  5-MIN K12N 030040Z AUTO 00000KT 08/01 A2934 1130 62 600 000/00 RMK AO1 T00780011
54779K12N 12N20160402194509904/02/16 19:45:31  5-MIN K12N 030045Z AUTO 00000KT 08/00 A2934 1120 58 600 000/00 RMK AO1 T00780000
54779K12N 12N20160402195010604/02/16 19:50:31  5-MIN K12N 030050Z AUTO 00000KT 08/02 A2934 1120 65 600 000/00 RMK AO1 SLP939 T00830022
54779K12N 12N20160402195509904/02/16 19:55:31  5-MIN K12N 030055Z AUTO 00000KT 07/02 A2934 1120 68 500 000/00 RMK AO1 T00720017
54779K12N 12N20160402200009904/02/16 20:00:31  5-MIN K12N 030100Z AUTO 00000KT 07/02 A2934 1120 70 500 000/00 RMK AO1 T00720022
54779K12N 12N20160402200509904/02/16 20:05:31  5-MIN K12N 030105Z AUTO 00000KT 07/02 A2934 1120 70 500 000/00 RMK AO1 T00720022
54779K12N 12N20160402201009904/02/16 20:10:31  5-MIN K12N 030110Z AUTO 00000KT 07/02 A2934 1120 70 500 000/00 RMK AO1 T00720022
54779K12N 12N20160402201509904/02/16 20:15:31  5-MIN K12N 030115Z AUTO 00000KT 07/02 A2934 1120 68 500 000/00 RMK AO1 T00720017
54779K12N 12N20160402202009904/02/16 20:20:31  5-MIN K12N 030120Z AUTO 00000KT 07/02 A2935 1120 70 500 000/00 RMK AO1 T00720022
54779K12N 12N20160402202509904/02/16 20:25:31  5-MIN K12N 030125Z AUTO 00000KT 07/02 A2935 1120 70 500 000/00 RMK AO1 T00720022
54779K12N 12N20160402203009904/02/16 20:30:31  5-MIN K12N 030130Z AUTO 00000KT 07/02 A2935 1120 70 500 000/00 RMK AO1 T00720022
54779K12N 12N20160402203509904/02/16 20:35:31  5-MIN K12N 030135Z AUTO 00000KT 07/02 A2935 1120 68 500 000/00 RMK AO1 T00720017
54779K12N 12N20160402204009904/02/16 20:40:31  5-MIN K12N 030140Z AUTO 00000KT 07/02 A2936 1110 68 500 000/00 RMK AO1 T00720017
54779K12N 12N20160402204510604/02/16 20:45:31  5-MIN K12N 030145Z AUTO 33004KT 07/00 A2937 1100 60 500 340/04 RMK AO1 PRESRR T00720000
54779K12N 12N20160402205010704/02/16 20:50:31  5-MIN K12N 030150Z AUTO VRB05KT 08/M01 A2937 1100 51 600 VRB/05 RMK AO1 SLP948 T00831011
54779K12N 12N20160402205510004/02/16 20:55:31  5-MIN K12N 030155Z AUTO 00000KT 09/M03 A2936 1100 42 700 000/00 RMK AO1 T00941028
54779K12N 12N20160402210009004/02/16 21:00:31  5-MIN K12N 030200Z AUTO 10/M04 A2936 1110 37 800 M /M RMK AO1 T01001039
54779K12N 12N20160402210510004/02/16 21:05:31  5-MIN K12N 030205Z AUTO VRB06KT 10/M03 A2936 1110 39 800 VRB/06 RMK AO1 T01001033
54779K12N 12N20160402211010004/02/16 21:10:31  5-MIN K12N 030210Z AUTO 33004KT 10/M03 A2935 1120 39 800 350/04 RMK AO1 T01001033
54779K12N 12N20160402211510004/02/16 21:15:31  5-MIN K12N 030215Z AUTO VRB04KT 10/M03 A2935 1120 39 800 VRB/04 RMK AO1 T01001033
54779K12N 12N20160402212010004/02/16 21:20:31  5-MIN K12N 030220Z AUTO VRB03KT 10/M03 A2934 1120 39 800 VRB/03 RMK AO1 T01001033
54779K12N 12N20160402212510004/02/16 21:25:31  5-MIN K12N 030225Z AUTO 00000KT 10/M03 A2934 1130 39 800 000/00 RMK AO1 T01001033
54779K12N 12N20160402213010004/02/16 21:30:31  5-MIN K12N 030230Z AUTO 00000KT 10/M03 A2933 1130 39 800 000/00 RMK AO1 T01001033
54779K12N 12N20160402213510704/02/16 21:35:31  5-MIN K12N 030235Z AUTO 00000KT 10/M03 A2933 1140 39 800 000/00 RMK AO1 PRESFR T01001033
54779K12N 12N20160402214010704/02/16 21:40:31  5-MIN K12N 030240Z AUTO 00000KT 09/M03 A2932 1140 40 800 000/00 RMK AO1 PRESFR T00941033
54779K12N 12N20160402214510004/02/16 21:45:31  5-MIN K12N 030245Z AUTO 00000KT 09/M03 A2932 1150 43 700 000/00 RMK AO1 T00891028
54779K12N 12N20160402215011304/02/16 21:50:31  5-MIN K12N 030250Z AUTO 00000KT 08/M01 A2931 1150 53 600 000/00 RMK AO1 SLP929 T00781011 55004
54779K12N 12N20160402215510004/02/16 21:55:31  5-MIN K12N 030255Z AUTO 00000KT 07/M01 A2931 1160 55 500 000/00 RMK AO1 T00721011
54779K12N 12N20160402220010004/02/16 22:00:31  5-MIN K12N 030300Z AUTO 03003KT 07/M01 A2930 1160 57 500 040/03 RMK AO1 T00721006
54779K12N 12N20160402220510004/02/16 22:05:31  5-MIN K12N 030305Z AUTO VRB05KT 08/M01 A2930 1170 53 600 VRB/05 RMK AO1 T00781011
54779K12N 12N20160402221010004/02/16 22:10:31  5-MIN K12N 030310Z AUTO 00000KT 08/M02 A2929 1170 49 700 000/00 RMK AO1 T00831017
54779K12N 12N20160402221510004/02/16 22:15:31  5-MIN K12N 030315Z AUTO 00000KT 08/M01 A2929 1170 53 600 000/00 RMK AO1 T00781011
54779K12N 12N20160402222010004/02/16 22:20:31  5-MIN K12N 030320Z AUTO 00000KT 08/M01 A2928 1180 53 600 000/00 RMK AO1 T00781011
54779K12N 12N20160402222510004/02/16 22:25:31  5-MIN K12N 030325Z AUTO 00000KT 08/M01 A2928 1180 55 600 000/00 RMK AO1 T00781006
54779K12N 12N20160402223009904/02/16 22:30:31  5-MIN K12N 030330Z AUTO 00000KT 07/00 A2928 1180 60 600 000/00 RMK AO1 T00720000
54779K12N 12N20160402223509904/02/16 22:35:31  5-MIN K12N 030335Z AUTO 00000KT 08/00 A2928 1180 58 600 000/00 RMK AO1 T00780000
54779K12N 12N20160402224009904/02/16 22:40:31  5-MIN K12N 030340Z AUTO 00000KT 08/01 A2927 1190 60 600 000/00 RMK AO1 T00780006
54779K12N 12N20160402224509904/02/16 22:45:31  5-MIN K12N 030345Z AUTO 36003KT 07/01 A2927 1190 62 600 020/03 RMK AO1 T00720006
54779K12N 12N20160402225010604/02/16 22:50:31  5-MIN K12N 030350Z AUTO 36007KT 08/01 A2927 1190 60 600 010/07 RMK AO1 SLP915 T00780006
54779K12N 12N20160402225509904/02/16 22:55:31  5-MIN K12N 030355Z AUTO 35007KT 08/01 A2927 1190 60 600 360/07 RMK AO1 T00780006
54779K12N 12N20160402230009904/02/16 23:00:31  5-MIN K12N 030400Z AUTO VRB06KT 08/01 A2927 1190 60 600 VRB/06 RMK AO1 T00780006
54779K12N 12N20160402230509904/02/16 23:05:31  5-MIN K12N 030405Z AUTO 34008KT 08/01 A2929 1180 60 600 350/08 RMK AO1 T00780006
54779K12N 12N20160402231010604/02/16 23:10:31  5-MIN K12N 030410Z AUTO 34006KT 07/01 A2930 1170 62 500 350/06 RMK AO1 PRESRR T00720006
54779K12N 12N20160402231510504/02/16 23:15:31  5-MIN K12N 030415Z AUTO 01011G17KT 07/01 A2930 1160 65 500 020/11G17 RMK AO1 T00720011
54779K12N 12N20160402232010504/02/16 23:20:31  5-MIN K12N 030420Z AUTO 34006G17KT 07/02 A2931 1160 68 500 350/06G17 RMK AO1 T00720017
54779K12N 12N20160402232510604/02/16 23:25:31  5-MIN K12N 030425Z AUTO VRB05KT 07/02 A2932 1150 70 500 VRB/05 RMK AO1 PRESRR T00670017
54779K12N 12N20160402233012704/02/16 23:30:31  5-MIN K12N 030430Z AUTO 32009G17KT 270V360 07/02 A2932 1150 70 500 330/09G17 280V010 RMK AO1 P0001 T00670017
54779K12N 12N20160402233511104/02/16 23:35:31  5-MIN K12N 030435Z AUTO VRB06G17KT 06/02 A2932 1150 79 300 VRB/06G17 RMK AO1 P0001 T00560022
54779K12N 12N20160402234010504/02/16 23:40:31  5-MIN K12N 030440Z AUTO VRB06KT 05/02 A2932 1150 82 300 VRB/06 RMK AO1 P0002 T00500022
54779K12N 12N20160402234510504/02/16 23:45:31  5-MIN K12N 030445Z AUTO VRB06KT 04/02 A2932 1140 85 200 VRB/06 RMK AO1 P0004 T00440022
54779K12N 12N20160402235013804/02/16 23:50:31  5-MIN K12N 030450Z AUTO 34007KT 310V020 04/02 A2933 1140 82 200 350/07 320V030 RMK AO1 SLP934 P0004 T00440017 401330044
54779K12N 12N20160402235509904/02/16 23:55:31  5-MIN K12N 030455Z AUTO VRB06KT 04/02 A2933 1140 82 200 VRB/06 RMK AO1 T00440017
54779K12N 12N20160403000011504/03/16 00:00:31  5-MIN K12N 030500Z AUTO 35007KT 320V020 04/02 A2933 1130 85 100 010/07 330V030 RMK AO1 T00390017
54779K12N 12N20160403000510504/03/16 00:05:31  5-MIN K12N 030505Z AUTO 36004KT 04/02 A2933 1130 85 100 010/04 RMK AO1 P0001 T00390017
54779K12N 12N20160403001010504/03/16 00:10:31  5-MIN K12N 030510Z AUTO VRB05KT 04/02 A2933 1130 85 100 VRB/05 RMK AO1 P0001 T00390017
54779K12N 12N20160403001510504/03/16 00:15:31  5-MIN K12N 030515Z AUTO VRB03KT 04/02 A2932 1140 85 100 VRB/03 RMK AO1 P0001 T00390017
54779K12N 12N20160403002011204/03/16 00:20:31  5-MIN K12N 030520Z AUTO VRB04KT 04/02 A2930 1160 89 100 VRB/04 RMK AO1 PRESFR P0001 T00390022
54779K12N 12N20160403002510504/03/16 00:25:31  5-MIN K12N 030525Z AUTO 00000KT 04/02 A2931 1150 85 100 000/00 RMK AO1 P0001 T00390017
54779K12N 12N20160403003010504/03/16 00:30:31  5-MIN K12N 030530Z AUTO VRB03KT 04/02 A2932 1140 89 100 VRB/03 RMK AO1 P0001 T00390022
54779K12N 12N20160403003510504/03/16 00:35:31  5-MIN K12N 030535Z AUTO VRB03KT 04/02 A2932 1150 89 100 VRB/03 RMK AO1 P0001 T00390022
54779K12N 12N20160403004010504/03/16 00:40:31  5-MIN K12N 030540Z AUTO 00000KT 04/02 A2931 1150 89 100 000/00 RMK AO1 P0001 T00390022
54779K12N 12N20160403004510504/03/16 00:45:31  5-MIN K12N 030545Z AUTO 00000KT 04/02 A2931 1150 89 100 000/00 RMK AO1 P0001 T00390022
54779K12N 12N20160403005013604/03/16 00:50:31  5-MIN K12N 030550Z AUTO VRB03KT 04/02 A2931 1160 85 100 VRB/03 RMK AO1 SLP928 P0001 60005 T00390017 10111 20039 58008
54779K12N 12N20160403005509904/03/16 00:55:31  5-MIN K12N 030555Z AUTO VRB04KT 04/02 A2931 1150 85 100 VRB/04 RMK AO1 T00390017
54779K12N 12N20160403010009904/03/16 01:00:31  5-MIN K12N 030600Z AUTO VRB04KT 04/02 A2931 1150 85 100 VRB/04 RMK AO1 T00390017
54779K12N 12N20160403010509904/03/16 01:05:31  5-MIN K12N 030605Z AUTO 22006KT 04/02 A2932 1150 85 100 230/06 RMK AO1 T00390017
54779K12N 12N20160403011009904/03/16 01:10:31  5-MIN K12N 030610Z AUTO VRB05KT 04/02 A2931 1150 89 100 VRB/05 RMK AO1 T00390022
54779K12N 12N20160403011509904/03/16 01:15:31  5-MIN K12N 030615Z AUTO VRB06KT 04/02 A2931 1150 85 100 VRB/06 RMK AO1 T00390017
54779K12N 12N20160403012009904/03/16 01:20:31  5-MIN K12N 030620Z AUTO VRB06KT 04/02 A2931 1160 85 100 VRB/06 RMK AO1 T00390017
54779K12N 12N20160403012511504/03/16 01:25:31  5-MIN K12N 030625Z AUTO 24007KT 210V270 04/01 A2930 1170 82 100 250/07 220V280 RMK AO1 T00390011
54779K12N 12N20160403013010604/03/16 01:30:31  5-MIN K12N 030630Z AUTO VRB03KT 03/01 A2929 1170 85 100 VRB/03 RMK AO1 PRESFR T00330011
54779K12N 12N20160403013511504/03/16 01:35:31  5-MIN K12N 030635Z AUTO 23007KT 210V280 03/01 A2929 1170 82 100 240/07 220V290 RMK AO1 T00330006
54779K12N 12N20160403014009904/03/16 01:40:31  5-MIN K12N 030640Z AUTO VRB05KT 03/01 A2929 1180 82 100 VRB/05 RMK AO1 T00330006
54779K12N 12N20160403014509904/03/16 01:45:31  5-MIN K12N 030645Z AUTO VRB04KT 03/01 A2928 1190 82 100 VRB/04 RMK AO1 T00330006
54779K12N 12N20160403015010604/03/16 01:50:31  5-MIN K12N 030650Z AUTO VRB03KT 03/00 A2928 1190 79 100 VRB/03 RMK AO1 SLP917 T00330000
54779K12N 12N20160403015509904/03/16 01:55:31  5-MIN K12N 030655Z AUTO 22005KT 03/00 A2928 1180 79 100 230/05 RMK AO1 T00330000
54779K12N 12N20160403020012204/03/16 02:00:31  5-MIN K12N 030700Z AUTO 24009G16KT 190V290 03/M01 A2928 1180 76 100 260/09G16 200V300 RMK AO1 T00331006
54779K12N 12N20160403020512204/03/16 02:05:31  5-MIN K12N 030705Z AUTO 24008G17KT 200V290 03/M01 A2929 1180 76 100 250/08G17 210V300 RMK AO1 T00331006
54779K12N 12N20160403021010604/03/16 02:10:31  5-MIN K12N 030710Z AUTO VRB06G17KT 03/M01 A2929 1170 76 100 VRB/06G17 RMK AO1 T00331006
54779K12N 12N20160403021511604/03/16 02:15:31  5-MIN K12N 030715Z AUTO 23007KT 150V270 03/M01 A2929 1170 72 100 240/07 160V280 RMK AO1 T00331011
54779K12N 12N20160403022010004/03/16 02:20:31  5-MIN K12N 030720Z AUTO VRB05KT 03/M01 A2929 1180 72 100 VRB/05 RMK AO1 T00331011
54779K12N 12N20160403022510604/03/16 02:25:31  5-MIN K12N 030725Z AUTO 23009G17KT 03/M02 A2929 1180 70 100 240/09G17 RMK AO1 T00331017
54779K12N 12N20160403023012204/03/16 02:30:31  5-MIN K12N 030730Z AUTO 23007G17KT 190V270 03/M02 A2929 1180 70 100 240/07G17 200V280 RMK AO1 T00331017
54779K12N 12N20160403023510604/03/16 02:35:31  5-MIN K12N 030735Z AUTO 22009G17KT 03/M02 A2928 1180 70 100 230/09G17 RMK AO1 T00331017
54779K12N 12N20160403024012204/03/16 02:40:31  5-MIN K12N 030740Z AUTO 24007G17KT 200V300 03/M02 A2929 1180 70 100 250/07G17 210V310 RMK AO1 T00331017
54779K12N 12N20160403024510604/03/16 02:45:31  5-MIN K12N 030745Z AUTO VRB05G17KT 03/M02 A2929 1180 70 100 VRB/05G17 RMK AO1 T00331017
54779K12N 12N20160403025011304/03/16 02:50:31  5-MIN K12N 030750Z AUTO VRB06G14KT 03/M02 A2929 1180 70 100 VRB/06G14 RMK AO1 SLP921 T00331017
54779K12N 12N20160403025511404/03/16 02:55:31  5-MIN K12N 030755Z AUTO 23008KT 180V280 03/M02 A2929 1180 72 0 250/08 190V290 RMK AO1 T00281017
54779K12N 12N20160403030011404/03/16 03:00:31  5-MIN K12N 030800Z AUTO 24008KT 220V280 03/M02 A2929 1180 72 0 250/08 230V290 RMK AO1 T00281017
54779K12N 12N20160403030509804/03/16 03:05:31  5-MIN K12N 030805Z AUTO VRB06KT 03/M02 A2929 1170 72 0 VRB/06 RMK AO1 T00281017
54779K12N 12N20160403031009804/03/16 03:10:31  5-MIN K12N 030810Z AUTO 24009KT 03/M02 A2930 1170 72 0 250/09 RMK AO1 T00281017
54779K12N 12N20160403031512004/03/16 03:15:31  5-MIN K12N 030815Z AUTO 24008G15KT 210V280 03/M01 A2931 1160 75 0 250/08G15 220V290 RMK AO1 T00281011
54779K12N 12N20160403032011104/03/16 03:20:31  5-MIN K12N 030820Z AUTO VRB06G15KT 02/M01 A2932 1150 78 0 VRB/06G15 RMK AO1 PRESRR T00221011
54779K12N 12N20160403032511404/03/16 03:25:31  5-MIN K12N 030825Z AUTO 30014G22KT 02/M01 A2933 1130 85 -100 310/14G22 RMK AO1 PRESRR T00171006
54779K12N 12N20160403033012904/03/16 03:30:31  5-MIN K12N 030830Z AUTO 32007G22KT 250V070 01/M01 A2934 1130 89 -200 330/07G22 260V080 RMK AO1 P0001 T00111006
54779K12N 12N20160403033513604/03/16 03:35:31  5-MIN K12N 030835Z AUTO 34010G19KT 300V010 01/M01 A2935 1120 85 -200 360/10G19 310V020 RMK AO1 PRESRR P0001 T00111011
54779K12N 12N20160403034013604/03/16 03:40:31  5-MIN K12N 030840Z AUTO 31010G20KT 280V350 01/M01 A2936 1110 85 -200 330/10G20 290V360 RMK AO1 PRESRR P0001 T00111011
54779K12N 12N20160403034512004/03/16 03:45:31  5-MIN K12N 030845Z AUTO 32014G24KT 01/M01 A2937 1100 85 -200 330/14G24 RMK AO1 PRESRR P0001 T00111011
54779K12N 12N20160403035013904/03/16 03:50:31  5-MIN K12N 030850Z AUTO 30015G25KT 01/M01 A2938 1090 85 -200 310/15G25 RMK AO1 PRESRR SLP953 P0002 60002 T00111011 53001
54779K12N 12N20160403035513004/03/16 03:55:31  5-MIN K12N 030855Z AUTO 31013G25KT 290V350 01/M02 A2939 1080 82 -300 330/13G25 300V360 RMK AO1 PRESRR T00061022
54779K12N 12N20160403040013004/03/16 04:00:31  5-MIN K12N 030900Z AUTO 33010G23KT 290V010 01/M03 A2940 1070 75 -300 340/10G23 300V020 RMK AO1 PRESRR T00111028
54779K12N 12N20160403040511404/03/16 04:05:31  5-MIN K12N 030905Z AUTO 32012G22KT 01/M03 A2940 1070 72 -300 330/12G22 RMK AO1 PRESRR T00111033
54779K12N 12N20160403041013004/03/16 04:10:31  5-MIN K12N 030910Z AUTO 32013G23KT 290V360 01/M04 A2941 1060 69 -300 330/13G23 300V010 RMK AO1 PRESRR T00111039
54779K12N 12N20160403041513004/03/16 04:15:31  5-MIN K12N 030915Z AUTO 30011G25KT 260V350 01/M04 A2942 1060 66 -300 310/11G25 270V360 RMK AO1 PRESRR T00111044
54779K12N 12N20160403042013004/03/16 04:20:31  5-MIN K12N 030920Z AUTO 32008G25KT 230V360 01/M04 A2943 1040 69 -300 340/08G25 240V010 RMK AO1 PRESRR T00111039
54779K12N 12N20160403042509804/03/16 04:25:31  5-MIN K12N 030925Z AUTO 01/M04 A2944 1030 69 -300 M /M RMK AO1 PRESRR T00111039
54779K12N 12N20160403043010804/03/16 04:30:31  5-MIN K12N 030930Z AUTO VRB05KT 01/M04 A2944 1030 69 -300 VRB/05 RMK AO1 PRESRR T00111039
54779K12N 12N20160403043509804/03/16 04:35:31  5-MIN K12N 030935Z AUTO 01/M04 A2946 1020 69 -300 M /M RMK AO1 PRESRR T00111039
54779K12N 12N20160403044013004/03/16 04:40:31  5-MIN K12N 030940Z AUTO 32012G21KT 250V030 01/M05 A2947 1010 64 -400 340/12G21 260V040 RMK AO1 PRESRR T00111050
54779K12N 12N20160403044514804/03/16 04:45:31  5-MIN K12N 030945Z AUTO 33012G28KT 270V010 01/M06 A2947 1000 61 -400 340/12G28 280V020 RMK AO1 PK WND 29028/0941 PRESRR T00111056
54779K12N 12N20160403045015404/03/16 04:50:31  5-MIN K12N 030950Z AUTO 32011G28KT 250V150 01/M06 A2948 990 61 -400 330/11G28 260V160 RMK AO1 PK WND 29028/0941 PRESRR SLP988 T00111056
54779K12N 12N20160403045512904/03/16 04:55:31  5-MIN K12N 030955Z AUTO 30015G29KT 240V330 01/M06 A2949 980 58 -400 310/15G29 250V340 RMK AO1 PRESRR T00111061
54779K12N 12N20160403050009704/03/16 05:00:31  5-MIN K12N 031000Z AUTO 01/M06 A2950 970 61 -500 M /M RMK AO1 PRESRR T00061061
54779K12N 12N20160403050512904/03/16 05:05:31  5-MIN K12N 031005Z AUTO 31009G17KT 290V360 01/M06 A2952 960 61 -500 330/09G17 300V010 RMK AO1 PRESRR T00061061
54779K12N 12N20160403051014704/03/16 05:10:31  5-MIN K12N 031010Z AUTO 27012G29KT 210V330 00/M04 A2953 950 72 -600 280/12G29 220V340 RMK AO1 PK WND 25029/1009 PRESRR T00001044
54779K12N 12N20160403051514704/03/16 05:15:31  5-MIN K12N 031015Z AUTO 30018G29KT 260V330 00/M05 A2954 940 69 -600 310/18G29 270V340 RMK AO1 PK WND 29029/1015 PRESRR T00001050
54779K12N 12N20160403052014004/03/16 05:20:31  5-MIN K12N 031020Z AUTO 30011G29KT 230V330 00/M06 A2954 940 63 -600 310/11G29 240V340 RMK AO1 PK WND 29029/1015 T00001061
54779K12N 12N20160403052512404/03/16 05:25:31  5-MIN K12N 031025Z AUTO VRB05G28KT 00/M07 A2955 930 58 -600 VRB/05G28 RMK AO1 PK WND 29029/1015 T00001072
54779K12N 12N20160403053011504/03/16 05:30:31  5-MIN K12N 031030Z AUTO 00/M08 A2956 920 56 -600 M /M RMK AO1 PK WND 29029/1015 PRESRR T00001078
54779K12N 12N20160403053514004/03/16 05:35:31  5-MIN K12N 031035Z AUTO 33010G20KT 290V010 00/M08 A2956 920 56 -600 340/10G20 300V020 RMK AO1 PK WND 29029/1015 T00001078
54779K12N 12N20160403054014004/03/16 05:40:31  5-MIN K12N 031040Z AUTO 32012G28KT 290V360 00/M08 A2957 910 56 -600 330/12G28 300V010 RMK AO1 PK WND 29029/1015 T00001078
54779K12N 12N20160403054514004/03/16 05:45:31  5-MIN K12N 031045Z AUTO 33016G28KT 300V020 00/M08 A2957 910 53 -600 350/16G28 310V030 RMK AO1 PK WND 29029/1015 T00001083
54779K12N 12N20160403055014804/03/16 05:50:31  5-MIN K12N 031050Z AUTO 33011G28KT 280V010 M01/M08 A2958 900 56 -700 350/11G28 290V020 RMK AO1 PK WND 29029/1015 SLP021 T10061083
54779K12N 12N20160403055511404/03/16 05:55:31  5-MIN K12N 031055Z AUTO 36015G23KT M01/M08 A2959 900 56 -700 010/15G23 RMK AO1 PRESRR T10061083
54779K12N 12N20160403060010704/03/16 06:00:31  5-MIN K12N 031100Z AUTO VRB06G23KT M01/M08 A2959 890 58 -700 VRB/06G23 RMK AO1 T10061078
54779K12N 12N20160403060513004/03/16 06:05:31  5-MIN K12N 031105Z AUTO 30010G22KT 260V340 M01/M06 A2960 880 69 -800 310/10G22 270V350 RMK AO1 PRESRR T10111061
54779K12N 12N20160403061012304/03/16 06:10:31  5-MIN K12N 031110Z AUTO 33009G18KT 270V030 M01/M07 A2960 880 63 -800 350/09G18 280V040 RMK AO1 T10111072
54779K12N 12N20160403061512304/03/16 06:15:31  5-MIN K12N 031115Z AUTO 32011G22KT 290V030 M01/M08 A2961 880 56 -700 330/11G22 300V040 RMK AO1 T10061083
54779K12N 12N20160403062012304/03/16 06:20:31  5-MIN K12N 031120Z AUTO 29010G22KT 240V360 M01/M08 A2961 870 56 -700 300/10G22 250V010 RMK AO1 T10061083
54779K12N 12N20160403062512304/03/16 06:25:31  5-MIN K12N 031125Z AUTO 29013G23KT 240V360 M01/M08 A2962 870 56 -700 300/13G23 250V010 RMK AO1 T10061083
54779K12N 12N20160403063014804/03/16 06:30:31  5-MIN K12N 031130Z AUTO 32013G30KT 290V010 M01/M09 A2962 860 53 -800 340/13G30 300V020 RMK AO1 PK WND 30030/1128 PRESRR T10111094
54779K12N 12N20160403063514804/03/16 06:35:31  5-MIN K12N 031135Z AUTO 34011G30KT 300V020 M01/M10 A2963 850 51 -800 350/11G30 310V030 RMK AO1 PK WND 30030/1128 PRESRR T10111100
54779K12N 12N20160403064014104/03/16 06:40:31  5-MIN K12N 031140Z AUTO 29012G29KT 190V330 M01/M10 A2964 850 51 -800 300/12G29 200V340 RMK AO1 PK WND 30030/1128 T10111100
54779K12N 12N20160403064514804/03/16 06:45:31  5-MIN K12N 031145Z AUTO 32012G25KT 290V010 M01/M11 A2964 840 49 -800 340/12G25 300V020 RMK AO1 PK WND 30030/1128 PRESRR T10111106
54779K12N 12N20160403065016904/03/16 06:50:31  5-MIN K12N 031150Z AUTO 32012G25KT M01/M10 A2965 830 51 -800 330/12G25 RMK AO1 PK WND 30030/1128 PRESRR SLP047 60002 70016 T10111100 10039 21011 53025
54779K12N 12N20160403065511404/03/16 06:55:31  5-MIN K12N 031155Z AUTO 31015G24KT M01/M11 A2966 830 49 -900 330/15G24 RMK AO1 PRESRR T10111106
54779K12N 12N20160403070011404/03/16 07:00:31  5-MIN K12N 031200Z AUTO VRB06G24KT M01/M11 A2967 820 47 -800 VRB/06G24 RMK AO1 PRESRR T10061106
54779K12N 12N20160403070509104/03/16 07:05:31  5-MIN K12N 031205Z AUTO M01/M11 A2967 820 47 -900 M /M RMK AO1 T10111111
54779K12N 12N20160403071012304/03/16 07:10:31  5-MIN K12N 031210Z AUTO 35010G21KT 320V020 M01/M12 A2967 810 45 -900 360/10G21 330V030 RMK AO1 T10111117
54779K12N 12N20160403071512304/03/16 07:15:31  5-MIN K12N 031215Z AUTO 34007G21KT 280V030 M01/M12 A2968 810 45 -900 350/07G21 290V040 RMK AO1 T10111117
54779K12N 12N20160403072012304/03/16 07:20:31  5-MIN K12N 031220Z AUTO 34009G19KT 290V030 M01/M11 A2968 800 45 -800 350/09G19 300V040 RMK AO1 T10061111
54779K12N 12N20160403072509104/03/16 07:25:31  5-MIN K12N 031225Z AUTO M01/M11 A2969 800 45 -800 M /M RMK AO1 T10061111
54779K12N 12N20160403073010704/03/16 07:30:31  5-MIN K12N 031230Z AUTO 31012G21KT M01/M11 A2969 800 47 -800 320/12G21 RMK AO1 T10061106
54779K12N 12N20160403073512304/03/16 07:35:31  5-MIN K12N 031235Z AUTO 32008G21KT 280V350 M01/M11 A2970 790 49 -900 330/08G21 290V360 RMK AO1 T10111106
54779K12N 12N20160403074013004/03/16 07:40:31  5-MIN K12N 031240Z AUTO 32008G19KT 260V020 M01/M11 A2971 780 47 -800 330/08G19 270V030 RMK AO1 PRESRR T10061106
54779K12N 12N20160403074512304/03/16 07:45:31  5-MIN K12N 031245Z AUTO 32010G22KT 290V010 M01/M12 A2971 780 45 -900 340/10G22 300V020 RMK AO1 T10111117
54779K12N 12N20160403075013004/03/16 07:50:31  5-MIN K12N 031250Z AUTO 32013G24KT 280V020 M01/M12 A2971 780 45 -900 330/13G24 290V030 RMK AO1 SLP067 T10111117
54779K12N 12N20160403075512304/03/16 07:55:31  5-MIN K12N 031255Z AUTO 32007G24KT 270V360 M01/M12 A2971 780 43 -900 330/07G24 280V010 RMK AO1 T10111122
54779K12N 12N20160403080014104/03/16 08:00:31  5-MIN K12N 031300Z AUTO 32019G31KT 280V360 M01/M13 A2971 780 41 -900 330/19G31 290V010 RMK AO1 PK WND 28031/1259 T10111128
54779K12N 12N20160403080514104/03/16 08:05:31  5-MIN K12N 031305Z AUTO 33016G31KT 280V020 M01/M13 A2971 780 41 -900 350/16G31 290V030 RMK AO1 PK WND 35031/1305 T10111128
54779K12N 12N20160403081014104/03/16 08:10:31  5-MIN K12N 031310Z AUTO 31013G31KT 270V350 M01/M13 A2971 780 41 -900 330/13G31 280V360 RMK AO1 PK WND 35031/1305 T10111128
54779K12N 12N20160403081512504/03/16 08:15:31  5-MIN K12N 031315Z AUTO VRB06G25KT M01/M12 A2972 770 43 -900 VRB/06G25 RMK AO1 PK WND 35031/1305 T10111122
54779K12N 12N20160403082014104/03/16 08:20:31  5-MIN K12N 031320Z AUTO 32010G25KT 250V010 M01/M12 A2972 770 43 -900 340/10G25 260V020 RMK AO1 PK WND 35031/1305 T10111122
54779K12N 12N20160403082514104/03/16 08:25:31  5-MIN K12N 031325Z AUTO 32009G22KT 280V360 M01/M12 A2973 770 43 -900 330/09G22 290V010 RMK AO1 PK WND 35031/1305 T10061117
54779K12N 12N20160403083010904/03/16 08:30:31  5-MIN K12N 031330Z AUTO M01/M12 A2973 760 43 -900 M /M RMK AO1 PK WND 35031/1305 T10061117
54779K12N 12N20160403083514804/03/16 08:35:31  5-MIN K12N 031335Z AUTO 33010G22KT 280V050 M01/M12 A2974 750 43 -900 340/10G22 290V060 RMK AO1 PK WND 35031/1305 PRESRR T10061117
54779K12N 12N20160403084014204/03/16 08:40:31  5-MIN K12N 031340Z AUTO 31012G22KT 260V360 M01/M12 A2974 750 43 -1000 320/12G22 270V010 RMK AO1 PK WND 35031/1305 T10111122
54779K12N 12N20160403084514204/03/16 08:45:31  5-MIN K12N 031345Z AUTO 33011G29KT 270V360 M01/M13 A2975 750 41 -1000 340/11G29 280V010 RMK AO1 PK WND 35031/1305 T10111128
54779K12N 12N20160403085014804/03/16 08:50:31  5-MIN K12N 031350Z AUTO 32007G29KT 260V010 M01/M12 A2975 750 43 -900 330/07G29 270V020 RMK AO1 PK WND 35031/1305 SLP080 T10061117
54779K12N 12N20160403085510804/03/16 08:55:31  5-MIN K12N 031355Z AUTO 30017G27KT M01/M12 A2975 740 43 -1000 310/17G27 RMK AO1 T10111122
54779K12N 12N20160403090012404/03/16 09:00:31  5-MIN K12N 031400Z AUTO 34009G27KT 280V020 M02/M13 A2976 740 42 -1000 350/09G27 290V030 RMK AO1 T10171128
54779K12N 12N20160403090512304/03/16 09:05:31  5-MIN K12N 031405Z AUTO 31010G21KT 280V340 M01/M12 A2976 730 41 -900 320/10G21 290V350 RMK AO1 T10061122
54779K12N 12N20160403091012304/03/16 09:10:31  5-MIN K12N 031410Z AUTO 32012G22KT 260V040 M01/M13 A2976 730 39 -900 330/12G22 270V050 RMK AO1 T10061128
54779K12N 12N20160403091514104/03/16 09:15:31  5-MIN K12N 031415Z AUTO 34015G32KT 290V010 M01/M13 A2976 730 37 -900 350/15G32 300V020 RMK AO1 PK WND 33032/1412 T10061133
54779K12N 12N20160403092014104/03/16 09:20:31  5-MIN K12N 031420Z AUTO 31013G32KT 280V360 M01/M13 A2977 730 37 -900 330/13G32 290V010 RMK AO1 PK WND 33032/1412 T10061133
54779K12N 12N20160403092514104/03/16 09:25:31  5-MIN K12N 031425Z AUTO 31012G27KT 280V340 M01/M13 A2977 720 37 -900 320/12G27 290V350 RMK AO1 PK WND 33032/1412 T10061133
54779K12N 12N20160403093014104/03/16 09:30:31  5-MIN K12N 031430Z AUTO 30018G30KT 250V010 M01/M13 A2978 720 37 -900 310/18G30 260V020 RMK AO1 PK WND 33032/1412 T10061133
54779K12N 12N20160403093514104/03/16 09:35:31  5-MIN K12N 031435Z AUTO 30013G30KT 270V330 M01/M14 A2978 720 36 -900 310/13G30 280V340 RMK AO1 PK WND 33032/1412 T10061139
54779K12N 12N20160403094014104/03/16 09:40:31  5-MIN K12N 031440Z AUTO 34011G29KT 300V040 M01/M13 A2978 710 39 -900 360/11G29 310V050 RMK AO1 PK WND 33032/1412 T10061128
54779K12N 12N20160403094514004/03/16 09:45:31  5-MIN K12N 031445Z AUTO 30012G26KT 260V330 00/M13 A2978 710 38 -900 320/12G26 270V340 RMK AO1 PK WND 33032/1412 T00001128
54779K12N 12N20160403095015404/03/16 09:50:31  5-MIN K12N 031450Z AUTO 31013G26KT 280V350 M01/M13 A2979 710 37 -900 320/13G26 290V360 RMK AO1 PK WND 33032/1412 SLP093 T10061133 51091
54779K12N 12N20160403095512204/03/16 09:55:31  5-MIN K12N 031455Z AUTO 31010G21KT 280V360 00/M13 A2979 710 38 -900 330/10G21 290V010 RMK AO1 T00001128
54779K12N 12N20160403100012204/03/16 10:00:31  5-MIN K12N 031500Z AUTO 32011G21KT 240V040 00/M13 A2979 710 38 -900 330/11G21 250V050 RMK AO1 T00001128
54779K12N 12N20160403100512404/03/16 10:05:31  5-MIN K12N 031505Z AUTO VRB06G28KT 00/M13 A2979 710 38 -900 VRB/06G28 RMK AO1 PK WND 30028/1501 T00001128
54779K12N 12N20160403101014004/03/16 10:10:31  5-MIN K12N 031510Z AUTO 34010G28KT 270V360 00/M13 A2979 700 36 -900 350/10G28 280V010 RMK AO1 PK WND 30028/1501 T00001133
54779K12N 12N20160403101514004/03/16 10:15:31  5-MIN K12N 031515Z AUTO 35013G26KT 300V030 01/M13 A2979 700 36 -800 360/13G26 310V040 RMK AO1 PK WND 30028/1501 T00061128
54779K12N 12N20160403102014004/03/16 10:20:31  5-MIN K12N 031520Z AUTO 33008G22KT 270V040 00/M13 A2980 700 38 -900 340/08G22 280V050 RMK AO1 PK WND 30028/1501 T00001128
54779K12N 12N20160403102514004/03/16 10:25:31  5-MIN K12N 031525Z AUTO 32011G24KT 250V360 00/M13 A2980 700 36 -900 330/11G24 260V010 RMK AO1 PK WND 30028/1501 T00001133
54779K12N 12N20160403103014004/03/16 10:30:31  5-MIN K12N 031530Z AUTO 33014G24KT 290V010 00/M14 A2980 690 34 -900 340/14G24 300V020 RMK AO1 PK WND 30028/1501 T00001139
54779K12N 12N20160403103514004/03/16 10:35:31  5-MIN K12N 031535Z AUTO 33009G25KT 280V030 00/M14 A2980 700 34 -900 340/09G25 290V040 RMK AO1 PK WND 30028/1501 T00001139
54779K12N 12N20160403104014004/03/16 10:40:31  5-MIN K12N 031540Z AUTO 35009G25KT 290V080 01/M13 A2981 690 35 -800 010/09G25 300V090 RMK AO1 PK WND 30028/1501 T00061133
54779K12N 12N20160403104514004/03/16 10:45:31  5-MIN K12N 031545Z AUTO 29008G23KT 240V360 01/M13 A2981 690 35 -800 300/08G23 250V010 RMK AO1 PK WND 30028/1501 T00061133
54779K12N 12N20160403105014704/03/16 10:50:31  5-MIN K12N 031550Z AUTO 30016G25KT 260V010 01/M13 A2982 680 35 -800 310/16G25 270V020 RMK AO1 PK WND 30028/1501 SLP105 T00061133
54779K12N 12N20160403105512204/03/16 10:55:31  5-MIN K12N 031555Z AUTO 30013G29KT 270V340 00/M14 A2982 680 34 -900 310/13G29 280V350 RMK AO1 T00001139
54779K12N 12N20160403110012204/03/16 11:00:31  5-MIN K12N 031600Z AUTO 32011G29KT 280V030 01/M14 A2983 670 33 -800 330/11G29 290V040 RMK AO1 T00061139
54779K12N 12N20160403110512204/03/16 11:05:31  5-MIN K12N 031605Z AUTO 27011G21KT 230V340 01/M14 A2983 670 33 -800 280/11G21 240V350 RMK AO1 T00061139
54779K12N 12N20160403111014004/03/16 11:10:31  5-MIN K12N 031610Z AUTO 30015G28KT 250V330 00/M14 A2982 680 33 -900 320/15G28 260V340 RMK AO1 PK WND 31028/1610 T00001144
54779K12N 12N20160403111514004/03/16 11:15:31  5-MIN K12N 031615Z AUTO 33009G28KT 280V050 01/M15 A2982 680 30 -800 350/09G28 290V060 RMK AO1 PK WND 31028/1610 T00061150
54779K12N 12N20160403112014004/03/16 11:20:31  5-MIN K12N 031620Z AUTO 30010G27KT 250V010 01/M14 A2982 680 32 -800 320/10G27 260V020 RMK AO1 PK WND 31028/1610 T00061144
54779K12N 12N20160403112514004/03/16 11:25:31  5-MIN K12N 031625Z AUTO 30014G29KT 240V340 01/M15 A2982 680 30 -800 310/14G29 250V350 RMK AO1 PK WND 31029/1624 T00061150
54779K12N 12N20160403113014004/03/16 11:30:31  5-MIN K12N 031630Z AUTO 31009G30KT 210V350 01/M15 A2982 680 30 -800 320/09G30 220V360 RMK AO1 PK WND 28030/1627 T00061150
54779K12N 12N20160403113514004/03/16 11:35:31  5-MIN K12N 031635Z AUTO 34011G30KT 270V080 01/M15 A2983 670 30 -800 360/11G30 280V090 RMK AO1 PK WND 28030/1627 T00061150
54779K12N 12N20160403114012404/03/16 11:40:31  5-MIN K12N 031640Z AUTO 36008G29KT 01/M14 A2983 670 32 -800 010/08G29 RMK AO1 PK WND 28030/1627 T00111139
54779K12N 12N20160403114514004/03/16 11:45:31  5-MIN K12N 031645Z AUTO 27008G18KT 190V350 01/M14 A2983 670 32 -800 280/08G18 200V360 RMK AO1 PK WND 28030/1627 T00111139
54779K12N 12N20160403115015404/03/16 11:50:31  5-MIN K12N 031650Z AUTO 32014G24KT 280V030 00/M16 A2984 660 30 -900 330/14G24 290V040 RMK AO1 PK WND 28030/1627 PRESRR SLP115 T00001156
54779K12N 12N20160403115510604/03/16 11:55:31  5-MIN K12N 031655Z AUTO 31012G24KT 00/M15 A2984 660 31 -900 320/12G24 RMK AO1 T00001150
54779K12N 12N20160403120012204/03/16 12:00:31  5-MIN K12N 031700Z AUTO 32016G24KT 300V360 01/M14 A2984 660 30 -800 330/16G24 310V010 RMK AO1 T00111144
54779K12N 12N20160403120514004/03/16 12:05:31  5-MIN K12N 031705Z AUTO 35010G35KT 310V030 01/M14 A2985 650 30 -800 360/10G35 320V040 RMK AO1 PK WND 29035/1701 T00111144
54779K12N 12N20160403121014004/03/16 12:10:31  5-MIN K12N 031710Z AUTO 31009G35KT 250V010 02/M14 A2985 650 30 -700 320/09G35 260V020 RMK AO1 PK WND 29035/1701 T00171139
54779K12N 12N20160403121514004/03/16 12:15:31  5-MIN K12N 031715Z AUTO 31010G24KT 270V340 01/M14 A2984 660 30 -800 320/10G24 280V350 RMK AO1 PK WND 29035/1701 T00111144
54779K12N 12N20160403122014004/03/16 12:20:31  5-MIN K12N 031720Z AUTO 28009G24KT 230V320 01/M13 A2985 650 33 -800 290/09G24 240V330 RMK AO1 PK WND 29035/1701 T00111133
54779K12N 12N20160403122514004/03/16 12:25:31  5-MIN K12N 031725Z AUTO 30012G25KT 270V340 02/M14 A2985 650 30 -700 310/12G25 280V350 RMK AO1 PK WND 29035/1701 T00171139
54779K12N 12N20160403123014004/03/16 12:30:31  5-MIN K12N 031730Z AUTO 31014G25KT 250V020 01/M15 A2986 640 29 -800 320/14G25 260V030 RMK AO1 PK WND 29035/1701 T00111150
54779K12N 12N20160403123514004/03/16 12:35:31  5-MIN K12N 031735Z AUTO 32008G25KT 280V010 01/M14 A2986 640 30 -800 330/08G25 290V020 RMK AO1 PK WND 29035/1701 T00111144
54779K12N 12N20160403124010804/03/16 12:40:31  5-MIN K12N 031740Z AUTO 01/M15 A2986 640 29 -800 M /M RMK AO1 PK WND 29035/1701 T00111150
54779K12N 12N20160403124512404/03/16 12:45:31  5-MIN K12N 031745Z AUTO 34014G22KT 02/M14 A2986 640 30 -700 350/14G22 RMK AO1 PK WND 29035/1701 T00171139
54779K12N 12N20160403125016504/03/16 12:50:31  5-MIN K12N 031750Z AUTO 29012G24KT 260V330 02/M15 A2986 640 28 -700 300/12G24 270V340 RMK AO1 PK WND 29035/1701 SLP119 T00171150 10017 21017 51043
54779K12N 12N20160403125512204/03/16 12:55:31  5-MIN K12N 031755Z AUTO 30013G24KT 270V350 02/M14 A2986 640 29 -700 320/13G24 280V360 RMK AO1 T00171144
54779K12N 12N20160403130012204/03/16 13:00:31  5-MIN K12N 031800Z AUTO 31012G20KT 280V360 01/M15 A2986 640 29 -800 320/12G20 290V010 RMK AO1 T00111150
54779K12N 12N20160403130514004/03/16 13:05:31  5-MIN K12N 031805Z AUTO 33017G26KT 280V030 01/M15 A2986 640 29 -800 340/17G26 290V040 RMK AO1 PK WND 29026/1805 T00111150
54779K12N 12N20160403131014004/03/16 13:10:31  5-MIN K12N 031810Z AUTO 35015G26KT 320V020 01/M15 A2986 640 29 -800 360/15G26 330V030 RMK AO1 PK WND 29026/1805 T00111150
54779K12N 12N20160403131514004/03/16 13:15:31  5-MIN K12N 031815Z AUTO 32011G25KT 270V360 02/M14 A2986 640 29 -700 330/11G25 280V010 RMK AO1 PK WND 29026/1805 T00171144
54779K12N 12N20160403132014004/03/16 13:20:31  5-MIN K12N 031820Z AUTO 31010G20KT 280V340 01/M14 A2986 640 30 -800 320/10G20 290V350 RMK AO1 PK WND 29026/1805 T00111144
54779K12N 12N20160403132514004/03/16 13:25:31  5-MIN K12N 031825Z AUTO 32011G20KT 290V360 02/M14 A2986 640 30 -700 330/11G20 300V010 RMK AO1 PK WND 29026/1805 T00171139
54779K12N 12N20160403133012404/03/16 13:30:31  5-MIN K12N 031830Z AUTO 31015G27KT 02/M13 A2986 640 32 -700 320/15G27 RMK AO1 PK WND 29027/1830 T00171133
54779K12N 12N20160403133512404/03/16 13:35:31  5-MIN K12N 031835Z AUTO 32008G27KT 02/M13 A2986 640 31 -700 330/08G27 RMK AO1 PK WND 29027/1830 T00221133
54779K12N 12N20160403134014004/03/16 13:40:31  5-MIN K12N 031840Z AUTO 32012G23KT 280V360 02/M14 A2987 630 29 -700 330/12G23 290V010 RMK AO1 PK WND 29027/1830 T00221139
54779K12N 12N20160403134514004/03/16 13:45:31  5-MIN K12N 031845Z AUTO 33009G21KT 290V030 02/M14 A2986 640 29 -700 340/09G21 300V040 RMK AO1 PK WND 29027/1830 T00221139
54779K12N 12N20160403135014704/03/16 13:50:31  5-MIN K12N 031850Z AUTO 32011G18KT 280V350 02/M14 A2986 640 29 -700 330/11G18 290V360 RMK AO1 PK WND 29027/1830 SLP120 T00221139
54779K12N 12N20160403135512204/03/16 13:55:31  5-MIN K12N 031855Z AUTO 33012G22KT 280V010 02/M14 A2986 640 29 -700 340/12G22 290V020 RMK AO1 T00221139
54779K12N 12N20160403140012204/03/16 14:00:31  5-MIN K12N 031900Z AUTO 31013G25KT 260V360 02/M14 A2986 640 29 -700 320/13G25 270V010 RMK AO1 T00221139
54779K12N 12N20160403140512204/03/16 14:05:31  5-MIN K12N 031905Z AUTO 32009G25KT 250V030 02/M14 A2987 630 29 -700 340/09G25 260V040 RMK AO1 T00221139
54779K12N 12N20160403141012204/03/16 14:10:31  5-MIN K12N 031910Z AUTO 33010G22KT 300V360 02/M14 A2987 630 29 -700 340/10G22 310V010 RMK AO1 T00221139
54779K12N 12N20160403141512204/03/16 14:15:31  5-MIN K12N 031915Z AUTO 30010G22KT 200V350 02/M14 A2987 630 29 -700 310/10G22 210V360 RMK AO1 T00221139
54779K12N 12N20160403142012204/03/16 14:20:31  5-MIN K12N 031920Z AUTO 33007G21KT 280V050 03/M14 A2987 630 28 -600 350/07G21 290V060 RMK AO1 T00281139
54779K12N 12N20160403142512204/03/16 14:25:31  5-MIN K12N 031925Z AUTO 32010G21KT 280V070 02/M14 A2987 630 28 -700 330/10G21 290V080 RMK AO1 T00221144
54779K12N 12N20160403143012204/03/16 14:30:31  5-MIN K12N 031930Z AUTO 33008G19KT 260V020 02/M14 A2987 630 28 -700 350/08G19 270V030 RMK AO1 T00221144
54779K12N 12N20160403143512204/03/16 14:35:31  5-MIN K12N 031935Z AUTO 33009G21KT 270V010 03/M14 A2987 630 28 -600 340/09G21 280V020 RMK AO1 T00281139
54779K12N 12N20160403144010604/03/16 14:40:31  5-MIN K12N 031940Z AUTO 31010G21KT 03/M14 A2987 630 28 -600 320/10G21 RMK AO1 T00281139
54779K12N 12N20160403144512204/03/16 14:45:31  5-MIN K12N 031945Z AUTO 34007G19KT 290V050 02/M14 A2987 630 28 -700 350/07G19 300V060 RMK AO1 T00221144
54779K12N 12N20160403145012904/03/16 14:50:31  5-MIN K12N 031950Z AUTO 34010G19KT 300V010 03/M14 A2987 640 28 -600 350/10G19 310V020 RMK AO1 SLP121 T00281139
54779K12N 12N20160403145512204/03/16 14:55:31  5-MIN K12N 031955Z AUTO 31010G20KT 270V010 03/M14 A2987 630 27 -500 320/10G20 280V020 RMK AO1 T00331139
54779K12N 12N20160403150012204/03/16 15:00:31  5-MIN K12N 032000Z AUTO 33012G22KT 290V010 03/M14 A2987 630 27 -600 340/12G22 300V020 RMK AO1 T00281144
54779K12N 12N20160403150510604/03/16 15:05:31  5-MIN K12N 032005Z AUTO 29010G22KT 03/M14 A2987 630 27 -600 310/10G22 RMK AO1 T00281144
54779K12N 12N20160403151012204/03/16 15:10:31  5-MIN K12N 032010Z AUTO 34008G18KT 260V360 03/M14 A2988 630 28 -600 350/08G18 270V010 RMK AO1 T00281139
54779K12N 12N20160403151510604/03/16 15:15:31  5-MIN K12N 032015Z AUTO VRB06G16KT 03/M14 A2988 620 27 -600 VRB/06G16 RMK AO1 T00331139
54779K12N 12N20160403152012204/03/16 15:20:31  5-MIN K12N 032020Z AUTO 30009G19KT 250V010 03/M14 A2988 620 27 -600 310/09G19 260V020 RMK AO1 T00281144
54779K12N 12N20160403152509004/03/16 15:25:31  5-MIN K12N 032025Z AUTO 03/M14 A2989 620 27 -600 M /M RMK AO1 T00281144
54779K12N 12N20160403153012204/03/16 15:30:31  5-MIN K12N 032030Z AUTO 29010G18KT 260V330 03/M14 A2989 620 28 -600 300/10G18 270V340 RMK AO1 T00281139
54779K12N 12N20160403153510604/03/16 15:35:31  5-MIN K12N 032035Z AUTO VRB06G18KT 03/M14 A2989 620 27 -600 VRB/06G18 RMK AO1 T00331139
54779K12N 12N20160403154012204/03/16 15:40:31  5-MIN K12N 032040Z AUTO 32010G15KT 290V010 03/M14 A2989 610 27 -600 340/10G15 300V020 RMK AO1 T00331139
54779K12N 12N20160403154512204/03/16 15:45:31  5-MIN K12N 032045Z AUTO 28010G15KT 240V300 03/M14 A2989 610 27 -600 290/10G15 250V310 RMK AO1 T00331139
54779K12N 12N20160403155013504/03/16 15:50:31  5-MIN K12N 032050Z AUTO 31009G17KT 270V340 03/M14 A2989 610 27 -600 320/09G17 280V350 RMK AO1 SLP132 T00331139 51024
54779K12N 12N20160403155512204/03/16 15:55:31  5-MIN K12N 032055Z AUTO 34007G17KT 260V020 03/M14 A2989 610 27 -600 360/07G17 270V030 RMK AO1 T00331139
54779K12N 12N20160403160010604/03/16 16:00:31  5-MIN K12N 032100Z AUTO 35008G15KT 03/M14 A2990 610 27 -600 010/08G15 RMK AO1 T00331139
54779K12N 12N20160403160510604/03/16 16:05:31  5-MIN K12N 032105Z AUTO VRB04G15KT 04/M13 A2990 600 27 -500 VRB/04G15 RMK AO1 T00391133
54779K12N 12N20160403161009004/03/16 16:10:31  5-MIN K12N 032110Z AUTO 04/M13 A2990 600 27 -500 M /M RMK AO1 T00391133
54779K12N 12N20160403161512204/03/16 16:15:31  5-MIN K12N 032115Z AUTO 35011G18KT 320V020 03/M14 A2990 600 28 -600 010/11G18 330V030 RMK AO1 T00281139
54779K12N 12N20160403162012204/03/16 16:20:31  5-MIN K12N 032120Z AUTO 33007G19KT 260V020 03/M14 A2991 600 27 -600 340/07G19 270V030 RMK AO1 T00331139
54779K12N 12N20160403162512204/03/16 16:25:31  5-MIN K12N 032125Z AUTO 32011G19KT 290V010 03/M14 A2991 600 27 -600 340/11G19 300V020 RMK AO1 T00331139
54779K12N 12N20160403163010604/03/16 16:30:31  5-MIN K12N 032130Z AUTO VRB05G20KT 03/M14 A2991 590 28 -700 VRB/05G20 RMK AO1 T00281139
54779K12N 12N20160403163509004/03/16 16:35:31  5-MIN K12N 032135Z AUTO 03/M14 A2992 590 28 -700 M /M RMK AO1 T00281139
54779K12N 12N20160403164011604/03/16 16:40:31  5-MIN K12N 032140Z AUTO 32008KT 280V020 02/M14 A2992 580 29 -700 330/08 290V030 RMK AO1 T00221139
54779K12N 12N20160403164512204/03/16 16:45:31  5-MIN K12N 032145Z AUTO 35009G15KT 310V030 03/M13 A2992 590 28 -600 360/09G15 320V040 RMK AO1 T00331133
54779K12N 12N20160403165011304/03/16 16:50:31  5-MIN K12N 032150Z AUTO VRB04G15KT 03/M13 A2993 580 28 -600 VRB/04G15 RMK AO1 SLP143 T00331133
54779K12N 12N20160403165509004/03/16 16:55:31  5-MIN K12N 032155Z AUTO 03/M14 A2992 580 27 -600 M /M RMK AO1 T00331139
54779K12N 12N20160403170010004/03/16 17:00:31  5-MIN K12N 032200Z AUTO 29007KT 03/M14 A2992 580 27 -600 300/07 RMK AO1 T00331139
54779K12N 12N20160403170511604/03/16 17:05:31  5-MIN K12N 032205Z AUTO 31007KT 280V030 03/M14 A2992 590 28 -700 320/07 290V040 RMK AO1 T00281139
54779K12N 12N20160403171010004/03/16 17:10:31  5-MIN K12N 032210Z AUTO VRB06KT 03/M13 A2992 590 28 -600 VRB/06 RMK AO1 T00331133
54779K12N 12N20160403171511604/03/16 17:15:31  5-MIN K12N 032215Z AUTO 33008KT 270V010 03/M13 A2992 580 29 -700 340/08 280V020 RMK AO1 T00281133
54779K12N 12N20160403172012204/03/16 17:20:31  5-MIN K12N 032220Z AUTO 34008G17KT 290V010 03/M14 A2993 580 28 -700 350/08G17 300V020 RMK AO1 T00281139
54779K12N 12N20160403172510604/03/16 17:25:31  5-MIN K12N 032225Z AUTO VRB06G15KT 03/M13 A2993 580 29 -700 VRB/06G15 RMK AO1 T00281133
54779K12N 12N20160403173009004/03/16 17:30:31  5-MIN K12N 032230Z AUTO 03/M13 A2993 580 29 -700 M /M RMK AO1 T00281133
54779K12N 12N20160403173510004/03/16 17:35:31  5-MIN K12N 032235Z AUTO 34006KT 03/M13 A2993 570 29 -700 360/06 RMK AO1 T00281133
54779K12N 12N20160403174010604/03/16 17:40:31  5-MIN K12N 032240Z AUTO 36007G15KT 02/M13 A2993 570 31 -800 010/07G15 RMK AO1 T00221133
54779K12N 12N20160403174512204/03/16 17:45:31  5-MIN K12N 032245Z AUTO 34007G15KT 310V010 02/M13 A2993 570 31 -800 350/07G15 320V020 RMK AO1 T00221133
54779K12N 12N20160403175010704/03/16 17:50:31  5-MIN K12N 032250Z AUTO VRB05KT 02/M13 A2993 580 31 -700 VRB/05 RMK AO1 SLP145 T00221133
54779K12N 12N20160403175510004/03/16 17:55:31  5-MIN K12N 032255Z AUTO VRB05KT 02/M13 A2993 580 31 -700 VRB/05 RMK AO1 T00221133
54779K12N 12N20160403180010004/03/16 18:00:31  5-MIN K12N 032300Z AUTO VRB06KT 02/M13 A2993 580 32 -800 VRB/06 RMK AO1 T00171133
54779K12N 12N20160403180510004/03/16 18:05:31  5-MIN K12N 032305Z AUTO 35004KT 02/M13 A2994 570 32 -800 360/04 RMK AO1 T00171133
54779K12N 12N20160403181010004/03/16 18:10:31  5-MIN K12N 032310Z AUTO VRB06KT 02/M13 A2994 570 32 -800 VRB/06 RMK AO1 T00171133
54779K12N 12N20160403181510004/03/16 18:15:31  5-MIN K12N 032315Z AUTO VRB04KT 02/M13 A2994 570 32 -800 VRB/04 RMK AO1 T00171133
54779K12N 12N20160403182010004/03/16 18:20:31  5-MIN K12N 032320Z AUTO VRB04KT 02/M13 A2994 570 32 -800 VRB/04 RMK AO1 T00171133
54779K12N 12N20160403182510004/03/16 18:25:31  5-MIN K12N 032325Z AUTO 35005KT 02/M13 A2995 560 32 -800 010/05 RMK AO1 T00171133
54779K12N 12N20160403183010004/03/16 18:30:31  5-MIN K12N 032330Z AUTO VRB04KT 02/M13 A2995 560 32 -800 VRB/04 RMK AO1 T00171133
54779K12N 12N20160403183510004/03/16 18:35:31  5-MIN K12N 032335Z AUTO 34005KT 02/M13 A2995 560 32 -800 360/05 RMK AO1 T00171133
54779K12N 12N20160403184010004/03/16 18:40:31  5-MIN K12N 032340Z AUTO VRB03KT 02/M13 A2995 560 32 -800 VRB/03 RMK AO1 T00171133
54779K12N 12N20160403184510004/03/16 18:45:31  5-MIN K12N 032345Z AUTO 35004KT 02/M13 A2995 560 32 -800 360/04 RMK AO1 T00171133
54779K12N 12N20160403185012504/03/16 18:50:31  5-MIN K12N 032350Z AUTO 36004KT 01/M12 A2996 550 36 -900 010/04 RMK AO1 SLP155 T00111122 10039 20011 53011
54779K12N 12N20160403185510004/03/16 18:55:31  5-MIN K12N 032355Z AUTO 01003KT 01/M13 A2995 560 35 -900 020/03 RMK AO1 T00111128
54779K12N 12N20160403190010004/03/16 19:00:31  5-MIN K12N 040000Z AUTO 01003KT 01/M13 A2995 560 35 -900 020/03 RMK AO1 T00111128
54779K12N 12N20160403190510004/03/16 19:05:31  5-MIN K12N 040005Z AUTO 35004KT 01/M13 A2996 550 35 -900 360/04 RMK AO1 T00111128
54779K12N 12N20160403191010004/03/16 19:10:31  5-MIN K12N 040010Z AUTO 00000KT 01/M13 A2996 550 35 -900 000/00 RMK AO1 T00111128
54779K12N 12N20160403191510004/03/16 19:15:31  5-MIN K12N 040015Z AUTO VRB03KT 01/M13 A2996 540 35 -900 VRB/03 RMK AO1 T00111128
54779K12N 12N20160403192010004/03/16 19:20:31  5-MIN K12N 040020Z AUTO 00000KT 01/M12 A2997 540 36 -900 000/00 RMK AO1 T00111122
54779K12N 12N20160403192510004/03/16 19:25:31  5-MIN K12N 040025Z AUTO 00000KT 01/M13 A2997 540 35 -900 000/00 RMK AO1 T00111128
54779K12N 12N20160403193010104/03/16 19:30:31  5-MIN K12N 040030Z AUTO 00000KT 01/M12 A2997 540 38 -1000 000/00 RMK AO1 T00061122
54779K12N 12N20160403193510104/03/16 19:35:31  5-MIN K12N 040035Z AUTO 00000KT 01/M12 A2998 530 39 -1000 000/00 RMK AO1 T00061117
54779K12N 12N20160403194010104/03/16 19:40:31  5-MIN K12N 040040Z AUTO 00000KT 01/M12 A2998 530 39 -1000 000/00 RMK AO1 T00061117
54779K12N 12N20160403194510104/03/16 19:45:31  5-MIN K12N 040045Z AUTO 00000KT 00/M11 A2997 540 45 -1100 000/00 RMK AO1 T00001106
54779K12N 12N20160403195010804/03/16 19:50:31  5-MIN K12N 040050Z AUTO 00000KT 00/M11 A2998 530 43 -1100 000/00 RMK AO1 SLP162 T00001111
54779K12N 12N20160403195510104/03/16 19:55:31  5-MIN K12N 040055Z AUTO 00000KT 00/M11 A2997 540 43 -1100 000/00 RMK AO1 T00001111
54779K12N 12N20160403200010104/03/16 20:00:31  5-MIN K12N 040100Z AUTO 00000KT 01/M11 A2998 530 41 -1000 000/00 RMK AO1 T00061111
54779K12N 12N20160403200510104/03/16 20:05:31  5-MIN K12N 040105Z AUTO 00000KT 01/M12 A2998 530 39 -1000 000/00 RMK AO1 T00061117
54779K12N 12N20160403201010104/03/16 20:10:31  5-MIN K12N 040110Z AUTO 00000KT 01/M12 A2998 530 39 -1000 000/00 RMK AO1 T00061117
54779K12N 12N20160403201510104/03/16 20:15:31  5-MIN K12N 040115Z AUTO 00000KT 01/M11 A2999 520 41 -1000 000/00 RMK AO1 T00061111
54779K12N 12N20160403202010804/03/16 20:20:31  5-MIN K12N 040120Z AUTO 00000KT 00/M11 A3000 510 43 -1100 000/00 RMK AO1 PRESRR T00001111
54779K12N 12N20160403202510104/03/16 20:25:31  5-MIN K12N 040125Z AUTO 00000KT 00/M11 A3000 520 45 -1100 000/00 RMK AO1 T00001106
54779K12N 12N20160403203010104/03/16 20:30:31  5-MIN K12N 040130Z AUTO 00000KT 01/M10 A3000 520 45 -1000 000/00 RMK AO1 T00061100
54779K12N 12N20160403203510104/03/16 20:35:31  5-MIN K12N 040135Z AUTO 00000KT 01/M10 A3000 510 45 -1000 000/00 RMK AO1 T00061100
54779K12N 12N20160403204010104/03/16 20:40:31  5-MIN K12N 040140Z AUTO 00000KT 00/M10 A3000 510 47 -1100 000/00 RMK AO1 T00001100
54779K12N 12N20160403204510104/03/16 20:45:31  5-MIN K12N 040145Z AUTO 00000KT 00/M09 A3000 510 49 -1100 000/00 RMK AO1 T00001094
54779K12N 12N20160403205010804/03/16 20:50:31  5-MIN K12N 040150Z AUTO 00000KT 01/M11 A3000 510 43 -1000 000/00 RMK AO1 SLP170 T00061106
54779K12N 12N20160403205510104/03/16 20:55:31  5-MIN K12N 040155Z AUTO 00000KT 01/M11 A3000 510 43 -1000 000/00 RMK AO1 T00061106
54779K12N 12N20160403210010104/03/16 21:00:31  5-MIN K12N 040200Z AUTO 00000KT 01/M10 A3000 510 45 -1000 000/00 RMK AO1 T00061100
54779K12N 12N20160403210510104/03/16 21:05:31  5-MIN K12N 040205Z AUTO 00000KT 01/M10 A3001 510 45 -1000 000/00 RMK AO1 T00061100
54779K12N 12N20160403211010104/03/16 21:10:31  5-MIN K12N 040210Z AUTO 00000KT 01/M09 A3001 500 45 -1000 000/00 RMK AO1 T00111094
54779K12N 12N20160403211510104/03/16 21:15:31  5-MIN K12N 040215Z AUTO 00000KT 01/M09 A3001 500 47 -1000 000/00 RMK AO1 T00111089
54779K12N 12N20160403212010104/03/16 21:20:31  5-MIN K12N 040220Z AUTO 00000KT 01/M08 A3001 500 54 -1100 000/00 RMK AO1 T00061078
54779K12N 12N20160403212510104/03/16 21:25:31  5-MIN K12N 040225Z AUTO 00000KT 01/M08 A3001 500 49 -1000 000/00 RMK AO1 T00111083
54779K12N 12N20160403213010104/03/16 21:30:31  5-MIN K12N 040230Z AUTO 00000KT 01/M11 A3002 500 40 -1000 000/00 RMK AO1 T00111111
54779K12N 12N20160403213510104/03/16 21:35:31  5-MIN K12N 040235Z AUTO 00000KT 01/M12 A3001 500 38 -1000 000/00 RMK AO1 T00111117
54779K12N 12N20160403214010104/03/16 21:40:31  5-MIN K12N 040240Z AUTO 05003KT 01/M11 A3001 500 41 -1000 060/03 RMK AO1 T00111106
54779K12N 12N20160403214510104/03/16 21:45:31  5-MIN K12N 040245Z AUTO 00000KT 01/M11 A3001 500 40 -1000 000/00 RMK AO1 T00111111
54779K12N 12N20160403215011404/03/16 21:50:31  5-MIN K12N 040250Z AUTO 00000KT 01/M12 A3001 500 38 -1000 000/00 RMK AO1 SLP173 T00111117 51019
54779K12N 12N20160403215510104/03/16 21:55:31  5-MIN K12N 040255Z AUTO 00000KT 01/M11 A3001 500 40 -1000 000/00 RMK AO1 T00111111
54779K12N 12N20160403220010104/03/16 22:00:31  5-MIN K12N 040300Z AUTO 05003KT 01/M11 A3000 510 40 -1000 060/03 RMK AO1 T00111111
54779K12N 12N20160403220510104/03/16 22:05:31  5-MIN K12N 040305Z AUTO 00000KT 01/M11 A3001 500 40 -1000 000/00 RMK AO1 T00111111
54779K12N 12N20160403221010104/03/16 22:10:31  5-MIN K12N 040310Z AUTO 07003KT 01/M12 A3001 510 38 -1000 080/03 RMK AO1 T00111117
54779K12N 12N20160403221510104/03/16 22:15:31  5-MIN K12N 040315Z AUTO 00000KT 01/M12 A3001 500 38 -1000 000/00 RMK AO1 T00111117
54779K12N 12N20160403222010104/03/16 22:20:31  5-MIN K12N 040320Z AUTO 00000KT 01/M12 A3001 500 38 -1000 000/00 RMK AO1 T00111117
54779K12N 12N20160403222510104/03/16 22:25:31  5-MIN K12N 040325Z AUTO 00000KT 01/M12 A3001 500 38 -1000 000/00 RMK AO1 T00111117
54779K12N 12N20160403223010104/03/16 22:30:31  5-MIN K12N 040330Z AUTO 08003KT 01/M11 A3001 500 40 -1000 090/03 RMK AO1 T00111111
54779K12N 12N20160403223510104/03/16 22:35:31  5-MIN K12N 040335Z AUTO 00000KT 01/M12 A3001 500 38 -1000 000/00 RMK AO1 T00111117
54779K12N 12N20160403224010104/03/16 22:40:31  5-MIN K12N 040340Z AUTO 00000KT 01/M11 A3001 500 40 -1000 000/00 RMK AO1 T00111111
54779K12N 12N20160403224510104/03/16 22:45:31  5-MIN K12N 040345Z AUTO 00000KT 01/M11 A3001 500 40 -1000 000/00 RMK AO1 T00111111
54779K12N 12N20160403225010804/03/16 22:50:31  5-MIN K12N 040350Z AUTO 00000KT 01/M12 A3001 500 38 -1000 000/00 RMK AO1 SLP173 T00111117
54779K12N 12N20160403225510104/03/16 22:55:31  5-MIN K12N 040355Z AUTO 00000KT 01/M11 A3001 500 40 -1000 000/00 RMK AO1 T00111111
54779K12N 12N20160403230010104/03/16 23:00:31  5-MIN K12N 040400Z AUTO 11003KT 01/M12 A3000 510 38 -1000 120/03 RMK AO1 T00111117
54779K12N 12N20160403230510104/03/16 23:05:31  5-MIN K12N 040405Z AUTO 00000KT 01/M11 A3000 510 40 -1000 000/00 RMK AO1 T00111111
54779K12N 12N20160403231010104/03/16 23:10:31  5-MIN K12N 040410Z AUTO 07003KT 01/M12 A3000 510 38 -1000 080/03 RMK AO1 T00111117
54779K12N 12N20160403231510104/03/16 23:15:31  5-MIN K12N 040415Z AUTO 05003KT 01/M11 A2999 520 40 -1000 060/03 RMK AO1 T00111111
54779K12N 12N20160403232010104/03/16 23:20:31  5-MIN K12N 040420Z AUTO 04003KT 01/M11 A3000 510 40 -1000 050/03 RMK AO1 T00111111
54779K12N 12N20160403232510104/03/16 23:25:31  5-MIN K12N 040425Z AUTO 04004KT 01/M11 A3000 510 40 -1000 050/04 RMK AO1 T00111111
54779K12N 12N20160403233010104/03/16 23:30:31  5-MIN K12N 040430Z AUTO 05004KT 01/M12 A2999 520 38 -1000 060/04 RMK AO1 T00111117
54779K12N 12N20160403233510104/03/16 23:35:31  5-MIN K12N 040435Z AUTO VRB03KT 01/M11 A2999 520 40 -1000 VRB/03 RMK AO1 T00111111
54779K12N 12N20160403234010104/03/16 23:40:31  5-MIN K12N 040440Z AUTO 04003KT 01/M11 A2999 520 40 -1000 050/03 RMK AO1 T00111111
54779K12N 12N20160403234510104/03/16 23:45:31  5-MIN K12N 040445Z AUTO 00000KT 01/M11 A3000 510 41 -1000 000/00 RMK AO1 T00111106
54779K12N 12N20160403235011804/03/16 23:50:31  5-MIN K12N 040450Z AUTO 00000KT 01/M11 A3000 510 40 -1000 000/00 RMK AO1 SLP168 T00111111 400391017
54779K12N 12N20160403235510104/03/16 23:55:31  5-MIN K12N 040455Z AUTO 00000KT 01/M11 A3000 510 40 -1000 000/00 RMK AO1 T00111111
54779K12N 12N20160404000010104/04/16 00:00:31  5-MIN K12N 040500Z AUTO 00000KT 01/M11 A3000 510 40 -1000 000/00 RMK AO1 T00111111
54779K12N 12N20160404000510104/04/16 00:05:31  5-MIN K12N 040505Z AUTO 04003KT 01/M11 A3000 520 40 -1000 050/03 RMK AO1 T00111111
54779K12N 12N20160404001010104/04/16 00:10:31  5-MIN K12N 040510Z AUTO 00000KT 01/M11 A3000 520 41 -1000 000/00 RMK AO1 T00111106
54779K12N 12N20160404001510104/04/16 00:15:31  5-MIN K12N 040515Z AUTO 00000KT 01/M11 A2999 520 40 -1000 000/00 RMK AO1 T00111111
54779K12N 12N20160404002010104/04/16 00:20:31  5-MIN K12N 040520Z AUTO 00000KT 01/M11 A3000 520 40 -1000 000/00 RMK AO1 T00111111
54779K12N 12N20160404002510104/04/16 00:25:31  5-MIN K12N 040525Z AUTO 00000KT 01/M11 A3000 510 40 -1000 000/00 RMK AO1 T00111111
54779K12N 12N20160404003010104/04/16 00:30:31  5-MIN K12N 040530Z AUTO 00000KT 01/M11 A3000 510 40 -1000 000/00 RMK AO1 T00111111
54779K12N 12N20160404003510104/04/16 00:35:31  5-MIN K12N 040535Z AUTO VRB03KT 01/M11 A2999 520 41 -1000 VRB/03 RMK AO1 T00111106
54779K12N 12N20160404004010104/04/16 00:40:31  5-MIN K12N 040540Z AUTO 00000KT 01/M11 A2999 520 40 -1000 000/00 RMK AO1 T00111111
54779K12N 12N20160404004510104/04/16 00:45:31  5-MIN K12N 040545Z AUTO 00000KT 01/M11 A2999 520 40 -1000 000/00 RMK AO1 T00111111
54779K12N 12N20160404005012604/04/16 00:50:31  5-MIN K12N 040550Z AUTO 00000KT 01/M11 A2999 520 40 -1000 000/00 RMK AO1 SLP164 T00111111 10011 20000 51020
54779K12N 12N20160404005510004/04/16 00:55:31  5-MIN K12N 040555Z AUTO 00000KT 01/M11 A2998 530 40 -900 000/00 RMK AO1 T00111111
54779K12N 12N20160404010010004/04/16 01:00:31  5-MIN K12N 040600Z AUTO VRB03KT 01/M11 A2998 530 41 -900 VRB/03 RMK AO1 T00111106
54779K12N 12N20160404010510004/04/16 01:05:31  5-MIN K12N 040605Z AUTO 00000KT 01/M11 A2998 530 41 -900 000/00 RMK AO1 T00111106
54779K12N 12N20160404011010004/04/16 01:10:31  5-MIN K12N 040610Z AUTO 00000KT 01/M10 A2998 530 43 -900 000/00 RMK AO1 T00111100
54779K12N 12N20160404011510004/04/16 01:15:31  5-MIN K12N 040615Z AUTO 15005KT 01/M10 A2997 530 43 -900 170/05 RMK AO1 T00111100
54779K12N 12N20160404012010004/04/16 01:20:31  5-MIN K12N 040620Z AUTO VRB04KT 01/M10 A2997 530 43 -900 VRB/04 RMK AO1 T00111100
54779K12N 12N20160404012510104/04/16 01:25:31  5-MIN K12N 040625Z AUTO VRB04KT 01/M10 A2997 540 45 -1000 VRB/04 RMK AO1 T00061100
54779K12N 12N20160404013010104/04/16 01:30:31  5-MIN K12N 040630Z AUTO 00000KT 01/M10 A2997 540 45 -1000 000/00 RMK AO1 T00061100
54779K12N 12N20160404013510104/04/16 01:35:31  5-MIN K12N 040635Z AUTO VRB03KT 01/M10 A2997 540 45 -1000 VRB/03 RMK AO1 T00061100
54779K12N 12N20160404014010104/04/16 01:40:31  5-MIN K12N 040640Z AUTO VRB03KT 01/M09 A2996 550 47 -1000 VRB/03 RMK AO1 T00061094
54779K12N 12N20160404014510104/04/16 01:45:31  5-MIN K12N 040645Z AUTO VRB03KT 01/M10 A2996 550 45 -1000 VRB/03 RMK AO1 T00061100
54779K12N 12N20160404015010804/04/16 01:50:31  5-MIN K12N 040650Z AUTO VRB04KT 01/M09 A2996 550 47 -1000 VRB/04 RMK AO1 SLP155 T00061094
54779K12N 12N20160404015510104/04/16 01:55:31  5-MIN K12N 040655Z AUTO VRB04KT 01/M10 A2996 550 45 -1000 VRB/04 RMK AO1 T00061100
54779K12N 12N20160404020010104/04/16 02:00:31  5-MIN K12N 040700Z AUTO 17003KT 01/M10 A2996 550 45 -1000 180/03 RMK AO1 T00061100
54779K12N 12N20160404020510104/04/16 02:05:31  5-MIN K12N 040705Z AUTO 13003KT 01/M10 A2996 550 45 -1000 150/03 RMK AO1 T00061100
54779K12N 12N20160404021010104/04/16 02:10:31  5-MIN K12N 040710Z AUTO 00000KT 01/M10 A2995 550 45 -1000 000/00 RMK AO1 T00061100
54779K12N 12N20160404021510004/04/16 02:15:31  5-MIN K12N 040715Z AUTO 00000KT 01/M10 A2996 550 43 -900 000/00 RMK AO1 T00111100
54779K12N 12N20160404022010104/04/16 02:20:31  5-MIN K12N 040720Z AUTO 00000KT 01/M10 A2996 550 45 -1000 000/00 RMK AO1 T00061100
54779K12N 12N20160404022510104/04/16 02:25:31  5-MIN K12N 040725Z AUTO 00000KT 01/M09 A2996 550 47 -1000 000/00 RMK AO1 T00061094
54779K12N 12N20160404023010104/04/16 02:30:31  5-MIN K12N 040730Z AUTO 00000KT 01/M10 A2995 550 45 -1000 000/00 RMK AO1 T00061100
54779K12N 12N20160404023510104/04/16 02:35:31  5-MIN K12N 040735Z AUTO 00000KT 01/M09 A2995 560 47 -1000 000/00 RMK AO1 T00061094
54779K12N 12N20160404024010004/04/16 02:40:31  5-MIN K12N 040740Z AUTO 00000KT 01/M10 A2995 560 43 -900 000/00 RMK AO1 T00111100
54779K12N 12N20160404024510004/04/16 02:45:31  5-MIN K12N 040745Z AUTO VRB03KT 01/M09 A2995 560 45 -900 VRB/03 RMK AO1 T00111094
54779K12N 12N20160404025010704/04/16 02:50:31  5-MIN K12N 040750Z AUTO VRB03KT 01/M10 A2994 560 43 -900 VRB/03 RMK AO1 SLP148 T00111100
54779K12N 12N20160404025510004/04/16 02:55:31  5-MIN K12N 040755Z AUTO 00000KT 01/M10 A2994 570 43 -900 000/00 RMK AO1 T00111100
54779K12N 12N20160404030010004/04/16 03:00:31  5-MIN K12N 040800Z AUTO VRB05KT 01/M10 A2994 570 43 -900 VRB/05 RMK AO1 T00111100
54779K12N 12N20160404030510004/04/16 03:05:31  5-MIN K12N 040805Z AUTO VRB04KT 01/M10 A2993 570 43 -900 VRB/04 RMK AO1 T00111100
54779K12N 12N20160404031010004/04/16 03:10:31  5-MIN K12N 040810Z AUTO 16005KT 01/M10 A2993 570 43 -900 180/05 RMK AO1 T00111100
54779K12N 12N20160404031510004/04/16 03:15:31  5-MIN K12N 040815Z AUTO 00000KT 01/M10 A2993 570 43 -900 000/00 RMK AO1 T00111100
54779K12N 12N20160404032009004/04/16 03:20:31  5-MIN K12N 040820Z AUTO 01/M10 A2993 570 43 -900 M /M RMK AO1 T00111100
54779K12N 12N20160404032510004/04/16 03:25:31  5-MIN K12N 040825Z AUTO VRB04KT 01/M10 A2993 580 43 -900 VRB/04 RMK AO1 T00111100
54779K12N 12N20160404033010004/04/16 03:30:31  5-MIN K12N 040830Z AUTO 17005KT 01/M10 A2993 570 43 -900 180/05 RMK AO1 T00111100
54779K12N 12N20160404033510004/04/16 03:35:31  5-MIN K12N 040835Z AUTO VRB04KT 01/M09 A2993 580 45 -900 VRB/04 RMK AO1 T00111094
54779K12N 12N20160404034010004/04/16 03:40:31  5-MIN K12N 040840Z AUTO 00000KT 01/M09 A2993 580 45 -900 000/00 RMK AO1 T00111094
54779K12N 12N20160404034510004/04/16 03:45:31  5-MIN K12N 040845Z AUTO 00000KT 01/M09 A2992 580 45 -900 000/00 RMK AO1 T00111094
54779K12N 12N20160404035011304/04/16 03:50:31  5-MIN K12N 040850Z AUTO VRB03KT 01/M09 A2992 580 47 -900 VRB/03 RMK AO1 SLP141 T00111089 58009
54779K12N 12N20160404035510004/04/16 03:55:31  5-MIN K12N 040855Z AUTO 00000KT 01/M09 A2992 590 47 -900 000/00 RMK AO1 T00111089
54779K12N 12N20160404040010004/04/16 04:00:31  5-MIN K12N 040900Z AUTO VRB03KT 01/M08 A2991 590 49 -900 VRB/03 RMK AO1 T00111083
54779K12N 12N20160404040510004/04/16 04:05:31  5-MIN K12N 040905Z AUTO 00000KT 01/M08 A2991 600 49 -900 000/00 RMK AO1 T00111083
54779K12N 12N20160404041010004/04/16 04:10:31  5-MIN K12N 040910Z AUTO VRB05KT 01/M08 A2991 600 49 -900 VRB/05 RMK AO1 T00111083
54779K12N 12N20160404041510004/04/16 04:15:31  5-MIN K12N 040915Z AUTO 00000KT 01/M08 A2991 600 49 -900 000/00 RMK AO1 T00111083
54779K12N 12N20160404042010004/04/16 04:20:31  5-MIN K12N 040920Z AUTO 00000KT 01/M08 A2991 600 51 -900 000/00 RMK AO1 T00111078
54779K12N 12N20160404042510004/04/16 04:25:31  5-MIN K12N 040925Z AUTO 17003KT 01/M08 A2991 600 51 -900 190/03 RMK AO1 T00111078
54779K12N 12N20160404043010004/04/16 04:30:31  5-MIN K12N 040930Z AUTO 00000KT 01/M08 A2991 590 51 -900 000/00 RMK AO1 T00111078
54779K12N 12N20160404043510004/04/16 04:35:31  5-MIN K12N 040935Z AUTO VRB04KT 01/M07 A2991 590 54 -900 VRB/04 RMK AO1 T00111072
54779K12N 12N20160404044010004/04/16 04:40:31  5-MIN K12N 040940Z AUTO 00000KT 01/M07 A2991 600 54 -900 000/00 RMK AO1 T00111072
54779K12N 12N20160404044510004/04/16 04:45:31  5-MIN K12N 040945Z AUTO VRB03KT 01/M07 A2991 600 54 -900 VRB/03 RMK AO1 T00111072
54779K12N 12N20160404045010704/04/16 04:50:31  5-MIN K12N 040950Z AUTO VRB03KT 01/M07 A2991 600 56 -900 VRB/03 RMK AO1 SLP137 T00111067
54779K12N 12N20160404045510004/04/16 04:55:31  5-MIN K12N 040955Z AUTO 00000KT 01/M07 A2990 600 56 -900 000/00 RMK AO1 T00111067
54779K12N 12N20160404050010004/04/16 05:00:31  5-MIN K12N 041000Z AUTO 00000KT 01/M06 A2990 600 61 -900 000/00 RMK AO1 T00111056
54779K12N 12N20160404050510004/04/16 05:05:31  5-MIN K12N 041005Z AUTO 00000KT 01/M04 A2991 600 69 -900 000/00 RMK AO1 T00061044
54779K12N 12N20160404051010104/04/16 05:10:31  5-MIN K12N 041010Z AUTO 00000KT 00/M04 A2990 600 75 -1000 000/00 RMK AO1 T00001039
54779K12N 12N20160404051510104/04/16 05:15:31  5-MIN K12N 041015Z AUTO 00000KT 00/M04 A2989 610 75 -1000 000/00 RMK AO1 T00001039
54779K12N 12N20160404052010104/04/16 05:20:31  5-MIN K12N 041020Z AUTO VRB03KT 00/M04 A2989 610 75 -1000 VRB/03 RMK AO1 T00001039
54779K12N 12N20160404052510804/04/16 05:25:31  5-MIN K12N 041025Z AUTO 00000KT 00/M03 A2988 620 78 -1000 000/00 RMK AO1 PRESFR T00001033
54779K12N 12N20160404053010104/04/16 05:30:31  5-MIN K12N 041030Z AUTO 00000KT 00/M03 A2988 620 78 -1000 000/00 RMK AO1 T00001033
54779K12N 12N20160404053510104/04/16 05:35:31  5-MIN K12N 041035Z AUTO 00000KT 00/M03 A2988 620 78 -1000 000/00 RMK AO1 T00001033
54779K12N 12N20160404054010104/04/16 05:40:31  5-MIN K12N 041040Z AUTO VRB03KT 00/M04 A2988 620 75 -1000 VRB/03 RMK AO1 T00001039
54779K12N 12N20160404054510004/04/16 05:45:31  5-MIN K12N 041045Z AUTO 01004KT 01/M03 A2989 610 75 -900 020/04 RMK AO1 T00061033
54779K12N 12N20160404055010704/04/16 05:50:31  5-MIN K12N 041050Z AUTO VRB03KT 01/M03 A2990 610 75 -900 VRB/03 RMK AO1 SLP133 T00061033
54779K12N 12N20160404055510004/04/16 05:55:31  5-MIN K12N 041055Z AUTO 00000KT 01/M03 A2989 610 75 -900 000/00 RMK AO1 T00061033
54779K12N 12N20160404060010004/04/16 06:00:31  5-MIN K12N 041100Z AUTO 06003KT 01/M03 A2989 610 75 -900 070/03 RMK AO1 T00061033
54779K12N 12N20160404060510004/04/16 06:05:31  5-MIN K12N 041105Z AUTO 31005KT 01/M03 A2990 600 75 -900 330/05 RMK AO1 T00061033
54779K12N 12N20160404061010104/04/16 06:10:31  5-MIN K12N 041110Z AUTO VRB03KT 00/M03 A2990 610 81 -1000 VRB/03 RMK AO1 T00001028
54779K12N 12N20160404061510704/04/16 06:15:31  5-MIN K12N 041115Z AUTO VRB03KT 00/M03 A2990 610 81 -1000 VRB/03 RMK AO1 P0001 T00001028
54779K12N 12N20160404062010704/04/16 06:20:31  5-MIN K12N 041120Z AUTO 09004KT 00/M03 A2988 620 81 -1000 100/04 RMK AO1 P0001 T00001028
54779K12N 12N20160404062510704/04/16 06:25:31  5-MIN K12N 041125Z AUTO VRB04KT 00/M03 A2988 620 81 -1000 VRB/04 RMK AO1 P0002 T00001028
54779K12N 12N20160404063010704/04/16 06:30:31  5-MIN K12N 041130Z AUTO VRB03KT 00/M02 A2988 620 85 -1000 VRB/03 RMK AO1 P0003 T00001022
54779K12N 12N20160404063510704/04/16 06:35:31  5-MIN K12N 041135Z AUTO 00000KT 00/M02 A2988 620 88 -1000 000/00 RMK AO1 P0004 T00001017
54779K12N 12N20160404064010704/04/16 06:40:31  5-MIN K12N 041140Z AUTO VRB03KT 00/M01 A2988 620 92 -1000 VRB/03 RMK AO1 P0004 T00001011
54779K12N 12N20160404064510704/04/16 06:45:31  5-MIN K12N 041145Z AUTO 00000KT 00/M01 A2988 630 92 -1000 000/00 RMK AO1 P0004 T00001011
54779K12N 12N20160404065014404/04/16 06:50:31  5-MIN K12N 041150Z AUTO 03005KT 00/M01 A2987 630 92 -1000 050/05 RMK AO1 SLP124 P0004 60004 70004 T00001011 10011 20000 57022
54779K12N 12N20160404065510104/04/16 06:55:31  5-MIN K12N 041155Z AUTO 01003KT 00/M02 A2986 640 88 -1000 030/03 RMK AO1 T00001017
54779K12N 12N20160404070010104/04/16 07:00:31  5-MIN K12N 041200Z AUTO VRB04KT 00/M01 A2987 640 92 -1000 VRB/04 RMK AO1 T00001011
54779K12N 12N20160404070510004/04/16 07:05:31  5-MIN K12N 041205Z AUTO 04005KT 00/M01 A2986 640 92 -900 050/05 RMK AO1 T00001011
54779K12N 12N20160404071010004/04/16 07:10:31  5-MIN K12N 041210Z AUTO 04007KT 00/M01 A2986 640 92 -900 050/07 RMK AO1 T00001011
54779K12N 12N20160404071510004/04/16 07:15:31  5-MIN K12N 041215Z AUTO 02004KT 00/M01 A2986 640 92 -900 040/04 RMK AO1 T00001011
54779K12N 12N20160404072010204/04/16 07:20:31  5-MIN K12N 041220Z AUTO VRB05KT M01/M02 A2985 650 92 -1000 VRB/05 RMK AO1 T10061017
54779K12N 12N20160404072510204/04/16 07:25:31  5-MIN K12N 041225Z AUTO 03004KT M01/M02 A2986 640 92 -1000 040/04 RMK AO1 T10061017
54779K12N 12N20160404073010204/04/16 07:30:31  5-MIN K12N 041230Z AUTO VRB03KT M01/M02 A2986 640 92 -1000 VRB/03 RMK AO1 T10061017
54779K12N 12N20160404073510204/04/16 07:35:31  5-MIN K12N 041235Z AUTO 03004KT M01/M02 A2985 650 92 -1000 050/04 RMK AO1 T10061017
54779K12N 12N20160404074010004/04/16 07:40:31  5-MIN K12N 041240Z AUTO 01003KT 00/M02 A2985 650 88 -900 020/03 RMK AO1 T00001017
54779K12N 12N20160404074510004/04/16 07:45:31  5-MIN K12N 041245Z AUTO VRB03KT 00/M02 A2985 650 88 -900 VRB/03 RMK AO1 T00001017
54779K12N 12N20160404075010704/04/16 07:50:31  5-MIN K12N 041250Z AUTO 03004KT 00/M02 A2985 660 88 -900 050/04 RMK AO1 SLP117 T00001017
54779K12N 12N20160404075510004/04/16 07:55:31  5-MIN K12N 041255Z AUTO 03003KT 00/M02 A2985 650 88 -900 040/03 RMK AO1 T00001017
54779K12N 12N20160404080010004/04/16 08:00:31  5-MIN K12N 041300Z AUTO 03004KT 00/M02 A2984 660 88 -900 040/04 RMK AO1 T00001017
54779K12N 12N20160404080510004/04/16 08:05:31  5-MIN K12N 041305Z AUTO VRB03KT 00/M01 A2985 650 92 -900 VRB/03 RMK AO1 T00001011
54779K12N 12N20160404081010004/04/16 08:10:31  5-MIN K12N 041310Z AUTO VRB04KT 00/M01 A2984 660 92 -900 VRB/04 RMK AO1 T00001011
54779K12N 12N20160404081510004/04/16 08:15:31  5-MIN K12N 041315Z AUTO VRB04KT 00/M01 A2984 660 92 -900 VRB/04 RMK AO1 T00001011
54779K12N 12N20160404082010004/04/16 08:20:31  5-MIN K12N 041320Z AUTO VRB04KT 01/M01 A2984 660 89 -800 VRB/04 RMK AO1 T00061011
54779K12N 12N20160404082510004/04/16 08:25:31  5-MIN K12N 041325Z AUTO VRB03KT 01/M01 A2984 660 89 -800 VRB/03 RMK AO1 T00061011
54779K12N 12N20160404083010004/04/16 08:30:31  5-MIN K12N 041330Z AUTO VRB04KT 01/M01 A2983 670 89 -800 VRB/04 RMK AO1 T00061011
54779K12N 12N20160404083510004/04/16 08:35:31  5-MIN K12N 041335Z AUTO VRB04KT 01/M01 A2983 670 89 -800 VRB/04 RMK AO1 T00061011
54779K12N 12N20160404084010004/04/16 08:40:31  5-MIN K12N 041340Z AUTO VRB03KT 01/M01 A2983 670 89 -800 VRB/03 RMK AO1 T00061011
54779K12N 12N20160404084510004/04/16 08:45:31  5-MIN K12N 041345Z AUTO VRB04KT 01/M01 A2983 670 89 -800 VRB/04 RMK AO1 T00061011
54779K12N 12N20160404085010704/04/16 08:50:31  5-MIN K12N 041350Z AUTO 03003KT 01/M01 A2983 670 85 -800 040/03 RMK AO1 SLP111 T00111011
54779K12N 12N20160404085510004/04/16 08:55:31  5-MIN K12N 041355Z AUTO VRB04KT 01/M01 A2983 670 85 -800 VRB/04 RMK AO1 T00111011
54779K12N 12N20160404090010004/04/16 09:00:31  5-MIN K12N 041400Z AUTO VRB04KT 01/M01 A2983 670 89 -800 VRB/04 RMK AO1 T00061011
54779K12N 12N20160404090510004/04/16 09:05:31  5-MIN K12N 041405Z AUTO 00000KT 01/M01 A2983 670 85 -800 000/00 RMK AO1 T00111011
54779K12N 12N20160404091010004/04/16 09:10:31  5-MIN K12N 041410Z AUTO 01004KT 01/M01 A2983 670 85 -800 020/04 RMK AO1 T00111011
54779K12N 12N20160404091510004/04/16 09:15:31  5-MIN K12N 041415Z AUTO VRB03KT 01/M01 A2982 670 85 -800 VRB/03 RMK AO1 T00111011
54779K12N 12N20160404092010004/04/16 09:20:31  5-MIN K12N 041420Z AUTO VRB03KT 01/M01 A2982 680 85 -800 VRB/03 RMK AO1 T00111011
54779K12N 12N20160404092510004/04/16 09:25:31  5-MIN K12N 041425Z AUTO VRB04KT 01/M01 A2982 680 85 -800 VRB/04 RMK AO1 T00111011
54779K12N 12N20160404093010004/04/16 09:30:31  5-MIN K12N 041430Z AUTO 02003KT 01/M01 A2982 680 85 -800 030/03 RMK AO1 T00111011
54779K12N 12N20160404093510004/04/16 09:35:31  5-MIN K12N 041435Z AUTO VRB03KT 01/M01 A2982 680 85 -800 VRB/03 RMK AO1 T00111011
54779K12N 12N20160404094010004/04/16 09:40:31  5-MIN K12N 041440Z AUTO 03004KT 01/M01 A2982 680 85 -800 040/04 RMK AO1 T00111011
54779K12N 12N20160404094510004/04/16 09:45:31  5-MIN K12N 041445Z AUTO 04004KT 01/M01 A2982 680 89 -800 050/04 RMK AO1 T00111006
54779K12N 12N20160404095011304/04/16 09:50:31  5-MIN K12N 041450Z AUTO 36006KT 01/M01 A2982 670 89 -800 010/06 RMK AO1 SLP109 T00111006 58018
54779K12N 12N20160404095510004/04/16 09:55:31  5-MIN K12N 041455Z AUTO VRB03KT 01/M01 A2982 680 85 -800 VRB/03 RMK AO1 T00111011
54779K12N 12N20160404100010004/04/16 10:00:31  5-MIN K12N 041500Z AUTO 04006KT 01/M01 A2982 680 89 -800 060/06 RMK AO1 T00111006
54779K12N 12N20160404100510004/04/16 10:05:31  5-MIN K12N 041505Z AUTO 02004KT 01/M01 A2982 680 89 -800 040/04 RMK AO1 T00111006
54779K12N 12N20160404101010004/04/16 10:10:31  5-MIN K12N 041510Z AUTO VRB03KT 01/M01 A2982 680 89 -800 VRB/03 RMK AO1 T00111006
54779K12N 12N20160404101510004/04/16 10:15:31  5-MIN K12N 041515Z AUTO 36003KT 01/M01 A2983 670 89 -800 010/03 RMK AO1 T00111006
54779K12N 12N20160404102010004/04/16 10:20:31  5-MIN K12N 041520Z AUTO VRB03KT 01/M01 A2982 680 89 -800 VRB/03 RMK AO1 T00111006
54779K12N 12N20160404102510604/04/16 10:25:31  5-MIN K12N 041525Z AUTO VRB03KT 01/M01 A2981 680 89 -800 VRB/03 RMK AO1 P0001 T00111006
54779K12N 12N20160404103010604/04/16 10:30:31  5-MIN K12N 041530Z AUTO 04006KT 01/M01 A2981 690 89 -700 050/06 RMK AO1 P0001 T00111006
54779K12N 12N20160404103510604/04/16 10:35:31  5-MIN K12N 041535Z AUTO VRB03KT 01/M01 A2981 690 89 -700 VRB/03 RMK AO1 P0001 T00111006
54779K12N 12N20160404104010604/04/16 10:40:31  5-MIN K12N 041540Z AUTO VRB03KT 01/M01 A2981 690 89 -800 VRB/03 RMK AO1 P0001 T00111006
54779K12N 12N20160404104510604/04/16 10:45:31  5-MIN K12N 041545Z AUTO VRB03KT 01/M01 A2981 690 89 -700 VRB/03 RMK AO1 P0001 T00111006
54779K12N 12N20160404105011304/04/16 10:50:31  5-MIN K12N 041550Z AUTO 04005KT 01/M01 A2981 690 89 -700 050/05 RMK AO1 SLP104 P0002 T00111006
54779K12N 12N20160404105510604/04/16 10:55:31  5-MIN K12N 041555Z AUTO VRB03KT 01/M01 A2981 690 89 -700 VRB/03 RMK AO1 P0001 T00111006
54779K12N 12N20160404110010504/04/16 11:00:31  5-MIN K12N 041600Z AUTO 04005KT 01/00 A2981 690 92 -700 050/05 RMK AO1 P0001 T00110000
54779K12N 12N20160404110510504/04/16 11:05:31  5-MIN K12N 041605Z AUTO VRB04KT 01/00 A2980 690 92 -700 VRB/04 RMK AO1 P0002 T00110000
54779K12N 12N20160404111010504/04/16 11:10:31  5-MIN K12N 041610Z AUTO VRB03KT 01/00 A2980 690 92 -700 VRB/03 RMK AO1 P0003 T00110000
54779K12N 12N20160404111510504/04/16 11:15:31  5-MIN K12N 041615Z AUTO 03003KT 01/00 A2980 690 92 -700 050/03 RMK AO1 P0003 T00110000
54779K12N 12N20160404112010504/04/16 11:20:31  5-MIN K12N 041620Z AUTO VRB03KT 01/00 A2980 690 92 -700 VRB/03 RMK AO1 P0004 T00110000
54779K12N 12N20160404112510504/04/16 11:25:31  5-MIN K12N 041625Z AUTO 04004KT 01/00 A2980 700 92 -700 050/04 RMK AO1 P0004 T00110000
54779K12N 12N20160404113010504/04/16 11:30:31  5-MIN K12N 041630Z AUTO VRB04KT 01/00 A2979 700 92 -700 VRB/04 RMK AO1 P0004 T00110000
54779K12N 12N20160404113510504/04/16 11:35:31  5-MIN K12N 041635Z AUTO 00000KT 01/00 A2979 700 92 -700 000/00 RMK AO1 P0004 T00110000
54779K12N 12N20160404114010504/04/16 11:40:31  5-MIN K12N 041640Z AUTO VRB04KT 01/00 A2979 700 92 -700 VRB/04 RMK AO1 P0004 T00110000
54779K12N 12N20160404114510504/04/16 11:45:31  5-MIN K12N 041645Z AUTO 04004KT 01/00 A2979 710 92 -700 060/04 RMK AO1 P0005 T00110000
54779K12N 12N20160404115011204/04/16 11:50:31  5-MIN K12N 041650Z AUTO VRB03KT 02/01 A2979 710 92 -700 VRB/03 RMK AO1 SLP096 P0005 T00170006
54779K12N 12N20160404115509904/04/16 11:55:31  5-MIN K12N 041655Z AUTO VRB04KT 01/01 A2979 710 96 -700 VRB/04 RMK AO1 T00110006
54779K12N 12N20160404120009904/04/16 12:00:31  5-MIN K12N 041700Z AUTO VRB03KT 01/01 A2978 710 96 -700 VRB/03 RMK AO1 T00110006
54779K12N 12N20160404120509904/04/16 12:05:31  5-MIN K12N 041705Z AUTO VRB03KT 01/01 A2979 710 96 -700 VRB/03 RMK AO1 T00110006
54779K12N 12N20160404121009904/04/16 12:10:31  5-MIN K12N 041710Z AUTO VRB03KT 02/01 A2979 710 92 -700 VRB/03 RMK AO1 T00170006
54779K12N 12N20160404121509904/04/16 12:15:31  5-MIN K12N 041715Z AUTO 02004KT 01/01 A2979 710 96 -700 040/04 RMK AO1 T00110006
54779K12N 12N20160404122009904/04/16 12:20:31  5-MIN K12N 041720Z AUTO 04004KT 01/01 A2979 710 96 -700 050/04 RMK AO1 T00110006
54779K12N 12N20160404122509904/04/16 12:25:31  5-MIN K12N 041725Z AUTO VRB03KT 02/01 A2980 700 92 -700 VRB/03 RMK AO1 T00170006
54779K12N 12N20160404123009904/04/16 12:30:31  5-MIN K12N 041730Z AUTO VRB03KT 02/01 A2980 700 92 -700 VRB/03 RMK AO1 T00170006
54779K12N 12N20160404123509904/04/16 12:35:31  5-MIN K12N 041735Z AUTO 07003KT 02/01 A2980 700 92 -700 080/03 RMK AO1 T00170006
54779K12N 12N20160404124010504/04/16 12:40:31  5-MIN K12N 041740Z AUTO 00000KT 01/01 A2980 700 96 -700 000/00 RMK AO1 P0001 T00110006
54779K12N 12N20160404124510504/04/16 12:45:31  5-MIN K12N 041745Z AUTO 04004KT 02/01 A2979 700 92 -700 060/04 RMK AO1 P0001 T00170006
54779K12N 12N20160404125013604/04/16 12:50:31  5-MIN K12N 041750Z AUTO 03004KT 02/01 A2979 700 92 -700 040/04 RMK AO1 SLP097 P0001 60009 T00170006 10017 21006 56015
54779K12N 12N20160404125509904/04/16 12:55:31  5-MIN K12N 041755Z AUTO VRB03KT 02/01 A2979 700 92 -700 VRB/03 RMK AO1 T00170006
54779K12N 12N20160404130009904/04/16 13:00:31  5-MIN K12N 041800Z AUTO VRB04KT 02/01 A2979 700 92 -700 VRB/04 RMK AO1 T00170006
54779K12N 12N20160404130510504/04/16 13:05:31  5-MIN K12N 041805Z AUTO 04006KT 02/01 A2980 700 92 -700 050/06 RMK AO1 P0001 T00170006
54779K12N 12N20160404131010504/04/16 13:10:31  5-MIN K12N 041810Z AUTO 04005KT 01/00 A2980 700 92 -700 050/05 RMK AO1 P0001 T00110000
54779K12N 12N20160404131510504/04/16 13:15:31  5-MIN K12N 041815Z AUTO 03004KT 02/01 A2980 700 92 -700 040/04 RMK AO1 P0002 T00170006
54779K12N 12N20160404132010504/04/16 13:20:31  5-MIN K12N 041820Z AUTO VRB04KT 01/01 A2980 700 96 -700 VRB/04 RMK AO1 P0002 T00110006
54779K12N 12N20160404132510504/04/16 13:25:31  5-MIN K12N 041825Z AUTO VRB03KT 01/01 A2980 700 96 -700 VRB/03 RMK AO1 P0002 T00110006
54779K12N 12N20160404133010504/04/16 13:30:31  5-MIN K12N 041830Z AUTO VRB03KT 01/01 A2979 700 96 -700 VRB/03 RMK AO1 P0003 T00110006
54779K12N 12N20160404133510504/04/16 13:35:31  5-MIN K12N 041835Z AUTO 03005KT 01/01 A2980 700 96 -700 050/05 RMK AO1 P0003 T00110006
54779K12N 12N20160404134010504/04/16 13:40:31  5-MIN K12N 041840Z AUTO 04005KT 01/01 A2980 700 96 -700 050/05 RMK AO1 P0004 T00110006
54779K12N 12N20160404134510504/04/16 13:45:31  5-MIN K12N 041845Z AUTO VRB05KT 01/00 A2980 700 92 -700 VRB/05 RMK AO1 P0005 T00110000
54779K12N 12N20160404135011204/04/16 13:50:31  5-MIN K12N 041850Z AUTO 04007KT 01/00 A2980 700 92 -700 060/07 RMK AO1 SLP100 P0005 T00110000
54779K12N 12N20160404135509904/04/16 13:55:31  5-MIN K12N 041855Z AUTO 05005KT 01/01 A2979 700 96 -700 060/05 RMK AO1 T00110006
54779K12N 12N20160404140009904/04/16 14:00:31  5-MIN K12N 041900Z AUTO 04004KT 01/01 A2979 710 96 -700 050/04 RMK AO1 T00110006
54779K12N 12N20160404140509904/04/16 14:05:31  5-MIN K12N 041905Z AUTO 03004KT 01/01 A2979 710 96 -700 050/04 RMK AO1 T00110006
54779K12N 12N20160404141009904/04/16 14:10:31  5-MIN K12N 041910Z AUTO 03004KT 01/01 A2979 710 96 -700 040/04 RMK AO1 T00110006
54779K12N 12N20160404141510504/04/16 14:15:31  5-MIN K12N 041915Z AUTO VRB04KT 02/01 A2978 710 92 -600 VRB/04 RMK AO1 P0001 T00170006
54779K12N 12N20160404142010504/04/16 14:20:31  5-MIN K12N 041920Z AUTO VRB03KT 02/01 A2979 710 96 -700 VRB/03 RMK AO1 P0001 T00170011
54779K12N 12N20160404142510504/04/16 14:25:31  5-MIN K12N 041925Z AUTO VRB03KT 02/01 A2979 710 92 -700 VRB/03 RMK AO1 P0001 T00170006
54779K12N 12N20160404143010504/04/16 14:30:31  5-MIN K12N 041930Z AUTO 00000KT 01/01 A2979 710 96 -700 000/00 RMK AO1 P0001 T00110006
54779K12N 12N20160404143510504/04/16 14:35:31  5-MIN K12N 041935Z AUTO VRB03KT 02/01 A2979 710 92 -700 VRB/03 RMK AO1 P0002 T00170006
54779K12N 12N20160404144010504/04/16 14:40:31  5-MIN K12N 041940Z AUTO 04006KT 01/01 A2979 710 96 -700 050/06 RMK AO1 P0002 T00110006
54779K12N 12N20160404144510504/04/16 14:45:31  5-MIN K12N 041945Z AUTO 04006KT 01/01 A2979 710 96 -700 060/06 RMK AO1 P0003 T00110006
54779K12N 12N20160404145011204/04/16 14:50:31  5-MIN K12N 041950Z AUTO 04006KT 01/00 A2979 710 92 -700 050/06 RMK AO1 SLP097 P0004 T00110000
54779K12N 12N20160404145509904/04/16 14:55:31  5-MIN K12N 041955Z AUTO VRB05KT 01/00 A2979 700 92 -700 VRB/05 RMK AO1 T00110000
54779K12N 12N20160404150010504/04/16 15:00:31  5-MIN K12N 042000Z AUTO VRB06KT 01/01 A2979 700 96 -700 VRB/06 RMK AO1 P0001 T00110006
54779K12N 12N20160404150510504/04/16 15:05:31  5-MIN K12N 042005Z AUTO VRB05KT 01/01 A2980 700 96 -700 VRB/05 RMK AO1 P0002 T00110006
54779K12N 12N20160404151012104/04/16 15:10:31  5-MIN K12N 042010Z AUTO 03007KT 320V050 01/01 A2980 690 96 -700 040/07 330V060 RMK AO1 P0003 T00110006
54779K12N 12N20160404151510504/04/16 15:15:31  5-MIN K12N 042015Z AUTO 03007KT 01/00 A2981 690 96 -800 050/07 RMK AO1 P0003 T00060000
54779K12N 12N20160404152010504/04/16 15:20:31  5-MIN K12N 042020Z AUTO 04010KT 01/00 A2981 680 96 -800 050/10 RMK AO1 P0004 T00060000
54779K12N 12N20160404152512804/04/16 15:25:31  5-MIN K12N 042025Z AUTO 03008G14KT 330V060 01/M01 A2982 680 92 -800 040/08G14 340V070 RMK AO1 P0004 T00061006
54779K12N 12N20160404153011204/04/16 15:30:31  5-MIN K12N 042030Z AUTO 04007G14KT 01/M01 A2982 680 92 -800 050/07G14 RMK AO1 P0004 T00061006
54779K12N 12N20160404153511304/04/16 15:35:31  5-MIN K12N 042035Z AUTO 03008KT 00/M01 A2983 670 96 -900 040/08 RMK AO1 PRESRR P0005 T00001006
54779K12N 12N20160404154012904/04/16 15:40:31  5-MIN K12N 042040Z AUTO 03007KT 360V060 01/M01 A2984 660 92 -800 040/07 010V070 RMK AO1 PRESRR P0005 T00061006
54779K12N 12N20160404154510604/04/16 15:45:31  5-MIN K12N 042045Z AUTO 03008KT 00/M01 A2984 660 96 -900 050/08 RMK AO1 P0005 T00001006
54779K12N 12N20160404155012504/04/16 15:50:31  5-MIN K12N 042050Z AUTO 03007KT 01/M01 A2984 660 92 -900 050/07 RMK AO1 SLP114 P0005 60015 T00061006 55009
54779K12N 12N20160404155510004/04/16 15:55:31  5-MIN K12N 042055Z AUTO VRB06KT 01/M01 A2984 660 92 -900 VRB/06 RMK AO1 T00061006
54779K12N 12N20160404160012204/04/16 16:00:31  5-MIN K12N 042100Z AUTO 03007G14KT 350V060 01/M01 A2984 660 92 -900 040/07G14 360V070 RMK AO1 T00061006
54779K12N 12N20160404160512204/04/16 16:05:31  5-MIN K12N 042105Z AUTO 03008G15KT 340V050 00/M01 A2985 650 92 -900 050/08G15 350V060 RMK AO1 T00001011
54779K12N 12N20160404161010604/04/16 16:10:31  5-MIN K12N 042110Z AUTO 05008G15KT 00/M01 A2985 650 92 -900 060/08G15 RMK AO1 T00001011
54779K12N 12N20160404161510004/04/16 16:15:31  5-MIN K12N 042115Z AUTO 03007KT 00/M01 A2985 650 92 -900 050/07 RMK AO1 T00001011
54779K12N 12N20160404162010004/04/16 16:20:31  5-MIN K12N 042120Z AUTO 03008KT 00/M01 A2985 650 92 -900 050/08 RMK AO1 T00001011
54779K12N 12N20160404162510004/04/16 16:25:31  5-MIN K12N 042125Z AUTO 04008KT 00/M01 A2985 650 92 -900 050/08 RMK AO1 T00001011
54779K12N 12N20160404163011604/04/16 16:30:31  5-MIN K12N 042130Z AUTO 04007KT 340V060 00/M01 A2986 640 92 -900 050/07 350V070 RMK AO1 T00001011
54779K12N 12N20160404163511604/04/16 16:35:31  5-MIN K12N 042135Z AUTO 04007KT 360V060 00/M01 A2986 640 92 -900 050/07 010V070 RMK AO1 T00001011
54779K12N 12N20160404164010104/04/16 16:40:31  5-MIN K12N 042140Z AUTO 03007KT 00/M01 A2987 640 92 -1000 050/07 RMK AO1 T00001011
54779K12N 12N20160404164511304/04/16 16:45:31  5-MIN K12N 042145Z AUTO 36010G14KT 00/M01 A2987 630 92 -1000 010/10G14 RMK AO1 P0001 T00001011
54779K12N 12N20160404165012004/04/16 16:50:31  5-MIN K12N 042150Z AUTO VRB05G14KT 00/M01 A2988 630 92 -1000 VRB/05G14 RMK AO1 SLP127 P0001 T00001011
54779K12N 12N20160404165511704/04/16 16:55:31  5-MIN K12N 042155Z AUTO 03008KT 360V060 00/M01 A2988 620 92 -1000 050/08 010V070 RMK AO1 T00001011
54779K12N 12N20160404170010104/04/16 17:00:31  5-MIN K12N 042200Z AUTO 05008KT 00/M01 A2988 630 92 -1000 060/08 RMK AO1 T00001011
54779K12N 12N20160404170511704/04/16 17:05:31  5-MIN K12N 042205Z AUTO 04008KT 360V060 00/M01 A2988 620 92 -1000 050/08 010V070 RMK AO1 T00001011
54779K12N 12N20160404171010104/04/16 17:10:31  5-MIN K12N 042210Z AUTO 04010KT 00/M01 A2988 620 92 -1000 050/10 RMK AO1 T00001011
54779K12N 12N20160404171510804/04/16 17:15:31  5-MIN K12N 042215Z AUTO 04007G16KT M01/M02 A2989 620 92 -1000 050/07G16 RMK AO1 T10061017
54779K12N 12N20160404172010804/04/16 17:20:31  5-MIN K12N 042220Z AUTO 03006G16KT M01/M02 A2989 610 92 -1100 040/06G16 RMK AO1 T10061017
54779K12N 12N20160404172510804/04/16 17:25:31  5-MIN K12N 042225Z AUTO 04009G14KT M01/M02 A2989 610 92 -1100 050/09G14 RMK AO1 T10061017
54779K12N 12N20160404173010804/04/16 17:30:31  5-MIN K12N 042230Z AUTO 04008G14KT M01/M02 A2990 610 88 -1100 050/08G14 RMK AO1 T10061022
54779K12N 12N20160404173510204/04/16 17:35:31  5-MIN K12N 042235Z AUTO 04007KT M01/M02 A2990 600 92 -1100 050/07 RMK AO1 T10061017
54779K12N 12N20160404174010204/04/16 17:40:31  5-MIN K12N 042240Z AUTO 04008KT M01/M02 A2990 610 92 -1100 050/08 RMK AO1 T10061017
54779K12N 12N20160404174510204/04/16 17:45:31  5-MIN K12N 042245Z AUTO 03006KT M01/M02 A2991 600 92 -1100 040/06 RMK AO1 T10061017
54779K12N 12N20160404175012504/04/16 17:50:31  5-MIN K12N 042250Z AUTO 04009KT 350V060 M01/M02 A2990 600 92 -1100 050/09 360V070 RMK AO1 SLP137 T10061017
54779K12N 12N20160404175511804/04/16 17:55:31  5-MIN K12N 042255Z AUTO 04008KT 350V060 M01/M02 A2991 600 92 -1100 050/08 360V070 RMK AO1 T10061017
54779K12N 12N20160404180010204/04/16 18:00:31  5-MIN K12N 042300Z AUTO 04008KT M01/M02 A2991 600 92 -1100 050/08 RMK AO1 T10061017
54779K12N 12N20160404180511804/04/16 18:05:31  5-MIN K12N 042305Z AUTO 04008KT 010V070 M01/M02 A2991 600 92 -1100 050/08 020V080 RMK AO1 T10061017
54779K12N 12N20160404181011804/04/16 18:10:31  5-MIN K12N 042310Z AUTO 04007KT 360V060 M01/M02 A2991 590 92 -1100 050/07 010V070 RMK AO1 T10061017
54779K12N 12N20160404181510204/04/16 18:15:31  5-MIN K12N 042315Z AUTO 03008KT M01/M02 A2992 590 92 -1100 050/08 RMK AO1 T10061017
54779K12N 12N20160405042510204/05/16 04:25:31  5-MIN K12N 050925Z AUTO VRB05KT M06/M09 A3017 360 81 -2100 VRB/05 RMK AO1 T10611089
54779K12N 12N20160405043010904/05/16 04:30:31  5-MIN K12N 050930Z AUTO VRB05KT M06/M08 A3018 350 84 -2100 VRB/05 RMK AO1 PRESRR T10611083
54779K12N 12N20160405043510904/05/16 04:35:31  5-MIN K12N 050935Z AUTO VRB04KT M06/M08 A3018 340 84 -2100 VRB/04 RMK AO1 PRESRR T10611083
54779K12N 12N20160405044010904/05/16 04:40:31  5-MIN K12N 050940Z AUTO 06004KT M06/M08 A3019 340 84 -2100 070/04 RMK AO1 PRESRR T10611083
54779K12N 12N20160405044510904/05/16 04:45:31  5-MIN K12N 050945Z AUTO 06005KT M06/M09 A3020 330 81 -2100 070/05 RMK AO1 PRESRR T10611089
54779K12N 12N20160405045010904/05/16 04:50:31  5-MIN K12N 050950Z AUTO 04005KT M06/M09 A3020 330 81 -2100 050/05 RMK AO1 SLP240 T10611089
54779K12N 12N20160405045510204/05/16 04:55:31  5-MIN K12N 050955Z AUTO 04005KT M06/M09 A3020 330 81 -2100 050/05 RMK AO1 T10611089
54779K12N 12N20160405050010204/05/16 05:00:31  5-MIN K12N 051000Z AUTO VRB04KT M06/M09 A3021 320 81 -2100 VRB/04 RMK AO1 T10611089
54779K12N 12N20160405050510204/05/16 05:05:31  5-MIN K12N 051005Z AUTO 04004KT M06/M09 A3021 320 81 -2100 060/04 RMK AO1 T10611089
54779K12N 12N20160405051010204/05/16 05:10:31  5-MIN K12N 051010Z AUTO 06004KT M06/M09 A3021 310 81 -2100 070/04 RMK AO1 T10611089
54779K12N 12N20160405051510204/05/16 05:15:31  5-MIN K12N 051015Z AUTO 08003KT M06/M09 A3022 310 81 -2100 090/03 RMK AO1 T10611089
54779K12N 12N20160405052010204/05/16 05:20:31  5-MIN K12N 051020Z AUTO 05003KT M06/M09 A3022 310 81 -2100 060/03 RMK AO1 T10611089
54779K12N 12N20160405052510204/05/16 05:25:31  5-MIN K12N 051025Z AUTO 04004KT M06/M09 A3022 310 77 -2100 050/04 RMK AO1 T10611094
54779K12N 12N20160405053010204/05/16 05:30:31  5-MIN K12N 051030Z AUTO 05005KT M06/M09 A3022 310 77 -2100 060/05 RMK AO1 T10611094
54779K12N 12N20160405053510204/05/16 05:35:31  5-MIN K12N 051035Z AUTO VRB04KT M06/M09 A3022 310 77 -2100 VRB/04 RMK AO1 T10611094
54779K12N 12N20160405054010204/05/16 05:40:31  5-MIN K12N 051040Z AUTO 05004KT M06/M09 A3023 300 81 -2100 060/04 RMK AO1 T10611089
54779K12N 12N20160405054510204/05/16 05:45:31  5-MIN K12N 051045Z AUTO VRB04KT M06/M09 A3023 300 81 -2200 VRB/04 RMK AO1 T10611089
54779K12N 12N20160405055010904/05/16 05:50:31  5-MIN K12N 051050Z AUTO 36006KT M06/M09 A3023 300 81 -2200 010/06 RMK AO1 SLP250 T10611089
54779K12N 12N20160405055510204/05/16 05:55:31  5-MIN K12N 051055Z AUTO 36005KT M06/M09 A3023 300 81 -2200 010/05 RMK AO1 T10611089
54779K12N 12N20160405060010204/05/16 06:00:31  5-MIN K12N 051100Z AUTO 36006KT M06/M09 A3024 290 81 -2200 010/06 RMK AO1 T10611089
54779K12N 12N20160405060510204/05/16 06:05:31  5-MIN K12N 051105Z AUTO 36005KT M06/M09 A3024 290 81 -2200 020/05 RMK AO1 T10611089
54779K12N 12N20160405061010204/05/16 06:10:31  5-MIN K12N 051110Z AUTO VRB05KT M06/M09 A3024 290 81 -2200 VRB/05 RMK AO1 T10611089
54779K12N 12N20160405061510204/05/16 06:15:31  5-MIN K12N 051115Z AUTO VRB05KT M06/M08 A3024 290 81 -2100 VRB/05 RMK AO1 T10561083
54779K12N 12N20160405062010204/05/16 06:20:31  5-MIN K12N 051120Z AUTO 04007KT M06/M08 A3024 290 81 -2100 050/07 RMK AO1 T10561083
54779K12N 12N20160405062510204/05/16 06:25:31  5-MIN K12N 051125Z AUTO 05005KT M06/M09 A3025 290 77 -2100 060/05 RMK AO1 T10561089
54779K12N 12N20160405063010204/05/16 06:30:31  5-MIN K12N 051130Z AUTO 05006KT M06/M09 A3025 290 77 -2100 060/06 RMK AO1 T10561089
54779K12N 12N20160405063510204/05/16 06:35:31  5-MIN K12N 051135Z AUTO 04007KT M05/M09 A3025 280 71 -2000 050/07 RMK AO1 T10501094
54779K12N 12N20160405064010204/05/16 06:40:31  5-MIN K12N 051140Z AUTO VRB05KT M04/M09 A3025 280 68 -2000 VRB/05 RMK AO1 T10441094
54779K12N 12N20160405064511804/05/16 06:45:31  5-MIN K12N 051145Z AUTO 01007KT 350V050 M04/M09 A3025 280 68 -2000 030/07 360V060 RMK AO1 T10441094
54779K12N 12N20160405065013304/05/16 06:50:31  5-MIN K12N 051150Z AUTO 01006KT M04/M10 A3025 280 65 -2000 030/06 RMK AO1 SLP257 70026 T10441100 11039 21061 53017
54779K12N 12N20160405065510204/05/16 06:55:31  5-MIN K12N 051155Z AUTO 01008KT M04/M11 A3025 280 60 -1900 020/08 RMK AO1 T10391106
54779K12N 12N20160405070010204/05/16 07:00:31  5-MIN K12N 051200Z AUTO 01009KT M04/M11 A3026 280 60 -1900 020/09 RMK AO1 T10391106
54779K12N 12N20160405070511804/05/16 07:05:31  5-MIN K12N 051205Z AUTO 36009KT 340V060 M04/M11 A3026 280 57 -1900 020/09 350V070 RMK AO1 T10391111
54779K12N 12N20160405071010204/05/16 07:10:31  5-MIN K12N 051210Z AUTO 01006KT M04/M11 A3026 270 57 -1900 030/06 RMK AO1 T10391111
54779K12N 12N20160405071510204/05/16 07:15:31  5-MIN K12N 051215Z AUTO 01009KT M04/M11 A3026 270 60 -1900 020/09 RMK AO1 T10391106
54779K12N 12N20160405072010804/05/16 07:20:31  5-MIN K12N 051220Z AUTO 01007G14KT M04/M11 A3026 270 57 -1900 020/07G14 RMK AO1 T10391111
54779K12N 12N20160405072512404/05/16 07:25:31  5-MIN K12N 051225Z AUTO 01008G14KT 340V060 M03/M11 A3026 270 57 -1800 030/08G14 350V070 RMK AO1 T10331106
54779K12N 12N20160405073012404/05/16 07:30:31  5-MIN K12N 051230Z AUTO 01009G15KT 340V040 M03/M11 A3026 270 55 -1800 020/09G15 350V050 RMK AO1 T10331111
54779K12N 12N20160405073510804/05/16 07:35:31  5-MIN K12N 051235Z AUTO 35010G16KT M03/M12 A3027 260 53 -1800 360/10G16 RMK AO1 T10331117
54779K12N 12N20160405074012404/05/16 07:40:31  5-MIN K12N 051240Z AUTO 03009G17KT 350V050 M03/M12 A3027 260 53 -1800 040/09G17 360V060 RMK AO1 T10331117
54779K12N 12N20160405074510804/05/16 07:45:31  5-MIN K12N 051245Z AUTO 01007G17KT M03/M12 A3027 260 53 -1800 030/07G17 RMK AO1 T10331117
54779K12N 12N20160405075011504/05/16 07:50:31  5-MIN K12N 051250Z AUTO 03008G16KT M03/M11 A3027 260 55 -1800 050/08G16 RMK AO1 SLP264 T10331111
54779K12N 12N20160405075512404/05/16 07:55:31  5-MIN K12N 051255Z AUTO 01009G15KT 350V050 M03/M12 A3028 260 53 -1800 030/09G15 360V060 RMK AO1 T10331117
54779K12N 12N20160405080012404/05/16 08:00:31  5-MIN K12N 051300Z AUTO 01007G19KT 320V040 M03/M12 A3028 250 48 -1800 020/07G19 330V050 RMK AO1 T10281122
54779K12N 12N20160405080510804/05/16 08:05:31  5-MIN K12N 051305Z AUTO 36009G19KT M03/M12 A3028 250 50 -1900 010/09G19 RMK AO1 T10331122
54779K12N 12N20160405081010804/05/16 08:10:31  5-MIN K12N 051310Z AUTO 04009G17KT M03/M12 A3029 250 50 -1900 050/09G17 RMK AO1 T10331122
54779K12N 12N20160405081510804/05/16 08:15:31  5-MIN K12N 051315Z AUTO 04013G18KT M03/M12 A3029 250 48 -1800 060/13G18 RMK AO1 T10281122
54779K12N 12N20160405082010804/05/16 08:20:31  5-MIN K12N 051320Z AUTO 03009G18KT M03/M13 A3029 240 48 -1900 040/09G18 RMK AO1 T10331128
54779K12N 12N20160405082512404/05/16 08:25:31  5-MIN K12N 051325Z AUTO 03008G16KT 340V050 M03/M11 A3030 240 53 -1800 040/08G16 350V060 RMK AO1 T10281111
54779K12N 12N20160405083010804/05/16 08:30:31  5-MIN K12N 051330Z AUTO VRB06G14KT M03/M12 A3030 240 48 -1800 VRB/06G14 RMK AO1 T10281122
54779K12N 12N20160405083510804/05/16 08:35:31  5-MIN K12N 051335Z AUTO 04014G19KT M03/M13 A3030 240 46 -1800 060/14G19 RMK AO1 T10281128
54779K12N 12N20160405084012404/05/16 08:40:31  5-MIN K12N 051340Z AUTO 03009G20KT 350V050 M03/M12 A3030 240 48 -1800 040/09G20 360V060 RMK AO1 T10281122
54779K12N 12N20160405084510804/05/16 08:45:31  5-MIN K12N 051345Z AUTO 04015G20KT M03/M12 A3030 230 50 -1800 050/15G20 RMK AO1 T10281117
54779K12N 12N20160405085011504/05/16 08:50:31  5-MIN K12N 051350Z AUTO VRB05G19KT M03/M13 A3031 230 46 -1800 VRB/05G19 RMK AO1 SLP275 T10281128
54779K12N 12N20160405085510804/05/16 08:55:31  5-MIN K12N 051355Z AUTO 35010G19KT M02/M12 A3031 230 48 -1700 010/10G19 RMK AO1 T10221117
54779K12N 12N20160405090010804/05/16 09:00:31  5-MIN K12N 051400Z AUTO VRB06G16KT M02/M11 A3031 230 49 -1700 VRB/06G16 RMK AO1 T10171111
54779K12N 12N20160405090509204/05/16 09:05:31  5-MIN K12N 051405Z AUTO M02/M11 A3031 230 49 -1700 M /M RMK AO1 T10171111
54779K12N 12N20160405091011804/05/16 09:10:31  5-MIN K12N 051410Z AUTO 02007KT 340V070 M02/M12 A3031 230 46 -1700 030/07 350V080 RMK AO1 T10171117
54779K12N 12N20160405091510804/05/16 09:15:31  5-MIN K12N 051415Z AUTO 36010G18KT M02/M12 A3031 230 46 -1700 010/10G18 RMK AO1 T10221122
54779K12N 12N20160405092012404/05/16 09:20:31  5-MIN K12N 051420Z AUTO 36009G18KT 330V040 M02/M12 A3031 220 46 -1700 010/09G18 340V050 RMK AO1 T10171117
54779K12N 12N20160405092511804/05/16 09:25:31  5-MIN K12N 051425Z AUTO 02007KT 340V050 M01/M11 A3031 220 47 -1600 030/07 350V060 RMK AO1 T10111111
54779K12N 12N20160405093010804/05/16 09:30:31  5-MIN K12N 051430Z AUTO 02009G15KT M01/M11 A3031 220 47 -1600 040/09G15 RMK AO1 T10111111
54779K12N 12N20160405093510804/05/16 09:35:31  5-MIN K12N 051435Z AUTO 01008G15KT M02/M11 A3031 220 49 -1700 020/08G15 RMK AO1 T10171111
54779K12N 12N20160405094012404/05/16 09:40:31  5-MIN K12N 051440Z AUTO 01008G17KT 350V050 M02/M12 A3032 220 44 -1700 020/08G17 360V060 RMK AO1 T10171122
54779K12N 12N20160405094512404/05/16 09:45:31  5-MIN K12N 051445Z AUTO 36007G17KT 330V040 M01/M11 A3032 220 47 -1600 010/07G17 340V050 RMK AO1 T10111111
54779K12N 12N20160405095013704/05/16 09:50:31  5-MIN K12N 051450Z AUTO 01008G18KT 350V050 M01/M11 A3032 220 47 -1600 020/08G18 360V060 RMK AO1 SLP281 T10111111 51035
54779K12N 12N20160405095512404/05/16 09:55:31  5-MIN K12N 051455Z AUTO 01010G19KT 340V050 M01/M13 A3032 220 41 -1600 020/10G19 350V060 RMK AO1 T10111128
54779K12N 12N20160405100009204/05/16 10:00:31  5-MIN K12N 051500Z AUTO M01/M12 A3032 210 45 -1600 M /M RMK AO1 T10111117
54779K12N 12N20160405100510804/05/16 10:05:31  5-MIN K12N 051505Z AUTO 04013G19KT M01/M12 A3033 210 43 -1600 050/13G19 RMK AO1 T10111122
54779K12N 12N20160405101012404/05/16 10:10:31  5-MIN K12N 051510Z AUTO 02007G19KT 330V060 M01/M12 A3033 210 45 -1600 030/07G19 340V070 RMK AO1 T10111117
54779K12N 12N20160405101510804/05/16 10:15:31  5-MIN K12N 051515Z AUTO 04010G17KT M01/M12 A3033 210 45 -1600 060/10G17 RMK AO1 T10111117
54779K12N 12N20160405102012404/05/16 10:20:31  5-MIN K12N 051520Z AUTO 01007G18KT 340V040 M01/M12 A3033 210 43 -1600 020/07G18 350V050 RMK AO1 T10061117
54779K12N 12N20160405102512304/05/16 10:25:31  5-MIN K12N 051525Z AUTO 02009G18KT 350V070 01/M11 A3033 210 43 -1400 040/09G18 360V080 RMK AO1 T00061106
54779K12N 12N20160405103010704/05/16 10:30:31  5-MIN K12N 051530Z AUTO VRB06G17KT 00/M12 A3033 210 41 -1500 VRB/06G17 RMK AO1 T00001117
54779K12N 12N20160405103512304/05/16 10:35:31  5-MIN K12N 051535Z AUTO 03008G17KT 340V050 00/M11 A3033 210 45 -1500 050/08G17 350V060 RMK AO1 T00001106
54779K12N 12N20160405104012304/05/16 10:40:31  5-MIN K12N 051540Z AUTO 35009G16KT 320V050 00/M12 A3032 210 41 -1500 360/09G16 330V060 RMK AO1 T00001117
54779K12N 12N20160405104510704/05/16 10:45:31  5-MIN K12N 051545Z AUTO 03008G16KT 01/M11 A3033 210 41 -1400 050/08G16 RMK AO1 T00061111
54779K12N 12N20160405105013004/05/16 10:50:31  5-MIN K12N 051550Z AUTO 03007G15KT 350V060 00/M12 A3032 210 39 -1500 040/07G15 360V070 RMK AO1 SLP280 T00001122
54779K12N 12N20160405105509104/05/16 10:55:31  5-MIN K12N 051555Z AUTO 01/M12 A3032 210 39 -1400 M /M RMK AO1 T00061117
54779K12N 12N20160405110011704/05/16 11:00:31  5-MIN K12N 051600Z AUTO 36008KT 310V020 01/M13 A3032 210 36 -1400 010/08 320V030 RMK AO1 T00061128
54779K12N 12N20160405110512304/05/16 11:05:31  5-MIN K12N 051605Z AUTO 03009G16KT 340V060 00/M13 A3032 220 38 -1500 040/09G16 350V070 RMK AO1 T00001128
54779K12N 12N20160405111012304/05/16 11:10:31  5-MIN K12N 051610Z AUTO 03009G16KT 340V060 00/M12 A3032 220 39 -1500 050/09G16 350V070 RMK AO1 T00001122
54779K12N 12N20160405111512304/05/16 11:15:31  5-MIN K12N 051615Z AUTO 01010G17KT 340V050 01/M12 A3032 220 38 -1400 030/10G17 350V060 RMK AO1 T00061122
54779K12N 12N20160405112012304/05/16 11:20:31  5-MIN K12N 051620Z AUTO 03010G20KT 340V050 01/M12 A3031 220 38 -1300 040/10G20 350V060 RMK AO1 T00111117
54779K12N 12N20160405112512304/05/16 11:25:31  5-MIN K12N 051625Z AUTO 02009G20KT 340V050 01/M12 A3031 230 38 -1300 030/09G20 350V060 RMK AO1 T00111117
54779K12N 12N20160405113012304/05/16 11:30:31  5-MIN K12N 051630Z AUTO 03009G17KT 340V060 01/M12 A3031 230 36 -1300 050/09G17 350V070 RMK AO1 T00111122
54779K12N 12N20160405113510704/05/16 11:35:31  5-MIN K12N 051635Z AUTO 03009G16KT 01/M12 A3031 230 36 -1300 050/09G16 RMK AO1 T00111122
54779K12N 12N20160405114010704/05/16 11:40:31  5-MIN K12N 051640Z AUTO 04010G16KT 01/M13 A3031 230 35 -1300 050/10G16 RMK AO1 T00111128
54779K12N 12N20160405114512304/05/16 11:45:31  5-MIN K12N 051645Z AUTO 36011G19KT 320V050 02/M13 A3031 230 32 -1300 010/11G19 330V060 RMK AO1 T00171133
54779K12N 12N20160405115013004/05/16 11:50:31  5-MIN K12N 051650Z AUTO 02007G19KT 340V060 02/M14 A3031 230 30 -1200 030/07G19 350V070 RMK AO1 SLP274 T00171139
54779K12N 12N20160405115510704/05/16 11:55:31  5-MIN K12N 051655Z AUTO 35009G15KT 02/M13 A3030 240 32 -1200 360/09G15 RMK AO1 T00221128
54779K12N 12N20160405120012304/05/16 12:00:31  5-MIN K12N 051700Z AUTO 01009G17KT 340V040 02/M13 A3030 230 31 -1200 020/09G17 350V050 RMK AO1 T00221133
54779K12N 12N20160405120512304/05/16 12:05:31  5-MIN K12N 051705Z AUTO 02008G17KT 330V060 02/M14 A3030 230 29 -1200 030/08G17 340V070 RMK AO1 T00171144
54779K12N 12N20160405121012304/05/16 12:10:31  5-MIN K12N 051710Z AUTO 02008G17KT 340V050 02/M13 A3030 240 31 -1200 030/08G17 350V060 RMK AO1 T00221133
54779K12N 12N20160405121510704/05/16 12:15:31  5-MIN K12N 051715Z AUTO 34013G22KT 02/M13 A3030 230 31 -1200 360/13G22 RMK AO1 T00221133
54779K12N 12N20160405122012304/05/16 12:20:31  5-MIN K12N 051720Z AUTO 01008G22KT 340V060 02/M14 A3030 230 29 -1200 030/08G22 350V070 RMK AO1 T00221139
54779K12N 12N20160405122510704/05/16 12:25:31  5-MIN K12N 051725Z AUTO 01008G19KT 02/M14 A3031 230 29 -1200 030/08G19 RMK AO1 T00221139
54779K12N 12N20160405123010704/05/16 12:30:31  5-MIN K12N 051730Z AUTO 35012G18KT 02/M14 A3031 230 28 -1200 010/12G18 RMK AO1 T00221144
54779K12N 12N20160405123510704/05/16 12:35:31  5-MIN K12N 051735Z AUTO 33012G19KT 02/M15 A3030 230 27 -1200 350/12G19 RMK AO1 T00221150
54779K12N 12N20160405124012304/05/16 12:40:31  5-MIN K12N 051740Z AUTO 35015G20KT 320V030 02/M15 A3030 240 27 -1200 360/15G20 330V040 RMK AO1 T00221150
54779K12N 12N20160405124510704/05/16 12:45:31  5-MIN K12N 051745Z AUTO 35012G21KT 02/M16 A3030 240 26 -1200 360/12G21 RMK AO1 T00221156
54779K12N 12N20160405125014804/05/16 12:50:31  5-MIN K12N 051750Z AUTO 01011G21KT 330V050 03/M14 A3029 240 27 -1100 020/11G21 340V060 RMK AO1 SLP270 T00281144 10028 21039 51023
54779K12N 12N20160405125510704/05/16 12:55:31  5-MIN K12N 051755Z AUTO 04009G19KT 03/M13 A3030 240 31 -1100 050/09G19 RMK AO1 T00281128
54779K12N 12N20160405130010704/05/16 13:00:31  5-MIN K12N 051800Z AUTO 03009G19KT 03/M12 A3029 240 31 -1000 050/09G19 RMK AO1 T00331122
54779K12N 12N20160405130512304/05/16 13:05:31  5-MIN K12N 051805Z AUTO 03010G15KT 350V050 03/M13 A3029 240 30 -1000 050/10G15 360V060 RMK AO1 T00331128
54779K12N 12N20160405131012304/05/16 13:10:31  5-MIN K12N 051810Z AUTO 02007G15KT 340V070 03/M14 A3029 250 28 -1100 030/07G15 350V080 RMK AO1 T00281139
54779K12N 12N20160405131510704/05/16 13:15:31  5-MIN K12N 051815Z AUTO VRB06G15KT 03/M14 A3029 240 26 -1000 VRB/06G15 RMK AO1 T00331144
54779K12N 12N20160405132012304/05/16 13:20:31  5-MIN K12N 051820Z AUTO 01008G15KT 330V060 03/M14 A3029 250 27 -1000 020/08G15 340V070 RMK AO1 T00331139
54779K12N 12N20160405132512304/05/16 13:25:31  5-MIN K12N 051825Z AUTO 01008G15KT 330V050 03/M14 A3029 250 27 -1000 020/08G15 340V060 RMK AO1 T00331139
54779K12N 12N20160405133012304/05/16 13:30:31  5-MIN K12N 051830Z AUTO 31010G16KT 280V340 03/M15 A3028 250 25 -1000 320/10G16 290V350 RMK AO1 T00331150
54779K12N 12N20160405133510704/05/16 13:35:31  5-MIN K12N 051835Z AUTO 36015G20KT 03/M14 A3029 250 26 -1000 010/15G20 RMK AO1 T00331144
54779K12N 12N20160405134012304/05/16 13:40:31  5-MIN K12N 051840Z AUTO 36012G20KT 340V040 03/M16 A3029 250 24 -1000 010/12G20 350V050 RMK AO1 T00331156
54779K12N 12N20160405134510704/05/16 13:45:31  5-MIN K12N 051845Z AUTO 35010G17KT 03/M15 A3029 250 25 -1000 010/10G17 RMK AO1 T00331150
54779K12N 12N20160405135011404/05/16 13:50:31  5-MIN K12N 051850Z AUTO 35008G15KT 03/M14 A3029 250 26 -1000 010/08G15 RMK AO1 SLP268 T00331144
54779K12N 12N20160405135512304/05/16 13:55:31  5-MIN K12N 051855Z AUTO 34007G15KT 280V360 04/M14 A3029 250 25 -1000 350/07G15 290V010 RMK AO1 T00391144
54779K12N 12N20160405140012204/05/16 14:00:31  5-MIN K12N 051900Z AUTO 34008G16KT 310V010 04/M15 A3029 250 24 -900 350/08G16 320V020 RMK AO1 T00391150
54779K12N 12N20160405140510604/05/16 14:05:31  5-MIN K12N 051905Z AUTO 36008G19KT 04/M15 A3028 250 24 -900 010/08G19 RMK AO1 T00391150
54779K12N 12N20160405141010704/05/16 14:10:31  5-MIN K12N 051910Z AUTO 34009G19KT 03/M15 A3028 250 25 -1000 350/09G19 RMK AO1 T00331150
54779K12N 12N20160405141512204/05/16 14:15:31  5-MIN K12N 051915Z AUTO 33008G19KT 260V010 04/M16 A3028 250 23 -900 340/08G19 270V020 RMK AO1 T00391156
54779K12N 12N20160405142012204/05/16 14:20:31  5-MIN K12N 051920Z AUTO 35010G18KT 310V020 04/M16 A3028 250 23 -900 360/10G18 320V030 RMK AO1 T00391156
54779K12N 12N20160405142512304/05/16 14:25:31  5-MIN K12N 051925Z AUTO 34007G18KT 300V010 03/M16 A3028 260 24 -1000 350/07G18 310V020 RMK AO1 T00331156
54779K12N 12N20160405143012204/05/16 14:30:31  5-MIN K12N 051930Z AUTO 34008G17KT 280V020 04/M15 A3028 260 24 -900 350/08G17 290V030 RMK AO1 T00391150
54779K12N 12N20160405143512304/05/16 14:35:31  5-MIN K12N 051935Z AUTO 34007G17KT 310V020 03/M16 A3028 260 23 -1000 360/07G17 320V030 RMK AO1 T00331161
54779K12N 12N20160405144010604/05/16 14:40:31  5-MIN K12N 051940Z AUTO 35008G17KT 04/M15 A3028 250 24 -900 360/08G17 RMK AO1 T00391150
54779K12N 12N20160405144512204/05/16 14:45:31  5-MIN K12N 051945Z AUTO 36011G16KT 330V050 04/M16 A3028 250 22 -900 020/11G16 340V060 RMK AO1 T00391161
54779K12N 12N20160405145011404/05/16 14:50:31  5-MIN K12N 051950Z AUTO 35010G18KT 03/M16 A3028 250 23 -1000 360/10G18 RMK AO1 SLP267 T00331161
54779K12N 12N20160405145510604/05/16 14:55:31  5-MIN K12N 051955Z AUTO 35004G18KT 04/M15 A3028 250 24 -900 010/04G18 RMK AO1 T00391150
54779K12N 12N20160405150010004/05/16 15:00:31  5-MIN K12N 052000Z AUTO 30009KT 04/M16 A3028 250 23 -900 320/09 RMK AO1 T00391156
54779K12N 12N20160405150511604/05/16 15:05:31  5-MIN K12N 052005Z AUTO 36007KT 310V030 04/M16 A3028 250 23 -900 010/07 320V040 RMK AO1 T00391156
54779K12N 12N20160405151012204/05/16 15:10:31  5-MIN K12N 052010Z AUTO 01008G15KT 330V050 04/M16 A3028 250 23 -900 020/08G15 340V060 RMK AO1 T00391156
54779K12N 12N20160405151512204/05/16 15:15:31  5-MIN K12N 052015Z AUTO 35007G15KT 320V070 04/M16 A3028 250 23 -900 360/07G15 330V080 RMK AO1 T00391156
54779K12N 12N20160405152012204/05/16 15:20:31  5-MIN K12N 052020Z AUTO 34012G21KT 330V030 04/M16 A3028 250 22 -900 360/12G21 340V040 RMK AO1 T00391161
54779K12N 12N20160405152510704/05/16 15:25:31  5-MIN K12N 052025Z AUTO 36007G21KT 03/M17 A3028 250 22 -1000 020/07G21 RMK AO1 T00331167
54779K12N 12N20160405153011604/05/16 15:30:31  5-MIN K12N 052030Z AUTO 33008KT 300V010 04/M16 A3028 250 22 -900 340/08 310V020 RMK AO1 T00391161
54779K12N 12N20160405153510604/05/16 15:35:31  5-MIN K12N 052035Z AUTO 35009G18KT 04/M17 A3028 250 21 -900 360/09G18 RMK AO1 T00391167
54779K12N 12N20160405154012204/05/16 15:40:31  5-MIN K12N 052040Z AUTO 36010G18KT 340V040 04/M16 A3028 250 22 -900 010/10G18 350V050 RMK AO1 T00391161
54779K12N 12N20160405154512204/05/16 15:45:31  5-MIN K12N 052045Z AUTO 36009G16KT 340V050 04/M16 A3028 250 22 -900 020/09G16 350V060 RMK AO1 T00391161
54779K12N 12N20160405155013504/05/16 15:50:31  5-MIN K12N 052050Z AUTO 36007G15KT 330V030 04/M15 A3028 250 24 -900 010/07G15 340V040 RMK AO1 SLP266 T00391150 58009
54779K12N 12N20160405155512204/05/16 15:55:31  5-MIN K12N 052055Z AUTO 36010G16KT 340V040 04/M15 A3028 260 24 -900 020/10G16 350V050 RMK AO1 T00391150
54779K12N 12N20160405160010604/05/16 16:00:31  5-MIN K12N 052100Z AUTO 36010G16KT 04/M16 A3028 250 22 -900 010/10G16 RMK AO1 T00391161
54779K12N 12N20160405160510604/05/16 16:05:31  5-MIN K12N 052105Z AUTO VRB06G15KT 04/M16 A3028 250 23 -900 VRB/06G15 RMK AO1 T00391156
54779K12N 12N20160405161011604/05/16 16:10:31  5-MIN K12N 052110Z AUTO 01007KT 320V050 04/M16 A3028 260 23 -900 020/07 330V060 RMK AO1 T00391156
54779K12N 12N20160405161510004/05/16 16:15:31  5-MIN K12N 052115Z AUTO VRB05KT 04/M15 A3028 260 24 -900 VRB/05 RMK AO1 T00391150
54779K12N 12N20160405162010604/05/16 16:20:31  5-MIN K12N 052120Z AUTO 36011G15KT 04/M15 A3028 250 24 -900 010/11G15 RMK AO1 T00391150
54779K12N 12N20160405162512204/05/16 16:25:31  5-MIN K12N 052125Z AUTO 34010G16KT 310V010 04/M16 A3028 250 23 -900 360/10G16 320V020 RMK AO1 T00391156
54779K12N 12N20160405163010704/05/16 16:30:31  5-MIN K12N 052130Z AUTO VRB05G16KT 03/M16 A3028 250 24 -1000 VRB/05G16 RMK AO1 T00331156
54779K12N 12N20160405163511704/05/16 16:35:31  5-MIN K12N 052135Z AUTO 34008KT 300V020 04/M16 A3029 250 22 -1000 360/08 310V030 RMK AO1 T00391161
54779K12N 12N20160405164012304/05/16 16:40:31  5-MIN K12N 052140Z AUTO 36008G15KT 330V040 04/M16 A3029 250 22 -1000 020/08G15 340V050 RMK AO1 T00391161
54779K12N 12N20160405164512304/05/16 16:45:31  5-MIN K12N 052145Z AUTO 32009G17KT 290V020 03/M17 A3029 240 22 -1000 330/09G17 300V030 RMK AO1 T00331167
54779K12N 12N20160405165013004/05/16 16:50:31  5-MIN K12N 052150Z AUTO 34009G17KT 300V020 03/M17 A3029 240 21 -1000 350/09G17 310V030 RMK AO1 SLP270 T00331172
54779K12N 12N20160405165512304/05/16 16:55:31  5-MIN K12N 052155Z AUTO 32008G17KT 290V360 03/M18 A3029 240 20 -1000 340/08G17 300V010 RMK AO1 T00331178
54779K12N 12N20160405170010704/05/16 17:00:31  5-MIN K12N 052200Z AUTO VRB05G15KT 03/M17 A3029 240 21 -1000 VRB/05G15 RMK AO1 T00331172
54779K12N 12N20160405170510704/05/16 17:05:31  5-MIN K12N 052205Z AUTO 36008G14KT 03/M17 A3029 240 22 -1000 010/08G14 RMK AO1 T00331167
54779K12N 12N20160405171010104/05/16 17:10:31  5-MIN K12N 052210Z AUTO 34009KT 03/M17 A3029 240 21 -1000 350/09 RMK AO1 T00331172
54779K12N 12N20160405171510104/05/16 17:15:31  5-MIN K12N 052215Z AUTO VRB06KT 03/M17 A3029 240 22 -1000 VRB/06 RMK AO1 T00331167
54779K12N 12N20160405172010104/05/16 17:20:31  5-MIN K12N 052220Z AUTO VRB06KT 03/M16 A3030 240 24 -1000 VRB/06 RMK AO1 T00331156
54779K12N 12N20160405172510104/05/16 17:25:31  5-MIN K12N 052225Z AUTO 34005KT 03/M16 A3030 240 24 -1000 350/05 RMK AO1 T00331156
54779K12N 12N20160405173011704/05/16 17:30:31  5-MIN K12N 052230Z AUTO 32008KT 290V360 03/M16 A3030 240 23 -1000 340/08 300V010 RMK AO1 T00331161
54779K12N 12N20160405173510104/05/16 17:35:31  5-MIN K12N 052235Z AUTO 30007KT 03/M16 A3030 230 23 -1100 310/07 RMK AO1 T00281161
54779K12N 12N20160405174010104/05/16 17:40:31  5-MIN K12N 052240Z AUTO VRB06KT 03/M16 A3030 230 23 -1100 VRB/06 RMK AO1 T00281161
54779K12N 12N20160405174512304/05/16 17:45:31  5-MIN K12N 052245Z AUTO 01007G17KT 330V060 02/M16 A3031 230 24 -1200 030/07G17 340V070 RMK AO1 T00221161
54779K12N 12N20160405175011404/05/16 17:50:31  5-MIN K12N 052250Z AUTO VRB06G17KT 02/M17 A3031 230 23 -1200 VRB/06G17 RMK AO1 SLP276 T00221167
54779K12N 12N20160405175510104/05/16 17:55:31  5-MIN K12N 052255Z AUTO 33005KT 02/M17 A3031 230 23 -1200 340/05 RMK AO1 T00171172
54779K12N 12N20160405180010104/05/16 18:00:31  5-MIN K12N 052300Z AUTO VRB05KT 02/M17 A3031 230 24 -1200 VRB/05 RMK AO1 T00171167
54779K12N 12N20160405180510104/05/16 18:05:31  5-MIN K12N 052305Z AUTO 36005KT 02/M16 A3030 230 25 -1200 010/05 RMK AO1 T00171161
54779K12N 12N20160405181010104/05/16 18:10:31  5-MIN K12N 052310Z AUTO 35008KT 02/M17 A3031 230 24 -1200 360/08 RMK AO1 T00171167
54779K12N 12N20160405181510104/05/16 18:15:31  5-MIN K12N 052315Z AUTO 36007KT 02/M17 A3031 230 23 -1300 010/07 RMK AO1 T00171172
54779K12N 12N20160405182010104/05/16 18:20:31  5-MIN K12N 052320Z AUTO 36005KT 02/M17 A3031 230 23 -1300 010/05 RMK AO1 T00171172
54779K12N 12N20160405182510104/05/16 18:25:31  5-MIN K12N 052325Z AUTO 36005KT 01/M17 A3031 220 24 -1300 010/05 RMK AO1 T00111172
54779K12N 12N20160405183010104/05/16 18:30:31  5-MIN K12N 052330Z AUTO VRB04KT 01/M17 A3031 220 25 -1300 VRB/04 RMK AO1 T00111167
54779K12N 12N20160405183510104/05/16 18:35:31  5-MIN K12N 052335Z AUTO 35004KT 01/M17 A3032 220 25 -1300 360/04 RMK AO1 T00111167
54779K12N 12N20160405184010104/05/16 18:40:31  5-MIN K12N 052340Z AUTO 35004KT 01/M17 A3032 220 26 -1400 360/04 RMK AO1 T00061167
54779K12N 12N20160405184510104/05/16 18:45:31  5-MIN K12N 052345Z AUTO 35006KT 01/M17 A3032 220 26 -1400 010/06 RMK AO1 T00061167
54779K12N 12N20160405185012604/05/16 18:50:31  5-MIN K12N 052350Z AUTO 35005KT 01/M16 A3032 210 28 -1400 360/05 RMK AO1 SLP281 T00061161 10044 20006 56006
54779K12N 12N20160405185510104/05/16 18:55:31  5-MIN K12N 052355Z AUTO VRB04KT 01/M16 A3033 210 28 -1400 VRB/04 RMK AO1 T00061161
54779K12N 12N20160405190010104/05/16 19:00:31  5-MIN K12N 060000Z AUTO 36005KT 01/M16 A3033 210 28 -1400 010/05 RMK AO1 T00061161
54779K12N 12N20160405190510104/05/16 19:05:31  5-MIN K12N 060005Z AUTO 36007KT 01/M16 A3033 210 28 -1400 010/07 RMK AO1 T00061161
54779K12N 12N20160405191010104/05/16 19:10:31  5-MIN K12N 060010Z AUTO 35005KT 01/M16 A3033 210 28 -1400 360/05 RMK AO1 T00061161
54779K12N 12N20160405191510104/05/16 19:15:31  5-MIN K12N 060015Z AUTO 35005KT 01/M17 A3033 210 26 -1400 010/05 RMK AO1 T00061167
54779K12N 12N20160405192010104/05/16 19:20:31  5-MIN K12N 060020Z AUTO 34004KT 00/M16 A3034 200 29 -1500 350/04 RMK AO1 T00001161
54779K12N 12N20160405192510104/05/16 19:25:31  5-MIN K12N 060025Z AUTO 35005KT 00/M16 A3034 200 29 -1500 360/05 RMK AO1 T00001161
54779K12N 12N20160405193010104/05/16 19:30:31  5-MIN K12N 060030Z AUTO 35004KT 00/M16 A3034 200 29 -1500 360/04 RMK AO1 T00001161
54779K12N 12N20160405193510104/05/16 19:35:31  5-MIN K12N 060035Z AUTO 34004KT 00/M16 A3034 200 29 -1500 350/04 RMK AO1 T00001161
54779K12N 12N20160405194010104/05/16 19:40:31  5-MIN K12N 060040Z AUTO 35003KT 00/M16 A3035 190 29 -1500 360/03 RMK AO1 T00001161
54779K12N 12N20160405194510104/05/16 19:45:31  5-MIN K12N 060045Z AUTO VRB03KT 00/M16 A3035 190 29 -1500 VRB/03 RMK AO1 T00001161
54779K12N 12N20160405195010804/05/16 19:50:31  5-MIN K12N 060050Z AUTO VRB03KT 00/M16 A3035 190 29 -1500 VRB/03 RMK AO1 SLP291 T00001161
54779K12N 12N20160405195510104/05/16 19:55:31  5-MIN K12N 060055Z AUTO 35004KT 00/M16 A3036 190 29 -1500 010/04 RMK AO1 T00001161
54779K12N 12N20160405200010204/05/16 20:00:31  5-MIN K12N 060100Z AUTO 36005KT M01/M16 A3036 180 30 -1600 020/05 RMK AO1 T10061161
54779K12N 12N20160405200510104/05/16 20:05:31  5-MIN K12N 060105Z AUTO VRB03KT 00/M16 A3036 180 29 -1500 VRB/03 RMK AO1 T00001161
54779K12N 12N20160405201010104/05/16 20:10:31  5-MIN K12N 060110Z AUTO 34003KT 00/M16 A3037 170 29 -1500 360/03 RMK AO1 T00001161
54779K12N 12N20160405201510204/05/16 20:15:31  5-MIN K12N 060115Z AUTO 00000KT M01/M16 A3037 180 30 -1600 000/00 RMK AO1 T10061161
54779K12N 12N20160405202010204/05/16 20:20:31  5-MIN K12N 060120Z AUTO 35003KT M01/M16 A3037 180 31 -1600 360/03 RMK AO1 T10061156
54779K12N 12N20160405202510204/05/16 20:25:31  5-MIN K12N 060125Z AUTO 34003KT M01/M16 A3036 180 31 -1600 360/03 RMK AO1 T10061156
54779K12N 12N20160405203010204/05/16 20:30:31  5-MIN K12N 060130Z AUTO 00000KT M01/M16 A3036 180 30 -1600 000/00 RMK AO1 T10061161
54779K12N 12N20160405203510204/05/16 20:35:31  5-MIN K12N 060135Z AUTO 00000KT M01/M16 A3036 180 31 -1600 000/00 RMK AO1 T10061156
54779K12N 12N20160405204010204/05/16 20:40:31  5-MIN K12N 060140Z AUTO 00000KT M01/M14 A3036 180 36 -1700 000/00 RMK AO1 T10111144
54779K12N 12N20160405204510204/05/16 20:45:31  5-MIN K12N 060145Z AUTO 00000KT M02/M13 A3036 180 42 -1800 000/00 RMK AO1 T10221133
54779K12N 12N20160405205010904/05/16 20:50:31  5-MIN K12N 060150Z AUTO 00000KT M03/M13 A3036 180 46 -1900 000/00 RMK AO1 SLP295 T10281128
54779K12N 12N20160405205510204/05/16 20:55:31  5-MIN K12N 060155Z AUTO 00000KT M02/M13 A3037 180 42 -1800 000/00 RMK AO1 T10221133
54779K12N 12N20160405210010204/05/16 21:00:31  5-MIN K12N 060200Z AUTO 00000KT M02/M14 A3037 180 40 -1800 000/00 RMK AO1 T10221139
54779K12N 12N20160405210510204/05/16 21:05:31  5-MIN K12N 060205Z AUTO 35003KT M02/M13 A3037 170 42 -1800 360/03 RMK AO1 T10221133
54779K12N 12N20160405211010204/05/16 21:10:31  5-MIN K12N 060210Z AUTO 34003KT M02/M14 A3037 170 40 -1800 350/03 RMK AO1 T10221139
54779K12N 12N20160405211510204/05/16 21:15:31  5-MIN K12N 060215Z AUTO 35003KT M02/M14 A3037 170 39 -1800 360/03 RMK AO1 T10221144
54779K12N 12N20160405212010204/05/16 21:20:31  5-MIN K12N 060220Z AUTO 34003KT M02/M14 A3037 170 39 -1800 350/03 RMK AO1 T10221144
54779K12N 12N20160405212510204/05/16 21:25:31  5-MIN K12N 060225Z AUTO 34003KT M02/M14 A3037 170 40 -1800 350/03 RMK AO1 T10221139
54779K12N 12N20160405213010204/05/16 21:30:31  5-MIN K12N 060230Z AUTO 34004KT M02/M14 A3037 170 37 -1700 360/04 RMK AO1 T10171144
54779K12N 12N20160405213510204/05/16 21:35:31  5-MIN K12N 060235Z AUTO 35006KT M02/M14 A3038 170 37 -1700 360/06 RMK AO1 T10171144
54779K12N 12N20160405214010204/05/16 21:40:31  5-MIN K12N 060240Z AUTO VRB05KT M01/M14 A3038 170 36 -1700 VRB/05 RMK AO1 T10111144
54779K12N 12N20160405214510204/05/16 21:45:31  5-MIN K12N 060245Z AUTO 35007KT M01/M14 A3038 170 36 -1700 010/07 RMK AO1 T10111144
54779K12N 12N20160405215011504/05/16 21:50:31  5-MIN K12N 060250Z AUTO 35007KT M01/M14 A3037 170 36 -1700 010/07 RMK AO1 SLP298 T10111144 53016
54779K12N 12N20160405215510204/05/16 21:55:31  5-MIN K12N 060255Z AUTO 34006KT M01/M14 A3037 170 36 -1700 350/06 RMK AO1 T10111144
54779K12N 12N20160405220010204/05/16 22:00:31  5-MIN K12N 060300Z AUTO 35004KT M01/M14 A3037 170 36 -1700 360/04 RMK AO1 T10111144
54779K12N 12N20160405220510204/05/16 22:05:31  5-MIN K12N 060305Z AUTO 35003KT M02/M14 A3037 170 37 -1700 360/03 RMK AO1 T10171144
54779K12N 12N20160405221010204/05/16 22:10:31  5-MIN K12N 060310Z AUTO 02003KT M02/M14 A3037 170 37 -1700 040/03 RMK AO1 T10171144
54779K12N 12N20160405221510204/05/16 22:15:31  5-MIN K12N 060315Z AUTO 00000KT M02/M14 A3037 170 37 -1700 000/00 RMK AO1 T10171144
54779K12N 12N20160405222010204/05/16 22:20:31  5-MIN K12N 060320Z AUTO 33003KT M02/M14 A3037 170 39 -1800 340/03 RMK AO1 T10221144
54779K12N 12N20160405222510204/05/16 22:25:31  5-MIN K12N 060325Z AUTO 32003KT M02/M14 A3037 170 39 -1800 330/03 RMK AO1 T10221144
54779K12N 12N20160405223010204/05/16 22:30:31  5-MIN K12N 060330Z AUTO 32003KT M02/M14 A3038 170 40 -1800 330/03 RMK AO1 T10221139
54779K12N 12N20160405223510204/05/16 22:35:31  5-MIN K12N 060335Z AUTO 00000KT M02/M13 A3037 170 42 -1800 000/00 RMK AO1 T10221133
54779K12N 12N20160405224010204/05/16 22:40:31  5-MIN K12N 060340Z AUTO 31003KT M03/M13 A3038 170 44 -1900 320/03 RMK AO1 T10281133
54779K12N 12N20160405224510204/05/16 22:45:31  5-MIN K12N 060345Z AUTO 33003KT M03/M13 A3037 170 44 -1900 350/03 RMK AO1 T10281133
54779K12N 12N20160405225010904/05/16 22:50:31  5-MIN K12N 060350Z AUTO 35003KT M03/M13 A3037 170 46 -2000 010/03 RMK AO1 SLP297 T10331133
54779K12N 12N20160405225510204/05/16 22:55:31  5-MIN K12N 060355Z AUTO 00000KT M03/M12 A3037 170 50 -2000 000/00 RMK AO1 T10331122
54779K12N 12N20160405230010204/05/16 23:00:31  5-MIN K12N 060400Z AUTO 00000KT M03/M11 A3036 180 57 -1900 000/00 RMK AO1 T10331106
54779K12N 12N20160405230510204/05/16 23:05:31  5-MIN K12N 060405Z AUTO 00000KT M03/M11 A3036 180 57 -1900 000/00 RMK AO1 T10331106
54779K12N 12N20160405231010204/05/16 23:10:31  5-MIN K12N 060410Z AUTO 00000KT M03/M11 A3036 180 55 -1900 000/00 RMK AO1 T10331111
54779K12N 12N20160405231510204/05/16 23:15:31  5-MIN K12N 060415Z AUTO 00000KT M03/M12 A3036 180 48 -1900 000/00 RMK AO1 T10281122
54779K12N 12N20160405232010204/05/16 23:20:31  5-MIN K12N 060420Z AUTO 00000KT M03/M12 A3036 180 50 -1900 000/00 RMK AO1 T10331122
54779K12N 12N20160405232510204/05/16 23:25:31  5-MIN K12N 060425Z AUTO 00000KT M03/M11 A3036 180 57 -1900 000/00 RMK AO1 T10331106
54779K12N 12N20160405233010204/05/16 23:30:31  5-MIN K12N 060430Z AUTO 00000KT M03/M11 A3036 180 57 -1900 000/00 RMK AO1 T10331106
54779K12N 12N20160405233510204/05/16 23:35:31  5-MIN K12N 060435Z AUTO 00000KT M04/M11 A3037 180 57 -2000 000/00 RMK AO1 T10391111
54779K12N 12N20160405234010204/05/16 23:40:31  5-MIN K12N 060440Z AUTO 00000KT M04/M12 A3037 170 55 -2100 000/00 RMK AO1 T10441122
54779K12N 12N20160405234510204/05/16 23:45:31  5-MIN K12N 060445Z AUTO 00000KT M04/M13 A3037 170 50 -2000 000/00 RMK AO1 T10391128
54779K12N 12N20160405235011904/05/16 23:50:31  5-MIN K12N 060450Z AUTO 35003KT M04/M12 A3037 180 52 -2000 010/03 RMK AO1 SLP295 T10391122 400441061
54779K12N 12N20160405235510204/05/16 23:55:31  5-MIN K12N 060455Z AUTO 35004KT M03/M12 A3037 180 53 -2000 360/04 RMK AO1 T10331117
54779K12N 12N20160406000010204/06/16 00:00:31  5-MIN K12N 060500Z AUTO 35004KT M03/M13 A3037 170 48 -2000 010/04 RMK AO1 T10331128
54779K12N 12N20160406000510204/06/16 00:05:31  5-MIN K12N 060505Z AUTO 36005KT M03/M14 A3037 170 44 -2000 010/05 RMK AO1 T10331139
54779K12N 12N20160406001010204/06/16 00:10:31  5-MIN K12N 060510Z AUTO 35005KT M03/M14 A3037 170 42 -1900 010/05 RMK AO1 T10281139
54779K12N 12N20160406001510204/06/16 00:15:31  5-MIN K12N 060515Z AUTO 01004KT M03/M14 A3036 180 40 -1900 020/04 RMK AO1 T10281144
54779K12N 12N20160406002010204/06/16 00:20:31  5-MIN K12N 060520Z AUTO 04004KT M03/M13 A3036 180 44 -1900 050/04 RMK AO1 T10281133
54779K12N 12N20160406002510204/06/16 00:25:31  5-MIN K12N 060525Z AUTO 04006KT M03/M13 A3035 190 44 -1900 050/06 RMK AO1 T10281133
54779K12N 12N20160406003010204/06/16 00:30:31  5-MIN K12N 060530Z AUTO 04005KT M03/M13 A3035 190 44 -1900 050/05 RMK AO1 T10281133
54779K12N 12N20160406003510204/06/16 00:35:31  5-MIN K12N 060535Z AUTO 03006KT M03/M14 A3035 190 42 -1900 050/06 RMK AO1 T10281139
54779K12N 12N20160406004010204/06/16 00:40:31  5-MIN K12N 060540Z AUTO 04007KT M03/M14 A3035 190 42 -1900 050/07 RMK AO1 T10281139
54779K12N 12N20160406004510204/06/16 00:45:31  5-MIN K12N 060545Z AUTO 05006KT M03/M14 A3035 190 40 -1900 060/06 RMK AO1 T10281144
54779K12N 12N20160406005012704/06/16 00:50:31  5-MIN K12N 060550Z AUTO VRB03KT M03/M14 A3035 190 42 -1900 VRB/03 RMK AO1 SLP289 T10281139 10006 21044 51016
54779K12N 12N20160406005510204/06/16 00:55:31  5-MIN K12N 060555Z AUTO VRB03KT M03/M14 A3035 190 42 -1900 VRB/03 RMK AO1 T10281139
54779K12N 12N20160406010010204/06/16 01:00:31  5-MIN K12N 060600Z AUTO 36003KT M03/M14 A3035 190 42 -1900 020/03 RMK AO1 T10331144
54779K12N 12N20160406010510204/06/16 01:05:31  5-MIN K12N 060605Z AUTO 35004KT M03/M15 A3035 190 40 -1900 360/04 RMK AO1 T10331150
54779K12N 12N20160406011010204/06/16 01:10:31  5-MIN K12N 060610Z AUTO 35004KT M03/M15 A3035 190 40 -1900 360/04 RMK AO1 T10331150
54779K12N 12N20160406011510204/06/16 01:15:31  5-MIN K12N 060615Z AUTO 35004KT M03/M15 A3035 190 40 -1900 360/04 RMK AO1 T10331150
54779K12N 12N20160406012010204/06/16 01:20:31  5-MIN K12N 060620Z AUTO 34004KT M04/M15 A3035 190 42 -2000 350/04 RMK AO1 T10391150
54779K12N 12N20160406012510204/06/16 01:25:31  5-MIN K12N 060625Z AUTO 34003KT M03/M16 A3035 190 38 -1900 360/03 RMK AO1 T10331156
54779K12N 12N20160406013010204/06/16 01:30:31  5-MIN K12N 060630Z AUTO 34003KT M03/M16 A3035 190 38 -1900 360/03 RMK AO1 T10331156
54779K12N 12N20160406013510204/06/16 01:35:31  5-MIN K12N 060635Z AUTO 32003KT M04/M15 A3035 190 42 -2000 330/03 RMK AO1 T10391150
54779K12N 12N20160406014010204/06/16 01:40:31  5-MIN K12N 060640Z AUTO 33003KT M04/M15 A3035 190 42 -2000 350/03 RMK AO1 T10391150
54779K12N 12N20160406014510204/06/16 01:45:31  5-MIN K12N 060645Z AUTO 36003KT M04/M14 A3035 190 46 -2100 010/03 RMK AO1 T10441144
54779K12N 12N20160406015010904/06/16 01:50:31  5-MIN K12N 060650Z AUTO 00000KT M04/M14 A3035 190 46 -2100 000/00 RMK AO1 SLP290 T10441144
54779K12N 12N20160406015510204/06/16 01:55:31  5-MIN K12N 060655Z AUTO 00000KT M05/M14 A3035 190 50 -2200 000/00 RMK AO1 T10501139
54779K12N 12N20160406020010204/06/16 02:00:31  5-MIN K12N 060700Z AUTO 00000KT M04/M12 A3035 190 55 -2100 000/00 RMK AO1 T10441122
54779K12N 12N20160406020510204/06/16 02:05:31  5-MIN K12N 060705Z AUTO 00000KT M04/M11 A3035 190 60 -2100 000/00 RMK AO1 T10441111
54779K12N 12N20160406021010204/06/16 02:10:31  5-MIN K12N 060710Z AUTO 00000KT M05/M12 A3035 190 57 -2100 000/00 RMK AO1 T10501122
54779K12N 12N20160406021510204/06/16 02:15:31  5-MIN K12N 060715Z AUTO 00000KT M05/M13 A3035 190 55 -2100 000/00 RMK AO1 T10501128
54779K12N 12N20160406022010204/06/16 02:20:31  5-MIN K12N 060720Z AUTO 00000KT M05/M12 A3034 200 57 -2100 000/00 RMK AO1 T10501122
54779K12N 12N20160406022510204/06/16 02:25:31  5-MIN K12N 060725Z AUTO 00000KT M05/M12 A3035 190 57 -2100 000/00 RMK AO1 T10501122
54779K12N 12N20160406023010204/06/16 02:30:31  5-MIN K12N 060730Z AUTO 00000KT M05/M12 A3035 190 57 -2100 000/00 RMK AO1 T10501122
54779K12N 12N20160406023510204/06/16 02:35:31  5-MIN K12N 060735Z AUTO 00000KT M05/M12 A3035 190 57 -2100 000/00 RMK AO1 T10501122
54779K12N 12N20160406024010204/06/16 02:40:31  5-MIN K12N 060740Z AUTO 00000KT M05/M12 A3034 200 60 -2100 000/00 RMK AO1 T10501117
54779K12N 12N20160406024510204/06/16 02:45:31  5-MIN K12N 060745Z AUTO 00000KT M05/M12 A3034 200 60 -2100 000/00 RMK AO1 T10501117
54779K12N 12N20160406025010904/06/16 02:50:31  5-MIN K12N 060750Z AUTO 00000KT M06/M12 A3034 200 62 -2200 000/00 RMK AO1 SLP286 T10561117
54779K12N 12N20160406025510204/06/16 02:55:31  5-MIN K12N 060755Z AUTO 00000KT M06/M12 A3034 200 62 -2200 000/00 RMK AO1 T10561117
54779K12N 12N20160406030010204/06/16 03:00:31  5-MIN K12N 060800Z AUTO 00000KT M06/M12 A3034 200 65 -2300 000/00 RMK AO1 T10611117
54779K12N 12N20160406030510204/06/16 03:05:31  5-MIN K12N 060805Z AUTO 00000KT M06/M11 A3034 200 65 -2200 000/00 RMK AO1 T10561111
54779K12N 12N20160406031010204/06/16 03:10:31  5-MIN K12N 060810Z AUTO 00000KT M06/M12 A3034 200 62 -2200 000/00 RMK AO1 T10561117
54779K12N 12N20160406031510204/06/16 03:15:31  5-MIN K12N 060815Z AUTO 00000KT M06/M12 A3034 200 62 -2200 000/00 RMK AO1 T10561117
54779K12N 12N20160406032010204/06/16 03:20:31  5-MIN K12N 060820Z AUTO 00000KT M06/M12 A3034 200 59 -2200 000/00 RMK AO1 T10561122
54779K12N 12N20160406032510204/06/16 03:25:31  5-MIN K12N 060825Z AUTO 00000KT M06/M12 A3034 200 62 -2200 000/00 RMK AO1 T10561117
54779K12N 12N20160406033010204/06/16 03:30:31  5-MIN K12N 060830Z AUTO 00000KT M05/M12 A3033 210 60 -2100 000/00 RMK AO1 T10501117
54779K12N 12N20160406033510204/06/16 03:35:31  5-MIN K12N 060835Z AUTO 00000KT M06/M11 A3033 210 68 -2300 000/00 RMK AO1 T10611111
54779K12N 12N20160406034010204/06/16 03:40:31  5-MIN K12N 060840Z AUTO 00000KT M06/M11 A3033 210 68 -2300 000/00 RMK AO1 T10611111
54779K12N 12N20160406034510204/06/16 03:45:31  5-MIN K12N 060845Z AUTO 00000KT M06/M12 A3033 210 65 -2300 000/00 RMK AO1 T10611117
54779K12N 12N20160406035011504/06/16 03:50:31  5-MIN K12N 060850Z AUTO 00000KT M06/M12 A3033 210 59 -2200 000/00 RMK AO1 SLP282 T10561122 58007
54779K12N 12N20160406035510204/06/16 03:55:31  5-MIN K12N 060855Z AUTO 00000KT M06/M12 A3033 210 62 -2300 000/00 RMK AO1 T10611122
54779K12N 12N20160406040010204/06/16 04:00:31  5-MIN K12N 060900Z AUTO 00000KT M06/M12 A3033 210 62 -2300 000/00 RMK AO1 T10611122
54779K12N 12N20160406040510204/06/16 04:05:31  5-MIN K12N 060905Z AUTO 00000KT M06/M12 A3034 200 65 -2300 000/00 RMK AO1 T10611117
54779K12N 12N20160406041010204/06/16 04:10:31  5-MIN K12N 060910Z AUTO 00000KT M06/M12 A3034 200 65 -2300 000/00 RMK AO1 T10611117
54779K12N 12N20160406041510204/06/16 04:15:31  5-MIN K12N 060915Z AUTO 00000KT M06/M11 A3035 190 68 -2300 000/00 RMK AO1 T10611111
54779K12N 12N20160406042010204/06/16 04:20:31  5-MIN K12N 060920Z AUTO 00000KT M06/M11 A3035 190 71 -2300 000/00 RMK AO1 T10611106
54779K12N 12N20160406042510204/06/16 04:25:31  5-MIN K12N 060925Z AUTO 00000KT M06/M12 A3035 190 65 -2300 000/00 RMK AO1 T10611117
54779K12N 12N20160406043010204/06/16 04:30:31  5-MIN K12N 060930Z AUTO 00000KT M06/M11 A3034 190 68 -2300 000/00 RMK AO1 T10611111
54779K12N 12N20160406043510204/06/16 04:35:31  5-MIN K12N 060935Z AUTO 00000KT M06/M12 A3034 200 65 -2300 000/00 RMK AO1 T10611117
54779K12N 12N20160406044010204/06/16 04:40:31  5-MIN K12N 060940Z AUTO 00000KT M06/M12 A3035 190 65 -2300 000/00 RMK AO1 T10611117
54779K12N 12N20160406044510204/06/16 04:45:31  5-MIN K12N 060945Z AUTO 00000KT M06/M11 A3035 190 71 -2300 000/00 RMK AO1 T10611106
54779K12N 12N20160406045010904/06/16 04:50:31  5-MIN K12N 060950Z AUTO 00000KT M06/M11 A3034 200 71 -2300 000/00 RMK AO1 SLP287 T10611106
54779K12N 12N20160406045510204/06/16 04:55:31  5-MIN K12N 060955Z AUTO 00000KT M06/M11 A3034 200 71 -2300 000/00 RMK AO1 T10611106
54779K12N 12N20160406050010204/06/16 05:00:31  5-MIN K12N 061000Z AUTO 20003KT M06/M11 A3034 200 68 -2300 210/03 RMK AO1 T10611111
54779K12N 12N20160406050510204/06/16 05:05:31  5-MIN K12N 061005Z AUTO 22003KT M07/M11 A3034 200 71 -2400 230/03 RMK AO1 T10671111
54779K12N 12N20160406051010204/06/16 05:10:31  5-MIN K12N 061010Z AUTO 00000KT M07/M11 A3034 200 74 -2400 000/00 RMK AO1 T10671106
54779K12N 12N20160406051510204/06/16 05:15:31  5-MIN K12N 061015Z AUTO 00000KT M06/M11 A3034 200 68 -2300 000/00 RMK AO1 T10611111
54779K12N 12N20160406052010204/06/16 05:20:31  5-MIN K12N 061020Z AUTO 00000KT M07/M12 A3034 200 68 -2400 000/00 RMK AO1 T10671117
54779K12N 12N20160406052510204/06/16 05:25:31  5-MIN K12N 061025Z AUTO 00000KT M06/M12 A3034 200 65 -2300 000/00 RMK AO1 T10611117
54779K12N 12N20160406053010204/06/16 05:30:31  5-MIN K12N 061030Z AUTO 00000KT M06/M11 A3034 200 68 -2300 000/00 RMK AO1 T10611111
54779K12N 12N20160406053510204/06/16 05:35:31  5-MIN K12N 061035Z AUTO 00000KT M06/M10 A3034 200 74 -2300 000/00 RMK AO1 T10611100
54779K12N 12N20160406054010204/06/16 05:40:31  5-MIN K12N 061040Z AUTO 00000KT M06/M11 A3034 200 71 -2300 000/00 RMK AO1 T10611106
54779K12N 12N20160406054510204/06/16 05:45:31  5-MIN K12N 061045Z AUTO 00000KT M06/M11 A3034 200 68 -2300 000/00 RMK AO1 T10611111
54779K12N 12N20160406055010904/06/16 05:50:31  5-MIN K12N 061050Z AUTO 00000KT M06/M11 A3034 200 68 -2300 000/00 RMK AO1 SLP286 T10611111
54779K12N 12N20160406055510204/06/16 05:55:31  5-MIN K12N 061055Z AUTO 00000KT M06/M11 A3034 200 71 -2300 000/00 RMK AO1 T10611106
54779K12N 12N20160406060010204/06/16 06:00:31  5-MIN K12N 061100Z AUTO 00000KT M07/M11 A3034 200 71 -2400 000/00 RMK AO1 T10671111
54779K12N 12N20160406060510204/06/16 06:05:31  5-MIN K12N 061105Z AUTO 00000KT M06/M11 A3034 200 68 -2300 000/00 RMK AO1 T10611111
54779K12N 12N20160406061010204/06/16 06:10:31  5-MIN K12N 061110Z AUTO 00000KT M06/M12 A3034 200 65 -2300 000/00 RMK AO1 T10611117
54779K12N 12N20160406061510204/06/16 06:15:31  5-MIN K12N 061115Z AUTO 00000KT M06/M11 A3035 190 68 -2300 000/00 RMK AO1 T10611111
54779K12N 12N20160406062010204/06/16 06:20:31  5-MIN K12N 061120Z AUTO 00000KT M06/M11 A3036 190 71 -2300 000/00 RMK AO1 T10611106
54779K12N 12N20160406062510904/06/16 06:25:31  5-MIN K12N 061125Z AUTO 00000KT M06/M10 A3037 170 71 -2200 000/00 RMK AO1 PRESRR T10561100
54779K12N 12N20160406063010204/06/16 06:30:31  5-MIN K12N 061130Z AUTO 00000KT M06/M10 A3037 170 71 -2200 000/00 RMK AO1 T10561100
54779K12N 12N20160406063510204/06/16 06:35:31  5-MIN K12N 061135Z AUTO 00000KT M06/M10 A3036 180 71 -2200 000/00 RMK AO1 T10561100
54779K12N 12N20160406064010204/06/16 06:40:31  5-MIN K12N 061140Z AUTO 00000KT M05/M09 A3036 180 74 -2200 000/00 RMK AO1 T10501089
54779K12N 12N20160406064510204/06/16 06:45:31  5-MIN K12N 061145Z AUTO 00000KT M04/M09 A3036 180 71 -2100 000/00 RMK AO1 T10441089
54779K12N 12N20160406065012704/06/16 06:50:31  5-MIN K12N 061150Z AUTO 00000KT M04/M09 A3036 180 71 -2100 000/00 RMK AO1 SLP295 T10441089 11028 21067 58007
54779K12N 12N20160406065510204/06/16 06:55:31  5-MIN K12N 061155Z AUTO 00000KT M04/M09 A3036 180 65 -2000 000/00 RMK AO1 T10391094
54779K12N 12N20160406070010204/06/16 07:00:31  5-MIN K12N 061200Z AUTO 00000KT M03/M10 A3037 180 60 -2000 000/00 RMK AO1 T10331100
54779K12N 12N20160406070510204/06/16 07:05:31  5-MIN K12N 061205Z AUTO 00000KT M03/M12 A3037 170 53 -2000 000/00 RMK AO1 T10331117
54779K12N 12N20160406071010204/06/16 07:10:31  5-MIN K12N 061210Z AUTO 00000KT M03/M12 A3037 170 53 -2000 000/00 RMK AO1 T10331117
54779K12N 12N20160406071510204/06/16 07:15:31  5-MIN K12N 061215Z AUTO 22003KT M03/M13 A3037 170 48 -2000 230/03 RMK AO1 T10331128
54779K12N 12N20160406072010204/06/16 07:20:31  5-MIN K12N 061220Z AUTO 22003KT M03/M12 A3037 170 50 -2000 230/03 RMK AO1 T10331122
54779K12N 12N20160406072510204/06/16 07:25:31  5-MIN K12N 061225Z AUTO 00000KT M03/M12 A3037 170 48 -1900 000/00 RMK AO1 T10281122
54779K12N 12N20160406073010204/06/16 07:30:31  5-MIN K12N 061230Z AUTO 00000KT M02/M13 A3037 170 44 -1800 000/00 RMK AO1 T10221128
54779K12N 12N20160406073510204/06/16 07:35:31  5-MIN K12N 061235Z AUTO 00000KT M02/M13 A3037 170 44 -1800 000/00 RMK AO1 T10221128
54779K12N 12N20160406074010204/06/16 07:40:31  5-MIN K12N 061240Z AUTO 00000KT M02/M13 A3037 170 44 -1800 000/00 RMK AO1 T10221128
54779K12N 12N20160406074510204/06/16 07:45:31  5-MIN K12N 061245Z AUTO 00000KT M02/M13 A3037 170 42 -1800 000/00 RMK AO1 T10221133
54779K12N 12N20160406075010904/06/16 07:50:31  5-MIN K12N 061250Z AUTO 00000KT M02/M13 A3037 170 42 -1700 000/00 RMK AO1 SLP295 T10171128
54779K12N 12N20160406075510204/06/16 07:55:31  5-MIN K12N 061255Z AUTO 25003KT M02/M13 A3037 170 42 -1700 260/03 RMK AO1 T10171128
54779K12N 12N20160406080010204/06/16 08:00:31  5-MIN K12N 061300Z AUTO 23004KT M01/M13 A3037 170 41 -1700 250/04 RMK AO1 T10111128
54779K12N 12N20160406080510204/06/16 08:05:31  5-MIN K12N 061305Z AUTO VRB04KT M01/M13 A3037 170 41 -1700 VRB/04 RMK AO1 T10111128
54779K12N 12N20160406081010204/06/16 08:10:31  5-MIN K12N 061310Z AUTO 23003KT M01/M13 A3037 170 41 -1700 250/03 RMK AO1 T10111128
54779K12N 12N20160406081510204/06/16 08:15:31  5-MIN K12N 061315Z AUTO 22004KT M01/M13 A3037 170 37 -1600 230/04 RMK AO1 T10061133
54779K12N 12N20160406082010204/06/16 08:20:31  5-MIN K12N 061320Z AUTO 25003KT M01/M13 A3037 170 37 -1600 260/03 RMK AO1 T10061133
54779K12N 12N20160406082510104/06/16 08:25:31  5-MIN K12N 061325Z AUTO 21003KT 00/M13 A3037 170 38 -1500 230/03 RMK AO1 T00001128
54779K12N 12N20160406083010104/06/16 08:30:31  5-MIN K12N 061330Z AUTO 00000KT 00/M13 A3037 170 38 -1500 000/00 RMK AO1 T00001128
54779K12N 12N20160406083510104/06/16 08:35:31  5-MIN K12N 061335Z AUTO 22003KT 00/M13 A3037 170 38 -1500 230/03 RMK AO1 T00001128
54779K12N 12N20160406084010104/06/16 08:40:31  5-MIN K12N 061340Z AUTO 21003KT 01/M13 A3037 170 35 -1500 230/03 RMK AO1 T00061133
54779K12N 12N20160406084510104/06/16 08:45:31  5-MIN K12N 061345Z AUTO 23006KT 01/M14 A3037 180 32 -1500 240/06 RMK AO1 T00061144
54779K12N 12N20160406085010804/06/16 08:50:31  5-MIN K12N 061350Z AUTO 23004KT 01/M14 A3037 180 32 -1500 240/04 RMK AO1 SLP294 T00061144
54779K12N 12N20160406085510104/06/16 08:55:31  5-MIN K12N 061355Z AUTO 23004KT 01/M14 A3036 180 30 -1400 250/04 RMK AO1 T00111144
54779K12N 12N20160406090010104/06/16 09:00:31  5-MIN K12N 061400Z AUTO 23005KT 01/M14 A3036 180 30 -1400 240/05 RMK AO1 T00111144
54779K12N 12N20160406090510104/06/16 09:05:31  5-MIN K12N 061405Z AUTO 24004KT 02/M14 A3036 180 29 -1300 250/04 RMK AO1 T00171144
54779K12N 12N20160406091010104/06/16 09:10:31  5-MIN K12N 061410Z AUTO 22005KT 02/M14 A3035 190 30 -1300 230/05 RMK AO1 T00171139
54779K12N 12N20160406091510104/06/16 09:15:31  5-MIN K12N 061415Z AUTO 00000KT 02/M14 A3035 190 29 -1200 000/00 RMK AO1 T00221139
54779K12N 12N20160406092010104/06/16 09:20:31  5-MIN K12N 061420Z AUTO VRB04KT 02/M14 A3034 200 29 -1200 VRB/04 RMK AO1 T00221139
54779K12N 12N20160406092510104/06/16 09:25:31  5-MIN K12N 061425Z AUTO VRB03KT 03/M14 A3034 200 28 -1100 VRB/03 RMK AO1 T00281139
54779K12N 12N20160406093010104/06/16 09:30:31  5-MIN K12N 061430Z AUTO VRB05KT 03/M14 A3034 200 28 -1100 VRB/05 RMK AO1 T00281139
54779K12N 12N20160406093510104/06/16 09:35:31  5-MIN K12N 061435Z AUTO 18004KT 03/M14 A3034 200 27 -1100 190/04 RMK AO1 T00281144
54779K12N 12N20160406094010104/06/16 09:40:31  5-MIN K12N 061440Z AUTO VRB05KT 03/M15 A3033 210 26 -1100 VRB/05 RMK AO1 T00281150
54779K12N 12N20160406094510104/06/16 09:45:31  5-MIN K12N 061445Z AUTO 22007KT 03/M14 A3033 210 27 -1100 230/07 RMK AO1 T00331139
54779K12N 12N20160406095011404/06/16 09:50:31  5-MIN K12N 061450Z AUTO 20006KT 04/M14 A3033 210 26 -1000 210/06 RMK AO1 SLP280 T00391139 53010
54779K12N 12N20160406095510104/06/16 09:55:31  5-MIN K12N 061455Z AUTO VRB05KT 03/M14 A3032 220 26 -1100 VRB/05 RMK AO1 T00331144
54779K12N 12N20160406100010104/06/16 10:00:31  5-MIN K12N 061500Z AUTO VRB03KT 03/M14 A3032 220 27 -1100 VRB/03 RMK AO1 T00331139
54779K12N 12N20160406100510104/06/16 10:05:31  5-MIN K12N 061505Z AUTO 21006KT 04/M13 A3032 220 28 -1000 230/06 RMK AO1 T00391128
54779K12N 12N20160406101011704/06/16 10:10:31  5-MIN K12N 061510Z AUTO 18007KT 130V220 03/M14 A3031 220 27 -1100 190/07 140V230 RMK AO1 T00331139
54779K12N 12N20160406101510104/06/16 10:15:31  5-MIN K12N 061515Z AUTO 22007KT 04/M14 A3031 220 26 -1000 230/07 RMK AO1 T00391139
54779K12N 12N20160406102010004/06/16 10:20:31  5-MIN K12N 061520Z AUTO VRB06KT 04/M13 A3031 230 26 -900 VRB/06 RMK AO1 T00441133
54779K12N 12N20160406102510004/06/16 10:25:31  5-MIN K12N 061525Z AUTO 17006KT 04/M14 A3030 230 24 -900 180/06 RMK AO1 T00441144
54779K12N 12N20160406103010004/06/16 10:30:31  5-MIN K12N 061530Z AUTO VRB06KT 05/M13 A3030 240 26 -800 VRB/06 RMK AO1 T00501128
54779K12N 12N20160406103510004/06/16 10:35:31  5-MIN K12N 061535Z AUTO VRB04KT 04/M13 A3029 240 26 -900 VRB/04 RMK AO1 T00441133
54779K12N 12N20160406104011604/06/16 10:40:31  5-MIN K12N 061540Z AUTO 19008KT 160V230 06/M13 A3030 240 25 -800 200/08 170V240 RMK AO1 T00561128
54779K12N 12N20160406104510604/06/16 10:45:31  5-MIN K12N 061545Z AUTO 20006G16KT 05/M13 A3029 240 26 -800 210/06G16 RMK AO1 T00501128
54779K12N 12N20160406105010704/06/16 10:50:31  5-MIN K12N 061550Z AUTO 23008KT 06/M12 A3029 250 28 -700 240/08 RMK AO1 SLP267 T00561117
54779K12N 12N20160406105510604/06/16 10:55:31  5-MIN K12N 061555Z AUTO 22010G17KT 06/M11 A3029 250 29 -700 240/10G17 RMK AO1 T00561111
54779K12N 12N20160406110012204/06/16 11:00:31  5-MIN K12N 061600Z AUTO 18010G17KT 140V200 06/M11 A3028 250 29 -700 200/10G17 150V210 RMK AO1 T00561111
54779K12N 12N20160406110510004/06/16 11:05:31  5-MIN K12N 061605Z AUTO 19009KT 05/M12 A3028 260 29 -800 200/09 RMK AO1 T00501117
54779K12N 12N20160406111010604/06/16 11:10:31  5-MIN K12N 061610Z AUTO VRB06G14KT 05/M12 A3027 260 27 -800 VRB/06G14 RMK AO1 T00501122
54779K12N 12N20160406111511604/06/16 11:15:31  5-MIN K12N 061615Z AUTO 19007KT 150V210 06/M11 A3027 260 29 -700 200/07 160V220 RMK AO1 T00561111
54779K12N 12N20160406112012204/06/16 11:20:31  5-MIN K12N 061620Z AUTO 22007G16KT 170V240 07/M10 A3027 260 29 -600 230/07G16 180V250 RMK AO1 T00671100
54779K12N 12N20160406112512204/06/16 11:25:31  5-MIN K12N 061625Z AUTO 20010G17KT 150V230 07/M11 A3027 270 28 -600 210/10G17 160V240 RMK AO1 T00671106
54779K12N 12N20160406113010604/06/16 11:30:31  5-MIN K12N 061630Z AUTO 19009G17KT 06/M11 A3027 270 28 -700 200/09G17 RMK AO1 T00611111
54779K12N 12N20160406113510604/06/16 11:35:31  5-MIN K12N 061635Z AUTO 22012G17KT 07/M11 A3026 270 27 -600 240/12G17 RMK AO1 T00671111
54779K12N 12N20160406114010604/06/16 11:40:31  5-MIN K12N 061640Z AUTO 21009G18KT 06/M11 A3026 270 28 -600 220/09G18 RMK AO1 T00611111
54779K12N 12N20160406114510604/06/16 11:45:31  5-MIN K12N 061645Z AUTO 20010G20KT 07/M11 A3025 280 28 -600 220/10G20 RMK AO1 T00671106
54779K12N 12N20160406115011304/06/16 11:50:31  5-MIN K12N 061650Z AUTO 22010G20KT 07/M11 A3025 280 27 -600 240/10G20 RMK AO1 SLP253 T00671111
54779K12N 12N20160406115512204/06/16 11:55:31  5-MIN K12N 061655Z AUTO 20009G21KT 160V230 07/M11 A3024 290 27 -600 210/09G21 170V240 RMK AO1 T00671111
54779K12N 12N20160406120010604/06/16 12:00:31  5-MIN K12N 061700Z AUTO 22013G21KT 07/M11 A3024 290 28 -600 230/13G21 RMK AO1 T00671106
54779K12N 12N20160406120510604/06/16 12:05:31  5-MIN K12N 061705Z AUTO 21007G20KT 07/M11 A3023 300 28 -500 230/07G20 RMK AO1 T00671106
54779K12N 12N20160406121012904/06/16 12:10:31  5-MIN K12N 061710Z AUTO 18010G20KT 140V220 07/M11 A3023 300 28 -500 190/10G20 150V230 RMK AO1 PRESFR T00671106
54779K12N 12N20160406121510604/06/16 12:15:31  5-MIN K12N 061715Z AUTO 21008G15KT 07/M10 A3022 310 28 -500 230/08G15 RMK AO1 T00721100
54779K12N 12N20160406122010604/06/16 12:20:31  5-MIN K12N 061720Z AUTO 18007G19KT 07/M11 A3022 310 27 -500 200/07G19 RMK AO1 T00671111
54779K12N 12N20160406122512204/06/16 12:25:31  5-MIN K12N 061725Z AUTO 20008G19KT 150V230 07/M11 A3022 310 26 -500 210/08G19 160V240 RMK AO1 T00721111
54779K12N 12N20160406123012204/06/16 12:30:31  5-MIN K12N 061730Z AUTO 18008G18KT 150V220 08/M10 A3022 310 27 -400 190/08G18 160V230 RMK AO1 T00781100
54779K12N 12N20160406123512204/06/16 12:35:31  5-MIN K12N 061735Z AUTO 21007G18KT 160V240 08/M10 A3021 320 27 -400 220/07G18 170V250 RMK AO1 T00781100
54779K12N 12N20160406124012204/06/16 12:40:31  5-MIN K12N 061740Z AUTO 19007G16KT 160V230 08/M10 A3021 320 27 -400 210/07G16 170V240 RMK AO1 T00781100
54779K12N 12N20160406124510604/06/16 12:45:31  5-MIN K12N 061745Z AUTO 19009G16KT 08/M10 A3020 330 26 -300 200/09G16 RMK AO1 T00831100
54779K12N 12N20160406125014704/06/16 12:50:31  5-MIN K12N 061750Z AUTO 22009G17KT 160V230 08/M10 A3020 330 27 -400 230/09G17 170V240 RMK AO1 SLP234 T00781100 10083 21039 58014
54779K12N 12N20160406125512204/06/16 12:55:31  5-MIN K12N 061755Z AUTO 18007G17KT 140V210 08/M10 A3019 330 27 -400 190/07G17 150V220 RMK AO1 T00781100
54779K12N 12N20160406130012204/06/16 13:00:31  5-MIN K12N 061800Z AUTO 21007G18KT 170V230 08/M10 A3019 340 27 -400 220/07G18 180V240 RMK AO1 T00781100
54779K12N 12N20160406130512204/06/16 13:05:31  5-MIN K12N 061805Z AUTO 18010G18KT 140V220 07/M11 A3019 340 27 -400 190/10G18 150V230 RMK AO1 T00721106
54779K12N 12N20160406131010604/06/16 13:10:31  5-MIN K12N 061810Z AUTO 19008G17KT 08/M10 A3018 340 27 -400 200/08G17 RMK AO1 T00781100
54779K12N 12N20160406131512204/06/16 13:15:31  5-MIN K12N 061815Z AUTO 18009G18KT 160V220 07/M11 A3018 350 27 -400 200/09G18 170V230 RMK AO1 T00721106
54779K12N 12N20160406132010604/06/16 13:20:31  5-MIN K12N 061820Z AUTO 18009G18KT 07/M11 A3017 360 27 -400 190/09G18 RMK AO1 T00721106
54779K12N 12N20160406132510604/06/16 13:25:31  5-MIN K12N 061825Z AUTO 21011G20KT 07/M10 A3017 350 28 -400 220/11G20 RMK AO1 T00721100
54779K12N 12N20160406133010604/06/16 13:30:31  5-MIN K12N 061830Z AUTO 22011G20KT 07/M10 A3017 360 28 -400 230/11G20 RMK AO1 T00721100
54779K12N 12N20160406133510604/06/16 13:35:31  5-MIN K12N 061835Z AUTO 20009G18KT 07/M09 A3016 360 29 -400 210/09G18 RMK AO1 T00721094
54779K12N 12N20160406134012204/06/16 13:40:31  5-MIN K12N 061840Z AUTO 18008G16KT 130V230 07/M10 A3015 370 28 -400 200/08G16 140V240 RMK AO1 T00721100
54779K12N 12N20160406134510604/06/16 13:45:31  5-MIN K12N 061845Z AUTO 20008G14KT 07/M10 A3015 370 29 -500 210/08G14 RMK AO1 T00671100
54779K12N 12N20160406135011304/06/16 13:50:31  5-MIN K12N 061850Z AUTO 19011G17KT 07/M10 A3015 380 29 -400 200/11G17 RMK AO1 SLP219 T00671100
54779K12N 12N20160406135510604/06/16 13:55:31  5-MIN K12N 061855Z AUTO 19010G17KT 07/M10 A3014 380 29 -400 200/10G17 RMK AO1 T00671100
54779K12N 12N20160406140012204/06/16 14:00:31  5-MIN K12N 061900Z AUTO 20010G17KT 160V220 07/M10 A3013 390 29 -400 210/10G17 170V230 RMK AO1 T00671100
54779K12N 12N20160406140512204/06/16 14:05:31  5-MIN K12N 061905Z AUTO 19009G17KT 140V220 07/M09 A3013 390 30 -400 200/09G17 150V230 RMK AO1 T00671094
54779K12N 12N20160406141012204/06/16 14:10:31  5-MIN K12N 061910Z AUTO 18008G17KT 140V210 07/M09 A3013 390 30 -400 190/08G17 150V220 RMK AO1 T00671094
54779K12N 12N20160406141510604/06/16 14:15:31  5-MIN K12N 061915Z AUTO 19006G14KT 07/M09 A3012 400 30 -400 210/06G14 RMK AO1 T00671094
54779K12N 12N20160406142012204/06/16 14:20:31  5-MIN K12N 061920Z AUTO 19008G14KT 160V230 07/M09 A3012 400 30 -400 210/08G14 170V240 RMK AO1 T00671094
54779K12N 12N20160406142512204/06/16 14:25:31  5-MIN K12N 061925Z AUTO 20009G17KT 170V230 07/M09 A3012 400 30 -400 210/09G17 180V240 RMK AO1 T00671094
54779K12N 12N20160406143010604/06/16 14:30:31  5-MIN K12N 061930Z AUTO 20005G17KT 07/M09 A3012 410 32 -400 210/05G17 RMK AO1 T00671089
54779K12N 12N20160406143510004/06/16 14:35:31  5-MIN K12N 061935Z AUTO 20007KT 07/M09 A3011 410 31 -300 210/07 RMK AO1 T00721089
54779K12N 12N20160406144010004/06/16 14:40:31  5-MIN K12N 061940Z AUTO VRB06KT 07/M09 A3011 410 31 -300 VRB/06 RMK AO1 T00721089
54779K12N 12N20160406144512204/06/16 14:45:31  5-MIN K12N 061945Z AUTO 19010G14KT 140V210 07/M09 A3010 420 31 -300 200/10G14 150V220 RMK AO1 T00721089
54779K12N 12N20160406145011304/06/16 14:50:31  5-MIN K12N 061950Z AUTO VRB05G14KT 08/M09 A3010 420 29 -300 VRB/05G14 RMK AO1 SLP202 T00781089
54779K12N 12N20160406145511604/06/16 14:55:31  5-MIN K12N 061955Z AUTO 19008KT 160V220 08/M09 A3009 430 29 -200 200/08 170V230 RMK AO1 T00781089
54779K12N 12N20160406150011304/06/16 15:00:31  5-MIN K12N 062000Z AUTO 18010G19KT 08/M09 A3008 430 28 -200 200/10G19 RMK AO1 PRESFR T00781094
54779K12N 12N20160406150512204/06/16 15:05:31  5-MIN K12N 062005Z AUTO 20007G16KT 160V240 08/M09 A3008 440 28 -200 210/07G16 170V250 RMK AO1 T00781094
54779K12N 12N20160406151011304/06/16 15:10:31  5-MIN K12N 062010Z AUTO 18008G16KT 08/M09 A3007 440 29 -200 200/08G16 RMK AO1 PRESFR T00781089
54779K12N 12N20160406151512204/06/16 15:15:31  5-MIN K12N 062015Z AUTO 18009G16KT 150V220 08/M09 A3007 450 28 -200 190/09G16 160V230 RMK AO1 T00781094
54779K12N 12N20160406152012204/06/16 15:20:31  5-MIN K12N 062020Z AUTO 19009G17KT 150V220 08/M09 A3007 450 28 -200 200/09G17 160V230 RMK AO1 T00831089
54779K12N 12N20160406152510604/06/16 15:25:31  5-MIN K12N 062025Z AUTO 18008G17KT 08/M09 A3006 450 28 -100 200/08G17 RMK AO1 T00831089
54779K12N 12N20160406153012204/06/16 15:30:31  5-MIN K12N 062030Z AUTO 20009G16KT 160V220 09/M09 A3006 450 27 -100 210/09G16 170V230 RMK AO1 T00891089
54779K12N 12N20160406153511904/06/16 15:35:31  5-MIN K12N 062035Z AUTO 19009G16KT 150V230 09/M09 A3006 460 26 0 210/09G16 160V240 RMK AO1 T00941089
54779K12N 12N20160406154010304/06/16 15:40:31  5-MIN K12N 062040Z AUTO 19009G15KT 09/M09 A3006 460 26 0 210/09G15 RMK AO1 T00941089
54779K12N 12N20160406154510304/06/16 15:45:31  5-MIN K12N 062045Z AUTO 20009G17KT 09/M08 A3006 460 27 0 210/09G17 RMK AO1 T00941083
54779K12N 12N20160406155011604/06/16 15:50:31  5-MIN K12N 062050Z AUTO 21012G22KT 09/M07 A3005 460 30 0 220/12G22 RMK AO1 SLP186 T00941072 58042
54779K12N 12N20160406155510304/06/16 15:55:31  5-MIN K12N 062055Z AUTO 20009G22KT 10/M07 A3005 460 29 0 210/09G22 RMK AO1 T01001072
54779K12N 12N20160406160010304/06/16 16:00:31  5-MIN K12N 062100Z AUTO 20009G20KT 10/M07 A3005 470 29 0 210/09G20 RMK AO1 T01001072
54779K12N 12N20160406160510304/06/16 16:05:31  5-MIN K12N 062105Z AUTO 21011G20KT 09/M07 A3004 470 31 0 220/11G20 RMK AO1 T00941067
54779K12N 12N20160406161010304/06/16 16:10:31  5-MIN K12N 062110Z AUTO 19010G17KT 10/M07 A3004 470 29 0 200/10G17 RMK AO1 T01001072
54779K12N 12N20160406161511904/06/16 16:15:31  5-MIN K12N 062115Z AUTO 19010G19KT 160V220 09/M08 A3004 480 29 0 200/10G19 170V230 RMK AO1 T00941078
54779K12N 12N20160406162010304/06/16 16:20:31  5-MIN K12N 062120Z AUTO 20007G19KT 09/M08 A3003 480 29 0 210/07G19 RMK AO1 T00941078
54779K12N 12N20160406162510304/06/16 16:25:31  5-MIN K12N 062125Z AUTO 19011G24KT 09/M08 A3003 480 29 0 200/11G24 RMK AO1 T00941078
54779K12N 12N20160406163011904/06/16 16:30:31  5-MIN K12N 062130Z AUTO 19009G24KT 150V220 09/M08 A3003 480 29 0 200/09G24 160V230 RMK AO1 T00941078
54779K12N 12N20160406163511904/06/16 16:35:31  5-MIN K12N 062135Z AUTO 20010G25KT 170V250 09/M07 A3003 480 30 0 210/10G25 180V260 RMK AO1 T00941072
54779K12N 12N20160406164011904/06/16 16:40:31  5-MIN K12N 062140Z AUTO 20008G25KT 150V230 09/M07 A3003 480 31 0 210/08G25 160V240 RMK AO1 T00941067
54779K12N 12N20160406164511904/06/16 16:45:31  5-MIN K12N 062145Z AUTO 20011G18KT 160V220 09/M07 A3002 490 31 0 210/11G18 170V230 RMK AO1 T00941067
54779K12N 12N20160406165012604/06/16 16:50:31  5-MIN K12N 062150Z AUTO 20011G19KT 160V220 09/M07 A3002 490 30 0 210/11G19 170V230 RMK AO1 SLP175 T00941072
54779K12N 12N20160406165512104/06/16 16:55:31  5-MIN K12N 062155Z AUTO 21013G26KT 09/M07 A3002 490 30 0 230/13G26 RMK AO1 PK WND 22026/2155 T00941072
54779K12N 12N20160406170013704/06/16 17:00:31  5-MIN K12N 062200Z AUTO 20010G26KT 170V230 09/M07 A3002 490 30 0 220/10G26 180V240 RMK AO1 PK WND 22026/2155 T00941072
54779K12N 12N20160406170512104/06/16 17:05:31  5-MIN K12N 062205Z AUTO VRB06G23KT 09/M07 A3002 490 30 0 VRB/06G23 RMK AO1 PK WND 22026/2155 T00941072
54779K12N 12N20160406171012104/06/16 17:10:31  5-MIN K12N 062210Z AUTO 21009G17KT 09/M07 A3002 500 30 0 220/09G17 RMK AO1 PK WND 22026/2155 T00941072
54779K12N 12N20160406171512104/06/16 17:15:31  5-MIN K12N 062215Z AUTO 21011G19KT 09/M07 A3001 500 32 0 220/11G19 RMK AO1 PK WND 22026/2155 T00891067
54779K12N 12N20160406172013704/06/16 17:20:31  5-MIN K12N 062220Z AUTO 20011G19KT 170V240 09/M07 A3001 500 32 0 220/11G19 180V250 RMK AO1 PK WND 22026/2155 T00891067
54779K12N 12N20160406172512104/06/16 17:25:31  5-MIN K12N 062225Z AUTO 19009G18KT 09/M07 A3001 500 32 0 200/09G18 RMK AO1 PK WND 22026/2155 T00891067
54779K12N 12N20160406173013704/06/16 17:30:31  5-MIN K12N 062230Z AUTO 18010G17KT 160V220 09/M07 A3001 500 32 0 190/10G17 170V230 RMK AO1 PK WND 22026/2155 T00891067
54779K12N 12N20160406173512104/06/16 17:35:31  5-MIN K12N 062235Z AUTO 19011G17KT 09/M07 A3001 510 31 0 200/11G17 RMK AO1 PK WND 22026/2155 T00891072
54779K12N 12N20160406174013704/06/16 17:40:31  5-MIN K12N 062240Z AUTO 17009G17KT 140V220 09/M07 A3000 510 31 0 190/09G17 150V230 RMK AO1 PK WND 22026/2155 T00891072
54779K12N 12N20160406174512404/06/16 17:45:31  5-MIN K12N 062245Z AUTO VRB06G16KT 08/M07 A3000 510 32 -100 VRB/06G16 RMK AO1 PK WND 22026/2155 T00831072
54779K12N 12N20160406175013104/06/16 17:50:31  5-MIN K12N 062250Z AUTO 19011G18KT 08/M07 A3000 510 32 -100 210/11G18 RMK AO1 PK WND 22026/2155 SLP170 T00831072
54779K12N 12N20160406175510604/06/16 17:55:31  5-MIN K12N 062255Z AUTO 20009G18KT 08/M07 A3000 510 34 -100 210/09G18 RMK AO1 T00831067
54779K12N 12N20160406180010604/06/16 18:00:31  5-MIN K12N 062300Z AUTO 20009G18KT 08/M07 A3000 520 34 -100 210/09G18 RMK AO1 T00831067
54779K12N 12N20160406180510604/06/16 18:05:31  5-MIN K12N 062305Z AUTO 19006G16KT 08/M06 A3000 510 35 -100 210/06G16 RMK AO1 T00831061
54779K12N 12N20160406181010604/06/16 18:10:31  5-MIN K12N 062310Z AUTO 18007G16KT 08/M06 A2999 520 35 -100 190/07G16 RMK AO1 T00831061
54779K12N 12N20160406181512204/06/16 18:15:31  5-MIN K12N 062315Z AUTO 20007G16KT 160V230 08/M07 A2999 520 34 -100 210/07G16 170V240 RMK AO1 T00831067
54779K12N 12N20160406182012204/06/16 18:20:31  5-MIN K12N 062320Z AUTO 19008G16KT 150V220 08/M07 A2999 520 34 -100 200/08G16 160V230 RMK AO1 T00831067
54779K12N 12N20160406182511604/06/16 18:25:31  5-MIN K12N 062325Z AUTO 19008KT 170V230 08/M06 A2999 520 36 -100 200/08 180V240 RMK AO1 T00781061
54779K12N 12N20160406183010004/06/16 18:30:31  5-MIN K12N 062330Z AUTO 19007KT 08/M06 A2999 520 36 -100 200/07 RMK AO1 T00781061
54779K12N 12N20160406183510604/06/16 18:35:31  5-MIN K12N 062335Z AUTO 20010G16KT 08/M06 A2999 520 36 -100 210/10G16 RMK AO1 T00781061
54779K12N 12N20160406184010604/06/16 18:40:31  5-MIN K12N 062340Z AUTO 20006G16KT 08/M06 A2999 520 36 -100 210/06G16 RMK AO1 T00781061
54779K12N 12N20160406184510004/06/16 18:45:31  5-MIN K12N 062345Z AUTO 19006KT 08/M06 A2999 520 38 -100 200/06 RMK AO1 T00781056
54779K12N 12N20160406185012504/06/16 18:50:31  5-MIN K12N 062350Z AUTO 19007KT 08/M06 A2999 520 38 -100 210/07 RMK AO1 SLP164 T00781056 10100 20067 56047
54779K12N 12N20160406185510004/06/16 18:55:31  5-MIN K12N 062355Z AUTO 20008KT 08/M06 A2999 520 38 -100 210/08 RMK AO1 T00781056
54779K12N 12N20160406190010004/06/16 19:00:31  5-MIN K12N 070000Z AUTO 20008KT 08/M06 A2999 520 38 -100 210/08 RMK AO1 T00781056
54779K12N 12N20160406190510004/06/16 19:05:31  5-MIN K12N 070005Z AUTO 18006KT 08/M06 A2999 520 38 -100 190/06 RMK AO1 T00781056
54779K12N 12N20160406191010004/06/16 19:10:31  5-MIN K12N 070010Z AUTO 19007KT 08/M06 A2999 520 36 -100 210/07 RMK AO1 T00781061
54779K12N 12N20160406191510004/06/16 19:15:31  5-MIN K12N 070015Z AUTO 19008KT 07/M06 A2999 520 40 -200 210/08 RMK AO1 T00721056
54779K12N 12N20160406192010604/06/16 19:20:31  5-MIN K12N 070020Z AUTO 18006G17KT 07/M05 A2999 520 41 -200 190/06G17 RMK AO1 T00721050
54779K12N 12N20160406192510604/06/16 19:25:31  5-MIN K12N 070025Z AUTO VRB05G17KT 07/M05 A2998 530 41 -200 VRB/05G17 RMK AO1 T00721050
54779K12N 12N20160406193009004/06/16 19:30:31  5-MIN K12N 070030Z AUTO 07/M04 A2998 530 43 -200 M /M RMK AO1 T00721044
54779K12N 12N20160406193510604/06/16 19:35:31  5-MIN K12N 070035Z AUTO VRB06G19KT 07/M04 A2998 530 45 -300 VRB/06G19 RMK AO1 T00671044
54779K12N 12N20160406194012204/06/16 19:40:31  5-MIN K12N 070040Z AUTO 19008G19KT 150V220 07/M04 A2998 530 47 -300 200/08G19 160V230 RMK AO1 T00671039
54779K12N 12N20160406194512204/06/16 19:45:31  5-MIN K12N 070045Z AUTO 18007G17KT 120V220 07/M04 A2998 530 47 -300 190/07G17 130V230 RMK AO1 T00671039
54779K12N 12N20160406195012904/06/16 19:50:31  5-MIN K12N 070050Z AUTO 18008G17KT 140V230 07/M04 A2998 530 47 -300 190/08G17 150V240 RMK AO1 SLP160 T00671039
54779K12N 12N20160406195510604/06/16 19:55:31  5-MIN K12N 070055Z AUTO 18007G17KT 07/M03 A2998 530 49 -300 190/07G17 RMK AO1 T00671033
54779K12N 12N20160406200012204/06/16 20:00:31  5-MIN K12N 070100Z AUTO 19007G14KT 150V220 07/M03 A2999 520 51 -300 200/07G14 160V230 RMK AO1 T00671028
54779K12N 12N20160406200510604/06/16 20:05:31  5-MIN K12N 070105Z AUTO 20007G17KT 06/M03 A2999 520 53 -300 210/07G17 RMK AO1 T00611028
54779K12N 12N20160406201012204/06/16 20:10:31  5-MIN K12N 070110Z AUTO 19011G17KT 160V230 06/M03 A2999 520 53 -300 200/11G17 170V240 RMK AO1 T00611028
54779K12N 12N20160406201510604/06/16 20:15:31  5-MIN K12N 070115Z AUTO 19007G18KT 06/M02 A2999 520 55 -300 210/07G18 RMK AO1 T00611022
54779K12N 12N20160406202010604/06/16 20:20:31  5-MIN K12N 070120Z AUTO 19004G18KT 06/M02 A2999 520 55 -300 200/04G18 RMK AO1 T00611022
54779K12N 12N20160406202510004/06/16 20:25:31  5-MIN K12N 070125Z AUTO 19007KT 06/M02 A2998 530 55 -300 210/07 RMK AO1 T00611022
54779K12N 12N20160406203010004/06/16 20:30:31  5-MIN K12N 070130Z AUTO VRB06KT 06/M02 A2998 530 55 -300 VRB/06 RMK AO1 T00611022
54779K12N 12N20160406203511604/06/16 20:35:31  5-MIN K12N 070135Z AUTO 18008KT 150V230 06/M02 A2998 530 57 -300 190/08 160V240 RMK AO1 T00611017
54779K12N 12N20160406204010004/06/16 20:40:31  5-MIN K12N 070140Z AUTO 18008KT 06/M02 A2998 530 57 -300 190/08 RMK AO1 T00611017
54779K12N 12N20160406204511604/06/16 20:45:31  5-MIN K12N 070145Z AUTO 20007KT 160V250 06/M02 A2998 530 57 -300 210/07 170V260 RMK AO1 T00611017
54779K12N 12N20160406205011304/06/16 20:50:31  5-MIN K12N 070150Z AUTO VRB06G16KT 06/M01 A2998 530 60 -300 VRB/06G16 RMK AO1 SLP160 T00611011
54779K12N 12N20160406205511604/06/16 20:55:31  5-MIN K12N 070155Z AUTO 19007KT 140V230 06/M01 A2998 530 60 -300 200/07 150V240 RMK AO1 T00611011
54779K12N 12N20160406210010004/06/16 21:00:31  5-MIN K12N 070200Z AUTO 19005KT 06/M01 A2997 540 60 -300 210/05 RMK AO1 T00611011
54779K12N 12N20160406210510004/06/16 21:05:31  5-MIN K12N 070205Z AUTO VRB06KT 06/M01 A2997 540 60 -300 VRB/06 RMK AO1 T00611011
54779K12N 12N20160406211011604/06/16 21:10:31  5-MIN K12N 070210Z AUTO 19007KT 160V220 06/M01 A2997 540 62 -300 200/07 170V230 RMK AO1 T00611006
54779K12N 12N20160406211510004/06/16 21:15:31  5-MIN K12N 070215Z AUTO 20005KT 06/M01 A2997 540 62 -300 220/05 RMK AO1 T00611006
54779K12N 12N20160406212010004/06/16 21:20:31  5-MIN K12N 070220Z AUTO 20005KT 06/M01 A2997 540 65 -400 210/05 RMK AO1 T00561006
54779K12N 12N20160406212510004/06/16 21:25:31  5-MIN K12N 070225Z AUTO VRB06KT 06/M01 A2996 540 65 -400 VRB/06 RMK AO1 T00561006
54779K12N 12N20160406213010004/06/16 21:30:31  5-MIN K12N 070230Z AUTO VRB05KT 06/M01 A2996 550 65 -400 VRB/05 RMK AO1 T00561006
54779K12N 12N20160406213510004/06/16 21:35:31  5-MIN K12N 070235Z AUTO 20005KT 06/M01 A2996 550 65 -400 220/05 RMK AO1 T00561006
54779K12N 12N20160406214009904/06/16 21:40:31  5-MIN K12N 070240Z AUTO VRB05KT 06/00 A2996 550 67 -400 VRB/05 RMK AO1 T00560000
54779K12N 12N20160406214509904/06/16 21:45:31  5-MIN K12N 070245Z AUTO 21007KT 06/00 A2996 550 67 -400 220/07 RMK AO1 T00560000
54779K12N 12N20160406215011204/06/16 21:50:31  5-MIN K12N 070250Z AUTO VRB05KT 06/00 A2995 550 67 -400 VRB/05 RMK AO1 SLP149 T00560000 56022
54779K12N 12N20160406215509904/06/16 21:55:31  5-MIN K12N 070255Z AUTO 20006KT 06/00 A2995 560 65 -300 210/06 RMK AO1 T00610000
54779K12N 12N20160406220009904/06/16 22:00:31  5-MIN K12N 070300Z AUTO 20006KT 06/00 A2995 560 67 -400 220/06 RMK AO1 T00560000
54779K12N 12N20160406220509904/06/16 22:05:31  5-MIN K12N 070305Z AUTO 19004KT 06/00 A2994 570 65 -300 200/04 RMK AO1 T00610000
54779K12N 12N20160406221009904/06/16 22:10:31  5-MIN K12N 070310Z AUTO VRB04KT 06/01 A2994 570 70 -300 VRB/04 RMK AO1 T00560006
54779K12N 12N20160406221509904/06/16 22:15:31  5-MIN K12N 070315Z AUTO 22007KT 06/01 A2994 570 70 -300 230/07 RMK AO1 T00560006
54779K12N 12N20160406222009904/06/16 22:20:31  5-MIN K12N 070320Z AUTO 21006KT 06/01 A2994 570 70 -300 220/06 RMK AO1 T00560006
54779K12N 12N20160406222509904/06/16 22:25:31  5-MIN K12N 070325Z AUTO 20005KT 06/01 A2994 570 70 -300 220/05 RMK AO1 T00560006
54779K12N 12N20160406223008904/06/16 22:30:31  5-MIN K12N 070330Z AUTO 06/01 A2993 570 70 -300 M /M RMK AO1 T00560006
54779K12N 12N20160406223509904/06/16 22:35:31  5-MIN K12N 070335Z AUTO 22008KT 06/01 A2993 570 70 -300 230/08 RMK AO1 T00560006
54779K12N 12N20160406224009904/06/16 22:40:31  5-MIN K12N 070340Z AUTO 23009KT 06/01 A2993 570 73 -300 240/09 RMK AO1 T00560011
54779K12N 12N20160406224509904/06/16 22:45:31  5-MIN K12N 070345Z AUTO 21006KT 06/01 A2993 580 73 -300 230/06 RMK AO1 T00560011
54779K12N 12N20160406225010604/06/16 22:50:31  5-MIN K12N 070350Z AUTO 22008KT 06/01 A2993 580 73 -300 230/08 RMK AO1 SLP140 T00560011
54779K12N 12N20160406225509904/06/16 22:55:31  5-MIN K12N 070355Z AUTO 22009KT 06/01 A2993 580 73 -300 240/09 RMK AO1 T00560011
54779K12N 12N20160406230010504/06/16 23:00:31  5-MIN K12N 070400Z AUTO 21006G14KT 06/01 A2992 580 73 -300 220/06G14 RMK AO1 T00560011
54779K12N 12N20160406230510504/06/16 23:05:31  5-MIN K12N 070405Z AUTO 21008G14KT 06/02 A2992 580 76 -300 220/08G14 RMK AO1 T00560017
54779K12N 12N20160406231009904/06/16 23:10:31  5-MIN K12N 070410Z AUTO 22009KT 06/02 A2992 580 73 -300 230/09 RMK AO1 T00610017
54779K12N 12N20160406231509904/06/16 23:15:31  5-MIN K12N 070415Z AUTO 20007KT 06/02 A2992 590 76 -300 210/07 RMK AO1 T00560017
54779K12N 12N20160406232009904/06/16 23:20:31  5-MIN K12N 070420Z AUTO 21005KT 06/02 A2992 590 76 -300 220/05 RMK AO1 T00560017
54779K12N 12N20160406232509904/06/16 23:25:31  5-MIN K12N 070425Z AUTO 21005KT 06/02 A2991 590 76 -300 220/05 RMK AO1 T00560017
54779K12N 12N20160406233009904/06/16 23:30:31  5-MIN K12N 070430Z AUTO 22008KT 06/02 A2991 600 76 -300 230/08 RMK AO1 T00560017
54779K12N 12N20160406233511504/06/16 23:35:31  5-MIN K12N 070435Z AUTO 21007KT 150V230 06/02 A2991 600 76 -300 220/07 160V240 RMK AO1 T00560017
54779K12N 12N20160406234009904/06/16 23:40:31  5-MIN K12N 070440Z AUTO 22009KT 06/02 A2991 600 73 -200 230/09 RMK AO1 T00610017
54779K12N 12N20160406234509904/06/16 23:45:31  5-MIN K12N 070445Z AUTO 22006KT 06/02 A2990 600 76 -300 230/06 RMK AO1 T00560017
54779K12N 12N20160406235011604/06/16 23:50:31  5-MIN K12N 070450Z AUTO 23007KT 06/02 A2990 600 76 -300 240/07 RMK AO1 SLP131 T00560017 401001067
54779K12N 12N20160406235509904/06/16 23:55:31  5-MIN K12N 070455Z AUTO 22009KT 06/02 A2990 600 76 -300 230/09 RMK AO1 T00560017
54779K12N 12N20160407000009904/07/16 00:00:31  5-MIN K12N 070500Z AUTO 22008KT 06/02 A2990 610 79 -300 230/08 RMK AO1 T00560022
54779K12N 12N20160407000509904/07/16 00:05:31  5-MIN K12N 070505Z AUTO 20004KT 06/02 A2989 610 79 -300 210/04 RMK AO1 T00560022
54779K12N 12N20160407001009904/07/16 00:10:31  5-MIN K12N 070510Z AUTO 21008KT 06/02 A2989 610 76 -200 230/08 RMK AO1 T00610022
54779K12N 12N20160407001509904/07/16 00:15:31  5-MIN K12N 070515Z AUTO VRB06KT 06/02 A2989 620 76 -200 VRB/06 RMK AO1 T00610022
54779K12N 12N20160407002009904/07/16 00:20:31  5-MIN K12N 070520Z AUTO 22006KT 06/02 A2988 620 79 -300 230/06 RMK AO1 T00560022
54779K12N 12N20160407002509904/07/16 00:25:31  5-MIN K12N 070525Z AUTO 20004KT 06/02 A2988 620 76 -200 210/04 RMK AO1 T00610022
54779K12N 12N20160407003009904/07/16 00:30:31  5-MIN K12N 070530Z AUTO 21003KT 06/02 A2988 630 79 -300 220/03 RMK AO1 T00560022
54779K12N 12N20160407003509904/07/16 00:35:31  5-MIN K12N 070535Z AUTO VRB06KT 06/03 A2987 630 79 -200 VRB/06 RMK AO1 T00610028
54779K12N 12N20160407004009904/07/16 00:40:31  5-MIN K12N 070540Z AUTO 21006KT 06/03 A2987 630 79 -200 220/06 RMK AO1 T00610028
54779K12N 12N20160407004509904/07/16 00:45:31  5-MIN K12N 070545Z AUTO VRB06KT 06/03 A2987 640 79 -200 VRB/06 RMK AO1 T00610028
54779K12N 12N20160407005012404/07/16 00:50:31  5-MIN K12N 070550Z AUTO 22006KT 06/03 A2986 640 79 -200 230/06 RMK AO1 SLP116 T00610028 10078 20056 58012
54779K12N 12N20160407005509904/07/16 00:55:31  5-MIN K12N 070555Z AUTO 22010KT 06/03 A2986 640 79 -200 230/10 RMK AO1 T00610028
54779K12N 12N20160407010009904/07/16 01:00:31  5-MIN K12N 070600Z AUTO 22009KT 06/03 A2986 640 82 -200 230/09 RMK AO1 T00610033
54779K12N 12N20160407010509904/07/16 01:05:31  5-MIN K12N 070605Z AUTO 22007KT 06/03 A2986 640 82 -200 230/07 RMK AO1 T00610033
54779K12N 12N20160407011009904/07/16 01:10:31  5-MIN K12N 070610Z AUTO 22008KT 06/03 A2986 640 82 -200 230/08 RMK AO1 T00610033
54779K12N 12N20160407011510504/07/16 01:15:31  5-MIN K12N 070615Z AUTO 21006G15KT 07/03 A2985 650 79 -100 220/06G15 RMK AO1 T00670033
54779K12N 12N20160408100512204/08/16 10:05:31  5-MIN K12N 081505Z AUTO 23011G16KT 200V260 04/M03 A2960 890 57 -100 240/11G16 210V270 RMK AO1 T00441033
54779K12N 12N20160408101010604/08/16 10:10:31  5-MIN K12N 081510Z AUTO VRB03G16KT 04/M03 A2960 880 57 -100 VRB/03G16 RMK AO1 T00441033
54779K12N 12N20160408101510604/08/16 10:15:31  5-MIN K12N 081515Z AUTO VRB06G14KT 04/M03 A2960 880 57 -100 VRB/06G14 RMK AO1 T00441033
54779K12N 12N20160408102010004/08/16 10:20:31  5-MIN K12N 081520Z AUTO 23009KT 04/M03 A2960 880 59 -100 240/09 RMK AO1 T00441028
54779K12N 12N20160408102510004/08/16 10:25:31  5-MIN K12N 081525Z AUTO VRB03KT 04/M03 A2960 890 59 -100 VRB/03 RMK AO1 T00441028
54779K12N 12N20160408103009704/08/16 10:30:31  5-MIN K12N 081530Z AUTO 24008KT 05/M03 A2960 880 57 0 250/08 RMK AO1 T00501028
54779K12N 12N20160408103511604/08/16 10:35:31  5-MIN K12N 081535Z AUTO 24007KT 190V300 04/M04 A2960 880 55 -100 250/07 200V310 RMK AO1 T00441039
54779K12N 12N20160408104010604/08/16 10:40:31  5-MIN K12N 081540Z AUTO 21010G16KT 04/M05 A2960 880 50 -100 220/10G16 RMK AO1 T00441050
54779K12N 12N20160408104511904/08/16 10:45:31  5-MIN K12N 081545Z AUTO 24007G16KT 210V270 05/M05 A2960 880 48 0 260/07G16 220V280 RMK AO1 T00501050
54779K12N 12N20160408105011004/08/16 10:50:31  5-MIN K12N 081550Z AUTO VRB05G16KT 05/M05 A2960 880 48 0 VRB/05G16 RMK AO1 SLP028 T00501050
54779K12N 12N20160408105509704/08/16 10:55:31  5-MIN K12N 081555Z AUTO 23008KT 05/M05 A2960 880 48 0 240/08 RMK AO1 T00501050
54779K12N 12N20160408110010304/08/16 11:00:31  5-MIN K12N 081600Z AUTO VRB05G14KT 05/M05 A2960 880 48 0 VRB/05G14 RMK AO1 T00501050
54779K12N 12N20160408110510304/08/16 11:05:31  5-MIN K12N 081605Z AUTO VRB06G14KT 05/M04 A2961 880 50 0 VRB/06G14 RMK AO1 T00501044
54779K12N 12N20160408111009004/08/16 11:10:31  5-MIN K12N 081610Z AUTO 04/M04 A2961 870 52 -100 M /M RMK AO1 T00441044
54779K12N 12N20160408111510004/08/16 11:15:31  5-MIN K12N 081615Z AUTO VRB05KT 04/M05 A2961 870 50 -100 VRB/05 RMK AO1 T00441050
54779K12N 12N20160408112012204/08/16 11:20:31  5-MIN K12N 081620Z AUTO 31009G17KT 270V340 04/M06 A2962 870 48 -100 320/09G17 280V350 RMK AO1 T00441056
54779K12N 12N20160408112510604/08/16 11:25:31  5-MIN K12N 081625Z AUTO VRB04G17KT 04/M05 A2961 870 50 -100 VRB/04G17 RMK AO1 T00441050
54779K12N 12N20160408113010004/08/16 11:30:31  5-MIN K12N 081630Z AUTO VRB06KT 04/M06 A2962 870 48 -100 VRB/06 RMK AO1 T00441056
54779K12N 12N20160408113511904/08/16 11:35:31  5-MIN K12N 081635Z AUTO 25007G16KT 210V310 05/M06 A2962 870 44 0 260/07G16 220V320 RMK AO1 T00501061
54779K12N 12N20160408114011904/08/16 11:40:31  5-MIN K12N 081640Z AUTO 28007G18KT 210V330 05/M06 A2962 870 44 0 290/07G18 220V340 RMK AO1 T00501061
54779K12N 12N20160408114510604/08/16 11:45:31  5-MIN K12N 081645Z AUTO VRB06G18KT 04/M06 A2962 870 46 -100 VRB/06G18 RMK AO1 T00441061
54779K12N 12N20160408115012904/08/16 11:50:31  5-MIN K12N 081650Z AUTO 30009G15KT 260V340 04/M06 A2962 860 46 -100 310/09G15 270V350 RMK AO1 SLP036 T00441061
54779K12N 12N20160408115510604/08/16 11:55:31  5-MIN K12N 081655Z AUTO 31005G17KT 04/M06 A2963 860 48 -200 320/05G17 RMK AO1 T00391061
54779K12N 12N20160408120012204/08/16 12:00:31  5-MIN K12N 081700Z AUTO 28007G17KT 190V320 04/M06 A2962 860 48 -200 290/07G17 200V330 RMK AO1 T00391061
54779K12N 12N20160408120510604/08/16 12:05:31  5-MIN K12N 081705Z AUTO VRB03G15KT 04/M06 A2963 860 46 -100 VRB/03G15 RMK AO1 T00441061
54779K12N 12N20160408121010604/08/16 12:10:31  5-MIN K12N 081710Z AUTO 28010G15KT 05/M06 A2963 860 44 -100 290/10G15 RMK AO1 T00501061
54779K12N 12N20160408121510004/08/16 12:15:31  5-MIN K12N 081715Z AUTO VRB03KT 05/M06 A2963 860 44 -100 VRB/03 RMK AO1 T00501061
54779K12N 12N20160408122011604/08/16 12:20:31  5-MIN K12N 081720Z AUTO 29007KT 250V340 05/M07 A2962 860 42 -100 310/07 260V350 RMK AO1 T00501067
54779K12N 12N20160408122511904/08/16 12:25:31  5-MIN K12N 081725Z AUTO 24008G18KT 190V290 06/M06 A2963 860 43 0 250/08G18 200V300 RMK AO1 T00561061
54779K12N 12N20160408123012204/08/16 12:30:31  5-MIN K12N 081730Z AUTO 24007G18KT 200V290 05/M07 A2963 860 42 -100 250/07G18 210V300 RMK AO1 T00501067
54779K12N 12N20160408123512204/08/16 12:35:31  5-MIN K12N 081735Z AUTO 28007G16KT 210V300 04/M07 A2963 860 44 -100 290/07G16 220V310 RMK AO1 T00441067
54779K12N 12N20160408124010604/08/16 12:40:31  5-MIN K12N 081740Z AUTO 21003G16KT 04/M06 A2963 860 46 -100 230/03G16 RMK AO1 T00441061
54779K12N 12N20160408124510004/08/16 12:45:31  5-MIN K12N 081745Z AUTO VRB05KT 04/M06 A2963 860 46 -100 VRB/05 RMK AO1 T00441061
54779K12N 12N20160408125014704/08/16 12:50:31  5-MIN K12N 081750Z AUTO 23012G20KT 200V280 04/M06 A2963 850 48 -100 240/12G20 210V290 RMK AO1 SLP040 T00441056 10056 20033 51013
54779K12N 12N20160408125510604/08/16 12:55:31  5-MIN K12N 081755Z AUTO VRB05G20KT 04/M06 A2963 850 48 -100 VRB/05G20 RMK AO1 T00441056
54779K12N 12N20160408130010604/08/16 13:00:31  5-MIN K12N 081800Z AUTO VRB06G15KT 04/M06 A2963 850 48 -100 VRB/06G15 RMK AO1 T00441056
54779K12N 12N20160408130510604/08/16 13:05:31  5-MIN K12N 081805Z AUTO VRB04G15KT 05/M06 A2963 850 46 -100 VRB/04G15 RMK AO1 T00501056
54779K12N 12N20160408131011604/08/16 13:10:31  5-MIN K12N 081810Z AUTO 24009KT 210V290 05/M06 A2963 850 46 -100 260/09 220V300 RMK AO1 T00501056
54779K12N 12N20160408131511604/08/16 13:15:31  5-MIN K12N 081815Z AUTO 28007KT 220V320 04/M06 A2963 850 46 -100 290/07 230V330 RMK AO1 T00441061
54779K12N 12N20160408132010004/08/16 13:20:31  5-MIN K12N 081820Z AUTO 22008KT 04/M06 A2963 850 46 -100 240/08 RMK AO1 T00441061
54779K12N 12N20160408132510004/08/16 13:25:31  5-MIN K12N 081825Z AUTO VRB03KT 05/M06 A2964 850 44 -100 VRB/03 RMK AO1 T00501061
54779K12N 12N20160408133010004/08/16 13:30:31  5-MIN K12N 081830Z AUTO 26006KT 05/M06 A2964 850 46 -100 270/06 RMK AO1 T00501056
54779K12N 12N20160408133510604/08/16 13:35:31  5-MIN K12N 081835Z AUTO 30008G19KT 05/M06 A2964 850 44 -100 310/08G19 RMK AO1 T00501061
54779K12N 12N20160408134010604/08/16 13:40:31  5-MIN K12N 081840Z AUTO VRB05G19KT 05/M06 A2964 850 44 -100 VRB/05G19 RMK AO1 T00501061
54779K12N 12N20160408134511304/08/16 13:45:31  5-MIN K12N 081845Z AUTO 28007KT 220V320 06/M06 A2964 840 43 0 290/07 230V330 RMK AO1 T00561061
54779K12N 12N20160408135012004/08/16 13:50:31  5-MIN K12N 081850Z AUTO 24007KT 210V280 06/M07 A2964 840 41 0 250/07 220V290 RMK AO1 SLP042 T00561067
54779K12N 12N20160408135510004/08/16 13:55:31  5-MIN K12N 081855Z AUTO VRB06KT 05/M07 A2964 840 42 -100 VRB/06 RMK AO1 T00501067
54779K12N 12N20160408140010004/08/16 14:00:31  5-MIN K12N 081900Z AUTO VRB05KT 05/M06 A2965 840 44 -100 VRB/05 RMK AO1 T00501061
54779K12N 12N20160408140509704/08/16 14:05:31  5-MIN K12N 081905Z AUTO 22007KT 06/M06 A2965 840 43 0 230/07 RMK AO1 T00561061
54779K12N 12N20160408141011304/08/16 14:10:31  5-MIN K12N 081910Z AUTO 28009KT 250V320 06/M06 A2965 840 43 0 300/09 260V330 RMK AO1 T00561061
54779K12N 12N20160408141511604/08/16 14:15:31  5-MIN K12N 081915Z AUTO 23007KT 200V270 05/M06 A2965 840 44 -100 240/07 210V280 RMK AO1 T00501061
54779K12N 12N20160408142012204/08/16 14:20:31  5-MIN K12N 081920Z AUTO 29008G16KT 250V340 05/M06 A2965 830 44 -100 310/08G16 260V350 RMK AO1 T00501061
54779K12N 12N20160408142510604/08/16 14:25:31  5-MIN K12N 081925Z AUTO VRB03G16KT 05/M06 A2965 830 44 -100 VRB/03G16 RMK AO1 T00501061
54779K12N 12N20160408143008704/08/16 14:30:31  5-MIN K12N 081930Z AUTO 06/M06 A2965 830 43 0 M /M RMK AO1 T00611056
54779K12N 12N20160408143511904/08/16 14:35:31  5-MIN K12N 081935Z AUTO 24012G18KT 210V300 06/M06 A2965 830 41 0 260/12G18 220V310 RMK AO1 T00611061
54779K12N 12N20160408144011904/08/16 14:40:31  5-MIN K12N 081940Z AUTO 29008G19KT 220V330 06/M07 A2965 830 41 0 310/08G19 230V340 RMK AO1 T00561067
54779K12N 12N20160408144510304/08/16 14:45:31  5-MIN K12N 081945Z AUTO VRB05G19KT 06/M07 A2966 830 41 0 VRB/05G19 RMK AO1 T00561067
54779K12N 12N20160408145010404/08/16 14:50:31  5-MIN K12N 081950Z AUTO VRB06KT 06/M06 A2966 830 43 0 VRB/06 RMK AO1 SLP048 T00561061
54779K12N 12N20160408145509704/08/16 14:55:31  5-MIN K12N 081955Z AUTO VRB04KT 06/M06 A2966 830 43 0 VRB/04 RMK AO1 T00611056
54779K12N 12N20160408150009004/08/16 15:00:31  5-MIN K12N 082000Z AUTO 05/M06 A2966 830 44 -100 M /M RMK AO1 T00501061
54779K12N 12N20160408150509704/08/16 15:05:31  5-MIN K12N 082005Z AUTO VRB03KT 06/M06 A2966 830 43 0 VRB/03 RMK AO1 T00561061
54779K12N 12N20160408151009704/08/16 15:10:31  5-MIN K12N 082010Z AUTO VRB06KT 06/M06 A2966 830 43 0 VRB/06 RMK AO1 T00561061
54779K12N 12N20160408151511904/08/16 15:15:31  5-MIN K12N 082015Z AUTO 29010G17KT 210V350 06/M06 A2966 830 43 0 310/10G17 220V360 RMK AO1 T00561061
54779K12N 12N20160408152010304/08/16 15:20:31  5-MIN K12N 082020Z AUTO VRB06G17KT 06/M06 A2966 830 43 0 VRB/06G17 RMK AO1 T00561061
54779K12N 12N20160408152512104/08/16 15:25:31  5-MIN K12N 082025Z AUTO 25007G16KT 190V340 07/M06 A2966 830 41 100 260/07G16 200V350 RMK AO1 T00671056
54779K12N 12N20160408153010304/08/16 15:30:31  5-MIN K12N 082030Z AUTO VRB04G17KT 06/M06 A2966 830 43 0 VRB/04G17 RMK AO1 T00561061
54779K12N 12N20160408153511904/08/16 15:35:31  5-MIN K12N 082035Z AUTO 25011G17KT 220V290 06/M06 A2966 830 43 0 270/11G17 230V300 RMK AO1 T00561061
54779K12N 12N20160408154011904/08/16 15:40:31  5-MIN K12N 082040Z AUTO 33009G17KT 280V010 06/M06 A2966 830 43 0 340/09G17 290V020 RMK AO1 T00561061
54779K12N 12N20160408154511904/08/16 15:45:31  5-MIN K12N 082045Z AUTO 31009G16KT 250V010 06/M06 A2966 830 43 0 320/09G16 260V020 RMK AO1 T00611056
54779K12N 12N20160408155011604/08/16 15:50:31  5-MIN K12N 082050Z AUTO VRB06G16KT 06/M06 A2966 830 41 0 VRB/06G16 RMK AO1 SLP049 T00611061 52014
54779K12N 12N20160408155511304/08/16 15:55:31  5-MIN K12N 082055Z AUTO 29007KT 250V320 06/M06 A2966 830 41 0 300/07 260V330 RMK AO1 T00611061
54779K12N 12N20160408160011304/08/16 16:00:31  5-MIN K12N 082100Z AUTO 27007KT 220V340 06/M06 A2966 820 41 0 290/07 230V350 RMK AO1 T00611061
54779K12N 12N20160408160511904/08/16 16:05:31  5-MIN K12N 082105Z AUTO 28007G14KT 230V330 06/M06 A2967 820 41 0 300/07G14 240V340 RMK AO1 T00611061
54779K12N 12N20160408161011904/08/16 16:10:31  5-MIN K12N 082110Z AUTO 26009G14KT 200V330 06/M06 A2967 820 41 0 280/09G14 210V340 RMK AO1 T00611061
54779K12N 12N20160408161509704/08/16 16:15:31  5-MIN K12N 082115Z AUTO VRB05KT 06/M06 A2967 820 41 0 VRB/05 RMK AO1 T00611061
54779K12N 12N20160408162009704/08/16 16:20:31  5-MIN K12N 082120Z AUTO VRB06KT 06/M06 A2967 810 41 0 VRB/06 RMK AO1 T00611061
54779K12N 12N20160408162509704/08/16 16:25:31  5-MIN K12N 082125Z AUTO VRB04KT 06/M06 A2968 810 41 0 VRB/04 RMK AO1 T00611061
54779K12N 12N20160408163008704/08/16 16:30:31  5-MIN K12N 082130Z AUTO 06/M06 A2968 810 41 0 M /M RMK AO1 T00611061
54779K12N 12N20160408163509704/08/16 16:35:31  5-MIN K12N 082135Z AUTO 31005KT 06/M06 A2968 810 41 0 320/05 RMK AO1 T00611061
54779K12N 12N20160408164009704/08/16 16:40:31  5-MIN K12N 082140Z AUTO VRB04KT 06/M06 A2968 800 43 0 VRB/04 RMK AO1 T00611056
54779K12N 12N20160408164509704/08/16 16:45:31  5-MIN K12N 082145Z AUTO VRB05KT 06/M06 A2969 800 41 0 VRB/05 RMK AO1 T00611061
54779K12N 12N20160408165009404/08/16 16:50:31  5-MIN K12N 082150Z AUTO 06/M06 A2969 800 43 0 M /M RMK AO1 SLP059 T00611056
54779K12N 12N20160408165509704/08/16 16:55:31  5-MIN K12N 082155Z AUTO 26006KT 06/M06 A2969 800 43 0 270/06 RMK AO1 T00611056
54779K12N 12N20160408170011304/08/16 17:00:31  5-MIN K12N 082200Z AUTO 30007KT 240V330 06/M06 A2969 800 41 0 310/07 250V340 RMK AO1 T00611061
54779K12N 12N20160408170509704/08/16 17:05:31  5-MIN K12N 082205Z AUTO VRB06KT 06/M06 A2969 800 43 0 VRB/06 RMK AO1 T00611056
54779K12N 12N20160408171009704/08/16 17:10:31  5-MIN K12N 082210Z AUTO 00000KT 06/M05 A2970 790 45 0 000/00 RMK AO1 T00611050
54779K12N 12N20160408171509704/08/16 17:15:31  5-MIN K12N 082215Z AUTO 29004KT 06/M06 A2970 790 43 0 300/04 RMK AO1 T00611056
54779K12N 12N20160408172010004/08/16 17:20:31  5-MIN K12N 082220Z AUTO VRB06KT 06/M06 A2970 790 44 -100 VRB/06 RMK AO1 T00561056
54779K12N 12N20160408172509704/08/16 17:25:31  5-MIN K12N 082225Z AUTO VRB03KT 06/M06 A2970 790 43 0 VRB/03 RMK AO1 T00611056
54779K12N 12N20160408173009704/08/16 17:30:31  5-MIN K12N 082230Z AUTO VRB04KT 07/M05 A2971 780 43 0 VRB/04 RMK AO1 T00671050
54779K12N 12N20160408173509704/08/16 17:35:31  5-MIN K12N 082235Z AUTO VRB05KT 06/M06 A2971 780 43 0 VRB/05 RMK AO1 T00611056
54779K12N 12N20160408174009704/08/16 17:40:31  5-MIN K12N 082240Z AUTO VRB03KT 06/M06 A2971 780 43 0 VRB/03 RMK AO1 T00611056
54779K12N 12N20160408174510004/08/16 17:45:31  5-MIN K12N 082245Z AUTO VRB06KT 06/M06 A2971 780 43 -100 VRB/06 RMK AO1 T00561061
54779K12N 12N20160408175012304/08/16 17:50:31  5-MIN K12N 082250Z AUTO 28007KT 250V330 06/M07 A2972 780 41 -100 290/07 260V340 RMK AO1 SLP069 T00561067
54779K12N 12N20160408175511604/08/16 17:55:31  5-MIN K12N 082255Z AUTO 29008KT 250V330 06/M07 A2972 770 41 -100 300/08 260V340 RMK AO1 T00561067
54779K12N 12N20160408180010004/08/16 18:00:31  5-MIN K12N 082300Z AUTO VRB04KT 05/M07 A2972 770 42 -200 VRB/04 RMK AO1 T00501067
54779K12N 12N20160408180510004/08/16 18:05:31  5-MIN K12N 082305Z AUTO 00000KT 05/M07 A2972 770 42 -200 000/00 RMK AO1 T00501067
54779K12N 12N20160408181010004/08/16 18:10:31  5-MIN K12N 082310Z AUTO 00000KT 05/M07 A2973 770 42 -200 000/00 RMK AO1 T00501067
54779K12N 12N20160408181510004/08/16 18:15:31  5-MIN K12N 082315Z AUTO VRB03KT 05/M07 A2973 760 42 -200 VRB/03 RMK AO1 T00501067
54779K12N 12N20160408182010004/08/16 18:20:31  5-MIN K12N 082320Z AUTO VRB03KT 05/M07 A2973 760 42 -200 VRB/03 RMK AO1 T00501067
54779K12N 12N20160408182510004/08/16 18:25:31  5-MIN K12N 082325Z AUTO VRB03KT 05/M07 A2973 760 42 -200 VRB/03 RMK AO1 T00501067
54779K12N 12N20160408183010004/08/16 18:30:31  5-MIN K12N 082330Z AUTO 00000KT 05/M07 A2973 760 42 -200 000/00 RMK AO1 T00501067
54779K12N 12N20160408183510004/08/16 18:35:31  5-MIN K12N 082335Z AUTO VRB03KT 05/M07 A2974 760 42 -200 VRB/03 RMK AO1 T00501067
54779K12N 12N20160408184010004/08/16 18:40:31  5-MIN K12N 082340Z AUTO 00000KT 04/M07 A2974 750 44 -300 000/00 RMK AO1 T00441067
54779K12N 12N20160408184510004/08/16 18:45:31  5-MIN K12N 082345Z AUTO 00000KT 04/M07 A2974 750 44 -300 000/00 RMK AO1 T00441067
54779K12N 12N20160408185012504/08/16 18:50:31  5-MIN K12N 082350Z AUTO 00000KT 04/M07 A2974 750 44 -300 000/00 RMK AO1 SLP078 T00441067 10067 20044 51009
54779K12N 12N20160408185510004/08/16 18:55:31  5-MIN K12N 082355Z AUTO 00000KT 04/M07 A2974 750 42 -300 000/00 RMK AO1 T00441072
54779K12N 12N20160408190010004/08/16 19:00:31  5-MIN K12N 090000Z AUTO 00000KT 04/M07 A2974 750 46 -300 000/00 RMK AO1 T00391067
54779K12N 12N20160408190510004/08/16 19:05:31  5-MIN K12N 090005Z AUTO 00000KT 03/M06 A2975 750 50 -400 000/00 RMK AO1 T00331061
54779K12N 12N20160408191010004/08/16 19:10:31  5-MIN K12N 090010Z AUTO 00000KT 03/M06 A2975 750 52 -400 000/00 RMK AO1 T00331056
54779K12N 12N20160408191510004/08/16 19:15:31  5-MIN K12N 090015Z AUTO 00000KT 02/M05 A2975 740 59 -500 000/00 RMK AO1 T00221050
54779K12N 12N20160408192010004/08/16 19:20:31  5-MIN K12N 090020Z AUTO 00000KT 02/M05 A2975 740 61 -600 000/00 RMK AO1 T00171050
54779K12N 12N20160408192510004/08/16 19:25:31  5-MIN K12N 090025Z AUTO 00000KT 02/M05 A2975 740 61 -600 000/00 RMK AO1 T00171050
54779K12N 12N20160408193010004/08/16 19:30:31  5-MIN K12N 090030Z AUTO 00000KT 02/M05 A2976 740 61 -600 000/00 RMK AO1 T00171050
54779K12N 12N20160408193510004/08/16 19:35:31  5-MIN K12N 090035Z AUTO 00000KT 02/M05 A2976 740 61 -600 000/00 RMK AO1 T00171050
54779K12N 12N20160408194010004/08/16 19:40:31  5-MIN K12N 090040Z AUTO 00000KT 01/M05 A2976 730 64 -700 000/00 RMK AO1 T00111050
54779K12N 12N20160408194510004/08/16 19:45:31  5-MIN K12N 090045Z AUTO 00000KT 01/M05 A2976 730 64 -700 000/00 RMK AO1 T00111050
54779K12N 12N20160408195010704/08/16 19:50:31  5-MIN K12N 090050Z AUTO 00000KT 02/M04 A2976 730 64 -600 000/00 RMK AO1 SLP086 T00171044
54779K12N 12N20160408195510004/08/16 19:55:31  5-MIN K12N 090055Z AUTO 00000KT 01/M04 A2976 730 69 -700 000/00 RMK AO1 T00111039
54779K12N 12N20160408200010004/08/16 20:00:31  5-MIN K12N 090100Z AUTO 00000KT 01/M04 A2976 730 66 -700 000/00 RMK AO1 T00111044
54779K12N 12N20160408200510004/08/16 20:05:31  5-MIN K12N 090105Z AUTO 00000KT 01/M05 A2977 730 64 -700 000/00 RMK AO1 T00111050
54779K12N 12N20160408201010004/08/16 20:10:31  5-MIN K12N 090110Z AUTO 00000KT 01/M05 A2977 730 64 -700 000/00 RMK AO1 T00111050
54779K12N 12N20160408201510004/08/16 20:15:31  5-MIN K12N 090115Z AUTO 00000KT 01/M05 A2977 720 64 -700 000/00 RMK AO1 T00111050
54779K12N 12N20160408202010004/08/16 20:20:31  5-MIN K12N 090120Z AUTO 00000KT 01/M04 A2977 720 66 -700 000/00 RMK AO1 T00111044
54779K12N 12N20160408202510004/08/16 20:25:31  5-MIN K12N 090125Z AUTO 00000KT 01/M04 A2977 720 69 -700 000/00 RMK AO1 T00111039
54779K12N 12N20160408203010004/08/16 20:30:31  5-MIN K12N 090130Z AUTO 00000KT 01/M03 A2978 720 75 -800 000/00 RMK AO1 T00061033
54779K12N 12N20160408203510004/08/16 20:35:31  5-MIN K12N 090135Z AUTO 00000KT 01/M03 A2978 720 75 -800 000/00 RMK AO1 T00061033
54779K12N 12N20160408204010004/08/16 20:40:31  5-MIN K12N 090140Z AUTO 00000KT 01/M03 A2978 720 75 -800 000/00 RMK AO1 T00061033
54779K12N 12N20160408204510004/08/16 20:45:31  5-MIN K12N 090145Z AUTO 00000KT 00/M04 A2978 720 75 -800 000/00 RMK AO1 T00001039
54779K12N 12N20160408205010704/08/16 20:50:31  5-MIN K12N 090150Z AUTO 00000KT 00/M04 A2978 720 75 -800 000/00 RMK AO1 SLP091 T00001039
54779K12N 12N20160408205510004/08/16 20:55:31  5-MIN K12N 090155Z AUTO 00000KT 01/M04 A2978 720 72 -800 000/00 RMK AO1 T00061039
54779K12N 12N20160408210010004/08/16 21:00:31  5-MIN K12N 090200Z AUTO 00000KT 00/M03 A2978 720 78 -800 000/00 RMK AO1 T00001033
54779K12N 12N20160408210510004/08/16 21:05:31  5-MIN K12N 090205Z AUTO 00000KT 01/M04 A2978 720 72 -800 000/00 RMK AO1 T00061039
54779K12N 12N20160408211010004/08/16 21:10:31  5-MIN K12N 090210Z AUTO 00000KT 01/M04 A2978 720 72 -800 000/00 RMK AO1 T00061039
54779K12N 12N20160408211510004/08/16 21:15:31  5-MIN K12N 090215Z AUTO 00000KT 01/M04 A2978 720 72 -800 000/00 RMK AO1 T00061039
54779K12N 12N20160408212010004/08/16 21:20:31  5-MIN K12N 090220Z AUTO 00000KT 01/M03 A2978 720 75 -800 000/00 RMK AO1 T00061033
54779K12N 12N20160408212510004/08/16 21:25:31  5-MIN K12N 090225Z AUTO 00000KT 01/M03 A2978 720 75 -800 000/00 RMK AO1 T00061033
54779K12N 12N20160408213010004/08/16 21:30:31  5-MIN K12N 090230Z AUTO 00000KT 01/M03 A2978 710 75 -800 000/00 RMK AO1 T00061033
54779K12N 12N20160408213510004/08/16 21:35:31  5-MIN K12N 090235Z AUTO 00000KT 00/M03 A2978 710 78 -900 000/00 RMK AO1 T00001033
54779K12N 12N20160408214010004/08/16 21:40:31  5-MIN K12N 090240Z AUTO 00000KT 01/M03 A2978 710 75 -800 000/00 RMK AO1 T00061033
54779K12N 12N20160408214510004/08/16 21:45:31  5-MIN K12N 090245Z AUTO 00000KT 01/M03 A2978 710 75 -800 000/00 RMK AO1 T00061033
54779K12N 12N20160408215011304/08/16 21:50:31  5-MIN K12N 090250Z AUTO 00000KT 01/M03 A2978 710 75 -800 000/00 RMK AO1 SLP093 T00061033 51027
54779K12N 12N20160408215510004/08/16 21:55:31  5-MIN K12N 090255Z AUTO 00000KT 01/M03 A2978 710 75 -800 000/00 RMK AO1 T00061033
54779K12N 12N20160408220010004/08/16 22:00:31  5-MIN K12N 090300Z AUTO 00000KT 01/M03 A2978 710 75 -800 000/00 RMK AO1 T00061033
54779K12N 12N20160408221010004/08/16 22:10:31  5-MIN K12N 090310Z AUTO 00000KT 01/M03 A2978 710 72 -700 000/00 RMK AO1 T00111033
54779K12N 12N20160408221510004/08/16 22:15:31  5-MIN K12N 090315Z AUTO 00000KT 01/M03 A2978 720 75 -800 000/00 RMK AO1 T00061033
54779K12N 12N20160408222010004/08/16 22:20:31  5-MIN K12N 090320Z AUTO 00000KT 01/M03 A2978 720 75 -800 000/00 RMK AO1 T00061033
54779K12N 12N20160408222510004/08/16 22:25:31  5-MIN K12N 090325Z AUTO 00000KT 01/M03 A2978 720 75 -800 000/00 RMK AO1 T00061033
54779K12N 12N20160408223010004/08/16 22:30:31  5-MIN K12N 090330Z AUTO 00000KT 01/M03 A2978 720 75 -800 000/00 RMK AO1 T00061033
54779K12N 12N20160408223510004/08/16 22:35:31  5-MIN K12N 090335Z AUTO 00000KT 00/M03 A2977 720 78 -800 000/00 RMK AO1 T00001033
54779K12N 12N20160408224010004/08/16 22:40:31  5-MIN K12N 090340Z AUTO 00000KT 00/M04 A2977 720 75 -800 000/00 RMK AO1 T00001039
54779K12N 12N20160408224510004/08/16 22:45:31  5-MIN K12N 090345Z AUTO 00000KT 00/M04 A2977 720 75 -800 000/00 RMK AO1 T00001039
54779K12N 12N20160408225010704/08/16 22:50:31  5-MIN K12N 090350Z AUTO 00000KT 00/M04 A2977 720 75 -800 000/00 RMK AO1 SLP090 T00001039
54779K12N 12N20160408225510104/08/16 22:55:31  5-MIN K12N 090355Z AUTO 00000KT M01/M04 A2977 720 78 -900 000/00 RMK AO1 T10061039
54779K12N 12N20160408230010104/08/16 23:00:31  5-MIN K12N 090400Z AUTO 00000KT M01/M04 A2977 720 78 -900 000/00 RMK AO1 T10061039
54779K12N 12N20160408230510204/08/16 23:05:31  5-MIN K12N 090405Z AUTO 00000KT M01/M04 A2977 720 81 -1000 000/00 RMK AO1 T10111039
54779K12N 12N20160408231010104/08/16 23:10:31  5-MIN K12N 090410Z AUTO 00000KT M01/M04 A2977 720 78 -900 000/00 RMK AO1 T10061039
54779K12N 12N20160408231510104/08/16 23:15:31  5-MIN K12N 090415Z AUTO 00000KT M01/M04 A2977 730 78 -900 000/00 RMK AO1 T10061039
54779K12N 12N20160408232010104/08/16 23:20:31  5-MIN K12N 090420Z AUTO 00000KT M01/M04 A2977 720 78 -900 000/00 RMK AO1 T10061039
54779K12N 12N20160408232510104/08/16 23:25:31  5-MIN K12N 090425Z AUTO 00000KT M01/M04 A2977 730 78 -900 000/00 RMK AO1 T10061039
54779K12N 12N20160408233010104/08/16 23:30:31  5-MIN K12N 090430Z AUTO 00000KT M01/M04 A2977 730 78 -900 000/00 RMK AO1 T10061039
54779K12N 12N20160408233510104/08/16 23:35:31  5-MIN K12N 090435Z AUTO 00000KT M01/M04 A2977 730 78 -900 000/00 RMK AO1 T10061039
54779K12N 12N20160408234010104/08/16 23:40:31  5-MIN K12N 090440Z AUTO 00000KT M01/M04 A2977 730 78 -900 000/00 RMK AO1 T10061039
54779K12N 12N20160408234510104/08/16 23:45:31  5-MIN K12N 090445Z AUTO 00000KT M01/M04 A2976 730 78 -900 000/00 RMK AO1 T10061039
54779K12N 12N20160408235011804/08/16 23:50:31  5-MIN K12N 090450Z AUTO 00000KT M01/M04 A2976 730 78 -900 000/00 RMK AO1 SLP088 T10061039 400721011
54779K12N 12N20160408235510104/08/16 23:55:31  5-MIN K12N 090455Z AUTO 00000KT M01/M04 A2976 730 75 -900 000/00 RMK AO1 T10061044
54779K12N 12N20160409000010104/09/16 00:00:31  5-MIN K12N 090500Z AUTO 00000KT M01/M04 A2976 730 75 -900 000/00 RMK AO1 T10061044
54779K12N 12N20160409000510104/09/16 00:05:31  5-MIN K12N 090505Z AUTO 00000KT M01/M04 A2976 730 75 -900 000/00 RMK AO1 T10061044
54779K12N 12N20160409001010104/09/16 00:10:31  5-MIN K12N 090510Z AUTO 00000KT M01/M04 A2976 730 78 -900 000/00 RMK AO1 T10061039
54779K12N 12N20160409001510104/09/16 00:15:31  5-MIN K12N 090515Z AUTO 00000KT M01/M04 A2976 730 75 -900 000/00 RMK AO1 T10061044
54779K12N 12N20160409002010204/09/16 00:20:31  5-MIN K12N 090520Z AUTO 00000KT M01/M04 A2976 730 81 -1000 000/00 RMK AO1 T10111039
54779K12N 12N20160409002510204/09/16 00:25:31  5-MIN K12N 090525Z AUTO 00000KT M01/M04 A2976 730 81 -1000 000/00 RMK AO1 T10111039
54779K12N 12N20160409003010204/09/16 00:30:31  5-MIN K12N 090530Z AUTO 00000KT M01/M04 A2976 740 81 -1000 000/00 RMK AO1 T10111039
54779K12N 12N20160409003510204/09/16 00:35:31  5-MIN K12N 090535Z AUTO 00000KT M01/M04 A2976 740 81 -1000 000/00 RMK AO1 T10111039
54779K12N 12N20160409004010204/09/16 00:40:31  5-MIN K12N 090540Z AUTO 00000KT M01/M04 A2976 740 81 -1000 000/00 RMK AO1 T10111039
54779K12N 12N20160409004510204/09/16 00:45:31  5-MIN K12N 090545Z AUTO 00000KT M02/M04 A2976 740 85 -1000 000/00 RMK AO1 T10171039
54779K12N 12N20160409005012704/09/16 00:50:31  5-MIN K12N 090550Z AUTO 00000KT M01/M03 A2976 740 85 -1000 000/00 RMK AO1 SLP085 T10111033 10044 21017 51014
54779K12N 12N20160409005510204/09/16 00:55:31  5-MIN K12N 090555Z AUTO 00000KT M02/M03 A2976 740 88 -1000 000/00 RMK AO1 T10171033
54779K12N 12N20160409010010204/09/16 01:00:31  5-MIN K12N 090600Z AUTO 00000KT M02/M04 A2976 740 85 -1000 000/00 RMK AO1 T10171039
54779K12N 12N20160409010510204/09/16 01:05:31  5-MIN K12N 090605Z AUTO 00000KT M02/M04 A2975 740 85 -1000 000/00 RMK AO1 T10171039
54779K12N 12N20160409011010204/09/16 01:10:31  5-MIN K12N 090610Z AUTO 00000KT M02/M04 A2975 740 81 -1000 000/00 RMK AO1 T10171044
54779K12N 12N20160409011510204/09/16 01:15:31  5-MIN K12N 090615Z AUTO 00000KT M02/M05 A2975 740 78 -1000 000/00 RMK AO1 T10171050
54779K12N 12N20160409012010204/09/16 01:20:31  5-MIN K12N 090620Z AUTO 00000KT M02/M05 A2975 740 81 -1100 000/00 RMK AO1 T10221050
54779K12N 12N20160409012510204/09/16 01:25:31  5-MIN K12N 090625Z AUTO 00000KT M02/M05 A2975 750 81 -1100 000/00 RMK AO1 T10221050
54779K12N 12N20160409013010204/09/16 01:30:31  5-MIN K12N 090630Z AUTO 00000KT M02/M05 A2974 750 78 -1000 000/00 RMK AO1 T10171050
54779K12N 12N20160409013510204/09/16 01:35:31  5-MIN K12N 090635Z AUTO 00000KT M02/M05 A2974 750 78 -1000 000/00 RMK AO1 T10171050
54779K12N 12N20160409014010204/09/16 01:40:31  5-MIN K12N 090640Z AUTO 00000KT M02/M05 A2974 750 81 -1100 000/00 RMK AO1 T10221050
54779K12N 12N20160409014510204/09/16 01:45:31  5-MIN K12N 090645Z AUTO 00000KT M02/M05 A2974 750 78 -1000 000/00 RMK AO1 T10171050
54779K12N 12N20160409015010904/09/16 01:50:31  5-MIN K12N 090650Z AUTO 00000KT M02/M05 A2974 750 78 -1000 000/00 RMK AO1 SLP080 T10171050
54779K12N 12N20160409015510204/09/16 01:55:31  5-MIN K12N 090655Z AUTO 00000KT M02/M04 A2974 750 81 -1000 000/00 RMK AO1 T10171044
54779K12N 12N20160409020010204/09/16 02:00:31  5-MIN K12N 090700Z AUTO 00000KT M02/M04 A2974 750 81 -1000 000/00 RMK AO1 T10171044
54779K12N 12N20160409020510204/09/16 02:05:31  5-MIN K12N 090705Z AUTO 00000KT M02/M04 A2974 750 81 -1000 000/00 RMK AO1 T10171044
54779K12N 12N20160409021010204/09/16 02:10:31  5-MIN K12N 090710Z AUTO 00000KT M02/M04 A2975 750 88 -1100 000/00 RMK AO1 T10221039
54779K12N 12N20160409021510204/09/16 02:15:31  5-MIN K12N 090715Z AUTO 00000KT M02/M04 A2975 750 85 -1100 000/00 RMK AO1 T10221044
54779K12N 12N20160409022010204/09/16 02:20:31  5-MIN K12N 090720Z AUTO 00000KT M02/M04 A2975 750 85 -1100 000/00 RMK AO1 T10221044
54779K12N 12N20160409022510204/09/16 02:25:31  5-MIN K12N 090725Z AUTO 00000KT M02/M04 A2975 750 85 -1100 000/00 RMK AO1 T10221044
54779K12N 12N20160409023010204/09/16 02:30:31  5-MIN K12N 090730Z AUTO 00000KT M02/M04 A2975 750 85 -1100 000/00 RMK AO1 T10221044
54779K12N 12N20160409023510204/09/16 02:35:31  5-MIN K12N 090735Z AUTO 00000KT M03/M04 A2974 750 88 -1200 000/00 RMK AO1 T10281044
54779K12N 12N20160409024010204/09/16 02:40:31  5-MIN K12N 090740Z AUTO 00000KT M03/M05 A2974 750 85 -1200 000/00 RMK AO1 T10281050
54779K12N 12N20160409024510204/09/16 02:45:31  5-MIN K12N 090745Z AUTO 00000KT M02/M04 A2974 750 85 -1100 000/00 RMK AO1 T10221044
54779K12N 12N20160409025010904/09/16 02:50:31  5-MIN K12N 090750Z AUTO 00000KT M03/M05 A2974 750 85 -1200 000/00 RMK AO1 SLP080 T10281050
54779K12N 12N20160409025510204/09/16 02:55:31  5-MIN K12N 090755Z AUTO 00000KT M03/M05 A2974 750 85 -1200 000/00 RMK AO1 T10281050
54779K12N 12N20160409030010204/09/16 03:00:31  5-MIN K12N 090800Z AUTO 00000KT M03/M05 A2974 750 85 -1200 000/00 RMK AO1 T10281050
54779K12N 12N20160409030510204/09/16 03:05:31  5-MIN K12N 090805Z AUTO 00000KT M03/M05 A2974 760 85 -1200 000/00 RMK AO1 T10281050
54779K12N 12N20160409031010204/09/16 03:10:31  5-MIN K12N 090810Z AUTO 00000KT M03/M05 A2974 760 85 -1200 000/00 RMK AO1 T10281050
54779K12N 12N20160409031510204/09/16 03:15:31  5-MIN K12N 090815Z AUTO 00000KT M03/M05 A2973 760 85 -1200 000/00 RMK AO1 T10281050
54779K12N 12N20160409032010204/09/16 03:20:31  5-MIN K12N 090820Z AUTO 00000KT M03/M05 A2973 760 85 -1100 000/00 RMK AO1 T10281050
54779K12N 12N20160409032510204/09/16 03:25:31  5-MIN K12N 090825Z AUTO 00000KT M03/M05 A2973 760 85 -1100 000/00 RMK AO1 T10281050
54779K12N 12N20160409033010204/09/16 03:30:31  5-MIN K12N 090830Z AUTO 00000KT M03/M05 A2973 760 85 -1100 000/00 RMK AO1 T10281050
54779K12N 12N20160409033510204/09/16 03:35:31  5-MIN K12N 090835Z AUTO 00000KT M03/M05 A2973 760 85 -1100 000/00 RMK AO1 T10281050
54779K12N 12N20160409034010204/09/16 03:40:31  5-MIN K12N 090840Z AUTO 00000KT M03/M05 A2973 760 85 -1100 000/00 RMK AO1 T10281050
54779K12N 12N20160409034510204/09/16 03:45:31  5-MIN K12N 090845Z AUTO 00000KT M03/M05 A2973 760 85 -1100 000/00 RMK AO1 T10281050
54779K12N 12N20160409035011504/09/16 03:50:31  5-MIN K12N 090850Z AUTO 00000KT M03/M05 A2973 760 85 -1100 000/00 RMK AO1 SLP075 T10281050 56009
54779K12N 12N20160409035510204/09/16 03:55:31  5-MIN K12N 090855Z AUTO 00000KT M03/M05 A2973 760 85 -1100 000/00 RMK AO1 T10281050
54779K12N 12N20160409040010204/09/16 04:00:31  5-MIN K12N 090900Z AUTO 00000KT M03/M04 A2973 770 88 -1100 000/00 RMK AO1 T10281044
54779K12N 12N20160409040510204/09/16 04:05:31  5-MIN K12N 090905Z AUTO 00000KT M03/M04 A2973 760 88 -1100 000/00 RMK AO1 T10281044
54779K12N 12N20160409041010204/09/16 04:10:31  5-MIN K12N 090910Z AUTO 00000KT M03/M04 A2973 770 88 -1100 000/00 RMK AO1 T10281044
54779K12N 12N20160409041510204/09/16 04:15:31  5-MIN K12N 090915Z AUTO 00000KT M03/M04 A2972 770 88 -1100 000/00 RMK AO1 T10281044
54779K12N 12N20160409042010204/09/16 04:20:31  5-MIN K12N 090920Z AUTO 00000KT M03/M04 A2973 770 88 -1100 000/00 RMK AO1 T10281044
54779K12N 12N20160409042510204/09/16 04:25:31  5-MIN K12N 090925Z AUTO 00000KT M03/M04 A2973 760 88 -1100 000/00 RMK AO1 T10281044
54779K12N 12N20160409043010204/09/16 04:30:31  5-MIN K12N 090930Z AUTO 00000KT M03/M04 A2973 760 88 -1100 000/00 RMK AO1 T10281044
54779K12N 12N20160409043510204/09/16 04:35:31  5-MIN K12N 090935Z AUTO 00000KT M03/M04 A2972 770 88 -1100 000/00 RMK AO1 T10281044
54779K12N 12N20160409044010204/09/16 04:40:31  5-MIN K12N 090940Z AUTO 00000KT M03/M04 A2972 770 88 -1100 000/00 RMK AO1 T10281044
54779K12N 12N20160409044510204/09/16 04:45:31  5-MIN K12N 090945Z AUTO 00000KT M03/M04 A2972 770 88 -1100 000/00 RMK AO1 T10281044
54779K12N 12N20160409045010904/09/16 04:50:31  5-MIN K12N 090950Z AUTO 00000KT M03/M04 A2972 770 88 -1100 000/00 RMK AO1 SLP074 T10281044
54779K12N 12N20160409045510204/09/16 04:55:31  5-MIN K12N 090955Z AUTO 00000KT M03/M04 A2972 770 88 -1100 000/00 RMK AO1 T10281044
54779K12N 12N20160409050010204/09/16 05:00:31  5-MIN K12N 091000Z AUTO 00000KT M03/M04 A2973 770 88 -1100 000/00 RMK AO1 T10281044
54779K12N 12N20160409050510204/09/16 05:05:31  5-MIN K12N 091005Z AUTO 00000KT M03/M04 A2972 770 88 -1100 000/00 RMK AO1 T10281044
54779K12N 12N20160409051010204/09/16 05:10:31  5-MIN K12N 091010Z AUTO 00000KT M03/M04 A2972 770 88 -1100 000/00 RMK AO1 T10281044
54779K12N 12N20160409051510204/09/16 05:15:31  5-MIN K12N 091015Z AUTO 00000KT M03/M04 A2972 770 88 -1100 000/00 RMK AO1 T10281044
54779K12N 12N20160409052010204/09/16 05:20:31  5-MIN K12N 091020Z AUTO 00000KT M03/M04 A2972 770 88 -1100 000/00 RMK AO1 T10281044
54779K12N 12N20160409052510204/09/16 05:25:31  5-MIN K12N 091025Z AUTO 00000KT M03/M04 A2972 770 88 -1100 000/00 RMK AO1 T10281044
54779K12N 12N20160409053010204/09/16 05:30:31  5-MIN K12N 091030Z AUTO 00000KT M03/M04 A2973 770 88 -1100 000/00 RMK AO1 T10281044
54779K12N 12N20160409053510204/09/16 05:35:31  5-MIN K12N 091035Z AUTO 00000KT M03/M04 A2972 770 88 -1100 000/00 RMK AO1 T10281044
54779K12N 12N20160409054010204/09/16 05:40:31  5-MIN K12N 091040Z AUTO 00000KT M03/M04 A2973 770 88 -1100 000/00 RMK AO1 T10281044
54779K12N 12N20160409054510204/09/16 05:45:31  5-MIN K12N 091045Z AUTO 00000KT M03/M04 A2973 760 88 -1100 000/00 RMK AO1 T10281044
54779K12N 12N20160409055010904/09/16 05:50:31  5-MIN K12N 091050Z AUTO 00000KT M03/M04 A2973 760 88 -1100 000/00 RMK AO1 SLP076 T10281044
54779K12N 12N20160409055510204/09/16 05:55:31  5-MIN K12N 091055Z AUTO 00000KT M03/M04 A2973 760 88 -1100 000/00 RMK AO1 T10281044
54779K12N 12N20160409060010204/09/16 06:00:31  5-MIN K12N 091100Z AUTO 00000KT M03/M04 A2973 760 88 -1100 000/00 RMK AO1 T10281044
54779K12N 12N20160409060510204/09/16 06:05:31  5-MIN K12N 091105Z AUTO 00000KT M03/M04 A2973 760 88 -1100 000/00 RMK AO1 T10281044
54779K12N 12N20160409061010204/09/16 06:10:31  5-MIN K12N 091110Z AUTO 00000KT M02/M04 A2973 760 85 -1100 000/00 RMK AO1 T10221044
54779K12N 12N20160409061510204/09/16 06:15:31  5-MIN K12N 091115Z AUTO 00000KT M02/M04 A2973 760 88 -1100 000/00 RMK AO1 T10221039
54779K12N 12N20160409062010204/09/16 06:20:31  5-MIN K12N 091120Z AUTO 00000KT M02/M04 A2974 750 85 -1000 000/00 RMK AO1 T10171039
54779K12N 12N20160409062510204/09/16 06:25:31  5-MIN K12N 091125Z AUTO 00000KT M02/M04 A2974 760 85 -1000 000/00 RMK AO1 T10171039
54779K12N 12N20160409063010104/09/16 06:30:31  5-MIN K12N 091130Z AUTO 00000KT M01/M03 A2974 750 85 -900 000/00 RMK AO1 T10111033
54779K12N 12N20160409063510104/09/16 06:35:31  5-MIN K12N 091135Z AUTO 00000KT M01/M04 A2974 750 81 -900 000/00 RMK AO1 T10111039
54779K12N 12N20160409064010104/09/16 06:40:31  5-MIN K12N 091140Z AUTO 36003KT M01/M03 A2974 750 85 -900 010/03 RMK AO1 T10111033
54779K12N 12N20160409064510104/09/16 06:45:31  5-MIN K12N 091145Z AUTO 00000KT M01/M03 A2974 750 85 -900 000/00 RMK AO1 T10111033
54779K12N 12N20160409065012604/09/16 06:50:31  5-MIN K12N 091150Z AUTO 00000KT M01/M04 A2974 750 81 -900 000/00 RMK AO1 SLP080 T10111039 11011 21033 56010
54779K12N 12N20160409065510104/09/16 06:55:31  5-MIN K12N 091155Z AUTO 00000KT M01/M04 A2974 750 78 -900 000/00 RMK AO1 T10061039
54779K12N 12N20160409070010104/09/16 07:00:31  5-MIN K12N 091200Z AUTO VRB03KT M01/M04 A2974 750 78 -900 VRB/03 RMK AO1 T10061039
54779K12N 12N20160409070510104/09/16 07:05:31  5-MIN K12N 091205Z AUTO 00000KT M01/M04 A2974 750 78 -900 000/00 RMK AO1 T10061039
54779K12N 12N20160409071010104/09/16 07:10:31  5-MIN K12N 091210Z AUTO 00000KT M01/M04 A2974 750 78 -900 000/00 RMK AO1 T10061039
54779K12N 12N20160409071510104/09/16 07:15:31  5-MIN K12N 091215Z AUTO 00000KT M01/M04 A2974 750 78 -900 000/00 RMK AO1 T10061039
54779K12N 12N20160409072010104/09/16 07:20:31  5-MIN K12N 091220Z AUTO 00000KT M01/M04 A2974 750 78 -900 000/00 RMK AO1 T10061039
54779K12N 12N20160409072510004/09/16 07:25:31  5-MIN K12N 091225Z AUTO 00000KT 00/M04 A2974 750 75 -800 000/00 RMK AO1 T00001039
54779K12N 12N20160409073010104/09/16 07:30:31  5-MIN K12N 091230Z AUTO VRB03KT M01/M04 A2974 750 78 -900 VRB/03 RMK AO1 T10061039
54779K12N 12N20160409073510004/09/16 07:35:31  5-MIN K12N 091235Z AUTO 00000KT 00/M04 A2974 750 75 -800 000/00 RMK AO1 T00001039
54779K12N 12N20160409074010004/09/16 07:40:31  5-MIN K12N 091240Z AUTO VRB04KT 00/M04 A2974 760 72 -800 VRB/04 RMK AO1 T00001044
54779K12N 12N20160409074510004/09/16 07:45:31  5-MIN K12N 091245Z AUTO 00000KT 00/M04 A2974 750 72 -800 000/00 RMK AO1 T00001044
54779K12N 12N20160409075010704/09/16 07:50:31  5-MIN K12N 091250Z AUTO 00000KT 00/M04 A2974 760 72 -800 000/00 RMK AO1 SLP079 T00001044
54779K12N 12N20160409075510004/09/16 07:55:31  5-MIN K12N 091255Z AUTO 03005KT 01/M04 A2974 760 72 -700 040/05 RMK AO1 T00061039
54779K12N 12N20160409080010004/09/16 08:00:31  5-MIN K12N 091300Z AUTO 03006KT 01/M04 A2974 760 69 -700 050/06 RMK AO1 T00061044
54779K12N 12N20160409080510004/09/16 08:05:31  5-MIN K12N 091305Z AUTO 03005KT 01/M04 A2974 760 72 -700 040/05 RMK AO1 T00061039
54779K12N 12N20160409081010004/09/16 08:10:31  5-MIN K12N 091310Z AUTO VRB04KT 01/M04 A2973 760 69 -700 VRB/04 RMK AO1 T00061044
54779K12N 12N20160409081510004/09/16 08:15:31  5-MIN K12N 091315Z AUTO 03005KT 01/M04 A2973 760 69 -700 040/05 RMK AO1 T00111039
54779K12N 12N20160409082010004/09/16 08:20:31  5-MIN K12N 091320Z AUTO 03007KT 01/M04 A2973 760 66 -700 040/07 RMK AO1 T00111044
54779K12N 12N20160409082510004/09/16 08:25:31  5-MIN K12N 091325Z AUTO 04008KT 01/M04 A2973 760 66 -700 050/08 RMK AO1 T00111044
54779K12N 12N20160409083010004/09/16 08:30:31  5-MIN K12N 091330Z AUTO 03005KT 01/M04 A2973 760 66 -700 050/05 RMK AO1 T00111044
54779K12N 12N20160409083510004/09/16 08:35:31  5-MIN K12N 091335Z AUTO VRB05KT 02/M04 A2973 760 66 -600 VRB/05 RMK AO1 T00171039
54779K12N 12N20160409084010004/09/16 08:40:31  5-MIN K12N 091340Z AUTO VRB05KT 02/M04 A2973 760 66 -600 VRB/05 RMK AO1 T00171039
54779K12N 12N20160409084510004/09/16 08:45:31  5-MIN K12N 091345Z AUTO VRB04KT 02/M04 A2973 760 66 -600 VRB/04 RMK AO1 T00171039
54779K12N 12N20160409085010704/09/16 08:50:31  5-MIN K12N 091350Z AUTO VRB06KT 02/M04 A2973 760 64 -500 VRB/06 RMK AO1 SLP077 T00221039
54779K12N 12N20160409085510004/09/16 08:55:31  5-MIN K12N 091355Z AUTO 03006KT 02/M04 A2973 770 64 -500 050/06 RMK AO1 T00221039
54779K12N 12N20160409090010004/09/16 09:00:31  5-MIN K12N 091400Z AUTO VRB05KT 02/M04 A2972 770 61 -500 VRB/05 RMK AO1 T00221044
54779K12N 12N20160409090510004/09/16 09:05:31  5-MIN K12N 091405Z AUTO 03006KT 02/M04 A2972 770 61 -500 040/06 RMK AO1 T00221044
54779K12N 12N20160409091009004/09/16 09:10:31  5-MIN K12N 091410Z AUTO 03/M04 A2972 770 61 -400 M /M RMK AO1 T00281039
54779K12N 12N20160409091510004/09/16 09:15:31  5-MIN K12N 091415Z AUTO 03006KT 03/M04 A2972 770 59 -400 050/06 RMK AO1 T00281044
54779K12N 12N20160409092010004/09/16 09:20:31  5-MIN K12N 091420Z AUTO VRB05KT 03/M04 A2972 770 61 -400 VRB/05 RMK AO1 T00281039
54779K12N 12N20160409092510004/09/16 09:25:31  5-MIN K12N 091425Z AUTO VRB03KT 03/M03 A2972 770 64 -400 VRB/03 RMK AO1 T00281033
54779K12N 12N20160409093010004/09/16 09:30:31  5-MIN K12N 091430Z AUTO VRB04KT 03/M04 A2972 770 61 -400 VRB/04 RMK AO1 T00281039
54779K12N 12N20160409093510004/09/16 09:35:31  5-MIN K12N 091435Z AUTO VRB03KT 03/M04 A2972 770 61 -400 VRB/03 RMK AO1 T00281039
54779K12N 12N20160409094010004/09/16 09:40:31  5-MIN K12N 091440Z AUTO VRB03KT 03/M04 A2972 770 61 -400 VRB/03 RMK AO1 T00281039
54779K12N 12N20160409094509004/09/16 09:45:31  5-MIN K12N 091445Z AUTO 03/M04 A2972 770 59 -400 M /M RMK AO1 T00281044
54779K12N 12N20160409095011304/09/16 09:50:31  5-MIN K12N 091450Z AUTO VRB05KT 03/M04 A2972 770 59 -400 VRB/05 RMK AO1 SLP074 T00281044 53005
54779K12N 12N20160409095510004/09/16 09:55:31  5-MIN K12N 091455Z AUTO 04005KT 03/M04 A2972 770 57 -400 050/05 RMK AO1 T00331044
54779K12N 12N20160409100010004/09/16 10:00:31  5-MIN K12N 091500Z AUTO VRB04KT 03/M04 A2972 770 57 -400 VRB/04 RMK AO1 T00331044
54779K12N 12N20160409100510004/09/16 10:05:31  5-MIN K12N 091505Z AUTO 36005KT 03/M04 A2972 770 57 -400 020/05 RMK AO1 T00331044
54779K12N 12N20160409190009904/09/16 19:00:31  5-MIN K12N 100000Z AUTO VRB04KT 01/00 A2986 640 92 -800 VRB/04 RMK AO1 T00110000
54779K12N 12N20160409190510004/09/16 19:05:31  5-MIN K12N 100005Z AUTO 35004KT 02/M01 A2987 630 82 -700 360/04 RMK AO1 T00171011
54779K12N 12N20160409191010004/09/16 19:10:31  5-MIN K12N 100010Z AUTO 35005KT 02/M02 A2987 630 72 -700 360/05 RMK AO1 T00221022
54779K12N 12N20160409191510004/09/16 19:15:31  5-MIN K12N 100015Z AUTO 34006KT 02/M02 A2988 630 72 -700 350/06 RMK AO1 T00221022
54779K12N 12N20160409192010004/09/16 19:20:31  5-MIN K12N 100020Z AUTO 35004KT 02/M03 A2988 620 69 -700 360/04 RMK AO1 T00221028
54779K12N 12N20160409192510704/09/16 19:25:31  5-MIN K12N 100025Z AUTO 32003KT 02/M03 A2989 620 67 -700 340/03 RMK AO1 PRESRR T00221033
54779K12N 12N20160409193010004/09/16 19:30:31  5-MIN K12N 100030Z AUTO VRB04KT 02/M03 A2989 610 67 -700 VRB/04 RMK AO1 T00221033
54779K12N 12N20160409193510004/09/16 19:35:31  5-MIN K12N 100035Z AUTO 35005KT 02/M03 A2990 610 69 -800 360/05 RMK AO1 T00171033
54779K12N 12N20160409194010004/09/16 19:40:31  5-MIN K12N 100040Z AUTO 35006KT 02/M04 A2990 600 64 -700 360/06 RMK AO1 T00221039
54779K12N 12N20160409194510004/09/16 19:45:31  5-MIN K12N 100045Z AUTO VRB06KT 02/M04 A2990 600 61 -700 VRB/06 RMK AO1 T00221044
54779K12N 12N20160409195012904/09/16 19:50:31  5-MIN K12N 100050Z AUTO 34008G16KT 300V010 02/M05 A2991 600 59 -700 350/08G16 310V020 RMK AO1 SLP138 T00221050
54779K12N 12N20160409195510604/09/16 19:55:31  5-MIN K12N 100055Z AUTO 35008G16KT 02/M06 A2991 590 56 -700 360/08G16 RMK AO1 T00221056
54779K12N 12N20160409200010604/09/16 20:00:31  5-MIN K12N 100100Z AUTO 35007G16KT 02/M06 A2992 590 56 -700 360/07G16 RMK AO1 T00221056
54779K12N 12N20160409200510604/09/16 20:05:31  5-MIN K12N 100105Z AUTO 35007G16KT 02/M06 A2992 580 59 -800 360/07G16 RMK AO1 T00171056
54779K12N 12N20160409201010004/09/16 20:10:31  5-MIN K12N 100110Z AUTO 35007KT 02/M06 A2993 580 59 -800 010/07 RMK AO1 T00171056
54779K12N 12N20160409201510004/09/16 20:15:31  5-MIN K12N 100115Z AUTO VRB06KT 02/M06 A2993 580 59 -800 VRB/06 RMK AO1 T00171056
54779K12N 12N20160409202010604/09/16 20:20:31  5-MIN K12N 100120Z AUTO 36010G16KT 02/M06 A2994 570 56 -800 010/10G16 RMK AO1 T00171061
54779K12N 12N20160409202512204/09/16 20:25:31  5-MIN K12N 100125Z AUTO 35008G16KT 310V030 02/M06 A2994 570 56 -800 360/08G16 320V040 RMK AO1 T00171061
54779K12N 12N20160409203010004/09/16 20:30:31  5-MIN K12N 100130Z AUTO VRB06KT 02/M06 A2994 560 56 -800 VRB/06 RMK AO1 T00171061
54779K12N 12N20160409203510004/09/16 20:35:31  5-MIN K12N 100135Z AUTO 35008KT 02/M06 A2995 560 56 -800 360/08 RMK AO1 T00171061
54779K12N 12N20160409204010004/09/16 20:40:31  5-MIN K12N 100140Z AUTO VRB05KT 02/M07 A2995 550 54 -800 VRB/05 RMK AO1 T00171067
54779K12N 12N20160409204510004/09/16 20:45:31  5-MIN K12N 100145Z AUTO 35005KT 01/M07 A2996 550 56 -900 360/05 RMK AO1 T00111067
54779K12N 12N20160409205011404/09/16 20:50:31  5-MIN K12N 100150Z AUTO VRB06KT 01/M07 A2997 540 56 -900 VRB/06 RMK AO1 PRESRR SLP156 T00111067
54779K12N 12N20160409205510004/09/16 20:55:31  5-MIN K12N 100155Z AUTO VRB05KT 01/M07 A2997 540 56 -900 VRB/05 RMK AO1 T00111067
54779K12N 12N20160409210010704/09/16 21:00:31  5-MIN K12N 100200Z AUTO VRB04KT 01/M07 A2998 530 56 -900 VRB/04 RMK AO1 PRESRR T00111067
54779K12N 12N20160409210511604/09/16 21:05:31  5-MIN K12N 100205Z AUTO 34007KT 300V020 01/M07 A2998 530 54 -900 360/07 310V030 RMK AO1 T00111072
54779K12N 12N20160409211010604/09/16 21:10:31  5-MIN K12N 100210Z AUTO 34008G20KT 01/M07 A2998 530 54 -900 350/08G20 RMK AO1 T00111072
54779K12N 12N20160409211512304/09/16 21:15:31  5-MIN K12N 100215Z AUTO 01007G20KT 340V050 01/M08 A2999 520 54 -1000 020/07G20 350V060 RMK AO1 T00061078
54779K12N 12N20160409212012304/09/16 21:20:31  5-MIN K12N 100220Z AUTO 34009G17KT 300V030 01/M08 A2999 520 51 -1000 360/09G17 310V040 RMK AO1 T00061083
54779K12N 12N20160409212512304/09/16 21:25:31  5-MIN K12N 100225Z AUTO 34008G18KT 300V010 01/M08 A3000 520 51 -1000 360/08G18 310V020 RMK AO1 T00061083
54779K12N 12N20160409213012304/09/16 21:30:31  5-MIN K12N 100230Z AUTO 34009G18KT 290V010 01/M08 A3000 510 51 -1000 350/09G18 300V020 RMK AO1 T00061083
54779K12N 12N20160409213510704/09/16 21:35:31  5-MIN K12N 100235Z AUTO 34009G17KT 01/M09 A3000 510 49 -1000 350/09G17 RMK AO1 T00061089
54779K12N 12N20160409214010704/09/16 21:40:31  5-MIN K12N 100240Z AUTO 36009G16KT 01/M09 A3000 510 49 -1000 010/09G16 RMK AO1 T00061089
54779K12N 12N20160409214512304/09/16 21:45:31  5-MIN K12N 100245Z AUTO 01007G14KT 350V050 01/M09 A3001 500 49 -1000 020/07G14 360V060 RMK AO1 T00061089
54779K12N 12N20160409215013004/09/16 21:50:31  5-MIN K12N 100250Z AUTO 35010KT 310V030 01/M09 A3001 500 49 -1000 360/10 320V040 RMK AO1 SLP171 T00061089 53026
54779K12N 12N20160409215510704/09/16 21:55:31  5-MIN K12N 100255Z AUTO VRB06G15KT 00/M09 A3001 500 51 -1100 VRB/06G15 RMK AO1 T00001089
54779K12N 12N20160409220010704/09/16 22:00:31  5-MIN K12N 100300Z AUTO VRB06G15KT 00/M09 A3002 500 51 -1100 VRB/06G15 RMK AO1 T00001089
54779K12N 12N20160409220511704/09/16 22:05:31  5-MIN K12N 100305Z AUTO 01008KT 340V050 00/M09 A3002 490 49 -1100 020/08 350V060 RMK AO1 T00001094
54779K12N 12N20160409221012304/09/16 22:10:31  5-MIN K12N 100310Z AUTO 02013G20KT 340V040 00/M09 A3002 490 49 -1100 030/13G20 350V050 RMK AO1 T00001094
54779K12N 12N20160409221510704/09/16 22:15:31  5-MIN K12N 100315Z AUTO 36008G20KT 00/M09 A3002 490 49 -1100 010/08G20 RMK AO1 T00001094
54779K12N 12N20160409222010704/09/16 22:20:31  5-MIN K12N 100320Z AUTO 36007G19KT 00/M10 A3003 490 47 -1100 010/07G19 RMK AO1 T00001100
54779K12N 12N20160409222510704/09/16 22:25:31  5-MIN K12N 100325Z AUTO VRB06G15KT 00/M09 A3003 480 49 -1100 VRB/06G15 RMK AO1 T00001094
54779K12N 12N20160409223010104/09/16 22:30:31  5-MIN K12N 100330Z AUTO 36004KT 00/M09 A3004 480 49 -1100 010/04 RMK AO1 T00001094
54779K12N 12N20160409223510204/09/16 22:35:31  5-MIN K12N 100335Z AUTO VRB03KT M01/M10 A3004 480 49 -1200 VRB/03 RMK AO1 T10061100
54779K12N 12N20160409224010204/09/16 22:40:31  5-MIN K12N 100340Z AUTO VRB05KT M01/M09 A3004 470 53 -1200 VRB/05 RMK AO1 T10061089
54779K12N 12N20160409224511804/09/16 22:45:31  5-MIN K12N 100345Z AUTO 35007KT 310V030 M01/M10 A3005 470 49 -1200 360/07 320V040 RMK AO1 T10061100
54779K12N 12N20160409225013104/09/16 22:50:31  5-MIN K12N 100350Z AUTO 02007G17KT 330V050 M01/M09 A3005 460 51 -1200 030/07G17 340V060 RMK AO1 SLP185 T10061094
54779K12N 12N20160409225510804/09/16 22:55:31  5-MIN K12N 100355Z AUTO 35007G17KT M01/M09 A3006 460 51 -1200 360/07G17 RMK AO1 T10061094
54779K12N 12N20160409230010804/09/16 23:00:31  5-MIN K12N 100400Z AUTO 34006G15KT M01/M10 A3006 460 49 -1200 360/06G15 RMK AO1 T10061100
54779K12N 12N20160409230510204/09/16 23:05:31  5-MIN K12N 100405Z AUTO VRB05KT M01/M10 A3006 450 49 -1300 VRB/05 RMK AO1 T10061100
54779K12N 12N20160409231010204/09/16 23:10:31  5-MIN K12N 100410Z AUTO 35008KT M01/M10 A3007 450 49 -1300 360/08 RMK AO1 T10061100
54779K12N 12N20160409231510804/09/16 23:15:31  5-MIN K12N 100415Z AUTO 36008G15KT M01/M10 A3007 450 49 -1300 010/08G15 RMK AO1 T10061100
54779K12N 12N20160409232010804/09/16 23:20:31  5-MIN K12N 100420Z AUTO 34006G21KT M01/M11 A3007 450 47 -1300 360/06G21 RMK AO1 T10061106
54779K12N 12N20160409232512404/09/16 23:25:31  5-MIN K12N 100425Z AUTO 33011G21KT 290V050 M01/M10 A3007 440 49 -1300 350/11G21 300V060 RMK AO1 T10061100
54779K12N 12N20160409233012404/09/16 23:30:31  5-MIN K12N 100430Z AUTO 36010G18KT 340V050 M01/M11 A3008 440 47 -1300 020/10G18 350V060 RMK AO1 T10061106
54779K12N 12N20160409233512404/09/16 23:35:31  5-MIN K12N 100435Z AUTO 01011G18KT 340V050 M01/M11 A3008 440 47 -1300 020/11G18 350V060 RMK AO1 T10061106
54779K12N 12N20160409234012404/09/16 23:40:31  5-MIN K12N 100440Z AUTO 01008G17KT 340V040 M01/M11 A3008 440 47 -1300 020/08G17 350V050 RMK AO1 T10061106
54779K12N 12N20160409234510804/09/16 23:45:31  5-MIN K12N 100445Z AUTO 36007G17KT M01/M11 A3009 430 49 -1300 010/07G17 RMK AO1 T10111106
54779K12N 12N20160409235012504/09/16 23:50:31  5-MIN K12N 100450Z AUTO 35008G18KT M01/M11 A3009 430 47 -1400 360/08G18 RMK AO1 SLP199 T10111111 400331033
54779K12N 12N20160409235512404/09/16 23:55:31  5-MIN K12N 100455Z AUTO 36007G18KT 330V030 M01/M11 A3009 430 49 -1400 010/07G18 340V040 RMK AO1 T10111106
54779K12N 12N20160410000011804/10/16 00:00:31  5-MIN K12N 100500Z AUTO 36007KT 320V060 M01/M10 A3009 430 51 -1400 010/07 330V070 RMK AO1 T10111100
54779K12N 12N20160410000510204/10/16 00:05:31  5-MIN K12N 100505Z AUTO 36008KT M01/M11 A3010 420 49 -1400 010/08 RMK AO1 T10111106
54779K12N 12N20160410001011804/10/16 00:10:31  5-MIN K12N 100510Z AUTO 36008KT 320V050 M01/M11 A3010 420 49 -1400 010/08 330V060 RMK AO1 T10111106
54779K12N 12N20160410001511804/10/16 00:15:31  5-MIN K12N 100515Z AUTO 35007KT 320V020 M01/M11 A3011 410 49 -1400 010/07 330V030 RMK AO1 T10111106
54779K12N 12N20160410002010204/10/16 00:20:31  5-MIN K12N 100520Z AUTO VRB05KT M01/M10 A3011 410 51 -1400 VRB/05 RMK AO1 T10111100
54779K12N 12N20160410002510204/10/16 00:25:31  5-MIN K12N 100525Z AUTO 35007KT M01/M10 A3011 410 51 -1400 360/07 RMK AO1 T10111100
54779K12N 12N20160410003011804/10/16 00:30:31  5-MIN K12N 100530Z AUTO 36007KT 330V040 M01/M11 A3011 410 49 -1400 010/07 340V050 RMK AO1 T10111106
54779K12N 12N20160410003510204/10/16 00:35:31  5-MIN K12N 100535Z AUTO VRB06KT M01/M10 A3012 400 51 -1400 VRB/06 RMK AO1 T10111100
54779K12N 12N20160410004010204/10/16 00:40:31  5-MIN K12N 100540Z AUTO VRB05KT M01/M10 A3012 400 51 -1400 VRB/05 RMK AO1 T10111100
54779K12N 12N20160410004511804/10/16 00:45:31  5-MIN K12N 100545Z AUTO 02008KT 350V050 M01/M10 A3012 400 51 -1400 030/08 360V060 RMK AO1 T10111100
54779K12N 12N20160410005014904/10/16 00:50:31  5-MIN K12N 100550Z AUTO 35010G17KT 320V020 M01/M11 A3012 400 49 -1400 360/10G17 330V030 RMK AO1 SLP211 T10111106 10022 21011 51051
54779K12N 12N20160410005510804/10/16 00:55:31  5-MIN K12N 100555Z AUTO VRB06G18KT M01/M11 A3013 400 49 -1400 VRB/06G18 RMK AO1 T10111106
54779K12N 12N20160410010010804/10/16 01:00:31  5-MIN K12N 100600Z AUTO 36009G18KT M01/M11 A3013 390 49 -1400 010/09G18 RMK AO1 T10111106
54779K12N 12N20160410010510804/10/16 01:05:31  5-MIN K12N 100605Z AUTO 36005G15KT M01/M11 A3013 390 49 -1400 020/05G15 RMK AO1 T10111106
54779K12N 12N20160410011009204/10/16 01:10:31  5-MIN K12N 100610Z AUTO M02/M11 A3013 390 51 -1500 M /M RMK AO1 T10171106
54779K12N 12N20160410011511804/10/16 01:15:31  5-MIN K12N 100615Z AUTO 01008KT 340V050 M01/M11 A3013 390 49 -1400 020/08 350V060 RMK AO1 T10111106
54779K12N 12N20160410012010204/10/16 01:20:31  5-MIN K12N 100620Z AUTO 36006KT M01/M11 A3014 380 49 -1400 020/06 RMK AO1 T10111106
54779K12N 12N20160410012510204/10/16 01:25:31  5-MIN K12N 100625Z AUTO 00000KT M02/M11 A3014 380 49 -1500 000/00 RMK AO1 T10171111
54779K12N 12N20160410013010204/10/16 01:30:31  5-MIN K12N 100630Z AUTO VRB04KT M02/M11 A3014 380 51 -1500 VRB/04 RMK AO1 T10171106
54779K12N 12N20160410013510204/10/16 01:35:31  5-MIN K12N 100635Z AUTO VRB05KT M02/M11 A3014 380 49 -1500 VRB/05 RMK AO1 T10171111
54779K12N 12N20160410014010204/10/16 01:40:31  5-MIN K12N 100640Z AUTO VRB06KT M02/M11 A3014 380 49 -1500 VRB/06 RMK AO1 T10171111
54779K12N 12N20160410014510204/10/16 01:45:31  5-MIN K12N 100645Z AUTO 36008KT M02/M11 A3014 380 49 -1500 010/08 RMK AO1 T10171111
54779K12N 12N20160410015010904/10/16 01:50:31  5-MIN K12N 100650Z AUTO 36005KT M02/M11 A3015 380 49 -1500 010/05 RMK AO1 SLP220 T10171111
54779K12N 12N20160410015510204/10/16 01:55:31  5-MIN K12N 100655Z AUTO VRB06KT M02/M11 A3015 370 49 -1500 VRB/06 RMK AO1 T10171111
54779K12N 12N20160410020011804/10/16 02:00:31  5-MIN K12N 100700Z AUTO 33007KT 290V360 M02/M11 A3015 370 49 -1500 340/07 300V010 RMK AO1 T10171111
54779K12N 12N20160410020510204/10/16 02:05:31  5-MIN K12N 100705Z AUTO 35006KT M02/M11 A3015 370 49 -1500 360/06 RMK AO1 T10171111
54779K12N 12N20160410021010204/10/16 02:10:31  5-MIN K12N 100710Z AUTO 36007KT M02/M11 A3016 370 51 -1500 010/07 RMK AO1 T10171106
54779K12N 12N20160410021510204/10/16 02:15:31  5-MIN K12N 100715Z AUTO 35004KT M02/M11 A3016 370 49 -1500 360/04 RMK AO1 T10171111
54779K12N 12N20160410022010204/10/16 02:20:31  5-MIN K12N 100720Z AUTO VRB04KT M02/M11 A3016 360 49 -1500 VRB/04 RMK AO1 T10171111
54779K12N 12N20160410022510204/10/16 02:25:31  5-MIN K12N 100725Z AUTO 35005KT M02/M11 A3016 360 51 -1600 360/05 RMK AO1 T10221111
54779K12N 12N20160410023010204/10/16 02:30:31  5-MIN K12N 100730Z AUTO 36006KT M02/M11 A3016 360 53 -1600 010/06 RMK AO1 T10221106
54779K12N 12N20160410023510204/10/16 02:35:31  5-MIN K12N 100735Z AUTO 35005KT M02/M11 A3017 360 51 -1600 360/05 RMK AO1 T10221111
54779K12N 12N20160410024010204/10/16 02:40:31  5-MIN K12N 100740Z AUTO 01005KT M02/M11 A3017 360 53 -1600 020/05 RMK AO1 T10221106
54779K12N 12N20160410024510204/10/16 02:45:31  5-MIN K12N 100745Z AUTO VRB04KT M02/M11 A3017 360 53 -1600 VRB/04 RMK AO1 T10221106
54779K12N 12N20160410025010904/10/16 02:50:31  5-MIN K12N 100750Z AUTO 34005KT M03/M11 A3016 360 55 -1600 360/05 RMK AO1 SLP225 T10281106
54779K12N 12N20160410025510204/10/16 02:55:31  5-MIN K12N 100755Z AUTO 36005KT M02/M11 A3016 360 51 -1600 010/05 RMK AO1 T10221111
54779K12N 12N20160410030010204/10/16 03:00:31  5-MIN K12N 100800Z AUTO 35006KT M02/M11 A3016 360 53 -1600 360/06 RMK AO1 T10221106
54779K12N 12N20160410030510204/10/16 03:05:31  5-MIN K12N 100805Z AUTO 01005KT M02/M11 A3017 360 53 -1600 030/05 RMK AO1 T10221106
54779K12N 12N20160410031010204/10/16 03:10:31  5-MIN K12N 100810Z AUTO 34005KT M02/M11 A3017 350 53 -1600 350/05 RMK AO1 T10221106
54779K12N 12N20160410031510204/10/16 03:15:31  5-MIN K12N 100815Z AUTO 01006KT M02/M11 A3017 350 51 -1600 020/06 RMK AO1 T10221111
54779K12N 12N20160410032010204/10/16 03:20:31  5-MIN K12N 100820Z AUTO 34003KT M02/M11 A3018 350 53 -1600 350/03 RMK AO1 T10221106
54779K12N 12N20160410032510204/10/16 03:25:31  5-MIN K12N 100825Z AUTO VRB03KT M02/M11 A3018 350 51 -1600 VRB/03 RMK AO1 T10221111
54779K12N 12N20160410033011804/10/16 03:30:31  5-MIN K12N 100830Z AUTO 36007KT 320V050 M02/M11 A3018 340 51 -1600 020/07 330V060 RMK AO1 T10221111
54779K12N 12N20160410033510204/10/16 03:35:31  5-MIN K12N 100835Z AUTO 34005KT M02/M11 A3018 340 51 -1600 360/05 RMK AO1 T10221111
54779K12N 12N20160410034010204/10/16 03:40:31  5-MIN K12N 100840Z AUTO 36004KT M02/M11 A3018 340 53 -1600 010/04 RMK AO1 T10221106
54779K12N 12N20160410034510204/10/16 03:45:31  5-MIN K12N 100845Z AUTO 36006KT M03/M11 A3019 340 55 -1700 010/06 RMK AO1 T10281106
54779K12N 12N20160410035011504/10/16 03:50:31  5-MIN K12N 100850Z AUTO 35003KT M03/M11 A3019 340 55 -1700 360/03 RMK AO1 SLP235 T10281106 51037
54779K12N 12N20160410035510204/10/16 03:55:31  5-MIN K12N 100855Z AUTO 35005KT M03/M11 A3019 330 55 -1700 360/05 RMK AO1 T10281106
54779K12N 12N20160410040010204/10/16 04:00:31  5-MIN K12N 100900Z AUTO 01004KT M03/M11 A3020 330 55 -1700 020/04 RMK AO1 T10281106
54779K12N 12N20160410040510204/10/16 04:05:31  5-MIN K12N 100905Z AUTO 35004KT M03/M11 A3020 330 55 -1700 360/04 RMK AO1 T10281106
54779K12N 12N20160410041010204/10/16 04:10:31  5-MIN K12N 100910Z AUTO 35006KT M03/M11 A3020 330 55 -1700 360/06 RMK AO1 T10281106
54779K12N 12N20160410041510204/10/16 04:15:31  5-MIN K12N 100915Z AUTO 35007KT M03/M11 A3020 330 55 -1700 360/07 RMK AO1 T10281106
54779K12N 12N20160410042010204/10/16 04:20:31  5-MIN K12N 100920Z AUTO 34006KT M03/M11 A3020 330 55 -1700 350/06 RMK AO1 T10281106
54779K12N 12N20160410042510204/10/16 04:25:31  5-MIN K12N 100925Z AUTO 35007KT M03/M10 A3020 320 58 -1700 360/07 RMK AO1 T10281100
54779K12N 12N20160410043010204/10/16 04:30:31  5-MIN K12N 100930Z AUTO 34006KT M03/M10 A3020 320 58 -1700 350/06 RMK AO1 T10281100
54779K12N 12N20160410043510204/10/16 04:35:31  5-MIN K12N 100935Z AUTO 36005KT M03/M10 A3021 320 60 -1800 010/05 RMK AO1 T10331100
54779K12N 12N20160410044010204/10/16 04:40:31  5-MIN K12N 100940Z AUTO 35006KT M03/M10 A3021 320 58 -1700 360/06 RMK AO1 T10281100
54779K12N 12N20160410044510204/10/16 04:45:31  5-MIN K12N 100945Z AUTO 35006KT M03/M10 A3021 320 58 -1700 360/06 RMK AO1 T10281100
54779K12N 12N20160410045010904/10/16 04:50:31  5-MIN K12N 100950Z AUTO 35004KT M03/M10 A3021 310 58 -1700 360/04 RMK AO1 SLP243 T10281100
54779K12N 12N20160410045510204/10/16 04:55:31  5-MIN K12N 100955Z AUTO 35006KT M03/M10 A3022 310 58 -1700 360/06 RMK AO1 T10281100
54779K12N 12N20160410050010204/10/16 05:00:31  5-MIN K12N 101000Z AUTO 35006KT M03/M10 A3022 310 58 -1700 360/06 RMK AO1 T10281100
54779K12N 12N20160410050510204/10/16 05:05:31  5-MIN K12N 101005Z AUTO 35006KT M03/M10 A3022 310 58 -1700 010/06 RMK AO1 T10281100
54779K12N 12N20160410051010204/10/16 05:10:31  5-MIN K12N 101010Z AUTO 35005KT M03/M10 A3023 300 60 -1800 360/05 RMK AO1 T10331100
54779K12N 12N20160410051510204/10/16 05:15:31  5-MIN K12N 101015Z AUTO 34006KT M03/M10 A3023 300 60 -1800 360/06 RMK AO1 T10331100
54779K12N 12N20160410052010204/10/16 05:20:31  5-MIN K12N 101020Z AUTO 35007KT M03/M10 A3024 290 60 -1800 010/07 RMK AO1 T10331100
54779K12N 12N20160410052510204/10/16 05:25:31  5-MIN K12N 101025Z AUTO 35008KT M03/M10 A3024 290 58 -1700 010/08 RMK AO1 T10281100
54779K12N 12N20160410053010204/10/16 05:30:31  5-MIN K12N 101030Z AUTO 34007KT M03/M10 A3024 290 60 -1800 360/07 RMK AO1 T10331100
54779K12N 12N20160410053510204/10/16 05:35:31  5-MIN K12N 101035Z AUTO 35007KT M03/M10 A3024 290 58 -1700 360/07 RMK AO1 T10281100
54779K12N 12N20160410054010204/10/16 05:40:31  5-MIN K12N 101040Z AUTO 34006KT M03/M10 A3025 280 58 -1700 360/06 RMK AO1 T10281100
54779K12N 12N20160410054510204/10/16 05:45:31  5-MIN K12N 101045Z AUTO 35007KT M03/M09 A3025 280 63 -1800 360/07 RMK AO1 T10331094
54779K12N 12N20160410055010904/10/16 05:50:31  5-MIN K12N 101050Z AUTO 34007KT M03/M09 A3025 280 63 -1800 360/07 RMK AO1 SLP255 T10331094
54779K12N 12N20160410055510204/10/16 05:55:31  5-MIN K12N 101055Z AUTO 36005KT M03/M09 A3025 280 63 -1800 010/05 RMK AO1 T10331094
54779K12N 12N20160410060010204/10/16 06:00:31  5-MIN K12N 101100Z AUTO 35008KT M03/M09 A3026 280 60 -1800 010/08 RMK AO1 T10281094
54779K12N 12N20160410060510204/10/16 06:05:31  5-MIN K12N 101105Z AUTO 35005KT M03/M09 A3026 270 60 -1800 360/05 RMK AO1 T10281094
54779K12N 12N20160410061010204/10/16 06:10:31  5-MIN K12N 101110Z AUTO 35007KT M03/M09 A3026 270 60 -1800 010/07 RMK AO1 T10281094
54779K12N 12N20160410061510204/10/16 06:15:31  5-MIN K12N 101115Z AUTO 35006KT M03/M09 A3027 260 60 -1800 010/06 RMK AO1 T10281094
54779K12N 12N20160410062010204/10/16 06:20:31  5-MIN K12N 101120Z AUTO VRB04KT M03/M09 A3027 260 60 -1800 VRB/04 RMK AO1 T10281094
54779K12N 12N20160410062510204/10/16 06:25:31  5-MIN K12N 101125Z AUTO VRB06KT M03/M09 A3028 260 60 -1800 VRB/06 RMK AO1 T10281094
54779K12N 12N20160410063010204/10/16 06:30:31  5-MIN K12N 101130Z AUTO VRB04KT M02/M09 A3028 260 58 -1700 VRB/04 RMK AO1 T10221094
54779K12N 12N20160410063510204/10/16 06:35:31  5-MIN K12N 101135Z AUTO 35005KT M02/M09 A3028 250 58 -1700 360/05 RMK AO1 T10221094
54779K12N 12N20160410064010204/10/16 06:40:31  5-MIN K12N 101140Z AUTO VRB04KT M02/M09 A3028 250 55 -1600 VRB/04 RMK AO1 T10171094
54779K12N 12N20160410064510204/10/16 06:45:31  5-MIN K12N 101145Z AUTO 35005KT M02/M09 A3029 250 58 -1600 010/05 RMK AO1 T10171089
54779K12N 12N20160410065013304/10/16 06:50:31  5-MIN K12N 101150Z AUTO VRB03KT M02/M09 A3029 250 58 -1600 VRB/03 RMK AO1 SLP268 70011 T10171089 11011 21033 53023
54779K12N 12N20160410065510204/10/16 06:55:31  5-MIN K12N 101155Z AUTO 00000KT M01/M09 A3029 250 55 -1600 000/00 RMK AO1 T10111089
54779K12N 12N20160410070010204/10/16 07:00:31  5-MIN K12N 101200Z AUTO VRB03KT M01/M09 A3029 250 55 -1600 VRB/03 RMK AO1 T10111089
54779K12N 12N20160410070510204/10/16 07:05:31  5-MIN K12N 101205Z AUTO VRB05KT M01/M09 A3029 240 55 -1600 VRB/05 RMK AO1 T10111089
54779K12N 12N20160410071010204/10/16 07:10:31  5-MIN K12N 101210Z AUTO VRB04KT M01/M09 A3029 240 55 -1600 VRB/04 RMK AO1 T10111089
54779K12N 12N20160410071510204/10/16 07:15:31  5-MIN K12N 101215Z AUTO 35007KT M01/M09 A3029 240 55 -1600 360/07 RMK AO1 T10111089
54779K12N 12N20160410072010204/10/16 07:20:31  5-MIN K12N 101220Z AUTO 32004KT M01/M09 A3029 240 55 -1600 330/04 RMK AO1 T10111089
54779K12N 12N20160410072510204/10/16 07:25:31  5-MIN K12N 101225Z AUTO 34005KT M01/M09 A3029 240 55 -1600 350/05 RMK AO1 T10111089
54779K12N 12N20160410073010204/10/16 07:30:31  5-MIN K12N 101230Z AUTO VRB06KT M01/M09 A3029 240 55 -1600 VRB/06 RMK AO1 T10111089
54779K12N 12N20160410073510204/10/16 07:35:31  5-MIN K12N 101235Z AUTO VRB06KT M01/M09 A3029 240 55 -1600 VRB/06 RMK AO1 T10111089
54779K12N 12N20160410074010204/10/16 07:40:31  5-MIN K12N 101240Z AUTO 32006KT M01/M09 A3030 240 55 -1600 330/06 RMK AO1 T10111089
54779K12N 12N20160410074510204/10/16 07:45:31  5-MIN K12N 101245Z AUTO VRB03KT M01/M08 A3030 240 58 -1600 VRB/03 RMK AO1 T10111083
54779K12N 12N20160410075010904/10/16 07:50:31  5-MIN K12N 101250Z AUTO VRB05KT M01/M09 A3030 240 53 -1500 VRB/05 RMK AO1 SLP271 T10061089
54779K12N 12N20160410075510204/10/16 07:55:31  5-MIN K12N 101255Z AUTO 02005KT M01/M09 A3030 240 53 -1500 030/05 RMK AO1 T10061089
54779K12N 12N20160410080010104/10/16 08:00:31  5-MIN K12N 101300Z AUTO VRB03KT 00/M08 A3030 240 53 -1500 VRB/03 RMK AO1 T00001083
54779K12N 12N20160410080510204/10/16 08:05:31  5-MIN K12N 101305Z AUTO VRB03KT M01/M08 A3030 230 56 -1500 VRB/03 RMK AO1 T10061083
54779K12N 12N20160410081009104/10/16 08:10:31  5-MIN K12N 101310Z AUTO 00/M08 A3030 230 53 -1500 M /M RMK AO1 T00001083
54779K12N 12N20160410081510104/10/16 08:15:31  5-MIN K12N 101315Z AUTO 01005KT 00/M08 A3030 230 53 -1500 020/05 RMK AO1 T00001083
54779K12N 12N20160410082010104/10/16 08:20:31  5-MIN K12N 101320Z AUTO VRB05KT 00/M08 A3030 240 53 -1500 VRB/05 RMK AO1 T00001083
54779K12N 12N20160410082510104/10/16 08:25:31  5-MIN K12N 101325Z AUTO VRB05KT 00/M08 A3030 230 53 -1500 VRB/05 RMK AO1 T00001083
54779K12N 12N20160410083010104/10/16 08:30:31  5-MIN K12N 101330Z AUTO VRB05KT 01/M08 A3030 230 54 -1400 VRB/05 RMK AO1 T00061078
54779K12N 12N20160410083510104/10/16 08:35:31  5-MIN K12N 101335Z AUTO VRB04KT 01/M08 A3031 230 54 -1400 VRB/04 RMK AO1 T00061078
54779K12N 12N20160410084010104/10/16 08:40:31  5-MIN K12N 101340Z AUTO 03006KT 01/M08 A3031 230 51 -1300 040/06 RMK AO1 T00111078
54779K12N 12N20160410084511704/10/16 08:45:31  5-MIN K12N 101345Z AUTO 33009KT 300V020 01/M08 A3031 230 49 -1300 340/09 310V030 RMK AO1 T00111083
54779K12N 12N20160410085010804/10/16 08:50:31  5-MIN K12N 101350Z AUTO VRB06KT 01/M09 A3031 230 47 -1400 VRB/06 RMK AO1 SLP275 T00061094
54779K12N 12N20160410085511704/10/16 08:55:31  5-MIN K12N 101355Z AUTO 35007KT 330V050 01/M09 A3031 230 47 -1300 010/07 340V060 RMK AO1 T00111089
54779K12N 12N20160410090010104/10/16 09:00:31  5-MIN K12N 101400Z AUTO VRB03KT 01/M09 A3031 220 47 -1300 VRB/03 RMK AO1 T00111089
54779K12N 12N20160410090510104/10/16 09:05:31  5-MIN K12N 101405Z AUTO 03005KT 01/M09 A3031 220 49 -1400 040/05 RMK AO1 T00061089
54779K12N 12N20160410091010104/10/16 09:10:31  5-MIN K12N 101410Z AUTO VRB05KT 01/M08 A3032 220 49 -1300 VRB/05 RMK AO1 T00111083
54779K12N 12N20160410091510104/10/16 09:15:31  5-MIN K12N 101415Z AUTO VRB04KT 02/M08 A3032 220 47 -1300 VRB/04 RMK AO1 T00171083
54779K12N 12N20160410092010104/10/16 09:20:31  5-MIN K12N 101420Z AUTO VRB05KT 02/M09 A3031 220 45 -1300 VRB/05 RMK AO1 T00171089
54779K12N 12N20160410092510104/10/16 09:25:31  5-MIN K12N 101425Z AUTO 33007KT 02/M09 A3032 220 43 -1300 340/07 RMK AO1 T00171094
54779K12N 12N20160410093010104/10/16 09:30:31  5-MIN K12N 101430Z AUTO VRB05KT 02/M09 A3031 220 43 -1300 VRB/05 RMK AO1 T00171094
54779K12N 12N20160410093510104/10/16 09:35:31  5-MIN K12N 101435Z AUTO VRB04KT 02/M09 A3031 220 42 -1200 VRB/04 RMK AO1 T00221094
54779K12N 12N20160410094010104/10/16 09:40:31  5-MIN K12N 101440Z AUTO VRB04KT 02/M09 A3032 220 42 -1200 VRB/04 RMK AO1 T00221094
54779K12N 12N20160410094510104/10/16 09:45:31  5-MIN K12N 101445Z AUTO 31004KT 03/M08 A3032 220 44 -1100 320/04 RMK AO1 T00281083
54779K12N 12N20160410095010404/10/16 09:50:31  5-MIN K12N 101450Z AUTO 03/M08 A3032 220 44 -1100 M /M RMK AO1 SLP276 T00281083 53032
54779K12N 12N20160410095510104/10/16 09:55:31  5-MIN K12N 101455Z AUTO 00000KT 02/M09 A3032 220 42 -1200 000/00 RMK AO1 T00221094
54779K12N 12N20160410100010104/10/16 10:00:31  5-MIN K12N 101500Z AUTO 00000KT 03/M08 A3032 220 44 -1100 000/00 RMK AO1 T00281083
54779K12N 12N20160410100510104/10/16 10:05:31  5-MIN K12N 101505Z AUTO 00000KT 03/M08 A3032 220 44 -1100 000/00 RMK AO1 T00331078
54779K12N 12N20160410101010104/10/16 10:10:31  5-MIN K12N 101510Z AUTO VRB06KT 03/M08 A3032 220 42 -1100 VRB/06 RMK AO1 T00331083
54779K12N 12N20160410101510104/10/16 10:15:31  5-MIN K12N 101515Z AUTO 27003KT 03/M09 A3032 220 42 -1100 280/03 RMK AO1 T00281089
54779K12N 12N20160410102010104/10/16 10:20:31  5-MIN K12N 101520Z AUTO 00000KT 03/M09 A3032 220 42 -1100 000/00 RMK AO1 T00281089
54779K12N 12N20160410102510104/10/16 10:25:31  5-MIN K12N 101525Z AUTO VRB03KT 03/M08 A3032 220 44 -1100 VRB/03 RMK AO1 T00331078
54779K12N 12N20160410103010104/10/16 10:30:31  5-MIN K12N 101530Z AUTO 00000KT 03/M08 A3032 220 42 -1100 000/00 RMK AO1 T00331083
54779K12N 12N20160410103510104/10/16 10:35:31  5-MIN K12N 101535Z AUTO 00000KT 03/M08 A3031 220 42 -1000 000/00 RMK AO1 T00331083
54779K12N 12N20160410104010104/10/16 10:40:31  5-MIN K12N 101540Z AUTO 00000KT 03/M09 A3031 220 40 -1000 000/00 RMK AO1 T00331089
54779K12N 12N20160410104510104/10/16 10:45:31  5-MIN K12N 101545Z AUTO 00000KT 03/M09 A3031 230 39 -1000 000/00 RMK AO1 T00331094
54779K12N 12N20160410105010704/10/16 10:50:31  5-MIN K12N 101550Z AUTO 00000KT 04/M08 A3031 230 39 -900 000/00 RMK AO1 SLP273 T00441083
54779K12N 12N20160410105510004/10/16 10:55:31  5-MIN K12N 101555Z AUTO VRB06KT 05/M07 A3031 230 41 -800 VRB/06 RMK AO1 T00501072
54779K12N 12N20160410110010104/10/16 11:00:31  5-MIN K12N 101600Z AUTO 26005KT 04/M09 A3031 230 37 -1000 280/05 RMK AO1 T00391094
54779K12N 12N20160410110510104/10/16 11:05:31  5-MIN K12N 101605Z AUTO VRB04KT 04/M09 A3031 230 37 -1000 VRB/04 RMK AO1 T00391094
54779K12N 12N20160410111010104/10/16 11:10:31  5-MIN K12N 101610Z AUTO VRB04KT 04/M09 A3030 230 39 -1000 VRB/04 RMK AO1 T00391089
54779K12N 12N20160410111510004/10/16 11:15:31  5-MIN K12N 101615Z AUTO 00000KT 04/M09 A3030 230 37 -900 000/00 RMK AO1 T00441089
54779K12N 12N20160410112010004/10/16 11:20:31  5-MIN K12N 101620Z AUTO VRB05KT 04/M08 A3030 240 39 -900 VRB/05 RMK AO1 T00441083
54779K12N 12N20160410112510604/10/16 11:25:31  5-MIN K12N 101625Z AUTO 25008G14KT 04/M09 A3030 240 37 -900 260/08G14 RMK AO1 T00441089
54779K12N 12N20160410113010704/10/16 11:30:31  5-MIN K12N 101630Z AUTO VRB04G14KT 04/M09 A3030 240 37 -1000 VRB/04G14 RMK AO1 T00391094
54779K12N 12N20160410113510004/10/16 11:35:31  5-MIN K12N 101635Z AUTO VRB04KT 05/M08 A3030 230 37 -800 VRB/04 RMK AO1 T00501083
54779K12N 12N20160410114010004/10/16 11:40:31  5-MIN K12N 101640Z AUTO 23005KT 05/M09 A3030 240 36 -800 250/05 RMK AO1 T00501089
54779K12N 12N20160410114510004/10/16 11:45:31  5-MIN K12N 101645Z AUTO VRB04KT 05/M09 A3030 240 36 -800 VRB/04 RMK AO1 T00501089
54779K12N 12N20160410115010704/10/16 11:50:31  5-MIN K12N 101650Z AUTO VRB06KT 06/M08 A3030 240 36 -800 VRB/06 RMK AO1 SLP269 T00561083
54779K12N 12N20160410115509004/10/16 11:55:31  5-MIN K12N 101655Z AUTO 06/M08 A3030 240 36 -800 M /M RMK AO1 T00561083
54779K12N 12N20160410120010004/10/16 12:00:31  5-MIN K12N 101700Z AUTO 22006KT 05/M09 A3030 240 36 -800 240/06 RMK AO1 T00501089
54779K12N 12N20160410120510004/10/16 12:05:31  5-MIN K12N 101705Z AUTO 23009KT 06/M09 A3030 240 34 -800 240/09 RMK AO1 T00561089
54779K12N 12N20160410121010004/10/16 12:10:31  5-MIN K12N 101710Z AUTO VRB06KT 06/M09 A3029 240 34 -800 VRB/06 RMK AO1 T00561089
54779K12N 12N20160410121510004/10/16 12:15:31  5-MIN K12N 101715Z AUTO 17005KT 06/M09 A3029 240 33 -700 190/05 RMK AO1 T00561094
54779K12N 12N20160410122011604/10/16 12:20:31  5-MIN K12N 101720Z AUTO 19007KT 130V220 06/M09 A3029 240 33 -700 200/07 140V230 RMK AO1 T00561094
54779K12N 12N20160410122510004/10/16 12:25:31  5-MIN K12N 101725Z AUTO VRB05KT 06/M09 A3029 250 33 -700 VRB/05 RMK AO1 T00561094
54779K12N 12N20160410123009004/10/16 12:30:31  5-MIN K12N 101730Z AUTO 07/M09 A3029 250 32 -600 M /M RMK AO1 T00671089
54779K12N 12N20160410123511604/10/16 12:35:31  5-MIN K12N 101735Z AUTO 24007KT 210V290 07/M10 A3029 250 29 -600 260/07 220V300 RMK AO1 T00671100
54779K12N 12N20160410124010004/10/16 12:40:31  5-MIN K12N 101740Z AUTO VRB03KT 06/M10 A3028 250 30 -700 VRB/03 RMK AO1 T00611100
54779K12N 12N20160410124510004/10/16 12:45:31  5-MIN K12N 101745Z AUTO VRB05KT 07/M09 A3028 250 30 -600 VRB/05 RMK AO1 T00671094
54779K12N 12N20160410125012504/10/16 12:50:31  5-MIN K12N 101750Z AUTO 00000KT 06/M10 A3028 250 30 -700 000/00 RMK AO1 SLP263 T00611100 10067 21017 52010
54779K12N 12N20160410125510604/10/16 12:55:31  5-MIN K12N 101755Z AUTO 22009G15KT 07/M09 A3028 250 32 -600 230/09G15 RMK AO1 T00671089
54779K12N 12N20160410130010604/10/16 13:00:31  5-MIN K12N 101800Z AUTO 23008G15KT 07/M09 A3028 250 30 -600 240/08G15 RMK AO1 T00671094
54779K12N 12N20160410130510004/10/16 13:05:31  5-MIN K12N 101805Z AUTO 21005KT 07/M10 A3028 250 29 -600 230/05 RMK AO1 T00671100
54779K12N 12N20160410131010004/10/16 13:10:31  5-MIN K12N 101810Z AUTO VRB04KT 07/M09 A3028 250 31 -500 VRB/04 RMK AO1 T00721089
54779K12N 12N20160410131511604/10/16 13:15:31  5-MIN K12N 101815Z AUTO 22007KT 200V270 07/M09 A3028 250 31 -500 240/07 210V280 RMK AO1 T00721089
54779K12N 12N20160410132011604/10/16 13:20:31  5-MIN K12N 101820Z AUTO 22008KT 190V260 07/M09 A3028 260 32 -600 240/08 200V270 RMK AO1 T00671089
54779K12N 12N20160410132510004/10/16 13:25:31  5-MIN K12N 101825Z AUTO 21006KT 07/M08 A3028 260 33 -500 230/06 RMK AO1 T00721078
54779K12N 12N20160410133010004/10/16 13:30:31  5-MIN K12N 101830Z AUTO 22006KT 07/M08 A3028 260 32 -500 230/06 RMK AO1 T00721083
54779K12N 12N20160410133510004/10/16 13:35:31  5-MIN K12N 101835Z AUTO 21008KT 07/M08 A3028 260 32 -500 220/08 RMK AO1 T00721083
54779K12N 12N20160410134010004/10/16 13:40:31  5-MIN K12N 101840Z AUTO 23009KT 07/M07 A3028 260 35 -500 240/09 RMK AO1 T00721072
54779K12N 12N20160410134510004/10/16 13:45:31  5-MIN K12N 101845Z AUTO VRB05KT 07/M07 A3027 260 35 -500 VRB/05 RMK AO1 T00721072
54779K12N 12N20160410135010704/10/16 13:50:31  5-MIN K12N 101850Z AUTO VRB04KT 07/M07 A3027 260 35 -500 VRB/04 RMK AO1 SLP259 T00721072
54779K12N 12N20160410135510004/10/16 13:55:31  5-MIN K12N 101855Z AUTO 24007KT 07/M08 A3027 270 32 -500 250/07 RMK AO1 T00721083
54779K12N 12N20160410140010004/10/16 14:00:31  5-MIN K12N 101900Z AUTO VRB05KT 07/M08 A3026 270 32 -500 VRB/05 RMK AO1 T00721083
54779K12N 12N20160410140510004/10/16 14:05:31  5-MIN K12N 101905Z AUTO VRB03KT 07/M08 A3026 270 33 -600 VRB/03 RMK AO1 T00671083
54779K12N 12N20160410141009004/10/16 14:10:31  5-MIN K12N 101910Z AUTO 08/M08 A3026 270 31 -400 M /M RMK AO1 T00781083
54779K12N 12N20160410141511604/10/16 14:15:31  5-MIN K12N 101915Z AUTO 21008KT 180V240 08/M07 A3026 280 34 -400 230/08 190V250 RMK AO1 T00781072
54779K12N 12N20160410142010604/10/16 14:20:31  5-MIN K12N 101920Z AUTO VRB05G15KT 07/M08 A3025 280 33 -500 VRB/05G15 RMK AO1 T00721078
54779K12N 12N20160410142510004/10/16 14:25:31  5-MIN K12N 101925Z AUTO 21007KT 08/M07 A3025 280 34 -400 220/07 RMK AO1 T00781072
54779K12N 12N20160410143011604/10/16 14:30:31  5-MIN K12N 101930Z AUTO 19007KT 150V220 07/M08 A3026 280 33 -500 200/07 160V230 RMK AO1 T00721078
54779K12N 12N20160410143512204/10/16 14:35:31  5-MIN K12N 101935Z AUTO 24009G16KT 200V270 08/M08 A3026 270 32 -400 250/09G16 210V280 RMK AO1 T00781078
54779K12N 12N20160410144010604/10/16 14:40:31  5-MIN K12N 101940Z AUTO 22008G16KT 08/M08 A3026 270 32 -400 230/08G16 RMK AO1 T00781078
54779K12N 12N20160410144510604/10/16 14:45:31  5-MIN K12N 101945Z AUTO 22009G14KT 08/M08 A3025 280 31 -400 230/09G14 RMK AO1 T00781083
54779K12N 12N20160410145011304/10/16 14:50:31  5-MIN K12N 101950Z AUTO 22006G15KT 08/M08 A3025 280 31 -400 230/06G15 RMK AO1 SLP251 T00781083
54779K12N 12N20160410145510604/10/16 14:55:31  5-MIN K12N 101955Z AUTO 21009G15KT 08/M08 A3025 280 32 -400 230/09G15 RMK AO1 T00781078
54779K12N 12N20160410150010604/10/16 15:00:31  5-MIN K12N 102000Z AUTO 21008G15KT 08/M08 A3024 290 31 -400 220/08G15 RMK AO1 T00781083
54779K12N 12N20160410150511604/10/16 15:05:31  5-MIN K12N 102005Z AUTO 22009KT 190V250 08/M08 A3025 280 31 -400 230/09 200V260 RMK AO1 T00781083
54779K12N 12N20160410151010004/10/16 15:10:31  5-MIN K12N 102010Z AUTO VRB06KT 07/M08 A3025 280 33 -500 VRB/06 RMK AO1 T00721078
54779K12N 12N20160410151510604/10/16 15:15:31  5-MIN K12N 102015Z AUTO 21009G15KT 08/M08 A3025 280 31 -400 230/09G15 RMK AO1 T00781083
54779K12N 12N20160410152010604/10/16 15:20:31  5-MIN K12N 102020Z AUTO 22006G15KT 08/M08 A3025 280 32 -400 230/06G15 RMK AO1 T00781078
54779K12N 12N20160410152509004/10/16 15:25:31  5-MIN K12N 102025Z AUTO 08/M09 A3026 270 29 -400 M /M RMK AO1 T00781089
54779K12N 12N20160410153011604/10/16 15:30:31  5-MIN K12N 102030Z AUTO 22008KT 180V250 08/M09 A3025 280 29 -400 230/08 190V260 RMK AO1 T00781089
54779K12N 12N20160410153510004/10/16 15:35:31  5-MIN K12N 102035Z AUTO 22006KT 07/M09 A3025 280 29 -500 230/06 RMK AO1 T00721094
54779K12N 12N20160410154010004/10/16 15:40:31  5-MIN K12N 102040Z AUTO 21006KT 08/M09 A3025 280 29 -400 230/06 RMK AO1 T00781089
54779K12N 12N20160410154511604/10/16 15:45:31  5-MIN K12N 102045Z AUTO 22007KT 170V260 07/M09 A3026 280 31 -500 240/07 180V270 RMK AO1 T00721089
54779K12N 12N20160410155011304/10/16 15:50:31  5-MIN K12N 102050Z AUTO 22010KT 07/M09 A3025 280 31 -500 240/10 RMK AO1 SLP254 T00721089 58012
54779K12N 12N20160410155512204/10/16 15:55:31  5-MIN K12N 102055Z AUTO 21008G15KT 160V230 07/M09 A3025 280 31 -500 220/08G15 170V240 RMK AO1 T00721089
54779K12N 12N20160410160010604/10/16 16:00:31  5-MIN K12N 102100Z AUTO 21006G15KT 07/M08 A3026 270 32 -500 230/06G15 RMK AO1 T00721083
54779K12N 12N20160410160510004/10/16 16:05:31  5-MIN K12N 102105Z AUTO 22007KT 08/M08 A3026 270 32 -400 230/07 RMK AO1 T00781078
54779K12N 12N20160410161010604/10/16 16:10:31  5-MIN K12N 102110Z AUTO 22008G15KT 08/M08 A3026 270 31 -400 230/08G15 RMK AO1 T00781083
54779K12N 12N20160410161510604/10/16 16:15:31  5-MIN K12N 102115Z AUTO 21008G15KT 08/M09 A3026 270 29 -400 220/08G15 RMK AO1 T00781089
54779K12N 12N20160410162010004/10/16 16:20:31  5-MIN K12N 102120Z AUTO 21009KT 07/M09 A3026 270 29 -500 230/09 RMK AO1 T00721094
54779K12N 12N20160410162510604/10/16 16:25:31  5-MIN K12N 102125Z AUTO 21010G16KT 07/M10 A3026 270 28 -500 220/10G16 RMK AO1 T00721100
54779K12N 12N20160410163012204/10/16 16:30:31  5-MIN K12N 102130Z AUTO 21010G18KT 170V230 08/M09 A3026 270 28 -400 230/10G18 180V240 RMK AO1 T00781094
54779K12N 12N20160410163512204/10/16 16:35:31  5-MIN K12N 102135Z AUTO 20007G18KT 170V240 08/M10 A3026 280 27 -400 220/07G18 180V250 RMK AO1 T00781100
54779K12N 12N20160410164010604/10/16 16:40:31  5-MIN K12N 102140Z AUTO 22012G16KT 08/M10 A3026 280 27 -400 230/12G16 RMK AO1 T00781100
54779K12N 12N20160410164512204/10/16 16:45:31  5-MIN K12N 102145Z AUTO 23007G16KT 190V270 07/M11 A3026 280 26 -500 240/07G16 200V280 RMK AO1 T00721111
54779K12N 12N20160410165009704/10/16 16:50:31  5-MIN K12N 102150Z AUTO 07/M11 A3025 280 26 -500 M /M RMK AO1 SLP254 T00721111
54779K12N 12N20160410165510004/10/16 16:55:31  5-MIN K12N 102155Z AUTO 21006KT 07/M11 A3025 280 27 -500 220/06 RMK AO1 T00721106
54779K12N 12N20160410170010604/10/16 17:00:31  5-MIN K12N 102200Z AUTO 21006G15KT 07/M11 A3024 290 26 -500 220/06G15 RMK AO1 T00721111
54779K12N 12N20160410170510604/10/16 17:05:31  5-MIN K12N 102205Z AUTO 22010G15KT 08/M11 A3025 280 25 -400 240/10G15 RMK AO1 T00781111
54779K12N 12N20160410171010604/10/16 17:10:31  5-MIN K12N 102210Z AUTO 21009G15KT 07/M12 A3025 280 24 -500 230/09G15 RMK AO1 T00721122
54779K12N 12N20160410171511604/10/16 17:15:31  5-MIN K12N 102215Z AUTO 21009KT 180V250 07/M12 A3025 280 25 -500 230/09 190V260 RMK AO1 T00721117
54779K12N 12N20160410172010604/10/16 17:20:31  5-MIN K12N 102220Z AUTO 22008G15KT 07/M12 A3024 290 24 -500 230/08G15 RMK AO1 T00721122
54779K12N 12N20160410172510604/10/16 17:25:31  5-MIN K12N 102225Z AUTO 22010G16KT 07/M13 A3024 290 23 -500 230/10G16 RMK AO1 T00721128
54779K12N 12N20160410173010604/10/16 17:30:31  5-MIN K12N 102230Z AUTO 22007G16KT 07/M13 A3024 290 23 -500 230/07G16 RMK AO1 T00721128
54779K12N 12N20160410173510004/10/16 17:35:31  5-MIN K12N 102235Z AUTO 22007KT 07/M12 A3025 280 24 -500 230/07 RMK AO1 T00721122
54779K12N 12N20160410174010004/10/16 17:40:31  5-MIN K12N 102240Z AUTO 22008KT 07/M11 A3024 290 27 -600 240/08 RMK AO1 T00671111
54779K12N 12N20160410174510004/10/16 17:45:31  5-MIN K12N 102245Z AUTO 21007KT 07/M11 A3025 280 27 -600 230/07 RMK AO1 T00671111
54779K12N 12N20160410175010704/10/16 17:50:31  5-MIN K12N 102250Z AUTO 22007KT 07/M11 A3025 280 28 -600 230/07 RMK AO1 SLP252 T00671106
54779K12N 12N20160410175510004/10/16 17:55:31  5-MIN K12N 102255Z AUTO 22007KT 07/M11 A3025 280 28 -600 240/07 RMK AO1 T00671106
54779K12N 12N20160410180010004/10/16 18:00:31  5-MIN K12N 102300Z AUTO 21006KT 07/M11 A3025 290 28 -600 230/06 RMK AO1 T00671106
54779K12N 12N20160411162510404/11/16 16:25:31  5-MIN K12N 112125Z AUTO 00000KT 11/07 A3001 500 77 200 000/00 RMK AO1 P0002 T01110072
54779K12N 12N20160411163010404/11/16 16:30:31  5-MIN K12N 112130Z AUTO 00000KT 11/08 A3002 490 80 200 000/00 RMK AO1 P0003 T01110078
54779K12N 12N20160411163510404/11/16 16:35:31  5-MIN K12N 112135Z AUTO 00000KT 11/08 A3002 490 86 100 000/00 RMK AO1 P0004 T01060083
54779K12N 12N20160411164010404/11/16 16:40:31  5-MIN K12N 112140Z AUTO 00000KT 11/08 A3003 490 86 100 000/00 RMK AO1 P0004 T01060083
54779K12N 12N20160411164510404/11/16 16:45:31  5-MIN K12N 112145Z AUTO 00000KT 11/08 A3003 490 86 100 000/00 RMK AO1 P0004 T01060083
54779K12N 12N20160411165011104/11/16 16:50:31  5-MIN K12N 112150Z AUTO 16003KT 11/08 A3002 500 83 100 170/03 RMK AO1 SLP169 P0004 T01060078
54779K12N 12N20160411165509804/11/16 16:55:31  5-MIN K12N 112155Z AUTO 00000KT 11/08 A3002 500 86 100 000/00 RMK AO1 T01060083
54779K12N 12N20160411170009804/11/16 17:00:31  5-MIN K12N 112200Z AUTO 00000KT 11/08 A3002 500 86 100 000/00 RMK AO1 T01060083
54779K12N 12N20160411170509804/11/16 17:05:31  5-MIN K12N 112205Z AUTO 00000KT 11/09 A3001 500 89 100 000/00 RMK AO1 T01060089
54779K12N 12N20160411171009804/11/16 17:10:31  5-MIN K12N 112210Z AUTO 00000KT 11/09 A3001 500 89 100 000/00 RMK AO1 T01060089
54779K12N 12N20160411171509804/11/16 17:15:31  5-MIN K12N 112215Z AUTO 00000KT 11/08 A3001 500 86 100 000/00 RMK AO1 T01060083
54779K12N 12N20160411172009804/11/16 17:20:31  5-MIN K12N 112220Z AUTO 00000KT 11/08 A3001 500 86 100 000/00 RMK AO1 T01060083
54779K12N 12N20160411172509804/11/16 17:25:31  5-MIN K12N 112225Z AUTO 00000KT 11/08 A3001 500 86 100 000/00 RMK AO1 T01060083
54779K12N 12N20160411173009804/11/16 17:30:31  5-MIN K12N 112230Z AUTO 00000KT 11/08 A3001 500 86 100 000/00 RMK AO1 T01060083
54779K12N 12N20160411173509804/11/16 17:35:31  5-MIN K12N 112235Z AUTO 00000KT 11/09 A3001 500 89 100 000/00 RMK AO1 T01060089
54779K12N 12N20160411174009804/11/16 17:40:31  5-MIN K12N 112240Z AUTO 20003KT 11/09 A3000 510 89 100 210/03 RMK AO1 T01060089
54779K12N 12N20160411174509804/11/16 17:45:31  5-MIN K12N 112245Z AUTO 22003KT 10/09 A3000 510 93 100 230/03 RMK AO1 T01000089
54779K12N 12N20160411175010504/11/16 17:50:31  5-MIN K12N 112250Z AUTO 22004KT 10/09 A3000 510 93 100 230/04 RMK AO1 SLP165 T01000089
54779K12N 12N20160411175509804/11/16 17:55:31  5-MIN K12N 112255Z AUTO 00000KT 10/09 A3000 510 93 100 000/00 RMK AO1 T01000089
54779K12N 12N20160411180009804/11/16 18:00:31  5-MIN K12N 112300Z AUTO 20003KT 11/09 A3001 510 93 100 210/03 RMK AO1 T01060094
54779K12N 12N20160411180509804/11/16 18:05:31  5-MIN K12N 112305Z AUTO 00000KT 11/08 A3000 510 83 200 000/00 RMK AO1 T01110083
54779K12N 12N20160411181009804/11/16 18:10:31  5-MIN K12N 112310Z AUTO VRB03KT 12/08 A3000 510 77 300 VRB/03 RMK AO1 T01170078
54779K12N 12N20160411181509804/11/16 18:15:31  5-MIN K12N 112315Z AUTO 19004KT 12/07 A3000 510 74 300 210/04 RMK AO1 T01170072
54779K12N 12N20160411182009804/11/16 18:20:31  5-MIN K12N 112320Z AUTO 19003KT 12/07 A3000 510 74 300 200/03 RMK AO1 T01170072
54779K12N 12N20160411182509804/11/16 18:25:31  5-MIN K12N 112325Z AUTO 00000KT 12/07 A2999 520 68 300 000/00 RMK AO1 T01220067
54779K12N 12N20160411183009804/11/16 18:30:31  5-MIN K12N 112330Z AUTO 18003KT 12/07 A2999 520 68 300 200/03 RMK AO1 T01220067
54779K12N 12N20160411183509804/11/16 18:35:31  5-MIN K12N 112335Z AUTO 00000KT 12/07 A3000 510 68 300 000/00 RMK AO1 T01220067
54779K12N 12N20160411184009804/11/16 18:40:31  5-MIN K12N 112340Z AUTO 19003KT 11/07 A3000 520 77 200 200/03 RMK AO1 T01110072
54779K12N 12N20160411184509804/11/16 18:45:31  5-MIN K12N 112345Z AUTO 00000KT 11/07 A3000 520 77 200 000/00 RMK AO1 T01110072
54779K12N 12N20160411185012904/11/16 18:50:31  5-MIN K12N 112350Z AUTO 00000KT 11/07 A2999 520 77 200 000/00 RMK AO1 SLP161 60004 T01110072 10150 20100 56023
54779K12N 12N20160411185509804/11/16 18:55:31  5-MIN K12N 112355Z AUTO 18003KT 12/07 A2999 520 74 300 200/03 RMK AO1 T01170072
54779K12N 12N20160411190009804/11/16 19:00:31  5-MIN K12N 120000Z AUTO 18003KT 12/07 A2999 520 68 400 190/03 RMK AO1 T01220067
54779K12N 12N20160411190509804/11/16 19:05:31  5-MIN K12N 120005Z AUTO 19003KT 12/07 A2999 530 68 400 210/03 RMK AO1 T01220067
54779K12N 12N20160411191009804/11/16 19:10:31  5-MIN K12N 120010Z AUTO VRB03KT 11/07 A2998 530 77 200 VRB/03 RMK AO1 T01110072
54779K12N 12N20160411191509804/11/16 19:15:31  5-MIN K12N 120015Z AUTO 21003KT 12/07 A2998 530 71 300 230/03 RMK AO1 T01170067
54779K12N 12N20160411192009804/11/16 19:20:31  5-MIN K12N 120020Z AUTO 21003KT 12/07 A2998 530 71 300 220/03 RMK AO1 T01170067
54779K12N 12N20160411192509804/11/16 19:25:31  5-MIN K12N 120025Z AUTO VRB03KT 12/07 A2998 530 71 300 VRB/03 RMK AO1 T01170067
54779K12N 12N20160411193009804/11/16 19:30:31  5-MIN K12N 120030Z AUTO VRB03KT 12/07 A2998 530 68 400 VRB/03 RMK AO1 T01220067
54779K12N 12N20160411193509804/11/16 19:35:31  5-MIN K12N 120035Z AUTO 20003KT 12/07 A2998 530 68 400 210/03 RMK AO1 T01220067
54779K12N 12N20160411194009804/11/16 19:40:31  5-MIN K12N 120040Z AUTO 00000KT 12/07 A2997 540 68 400 000/00 RMK AO1 T01220067
54779K12N 12N20160411194509804/11/16 19:45:31  5-MIN K12N 120045Z AUTO 21003KT 12/07 A2997 540 71 300 230/03 RMK AO1 T01170067
54779K12N 12N20160411195010504/11/16 19:50:31  5-MIN K12N 120050Z AUTO 20003KT 12/07 A2997 540 71 300 210/03 RMK AO1 SLP153 T01170067
54779K12N 12N20160411195509804/11/16 19:55:31  5-MIN K12N 120055Z AUTO 21004KT 12/07 A2997 540 71 300 220/04 RMK AO1 T01170067
54779K12N 12N20160411200009804/11/16 20:00:31  5-MIN K12N 120100Z AUTO 22004KT 12/07 A2997 540 71 300 240/04 RMK AO1 T01170067
54779K12N 12N20160411200509804/11/16 20:05:31  5-MIN K12N 120105Z AUTO 20004KT 12/07 A2997 540 68 400 210/04 RMK AO1 T01220067
54779K12N 12N20160411201009804/11/16 20:10:31  5-MIN K12N 120110Z AUTO VRB04KT 12/07 A2997 540 68 400 VRB/04 RMK AO1 T01220067
54779K12N 12N20160411201509804/11/16 20:15:31  5-MIN K12N 120115Z AUTO 19005KT 13/07 A2997 540 66 400 210/05 RMK AO1 T01280067
54779K12N 12N20160411202009804/11/16 20:20:31  5-MIN K12N 120120Z AUTO VRB03KT 13/07 A2997 540 66 400 VRB/03 RMK AO1 T01280067
54779K12N 12N20160411202509804/11/16 20:25:31  5-MIN K12N 120125Z AUTO VRB03KT 13/06 A2998 530 61 500 VRB/03 RMK AO1 T01330061
54779K12N 12N20160411203009804/11/16 20:30:31  5-MIN K12N 120130Z AUTO VRB04KT 13/06 A2998 530 61 500 VRB/04 RMK AO1 T01330061
54779K12N 12N20160411203509804/11/16 20:35:31  5-MIN K12N 120135Z AUTO 19006KT 13/06 A2997 540 63 400 200/06 RMK AO1 T01280061
54779K12N 12N20160411204009804/11/16 20:40:31  5-MIN K12N 120140Z AUTO 18005KT 14/06 A2997 540 57 600 190/05 RMK AO1 T01390056
54779K12N 12N20160411204509804/11/16 20:45:31  5-MIN K12N 120145Z AUTO 18007KT 14/06 A2996 540 57 600 190/07 RMK AO1 T01390056
54779K12N 12N20160411205010504/11/16 20:50:31  5-MIN K12N 120150Z AUTO VRB06KT 14/06 A2997 540 59 600 VRB/06 RMK AO1 SLP150 T01390061
54779K12N 12N20160411205509804/11/16 20:55:31  5-MIN K12N 120155Z AUTO VRB06KT 14/06 A2997 540 59 600 VRB/06 RMK AO1 T01390061
54779K12N 12N20160411210009804/11/16 21:00:31  5-MIN K12N 120200Z AUTO 19006KT 14/06 A2997 540 59 600 200/06 RMK AO1 T01390061
54779K12N 12N20160411210509804/11/16 21:05:31  5-MIN K12N 120205Z AUTO VRB06KT 14/06 A2997 540 59 600 VRB/06 RMK AO1 T01390061
54779K12N 12N20160411211009804/11/16 21:10:31  5-MIN K12N 120210Z AUTO 20006KT 14/06 A2997 540 59 600 210/06 RMK AO1 T01390061
54779K12N 12N20160411211509804/11/16 21:15:31  5-MIN K12N 120215Z AUTO 21003KT 14/06 A2996 550 59 600 220/03 RMK AO1 T01390061
54779K12N 12N20160411212009804/11/16 21:20:31  5-MIN K12N 120220Z AUTO 21006KT 13/07 A2997 540 64 500 220/06 RMK AO1 T01330067
54779K12N 12N20160411212509804/11/16 21:25:31  5-MIN K12N 120225Z AUTO 20006KT 14/07 A2997 540 61 600 220/06 RMK AO1 T01390067
54779K12N 12N20160411213009804/11/16 21:30:31  5-MIN K12N 120230Z AUTO 22008KT 13/07 A2997 540 64 500 240/08 RMK AO1 T01330067
54779K12N 12N20160411213509804/11/16 21:35:31  5-MIN K12N 120235Z AUTO 22006KT 13/07 A2996 550 64 500 240/06 RMK AO1 T01330067
54779K12N 12N20160411214009804/11/16 21:40:31  5-MIN K12N 120240Z AUTO 23007KT 13/07 A2996 550 64 500 240/07 RMK AO1 T01330067
54779K12N 12N20160411214509804/11/16 21:45:31  5-MIN K12N 120245Z AUTO 22004KT 13/07 A2996 550 64 500 230/04 RMK AO1 T01330067
54779K12N 12N20160411215011104/11/16 21:50:31  5-MIN K12N 120250Z AUTO VRB04KT 13/07 A2995 550 64 500 VRB/04 RMK AO1 SLP146 T01330067 58006
54779K12N 12N20160411215509804/11/16 21:55:31  5-MIN K12N 120255Z AUTO VRB03KT 13/07 A2995 560 64 500 VRB/03 RMK AO1 T01330067
54779K12N 12N20160411220009804/11/16 22:00:31  5-MIN K12N 120300Z AUTO 18005KT 13/07 A2995 560 64 500 200/05 RMK AO1 T01330067
54779K12N 12N20160411220509804/11/16 22:05:31  5-MIN K12N 120305Z AUTO 20006KT 13/07 A2995 560 66 500 220/06 RMK AO1 T01330072
54779K12N 12N20160411221009804/11/16 22:10:31  5-MIN K12N 120310Z AUTO 19005KT 13/07 A2995 560 66 500 210/05 RMK AO1 T01330072
54779K12N 12N20160411221509804/11/16 22:15:31  5-MIN K12N 120315Z AUTO 20006KT 13/07 A2994 560 69 500 220/06 RMK AO1 T01280072
54779K12N 12N20160411222009804/11/16 22:20:31  5-MIN K12N 120320Z AUTO 20006KT 13/07 A2994 560 69 500 210/06 RMK AO1 T01280072
54779K12N 12N20160411222509804/11/16 22:25:31  5-MIN K12N 120325Z AUTO 19006KT 13/08 A2994 560 71 500 200/06 RMK AO1 T01280078
54779K12N 12N20160411223009804/11/16 22:30:31  5-MIN K12N 120330Z AUTO VRB06KT 13/08 A2995 560 71 500 VRB/06 RMK AO1 T01280078
54779K12N 12N20160411223509804/11/16 22:35:31  5-MIN K12N 120335Z AUTO 20006KT 13/08 A2995 560 71 500 210/06 RMK AO1 T01280078
54779K12N 12N20160411224009804/11/16 22:40:31  5-MIN K12N 120340Z AUTO VRB05KT 13/08 A2994 560 71 500 VRB/05 RMK AO1 T01280078
54779K12N 12N20160411224509804/11/16 22:45:31  5-MIN K12N 120345Z AUTO 20007KT 13/08 A2994 570 71 500 210/07 RMK AO1 T01280078
54779K12N 12N20160411225010504/11/16 22:50:31  5-MIN K12N 120350Z AUTO 19005KT 13/08 A2994 570 71 500 200/05 RMK AO1 SLP140 T01280078
54779K12N 12N20160411225509804/11/16 22:55:31  5-MIN K12N 120355Z AUTO VRB04KT 13/08 A2994 560 71 500 VRB/04 RMK AO1 T01280078
54779K12N 12N20160411230009804/11/16 23:00:31  5-MIN K12N 120400Z AUTO VRB04KT 12/08 A2994 560 74 400 VRB/04 RMK AO1 T01220078
54779K12N 12N20160411230509804/11/16 23:05:31  5-MIN K12N 120405Z AUTO VRB04KT 13/08 A2994 570 71 500 VRB/04 RMK AO1 T01280078
54779K12N 12N20160411231008804/11/16 23:10:31  5-MIN K12N 120410Z AUTO 13/08 A2994 570 71 500 M /M RMK AO1 T01280078
54779K12N 12N20160411231509804/11/16 23:15:31  5-MIN K12N 120415Z AUTO 18004KT 13/08 A2993 570 71 500 190/04 RMK AO1 T01280078
54779K12N 12N20160411232009804/11/16 23:20:31  5-MIN K12N 120420Z AUTO 20004KT 13/08 A2994 570 71 500 210/04 RMK AO1 T01280078
54779K12N 12N20160411232509804/11/16 23:25:31  5-MIN K12N 120425Z AUTO VRB03KT 13/08 A2994 570 71 500 VRB/03 RMK AO1 T01280078
54779K12N 12N20160411233009804/11/16 23:30:31  5-MIN K12N 120430Z AUTO 00000KT 12/08 A2994 570 77 300 000/00 RMK AO1 T01170078
54779K12N 12N20160411233509804/11/16 23:35:31  5-MIN K12N 120435Z AUTO 00000KT 12/08 A2994 570 77 300 000/00 RMK AO1 T01170078
54779K12N 12N20160411234009804/11/16 23:40:31  5-MIN K12N 120440Z AUTO 00000KT 11/08 A2994 570 80 300 000/00 RMK AO1 T01110078
54779K12N 12N20160411234508804/11/16 23:45:31  5-MIN K12N 120445Z AUTO 12/08 A2994 570 77 300 M /M RMK AO1 T01170078
54779K12N 12N20160411235010504/11/16 23:50:31  5-MIN K12N 120450Z AUTO 12/08 A2994 570 74 400 M /M RMK AO1 SLP139 T01220078 401500044
54779K12N 12N20160411235510404/11/16 23:55:31  5-MIN K12N 120455Z AUTO 23014G20KT 13/08 A2993 580 71 600 240/14G20 RMK AO1 T01330083
54779K12N 12N20160412000010404/12/16 00:00:31  5-MIN K12N 120500Z AUTO VRB04G20KT 14/08 A2993 580 69 600 VRB/04G20 RMK AO1 T01390083
54779K12N 12N20160412000512004/12/16 00:05:31  5-MIN K12N 120505Z AUTO 20008G19KT 130V230 13/08 A2992 580 71 600 220/08G19 140V240 RMK AO1 T01330083
54779K12N 12N20160412001010404/12/16 00:10:31  5-MIN K12N 120510Z AUTO 17004G19KT 13/08 A2992 590 71 600 180/04G19 RMK AO1 T01330083
54779K12N 12N20160412001509804/12/16 00:15:31  5-MIN K12N 120515Z AUTO 20008KT 14/08 A2992 590 69 600 210/08 RMK AO1 T01390083
54779K12N 12N20160412002009804/12/16 00:20:31  5-MIN K12N 120520Z AUTO VRB05KT 14/08 A2992 590 69 600 VRB/05 RMK AO1 T01390083
54779K12N 12N20160412002509804/12/16 00:25:31  5-MIN K12N 120525Z AUTO VRB06KT 14/08 A2992 590 69 600 VRB/06 RMK AO1 T01390083
54779K12N 12N20160412003012004/12/16 00:30:31  5-MIN K12N 120530Z AUTO 19007G17KT 150V220 14/09 A2992 590 71 600 200/07G17 160V230 RMK AO1 T01390089
54779K12N 12N20160412003510404/12/16 00:35:31  5-MIN K12N 120535Z AUTO VRB06G17KT 14/08 A2991 590 69 600 VRB/06G17 RMK AO1 T01390083
54779K12N 12N20160412004009804/12/16 00:40:31  5-MIN K12N 120540Z AUTO VRB05KT 13/08 A2991 590 71 600 VRB/05 RMK AO1 T01330083
54779K12N 12N20160412004509804/12/16 00:45:31  5-MIN K12N 120545Z AUTO VRB06KT 13/08 A2991 590 71 600 VRB/06 RMK AO1 T01330083
54779K12N 12N20160412005012304/12/16 00:50:31  5-MIN K12N 120550Z AUTO VRB05KT 13/08 A2991 600 71 600 VRB/05 RMK AO1 SLP128 T01330083 10139 20111 56015
54779K12N 12N20160412005509804/12/16 00:55:31  5-MIN K12N 120555Z AUTO 20004KT 13/08 A2991 600 71 600 210/04 RMK AO1 T01330083
54779K12N 12N20160412010009804/12/16 01:00:31  5-MIN K12N 120600Z AUTO 00000KT 13/08 A2991 600 71 600 000/00 RMK AO1 T01330083
54779K12N 12N20160412010509804/12/16 01:05:31  5-MIN K12N 120605Z AUTO 21003KT 13/08 A2990 600 71 600 220/03 RMK AO1 T01330083
54779K12N 12N20160412011009804/12/16 01:10:31  5-MIN K12N 120610Z AUTO VRB05KT 13/08 A2989 610 71 600 VRB/05 RMK AO1 T01330083
54779K12N 12N20160412011509804/12/16 01:15:31  5-MIN K12N 120615Z AUTO 21003KT 13/09 A2990 610 74 600 230/03 RMK AO1 T01330089
54779K12N 12N20160412012009804/12/16 01:20:31  5-MIN K12N 120620Z AUTO VRB03KT 13/09 A2989 610 74 600 VRB/03 RMK AO1 T01330089
54779K12N 12N20160412012509804/12/16 01:25:31  5-MIN K12N 120625Z AUTO 19003KT 13/09 A2989 610 74 600 200/03 RMK AO1 T01330089
54779K12N 12N20160412013009804/12/16 01:30:31  5-MIN K12N 120630Z AUTO VRB03KT 13/09 A2989 610 74 600 VRB/03 RMK AO1 T01330089
54779K12N 12N20160412013509804/12/16 01:35:31  5-MIN K12N 120635Z AUTO VRB04KT 13/09 A2989 610 74 600 VRB/04 RMK AO1 T01330089
54779K12N 12N20160412014009804/12/16 01:40:31  5-MIN K12N 120640Z AUTO 17005KT 13/09 A2989 610 74 600 180/05 RMK AO1 T01330089
54779K12N 12N20160412014509804/12/16 01:45:31  5-MIN K12N 120645Z AUTO 18004KT 13/09 A2989 610 74 600 190/04 RMK AO1 T01330089
54779K12N 12N20160412015010504/12/16 01:50:31  5-MIN K12N 120650Z AUTO VRB05KT 13/09 A2989 610 74 600 VRB/05 RMK AO1 SLP122 T01330089
54779K12N 12N20160412015509804/12/16 01:55:31  5-MIN K12N 120655Z AUTO VRB04KT 13/09 A2989 610 74 600 VRB/04 RMK AO1 T01330089
54779K12N 12N20160412020009804/12/16 02:00:31  5-MIN K12N 120700Z AUTO 17004KT 13/09 A2989 620 74 600 190/04 RMK AO1 T01330089
54779K12N 12N20160412020509804/12/16 02:05:31  5-MIN K12N 120705Z AUTO 18005KT 13/09 A2988 620 74 600 190/05 RMK AO1 T01330089
54779K12N 12N20160412021009804/12/16 02:10:31  5-MIN K12N 120710Z AUTO VRB04KT 13/09 A2988 620 74 600 VRB/04 RMK AO1 T01330089
54779K12N 12N20160412021509804/12/16 02:15:31  5-MIN K12N 120715Z AUTO 18004KT 13/09 A2988 620 74 600 190/04 RMK AO1 T01330089
54779K12N 12N20160412022009804/12/16 02:20:31  5-MIN K12N 120720Z AUTO 18006KT 13/09 A2988 620 77 500 190/06 RMK AO1 T01280089
54779K12N 12N20160412022509804/12/16 02:25:31  5-MIN K12N 120725Z AUTO 20004KT 13/09 A2988 620 74 600 220/04 RMK AO1 T01330089
54779K12N 12N20160412023009804/12/16 02:30:31  5-MIN K12N 120730Z AUTO VRB05KT 13/09 A2988 620 80 500 VRB/05 RMK AO1 T01280094
54779K12N 12N20160412023509804/12/16 02:35:31  5-MIN K12N 120735Z AUTO 19004KT 13/09 A2988 620 77 600 200/04 RMK AO1 T01330094
54779K12N 12N20160412024009804/12/16 02:40:31  5-MIN K12N 120740Z AUTO VRB03KT 13/09 A2988 620 80 500 VRB/03 RMK AO1 T01280094
54779K12N 12N20160412024509804/12/16 02:45:31  5-MIN K12N 120745Z AUTO VRB04KT 13/10 A2988 620 83 500 VRB/04 RMK AO1 T01280100
54779K12N 12N20160412025011104/12/16 02:50:31  5-MIN K12N 120750Z AUTO VRB03KT 12/10 A2988 630 86 500 VRB/03 RMK AO1 SLP116 P0001 T01220100
54779K12N 12N20160412025509804/12/16 02:55:31  5-MIN K12N 120755Z AUTO 18003KT 12/10 A2988 630 86 500 200/03 RMK AO1 T01220100
54779K12N 12N20160412030009804/12/16 03:00:31  5-MIN K12N 120800Z AUTO 20004KT 12/10 A2988 630 86 500 210/04 RMK AO1 T01220100
54779K12N 12N20160412030510404/12/16 03:05:31  5-MIN K12N 120805Z AUTO VRB04KT 12/10 A2988 630 86 500 VRB/04 RMK AO1 P0001 T01220100
54779K12N 12N20160412031010404/12/16 03:10:31  5-MIN K12N 120810Z AUTO 18003KT 12/10 A2988 630 86 500 190/03 RMK AO1 P0001 T01220100
54779K12N 12N20160412031510404/12/16 03:15:31  5-MIN K12N 120815Z AUTO 19004KT 12/11 A2988 630 89 500 200/04 RMK AO1 P0001 T01220106
54779K12N 12N20160412032010404/12/16 03:20:31  5-MIN K12N 120820Z AUTO VRB04KT 12/11 A2988 620 89 500 VRB/04 RMK AO1 P0001 T01220106
54779K12N 12N20160412032510404/12/16 03:25:31  5-MIN K12N 120825Z AUTO VRB03KT 12/11 A2988 620 89 500 VRB/03 RMK AO1 P0001 T01220106
54779K12N 12N20160412033010404/12/16 03:30:31  5-MIN K12N 120830Z AUTO 20003KT 12/11 A2988 620 89 500 210/03 RMK AO1 P0001 T01220106
54779K12N 12N20160412033510404/12/16 03:35:31  5-MIN K12N 120835Z AUTO VRB04KT 12/11 A2988 620 89 500 VRB/04 RMK AO1 P0001 T01220106
54779K12N 12N20160412034010404/12/16 03:40:31  5-MIN K12N 120840Z AUTO 20004KT 13/11 A2988 630 86 500 220/04 RMK AO1 P0002 T01280106
54779K12N 12N20160412034510404/12/16 03:45:31  5-MIN K12N 120845Z AUTO VRB04KT 13/11 A2988 620 86 500 VRB/04 RMK AO1 P0002 T01280106
54779K12N 12N20160412035012304/12/16 03:50:31  5-MIN K12N 120850Z AUTO 19003KT 12/11 A2988 620 89 500 210/03 RMK AO1 SLP117 P0002 60003 T01220106 58014
54779K12N 12N20160412035509804/12/16 03:55:31  5-MIN K12N 120855Z AUTO 00000KT 12/11 A2987 630 89 500 000/00 RMK AO1 T01220106
54779K12N 12N20160412040009804/12/16 04:00:31  5-MIN K12N 120900Z AUTO 20004KT 12/11 A2988 620 89 500 210/04 RMK AO1 T01220106
54779K12N 12N20160412040510404/12/16 04:05:31  5-MIN K12N 120905Z AUTO VRB04KT 12/11 A2988 620 89 500 VRB/04 RMK AO1 P0001 T01220106
54779K12N 12N20160412041010404/12/16 04:10:31  5-MIN K12N 120910Z AUTO 21003KT 12/11 A2988 620 89 500 220/03 RMK AO1 P0001 T01220106
54779K12N 12N20160412041510404/12/16 04:15:31  5-MIN K12N 120915Z AUTO 19004KT 12/11 A2989 620 89 500 210/04 RMK AO1 P0001 T01220106
54779K12N 12N20160412042010404/12/16 04:20:31  5-MIN K12N 120920Z AUTO 19003KT 12/11 A2989 610 89 500 200/03 RMK AO1 P0001 T01220106
54779K12N 12N20160412042510404/12/16 04:25:31  5-MIN K12N 120925Z AUTO VRB04KT 12/11 A2989 610 89 500 VRB/04 RMK AO1 P0001 T01220106
54779K12N 12N20160412043010404/12/16 04:30:31  5-MIN K12N 120930Z AUTO 00000KT 12/11 A2989 610 89 500 000/00 RMK AO1 P0001 T01220106
54779K12N 12N20160412043510404/12/16 04:35:31  5-MIN K12N 120935Z AUTO 20003KT 12/11 A2989 610 89 500 220/03 RMK AO1 P0001 T01220106
54779K12N 12N20160412044010404/12/16 04:40:31  5-MIN K12N 120940Z AUTO 21004KT 12/11 A2989 610 89 500 220/04 RMK AO1 P0002 T01220106
54779K12N 12N20160412044510404/12/16 04:45:31  5-MIN K12N 120945Z AUTO 21004KT 12/11 A2989 610 89 500 220/04 RMK AO1 P0002 T01220106
54779K12N 12N20160412045011104/12/16 04:50:31  5-MIN K12N 120950Z AUTO 00000KT 12/11 A2989 610 89 500 000/00 RMK AO1 SLP124 P0003 T01220106
54779K12N 12N20160412045509804/12/16 04:55:31  5-MIN K12N 120955Z AUTO 00000KT 12/11 A2989 610 89 500 000/00 RMK AO1 T01220106
54779K12N 12N20160412050010404/12/16 05:00:31  5-MIN K12N 121000Z AUTO 21003KT 12/11 A2990 600 93 500 220/03 RMK AO1 P0001 T01220111
54779K12N 12N20160412050510404/12/16 05:05:31  5-MIN K12N 121005Z AUTO 23003KT 12/11 A2990 600 93 500 240/03 RMK AO1 P0001 T01220111
54779K12N 12N20160412051010404/12/16 05:10:31  5-MIN K12N 121010Z AUTO 22004KT 12/11 A2991 600 93 400 240/04 RMK AO1 P0002 T01220111
54779K12N 12N20160412051510404/12/16 05:15:31  5-MIN K12N 121015Z AUTO 22004KT 12/11 A2991 590 93 400 230/04 RMK AO1 P0002 T01220111
54779K12N 12N20160412052010404/12/16 05:20:31  5-MIN K12N 121020Z AUTO 20003KT 12/11 A2991 590 93 400 210/03 RMK AO1 P0003 T01220111
54779K12N 12N20160412052510404/12/16 05:25:31  5-MIN K12N 121025Z AUTO 22003KT 12/11 A2991 590 93 400 230/03 RMK AO1 P0004 T01220111
54779K12N 12N20160412053010404/12/16 05:30:31  5-MIN K12N 121030Z AUTO 22003KT 12/11 A2992 590 96 400 230/03 RMK AO1 P0005 T01170111
54779K12N 12N20160412053510404/12/16 05:35:31  5-MIN K12N 121035Z AUTO 00000KT 12/11 A2992 590 96 400 000/00 RMK AO1 P0006 T01170111
54779K12N 12N20160412054010404/12/16 05:40:31  5-MIN K12N 121040Z AUTO 00000KT 12/11 A2992 580 96 400 000/00 RMK AO1 P0007 T01170111
54779K12N 12N20160412054510404/12/16 05:45:31  5-MIN K12N 121045Z AUTO 00000KT 12/11 A2992 580 96 400 000/00 RMK AO1 P0009 T01170111
54779K12N 12N20160412055011104/12/16 05:50:31  5-MIN K12N 121050Z AUTO 21003KT 12/11 A2993 580 93 400 230/03 RMK AO1 SLP135 P0009 T01220111
54779K12N 12N20160412055510404/12/16 05:55:31  5-MIN K12N 121055Z AUTO 00000KT 12/11 A2993 580 93 400 000/00 RMK AO1 P0001 T01220111
54779K12N 12N20160412060010404/12/16 06:00:31  5-MIN K12N 121100Z AUTO 00000KT 12/11 A2993 580 96 400 000/00 RMK AO1 P0002 T01170111
54779K12N 12N20160412060510404/12/16 06:05:31  5-MIN K12N 121105Z AUTO 15004KT 12/11 A2993 580 96 400 170/04 RMK AO1 P0003 T01170111
54779K12N 12N20160412061010404/12/16 06:10:31  5-MIN K12N 121110Z AUTO 17003KT 12/11 A2993 580 96 400 190/03 RMK AO1 P0005 T01170111
54779K12N 12N20160412061510404/12/16 06:15:31  5-MIN K12N 121115Z AUTO 00000KT 12/11 A2993 570 96 400 000/00 RMK AO1 P0007 T01170111
54779K12N 12N20160412062010404/12/16 06:20:31  5-MIN K12N 121120Z AUTO 00000KT 12/11 A2993 570 96 400 000/00 RMK AO1 P0008 T01170111
54779K12N 12N20160412062510404/12/16 06:25:31  5-MIN K12N 121125Z AUTO 00000KT 12/11 A2994 570 96 300 000/00 RMK AO1 P0008 T01170111
54779K12N 12N20160412063010404/12/16 06:30:31  5-MIN K12N 121130Z AUTO 00000KT 12/11 A2994 570 96 300 000/00 RMK AO1 P0010 T01170111
54779K12N 12N20160412063510404/12/16 06:35:31  5-MIN K12N 121135Z AUTO 00000KT 12/11 A2994 570 96 300 000/00 RMK AO1 P0011 T01170111
54779K12N 12N20160412064010404/12/16 06:40:31  5-MIN K12N 121140Z AUTO 00000KT 12/11 A2994 570 96 300 000/00 RMK AO1 P0012 T01170111
54779K12N 12N20160412064510404/12/16 06:45:31  5-MIN K12N 121145Z AUTO 00000KT 12/11 A2994 570 96 300 000/00 RMK AO1 P0013 T01170111
54779K12N 12N20160412065014204/12/16 06:50:31  5-MIN K12N 121150Z AUTO 00000KT 12/12 A2994 560 100 300 000/00 RMK AO1 SLP141 P0014 60029 70033 T01170117 10133 20117 55010
54779K12N 12N20160412065509804/12/16 06:55:31  5-MIN K12N 121155Z AUTO 00000KT 12/11 A2995 560 96 300 000/00 RMK AO1 T01170111
54779K12N 12N20160412070010504/12/16 07:00:31  5-MIN K12N 121200Z AUTO 00000KT 12/12 A2995 560 100 300 000/00 RMK AO1 P0001 T01170117
54779K12N 12N20160412070510504/12/16 07:05:31  5-MIN K12N 121205Z AUTO 24004KT 12/12 A2995 550 100 300 260/04 RMK AO1 P0001 T01170117
54779K12N 12N20160412071010404/12/16 07:10:31  5-MIN K12N 121210Z AUTO VRB04KT 12/11 A2996 550 96 300 VRB/04 RMK AO1 P0002 T01170111
54779K12N 12N20160412071510404/12/16 07:15:31  5-MIN K12N 121215Z AUTO 00000KT 12/11 A2996 550 93 400 000/00 RMK AO1 P0003 T01220111
54779K12N 12N20160412072010404/12/16 07:20:31  5-MIN K12N 121220Z AUTO 00000KT 12/12 A2996 550 96 400 000/00 RMK AO1 P0003 T01220117
54779K12N 12N20160412072510404/12/16 07:25:31  5-MIN K12N 121225Z AUTO VRB03KT 12/12 A2996 550 96 400 VRB/03 RMK AO1 P0003 T01220117
54779K12N 12N20160412073010404/12/16 07:30:31  5-MIN K12N 121230Z AUTO VRB03KT 12/11 A2996 550 93 400 VRB/03 RMK AO1 P0004 T01220111
54779K12N 12N20160412073509404/12/16 07:35:31  5-MIN K12N 121235Z AUTO 12/11 A2997 540 93 400 M /M RMK AO1 P0004 T01220111
54779K12N 12N20160412074011704/12/16 07:40:31  5-MIN K12N 121240Z AUTO 35011G18KT 10/08 A2998 530 89 100 010/11G18 RMK AO1 PRESRR P0004 T01000083
54779K12N 12N20160412074513404/12/16 07:45:31  5-MIN K12N 121245Z AUTO 36008G19KT 320V030 08/07 A2999 520 89 -100 020/08G19 330V040 RMK AO1 PRESRR P0004 T00830067
54779K12N 12N20160412075012504/12/16 07:50:31  5-MIN K12N 121250Z AUTO 35011G19KT 08/06 A3000 510 86 -100 360/11G19 RMK AO1 PRESRR SLP160 P0004 T00830061
54779K12N 12N20160412075512804/12/16 07:55:31  5-MIN K12N 121255Z AUTO 34010G14KT 300V360 08/06 A3000 510 86 -100 350/10G14 310V010 RMK AO1 PRESRR T00780056
54779K12N 12N20160412080012804/12/16 08:00:31  5-MIN K12N 121300Z AUTO 32009G17KT 300V010 07/05 A3001 500 86 -200 340/09G17 310V020 RMK AO1 PRESRR T00720050
54779K12N 12N20160412080511204/12/16 08:05:31  5-MIN K12N 121305Z AUTO 34007G17KT 07/04 A3002 490 86 -300 350/07G17 RMK AO1 PRESRR T00670044
54779K12N 12N20160412081012804/12/16 08:10:31  5-MIN K12N 121310Z AUTO 35011G18KT 300V010 06/03 A3003 480 82 -400 360/11G18 310V020 RMK AO1 PRESRR T00610033
54779K12N 12N20160412081511204/12/16 08:15:31  5-MIN K12N 121315Z AUTO VRB06G18KT 06/03 A3004 480 82 -400 VRB/06G18 RMK AO1 PRESRR T00610033
54779K12N 12N20160412082010504/12/16 08:20:31  5-MIN K12N 121320Z AUTO 34012G16KT 06/03 A3004 470 85 -500 350/12G16 RMK AO1 T00560033
54779K12N 12N20160412082510504/12/16 08:25:31  5-MIN K12N 121325Z AUTO 36011G16KT 06/03 A3004 470 82 -500 010/11G16 RMK AO1 T00560028
54779K12N 12N20160412083010504/12/16 08:30:31  5-MIN K12N 121330Z AUTO 34010G19KT 05/03 A3005 470 85 -500 360/10G19 RMK AO1 T00500028
54779K12N 12N20160412083510504/12/16 08:35:31  5-MIN K12N 121335Z AUTO 35007G19KT 05/02 A3005 470 82 -500 360/07G19 RMK AO1 T00500022
54779K12N 12N20160412084011104/12/16 08:40:31  5-MIN K12N 121340Z AUTO 34006G16KT 04/03 A3005 470 89 -600 350/06G16 RMK AO1 P0001 T00440028
54779K12N 12N20160412084510504/12/16 08:45:31  5-MIN K12N 121345Z AUTO 36007KT 04/02 A3005 460 85 -600 010/07 RMK AO1 P0001 T00440022
54779K12N 12N20160412085011204/12/16 08:50:31  5-MIN K12N 121350Z AUTO 36007KT 05/02 A3006 460 82 -500 010/07 RMK AO1 SLP181 P0001 T00500022
54779K12N 12N20160412085509904/12/16 08:55:31  5-MIN K12N 121355Z AUTO 36005KT 05/02 A3006 460 82 -500 010/05 RMK AO1 T00500022
54779K12N 12N20160412090009904/12/16 09:00:31  5-MIN K12N 121400Z AUTO VRB05KT 05/02 A3006 460 82 -600 VRB/05 RMK AO1 T00500022
54779K12N 12N20160412090509904/12/16 09:05:31  5-MIN K12N 121405Z AUTO 36007KT 05/02 A3006 460 82 -600 010/07 RMK AO1 T00500022
54779K12N 12N20160412091009904/12/16 09:10:31  5-MIN K12N 121410Z AUTO 34010KT 05/02 A3006 450 82 -600 350/10 RMK AO1 T00500022
54779K12N 12N20160412091510504/12/16 09:15:31  5-MIN K12N 121415Z AUTO 36009G15KT 05/02 A3006 460 82 -600 010/09G15 RMK AO1 T00500022
54779K12N 12N20160412092010504/12/16 09:20:31  5-MIN K12N 121420Z AUTO 34007G15KT 06/02 A3006 460 79 -500 350/07G15 RMK AO1 T00560022
54779K12N 12N20160412092510504/12/16 09:25:31  5-MIN K12N 121425Z AUTO VRB05G14KT 06/03 A3006 450 82 -500 VRB/05G14 RMK AO1 T00560028
54779K12N 12N20160412093009904/12/16 09:30:31  5-MIN K12N 121430Z AUTO VRB05KT 06/03 A3007 450 82 -500 VRB/05 RMK AO1 T00560028
54779K12N 12N20160412093509904/12/16 09:35:31  5-MIN K12N 121435Z AUTO 35006KT 06/02 A3007 450 79 -500 360/06 RMK AO1 T00560022
54779K12N 12N20160412094009904/12/16 09:40:31  5-MIN K12N 121440Z AUTO 35008KT 06/02 A3007 450 79 -500 010/08 RMK AO1 T00560022
54779K12N 12N20160412094509904/12/16 09:45:31  5-MIN K12N 121445Z AUTO 34005KT 06/02 A3007 450 79 -500 360/05 RMK AO1 T00560022
54779K12N 12N20160412095011804/12/16 09:50:31  5-MIN K12N 121450Z AUTO 34007KT 06/03 A3007 450 82 -500 360/07 RMK AO1 SLP186 60005 T00560028 53023
54779K12N 12N20160412095509904/12/16 09:55:31  5-MIN K12N 121455Z AUTO VRB05KT 06/02 A3007 440 79 -500 VRB/05 RMK AO1 T00560022
54779K12N 12N20160412100009904/12/16 10:00:31  5-MIN K12N 121500Z AUTO VRB03KT 06/02 A3007 440 79 -500 VRB/03 RMK AO1 T00560022
54779K12N 12N20160412100509904/12/16 10:05:31  5-MIN K12N 121505Z AUTO 36005KT 06/02 A3007 450 79 -500 010/05 RMK AO1 T00560022
54779K12N 12N20160412101009904/12/16 10:10:31  5-MIN K12N 121510Z AUTO 36007KT 06/02 A3007 450 79 -500 020/07 RMK AO1 T00560022
54779K12N 12N20160412101509904/12/16 10:15:31  5-MIN K12N 121515Z AUTO VRB05KT 06/02 A3007 450 76 -500 VRB/05 RMK AO1 T00560017
54779K12N 12N20160412102009904/12/16 10:20:31  5-MIN K12N 121520Z AUTO 34008KT 06/02 A3007 450 76 -400 360/08 RMK AO1 T00610022
54779K12N 12N20160412102509904/12/16 10:25:31  5-MIN K12N 121525Z AUTO 35009KT 07/02 A3007 450 73 -400 010/09 RMK AO1 T00670022
54779K12N 12N20160412103009904/12/16 10:30:31  5-MIN K12N 121530Z AUTO VRB03KT 06/02 A3007 450 73 -400 VRB/03 RMK AO1 T00610017
54779K12N 12N20160412103509904/12/16 10:35:31  5-MIN K12N 121535Z AUTO 35006KT 07/02 A3006 450 73 -400 360/06 RMK AO1 T00670022
54779K12N 12N20160412104009904/12/16 10:40:31  5-MIN K12N 121540Z AUTO VRB06KT 07/02 A3007 450 73 -400 VRB/06 RMK AO1 T00670022
54779K12N 12N20160412104511504/12/16 10:45:31  5-MIN K12N 121545Z AUTO 35007KT 320V030 07/02 A3006 450 70 -300 010/07 330V040 RMK AO1 T00720022
54779K12N 12N20160412105010604/12/16 10:50:31  5-MIN K12N 121550Z AUTO VRB04KT 07/02 A3006 450 70 -300 VRB/04 RMK AO1 SLP183 T00720022
54779K12N 12N20160412105509904/12/16 10:55:31  5-MIN K12N 121555Z AUTO VRB05KT 07/02 A3007 450 70 -300 VRB/05 RMK AO1 T00720022
54779K12N 12N20160412110009904/12/16 11:00:31  5-MIN K12N 121600Z AUTO 33007KT 08/02 A3006 450 65 -100 340/07 RMK AO1 T00830022
54779K12N 12N20160412110512104/12/16 11:05:31  5-MIN K12N 121605Z AUTO 31007G17KT 280V360 08/02 A3006 450 63 -200 320/07G17 290V010 RMK AO1 T00830017
54779K12N 12N20160412111010504/12/16 11:10:31  5-MIN K12N 121610Z AUTO VRB06G17KT 09/02 A3006 450 60 -100 VRB/06G17 RMK AO1 T00890017
54779K12N 12N20160412111510504/12/16 11:15:31  5-MIN K12N 121615Z AUTO 36010G14KT 09/02 A3006 450 60 -100 010/10G14 RMK AO1 T00890017
54779K12N 12N20160412112011804/12/16 11:20:31  5-MIN K12N 121620Z AUTO 35010G16KT 320V030 09/02 A3006 450 58 0 360/10G16 330V040 RMK AO1 T00940017
54779K12N 12N20160412112511804/12/16 11:25:31  5-MIN K12N 121625Z AUTO 33007G16KT 280V020 09/01 A3006 450 56 0 350/07G16 290V030 RMK AO1 T00940011
54779K12N 12N20160412113011204/12/16 11:30:31  5-MIN K12N 121630Z AUTO 34007KT 300V010 10/02 A3006 460 56 0 350/07 310V020 RMK AO1 T01000017
54779K12N 12N20160412113511804/12/16 11:35:31  5-MIN K12N 121635Z AUTO 36007G14KT 320V070 10/02 A3006 460 56 0 010/07G14 330V080 RMK AO1 T01000017
54779K12N 12N20160412114010204/12/16 11:40:31  5-MIN K12N 121640Z AUTO 35012G16KT 10/01 A3006 460 52 0 360/12G16 RMK AO1 T01000006
54779K12N 12N20160412114511804/12/16 11:45:31  5-MIN K12N 121645Z AUTO 35008G16KT 300V040 10/01 A3006 460 54 0 010/08G16 310V050 RMK AO1 T01000011
54779K12N 12N20160412115011904/12/16 11:50:31  5-MIN K12N 121650Z AUTO 35007KT 310V020 10/01 A3006 460 54 0 360/07 320V030 RMK AO1 SLP179 T01000011
54779K12N 12N20160412115512004/12/16 11:55:31  5-MIN K12N 121655Z AUTO 33007G16KT 300V060 11/01 A3006 460 50 100 350/07G16 310V070 RMK AO1 T01060006
54779K12N 12N20160412120012004/12/16 12:00:31  5-MIN K12N 121700Z AUTO 33008G16KT 250V360 11/01 A3006 460 50 100 340/08G16 260V010 RMK AO1 T01110011
54779K12N 12N20160412120512004/12/16 12:05:31  5-MIN K12N 121705Z AUTO 33007G20KT 290V010 11/00 A3006 460 48 100 350/07G20 300V020 RMK AO1 T01060000
54779K12N 12N20160412121012004/12/16 12:10:31  5-MIN K12N 121710Z AUTO 33010G20KT 290V010 11/00 A3006 460 46 100 340/10G20 300V020 RMK AO1 T01110000
54779K12N 12N20160412121510404/12/16 12:15:31  5-MIN K12N 121715Z AUTO VRB06G17KT 11/00 A3006 450 48 100 VRB/06G17 RMK AO1 T01060000
54779K12N 12N20160412122009804/12/16 12:20:31  5-MIN K12N 121720Z AUTO VRB06KT 12/01 A3007 450 46 200 VRB/06 RMK AO1 T01170006
54779K12N 12N20160412122508804/12/16 12:25:31  5-MIN K12N 121725Z AUTO 11/00 A3007 450 46 100 M /M RMK AO1 T01110000
54779K12N 12N20160412123010504/12/16 12:30:31  5-MIN K12N 121730Z AUTO 34011G18KT 11/M01 A3007 440 44 100 360/11G18 RMK AO1 T01111006
54779K12N 12N20160412123510504/12/16 12:35:31  5-MIN K12N 121735Z AUTO VRB04G18KT 11/M01 A3007 450 44 100 VRB/04G18 RMK AO1 T01111006
54779K12N 12N20160412124010504/12/16 12:40:31  5-MIN K12N 121740Z AUTO 35010G19KT 12/M01 A3007 450 42 200 360/10G19 RMK AO1 T01171006
54779K12N 12N20160412124510504/12/16 12:45:31  5-MIN K12N 121745Z AUTO VRB04G19KT 12/M01 A3007 450 42 200 VRB/04G19 RMK AO1 T01171006
54779K12N 12N20160412125014604/12/16 12:50:31  5-MIN K12N 121750Z AUTO 30008KT 260V330 12/M01 A3007 450 41 300 310/08 270V340 RMK AO1 SLP183 60005 T01221006 10122 20044 51042
54779K12N 12N20160412125512104/12/16 12:55:31  5-MIN K12N 121755Z AUTO 28007G19KT 210V320 12/M01 A3007 450 41 200 290/07G19 220V330 RMK AO1 T01171011
54779K12N 12N20160412130010504/12/16 13:00:31  5-MIN K12N 121800Z AUTO VRB06G19KT 13/M01 A3007 450 39 300 VRB/06G19 RMK AO1 T01281006
54779K12N 12N20160412130512104/12/16 13:05:31  5-MIN K12N 121805Z AUTO 33008G17KT 270V360 12/M02 A3007 450 39 200 340/08G17 280V010 RMK AO1 T01171017
54779K12N 12N20160412131008804/12/16 13:10:31  5-MIN K12N 121810Z AUTO 13/00 A3007 450 41 300 M /M RMK AO1 T01280000
54779K12N 12N20160412131509904/12/16 13:15:31  5-MIN K12N 121815Z AUTO 35008KT 13/M01 A3007 450 39 300 360/08 RMK AO1 T01281006
54779K12N 12N20160412132012104/12/16 13:20:31  5-MIN K12N 121820Z AUTO 35011G18KT 320V030 12/M01 A3008 440 39 300 010/11G18 330V040 RMK AO1 T01221011
54779K12N 12N20160412132512104/12/16 13:25:31  5-MIN K12N 121825Z AUTO 34011G20KT 300V010 12/M02 A3007 440 38 300 350/11G20 310V020 RMK AO1 T01221017
54779K12N 12N20160412133012104/12/16 13:30:31  5-MIN K12N 121830Z AUTO 33009G20KT 290V010 12/M02 A3008 440 38 300 340/09G20 300V020 RMK AO1 T01221017
54779K12N 12N20160412133512104/12/16 13:35:31  5-MIN K12N 121835Z AUTO 31010G19KT 270V360 12/M02 A3008 440 38 300 320/10G19 280V010 RMK AO1 T01221017
54779K12N 12N20160412134010504/12/16 13:40:31  5-MIN K12N 121840Z AUTO 30010G17KT 12/M02 A3008 440 38 200 310/10G17 RMK AO1 T01171022
54779K12N 12N20160412134512104/12/16 13:45:31  5-MIN K12N 121845Z AUTO 36007G17KT 340V040 12/M02 A3008 440 38 300 010/07G17 350V050 RMK AO1 T01221017
54779K12N 12N20160412135012804/12/16 13:50:31  5-MIN K12N 121850Z AUTO 35010G18KT 300V020 12/M02 A3008 440 38 200 360/10G18 310V030 RMK AO1 SLP187 T01221017
54779K12N 12N20160412135512104/12/16 13:55:31  5-MIN K12N 121855Z AUTO 30009G18KT 260V320 12/M02 A3008 440 38 200 310/09G18 270V330 RMK AO1 T01221017
54779K12N 12N20160412140010504/12/16 14:00:31  5-MIN K12N 121900Z AUTO VRB04G17KT 13/M01 A3008 440 38 300 VRB/04G17 RMK AO1 T01281011
54779K12N 12N20160412140510504/12/16 14:05:31  5-MIN K12N 121905Z AUTO 36011G16KT 13/M01 A3008 430 38 300 010/11G16 RMK AO1 T01281011
54779K12N 12N20160412141010504/12/16 14:10:31  5-MIN K12N 121910Z AUTO VRB06G17KT 13/M02 A3008 430 36 300 VRB/06G17 RMK AO1 T01281017
54779K12N 12N20160412141512104/12/16 14:15:31  5-MIN K12N 121915Z AUTO 31007G17KT 270V360 13/M01 A3008 430 38 300 320/07G17 280V010 RMK AO1 T01281011
54779K12N 12N20160412142009904/12/16 14:20:31  5-MIN K12N 121920Z AUTO VRB06KT 13/M02 A3008 430 36 300 VRB/06 RMK AO1 T01281017
54779K12N 12N20160412142510504/12/16 14:25:31  5-MIN K12N 121925Z AUTO 35010G17KT 13/M02 A3009 430 36 300 360/10G17 RMK AO1 T01281017
54779K12N 12N20160412143012104/12/16 14:30:31  5-MIN K12N 121930Z AUTO 36009G17KT 320V060 12/M02 A3009 430 38 200 010/09G17 330V070 RMK AO1 T01221017
54779K12N 12N20160412143510504/12/16 14:35:31  5-MIN K12N 121935Z AUTO 34008G16KT 13/M02 A3009 430 35 300 350/08G16 RMK AO1 T01281022
54779K12N 12N20160412144010504/12/16 14:40:31  5-MIN K12N 121940Z AUTO 35006G16KT 13/M02 A3009 430 35 300 360/06G16 RMK AO1 T01281022
54779K12N 12N20160412144509904/12/16 14:45:31  5-MIN K12N 121945Z AUTO 35008KT 13/M01 A3009 430 36 400 360/08 RMK AO1 T01331011
54779K12N 12N20160412145011204/12/16 14:50:31  5-MIN K12N 121950Z AUTO 33008G20KT 13/M03 A3009 430 33 300 350/08G20 RMK AO1 SLP190 T01281028
54779K12N 12N20160412145510504/12/16 14:55:31  5-MIN K12N 121955Z AUTO VRB06G20KT 13/M02 A3009 430 36 300 VRB/06G20 RMK AO1 T01281017
54779K12N 12N20160412150009904/12/16 15:00:31  5-MIN K12N 122000Z AUTO 36008KT 13/M02 A3009 430 35 300 020/08 RMK AO1 T01281022
54779K12N 12N20160412150510504/12/16 15:05:31  5-MIN K12N 122005Z AUTO 34009G17KT 13/M02 A3010 420 35 300 350/09G17 RMK AO1 T01281022
54779K12N 12N20160412151012104/12/16 15:10:31  5-MIN K12N 122010Z AUTO 01007G17KT 340V080 13/M03 A3010 420 33 300 020/07G17 350V090 RMK AO1 T01281028
54779K12N 12N20160412151512104/12/16 15:15:31  5-MIN K12N 122015Z AUTO 35010G16KT 310V040 13/M02 A3010 420 35 300 360/10G16 320V050 RMK AO1 T01281022
54779K12N 12N20160412152012104/12/16 15:20:31  5-MIN K12N 122020Z AUTO 35009G17KT 300V040 13/M02 A3010 420 35 300 360/09G17 310V050 RMK AO1 T01281022
54779K12N 12N20160412152512104/12/16 15:25:31  5-MIN K12N 122025Z AUTO 35011G18KT 300V010 12/M03 A3010 420 35 200 360/11G18 310V020 RMK AO1 T01221028
54779K12N 12N20160412153012104/12/16 15:30:31  5-MIN K12N 122030Z AUTO 33010G18KT 300V360 12/M03 A3011 410 33 200 340/10G18 310V010 RMK AO1 T01221033
54779K12N 12N20160412153510504/12/16 15:35:31  5-MIN K12N 122035Z AUTO VRB05G15KT 13/M03 A3011 410 32 300 VRB/05G15 RMK AO1 T01281033
54779K12N 12N20160412154010504/12/16 15:40:31  5-MIN K12N 122040Z AUTO 36008G15KT 13/M04 A3011 410 31 300 010/08G15 RMK AO1 T01281039
54779K12N 12N20160412154512104/12/16 15:45:31  5-MIN K12N 122045Z AUTO 32008G15KT 270V360 13/M04 A3011 410 31 300 330/08G15 280V010 RMK AO1 T01281039
54779K12N 12N20160412155010204/12/16 15:50:31  5-MIN K12N 122050Z AUTO 13/M03 A3012 400 31 300 M /M RMK AO1 SLP199 T01331033 53000
54779K12N 12N20160412155512104/12/16 15:55:31  5-MIN K12N 122055Z AUTO 35007G17KT 290V040 12/M04 A3012 400 31 200 010/07G17 300V050 RMK AO1 T01221044
54779K12N 12N20160412160012104/12/16 16:00:31  5-MIN K12N 122100Z AUTO 35009G17KT 340V060 12/M04 A3012 400 31 200 010/09G17 350V070 RMK AO1 T01221044
54779K12N 12N20160412160510504/12/16 16:05:31  5-MIN K12N 122105Z AUTO 35013G18KT 12/M04 A3013 400 32 200 360/13G18 RMK AO1 T01221039
54779K12N 12N20160412161012104/12/16 16:10:31  5-MIN K12N 122110Z AUTO 36008G18KT 330V050 12/M04 A3013 390 33 100 010/08G18 340V060 RMK AO1 T01171039
54779K12N 12N20160412161509904/12/16 16:15:31  5-MIN K12N 122115Z AUTO 36010KT 12/M04 A3013 390 33 100 010/10 RMK AO1 T01171039
54779K12N 12N20160412162012104/12/16 16:20:31  5-MIN K12N 122120Z AUTO 36010G20KT 320V040 12/M04 A3014 380 32 200 010/10G20 330V050 RMK AO1 T01221039
54779K12N 12N20160412162510504/12/16 16:25:31  5-MIN K12N 122125Z AUTO 35009G20KT 12/M04 A3014 380 32 100 010/09G20 RMK AO1 T01171044
54779K12N 12N20160412163010504/12/16 16:30:31  5-MIN K12N 122130Z AUTO 35009G16KT 12/M04 A3015 380 32 100 360/09G16 RMK AO1 T01171044
54779K12N 12N20160412163510504/12/16 16:35:31  5-MIN K12N 122135Z AUTO 34009G16KT 12/M05 A3015 370 30 100 360/09G16 RMK AO1 T01171050
54779K12N 12N20160412164010504/12/16 16:40:31  5-MIN K12N 122140Z AUTO 36012G18KT 12/M05 A3015 370 30 100 010/12G18 RMK AO1 T01171050
54779K12N 12N20160412164510504/12/16 16:45:31  5-MIN K12N 122145Z AUTO VRB06G18KT 12/M05 A3015 370 30 100 VRB/06G18 RMK AO1 T01171050
54779K12N 12N20160412165012204/12/16 16:50:31  5-MIN K12N 122150Z AUTO 34008KT 290V010 12/M05 A3016 370 30 100 360/08 300V020 RMK AO1 SLP212 T01171050
54779K12N 12N20160412165509904/12/16 16:55:31  5-MIN K12N 122155Z AUTO VRB04KT 12/M05 A3016 360 30 100 VRB/04 RMK AO1 T01171050
54779K12N 12N20160412170011904/12/16 17:00:31  5-MIN K12N 122200Z AUTO 32010G16KT 280V020 11/M06 A3016 360 30 0 330/10G16 290V030 RMK AO1 T01111056
54779K12N 12N20160412170511904/12/16 17:05:31  5-MIN K12N 122205Z AUTO 36007G16KT 330V040 11/M06 A3017 360 30 0 010/07G16 340V050 RMK AO1 T01111056
54779K12N 12N20160412171011904/12/16 17:10:31  5-MIN K12N 122210Z AUTO 32011G16KT 290V350 11/M06 A3017 350 30 0 330/11G16 300V360 RMK AO1 T01111056
54779K12N 12N20160412171511904/12/16 17:15:31  5-MIN K12N 122215Z AUTO 34007G16KT 300V010 11/M06 A3017 350 30 0 350/07G16 310V020 RMK AO1 T01061061
54779K12N 12N20160412172010304/12/16 17:20:31  5-MIN K12N 122220Z AUTO VRB06G15KT 11/M06 A3017 350 30 0 VRB/06G15 RMK AO1 T01061061
54779K12N 12N20160412172510304/12/16 17:25:31  5-MIN K12N 122225Z AUTO VRB06G16KT 11/M06 A3017 350 31 0 VRB/06G16 RMK AO1 T01061056
54779K12N 12N20160412173010304/12/16 17:30:31  5-MIN K12N 122230Z AUTO VRB06G16KT 11/M06 A3018 350 31 0 VRB/06G16 RMK AO1 T01061056
54779K12N 12N20160412173510304/12/16 17:35:31  5-MIN K12N 122235Z AUTO 36007G15KT 11/M06 A3018 350 31 0 020/07G15 RMK AO1 T01061056
54779K12N 12N20160412174009704/12/16 17:40:31  5-MIN K12N 122240Z AUTO VRB05KT 11/M06 A3018 340 30 0 VRB/05 RMK AO1 T01061061
54779K12N 12N20160412174511604/12/16 17:45:31  5-MIN K12N 122245Z AUTO 36008KT 330V040 10/M06 A3018 340 31 -100 010/08 340V050 RMK AO1 T01001061
54779K12N 12N20160412175010704/12/16 17:50:31  5-MIN K12N 122250Z AUTO 35009KT 09/M06 A3019 340 33 -200 360/09 RMK AO1 SLP223 T00941061
54779K12N 12N20160412175511604/12/16 17:55:31  5-MIN K12N 122255Z AUTO 35007KT 310V020 09/M06 A3019 340 33 -200 010/07 320V030 RMK AO1 T00941061
54779K12N 12N20160412180010004/12/16 18:00:31  5-MIN K12N 122300Z AUTO 35006KT 09/M06 A3019 330 33 -200 010/06 RMK AO1 T00941061
54779K12N 12N20160412180510604/12/16 18:05:31  5-MIN K12N 122305Z AUTO 34008G15KT 09/M07 A3020 330 31 -200 350/08G15 RMK AO1 T00941067
54779K12N 12N20160412181012204/12/16 18:10:31  5-MIN K12N 122310Z AUTO 33008G15KT 290V010 09/M07 A3020 330 32 -200 340/08G15 300V020 RMK AO1 T00891067
54779K12N 12N20160412181510004/12/16 18:15:31  5-MIN K12N 122315Z AUTO 35007KT 09/M07 A3020 330 32 -200 360/07 RMK AO1 T00891067
54779K12N 12N20160412182011604/12/16 18:20:31  5-MIN K12N 122320Z AUTO 34007KT 310V020 09/M07 A3021 320 32 -200 360/07 320V030 RMK AO1 T00891067
54779K12N 12N20160412182510004/12/16 18:25:31  5-MIN K12N 122325Z AUTO VRB05KT 08/M07 A3021 320 34 -300 VRB/05 RMK AO1 T00831067
54779K12N 12N20160412183010004/12/16 18:30:31  5-MIN K12N 122330Z AUTO VRB06KT 08/M07 A3021 310 34 -300 VRB/06 RMK AO1 T00831067
54779K12N 12N20160412183510004/12/16 18:35:31  5-MIN K12N 122335Z AUTO 01007KT 08/M07 A3022 310 34 -300 020/07 RMK AO1 T00831067
54779K12N 12N20160412184011604/12/16 18:40:31  5-MIN K12N 122340Z AUTO 35007KT 300V020 08/M06 A3022 310 35 -300 010/07 310V030 RMK AO1 T00831061
54779K12N 12N20160412184510004/12/16 18:45:31  5-MIN K12N 122345Z AUTO 36005KT 08/M07 A3022 310 34 -300 010/05 RMK AO1 T00831067
54779K12N 12N20160412185012504/12/16 18:50:31  5-MIN K12N 122350Z AUTO 35007KT 08/M06 A3022 310 36 -400 360/07 RMK AO1 SLP237 T00781061 10133 20078 53016
54779K12N 12N20160412185510004/12/16 18:55:31  5-MIN K12N 122355Z AUTO 35007KT 08/M06 A3023 300 36 -400 360/07 RMK AO1 T00781061
54779K12N 12N20160412190010004/12/16 19:00:31  5-MIN K12N 130000Z AUTO 35005KT 08/M06 A3023 300 36 -400 360/05 RMK AO1 T00781061
54779K12N 12N20160413225510004/13/16 22:55:31  5-MIN K12N 140355Z AUTO 00000KT 04/M01 A3031 220 70 -900 000/00 RMK AO1 T00441006
54779K12N 12N20160413230010004/13/16 23:00:31  5-MIN K12N 140400Z AUTO 00000KT 04/M01 A3031 230 70 -900 000/00 RMK AO1 T00441006
54779K12N 12N20160413230510004/13/16 23:05:31  5-MIN K12N 140405Z AUTO 00000KT 04/M01 A3031 230 70 -900 000/00 RMK AO1 T00441006
54779K12N 12N20160413231010104/13/16 23:10:31  5-MIN K12N 140410Z AUTO 00000KT 04/M01 A3031 230 73 -1000 000/00 RMK AO1 T00391006
54779K12N 12N20160413231510104/13/16 23:15:31  5-MIN K12N 140415Z AUTO 00000KT 04/M01 A3031 230 73 -1000 000/00 RMK AO1 T00391006
54779K12N 12N20160413232010104/13/16 23:20:31  5-MIN K12N 140420Z AUTO 00000KT 03/M01 A3031 230 76 -1000 000/00 RMK AO1 T00331006
54779K12N 12N20160413232510104/13/16 23:25:31  5-MIN K12N 140425Z AUTO 00000KT 03/M01 A3031 230 72 -1000 000/00 RMK AO1 T00331011
54779K12N 12N20160413233010104/13/16 23:30:31  5-MIN K12N 140430Z AUTO 00000KT 03/M01 A3031 230 72 -1000 000/00 RMK AO1 T00331011
54779K12N 12N20160413233510104/13/16 23:35:31  5-MIN K12N 140435Z AUTO 00000KT 03/M01 A3031 230 72 -1000 000/00 RMK AO1 T00331011
54779K12N 12N20160413234010104/13/16 23:40:31  5-MIN K12N 140440Z AUTO 00000KT 03/M01 A3031 230 72 -1000 000/00 RMK AO1 T00331011
54779K12N 12N20160413234510104/13/16 23:45:31  5-MIN K12N 140445Z AUTO 00000KT 03/M01 A3031 230 72 -1000 000/00 RMK AO1 T00331011
54779K12N 12N20160413235011804/13/16 23:50:31  5-MIN K12N 140450Z AUTO 00000KT 03/M01 A3031 230 72 -1000 000/00 RMK AO1 SLP269 T00331011 401331022
54779K12N 12N20160413235510104/13/16 23:55:31  5-MIN K12N 140455Z AUTO 00000KT 03/M01 A3031 230 72 -1000 000/00 RMK AO1 T00331011
54779K12N 12N20160414000010104/14/16 00:00:31  5-MIN K12N 140500Z AUTO 00000KT 03/M01 A3031 230 79 -1100 000/00 RMK AO1 T00281006
54779K12N 12N20160414000510004/14/16 00:05:31  5-MIN K12N 140505Z AUTO 00000KT 03/00 A3031 230 82 -1100 000/00 RMK AO1 T00280000
54779K12N 12N20160414001010104/14/16 00:10:31  5-MIN K12N 140510Z AUTO 00000KT 03/M01 A3030 230 79 -1100 000/00 RMK AO1 T00281006
54779K12N 12N20160414001510104/14/16 00:15:31  5-MIN K12N 140515Z AUTO 00000KT 02/M01 A3030 230 82 -1200 000/00 RMK AO1 T00221006
54779K12N 12N20160414002010104/14/16 00:20:31  5-MIN K12N 140520Z AUTO 00000KT 02/M01 A3030 230 78 -1200 000/00 RMK AO1 T00221011
54779K12N 12N20160414002510104/14/16 00:25:31  5-MIN K12N 140525Z AUTO 00000KT 02/M01 A3030 230 78 -1200 000/00 RMK AO1 T00221011
54779K12N 12N20160414003010104/14/16 00:30:31  5-MIN K12N 140530Z AUTO 00000KT 02/M01 A3030 240 78 -1200 000/00 RMK AO1 T00221011
54779K12N 12N20160414003510104/14/16 00:35:31  5-MIN K12N 140535Z AUTO 00000KT 02/M01 A3030 240 78 -1200 000/00 RMK AO1 T00221011
54779K12N 12N20160414004010104/14/16 00:40:31  5-MIN K12N 140540Z AUTO 00000KT 02/M01 A3030 240 82 -1200 000/00 RMK AO1 T00221006
54779K12N 12N20160414004510104/14/16 00:45:31  5-MIN K12N 140545Z AUTO 00000KT 02/M01 A3030 240 82 -1200 000/00 RMK AO1 T00221006
54779K12N 12N20160414005012604/14/16 00:50:31  5-MIN K12N 140550Z AUTO 00000KT 02/M01 A3030 240 82 -1200 000/00 RMK AO1 SLP266 T00171011 10083 20017 50005
54779K12N 12N20160414005510104/14/16 00:55:31  5-MIN K12N 140555Z AUTO 00000KT 02/M01 A3030 230 82 -1200 000/00 RMK AO1 T00171011
54779K12N 12N20160414010010104/14/16 01:00:31  5-MIN K12N 140600Z AUTO 00000KT 02/M01 A3030 230 82 -1200 000/00 RMK AO1 T00221006
54779K12N 12N20160414010510104/14/16 01:05:31  5-MIN K12N 140605Z AUTO 00000KT 02/M01 A3030 230 82 -1200 000/00 RMK AO1 T00221006
54779K12N 12N20160414011010104/14/16 01:10:31  5-MIN K12N 140610Z AUTO 00000KT 01/M01 A3030 230 85 -1300 000/00 RMK AO1 T00111011
54779K12N 12N20160414011510104/14/16 01:15:31  5-MIN K12N 140615Z AUTO 00000KT 01/M01 A3030 230 85 -1300 000/00 RMK AO1 T00111011
54779K12N 12N20160414012010104/14/16 01:20:31  5-MIN K12N 140620Z AUTO 00000KT 01/M01 A3030 230 85 -1300 000/00 RMK AO1 T00111011
54779K12N 12N20160414012506704/14/16 01:25:31  5-MIN K12N 140625Z AUTO M M M M /M RMK AO1 PNO $
54779K12N 12N20160414013007904/14/16 01:30:31  5-MIN K12N 140630Z AUTO 00000KT A3030 M M M 000/00 RMK AO1 $
54779K12N 12N20160414013510304/14/16 01:35:31  5-MIN K12N 140635Z AUTO 00000KT 02/M01 A3030 230 85 -1200 000/00 RMK AO1 T00171006 $
54779K12N 12N20160414014010304/14/16 01:40:31  5-MIN K12N 140640Z AUTO 00000KT 02/M01 A3030 240 82 -1200 000/00 RMK AO1 T00171011 $
54779K12N 12N20160414014510304/14/16 01:45:31  5-MIN K12N 140645Z AUTO 00000KT 01/M01 A3030 240 85 -1300 000/00 RMK AO1 T00111011 $
54779K12N 12N20160414015011004/14/16 01:50:31  5-MIN K12N 140650Z AUTO 00000KT 01/M01 A3030 240 85 -1300 000/00 RMK AO1 SLP266 T00111011 $
54779K12N 12N20160414015510304/14/16 01:55:31  5-MIN K12N 140655Z AUTO 00000KT 01/M02 A3030 230 82 -1300 000/00 RMK AO1 T00111017 $
54779K12N 12N20160414020010304/14/16 02:00:31  5-MIN K12N 140700Z AUTO 00000KT 01/M02 A3030 230 82 -1300 000/00 RMK AO1 T00111017 $
54779K12N 12N20160414020510304/14/16 02:05:31  5-MIN K12N 140705Z AUTO 00000KT 01/M02 A3030 230 82 -1300 000/00 RMK AO1 T00111017 $
54779K12N 12N20160414021010304/14/16 02:10:31  5-MIN K12N 140710Z AUTO 00000KT 01/M02 A3030 230 82 -1400 000/00 RMK AO1 T00061022 $
54779K12N 12N20160414021510304/14/16 02:15:31  5-MIN K12N 140715Z AUTO 00000KT 01/M02 A3030 230 78 -1300 000/00 RMK AO1 T00111022 $
54779K12N 12N20160414022010304/14/16 02:20:31  5-MIN K12N 140720Z AUTO 00000KT 01/M02 A3030 230 78 -1300 000/00 RMK AO1 T00111022 $
54779K12N 12N20160414022510304/14/16 02:25:31  5-MIN K12N 140725Z AUTO 00000KT 01/M02 A3030 230 82 -1400 000/00 RMK AO1 T00061022 $
54779K12N 12N20160414023010304/14/16 02:30:31  5-MIN K12N 140730Z AUTO 00000KT 01/M02 A3030 240 82 -1400 000/00 RMK AO1 T00061022 $
54779K12N 12N20160414023510304/14/16 02:35:31  5-MIN K12N 140735Z AUTO 00000KT 01/M02 A3030 230 82 -1400 000/00 RMK AO1 T00061022 $
54779K12N 12N20160414024010304/14/16 02:40:31  5-MIN K12N 140740Z AUTO 00000KT 01/M02 A3030 230 85 -1400 000/00 RMK AO1 T00061017 $
54779K12N 12N20160414024510304/14/16 02:45:31  5-MIN K12N 140745Z AUTO 00000KT 01/M02 A3030 230 85 -1400 000/00 RMK AO1 T00061017 $
54779K12N 12N20160414025011004/14/16 02:50:31  5-MIN K12N 140750Z AUTO 00000KT 01/M01 A3030 230 89 -1400 000/00 RMK AO1 SLP268 T00061011 $
54779K12N 12N20160414025510304/14/16 02:55:31  5-MIN K12N 140755Z AUTO 00000KT 01/M02 A3031 230 85 -1400 000/00 RMK AO1 T00061017 $
54779K12N 12N20160414030010304/14/16 03:00:31  5-MIN K12N 140800Z AUTO 00000KT 01/M02 A3031 230 85 -1400 000/00 RMK AO1 T00061017 $
54779K12N 12N20160414030510304/14/16 03:05:31  5-MIN K12N 140805Z AUTO 00000KT 01/M02 A3031 230 85 -1400 000/00 RMK AO1 T00061017 $
54779K12N 12N20160414031010304/14/16 03:10:31  5-MIN K12N 140810Z AUTO 00000KT 01/M02 A3031 230 85 -1400 000/00 RMK AO1 T00061017 $
54779K12N 12N20160414031510304/14/16 03:15:31  5-MIN K12N 140815Z AUTO 00000KT 01/M02 A3031 220 85 -1400 000/00 RMK AO1 T00061017 $
54779K12N 12N20160414032010304/14/16 03:20:31  5-MIN K12N 140820Z AUTO 00000KT 01/M02 A3031 220 85 -1400 000/00 RMK AO1 T00061017 $
54779K12N 12N20160414032510304/14/16 03:25:31  5-MIN K12N 140825Z AUTO 00000KT 01/M02 A3032 220 85 -1400 000/00 RMK AO1 T00061017 $
54779K12N 12N20160414033010304/14/16 03:30:31  5-MIN K12N 140830Z AUTO 00000KT 01/M02 A3032 220 85 -1400 000/00 RMK AO1 T00061017 $
54779K12N 12N20160414033510304/14/16 03:35:31  5-MIN K12N 140835Z AUTO 00000KT 01/M02 A3032 220 85 -1400 000/00 RMK AO1 T00061017 $
54779K12N 12N20160414034010304/14/16 03:40:31  5-MIN K12N 140840Z AUTO 00000KT 01/M02 A3032 220 85 -1400 000/00 RMK AO1 T00061017 $
54779K12N 12N20160414034510304/14/16 03:45:31  5-MIN K12N 140845Z AUTO 00000KT 01/M02 A3032 220 85 -1400 000/00 RMK AO1 T00061017 $
54779K12N 12N20160414035011004/14/16 03:50:31  5-MIN K12N 140850Z AUTO 00000KT 00/M02 A3032 220 85 -1500 000/00 RMK AO1 SLP272 T00001022 $
54779K12N 12N20160414035510304/14/16 03:55:31  5-MIN K12N 140855Z AUTO 00000KT 01/M02 A3032 220 82 -1400 000/00 RMK AO1 T00061022 $
54779K12N 12N20160414040010304/14/16 04:00:31  5-MIN K12N 140900Z AUTO 00000KT 01/M02 A3032 220 85 -1400 000/00 RMK AO1 T00061017 $
54779K12N 12N20160414040510304/14/16 04:05:31  5-MIN K12N 140905Z AUTO 00000KT 01/M02 A3032 220 85 -1400 000/00 RMK AO1 T00061017 $
54779K12N 12N20160414041010304/14/16 04:10:31  5-MIN K12N 140910Z AUTO 00000KT 00/M02 A3032 220 88 -1500 000/00 RMK AO1 T00001017 $
54779K12N 12N20160414041510304/14/16 04:15:31  5-MIN K12N 140915Z AUTO 00000KT 00/M02 A3032 220 85 -1500 000/00 RMK AO1 T00001022 $
54779K12N 12N20160414042010304/14/16 04:20:31  5-MIN K12N 140920Z AUTO 00000KT 00/M02 A3032 220 85 -1500 000/00 RMK AO1 T00001022 $
54779K12N 12N20160414042510304/14/16 04:25:31  5-MIN K12N 140925Z AUTO 00000KT 00/M02 A3032 220 85 -1500 000/00 RMK AO1 T00001022 $
54779K12N 12N20160414043010304/14/16 04:30:31  5-MIN K12N 140930Z AUTO 00000KT 00/M02 A3032 210 88 -1500 000/00 RMK AO1 T00001017 $
54779K12N 12N20160414043510304/14/16 04:35:31  5-MIN K12N 140935Z AUTO 00000KT 00/M02 A3033 210 88 -1500 000/00 RMK AO1 T00001017 $
54779K12N 12N20160414044010304/14/16 04:40:31  5-MIN K12N 140940Z AUTO 00000KT 00/M02 A3033 210 88 -1500 000/00 RMK AO1 T00001017 $
54779K12N 12N20160414044510304/14/16 04:45:31  5-MIN K12N 140945Z AUTO 00000KT 00/M02 A3033 210 88 -1500 000/00 RMK AO1 T00001017 $
54779K12N 12N20160414045011004/14/16 04:50:31  5-MIN K12N 140950Z AUTO 00000KT 01/M02 A3033 210 85 -1400 000/00 RMK AO1 SLP276 T00061017 $
54779K12N 12N20160414045510304/14/16 04:55:31  5-MIN K12N 140955Z AUTO 00000KT 01/M02 A3034 200 85 -1400 000/00 RMK AO1 T00061017 $
54779K12N 12N20160414050010304/14/16 05:00:31  5-MIN K12N 141000Z AUTO 00000KT 01/M02 A3033 210 85 -1400 000/00 RMK AO1 T00061017 $
54779K12N 12N20160414050510304/14/16 05:05:31  5-MIN K12N 141005Z AUTO 00000KT 01/M02 A3033 210 85 -1400 000/00 RMK AO1 T00061017 $
54779K12N 12N20160414051010304/14/16 05:10:31  5-MIN K12N 141010Z AUTO 00000KT 01/M02 A3033 200 85 -1400 000/00 RMK AO1 T00061017 $
54779K12N 12N20160414051510304/14/16 05:15:31  5-MIN K12N 141015Z AUTO 00000KT 01/M02 A3034 200 85 -1400 000/00 RMK AO1 T00061017 $
54779K12N 12N20160414052010304/14/16 05:20:31  5-MIN K12N 141020Z AUTO 00000KT 01/M02 A3034 200 85 -1400 000/00 RMK AO1 T00061017 $
54779K12N 12N20160414052510304/14/16 05:25:31  5-MIN K12N 141025Z AUTO 00000KT 01/M02 A3034 200 82 -1400 000/00 RMK AO1 T00061022 $
54779K12N 12N20160414053010304/14/16 05:30:31  5-MIN K12N 141030Z AUTO 04003KT 01/M02 A3035 190 82 -1400 050/03 RMK AO1 T00061022 $
54779K12N 12N20160414053510304/14/16 05:35:31  5-MIN K12N 141035Z AUTO 00000KT 01/M02 A3035 190 85 -1400 000/00 RMK AO1 T00061017 $
54779K12N 12N20160414054010304/14/16 05:40:31  5-MIN K12N 141040Z AUTO 00000KT 01/M01 A3035 190 85 -1400 000/00 RMK AO1 T00111011 $
54779K12N 12N20160414054510304/14/16 05:45:31  5-MIN K12N 141045Z AUTO 00000KT 01/M02 A3035 190 85 -1400 000/00 RMK AO1 T00061017 $
54779K12N 12N20160414055011004/14/16 05:50:31  5-MIN K12N 141050Z AUTO 36003KT 01/M02 A3035 190 82 -1400 010/03 RMK AO1 SLP282 T00111017 $
54779K12N 12N20160414055510304/14/16 05:55:31  5-MIN K12N 141055Z AUTO 00000KT 02/M02 A3035 190 78 -1300 000/00 RMK AO1 T00171017 $
54779K12N 12N20160414060010304/14/16 06:00:31  5-MIN K12N 141100Z AUTO 00000KT 02/M01 A3035 190 78 -1200 000/00 RMK AO1 T00221011 $
54779K12N 12N20160414060510304/14/16 06:05:31  5-MIN K12N 141105Z AUTO 00000KT 03/M02 A3035 190 72 -1200 000/00 RMK AO1 T00281017 $
54779K12N 12N20160414061010304/14/16 06:10:31  5-MIN K12N 141110Z AUTO VRB03KT 03/M02 A3035 190 69 -1200 VRB/03 RMK AO1 T00281022 $
54779K12N 12N20160414061510304/14/16 06:15:31  5-MIN K12N 141115Z AUTO 00000KT 03/M02 A3035 190 69 -1200 000/00 RMK AO1 T00281022 $
54779K12N 12N20160414062010304/14/16 06:20:31  5-MIN K12N 141120Z AUTO VRB03KT 03/M03 A3036 190 67 -1200 VRB/03 RMK AO1 T00281028 $
54779K12N 12N20160414062510304/14/16 06:25:31  5-MIN K12N 141125Z AUTO VRB04KT 03/M03 A3036 190 61 -1100 VRB/04 RMK AO1 T00331033 $
54779K12N 12N20160414063010304/14/16 06:30:31  5-MIN K12N 141130Z AUTO VRB04KT 03/M03 A3036 180 61 -1100 VRB/04 RMK AO1 T00331033 $
54779K12N 12N20160414063510304/14/16 06:35:31  5-MIN K12N 141135Z AUTO VRB03KT 03/M03 A3036 180 61 -1100 VRB/03 RMK AO1 T00331033 $
54779K12N 12N20160414064010304/14/16 06:40:31  5-MIN K12N 141140Z AUTO VRB04KT 03/M03 A3036 180 61 -1100 VRB/04 RMK AO1 T00331033 $
54779K12N 12N20160414064510304/14/16 06:45:31  5-MIN K12N 141145Z AUTO 04007KT 03/M03 A3036 180 61 -1100 050/07 RMK AO1 T00331033 $
54779K12N 12N20160414065012204/14/16 06:50:31  5-MIN K12N 141150Z AUTO 04007KT 04/M03 A3036 180 59 -1000 050/07 RMK AO1 SLP287 T00391033 10039 20000 $
54779K12N 12N20160414065510304/14/16 06:55:31  5-MIN K12N 141155Z AUTO VRB05KT 04/M03 A3036 180 59 -1000 VRB/05 RMK AO1 T00391033 $
54779K12N 12N20160414070010304/14/16 07:00:31  5-MIN K12N 141200Z AUTO 04007KT 04/M04 A3036 180 57 -1000 050/07 RMK AO1 T00391039 $
54779K12N 12N20160414070510304/14/16 07:05:31  5-MIN K12N 141205Z AUTO 03008KT 04/M04 A3037 170 55 -1000 050/08 RMK AO1 T00441039 $
54779K12N 12N20160414071010304/14/16 07:10:31  5-MIN K12N 141210Z AUTO 03007KT 04/M04 A3037 170 55 -1000 050/07 RMK AO1 T00441039 $
54779K12N 12N20160414071510304/14/16 07:15:31  5-MIN K12N 141215Z AUTO 03008KT 04/M04 A3037 170 52 -1000 050/08 RMK AO1 T00441044 $
54779K12N 12N20160414072011804/14/16 07:20:31  5-MIN K12N 141220Z AUTO 03007KT 340V050 05/M04 A3037 170 52 -900 040/07 350V060 RMK AO1 T00501039 $
54779K12N 12N20160414072511804/14/16 07:25:31  5-MIN K12N 141225Z AUTO 04007KT 350V050 05/M04 A3037 170 50 -900 050/07 360V060 RMK AO1 T00501044 $
54779K12N 12N20160414073010204/14/16 07:30:31  5-MIN K12N 141230Z AUTO 04007KT 05/M04 A3037 170 50 -900 050/07 RMK AO1 T00501044 $
54779K12N 12N20160414073510204/14/16 07:35:31  5-MIN K12N 141235Z AUTO 04008KT 06/M04 A3038 170 48 -800 050/08 RMK AO1 T00561044 $
54779K12N 12N20160414074010204/14/16 07:40:31  5-MIN K12N 141240Z AUTO VRB06KT 06/M04 A3038 160 46 -800 VRB/06 RMK AO1 T00611044 $
54779K12N 12N20160414074510204/14/16 07:45:31  5-MIN K12N 141245Z AUTO 05006KT 06/M04 A3038 160 46 -800 060/06 RMK AO1 T00611044 $
54779K12N 12N20160414075010904/14/16 07:50:31  5-MIN K12N 141250Z AUTO VRB06KT 06/M04 A3038 160 46 -800 VRB/06 RMK AO1 SLP293 T00611044 $
54779K12N 12N20160414075510204/14/16 07:55:31  5-MIN K12N 141255Z AUTO 04007KT 06/M04 A3038 160 46 -800 050/07 RMK AO1 T00611044 $
54779K12N 12N20160414080010204/14/16 08:00:31  5-MIN K12N 141300Z AUTO 04006KT 07/M04 A3038 160 47 -700 050/06 RMK AO1 T00671039 $
54779K12N 12N20160414080510204/14/16 08:05:31  5-MIN K12N 141305Z AUTO 04006KT 07/M04 A3038 160 45 -700 050/06 RMK AO1 T00671044 $
54779K12N 12N20160414081010204/14/16 08:10:31  5-MIN K12N 141310Z AUTO VRB03KT 07/M04 A3038 160 43 -600 VRB/03 RMK AO1 T00721044 $
54779K12N 12N20160414081510204/14/16 08:15:31  5-MIN K12N 141315Z AUTO VRB03KT 07/M04 A3038 160 45 -600 VRB/03 RMK AO1 T00721039 $
54779K12N 12N20160414082010204/14/16 08:20:31  5-MIN K12N 141320Z AUTO VRB04KT 08/M04 A3038 170 43 -600 VRB/04 RMK AO1 T00781039 $
54779K12N 12N20160414082510204/14/16 08:25:31  5-MIN K12N 141325Z AUTO 03005KT 08/M03 A3038 170 45 -600 040/05 RMK AO1 T00781033 $
54779K12N 12N20160414083010204/14/16 08:30:31  5-MIN K12N 141330Z AUTO VRB04KT 08/M03 A3038 170 45 -600 VRB/04 RMK AO1 T00781033 $
54779K12N 12N20160414083510204/14/16 08:35:31  5-MIN K12N 141335Z AUTO 03006KT 08/M04 A3038 170 43 -600 050/06 RMK AO1 T00781039 $
54779K12N 12N20160414084010204/14/16 08:40:31  5-MIN K12N 141340Z AUTO VRB04KT 08/M04 A3037 170 41 -600 VRB/04 RMK AO1 T00781044 $
54779K12N 12N20160414084510204/14/16 08:45:31  5-MIN K12N 141345Z AUTO VRB03KT 08/M04 A3037 170 42 -500 VRB/03 RMK AO1 T00831039 $
54779K12N 12N20160414085010904/14/16 08:50:31  5-MIN K12N 141350Z AUTO 02004KT 08/M04 A3037 170 42 -500 030/04 RMK AO1 SLP290 T00831039 $
54779K12N 12N20160414085510204/14/16 08:55:31  5-MIN K12N 141355Z AUTO 36006KT 08/M04 A3037 170 42 -500 020/06 RMK AO1 T00831039 $
54779K12N 12N20160414090010204/14/16 09:00:31  5-MIN K12N 141400Z AUTO VRB04KT 08/M03 A3037 170 43 -500 VRB/04 RMK AO1 T00831033 $
54779K12N 12N20160414090510204/14/16 09:05:31  5-MIN K12N 141405Z AUTO VRB05KT 09/M03 A3038 170 42 -400 VRB/05 RMK AO1 T00891033 $
54779K12N 12N20160414091010204/14/16 09:10:31  5-MIN K12N 141410Z AUTO 36006KT 09/M03 A3038 170 42 -400 010/06 RMK AO1 T00891033 $
54779K12N 12N20160414091510204/14/16 09:15:31  5-MIN K12N 141415Z AUTO VRB06KT 09/M03 A3038 170 40 -400 VRB/06 RMK AO1 T00941033 $
54779K12N 12N20160414092010204/14/16 09:20:31  5-MIN K12N 141420Z AUTO VRB04KT 09/M04 A3038 170 39 -400 VRB/04 RMK AO1 T00941039 $
54779K12N 12N20160414092510204/14/16 09:25:31  5-MIN K12N 141425Z AUTO 01005KT 09/M03 A3038 160 40 -400 020/05 RMK AO1 T00941033 $
54779K12N 12N20160414093010204/14/16 09:30:31  5-MIN K12N 141430Z AUTO VRB05KT 09/M04 A3038 160 39 -400 VRB/05 RMK AO1 T00941039 $
54779K12N 12N20160414093510204/14/16 09:35:31  5-MIN K12N 141435Z AUTO 36006KT 10/M03 A3038 160 39 -300 010/06 RMK AO1 T01001033 $
54779K12N 12N20160414094010204/14/16 09:40:31  5-MIN K12N 141440Z AUTO 03005KT 10/M03 A3038 160 40 -300 050/05 RMK AO1 T01001028 $
54779K12N 12N20160414094510204/14/16 09:45:31  5-MIN K12N 141445Z AUTO VRB04KT 11/M03 A3038 160 39 -200 VRB/04 RMK AO1 T01061028 $
54779K12N 12N20160414095011504/14/16 09:50:31  5-MIN K12N 141450Z AUTO VRB03KT 10/M04 A3038 160 37 -300 VRB/03 RMK AO1 SLP292 T01001039 51015 $
54779K12N 12N20160414095510204/14/16 09:55:31  5-MIN K12N 141455Z AUTO VRB04KT 11/M03 A3038 160 39 -200 VRB/04 RMK AO1 T01061028 $
54779K12N 12N20160414100010204/14/16 10:00:31  5-MIN K12N 141500Z AUTO 36006KT 10/M03 A3038 160 39 -300 010/06 RMK AO1 T01001033 $
54779K12N 12N20160414100510204/14/16 10:05:31  5-MIN K12N 141505Z AUTO 03005KT 10/M03 A3038 160 39 -300 040/05 RMK AO1 T01001033 $
54779K12N 12N20160414101010204/14/16 10:10:31  5-MIN K12N 141510Z AUTO 34004KT 11/M03 A3038 160 39 -200 360/04 RMK AO1 T01061028 $
54779K12N 12N20160414101510204/14/16 10:15:31  5-MIN K12N 141515Z AUTO VRB05KT 11/M03 A3038 160 39 -200 VRB/05 RMK AO1 T01061028 $
54779K12N 12N20160414102010204/14/16 10:20:31  5-MIN K12N 141520Z AUTO 01004KT 11/M03 A3038 160 36 -200 020/04 RMK AO1 T01111033 $
54779K12N 12N20160414102510204/14/16 10:25:31  5-MIN K12N 141525Z AUTO 03006KT 11/M03 A3038 160 37 -200 040/06 RMK AO1 T01111028 $
54779K12N 12N20160414103010204/14/16 10:30:31  5-MIN K12N 141530Z AUTO 36003KT 11/M03 A3037 170 37 -200 020/03 RMK AO1 T01111028 $
54779K12N 12N20160414103510204/14/16 10:35:31  5-MIN K12N 141535Z AUTO 01004KT 12/M03 A3037 170 35 -100 020/04 RMK AO1 T01171033 $
54779K12N 12N20160414104010204/14/16 10:40:31  5-MIN K12N 141540Z AUTO 36005KT 11/M03 A3037 170 37 -200 010/05 RMK AO1 T01111028 $
54779K12N 12N20160414104510204/14/16 10:45:31  5-MIN K12N 141545Z AUTO 01005KT 12/M03 A3037 170 36 -100 030/05 RMK AO1 T01171028 $
54779K12N 12N20160414105010904/14/16 10:50:31  5-MIN K12N 141550Z AUTO 36005KT 12/M03 A3037 170 35 -100 020/05 RMK AO1 SLP288 T01171033 $
54779K12N 12N20160414105510204/14/16 10:55:31  5-MIN K12N 141555Z AUTO 36004KT 12/M03 A3037 170 35 -100 020/04 RMK AO1 T01171033 $
54779K12N 12N20160414110010204/14/16 11:00:31  5-MIN K12N 141600Z AUTO 36006KT 12/M03 A3037 180 35 -100 010/06 RMK AO1 T01171033 $
54779K12N 12N20160414110510204/14/16 11:05:31  5-MIN K12N 141605Z AUTO 04003KT 12/M04 A3037 180 32 -100 050/03 RMK AO1 T01171044 $
54779K12N 12N20160414111009904/14/16 11:10:31  5-MIN K12N 141610Z AUTO 36004KT 12/M03 A3036 180 33 0 010/04 RMK AO1 T01221033 $
54779K12N 12N20160414111509904/14/16 11:15:31  5-MIN K12N 141615Z AUTO VRB04KT 12/M04 A3036 180 31 0 VRB/04 RMK AO1 T01221044 $
54779K12N 12N20160414112009904/14/16 11:20:31  5-MIN K12N 141620Z AUTO VRB03KT 12/M04 A3036 180 31 0 VRB/03 RMK AO1 T01221044 $
54779K12N 12N20160414112508904/14/16 11:25:31  5-MIN K12N 141625Z AUTO 12/M04 A3036 180 32 0 M /M RMK AO1 T01221039 $
54779K12N 12N20160414113009904/14/16 11:30:31  5-MIN K12N 141630Z AUTO 36005KT 13/M03 A3035 190 32 0 010/05 RMK AO1 T01281033 $
54779K12N 12N20160414113509904/14/16 11:35:31  5-MIN K12N 141635Z AUTO 00000KT 12/M04 A3035 190 31 0 000/00 RMK AO1 T01221044 $
54779K12N 12N20160414114009904/14/16 11:40:31  5-MIN K12N 141640Z AUTO VRB03KT 13/M04 A3035 190 30 0 VRB/03 RMK AO1 T01281044 $
54779K12N 12N20160414114509904/14/16 11:45:31  5-MIN K12N 141645Z AUTO 36004KT 13/M04 A3035 190 30 0 010/04 RMK AO1 T01281044 $
54779K12N 12N20160414115010604/14/16 11:50:31  5-MIN K12N 141650Z AUTO 04004KT 13/M05 A3035 190 28 0 050/04 RMK AO1 SLP282 T01281050 $
54779K12N 12N20160414115510104/14/16 11:55:31  5-MIN K12N 141655Z AUTO 35005KT 13/M04 A3035 190 28 100 010/05 RMK AO1 T01331044 $
54779K12N 12N20160414120009904/14/16 12:00:31  5-MIN K12N 141700Z AUTO VRB03KT 13/M04 A3034 200 30 0 VRB/03 RMK AO1 T01281044 $
54779K12N 12N20160414120509904/14/16 12:05:31  5-MIN K12N 141705Z AUTO VRB04KT 13/M05 A3034 200 28 0 VRB/04 RMK AO1 T01281050 $
54779K12N 12N20160414121010104/14/16 12:10:31  5-MIN K12N 141710Z AUTO VRB05KT 13/M04 A3034 200 30 100 VRB/05 RMK AO1 T01331039 $
54779K12N 12N20160414121510104/14/16 12:15:31  5-MIN K12N 141715Z AUTO VRB03KT 13/M06 A3034 200 26 100 VRB/03 RMK AO1 T01331056 $
54779K12N 12N20160414122010104/14/16 12:20:31  5-MIN K12N 141720Z AUTO 03004KT 13/M04 A3034 200 28 100 040/04 RMK AO1 T01331044 $
54779K12N 12N20160414122509904/14/16 12:25:31  5-MIN K12N 141725Z AUTO 00000KT 13/M06 A3034 200 26 0 000/00 RMK AO1 T01281061 $
54779K12N 12N20160414123009904/14/16 12:30:31  5-MIN K12N 141730Z AUTO VRB04KT 13/M06 A3034 200 26 0 VRB/04 RMK AO1 T01281061 $
54779K12N 12N20160414123510104/14/16 12:35:31  5-MIN K12N 141735Z AUTO VRB06KT 13/M06 A3033 210 26 100 VRB/06 RMK AO1 T01331056 $
54779K12N 12N20160414124010104/14/16 12:40:31  5-MIN K12N 141740Z AUTO 02006KT 13/M05 A3033 210 27 100 030/06 RMK AO1 T01331050 $
54779K12N 12N20160414124510104/14/16 12:45:31  5-MIN K12N 141745Z AUTO 36008KT 13/M07 A3033 210 24 100 010/08 RMK AO1 T01331067 $
54779K12N 12N20160414125012604/14/16 12:50:31  5-MIN K12N 141750Z AUTO 03006KT 14/M05 A3033 210 26 200 050/06 RMK AO1 SLP276 T01391050 10139 20039 51005 $
54779K12N 12N20160414125510104/14/16 12:55:31  5-MIN K12N 141755Z AUTO VRB06KT 13/M04 A3033 210 28 100 VRB/06 RMK AO1 T01331044 $
54779K12N 12N20160414130009104/14/16 13:00:31  5-MIN K12N 141800Z AUTO 14/M04 A3033 210 27 200 M /M RMK AO1 T01391044 $
54779K12N 12N20160414130510104/14/16 13:05:31  5-MIN K12N 141805Z AUTO VRB03KT 14/M05 A3033 210 26 200 VRB/03 RMK AO1 T01391050 $
54779K12N 12N20160414131010104/14/16 13:10:31  5-MIN K12N 141810Z AUTO 05007KT 14/M05 A3033 210 26 200 070/07 RMK AO1 T01391050 $
54779K12N 12N20160414131510104/14/16 13:15:31  5-MIN K12N 141815Z AUTO 04006KT 14/M05 A3032 210 26 200 050/06 RMK AO1 T01391050 $
54779K12N 12N20160414132010104/14/16 13:20:31  5-MIN K12N 141820Z AUTO 03005KT 14/M03 A3032 220 30 200 040/05 RMK AO1 T01391033 $
54779K12N 12N20160414132510104/14/16 13:25:31  5-MIN K12N 141825Z AUTO VRB03KT 14/M06 A3032 220 25 200 VRB/03 RMK AO1 T01391056 $
54779K12N 12N20160414133010104/14/16 13:30:31  5-MIN K12N 141830Z AUTO 03006KT 14/M05 A3032 220 25 200 050/06 RMK AO1 T01441050 $
54779K12N 12N20160414133510104/14/16 13:35:31  5-MIN K12N 141835Z AUTO 34005KT 14/M06 A3032 220 25 200 360/05 RMK AO1 T01391056 $
54779K12N 12N20160414134010104/14/16 13:40:31  5-MIN K12N 141840Z AUTO VRB06KT 14/M04 A3032 220 26 200 VRB/06 RMK AO1 T01441044 $
54779K12N 12N20160414134510104/14/16 13:45:31  5-MIN K12N 141845Z AUTO VRB04KT 14/M06 A3032 220 24 200 VRB/04 RMK AO1 T01391061 $
54779K12N 12N20160414135010804/14/16 13:50:31  5-MIN K12N 141850Z AUTO VRB03KT 14/M06 A3032 220 23 200 VRB/03 RMK AO1 SLP271 T01441061 $
54779K12N 12N20160414135510104/14/16 13:55:31  5-MIN K12N 141855Z AUTO VRB06KT 14/M06 A3031 220 24 200 VRB/06 RMK AO1 T01441056 $
54779K12N 12N20160414140010104/14/16 14:00:31  5-MIN K12N 141900Z AUTO VRB03KT 14/M06 A3031 220 24 300 VRB/03 RMK AO1 T01441056 $
54779K12N 12N20160414140510104/14/16 14:05:31  5-MIN K12N 141905Z AUTO VRB03KT 14/M06 A3031 230 23 300 VRB/03 RMK AO1 T01441061 $
54779K12N 12N20160414141009104/14/16 14:10:31  5-MIN K12N 141910Z AUTO 15/M06 A3031 230 22 300 M /M RMK AO1 T01501061 $
54779K12N 12N20160414141510104/14/16 14:15:31  5-MIN K12N 141915Z AUTO VRB05KT 14/M05 A3030 230 25 300 VRB/05 RMK AO1 T01441050 $
54779K12N 12N20160414142010104/14/16 14:20:31  5-MIN K12N 141920Z AUTO VRB04KT 15/M04 A3030 230 27 300 VRB/04 RMK AO1 T01501039 $
54779K12N 12N20160414142510104/14/16 14:25:31  5-MIN K12N 141925Z AUTO 03005KT 14/M06 A3030 230 24 300 050/05 RMK AO1 T01441056 $
54779K12N 12N20160414143009104/14/16 14:30:31  5-MIN K12N 141930Z AUTO 15/M06 A3030 240 23 300 M /M RMK AO1 T01501056 $
54779K12N 12N20160414143510104/14/16 14:35:31  5-MIN K12N 141935Z AUTO 30003KT 15/M05 A3030 240 24 300 310/03 RMK AO1 T01501050 $
54779K12N 12N20160414144009104/14/16 14:40:31  5-MIN K12N 141940Z AUTO 15/M06 A3030 240 22 300 M /M RMK AO1 T01501061 $
54779K12N 12N20160414144510104/14/16 14:45:31  5-MIN K12N 141945Z AUTO 28003KT 14/M07 A3029 240 22 300 300/03 RMK AO1 T01441067 $
54779K12N 12N20160414145010804/14/16 14:50:31  5-MIN K12N 141950Z AUTO VRB04KT 16/M05 A3029 240 24 400 VRB/04 RMK AO1 SLP262 T01561050 $
54779K12N 12N20160414145510104/14/16 14:55:31  5-MIN K12N 141955Z AUTO VRB04KT 15/M06 A3029 250 22 300 VRB/04 RMK AO1 T01501061 $
54779K12N 12N20160414150010104/14/16 15:00:31  5-MIN K12N 142000Z AUTO VRB05KT 15/M05 A3029 240 24 300 VRB/05 RMK AO1 T01501050 $
54779K12N 12N20160414150510104/14/16 15:05:31  5-MIN K12N 142005Z AUTO 07004KT 14/M06 A3029 250 24 300 080/04 RMK AO1 T01441056 $
54779K12N 12N20160414151010104/14/16 15:10:31  5-MIN K12N 142010Z AUTO 30004KT 15/M06 A3029 250 22 300 310/04 RMK AO1 T01501061 $
54779K12N 12N20160414151510104/14/16 15:15:31  5-MIN K12N 142015Z AUTO 32006KT 16/M06 A3028 250 23 400 330/06 RMK AO1 T01561056 $
54779K12N 12N20160414152010104/14/16 15:20:31  5-MIN K12N 142020Z AUTO 28003KT 15/M06 A3028 250 22 300 300/03 RMK AO1 T01501061 $
54779K12N 12N20160414152510104/14/16 15:25:31  5-MIN K12N 142025Z AUTO VRB05KT 15/M06 A3028 250 22 400 VRB/05 RMK AO1 T01501061 $
54779K12N 12N20160414153010104/14/16 15:30:31  5-MIN K12N 142030Z AUTO VRB04KT 15/M05 A3028 250 24 400 VRB/04 RMK AO1 T01501050 $
54779K12N 12N20160414153510104/14/16 15:35:31  5-MIN K12N 142035Z AUTO VRB04KT 15/M04 A3028 250 25 400 VRB/04 RMK AO1 T01501044 $
54779K12N 12N20160414154010104/14/16 15:40:31  5-MIN K12N 142040Z AUTO 02004KT 15/M05 A3028 250 24 400 040/04 RMK AO1 T01501050 $
54779K12N 12N20160414154510104/14/16 15:45:31  5-MIN K12N 142045Z AUTO 00000KT 15/M07 A3028 260 22 400 000/00 RMK AO1 T01501067 $
54779K12N 12N20160414155011404/14/16 15:50:31  5-MIN K12N 142050Z AUTO VRB03KT 16/M06 A3028 260 22 400 VRB/03 RMK AO1 SLP257 T01561061 58016 $
54779K12N 12N20160414155510104/14/16 15:55:31  5-MIN K12N 142055Z AUTO VRB03KT 16/M06 A3028 260 23 400 VRB/03 RMK AO1 T01561056 $
54779K12N 12N20160414160010104/14/16 16:00:31  5-MIN K12N 142100Z AUTO 01006KT 16/M04 A3027 260 25 400 020/06 RMK AO1 T01561044 $
54779K12N 12N20160414160510104/14/16 16:05:31  5-MIN K12N 142105Z AUTO 33005KT 16/M05 A3028 260 24 400 350/05 RMK AO1 T01561050 $
54779K12N 12N20160414161010104/14/16 16:10:31  5-MIN K12N 142110Z AUTO 00000KT 15/M06 A3028 260 22 400 000/00 RMK AO1 T01501061 $
54779K12N 12N20160414161510104/14/16 16:15:31  5-MIN K12N 142115Z AUTO 26003KT 15/M06 A3027 260 22 400 270/03 RMK AO1 T01501061 $
54779K12N 12N20160414162010104/14/16 16:20:31  5-MIN K12N 142120Z AUTO 00000KT 16/M07 A3027 260 21 400 000/00 RMK AO1 T01561067 $
54779K12N 12N20160414162510104/14/16 16:25:31  5-MIN K12N 142125Z AUTO 00000KT 16/M06 A3027 260 22 400 000/00 RMK AO1 T01561061 $
54779K12N 12N20160414163010104/14/16 16:30:31  5-MIN K12N 142130Z AUTO VRB04KT 16/M06 A3027 260 23 400 VRB/04 RMK AO1 T01561056 $
54779K12N 12N20160414163510104/14/16 16:35:31  5-MIN K12N 142135Z AUTO 00000KT 16/M07 A3027 260 21 400 000/00 RMK AO1 T01561067 $
54779K12N 12N20160414164010104/14/16 16:40:31  5-MIN K12N 142140Z AUTO 09004KT 16/M07 A3027 260 21 400 100/04 RMK AO1 T01561067 $
54779K12N 12N20160414164510104/14/16 16:45:31  5-MIN K12N 142145Z AUTO VRB04KT 16/M06 A3027 260 22 400 VRB/04 RMK AO1 T01561061 $
54779K12N 12N20160414165010804/14/16 16:50:31  5-MIN K12N 142150Z AUTO 00000KT 15/M07 A3027 260 22 400 000/00 RMK AO1 SLP255 T01501067 $
54779K12N 12N20160414165510104/14/16 16:55:31  5-MIN K12N 142155Z AUTO VRB06KT 16/M06 A3027 260 23 400 VRB/06 RMK AO1 T01561056 $
54779K12N 12N20160414170010104/14/16 17:00:31  5-MIN K12N 142200Z AUTO 00000KT 16/M07 A3027 260 21 400 000/00 RMK AO1 T01561067 $
54779K12N 12N20160414170510104/14/16 17:05:31  5-MIN K12N 142205Z AUTO 00000KT 15/M06 A3027 260 22 400 000/00 RMK AO1 T01501061 $
54779K12N 12N20160414171010104/14/16 17:10:31  5-MIN K12N 142210Z AUTO 00000KT 16/M07 A3027 260 21 400 000/00 RMK AO1 T01561067 $
54779K12N 12N20160414171510104/14/16 17:15:31  5-MIN K12N 142215Z AUTO 00000KT 15/M06 A3027 260 22 400 000/00 RMK AO1 T01501061 $
54779K12N 12N20160414172010104/14/16 17:20:31  5-MIN K12N 142220Z AUTO 34003KT 16/M06 A3027 260 23 400 360/03 RMK AO1 T01561056 $
54779K12N 12N20160414172510104/14/16 17:25:31  5-MIN K12N 142225Z AUTO 00000KT 15/M06 A3027 260 22 400 000/00 RMK AO1 T01501061 $
54779K12N 12N20160414173010104/14/16 17:30:31  5-MIN K12N 142230Z AUTO 00000KT 16/M06 A3027 270 23 400 000/00 RMK AO1 T01561056 $
54779K12N 12N20160414173510104/14/16 17:35:31  5-MIN K12N 142235Z AUTO VRB03KT 15/M07 A3027 260 22 400 VRB/03 RMK AO1 T01501067 $
54779K12N 12N20160414174010104/14/16 17:40:31  5-MIN K12N 142240Z AUTO VRB04KT 14/M07 A3027 260 21 300 VRB/04 RMK AO1 T01441072 $
54779K12N 12N20160414174510104/14/16 17:45:31  5-MIN K12N 142245Z AUTO 00000KT 15/M07 A3027 260 22 400 000/00 RMK AO1 T01501067 $
54779K12N 12N20160414175010804/14/16 17:50:31  5-MIN K12N 142250Z AUTO 00000KT 14/M07 A3027 260 22 300 000/00 RMK AO1 SLP256 T01441067 $
54779K12N 12N20160414175510104/14/16 17:55:31  5-MIN K12N 142255Z AUTO 00000KT 13/M05 A3027 260 27 200 000/00 RMK AO1 T01331050 $
54779K12N 12N20160414180009904/14/16 18:00:31  5-MIN K12N 142300Z AUTO 00000KT 12/M04 A3027 260 32 0 000/00 RMK AO1 T01221039 $
54779K12N 12N20160414180510104/14/16 18:05:31  5-MIN K12N 142305Z AUTO 00000KT 13/M07 A3027 260 24 200 000/00 RMK AO1 T01331067 $
54779K12N 12N20160414181010104/14/16 18:10:31  5-MIN K12N 142310Z AUTO 00000KT 14/M07 A3028 260 22 200 000/00 RMK AO1 T01391072 $
54779K12N 12N20160414181510104/14/16 18:15:31  5-MIN K12N 142315Z AUTO 00000KT 13/M05 A3028 260 28 100 000/00 RMK AO1 T01281050 $
54779K12N 12N20160414182010204/14/16 18:20:31  5-MIN K12N 142320Z AUTO 00000KT 11/M03 A3028 260 37 -100 000/00 RMK AO1 T01111028 $
54779K12N 12N20160414182510204/14/16 18:25:31  5-MIN K12N 142325Z AUTO 00000KT 11/M03 A3028 260 36 -100 000/00 RMK AO1 T01111033 $
54779K12N 12N20160414183010204/14/16 18:30:31  5-MIN K12N 142330Z AUTO 00000KT 11/M03 A3028 260 36 -100 000/00 RMK AO1 T01111033 $
54779K12N 12N20160414183510204/14/16 18:35:31  5-MIN K12N 142335Z AUTO 00000KT 11/M04 A3028 260 33 -100 000/00 RMK AO1 T01111044 $
54779K12N 12N20160414184010204/14/16 18:40:31  5-MIN K12N 142340Z AUTO 00000KT 11/M03 A3028 250 37 -100 000/00 RMK AO1 T01061033 $
54779K12N 12N20160414184510204/14/16 18:45:31  5-MIN K12N 142345Z AUTO 00000KT 11/M02 A3028 250 41 -100 000/00 RMK AO1 T01111017 $
54779K12N 12N20160414185012604/14/16 18:50:31  5-MIN K12N 142350Z AUTO 00000KT 11/01 A3028 250 50 -100 000/00 RMK AO1 SLP259 T01060006 10156 20106 56018 $
54779K12N 12N20160414185510104/14/16 18:55:31  5-MIN K12N 142355Z AUTO 00000KT 10/00 A3029 250 49 -200 000/00 RMK AO1 T01000000 $
54779K12N 12N20160414190010104/14/16 19:00:31  5-MIN K12N 150000Z AUTO 00000KT 10/02 A3029 250 56 -200 000/00 RMK AO1 T01000017 $
54779K12N 12N20160414190510104/14/16 19:05:31  5-MIN K12N 150005Z AUTO 00000KT 10/02 A3029 240 58 -200 000/00 RMK AO1 T01000022 $
54779K12N 12N20160414191010104/14/16 19:10:31  5-MIN K12N 150010Z AUTO 00000KT 09/02 A3030 240 60 -300 000/00 RMK AO1 T00940022 $
54779K12N 12N20160414191510104/14/16 19:15:31  5-MIN K12N 150015Z AUTO 00000KT 09/02 A3030 240 60 -300 000/00 RMK AO1 T00890017 $
54779K12N 12N20160414192010104/14/16 19:20:31  5-MIN K12N 150020Z AUTO 00000KT 09/01 A3030 240 58 -400 000/00 RMK AO1 T00890011 $
54779K12N 12N20160414192510104/14/16 19:25:31  5-MIN K12N 150025Z AUTO 00000KT 09/02 A3030 240 60 -400 000/00 RMK AO1 T00890017 $
54779K12N 12N20160414193010104/14/16 19:30:31  5-MIN K12N 150030Z AUTO 00000KT 09/02 A3030 230 60 -400 000/00 RMK AO1 T00890017 $
54779K12N 12N20160414193510104/14/16 19:35:31  5-MIN K12N 150035Z AUTO 00000KT 08/01 A3030 230 60 -400 000/00 RMK AO1 T00830011 $
54779K12N 12N20160414194010104/14/16 19:40:31  5-MIN K12N 150040Z AUTO 00000KT 08/00 A3031 230 55 -400 000/00 RMK AO1 T00830000 $
54779K12N 12N20160414194510204/14/16 19:45:31  5-MIN K12N 150045Z AUTO 00000KT 08/M02 A3031 230 49 -400 000/00 RMK AO1 T00831017 $
54779K12N 12N20160414195010804/14/16 19:50:31  5-MIN K12N 150050Z AUTO 00000KT 08/00 A3031 220 55 -400 000/00 RMK AO1 SLP270 T00830000 $
54779K12N 12N20160414195510104/14/16 19:55:31  5-MIN K12N 150055Z AUTO 00000KT 08/01 A3032 220 60 -500 000/00 RMK AO1 T00780006 $
54779K12N 12N20160414200010204/14/16 20:00:31  5-MIN K12N 150100Z AUTO 00000KT 08/M01 A3032 220 55 -500 000/00 RMK AO1 T00781006 $
54779K12N 12N20160414200510204/14/16 20:05:31  5-MIN K12N 150105Z AUTO 00000KT 07/M02 A3032 220 53 -600 000/00 RMK AO1 T00721017 $
54779K12N 12N20160414201010204/14/16 20:10:31  5-MIN K12N 150110Z AUTO 00000KT 07/M01 A3032 210 57 -600 000/00 RMK AO1 T00721006 $
54779K12N 12N20160414201510104/14/16 20:15:31  5-MIN K12N 150115Z AUTO 00000KT 07/01 A3033 210 62 -600 000/00 RMK AO1 T00720006 $
54779K12N 12N20160414202010104/14/16 20:20:31  5-MIN K12N 150120Z AUTO 00000KT 08/01 A3033 210 62 -500 000/00 RMK AO1 T00780011 $
54779K12N 12N20160414202510104/14/16 20:25:31  5-MIN K12N 150125Z AUTO 03003KT 07/01 A3033 210 65 -600 040/03 RMK AO1 T00720011 $
54779K12N 12N20160414203010104/14/16 20:30:31  5-MIN K12N 150130Z AUTO 02003KT 07/02 A3034 200 68 -600 040/03 RMK AO1 T00720017 $
54779K12N 12N20160414203510104/14/16 20:35:31  5-MIN K12N 150135Z AUTO 03003KT 07/02 A3034 200 68 -600 040/03 RMK AO1 T00720017 $
54779K12N 12N20160414204010104/14/16 20:40:31  5-MIN K12N 150140Z AUTO 00000KT 07/01 A3034 200 65 -600 000/00 RMK AO1 T00720011 $
54779K12N 12N20160414204510204/14/16 20:45:31  5-MIN K12N 150145Z AUTO 00000KT 07/M01 A3034 200 60 -700 000/00 RMK AO1 T00671006 $
54779K12N 12N20160414205010804/14/16 20:50:31  5-MIN K12N 150150Z AUTO 00000KT 07/00 A3034 200 62 -700 000/00 RMK AO1 SLP280 T00670000 $
54779K12N 12N20160414205510104/14/16 20:55:31  5-MIN K12N 150155Z AUTO 00000KT 07/00 A3034 200 62 -700 000/00 RMK AO1 T00670000 $
54779K12N 12N20160414210010104/14/16 21:00:31  5-MIN K12N 150200Z AUTO 00000KT 07/00 A3034 200 62 -700 000/00 RMK AO1 T00670000 $
54779K12N 12N20160414210510204/14/16 21:05:31  5-MIN K12N 150205Z AUTO 00000KT 07/M01 A3035 190 60 -700 000/00 RMK AO1 T00671006 $
54779K12N 12N20160414211010204/14/16 21:10:31  5-MIN K12N 150210Z AUTO 00000KT 07/M01 A3035 190 60 -700 000/00 RMK AO1 T00671006 $
54779K12N 12N20160414211510104/14/16 21:15:31  5-MIN K12N 150215Z AUTO 00000KT 07/00 A3035 190 62 -700 000/00 RMK AO1 T00670000 $
54779K12N 12N20160414212010104/14/16 21:20:31  5-MIN K12N 150220Z AUTO 00000KT 06/00 A3035 190 65 -700 000/00 RMK AO1 T00610000 $
54779K12N 12N20160414212510204/14/16 21:25:31  5-MIN K12N 150225Z AUTO 00000KT 06/M01 A3035 190 60 -700 000/00 RMK AO1 T00611011 $
54779K12N 12N20160414213010204/14/16 21:30:31  5-MIN K12N 150230Z AUTO 00000KT 06/M01 A3035 190 62 -800 000/00 RMK AO1 T00561011 $
54779K12N 12N20160414213510204/14/16 21:35:31  5-MIN K12N 150235Z AUTO 00000KT 06/M01 A3035 190 62 -800 000/00 RMK AO1 T00561011 $
54779K12N 12N20160414214010204/14/16 21:40:31  5-MIN K12N 150240Z AUTO 00000KT 06/M01 A3035 190 62 -800 000/00 RMK AO1 T00561011 $
54779K12N 12N20160414214510204/14/16 21:45:31  5-MIN K12N 150245Z AUTO 00000KT 05/M01 A3036 190 64 -900 000/00 RMK AO1 T00501011 $
54779K12N 12N20160414215011504/14/16 21:50:31  5-MIN K12N 150250Z AUTO 00000KT 05/M01 A3036 190 67 -900 000/00 RMK AO1 SLP284 T00501006 53003 $
54779K12N 12N20160414215510304/14/16 21:55:31  5-MIN K12N 150255Z AUTO 00000KT 04/M01 A3036 190 70 -1000 000/00 RMK AO1 T00391011 $
54779K12N 12N20160414220010304/14/16 22:00:31  5-MIN K12N 150300Z AUTO 00000KT 04/M02 A3036 180 67 -1000 000/00 RMK AO1 T00391017 $
54779K12N 12N20160414220510204/14/16 22:05:31  5-MIN K12N 150305Z AUTO 00000KT 05/M01 A3036 180 67 -900 000/00 RMK AO1 T00501006 $
54779K12N 12N20160414221010104/14/16 22:10:31  5-MIN K12N 150310Z AUTO 00000KT 05/00 A3036 180 70 -900 000/00 RMK AO1 T00500000 $
54779K12N 12N20160414221510204/14/16 22:15:31  5-MIN K12N 150315Z AUTO 00000KT 04/00 A3036 180 73 -1000 000/00 RMK AO1 T00440000 $
54779K12N 12N20160414222010204/14/16 22:20:31  5-MIN K12N 150320Z AUTO 00000KT 04/01 A3036 180 76 -1000 000/00 RMK AO1 T00440006 $
54779K12N 12N20160414222510204/14/16 22:25:31  5-MIN K12N 150325Z AUTO 00000KT 04/01 A3036 180 76 -1000 000/00 RMK AO1 T00440006 $
54779K12N 12N20160414223010204/14/16 22:30:31  5-MIN K12N 150330Z AUTO 00000KT 04/01 A3037 170 76 -1000 000/00 RMK AO1 T00440006 $
54779K12N 12N20160414223510204/14/16 22:35:31  5-MIN K12N 150335Z AUTO 00000KT 04/01 A3037 170 76 -1000 000/00 RMK AO1 T00440006 $
54779K12N 12N20160414224010204/14/16 22:40:31  5-MIN K12N 150340Z AUTO 00000KT 04/01 A3037 170 79 -1000 000/00 RMK AO1 T00390006 $
54779K12N 12N20160414224510204/14/16 22:45:31  5-MIN K12N 150345Z AUTO 00000KT 04/00 A3037 170 76 -1000 000/00 RMK AO1 T00390000 $
54779K12N 12N20160414225010904/14/16 22:50:31  5-MIN K12N 150350Z AUTO 00000KT 03/00 A3037 170 79 -1100 000/00 RMK AO1 SLP290 T00330000 $
54779K12N 12N20160414225510204/14/16 22:55:31  5-MIN K12N 150355Z AUTO 00000KT 04/01 A3038 170 79 -1100 000/00 RMK AO1 T00390006 $
54779K12N 12N20160414230010204/14/16 23:00:31  5-MIN K12N 150400Z AUTO 00000KT 04/01 A3037 170 79 -1000 000/00 RMK AO1 T00390006 $
54779K12N 12N20160414230510204/14/16 23:05:31  5-MIN K12N 150405Z AUTO 00000KT 04/01 A3037 170 79 -1000 000/00 RMK AO1 T00390006 $
54779K12N 12N20160414231010204/14/16 23:10:31  5-MIN K12N 150410Z AUTO 00000KT 04/01 A3038 170 76 -1000 000/00 RMK AO1 T00440006 $
54779K12N 12N20160414231510204/14/16 23:15:31  5-MIN K12N 150415Z AUTO 00000KT 04/01 A3038 160 82 -1100 000/00 RMK AO1 T00390011 $
54779K12N 12N20160414232010204/14/16 23:20:31  5-MIN K12N 150420Z AUTO 20003KT 04/01 A3038 160 76 -1000 220/03 RMK AO1 T00440006 $
54779K12N 12N20160414232510104/14/16 23:25:31  5-MIN K12N 150425Z AUTO 00000KT 05/01 A3038 160 76 -900 000/00 RMK AO1 T00500011 $
54779K12N 12N20160414233010104/14/16 23:30:31  5-MIN K12N 150430Z AUTO 00000KT 05/01 A3038 160 76 -900 000/00 RMK AO1 T00500011 $
54779K12N 12N20160414233510204/14/16 23:35:31  5-MIN K12N 150435Z AUTO 00000KT 04/01 A3038 160 76 -1000 000/00 RMK AO1 T00440006 $
54779K12N 12N20160414234010204/14/16 23:40:31  5-MIN K12N 150440Z AUTO 00000KT 04/00 A3038 160 76 -1100 000/00 RMK AO1 T00390000 $
54779K12N 12N20160414234510304/14/16 23:45:31  5-MIN K12N 150445Z AUTO 00000KT 04/M01 A3038 160 73 -1100 000/00 RMK AO1 T00391006 $
54779K12N 12N20160414235012004/14/16 23:50:31  5-MIN K12N 150450Z AUTO 00000KT 03/M01 A3039 160 76 -1100 000/00 RMK AO1 SLP294 T00331006 401560000 $
54779K12N 12N20160414235510204/14/16 23:55:31  5-MIN K12N 150455Z AUTO 00000KT 04/01 A3038 160 79 -1100 000/00 RMK AO1 T00390006 $
54779K12N 12N20160415000010204/15/16 00:00:31  5-MIN K12N 150500Z AUTO 00000KT 04/01 A3039 160 76 -1000 000/00 RMK AO1 T00440006 $
54779K12N 12N20160415000510204/15/16 00:05:31  5-MIN K12N 150505Z AUTO 00000KT 04/01 A3039 160 79 -1000 000/00 RMK AO1 T00440011 $
54779K12N 12N20160415001010104/15/16 00:10:31  5-MIN K12N 150510Z AUTO VRB03KT 05/01 A3039 160 76 -900 VRB/03 RMK AO1 T00500011 $
54779K12N 12N20160415001510104/15/16 00:15:31  5-MIN K12N 150515Z AUTO 00000KT 05/01 A3039 160 76 -900 000/00 RMK AO1 T00500011 $
54779K12N 12N20160415002010104/15/16 00:20:31  5-MIN K12N 150520Z AUTO 00000KT 05/01 A3039 160 73 -900 000/00 RMK AO1 T00500006 $
54779K12N 12N20160415002510104/15/16 00:25:31  5-MIN K12N 150525Z AUTO 00000KT 05/01 A3039 160 76 -900 000/00 RMK AO1 T00500011 $
54779K12N 12N20160415003010104/15/16 00:30:31  5-MIN K12N 150530Z AUTO 00000KT 05/01 A3039 160 76 -900 000/00 RMK AO1 T00500011 $
54779K12N 12N20160415003510204/15/16 00:35:31  5-MIN K12N 150535Z AUTO 00000KT 04/01 A3039 160 79 -1100 000/00 RMK AO1 T00390006 $
54779K12N 12N20160415004010204/15/16 00:40:31  5-MIN K12N 150540Z AUTO 00000KT 04/01 A3039 160 76 -1000 000/00 RMK AO1 T00440006 $
54779K12N 12N20160415004510204/15/16 00:45:31  5-MIN K12N 150545Z AUTO 00000KT 04/01 A3039 160 76 -1000 000/00 RMK AO1 T00440006 $
54779K12N 12N20160415005012704/15/16 00:50:31  5-MIN K12N 150550Z AUTO 00000KT 04/01 A3039 160 79 -1100 000/00 RMK AO1 SLP294 T00390006 10100 20033 51023 $
54779K12N 12N20160415005510204/15/16 00:55:31  5-MIN K12N 150555Z AUTO 00000KT 04/01 A3038 160 76 -1000 000/00 RMK AO1 T00440006 $
54779K12N 12N20160415010010204/15/16 01:00:31  5-MIN K12N 150600Z AUTO 00000KT 04/01 A3038 160 79 -1100 000/00 RMK AO1 T00390006 $
54779K12N 12N20160415010510204/15/16 01:05:31  5-MIN K12N 150605Z AUTO 00000KT 03/00 A3038 160 79 -1100 000/00 RMK AO1 T00330000 $
54779K12N 12N20160415011010204/15/16 01:10:31  5-MIN K12N 150610Z AUTO 00000KT 03/00 A3038 160 79 -1100 000/00 RMK AO1 T00330000 $
54779K12N 12N20160415011510204/15/16 01:15:31  5-MIN K12N 150615Z AUTO 00000KT 03/00 A3038 160 82 -1200 000/00 RMK AO1 T00280000 $
54779K12N 12N20160415012010204/15/16 01:20:31  5-MIN K12N 150620Z AUTO 00000KT 03/01 A3038 170 82 -1100 000/00 RMK AO1 T00330006 $
54779K12N 12N20160415012510204/15/16 01:25:31  5-MIN K12N 150625Z AUTO 00000KT 03/01 A3038 170 85 -1200 000/00 RMK AO1 T00280006 $
54779K12N 12N20160415013010204/15/16 01:30:31  5-MIN K12N 150630Z AUTO 00000KT 03/00 A3038 170 82 -1200 000/00 RMK AO1 T00280000 $
54779K12N 12N20160415013510204/15/16 01:35:31  5-MIN K12N 150635Z AUTO 00000KT 03/00 A3038 170 82 -1200 000/00 RMK AO1 T00280000 $
54779K12N 12N20160415014010204/15/16 01:40:31  5-MIN K12N 150640Z AUTO 00000KT 03/01 A3038 170 85 -1200 000/00 RMK AO1 T00280006 $
54779K12N 12N20160415014510204/15/16 01:45:31  5-MIN K12N 150645Z AUTO 00000KT 03/01 A3037 170 85 -1200 000/00 RMK AO1 T00280006 $
54779K12N 12N20160415015010904/15/16 01:50:31  5-MIN K12N 150650Z AUTO 00000KT 03/01 A3037 170 85 -1200 000/00 RMK AO1 SLP289 T00280006 $
54779K12N 12N20160415015510204/15/16 01:55:31  5-MIN K12N 150655Z AUTO 00000KT 02/00 A3037 170 85 -1300 000/00 RMK AO1 T00220000 $
54779K12N 12N20160415020010204/15/16 02:00:31  5-MIN K12N 150700Z AUTO 00000KT 02/00 A3037 170 85 -1300 000/00 RMK AO1 T00220000 $
54779K12N 12N20160415020510204/15/16 02:05:31  5-MIN K12N 150705Z AUTO 00000KT 02/00 A3037 170 85 -1300 000/00 RMK AO1 T00220000 $
54779K12N 12N20160415021010204/15/16 02:10:31  5-MIN K12N 150710Z AUTO 00000KT 02/00 A3037 170 85 -1300 000/00 RMK AO1 T00220000 $
54779K12N 12N20160415021510204/15/16 02:15:31  5-MIN K12N 150715Z AUTO 00000KT 03/00 A3037 170 82 -1200 000/00 RMK AO1 T00280000 $
54779K12N 12N20160415022010204/15/16 02:20:31  5-MIN K12N 150720Z AUTO 00000KT 03/01 A3037 170 85 -1200 000/00 RMK AO1 T00280006 $
54779K12N 12N20160415022510204/15/16 02:25:31  5-MIN K12N 150725Z AUTO 00000KT 02/01 A3037 170 89 -1300 000/00 RMK AO1 T00220006 $
54779K12N 12N20160415023010204/15/16 02:30:31  5-MIN K12N 150730Z AUTO 00000KT 02/00 A3037 170 85 -1300 000/00 RMK AO1 T00220000 $
54779K12N 12N20160415023510204/15/16 02:35:31  5-MIN K12N 150735Z AUTO 00000KT 02/00 A3038 170 85 -1300 000/00 RMK AO1 T00220000 $
54779K12N 12N20160415024010204/15/16 02:40:31  5-MIN K12N 150740Z AUTO 00000KT 02/00 A3038 170 85 -1300 000/00 RMK AO1 T00220000 $
54779K12N 12N20160415024510204/15/16 02:45:31  5-MIN K12N 150745Z AUTO 00000KT 02/00 A3038 170 89 -1300 000/00 RMK AO1 T00170000 $
54779K12N 12N20160415025010904/15/16 02:50:31  5-MIN K12N 150750Z AUTO 00000KT 02/00 A3038 170 85 -1300 000/00 RMK AO1 SLP290 T00220000 $
54779K12N 12N20160415025510204/15/16 02:55:31  5-MIN K12N 150755Z AUTO 00000KT 02/00 A3038 170 85 -1300 000/00 RMK AO1 T00220000 $
54779K12N 12N20160415030010304/15/16 03:00:31  5-MIN K12N 150800Z AUTO 00000KT 02/M01 A3038 160 85 -1300 000/00 RMK AO1 T00171006 $
54779K12N 12N20160415030510304/15/16 03:05:31  5-MIN K12N 150805Z AUTO 00000KT 02/M01 A3038 160 85 -1300 000/00 RMK AO1 T00171006 $
54779K12N 12N20160415031010304/15/16 03:10:31  5-MIN K12N 150810Z AUTO 00000KT 01/M01 A3038 160 89 -1400 000/00 RMK AO1 T00111006 $
54779K12N 12N20160415031510304/15/16 03:15:31  5-MIN K12N 150815Z AUTO 00000KT 01/M01 A3038 160 89 -1400 000/00 RMK AO1 T00111006 $
54779K12N 12N20160415032010304/15/16 03:20:31  5-MIN K12N 150820Z AUTO 00000KT 02/M01 A3038 160 82 -1300 000/00 RMK AO1 T00171011 $
54779K12N 12N20160415032510304/15/16 03:25:31  5-MIN K12N 150825Z AUTO 00000KT 01/M01 A3038 160 85 -1400 000/00 RMK AO1 T00111011 $
54779K12N 12N20160415033010304/15/16 03:30:31  5-MIN K12N 150830Z AUTO 00000KT 01/M01 A3038 160 85 -1400 000/00 RMK AO1 T00111011 $
54779K12N 12N20160415033510304/15/16 03:35:31  5-MIN K12N 150835Z AUTO 00000KT 01/M01 A3038 160 85 -1400 000/00 RMK AO1 T00111011 $
54779K12N 12N20160415034010304/15/16 03:40:31  5-MIN K12N 150840Z AUTO 00000KT 01/M01 A3038 160 89 -1400 000/00 RMK AO1 T00111006 $
54779K12N 12N20160415034510304/15/16 03:45:31  5-MIN K12N 150845Z AUTO 00000KT 01/M01 A3038 160 85 -1400 000/00 RMK AO1 T00111011 $
54779K12N 12N20160415035011604/15/16 03:50:31  5-MIN K12N 150850Z AUTO 00000KT 01/M01 A3038 160 85 -1400 000/00 RMK AO1 SLP293 T00111011 51010 $
54779K12N 12N20160415035510304/15/16 03:55:31  5-MIN K12N 150855Z AUTO 00000KT 01/M01 A3038 160 89 -1400 000/00 RMK AO1 T00111006 $
54779K12N 12N20160415040010304/15/16 04:00:31  5-MIN K12N 150900Z AUTO 00000KT 01/M01 A3038 160 89 -1400 000/00 RMK AO1 T00111006 $
54779K12N 12N20160415040510304/15/16 04:05:31  5-MIN K12N 150905Z AUTO 00000KT 01/M01 A3038 160 92 -1500 000/00 RMK AO1 T00061006 $
54779K12N 12N20160415041010304/15/16 04:10:31  5-MIN K12N 150910Z AUTO 00000KT 00/M01 A3039 160 92 -1500 000/00 RMK AO1 T00001011 $
54779K12N 12N20160415041510304/15/16 04:15:31  5-MIN K12N 150915Z AUTO 00000KT 01/M01 A3039 160 89 -1500 000/00 RMK AO1 T00061011 $
54779K12N 12N20160415042010304/15/16 04:20:31  5-MIN K12N 150920Z AUTO 00000KT 01/M01 A3039 160 89 -1500 000/00 RMK AO1 T00061011 $
54779K12N 12N20160415042510304/15/16 04:25:31  5-MIN K12N 150925Z AUTO 00000KT 01/M01 A3039 160 89 -1500 000/00 RMK AO1 T00061011 $
54779K12N 12N20160415043010304/15/16 04:30:31  5-MIN K12N 150930Z AUTO 00000KT 01/M01 A3039 150 89 -1500 000/00 RMK AO1 T00061011 $
54779K12N 12N20160415043510304/15/16 04:35:31  5-MIN K12N 150935Z AUTO 00000KT 00/M01 A3039 150 92 -1600 000/00 RMK AO1 T00001011 $
54779K12N 12N20160415044010304/15/16 04:40:31  5-MIN K12N 150940Z AUTO 00000KT 01/M01 A3039 150 89 -1500 000/00 RMK AO1 T00061011 $
54779K12N 12N20160415044510304/15/16 04:45:31  5-MIN K12N 150945Z AUTO 00000KT 00/M01 A3040 150 92 -1600 000/00 RMK AO1 T00001011 $
54779K12N 12N20160415045011004/15/16 04:50:31  5-MIN K12N 150950Z AUTO 00000KT 01/M01 A3040 150 89 -1500 000/00 RMK AO1 SLP298 T00061011 $
54779K12N 12N20160415045510304/15/16 04:55:31  5-MIN K12N 150955Z AUTO 00000KT 01/M01 A3040 150 89 -1500 000/00 RMK AO1 T00061011 $
54779K12N 12N20160415050010304/15/16 05:00:31  5-MIN K12N 151000Z AUTO 00000KT 01/M01 A3040 150 89 -1500 000/00 RMK AO1 T00061011 $
54779K12N 12N20160415050510304/15/16 05:05:31  5-MIN K12N 151005Z AUTO 00000KT 01/M01 A3040 150 89 -1500 000/00 RMK AO1 T00061011 $
54779K12N 12N20160415051010304/15/16 05:10:31  5-MIN K12N 151010Z AUTO 00000KT 01/M01 A3040 150 89 -1500 000/00 RMK AO1 T00061011 $
54779K12N 12N20160415051510304/15/16 05:15:31  5-MIN K12N 151015Z AUTO 00000KT 01/M01 A3040 150 89 -1500 000/00 RMK AO1 T00061011 $
54779K12N 12N20160415052010304/15/16 05:20:31  5-MIN K12N 151020Z AUTO 00000KT 00/M01 A3040 150 92 -1600 000/00 RMK AO1 T00001011 $
54779K12N 12N20160415052510304/15/16 05:25:31  5-MIN K12N 151025Z AUTO 00000KT 01/M01 A3040 150 89 -1500 000/00 RMK AO1 T00061011 $
54779K12N 12N20160415053010304/15/16 05:30:31  5-MIN K12N 151030Z AUTO 00000KT 00/M01 A3040 140 92 -1600 000/00 RMK AO1 T00001011 $
54779K12N 12N20160415053510304/15/16 05:35:31  5-MIN K12N 151035Z AUTO 00000KT 00/M01 A3040 140 92 -1600 000/00 RMK AO1 T00001011 $
54779K12N 12N20160415054010304/15/16 05:40:31  5-MIN K12N 151040Z AUTO 00000KT 00/M01 A3041 140 92 -1600 000/00 RMK AO1 T00001011 $
54779K12N 12N20160415054510304/15/16 05:45:31  5-MIN K12N 151045Z AUTO 00000KT 00/M01 A3041 140 92 -1600 000/00 RMK AO1 T00001011 $
54779K12N 12N20160415055011004/15/16 05:50:31  5-MIN K12N 151050Z AUTO 00000KT 00/M01 A3041 140 92 -1600 000/00 RMK AO1 SLP302 T00001011 $
54779K12N 12N20160415055510304/15/16 05:55:31  5-MIN K12N 151055Z AUTO 00000KT 01/M01 A3041 140 89 -1500 000/00 RMK AO1 T00061011 $
54779K12N 12N20160415060010304/15/16 06:00:31  5-MIN K12N 151100Z AUTO 00000KT 01/M01 A3041 140 89 -1500 000/00 RMK AO1 T00061011 $
54779K12N 12N20160415060510304/15/16 06:05:31  5-MIN K12N 151105Z AUTO 00000KT 01/M01 A3041 140 89 -1500 000/00 RMK AO1 T00061011 $
54779K12N 12N20160415061010304/15/16 06:10:31  5-MIN K12N 151110Z AUTO 00000KT 00/M01 A3041 140 96 -1600 000/00 RMK AO1 T00001006 $
54779K12N 12N20160415061510304/15/16 06:15:31  5-MIN K12N 151115Z AUTO 00000KT 01/M01 A3041 140 92 -1500 000/00 RMK AO1 T00061006 $
54779K12N 12N20160415062010304/15/16 06:20:31  5-MIN K12N 151120Z AUTO 00000KT 01/M01 A3041 140 92 -1500 000/00 RMK AO1 T00061006 $
54779K12N 12N20160415062510304/15/16 06:25:31  5-MIN K12N 151125Z AUTO 00000KT 01/M01 A3041 130 92 -1500 000/00 RMK AO1 T00061006 $
54779K12N 12N20160415063010204/15/16 06:30:31  5-MIN K12N 151130Z AUTO 00000KT 01/00 A3041 130 92 -1400 000/00 RMK AO1 T00110000 $
54779K12N 12N20160415063510204/15/16 06:35:31  5-MIN K12N 151135Z AUTO 00000KT 01/00 A3042 130 92 -1400 000/00 RMK AO1 T00110000 $
54779K12N 12N20160415064010204/15/16 06:40:31  5-MIN K12N 151140Z AUTO 00000KT 02/01 A3042 130 92 -1400 000/00 RMK AO1 T00170006 $
54779K12N 12N20160415064510204/15/16 06:45:31  5-MIN K12N 151145Z AUTO 00000KT 02/01 A3042 120 89 -1300 000/00 RMK AO1 T00220006 $
54779K12N 12N20160415065012704/15/16 06:50:31  5-MIN K12N 151150Z AUTO 00000KT 02/01 A3043 120 89 -1300 000/00 RMK AO1 SLP309 T00220006 10044 20000 55001 $
54779K12N 12N20160415065510204/15/16 06:55:31  5-MIN K12N 151155Z AUTO 00000KT 03/01 A3043 120 85 -1200 000/00 RMK AO1 T00280006 $
54779K12N 12N20160415070010204/15/16 07:00:31  5-MIN K12N 151200Z AUTO 04004KT 03/01 A3043 120 82 -1200 050/04 RMK AO1 T00330006 $
54779K12N 12N20160415070510204/15/16 07:05:31  5-MIN K12N 151205Z AUTO VRB03KT 04/00 A3043 110 73 -1000 VRB/03 RMK AO1 T00440000 $
54779K12N 12N20160415071010104/15/16 07:10:31  5-MIN K12N 151210Z AUTO VRB04KT 04/M01 A3043 110 70 -1000 VRB/04 RMK AO1 T00441006
54779K12N 12N20160415071510104/15/16 07:15:31  5-MIN K12N 151215Z AUTO VRB04KT 05/M01 A3043 110 64 -1000 VRB/04 RMK AO1 T00501011
54779K12N 12N20160415072010104/15/16 07:20:31  5-MIN K12N 151220Z AUTO VRB04KT 05/M01 A3044 110 64 -1000 VRB/04 RMK AO1 T00501011
54779K12N 12N20160415072510104/15/16 07:25:31  5-MIN K12N 151225Z AUTO 03006KT 05/M01 A3044 110 64 -1000 040/06 RMK AO1 T00501011
54779K12N 12N20160415073010004/15/16 07:30:31  5-MIN K12N 151230Z AUTO 02004KT 06/M02 A3044 110 59 -900 030/04 RMK AO1 T00561017
54779K12N 12N20160415073510004/15/16 07:35:31  5-MIN K12N 151235Z AUTO VRB05KT 06/M02 A3044 110 59 -900 VRB/05 RMK AO1 T00561017
54779K12N 12N20160415074010004/15/16 07:40:31  5-MIN K12N 151240Z AUTO VRB04KT 06/M01 A3044 110 60 -900 VRB/04 RMK AO1 T00611011
54779K12N 12N20160415074510004/15/16 07:45:31  5-MIN K12N 151245Z AUTO VRB03KT 06/M02 A3044 110 57 -900 VRB/03 RMK AO1 T00611017
54779K12N 12N20160415075010704/15/16 07:50:31  5-MIN K12N 151250Z AUTO 04005KT 07/M02 A3044 110 55 -800 050/05 RMK AO1 SLP313 T00671017
54779K12N 12N20160415075510004/15/16 07:55:31  5-MIN K12N 151255Z AUTO VRB04KT 07/M02 A3044 110 51 -700 VRB/04 RMK AO1 T00721022
54779K12N 12N20160415080010004/15/16 08:00:31  5-MIN K12N 151300Z AUTO VRB04KT 07/M02 A3044 110 51 -700 VRB/04 RMK AO1 T00721022
54779K12N 12N20160415080510004/15/16 08:05:31  5-MIN K12N 151305Z AUTO 03004KT 07/M03 A3044 100 49 -700 040/04 RMK AO1 T00721028
54779K12N 12N20160415081010004/15/16 08:10:31  5-MIN K12N 151310Z AUTO VRB03KT 08/M03 A3044 110 47 -600 VRB/03 RMK AO1 T00781028
54779K12N 12N20160415081510004/15/16 08:15:31  5-MIN K12N 151315Z AUTO 03005KT 08/M04 A3044 110 43 -600 040/05 RMK AO1 T00781039
54779K12N 12N20160415082010004/15/16 08:20:31  5-MIN K12N 151320Z AUTO VRB03KT 08/M03 A3044 100 43 -600 VRB/03 RMK AO1 T00831033
54779K12N 12N20160415082510004/15/16 08:25:31  5-MIN K12N 151325Z AUTO VRB03KT 08/M03 A3044 100 45 -600 VRB/03 RMK AO1 T00831028
54779K12N 12N20160415083010004/15/16 08:30:31  5-MIN K12N 151330Z AUTO VRB05KT 09/M02 A3045 100 45 -500 VRB/05 RMK AO1 T00891022
54779K12N 12N20160415083510004/15/16 08:35:31  5-MIN K12N 151335Z AUTO VRB03KT 09/M03 A3045 100 42 -500 VRB/03 RMK AO1 T00941028
54779K12N 12N20160415084010004/15/16 08:40:31  5-MIN K12N 151340Z AUTO VRB03KT 09/M03 A3045 100 42 -500 VRB/03 RMK AO1 T00941028
54779K12N 12N20160415084510004/15/16 08:45:31  5-MIN K12N 151345Z AUTO 04004KT 09/M03 A3045 100 42 -500 050/04 RMK AO1 T00941028
54779K12N 12N20160415085010704/15/16 08:50:31  5-MIN K12N 151350Z AUTO VRB03KT 09/M02 A3045 100 44 -500 VRB/03 RMK AO1 SLP317 T00941022
54779K12N 12N20160415085510004/15/16 08:55:31  5-MIN K12N 151355Z AUTO 34004KT 09/M02 A3045 100 44 -500 360/04 RMK AO1 T00941022
54779K12N 12N20160415090010004/15/16 09:00:31  5-MIN K12N 151400Z AUTO 35004KT 10/M03 A3045 100 40 -400 010/04 RMK AO1 T01001028
54779K12N 12N20160415090510004/15/16 09:05:31  5-MIN K12N 151405Z AUTO VRB04KT 10/M02 A3045 100 42 -400 VRB/04 RMK AO1 T01001022
54779K12N 12N20160415091010004/15/16 09:10:31  5-MIN K12N 151410Z AUTO 36004KT 10/M02 A3045 100 42 -400 010/04 RMK AO1 T01001022
54779K12N 12N20160415091510004/15/16 09:15:31  5-MIN K12N 151415Z AUTO VRB05KT 10/M02 A3045 100 42 -400 VRB/05 RMK AO1 T01001022
54779K12N 12N20160415092010004/15/16 09:20:31  5-MIN K12N 151420Z AUTO 36004KT 11/M02 A3045 100 40 -300 010/04 RMK AO1 T01061022
54779K12N 12N20160415092510004/15/16 09:25:31  5-MIN K12N 151425Z AUTO VRB03KT 11/M02 A3045 100 40 -300 VRB/03 RMK AO1 T01061022
54779K12N 12N20160415093010004/15/16 09:30:31  5-MIN K12N 151430Z AUTO 36004KT 11/M02 A3045 100 39 -300 020/04 RMK AO1 T01111022
54779K12N 12N20160415093510004/15/16 09:35:31  5-MIN K12N 151435Z AUTO VRB04KT 11/M03 A3045 100 37 -300 VRB/04 RMK AO1 T01111028
54779K12N 12N20160415094010004/15/16 09:40:31  5-MIN K12N 151440Z AUTO VRB04KT 12/M03 A3045 100 36 -200 VRB/04 RMK AO1 T01171028
54779K12N 12N20160415094510004/15/16 09:45:31  5-MIN K12N 151445Z AUTO 00000KT 12/M02 A3045 100 38 -200 000/00 RMK AO1 T01171022
54779K12N 12N20160415095011304/15/16 09:50:31  5-MIN K12N 151450Z AUTO VRB04KT 12/M02 A3045 100 36 -100 VRB/04 RMK AO1 SLP314 T01221022 53015
54779K12N 12N20160415095510004/15/16 09:55:31  5-MIN K12N 151455Z AUTO VRB04KT 12/M03 A3045 100 35 -100 VRB/04 RMK AO1 T01221028
54779K12N 12N20160415100010004/15/16 10:00:31  5-MIN K12N 151500Z AUTO 34005KT 12/M02 A3045 100 36 -100 350/05 RMK AO1 T01221022
54779K12N 12N20160415100509704/15/16 10:05:31  5-MIN K12N 151505Z AUTO VRB04KT 13/M03 A3045 100 32 0 VRB/04 RMK AO1 T01281033
54779K12N 12N20160415101009704/15/16 10:10:31  5-MIN K12N 151510Z AUTO VRB04KT 13/M04 A3045 100 30 0 VRB/04 RMK AO1 T01281044
54779K12N 12N20160415101509704/15/16 10:15:31  5-MIN K12N 151515Z AUTO VRB03KT 13/M03 A3045 100 32 0 VRB/03 RMK AO1 T01281033
54779K12N 12N20160415102009704/15/16 10:20:31  5-MIN K12N 151520Z AUTO VRB05KT 13/M04 A3044 100 31 0 VRB/05 RMK AO1 T01281039
54779K12N 12N20160415102509704/15/16 10:25:31  5-MIN K12N 151525Z AUTO VRB03KT 13/M03 A3044 100 31 0 VRB/03 RMK AO1 T01331033
54779K12N 12N20160415103009704/15/16 10:30:31  5-MIN K12N 151530Z AUTO VRB03KT 13/M04 A3044 110 30 0 VRB/03 RMK AO1 T01331039
54779K12N 12N20160415103509704/15/16 10:35:31  5-MIN K12N 151535Z AUTO 36007KT 13/M04 A3044 110 30 0 020/07 RMK AO1 T01331039
54779K12N 12N20160415104009704/15/16 10:40:31  5-MIN K12N 151540Z AUTO 34004KT 13/M04 A3044 110 28 0 350/04 RMK AO1 T01331044
54779K12N 12N20160415104509704/15/16 10:45:31  5-MIN K12N 151545Z AUTO 35003KT 13/M04 A3044 110 28 0 360/03 RMK AO1 T01331044
54779K12N 12N20160415105010404/15/16 10:50:31  5-MIN K12N 151550Z AUTO 00000KT 14/M04 A3044 110 27 0 000/00 RMK AO1 SLP312 T01391044
54779K12N 12N20160415105509704/15/16 10:55:31  5-MIN K12N 151555Z AUTO 00000KT 14/M04 A3044 110 27 0 000/00 RMK AO1 T01391044
54779K12N 12N20160415110009704/15/16 11:00:31  5-MIN K12N 151600Z AUTO 00000KT 14/M05 A3044 110 26 0 000/00 RMK AO1 T01391050
54779K12N 12N20160415110509704/15/16 11:05:31  5-MIN K12N 151605Z AUTO 00000KT 14/M04 A3044 110 27 0 000/00 RMK AO1 T01391044
54779K12N 12N20160415111009904/15/16 11:10:31  5-MIN K12N 151610Z AUTO VRB05KT 14/M04 A3044 110 28 100 VRB/05 RMK AO1 T01441039
54779K12N 12N20160415111509904/15/16 11:15:31  5-MIN K12N 151615Z AUTO VRB03KT 14/M03 A3043 110 29 100 VRB/03 RMK AO1 T01441033
54779K12N 12N20160415112009904/15/16 11:20:31  5-MIN K12N 151620Z AUTO VRB03KT 14/M04 A3043 110 28 100 VRB/03 RMK AO1 T01441039
54779K12N 12N20160415112509904/15/16 11:25:31  5-MIN K12N 151625Z AUTO 00000KT 14/M04 A3043 110 28 100 000/00 RMK AO1 T01441039
54779K12N 12N20160415113009904/15/16 11:30:31  5-MIN K12N 151630Z AUTO 04003KT 14/M05 A3043 120 25 100 050/03 RMK AO1 T01441050
54779K12N 12N20160415113509904/15/16 11:35:31  5-MIN K12N 151635Z AUTO 00000KT 14/M05 A3043 120 25 100 000/00 RMK AO1 T01441050
54779K12N 12N20160415114009904/15/16 11:40:31  5-MIN K12N 151640Z AUTO 35004KT 14/M05 A3043 120 25 100 360/04 RMK AO1 T01441050
54779K12N 12N20160415114509904/15/16 11:45:31  5-MIN K12N 151645Z AUTO 34004KT 14/M05 A3043 120 25 100 350/04 RMK AO1 T01441050
54779K12N 12N20160415115010604/15/16 11:50:31  5-MIN K12N 151650Z AUTO 00000KT 14/M06 A3043 120 24 100 000/00 RMK AO1 SLP307 T01441056
54779K12N 12N20160415115509904/15/16 11:55:31  5-MIN K12N 151655Z AUTO VRB04KT 15/M06 A3042 120 23 200 VRB/04 RMK AO1 T01501056
54779K12N 12N20160415120009904/15/16 12:00:31  5-MIN K12N 151700Z AUTO VRB03KT 15/M05 A3042 120 24 200 VRB/03 RMK AO1 T01501050
54779K12N 12N20160415120509904/15/16 12:05:31  5-MIN K12N 151705Z AUTO VRB04KT 15/M04 A3042 130 25 200 VRB/04 RMK AO1 T01501044
54779K12N 12N20160415121009904/15/16 12:10:31  5-MIN K12N 151710Z AUTO 36005KT 15/M03 A3042 130 28 200 020/05 RMK AO1 T01501033
54779K12N 12N20160415121509904/15/16 12:15:31  5-MIN K12N 151715Z AUTO VRB03KT 16/M04 A3042 130 26 300 VRB/03 RMK AO1 T01561039
54779K12N 12N20160415122009904/15/16 12:20:31  5-MIN K12N 151720Z AUTO 05006KT 16/M04 A3042 130 26 300 060/06 RMK AO1 T01561039
54779K12N 12N20160415122509904/15/16 12:25:31  5-MIN K12N 151725Z AUTO 04005KT 16/M03 A3041 130 27 300 050/05 RMK AO1 T01561033
54779K12N 12N20160415123009904/15/16 12:30:31  5-MIN K12N 151730Z AUTO VRB05KT 16/M04 A3041 130 25 300 VRB/05 RMK AO1 T01561044
54779K12N 12N20160415123509904/15/16 12:35:31  5-MIN K12N 151735Z AUTO VRB05KT 16/M04 A3041 130 25 300 VRB/05 RMK AO1 T01561044
54779K12N 12N20160415124009904/15/16 12:40:31  5-MIN K12N 151740Z AUTO 05006KT 16/M04 A3041 130 25 300 070/06 RMK AO1 T01561044
54779K12N 12N20160415124509904/15/16 12:45:31  5-MIN K12N 151745Z AUTO VRB05KT 16/M03 A3041 130 27 300 VRB/05 RMK AO1 T01561033
54779K12N 12N20160415125012404/15/16 12:50:31  5-MIN K12N 151750Z AUTO 02004KT 16/M03 A3041 130 26 300 030/04 RMK AO1 SLP301 T01611033 10161 20028 50006
54779K12N 12N20160415125509904/15/16 12:55:31  5-MIN K12N 151755Z AUTO 00000KT 16/M04 A3041 130 25 300 000/00 RMK AO1 T01611039
54779K12N 12N20160415130009904/15/16 13:00:31  5-MIN K12N 151800Z AUTO VRB04KT 16/M04 A3041 130 24 300 VRB/04 RMK AO1 T01611044
54779K12N 12N20160415130509904/15/16 13:05:31  5-MIN K12N 151805Z AUTO 04004KT 16/M04 A3041 140 26 300 060/04 RMK AO1 T01561039
54779K12N 12N20160415131009904/15/16 13:10:31  5-MIN K12N 151810Z AUTO 00000KT 16/M05 A3041 140 23 300 000/00 RMK AO1 T01611050
54779K12N 12N20160415131509904/15/16 13:15:31  5-MIN K12N 151815Z AUTO 02004KT 16/M03 A3041 140 26 300 030/04 RMK AO1 T01611033
54779K12N 12N20160415132009904/15/16 13:20:31  5-MIN K12N 151820Z AUTO VRB04KT 16/M04 A3041 140 25 300 VRB/04 RMK AO1 T01611039
54779K12N 12N20160415132509904/15/16 13:25:31  5-MIN K12N 151825Z AUTO 35004KT 17/M04 A3041 140 24 400 010/04 RMK AO1 T01671039
54779K12N 12N20160415133009904/15/16 13:30:31  5-MIN K12N 151830Z AUTO 00000KT 17/M04 A3040 140 23 400 000/00 RMK AO1 T01671044
54779K12N 12N20160415133509904/15/16 13:35:31  5-MIN K12N 151835Z AUTO 03006KT 16/M04 A3040 140 25 300 050/06 RMK AO1 T01611039
54779K12N 12N20160415134009904/15/16 13:40:31  5-MIN K12N 151840Z AUTO 35006KT 17/M04 A3040 140 24 400 010/06 RMK AO1 T01671039
54779K12N 12N20160415134509904/15/16 13:45:31  5-MIN K12N 151845Z AUTO 07003KT 16/M05 A3040 140 23 300 080/03 RMK AO1 T01611050
54779K12N 12N20160415135010604/15/16 13:50:31  5-MIN K12N 151850Z AUTO 04004KT 16/M06 A3040 150 22 400 050/04 RMK AO1 SLP298 T01611056
54779K12N 12N20160415135509904/15/16 13:55:31  5-MIN K12N 151855Z AUTO 00000KT 16/M05 A3040 150 23 400 000/00 RMK AO1 T01611050
54779K12N 12N20160415140009904/15/16 14:00:31  5-MIN K12N 151900Z AUTO VRB04KT 17/M04 A3039 150 23 500 VRB/04 RMK AO1 T01721039
54779K12N 12N20160415140509904/15/16 14:05:31  5-MIN K12N 151905Z AUTO 35006KT 17/M05 A3039 150 22 400 360/06 RMK AO1 T01671050
54779K12N 12N20160415141009904/15/16 14:10:31  5-MIN K12N 151910Z AUTO VRB05KT 17/M05 A3039 150 22 400 VRB/05 RMK AO1 T01671050
54779K12N 12N20160415141509904/15/16 14:15:31  5-MIN K12N 151915Z AUTO VRB05KT 17/M04 A3039 150 24 400 VRB/05 RMK AO1 T01671039
54779K12N 12N20160415142009904/15/16 14:20:31  5-MIN K12N 151920Z AUTO VRB03KT 17/M04 A3039 150 23 400 VRB/03 RMK AO1 T01671044
54779K12N 12N20160415142509904/15/16 14:25:31  5-MIN K12N 151925Z AUTO 34003KT 17/M06 A3039 160 21 400 350/03 RMK AO1 T01671056
54779K12N 12N20160415143009904/15/16 14:30:31  5-MIN K12N 151930Z AUTO 00000KT 17/M06 A3039 160 20 400 000/00 RMK AO1 T01671061
54779K12N 12N20160415143509904/15/16 14:35:31  5-MIN K12N 151935Z AUTO 00000KT 17/M06 A3038 160 20 400 000/00 RMK AO1 T01671061
54779K12N 12N20160415144009904/15/16 14:40:31  5-MIN K12N 151940Z AUTO 00000KT 16/M06 A3038 160 21 400 000/00 RMK AO1 T01611061
54779K12N 12N20160415144509904/15/16 14:45:31  5-MIN K12N 151945Z AUTO 05005KT 17/M05 A3038 160 21 500 060/05 RMK AO1 T01721050
54779K12N 12N20160415145010604/15/16 14:50:31  5-MIN K12N 151950Z AUTO VRB05KT 17/M04 A3038 170 23 500 VRB/05 RMK AO1 SLP289 T01721039
54779K12N 12N20160415145509904/15/16 14:55:31  5-MIN K12N 151955Z AUTO VRB03KT 17/M04 A3038 170 23 500 VRB/03 RMK AO1 T01721039
54779K12N 12N20160415150009904/15/16 15:00:31  5-MIN K12N 152000Z AUTO VRB03KT 17/M06 A3038 170 20 500 VRB/03 RMK AO1 T01721056
54779K12N 12N20160415150509904/15/16 15:05:31  5-MIN K12N 152005Z AUTO 00000KT 18/M06 A3037 170 20 600 000/00 RMK AO1 T01781056
54779K12N 12N20160415151009904/15/16 15:10:31  5-MIN K12N 152010Z AUTO VRB03KT 17/M07 A3037 170 19 500 VRB/03 RMK AO1 T01721067
54779K12N 12N20160415151508904/15/16 15:15:31  5-MIN K12N 152015Z AUTO 17/M07 A3037 170 18 500 M /M RMK AO1 T01721072
54779K12N 12N20160415152009904/15/16 15:20:31  5-MIN K12N 152020Z AUTO 36006KT 17/M07 A3037 170 19 400 010/06 RMK AO1 T01671067
54779K12N 12N20160415152509904/15/16 15:25:31  5-MIN K12N 152025Z AUTO VRB03KT 17/M07 A3037 170 19 500 VRB/03 RMK AO1 T01721067
54779K12N 12N20160415153009904/15/16 15:30:31  5-MIN K12N 152030Z AUTO VRB04KT 17/M07 A3037 170 18 500 VRB/04 RMK AO1 T01671072
54779K12N 12N20160415153509904/15/16 15:35:31  5-MIN K12N 152035Z AUTO VRB03KT 18/M07 A3037 180 18 600 VRB/03 RMK AO1 T01781067
54779K12N 12N20160415154009904/15/16 15:40:31  5-MIN K12N 152040Z AUTO 02005KT 17/M06 A3036 180 19 500 030/05 RMK AO1 T01721061
54779K12N 12N20160415154509904/15/16 15:45:31  5-MIN K12N 152045Z AUTO VRB03KT 17/M07 A3036 180 19 500 VRB/03 RMK AO1 T01721067
54779K12N 12N20160415155011204/15/16 15:50:31  5-MIN K12N 152050Z AUTO VRB03KT 17/M05 A3037 180 21 500 VRB/03 RMK AO1 SLP286 T01721050 58012
54779K12N 12N20160415155509904/15/16 15:55:31  5-MIN K12N 152055Z AUTO 01003KT 17/M08 A3036 180 16 500 030/03 RMK AO1 T01721083
54779K12N 12N20160415160009904/15/16 16:00:31  5-MIN K12N 152100Z AUTO VRB04KT 17/M06 A3036 180 19 500 VRB/04 RMK AO1 T01721061
54779K12N 12N20160415160509904/15/16 16:05:31  5-MIN K12N 152105Z AUTO 32003KT 17/M08 A3036 180 17 500 330/03 RMK AO1 T01721078
54779K12N 12N20160415161009904/15/16 16:10:31  5-MIN K12N 152110Z AUTO 00000KT 18/M08 A3036 180 16 600 000/00 RMK AO1 T01781083
54779K12N 12N20160415161509904/15/16 16:15:31  5-MIN K12N 152115Z AUTO 36005KT 17/M08 A3036 180 17 500 010/05 RMK AO1 T01721078
54779K12N 12N20160415162009904/15/16 16:20:31  5-MIN K12N 152120Z AUTO VRB04KT 17/M08 A3036 180 16 500 VRB/04 RMK AO1 T01721083
54779K12N 12N20160415162509904/15/16 16:25:31  5-MIN K12N 152125Z AUTO VRB03KT 17/M07 A3036 180 19 500 VRB/03 RMK AO1 T01721067
54779K12N 12N20160415163009904/15/16 16:30:31  5-MIN K12N 152130Z AUTO VRB05KT 17/M07 A3036 180 19 500 VRB/05 RMK AO1 T01721067
54779K12N 12N20160415163509904/15/16 16:35:31  5-MIN K12N 152135Z AUTO VRB03KT 17/M07 A3036 180 19 500 VRB/03 RMK AO1 T01721067
54779K12N 12N20160415164009904/15/16 16:40:31  5-MIN K12N 152140Z AUTO VRB03KT 18/M07 A3036 180 17 600 VRB/03 RMK AO1 T01781072
54779K12N 12N20160415164509904/15/16 16:45:31  5-MIN K12N 152145Z AUTO 36005KT 17/M07 A3036 180 19 500 020/05 RMK AO1 T01721067
54779K12N 12N20160415165010604/15/16 16:50:31  5-MIN K12N 152150Z AUTO 35005KT 17/M07 A3036 180 19 500 010/05 RMK AO1 SLP285 T01721067
54779K12N 12N20160415165509904/15/16 16:55:31  5-MIN K12N 152155Z AUTO 35004KT 17/M07 A3036 180 18 500 360/04 RMK AO1 T01721072
54779K12N 12N20160415170009904/15/16 17:00:31  5-MIN K12N 152200Z AUTO 36004KT 17/M08 A3036 180 17 500 010/04 RMK AO1 T01721078
54779K12N 12N20160415170509904/15/16 17:05:31  5-MIN K12N 152205Z AUTO 00000KT 17/M08 A3036 180 16 500 000/00 RMK AO1 T01721083
54779K12N 12N20160415171009904/15/16 17:10:31  5-MIN K12N 152210Z AUTO 00000KT 17/M08 A3036 180 18 500 000/00 RMK AO1 T01671078
54779K12N 12N20160415171509904/15/16 17:15:31  5-MIN K12N 152215Z AUTO VRB04KT 17/M09 A3036 180 16 500 VRB/04 RMK AO1 T01721089
54779K12N 12N20160415172009904/15/16 17:20:31  5-MIN K12N 152220Z AUTO 06003KT 17/M08 A3036 180 16 500 070/03 RMK AO1 T01721083
54779K12N 12N20160415172509904/15/16 17:25:31  5-MIN K12N 152225Z AUTO 04004KT 17/M09 A3036 180 16 500 050/04 RMK AO1 T01721089
54779K12N 12N20160415173009904/15/16 17:30:31  5-MIN K12N 152230Z AUTO 00000KT 17/M09 A3036 180 16 500 000/00 RMK AO1 T01721089
54779K12N 12N20160415173509904/15/16 17:35:31  5-MIN K12N 152235Z AUTO 00000KT 18/M09 A3036 180 14 600 000/00 RMK AO1 T01781094
54779K12N 12N20160415174009904/15/16 17:40:31  5-MIN K12N 152240Z AUTO 00000KT 18/M08 A3036 190 16 600 000/00 RMK AO1 T01781083
54779K12N 12N20160415174509904/15/16 17:45:31  5-MIN K12N 152245Z AUTO 00000KT 17/M09 A3035 190 16 500 000/00 RMK AO1 T01671089
54779K12N 12N20160415175010604/15/16 17:50:31  5-MIN K12N 152250Z AUTO 15003KT 17/M09 A3035 190 16 500 160/03 RMK AO1 SLP283 T01671094
54779K12N 12N20160415175509904/15/16 17:55:31  5-MIN K12N 152255Z AUTO 00000KT 17/M09 A3035 190 16 500 000/00 RMK AO1 T01671094
54779K12N 12N20160415180009904/15/16 18:00:31  5-MIN K12N 152300Z AUTO 00000KT 16/M09 A3035 190 17 400 000/00 RMK AO1 T01611089
54779K12N 12N20160415180509904/15/16 18:05:31  5-MIN K12N 152305Z AUTO 00000KT 16/M08 A3035 190 18 400 000/00 RMK AO1 T01611083
54779K12N 12N20160415181009904/15/16 18:10:31  5-MIN K12N 152310Z AUTO 00000KT 16/M08 A3035 190 18 300 000/00 RMK AO1 T01561083
54779K12N 12N20160415181509904/15/16 18:15:31  5-MIN K12N 152315Z AUTO 00000KT 16/M08 A3035 190 18 300 000/00 RMK AO1 T01561083
54779K12N 12N20160415182009904/15/16 18:20:31  5-MIN K12N 152320Z AUTO 00000KT 16/M08 A3035 190 18 300 000/00 RMK AO1 T01561083
54779K12N 12N20160415182509904/15/16 18:25:31  5-MIN K12N 152325Z AUTO 00000KT 14/M06 A3035 190 25 100 000/00 RMK AO1 T01391056
54779K12N 12N20160415183009704/15/16 18:30:31  5-MIN K12N 152330Z AUTO 00000KT 13/M05 A3035 190 28 0 000/00 RMK AO1 T01281050
54779K12N 12N20160415183509904/15/16 18:35:31  5-MIN K12N 152335Z AUTO 00000KT 13/M06 A3035 190 25 100 000/00 RMK AO1 T01331061
54779K12N 12N20160415184009704/15/16 18:40:31  5-MIN K12N 152340Z AUTO 00000KT 13/M04 A3035 190 31 0 000/00 RMK AO1 T01281039
54779K12N 12N20160415184509604/15/16 18:45:31  5-MIN K12N 152345Z AUTO 00000KT 12/01 A3035 190 46 0 000/00 RMK AO1 T01220011
54779K12N 12N20160415185012204/15/16 18:50:31  5-MIN K12N 152350Z AUTO 00000KT 12/M01 A3035 190 39 0 000/00 RMK AO1 SLP283 T01221011 10178 20122 56016
54779K12N 12N20160415185510004/15/16 18:55:31  5-MIN K12N 152355Z AUTO 00000KT 12/M02 A3036 180 39 -100 000/00 RMK AO1 T01171017
54779K12N 12N20160415190009904/15/16 19:00:31  5-MIN K12N 160000Z AUTO 00000KT 12/02 A3036 180 50 -100 000/00 RMK AO1 T01170017
54779K12N 12N20160415190509904/15/16 19:05:31  5-MIN K12N 160005Z AUTO 00000KT 12/02 A3036 180 50 -100 000/00 RMK AO1 T01170017
54779K12N 12N20160415191009904/15/16 19:10:31  5-MIN K12N 160010Z AUTO 00000KT 11/01 A3036 180 48 -200 000/00 RMK AO1 T01110006
54779K12N 12N20160415191510004/15/16 19:15:31  5-MIN K12N 160015Z AUTO 00000KT 11/M02 A3036 180 42 -200 000/00 RMK AO1 T01061017
54779K12N 12N20160415192010004/15/16 19:20:31  5-MIN K12N 160020Z AUTO 00000KT 11/M04 A3037 180 36 -200 000/00 RMK AO1 T01061039
54779K12N 12N20160415192510004/15/16 19:25:31  5-MIN K12N 160025Z AUTO 00000KT 11/M01 A3037 170 46 -200 000/00 RMK AO1 T01061006
54779K12N 12N20160415193009904/15/16 19:30:31  5-MIN K12N 160030Z AUTO 00000KT 10/02 A3037 170 56 -300 000/00 RMK AO1 T01000017
54779K12N 12N20160415193509904/15/16 19:35:31  5-MIN K12N 160035Z AUTO 00000KT 10/02 A3037 170 56 -300 000/00 RMK AO1 T01000017
54779K12N 12N20160415194009904/15/16 19:40:31  5-MIN K12N 160040Z AUTO 00000KT 10/01 A3037 170 52 -300 000/00 RMK AO1 T01000006
54779K12N 12N20160415194509904/15/16 19:45:31  5-MIN K12N 160045Z AUTO 00000KT 10/01 A3038 160 54 -300 000/00 RMK AO1 T01000011
54779K12N 12N20160415195010604/15/16 19:50:31  5-MIN K12N 160050Z AUTO 00000KT 09/02 A3038 160 58 -400 000/00 RMK AO1 SLP292 T00940017
54779K12N 12N20160415195509904/15/16 19:55:31  5-MIN K12N 160055Z AUTO 00000KT 09/02 A3038 160 58 -400 000/00 RMK AO1 T00940017
54779K12N 12N20160415200009904/15/16 20:00:31  5-MIN K12N 160100Z AUTO 00000KT 09/02 A3038 160 60 -400 000/00 RMK AO1 T00890017
54779K12N 12N20160415200509904/15/16 20:05:31  5-MIN K12N 160105Z AUTO 00000KT 09/01 A3039 160 58 -400 000/00 RMK AO1 T00890011
54779K12N 12N20160415201009904/15/16 20:10:31  5-MIN K12N 160110Z AUTO 00000KT 09/01 A3039 160 58 -400 000/00 RMK AO1 T00890011
54779K12N 12N20160415201509904/15/16 20:15:31  5-MIN K12N 160115Z AUTO 00000KT 09/01 A3039 160 56 -500 000/00 RMK AO1 T00890006
54779K12N 12N20160415202009904/15/16 20:20:31  5-MIN K12N 160120Z AUTO 00000KT 09/00 A3039 160 51 -400 000/00 RMK AO1 T00940000
54779K12N 12N20160415202509904/15/16 20:25:31  5-MIN K12N 160125Z AUTO 00000KT 09/01 A3039 160 56 -500 000/00 RMK AO1 T00890006
54779K12N 12N20160415203009904/15/16 20:30:31  5-MIN K12N 160130Z AUTO 00000KT 09/00 A3039 160 53 -500 000/00 RMK AO1 T00890000
54779K12N 12N20160415203509904/15/16 20:35:31  5-MIN K12N 160135Z AUTO 00000KT 09/00 A3039 150 53 -500 000/00 RMK AO1 T00890000
54779K12N 12N20160415204009904/15/16 20:40:31  5-MIN K12N 160140Z AUTO 00000KT 08/00 A3039 150 55 -500 000/00 RMK AO1 T00830000
54779K12N 12N20160415204510004/15/16 20:45:31  5-MIN K12N 160145Z AUTO 00000KT 08/M01 A3039 150 53 -600 000/00 RMK AO1 T00781011
54779K12N 12N20160415205010704/15/16 20:50:31  5-MIN K12N 160150Z AUTO 00000KT 08/M02 A3039 150 51 -600 000/00 RMK AO1 SLP295 T00781017
54779K12N 12N20160415205510004/15/16 20:55:31  5-MIN K12N 160155Z AUTO 00000KT 08/M01 A3039 150 53 -600 000/00 RMK AO1 T00781011
54779K12N 12N20160415210010004/15/16 21:00:31  5-MIN K12N 160200Z AUTO 00000KT 07/M02 A3039 150 53 -700 000/00 RMK AO1 T00721017
54779K12N 12N20160415210510004/15/16 21:05:31  5-MIN K12N 160205Z AUTO 00000KT 07/M01 A3039 150 55 -700 000/00 RMK AO1 T00721011
54779K12N 12N20160415211009904/15/16 21:10:31  5-MIN K12N 160210Z AUTO 00000KT 08/00 A3040 150 58 -600 000/00 RMK AO1 T00780000
54779K12N 12N20160415211509904/15/16 21:15:31  5-MIN K12N 160215Z AUTO 03003KT 07/00 A3040 150 60 -700 040/03 RMK AO1 T00720000
54779K12N 12N20160415212009904/15/16 21:20:31  5-MIN K12N 160220Z AUTO 00000KT 07/00 A3040 150 60 -700 000/00 RMK AO1 T00720000
54779K12N 12N20160415212509904/15/16 21:25:31  5-MIN K12N 160225Z AUTO 00000KT 07/00 A3040 150 60 -700 000/00 RMK AO1 T00720000
54779K12N 12N20160415213009904/15/16 21:30:31  5-MIN K12N 160230Z AUTO 00000KT 07/00 A3040 150 60 -700 000/00 RMK AO1 T00720000
54779K12N 12N20160415213509904/15/16 21:35:31  5-MIN K12N 160235Z AUTO 00000KT 07/00 A3040 150 60 -700 000/00 RMK AO1 T00720000
54779K12N 12N20160415214009904/15/16 21:40:31  5-MIN K12N 160240Z AUTO 00000KT 07/00 A3040 150 60 -700 000/00 RMK AO1 T00720000
54779K12N 12N20160415214509904/15/16 21:45:31  5-MIN K12N 160245Z AUTO 00000KT 07/00 A3040 150 60 -700 000/00 RMK AO1 T00720000
54779K12N 12N20160415215011304/15/16 21:50:31  5-MIN K12N 160250Z AUTO 00000KT 07/M01 A3039 150 57 -700 000/00 RMK AO1 SLP295 T00721006 55003
54779K12N 12N20160415215510004/15/16 21:55:31  5-MIN K12N 160255Z AUTO 00000KT 07/M01 A3039 150 57 -700 000/00 RMK AO1 T00721006
54779K12N 12N20160415220010004/15/16 22:00:31  5-MIN K12N 160300Z AUTO 00000KT 07/M01 A3039 150 60 -700 000/00 RMK AO1 T00671006
54779K12N 12N20160415220509904/15/16 22:05:31  5-MIN K12N 160305Z AUTO 00000KT 07/00 A3039 150 62 -700 000/00 RMK AO1 T00670000
54779K12N 12N20160415221009904/15/16 22:10:31  5-MIN K12N 160310Z AUTO 00000KT 07/00 A3039 150 62 -700 000/00 RMK AO1 T00670000
54779K12N 12N20160415221509904/15/16 22:15:31  5-MIN K12N 160315Z AUTO 00000KT 07/01 A3039 150 65 -700 000/00 RMK AO1 T00670006
54779K12N 12N20160415222009904/15/16 22:20:31  5-MIN K12N 160320Z AUTO 00000KT 06/01 A3039 150 70 -800 000/00 RMK AO1 T00610011
54779K12N 12N20160415222509904/15/16 22:25:31  5-MIN K12N 160325Z AUTO 00000KT 06/01 A3039 150 70 -800 000/00 RMK AO1 T00610011
54779K12N 12N20160415223009904/15/16 22:30:31  5-MIN K12N 160330Z AUTO 00000KT 06/02 A3039 150 76 -900 000/00 RMK AO1 T00560017
54779K12N 12N20160415223509904/15/16 22:35:31  5-MIN K12N 160335Z AUTO 00000KT 06/02 A3039 150 76 -900 000/00 RMK AO1 T00560017
54779K12N 12N20160415224009904/15/16 22:40:31  5-MIN K12N 160340Z AUTO 00000KT 06/02 A3039 150 76 -900 000/00 RMK AO1 T00560017
54779K12N 12N20160415224509904/15/16 22:45:31  5-MIN K12N 160345Z AUTO 00000KT 06/02 A3039 150 76 -900 000/00 RMK AO1 T00560017
54779K12N 12N20160415225010604/15/16 22:50:31  5-MIN K12N 160350Z AUTO 00000KT 06/02 A3039 150 76 -900 000/00 RMK AO1 SLP294 T00560017
54779K12N 12N20160415225509904/15/16 22:55:31  5-MIN K12N 160355Z AUTO 00000KT 05/01 A3039 150 73 -900 000/00 RMK AO1 T00500006
54779K12N 12N20160415230009904/15/16 23:00:31  5-MIN K12N 160400Z AUTO 00000KT 05/00 A3040 150 70 -900 000/00 RMK AO1 T00500000
54779K12N 12N20160415230509904/15/16 23:05:31  5-MIN K12N 160405Z AUTO 00000KT 05/00 A3040 150 70 -900 000/00 RMK AO1 T00500000
54779K12N 12N20160415231009904/15/16 23:10:31  5-MIN K12N 160410Z AUTO 00000KT 05/00 A3040 150 70 -900 000/00 RMK AO1 T00500000
54779K12N 12N20160415231509904/15/16 23:15:31  5-MIN K12N 160415Z AUTO 00000KT 05/00 A3040 150 70 -900 000/00 RMK AO1 T00500000
54779K12N 12N20160415232010104/15/16 23:20:31  5-MIN K12N 160420Z AUTO 00000KT 04/M01 A3040 140 70 -1000 000/00 RMK AO1 T00441006
54779K12N 12N20160415232510004/15/16 23:25:31  5-MIN K12N 160425Z AUTO 00000KT 04/00 A3040 140 73 -1000 000/00 RMK AO1 T00440000
54779K12N 12N20160415233010004/15/16 23:30:31  5-MIN K12N 160430Z AUTO 00000KT 04/00 A3040 140 73 -1000 000/00 RMK AO1 T00440000
54779K12N 12N20160415233510004/15/16 23:35:31  5-MIN K12N 160435Z AUTO 00000KT 04/00 A3040 140 73 -1000 000/00 RMK AO1 T00440000
54779K12N 12N20160415234010004/15/16 23:40:31  5-MIN K12N 160440Z AUTO 00000KT 04/00 A3040 140 73 -1000 000/00 RMK AO1 T00440000
54779K12N 12N20160415234510004/15/16 23:45:31  5-MIN K12N 160445Z AUTO 00000KT 04/00 A3040 140 73 -1000 000/00 RMK AO1 T00440000
54779K12N 12N20160415235011704/15/16 23:50:31  5-MIN K12N 160450Z AUTO 00000KT 04/00 A3040 140 73 -1000 000/00 RMK AO1 SLP299 T00440000 401780000
54779K12N 12N20160415235510004/15/16 23:55:31  5-MIN K12N 160455Z AUTO 00000KT 04/00 A3040 140 73 -1000 000/00 RMK AO1 T00440000
54779K12N 12N20160416000010004/16/16 00:00:31  5-MIN K12N 160500Z AUTO 00000KT 04/00 A3040 140 76 -1100 000/00 RMK AO1 T00390000
54779K12N 12N20160416000510004/16/16 00:05:31  5-MIN K12N 160505Z AUTO 00000KT 04/01 A3040 140 79 -1100 000/00 RMK AO1 T00390006
54779K12N 12N20160416001010004/16/16 00:10:31  5-MIN K12N 160510Z AUTO 00000KT 03/00 A3040 140 79 -1100 000/00 RMK AO1 T00330000
54779K12N 12N20160416001510004/16/16 00:15:31  5-MIN K12N 160515Z AUTO 00000KT 03/00 A3040 140 79 -1100 000/00 RMK AO1 T00330000
54779K12N 12N20160416002010104/16/16 00:20:31  5-MIN K12N 160520Z AUTO 00000KT 04/M01 A3040 140 73 -1100 000/00 RMK AO1 T00391006
54779K12N 12N20160416002510104/16/16 00:25:31  5-MIN K12N 160525Z AUTO 00000KT 04/M01 A3040 140 73 -1100 000/00 RMK AO1 T00391006
54779K12N 12N20160416003010104/16/16 00:30:31  5-MIN K12N 160530Z AUTO 00000KT 04/M01 A3040 140 73 -1100 000/00 RMK AO1 T00391006
54779K12N 12N20160416003510004/16/16 00:35:31  5-MIN K12N 160535Z AUTO 00000KT 04/01 A3040 140 76 -1000 000/00 RMK AO1 T00440006
54779K12N 12N20160416004010004/16/16 00:40:31  5-MIN K12N 160540Z AUTO 00000KT 03/01 A3040 140 82 -1100 000/00 RMK AO1 T00330006
54779K12N 12N20160416004510004/16/16 00:45:31  5-MIN K12N 160545Z AUTO 00000KT 03/00 A3040 150 79 -1100 000/00 RMK AO1 T00330000
54779K12N 12N20160416005012504/16/16 00:50:31  5-MIN K12N 160550Z AUTO 00000KT 03/00 A3040 150 82 -1200 000/00 RMK AO1 SLP297 T00280000 10117 20028 51013
54779K12N 12N20160416005510004/16/16 00:55:31  5-MIN K12N 160555Z AUTO 00000KT 03/00 A3039 150 82 -1200 000/00 RMK AO1 T00280000
54779K12N 12N20160416010010104/16/16 01:00:31  5-MIN K12N 160600Z AUTO 00000KT 03/M01 A3039 150 79 -1200 000/00 RMK AO1 T00281006
54779K12N 12N20160416010510004/16/16 01:05:31  5-MIN K12N 160605Z AUTO 00000KT 03/00 A3039 150 79 -1100 000/00 RMK AO1 T00330000
54779K12N 12N20160416011010004/16/16 01:10:31  5-MIN K12N 160610Z AUTO 00000KT 03/00 A3039 160 79 -1100 000/00 RMK AO1 T00330000
54779K12N 12N20160416011510004/16/16 01:15:31  5-MIN K12N 160615Z AUTO 00000KT 03/00 A3038 160 79 -1100 000/00 RMK AO1 T00330000
54779K12N 12N20160416012010004/16/16 01:20:31  5-MIN K12N 160620Z AUTO 00000KT 03/00 A3038 160 79 -1100 000/00 RMK AO1 T00330000
54779K12N 12N20160416012510004/16/16 01:25:31  5-MIN K12N 160625Z AUTO 00000KT 03/01 A3038 160 82 -1100 000/00 RMK AO1 T00330006
54779K12N 12N20160416013010004/16/16 01:30:31  5-MIN K12N 160630Z AUTO 00000KT 03/01 A3039 160 85 -1200 000/00 RMK AO1 T00280006
54779K12N 12N20160416013510004/16/16 01:35:31  5-MIN K12N 160635Z AUTO 00000KT 03/00 A3039 160 82 -1200 000/00 RMK AO1 T00280000
54779K12N 12N20160416014010004/16/16 01:40:31  5-MIN K12N 160640Z AUTO 00000KT 03/00 A3039 160 82 -1200 000/00 RMK AO1 T00280000
54779K12N 12N20160416014510004/16/16 01:45:31  5-MIN K12N 160645Z AUTO 00000KT 03/00 A3039 160 82 -1200 000/00 RMK AO1 T00280000
54779K12N 12N20160416015010804/16/16 01:50:31  5-MIN K12N 160650Z AUTO 00000KT 03/M01 A3039 160 76 -1100 000/00 RMK AO1 SLP293 T00331006
54779K12N 12N20160416015510104/16/16 01:55:31  5-MIN K12N 160655Z AUTO 00000KT 03/M01 A3039 160 76 -1100 000/00 RMK AO1 T00331006
54779K12N 12N20160416020010104/16/16 02:00:31  5-MIN K12N 160700Z AUTO 03003KT 03/M01 A3039 160 76 -1100 050/03 RMK AO1 T00331006
54779K12N 12N20160416020510004/16/16 02:05:31  5-MIN K12N 160705Z AUTO 04003KT 03/00 A3039 160 79 -1100 050/03 RMK AO1 T00330000
54779K12N 12N20160416021010404/16/16 02:10:31  5-MIN K12N 160710Z AUTO 00000KT 03/00 A3039 160 79 -1100 000/00 RMK AO1 T00330000 PNO
54779K12N 12N20160416021510004/16/16 02:15:31  5-MIN K12N 160715Z AUTO 00000KT 03/00 A3039 160 79 -1100 000/00 RMK AO1 T00330000
54779K12N 12N20160416022010004/16/16 02:20:31  5-MIN K12N 160720Z AUTO 03003KT 03/00 A3039 160 79 -1100 040/03 RMK AO1 T00330000
54779K12N 12N20160416022510004/16/16 02:25:31  5-MIN K12N 160725Z AUTO 03003KT 03/00 A3039 160 79 -1100 040/03 RMK AO1 T00330000
54779K12N 12N20160416023010004/16/16 02:30:31  5-MIN K12N 160730Z AUTO 00000KT 03/00 A3039 160 79 -1100 000/00 RMK AO1 T00330000
54779K12N 12N20160416023510004/16/16 02:35:31  5-MIN K12N 160735Z AUTO 00000KT 03/00 A3039 160 79 -1100 000/00 RMK AO1 T00330000
54779K12N 12N20160416024010004/16/16 02:40:31  5-MIN K12N 160740Z AUTO 03003KT 03/00 A3039 160 79 -1100 050/03 RMK AO1 T00330000
54779K12N 12N20160416024510004/16/16 02:45:31  5-MIN K12N 160745Z AUTO 00000KT 03/00 A3039 160 79 -1100 000/00 RMK AO1 T00330000
54779K12N 12N20160416025010704/16/16 02:50:31  5-MIN K12N 160750Z AUTO 36004KT 04/00 A3039 160 76 -1100 020/04 RMK AO1 SLP293 T00390000
54779K12N 12N20160416025510004/16/16 02:55:31  5-MIN K12N 160755Z AUTO 01003KT 04/00 A3039 150 76 -1100 020/03 RMK AO1 T00390000
54779K12N 12N20160416030010004/16/16 03:00:31  5-MIN K12N 160800Z AUTO 00000KT 04/00 A3039 150 76 -1100 000/00 RMK AO1 T00390000
54779K12N 12N20160416030510004/16/16 03:05:31  5-MIN K12N 160805Z AUTO 02003KT 04/00 A3039 160 76 -1100 040/03 RMK AO1 T00390000
54779K12N 12N20160416031010004/16/16 03:10:31  5-MIN K12N 160810Z AUTO 03003KT 04/00 A3039 150 76 -1100 040/03 RMK AO1 T00390000
54779K12N 12N20160416031510004/16/16 03:15:31  5-MIN K12N 160815Z AUTO 04003KT 03/00 A3039 150 79 -1100 050/03 RMK AO1 T00330000
54779K12N 12N20160416032010104/16/16 03:20:31  5-MIN K12N 160820Z AUTO 00000KT 03/M01 A3039 150 76 -1100 000/00 RMK AO1 T00331006
54779K12N 12N20160416032510104/16/16 03:25:31  5-MIN K12N 160825Z AUTO 00000KT 03/M01 A3040 150 76 -1100 000/00 RMK AO1 T00331006
54779K12N 12N20160416033010104/16/16 03:30:31  5-MIN K12N 160830Z AUTO 01003KT 04/M01 A3040 150 70 -1100 020/03 RMK AO1 T00391011
54779K12N 12N20160416033510104/16/16 03:35:31  5-MIN K12N 160835Z AUTO 00000KT 04/M01 A3040 140 73 -1100 000/00 RMK AO1 T00391006
54779K12N 12N20160416034010004/16/16 03:40:31  5-MIN K12N 160840Z AUTO 00000KT 04/01 A3040 140 79 -1100 000/00 RMK AO1 T00390006
54779K12N 12N20160416034510004/16/16 03:45:31  5-MIN K12N 160845Z AUTO 00000KT 04/01 A3040 140 79 -1100 000/00 RMK AO1 T00390006
54779K12N 12N20160416035011304/16/16 03:50:31  5-MIN K12N 160850Z AUTO 03003KT 04/01 A3040 140 79 -1100 040/03 RMK AO1 SLP298 T00390006 50000
54779K12N 12N20160416035510004/16/16 03:55:31  5-MIN K12N 160855Z AUTO 00000KT 04/01 A3040 140 79 -1100 000/00 RMK AO1 T00390006
54779K12N 12N20160416040010104/16/16 04:00:31  5-MIN K12N 160900Z AUTO 00000KT 03/M01 A3040 140 72 -1200 000/00 RMK AO1 T00331011
54779K12N 12N20160416040510104/16/16 04:05:31  5-MIN K12N 160905Z AUTO 00000KT 04/M01 A3040 140 73 -1100 000/00 RMK AO1 T00391006
54779K12N 12N20160416041010004/16/16 04:10:31  5-MIN K12N 160910Z AUTO 00000KT 04/00 A3040 140 76 -1100 000/00 RMK AO1 T00390000
54779K12N 12N20160416041510004/16/16 04:15:31  5-MIN K12N 160915Z AUTO 04003KT 04/00 A3041 140 76 -1100 050/03 RMK AO1 T00390000
54779K12N 12N20160416042010104/16/16 04:20:31  5-MIN K12N 160920Z AUTO 04003KT 03/M01 A3041 140 76 -1200 050/03 RMK AO1 T00331006
54779K12N 12N20160416042510104/16/16 04:25:31  5-MIN K12N 160925Z AUTO 03003KT 03/M01 A3041 140 76 -1200 050/03 RMK AO1 T00331006
54779K12N 12N20160416043010104/16/16 04:30:31  5-MIN K12N 160930Z AUTO 04004KT 04/M01 A3041 130 73 -1100 050/04 RMK AO1 T00391006
54779K12N 12N20160416043510104/16/16 04:35:31  5-MIN K12N 160935Z AUTO 03003KT 04/M01 A3041 130 70 -1100 050/03 RMK AO1 T00391011
54779K12N 12N20160416044010104/16/16 04:40:31  5-MIN K12N 160940Z AUTO 00000KT 04/M01 A3041 130 70 -1100 000/00 RMK AO1 T00391011
54779K12N 12N20160416044510104/16/16 04:45:31  5-MIN K12N 160945Z AUTO 04004KT 04/M01 A3042 130 70 -1000 050/04 RMK AO1 T00441006
54779K12N 12N20160416045010804/16/16 04:50:31  5-MIN K12N 160950Z AUTO 04005KT 04/M02 A3042 120 64 -1100 050/05 RMK AO1 SLP304 T00391022
54779K12N 12N20160416045510104/16/16 04:55:31  5-MIN K12N 160955Z AUTO 04004KT 04/M02 A3042 120 62 -1000 050/04 RMK AO1 T00441022
54779K12N 12N20160416050010104/16/16 05:00:31  5-MIN K12N 161000Z AUTO 03004KT 04/M02 A3043 120 64 -1000 050/04 RMK AO1 T00441017
54779K12N 12N20160416050510104/16/16 05:05:31  5-MIN K12N 161005Z AUTO 04005KT 04/M01 A3043 120 67 -1000 050/05 RMK AO1 T00441011
54779K12N 12N20160416051010104/16/16 05:10:31  5-MIN K12N 161010Z AUTO 04005KT 04/M02 A3043 120 64 -1100 050/05 RMK AO1 T00391022
54779K12N 12N20160416051510104/16/16 05:15:31  5-MIN K12N 161015Z AUTO 03004KT 04/M02 A3043 110 67 -1100 040/04 RMK AO1 T00391017
54779K12N 12N20160416052010104/16/16 05:20:31  5-MIN K12N 161020Z AUTO VRB04KT 04/M01 A3043 110 70 -1100 VRB/04 RMK AO1 T00391011
54779K12N 12N20160416052510104/16/16 05:25:31  5-MIN K12N 161025Z AUTO VRB03KT 04/M02 A3044 110 64 -1100 VRB/03 RMK AO1 T00441017
54779K12N 12N20160416053010104/16/16 05:30:31  5-MIN K12N 161030Z AUTO 00000KT 04/M02 A3044 110 64 -1100 000/00 RMK AO1 T00441017
54779K12N 12N20160416053510104/16/16 05:35:31  5-MIN K12N 161035Z AUTO 04005KT 04/M02 A3044 110 64 -1100 050/05 RMK AO1 T00441017
54779K12N 12N20160416054010104/16/16 05:40:31  5-MIN K12N 161040Z AUTO 04003KT 04/M03 A3044 110 59 -1100 050/03 RMK AO1 T00441028
54779K12N 12N20160416054510104/16/16 05:45:31  5-MIN K12N 161045Z AUTO 03005KT 04/M02 A3044 100 64 -1100 050/05 RMK AO1 T00441017
54779K12N 12N20160416055010804/16/16 05:50:31  5-MIN K12N 161050Z AUTO 03005KT 04/M02 A3045 100 64 -1100 050/05 RMK AO1 SLP313 T00441017
54779K12N 12N20160416055510104/16/16 05:55:31  5-MIN K12N 161055Z AUTO 03004KT 04/M02 A3045 100 62 -1100 050/04 RMK AO1 T00441022
54779K12N 12N20160416060010104/16/16 06:00:31  5-MIN K12N 161100Z AUTO 04005KT 04/M02 A3045 100 64 -1100 050/05 RMK AO1 T00441017
54779K12N 12N20160416060510104/16/16 06:05:31  5-MIN K12N 161105Z AUTO 04004KT 04/M02 A3045 100 64 -1100 050/04 RMK AO1 T00391022
54779K12N 12N20160416061010004/16/16 06:10:31  5-MIN K12N 161110Z AUTO 04004KT 04/M02 A3046 90 62 -1100 050/04 RMK AO1 T00441022
54779K12N 12N20160416061510004/16/16 06:15:31  5-MIN K12N 161115Z AUTO 03004KT 04/M02 A3046 90 64 -1100 050/04 RMK AO1 T00441017
54779K12N 12N20160416062010004/16/16 06:20:31  5-MIN K12N 161120Z AUTO 04005KT 05/M02 A3046 90 62 -1000 050/05 RMK AO1 T00501017
54779K12N 12N20160416062509904/16/16 06:25:31  5-MIN K12N 161125Z AUTO 03004KT 06/M02 A3046 90 59 -900 040/04 RMK AO1 T00561017
54779K12N 12N20160416063009904/16/16 06:30:31  5-MIN K12N 161130Z AUTO 03005KT 06/M02 A3046 90 59 -900 040/05 RMK AO1 T00561017
54779K12N 12N20160416063509904/16/16 06:35:31  5-MIN K12N 161135Z AUTO 04005KT 06/M02 A3046 90 57 -900 050/05 RMK AO1 T00611017
54779K12N 12N20160416064009904/16/16 06:40:31  5-MIN K12N 161140Z AUTO 04005KT 06/M02 A3046 90 55 -900 050/05 RMK AO1 T00611022
54779K12N 12N20160416064509904/16/16 06:45:31  5-MIN K12N 161145Z AUTO 03004KT 06/M02 A3046 90 55 -900 050/04 RMK AO1 T00611022
54779K12N 12N20160416065012404/16/16 06:50:31  5-MIN K12N 161150Z AUTO 04006KT 07/M03 A3046 90 51 -800 050/06 RMK AO1 SLP320 T00671028 10067 20022 53003
54779K12N 12N20160416065509904/16/16 06:55:31  5-MIN K12N 161155Z AUTO 04006KT 07/M03 A3047 80 51 -800 050/06 RMK AO1 T00671028
54779K12N 12N20160416070009904/16/16 07:00:31  5-MIN K12N 161200Z AUTO 04006KT 07/M03 A3047 80 49 -700 050/06 RMK AO1 T00721028
54779K12N 12N20160416070509904/16/16 07:05:31  5-MIN K12N 161205Z AUTO 03005KT 07/M03 A3047 80 49 -700 050/05 RMK AO1 T00721028
54779K12N 12N20160416071009904/16/16 07:10:31  5-MIN K12N 161210Z AUTO VRB05KT 07/M02 A3047 80 51 -700 VRB/05 RMK AO1 T00721022
54779K12N 12N20160416071509904/16/16 07:15:31  5-MIN K12N 161215Z AUTO 03005KT 08/M02 A3047 80 51 -700 050/05 RMK AO1 T00781017
54779K12N 12N20160416072009904/16/16 07:20:31  5-MIN K12N 161220Z AUTO 04006KT 08/M02 A3047 80 49 -700 050/06 RMK AO1 T00781022
54779K12N 12N20160416072509904/16/16 07:25:31  5-MIN K12N 161225Z AUTO VRB03KT 08/M02 A3047 80 49 -700 VRB/03 RMK AO1 T00781022
54779K12N 12N20160416073009904/16/16 07:30:31  5-MIN K12N 161230Z AUTO VRB03KT 08/M02 A3047 80 49 -600 VRB/03 RMK AO1 T00831017
54779K12N 12N20160416073509904/16/16 07:35:31  5-MIN K12N 161235Z AUTO 03005KT 09/M02 A3047 80 47 -500 050/05 RMK AO1 T00891017
54779K12N 12N20160416074009904/16/16 07:40:31  5-MIN K12N 161240Z AUTO VRB03KT 09/M02 A3047 80 45 -500 VRB/03 RMK AO1 T00891022
54779K12N 12N20160416074509904/16/16 07:45:31  5-MIN K12N 161245Z AUTO VRB03KT 09/M02 A3047 80 47 -500 VRB/03 RMK AO1 T00891017
54779K12N 12N20160416075010604/16/16 07:50:31  5-MIN K12N 161250Z AUTO VRB03KT 09/M01 A3047 80 47 -500 VRB/03 RMK AO1 SLP323 T00941011
54779K12N 12N20160416075509904/16/16 07:55:31  5-MIN K12N 161255Z AUTO 00000KT 09/M02 A3047 80 45 -500 000/00 RMK AO1 T00941017
54779K12N 12N20160416080009904/16/16 08:00:31  5-MIN K12N 161300Z AUTO VRB04KT 10/M02 A3047 80 44 -400 VRB/04 RMK AO1 T01001017
54779K12N 12N20160416080509904/16/16 08:05:31  5-MIN K12N 161305Z AUTO VRB04KT 10/M02 A3047 80 42 -400 VRB/04 RMK AO1 T01001022
54779K12N 12N20160416081009904/16/16 08:10:31  5-MIN K12N 161310Z AUTO 00000KT 10/M03 A3048 80 40 -400 000/00 RMK AO1 T01001028
54779K12N 12N20160416081509904/16/16 08:15:31  5-MIN K12N 161315Z AUTO VRB03KT 10/M03 A3048 80 40 -400 VRB/03 RMK AO1 T01001028
54779K12N 12N20160416082009904/16/16 08:20:31  5-MIN K12N 161320Z AUTO VRB03KT 10/M03 A3048 70 39 -400 VRB/03 RMK AO1 T01001033
54779K12N 12N20160416082509904/16/16 08:25:31  5-MIN K12N 161325Z AUTO VRB03KT 11/M03 A3047 80 39 -300 VRB/03 RMK AO1 T01061028
54779K12N 12N20160416083009904/16/16 08:30:31  5-MIN K12N 161330Z AUTO 36005KT 11/M03 A3048 80 39 -300 020/05 RMK AO1 T01061028
54779K12N 12N20160416083509904/16/16 08:35:31  5-MIN K12N 161335Z AUTO 36005KT 11/M03 A3048 80 37 -300 010/05 RMK AO1 T01061033
54779K12N 12N20160416084009904/16/16 08:40:31  5-MIN K12N 161340Z AUTO VRB05KT 11/M04 A3048 80 36 -300 VRB/05 RMK AO1 T01061039
54779K12N 12N20160416084509904/16/16 08:45:31  5-MIN K12N 161345Z AUTO 36004KT 11/M04 A3048 70 34 -300 010/04 RMK AO1 T01111039
54779K12N 12N20160416085010604/16/16 08:50:31  5-MIN K12N 161350Z AUTO VRB05KT 11/M04 A3048 70 34 -300 VRB/05 RMK AO1 SLP324 T01111039
54779K12N 12N20160416085509904/16/16 08:55:31  5-MIN K12N 161355Z AUTO VRB06KT 11/M04 A3048 70 34 -300 VRB/06 RMK AO1 T01111039
54779K12N 12N20160416090009904/16/16 09:00:31  5-MIN K12N 161400Z AUTO 35006KT 11/M04 A3047 80 33 -300 010/06 RMK AO1 T01111044
54779K12N 12N20160416090509904/16/16 09:05:31  5-MIN K12N 161405Z AUTO VRB05KT 12/M05 A3047 80 30 -200 VRB/05 RMK AO1 T01171050
54779K12N 12N20160416091009904/16/16 09:10:31  5-MIN K12N 161410Z AUTO VRB03KT 12/M06 A3047 80 28 -200 VRB/03 RMK AO1 T01171061
54779K12N 12N20160416091509904/16/16 09:15:31  5-MIN K12N 161415Z AUTO 03006KT 12/M06 A3047 80 28 -100 040/06 RMK AO1 T01221056
54779K12N 12N20160416092009904/16/16 09:20:31  5-MIN K12N 161420Z AUTO VRB04KT 12/M06 A3047 80 28 -100 VRB/04 RMK AO1 T01221056
54779K12N 12N20160416092509904/16/16 09:25:31  5-MIN K12N 161425Z AUTO VRB06KT 12/M06 A3047 80 28 -100 VRB/06 RMK AO1 T01221056
54779K12N 12N20160416093009904/16/16 09:30:31  5-MIN K12N 161430Z AUTO 35005KT 12/M06 A3047 80 27 -100 360/05 RMK AO1 T01221061
54779K12N 12N20160416093509904/16/16 09:35:31  5-MIN K12N 161435Z AUTO 00000KT 12/M07 A3047 80 26 -100 000/00 RMK AO1 T01221067
54779K12N 12N20160416094009904/16/16 09:40:31  5-MIN K12N 161440Z AUTO VRB04KT 13/M04 A3047 80 31 -100 VRB/04 RMK AO1 T01281039
54779K12N 12N20160416094509904/16/16 09:45:31  5-MIN K12N 161445Z AUTO 04005KT 13/M05 A3047 80 28 -100 050/05 RMK AO1 T01281050
54779K12N 12N20160416095011204/16/16 09:50:31  5-MIN K12N 161450Z AUTO VRB04KT 13/M04 A3047 80 30 -100 VRB/04 RMK AO1 SLP320 T01281044 51021
54779K12N 12N20160416095509604/16/16 09:55:31  5-MIN K12N 161455Z AUTO 35003KT 13/M04 A3047 80 28 0 010/03 RMK AO1 T01331044
54779K12N 12N20160416100009904/16/16 10:00:31  5-MIN K12N 161500Z AUTO VRB03KT 13/M05 A3046 90 28 -100 VRB/03 RMK AO1 T01281050
54779K12N 12N20160416100509604/16/16 10:05:31  5-MIN K12N 161505Z AUTO VRB05KT 13/M06 A3046 90 26 0 VRB/05 RMK AO1 T01331056
54779K12N 12N20160416101009904/16/16 10:10:31  5-MIN K12N 161510Z AUTO 36003KT 13/M05 A3046 90 28 -100 010/03 RMK AO1 T01281050
54779K12N 12N20160416101509604/16/16 10:15:31  5-MIN K12N 161515Z AUTO 00000KT 13/M06 A3046 90 26 0 000/00 RMK AO1 T01331056
54779K12N 12N20160416102009604/16/16 10:20:31  5-MIN K12N 161520Z AUTO VRB06KT 13/M04 A3046 90 28 0 VRB/06 RMK AO1 T01331044
54779K12N 12N20160416102509604/16/16 10:25:31  5-MIN K12N 161525Z AUTO VRB06KT 13/M04 A3046 90 28 0 VRB/06 RMK AO1 T01331044
54779K12N 12N20160416103009704/16/16 10:30:31  5-MIN K12N 161530Z AUTO VRB05KT 13/M04 A3045 100 28 0 VRB/05 RMK AO1 T01331044
54779K12N 12N20160416103509704/16/16 10:35:31  5-MIN K12N 161535Z AUTO VRB06KT 14/M04 A3045 100 27 0 VRB/06 RMK AO1 T01391044
54779K12N 12N20160416104009704/16/16 10:40:31  5-MIN K12N 161540Z AUTO VRB04KT 13/M06 A3045 100 26 0 VRB/04 RMK AO1 T01331056
54779K12N 12N20160416104509704/16/16 10:45:31  5-MIN K12N 161545Z AUTO 03005KT 14/M04 A3045 100 27 0 040/05 RMK AO1 T01391044
54779K12N 12N20160416105010404/16/16 10:50:31  5-MIN K12N 161550Z AUTO VRB04KT 14/M06 A3045 100 25 0 VRB/04 RMK AO1 SLP313 T01391056
54779K12N 12N20160416105509704/16/16 10:55:31  5-MIN K12N 161555Z AUTO 35006KT 14/M06 A3044 100 25 0 010/06 RMK AO1 T01391056
54779K12N 12N20160416110009704/16/16 11:00:31  5-MIN K12N 161600Z AUTO 03004KT 14/M05 A3044 110 26 0 040/04 RMK AO1 T01391050
54779K12N 12N20160416110509904/16/16 11:05:31  5-MIN K12N 161605Z AUTO VRB05KT 14/M04 A3044 100 26 100 VRB/05 RMK AO1 T01441044
54779K12N 12N20160416111009704/16/16 11:10:31  5-MIN K12N 161610Z AUTO VRB05KT 14/M05 A3044 110 26 0 VRB/05 RMK AO1 T01391050
54779K12N 12N20160416111509904/16/16 11:15:31  5-MIN K12N 161615Z AUTO 00000KT 14/M04 A3044 110 26 100 000/00 RMK AO1 T01441044
54779K12N 12N20160416112008904/16/16 11:20:31  5-MIN K12N 161620Z AUTO 15/M04 A3044 110 27 200 M /M RMK AO1 T01501039
54779K12N 12N20160416112509904/16/16 11:25:31  5-MIN K12N 161625Z AUTO VRB04KT 14/M04 A3044 110 26 100 VRB/04 RMK AO1 T01441044
54779K12N 12N20160416113010504/16/16 11:30:31  5-MIN K12N 161630Z AUTO 36008G15KT 14/M05 A3044 110 25 100 010/08G15 RMK AO1 T01441050
54779K12N 12N20160416113512104/16/16 11:35:31  5-MIN K12N 161635Z AUTO 03009G15KT 360V060 14/M05 A3044 110 25 100 050/09G15 010V070 RMK AO1 T01441050
54779K12N 12N20160416114008904/16/16 11:40:31  5-MIN K12N 161640Z AUTO 14/M06 A3044 110 23 100 M /M RMK AO1 T01441061
54779K12N 12N20160416114509904/16/16 11:45:31  5-MIN K12N 161645Z AUTO VRB05KT 15/M06 A3043 110 22 200 VRB/05 RMK AO1 T01501061
54779K12N 12N20160416115010604/16/16 11:50:31  5-MIN K12N 161650Z AUTO VRB06KT 15/M04 A3043 110 25 200 VRB/06 RMK AO1 SLP309 T01501044
54779K12N 12N20160416115511504/16/16 11:55:31  5-MIN K12N 161655Z AUTO 04008KT 360V060 15/M06 A3043 110 22 200 050/08 010V070 RMK AO1 T01501061
54779K12N 12N20160416120009904/16/16 12:00:31  5-MIN K12N 161700Z AUTO VRB04KT 15/M07 A3043 120 22 200 VRB/04 RMK AO1 T01501067
54779K12N 12N20160416120509904/16/16 12:05:31  5-MIN K12N 161705Z AUTO 04006KT 16/M06 A3043 120 22 300 050/06 RMK AO1 T01561061
54779K12N 12N20160416121011504/16/16 12:10:31  5-MIN K12N 161710Z AUTO 06007KT 030V090 16/M06 A3043 120 22 300 070/07 040V100 RMK AO1 T01561061
54779K12N 12N20160416121509904/16/16 12:15:31  5-MIN K12N 161715Z AUTO VRB06KT 16/M07 A3043 120 21 300 VRB/06 RMK AO1 T01561067
54779K12N 12N20160416122011504/16/16 12:20:31  5-MIN K12N 161720Z AUTO 03007KT 350V060 16/M06 A3043 120 23 300 040/07 360V070 RMK AO1 T01561056
54779K12N 12N20160416122509904/16/16 12:25:31  5-MIN K12N 161725Z AUTO VRB06KT 16/M06 A3042 120 21 300 VRB/06 RMK AO1 T01611061
54779K12N 12N20160416123009904/16/16 12:30:31  5-MIN K12N 161730Z AUTO VRB04KT 16/M06 A3042 130 23 300 VRB/04 RMK AO1 T01561056
54779K12N 12N20160416123509904/16/16 12:35:31  5-MIN K12N 161735Z AUTO VRB06KT 16/M07 A3042 130 21 300 VRB/06 RMK AO1 T01561067
54779K12N 12N20160416124009904/16/16 12:40:31  5-MIN K12N 161740Z AUTO VRB05KT 16/M06 A3042 130 21 300 VRB/05 RMK AO1 T01611061
54779K12N 12N20160416124509904/16/16 12:45:31  5-MIN K12N 161745Z AUTO 05009KT 16/M05 A3042 130 23 300 060/09 RMK AO1 T01611050
54779K12N 12N20160416125012404/16/16 12:50:31  5-MIN K12N 161750Z AUTO VRB06KT 16/M06 A3041 130 21 300 VRB/06 RMK AO1 SLP303 T01611061 10167 20067 50001
54779K12N 12N20160416125509904/16/16 12:55:31  5-MIN K12N 161755Z AUTO VRB06KT 17/M05 A3041 130 22 400 VRB/06 RMK AO1 T01671050
54779K12N 12N20160416130010504/16/16 13:00:31  5-MIN K12N 161800Z AUTO 04010G14KT 16/M06 A3041 130 21 300 060/10G14 RMK AO1 T01611061
54779K12N 12N20160416130510504/16/16 13:05:31  5-MIN K12N 161805Z AUTO 03005G14KT 17/M07 A3041 130 18 400 050/05G14 RMK AO1 T01671072
54779K12N 12N20160416131012104/16/16 13:10:31  5-MIN K12N 161810Z AUTO 03009G16KT 350V070 17/M05 A3041 130 21 500 050/09G16 360V080 RMK AO1 T01721050
54779K12N 12N20160416131510504/16/16 13:15:31  5-MIN K12N 161815Z AUTO 05009G16KT 17/M07 A3041 140 19 400 070/09G16 RMK AO1 T01671067
54779K12N 12N20160416132010504/16/16 13:20:31  5-MIN K12N 161820Z AUTO VRB04G15KT 17/M06 A3041 140 19 500 VRB/04G15 RMK AO1 T01721061
54779K12N 12N20160416132509904/16/16 13:25:31  5-MIN K12N 161825Z AUTO VRB06KT 17/M06 A3041 140 19 500 VRB/06 RMK AO1 T01721061
54779K12N 12N20160416133009904/16/16 13:30:31  5-MIN K12N 161830Z AUTO VRB05KT 17/M04 A3041 140 22 500 VRB/05 RMK AO1 T01721044
54779K12N 12N20160416133509904/16/16 13:35:31  5-MIN K12N 161835Z AUTO 03007KT 18/M06 A3041 140 19 500 040/07 RMK AO1 T01781061
54779K12N 12N20160416134011504/16/16 13:40:31  5-MIN K12N 161840Z AUTO 36008KT 350V060 17/M07 A3040 140 19 500 020/08 360V070 RMK AO1 T01721067
54779K12N 12N20160416134511504/16/16 13:45:31  5-MIN K12N 161845Z AUTO 01007KT 340V040 17/M07 A3040 140 19 500 020/07 350V050 RMK AO1 T01721067
54779K12N 12N20160416135010604/16/16 13:50:31  5-MIN K12N 161850Z AUTO 03006KT 18/M06 A3040 140 19 500 040/06 RMK AO1 SLP297 T01781061
54779K12N 12N20160416135509904/16/16 13:55:31  5-MIN K12N 161855Z AUTO VRB06KT 18/M07 A3040 150 18 500 VRB/06 RMK AO1 T01781067
54779K12N 12N20160416140009904/16/16 14:00:31  5-MIN K12N 161900Z AUTO 35009KT 18/M06 A3040 150 19 500 010/09 RMK AO1 T01781061
54779K12N 12N20160416140509904/16/16 14:05:31  5-MIN K12N 161905Z AUTO VRB06KT 18/M07 A3040 150 17 500 VRB/06 RMK AO1 T01781072
54779K12N 12N20160416141010504/16/16 14:10:31  5-MIN K12N 161910Z AUTO 04008G14KT 18/M08 A3039 150 16 600 060/08G14 RMK AO1 T01781078
54779K12N 12N20160416141512104/16/16 14:15:31  5-MIN K12N 161915Z AUTO 03009G15KT 360V060 18/M08 A3039 150 16 600 050/09G15 010V070 RMK AO1 T01781078
54779K12N 12N20160416142010504/16/16 14:20:31  5-MIN K12N 161920Z AUTO VRB05G15KT 18/M07 A3039 150 17 600 VRB/05G15 RMK AO1 T01831067
54779K12N 12N20160416142509904/16/16 14:25:31  5-MIN K12N 161925Z AUTO VRB05KT 18/M06 A3039 150 18 600 VRB/05 RMK AO1 T01831061
54779K12N 12N20160416143009904/16/16 14:30:31  5-MIN K12N 161930Z AUTO 04007KT 18/M07 A3039 160 17 600 050/07 RMK AO1 T01831067
54779K12N 12N20160416143509904/16/16 14:35:31  5-MIN K12N 161935Z AUTO 05006KT 18/M07 A3038 160 17 600 070/06 RMK AO1 T01831072
54779K12N 12N20160416144009904/16/16 14:40:31  5-MIN K12N 161940Z AUTO VRB05KT 19/M07 A3038 160 17 700 VRB/05 RMK AO1 T01891067
54779K12N 12N20160416144511504/16/16 14:45:31  5-MIN K12N 161945Z AUTO 02007KT 350V050 19/M07 A3038 160 16 700 030/07 360V060 RMK AO1 T01891072
54779K12N 12N20160416145010604/16/16 14:50:31  5-MIN K12N 161950Z AUTO 04009KT 18/M07 A3038 160 17 600 050/09 RMK AO1 SLP291 T01831067
54779K12N 12N20160416145509904/16/16 14:55:31  5-MIN K12N 161955Z AUTO 05006KT 18/M08 A3038 160 16 600 070/06 RMK AO1 T01831078
54779K12N 12N20160416150011504/16/16 15:00:31  5-MIN K12N 162000Z AUTO 03007KT 350V080 19/M07 A3038 160 16 700 040/07 360V090 RMK AO1 T01891072
54779K12N 12N20160416150509904/16/16 15:05:31  5-MIN K12N 162005Z AUTO VRB04KT 19/M07 A3038 160 16 700 VRB/04 RMK AO1 T01891072
54779K12N 12N20160416151009904/16/16 15:10:31  5-MIN K12N 162010Z AUTO 04008KT 19/M07 A3038 160 17 700 060/08 RMK AO1 T01891067
54779K12N 12N20160416151509904/16/16 15:15:31  5-MIN K12N 162015Z AUTO 03006KT 19/M09 A3038 170 14 700 040/06 RMK AO1 T01891089
54779K12N 12N20160416152009904/16/16 15:20:31  5-MIN K12N 162020Z AUTO 05005KT 19/M08 A3038 170 15 700 060/05 RMK AO1 T01891078
54779K12N 12N20160416152508904/16/16 15:25:31  5-MIN K12N 162025Z AUTO 19/M07 A3037 170 15 800 M /M RMK AO1 T01941072
54779K12N 12N20160416153009904/16/16 15:30:31  5-MIN K12N 162030Z AUTO 03007KT 19/M08 A3037 170 15 700 040/07 RMK AO1 T01891083
54779K12N 12N20160416153509904/16/16 15:35:31  5-MIN K12N 162035Z AUTO 05006KT 19/M09 A3037 170 13 700 060/06 RMK AO1 T01891094
54779K12N 12N20160416154009904/16/16 15:40:31  5-MIN K12N 162040Z AUTO 05008KT 19/M08 A3037 170 15 700 060/08 RMK AO1 T01891078
54779K12N 12N20160416154509904/16/16 15:45:31  5-MIN K12N 162045Z AUTO VRB03KT 19/M08 A3037 170 15 700 VRB/03 RMK AO1 T01891078
54779K12N 12N20160416155011204/16/16 15:50:31  5-MIN K12N 162050Z AUTO VRB05KT 19/M06 A3037 170 17 700 VRB/05 RMK AO1 SLP285 T01891061 56018
54779K12N 12N20160416155509904/16/16 15:55:31  5-MIN K12N 162055Z AUTO VRB05KT 19/M06 A3037 170 18 700 VRB/05 RMK AO1 T01891056
54779K12N 12N20160416160009904/16/16 16:00:31  5-MIN K12N 162100Z AUTO VRB04KT 19/M07 A3037 170 16 800 VRB/04 RMK AO1 T01941067
54779K12N 12N20160416160509904/16/16 16:05:31  5-MIN K12N 162105Z AUTO VRB05KT 19/M05 A3037 170 19 700 VRB/05 RMK AO1 T01891050
54779K12N 12N20160416161009904/16/16 16:10:31  5-MIN K12N 162110Z AUTO VRB05KT 19/M07 A3037 170 17 700 VRB/05 RMK AO1 T01891067
54779K12N 12N20160416161509904/16/16 16:15:31  5-MIN K12N 162115Z AUTO 36006KT 19/M07 A3037 170 16 700 020/06 RMK AO1 T01891072
54779K12N 12N20160416162009904/16/16 16:20:31  5-MIN K12N 162120Z AUTO VRB03KT 19/M07 A3037 170 17 700 VRB/03 RMK AO1 T01891067
54779K12N 12N20160416162509904/16/16 16:25:31  5-MIN K12N 162125Z AUTO VRB04KT 19/M07 A3037 170 17 700 VRB/04 RMK AO1 T01891067
54779K12N 12N20160416163009904/16/16 16:30:31  5-MIN K12N 162130Z AUTO VRB05KT 19/M07 A3037 170 16 700 VRB/05 RMK AO1 T01891072
54779K12N 12N20160416163509904/16/16 16:35:31  5-MIN K12N 162135Z AUTO VRB04KT 19/M08 A3037 170 15 700 VRB/04 RMK AO1 T01891078
54779K12N 12N20160416164009904/16/16 16:40:31  5-MIN K12N 162140Z AUTO VRB04KT 19/M08 A3037 170 15 700 VRB/04 RMK AO1 T01891083
54779K12N 12N20160416164509904/16/16 16:45:31  5-MIN K12N 162145Z AUTO VRB04KT 19/M06 A3037 170 18 700 VRB/04 RMK AO1 T01891056
54779K12N 12N20160416165010604/16/16 16:50:31  5-MIN K12N 162150Z AUTO VRB06KT 19/M06 A3037 170 18 700 VRB/06 RMK AO1 SLP286 T01891056
54779K12N 12N20160416165509904/16/16 16:55:31  5-MIN K12N 162155Z AUTO VRB04KT 19/M07 A3037 170 17 700 VRB/04 RMK AO1 T01891067
54779K12N 12N20160416170009904/16/16 17:00:31  5-MIN K12N 162200Z AUTO VRB05KT 19/M08 A3037 170 15 700 VRB/05 RMK AO1 T01891078
54779K12N 12N20160416170509904/16/16 17:05:31  5-MIN K12N 162205Z AUTO VRB04KT 19/M06 A3037 170 17 700 VRB/04 RMK AO1 T01891061
54779K12N 12N20160416171009904/16/16 17:10:31  5-MIN K12N 162210Z AUTO VRB04KT 19/M06 A3037 170 17 700 VRB/04 RMK AO1 T01891061
54779K12N 12N20160416171509904/16/16 17:15:31  5-MIN K12N 162215Z AUTO 01004KT 18/M06 A3037 170 18 600 020/04 RMK AO1 T01831061
54779K12N 12N20160416172009904/16/16 17:20:31  5-MIN K12N 162220Z AUTO VRB04KT 18/M06 A3037 170 19 600 VRB/04 RMK AO1 T01831056
54779K12N 12N20160416172509904/16/16 17:25:31  5-MIN K12N 162225Z AUTO VRB05KT 19/M07 A3037 170 17 700 VRB/05 RMK AO1 T01891067
54779K12N 12N20160416173008904/16/16 17:30:31  5-MIN K12N 162230Z AUTO 18/M07 A3037 170 17 600 M /M RMK AO1 T01831067
54779K12N 12N20160416173509904/16/16 17:35:31  5-MIN K12N 162235Z AUTO VRB04KT 18/M06 A3037 170 18 600 VRB/04 RMK AO1 T01831061
54779K12N 12N20160416174009904/16/16 17:40:31  5-MIN K12N 162240Z AUTO VRB04KT 18/M04 A3037 170 21 600 VRB/04 RMK AO1 T01781044
54779K12N 12N20160416174509904/16/16 17:45:31  5-MIN K12N 162245Z AUTO VRB04KT 18/M06 A3037 170 19 600 VRB/04 RMK AO1 T01831056
54779K12N 12N20160416175010604/16/16 17:50:31  5-MIN K12N 162250Z AUTO VRB04KT 18/M06 A3037 170 20 600 VRB/04 RMK AO1 SLP286 T01781056
54779K12N 12N20160416175509904/16/16 17:55:31  5-MIN K12N 162255Z AUTO 04005KT 17/M07 A3037 170 19 500 050/05 RMK AO1 T01721067
54779K12N 12N20160416180009904/16/16 18:00:31  5-MIN K12N 162300Z AUTO 00000KT 17/M06 A3037 170 20 500 000/00 RMK AO1 T01721056
54779K12N 12N20160416180509904/16/16 18:05:31  5-MIN K12N 162305Z AUTO 00000KT 17/M05 A3037 170 22 400 000/00 RMK AO1 T01671050
54779K12N 12N20160416181009904/16/16 18:10:31  5-MIN K12N 162310Z AUTO 00000KT 17/M05 A3037 170 22 400 000/00 RMK AO1 T01671050
54779K12N 12N20160416181509904/16/16 18:15:31  5-MIN K12N 162315Z AUTO VRB03KT 16/M04 A3037 170 25 400 VRB/03 RMK AO1 T01611039
54779K12N 12N20160416182009904/16/16 18:20:31  5-MIN K12N 162320Z AUTO VRB03KT 16/M04 A3037 170 24 400 VRB/03 RMK AO1 T01611044
54779K12N 12N20160416182509904/16/16 18:25:31  5-MIN K12N 162325Z AUTO VRB03KT 16/M03 A3037 170 26 400 VRB/03 RMK AO1 T01611033
54779K12N 12N20160416183009904/16/16 18:30:31  5-MIN K12N 162330Z AUTO 00000KT 16/M03 A3037 170 27 300 000/00 RMK AO1 T01561033
54779K12N 12N20160416183509904/16/16 18:35:31  5-MIN K12N 162335Z AUTO 00000KT 16/M04 A3037 170 26 300 000/00 RMK AO1 T01561039
54779K12N 12N20160416184009904/16/16 18:40:31  5-MIN K12N 162340Z AUTO 00000KT 15/M04 A3038 170 27 200 000/00 RMK AO1 T01501039
54779K12N 12N20160416184509904/16/16 18:45:31  5-MIN K12N 162345Z AUTO 00000KT 15/M02 A3038 170 30 200 000/00 RMK AO1 T01501022
54779K12N 12N20160416185012404/16/16 18:50:31  5-MIN K12N 162350Z AUTO 00000KT 14/M01 A3038 160 34 200 000/00 RMK AO1 SLP290 T01441011 10194 20144 56015
54779K12N 12N20160416185509904/16/16 18:55:31  5-MIN K12N 162355Z AUTO 00000KT 14/M02 A3038 160 32 100 000/00 RMK AO1 T01391022
54779K12N 12N20160416190009604/16/16 19:00:31  5-MIN K12N 170000Z AUTO 00000KT 13/02 A3038 160 46 0 000/00 RMK AO1 T01330022
54779K12N 12N20160416190509704/16/16 19:05:31  5-MIN K12N 170005Z AUTO 00000KT 13/M02 A3038 160 35 0 000/00 RMK AO1 T01331017
54779K12N 12N20160416191009704/16/16 19:10:31  5-MIN K12N 170010Z AUTO 00000KT 12/M01 A3039 160 39 0 000/00 RMK AO1 T01221011
54779K12N 12N20160416191509904/16/16 19:15:31  5-MIN K12N 170015Z AUTO 00000KT 12/02 A3039 150 52 -100 000/00 RMK AO1 T01170022
54779K12N 12N20160416192009904/16/16 19:20:31  5-MIN K12N 170020Z AUTO 00000KT 12/03 A3039 150 54 -100 000/00 RMK AO1 T01170028
54779K12N 12N20160416192509904/16/16 19:25:31  5-MIN K12N 170025Z AUTO 00000KT 12/03 A3039 150 54 -100 000/00 RMK AO1 T01170028
54779K12N 12N20160416193009904/16/16 19:30:31  5-MIN K12N 170030Z AUTO 00000KT 11/02 A3039 150 52 -200 000/00 RMK AO1 T01110017
54779K12N 12N20160416193509904/16/16 19:35:31  5-MIN K12N 170035Z AUTO 00000KT 11/02 A3039 150 54 -200 000/00 RMK AO1 T01110022
54779K12N 12N20160416194009904/16/16 19:40:31  5-MIN K12N 170040Z AUTO 00000KT 11/03 A3040 150 58 -300 000/00 RMK AO1 T01060028
54779K12N 12N20160416194509904/16/16 19:45:31  5-MIN K12N 170045Z AUTO 00000KT 11/02 A3040 150 56 -300 000/00 RMK AO1 T01060022
54779K12N 12N20160416195010604/16/16 19:50:31  5-MIN K12N 170050Z AUTO 00000KT 11/02 A3040 150 54 -200 000/00 RMK AO1 SLP297 T01110022
54779K12N 12N20160416195509904/16/16 19:55:31  5-MIN K12N 170055Z AUTO 00000KT 11/03 A3040 140 61 -300 000/00 RMK AO1 T01060033
54779K12N 12N20160416200009904/16/16 20:00:31  5-MIN K12N 170100Z AUTO 00000KT 10/03 A3040 140 63 -300 000/00 RMK AO1 T01000033
54779K12N 12N20160416200509904/16/16 20:05:31  5-MIN K12N 170105Z AUTO 02003KT 11/01 A3040 140 50 -300 040/03 RMK AO1 T01060006
54779K12N 12N20160416201009904/16/16 20:10:31  5-MIN K12N 170110Z AUTO 02003KT 11/02 A3040 140 54 -300 040/03 RMK AO1 T01060017
54779K12N 12N20160416201509904/16/16 20:15:31  5-MIN K12N 170115Z AUTO 02003KT 11/03 A3040 140 58 -300 040/03 RMK AO1 T01060028
54779K12N 12N20160416202009904/16/16 20:20:31  5-MIN K12N 170120Z AUTO 00000KT 10/02 A3041 140 58 -300 000/00 RMK AO1 T01000022
54779K12N 12N20160416202509904/16/16 20:25:31  5-MIN K12N 170125Z AUTO 00000KT 10/01 A3041 140 54 -300 000/00 RMK AO1 T01000011
54779K12N 12N20160416203009904/16/16 20:30:31  5-MIN K12N 170130Z AUTO 00000KT 10/02 A3041 130 56 -300 000/00 RMK AO1 T01000017
54779K12N 12N20160416203509904/16/16 20:35:31  5-MIN K12N 170135Z AUTO 00000KT 10/02 A3041 140 58 -300 000/00 RMK AO1 T01000022
54779K12N 12N20160416204009904/16/16 20:40:31  5-MIN K12N 170140Z AUTO 00000KT 09/02 A3041 130 58 -400 000/00 RMK AO1 T00940017
54779K12N 12N20160416204509904/16/16 20:45:31  5-MIN K12N 170145Z AUTO 00000KT 09/03 A3041 130 63 -400 000/00 RMK AO1 T00940028
54779K12N 12N20160416205010604/16/16 20:50:31  5-MIN K12N 170150Z AUTO 00000KT 09/04 A3042 130 71 -500 000/00 RMK AO1 SLP302 T00890039
54779K12N 12N20160416205509904/16/16 20:55:31  5-MIN K12N 170155Z AUTO 00000KT 09/03 A3042 130 68 -500 000/00 RMK AO1 T00890033
54779K12N 12N20160416210009904/16/16 21:00:31  5-MIN K12N 170200Z AUTO 00000KT 09/03 A3042 130 65 -500 000/00 RMK AO1 T00890028
54779K12N 12N20160416210509904/16/16 21:05:31  5-MIN K12N 170205Z AUTO 00000KT 08/01 A3042 130 62 -600 000/00 RMK AO1 T00780011
54779K12N 12N20160416211009904/16/16 21:10:31  5-MIN K12N 170210Z AUTO 00000KT 08/01 A3042 130 60 -600 000/00 RMK AO1 T00830011
54779K12N 12N20160416211509904/16/16 21:15:31  5-MIN K12N 170215Z AUTO 00000KT 09/01 A3042 130 58 -500 000/00 RMK AO1 T00890011
54779K12N 12N20160416212009904/16/16 21:20:31  5-MIN K12N 170220Z AUTO 00000KT 08/02 A3042 120 63 -600 000/00 RMK AO1 T00830017
54779K12N 12N20160416212509904/16/16 21:25:31  5-MIN K12N 170225Z AUTO 00000KT 08/02 A3042 120 63 -600 000/00 RMK AO1 T00830017
54779K12N 12N20160416213009904/16/16 21:30:31  5-MIN K12N 170230Z AUTO 00000KT 08/01 A3042 120 60 -600 000/00 RMK AO1 T00830011
54779K12N 12N20160416213509904/16/16 21:35:31  5-MIN K12N 170235Z AUTO 00000KT 09/01 A3042 120 58 -500 000/00 RMK AO1 T00890011
54779K12N 12N20160416214009904/16/16 21:40:31  5-MIN K12N 170240Z AUTO 00000KT 08/02 A3042 120 65 -600 000/00 RMK AO1 T00780017
54779K12N 12N20160416214509904/16/16 21:45:31  5-MIN K12N 170245Z AUTO 00000KT 08/02 A3043 120 68 -600 000/00 RMK AO1 T00780022
54779K12N 12N20160416215011204/16/16 21:50:31  5-MIN K12N 170250Z AUTO 00000KT 08/01 A3043 120 60 -600 000/00 RMK AO1 SLP307 T00780006 53003
54779K12N 12N20160416215510004/16/16 21:55:31  5-MIN K12N 170255Z AUTO 00000KT 07/M01 A3043 120 57 -700 000/00 RMK AO1 T00721006
54779K12N 12N20160416220009904/16/16 22:00:31  5-MIN K12N 170300Z AUTO 00000KT 08/01 A3043 120 60 -600 000/00 RMK AO1 T00780006
54779K12N 12N20160416220509904/16/16 22:05:31  5-MIN K12N 170305Z AUTO 00000KT 08/02 A3043 120 65 -600 000/00 RMK AO1 T00780017
54779K12N 12N20160416221009904/16/16 22:10:31  5-MIN K12N 170310Z AUTO 00000KT 07/02 A3043 120 70 -700 000/00 RMK AO1 T00720022
54779K12N 12N20160416221509904/16/16 22:15:31  5-MIN K12N 170315Z AUTO 00000KT 07/02 A3043 110 73 -800 000/00 RMK AO1 T00670022
54779K12N 12N20160416222009904/16/16 22:20:31  5-MIN K12N 170320Z AUTO 00000KT 07/02 A3043 110 73 -800 000/00 RMK AO1 T00670022
54779K12N 12N20160416222509904/16/16 22:25:31  5-MIN K12N 170325Z AUTO 21004KT 07/02 A3044 110 70 -700 220/04 RMK AO1 T00720022
54779K12N 12N20160416223009904/16/16 22:30:31  5-MIN K12N 170330Z AUTO 22003KT 07/02 A3044 110 68 -700 230/03 RMK AO1 T00720017
54779K12N 12N20160416223509904/16/16 22:35:31  5-MIN K12N 170335Z AUTO VRB04KT 07/01 A3044 110 65 -700 VRB/04 RMK AO1 T00720011
54779K12N 12N20160416224010004/16/16 22:40:31  5-MIN K12N 170340Z AUTO 00000KT 08/M01 A3044 110 53 -600 000/00 RMK AO1 T00831006
54779K12N 12N20160416224510004/16/16 22:45:31  5-MIN K12N 170345Z AUTO 00000KT 08/M01 A3044 110 53 -600 000/00 RMK AO1 T00831006
54779K12N 12N20160416225010704/16/16 22:50:31  5-MIN K12N 170350Z AUTO 18003KT 08/M01 A3044 110 53 -600 200/03 RMK AO1 SLP310 T00831006
54779K12N 12N20160416225509904/16/16 22:55:31  5-MIN K12N 170355Z AUTO 00000KT 08/00 A3044 110 55 -600 000/00 RMK AO1 T00830000
54779K12N 12N20160416230010004/16/16 23:00:31  5-MIN K12N 170400Z AUTO 19004KT 08/M01 A3044 110 53 -600 200/04 RMK AO1 T00831006
54779K12N 12N20160416230510004/16/16 23:05:31  5-MIN K12N 170405Z AUTO 00000KT 09/M02 A3044 110 45 -500 000/00 RMK AO1 T00891022
54779K12N 12N20160416231010004/16/16 23:10:31  5-MIN K12N 170410Z AUTO 19003KT 08/M01 A3044 110 51 -600 200/03 RMK AO1 T00831011
54779K12N 12N20160416231509904/16/16 23:15:31  5-MIN K12N 170415Z AUTO 00000KT 08/01 A3044 110 60 -600 000/00 RMK AO1 T00780006
54779K12N 12N20160416232009904/16/16 23:20:31  5-MIN K12N 170420Z AUTO 00000KT 07/01 A3044 110 62 -700 000/00 RMK AO1 T00720006
54779K12N 12N20160416232509904/16/16 23:25:31  5-MIN K12N 170425Z AUTO 00000KT 06/01 A3044 110 67 -900 000/00 RMK AO1 T00610006
54779K12N 12N20160416233009904/16/16 23:30:31  5-MIN K12N 170430Z AUTO 00000KT 07/01 A3044 100 65 -800 000/00 RMK AO1 T00670006
54779K12N 12N20160416233509904/16/16 23:35:31  5-MIN K12N 170435Z AUTO 00000KT 06/01 A3045 100 67 -900 000/00 RMK AO1 T00610006
54779K12N 12N20160416234009904/16/16 23:40:31  5-MIN K12N 170440Z AUTO 00000KT 06/01 A3045 100 67 -900 000/00 RMK AO1 T00610006
54779K12N 12N20160416234509904/16/16 23:45:31  5-MIN K12N 170445Z AUTO 00000KT 06/01 A3045 100 70 -900 000/00 RMK AO1 T00610011
54779K12N 12N20160416235011604/16/16 23:50:31  5-MIN K12N 170450Z AUTO 00000KT 06/01 A3045 100 67 -900 000/00 RMK AO1 SLP313 T00610006 401940022
54779K12N 12N20160416235509904/16/16 23:55:31  5-MIN K12N 170455Z AUTO 00000KT 07/01 A3045 100 65 -800 000/00 RMK AO1 T00670006
54779K12N 12N20160417000009904/17/16 00:00:31  5-MIN K12N 170500Z AUTO 00000KT 06/01 A3045 100 67 -900 000/00 RMK AO1 T00610006
54779K12N 12N20160417000509904/17/16 00:05:31  5-MIN K12N 170505Z AUTO 00000KT 06/00 A3045 100 67 -900 000/00 RMK AO1 T00560000
54779K12N 12N20160417001009904/17/16 00:10:31  5-MIN K12N 170510Z AUTO 00000KT 06/01 A3045 100 70 -900 000/00 RMK AO1 T00560006
54779K12N 12N20160417001510004/17/16 00:15:31  5-MIN K12N 170515Z AUTO 00000KT 05/00 A3045 100 70 -1000 000/00 RMK AO1 T00500000
54779K12N 12N20160417002010004/17/16 00:20:31  5-MIN K12N 170520Z AUTO 00000KT 05/00 A3045 100 70 -1000 000/00 RMK AO1 T00500000
54779K12N 12N20160417002509904/17/16 00:25:31  5-MIN K12N 170525Z AUTO 00000KT 06/01 A3044 100 73 -900 000/00 RMK AO1 T00560011
54779K12N 12N20160417003009904/17/16 00:30:31  5-MIN K12N 170530Z AUTO 00000KT 06/01 A3044 100 73 -900 000/00 RMK AO1 T00560011
54779K12N 12N20160417003510004/17/16 00:35:31  5-MIN K12N 170535Z AUTO 00000KT 05/01 A3044 100 73 -1000 000/00 RMK AO1 T00500006
54779K12N 12N20160417004009904/17/16 00:40:31  5-MIN K12N 170540Z AUTO 00000KT 06/00 A3044 100 67 -900 000/00 RMK AO1 T00560000
54779K12N 12N20160417004509904/17/16 00:45:31  5-MIN K12N 170545Z AUTO 00000KT 06/00 A3044 110 65 -900 000/00 RMK AO1 T00610000
54779K12N 12N20160417005012404/17/16 00:50:31  5-MIN K12N 170550Z AUTO 00000KT 06/01 A3044 110 73 -900 000/00 RMK AO1 SLP311 T00560011 10139 20050 51017
54779K12N 12N20160417005510004/17/16 00:55:31  5-MIN K12N 170555Z AUTO 00000KT 05/00 A3044 110 70 -1000 000/00 RMK AO1 T00500000
54779K12N 12N20160417010010004/17/16 01:00:31  5-MIN K12N 170600Z AUTO 00000KT 05/01 A3044 110 73 -1000 000/00 RMK AO1 T00500006
54779K12N 12N20160417010510004/17/16 01:05:31  5-MIN K12N 170605Z AUTO 00000KT 05/01 A3044 110 76 -1000 000/00 RMK AO1 T00500011
54779K12N 12N20160417011010004/17/16 01:10:31  5-MIN K12N 170610Z AUTO 00000KT 04/01 A3044 110 79 -1100 000/00 RMK AO1 T00440011
54779K12N 12N20160417011510004/17/16 01:15:31  5-MIN K12N 170615Z AUTO 00000KT 04/01 A3043 110 79 -1100 000/00 RMK AO1 T00390006
54779K12N 12N20160417012010004/17/16 01:20:31  5-MIN K12N 170620Z AUTO 00000KT 05/01 A3044 110 76 -1000 000/00 RMK AO1 T00500011
54779K12N 12N20160417012510004/17/16 01:25:31  5-MIN K12N 170625Z AUTO 00000KT 05/01 A3043 110 76 -1000 000/00 RMK AO1 T00500011
54779K12N 12N20160417013010004/17/16 01:30:31  5-MIN K12N 170630Z AUTO 00000KT 04/00 A3043 110 73 -1000 000/00 RMK AO1 T00440000
54779K12N 12N20160417013510004/17/16 01:35:31  5-MIN K12N 170635Z AUTO 19003KT 04/00 A3043 120 73 -1000 200/03 RMK AO1 T00440000
54779K12N 12N20160417014010104/17/16 01:40:31  5-MIN K12N 170640Z AUTO 21003KT 04/M01 A3043 120 70 -1000 220/03 RMK AO1 T00441006
54779K12N 12N20160417014510104/17/16 01:45:31  5-MIN K12N 170645Z AUTO 00000KT 04/M01 A3043 120 73 -1100 000/00 RMK AO1 T00391006
54779K12N 12N20160417015010704/17/16 01:50:31  5-MIN K12N 170650Z AUTO 22003KT 04/00 A3043 120 76 -1100 230/03 RMK AO1 SLP306 T00390000
54779K12N 12N20160417015510004/17/16 01:55:31  5-MIN K12N 170655Z AUTO 21003KT 04/01 A3043 120 79 -1100 230/03 RMK AO1 T00390006
54779K12N 12N20160417020010004/17/16 02:00:31  5-MIN K12N 170700Z AUTO 00000KT 04/01 A3043 120 76 -1000 000/00 RMK AO1 T00440006
54779K12N 12N20160417020510004/17/16 02:05:31  5-MIN K12N 170705Z AUTO 00000KT 04/01 A3043 110 79 -1100 000/00 RMK AO1 T00390006
54779K12N 12N20160417021010004/17/16 02:10:31  5-MIN K12N 170710Z AUTO 00000KT 04/00 A3043 120 76 -1100 000/00 RMK AO1 T00390000
54779K12N 12N20160417021510004/17/16 02:15:31  5-MIN K12N 170715Z AUTO 00000KT 04/01 A3043 120 79 -1100 000/00 RMK AO1 T00390006
54779K12N 12N20160417022010004/17/16 02:20:31  5-MIN K12N 170720Z AUTO 00000KT 04/00 A3043 120 76 -1100 000/00 RMK AO1 T00390000
54779K12N 12N20160417022510004/17/16 02:25:31  5-MIN K12N 170725Z AUTO 00000KT 03/00 A3043 120 79 -1200 000/00 RMK AO1 T00330000
54779K12N 12N20160417023010004/17/16 02:30:31  5-MIN K12N 170730Z AUTO 00000KT 03/00 A3043 120 79 -1200 000/00 RMK AO1 T00330000
54779K12N 12N20160417023510004/17/16 02:35:31  5-MIN K12N 170735Z AUTO 00000KT 03/00 A3043 120 79 -1200 000/00 RMK AO1 T00330000
54779K12N 12N20160417024010004/17/16 02:40:31  5-MIN K12N 170740Z AUTO 21003KT 03/00 A3043 120 79 -1200 230/03 RMK AO1 T00330000
54779K12N 12N20160417024510104/17/16 02:45:31  5-MIN K12N 170745Z AUTO 00000KT 03/M01 A3043 120 79 -1200 000/00 RMK AO1 T00281006
54779K12N 12N20160417025010804/17/16 02:50:31  5-MIN K12N 170750Z AUTO 00000KT 03/M01 A3043 120 76 -1200 000/00 RMK AO1 SLP306 T00331006
54779K12N 12N20160417025510004/17/16 02:55:31  5-MIN K12N 170755Z AUTO 21003KT 03/00 A3043 120 79 -1200 220/03 RMK AO1 T00330000
54779K12N 12N20160417030010004/17/16 03:00:31  5-MIN K12N 170800Z AUTO 22003KT 03/00 A3043 120 82 -1200 230/03 RMK AO1 T00280000
54779K12N 12N20160417030510004/17/16 03:05:31  5-MIN K12N 170805Z AUTO 20003KT 02/00 A3043 120 85 -1300 210/03 RMK AO1 T00220000
54779K12N 12N20160417031010004/17/16 03:10:31  5-MIN K12N 170810Z AUTO 00000KT 02/00 A3043 120 85 -1300 000/00 RMK AO1 T00220000
54779K12N 12N20160417031510004/17/16 03:15:31  5-MIN K12N 170815Z AUTO 00000KT 03/00 A3043 120 82 -1200 000/00 RMK AO1 T00280000
54779K12N 12N20160417032010004/17/16 03:20:31  5-MIN K12N 170820Z AUTO 00000KT 02/00 A3043 120 85 -1300 000/00 RMK AO1 T00220000
54779K12N 12N20160417032510004/17/16 03:25:31  5-MIN K12N 170825Z AUTO 00000KT 02/00 A3043 120 85 -1300 000/00 RMK AO1 T00220000
54779K12N 12N20160417033010104/17/16 03:30:31  5-MIN K12N 170830Z AUTO 00000KT 02/M01 A3043 120 82 -1300 000/00 RMK AO1 T00221006
54779K12N 12N20160417033510004/17/16 03:35:31  5-MIN K12N 170835Z AUTO 00000KT 02/00 A3043 120 85 -1300 000/00 RMK AO1 T00220000
54779K12N 12N20160417034010104/17/16 03:40:31  5-MIN K12N 170840Z AUTO 00000KT 02/M01 A3043 120 82 -1300 000/00 RMK AO1 T00221006
54779K12N 12N20160417034510004/17/16 03:45:31  5-MIN K12N 170845Z AUTO 00000KT 02/00 A3043 120 85 -1300 000/00 RMK AO1 T00220000
54779K12N 12N20160417035011304/17/16 03:50:31  5-MIN K12N 170850Z AUTO 00000KT 02/00 A3043 120 85 -1300 000/00 RMK AO1 SLP308 T00220000 50004
54779K12N 12N20160417035510104/17/16 03:55:31  5-MIN K12N 170855Z AUTO 00000KT 02/M01 A3043 110 82 -1300 000/00 RMK AO1 T00221006
54779K12N 12N20160417040010104/17/16 04:00:31  5-MIN K12N 170900Z AUTO 00000KT 02/M01 A3044 110 82 -1400 000/00 RMK AO1 T00171011
54779K12N 12N20160417040510104/17/16 04:05:31  5-MIN K12N 170905Z AUTO 00000KT 02/M01 A3044 110 82 -1300 000/00 RMK AO1 T00221006
54779K12N 12N20160417041010104/17/16 04:10:31  5-MIN K12N 170910Z AUTO 00000KT 02/M01 A3044 110 82 -1300 000/00 RMK AO1 T00221006
54779K12N 12N20160417041510104/17/16 04:15:31  5-MIN K12N 170915Z AUTO 00000KT 02/M01 A3044 110 82 -1300 000/00 RMK AO1 T00221006
54779K12N 12N20160417042010104/17/16 04:20:31  5-MIN K12N 170920Z AUTO 00000KT 02/M01 A3044 110 85 -1400 000/00 RMK AO1 T00171006
54779K12N 12N20160417042510104/17/16 04:25:31  5-MIN K12N 170925Z AUTO 00000KT 02/M01 A3044 110 82 -1400 000/00 RMK AO1 T00171011
54779K12N 12N20160417043010104/17/16 04:30:31  5-MIN K12N 170930Z AUTO 00000KT 02/M01 A3044 110 82 -1400 000/00 RMK AO1 T00171011
54779K12N 12N20160417043510104/17/16 04:35:31  5-MIN K12N 170935Z AUTO 00000KT 02/M01 A3044 110 82 -1400 000/00 RMK AO1 T00171011
54779K12N 12N20160417044010104/17/16 04:40:31  5-MIN K12N 170940Z AUTO 00000KT 02/M01 A3044 110 82 -1400 000/00 RMK AO1 T00171011
54779K12N 12N20160417044510104/17/16 04:45:31  5-MIN K12N 170945Z AUTO 00000KT 02/M01 A3044 110 85 -1400 000/00 RMK AO1 T00171006
54779K12N 12N20160417045010804/17/16 04:50:31  5-MIN K12N 170950Z AUTO 00000KT 02/M01 A3044 110 85 -1400 000/00 RMK AO1 SLP311 T00171006
54779K12N 12N20160417045510004/17/16 04:55:31  5-MIN K12N 170955Z AUTO 00000KT 02/00 A3044 100 89 -1400 000/00 RMK AO1 T00170000
54779K12N 12N20160417050010004/17/16 05:00:31  5-MIN K12N 171000Z AUTO 00000KT 01/00 A3044 100 92 -1500 000/00 RMK AO1 T00110000
54779K12N 12N20160417050510104/17/16 05:05:31  5-MIN K12N 171005Z AUTO 00000KT 02/M01 A3045 100 85 -1400 000/00 RMK AO1 T00171006
54779K12N 12N20160417051010104/17/16 05:10:31  5-MIN K12N 171010Z AUTO 00000KT 02/M01 A3045 100 85 -1400 000/00 RMK AO1 T00171006
54779K12N 12N20160417051510104/17/16 05:15:31  5-MIN K12N 171015Z AUTO 00000KT 02/M01 A3045 100 85 -1400 000/00 RMK AO1 T00171006
54779K12N 12N20160417052010104/17/16 05:20:31  5-MIN K12N 171020Z AUTO 00000KT 02/M01 A3045 100 85 -1400 000/00 RMK AO1 T00171006
54779K12N 12N20160417052510104/17/16 05:25:31  5-MIN K12N 171025Z AUTO 00000KT 01/M01 A3045 100 89 -1500 000/00 RMK AO1 T00111006
54779K12N 12N20160417053010104/17/16 05:30:31  5-MIN K12N 171030Z AUTO 00000KT 01/M01 A3045 100 85 -1500 000/00 RMK AO1 T00111011
54779K12N 12N20160417053510104/17/16 05:35:31  5-MIN K12N 171035Z AUTO 00000KT 01/M01 A3045 100 85 -1500 000/00 RMK AO1 T00111011
54779K12N 12N20160417054010104/17/16 05:40:31  5-MIN K12N 171040Z AUTO 00000KT 01/M01 A3045 100 85 -1500 000/00 RMK AO1 T00111011
54779K12N 12N20160417054510004/17/16 05:45:31  5-MIN K12N 171045Z AUTO 00000KT 01/M01 A3045 90 89 -1500 000/00 RMK AO1 T00111006
54779K12N 12N20160417055010704/17/16 05:50:31  5-MIN K12N 171050Z AUTO 00000KT 01/M01 A3046 90 89 -1500 000/00 RMK AO1 SLP317 T00111006
54779K12N 12N20160417055510004/17/16 05:55:31  5-MIN K12N 171055Z AUTO 00000KT 02/M01 A3046 90 85 -1400 000/00 RMK AO1 T00171006
54779K12N 12N20160417060009904/17/16 06:00:31  5-MIN K12N 171100Z AUTO 00000KT 02/00 A3046 90 89 -1400 000/00 RMK AO1 T00170000
54779K12N 12N20160417060509904/17/16 06:05:31  5-MIN K12N 171105Z AUTO 00000KT 02/00 A3046 90 89 -1400 000/00 RMK AO1 T00170000
54779K12N 12N20160417061009904/17/16 06:10:31  5-MIN K12N 171110Z AUTO 00000KT 02/00 A3046 90 89 -1400 000/00 RMK AO1 T00170000
54779K12N 12N20160417061509904/17/16 06:15:31  5-MIN K12N 171115Z AUTO 00000KT 02/00 A3046 90 89 -1400 000/00 RMK AO1 T00170000
54779K12N 12N20160417062009904/17/16 06:20:31  5-MIN K12N 171120Z AUTO 00000KT 02/01 A3046 90 89 -1400 000/00 RMK AO1 T00220006
54779K12N 12N20160417062509904/17/16 06:25:31  5-MIN K12N 171125Z AUTO 00000KT 03/01 A3046 90 85 -1300 000/00 RMK AO1 T00280006
54779K12N 12N20160417063009904/17/16 06:30:31  5-MIN K12N 171130Z AUTO 00000KT 03/01 A3046 90 85 -1200 000/00 RMK AO1 T00330011
54779K12N 12N20160417063509904/17/16 06:35:31  5-MIN K12N 171135Z AUTO 00000KT 03/01 A3046 90 85 -1200 000/00 RMK AO1 T00330011
54779K12N 12N20160417064009904/17/16 06:40:31  5-MIN K12N 171140Z AUTO 00000KT 04/02 A3046 90 89 -1100 000/00 RMK AO1 T00390022
54779K12N 12N20160417064509904/17/16 06:45:31  5-MIN K12N 171145Z AUTO 00000KT 04/02 A3046 90 85 -1100 000/00 RMK AO1 T00390017
54779K12N 12N20160417065012404/17/16 06:50:31  5-MIN K12N 171150Z AUTO 00000KT 04/02 A3046 90 82 -1100 000/00 RMK AO1 SLP318 T00440017 10056 20011 55003
54779K12N 12N20160417065509904/17/16 06:55:31  5-MIN K12N 171155Z AUTO 00000KT 05/02 A3046 90 79 -1000 000/00 RMK AO1 T00500017
54779K12N 12N20160417070009804/17/16 07:00:31  5-MIN K12N 171200Z AUTO 00000KT 06/01 A3046 90 73 -900 000/00 RMK AO1 T00560011
54779K12N 12N20160417070509804/17/16 07:05:31  5-MIN K12N 171205Z AUTO 00000KT 06/01 A3046 90 70 -900 000/00 RMK AO1 T00610011
54779K12N 12N20160417071009804/17/16 07:10:31  5-MIN K12N 171210Z AUTO 00000KT 07/02 A3046 90 70 -800 000/00 RMK AO1 T00670017
54779K12N 12N20160417071509804/17/16 07:15:31  5-MIN K12N 171215Z AUTO 14003KT 07/01 A3046 90 67 -800 160/03 RMK AO1 T00670011
54779K12N 12N20160417072009804/17/16 07:20:31  5-MIN K12N 171220Z AUTO 15003KT 07/01 A3046 90 65 -700 170/03 RMK AO1 T00720011
54779K12N 12N20160417072509804/17/16 07:25:31  5-MIN K12N 171225Z AUTO VRB03KT 07/01 A3046 90 65 -700 VRB/03 RMK AO1 T00720011
54779K12N 12N20160417073009804/17/16 07:30:31  5-MIN K12N 171230Z AUTO 00000KT 08/01 A3046 90 60 -600 000/00 RMK AO1 T00830011
54779K12N 12N20160417073509804/17/16 07:35:31  5-MIN K12N 171235Z AUTO VRB03KT 08/01 A3046 90 58 -600 VRB/03 RMK AO1 T00830006
54779K12N 12N20160417074009804/17/16 07:40:31  5-MIN K12N 171240Z AUTO 19003KT 08/00 A3046 90 55 -600 200/03 RMK AO1 T00830000
54779K12N 12N20160417074509804/17/16 07:45:31  5-MIN K12N 171245Z AUTO 00000KT 09/00 A3046 90 53 -500 000/00 RMK AO1 T00890000
54779K12N 12N20160417075010504/17/16 07:50:31  5-MIN K12N 171250Z AUTO 00000KT 09/01 A3046 90 56 -500 000/00 RMK AO1 SLP317 T00890006
54779K12N 12N20160417075509804/17/16 07:55:31  5-MIN K12N 171255Z AUTO 16003KT 09/00 A3046 90 53 -500 170/03 RMK AO1 T00890000
54779K12N 12N20160417080009804/17/16 08:00:31  5-MIN K12N 171300Z AUTO 00000KT 09/00 A3046 90 53 -500 000/00 RMK AO1 T00890000
54779K12N 12N20160417080509804/17/16 08:05:31  5-MIN K12N 171305Z AUTO 00000KT 09/00 A3046 90 51 -500 000/00 RMK AO1 T00940000
54779K12N 12N20160417081009804/17/16 08:10:31  5-MIN K12N 171310Z AUTO VRB03KT 10/01 A3046 90 52 -400 VRB/03 RMK AO1 T01000006
54779K12N 12N20160417081509804/17/16 08:15:31  5-MIN K12N 171315Z AUTO 16004KT 10/00 A3046 90 49 -400 170/04 RMK AO1 T01000000
54779K12N 12N20160417082009804/17/16 08:20:31  5-MIN K12N 171320Z AUTO 00000KT 10/00 A3046 90 49 -400 000/00 RMK AO1 T01000000
54779K12N 12N20160417082509804/17/16 08:25:31  5-MIN K12N 171325Z AUTO VRB03KT 11/00 A3046 90 48 -300 VRB/03 RMK AO1 T01060000
54779K12N 12N20160417083009804/17/16 08:30:31  5-MIN K12N 171330Z AUTO VRB03KT 11/00 A3046 90 48 -300 VRB/03 RMK AO1 T01060000
54779K12N 12N20160417083509804/17/16 08:35:31  5-MIN K12N 171335Z AUTO 21003KT 11/00 A3046 90 48 -300 220/03 RMK AO1 T01060000
54779K12N 12N20160417084009904/17/16 08:40:31  5-MIN K12N 171340Z AUTO 00000KT 11/M01 A3046 90 44 -300 000/00 RMK AO1 T01111006
54779K12N 12N20160417084509804/17/16 08:45:31  5-MIN K12N 171345Z AUTO VRB03KT 12/01 A3046 90 44 -100 VRB/03 RMK AO1 T01220006
54779K12N 12N20160417085010504/17/16 08:50:31  5-MIN K12N 171350Z AUTO 00000KT 12/00 A3046 90 43 -100 000/00 RMK AO1 SLP316 T01220000
54779K12N 12N20160417085509904/17/16 08:55:31  5-MIN K12N 171355Z AUTO 00000KT 12/M01 A3046 90 42 -200 000/00 RMK AO1 T01171006
54779K12N 12N20160417090009904/17/16 09:00:31  5-MIN K12N 171400Z AUTO 00000KT 12/M01 A3045 90 41 -100 000/00 RMK AO1 T01221006
54779K12N 12N20160417090510004/17/16 09:05:31  5-MIN K12N 171405Z AUTO 00000KT 13/M01 A3045 100 38 -100 000/00 RMK AO1 T01281011
54779K12N 12N20160417091009704/17/16 09:10:31  5-MIN K12N 171410Z AUTO 00000KT 13/M01 A3045 100 38 0 000/00 RMK AO1 T01331006
54779K12N 12N20160417091509704/17/16 09:15:31  5-MIN K12N 171415Z AUTO 00000KT 13/M01 A3045 100 36 0 000/00 RMK AO1 T01331011
54779K12N 12N20160417092010004/17/16 09:20:31  5-MIN K12N 171420Z AUTO 14003KT 13/M01 A3045 100 38 -100 150/03 RMK AO1 T01281011
54779K12N 12N20160417092509704/17/16 09:25:31  5-MIN K12N 171425Z AUTO 00000KT 13/M01 A3045 100 36 0 000/00 RMK AO1 T01331011
54779K12N 12N20160417093009704/17/16 09:30:31  5-MIN K12N 171430Z AUTO 22003KT 14/M01 A3045 100 37 0 230/03 RMK AO1 T01391006
54779K12N 12N20160417093509904/17/16 09:35:31  5-MIN K12N 171435Z AUTO 00000KT 14/M01 A3045 100 34 100 000/00 RMK AO1 T01441011
54779K12N 12N20160417094009904/17/16 09:40:31  5-MIN K12N 171440Z AUTO 00000KT 15/M01 A3044 100 33 200 000/00 RMK AO1 T01501011
54779K12N 12N20160417094509904/17/16 09:45:31  5-MIN K12N 171445Z AUTO 05003KT 16/M01 A3044 110 31 200 060/03 RMK AO1 T01561011
54779K12N 12N20160417095011204/17/16 09:50:31  5-MIN K12N 171450Z AUTO 00000KT 16/M02 A3044 110 29 200 000/00 RMK AO1 SLP310 T01561022 51008
54779K12N 12N20160417095509904/17/16 09:55:31  5-MIN K12N 171455Z AUTO 00000KT 17/M01 A3044 110 29 400 000/00 RMK AO1 T01671011
54779K12N 12N20160417100009904/17/16 10:00:31  5-MIN K12N 171500Z AUTO 00000KT 16/M02 A3044 110 28 300 000/00 RMK AO1 T01611022
54779K12N 12N20160417100509904/17/16 10:05:31  5-MIN K12N 171505Z AUTO 00000KT 16/M02 A3044 110 28 300 000/00 RMK AO1 T01611022
54779K12N 12N20160417101009904/17/16 10:10:31  5-MIN K12N 171510Z AUTO 00000KT 17/M02 A3043 110 28 400 000/00 RMK AO1 T01671017
54779K12N 12N20160417101509904/17/16 10:15:31  5-MIN K12N 171515Z AUTO VRB03KT 17/M02 A3043 110 27 400 VRB/03 RMK AO1 T01671022
54779K12N 12N20160417102009904/17/16 10:20:31  5-MIN K12N 171520Z AUTO VRB03KT 17/M03 A3043 120 26 400 VRB/03 RMK AO1 T01671028
54779K12N 12N20160417102509904/17/16 10:25:31  5-MIN K12N 171525Z AUTO 00000KT 17/M02 A3043 120 26 400 000/00 RMK AO1 T01721022
54779K12N 12N20160417103009904/17/16 10:30:31  5-MIN K12N 171530Z AUTO 00000KT 17/M02 A3043 120 26 400 000/00 RMK AO1 T01721022
54779K12N 12N20160417103509904/17/16 10:35:31  5-MIN K12N 171535Z AUTO 00000KT 17/M03 A3043 120 25 400 000/00 RMK AO1 T01671033
54779K12N 12N20160417104009904/17/16 10:40:31  5-MIN K12N 171540Z AUTO 00000KT 17/M04 A3042 120 24 400 000/00 RMK AO1 T01671039
54779K12N 12N20160417104509904/17/16 10:45:31  5-MIN K12N 171545Z AUTO 00000KT 18/M04 A3042 130 22 500 000/00 RMK AO1 T01781039
54779K12N 12N20160417105010604/17/16 10:50:31  5-MIN K12N 171550Z AUTO 00000KT 18/M04 A3042 130 22 500 000/00 RMK AO1 SLP300 T01781039
54779K12N 12N20160417105509904/17/16 10:55:31  5-MIN K12N 171555Z AUTO 00000KT 18/M05 A3041 130 20 500 000/00 RMK AO1 T01781050
54779K12N 12N20160417110009904/17/16 11:00:31  5-MIN K12N 171600Z AUTO 05005KT 18/M04 A3041 130 21 600 060/05 RMK AO1 T01831039
54779K12N 12N20160417110509904/17/16 11:05:31  5-MIN K12N 171605Z AUTO 07004KT 18/M03 A3041 140 23 600 080/04 RMK AO1 T01831028
54779K12N 12N20160417111009904/17/16 11:10:31  5-MIN K12N 171610Z AUTO VRB04KT 19/M04 A3041 140 21 700 VRB/04 RMK AO1 T01891039
54779K12N 12N20160417111509904/17/16 11:15:31  5-MIN K12N 171615Z AUTO 36003KT 19/M03 A3040 140 22 700 020/03 RMK AO1 T01891028
54779K12N 12N20160417112009904/17/16 11:20:31  5-MIN K12N 171620Z AUTO 00000KT 19/M04 A3040 140 20 700 000/00 RMK AO1 T01941039
54779K12N 12N20160417112509904/17/16 11:25:31  5-MIN K12N 171625Z AUTO 04005KT 19/M04 A3040 150 19 700 050/05 RMK AO1 T01941044
54779K12N 12N20160417113009904/17/16 11:30:31  5-MIN K12N 171630Z AUTO 04006KT 19/M03 A3039 150 22 700 050/06 RMK AO1 T01891033
54779K12N 12N20160417113509904/17/16 11:35:31  5-MIN K12N 171635Z AUTO VRB04KT 19/M03 A3039 150 22 700 VRB/04 RMK AO1 T01941028
54779K12N 12N20160417114009904/17/16 11:40:31  5-MIN K12N 171640Z AUTO 00000KT 19/M03 A3039 150 22 700 000/00 RMK AO1 T01941028
54779K12N 12N20160417114509904/17/16 11:45:31  5-MIN K12N 171645Z AUTO 04005KT 20/M03 A3039 150 20 800 050/05 RMK AO1 T02001033
54779K12N 12N20160417115010604/17/16 11:50:31  5-MIN K12N 171650Z AUTO VRB04KT 20/M04 A3038 160 18 800 VRB/04 RMK AO1 SLP289 T02001044
54779K12N 12N20160417115509904/17/16 11:55:31  5-MIN K12N 171655Z AUTO VRB04KT 20/M02 A3038 160 23 800 VRB/04 RMK AO1 T02001017
54779K12N 12N20160417120009904/17/16 12:00:31  5-MIN K12N 171700Z AUTO VRB04KT 20/M03 A3038 160 20 800 VRB/04 RMK AO1 T02001033
54779K12N 12N20160417120509904/17/16 12:05:31  5-MIN K12N 171705Z AUTO 01004KT 21/M03 A3038 160 20 900 020/04 RMK AO1 T02061028
54779K12N 12N20160417121009904/17/16 12:10:31  5-MIN K12N 171710Z AUTO VRB04KT 21/M03 A3038 170 20 900 VRB/04 RMK AO1 T02061028
54779K12N 12N20160417121509904/17/16 12:15:31  5-MIN K12N 171715Z AUTO 00000KT 21/M04 A3037 170 18 900 000/00 RMK AO1 T02061044
54779K12N 12N20160417122009904/17/16 12:20:31  5-MIN K12N 171720Z AUTO 00000KT 21/M04 A3037 170 18 900 000/00 RMK AO1 T02061044
54779K12N 12N20160417122509904/17/16 12:25:31  5-MIN K12N 171725Z AUTO 36005KT 21/M04 A3037 170 19 900 010/05 RMK AO1 T02061039
54779K12N 12N20160417123009904/17/16 12:30:31  5-MIN K12N 171730Z AUTO 05008KT 21/M03 A3037 170 20 900 060/08 RMK AO1 T02061028
54779K12N 12N20160417123509904/17/16 12:35:31  5-MIN K12N 171735Z AUTO VRB04KT 21/M05 A3037 170 17 900 VRB/04 RMK AO1 T02061050
54779K12N 12N20160417124010004/17/16 12:40:31  5-MIN K12N 171740Z AUTO VRB04KT 21/M04 A3036 180 18 1000 VRB/04 RMK AO1 T02111039
54779K12N 12N20160417124510004/17/16 12:45:31  5-MIN K12N 171745Z AUTO VRB06KT 22/M03 A3036 180 19 1000 VRB/06 RMK AO1 T02171028
54779K12N 12N20160417125012504/17/16 12:50:31  5-MIN K12N 171750Z AUTO VRB04KT 21/M06 A3036 180 16 1000 VRB/04 RMK AO1 SLP281 T02111056 10217 20050 58006
54779K12N 12N20160417125510004/17/16 12:55:31  5-MIN K12N 171755Z AUTO VRB04KT 21/M06 A3036 180 16 1000 VRB/04 RMK AO1 T02111056
54779K12N 12N20160417130010004/17/16 13:00:31  5-MIN K12N 171800Z AUTO 00000KT 21/M06 A3036 180 15 1000 000/00 RMK AO1 T02111061
54779K12N 12N20160417130510004/17/16 13:05:31  5-MIN K12N 171805Z AUTO VRB04KT 22/M06 A3035 190 15 1000 VRB/04 RMK AO1 T02171056
54779K12N 12N20160417131010004/17/16 13:10:31  5-MIN K12N 171810Z AUTO 00000KT 22/M05 A3035 190 16 1100 000/00 RMK AO1 T02171050
54779K12N 12N20160417131510004/17/16 13:15:31  5-MIN K12N 171815Z AUTO 36004KT 23/M03 A3035 190 17 1200 010/04 RMK AO1 T02281033
54779K12N 12N20160417132010004/17/16 13:20:31  5-MIN K12N 171820Z AUTO 05003KT 22/M03 A3035 190 17 1100 070/03 RMK AO1 T02221033
54779K12N 12N20160417132510004/17/16 13:25:31  5-MIN K12N 171825Z AUTO 03004KT 22/M03 A3034 200 18 1100 040/04 RMK AO1 T02221028
54779K12N 12N20160417133010004/17/16 13:30:31  5-MIN K12N 171830Z AUTO 04006KT 22/M04 A3034 200 16 1100 050/06 RMK AO1 T02221044
54779K12N 12N20160417133510004/17/16 13:35:31  5-MIN K12N 171835Z AUTO VRB04KT 22/M04 A3034 200 17 1100 VRB/04 RMK AO1 T02221039
54779K12N 12N20160417134010004/17/16 13:40:31  5-MIN K12N 171840Z AUTO VRB05KT 23/M03 A3033 200 18 1200 VRB/05 RMK AO1 T02281028
54779K12N 12N20160417134510004/17/16 13:45:31  5-MIN K12N 171845Z AUTO VRB04KT 22/M02 A3033 210 20 1100 VRB/04 RMK AO1 T02221017
54779K12N 12N20160417135010704/17/16 13:50:31  5-MIN K12N 171850Z AUTO 10004KT 22/M04 A3033 210 17 1100 110/04 RMK AO1 SLP270 T02221039
54779K12N 12N20160417135510004/17/16 13:55:31  5-MIN K12N 171855Z AUTO VRB04KT 22/M04 A3033 210 17 1100 VRB/04 RMK AO1 T02221039
54779K12N 12N20160417140010004/17/16 14:00:31  5-MIN K12N 171900Z AUTO 05004KT 23/M03 A3032 210 18 1200 060/04 RMK AO1 T02281028
54779K12N 12N20160417140510004/17/16 14:05:31  5-MIN K12N 171905Z AUTO 00000KT 23/M03 A3032 220 18 1200 000/00 RMK AO1 T02281028
54779K12N 12N20160417141010004/17/16 14:10:31  5-MIN K12N 171910Z AUTO 00000KT 23/M03 A3032 220 17 1300 000/00 RMK AO1 T02331028
54779K12N 12N20160417141510004/17/16 14:15:31  5-MIN K12N 171915Z AUTO 30004KT 23/M03 A3031 220 17 1300 320/04 RMK AO1 T02331028
54779K12N 12N20160417142010004/17/16 14:20:31  5-MIN K12N 171920Z AUTO VRB04KT 23/M03 A3031 230 16 1300 VRB/04 RMK AO1 T02331033
54779K12N 12N20160417142510004/17/16 14:25:31  5-MIN K12N 171925Z AUTO VRB05KT 23/M02 A3031 230 18 1300 VRB/05 RMK AO1 T02331022
54779K12N 12N20160417143010004/17/16 14:30:31  5-MIN K12N 171930Z AUTO VRB04KT 23/M03 A3031 230 17 1300 VRB/04 RMK AO1 T02331028
54779K12N 12N20160417143510004/17/16 14:35:31  5-MIN K12N 171935Z AUTO VRB03KT 24/M03 A3030 230 16 1400 VRB/03 RMK AO1 T02391028
54779K12N 12N20160417144010004/17/16 14:40:31  5-MIN K12N 171940Z AUTO VRB03KT 24/M03 A3030 240 16 1400 VRB/03 RMK AO1 T02391028
54779K12N 12N20160417144510004/17/16 14:45:31  5-MIN K12N 171945Z AUTO 00000KT 23/M03 A3030 240 17 1300 000/00 RMK AO1 T02331028
54779K12N 12N20160417145010704/17/16 14:50:31  5-MIN K12N 171950Z AUTO 10004KT 23/M03 A3029 240 16 1300 120/04 RMK AO1 SLP258 T02331033
54779K12N 12N20160417145510004/17/16 14:55:31  5-MIN K12N 171955Z AUTO VRB05KT 23/M03 A3029 240 16 1300 VRB/05 RMK AO1 T02331033
54779K12N 12N20160417150010004/17/16 15:00:31  5-MIN K12N 172000Z AUTO 13004KT 23/M03 A3029 240 17 1300 140/04 RMK AO1 T02331028
54779K12N 12N20160417150510004/17/16 15:05:31  5-MIN K12N 172005Z AUTO VRB03KT 23/M03 A3029 250 16 1300 VRB/03 RMK AO1 T02331033
54779K12N 12N20160417151010004/17/16 15:10:31  5-MIN K12N 172010Z AUTO VRB03KT 24/M02 A3029 250 17 1400 VRB/03 RMK AO1 T02441017
54779K12N 12N20160417151510004/17/16 15:15:31  5-MIN K12N 172015Z AUTO VRB03KT 23/M03 A3028 250 16 1300 VRB/03 RMK AO1 T02331033
54779K12N 12N20160417152010004/17/16 15:20:31  5-MIN K12N 172020Z AUTO VRB03KT 24/M03 A3028 250 16 1400 VRB/03 RMK AO1 T02391028
54779K12N 12N20160417152510004/17/16 15:25:31  5-MIN K12N 172025Z AUTO 22006KT 24/M02 A3028 250 18 1400 240/06 RMK AO1 T02391017
54779K12N 12N20160417153010004/17/16 15:30:31  5-MIN K12N 172030Z AUTO 21004KT 24/M02 A3028 260 17 1400 220/04 RMK AO1 T02391022
54779K12N 12N20160417153510004/17/16 15:35:31  5-MIN K12N 172035Z AUTO VRB04KT 24/M02 A3028 260 17 1400 VRB/04 RMK AO1 T02391022
54779K12N 12N20160417154010004/17/16 15:40:31  5-MIN K12N 172040Z AUTO 00000KT 24/M03 A3027 260 16 1500 000/00 RMK AO1 T02441028
54779K12N 12N20160417154510004/17/16 15:45:31  5-MIN K12N 172045Z AUTO VRB06KT 24/M03 A3027 260 16 1400 VRB/06 RMK AO1 T02391028
54779K12N 12N20160417155011304/17/16 15:50:31  5-MIN K12N 172050Z AUTO 22004KT 24/M03 A3027 260 16 1400 230/04 RMK AO1 SLP250 T02391028 57026
54779K12N 12N20160417155510004/17/16 15:55:31  5-MIN K12N 172055Z AUTO 22005KT 24/M03 A3027 270 16 1400 230/05 RMK AO1 T02391028
54779K12N 12N20160417160010004/17/16 16:00:31  5-MIN K12N 172100Z AUTO VRB04KT 24/M02 A3026 270 17 1400 VRB/04 RMK AO1 T02391022
54779K12N 12N20160417160510004/17/16 16:05:31  5-MIN K12N 172105Z AUTO 22006KT 24/M02 A3026 270 17 1400 240/06 RMK AO1 T02391022
54779K12N 12N20160417161010004/17/16 16:10:31  5-MIN K12N 172110Z AUTO 20006KT 24/M02 A3026 270 17 1400 210/06 RMK AO1 T02391022
54779K12N 12N20160417161510004/17/16 16:15:31  5-MIN K12N 172115Z AUTO 19003KT 23/M03 A3026 270 17 1300 210/03 RMK AO1 T02331028
54779K12N 12N20160417162010004/17/16 16:20:31  5-MIN K12N 172120Z AUTO VRB05KT 24/M02 A3026 270 17 1400 VRB/05 RMK AO1 T02391022
54779K12N 12N20160417162510004/17/16 16:25:31  5-MIN K12N 172125Z AUTO VRB06KT 24/M02 A3026 270 17 1400 VRB/06 RMK AO1 T02391022
54779K12N 12N20160417163010004/17/16 16:30:31  5-MIN K12N 172130Z AUTO VRB03KT 24/M02 A3026 270 17 1400 VRB/03 RMK AO1 T02391022
54779K12N 12N20160417163510004/17/16 16:35:31  5-MIN K12N 172135Z AUTO 00000KT 24/M03 A3026 270 16 1400 000/00 RMK AO1 T02391028
54779K12N 12N20160417164010004/17/16 16:40:31  5-MIN K12N 172140Z AUTO 00000KT 24/M03 A3026 270 16 1500 000/00 RMK AO1 T02441028
54779K12N 12N20160417164510004/17/16 16:45:31  5-MIN K12N 172145Z AUTO 00000KT 24/M03 A3026 280 16 1500 000/00 RMK AO1 T02441028
54779K12N 12N20160417165010704/17/16 16:50:31  5-MIN K12N 172150Z AUTO 00000KT 24/M02 A3026 280 17 1500 000/00 RMK AO1 SLP245 T02441022
54779K12N 12N20160417165510004/17/16 16:55:31  5-MIN K12N 172155Z AUTO 24003KT 25/M02 A3026 280 16 1500 250/03 RMK AO1 T02501022
54779K12N 12N20160417170010004/17/16 17:00:31  5-MIN K12N 172200Z AUTO 20005KT 24/M02 A3026 280 17 1500 210/05 RMK AO1 T02441017
54779K12N 12N20160417170510004/17/16 17:05:31  5-MIN K12N 172205Z AUTO 22004KT 24/M02 A3026 280 17 1500 230/04 RMK AO1 T02441017
54779K12N 12N20160417171010004/17/16 17:10:31  5-MIN K12N 172210Z AUTO 21004KT 24/M01 A3026 280 19 1400 230/04 RMK AO1 T02391011
54779K12N 12N20160417171510004/17/16 17:15:31  5-MIN K12N 172215Z AUTO 23005KT 24/M02 A3025 280 18 1400 250/05 RMK AO1 T02391017
54779K12N 12N20160417172010004/17/16 17:20:31  5-MIN K12N 172220Z AUTO 24004KT 24/M02 A3025 280 17 1400 250/04 RMK AO1 T02391022
54779K12N 12N20160417172510004/17/16 17:25:31  5-MIN K12N 172225Z AUTO 23006KT 24/M02 A3025 280 17 1400 240/06 RMK AO1 T02391022
54779K12N 12N20160417173010004/17/16 17:30:31  5-MIN K12N 172230Z AUTO 23006KT 23/M02 A3025 280 18 1400 240/06 RMK AO1 T02331017
54779K12N 12N20160417173510004/17/16 17:35:31  5-MIN K12N 172235Z AUTO 22006KT 23/M01 A3025 280 19 1400 230/06 RMK AO1 T02331011
54779K12N 12N20160417174010004/17/16 17:40:31  5-MIN K12N 172240Z AUTO 22006KT 23/M02 A3025 280 18 1400 230/06 RMK AO1 T02331022
54779K12N 12N20160417174510004/17/16 17:45:31  5-MIN K12N 172245Z AUTO 22006KT 23/M01 A3025 280 21 1300 240/06 RMK AO1 T02281006
54779K12N 12N20160417175010704/17/16 17:50:31  5-MIN K12N 172250Z AUTO VRB05KT 23/M01 A3025 280 20 1300 VRB/05 RMK AO1 SLP245 T02281011
54779K12N 12N20160417175510004/17/16 17:55:31  5-MIN K12N 172255Z AUTO 24004KT 23/M01 A3025 280 20 1300 250/04 RMK AO1 T02281011
54779K12N 12N20160417180010004/17/16 18:00:31  5-MIN K12N 172300Z AUTO 22004KT 23/M01 A3025 280 20 1300 230/04 RMK AO1 T02281011
54779K12N 12N20160417180510004/17/16 18:05:31  5-MIN K12N 172305Z AUTO 23004KT 22/M01 A3025 280 21 1200 240/04 RMK AO1 T02221006
54779K12N 12N20160417181010004/17/16 18:10:31  5-MIN K12N 172310Z AUTO 22003KT 22/M01 A3025 280 22 1200 230/03 RMK AO1 T02171006
54779K12N 12N20160417181509904/17/16 18:15:31  5-MIN K12N 172315Z AUTO 00000KT 22/00 A3025 280 23 1200 000/00 RMK AO1 T02170000
54779K12N 12N20160417182009904/17/16 18:20:31  5-MIN K12N 172320Z AUTO 00000KT 21/00 A3025 280 24 1100 000/00 RMK AO1 T02110000
54779K12N 12N20160417182509904/17/16 18:25:31  5-MIN K12N 172325Z AUTO 00000KT 21/01 A3025 280 26 1000 000/00 RMK AO1 T02060006
54779K12N 12N20160417183009904/17/16 18:30:31  5-MIN K12N 172330Z AUTO 00000KT 20/01 A3025 280 28 1000 000/00 RMK AO1 T02000011
54779K12N 12N20160417183509804/17/16 18:35:31  5-MIN K12N 172335Z AUTO 23003KT 19/02 A3025 280 30 900 240/03 RMK AO1 T01940017
54779K12N 12N20160417184009804/17/16 18:40:31  5-MIN K12N 172340Z AUTO 00000KT 19/02 A3025 280 32 800 000/00 RMK AO1 T01890022
54779K12N 12N20160417184509804/17/16 18:45:31  5-MIN K12N 172345Z AUTO 00000KT 19/03 A3025 280 35 800 000/00 RMK AO1 T01890033
54779K12N 12N20160417185012304/17/16 18:50:31  5-MIN K12N 172350Z AUTO 00000KT 18/05 A3025 280 41 800 000/00 RMK AO1 SLP247 T01830050 10250 20183 56030
54779K12N 12N20160417185509804/17/16 18:55:31  5-MIN K12N 172355Z AUTO 00000KT 17/05 A3026 280 44 600 000/00 RMK AO1 T01720050
54779K12N 12N20160417190009804/17/16 19:00:31  5-MIN K12N 180000Z AUTO 00000KT 17/04 A3026 280 42 600 000/00 RMK AO1 T01720044
54779K12N 12N20160417190509804/17/16 19:05:31  5-MIN K12N 180005Z AUTO 00000KT 17/03 A3026 280 40 600 000/00 RMK AO1 T01670033
54779K12N 12N20160417191009804/17/16 19:10:31  5-MIN K12N 180010Z AUTO 00000KT 16/07 A3026 270 55 500 000/00 RMK AO1 T01610072
54779K12N 12N20160417191509804/17/16 19:15:31  5-MIN K12N 180015Z AUTO 00000KT 16/09 A3026 270 62 500 000/00 RMK AO1 T01610089
54779K12N 12N20160417192009804/17/16 19:20:31  5-MIN K12N 180020Z AUTO 00000KT 16/09 A3026 270 64 400 000/00 RMK AO1 T01560089
54779K12N 12N20160417192509804/17/16 19:25:31  5-MIN K12N 180025Z AUTO 00000KT 15/08 A3026 270 64 400 000/00 RMK AO1 T01500083
54779K12N 12N20160417193009804/17/16 19:30:31  5-MIN K12N 180030Z AUTO 00000KT 15/07 A3026 270 59 400 000/00 RMK AO1 T01500072
54779K12N 12N20160417193509804/17/16 19:35:31  5-MIN K12N 180035Z AUTO 00000KT 14/09 A3026 270 69 300 000/00 RMK AO1 T01440089
54779K12N 12N20160417194009804/17/16 19:40:31  5-MIN K12N 180040Z AUTO 00000KT 14/08 A3026 270 69 200 000/00 RMK AO1 T01390083
54779K12N 12N20160417194509804/17/16 19:45:31  5-MIN K12N 180045Z AUTO 00000KT 14/08 A3026 270 66 200 000/00 RMK AO1 T01390078
54779K12N 12N20160417195010504/17/16 19:50:31  5-MIN K12N 180050Z AUTO 00000KT 14/08 A3026 270 69 200 000/00 RMK AO1 SLP249 T01390083
54779K12N 12N20160417195509804/17/16 19:55:31  5-MIN K12N 180055Z AUTO 00000KT 14/08 A3026 270 66 200 000/00 RMK AO1 T01390078
54779K12N 12N20160417200009804/17/16 20:00:31  5-MIN K12N 180100Z AUTO 00000KT 14/08 A3026 270 69 200 000/00 RMK AO1 T01390083
54779K12N 12N20160417200509804/17/16 20:05:31  5-MIN K12N 180105Z AUTO 00000KT 13/08 A3026 270 71 200 000/00 RMK AO1 T01330083
54779K12N 12N20160417201009804/17/16 20:10:31  5-MIN K12N 180110Z AUTO 00000KT 13/09 A3026 270 74 200 000/00 RMK AO1 T01330089
54779K12N 12N20160417201509804/17/16 20:15:31  5-MIN K12N 180115Z AUTO 00000KT 13/08 A3026 270 71 200 000/00 RMK AO1 T01330083
54779K12N 12N20160417202009804/17/16 20:20:31  5-MIN K12N 180120Z AUTO 00000KT 13/08 A3026 270 74 100 000/00 RMK AO1 T01280083
54779K12N 12N20160417202509804/17/16 20:25:31  5-MIN K12N 180125Z AUTO 00000KT 13/08 A3026 270 74 100 000/00 RMK AO1 T01280083
54779K12N 12N20160417203009604/17/16 20:30:31  5-MIN K12N 180130Z AUTO 00000KT 12/06 A3026 270 66 0 000/00 RMK AO1 T01220061
54779K12N 12N20160417203509804/17/16 20:35:31  5-MIN K12N 180135Z AUTO 00000KT 13/06 A3026 270 63 100 000/00 RMK AO1 T01280061
54779K12N 12N20160417204009804/17/16 20:40:31  5-MIN K12N 180140Z AUTO 00000KT 13/05 A3026 270 59 100 000/00 RMK AO1 T01280050
54779K12N 12N20160417204509604/17/16 20:45:31  5-MIN K12N 180145Z AUTO 00000KT 12/04 A3026 270 59 0 000/00 RMK AO1 T01220044
54779K12N 12N20160417205010504/17/16 20:50:31  5-MIN K12N 180150Z AUTO 00000KT 13/06 A3026 270 63 100 000/00 RMK AO1 SLP248 T01280061
54779K12N 12N20160417205509604/17/16 20:55:31  5-MIN K12N 180155Z AUTO 00000KT 12/07 A3026 270 68 0 000/00 RMK AO1 T01220067
54779K12N 12N20160417210009804/17/16 21:00:31  5-MIN K12N 180200Z AUTO 00000KT 13/07 A3026 270 66 100 000/00 RMK AO1 T01280067
54779K12N 12N20160417210509604/17/16 21:05:31  5-MIN K12N 180205Z AUTO 00000KT 12/07 A3026 270 71 0 000/00 RMK AO1 T01220072
54779K12N 12N20160417211009604/17/16 21:10:31  5-MIN K12N 180210Z AUTO 00000KT 12/09 A3026 270 80 0 000/00 RMK AO1 T01220089
54779K12N 12N20160417211509604/17/16 21:15:31  5-MIN K12N 180215Z AUTO 00000KT 12/08 A3026 270 80 0 000/00 RMK AO1 T01170083
54779K12N 12N20160417212009604/17/16 21:20:31  5-MIN K12N 180220Z AUTO 00000KT 12/07 A3026 270 74 0 000/00 RMK AO1 T01170072
54779K12N 12N20160417212509604/17/16 21:25:31  5-MIN K12N 180225Z AUTO 00000KT 11/06 A3026 270 71 0 000/00 RMK AO1 T01110061
54779K12N 12N20160417213009604/17/16 21:30:31  5-MIN K12N 180230Z AUTO 00000KT 11/06 A3026 270 68 0 000/00 RMK AO1 T01110056
54779K12N 12N20160417213509604/17/16 21:35:31  5-MIN K12N 180235Z AUTO 00000KT 11/05 A3026 270 66 0 000/00 RMK AO1 T01110050
54779K12N 12N20160417214009604/17/16 21:40:31  5-MIN K12N 180240Z AUTO 00000KT 11/06 A3026 270 68 0 000/00 RMK AO1 T01110056
54779K12N 12N20160417214509604/17/16 21:45:31  5-MIN K12N 180245Z AUTO 00000KT 11/06 A3026 270 68 0 000/00 RMK AO1 T01110056
54779K12N 12N20160417215011204/17/16 21:50:31  5-MIN K12N 180250Z AUTO 00000KT 11/05 A3026 270 68 -100 000/00 RMK AO1 SLP246 T01060050 55004
54779K12N 12N20160417215509904/17/16 21:55:31  5-MIN K12N 180255Z AUTO 00000KT 11/06 A3026 270 71 -100 000/00 RMK AO1 T01060056
54779K12N 12N20160417220009904/17/16 22:00:31  5-MIN K12N 180300Z AUTO 00000KT 11/06 A3026 270 74 -100 000/00 RMK AO1 T01060061
54779K12N 12N20160417220509904/17/16 22:05:31  5-MIN K12N 180305Z AUTO 00000KT 11/06 A3026 270 74 -100 000/00 RMK AO1 T01060061
54779K12N 12N20160417221009904/17/16 22:10:31  5-MIN K12N 180310Z AUTO 00000KT 11/04 A3026 270 66 -100 000/00 RMK AO1 T01060044
54779K12N 12N20160417221509904/17/16 22:15:31  5-MIN K12N 180315Z AUTO 00000KT 11/04 A3026 270 63 -100 000/00 RMK AO1 T01060039
54779K12N 12N20160417222009904/17/16 22:20:31  5-MIN K12N 180320Z AUTO 00000KT 10/04 A3026 270 65 -200 000/00 RMK AO1 T01000039
54779K12N 12N20160417222509904/17/16 22:25:31  5-MIN K12N 180325Z AUTO 00000KT 11/04 A3026 270 63 -100 000/00 RMK AO1 T01060039
54779K12N 12N20160417223009904/17/16 22:30:31  5-MIN K12N 180330Z AUTO 00000KT 11/06 A3026 270 71 -100 000/00 RMK AO1 T01060056
54779K12N 12N20160417223509904/17/16 22:35:31  5-MIN K12N 180335Z AUTO 00000KT 10/06 A3026 270 77 -200 000/00 RMK AO1 T01000061
54779K12N 12N20160417224009904/17/16 22:40:31  5-MIN K12N 180340Z AUTO 00000KT 10/06 A3026 270 77 -200 000/00 RMK AO1 T01000061
54779K12N 12N20160417224509904/17/16 22:45:31  5-MIN K12N 180345Z AUTO 00000KT 10/06 A3026 270 77 -200 000/00 RMK AO1 T01000061
54779K12N 12N20160417225010604/17/16 22:50:31  5-MIN K12N 180350Z AUTO 00000KT 10/06 A3026 270 77 -200 000/00 RMK AO1 SLP247 T01000061
54779K12N 12N20160417225509904/17/16 22:55:31  5-MIN K12N 180355Z AUTO 00000KT 10/06 A3026 270 74 -200 000/00 RMK AO1 T01000056
54779K12N 12N20160417230009904/17/16 23:00:31  5-MIN K12N 180400Z AUTO 00000KT 10/06 A3026 270 74 -200 000/00 RMK AO1 T01000056
54779K12N 12N20160417230509904/17/16 23:05:31  5-MIN K12N 180405Z AUTO 00000KT 10/06 A3026 270 77 -200 000/00 RMK AO1 T01000061
54779K12N 12N20160417231009904/17/16 23:10:31  5-MIN K12N 180410Z AUTO 00000KT 10/06 A3026 270 77 -200 000/00 RMK AO1 T01000061
54779K12N 12N20160417231509904/17/16 23:15:31  5-MIN K12N 180415Z AUTO 00000KT 10/06 A3026 270 77 -200 000/00 RMK AO1 T01000061
54779K12N 12N20160417232009904/17/16 23:20:31  5-MIN K12N 180420Z AUTO 00000KT 10/06 A3026 270 74 -200 000/00 RMK AO1 T01000056
54779K12N 12N20160417232509904/17/16 23:25:31  5-MIN K12N 180425Z AUTO 00000KT 10/06 A3026 270 77 -200 000/00 RMK AO1 T01000061
54779K12N 12N20160417233009904/17/16 23:30:31  5-MIN K12N 180430Z AUTO 00000KT 10/06 A3026 270 74 -200 000/00 RMK AO1 T01000056
54779K12N 12N20160417233509904/17/16 23:35:31  5-MIN K12N 180435Z AUTO 00000KT 09/06 A3026 270 76 -200 000/00 RMK AO1 T00940056
54779K12N 12N20160417234009904/17/16 23:40:31  5-MIN K12N 180440Z AUTO 00000KT 09/06 A3026 270 76 -200 000/00 RMK AO1 T00940056
54779K12N 12N20160417234509904/17/16 23:45:31  5-MIN K12N 180445Z AUTO 00000KT 09/06 A3026 270 76 -200 000/00 RMK AO1 T00940056
54779K12N 12N20160417235011604/17/16 23:50:31  5-MIN K12N 180450Z AUTO 00000KT 09/06 A3026 270 79 -300 000/00 RMK AO1 SLP246 T00890056 402500011
54779K12N 12N20160417235509904/17/16 23:55:31  5-MIN K12N 180455Z AUTO 00000KT 09/05 A3026 270 76 -300 000/00 RMK AO1 T00890050
54779K12N 12N20160418000009904/18/16 00:00:31  5-MIN K12N 180500Z AUTO 00000KT 08/05 A3026 270 79 -400 000/00 RMK AO1 T00830050
54779K12N 12N20160418000509904/18/16 00:05:31  5-MIN K12N 180505Z AUTO 00000KT 09/05 A3025 280 76 -300 000/00 RMK AO1 T00890050
54779K12N 12N20160418001009904/18/16 00:10:31  5-MIN K12N 180510Z AUTO 00000KT 08/06 A3025 280 82 -400 000/00 RMK AO1 T00830056
54779K12N 12N20160418001509904/18/16 00:15:31  5-MIN K12N 180515Z AUTO 00000KT 08/06 A3025 280 86 -400 000/00 RMK AO1 T00830061
54779K12N 12N20160418002009904/18/16 00:20:31  5-MIN K12N 180520Z AUTO 00000KT 09/06 A3025 280 83 -300 000/00 RMK AO1 T00890061
54779K12N 12N20160418002509904/18/16 00:25:31  5-MIN K12N 180525Z AUTO 00000KT 08/06 A3025 280 86 -400 000/00 RMK AO1 T00830061
54779K12N 12N20160418003009904/18/16 00:30:31  5-MIN K12N 180530Z AUTO 00000KT 08/06 A3025 280 82 -400 000/00 RMK AO1 T00830056
54779K12N 12N20160418003509904/18/16 00:35:31  5-MIN K12N 180535Z AUTO 00000KT 08/06 A3025 280 82 -400 000/00 RMK AO1 T00830056
54779K12N 12N20160418004009904/18/16 00:40:31  5-MIN K12N 180540Z AUTO 00000KT 08/05 A3025 280 82 -400 000/00 RMK AO1 T00780050
54779K12N 12N20160418004509904/18/16 00:45:31  5-MIN K12N 180545Z AUTO 00000KT 08/06 A3025 280 82 -400 000/00 RMK AO1 T00830056
54779K12N 12N20160418005012404/18/16 00:50:31  5-MIN K12N 180550Z AUTO 20003KT 08/06 A3025 280 86 -400 220/03 RMK AO1 SLP242 T00780056 10178 20078 50002
54779K12N 12N20160418005509904/18/16 00:55:31  5-MIN K12N 180555Z AUTO 00000KT 08/06 A3025 280 86 -400 000/00 RMK AO1 T00780056
54779K12N 12N20160418010009904/18/16 01:00:31  5-MIN K12N 180600Z AUTO 00000KT 08/06 A3025 280 82 -400 000/00 RMK AO1 T00830056
54779K12N 12N20160418010509904/18/16 01:05:31  5-MIN K12N 180605Z AUTO 00000KT 08/05 A3024 290 82 -400 000/00 RMK AO1 T00780050
54779K12N 12N20160418011009904/18/16 01:10:31  5-MIN K12N 180610Z AUTO 00000KT 07/04 A3024 290 82 -500 000/00 RMK AO1 T00720044
54779K12N 12N20160418011509904/18/16 01:15:31  5-MIN K12N 180615Z AUTO 00000KT 08/04 A3024 290 79 -400 000/00 RMK AO1 T00780044
54779K12N 12N20160418012009904/18/16 01:20:31  5-MIN K12N 180620Z AUTO 00000KT 08/04 A3024 290 79 -400 000/00 RMK AO1 T00780044
54779K12N 12N20160418012509904/18/16 01:25:31  5-MIN K12N 180625Z AUTO 00000KT 08/04 A3024 290 79 -400 000/00 RMK AO1 T00780044
54779K12N 12N20160418013009904/18/16 01:30:31  5-MIN K12N 180630Z AUTO 00000KT 07/05 A3024 290 86 -500 000/00 RMK AO1 T00720050
54779K12N 12N20160418013509904/18/16 01:35:31  5-MIN K12N 180635Z AUTO 00000KT 07/05 A3024 290 86 -500 000/00 RMK AO1 T00720050
54779K12N 12N20160418014009904/18/16 01:40:31  5-MIN K12N 180640Z AUTO 00000KT 07/04 A3024 290 82 -500 000/00 RMK AO1 T00720044
54779K12N 12N20160418014509904/18/16 01:45:31  5-MIN K12N 180645Z AUTO 00000KT 07/04 A3024 290 82 -500 000/00 RMK AO1 T00720044
54779K12N 12N20160418015010604/18/16 01:50:31  5-MIN K12N 180650Z AUTO 00000KT 07/04 A3024 290 86 -600 000/00 RMK AO1 SLP239 T00670044
54779K12N 12N20160418015509904/18/16 01:55:31  5-MIN K12N 180655Z AUTO 00000KT 07/04 A3024 290 82 -500 000/00 RMK AO1 T00720044
54779K12N 12N20160418020009904/18/16 02:00:31  5-MIN K12N 180700Z AUTO 00000KT 07/04 A3024 290 82 -500 000/00 RMK AO1 T00720044
54779K12N 12N20160418020509904/18/16 02:05:31  5-MIN K12N 180705Z AUTO 00000KT 07/04 A3024 290 82 -500 000/00 RMK AO1 T00720044
54779K12N 12N20160418021009904/18/16 02:10:31  5-MIN K12N 180710Z AUTO 00000KT 07/04 A3024 290 86 -600 000/00 RMK AO1 T00670044
54779K12N 12N20160418021509904/18/16 02:15:31  5-MIN K12N 180715Z AUTO 00000KT 06/04 A3024 290 86 -600 000/00 RMK AO1 T00610039
54779K12N 12N20160418022009904/18/16 02:20:31  5-MIN K12N 180720Z AUTO 00000KT 07/04 A3024 290 82 -600 000/00 RMK AO1 T00670039
54779K12N 12N20160418022509904/18/16 02:25:31  5-MIN K12N 180725Z AUTO 00000KT 07/04 A3024 290 82 -600 000/00 RMK AO1 T00670039
54779K12N 12N20160418023009904/18/16 02:30:31  5-MIN K12N 180730Z AUTO 00000KT 07/04 A3024 290 86 -600 000/00 RMK AO1 T00670044
54779K12N 12N20160418023509904/18/16 02:35:31  5-MIN K12N 180735Z AUTO 00000KT 06/04 A3024 290 86 -600 000/00 RMK AO1 T00610039
54779K12N 12N20160418024009904/18/16 02:40:31  5-MIN K12N 180740Z AUTO 00000KT 07/04 A3024 290 82 -600 000/00 RMK AO1 T00670039
54779K12N 12N20160418024509904/18/16 02:45:31  5-MIN K12N 180745Z AUTO 00000KT 06/04 A3024 290 86 -600 000/00 RMK AO1 T00610039
54779K12N 12N20160418025010604/18/16 02:50:31  5-MIN K12N 180750Z AUTO 00000KT 06/04 A3024 290 86 -600 000/00 RMK AO1 SLP238 T00610039
54779K12N 12N20160418025509904/18/16 02:55:31  5-MIN K12N 180755Z AUTO 00000KT 06/04 A3024 290 89 -700 000/00 RMK AO1 T00560039
54779K12N 12N20160418030009904/18/16 03:00:31  5-MIN K12N 180800Z AUTO 00000KT 06/03 A3024 290 85 -700 000/00 RMK AO1 T00560033
54779K12N 12N20160418030509904/18/16 03:05:31  5-MIN K12N 180805Z AUTO 00000KT 06/04 A3024 290 86 -600 000/00 RMK AO1 T00610039
54779K12N 12N20160418031009904/18/16 03:10:31  5-MIN K12N 180810Z AUTO 00000KT 06/04 A3024 290 86 -600 000/00 RMK AO1 T00610039
54779K12N 12N20160418031509904/18/16 03:15:31  5-MIN K12N 180815Z AUTO 00000KT 06/04 A3024 290 86 -600 000/00 RMK AO1 T00610039
54779K12N 12N20160418032009904/18/16 03:20:31  5-MIN K12N 180820Z AUTO 00000KT 06/03 A3024 290 85 -700 000/00 RMK AO1 T00560033
54779K12N 12N20160418032509904/18/16 03:25:31  5-MIN K12N 180825Z AUTO 00000KT 06/03 A3024 290 85 -700 000/00 RMK AO1 T00560033
54779K12N 12N20160418033009904/18/16 03:30:31  5-MIN K12N 180830Z AUTO 00000KT 06/03 A3024 290 85 -700 000/00 RMK AO1 T00560033
54779K12N 12N20160418033509904/18/16 03:35:31  5-MIN K12N 180835Z AUTO 00000KT 06/03 A3024 290 85 -700 000/00 RMK AO1 T00560033
54779K12N 12N20160418034009904/18/16 03:40:31  5-MIN K12N 180840Z AUTO 00000KT 06/03 A3024 290 85 -700 000/00 RMK AO1 T00560033
54779K12N 12N20160418034509904/18/16 03:45:31  5-MIN K12N 180845Z AUTO 00000KT 06/03 A3025 280 85 -700 000/00 RMK AO1 T00560033
54779K12N 12N20160418035011204/18/16 03:50:31  5-MIN K12N 180850Z AUTO 00000KT 06/03 A3025 280 85 -700 000/00 RMK AO1 SLP241 T00560033 58005
54779K12N 12N20160418035509904/18/16 03:55:31  5-MIN K12N 180855Z AUTO 00000KT 06/03 A3025 280 85 -700 000/00 RMK AO1 T00560033
54779K12N 12N20160418040009904/18/16 04:00:31  5-MIN K12N 180900Z AUTO 00000KT 05/03 A3025 280 85 -800 000/00 RMK AO1 T00500028
54779K12N 12N20160418040509904/18/16 04:05:31  5-MIN K12N 180905Z AUTO 00000KT 05/03 A3025 280 89 -800 000/00 RMK AO1 T00500033
54779K12N 12N20160418041009904/18/16 04:10:31  5-MIN K12N 180910Z AUTO 00000KT 05/03 A3025 280 89 -800 000/00 RMK AO1 T00500033
54779K12N 12N20160418041509904/18/16 04:15:31  5-MIN K12N 180915Z AUTO 00000KT 05/03 A3025 280 89 -800 000/00 RMK AO1 T00500033
54779K12N 12N20160418042009904/18/16 04:20:31  5-MIN K12N 180920Z AUTO 00000KT 06/03 A3025 280 85 -700 000/00 RMK AO1 T00560033
54779K12N 12N20160418042509904/18/16 04:25:31  5-MIN K12N 180925Z AUTO 00000KT 05/03 A3025 280 89 -800 000/00 RMK AO1 T00500033
54779K12N 12N20160418043009904/18/16 04:30:31  5-MIN K12N 180930Z AUTO 00000KT 05/03 A3026 280 89 -800 000/00 RMK AO1 T00500033
54779K12N 12N20160418043509904/18/16 04:35:31  5-MIN K12N 180935Z AUTO 00000KT 04/03 A3026 280 89 -800 000/00 RMK AO1 T00440028
54779K12N 12N20160418044009904/18/16 04:40:31  5-MIN K12N 180940Z AUTO 00000KT 05/03 A3026 280 85 -800 000/00 RMK AO1 T00500028
54779K12N 12N20160418044509904/18/16 04:45:31  5-MIN K12N 180945Z AUTO 00000KT 05/03 A3026 280 85 -800 000/00 RMK AO1 T00500028
54779K12N 12N20160418045010604/18/16 04:50:31  5-MIN K12N 180950Z AUTO 00000KT 05/03 A3025 280 85 -800 000/00 RMK AO1 SLP244 T00500028
54779K12N 12N20160418045509904/18/16 04:55:31  5-MIN K12N 180955Z AUTO 00000KT 05/03 A3025 280 89 -800 000/00 RMK AO1 T00500033
54779K12N 12N20160418050009904/18/16 05:00:31  5-MIN K12N 181000Z AUTO 00000KT 04/03 A3026 280 89 -800 000/00 RMK AO1 T00440028
54779K12N 12N20160418050509904/18/16 05:05:31  5-MIN K12N 181005Z AUTO 00000KT 04/03 A3026 280 89 -800 000/00 RMK AO1 T00440028
54779K12N 12N20160418051009904/18/16 05:10:31  5-MIN K12N 181010Z AUTO 00000KT 05/03 A3026 280 85 -800 000/00 RMK AO1 T00500028
54779K12N 12N20160418051509904/18/16 05:15:31  5-MIN K12N 181015Z AUTO 00000KT 04/03 A3026 270 89 -800 000/00 RMK AO1 T00440028
54779K12N 12N20160418052009904/18/16 05:20:31  5-MIN K12N 181020Z AUTO 00000KT 04/03 A3026 270 89 -900 000/00 RMK AO1 T00440028
54779K12N 12N20160418052509904/18/16 05:25:31  5-MIN K12N 181025Z AUTO 00000KT 04/03 A3026 270 89 -900 000/00 RMK AO1 T00440028
54779K12N 12N20160418053009904/18/16 05:30:31  5-MIN K12N 181030Z AUTO 00000KT 04/03 A3026 270 89 -900 000/00 RMK AO1 T00440028
54779K12N 12N20160418053509904/18/16 05:35:31  5-MIN K12N 181035Z AUTO 00000KT 04/03 A3026 270 89 -900 000/00 RMK AO1 T00440028
54779K12N 12N20160418054009904/18/16 05:40:31  5-MIN K12N 181040Z AUTO 00000KT 04/03 A3026 270 89 -900 000/00 RMK AO1 T00440028
54779K12N 12N20160418054509904/18/16 05:45:31  5-MIN K12N 181045Z AUTO 00000KT 05/03 A3027 270 85 -800 000/00 RMK AO1 T00500028
54779K12N 12N20160418055010604/18/16 05:50:31  5-MIN K12N 181050Z AUTO 00000KT 05/03 A3027 270 85 -800 000/00 RMK AO1 SLP249 T00500028
54779K12N 12N20160418055509904/18/16 05:55:31  5-MIN K12N 181055Z AUTO 00000KT 05/03 A3027 260 89 -800 000/00 RMK AO1 T00500033
54779K12N 12N20160418060009904/18/16 06:00:31  5-MIN K12N 181100Z AUTO 00000KT 05/03 A3027 260 89 -800 000/00 RMK AO1 T00500033
54779K12N 12N20160418060509904/18/16 06:05:31  5-MIN K12N 181105Z AUTO 00000KT 06/04 A3027 260 89 -700 000/00 RMK AO1 T00560039
54779K12N 12N20160418061009904/18/16 06:10:31  5-MIN K12N 181110Z AUTO 00000KT 06/04 A3027 260 89 -700 000/00 RMK AO1 T00560039
54779K12N 12N20160418061509904/18/16 06:15:31  5-MIN K12N 181115Z AUTO 00000KT 06/04 A3027 260 89 -700 000/00 RMK AO1 T00560039
54779K12N 12N20160418062009904/18/16 06:20:31  5-MIN K12N 181120Z AUTO 00000KT 06/05 A3027 260 93 -700 000/00 RMK AO1 T00610050
54779K12N 12N20160418062509904/18/16 06:25:31  5-MIN K12N 181125Z AUTO 00000KT 07/06 A3027 260 93 -600 000/00 RMK AO1 T00670056
54779K12N 12N20160418063009904/18/16 06:30:31  5-MIN K12N 181130Z AUTO 00000KT 07/06 A3027 260 93 -500 000/00 RMK AO1 T00720061
54779K12N 12N20160418063509904/18/16 06:35:31  5-MIN K12N 181135Z AUTO 00000KT 07/06 A3027 260 93 -500 000/00 RMK AO1 T00720061
54779K12N 12N20160418064009904/18/16 06:40:31  5-MIN K12N 181140Z AUTO 00000KT 08/07 A3027 260 93 -500 000/00 RMK AO1 T00780067
54779K12N 12N20160418064509904/18/16 06:45:31  5-MIN K12N 181145Z AUTO 00000KT 08/07 A3027 270 89 -400 000/00 RMK AO1 T00830067
54779K12N 12N20160418065012404/18/16 06:50:31  5-MIN K12N 181150Z AUTO 00000KT 08/06 A3027 270 86 -400 000/00 RMK AO1 SLP249 T00830061 10083 20044 55000
54779K12N 12N20160418065509904/18/16 06:55:31  5-MIN K12N 181155Z AUTO 00000KT 09/07 A3027 270 86 -300 000/00 RMK AO1 T00890067
54779K12N 12N20160418070009904/18/16 07:00:31  5-MIN K12N 181200Z AUTO 00000KT 09/06 A3027 260 79 -200 000/00 RMK AO1 T00940061
54779K12N 12N20160418070509904/18/16 07:05:31  5-MIN K12N 181205Z AUTO 00000KT 10/06 A3027 260 77 -200 000/00 RMK AO1 T01000061
54779K12N 12N20160418071009904/18/16 07:10:31  5-MIN K12N 181210Z AUTO 00000KT 11/06 A3027 260 74 -100 000/00 RMK AO1 T01060061
54779K12N 12N20160418071509604/18/16 07:15:31  5-MIN K12N 181215Z AUTO 00000KT 11/06 A3027 260 71 0 000/00 RMK AO1 T01110061
54779K12N 12N20160418072009604/18/16 07:20:31  5-MIN K12N 181220Z AUTO 00000KT 12/06 A3027 260 66 0 000/00 RMK AO1 T01220061
54779K12N 12N20160418072509804/18/16 07:25:31  5-MIN K12N 181225Z AUTO 00000KT 13/06 A3027 260 63 100 000/00 RMK AO1 T01280061
54779K12N 12N20160418073009804/18/16 07:30:31  5-MIN K12N 181230Z AUTO 00000KT 13/05 A3027 260 57 200 000/00 RMK AO1 T01330050
54779K12N 12N20160418073509804/18/16 07:35:31  5-MIN K12N 181235Z AUTO 00000KT 14/04 A3027 260 50 200 000/00 RMK AO1 T01390039
54779K12N 12N20160418074009804/18/16 07:40:31  5-MIN K12N 181240Z AUTO 05003KT 14/03 A3027 260 47 300 070/03 RMK AO1 T01440033
54779K12N 12N20160418074509804/18/16 07:45:31  5-MIN K12N 181245Z AUTO 06003KT 15/02 A3027 260 42 400 070/03 RMK AO1 T01500022
54779K12N 12N20160418075010504/18/16 07:50:31  5-MIN K12N 181250Z AUTO 05003KT 16/02 A3027 260 39 400 070/03 RMK AO1 SLP248 T01560017
54779K12N 12N20160418075509804/18/16 07:55:31  5-MIN K12N 181255Z AUTO 02004KT 16/02 A3027 270 37 500 030/04 RMK AO1 T01610017
54779K12N 12N20160418080009804/18/16 08:00:31  5-MIN K12N 181300Z AUTO VRB03KT 17/01 A3027 270 34 600 VRB/03 RMK AO1 T01670011
54779K12N 12N20160418080509804/18/16 08:05:31  5-MIN K12N 181305Z AUTO VRB03KT 17/02 A3026 270 37 600 VRB/03 RMK AO1 T01670022
54779K12N 12N20160418081009804/18/16 08:10:31  5-MIN K12N 181310Z AUTO 04004KT 17/02 A3026 270 35 600 050/04 RMK AO1 T01720017
54779K12N 12N20160418081509804/18/16 08:15:31  5-MIN K12N 181315Z AUTO VRB03KT 17/02 A3026 270 36 600 VRB/03 RMK AO1 T01720022
54779K12N 12N20160418082009804/18/16 08:20:31  5-MIN K12N 181320Z AUTO 04004KT 17/01 A3026 270 32 600 050/04 RMK AO1 T01720006
54779K12N 12N20160418082509804/18/16 08:25:31  5-MIN K12N 181325Z AUTO 04004KT 18/01 A3026 270 32 700 050/04 RMK AO1 T01780011
54779K12N 12N20160418083009804/18/16 08:30:31  5-MIN K12N 181330Z AUTO 04003KT 18/01 A3026 270 32 700 050/03 RMK AO1 T01780011
54779K12N 12N20160418083509804/18/16 08:35:31  5-MIN K12N 181335Z AUTO 04004KT 18/01 A3026 280 31 800 050/04 RMK AO1 T01830011
54779K12N 12N20160418084009804/18/16 08:40:31  5-MIN K12N 181340Z AUTO VRB03KT 18/01 A3025 280 31 800 VRB/03 RMK AO1 T01830011
54779K12N 12N20160418084509804/18/16 08:45:31  5-MIN K12N 181345Z AUTO VRB03KT 19/01 A3025 280 29 800 VRB/03 RMK AO1 T01890006
54779K12N 12N20160418085010504/18/16 08:50:31  5-MIN K12N 181350Z AUTO VRB03KT 19/00 A3025 280 28 800 VRB/03 RMK AO1 SLP241 T01890000
54779K12N 12N20160418085509804/18/16 08:55:31  5-MIN K12N 181355Z AUTO 04004KT 19/00 A3025 280 28 800 050/04 RMK AO1 T01890000
54779K12N 12N20160418090008804/18/16 09:00:31  5-MIN K12N 181400Z AUTO 19/00 A3025 280 27 900 M /M RMK AO1 T01940000
54779K12N 12N20160418090509904/18/16 09:05:31  5-MIN K12N 181405Z AUTO VRB03KT 19/M01 A3025 280 26 900 VRB/03 RMK AO1 T01941006
54779K12N 12N20160418091010004/18/16 09:10:31  5-MIN K12N 181410Z AUTO 04004KT 20/M01 A3025 280 25 1000 050/04 RMK AO1 T02001006
54779K12N 12N20160418091509904/18/16 09:15:31  5-MIN K12N 181415Z AUTO VRB04KT 20/00 A3025 290 26 1000 VRB/04 RMK AO1 T02000000
54779K12N 12N20160418092009904/18/16 09:20:31  5-MIN K12N 181420Z AUTO VRB03KT 20/01 A3024 290 27 1000 VRB/03 RMK AO1 T02000006
54779K12N 12N20160418092509904/18/16 09:25:31  5-MIN K12N 181425Z AUTO VRB04KT 20/00 A3024 290 26 1000 VRB/04 RMK AO1 T02000000
54779K12N 12N20160418093010004/18/16 09:30:31  5-MIN K12N 181430Z AUTO VRB04KT 21/M01 A3024 290 24 1000 VRB/04 RMK AO1 T02061006
54779K12N 12N20160418093510004/18/16 09:35:31  5-MIN K12N 181435Z AUTO VRB03KT 21/M01 A3024 290 23 1000 VRB/03 RMK AO1 T02061011
54779K12N 12N20160418094009904/18/16 09:40:31  5-MIN K12N 181440Z AUTO VRB03KT 21/01 A3024 290 25 1100 VRB/03 RMK AO1 T02110006
54779K12N 12N20160418094509904/18/16 09:45:31  5-MIN K12N 181445Z AUTO VRB03KT 21/00 A3024 290 25 1000 VRB/03 RMK AO1 T02060000
54779K12N 12N20160418095011204/18/16 09:50:31  5-MIN K12N 181450Z AUTO VRB04KT 21/00 A3024 290 24 1100 VRB/04 RMK AO1 SLP238 T02110000 50007
54779K12N 12N20160418095509904/18/16 09:55:31  5-MIN K12N 181455Z AUTO 04004KT 22/00 A3024 290 23 1200 050/04 RMK AO1 T02170000
54779K12N 12N20160418100010004/18/16 10:00:31  5-MIN K12N 181500Z AUTO VRB03KT 21/M01 A3024 290 23 1100 VRB/03 RMK AO1 T02111006
54779K12N 12N20160418100509904/18/16 10:05:31  5-MIN K12N 181505Z AUTO 35003KT 22/02 A3024 290 25 1200 360/03 RMK AO1 T02220017
54779K12N 12N20160418101009904/18/16 10:10:31  5-MIN K12N 181510Z AUTO VRB03KT 22/01 A3023 300 24 1200 VRB/03 RMK AO1 T02170006
54779K12N 12N20160418101509904/18/16 10:15:31  5-MIN K12N 181515Z AUTO VRB03KT 22/01 A3023 300 24 1200 VRB/03 RMK AO1 T02170006
54779K12N 12N20160418102009904/18/16 10:20:31  5-MIN K12N 181520Z AUTO 00000KT 22/01 A3023 300 25 1200 000/00 RMK AO1 T02170011
54779K12N 12N20160418102508904/18/16 10:25:31  5-MIN K12N 181525Z AUTO 22/00 A3023 300 22 1300 M /M RMK AO1 T02220000
54779K12N 12N20160418103010004/18/16 10:30:31  5-MIN K12N 181530Z AUTO 05006KT 22/M01 A3023 300 21 1300 060/06 RMK AO1 T02221006
54779K12N 12N20160418103510004/18/16 10:35:31  5-MIN K12N 181535Z AUTO 36004KT 22/M02 A3023 300 19 1300 010/04 RMK AO1 T02221022
54779K12N 12N20160418104010004/18/16 10:40:31  5-MIN K12N 181540Z AUTO VRB06KT 22/M01 A3022 310 21 1300 VRB/06 RMK AO1 T02221011
54779K12N 12N20160418104510004/18/16 10:45:31  5-MIN K12N 181545Z AUTO VRB04KT 23/M01 A3022 300 20 1300 VRB/04 RMK AO1 T02281011
54779K12N 12N20160418105010704/18/16 10:50:31  5-MIN K12N 181550Z AUTO 34004KT 23/M02 A3022 310 19 1300 360/04 RMK AO1 SLP232 T02281017
54779K12N 12N20160418105510004/18/16 10:55:31  5-MIN K12N 181555Z AUTO 34005KT 23/M02 A3022 310 19 1300 350/05 RMK AO1 T02281017
54779K12N 12N20160418110010004/18/16 11:00:31  5-MIN K12N 181600Z AUTO VRB05KT 23/M01 A3022 310 20 1300 VRB/05 RMK AO1 T02281011
54779K12N 12N20160418110509004/18/16 11:05:31  5-MIN K12N 181605Z AUTO 23/M02 A3022 310 19 1300 M /M RMK AO1 T02281017
54779K12N 12N20160418111010004/18/16 11:10:31  5-MIN K12N 181610Z AUTO VRB05KT 23/M01 A3022 310 20 1300 VRB/05 RMK AO1 T02281011
54779K12N 12N20160418111510004/18/16 11:15:31  5-MIN K12N 181615Z AUTO VRB04KT 23/M02 A3022 310 19 1300 VRB/04 RMK AO1 T02281017
54779K12N 12N20160418112009004/18/16 11:20:31  5-MIN K12N 181620Z AUTO 23/M01 A3021 320 19 1400 M /M RMK AO1 T02331011
54779K12N 12N20160418112510004/18/16 11:25:31  5-MIN K12N 181625Z AUTO 00000KT 23/M01 A3021 320 19 1400 000/00 RMK AO1 T02331011
54779K12N 12N20160418113010004/18/16 11:30:31  5-MIN K12N 181630Z AUTO VRB03KT 23/M01 A3021 320 19 1400 VRB/03 RMK AO1 T02331011
54779K12N 12N20160418113510004/18/16 11:35:31  5-MIN K12N 181635Z AUTO VRB03KT 23/M02 A3020 320 18 1300 VRB/03 RMK AO1 T02281022
54779K12N 12N20160418114010004/18/16 11:40:31  5-MIN K12N 181640Z AUTO 00000KT 24/M02 A3020 320 18 1500 000/00 RMK AO1 T02391017
54779K12N 12N20160418114510004/18/16 11:45:31  5-MIN K12N 181645Z AUTO VRB03KT 24/M02 A3020 330 18 1500 VRB/03 RMK AO1 T02391017
54779K12N 12N20160418115010604/18/16 11:50:31  5-MIN K12N 181650Z AUTO VRB05KT 24/00 A3020 330 20 1500 VRB/05 RMK AO1 SLP224 T02390000
54779K12N 12N20160418115510004/18/16 11:55:31  5-MIN K12N 181655Z AUTO VRB03KT 24/M03 A3019 330 16 1500 VRB/03 RMK AO1 T02391028
54779K12N 12N20160418120010004/18/16 12:00:31  5-MIN K12N 181700Z AUTO 00000KT 24/M03 A3019 340 16 1500 000/00 RMK AO1 T02391033
54779K12N 12N20160418120510004/18/16 12:05:31  5-MIN K12N 181705Z AUTO VRB03KT 24/M03 A3019 340 16 1600 VRB/03 RMK AO1 T02441028
54779K12N 12N20160418121010004/18/16 12:10:31  5-MIN K12N 181710Z AUTO VRB03KT 24/M01 A3019 340 18 1600 VRB/03 RMK AO1 T02441011
54779K12N 12N20160418121510004/18/16 12:15:31  5-MIN K12N 181715Z AUTO 00000KT 24/M02 A3018 340 17 1600 000/00 RMK AO1 T02441017
54779K12N 12N20160418122010004/18/16 12:20:31  5-MIN K12N 181720Z AUTO 05003KT 24/M01 A3018 340 18 1600 060/03 RMK AO1 T02441011
54779K12N 12N20160418122510004/18/16 12:25:31  5-MIN K12N 181725Z AUTO VRB04KT 25/M02 A3018 340 16 1600 VRB/04 RMK AO1 T02501022
54779K12N 12N20160418123010004/18/16 12:30:31  5-MIN K12N 181730Z AUTO VRB05KT 24/M02 A3018 340 17 1600 VRB/05 RMK AO1 T02441017
54779K12N 12N20160418123510004/18/16 12:35:31  5-MIN K12N 181735Z AUTO VRB05KT 25/M01 A3018 340 18 1600 VRB/05 RMK AO1 T02501006
54779K12N 12N20160418124011604/18/16 12:40:31  5-MIN K12N 181740Z AUTO 03007KT 350V060 24/M02 A3018 350 17 1600 040/07 360V070 RMK AO1 T02441017
54779K12N 12N20160418124510004/18/16 12:45:31  5-MIN K12N 181745Z AUTO 05008KT 25/M02 A3018 350 16 1600 060/08 RMK AO1 T02501022
54779K12N 12N20160418125012504/18/16 12:50:31  5-MIN K12N 181750Z AUTO 00000KT 24/M04 A3017 350 15 1600 000/00 RMK AO1 SLP215 T02441039 10250 20089 58010
54779K12N 12N20160418125510004/18/16 12:55:31  5-MIN K12N 181755Z AUTO VRB05KT 25/M03 A3017 360 15 1600 VRB/05 RMK AO1 T02501028
54779K12N 12N20160418130010004/18/16 13:00:31  5-MIN K12N 181800Z AUTO 07006KT 25/M03 A3017 360 15 1600 080/06 RMK AO1 T02501028
54779K12N 12N20160418130510004/18/16 13:05:31  5-MIN K12N 181805Z AUTO 00000KT 24/M04 A3017 360 15 1600 000/00 RMK AO1 T02441039
54779K12N 12N20160418131010004/18/16 13:10:31  5-MIN K12N 181810Z AUTO 00000KT 25/M03 A3017 360 15 1600 000/00 RMK AO1 T02501028
54779K12N 12N20160418131510004/18/16 13:15:31  5-MIN K12N 181815Z AUTO 23004KT 25/M03 A3017 360 15 1600 240/04 RMK AO1 T02501033
54779K12N 12N20160418132010004/18/16 13:20:31  5-MIN K12N 181820Z AUTO 00000KT 25/M03 A3016 360 15 1600 000/00 RMK AO1 T02501033
54779K12N 12N20160418132510004/18/16 13:25:31  5-MIN K12N 181825Z AUTO VRB03KT 26/M02 A3016 360 15 1700 VRB/03 RMK AO1 T02561022
54779K12N 12N20160418133010004/18/16 13:30:31  5-MIN K12N 181830Z AUTO 00000KT 26/M04 A3016 370 14 1700 000/00 RMK AO1 T02561039
54779K12N 12N20160418133510004/18/16 13:35:31  5-MIN K12N 181835Z AUTO VRB06KT 26/M03 A3016 370 14 1700 VRB/06 RMK AO1 T02561033
54779K12N 12N20160418134010004/18/16 13:40:31  5-MIN K12N 181840Z AUTO VRB03KT 26/M03 A3015 370 14 1700 VRB/03 RMK AO1 T02561033
54779K12N 12N20160418134510004/18/16 13:45:31  5-MIN K12N 181845Z AUTO VRB03KT 26/M03 A3015 370 14 1700 VRB/03 RMK AO1 T02561033
54779K12N 12N20160418135010704/18/16 13:50:31  5-MIN K12N 181850Z AUTO 00000KT 26/M03 A3015 370 14 1800 000/00 RMK AO1 SLP207 T02611028
54779K12N 12N20160418135510004/18/16 13:55:31  5-MIN K12N 181855Z AUTO 00000KT 26/M03 A3015 380 14 1800 000/00 RMK AO1 T02611033
54779K12N 12N20160418140010004/18/16 14:00:31  5-MIN K12N 181900Z AUTO VRB04KT 25/M04 A3015 380 14 1700 VRB/04 RMK AO1 T02501044
54779K12N 12N20160418140510004/18/16 14:05:31  5-MIN K12N 181905Z AUTO 02004KT 26/M02 A3014 380 16 1800 030/04 RMK AO1 T02611017
54779K12N 12N20160418141010004/18/16 14:10:31  5-MIN K12N 181910Z AUTO 00000KT 26/M02 A3014 380 15 1800 000/00 RMK AO1 T02611022
54779K12N 12N20160418141510004/18/16 14:15:31  5-MIN K12N 181915Z AUTO VRB03KT 26/M01 A3014 380 16 1800 VRB/03 RMK AO1 T02611011
54779K12N 12N20160418142009904/18/16 14:20:31  5-MIN K12N 181920Z AUTO 03004KT 26/00 A3013 390 18 1800 040/04 RMK AO1 T02610000
54779K12N 12N20160418142510004/18/16 14:25:31  5-MIN K12N 181925Z AUTO 34006KT 26/M02 A3013 390 16 1800 350/06 RMK AO1 T02611017
54779K12N 12N20160418143010004/18/16 14:30:31  5-MIN K12N 181930Z AUTO 00000KT 26/M03 A3013 390 14 1800 000/00 RMK AO1 T02611028
54779K12N 12N20160418143510004/18/16 14:35:31  5-MIN K12N 181935Z AUTO VRB03KT 27/M02 A3013 400 14 1900 VRB/03 RMK AO1 T02671022
54779K12N 12N20160418144010004/18/16 14:40:31  5-MIN K12N 181940Z AUTO VRB04KT 26/M04 A3013 400 13 1800 VRB/04 RMK AO1 T02611039
54779K12N 12N20160418144510004/18/16 14:45:31  5-MIN K12N 181945Z AUTO 00000KT 26/M04 A3012 400 13 1800 000/00 RMK AO1 T02611044
54779K12N 12N20160418145010704/18/16 14:50:31  5-MIN K12N 181950Z AUTO 28004KT 27/M04 A3012 400 12 1900 300/04 RMK AO1 SLP198 T02671044
54779K12N 12N20160418145510004/18/16 14:55:31  5-MIN K12N 181955Z AUTO VRB06KT 27/M03 A3012 400 13 1900 VRB/06 RMK AO1 T02671033
54779K12N 12N20160418150010004/18/16 15:00:31  5-MIN K12N 182000Z AUTO VRB04KT 27/M03 A3012 400 14 1900 VRB/04 RMK AO1 T02671028
54779K12N 12N20160418150510004/18/16 15:05:31  5-MIN K12N 182005Z AUTO 31003KT 27/M03 A3012 400 13 1900 320/03 RMK AO1 T02721028
54779K12N 12N20160418151010004/18/16 15:10:31  5-MIN K12N 182010Z AUTO 05004KT 27/M04 A3011 410 13 1900 060/04 RMK AO1 T02671039
54779K12N 12N20160418151510004/18/16 15:15:31  5-MIN K12N 182015Z AUTO VRB03KT 27/M05 A3011 410 12 1900 VRB/03 RMK AO1 T02671050
54779K12N 12N20160418152010004/18/16 15:20:31  5-MIN K12N 182020Z AUTO VRB05KT 27/M04 A3011 410 13 1900 VRB/05 RMK AO1 T02671039
54779K12N 12N20160418152510004/18/16 15:25:31  5-MIN K12N 182025Z AUTO 04003KT 27/M04 A3011 410 13 1900 050/03 RMK AO1 T02671039
54779K12N 12N20160418153010004/18/16 15:30:31  5-MIN K12N 182030Z AUTO VRB03KT 27/M02 A3011 410 15 2000 VRB/03 RMK AO1 T02721017
54779K12N 12N20160418153510004/18/16 15:35:31  5-MIN K12N 182035Z AUTO VRB04KT 27/M03 A3010 420 13 1900 VRB/04 RMK AO1 T02671033
54779K12N 12N20160418154010004/18/16 15:40:31  5-MIN K12N 182040Z AUTO 00000KT 26/M04 A3010 420 13 1800 000/00 RMK AO1 T02611044
54779K12N 12N20160418154510004/18/16 15:45:31  5-MIN K12N 182045Z AUTO 00000KT 27/M05 A3010 420 12 1900 000/00 RMK AO1 T02671050
54779K12N 12N20160418155011304/18/16 15:50:31  5-MIN K12N 182050Z AUTO VRB04KT 27/M04 A3010 420 12 1900 VRB/04 RMK AO1 SLP189 T02671044 58022
54779K12N 12N20160418155510004/18/16 15:55:31  5-MIN K12N 182055Z AUTO VRB05KT 27/M03 A3010 420 13 1900 VRB/05 RMK AO1 T02671033
54779K12N 12N20160418160010004/18/16 16:00:31  5-MIN K12N 182100Z AUTO 29005KT 27/M03 A3009 430 13 2000 300/05 RMK AO1 T02721033
54779K12N 12N20160418160510004/18/16 16:05:31  5-MIN K12N 182105Z AUTO 00000KT 27/M04 A3009 430 12 2000 000/00 RMK AO1 T02721044
54779K12N 12N20160418161010004/18/16 16:10:31  5-MIN K12N 182110Z AUTO VRB03KT 27/M02 A3009 430 14 2000 VRB/03 RMK AO1 T02721022
54779K12N 12N20160418161510004/18/16 16:15:31  5-MIN K12N 182115Z AUTO VRB03KT 27/M03 A3009 430 13 2000 VRB/03 RMK AO1 T02721033
54779K12N 12N20160418162010004/18/16 16:20:31  5-MIN K12N 182120Z AUTO 36005KT 27/M03 A3009 430 13 1900 010/05 RMK AO1 T02671033
54779K12N 12N20160418162510004/18/16 16:25:31  5-MIN K12N 182125Z AUTO 00000KT 27/M03 A3009 430 13 2000 000/00 RMK AO1 T02721033
54779K12N 12N20160418163010004/18/16 16:30:31  5-MIN K12N 182130Z AUTO VRB06KT 27/M03 A3009 430 13 2000 VRB/06 RMK AO1 T02721033
54779K12N 12N20160418163510004/18/16 16:35:31  5-MIN K12N 182135Z AUTO 34006KT 27/M03 A3008 430 13 1900 360/06 RMK AO1 T02671033
54779K12N 12N20160418164010004/18/16 16:40:31  5-MIN K12N 182140Z AUTO 34003KT 27/M03 A3009 430 13 1900 350/03 RMK AO1 T02671033
54779K12N 12N20160418164510004/18/16 16:45:31  5-MIN K12N 182145Z AUTO VRB03KT 27/M03 A3008 430 14 1900 VRB/03 RMK AO1 T02671028
54779K12N 12N20160418165010704/18/16 16:50:31  5-MIN K12N 182150Z AUTO VRB05KT 27/M03 A3008 440 13 2000 VRB/05 RMK AO1 SLP184 T02721028
54779K12N 12N20160418165510004/18/16 16:55:31  5-MIN K12N 182155Z AUTO VRB06KT 27/M03 A3008 440 14 1900 VRB/06 RMK AO1 T02671028
54779K12N 12N20160418170010004/18/16 17:00:31  5-MIN K12N 182200Z AUTO 36006KT 26/M03 A3008 440 14 1900 010/06 RMK AO1 T02611033
54779K12N 12N20160418170510004/18/16 17:05:31  5-MIN K12N 182205Z AUTO 00000KT 27/M03 A3008 440 13 1900 000/00 RMK AO1 T02671033
54779K12N 12N20160418171010004/18/16 17:10:31  5-MIN K12N 182210Z AUTO 34005KT 27/M03 A3008 440 13 1900 350/05 RMK AO1 T02671033
54779K12N 12N20160418171510004/18/16 17:15:31  5-MIN K12N 182215Z AUTO 34005KT 26/M04 A3008 430 13 1900 350/05 RMK AO1 T02611039
54779K12N 12N20160418172010004/18/16 17:20:31  5-MIN K12N 182220Z AUTO 01004KT 27/M04 A3008 440 13 1900 020/04 RMK AO1 T02671039
54779K12N 12N20160418172510004/18/16 17:25:31  5-MIN K12N 182225Z AUTO 31003KT 26/M03 A3008 440 14 1900 320/03 RMK AO1 T02611033
54779K12N 12N20160418173010004/18/16 17:30:31  5-MIN K12N 182230Z AUTO 35007KT 26/M03 A3008 440 14 1900 010/07 RMK AO1 T02611028
54779K12N 12N20160418173510004/18/16 17:35:31  5-MIN K12N 182235Z AUTO VRB04KT 26/M03 A3008 440 14 1800 VRB/04 RMK AO1 T02561033
54779K12N 12N20160418174010004/18/16 17:40:31  5-MIN K12N 182240Z AUTO VRB03KT 26/M03 A3008 440 14 1800 VRB/03 RMK AO1 T02561033
54779K12N 12N20160418174510004/18/16 17:45:31  5-MIN K12N 182245Z AUTO 00000KT 26/M03 A3008 430 15 1800 000/00 RMK AO1 T02561028
54779K12N 12N20160418175010704/18/16 17:50:31  5-MIN K12N 182250Z AUTO VRB04KT 26/M03 A3008 430 15 1800 VRB/04 RMK AO1 SLP186 T02561028
54779K12N 12N20160418175510004/18/16 17:55:31  5-MIN K12N 182255Z AUTO VRB03KT 25/M02 A3009 430 16 1700 VRB/03 RMK AO1 T02501022
54779K12N 12N20160418180009004/18/16 18:00:31  5-MIN K12N 182300Z AUTO 25/M02 A3008 430 17 1700 M /M RMK AO1 T02501017
54779K12N 12N20160418180510004/18/16 18:05:31  5-MIN K12N 182305Z AUTO 30007KT 25/M02 A3009 430 17 1700 310/07 RMK AO1 T02501017
54779K12N 12N20160418181010004/18/16 18:10:31  5-MIN K12N 182310Z AUTO 00000KT 24/M01 A3009 430 18 1700 000/00 RMK AO1 T02441011
54779K12N 12N20160418181510004/18/16 18:15:31  5-MIN K12N 182315Z AUTO VRB03KT 24/M01 A3009 430 18 1700 VRB/03 RMK AO1 T02441011
54779K12N 12N20160418182010004/18/16 18:20:31  5-MIN K12N 182320Z AUTO VRB03KT 24/M02 A3008 440 17 1700 VRB/03 RMK AO1 T02441017
54779K12N 12N20160418182510004/18/16 18:25:31  5-MIN K12N 182325Z AUTO 00000KT 24/M01 A3008 440 19 1600 000/00 RMK AO1 T02391011
54779K12N 12N20160418183010004/18/16 18:30:31  5-MIN K12N 182330Z AUTO 00000KT 24/M01 A3008 440 19 1600 000/00 RMK AO1 T02391011
54779K12N 12N20160418183510004/18/16 18:35:31  5-MIN K12N 182335Z AUTO 00000KT 23/M01 A3008 440 21 1500 000/00 RMK AO1 T02281006
54779K12N 12N20160418184009904/18/16 18:40:31  5-MIN K12N 182340Z AUTO 00000KT 22/01 A3008 440 25 1400 000/00 RMK AO1 T02170011
54779K12N 12N20160418184509904/18/16 18:45:31  5-MIN K12N 182345Z AUTO 00000KT 21/01 A3008 440 26 1300 000/00 RMK AO1 T02110011
54779K12N 12N20160418185012404/18/16 18:50:31  5-MIN K12N 182350Z AUTO 00000KT 21/01 A3008 440 27 1200 000/00 RMK AO1 SLP185 T02060011 10272 20206 58025
54779K12N 12N20160418185509904/18/16 18:55:31  5-MIN K12N 182355Z AUTO 00000KT 21/02 A3008 440 28 1200 000/00 RMK AO1 T02060017
54779K12N 12N20160418190009904/18/16 19:00:31  5-MIN K12N 190000Z AUTO 00000KT 19/02 A3008 440 31 1100 000/00 RMK AO1 T01940022
54779K12N 12N20160418190509904/18/16 19:05:31  5-MIN K12N 190005Z AUTO 00000KT 19/02 A3008 440 31 1100 000/00 RMK AO1 T01940022
54779K12N 12N20160418191009904/18/16 19:10:31  5-MIN K12N 190010Z AUTO 00000KT 19/06 A3008 430 41 1000 000/00 RMK AO1 T01890056
54779K12N 12N20160418191509904/18/16 19:15:31  5-MIN K12N 190015Z AUTO 00000KT 19/07 A3008 430 44 1000 000/00 RMK AO1 T01890067
54779K12N 12N20160418192009904/18/16 19:20:31  5-MIN K12N 190020Z AUTO 00000KT 18/07 A3009 430 46 1000 000/00 RMK AO1 T01830067
54779K12N 12N20160418192509804/18/16 19:25:31  5-MIN K12N 190025Z AUTO 00000KT 18/08 A3008 430 51 900 000/00 RMK AO1 T01780078
54779K12N 12N20160418193009804/18/16 19:30:31  5-MIN K12N 190030Z AUTO 00000KT 18/09 A3008 430 55 900 000/00 RMK AO1 T01780089
54779K12N 12N20160418193509804/18/16 19:35:31  5-MIN K12N 190035Z AUTO 00000KT 18/09 A3008 430 58 900 000/00 RMK AO1 T01780094
54779K12N 12N20160418194009804/18/16 19:40:31  5-MIN K12N 190040Z AUTO 00000KT 17/09 A3008 430 60 800 000/00 RMK AO1 T01720094
54779K12N 12N20160418194509804/18/16 19:45:31  5-MIN K12N 190045Z AUTO 00000KT 17/10 A3008 430 64 800 000/00 RMK AO1 T01670100
54779K12N 12N20160418195010504/18/16 19:50:31  5-MIN K12N 190050Z AUTO 00000KT 17/09 A3008 430 62 800 000/00 RMK AO1 SLP185 T01670094
54779K12N 12N20160418195509804/18/16 19:55:31  5-MIN K12N 190055Z AUTO 00000KT 16/09 A3008 430 62 700 000/00 RMK AO1 T01610089
54779K12N 12N20160418200009804/18/16 20:00:31  5-MIN K12N 190100Z AUTO 00000KT 16/08 A3008 430 59 700 000/00 RMK AO1 T01610083
54779K12N 12N20160418200509804/18/16 20:05:31  5-MIN K12N 190105Z AUTO 00000KT 16/11 A3008 430 69 700 000/00 RMK AO1 T01610106
54779K12N 12N20160418201009804/18/16 20:10:31  5-MIN K12N 190110Z AUTO 00000KT 16/10 A3009 430 67 700 000/00 RMK AO1 T01610100
54779K12N 12N20160418201509804/18/16 20:15:31  5-MIN K12N 190115Z AUTO 00000KT 16/09 A3009 430 67 600 000/00 RMK AO1 T01560094
54779K12N 12N20160418202009804/18/16 20:20:31  5-MIN K12N 190120Z AUTO 00000KT 15/09 A3009 430 66 600 000/00 RMK AO1 T01500089
54779K12N 12N20160418202509804/18/16 20:25:31  5-MIN K12N 190125Z AUTO 00000KT 16/09 A3009 430 64 600 000/00 RMK AO1 T01560089
54779K12N 12N20160418203009804/18/16 20:30:31  5-MIN K12N 190130Z AUTO 00000KT 16/09 A3009 430 64 600 000/00 RMK AO1 T01560089
54779K12N 12N20160418203509804/18/16 20:35:31  5-MIN K12N 190135Z AUTO 00000KT 16/09 A3009 430 64 600 000/00 RMK AO1 T01560089
54779K12N 12N20160418204009804/18/16 20:40:31  5-MIN K12N 190140Z AUTO 00000KT 15/08 A3009 420 64 600 000/00 RMK AO1 T01500083
54779K12N 12N20160418204509804/18/16 20:45:31  5-MIN K12N 190145Z AUTO 00000KT 15/08 A3010 420 64 600 000/00 RMK AO1 T01500083
54779K12N 12N20160418205010504/18/16 20:50:31  5-MIN K12N 190150Z AUTO 00000KT 16/08 A3009 430 59 600 000/00 RMK AO1 SLP187 T01560078
54779K12N 12N20160418205509804/18/16 20:55:31  5-MIN K12N 190155Z AUTO 00000KT 15/09 A3009 430 69 600 000/00 RMK AO1 T01500094
54779K12N 12N20160418210009804/18/16 21:00:31  5-MIN K12N 190200Z AUTO 00000KT 15/09 A3009 430 69 600 000/00 RMK AO1 T01500094
54779K12N 12N20160418210509804/18/16 21:05:31  5-MIN K12N 190205Z AUTO 00000KT 15/09 A3009 430 69 600 000/00 RMK AO1 T01500094
54779K12N 12N20160418211009804/18/16 21:10:31  5-MIN K12N 190210Z AUTO 00000KT 15/08 A3009 430 64 600 000/00 RMK AO1 T01500083
54779K12N 12N20160418211509804/18/16 21:15:31  5-MIN K12N 190215Z AUTO 00000KT 14/09 A3009 430 69 500 000/00 RMK AO1 T01440089
54779K12N 12N20160418212009804/18/16 21:20:31  5-MIN K12N 190220Z AUTO 00000KT 15/08 A3009 430 64 600 000/00 RMK AO1 T01500083
54779K12N 12N20160418212509804/18/16 21:25:31  5-MIN K12N 190225Z AUTO 00000KT 14/08 A3009 430 64 500 000/00 RMK AO1 T01440078
54779K12N 12N20160418213009804/18/16 21:30:31  5-MIN K12N 190230Z AUTO 00000KT 14/08 A3009 430 66 400 000/00 RMK AO1 T01390078
54779K12N 12N20160418213509804/18/16 21:35:31  5-MIN K12N 190235Z AUTO 00000KT 14/08 A3009 430 66 400 000/00 RMK AO1 T01390078
54779K12N 12N20160418214009804/18/16 21:40:31  5-MIN K12N 190240Z AUTO 00000KT 13/07 A3009 430 66 400 000/00 RMK AO1 T01330072
54779K12N 12N20160418214509804/18/16 21:45:31  5-MIN K12N 190245Z AUTO 00000KT 14/07 A3008 430 61 400 000/00 RMK AO1 T01390067
54779K12N 12N20160418215011104/18/16 21:50:31  5-MIN K12N 190250Z AUTO 00000KT 13/07 A3008 440 64 400 000/00 RMK AO1 SLP183 T01330067 56005
54779K12N 12N20160418215509804/18/16 21:55:31  5-MIN K12N 190255Z AUTO 00000KT 13/07 A3008 440 66 400 000/00 RMK AO1 T01330072
54779K12N 12N20160418220009804/18/16 22:00:31  5-MIN K12N 190300Z AUTO 00000KT 13/07 A3008 440 66 400 000/00 RMK AO1 T01330072
54779K12N 12N20160418220509804/18/16 22:05:31  5-MIN K12N 190305Z AUTO 00000KT 13/07 A3008 440 66 400 000/00 RMK AO1 T01330072
54779K12N 12N20160418221009804/18/16 22:10:31  5-MIN K12N 190310Z AUTO 00000KT 13/08 A3008 440 69 400 000/00 RMK AO1 T01330078
54779K12N 12N20160418221509804/18/16 22:15:31  5-MIN K12N 190315Z AUTO 00000KT 13/08 A3008 440 71 300 000/00 RMK AO1 T01280078
54779K12N 12N20160418222009804/18/16 22:20:31  5-MIN K12N 190320Z AUTO 00000KT 13/08 A3008 440 74 300 000/00 RMK AO1 T01280083
54779K12N 12N20160418222509804/18/16 22:25:31  5-MIN K12N 190325Z AUTO 00000KT 13/08 A3008 440 71 400 000/00 RMK AO1 T01330083
54779K12N 12N20160418223009804/18/16 22:30:31  5-MIN K12N 190330Z AUTO 00000KT 13/08 A3008 440 74 300 000/00 RMK AO1 T01280083
54779K12N 12N20160418223509804/18/16 22:35:31  5-MIN K12N 190335Z AUTO 00000KT 13/08 A3008 440 71 300 000/00 RMK AO1 T01280078
54779K12N 12N20160418224009804/18/16 22:40:31  5-MIN K12N 190340Z AUTO 00000KT 13/07 A3008 440 69 300 000/00 RMK AO1 T01280072
54779K12N 12N20160418224509804/18/16 22:45:31  5-MIN K12N 190345Z AUTO 00000KT 13/07 A3007 440 69 300 000/00 RMK AO1 T01280072
54779K12N 12N20160418225010504/18/16 22:50:31  5-MIN K12N 190350Z AUTO 20003KT 13/07 A3007 450 66 300 210/03 RMK AO1 SLP180 T01280067
54779K12N 12N20160418225509804/18/16 22:55:31  5-MIN K12N 190355Z AUTO 21003KT 13/06 A3007 450 63 300 220/03 RMK AO1 T01280061
54779K12N 12N20160418230009804/18/16 23:00:31  5-MIN K12N 190400Z AUTO 20003KT 13/06 A3007 450 63 300 210/03 RMK AO1 T01280061
54779K12N 12N20160418230509804/18/16 23:05:31  5-MIN K12N 190405Z AUTO 20004KT 13/07 A3006 450 66 300 220/04 RMK AO1 T01280067
54779K12N 12N20160418231009804/18/16 23:10:31  5-MIN K12N 190410Z AUTO 21005KT 13/06 A3006 460 61 300 230/05 RMK AO1 T01280056
54779K12N 12N20160418231509804/18/16 23:15:31  5-MIN K12N 190415Z AUTO 21003KT 12/06 A3006 460 63 300 220/03 RMK AO1 T01220056
54779K12N 12N20160418232009804/18/16 23:20:31  5-MIN K12N 190420Z AUTO 20003KT 12/06 A3006 460 66 300 210/03 RMK AO1 T01220061
54779K12N 12N20160418232509804/18/16 23:25:31  5-MIN K12N 190425Z AUTO 00000KT 12/06 A3006 460 66 300 000/00 RMK AO1 T01220061
54779K12N 12N20160418233009804/18/16 23:30:31  5-MIN K12N 190430Z AUTO 19003KT 12/06 A3006 460 68 200 200/03 RMK AO1 T01170061
54779K12N 12N20160418233509804/18/16 23:35:31  5-MIN K12N 190435Z AUTO 00000KT 11/07 A3006 460 74 100 000/00 RMK AO1 T01110067
54779K12N 12N20160418234009804/18/16 23:40:31  5-MIN K12N 190440Z AUTO 19003KT 12/05 A3006 460 61 300 200/03 RMK AO1 T01220050
54779K12N 12N20160418234509804/18/16 23:45:31  5-MIN K12N 190445Z AUTO 00000KT 11/06 A3006 460 71 100 000/00 RMK AO1 T01110061
54779K12N 12N20160418235011504/18/16 23:50:31  5-MIN K12N 190450Z AUTO 00000KT 12/06 A3005 460 68 200 000/00 RMK AO1 SLP173 T01170061 402720044
54779K12N 12N20160418235509804/18/16 23:55:31  5-MIN K12N 190455Z AUTO 21004KT 11/06 A3005 460 71 100 220/04 RMK AO1 T01110061
54779K12N 12N20160419000009804/19/16 00:00:31  5-MIN K12N 190500Z AUTO 00000KT 11/07 A3005 470 74 200 000/00 RMK AO1 T01110067
54779K12N 12N20160419000509804/19/16 00:05:31  5-MIN K12N 190505Z AUTO 00000KT 11/07 A3005 470 77 200 000/00 RMK AO1 T01110072
54779K12N 12N20160419001009804/19/16 00:10:31  5-MIN K12N 190510Z AUTO 00000KT 11/07 A3005 470 74 200 000/00 RMK AO1 T01110067
54779K12N 12N20160419001509804/19/16 00:15:31  5-MIN K12N 190515Z AUTO 00000KT 11/06 A3005 470 71 100 000/00 RMK AO1 T01060056
54779K12N 12N20160419002009804/19/16 00:20:31  5-MIN K12N 190520Z AUTO 00000KT 11/06 A3004 470 74 100 000/00 RMK AO1 T01060061
54779K12N 12N20160419002509804/19/16 00:25:31  5-MIN K12N 190525Z AUTO 22003KT 11/06 A3004 470 71 200 230/03 RMK AO1 T01110061
54779K12N 12N20160419003009604/19/16 00:30:31  5-MIN K12N 190530Z AUTO 00000KT 10/06 A3004 470 77 0 000/00 RMK AO1 T01000061
54779K12N 12N20160419003509804/19/16 00:35:31  5-MIN K12N 190535Z AUTO 21003KT 11/06 A3004 470 74 100 220/03 RMK AO1 T01060061
54779K12N 12N20160419004009804/19/16 00:40:31  5-MIN K12N 190540Z AUTO 00000KT 11/06 A3004 480 74 100 000/00 RMK AO1 T01060061
54779K12N 12N20160419004509804/19/16 00:45:31  5-MIN K12N 190545Z AUTO 00000KT 11/05 A3004 480 66 200 000/00 RMK AO1 T01110050
54779K12N 12N20160419005012304/19/16 00:50:31  5-MIN K12N 190550Z AUTO 00000KT 11/05 A3003 480 66 200 000/00 RMK AO1 SLP167 T01110050 10206 20100 50001
54779K12N 12N20160419005509804/19/16 00:55:31  5-MIN K12N 190555Z AUTO 00000KT 11/06 A3003 480 71 100 000/00 RMK AO1 T01060056
54779K12N 12N20160419010009804/19/16 01:00:31  5-MIN K12N 190600Z AUTO 00000KT 11/07 A3003 480 77 100 000/00 RMK AO1 T01060067
54779K12N 12N20160419010509804/19/16 01:05:31  5-MIN K12N 190605Z AUTO 00000KT 11/06 A3003 490 74 100 000/00 RMK AO1 T01060061
54779K12N 12N20160419011009804/19/16 01:10:31  5-MIN K12N 190610Z AUTO 00000KT 11/06 A3002 490 71 100 000/00 RMK AO1 T01060056
54779K12N 12N20160419011509804/19/16 01:15:31  5-MIN K12N 190615Z AUTO 21003KT 10/06 A3002 490 74 100 220/03 RMK AO1 T01000056
54779K12N 12N20160419012009804/19/16 01:20:31  5-MIN K12N 190620Z AUTO 00000KT 11/06 A3002 490 71 100 000/00 RMK AO1 T01060056
54779K12N 12N20160419012509804/19/16 01:25:31  5-MIN K12N 190625Z AUTO 00000KT 11/06 A3002 490 68 200 000/00 RMK AO1 T01110056
54779K12N 12N20160419013009804/19/16 01:30:31  5-MIN K12N 190630Z AUTO 00000KT 11/06 A3002 490 71 100 000/00 RMK AO1 T01060056
54779K12N 12N20160419013509804/19/16 01:35:31  5-MIN K12N 190635Z AUTO 00000KT 10/05 A3001 500 71 100 000/00 RMK AO1 T01000050
54779K12N 12N20160419014009804/19/16 01:40:31  5-MIN K12N 190640Z AUTO 00000KT 10/06 A3001 500 77 100 000/00 RMK AO1 T01000061
54779K12N 12N20160419014509804/19/16 01:45:31  5-MIN K12N 190645Z AUTO 21003KT 10/06 A3001 500 74 100 220/03 RMK AO1 T01000056
54779K12N 12N20160419015010504/19/16 01:50:31  5-MIN K12N 190650Z AUTO 00000KT 10/06 A3001 500 77 100 000/00 RMK AO1 SLP158 T01000061
54779K12N 12N20160419015509804/19/16 01:55:31  5-MIN K12N 190655Z AUTO 00000KT 10/06 A3001 500 77 100 000/00 RMK AO1 T01000061
54779K12N 12N20160419020009804/19/16 02:00:31  5-MIN K12N 190700Z AUTO 00000KT 10/06 A3001 510 74 100 000/00 RMK AO1 T01000056
54779K12N 12N20160419020509804/19/16 02:05:31  5-MIN K12N 190705Z AUTO 23003KT 10/05 A3001 510 71 100 240/03 RMK AO1 T01000050
54779K12N 12N20160419021009804/19/16 02:10:31  5-MIN K12N 190710Z AUTO 18003KT 11/06 A3000 510 71 100 190/03 RMK AO1 T01060056
54779K12N 12N20160419021509804/19/16 02:15:31  5-MIN K12N 190715Z AUTO 21003KT 10/06 A3000 510 77 100 230/03 RMK AO1 T01000061
54779K12N 12N20160419022009804/19/16 02:20:31  5-MIN K12N 190720Z AUTO 00000KT 10/05 A3000 510 71 100 000/00 RMK AO1 T01000050
54779K12N 12N20160419022509804/19/16 02:25:31  5-MIN K12N 190725Z AUTO 00000KT 10/04 A3000 510 68 100 000/00 RMK AO1 T01000044
54779K12N 12N20160419023009604/19/16 02:30:31  5-MIN K12N 190730Z AUTO 00000KT 09/06 A3000 510 76 0 000/00 RMK AO1 T00940056
54779K12N 12N20160419023509804/19/16 02:35:31  5-MIN K12N 190735Z AUTO 00000KT 10/06 A3000 510 77 100 000/00 RMK AO1 T01000061
54779K12N 12N20160419024009804/19/16 02:40:31  5-MIN K12N 190740Z AUTO 19003KT 10/05 A3000 510 71 100 210/03 RMK AO1 T01000050
54779K12N 12N20160419024509804/19/16 02:45:31  5-MIN K12N 190745Z AUTO 21004KT 10/05 A3000 510 71 100 220/04 RMK AO1 T01000050
54779K12N 12N20160419025010504/19/16 02:50:31  5-MIN K12N 190750Z AUTO 20003KT 10/06 A3000 510 74 100 210/03 RMK AO1 SLP153 T01000056
54779K12N 12N20160419025509804/19/16 02:55:31  5-MIN K12N 190755Z AUTO 21003KT 10/06 A3000 510 74 100 230/03 RMK AO1 T01000056
54779K12N 12N20160419030009804/19/16 03:00:31  5-MIN K12N 190800Z AUTO 21003KT 10/06 A3000 520 74 100 220/03 RMK AO1 T01000056
54779K12N 12N20160419030509804/19/16 03:05:31  5-MIN K12N 190805Z AUTO 20004KT 10/05 A2999 520 71 100 210/04 RMK AO1 T01000050
54779K12N 12N20160419031009804/19/16 03:10:31  5-MIN K12N 190810Z AUTO 20004KT 11/05 A2999 520 68 100 220/04 RMK AO1 T01060050
54779K12N 12N20160419031509604/19/16 03:15:31  5-MIN K12N 190815Z AUTO 20003KT 09/05 A2999 520 74 0 220/03 RMK AO1 T00940050
54779K12N 12N20160419032009604/19/16 03:20:31  5-MIN K12N 190820Z AUTO 00000KT 09/05 A2999 520 74 0 000/00 RMK AO1 T00940050
54779K12N 12N20160419032509604/19/16 03:25:31  5-MIN K12N 190825Z AUTO 00000KT 09/06 A2999 520 76 0 000/00 RMK AO1 T00940056
54779K12N 12N20160419033009604/19/16 03:30:31  5-MIN K12N 190830Z AUTO 00000KT 09/06 A2999 520 79 0 000/00 RMK AO1 T00890056
54779K12N 12N20160419033509604/19/16 03:35:31  5-MIN K12N 190835Z AUTO 00000KT 09/06 A2999 520 76 0 000/00 RMK AO1 T00940056
54779K12N 12N20160419034009604/19/16 03:40:31  5-MIN K12N 190840Z AUTO 00000KT 09/06 A2999 520 79 0 000/00 RMK AO1 T00890056
54779K12N 12N20160419034509604/19/16 03:45:31  5-MIN K12N 190845Z AUTO 00000KT 09/06 A2999 520 79 0 000/00 RMK AO1 T00890056
54779K12N 12N20160419035010904/19/16 03:50:31  5-MIN K12N 190850Z AUTO 00000KT 09/06 A2999 520 76 0 000/00 RMK AO1 SLP151 T00940056 58016
54779K12N 12N20160419035509604/19/16 03:55:31  5-MIN K12N 190855Z AUTO 00000KT 09/06 A2999 520 79 0 000/00 RMK AO1 T00940061
54779K12N 12N20160419040009604/19/16 04:00:31  5-MIN K12N 190900Z AUTO 21003KT 09/06 A2999 520 79 0 220/03 RMK AO1 T00940061
54779K12N 12N20160419040509604/19/16 04:05:31  5-MIN K12N 190905Z AUTO 21003KT 09/06 A2999 520 83 0 220/03 RMK AO1 T00890061
54779K12N 12N20160419041009604/19/16 04:10:31  5-MIN K12N 190910Z AUTO 00000KT 09/06 A2999 520 76 0 000/00 RMK AO1 T00940056
54779K12N 12N20160419041509804/19/16 04:15:31  5-MIN K12N 190915Z AUTO 00000KT 10/06 A2999 520 74 100 000/00 RMK AO1 T01000056
54779K12N 12N20160419042009604/19/16 04:20:31  5-MIN K12N 190920Z AUTO 00000KT 09/06 A2999 520 79 0 000/00 RMK AO1 T00940061
54779K12N 12N20160419042509604/19/16 04:25:31  5-MIN K12N 190925Z AUTO 00000KT 09/06 A2999 520 79 0 000/00 RMK AO1 T00890056
54779K12N 12N20160419043009604/19/16 04:30:31  5-MIN K12N 190930Z AUTO 00000KT 09/06 A2999 520 79 0 000/00 RMK AO1 T00890056
54779K12N 12N20160419043509604/19/16 04:35:31  5-MIN K12N 190935Z AUTO 00000KT 09/06 A2999 520 76 0 000/00 RMK AO1 T00940056
54779K12N 12N20160419044009604/19/16 04:40:31  5-MIN K12N 190940Z AUTO 00000KT 09/06 A2999 520 79 0 000/00 RMK AO1 T00890056
54779K12N 12N20160419044509604/19/16 04:45:31  5-MIN K12N 190945Z AUTO 00000KT 09/06 A2999 520 79 0 000/00 RMK AO1 T00890056
54779K12N 12N20160419045010304/19/16 04:50:31  5-MIN K12N 190950Z AUTO 00000KT 09/06 A2999 520 79 0 000/00 RMK AO1 SLP149 T00890056
54779K12N 12N20160419045509604/19/16 04:55:31  5-MIN K12N 190955Z AUTO 00000KT 09/06 A2999 520 79 0 000/00 RMK AO1 T00890056
54779K12N 12N20160419050009604/19/16 05:00:31  5-MIN K12N 191000Z AUTO 20003KT 09/06 A2999 520 79 0 210/03 RMK AO1 T00940061
54779K12N 12N20160419050509604/19/16 05:05:31  5-MIN K12N 191005Z AUTO 00000KT 09/06 A2999 530 79 0 000/00 RMK AO1 T00940061
54779K12N 12N20160419051009604/19/16 05:10:31  5-MIN K12N 191010Z AUTO 00000KT 09/06 A2999 520 79 0 000/00 RMK AO1 T00940061
54779K12N 12N20160419051509604/19/16 05:15:31  5-MIN K12N 191015Z AUTO 00000KT 09/06 A2999 520 79 0 000/00 RMK AO1 T00940061
54779K12N 12N20160419052009604/19/16 05:20:31  5-MIN K12N 191020Z AUTO 00000KT 09/06 A2999 520 79 0 000/00 RMK AO1 T00940061
54779K12N 12N20160419052509804/19/16 05:25:31  5-MIN K12N 191025Z AUTO 00000KT 10/05 A2998 530 71 100 000/00 RMK AO1 T01000050
54779K12N 12N20160419053009804/19/16 05:30:31  5-MIN K12N 191030Z AUTO 00000KT 10/06 A2998 530 77 100 000/00 RMK AO1 T01000061
54779K12N 12N20160419053509804/19/16 05:35:31  5-MIN K12N 191035Z AUTO 00000KT 10/07 A2998 530 80 100 000/00 RMK AO1 T01000067
54779K12N 12N20160419054009804/19/16 05:40:31  5-MIN K12N 191040Z AUTO 00000KT 10/07 A2998 530 80 100 000/00 RMK AO1 T01000067
54779K12N 12N20160419054509804/19/16 05:45:31  5-MIN K12N 191045Z AUTO 00000KT 10/07 A2998 530 80 100 000/00 RMK AO1 T01000067
54779K12N 12N20160419055010504/19/16 05:50:31  5-MIN K12N 191050Z AUTO 00000KT 11/07 A2999 520 80 200 000/00 RMK AO1 SLP150 T01060072
54779K12N 12N20160419055509804/19/16 05:55:31  5-MIN K12N 191055Z AUTO 00000KT 11/07 A2999 520 80 200 000/00 RMK AO1 T01060072
54779K12N 12N20160419060009804/19/16 06:00:31  5-MIN K12N 191100Z AUTO 00000KT 11/07 A2999 520 77 100 000/00 RMK AO1 T01060067
54779K12N 12N20160419060509804/19/16 06:05:31  5-MIN K12N 191105Z AUTO 00000KT 11/04 A3000 510 63 200 000/00 RMK AO1 T01110044
54779K12N 12N20160419061009804/19/16 06:10:31  5-MIN K12N 191110Z AUTO 00000KT 11/05 A3000 510 66 200 000/00 RMK AO1 T01110050
54779K12N 12N20160419061509804/19/16 06:15:31  5-MIN K12N 191115Z AUTO 02004KT 12/07 A3000 510 71 300 030/04 RMK AO1 T01170067
54779K12N 12N20160419062009804/19/16 06:20:31  5-MIN K12N 191120Z AUTO VRB04KT 14/06 A3000 510 57 500 VRB/04 RMK AO1 T01390056
54779K12N 12N20160419062509804/19/16 06:25:31  5-MIN K12N 191125Z AUTO VRB06KT 14/06 A3001 510 57 600 VRB/06 RMK AO1 T01440061
54779K12N 12N20160419063009804/19/16 06:30:31  5-MIN K12N 191130Z AUTO 36004KT 16/04 A3001 510 47 700 010/04 RMK AO1 T01560044
54779K12N 12N20160419063509804/19/16 06:35:31  5-MIN K12N 191135Z AUTO 34004KT 16/04 A3001 510 45 800 350/04 RMK AO1 T01610044
54779K12N 12N20160419064009804/19/16 06:40:31  5-MIN K12N 191140Z AUTO 36005KT 17/04 A3001 500 42 900 010/05 RMK AO1 T01670039
54779K12N 12N20160419064509804/19/16 06:45:31  5-MIN K12N 191145Z AUTO 34005KT 17/04 A3001 500 44 900 350/05 RMK AO1 T01670044
54779K12N 12N20160419065012304/19/16 06:50:31  5-MIN K12N 191150Z AUTO VRB04KT 17/04 A3001 500 44 900 VRB/04 RMK AO1 SLP157 T01670044 10167 20089 56015
54779K12N 12N20160419065509804/19/16 06:55:31  5-MIN K12N 191155Z AUTO 34006KT 17/04 A3001 510 42 900 360/06 RMK AO1 T01720044
54779K12N 12N20160419070009804/19/16 07:00:31  5-MIN K12N 191200Z AUTO 34009KT 17/04 A3001 500 44 900 350/09 RMK AO1 T01670044
54779K12N 12N20160419070509804/19/16 07:05:31  5-MIN K12N 191205Z AUTO 36006KT 17/04 A3001 500 42 900 010/06 RMK AO1 T01720044
54779K12N 12N20160419071009804/19/16 07:10:31  5-MIN K12N 191210Z AUTO 36005KT 17/05 A3001 500 44 900 010/05 RMK AO1 T01720050
54779K12N 12N20160419071509804/19/16 07:15:31  5-MIN K12N 191215Z AUTO 35006KT 17/04 A3001 500 42 900 010/06 RMK AO1 T01720044
54779K12N 12N20160419072009904/19/16 07:20:31  5-MIN K12N 191220Z AUTO VRB06KT 18/05 A3001 500 42 1000 VRB/06 RMK AO1 T01780050
54779K12N 12N20160419072510504/19/16 07:25:31  5-MIN K12N 191225Z AUTO 36013G18KT 18/06 A3001 500 44 1000 010/13G18 RMK AO1 T01780056
54779K12N 12N20160419073012004/19/16 07:30:31  5-MIN K12N 191230Z AUTO 35011G19KT 310V020 17/06 A3001 500 46 900 360/11G19 320V030 RMK AO1 T01720056
54779K12N 12N20160419073512004/19/16 07:35:31  5-MIN K12N 191235Z AUTO 36009G19KT 330V050 17/06 A3001 500 47 900 010/09G19 340V060 RMK AO1 T01670056
54779K12N 12N20160419074010404/19/16 07:40:31  5-MIN K12N 191240Z AUTO 36010G19KT 17/06 A3001 500 47 900 010/10G19 RMK AO1 T01670056
54779K12N 12N20160419074512004/19/16 07:45:31  5-MIN K12N 191245Z AUTO 34011G19KT 300V010 17/06 A3001 500 49 900 360/11G19 310V020 RMK AO1 T01670061
54779K12N 12N20160419075011104/19/16 07:50:31  5-MIN K12N 191250Z AUTO 35013G18KT 17/06 A3001 500 47 900 010/13G18 RMK AO1 SLP158 T01720061
54779K12N 12N20160419075510404/19/16 07:55:31  5-MIN K12N 191255Z AUTO 35012G20KT 17/06 A3001 500 47 900 010/12G20 RMK AO1 T01720061
54779K12N 12N20160419080012004/19/16 08:00:31  5-MIN K12N 191300Z AUTO 35010G20KT 310V020 17/06 A3000 510 47 900 010/10G20 320V030 RMK AO1 T01720061
54779K12N 12N20160419080510404/19/16 08:05:31  5-MIN K12N 191305Z AUTO 35011G22KT 17/06 A3001 510 47 900 360/11G22 RMK AO1 T01720061
54779K12N 12N20160419081012004/19/16 08:10:31  5-MIN K12N 191310Z AUTO 35008G22KT 290V040 17/06 A3000 510 47 900 010/08G22 300V050 RMK AO1 T01720061
54779K12N 12N20160419081512104/19/16 08:15:31  5-MIN K12N 191315Z AUTO 34009G16KT 310V020 18/06 A3000 510 46 1000 360/09G16 320V030 RMK AO1 T01780061
54779K12N 12N20160419082009804/19/16 08:20:31  5-MIN K12N 191320Z AUTO VRB06KT 17/07 A3000 510 49 900 VRB/06 RMK AO1 T01720067
54779K12N 12N20160419082512104/19/16 08:25:31  5-MIN K12N 191325Z AUTO 01010G19KT 330V050 18/07 A3000 510 48 1000 020/10G19 340V060 RMK AO1 T01780067
54779K12N 12N20160419083012004/19/16 08:30:31  5-MIN K12N 191330Z AUTO 36012G22KT 330V040 17/07 A3001 510 49 900 020/12G22 340V050 RMK AO1 T01720067
54779K12N 12N20160419083512004/19/16 08:35:31  5-MIN K12N 191335Z AUTO 01012G22KT 340V050 17/07 A3001 510 49 900 020/12G22 350V060 RMK AO1 T01720067
54779K12N 12N20160419084012004/19/16 08:40:31  5-MIN K12N 191340Z AUTO 36010G21KT 340V060 17/07 A3001 500 49 900 020/10G21 350V070 RMK AO1 T01720067
54779K12N 12N20160419084512004/19/16 08:45:31  5-MIN K12N 191345Z AUTO 34008G21KT 310V030 17/07 A3001 510 49 900 350/08G21 320V040 RMK AO1 T01720067
54779K12N 12N20160419085011204/19/16 08:50:31  5-MIN K12N 191350Z AUTO 34008G18KT 18/07 A3001 500 48 1000 350/08G18 RMK AO1 SLP159 T01780067
54779K12N 12N20160419085510504/19/16 08:55:31  5-MIN K12N 191355Z AUTO 36011G19KT 18/07 A3001 500 48 1000 010/11G19 RMK AO1 T01780067
54779K12N 12N20160419090010504/19/16 09:00:31  5-MIN K12N 191400Z AUTO 36007G19KT 18/06 A3001 500 46 1000 010/07G19 RMK AO1 T01780061
54779K12N 12N20160419090512104/19/16 09:05:31  5-MIN K12N 191405Z AUTO 35007G20KT 310V050 18/06 A3002 500 46 1000 010/07G20 320V060 RMK AO1 T01780061
54779K12N 12N20160419091012104/19/16 09:10:31  5-MIN K12N 191410Z AUTO 01008G20KT 330V050 18/06 A3002 500 44 1000 020/08G20 340V060 RMK AO1 T01780056
54779K12N 12N20160419091512104/19/16 09:15:31  5-MIN K12N 191415Z AUTO 36010G18KT 330V040 18/06 A3002 500 46 1000 010/10G18 340V050 RMK AO1 T01780061
54779K12N 12N20160419092010504/19/16 09:20:31  5-MIN K12N 191420Z AUTO 36009G19KT 18/06 A3002 500 44 1000 010/09G19 RMK AO1 T01780056
54779K12N 12N20160419092510504/19/16 09:25:31  5-MIN K12N 191425Z AUTO 36013G24KT 18/06 A3002 490 44 1000 010/13G24 RMK AO1 T01780056
54779K12N 12N20160419093012004/19/16 09:30:31  5-MIN K12N 191430Z AUTO 36011G24KT 330V050 17/05 A3002 490 44 900 010/11G24 340V060 RMK AO1 T01720050
54779K12N 12N20160419093512004/19/16 09:35:31  5-MIN K12N 191435Z AUTO 01008G22KT 340V060 17/05 A3002 490 44 900 020/08G22 350V070 RMK AO1 T01720050
54779K12N 12N20160419094010504/19/16 09:40:31  5-MIN K12N 191440Z AUTO 36006G18KT 18/06 A3002 490 42 1000 020/06G18 RMK AO1 T01830056
54779K12N 12N20160419094510504/19/16 09:45:31  5-MIN K12N 191445Z AUTO 02009G15KT 18/05 A3003 490 42 1000 030/09G15 RMK AO1 T01780050
54779K12N 12N20160419095013404/19/16 09:50:31  5-MIN K12N 191450Z AUTO 01008G17KT 340V040 18/05 A3003 490 42 1000 020/08G17 350V050 RMK AO1 SLP167 T01780050 53006
54779K12N 12N20160419095512104/19/16 09:55:31  5-MIN K12N 191455Z AUTO 01011G19KT 340V050 18/04 A3003 490 41 1000 020/11G19 350V060 RMK AO1 T01780044
54779K12N 12N20160419100012104/19/16 10:00:31  5-MIN K12N 191500Z AUTO 02009G21KT 340V050 18/05 A3003 490 42 1000 040/09G21 350V060 RMK AO1 T01780050
54779K12N 12N20160419100512104/19/16 10:05:31  5-MIN K12N 191505Z AUTO 03012G21KT 350V050 18/05 A3003 480 42 1000 040/12G21 360V060 RMK AO1 T01780050
54779K12N 12N20160419101012104/19/16 10:10:31  5-MIN K12N 191510Z AUTO 01011G19KT 330V040 18/05 A3003 480 42 1000 020/11G19 340V050 RMK AO1 T01780050
54779K12N 12N20160419101512104/19/16 10:15:31  5-MIN K12N 191515Z AUTO 03010G20KT 350V060 18/05 A3003 480 42 1000 040/10G20 360V070 RMK AO1 T01780050
54779K12N 12N20160419102010504/19/16 10:20:31  5-MIN K12N 191520Z AUTO 02011G24KT 18/05 A3003 480 42 1000 030/11G24 RMK AO1 T01780050
54779K12N 12N20160419102512104/19/16 10:25:31  5-MIN K12N 191525Z AUTO 01011G24KT 340V060 18/04 A3003 480 41 1000 020/11G24 350V070 RMK AO1 T01780044
54779K12N 12N20160419103012104/19/16 10:30:31  5-MIN K12N 191530Z AUTO 01009G22KT 330V050 18/04 A3004 480 41 1000 020/09G22 340V060 RMK AO1 T01780044
54779K12N 12N20160419103512104/19/16 10:35:31  5-MIN K12N 191535Z AUTO 02007G20KT 360V080 18/04 A3004 480 41 1000 030/07G20 010V090 RMK AO1 T01780044
54779K12N 12N20160419104012104/19/16 10:40:31  5-MIN K12N 191540Z AUTO 02009G20KT 340V060 18/04 A3004 480 41 1000 040/09G20 350V070 RMK AO1 T01780044
54779K12N 12N20160419104512004/19/16 10:45:31  5-MIN K12N 191545Z AUTO 02009G24KT 340V050 17/05 A3004 480 44 900 030/09G24 350V060 RMK AO1 T01720050
54779K12N 12N20160419105012804/19/16 10:50:31  5-MIN K12N 191550Z AUTO 01007G24KT 320V060 18/05 A3004 480 42 1000 020/07G24 330V070 RMK AO1 SLP169 T01780050
54779K12N 12N20160419105512104/19/16 10:55:31  5-MIN K12N 191555Z AUTO 03009G18KT 340V050 18/04 A3004 480 41 1000 040/09G18 350V060 RMK AO1 T01780044
54779K12N 12N20160419110010504/19/16 11:00:31  5-MIN K12N 191600Z AUTO 36012G21KT 18/04 A3004 480 41 1000 010/12G21 RMK AO1 T01780044
54779K12N 12N20160419110512004/19/16 11:05:31  5-MIN K12N 191605Z AUTO 03008G21KT 340V170 17/04 A3004 480 42 900 040/08G21 350V180 RMK AO1 T01720044
54779K12N 12N20160419111012004/19/16 11:10:31  5-MIN K12N 191610Z AUTO 36010G20KT 330V040 17/04 A3004 480 42 900 020/10G20 340V050 RMK AO1 T01720044
54779K12N 12N20160419111512104/19/16 11:15:31  5-MIN K12N 191615Z AUTO 01008G17KT 310V050 18/04 A3004 480 41 1000 030/08G17 320V060 RMK AO1 T01780044
54779K12N 12N20160419112012004/19/16 11:20:31  5-MIN K12N 191620Z AUTO 36008G17KT 320V080 17/04 A3003 480 42 900 010/08G17 330V090 RMK AO1 T01720044
54779K12N 12N20160419112512004/19/16 11:25:31  5-MIN K12N 191625Z AUTO 01011G23KT 350V050 17/04 A3003 480 42 900 030/11G23 360V060 RMK AO1 T01720044
54779K12N 12N20160419113010404/19/16 11:30:31  5-MIN K12N 191630Z AUTO 36012G23KT 17/04 A3003 480 41 900 010/12G23 RMK AO1 T01720039
54779K12N 12N20160419113512004/19/16 11:35:31  5-MIN K12N 191635Z AUTO 35010G22KT 310V030 17/04 A3003 480 41 900 010/10G22 320V040 RMK AO1 T01720039
54779K12N 12N20160419114012104/19/16 11:40:31  5-MIN K12N 191640Z AUTO 35009G20KT 310V040 18/04 A3004 480 39 1000 360/09G20 320V050 RMK AO1 T01780039
54779K12N 12N20160419114512104/19/16 11:45:31  5-MIN K12N 191645Z AUTO 01010G18KT 330V050 18/03 A3003 480 38 1000 020/10G18 340V060 RMK AO1 T01780033
54779K12N 12N20160419115012804/19/16 11:50:31  5-MIN K12N 191650Z AUTO 36013G20KT 330V050 18/03 A3003 480 38 1000 010/13G20 340V060 RMK AO1 SLP169 T01780033
54779K12N 12N20160419115512104/19/16 11:55:31  5-MIN K12N 191655Z AUTO 36010G22KT 320V040 18/03 A3003 480 38 1000 010/10G22 330V050 RMK AO1 T01780033
54779K12N 12N20160419120010504/19/16 12:00:31  5-MIN K12N 191700Z AUTO 36013G22KT 18/03 A3003 480 36 1000 010/13G22 RMK AO1 T01780028
54779K12N 12N20160419120512304/19/16 12:05:31  5-MIN K12N 191705Z AUTO 35012G26KT 18/03 A3003 480 36 1000 010/12G26 RMK AO1 PK WND 34026/1701 T01780028
54779K12N 12N20160419121013904/19/16 12:10:31  5-MIN K12N 191710Z AUTO 33012G26KT 300V360 18/03 A3003 480 36 1000 340/12G26 310V010 RMK AO1 PK WND 34026/1701 T01780028
54779K12N 12N20160419121513904/19/16 12:15:31  5-MIN K12N 191715Z AUTO 02007G21KT 330V050 18/03 A3003 480 38 1000 030/07G21 340V060 RMK AO1 PK WND 34026/1701 T01780033
54779K12N 12N20160419122013904/19/16 12:20:31  5-MIN K12N 191720Z AUTO 01009G21KT 330V060 18/04 A3003 480 38 1000 020/09G21 340V070 RMK AO1 PK WND 34026/1701 T01830039
54779K12N 12N20160419122513904/19/16 12:25:31  5-MIN K12N 191725Z AUTO 02011G21KT 350V070 18/04 A3003 480 38 1000 040/11G21 360V080 RMK AO1 PK WND 34026/1701 T01830039
54779K12N 12N20160419123012304/19/16 12:30:31  5-MIN K12N 191730Z AUTO 02009G21KT 18/03 A3003 480 38 1000 040/09G21 RMK AO1 PK WND 34026/1701 T01780033
54779K12N 12N20160419123512304/19/16 12:35:31  5-MIN K12N 191735Z AUTO 36012G21KT 18/02 A3003 480 34 1000 010/12G21 RMK AO1 PK WND 34026/1701 T01830022
54779K12N 12N20160419124013904/19/16 12:40:31  5-MIN K12N 191740Z AUTO 34015G24KT 310V020 18/01 A3003 480 32 1000 360/15G24 320V030 RMK AO1 PK WND 34026/1701 T01780011
54779K12N 12N20160419124512304/19/16 12:45:31  5-MIN K12N 191745Z AUTO 01011G24KT 18/01 A3003 480 32 1000 020/11G24 RMK AO1 PK WND 34026/1701 T01780011
54779K12N 12N20160419125016404/19/16 12:50:31  5-MIN K12N 191750Z AUTO 01009G19KT 340V050 18/01 A3003 480 31 1000 020/09G19 350V060 RMK AO1 PK WND 34026/1701 SLP170 T01780006 10183 20167 53007
54779K12N 12N20160419125510504/19/16 12:55:31  5-MIN K12N 191755Z AUTO VRB06G19KT 18/01 A3004 480 31 1000 VRB/06G19 RMK AO1 T01830011
54779K12N 12N20160419130012104/19/16 13:00:31  5-MIN K12N 191800Z AUTO 02010G20KT 340V050 18/02 A3003 480 32 1000 030/10G20 350V060 RMK AO1 T01830017
54779K12N 12N20160419130510504/19/16 13:05:31  5-MIN K12N 191805Z AUTO 36009G20KT 18/02 A3004 480 34 1000 020/09G20 RMK AO1 T01830022
54779K12N 12N20160419131012104/19/16 13:10:31  5-MIN K12N 191810Z AUTO 33012G22KT 290V040 18/01 A3003 480 30 1000 340/12G22 300V050 RMK AO1 T01830006
54779K12N 12N20160419131512104/19/16 13:15:31  5-MIN K12N 191815Z AUTO 02007G22KT 300V060 18/02 A3003 480 32 1000 030/07G22 310V070 RMK AO1 T01830017
54779K12N 12N20160419132012104/19/16 13:20:31  5-MIN K12N 191820Z AUTO 01011G18KT 340V050 18/02 A3003 480 32 1000 030/11G18 350V060 RMK AO1 T01830017
54779K12N 12N20160419132510504/19/16 13:25:31  5-MIN K12N 191825Z AUTO 34013G19KT 18/00 A3003 480 30 1000 360/13G19 RMK AO1 T01780000
54779K12N 12N20160419133010504/19/16 13:30:31  5-MIN K12N 191830Z AUTO 35013G22KT 18/00 A3004 480 29 1000 010/13G22 RMK AO1 T01830000
54779K12N 12N20160419133512204/19/16 13:35:31  5-MIN K12N 191835Z AUTO 35011G23KT 320V030 18/M01 A3004 480 27 1000 360/11G23 330V040 RMK AO1 T01831006
54779K12N 12N20160419134012104/19/16 13:40:31  5-MIN K12N 191840Z AUTO 35010G23KT 290V030 18/00 A3004 480 29 1000 360/10G23 300V040 RMK AO1 T01830000
54779K12N 12N20160419134510504/19/16 13:45:31  5-MIN K12N 191845Z AUTO 36012G20KT 18/00 A3004 480 29 1000 010/12G20 RMK AO1 T01830000
54779K12N 12N20160419135012804/19/16 13:50:31  5-MIN K12N 191850Z AUTO 01007G17KT 340V050 19/01 A3003 480 29 1100 020/07G17 350V060 RMK AO1 SLP170 T01890006
54779K12N 12N20160419135512104/19/16 13:55:31  5-MIN K12N 191855Z AUTO 36009G22KT 320V040 19/00 A3004 480 28 1100 010/09G22 330V050 RMK AO1 T01890000
54779K12N 12N20160419140012204/19/16 14:00:31  5-MIN K12N 191900Z AUTO 36011G22KT 320V050 18/M01 A3004 480 27 1000 020/11G22 330V060 RMK AO1 T01831006
54779K12N 12N20160419140512104/19/16 14:05:31  5-MIN K12N 191905Z AUTO 02011G20KT 340V050 18/00 A3004 480 29 1000 040/11G20 350V060 RMK AO1 T01830000
54779K12N 12N20160419141012104/19/16 14:10:31  5-MIN K12N 191910Z AUTO 01009G19KT 330V060 18/00 A3004 480 29 1000 020/09G19 340V070 RMK AO1 T01830000
54779K12N 12N20160419141512104/19/16 14:15:31  5-MIN K12N 191915Z AUTO 03010G18KT 360V060 18/01 A3004 480 30 1000 040/10G18 010V070 RMK AO1 T01830006
54779K12N 12N20160419142012104/19/16 14:20:31  5-MIN K12N 191920Z AUTO 01008G18KT 340V050 18/01 A3004 470 30 1000 030/08G18 350V060 RMK AO1 T01830006
54779K12N 12N20160419142510504/19/16 14:25:31  5-MIN K12N 191925Z AUTO 34011G17KT 18/00 A3004 480 29 1000 360/11G17 RMK AO1 T01830000
54779K12N 12N20160419143012204/19/16 14:30:31  5-MIN K12N 191930Z AUTO 01008G17KT 330V070 19/M01 A3004 480 26 1100 020/08G17 340V080 RMK AO1 T01891006
54779K12N 12N20160419143510604/19/16 14:35:31  5-MIN K12N 191935Z AUTO 36013G22KT 18/M01 A3004 470 26 1000 010/13G22 RMK AO1 T01831011
54779K12N 12N20160419144012204/19/16 14:40:31  5-MIN K12N 191940Z AUTO 36008G22KT 330V040 18/M01 A3004 470 26 1000 010/08G22 340V050 RMK AO1 T01831011
54779K12N 12N20160419144510604/19/16 14:45:31  5-MIN K12N 191945Z AUTO 34011G21KT 19/M01 A3004 480 26 1100 350/11G21 RMK AO1 T01891006
54779K12N 12N20160419145012904/19/16 14:50:31  5-MIN K12N 191950Z AUTO 01008G17KT 330V050 19/M01 A3004 480 25 1100 020/08G17 340V060 RMK AO1 SLP172 T01891011
54779K12N 12N20160419145510604/19/16 14:55:31  5-MIN K12N 191955Z AUTO 36011G24KT 19/M02 A3004 470 23 1100 010/11G24 RMK AO1 T01891022
54779K12N 12N20160419150010604/19/16 15:00:31  5-MIN K12N 192000Z AUTO 36010G24KT 19/M02 A3004 470 24 1100 010/10G24 RMK AO1 T01891017
54779K12N 12N20160419150512204/19/16 15:05:31  5-MIN K12N 192005Z AUTO 33008G17KT 290V030 19/M01 A3004 480 25 1100 340/08G17 300V040 RMK AO1 T01891011
54779K12N 12N20160419151012204/19/16 15:10:31  5-MIN K12N 192010Z AUTO 36009G16KT 320V050 19/M02 A3004 480 24 1100 020/09G16 330V060 RMK AO1 T01891017
54779K12N 12N20160419151512204/19/16 15:15:31  5-MIN K12N 192015Z AUTO 02007G16KT 340V060 19/M01 A3004 480 25 1100 030/07G16 350V070 RMK AO1 T01891011
54779K12N 12N20160419152010604/19/16 15:20:31  5-MIN K12N 192020Z AUTO 01010G16KT 19/M02 A3004 480 24 1100 020/10G16 RMK AO1 T01891017
54779K12N 12N20160419152512204/19/16 15:25:31  5-MIN K12N 192025Z AUTO 01008G20KT 340V050 19/M02 A3004 480 23 1100 020/08G20 350V060 RMK AO1 T01891022
54779K12N 12N20160419153009004/19/16 15:30:31  5-MIN K12N 192030Z AUTO 19/M03 A3004 480 22 1100 M /M RMK AO1 T01891028
54779K12N 12N20160419153510604/19/16 15:35:31  5-MIN K12N 192035Z AUTO 36011G19KT 19/M03 A3004 470 22 1100 010/11G19 RMK AO1 T01891033
54779K12N 12N20160419154012204/19/16 15:40:31  5-MIN K12N 192040Z AUTO 36009G19KT 330V030 19/M04 A3004 470 21 1100 010/09G19 340V040 RMK AO1 T01891039
54779K12N 12N20160419154512204/19/16 15:45:31  5-MIN K12N 192045Z AUTO 35008G16KT 320V030 19/M03 A3004 470 22 1100 360/08G16 330V040 RMK AO1 T01891028
54779K12N 12N20160419155011304/19/16 15:50:31  5-MIN K12N 192050Z AUTO 36008KT 19/M02 A3004 480 23 1100 010/08 RMK AO1 SLP171 T01891022 51002
54779K12N 12N20160419155512204/19/16 15:55:31  5-MIN K12N 192055Z AUTO 33011G16KT 290V010 19/M02 A3004 480 24 1100 350/11G16 300V020 RMK AO1 T01941017
54779K12N 12N20160419160009004/19/16 16:00:31  5-MIN K12N 192100Z AUTO 19/M01 A3004 470 25 1100 M /M RMK AO1 T01891011
54779K12N 12N20160419160511604/19/16 16:05:31  5-MIN K12N 192105Z AUTO 34008KT 300V010 19/M02 A3004 480 24 1100 350/08 310V020 RMK AO1 T01891017
54779K12N 12N20160419161010004/19/16 16:10:31  5-MIN K12N 192110Z AUTO 36006KT 19/M01 A3004 480 25 1100 010/06 RMK AO1 T01891011
54779K12N 12N20160419161510604/19/16 16:15:31  5-MIN K12N 192115Z AUTO 35014G22KT 19/M02 A3004 470 24 1100 360/14G22 RMK AO1 T01891017
54779K12N 12N20160419162012204/19/16 16:20:31  5-MIN K12N 192120Z AUTO 34007G22KT 300V040 18/M03 A3004 470 23 1000 350/07G22 310V050 RMK AO1 T01831028
54779K12N 12N20160419162510604/19/16 16:25:31  5-MIN K12N 192125Z AUTO 36009G22KT 19/M03 A3005 470 22 1100 010/09G22 RMK AO1 T01891028
54779K12N 12N20160419163012204/19/16 16:30:31  5-MIN K12N 192130Z AUTO 32012G19KT 270V360 19/M04 A3005 470 21 1100 330/12G19 280V010 RMK AO1 T01891039
54779K12N 12N20160419163510604/19/16 16:35:31  5-MIN K12N 192135Z AUTO 36007G19KT 19/M05 A3005 470 19 1100 010/07G19 RMK AO1 T01891050
54779K12N 12N20160419164010604/19/16 16:40:31  5-MIN K12N 192140Z AUTO 35011G21KT 18/M06 A3005 460 19 1000 360/11G21 RMK AO1 T01831056
54779K12N 12N20160419164510604/19/16 16:45:31  5-MIN K12N 192145Z AUTO 36010G24KT 18/M06 A3005 460 18 1000 010/10G24 RMK AO1 T01831061
54779K12N 12N20160419165012904/19/16 16:50:31  5-MIN K12N 192150Z AUTO 02011G24KT 360V060 18/M06 A3005 460 18 1000 040/11G24 010V070 RMK AO1 SLP176 T01831061
54779K12N 12N20160419165512204/19/16 16:55:31  5-MIN K12N 192155Z AUTO 35010G19KT 310V020 18/M06 A3005 460 19 1000 360/10G19 320V030 RMK AO1 T01831056
54779K12N 12N20160419170010604/19/16 17:00:31  5-MIN K12N 192200Z AUTO 35013G20KT 18/M06 A3006 460 18 1000 010/13G20 RMK AO1 T01831061
54779K12N 12N20160419170512104/19/16 17:05:31  5-MIN K12N 192205Z AUTO 35010G20KT 330V040 18/M07 A3005 460 18 900 360/10G20 340V050 RMK AO1 T01781067
54779K12N 12N20160419171012204/19/16 17:10:31  5-MIN K12N 192210Z AUTO 34010G16KT 320V030 18/M06 A3005 460 18 1000 360/10G16 330V040 RMK AO1 T01831061
54779K12N 12N20160419171510504/19/16 17:15:31  5-MIN K12N 192215Z AUTO 36015G23KT 18/M07 A3006 460 17 900 010/15G23 RMK AO1 T01781072
54779K12N 12N20160419172012104/19/16 17:20:31  5-MIN K12N 192220Z AUTO 36012G25KT 320V030 18/M08 A3006 460 16 900 020/12G25 330V040 RMK AO1 T01781078
54779K12N 12N20160419172510504/19/16 17:25:31  5-MIN K12N 192225Z AUTO 36011G25KT 17/M07 A3006 450 18 900 010/11G25 RMK AO1 T01721072
54779K12N 12N20160419173010504/19/16 17:30:31  5-MIN K12N 192230Z AUTO 35015G21KT 17/M06 A3006 450 19 900 360/15G21 RMK AO1 T01721061
54779K12N 12N20160419173512104/19/16 17:35:31  5-MIN K12N 192235Z AUTO 36009G21KT 320V020 17/M07 A3006 450 19 900 010/09G21 330V030 RMK AO1 T01721067
54779K12N 12N20160419174012104/19/16 17:40:31  5-MIN K12N 192240Z AUTO 36011G21KT 340V050 17/M06 A3007 450 19 900 010/11G21 350V060 RMK AO1 T01721061
54779K12N 12N20160419174510504/19/16 17:45:31  5-MIN K12N 192245Z AUTO 01009G18KT 17/M06 A3007 450 19 900 020/09G18 RMK AO1 T01721061
54779K12N 12N20160419175011204/19/16 17:50:31  5-MIN K12N 192250Z AUTO 35008G18KT 17/M07 A3007 450 19 900 360/08G18 RMK AO1 SLP181 T01721067
54779K12N 12N20160419175510504/19/16 17:55:31  5-MIN K12N 192255Z AUTO 36011G18KT 17/M07 A3007 450 18 800 010/11G18 RMK AO1 T01671072
54779K12N 12N20160419180012104/19/16 18:00:31  5-MIN K12N 192300Z AUTO 34009G18KT 280V360 17/M07 A3007 450 19 800 350/09G18 290V010 RMK AO1 T01671067
54779K12N 12N20160419180512104/19/16 18:05:31  5-MIN K12N 192305Z AUTO 01008G15KT 330V050 16/M07 A3007 450 19 700 020/08G15 340V060 RMK AO1 T01611072
54779K12N 12N20160419181009904/19/16 18:10:31  5-MIN K12N 192310Z AUTO 35008KT 16/M07 A3008 440 20 700 360/08 RMK AO1 T01611067
54779K12N 12N20160419181509904/19/16 18:15:31  5-MIN K12N 192315Z AUTO 36009KT 16/M06 A3008 440 21 700 020/09 RMK AO1 T01611061
54779K12N 12N20160419182010504/19/16 18:20:31  5-MIN K12N 192320Z AUTO 34010G16KT 16/M06 A3008 440 21 700 360/10G16 RMK AO1 T01611061
54779K12N 12N20160419182510504/19/16 18:25:31  5-MIN K12N 192325Z AUTO VRB06G16KT 16/M06 A3009 430 22 600 VRB/06G16 RMK AO1 T01561061
54779K12N 12N20160419183009904/19/16 18:30:31  5-MIN K12N 192330Z AUTO 35007KT 16/M06 A3009 430 22 600 360/07 RMK AO1 T01561061
54779K12N 12N20160419183509904/19/16 18:35:31  5-MIN K12N 192335Z AUTO VRB05KT 16/M06 A3009 430 22 600 VRB/05 RMK AO1 T01561061
54779K12N 12N20160419184011504/19/16 18:40:31  5-MIN K12N 192340Z AUTO 34009KT 300V010 16/M06 A3009 420 22 600 350/09 310V020 RMK AO1 T01561061
54779K12N 12N20160419184511504/19/16 18:45:31  5-MIN K12N 192345Z AUTO 33007KT 290V010 16/M07 A3010 420 21 600 340/07 300V020 RMK AO1 T01561067
54779K12N 12N20160419185012404/19/16 18:50:31  5-MIN K12N 192350Z AUTO 35008KT 15/M06 A3010 420 22 600 360/08 RMK AO1 SLP190 T01501061 10194 20150 50001
54779K12N 12N20160419185509904/19/16 18:55:31  5-MIN K12N 192355Z AUTO 34006KT 15/M07 A3010 420 22 600 350/06 RMK AO1 T01501067
54779K12N 12N20160419190011504/19/16 19:00:31  5-MIN K12N 200000Z AUTO 35008KT 330V040 15/M07 A3011 410 22 600 010/08 340V050 RMK AO1 T01501067
54779K12N 12N20160419190509904/19/16 19:05:31  5-MIN K12N 200005Z AUTO 35007KT 14/M07 A3011 410 22 500 360/07 RMK AO1 T01441067
54779K12N 12N20160419191009904/19/16 19:10:31  5-MIN K12N 200010Z AUTO 35005KT 14/M06 A3011 410 23 500 360/05 RMK AO1 T01441061
54779K12N 12N20160419191509904/19/16 19:15:31  5-MIN K12N 200015Z AUTO 35005KT 14/M06 A3011 410 23 500 360/05 RMK AO1 T01441061
54779K12N 12N20160419192009904/19/16 19:20:31  5-MIN K12N 200020Z AUTO VRB05KT 14/M07 A3012 410 22 500 VRB/05 RMK AO1 T01441067
54779K12N 12N20160419192509904/19/16 19:25:31  5-MIN K12N 200025Z AUTO VRB06KT 14/M06 A3012 400 24 400 VRB/06 RMK AO1 T01391061
54779K12N 12N20160419193009904/19/16 19:30:31  5-MIN K12N 200030Z AUTO 35005KT 14/M06 A3012 400 24 400 010/05 RMK AO1 T01391061
54779K12N 12N20160419193512104/19/16 19:35:31  5-MIN K12N 200035Z AUTO 36008G14KT 330V040 14/M06 A3012 400 23 500 010/08G14 340V050 RMK AO1 T01441061
54779K12N 12N20160419194012104/19/16 19:40:31  5-MIN K12N 200040Z AUTO 36007G14KT 330V030 14/M06 A3013 400 25 400 010/07G14 340V040 RMK AO1 T01391056
54779K12N 12N20160419194509904/19/16 19:45:31  5-MIN K12N 200045Z AUTO VRB05KT 14/M06 A3013 390 24 400 VRB/05 RMK AO1 T01391061
54779K12N 12N20160419195012804/19/16 19:50:31  5-MIN K12N 200050Z AUTO 36007G15KT 320V030 14/M06 A3013 390 24 400 010/07G15 330V040 RMK AO1 SLP202 T01391061
54779K12N 12N20160419195509904/19/16 19:55:31  5-MIN K12N 200055Z AUTO 35006KT 14/M06 A3013 390 24 400 010/06 RMK AO1 T01391061
54779K12N 12N20160419200011504/19/16 20:00:31  5-MIN K12N 200100Z AUTO 36007KT 330V050 14/M06 A3014 390 25 400 020/07 340V060 RMK AO1 T01391056
54779K12N 12N20160419200509904/19/16 20:05:31  5-MIN K12N 200105Z AUTO 35006KT 13/M06 A3014 380 26 300 360/06 RMK AO1 T01331056
54779K12N 12N20160419201009904/19/16 20:10:31  5-MIN K12N 200110Z AUTO 36009KT 13/M06 A3014 380 26 300 010/09 RMK AO1 T01331056
54779K12N 12N20160419201510504/19/16 20:15:31  5-MIN K12N 200115Z AUTO 34010G15KT 13/M06 A3015 380 26 300 360/10G15 RMK AO1 T01331056
54779K12N 12N20160419202012104/19/16 20:20:31  5-MIN K12N 200120Z AUTO 35008G15KT 320V040 13/M06 A3015 370 26 300 010/08G15 330V050 RMK AO1 T01331056
54779K12N 12N20160419202509904/19/16 20:25:31  5-MIN K12N 200125Z AUTO 36008KT 13/M06 A3015 370 26 300 010/08 RMK AO1 T01331056
54779K12N 12N20160419203010504/19/16 20:30:31  5-MIN K12N 200130Z AUTO VRB06G15KT 13/M06 A3015 370 27 200 VRB/06G15 RMK AO1 T01281056
54779K12N 12N20160419203509904/19/16 20:35:31  5-MIN K12N 200135Z AUTO 36006KT 13/M05 A3016 370 28 200 010/06 RMK AO1 T01281050
54779K12N 12N20160419204009904/19/16 20:40:31  5-MIN K12N 200140Z AUTO 36006KT 13/M05 A3016 370 28 200 020/06 RMK AO1 T01281050
54779K12N 12N20160419204509904/19/16 20:45:31  5-MIN K12N 200145Z AUTO 35009KT 13/M05 A3016 360 28 200 360/09 RMK AO1 T01281050
54779K12N 12N20160419205010604/19/16 20:50:31  5-MIN K12N 200150Z AUTO 35008KT 13/M05 A3016 360 28 200 360/08 RMK AO1 SLP212 T01281050
54779K12N 12N20160419205512104/19/16 20:55:31  5-MIN K12N 200155Z AUTO 36011G20KT 330V040 13/M05 A3016 360 28 200 020/11G20 340V050 RMK AO1 T01281050
54779K12N 12N20160419210010504/19/16 21:00:31  5-MIN K12N 200200Z AUTO 35009G20KT 12/M05 A3017 360 29 200 010/09G20 RMK AO1 T01221050
54779K12N 12N20160419210512104/19/16 21:05:31  5-MIN K12N 200205Z AUTO 35009G18KT 310V020 12/M05 A3017 360 29 200 010/09G18 320V030 RMK AO1 T01221050
54779K12N 12N20160419211010504/19/16 21:10:31  5-MIN K12N 200210Z AUTO 35008G18KT 12/M05 A3017 360 29 100 010/08G18 RMK AO1 T01221050
54779K12N 12N20160419211509904/19/16 21:15:31  5-MIN K12N 200215Z AUTO 35009KT 12/M05 A3017 360 29 100 010/09 RMK AO1 T01221050
54779K12N 12N20160419212012104/19/16 21:20:31  5-MIN K12N 200220Z AUTO 36009G16KT 330V030 12/M05 A3017 350 30 100 010/09G16 340V040 RMK AO1 T01171050
54779K12N 12N20160419212510504/19/16 21:25:31  5-MIN K12N 200225Z AUTO 36007G16KT 12/M05 A3017 360 30 100 010/07G16 RMK AO1 T01171050
54779K12N 12N20160419213011504/19/16 21:30:31  5-MIN K12N 200230Z AUTO 36009KT 340V040 12/M05 A3017 360 30 100 010/09 350V050 RMK AO1 T01171050
54779K12N 12N20160419213509904/19/16 21:35:31  5-MIN K12N 200235Z AUTO 35007KT 12/M05 A3017 360 30 100 360/07 RMK AO1 T01171050
54779K12N 12N20160419214009704/19/16 21:40:31  5-MIN K12N 200240Z AUTO 34008KT 11/M05 A3017 360 32 0 350/08 RMK AO1 T01111050
54779K12N 12N20160419214509704/19/16 21:45:31  5-MIN K12N 200245Z AUTO 36007KT 11/M04 A3017 360 33 0 010/07 RMK AO1 T01111044
54779K12N 12N20160419215011004/19/16 21:50:31  5-MIN K12N 200250Z AUTO 35007KT 11/M04 A3017 350 33 0 010/07 RMK AO1 SLP217 T01111044 53021
54779K12N 12N20160419215509704/19/16 21:55:31  5-MIN K12N 200255Z AUTO VRB05KT 11/M04 A3018 350 33 0 VRB/05 RMK AO1 T01111044
54779K12N 12N20160419220009704/19/16 22:00:31  5-MIN K12N 200300Z AUTO VRB06KT 11/M04 A3018 350 33 0 VRB/06 RMK AO1 T01111044
54779K12N 12N20160419220509704/19/16 22:05:31  5-MIN K12N 200305Z AUTO 35005KT 11/M04 A3018 350 33 0 360/05 RMK AO1 T01111044
54779K12N 12N20160419221009704/19/16 22:10:31  5-MIN K12N 200310Z AUTO 36005KT 11/M04 A3018 350 33 0 020/05 RMK AO1 T01111044
54779K12N 12N20160419221509704/19/16 22:15:31  5-MIN K12N 200315Z AUTO 34006KT 11/M04 A3018 350 33 0 350/06 RMK AO1 T01111044
54779K12N 12N20160419222009704/19/16 22:20:31  5-MIN K12N 200320Z AUTO 34009KT 11/M04 A3018 350 33 0 360/09 RMK AO1 T01111044
54779K12N 12N20160419222509704/19/16 22:25:31  5-MIN K12N 200325Z AUTO 34008KT 11/M05 A3018 350 33 0 360/08 RMK AO1 T01061050
54779K12N 12N20160419223010304/19/16 22:30:31  5-MIN K12N 200330Z AUTO 35011G21KT 11/M05 A3018 350 32 0 010/11G21 RMK AO1 T01111050
54779K12N 12N20160419223510304/19/16 22:35:31  5-MIN K12N 200335Z AUTO 35007G21KT 11/M05 A3018 350 33 0 010/07G21 RMK AO1 T01061050
54779K12N 12N20160419224010304/19/16 22:40:31  5-MIN K12N 200340Z AUTO 35011G16KT 11/M05 A3018 350 32 0 360/11G16 RMK AO1 T01111050
54779K12N 12N20160419224510304/19/16 22:45:31  5-MIN K12N 200345Z AUTO 35008G16KT 11/M05 A3018 350 33 0 360/08G16 RMK AO1 T01061050
54779K12N 12N20160419225012004/19/16 22:50:31  5-MIN K12N 200350Z AUTO 36007KT 330V040 11/M05 A3018 350 33 0 010/07 340V050 RMK AO1 SLP220 T01061050
54779K12N 12N20160419225511304/19/16 22:55:31  5-MIN K12N 200355Z AUTO 36007KT 330V030 11/M05 A3018 340 33 0 010/07 340V040 RMK AO1 T01061050
54779K12N 12N20160419230011304/19/16 23:00:31  5-MIN K12N 200400Z AUTO 35007KT 330V050 11/M05 A3018 340 33 0 010/07 340V060 RMK AO1 T01061050
54779K12N 12N20160419230509704/19/16 23:05:31  5-MIN K12N 200405Z AUTO 36006KT 11/M05 A3018 340 33 0 020/06 RMK AO1 T01061050
54779K12N 12N20160419231010304/19/16 23:10:31  5-MIN K12N 200410Z AUTO 35006G17KT 11/M05 A3018 340 33 0 360/06G17 RMK AO1 T01061050
54779K12N 12N20160419231510304/19/16 23:15:31  5-MIN K12N 200415Z AUTO 34009G17KT 11/M05 A3018 340 33 0 350/09G17 RMK AO1 T01061050
54779K12N 12N20160419232010304/19/16 23:20:31  5-MIN K12N 200420Z AUTO VRB06G17KT 11/M05 A3018 340 33 0 VRB/06G17 RMK AO1 T01061050
54779K12N 12N20160419232510304/19/16 23:25:31  5-MIN K12N 200425Z AUTO VRB06G17KT 11/M05 A3019 340 33 0 VRB/06G17 RMK AO1 T01061050
54779K12N 12N20160419233011604/19/16 23:30:31  5-MIN K12N 200430Z AUTO 34007KT 310V050 10/M04 A3019 340 36 -100 360/07 320V060 RMK AO1 T01001044
54779K12N 12N20160419233510004/19/16 23:35:31  5-MIN K12N 200435Z AUTO 35007KT 10/M04 A3019 340 36 -100 360/07 RMK AO1 T01001044
54779K12N 12N20160419234009704/19/16 23:40:31  5-MIN K12N 200440Z AUTO VRB04KT 11/M04 A3019 340 34 0 VRB/04 RMK AO1 T01061044
54779K12N 12N20160419234510004/19/16 23:45:31  5-MIN K12N 200445Z AUTO VRB06KT 10/M04 A3019 340 37 -100 VRB/06 RMK AO1 T01001039
54779K12N 12N20160419235011704/19/16 23:50:31  5-MIN K12N 200450Z AUTO VRB05KT 10/M04 A3019 330 37 -100 VRB/05 RMK AO1 SLP224 T01001039 401940089
54779K12N 12N20160419235510004/19/16 23:55:31  5-MIN K12N 200455Z AUTO VRB06KT 10/M04 A3020 330 37 -100 VRB/06 RMK AO1 T01001039
54779K12N 12N20160420000010004/20/16 00:00:31  5-MIN K12N 200500Z AUTO VRB05KT 10/M04 A3019 330 37 -100 VRB/05 RMK AO1 T01001039
54779K12N 12N20160420000510004/20/16 00:05:31  5-MIN K12N 200505Z AUTO VRB03KT 10/M04 A3020 330 37 -100 VRB/03 RMK AO1 T01001039
54779K12N 12N20160420001010004/20/16 00:10:31  5-MIN K12N 200510Z AUTO VRB03KT 10/M03 A3020 330 39 -100 VRB/03 RMK AO1 T01001033
54779K12N 12N20160420001510004/20/16 00:15:31  5-MIN K12N 200515Z AUTO VRB04KT 09/M04 A3020 330 39 -200 VRB/04 RMK AO1 T00941039
54779K12N 12N20160420002010004/20/16 00:20:31  5-MIN K12N 200520Z AUTO 01005KT 09/M04 A3020 330 39 -200 020/05 RMK AO1 T00941039
54779K12N 12N20160420002510004/20/16 00:25:31  5-MIN K12N 200525Z AUTO VRB05KT 10/M04 A3020 330 37 -100 VRB/05 RMK AO1 T01001039
54779K12N 12N20160420003010004/20/16 00:30:31  5-MIN K12N 200530Z AUTO VRB05KT 10/M04 A3020 330 37 -100 VRB/05 RMK AO1 T01001039
54779K12N 12N20160420003510004/20/16 00:35:31  5-MIN K12N 200535Z AUTO 01008KT 10/M04 A3020 330 37 -100 030/08 RMK AO1 T01001039
54779K12N 12N20160420004010004/20/16 00:40:31  5-MIN K12N 200540Z AUTO 36007KT 10/M04 A3020 330 37 -100 020/07 RMK AO1 T01001039
54779K12N 12N20160420004510004/20/16 00:45:31  5-MIN K12N 200545Z AUTO VRB04KT 10/M04 A3020 330 37 -100 VRB/04 RMK AO1 T01001039
54779K12N 12N20160420005012504/20/16 00:50:31  5-MIN K12N 200550Z AUTO 36005KT 09/M04 A3020 330 39 -200 010/05 RMK AO1 SLP226 T00941039 10150 20094 51024
54779K12N 12N20160420005510004/20/16 00:55:31  5-MIN K12N 200555Z AUTO 35005KT 09/M04 A3020 330 39 -200 010/05 RMK AO1 T00941039
54779K12N 12N20160420010010004/20/16 01:00:31  5-MIN K12N 200600Z AUTO VRB06KT 09/M04 A3020 330 39 -200 VRB/06 RMK AO1 T00941039
54779K12N 12N20160420010510004/20/16 01:05:31  5-MIN K12N 200605Z AUTO VRB03KT 10/M04 A3020 320 36 -100 VRB/03 RMK AO1 T01001044
54779K12N 12N20160420011010004/20/16 01:10:31  5-MIN K12N 200610Z AUTO 01004KT 09/M04 A3021 320 39 -200 020/04 RMK AO1 T00941039
54779K12N 12N20160420011510004/20/16 01:15:31  5-MIN K12N 200615Z AUTO VRB05KT 09/M04 A3020 320 39 -200 VRB/05 RMK AO1 T00941039
54779K12N 12N20160420012010004/20/16 01:20:31  5-MIN K12N 200620Z AUTO VRB03KT 09/M04 A3020 330 40 -200 VRB/03 RMK AO1 T00891039
54779K12N 12N20160420012510004/20/16 01:25:31  5-MIN K12N 200625Z AUTO 35004KT 09/M04 A3020 330 40 -200 010/04 RMK AO1 T00891039
54779K12N 12N20160420013010004/20/16 01:30:31  5-MIN K12N 200630Z AUTO 36003KT 09/M04 A3020 330 40 -200 010/03 RMK AO1 T00891039
54779K12N 12N20160420013510004/20/16 01:35:31  5-MIN K12N 200635Z AUTO 36003KT 09/M04 A3020 330 39 -200 010/03 RMK AO1 T00941039
54779K12N 12N20160420014010004/20/16 01:40:31  5-MIN K12N 200640Z AUTO 36003KT 09/M04 A3020 330 40 -200 020/03 RMK AO1 T00891039
54779K12N 12N20160420014510004/20/16 01:45:31  5-MIN K12N 200645Z AUTO 35004KT 08/M04 A3020 330 42 -300 010/04 RMK AO1 T00831039
54779K12N 12N20160420015010704/20/16 01:50:31  5-MIN K12N 200650Z AUTO 00000KT 08/M04 A3019 330 42 -300 000/00 RMK AO1 SLP224 T00831039
54779K12N 12N20160420015510004/20/16 01:55:31  5-MIN K12N 200655Z AUTO 00000KT 08/M03 A3019 330 47 -400 000/00 RMK AO1 T00781028
54779K12N 12N20160420020010004/20/16 02:00:31  5-MIN K12N 200700Z AUTO 00000KT 08/M03 A3019 330 43 -300 000/00 RMK AO1 T00831033
54779K12N 12N20160420020510004/20/16 02:05:31  5-MIN K12N 200705Z AUTO 00000KT 08/M02 A3020 330 49 -400 000/00 RMK AO1 T00781022
54779K12N 12N20160420021010004/20/16 02:10:31  5-MIN K12N 200710Z AUTO 00000KT 07/M03 A3019 330 49 -400 000/00 RMK AO1 T00721028
54779K12N 12N20160420021510004/20/16 02:15:31  5-MIN K12N 200715Z AUTO 00000KT 07/M02 A3020 330 53 -500 000/00 RMK AO1 T00671022
54779K12N 12N20160420022010004/20/16 02:20:31  5-MIN K12N 200720Z AUTO 00000KT 07/M02 A3020 330 53 -400 000/00 RMK AO1 T00721017
54779K12N 12N20160420022510004/20/16 02:25:31  5-MIN K12N 200725Z AUTO 00000KT 07/M02 A3020 330 55 -500 000/00 RMK AO1 T00671017
54779K12N 12N20160420023010004/20/16 02:30:31  5-MIN K12N 200730Z AUTO 00000KT 06/M02 A3020 330 57 -600 000/00 RMK AO1 T00611017
54779K12N 12N20160420023509904/20/16 02:35:31  5-MIN K12N 200735Z AUTO 00000KT 06/01 A3020 330 70 -600 000/00 RMK AO1 T00610011
54779K12N 12N20160420024009904/20/16 02:40:31  5-MIN K12N 200740Z AUTO 00000KT 06/00 A3020 330 65 -600 000/00 RMK AO1 T00610000
54779K12N 12N20160420024510004/20/16 02:45:31  5-MIN K12N 200745Z AUTO 00000KT 07/M01 A3020 330 60 -500 000/00 RMK AO1 T00671006
54779K12N 12N20160420025010704/20/16 02:50:31  5-MIN K12N 200750Z AUTO 00000KT 06/M01 A3020 330 60 -600 000/00 RMK AO1 SLP227 T00611011
54779K12N 12N20160420025510004/20/16 02:55:31  5-MIN K12N 200755Z AUTO 00000KT 06/M01 A3020 330 62 -600 000/00 RMK AO1 T00561011
54779K12N 12N20160420030010004/20/16 03:00:31  5-MIN K12N 200800Z AUTO 00000KT 06/M01 A3020 330 60 -600 000/00 RMK AO1 T00611011
54779K12N 12N20160420030510004/20/16 03:05:31  5-MIN K12N 200805Z AUTO 00000KT 06/M01 A3020 330 62 -600 000/00 RMK AO1 T00561011
54779K12N 12N20160420031010004/20/16 03:10:31  5-MIN K12N 200810Z AUTO 00000KT 06/M01 A3020 330 65 -600 000/00 RMK AO1 T00561006
54779K12N 12N20160420031510004/20/16 03:15:31  5-MIN K12N 200815Z AUTO 00000KT 05/M01 A3020 330 67 -700 000/00 RMK AO1 T00501006
54779K12N 12N20160420032010004/20/16 03:20:31  5-MIN K12N 200820Z AUTO 00000KT 05/M01 A3020 330 64 -700 000/00 RMK AO1 T00501011
54779K12N 12N20160420032510004/20/16 03:25:31  5-MIN K12N 200825Z AUTO 00000KT 06/M01 A3020 330 65 -600 000/00 RMK AO1 T00561006
54779K12N 12N20160420033009904/20/16 03:30:31  5-MIN K12N 200830Z AUTO 00000KT 05/01 A3020 330 73 -700 000/00 RMK AO1 T00500006
54779K12N 12N20160420033510004/20/16 03:35:31  5-MIN K12N 200835Z AUTO 00000KT 06/M01 A3020 330 65 -600 000/00 RMK AO1 T00561006
54779K12N 12N20160420034010004/20/16 03:40:31  5-MIN K12N 200840Z AUTO 00000KT 05/M01 A3021 320 67 -700 000/00 RMK AO1 T00501006
54779K12N 12N20160420034510004/20/16 03:45:31  5-MIN K12N 200845Z AUTO 00000KT 04/M01 A3021 320 70 -800 000/00 RMK AO1 T00441006
54779K12N 12N20160420035011304/20/16 03:50:31  5-MIN K12N 200850Z AUTO 00000KT 04/M01 A3021 320 70 -800 000/00 RMK AO1 SLP232 T00441006 53009
54779K12N 12N20160420035509904/20/16 03:55:31  5-MIN K12N 200855Z AUTO 00000KT 05/00 A3021 320 70 -700 000/00 RMK AO1 T00500000
54779K12N 12N20160420040009904/20/16 04:00:31  5-MIN K12N 200900Z AUTO 00000KT 04/00 A3021 310 73 -800 000/00 RMK AO1 T00440000
54779K12N 12N20160420040510004/20/16 04:05:31  5-MIN K12N 200905Z AUTO 00000KT 04/M01 A3021 310 70 -800 000/00 RMK AO1 T00441006
54779K12N 12N20160420041009904/20/16 04:10:31  5-MIN K12N 200910Z AUTO 00000KT 04/01 A3022 310 76 -800 000/00 RMK AO1 T00440006
54779K12N 12N20160420041509904/20/16 04:15:31  5-MIN K12N 200915Z AUTO 00000KT 04/00 A3022 310 76 -900 000/00 RMK AO1 T00390000
54779K12N 12N20160420042010004/20/16 04:20:31  5-MIN K12N 200920Z AUTO 00000KT 04/M01 A3022 310 73 -900 000/00 RMK AO1 T00391006
54779K12N 12N20160420042510004/20/16 04:25:31  5-MIN K12N 200925Z AUTO 00000KT 04/M01 A3021 310 70 -900 000/00 RMK AO1 T00391011
54779K12N 12N20160420043010004/20/16 04:30:31  5-MIN K12N 200930Z AUTO 00000KT 04/M01 A3022 310 70 -800 000/00 RMK AO1 T00441006
54779K12N 12N20160420043510004/20/16 04:35:31  5-MIN K12N 200935Z AUTO 00000KT 04/M01 A3022 310 70 -800 000/00 RMK AO1 T00441006
54779K12N 12N20160420044010004/20/16 04:40:31  5-MIN K12N 200940Z AUTO 00000KT 04/M01 A3022 310 70 -800 000/00 RMK AO1 T00441006
54779K12N 12N20160420044510004/20/16 04:45:31  5-MIN K12N 200945Z AUTO 00000KT 05/M01 A3022 310 64 -700 000/00 RMK AO1 T00501011
54779K12N 12N20160420045010704/20/16 04:50:31  5-MIN K12N 200950Z AUTO 00000KT 04/M01 A3022 310 67 -800 000/00 RMK AO1 SLP235 T00441011
54779K12N 12N20160420045510004/20/16 04:55:31  5-MIN K12N 200955Z AUTO 00000KT 04/M01 A3022 310 67 -800 000/00 RMK AO1 T00441011
54779K12N 12N20160420050010004/20/16 05:00:31  5-MIN K12N 201000Z AUTO 00000KT 04/M01 A3022 310 73 -900 000/00 RMK AO1 T00391006
54779K12N 12N20160420050509904/20/16 05:05:31  5-MIN K12N 201005Z AUTO 00000KT 04/00 A3023 300 73 -800 000/00 RMK AO1 T00440000
54779K12N 12N20160420051010004/20/16 05:10:31  5-MIN K12N 201010Z AUTO 00000KT 04/M01 A3023 300 73 -900 000/00 RMK AO1 T00391006
54779K12N 12N20160420051509904/20/16 05:15:31  5-MIN K12N 201015Z AUTO 00000KT 04/00 A3023 300 73 -800 000/00 RMK AO1 T00440000
54779K12N 12N20160420052009904/20/16 05:20:31  5-MIN K12N 201020Z AUTO 00000KT 04/01 A3023 300 82 -900 000/00 RMK AO1 T00390011
54779K12N 12N20160420052509904/20/16 05:25:31  5-MIN K12N 201025Z AUTO 00000KT 04/00 A3024 290 76 -900 000/00 RMK AO1 T00390000
54779K12N 12N20160420053010004/20/16 05:30:31  5-MIN K12N 201030Z AUTO 00000KT 04/M01 A3024 290 73 -900 000/00 RMK AO1 T00391006
54779K12N 12N20160420053510004/20/16 05:35:31  5-MIN K12N 201035Z AUTO 00000KT 04/M01 A3024 290 67 -800 000/00 RMK AO1 T00441011
54779K12N 12N20160420054010004/20/16 05:40:31  5-MIN K12N 201040Z AUTO 00000KT 04/M02 A3024 290 67 -900 000/00 RMK AO1 T00391017
54779K12N 12N20160420054510004/20/16 05:45:31  5-MIN K12N 201045Z AUTO 00000KT 04/M01 A3024 290 67 -800 000/00 RMK AO1 T00441011
54779K12N 12N20160420055010604/20/16 05:50:31  5-MIN K12N 201050Z AUTO 00000KT 04/01 A3025 280 76 -800 000/00 RMK AO1 SLP244 T00440006
54779K12N 12N20160420055509904/20/16 05:55:31  5-MIN K12N 201055Z AUTO 00000KT 04/00 A3025 280 76 -900 000/00 RMK AO1 T00390000
54779K12N 12N20160420060010004/20/16 06:00:31  5-MIN K12N 201100Z AUTO 00000KT 04/M01 A3025 280 70 -800 000/00 RMK AO1 T00441006
54779K12N 12N20160420060510004/20/16 06:05:31  5-MIN K12N 201105Z AUTO 00000KT 04/M01 A3025 280 70 -800 000/00 RMK AO1 T00441006
54779K12N 12N20160420061010004/20/16 06:10:31  5-MIN K12N 201110Z AUTO 00000KT 04/M01 A3025 280 70 -800 000/00 RMK AO1 T00441006
54779K12N 12N20160420061509904/20/16 06:15:31  5-MIN K12N 201115Z AUTO 00000KT 04/01 A3025 280 76 -800 000/00 RMK AO1 T00440006
54779K12N 12N20160420062009904/20/16 06:20:31  5-MIN K12N 201120Z AUTO 00000KT 05/00 A3026 280 70 -800 000/00 RMK AO1 T00500000
54779K12N 12N20160420062509904/20/16 06:25:31  5-MIN K12N 201125Z AUTO 00000KT 06/00 A3026 270 65 -600 000/00 RMK AO1 T00610000
54779K12N 12N20160420063009904/20/16 06:30:31  5-MIN K12N 201130Z AUTO 00000KT 07/02 A3026 270 70 -600 000/00 RMK AO1 T00670017
54779K12N 12N20160420063509904/20/16 06:35:31  5-MIN K12N 201135Z AUTO 00000KT 08/02 A3026 270 65 -400 000/00 RMK AO1 T00780017
54779K12N 12N20160420064010004/20/16 06:40:31  5-MIN K12N 201140Z AUTO VRB04KT 08/M01 A3026 270 53 -400 VRB/04 RMK AO1 T00831006
54779K12N 12N20160420064511604/20/16 06:45:31  5-MIN K12N 201145Z AUTO 36007KT 320V040 09/M01 A3026 270 49 -300 010/07 330V050 RMK AO1 T00891011
54779K12N 12N20160420065012504/20/16 06:50:31  5-MIN K12N 201150Z AUTO VRB06KT 09/M02 A3026 270 45 -300 VRB/06 RMK AO1 SLP247 T00891022 10100 20039 53004
54779K12N 12N20160420065510004/20/16 06:55:31  5-MIN K12N 201155Z AUTO 34004KT 09/M02 A3026 270 44 -200 360/04 RMK AO1 T00941022
54779K12N 12N20160420070010004/20/16 07:00:31  5-MIN K12N 201200Z AUTO 35005KT 09/M02 A3026 270 44 -200 360/05 RMK AO1 T00941022
54779K12N 12N20160420070510004/20/16 07:05:31  5-MIN K12N 201205Z AUTO 36006KT 10/M02 A3026 270 42 -200 010/06 RMK AO1 T01001022
54779K12N 12N20160420071010004/20/16 07:10:31  5-MIN K12N 201210Z AUTO 03007KT 10/M02 A3026 270 44 -200 040/07 RMK AO1 T01001017
54779K12N 12N20160420071510004/20/16 07:15:31  5-MIN K12N 201215Z AUTO 35008KT 10/M02 A3026 270 42 -200 010/08 RMK AO1 T01001022
54779K12N 12N20160420072010004/20/16 07:20:31  5-MIN K12N 201220Z AUTO 34009KT 10/M03 A3026 270 40 -200 360/09 RMK AO1 T01001028
54779K12N 12N20160420072510004/20/16 07:25:31  5-MIN K12N 201225Z AUTO 36006KT 10/M03 A3026 270 40 -200 020/06 RMK AO1 T01001028
54779K12N 12N20160420073010004/20/16 07:30:31  5-MIN K12N 201230Z AUTO 36006KT 11/M02 A3026 270 40 -100 020/06 RMK AO1 T01061022
54779K12N 12N20160420073510004/20/16 07:35:31  5-MIN K12N 201235Z AUTO VRB05KT 11/M02 A3027 270 40 -100 VRB/05 RMK AO1 T01061022
54779K12N 12N20160420074010004/20/16 07:40:31  5-MIN K12N 201240Z AUTO VRB05KT 11/M03 A3027 270 39 -100 VRB/05 RMK AO1 T01061028
54779K12N 12N20160420074510004/20/16 07:45:31  5-MIN K12N 201245Z AUTO 35005KT 11/M02 A3027 260 40 -100 010/05 RMK AO1 T01061022
54779K12N 12N20160420075010704/20/16 07:50:31  5-MIN K12N 201250Z AUTO VRB05KT 11/M03 A3027 260 39 -100 VRB/05 RMK AO1 SLP251 T01061028
54779K12N 12N20160420075509704/20/16 07:55:31  5-MIN K12N 201255Z AUTO 04006KT 11/M03 A3027 260 37 0 050/06 RMK AO1 T01111028
54779K12N 12N20160420080009704/20/16 08:00:31  5-MIN K12N 201300Z AUTO VRB06KT 11/M02 A3027 270 39 0 VRB/06 RMK AO1 T01111022
54779K12N 12N20160420080509704/20/16 08:05:31  5-MIN K12N 201305Z AUTO VRB04KT 11/M03 A3027 260 36 0 VRB/04 RMK AO1 T01111033
54779K12N 12N20160420081010004/20/16 08:10:31  5-MIN K12N 201310Z AUTO 36006KT 11/M03 A3027 260 36 -100 010/06 RMK AO1 T01111033
54779K12N 12N20160420081510004/20/16 08:15:31  5-MIN K12N 201315Z AUTO 34009KT 11/M04 A3027 260 33 -100 350/09 RMK AO1 T01111044
54779K12N 12N20160420082011604/20/16 08:20:31  5-MIN K12N 201320Z AUTO 03007KT 350V060 11/M04 A3027 260 34 -100 050/07 360V070 RMK AO1 T01111039
54779K12N 12N20160420082511304/20/16 08:25:31  5-MIN K12N 201325Z AUTO 02007KT 320V060 12/M04 A3027 260 32 0 040/07 330V070 RMK AO1 T01171044
54779K12N 12N20160420083009704/20/16 08:30:31  5-MIN K12N 201330Z AUTO 03006KT 12/M04 A3027 260 33 0 040/06 RMK AO1 T01171039
54779K12N 12N20160420083511304/20/16 08:35:31  5-MIN K12N 201335Z AUTO 36007KT 340V040 12/M05 A3028 260 30 0 020/07 350V050 RMK AO1 T01171050
54779K12N 12N20160420084009704/20/16 08:40:31  5-MIN K12N 201340Z AUTO VRB04KT 12/M04 A3028 260 31 0 VRB/04 RMK AO1 T01221044
54779K12N 12N20160420084511304/20/16 08:45:31  5-MIN K12N 201345Z AUTO 03007KT 340V070 12/M04 A3028 260 31 0 040/07 350V080 RMK AO1 T01221044
54779K12N 12N20160420085010404/20/16 08:50:31  5-MIN K12N 201350Z AUTO 35008KT 12/M04 A3028 260 31 0 360/08 RMK AO1 SLP253 T01221044
54779K12N 12N20160420085509704/20/16 08:55:31  5-MIN K12N 201355Z AUTO VRB05KT 12/M06 A3028 260 28 0 VRB/05 RMK AO1 T01221056
54779K12N 12N20160420090011504/20/16 09:00:31  5-MIN K12N 201400Z AUTO 04007KT 010V070 13/M04 A3028 260 30 100 050/07 020V080 RMK AO1 T01281044
54779K12N 12N20160420090509704/20/16 09:05:31  5-MIN K12N 201405Z AUTO VRB04KT 12/M05 A3027 260 29 0 VRB/04 RMK AO1 T01221050
54779K12N 12N20160420091009904/20/16 09:10:31  5-MIN K12N 201410Z AUTO VRB06KT 13/M06 A3027 260 27 100 VRB/06 RMK AO1 T01281056
54779K12N 12N20160420091509904/20/16 09:15:31  5-MIN K12N 201415Z AUTO VRB05KT 13/M05 A3027 260 28 100 VRB/05 RMK AO1 T01281050
54779K12N 12N20160420092009904/20/16 09:20:31  5-MIN K12N 201420Z AUTO VRB04KT 13/M04 A3027 260 30 100 VRB/04 RMK AO1 T01281044
54779K12N 12N20160420092509904/20/16 09:25:31  5-MIN K12N 201425Z AUTO VRB05KT 13/M05 A3027 260 28 100 VRB/05 RMK AO1 T01281050
54779K12N 12N20160420093011504/20/16 09:30:31  5-MIN K12N 201430Z AUTO 02008KT 340V050 13/M04 A3027 260 28 200 030/08 350V060 RMK AO1 T01331044
54779K12N 12N20160420093511504/20/16 09:35:31  5-MIN K12N 201435Z AUTO 02007KT 330V050 13/M05 A3027 260 27 200 040/07 340V060 RMK AO1 T01331050
54779K12N 12N20160420094009904/20/16 09:40:31  5-MIN K12N 201440Z AUTO VRB06KT 13/M04 A3027 260 28 200 VRB/06 RMK AO1 T01331044
54779K12N 12N20160420094509904/20/16 09:45:31  5-MIN K12N 201445Z AUTO 01008KT 13/M05 A3028 260 27 200 020/08 RMK AO1 T01331050
54779K12N 12N20160420095011204/20/16 09:50:31  5-MIN K12N 201450Z AUTO VRB05KT 13/M05 A3027 260 27 200 VRB/05 RMK AO1 SLP252 T01331050 53016
54779K12N 12N20160420095509904/20/16 09:55:31  5-MIN K12N 201455Z AUTO VRB04KT 14/M04 A3027 260 29 200 VRB/04 RMK AO1 T01391039
54779K12N 12N20160420100009904/20/16 10:00:31  5-MIN K12N 201500Z AUTO VRB04KT 13/M06 A3027 260 26 200 VRB/04 RMK AO1 T01331056
54779K12N 12N20160420100509904/20/16 10:05:31  5-MIN K12N 201505Z AUTO VRB05KT 14/M04 A3027 260 28 300 VRB/05 RMK AO1 T01441039
54779K12N 12N20160420101009904/20/16 10:10:31  5-MIN K12N 201510Z AUTO VRB06KT 14/M04 A3027 260 26 300 VRB/06 RMK AO1 T01441044
54779K12N 12N20160420101509904/20/16 10:15:31  5-MIN K12N 201515Z AUTO VRB03KT 14/M04 A3027 260 26 300 VRB/03 RMK AO1 T01441044
54779K12N 12N20160420102009904/20/16 10:20:31  5-MIN K12N 201520Z AUTO 34006KT 14/M05 A3027 260 25 300 350/06 RMK AO1 T01441050
54779K12N 12N20160420102509904/20/16 10:25:31  5-MIN K12N 201525Z AUTO 34006KT 14/M04 A3027 260 26 300 350/06 RMK AO1 T01441044
54779K12N 12N20160420103009904/20/16 10:30:31  5-MIN K12N 201530Z AUTO VRB05KT 14/M05 A3027 260 25 300 VRB/05 RMK AO1 T01441050
54779K12N 12N20160420103509904/20/16 10:35:31  5-MIN K12N 201535Z AUTO VRB04KT 15/M06 A3027 260 23 400 VRB/04 RMK AO1 T01501056
54779K12N 12N20160420104009904/20/16 10:40:31  5-MIN K12N 201540Z AUTO VRB03KT 14/M06 A3027 260 24 300 VRB/03 RMK AO1 T01441056
54779K12N 12N20160420104509904/20/16 10:45:31  5-MIN K12N 201545Z AUTO 06004KT 15/M05 A3027 260 24 400 070/04 RMK AO1 T01501050
54779K12N 12N20160420105010604/20/16 10:50:31  5-MIN K12N 201550Z AUTO VRB03KT 15/M06 A3027 270 23 400 VRB/03 RMK AO1 SLP250 T01501056
54779K12N 12N20160420105509904/20/16 10:55:31  5-MIN K12N 201555Z AUTO VRB03KT 15/M04 A3026 270 25 400 VRB/03 RMK AO1 T01501044
54779K12N 12N20160420110009904/20/16 11:00:31  5-MIN K12N 201600Z AUTO 00000KT 16/M06 A3026 270 23 400 000/00 RMK AO1 T01561056
54779K12N 12N20160420110509904/20/16 11:05:31  5-MIN K12N 201605Z AUTO 00000KT 16/M06 A3026 270 23 400 000/00 RMK AO1 T01561056
54779K12N 12N20160420111009904/20/16 11:10:31  5-MIN K12N 201610Z AUTO 27003KT 16/M05 A3026 280 23 500 280/03 RMK AO1 T01611050
54779K12N 12N20160420111509904/20/16 11:15:31  5-MIN K12N 201615Z AUTO VRB06KT 16/M06 A3025 280 21 500 VRB/06 RMK AO1 T01611061
54779K12N 12N20160420112009904/20/16 11:20:31  5-MIN K12N 201620Z AUTO 08007KT 16/M06 A3025 280 21 500 090/07 RMK AO1 T01611061
54779K12N 12N20160420112509904/20/16 11:25:31  5-MIN K12N 201625Z AUTO 05008KT 16/M07 A3026 280 21 400 060/08 RMK AO1 T01561067
54779K12N 12N20160420113009904/20/16 11:30:31  5-MIN K12N 201630Z AUTO 06004KT 16/M07 A3026 280 21 400 080/04 RMK AO1 T01561067
54779K12N 12N20160420113509904/20/16 11:35:31  5-MIN K12N 201635Z AUTO VRB03KT 16/M07 A3025 280 21 400 VRB/03 RMK AO1 T01561067
54779K12N 12N20160420114009904/20/16 11:40:31  5-MIN K12N 201640Z AUTO VRB03KT 17/M06 A3025 280 21 600 VRB/03 RMK AO1 T01671056
54779K12N 12N20160420114509904/20/16 11:45:31  5-MIN K12N 201645Z AUTO 05004KT 17/M06 A3025 280 20 600 070/04 RMK AO1 T01671061
54779K12N 12N20160420115010604/20/16 11:50:31  5-MIN K12N 201650Z AUTO 00000KT 17/M06 A3025 290 20 600 000/00 RMK AO1 SLP241 T01671061
54779K12N 12N20160420115509904/20/16 11:55:31  5-MIN K12N 201655Z AUTO VRB06KT 17/M07 A3024 290 19 600 VRB/06 RMK AO1 T01671067
54779K12N 12N20160420120009904/20/16 12:00:31  5-MIN K12N 201700Z AUTO VRB04KT 17/M05 A3024 290 21 700 VRB/04 RMK AO1 T01721050
54779K12N 12N20160420120509904/20/16 12:05:31  5-MIN K12N 201705Z AUTO VRB05KT 18/M04 A3024 290 22 700 VRB/05 RMK AO1 T01781039
54779K12N 12N20160420121009904/20/16 12:10:31  5-MIN K12N 201710Z AUTO VRB03KT 17/M07 A3023 300 18 600 VRB/03 RMK AO1 T01671072
54779K12N 12N20160420121509904/20/16 12:15:31  5-MIN K12N 201715Z AUTO VRB03KT 17/M07 A3023 300 19 700 VRB/03 RMK AO1 T01721067
54779K12N 12N20160420122008904/20/16 12:20:31  5-MIN K12N 201720Z AUTO 18/M06 A3023 300 19 700 M /M RMK AO1 T01781061
54779K12N 12N20160420122509904/20/16 12:25:31  5-MIN K12N 201725Z AUTO 00000KT 17/M07 A3023 300 19 700 000/00 RMK AO1 T01721067
54779K12N 12N20160420123009904/20/16 12:30:31  5-MIN K12N 201730Z AUTO 16003KT 17/M07 A3023 300 19 700 170/03 RMK AO1 T01721067
54779K12N 12N20160420123509904/20/16 12:35:31  5-MIN K12N 201735Z AUTO 20003KT 17/M08 A3023 300 17 700 210/03 RMK AO1 T01721078
54779K12N 12N20160420124009904/20/16 12:40:31  5-MIN K12N 201740Z AUTO 00000KT 18/M06 A3022 310 19 700 000/00 RMK AO1 T01781061
54779K12N 12N20160420124509904/20/16 12:45:31  5-MIN K12N 201745Z AUTO VRB03KT 18/M07 A3022 310 17 800 VRB/03 RMK AO1 T01831067
54779K12N 12N20160420125012404/20/16 12:50:31  5-MIN K12N 201750Z AUTO VRB03KT 18/M06 A3022 310 19 800 VRB/03 RMK AO1 SLP233 T01831056 10183 20094 50005
54779K12N 12N20160420125508904/20/16 12:55:31  5-MIN K12N 201755Z AUTO 18/M07 A3022 310 17 800 M /M RMK AO1 T01831067
54779K12N 12N20160420130009904/20/16 13:00:31  5-MIN K12N 201800Z AUTO 15004KT 17/M08 A3022 310 17 700 160/04 RMK AO1 T01721078
54779K12N 12N20160420130509904/20/16 13:05:31  5-MIN K12N 201805Z AUTO 00000KT 18/M07 A3022 310 17 800 000/00 RMK AO1 T01831067
54779K12N 12N20160420131009904/20/16 13:10:31  5-MIN K12N 201810Z AUTO 21005KT 18/M07 A3022 310 17 800 220/05 RMK AO1 T01831072
54779K12N 12N20160420131509904/20/16 13:15:31  5-MIN K12N 201815Z AUTO 20003KT 18/M08 A3021 310 16 800 220/03 RMK AO1 T01831078
54779K12N 12N20160420132009904/20/16 13:20:31  5-MIN K12N 201820Z AUTO 00000KT 19/M07 A3022 310 16 900 000/00 RMK AO1 T01891072
54779K12N 12N20160420132509904/20/16 13:25:31  5-MIN K12N 201825Z AUTO 24006KT 19/M08 A3021 310 15 900 260/06 RMK AO1 T01891078
54779K12N 12N20160420133009904/20/16 13:30:31  5-MIN K12N 201830Z AUTO 21006KT 18/M08 A3021 310 15 800 230/06 RMK AO1 T01831083
54779K12N 12N20160420133509904/20/16 13:35:31  5-MIN K12N 201835Z AUTO 21004KT 18/M08 A3021 310 16 800 230/04 RMK AO1 T01831078
54779K12N 12N20160420134009904/20/16 13:40:31  5-MIN K12N 201840Z AUTO VRB03KT 18/M09 A3021 320 15 800 VRB/03 RMK AO1 T01831089
54779K12N 12N20160420134509904/20/16 13:45:31  5-MIN K12N 201845Z AUTO VRB03KT 19/M08 A3021 320 15 900 VRB/03 RMK AO1 T01891078
54779K12N 12N20160420135010604/20/16 13:50:31  5-MIN K12N 201850Z AUTO 00000KT 18/M08 A3021 320 15 800 000/00 RMK AO1 SLP229 T01831083
54779K12N 12N20160420135510004/20/16 13:55:31  5-MIN K12N 201855Z AUTO 00000KT 19/M08 A3021 320 15 1000 000/00 RMK AO1 T01941078
54779K12N 12N20160420140010004/20/16 14:00:31  5-MIN K12N 201900Z AUTO VRB06KT 19/M07 A3021 320 15 1000 VRB/06 RMK AO1 T01941072
54779K12N 12N20160420140509904/20/16 14:05:31  5-MIN K12N 201905Z AUTO VRB04KT 19/M08 A3021 320 15 900 VRB/04 RMK AO1 T01891083
54779K12N 12N20160420141009904/20/16 14:10:31  5-MIN K12N 201910Z AUTO 00000KT 19/M09 A3020 330 13 900 000/00 RMK AO1 T01891094
54779K12N 12N20160420141509904/20/16 14:15:31  5-MIN K12N 201915Z AUTO 00000KT 19/M09 A3020 330 13 900 000/00 RMK AO1 T01891094
54779K12N 12N20160420142010004/20/16 14:20:31  5-MIN K12N 201920Z AUTO 00000KT 19/M09 A3020 330 13 1000 000/00 RMK AO1 T01941094
54779K12N 12N20160420142510004/20/16 14:25:31  5-MIN K12N 201925Z AUTO 24004KT 19/M09 A3019 330 14 1000 260/04 RMK AO1 T01941089
54779K12N 12N20160420143010004/20/16 14:30:31  5-MIN K12N 201930Z AUTO 27004KT 19/M09 A3019 330 13 1000 280/04 RMK AO1 T01941094
54779K12N 12N20160420143510004/20/16 14:35:31  5-MIN K12N 201935Z AUTO 00000KT 19/M09 A3019 330 13 1000 000/00 RMK AO1 T01941094
54779K12N 12N20160420144009004/20/16 14:40:31  5-MIN K12N 201940Z AUTO 20/M08 A3019 330 14 1000 M /M RMK AO1 T02001083
54779K12N 12N20160420144510004/20/16 14:45:31  5-MIN K12N 201945Z AUTO VRB05KT 19/M09 A3019 340 13 1000 VRB/05 RMK AO1 T01941094
54779K12N 12N20160420145010704/20/16 14:50:31  5-MIN K12N 201950Z AUTO 23003KT 19/M10 A3019 340 12 1000 240/03 RMK AO1 SLP223 T01941100
54779K12N 12N20160420145510004/20/16 14:55:31  5-MIN K12N 201955Z AUTO 19006KT 20/M09 A3019 340 13 1000 210/06 RMK AO1 T02001089
54779K12N 12N20160420150010004/20/16 15:00:31  5-MIN K12N 202000Z AUTO VRB04KT 19/M09 A3018 340 13 1000 VRB/04 RMK AO1 T01941094
54779K12N 12N20160420150510004/20/16 15:05:31  5-MIN K12N 202005Z AUTO 24006KT 20/M08 A3018 340 14 1000 250/06 RMK AO1 T02001083
54779K12N 12N20160420151010004/20/16 15:10:31  5-MIN K12N 202010Z AUTO 00000KT 19/M09 A3018 350 13 1000 000/00 RMK AO1 T01941094
54779K12N 12N20160420151509004/20/16 15:15:31  5-MIN K12N 202015Z AUTO 20/M08 A3018 350 14 1100 M /M RMK AO1 T02001083
54779K12N 12N20160420152010004/20/16 15:20:31  5-MIN K12N 202020Z AUTO VRB04KT 20/M10 A3018 350 12 1100 VRB/04 RMK AO1 T02001100
54779K12N 12N20160420152510004/20/16 15:25:31  5-MIN K12N 202025Z AUTO VRB03KT 19/M11 A3018 350 12 1000 VRB/03 RMK AO1 T01941106
54779K12N 12N20160420153010004/20/16 15:30:31  5-MIN K12N 202030Z AUTO VRB05KT 20/M09 A3018 350 13 1100 VRB/05 RMK AO1 T02001089
54779K12N 12N20160420153510004/20/16 15:35:31  5-MIN K12N 202035Z AUTO 17003KT 20/M09 A3018 350 13 1100 180/03 RMK AO1 T02001089
54779K12N 12N20160420154010004/20/16 15:40:31  5-MIN K12N 202040Z AUTO 20003KT 20/M10 A3018 350 12 1100 220/03 RMK AO1 T02001100
54779K12N 12N20160420154510004/20/16 15:45:31  5-MIN K12N 202045Z AUTO 17004KT 20/M09 A3018 350 13 1100 180/04 RMK AO1 T02001094
54779K12N 12N20160420155011304/20/16 15:50:31  5-MIN K12N 202050Z AUTO 18005KT 20/M09 A3017 350 13 1100 190/05 RMK AO1 SLP218 T02001094 58018
54779K12N 12N20160420155510004/20/16 15:55:31  5-MIN K12N 202055Z AUTO VRB05KT 19/M11 A3017 350 12 1000 VRB/05 RMK AO1 T01941106
54779K12N 12N20160420160010004/20/16 16:00:31  5-MIN K12N 202100Z AUTO VRB03KT 20/M09 A3017 350 13 1100 VRB/03 RMK AO1 T02001094
54779K12N 12N20160420160510004/20/16 16:05:31  5-MIN K12N 202105Z AUTO VRB05KT 21/M09 A3017 360 12 1100 VRB/05 RMK AO1 T02061094
54779K12N 12N20160420161010004/20/16 16:10:31  5-MIN K12N 202110Z AUTO VRB03KT 20/M09 A3017 360 13 1100 VRB/03 RMK AO1 T02001089
54779K12N 12N20160420161510004/20/16 16:15:31  5-MIN K12N 202115Z AUTO 20006KT 20/M10 A3017 360 12 1100 220/06 RMK AO1 T02001100
54779K12N 12N20160420162010004/20/16 16:20:31  5-MIN K12N 202120Z AUTO VRB03KT 20/M11 A3017 360 12 1100 VRB/03 RMK AO1 T02001106
54779K12N 12N20160420162510004/20/16 16:25:31  5-MIN K12N 202125Z AUTO VRB05KT 20/M10 A3017 360 12 1100 VRB/05 RMK AO1 T02001100
54779K12N 12N20160420163010004/20/16 16:30:31  5-MIN K12N 202130Z AUTO 15007KT 20/M10 A3017 360 12 1100 170/07 RMK AO1 T02001100
54779K12N 12N20160420163510004/20/16 16:35:31  5-MIN K12N 202135Z AUTO 16004KT 20/M11 A3017 360 12 1100 180/04 RMK AO1 T02001106
54779K12N 12N20160420164010004/20/16 16:40:31  5-MIN K12N 202140Z AUTO 00000KT 20/M11 A3017 360 11 1100 000/00 RMK AO1 T02001111
54779K12N 12N20160420164510004/20/16 16:45:31  5-MIN K12N 202145Z AUTO 22003KT 21/M10 A3017 360 12 1100 230/03 RMK AO1 T02061100
54779K12N 12N20160420165010704/20/16 16:50:31  5-MIN K12N 202150Z AUTO 22006KT 21/M09 A3017 360 13 1100 230/06 RMK AO1 SLP216 T02061089
54779K12N 12N20160420165510004/20/16 16:55:31  5-MIN K12N 202155Z AUTO 21006KT 21/M08 A3017 360 13 1100 220/06 RMK AO1 T02061083
54779K12N 12N20160420170010004/20/16 17:00:31  5-MIN K12N 202200Z AUTO VRB04KT 20/M08 A3017 360 14 1100 VRB/04 RMK AO1 T02001083
54779K12N 12N20160420170510004/20/16 17:05:31  5-MIN K12N 202205Z AUTO VRB05KT 20/M08 A3017 360 14 1100 VRB/05 RMK AO1 T02001083
54779K12N 12N20160420171010004/20/16 17:10:31  5-MIN K12N 202210Z AUTO VRB05KT 20/M10 A3017 360 12 1100 VRB/05 RMK AO1 T02001100
54779K12N 12N20160420171510004/20/16 17:15:31  5-MIN K12N 202215Z AUTO 18004KT 20/M09 A3017 360 13 1100 200/04 RMK AO1 T02001094
54779K12N 12N20160420172010004/20/16 17:20:31  5-MIN K12N 202220Z AUTO VRB03KT 20/M10 A3017 360 12 1100 VRB/03 RMK AO1 T02001100
54779K12N 12N20160420172510004/20/16 17:25:31  5-MIN K12N 202225Z AUTO VRB03KT 20/M10 A3016 360 12 1100 VRB/03 RMK AO1 T02001100
54779K12N 12N20160420173010004/20/16 17:30:31  5-MIN K12N 202230Z AUTO 21003KT 19/M09 A3016 360 14 1000 220/03 RMK AO1 T01941089
54779K12N 12N20160420173510004/20/16 17:35:31  5-MIN K12N 202235Z AUTO VRB03KT 19/M09 A3017 360 13 1000 VRB/03 RMK AO1 T01941094
54779K12N 12N20160420174010004/20/16 17:40:31  5-MIN K12N 202240Z AUTO 23004KT 19/M07 A3017 360 15 1000 240/04 RMK AO1 T01941072
54779K12N 12N20160420174509904/20/16 17:45:31  5-MIN K12N 202245Z AUTO 22004KT 19/M09 A3017 360 14 900 240/04 RMK AO1 T01891089
54779K12N 12N20160420175010604/20/16 17:50:31  5-MIN K12N 202250Z AUTO 21004KT 19/M07 A3017 360 16 900 230/04 RMK AO1 SLP216 T01891072
54779K12N 12N20160420175509904/20/16 17:55:31  5-MIN K12N 202255Z AUTO 22005KT 18/M08 A3016 360 16 900 230/05 RMK AO1 T01831078
54779K12N 12N20160420180009904/20/16 18:00:31  5-MIN K12N 202300Z AUTO 21003KT 18/M08 A3016 360 15 900 220/03 RMK AO1 T01831083
54779K12N 12N20160420180509904/20/16 18:05:31  5-MIN K12N 202305Z AUTO 00000KT 18/M07 A3016 360 17 900 000/00 RMK AO1 T01831067
54779K12N 12N20160420181009904/20/16 18:10:31  5-MIN K12N 202310Z AUTO VRB03KT 18/M06 A3016 360 18 900 VRB/03 RMK AO1 T01831061
54779K12N 12N20160420181509904/20/16 18:15:31  5-MIN K12N 202315Z AUTO 00000KT 18/M04 A3016 360 22 800 000/00 RMK AO1 T01781039
54779K12N 12N20160420182009904/20/16 18:20:31  5-MIN K12N 202320Z AUTO 00000KT 17/M02 A3016 360 26 700 000/00 RMK AO1 T01721022
54779K12N 12N20160420182509904/20/16 18:25:31  5-MIN K12N 202325Z AUTO 00000KT 17/M01 A3016 360 28 700 000/00 RMK AO1 T01721011
54779K12N 12N20160420183009904/20/16 18:30:31  5-MIN K12N 202330Z AUTO 00000KT 17/M02 A3016 360 27 700 000/00 RMK AO1 T01721017
54779K12N 12N20160420183509904/20/16 18:35:31  5-MIN K12N 202335Z AUTO 00000KT 17/M03 A3016 360 24 700 000/00 RMK AO1 T01721033
54779K12N 12N20160420184009804/20/16 18:40:31  5-MIN K12N 202340Z AUTO 00000KT 16/01 A3016 360 36 600 000/00 RMK AO1 T01560006
54779K12N 12N20160420184509904/20/16 18:45:31  5-MIN K12N 202345Z AUTO 00000KT 15/M03 A3016 360 28 500 000/00 RMK AO1 T01501033
54779K12N 12N20160420185012404/20/16 18:50:31  5-MIN K12N 202350Z AUTO 00000KT 15/M03 A3016 360 28 500 000/00 RMK AO1 SLP214 T01501033 10206 20150 58015
54779K12N 12N20160420185509904/20/16 18:55:31  5-MIN K12N 202355Z AUTO 00000KT 14/M02 A3016 360 31 400 000/00 RMK AO1 T01441022
54779K12N 12N20160420190009804/20/16 19:00:31  5-MIN K12N 210000Z AUTO 00000KT 14/01 A3017 360 38 400 000/00 RMK AO1 T01440006
54779K12N 12N20160420190509804/20/16 19:05:31  5-MIN K12N 210005Z AUTO 00000KT 14/04 A3017 360 52 300 000/00 RMK AO1 T01390044
54779K12N 12N20160420191009804/20/16 19:10:31  5-MIN K12N 210010Z AUTO 00000KT 13/04 A3017 350 54 300 000/00 RMK AO1 T01330044
54779K12N 12N20160420191509804/20/16 19:15:31  5-MIN K12N 210015Z AUTO 00000KT 13/01 A3017 350 44 200 000/00 RMK AO1 T01280011
54779K12N 12N20160420192009904/20/16 19:20:31  5-MIN K12N 210020Z AUTO 00000KT 13/M01 A3017 350 38 200 000/00 RMK AO1 T01281011
54779K12N 12N20160420192509804/20/16 19:25:31  5-MIN K12N 210025Z AUTO 00000KT 12/01 A3018 350 44 100 000/00 RMK AO1 T01220006
54779K12N 12N20160420193009804/20/16 19:30:31  5-MIN K12N 210030Z AUTO 00000KT 12/02 A3018 350 50 100 000/00 RMK AO1 T01220022
54779K12N 12N20160420193509804/20/16 19:35:31  5-MIN K12N 210035Z AUTO 03003KT 12/02 A3018 340 50 100 050/03 RMK AO1 T01220022
54779K12N 12N20160420194009804/20/16 19:40:31  5-MIN K12N 210040Z AUTO 04003KT 12/03 A3018 340 52 100 050/03 RMK AO1 T01220028
54779K12N 12N20160420194509804/20/16 19:45:31  5-MIN K12N 210045Z AUTO 00000KT 12/02 A3018 340 48 100 000/00 RMK AO1 T01220017
54779K12N 12N20160420195010504/20/16 19:50:31  5-MIN K12N 210050Z AUTO 00000KT 12/02 A3019 340 50 100 000/00 RMK AO1 SLP223 T01170017
54779K12N 12N20160420195509804/20/16 19:55:31  5-MIN K12N 210055Z AUTO 00000KT 12/01 A3019 340 48 100 000/00 RMK AO1 T01170011
54779K12N 12N20160420200009804/20/16 20:00:31  5-MIN K12N 210100Z AUTO 00000KT 12/01 A3019 340 48 100 000/00 RMK AO1 T01170011
54779K12N 12N20160420200509604/20/16 20:05:31  5-MIN K12N 210105Z AUTO 00000KT 11/01 A3019 340 48 0 000/00 RMK AO1 T01110006
54779K12N 12N20160420201009604/20/16 20:10:31  5-MIN K12N 210110Z AUTO 00000KT 11/01 A3019 340 52 0 000/00 RMK AO1 T01060011
54779K12N 12N20160420201509604/20/16 20:15:31  5-MIN K12N 210115Z AUTO 05003KT 11/02 A3019 340 54 0 060/03 RMK AO1 T01060017
54779K12N 12N20160420202009604/20/16 20:20:31  5-MIN K12N 210120Z AUTO 00000KT 11/01 A3019 340 50 0 000/00 RMK AO1 T01060006
54779K12N 12N20160420202509604/20/16 20:25:31  5-MIN K12N 210125Z AUTO 03003KT 11/01 A3019 340 50 0 040/03 RMK AO1 T01060006
54779K12N 12N20160420203009604/20/16 20:30:31  5-MIN K12N 210130Z AUTO 00000KT 11/01 A3019 340 50 0 000/00 RMK AO1 T01060006
54779K12N 12N20160420203509904/20/16 20:35:31  5-MIN K12N 210135Z AUTO 00000KT 12/M01 A3019 330 39 100 000/00 RMK AO1 T01221011
54779K12N 12N20160420204009904/20/16 20:40:31  5-MIN K12N 210140Z AUTO VRB03KT 13/M03 A3019 340 32 300 VRB/03 RMK AO1 T01331028
54779K12N 12N20160420204509904/20/16 20:45:31  5-MIN K12N 210145Z AUTO VRB03KT 13/M03 A3019 330 32 300 VRB/03 RMK AO1 T01331028
54779K12N 12N20160420205010604/20/16 20:50:31  5-MIN K12N 210150Z AUTO VRB03KT 13/M03 A3019 330 31 300 VRB/03 RMK AO1 SLP225 T01331033
54779K12N 12N20160420205509904/20/16 20:55:31  5-MIN K12N 210155Z AUTO VRB05KT 13/M03 A3019 330 32 300 VRB/05 RMK AO1 T01331028
54779K12N 12N20160420210009904/20/16 21:00:31  5-MIN K12N 210200Z AUTO VRB04KT 13/M03 A3019 330 32 300 VRB/04 RMK AO1 T01331028
54779K12N 12N20160420210509904/20/16 21:05:31  5-MIN K12N 210205Z AUTO VRB04KT 13/M02 A3020 330 34 300 VRB/04 RMK AO1 T01331022
54779K12N 12N20160420211009904/20/16 21:10:31  5-MIN K12N 210210Z AUTO VRB03KT 13/M02 A3020 330 34 300 VRB/03 RMK AO1 T01331022
54779K12N 12N20160420211509904/20/16 21:15:31  5-MIN K12N 210215Z AUTO VRB05KT 13/M02 A3020 330 34 300 VRB/05 RMK AO1 T01331022
54779K12N 12N20160420212009904/20/16 21:20:31  5-MIN K12N 210220Z AUTO VRB04KT 13/M02 A3019 330 35 300 VRB/04 RMK AO1 T01331017
54779K12N 12N20160420212509904/20/16 21:25:31  5-MIN K12N 210225Z AUTO VRB04KT 13/M02 A3019 330 35 300 VRB/04 RMK AO1 T01331017
54779K12N 12N20160420213009904/20/16 21:30:31  5-MIN K12N 210230Z AUTO VRB03KT 13/M02 A3019 330 36 200 VRB/03 RMK AO1 T01281017
54779K12N 12N20160420213509904/20/16 21:35:31  5-MIN K12N 210235Z AUTO VRB03KT 13/M02 A3019 330 36 200 VRB/03 RMK AO1 T01281017
54779K12N 12N20160420214009904/20/16 21:40:31  5-MIN K12N 210240Z AUTO VRB04KT 13/M01 A3019 330 38 200 VRB/04 RMK AO1 T01281011
54779K12N 12N20160420214509904/20/16 21:45:31  5-MIN K12N 210245Z AUTO 00000KT 12/M01 A3019 330 39 100 000/00 RMK AO1 T01221011
54779K12N 12N20160420215011204/20/16 21:50:31  5-MIN K12N 210250Z AUTO 00000KT 12/M01 A3019 330 39 100 000/00 RMK AO1 SLP225 T01221011 56003
54779K12N 12N20160420215509904/20/16 21:55:31  5-MIN K12N 210255Z AUTO 18004KT 13/M01 A3019 330 38 200 190/04 RMK AO1 T01281011
54779K12N 12N20160420220009904/20/16 22:00:31  5-MIN K12N 210300Z AUTO 19003KT 12/M01 A3019 340 39 100 200/03 RMK AO1 T01221011
54779K12N 12N20160420220509904/20/16 22:05:31  5-MIN K12N 210305Z AUTO VRB03KT 12/M01 A3019 340 39 100 VRB/03 RMK AO1 T01221011
54779K12N 12N20160420221009904/20/16 22:10:31  5-MIN K12N 210310Z AUTO 21003KT 12/M01 A3019 330 41 100 230/03 RMK AO1 T01171011
54779K12N 12N20160420221509904/20/16 22:15:31  5-MIN K12N 210315Z AUTO 21003KT 12/M01 A3019 330 42 100 220/03 RMK AO1 T01171006
54779K12N 12N20160420222009604/20/16 22:20:31  5-MIN K12N 210320Z AUTO 00000KT 11/01 A3019 330 50 0 000/00 RMK AO1 T01110011
54779K12N 12N20160420222509604/20/16 22:25:31  5-MIN K12N 210325Z AUTO 20003KT 11/00 A3019 330 46 0 210/03 RMK AO1 T01110000
54779K12N 12N20160420223009604/20/16 22:30:31  5-MIN K12N 210330Z AUTO 20003KT 11/01 A3019 340 48 0 210/03 RMK AO1 T01110006
54779K12N 12N20160420223509604/20/16 22:35:31  5-MIN K12N 210335Z AUTO 19003KT 11/01 A3019 330 50 0 200/03 RMK AO1 T01110011
54779K12N 12N20160420224009604/20/16 22:40:31  5-MIN K12N 210340Z AUTO 21003KT 11/00 A3019 340 46 0 220/03 RMK AO1 T01110000
54779K12N 12N20160420224509604/20/16 22:45:31  5-MIN K12N 210345Z AUTO 20003KT 11/01 A3019 340 50 0 210/03 RMK AO1 T01060006
54779K12N 12N20160420225010304/20/16 22:50:31  5-MIN K12N 210350Z AUTO 19003KT 11/01 A3019 340 50 0 200/03 RMK AO1 SLP224 T01060006
54779K12N 12N20160420225509604/20/16 22:55:31  5-MIN K12N 210355Z AUTO 00000KT 11/01 A3019 340 50 0 000/00 RMK AO1 T01060006
54779K12N 12N20160420230009904/20/16 23:00:31  5-MIN K12N 210400Z AUTO 00000KT 10/01 A3019 340 52 -100 000/00 RMK AO1 T01000006
54779K12N 12N20160420230509904/20/16 23:05:31  5-MIN K12N 210405Z AUTO 00000KT 10/01 A3019 340 52 -100 000/00 RMK AO1 T01000006
54779K12N 12N20160420231009904/20/16 23:10:31  5-MIN K12N 210410Z AUTO 00000KT 10/02 A3019 340 56 -100 000/00 RMK AO1 T01000017
54779K12N 12N20160420231509904/20/16 23:15:31  5-MIN K12N 210415Z AUTO 00000KT 09/01 A3019 340 56 -200 000/00 RMK AO1 T00940011
54779K12N 12N20160420232009904/20/16 23:20:31  5-MIN K12N 210420Z AUTO 00000KT 09/02 A3019 340 60 -200 000/00 RMK AO1 T00890017
54779K12N 12N20160420232509904/20/16 23:25:31  5-MIN K12N 210425Z AUTO 00000KT 09/02 A3019 330 58 -200 000/00 RMK AO1 T00940017
54779K12N 12N20160420233009904/20/16 23:30:31  5-MIN K12N 210430Z AUTO 00000KT 09/02 A3019 330 63 -200 000/00 RMK AO1 T00890022
54779K12N 12N20160420233509904/20/16 23:35:31  5-MIN K12N 210435Z AUTO 00000KT 08/01 A3019 330 60 -300 000/00 RMK AO1 T00830011
54779K12N 12N20160420234009904/20/16 23:40:31  5-MIN K12N 210440Z AUTO 00000KT 08/02 A3019 330 63 -300 000/00 RMK AO1 T00830017
54779K12N 12N20160420234509904/20/16 23:45:31  5-MIN K12N 210445Z AUTO 00000KT 09/03 A3020 330 68 -200 000/00 RMK AO1 T00890033
54779K12N 12N20160420235011604/20/16 23:50:31  5-MIN K12N 210450Z AUTO 00000KT 08/03 A3019 330 68 -300 000/00 RMK AO1 SLP225 T00830028 402060039
54779K12N 12N20160420235509904/20/16 23:55:31  5-MIN K12N 210455Z AUTO 00000KT 08/02 A3019 330 63 -300 000/00 RMK AO1 T00830017
54779K12N 12N20160421000009904/21/16 00:00:31  5-MIN K12N 210500Z AUTO 00000KT 08/02 A3019 330 65 -300 000/00 RMK AO1 T00830022
54779K12N 12N20160421000509904/21/16 00:05:31  5-MIN K12N 210505Z AUTO 00000KT 08/02 A3019 330 63 -300 000/00 RMK AO1 T00830017
54779K12N 12N20160421001009904/21/16 00:10:31  5-MIN K12N 210510Z AUTO 00000KT 08/02 A3019 330 65 -300 000/00 RMK AO1 T00830022
54779K12N 12N20160421001509904/21/16 00:15:31  5-MIN K12N 210515Z AUTO 00000KT 08/02 A3019 340 65 -300 000/00 RMK AO1 T00830022
54779K12N 12N20160421002009904/21/16 00:20:31  5-MIN K12N 210520Z AUTO 00000KT 08/02 A3019 340 68 -400 000/00 RMK AO1 T00780022
54779K12N 12N20160421002509904/21/16 00:25:31  5-MIN K12N 210525Z AUTO 00000KT 08/03 A3019 340 70 -400 000/00 RMK AO1 T00780028
54779K12N 12N20160421003009904/21/16 00:30:31  5-MIN K12N 210530Z AUTO 00000KT 07/02 A3019 340 70 -400 000/00 RMK AO1 T00720022
54779K12N 12N20160421003509904/21/16 00:35:31  5-MIN K12N 210535Z AUTO 00000KT 08/02 A3019 340 65 -300 000/00 RMK AO1 T00830022
54779K12N 12N20160421004009904/21/16 00:40:31  5-MIN K12N 210540Z AUTO 00000KT 08/02 A3019 340 68 -400 000/00 RMK AO1 T00780022
54779K12N 12N20160421004509904/21/16 00:45:31  5-MIN K12N 210545Z AUTO 00000KT 07/02 A3019 340 70 -400 000/00 RMK AO1 T00720022
54779K12N 12N20160421005012404/21/16 00:50:31  5-MIN K12N 210550Z AUTO 21003KT 08/03 A3019 340 70 -400 230/03 RMK AO1 SLP222 T00780028 10144 20072 51009
54779K12N 12N20160421005509904/21/16 00:55:31  5-MIN K12N 210555Z AUTO 22003KT 08/03 A3019 340 73 -400 230/03 RMK AO1 T00780033
54779K12N 12N20160421010009904/21/16 01:00:31  5-MIN K12N 210600Z AUTO 22003KT 08/03 A3018 340 73 -400 230/03 RMK AO1 T00780033
54779K12N 12N20160421010509904/21/16 01:05:31  5-MIN K12N 210605Z AUTO 22003KT 07/03 A3018 340 73 -400 240/03 RMK AO1 T00720028
54779K12N 12N20160421011009904/21/16 01:10:31  5-MIN K12N 210610Z AUTO 00000KT 08/03 A3018 350 70 -400 000/00 RMK AO1 T00780028
54779K12N 12N20160421011509904/21/16 01:15:31  5-MIN K12N 210615Z AUTO 22003KT 07/02 A3018 350 70 -400 230/03 RMK AO1 T00720022
54779K12N 12N20160421012009904/21/16 01:20:31  5-MIN K12N 210620Z AUTO 21003KT 07/02 A3018 340 73 -500 230/03 RMK AO1 T00670022
54779K12N 12N20160421012509904/21/16 01:25:31  5-MIN K12N 210625Z AUTO 00000KT 07/02 A3018 350 70 -400 000/00 RMK AO1 T00720022
54779K12N 12N20160421013009904/21/16 01:30:31  5-MIN K12N 210630Z AUTO 22003KT 07/02 A3018 350 68 -400 230/03 RMK AO1 T00720017
54779K12N 12N20160421013509904/21/16 01:35:31  5-MIN K12N 210635Z AUTO 21004KT 07/02 A3018 350 73 -500 230/04 RMK AO1 T00670022
54779K12N 12N20160421014009904/21/16 01:40:31  5-MIN K12N 210640Z AUTO 21003KT 07/02 A3018 350 70 -400 230/03 RMK AO1 T00720022
54779K12N 12N20160421014509904/21/16 01:45:31  5-MIN K12N 210645Z AUTO 00000KT 07/02 A3018 350 73 -500 000/00 RMK AO1 T00670022
54779K12N 12N20160421015010604/21/16 01:50:31  5-MIN K12N 210650Z AUTO 21003KT 07/02 A3018 350 73 -500 220/03 RMK AO1 SLP219 T00670022
54779K12N 12N20160421015509904/21/16 01:55:31  5-MIN K12N 210655Z AUTO 21003KT 06/02 A3018 350 73 -600 220/03 RMK AO1 T00610017
54779K12N 12N20160421020009904/21/16 02:00:31  5-MIN K12N 210700Z AUTO 20003KT 06/02 A3017 350 73 -500 220/03 RMK AO1 T00610017
54779K12N 12N20160421020509904/21/16 02:05:31  5-MIN K12N 210705Z AUTO 20003KT 07/02 A3017 350 70 -500 210/03 RMK AO1 T00670017
54779K12N 12N20160421021009904/21/16 02:10:31  5-MIN K12N 210710Z AUTO 22003KT 06/02 A3017 360 73 -500 230/03 RMK AO1 T00610017
54779K12N 12N20160421021509904/21/16 02:15:31  5-MIN K12N 210715Z AUTO 21004KT 05/02 A3017 350 82 -700 230/04 RMK AO1 T00500022
54779K12N 12N20160421022009904/21/16 02:20:31  5-MIN K12N 210720Z AUTO 20003KT 06/02 A3017 350 76 -500 210/03 RMK AO1 T00610022
54779K12N 12N20160421022509904/21/16 02:25:31  5-MIN K12N 210725Z AUTO 20003KT 06/02 A3017 350 76 -500 210/03 RMK AO1 T00610022
54779K12N 12N20160421023009904/21/16 02:30:31  5-MIN K12N 210730Z AUTO 00000KT 05/02 A3017 350 79 -700 000/00 RMK AO1 T00500017
54779K12N 12N20160421023509904/21/16 02:35:31  5-MIN K12N 210735Z AUTO 00000KT 05/02 A3018 350 82 -700 000/00 RMK AO1 T00500022
54779K12N 12N20160421024009904/21/16 02:40:31  5-MIN K12N 210740Z AUTO 00000KT 06/02 A3017 350 79 -600 000/00 RMK AO1 T00560022
54779K12N 12N20160421024509904/21/16 02:45:31  5-MIN K12N 210745Z AUTO 00000KT 05/02 A3017 350 79 -700 000/00 RMK AO1 T00500017
54779K12N 12N20160421025010604/21/16 02:50:31  5-MIN K12N 210750Z AUTO 00000KT 04/02 A3017 350 82 -800 000/00 RMK AO1 SLP218 T00440017
54779K12N 12N20160421025509904/21/16 02:55:31  5-MIN K12N 210755Z AUTO 00000KT 04/02 A3017 350 82 -800 000/00 RMK AO1 T00440017
54779K12N 12N20160421030009904/21/16 03:00:31  5-MIN K12N 210800Z AUTO 00000KT 05/02 A3017 350 79 -700 000/00 RMK AO1 T00500017
54779K12N 12N20160421030509904/21/16 03:05:31  5-MIN K12N 210805Z AUTO 21003KT 04/02 A3017 350 82 -700 220/03 RMK AO1 T00440017
54779K12N 12N20160421031009904/21/16 03:10:31  5-MIN K12N 210810Z AUTO 20003KT 04/02 A3017 350 85 -800 210/03 RMK AO1 T00390017
54779K12N 12N20160421031509904/21/16 03:15:31  5-MIN K12N 210815Z AUTO 00000KT 05/02 A3017 360 82 -700 000/00 RMK AO1 T00500022
54779K12N 12N20160421032009904/21/16 03:20:31  5-MIN K12N 210820Z AUTO 00000KT 05/03 A3017 360 85 -700 000/00 RMK AO1 T00500028
54779K12N 12N20160421032509904/21/16 03:25:31  5-MIN K12N 210825Z AUTO 00000KT 05/02 A3017 350 82 -700 000/00 RMK AO1 T00500022
54779K12N 12N20160421033009904/21/16 03:30:31  5-MIN K12N 210830Z AUTO 00000KT 04/02 A3017 350 82 -700 000/00 RMK AO1 T00440017
54779K12N 12N20160421033509904/21/16 03:35:31  5-MIN K12N 210835Z AUTO 00000KT 04/02 A3017 360 82 -700 000/00 RMK AO1 T00440017
54779K12N 12N20160421034009904/21/16 03:40:31  5-MIN K12N 210840Z AUTO 00000KT 04/02 A3017 360 82 -700 000/00 RMK AO1 T00440017
54779K12N 12N20160421034509904/21/16 03:45:31  5-MIN K12N 210845Z AUTO 00000KT 04/02 A3017 360 82 -700 000/00 RMK AO1 T00440017
54779K12N 12N20160421035011204/21/16 03:50:31  5-MIN K12N 210850Z AUTO 00000KT 04/02 A3017 360 85 -700 000/00 RMK AO1 SLP216 T00440022 58002
54779K12N 12N20160421035509904/21/16 03:55:31  5-MIN K12N 210855Z AUTO 21003KT 04/02 A3017 360 89 -800 220/03 RMK AO1 T00390022
54779K12N 12N20160421040009904/21/16 04:00:31  5-MIN K12N 210900Z AUTO 00000KT 04/02 A3016 360 85 -700 000/00 RMK AO1 T00440022
54779K12N 12N20160421040509904/21/16 04:05:31  5-MIN K12N 210905Z AUTO 00000KT 04/02 A3016 360 85 -700 000/00 RMK AO1 T00440022
54779K12N 12N20160421041009904/21/16 04:10:31  5-MIN K12N 210910Z AUTO 00000KT 04/02 A3016 360 85 -800 000/00 RMK AO1 T00390017
54779K12N 12N20160421041509904/21/16 04:15:31  5-MIN K12N 210915Z AUTO 00000KT 03/02 A3016 360 89 -900 000/00 RMK AO1 T00330017
54779K12N 12N20160421042009904/21/16 04:20:31  5-MIN K12N 210920Z AUTO 00000KT 03/02 A3016 360 89 -900 000/00 RMK AO1 T00330017
54779K12N 12N20160421042509904/21/16 04:25:31  5-MIN K12N 210925Z AUTO 00000KT 04/02 A3016 360 85 -800 000/00 RMK AO1 T00390017
54779K12N 12N20160421043009904/21/16 04:30:31  5-MIN K12N 210930Z AUTO 00000KT 04/02 A3016 360 85 -800 000/00 RMK AO1 T00390017
54779K12N 12N20160421043509904/21/16 04:35:31  5-MIN K12N 210935Z AUTO 00000KT 04/02 A3016 360 89 -800 000/00 RMK AO1 T00390022
54779K12N 12N20160421044009904/21/16 04:40:31  5-MIN K12N 210940Z AUTO 00000KT 03/02 A3016 360 89 -900 000/00 RMK AO1 T00330017
54779K12N 12N20160421044509904/21/16 04:45:31  5-MIN K12N 210945Z AUTO 00000KT 04/02 A3016 360 85 -800 000/00 RMK AO1 T00390017
54779K12N 12N20160421045010604/21/16 04:50:31  5-MIN K12N 210950Z AUTO 00000KT 04/02 A3016 360 89 -800 000/00 RMK AO1 SLP214 T00390022
54779K12N 12N20160421045509904/21/16 04:55:31  5-MIN K12N 210955Z AUTO 21003KT 04/02 A3016 360 89 -800 230/03 RMK AO1 T00390022
54779K12N 12N20160421050009904/21/16 05:00:31  5-MIN K12N 211000Z AUTO 00000KT 03/02 A3016 360 89 -900 000/00 RMK AO1 T00330017
54779K12N 12N20160421050509904/21/16 05:05:31  5-MIN K12N 211005Z AUTO 00000KT 03/02 A3016 360 89 -900 000/00 RMK AO1 T00330017
54779K12N 12N20160421051009904/21/16 05:10:31  5-MIN K12N 211010Z AUTO 00000KT 04/02 A3016 360 85 -800 000/00 RMK AO1 T00390017
54779K12N 12N20160421051509904/21/16 05:15:31  5-MIN K12N 211015Z AUTO 00000KT 04/02 A3016 360 85 -800 000/00 RMK AO1 T00390017
54779K12N 12N20160421052009904/21/16 05:20:31  5-MIN K12N 211020Z AUTO 00000KT 03/02 A3017 360 89 -900 000/00 RMK AO1 T00330017
54779K12N 12N20160421052510004/21/16 05:25:31  5-MIN K12N 211025Z AUTO 00000KT 03/02 A3017 360 92 -1000 000/00 RMK AO1 T00280017
54779K12N 12N20160421053010004/21/16 05:30:31  5-MIN K12N 211030Z AUTO 00000KT 03/01 A3017 350 89 -1000 000/00 RMK AO1 T00280011
54779K12N 12N20160421053510004/21/16 05:35:31  5-MIN K12N 211035Z AUTO 00000KT 03/01 A3017 350 89 -1000 000/00 RMK AO1 T00280011
54779K12N 12N20160421054010004/21/16 05:40:31  5-MIN K12N 211040Z AUTO 00000KT 03/01 A3017 350 89 -1000 000/00 RMK AO1 T00280011
54779K12N 12N20160421054510004/21/16 05:45:31  5-MIN K12N 211045Z AUTO 00000KT 02/01 A3017 350 92 -1000 000/00 RMK AO1 T00220011
54779K12N 12N20160421055010704/21/16 05:50:31  5-MIN K12N 211050Z AUTO 00000KT 03/01 A3017 350 89 -1000 000/00 RMK AO1 SLP220 T00280011
54779K12N 12N20160421055509904/21/16 05:55:31  5-MIN K12N 211055Z AUTO 00000KT 03/01 A3018 350 85 -900 000/00 RMK AO1 T00330011
54779K12N 12N20160421060009904/21/16 06:00:31  5-MIN K12N 211100Z AUTO 00000KT 04/02 A3017 350 85 -800 000/00 RMK AO1 T00390017
54779K12N 12N20160421060509904/21/16 06:05:31  5-MIN K12N 211105Z AUTO 00000KT 04/02 A3017 350 85 -800 000/00 RMK AO1 T00390017
54779K12N 12N20160421061009904/21/16 06:10:31  5-MIN K12N 211110Z AUTO 00000KT 04/02 A3017 350 82 -800 000/00 RMK AO1 T00440017
54779K12N 12N20160421061509904/21/16 06:15:31  5-MIN K12N 211115Z AUTO 00000KT 05/02 A3017 350 82 -700 000/00 RMK AO1 T00500022
54779K12N 12N20160421062009904/21/16 06:20:31  5-MIN K12N 211120Z AUTO 00000KT 05/03 A3017 350 85 -700 000/00 RMK AO1 T00500028
54779K12N 12N20160421062509904/21/16 06:25:31  5-MIN K12N 211125Z AUTO 00000KT 06/03 A3017 350 85 -600 000/00 RMK AO1 T00560033
54779K12N 12N20160421063009904/21/16 06:30:31  5-MIN K12N 211130Z AUTO 00000KT 06/04 A3018 350 86 -500 000/00 RMK AO1 T00610039
54779K12N 12N20160421063509904/21/16 06:35:31  5-MIN K12N 211135Z AUTO 00000KT 07/04 A3018 350 82 -500 000/00 RMK AO1 T00670039
54779K12N 12N20160421064009904/21/16 06:40:31  5-MIN K12N 211140Z AUTO 00000KT 07/03 A3017 350 76 -400 000/00 RMK AO1 T00720033
54779K12N 12N20160421064509904/21/16 06:45:31  5-MIN K12N 211145Z AUTO 00000KT 07/03 A3017 350 73 -400 000/00 RMK AO1 T00720028
54779K12N 12N20160421065012404/21/16 06:50:31  5-MIN K12N 211150Z AUTO 00000KT 08/03 A3017 350 70 -300 000/00 RMK AO1 SLP219 T00780028 10078 20022 56007
54779K12N 12N20160421065509904/21/16 06:55:31  5-MIN K12N 211155Z AUTO 00000KT 08/03 A3017 350 70 -300 000/00 RMK AO1 T00780028
54779K12N 12N20160421070009904/21/16 07:00:31  5-MIN K12N 211200Z AUTO 00000KT 08/03 A3017 350 68 -300 000/00 RMK AO1 T00830028
54779K12N 12N20160421070509904/21/16 07:05:31  5-MIN K12N 211205Z AUTO 00000KT 09/03 A3017 350 68 -200 000/00 RMK AO1 T00890033
54779K12N 12N20160421071009904/21/16 07:10:31  5-MIN K12N 211210Z AUTO 00000KT 09/03 A3017 350 65 -100 000/00 RMK AO1 T00940033
54779K12N 12N20160421071509904/21/16 07:15:31  5-MIN K12N 211215Z AUTO 22004KT 10/03 A3017 350 60 -100 230/04 RMK AO1 T01000028
54779K12N 12N20160421072009904/21/16 07:20:31  5-MIN K12N 211220Z AUTO 22005KT 10/03 A3017 350 60 -100 230/05 RMK AO1 T01000028
54779K12N 12N20160421072509904/21/16 07:25:31  5-MIN K12N 211225Z AUTO 21005KT 10/03 A3017 350 60 -100 220/05 RMK AO1 T01000028
54779K12N 12N20160421073009604/21/16 07:30:31  5-MIN K12N 211230Z AUTO VRB03KT 11/03 A3017 350 58 0 VRB/03 RMK AO1 T01060028
54779K12N 12N20160421073509604/21/16 07:35:31  5-MIN K12N 211235Z AUTO 22004KT 11/03 A3017 360 58 0 240/04 RMK AO1 T01110033
54779K12N 12N20160421074009604/21/16 07:40:31  5-MIN K12N 211240Z AUTO 22006KT 11/03 A3017 360 58 0 230/06 RMK AO1 T01110033
54779K12N 12N20160421074509604/21/16 07:45:31  5-MIN K12N 211245Z AUTO 20004KT 11/03 A3017 360 58 0 210/04 RMK AO1 T01110033
54779K12N 12N20160421075010504/21/16 07:50:31  5-MIN K12N 211250Z AUTO 21005KT 12/04 A3016 360 58 100 230/05 RMK AO1 SLP216 T01170039
54779K12N 12N20160421075509804/21/16 07:55:31  5-MIN K12N 211255Z AUTO 21004KT 12/03 A3016 360 56 100 220/04 RMK AO1 T01170033
54779K12N 12N20160421080009804/21/16 08:00:31  5-MIN K12N 211300Z AUTO 22007KT 12/03 A3016 360 54 200 240/07 RMK AO1 T01220033
54779K12N 12N20160421080509804/21/16 08:05:31  5-MIN K12N 211305Z AUTO 22007KT 12/03 A3016 360 54 200 230/07 RMK AO1 T01220033
54779K12N 12N20160421081009804/21/16 08:10:31  5-MIN K12N 211310Z AUTO VRB05KT 12/03 A3016 360 52 200 VRB/05 RMK AO1 T01220028
54779K12N 12N20160421081509804/21/16 08:15:31  5-MIN K12N 211315Z AUTO 21005KT 12/03 A3016 360 52 200 220/05 RMK AO1 T01220028
54779K12N 12N20160421082009804/21/16 08:20:31  5-MIN K12N 211320Z AUTO VRB06KT 13/03 A3016 370 50 200 VRB/06 RMK AO1 T01280028
54779K12N 12N20160421082509804/21/16 08:25:31  5-MIN K12N 211325Z AUTO VRB06KT 14/03 A3016 370 47 400 VRB/06 RMK AO1 T01390028
54779K12N 12N20160421083009804/21/16 08:30:31  5-MIN K12N 211330Z AUTO 23008KT 14/02 A3016 370 45 400 240/08 RMK AO1 T01390022
54779K12N 12N20160421083509804/21/16 08:35:31  5-MIN K12N 211335Z AUTO 22009KT 14/02 A3016 370 43 400 230/09 RMK AO1 T01390017
54779K12N 12N20160421084009804/21/16 08:40:31  5-MIN K12N 211340Z AUTO VRB06KT 14/02 A3016 370 43 400 VRB/06 RMK AO1 T01390017
54779K12N 12N20160421084510404/21/16 08:45:31  5-MIN K12N 211345Z AUTO 23009G17KT 14/01 A3016 370 40 400 240/09G17 RMK AO1 T01390006
54779K12N 12N20160421085011104/21/16 08:50:31  5-MIN K12N 211350Z AUTO 22008G17KT 14/01 A3015 370 40 400 230/08G17 RMK AO1 SLP210 T01390006
54779K12N 12N20160421085509804/21/16 08:55:31  5-MIN K12N 211355Z AUTO VRB06KT 14/01 A3015 370 40 400 VRB/06 RMK AO1 T01390006
54779K12N 12N20160421090009804/21/16 09:00:31  5-MIN K12N 211400Z AUTO 22007KT 14/01 A3015 370 38 400 230/07 RMK AO1 T01440006
54779K12N 12N20160421090509804/21/16 09:05:31  5-MIN K12N 211405Z AUTO VRB05KT 14/01 A3015 370 38 400 VRB/05 RMK AO1 T01440006
54779K12N 12N20160421091009804/21/16 09:10:31  5-MIN K12N 211410Z AUTO 22009KT 14/00 A3015 370 37 400 230/09 RMK AO1 T01440000
54779K12N 12N20160421091509804/21/16 09:15:31  5-MIN K12N 211415Z AUTO 20009KT 15/00 A3015 380 35 500 210/09 RMK AO1 T01500000
54779K12N 12N20160421092011404/21/16 09:20:31  5-MIN K12N 211420Z AUTO 21007KT 170V230 15/00 A3015 380 35 500 220/07 180V240 RMK AO1 T01500000
54779K12N 12N20160421092509904/21/16 09:25:31  5-MIN K12N 211425Z AUTO 21008KT 15/M01 A3014 380 34 500 220/08 RMK AO1 T01501006
54779K12N 12N20160421093009904/21/16 09:30:31  5-MIN K12N 211430Z AUTO 22009KT 15/M01 A3014 380 34 500 230/09 RMK AO1 T01501006
54779K12N 12N20160421093509804/21/16 09:35:31  5-MIN K12N 211435Z AUTO 21008KT 16/00 A3014 380 34 600 220/08 RMK AO1 T01560000
54779K12N 12N20160421094009904/21/16 09:40:31  5-MIN K12N 211440Z AUTO VRB05KT 16/M01 A3014 390 33 600 VRB/05 RMK AO1 T01561006
54779K12N 12N20160421094511404/21/16 09:45:31  5-MIN K12N 211445Z AUTO 22008KT 180V260 16/01 A3013 390 34 700 240/08 190V270 RMK AO1 T01610006
54779K12N 12N20160421095011104/21/16 09:50:31  5-MIN K12N 211450Z AUTO 20006KT 17/00 A3013 390 32 700 220/06 RMK AO1 SLP202 T01670000 53002
54779K12N 12N20160421095509804/21/16 09:55:31  5-MIN K12N 211455Z AUTO 23008KT 17/00 A3013 390 32 700 240/08 RMK AO1 T01670000
54779K12N 12N20160421100009804/21/16 10:00:31  5-MIN K12N 211500Z AUTO 23008KT 17/01 A3013 400 33 700 240/08 RMK AO1 T01670006
54779K12N 12N20160421100509804/21/16 10:05:31  5-MIN K12N 211505Z AUTO 20006KT 17/00 A3012 400 32 700 210/06 RMK AO1 T01670000
54779K12N 12N20160421101009804/21/16 10:10:31  5-MIN K12N 211510Z AUTO 20008KT 17/00 A3012 400 31 800 220/08 RMK AO1 T01720000
54779K12N 12N20160421101509804/21/16 10:15:31  5-MIN K12N 211515Z AUTO 23008KT 17/00 A3012 400 31 800 240/08 RMK AO1 T01720000
54779K12N 12N20160421102009804/21/16 10:20:31  5-MIN K12N 211520Z AUTO 23006KT 18/00 A3012 400 30 900 240/06 RMK AO1 T01780000
54779K12N 12N20160421102508904/21/16 10:25:31  5-MIN K12N 211525Z AUTO 18/M01 A3012 400 28 900 M /M RMK AO1 T01781006
54779K12N 12N20160421103010504/21/16 10:30:31  5-MIN K12N 211530Z AUTO VRB06G14KT 17/M01 A3011 410 28 800 VRB/06G14 RMK AO1 T01721011
54779K12N 12N20160421103512104/21/16 10:35:31  5-MIN K12N 211535Z AUTO 21009G16KT 190V260 18/M01 A3011 410 26 900 230/09G16 200V270 RMK AO1 T01831011
54779K12N 12N20160421104012104/21/16 10:40:31  5-MIN K12N 211540Z AUTO 20007G16KT 170V240 18/M02 A3011 410 25 900 210/07G16 180V250 RMK AO1 T01831017
54779K12N 12N20160421104510504/21/16 10:45:31  5-MIN K12N 211545Z AUTO 21012G18KT 18/M02 A3010 420 24 900 220/12G18 RMK AO1 T01831022
54779K12N 12N20160421105011304/21/16 10:50:31  5-MIN K12N 211550Z AUTO 22013G18KT 19/M02 A3010 420 23 1000 230/13G18 RMK AO1 SLP192 T01891022
54779K12N 12N20160421105512104/21/16 10:55:31  5-MIN K12N 211555Z AUTO 22012G20KT 160V260 18/M02 A3010 420 24 900 230/12G20 170V270 RMK AO1 T01831022
54779K12N 12N20160421110012204/21/16 11:00:31  5-MIN K12N 211600Z AUTO 20008G20KT 160V250 19/M02 A3010 420 24 1000 210/08G20 170V260 RMK AO1 T01891017
54779K12N 12N20160421110512204/21/16 11:05:31  5-MIN K12N 211605Z AUTO 23009G16KT 200V280 19/M02 A3009 430 24 1100 240/09G16 210V290 RMK AO1 T01941017
54779K12N 12N20160421111010004/21/16 11:10:31  5-MIN K12N 211610Z AUTO 23010KT 19/M02 A3009 430 24 1100 240/10 RMK AO1 T01941017
54779K12N 12N20160421111510004/21/16 11:15:31  5-MIN K12N 211615Z AUTO VRB05KT 19/M01 A3009 430 25 1100 VRB/05 RMK AO1 T01941011
54779K12N 12N20160421112012204/21/16 11:20:31  5-MIN K12N 211620Z AUTO 22009G14KT 190V250 19/M01 A3009 430 25 1100 240/09G14 200V260 RMK AO1 T01941011
54779K12N 12N20160421112510604/21/16 11:25:31  5-MIN K12N 211625Z AUTO VRB06G16KT 19/M01 A3008 440 25 1100 VRB/06G16 RMK AO1 T01941011
54779K12N 12N20160421113010604/21/16 11:30:31  5-MIN K12N 211630Z AUTO VRB06G16KT 20/M01 A3008 440 24 1200 VRB/06G16 RMK AO1 T02001011
54779K12N 12N20160421113510604/21/16 11:35:31  5-MIN K12N 211635Z AUTO 22008G15KT 19/M01 A3008 440 26 1100 230/08G15 RMK AO1 T01941006
54779K12N 12N20160421114010604/21/16 11:40:31  5-MIN K12N 211640Z AUTO 23014G18KT 20/M01 A3008 440 25 1200 250/14G18 RMK AO1 T02001006
54779K12N 12N20160421114510604/21/16 11:45:31  5-MIN K12N 211645Z AUTO 22010G18KT 20/M01 A3007 440 25 1200 230/10G18 RMK AO1 T02001006
54779K12N 12N20160421115012304/21/16 11:50:31  5-MIN K12N 211650Z AUTO 20007KT 150V230 20/M01 A3007 450 25 1200 210/07 160V240 RMK AO1 SLP183 T02001006
54779K12N 12N20160421115512204/21/16 11:55:31  5-MIN K12N 211655Z AUTO 18010G18KT 150V220 20/M02 A3007 450 23 1200 190/10G18 160V230 RMK AO1 T02001017
54779K12N 12N20160421120010604/21/16 12:00:31  5-MIN K12N 211700Z AUTO 22010G18KT 20/M01 A3007 450 24 1200 230/10G18 RMK AO1 T02001011
54779K12N 12N20160421120510504/21/16 12:05:31  5-MIN K12N 211705Z AUTO 22010G18KT 21/00 A3006 450 25 1200 230/10G18 RMK AO1 T02060000
54779K12N 12N20160421121010604/21/16 12:10:31  5-MIN K12N 211710Z AUTO 22012G20KT 21/M01 A3006 460 24 1300 240/12G20 RMK AO1 T02061006
54779K12N 12N20160421121512104/21/16 12:15:31  5-MIN K12N 211715Z AUTO 21009G20KT 170V230 21/00 A3006 460 25 1300 220/09G20 180V240 RMK AO1 T02060000
54779K12N 12N20160421122010504/21/16 12:20:31  5-MIN K12N 211720Z AUTO 22011G16KT 21/00 A3006 460 25 1300 240/11G16 RMK AO1 T02060000
54779K12N 12N20160421122510504/21/16 12:25:31  5-MIN K12N 211725Z AUTO 22009G17KT 21/00 A3006 460 24 1300 230/09G17 RMK AO1 T02110000
54779K12N 12N20160421123010504/21/16 12:30:31  5-MIN K12N 211730Z AUTO 22013G19KT 21/01 A3006 460 25 1300 230/13G19 RMK AO1 T02110006
54779K12N 12N20160421123512104/21/16 12:35:31  5-MIN K12N 211735Z AUTO 21007G19KT 160V230 21/00 A3005 460 25 1300 230/07G19 170V240 RMK AO1 T02060000
54779K12N 12N20160421124010504/21/16 12:40:31  5-MIN K12N 211740Z AUTO 21012G24KT 21/00 A3005 470 24 1300 230/12G24 RMK AO1 T02110000
54779K12N 12N20160421124510504/21/16 12:45:31  5-MIN K12N 211745Z AUTO 22011G24KT 21/00 A3005 470 25 1300 240/11G24 RMK AO1 T02060000
54779K12N 12N20160421125014604/21/16 12:50:31  5-MIN K12N 211750Z AUTO 23010G18KT 210V270 21/00 A3004 470 25 1300 240/10G18 220V280 RMK AO1 SLP173 T02060000 10211 20078 58015
54779K12N 12N20160421125510504/21/16 12:55:31  5-MIN K12N 211755Z AUTO 21012G20KT 21/01 A3004 470 26 1300 230/12G20 RMK AO1 T02110011
54779K12N 12N20160421130010504/21/16 13:00:31  5-MIN K12N 211800Z AUTO 22009G20KT 21/01 A3004 480 26 1300 230/09G20 RMK AO1 T02060006
54779K12N 12N20160421130512104/21/16 13:05:31  5-MIN K12N 211805Z AUTO 19009G17KT 150V230 21/02 A3003 480 27 1300 200/09G17 160V240 RMK AO1 T02110017
54779K12N 12N20160421131012104/21/16 13:10:31  5-MIN K12N 211810Z AUTO 23011G17KT 190V250 21/02 A3003 480 27 1300 240/11G17 200V260 RMK AO1 T02110017
54779K12N 12N20160421131510504/21/16 13:15:31  5-MIN K12N 211815Z AUTO 24007G17KT 21/01 A3003 490 26 1400 250/07G17 RMK AO1 T02110011
54779K12N 12N20160421132010504/21/16 13:20:31  5-MIN K12N 211820Z AUTO 22010G17KT 22/02 A3003 490 26 1400 230/10G17 RMK AO1 T02170017
54779K12N 12N20160421132510504/21/16 13:25:31  5-MIN K12N 211825Z AUTO 22009G16KT 22/01 A3003 490 25 1400 230/09G16 RMK AO1 T02170011
54779K12N 12N20160421133012104/21/16 13:30:31  5-MIN K12N 211830Z AUTO 20013G20KT 140V220 22/02 A3002 490 26 1400 210/13G20 150V230 RMK AO1 T02170017
54779K12N 12N20160421133510504/21/16 13:35:31  5-MIN K12N 211835Z AUTO 21007G20KT 22/02 A3002 490 26 1400 220/07G20 RMK AO1 T02170017
54779K12N 12N20160421134011504/21/16 13:40:31  5-MIN K12N 211840Z AUTO 22008KT 170V250 22/02 A3002 500 27 1400 230/08 180V260 RMK AO1 T02170022
54779K12N 12N20160421134510504/21/16 13:45:31  5-MIN K12N 211845Z AUTO 24010G16KT 22/03 A3001 500 27 1500 250/10G16 RMK AO1 T02220028
54779K12N 12N20160421135012804/21/16 13:50:31  5-MIN K12N 211850Z AUTO 22009G18KT 190V250 22/02 A3001 500 27 1400 240/09G18 200V260 RMK AO1 SLP162 T02170022
54779K12N 12N20160421135510504/21/16 13:55:31  5-MIN K12N 211855Z AUTO 23009G18KT 22/02 A3001 500 26 1500 240/09G18 RMK AO1 T02220022
54779K12N 12N20160421140010504/21/16 14:00:31  5-MIN K12N 211900Z AUTO VRB05G17KT 22/03 A3001 500 28 1400 VRB/05G17 RMK AO1 T02170028
54779K12N 12N20160421140510504/21/16 14:05:31  5-MIN K12N 211905Z AUTO 22014G18KT 22/03 A3001 500 29 1400 240/14G18 RMK AO1 T02170033
54779K12N 12N20160421141010504/21/16 14:10:31  5-MIN K12N 211910Z AUTO 22008G18KT 22/03 A3001 510 28 1400 230/08G18 RMK AO1 T02170028
54779K12N 12N20160421141510504/21/16 14:15:31  5-MIN K12N 211915Z AUTO 22010G16KT 21/03 A3001 510 30 1400 230/10G16 RMK AO1 T02110033
54779K12N 12N20160421142010504/21/16 14:20:31  5-MIN K12N 211920Z AUTO VRB06G16KT 21/03 A3000 510 29 1400 VRB/06G16 RMK AO1 T02110028
54779K12N 12N20160421142509904/21/16 14:25:31  5-MIN K12N 211925Z AUTO 23008KT 22/03 A3000 510 29 1400 240/08 RMK AO1 T02170033
54779K12N 12N20160421143009904/21/16 14:30:31  5-MIN K12N 211930Z AUTO 23009KT 21/03 A3000 510 30 1400 240/09 RMK AO1 T02110033
54779K12N 12N20160421143511504/21/16 14:35:31  5-MIN K12N 211935Z AUTO 22007KT 180V250 21/03 A2999 520 30 1400 230/07 190V260 RMK AO1 T02110033
54779K12N 12N20160421144009904/21/16 14:40:31  5-MIN K12N 211940Z AUTO 22008KT 21/03 A2999 520 30 1400 230/08 RMK AO1 T02110033
54779K12N 12N20160421144510504/21/16 14:45:31  5-MIN K12N 211945Z AUTO 22010G17KT 21/03 A2999 520 30 1400 230/10G17 RMK AO1 T02110033
54779K12N 12N20160421145012804/21/16 14:50:31  5-MIN K12N 211950Z AUTO 22009G17KT 190V250 21/03 A2999 530 30 1400 230/09G17 200V260 RMK AO1 SLP154 T02110033
54779K12N 12N20160421145509904/21/16 14:55:31  5-MIN K12N 211955Z AUTO 22008KT 21/04 A2998 530 32 1400 230/08 RMK AO1 T02110039
54779K12N 12N20160421150009904/21/16 15:00:31  5-MIN K12N 212000Z AUTO 21010KT 21/04 A2998 530 32 1400 220/10 RMK AO1 T02110039
54779K12N 12N20160421150511504/21/16 15:05:31  5-MIN K12N 212005Z AUTO 23008KT 190V250 21/04 A2998 530 33 1400 240/08 200V260 RMK AO1 T02110044
54779K12N 12N20160421151009904/21/16 15:10:31  5-MIN K12N 212010Z AUTO 21006KT 21/04 A2998 530 33 1400 220/06 RMK AO1 T02110044
54779K12N 12N20160421151509904/21/16 15:15:31  5-MIN K12N 212015Z AUTO 23008KT 21/04 A2997 540 33 1400 240/08 RMK AO1 T02110044
54779K12N 12N20160421152009904/21/16 15:20:31  5-MIN K12N 212020Z AUTO 21007KT 22/05 A2997 540 33 1500 230/07 RMK AO1 T02170050
54779K12N 12N20160421152511504/21/16 15:25:31  5-MIN K12N 212025Z AUTO 24009KT 180V270 22/06 A2997 540 33 1500 250/09 190V280 RMK AO1 T02220056
54779K12N 12N20160421153011504/21/16 15:30:31  5-MIN K12N 212030Z AUTO 21008KT 150V230 22/05 A2997 540 32 1500 220/08 160V240 RMK AO1 T02220050
54779K12N 12N20160421153509904/21/16 15:35:31  5-MIN K12N 212035Z AUTO 23009KT 22/06 A2997 540 33 1500 250/09 RMK AO1 T02220056
54779K12N 12N20160421154010504/21/16 15:40:31  5-MIN K12N 212040Z AUTO 24008G14KT 22/06 A2997 540 33 1500 260/08G14 RMK AO1 T02220056
54779K12N 12N20160421154510504/21/16 15:45:31  5-MIN K12N 212045Z AUTO VRB06G14KT 22/06 A2997 540 33 1500 VRB/06G14 RMK AO1 T02220056
54779K12N 12N20160421155011204/21/16 15:50:31  5-MIN K12N 212050Z AUTO VRB06KT 22/06 A2997 540 35 1500 VRB/06 RMK AO1 SLP146 T02220061 56028
54779K12N 12N20160421155512104/21/16 15:55:31  5-MIN K12N 212055Z AUTO 22007G14KT 180V260 23/06 A2996 550 33 1600 240/07G14 190V270 RMK AO1 T02280061
54779K12N 12N20160421160010504/21/16 16:00:31  5-MIN K12N 212100Z AUTO 23007G14KT 23/06 A2996 550 33 1600 240/07G14 RMK AO1 T02280061
54779K12N 12N20160421160512104/21/16 16:05:31  5-MIN K12N 212105Z AUTO 21011G17KT 180V250 22/07 A2996 540 36 1600 230/11G17 190V260 RMK AO1 T02220067
54779K12N 12N20160421161012104/21/16 16:10:31  5-MIN K12N 212110Z AUTO 23008G17KT 190V250 22/07 A2997 540 36 1500 240/08G17 200V260 RMK AO1 T02220067
54779K12N 12N20160421161510504/21/16 16:15:31  5-MIN K12N 212115Z AUTO 22009G15KT 22/06 A2996 540 35 1500 230/09G15 RMK AO1 T02220061
54779K12N 12N20160421162011504/21/16 16:20:31  5-MIN K12N 212120Z AUTO 22008KT 180V240 22/07 A2996 540 36 1600 230/08 190V250 RMK AO1 T02220067
54779K12N 12N20160421162509904/21/16 16:25:31  5-MIN K12N 212125Z AUTO 22008KT 22/07 A2996 550 37 1600 230/08 RMK AO1 T02220072
54779K12N 12N20160421163011504/21/16 16:30:31  5-MIN K12N 212130Z AUTO 21007KT 180V250 22/07 A2996 550 36 1600 220/07 190V260 RMK AO1 T02220067
54779K12N 12N20160421163509904/21/16 16:35:31  5-MIN K12N 212135Z AUTO 21008KT 22/07 A2996 550 37 1600 220/08 RMK AO1 T02220072
54779K12N 12N20160421164009904/21/16 16:40:31  5-MIN K12N 212140Z AUTO 21005KT 22/07 A2996 550 36 1600 220/05 RMK AO1 T02220067
54779K12N 12N20160421164509904/21/16 16:45:31  5-MIN K12N 212145Z AUTO VRB05KT 22/07 A2996 550 37 1600 VRB/05 RMK AO1 T02220072
54779K12N 12N20160421165010604/21/16 16:50:31  5-MIN K12N 212150Z AUTO 20008KT 22/07 A2996 550 39 1500 210/08 RMK AO1 SLP146 T02170072
54779K12N 12N20160421165509904/21/16 16:55:31  5-MIN K12N 212155Z AUTO 21009KT 22/07 A2996 550 39 1500 220/09 RMK AO1 T02170072
54779K12N 12N20160421170009904/21/16 17:00:31  5-MIN K12N 212200Z AUTO VRB06KT 22/07 A2996 550 39 1500 VRB/06 RMK AO1 T02170072
54779K12N 12N20160421170509904/21/16 17:05:31  5-MIN K12N 212205Z AUTO 21008KT 22/07 A2996 550 39 1500 230/08 RMK AO1 T02170072
54779K12N 12N20160421171009904/21/16 17:10:31  5-MIN K12N 212210Z AUTO 23007KT 21/07 A2996 540 40 1400 240/07 RMK AO1 T02110072
54779K12N 12N20160421171511504/21/16 17:15:31  5-MIN K12N 212215Z AUTO 22007KT 180V250 21/07 A2997 540 40 1400 230/07 190V260 RMK AO1 T02110072
54779K12N 12N20160421172009904/21/16 17:20:31  5-MIN K12N 212220Z AUTO 20005KT 21/07 A2997 540 40 1400 220/05 RMK AO1 T02110072
54779K12N 12N20160421172509904/21/16 17:25:31  5-MIN K12N 212225Z AUTO 22006KT 21/07 A2997 540 40 1400 230/06 RMK AO1 T02110072
54779K12N 12N20160421173009904/21/16 17:30:31  5-MIN K12N 212230Z AUTO 21004KT 21/07 A2997 540 40 1400 220/04 RMK AO1 T02110072
54779K12N 12N20160421173509904/21/16 17:35:31  5-MIN K12N 212235Z AUTO 22008KT 21/07 A2997 540 41 1400 230/08 RMK AO1 T02060072
54779K12N 12N20160421174009904/21/16 17:40:31  5-MIN K12N 212240Z AUTO 22008KT 21/07 A2997 540 41 1400 230/08 RMK AO1 T02060072
54779K12N 12N20160421174509904/21/16 17:45:31  5-MIN K12N 212245Z AUTO 22008KT 21/07 A2997 540 41 1300 240/08 RMK AO1 T02060072
54779K12N 12N20160421175010604/21/16 17:50:31  5-MIN K12N 212250Z AUTO 22006KT 21/07 A2997 540 41 1300 230/06 RMK AO1 SLP151 T02060072
54779K12N 12N20160421175509904/21/16 17:55:31  5-MIN K12N 212255Z AUTO 21007KT 21/07 A2997 540 41 1300 230/07 RMK AO1 T02060072
54779K12N 12N20160421180009904/21/16 18:00:31  5-MIN K12N 212300Z AUTO 22005KT 20/08 A2997 540 45 1300 230/05 RMK AO1 T02000078
54779K12N 12N20160421180509904/21/16 18:05:31  5-MIN K12N 212305Z AUTO 21005KT 20/08 A2997 540 45 1300 220/05 RMK AO1 T02000078
54779K12N 12N20160421181009904/21/16 18:10:31  5-MIN K12N 212310Z AUTO 21003KT 20/08 A2997 540 45 1300 220/03 RMK AO1 T02000078
54779K12N 12N20160421181509904/21/16 18:15:31  5-MIN K12N 212315Z AUTO 20003KT 20/08 A2997 540 45 1300 210/03 RMK AO1 T02000078
54779K12N 12N20160421182009904/21/16 18:20:31  5-MIN K12N 212320Z AUTO 21003KT 20/08 A2997 540 45 1300 220/03 RMK AO1 T02000078
54779K12N 12N20160421182509904/21/16 18:25:31  5-MIN K12N 212325Z AUTO 00000KT 19/08 A2997 530 46 1200 000/00 RMK AO1 T01940078
54779K12N 12N20160421183009904/21/16 18:30:31  5-MIN K12N 212330Z AUTO 20004KT 20/08 A2998 530 45 1300 210/04 RMK AO1 T02000078
54779K12N 12N20160421183509904/21/16 18:35:31  5-MIN K12N 212335Z AUTO 19003KT 19/08 A2998 530 46 1200 200/03 RMK AO1 T01940078
54779K12N 12N20160421184009904/21/16 18:40:31  5-MIN K12N 212340Z AUTO 19003KT 19/08 A2998 530 46 1200 210/03 RMK AO1 T01940078
54779K12N 12N20160421184509904/21/16 18:45:31  5-MIN K12N 212345Z AUTO 19003KT 19/08 A2998 530 46 1200 210/03 RMK AO1 T01940078
54779K12N 12N20160421185012404/21/16 18:50:31  5-MIN K12N 212350Z AUTO 00000KT 19/08 A2998 530 46 1200 000/00 RMK AO1 SLP151 T01940078 10228 20194 56027
54779K12N 12N20160421185509904/21/16 18:55:31  5-MIN K12N 212355Z AUTO 00000KT 19/08 A2998 530 46 1200 000/00 RMK AO1 T01940078
54779K12N 12N20160421190009904/21/16 19:00:31  5-MIN K12N 220000Z AUTO 00000KT 19/08 A2998 530 50 1200 000/00 RMK AO1 T01890083
54779K12N 12N20160421190509904/21/16 19:05:31  5-MIN K12N 220005Z AUTO 00000KT 19/08 A2998 530 48 1200 000/00 RMK AO1 T01890078
54779K12N 12N20160421191009904/21/16 19:10:31  5-MIN K12N 220010Z AUTO 20004KT 19/08 A2998 530 50 1200 220/04 RMK AO1 T01890083
54779K12N 12N20160421191509904/21/16 19:15:31  5-MIN K12N 220015Z AUTO 19003KT 19/08 A2998 530 48 1100 210/03 RMK AO1 T01890078
54779K12N 12N20160421192009904/21/16 19:20:31  5-MIN K12N 220020Z AUTO 20003KT 19/08 A2998 530 48 1100 220/03 RMK AO1 T01890078
54779K12N 12N20160421192509904/21/16 19:25:31  5-MIN K12N 220025Z AUTO VRB03KT 19/08 A2998 530 48 1100 VRB/03 RMK AO1 T01890078
54779K12N 12N20160421193009904/21/16 19:30:31  5-MIN K12N 220030Z AUTO 21004KT 19/08 A2998 530 50 1100 230/04 RMK AO1 T01890083
54779K12N 12N20160421193509904/21/16 19:35:31  5-MIN K12N 220035Z AUTO 21004KT 19/08 A2999 530 48 1100 220/04 RMK AO1 T01890078
54779K12N 12N20160421194009904/21/16 19:40:31  5-MIN K12N 220040Z AUTO 21004KT 19/08 A2999 520 48 1100 220/04 RMK AO1 T01890078
54779K12N 12N20160421194509904/21/16 19:45:31  5-MIN K12N 220045Z AUTO 21005KT 19/07 A2999 520 46 1100 220/05 RMK AO1 T01890072
54779K12N 12N20160421195010604/21/16 19:50:31  5-MIN K12N 220050Z AUTO 21003KT 19/08 A2999 520 48 1100 220/03 RMK AO1 SLP154 T01890078
54779K12N 12N20160421195509904/21/16 19:55:31  5-MIN K12N 220055Z AUTO 21005KT 19/07 A2999 520 46 1100 220/05 RMK AO1 T01890072
54779K12N 12N20160421200009904/21/16 20:00:31  5-MIN K12N 220100Z AUTO VRB04KT 19/08 A3000 520 48 1100 VRB/04 RMK AO1 T01890078
54779K12N 12N20160421200509904/21/16 20:05:31  5-MIN K12N 220105Z AUTO 21004KT 19/07 A3000 510 46 1100 230/04 RMK AO1 T01890072
54779K12N 12N20160421201009904/21/16 20:10:31  5-MIN K12N 220110Z AUTO 21004KT 19/08 A3000 510 48 1100 220/04 RMK AO1 T01890078
54779K12N 12N20160421201509904/21/16 20:15:31  5-MIN K12N 220115Z AUTO VRB03KT 18/08 A3000 510 50 1100 VRB/03 RMK AO1 T01830078
54779K12N 12N20160421202009904/21/16 20:20:31  5-MIN K12N 220120Z AUTO VRB03KT 19/07 A3000 510 46 1100 VRB/03 RMK AO1 T01890072
54779K12N 12N20160421202509904/21/16 20:25:31  5-MIN K12N 220125Z AUTO VRB03KT 18/07 A2999 520 48 1100 VRB/03 RMK AO1 T01830072
54779K12N 12N20160421203009904/21/16 20:30:31  5-MIN K12N 220130Z AUTO 21005KT 18/07 A3000 520 48 1100 220/05 RMK AO1 T01830072
54779K12N 12N20160421203509904/21/16 20:35:31  5-MIN K12N 220135Z AUTO VRB05KT 18/08 A3000 510 50 1100 VRB/05 RMK AO1 T01830078
54779K12N 12N20160421204009904/21/16 20:40:31  5-MIN K12N 220140Z AUTO 21004KT 18/07 A3000 510 48 1100 230/04 RMK AO1 T01830072
54779K12N 12N20160421204509904/21/16 20:45:31  5-MIN K12N 220145Z AUTO VRB03KT 18/07 A3000 510 48 1100 VRB/03 RMK AO1 T01830072
54779K12N 12N20160421205010604/21/16 20:50:31  5-MIN K12N 220150Z AUTO 21005KT 18/07 A3000 510 48 1100 220/05 RMK AO1 SLP156 T01830072
54779K12N 12N20160421205509904/21/16 20:55:31  5-MIN K12N 220155Z AUTO 21004KT 18/07 A3000 510 48 1100 220/04 RMK AO1 T01830072
54779K12N 12N20160421210009904/21/16 21:00:31  5-MIN K12N 220200Z AUTO VRB03KT 18/07 A3000 520 48 1100 VRB/03 RMK AO1 T01830072
54779K12N 12N20160421210509904/21/16 21:05:31  5-MIN K12N 220205Z AUTO 00000KT 18/07 A3000 520 49 1000 000/00 RMK AO1 T01780072
54779K12N 12N20160421211009904/21/16 21:10:31  5-MIN K12N 220210Z AUTO 20004KT 18/07 A2999 520 49 1000 210/04 RMK AO1 T01780072
54779K12N 12N20160421211509904/21/16 21:15:31  5-MIN K12N 220215Z AUTO 21005KT 18/07 A2999 520 49 1000 220/05 RMK AO1 T01780072
54779K12N 12N20160421212009904/21/16 21:20:31  5-MIN K12N 220220Z AUTO VRB03KT 18/07 A2999 520 49 1000 VRB/03 RMK AO1 T01780072
54779K12N 12N20160421212509904/21/16 21:25:31  5-MIN K12N 220225Z AUTO 00000KT 18/07 A2998 530 49 1000 000/00 RMK AO1 T01780072
54779K12N 12N20160421213009904/21/16 21:30:31  5-MIN K12N 220230Z AUTO 21003KT 18/08 A2998 530 51 1000 230/03 RMK AO1 T01780078
54779K12N 12N20160421213509904/21/16 21:35:31  5-MIN K12N 220235Z AUTO 00000KT 17/08 A2998 530 53 1000 000/00 RMK AO1 T01720078
54779K12N 12N20160421214009904/21/16 21:40:31  5-MIN K12N 220240Z AUTO 20003KT 17/08 A2998 530 53 1000 220/03 RMK AO1 T01720078
54779K12N 12N20160421214509904/21/16 21:45:31  5-MIN K12N 220245Z AUTO 21003KT 17/08 A2998 530 55 1000 220/03 RMK AO1 T01720083
54779K12N 12N20160421215011204/21/16 21:50:31  5-MIN K12N 220250Z AUTO 21004KT 17/08 A2998 530 55 1000 220/04 RMK AO1 SLP147 T01720083 53005
54779K12N 12N20160421215509904/21/16 21:55:31  5-MIN K12N 220255Z AUTO 20003KT 17/08 A2998 530 53 1000 210/03 RMK AO1 T01720078
54779K12N 12N20160421220009904/21/16 22:00:31  5-MIN K12N 220300Z AUTO 21005KT 17/08 A2998 530 53 1000 220/05 RMK AO1 T01720078
54779K12N 12N20160421220509904/21/16 22:05:31  5-MIN K12N 220305Z AUTO 22005KT 17/07 A2998 530 51 1000 230/05 RMK AO1 T01720072
54779K12N 12N20160421221009804/21/16 22:10:31  5-MIN K12N 220310Z AUTO 21004KT 17/07 A2998 530 51 900 230/04 RMK AO1 T01720072
54779K12N 12N20160421221509804/21/16 22:15:31  5-MIN K12N 220315Z AUTO 20003KT 17/07 A2998 530 51 900 210/03 RMK AO1 T01720072
54779K12N 12N20160421222009904/21/16 22:20:31  5-MIN K12N 220320Z AUTO VRB03KT 17/07 A2998 530 51 1000 VRB/03 RMK AO1 T01720072
54779K12N 12N20160421222509804/21/16 22:25:31  5-MIN K12N 220325Z AUTO 19003KT 17/08 A2998 530 53 900 210/03 RMK AO1 T01720078
54779K12N 12N20160421223009904/21/16 22:30:31  5-MIN K12N 220330Z AUTO 00000KT 17/08 A2998 530 53 1000 000/00 RMK AO1 T01720078
54779K12N 12N20160421223509804/21/16 22:35:31  5-MIN K12N 220335Z AUTO 21004KT 17/08 A2999 520 55 900 230/04 RMK AO1 T01670078
54779K12N 12N20160421224009804/21/16 22:40:31  5-MIN K12N 220340Z AUTO 00000KT 17/08 A2999 520 57 900 000/00 RMK AO1 T01670083
54779K12N 12N20160421224509804/21/16 22:45:31  5-MIN K12N 220345Z AUTO 20004KT 17/08 A2999 520 57 900 210/04 RMK AO1 T01670083
54779K12N 12N20160421225010504/21/16 22:50:31  5-MIN K12N 220350Z AUTO 21004KT 17/08 A2999 520 55 900 220/04 RMK AO1 SLP152 T01670078
54779K12N 12N20160421225509804/21/16 22:55:31  5-MIN K12N 220355Z AUTO 00000KT 17/08 A2999 520 55 900 000/00 RMK AO1 T01670078
54779K12N 12N20160421230009804/21/16 23:00:31  5-MIN K12N 220400Z AUTO VRB03KT 17/08 A2999 520 55 900 VRB/03 RMK AO1 T01670078
54779K12N 12N20160421230509804/21/16 23:05:31  5-MIN K12N 220405Z AUTO 00000KT 17/08 A2999 520 55 900 000/00 RMK AO1 T01670078
54779K12N 12N20160421231009804/21/16 23:10:31  5-MIN K12N 220410Z AUTO 00000KT 17/08 A2999 520 57 900 000/00 RMK AO1 T01670083
54779K12N 12N20160421231509804/21/16 23:15:31  5-MIN K12N 220415Z AUTO 00000KT 17/08 A2999 530 55 900 000/00 RMK AO1 T01670078
54779K12N 12N20160421232009804/21/16 23:20:31  5-MIN K12N 220420Z AUTO 00000KT 17/08 A2998 530 55 900 000/00 RMK AO1 T01670078
54779K12N 12N20160421232509804/21/16 23:25:31  5-MIN K12N 220425Z AUTO 00000KT 17/08 A2998 530 55 900 000/00 RMK AO1 T01670078
54779K12N 12N20160421233009804/21/16 23:30:31  5-MIN K12N 220430Z AUTO 00000KT 16/08 A2999 530 62 800 000/00 RMK AO1 T01560083
54779K12N 12N20160421233509804/21/16 23:35:31  5-MIN K12N 220435Z AUTO 00000KT 16/09 A2999 520 62 800 000/00 RMK AO1 T01610089
54779K12N 12N20160421234009804/21/16 23:40:31  5-MIN K12N 220440Z AUTO 00000KT 16/09 A2999 520 62 800 000/00 RMK AO1 T01610089
54779K12N 12N20160421234509804/21/16 23:45:31  5-MIN K12N 220445Z AUTO 00000KT 16/09 A2998 530 62 800 000/00 RMK AO1 T01610089
54779K12N 12N20160421235011504/21/16 23:50:31  5-MIN K12N 220450Z AUTO 22003KT 16/08 A2999 520 59 800 240/03 RMK AO1 SLP150 T01610083 402280022
54779K12N 12N20160421235509804/21/16 23:55:31  5-MIN K12N 220455Z AUTO 00000KT 16/08 A2998 530 62 800 000/00 RMK AO1 T01560083
54779K12N 12N20160422000009804/22/16 00:00:31  5-MIN K12N 220500Z AUTO 00000KT 16/09 A2999 520 62 800 000/00 RMK AO1 T01610089
54779K12N 12N20160422000509804/22/16 00:05:31  5-MIN K12N 220505Z AUTO 00000KT 16/09 A2999 520 62 800 000/00 RMK AO1 T01610089
54779K12N 12N20160422001009804/22/16 00:10:31  5-MIN K12N 220510Z AUTO 00000KT 16/08 A2999 520 59 800 000/00 RMK AO1 T01610083
54779K12N 12N20160422001509804/22/16 00:15:31  5-MIN K12N 220515Z AUTO 00000KT 16/08 A2998 530 59 800 000/00 RMK AO1 T01610083
54779K12N 12N20160422002009804/22/16 00:20:31  5-MIN K12N 220520Z AUTO 00000KT 17/08 A2998 530 55 900 000/00 RMK AO1 T01670078
54779K12N 12N20160422002509804/22/16 00:25:31  5-MIN K12N 220525Z AUTO 00000KT 16/08 A2998 530 59 800 000/00 RMK AO1 T01560078
54779K12N 12N20160422003009804/22/16 00:30:31  5-MIN K12N 220530Z AUTO 00000KT 16/08 A2998 530 59 800 000/00 RMK AO1 T01560078
54779K12N 12N20160422003509804/22/16 00:35:31  5-MIN K12N 220535Z AUTO 00000KT 16/08 A2998 530 62 800 000/00 RMK AO1 T01560083
54779K12N 12N20160422004009804/22/16 00:40:31  5-MIN K12N 220540Z AUTO 00000KT 16/10 A2997 540 69 800 000/00 RMK AO1 T01560100
54779K12N 12N20160422004509804/22/16 00:45:31  5-MIN K12N 220545Z AUTO 00000KT 15/10 A2997 540 72 700 000/00 RMK AO1 T01500100
54779K12N 12N20160422005012304/22/16 00:50:31  5-MIN K12N 220550Z AUTO 00000KT 15/09 A2997 540 66 700 000/00 RMK AO1 SLP146 T01500089 10194 20150 58001
54779K12N 12N20160422005509804/22/16 00:55:31  5-MIN K12N 220555Z AUTO 00000KT 14/08 A2997 540 66 600 000/00 RMK AO1 T01440083
54779K12N 12N20160422010009804/22/16 01:00:31  5-MIN K12N 220600Z AUTO 00000KT 15/09 A2997 540 66 700 000/00 RMK AO1 T01500089
54779K12N 12N20160422010509804/22/16 01:05:31  5-MIN K12N 220605Z AUTO 00000KT 14/09 A2997 540 72 600 000/00 RMK AO1 T01440094
54779K12N 12N20160422011009804/22/16 01:10:31  5-MIN K12N 220610Z AUTO 00000KT 15/09 A2997 540 66 700 000/00 RMK AO1 T01500089
54779K12N 12N20160422011509804/22/16 01:15:31  5-MIN K12N 220615Z AUTO 00000KT 14/09 A2996 540 72 600 000/00 RMK AO1 T01440094
54779K12N 12N20160422012009804/22/16 01:20:31  5-MIN K12N 220620Z AUTO 00000KT 14/08 A2996 550 66 600 000/00 RMK AO1 T01440083
54779K12N 12N20160422012509804/22/16 01:25:31  5-MIN K12N 220625Z AUTO 00000KT 14/08 A2996 550 66 700 000/00 RMK AO1 T01440083
54779K12N 12N20160422013009804/22/16 01:30:31  5-MIN K12N 220630Z AUTO 00000KT 14/09 A2996 550 69 700 000/00 RMK AO1 T01440089
54779K12N 12N20160422013509804/22/16 01:35:31  5-MIN K12N 220635Z AUTO 00000KT 14/09 A2996 550 72 700 000/00 RMK AO1 T01440094
54779K12N 12N20160422014009804/22/16 01:40:31  5-MIN K12N 220640Z AUTO 00000KT 14/09 A2996 550 72 700 000/00 RMK AO1 T01440094
54779K12N 12N20160422014509804/22/16 01:45:31  5-MIN K12N 220645Z AUTO 00000KT 14/10 A2996 550 74 700 000/00 RMK AO1 T01440100
54779K12N 12N20160422015010504/22/16 01:50:31  5-MIN K12N 220650Z AUTO 00000KT 14/09 A2995 550 74 600 000/00 RMK AO1 SLP140 T01390094
54779K12N 12N20160422015509804/22/16 01:55:31  5-MIN K12N 220655Z AUTO 00000KT 14/09 A2995 550 74 600 000/00 RMK AO1 T01390094
54779K12N 12N20160422020009804/22/16 02:00:31  5-MIN K12N 220700Z AUTO 00000KT 14/09 A2995 560 74 600 000/00 RMK AO1 T01390094
54779K12N 12N20160422020509804/22/16 02:05:31  5-MIN K12N 220705Z AUTO 00000KT 14/09 A2995 560 74 600 000/00 RMK AO1 T01390094
54779K12N 12N20160422021009804/22/16 02:10:31  5-MIN K12N 220710Z AUTO 00000KT 14/09 A2995 560 71 600 000/00 RMK AO1 T01390089
54779K12N 12N20160422021509804/22/16 02:15:31  5-MIN K12N 220715Z AUTO 00000KT 14/09 A2994 560 74 600 000/00 RMK AO1 T01390094
54779K12N 12N20160422022009804/22/16 02:20:31  5-MIN K12N 220720Z AUTO 00000KT 13/09 A2994 560 77 500 000/00 RMK AO1 T01330094
54779K12N 12N20160422022509804/22/16 02:25:31  5-MIN K12N 220725Z AUTO 00000KT 13/09 A2994 560 74 500 000/00 RMK AO1 T01330089
54779K12N 12N20160422023009804/22/16 02:30:31  5-MIN K12N 220730Z AUTO 00000KT 13/08 A2994 560 74 500 000/00 RMK AO1 T01280083
54779K12N 12N20160422023509804/22/16 02:35:31  5-MIN K12N 220735Z AUTO 00000KT 13/08 A2994 570 71 500 000/00 RMK AO1 T01330083
54779K12N 12N20160422024009804/22/16 02:40:31  5-MIN K12N 220740Z AUTO 00000KT 13/09 A2994 570 74 500 000/00 RMK AO1 T01330089
54779K12N 12N20160422024509804/22/16 02:45:31  5-MIN K12N 220745Z AUTO 00000KT 13/09 A2994 570 74 500 000/00 RMK AO1 T01330089
54779K12N 12N20160422025010504/22/16 02:50:31  5-MIN K12N 220750Z AUTO 00000KT 13/09 A2994 570 74 500 000/00 RMK AO1 SLP133 T01330089
54779K12N 12N20160422025509804/22/16 02:55:31  5-MIN K12N 220755Z AUTO 00000KT 13/09 A2993 570 74 500 000/00 RMK AO1 T01330089
54779K12N 12N20160422030009804/22/16 03:00:31  5-MIN K12N 220800Z AUTO 00000KT 13/08 A2993 570 71 500 000/00 RMK AO1 T01330083
54779K12N 12N20160422030509804/22/16 03:05:31  5-MIN K12N 220805Z AUTO 00000KT 13/08 A2994 570 71 500 000/00 RMK AO1 T01330083
54779K12N 12N20160422031009804/22/16 03:10:31  5-MIN K12N 220810Z AUTO 00000KT 13/08 A2993 570 74 500 000/00 RMK AO1 T01280083
54779K12N 12N20160422031509804/22/16 03:15:31  5-MIN K12N 220815Z AUTO 00000KT 13/09 A2993 570 74 600 000/00 RMK AO1 T01330089
54779K12N 12N20160422032009804/22/16 03:20:31  5-MIN K12N 220820Z AUTO 00000KT 13/09 A2993 580 77 500 000/00 RMK AO1 T01280089
54779K12N 12N20160422032509804/22/16 03:25:31  5-MIN K12N 220825Z AUTO 00000KT 13/09 A2993 580 80 500 000/00 RMK AO1 T01280094
54779K12N 12N20160422033009804/22/16 03:30:31  5-MIN K12N 220830Z AUTO 00000KT 13/09 A2993 580 80 500 000/00 RMK AO1 T01280094
54779K12N 12N20160422033509804/22/16 03:35:31  5-MIN K12N 220835Z AUTO 00000KT 13/09 A2992 580 80 500 000/00 RMK AO1 T01280094
54779K12N 12N20160422034009804/22/16 03:40:31  5-MIN K12N 220840Z AUTO 00000KT 13/09 A2992 580 80 500 000/00 RMK AO1 T01280094
54779K12N 12N20160422034509804/22/16 03:45:31  5-MIN K12N 220845Z AUTO 00000KT 12/09 A2993 580 83 400 000/00 RMK AO1 T01220094
54779K12N 12N20160422035011104/22/16 03:50:31  5-MIN K12N 220850Z AUTO 00000KT 12/09 A2993 580 80 400 000/00 RMK AO1 SLP130 T01220089 58001
54779K12N 12N20160422035509804/22/16 03:55:31  5-MIN K12N 220855Z AUTO 00000KT 13/09 A2993 580 80 500 000/00 RMK AO1 T01280094
54779K12N 12N20160422040009804/22/16 04:00:31  5-MIN K12N 220900Z AUTO 00000KT 13/09 A2992 580 80 500 000/00 RMK AO1 T01280094
54779K12N 12N20160422040509804/22/16 04:05:31  5-MIN K12N 220905Z AUTO 00000KT 13/09 A2992 580 80 500 000/00 RMK AO1 T01280094
54779K12N 12N20160422041009804/22/16 04:10:31  5-MIN K12N 220910Z AUTO 00000KT 12/09 A2992 580 83 400 000/00 RMK AO1 T01220094
54779K12N 12N20160422041509804/22/16 04:15:31  5-MIN K12N 220915Z AUTO 00000KT 12/09 A2992 590 83 400 000/00 RMK AO1 T01220094
54779K12N 12N20160422042009804/22/16 04:20:31  5-MIN K12N 220920Z AUTO 00000KT 12/09 A2992 590 83 400 000/00 RMK AO1 T01220094
54779K12N 12N20160422042509804/22/16 04:25:31  5-MIN K12N 220925Z AUTO 00000KT 12/09 A2992 590 83 400 000/00 RMK AO1 T01220094
54779K12N 12N20160422043009804/22/16 04:30:31  5-MIN K12N 220930Z AUTO 00000KT 12/08 A2992 590 80 400 000/00 RMK AO1 T01170083
54779K12N 12N20160422043509804/22/16 04:35:31  5-MIN K12N 220935Z AUTO 00000KT 12/09 A2992 590 83 400 000/00 RMK AO1 T01170089
54779K12N 12N20160422044009804/22/16 04:40:31  5-MIN K12N 220940Z AUTO 00000KT 12/09 A2992 590 86 400 000/00 RMK AO1 T01170094
54779K12N 12N20160422044509804/22/16 04:45:31  5-MIN K12N 220945Z AUTO 00000KT 12/09 A2992 590 86 400 000/00 RMK AO1 T01170094
54779K12N 12N20160422045010504/22/16 04:50:31  5-MIN K12N 220950Z AUTO 00000KT 12/10 A2991 590 86 400 000/00 RMK AO1 SLP126 T01220100
54779K12N 12N20160422045509804/22/16 04:55:31  5-MIN K12N 220955Z AUTO 21003KT 12/09 A2992 590 83 400 230/03 RMK AO1 T01220094
54779K12N 12N20160422050009804/22/16 05:00:31  5-MIN K12N 221000Z AUTO 00000KT 12/09 A2992 590 83 400 000/00 RMK AO1 T01220094
54779K12N 12N20160422050509804/22/16 05:05:31  5-MIN K12N 221005Z AUTO 00000KT 12/10 A2992 590 86 400 000/00 RMK AO1 T01220100
54779K12N 12N20160422051009804/22/16 05:10:31  5-MIN K12N 221010Z AUTO 00000KT 12/09 A2992 590 83 400 000/00 RMK AO1 T01220094
54779K12N 12N20160422051509804/22/16 05:15:31  5-MIN K12N 221015Z AUTO 00000KT 12/09 A2992 590 86 400 000/00 RMK AO1 T01170094
54779K12N 12N20160422052009804/22/16 05:20:31  5-MIN K12N 221020Z AUTO 23003KT 12/09 A2992 580 83 400 240/03 RMK AO1 T01220094
54779K12N 12N20160422052509804/22/16 05:25:31  5-MIN K12N 221025Z AUTO 19003KT 12/09 A2993 580 83 400 200/03 RMK AO1 T01170089
54779K12N 12N20160422053009804/22/16 05:30:31  5-MIN K12N 221030Z AUTO 22005KT 12/09 A2993 580 86 400 230/05 RMK AO1 T01170094
54779K12N 12N20160422053509804/22/16 05:35:31  5-MIN K12N 221035Z AUTO 21003KT 12/09 A2993 580 83 400 230/03 RMK AO1 T01170089
54779K12N 12N20160422054009804/22/16 05:40:31  5-MIN K12N 221040Z AUTO 20003KT 12/09 A2993 580 83 400 210/03 RMK AO1 T01220094
54779K12N 12N20160422054509804/22/16 05:45:31  5-MIN K12N 221045Z AUTO 00000KT 12/09 A2993 580 83 400 000/00 RMK AO1 T01220094
54779K12N 12N20160422055010504/22/16 05:50:31  5-MIN K12N 221050Z AUTO 21004KT 12/09 A2993 580 86 400 230/04 RMK AO1 SLP132 T01170094
54779K12N 12N20160422055509804/22/16 05:55:31  5-MIN K12N 221055Z AUTO 00000KT 12/10 A2993 580 89 400 000/00 RMK AO1 T01170100
54779K12N 12N20160422060009804/22/16 06:00:31  5-MIN K12N 221100Z AUTO 23003KT 12/10 A2992 580 86 400 240/03 RMK AO1 T01220100
54779K12N 12N20160422060509804/22/16 06:05:31  5-MIN K12N 221105Z AUTO 00000KT 12/10 A2992 590 86 400 000/00 RMK AO1 T01220100
54779K12N 12N20160422061009804/22/16 06:10:31  5-MIN K12N 221110Z AUTO 22003KT 13/11 A2992 590 83 600 230/03 RMK AO1 T01330106
54779K12N 12N20160422061509804/22/16 06:15:31  5-MIN K12N 221115Z AUTO 21003KT 14/11 A2992 590 83 600 220/03 RMK AO1 T01390111
54779K12N 12N20160422062009804/22/16 06:20:31  5-MIN K12N 221120Z AUTO 22004KT 15/12 A2993 580 80 800 230/04 RMK AO1 T01500117
54779K12N 12N20160422062509804/22/16 06:25:31  5-MIN K12N 221125Z AUTO 21003KT 16/12 A2993 570 77 800 220/03 RMK AO1 T01560117
54779K12N 12N20160422063009804/22/16 06:30:31  5-MIN K12N 221130Z AUTO VRB03KT 16/12 A2993 570 77 900 VRB/03 RMK AO1 T01610122
54779K12N 12N20160422063509804/22/16 06:35:31  5-MIN K12N 221135Z AUTO 00000KT 16/12 A2993 570 77 900 000/00 RMK AO1 T01610122
54779K12N 12N20160422064009804/22/16 06:40:31  5-MIN K12N 221140Z AUTO 21004KT 17/12 A2993 570 75 900 220/04 RMK AO1 T01670122
54779K12N 12N20160422064509904/22/16 06:45:31  5-MIN K12N 221145Z AUTO 21003KT 17/12 A2993 570 72 1000 230/03 RMK AO1 T01720122
54779K12N 12N20160422065012404/22/16 06:50:31  5-MIN K12N 221150Z AUTO VRB03KT 17/12 A2993 580 72 1000 VRB/03 RMK AO1 SLP131 T01720122 10172 20117 56015
54779K12N 12N20160422065509904/22/16 06:55:31  5-MIN K12N 221155Z AUTO 21006KT 17/12 A2993 580 72 1000 220/06 RMK AO1 T01720122
54779K12N 12N20160422070009904/22/16 07:00:31  5-MIN K12N 221200Z AUTO 21005KT 17/12 A2993 580 72 1000 220/05 RMK AO1 T01720122
54779K12N 12N20160422070509904/22/16 07:05:31  5-MIN K12N 221205Z AUTO 22004KT 17/12 A2993 580 72 1000 240/04 RMK AO1 T01720122
54779K12N 12N20160422071009904/22/16 07:10:31  5-MIN K12N 221210Z AUTO 22004KT 17/12 A2993 580 72 1000 230/04 RMK AO1 T01720122
54779K12N 12N20160422071509904/22/16 07:15:31  5-MIN K12N 221215Z AUTO 22006KT 17/12 A2993 580 72 1000 230/06 RMK AO1 T01720122
54779K12N 12N20160422072009904/22/16 07:20:31  5-MIN K12N 221220Z AUTO 22005KT 17/12 A2993 580 72 1000 230/05 RMK AO1 T01720122
54779K12N 12N20160422072509904/22/16 07:25:31  5-MIN K12N 221225Z AUTO VRB04KT 17/12 A2993 580 72 1000 VRB/04 RMK AO1 T01720122
54779K12N 12N20160422073009904/22/16 07:30:31  5-MIN K12N 221230Z AUTO VRB04KT 18/13 A2993 580 72 1100 VRB/04 RMK AO1 T01780128
54779K12N 12N20160422073509904/22/16 07:35:31  5-MIN K12N 221235Z AUTO 23005KT 18/13 A2993 570 72 1100 240/05 RMK AO1 T01780128
54779K12N 12N20160422074009904/22/16 07:40:31  5-MIN K12N 221240Z AUTO 21005KT 18/13 A2993 570 70 1100 230/05 RMK AO1 T01830128
54779K12N 12N20160422074509904/22/16 07:45:31  5-MIN K12N 221245Z AUTO 22007KT 18/13 A2993 580 72 1100 240/07 RMK AO1 T01780128
54779K12N 12N20160422075010604/22/16 07:50:31  5-MIN K12N 221250Z AUTO 22005KT 18/13 A2993 580 72 1100 240/05 RMK AO1 SLP129 T01780128
54779K12N 12N20160422075509904/22/16 07:55:31  5-MIN K12N 221255Z AUTO 21005KT 18/13 A2993 580 72 1100 230/05 RMK AO1 T01780128
54779K12N 12N20160422080009904/22/16 08:00:31  5-MIN K12N 221300Z AUTO VRB04KT 18/13 A2993 580 70 1100 VRB/04 RMK AO1 T01830128
54779K12N 12N20160422080509904/22/16 08:05:31  5-MIN K12N 221305Z AUTO VRB04KT 18/13 A2992 580 70 1100 VRB/04 RMK AO1 T01830128
54779K12N 12N20160422081009904/22/16 08:10:31  5-MIN K12N 221310Z AUTO 20005KT 18/13 A2992 590 70 1200 210/05 RMK AO1 T01830128
54779K12N 12N20160422081509904/22/16 08:15:31  5-MIN K12N 221315Z AUTO VRB06KT 18/13 A2992 590 70 1200 VRB/06 RMK AO1 T01830128
54779K12N 12N20160422082009904/22/16 08:20:31  5-MIN K12N 221320Z AUTO 22006KT 19/13 A2992 590 70 1200 240/06 RMK AO1 T01890133
54779K12N 12N20160422082509904/22/16 08:25:31  5-MIN K12N 221325Z AUTO VRB05KT 19/13 A2992 590 70 1200 VRB/05 RMK AO1 T01890133
54779K12N 12N20160422083009904/22/16 08:30:31  5-MIN K12N 221330Z AUTO 22003KT 19/13 A2992 580 70 1200 230/03 RMK AO1 T01890133
54779K12N 12N20160422083511504/22/16 08:35:31  5-MIN K12N 221335Z AUTO 22007KT 200V270 19/13 A2992 580 67 1300 230/07 210V280 RMK AO1 T01940133
54779K12N 12N20160422084009904/22/16 08:40:31  5-MIN K12N 221340Z AUTO VRB04KT 19/13 A2992 580 67 1300 VRB/04 RMK AO1 T01940133
54779K12N 12N20160422084511504/22/16 08:45:31  5-MIN K12N 221345Z AUTO 19007KT 170V230 19/13 A2992 580 67 1300 200/07 180V240 RMK AO1 T01940133
54779K12N 12N20160422085010604/22/16 08:50:31  5-MIN K12N 221350Z AUTO VRB05KT 19/13 A2992 580 67 1300 VRB/05 RMK AO1 SLP127 T01940133
54779K12N 12N20160422085509904/22/16 08:55:31  5-MIN K12N 221355Z AUTO VRB05KT 19/13 A2992 590 67 1300 VRB/05 RMK AO1 T01940133
54779K12N 12N20160422090008904/22/16 09:00:31  5-MIN K12N 221400Z AUTO 20/13 A2992 590 65 1300 M /M RMK AO1 T02000133
54779K12N 12N20160422090511504/22/16 09:05:31  5-MIN K12N 221405Z AUTO 22007KT 200V270 20/13 A2992 580 65 1300 240/07 210V280 RMK AO1 T02000133
54779K12N 12N20160422091009904/22/16 09:10:31  5-MIN K12N 221410Z AUTO 23007KT 20/13 A2992 590 65 1300 250/07 RMK AO1 T02000133
54779K12N 12N20160422091509904/22/16 09:15:31  5-MIN K12N 221415Z AUTO 23006KT 21/13 A2992 590 63 1400 240/06 RMK AO1 T02060133
54779K12N 12N20160422092008904/22/16 09:20:31  5-MIN K12N 221420Z AUTO 21/13 A2992 590 60 1400 M /M RMK AO1 T02060128
54779K12N 12N20160422092509904/22/16 09:25:31  5-MIN K12N 221425Z AUTO 22007KT 21/13 A2992 590 58 1500 230/07 RMK AO1 T02110128
54779K12N 12N20160422093009904/22/16 09:30:31  5-MIN K12N 221430Z AUTO 21007KT 21/13 A2992 590 63 1400 220/07 RMK AO1 T02060133
54779K12N 12N20160422093509904/22/16 09:35:31  5-MIN K12N 221435Z AUTO VRB03KT 21/13 A2991 590 63 1400 VRB/03 RMK AO1 T02060133
54779K12N 12N20160422094009904/22/16 09:40:31  5-MIN K12N 221440Z AUTO 25006KT 21/13 A2991 590 61 1500 260/06 RMK AO1 T02110133
54779K12N 12N20160422094509904/22/16 09:45:31  5-MIN K12N 221445Z AUTO VRB06KT 21/13 A2991 590 61 1500 VRB/06 RMK AO1 T02110133
54779K12N 12N20160422095012804/22/16 09:50:31  5-MIN K12N 221450Z AUTO 22007KT 180V270 21/13 A2991 590 61 1500 240/07 190V280 RMK AO1 SLP124 T02110133 53001
54779K12N 12N20160422095509904/22/16 09:55:31  5-MIN K12N 221455Z AUTO 23006KT 21/13 A2991 590 58 1500 240/06 RMK AO1 T02110128
54779K12N 12N20160422100009904/22/16 10:00:31  5-MIN K12N 221500Z AUTO 21007KT 22/13 A2991 600 56 1600 230/07 RMK AO1 T02170128
54779K12N 12N20160422100511504/22/16 10:05:31  5-MIN K12N 221505Z AUTO 22008KT 190V260 21/12 A2991 600 56 1500 230/08 200V270 RMK AO1 T02110122
54779K12N 12N20160422101009904/22/16 10:10:31  5-MIN K12N 221510Z AUTO 22006KT 22/12 A2991 590 54 1500 230/06 RMK AO1 T02170122
54779K12N 12N20160422101509904/22/16 10:15:31  5-MIN K12N 221515Z AUTO VRB05KT 22/12 A2991 600 54 1600 VRB/05 RMK AO1 T02170122
54779K12N 12N20160422102009904/22/16 10:20:31  5-MIN K12N 221520Z AUTO 22011KT 22/12 A2991 600 54 1600 240/11 RMK AO1 T02170122
54779K12N 12N20160422102510504/22/16 10:25:31  5-MIN K12N 221525Z AUTO 22010G14KT 22/13 A2990 600 54 1600 230/10G14 RMK AO1 T02220128
54779K12N 12N20160422103010504/22/16 10:30:31  5-MIN K12N 221530Z AUTO VRB04G14KT 22/12 A2990 600 52 1600 VRB/04G14 RMK AO1 T02220122
54779K12N 12N20160422103509904/22/16 10:35:31  5-MIN K12N 221535Z AUTO VRB04KT 22/13 A2990 600 54 1600 VRB/04 RMK AO1 T02220128
54779K12N 12N20160422104009904/22/16 10:40:31  5-MIN K12N 221540Z AUTO VRB05KT 22/13 A2990 610 54 1600 VRB/05 RMK AO1 T02220128
54779K12N 12N20160422104509904/22/16 10:45:31  5-MIN K12N 221545Z AUTO VRB05KT 22/12 A2990 610 52 1600 VRB/05 RMK AO1 T02220122
54779K12N 12N20160422105010604/22/16 10:50:31  5-MIN K12N 221550Z AUTO VRB04KT 22/13 A2989 610 54 1600 VRB/04 RMK AO1 SLP118 T02220128
54779K12N 12N20160422105509904/22/16 10:55:31  5-MIN K12N 221555Z AUTO 31003KT 23/13 A2989 610 53 1700 320/03 RMK AO1 T02280128
54779K12N 12N20160422110011504/22/16 11:00:31  5-MIN K12N 221600Z AUTO 24008KT 200V270 23/13 A2989 610 53 1700 250/08 210V280 RMK AO1 T02280128
54779K12N 12N20160422110509904/22/16 11:05:31  5-MIN K12N 221605Z AUTO VRB04KT 23/13 A2989 610 53 1700 VRB/04 RMK AO1 T02280128
54779K12N 12N20160422111009904/22/16 11:10:31  5-MIN K12N 221610Z AUTO VRB05KT 23/13 A2989 610 51 1800 VRB/05 RMK AO1 T02330128
54779K12N 12N20160422111509904/22/16 11:15:31  5-MIN K12N 221615Z AUTO VRB05KT 23/13 A2989 610 51 1800 VRB/05 RMK AO1 T02330128
54779K12N 12N20160422112009904/22/16 11:20:31  5-MIN K12N 221620Z AUTO 33006KT 23/13 A2989 610 53 1800 350/06 RMK AO1 T02330133
54779K12N 12N20160422112509904/22/16 11:25:31  5-MIN K12N 221625Z AUTO 00000KT 23/12 A2989 620 51 1700 000/00 RMK AO1 T02280122
54779K12N 12N20160422113008904/22/16 11:30:31  5-MIN K12N 221630Z AUTO 23/12 A2989 610 51 1700 M /M RMK AO1 T02280122
54779K12N 12N20160422113509904/22/16 11:35:31  5-MIN K12N 221635Z AUTO 23005KT 23/12 A2989 610 51 1700 240/05 RMK AO1 T02280122
54779K12N 12N20160422114009904/22/16 11:40:31  5-MIN K12N 221640Z AUTO VRB06KT 23/13 A2989 620 53 1700 VRB/06 RMK AO1 T02280128
54779K12N 12N20160422114509904/22/16 11:45:31  5-MIN K12N 221645Z AUTO 21007KT 23/13 A2989 620 51 1800 220/07 RMK AO1 T02330128
54779K12N 12N20160422115010604/22/16 11:50:31  5-MIN K12N 221650Z AUTO VRB06KT 23/12 A2988 620 49 1800 VRB/06 RMK AO1 SLP114 T02330122
54779K12N 12N20160422115509904/22/16 11:55:31  5-MIN K12N 221655Z AUTO VRB03KT 23/12 A2988 620 49 1800 VRB/03 RMK AO1 T02330122
54779K12N 12N20160422120008904/22/16 12:00:31  5-MIN K12N 221700Z AUTO 23/12 A2988 620 49 1800 M /M RMK AO1 T02330122
54779K12N 12N20160422120509904/22/16 12:05:31  5-MIN K12N 221705Z AUTO 23006KT 23/12 A2988 620 49 1800 240/06 RMK AO1 T02330122
54779K12N 12N20160422121009904/22/16 12:10:31  5-MIN K12N 221710Z AUTO VRB03KT 24/13 A2988 630 49 1800 VRB/03 RMK AO1 T02390128
54779K12N 12N20160422121509904/22/16 12:15:31  5-MIN K12N 221715Z AUTO 21004KT 24/12 A2988 630 47 1800 220/04 RMK AO1 T02390122
54779K12N 12N20160422122009904/22/16 12:20:31  5-MIN K12N 221720Z AUTO VRB03KT 24/13 A2987 630 49 1800 VRB/03 RMK AO1 T02390128
54779K12N 12N20160422122509904/22/16 12:25:31  5-MIN K12N 221725Z AUTO VRB04KT 24/12 A2987 630 47 1800 VRB/04 RMK AO1 T02390122
54779K12N 12N20160422123009904/22/16 12:30:31  5-MIN K12N 221730Z AUTO VRB06KT 24/12 A2987 630 47 1800 VRB/06 RMK AO1 T02390122
54779K12N 12N20160422123509904/22/16 12:35:31  5-MIN K12N 221735Z AUTO 20005KT 24/12 A2987 630 47 1900 210/05 RMK AO1 T02390122
54779K12N 12N20160422124009904/22/16 12:40:31  5-MIN K12N 221740Z AUTO VRB03KT 24/12 A2987 640 47 1900 VRB/03 RMK AO1 T02390122
54779K12N 12N20160422124509904/22/16 12:45:31  5-MIN K12N 221745Z AUTO 00000KT 24/12 A2986 640 47 1900 000/00 RMK AO1 T02390122
54779K12N 12N20160422125012404/22/16 12:50:31  5-MIN K12N 221750Z AUTO VRB03KT 24/12 A2986 640 46 1900 VRB/03 RMK AO1 SLP106 T02440122 10244 20172 58007
54779K12N 12N20160422125509904/22/16 12:55:31  5-MIN K12N 221755Z AUTO VRB03KT 24/12 A2986 640 46 1900 VRB/03 RMK AO1 T02440122
54779K12N 12N20160422130009904/22/16 13:00:31  5-MIN K12N 221800Z AUTO 00000KT 24/12 A2986 650 46 1900 000/00 RMK AO1 T02440122
54779K12N 12N20160422130509904/22/16 13:05:31  5-MIN K12N 221805Z AUTO VRB03KT 25/12 A2985 650 43 2000 VRB/03 RMK AO1 T02500117
54779K12N 12N20160422131009904/22/16 13:10:31  5-MIN K12N 221810Z AUTO 00000KT 24/12 A2985 650 44 1900 000/00 RMK AO1 T02440117
54779K12N 12N20160422131509904/22/16 13:15:31  5-MIN K12N 221815Z AUTO VRB05KT 24/12 A2985 650 44 1900 VRB/05 RMK AO1 T02440117
54779K12N 12N20160422132009904/22/16 13:20:31  5-MIN K12N 221820Z AUTO 00000KT 24/12 A2985 650 44 1900 000/00 RMK AO1 T02440117
54779K12N 12N20160422132509904/22/16 13:25:31  5-MIN K12N 221825Z AUTO 00000KT 24/12 A2985 650 44 1900 000/00 RMK AO1 T02440117
54779K12N 12N20160422133009904/22/16 13:30:31  5-MIN K12N 221830Z AUTO 00000KT 25/12 A2985 650 43 2000 000/00 RMK AO1 T02500117
54779K12N 12N20160422133509904/22/16 13:35:31  5-MIN K12N 221835Z AUTO 00000KT 26/12 A2984 660 43 2100 000/00 RMK AO1 T02560122
54779K12N 12N20160422134009904/22/16 13:40:31  5-MIN K12N 221840Z AUTO VRB06KT 26/12 A2984 660 41 2100 VRB/06 RMK AO1 T02610122
54779K12N 12N20160422134509904/22/16 13:45:31  5-MIN K12N 221845Z AUTO VRB03KT 26/12 A2984 660 41 2100 VRB/03 RMK AO1 T02560117
54779K12N 12N20160422135009604/22/16 13:50:31  5-MIN K12N 221850Z AUTO 26/12 A2984 660 41 2100 M /M RMK AO1 SLP099 T02610122
54779K12N 12N20160422135509904/22/16 13:55:31  5-MIN K12N 221855Z AUTO 22007KT 26/12 A2984 660 40 2100 230/07 RMK AO1 T02610117
54779K12N 12N20160422140009904/22/16 14:00:31  5-MIN K12N 221900Z AUTO VRB04KT 26/12 A2984 660 41 2100 VRB/04 RMK AO1 T02560117
54779K12N 12N20160422140511504/22/16 14:05:31  5-MIN K12N 221905Z AUTO 23007KT 190V270 27/12 A2984 660 38 2200 240/07 200V280 RMK AO1 T02670117
54779K12N 12N20160422141010504/22/16 14:10:31  5-MIN K12N 221910Z AUTO 22010G14KT 26/11 A2984 660 38 2100 240/10G14 RMK AO1 T02610111
54779K12N 12N20160422141510504/22/16 14:15:31  5-MIN K12N 221915Z AUTO 19006G14KT 26/11 A2983 670 38 2100 210/06G14 RMK AO1 T02610111
54779K12N 12N20160422142009904/22/16 14:20:31  5-MIN K12N 221920Z AUTO VRB06KT 25/11 A2983 670 39 2000 VRB/06 RMK AO1 T02500106
54779K12N 12N20160422142511504/22/16 14:25:31  5-MIN K12N 221925Z AUTO 21007KT 160V220 26/11 A2983 670 38 2100 220/07 170V230 RMK AO1 T02560106
54779K12N 12N20160422143011504/22/16 14:30:31  5-MIN K12N 221930Z AUTO 21008KT 180V240 26/11 A2983 670 38 2100 230/08 190V250 RMK AO1 T02560106
54779K12N 12N20160422143509904/22/16 14:35:31  5-MIN K12N 221935Z AUTO VRB03KT 25/10 A2983 670 38 2000 VRB/03 RMK AO1 T02500100
54779K12N 12N20160422144008904/22/16 14:40:31  5-MIN K12N 221940Z AUTO 25/11 A2983 670 39 2000 M /M RMK AO1 T02500106
54779K12N 12N20160422144509904/22/16 14:45:31  5-MIN K12N 221945Z AUTO 23006KT 25/10 A2983 670 38 2000 240/06 RMK AO1 T02500100
54779K12N 12N20160422145010604/22/16 14:50:31  5-MIN K12N 221950Z AUTO VRB06KT 25/10 A2982 680 38 2000 VRB/06 RMK AO1 SLP093 T02500100
54779K12N 12N20160422145509904/22/16 14:55:31  5-MIN K12N 221955Z AUTO 21007KT 25/09 A2982 680 37 2000 230/07 RMK AO1 T02500094
54779K12N 12N20160422150012104/22/16 15:00:31  5-MIN K12N 222000Z AUTO 23009G18KT 180V250 25/10 A2982 680 38 2000 240/09G18 190V260 RMK AO1 T02500100
54779K12N 12N20160422150510504/22/16 15:05:31  5-MIN K12N 222005Z AUTO 21009G18KT 25/10 A2982 680 38 2000 230/09G18 RMK AO1 T02500100
54779K12N 12N20160422151011504/22/16 15:10:31  5-MIN K12N 222010Z AUTO 23007KT 210V270 25/11 A2982 680 39 2000 240/07 220V280 RMK AO1 T02500106
54779K12N 12N20160422151511504/22/16 15:15:31  5-MIN K12N 222015Z AUTO 24008KT 200V290 25/11 A2982 680 39 2000 260/08 210V300 RMK AO1 T02500106
54779K12N 12N20160422152009904/22/16 15:20:31  5-MIN K12N 222020Z AUTO 24006KT 25/11 A2982 680 39 2000 250/06 RMK AO1 T02500106
54779K12N 12N20160422152511504/22/16 15:25:31  5-MIN K12N 222025Z AUTO 24008KT 210V280 26/11 A2982 680 38 2100 250/08 220V290 RMK AO1 T02560106
54779K12N 12N20160422153009904/22/16 15:30:31  5-MIN K12N 222030Z AUTO 21006KT 26/10 A2982 680 37 2100 220/06 RMK AO1 T02560100
54779K12N 12N20160422153509904/22/16 15:35:31  5-MIN K12N 222035Z AUTO 21009KT 25/10 A2982 680 38 2000 230/09 RMK AO1 T02500100
54779K12N 12N20160422154009904/22/16 15:40:31  5-MIN K12N 222040Z AUTO VRB06KT 25/10 A2982 680 38 2000 VRB/06 RMK AO1 T02500100
54779K12N 12N20160422154509904/22/16 15:45:31  5-MIN K12N 222045Z AUTO 20005KT 24/09 A2982 680 36 2000 220/05 RMK AO1 T02440089
54779K12N 12N20160422155012804/22/16 15:50:31  5-MIN K12N 222050Z AUTO 23007KT 190V280 24/08 A2982 680 34 2000 240/07 200V290 RMK AO1 SLP093 T02440078 58017
54779K12N 12N20160422155509904/22/16 15:55:31  5-MIN K12N 222055Z AUTO 22008KT 24/08 A2982 680 34 2000 230/08 RMK AO1 T02440078
54779K12N 12N20160422160009904/22/16 16:00:31  5-MIN K12N 222100Z AUTO 23005KT 24/08 A2982 680 35 2000 240/05 RMK AO1 T02440083
54779K12N 12N20160422160509904/22/16 16:05:31  5-MIN K12N 222105Z AUTO 23007KT 24/08 A2982 680 35 2000 240/07 RMK AO1 T02440083
54779K12N 12N20160422161009904/22/16 16:10:31  5-MIN K12N 222110Z AUTO 25006KT 24/08 A2982 680 35 2000 260/06 RMK AO1 T02440083
54779K12N 12N20160422161511504/22/16 16:15:31  5-MIN K12N 222115Z AUTO 24007KT 200V280 24/08 A2982 680 35 2000 260/07 210V290 RMK AO1 T02440083
54779K12N 12N20160422162010504/22/16 16:20:31  5-MIN K12N 222120Z AUTO VRB05G15KT 24/08 A2982 680 35 2000 VRB/05G15 RMK AO1 T02440083
54779K12N 12N20160422162510504/22/16 16:25:31  5-MIN K12N 222125Z AUTO VRB03G15KT 24/09 A2982 680 36 2000 VRB/03G15 RMK AO1 T02440089
54779K12N 12N20160422163011504/22/16 16:30:31  5-MIN K12N 222130Z AUTO 25009KT 220V310 24/09 A2982 670 38 2000 260/09 230V320 RMK AO1 T02440094
54779K12N 12N20160422163511504/22/16 16:35:31  5-MIN K12N 222135Z AUTO 23008KT 180V270 24/09 A2982 670 36 2000 240/08 190V280 RMK AO1 T02440089
54779K12N 12N20160422164009904/22/16 16:40:31  5-MIN K12N 222140Z AUTO 22008KT 24/09 A2982 670 39 1900 230/08 RMK AO1 T02390094
54779K12N 12N20160422164509904/22/16 16:45:31  5-MIN K12N 222145Z AUTO 23006KT 24/09 A2982 670 39 1900 240/06 RMK AO1 T02390094
54779K12N 12N20160422165010604/22/16 16:50:31  5-MIN K12N 222150Z AUTO 22007KT 24/10 A2982 670 41 1900 230/07 RMK AO1 SLP094 T02390100
54779K12N 12N20160422165511504/22/16 16:55:31  5-MIN K12N 222155Z AUTO 24007KT 200V290 24/10 A2982 670 41 1900 250/07 210V300 RMK AO1 T02390100
54779K12N 12N20160422170009904/22/16 17:00:31  5-MIN K12N 222200Z AUTO VRB06KT 24/10 A2982 680 41 1900 VRB/06 RMK AO1 T02390100
54779K12N 12N20160422170509904/22/16 17:05:31  5-MIN K12N 222205Z AUTO VRB05KT 24/10 A2982 680 41 1900 VRB/05 RMK AO1 T02390100
54779K12N 12N20160422171009904/22/16 17:10:31  5-MIN K12N 222210Z AUTO VRB05KT 24/10 A2982 680 41 1900 VRB/05 RMK AO1 T02390100
54779K12N 12N20160422171511504/22/16 17:15:31  5-MIN K12N 222215Z AUTO 24009KT 200V270 23/11 A2982 680 44 1800 250/09 210V280 RMK AO1 T02330106
54779K12N 12N20160422172009904/22/16 17:20:31  5-MIN K12N 222220Z AUTO VRB06KT 23/10 A2982 680 42 1800 VRB/06 RMK AO1 T02330100
54779K12N 12N20160422172509904/22/16 17:25:31  5-MIN K12N 222225Z AUTO VRB06KT 23/10 A2982 680 42 1800 VRB/06 RMK AO1 T02330100
54779K12N 12N20160422173011504/22/16 17:30:31  5-MIN K12N 222230Z AUTO 24007KT 200V280 23/11 A2982 680 44 1800 250/07 210V290 RMK AO1 T02330106
54779K12N 12N20160422173509904/22/16 17:35:31  5-MIN K12N 222235Z AUTO VRB06KT 23/10 A2982 680 42 1800 VRB/06 RMK AO1 T02330100
54779K12N 12N20160422174009904/22/16 17:40:31  5-MIN K12N 222240Z AUTO VRB04KT 23/10 A2982 680 42 1800 VRB/04 RMK AO1 T02330100
54779K12N 12N20160422174509904/22/16 17:45:31  5-MIN K12N 222245Z AUTO VRB05KT 23/10 A2982 680 44 1800 VRB/05 RMK AO1 T02280100
54779K12N 12N20160422175010604/22/16 17:50:31  5-MIN K12N 222250Z AUTO VRB05KT 23/11 A2982 680 45 1800 VRB/05 RMK AO1 SLP095 T02280106
54779K12N 12N20160422175509904/22/16 17:55:31  5-MIN K12N 222255Z AUTO 23004KT 23/11 A2982 680 45 1800 240/04 RMK AO1 T02280106
54779K12N 12N20160422180009904/22/16 18:00:31  5-MIN K12N 222300Z AUTO 23005KT 23/11 A2982 680 45 1800 250/05 RMK AO1 T02280106
54779K12N 12N20160422180509904/22/16 18:05:31  5-MIN K12N 222305Z AUTO 22004KT 23/11 A2982 670 45 1800 230/04 RMK AO1 T02280106
54779K12N 12N20160422181009904/22/16 18:10:31  5-MIN K12N 222310Z AUTO 21006KT 23/11 A2983 670 45 1800 230/06 RMK AO1 T02280106
54779K12N 12N20160422181509904/22/16 18:15:31  5-MIN K12N 222315Z AUTO VRB03KT 23/11 A2982 670 45 1800 VRB/03 RMK AO1 T02280106
54779K12N 12N20160422182009904/22/16 18:20:31  5-MIN K12N 222320Z AUTO 22004KT 22/11 A2983 670 47 1700 230/04 RMK AO1 T02220106
54779K12N 12N20160422182509904/22/16 18:25:31  5-MIN K12N 222325Z AUTO 22007KT 22/11 A2983 670 47 1700 230/07 RMK AO1 T02220106
54779K12N 12N20160422183009904/22/16 18:30:31  5-MIN K12N 222330Z AUTO 21006KT 22/11 A2983 670 49 1700 220/06 RMK AO1 T02220111
54779K12N 12N20160422183509904/22/16 18:35:31  5-MIN K12N 222335Z AUTO 21004KT 22/11 A2983 670 50 1600 220/04 RMK AO1 T02170111
54779K12N 12N20160422184009904/22/16 18:40:31  5-MIN K12N 222340Z AUTO VRB04KT 22/11 A2983 670 50 1600 VRB/04 RMK AO1 T02170111
54779K12N 12N20160422184509904/22/16 18:45:31  5-MIN K12N 222345Z AUTO 00000KT 21/12 A2982 670 54 1600 000/00 RMK AO1 T02110117
54779K12N 12N20160422185012404/22/16 18:50:31  5-MIN K12N 222350Z AUTO 00000KT 21/12 A2982 680 54 1600 000/00 RMK AO1 SLP094 T02110117 10267 20211 56013
54779K12N 12N20160422185509904/22/16 18:55:31  5-MIN K12N 222355Z AUTO 00000KT 21/12 A2982 680 54 1600 000/00 RMK AO1 T02110117
54779K12N 12N20160422190009904/22/16 19:00:31  5-MIN K12N 230000Z AUTO 20003KT 21/12 A2982 670 54 1600 210/03 RMK AO1 T02110117
54779K12N 12N20160422190509904/22/16 19:05:31  5-MIN K12N 230005Z AUTO 00000KT 21/12 A2983 670 54 1600 000/00 RMK AO1 T02110117
54779K12N 12N20160422191009904/22/16 19:10:31  5-MIN K12N 230010Z AUTO 00000KT 21/12 A2983 670 58 1500 000/00 RMK AO1 T02060122
54779K12N 12N20160422191509904/22/16 19:15:31  5-MIN K12N 230015Z AUTO 00000KT 21/12 A2983 670 58 1500 000/00 RMK AO1 T02060122
54779K12N 12N20160422192009904/22/16 19:20:31  5-MIN K12N 230020Z AUTO 00000KT 21/12 A2983 670 58 1500 000/00 RMK AO1 T02060122
54779K12N 12N20160422192509904/22/16 19:25:31  5-MIN K12N 230025Z AUTO 00000KT 21/12 A2983 670 58 1500 000/00 RMK AO1 T02060122
54779K12N 12N20160422193009904/22/16 19:30:31  5-MIN K12N 230030Z AUTO 00000KT 21/12 A2983 670 58 1500 000/00 RMK AO1 T02060122
54779K12N 12N20160422193509904/22/16 19:35:31  5-MIN K12N 230035Z AUTO 00000KT 20/13 A2983 670 63 1400 000/00 RMK AO1 T02000128
54779K12N 12N20160422194009904/22/16 19:40:31  5-MIN K12N 230040Z AUTO 00000KT 20/13 A2983 670 63 1400 000/00 RMK AO1 T02000128
54779K12N 12N20160422194509904/22/16 19:45:31  5-MIN K12N 230045Z AUTO 00000KT 20/12 A2983 670 60 1400 000/00 RMK AO1 T02000122
54779K12N 12N20160422195010604/22/16 19:50:31  5-MIN K12N 230050Z AUTO 00000KT 20/13 A2983 670 63 1400 000/00 RMK AO1 SLP097 T02000128
54779K12N 12N20160422195509904/22/16 19:55:31  5-MIN K12N 230055Z AUTO 00000KT 20/13 A2983 660 63 1400 000/00 RMK AO1 T02000128
54779K12N 12N20160422200009904/22/16 20:00:31  5-MIN K12N 230100Z AUTO 00000KT 19/13 A2984 660 70 1300 000/00 RMK AO1 T01890133
54779K12N 12N20160422200509904/22/16 20:05:31  5-MIN K12N 230105Z AUTO 00000KT 19/14 A2984 660 72 1300 000/00 RMK AO1 T01890139
54779K12N 12N20160422201009904/22/16 20:10:31  5-MIN K12N 230110Z AUTO 00000KT 19/14 A2984 660 75 1300 000/00 RMK AO1 T01890144
54779K12N 12N20160422201509904/22/16 20:15:31  5-MIN K12N 230115Z AUTO 00000KT 19/14 A2984 660 72 1300 000/00 RMK AO1 T01890139
54779K12N 12N20160422202009904/22/16 20:20:31  5-MIN K12N 230120Z AUTO 00000KT 19/14 A2984 660 72 1300 000/00 RMK AO1 T01890139
54779K12N 12N20160422202509904/22/16 20:25:31  5-MIN K12N 230125Z AUTO 00000KT 19/14 A2984 660 72 1300 000/00 RMK AO1 T01890139
54779K12N 12N20160422203009904/22/16 20:30:31  5-MIN K12N 230130Z AUTO 00000KT 18/14 A2984 660 78 1200 000/00 RMK AO1 T01830144
54779K12N 12N20160422203509904/22/16 20:35:31  5-MIN K12N 230135Z AUTO 00000KT 18/14 A2984 660 75 1200 000/00 RMK AO1 T01830139
54779K12N 12N20160422204009904/22/16 20:40:31  5-MIN K12N 230140Z AUTO 00000KT 19/14 A2984 660 75 1300 000/00 RMK AO1 T01890144
54779K12N 12N20160422204509904/22/16 20:45:31  5-MIN K12N 230145Z AUTO 00000KT 19/13 A2984 660 70 1300 000/00 RMK AO1 T01890133
54779K12N 12N20160422205010604/22/16 20:50:31  5-MIN K12N 230150Z AUTO 00000KT 19/13 A2984 660 65 1400 000/00 RMK AO1 SLP100 T01940128
54779K12N 12N20160422205509904/22/16 20:55:31  5-MIN K12N 230155Z AUTO 21003KT 19/13 A2984 660 67 1400 220/03 RMK AO1 T01940133
54779K12N 12N20160422210009904/22/16 21:00:31  5-MIN K12N 230200Z AUTO VRB03KT 19/13 A2984 660 67 1400 VRB/03 RMK AO1 T01940133
54779K12N 12N20160422210509904/22/16 21:05:31  5-MIN K12N 230205Z AUTO 20003KT 19/13 A2984 660 65 1400 210/03 RMK AO1 T01940128
54779K12N 12N20160422211009904/22/16 21:10:31  5-MIN K12N 230210Z AUTO 18003KT 19/12 A2984 660 62 1400 200/03 RMK AO1 T01940122
54779K12N 12N20160422211509904/22/16 21:15:31  5-MIN K12N 230215Z AUTO VRB03KT 19/13 A2984 660 65 1400 VRB/03 RMK AO1 T01940128
54779K12N 12N20160422212009904/22/16 21:20:31  5-MIN K12N 230220Z AUTO 00000KT 19/12 A2984 660 62 1400 000/00 RMK AO1 T01940122
54779K12N 12N20160422212509904/22/16 21:25:31  5-MIN K12N 230225Z AUTO 20003KT 19/13 A2984 660 65 1400 220/03 RMK AO1 T01940128
54779K12N 12N20160422213009904/22/16 21:30:31  5-MIN K12N 230230Z AUTO 20004KT 19/12 A2984 660 62 1400 210/04 RMK AO1 T01940122
54779K12N 12N20160422213509904/22/16 21:35:31  5-MIN K12N 230235Z AUTO 21004KT 19/12 A2983 660 62 1400 220/04 RMK AO1 T01940122
54779K12N 12N20160422214009904/22/16 21:40:31  5-MIN K12N 230240Z AUTO 21003KT 19/12 A2983 670 62 1400 220/03 RMK AO1 T01940122
54779K12N 12N20160422214509904/22/16 21:45:31  5-MIN K12N 230245Z AUTO VRB03KT 19/12 A2983 670 62 1400 VRB/03 RMK AO1 T01940122
54779K12N 12N20160422215011204/22/16 21:50:31  5-MIN K12N 230250Z AUTO 00000KT 19/12 A2983 670 62 1400 000/00 RMK AO1 SLP096 T01940122 51001
54779K12N 12N20160422215509904/22/16 21:55:31  5-MIN K12N 230255Z AUTO VRB03KT 19/12 A2983 670 62 1400 VRB/03 RMK AO1 T01940122
54779K12N 12N20160422220009904/22/16 22:00:31  5-MIN K12N 230300Z AUTO 00000KT 19/12 A2983 670 65 1300 000/00 RMK AO1 T01890122
54779K12N 12N20160422220509904/22/16 22:05:31  5-MIN K12N 230305Z AUTO 20003KT 19/12 A2983 670 65 1300 210/03 RMK AO1 T01890122
54779K12N 12N20160422221009904/22/16 22:10:31  5-MIN K12N 230310Z AUTO VRB03KT 19/12 A2983 670 65 1300 VRB/03 RMK AO1 T01890122
54779K12N 12N20160422221509904/22/16 22:15:31  5-MIN K12N 230315Z AUTO 21003KT 19/12 A2983 670 65 1300 230/03 RMK AO1 T01890122
54779K12N 12N20160422222009904/22/16 22:20:31  5-MIN K12N 230320Z AUTO VRB03KT 19/12 A2983 670 62 1400 VRB/03 RMK AO1 T01940122
54779K12N 12N20160422222509904/22/16 22:25:31  5-MIN K12N 230325Z AUTO 00000KT 19/12 A2983 670 62 1400 000/00 RMK AO1 T01940122
54779K12N 12N20160422223009904/22/16 22:30:31  5-MIN K12N 230330Z AUTO 18003KT 19/12 A2983 670 65 1300 200/03 RMK AO1 T01890122
54779K12N 12N20160422223509904/22/16 22:35:31  5-MIN K12N 230335Z AUTO 18003KT 19/13 A2983 670 67 1300 200/03 RMK AO1 T01890128
54779K12N 12N20160422224010504/22/16 22:40:31  5-MIN K12N 230340Z AUTO 00000KT 18/13 A2983 670 70 1300 000/00 RMK AO1 P0001 T01830128
54779K12N 12N20160422224510504/22/16 22:45:31  5-MIN K12N 230345Z AUTO VRB03KT 18/13 A2982 670 72 1200 VRB/03 RMK AO1 P0001 T01780128
54779K12N 12N20160422225011204/22/16 22:50:31  5-MIN K12N 230350Z AUTO 00000KT 18/13 A2982 680 72 1200 000/00 RMK AO1 SLP093 P0001 T01780128
54779K12N 12N20160422225509904/22/16 22:55:31  5-MIN K12N 230355Z AUTO 00000KT 18/13 A2982 680 75 1200 000/00 RMK AO1 T01780133
54779K12N 12N20160422230009904/22/16 23:00:31  5-MIN K12N 230400Z AUTO 19003KT 18/13 A2982 680 75 1200 200/03 RMK AO1 T01780133
54779K12N 12N20160422230509904/22/16 23:05:31  5-MIN K12N 230405Z AUTO 19003KT 18/13 A2982 680 75 1200 200/03 RMK AO1 T01780133
54779K12N 12N20160422231009904/22/16 23:10:31  5-MIN K12N 230410Z AUTO 18003KT 18/13 A2982 680 75 1200 190/03 RMK AO1 T01780133
54779K12N 12N20160422231510504/22/16 23:15:31  5-MIN K12N 230415Z AUTO 00000KT 17/14 A2982 680 86 1100 000/00 RMK AO1 P0001 T01670144
54779K12N 12N20160422232010504/22/16 23:20:31  5-MIN K12N 230420Z AUTO 00000KT 17/14 A2982 680 86 1100 000/00 RMK AO1 P0002 T01670144
54779K12N 12N20160422232510504/22/16 23:25:31  5-MIN K12N 230425Z AUTO 00000KT 16/14 A2982 680 90 1000 000/00 RMK AO1 P0002 T01610144
54779K12N 12N20160422233010504/22/16 23:30:31  5-MIN K12N 230430Z AUTO 00000KT 16/15 A2982 680 93 1000 000/00 RMK AO1 P0002 T01610150
54779K12N 12N20160422233510504/22/16 23:35:31  5-MIN K12N 230435Z AUTO 00000KT 16/15 A2982 680 93 1000 000/00 RMK AO1 P0002 T01610150
54779K12N 12N20160422234010504/22/16 23:40:31  5-MIN K12N 230440Z AUTO 00000KT 16/15 A2982 680 93 1000 000/00 RMK AO1 P0002 T01610150
54779K12N 12N20160422234510504/22/16 23:45:31  5-MIN K12N 230445Z AUTO 00000KT 16/15 A2982 680 93 1000 000/00 RMK AO1 P0002 T01610150
54779K12N 12N20160422235012204/22/16 23:50:31  5-MIN K12N 230450Z AUTO 00000KT 16/15 A2981 680 93 1000 000/00 RMK AO1 SLP090 P0002 T01610150 402670117
54779K12N 12N20160422235509904/22/16 23:55:31  5-MIN K12N 230455Z AUTO 00000KT 16/15 A2981 680 93 1000 000/00 RMK AO1 T01610150
54779K12N 12N20160423000009904/23/16 00:00:31  5-MIN K12N 230500Z AUTO 00000KT 16/15 A2981 680 93 1000 000/00 RMK AO1 T01610150
54779K12N 12N20160423000509904/23/16 00:05:31  5-MIN K12N 230505Z AUTO 00000KT 16/15 A2981 690 93 1000 000/00 RMK AO1 T01610150
54779K12N 12N20160423001009904/23/16 00:10:31  5-MIN K12N 230510Z AUTO 00000KT 16/15 A2981 690 93 1000 000/00 RMK AO1 T01610150
54779K12N 12N20160423001509904/23/16 00:15:31  5-MIN K12N 230515Z AUTO 00000KT 16/15 A2981 690 93 1000 000/00 RMK AO1 T01610150
54779K12N 12N20160423002009904/23/16 00:20:31  5-MIN K12N 230520Z AUTO 00000KT 16/15 A2981 690 93 1000 000/00 RMK AO1 T01610150
54779K12N 12N20160423002509904/23/16 00:25:31  5-MIN K12N 230525Z AUTO 00000KT 16/15 A2981 690 93 1000 000/00 RMK AO1 T01610150
54779K12N 12N20160423003009904/23/16 00:30:31  5-MIN K12N 230530Z AUTO 00000KT 16/15 A2981 690 93 1000 000/00 RMK AO1 T01610150
54779K12N 12N20160423003509904/23/16 00:35:31  5-MIN K12N 230535Z AUTO 00000KT 16/16 A2981 690 96 1000 000/00 RMK AO1 T01610156
54779K12N 12N20160423004009904/23/16 00:40:31  5-MIN K12N 230540Z AUTO 00000KT 16/15 A2980 690 93 1000 000/00 RMK AO1 T01610150
54779K12N 12N20160423004509904/23/16 00:45:31  5-MIN K12N 230545Z AUTO 00000KT 16/15 A2980 690 93 1000 000/00 RMK AO1 T01610150
54779K12N 12N20160423005013004/23/16 00:50:31  5-MIN K12N 230550Z AUTO VRB03KT 17/14 A2980 690 86 1100 VRB/03 RMK AO1 SLP086 60003 T01670144 10211 20161 50003
54779K12N 12N20160423005509904/23/16 00:55:31  5-MIN K12N 230555Z AUTO VRB03KT 17/14 A2980 690 86 1100 VRB/03 RMK AO1 T01670144
54779K12N 12N20160423010009904/23/16 01:00:31  5-MIN K12N 230600Z AUTO 00000KT 17/14 A2980 690 86 1100 000/00 RMK AO1 T01670144
54779K12N 12N20160423010509904/23/16 01:05:31  5-MIN K12N 230605Z AUTO VRB04KT 17/14 A2980 690 86 1100 VRB/04 RMK AO1 T01670144
54779K12N 12N20160423011009904/23/16 01:10:31  5-MIN K12N 230610Z AUTO 21003KT 17/14 A2980 690 86 1100 220/03 RMK AO1 T01670144
54779K12N 12N20160423011509904/23/16 01:15:31  5-MIN K12N 230615Z AUTO 00000KT 17/14 A2980 690 86 1100 000/00 RMK AO1 T01670144
54779K12N 12N20160423012009904/23/16 01:20:31  5-MIN K12N 230620Z AUTO 21004KT 17/14 A2980 690 86 1100 220/04 RMK AO1 T01670144
54779K12N 12N20160423012509904/23/16 01:25:31  5-MIN K12N 230625Z AUTO VRB03KT 17/14 A2980 700 86 1100 VRB/03 RMK AO1 T01670144
54779K12N 12N20160423013009904/23/16 01:30:31  5-MIN K12N 230630Z AUTO VRB03KT 17/14 A2980 700 86 1100 VRB/03 RMK AO1 T01670144
54779K12N 12N20160423013509904/23/16 01:35:31  5-MIN K12N 230635Z AUTO VRB03KT 17/14 A2980 700 86 1100 VRB/03 RMK AO1 T01670144
54779K12N 12N20160423014009904/23/16 01:40:31  5-MIN K12N 230640Z AUTO VRB03KT 17/14 A2980 700 86 1100 VRB/03 RMK AO1 T01670144
54779K12N 12N20160423014509904/23/16 01:45:31  5-MIN K12N 230645Z AUTO 00000KT 16/14 A2979 700 90 1000 000/00 RMK AO1 T01610144
54779K12N 12N20160423015010604/23/16 01:50:31  5-MIN K12N 230650Z AUTO 00000KT 17/14 A2979 700 86 1100 000/00 RMK AO1 SLP082 T01670144
54779K12N 12N20160423015509904/23/16 01:55:31  5-MIN K12N 230655Z AUTO 19003KT 16/14 A2980 700 90 1000 210/03 RMK AO1 T01610144
54779K12N 12N20160423020009904/23/16 02:00:31  5-MIN K12N 230700Z AUTO 00000KT 16/14 A2980 700 90 1000 000/00 RMK AO1 T01610144
54779K12N 12N20160423020509904/23/16 02:05:31  5-MIN K12N 230705Z AUTO 00000KT 16/14 A2980 700 90 1000 000/00 RMK AO1 T01610144
54779K12N 12N20160423021009904/23/16 02:10:31  5-MIN K12N 230710Z AUTO 20003KT 16/14 A2980 700 90 1000 210/03 RMK AO1 T01610144
54779K12N 12N20160423021509904/23/16 02:15:31  5-MIN K12N 230715Z AUTO 00000KT 16/14 A2980 700 90 1000 000/00 RMK AO1 T01610144
54779K12N 12N20160423022009904/23/16 02:20:31  5-MIN K12N 230720Z AUTO 00000KT 16/14 A2980 700 90 1000 000/00 RMK AO1 T01610144
54779K12N 12N20160423022509904/23/16 02:25:31  5-MIN K12N 230725Z AUTO 00000KT 16/14 A2980 700 90 1000 000/00 RMK AO1 T01610144
54779K12N 12N20160423023009904/23/16 02:30:31  5-MIN K12N 230730Z AUTO 00000KT 16/14 A2980 700 90 1000 000/00 RMK AO1 T01610144
54779K12N 12N20160423023509904/23/16 02:35:31  5-MIN K12N 230735Z AUTO 00000KT 16/14 A2980 700 90 1000 000/00 RMK AO1 T01610144
54779K12N 12N20160423024009904/23/16 02:40:31  5-MIN K12N 230740Z AUTO 00000KT 16/14 A2980 700 90 1000 000/00 RMK AO1 T01610144
54779K12N 12N20160423024509904/23/16 02:45:31  5-MIN K12N 230745Z AUTO 00000KT 16/14 A2980 700 90 1000 000/00 RMK AO1 T01610144
54779K12N 12N20160423025010604/23/16 02:50:31  5-MIN K12N 230750Z AUTO 00000KT 16/14 A2980 700 90 1000 000/00 RMK AO1 SLP084 T01610144
54779K12N 12N20160423025509904/23/16 02:55:31  5-MIN K12N 230755Z AUTO 00000KT 16/14 A2980 700 93 1000 000/00 RMK AO1 T01560144
54779K12N 12N20160423030009904/23/16 03:00:31  5-MIN K12N 230800Z AUTO 00000KT 16/14 A2980 700 93 1000 000/00 RMK AO1 T01560144
54779K12N 12N20160423030509904/23/16 03:05:31  5-MIN K12N 230805Z AUTO 34003KT 16/14 A2980 700 90 1000 360/03 RMK AO1 T01560139
54779K12N 12N20160423031010504/23/16 03:10:31  5-MIN K12N 230810Z AUTO 35003KT 16/13 A2980 700 80 1000 360/03 RMK AO1 P0001 T01610128
54779K12N 12N20160423031510504/23/16 03:15:31  5-MIN K12N 230815Z AUTO 34004KT 16/12 A2980 700 77 1000 360/04 RMK AO1 P0001 T01610122
54779K12N 12N20160423032010504/23/16 03:20:31  5-MIN K12N 230820Z AUTO 35004KT 16/12 A2980 700 80 1000 360/04 RMK AO1 P0001 T01560122
54779K12N 12N20160423032510504/23/16 03:25:31  5-MIN K12N 230825Z AUTO 36004KT 16/12 A2980 700 80 1000 010/04 RMK AO1 P0001 T01560122
54779K12N 12N20160423033010504/23/16 03:30:31  5-MIN K12N 230830Z AUTO VRB05KT 16/12 A2979 700 80 1000 VRB/05 RMK AO1 P0001 T01560122
54779K12N 12N20160423033510504/23/16 03:35:31  5-MIN K12N 230835Z AUTO 01004KT 16/12 A2979 700 80 1000 020/04 RMK AO1 P0001 T01560122
54779K12N 12N20160423034010504/23/16 03:40:31  5-MIN K12N 230840Z AUTO VRB06KT 16/12 A2979 700 80 1000 VRB/06 RMK AO1 P0001 T01560122
54779K12N 12N20160423034510504/23/16 03:45:31  5-MIN K12N 230845Z AUTO VRB05KT 16/12 A2979 700 80 1000 VRB/05 RMK AO1 P0001 T01560122
54779K12N 12N20160423035012304/23/16 03:50:31  5-MIN K12N 230850Z AUTO VRB03KT 15/12 A2979 710 83 900 VRB/03 RMK AO1 SLP082 P0001 60001 T01500122 57010
54779K12N 12N20160423035509804/23/16 03:55:31  5-MIN K12N 230855Z AUTO VRB04KT 15/13 A2979 710 86 900 VRB/04 RMK AO1 T01500128
54779K12N 12N20160423040009804/23/16 04:00:31  5-MIN K12N 230900Z AUTO 00000KT 15/13 A2979 710 86 900 000/00 RMK AO1 T01500128
54779K12N 12N20160423040509804/23/16 04:05:31  5-MIN K12N 230905Z AUTO 00000KT 15/13 A2979 700 86 900 000/00 RMK AO1 T01500128
54779K12N 12N20160423041009804/23/16 04:10:31  5-MIN K12N 230910Z AUTO VRB03KT 15/13 A2980 700 86 900 VRB/03 RMK AO1 T01500128
54779K12N 12N20160423041509804/23/16 04:15:31  5-MIN K12N 230915Z AUTO VRB03KT 15/13 A2980 700 86 900 VRB/03 RMK AO1 T01500128
54779K12N 12N20160423042009804/23/16 04:20:31  5-MIN K12N 230920Z AUTO 00000KT 15/13 A2979 700 86 900 000/00 RMK AO1 T01500128
54779K12N 12N20160423042509804/23/16 04:25:31  5-MIN K12N 230925Z AUTO 00000KT 15/13 A2979 700 86 900 000/00 RMK AO1 T01500128
54779K12N 12N20160423043009804/23/16 04:30:31  5-MIN K12N 230930Z AUTO 00000KT 15/13 A2979 700 86 900 000/00 RMK AO1 T01500128
54779K12N 12N20160423043509804/23/16 04:35:31  5-MIN K12N 230935Z AUTO 00000KT 15/13 A2980 700 86 900 000/00 RMK AO1 T01500128
54779K12N 12N20160423044009804/23/16 04:40:31  5-MIN K12N 230940Z AUTO VRB03KT 15/13 A2979 700 86 900 VRB/03 RMK AO1 T01500128
54779K12N 12N20160423044509804/23/16 04:45:31  5-MIN K12N 230945Z AUTO 00000KT 14/13 A2980 700 90 800 000/00 RMK AO1 T01440128
54779K12N 12N20160423045010504/23/16 04:50:31  5-MIN K12N 230950Z AUTO VRB03KT 14/13 A2979 700 90 800 VRB/03 RMK AO1 SLP084 T01440128
54779K12N 12N20160423045509804/23/16 04:55:31  5-MIN K12N 230955Z AUTO 04003KT 14/13 A2980 700 90 800 060/03 RMK AO1 T01440128
54779K12N 12N20160423050009804/23/16 05:00:31  5-MIN K12N 231000Z AUTO 04003KT 14/13 A2980 700 90 800 050/03 RMK AO1 T01440128
54779K12N 12N20160423050509804/23/16 05:05:31  5-MIN K12N 231005Z AUTO 04003KT 14/13 A2980 700 90 800 050/03 RMK AO1 T01440128
54779K12N 12N20160423051009804/23/16 05:10:31  5-MIN K12N 231010Z AUTO 00000KT 14/13 A2980 700 90 800 000/00 RMK AO1 T01440128
54779K12N 12N20160423051509804/23/16 05:15:31  5-MIN K12N 231015Z AUTO 00000KT 14/13 A2980 690 90 800 000/00 RMK AO1 T01440128
54779K12N 12N20160423052009804/23/16 05:20:31  5-MIN K12N 231020Z AUTO 00000KT 14/13 A2981 690 90 800 000/00 RMK AO1 T01440128
54779K12N 12N20160423052510404/23/16 05:25:31  5-MIN K12N 231025Z AUTO 00000KT 14/13 A2981 690 90 800 000/00 RMK AO1 P0001 T01440128
54779K12N 12N20160423053010404/23/16 05:30:31  5-MIN K12N 231030Z AUTO VRB03KT 14/13 A2981 690 90 800 VRB/03 RMK AO1 P0001 T01440128
54779K12N 12N20160423053510404/23/16 05:35:31  5-MIN K12N 231035Z AUTO 00000KT 14/13 A2981 690 90 800 000/00 RMK AO1 P0001 T01440128
54779K12N 12N20160423054010404/23/16 05:40:31  5-MIN K12N 231040Z AUTO 00000KT 14/13 A2981 680 90 800 000/00 RMK AO1 P0001 T01440128
54779K12N 12N20160423054510404/23/16 05:45:31  5-MIN K12N 231045Z AUTO 00000KT 14/13 A2982 680 90 800 000/00 RMK AO1 P0001 T01440128
54779K12N 12N20160423055011104/23/16 05:50:31  5-MIN K12N 231050Z AUTO 00000KT 14/13 A2982 680 90 800 000/00 RMK AO1 SLP092 P0002 T01440128
54779K12N 12N20160423055509804/23/16 05:55:31  5-MIN K12N 231055Z AUTO 00000KT 14/13 A2982 680 90 800 000/00 RMK AO1 T01440128
54779K12N 12N20160423060009804/23/16 06:00:31  5-MIN K12N 231100Z AUTO 00000KT 14/13 A2983 670 93 800 000/00 RMK AO1 T01440133
54779K12N 12N20160423060510404/23/16 06:05:31  5-MIN K12N 231105Z AUTO 00000KT 14/13 A2983 670 93 800 000/00 RMK AO1 P0001 T01440133
54779K12N 12N20160423061010404/23/16 06:10:31  5-MIN K12N 231110Z AUTO 00000KT 14/13 A2983 670 96 700 000/00 RMK AO1 P0002 T01390133
54779K12N 12N20160423061510404/23/16 06:15:31  5-MIN K12N 231115Z AUTO 00000KT 14/13 A2983 670 93 800 000/00 RMK AO1 P0002 T01440133
54779K12N 12N20160423062010404/23/16 06:20:31  5-MIN K12N 231120Z AUTO 00000KT 14/13 A2983 670 93 800 000/00 RMK AO1 P0002 T01440133
54779K12N 12N20160423062510404/23/16 06:25:31  5-MIN K12N 231125Z AUTO 00000KT 14/13 A2983 670 93 800 000/00 RMK AO1 P0002 T01440133
54779K12N 12N20160423063010404/23/16 06:30:31  5-MIN K12N 231130Z AUTO 00000KT 14/13 A2983 670 93 800 000/00 RMK AO1 P0002 T01440133
54779K12N 12N20160423063510404/23/16 06:35:31  5-MIN K12N 231135Z AUTO 00000KT 14/13 A2983 670 90 800 000/00 RMK AO1 P0002 T01440128
54779K12N 12N20160423064010404/23/16 06:40:31  5-MIN K12N 231140Z AUTO 00000KT 14/13 A2983 670 90 800 000/00 RMK AO1 P0002 T01440128
54779K12N 12N20160423064510404/23/16 06:45:31  5-MIN K12N 231145Z AUTO 36003KT 14/13 A2983 670 90 800 010/03 RMK AO1 P0002 T01440128
54779K12N 12N20160423065014104/23/16 06:50:31  5-MIN K12N 231150Z AUTO 36004KT 14/13 A2983 670 90 800 010/04 RMK AO1 SLP099 P0002 60005 70008 T01440128 10167 20139 58005
54779K12N 12N20160423065509804/23/16 06:55:31  5-MIN K12N 231155Z AUTO 01003KT 14/13 A2983 660 90 800 020/03 RMK AO1 T01440128
54779K12N 12N20160423070009804/23/16 07:00:31  5-MIN K12N 231200Z AUTO 01003KT 14/13 A2984 660 90 800 020/03 RMK AO1 T01440128
54779K12N 12N20160423070509804/23/16 07:05:31  5-MIN K12N 231205Z AUTO 36004KT 14/13 A2984 660 90 800 020/04 RMK AO1 T01440128
54779K12N 12N20160423071009804/23/16 07:10:31  5-MIN K12N 231210Z AUTO VRB04KT 14/12 A2984 660 86 800 VRB/04 RMK AO1 T01440122
54779K12N 12N20160423071509804/23/16 07:15:31  5-MIN K12N 231215Z AUTO VRB04KT 14/12 A2984 660 86 800 VRB/04 RMK AO1 T01440122
54779K12N 12N20160423072009804/23/16 07:20:31  5-MIN K12N 231220Z AUTO 36005KT 15/12 A2984 660 80 900 020/05 RMK AO1 T01500117
54779K12N 12N20160423072509804/23/16 07:25:31  5-MIN K12N 231225Z AUTO VRB04KT 15/12 A2984 660 80 900 VRB/04 RMK AO1 T01500117
54779K12N 12N20160423073009804/23/16 07:30:31  5-MIN K12N 231230Z AUTO VRB04KT 15/12 A2984 660 80 900 VRB/04 RMK AO1 T01500117
54779K12N 12N20160423073509804/23/16 07:35:31  5-MIN K12N 231235Z AUTO 35005KT 15/12 A2984 660 80 900 010/05 RMK AO1 T01500117
54779K12N 12N20160423074009804/23/16 07:40:31  5-MIN K12N 231240Z AUTO 36004KT 15/11 A2984 660 77 900 020/04 RMK AO1 T01500111
54779K12N 12N20160423074509804/23/16 07:45:31  5-MIN K12N 231245Z AUTO VRB03KT 15/11 A2984 660 77 800 VRB/03 RMK AO1 T01500111
54779K12N 12N20160423075010504/23/16 07:50:31  5-MIN K12N 231250Z AUTO 36006KT 15/11 A2984 660 77 800 010/06 RMK AO1 SLP102 T01500111
54779K12N 12N20160423075509804/23/16 07:55:31  5-MIN K12N 231255Z AUTO VRB05KT 15/11 A2984 660 77 800 VRB/05 RMK AO1 T01500111
54779K12N 12N20160423080009804/23/16 08:00:31  5-MIN K12N 231300Z AUTO 36005KT 16/11 A2985 650 72 900 010/05 RMK AO1 T01560106
54779K12N 12N20160423080509804/23/16 08:05:31  5-MIN K12N 231305Z AUTO VRB05KT 16/11 A2985 650 72 900 VRB/05 RMK AO1 T01560106
54779K12N 12N20160423081009804/23/16 08:10:31  5-MIN K12N 231310Z AUTO 36005KT 16/11 A2985 650 72 900 010/05 RMK AO1 T01560106
54779K12N 12N20160423081509804/23/16 08:15:31  5-MIN K12N 231315Z AUTO 36004KT 16/11 A2985 650 72 900 010/04 RMK AO1 T01560106
54779K12N 12N20160423082009804/23/16 08:20:31  5-MIN K12N 231320Z AUTO 35006KT 16/11 A2985 650 72 900 360/06 RMK AO1 T01560106
54779K12N 12N20160423082511404/23/16 08:25:31  5-MIN K12N 231325Z AUTO 01008KT 340V050 16/10 A2985 650 69 900 030/08 350V060 RMK AO1 T01560100
54779K12N 12N20160423083011404/23/16 08:30:31  5-MIN K12N 231330Z AUTO 36008KT 330V050 16/09 A2986 650 67 900 010/08 340V060 RMK AO1 T01560094
54779K12N 12N20160423083509804/23/16 08:35:31  5-MIN K12N 231335Z AUTO 01008KT 16/09 A2986 640 67 900 030/08 RMK AO1 T01560094
54779K12N 12N20160423084011404/23/16 08:40:31  5-MIN K12N 231340Z AUTO 01007KT 350V060 16/09 A2986 640 67 900 020/07 360V070 RMK AO1 T01560094
54779K12N 12N20160423084510404/23/16 08:45:31  5-MIN K12N 231345Z AUTO 35007G17KT 16/09 A2986 640 67 900 010/07G17 RMK AO1 T01560094
54779K12N 12N20160423085012704/23/16 08:50:31  5-MIN K12N 231350Z AUTO 35009G17KT 330V030 16/09 A2987 640 67 900 360/09G17 340V040 RMK AO1 SLP110 T01560094
54779K12N 12N20160423085509804/23/16 08:55:31  5-MIN K12N 231355Z AUTO 35008KT 15/09 A2987 630 66 800 010/08 RMK AO1 T01500089
54779K12N 12N20160423090009804/23/16 09:00:31  5-MIN K12N 231400Z AUTO 35009KT 15/09 A2987 630 66 800 010/09 RMK AO1 T01500089
54779K12N 12N20160423090512004/23/16 09:05:31  5-MIN K12N 231405Z AUTO 36010G17KT 330V040 14/09 A2988 630 69 700 010/10G17 340V050 RMK AO1 T01440089
54779K12N 12N20160423091010404/23/16 09:10:31  5-MIN K12N 231410Z AUTO 35008G17KT 14/09 A2988 620 69 700 010/08G17 RMK AO1 T01440089
54779K12N 12N20160423091510404/23/16 09:15:31  5-MIN K12N 231415Z AUTO 01008G16KT 14/09 A2988 620 69 700 020/08G16 RMK AO1 T01440089
54779K12N 12N20160423092011404/23/16 09:20:31  5-MIN K12N 231420Z AUTO 36007KT 310V030 14/09 A2988 620 69 700 010/07 320V040 RMK AO1 T01440089
54779K12N 12N20160423092510404/23/16 09:25:31  5-MIN K12N 231425Z AUTO 35007G14KT 14/09 A2988 620 69 700 010/07G14 RMK AO1 T01440089
54779K12N 12N20160423093010404/23/16 09:30:31  5-MIN K12N 231430Z AUTO 36008G14KT 14/09 A2988 620 69 700 020/08G14 RMK AO1 T01440089
54779K12N 12N20160423093512004/23/16 09:35:31  5-MIN K12N 231435Z AUTO 02008G16KT 350V050 14/08 A2988 620 66 700 030/08G16 360V060 RMK AO1 T01440083
54779K12N 12N20160423094012004/23/16 09:40:31  5-MIN K12N 231440Z AUTO 01009G16KT 330V050 14/08 A2989 620 66 700 020/09G16 340V060 RMK AO1 T01440083
54779K12N 12N20160423094510404/23/16 09:45:31  5-MIN K12N 231445Z AUTO 36010G17KT 14/08 A2989 620 66 700 020/10G17 RMK AO1 T01440083
54779K12N 12N20160423095011704/23/16 09:50:31  5-MIN K12N 231450Z AUTO VRB06G17KT 14/08 A2989 620 66 700 VRB/06G17 RMK AO1 SLP117 T01440083 53016
54779K12N 12N20160423095509804/23/16 09:55:31  5-MIN K12N 231455Z AUTO VRB06KT 14/08 A2989 620 66 700 VRB/06 RMK AO1 T01440083
54779K12N 12N20160423100009804/23/16 10:00:31  5-MIN K12N 231500Z AUTO VRB04KT 14/08 A2989 610 66 700 VRB/04 RMK AO1 T01440083
54779K12N 12N20160423100509804/23/16 10:05:31  5-MIN K12N 231505Z AUTO VRB05KT 14/08 A2989 610 66 700 VRB/05 RMK AO1 T01440083
54779K12N 12N20160423101012004/23/16 10:10:31  5-MIN K12N 231510Z AUTO 36007G14KT 300V040 14/08 A2989 610 66 700 010/07G14 310V050 RMK AO1 T01440083
54779K12N 12N20160423101510404/23/16 10:15:31  5-MIN K12N 231515Z AUTO 36009G18KT 14/08 A2989 610 66 700 020/09G18 RMK AO1 T01390078
54779K12N 12N20160423102010404/23/16 10:20:31  5-MIN K12N 231520Z AUTO 35009G18KT 14/08 A2989 610 66 700 360/09G18 RMK AO1 T01390078
54779K12N 12N20160423102512004/23/16 10:25:31  5-MIN K12N 231525Z AUTO 34007G18KT 300V010 14/07 A2989 610 64 700 350/07G18 310V020 RMK AO1 T01390072
54779K12N 12N20160423103012004/23/16 10:30:31  5-MIN K12N 231530Z AUTO 02009G18KT 340V040 14/08 A2989 610 64 700 030/09G18 350V050 RMK AO1 T01440078
54779K12N 12N20160423103511404/23/16 10:35:31  5-MIN K12N 231535Z AUTO 36007KT 320V040 15/08 A2989 620 62 800 010/07 330V050 RMK AO1 T01500078
54779K12N 12N20160423104010404/23/16 10:40:31  5-MIN K12N 231540Z AUTO 35010G19KT 16/08 A2988 620 59 900 360/10G19 RMK AO1 T01560078
54779K12N 12N20160423104512004/23/16 10:45:31  5-MIN K12N 231545Z AUTO 02007G19KT 340V060 16/08 A2988 620 57 900 030/07G19 350V070 RMK AO1 T01610078
54779K12N 12N20160423105012104/23/16 10:50:31  5-MIN K12N 231550Z AUTO 01007KT 320V050 16/07 A2988 620 55 900 020/07 330V060 RMK AO1 SLP114 T01610072
54779K12N 12N20160423105509904/23/16 10:55:31  5-MIN K12N 231555Z AUTO VRB06KT 17/08 A2988 630 55 1000 VRB/06 RMK AO1 T01670078
54779K12N 12N20160423110010404/23/16 11:00:31  5-MIN K12N 231600Z AUTO 36010G16KT 16/07 A2988 630 55 900 010/10G16 RMK AO1 T01610072
54779K12N 12N20160423110512004/23/16 11:05:31  5-MIN K12N 231605Z AUTO 36007G16KT 330V040 16/07 A2987 630 53 900 010/07G16 340V050 RMK AO1 T01610067
54779K12N 12N20160423111012104/23/16 11:10:31  5-MIN K12N 231610Z AUTO 35010G16KT 330V040 17/07 A2987 630 49 1100 010/10G16 340V050 RMK AO1 T01720067
54779K12N 12N20160423111510504/23/16 11:15:31  5-MIN K12N 231615Z AUTO 36007G15KT 18/07 A2987 630 49 1100 010/07G15 RMK AO1 T01780072
54779K12N 12N20160423112009904/23/16 11:20:31  5-MIN K12N 231620Z AUTO VRB05KT 18/08 A2987 630 50 1200 VRB/05 RMK AO1 T01830078
54779K12N 12N20160423112509904/23/16 11:25:31  5-MIN K12N 231625Z AUTO VRB05KT 18/07 A2987 640 49 1100 VRB/05 RMK AO1 T01780072
54779K12N 12N20160423113011504/23/16 11:30:31  5-MIN K12N 231630Z AUTO 36008KT 320V050 18/07 A2986 640 48 1200 010/08 330V060 RMK AO1 T01830072
54779K12N 12N20160423113510504/23/16 11:35:31  5-MIN K12N 231635Z AUTO 01008G19KT 18/07 A2986 640 46 1200 020/08G19 RMK AO1 T01830067
54779K12N 12N20160423114010504/23/16 11:40:31  5-MIN K12N 231640Z AUTO 03008G19KT 18/07 A2986 640 48 1200 040/08G19 RMK AO1 T01830072
54779K12N 12N20160423114512104/23/16 11:45:31  5-MIN K12N 231645Z AUTO 36009G20KT 320V040 18/07 A2986 640 48 1200 010/09G20 330V050 RMK AO1 T01780067
54779K12N 12N20160423115012804/23/16 11:50:31  5-MIN K12N 231650Z AUTO 01008G20KT 340V050 18/07 A2986 640 46 1200 030/08G20 350V060 RMK AO1 SLP108 T01830067
54779K12N 12N20160423115512104/23/16 11:55:31  5-MIN K12N 231655Z AUTO 36008G17KT 320V030 18/07 A2986 640 46 1200 020/08G17 330V040 RMK AO1 T01830067
54779K12N 12N20160423120010504/23/16 12:00:31  5-MIN K12N 231700Z AUTO 34010G17KT 18/07 A2986 640 46 1200 360/10G17 RMK AO1 T01830067
54779K12N 12N20160423120512104/23/16 12:05:31  5-MIN K12N 231705Z AUTO 36013G21KT 340V040 18/06 A2986 640 46 1200 010/13G21 350V050 RMK AO1 T01780061
54779K12N 12N20160423121012104/23/16 12:10:31  5-MIN K12N 231710Z AUTO 33010G21KT 290V010 18/06 A2987 640 46 1100 350/10G21 300V020 RMK AO1 T01780061
54779K12N 12N20160423121512104/23/16 12:15:31  5-MIN K12N 231715Z AUTO 36007G17KT 330V030 18/07 A2987 630 48 1100 010/07G17 340V040 RMK AO1 T01780067
54779K12N 12N20160423122010504/23/16 12:20:31  5-MIN K12N 231720Z AUTO 35010G19KT 17/06 A2987 630 47 1100 360/10G19 RMK AO1 T01720061
54779K12N 12N20160423122512104/23/16 12:25:31  5-MIN K12N 231725Z AUTO 33008G19KT 290V020 18/07 A2987 630 48 1100 350/08G19 300V030 RMK AO1 T01780067
54779K12N 12N20160423123012104/23/16 12:30:31  5-MIN K12N 231730Z AUTO 01008G18KT 350V050 18/06 A2986 640 46 1200 020/08G18 360V060 RMK AO1 T01780061
54779K12N 12N20160423123510504/23/16 12:35:31  5-MIN K12N 231735Z AUTO 02011G18KT 18/06 A2986 640 46 1200 040/11G18 RMK AO1 T01780061
54779K12N 12N20160423124012104/23/16 12:40:31  5-MIN K12N 231740Z AUTO 01007G16KT 330V050 18/06 A2987 630 46 1100 030/07G16 340V060 RMK AO1 T01780061
54779K12N 12N20160423124510504/23/16 12:45:31  5-MIN K12N 231745Z AUTO 35009G18KT 18/06 A2987 630 46 1100 010/09G18 RMK AO1 T01780061
54779K12N 12N20160423125013004/23/16 12:50:31  5-MIN K12N 231750Z AUTO 34009G18KT 18/06 A2987 630 44 1100 360/09G18 RMK AO1 SLP110 T01780056 10183 20139 53018
54779K12N 12N20160423125510504/23/16 12:55:31  5-MIN K12N 231755Z AUTO 36012G19KT 18/06 A2987 630 44 1100 010/12G19 RMK AO1 T01780056
54779K12N 12N20160423130010504/23/16 13:00:31  5-MIN K12N 231800Z AUTO 36012G19KT 17/04 A2987 630 42 1100 010/12G19 RMK AO1 T01720044
54779K12N 12N20160423130510504/23/16 13:05:31  5-MIN K12N 231805Z AUTO 36008G19KT 17/04 A2987 630 41 1100 010/08G19 RMK AO1 T01720039
54779K12N 12N20160423131010504/23/16 13:10:31  5-MIN K12N 231810Z AUTO VRB06G20KT 18/04 A2987 630 41 1100 VRB/06G20 RMK AO1 T01780044
54779K12N 12N20160423131510504/23/16 13:15:31  5-MIN K12N 231815Z AUTO 35008G20KT 18/05 A2987 630 41 1200 360/08G20 RMK AO1 T01830050
54779K12N 12N20160423132011504/23/16 13:20:31  5-MIN K12N 231820Z AUTO 32008KT 270V350 18/05 A2987 640 41 1200 330/08 280V360 RMK AO1 T01830050
54779K12N 12N20160423132512104/23/16 13:25:31  5-MIN K12N 231825Z AUTO 36009G17KT 320V040 18/05 A2987 640 41 1200 010/09G17 330V050 RMK AO1 T01830050
54779K12N 12N20160423133010504/23/16 13:30:31  5-MIN K12N 231830Z AUTO 31011G18KT 18/05 A2986 640 42 1200 320/11G18 RMK AO1 T01780050
54779K12N 12N20160423133510504/23/16 13:35:31  5-MIN K12N 231835Z AUTO 34008G20KT 18/04 A2986 640 41 1200 350/08G20 RMK AO1 T01780044
54779K12N 12N20160423134012104/23/16 13:40:31  5-MIN K12N 231840Z AUTO 32007G20KT 250V350 17/04 A2986 640 42 1100 330/07G20 260V360 RMK AO1 T01720044
54779K12N 12N20160423134510504/23/16 13:45:31  5-MIN K12N 231845Z AUTO 34012G18KT 18/04 A2986 640 41 1200 350/12G18 RMK AO1 T01780044
54779K12N 12N20160423135011204/23/16 13:50:31  5-MIN K12N 231850Z AUTO 02009G18KT 17/04 A2986 640 42 1100 030/09G18 RMK AO1 SLP108 T01720044
54779K12N 12N20160423135512104/23/16 13:55:31  5-MIN K12N 231855Z AUTO 34009G19KT 310V030 18/04 A2986 640 41 1200 350/09G19 320V040 RMK AO1 T01780044
54779K12N 12N20160423140012104/23/16 14:00:31  5-MIN K12N 231900Z AUTO 34007G19KT 290V030 18/04 A2986 640 39 1200 360/07G19 300V040 RMK AO1 T01780039
54779K12N 12N20160423140512104/23/16 14:05:31  5-MIN K12N 231905Z AUTO 34010G19KT 290V010 18/04 A2986 640 39 1200 350/10G19 300V020 RMK AO1 T01780039
54779K12N 12N20160423141012104/23/16 14:10:31  5-MIN K12N 231910Z AUTO 35009G17KT 290V030 18/04 A2986 640 39 1200 360/09G17 300V040 RMK AO1 T01780039
54779K12N 12N20160423141512104/23/16 14:15:31  5-MIN K12N 231915Z AUTO 33010G18KT 270V020 18/03 A2987 640 38 1200 350/10G18 280V030 RMK AO1 T01780033
54779K12N 12N20160423142012104/23/16 14:20:31  5-MIN K12N 231920Z AUTO 34008G18KT 290V010 17/03 A2986 640 39 1100 350/08G18 300V020 RMK AO1 T01720033
54779K12N 12N20160423142510504/23/16 14:25:31  5-MIN K12N 231925Z AUTO 34008G14KT 18/04 A2986 640 39 1200 360/08G14 RMK AO1 T01780039
54779K12N 12N20160423143012104/23/16 14:30:31  5-MIN K12N 231930Z AUTO 33007G15KT 300V020 18/03 A2986 640 38 1200 340/07G15 310V030 RMK AO1 T01780033
54779K12N 12N20160423143510504/23/16 14:35:31  5-MIN K12N 231935Z AUTO 35011G18KT 18/03 A2987 640 36 1100 010/11G18 RMK AO1 T01780028
54779K12N 12N20160423144012104/23/16 14:40:31  5-MIN K12N 231940Z AUTO 35009G18KT 320V030 17/03 A2986 640 37 1100 360/09G18 330V040 RMK AO1 T01720028
54779K12N 12N20160423144512104/23/16 14:45:31  5-MIN K12N 231945Z AUTO 35009G17KT 310V030 17/03 A2986 640 37 1100 360/09G17 320V040 RMK AO1 T01720028
54779K12N 12N20160423145012804/23/16 14:50:31  5-MIN K12N 231950Z AUTO 36008G16KT 330V030 18/03 A2986 640 36 1200 010/08G16 340V040 RMK AO1 SLP108 T01780028
54779K12N 12N20160423145512104/23/16 14:55:31  5-MIN K12N 231955Z AUTO 02009G16KT 330V050 18/03 A2986 640 36 1200 030/09G16 340V060 RMK AO1 T01780028
54779K12N 12N20160423150012104/23/16 15:00:31  5-MIN K12N 232000Z AUTO 01008G23KT 340V050 17/02 A2986 640 36 1100 020/08G23 350V060 RMK AO1 T01720022
54779K12N 12N20160423150512104/23/16 15:05:31  5-MIN K12N 232005Z AUTO 01007G23KT 340V050 17/02 A2986 640 36 1100 020/07G23 350V060 RMK AO1 T01720022
54779K12N 12N20160423151012104/23/16 15:10:31  5-MIN K12N 232010Z AUTO 34008G17KT 290V020 17/03 A2986 640 37 1100 350/08G17 300V030 RMK AO1 T01720028
54779K12N 12N20160423151512104/23/16 15:15:31  5-MIN K12N 232015Z AUTO 34008G15KT 280V040 17/02 A2986 640 36 1100 350/08G15 290V050 RMK AO1 T01720022
54779K12N 12N20160423152010504/23/16 15:20:31  5-MIN K12N 232020Z AUTO 36008G14KT 18/03 A2986 640 38 1200 010/08G14 RMK AO1 T01780033
54779K12N 12N20160423152511504/23/16 15:25:31  5-MIN K12N 232025Z AUTO 01008KT 340V040 17/03 A2986 640 37 1100 020/08 350V050 RMK AO1 T01720028
54779K12N 12N20160423153010504/23/16 15:30:31  5-MIN K12N 232030Z AUTO VRB06G14KT 17/02 A2986 640 36 1100 VRB/06G14 RMK AO1 T01720022
54779K12N 12N20160423153511504/23/16 15:35:31  5-MIN K12N 232035Z AUTO 01008KT 320V050 18/03 A2986 640 38 1200 030/08 330V060 RMK AO1 T01780033
54779K12N 12N20160423154012104/23/16 15:40:31  5-MIN K12N 232040Z AUTO 36009G20KT 310V040 17/02 A2987 640 36 1100 010/09G20 320V050 RMK AO1 T01720022
54779K12N 12N20160423154512104/23/16 15:45:31  5-MIN K12N 232045Z AUTO 35008G20KT 320V030 17/02 A2987 630 35 1100 360/08G20 330V040 RMK AO1 T01720017
54779K12N 12N20160423155013404/23/16 15:50:31  5-MIN K12N 232050Z AUTO 36009G19KT 290V060 17/02 A2987 640 36 1100 020/09G19 300V070 RMK AO1 SLP110 T01720022 55007
54779K12N 12N20160423155512104/23/16 15:55:31  5-MIN K12N 232055Z AUTO 36011G20KT 340V040 17/02 A2987 630 37 1000 010/11G20 350V050 RMK AO1 T01670022
54779K12N 12N20160423160012104/23/16 16:00:31  5-MIN K12N 232100Z AUTO 01008G20KT 340V060 17/02 A2987 630 37 1000 030/08G20 350V070 RMK AO1 T01670022
54779K12N 12N20160423160510504/23/16 16:05:31  5-MIN K12N 232105Z AUTO 35008G18KT 17/02 A2987 630 37 1000 360/08G18 RMK AO1 T01670022
54779K12N 12N20160423161012104/23/16 16:10:31  5-MIN K12N 232110Z AUTO 35011G17KT 330V030 17/02 A2988 630 37 1000 010/11G17 340V040 RMK AO1 T01670022
54779K12N 12N20160423161512004/23/16 16:15:31  5-MIN K12N 232115Z AUTO 33010G19KT 280V010 16/02 A2988 630 37 900 350/10G19 290V020 RMK AO1 T01610017
54779K12N 12N20160423162010404/23/16 16:20:31  5-MIN K12N 232120Z AUTO 35013G19KT 16/01 A2988 630 36 900 010/13G19 RMK AO1 T01610011
54779K12N 12N20160423162512104/23/16 16:25:31  5-MIN K12N 232125Z AUTO 01007G18KT 340V050 17/02 A2988 620 36 1000 030/07G18 350V060 RMK AO1 T01670017
54779K12N 12N20160423163010504/23/16 16:30:31  5-MIN K12N 232130Z AUTO 33006G15KT 17/02 A2988 620 36 1000 340/06G15 RMK AO1 T01670017
54779K12N 12N20160423163510504/23/16 16:35:31  5-MIN K12N 232135Z AUTO VRB05G15KT 17/02 A2988 620 36 1000 VRB/05G15 RMK AO1 T01670017
54779K12N 12N20160423164009904/23/16 16:40:31  5-MIN K12N 232140Z AUTO 35007KT 17/02 A2989 620 36 1000 360/07 RMK AO1 T01670017
54779K12N 12N20160423164509904/23/16 16:45:31  5-MIN K12N 232145Z AUTO 34007KT 17/02 A2989 620 36 1000 360/07 RMK AO1 T01670017
54779K12N 12N20160423165012704/23/16 16:50:31  5-MIN K12N 232150Z AUTO 02008G17KT 340V050 16/02 A2989 610 37 900 030/08G17 350V060 RMK AO1 SLP120 T01610017
54779K12N 12N20160423165510404/23/16 16:55:31  5-MIN K12N 232155Z AUTO VRB06G17KT 16/01 A2989 610 37 900 VRB/06G17 RMK AO1 T01560011
54779K12N 12N20160423170010404/23/16 17:00:31  5-MIN K12N 232200Z AUTO 34007G16KT 16/01 A2989 610 36 900 350/07G16 RMK AO1 T01610011
54779K12N 12N20160423170509804/23/16 17:05:31  5-MIN K12N 232205Z AUTO 35006KT 16/02 A2990 610 39 900 360/06 RMK AO1 T01560017
54779K12N 12N20160423171009804/23/16 17:10:31  5-MIN K12N 232210Z AUTO 36009KT 16/02 A2990 610 39 900 010/09 RMK AO1 T01560017
54779K12N 12N20160423171511404/23/16 17:15:31  5-MIN K12N 232215Z AUTO 01008KT 320V050 16/01 A2990 600 37 900 020/08 330V060 RMK AO1 T01560011
54779K12N 12N20160423172010404/23/16 17:20:31  5-MIN K12N 232220Z AUTO 35010G16KT 15/01 A2990 600 37 800 360/10G16 RMK AO1 T01500006
54779K12N 12N20160423172510404/23/16 17:25:31  5-MIN K12N 232225Z AUTO 36010G16KT 15/01 A2990 600 37 800 020/10G16 RMK AO1 T01500006
54779K12N 12N20160423173012004/23/16 17:30:31  5-MIN K12N 232230Z AUTO 35011G16KT 310V030 15/01 A2991 600 37 800 360/11G16 320V040 RMK AO1 T01500006
54779K12N 12N20160423173512004/23/16 17:35:31  5-MIN K12N 232235Z AUTO 01007G15KT 340V040 15/01 A2991 600 38 800 030/07G15 350V050 RMK AO1 T01500011
54779K12N 12N20160423174009804/23/16 17:40:31  5-MIN K12N 232240Z AUTO 35006KT 15/01 A2991 600 37 800 360/06 RMK AO1 T01500006
54779K12N 12N20160423174509804/23/16 17:45:31  5-MIN K12N 232245Z AUTO 35007KT 15/01 A2991 600 37 800 010/07 RMK AO1 T01500006
54779K12N 12N20160423175011104/23/16 17:50:31  5-MIN K12N 232250Z AUTO 35008G14KT 14/00 A2991 600 37 700 360/08G14 RMK AO1 SLP126 T01440000
54779K12N 12N20160423175512004/23/16 17:55:31  5-MIN K12N 232255Z AUTO 01009G15KT 330V040 14/00 A2991 600 37 700 020/09G15 340V050 RMK AO1 T01440000
54779K12N 12N20160423180010404/23/16 18:00:31  5-MIN K12N 232300Z AUTO 01007G15KT 14/01 A2991 600 38 700 020/07G15 RMK AO1 T01440006
54779K12N 12N20160423180512004/23/16 18:05:31  5-MIN K12N 232305Z AUTO 35008G21KT 320V020 14/00 A2991 600 37 700 010/08G21 330V030 RMK AO1 T01440000
54779K12N 12N20160423181010404/23/16 18:10:31  5-MIN K12N 232310Z AUTO 34008G21KT 14/00 A2991 590 38 600 350/08G21 RMK AO1 T01390000
54779K12N 12N20160423181512004/23/16 18:15:31  5-MIN K12N 232315Z AUTO 01008G16KT 350V060 14/01 A2991 590 40 600 020/08G16 360V070 RMK AO1 T01390006
54779K12N 12N20160423182010404/23/16 18:20:31  5-MIN K12N 232320Z AUTO VRB05G17KT 14/01 A2992 590 40 600 VRB/05G17 RMK AO1 T01390006
54779K12N 12N20160423182512004/23/16 18:25:31  5-MIN K12N 232325Z AUTO 35008G17KT 320V020 14/00 A2992 590 38 600 360/08G17 330V030 RMK AO1 T01390000
54779K12N 12N20160423183010504/23/16 18:30:31  5-MIN K12N 232330Z AUTO 34006G14KT 14/M01 A2992 590 37 600 360/06G14 RMK AO1 T01391006
54779K12N 12N20160423183509904/23/16 18:35:31  5-MIN K12N 232335Z AUTO 36007KT 14/M01 A2992 590 37 600 010/07 RMK AO1 T01391006
54779K12N 12N20160423184011504/23/16 18:40:31  5-MIN K12N 232340Z AUTO 36007KT 340V050 14/M01 A2992 590 37 600 020/07 350V060 RMK AO1 T01391006
54779K12N 12N20160423184509904/23/16 18:45:31  5-MIN K12N 232345Z AUTO VRB05KT 14/M01 A2992 580 37 600 VRB/05 RMK AO1 T01391006
54779K12N 12N20160423185012404/23/16 18:50:31  5-MIN K12N 232350Z AUTO 36007KT 13/M01 A2992 580 38 600 010/07 RMK AO1 SLP132 T01331006 10183 20133 53001
54779K12N 12N20160423185509904/23/16 18:55:31  5-MIN K12N 232355Z AUTO 35006KT 13/M01 A2992 580 38 600 010/06 RMK AO1 T01331006
54779K12N 12N20160423190009904/23/16 19:00:31  5-MIN K12N 240000Z AUTO 36004KT 13/M01 A2993 580 38 600 020/04 RMK AO1 T01331006
54779K12N 12N20160423190509904/23/16 19:05:31  5-MIN K12N 240005Z AUTO VRB04KT 13/M01 A2993 580 38 600 VRB/04 RMK AO1 T01331006
54779K12N 12N20160423191009904/23/16 19:10:31  5-MIN K12N 240010Z AUTO 01004KT 13/M01 A2993 570 36 500 020/04 RMK AO1 T01331011
54779K12N 12N20160423191509904/23/16 19:15:31  5-MIN K12N 240015Z AUTO 36007KT 13/M01 A2994 570 36 500 010/07 RMK AO1 T01331011
54779K12N 12N20160423192009904/23/16 19:20:31  5-MIN K12N 240020Z AUTO 35005KT 13/M01 A2993 570 38 500 360/05 RMK AO1 T01281011
54779K12N 12N20160423192509904/23/16 19:25:31  5-MIN K12N 240025Z AUTO VRB05KT 13/M01 A2994 570 38 500 VRB/05 RMK AO1 T01281011
54779K12N 12N20160423193009904/23/16 19:30:31  5-MIN K12N 240030Z AUTO 36005KT 13/M01 A2994 570 36 500 010/05 RMK AO1 T01331011
54779K12N 12N20160423193509904/23/16 19:35:31  5-MIN K12N 240035Z AUTO 01005KT 13/M01 A2994 570 36 500 020/05 RMK AO1 T01331011
54779K12N 12N20160423194009904/23/16 19:40:31  5-MIN K12N 240040Z AUTO 36006KT 13/M01 A2995 560 38 500 020/06 RMK AO1 T01281011
54779K12N 12N20160423194509904/23/16 19:45:31  5-MIN K12N 240045Z AUTO 01005KT 13/M02 A2995 560 36 500 020/05 RMK AO1 T01281017
54779K12N 12N20160423195010604/23/16 19:50:31  5-MIN K12N 240050Z AUTO 36007KT 13/M01 A2995 560 38 500 010/07 RMK AO1 SLP141 T01281011
54779K12N 12N20160423195509904/23/16 19:55:31  5-MIN K12N 240055Z AUTO VRB06KT 13/M02 A2995 560 36 500 VRB/06 RMK AO1 T01281017
54779K12N 12N20160423200009904/23/16 20:00:31  5-MIN K12N 240100Z AUTO 36006KT 13/M02 A2995 550 35 500 010/06 RMK AO1 T01281022
54779K12N 12N20160423200509904/23/16 20:05:31  5-MIN K12N 240105Z AUTO 36008KT 13/M02 A2996 550 35 500 010/08 RMK AO1 T01281022
54779K12N 12N20160423201009904/23/16 20:10:31  5-MIN K12N 240110Z AUTO 35006KT 13/M02 A2996 550 35 500 010/06 RMK AO1 T01281022
54779K12N 12N20160423201509904/23/16 20:15:31  5-MIN K12N 240115Z AUTO 36004KT 13/M02 A2996 550 35 500 020/04 RMK AO1 T01281022
54779K12N 12N20160423202009904/23/16 20:20:31  5-MIN K12N 240120Z AUTO 36005KT 12/M02 A2996 550 36 400 010/05 RMK AO1 T01221022
54779K12N 12N20160423202509904/23/16 20:25:31  5-MIN K12N 240125Z AUTO VRB04KT 12/M02 A2997 540 36 400 VRB/04 RMK AO1 T01221022
54779K12N 12N20160423203009904/23/16 20:30:31  5-MIN K12N 240130Z AUTO 36006KT 12/M02 A2997 540 36 400 010/06 RMK AO1 T01221022
54779K12N 12N20160423203509904/23/16 20:35:31  5-MIN K12N 240135Z AUTO 35008KT 12/M03 A2997 540 35 400 010/08 RMK AO1 T01221028
54779K12N 12N20160423204009904/23/16 20:40:31  5-MIN K12N 240140Z AUTO 36007KT 12/M03 A2997 540 35 400 010/07 RMK AO1 T01221028
54779K12N 12N20160423204509904/23/16 20:45:31  5-MIN K12N 240145Z AUTO 01005KT 12/M03 A2997 540 33 400 020/05 RMK AO1 T01221033
54779K12N 12N20160423205010604/23/16 20:50:31  5-MIN K12N 240150Z AUTO 35006KT 12/M03 A2997 540 35 300 010/06 RMK AO1 SLP149 T01171033
54779K12N 12N20160423205509904/23/16 20:55:31  5-MIN K12N 240155Z AUTO 36006KT 12/M03 A2997 530 35 300 010/06 RMK AO1 T01171033
54779K12N 12N20160423210009904/23/16 21:00:31  5-MIN K12N 240200Z AUTO 36006KT 12/M03 A2997 540 35 300 010/06 RMK AO1 T01171033
54779K12N 12N20160423210509904/23/16 21:05:31  5-MIN K12N 240205Z AUTO VRB05KT 12/M03 A2998 530 35 300 VRB/05 RMK AO1 T01171033
54779K12N 12N20160423211009904/23/16 21:10:31  5-MIN K12N 240210Z AUTO 36006KT 12/M03 A2998 530 35 300 010/06 RMK AO1 T01171033
54779K12N 12N20160423211509904/23/16 21:15:31  5-MIN K12N 240215Z AUTO 36007KT 11/M03 A2998 530 36 200 010/07 RMK AO1 T01111033
54779K12N 12N20160423212009904/23/16 21:20:31  5-MIN K12N 240220Z AUTO 01007KT 11/M03 A2998 530 36 200 020/07 RMK AO1 T01111033
54779K12N 12N20160423212509904/23/16 21:25:31  5-MIN K12N 240225Z AUTO 36007KT 11/M03 A2998 530 36 200 010/07 RMK AO1 T01111033
54779K12N 12N20160423213009904/23/16 21:30:31  5-MIN K12N 240230Z AUTO 36007KT 11/M03 A2998 530 36 200 010/07 RMK AO1 T01111033
54779K12N 12N20160423213509904/23/16 21:35:31  5-MIN K12N 240235Z AUTO VRB06KT 11/M03 A2998 530 36 200 VRB/06 RMK AO1 T01111033
54779K12N 12N20160423214009904/23/16 21:40:31  5-MIN K12N 240240Z AUTO VRB06KT 11/M03 A2998 530 37 200 VRB/06 RMK AO1 T01061033
54779K12N 12N20160423214509904/23/16 21:45:31  5-MIN K12N 240245Z AUTO VRB06KT 11/M04 A2998 530 34 200 VRB/06 RMK AO1 T01111039
54779K12N 12N20160423215011204/23/16 21:50:31  5-MIN K12N 240250Z AUTO 35008KT 11/M03 A2998 530 37 200 360/08 RMK AO1 SLP154 T01061033 51018
54779K12N 12N20160423215509904/23/16 21:55:31  5-MIN K12N 240255Z AUTO VRB04KT 11/M03 A2998 530 37 200 VRB/04 RMK AO1 T01061033
54779K12N 12N20160423220009904/23/16 22:00:31  5-MIN K12N 240300Z AUTO 36008KT 11/M04 A2999 520 36 200 010/08 RMK AO1 T01061039
54779K12N 12N20160423220509904/23/16 22:05:31  5-MIN K12N 240305Z AUTO VRB06KT 11/M04 A2999 520 36 200 VRB/06 RMK AO1 T01061039
54779K12N 12N20160423221009904/23/16 22:10:31  5-MIN K12N 240310Z AUTO VRB06KT 11/M04 A2999 520 36 200 VRB/06 RMK AO1 T01061039
54779K12N 12N20160423221509904/23/16 22:15:31  5-MIN K12N 240315Z AUTO 36009KT 10/M03 A2999 520 39 100 010/09 RMK AO1 T01001033
54779K12N 12N20160423222009904/23/16 22:20:31  5-MIN K12N 240320Z AUTO VRB06KT 10/M04 A2999 520 37 100 VRB/06 RMK AO1 T01001039
54779K12N 12N20160423222509904/23/16 22:25:31  5-MIN K12N 240325Z AUTO 35006KT 10/M04 A2999 520 37 100 010/06 RMK AO1 T01001039
54779K12N 12N20160423223009904/23/16 22:30:31  5-MIN K12N 240330Z AUTO VRB06KT 10/M04 A2999 520 37 100 VRB/06 RMK AO1 T01001039
54779K12N 12N20160423223508904/23/16 22:35:31  5-MIN K12N 240335Z AUTO 10/M04 A2999 520 36 100 M /M RMK AO1 T01001044
54779K12N 12N20160423224009904/23/16 22:40:31  5-MIN K12N 240340Z AUTO VRB05KT 10/M04 A2999 520 36 100 VRB/05 RMK AO1 T01001044
54779K12N 12N20160423224509904/23/16 22:45:31  5-MIN K12N 240345Z AUTO 36007KT 10/M04 A2999 520 36 100 010/07 RMK AO1 T01001044
54779K12N 12N20160423225010604/23/16 22:50:31  5-MIN K12N 240350Z AUTO VRB05KT 10/M05 A3000 510 34 100 VRB/05 RMK AO1 SLP157 T01001050
54779K12N 12N20160423225510504/23/16 22:55:31  5-MIN K12N 240355Z AUTO 35010G14KT 10/M05 A3000 510 34 100 010/10G14 RMK AO1 T01001050
54779K12N 12N20160423230010504/23/16 23:00:31  5-MIN K12N 240400Z AUTO 01005G14KT 10/M04 A3000 510 36 100 030/05G14 RMK AO1 T01001044
54779K12N 12N20160423230509704/23/16 23:05:31  5-MIN K12N 240405Z AUTO 36006KT 09/M04 A3000 510 37 0 010/06 RMK AO1 T00941044
54779K12N 12N20160423231009704/23/16 23:10:31  5-MIN K12N 240410Z AUTO VRB03KT 09/M04 A3000 510 37 0 VRB/03 RMK AO1 T00941044
54779K12N 12N20160423231509704/23/16 23:15:31  5-MIN K12N 240415Z AUTO 35007KT 09/M04 A3000 510 37 0 010/07 RMK AO1 T00941044
54779K12N 12N20160423232009704/23/16 23:20:31  5-MIN K12N 240420Z AUTO 35005KT 09/M05 A3001 510 37 0 360/05 RMK AO1 T00891050
54779K12N 12N20160423232509704/23/16 23:25:31  5-MIN K12N 240425Z AUTO 36005KT 09/M05 A3001 510 37 0 010/05 RMK AO1 T00891050
54779K12N 12N20160423233009704/23/16 23:30:31  5-MIN K12N 240430Z AUTO 36006KT 09/M04 A3001 500 38 0 010/06 RMK AO1 T00891044
54779K12N 12N20160423233509704/23/16 23:35:31  5-MIN K12N 240435Z AUTO VRB05KT 09/M04 A3001 500 38 0 VRB/05 RMK AO1 T00891044
54779K12N 12N20160423234009704/23/16 23:40:31  5-MIN K12N 240440Z AUTO VRB05KT 09/M04 A3001 500 38 0 VRB/05 RMK AO1 T00891044
54779K12N 12N20160423234509704/23/16 23:45:31  5-MIN K12N 240445Z AUTO 36007KT 09/M04 A3001 500 38 0 010/07 RMK AO1 T00891044
54779K12N 12N20160423235013004/23/16 23:50:31  5-MIN K12N 240450Z AUTO 01007KT 340V050 09/M05 A3001 500 37 0 020/07 350V060 RMK AO1 SLP161 T00891050 401830089
54779K12N 12N20160423235509704/23/16 23:55:31  5-MIN K12N 240455Z AUTO 36005KT 09/M05 A3001 500 37 0 010/05 RMK AO1 T00891050
54779K12N 12N20160424000010004/24/16 00:00:31  5-MIN K12N 240500Z AUTO VRB06KT 08/M05 A3001 500 38 -100 VRB/06 RMK AO1 T00831050
54779K12N 12N20160424000510004/24/16 00:05:31  5-MIN K12N 240505Z AUTO 35005KT 08/M05 A3001 500 38 -100 010/05 RMK AO1 T00831050
54779K12N 12N20160424001010004/24/16 00:10:31  5-MIN K12N 240510Z AUTO VRB05KT 08/M05 A3001 500 38 -100 VRB/05 RMK AO1 T00831050
54779K12N 12N20160424001510004/24/16 00:15:31  5-MIN K12N 240515Z AUTO 35006KT 08/M06 A3001 500 37 -100 360/06 RMK AO1 T00831056
54779K12N 12N20160424002010004/24/16 00:20:31  5-MIN K12N 240520Z AUTO VRB05KT 08/M06 A3001 500 37 -100 VRB/05 RMK AO1 T00831056
54779K12N 12N20160424002510004/24/16 00:25:31  5-MIN K12N 240525Z AUTO 35007KT 08/M06 A3001 500 38 -200 010/07 RMK AO1 T00781056
54779K12N 12N20160424003010004/24/16 00:30:31  5-MIN K12N 240530Z AUTO 36005KT 08/M06 A3001 500 38 -200 010/05 RMK AO1 T00781056
54779K12N 12N20160424003510004/24/16 00:35:31  5-MIN K12N 240535Z AUTO VRB04KT 08/M05 A3001 500 40 -200 VRB/04 RMK AO1 T00781050
54779K12N 12N20160424004010004/24/16 00:40:31  5-MIN K12N 240540Z AUTO 00000KT 08/M05 A3001 500 40 -200 000/00 RMK AO1 T00781050
54779K12N 12N20160424004510004/24/16 00:45:31  5-MIN K12N 240545Z AUTO VRB05KT 07/M05 A3001 500 41 -200 VRB/05 RMK AO1 T00721050
54779K12N 12N20160424005012504/24/16 00:50:31  5-MIN K12N 240550Z AUTO VRB03KT 08/M05 A3001 500 40 -200 VRB/03 RMK AO1 SLP162 T00781050 10133 20072 51020
54779K12N 12N20160424005510004/24/16 00:55:31  5-MIN K12N 240555Z AUTO VRB06KT 07/M05 A3001 500 41 -200 VRB/06 RMK AO1 T00721050
54779K12N 12N20160424010010004/24/16 01:00:31  5-MIN K12N 240600Z AUTO VRB05KT 08/M05 A3001 500 40 -200 VRB/05 RMK AO1 T00781050
54779K12N 12N20160424010510004/24/16 01:05:31  5-MIN K12N 240605Z AUTO 36006KT 08/M05 A3001 500 40 -200 010/06 RMK AO1 T00781050
54779K12N 12N20160424011010004/24/16 01:10:31  5-MIN K12N 240610Z AUTO VRB05KT 08/M05 A3001 510 40 -200 VRB/05 RMK AO1 T00781050
54779K12N 12N20160424011511604/24/16 01:15:31  5-MIN K12N 240615Z AUTO 01007KT 340V050 08/M06 A3001 500 38 -200 020/07 350V060 RMK AO1 T00781056
54779K12N 12N20160424012010004/24/16 01:20:31  5-MIN K12N 240620Z AUTO VRB05KT 08/M06 A3001 500 38 -200 VRB/05 RMK AO1 T00781056
54779K12N 12N20160424012510004/24/16 01:25:31  5-MIN K12N 240625Z AUTO 01006KT 07/M06 A3001 500 40 -200 020/06 RMK AO1 T00721056
54779K12N 12N20160424013010004/24/16 01:30:31  5-MIN K12N 240630Z AUTO 01005KT 07/M06 A3001 500 40 -200 020/05 RMK AO1 T00721056
54779K12N 12N20160424013510004/24/16 01:35:31  5-MIN K12N 240635Z AUTO 36007KT 07/M06 A3001 500 40 -200 010/07 RMK AO1 T00721056
54779K12N 12N20160424014010004/24/16 01:40:31  5-MIN K12N 240640Z AUTO 36008KT 07/M06 A3001 500 38 -200 010/08 RMK AO1 T00721061
54779K12N 12N20160424014510004/24/16 01:45:31  5-MIN K12N 240645Z AUTO VRB05KT 07/M06 A3001 500 38 -200 VRB/05 RMK AO1 T00721061
54779K12N 12N20160424015010704/24/16 01:50:31  5-MIN K12N 240650Z AUTO 01005KT 07/M06 A3001 500 40 -200 020/05 RMK AO1 SLP164 T00721056
54779K12N 12N20160424015510004/24/16 01:55:31  5-MIN K12N 240655Z AUTO VRB03KT 07/M05 A3001 500 43 -300 VRB/03 RMK AO1 T00671050
54779K12N 12N20160424020010004/24/16 02:00:31  5-MIN K12N 240700Z AUTO VRB03KT 07/M05 A3001 500 43 -300 VRB/03 RMK AO1 T00671050
54779K12N 12N20160424020510004/24/16 02:05:31  5-MIN K12N 240705Z AUTO VRB04KT 07/M06 A3002 500 41 -300 VRB/04 RMK AO1 T00671056
54779K12N 12N20160424021010004/24/16 02:10:31  5-MIN K12N 240710Z AUTO 05004KT 07/M05 A3002 500 43 -300 060/04 RMK AO1 T00671050
54779K12N 12N20160424021510004/24/16 02:15:31  5-MIN K12N 240715Z AUTO 00000KT 07/M05 A3002 500 43 -300 000/00 RMK AO1 T00671050
54779K12N 12N20160424022010004/24/16 02:20:31  5-MIN K12N 240720Z AUTO 00000KT 06/M06 A3002 490 44 -400 000/00 RMK AO1 T00561056
54779K12N 12N20160424022510004/24/16 02:25:31  5-MIN K12N 240725Z AUTO 00000KT 06/M06 A3002 490 43 -400 000/00 RMK AO1 T00611056
54779K12N 12N20160424023010004/24/16 02:30:31  5-MIN K12N 240730Z AUTO VRB03KT 06/M06 A3002 490 43 -400 VRB/03 RMK AO1 T00611056
54779K12N 12N20160424023510004/24/16 02:35:31  5-MIN K12N 240735Z AUTO 05005KT 06/M06 A3003 490 41 -400 070/05 RMK AO1 T00611061
54779K12N 12N20160424024010004/24/16 02:40:31  5-MIN K12N 240740Z AUTO 06004KT 06/M06 A3003 490 41 -400 070/04 RMK AO1 T00611061
54779K12N 12N20160424024510004/24/16 02:45:31  5-MIN K12N 240745Z AUTO 04004KT 06/M06 A3003 490 41 -400 050/04 RMK AO1 T00611061
54779K12N 12N20160424025010704/24/16 02:50:31  5-MIN K12N 240750Z AUTO 05004KT 06/M06 A3003 490 43 -400 060/04 RMK AO1 SLP168 T00611056
54779K12N 12N20160424025510004/24/16 02:55:31  5-MIN K12N 240755Z AUTO 04005KT 06/M06 A3003 490 41 -400 060/05 RMK AO1 T00611061
54779K12N 12N20160424030010004/24/16 03:00:31  5-MIN K12N 240800Z AUTO VRB04KT 06/M06 A3003 480 41 -400 VRB/04 RMK AO1 T00611061
54779K12N 12N20160424030510004/24/16 03:05:31  5-MIN K12N 240805Z AUTO 05005KT 06/M06 A3003 480 41 -400 060/05 RMK AO1 T00611061
54779K12N 12N20160424031010004/24/16 03:10:31  5-MIN K12N 240810Z AUTO 04004KT 06/M06 A3003 480 41 -400 050/04 RMK AO1 T00611061
54779K12N 12N20160424031510004/24/16 03:15:31  5-MIN K12N 240815Z AUTO 05005KT 06/M06 A3003 480 41 -400 060/05 RMK AO1 T00611061
54779K12N 12N20160424032010004/24/16 03:20:31  5-MIN K12N 240820Z AUTO 04004KT 06/M07 A3003 480 39 -400 060/04 RMK AO1 T00611067
54779K12N 12N20160424032510004/24/16 03:25:31  5-MIN K12N 240825Z AUTO 00000KT 06/M06 A3003 480 41 -400 000/00 RMK AO1 T00611061
54779K12N 12N20160424033010004/24/16 03:30:31  5-MIN K12N 240830Z AUTO 00000KT 06/M06 A3004 480 43 -500 000/00 RMK AO1 T00561061
54779K12N 12N20160424033510004/24/16 03:35:31  5-MIN K12N 240835Z AUTO 04003KT 06/M07 A3004 480 39 -400 050/03 RMK AO1 T00611067
54779K12N 12N20160424034010004/24/16 03:40:31  5-MIN K12N 240840Z AUTO 00000KT 06/M06 A3004 480 43 -500 000/00 RMK AO1 T00561061
54779K12N 12N20160424034510004/24/16 03:45:31  5-MIN K12N 240845Z AUTO 00000KT 05/M06 A3004 480 44 -500 000/00 RMK AO1 T00501061
54779K12N 12N20160424035011304/24/16 03:50:31  5-MIN K12N 240850Z AUTO 00000KT 05/M06 A3004 480 46 -500 000/00 RMK AO1 SLP173 T00501056 51008
54779K12N 12N20160424035510004/24/16 03:55:31  5-MIN K12N 240855Z AUTO 00000KT 05/M06 A3004 480 44 -500 000/00 RMK AO1 T00501061
54779K12N 12N20160424040010004/24/16 04:00:31  5-MIN K12N 240900Z AUTO 00000KT 04/M06 A3004 470 46 -600 000/00 RMK AO1 T00441061
54779K12N 12N20160424040510004/24/16 04:05:31  5-MIN K12N 240905Z AUTO 00000KT 04/M06 A3004 470 48 -600 000/00 RMK AO1 T00441056
54779K12N 12N20160424041010004/24/16 04:10:31  5-MIN K12N 240910Z AUTO 00000KT 05/M06 A3005 470 46 -500 000/00 RMK AO1 T00501056
54779K12N 12N20160424041510004/24/16 04:15:31  5-MIN K12N 240915Z AUTO 00000KT 04/M06 A3005 470 46 -600 000/00 RMK AO1 T00441061
54779K12N 12N20160424042010004/24/16 04:20:31  5-MIN K12N 240920Z AUTO 00000KT 04/M06 A3005 460 50 -700 000/00 RMK AO1 T00391056
54779K12N 12N20160424042510004/24/16 04:25:31  5-MIN K12N 240925Z AUTO 00000KT 04/M04 A3005 460 54 -700 000/00 RMK AO1 T00391044
54779K12N 12N20160424043010004/24/16 04:30:31  5-MIN K12N 240930Z AUTO 00000KT 04/M06 A3005 460 50 -700 000/00 RMK AO1 T00391056
54779K12N 12N20160424043510004/24/16 04:35:31  5-MIN K12N 240935Z AUTO 00000KT 04/M05 A3005 460 50 -600 000/00 RMK AO1 T00441050
54779K12N 12N20160424044010004/24/16 04:40:31  5-MIN K12N 240940Z AUTO 00000KT 04/M05 A3005 460 52 -700 000/00 RMK AO1 T00391050
54779K12N 12N20160424044510004/24/16 04:45:31  5-MIN K12N 240945Z AUTO 00000KT 04/M05 A3006 460 52 -700 000/00 RMK AO1 T00391050
54779K12N 12N20160424045010704/24/16 04:50:31  5-MIN K12N 240950Z AUTO 15003KT 04/M04 A3006 460 54 -700 170/03 RMK AO1 SLP181 T00391044
54779K12N 12N20160424045510004/24/16 04:55:31  5-MIN K12N 240955Z AUTO 00000KT 04/M03 A3006 450 59 -700 000/00 RMK AO1 T00391033
54779K12N 12N20160424050010004/24/16 05:00:31  5-MIN K12N 241000Z AUTO 00000KT 04/M05 A3007 450 50 -600 000/00 RMK AO1 T00441050
54779K12N 12N20160424050510004/24/16 05:05:31  5-MIN K12N 241005Z AUTO 00000KT 04/M05 A3007 450 52 -700 000/00 RMK AO1 T00391050
54779K12N 12N20160424051010004/24/16 05:10:31  5-MIN K12N 241010Z AUTO 00000KT 04/M04 A3007 440 54 -700 000/00 RMK AO1 T00391044
54779K12N 12N20160424051510004/24/16 05:15:31  5-MIN K12N 241015Z AUTO 00000KT 04/M04 A3008 440 54 -700 000/00 RMK AO1 T00391044
54779K12N 12N20160424052010004/24/16 05:20:31  5-MIN K12N 241020Z AUTO 00000KT 03/M05 A3008 440 54 -800 000/00 RMK AO1 T00331050
54779K12N 12N20160424052510004/24/16 05:25:31  5-MIN K12N 241025Z AUTO 00000KT 04/M04 A3008 440 57 -700 000/00 RMK AO1 T00391039
54779K12N 12N20160424053010004/24/16 05:30:31  5-MIN K12N 241030Z AUTO 00000KT 03/M04 A3008 430 57 -800 000/00 RMK AO1 T00331044
54779K12N 12N20160424053510004/24/16 05:35:31  5-MIN K12N 241035Z AUTO 00000KT 04/M04 A3009 430 57 -700 000/00 RMK AO1 T00391039
54779K12N 12N20160424054010004/24/16 05:40:31  5-MIN K12N 241040Z AUTO 00000KT 04/M03 A3009 430 59 -700 000/00 RMK AO1 T00391033
54779K12N 12N20160424054510004/24/16 05:45:31  5-MIN K12N 241045Z AUTO 00000KT 03/M03 A3009 430 64 -800 000/00 RMK AO1 T00331028
54779K12N 12N20160424055010704/24/16 05:50:31  5-MIN K12N 241050Z AUTO 00000KT 03/M02 A3009 430 69 -900 000/00 RMK AO1 SLP193 T00281022
54779K12N 12N20160424055510004/24/16 05:55:31  5-MIN K12N 241055Z AUTO 00000KT 03/M02 A3009 430 67 -800 000/00 RMK AO1 T00331022
54779K12N 12N20160424060010004/24/16 06:00:31  5-MIN K12N 241100Z AUTO 00000KT 03/M03 A3009 430 64 -800 000/00 RMK AO1 T00331028
54779K12N 12N20160424060510004/24/16 06:05:31  5-MIN K12N 241105Z AUTO 00000KT 04/M03 A3009 420 62 -700 000/00 RMK AO1 T00391028
54779K12N 12N20160424061010004/24/16 06:10:31  5-MIN K12N 241110Z AUTO 00000KT 04/M03 A3010 420 57 -700 000/00 RMK AO1 T00441033
54779K12N 12N20160424061510004/24/16 06:15:31  5-MIN K12N 241115Z AUTO 00000KT 04/M04 A3010 420 55 -700 000/00 RMK AO1 T00441039
54779K12N 12N20160424062010004/24/16 06:20:31  5-MIN K12N 241120Z AUTO 00000KT 05/M04 A3010 420 52 -600 000/00 RMK AO1 T00501039
54779K12N 12N20160424062510004/24/16 06:25:31  5-MIN K12N 241125Z AUTO 00000KT 06/M03 A3010 420 53 -500 000/00 RMK AO1 T00561033
54779K12N 12N20160424063010004/24/16 06:30:31  5-MIN K12N 241130Z AUTO 00000KT 06/M05 A3010 420 45 -500 000/00 RMK AO1 T00611050
54779K12N 12N20160424063510004/24/16 06:35:31  5-MIN K12N 241135Z AUTO 00000KT 07/M06 A3010 420 41 -400 000/00 RMK AO1 T00671056
54779K12N 12N20160424064010004/24/16 06:40:31  5-MIN K12N 241140Z AUTO 00000KT 06/M06 A3011 410 43 -500 000/00 RMK AO1 T00611056
54779K12N 12N20160424064510004/24/16 06:45:31  5-MIN K12N 241145Z AUTO 00000KT 07/M06 A3010 420 38 -300 000/00 RMK AO1 T00721061
54779K12N 12N20160424065012504/24/16 06:50:31  5-MIN K12N 241150Z AUTO VRB03KT 07/M06 A3010 420 40 -300 VRB/03 RMK AO1 SLP195 T00721056 10078 20028 53010
54779K12N 12N20160424065510004/24/16 06:55:31  5-MIN K12N 241155Z AUTO 00000KT 07/M06 A3010 420 38 -300 000/00 RMK AO1 T00721061
54779K12N 12N20160424070010004/24/16 07:00:31  5-MIN K12N 241200Z AUTO 00000KT 07/M06 A3010 420 38 -300 000/00 RMK AO1 T00721061
54779K12N 12N20160424070510004/24/16 07:05:31  5-MIN K12N 241205Z AUTO 00000KT 08/M06 A3011 410 38 -300 000/00 RMK AO1 T00781056
54779K12N 12N20160424071010004/24/16 07:10:31  5-MIN K12N 241210Z AUTO 05004KT 08/M06 A3011 410 36 -300 060/04 RMK AO1 T00781061
54779K12N 12N20160424071510004/24/16 07:15:31  5-MIN K12N 241215Z AUTO 08004KT 07/M06 A3011 410 38 -300 090/04 RMK AO1 T00721061
54779K12N 12N20160424072010004/24/16 07:20:31  5-MIN K12N 241220Z AUTO 09003KT 07/M07 A3011 410 36 -300 100/03 RMK AO1 T00721067
54779K12N 12N20160424072510004/24/16 07:25:31  5-MIN K12N 241225Z AUTO 00000KT 08/M07 A3011 410 35 -300 000/00 RMK AO1 T00781067
54779K12N 12N20160424073010004/24/16 07:30:31  5-MIN K12N 241230Z AUTO 00000KT 08/M07 A3011 410 35 -300 000/00 RMK AO1 T00781067
54779K12N 12N20160424073510004/24/16 07:35:31  5-MIN K12N 241235Z AUTO 07003KT 08/M06 A3011 410 35 -200 080/03 RMK AO1 T00831061
54779K12N 12N20160424074010004/24/16 07:40:31  5-MIN K12N 241240Z AUTO 00000KT 08/M07 A3011 410 34 -200 000/00 RMK AO1 T00831067
54779K12N 12N20160424074510004/24/16 07:45:31  5-MIN K12N 241245Z AUTO 00000KT 08/M06 A3011 410 35 -200 000/00 RMK AO1 T00831061
54779K12N 12N20160424075010704/24/16 07:50:31  5-MIN K12N 241250Z AUTO 00000KT 09/M06 A3011 410 34 -100 000/00 RMK AO1 SLP198 T00891061
54779K12N 12N20160424075510004/24/16 07:55:31  5-MIN K12N 241255Z AUTO 00000KT 09/M07 A3011 410 31 -100 000/00 RMK AO1 T00941067
54779K12N 12N20160424080009704/24/16 08:00:31  5-MIN K12N 241300Z AUTO 04003KT 10/M07 A3011 410 30 0 060/03 RMK AO1 T01001067
54779K12N 12N20160424080509704/24/16 08:05:31  5-MIN K12N 241305Z AUTO VRB05KT 10/M07 A3011 410 29 0 VRB/05 RMK AO1 T01001072
54779K12N 12N20160424081009704/24/16 08:10:31  5-MIN K12N 241310Z AUTO 05007KT 10/M07 A3010 420 29 0 060/07 RMK AO1 T01001072
54779K12N 12N20160424081509704/24/16 08:15:31  5-MIN K12N 241315Z AUTO 01006KT 11/M07 A3010 420 29 0 020/06 RMK AO1 T01061067
54779K12N 12N20160424082009704/24/16 08:20:31  5-MIN K12N 241320Z AUTO VRB06KT 11/M07 A3011 410 28 0 VRB/06 RMK AO1 T01061072
54779K12N 12N20160424082509704/24/16 08:25:31  5-MIN K12N 241325Z AUTO VRB05KT 11/M07 A3011 410 29 0 VRB/05 RMK AO1 T01061067
54779K12N 12N20160424083009704/24/16 08:30:31  5-MIN K12N 241330Z AUTO VRB04KT 11/M07 A3011 410 29 0 VRB/04 RMK AO1 T01061067
54779K12N 12N20160424083509904/24/16 08:35:31  5-MIN K12N 241335Z AUTO VRB03KT 11/M06 A3010 420 29 100 VRB/03 RMK AO1 T01111061
54779K12N 12N20160424084011504/24/16 08:40:31  5-MIN K12N 241340Z AUTO 36008KT 340V050 12/M06 A3010 420 28 200 020/08 350V060 RMK AO1 T01171061
54779K12N 12N20160424084511504/24/16 08:45:31  5-MIN K12N 241345Z AUTO 02009KT 350V050 11/M08 A3010 420 26 100 040/09 360V060 RMK AO1 T01111078
54779K12N 12N20160424085010604/24/16 08:50:31  5-MIN K12N 241350Z AUTO 34007KT 11/M08 A3010 420 25 100 350/07 RMK AO1 SLP194 T01111083
54779K12N 12N20160424085509904/24/16 08:55:31  5-MIN K12N 241355Z AUTO VRB06KT 12/M07 A3010 420 27 200 VRB/06 RMK AO1 T01171067
54779K12N 12N20160424090011504/24/16 09:00:31  5-MIN K12N 241400Z AUTO 02007KT 340V060 12/M07 A3010 420 26 200 030/07 350V070 RMK AO1 T01171072
54779K12N 12N20160424090512104/24/16 09:05:31  5-MIN K12N 241405Z AUTO 04009G18KT 360V090 12/M07 A3010 420 26 200 050/09G18 010V100 RMK AO1 T01171072
54779K12N 12N20160424091010504/24/16 09:10:31  5-MIN K12N 241410Z AUTO 03006G18KT 12/M07 A3010 420 27 200 050/06G18 RMK AO1 T01171067
54779K12N 12N20160424091512104/24/16 09:15:31  5-MIN K12N 241415Z AUTO 03007G14KT 340V070 12/M07 A3010 420 26 200 040/07G14 350V080 RMK AO1 T01171072
54779K12N 12N20160424092009904/24/16 09:20:31  5-MIN K12N 241420Z AUTO 35006KT 12/M05 A3010 420 29 200 360/06 RMK AO1 T01221050
54779K12N 12N20160424092509904/24/16 09:25:31  5-MIN K12N 241425Z AUTO VRB05KT 12/M07 A3010 420 26 200 VRB/05 RMK AO1 T01221067
54779K12N 12N20160424093009904/24/16 09:30:31  5-MIN K12N 241430Z AUTO VRB06KT 13/M05 A3010 420 28 300 VRB/06 RMK AO1 T01281050
54779K12N 12N20160424093509904/24/16 09:35:31  5-MIN K12N 241435Z AUTO VRB05KT 13/M06 A3010 420 26 300 VRB/05 RMK AO1 T01281061
54779K12N 12N20160424094011504/24/16 09:40:31  5-MIN K12N 241440Z AUTO 02007KT 320V060 13/M06 A3009 430 26 300 040/07 330V070 RMK AO1 T01281061
54779K12N 12N20160424094509904/24/16 09:45:31  5-MIN K12N 241445Z AUTO VRB05KT 13/M06 A3010 420 27 300 VRB/05 RMK AO1 T01281056
54779K12N 12N20160424095011204/24/16 09:50:31  5-MIN K12N 241450Z AUTO 03008KT 13/M06 A3010 420 27 300 050/08 RMK AO1 SLP192 T01281056 51020
54779K12N 12N20160424095509904/24/16 09:55:31  5-MIN K12N 241455Z AUTO VRB05KT 13/M06 A3009 430 26 300 VRB/05 RMK AO1 T01281061
54779K12N 12N20160424100009904/24/16 10:00:31  5-MIN K12N 241500Z AUTO VRB06KT 13/M07 A3009 430 24 300 VRB/06 RMK AO1 T01281072
54779K12N 12N20160424100509904/24/16 10:05:31  5-MIN K12N 241505Z AUTO 03005KT 13/M07 A3009 430 24 400 050/05 RMK AO1 T01331067
54779K12N 12N20160424101009904/24/16 10:10:31  5-MIN K12N 241510Z AUTO 03009KT 13/M06 A3009 430 26 400 050/09 RMK AO1 T01331056
54779K12N 12N20160424101510504/24/16 10:15:31  5-MIN K12N 241515Z AUTO 04009G18KT 13/M06 A3009 430 26 400 050/09G18 RMK AO1 T01331056
54779K12N 12N20160424102010504/24/16 10:20:31  5-MIN K12N 241520Z AUTO VRB06G18KT 13/M07 A3009 430 24 400 VRB/06G18 RMK AO1 T01331067
54779K12N 12N20160424102511504/24/16 10:25:31  5-MIN K12N 241525Z AUTO 04008KT 340V080 14/M06 A3008 430 24 400 050/08 350V090 RMK AO1 T01391061
54779K12N 12N20160424103010504/24/16 10:30:31  5-MIN K12N 241530Z AUTO VRB06G15KT 14/M06 A3008 440 24 400 VRB/06G15 RMK AO1 T01391061
54779K12N 12N20160424103509904/24/16 10:35:31  5-MIN K12N 241535Z AUTO VRB06KT 14/M06 A3008 440 24 400 VRB/06 RMK AO1 T01391061
54779K12N 12N20160424104009904/24/16 10:40:31  5-MIN K12N 241540Z AUTO 04004KT 14/M07 A3008 440 22 500 050/04 RMK AO1 T01391072
54779K12N 12N20160424104509904/24/16 10:45:31  5-MIN K12N 241545Z AUTO VRB04KT 14/M06 A3008 440 24 500 VRB/04 RMK AO1 T01441056
54779K12N 12N20160424105010604/24/16 10:50:31  5-MIN K12N 241550Z AUTO VRB05KT 14/M07 A3008 440 23 400 VRB/05 RMK AO1 SLP186 T01391067
54779K12N 12N20160424105509904/24/16 10:55:31  5-MIN K12N 241555Z AUTO VRB03KT 14/M07 A3008 440 22 500 VRB/03 RMK AO1 T01441067
54779K12N 12N20160424110008904/24/16 11:00:31  5-MIN K12N 241600Z AUTO 14/M06 A3008 440 23 500 M /M RMK AO1 T01441061
54779K12N 12N20160424110508904/24/16 11:05:31  5-MIN K12N 241605Z AUTO 14/M06 A3008 440 24 500 M /M RMK AO1 T01391061
54779K12N 12N20160424111009904/24/16 11:10:31  5-MIN K12N 241610Z AUTO 36007KT 14/M08 A3007 440 20 500 010/07 RMK AO1 T01441078
54779K12N 12N20160424111509904/24/16 11:15:31  5-MIN K12N 241615Z AUTO 36009KT 14/M07 A3007 450 21 500 010/09 RMK AO1 T01441072
54779K12N 12N20160424112009904/24/16 11:20:31  5-MIN K12N 241620Z AUTO 05006KT 15/M07 A3007 450 22 600 060/06 RMK AO1 T01501067
54779K12N 12N20160424112511504/24/16 11:25:31  5-MIN K12N 241625Z AUTO 30008KT 260V330 15/M07 A3007 450 22 600 310/08 270V340 RMK AO1 T01501067
54779K12N 12N20160424113011504/24/16 11:30:31  5-MIN K12N 241630Z AUTO 36007KT 330V050 15/M08 A3006 450 20 600 010/07 340V060 RMK AO1 T01501078
54779K12N 12N20160424113509904/24/16 11:35:31  5-MIN K12N 241635Z AUTO VRB05KT 15/M07 A3006 450 21 600 VRB/05 RMK AO1 T01501072
54779K12N 12N20160424114011504/24/16 11:40:31  5-MIN K12N 241640Z AUTO 33007KT 270V010 15/M08 A3006 460 20 600 350/07 280V020 RMK AO1 T01501078
54779K12N 12N20160424114509904/24/16 11:45:31  5-MIN K12N 241645Z AUTO VRB05KT 16/M07 A3006 460 21 700 VRB/05 RMK AO1 T01561067
54779K12N 12N20160424115010604/24/16 11:50:31  5-MIN K12N 241650Z AUTO VRB05KT 16/M07 A3006 460 21 700 VRB/05 RMK AO1 SLP178 T01561067
54779K12N 12N20160424115511504/24/16 11:55:31  5-MIN K12N 241655Z AUTO 32008KT 280V020 16/M08 A3006 460 19 700 330/08 290V030 RMK AO1 T01561078
54779K12N 12N20160424120011504/24/16 12:00:31  5-MIN K12N 241700Z AUTO 34007KT 320V030 16/M07 A3005 470 21 700 360/07 330V040 RMK AO1 T01561067
54779K12N 12N20160424120509904/24/16 12:05:31  5-MIN K12N 241705Z AUTO 04005KT 16/M07 A3005 470 20 700 050/05 RMK AO1 T01561072
54779K12N 12N20160424121009904/24/16 12:10:31  5-MIN K12N 241710Z AUTO VRB05KT 16/M07 A3005 470 20 700 VRB/05 RMK AO1 T01611067
54779K12N 12N20160424121509904/24/16 12:15:31  5-MIN K12N 241715Z AUTO 00000KT 16/M07 A3005 470 20 700 000/00 RMK AO1 T01611067
54779K12N 12N20160424122009904/24/16 12:20:31  5-MIN K12N 241720Z AUTO VRB03KT 16/M08 A3004 470 19 700 VRB/03 RMK AO1 T01561078
54779K12N 12N20160424122509904/24/16 12:25:31  5-MIN K12N 241725Z AUTO 27003KT 17/M07 A3004 470 18 800 280/03 RMK AO1 T01671072
54779K12N 12N20160424123009904/24/16 12:30:31  5-MIN K12N 241730Z AUTO VRB04KT 17/M07 A3003 480 18 800 VRB/04 RMK AO1 T01671072
54779K12N 12N20160424123511504/24/16 12:35:31  5-MIN K12N 241735Z AUTO 04007KT 350V070 17/M07 A3003 480 19 900 050/07 360V080 RMK AO1 T01721067
54779K12N 12N20160424124011504/24/16 12:40:31  5-MIN K12N 241740Z AUTO 35007KT 300V050 17/M07 A3003 480 18 900 360/07 310V060 RMK AO1 T01721072
54779K12N 12N20160424124509904/24/16 12:45:31  5-MIN K12N 241745Z AUTO 00000KT 17/M08 A3003 490 18 800 000/00 RMK AO1 T01671078
54779K12N 12N20160424125012404/24/16 12:50:31  5-MIN K12N 241750Z AUTO VRB06KT 17/M07 A3002 490 18 800 VRB/06 RMK AO1 SLP167 T01671072 10172 20072 58001
54779K12N 12N20160424125512104/24/16 12:55:31  5-MIN K12N 241755Z AUTO 35008G17KT 280V040 17/M07 A3002 490 19 900 010/08G17 290V050 RMK AO1 T01721067
54779K12N 12N20160424130012104/24/16 13:00:31  5-MIN K12N 241800Z AUTO 01009G17KT 350V070 17/M08 A3002 500 18 800 020/09G17 360V080 RMK AO1 T01671078
54779K12N 12N20160424130510504/24/16 13:05:31  5-MIN K12N 241805Z AUTO 04006G15KT 17/M07 A3001 500 18 900 050/06G15 RMK AO1 T01721072
54779K12N 12N20160424131010004/24/16 13:10:31  5-MIN K12N 241810Z AUTO VRB03KT 18/M07 A3001 500 18 1000 VRB/03 RMK AO1 T01781067
54779K12N 12N20160424131509904/24/16 13:15:31  5-MIN K12N 241815Z AUTO VRB05KT 17/M08 A3001 500 17 900 VRB/05 RMK AO1 T01721078
54779K12N 12N20160424132011604/24/16 13:20:31  5-MIN K12N 241820Z AUTO 33008KT 270V010 18/M07 A3001 500 18 1000 340/08 280V020 RMK AO1 T01781067
54779K12N 12N20160424132510004/24/16 13:25:31  5-MIN K12N 241825Z AUTO 31007KT 18/M07 A3001 500 18 1000 320/07 RMK AO1 T01781067
54779K12N 12N20160424133009904/24/16 13:30:31  5-MIN K12N 241830Z AUTO 00000KT 17/M06 A3000 510 19 900 000/00 RMK AO1 T01721061
54779K12N 12N20160424133509004/24/16 13:35:31  5-MIN K12N 241835Z AUTO 18/M06 A3000 510 18 1100 M /M RMK AO1 T01831061
54779K12N 12N20160424134010004/24/16 13:40:31  5-MIN K12N 241840Z AUTO 35005KT 18/M06 A3000 510 18 1100 010/05 RMK AO1 T01831061
54779K12N 12N20160424134510004/24/16 13:45:31  5-MIN K12N 241845Z AUTO VRB03KT 18/M06 A3000 510 19 1100 VRB/03 RMK AO1 T01831056
54779K12N 12N20160424135010704/24/16 13:50:31  5-MIN K12N 241850Z AUTO VRB04KT 19/M06 A3000 510 17 1100 VRB/04 RMK AO1 SLP158 T01891061
54779K12N 12N20160424135510004/24/16 13:55:31  5-MIN K12N 241855Z AUTO VRB03KT 18/M06 A2999 520 18 1100 VRB/03 RMK AO1 T01831061
54779K12N 12N20160424140009004/24/16 14:00:31  5-MIN K12N 241900Z AUTO 18/M06 A2999 520 18 1100 M /M RMK AO1 T01831061
54779K12N 12N20160424140510004/24/16 14:05:31  5-MIN K12N 241905Z AUTO VRB05KT 19/M06 A2999 520 17 1100 VRB/05 RMK AO1 T01891061
54779K12N 12N20160424141010004/24/16 14:10:31  5-MIN K12N 241910Z AUTO VRB03KT 18/M07 A2999 520 17 1100 VRB/03 RMK AO1 T01831072
54779K12N 12N20160424141510004/24/16 14:15:31  5-MIN K12N 241915Z AUTO VRB05KT 19/M06 A2999 520 17 1100 VRB/05 RMK AO1 T01891061
54779K12N 12N20160424142010004/24/16 14:20:31  5-MIN K12N 241920Z AUTO VRB06KT 19/M05 A2998 530 19 1100 VRB/06 RMK AO1 T01891050
54779K12N 12N20160424142510004/24/16 14:25:31  5-MIN K12N 241925Z AUTO VRB05KT 19/M06 A2998 530 17 1100 VRB/05 RMK AO1 T01891061
54779K12N 12N20160424143010004/24/16 14:30:31  5-MIN K12N 241930Z AUTO VRB06KT 19/M06 A2998 530 17 1100 VRB/06 RMK AO1 T01891061
54779K12N 12N20160424143510004/24/16 14:35:31  5-MIN K12N 241935Z AUTO 30008KT 19/M06 A2998 530 17 1100 310/08 RMK AO1 T01891061
54779K12N 12N20160424144010004/24/16 14:40:31  5-MIN K12N 241940Z AUTO VRB04KT 18/M07 A2998 530 17 1100 VRB/04 RMK AO1 T01831072
54779K12N 12N20160424144510004/24/16 14:45:31  5-MIN K12N 241945Z AUTO VRB06KT 19/M07 A2998 530 16 1100 VRB/06 RMK AO1 T01891072
54779K12N 12N20160424145012304/24/16 14:50:31  5-MIN K12N 241950Z AUTO 30008KT 270V330 19/M07 A2998 530 17 1200 310/08 280V340 RMK AO1 SLP152 T01891067
54779K12N 12N20160424145510004/24/16 14:55:31  5-MIN K12N 241955Z AUTO 29008KT 19/M07 A2998 530 17 1200 300/08 RMK AO1 T01891067
54779K12N 12N20160424150012204/24/16 15:00:31  5-MIN K12N 242000Z AUTO 31007G14KT 260V350 19/M06 A2998 530 18 1200 320/07G14 270V360 RMK AO1 T01891056
54779K12N 12N20160424150512204/24/16 15:05:31  5-MIN K12N 242005Z AUTO 30008G14KT 250V330 19/M06 A2998 530 18 1200 310/08G14 260V340 RMK AO1 T01891056
54779K12N 12N20160424151010004/24/16 15:10:31  5-MIN K12N 242010Z AUTO VRB04KT 19/M06 A2998 530 18 1200 VRB/04 RMK AO1 T01891056
54779K12N 12N20160424151510004/24/16 15:15:31  5-MIN K12N 242015Z AUTO VRB06KT 19/M06 A2998 530 17 1200 VRB/06 RMK AO1 T01891061
54779K12N 12N20160424152010004/24/16 15:20:31  5-MIN K12N 242020Z AUTO 28006KT 19/M05 A2998 530 19 1200 300/06 RMK AO1 T01891050
54779K12N 12N20160424152510004/24/16 15:25:31  5-MIN K12N 242025Z AUTO VRB06KT 19/M06 A2998 530 18 1200 VRB/06 RMK AO1 T01891056
54779K12N 12N20160424153010004/24/16 15:30:31  5-MIN K12N 242030Z AUTO VRB05KT 19/M06 A2997 530 18 1200 VRB/05 RMK AO1 T01891056
54779K12N 12N20160424153510004/24/16 15:35:31  5-MIN K12N 242035Z AUTO VRB05KT 19/M06 A2997 540 18 1200 VRB/05 RMK AO1 T01891056
54779K12N 12N20160424154010004/24/16 15:40:31  5-MIN K12N 242040Z AUTO 00000KT 19/M06 A2997 540 18 1200 000/00 RMK AO1 T01941056
54779K12N 12N20160424154509004/24/16 15:45:31  5-MIN K12N 242045Z AUTO 19/M06 A2997 540 18 1200 M /M RMK AO1 T01891056
54779K12N 12N20160424155011304/24/16 15:50:31  5-MIN K12N 242050Z AUTO VRB03KT 19/M06 A2997 540 18 1200 VRB/03 RMK AO1 SLP149 T01891056 58024
54779K12N 12N20160424155510004/24/16 15:55:31  5-MIN K12N 242055Z AUTO VRB05KT 19/M04 A2997 540 19 1200 VRB/05 RMK AO1 T01941044
54779K12N 12N20160424160010004/24/16 16:00:31  5-MIN K12N 242100Z AUTO VRB05KT 19/M05 A2997 540 18 1200 VRB/05 RMK AO1 T01941050
54779K12N 12N20160424160510604/24/16 16:05:31  5-MIN K12N 242105Z AUTO VRB06G15KT 19/M05 A2997 540 19 1200 VRB/06G15 RMK AO1 T01891050
54779K12N 12N20160424161010604/24/16 16:10:31  5-MIN K12N 242110Z AUTO VRB05G15KT 19/M04 A2997 540 20 1200 VRB/05G15 RMK AO1 T01891044
54779K12N 12N20160424161510004/24/16 16:15:31  5-MIN K12N 242115Z AUTO VRB06KT 19/M06 A2997 540 18 1200 VRB/06 RMK AO1 T01891056
54779K12N 12N20160424162010004/24/16 16:20:31  5-MIN K12N 242120Z AUTO VRB05KT 19/M06 A2997 540 18 1200 VRB/05 RMK AO1 T01891056
54779K12N 12N20160424162510004/24/16 16:25:31  5-MIN K12N 242125Z AUTO VRB05KT 19/M06 A2997 540 18 1200 VRB/05 RMK AO1 T01891056
54779K12N 12N20160424163010004/24/16 16:30:31  5-MIN K12N 242130Z AUTO VRB06KT 19/M05 A2997 540 19 1200 VRB/06 RMK AO1 T01891050
54779K12N 12N20160424163510004/24/16 16:35:31  5-MIN K12N 242135Z AUTO VRB04KT 19/M05 A2997 540 19 1200 VRB/04 RMK AO1 T01891050
54779K12N 12N20160424164010004/24/16 16:40:31  5-MIN K12N 242140Z AUTO VRB05KT 18/M05 A2997 540 20 1100 VRB/05 RMK AO1 T01831050
54779K12N 12N20160424164510004/24/16 16:45:31  5-MIN K12N 242145Z AUTO VRB05KT 19/M04 A2998 530 20 1200 VRB/05 RMK AO1 T01891044
54779K12N 12N20160424165010704/24/16 16:50:31  5-MIN K12N 242150Z AUTO VRB04KT 19/M04 A2998 530 20 1200 VRB/04 RMK AO1 SLP152 T01891044
54779K12N 12N20160424165510004/24/16 16:55:31  5-MIN K12N 242155Z AUTO VRB04KT 19/M04 A2998 530 21 1200 VRB/04 RMK AO1 T01891039
54779K12N 12N20160424170010004/24/16 17:00:31  5-MIN K12N 242200Z AUTO VRB04KT 19/M03 A2998 530 22 1200 VRB/04 RMK AO1 T01891033
54779K12N 12N20160424170510004/24/16 17:05:31  5-MIN K12N 242205Z AUTO 30005KT 18/M04 A2998 530 21 1100 320/05 RMK AO1 T01831039
54779K12N 12N20160424171010004/24/16 17:10:31  5-MIN K12N 242210Z AUTO VRB05KT 18/M04 A2998 530 21 1100 VRB/05 RMK AO1 T01831044
54779K12N 12N20160424171510004/24/16 17:15:31  5-MIN K12N 242215Z AUTO VRB05KT 18/M04 A2998 530 21 1100 VRB/05 RMK AO1 T01831039
54779K12N 12N20160424172010004/24/16 17:20:31  5-MIN K12N 242220Z AUTO VRB04KT 18/M04 A2998 530 21 1100 VRB/04 RMK AO1 T01831039
54779K12N 12N20160424172510004/24/16 17:25:31  5-MIN K12N 242225Z AUTO 33004KT 18/M04 A2998 530 21 1100 340/04 RMK AO1 T01831044
54779K12N 12N20160424173010004/24/16 17:30:31  5-MIN K12N 242230Z AUTO 31004KT 18/M04 A2998 530 21 1100 320/04 RMK AO1 T01831039
54779K12N 12N20160424173510004/24/16 17:35:31  5-MIN K12N 242235Z AUTO VRB03KT 18/M04 A2999 520 21 1000 VRB/03 RMK AO1 T01781044
54779K12N 12N20160424174010004/24/16 17:40:31  5-MIN K12N 242240Z AUTO 34006KT 18/M03 A2999 520 23 1000 350/06 RMK AO1 T01781033
54779K12N 12N20160424174510004/24/16 17:45:31  5-MIN K12N 242245Z AUTO VRB04KT 18/M04 A2999 520 22 1000 VRB/04 RMK AO1 T01781039
54779K12N 12N20160424175010604/24/16 17:50:31  5-MIN K12N 242250Z AUTO VRB05KT 17/M03 A2999 520 24 900 VRB/05 RMK AO1 SLP157 T01721033
54779K12N 12N20160424175509904/24/16 17:55:31  5-MIN K12N 242255Z AUTO VRB04KT 17/M03 A2999 520 24 900 VRB/04 RMK AO1 T01721033
54779K12N 12N20160424180009904/24/16 18:00:31  5-MIN K12N 242300Z AUTO VRB04KT 17/M03 A2999 520 24 900 VRB/04 RMK AO1 T01721033
54779K12N 12N20160424180509904/24/16 18:05:31  5-MIN K12N 242305Z AUTO VRB04KT 17/M03 A2999 520 24 900 VRB/04 RMK AO1 T01721033
54779K12N 12N20160424181009904/24/16 18:10:31  5-MIN K12N 242310Z AUTO 00000KT 17/M03 A2999 520 24 900 000/00 RMK AO1 T01721033
54779K12N 12N20160424181509904/24/16 18:15:31  5-MIN K12N 242315Z AUTO 33003KT 17/M03 A2999 520 25 900 350/03 RMK AO1 T01671033
54779K12N 12N20160424182009904/24/16 18:20:31  5-MIN K12N 242320Z AUTO 00000KT 17/M03 A2999 520 25 900 000/00 RMK AO1 T01671033
54779K12N 12N20160424182509904/24/16 18:25:31  5-MIN K12N 242325Z AUTO 00000KT 17/M03 A2999 520 25 900 000/00 RMK AO1 T01671033
54779K12N 12N20160424183009904/24/16 18:30:31  5-MIN K12N 242330Z AUTO VRB04KT 16/M03 A3000 520 26 800 VRB/04 RMK AO1 T01611033
54779K12N 12N20160424183509904/24/16 18:35:31  5-MIN K12N 242335Z AUTO 35003KT 16/M03 A3000 520 27 800 360/03 RMK AO1 T01611028
54779K12N 12N20160424184009904/24/16 18:40:31  5-MIN K12N 242340Z AUTO 34003KT 17/M03 A3000 520 25 900 360/03 RMK AO1 T01671033
54779K12N 12N20160424184509904/24/16 18:45:31  5-MIN K12N 242345Z AUTO VRB03KT 16/M03 A3000 510 27 800 VRB/03 RMK AO1 T01611028
54779K12N 12N20160424185012404/24/16 18:50:31  5-MIN K12N 242350Z AUTO VRB03KT 16/M03 A3000 510 28 700 VRB/03 RMK AO1 SLP160 T01561028 10194 20156 56018
54779K12N 12N20160424185509904/24/16 18:55:31  5-MIN K12N 242355Z AUTO 00000KT 16/M03 A3000 510 28 700 000/00 RMK AO1 T01561028
54779K12N 12N20160424190009904/24/16 19:00:31  5-MIN K12N 250000Z AUTO 00000KT 14/M02 A3000 510 33 600 000/00 RMK AO1 T01441017
54779K12N 12N20160424190509904/24/16 19:05:31  5-MIN K12N 250005Z AUTO 00000KT 13/M01 A3000 510 39 400 000/00 RMK AO1 T01281006
54779K12N 12N20160424191009904/24/16 19:10:31  5-MIN K12N 250010Z AUTO 31003KT 13/M01 A3001 510 36 500 320/03 RMK AO1 T01331011
54779K12N 12N20160424191509904/24/16 19:15:31  5-MIN K12N 250015Z AUTO 00000KT 13/M01 A3001 500 36 500 000/00 RMK AO1 T01331011
54779K12N 12N20160424192009904/24/16 19:20:31  5-MIN K12N 250020Z AUTO 00000KT 13/M01 A3001 500 38 500 000/00 RMK AO1 T01331006
54779K12N 12N20160424192509804/24/16 19:25:31  5-MIN K12N 250025Z AUTO 00000KT 13/00 A3001 500 41 400 000/00 RMK AO1 T01280000
54779K12N 12N20160424193009904/24/16 19:30:31  5-MIN K12N 250030Z AUTO 00000KT 13/M01 A3001 500 39 400 000/00 RMK AO1 T01281006
54779K12N 12N20160424193509904/24/16 19:35:31  5-MIN K12N 250035Z AUTO 00000KT 13/M01 A3002 500 38 400 000/00 RMK AO1 T01281011
54779K12N 12N20160424194009904/24/16 19:40:31  5-MIN K12N 250040Z AUTO 00000KT 12/M01 A3002 500 39 300 000/00 RMK AO1 T01221011
54779K12N 12N20160424194509904/24/16 19:45:31  5-MIN K12N 250045Z AUTO 00000KT 12/M01 A3002 500 41 300 000/00 RMK AO1 T01221006
54779K12N 12N20160424195010504/24/16 19:50:31  5-MIN K12N 250050Z AUTO 00000KT 12/01 A3002 500 46 300 000/00 RMK AO1 SLP167 T01220011
54779K12N 12N20160424195509804/24/16 19:55:31  5-MIN K12N 250055Z AUTO 00000KT 12/01 A3002 500 46 300 000/00 RMK AO1 T01220011
54779K12N 12N20160424200009804/24/16 20:00:31  5-MIN K12N 250100Z AUTO 00000KT 12/01 A3002 490 44 300 000/00 RMK AO1 T01220006
54779K12N 12N20160424200509804/24/16 20:05:31  5-MIN K12N 250105Z AUTO 00000KT 12/01 A3002 490 46 300 000/00 RMK AO1 T01220011
54779K12N 12N20160424201009804/24/16 20:10:31  5-MIN K12N 250110Z AUTO 00000KT 12/02 A3002 490 48 300 000/00 RMK AO1 T01220017
54779K12N 12N20160424201509804/24/16 20:15:31  5-MIN K12N 250115Z AUTO 00000KT 12/01 A3002 490 48 200 000/00 RMK AO1 T01170011
54779K12N 12N20160424202009804/24/16 20:20:31  5-MIN K12N 250120Z AUTO 00000KT 12/03 A3002 490 56 200 000/00 RMK AO1 T01170033
54779K12N 12N20160424202509804/24/16 20:25:31  5-MIN K12N 250125Z AUTO 00000KT 11/04 A3003 490 63 200 000/00 RMK AO1 T01110044
54779K12N 12N20160424203009804/24/16 20:30:31  5-MIN K12N 250130Z AUTO 00000KT 11/02 A3003 490 54 200 000/00 RMK AO1 T01110022
54779K12N 12N20160424203509804/24/16 20:35:31  5-MIN K12N 250135Z AUTO 00000KT 11/02 A3003 480 52 200 000/00 RMK AO1 T01110017
54779K12N 12N20160424204009804/24/16 20:40:31  5-MIN K12N 250140Z AUTO 00000KT 11/03 A3003 480 58 100 000/00 RMK AO1 T01060028
54779K12N 12N20160424204509604/24/16 20:45:31  5-MIN K12N 250145Z AUTO 00000KT 10/02 A3003 490 58 0 000/00 RMK AO1 T01000022
54779K12N 12N20160424205010304/24/16 20:50:31  5-MIN K12N 250150Z AUTO 00000KT 10/02 A3003 490 58 0 000/00 RMK AO1 SLP171 T01000022
54779K12N 12N20160424205509804/24/16 20:55:31  5-MIN K12N 250155Z AUTO 00000KT 11/02 A3003 490 56 100 000/00 RMK AO1 T01060022
54779K12N 12N20160424210009604/24/16 21:00:31  5-MIN K12N 250200Z AUTO 00000KT 10/02 A3003 490 56 0 000/00 RMK AO1 T01000017
54779K12N 12N20160424210509804/24/16 21:05:31  5-MIN K12N 250205Z AUTO 00000KT 11/02 A3003 480 56 100 000/00 RMK AO1 T01060022
54779K12N 12N20160424211009804/24/16 21:10:31  5-MIN K12N 250210Z AUTO 20003KT 11/03 A3003 480 58 100 210/03 RMK AO1 T01060028
54779K12N 12N20160424211509604/24/16 21:15:31  5-MIN K12N 250215Z AUTO 00000KT 10/03 A3003 480 63 0 000/00 RMK AO1 T01000033
54779K12N 12N20160424212009604/24/16 21:20:31  5-MIN K12N 250220Z AUTO 00000KT 10/03 A3003 480 63 0 000/00 RMK AO1 T01000033
54779K12N 12N20160424212509604/24/16 21:25:31  5-MIN K12N 250225Z AUTO 00000KT 10/03 A3003 480 63 0 000/00 RMK AO1 T01000033
54779K12N 12N20160424213009604/24/16 21:30:31  5-MIN K12N 250230Z AUTO 00000KT 09/03 A3003 490 63 0 000/00 RMK AO1 T00940028
54779K12N 12N20160424213509604/24/16 21:35:31  5-MIN K12N 250235Z AUTO 00000KT 09/02 A3003 490 63 0 000/00 RMK AO1 T00890022
54779K12N 12N20160424214009604/24/16 21:40:31  5-MIN K12N 250240Z AUTO 00000KT 09/02 A3003 480 60 0 000/00 RMK AO1 T00890017
54779K12N 12N20160424214509604/24/16 21:45:31  5-MIN K12N 250245Z AUTO 00000KT 09/03 A3003 480 63 0 000/00 RMK AO1 T00940028
54779K12N 12N20160424215010904/24/16 21:50:31  5-MIN K12N 250250Z AUTO 00000KT 09/03 A3003 490 65 0 000/00 RMK AO1 SLP170 T00940033 53011
54779K12N 12N20160424215509604/24/16 21:55:31  5-MIN K12N 250255Z AUTO 00000KT 09/03 A3003 480 68 0 000/00 RMK AO1 T00890033
54779K12N 12N20160424220009604/24/16 22:00:31  5-MIN K12N 250300Z AUTO 00000KT 09/03 A3003 480 65 0 000/00 RMK AO1 T00890028
54779K12N 12N20160424220509604/24/16 22:05:31  5-MIN K12N 250305Z AUTO 00000KT 09/02 A3003 480 63 0 000/00 RMK AO1 T00890022
54779K12N 12N20160424221009604/24/16 22:10:31  5-MIN K12N 250310Z AUTO 00000KT 09/02 A3003 480 63 0 000/00 RMK AO1 T00890022
54779K12N 12N20160424221509904/24/16 22:15:31  5-MIN K12N 250315Z AUTO 00000KT 08/01 A3003 480 60 -100 000/00 RMK AO1 T00830011
54779K12N 12N20160424222009904/24/16 22:20:31  5-MIN K12N 250320Z AUTO 00000KT 09/03 A3004 480 65 -100 000/00 RMK AO1 T00890028
54779K12N 12N20160424222509904/24/16 22:25:31  5-MIN K12N 250325Z AUTO 00000KT 09/04 A3004 480 71 -100 000/00 RMK AO1 T00890039
54779K12N 12N20160424223009904/24/16 22:30:31  5-MIN K12N 250330Z AUTO 00000KT 08/03 A3004 480 68 -100 000/00 RMK AO1 T00830028
54779K12N 12N20160424223509904/24/16 22:35:31  5-MIN K12N 250335Z AUTO 00000KT 08/02 A3004 480 65 -100 000/00 RMK AO1 T00830022
54779K12N 12N20160424224009904/24/16 22:40:31  5-MIN K12N 250340Z AUTO 00000KT 08/02 A3004 480 65 -100 000/00 RMK AO1 T00830022
54779K12N 12N20160424224509904/24/16 22:45:31  5-MIN K12N 250345Z AUTO 00000KT 08/03 A3004 480 68 -100 000/00 RMK AO1 T00830028
54779K12N 12N20160424225010604/24/16 22:50:31  5-MIN K12N 250350Z AUTO 00000KT 08/03 A3004 480 70 -100 000/00 RMK AO1 SLP173 T00830033
54779K12N 12N20160424225509904/24/16 22:55:31  5-MIN K12N 250355Z AUTO 00000KT 08/03 A3004 480 70 -100 000/00 RMK AO1 T00830033
54779K12N 12N20160424230009904/24/16 23:00:31  5-MIN K12N 250400Z AUTO 00000KT 08/03 A3004 470 70 -100 000/00 RMK AO1 T00830033
54779K12N 12N20160424230509904/24/16 23:05:31  5-MIN K12N 250405Z AUTO 00000KT 08/03 A3005 470 68 -100 000/00 RMK AO1 T00830028
54779K12N 12N20160424231009904/24/16 23:10:31  5-MIN K12N 250410Z AUTO 00000KT 09/04 A3005 470 73 -100 000/00 RMK AO1 T00890044
54779K12N 12N20160424231509904/24/16 23:15:31  5-MIN K12N 250415Z AUTO 00000KT 09/03 A3004 470 68 -100 000/00 RMK AO1 T00890033
54779K12N 12N20160424232009904/24/16 23:20:31  5-MIN K12N 250420Z AUTO 00000KT 08/04 A3004 470 73 -100 000/00 RMK AO1 T00830039
54779K12N 12N20160424232509904/24/16 23:25:31  5-MIN K12N 250425Z AUTO 00000KT 08/04 A3004 470 76 -200 000/00 RMK AO1 T00780039
54779K12N 12N20160424233009904/24/16 23:30:31  5-MIN K12N 250430Z AUTO 00000KT 07/04 A3004 470 79 -300 000/00 RMK AO1 T00720039
54779K12N 12N20160424233509904/24/16 23:35:31  5-MIN K12N 250435Z AUTO 00000KT 08/04 A3004 470 76 -200 000/00 RMK AO1 T00780039
54779K12N 12N20160424234009904/24/16 23:40:31  5-MIN K12N 250440Z AUTO 00000KT 08/04 A3004 470 76 -200 000/00 RMK AO1 T00780039
54779K12N 12N20160424234509904/24/16 23:45:31  5-MIN K12N 250445Z AUTO 20003KT 07/03 A3004 470 79 -300 210/03 RMK AO1 T00670033
54779K12N 12N20160424235011604/24/16 23:50:31  5-MIN K12N 250450Z AUTO 00000KT 07/04 A3004 470 79 -300 000/00 RMK AO1 SLP175 T00720039 401940028
54779K12N 12N20160424235509904/24/16 23:55:31  5-MIN K12N 250455Z AUTO 00000KT 08/03 A3004 470 73 -200 000/00 RMK AO1 T00780033
54779K12N 12N20160425000009904/25/16 00:00:31  5-MIN K12N 250500Z AUTO 00000KT 07/03 A3004 470 73 -300 000/00 RMK AO1 T00720028
54779K12N 12N20160425000509904/25/16 00:05:31  5-MIN K12N 250505Z AUTO 00000KT 07/02 A3004 470 68 -300 000/00 RMK AO1 T00720017
54779K12N 12N20160425001009904/25/16 00:10:31  5-MIN K12N 250510Z AUTO 00000KT 07/02 A3004 470 73 -300 000/00 RMK AO1 T00670022
54779K12N 12N20160425001509904/25/16 00:15:31  5-MIN K12N 250515Z AUTO 00000KT 07/03 A3004 480 76 -300 000/00 RMK AO1 T00670028
54779K12N 12N20160425002009904/25/16 00:20:31  5-MIN K12N 250520Z AUTO 00000KT 07/03 A3004 480 76 -300 000/00 RMK AO1 T00670028
54779K12N 12N20160425002509904/25/16 00:25:31  5-MIN K12N 250525Z AUTO 00000KT 07/03 A3004 480 76 -300 000/00 RMK AO1 T00670028
54779K12N 12N20160425003009904/25/16 00:30:31  5-MIN K12N 250530Z AUTO 00000KT 07/03 A3004 480 76 -300 000/00 RMK AO1 T00720033
54779K12N 12N20160425003509904/25/16 00:35:31  5-MIN K12N 250535Z AUTO 00000KT 07/04 A3004 480 79 -300 000/00 RMK AO1 T00720039
54779K12N 12N20160425004009904/25/16 00:40:31  5-MIN K12N 250540Z AUTO 00000KT 07/04 A3004 480 82 -300 000/00 RMK AO1 T00670039
54779K12N 12N20160425004509904/25/16 00:45:31  5-MIN K12N 250545Z AUTO 00000KT 07/04 A3003 480 79 -300 000/00 RMK AO1 T00720039
54779K12N 12N20160425005012404/25/16 00:50:31  5-MIN K12N 250550Z AUTO 00000KT 07/03 A3003 480 76 -300 000/00 RMK AO1 SLP171 T00720033 10156 20061 51009
54779K12N 12N20160425005509904/25/16 00:55:31  5-MIN K12N 250555Z AUTO 00000KT 07/03 A3003 480 73 -200 000/00 RMK AO1 T00720028
54779K12N 12N20160425010009904/25/16 01:00:31  5-MIN K12N 250600Z AUTO 00000KT 08/03 A3003 490 73 -200 000/00 RMK AO1 T00780033
54779K12N 12N20160425010509904/25/16 01:05:31  5-MIN K12N 250605Z AUTO 00000KT 08/03 A3003 490 70 -200 000/00 RMK AO1 T00780028
54779K12N 12N20160425011009904/25/16 01:10:31  5-MIN K12N 250610Z AUTO 00000KT 08/03 A3002 490 70 -200 000/00 RMK AO1 T00780028
54779K12N 12N20160425011509904/25/16 01:15:31  5-MIN K12N 250615Z AUTO 00000KT 08/03 A3003 490 70 -100 000/00 RMK AO1 T00830033
54779K12N 12N20160425012009904/25/16 01:20:31  5-MIN K12N 250620Z AUTO 00000KT 08/03 A3003 490 70 -100 000/00 RMK AO1 T00830033
54779K12N 12N20160425012509904/25/16 01:25:31  5-MIN K12N 250625Z AUTO 00000KT 08/03 A3002 490 70 -100 000/00 RMK AO1 T00830033
54779K12N 12N20160425013009904/25/16 01:30:31  5-MIN K12N 250630Z AUTO 00000KT 08/04 A3002 490 76 -100 000/00 RMK AO1 T00830044
54779K12N 12N20160425013509904/25/16 01:35:31  5-MIN K12N 250635Z AUTO 00000KT 08/04 A3002 490 76 -100 000/00 RMK AO1 T00830044
54779K12N 12N20160425014009904/25/16 01:40:31  5-MIN K12N 250640Z AUTO 00000KT 08/04 A3002 490 76 -100 000/00 RMK AO1 T00830044
54779K12N 12N20160425014509904/25/16 01:45:31  5-MIN K12N 250645Z AUTO 00000KT 08/04 A3002 490 76 -100 000/00 RMK AO1 T00830044
54779K12N 12N20160425015010604/25/16 01:50:31  5-MIN K12N 250650Z AUTO 00000KT 08/04 A3002 490 76 -100 000/00 RMK AO1 SLP166 T00830044
54779K12N 12N20160425015509904/25/16 01:55:31  5-MIN K12N 250655Z AUTO 00000KT 08/04 A3002 490 76 -100 000/00 RMK AO1 T00830044
54779K12N 12N20160425020009904/25/16 02:00:31  5-MIN K12N 250700Z AUTO 00000KT 08/04 A3002 490 76 -100 000/00 RMK AO1 T00830044
54779K12N 12N20160425020509904/25/16 02:05:31  5-MIN K12N 250705Z AUTO 00000KT 08/04 A3002 490 76 -100 000/00 RMK AO1 T00830044
54779K12N 12N20160425021009904/25/16 02:10:31  5-MIN K12N 250710Z AUTO 00000KT 08/04 A3002 490 76 -100 000/00 RMK AO1 T00830044
54779K12N 12N20160425021509904/25/16 02:15:31  5-MIN K12N 250715Z AUTO 00000KT 08/04 A3003 490 73 -100 000/00 RMK AO1 T00830039
54779K12N 12N20160425022009904/25/16 02:20:31  5-MIN K12N 250720Z AUTO 00000KT 08/04 A3003 490 76 -100 000/00 RMK AO1 T00830044
54779K12N 12N20160425022509904/25/16 02:25:31  5-MIN K12N 250725Z AUTO 00000KT 08/04 A3003 490 73 -100 000/00 RMK AO1 T00830039
54779K12N 12N20160425023009904/25/16 02:30:31  5-MIN K12N 250730Z AUTO 00000KT 08/04 A3003 490 73 -100 000/00 RMK AO1 T00830039
54779K12N 12N20160425023509604/25/16 02:35:31  5-MIN K12N 250735Z AUTO 00000KT 09/04 A3003 480 71 0 000/00 RMK AO1 T00890039
54779K12N 12N20160425024009904/25/16 02:40:31  5-MIN K12N 250740Z AUTO 00000KT 08/04 A3002 490 73 -100 000/00 RMK AO1 T00830039
54779K12N 12N20160425024509604/25/16 02:45:31  5-MIN K12N 250745Z AUTO 00000KT 09/03 A3003 490 68 0 000/00 RMK AO1 T00890033
54779K12N 12N20160425025010604/25/16 02:50:31  5-MIN K12N 250750Z AUTO 00000KT 08/04 A3003 490 73 -100 000/00 RMK AO1 SLP168 T00830039
54779K12N 12N20160425025509604/25/16 02:55:31  5-MIN K12N 250755Z AUTO 00000KT 09/04 A3003 490 71 0 000/00 RMK AO1 T00890039
54779K12N 12N20160425030009904/25/16 03:00:31  5-MIN K12N 250800Z AUTO 00000KT 08/04 A3003 480 73 -100 000/00 RMK AO1 T00830039
54779K12N 12N20160425030509604/25/16 03:05:31  5-MIN K12N 250805Z AUTO 00000KT 09/04 A3003 480 71 0 000/00 RMK AO1 T00890039
54779K12N 12N20160425031009604/25/16 03:10:31  5-MIN K12N 250810Z AUTO 00000KT 09/04 A3003 480 71 0 000/00 RMK AO1 T00890039
54779K12N 12N20160425031509604/25/16 03:15:31  5-MIN K12N 250815Z AUTO 00000KT 09/03 A3003 490 68 0 000/00 RMK AO1 T00890033
54779K12N 12N20160425032009604/25/16 03:20:31  5-MIN K12N 250820Z AUTO 00000KT 09/04 A3003 490 71 0 000/00 RMK AO1 T00890039
54779K12N 12N20160425032509604/25/16 03:25:31  5-MIN K12N 250825Z AUTO 00000KT 09/04 A3003 490 71 0 000/00 RMK AO1 T00890039
54779K12N 12N20160425033009604/25/16 03:30:31  5-MIN K12N 250830Z AUTO 00000KT 09/04 A3003 480 71 0 000/00 RMK AO1 T00890039
54779K12N 12N20160425033509604/25/16 03:35:31  5-MIN K12N 250835Z AUTO 00000KT 09/04 A3003 480 71 0 000/00 RMK AO1 T00890039
54779K12N 12N20160425034009604/25/16 03:40:31  5-MIN K12N 250840Z AUTO 00000KT 09/04 A3003 480 71 0 000/00 RMK AO1 T00890039
54779K12N 12N20160425034509604/25/16 03:45:31  5-MIN K12N 250845Z AUTO 00000KT 09/04 A3003 480 71 0 000/00 RMK AO1 T00890039
54779K12N 12N20160425035010904/25/16 03:50:31  5-MIN K12N 250850Z AUTO 00000KT 09/04 A3003 480 73 0 000/00 RMK AO1 SLP168 T00890044 50001
54779K12N 12N20160425035509604/25/16 03:55:31  5-MIN K12N 250855Z AUTO 00000KT 09/04 A3003 480 73 0 000/00 RMK AO1 T00890044
54779K12N 12N20160425040009604/25/16 04:00:31  5-MIN K12N 250900Z AUTO 00000KT 09/04 A3003 480 73 0 000/00 RMK AO1 T00890044
54779K12N 12N20160425040509604/25/16 04:05:31  5-MIN K12N 250905Z AUTO 00000KT 09/04 A3003 480 73 0 000/00 RMK AO1 T00890044
54779K12N 12N20160425041009604/25/16 04:10:31  5-MIN K12N 250910Z AUTO 00000KT 09/04 A3003 480 73 0 000/00 RMK AO1 T00890044
54779K12N 12N20160425041509604/25/16 04:15:31  5-MIN K12N 250915Z AUTO 00000KT 09/04 A3003 480 73 0 000/00 RMK AO1 T00890044
54779K12N 12N20160425042009604/25/16 04:20:31  5-MIN K12N 250920Z AUTO 00000KT 09/04 A3003 490 73 0 000/00 RMK AO1 T00890044
54779K12N 12N20160425042509604/25/16 04:25:31  5-MIN K12N 250925Z AUTO 00000KT 09/04 A3003 490 73 0 000/00 RMK AO1 T00890044
54779K12N 12N20160425043009604/25/16 04:30:31  5-MIN K12N 250930Z AUTO 00000KT 09/04 A3003 490 73 0 000/00 RMK AO1 T00890044
54779K12N 12N20160425043509604/25/16 04:35:31  5-MIN K12N 250935Z AUTO 00000KT 09/04 A3002 490 73 0 000/00 RMK AO1 T00890044
54779K12N 12N20160425044009604/25/16 04:40:31  5-MIN K12N 250940Z AUTO 00000KT 09/04 A3002 490 73 0 000/00 RMK AO1 T00890044
54779K12N 12N20160425044509604/25/16 04:45:31  5-MIN K12N 250945Z AUTO 00000KT 09/04 A3002 490 71 0 000/00 RMK AO1 T00890039
54779K12N 12N20160425045010304/25/16 04:50:31  5-MIN K12N 250950Z AUTO 00000KT 09/04 A3002 490 71 0 000/00 RMK AO1 SLP166 T00890039
54779K12N 12N20160425045509604/25/16 04:55:31  5-MIN K12N 250955Z AUTO 00000KT 09/04 A3002 490 73 0 000/00 RMK AO1 T00890044
54779K12N 12N20160425050009604/25/16 05:00:31  5-MIN K12N 251000Z AUTO 00000KT 09/04 A3003 490 73 0 000/00 RMK AO1 T00890044
54779K12N 12N20160425050509604/25/16 05:05:31  5-MIN K12N 251005Z AUTO 00000KT 09/04 A3003 490 71 0 000/00 RMK AO1 T00890039
54779K12N 12N20160425051009604/25/16 05:10:31  5-MIN K12N 251010Z AUTO 00000KT 09/04 A3003 480 71 0 000/00 RMK AO1 T00890039
54779K12N 12N20160425051509604/25/16 05:15:31  5-MIN K12N 251015Z AUTO 00000KT 09/04 A3003 480 71 0 000/00 RMK AO1 T00890039
54779K12N 12N20160425052009604/25/16 05:20:31  5-MIN K12N 251020Z AUTO 00000KT 09/03 A3003 480 65 0 000/00 RMK AO1 T00940033
54779K12N 12N20160425052509604/25/16 05:25:31  5-MIN K12N 251025Z AUTO 00000KT 09/03 A3003 480 65 0 000/00 RMK AO1 T00940033
54779K12N 12N20160425053009604/25/16 05:30:31  5-MIN K12N 251030Z AUTO 00000KT 09/03 A3003 480 65 0 000/00 RMK AO1 T00940033
54779K12N 12N20160425053509604/25/16 05:35:31  5-MIN K12N 251035Z AUTO 00000KT 09/03 A3003 480 65 0 000/00 RMK AO1 T00940033
54779K12N 12N20160425054009604/25/16 05:40:31  5-MIN K12N 251040Z AUTO 00000KT 09/03 A3003 480 63 0 000/00 RMK AO1 T00940028
54779K12N 12N20160425054509604/25/16 05:45:31  5-MIN K12N 251045Z AUTO 00000KT 09/02 A3003 480 60 0 000/00 RMK AO1 T00940022
54779K12N 12N20160425055010304/25/16 05:50:31  5-MIN K12N 251050Z AUTO 00000KT 09/02 A3004 480 60 0 000/00 RMK AO1 SLP170 T00940022
54779K12N 12N20160425055509604/25/16 05:55:31  5-MIN K12N 251055Z AUTO 00000KT 09/02 A3004 480 60 0 000/00 RMK AO1 T00940022
54779K12N 12N20160425060009604/25/16 06:00:31  5-MIN K12N 251100Z AUTO 00000KT 09/02 A3004 480 58 0 000/00 RMK AO1 T00940017
54779K12N 12N20160425060509604/25/16 06:05:31  5-MIN K12N 251105Z AUTO 00000KT 10/01 A3004 480 54 0 000/00 RMK AO1 T01000011
54779K12N 12N20160425061009604/25/16 06:10:31  5-MIN K12N 251110Z AUTO 00000KT 09/02 A3004 480 58 0 000/00 RMK AO1 T00940017
54779K12N 12N20160425061509604/25/16 06:15:31  5-MIN K12N 251115Z AUTO 00000KT 10/02 A3004 480 56 0 000/00 RMK AO1 T01000017
54779K12N 12N20160425062009604/25/16 06:20:31  5-MIN K12N 251120Z AUTO 00000KT 10/02 A3004 480 56 0 000/00 RMK AO1 T01000017
54779K12N 12N20160425062509604/25/16 06:25:31  5-MIN K12N 251125Z AUTO 00000KT 10/02 A3004 480 58 0 000/00 RMK AO1 T01000022
54779K12N 12N20160425063009604/25/16 06:30:31  5-MIN K12N 251130Z AUTO 00000KT 10/02 A3004 480 56 0 000/00 RMK AO1 T01000017
54779K12N 12N20160425063509604/25/16 06:35:31  5-MIN K12N 251135Z AUTO 00000KT 10/02 A3004 480 56 0 000/00 RMK AO1 T01000017
54779K12N 12N20160425064009604/25/16 06:40:31  5-MIN K12N 251140Z AUTO 00000KT 10/02 A3004 470 56 0 000/00 RMK AO1 T01000017
54779K12N 12N20160425064509804/25/16 06:45:31  5-MIN K12N 251145Z AUTO 36003KT 11/02 A3004 470 56 100 010/03 RMK AO1 T01060022
54779K12N 12N20160425065012304/25/16 06:50:31  5-MIN K12N 251150Z AUTO 00000KT 11/02 A3004 470 56 100 000/00 RMK AO1 SLP172 T01060022 10106 20072 55001
54779K12N 12N20160425065509804/25/16 06:55:31  5-MIN K12N 251155Z AUTO 00000KT 11/01 A3004 480 50 200 000/00 RMK AO1 T01110011
54779K12N 12N20160425070009804/25/16 07:00:31  5-MIN K12N 251200Z AUTO 00000KT 11/01 A3004 480 48 200 000/00 RMK AO1 T01110006
54779K12N 12N20160425070509804/25/16 07:05:31  5-MIN K12N 251205Z AUTO 00000KT 12/00 A3004 480 44 200 000/00 RMK AO1 T01170000
54779K12N 12N20160425071009804/25/16 07:10:31  5-MIN K12N 251210Z AUTO 00000KT 12/01 A3003 480 46 200 000/00 RMK AO1 T01170006
54779K12N 12N20160425071509804/25/16 07:15:31  5-MIN K12N 251215Z AUTO 00000KT 12/00 A3004 480 44 200 000/00 RMK AO1 T01170000
54779K12N 12N20160425072009804/25/16 07:20:31  5-MIN K12N 251220Z AUTO 00000KT 12/00 A3003 480 43 300 000/00 RMK AO1 T01220000
54779K12N 12N20160425072509904/25/16 07:25:31  5-MIN K12N 251225Z AUTO 00000KT 12/M01 A3003 480 41 300 000/00 RMK AO1 T01221006
54779K12N 12N20160425073009904/25/16 07:30:31  5-MIN K12N 251230Z AUTO 00000KT 12/M01 A3003 480 41 300 000/00 RMK AO1 T01221006
54779K12N 12N20160425073509804/25/16 07:35:31  5-MIN K12N 251235Z AUTO 00000KT 13/01 A3003 490 43 400 000/00 RMK AO1 T01280006
54779K12N 12N20160425074009804/25/16 07:40:31  5-MIN K12N 251240Z AUTO 00000KT 13/00 A3003 490 41 400 000/00 RMK AO1 T01280000
54779K12N 12N20160425074509804/25/16 07:45:31  5-MIN K12N 251245Z AUTO 00000KT 13/00 A3002 490 41 400 000/00 RMK AO1 T01280000
54779K12N 12N20160425075010504/25/16 07:50:31  5-MIN K12N 251250Z AUTO 00000KT 13/00 A3001 500 40 500 000/00 RMK AO1 SLP164 T01330000
54779K12N 12N20160425075509804/25/16 07:55:31  5-MIN K12N 251255Z AUTO 36004KT 14/00 A3002 500 38 500 010/04 RMK AO1 T01390000
54779K12N 12N20160425080009904/25/16 08:00:31  5-MIN K12N 251300Z AUTO 01004KT 14/M01 A3002 490 35 500 020/04 RMK AO1 T01391011
54779K12N 12N20160425080509904/25/16 08:05:31  5-MIN K12N 251305Z AUTO 36004KT 14/M02 A3003 490 34 500 010/04 RMK AO1 T01391017
54779K12N 12N20160425081009904/25/16 08:10:31  5-MIN K12N 251310Z AUTO 03003KT 14/M01 A3003 490 37 500 040/03 RMK AO1 T01391006
54779K12N 12N20160425081509904/25/16 08:15:31  5-MIN K12N 251315Z AUTO VRB03KT 14/M01 A3003 490 35 500 VRB/03 RMK AO1 T01391011
54779K12N 12N20160425082009904/25/16 08:20:31  5-MIN K12N 251320Z AUTO VRB03KT 14/M02 A3002 490 33 600 VRB/03 RMK AO1 T01441017
54779K12N 12N20160425082509804/25/16 08:25:31  5-MIN K12N 251325Z AUTO 00000KT 14/00 A3002 490 37 600 000/00 RMK AO1 T01440000
54779K12N 12N20160425083009904/25/16 08:30:31  5-MIN K12N 251330Z AUTO VRB04KT 14/M01 A3002 490 35 500 VRB/04 RMK AO1 T01391011
54779K12N 12N20160425083509904/25/16 08:35:31  5-MIN K12N 251335Z AUTO 00000KT 14/M01 A3002 500 35 500 000/00 RMK AO1 T01391011
54779K12N 12N20160425084009904/25/16 08:40:31  5-MIN K12N 251340Z AUTO 02004KT 14/M01 A3001 500 35 500 040/04 RMK AO1 T01391011
54779K12N 12N20160425084509804/25/16 08:45:31  5-MIN K12N 251345Z AUTO VRB04KT 16/00 A3001 500 34 700 VRB/04 RMK AO1 T01560000
54779K12N 12N20160425085010504/25/16 08:50:31  5-MIN K12N 251350Z AUTO 01004KT 15/00 A3001 500 35 700 020/04 RMK AO1 SLP164 T01500000
54779K12N 12N20160425085509904/25/16 08:55:31  5-MIN K12N 251355Z AUTO VRB03KT 15/M01 A3001 500 34 700 VRB/03 RMK AO1 T01501006
54779K12N 12N20160425090009904/25/16 09:00:31  5-MIN K12N 251400Z AUTO VRB04KT 16/M01 A3001 500 33 700 VRB/04 RMK AO1 T01561006
54779K12N 12N20160425090509904/25/16 09:05:31  5-MIN K12N 251405Z AUTO VRB04KT 16/M01 A3001 500 31 700 VRB/04 RMK AO1 T01561011
54779K12N 12N20160425091009904/25/16 09:10:31  5-MIN K12N 251410Z AUTO 36006KT 16/M01 A3001 500 31 700 010/06 RMK AO1 T01561011
54779K12N 12N20160425091509904/25/16 09:15:31  5-MIN K12N 251415Z AUTO 01004KT 16/M01 A3001 510 33 700 020/04 RMK AO1 T01561006
54779K12N 12N20160425092009904/25/16 09:20:31  5-MIN K12N 251420Z AUTO 36005KT 16/M01 A3000 510 31 700 010/05 RMK AO1 T01561011
54779K12N 12N20160425092509904/25/16 09:25:31  5-MIN K12N 251425Z AUTO 36005KT 16/M01 A3000 510 31 700 020/05 RMK AO1 T01561011
54779K12N 12N20160425093009904/25/16 09:30:31  5-MIN K12N 251430Z AUTO VRB05KT 16/M01 A3000 510 30 800 VRB/05 RMK AO1 T01611011
54779K12N 12N20160425093509904/25/16 09:35:31  5-MIN K12N 251435Z AUTO 36006KT 16/M01 A3000 510 30 800 010/06 RMK AO1 T01611011
54779K12N 12N20160425094009904/25/16 09:40:31  5-MIN K12N 251440Z AUTO 36006KT 17/M01 A3000 510 29 900 020/06 RMK AO1 T01671011
54779K12N 12N20160425094509904/25/16 09:45:31  5-MIN K12N 251445Z AUTO 36006KT 17/M01 A3000 520 31 900 010/06 RMK AO1 T01671006
54779K12N 12N20160425095011204/25/16 09:50:31  5-MIN K12N 251450Z AUTO 36004KT 17/M01 A2999 520 29 900 010/04 RMK AO1 SLP156 T01671011 53003
54779K12N 12N20160425095509904/25/16 09:55:31  5-MIN K12N 251455Z AUTO 35005KT 17/M01 A2999 520 29 900 360/05 RMK AO1 T01721006
54779K12N 12N20160425100009904/25/16 10:00:31  5-MIN K12N 251500Z AUTO 01004KT 17/M01 A2999 520 29 900 020/04 RMK AO1 T01721006
54779K12N 12N20160425100509904/25/16 10:05:31  5-MIN K12N 251505Z AUTO 36005KT 17/M01 A2999 520 29 900 010/05 RMK AO1 T01721006
54779K12N 12N20160425101009904/25/16 10:10:31  5-MIN K12N 251510Z AUTO VRB03KT 18/00 A2998 530 30 1000 VRB/03 RMK AO1 T01780000
54779K12N 12N20160425101510004/25/16 10:15:31  5-MIN K12N 251515Z AUTO 33003KT 18/M01 A2998 530 28 1000 350/03 RMK AO1 T01781006
54779K12N 12N20160425102010004/25/16 10:20:31  5-MIN K12N 251520Z AUTO VRB03KT 18/M02 A2998 530 26 1000 VRB/03 RMK AO1 T01781017
54779K12N 12N20160425102510004/25/16 10:25:31  5-MIN K12N 251525Z AUTO VRB03KT 18/M01 A2998 530 27 1100 VRB/03 RMK AO1 T01831006
54779K12N 12N20160425103010004/25/16 10:30:31  5-MIN K12N 251530Z AUTO 05003KT 18/M01 A2998 530 27 1100 060/03 RMK AO1 T01831006
54779K12N 12N20160425103510004/25/16 10:35:31  5-MIN K12N 251535Z AUTO 31003KT 18/M01 A2998 530 26 1100 330/03 RMK AO1 T01831011
54779K12N 12N20160425104010004/25/16 10:40:31  5-MIN K12N 251540Z AUTO 09003KT 18/M02 A2997 540 24 1100 100/03 RMK AO1 T01831022
54779K12N 12N20160425104510004/25/16 10:45:31  5-MIN K12N 251545Z AUTO 07003KT 19/M02 A2997 540 24 1200 090/03 RMK AO1 T01891017
54779K12N 12N20160425105010704/25/16 10:50:31  5-MIN K12N 251550Z AUTO 06003KT 18/M01 A2997 540 26 1100 070/03 RMK AO1 SLP148 T01831011
54779K12N 12N20160425105510004/25/16 10:55:31  5-MIN K12N 251555Z AUTO 00000KT 18/M02 A2997 540 25 1100 000/00 RMK AO1 T01831017
54779K12N 12N20160425110010004/25/16 11:00:31  5-MIN K12N 251600Z AUTO VRB04KT 18/M01 A2997 540 27 1100 VRB/04 RMK AO1 T01831006
54779K12N 12N20160425110510004/25/16 11:05:31  5-MIN K12N 251605Z AUTO 00000KT 18/M01 A2997 540 26 1100 000/00 RMK AO1 T01831011
54779K12N 12N20160425111010004/25/16 11:10:31  5-MIN K12N 251610Z AUTO 00000KT 18/M01 A2997 540 26 1100 000/00 RMK AO1 T01831011
54779K12N 12N20160425111510004/25/16 11:15:31  5-MIN K12N 251615Z AUTO 00000KT 18/M02 A2996 550 25 1100 000/00 RMK AO1 T01831017
54779K12N 12N20160425112010004/25/16 11:20:31  5-MIN K12N 251620Z AUTO 00000KT 19/M01 A2996 550 25 1200 000/00 RMK AO1 T01891011
54779K12N 12N20160425112510004/25/16 11:25:31  5-MIN K12N 251625Z AUTO 00000KT 19/M01 A2996 550 25 1200 000/00 RMK AO1 T01891011
54779K12N 12N20160425113010004/25/16 11:30:31  5-MIN K12N 251630Z AUTO 00000KT 19/M01 A2996 550 25 1200 000/00 RMK AO1 T01891011
54779K12N 12N20160425113510004/25/16 11:35:31  5-MIN K12N 251635Z AUTO VRB03KT 19/M01 A2995 550 26 1200 VRB/03 RMK AO1 T01891006
54779K12N 12N20160425114010004/25/16 11:40:31  5-MIN K12N 251640Z AUTO 05004KT 19/M01 A2996 550 25 1200 060/04 RMK AO1 T01891011
54779K12N 12N20160425114510004/25/16 11:45:31  5-MIN K12N 251645Z AUTO 34005KT 19/M01 A2996 550 26 1200 350/05 RMK AO1 T01891006
54779K12N 12N20160425115010704/25/16 11:50:31  5-MIN K12N 251650Z AUTO 00000KT 19/M01 A2996 550 25 1200 000/00 RMK AO1 SLP143 T01891011
54779K12N 12N20160425115510004/25/16 11:55:31  5-MIN K12N 251655Z AUTO VRB03KT 19/M01 A2995 550 25 1200 VRB/03 RMK AO1 T01891011
54779K12N 12N20160425120010004/25/16 12:00:31  5-MIN K12N 251700Z AUTO 00000KT 19/M01 A2995 550 26 1200 000/00 RMK AO1 T01891006
54779K12N 12N20160425120509904/25/16 12:05:31  5-MIN K12N 251705Z AUTO VRB04KT 19/01 A2995 560 28 1200 VRB/04 RMK AO1 T01940006
54779K12N 12N20160425121010004/25/16 12:10:31  5-MIN K12N 251710Z AUTO 00000KT 19/M01 A2995 560 25 1200 000/00 RMK AO1 T01891011
54779K12N 12N20160425121510004/25/16 12:15:31  5-MIN K12N 251715Z AUTO VRB03KT 19/M01 A2994 560 26 1300 VRB/03 RMK AO1 T01941006
54779K12N 12N20160425122009904/25/16 12:20:31  5-MIN K12N 251720Z AUTO VRB03KT 20/01 A2994 560 27 1300 VRB/03 RMK AO1 T02000006
54779K12N 12N20160425122509904/25/16 12:25:31  5-MIN K12N 251725Z AUTO 36004KT 21/01 A2994 570 27 1400 020/04 RMK AO1 T02060011
54779K12N 12N20160425123009904/25/16 12:30:31  5-MIN K12N 251730Z AUTO 03003KT 20/01 A2994 570 27 1300 040/03 RMK AO1 T02000006
54779K12N 12N20160425123510004/25/16 12:35:31  5-MIN K12N 251735Z AUTO 05004KT 20/M01 A2994 570 25 1300 060/04 RMK AO1 T02001006
54779K12N 12N20160425124009904/25/16 12:40:31  5-MIN K12N 251740Z AUTO 00000KT 19/00 A2994 570 27 1300 000/00 RMK AO1 T01940000
54779K12N 12N20160425124509904/25/16 12:45:31  5-MIN K12N 251745Z AUTO 04003KT 20/01 A2994 570 28 1300 050/03 RMK AO1 T02000011
54779K12N 12N20160425125012404/25/16 12:50:31  5-MIN K12N 251750Z AUTO 06004KT 20/00 A2994 570 26 1300 070/04 RMK AO1 SLP137 T02000000 10206 20111 58017
54779K12N 12N20160425125509904/25/16 12:55:31  5-MIN K12N 251755Z AUTO VRB03KT 20/00 A2993 570 26 1300 VRB/03 RMK AO1 T02000000
54779K12N 12N20160425130009904/25/16 13:00:31  5-MIN K12N 251800Z AUTO 00000KT 20/00 A2993 570 26 1300 000/00 RMK AO1 T02000000
54779K12N 12N20160425130509904/25/16 13:05:31  5-MIN K12N 251805Z AUTO VRB03KT 21/01 A2993 570 26 1400 VRB/03 RMK AO1 T02060006
54779K12N 12N20160425131009904/25/16 13:10:31  5-MIN K12N 251810Z AUTO 01003KT 20/01 A2993 580 27 1300 020/03 RMK AO1 T02000006
54779K12N 12N20160425131509904/25/16 13:15:31  5-MIN K12N 251815Z AUTO VRB03KT 20/01 A2993 580 27 1300 VRB/03 RMK AO1 T02000006
54779K12N 12N20160425132009904/25/16 13:20:31  5-MIN K12N 251820Z AUTO 04003KT 20/00 A2993 580 26 1300 050/03 RMK AO1 T02000000
54779K12N 12N20160425132509904/25/16 13:25:31  5-MIN K12N 251825Z AUTO 34003KT 20/00 A2993 580 26 1300 360/03 RMK AO1 T02000000
54779K12N 12N20160425133009904/25/16 13:30:31  5-MIN K12N 251830Z AUTO 00000KT 20/01 A2993 580 28 1300 000/00 RMK AO1 T02000011
54779K12N 12N20160425133509904/25/16 13:35:31  5-MIN K12N 251835Z AUTO VRB03KT 20/01 A2993 580 28 1300 VRB/03 RMK AO1 T02000011
54779K12N 12N20160425134009904/25/16 13:40:31  5-MIN K12N 251840Z AUTO 00000KT 21/01 A2993 580 27 1400 000/00 RMK AO1 T02060011
54779K12N 12N20160425134509904/25/16 13:45:31  5-MIN K12N 251845Z AUTO 00000KT 21/01 A2993 580 27 1400 000/00 RMK AO1 T02060011
54779K12N 12N20160425135010604/25/16 13:50:31  5-MIN K12N 251850Z AUTO 00000KT 21/00 A2992 580 25 1400 000/00 RMK AO1 SLP132 T02060000
54779K12N 12N20160425135509904/25/16 13:55:31  5-MIN K12N 251855Z AUTO VRB03KT 22/02 A2992 580 26 1500 VRB/03 RMK AO1 T02170017
54779K12N 12N20160425140009904/25/16 14:00:31  5-MIN K12N 251900Z AUTO VRB04KT 21/00 A2992 580 25 1400 VRB/04 RMK AO1 T02060000
54779K12N 12N20160425140509904/25/16 14:05:31  5-MIN K12N 251905Z AUTO 00000KT 21/01 A2992 590 26 1400 000/00 RMK AO1 T02060006
54779K12N 12N20160425141009904/25/16 14:10:31  5-MIN K12N 251910Z AUTO VRB03KT 21/00 A2992 590 25 1400 VRB/03 RMK AO1 T02060000
54779K12N 12N20160425141509904/25/16 14:15:31  5-MIN K12N 251915Z AUTO 00000KT 21/01 A2991 590 26 1500 000/00 RMK AO1 T02110011
54779K12N 12N20160425142009904/25/16 14:20:31  5-MIN K12N 251920Z AUTO VRB04KT 21/00 A2991 590 24 1500 VRB/04 RMK AO1 T02110000
54779K12N 12N20160425142509904/25/16 14:25:31  5-MIN K12N 251925Z AUTO 22005KT 21/00 A2991 590 25 1400 230/05 RMK AO1 T02060000
54779K12N 12N20160425143010004/25/16 14:30:31  5-MIN K12N 251930Z AUTO 25005KT 21/M01 A2991 600 24 1400 270/05 RMK AO1 T02061006
54779K12N 12N20160425143509904/25/16 14:35:31  5-MIN K12N 251935Z AUTO 00000KT 21/00 A2991 600 24 1500 000/00 RMK AO1 T02110000
54779K12N 12N20160425144009904/25/16 14:40:31  5-MIN K12N 251940Z AUTO VRB03KT 21/01 A2990 600 25 1500 VRB/03 RMK AO1 T02110006
54779K12N 12N20160425144509904/25/16 14:45:31  5-MIN K12N 251945Z AUTO VRB04KT 21/00 A2990 600 24 1500 VRB/04 RMK AO1 T02110000
54779K12N 12N20160425145010704/25/16 14:50:31  5-MIN K12N 251950Z AUTO VRB04KT 21/M01 A2990 610 22 1500 VRB/04 RMK AO1 SLP122 T02111011
54779K12N 12N20160425145510004/25/16 14:55:31  5-MIN K12N 251955Z AUTO VRB04KT 21/M01 A2990 610 23 1500 VRB/04 RMK AO1 T02111006
54779K12N 12N20160425211509804/25/16 21:15:31  5-MIN K12N 260215Z AUTO 00000KT 14/07 A2986 640 64 700 000/00 RMK AO1 T01390072
54779K12N 12N20160425212009804/25/16 21:20:31  5-MIN K12N 260220Z AUTO 00000KT 14/07 A2986 640 64 700 000/00 RMK AO1 T01390072
54779K12N 12N20160425212509804/25/16 21:25:31  5-MIN K12N 260225Z AUTO 00000KT 14/07 A2986 640 64 700 000/00 RMK AO1 T01390072
54779K12N 12N20160425213009804/25/16 21:30:31  5-MIN K12N 260230Z AUTO 00000KT 14/07 A2986 640 64 700 000/00 RMK AO1 T01390072
54779K12N 12N20160425213509804/25/16 21:35:31  5-MIN K12N 260235Z AUTO 00000KT 13/07 A2986 640 66 600 000/00 RMK AO1 T01330072
54779K12N 12N20160425214009804/25/16 21:40:31  5-MIN K12N 260240Z AUTO 00000KT 13/07 A2986 640 66 600 000/00 RMK AO1 T01330072
54779K12N 12N20160425214509804/25/16 21:45:31  5-MIN K12N 260245Z AUTO 00000KT 13/07 A2986 640 66 600 000/00 RMK AO1 T01330072
54779K12N 12N20160425215011104/25/16 21:50:31  5-MIN K12N 260250Z AUTO 00000KT 13/07 A2986 640 69 600 000/00 RMK AO1 SLP110 T01280072 55005
54779K12N 12N20160425215509804/25/16 21:55:31  5-MIN K12N 260255Z AUTO 00000KT 12/07 A2986 640 71 500 000/00 RMK AO1 T01220072
54779K12N 12N20160425220009804/25/16 22:00:31  5-MIN K12N 260300Z AUTO 00000KT 13/08 A2986 640 71 600 000/00 RMK AO1 T01280078
54779K12N 12N20160425220509804/25/16 22:05:31  5-MIN K12N 260305Z AUTO 00000KT 13/07 A2986 640 64 600 000/00 RMK AO1 T01330067
54779K12N 12N20160425221009804/25/16 22:10:31  5-MIN K12N 260310Z AUTO VRB03KT 13/05 A2986 640 57 600 VRB/03 RMK AO1 T01330050
54779K12N 12N20160425221509804/25/16 22:15:31  5-MIN K12N 260315Z AUTO 03005KT 13/04 A2985 650 52 600 050/05 RMK AO1 T01330039
54779K12N 12N20160425222009804/25/16 22:20:31  5-MIN K12N 260320Z AUTO VRB03KT 13/04 A2985 650 52 600 VRB/03 RMK AO1 T01330039
54779K12N 12N20160425222509804/25/16 22:25:31  5-MIN K12N 260325Z AUTO VRB03KT 12/04 A2985 650 56 500 VRB/03 RMK AO1 T01220039
54779K12N 12N20160425223009804/25/16 22:30:31  5-MIN K12N 260330Z AUTO VRB03KT 12/04 A2985 650 56 500 VRB/03 RMK AO1 T01220039
54779K12N 12N20160425223509804/25/16 22:35:31  5-MIN K12N 260335Z AUTO 03004KT 13/04 A2985 650 54 600 050/04 RMK AO1 T01280039
54779K12N 12N20160425224009804/25/16 22:40:31  5-MIN K12N 260340Z AUTO 03003KT 12/03 A2985 650 54 500 040/03 RMK AO1 T01220033
54779K12N 12N20160425224509804/25/16 22:45:31  5-MIN K12N 260345Z AUTO 03004KT 12/03 A2985 650 54 500 040/04 RMK AO1 T01220033
54779K12N 12N20160425225010504/25/16 22:50:31  5-MIN K12N 260350Z AUTO VRB03KT 12/03 A2985 650 56 400 VRB/03 RMK AO1 SLP106 T01170033
54779K12N 12N20160425225509804/25/16 22:55:31  5-MIN K12N 260355Z AUTO VRB03KT 12/03 A2985 650 54 400 VRB/03 RMK AO1 T01170028
54779K12N 12N20160425230009804/25/16 23:00:31  5-MIN K12N 260400Z AUTO 02004KT 12/03 A2985 650 56 400 040/04 RMK AO1 T01170033
54779K12N 12N20160425230509804/25/16 23:05:31  5-MIN K12N 260405Z AUTO VRB04KT 12/02 A2985 650 52 400 VRB/04 RMK AO1 T01170022
54779K12N 12N20160425231009804/25/16 23:10:31  5-MIN K12N 260410Z AUTO VRB03KT 12/02 A2985 650 50 500 VRB/03 RMK AO1 T01220022
54779K12N 12N20160425231509804/25/16 23:15:31  5-MIN K12N 260415Z AUTO VRB04KT 12/02 A2985 650 50 500 VRB/04 RMK AO1 T01220022
54779K12N 12N20160425232009804/25/16 23:20:31  5-MIN K12N 260420Z AUTO VRB03KT 12/02 A2985 650 50 500 VRB/03 RMK AO1 T01220022
54779K12N 12N20160425232509804/25/16 23:25:31  5-MIN K12N 260425Z AUTO VRB03KT 12/03 A2984 660 54 500 VRB/03 RMK AO1 T01170028
54779K12N 12N20160425233009804/25/16 23:30:31  5-MIN K12N 260430Z AUTO VRB03KT 12/02 A2984 660 52 500 VRB/03 RMK AO1 T01170022
54779K12N 12N20160425233509804/25/16 23:35:31  5-MIN K12N 260435Z AUTO 00000KT 12/02 A2983 660 52 500 000/00 RMK AO1 T01170022
54779K12N 12N20160425234009804/25/16 23:40:31  5-MIN K12N 260440Z AUTO 00000KT 12/02 A2983 670 48 500 000/00 RMK AO1 T01220017
54779K12N 12N20160425234509804/25/16 23:45:31  5-MIN K12N 260445Z AUTO 01003KT 12/02 A2983 670 52 500 020/03 RMK AO1 T01170022
54779K12N 12N20160425235011504/25/16 23:50:31  5-MIN K12N 260450Z AUTO VRB03KT 12/03 A2983 670 54 500 VRB/03 RMK AO1 SLP099 T01170028 402220061
54779K12N 12N20160425235509804/25/16 23:55:31  5-MIN K12N 260455Z AUTO VRB03KT 12/03 A2983 670 54 500 VRB/03 RMK AO1 T01170028
54779K12N 12N20160426000009804/26/16 00:00:31  5-MIN K12N 260500Z AUTO VRB03KT 12/03 A2982 670 54 500 VRB/03 RMK AO1 T01170028
54779K12N 12N20160426000509804/26/16 00:05:31  5-MIN K12N 260505Z AUTO 04006KT 12/02 A2982 680 52 500 050/06 RMK AO1 T01170022
54779K12N 12N20160426001009804/26/16 00:10:31  5-MIN K12N 260510Z AUTO 04005KT 12/02 A2982 680 52 500 050/05 RMK AO1 T01170022
54779K12N 12N20160426001509804/26/16 00:15:31  5-MIN K12N 260515Z AUTO VRB03KT 12/02 A2982 680 50 500 VRB/03 RMK AO1 T01170017
54779K12N 12N20160426002009804/26/16 00:20:31  5-MIN K12N 260520Z AUTO 04006KT 12/02 A2981 690 52 500 050/06 RMK AO1 T01170022
54779K12N 12N20160426002509804/26/16 00:25:31  5-MIN K12N 260525Z AUTO 04006KT 12/02 A2980 690 50 500 050/06 RMK AO1 T01170017
54779K12N 12N20160426003009804/26/16 00:30:31  5-MIN K12N 260530Z AUTO VRB05KT 12/02 A2980 690 50 500 VRB/05 RMK AO1 T01170017
54779K12N 12N20160426003509804/26/16 00:35:31  5-MIN K12N 260535Z AUTO 03005KT 12/02 A2980 700 52 500 040/05 RMK AO1 T01170022
54779K12N 12N20160426004009804/26/16 00:40:31  5-MIN K12N 260540Z AUTO 03006KT 12/02 A2980 700 50 500 040/06 RMK AO1 T01170017
54779K12N 12N20160426004509804/26/16 00:45:31  5-MIN K12N 260545Z AUTO 04007KT 12/02 A2980 700 50 500 050/07 RMK AO1 T01170017
54779K12N 12N20160426005012304/26/16 00:50:31  5-MIN K12N 260550Z AUTO VRB05KT 12/02 A2980 700 50 500 VRB/05 RMK AO1 SLP088 T01170017 10183 20117 58003
54779K12N 12N20160426005509804/26/16 00:55:31  5-MIN K12N 260555Z AUTO VRB04KT 12/02 A2981 690 52 500 VRB/04 RMK AO1 T01170022
54779K12N 12N20160426010008804/26/16 01:00:31  5-MIN K12N 260600Z AUTO 12/02 A2982 680 52 500 M /M RMK AO1 T01170022
54779K12N 12N20160426010509804/26/16 01:05:31  5-MIN K12N 260605Z AUTO VRB05KT 12/01 A2982 680 48 500 VRB/05 RMK AO1 T01170011
54779K12N 12N20160426011012004/26/16 01:10:31  5-MIN K12N 260610Z AUTO 04010G16KT 360V060 12/02 A2981 690 50 500 050/10G16 010V070 RMK AO1 T01170017
54779K12N 12N20160426011512004/26/16 01:15:31  5-MIN K12N 260615Z AUTO 03008G17KT 340V050 12/01 A2981 690 48 500 040/08G17 350V060 RMK AO1 T01170011
54779K12N 12N20160426012010404/26/16 01:20:31  5-MIN K12N 260620Z AUTO VRB06G17KT 12/02 A2982 680 52 500 VRB/06G17 RMK AO1 T01170022
54779K12N 12N20160426012510404/26/16 01:25:31  5-MIN K12N 260625Z AUTO 01010G14KT 11/02 A2984 660 52 400 020/10G14 RMK AO1 T01110017
54779K12N 12N20160426013012004/26/16 01:30:31  5-MIN K12N 260630Z AUTO 04008G15KT 360V080 11/03 A2982 680 56 400 050/08G15 010V090 RMK AO1 T01110028
54779K12N 12N20160426013510404/26/16 01:35:31  5-MIN K12N 260635Z AUTO 36008G14KT 10/04 A2983 670 65 300 010/08G14 RMK AO1 T01000039
54779K12N 12N20160426014010404/26/16 01:40:31  5-MIN K12N 260640Z AUTO VRB03KT 09/05 A2984 660 76 100 VRB/03 RMK AO1 P0003 T00890050
54779K12N 12N20160426014510404/26/16 01:45:31  5-MIN K12N 260645Z AUTO VRB05KT 08/06 A2983 670 86 100 VRB/05 RMK AO1 P0013 T00830061
54779K12N 12N20160426015010904/26/16 01:50:31  5-MIN K12N 260650Z AUTO 00000KT 08/06 A2982 680 89 0 000/00 RMK AO1 SLP097 P0027 T00780061
54779K12N 12N20160426015510204/26/16 01:55:31  5-MIN K12N 260655Z AUTO 00000KT 07/06 A2981 680 93 0 000/00 RMK AO1 P0004 T00720061
54779K12N 12N20160426020010904/26/16 02:00:31  5-MIN K12N 260700Z AUTO VRB03KT 08/06 A2981 690 89 0 VRB/03 RMK AO1 PRESFR P0007 T00780061
54779K12N 12N20160426020510904/26/16 02:05:31  5-MIN K12N 260705Z AUTO VRB03KT 08/07 A2980 700 93 0 VRB/03 RMK AO1 PRESFR P0008 T00780067
54779K12N 12N20160426021010204/26/16 02:10:31  5-MIN K12N 260710Z AUTO 35003KT 08/07 A2979 700 93 0 360/03 RMK AO1 P0008 T00780067
54779K12N 12N20160426021510404/26/16 02:15:31  5-MIN K12N 260715Z AUTO VRB03KT 08/07 A2979 710 89 100 VRB/03 RMK AO1 P0008 T00830067
54779K12N 12N20160426022011104/26/16 02:20:31  5-MIN K12N 260720Z AUTO 36004KT 08/07 A2978 710 93 100 010/04 RMK AO1 PRESFR P0008 T00780067
54779K12N 12N20160426022511104/26/16 02:25:31  5-MIN K12N 260725Z AUTO 05004KT 08/07 A2978 720 89 100 060/04 RMK AO1 PRESFR P0008 T00830067
54779K12N 12N20160426023011104/26/16 02:30:31  5-MIN K12N 260730Z AUTO 00000KT 08/07 A2977 720 93 100 000/00 RMK AO1 PRESFR P0008 T00830072
54779K12N 12N20160426023510404/26/16 02:35:31  5-MIN K12N 260735Z AUTO 03005KT 08/07 A2977 730 93 100 040/05 RMK AO1 P0008 T00830072
54779K12N 12N20160426024010404/26/16 02:40:31  5-MIN K12N 260740Z AUTO 36005KT 08/07 A2977 720 93 100 020/05 RMK AO1 P0008 T00830072
54779K12N 12N20160426024509404/26/16 02:45:31  5-MIN K12N 260745Z AUTO 08/07 A2977 730 89 100 M /M RMK AO1 P0009 T00830067
54779K12N 12N20160426025011104/26/16 02:50:31  5-MIN K12N 260750Z AUTO VRB04KT 08/07 A2977 720 89 100 VRB/04 RMK AO1 SLP079 P0009 T00830067
54779K12N 12N20160426025509804/26/16 02:55:31  5-MIN K12N 260755Z AUTO VRB04KT 08/07 A2977 730 89 100 VRB/04 RMK AO1 T00830067
54779K12N 12N20160426030009804/26/16 03:00:31  5-MIN K12N 260800Z AUTO 04005KT 08/07 A2976 730 93 100 050/05 RMK AO1 T00830072
54779K12N 12N20160426030509804/26/16 03:05:31  5-MIN K12N 260805Z AUTO VRB04KT 08/07 A2975 740 93 100 VRB/04 RMK AO1 T00780067
54779K12N 12N20160426031009804/26/16 03:10:31  5-MIN K12N 260810Z AUTO 04004KT 08/07 A2975 740 93 200 050/04 RMK AO1 T00830072
54779K12N 12N20160426031509804/26/16 03:15:31  5-MIN K12N 260815Z AUTO 00000KT 08/07 A2975 750 93 100 000/00 RMK AO1 T00780067
54779K12N 12N20160426032009804/26/16 03:20:31  5-MIN K12N 260820Z AUTO 00000KT 08/07 A2974 750 96 100 000/00 RMK AO1 T00780072
54779K12N 12N20160426032509804/26/16 03:25:31  5-MIN K12N 260825Z AUTO 00000KT 08/07 A2974 750 89 200 000/00 RMK AO1 T00830067
54779K12N 12N20160426033009804/26/16 03:30:31  5-MIN K12N 260830Z AUTO 00000KT 08/07 A2974 760 93 200 000/00 RMK AO1 T00830072
54779K12N 12N20160426033509804/26/16 03:35:31  5-MIN K12N 260835Z AUTO 00000KT 08/07 A2973 760 96 100 000/00 RMK AO1 T00780072
54779K12N 12N20160426034009804/26/16 03:40:31  5-MIN K12N 260840Z AUTO 35006KT 08/07 A2974 750 93 200 010/06 RMK AO1 T00830072
54779K12N 12N20160426034509804/26/16 03:45:31  5-MIN K12N 260845Z AUTO 34004KT 08/07 A2975 740 93 200 350/04 RMK AO1 T00830072
54779K12N 12N20160426035011704/26/16 03:50:31  5-MIN K12N 260850Z AUTO 01005KT 08/07 A2975 740 93 100 020/05 RMK AO1 SLP074 60044 T00780067 58019
54779K12N 12N20160426035510504/26/16 03:55:31  5-MIN K12N 260855Z AUTO 31003KT 08/07 A2977 730 89 100 330/03 RMK AO1 PRESRR T00830067
54779K12N 12N20160426040009804/26/16 04:00:31  5-MIN K12N 260900Z AUTO 02003KT 08/07 A2976 730 93 100 040/03 RMK AO1 T00780067
54779K12N 12N20160426040509804/26/16 04:05:31  5-MIN K12N 260905Z AUTO 00000KT 08/07 A2976 740 89 200 000/00 RMK AO1 T00830067
54779K12N 12N20160426041010404/26/16 04:10:31  5-MIN K12N 260910Z AUTO 00000KT 08/07 A2975 740 93 100 000/00 RMK AO1 P0002 T00780067
54779K12N 12N20160426041510404/26/16 04:15:31  5-MIN K12N 260915Z AUTO 00000KT 08/07 A2975 740 93 100 000/00 RMK AO1 P0002 T00780067
54779K12N 12N20160426042010404/26/16 04:20:31  5-MIN K12N 260920Z AUTO 00000KT 08/07 A2975 740 89 200 000/00 RMK AO1 P0002 T00830067
54779K12N 12N20160426042510404/26/16 04:25:31  5-MIN K12N 260925Z AUTO 00000KT 08/07 A2974 750 89 200 000/00 RMK AO1 P0002 T00830067
54779K12N 12N20160426043010404/26/16 04:30:31  5-MIN K12N 260930Z AUTO 00000KT 08/07 A2975 750 93 200 000/00 RMK AO1 P0002 T00830072
54779K12N 12N20160426043510404/26/16 04:35:31  5-MIN K12N 260935Z AUTO 00000KT 08/07 A2975 740 93 200 000/00 RMK AO1 P0002 T00830072
54779K12N 12N20160426044010404/26/16 04:40:31  5-MIN K12N 260940Z AUTO 00000KT 08/07 A2976 740 93 200 000/00 RMK AO1 P0002 T00830072
54779K12N 12N20160426044510404/26/16 04:45:31  5-MIN K12N 260945Z AUTO 00000KT 08/07 A2976 730 93 100 000/00 RMK AO1 P0002 T00830072
54779K12N 12N20160426045011104/26/16 04:50:31  5-MIN K12N 260950Z AUTO 00000KT 08/07 A2976 740 93 200 000/00 RMK AO1 SLP075 P0002 T00830072
54779K12N 12N20160426045509804/26/16 04:55:31  5-MIN K12N 260955Z AUTO 00000KT 08/07 A2975 740 93 200 000/00 RMK AO1 T00830072
54779K12N 12N20160426050009804/26/16 05:00:31  5-MIN K12N 261000Z AUTO 05003KT 08/07 A2975 740 93 200 060/03 RMK AO1 T00830072
54779K12N 12N20160426050509804/26/16 05:05:31  5-MIN K12N 261005Z AUTO 00000KT 08/07 A2975 740 93 200 000/00 RMK AO1 T00830072
54779K12N 12N20160426051009804/26/16 05:10:31  5-MIN K12N 261010Z AUTO 01003KT 08/07 A2975 740 93 200 020/03 RMK AO1 T00830072
54779K12N 12N20160426051509804/26/16 05:15:31  5-MIN K12N 261015Z AUTO VRB03KT 08/07 A2975 740 89 200 VRB/03 RMK AO1 T00830067
54779K12N 12N20160426052009804/26/16 05:20:31  5-MIN K12N 261020Z AUTO 04005KT 08/07 A2975 740 93 200 050/05 RMK AO1 T00830072
54779K12N 12N20160426052509804/26/16 05:25:31  5-MIN K12N 261025Z AUTO 04005KT 08/07 A2974 750 89 200 050/05 RMK AO1 T00830067
54779K12N 12N20160426053009804/26/16 05:30:31  5-MIN K12N 261030Z AUTO 04003KT 08/07 A2975 750 89 200 050/03 RMK AO1 T00830067
54779K12N 12N20160426053509804/26/16 05:35:31  5-MIN K12N 261035Z AUTO 04005KT 08/07 A2975 740 89 200 060/05 RMK AO1 T00830067
54779K12N 12N20160426054009804/26/16 05:40:31  5-MIN K12N 261040Z AUTO 05005KT 08/07 A2975 740 89 200 060/05 RMK AO1 T00830067
54779K12N 12N20160426054509804/26/16 05:45:31  5-MIN K12N 261045Z AUTO 05004KT 08/07 A2975 740 89 200 060/04 RMK AO1 T00830067
54779K12N 12N20160426055010504/26/16 05:50:31  5-MIN K12N 261050Z AUTO 05004KT 08/07 A2975 740 89 200 060/04 RMK AO1 SLP072 T00830067
54779K12N 12N20160426055509804/26/16 05:55:31  5-MIN K12N 261055Z AUTO 05003KT 08/07 A2975 750 89 200 070/03 RMK AO1 T00830067
54779K12N 12N20160426060009804/26/16 06:00:31  5-MIN K12N 261100Z AUTO 04003KT 08/07 A2974 750 89 200 060/03 RMK AO1 T00830067
54779K12N 12N20160426060509804/26/16 06:05:31  5-MIN K12N 261105Z AUTO 04003KT 08/07 A2974 750 93 200 050/03 RMK AO1 T00830072
54779K12N 12N20160426061009804/26/16 06:10:31  5-MIN K12N 261110Z AUTO 04003KT 08/07 A2974 750 93 200 050/03 RMK AO1 T00830072
54779K12N 12N20160426061509804/26/16 06:15:31  5-MIN K12N 261115Z AUTO 02003KT 08/07 A2974 750 93 200 030/03 RMK AO1 T00830072
54779K12N 12N20160426062009804/26/16 06:20:31  5-MIN K12N 261120Z AUTO 00000KT 09/07 A2974 750 89 200 000/00 RMK AO1 T00890072
54779K12N 12N20160426062509804/26/16 06:25:31  5-MIN K12N 261125Z AUTO 00000KT 09/07 A2974 760 89 200 000/00 RMK AO1 T00890072
54779K12N 12N20160426063009804/26/16 06:30:31  5-MIN K12N 261130Z AUTO 00000KT 09/08 A2973 760 93 200 000/00 RMK AO1 T00890078
54779K12N 12N20160426063509804/26/16 06:35:31  5-MIN K12N 261135Z AUTO 00000KT 09/08 A2973 760 93 200 000/00 RMK AO1 T00890078
54779K12N 12N20160426064009804/26/16 06:40:31  5-MIN K12N 261140Z AUTO 00000KT 09/08 A2973 760 93 300 000/00 RMK AO1 T00890078
54779K12N 12N20160426064509804/26/16 06:45:31  5-MIN K12N 261145Z AUTO 00000KT 09/08 A2973 770 89 300 000/00 RMK AO1 T00940078
54779K12N 12N20160426065013504/26/16 06:50:31  5-MIN K12N 261150Z AUTO 00000KT 09/08 A2972 770 89 300 000/00 RMK AO1 SLP064 60046 70046 T00940078 10117 20072 58013
54779K12N 12N20160426065509804/26/16 06:55:31  5-MIN K12N 261155Z AUTO 00000KT 09/08 A2972 770 89 300 000/00 RMK AO1 T00940078
54779K12N 12N20160426070009804/26/16 07:00:31  5-MIN K12N 261200Z AUTO 00000KT 09/08 A2972 770 89 300 000/00 RMK AO1 T00940078
54779K12N 12N20160426070509804/26/16 07:05:31  5-MIN K12N 261205Z AUTO 00000KT 09/08 A2972 770 93 300 000/00 RMK AO1 T00940083
54779K12N 12N20160426071009804/26/16 07:10:31  5-MIN K12N 261210Z AUTO 00000KT 09/08 A2972 770 89 300 000/00 RMK AO1 T00940078
54779K12N 12N20160426071509804/26/16 07:15:31  5-MIN K12N 261215Z AUTO 00000KT 09/08 A2972 770 89 300 000/00 RMK AO1 T00940078
54779K12N 12N20160426072009804/26/16 07:20:31  5-MIN K12N 261220Z AUTO 00000KT 10/08 A2971 780 89 400 000/00 RMK AO1 T01000083
54779K12N 12N20160426072509804/26/16 07:25:31  5-MIN K12N 261225Z AUTO 00000KT 09/08 A2971 780 93 300 000/00 RMK AO1 T00940083
54779K12N 12N20160426073009804/26/16 07:30:31  5-MIN K12N 261230Z AUTO 00000KT 10/08 A2970 790 89 400 000/00 RMK AO1 T01000083
54779K12N 12N20160426073509804/26/16 07:35:31  5-MIN K12N 261235Z AUTO 00000KT 10/08 A2970 790 89 400 000/00 RMK AO1 T01000083
54779K12N 12N20160426074009804/26/16 07:40:31  5-MIN K12N 261240Z AUTO 00000KT 10/08 A2970 790 89 400 000/00 RMK AO1 T01000083
54779K12N 12N20160426074509804/26/16 07:45:31  5-MIN K12N 261245Z AUTO 00000KT 10/08 A2970 790 89 400 000/00 RMK AO1 T01000083
54779K12N 12N20160426075010504/26/16 07:50:31  5-MIN K12N 261250Z AUTO 00000KT 11/09 A2970 790 89 500 000/00 RMK AO1 SLP054 T01060089
54779K12N 12N20160426075509804/26/16 07:55:31  5-MIN K12N 261255Z AUTO 00000KT 11/09 A2970 790 89 500 000/00 RMK AO1 T01060089
54779K12N 12N20160426080009804/26/16 08:00:31  5-MIN K12N 261300Z AUTO 00000KT 11/09 A2970 790 89 500 000/00 RMK AO1 T01060089
54779K12N 12N20160426080509804/26/16 08:05:31  5-MIN K12N 261305Z AUTO 00000KT 11/09 A2970 790 89 600 000/00 RMK AO1 T01110094
54779K12N 12N20160426081009804/26/16 08:10:31  5-MIN K12N 261310Z AUTO 00000KT 11/09 A2970 790 89 600 000/00 RMK AO1 T01110094
54779K12N 12N20160426081509804/26/16 08:15:31  5-MIN K12N 261315Z AUTO 00000KT 12/09 A2970 790 86 600 000/00 RMK AO1 T01170094
54779K12N 12N20160426082009804/26/16 08:20:31  5-MIN K12N 261320Z AUTO 00000KT 12/09 A2969 790 86 600 000/00 RMK AO1 T01170094
54779K12N 12N20160426082509804/26/16 08:25:31  5-MIN K12N 261325Z AUTO 31003KT 12/09 A2970 790 86 600 320/03 RMK AO1 T01170094
54779K12N 12N20160426083009804/26/16 08:30:31  5-MIN K12N 261330Z AUTO 31004KT 12/10 A2971 780 89 600 330/04 RMK AO1 T01170100
54779K12N 12N20160426083510504/26/16 08:35:31  5-MIN K12N 261335Z AUTO 30004KT 11/10 A2972 770 93 500 310/04 RMK AO1 PRESRR T01110100
54779K12N 12N20160426084009804/26/16 08:40:31  5-MIN K12N 261340Z AUTO 30003KT 11/10 A2972 770 93 500 320/03 RMK AO1 T01110100
54779K12N 12N20160426084509804/26/16 08:45:31  5-MIN K12N 261345Z AUTO 00000KT 11/10 A2972 770 93 500 000/00 RMK AO1 T01110100
54779K12N 12N20160426085010504/26/16 08:50:31  5-MIN K12N 261350Z AUTO 00000KT 11/10 A2971 780 93 500 000/00 RMK AO1 SLP060 T01110100
54779K12N 12N20160426085509804/26/16 08:55:31  5-MIN K12N 261355Z AUTO 00000KT 11/10 A2971 780 93 500 000/00 RMK AO1 T01110100
54779K12N 12N20160426090009804/26/16 09:00:31  5-MIN K12N 261400Z AUTO 00000KT 11/10 A2970 790 93 500 000/00 RMK AO1 T01110100
54779K12N 12N20160426090510504/26/16 09:05:31  5-MIN K12N 261405Z AUTO 12003KT 11/10 A2969 800 93 600 130/03 RMK AO1 PRESFR T01110100
54779K12N 12N20160426091009804/26/16 09:10:31  5-MIN K12N 261410Z AUTO VRB03KT 11/10 A2969 800 93 600 VRB/03 RMK AO1 T01110100
54779K12N 12N20160426194009804/26/16 19:40:31  5-MIN K12N 270040Z AUTO VRB03KT 10/09 A2980 700 93 300 VRB/03 RMK AO1 T01000089
54779K12N 12N20160426194508804/26/16 19:45:31  5-MIN K12N 270045Z AUTO 10/09 A2980 700 93 300 M /M RMK AO1 T01000089
54779K12N 12N20160426195010504/26/16 19:50:31  5-MIN K12N 270050Z AUTO VRB04KT 09/09 A2980 690 96 200 VRB/04 RMK AO1 SLP094 T00940089
54779K12N 12N20160426195509804/26/16 19:55:31  5-MIN K12N 270055Z AUTO 04005KT 09/08 A2981 690 93 200 050/05 RMK AO1 T00940083
54779K12N 12N20160426200009804/26/16 20:00:31  5-MIN K12N 270100Z AUTO VRB05KT 09/08 A2981 690 93 200 VRB/05 RMK AO1 T00940083
54779K12N 12N20160426200509804/26/16 20:05:31  5-MIN K12N 270105Z AUTO VRB05KT 09/08 A2981 690 93 200 VRB/05 RMK AO1 T00940083
54779K12N 12N20160426201009804/26/16 20:10:31  5-MIN K12N 270110Z AUTO VRB04KT 09/09 A2981 690 96 200 VRB/04 RMK AO1 T00940089
54779K12N 12N20160426201509804/26/16 20:15:31  5-MIN K12N 270115Z AUTO VRB05KT 09/09 A2981 680 96 200 VRB/05 RMK AO1 T00940089
54779K12N 12N20160426202009804/26/16 20:20:31  5-MIN K12N 270120Z AUTO 00000KT 09/08 A2982 680 96 200 000/00 RMK AO1 T00890083
54779K12N 12N20160426202509804/26/16 20:25:31  5-MIN K12N 270125Z AUTO 03006KT 09/08 A2982 680 96 100 050/06 RMK AO1 T00890083
54779K12N 12N20160426203009804/26/16 20:30:31  5-MIN K12N 270130Z AUTO VRB05KT 09/08 A2982 680 96 100 VRB/05 RMK AO1 T00890083
54779K12N 12N20160426203509804/26/16 20:35:31  5-MIN K12N 270135Z AUTO VRB04KT 09/08 A2982 670 93 100 VRB/04 RMK AO1 T00890078
54779K12N 12N20160426204009804/26/16 20:40:31  5-MIN K12N 270140Z AUTO 04006KT 09/08 A2982 670 93 100 050/06 RMK AO1 T00890078
54779K12N 12N20160426204509804/26/16 20:45:31  5-MIN K12N 270145Z AUTO 03006KT 08/08 A2983 670 96 100 040/06 RMK AO1 T00830078
54779K12N 12N20160426205010504/26/16 20:50:31  5-MIN K12N 270150Z AUTO 03005KT 08/08 A2983 670 96 100 040/05 RMK AO1 SLP103 T00830078
54779K12N 12N20160426205509804/26/16 20:55:31  5-MIN K12N 270155Z AUTO 03006KT 08/08 A2983 670 96 100 050/06 RMK AO1 T00830078
54779K12N 12N20160426210009804/26/16 21:00:31  5-MIN K12N 270200Z AUTO VRB04KT 08/08 A2983 670 96 100 VRB/04 RMK AO1 T00830078
54779K12N 12N20160426210509804/26/16 21:05:31  5-MIN K12N 270205Z AUTO VRB05KT 08/08 A2983 670 96 100 VRB/05 RMK AO1 T00830078
54779K12N 12N20160426211009804/26/16 21:10:31  5-MIN K12N 270210Z AUTO VRB06KT 08/08 A2983 670 96 100 VRB/06 RMK AO1 T00830078
54779K12N 12N20160426211509804/26/16 21:15:31  5-MIN K12N 270215Z AUTO 04008KT 08/08 A2983 670 96 100 050/08 RMK AO1 T00830078
54779K12N 12N20160426212009804/26/16 21:20:31  5-MIN K12N 270220Z AUTO VRB04KT 08/08 A2983 660 96 100 VRB/04 RMK AO1 T00830078
54779K12N 12N20160426212509804/26/16 21:25:31  5-MIN K12N 270225Z AUTO VRB05KT 08/08 A2983 670 96 100 VRB/05 RMK AO1 T00830078
54779K12N 12N20160426213009804/26/16 21:30:31  5-MIN K12N 270230Z AUTO VRB05KT 08/08 A2983 660 96 100 VRB/05 RMK AO1 T00830078
54779K12N 12N20160426213508804/26/16 21:35:31  5-MIN K12N 270235Z AUTO 08/08 A2984 660 96 100 M /M RMK AO1 T00830078
54779K12N 12N20160426214009804/26/16 21:40:31  5-MIN K12N 270240Z AUTO VRB04KT 08/08 A2984 660 96 100 VRB/04 RMK AO1 T00830078
54779K12N 12N20160426214509804/26/16 21:45:31  5-MIN K12N 270245Z AUTO VRB05KT 08/08 A2984 660 96 100 VRB/05 RMK AO1 T00830078
54779K12N 12N20160426215011104/26/16 21:50:31  5-MIN K12N 270250Z AUTO VRB04KT 08/08 A2985 650 96 100 VRB/04 RMK AO1 SLP109 T00830078 53024
54779K12N 12N20160426215509804/26/16 21:55:31  5-MIN K12N 270255Z AUTO 03006KT 08/08 A2984 660 96 100 040/06 RMK AO1 T00830078
54779K12N 12N20160426220009804/26/16 22:00:31  5-MIN K12N 270300Z AUTO 03007KT 08/07 A2985 650 93 100 050/07 RMK AO1 T00830072
54779K12N 12N20160426220509604/26/16 22:05:31  5-MIN K12N 270305Z AUTO 04008KT 08/07 A2985 650 93 0 050/08 RMK AO1 T00830072
54779K12N 12N20160426221009604/26/16 22:10:31  5-MIN K12N 270310Z AUTO 05006KT 08/07 A2985 650 89 0 060/06 RMK AO1 T00830067
54779K12N 12N20160426221509604/26/16 22:15:31  5-MIN K12N 270315Z AUTO VRB06KT 08/07 A2985 650 89 0 VRB/06 RMK AO1 T00830067
54779K12N 12N20160426222009604/26/16 22:20:31  5-MIN K12N 270320Z AUTO 04006KT 08/07 A2984 660 93 0 060/06 RMK AO1 T00780067
54779K12N 12N20160426222509604/26/16 22:25:31  5-MIN K12N 270325Z AUTO 04007KT 08/06 A2985 650 89 0 050/07 RMK AO1 T00780061
54779K12N 12N20160426223009604/26/16 22:30:31  5-MIN K12N 270330Z AUTO VRB03KT 08/06 A2985 650 89 0 VRB/03 RMK AO1 T00780061
54779K12N 12N20160426223509604/26/16 22:35:31  5-MIN K12N 270335Z AUTO VRB03KT 08/07 A2985 650 89 0 VRB/03 RMK AO1 T00830067
54779K12N 12N20160426224009604/26/16 22:40:31  5-MIN K12N 270340Z AUTO VRB04KT 08/07 A2985 650 89 0 VRB/04 RMK AO1 T00830067
54779K12N 12N20160426224509604/26/16 22:45:31  5-MIN K12N 270345Z AUTO VRB03KT 08/07 A2985 650 89 0 VRB/03 RMK AO1 T00830067
54779K12N 12N20160426225010304/26/16 22:50:31  5-MIN K12N 270350Z AUTO VRB03KT 08/07 A2985 650 93 0 VRB/03 RMK AO1 SLP111 T00780067
54779K12N 12N20160426225509604/26/16 22:55:31  5-MIN K12N 270355Z AUTO VRB03KT 08/07 A2985 650 89 0 VRB/03 RMK AO1 T00830067
54779K12N 12N20160426230009604/26/16 23:00:31  5-MIN K12N 270400Z AUTO VRB04KT 08/07 A2986 650 89 0 VRB/04 RMK AO1 T00830067
54779K12N 12N20160426230509604/26/16 23:05:31  5-MIN K12N 270405Z AUTO 04006KT 08/07 A2985 650 93 0 050/06 RMK AO1 T00780067
54779K12N 12N20160426231009604/26/16 23:10:31  5-MIN K12N 270410Z AUTO 04005KT 08/07 A2985 650 93 0 050/05 RMK AO1 T00780067
54779K12N 12N20160426231509604/26/16 23:15:31  5-MIN K12N 270415Z AUTO 05006KT 08/06 A2985 650 89 0 060/06 RMK AO1 T00780061
54779K12N 12N20160426232009604/26/16 23:20:31  5-MIN K12N 270420Z AUTO 04006KT 08/06 A2985 650 89 0 050/06 RMK AO1 T00780061
54779K12N 12N20160426232509604/26/16 23:25:31  5-MIN K12N 270425Z AUTO 04006KT 08/07 A2985 650 93 0 050/06 RMK AO1 T00780067
54779K12N 12N20160426233009604/26/16 23:30:31  5-MIN K12N 270430Z AUTO 04005KT 08/07 A2986 640 93 0 050/05 RMK AO1 T00780067
54779K12N 12N20160426233509604/26/16 23:35:31  5-MIN K12N 270435Z AUTO 04005KT 08/07 A2986 640 93 0 060/05 RMK AO1 T00780067
54779K12N 12N20160426234009604/26/16 23:40:31  5-MIN K12N 270440Z AUTO 05005KT 08/07 A2986 640 93 0 060/05 RMK AO1 T00780067
54779K12N 12N20160426234509604/26/16 23:45:31  5-MIN K12N 270445Z AUTO VRB04KT 08/07 A2986 640 93 0 VRB/04 RMK AO1 T00780067
54779K12N 12N20160426235011304/26/16 23:50:31  5-MIN K12N 270450Z AUTO 04005KT 08/07 A2986 640 93 0 060/05 RMK AO1 SLP110 T00780067 402220072
54779K12N 12N20160426235509604/26/16 23:55:31  5-MIN K12N 270455Z AUTO 05006KT 07/06 A2986 640 93 0 060/06 RMK AO1 T00720061
54779K12N 12N20160427000009904/27/16 00:00:31  5-MIN K12N 270500Z AUTO 05004KT 07/06 A2986 640 93 -100 060/04 RMK AO1 T00720061
54779K12N 12N20160427000509904/27/16 00:05:31  5-MIN K12N 270505Z AUTO 05004KT 07/06 A2986 640 93 -100 060/04 RMK AO1 T00720061
54779K12N 12N20160427001009904/27/16 00:10:31  5-MIN K12N 270510Z AUTO 06004KT 07/06 A2986 640 93 -100 070/04 RMK AO1 T00720061
54779K12N 12N20160427001509904/27/16 00:15:31  5-MIN K12N 270515Z AUTO 05004KT 07/06 A2986 640 93 -100 060/04 RMK AO1 T00720061
54779K12N 12N20160427002009604/27/16 00:20:31  5-MIN K12N 270520Z AUTO 05004KT 07/07 A2986 640 96 0 060/04 RMK AO1 T00720067
54779K12N 12N20160427002509904/27/16 00:25:31  5-MIN K12N 270525Z AUTO 01003KT 07/07 A2986 640 96 -100 020/03 RMK AO1 T00720067
54779K12N 12N20160427003009604/27/16 00:30:31  5-MIN K12N 270530Z AUTO VRB04KT 07/06 A2986 640 93 0 VRB/04 RMK AO1 T00720061
54779K12N 12N20160427003509904/27/16 00:35:31  5-MIN K12N 270535Z AUTO VRB03KT 07/06 A2986 640 93 -100 VRB/03 RMK AO1 T00720061
54779K12N 12N20160427004009904/27/16 00:40:31  5-MIN K12N 270540Z AUTO 35006KT 07/06 A2987 640 93 -100 360/06 RMK AO1 T00720061
54779K12N 12N20160427004509904/27/16 00:45:31  5-MIN K12N 270545Z AUTO 36005KT 07/06 A2987 640 93 -100 010/05 RMK AO1 T00720061
54779K12N 12N20160427005012404/27/16 00:50:31  5-MIN K12N 270550Z AUTO VRB04KT 07/06 A2987 640 93 -100 VRB/04 RMK AO1 SLP112 T00720061 10133 20072 51030
54779K12N 12N20160427005509904/27/16 00:55:31  5-MIN K12N 270555Z AUTO 01004KT 07/06 A2987 640 93 -100 020/04 RMK AO1 T00720061
54779K12N 12N20160427010009904/27/16 01:00:31  5-MIN K12N 270600Z AUTO 36004KT 07/06 A2986 640 93 -100 020/04 RMK AO1 T00720061
54779K12N 12N20160427010509904/27/16 01:05:31  5-MIN K12N 270605Z AUTO 01006KT 07/06 A2986 640 93 -100 020/06 RMK AO1 T00720061
54779K12N 12N20160427011009904/27/16 01:10:31  5-MIN K12N 270610Z AUTO 36006KT 07/06 A2987 630 93 -100 010/06 RMK AO1 T00720061
54779K12N 12N20160427011509904/27/16 01:15:31  5-MIN K12N 270615Z AUTO VRB03KT 07/06 A2987 640 93 -100 VRB/03 RMK AO1 T00720061
54779K12N 12N20160427012009904/27/16 01:20:31  5-MIN K12N 270620Z AUTO 01004KT 07/06 A2987 630 93 -100 020/04 RMK AO1 T00720061
54779K12N 12N20160427012509904/27/16 01:25:31  5-MIN K12N 270625Z AUTO VRB03KT 07/06 A2987 630 93 -100 VRB/03 RMK AO1 T00720061
54779K12N 12N20160427013009904/27/16 01:30:31  5-MIN K12N 270630Z AUTO VRB03KT 07/06 A2987 630 93 -100 VRB/03 RMK AO1 T00720061
54779K12N 12N20160427013509904/27/16 01:35:31  5-MIN K12N 270635Z AUTO VRB03KT 07/06 A2987 630 93 -100 VRB/03 RMK AO1 T00720061
54779K12N 12N20160427014009904/27/16 01:40:31  5-MIN K12N 270640Z AUTO VRB05KT 07/06 A2987 630 93 -100 VRB/05 RMK AO1 T00720061
54779K12N 12N20160427014509904/27/16 01:45:31  5-MIN K12N 270645Z AUTO 04004KT 07/06 A2987 630 93 -100 060/04 RMK AO1 T00720061
54779K12N 12N20160427015010604/27/16 01:50:31  5-MIN K12N 270650Z AUTO VRB04KT 07/06 A2988 630 96 -100 VRB/04 RMK AO1 SLP116 T00670061
54779K12N 12N20160427015509904/27/16 01:55:31  5-MIN K12N 270655Z AUTO 02003KT 07/06 A2988 630 96 -100 040/03 RMK AO1 T00670061
54779K12N 12N20160427020009904/27/16 02:00:31  5-MIN K12N 270700Z AUTO VRB04KT 07/06 A2988 620 93 -100 VRB/04 RMK AO1 T00720061
54779K12N 12N20160427020509904/27/16 02:05:31  5-MIN K12N 270705Z AUTO 03006KT 07/06 A2988 620 93 -100 050/06 RMK AO1 T00720061
54779K12N 12N20160427021009904/27/16 02:10:31  5-MIN K12N 270710Z AUTO 04006KT 07/06 A2988 620 96 -100 060/06 RMK AO1 T00670061
54779K12N 12N20160427021509904/27/16 02:15:31  5-MIN K12N 270715Z AUTO 04006KT 07/06 A2988 620 93 -100 050/06 RMK AO1 T00670056
54779K12N 12N20160427022009904/27/16 02:20:31  5-MIN K12N 270720Z AUTO 04003KT 07/06 A2989 620 93 -200 050/03 RMK AO1 T00670056
54779K12N 12N20160427022509904/27/16 02:25:31  5-MIN K12N 270725Z AUTO 05005KT 07/06 A2989 620 93 -100 060/05 RMK AO1 T00720061
54779K12N 12N20160427023009904/27/16 02:30:31  5-MIN K12N 270730Z AUTO VRB03KT 07/06 A2989 610 96 -200 VRB/03 RMK AO1 T00670061
54779K12N 12N20160427023509904/27/16 02:35:31  5-MIN K12N 270735Z AUTO VRB04KT 07/06 A2989 610 93 -100 VRB/04 RMK AO1 T00720061
54779K12N 12N20160427024009904/27/16 02:40:31  5-MIN K12N 270740Z AUTO VRB03KT 07/06 A2989 610 93 -200 VRB/03 RMK AO1 T00670056
54779K12N 12N20160427024509904/27/16 02:45:31  5-MIN K12N 270745Z AUTO VRB04KT 07/06 A2990 610 93 -200 VRB/04 RMK AO1 T00670056
54779K12N 12N20160427025010604/27/16 02:50:31  5-MIN K12N 270750Z AUTO VRB04KT 07/06 A2990 600 93 -200 VRB/04 RMK AO1 SLP126 T00670056
54779K12N 12N20160427025509904/27/16 02:55:31  5-MIN K12N 270755Z AUTO VRB04KT 07/06 A2991 600 93 -200 VRB/04 RMK AO1 T00670056
54779K12N 12N20160427030009904/27/16 03:00:31  5-MIN K12N 270800Z AUTO 36005KT 07/06 A2990 600 93 -200 010/05 RMK AO1 T00670056
54779K12N 12N20160427030509904/27/16 03:05:31  5-MIN K12N 270805Z AUTO VRB03KT 07/06 A2990 600 93 -200 VRB/03 RMK AO1 T00670056
54779K12N 12N20160427031009904/27/16 03:10:31  5-MIN K12N 270810Z AUTO VRB03KT 07/06 A2990 600 93 -200 VRB/03 RMK AO1 T00670056
54779K12N 12N20160427031509904/27/16 03:15:31  5-MIN K12N 270815Z AUTO VRB03KT 07/06 A2990 600 93 -200 VRB/03 RMK AO1 T00670056
54779K12N 12N20160427032009904/27/16 03:20:31  5-MIN K12N 270820Z AUTO 04005KT 07/06 A2990 600 93 -200 050/05 RMK AO1 T00670056
54779K12N 12N20160427032509904/27/16 03:25:31  5-MIN K12N 270825Z AUTO 05004KT 07/06 A2991 600 93 -200 060/04 RMK AO1 T00670056
54779K12N 12N20160427033009904/27/16 03:30:31  5-MIN K12N 270830Z AUTO VRB03KT 07/06 A2990 600 93 -200 VRB/03 RMK AO1 T00670056
54779K12N 12N20160427033509904/27/16 03:35:31  5-MIN K12N 270835Z AUTO 04003KT 07/06 A2991 600 93 -200 050/03 RMK AO1 T00670056
54779K12N 12N20160427034009904/27/16 03:40:31  5-MIN K12N 270840Z AUTO 04005KT 07/06 A2990 600 93 -200 050/05 RMK AO1 T00670056
54779K12N 12N20160427034509904/27/16 03:45:31  5-MIN K12N 270845Z AUTO 05005KT 07/05 A2991 600 89 -200 060/05 RMK AO1 T00670050
54779K12N 12N20160427035011204/27/16 03:50:31  5-MIN K12N 270850Z AUTO 04007KT 07/06 A2990 600 93 -200 060/07 RMK AO1 SLP128 T00670056 53007
54779K12N 12N20160427035509904/27/16 03:55:31  5-MIN K12N 270855Z AUTO VRB03KT 07/05 A2991 590 89 -200 VRB/03 RMK AO1 T00670050
54779K12N 12N20160427040009904/27/16 04:00:31  5-MIN K12N 270900Z AUTO VRB03KT 07/06 A2991 600 93 -200 VRB/03 RMK AO1 T00670056
54779K12N 12N20160427040509904/27/16 04:05:31  5-MIN K12N 270905Z AUTO 05003KT 07/06 A2991 590 93 -200 060/03 RMK AO1 T00670056
54779K12N 12N20160427041009904/27/16 04:10:31  5-MIN K12N 270910Z AUTO 04005KT 07/05 A2991 600 89 -200 060/05 RMK AO1 T00670050
54779K12N 12N20160427041509904/27/16 04:15:31  5-MIN K12N 270915Z AUTO VRB03KT 07/05 A2990 600 89 -200 VRB/03 RMK AO1 T00670050
54779K12N 12N20160427042009904/27/16 04:20:31  5-MIN K12N 270920Z AUTO 03004KT 07/05 A2991 600 89 -200 050/04 RMK AO1 T00670050
54779K12N 12N20160427042509904/27/16 04:25:31  5-MIN K12N 270925Z AUTO 04004KT 07/05 A2991 600 89 -200 050/04 RMK AO1 T00670050
54779K12N 12N20160427043009904/27/16 04:30:31  5-MIN K12N 270930Z AUTO 04005KT 07/05 A2991 600 89 -200 050/05 RMK AO1 T00670050
54779K12N 12N20160427043509904/27/16 04:35:31  5-MIN K12N 270935Z AUTO 05004KT 07/05 A2991 600 89 -200 060/04 RMK AO1 T00670050
54779K12N 12N20160427044009904/27/16 04:40:31  5-MIN K12N 270940Z AUTO 06003KT 07/05 A2991 590 89 -200 070/03 RMK AO1 T00670050
54779K12N 12N20160427044509904/27/16 04:45:31  5-MIN K12N 270945Z AUTO VRB03KT 07/05 A2991 590 89 -200 VRB/03 RMK AO1 T00670050
54779K12N 12N20160427045010604/27/16 04:50:31  5-MIN K12N 270950Z AUTO 05003KT 06/05 A2991 600 93 -200 070/03 RMK AO1 SLP129 T00610050
54779K12N 12N20160427045509904/27/16 04:55:31  5-MIN K12N 270955Z AUTO 04004KT 07/05 A2991 600 89 -200 050/04 RMK AO1 T00670050
54779K12N 12N20160427050009904/27/16 05:00:31  5-MIN K12N 271000Z AUTO VRB03KT 07/05 A2991 600 89 -200 VRB/03 RMK AO1 T00670050
54779K12N 12N20160427050509904/27/16 05:05:31  5-MIN K12N 271005Z AUTO 05004KT 07/05 A2991 600 89 -200 060/04 RMK AO1 T00670050
54779K12N 12N20160427051009904/27/16 05:10:31  5-MIN K12N 271010Z AUTO VRB03KT 07/05 A2991 600 89 -200 VRB/03 RMK AO1 T00670050
54779K12N 12N20160427051509904/27/16 05:15:31  5-MIN K12N 271015Z AUTO 04003KT 07/05 A2991 600 89 -200 060/03 RMK AO1 T00670050
54779K12N 12N20160427052009904/27/16 05:20:31  5-MIN K12N 271020Z AUTO VRB03KT 07/05 A2990 600 89 -200 VRB/03 RMK AO1 T00670050
54779K12N 12N20160427052509904/27/16 05:25:31  5-MIN K12N 271025Z AUTO 03004KT 06/05 A2991 600 93 -200 050/04 RMK AO1 T00610050
54779K12N 12N20160427053009904/27/16 05:30:31  5-MIN K12N 271030Z AUTO 35004KT 07/05 A2991 590 89 -200 010/04 RMK AO1 T00670050
54779K12N 12N20160427053509904/27/16 05:35:31  5-MIN K12N 271035Z AUTO 35005KT 07/05 A2991 590 89 -200 360/05 RMK AO1 T00670050
54779K12N 12N20160427054009904/27/16 05:40:31  5-MIN K12N 271040Z AUTO 35004KT 07/05 A2992 590 89 -200 360/04 RMK AO1 T00670050
54779K12N 12N20160427054509904/27/16 05:45:31  5-MIN K12N 271045Z AUTO 36003KT 06/05 A2992 590 93 -300 020/03 RMK AO1 T00610050
54779K12N 12N20160427055010604/27/16 05:50:31  5-MIN K12N 271050Z AUTO 36006KT 06/05 A2992 590 93 -300 010/06 RMK AO1 SLP132 T00610050
54779K12N 12N20160427055509904/27/16 05:55:31  5-MIN K12N 271055Z AUTO 36005KT 06/04 A2992 580 89 -300 010/05 RMK AO1 T00610044
54779K12N 12N20160427060009904/27/16 06:00:31  5-MIN K12N 271100Z AUTO 36005KT 06/05 A2992 580 93 -300 010/05 RMK AO1 T00610050
54779K12N 12N20160427060509904/27/16 06:05:31  5-MIN K12N 271105Z AUTO VRB04KT 07/05 A2992 590 89 -200 VRB/04 RMK AO1 T00670050
54779K12N 12N20160427061009904/27/16 06:10:31  5-MIN K12N 271110Z AUTO VRB04KT 07/05 A2992 580 89 -200 VRB/04 RMK AO1 T00670050
54779K12N 12N20160427061509904/27/16 06:15:31  5-MIN K12N 271115Z AUTO VRB04KT 07/05 A2992 590 89 -200 VRB/04 RMK AO1 T00670050
54779K12N 12N20160427062009904/27/16 06:20:31  5-MIN K12N 271120Z AUTO 03004KT 07/05 A2992 580 89 -200 050/04 RMK AO1 T00670050
54779K12N 12N20160427062509904/27/16 06:25:31  5-MIN K12N 271125Z AUTO 04005KT 06/05 A2992 580 93 -300 050/05 RMK AO1 T00610050
54779K12N 12N20160427063009904/27/16 06:30:31  5-MIN K12N 271130Z AUTO 04004KT 07/05 A2992 580 89 -200 050/04 RMK AO1 T00670050
54779K12N 12N20160427063509904/27/16 06:35:31  5-MIN K12N 271135Z AUTO VRB04KT 07/05 A2992 580 89 -200 VRB/04 RMK AO1 T00670050
54779K12N 12N20160427064009904/27/16 06:40:31  5-MIN K12N 271140Z AUTO 05004KT 07/05 A2993 580 89 -200 060/04 RMK AO1 T00670050
54779K12N 12N20160427064509904/27/16 06:45:31  5-MIN K12N 271145Z AUTO 05006KT 07/05 A2993 580 89 -200 060/06 RMK AO1 T00670050
54779K12N 12N20160427065013004/27/16 06:50:31  5-MIN K12N 271150Z AUTO 04005KT 06/05 A2993 580 93 -300 060/05 RMK AO1 SLP136 70012 T00610050 10072 20061 51015
54779K12N 12N20160427065509904/27/16 06:55:31  5-MIN K12N 271155Z AUTO 04004KT 07/05 A2993 580 89 -200 050/04 RMK AO1 T00670050
54779K12N 12N20160427070009904/27/16 07:00:31  5-MIN K12N 271200Z AUTO VRB04KT 07/05 A2993 580 89 -200 VRB/04 RMK AO1 T00670050
54779K12N 12N20160427070509904/27/16 07:05:31  5-MIN K12N 271205Z AUTO VRB03KT 07/05 A2993 580 89 -200 VRB/03 RMK AO1 T00670050
54779K12N 12N20160427071009904/27/16 07:10:31  5-MIN K12N 271210Z AUTO 03003KT 07/05 A2993 580 89 -200 050/03 RMK AO1 T00670050
54779K12N 12N20160427071509904/27/16 07:15:31  5-MIN K12N 271215Z AUTO VRB03KT 07/05 A2993 570 89 -200 VRB/03 RMK AO1 T00670050
54779K12N 12N20160427072009904/27/16 07:20:31  5-MIN K12N 271220Z AUTO VRB03KT 07/05 A2993 580 89 -200 VRB/03 RMK AO1 T00670050
54779K12N 12N20160427072509904/27/16 07:25:31  5-MIN K12N 271225Z AUTO 03003KT 07/05 A2993 580 89 -200 050/03 RMK AO1 T00670050
54779K12N 12N20160427073009904/27/16 07:30:31  5-MIN K12N 271230Z AUTO VRB03KT 07/05 A2993 580 86 -100 VRB/03 RMK AO1 T00720050
54779K12N 12N20160427073509904/27/16 07:35:31  5-MIN K12N 271235Z AUTO VRB04KT 07/05 A2993 580 86 -100 VRB/04 RMK AO1 T00720050
54779K12N 12N20160427161009804/27/16 16:10:31  5-MIN K12N 272110Z AUTO 21007KT 16/07 A2986 640 55 900 230/07 RMK AO1 T01560067
54779K12N 12N20160427161509804/27/16 16:15:31  5-MIN K12N 272115Z AUTO VRB05KT 15/07 A2986 640 57 800 VRB/05 RMK AO1 T01500067
54779K12N 12N20160427162009804/27/16 16:20:31  5-MIN K12N 272120Z AUTO VRB06KT 15/07 A2986 640 57 800 VRB/06 RMK AO1 T01500067
54779K12N 12N20160427162509804/27/16 16:25:31  5-MIN K12N 272125Z AUTO VRB04KT 16/07 A2986 640 55 900 VRB/04 RMK AO1 T01560067
54779K12N 12N20160427163009804/27/16 16:30:31  5-MIN K12N 272130Z AUTO 22008KT 15/07 A2986 640 57 800 240/08 RMK AO1 T01500067
54779K12N 12N20160427163509804/27/16 16:35:31  5-MIN K12N 272135Z AUTO 20005KT 15/07 A2986 640 57 800 210/05 RMK AO1 T01500067
54779K12N 12N20160427164009804/27/16 16:40:31  5-MIN K12N 272140Z AUTO VRB05KT 15/07 A2986 650 57 800 VRB/05 RMK AO1 T01500067
54779K12N 12N20160427164509804/27/16 16:45:31  5-MIN K12N 272145Z AUTO 23005KT 16/07 A2986 640 55 900 240/05 RMK AO1 T01560067
54779K12N 12N20160427165010604/27/16 16:50:31  5-MIN K12N 272150Z AUTO 22007KT 16/07 A2986 640 55 1000 240/07 RMK AO1 SLP112 T01610072
54779K12N 12N20160427165509804/27/16 16:55:31  5-MIN K12N 272155Z AUTO 21006KT 15/07 A2986 640 57 800 220/06 RMK AO1 T01500067
54779K12N 12N20160427170009804/27/16 17:00:31  5-MIN K12N 272200Z AUTO 23004KT 16/07 A2986 640 55 900 240/04 RMK AO1 T01560067
54779K12N 12N20160427170509904/27/16 17:05:31  5-MIN K12N 272205Z AUTO 24005KT 16/07 A2986 640 53 1000 260/05 RMK AO1 T01610067
54779K12N 12N20160427171009804/27/16 17:10:31  5-MIN K12N 272210Z AUTO 21007KT 16/07 A2986 640 57 900 230/07 RMK AO1 T01560072
54779K12N 12N20160427171509804/27/16 17:15:31  5-MIN K12N 272215Z AUTO 22008KT 15/07 A2986 640 59 800 240/08 RMK AO1 T01500072
54779K12N 12N20160427172009804/27/16 17:20:31  5-MIN K12N 272220Z AUTO 23006KT 15/07 A2986 650 59 800 240/06 RMK AO1 T01500072
54779K12N 12N20160427172509804/27/16 17:25:31  5-MIN K12N 272225Z AUTO 21005KT 15/07 A2985 650 57 800 220/05 RMK AO1 T01500067
54779K12N 12N20160427173009804/27/16 17:30:31  5-MIN K12N 272230Z AUTO 23006KT 16/07 A2985 650 57 900 240/06 RMK AO1 T01560072
54779K12N 12N20160427173509804/27/16 17:35:31  5-MIN K12N 272235Z AUTO VRB06KT 15/07 A2985 650 57 800 VRB/06 RMK AO1 T01500067
54779K12N 12N20160427174009804/27/16 17:40:31  5-MIN K12N 272240Z AUTO 23007KT 15/07 A2985 650 57 800 240/07 RMK AO1 T01500067
54779K12N 12N20160427174509804/27/16 17:45:31  5-MIN K12N 272245Z AUTO 23007KT 15/07 A2985 650 57 800 240/07 RMK AO1 T01500067
54779K12N 12N20160427175010504/27/16 17:50:31  5-MIN K12N 272250Z AUTO 20007KT 15/07 A2985 650 57 800 210/07 RMK AO1 SLP110 T01500067
54779K12N 12N20160427175509804/27/16 17:55:31  5-MIN K12N 272255Z AUTO VRB06KT 14/07 A2985 650 59 800 VRB/06 RMK AO1 T01440067
54779K12N 12N20160427180009804/27/16 18:00:31  5-MIN K12N 272300Z AUTO 23006KT 14/07 A2985 650 59 800 240/06 RMK AO1 T01440067
54779K12N 12N20160427180509804/27/16 18:05:31  5-MIN K12N 272305Z AUTO 23005KT 14/07 A2985 650 59 800 250/05 RMK AO1 T01440067
54779K12N 12N20160427181006104/27/16 18:10:31  5-MIN K12N 272310Z AUTO M M M M /M RMK AO1
54779K12N 12N20160427181509804/27/16 18:15:31  5-MIN K12N 272315Z AUTO 22006KT 14/07 A2986 650 59 800 240/06 RMK AO1 T01440067
54779K12N 12N20160427182009804/27/16 18:20:31  5-MIN K12N 272320Z AUTO 22005KT 14/07 A2985 650 59 800 230/05 RMK AO1 T01440067
54779K12N 12N20160427182509804/27/16 18:25:31  5-MIN K12N 272325Z AUTO 22007KT 14/07 A2986 640 61 700 230/07 RMK AO1 T01390067
54779K12N 12N20160427183009804/27/16 18:30:31  5-MIN K12N 272330Z AUTO 22006KT 14/07 A2986 640 61 700 230/06 RMK AO1 T01390067
54779K12N 12N20160427183509804/27/16 18:35:31  5-MIN K12N 272335Z AUTO VRB05KT 14/07 A2986 640 61 700 VRB/05 RMK AO1 T01390067
54779K12N 12N20160427184009804/27/16 18:40:31  5-MIN K12N 272340Z AUTO VRB06KT 14/07 A2986 640 61 700 VRB/06 RMK AO1 T01390067
54779K12N 12N20160427184509804/27/16 18:45:31  5-MIN K12N 272345Z AUTO 22006KT 14/07 A2986 640 61 700 230/06 RMK AO1 T01390067
54779K12N 12N20160427185011704/27/16 18:50:31  5-MIN K12N 272350Z AUTO 22005KT 13/07 A2986 640 64 600 240/05 RMK AO1 SLP114 T01330067 10161 20128
54779K12N 12N20160427185509804/27/16 18:55:31  5-MIN K12N 272355Z AUTO 21006KT 13/07 A2986 640 64 600 220/06 RMK AO1 T01330067
54779K12N 12N20160427190009804/27/16 19:00:31  5-MIN K12N 280000Z AUTO 21004KT 13/07 A2986 640 64 600 220/04 RMK AO1 T01330067
54779K12N 12N20160427190509804/27/16 19:05:31  5-MIN K12N 280005Z AUTO VRB04KT 13/07 A2986 640 64 600 VRB/04 RMK AO1 T01330067
54779K12N 12N20160427191009804/27/16 19:10:31  5-MIN K12N 280010Z AUTO 22004KT 13/07 A2987 640 66 600 230/04 RMK AO1 T01280067
54779K12N 12N20160427191509804/27/16 19:15:31  5-MIN K12N 280015Z AUTO 22003KT 12/07 A2986 640 68 500 240/03 RMK AO1 T01220067
54779K12N 12N20160427192009804/27/16 19:20:31  5-MIN K12N 280020Z AUTO 22004KT 12/07 A2986 640 68 500 230/04 RMK AO1 T01220067
54779K12N 12N20160427192509804/27/16 19:25:31  5-MIN K12N 280025Z AUTO 21005KT 12/07 A2986 640 71 500 230/05 RMK AO1 T01220072
54779K12N 12N20160427193009804/27/16 19:30:31  5-MIN K12N 280030Z AUTO 21004KT 12/07 A2987 640 71 500 230/04 RMK AO1 T01220072
54779K12N 12N20160427193509804/27/16 19:35:31  5-MIN K12N 280035Z AUTO 23003KT 12/07 A2987 630 71 500 240/03 RMK AO1 T01220072
54779K12N 12N20160427194009804/27/16 19:40:31  5-MIN K12N 280040Z AUTO 00000KT 12/07 A2987 630 71 500 000/00 RMK AO1 T01220072
54779K12N 12N20160427194509804/27/16 19:45:31  5-MIN K12N 280045Z AUTO 22003KT 12/07 A2987 630 71 500 240/03 RMK AO1 T01220072
54779K12N 12N20160427195010504/27/16 19:50:31  5-MIN K12N 280050Z AUTO 21003KT 12/07 A2987 630 74 400 220/03 RMK AO1 SLP119 T01170072
54779K12N 12N20160427195509804/27/16 19:55:31  5-MIN K12N 280055Z AUTO 00000KT 12/07 A2988 630 74 400 000/00 RMK AO1 T01170072
54779K12N 12N20160427200009804/27/16 20:00:31  5-MIN K12N 280100Z AUTO 20003KT 12/07 A2988 620 74 400 210/03 RMK AO1 T01170072
54779K12N 12N20160427200509804/27/16 20:05:31  5-MIN K12N 280105Z AUTO 22006KT 11/07 A2988 620 77 300 230/06 RMK AO1 T01110072
54779K12N 12N20160427201009804/27/16 20:10:31  5-MIN K12N 280110Z AUTO 22007KT 12/07 A2988 620 74 400 230/07 RMK AO1 T01170072
54779K12N 12N20160427201509804/27/16 20:15:31  5-MIN K12N 280115Z AUTO 21006KT 11/07 A2988 620 77 300 230/06 RMK AO1 T01110072
54779K12N 12N20160427202009804/27/16 20:20:31  5-MIN K12N 280120Z AUTO 22005KT 11/07 A2988 620 77 300 230/05 RMK AO1 T01110072
54779K12N 12N20160427202509804/27/16 20:25:31  5-MIN K12N 280125Z AUTO 21004KT 11/07 A2989 620 77 300 220/04 RMK AO1 T01110072
54779K12N 12N20160427203009804/27/16 20:30:31  5-MIN K12N 280130Z AUTO 21004KT 11/07 A2989 610 77 300 230/04 RMK AO1 T01110072
54779K12N 12N20160427203509804/27/16 20:35:31  5-MIN K12N 280135Z AUTO 21004KT 11/07 A2989 610 77 300 230/04 RMK AO1 T01110072
54779K12N 12N20160427204009804/27/16 20:40:31  5-MIN K12N 280140Z AUTO 21003KT 11/07 A2989 610 80 300 230/03 RMK AO1 T01060072
54779K12N 12N20160427204509804/27/16 20:45:31  5-MIN K12N 280145Z AUTO 21004KT 11/07 A2989 610 80 300 220/04 RMK AO1 T01060072
54779K12N 12N20160427205010504/27/16 20:50:31  5-MIN K12N 280150Z AUTO 00000KT 11/07 A2989 610 77 300 000/00 RMK AO1 SLP125 T01110072
54779K12N 12N20160427205509804/27/16 20:55:31  5-MIN K12N 280155Z AUTO 21003KT 11/07 A2990 610 80 300 220/03 RMK AO1 T01060072
54779K12N 12N20160427210009804/27/16 21:00:31  5-MIN K12N 280200Z AUTO 20003KT 10/07 A2990 600 83 200 220/03 RMK AO1 T01000072
54779K12N 12N20160427210509804/27/16 21:05:31  5-MIN K12N 280205Z AUTO 20003KT 11/07 A2990 600 80 300 220/03 RMK AO1 T01060072
54779K12N 12N20160427211009804/27/16 21:10:31  5-MIN K12N 280210Z AUTO 00000KT 10/07 A2991 600 83 200 000/00 RMK AO1 T01000072
54779K12N 12N20160427211509804/27/16 21:15:31  5-MIN K12N 280215Z AUTO 00000KT 10/07 A2990 600 83 200 000/00 RMK AO1 T01000072
54779K12N 12N20160427212009804/27/16 21:20:31  5-MIN K12N 280220Z AUTO 00000KT 10/07 A2991 600 83 200 000/00 RMK AO1 T01000072
54779K12N 12N20160427212509804/27/16 21:25:31  5-MIN K12N 280225Z AUTO 00000KT 10/07 A2990 600 83 200 000/00 RMK AO1 T01000072
54779K12N 12N20160427213009804/27/16 21:30:31  5-MIN K12N 280230Z AUTO 19003KT 10/07 A2991 600 83 200 200/03 RMK AO1 T01000072
54779K12N 12N20160427213509804/27/16 21:35:31  5-MIN K12N 280235Z AUTO 00000KT 10/07 A2991 600 83 200 000/00 RMK AO1 T01000072
54779K12N 12N20160427214009804/27/16 21:40:31  5-MIN K12N 280240Z AUTO 00000KT 10/07 A2991 600 83 200 000/00 RMK AO1 T01000072
54779K12N 12N20160427214509804/27/16 21:45:31  5-MIN K12N 280245Z AUTO 00000KT 09/07 A2991 600 86 100 000/00 RMK AO1 T00940072
54779K12N 12N20160427215010504/27/16 21:50:31  5-MIN K12N 280250Z AUTO 00000KT 09/07 A2991 590 86 100 000/00 RMK AO1 SLP132 T00940072
54779K12N 12N20160427215509804/27/16 21:55:31  5-MIN K12N 280255Z AUTO 00000KT 09/07 A2991 590 86 100 000/00 RMK AO1 T00940072
54779K12N 12N20160427220009804/27/16 22:00:31  5-MIN K12N 280300Z AUTO 00000KT 09/07 A2992 590 86 100 000/00 RMK AO1 T00940072
54779K12N 12N20160427220509604/27/16 22:05:31  5-MIN K12N 280305Z AUTO 00000KT 09/07 A2992 580 86 0 000/00 RMK AO1 T00890067
54779K12N 12N20160427221009604/27/16 22:10:31  5-MIN K12N 280310Z AUTO 00000KT 08/07 A2992 580 89 0 000/00 RMK AO1 T00830067
54779K12N 12N20160427221509904/27/16 22:15:31  5-MIN K12N 280315Z AUTO 00000KT 08/07 A2993 580 93 -100 000/00 RMK AO1 T00780067
54779K12N 12N20160427222009604/27/16 22:20:31  5-MIN K12N 280320Z AUTO 00000KT 08/07 A2993 580 89 0 000/00 RMK AO1 T00830067
54779K12N 12N20160427222509604/27/16 22:25:31  5-MIN K12N 280325Z AUTO 00000KT 08/07 A2993 580 89 0 000/00 RMK AO1 T00830067
54779K12N 12N20160427223009604/27/16 22:30:31  5-MIN K12N 280330Z AUTO 00000KT 08/07 A2993 580 89 0 000/00 RMK AO1 T00830067
54779K12N 12N20160427223509904/27/16 22:35:31  5-MIN K12N 280335Z AUTO 00000KT 08/07 A2993 580 93 -100 000/00 RMK AO1 T00780067
54779K12N 12N20160427224009904/27/16 22:40:31  5-MIN K12N 280340Z AUTO 00000KT 08/06 A2993 570 89 -100 000/00 RMK AO1 T00780061
54779K12N 12N20160427224509904/27/16 22:45:31  5-MIN K12N 280345Z AUTO 00000KT 08/06 A2994 570 89 -100 000/00 RMK AO1 T00780061
54779K12N 12N20160427225010604/27/16 22:50:31  5-MIN K12N 280350Z AUTO 00000KT 08/06 A2994 570 89 -100 000/00 RMK AO1 SLP140 T00780061
54779K12N 12N20160427225509904/27/16 22:55:31  5-MIN K12N 280355Z AUTO 00000KT 08/06 A2994 570 89 -100 000/00 RMK AO1 T00780061
54779K12N 12N20160427230009904/27/16 23:00:31  5-MIN K12N 280400Z AUTO 00000KT 08/06 A2994 570 89 -100 000/00 RMK AO1 T00780061
54779K12N 12N20160427230509904/27/16 23:05:31  5-MIN K12N 280405Z AUTO 00000KT 08/06 A2994 570 89 -100 000/00 RMK AO1 T00780061
54779K12N 12N20160427231009904/27/16 23:10:31  5-MIN K12N 280410Z AUTO 00000KT 08/07 A2994 570 93 -100 000/00 RMK AO1 T00780067
54779K12N 12N20160427231509904/27/16 23:15:31  5-MIN K12N 280415Z AUTO 00000KT 08/07 A2994 570 93 -100 000/00 RMK AO1 T00780067
54779K12N 12N20160427232009904/27/16 23:20:31  5-MIN K12N 280420Z AUTO 00000KT 08/07 A2994 570 93 -100 000/00 RMK AO1 T00780067
54779K12N 12N20160427232509904/27/16 23:25:31  5-MIN K12N 280425Z AUTO 00000KT 08/06 A2994 570 89 -100 000/00 RMK AO1 T00780061
54779K12N 12N20160427233009904/27/16 23:30:31  5-MIN K12N 280430Z AUTO 00000KT 08/06 A2994 570 89 -100 000/00 RMK AO1 T00780061
54779K12N 12N20160427233509904/27/16 23:35:31  5-MIN K12N 280435Z AUTO 00000KT 07/06 A2993 570 93 -100 000/00 RMK AO1 T00720061
54779K12N 12N20160427234009904/27/16 23:40:31  5-MIN K12N 280440Z AUTO 00000KT 07/06 A2993 570 89 -100 000/00 RMK AO1 T00720056
54779K12N 12N20160427234509904/27/16 23:45:31  5-MIN K12N 280445Z AUTO 00000KT 07/06 A2993 570 93 -100 000/00 RMK AO1 T00720061
54779K12N 12N20160427235011604/27/16 23:50:31  5-MIN K12N 280450Z AUTO 00000KT 07/06 A2993 570 93 -100 000/00 RMK AO1 SLP139 T00720061 401610061
54779K12N 12N20160427235509904/27/16 23:55:31  5-MIN K12N 280455Z AUTO 00000KT 07/06 A2993 580 89 -100 000/00 RMK AO1 T00720056
54779K12N 12N20160428000009904/28/16 00:00:31  5-MIN K12N 280500Z AUTO 00000KT 07/06 A2993 570 93 -200 000/00 RMK AO1 T00670056
54779K12N 12N20160428000509904/28/16 00:05:31  5-MIN K12N 280505Z AUTO 00000KT 07/06 A2993 570 89 -100 000/00 RMK AO1 T00720056
54779K12N 12N20160428001009904/28/16 00:10:31  5-MIN K12N 280510Z AUTO 00000KT 07/06 A2993 570 89 -100 000/00 RMK AO1 T00720056
54779K12N 12N20160428001509904/28/16 00:15:31  5-MIN K12N 280515Z AUTO 00000KT 07/06 A2993 570 93 -100 000/00 RMK AO1 T00720061
54779K12N 12N20160428002009904/28/16 00:20:31  5-MIN K12N 280520Z AUTO 00000KT 07/06 A2993 570 93 -100 000/00 RMK AO1 T00720061
54779K12N 12N20160428002509904/28/16 00:25:31  5-MIN K12N 280525Z AUTO 00000KT 07/06 A2993 570 96 -200 000/00 RMK AO1 T00670061
54779K12N 12N20160428003009904/28/16 00:30:31  5-MIN K12N 280530Z AUTO 00000KT 07/06 A2994 570 96 -200 000/00 RMK AO1 T00670061
54779K12N 12N20160428003509904/28/16 00:35:31  5-MIN K12N 280535Z AUTO 00000KT 07/06 A2994 570 93 -200 000/00 RMK AO1 T00670056
54779K12N 12N20160428004009904/28/16 00:40:31  5-MIN K12N 280540Z AUTO 00000KT 06/06 A2994 570 96 -300 000/00 RMK AO1 T00610056
54779K12N 12N20160428004509904/28/16 00:45:31  5-MIN K12N 280545Z AUTO 00000KT 07/06 A2993 570 93 -200 000/00 RMK AO1 T00670056
54779K12N 12N20160428005012404/28/16 00:50:31  5-MIN K12N 280550Z AUTO 00000KT 07/06 A2993 570 93 -200 000/00 RMK AO1 SLP139 T00670056 10133 20061 53018
54779K12N 12N20160428005509904/28/16 00:55:31  5-MIN K12N 280555Z AUTO 00000KT 07/06 A2993 570 93 -200 000/00 RMK AO1 T00670056
54779K12N 12N20160428010009904/28/16 01:00:31  5-MIN K12N 280600Z AUTO 00000KT 07/06 A2993 570 93 -200 000/00 RMK AO1 T00670056
54779K12N 12N20160428010509904/28/16 01:05:31  5-MIN K12N 280605Z AUTO 00000KT 07/06 A2993 570 93 -200 000/00 RMK AO1 T00670056
54779K12N 12N20160428011009904/28/16 01:10:31  5-MIN K12N 280610Z AUTO 00000KT 07/06 A2994 570 93 -200 000/00 RMK AO1 T00670056
54779K12N 12N20160428011509904/28/16 01:15:31  5-MIN K12N 280615Z AUTO 00000KT 07/06 A2994 570 93 -200 000/00 RMK AO1 T00670056
54779K12N 12N20160428012009904/28/16 01:20:31  5-MIN K12N 280620Z AUTO 00000KT 07/06 A2994 560 93 -200 000/00 RMK AO1 T00670056
54779K12N 12N20160428012509904/28/16 01:25:31  5-MIN K12N 280625Z AUTO 00000KT 07/06 A2995 560 93 -200 000/00 RMK AO1 T00670056
54779K12N 12N20160428013009904/28/16 01:30:31  5-MIN K12N 280630Z AUTO 00000KT 06/06 A2995 560 96 -300 000/00 RMK AO1 T00610056
54779K12N 12N20160428013509904/28/16 01:35:31  5-MIN K12N 280635Z AUTO 00000KT 06/06 A2995 560 96 -300 000/00 RMK AO1 T00610056
54779K12N 12N20160428014009904/28/16 01:40:31  5-MIN K12N 280640Z AUTO 00000KT 06/05 A2995 560 93 -300 000/00 RMK AO1 T00610050
54779K12N 12N20160428014509904/28/16 01:45:31  5-MIN K12N 280645Z AUTO 00000KT 06/05 A2995 560 93 -300 000/00 RMK AO1 T00610050
54779K12N 12N20160428015010604/28/16 01:50:31  5-MIN K12N 280650Z AUTO 00000KT 06/05 A2995 560 96 -400 000/00 RMK AO1 SLP144 T00560050
54779K12N 12N20160428015509904/28/16 01:55:31  5-MIN K12N 280655Z AUTO 00000KT 06/04 A2995 560 92 -400 000/00 RMK AO1 T00560044
54779K12N 12N20160428020009904/28/16 02:00:31  5-MIN K12N 280700Z AUTO 00000KT 05/04 A2995 550 96 -400 000/00 RMK AO1 T00500044
54779K12N 12N20160428020509904/28/16 02:05:31  5-MIN K12N 280705Z AUTO 00000KT 06/04 A2995 560 92 -400 000/00 RMK AO1 T00560044
54779K12N 12N20160428021009904/28/16 02:10:31  5-MIN K12N 280710Z AUTO VRB03KT 06/04 A2996 550 92 -400 VRB/03 RMK AO1 T00560044
54779K12N 12N20160428021509904/28/16 02:15:31  5-MIN K12N 280715Z AUTO 00000KT 06/04 A2995 550 92 -400 000/00 RMK AO1 T00560044
54779K12N 12N20160428022009904/28/16 02:20:31  5-MIN K12N 280720Z AUTO 00000KT 06/04 A2995 550 92 -400 000/00 RMK AO1 T00560044
54779K12N 12N20160428022509904/28/16 02:25:31  5-MIN K12N 280725Z AUTO 00000KT 05/04 A2995 550 92 -400 000/00 RMK AO1 T00500039
54779K12N 12N20160428023009904/28/16 02:30:31  5-MIN K12N 280730Z AUTO 00000KT 06/04 A2995 550 89 -400 000/00 RMK AO1 T00560039
54779K12N 12N20160428023509904/28/16 02:35:31  5-MIN K12N 280735Z AUTO 00000KT 05/04 A2995 560 92 -400 000/00 RMK AO1 T00500039
54779K12N 12N20160428024009904/28/16 02:40:31  5-MIN K12N 280740Z AUTO 00000KT 05/03 A2995 560 89 -400 000/00 RMK AO1 T00500033
54779K12N 12N20160428024509904/28/16 02:45:31  5-MIN K12N 280745Z AUTO 00000KT 04/03 A2995 560 92 -500 000/00 RMK AO1 T00440033
54779K12N 12N20160428025010604/28/16 02:50:31  5-MIN K12N 280750Z AUTO 00000KT 05/03 A2995 550 85 -400 000/00 RMK AO1 SLP146 T00500028
54779K12N 12N20160428025509904/28/16 02:55:31  5-MIN K12N 280755Z AUTO 00000KT 05/02 A2996 550 82 -400 000/00 RMK AO1 T00500022
54779K12N 12N20160428030009904/28/16 03:00:31  5-MIN K12N 280800Z AUTO 00000KT 05/02 A2996 550 82 -400 000/00 RMK AO1 T00500022
54779K12N 12N20160428030509904/28/16 03:05:31  5-MIN K12N 280805Z AUTO 35003KT 06/00 A2996 550 67 -400 360/03 RMK AO1 T00560000
54779K12N 12N20160428031010004/28/16 03:10:31  5-MIN K12N 280810Z AUTO 34004KT 05/M01 A2996 550 67 -400 350/04 RMK AO1 T00501006
54779K12N 12N20160428031510004/28/16 03:15:31  5-MIN K12N 280815Z AUTO 34004KT 06/M01 A2996 550 62 -400 360/04 RMK AO1 T00561011
54779K12N 12N20160428032010004/28/16 03:20:31  5-MIN K12N 280820Z AUTO 36004KT 06/M01 A2996 550 62 -400 010/04 RMK AO1 T00561011
54779K12N 12N20160428032510004/28/16 03:25:31  5-MIN K12N 280825Z AUTO 36005KT 06/M01 A2996 550 62 -400 010/05 RMK AO1 T00561011
54779K12N 12N20160428033010004/28/16 03:30:31  5-MIN K12N 280830Z AUTO 36003KT 06/M01 A2996 550 62 -400 010/03 RMK AO1 T00561011
54779K12N 12N20160428033510004/28/16 03:35:31  5-MIN K12N 280835Z AUTO 36005KT 06/M01 A2996 550 62 -300 010/05 RMK AO1 T00611006
54779K12N 12N20160428034010004/28/16 03:40:31  5-MIN K12N 280840Z AUTO 36005KT 06/M02 A2997 540 57 -300 010/05 RMK AO1 T00611017
54779K12N 12N20160428034510004/28/16 03:45:31  5-MIN K12N 280845Z AUTO VRB04KT 06/M02 A2997 540 55 -300 VRB/04 RMK AO1 T00611022
54779K12N 12N20160428035011304/28/16 03:50:31  5-MIN K12N 280850Z AUTO 04004KT 07/M01 A2997 540 57 -200 050/04 RMK AO1 SLP150 T00671011 51006
54779K12N 12N20160428035510004/28/16 03:55:31  5-MIN K12N 280855Z AUTO 35004KT 06/M02 A2997 540 57 -300 360/04 RMK AO1 T00611017
54779K12N 12N20160428040010004/28/16 04:00:31  5-MIN K12N 280900Z AUTO 00000KT 06/M03 A2997 540 53 -300 000/00 RMK AO1 T00611028
54779K12N 12N20160428040510004/28/16 04:05:31  5-MIN K12N 280905Z AUTO 00000KT 06/M01 A2998 530 62 -300 000/00 RMK AO1 T00611006
54779K12N 12N20160428041010004/28/16 04:10:31  5-MIN K12N 280910Z AUTO 00000KT 06/M02 A2998 530 57 -300 000/00 RMK AO1 T00611017
54779K12N 12N20160428041510004/28/16 04:15:31  5-MIN K12N 280915Z AUTO 00000KT 06/M01 A2998 530 62 -300 000/00 RMK AO1 T00611006
54779K12N 12N20160428042010004/28/16 04:20:31  5-MIN K12N 280920Z AUTO 00000KT 06/M01 A2998 530 65 -400 000/00 RMK AO1 T00561006
54779K12N 12N20160428042510004/28/16 04:25:31  5-MIN K12N 280925Z AUTO 00000KT 06/M02 A2999 520 59 -400 000/00 RMK AO1 T00561017
54779K12N 12N20160428043010004/28/16 04:30:31  5-MIN K12N 280930Z AUTO 34003KT 05/M01 A2999 520 64 -500 350/03 RMK AO1 T00501011
54779K12N 12N20160428043510004/28/16 04:35:31  5-MIN K12N 280935Z AUTO 00000KT 04/M02 A2999 520 64 -500 000/00 RMK AO1 T00441017
54779K12N 12N20160428044010004/28/16 04:40:31  5-MIN K12N 280940Z AUTO 00000KT 06/M02 A2999 520 59 -400 000/00 RMK AO1 T00561017
54779K12N 12N20160428044510004/28/16 04:45:31  5-MIN K12N 280945Z AUTO 00000KT 05/M02 A2999 520 62 -500 000/00 RMK AO1 T00501017
54779K12N 12N20160428045010704/28/16 04:50:31  5-MIN K12N 280950Z AUTO 00000KT 06/M02 A2999 520 59 -400 000/00 RMK AO1 SLP157 T00561017
54779K12N 12N20160428045510004/28/16 04:55:31  5-MIN K12N 280955Z AUTO 00000KT 06/M01 A2999 520 65 -400 000/00 RMK AO1 T00561006
54779K12N 12N20160428050010004/28/16 05:00:31  5-MIN K12N 281000Z AUTO 00000KT 05/M02 A2999 520 62 -500 000/00 RMK AO1 T00501017
54779K12N 12N20160428050510004/28/16 05:05:31  5-MIN K12N 281005Z AUTO 00000KT 06/M03 A3000 510 53 -400 000/00 RMK AO1 T00561033
54779K12N 12N20160428051010004/28/16 05:10:31  5-MIN K12N 281010Z AUTO 00000KT 05/M02 A3000 510 59 -500 000/00 RMK AO1 T00501022
54779K12N 12N20160428142009904/28/16 14:20:31  5-MIN K12N 281920Z AUTO VRB04KT 15/M04 A2999 520 27 700 VRB/04 RMK AO1 T01501039
54779K12N 12N20160428142509904/28/16 14:25:31  5-MIN K12N 281925Z AUTO 14003KT 15/M03 A2999 520 28 700 150/03 RMK AO1 T01501033
54779K12N 12N20160428143008904/28/16 14:30:31  5-MIN K12N 281930Z AUTO 16/M04 A2999 520 26 800 M /M RMK AO1 T01561039
54779K12N 12N20160428143509904/28/16 14:35:31  5-MIN K12N 281935Z AUTO 15005KT 15/M04 A2999 520 27 700 160/05 RMK AO1 T01501039
54779K12N 12N20160428144009904/28/16 14:40:31  5-MIN K12N 281940Z AUTO 16005KT 14/M04 A2999 520 26 600 170/05 RMK AO1 T01441044
54779K12N 12N20160428144509904/28/16 14:45:31  5-MIN K12N 281945Z AUTO VRB03KT 15/M04 A2999 520 27 700 VRB/03 RMK AO1 T01501039
54779K12N 12N20160428145010604/28/16 14:50:31  5-MIN K12N 281950Z AUTO 20004KT 14/M04 A2999 520 28 600 210/04 RMK AO1 SLP157 T01441039
54779K12N 12N20160428145509904/28/16 14:55:31  5-MIN K12N 281955Z AUTO 22008KT 15/M03 A2999 520 29 700 240/08 RMK AO1 T01501028
54779K12N 12N20160428150009904/28/16 15:00:31  5-MIN K12N 282000Z AUTO VRB03KT 15/M03 A2999 520 28 700 VRB/03 RMK AO1 T01501033
54779K12N 12N20160428150509904/28/16 15:05:31  5-MIN K12N 282005Z AUTO VRB06KT 14/M04 A2999 520 28 600 VRB/06 RMK AO1 T01441039
54779K12N 12N20160428151009904/28/16 15:10:31  5-MIN K12N 282010Z AUTO VRB06KT 15/M03 A2999 520 28 700 VRB/06 RMK AO1 T01501033
54779K12N 12N20160428151509904/28/16 15:15:31  5-MIN K12N 282015Z AUTO VRB04KT 15/M03 A2999 520 28 700 VRB/04 RMK AO1 T01501033
54779K12N 12N20160428152009904/28/16 15:20:31  5-MIN K12N 282020Z AUTO VRB05KT 15/M03 A2999 520 29 700 VRB/05 RMK AO1 T01501028
54779K12N 12N20160428152509904/28/16 15:25:31  5-MIN K12N 282025Z AUTO 23007KT 14/M03 A2999 520 29 600 250/07 RMK AO1 T01441033
54779K12N 12N20160428153009904/28/16 15:30:31  5-MIN K12N 282030Z AUTO 22005KT 14/M03 A2999 530 29 600 230/05 RMK AO1 T01441033
54779K12N 12N20160428153509904/28/16 15:35:31  5-MIN K12N 282035Z AUTO 25005KT 14/M03 A2998 530 29 600 260/05 RMK AO1 T01441033
54779K12N 12N20160428154009904/28/16 15:40:31  5-MIN K12N 282040Z AUTO 17004KT 14/M04 A2999 520 28 600 190/04 RMK AO1 T01441039
54779K12N 12N20160428154509904/28/16 15:45:31  5-MIN K12N 282045Z AUTO VRB03KT 14/M03 A2998 530 30 600 VRB/03 RMK AO1 T01391033
54779K12N 12N20160428155011204/28/16 15:50:31  5-MIN K12N 282050Z AUTO 20005KT 14/M04 A2999 530 27 600 210/05 RMK AO1 SLP156 T01391044 56014
54779K12N 12N20160428155509904/28/16 15:55:31  5-MIN K12N 282055Z AUTO VRB04KT 14/M03 A2999 520 31 600 VRB/04 RMK AO1 T01391028
54779K12N 12N20160428160009904/28/16 16:00:31  5-MIN K12N 282100Z AUTO VRB03KT 14/M03 A2999 520 31 500 VRB/03 RMK AO1 T01391028
54779K12N 12N20160428160509904/28/16 16:05:31  5-MIN K12N 282105Z AUTO 00000KT 14/M03 A2999 520 31 500 000/00 RMK AO1 T01391028
54779K12N 12N20160428161009904/28/16 16:10:31  5-MIN K12N 282110Z AUTO VRB04KT 14/M03 A2999 520 31 500 VRB/04 RMK AO1 T01391028
54779K12N 12N20160428161509904/28/16 16:15:31  5-MIN K12N 282115Z AUTO 19006KT 14/M03 A2999 520 31 500 200/06 RMK AO1 T01391028
54779K12N 12N20160428162009904/28/16 16:20:31  5-MIN K12N 282120Z AUTO 20004KT 13/M03 A2999 520 31 500 210/04 RMK AO1 T01331033
54779K12N 12N20160428162509904/28/16 16:25:31  5-MIN K12N 282125Z AUTO VRB05KT 13/M03 A2999 520 32 500 VRB/05 RMK AO1 T01331028
54779K12N 12N20160428163009904/28/16 16:30:31  5-MIN K12N 282130Z AUTO VRB04KT 13/M02 A2999 520 36 400 VRB/04 RMK AO1 T01281017
54779K12N 12N20160428163509904/28/16 16:35:31  5-MIN K12N 282135Z AUTO VRB05KT 13/M02 A3000 510 36 400 VRB/05 RMK AO1 T01281017
54779K12N 12N20160428164009904/28/16 16:40:31  5-MIN K12N 282140Z AUTO 21004KT 13/M01 A3000 510 38 400 220/04 RMK AO1 T01281011
54779K12N 12N20160428164509904/28/16 16:45:31  5-MIN K12N 282145Z AUTO 21007KT 12/M01 A3001 510 41 300 220/07 RMK AO1 T01221006
54779K12N 12N20160428165010504/28/16 16:50:31  5-MIN K12N 282150Z AUTO 21008KT 12/00 A3001 500 43 300 220/08 RMK AO1 SLP166 T01220000
54779K12N 12N20160428165509804/28/16 16:55:31  5-MIN K12N 282155Z AUTO VRB06KT 11/00 A3001 500 46 200 VRB/06 RMK AO1 T01110000
54779K12N 12N20160428170009804/28/16 17:00:31  5-MIN K12N 282200Z AUTO 22007KT 11/01 A3002 500 48 200 240/07 RMK AO1 T01110006
54779K12N 12N20160428170509804/28/16 17:05:31  5-MIN K12N 282205Z AUTO 22005KT 11/01 A3002 500 50 100 230/05 RMK AO1 T01060006
54779K12N 12N20160428171009804/28/16 17:10:31  5-MIN K12N 282210Z AUTO 23004KT 11/01 A3002 500 52 100 240/04 RMK AO1 T01060011
54779K12N 12N20160428171509804/28/16 17:15:31  5-MIN K12N 282215Z AUTO VRB05KT 11/01 A3002 490 52 100 VRB/05 RMK AO1 T01060011
54779K12N 12N20160428172009804/28/16 17:20:31  5-MIN K12N 282220Z AUTO 22005KT 11/01 A3002 490 52 100 230/05 RMK AO1 T01060011
54779K12N 12N20160428172509804/28/16 17:25:31  5-MIN K12N 282225Z AUTO 23008KT 10/01 A3002 490 54 100 240/08 RMK AO1 T01000011
54779K12N 12N20160428173009804/28/16 17:30:31  5-MIN K12N 282230Z AUTO 23006KT 10/01 A3002 490 52 100 250/06 RMK AO1 T01000006
54779K12N 12N20160428173509804/28/16 17:35:31  5-MIN K12N 282235Z AUTO 22006KT 10/01 A3002 500 54 100 230/06 RMK AO1 T01000011
54779K12N 12N20160428174009804/28/16 17:40:31  5-MIN K12N 282240Z AUTO 23004KT 10/01 A3002 500 52 100 240/04 RMK AO1 T01000006
54779K12N 12N20160428174509804/28/16 17:45:31  5-MIN K12N 282245Z AUTO 22006KT 10/01 A3002 500 52 100 240/06 RMK AO1 T01000006
54779K12N 12N20160428175010504/28/16 17:50:31  5-MIN K12N 282250Z AUTO 23004KT 10/01 A3002 500 52 100 240/04 RMK AO1 SLP169 T01000006
54779K12N 12N20160428175509804/28/16 17:55:31  5-MIN K12N 282255Z AUTO 23005KT 10/01 A3002 490 54 100 240/05 RMK AO1 T01000011
54779K12N 12N20160428180009804/28/16 18:00:31  5-MIN K12N 282300Z AUTO 22005KT 10/02 A3002 490 56 100 230/05 RMK AO1 T01000017
54779K12N 12N20160428180509604/28/16 18:05:31  5-MIN K12N 282305Z AUTO 23005KT 10/02 A3002 490 56 0 240/05 RMK AO1 T01000017
54779K12N 12N20160428181009604/28/16 18:10:31  5-MIN K12N 282310Z AUTO 21003KT 10/02 A3002 490 58 0 220/03 RMK AO1 T01000022
54779K12N 12N20160428181509804/28/16 18:15:31  5-MIN K12N 282315Z AUTO 22005KT 10/02 A3002 490 58 100 230/05 RMK AO1 T01000022
54779K12N 12N20160428182009604/28/16 18:20:31  5-MIN K12N 282320Z AUTO 21003KT 09/02 A3002 490 60 0 230/03 RMK AO1 T00940022
54779K12N 12N20160428182509804/28/16 18:25:31  5-MIN K12N 282325Z AUTO VRB03KT 10/02 A3002 490 58 100 VRB/03 RMK AO1 T01000022
54779K12N 12N20160428183009604/28/16 18:30:31  5-MIN K12N 282330Z AUTO 22005KT 09/02 A3002 490 60 0 230/05 RMK AO1 T00940022
54779K12N 12N20160428183509604/28/16 18:35:31  5-MIN K12N 282335Z AUTO 23005KT 09/02 A3002 490 60 0 240/05 RMK AO1 T00940022
54779K12N 12N20160428184009604/28/16 18:40:31  5-MIN K12N 282340Z AUTO 23003KT 09/02 A3002 490 60 0 240/03 RMK AO1 T00940022
54779K12N 12N20160428184509604/28/16 18:45:31  5-MIN K12N 282345Z AUTO 20003KT 09/03 A3002 500 63 0 210/03 RMK AO1 T00940028
54779K12N 12N20160428185012104/28/16 18:50:31  5-MIN K12N 282350Z AUTO 22003KT 09/03 A3002 490 63 0 230/03 RMK AO1 SLP169 T00940028 10156 20094 56005
54779K12N 12N20160428185509604/28/16 18:55:31  5-MIN K12N 282355Z AUTO 22004KT 09/03 A3002 500 63 0 230/04 RMK AO1 T00940028
54779K12N 12N20160428190009604/28/16 19:00:31  5-MIN K12N 290000Z AUTO 22003KT 09/03 A3002 500 63 0 230/03 RMK AO1 T00940028
54779K12N 12N20160428190509604/28/16 19:05:31  5-MIN K12N 290005Z AUTO 22003KT 09/03 A3002 490 63 0 230/03 RMK AO1 T00940028
54779K12N 12N20160428191009604/28/16 19:10:31  5-MIN K12N 290010Z AUTO 22004KT 09/03 A3002 490 63 0 240/04 RMK AO1 T00940028
54779K12N 12N20160428191509604/28/16 19:15:31  5-MIN K12N 290015Z AUTO 23004KT 09/03 A3002 490 63 0 240/04 RMK AO1 T00940028
54779K12N 12N20160428192009604/28/16 19:20:31  5-MIN K12N 290020Z AUTO 22004KT 09/03 A3002 490 63 0 240/04 RMK AO1 T00940028
54779K12N 12N20160428192509604/28/16 19:25:31  5-MIN K12N 290025Z AUTO 17003KT 09/03 A3002 490 65 0 180/03 RMK AO1 T00940033
54779K12N 12N20160428193009604/28/16 19:30:31  5-MIN K12N 290030Z AUTO 19003KT 09/03 A3002 490 65 0 200/03 RMK AO1 T00940033
54779K12N 12N20160428193509604/28/16 19:35:31  5-MIN K12N 290035Z AUTO 21003KT 09/03 A3002 490 65 0 220/03 RMK AO1 T00940033
54779K12N 12N20160428194009604/28/16 19:40:31  5-MIN K12N 290040Z AUTO 19003KT 09/03 A3002 490 65 0 200/03 RMK AO1 T00940033
54779K12N 12N20160428194509604/28/16 19:45:31  5-MIN K12N 290045Z AUTO VRB03KT 09/03 A3002 490 65 0 VRB/03 RMK AO1 T00940033
54779K12N 12N20160428195010304/28/16 19:50:31  5-MIN K12N 290050Z AUTO VRB03KT 09/03 A3002 490 65 0 VRB/03 RMK AO1 SLP170 T00940033
54779K12N 12N20160428195509604/28/16 19:55:31  5-MIN K12N 290055Z AUTO 18003KT 09/03 A3002 490 65 0 190/03 RMK AO1 T00940033
54779K12N 12N20160428200009604/28/16 20:00:31  5-MIN K12N 290100Z AUTO 20003KT 09/03 A3003 490 65 0 210/03 RMK AO1 T00940033
54779K12N 12N20160428200509604/28/16 20:05:31  5-MIN K12N 290105Z AUTO 00000KT 09/03 A3003 490 65 0 000/00 RMK AO1 T00940033
54779K12N 12N20160428201009604/28/16 20:10:31  5-MIN K12N 290110Z AUTO 20004KT 09/03 A3003 480 65 0 210/04 RMK AO1 T00940033
54779K12N 12N20160428201509604/28/16 20:15:31  5-MIN K12N 290115Z AUTO 19003KT 09/03 A3003 480 68 0 200/03 RMK AO1 T00890033
54779K12N 12N20160428202009604/28/16 20:20:31  5-MIN K12N 290120Z AUTO 22003KT 09/03 A3004 480 68 0 230/03 RMK AO1 T00890033
54779K12N 12N20160428202509904/28/16 20:25:31  5-MIN K12N 290125Z AUTO 22003KT 09/04 A3004 480 71 -100 240/03 RMK AO1 T00890039
54779K12N 12N20160428203009904/28/16 20:30:31  5-MIN K12N 290130Z AUTO 24004KT 09/03 A3004 480 68 -100 250/04 RMK AO1 T00890033
54779K12N 12N20160428203509904/28/16 20:35:31  5-MIN K12N 290135Z AUTO 22003KT 09/03 A3004 480 68 -100 240/03 RMK AO1 T00890033
54779K12N 12N20160428204009904/28/16 20:40:31  5-MIN K12N 290140Z AUTO 00000KT 09/04 A3004 480 71 -100 000/00 RMK AO1 T00890039
54779K12N 12N20160428204509904/28/16 20:45:31  5-MIN K12N 290145Z AUTO 00000KT 09/03 A3004 470 68 -100 000/00 RMK AO1 T00890033
54779K12N 12N20160428205010604/28/16 20:50:31  5-MIN K12N 290150Z AUTO 22003KT 09/04 A3005 470 71 -100 240/03 RMK AO1 SLP177 T00890039
54779K12N 12N20160428205509904/28/16 20:55:31  5-MIN K12N 290155Z AUTO 00000KT 09/04 A3005 470 71 -100 000/00 RMK AO1 T00890039
54779K12N 12N20160428210009904/28/16 21:00:31  5-MIN K12N 290200Z AUTO 00000KT 09/04 A3005 470 71 -100 000/00 RMK AO1 T00890039
54779K12N 12N20160428210509904/28/16 21:05:31  5-MIN K12N 290205Z AUTO 00000KT 09/04 A3005 470 71 -100 000/00 RMK AO1 T00890039
54779K12N 12N20160428211009904/28/16 21:10:31  5-MIN K12N 290210Z AUTO 00000KT 09/04 A3005 470 71 -100 000/00 RMK AO1 T00890039
54779K12N 12N20160428211509904/28/16 21:15:31  5-MIN K12N 290215Z AUTO 24003KT 09/04 A3005 460 71 -100 250/03 RMK AO1 T00890039
54779K12N 12N20160428212009904/28/16 21:20:31  5-MIN K12N 290220Z AUTO 24003KT 08/04 A3005 460 76 -100 260/03 RMK AO1 T00830044
54779K12N 12N20160428212509904/28/16 21:25:31  5-MIN K12N 290225Z AUTO 28003KT 08/04 A3005 460 76 -100 290/03 RMK AO1 T00830044
54779K12N 12N20160428213009904/28/16 21:30:31  5-MIN K12N 290230Z AUTO VRB03KT 08/04 A3005 460 76 -100 VRB/03 RMK AO1 T00830044
54779K12N 12N20160428213509904/28/16 21:35:31  5-MIN K12N 290235Z AUTO VRB03KT 08/04 A3005 460 76 -100 VRB/03 RMK AO1 T00830044
54779K12N 12N20160428214010504/28/16 21:40:31  5-MIN K12N 290240Z AUTO 00000KT 08/05 A3005 470 79 -100 000/00 RMK AO1 P0001 T00830050
54779K12N 12N20160428214510504/28/16 21:45:31  5-MIN K12N 290245Z AUTO 00000KT 08/05 A3004 470 79 -100 000/00 RMK AO1 P0001 T00830050
54779K12N 12N20160428215012404/28/16 21:50:31  5-MIN K12N 290250Z AUTO 00000KT 08/05 A3004 470 79 -100 000/00 RMK AO1 SLP176 P0001 60001 T00830050 50009
54779K12N 12N20160428215509904/28/16 21:55:31  5-MIN K12N 290255Z AUTO 00000KT 08/05 A3004 470 79 -100 000/00 RMK AO1 T00830050
54779K12N 12N20160428220009904/28/16 22:00:31  5-MIN K12N 290300Z AUTO 00000KT 08/06 A3004 470 86 -200 000/00 RMK AO1 T00780056
54779K12N 12N20160428220509904/28/16 22:05:31  5-MIN K12N 290305Z AUTO 24004KT 08/06 A3005 470 86 -200 260/04 RMK AO1 T00780056
54779K12N 12N20160428221009904/28/16 22:10:31  5-MIN K12N 290310Z AUTO 23003KT 08/05 A3005 470 82 -200 240/03 RMK AO1 T00780050
54779K12N 12N20160428221509904/28/16 22:15:31  5-MIN K12N 290315Z AUTO 00000KT 08/05 A3004 470 82 -200 000/00 RMK AO1 T00780050
54779K12N 12N20160428222009904/28/16 22:20:31  5-MIN K12N 290320Z AUTO 00000KT 08/04 A3004 470 79 -200 000/00 RMK AO1 T00780044
54779K12N 12N20160428222509904/28/16 22:25:31  5-MIN K12N 290325Z AUTO 00000KT 08/04 A3004 470 79 -200 000/00 RMK AO1 T00780044
54779K12N 12N20160428223009904/28/16 22:30:31  5-MIN K12N 290330Z AUTO 00000KT 08/04 A3004 480 79 -200 000/00 RMK AO1 T00780044
54779K12N 12N20160428223509904/28/16 22:35:31  5-MIN K12N 290335Z AUTO 00000KT 08/05 A3004 480 82 -200 000/00 RMK AO1 T00780050
54779K12N 12N20160428224009904/28/16 22:40:31  5-MIN K12N 290340Z AUTO 00000KT 08/04 A3004 470 79 -200 000/00 RMK AO1 T00780044
54779K12N 12N20160428224509904/28/16 22:45:31  5-MIN K12N 290345Z AUTO 00000KT 08/04 A3005 470 79 -200 000/00 RMK AO1 T00780044
54779K12N 12N20160428225010604/28/16 22:50:31  5-MIN K12N 290350Z AUTO 00000KT 08/05 A3005 470 82 -200 000/00 RMK AO1 SLP177 T00780050
54779K12N 12N20160428225509904/28/16 22:55:31  5-MIN K12N 290355Z AUTO 00000KT 08/05 A3005 470 82 -200 000/00 RMK AO1 T00780050
54779K12N 12N20160428230009904/28/16 23:00:31  5-MIN K12N 290400Z AUTO 24003KT 08/05 A3005 460 82 -200 260/03 RMK AO1 T00780050
54779K12N 12N20160428230509904/28/16 23:05:31  5-MIN K12N 290405Z AUTO 23003KT 08/04 A3005 460 79 -200 240/03 RMK AO1 T00780044
54779K12N 12N20160428231009904/28/16 23:10:31  5-MIN K12N 290410Z AUTO 22003KT 08/04 A3005 460 79 -200 230/03 RMK AO1 T00780044
54779K12N 12N20160428231509904/28/16 23:15:31  5-MIN K12N 290415Z AUTO 00000KT 08/04 A3005 470 79 -200 000/00 RMK AO1 T00780044
54779K12N 12N20160428232009904/28/16 23:20:31  5-MIN K12N 290420Z AUTO 22003KT 08/04 A3005 460 79 -200 230/03 RMK AO1 T00780044
54779K12N 12N20160428232509904/28/16 23:25:31  5-MIN K12N 290425Z AUTO 00000KT 08/04 A3005 470 79 -200 000/00 RMK AO1 T00780044
54779K12N 12N20160428233009904/28/16 23:30:31  5-MIN K12N 290430Z AUTO 00000KT 08/04 A3004 470 79 -200 000/00 RMK AO1 T00780044
54779K12N 12N20160428233509904/28/16 23:35:31  5-MIN K12N 290435Z AUTO 00000KT 08/04 A3004 470 79 -200 000/00 RMK AO1 T00780044
54779K12N 12N20160428234009904/28/16 23:40:31  5-MIN K12N 290440Z AUTO 00000KT 08/04 A3005 470 79 -200 000/00 RMK AO1 T00780044
54779K12N 12N20160428234509904/28/16 23:45:31  5-MIN K12N 290445Z AUTO 00000KT 08/04 A3005 470 79 -200 000/00 RMK AO1 T00780044
54779K12N 12N20160428235011604/28/16 23:50:31  5-MIN K12N 290450Z AUTO 00000KT 08/04 A3005 470 79 -200 000/00 RMK AO1 SLP176 T00780044 401560044
54779K12N 12N20160428235509904/28/16 23:55:31  5-MIN K12N 290455Z AUTO 00000KT 08/04 A3004 470 79 -200 000/00 RMK AO1 T00780044
54779K12N 12N20160429000009904/29/16 00:00:31  5-MIN K12N 290500Z AUTO 00000KT 08/04 A3004 480 79 -200 000/00 RMK AO1 T00780044
54779K12N 12N20160429000509904/29/16 00:05:31  5-MIN K12N 290505Z AUTO 00000KT 08/04 A3004 480 79 -200 000/00 RMK AO1 T00780044
54779K12N 12N20160429001009904/29/16 00:10:31  5-MIN K12N 290510Z AUTO 00000KT 08/04 A3004 470 79 -200 000/00 RMK AO1 T00780044
54779K12N 12N20160429001509904/29/16 00:15:31  5-MIN K12N 290515Z AUTO 23003KT 08/04 A3004 480 79 -200 240/03 RMK AO1 T00780044
54779K12N 12N20160429002009904/29/16 00:20:31  5-MIN K12N 290520Z AUTO 22003KT 08/04 A3003 480 79 -200 230/03 RMK AO1 T00780044
54779K12N 12N20160429002509904/29/16 00:25:31  5-MIN K12N 290525Z AUTO 21004KT 08/04 A3003 480 79 -200 220/04 RMK AO1 T00780044
54779K12N 12N20160429003009904/29/16 00:30:31  5-MIN K12N 290530Z AUTO 00000KT 08/05 A3003 480 82 -200 000/00 RMK AO1 T00780050
54779K12N 12N20160429003509904/29/16 00:35:31  5-MIN K12N 290535Z AUTO 23003KT 08/05 A3004 480 82 -200 240/03 RMK AO1 T00780050
54779K12N 12N20160429004009904/29/16 00:40:31  5-MIN K12N 290540Z AUTO 00000KT 08/05 A3004 470 82 -200 000/00 RMK AO1 T00780050
54779K12N 12N20160429004509904/29/16 00:45:31  5-MIN K12N 290545Z AUTO 00000KT 08/05 A3004 480 82 -200 000/00 RMK AO1 T00780050
54779K12N 12N20160429005013004/29/16 00:50:31  5-MIN K12N 290550Z AUTO 00000KT 08/05 A3003 480 82 -200 000/00 RMK AO1 SLP172 60001 T00780050 10094 20078 50009
54779K12N 12N20160429005509904/29/16 00:55:31  5-MIN K12N 290555Z AUTO 00000KT 08/05 A3003 480 82 -200 000/00 RMK AO1 T00780050
54779K12N 12N20160429010009904/29/16 01:00:31  5-MIN K12N 290600Z AUTO 00000KT 08/05 A3003 480 82 -200 000/00 RMK AO1 T00780050
54779K12N 12N20160429010509904/29/16 01:05:31  5-MIN K12N 290605Z AUTO 00000KT 08/05 A3003 490 82 -200 000/00 RMK AO1 T00780050
54779K12N 12N20160429011009904/29/16 01:10:31  5-MIN K12N 290610Z AUTO 00000KT 08/05 A3003 490 82 -200 000/00 RMK AO1 T00780050
54779K12N 12N20160429011509904/29/16 01:15:31  5-MIN K12N 290615Z AUTO 00000KT 08/05 A3002 490 82 -200 000/00 RMK AO1 T00780050
54779K12N 12N20160429012009904/29/16 01:20:31  5-MIN K12N 290620Z AUTO 00000KT 08/05 A3002 490 82 -200 000/00 RMK AO1 T00780050
54779K12N 12N20160429012509904/29/16 01:25:31  5-MIN K12N 290625Z AUTO 00000KT 08/05 A3003 490 82 -200 000/00 RMK AO1 T00780050
54779K12N 12N20160429013009904/29/16 01:30:31  5-MIN K12N 290630Z AUTO 00000KT 07/06 A3003 490 89 -200 000/00 RMK AO1 T00720056
54779K12N 12N20160429013509904/29/16 01:35:31  5-MIN K12N 290635Z AUTO 00000KT 08/06 A3002 490 86 -200 000/00 RMK AO1 T00780056
54779K12N 12N20160429014009904/29/16 01:40:31  5-MIN K12N 290640Z AUTO 00000KT 08/06 A3003 490 86 -200 000/00 RMK AO1 T00780056
54779K12N 12N20160429014509904/29/16 01:45:31  5-MIN K12N 290645Z AUTO 30003KT 08/06 A3003 480 86 -200 320/03 RMK AO1 T00780056
54779K12N 12N20160429015010604/29/16 01:50:31  5-MIN K12N 290650Z AUTO 00000KT 08/06 A3003 480 86 -200 000/00 RMK AO1 SLP170 T00780056
54779K12N 12N20160429015509904/29/16 01:55:31  5-MIN K12N 290655Z AUTO 35003KT 08/05 A3003 480 82 -200 360/03 RMK AO1 T00780050
54779K12N 12N20160429020009904/29/16 02:00:31  5-MIN K12N 290700Z AUTO 34003KT 08/06 A3003 480 86 -200 360/03 RMK AO1 T00780056
54779K12N 12N20160429020509904/29/16 02:05:31  5-MIN K12N 290705Z AUTO 00000KT 08/06 A3003 480 86 -200 000/00 RMK AO1 T00780056
54779K12N 12N20160429021009904/29/16 02:10:31  5-MIN K12N 290710Z AUTO 00000KT 08/06 A3003 490 86 -200 000/00 RMK AO1 T00780056
54779K12N 12N20160429021509904/29/16 02:15:31  5-MIN K12N 290715Z AUTO 00000KT 08/05 A3003 490 82 -200 000/00 RMK AO1 T00780050
54779K12N 12N20160429022009904/29/16 02:20:31  5-MIN K12N 290720Z AUTO 00000KT 08/05 A3003 490 82 -200 000/00 RMK AO1 T00780050
54779K12N 12N20160429022509904/29/16 02:25:31  5-MIN K12N 290725Z AUTO 00000KT 08/05 A3003 490 82 -200 000/00 RMK AO1 T00780050
54779K12N 12N20160429023009904/29/16 02:30:31  5-MIN K12N 290730Z AUTO 00000KT 08/05 A3003 480 82 -200 000/00 RMK AO1 T00780050
54779K12N 12N20160429023509904/29/16 02:35:31  5-MIN K12N 290735Z AUTO 00000KT 08/05 A3003 480 82 -200 000/00 RMK AO1 T00780050
54779K12N 12N20160429024009904/29/16 02:40:31  5-MIN K12N 290740Z AUTO 00000KT 08/05 A3003 480 82 -200 000/00 RMK AO1 T00780050
54779K12N 12N20160429024509904/29/16 02:45:31  5-MIN K12N 290745Z AUTO 00000KT 08/05 A3004 480 82 -200 000/00 RMK AO1 T00780050
54779K12N 12N20160429025010604/29/16 02:50:31  5-MIN K12N 290750Z AUTO 00000KT 08/05 A3004 480 82 -200 000/00 RMK AO1 SLP172 T00780050
54779K12N 12N20160429025509904/29/16 02:55:31  5-MIN K12N 290755Z AUTO 00000KT 08/05 A3003 480 82 -200 000/00 RMK AO1 T00780050
54779K12N 12N20160429030009904/29/16 03:00:31  5-MIN K12N 290800Z AUTO 00000KT 08/05 A3004 480 82 -200 000/00 RMK AO1 T00780050
54779K12N 12N20160429031009904/29/16 03:10:31  5-MIN K12N 290810Z AUTO 00000KT 08/05 A3004 470 82 -200 000/00 RMK AO1 T00780050
54779K12N 12N20160429031509904/29/16 03:15:31  5-MIN K12N 290815Z AUTO 00000KT 08/06 A3004 470 86 -200 000/00 RMK AO1 T00780056
54779K12N 12N20160429032009904/29/16 03:20:31  5-MIN K12N 290820Z AUTO 05003KT 08/06 A3004 480 86 -200 060/03 RMK AO1 T00780056
54779K12N 12N20160429032509904/29/16 03:25:31  5-MIN K12N 290825Z AUTO 05004KT 08/06 A3004 480 86 -200 060/04 RMK AO1 T00780056
54779K12N 12N20160429033009904/29/16 03:30:31  5-MIN K12N 290830Z AUTO 04003KT 08/06 A3004 470 86 -200 050/03 RMK AO1 T00780056
54779K12N 12N20160429033509904/29/16 03:35:31  5-MIN K12N 290835Z AUTO 03003KT 08/06 A3004 470 86 -200 040/03 RMK AO1 T00780056
54779K12N 12N20160429034009904/29/16 03:40:31  5-MIN K12N 290840Z AUTO 05003KT 08/06 A3004 470 86 -200 060/03 RMK AO1 T00780056
54779K12N 12N20160429034509904/29/16 03:45:31  5-MIN K12N 290845Z AUTO 05003KT 08/06 A3004 480 86 -200 060/03 RMK AO1 T00780056
54779K12N 12N20160429035010604/29/16 03:50:31  5-MIN K12N 290850Z AUTO 00000KT 08/06 A3004 470 86 -200 000/00 RMK AO1 SLP174 T00780056
54779K12N 12N20160429035509904/29/16 03:55:31  5-MIN K12N 290855Z AUTO 00000KT 08/06 A3004 470 86 -200 000/00 RMK AO1 T00780056
54779K12N 12N20160429040009904/29/16 04:00:31  5-MIN K12N 290900Z AUTO 00000KT 08/06 A3004 470 86 -200 000/00 RMK AO1 T00780056
54779K12N 12N20160429040509904/29/16 04:05:31  5-MIN K12N 290905Z AUTO 00000KT 08/06 A3004 470 86 -200 000/00 RMK AO1 T00780056
54779K12N 12N20160429041009904/29/16 04:10:31  5-MIN K12N 290910Z AUTO 00000KT 08/06 A3004 470 86 -200 000/00 RMK AO1 T00780056
54779K12N 12N20160429041509904/29/16 04:15:31  5-MIN K12N 290915Z AUTO 00000KT 08/06 A3004 470 82 -100 000/00 RMK AO1 T00830056
54779K12N 12N20160429042009904/29/16 04:20:31  5-MIN K12N 290920Z AUTO 00000KT 08/06 A3004 470 82 -100 000/00 RMK AO1 T00830056
54779K12N 12N20160429042509904/29/16 04:25:31  5-MIN K12N 290925Z AUTO 00000KT 08/06 A3004 470 82 -100 000/00 RMK AO1 T00830056
54779K12N 12N20160429043009904/29/16 04:30:31  5-MIN K12N 290930Z AUTO 01003KT 08/05 A3004 470 79 -100 020/03 RMK AO1 T00830050
54779K12N 12N20160429043509904/29/16 04:35:31  5-MIN K12N 290935Z AUTO 00000KT 08/05 A3004 470 79 -100 000/00 RMK AO1 T00830050
54779K12N 12N20160429044009904/29/16 04:40:31  5-MIN K12N 290940Z AUTO 00000KT 08/05 A3004 470 79 -100 000/00 RMK AO1 T00830050
54779K12N 12N20160429044509904/29/16 04:45:31  5-MIN K12N 290945Z AUTO 00000KT 08/04 A3005 470 76 -100 000/00 RMK AO1 T00830044
54779K12N 12N20160429045010604/29/16 04:50:31  5-MIN K12N 290950Z AUTO 00000KT 08/04 A3005 470 73 -100 000/00 RMK AO1 SLP178 T00830039
54779K12N 12N20160429045509904/29/16 04:55:31  5-MIN K12N 290955Z AUTO 00000KT 08/04 A3005 460 79 -200 000/00 RMK AO1 T00780044
54779K12N 12N20160429050009904/29/16 05:00:31  5-MIN K12N 291000Z AUTO 04003KT 08/04 A3005 460 73 -100 060/03 RMK AO1 T00830039
54779K12N 12N20160429050509904/29/16 05:05:31  5-MIN K12N 291005Z AUTO 00000KT 08/04 A3005 460 76 -100 000/00 RMK AO1 T00830044
54779K12N 12N20160429051009904/29/16 05:10:31  5-MIN K12N 291010Z AUTO 00000KT 08/04 A3005 460 76 -100 000/00 RMK AO1 T00830044
54779K12N 12N20160429051509904/29/16 05:15:31  5-MIN K12N 291015Z AUTO 00000KT 08/04 A3005 460 73 -100 000/00 RMK AO1 T00830039
54779K12N 12N20160429052009904/29/16 05:20:31  5-MIN K12N 291020Z AUTO 00000KT 08/04 A3006 460 73 -100 000/00 RMK AO1 T00830039
54779K12N 12N20160429052509904/29/16 05:25:31  5-MIN K12N 291025Z AUTO 00000KT 08/03 A3006 460 70 -100 000/00 RMK AO1 T00830033
54779K12N 12N20160429053009904/29/16 05:30:31  5-MIN K12N 291030Z AUTO 07003KT 08/03 A3006 460 70 -100 080/03 RMK AO1 T00830033
54779K12N 12N20160429053509904/29/16 05:35:31  5-MIN K12N 291035Z AUTO 00000KT 08/03 A3006 450 70 -100 000/00 RMK AO1 T00830033
54779K12N 12N20160429054009904/29/16 05:40:31  5-MIN K12N 291040Z AUTO 00000KT 08/03 A3007 450 70 -200 000/00 RMK AO1 T00830033
54779K12N 12N20160429054509904/29/16 05:45:31  5-MIN K12N 291045Z AUTO 05004KT 08/04 A3007 450 76 -200 060/04 RMK AO1 T00830044
54779K12N 12N20160429055010604/29/16 05:50:31  5-MIN K12N 291050Z AUTO 04003KT 08/04 A3007 450 73 -200 050/03 RMK AO1 SLP186 T00830039
54779K12N 12N20160429055509904/29/16 05:55:31  5-MIN K12N 291055Z AUTO 00000KT 08/04 A3008 440 73 -200 000/00 RMK AO1 T00830039
54779K12N 12N20160429060009904/29/16 06:00:31  5-MIN K12N 291100Z AUTO 04004KT 08/04 A3008 440 73 -200 050/04 RMK AO1 T00830039
54779K12N 12N20160429060509904/29/16 06:05:31  5-MIN K12N 291105Z AUTO 04003KT 08/04 A3008 440 73 -200 050/03 RMK AO1 T00830039
54779K12N 12N20160429061009904/29/16 06:10:31  5-MIN K12N 291110Z AUTO 04003KT 08/04 A3008 440 73 -200 060/03 RMK AO1 T00830039
54779K12N 12N20160429061509904/29/16 06:15:31  5-MIN K12N 291115Z AUTO 00000KT 08/04 A3008 430 73 -200 000/00 RMK AO1 T00830039
54779K12N 12N20160429062009904/29/16 06:20:31  5-MIN K12N 291120Z AUTO 00000KT 08/04 A3009 430 73 -200 000/00 RMK AO1 T00830039
54779K12N 12N20160429062509904/29/16 06:25:31  5-MIN K12N 291125Z AUTO 00000KT 08/04 A3009 430 73 -200 000/00 RMK AO1 T00830039
54779K12N 12N20160429063009904/29/16 06:30:31  5-MIN K12N 291130Z AUTO 00000KT 08/03 A3009 430 70 -200 000/00 RMK AO1 T00830033
54779K12N 12N20160429063509904/29/16 06:35:31  5-MIN K12N 291135Z AUTO 00000KT 08/03 A3009 430 70 -200 000/00 RMK AO1 T00830033
54779K12N 12N20160429064009904/29/16 06:40:31  5-MIN K12N 291140Z AUTO 10003KT 08/03 A3009 430 68 -200 110/03 RMK AO1 T00830028
54779K12N 12N20160429064509904/29/16 06:45:31  5-MIN K12N 291145Z AUTO VRB03KT 08/03 A3009 430 68 -200 VRB/03 RMK AO1 T00830028
54779K12N 12N20160429065012404/29/16 06:50:31  5-MIN K12N 291150Z AUTO 00000KT 08/02 A3009 430 65 -200 000/00 RMK AO1 SLP192 70001 T00830022 10083 20072
54779K12N 12N20160429065509904/29/16 06:55:31  5-MIN K12N 291155Z AUTO 00000KT 08/02 A3009 430 65 -200 000/00 RMK AO1 T00830022
54779K12N 12N20160429070009904/29/16 07:00:31  5-MIN K12N 291200Z AUTO 16004KT 08/02 A3009 430 63 -200 170/04 RMK AO1 T00830017
54779K12N 12N20160429070509904/29/16 07:05:31  5-MIN K12N 291205Z AUTO 00000KT 08/02 A3009 430 63 -200 000/00 RMK AO1 T00830017
54779K12N 12N20160429071009904/29/16 07:10:31  5-MIN K12N 291210Z AUTO 00000KT 09/02 A3009 430 60 -100 000/00 RMK AO1 T00890017
54779K12N 12N20160429071509904/29/16 07:15:31  5-MIN K12N 291215Z AUTO 05005KT 09/01 A3009 430 58 -100 070/05 RMK AO1 T00890011
54779K12N 12N20160429072009904/29/16 07:20:31  5-MIN K12N 291220Z AUTO VRB03KT 08/01 A3009 430 60 -200 VRB/03 RMK AO1 T00830011
54779K12N 12N20160429072509904/29/16 07:25:31  5-MIN K12N 291225Z AUTO 11004KT 09/02 A3009 430 60 -100 120/04 RMK AO1 T00890017
54779K12N 12N20160429073009904/29/16 07:30:31  5-MIN K12N 291230Z AUTO VRB03KT 09/02 A3009 420 60 -100 VRB/03 RMK AO1 T00890017
54779K12N 12N20160429073509904/29/16 07:35:31  5-MIN K12N 291235Z AUTO 11003KT 09/01 A3009 430 58 -100 120/03 RMK AO1 T00890011
54779K12N 12N20160429074009904/29/16 07:40:31  5-MIN K12N 291240Z AUTO 08004KT 09/02 A3009 430 60 -100 090/04 RMK AO1 T00890017
54779K12N 12N20160429074509904/29/16 07:45:31  5-MIN K12N 291245Z AUTO 00000KT 09/01 A3009 430 58 -100 000/00 RMK AO1 T00890011
54779K12N 12N20160429075010604/29/16 07:50:31  5-MIN K12N 291250Z AUTO 00000KT 09/02 A3009 430 60 -100 000/00 RMK AO1 SLP192 T00890017
54779K12N 12N20160429075509604/29/16 07:55:31  5-MIN K12N 291255Z AUTO VRB05KT 09/02 A3009 430 58 0 VRB/05 RMK AO1 T00940017
54779K12N 12N20160429080009604/29/16 08:00:31  5-MIN K12N 291300Z AUTO 06004KT 09/01 A3009 430 56 0 080/04 RMK AO1 T00940011
54779K12N 12N20160429080509604/29/16 08:05:31  5-MIN K12N 291305Z AUTO VRB03KT 09/01 A3009 430 56 0 VRB/03 RMK AO1 T00940011
54779K12N 12N20160429081009604/29/16 08:10:31  5-MIN K12N 291310Z AUTO VRB03KT 09/01 A3009 430 56 0 VRB/03 RMK AO1 T00940011
54779K12N 12N20160429081509604/29/16 08:15:31  5-MIN K12N 291315Z AUTO VRB05KT 09/01 A3009 430 56 0 VRB/05 RMK AO1 T00940011
54779K12N 12N20160429082009604/29/16 08:20:31  5-MIN K12N 291320Z AUTO VRB03KT 09/01 A3009 430 53 0 VRB/03 RMK AO1 T00940006
54779K12N 12N20160429082509604/29/16 08:25:31  5-MIN K12N 291325Z AUTO VRB04KT 09/00 A3009 430 51 0 VRB/04 RMK AO1 T00940000
54779K12N 12N20160429083009604/29/16 08:30:31  5-MIN K12N 291330Z AUTO VRB03KT 09/00 A3009 430 51 0 VRB/03 RMK AO1 T00940000
54779K12N 12N20160429083510004/29/16 08:35:31  5-MIN K12N 291335Z AUTO VRB05KT 09/M01 A3010 420 49 -100 VRB/05 RMK AO1 T00941006
54779K12N 12N20160429084010004/29/16 08:40:31  5-MIN K12N 291340Z AUTO VRB04KT 09/M01 A3010 420 49 -100 VRB/04 RMK AO1 T00941006
54779K12N 12N20160429084510004/29/16 08:45:31  5-MIN K12N 291345Z AUTO VRB04KT 09/M01 A3010 420 47 -100 VRB/04 RMK AO1 T00941011
54779K12N 12N20160429085010404/29/16 08:50:31  5-MIN K12N 291350Z AUTO 00000KT 09/M01 A3009 430 49 0 000/00 RMK AO1 SLP194 T00941006
54779K12N 12N20160429085509604/29/16 08:55:31  5-MIN K12N 291355Z AUTO VRB03KT 10/00 A3009 430 49 0 VRB/03 RMK AO1 T01000000
54779K12N 12N20160429090009604/29/16 09:00:31  5-MIN K12N 291400Z AUTO VRB03KT 11/00 A3009 430 48 0 VRB/03 RMK AO1 T01060000
54779K12N 12N20160429090509604/29/16 09:05:31  5-MIN K12N 291405Z AUTO VRB04KT 11/00 A3009 420 48 0 VRB/04 RMK AO1 T01060000
54779K12N 12N20160429091009704/29/16 09:10:31  5-MIN K12N 291410Z AUTO 00000KT 10/M01 A3010 420 47 0 000/00 RMK AO1 T01001006
54779K12N 12N20160429091509604/29/16 09:15:31  5-MIN K12N 291415Z AUTO VRB05KT 10/00 A3010 420 49 0 VRB/05 RMK AO1 T01000000
54779K12N 12N20160429092009604/29/16 09:20:31  5-MIN K12N 291420Z AUTO 14004KT 10/00 A3010 420 49 0 150/04 RMK AO1 T01000000
54779K12N 12N20160429092509704/29/16 09:25:31  5-MIN K12N 291425Z AUTO VRB04KT 10/M01 A3010 420 47 0 VRB/04 RMK AO1 T01001006
54779K12N 12N20160429093009704/29/16 09:30:31  5-MIN K12N 291430Z AUTO VRB04KT 11/M01 A3010 420 46 0 VRB/04 RMK AO1 T01061006
54779K12N 12N20160429093509704/29/16 09:35:31  5-MIN K12N 291435Z AUTO 00000KT 11/M01 A3010 420 46 0 000/00 RMK AO1 T01061006
54779K12N 12N20160429094011204/29/16 09:40:31  5-MIN K12N 291440Z AUTO 16007KT 120V210 11/00 A3010 420 48 0 170/07 130V220 RMK AO1 T01060000
54779K12N 12N20160429094509704/29/16 09:45:31  5-MIN K12N 291445Z AUTO 05004KT 11/M01 A3010 420 46 0 060/04 RMK AO1 T01061006
54779K12N 12N20160429095011004/29/16 09:50:31  5-MIN K12N 291450Z AUTO 11008KT 11/M01 A3010 420 46 0 120/08 RMK AO1 SLP197 T01061006 53016
54779K12N 12N20160429095509604/29/16 09:55:31  5-MIN K12N 291455Z AUTO VRB05KT 11/00 A3011 410 48 0 VRB/05 RMK AO1 T01060000
54779K12N 12N20160429100009604/29/16 10:00:31  5-MIN K12N 291500Z AUTO VRB03KT 11/00 A3011 410 48 0 VRB/03 RMK AO1 T01060000
54779K12N 12N20160429100509604/29/16 10:05:31  5-MIN K12N 291505Z AUTO VRB06KT 11/00 A3010 420 48 0 VRB/06 RMK AO1 T01060000
54779K12N 12N20160429101009604/29/16 10:10:31  5-MIN K12N 291510Z AUTO VRB04KT 11/00 A3010 420 48 0 VRB/04 RMK AO1 T01060000
54779K12N 12N20160429101509804/29/16 10:15:31  5-MIN K12N 291515Z AUTO VRB04KT 11/01 A3011 410 48 100 VRB/04 RMK AO1 T01110006
54779K12N 12N20160429102009604/29/16 10:20:31  5-MIN K12N 291520Z AUTO VRB05KT 11/01 A3010 420 50 0 VRB/05 RMK AO1 T01060006
54779K12N 12N20160429102509804/29/16 10:25:31  5-MIN K12N 291525Z AUTO 00000KT 11/01 A3010 420 48 100 000/00 RMK AO1 T01110006
54779K12N 12N20160429103008804/29/16 10:30:31  5-MIN K12N 291530Z AUTO 11/01 A3010 420 48 100 M /M RMK AO1 T01110006
54779K12N 12N20160429103509804/29/16 10:35:31  5-MIN K12N 291535Z AUTO VRB04KT 12/01 A3010 420 46 200 VRB/04 RMK AO1 T01170006
54779K12N 12N20160429104008804/29/16 10:40:31  5-MIN K12N 291540Z AUTO 12/00 A3010 420 44 200 M /M RMK AO1 T01170000
54779K12N 12N20160429104509804/29/16 10:45:31  5-MIN K12N 291545Z AUTO VRB04KT 11/00 A3010 420 46 100 VRB/04 RMK AO1 T01110000
54779K12N 12N20160429105010504/29/16 10:50:31  5-MIN K12N 291550Z AUTO VRB06KT 11/00 A3010 420 46 100 VRB/06 RMK AO1 SLP197 T01110000
54779K12N 12N20160429105509804/29/16 10:55:31  5-MIN K12N 291555Z AUTO VRB05KT 11/00 A3010 420 46 100 VRB/05 RMK AO1 T01110000
54779K12N 12N20160429110009804/29/16 11:00:31  5-MIN K12N 291600Z AUTO VRB04KT 11/00 A3010 420 46 100 VRB/04 RMK AO1 T01110000
54779K12N 12N20160429110509804/29/16 11:05:31  5-MIN K12N 291605Z AUTO 00000KT 11/01 A3009 420 48 100 000/00 RMK AO1 T01110006
54779K12N 12N20160429111008804/29/16 11:10:31  5-MIN K12N 291610Z AUTO 12/01 A3009 430 46 200 M /M RMK AO1 T01170006
54779K12N 12N20160429111509804/29/16 11:15:31  5-MIN K12N 291615Z AUTO 16005KT 12/00 A3009 430 44 200 180/05 RMK AO1 T01170000
54779K12N 12N20160429112009804/29/16 11:20:31  5-MIN K12N 291620Z AUTO VRB04KT 12/00 A3009 430 44 200 VRB/04 RMK AO1 T01170000
54779K12N 12N20160429112509804/29/16 11:25:31  5-MIN K12N 291625Z AUTO VRB04KT 12/00 A3009 430 44 200 VRB/04 RMK AO1 T01170000
54779K12N 12N20160429113008804/29/16 11:30:31  5-MIN K12N 291630Z AUTO 12/00 A3009 430 44 200 M /M RMK AO1 T01170000
54779K12N 12N20160429113509804/29/16 11:35:31  5-MIN K12N 291635Z AUTO 17003KT 12/00 A3009 430 44 200 180/03 RMK AO1 T01170000
54779K12N 12N20160429114009904/29/16 11:40:31  5-MIN K12N 291640Z AUTO VRB04KT 12/M01 A3008 440 42 200 VRB/04 RMK AO1 T01171006
54779K12N 12N20160429114509904/29/16 11:45:31  5-MIN K12N 291645Z AUTO 00000KT 12/M01 A3008 440 42 200 000/00 RMK AO1 T01171006
54779K12N 12N20160429115010604/29/16 11:50:31  5-MIN K12N 291650Z AUTO VRB05KT 12/M01 A3008 440 42 200 VRB/05 RMK AO1 SLP188 T01171006
54779K12N 12N20160429115509904/29/16 11:55:31  5-MIN K12N 291655Z AUTO VRB06KT 11/M01 A3008 440 42 100 VRB/06 RMK AO1 T01111011
54779K12N 12N20160429120009904/29/16 12:00:31  5-MIN K12N 291700Z AUTO VRB03KT 11/M01 A3008 440 42 100 VRB/03 RMK AO1 T01111011
54779K12N 12N20160429120509904/29/16 12:05:31  5-MIN K12N 291705Z AUTO VRB04KT 12/M01 A3007 440 42 200 VRB/04 RMK AO1 T01171006
54779K12N 12N20160429121009904/29/16 12:10:31  5-MIN K12N 291710Z AUTO VRB05KT 12/M01 A3007 450 41 200 VRB/05 RMK AO1 T01171011
54779K12N 12N20160429121509904/29/16 12:15:31  5-MIN K12N 291715Z AUTO VRB06KT 12/M01 A3007 450 41 200 VRB/06 RMK AO1 T01171011
54779K12N 12N20160429122009804/29/16 12:20:31  5-MIN K12N 291720Z AUTO 17005KT 12/00 A3007 450 44 200 180/05 RMK AO1 T01170000
54779K12N 12N20160429122509804/29/16 12:25:31  5-MIN K12N 291725Z AUTO VRB04KT 12/00 A3007 450 43 300 VRB/04 RMK AO1 T01220000
54779K12N 12N20160429123009904/29/16 12:30:31  5-MIN K12N 291730Z AUTO VRB03KT 12/M01 A3007 450 42 200 VRB/03 RMK AO1 T01171006
54779K12N 12N20160429123509904/29/16 12:35:31  5-MIN K12N 291735Z AUTO VRB04KT 12/M01 A3006 450 41 300 VRB/04 RMK AO1 T01221006
54779K12N 12N20160429124009904/29/16 12:40:31  5-MIN K12N 291740Z AUTO VRB04KT 12/M01 A3006 450 41 300 VRB/04 RMK AO1 T01221006
54779K12N 12N20160429124509804/29/16 12:45:31  5-MIN K12N 291745Z AUTO VRB04KT 12/00 A3006 460 43 300 VRB/04 RMK AO1 T01220000
54779K12N 12N20160429125012404/29/16 12:50:31  5-MIN K12N 291750Z AUTO VRB04KT 12/M01 A3006 450 39 300 VRB/04 RMK AO1 SLP183 T01221011 10122 20083 53005
54779K12N 12N20160429125509904/29/16 12:55:31  5-MIN K12N 291755Z AUTO VRB03KT 12/M01 A3006 450 41 300 VRB/03 RMK AO1 T01221006
54779K12N 12N20160429130009904/29/16 13:00:31  5-MIN K12N 291800Z AUTO VRB05KT 12/M01 A3006 450 41 300 VRB/05 RMK AO1 T01221006
54779K12N 12N20160429130509904/29/16 13:05:31  5-MIN K12N 291805Z AUTO VRB05KT 12/M01 A3006 450 41 300 VRB/05 RMK AO1 T01221006
54779K12N 12N20160429131009904/29/16 13:10:31  5-MIN K12N 291810Z AUTO VRB04KT 12/M01 A3006 450 39 300 VRB/04 RMK AO1 T01221011
54779K12N 12N20160429131509904/29/16 13:15:31  5-MIN K12N 291815Z AUTO 13004KT 12/M01 A3006 460 39 300 150/04 RMK AO1 T01221011
54779K12N 12N20160429132008904/29/16 13:20:31  5-MIN K12N 291820Z AUTO 13/M01 A3006 460 39 300 M /M RMK AO1 T01281006
54779K12N 12N20160429132509904/29/16 13:25:31  5-MIN K12N 291825Z AUTO VRB03KT 13/M02 A3006 460 36 300 VRB/03 RMK AO1 T01281017
54779K12N 12N20160429133009904/29/16 13:30:31  5-MIN K12N 291830Z AUTO VRB05KT 13/M02 A3007 450 35 300 VRB/05 RMK AO1 T01281022
54779K12N 12N20160429133509904/29/16 13:35:31  5-MIN K12N 291835Z AUTO VRB03KT 12/M03 A3007 450 35 300 VRB/03 RMK AO1 T01221028
54779K12N 12N20160429134009904/29/16 13:40:31  5-MIN K12N 291840Z AUTO VRB04KT 12/M03 A3007 450 35 300 VRB/04 RMK AO1 T01221028
54779K12N 12N20160429134509904/29/16 13:45:31  5-MIN K12N 291845Z AUTO VRB03KT 12/M03 A3007 440 36 200 VRB/03 RMK AO1 T01171028
54779K12N 12N20160429135010604/29/16 13:50:31  5-MIN K12N 291850Z AUTO VRB03KT 12/M03 A3007 440 36 200 VRB/03 RMK AO1 SLP187 T01171028
54779K12N 12N20160429135509904/29/16 13:55:31  5-MIN K12N 291855Z AUTO 16004KT 12/M03 A3007 450 36 200 180/04 RMK AO1 T01171028
54779K12N 12N20160429140009904/29/16 14:00:31  5-MIN K12N 291900Z AUTO 00000KT 12/M04 A3007 450 33 200 000/00 RMK AO1 T01171039
54779K12N 12N20160429140509904/29/16 14:05:31  5-MIN K12N 291905Z AUTO VRB04KT 12/M03 A3007 450 35 200 VRB/04 RMK AO1 T01171033
54779K12N 12N20160429141009904/29/16 14:10:31  5-MIN K12N 291910Z AUTO VRB04KT 12/M03 A3007 450 35 200 VRB/04 RMK AO1 T01171033
54779K12N 12N20160429141509904/29/16 14:15:31  5-MIN K12N 291915Z AUTO VRB03KT 12/M03 A3007 450 35 200 VRB/03 RMK AO1 T01171033
54779K12N 12N20160429142009904/29/16 14:20:31  5-MIN K12N 291920Z AUTO VRB05KT 12/M03 A3007 450 35 200 VRB/05 RMK AO1 T01171033
54779K12N 12N20160429142509904/29/16 14:25:31  5-MIN K12N 291925Z AUTO 00000KT 11/M02 A3007 450 39 100 000/00 RMK AO1 T01111022
54779K12N 12N20160429143009904/29/16 14:30:31  5-MIN K12N 291930Z AUTO VRB05KT 11/M02 A3006 450 39 100 VRB/05 RMK AO1 T01111022
54779K12N 12N20160429143509904/29/16 14:35:31  5-MIN K12N 291935Z AUTO 00000KT 12/M02 A3006 460 38 200 000/00 RMK AO1 T01171022
54779K12N 12N20160429144009904/29/16 14:40:31  5-MIN K12N 291940Z AUTO 00000KT 12/M02 A3006 450 39 200 000/00 RMK AO1 T01171017
54779K12N 12N20160429144509904/29/16 14:45:31  5-MIN K12N 291945Z AUTO 00000KT 12/M02 A3007 450 38 200 000/00 RMK AO1 T01171022
54779K12N 12N20160429145010604/29/16 14:50:31  5-MIN K12N 291950Z AUTO VRB05KT 12/M01 A3007 450 42 200 VRB/05 RMK AO1 SLP184 T01171006
54779K12N 12N20160429145509804/29/16 14:55:31  5-MIN K12N 291955Z AUTO 03004KT 11/00 A3006 460 46 100 040/04 RMK AO1 T01110000
54779K12N 12N20160429150009804/29/16 15:00:31  5-MIN K12N 292000Z AUTO VRB03KT 11/00 A3005 460 46 100 VRB/03 RMK AO1 T01110000
54779K12N 12N20160429150509804/29/16 15:05:31  5-MIN K12N 292005Z AUTO 04004KT 11/00 A3006 450 46 100 050/04 RMK AO1 T01110000
54779K12N 12N20160429151009804/29/16 15:10:31  5-MIN K12N 292010Z AUTO VRB03KT 11/01 A3006 460 48 100 VRB/03 RMK AO1 T01110006
54779K12N 12N20160429151509904/29/16 15:15:31  5-MIN K12N 292015Z AUTO VRB05KT 11/M01 A3006 450 44 100 VRB/05 RMK AO1 T01111006
54779K12N 12N20160429152009904/29/16 15:20:31  5-MIN K12N 292020Z AUTO VRB04KT 11/M01 A3006 450 44 100 VRB/04 RMK AO1 T01111006
54779K12N 12N20160429152509904/29/16 15:25:31  5-MIN K12N 292025Z AUTO 04005KT 11/M01 A3007 450 44 100 050/05 RMK AO1 T01111006
54779K12N 12N20160429153009904/29/16 15:30:31  5-MIN K12N 292030Z AUTO 00000KT 11/M01 A3007 450 44 100 000/00 RMK AO1 T01111006
54779K12N 12N20160429153509804/29/16 15:35:31  5-MIN K12N 292035Z AUTO 03003KT 11/00 A3007 450 46 100 050/03 RMK AO1 T01110000
54779K12N 12N20160429154009804/29/16 15:40:31  5-MIN K12N 292040Z AUTO VRB03KT 11/00 A3007 450 46 100 VRB/03 RMK AO1 T01110000
54779K12N 12N20160429154509904/29/16 15:45:31  5-MIN K12N 292045Z AUTO VRB03KT 11/M01 A3007 450 44 100 VRB/03 RMK AO1 T01111006
54779K12N 12N20160429155011104/29/16 15:50:31  5-MIN K12N 292050Z AUTO 04004KT 11/00 A3006 450 48 100 050/04 RMK AO1 SLP183 T01060000 58014
54779K12N 12N20160429155509804/29/16 15:55:31  5-MIN K12N 292055Z AUTO VRB04KT 11/01 A3006 460 50 100 VRB/04 RMK AO1 T01060006
54779K12N 12N20160429160009804/29/16 16:00:31  5-MIN K12N 292100Z AUTO 02004KT 11/01 A3006 460 52 100 030/04 RMK AO1 T01060011
54779K12N 12N20160429160509804/29/16 16:05:31  5-MIN K12N 292105Z AUTO 00000KT 11/01 A3006 460 52 100 000/00 RMK AO1 T01060011
54779K12N 12N20160429161009804/29/16 16:10:31  5-MIN K12N 292110Z AUTO 00000KT 11/02 A3006 460 54 100 000/00 RMK AO1 T01060017
54779K12N 12N20160429161509804/29/16 16:15:31  5-MIN K12N 292115Z AUTO 00000KT 11/02 A3006 460 54 100 000/00 RMK AO1 T01060017
54779K12N 12N20160429162009804/29/16 16:20:31  5-MIN K12N 292120Z AUTO VRB05KT 11/02 A3006 450 54 100 VRB/05 RMK AO1 T01060017
54779K12N 12N20160429162510204/29/16 16:25:31  5-MIN K12N 292125Z AUTO VRB04KT 10/02 A3007 450 58 0 VRB/04 RMK AO1 P0001 T01000022
54779K12N 12N20160429163010204/29/16 16:30:31  5-MIN K12N 292130Z AUTO 19004KT 09/03 A3007 450 63 0 210/04 RMK AO1 P0001 T00940028
54779K12N 12N20160429163510204/29/16 16:35:31  5-MIN K12N 292135Z AUTO VRB04KT 09/03 A3007 450 63 0 VRB/04 RMK AO1 P0001 T00940028
54779K12N 12N20160429164010204/29/16 16:40:31  5-MIN K12N 292140Z AUTO 00000KT 09/03 A3006 450 63 0 000/00 RMK AO1 P0001 T00940028
54779K12N 12N20160429164510204/29/16 16:45:31  5-MIN K12N 292145Z AUTO 00000KT 09/03 A3006 450 65 0 000/00 RMK AO1 P0001 T00940033
54779K12N 12N20160429165010904/29/16 16:50:31  5-MIN K12N 292150Z AUTO 00000KT 09/03 A3006 450 65 0 000/00 RMK AO1 SLP184 P0001 T00940033
54779K12N 12N20160429165509604/29/16 16:55:31  5-MIN K12N 292155Z AUTO 00000KT 09/04 A3006 450 68 0 000/00 RMK AO1 T00940039
54779K12N 12N20160429170009604/29/16 17:00:31  5-MIN K12N 292200Z AUTO 00000KT 09/03 A3006 450 65 0 000/00 RMK AO1 T00940033
54779K12N 12N20160429170509604/29/16 17:05:31  5-MIN K12N 292205Z AUTO 00000KT 10/03 A3006 450 63 0 000/00 RMK AO1 T01000033
54779K12N 12N20160429171009604/29/16 17:10:31  5-MIN K12N 292210Z AUTO 00000KT 10/03 A3006 450 60 0 000/00 RMK AO1 T01000028
54779K12N 12N20160429171509604/29/16 17:15:31  5-MIN K12N 292215Z AUTO 00000KT 10/03 A3006 450 63 0 000/00 RMK AO1 T01000033
54779K12N 12N20160429172009604/29/16 17:20:31  5-MIN K12N 292220Z AUTO 00000KT 09/03 A3006 450 65 0 000/00 RMK AO1 T00940033
54779K12N 12N20160429172509604/29/16 17:25:31  5-MIN K12N 292225Z AUTO 19004KT 09/03 A3007 450 65 0 200/04 RMK AO1 T00940033
54779K12N 12N20160429173010504/29/16 17:30:31  5-MIN K12N 292230Z AUTO VRB03KT 09/04 A3007 450 71 -100 VRB/03 RMK AO1 P0001 T00890039
54779K12N 12N20160429173510504/29/16 17:35:31  5-MIN K12N 292235Z AUTO 00000KT 08/04 A3007 450 76 -200 000/00 RMK AO1 P0002 T00830044
54779K12N 12N20160429174010504/29/16 17:40:31  5-MIN K12N 292240Z AUTO 00000KT 08/05 A3007 450 79 -200 000/00 RMK AO1 P0002 T00830050
54779K12N 12N20160429174510504/29/16 17:45:31  5-MIN K12N 292245Z AUTO 00000KT 08/06 A3007 450 86 -200 000/00 RMK AO1 P0002 T00830061
54779K12N 12N20160429175011204/29/16 17:50:31  5-MIN K12N 292250Z AUTO VRB03KT 08/06 A3007 440 86 -200 VRB/03 RMK AO1 SLP188 P0002 T00780056
54779K12N 12N20160429175509904/29/16 17:55:31  5-MIN K12N 292255Z AUTO 19004KT 08/04 A3007 440 79 -200 200/04 RMK AO1 T00780044
54779K12N 12N20160429180009904/29/16 18:00:31  5-MIN K12N 292300Z AUTO VRB03KT 08/03 A3008 440 73 -200 VRB/03 RMK AO1 T00780033
54779K12N 12N20160429180509904/29/16 18:05:31  5-MIN K12N 292305Z AUTO 00000KT 08/03 A3008 440 70 -200 000/00 RMK AO1 T00780028
54779K12N 12N20160429181009904/29/16 18:10:31  5-MIN K12N 292310Z AUTO 00000KT 07/03 A3008 440 76 -300 000/00 RMK AO1 T00720033
54779K12N 12N20160429181509904/29/16 18:15:31  5-MIN K12N 292315Z AUTO 00000KT 07/03 A3008 440 73 -300 000/00 RMK AO1 T00720028
54779K12N 12N20160429182009904/29/16 18:20:31  5-MIN K12N 292320Z AUTO 00000KT 07/04 A3008 440 79 -300 000/00 RMK AO1 T00720039
54779K12N 12N20160429182509904/29/16 18:25:31  5-MIN K12N 292325Z AUTO 00000KT 07/04 A3008 440 79 -300 000/00 RMK AO1 T00720039
54779K12N 12N20160429183009904/29/16 18:30:31  5-MIN K12N 292330Z AUTO 15003KT 07/03 A3008 440 73 -300 170/03 RMK AO1 T00720028
54779K12N 12N20160429183509904/29/16 18:35:31  5-MIN K12N 292335Z AUTO 00000KT 07/03 A3008 440 76 -300 000/00 RMK AO1 T00720033
54779K12N 12N20160429184009904/29/16 18:40:31  5-MIN K12N 292340Z AUTO 00000KT 07/04 A3009 430 79 -300 000/00 RMK AO1 T00720039
54779K12N 12N20160429184509904/29/16 18:45:31  5-MIN K12N 292345Z AUTO 00000KT 07/04 A3009 430 79 -300 000/00 RMK AO1 T00720039
54779K12N 12N20160429185013004/29/16 18:50:31  5-MIN K12N 292350Z AUTO 00000KT 07/04 A3009 430 86 -400 000/00 RMK AO1 SLP193 60004 T00670044 10128 20067 58002
54779K12N 12N20160429185509904/29/16 18:55:31  5-MIN K12N 292355Z AUTO 00000KT 07/04 A3009 430 86 -400 000/00 RMK AO1 T00670044
54779K12N 12N20160429190009904/29/16 19:00:31  5-MIN K12N 300000Z AUTO 00000KT 07/04 A3010 420 86 -400 000/00 RMK AO1 T00670044
54779K12N 12N20160429190509904/29/16 19:05:31  5-MIN K12N 300005Z AUTO 00000KT 07/04 A3010 420 86 -400 000/00 RMK AO1 T00670044
54779K12N 12N20160429191009904/29/16 19:10:31  5-MIN K12N 300010Z AUTO 00000KT 07/04 A3010 420 86 -400 000/00 RMK AO1 T00670044
54779K12N 12N20160429191509904/29/16 19:15:31  5-MIN K12N 300015Z AUTO 00000KT 07/04 A3010 410 86 -400 000/00 RMK AO1 T00670044
54779K12N 12N20160429192009904/29/16 19:20:31  5-MIN K12N 300020Z AUTO 00000KT 07/04 A3011 410 86 -400 000/00 RMK AO1 T00670044
54779K12N 12N20160429192509904/29/16 19:25:31  5-MIN K12N 300025Z AUTO 00000KT 07/04 A3011 410 86 -400 000/00 RMK AO1 T00670044
54779K12N 12N20160429193009904/29/16 19:30:31  5-MIN K12N 300030Z AUTO 00000KT 07/04 A3011 410 86 -400 000/00 RMK AO1 T00670044
54779K12N 12N20160429193509904/29/16 19:35:31  5-MIN K12N 300035Z AUTO 00000KT 07/05 A3011 410 89 -400 000/00 RMK AO1 T00670050
54779K12N 12N20160429194009904/29/16 19:40:31  5-MIN K12N 300040Z AUTO 00000KT 07/04 A3012 410 86 -400 000/00 RMK AO1 T00670044
54779K12N 12N20160429194509904/29/16 19:45:31  5-MIN K12N 300045Z AUTO 00000KT 07/05 A3012 400 89 -400 000/00 RMK AO1 T00670050
54779K12N 12N20160429195010604/29/16 19:50:31  5-MIN K12N 300050Z AUTO 04003KT 07/05 A3012 400 86 -400 050/03 RMK AO1 SLP204 T00720050
54779K12N 12N20160429195510504/29/16 19:55:31  5-MIN K12N 300055Z AUTO 05003KT 07/05 A3013 390 86 -400 060/03 RMK AO1 P0001 T00720050
54779K12N 12N20160429200010504/29/16 20:00:31  5-MIN K12N 300100Z AUTO 36004KT 07/05 A3013 390 89 -400 010/04 RMK AO1 P0001 T00670050
54779K12N 12N20160429200510504/29/16 20:05:31  5-MIN K12N 300105Z AUTO 36003KT 07/04 A3014 390 86 -400 020/03 RMK AO1 P0002 T00670044
54779K12N 12N20160429201010504/29/16 20:10:31  5-MIN K12N 300110Z AUTO 34004KT 07/04 A3014 380 86 -400 360/04 RMK AO1 P0002 T00670044
54779K12N 12N20160429201510504/29/16 20:15:31  5-MIN K12N 300115Z AUTO 35004KT 06/04 A3014 380 89 -500 360/04 RMK AO1 P0002 T00610044
54779K12N 12N20160429202010504/29/16 20:20:31  5-MIN K12N 300120Z AUTO 36004KT 07/04 A3015 380 82 -400 010/04 RMK AO1 P0002 T00670039
54779K12N 12N20160429202510504/29/16 20:25:31  5-MIN K12N 300125Z AUTO 36004KT 07/04 A3015 380 82 -400 010/04 RMK AO1 P0002 T00670039
54779K12N 12N20160429203010504/29/16 20:30:31  5-MIN K12N 300130Z AUTO 00000KT 07/04 A3015 380 82 -400 000/00 RMK AO1 P0002 T00670039
54779K12N 12N20160429203510504/29/16 20:35:31  5-MIN K12N 300135Z AUTO 00000KT 07/04 A3015 380 82 -400 000/00 RMK AO1 P0002 T00670039
54779K12N 12N20160429204010504/29/16 20:40:31  5-MIN K12N 300140Z AUTO 00000KT 07/04 A3015 380 82 -400 000/00 RMK AO1 P0002 T00670039
54779K12N 12N20160429204510504/29/16 20:45:31  5-MIN K12N 300145Z AUTO 07003KT 06/04 A3014 380 89 -500 090/03 RMK AO1 P0002 T00610044
54779K12N 12N20160429205011204/29/16 20:50:31  5-MIN K12N 300150Z AUTO 00000KT 07/04 A3015 380 86 -400 000/00 RMK AO1 SLP213 P0002 T00670044
54779K12N 12N20160429205509904/29/16 20:55:31  5-MIN K12N 300155Z AUTO 00000KT 07/04 A3015 370 82 -500 000/00 RMK AO1 T00670039
54779K12N 12N20160429210009904/29/16 21:00:31  5-MIN K12N 300200Z AUTO 00000KT 07/04 A3015 370 86 -500 000/00 RMK AO1 T00670044
54779K12N 12N20160429210509904/29/16 21:05:31  5-MIN K12N 300205Z AUTO 00000KT 07/04 A3015 370 86 -500 000/00 RMK AO1 T00670044
54779K12N 12N20160429211009904/29/16 21:10:31  5-MIN K12N 300210Z AUTO 00000KT 07/04 A3015 370 86 -500 000/00 RMK AO1 T00670044
54779K12N 12N20160429211509904/29/16 21:15:31  5-MIN K12N 300215Z AUTO 00000KT 06/05 A3015 370 93 -500 000/00 RMK AO1 T00610050
54779K12N 12N20160429212009904/29/16 21:20:31  5-MIN K12N 300220Z AUTO 00000KT 06/05 A3014 380 93 -500 000/00 RMK AO1 T00610050
54779K12N 12N20160429212509904/29/16 21:25:31  5-MIN K12N 300225Z AUTO 00000KT 06/05 A3014 380 93 -500 000/00 RMK AO1 T00610050
54779K12N 12N20160429213009904/29/16 21:30:31  5-MIN K12N 300230Z AUTO 00000KT 06/05 A3014 380 93 -500 000/00 RMK AO1 T00610050
54779K12N 12N20160429213509904/29/16 21:35:31  5-MIN K12N 300235Z AUTO 00000KT 06/05 A3014 380 93 -500 000/00 RMK AO1 T00610050
54779K12N 12N20160429214009904/29/16 21:40:31  5-MIN K12N 300240Z AUTO 00000KT 07/05 A3014 380 89 -400 000/00 RMK AO1 T00670050
54779K12N 12N20160429214509904/29/16 21:45:31  5-MIN K12N 300245Z AUTO 00000KT 07/05 A3014 380 89 -400 000/00 RMK AO1 T00670050
54779K12N 12N20160429215011804/29/16 21:50:31  5-MIN K12N 300250Z AUTO 00000KT 07/05 A3014 390 89 -400 000/00 RMK AO1 SLP208 60002 T00670050 53012
54779K12N 12N20160429215509904/29/16 21:55:31  5-MIN K12N 300255Z AUTO 00000KT 07/05 A3014 390 89 -400 000/00 RMK AO1 T00670050
54779K12N 12N20160429220009904/29/16 22:00:31  5-MIN K12N 300300Z AUTO 00000KT 07/05 A3014 390 89 -400 000/00 RMK AO1 T00670050
54779K12N 12N20160429220509904/29/16 22:05:31  5-MIN K12N 300305Z AUTO 00000KT 07/05 A3014 380 89 -400 000/00 RMK AO1 T00670050
54779K12N 12N20160429221009904/29/16 22:10:31  5-MIN K12N 300310Z AUTO 00000KT 06/05 A3015 380 93 -500 000/00 RMK AO1 T00610050
54779K12N 12N20160429221509904/29/16 22:15:31  5-MIN K12N 300315Z AUTO 00000KT 07/05 A3015 380 89 -400 000/00 RMK AO1 T00670050
54779K12N 12N20160429222009904/29/16 22:20:31  5-MIN K12N 300320Z AUTO 34003KT 07/05 A3015 380 89 -400 360/03 RMK AO1 T00670050
54779K12N 12N20160429222509904/29/16 22:25:31  5-MIN K12N 300325Z AUTO 00000KT 07/05 A3015 370 89 -500 000/00 RMK AO1 T00670050
54779K12N 12N20160429223009904/29/16 22:30:31  5-MIN K12N 300330Z AUTO 00000KT 07/05 A3015 370 89 -500 000/00 RMK AO1 T00670050
54779K12N 12N20160429223509904/29/16 22:35:31  5-MIN K12N 300335Z AUTO 00000KT 07/05 A3015 370 89 -500 000/00 RMK AO1 T00670050
54779K12N 12N20160429224009904/29/16 22:40:31  5-MIN K12N 300340Z AUTO 00000KT 07/05 A3016 370 89 -500 000/00 RMK AO1 T00670050
54779K12N 12N20160429224509904/29/16 22:45:31  5-MIN K12N 300345Z AUTO 00000KT 07/05 A3016 370 89 -500 000/00 RMK AO1 T00670050
54779K12N 12N20160429225010604/29/16 22:50:31  5-MIN K12N 300350Z AUTO 00000KT 07/05 A3016 360 89 -500 000/00 RMK AO1 SLP216 T00670050
54779K12N 12N20160429225509904/29/16 22:55:31  5-MIN K12N 300355Z AUTO 00000KT 07/05 A3016 370 89 -500 000/00 RMK AO1 T00670050
54779K12N 12N20160429230009904/29/16 23:00:31  5-MIN K12N 300400Z AUTO 00000KT 07/05 A3016 370 89 -500 000/00 RMK AO1 T00670050
54779K12N 12N20160429230509904/29/16 23:05:31  5-MIN K12N 300405Z AUTO 00000KT 07/05 A3016 370 89 -500 000/00 RMK AO1 T00670050
54779K12N 12N20160429231009904/29/16 23:10:31  5-MIN K12N 300410Z AUTO 00000KT 07/05 A3016 370 89 -500 000/00 RMK AO1 T00670050
54779K12N 12N20160429231509904/29/16 23:15:31  5-MIN K12N 300415Z AUTO 00000KT 07/05 A3016 360 89 -500 000/00 RMK AO1 T00670050
54779K12N 12N20160429232009904/29/16 23:20:31  5-MIN K12N 300420Z AUTO 00000KT 07/05 A3016 360 89 -500 000/00 RMK AO1 T00670050
54779K12N 12N20160429232509904/29/16 23:25:31  5-MIN K12N 300425Z AUTO 00000KT 07/05 A3017 360 89 -500 000/00 RMK AO1 T00670050
54779K12N 12N20160429233009904/29/16 23:30:31  5-MIN K12N 300430Z AUTO 35003KT 07/05 A3017 360 89 -500 010/03 RMK AO1 T00670050
54779K12N 12N20160429233509904/29/16 23:35:31  5-MIN K12N 300435Z AUTO 35003KT 07/05 A3017 350 89 -500 360/03 RMK AO1 T00670050
54779K12N 12N20160429234009904/29/16 23:40:31  5-MIN K12N 300440Z AUTO 00000KT 07/05 A3017 350 89 -500 000/00 RMK AO1 T00670050
54779K12N 12N20160429234509904/29/16 23:45:31  5-MIN K12N 300445Z AUTO 00000KT 06/05 A3017 350 93 -500 000/00 RMK AO1 T00610050
54779K12N 12N20160429235011604/29/16 23:50:31  5-MIN K12N 300450Z AUTO 00000KT 06/05 A3017 360 93 -500 000/00 RMK AO1 SLP219 T00610050 401280061
54779K12N 12N20160429235509904/29/16 23:55:31  5-MIN K12N 300455Z AUTO 34003KT 06/05 A3017 360 93 -500 360/03 RMK AO1 T00610050
54779K12N 12N20160430000009904/30/16 00:00:31  5-MIN K12N 300500Z AUTO 34003KT 06/05 A3017 360 93 -500 360/03 RMK AO1 T00610050
54779K12N 12N20160430000509904/30/16 00:05:31  5-MIN K12N 300505Z AUTO 33003KT 06/05 A3017 360 93 -500 340/03 RMK AO1 T00610050
54779K12N 12N20160430001009904/30/16 00:10:31  5-MIN K12N 300510Z AUTO 34003KT 06/05 A3017 360 93 -500 350/03 RMK AO1 T00610050
54779K12N 12N20160430001509904/30/16 00:15:31  5-MIN K12N 300515Z AUTO 35004KT 06/05 A3017 360 93 -500 360/04 RMK AO1 T00610050
54779K12N 12N20160430002009904/30/16 00:20:31  5-MIN K12N 300520Z AUTO 35003KT 06/04 A3017 360 89 -500 360/03 RMK AO1 T00610044
54779K12N 12N20160430002509904/30/16 00:25:31  5-MIN K12N 300525Z AUTO 35004KT 06/05 A3017 360 93 -500 010/04 RMK AO1 T00610050
54779K12N 12N20160430003009904/30/16 00:30:31  5-MIN K12N 300530Z AUTO 34004KT 06/05 A3017 360 93 -500 360/04 RMK AO1 T00610050
54779K12N 12N20160430003509904/30/16 00:35:31  5-MIN K12N 300535Z AUTO 32003KT 06/05 A3017 360 93 -500 330/03 RMK AO1 T00610050
54779K12N 12N20160430004009904/30/16 00:40:31  5-MIN K12N 300540Z AUTO 00000KT 06/05 A3017 360 93 -500 000/00 RMK AO1 T00610050
54779K12N 12N20160430004509904/30/16 00:45:31  5-MIN K12N 300545Z AUTO 00000KT 06/05 A3017 360 93 -500 000/00 RMK AO1 T00610050
54779K12N 12N20160430005013004/30/16 00:50:31  5-MIN K12N 300550Z AUTO 00000KT 06/05 A3016 360 93 -500 000/00 RMK AO1 SLP217 60002 T00610050 10072 20061 50015
54779K12N 12N20160430005509904/30/16 00:55:31  5-MIN K12N 300555Z AUTO 05003KT 06/05 A3016 370 93 -500 060/03 RMK AO1 T00610050
54779K12N 12N20160430010009904/30/16 01:00:31  5-MIN K12N 300600Z AUTO 04003KT 06/05 A3016 370 93 -500 050/03 RMK AO1 T00610050
54779K12N 12N20160430122009804/30/16 12:20:31  5-MIN K12N 301720Z AUTO 00000KT 14/05 A3018 340 53 400 000/00 RMK AO1 T01440050
54779K12N 12N20160430122509804/30/16 12:25:31  5-MIN K12N 301725Z AUTO VRB06KT 15/05 A3018 350 51 500 VRB/06 RMK AO1 T01500050
54779K12N 12N20160430123009804/30/16 12:30:31  5-MIN K12N 301730Z AUTO VRB03KT 14/04 A3018 340 51 400 VRB/03 RMK AO1 T01440044
54779K12N 12N20160430123509804/30/16 12:35:31  5-MIN K12N 301735Z AUTO 00000KT 15/04 A3018 350 49 500 000/00 RMK AO1 T01500044
54779K12N 12N20160430124009804/30/16 12:40:31  5-MIN K12N 301740Z AUTO 00000KT 15/05 A3018 340 51 500 000/00 RMK AO1 T01500050
54779K12N 12N20160430124509804/30/16 12:45:31  5-MIN K12N 301745Z AUTO 22004KT 14/05 A3018 350 53 400 230/04 RMK AO1 T01440050
54779K12N 12N20160430125012304/30/16 12:50:31  5-MIN K12N 301750Z AUTO 00000KT 14/04 A3018 350 51 400 000/00 RMK AO1 SLP222 T01440044 10150 20072 58009
54779K12N 12N20160430125509804/30/16 12:55:31  5-MIN K12N 301755Z AUTO 00000KT 14/04 A3018 340 49 400 000/00 RMK AO1 T01440039
54779K12N 12N20160430130009804/30/16 13:00:31  5-MIN K12N 301800Z AUTO 19004KT 14/04 A3019 340 51 400 210/04 RMK AO1 T01440044
54779K12N 12N20160430130509804/30/16 13:05:31  5-MIN K12N 301805Z AUTO VRB03KT 14/04 A3018 340 49 400 VRB/03 RMK AO1 T01440039
54779K12N 12N20160430131009804/30/16 13:10:31  5-MIN K12N 301810Z AUTO VRB03KT 15/05 A3018 340 51 500 VRB/03 RMK AO1 T01500050
54779K12N 12N20160430131509804/30/16 13:15:31  5-MIN K12N 301815Z AUTO VRB04KT 15/04 A3018 340 49 500 VRB/04 RMK AO1 T01500044
54779K12N 12N20160430132009804/30/16 13:20:31  5-MIN K12N 301820Z AUTO VRB03KT 15/04 A3019 340 49 500 VRB/03 RMK AO1 T01500044
54779K12N 12N20160430132509804/30/16 13:25:31  5-MIN K12N 301825Z AUTO VRB03KT 15/05 A3019 340 51 500 VRB/03 RMK AO1 T01500050
54779K12N 12N20160430133009804/30/16 13:30:31  5-MIN K12N 301830Z AUTO 25006KT 15/04 A3019 340 49 500 260/06 RMK AO1 T01500044
54779K12N 12N20160430133509804/30/16 13:35:31  5-MIN K12N 301835Z AUTO VRB04KT 15/05 A3019 340 51 500 VRB/04 RMK AO1 T01500050
54779K12N 12N20160430134009804/30/16 13:40:31  5-MIN K12N 301840Z AUTO VRB03KT 14/04 A3019 340 51 400 VRB/03 RMK AO1 T01440044
54779K12N 12N20160430134509804/30/16 13:45:31  5-MIN K12N 301845Z AUTO VRB04KT 14/04 A3019 340 51 400 VRB/04 RMK AO1 T01440044
54779K12N 12N20160430135010504/30/16 13:50:31  5-MIN K12N 301850Z AUTO 26003KT 14/04 A3019 340 51 400 270/03 RMK AO1 SLP226 T01440044
54779K12N 12N20160430135509804/30/16 13:55:31  5-MIN K12N 301855Z AUTO VRB04KT 14/04 A3019 340 49 400 VRB/04 RMK AO1 T01440039
54779K12N 12N20160430140009804/30/16 14:00:31  5-MIN K12N 301900Z AUTO 00000KT 14/04 A3019 340 49 400 000/00 RMK AO1 T01440039
54779K12N 12N20160430140509804/30/16 14:05:31  5-MIN K12N 301905Z AUTO VRB04KT 14/04 A3019 340 51 400 VRB/04 RMK AO1 T01440044
54779K12N 12N20160430141009804/30/16 14:10:31  5-MIN K12N 301910Z AUTO 19004KT 14/04 A3019 340 51 400 210/04 RMK AO1 T01440044
54779K12N 12N20160430141509804/30/16 14:15:31  5-MIN K12N 301915Z AUTO VRB05KT 14/04 A3019 340 51 400 VRB/05 RMK AO1 T01440044
54779K12N 12N20160430142009804/30/16 14:20:31  5-MIN K12N 301920Z AUTO 22005KT 14/04 A3018 350 51 400 230/05 RMK AO1 T01440044
54779K12N 12N20160430142509804/30/16 14:25:31  5-MIN K12N 301925Z AUTO VRB05KT 14/05 A3018 350 53 400 VRB/05 RMK AO1 T01440050
54779K12N 12N20160430143009804/30/16 14:30:31  5-MIN K12N 301930Z AUTO 21004KT 14/04 A3018 350 51 400 220/04 RMK AO1 T01440044
54779K12N 12N20160430143509804/30/16 14:35:31  5-MIN K12N 301935Z AUTO VRB03KT 14/04 A3018 350 51 400 VRB/03 RMK AO1 T01440044
54779K12N 12N20160430144009804/30/16 14:40:31  5-MIN K12N 301940Z AUTO 22004KT 14/04 A3018 350 51 400 230/04 RMK AO1 T01440044
54779K12N 12N20160430144509804/30/16 14:45:31  5-MIN K12N 301945Z AUTO 00000KT 14/04 A3018 350 51 400 000/00 RMK AO1 T01440044
54779K12N 12N20160430145010504/30/16 14:50:31  5-MIN K12N 301950Z AUTO 00000KT 14/04 A3018 350 51 400 000/00 RMK AO1 SLP221 T01440044
54779K12N 12N20160430145509804/30/16 14:55:31  5-MIN K12N 301955Z AUTO 19004KT 14/04 A3018 350 51 400 200/04 RMK AO1 T01440044
54779K12N 12N20160430150009804/30/16 15:00:31  5-MIN K12N 302000Z AUTO 21003KT 14/04 A3018 350 51 400 230/03 RMK AO1 T01440044
54779K12N 12N20160430150509804/30/16 15:05:31  5-MIN K12N 302005Z AUTO 22003KT 14/05 A3017 350 53 400 230/03 RMK AO1 T01440050
54779K12N 12N20160430151009804/30/16 15:10:31  5-MIN K12N 302010Z AUTO VRB03KT 14/05 A3018 350 53 400 VRB/03 RMK AO1 T01440050
54779K12N 12N20160430151509804/30/16 15:15:31  5-MIN K12N 302015Z AUTO 21004KT 14/05 A3018 350 53 400 230/04 RMK AO1 T01440050
54779K12N 12N20160430152009804/30/16 15:20:31  5-MIN K12N 302020Z AUTO 22003KT 14/05 A3018 350 53 400 230/03 RMK AO1 T01440050
54779K12N 12N20160430152509804/30/16 15:25:31  5-MIN K12N 302025Z AUTO 19003KT 14/05 A3018 340 53 400 200/03 RMK AO1 T01440050
54779K12N 12N20160430153009804/30/16 15:30:31  5-MIN K12N 302030Z AUTO 00000KT 14/04 A3019 340 51 400 000/00 RMK AO1 T01440044
54779K12N 12N20160430153509804/30/16 15:35:31  5-MIN K12N 302035Z AUTO 17003KT 14/04 A3019 340 51 400 190/03 RMK AO1 T01440044
54779K12N 12N20160430154009804/30/16 15:40:31  5-MIN K12N 302040Z AUTO VRB03KT 14/05 A3019 340 53 400 VRB/03 RMK AO1 T01440050
54779K12N 12N20160430154509804/30/16 15:45:31  5-MIN K12N 302045Z AUTO VRB03KT 14/05 A3019 340 53 400 VRB/03 RMK AO1 T01440050
54779K12N 12N20160430155011104/30/16 15:50:31  5-MIN K12N 302050Z AUTO 19003KT 14/04 A3019 340 52 300 200/03 RMK AO1 SLP224 T01390044 58003
54779K12N 12N20160430155509804/30/16 15:55:31  5-MIN K12N 302055Z AUTO 19003KT 14/04 A3019 340 52 300 210/03 RMK AO1 T01390044
54779K12N 12N20160430160009804/30/16 16:00:31  5-MIN K12N 302100Z AUTO 20003KT 14/04 A3019 340 51 400 210/03 RMK AO1 T01440044
54779K12N 12N20160430160509804/30/16 16:05:31  5-MIN K12N 302105Z AUTO 20004KT 14/04 A3019 340 51 400 210/04 RMK AO1 T01440044
54779K12N 12N20160430161009804/30/16 16:10:31  5-MIN K12N 302110Z AUTO 20004KT 14/05 A3019 340 53 400 220/04 RMK AO1 T01440050
54779K12N 12N20160430161509804/30/16 16:15:31  5-MIN K12N 302115Z AUTO 20004KT 14/05 A3019 340 53 400 220/04 RMK AO1 T01440050
54779K12N 12N20160430162009804/30/16 16:20:31  5-MIN K12N 302120Z AUTO VRB04KT 14/05 A3019 340 53 400 VRB/04 RMK AO1 T01440050
54779K12N 12N20160430162509804/30/16 16:25:31  5-MIN K12N 302125Z AUTO 00000KT 14/04 A3019 340 52 300 000/00 RMK AO1 T01390044
54779K12N 12N20160430163009804/30/16 16:30:31  5-MIN K12N 302130Z AUTO VRB03KT 14/05 A3019 340 53 400 VRB/03 RMK AO1 T01440050
54779K12N 12N20160430163509804/30/16 16:35:31  5-MIN K12N 302135Z AUTO VRB03KT 14/05 A3019 340 53 400 VRB/03 RMK AO1 T01440050
54779K12N 12N20160430164009804/30/16 16:40:31  5-MIN K12N 302140Z AUTO 21004KT 14/05 A3019 340 53 400 230/04 RMK AO1 T01440050
54779K12N 12N20160430164509804/30/16 16:45:31  5-MIN K12N 302145Z AUTO VRB03KT 14/05 A3019 340 53 400 VRB/03 RMK AO1 T01440050
54779K12N 12N20160430165010504/30/16 16:50:31  5-MIN K12N 302150Z AUTO 22005KT 14/05 A3019 340 53 400 230/05 RMK AO1 SLP225 T01440050
54779K12N 12N20160430165509804/30/16 16:55:31  5-MIN K12N 302155Z AUTO 00000KT 14/05 A3019 340 53 400 000/00 RMK AO1 T01440050
54779K12N 12N20160430170009804/30/16 17:00:31  5-MIN K12N 302200Z AUTO VRB03KT 14/05 A3019 340 53 400 VRB/03 RMK AO1 T01440050
54779K12N 12N20160430170509804/30/16 17:05:31  5-MIN K12N 302205Z AUTO 00000KT 14/05 A3019 340 53 400 000/00 RMK AO1 T01440050
54779K12N 12N20160430171009804/30/16 17:10:31  5-MIN K12N 302210Z AUTO 21004KT 14/05 A3019 330 53 400 220/04 RMK AO1 T01440050
54779K12N 12N20160430171509804/30/16 17:15:31  5-MIN K12N 302215Z AUTO 22004KT 14/06 A3020 330 57 300 230/04 RMK AO1 T01390056
54779K12N 12N20160430172009804/30/16 17:20:31  5-MIN K12N 302220Z AUTO 22005KT 14/05 A3020 330 55 300 230/05 RMK AO1 T01390050
54779K12N 12N20160430172509804/30/16 17:25:31  5-MIN K12N 302225Z AUTO 21004KT 14/05 A3020 330 55 300 230/04 RMK AO1 T01390050
54779K12N 12N20160430173009804/30/16 17:30:31  5-MIN K12N 302230Z AUTO 21003KT 14/06 A3020 330 57 300 220/03 RMK AO1 T01390056
54779K12N 12N20160430173509804/30/16 17:35:31  5-MIN K12N 302235Z AUTO 20003KT 14/06 A3020 330 57 300 210/03 RMK AO1 T01390056
54779K12N 12N20160430174009804/30/16 17:40:31  5-MIN K12N 302240Z AUTO 00000KT 14/06 A3020 330 57 300 000/00 RMK AO1 T01390056
54779K12N 12N20160430174509804/30/16 17:45:31  5-MIN K12N 302245Z AUTO 21005KT 14/06 A3020 320 57 300 230/05 RMK AO1 T01390056
54779K12N 12N20160430175010504/30/16 17:50:31  5-MIN K12N 302250Z AUTO 00000KT 14/06 A3020 320 57 300 000/00 RMK AO1 SLP231 T01390056
54779K12N 12N20160430175509804/30/16 17:55:31  5-MIN K12N 302255Z AUTO VRB03KT 14/06 A3021 320 57 300 VRB/03 RMK AO1 T01390056
54779K12N 12N20160430180009804/30/16 18:00:31  5-MIN K12N 302300Z AUTO 21006KT 14/05 A3021 320 55 300 220/06 RMK AO1 T01390050
54779K12N 12N20160430180509804/30/16 18:05:31  5-MIN K12N 302305Z AUTO 21006KT 14/05 A3021 320 55 300 230/06 RMK AO1 T01390050
54779K12N 12N20160430181009804/30/16 18:10:31  5-MIN K12N 302310Z AUTO 20003KT 14/05 A3021 320 55 300 210/03 RMK AO1 T01390050
54779K12N 12N20160430181509804/30/16 18:15:31  5-MIN K12N 302315Z AUTO 20004KT 13/05 A3021 320 57 200 210/04 RMK AO1 T01330050
54779K12N 12N20160430182009804/30/16 18:20:31  5-MIN K12N 302320Z AUTO 00000KT 13/05 A3022 310 57 200 000/00 RMK AO1 T01330050
54779K12N 12N20160430182509804/30/16 18:25:31  5-MIN K12N 302325Z AUTO VRB03KT 13/06 A3021 320 59 200 VRB/03 RMK AO1 T01330056
54779K12N 12N20160430183009804/30/16 18:30:31  5-MIN K12N 302330Z AUTO VRB03KT 13/05 A3021 320 57 200 VRB/03 RMK AO1 T01330050
54779K12N 12N20160430183509804/30/16 18:35:31  5-MIN K12N 302335Z AUTO 00000KT 13/06 A3021 320 59 200 000/00 RMK AO1 T01330056
54779K12N 12N20160430184009804/30/16 18:40:31  5-MIN K12N 302340Z AUTO 00000KT 13/06 A3021 320 59 200 000/00 RMK AO1 T01330056
54779K12N 12N20160430184509804/30/16 18:45:31  5-MIN K12N 302345Z AUTO 00000KT 13/06 A3020 320 59 200 000/00 RMK AO1 T01330056
54779K12N 12N20160430185012304/30/16 18:50:31  5-MIN K12N 302350Z AUTO VRB03KT 13/06 A3020 320 59 200 VRB/03 RMK AO1 SLP231 T01330056 10150 20133 53003
54779K12N 12N20160430185509804/30/16 18:55:31  5-MIN K12N 302355Z AUTO 22004KT 13/06 A3021 320 59 200 230/04 RMK AO1 T01330056
54779K12N 12N20160430190009804/30/16 19:00:31  5-MIN K12N 010000Z AUTO 24004KT 13/05 A3021 320 59 200 250/04 RMK AO1 T01280050
54779K12N 12N20160430190509804/30/16 19:05:31  5-MIN K12N 010005Z AUTO 23004KT 13/06 A3021 320 61 200 240/04 RMK AO1 T01280056
54779K12N 12N20160430191009804/30/16 19:10:31  5-MIN K12N 010010Z AUTO 23004KT 13/05 A3021 320 59 200 250/04 RMK AO1 T01280050
54779K12N 12N20160430191509804/30/16 19:15:31  5-MIN K12N 010015Z AUTO 23003KT 13/06 A3021 320 61 200 240/03 RMK AO1 T01280056
54779K12N 12N20160430192009804/30/16 19:20:31  5-MIN K12N 010020Z AUTO 22003KT 13/06 A3021 320 61 200 230/03 RMK AO1 T01280056
54779K12N 12N20160430192509804/30/16 19:25:31  5-MIN K12N 010025Z AUTO 00000KT 12/06 A3021 320 63 100 000/00 RMK AO1 T01220056
54779K12N 12N20160430193009804/30/16 19:30:31  5-MIN K12N 010030Z AUTO 00000KT 12/06 A3021 320 66 100 000/00 RMK AO1 T01220061
54779K12N 12N20160430193509604/30/16 19:35:31  5-MIN K12N 010035Z AUTO 00000KT 12/06 A3021 320 68 0 000/00 RMK AO1 T01170061
54779K12N 12N20160430194009604/30/16 19:40:31  5-MIN K12N 010040Z AUTO 00000KT 11/06 A3021 320 71 0 000/00 RMK AO1 T01110061
54779K12N 12N20160430194509604/30/16 19:45:31  5-MIN K12N 010045Z AUTO 00000KT 11/06 A3021 320 74 0 000/00 RMK AO1 T01060061
54779K12N 12N20160430195010304/30/16 19:50:31  5-MIN K12N 010050Z AUTO 00000KT 11/06 A3021 320 74 0 000/00 RMK AO1 SLP234 T01060061
54779K12N 12N20160430195509904/30/16 19:55:31  5-MIN K12N 010055Z AUTO 00000KT 10/06 A3021 320 77 -100 000/00 RMK AO1 T01000061
54779K12N 12N20160430200009904/30/16 20:00:31  5-MIN K12N 010100Z AUTO 00000KT 10/06 A3021 320 74 -100 000/00 RMK AO1 T01000056
54779K12N 12N20160430200509604/30/16 20:05:31  5-MIN K12N 010105Z AUTO 00000KT 11/06 A3021 320 71 0 000/00 RMK AO1 T01060056
54779K12N 12N20160430201009904/30/16 20:10:31  5-MIN K12N 010110Z AUTO 00000KT 10/06 A3021 320 77 -100 000/00 RMK AO1 T01000061
54779K12N 12N20160430201509904/30/16 20:15:31  5-MIN K12N 010115Z AUTO 00000KT 10/06 A3021 320 77 -100 000/00 RMK AO1 T01000061
54779K12N 12N20160430202009904/30/16 20:20:31  5-MIN K12N 010120Z AUTO 00000KT 10/06 A3021 320 77 -100 000/00 RMK AO1 T01000061
54779K12N 12N20160430202509904/30/16 20:25:31  5-MIN K12N 010125Z AUTO 00000KT 10/06 A3021 320 77 -100 000/00 RMK AO1 T01000061
54779K12N 12N20160430203009904/30/16 20:30:31  5-MIN K12N 010130Z AUTO 00000KT 09/06 A3021 320 83 -200 000/00 RMK AO1 T00890061
54779K12N 12N20160430203509904/30/16 20:35:31  5-MIN K12N 010135Z AUTO 00000KT 09/06 A3021 320 79 -200 000/00 RMK AO1 T00890056
54779K12N 12N20160430204009904/30/16 20:40:31  5-MIN K12N 010140Z AUTO 17003KT 09/06 A3021 320 79 -200 180/03 RMK AO1 T00940061
54779K12N 12N20160430204509904/30/16 20:45:31  5-MIN K12N 010145Z AUTO VRB03KT 10/06 A3021 320 74 -100 VRB/03 RMK AO1 T01000056
54779K12N 12N20160430205010604/30/16 20:50:31  5-MIN K12N 010150Z AUTO 00000KT 11/05 A3021 310 68 -100 000/00 RMK AO1 SLP233 T01060050
54779K12N 12N20160430205509904/30/16 20:55:31  5-MIN K12N 010155Z AUTO VRB03KT 11/04 A3021 320 66 -100 VRB/03 RMK AO1 T01060044
54779K12N 12N20160430210009904/30/16 21:00:31  5-MIN K12N 010200Z AUTO 17004KT 11/04 A3021 320 66 -100 180/04 RMK AO1 T01060044
54779K12N 12N20160430210509904/30/16 21:05:31  5-MIN K12N 010205Z AUTO VRB03KT 11/04 A3021 320 63 -100 VRB/03 RMK AO1 T01060039
54779K12N 12N20160430211009904/30/16 21:10:31  5-MIN K12N 010210Z AUTO VRB03KT 11/04 A3022 310 63 -100 VRB/03 RMK AO1 T01060039
54779K12N 12N20160430211509904/30/16 21:15:31  5-MIN K12N 010215Z AUTO 18003KT 11/03 A3021 310 58 -100 200/03 RMK AO1 T01060028
54779K12N 12N20160430212009904/30/16 21:20:31  5-MIN K12N 010220Z AUTO 18005KT 11/03 A3021 310 58 -100 200/05 RMK AO1 T01060028
54779K12N 12N20160430212509904/30/16 21:25:31  5-MIN K12N 010225Z AUTO VRB04KT 11/03 A3022 310 58 -100 VRB/04 RMK AO1 T01060028
54779K12N 12N20160430213009904/30/16 21:30:31  5-MIN K12N 010230Z AUTO 18003KT 11/02 A3021 310 56 -100 200/03 RMK AO1 T01060022
54779K12N 12N20160430213509904/30/16 21:35:31  5-MIN K12N 010235Z AUTO VRB03KT 11/03 A3021 310 58 -100 VRB/03 RMK AO1 T01060028
54779K12N 12N20160430214009904/30/16 21:40:31  5-MIN K12N 010240Z AUTO 00000KT 11/02 A3022 310 56 -100 000/00 RMK AO1 T01060022
54779K12N 12N20160430214509904/30/16 21:45:31  5-MIN K12N 010245Z AUTO VRB03KT 11/02 A3022 310 56 -100 VRB/03 RMK AO1 T01060022
54779K12N 12N20160430215011204/30/16 21:50:31  5-MIN K12N 010250Z AUTO 21003KT 11/02 A3022 310 56 -100 220/03 RMK AO1 SLP234 T01060022 50005
54779K12N 12N20160430215509904/30/16 21:55:31  5-MIN K12N 010255Z AUTO 00000KT 11/03 A3022 310 58 -100 000/00 RMK AO1 T01060028
54779K12N 12N20160430220009904/30/16 22:00:31  5-MIN K12N 010300Z AUTO 22004KT 11/02 A3022 310 56 -100 240/04 RMK AO1 T01060022
54779K12N 12N20160430220509904/30/16 22:05:31  5-MIN K12N 010305Z AUTO 22004KT 10/02 A3021 310 58 -100 240/04 RMK AO1 T01000022
54779K12N 12N20160430221009904/30/16 22:10:31  5-MIN K12N 010310Z AUTO 23003KT 10/02 A3021 310 58 -100 240/03 RMK AO1 T01000022
54779K12N 12N20160430221509904/30/16 22:15:31  5-MIN K12N 010315Z AUTO 00000KT 10/02 A3021 310 58 -100 000/00 RMK AO1 T01000022
54779K12N 12N20160430222009904/30/16 22:20:31  5-MIN K12N 010320Z AUTO 00000KT 10/02 A3022 310 58 -100 000/00 RMK AO1 T01000022
54779K12N 12N20160430222509904/30/16 22:25:31  5-MIN K12N 010325Z AUTO 00000KT 10/03 A3022 310 60 -100 000/00 RMK AO1 T01000028
54779K12N 12N20160430223009904/30/16 22:30:31  5-MIN K12N 010330Z AUTO 00000KT 10/03 A3022 310 60 -100 000/00 RMK AO1 T01000028
54779K12N 12N20160430223509904/30/16 22:35:31  5-MIN K12N 010335Z AUTO 00000KT 10/03 A3022 310 60 -100 000/00 RMK AO1 T01000028
54779K12N 12N20160430224009904/30/16 22:40:31  5-MIN K12N 010340Z AUTO 00000KT 10/03 A3022 310 60 -100 000/00 RMK AO1 T01000028
54779K12N 12N20160430224509904/30/16 22:45:31  5-MIN K12N 010345Z AUTO 00000KT 10/03 A3022 310 60 -100 000/00 RMK AO1 T01000028
54779K12N 12N20160430225010604/30/16 22:50:31  5-MIN K12N 010350Z AUTO 00000KT 10/04 A3022 310 65 -100 000/00 RMK AO1 SLP234 T01000039
54779K12N 12N20160430225509904/30/16 22:55:31  5-MIN K12N 010355Z AUTO 00000KT 10/03 A3022 310 63 -100 000/00 RMK AO1 T01000033
54779K12N 12N20160430230009904/30/16 23:00:31  5-MIN K12N 010400Z AUTO 00000KT 10/03 A3021 320 60 -100 000/00 RMK AO1 T01000028
54779K12N 12N20160430230509904/30/16 23:05:31  5-MIN K12N 010405Z AUTO 00000KT 10/03 A3021 320 60 -100 000/00 RMK AO1 T01000028
54779K12N 12N20160430231009904/30/16 23:10:31  5-MIN K12N 010410Z AUTO 00000KT 10/03 A3021 320 60 -100 000/00 RMK AO1 T01000028
54779K12N 12N20160430231509904/30/16 23:15:31  5-MIN K12N 010415Z AUTO 19003KT 10/01 A3021 320 54 -100 200/03 RMK AO1 T01000011
54779K12N 12N20160430232009904/30/16 23:20:31  5-MIN K12N 010420Z AUTO 00000KT 10/01 A3021 320 52 -100 000/00 RMK AO1 T01000006
54779K12N 12N20160430232509904/30/16 23:25:31  5-MIN K12N 010425Z AUTO 00000KT 10/01 A3021 320 54 -100 000/00 RMK AO1 T01000011
54779K12N 12N20160430233009904/30/16 23:30:31  5-MIN K12N 010430Z AUTO 15003KT 10/01 A3020 320 52 -100 160/03 RMK AO1 T01000006
54779K12N 12N20160430233509904/30/16 23:35:31  5-MIN K12N 010435Z AUTO 15003KT 10/01 A3020 320 54 -100 170/03 RMK AO1 T01000011
54779K12N 12N20160430234009904/30/16 23:40:31  5-MIN K12N 010440Z AUTO 00000KT 10/00 A3020 330 49 -100 000/00 RMK AO1 T01000000
54779K12N 12N20160430234509904/30/16 23:45:31  5-MIN K12N 010445Z AUTO 00000KT 10/00 A3020 330 49 -100 000/00 RMK AO1 T01000000
54779K12N 12N20160430235011604/30/16 23:50:31  5-MIN K12N 010450Z AUTO 16003KT 10/00 A3019 330 49 -100 170/03 RMK AO1 SLP226 T01000000 401500061
54779K12N 12N20160430235509904/30/16 23:55:31  5-MIN K12N 010455Z AUTO 14003KT 10/01 A3019 330 52 -100 150/03 RMK AO1 T01000006
