53915KARA ARA20161102171511211/02/16 17:15:31  5-MIN KARA 022315Z AUTO 17005KT 10SM FEW060 26/18 A3015 -180 64 1000 170/05 RMK AO2 T02560183
53915KARA ARA20161102172011211/02/16 17:20:31  5-MIN KARA 022320Z AUTO 17006KT 10SM FEW060 26/18 A3016 -190 64 1000 170/06 RMK AO2 T02560183
53915KARA ARA20161102172510711/02/16 17:25:31  5-MIN KARA 022325Z 17004KT 10SM FEW060 25/18 A3015 -180 66 1000 160/04 RMK AO2 T02500183
53915KARA ARA20161102173010611/02/16 17:30:31  5-MIN KARA 022330Z 16004KT 10SM FEW060 24/18 A3016 -190 66 900 160/04 RMK AO2 T02440178
53915KARA ARA20161102173510311/02/16 17:35:31  5-MIN KARA 022335Z 16004KT 10SM CLR 24/18 A3016 -190 66 900 160/04 RMK AO2 T02440178
53915KARA ARA20161102174010311/02/16 17:40:31  5-MIN KARA 022340Z 16004KT 10SM CLR 24/18 A3016 -190 68 900 160/04 RMK AO2 T02440183
53915KARA ARA20161102174510311/02/16 17:45:31  5-MIN KARA 022345Z 16005KT 10SM CLR 24/18 A3016 -190 71 800 160/05 RMK AO2 T02390183
53915KARA ARA20161102175012811/02/16 17:50:31  5-MIN KARA 022350Z 16004KT 10SM CLR 24/18 A3016 -190 71 800 160/04 RMK AO2 SLP213 T02390183 10294 20239 56012
53915KARA ARA20161102175510311/02/16 17:55:31  5-MIN KARA 022355Z 16004KT 10SM CLR 24/18 A3016 -190 68 800 160/04 RMK AO2 T02390178
53915KARA ARA20161102180010311/02/16 18:00:31  5-MIN KARA 030000Z 17004KT 10SM CLR 24/18 A3017 -200 68 800 170/04 RMK AO2 T02390178
53915KARA ARA20161102180510311/02/16 18:05:31  5-MIN KARA 030005Z 16004KT 10SM CLR 23/18 A3017 -200 73 800 160/04 RMK AO2 T02330183
53915KARA ARA20161102181010311/02/16 18:10:31  5-MIN KARA 030010Z 16004KT 10SM CLR 23/18 A3017 -200 73 700 160/04 RMK AO2 T02280178
53915KARA ARA20161102181510311/02/16 18:15:31  5-MIN KARA 030015Z 16004KT 10SM CLR 22/18 A3017 -200 78 600 160/04 RMK AO2 T02220183
53915KARA ARA20161102182010311/02/16 18:20:31  5-MIN KARA 030020Z 17004KT 10SM CLR 23/18 A3017 -200 76 700 170/04 RMK AO2 T02280183
53915KARA ARA20161102182510311/02/16 18:25:31  5-MIN KARA 030025Z 17004KT 10SM CLR 23/18 A3018 -200 76 700 170/04 RMK AO2 T02280183
53915KARA ARA20161102183010311/02/16 18:30:31  5-MIN KARA 030030Z 17004KT 10SM CLR 23/18 A3018 -200 76 700 160/04 RMK AO2 T02280183
53915KARA ARA20161102183510311/02/16 18:35:31  5-MIN KARA 030035Z 16004KT 10SM CLR 23/18 A3018 -200 76 700 160/04 RMK AO2 T02280183
53915KARA ARA20161102184010311/02/16 18:40:31  5-MIN KARA 030040Z 16004KT 10SM CLR 22/18 A3018 -210 78 600 160/04 RMK AO2 T02170178
53915KARA ARA20161102184510311/02/16 18:45:31  5-MIN KARA 030045Z 16004KT 10SM CLR 22/18 A3018 -210 75 600 160/04 RMK AO2 T02220178
53915KARA ARA20161102185011011/02/16 18:50:31  5-MIN KARA 030050Z 16004KT 10SM CLR 22/18 A3018 -210 75 600 160/04 RMK AO2 SLP218 T02220178
53915KARA ARA20161102185510311/02/16 18:55:31  5-MIN KARA 030055Z 16004KT 10SM CLR 22/18 A3018 -210 78 600 160/04 RMK AO2 T02170178
53915KARA ARA20161102190010311/02/16 19:00:31  5-MIN KARA 030100Z 16004KT 10SM CLR 22/18 A3018 -210 81 600 160/04 RMK AO2 T02170183
53915KARA ARA20161102190510311/02/16 19:05:31  5-MIN KARA 030105Z 16004KT 10SM CLR 22/18 A3018 -210 81 600 160/04 RMK AO2 T02170183
53915KARA ARA20161102191010311/02/16 19:10:31  5-MIN KARA 030110Z 15003KT 10SM CLR 22/18 A3018 -210 78 600 150/03 RMK AO2 T02170178
53915KARA ARA20161102191510311/02/16 19:15:31  5-MIN KARA 030115Z 15003KT 10SM CLR 22/18 A3018 -210 78 600 140/03 RMK AO2 T02170178
53915KARA ARA20161102192010311/02/16 19:20:31  5-MIN KARA 030120Z 00000KT 10SM CLR 22/18 A3018 -210 78 600 000/00 RMK AO2 T02170178
53915KARA ARA20161102192510311/02/16 19:25:31  5-MIN KARA 030125Z 12003KT 10SM CLR 22/18 A3018 -210 78 600 120/03 RMK AO2 T02170178
53915KARA ARA20161102193010311/02/16 19:30:31  5-MIN KARA 030130Z 12003KT 10SM CLR 21/17 A3018 -210 78 500 120/03 RMK AO2 T02110172
53915KARA ARA20161102193510311/02/16 19:35:31  5-MIN KARA 030135Z 12004KT 10SM CLR 21/17 A3018 -210 78 500 120/04 RMK AO2 T02110172
53915KARA ARA20161102194010311/02/16 19:40:31  5-MIN KARA 030140Z 13004KT 10SM CLR 21/17 A3018 -210 81 400 130/04 RMK AO2 T02060172
53915KARA ARA20161102194510311/02/16 19:45:31  5-MIN KARA 030145Z 14003KT 10SM CLR 21/17 A3018 -210 81 400 140/03 RMK AO2 T02060172
53915KARA ARA20161102195011011/02/16 19:50:31  5-MIN KARA 030150Z 00000KT 10SM CLR 21/17 A3018 -210 81 400 000/00 RMK AO2 SLP219 T02060172
53915KARA ARA20161102195510311/02/16 19:55:31  5-MIN KARA 030155Z 15003KT 10SM CLR 21/17 A3018 -210 81 400 150/03 RMK AO2 T02060172
53915KARA ARA20161102200010311/02/16 20:00:31  5-MIN KARA 030200Z 15003KT 10SM CLR 21/17 A3018 -210 78 500 150/03 RMK AO2 T02110172
53915KARA ARA20161102200510311/02/16 20:05:31  5-MIN KARA 030205Z 16003KT 10SM CLR 21/17 A3018 -210 78 500 160/03 RMK AO2 T02110172
53915KARA ARA20161102201010311/02/16 20:10:31  5-MIN KARA 030210Z 00000KT 10SM CLR 21/17 A3018 -210 81 400 000/00 RMK AO2 T02060172
53915KARA ARA20161102201510311/02/16 20:15:31  5-MIN KARA 030215Z 00000KT 10SM CLR 21/17 A3018 -210 81 400 000/00 RMK AO2 T02060172
53915KARA ARA20161102202010311/02/16 20:20:31  5-MIN KARA 030220Z 00000KT 10SM CLR 21/17 A3018 -210 81 400 000/00 RMK AO2 T02060172
53915KARA ARA20161102202510311/02/16 20:25:31  5-MIN KARA 030225Z 13003KT 10SM CLR 21/17 A3018 -210 81 400 130/03 RMK AO2 T02060172
53915KARA ARA20161102203010311/02/16 20:30:31  5-MIN KARA 030230Z 14003KT 10SM CLR 21/17 A3018 -210 81 400 140/03 RMK AO2 T02060172
53915KARA ARA20161102203510311/02/16 20:35:31  5-MIN KARA 030235Z 14004KT 10SM CLR 21/17 A3019 -210 81 400 140/04 RMK AO2 T02060172
53915KARA ARA20161102204010311/02/16 20:40:31  5-MIN KARA 030240Z 14004KT 10SM CLR 20/17 A3019 -220 81 400 140/04 RMK AO2 T02000167
53915KARA ARA20161102204510311/02/16 20:45:31  5-MIN KARA 030245Z 14004KT 10SM CLR 21/17 A3019 -220 75 500 140/04 RMK AO2 T02110167
53915KARA ARA20161102205011611/02/16 20:50:31  5-MIN KARA 030250Z 14003KT 10SM CLR 21/17 A3019 -220 78 400 140/03 RMK AO2 SLP222 T02060167 53009
53915KARA ARA20161102205510311/02/16 20:55:31  5-MIN KARA 030255Z 13003KT 10SM CLR 21/17 A3019 -220 78 400 130/03 RMK AO2 T02060167
53915KARA ARA20161102210010311/02/16 21:00:31  5-MIN KARA 030300Z 13003KT 10SM CLR 20/17 A3019 -220 81 400 130/03 RMK AO2 T02000167
53915KARA ARA20161102210510311/02/16 21:05:31  5-MIN KARA 030305Z 12003KT 10SM CLR 20/17 A3019 -220 81 400 120/03 RMK AO2 T02000167
53915KARA ARA20161102211010311/02/16 21:10:31  5-MIN KARA 030310Z 12005KT 10SM CLR 19/17 A3019 -210 84 300 120/05 RMK AO2 T01940167
53915KARA ARA20161102211510311/02/16 21:15:31  5-MIN KARA 030315Z 12005KT 10SM CLR 19/17 A3019 -220 84 300 120/05 RMK AO2 T01940167
53915KARA ARA20161102212010311/02/16 21:20:31  5-MIN KARA 030320Z 11004KT 10SM CLR 19/17 A3019 -220 84 300 110/04 RMK AO2 T01940167
53915KARA ARA20161102212510311/02/16 21:25:31  5-MIN KARA 030325Z 11004KT 10SM CLR 20/17 A3019 -220 81 400 110/04 RMK AO2 T02000167
53915KARA ARA20161102213010311/02/16 21:30:31  5-MIN KARA 030330Z 11003KT 10SM CLR 19/17 A3019 -220 84 300 100/03 RMK AO2 T01940167
53915KARA ARA20161102213510311/02/16 21:35:31  5-MIN KARA 030335Z 11003KT 10SM CLR 19/17 A3019 -220 84 300 100/03 RMK AO2 T01940167
53915KARA ARA20161102214010311/02/16 21:40:31  5-MIN KARA 030340Z 08003KT 10SM CLR 20/17 A3019 -220 81 300 080/03 RMK AO2 T02000167
53915KARA ARA20161102214510311/02/16 21:45:31  5-MIN KARA 030345Z 08003KT 10SM CLR 19/17 A3020 -220 84 300 080/03 RMK AO2 T01940167
53915KARA ARA20161102215011011/02/16 21:50:31  5-MIN KARA 030350Z 08004KT 10SM CLR 19/17 A3020 -220 84 300 080/04 RMK AO2 SLP225 T01940167
53915KARA ARA20161102215510311/02/16 21:55:31  5-MIN KARA 030355Z 08004KT 10SM CLR 20/17 A3020 -220 81 300 080/04 RMK AO2 T02000167
53915KARA ARA20161102220010311/02/16 22:00:31  5-MIN KARA 030400Z 08004KT 10SM CLR 20/17 A3020 -220 81 300 080/04 RMK AO2 T02000167
53915KARA ARA20161102220510311/02/16 22:05:31  5-MIN KARA 030405Z 08004KT 10SM CLR 20/17 A3020 -220 84 300 080/04 RMK AO2 T02000172
53915KARA ARA20161102221010311/02/16 22:10:31  5-MIN KARA 030410Z 07003KT 10SM CLR 19/17 A3020 -220 84 300 070/03 RMK AO2 T01940167
53915KARA ARA20161102221510311/02/16 22:15:31  5-MIN KARA 030415Z 08003KT 10SM CLR 19/17 A3020 -220 84 300 080/03 RMK AO2 T01940167
53915KARA ARA20161102222010311/02/16 22:20:31  5-MIN KARA 030420Z 08003KT 10SM CLR 19/17 A3019 -220 84 300 080/03 RMK AO2 T01940167
53915KARA ARA20161102222510311/02/16 22:25:31  5-MIN KARA 030425Z 09003KT 10SM CLR 19/17 A3019 -220 84 300 090/03 RMK AO2 T01940167
53915KARA ARA20161102223010311/02/16 22:30:31  5-MIN KARA 030430Z 08003KT 10SM CLR 19/17 A3019 -220 84 300 080/03 RMK AO2 T01940167
53915KARA ARA20161102223510311/02/16 22:35:31  5-MIN KARA 030435Z 08003KT 10SM CLR 19/17 A3019 -220 87 200 080/03 RMK AO2 T01890167
53915KARA ARA20161102224010311/02/16 22:40:31  5-MIN KARA 030440Z 00000KT 10SM CLR 18/16 A3019 -220 87 200 000/00 RMK AO2 T01830161
53915KARA ARA20161102224510311/02/16 22:45:31  5-MIN KARA 030445Z 00000KT 10SM CLR 19/17 A3019 -220 87 200 000/00 RMK AO2 T01890167
53915KARA ARA20161102225011011/02/16 22:50:31  5-MIN KARA 030450Z 11003KT 10SM CLR 19/17 A3019 -220 87 200 110/03 RMK AO2 SLP223 T01890167
53915KARA ARA20161102225510311/02/16 22:55:31  5-MIN KARA 030455Z 10004KT 10SM CLR 19/17 A3019 -210 87 200 100/04 RMK AO2 T01890167
53915KARA ARA20161102230010311/02/16 23:00:31  5-MIN KARA 030500Z 10004KT 10SM CLR 18/17 A3019 -210 90 200 100/04 RMK AO2 T01830167
53915KARA ARA20161102230510311/02/16 23:05:31  5-MIN KARA 030505Z 10004KT 10SM CLR 18/17 A3019 -210 90 200 100/04 RMK AO2 T01830167
53915KARA ARA20161102231010311/02/16 23:10:31  5-MIN KARA 030510Z 10005KT 10SM CLR 18/17 A3019 -210 90 200 100/05 RMK AO2 T01830167
53915KARA ARA20161102231510311/02/16 23:15:31  5-MIN KARA 030515Z 11005KT 10SM CLR 19/17 A3019 -210 87 200 110/05 RMK AO2 T01890167
53915KARA ARA20161102232010311/02/16 23:20:31  5-MIN KARA 030520Z 11004KT 10SM CLR 18/16 A3019 -210 87 200 110/04 RMK AO2 T01830161
53915KARA ARA20161102232510311/02/16 23:25:31  5-MIN KARA 030525Z 11004KT 10SM CLR 18/16 A3018 -210 90 100 110/04 RMK AO2 T01780161
53915KARA ARA20161102233010311/02/16 23:30:31  5-MIN KARA 030530Z 11004KT 10SM CLR 18/17 A3019 -210 90 200 110/04 RMK AO2 T01830167
53915KARA ARA20161102233510311/02/16 23:35:31  5-MIN KARA 030535Z 11004KT 10SM CLR 18/17 A3018 -210 90 200 110/04 RMK AO2 T01830167
53915KARA ARA20161102234010311/02/16 23:40:31  5-MIN KARA 030540Z 11005KT 10SM CLR 19/17 A3018 -210 87 200 110/05 RMK AO2 T01890167
53915KARA ARA20161102234510311/02/16 23:45:31  5-MIN KARA 030545Z 11005KT 10SM CLR 19/18 A3018 -210 90 300 110/05 RMK AO2 T01940178
53915KARA ARA20161102235013811/02/16 23:50:31  5-MIN KARA 030550Z 11005KT 10SM CLR 20/18 A3018 -210 87 400 110/05 RMK AO2 SLP220 T02000178 10239 20178 402940178 51009
53915KARA ARA20161102235510311/02/16 23:55:31  5-MIN KARA 030555Z 10005KT 10SM CLR 20/18 A3018 -210 87 400 100/05 RMK AO2 T02000178
53915KARA ARA20161103000010311/03/16 00:00:31  5-MIN KARA 030600Z 10005KT 10SM CLR 20/18 A3018 -210 87 400 100/05 RMK AO2 T02000178
53915KARA ARA20161103000510311/03/16 00:05:31  5-MIN KARA 030605Z 11006KT 10SM CLR 20/18 A3018 -210 87 400 100/06 RMK AO2 T02000178
53915KARA ARA20161103001010311/03/16 00:10:31  5-MIN KARA 030610Z 11005KT 10SM CLR 20/18 A3019 -210 87 400 110/05 RMK AO2 T02000178
53915KARA ARA20161103001510311/03/16 00:15:31  5-MIN KARA 030615Z 11004KT 10SM CLR 20/18 A3019 -220 87 400 110/04 RMK AO2 T02000178
53915KARA ARA20161103002010311/03/16 00:20:31  5-MIN KARA 030620Z 11004KT 10SM CLR 20/18 A3019 -220 87 400 110/04 RMK AO2 T02000178
53915KARA ARA20161103002510311/03/16 00:25:31  5-MIN KARA 030625Z 11003KT 10SM CLR 20/18 A3019 -210 87 400 110/03 RMK AO2 T02000178
53915KARA ARA20161103003010311/03/16 00:30:31  5-MIN KARA 030630Z 10003KT 10SM CLR 20/18 A3018 -210 87 400 100/03 RMK AO2 T02000178
53915KARA ARA20161103003510311/03/16 00:35:31  5-MIN KARA 030635Z 10004KT 10SM CLR 20/18 A3018 -210 87 400 100/04 RMK AO2 T02000178
53915KARA ARA20161103004010311/03/16 00:40:31  5-MIN KARA 030640Z 10004KT 10SM CLR 20/18 A3018 -210 87 400 100/04 RMK AO2 T02000178
53915KARA ARA20161103004510311/03/16 00:45:31  5-MIN KARA 030645Z 08004KT 10SM CLR 20/18 A3018 -210 87 400 080/04 RMK AO2 T02000178
53915KARA ARA20161103005011011/03/16 00:50:31  5-MIN KARA 030650Z 08004KT 10SM CLR 20/18 A3018 -210 87 400 080/04 RMK AO2 SLP219 T02000178
53915KARA ARA20161103005510311/03/16 00:55:31  5-MIN KARA 030655Z 08004KT 10SM CLR 20/18 A3018 -210 87 400 080/04 RMK AO2 T02000178
53915KARA ARA20161103010010311/03/16 01:00:31  5-MIN KARA 030700Z 08004KT 10SM CLR 20/18 A3018 -210 87 400 080/04 RMK AO2 T02000178
53915KARA ARA20161103010510311/03/16 01:05:31  5-MIN KARA 030705Z 05004KT 10SM CLR 20/18 A3018 -210 87 400 050/04 RMK AO2 T02000178
53915KARA ARA20161103011010311/03/16 01:10:31  5-MIN KARA 030710Z 06004KT 10SM CLR 20/18 A3018 -210 87 400 050/04 RMK AO2 T02000178
53915KARA ARA20161103011510311/03/16 01:15:31  5-MIN KARA 030715Z 05004KT 10SM CLR 20/18 A3018 -210 87 400 050/04 RMK AO2 T02000178
53915KARA ARA20161103012010311/03/16 01:20:31  5-MIN KARA 030720Z 07003KT 10SM CLR 20/18 A3018 -200 87 400 060/03 RMK AO2 T02000178
53915KARA ARA20161103012510311/03/16 01:25:31  5-MIN KARA 030725Z 07004KT 10SM CLR 19/18 A3017 -200 90 300 070/04 RMK AO2 T01940178
53915KARA ARA20161103013010311/03/16 01:30:31  5-MIN KARA 030730Z 08003KT 10SM CLR 19/18 A3017 -200 90 300 080/03 RMK AO2 T01940178
53915KARA ARA20161103013510311/03/16 01:35:31  5-MIN KARA 030735Z 00000KT 10SM CLR 19/18 A3017 -200 93 200 000/00 RMK AO2 T01890178
53915KARA ARA20161103014010211/03/16 01:40:31  5-MIN KARA 030740Z 00000KT 9SM CLR 19/17 A3018 -200 90 200 000/00 RMK AO2 T01890172
53915KARA ARA20161103014510211/03/16 01:45:31  5-MIN KARA 030745Z 00000KT 7SM CLR 19/17 A3018 -210 90 200 000/00 RMK AO2 T01890172
53915KARA ARA20161103015011211/03/16 01:50:31  5-MIN KARA 030750Z 00000KT 6SM BR CLR 19/18 A3018 -210 93 200 000/00 RMK AO2 SLP218 T01890178
53915KARA ARA20161103015510511/03/16 01:55:31  5-MIN KARA 030755Z 00000KT 6SM BR CLR 19/17 A3018 -210 90 200 000/00 RMK AO2 T01890172
53915KARA ARA20161103020010211/03/16 02:00:31  5-MIN KARA 030800Z 00000KT 7SM CLR 19/17 A3018 -210 90 200 000/00 RMK AO2 T01890172
53915KARA ARA20161103020510211/03/16 02:05:31  5-MIN KARA 030805Z 00000KT 7SM CLR 19/18 A3018 -210 90 300 000/00 RMK AO2 T01940178
53915KARA ARA20161103021010211/03/16 02:10:31  5-MIN KARA 030810Z 00000KT 8SM CLR 19/18 A3018 -210 90 300 000/00 RMK AO2 T01940178
53915KARA ARA20161103021510211/03/16 02:15:31  5-MIN KARA 030815Z 03004KT 9SM CLR 19/17 A3018 -210 90 200 030/04 RMK AO2 T01890172
53915KARA ARA20161103022010311/03/16 02:20:31  5-MIN KARA 030820Z 05004KT 10SM CLR 19/18 A3018 -210 93 200 050/04 RMK AO2 T01890178
53915KARA ARA20161103022510311/03/16 02:25:31  5-MIN KARA 030825Z 06004KT 10SM CLR 19/17 A3018 -210 90 200 060/04 RMK AO2 T01890172
53915KARA ARA20161103023010311/03/16 02:30:31  5-MIN KARA 030830Z 07004KT 10SM CLR 19/18 A3018 -210 93 200 070/04 RMK AO2 T01890178
53915KARA ARA20161103023510311/03/16 02:35:31  5-MIN KARA 030835Z 08005KT 10SM CLR 19/18 A3017 -200 90 300 080/05 RMK AO2 T01940178
53915KARA ARA20161103024010311/03/16 02:40:31  5-MIN KARA 030840Z 08004KT 10SM CLR 19/18 A3017 -200 90 300 080/04 RMK AO2 T01940178
53915KARA ARA20161103024510311/03/16 02:45:31  5-MIN KARA 030845Z 08004KT 10SM CLR 19/18 A3017 -200 93 200 080/04 RMK AO2 T01890178
53915KARA ARA20161103025011511/03/16 02:50:31  5-MIN KARA 030850Z 08005KT 9SM CLR 19/18 A3017 -200 93 200 080/05 RMK AO2 SLP215 T01890178 58003
53915KARA ARA20161103025510211/03/16 02:55:31  5-MIN KARA 030855Z 08004KT 9SM CLR 19/18 A3017 -200 93 200 080/04 RMK AO2 T01890178
53915KARA ARA20161103030010211/03/16 03:00:31  5-MIN KARA 030900Z 09004KT 9SM CLR 19/17 A3017 -200 90 200 090/04 RMK AO2 T01890172
53915KARA ARA20161103030510211/03/16 03:05:31  5-MIN KARA 030905Z 09004KT 9SM CLR 18/17 A3017 -200 93 200 090/04 RMK AO2 T01830172
53915KARA ARA20161103031010211/03/16 03:10:31  5-MIN KARA 030910Z 10004KT 8SM CLR 18/17 A3017 -200 90 200 100/04 RMK AO2 T01830167
53915KARA ARA20161103031510211/03/16 03:15:31  5-MIN KARA 030915Z 10005KT 8SM CLR 18/17 A3017 -200 90 200 100/05 RMK AO2 T01830167
53915KARA ARA20161103032010211/03/16 03:20:31  5-MIN KARA 030920Z 09005KT 8SM CLR 18/17 A3017 -200 93 200 090/05 RMK AO2 T01830172
53915KARA ARA20161103032510211/03/16 03:25:31  5-MIN KARA 030925Z 09004KT 8SM CLR 18/17 A3017 -200 93 200 090/04 RMK AO2 T01830172
53915KARA ARA20161103033010211/03/16 03:30:31  5-MIN KARA 030930Z 09004KT 8SM CLR 18/17 A3017 -200 93 200 090/04 RMK AO2 T01830172
53915KARA ARA20161103033510211/03/16 03:35:31  5-MIN KARA 030935Z 09004KT 8SM CLR 18/17 A3017 -200 93 200 080/04 RMK AO2 T01830172
53915KARA ARA20161103034010211/03/16 03:40:31  5-MIN KARA 030940Z 09004KT 8SM CLR 18/17 A3017 -200 93 200 090/04 RMK AO2 T01830172
53915KARA ARA20161103034510211/03/16 03:45:31  5-MIN KARA 030945Z 09004KT 8SM CLR 18/17 A3017 -200 90 200 090/04 RMK AO2 T01830167
53915KARA ARA20161103035010911/03/16 03:50:31  5-MIN KARA 030950Z 08003KT 7SM CLR 18/17 A3017 -200 90 200 080/03 RMK AO2 SLP216 T01830167
53915KARA ARA20161103035510211/03/16 03:55:31  5-MIN KARA 030955Z 08003KT 8SM CLR 18/17 A3017 -200 93 200 080/03 RMK AO2 T01830172
53915KARA ARA20161103040010211/03/16 04:00:31  5-MIN KARA 031000Z 06003KT 9SM CLR 18/17 A3017 -200 93 200 060/03 RMK AO2 T01830172
53915KARA ARA20161103040510311/03/16 04:05:31  5-MIN KARA 031005Z 07004KT 10SM CLR 19/17 A3017 -200 90 200 070/04 RMK AO2 T01890172
53915KARA ARA20161103041010311/03/16 04:10:31  5-MIN KARA 031010Z 07005KT 10SM CLR 19/18 A3017 -200 90 300 070/05 RMK AO2 T01940178
53915KARA ARA20161103041510311/03/16 04:15:31  5-MIN KARA 031015Z 07005KT 10SM CLR 19/18 A3017 -200 90 300 060/05 RMK AO2 T01940178
53915KARA ARA20161103042010311/03/16 04:20:31  5-MIN KARA 031020Z 06006KT 10SM CLR 19/18 A3017 -200 90 300 060/06 RMK AO2 T01940178
53915KARA ARA20161103042510311/03/16 04:25:31  5-MIN KARA 031025Z 06006KT 10SM CLR 19/18 A3018 -200 90 300 050/06 RMK AO2 T01940178
53915KARA ARA20161103043010311/03/16 04:30:31  5-MIN KARA 031030Z 06006KT 10SM CLR 19/18 A3018 -200 93 300 060/06 RMK AO2 T01940183
53915KARA ARA20161103043510311/03/16 04:35:31  5-MIN KARA 031035Z 07005KT 10SM CLR 19/18 A3018 -210 90 300 070/05 RMK AO2 T01940178
53915KARA ARA20161103044010311/03/16 04:40:31  5-MIN KARA 031040Z 07006KT 10SM CLR 19/18 A3018 -210 90 300 070/06 RMK AO2 T01940178
53915KARA ARA20161103044510311/03/16 04:45:31  5-MIN KARA 031045Z 07005KT 10SM CLR 19/18 A3018 -210 90 300 070/05 RMK AO2 T01940178
53915KARA ARA20161103045011011/03/16 04:50:31  5-MIN KARA 031050Z 06004KT 10SM CLR 19/18 A3019 -210 90 300 060/04 RMK AO2 SLP221 T01940178
53915KARA ARA20161103045510311/03/16 04:55:31  5-MIN KARA 031055Z 07004KT 10SM CLR 19/18 A3018 -210 90 300 070/04 RMK AO2 T01940178
53915KARA ARA20161103050010311/03/16 05:00:31  5-MIN KARA 031100Z 07004KT 10SM CLR 19/18 A3019 -210 90 300 070/04 RMK AO2 T01940178
53915KARA ARA20161103050510311/03/16 05:05:31  5-MIN KARA 031105Z 07005KT 10SM CLR 19/18 A3019 -210 90 300 070/05 RMK AO2 T01940178
53915KARA ARA20161103051010311/03/16 05:10:31  5-MIN KARA 031110Z 07005KT 10SM CLR 19/18 A3019 -220 90 300 070/05 RMK AO2 T01940178
53915KARA ARA20161104021510511/04/16 02:15:31  5-MIN KARA 040815Z AUTO 00000KT 9SM CLR 17/15 A3018 -210 90 0 000/00 RMK AO2 T01670150
53915KARA ARA20161104022010611/04/16 02:20:31  5-MIN KARA 040820Z AUTO 00000KT 10SM CLR 17/16 A3018 -210 93 0 000/00 RMK AO2 T01670156
53915KARA ARA20161104022510611/04/16 02:25:31  5-MIN KARA 040825Z AUTO 00000KT 10SM CLR 17/15 A3018 -210 90 0 000/00 RMK AO2 T01670150
53915KARA ARA20161104023010611/04/16 02:30:31  5-MIN KARA 040830Z AUTO 26003KT 10SM CLR 17/16 A3018 -210 90 0 260/03 RMK AO2 T01720156
53915KARA ARA20161104023510611/04/16 02:35:31  5-MIN KARA 040835Z AUTO 26003KT 10SM CLR 17/16 A3018 -200 93 0 260/03 RMK AO2 T01720161
53915KARA ARA20161104024010611/04/16 02:40:31  5-MIN KARA 040840Z AUTO 00000KT 10SM CLR 17/16 A3017 -200 90 0 000/00 RMK AO2 T01720156
53915KARA ARA20161104024510611/04/16 02:45:31  5-MIN KARA 040845Z AUTO 00000KT 10SM CLR 17/16 A3017 -200 93 0 000/00 RMK AO2 T01670156
53915KARA ARA20161104025011911/04/16 02:50:31  5-MIN KARA 040850Z AUTO 00000KT 10SM CLR 16/14 A3017 -200 90 0 000/00 RMK AO2 SLP216 T01610144 58002
53915KARA ARA20161104025510511/04/16 02:55:31  5-MIN KARA 040855Z AUTO 00000KT 9SM CLR 17/15 A3017 -200 90 0 000/00 RMK AO2 T01670150
53915KARA ARA20161104030010511/04/16 03:00:31  5-MIN KARA 040900Z AUTO 00000KT 9SM CLR 16/15 A3017 -200 93 0 000/00 RMK AO2 T01610150
53915KARA ARA20161104030510611/04/16 03:05:31  5-MIN KARA 040905Z AUTO 00000KT 10SM CLR 17/15 A3017 -200 90 0 000/00 RMK AO2 T01670150
53915KARA ARA20161104031010611/04/16 03:10:31  5-MIN KARA 040910Z AUTO 00000KT 10SM CLR 17/15 A3017 -200 90 0 000/00 RMK AO2 T01670150
53915KARA ARA20161104031510711/04/16 03:15:31  5-MIN KARA 040915Z AUTO 00000KT 9SM CLR 17/16 A3017 -200 90 100 000/00 RMK AO2 T01720156
53915KARA ARA20161104032010811/04/16 03:20:31  5-MIN KARA 040920Z AUTO 00000KT 4SM BR CLR 17/16 A3017 -200 90 0 000/00 RMK AO2 T01720156
53915KARA ARA20161104032512411/04/16 03:25:31  5-MIN KARA 040925Z AUTO 00000KT 2 1/2SM BR CLR 17/16 A3017 -200 93 0 000/00 RMK AO2 VIS 1 1/2V5 T01720161
53915KARA ARA20161104033011111/04/16 03:30:31  5-MIN KARA 040930Z AUTO 16003KT 3SM BR CLR 16/14 A3017 -200 93 -100 160/03 RMK AO2 T01560144
53915KARA ARA20161104033510811/04/16 03:35:31  5-MIN KARA 040935Z AUTO 00000KT 6SM BR CLR 16/14 A3017 -200 90 0 000/00 RMK AO2 T01610144
53915KARA ARA20161104034010511/04/16 03:40:31  5-MIN KARA 040940Z AUTO 00000KT 9SM CLR 16/14 A3017 -200 90 0 000/00 RMK AO2 T01610144
53915KARA ARA20161104034510611/04/16 03:45:31  5-MIN KARA 040945Z AUTO 00000KT 10SM CLR 16/14 A3017 -200 90 0 000/00 RMK AO2 T01610144
53915KARA ARA20161104035011211/04/16 03:50:31  5-MIN KARA 040950Z AUTO 00000KT 8SM CLR 17/14 A3017 -200 86 0 000/00 RMK AO2 SLP217 T01670144
53915KARA ARA20161104035510511/04/16 03:55:31  5-MIN KARA 040955Z AUTO 00000KT 7SM CLR 17/15 A3017 -200 90 0 000/00 RMK AO2 T01670150
53915KARA ARA20161104040010811/04/16 04:00:31  5-MIN KARA 041000Z AUTO 00000KT 5SM BR CLR 17/14 A3017 -200 86 0 000/00 RMK AO2 T01670144
53915KARA ARA20161104040511011/04/16 04:05:31  5-MIN KARA 041005Z AUTO 00000KT 3/4SM BR CLR 17/15 A3018 -200 90 0 000/00 RMK AO2 T01670150
53915KARA ARA20161104041011011/04/16 04:10:31  5-MIN KARA 041010Z AUTO 00000KT 3/4SM BR CLR 17/15 A3018 -200 90 0 000/00 RMK AO2 T01670150
53915KARA ARA20161104041511211/04/16 04:15:31  5-MIN KARA 041015Z AUTO 00000KT 2 1/2SM BR CLR 17/15 A3018 -200 90 0 000/00 RMK AO2 T01670150
53915KARA ARA20161104042011111/04/16 04:20:31  5-MIN KARA 041020Z AUTO 00000KT 3SM BR CLR 16/14 A3017 -200 93 -100 000/00 RMK AO2 T01560144
53915KARA ARA20161104042512211/04/16 04:25:31  5-MIN KARA 041025Z AUTO 00000KT 1 1/4SM BR CLR 16/14 A3018 -210 90 0 000/00 RMK AO2 VIS 3/4V5 T01610144
53915KARA ARA20161104043010811/04/16 04:30:31  5-MIN KARA 041030Z AUTO 00000KT 1SM BR CLR 16/14 A3018 -210 90 0 000/00 RMK AO2 T01610144
53915KARA ARA20161104043510311/04/16 04:35:31  5-MIN KARA 041035Z 00000KT 1SM BR CLR 16/15 A3018 -210 93 0 000/00 RMK AO2 T01610150
53915KARA ARA20161104044010711/04/16 04:40:31  5-MIN KARA 041040Z 00000KT 1 1/2SM BR CLR 16/14 A3018 -210 90 0 000/00 RMK AO2 T01610144
53915KARA ARA20161104044510311/04/16 04:45:31  5-MIN KARA 041045Z 00000KT 6SM BR CLR 16/14 A3018 -210 90 0 000/00 RMK AO2 T01610144
53915KARA ARA20161104045009711/04/16 04:50:31  5-MIN KARA 041050Z 00000KT 2 1/2SM BR CLR 16/14 A3018 -210 90 0 000/00 RMK AO2
53915KARA ARA20161104045510711/04/16 04:55:31  5-MIN KARA 041055Z 00000KT 1 3/4SM BR CLR 17/16 A3018 -210 90 0 000/00 RMK AO2 T01720156
53915KARA ARA20161104050010311/04/16 05:00:31  5-MIN KARA 041100Z 00000KT 3SM BR CLR 17/16 A3018 -210 93 0 000/00 RMK AO2 T01670156
53915KARA ARA20161104050510011/04/16 05:05:31  5-MIN KARA 041105Z 00000KT 7SM CLR 17/16 A3018 -210 90 0 000/00 RMK AO2 T01720156
53915KARA ARA20161104051010111/04/16 05:10:31  5-MIN KARA 041110Z 00000KT 10SM CLR 17/16 A3018 -210 90 0 000/00 RMK AO2 T01720156
53915KARA ARA20161104051510111/04/16 05:15:31  5-MIN KARA 041115Z 00000KT 10SM CLR 17/16 A3018 -210 90 0 000/00 RMK AO2 T01720156
53915KARA ARA20161104052010011/04/16 05:20:31  5-MIN KARA 041120Z 00000KT 9SM CLR 17/16 A3018 -210 90 0 000/00 RMK AO2 T01720156
53915KARA ARA20161104052510011/04/16 05:25:31  5-MIN KARA 041125Z 00000KT 9SM CLR 17/15 A3018 -210 90 0 000/00 RMK AO2 T01670150
53915KARA ARA20161104053010111/04/16 05:30:31  5-MIN KARA 041130Z 00000KT 10SM CLR 17/16 A3019 -210 93 0 000/00 RMK AO2 T01670156
53915KARA ARA20161104053510111/04/16 05:35:31  5-MIN KARA 041135Z 00000KT 10SM CLR 17/15 A3019 -210 90 0 000/00 RMK AO2 T01670150
53915KARA ARA20161104054010111/04/16 05:40:31  5-MIN KARA 041140Z 00000KT 10SM CLR 17/16 A3019 -220 90 0 000/00 RMK AO2 T01720156
53915KARA ARA20161104054510111/04/16 05:45:31  5-MIN KARA 041145Z 00000KT 10SM CLR 17/16 A3019 -220 90 0 000/00 RMK AO2 T01720156
53915KARA ARA20161104055012611/04/16 05:50:31  5-MIN KARA 041150Z 00000KT 10SM CLR 17/16 A3019 -220 90 0 000/00 RMK AO2 SLP222 T01720156 10183 20156 58003
53915KARA ARA20161104055510111/04/16 05:55:31  5-MIN KARA 041155Z 00000KT 10SM CLR 17/16 A3019 -220 90 0 000/00 RMK AO2 T01720156
53915KARA ARA20161104060010111/04/16 06:00:31  5-MIN KARA 041200Z 00000KT 10SM CLR 17/16 A3019 -220 90 0 000/00 RMK AO2 T01720156
53915KARA ARA20161104060510011/04/16 06:05:31  5-MIN KARA 041205Z 00000KT 9SM CLR 17/16 A3019 -220 90 0 000/00 RMK AO2 T01720156
53915KARA ARA20161104061010011/04/16 06:10:31  5-MIN KARA 041210Z 32003KT 9SM CLR 17/16 A3020 -220 93 0 310/03 RMK AO2 T01720161
53915KARA ARA20161104061510011/04/16 06:15:31  5-MIN KARA 041215Z 32003KT 9SM CLR 17/16 A3020 -230 90 0 320/03 RMK AO2 T01720156
53915KARA ARA20161104062010111/04/16 06:20:31  5-MIN KARA 041220Z 00000KT 10SM CLR 17/15 A3020 -230 90 0 000/00 RMK AO2 T01670150
53915KARA ARA20161104062510411/04/16 06:25:31  5-MIN KARA 041225Z 00000KT 10SM CLR 16/15 A3020 -230 93 -100 000/00 RMK AO2 T01610150
53915KARA ARA20161104063010011/04/16 06:30:31  5-MIN KARA 041230Z 00000KT 8SM CLR 17/16 A3020 -230 90 0 000/00 RMK AO2 T01720156
53915KARA ARA20161104063510311/04/16 06:35:31  5-MIN KARA 041235Z 00000KT 6SM BR CLR 17/16 A3020 -230 93 0 000/00 RMK AO2 T01670156
53915KARA ARA20161104064010311/04/16 06:40:31  5-MIN KARA 041240Z 00000KT 4SM BR CLR 17/15 A3021 -230 90 0 000/00 RMK AO2 T01670150
53915KARA ARA20161104064511511/04/16 06:45:31  5-MIN KARA 041245Z 00000KT 1 3/4SM BR CLR 17/16 A3021 -240 90 0 000/00 RMK AO2 VIS 1V5 T01720156
53915KARA ARA20161104065012211/04/16 06:50:31  5-MIN KARA 041250Z 00000KT 1 3/4SM BR CLR 17/16 A3021 -240 90 0 000/00 RMK AO2 VIS 1V5 SLP229 T01720156
53915KARA ARA20161104065510311/04/16 06:55:31  5-MIN KARA 041255Z 00000KT 3SM BR CLR 17/16 A3021 -240 93 0 000/00 RMK AO2 T01720161
53915KARA ARA20161104070010211/04/16 07:00:31  5-MIN KARA 041300Z 00000KT 8SM CLR 18/16 A3021 -240 90 100 000/00 RMK AO2 T01780161
53915KARA ARA20161104070511811/04/16 07:05:31  5-MIN KARA 041305Z 00000KT 9SM -RA CLR 18/16 A3021 -240 87 100 000/00 RMK AO2 RAB04 P0000 T01830161
53915KARA ARA20161104071011911/04/16 07:10:31  5-MIN KARA 041310Z 00000KT 10SM -RA CLR 18/17 A3022 -240 90 100 000/00 RMK AO2 RAB04 P0000 T01830167
53915KARA ARA20161104071511911/04/16 07:15:31  5-MIN KARA 041315Z 00000KT 10SM -RA CLR 19/17 A3022 -240 87 200 000/00 RMK AO2 RAB04 P0000 T01890167
53915KARA ARA20161104072011911/04/16 07:20:31  5-MIN KARA 041320Z 36003KT 10SM -RA CLR 19/17 A3022 -250 90 200 360/03 RMK AO2 RAB04 P0000 T01890172
53915KARA ARA20161104072511911/04/16 07:25:31  5-MIN KARA 041325Z 35003KT 10SM -RA CLR 19/17 A3022 -250 87 300 350/03 RMK AO2 RAB04 P0000 T01940172
53915KARA ARA20161104073011811/04/16 07:30:31  5-MIN KARA 041330Z 34003KT 10SM CLR 19/17 A3022 -250 87 300 340/03 RMK AO2 RAB04E28 P0000 T01940172
53915KARA ARA20161104073511811/04/16 07:35:31  5-MIN KARA 041335Z 34003KT 10SM CLR 19/17 A3023 -250 87 200 340/03 RMK AO2 RAB04E28 P0000 T01940172
53915KARA ARA20161104074011811/04/16 07:40:31  5-MIN KARA 041340Z 36003KT 10SM CLR 20/17 A3023 -250 84 300 360/03 RMK AO2 RAB04E28 P0000 T02000172
53915KARA ARA20161104074511811/04/16 07:45:31  5-MIN KARA 041345Z 01003KT 10SM CLR 21/18 A3023 -250 84 400 010/03 RMK AO2 RAB04E28 P0000 T02060178
53915KARA ARA20161104075012511/04/16 07:50:31  5-MIN KARA 041350Z 36003KT 10SM CLR 21/18 A3023 -250 84 400 360/03 RMK AO2 RAB04E28 SLP236 P0000 T02060178
53915KARA ARA20161104075510311/04/16 07:55:31  5-MIN KARA 041355Z 36003KT 10SM CLR 21/18 A3023 -250 81 400 360/03 RMK AO2 T02110178
53915KARA ARA20161104080010311/04/16 08:00:31  5-MIN KARA 041400Z 36003KT 10SM CLR 22/18 A3023 -250 81 500 360/03 RMK AO2 T02170183
53915KARA ARA20161104080510311/04/16 08:05:31  5-MIN KARA 041405Z 36004KT 10SM CLR 22/18 A3023 -250 81 500 360/04 RMK AO2 T02170183
53915KARA ARA20161104081010311/04/16 08:10:31  5-MIN KARA 041410Z 01004KT 10SM CLR 22/18 A3023 -250 78 600 010/04 RMK AO2 T02220183
53915KARA ARA20161104081510311/04/16 08:15:31  5-MIN KARA 041415Z 35004KT 10SM CLR 22/18 A3023 -250 78 600 350/04 RMK AO2 T02220183
53915KARA ARA20161104082010311/04/16 08:20:31  5-MIN KARA 041420Z 01003KT 10SM CLR 23/18 A3023 -260 76 600 010/03 RMK AO2 T02280183
53915KARA ARA20161104082510311/04/16 08:25:31  5-MIN KARA 041425Z 36003KT 10SM CLR 23/18 A3023 -260 76 600 360/03 RMK AO2 T02280183
53915KARA ARA20161104083010311/04/16 08:30:31  5-MIN KARA 041430Z 35003KT 10SM CLR 23/18 A3024 -260 73 700 350/03 RMK AO2 T02330183
53915KARA ARA20161104083510311/04/16 08:35:31  5-MIN KARA 041435Z 02003KT 10SM CLR 23/18 A3023 -260 70 700 020/03 RMK AO2 T02330178
53915KARA ARA20161104084010311/04/16 08:40:31  5-MIN KARA 041440Z 03003KT 10SM CLR 24/18 A3024 -260 68 700 030/03 RMK AO2 T02390178
53915KARA ARA20161104084510311/04/16 08:45:31  5-MIN KARA 041445Z 03004KT 10SM CLR 24/18 A3024 -260 66 800 030/04 RMK AO2 T02440178
53915KARA ARA20161104085012211/04/16 08:50:31  5-MIN KARA 041450Z 04004KT 10SM CLR 24/18 A3024 -260 66 800 040/04 RMK AO2 SLP239 60000 T02440178 53007
53915KARA ARA20161104085510311/04/16 08:55:31  5-MIN KARA 041455Z 03003KT 10SM CLR 25/18 A3024 -260 64 900 030/03 RMK AO2 T02500178
53915KARA ARA20161104090010311/04/16 09:00:31  5-MIN KARA 041500Z 02003KT 10SM CLR 25/18 A3024 -260 64 900 020/03 RMK AO2 T02500178
53915KARA ARA20161104090510311/04/16 09:05:31  5-MIN KARA 041505Z 35004KT 10SM CLR 26/18 A3024 -260 61 900 350/04 RMK AO2 T02560178
53915KARA ARA20161104091010311/04/16 09:10:31  5-MIN KARA 041510Z 01004KT 10SM CLR 26/18 A3024 -260 61 900 010/04 RMK AO2 T02560178
53915KARA ARA20161104091510411/04/16 09:15:31  5-MIN KARA 041515Z 03004KT 10SM CLR 26/18 A3024 -260 59 1000 020/04 RMK AO2 T02610178
53915KARA ARA20161104092010411/04/16 09:20:31  5-MIN KARA 041520Z 36004KT 10SM CLR 26/18 A3024 -260 59 1000 360/04 RMK AO2 T02610178
53915KARA ARA20161104092510411/04/16 09:25:31  5-MIN KARA 041525Z 36004KT 10SM CLR 27/17 A3024 -260 55 1100 360/04 RMK AO2 T02670172
53915KARA ARA20161104093010411/04/16 09:30:31  5-MIN KARA 041530Z VRB04KT 10SM CLR 27/17 A3024 -260 55 1100 VRB/04 RMK AO2 T02670172
53915KARA ARA20161104093510411/04/16 09:35:31  5-MIN KARA 041535Z 01005KT 10SM CLR 27/18 A3024 -260 56 1100 010/05 RMK AO2 T02720178
53915KARA ARA20161104094010411/04/16 09:40:31  5-MIN KARA 041540Z 03007KT 10SM CLR 27/17 A3024 -270 54 1100 030/07 RMK AO2 T02720172
53915KARA ARA20161104094510411/04/16 09:45:31  5-MIN KARA 041545Z 02006KT 10SM CLR 27/17 A3024 -270 54 1100 020/06 RMK AO2 T02720172
53915KARA ARA20161104095011111/04/16 09:50:31  5-MIN KARA 041550Z 03007KT 10SM CLR 28/17 A3024 -260 50 1200 020/07 RMK AO2 SLP239 T02780167
53915KARA ARA20161104095510411/04/16 09:55:31  5-MIN KARA 041555Z 04006KT 10SM CLR 28/17 A3024 -260 50 1200 040/06 RMK AO2 T02780167
53915KARA ARA20161104100010411/04/16 10:00:31  5-MIN KARA 041600Z 03007KT 10SM CLR 28/17 A3024 -260 50 1200 030/07 RMK AO2 T02830172
53915KARA ARA20161104100510411/04/16 10:05:31  5-MIN KARA 041605Z 03006KT 10SM CLR 28/17 A3024 -260 50 1200 030/06 RMK AO2 T02780167
53915KARA ARA20161104101012011/04/16 10:10:31  5-MIN KARA 041610Z 05007KT 020V080 10SM CLR 28/17 A3024 -260 50 1200 050/07 020V080 RMK AO2 T02780167
53915KARA ARA20161104101510411/04/16 10:15:31  5-MIN KARA 041615Z 04006KT 10SM CLR 28/16 A3024 -260 48 1200 040/06 RMK AO2 T02780161
53915KARA ARA20161104102010411/04/16 10:20:31  5-MIN KARA 041620Z 06006KT 10SM CLR 28/16 A3023 -260 45 1300 060/06 RMK AO2 T02830156
53915KARA ARA20161104102510411/04/16 10:25:31  5-MIN KARA 041625Z 05006KT 10SM CLR 28/16 A3023 -260 46 1200 050/06 RMK AO2 T02780156
53915KARA ARA20161104103010411/04/16 10:30:31  5-MIN KARA 041630Z 03008KT 10SM CLR 28/16 A3023 -260 47 1300 030/08 RMK AO2 T02830161
53915KARA ARA20161104103510411/04/16 10:35:31  5-MIN KARA 041635Z 04005KT 10SM CLR 28/16 A3023 -260 45 1300 040/05 RMK AO2 T02830156
53915KARA ARA20161104104010411/04/16 10:40:31  5-MIN KARA 041640Z 03007KT 10SM CLR 28/16 A3023 -250 47 1300 030/07 RMK AO2 T02830161
53915KARA ARA20161104104510411/04/16 10:45:31  5-MIN KARA 041645Z 05005KT 10SM CLR 28/16 A3023 -260 45 1300 050/05 RMK AO2 T02830156
53915KARA ARA20161104105011111/04/16 10:50:31  5-MIN KARA 041650Z 04007KT 10SM CLR 29/16 A3023 -250 45 1300 040/07 RMK AO2 SLP235 T02890161
53915KARA ARA20161104105510411/04/16 10:55:31  5-MIN KARA 041655Z 03009KT 10SM CLR 29/15 A3023 -250 42 1300 030/09 RMK AO2 T02890150
53915KARA ARA20161104110010411/04/16 11:00:31  5-MIN KARA 041700Z 04010KT 10SM CLR 29/15 A3022 -250 42 1300 040/10 RMK AO2 T02890150
53915KARA ARA20161104110510411/04/16 11:05:31  5-MIN KARA 041705Z 04009KT 10SM CLR 29/15 A3022 -250 41 1400 040/09 RMK AO2 T02940150
53915KARA ARA20161104111010411/04/16 11:10:31  5-MIN KARA 041710Z 05010KT 10SM CLR 29/15 A3022 -250 41 1400 050/10 RMK AO2 T02940150
53915KARA ARA20161104111510411/04/16 11:15:31  5-MIN KARA 041715Z 02008KT 10SM CLR 29/15 A3022 -250 41 1400 020/08 RMK AO2 T02940150
53915KARA ARA20161104112010411/04/16 11:20:31  5-MIN KARA 041720Z 03008KT 10SM CLR 29/15 A3022 -240 41 1400 030/08 RMK AO2 T02940150
53915KARA ARA20161104112510411/04/16 11:25:31  5-MIN KARA 041725Z 04009KT 10SM CLR 29/15 A3022 -240 41 1400 040/09 RMK AO2 T02940150
53915KARA ARA20161104113010411/04/16 11:30:31  5-MIN KARA 041730Z 03009KT 10SM CLR 29/15 A3021 -240 41 1400 030/09 RMK AO2 T02940150
53915KARA ARA20161104113511011/04/16 11:35:31  5-MIN KARA 041735Z 04006G14KT 10SM CLR 29/15 A3021 -240 41 1400 040/06G14 RMK AO2 T02940150
53915KARA ARA20161104114010411/04/16 11:40:31  5-MIN KARA 041740Z 05009KT 10SM CLR 30/15 A3021 -230 39 1500 050/09 RMK AO2 T03000150
53915KARA ARA20161104114510411/04/16 11:45:31  5-MIN KARA 041745Z 02009KT 10SM CLR 29/15 A3020 -230 41 1400 020/09 RMK AO2 T02940150
53915KARA ARA20161104115013511/04/16 11:50:31  5-MIN KARA 041750Z 03006KT 10SM CLR 30/15 A3020 -230 39 1500 030/06 RMK AO2 SLP226 60000 T03000150 10300 20161 51017
53915KARA ARA20161104115512311/04/16 11:55:31  5-MIN KARA 041755Z 06007KT 030V100 10SM FEW050 30/16 A3020 -220 41 1500 060/07 030V100 RMK AO2 T03000156
53915KARA ARA20161104120011311/04/16 12:00:31  5-MIN KARA 041800Z 03008G15KT 10SM FEW050 30/16 A3020 -220 41 1500 030/08G15 RMK AO2 T03000156
53915KARA ARA20161104120510411/04/16 12:05:31  5-MIN KARA 041805Z 04006KT 10SM CLR 29/16 A3019 -220 42 1400 040/06 RMK AO2 T02940156
53915KARA ARA20161104121010411/04/16 12:10:31  5-MIN KARA 041810Z 05008KT 10SM CLR 30/16 A3019 -220 41 1500 050/08 RMK AO2 T03000156
53915KARA ARA20161104121512311/04/16 12:15:31  5-MIN KARA 041815Z 02009KT 010V080 10SM FEW120 30/16 A3019 -210 41 1500 020/09 010V080 RMK AO2 T03000156
53915KARA ARA20161104122010711/04/16 12:20:31  5-MIN KARA 041820Z 06008KT 10SM SCT120 30/16 A3019 -210 41 1500 060/08 RMK AO2 T03000156
53915KARA ARA20161104122510711/04/16 12:25:31  5-MIN KARA 041825Z 08009KT 10SM SCT120 29/15 A3018 -210 41 1400 080/09 RMK AO2 T02940150
53915KARA ARA20161104123010711/04/16 12:30:31  5-MIN KARA 041830Z 05008KT 10SM SCT120 30/16 A3018 -210 41 1500 050/08 RMK AO2 T03000156
53915KARA ARA20161104123510711/04/16 12:35:31  5-MIN KARA 041835Z 05008KT 10SM SCT120 30/15 A3018 -210 39 1500 050/08 RMK AO2 T03000150
53915KARA ARA20161104124010711/04/16 12:40:31  5-MIN KARA 041840Z 04007KT 10SM FEW120 30/15 A3018 -200 39 1500 040/07 RMK AO2 T03000150
53915KARA ARA20161104124510711/04/16 12:45:31  5-MIN KARA 041845Z 06008KT 10SM FEW120 30/16 A3017 -200 41 1500 060/08 RMK AO2 T03000156
53915KARA ARA20161104125011411/04/16 12:50:31  5-MIN KARA 041850Z 07007KT 10SM FEW120 30/15 A3017 -200 39 1500 070/07 RMK AO2 SLP216 T03000150
53915KARA ARA20161104125510411/04/16 12:55:31  5-MIN KARA 041855Z 05009KT 10SM CLR 30/15 A3017 -200 39 1500 050/09 RMK AO2 T03000150
53915KARA ARA20161104130010411/04/16 13:00:31  5-MIN KARA 041900Z 03006KT 10SM CLR 30/16 A3017 -200 41 1500 030/06 RMK AO2 T03000156
53915KARA ARA20161104130510411/04/16 13:05:31  5-MIN KARA 041905Z 08007KT 10SM CLR 30/16 A3016 -190 41 1500 080/07 RMK AO2 T03000156
53915KARA ARA20161104131010411/04/16 13:10:31  5-MIN KARA 041910Z 07006KT 10SM CLR 30/15 A3016 -190 39 1500 070/06 RMK AO2 T03000150
53915KARA ARA20161104131510411/04/16 13:15:31  5-MIN KARA 041915Z 05008KT 10SM CLR 30/15 A3016 -190 39 1500 040/08 RMK AO2 T03000150
53915KARA ARA20161104132010711/04/16 13:20:31  5-MIN KARA 041920Z VRB05KT 10SM FEW055 31/16 A3015 -190 39 1600 VRB/05 RMK AO2 T03060156
53915KARA ARA20161104132512311/04/16 13:25:31  5-MIN KARA 041925Z 36007KT 330V050 10SM FEW055 31/16 A3015 -180 41 1600 360/07 330V050 RMK AO2 T03060161
53915KARA ARA20161104133010711/04/16 13:30:31  5-MIN KARA 041930Z 02007KT 10SM FEW055 31/16 A3015 -180 41 1600 020/07 RMK AO2 T03060161
53915KARA ARA20161104133510711/04/16 13:35:31  5-MIN KARA 041935Z 02008KT 10SM FEW055 30/16 A3015 -180 41 1500 020/08 RMK AO2 T03000156
53915KARA ARA20161104134010711/04/16 13:40:31  5-MIN KARA 041940Z 03004KT 10SM FEW060 31/16 A3015 -180 39 1600 030/04 RMK AO2 T03060156
53915KARA ARA20161104134510711/04/16 13:45:31  5-MIN KARA 041945Z 03006KT 10SM FEW060 31/16 A3015 -180 39 1600 030/06 RMK AO2 T03060156
53915KARA ARA20161104135011411/04/16 13:50:31  5-MIN KARA 041950Z 03007KT 10SM FEW060 30/15 A3015 -180 39 1500 020/07 RMK AO2 SLP208 T03000150
53915KARA ARA20161104135510711/04/16 13:55:31  5-MIN KARA 041955Z 03008KT 10SM FEW060 31/16 A3015 -180 39 1600 030/08 RMK AO2 T03060156
53915KARA ARA20161104140010711/04/16 14:00:31  5-MIN KARA 042000Z VRB05KT 10SM FEW060 30/15 A3015 -180 39 1500 VRB/05 RMK AO2 T03000150
53915KARA ARA20161104140510711/04/16 14:05:31  5-MIN KARA 042005Z 02010KT 10SM FEW060 31/15 A3014 -180 38 1600 020/10 RMK AO2 T03060150
53915KARA ARA20161104141010711/04/16 14:10:31  5-MIN KARA 042010Z 04010KT 10SM FEW055 31/15 A3014 -180 38 1600 040/10 RMK AO2 T03060150
53915KARA ARA20161105111010411/05/16 11:10:31  5-MIN KARA 051710Z 04006KT 10SM CLR 26/09 A3022 -250 34 1000 040/06 RMK AO2 T02610094
53915KARA ARA20161105111510411/05/16 11:15:31  5-MIN KARA 051715Z VRB06KT 10SM CLR 26/09 A3022 -250 34 1000 VRB/06 RMK AO2 T02560089
53915KARA ARA20161105112010411/05/16 11:20:31  5-MIN KARA 051720Z 06006KT 10SM CLR 26/08 A3022 -250 33 1000 060/06 RMK AO2 T02560083
53915KARA ARA20161105112510411/05/16 11:25:31  5-MIN KARA 051725Z 06007KT 10SM CLR 26/08 A3022 -240 32 1000 060/07 RMK AO2 T02610083
53915KARA ARA20161105113010411/05/16 11:30:31  5-MIN KARA 051730Z 04006KT 10SM CLR 27/09 A3022 -240 32 1100 040/06 RMK AO2 T02670089
53915KARA ARA20161105113510411/05/16 11:35:31  5-MIN KARA 051735Z 03006KT 10SM CLR 27/09 A3022 -240 32 1100 030/06 RMK AO2 T02670089
53915KARA ARA20161105114010411/05/16 11:40:31  5-MIN KARA 051740Z 06004KT 10SM CLR 27/09 A3021 -240 33 1100 060/04 RMK AO2 T02670094
53915KARA ARA20161105114510411/05/16 11:45:31  5-MIN KARA 051745Z 06006KT 10SM CLR 27/09 A3021 -230 31 1200 060/06 RMK AO2 T02720089
53915KARA ARA20161105115012911/05/16 11:50:31  5-MIN KARA 051750Z 05007KT 10SM CLR 27/08 A3021 -230 31 1100 050/07 RMK AO2 SLP228 T02670083 10272 20161 51014
53915KARA ARA20161105115510411/05/16 11:55:31  5-MIN KARA 051755Z 03009KT 10SM CLR 27/09 A3020 -230 32 1100 030/09 RMK AO2 T02670089
53915KARA ARA20161105120010411/05/16 12:00:31  5-MIN KARA 051800Z 05008KT 10SM CLR 27/09 A3020 -230 31 1200 040/08 RMK AO2 T02720089
53915KARA ARA20161105120510411/05/16 12:05:31  5-MIN KARA 051805Z 04007KT 10SM CLR 27/08 A3020 -230 31 1100 030/07 RMK AO2 T02670083
53915KARA ARA20161105121010411/05/16 12:10:31  5-MIN KARA 051810Z 06007KT 10SM CLR 27/08 A3019 -220 29 1100 060/07 RMK AO2 T02670078
53915KARA ARA20161105121510411/05/16 12:15:31  5-MIN KARA 051815Z 07007KT 10SM CLR 27/08 A3019 -220 30 1200 070/07 RMK AO2 T02720083
53915KARA ARA20161105122010411/05/16 12:20:31  5-MIN KARA 051820Z 04010KT 10SM CLR 27/08 A3019 -220 31 1100 040/10 RMK AO2 T02670083
53915KARA ARA20161105122510411/05/16 12:25:31  5-MIN KARA 051825Z 05009KT 10SM CLR 27/08 A3019 -210 29 1100 050/09 RMK AO2 T02670078
53915KARA ARA20161105123010411/05/16 12:30:31  5-MIN KARA 051830Z 04008KT 10SM CLR 27/08 A3019 -220 29 1100 040/08 RMK AO2 T02670078
53915KARA ARA20161105123510411/05/16 12:35:31  5-MIN KARA 051835Z 05009KT 10SM CLR 27/08 A3019 -210 29 1200 050/09 RMK AO2 T02720078
53915KARA ARA20161105124010411/05/16 12:40:31  5-MIN KARA 051840Z 06006KT 10SM CLR 28/08 A3018 -210 28 1300 060/06 RMK AO2 T02780078
53915KARA ARA20161106211510811/06/16 21:15:31  5-MIN KARA 070315Z AUTO 10010KT 10SM CLR 21/13 A3017 -200 61 500 100/10 RMK AO2 T02110133
53915KARA ARA20161106212010811/06/16 21:20:31  5-MIN KARA 070320Z AUTO 10009KT 10SM CLR 21/14 A3017 -200 65 400 100/09 RMK AO2 T02060139
53915KARA ARA20161106212510811/06/16 21:25:31  5-MIN KARA 070325Z AUTO 09008KT 10SM CLR 21/14 A3017 -200 65 400 090/08 RMK AO2 T02060139
53915KARA ARA20161106213010811/06/16 21:30:31  5-MIN KARA 070330Z AUTO 10009KT 10SM CLR 21/14 A3017 -200 65 400 090/09 RMK AO2 T02060139
53915KARA ARA20161106213510811/06/16 21:35:31  5-MIN KARA 070335Z AUTO 09008KT 10SM CLR 21/13 A3017 -200 63 400 090/08 RMK AO2 T02060133
53915KARA ARA20161106214010811/06/16 21:40:31  5-MIN KARA 070340Z AUTO 08008KT 10SM CLR 21/14 A3017 -200 65 400 080/08 RMK AO2 T02060139
53915KARA ARA20161106214510811/06/16 21:45:31  5-MIN KARA 070345Z AUTO 09008KT 10SM CLR 21/14 A3017 -200 65 400 090/08 RMK AO2 T02060139
53915KARA ARA20161106215011511/06/16 21:50:31  5-MIN KARA 070350Z AUTO 09007KT 10SM CLR 21/14 A3017 -200 65 400 090/07 RMK AO2 SLP217 T02060139
53915KARA ARA20161106215510811/06/16 21:55:31  5-MIN KARA 070355Z AUTO 08007KT 10SM CLR 20/14 A3017 -200 67 400 080/07 RMK AO2 T02000139
53915KARA ARA20161106220010811/06/16 22:00:31  5-MIN KARA 070400Z AUTO 09008KT 10SM CLR 20/14 A3017 -200 67 400 090/08 RMK AO2 T02000139
53915KARA ARA20161106220510811/06/16 22:05:31  5-MIN KARA 070405Z AUTO 08008KT 10SM CLR 20/14 A3017 -200 67 400 080/08 RMK AO2 T02000139
53915KARA ARA20161106221010811/06/16 22:10:31  5-MIN KARA 070410Z AUTO 08008KT 10SM CLR 20/14 A3017 -200 67 400 080/08 RMK AO2 T02000139
53915KARA ARA20161106221510811/06/16 22:15:31  5-MIN KARA 070415Z AUTO 08008KT 10SM CLR 20/13 A3017 -200 65 400 080/08 RMK AO2 T02000133
53915KARA ARA20161106222010811/06/16 22:20:31  5-MIN KARA 070420Z AUTO 08008KT 10SM CLR 20/13 A3016 -190 65 400 080/08 RMK AO2 T02000133
53915KARA ARA20161106222510811/06/16 22:25:31  5-MIN KARA 070425Z AUTO 08008KT 10SM CLR 20/13 A3016 -190 65 400 080/08 RMK AO2 T02000133
53915KARA ARA20161106223010811/06/16 22:30:31  5-MIN KARA 070430Z AUTO 09008KT 10SM CLR 20/13 A3016 -190 65 400 080/08 RMK AO2 T02000133
53915KARA ARA20161106223510811/06/16 22:35:31  5-MIN KARA 070435Z AUTO 08007KT 10SM CLR 19/13 A3016 -190 67 300 080/07 RMK AO2 T01940133
53915KARA ARA20161106224010811/06/16 22:40:31  5-MIN KARA 070440Z AUTO 09007KT 10SM CLR 19/13 A3016 -190 67 300 080/07 RMK AO2 T01940133
53915KARA ARA20161106224510811/06/16 22:45:31  5-MIN KARA 070445Z AUTO 09007KT 10SM CLR 19/13 A3016 -190 67 300 090/07 RMK AO2 T01940133
53915KARA ARA20161106225011511/06/16 22:50:31  5-MIN KARA 070450Z AUTO 10006KT 10SM CLR 19/13 A3016 -190 67 300 100/06 RMK AO2 SLP214 T01940133
53915KARA ARA20161106225510811/06/16 22:55:31  5-MIN KARA 070455Z AUTO 09006KT 10SM CLR 19/13 A3017 -190 67 300 090/06 RMK AO2 T01940133
53915KARA ARA20161106230010811/06/16 23:00:31  5-MIN KARA 070500Z AUTO 09006KT 10SM CLR 19/13 A3016 -190 67 300 090/06 RMK AO2 T01940133
53915KARA ARA20161106230510811/06/16 23:05:31  5-MIN KARA 070505Z AUTO 08007KT 10SM CLR 19/13 A3016 -190 67 300 080/07 RMK AO2 T01940133
53915KARA ARA20161106231010811/06/16 23:10:31  5-MIN KARA 070510Z AUTO 09006KT 10SM CLR 19/13 A3016 -190 67 300 090/06 RMK AO2 T01940133
53915KARA ARA20161106231510811/06/16 23:15:31  5-MIN KARA 070515Z AUTO 09007KT 10SM CLR 19/13 A3016 -190 67 300 090/07 RMK AO2 T01940133
53915KARA ARA20161106232010811/06/16 23:20:31  5-MIN KARA 070520Z AUTO 08007KT 10SM CLR 19/13 A3016 -190 67 300 080/07 RMK AO2 T01940133
53915KARA ARA20161106232510811/06/16 23:25:31  5-MIN KARA 070525Z AUTO 09007KT 10SM CLR 19/13 A3016 -190 67 300 090/07 RMK AO2 T01940133
53915KARA ARA20161106233010811/06/16 23:30:31  5-MIN KARA 070530Z AUTO 09007KT 10SM CLR 19/13 A3016 -190 67 300 080/07 RMK AO2 T01940133
53915KARA ARA20161106233510811/06/16 23:35:31  5-MIN KARA 070535Z AUTO 08007KT 10SM CLR 19/13 A3016 -190 67 300 080/07 RMK AO2 T01940133
53915KARA ARA20161106234010811/06/16 23:40:31  5-MIN KARA 070540Z AUTO 08007KT 10SM CLR 19/13 A3016 -190 67 300 080/07 RMK AO2 T01940133
53915KARA ARA20161106234510811/06/16 23:45:31  5-MIN KARA 070545Z AUTO 08007KT 10SM CLR 19/13 A3016 -190 67 300 080/07 RMK AO2 T01940133
53915KARA ARA20161106235014311/06/16 23:50:31  5-MIN KARA 070550Z AUTO 08007KT 10SM CLR 19/13 A3016 -190 67 300 080/07 RMK AO2 SLP211 T01940133 10233 20189 402720144 51009
53915KARA ARA20161106235510811/06/16 23:55:31  5-MIN KARA 070555Z AUTO 09008KT 10SM CLR 19/13 A3016 -190 67 300 090/08 RMK AO2 T01940133
53915KARA ARA20161107000010811/07/16 00:00:31  5-MIN KARA 070600Z AUTO 09007KT 10SM CLR 19/13 A3015 -180 67 300 090/07 RMK AO2 T01940133
53915KARA ARA20161107000510811/07/16 00:05:31  5-MIN KARA 070605Z AUTO 09007KT 10SM CLR 19/13 A3015 -180 70 300 090/07 RMK AO2 T01890133
53915KARA ARA20161107001010811/07/16 00:10:31  5-MIN KARA 070610Z AUTO 09008KT 10SM CLR 19/13 A3015 -180 70 300 090/08 RMK AO2 T01890133
53915KARA ARA20161107001510811/07/16 00:15:31  5-MIN KARA 070615Z AUTO 09008KT 10SM CLR 19/13 A3015 -180 70 300 090/08 RMK AO2 T01890133
53915KARA ARA20161107002010811/07/16 00:20:31  5-MIN KARA 070620Z AUTO 09008KT 10SM CLR 19/13 A3015 -180 70 300 090/08 RMK AO2 T01890133
53915KARA ARA20161107002510811/07/16 00:25:31  5-MIN KARA 070625Z AUTO 09009KT 10SM CLR 19/13 A3014 -180 67 300 090/09 RMK AO2 T01890128
53915KARA ARA20161107003010811/07/16 00:30:31  5-MIN KARA 070630Z AUTO 09009KT 10SM CLR 19/13 A3014 -180 67 300 090/09 RMK AO2 T01890128
53915KARA ARA20161107003510811/07/16 00:35:31  5-MIN KARA 070635Z AUTO 08008KT 10SM CLR 19/13 A3014 -170 67 300 080/08 RMK AO2 T01890128
53915KARA ARA20161107004010811/07/16 00:40:31  5-MIN KARA 070640Z AUTO 09009KT 10SM CLR 19/13 A3014 -170 65 300 090/09 RMK AO2 T01940128
53915KARA ARA20161107004510811/07/16 00:45:31  5-MIN KARA 070645Z AUTO 09009KT 10SM CLR 19/13 A3014 -170 65 300 090/09 RMK AO2 T01940128
53915KARA ARA20161107005011511/07/16 00:50:31  5-MIN KARA 070650Z AUTO 09009KT 10SM CLR 19/13 A3014 -170 65 300 090/09 RMK AO2 SLP205 T01940128
53915KARA ARA20161107005510811/07/16 00:55:31  5-MIN KARA 070655Z AUTO 09009KT 10SM CLR 19/13 A3014 -170 65 300 090/09 RMK AO2 T01940128
53915KARA ARA20161107010010811/07/16 01:00:31  5-MIN KARA 070700Z AUTO 09010KT 10SM CLR 19/13 A3014 -170 65 300 080/10 RMK AO2 T01940128
53915KARA ARA20161107010510811/07/16 01:05:31  5-MIN KARA 070705Z AUTO 09009KT 10SM CLR 19/13 A3014 -170 65 300 090/09 RMK AO2 T01940128
53915KARA ARA20161107011010811/07/16 01:10:31  5-MIN KARA 070710Z AUTO 09010KT 10SM CLR 19/13 A3014 -170 65 300 080/10 RMK AO2 T01940128
53915KARA ARA20161107011510811/07/16 01:15:31  5-MIN KARA 070715Z AUTO 08010KT 10SM CLR 19/13 A3014 -170 65 300 080/10 RMK AO2 T01940128
53915KARA ARA20161107012010811/07/16 01:20:31  5-MIN KARA 070720Z AUTO 09009KT 10SM CLR 19/12 A3014 -170 62 300 090/09 RMK AO2 T01940122
53915KARA ARA20161107012510811/07/16 01:25:31  5-MIN KARA 070725Z AUTO 09007KT 10SM CLR 19/13 A3014 -170 65 300 090/07 RMK AO2 T01940128
53915KARA ARA20161107013010811/07/16 01:30:31  5-MIN KARA 070730Z AUTO 09008KT 10SM CLR 19/12 A3014 -170 62 300 090/08 RMK AO2 T01940122
53915KARA ARA20161107013510811/07/16 01:35:31  5-MIN KARA 070735Z AUTO 09008KT 10SM CLR 19/12 A3014 -170 62 300 090/08 RMK AO2 T01940122
53915KARA ARA20161107014010811/07/16 01:40:31  5-MIN KARA 070740Z AUTO 09008KT 10SM CLR 19/12 A3014 -170 62 300 090/08 RMK AO2 T01940122
53915KARA ARA20161107014510811/07/16 01:45:31  5-MIN KARA 070745Z AUTO 09007KT 10SM CLR 19/12 A3013 -160 62 400 090/07 RMK AO2 T01940122
53915KARA ARA20161107015011511/07/16 01:50:31  5-MIN KARA 070750Z AUTO 09007KT 10SM CLR 19/12 A3013 -160 62 400 090/07 RMK AO2 SLP202 T01940122
53915KARA ARA20161107015510811/07/16 01:55:31  5-MIN KARA 070755Z AUTO 09007KT 10SM CLR 19/12 A3013 -160 65 300 090/07 RMK AO2 T01890122
53915KARA ARA20161107020010811/07/16 02:00:31  5-MIN KARA 070800Z AUTO 09007KT 10SM CLR 19/12 A3013 -160 65 300 090/07 RMK AO2 T01890122
53915KARA ARA20161107020510811/07/16 02:05:31  5-MIN KARA 070805Z AUTO 08008KT 10SM CLR 19/12 A3013 -160 65 300 080/08 RMK AO2 T01890122
53915KARA ARA20161107021010811/07/16 02:10:31  5-MIN KARA 070810Z AUTO 08007KT 10SM CLR 19/12 A3013 -160 65 300 080/07 RMK AO2 T01890122
53915KARA ARA20161107021510811/07/16 02:15:31  5-MIN KARA 070815Z AUTO 08006KT 10SM CLR 19/12 A3013 -160 65 300 080/06 RMK AO2 T01890122
53915KARA ARA20161107022010811/07/16 02:20:31  5-MIN KARA 070820Z AUTO 08006KT 10SM CLR 19/12 A3013 -160 65 300 070/06 RMK AO2 T01890122
53915KARA ARA20161107022511111/07/16 02:25:31  5-MIN KARA 070825Z AUTO 08006KT 10SM FEW060 19/12 A3013 -160 65 300 080/06 RMK AO2 T01890122
53915KARA ARA20161107023011111/07/16 02:30:31  5-MIN KARA 070830Z AUTO 07006KT 10SM FEW060 19/12 A3013 -160 65 300 070/06 RMK AO2 T01890122
53915KARA ARA20161107023511111/07/16 02:35:31  5-MIN KARA 070835Z AUTO 07005KT 10SM SCT060 19/12 A3013 -160 65 300 070/05 RMK AO2 T01890122
53915KARA ARA20161107024011111/07/16 02:40:31  5-MIN KARA 070840Z AUTO 07006KT 10SM BKN060 19/12 A3013 -160 65 300 070/06 RMK AO2 T01890122
53915KARA ARA20161107024511111/07/16 02:45:31  5-MIN KARA 070845Z AUTO 06006KT 10SM BKN060 19/12 A3013 -160 65 300 060/06 RMK AO2 T01890122
53915KARA ARA20161107025012411/07/16 02:50:31  5-MIN KARA 070850Z AUTO 07007KT 10SM OVC060 19/12 A3012 -160 65 300 060/07 RMK AO2 SLP200 T01890122 58005
53915KARA ARA20161107025511111/07/16 02:55:31  5-MIN KARA 070855Z AUTO 06006KT 10SM OVC060 19/12 A3012 -160 65 300 060/06 RMK AO2 T01890122
53915KARA ARA20161107030011111/07/16 03:00:31  5-MIN KARA 070900Z AUTO 07005KT 10SM OVC060 19/12 A3012 -160 65 300 060/05 RMK AO2 T01890122
53915KARA ARA20161107030511111/07/16 03:05:31  5-MIN KARA 070905Z AUTO 06006KT 10SM OVC060 19/12 A3012 -160 65 300 060/06 RMK AO2 T01890122
53915KARA ARA20161107031011111/07/16 03:10:31  5-MIN KARA 070910Z AUTO 07006KT 10SM OVC060 19/12 A3012 -160 65 300 070/06 RMK AO2 T01890122
53915KARA ARA20161107031511111/07/16 03:15:31  5-MIN KARA 070915Z AUTO 06006KT 10SM OVC060 19/12 A3013 -160 65 300 060/06 RMK AO2 T01890122
53915KARA ARA20161107032011111/07/16 03:20:31  5-MIN KARA 070920Z AUTO 07006KT 10SM OVC060 19/12 A3013 -160 65 300 070/06 RMK AO2 T01890122
53915KARA ARA20161107032511111/07/16 03:25:31  5-MIN KARA 070925Z AUTO 06004KT 10SM OVC060 19/12 A3013 -160 65 300 060/04 RMK AO2 T01890122
53915KARA ARA20161107033011111/07/16 03:30:31  5-MIN KARA 070930Z AUTO 06006KT 10SM OVC060 19/13 A3013 -160 67 300 060/06 RMK AO2 T01890128
53915KARA ARA20161107033511111/07/16 03:35:31  5-MIN KARA 070935Z AUTO 06004KT 10SM OVC060 19/12 A3013 -160 65 300 060/04 RMK AO2 T01890122
53915KARA ARA20161107034012711/07/16 03:40:31  5-MIN KARA 070940Z AUTO 06006KT 10SM -RA OVC060 18/13 A3012 -160 70 200 060/06 RMK AO2 RAB40 P0000 T01830128
53915KARA ARA20161107034512711/07/16 03:45:31  5-MIN KARA 070945Z AUTO 06004KT 10SM -RA OVC060 18/13 A3012 -160 70 200 060/04 RMK AO2 RAB40 P0000 T01830128
53915KARA ARA20161107035013411/07/16 03:50:31  5-MIN KARA 070950Z AUTO 05005KT 10SM -RA OVC060 18/13 A3013 -160 72 200 050/05 RMK AO2 RAB40 SLP201 P0000 T01830133
53915KARA ARA20161107035512111/07/16 03:55:31  5-MIN KARA 070955Z AUTO 06004KT 10SM -RA OVC060 18/13 A3013 -160 72 200 060/04 RMK AO2 P0000 T01830133
53915KARA ARA20161107040012111/07/16 04:00:31  5-MIN KARA 071000Z AUTO 05005KT 10SM -RA OVC060 18/13 A3013 -160 72 200 050/05 RMK AO2 P0000 T01830133
53915KARA ARA20161107040512111/07/16 04:05:31  5-MIN KARA 071005Z AUTO 05004KT 10SM -RA OVC060 18/13 A3013 -160 72 200 050/04 RMK AO2 P0000 T01830133
53915KARA ARA20161107041012111/07/16 04:10:31  5-MIN KARA 071010Z AUTO 06005KT 10SM -RA OVC065 18/13 A3013 -160 75 200 050/05 RMK AO2 P0000 T01780133
53915KARA ARA20161107041512111/07/16 04:15:31  5-MIN KARA 071015Z AUTO 07005KT 10SM -RA OVC065 18/13 A3013 -160 75 200 070/05 RMK AO2 P0000 T01780133
53915KARA ARA20161107042013511/07/16 04:20:31  5-MIN KARA 071020Z AUTO 08005KT 10SM -RA BKN065 BKN100 OVC120 18/13 A3013 -160 75 200 080/05 RMK AO2 P0000 T01780133
53915KARA ARA20161107042513511/07/16 04:25:31  5-MIN KARA 071025Z AUTO 08004KT 10SM -RA BKN065 BKN100 OVC120 18/13 A3013 -160 75 200 080/04 RMK AO2 P0000 T01780133
53915KARA ARA20161107043013411/07/16 04:30:31  5-MIN KARA 071030Z AUTO 07004KT 10SM RA BKN065 BKN100 OVC120 18/13 A3013 -160 75 200 060/04 RMK AO2 P0000 T01780133
53915KARA ARA20161107043513511/07/16 04:35:31  5-MIN KARA 071035Z AUTO 06006KT 10SM -RA BKN070 BKN095 OVC110 18/13 A3013 -170 75 200 060/06 RMK AO2 P0000 T01780133
53915KARA ARA20161107044012811/07/16 04:40:31  5-MIN KARA 071040Z AUTO 05005KT 10SM -RA SCT070 OVC110 17/13 A3013 -170 78 100 050/05 RMK AO2 P0000 T01720133
53915KARA ARA20161107044512811/07/16 04:45:31  5-MIN KARA 071045Z AUTO 05005KT 10SM -RA FEW065 OVC110 17/13 A3013 -170 78 100 050/05 RMK AO2 P0000 T01720133
53915KARA ARA20161107045014211/07/16 04:50:31  5-MIN KARA 071050Z AUTO 06004KT 10SM -RA FEW060 FEW070 OVC110 17/13 A3013 -170 78 100 060/04 RMK AO2 SLP204 P0000 T01720133
53915KARA ARA20161107045513411/07/16 04:55:31  5-MIN KARA 071055Z AUTO 05005KT 10SM RA FEW029 SCT070 OVC100 17/13 A3014 -170 78 100 050/05 RMK AO2 P0000 T01720133
53915KARA ARA20161107050013411/07/16 05:00:31  5-MIN KARA 071100Z AUTO 05004KT 10SM RA FEW029 BKN100 OVC110 17/13 A3014 -170 78 100 050/04 RMK AO2 P0000 T01720133
53915KARA ARA20161107050513511/07/16 05:05:31  5-MIN KARA 071105Z AUTO 05005KT 10SM -RA FEW026 BKN095 OVC110 17/13 A3014 -170 78 100 050/05 RMK AO2 T01720133 PNO $
53915KARA ARA20161107051013411/07/16 05:10:31  5-MIN KARA 071110Z AUTO 05006KT 10SM RA FEW026 SCT048 OVC100 17/13 A3014 -170 78 100 050/06 RMK AO2 T01720133 PNO $
53915KARA ARA20161107051513411/07/16 05:15:31  5-MIN KARA 071115Z AUTO 05006KT 10SM RA FEW026 SCT049 OVC090 17/13 A3014 -170 78 100 050/06 RMK AO2 T01720133 PNO $
53915KARA ARA20161107052013211/07/16 05:20:31  5-MIN KARA 071120Z AUTO 05005KT 10SM RA FEW030 SCT075 OVC090 17/13 A3014 -170 80 0 050/05 RMK AO2 T01670133 PNO $
53915KARA ARA20161107052513311/07/16 05:25:31  5-MIN KARA 071125Z AUTO 05003KT 10SM -RA FEW026 BKN095 OVC110 17/13 A3014 -170 80 0 050/03 RMK AO2 T01670133 PNO $
53915KARA ARA20161107053013211/07/16 05:30:31  5-MIN KARA 071130Z AUTO 05004KT 10SM RA FEW030 BKN090 OVC110 17/13 A3014 -170 80 0 050/04 RMK AO2 T01670133 PNO $
53915KARA ARA20161107053512111/07/16 05:35:31  5-MIN KARA 071135Z 04005KT 10SM -RA FEW030 OVC090 17/13 A3014 -170 80 0 040/05 RMK AO2 T01670133 PNO $
53915KARA ARA20161107054012111/07/16 05:40:31  5-MIN KARA 071140Z 02004KT 10SM -RA FEW030 OVC090 17/13 A3014 -170 80 0 020/04 RMK AO2 T01670133 PNO $
53915KARA ARA20161107054512811/07/16 05:45:31  5-MIN KARA 071145Z 02004KT 10SM -RA FEW028 SCT070 OVC095 17/13 A3014 -170 80 0 020/04 RMK AO2 T01670133 PNO $
53915KARA ARA20161107055016511/07/16 05:50:31  5-MIN KARA 071150Z 02005KT 10SM -RA FEW028 BKN090 OVC110 17/13 A3014 -170 80 0 020/05 RMK AO2 SLP205 6//// 7//// T01670133 10194 20167 56011 PNO $
53915KARA ARA20161107055513011/07/16 05:55:31  5-MIN KARA 071155Z 02005KT 10SM -RA FEW032 SCT048 OVC090 17/13 A3014 -170 80 0 020/05 RMK AO2 P0000 T01670133 $
53915KARA ARA20161107060013011/07/16 06:00:31  5-MIN KARA 071200Z 03004KT 10SM -RA SCT036 BKN048 OVC090 17/13 A3014 -170 80 0 030/04 RMK AO2 P0000 T01670133 $
53915KARA ARA20161107060513011/07/16 06:05:31  5-MIN KARA 071205Z 03005KT 10SM -RA FEW038 BKN048 OVC095 17/13 A3014 -170 80 0 030/05 RMK AO2 P0000 T01670133 $
53915KARA ARA20161107061013011/07/16 06:10:31  5-MIN KARA 071210Z 04004KT 10SM -RA FEW038 SCT048 OVC095 17/13 A3014 -170 80 0 040/04 RMK AO2 P0000 T01670133 $
53915KARA ARA20161107061513011/07/16 06:15:31  5-MIN KARA 071215Z 03004KT 10SM -RA FEW038 SCT048 OVC090 17/13 A3014 -170 80 0 030/04 RMK AO2 P0000 T01670133 $
53915KARA ARA20161107062013211/07/16 06:20:31  5-MIN KARA 071220Z 03005KT 10SM FEW040 FEW048 OVC090 17/13 A3014 -170 80 0 020/05 RMK AO2 RAE17 P0000 T01670133 $
53915KARA ARA20161107062513211/07/16 06:25:31  5-MIN KARA 071225Z 02005KT 10SM FEW040 SCT070 OVC090 17/13 A3014 -170 80 0 020/05 RMK AO2 RAE17 P0000 T01670133 $
53915KARA ARA20161107063013211/07/16 06:30:31  5-MIN KARA 071230Z 02006KT 10SM FEW050 SCT070 OVC090 17/13 A3014 -170 80 0 020/06 RMK AO2 RAE17 P0000 T01670133 $
53915KARA ARA20161107063513211/07/16 06:35:31  5-MIN KARA 071235Z 02005KT 10SM FEW050 FEW065 OVC085 17/13 A3014 -170 80 0 020/05 RMK AO2 RAE17 P0000 T01670133 $
53915KARA ARA20161107064013211/07/16 06:40:31  5-MIN KARA 071240Z 03006KT 10SM FEW050 FEW070 OVC085 17/13 A3015 -180 77 0 030/06 RMK AO2 RAE17 P0000 T01670128 $
53915KARA ARA20161107064512511/07/16 06:45:31  5-MIN KARA 071245Z 03005KT 10SM FEW055 OVC080 17/13 A3015 -180 77 0 030/05 RMK AO2 RAE17 P0000 T01670128 $
53915KARA ARA20161107065013211/07/16 06:50:31  5-MIN KARA 071250Z 02006KT 10SM SCT060 OVC080 17/13 A3015 -180 77 0 020/06 RMK AO2 RAE17 SLP208 P0000 T01670128 $
53915KARA ARA20161107065511311/07/16 06:55:31  5-MIN KARA 071255Z 02005KT 10SM SCT060 OVC080 17/13 A3015 -180 77 0 020/05 RMK AO2 T01670128 $
53915KARA ARA20161107070011311/07/16 07:00:31  5-MIN KARA 071300Z 03006KT 10SM SCT060 OVC080 17/13 A3015 -180 77 0 020/06 RMK AO2 T01670128 $
53915KARA ARA20161107070511311/07/16 07:05:31  5-MIN KARA 071305Z 03006KT 10SM FEW060 OVC085 17/13 A3015 -180 77 0 030/06 RMK AO2 T01670128 $
53915KARA ARA20161107071011311/07/16 07:10:31  5-MIN KARA 071310Z 03006KT 10SM FEW060 OVC085 17/12 A3015 -180 75 0 020/06 RMK AO2 T01670122 $
53915KARA ARA20161107071511311/07/16 07:15:31  5-MIN KARA 071315Z 02006KT 10SM FEW060 OVC085 17/12 A3016 -190 75 0 020/06 RMK AO2 T01670122 $
53915KARA ARA20161107072011311/07/16 07:20:31  5-MIN KARA 071320Z 02006KT 10SM SCT060 OVC085 17/12 A3016 -190 75 0 020/06 RMK AO2 T01670122 $
53915KARA ARA20161107072511311/07/16 07:25:31  5-MIN KARA 071325Z 02004KT 10SM FEW060 OVC085 17/12 A3016 -190 75 0 020/04 RMK AO2 T01670122 $
53915KARA ARA20161107073011311/07/16 07:30:31  5-MIN KARA 071330Z 02004KT 10SM FEW060 OVC085 17/13 A3016 -190 77 0 010/04 RMK AO2 T01670128 $
53915KARA ARA20161107073511311/07/16 07:35:31  5-MIN KARA 071335Z 02005KT 10SM FEW060 OVC080 16/12 A3016 -190 77 0 020/05 RMK AO2 T01610122 $
53915KARA ARA20161107074012911/07/16 07:40:31  5-MIN KARA 071340Z 02005KT 10SM -RA FEW060 OVC080 17/13 A3016 -190 77 0 020/05 RMK AO2 RAB38 P0000 T01670128 $
53915KARA ARA20161107074512911/07/16 07:45:31  5-MIN KARA 071345Z 02004KT 10SM -RA FEW060 OVC080 17/13 A3017 -200 77 0 020/04 RMK AO2 RAB38 P0000 T01670128 $
53915KARA ARA20161107075014311/07/16 07:50:31  5-MIN KARA 071350Z 02004KT 10SM -RA FEW032 FEW060 OVC080 17/13 A3017 -200 77 0 020/04 RMK AO2 RAB38 SLP215 P0001 T01670128 $
53915KARA ARA20161107075513011/07/16 07:55:31  5-MIN KARA 071355Z 02004KT 10SM -RA FEW032 SCT060 OVC080 17/13 A3017 -200 77 0 020/04 RMK AO2 P0000 T01670128 $
53915KARA ARA20161107080012311/07/16 08:00:31  5-MIN KARA 071400Z 36004KT 10SM -RA FEW060 OVC080 17/13 A3017 -200 77 0 360/04 RMK AO2 P0000 T01670128 $
53915KARA ARA20161107080512311/07/16 08:05:31  5-MIN KARA 071405Z 35004KT 10SM -RA FEW060 OVC080 16/13 A3017 -200 80 0 350/04 RMK AO2 P0000 T01610128 $
53915KARA ARA20161107081012911/07/16 08:10:31  5-MIN KARA 071410Z 34004KT 7SM +RA SCT065 BKN080 OVC095 16/13 A3017 -200 80 0 340/04 RMK AO2 P0001 T01610128 $
53915KARA ARA20161107081512211/07/16 08:15:31  5-MIN KARA 071415Z 35005KT 6SM -RA BKN065 OVC080 16/13 A3018 -200 80 0 340/05 RMK AO2 P0002 T01610128 $
53915KARA ARA20161107082013011/07/16 08:20:31  5-MIN KARA 071420Z 34005KT 10SM -RA FEW028 BKN065 OVC085 16/13 A3018 -210 80 0 340/05 RMK AO2 P0002 T01610128 $
53915KARA ARA20161107082513011/07/16 08:25:31  5-MIN KARA 071425Z 34004KT 10SM -RA SCT028 BKN065 OVC080 16/13 A3018 -210 80 0 340/04 RMK AO2 P0002 T01610128 $
53915KARA ARA20161107083012811/07/16 08:30:31  5-MIN KARA 071430Z 34005KT 10SM -RA BKN028 BKN040 OVC080 16/13 A3018 -210 80 0 340/05 RMK AO2 P0002 T01610128
53915KARA ARA20161107083512811/07/16 08:35:31  5-MIN KARA 071435Z 34005KT 10SM -RA SCT030 BKN040 OVC060 16/13 A3018 -210 80 0 340/05 RMK AO2 P0002 T01610128
53915KARA ARA20161107084013111/07/16 08:40:31  5-MIN KARA 071440Z 34005KT 10SM -RA SCT030 BKN040 OVC065 16/13 A3019 -210 83 -100 340/05 RMK AO2 P0002 T01560128
53915KARA ARA20161107084512811/07/16 08:45:31  5-MIN KARA 071445Z 34006KT 10SM -RA SCT030 BKN040 OVC070 16/13 A3018 -210 83 0 340/06 RMK AO2 P0002 T01610133
53915KARA ARA20161107085014711/07/16 08:50:31  5-MIN KARA 071450Z 34006KT 10SM -RA FEW030 BKN040 OVC085 16/13 A3018 -210 83 0 340/06 RMK AO2 SLP220 P0002 60003 T01610133 53005
53915KARA ARA20161107085512811/07/16 08:55:31  5-MIN KARA 071455Z 33007KT 10SM -RA FEW030 BKN070 OVC085 16/13 A3019 -210 83 0 330/07 RMK AO2 P0000 T01610133
53915KARA ARA20161107090007511/07/16 09:00:31  5-MIN KARA 071500Z 34006KT 10SM -RA SCT039 BKN070 OVC085
53915KARA ARA20161107090013111/07/16 09:00:31  5-MIN KARA 071500Z 34006KT 10SM -RA SCT039 BKN070 OVC085 16/13 A3019 -220 86 -100 330/06 RMK AO2 P0000 T01560133
53915KARA ARA20161107090513111/07/16 09:05:31  5-MIN KARA 071505Z 33006KT 10SM -RA FEW039 BKN070 OVC085 16/13 A3019 -220 86 -100 330/06 RMK AO2 P0000 T01560133
53915KARA ARA20161107091012411/07/16 09:10:31  5-MIN KARA 071510Z 34006KT 10SM -RA SCT070 OVC085 16/13 A3019 -220 86 -100 340/06 RMK AO2 P0001 T01560133
53915KARA ARA20161107091512411/07/16 09:15:31  5-MIN KARA 071515Z 35006KT 10SM -RA BKN080 OVC090 16/13 A3019 -220 86 -100 350/06 RMK AO2 P0001 T01560133
53915KARA ARA20161107092012411/07/16 09:20:31  5-MIN KARA 071520Z 35007KT 10SM -RA BKN080 OVC090 16/13 A3019 -220 86 -100 350/07 RMK AO2 P0001 T01560133
53915KARA ARA20161107092511711/07/16 09:25:31  5-MIN KARA 071525Z 36005KT 10SM -RA OVC080 16/13 A3019 -220 86 -100 360/05 RMK AO2 P0001 T01560133
53915KARA ARA20161107093011711/07/16 09:30:31  5-MIN KARA 071530Z 35007KT 10SM -RA OVC080 16/13 A3019 -220 83 -100 350/07 RMK AO2 P0001 T01610133
53915KARA ARA20161107093511711/07/16 09:35:31  5-MIN KARA 071535Z 35005KT 10SM -RA OVC075 16/13 A3019 -220 83 -100 350/05 RMK AO2 P0002 T01610133
53915KARA ARA20161107094011711/07/16 09:40:31  5-MIN KARA 071540Z 35007KT 10SM -RA OVC075 16/13 A3019 -220 86 -100 350/07 RMK AO2 P0002 T01560133
53915KARA ARA20161107094511711/07/16 09:45:31  5-MIN KARA 071545Z 35007KT 10SM -RA OVC075 16/13 A3019 -220 86 -100 350/07 RMK AO2 P0002 T01560133
53915KARA ARA20161107095012411/07/16 09:50:31  5-MIN KARA 071550Z 35007KT 10SM -RA OVC075 16/13 A3019 -220 86 -100 350/07 RMK AO2 SLP223 P0002 T01560133
53915KARA ARA20161107095511711/07/16 09:55:31  5-MIN KARA 071555Z 35007KT 10SM -RA OVC075 16/13 A3019 -220 86 -100 350/07 RMK AO2 P0000 T01560133
53915KARA ARA20161107100011711/07/16 10:00:31  5-MIN KARA 071600Z 35007KT 10SM -RA OVC075 16/13 A3019 -220 86 -100 350/07 RMK AO2 P0000 T01560133
53915KARA ARA20161107100511711/07/16 10:05:31  5-MIN KARA 071605Z 35007KT 10SM -RA OVC075 16/13 A3019 -220 86 -100 350/07 RMK AO2 P0000 T01560133
53915KARA ARA20161107101011711/07/16 10:10:31  5-MIN KARA 071610Z 36007KT 10SM -RA OVC070 16/13 A3019 -220 86 -100 360/07 RMK AO2 P0001 T01560133
53915KARA ARA20161107101511711/07/16 10:15:31  5-MIN KARA 071615Z 01007KT 10SM -RA OVC075 16/13 A3020 -220 86 -100 360/07 RMK AO2 P0001 T01560133
53915KARA ARA20161107102011711/07/16 10:20:31  5-MIN KARA 071620Z 01007KT 10SM -RA OVC075 16/13 A3019 -220 86 -100 010/07 RMK AO2 P0001 T01560133
53915KARA ARA20161107102512411/07/16 10:25:31  5-MIN KARA 071625Z 01007KT 10SM -RA BKN075 OVC090 16/13 A3019 -220 86 -100 010/07 RMK AO2 P0001 T01560133
53915KARA ARA20161107103012911/07/16 10:30:31  5-MIN KARA 071630Z 36007KT 8SM RA FEW034 BKN075 OVC090 16/13 A3019 -220 86 -100 360/07 RMK AO2 P0002 T01560133
53915KARA ARA20161107103512511/07/16 10:35:31  5-MIN KARA 071635Z 36007KT 6SM RA BR FEW034 OVC080 16/13 A3019 -220 86 -100 350/07 RMK AO2 P0003 T01560133
53915KARA ARA20161107104013011/07/16 10:40:31  5-MIN KARA 071640Z 36006KT 7SM -RA FEW065 BKN080 OVC100 16/13 A3019 -220 86 -100 360/06 RMK AO2 P0004 T01560133
53915KARA ARA20161107104513011/07/16 10:45:31  5-MIN KARA 071645Z 36007KT 10SM RA FEW065 BKN080 OVC095 16/13 A3019 -220 86 -100 350/07 RMK AO2 P0004 T01560133
53915KARA ARA20161107105013111/07/16 10:50:31  5-MIN KARA 071650Z 01007KT 10SM -RA FEW070 OVC085 16/13 A3019 -220 86 -100 010/07 RMK AO2 SLP223 P0004 T01560133
53915KARA ARA20161107105511711/07/16 10:55:31  5-MIN KARA 071655Z 01007KT 10SM -RA OVC080 16/13 A3019 -220 86 -100 360/07 RMK AO2 P0000 T01560133
53915KARA ARA20161107110011711/07/16 11:00:31  5-MIN KARA 071700Z 36007KT 10SM -RA OVC080 16/13 A3019 -220 86 -100 360/07 RMK AO2 P0000 T01560133
53915KARA ARA20161107110511711/07/16 11:05:31  5-MIN KARA 071705Z 01007KT 10SM -RA OVC080 16/13 A3019 -220 86 -100 010/07 RMK AO2 P0000 T01560133
53915KARA ARA20161107110521711/07/16 11:05:31  5-MIN KARA 071705Z 01007KT 10SM -RA OVC080 16/13 A3019 -220 86 -100 010/07 RMK AO2 P0000 17/15 A3013 -160 87 100 050/07 RMK AO2 SLP202 P0002 T01720150A3012 -150 87 100 050/08 RMK AO2 P0000 T01720150
53915KARA ARA20161107111012411/07/16 11:10:31  5-MIN KARA 071710Z 01006KT 10SM -RA FEW070 OVC085 16/13 A3019 -220 86 -100 010/06 RMK AO2 P0000 T01560133
53915KARA ARA20161107111512211/07/16 11:15:31  5-MIN KARA 071715Z 36008KT 8SM RA FEW050 OVC085 16/13 A3019 -210 86 -100 360/08 RMK AO2 P0001 T01560133
53915KARA ARA20161107112012911/07/16 11:20:31  5-MIN KARA 071720Z 36008KT 7SM RA FEW028 SCT060 OVC090 16/13 A3018 -210 86 -100 360/08 RMK AO2 P0002 T01560133
53915KARA ARA20161107112512911/07/16 11:25:31  5-MIN KARA 071725Z 36008KT 7SM RA FEW026 BKN085 OVC100 16/13 A3018 -210 86 -100 360/08 RMK AO2 P0003 T01560133
53915KARA ARA20161107113013011/07/16 11:30:31  5-MIN KARA 071730Z 36008KT 8SM -RA FEW026 FEW050 OVC095 16/13 A3018 -210 86 -100 360/08 RMK AO2 P0003 T01560133
53915KARA ARA20161107113513011/07/16 11:35:31  5-MIN KARA 071735Z 36008KT 8SM -RA FEW026 SCT080 OVC100 16/13 A3018 -210 86 -100 360/08 RMK AO2 P0003 T01560133
53915KARA ARA20161107114012611/07/16 11:40:31  5-MIN KARA 071740Z 01007KT 8SM RA FEW027 FEW050 OVC100 16/13 A3018 -200 83 0 360/07 RMK AO2 P0004 T01610133
53915KARA ARA20161107114511311/07/16 11:45:31  5-MIN KARA 071745Z 01007KT 8SM -RA OVC100 16/13 A3017 -200 83 0 010/07 RMK AO2 P0004 T01610133
53915KARA ARA20161107115014411/07/16 11:50:31  5-MIN KARA 071750Z 36006KT 9SM -RA OVC100 16/14 A3017 -200 86 0 360/06 RMK AO2 SLP216 P0004 60015 T01610139 10167 20156 53015
53915KARA ARA20161107115511311/07/16 11:55:31  5-MIN KARA 071755Z 01005KT 9SM -RA OVC100 16/14 A3017 -200 86 0 010/05 RMK AO2 P0000 T01610139
53915KARA ARA20161107120012011/07/16 12:00:31  5-MIN KARA 071800Z 01006KT 9SM -RA BKN100 OVC110 16/14 A3017 -200 86 0 010/06 RMK AO2 P0001 T01610139
53915KARA ARA20161107120511211/07/16 12:05:31  5-MIN KARA 071805Z 01006KT 9SM RA OVC100 16/14 A3017 -200 86 0 010/06 RMK AO2 P0001 T01610139
53915KARA ARA20161107121011411/07/16 12:10:31  5-MIN KARA 071810Z 01005KT 10SM -RA OVC100 16/14 A3016 -190 86 0 010/05 RMK AO2 P0001 T01610139
53915KARA ARA20161107121511411/07/16 12:15:31  5-MIN KARA 071815Z 36006KT 10SM -RA OVC100 17/14 A3016 -190 83 0 360/06 RMK AO2 P0001 T01670139
53915KARA ARA20161107122011311/07/16 12:20:31  5-MIN KARA 071820Z 01006KT 9SM -RA OVC100 17/14 A3016 -190 83 0 010/06 RMK AO2 P0001 T01670139
53915KARA ARA20161107122512111/07/16 12:25:31  5-MIN KARA 071825Z 01008KT 10SM -RA FEW060 OVC110 17/14 A3015 -180 83 0 010/08 RMK AO2 P0001 T01670139
53915KARA ARA20161107123012111/07/16 12:30:31  5-MIN KARA 071830Z 02006KT 10SM -RA FEW065 OVC110 17/14 A3015 -180 83 0 020/06 RMK AO2 P0001 T01670139
53915KARA ARA20161107123512111/07/16 12:35:31  5-MIN KARA 071835Z 01005KT 10SM -RA FEW065 OVC110 17/14 A3015 -180 83 0 010/05 RMK AO2 P0001 T01670139
53915KARA ARA20161107124012111/07/16 12:40:31  5-MIN KARA 071840Z 01005KT 10SM -RA FEW065 OVC110 17/14 A3015 -180 83 0 010/05 RMK AO2 P0001 T01670139
53915KARA ARA20161107124512111/07/16 12:45:31  5-MIN KARA 071845Z 02007KT 10SM -RA FEW065 BKN110 17/14 A3015 -180 86 0 020/07 RMK AO2 P0002 T01670144
53915KARA ARA20161107125012811/07/16 12:50:31  5-MIN KARA 071850Z 02007KT 10SM -RA FEW065 OVC110 17/14 A3014 -170 86 0 020/07 RMK AO2 SLP206 P0002 T01670144
53915KARA ARA20161107125511611/07/16 12:55:31  5-MIN KARA 071855Z 02008KT 10SM -RA OVC110 17/14 A3014 -170 83 100 020/08 RMK AO2 P0000 T01720144
53915KARA ARA20161107130011611/07/16 13:00:31  5-MIN KARA 071900Z 03007KT 10SM -RA OVC110 17/14 A3014 -170 83 100 030/07 RMK AO2 P0000 T01720144
53915KARA ARA20161107130512311/07/16 13:05:31  5-MIN KARA 071905Z 04006KT 10SM -RA FEW095 BKN110 17/14 A3014 -170 83 100 040/06 RMK AO2 P0000 T01720144
53915KARA ARA20161107131012311/07/16 13:10:31  5-MIN KARA 071910Z 03006KT 10SM -RA FEW090 BKN110 17/14 A3014 -170 83 100 030/06 RMK AO2 P0000 T01720144
53915KARA ARA20161107131511611/07/16 13:15:31  5-MIN KARA 071915Z 03007KT 10SM -RA OVC110 17/14 A3014 -170 83 100 030/07 RMK AO2 P0000 T01720144
53915KARA ARA20161107132012211/07/16 13:20:31  5-MIN KARA 071920Z 04006KT 9SM -RA FEW090 OVC110 17/14 A3014 -170 83 100 040/06 RMK AO2 P0000 T01720144
53915KARA ARA20161107132512211/07/16 13:25:31  5-MIN KARA 071925Z 05006KT 8SM -RA FEW090 OVC110 17/14 A3014 -170 83 100 050/06 RMK AO2 P0000 T01720144
53915KARA ARA20161107133012211/07/16 13:30:31  5-MIN KARA 071930Z 05006KT 8SM -RA FEW090 OVC110 17/14 A3014 -170 83 100 040/06 RMK AO2 P0000 T01720144
53915KARA ARA20161107133511411/07/16 13:35:31  5-MIN KARA 071935Z 03006KT 8SM RA OVC110 17/14 A3013 -170 83 100 030/06 RMK AO2 P0001 T01720144
53915KARA ARA20161107134012811/07/16 13:40:31  5-MIN KARA 071940Z 05006KT 7SM RA FEW036 SCT095 OVC110 17/15 A3013 -170 87 100 050/06 RMK AO2 P0001 T01720150
53915KARA ARA20161107134512111/07/16 13:45:31  5-MIN KARA 071945Z 04007KT 7SM RA FEW036 OVC110 17/15 A3013 -160 87 100 040/07 RMK AO2 P0002 T01720150
53915KARA ARA20161107135012911/07/16 13:50:31  5-MIN KARA 071950Z 05007KT 8SM -RA FEW038 OVC110 17/15 A3013 -160 87 100 050/07 RMK AO2 SLP202 P0002 T01720150
53915KARA ARA20161107135512211/07/16 13:55:31  5-MIN KARA 071955Z 05007KT 9SM -RA FEW039 OVC110 17/15 A3013 -160 87 100 050/07 RMK AO2 P0000 T01720150
53915KARA ARA20161107140012811/07/16 14:00:31  5-MIN KARA 072000Z 04006KT 9SM RA FEW039 SCT095 OVC110 17/15 A3012 -150 87 100 040/06 RMK AO2 P0000 T01720150
53915KARA ARA20161107140512211/07/16 14:05:31  5-MIN KARA 072005Z 05008KT 9SM -RA FEW036 OVC100 17/15 A3012 -150 87 100 050/08 RMK AO2 P0000 T01720150
53915KARA ARA20161107141012311/07/16 14:10:31  5-MIN KARA 072010Z 03007KT 10SM -RA BKN100 OVC110 18/15 A3011 -150 83 200 030/07 RMK AO2 P0000 T01780150
53915KARA ARA20161107141513011/07/16 14:15:31  5-MIN KARA 072015Z 03009KT 10SM -RA FEW060 BKN090 OVC110 18/15 A3011 -150 83 200 030/09 RMK AO2 P0001 T01780150
53915KARA ARA20161107142013011/07/16 14:20:31  5-MIN KARA 072020Z 03009KT 10SM -RA FEW065 BKN090 OVC110 18/15 A3011 -140 83 200 030/09 RMK AO2 P0001 T01780150
53915KARA ARA20161107142513011/07/16 14:25:31  5-MIN KARA 072025Z 01007KT 10SM -RA FEW035 BKN075 OVC110 18/15 A3011 -140 83 200 010/07 RMK AO2 P0001 T01780150
53915KARA ARA20161107143013011/07/16 14:30:31  5-MIN KARA 072030Z 02008KT 10SM -RA BKN045 BKN070 OVC090 18/16 A3011 -140 87 200 020/08 RMK AO2 P0001 T01780156
53915KARA ARA20161107143513011/07/16 14:35:31  5-MIN KARA 072035Z 03007KT 10SM -RA FEW032 BKN042 OVC090 18/15 A3011 -150 83 200 030/07 RMK AO2 P0001 T01780150
53915KARA ARA20161107144013011/07/16 14:40:31  5-MIN KARA 072040Z 03007KT 10SM -RA SCT034 BKN042 OVC070 18/15 A3011 -150 83 200 020/07 RMK AO2 P0001 T01780150
53915KARA ARA20161107144513011/07/16 14:45:31  5-MIN KARA 072045Z 03007KT 10SM -RA SCT034 BKN042 OVC050 18/16 A3011 -150 87 200 030/07 RMK AO2 P0001 T01780156
53915KARA ARA20161107145014911/07/16 14:50:31  5-MIN KARA 072050Z 04007KT 10SM -RA FEW034 BKN042 OVC055 18/16 A3011 -150 87 200 040/07 RMK AO2 SLP196 P0001 60006 T01780156 58005
53915KARA ARA20161107145513011/07/16 14:55:31  5-MIN KARA 072055Z 06004KT 10SM -RA FEW033 BKN048 OVC055 18/16 A3011 -150 87 200 060/04 RMK AO2 P0000 T01780156
53915KARA ARA20161107150013011/07/16 15:00:31  5-MIN KARA 072100Z 04004KT 10SM -RA SCT033 BKN047 OVC055 18/16 A3011 -150 87 200 040/04 RMK AO2 P0000 T01780156
53915KARA ARA20161107150513011/07/16 15:05:31  5-MIN KARA 072105Z 04006KT 10SM -RA SCT033 BKN047 OVC060 18/16 A3011 -140 87 200 040/06 RMK AO2 P0000 T01780156
53915KARA ARA20161107151013011/07/16 15:10:31  5-MIN KARA 072110Z 03006KT 10SM -RA SCT033 BKN047 OVC085 18/16 A3011 -140 84 300 030/06 RMK AO2 P0001 T01830156
53915KARA ARA20161107151513011/07/16 15:15:31  5-MIN KARA 072115Z 02006KT 10SM -RA FEW032 BKN050 OVC090 18/16 A3011 -140 84 300 020/06 RMK AO2 P0001 T01830156
53915KARA ARA20161107152013011/07/16 15:20:31  5-MIN KARA 072120Z 03007KT 10SM -RA SCT032 BKN045 OVC075 18/16 A3011 -140 87 300 030/07 RMK AO2 P0001 T01830161
53915KARA ARA20161107152513011/07/16 15:25:31  5-MIN KARA 072125Z 02008KT 10SM -RA SCT032 BKN044 OVC080 18/16 A3011 -140 84 200 020/08 RMK AO2 P0001 T01830156
53915KARA ARA20161107153013211/07/16 15:30:31  5-MIN KARA 072130Z 02007KT 10SM FEW032 BKN047 BKN070 18/16 A3011 -140 84 200 020/07 RMK AO2 RAE29 P0001 T01830156
53915KARA ARA20161107153513211/07/16 15:35:31  5-MIN KARA 072135Z 04007KT 10SM FEW034 SCT047 BKN100 18/16 A3011 -140 87 200 040/07 RMK AO2 RAE29 P0001 T01830161
53915KARA ARA20161107154013211/07/16 15:40:31  5-MIN KARA 072140Z 02007KT 10SM FEW031 SCT047 BKN065 18/16 A3011 -140 87 200 020/07 RMK AO2 RAE29 P0001 T01830161
53915KARA ARA20161107154513211/07/16 15:45:31  5-MIN KARA 072145Z 03008KT 10SM FEW031 BKN050 BKN060 18/16 A3011 -140 87 200 030/08 RMK AO2 RAE29 P0001 T01830161
53915KARA ARA20161107155013211/07/16 15:50:31  5-MIN KARA 072150Z 04008KT 10SM BKN050 BKN055 18/16 A3011 -140 84 200 040/08 RMK AO2 RAE29 SLP195 P0001 T01830156
53915KARA ARA20161107155511311/07/16 15:55:31  5-MIN KARA 072155Z 05007KT 10SM BKN050 BKN070 18/16 A3011 -140 84 200 050/07 RMK AO2 T01830156
53915KARA ARA20161107160012011/07/16 16:00:31  5-MIN KARA 072200Z 04007KT 10SM FEW033 BKN050 BKN055 18/16 A3011 -140 84 200 040/07 RMK AO2 T01830156
53915KARA ARA20161107160511311/07/16 16:05:31  5-MIN KARA 072205Z 04006KT 10SM SCT031 OVC050 18/16 A3011 -140 84 200 040/06 RMK AO2 T01830156
53915KARA ARA20161107161013611/07/16 16:10:31  5-MIN KARA 072210Z 03005KT 10SM -RA SCT028 BKN033 OVC050 18/16 A3011 -140 84 300 030/05 RMK AO2 RAB09 P0000 T01830156
53915KARA ARA20161107161513611/07/16 16:15:31  5-MIN KARA 072215Z 04008KT 10SM -RA BKN028 BKN033 OVC049 18/16 A3011 -140 84 300 040/08 RMK AO2 RAB09 P0000 T01830156
53915KARA ARA20161107162013611/07/16 16:20:31  5-MIN KARA 072220Z 03006KT 10SM -RA BKN027 BKN033 OVC049 18/16 A3011 -140 84 300 030/06 RMK AO2 RAB09 P0000 T01830156
53915KARA ARA20161107162513611/07/16 16:25:31  5-MIN KARA 072225Z 04005KT 10SM -RA FEW025 BKN033 OVC043 18/16 A3011 -140 87 200 030/05 RMK AO2 RAB09 P0000 T01830161
53915KARA ARA20161107163013511/07/16 16:30:31  5-MIN KARA 072230Z 06008KT 8SM -RA SCT028 BKN033 OVC043 18/16 A3011 -140 87 300 060/08 RMK AO2 RAB09 P0000 T01830161
53915KARA ARA20161107163513711/07/16 16:35:31  5-MIN KARA 072235Z 05009KT 5SM RA BR FEW025 BKN034 OVC042 18/16 A3011 -140 87 300 050/09 RMK AO2 RAB09 P0001 T01830161
53915KARA ARA20161107164013811/07/16 16:40:31  5-MIN KARA 072240Z 05008KT 6SM -RA BR FEW025 BKN034 OVC042 18/16 A3011 -140 87 300 050/08 RMK AO2 RAB09 P0002 T01830161
53915KARA ARA20161107164513511/07/16 16:45:31  5-MIN KARA 072245Z 05008KT 9SM -RA FEW023 BKN039 OVC120 18/16 A3011 -140 87 300 050/08 RMK AO2 RAB09 P0002 T01830161
53915KARA ARA20161107165014311/07/16 16:50:31  5-MIN KARA 072250Z 05008KT 10SM -RA FEW033 BKN039 BKN120 18/16 A3011 -140 87 300 040/08 RMK AO2 RAB09 SLP194 P0002 T01830161
53915KARA ARA20161107165511311/07/16 16:55:31  5-MIN KARA 072255Z 05008KT 10SM SCT037 BKN120 18/16 A3010 -140 87 300 040/08 RMK AO2 T01830161
53915KARA ARA20161107170012011/07/16 17:00:31  5-MIN KARA 072300Z 05008KT 10SM FEW037 SCT043 OVC120 18/16 A3010 -140 87 300 050/08 RMK AO2 T01830161
53915KARA ARA20161107170509811/07/16 17:05:31  5-MIN KARA 072305Z 05010KT 10SM FE16 A3010 -140 87 300 040/09 RMK AO2 T01830161
53915KARA ARA20161107170512011/07/16 17:05:31  5-MIN KARA 072305Z 05010KT 10SM FEW037 FEW095 OVC110 18/16 A3011 -140 87 300 050/10 RMK AO2 T01830161
53915KARA ARA20161107171011311/07/16 17:10:31  5-MIN KARA 072310Z 05009KT 10SM SCT090 BKN110 18/16 A3010 -140 87 300 050/09 RMK AO2 T01830161
53915KARA ARA20161107171511311/07/16 17:15:31  5-MIN KARA 072315Z 04009KT 10SM BKN090 OVC110 18/16 A3010 -140 87 300 040/09 RMK AO2 T01830161
53915KARA ARA20161107172011311/07/16 17:20:31  5-MIN KARA 072320Z 05009KT 10SM BKN090 OVC110 18/16 A3010 -140 87 300 050/09 RMK AO2 T01830161
53915KARA ARA20161107172511311/07/16 17:25:31  5-MIN KARA 072325Z 05010KT 10SM BKN090 OVC110 18/16 A3010 -130 87 300 050/10 RMK AO2 T01830161
53915KARA ARA20161107173011311/07/16 17:30:31  5-MIN KARA 072330Z 06009KT 10SM SCT090 OVC110 18/16 A3010 -130 87 300 050/09 RMK AO2 T01830161
53915KARA ARA20161107173511311/07/16 17:35:31  5-MIN KARA 072335Z 05008KT 10SM SCT090 BKN120 18/16 A3010 -130 87 300 050/08 RMK AO2 T01830161
53915KARA ARA20161107174011311/07/16 17:40:31  5-MIN KARA 072340Z 04009KT 10SM FEW090 BKN110 18/16 A3010 -130 87 300 040/09 RMK AO2 T01830161
53915KARA ARA20161107174511311/07/16 17:45:31  5-MIN KARA 072345Z 04008KT 10SM SCT100 OVC120 18/16 A3010 -130 87 300 040/08 RMK AO2 T01830161
53915KARA ARA20161107175013711/07/16 17:50:31  5-MIN KARA 072350Z 04008KT 10SM OVC110 18/16 A3010 -140 87 300 040/08 RMK AO2 SLP192 60009 T01830161 10183 20161 56019
53915KARA ARA20161107175510611/07/16 17:55:31  5-MIN KARA 072355Z 03008KT 10SM OVC110 18/16 A3011 -140 87 300 030/08 RMK AO2 T01830161
53915KARA ARA20161107180011311/07/16 18:00:31  5-MIN KARA 080000Z 03008KT 10SM BKN100 OVC120 18/17 A3011 -140 90 200 030/08 RMK AO2 T01830167
53915KARA ARA20161107180510611/07/16 18:05:31  5-MIN KARA 080005Z 04007KT 10SM OVC100 18/17 A3011 -150 90 200 040/07 RMK AO2 T01830167
53915KARA ARA20161107181010611/07/16 18:10:31  5-MIN KARA 080010Z 05006KT 10SM OVC100 18/17 A3011 -150 90 200 050/06 RMK AO2 T01830167
53915KARA ARA20161107181510611/07/16 18:15:31  5-MIN KARA 080015Z 06009KT 10SM OVC100 19/17 A3012 -150 87 300 060/09 RMK AO2 T01890167
53915KARA ARA20161107182010411/07/16 18:20:31  5-MIN KARA 080020Z 05007KT 10SM OVC100 19/17 A3012 -150 87 300 050/07 RMK AO2 T01890 
53915KARA ARA20161107182010611/07/16 18:20:31  5-MIN KARA 080020Z 05007KT 10SM OVC100 19/17 A3012 -150 87 300 050/07 RMK AO2 T01890167
53915KARA ARA20161107182510611/07/16 18:25:31  5-MIN KARA 080025Z 05006KT 10SM OVC100 19/17 A3012 -150 87 300 050/06 RMK AO2 T01890167
53915KARA ARA20161107183010611/07/16 18:30:31  5-MIN KARA 080030Z 05006KT 10SM OVC100 19/17 A3012 -150 87 300 050/06 RMK AO2 T01890167
53915KARA ARA20161107183511311/07/16 18:35:31  5-MIN KARA 080035Z 05005KT 10SM FEW065 OVC100 19/17 A3012 -150 87 300 050/05 RMK AO2 T01890167
53915KARA ARA20161107184012011/07/16 18:40:31  5-MIN KARA 080040Z 07005KT 10SM FEW036 BKN090 OVC110 19/17 A3012 -160 87 300 060/05 RMK AO2 T01890167
53915KARA ARA20161107184512011/07/16 18:45:31  5-MIN KARA 080045Z 06006KT 10SM FEW036 BKN090 OVC110 19/17 A3012 -160 87 300 060/06 RMK AO2 T01890167
53915KARA ARA20161107185012711/07/16 18:50:31  5-MIN KARA 080050Z 05006KT 10SM FEW035 SCT070 OVC085 19/17 A3012 -160 87 300 050/06 RMK AO2 SLP200 T01890167
53915KARA ARA20161107185512011/07/16 18:55:31  5-MIN KARA 080055Z VRB06KT 10SM FEW035 BKN080 OVC100 19/17 A3013 -160 87 300 VRB/06 RMK AO2 T01890167
53915KARA ARA20161107190013111/07/16 19:00:31  5-MIN KARA 080100Z 05007KT 10SM -RA FEW035 OVC075 19/17 A3013 -160 87 300 050/07 RMK AO2 RAB0056 P0000 T01890167
53915KARA ARA20161107190507411/07/16 19:05:31  5-MIN KARA 080105Z 05007KT 10O2 RAB0158 P0006 T01890172
53915KARA ARA20161107203013611/07/16 20:30:31  5-MIN KARA 080230Z AUTO 04006KT 10SM -RA BKN040 OVC048 19/17 A3014 -180 90 300 040/06 RMK AO2 RAB0158 P0007 T01890172
53915KARA ARA20161107203514311/07/16 20:35:31  5-MIN KARA 080235Z AUTO 03006KT 10SM -RA SCT040 SCT046 OVC055 19/17 A3014 -170 90 300 030/06 RMK AO2 RAB0158 P0007 T01890172
53915KARA ARA20161107204013511/07/16 20:40:31  5-MIN KARA 080240Z AUTO 03007KT 9SM -RA SCT042 OVC055 19/17 A3014 -170 90 300 030/07 RMK AO2 RAB0158 P0007 T01890172
53915KARA ARA20161107204513511/07/16 20:45:31  5-MIN KARA 080245Z AUTO 03008KT 9SM -RA FEW042 OVC055 19/17 A3014 -170 90 300 030/08 RMK AO2 RAB0158 P0007 T01890172
53915KARA ARA20161107205016111/07/16 20:50:31  5-MIN KARA 080250Z AUTO 02008KT 8SM -RA FEW042 BKN055 OVC070 19/18 A3014 -170 93 300 020/08 RMK AO2 RAB0158 SLP204 P0007 60007 T01890178 56004
53915KARA ARA20161107205512711/07/16 20:55:31  5-MIN KARA 080255Z AUTO 03008KT 9SM -RA BKN060 OVC070 19/18 A3014 -170 93 300 020/08 RMK AO2 P0000 T01890178
53915KARA ARA20161107210013511/07/16 21:00:31  5-MIN KARA 080300Z AUTO 02007KT 10SM -RA FEW038 BKN055 OVC070 19/18 A3013 -170 93 300 020/07 RMK AO2 P0000 T01890178
53915KARA ARA20161107210513711/07/16 21:05:31  5-MIN KARA 080305Z AUTO 03006KT 10SM FEW038 BKN055 OVC070 19/18 A3013 -170 90 400 030/06 RMK AO2 RAE04 P0000 T01940178
53915KARA ARA20161107211013711/07/16 21:10:31  5-MIN KARA 080310Z AUTO 03005KT 10SM SCT038 BKN055 OVC070 19/18 A3013 -170 90 400 030/05 RMK AO2 RAE04 P0000 T01940178
53915KARA ARA20161107211513711/07/16 21:15:31  5-MIN KARA 080315Z AUTO 04005KT 10SM BKN038 BKN050 OVC070 19/18 A3013 -170 90 400 040/05 RMK AO2 RAE04 P0000 T01940178
53915KARA ARA20161107212013711/07/16 21:20:31  5-MIN KARA 080320Z AUTO 05004KT 10SM BKN039 BKN050 OVC070 19/18 A3014 -170 90 300 050/04 RMK AO2 RAE04 P0000 T01940178
53915KARA ARA20161107212513711/07/16 21:25:31  5-MIN KARA 080325Z AUTO 09003KT 10SM FEW008 BKN039 OVC050 19/18 A3014 -170 90 300 090/03 RMK AO2 RAE04 P0000 T01940178
53915KARA ARA20161107213013611/07/16 21:30:31  5-MIN KARA 080330Z AUTO 10003KT 9SM -RA SCT006 OVC039 19/18 A3014 -170 90 300 100/03 RMK AO2 RAE04B28 P0000 T01940178
53915KARA ARA20161108171512011/08/16 17:15:31  5-MIN KARA 082315Z 04009KT 10SM SCT010 BKN045 OVC065 21/18 A3006 -100 81 600 040/09 RMK AO2 T02110178
53915KARA ARA20161108172012011/08/16 17:20:31  5-MIN KARA 082320Z 04009KT 10SM BKN010 BKN045 OVC065 21/18 A3006 -100 81 600 030/09 RMK AO2 T02110178
53915KARA ARA20161108172512011/08/16 17:25:31  5-MIN KARA 082325Z 03010KT 10SM BKN011 BKN047 OVC065 21/18 A3006 -100 81 600 030/10 RMK AO2 T02110178
53915KARA ARA20161108173012011/08/16 17:30:31  5-MIN KARA 082330Z 03010KT 10SM SCT011 BKN047 OVC065 21/18 A3007 -100 81 600 030/10 RMK AO2 T02110178
53915KARA ARA20161108173511311/08/16 17:35:31  5-MIN KARA 082335Z 03012KT 10SM SCT011 OVC045 21/18 A3007 -100 81 600 030/12 RMK AO2 T02110178
53915KARA ARA20161108174011211/08/16 17:40:31  5-MIN KARA 082340Z 03009KT 9SM FEW011 OVC045 21/18 A3007 -100 84 600 030/09 RMK AO2 T02060178
53915KARA ARA20161108174511911/08/16 17:45:31  5-MIN KARA 082345Z 03010KT 9SM FEW011 BKN045 OVC065 21/18 A3007 -100 84 600 030/10 RMK AO2 T02060178
53915KARA ARA20161108175013711/08/16 17:50:31  5-MIN KARA 082350Z 03010KT 9SM SCT046 BKN065 21/18 A3007 -110 84 600 030/10 RMK AO2 SLP182 T02060178 10244 20206 58008
53915KARA ARA20161108175511211/08/16 17:55:31  5-MIN KARA 082355Z 03011KT 9SM BKN046 OVC065 21/18 A3007 -110 84 500 030/11 RMK AO2 T02060178
53915KARA ARA20161108180011211/08/16 18:00:31  5-MIN KARA 090000Z 03011KT 9SM BKN046 OVC065 21/18 A3008 -110 84 500 030/11 RMK AO2 T02060178
53915KARA ARA20161108180511211/08/16 18:05:31  5-MIN KARA 090005Z 03011KT 9SM BKN046 OVC065 21/18 A3008 -110 84 500 030/11 RMK AO2 T02060178
53915KARA ARA20161108181011211/08/16 18:10:31  5-MIN KARA 090010Z 04011KT 8SM BKN046 OVC065 21/18 A3008 -120 84 500 040/11 RMK AO2 T02060178
53915KARA ARA20161108181511211/08/16 18:15:31  5-MIN KARA 090015Z 04009KT 8SM BKN047 OVC065 21/18 A3008 -120 84 500 040/09 RMK AO2 T02060178
53915KARA ARA20161108182011211/08/16 18:20:31  5-MIN KARA 090020Z 04012KT 8SM BKN047 OVC065 21/18 A3008 -120 84 500 040/12 RMK AO2 T02060178
53915KARA ARA20161108182511211/08/16 18:25:31  5-MIN KARA 090025Z 05010KT 8SM BKN048 OVC065 21/18 A3008 -120 84 500 040/10 RMK AO2 T02060178
53915KARA ARA20161108183011211/08/16 18:30:31  5-MIN KARA 090030Z 05010KT 8SM BKN048 OVC065 21/18 A3008 -120 84 500 050/10 RMK AO2 T02060178
53915KARA ARA20161108183511211/08/16 18:35:31  5-MIN KARA 090035Z 04010KT 8SM BKN050 OVC065 21/18 A3009 -120 84 500 040/10 RMK AO2 T02060178
53915KARA ARA20161108184011211/08/16 18:40:31  5-MIN KARA 090040Z 04010KT 8SM BKN050 OVC065 21/18 A3008 -120 84 500 040/10 RMK AO2 T02060178
53915KARA ARA20161108184511211/08/16 18:45:31  5-MIN KARA 090045Z 04011KT 8SM BKN050 OVC065 21/18 A3009 -120 84 500 040/11 RMK AO2 T02060178
53915KARA ARA20161108185011911/08/16 18:50:31  5-MIN KARA 090050Z 04011KT 8SM SCT050 BKN065 21/18 A3009 -120 84 500 040/11 RMK AO2 SLP188 T02060178
53915KARA ARA20161108185511211/08/16 18:55:31  5-MIN KARA 090055Z 04009KT 8SM SCT050 BKN065 20/18 A3009 -120 87 500 040/09 RMK AO2 T02000178
53915KARA ARA20161108190010511/08/16 19:00:31  5-MIN KARA 090100Z 04010KT 8SM SCT050 20/18 A3009 -120 87 500 030/10 RMK AO2 T02000178
53915KARA ARA20161108190511211/08/16 19:05:31  5-MIN KARA 090105Z 04011KT 8SM FEW008 FEW050 20/18 A3009 -120 87 500 040/11 RMK AO2 T02000178
53915KARA ARA20161108191011211/08/16 19:10:31  5-MIN KARA 090110Z 04009KT 8SM FEW008 FEW050 20/18 A3009 -120 87 500 040/09 RMK AO2 T02000178
53915KARA ARA20161108191510511/08/16 19:15:31  5-MIN KARA 090115Z 04009KT 8SM FEW008 20/18 A3009 -130 87 500 040/09 RMK AO2 T02000178
53915KARA ARA20161108192010511/08/16 19:20:31  5-MIN KARA 090120Z 04009KT 8SM FEW008 20/18 A3009 -130 87 500 040/09 RMK AO2 T02000178
53915KARA ARA20161108192510511/08/16 19:25:31  5-MIN KARA 090125Z 04008KT 8SM SCT008 20/18 A3009 -130 87 500 040/08 RMK AO2 T02000178
53915KARA ARA20161108193011211/08/16 19:30:31  5-MIN KARA 090130Z 05007KT 8SM SCT008 SCT070 20/18 A3010 -130 87 500 040/07 RMK AO2 T02000178
53915KARA ARA20161108193511211/08/16 19:35:31  5-MIN KARA 090135Z 04007KT 8SM BKN008 BKN070 20/18 A3010 -130 87 500 040/07 RMK AO2 T02000178
53915KARA ARA20161108194010511/08/16 19:40:31  5-MIN KARA 090140Z 05009KT 8SM BKN008 20/18 A3010 -130 87 500 050/09 RMK AO2 T02000178
53915KARA ARA20161108194511211/08/16 19:45:31  5-MIN KARA 090145Z 04009KT 8SM BKN008 BKN023 20/18 A3010 -130 87 500 040/09 RMK AO2 T02000178
53915KARA ARA20161108195011911/08/16 19:50:31  5-MIN KARA 090150Z 04009KT 8SM BKN008 BKN023 20/18 A3010 -130 87 500 040/09 RMK AO2 SLP192 T02000178
53915KARA ARA20161108195510511/08/16 19:55:31  5-MIN KARA 090155Z 04010KT 9SM OVC008 21/18 A3010 -130 84 500 030/10 RMK AO2 T02060178
53915KARA ARA20161108200010511/08/16 20:00:31  5-MIN KARA 090200Z 04009KT 9SM OVC008 21/18 A3010 -130 84 500 040/09 RMK AO2 T02060178
53915KARA ARA20161108200510511/08/16 20:05:31  5-MIN KARA 090205Z 04007KT 9SM OVC008 20/18 A3010 -130 87 500 030/07 RMK AO2 T02000178
53915KARA ARA20161108201012411/08/16 20:10:31  5-MIN KARA 090210Z 03007KT 9SM BKN008 OVC022 21/18 A3010 -130 84 500 030/07 RMK AO2 CIG 007V012 T02060178
53915KARA ARA20161108201512511/08/16 20:15:31  5-MIN KARA 090215Z 03007KT 10SM BKN008 OVC016 21/18 A3010 -130 84 500 030/07 RMK AO2 CIG 007V012 T02060178
53915KARA ARA20161108202011311/08/16 20:20:31  5-MIN KARA 090220Z 03007KT 10SM BKN009 OVC016 21/18 A3010 -140 84 500 030/07 RMK AO2 T02060178
53915KARA ARA20161108202512511/08/16 20:25:31  5-MIN KARA 090225Z 03007KT 10SM BKN009 OVC016 21/18 A3010 -140 84 500 030/07 RMK AO2 CIG 007V012 T02060178
53915KARA ARA20161108203012511/08/16 20:30:31  5-MIN KARA 090230Z 04009KT 10SM BKN009 OVC015 21/18 A3010 -140 84 500 040/09 RMK AO2 CIG 007V012 T02060178
53915KARA ARA20161108203512511/08/16 20:35:31  5-MIN KARA 090235Z 02008KT 10SM BKN009 OVC015 21/18 A3010 -140 84 500 020/08 RMK AO2 CIG 007V012 T02060178
53915KARA ARA20161108204012511/08/16 20:40:31  5-MIN KARA 090240Z 03008KT 10SM BKN009 OVC015 22/18 A3010 -140 78 600 030/08 RMK AO2 CIG 007V012 T02170178
53915KARA ARA20161108204511811/08/16 20:45:31  5-MIN KARA 090245Z 02008KT 10SM OVC009 21/18 A3011 -140 84 500 020/08 RMK AO2 CIG 007V012 T02060178
53915KARA ARA20161108205013111/08/16 20:50:31  5-MIN KARA 090250Z 03008KT 10SM OVC009 21/18 A3011 -140 84 500 030/08 RMK AO2 CIG 007V012 SLP195 T02060178 53004
53915KARA ARA20161108205512311/08/16 20:55:31  5-MIN KARA 090255Z AUTO 03008KT 10SM OVC009 21/18 A3011 -140 84 500 030/08 RMK AO2 CIG 007V012 T02060178
53915KARA ARA20161108210012311/08/16 21:00:31  5-MIN KARA 090300Z AUTO 04008KT 10SM OVC009 21/18 A3011 -140 84 500 040/08 RMK AO2 CIG 006V011 T02060178
53915KARA ARA20161108210512311/08/16 21:05:31  5-MIN KARA 090305Z AUTO 03008KT 10SM OVC007 21/18 A3011 -150 84 500 030/08 RMK AO2 CIG 006V011 T02060178
53915KARA ARA20161108211012311/08/16 21:10:31  5-MIN KARA 090310Z AUTO 03008KT 10SM OVC007 21/18 A3011 -140 84 500 030/08 RMK AO2 CIG 006V011 T02060178
53915KARA ARA20161108211512311/08/16 21:15:31  5-MIN KARA 090315Z AUTO 03007KT 10SM OVC007 20/18 A3011 -140 87 400 030/07 RMK AO2 CIG 006V011 T02000178
53915KARA ARA20161108212012311/08/16 21:20:31  5-MIN KARA 090320Z AUTO 03009KT 10SM OVC007 20/18 A3011 -140 87 400 030/09 RMK AO2 CIG 006V011 T02000178
53915KARA ARA20161108212512311/08/16 21:25:31  5-MIN KARA 090325Z AUTO 04008KT 10SM OVC007 20/18 A3011 -140 87 400 040/08 RMK AO2 CIG 006V011 T02000178
53915KARA ARA20161108213012311/08/16 21:30:31  5-MIN KARA 090330Z AUTO 03007KT 10SM OVC007 20/18 A3011 -140 87 400 030/07 RMK AO2 CIG 006V010 T02000178
53915KARA ARA20161108213512311/08/16 21:35:31  5-MIN KARA 090335Z AUTO 03008KT 10SM OVC007 20/18 A3011 -140 87 400 030/08 RMK AO2 CIG 006V010 T02000178
53915KARA ARA20161108214011111/08/16 21:40:31  5-MIN KARA 090340Z AUTO 04006KT 10SM OVC007 20/18 A3011 -140 87 400 040/06 RMK AO2 T02000178
53915KARA ARA20161108214512311/08/16 21:45:31  5-MIN KARA 090345Z AUTO 04009KT 10SM OVC007 20/18 A3011 -140 87 400 040/09 RMK AO2 CIG 006V011 T02000178
53915KARA ARA20161108215011811/08/16 21:50:31  5-MIN KARA 090350Z AUTO 03007KT 10SM OVC007 20/18 A3011 -140 87 400 030/07 RMK AO2 SLP195 T02000178
53915KARA ARA20161108215511111/08/16 21:55:31  5-MIN KARA 090355Z AUTO 04008KT 10SM OVC007 20/18 A3011 -140 87 400 040/08 RMK AO2 T02000178
53915KARA ARA20161108220012311/08/16 22:00:31  5-MIN KARA 090400Z AUTO 04007KT 10SM OVC007 20/18 A3011 -140 87 400 040/07 RMK AO2 CIG 006V011 T02000178
53915KARA ARA20161108220512311/08/16 22:05:31  5-MIN KARA 090405Z AUTO 04008KT 10SM OVC007 20/18 A3011 -140 87 400 040/08 RMK AO2 CIG 006V011 T02000178
53915KARA ARA20161108221012311/08/16 22:10:31  5-MIN KARA 090410Z AUTO 03010KT 10SM OVC007 20/18 A3010 -140 87 400 030/10 RMK AO2 CIG 006V011 T02000178
53915KARA ARA20161108221512311/08/16 22:15:31  5-MIN KARA 090415Z AUTO 05011KT 10SM OVC007 20/18 A3010 -140 87 500 050/11 RMK AO2 CIG 006V011 T02000178
53915KARA ARA20161108222012311/08/16 22:20:31  5-MIN KARA 090420Z AUTO 05008KT 10SM OVC007 20/18 A3011 -140 87 400 040/08 RMK AO2 CIG 006V011 T02000178
53915KARA ARA20161108222512311/08/16 22:25:31  5-MIN KARA 090425Z AUTO 05007KT 10SM OVC007 20/18 A3010 -140 87 400 050/07 RMK AO2 CIG 006V011 T02000178
53915KARA ARA20161108223013011/08/16 22:30:31  5-MIN KARA 090430Z AUTO 04007KT 10SM BKN007 OVC011 20/18 A3010 -140 87 500 040/07 RMK AO2 CIG 006V010 T02000178
53915KARA ARA20161108223512311/08/16 22:35:31  5-MIN KARA 090435Z AUTO 05010KT 10SM OVC009 20/18 A3010 -140 87 500 050/10 RMK AO2 CIG 006V012 T02000178
53915KARA ARA20161108224012311/08/16 22:40:31  5-MIN KARA 090440Z AUTO 04007KT 10SM OVC009 20/18 A3010 -130 87 500 040/07 RMK AO2 CIG 007V012 T02000178
53915KARA ARA20161108224512311/08/16 22:45:31  5-MIN KARA 090445Z AUTO 04007KT 10SM OVC009 20/18 A3010 -130 87 500 040/07 RMK AO2 CIG 006V012 T02000178
53915KARA ARA20161108225013011/08/16 22:50:31  5-MIN KARA 090450Z AUTO 04009KT 10SM OVC009 20/18 A3010 -130 87 500 040/09 RMK AO2 CIG 006V013 SLP191 T02000178
53915KARA ARA20161108225512311/08/16 22:55:31  5-MIN KARA 090455Z AUTO 04006KT 10SM OVC009 20/18 A3010 -130 87 500 040/06 RMK AO2 CIG 006V013 T02000178
53915KARA ARA20161108230012311/08/16 23:00:31  5-MIN KARA 090500Z AUTO 03009KT 10SM OVC009 20/18 A3010 -130 87 500 030/09 RMK AO2 CIG 006V013 T02000178
53915KARA ARA20161108230513011/08/16 23:05:31  5-MIN KARA 090505Z AUTO 03009KT 10SM BKN007 OVC011 20/17 A3010 -130 84 500 030/09 RMK AO2 CIG 006V010 T02000172
53915KARA ARA20161108231011811/08/16 23:10:31  5-MIN KARA 090510Z AUTO 03011KT 10SM BKN007 OVC011 20/17 A3010 -130 84 500 030/11 RMK AO2 T02000172
53915KARA ARA20161108231512311/08/16 23:15:31  5-MIN KARA 090515Z AUTO 04010KT 10SM OVC007 20/17 A3010 -130 84 500 030/10 RMK AO2 CIG 006V010 T02000172
53915KARA ARA20161108232012311/08/16 23:20:31  5-MIN KARA 090520Z AUTO 04008KT 10SM OVC007 19/17 A3010 -130 87 400 040/08 RMK AO2 CIG 006V011 T01940172
53915KARA ARA20161108232512311/08/16 23:25:31  5-MIN KARA 090525Z AUTO 05009KT 10SM OVC009 19/17 A3010 -130 87 400 050/09 RMK AO2 CIG 006V011 T01940172
53915KARA ARA20161108233012311/08/16 23:30:31  5-MIN KARA 090530Z AUTO 05010KT 10SM OVC009 19/17 A3010 -130 84 400 050/10 RMK AO2 CIG 007V012 T01940167
53915KARA ARA20161108233512311/08/16 23:35:31  5-MIN KARA 090535Z AUTO 05011KT 10SM OVC009 20/17 A3010 -130 81 500 050/11 RMK AO2 CIG 007V012 T02000167
53915KARA ARA20161108234012311/08/16 23:40:31  5-MIN KARA 090540Z AUTO 04009KT 10SM OVC009 19/17 A3009 -130 87 400 040/09 RMK AO2 CIG 007V012 T01940172
53915KARA ARA20161108234512311/08/16 23:45:31  5-MIN KARA 090545Z AUTO 05012KT 10SM OVC009 19/17 A3009 -130 84 400 050/12 RMK AO2 CIG 007V012 T01940167
53915KARA ARA20161108235015811/08/16 23:50:31  5-MIN KARA 090550Z AUTO 05009KT 10SM OVC009 19/17 A3009 -130 84 400 050/09 RMK AO2 CIG 007V012 SLP190 T01940167 10217 20194 402440194 51012
53915KARA ARA20161108235512311/08/16 23:55:31  5-MIN KARA 090555Z AUTO 05011KT 10SM OVC009 19/17 A3009 -130 84 400 050/11 RMK AO2 CIG 007V012 T01940167
53915KARA ARA20161109000012311/09/16 00:00:31  5-MIN KARA 090600Z AUTO 05011KT 10SM OVC009 19/17 A3009 -130 84 400 050/11 RMK AO2 CIG 007V012 T01940167
53915KARA ARA20161109000512311/09/16 00:05:31  5-MIN KARA 090605Z AUTO 05010KT 10SM OVC010 19/16 A3009 -130 81 400 050/10 RMK AO2 CIG 007V012 T01940161
53915KARA ARA20161109001011111/09/16 00:10:31  5-MIN KARA 090610Z AUTO 06010KT 10SM OVC010 19/16 A3009 -130 81 400 060/10 RMK AO2 T01940161
53915KARA ARA20161109001511111/09/16 00:15:31  5-MIN KARA 090615Z AUTO 06010KT 10SM OVC012 19/16 A3009 -130 81 400 060/10 RMK AO2 T01940161
53915KARA ARA20161109002011111/09/16 00:20:31  5-MIN KARA 090620Z AUTO 05007KT 10SM OVC012 19/16 A3009 -130 81 400 050/07 RMK AO2 T01940161
53915KARA ARA20161109002511111/09/16 00:25:31  5-MIN KARA 090625Z AUTO 06011KT 10SM OVC012 19/16 A3009 -120 81 400 050/11 RMK AO2 T01940161
53915KARA ARA20161109003011111/09/16 00:30:31  5-MIN KARA 090630Z AUTO 05010KT 10SM OVC012 19/16 A3009 -120 81 400 050/10 RMK AO2 T01940161
53915KARA ARA20161109003511111/09/16 00:35:31  5-MIN KARA 090635Z AUTO 05009KT 10SM OVC012 19/16 A3009 -120 81 400 050/09 RMK AO2 T01940161
53915KARA ARA20161109004011111/09/16 00:40:31  5-MIN KARA 090640Z AUTO 05008KT 10SM OVC012 19/16 A3009 -120 81 400 050/08 RMK AO2 T01940161
53915KARA ARA20161109004511111/09/16 00:45:31  5-MIN KARA 090645Z AUTO 05010KT 10SM OVC012 19/16 A3008 -120 81 400 050/10 RMK AO2 T01940161
53915KARA ARA20161109005011811/09/16 00:50:31  5-MIN KARA 090650Z AUTO 05010KT 10SM OVC012 19/16 A3008 -120 81 400 040/10 RMK AO2 SLP186 T01940161
53915KARA ARA20161109005511111/09/16 00:55:31  5-MIN KARA 090655Z AUTO 05009KT 10SM OVC012 19/17 A3008 -120 84 400 050/09 RMK AO2 T01940167
53915KARA ARA20161109010011111/09/16 01:00:31  5-MIN KARA 090700Z AUTO 04009KT 10SM OVC012 19/17 A3008 -120 84 400 040/09 RMK AO2 T01940167
53915KARA ARA20161109010512511/09/16 01:05:31  5-MIN KARA 090705Z AUTO 05010KT 10SM BKN012 BKN026 OVC080 19/16 A3008 -120 84 300 050/10 RMK AO2 T01890161
53915KARA ARA20161109011012511/09/16 01:10:31  5-MIN KARA 090710Z AUTO 05010KT 10SM FEW009 BKN012 OVC080 19/16 A3008 -110 84 400 050/10 RMK AO2 T01890161
53915KARA ARA20161109011512511/09/16 01:15:31  5-MIN KARA 090715Z AUTO 05009KT 10SM SCT012 SCT026 OVC080 19/16 A3007 -110 84 400 050/09 RMK AO2 T01890161
53915KARA ARA20161109012012511/09/16 01:20:31  5-MIN KARA 090720Z AUTO 05010KT 10SM FEW012 SCT026 OVC080 19/16 A3007 -110 84 400 040/10 RMK AO2 T01890161
53915KARA ARA20161109012512511/09/16 01:25:31  5-MIN KARA 090725Z AUTO 04011KT 10SM FEW012 FEW026 BKN080 19/16 A3007 -110 84 400 040/11 RMK AO2 T01890161
53915KARA ARA20161109013011111/09/16 01:30:31  5-MIN KARA 090730Z AUTO 04011KT 10SM SCT080 19/16 A3007 -110 84 400 040/11 RMK AO2 T01890161
53915KARA ARA20161109013511111/09/16 01:35:31  5-MIN KARA 090735Z AUTO 04011KT 10SM SCT080 19/16 A3007 -110 84 400 040/11 RMK AO2 T01890161
53915KARA ARA20161109014011811/09/16 01:40:31  5-MIN KARA 090740Z AUTO 04011KT 10SM FEW010 SCT080 19/16 A3007 -110 84 400 040/11 RMK AO2 T01890161
53915KARA ARA20161109014511811/09/16 01:45:31  5-MIN KARA 090745Z AUTO 04010KT 10SM SCT010 SCT080 19/16 A3007 -110 84 400 040/10 RMK AO2 T01890161
53915KARA ARA20161109015011311/09/16 01:50:31  5-MIN KARA 090750Z AUTO 04011KT 10SM BKN010 19/16 A3007 -100 84 400 040/11 RMK AO2 CIG 008V012
53915KARA ARA20161109015512311/09/16 01:55:31  5-MIN KARA 090755Z AUTO 04012KT 10SM BKN010 19/16 A3007 -100 84 400 040/12 RMK AO2 CIG 008V012 T01890161
53915KARA ARA20161109020012311/09/16 02:00:31  5-MIN KARA 090800Z AUTO 04010KT 10SM BKN010 19/16 A3007 -110 84 400 040/10 RMK AO2 CIG 008V012 T01890161
53915KARA ARA20161109020512311/09/16 02:05:31  5-MIN KARA 090805Z AUTO 04009KT 10SM OVC010 19/16 A3007 -100 84 400 040/09 RMK AO2 CIG 008V012 T01890161
53915KARA ARA20161109021012311/09/16 02:10:31  5-MIN KARA 090810Z AUTO 05011KT 10SM OVC009 19/16 A3006 -100 84 400 050/11 RMK AO2 CIG 008V012 T01890161
53915KARA ARA20161109021512311/09/16 02:15:31  5-MIN KARA 090815Z AUTO 05011KT 10SM OVC009 19/16 A3006 -100 84 400 050/11 RMK AO2 CIG 008V012 T01890161
53915KARA ARA20161109022012311/09/16 02:20:31  5-MIN KARA 090820Z AUTO 05011KT 10SM OVC009 19/16 A3006 -100 84 400 050/11 RMK AO2 CIG 008V012 T01890161
53915KARA ARA20161109022512311/09/16 02:25:31  5-MIN KARA 090825Z AUTO 05013KT 10SM OVC009 19/16 A3006 -100 84 400 050/13 RMK AO2 CIG 008V012 T01890161
53915KARA ARA20161109023012211/09/16 02:30:31  5-MIN KARA 090830Z AUTO 05009KT 10SM OVC009 19/16 A3006 -90 84 400 050/09 RMK AO2 CIG 008V012 T01890161
53915KARA ARA20161109023512211/09/16 02:35:31  5-MIN KARA 090835Z AUTO 05012KT 10SM OVC009 19/16 A3005 -90 84 400 050/12 RMK AO2 CIG 008V014 T01890161
53915KARA ARA20161109024012211/09/16 02:40:31  5-MIN KARA 090840Z AUTO 05012KT 10SM OVC009 18/16 A3005 -90 87 300 040/12 RMK AO2 CIG 008V016 T01830161
53915KARA ARA20161109024511111/09/16 02:45:31  5-MIN KARA 090845Z AUTO 04012KT 10SM OVC011 18/16 A3006 -100 87 300 040/12 RMK AO2 T01830161
53915KARA ARA20161109025012411/09/16 02:50:31  5-MIN KARA 090850Z AUTO 04011KT 10SM OVC011 18/16 A3006 -100 87 300 040/11 RMK AO2 SLP178 T01830161 58012
53915KARA ARA20161109025511111/09/16 02:55:31  5-MIN KARA 090855Z AUTO 04012KT 10SM OVC011 18/16 A3006 -100 87 300 040/12 RMK AO2 T01830161
53915KARA ARA20161109030012311/09/16 03:00:31  5-MIN KARA 090900Z AUTO 04011KT 10SM OVC011 18/16 A3006 -100 87 300 040/11 RMK AO2 CIG 008V014 T01830161
53915KARA ARA20161109030512311/09/16 03:05:31  5-MIN KARA 090905Z AUTO 04010KT 10SM OVC011 18/16 A3007 -100 84 300 040/10 RMK AO2 CIG 008V013 T01830156
53915KARA ARA20161109031011111/09/16 03:10:31  5-MIN KARA 090910Z AUTO 04010KT 10SM OVC011 18/16 A3007 -100 84 300 040/10 RMK AO2 T01830156
53915KARA ARA20161109031511111/09/16 03:15:31  5-MIN KARA 090915Z AUTO 03010KT 10SM OVC011 18/16 A3007 -100 84 300 030/10 RMK AO2 T01830156
53915KARA ARA20161109032011111/09/16 03:20:31  5-MIN KARA 090920Z AUTO 03009KT 10SM OVC011 18/16 A3007 -110 84 300 020/09 RMK AO2 T01830156
53915KARA ARA20161109032511111/09/16 03:25:31  5-MIN KARA 090925Z AUTO 03009KT 10SM OVC011 18/16 A3007 -110 84 300 030/09 RMK AO2 T01830156
53915KARA ARA20161109033012311/09/16 03:30:31  5-MIN KARA 090930Z AUTO 02010KT 10SM OVC011 18/16 A3008 -120 84 300 020/10 RMK AO2 CIG 008V015 T01830156
53915KARA ARA20161109033512311/09/16 03:35:31  5-MIN KARA 090935Z AUTO 02010KT 10SM OVC011 18/16 A3008 -120 84 300 020/10 RMK AO2 CIG 008V015 T01830156
53915KARA ARA20161109034011111/09/16 03:40:31  5-MIN KARA 090940Z AUTO 02010KT 10SM OVC011 18/16 A3009 -120 84 300 020/10 RMK AO2 T01830156
53915KARA ARA20161109034511111/09/16 03:45:31  5-MIN KARA 090945Z AUTO 03009KT 10SM OVC011 18/16 A3009 -120 84 300 030/09 RMK AO2 T01830156
53915KARA ARA20161109035011811/09/16 03:50:31  5-MIN KARA 090950Z AUTO 03010KT 10SM OVC011 18/16 A3009 -130 84 300 030/10 RMK AO2 SLP189 T01830156
53915KARA ARA20161109035511111/09/16 03:55:31  5-MIN KARA 090955Z AUTO 03010KT 10SM OVC012 18/16 A3009 -130 84 300 030/10 RMK AO2 T01830156
53915KARA ARA20161109040011111/09/16 04:00:31  5-MIN KARA 091000Z AUTO 03009KT 10SM OVC012 18/16 A3009 -130 84 300 030/09 RMK AO2 T01830156
53915KARA ARA20161109040511111/09/16 04:05:31  5-MIN KARA 091005Z AUTO 03010KT 10SM OVC012 18/16 A3009 -130 84 300 030/10 RMK AO2 T01830156
53915KARA ARA20161109041011111/09/16 04:10:31  5-MIN KARA 091010Z AUTO 03011KT 10SM OVC012 18/16 A3009 -130 84 300 030/11 RMK AO2 T01830156
53915KARA ARA20161109041511111/09/16 04:15:31  5-MIN KARA 091015Z AUTO 03012KT 10SM OVC012 18/16 A3009 -130 84 300 030/12 RMK AO2 T01830156
53915KARA ARA20161109042011111/09/16 04:20:31  5-MIN KARA 091020Z AUTO 04013KT 10SM OVC012 18/16 A3010 -130 84 300 040/13 RMK AO2 T01830156
53915KARA ARA20161109042511111/09/16 04:25:31  5-MIN KARA 091025Z AUTO 03011KT 10SM OVC012 18/16 A3010 -130 84 300 030/11 RMK AO2 T01830156
53915KARA ARA20161109043011111/09/16 04:30:31  5-MIN KARA 091030Z AUTO 04011KT 10SM OVC012 18/16 A3010 -130 84 300 040/11 RMK AO2 T01830156
53915KARA ARA20161109043511111/09/16 04:35:31  5-MIN KARA 091035Z AUTO 05010KT 10SM OVC014 18/16 A3010 -130 84 300 050/10 RMK AO2 T01830156
53915KARA ARA20161109044012511/09/16 04:40:31  5-MIN KARA 091040Z AUTO 04012KT 10SM BKN014 BKN018 OVC032 18/15 A3010 -130 81 300 040/12 RMK AO2 T01830150
53915KARA ARA20161109044512511/09/16 04:45:31  5-MIN KARA 091045Z AUTO 04010KT 10SM SCT014 BKN018 OVC032 18/15 A3010 -140 81 300 040/10 RMK AO2 T01830150
53915KARA ARA20161109045013211/09/16 04:50:31  5-MIN KARA 091050Z AUTO 03011KT 10SM SCT013 SCT018 OVC032 18/15 A3011 -140 81 300 030/11 RMK AO2 SLP194 T01830150
53915KARA ARA20161109045511811/09/16 04:55:31  5-MIN KARA 091055Z AUTO 03010KT 10SM FEW015 OVC032 18/15 A3010 -140 81 300 030/10 RMK AO2 T01830150
53915KARA ARA20161109050011811/09/16 05:00:31  5-MIN KARA 091100Z AUTO 03010KT 10SM FEW018 OVC032 18/15 A3010 -130 81 300 030/10 RMK AO2 T01830150
53915KARA ARA20161109050512511/09/16 05:05:31  5-MIN KARA 091105Z AUTO 03012KT 10SM FEW012 SCT018 OVC032 18/15 A3010 -140 81 300 030/12 RMK AO2 T01830150
53915KARA ARA20161109051012511/09/16 05:10:31  5-MIN KARA 091110Z AUTO 03012KT 10SM FEW012 BKN018 OVC032 18/15 A3010 -140 81 300 030/12 RMK AO2 T01830150
53915KARA ARA20161109051511811/09/16 05:15:31  5-MIN KARA 091115Z AUTO 03011KT 10SM BKN016 OVC032 18/15 A3011 -140 81 300 030/11 RMK AO2 T01830150
53915KARA ARA20161109052011811/09/16 05:20:31  5-MIN KARA 091120Z AUTO 03012KT 10SM BKN016 OVC032 18/15 A3011 -140 81 300 030/12 RMK AO2 T01830150
53915KARA ARA20161109052511811/09/16 05:25:31  5-MIN KARA 091125Z AUTO 04012KT 10SM BKN016 OVC033 18/15 A3010 -140 81 300 040/12 RMK AO2 T01830150
53915KARA ARA20161109053011811/09/16 05:30:31  5-MIN KARA 091130Z AUTO 04011KT 10SM BKN016 OVC050 18/15 A3011 -150 81 200 030/11 RMK AO2 T01830150
53915KARA ARA20161109053511811/09/16 05:35:31  5-MIN KARA 091135Z AUTO 03012KT 10SM BKN016 OVC055 18/15 A3011 -150 81 200 030/12 RMK AO2 T01830150
53915KARA ARA20161109054011811/09/16 05:40:31  5-MIN KARA 091140Z AUTO 03011KT 10SM SCT015 OVC055 18/15 A3011 -150 81 200 030/11 RMK AO2 T01830150
53915KARA ARA20161109054512511/09/16 05:45:31  5-MIN KARA 091145Z AUTO 03010KT 10SM FEW013 SCT018 OVC055 18/15 A3012 -150 81 200 030/10 RMK AO2 T01830150
53915KARA ARA20161109055013811/09/16 05:50:31  5-MIN KARA 091150Z 04009KT 10SM FEW013 OVC060 18/15 A3012 -150 81 200 040/09 RMK AO2 SLP198 T01830150 10194 20183 56009
53915KARA ARA20161109055511311/09/16 05:55:31  5-MIN KARA 091155Z 04010KT 10SM FEW015 OVC060 18/15 A3012 -150 81 200 040/10 RMK AO2 T01830150
53915KARA ARA20161109060011311/09/16 06:00:31  5-MIN KARA 091200Z 04010KT 10SM BKN060 OVC070 18/15 A3012 -150 81 200 040/10 RMK AO2 T01830150
53915KARA ARA20161109060510611/09/16 06:05:31  5-MIN KARA 091205Z 05010KT 10SM OVC065 18/15 A3011 -150 81 200 040/10 RMK AO2 T01830150
53915KARA ARA20161109061010611/09/16 06:10:31  5-MIN KARA 091210Z 04009KT 10SM OVC065 18/15 A3012 -150 81 200 040/09 RMK AO2 T01830150
53915KARA ARA20161109061510611/09/16 06:15:31  5-MIN KARA 091215Z 03010KT 10SM OVC065 18/15 A3012 -160 81 200 030/10 RMK AO2 T01830150
53915KARA ARA20161109062010611/09/16 06:20:31  5-MIN KARA 091220Z 03011KT 10SM OVC065 18/15 A3013 -160 81 200 030/11 RMK AO2 T01830150
53915KARA ARA20161109062510611/09/16 06:25:31  5-MIN KARA 091225Z 04012KT 10SM OVC070 18/15 A3013 -160 81 200 040/12 RMK AO2 T01830150
53915KARA ARA20161109063010611/09/16 06:30:31  5-MIN KARA 091230Z 05009KT 10SM OVC070 18/15 A3012 -160 81 200 050/09 RMK AO2 T01830150
53915KARA ARA20161109063510611/09/16 06:35:31  5-MIN KARA 091235Z 05010KT 10SM OVC070 18/15 A3013 -160 83 200 050/10 RMK AO2 T01780150
53915KARA ARA20161109064010611/09/16 06:40:31  5-MIN KARA 091240Z 03008KT 10SM OVC070 18/15 A3013 -160 83 200 030/08 RMK AO2 T01780150
53915KARA ARA20161109064510611/09/16 06:45:31  5-MIN KARA 091245Z 04010KT 10SM OVC070 18/15 A3013 -160 83 200 030/10 RMK AO2 T01780150
53915KARA ARA20161109065011311/09/16 06:50:31  5-MIN KARA 091250Z 04010KT 10SM OVC070 18/15 A3013 -160 83 200 040/10 RMK AO2 SLP203 T01780150
53915KARA ARA20161109065510611/09/16 06:55:31  5-MIN KARA 091255Z 05009KT 10SM OVC070 18/15 A3013 -160 83 200 050/09 RMK AO2 T01780150
53915KARA ARA20161109070011311/09/16 07:00:31  5-MIN KARA 091300Z 05008KT 10SM BKN070 OVC090 18/15 A3013 -160 83 200 050/08 RMK AO2 T01780150
53915KARA ARA20161109070511311/09/16 07:05:31  5-MIN KARA 091305Z 04009KT 10SM BKN075 BKN090 18/15 A3014 -170 83 200 040/09 RMK AO2 T01780150
53915KARA ARA20161109071011311/09/16 07:10:31  5-MIN KARA 091310Z 05009KT 10SM SCT070 BKN080 18/15 A3014 -170 83 200 050/09 RMK AO2 T01780150
53915KARA ARA20161109071511311/09/16 07:15:31  5-MIN KARA 091315Z 05008KT 10SM FEW065 BKN080 18/15 A3014 -170 81 200 050/08 RMK AO2 T01830150
53915KARA ARA20161109072012011/09/16 07:20:31  5-MIN KARA 091320Z 05007KT 10SM FEW070 BKN080 BKN090 18/15 A3014 -170 81 200 050/07 RMK AO2 T01830150
53915KARA ARA20161109072510611/09/16 07:25:31  5-MIN KARA 091325Z 06008KT 10SM OVC085 18/15 A3014 -170 81 200 060/08 RMK AO2 T01830150
53915KARA ARA20161109073010611/09/16 07:30:31  5-MIN KARA 091330Z 06010KT 10SM BKN090 18/15 A3014 -170 81 200 060/10 RMK AO2 T01830150
53915KARA ARA20161109073510611/09/16 07:35:31  5-MIN KARA 091335Z 06009KT 10SM OVC090 18/15 A3014 -170 81 200 060/09 RMK AO2 T01830150
53915KARA ARA20161109074010611/09/16 07:40:31  5-MIN KARA 091340Z 06009KT 10SM OVC090 18/15 A3014 -170 81 200 060/09 RMK AO2 T01830150
53915KARA ARA20161109074510611/09/16 07:45:31  5-MIN KARA 091345Z 06008KT 10SM BKN090 18/15 A3014 -180 81 200 060/08 RMK AO2 T01830150
53915KARA ARA20161109075011311/09/16 07:50:31  5-MIN KARA 091350Z 06010KT 10SM BKN090 18/15 A3014 -180 81 200 060/10 RMK AO2 SLP207 T01830150
53915KARA ARA20161109075510611/09/16 07:55:31  5-MIN KARA 091355Z 05010KT 10SM BKN090 18/15 A3015 -180 81 200 050/10 RMK AO2 T01830150
53915KARA ARA20161109080010611/09/16 08:00:31  5-MIN KARA 091400Z 04011KT 10SM SCT090 18/15 A3015 -180 81 200 040/11 RMK AO2 T01830150
53915KARA ARA20161109080510611/09/16 08:05:31  5-MIN KARA 091405Z 05008KT 10SM FEW090 18/15 A3015 -180 81 200 050/08 RMK AO2 T01830150
53915KARA ARA20161109081010611/09/16 08:10:31  5-MIN KARA 091410Z 05010KT 10SM FEW095 18/15 A3015 -180 81 200 040/10 RMK AO2 T01830150
53915KARA ARA20161109081510611/09/16 08:15:31  5-MIN KARA 091415Z 05010KT 10SM FEW095 18/15 A3015 -180 81 200 050/10 RMK AO2 T01830150
53915KARA ARA20161109082010611/09/16 08:20:31  5-MIN KARA 091420Z 04011KT 10SM FEW095 19/15 A3014 -180 78 300 040/11 RMK AO2 T01890150
53915KARA ARA20161109082510311/09/16 08:25:31  5-MIN KARA 091425Z 04012KT 10SM CLR 19/15 A3014 -170 78 300 040/12 RMK AO2 T01890150
53915KARA ARA20161109083010311/09/16 08:30:31  5-MIN KARA 091430Z 04012KT 10SM CLR 19/15 A3014 -170 78 300 040/12 RMK AO2 T01890150
53915KARA ARA20161109083510311/09/16 08:35:31  5-MIN KARA 091435Z 04015KT 10SM CLR 19/15 A3014 -170 78 300 040/15 RMK AO2 T01890150
53915KARA ARA20161109084010311/09/16 08:40:31  5-MIN KARA 091440Z 04013KT 10SM CLR 19/15 A3014 -170 78 300 040/13 RMK AO2 T01890150
53915KARA ARA20161109084510311/09/16 08:45:31  5-MIN KARA 091445Z 05010KT 10SM CLR 19/15 A3014 -170 78 300 040/10 RMK AO2 T01890150
53915KARA ARA20161109085011611/09/16 08:50:31  5-MIN KARA 091450Z 05009KT 10SM CLR 19/15 A3014 -170 78 300 050/09 RMK AO2 SLP206 T01890150 51021
53915KARA ARA20161109085510311/09/16 08:55:31  5-MIN KARA 091455Z 03011KT 10SM CLR 19/15 A3014 -180 78 300 030/11 RMK AO2 T01890150
53915KARA ARA20161109090010311/09/16 09:00:31  5-MIN KARA 091500Z 04011KT 10SM CLR 19/15 A3015 -180 78 300 040/11 RMK AO2 T01890150
53915KARA ARA20161109090510311/09/16 09:05:31  5-MIN KARA 091505Z 03011KT 10SM CLR 19/15 A3014 -180 75 300 030/11 RMK AO2 T01940150
53915KARA ARA20161109091010311/09/16 09:10:31  5-MIN KARA 091510Z 03012KT 10SM CLR 19/15 A3014 -180 75 300 030/12 RMK AO2 T01940150
53915KARA ARA20161109091510311/09/16 09:15:31  5-MIN KARA 091515Z 04010KT 10SM CLR 19/15 A3015 -180 75 300 030/10 RMK AO2 T01940150
53915KARA ARA20161109092010311/09/16 09:20:31  5-MIN KARA 091520Z 03010KT 10SM CLR 19/15 A3015 -180 75 300 030/10 RMK AO2 T01940150
53915KARA ARA20161109092510311/09/16 09:25:31  5-MIN KARA 091525Z 04013KT 10SM CLR 19/14 A3015 -180 72 300 040/13 RMK AO2 T01940144
53915KARA ARA20161109093010311/09/16 09:30:31  5-MIN KARA 091530Z 03014KT 10SM CLR 20/15 A3015 -180 72 400 020/14 RMK AO2 T02000150
53915KARA ARA20161109093510311/09/16 09:35:31  5-MIN KARA 091535Z 03011KT 10SM CLR 20/15 A3015 -180 72 400 030/11 RMK AO2 T02000150
53915KARA ARA20161109094010311/09/16 09:40:31  5-MIN KARA 091540Z 04012KT 10SM CLR 21/15 A3015 -180 70 500 040/12 RMK AO2 T02060150
53915KARA ARA20161109094510311/09/16 09:45:31  5-MIN KARA 091545Z 04012KT 10SM CLR 21/15 A3015 -180 68 500 030/12 RMK AO2 T02110150
53915KARA ARA20161109095011011/09/16 09:50:31  5-MIN KARA 091550Z 03011KT 10SM CLR 21/15 A3015 -180 68 500 030/11 RMK AO2 SLP209 T02110150
53915KARA ARA20161109095510311/09/16 09:55:31  5-MIN KARA 091555Z 05013KT 10SM CLR 22/15 A3015 -180 65 600 050/13 RMK AO2 T02170150
53915KARA ARA20161109100010311/09/16 10:00:31  5-MIN KARA 091600Z 03010KT 10SM CLR 22/15 A3015 -180 65 600 030/10 RMK AO2 T02170150
53915KARA ARA20161109100510911/09/16 10:05:31  5-MIN KARA 091605Z 03012G17KT 10SM CLR 22/15 A3015 -180 65 600 030/12G17 RMK AO2 T02170150
53915KARA ARA20161109101010311/09/16 10:10:31  5-MIN KARA 091610Z 04011KT 10SM CLR 22/15 A3015 -180 65 600 040/11 RMK AO2 T02170150
53915KARA ARA20161109101510311/09/16 10:15:31  5-MIN KARA 091615Z 04011KT 10SM CLR 22/15 A3015 -180 63 700 040/11 RMK AO2 T02220150
53915KARA ARA20161109102010311/09/16 10:20:31  5-MIN KARA 091620Z 04012KT 10SM CLR 22/15 A3015 -180 65 600 040/12 RMK AO2 T02170150
53915KARA ARA20161109102510311/09/16 10:25:31  5-MIN KARA 091625Z 05011KT 10SM CLR 22/14 A3015 -180 63 600 040/11 RMK AO2 T02170144
53915KARA ARA20161109103010311/09/16 10:30:31  5-MIN KARA 091630Z 05014KT 10SM CLR 22/14 A3015 -180 63 600 050/14 RMK AO2 T02170144
53915KARA ARA20161109103510311/09/16 10:35:31  5-MIN KARA 091635Z 05012KT 10SM CLR 22/14 A3015 -180 63 600 050/12 RMK AO2 T02170144
53915KARA ARA20161109104010311/09/16 10:40:31  5-MIN KARA 091640Z 03010KT 10SM CLR 22/14 A3016 -190 63 600 030/10 RMK AO2 T02170144
53915KARA ARA20161109104510311/09/16 10:45:31  5-MIN KARA 091645Z 04010KT 10SM CLR 22/15 A3016 -190 63 600 040/10 RMK AO2 T02220150
53915KARA ARA20161109105011011/09/16 10:50:31  5-MIN KARA 091650Z 06010KT 10SM CLR 22/15 A3016 -190 63 600 060/10 RMK AO2 SLP211 T02220150
53915KARA ARA20161109105510311/09/16 10:55:31  5-MIN KARA 091655Z 05011KT 10SM CLR 22/14 A3016 -190 61 600 040/11 RMK AO2 T02220144
53915KARA ARA20161109110010311/09/16 11:00:31  5-MIN KARA 091700Z 04011KT 10SM CLR 22/14 A3016 -190 61 600 040/11 RMK AO2 T02220144
53915KARA ARA20161109110510311/09/16 11:05:31  5-MIN KARA 091705Z 05011KT 10SM CLR 22/14 A3015 -180 61 700 050/11 RMK AO2 T02220144
53915KARA ARA20161109111010311/09/16 11:10:31  5-MIN KARA 091710Z 05010KT 10SM CLR 22/14 A3015 -180 61 700 050/10 RMK AO2 T02220144
53915KARA ARA20161109111510311/09/16 11:15:31  5-MIN KARA 091715Z 05009KT 10SM CLR 22/14 A3015 -180 61 700 050/09 RMK AO2 T02220144
53915KARA ARA20161109112010311/09/16 11:20:31  5-MIN KARA 091720Z 05009KT 10SM CLR 22/14 A3015 -180 61 700 050/09 RMK AO2 T02220144
53915KARA ARA20161109112510311/09/16 11:25:31  5-MIN KARA 091725Z 04014KT 10SM CLR 22/14 A3015 -180 59 700 040/14 RMK AO2 T02220139
53915KARA ARA20161109113010311/09/16 11:30:31  5-MIN KARA 091730Z 05012KT 10SM CLR 22/14 A3014 -180 59 700 050/12 RMK AO2 T02220139
53915KARA ARA20161109113510311/09/16 11:35:31  5-MIN KARA 091735Z 05013KT 10SM CLR 22/14 A3014 -180 59 700 050/13 RMK AO2 T02220139
53915KARA ARA20161109114010311/09/16 11:40:31  5-MIN KARA 091740Z 06012KT 10SM CLR 22/14 A3014 -170 59 700 060/12 RMK AO2 T02220139
53915KARA ARA20161109114510311/09/16 11:45:31  5-MIN KARA 091745Z 06011KT 10SM CLR 22/14 A3014 -170 59 700 060/11 RMK AO2 T02220139
53915KARA ARA20161109115012811/09/16 11:50:31  5-MIN KARA 091750Z 05014KT 10SM CLR 23/14 A3014 -170 57 700 050/14 RMK AO2 SLP205 T02280139 10228 20178 50008
53915KARA ARA20161109115510311/09/16 11:55:31  5-MIN KARA 091755Z 04012KT 10SM CLR 23/14 A3014 -170 57 700 040/12 RMK AO2 T02280139
53915KARA ARA20161109120010311/09/16 12:00:31  5-MIN KARA 091800Z 05012KT 10SM CLR 23/14 A3013 -160 59 700 050/12 RMK AO2 T02280144
53915KARA ARA20161109120510311/09/16 12:05:31  5-MIN KARA 091805Z 04013KT 10SM CLR 23/14 A3013 -160 57 700 040/13 RMK AO2 T02280139
53915KARA ARA20161109121010311/09/16 12:10:31  5-MIN KARA 091810Z 05011KT 10SM CLR 23/14 A3013 -160 59 700 050/11 RMK AO2 T02280144
53915KARA ARA20161109121510311/09/16 12:15:31  5-MIN KARA 091815Z 05011KT 10SM CLR 23/14 A3013 -160 57 800 050/11 RMK AO2 T02330144
53915KARA ARA20161109122010311/09/16 12:20:31  5-MIN KARA 091820Z 04010KT 10SM CLR 23/14 A3013 -160 57 800 040/10 RMK AO2 T02330144
53915KARA ARA20161109122510311/09/16 12:25:31  5-MIN KARA 091825Z 04011KT 10SM CLR 23/14 A3012 -160 57 800 040/11 RMK AO2 T02330144
53915KARA ARA20161109123010311/09/16 12:30:31  5-MIN KARA 091830Z 05012KT 10SM CLR 23/14 A3012 -150 57 800 050/12 RMK AO2 T02330144
53915KARA ARA20161109123510311/09/16 12:35:31  5-MIN KARA 091835Z 05013KT 10SM CLR 23/14 A3012 -150 55 800 050/13 RMK AO2 T02330139
53915KARA ARA20161109124010311/09/16 12:40:31  5-MIN KARA 091840Z 05010KT 10SM CLR 23/14 A3012 -150 55 800 050/10 RMK AO2 T02330139
53915KARA ARA20161109124510311/09/16 12:45:31  5-MIN KARA 091845Z 04012KT 10SM CLR 23/14 A3012 -150 55 800 040/12 RMK AO2 T02330139
53915KARA ARA20161109125011011/09/16 12:50:31  5-MIN KARA 091850Z 05013KT 10SM CLR 23/14 A3012 -150 55 800 050/13 RMK AO2 SLP198 T02330139
53915KARA ARA20161109125510311/09/16 12:55:31  5-MIN KARA 091855Z 05010KT 10SM CLR 23/14 A3012 -150 55 800 050/10 RMK AO2 T02330139
53915KARA ARA20161109130010311/09/16 13:00:31  5-MIN KARA 091900Z 03013KT 10SM CLR 24/14 A3012 -150 53 900 030/13 RMK AO2 T02390139
53915KARA ARA20161109130510311/09/16 13:05:31  5-MIN KARA 091905Z 05010KT 10SM CLR 23/14 A3012 -150 55 800 040/10 RMK AO2 T02330139
53915KARA ARA20161109131010311/09/16 13:10:31  5-MIN KARA 091910Z 03010KT 10SM CLR 23/14 A3012 -150 55 800 030/10 RMK AO2 T02330139
53915KARA ARA20161109131510311/09/16 13:15:31  5-MIN KARA 091915Z 03008KT 10SM CLR 24/14 A3012 -150 53 900 030/08 RMK AO2 T02390139
53915KARA ARA20161109132010911/09/16 13:20:31  5-MIN KARA 091920Z 05011G17KT 10SM CLR 24/14 A3012 -150 53 900 040/11G17 RMK AO2 T02390139
53915KARA ARA20161109132510311/09/16 13:25:31  5-MIN KARA 091925Z 04011KT 10SM CLR 23/14 A3012 -150 55 800 040/11 RMK AO2 T02330139
53915KARA ARA20161109133010311/09/16 13:30:31  5-MIN KARA 091930Z 05011KT 10SM CLR 23/14 A3012 -150 55 800 050/11 RMK AO2 T02330139
53915KARA ARA20161109133510311/09/16 13:35:31  5-MIN KARA 091935Z 04010KT 10SM CLR 24/14 A3012 -150 53 900 040/10 RMK AO2 T02390139
53915KARA ARA20161109134010311/09/16 13:40:31  5-MIN KARA 091940Z 03010KT 10SM CLR 24/14 A3012 -150 53 900 030/10 RMK AO2 T02390139
53915KARA ARA20161109134510311/09/16 13:45:31  5-MIN KARA 091945Z 03012KT 10SM CLR 24/14 A3012 -150 53 900 030/12 RMK AO2 T02390139
53915KARA ARA20161109135011011/09/16 13:50:31  5-MIN KARA 091950Z 02011KT 10SM CLR 24/14 A3012 -150 53 900 020/11 RMK AO2 SLP198 T02390139
53915KARA ARA20161109135510311/09/16 13:55:31  5-MIN KARA 091955Z 02011KT 10SM CLR 24/14 A3012 -150 53 900 020/11 RMK AO2 T02390139
53915KARA ARA20161109140010311/09/16 14:00:31  5-MIN KARA 092000Z 04011KT 10SM CLR 24/14 A3011 -150 53 900 040/11 RMK AO2 T02390139
53915KARA ARA20161109140510311/09/16 14:05:31  5-MIN KARA 092005Z 02013KT 10SM CLR 24/13 A3012 -150 51 900 020/13 RMK AO2 T02390133
53915KARA ARA20161109141010311/09/16 14:10:31  5-MIN KARA 092010Z 03012KT 10SM CLR 24/13 A3012 -150 51 900 030/12 RMK AO2 T02390133
53915KARA ARA20161109141510311/09/16 14:15:31  5-MIN KARA 092015Z 03014KT 10SM CLR 23/13 A3012 -150 51 800 030/14 RMK AO2 T02330128
53915KARA ARA20161109142010311/09/16 14:20:31  5-MIN KARA 092020Z 03013KT 10SM CLR 23/13 A3012 -150 51 800 030/13 RMK AO2 T02330128
53915KARA ARA20161109142510911/09/16 14:25:31  5-MIN KARA 092025Z 04010G18KT 10SM CLR 23/13 A3012 -150 51 800 040/10G18 RMK AO2 T02330128
53915KARA ARA20161109143010311/09/16 14:30:31  5-MIN KARA 092030Z 04012KT 10SM CLR 24/13 A3012 -150 51 900 040/12 RMK AO2 T02390133
53915KARA ARA20161109143510311/09/16 14:35:31  5-MIN KARA 092035Z 04013KT 10SM CLR 23/13 A3011 -150 53 800 040/13 RMK AO2 T02330133
53915KARA ARA20161109144010611/09/16 14:40:31  5-MIN KARA 092040Z 03014KT 10SM FEW038 23/13 A3011 -150 53 800 030/14 RMK AO2 T02330133
53915KARA ARA20161109144510611/09/16 14:45:31  5-MIN KARA 092045Z 02015KT 10SM FEW038 23/13 A3011 -150 53 800 020/15 RMK AO2 T02330133
53915KARA ARA20161109145011911/09/16 14:50:31  5-MIN KARA 092050Z 03012KT 10SM FEW038 24/13 A3011 -150 51 900 030/12 RMK AO2 SLP196 T02390133 58002
53915KARA ARA20161109145511311/09/16 14:55:31  5-MIN KARA 092055Z 03012KT 10SM FEW038 FEW049 23/13 A3011 -150 53 800 030/12 RMK AO2 T02330133
53915KARA ARA20161109150011311/09/16 15:00:31  5-MIN KARA 092100Z 04012KT 10SM FEW039 FEW049 23/13 A3011 -140 53 800 030/12 RMK AO2 T02330133
53915KARA ARA20161109150511311/09/16 15:05:31  5-MIN KARA 092105Z 03013KT 10SM FEW039 FEW049 24/13 A3011 -140 51 900 030/13 RMK AO2 T02390133
53915KARA ARA20161109151010611/09/16 15:10:31  5-MIN KARA 092110Z 04014KT 10SM FEW048 23/13 A3011 -140 53 800 040/14 RMK AO2 T02330133
53915KARA ARA20161109151510611/09/16 15:15:31  5-MIN KARA 092115Z 02010KT 10SM FEW048 23/13 A3011 -150 53 800 020/10 RMK AO2 T02330133
53915KARA ARA20161109152010611/09/16 15:20:31  5-MIN KARA 092120Z 03012KT 10SM FEW048 23/13 A3011 -150 53 800 030/12 RMK AO2 T02330133
53915KARA ARA20161109152510611/09/16 15:25:31  5-MIN KARA 092125Z 03014KT 10SM SCT048 23/13 A3011 -140 53 800 030/14 RMK AO2 T02330133
53915KARA ARA20161109153010611/09/16 15:30:31  5-MIN KARA 092130Z 03011KT 10SM FEW049 23/13 A3011 -150 53 800 030/11 RMK AO2 T02330133
53915KARA ARA20161109153510611/09/16 15:35:31  5-MIN KARA 092135Z 04013KT 10SM FEW049 23/13 A3011 -150 53 800 040/13 RMK AO2 T02330133
53915KARA ARA20161109154010611/09/16 15:40:31  5-MIN KARA 092140Z 04011KT 10SM SCT049 23/13 A3012 -150 51 800 040/11 RMK AO2 T02330128
53915KARA ARA20161109154510611/09/16 15:45:31  5-MIN KARA 092145Z 03011KT 10SM SCT050 23/13 A3012 -150 53 800 030/11 RMK AO2 T02330133
53915KARA ARA20161109155011311/09/16 15:50:31  5-MIN KARA 092150Z 04012KT 10SM SCT050 23/13 A3012 -150 53 800 040/12 RMK AO2 SLP198 T02280128
53915KARA ARA20161109155510611/09/16 15:55:31  5-MIN KARA 092155Z 04012KT 10SM BKN050 23/13 A3012 -150 53 800 040/12 RMK AO2 T02280128
53915KARA ARA20161109160010611/09/16 16:00:31  5-MIN KARA 092200Z 02009KT 10SM BKN050 23/13 A3012 -150 55 800 020/09 RMK AO2 T02280133
53915KARA ARA20161109160510611/09/16 16:05:31  5-MIN KARA 092205Z 01010KT 10SM BKN050 23/13 A3012 -150 55 800 010/10 RMK AO2 T02280133
53915KARA ARA20161109161010611/09/16 16:10:31  5-MIN KARA 092210Z 02009KT 10SM SCT050 23/13 A3012 -150 55 800 020/09 RMK AO2 T02280133
53915KARA ARA20161110021510911/10/16 02:15:31  5-MIN KARA 100815Z AUTO 01006KT 10SM CLR 14/11 A3022 -240 83 -300 010/06 RMK AO2 T01390111
53915KARA ARA20161110022010911/10/16 02:20:31  5-MIN KARA 100820Z AUTO 01007KT 10SM CLR 14/11 A3022 -240 83 -300 010/07 RMK AO2 T01390111
53915KARA ARA20161110022510911/10/16 02:25:31  5-MIN KARA 100825Z AUTO 01007KT 10SM CLR 14/11 A3022 -240 83 -300 010/07 RMK AO2 T01390111
53915KARA ARA20161110023010911/10/16 02:30:31  5-MIN KARA 100830Z AUTO 36007KT 10SM CLR 14/11 A3022 -240 83 -300 360/07 RMK AO2 T01390111
53915KARA ARA20161110023510911/10/16 02:35:31  5-MIN KARA 100835Z AUTO 36008KT 10SM CLR 14/11 A3022 -240 80 -400 360/08 RMK AO2 T01390106
53915KARA ARA20161110024010911/10/16 02:40:31  5-MIN KARA 100840Z AUTO 36006KT 10SM CLR 14/11 A3022 -250 80 -400 360/06 RMK AO2 T01390106
53915KARA ARA20161110024510911/10/16 02:45:31  5-MIN KARA 100845Z AUTO 35006KT 10SM CLR 13/11 A3023 -250 83 -400 350/06 RMK AO2 T01330106
53915KARA ARA20161110025012211/10/16 02:50:31  5-MIN KARA 100850Z AUTO 36006KT 10SM CLR 13/11 A3023 -250 83 -400 350/06 RMK AO2 SLP235 T01330106 50004
53915KARA ARA20161110025510911/10/16 02:55:31  5-MIN KARA 100855Z AUTO 36006KT 10SM CLR 13/11 A3023 -250 83 -400 360/06 RMK AO2 T01330106
53915KARA ARA20161110030010911/10/16 03:00:31  5-MIN KARA 100900Z AUTO 36006KT 10SM CLR 13/11 A3023 -250 86 -500 360/06 RMK AO2 T01280106
53915KARA ARA20161110030510911/10/16 03:05:31  5-MIN KARA 100905Z AUTO 36005KT 10SM CLR 13/11 A3023 -250 86 -500 360/05 RMK AO2 T01280106
53915KARA ARA20161110031010911/10/16 03:10:31  5-MIN KARA 100910Z AUTO 01006KT 10SM CLR 13/11 A3023 -250 86 -500 010/06 RMK AO2 T01280106
53915KARA ARA20161110031510911/10/16 03:15:31  5-MIN KARA 100915Z AUTO 01006KT 10SM CLR 13/11 A3023 -250 86 -500 010/06 RMK AO2 T01280106
53915KARA ARA20161110032010911/10/16 03:20:31  5-MIN KARA 100920Z AUTO 01006KT 10SM CLR 13/11 A3023 -250 86 -500 010/06 RMK AO2 T01280106
53915KARA ARA20161110032510911/10/16 03:25:31  5-MIN KARA 100925Z AUTO 01007KT 10SM CLR 13/11 A3022 -250 86 -500 010/07 RMK AO2 T01280106
53915KARA ARA20161110033010911/10/16 03:30:31  5-MIN KARA 100930Z AUTO 01007KT 10SM CLR 13/11 A3022 -250 86 -500 010/07 RMK AO2 T01280106
53915KARA ARA20161110033510911/10/16 03:35:31  5-MIN KARA 100935Z AUTO 02008KT 10SM CLR 13/11 A3022 -250 86 -500 020/08 RMK AO2 T01280106
53915KARA ARA20161110034010911/10/16 03:40:31  5-MIN KARA 100940Z AUTO 02008KT 10SM CLR 13/11 A3022 -250 83 -400 020/08 RMK AO2 T01330106
53915KARA ARA20161110034510911/10/16 03:45:31  5-MIN KARA 100945Z AUTO 02008KT 10SM CLR 13/11 A3022 -250 83 -400 020/08 RMK AO2 T01330106
53915KARA ARA20161110035011611/10/16 03:50:31  5-MIN KARA 100950Z AUTO 02007KT 10SM CLR 13/11 A3022 -250 83 -400 020/07 RMK AO2 SLP233 T01330106
53915KARA ARA20161110035510911/10/16 03:55:31  5-MIN KARA 100955Z AUTO 02007KT 10SM CLR 13/11 A3022 -250 83 -400 020/07 RMK AO2 T01330106
53915KARA ARA20161110040010911/10/16 04:00:31  5-MIN KARA 101000Z AUTO 02007KT 10SM CLR 13/11 A3022 -250 83 -400 020/07 RMK AO2 T01330106
53915KARA ARA20161110040510911/10/16 04:05:31  5-MIN KARA 101005Z AUTO 02007KT 10SM CLR 13/11 A3022 -240 83 -400 020/07 RMK AO2 T01330106
53915KARA ARA20161110041010911/10/16 04:10:31  5-MIN KARA 101010Z AUTO 02007KT 10SM CLR 13/11 A3022 -240 83 -400 020/07 RMK AO2 T01330106
53915KARA ARA20161110041510911/10/16 04:15:31  5-MIN KARA 101015Z AUTO 03007KT 10SM CLR 13/10 A3022 -240 80 -400 030/07 RMK AO2 T01330100
53915KARA ARA20161110042010911/10/16 04:20:31  5-MIN KARA 101020Z AUTO 03008KT 10SM CLR 13/11 A3022 -240 83 -400 030/08 RMK AO2 T01330106
53915KARA ARA20161110042510911/10/16 04:25:31  5-MIN KARA 101025Z AUTO 02007KT 10SM CLR 13/10 A3022 -240 80 -400 020/07 RMK AO2 T01330100
53915KARA ARA20161110043010911/10/16 04:30:31  5-MIN KARA 101030Z AUTO 02007KT 10SM CLR 13/10 A3022 -240 80 -400 020/07 RMK AO2 T01330100
53915KARA ARA20161110043510911/10/16 04:35:31  5-MIN KARA 101035Z AUTO 01006KT 10SM CLR 13/10 A3022 -240 80 -400 010/06 RMK AO2 T01330100
53915KARA ARA20161110044010911/10/16 04:40:31  5-MIN KARA 101040Z AUTO 01006KT 10SM CLR 13/10 A3022 -250 83 -500 010/06 RMK AO2 T01280100
53915KARA ARA20161110044510911/10/16 04:45:31  5-MIN KARA 101045Z AUTO 36006KT 10SM CLR 13/10 A3022 -250 83 -500 360/06 RMK AO2 T01280100
53915KARA ARA20161110045011611/10/16 04:50:31  5-MIN KARA 101050Z AUTO 01006KT 10SM CLR 13/10 A3022 -250 83 -500 360/06 RMK AO2 SLP233 T01280100
53915KARA ARA20161110045510911/10/16 04:55:31  5-MIN KARA 101055Z AUTO 01006KT 10SM CLR 13/10 A3022 -250 83 -500 010/06 RMK AO2 T01280100
53915KARA ARA20161110050010911/10/16 05:00:31  5-MIN KARA 101100Z AUTO 01007KT 10SM CLR 13/10 A3022 -240 83 -500 010/07 RMK AO2 T01280100
53915KARA ARA20161110050510911/10/16 05:05:31  5-MIN KARA 101105Z AUTO 01007KT 10SM CLR 13/10 A3022 -240 83 -500 010/07 RMK AO2 T01280100
53915KARA ARA20161110051010911/10/16 05:10:31  5-MIN KARA 101110Z AUTO 01007KT 10SM CLR 13/10 A3022 -250 83 -500 010/07 RMK AO2 T01280100
53915KARA ARA20161110051510911/10/16 05:15:31  5-MIN KARA 101115Z AUTO 01006KT 10SM CLR 13/10 A3022 -250 83 -500 010/06 RMK AO2 T01280100
53915KARA ARA20161110052010911/10/16 05:20:31  5-MIN KARA 101120Z AUTO 36006KT 10SM CLR 13/10 A3023 -250 83 -500 360/06 RMK AO2 T01280100
53915KARA ARA20161110052510911/10/16 05:25:31  5-MIN KARA 101125Z AUTO 36006KT 10SM CLR 13/10 A3023 -250 83 -500 360/06 RMK AO2 T01280100
53915KARA ARA20161110053010911/10/16 05:30:31  5-MIN KARA 101130Z AUTO 01006KT 10SM CLR 12/09 A3023 -250 83 -600 010/06 RMK AO2 T01220094
53915KARA ARA20161110053510411/10/16 05:35:31  5-MIN KARA 101135Z 36007KT 10SM CLR 12/09 A3023 -250 83 -600 360/07 RMK AO2 T01220094
53915KARA ARA20161110054010411/10/16 05:40:31  5-MIN KARA 101140Z 01007KT 10SM CLR 12/09 A3023 -250 83 -600 360/07 RMK AO2 T01220094
53915KARA ARA20161110054510411/10/16 05:45:31  5-MIN KARA 101145Z 01006KT 10SM CLR 12/09 A3023 -250 83 -600 360/06 RMK AO2 T01220094
53915KARA ARA20161110055012911/10/16 05:50:31  5-MIN KARA 101150Z 36006KT 10SM CLR 12/09 A3023 -250 83 -600 360/06 RMK AO2 SLP235 T01220094 10161 20122 53004
53915KARA ARA20161110055510411/10/16 05:55:31  5-MIN KARA 101155Z 35005KT 10SM CLR 12/09 A3023 -260 83 -600 350/05 RMK AO2 T01220094
53915KARA ARA20161110060010411/10/16 06:00:31  5-MIN KARA 101200Z 35005KT 10SM CLR 12/09 A3023 -250 86 -600 350/05 RMK AO2 T01170094
53915KARA ARA20161110060510411/10/16 06:05:31  5-MIN KARA 101205Z 01005KT 10SM CLR 12/09 A3023 -250 86 -600 010/05 RMK AO2 T01170094
53915KARA ARA20161110061010411/10/16 06:10:31  5-MIN KARA 101210Z 36005KT 10SM CLR 12/09 A3023 -260 86 -600 360/05 RMK AO2 T01170094
53915KARA ARA20161110061510411/10/16 06:15:31  5-MIN KARA 101215Z 01005KT 10SM CLR 12/09 A3024 -260 86 -600 010/05 RMK AO2 T01170094
53915KARA ARA20161110062010411/10/16 06:20:31  5-MIN KARA 101220Z 02006KT 10SM CLR 12/09 A3024 -260 86 -600 010/06 RMK AO2 T01170094
53915KARA ARA20161110062510411/10/16 06:25:31  5-MIN KARA 101225Z 02006KT 10SM CLR 12/09 A3024 -260 86 -600 020/06 RMK AO2 T01170094
53915KARA ARA20161110063010411/10/16 06:30:31  5-MIN KARA 101230Z 02007KT 10SM CLR 12/09 A3024 -260 86 -600 020/07 RMK AO2 T01170094
53915KARA ARA20161110063510411/10/16 06:35:31  5-MIN KARA 101235Z 02007KT 10SM CLR 12/09 A3024 -260 83 -600 020/07 RMK AO2 T01220094
53915KARA ARA20161110064010411/10/16 06:40:31  5-MIN KARA 101240Z 03008KT 10SM CLR 12/09 A3024 -260 83 -600 030/08 RMK AO2 T01220094
53915KARA ARA20161110064510411/10/16 06:45:31  5-MIN KARA 101245Z 03008KT 10SM CLR 13/09 A3024 -260 80 -500 030/08 RMK AO2 T01280094
53915KARA ARA20161110065011111/10/16 06:50:31  5-MIN KARA 101250Z 03008KT 10SM CLR 13/09 A3024 -270 80 -500 030/08 RMK AO2 SLP240 T01280094
53915KARA ARA20161110065510411/10/16 06:55:31  5-MIN KARA 101255Z 02008KT 10SM CLR 13/09 A3025 -270 80 -500 020/08 RMK AO2 T01280094
53915KARA ARA20161110070010411/10/16 07:00:31  5-MIN KARA 101300Z 02007KT 10SM CLR 13/09 A3025 -270 77 -500 020/07 RMK AO2 T01330094
53915KARA ARA20161110070510411/10/16 07:05:31  5-MIN KARA 101305Z 02006KT 10SM CLR 13/09 A3025 -280 77 -500 020/06 RMK AO2 T01330094
53915KARA ARA20161110071010411/10/16 07:10:31  5-MIN KARA 101310Z 03006KT 10SM CLR 13/09 A3026 -280 77 -500 030/06 RMK AO2 T01330094
53915KARA ARA20161110071510411/10/16 07:15:31  5-MIN KARA 101315Z 03008KT 10SM CLR 14/09 A3026 -280 74 -400 030/08 RMK AO2 T01390094
53915KARA ARA20161110072010411/10/16 07:20:31  5-MIN KARA 101320Z 04008KT 10SM CLR 14/09 A3026 -280 74 -400 040/08 RMK AO2 T01390094
53915KARA ARA20161110072510411/10/16 07:25:31  5-MIN KARA 101325Z 04010KT 10SM CLR 14/09 A3026 -280 74 -400 040/10 RMK AO2 T01390094
53915KARA ARA20161110073010411/10/16 07:30:31  5-MIN KARA 101330Z 04008KT 10SM CLR 14/09 A3026 -280 74 -400 040/08 RMK AO2 T01390094
53915KARA ARA20161110073510411/10/16 07:35:31  5-MIN KARA 101335Z 05008KT 10SM CLR 14/09 A3026 -280 74 -400 050/08 RMK AO2 T01390094
53915KARA ARA20161110074010411/10/16 07:40:31  5-MIN KARA 101340Z 04009KT 10SM CLR 14/09 A3026 -280 74 -400 030/09 RMK AO2 T01390094
53915KARA ARA20161110074510411/10/16 07:45:31  5-MIN KARA 101345Z 04009KT 10SM CLR 14/09 A3026 -280 74 -400 040/09 RMK AO2 T01390094
53915KARA ARA20161110075011111/10/16 07:50:31  5-MIN KARA 101350Z 04009KT 10SM CLR 14/09 A3027 -290 72 -300 040/09 RMK AO2 SLP248 T01440094
53915KARA ARA20161110075510411/10/16 07:55:31  5-MIN KARA 101355Z 04009KT 10SM CLR 14/09 A3027 -290 72 -300 040/09 RMK AO2 T01440094
53915KARA ARA20161110080010411/10/16 08:00:31  5-MIN KARA 101400Z 05007KT 10SM CLR 14/09 A3027 -290 72 -300 050/07 RMK AO2 T01440094
53915KARA ARA20161110080510411/10/16 08:05:31  5-MIN KARA 101405Z 05007KT 10SM CLR 14/09 A3027 -290 72 -300 050/07 RMK AO2 T01440094
53915KARA ARA20161110081010411/10/16 08:10:31  5-MIN KARA 101410Z 05006KT 10SM CLR 15/09 A3028 -300 69 -300 050/06 RMK AO2 T01500094
53915KARA ARA20161110081510411/10/16 08:15:31  5-MIN KARA 101415Z 05006KT 10SM CLR 15/09 A3028 -300 69 -300 050/06 RMK AO2 T01500094
53915KARA ARA20161110082010411/10/16 08:20:31  5-MIN KARA 101420Z 06007KT 10SM CLR 16/09 A3028 -300 67 -200 060/07 RMK AO2 T01560094
53915KARA ARA20161110082510411/10/16 08:25:31  5-MIN KARA 101425Z 06005KT 10SM CLR 16/09 A3028 -300 67 -200 060/05 RMK AO2 T01560094
53915KARA ARA20161110083010411/10/16 08:30:31  5-MIN KARA 101430Z 06007KT 10SM CLR 16/09 A3027 -290 67 -200 060/07 RMK AO2 T01560094
53915KARA ARA20161110083510411/10/16 08:35:31  5-MIN KARA 101435Z 05006KT 10SM CLR 16/09 A3027 -290 64 -100 050/06 RMK AO2 T01610094
53915KARA ARA20161110084010411/10/16 08:40:31  5-MIN KARA 101440Z 05007KT 10SM CLR 16/09 A3027 -290 64 -100 050/07 RMK AO2 T01610094
53915KARA ARA20161110084510411/10/16 08:45:31  5-MIN KARA 101445Z 05006KT 10SM CLR 16/09 A3027 -290 64 -100 050/06 RMK AO2 T01610094
53915KARA ARA20161110085011711/10/16 08:50:31  5-MIN KARA 101450Z 05008KT 10SM CLR 17/09 A3028 -300 62 -100 050/08 RMK AO2 SLP251 T01670094 53001
53915KARA ARA20161110085510411/10/16 08:55:31  5-MIN KARA 101455Z 06006KT 10SM CLR 17/09 A3028 -300 62 -100 050/06 RMK AO2 T01670094
53915KARA ARA20161110090010111/10/16 09:00:31  5-MIN KARA 101500Z 05007KT 10SM CLR 17/09 A3028 -300 60 0 050/07 RMK AO2 T01720094
53915KARA ARA20161110090510111/10/16 09:05:31  5-MIN KARA 101505Z 05007KT 10SM CLR 17/09 A3028 -300 60 0 050/07 RMK AO2 T01720094
53915KARA ARA20161110091010111/10/16 09:10:31  5-MIN KARA 101510Z 04008KT 10SM CLR 17/09 A3028 -300 60 0 040/08 RMK AO2 T01720094
53915KARA ARA20161110091510111/10/16 09:15:31  5-MIN KARA 101515Z 04007KT 10SM CLR 18/09 A3028 -300 58 0 040/07 RMK AO2 T01780094
53915KARA ARA20161110092010111/10/16 09:20:31  5-MIN KARA 101520Z 05009KT 10SM CLR 18/09 A3028 -300 55 0 050/09 RMK AO2 T01780089
53915KARA ARA20161110092510111/10/16 09:25:31  5-MIN KARA 101525Z 07007KT 10SM CLR 17/09 A3028 -300 57 0 070/07 RMK AO2 T01720089
53915KARA ARA20161110093010311/10/16 09:30:31  5-MIN KARA 101530Z 05009KT 10SM CLR 18/09 A3028 -300 54 100 040/09 RMK AO2 T01830089
53915KARA ARA20161110093510311/10/16 09:35:31  5-MIN KARA 101535Z 05007KT 10SM CLR 18/09 A3028 -300 54 100 050/07 RMK AO2 T01830089
53915KARA ARA20161110094010311/10/16 09:40:31  5-MIN KARA 101540Z 07006KT 10SM CLR 18/09 A3028 -300 54 100 070/06 RMK AO2 T01830089
53915KARA ARA20161110094510311/10/16 09:45:31  5-MIN KARA 101545Z 05006KT 10SM CLR 18/09 A3029 -300 54 100 050/06 RMK AO2 T01830089
53915KARA ARA20161110095010911/10/16 09:50:31  5-MIN KARA 101550Z 05008KT 7SM CLR 18/09 A3028 -300 54 100 050/08 RMK AO2 SLP254 T01830089
53915KARA ARA20161110095510511/10/16 09:55:31  5-MIN KARA 101555Z 06006KT 4SM HZ CLR 18/09 A3028 -300 54 100 060/06 RMK AO2 T01830089
53915KARA ARA20161110100010511/10/16 10:00:31  5-MIN KARA 101600Z 04007KT 4SM HZ CLR 19/09 A3029 -310 52 100 040/07 RMK AO2 T01890089
53915KARA ARA20161110100510511/10/16 10:05:31  5-MIN KARA 101605Z 04007KT 4SM HZ CLR 19/09 A3028 -300 52 100 040/07 RMK AO2 T01890089
53915KARA ARA20161110101010511/10/16 10:10:31  5-MIN KARA 101610Z 04006KT 4SM HZ CLR 19/09 A3028 -300 52 100 040/06 RMK AO2 T01890089
53915KARA ARA20161110101510511/10/16 10:15:31  5-MIN KARA 101615Z 04007KT 4SM HZ CLR 19/09 A3028 -300 50 200 040/07 RMK AO2 T01940089
53915KARA ARA20161110102010511/10/16 10:20:31  5-MIN KARA 101620Z VRB05KT 4SM HZ CLR 19/09 A3028 -300 50 200 VRB/05 RMK AO2 T01940089
53915KARA ARA20161110102510511/10/16 10:25:31  5-MIN KARA 101625Z 04006KT 6SM HZ CLR 19/09 A3028 -300 50 200 040/06 RMK AO2 T01940089
53915KARA ARA20161110103010211/10/16 10:30:31  5-MIN KARA 101630Z 03006KT 9SM CLR 20/09 A3028 -300 48 300 030/06 RMK AO2 T02000089
53915KARA ARA20161110103510311/10/16 10:35:31  5-MIN KARA 101635Z 04005KT 10SM CLR 21/09 A3028 -300 46 300 040/05 RMK AO2 T02060089
53915KARA ARA20161110104010311/10/16 10:40:31  5-MIN KARA 101640Z 03008KT 10SM CLR 21/09 A3028 -300 46 300 030/08 RMK AO2 T02060089
53915KARA ARA20161110104510311/10/16 10:45:31  5-MIN KARA 101645Z 04008KT 10SM CLR 21/09 A3027 -290 46 300 040/08 RMK AO2 T02060089
53915KARA ARA20161110105011011/10/16 10:50:31  5-MIN KARA 101650Z 03006KT 10SM CLR 21/09 A3027 -290 46 300 030/06 RMK AO2 SLP250 T02060089
53915KARA ARA20161110105510311/10/16 10:55:31  5-MIN KARA 101655Z 03006KT 10SM CLR 21/09 A3027 -290 45 400 030/06 RMK AO2 T02110089
53915KARA ARA20161110110010311/10/16 11:00:31  5-MIN KARA 101700Z 05006KT 10SM CLR 21/09 A3027 -290 45 400 040/06 RMK AO2 T02110089
53915KARA ARA20161110110510311/10/16 11:05:31  5-MIN KARA 101705Z 05007KT 10SM CLR 21/09 A3026 -280 45 400 050/07 RMK AO2 T02110089
53915KARA ARA20161110111010311/10/16 11:10:31  5-MIN KARA 101710Z VRB06KT 10SM CLR 21/09 A3026 -280 45 400 VRB/06 RMK AO2 T02110089
53915KARA ARA20161110111509311/10/16 11:15:31  5-MIN KARA 101715Z 10SM CLR 21/09 A3026 -290 45 400 M /M RMK AO2 T02110089
53915KARA ARA20161110112011911/10/16 11:20:31  5-MIN KARA 101720Z 04007KT 360V060 10SM CLR 21/09 A3026 -280 45 400 040/07 360V060 RMK AO2 T02110089
53915KARA ARA20161110112510311/10/16 11:25:31  5-MIN KARA 101725Z 02006KT 10SM CLR 21/09 A3026 -280 45 400 020/06 RMK AO2 T02110089
53915KARA ARA20161110113010311/10/16 11:30:31  5-MIN KARA 101730Z VRB06KT 10SM CLR 22/09 A3025 -270 45 500 VRB/06 RMK AO2 T02170094
53915KARA ARA20161110113510311/10/16 11:35:31  5-MIN KARA 101735Z 01007KT 10SM CLR 22/09 A3025 -270 45 500 010/07 RMK AO2 T02170094
53915KARA ARA20161110114010311/10/16 11:40:31  5-MIN KARA 101740Z 36005KT 10SM CLR 22/09 A3025 -270 45 500 360/05 RMK AO2 T02170094
53915KARA ARA20161110114511911/10/16 11:45:31  5-MIN KARA 101745Z 35007KT 320V020 10SM CLR 22/09 A3025 -270 45 500 350/07 320V020 RMK AO2 T02170094
53915KARA ARA20161110115012811/10/16 11:50:31  5-MIN KARA 101750Z 01007KT 10SM CLR 22/09 A3025 -270 45 500 010/07 RMK AO2 SLP241 T02170094 10217 20117 51016
53915KARA ARA20161110115510311/10/16 11:55:31  5-MIN KARA 101755Z 04005KT 10SM CLR 22/09 A3024 -260 43 500 040/05 RMK AO2 T02170089
53915KARA ARA20161110120009311/10/16 12:00:31  5-MIN KARA 101800Z 10SM CLR 22/09 A3024 -260 43 500 M /M RMK AO2 T02170089
53915KARA ARA20161110120510311/10/16 12:05:31  5-MIN KARA 101805Z 06006KT 10SM CLR 22/09 A3024 -260 43 500 060/06 RMK AO2 T02170089
53915KARA ARA20161110121010311/10/16 12:10:31  5-MIN KARA 101810Z 02007KT 10SM CLR 22/09 A3024 -260 43 500 020/07 RMK AO2 T02170089
53915KARA ARA20161110121510311/10/16 12:15:31  5-MIN KARA 101815Z 06004KT 10SM CLR 22/09 A3023 -260 43 500 060/04 RMK AO2 T02170089
53915KARA ARA20161110122010311/10/16 12:20:31  5-MIN KARA 101820Z VRB05KT 10SM CLR 22/09 A3023 -260 43 500 VRB/05 RMK AO2 T02170089
53915KARA ARA20161110122510311/10/16 12:25:31  5-MIN KARA 101825Z VRB06KT 10SM CLR 22/09 A3023 -250 43 500 VRB/06 RMK AO2 T02170089
53915KARA ARA20161110123010311/10/16 12:30:31  5-MIN KARA 101830Z 05005KT 10SM CLR 22/09 A3023 -250 43 500 050/05 RMK AO2 T02170089
53915KARA ARA20161110123510311/10/16 12:35:31  5-MIN KARA 101835Z 04008KT 10SM CLR 22/09 A3023 -250 43 500 040/08 RMK AO2 T02170089
53915KARA ARA20161110124010311/10/16 12:40:31  5-MIN KARA 101840Z 04008KT 10SM CLR 22/09 A3023 -250 43 500 040/08 RMK AO2 T02170089
53915KARA ARA20161110124510311/10/16 12:45:31  5-MIN KARA 101845Z VRB03KT 10SM CLR 22/09 A3022 -250 43 500 VRB/03 RMK AO2 T02170089
53915KARA ARA20161110125011011/10/16 12:50:31  5-MIN KARA 101850Z 02005KT 10SM CLR 22/09 A3022 -250 42 600 020/05 RMK AO2 SLP233 T02220089
53915KARA ARA20161110125510311/10/16 12:55:31  5-MIN KARA 101855Z 04008KT 10SM CLR 22/08 A3022 -240 40 600 040/08 RMK AO2 T02220083
53915KARA ARA20161110130010311/10/16 13:00:31  5-MIN KARA 101900Z 03007KT 10SM CLR 22/08 A3021 -240 40 600 020/07 RMK AO2 T02220083
53915KARA ARA20161110130510311/10/16 13:05:31  5-MIN KARA 101905Z VRB05KT 10SM CLR 22/09 A3021 -240 43 500 VRB/05 RMK AO2 T02170089
53915KARA ARA20161110131010311/10/16 13:10:31  5-MIN KARA 101910Z 02005KT 10SM CLR 22/09 A3021 -240 42 600 020/05 RMK AO2 T02220089
53915KARA ARA20161110131510311/10/16 13:15:31  5-MIN KARA 101915Z 01008KT 10SM CLR 22/09 A3021 -230 43 600 010/08 RMK AO2 T02220094
53915KARA ARA20161110132010311/10/16 13:20:31  5-MIN KARA 101920Z 34006KT 10SM CLR 22/09 A3020 -230 43 500 330/06 RMK AO2 T02170089
53915KARA ARA20161110132510311/10/16 13:25:31  5-MIN KARA 101925Z 02007KT 10SM CLR 22/09 A3020 -230 43 600 020/07 RMK AO2 T02220094
53915KARA ARA20161110133010311/10/16 13:30:31  5-MIN KARA 101930Z 01005KT 10SM CLR 22/09 A3020 -230 43 500 010/05 RMK AO2 T02170089
53915KARA ARA20161110133510311/10/16 13:35:31  5-MIN KARA 101935Z 03007KT 10SM CLR 22/09 A3020 -230 42 600 030/07 RMK AO2 T02220089
53915KARA ARA20161110134010311/10/16 13:40:31  5-MIN KARA 101940Z 02008KT 10SM CLR 22/09 A3020 -230 42 600 020/08 RMK AO2 T02220089
53915KARA ARA20161110134510311/10/16 13:45:31  5-MIN KARA 101945Z 01008KT 10SM CLR 22/08 A3020 -220 42 500 010/08 RMK AO2 T02170083
53915KARA ARA20161110135011011/10/16 13:50:31  5-MIN KARA 101950Z 01006KT 10SM CLR 22/08 A3020 -220 42 500 010/06 RMK AO2 SLP225 T02170083
53915KARA ARA20161110135510311/10/16 13:55:31  5-MIN KARA 101955Z 36010KT 10SM CLR 22/08 A3019 -220 42 500 360/10 RMK AO2 T02170083
53915KARA ARA20161110140010311/10/16 14:00:31  5-MIN KARA 102000Z 36009KT 10SM CLR 21/08 A3019 -220 43 500 360/09 RMK AO2 T02110083
53915KARA ARA20161110140510311/10/16 14:05:31  5-MIN KARA 102005Z 01007KT 10SM CLR 21/08 A3019 -220 43 500 010/07 RMK AO2 T02110083
53915KARA ARA20161110141010311/10/16 14:10:31  5-MIN KARA 102010Z 02009KT 10SM CLR 22/08 A3019 -210 42 500 020/09 RMK AO2 T02170083
53915KARA ARA20161110141510311/10/16 14:15:31  5-MIN KARA 102015Z 36008KT 10SM CLR 22/08 A3019 -220 42 500 360/08 RMK AO2 T02170083
53915KARA ARA20161110142010311/10/16 14:20:31  5-MIN KARA 102020Z 01009KT 10SM CLR 22/07 A3019 -220 39 500 010/09 RMK AO2 T02170072
53915KARA ARA20161110142510311/10/16 14:25:31  5-MIN KARA 102025Z 36008KT 10SM CLR 22/08 A3019 -220 40 500 360/08 RMK AO2 T02170078
53915KARA ARA20161110143010311/10/16 14:30:31  5-MIN KARA 102030Z 34007KT 10SM CLR 22/08 A3019 -220 40 500 340/07 RMK AO2 T02170078
53915KARA ARA20161110143510811/10/16 14:35:31  5-MIN KARA 102035Z AUTO 36007KT 10SM CLR 22/08 A3019 -220 42 500 360/07 RMK AO2 T02170083
53915KARA ARA20161110144010811/10/16 14:40:31  5-MIN KARA 102040Z AUTO 03007KT 10SM CLR 22/08 A3019 -220 40 500 030/07 RMK AO2 T02170078
53915KARA ARA20161110144510811/10/16 14:45:31  5-MIN KARA 102045Z AUTO 36006KT 10SM CLR 22/08 A3020 -220 39 600 360/06 RMK AO2 T02220078
53915KARA ARA20161110145011611/10/16 14:50:31  5-MIN KARA 102050Z 34006KT 10SM CLR 22/08 A3020 -220 40 500 340/06 RMK AO2 SLP225 T02170078 58012
53915KARA ARA20161110145510311/10/16 14:55:31  5-MIN KARA 102055Z 36006KT 10SM CLR 22/08 A3020 -230 40 500 360/06 RMK AO2 T02170078
53915KARA ARA20161110150010311/10/16 15:00:31  5-MIN KARA 102100Z 03007KT 10SM CLR 22/07 A3020 -220 39 500 030/07 RMK AO2 T02170072
53915KARA ARA20161110150510311/10/16 15:05:31  5-MIN KARA 102105Z 02010KT 10SM CLR 22/07 A3020 -220 37 600 020/10 RMK AO2 T02220072
53915KARA ARA20161110151010311/10/16 15:10:31  5-MIN KARA 102110Z 02008KT 10SM CLR 22/08 A3020 -220 40 500 020/08 RMK AO2 T02170078
53915KARA ARA20161110151510311/10/16 15:15:31  5-MIN KARA 102115Z 01007KT 10SM CLR 22/08 A3020 -230 40 500 010/07 RMK AO2 T02170078
53915KARA ARA20161110152010311/10/16 15:20:31  5-MIN KARA 102120Z 01007KT 10SM CLR 22/07 A3020 -230 39 500 010/07 RMK AO2 T02170072
53915KARA ARA20161110152510311/10/16 15:25:31  5-MIN KARA 102125Z 02007KT 10SM CLR 21/07 A3020 -230 40 500 020/07 RMK AO2 T02110072
53915KARA ARA20161110153010311/10/16 15:30:31  5-MIN KARA 102130Z 03007KT 10SM CLR 21/07 A3020 -220 40 500 030/07 RMK AO2 T02110072
53915KARA ARA20161110153510311/10/16 15:35:31  5-MIN KARA 102135Z 03007KT 10SM CLR 21/07 A3020 -220 40 500 030/07 RMK AO2 T02110072
53915KARA ARA20161110154010311/10/16 15:40:31  5-MIN KARA 102140Z 02007KT 10SM CLR 21/07 A3020 -230 38 500 020/07 RMK AO2 T02110067
53915KARA ARA20161110154510311/10/16 15:45:31  5-MIN KARA 102145Z 04008KT 10SM CLR 21/07 A3020 -230 41 400 040/08 RMK AO2 T02060072
53915KARA ARA20161110155011011/10/16 15:50:31  5-MIN KARA 102150Z 02007KT 10SM CLR 21/07 A3020 -230 41 400 020/07 RMK AO2 SLP226 T02060072
53915KARA ARA20161110155510311/10/16 15:55:31  5-MIN KARA 102155Z 02007KT 10SM CLR 21/07 A3020 -230 41 400 010/07 RMK AO2 T02060072
53915KARA ARA20161110160010311/10/16 16:00:31  5-MIN KARA 102200Z 02009KT 10SM CLR 21/07 A3020 -220 40 400 020/09 RMK AO2 T02060067
53915KARA ARA20161110160510311/10/16 16:05:31  5-MIN KARA 102205Z 02007KT 10SM CLR 21/07 A3019 -220 41 400 020/07 RMK AO2 T02060072
53915KARA ARA20161110161010311/10/16 16:10:31  5-MIN KARA 102210Z 03008KT 10SM CLR 21/07 A3019 -220 41 400 030/08 RMK AO2 T02060072
53915KARA ARA20161110161510311/10/16 16:15:31  5-MIN KARA 102215Z 03007KT 10SM CLR 20/08 A3019 -220 45 300 020/07 RMK AO2 T02000078
53915KARA ARA20161110162010311/10/16 16:20:31  5-MIN KARA 102220Z 01008KT 10SM CLR 20/08 A3020 -220 45 300 010/08 RMK AO2 T02000078
53915KARA ARA20161110162510311/10/16 16:25:31  5-MIN KARA 102225Z 01008KT 10SM CLR 20/08 A3019 -220 45 300 010/08 RMK AO2 T02000078
53915KARA ARA20161110163010311/10/16 16:30:31  5-MIN KARA 102230Z 01007KT 10SM CLR 20/08 A3019 -220 45 400 010/07 RMK AO2 T02000078
53915KARA ARA20161110163510311/10/16 16:35:31  5-MIN KARA 102235Z 01007KT 10SM CLR 19/08 A3019 -220 48 300 010/07 RMK AO2 T01940083
53915KARA ARA20161110164010311/10/16 16:40:31  5-MIN KARA 102240Z 01006KT 10SM CLR 19/08 A3019 -220 48 300 010/06 RMK AO2 T01940083
53915KARA ARA20161110164510311/10/16 16:45:31  5-MIN KARA 102245Z 01007KT 10SM CLR 19/08 A3020 -220 48 300 010/07 RMK AO2 T01940083
53915KARA ARA20161110165011011/10/16 16:50:31  5-MIN KARA 102250Z 01006KT 10SM CLR 19/08 A3020 -220 50 200 010/06 RMK AO2 SLP225 T01890083
53915KARA ARA20161110165510311/10/16 16:55:31  5-MIN KARA 102255Z 01006KT 10SM CLR 19/08 A3020 -230 50 200 010/06 RMK AO2 T01890083
53915KARA ARA20161110170010311/10/16 17:00:31  5-MIN KARA 102300Z 36005KT 10SM CLR 18/08 A3020 -230 52 100 360/05 RMK AO2 T01830083
53915KARA ARA20161110170510311/10/16 17:05:31  5-MIN KARA 102305Z 01005KT 10SM CLR 18/08 A3020 -230 53 100 010/05 RMK AO2 T01780083
53915KARA ARA20161110171010311/10/16 17:10:31  5-MIN KARA 102310Z 01004KT 10SM CLR 18/09 A3020 -230 55 100 010/04 RMK AO2 T01780089
53915KARA ARA20161110171510311/10/16 17:15:31  5-MIN KARA 102315Z 01004KT 10SM CLR 18/09 A3020 -230 55 100 010/04 RMK AO2 T01780089
53915KARA ARA20161110172010311/10/16 17:20:31  5-MIN KARA 102320Z 02005KT 10SM CLR 18/09 A3020 -230 55 100 020/05 RMK AO2 T01780089
53915KARA ARA20161110172510111/10/16 17:25:31  5-MIN KARA 102325Z 01005KT 10SM CLR 17/09 A3020 -230 57 0 010/05 RMK AO2 T01720089
53915KARA ARA20161110173010111/10/16 17:30:31  5-MIN KARA 102330Z 01005KT 10SM CLR 17/09 A3021 -230 57 0 010/05 RMK AO2 T01720089
53915KARA ARA20161110173510111/10/16 17:35:31  5-MIN KARA 102335Z 01005KT 10SM CLR 17/09 A3020 -230 57 0 010/05 RMK AO2 T01720089
53915KARA ARA20161110174010111/10/16 17:40:31  5-MIN KARA 102340Z 01005KT 10SM CLR 17/09 A3020 -230 57 0 010/05 RMK AO2 T01720089
53915KARA ARA20161110174510111/10/16 17:45:31  5-MIN KARA 102345Z 02006KT 10SM CLR 17/09 A3020 -230 60 0 020/06 RMK AO2 T01670089
53915KARA ARA20161110175012911/10/16 17:50:31  5-MIN KARA 102350Z 02006KT 10SM CLR 16/09 A3020 -230 62 -100 010/06 RMK AO2 SLP225 T01610089 10222 20161 55015
53915KARA ARA20161110175510111/10/16 17:55:31  5-MIN KARA 102355Z 01006KT 10SM CLR 17/09 A3020 -230 62 0 010/06 RMK AO2 T01670094
53915KARA ARA20161110180010111/10/16 18:00:31  5-MIN KARA 110000Z 36005KT 10SM CLR 17/09 A3020 -230 60 0 360/05 RMK AO2 T01670089
53915KARA ARA20161110180510411/10/16 18:05:31  5-MIN KARA 110005Z 36006KT 10SM CLR 16/09 A3020 -230 62 -100 360/06 RMK AO2 T01610089
53915KARA ARA20161110181010411/10/16 18:10:31  5-MIN KARA 110010Z 36005KT 10SM CLR 16/09 A3020 -230 64 -100 360/05 RMK AO2 T01610094
53915KARA ARA20161110181510411/10/16 18:15:31  5-MIN KARA 110015Z 36006KT 10SM CLR 16/09 A3020 -230 64 -100 350/06 RMK AO2 T01610094
53915KARA ARA20161110182010411/10/16 18:20:31  5-MIN KARA 110020Z 36006KT 10SM CLR 16/09 A3020 -230 64 -100 360/06 RMK AO2 T01610094
53915KARA ARA20161110182510411/10/16 18:25:31  5-MIN KARA 110025Z 36005KT 10SM CLR 16/09 A3020 -230 67 -100 360/05 RMK AO2 T01560094
53915KARA ARA20161110183010411/10/16 18:30:31  5-MIN KARA 110030Z 36005KT 10SM CLR 16/09 A3020 -220 67 -100 360/05 RMK AO2 T01560094
53915KARA ARA20161110183510411/10/16 18:35:31  5-MIN KARA 110035Z 01005KT 10SM CLR 16/09 A3020 -220 67 -100 010/05 RMK AO2 T01560094
53915KARA ARA20161110184010411/10/16 18:40:31  5-MIN KARA 110040Z 02003KT 10SM CLR 16/09 A3020 -230 67 -100 020/03 RMK AO2 T01560094
53915KARA ARA20161110184510411/10/16 18:45:31  5-MIN KARA 110045Z 00000KT 10SM CLR 16/09 A3021 -230 67 -100 000/00 RMK AO2 T01560094
53915KARA ARA20161110185011111/10/16 18:50:31  5-MIN KARA 110050Z 00000KT 10SM CLR 16/09 A3021 -230 67 -100 000/00 RMK AO2 SLP228 T01560094
53915KARA ARA20161110185510411/10/16 18:55:31  5-MIN KARA 110055Z 29003KT 10SM CLR 15/10 A3021 -230 72 -200 280/03 RMK AO2 T01500100
53915KARA ARA20161110190010411/10/16 19:00:31  5-MIN KARA 110100Z 30003KT 10SM CLR 15/10 A3021 -240 72 -200 300/03 RMK AO2 T01500100
53915KARA ARA20161110190510411/10/16 19:05:31  5-MIN KARA 110105Z 33003KT 10SM CLR 15/10 A3021 -240 72 -200 330/03 RMK AO2 T01500100
53915KARA ARA20161110191010411/10/16 19:10:31  5-MIN KARA 110110Z 35003KT 10SM CLR 16/10 A3021 -240 69 -100 350/03 RMK AO2 T01560100
53915KARA ARA20161110191510411/10/16 19:15:31  5-MIN KARA 110115Z 36004KT 10SM CLR 16/09 A3021 -240 64 -100 360/04 RMK AO2 T01610094
53915KARA ARA20161110192010411/10/16 19:20:31  5-MIN KARA 110120Z 01004KT 10SM CLR 16/09 A3021 -240 62 -100 010/04 RMK AO2 T01610089
53915KARA ARA20161110192510411/10/16 19:25:31  5-MIN KARA 110125Z 36004KT 10SM CLR 16/09 A3021 -240 64 -100 360/04 RMK AO2 T01560089
53915KARA ARA20161110193010411/10/16 19:30:31  5-MIN KARA 110130Z 34003KT 10SM CLR 15/09 A3022 -250 69 -200 340/03 RMK AO2 T01500094
53915KARA ARA20161110193510411/10/16 19:35:31  5-MIN KARA 110135Z 33004KT 10SM CLR 15/10 A3022 -250 72 -200 330/04 RMK AO2 T01500100
53915KARA ARA20161110194010411/10/16 19:40:31  5-MIN KARA 110140Z 34004KT 10SM CLR 14/10 A3022 -250 74 -300 340/04 RMK AO2 T01440100
53915KARA ARA20161110194510411/10/16 19:45:31  5-MIN KARA 110145Z 35005KT 10SM CLR 15/10 A3022 -250 72 -200 350/05 RMK AO2 T01500100
53915KARA ARA20161110195011111/10/16 19:50:31  5-MIN KARA 110150Z 35004KT 10SM CLR 14/10 A3022 -240 74 -300 350/04 RMK AO2 SLP232 T01440100
53915KARA ARA20161110195510411/10/16 19:55:31  5-MIN KARA 110155Z 35003KT 10SM CLR 14/10 A3022 -240 74 -300 340/03 RMK AO2 T01440100
53915KARA ARA20161110200010411/10/16 20:00:31  5-MIN KARA 110200Z 34004KT 10SM CLR 14/10 A3022 -250 74 -300 340/04 RMK AO2 T01440100
53915KARA ARA20161110200510411/10/16 20:05:31  5-MIN KARA 110205Z 34004KT 10SM CLR 14/10 A3022 -250 74 -300 340/04 RMK AO2 T01440100
53915KARA ARA20161110201010411/10/16 20:10:31  5-MIN KARA 110210Z 33004KT 10SM CLR 14/10 A3023 -250 74 -300 330/04 RMK AO2 T01440100
53915KARA ARA20161110201510411/10/16 20:15:31  5-MIN KARA 110215Z 30004KT 10SM CLR 14/10 A3023 -250 77 -400 300/04 RMK AO2 T01390100
53915KARA ARA20161110202010411/10/16 20:20:31  5-MIN KARA 110220Z 29004KT 10SM CLR 14/10 A3023 -260 77 -400 290/04 RMK AO2 T01390100
53915KARA ARA20161110202510411/10/16 20:25:31  5-MIN KARA 110225Z 27003KT 10SM CLR 14/10 A3024 -260 77 -400 260/03 RMK AO2 T01390100
53915KARA ARA20161110203010411/10/16 20:30:31  5-MIN KARA 110230Z 25004KT 10SM CLR 14/09 A3024 -260 74 -400 250/04 RMK AO2 T01390094
53915KARA ARA20161110203510411/10/16 20:35:31  5-MIN KARA 110235Z 25005KT 10SM CLR 14/09 A3024 -270 74 -400 240/05 RMK AO2 T01390094
53915KARA ARA20161110204010411/10/16 20:40:31  5-MIN KARA 110240Z 26004KT 10SM CLR 14/09 A3024 -260 74 -400 260/04 RMK AO2 T01390094
53915KARA ARA20161110204510911/10/16 20:45:31  5-MIN KARA 110245Z AUTO 28004KT 10SM CLR 14/10 A3024 -260 77 -400 280/04 RMK AO2 T01390100
53915KARA ARA20161110205012211/10/16 20:50:31  5-MIN KARA 110250Z AUTO 30003KT 10SM CLR 14/10 A3024 -260 77 -400 300/03 RMK AO2 SLP238 T01390100 50000
53915KARA ARA20161110205510911/10/16 20:55:31  5-MIN KARA 110255Z AUTO 30003KT 10SM CLR 14/10 A3024 -260 77 -400 300/03 RMK AO2 T01390100
53915KARA ARA20161110210010911/10/16 21:00:31  5-MIN KARA 110300Z AUTO 00000KT 10SM CLR 14/09 A3024 -260 74 -400 000/00 RMK AO2 T01390094
53915KARA ARA20161110210510911/10/16 21:05:31  5-MIN KARA 110305Z AUTO 00000KT 10SM CLR 13/09 A3024 -260 77 -400 000/00 RMK AO2 T01330094
53915KARA ARA20161110211010911/10/16 21:10:31  5-MIN KARA 110310Z AUTO 34003KT 10SM CLR 14/09 A3024 -260 74 -400 340/03 RMK AO2 T01390094
53915KARA ARA20161110211510911/10/16 21:15:31  5-MIN KARA 110315Z AUTO 34003KT 10SM CLR 14/09 A3023 -260 74 -400 340/03 RMK AO2 T01390094
53915KARA ARA20161110212010911/10/16 21:20:31  5-MIN KARA 110320Z AUTO 35004KT 10SM CLR 13/09 A3023 -260 77 -400 350/04 RMK AO2 T01330094
53915KARA ARA20161110212510911/10/16 21:25:31  5-MIN KARA 110325Z AUTO 35004KT 10SM CLR 13/09 A3023 -260 77 -400 350/04 RMK AO2 T01330094
53915KARA ARA20161110213010911/10/16 21:30:31  5-MIN KARA 110330Z AUTO 34003KT 10SM CLR 13/09 A3023 -260 74 -400 340/03 RMK AO2 T01330089
53915KARA ARA20161110213510911/10/16 21:35:31  5-MIN KARA 110335Z AUTO 00000KT 10SM CLR 13/09 A3023 -260 77 -400 000/00 RMK AO2 T01330094
53915KARA ARA20161110214010911/10/16 21:40:31  5-MIN KARA 110340Z AUTO 00000KT 10SM CLR 13/10 A3023 -260 80 -400 000/00 RMK AO2 T01330100
53915KARA ARA20161110214510911/10/16 21:45:31  5-MIN KARA 110345Z AUTO 00000KT 10SM CLR 13/10 A3023 -250 83 -500 000/00 RMK AO2 T01280100
53915KARA ARA20161110215011611/10/16 21:50:31  5-MIN KARA 110350Z AUTO 00000KT 10SM CLR 12/10 A3023 -260 86 -600 000/00 RMK AO2 SLP237 T01220100
53915KARA ARA20161110215510911/10/16 21:55:31  5-MIN KARA 110355Z AUTO 31003KT 10SM CLR 13/10 A3023 -250 83 -500 310/03 RMK AO2 T01280100
53915KARA ARA20161110220010911/10/16 22:00:31  5-MIN KARA 110400Z AUTO 00000KT 10SM CLR 13/10 A3023 -250 83 -500 000/00 RMK AO2 T01280100
53915KARA ARA20161110220510911/10/16 22:05:31  5-MIN KARA 110405Z AUTO 32003KT 10SM CLR 13/10 A3023 -250 83 -500 320/03 RMK AO2 T01280100
53915KARA ARA20161110221010911/10/16 22:10:31  5-MIN KARA 110410Z AUTO 31004KT 10SM CLR 13/10 A3023 -250 80 -400 310/04 RMK AO2 T01330100
53915KARA ARA20161110221510911/10/16 22:15:31  5-MIN KARA 110415Z AUTO 32004KT 10SM CLR 13/10 A3023 -250 80 -400 320/04 RMK AO2 T01330100
53915KARA ARA20161110222010911/10/16 22:20:31  5-MIN KARA 110420Z AUTO 33004KT 10SM CLR 13/10 A3023 -250 80 -400 330/04 RMK AO2 T01330100
53915KARA ARA20161110222510911/10/16 22:25:31  5-MIN KARA 110425Z AUTO 34003KT 10SM CLR 13/10 A3022 -250 80 -400 340/03 RMK AO2 T01330100
53915KARA ARA20161110223010911/10/16 22:30:31  5-MIN KARA 110430Z AUTO 33004KT 10SM CLR 13/10 A3022 -250 80 -400 330/04 RMK AO2 T01330100
53915KARA ARA20161110223510911/10/16 22:35:31  5-MIN KARA 110435Z AUTO 33004KT 10SM CLR 13/10 A3022 -250 80 -400 330/04 RMK AO2 T01330100
53915KARA ARA20161110224010911/10/16 22:40:31  5-MIN KARA 110440Z AUTO 34003KT 10SM CLR 13/10 A3022 -250 83 -500 340/03 RMK AO2 T01280100
53915KARA ARA20161110224510911/10/16 22:45:31  5-MIN KARA 110445Z AUTO 36003KT 10SM CLR 13/09 A3022 -240 80 -500 350/03 RMK AO2 T01280094
53915KARA ARA20161110225011611/10/16 22:50:31  5-MIN KARA 110450Z AUTO 36004KT 10SM CLR 13/09 A3022 -240 80 -500 360/04 RMK AO2 SLP231 T01280094
53915KARA ARA20161110225510911/10/16 22:55:31  5-MIN KARA 110455Z AUTO 36003KT 10SM CLR 13/09 A3022 -240 80 -500 360/03 RMK AO2 T01280094
53915KARA ARA20161110230010911/10/16 23:00:31  5-MIN KARA 110500Z AUTO 36003KT 10SM CLR 13/09 A3022 -240 77 -400 350/03 RMK AO2 T01330094
53915KARA ARA20161110230510911/10/16 23:05:31  5-MIN KARA 110505Z AUTO 36003KT 10SM CLR 13/09 A3022 -240 80 -500 360/03 RMK AO2 T01280094
53915KARA ARA20161110231010911/10/16 23:10:31  5-MIN KARA 110510Z AUTO 01003KT 10SM CLR 13/09 A3022 -240 77 -400 010/03 RMK AO2 T01330094
53915KARA ARA20161110231510911/10/16 23:15:31  5-MIN KARA 110515Z AUTO 01003KT 10SM CLR 13/09 A3022 -240 77 -400 010/03 RMK AO2 T01330094
53915KARA ARA20161110232010911/10/16 23:20:31  5-MIN KARA 110520Z AUTO 01004KT 10SM CLR 13/09 A3021 -240 77 -400 010/04 RMK AO2 T01330094
53915KARA ARA20161110232510911/10/16 23:25:31  5-MIN KARA 110525Z AUTO 36004KT 10SM CLR 13/09 A3021 -240 77 -400 360/04 RMK AO2 T01330094
53915KARA ARA20161110233010911/10/16 23:30:31  5-MIN KARA 110530Z AUTO 36004KT 10SM CLR 13/09 A3021 -240 77 -400 350/04 RMK AO2 T01330094
53915KARA ARA20161110233510911/10/16 23:35:31  5-MIN KARA 110535Z AUTO 35005KT 10SM CLR 14/09 A3021 -230 71 -300 350/05 RMK AO2 T01390089
53915KARA ARA20161110234010911/10/16 23:40:31  5-MIN KARA 110540Z AUTO 35005KT 10SM CLR 14/09 A3020 -230 71 -300 350/05 RMK AO2 T01390089
53915KARA ARA20161110234510911/10/16 23:45:31  5-MIN KARA 110545Z AUTO 36005KT 10SM CLR 14/09 A3020 -230 71 -300 360/05 RMK AO2 T01390089
53915KARA ARA20161110235014411/10/16 23:50:31  5-MIN KARA 110550Z AUTO 35005KT 10SM CLR 14/09 A3020 -230 71 -300 350/05 RMK AO2 SLP226 T01390089 10167 20122 402220117 53014
53915KARA ARA20161110235510911/10/16 23:55:31  5-MIN KARA 110555Z AUTO 35005KT 10SM CLR 14/09 A3020 -230 71 -300 350/05 RMK AO2 T01390089
53915KARA ARA20161111000010911/11/16 00:00:31  5-MIN KARA 110600Z AUTO 35006KT 10SM CLR 13/09 A3020 -220 74 -400 350/06 RMK AO2 T01330089
53915KARA ARA20161111000510911/11/16 00:05:31  5-MIN KARA 110605Z AUTO 35006KT 10SM CLR 13/09 A3020 -220 74 -400 350/06 RMK AO2 T01330089
53915KARA ARA20161111001010911/11/16 00:10:31  5-MIN KARA 110610Z AUTO 36005KT 10SM CLR 13/09 A3020 -220 74 -400 350/05 RMK AO2 T01330089
53915KARA ARA20161111001510911/11/16 00:15:31  5-MIN KARA 110615Z AUTO 01005KT 10SM CLR 13/09 A3020 -220 74 -400 360/05 RMK AO2 T01330089
53915KARA ARA20161111002010911/11/16 00:20:31  5-MIN KARA 110620Z AUTO 01006KT 10SM CLR 13/09 A3019 -220 77 -500 010/06 RMK AO2 T01280089
53915KARA ARA20161111002510911/11/16 00:25:31  5-MIN KARA 110625Z AUTO 36007KT 10SM CLR 13/09 A3019 -220 77 -400 360/07 RMK AO2 T01330094
53915KARA ARA20161111003010911/11/16 00:30:31  5-MIN KARA 110630Z AUTO 01005KT 10SM CLR 13/09 A3019 -220 77 -400 010/05 RMK AO2 T01330094
53915KARA ARA20161111003510911/11/16 00:35:31  5-MIN KARA 110635Z AUTO 02007KT 10SM CLR 13/09 A3019 -220 77 -400 020/07 RMK AO2 T01330094
53915KARA ARA20161111004010911/11/16 00:40:31  5-MIN KARA 110640Z AUTO 01005KT 10SM CLR 13/09 A3019 -220 77 -400 360/05 RMK AO2 T01330094
53915KARA ARA20161111004510911/11/16 00:45:31  5-MIN KARA 110645Z AUTO 01004KT 10SM CLR 13/09 A3020 -220 77 -500 010/04 RMK AO2 T01280089
53915KARA ARA20161111005011611/11/16 00:50:31  5-MIN KARA 110650Z AUTO 01004KT 10SM CLR 13/09 A3019 -220 77 -500 010/04 RMK AO2 SLP224 T01280089
53915KARA ARA20161111005510911/11/16 00:55:31  5-MIN KARA 110655Z AUTO 01005KT 10SM CLR 13/09 A3020 -220 77 -500 010/05 RMK AO2 T01280089
53915KARA ARA20161111010010911/11/16 01:00:31  5-MIN KARA 110700Z AUTO 02005KT 10SM CLR 13/09 A3019 -220 77 -500 020/05 RMK AO2 T01280089
53915KARA ARA20161111010510911/11/16 01:05:31  5-MIN KARA 110705Z AUTO 04006KT 10SM CLR 13/09 A3019 -220 77 -500 040/06 RMK AO2 T01280089
53915KARA ARA20161111011010911/11/16 01:10:31  5-MIN KARA 110710Z AUTO 04006KT 10SM CLR 13/09 A3019 -220 74 -400 040/06 RMK AO2 T01330089
53915KARA ARA20161111011510911/11/16 01:15:31  5-MIN KARA 110715Z AUTO 04006KT 10SM CLR 14/09 A3019 -210 74 -300 040/06 RMK AO2 T01390094
53915KARA ARA20161111012010911/11/16 01:20:31  5-MIN KARA 110720Z AUTO 04005KT 10SM CLR 14/09 A3019 -220 74 -300 040/05 RMK AO2 T01390094
53915KARA ARA20161111012510911/11/16 01:25:31  5-MIN KARA 110725Z AUTO 05007KT 10SM CLR 14/09 A3019 -220 74 -300 050/07 RMK AO2 T01390094
53915KARA ARA20161111013010911/11/16 01:30:31  5-MIN KARA 110730Z AUTO 05007KT 10SM CLR 14/09 A3019 -210 69 -200 050/07 RMK AO2 T01440089
53915KARA ARA20161111013510911/11/16 01:35:31  5-MIN KARA 110735Z AUTO 05008KT 10SM CLR 14/09 A3018 -210 69 -200 050/08 RMK AO2 T01440089
53915KARA ARA20161111014010911/11/16 01:40:31  5-MIN KARA 110740Z AUTO 05008KT 10SM CLR 14/09 A3017 -200 69 -200 050/08 RMK AO2 T01440089
53915KARA ARA20161111014510911/11/16 01:45:31  5-MIN KARA 110745Z AUTO 05008KT 10SM CLR 14/09 A3018 -200 69 -200 050/08 RMK AO2 T01440089
53915KARA ARA20161111015011611/11/16 01:50:31  5-MIN KARA 110750Z AUTO 05008KT 10SM CLR 14/09 A3018 -200 69 -200 050/08 RMK AO2 SLP217 T01440089
53915KARA ARA20161111015510911/11/16 01:55:31  5-MIN KARA 110755Z AUTO 05008KT 10SM CLR 14/09 A3017 -200 69 -200 050/08 RMK AO2 T01440089
53915KARA ARA20161111020010911/11/16 02:00:31  5-MIN KARA 110800Z AUTO 05007KT 10SM CLR 14/09 A3017 -200 69 -200 050/07 RMK AO2 T01440089
53915KARA ARA20161111020510911/11/16 02:05:31  5-MIN KARA 110805Z AUTO 06005KT 10SM CLR 14/09 A3018 -200 69 -200 060/05 RMK AO2 T01440089
53915KARA ARA20161111021010911/11/16 02:10:31  5-MIN KARA 110810Z AUTO 07006KT 10SM CLR 14/09 A3017 -200 71 -300 070/06 RMK AO2 T01390089
53915KARA ARA20161111021510911/11/16 02:15:31  5-MIN KARA 110815Z AUTO 06006KT 10SM CLR 14/09 A3017 -200 71 -300 060/06 RMK AO2 T01390089
53915KARA ARA20161111022010911/11/16 02:20:31  5-MIN KARA 110820Z AUTO 03006KT 10SM CLR 14/09 A3018 -210 71 -300 030/06 RMK AO2 T01390089
53915KARA ARA20161111022510911/11/16 02:25:31  5-MIN KARA 110825Z AUTO 02006KT 10SM CLR 13/09 A3018 -210 74 -400 020/06 RMK AO2 T01330089
53915KARA ARA20161111023010911/11/16 02:30:31  5-MIN KARA 110830Z AUTO 02006KT 10SM CLR 13/09 A3018 -210 74 -400 020/06 RMK AO2 T01330089
53915KARA ARA20161111023510911/11/16 02:35:31  5-MIN KARA 110835Z AUTO 36004KT 10SM CLR 13/09 A3018 -210 74 -400 360/04 RMK AO2 T01330089
53915KARA ARA20161111024010911/11/16 02:40:31  5-MIN KARA 110840Z AUTO 33004KT 10SM CLR 13/09 A3019 -220 74 -400 330/04 RMK AO2 T01330089
53915KARA ARA20161111024510911/11/16 02:45:31  5-MIN KARA 110845Z AUTO 35005KT 10SM CLR 13/09 A3019 -220 77 -400 350/05 RMK AO2 T01280089
53915KARA ARA20161111025012211/11/16 02:50:31  5-MIN KARA 110850Z AUTO 34004KT 10SM CLR 13/09 A3019 -220 77 -500 340/04 RMK AO2 SLP223 T01280089 58014
53915KARA ARA20161111025510911/11/16 02:55:31  5-MIN KARA 110855Z AUTO 35004KT 10SM CLR 13/09 A3019 -220 77 -500 350/04 RMK AO2 T01280089
53915KARA ARA20161111030010911/11/16 03:00:31  5-MIN KARA 110900Z AUTO 33005KT 10SM CLR 13/09 A3019 -220 77 -400 330/05 RMK AO2 T01280089
53915KARA ARA20161111030510911/11/16 03:05:31  5-MIN KARA 110905Z AUTO 32005KT 10SM CLR 13/09 A3019 -220 77 -500 320/05 RMK AO2 T01280089
53915KARA ARA20161111031010911/11/16 03:10:31  5-MIN KARA 110910Z AUTO 33005KT 10SM CLR 12/09 A3019 -220 80 -500 330/05 RMK AO2 T01220089
53915KARA ARA20161111031510911/11/16 03:15:31  5-MIN KARA 110915Z AUTO 32004KT 10SM CLR 12/09 A3019 -220 83 -500 320/04 RMK AO2 T01220094
53915KARA ARA20161111032010911/11/16 03:20:31  5-MIN KARA 110920Z AUTO 32004KT 10SM CLR 12/09 A3019 -220 83 -500 310/04 RMK AO2 T01220094
53915KARA ARA20161111032510911/11/16 03:25:31  5-MIN KARA 110925Z AUTO 30005KT 10SM CLR 12/09 A3020 -230 83 -500 300/05 RMK AO2 T01220094
53915KARA ARA20161111033010911/11/16 03:30:31  5-MIN KARA 110930Z AUTO 33005KT 10SM CLR 12/09 A3020 -220 83 -500 330/05 RMK AO2 T01220094
53915KARA ARA20161111033510911/11/16 03:35:31  5-MIN KARA 110935Z AUTO 35004KT 10SM CLR 13/09 A3019 -220 77 -500 350/04 RMK AO2 T01280089
53915KARA ARA20161111034010911/11/16 03:40:31  5-MIN KARA 110940Z AUTO 34006KT 10SM CLR 13/09 A3019 -220 77 -400 340/06 RMK AO2 T01280089
53915KARA ARA20161111034510911/11/16 03:45:31  5-MIN KARA 110945Z AUTO 34005KT 10SM CLR 13/09 A3019 -220 77 -500 340/05 RMK AO2 T01280089
53915KARA ARA20161111035011611/11/16 03:50:31  5-MIN KARA 110950Z AUTO 33005KT 10SM CLR 12/09 A3019 -220 83 -500 330/05 RMK AO2 SLP223 T01220094
53915KARA ARA20161111035510911/11/16 03:55:31  5-MIN KARA 110955Z AUTO 33004KT 10SM CLR 12/09 A3019 -220 83 -500 330/04 RMK AO2 T01220094
53915KARA ARA20161111040010911/11/16 04:00:31  5-MIN KARA 111000Z AUTO 33004KT 10SM CLR 12/09 A3020 -230 83 -500 330/04 RMK AO2 T01220094
53915KARA ARA20161111040510911/11/16 04:05:31  5-MIN KARA 111005Z AUTO 00000KT 10SM CLR 12/09 A3020 -230 83 -500 000/00 RMK AO2 T01220094
53915KARA ARA20161111041010911/11/16 04:10:31  5-MIN KARA 111010Z AUTO 00000KT 10SM CLR 12/09 A3020 -220 83 -500 000/00 RMK AO2 T01220094
53915KARA ARA20161111041510911/11/16 04:15:31  5-MIN KARA 111015Z AUTO 36003KT 10SM CLR 12/09 A3020 -220 80 -500 360/03 RMK AO2 T01220089
53915KARA ARA20161111042010911/11/16 04:20:31  5-MIN KARA 111020Z AUTO 01003KT 10SM CLR 12/09 A3019 -220 80 -500 010/03 RMK AO2 T01220089
53915KARA ARA20161111042510911/11/16 04:25:31  5-MIN KARA 111025Z AUTO 02003KT 10SM CLR 12/09 A3019 -220 80 -500 020/03 RMK AO2 T01220089
53915KARA ARA20161111043010911/11/16 04:30:31  5-MIN KARA 111030Z AUTO 03003KT 10SM CLR 12/09 A3019 -220 80 -500 030/03 RMK AO2 T01220089
53915KARA ARA20161111043510911/11/16 04:35:31  5-MIN KARA 111035Z AUTO 03003KT 10SM CLR 13/09 A3019 -220 77 -500 030/03 RMK AO2 T01280089
53915KARA ARA20161111044010911/11/16 04:40:31  5-MIN KARA 111040Z AUTO 04003KT 10SM CLR 13/09 A3019 -220 77 -400 040/03 RMK AO2 T01280089
53915KARA ARA20161111044510911/11/16 04:45:31  5-MIN KARA 111045Z AUTO 05004KT 10SM CLR 13/08 A3019 -220 74 -400 050/04 RMK AO2 T01280083
53915KARA ARA20161111045011611/11/16 04:50:31  5-MIN KARA 111050Z AUTO 05005KT 10SM CLR 13/08 A3019 -220 71 -400 050/05 RMK AO2 SLP222 T01330083
53915KARA ARA20161111045510911/11/16 04:55:31  5-MIN KARA 111055Z AUTO 03005KT 10SM CLR 13/08 A3019 -220 71 -400 030/05 RMK AO2 T01330083
53915KARA ARA20161111050010911/11/16 05:00:31  5-MIN KARA 111100Z AUTO 01004KT 10SM CLR 13/08 A3019 -220 71 -400 010/04 RMK AO2 T01330083
53915KARA ARA20161111050510911/11/16 05:05:31  5-MIN KARA 111105Z AUTO 35005KT 10SM CLR 13/08 A3019 -220 71 -400 350/05 RMK AO2 T01330083
53915KARA ARA20161111051010911/11/16 05:10:31  5-MIN KARA 111110Z AUTO 35005KT 10SM CLR 13/09 A3020 -220 77 -500 350/05 RMK AO2 T01280089
53915KARA ARA20161111051510911/11/16 05:15:31  5-MIN KARA 111115Z AUTO 36006KT 10SM CLR 13/08 A3020 -220 74 -500 360/06 RMK AO2 T01280083
53915KARA ARA20161111052010911/11/16 05:20:31  5-MIN KARA 111120Z AUTO 01006KT 10SM CLR 13/08 A3020 -220 74 -500 010/06 RMK AO2 T01280083
53915KARA ARA20161111052510911/11/16 05:25:31  5-MIN KARA 111125Z AUTO 02005KT 10SM CLR 12/09 A3019 -220 80 -500 020/05 RMK AO2 T01220089
53915KARA ARA20161111053010911/11/16 05:30:31  5-MIN KARA 111130Z AUTO 03004KT 10SM CLR 12/09 A3019 -220 80 -500 030/04 RMK AO2 T01220089
53915KARA ARA20161111053510411/11/16 05:35:31  5-MIN KARA 111135Z 04003KT 10SM CLR 13/08 A3019 -220 74 -500 040/03 RMK AO2 T01280083
53915KARA ARA20161111054010411/11/16 05:40:31  5-MIN KARA 111140Z 03004KT 10SM CLR 13/08 A3020 -220 71 -400 030/04 RMK AO2 T01330083
53915KARA ARA20161111054510411/11/16 05:45:31  5-MIN KARA 111145Z 36004KT 10SM CLR 13/08 A3020 -220 71 -400 360/04 RMK AO2 T01330083
53915KARA ARA20161111055012911/11/16 05:50:31  5-MIN KARA 111150Z 35004KT 10SM CLR 13/08 A3020 -230 71 -400 350/04 RMK AO2 SLP226 T01330083 10144 20122 55001
53915KARA ARA20161111055510411/11/16 05:55:31  5-MIN KARA 111155Z 33005KT 10SM CLR 12/09 A3020 -230 80 -500 330/05 RMK AO2 T01220089
53915KARA ARA20161111060010411/11/16 06:00:31  5-MIN KARA 111200Z 34006KT 10SM CLR 12/09 A3020 -230 80 -500 340/06 RMK AO2 T01220089
53915KARA ARA20161111060510411/11/16 06:05:31  5-MIN KARA 111205Z 35004KT 10SM CLR 12/09 A3020 -230 80 -500 350/04 RMK AO2 T01220089
53915KARA ARA20161111061010411/11/16 06:10:31  5-MIN KARA 111210Z 35004KT 10SM CLR 12/08 A3020 -220 77 -500 350/04 RMK AO2 T01220083
53915KARA ARA20161111061510411/11/16 06:15:31  5-MIN KARA 111215Z 35005KT 10SM CLR 12/08 A3020 -230 77 -500 350/05 RMK AO2 T01220083
53915KARA ARA20161111062010411/11/16 06:20:31  5-MIN KARA 111220Z 36004KT 10SM CLR 12/08 A3020 -230 77 -500 360/04 RMK AO2 T01220083
53915KARA ARA20161111062510411/11/16 06:25:31  5-MIN KARA 111225Z 01005KT 10SM CLR 12/08 A3020 -220 77 -500 010/05 RMK AO2 T01220083
53915KARA ARA20161111063010411/11/16 06:30:31  5-MIN KARA 111230Z 01005KT 10SM CLR 12/08 A3020 -230 77 -500 010/05 RMK AO2 T01220083
53915KARA ARA20161111063510411/11/16 06:35:31  5-MIN KARA 111235Z 35005KT 10SM CLR 12/08 A3020 -230 77 -500 350/05 RMK AO2 T01220083
53915KARA ARA20161111064010411/11/16 06:40:31  5-MIN KARA 111240Z 35003KT 10SM CLR 12/08 A3021 -230 77 -500 350/03 RMK AO2 T01220083
53915KARA ARA20161111064510411/11/16 06:45:31  5-MIN KARA 111245Z 01004KT 10SM CLR 12/08 A3021 -240 77 -500 010/04 RMK AO2 T01220083
53915KARA ARA20161111065011111/11/16 06:50:31  5-MIN KARA 111250Z 35003KT 10SM CLR 12/08 A3021 -240 77 -500 350/03 RMK AO2 SLP230 T01220083
53915KARA ARA20161111065510411/11/16 06:55:31  5-MIN KARA 111255Z 34003KT 10SM CLR 12/08 A3021 -240 77 -500 340/03 RMK AO2 T01220083
53915KARA ARA20161111070010411/11/16 07:00:31  5-MIN KARA 111300Z 33005KT 10SM CLR 12/09 A3022 -240 80 -500 330/05 RMK AO2 T01220089
53915KARA ARA20161111070510411/11/16 07:05:31  5-MIN KARA 111305Z 34004KT 10SM CLR 12/09 A3022 -250 80 -600 340/04 RMK AO2 T01220089
53915KARA ARA20161111071010411/11/16 07:10:31  5-MIN KARA 111310Z 34003KT 10SM CLR 12/09 A3022 -250 80 -600 340/03 RMK AO2 T01220089
53915KARA ARA20161111071510411/11/16 07:15:31  5-MIN KARA 111315Z 36003KT 10SM CLR 12/09 A3022 -250 80 -600 360/03 RMK AO2 T01220089
53915KARA ARA20161111072010411/11/16 07:20:31  5-MIN KARA 111320Z 35003KT 10SM CLR 12/09 A3023 -250 80 -600 350/03 RMK AO2 T01220089
53915KARA ARA20161111072510411/11/16 07:25:31  5-MIN KARA 111325Z 34005KT 10SM CLR 13/09 A3023 -250 77 -500 340/05 RMK AO2 T01280089
53915KARA ARA20161111073010411/11/16 07:30:31  5-MIN KARA 111330Z 35005KT 10SM CLR 13/09 A3023 -250 77 -500 340/05 RMK AO2 T01280089
53915KARA ARA20161111073510411/11/16 07:35:31  5-MIN KARA 111335Z 35004KT 10SM CLR 13/09 A3023 -250 77 -500 350/04 RMK AO2 T01280089
53915KARA ARA20161111074010411/11/16 07:40:31  5-MIN KARA 111340Z 01003KT 10SM CLR 13/09 A3023 -250 77 -500 010/03 RMK AO2 T01280089
53915KARA ARA20161111074510411/11/16 07:45:31  5-MIN KARA 111345Z 02003KT 10SM CLR 13/09 A3023 -250 80 -500 020/03 RMK AO2 T01280094
53915KARA ARA20161111075011111/11/16 07:50:31  5-MIN KARA 111350Z 02004KT 10SM CLR 13/09 A3023 -250 77 -400 010/04 RMK AO2 SLP235 T01330094
53915KARA ARA20161111075510411/11/16 07:55:31  5-MIN KARA 111355Z 02004KT 10SM CLR 13/09 A3023 -250 74 -400 010/04 RMK AO2 T01330089
53915KARA ARA20161111080010411/11/16 08:00:31  5-MIN KARA 111400Z 01005KT 10SM CLR 14/09 A3023 -250 71 -400 010/05 RMK AO2 T01390089
53915KARA ARA20161111080510411/11/16 08:05:31  5-MIN KARA 111405Z 01005KT 10SM CLR 14/09 A3023 -250 74 -400 010/05 RMK AO2 T01390094
53915KARA ARA20161111081010411/11/16 08:10:31  5-MIN KARA 111410Z 02005KT 10SM CLR 14/09 A3023 -250 71 -400 020/05 RMK AO2 T01390089
53915KARA ARA20161111081510411/11/16 08:15:31  5-MIN KARA 111415Z 02005KT 10SM CLR 14/09 A3023 -250 69 -300 010/05 RMK AO2 T01440089
53915KARA ARA20161111082010411/11/16 08:20:31  5-MIN KARA 111420Z 03006KT 10SM CLR 14/09 A3023 -250 69 -300 030/06 RMK AO2 T01440089
53915KARA ARA20161111082510411/11/16 08:25:31  5-MIN KARA 111425Z 01006KT 10SM CLR 14/09 A3023 -250 69 -300 010/06 RMK AO2 T01440089
53915KARA ARA20161111083010411/11/16 08:30:31  5-MIN KARA 111430Z 35006KT 10SM CLR 14/09 A3023 -250 72 -300 350/06 RMK AO2 T01440094
53915KARA ARA20161111083510411/11/16 08:35:31  5-MIN KARA 111435Z 36006KT 10SM CLR 14/09 A3023 -250 72 -300 360/06 RMK AO2 T01440094
53915KARA ARA20161111084010411/11/16 08:40:31  5-MIN KARA 111440Z 01006KT 10SM CLR 14/09 A3023 -250 69 -300 360/06 RMK AO2 T01440089
53915KARA ARA20161111084510411/11/16 08:45:31  5-MIN KARA 111445Z 03007KT 10SM CLR 14/09 A3023 -250 69 -300 030/07 RMK AO2 T01440089
53915KARA ARA20161111085011711/11/16 08:50:31  5-MIN KARA 111450Z 04008KT 10SM CLR 14/09 A3022 -250 69 -300 040/08 RMK AO2 SLP234 T01440089 53002
53915KARA ARA20161111085510411/11/16 08:55:31  5-MIN KARA 111455Z 05007KT 10SM CLR 15/09 A3022 -250 66 -200 040/07 RMK AO2 T01500089
53915KARA ARA20161111090010411/11/16 09:00:31  5-MIN KARA 111500Z 04006KT 10SM CLR 15/09 A3023 -250 66 -200 040/06 RMK AO2 T01500089
53915KARA ARA20161111090510411/11/16 09:05:31  5-MIN KARA 111505Z 03004KT 10SM CLR 16/09 A3022 -250 64 -200 030/04 RMK AO2 T01560089
53915KARA ARA20161111091010411/11/16 09:10:31  5-MIN KARA 111510Z 01005KT 10SM CLR 16/09 A3023 -250 64 -200 360/05 RMK AO2 T01560089
53915KARA ARA20161111091510411/11/16 09:15:31  5-MIN KARA 111515Z 01005KT 10SM CLR 16/09 A3023 -250 64 -200 010/05 RMK AO2 T01560089
53915KARA ARA20161111092010411/11/16 09:20:31  5-MIN KARA 111520Z 01005KT 10SM CLR 16/09 A3023 -250 62 -100 010/05 RMK AO2 T01610089
53915KARA ARA20161111092510411/11/16 09:25:31  5-MIN KARA 111525Z 35005KT 10SM CLR 16/09 A3023 -250 62 -100 350/05 RMK AO2 T01610089
53915KARA ARA20161111093010411/11/16 09:30:31  5-MIN KARA 111530Z 02005KT 10SM CLR 16/09 A3022 -250 62 -100 010/05 RMK AO2 T01610089
53915KARA ARA20161111093510111/11/16 09:35:31  5-MIN KARA 111535Z 04004KT 10SM CLR 17/08 A3022 -250 57 0 040/04 RMK AO2 T01670083
53915KARA ARA20161111094010111/11/16 09:40:31  5-MIN KARA 111540Z 04005KT 10SM CLR 17/08 A3022 -250 57 0 040/05 RMK AO2 T01670083
53915KARA ARA20161111094510111/11/16 09:45:31  5-MIN KARA 111545Z 04004KT 10SM CLR 17/08 A3022 -240 55 0 040/04 RMK AO2 T01720083
53915KARA ARA20161111095010811/11/16 09:50:31  5-MIN KARA 111550Z 05003KT 10SM CLR 17/08 A3022 -250 53 0 050/03 RMK AO2 SLP233 T01720078
53915KARA ARA20161111095510311/11/16 09:55:31  5-MIN KARA 111555Z 04005KT 10SM CLR 18/08 A3022 -250 53 100 040/05 RMK AO2 T01780083
53915KARA ARA20161111100010111/11/16 10:00:31  5-MIN KARA 111600Z 06004KT 10SM CLR 17/08 A3022 -240 53 0 060/04 RMK AO2 T01720078
53915KARA ARA20161111100510311/11/16 10:05:31  5-MIN KARA 111605Z 05004KT 10SM CLR 18/08 A3022 -240 51 100 050/04 RMK AO2 T01780078
53915KARA ARA20161111101010311/11/16 10:10:31  5-MIN KARA 111610Z 03005KT 10SM CLR 18/07 A3021 -230 49 100 030/05 RMK AO2 T01780072
53915KARA ARA20161111101510311/11/16 10:15:31  5-MIN KARA 111615Z 01005KT 10SM CLR 18/08 A3021 -230 51 100 010/05 RMK AO2 T01780078
53915KARA ARA20161111102010311/11/16 10:20:31  5-MIN KARA 111620Z 01004KT 10SM CLR 18/08 A3021 -230 51 100 010/04 RMK AO2 T01780078
53915KARA ARA20161111102510311/11/16 10:25:31  5-MIN KARA 111625Z 04004KT 10SM CLR 18/08 A3021 -230 51 100 040/04 RMK AO2 T01780078
53915KARA ARA20161111103010311/11/16 10:30:31  5-MIN KARA 111630Z 03004KT 10SM CLR 18/08 A3020 -230 50 100 030/04 RMK AO2 T01830078
53915KARA ARA20161111103510311/11/16 10:35:31  5-MIN KARA 111635Z 04003KT 10SM CLR 18/08 A3020 -220 50 100 040/03 RMK AO2 T01830078
53915KARA ARA20161111104010311/11/16 10:40:31  5-MIN KARA 111640Z 04005KT 10SM CLR 18/08 A3019 -220 52 200 040/05 RMK AO2 T01830083
53915KARA ARA20161111104510311/11/16 10:45:31  5-MIN KARA 111645Z 03006KT 10SM CLR 18/08 A3019 -220 50 200 030/06 RMK AO2 T01830078
53915KARA ARA20161111105011011/11/16 10:50:31  5-MIN KARA 111650Z 03005KT 10SM CLR 18/08 A3019 -220 50 200 030/05 RMK AO2 SLP223 T01830078
53915KARA ARA20161111105510311/11/16 10:55:31  5-MIN KARA 111655Z 02005KT 10SM CLR 19/08 A3019 -220 48 200 020/05 RMK AO2 T01890078
53915KARA ARA20161111110010311/11/16 11:00:31  5-MIN KARA 111700Z 04005KT 10SM CLR 19/07 A3019 -210 46 200 040/05 RMK AO2 T01890072
53915KARA ARA20161111110510311/11/16 11:05:31  5-MIN KARA 111705Z 02005KT 10SM CLR 19/07 A3019 -220 46 200 020/05 RMK AO2 T01890072
53915KARA ARA20161111111010311/11/16 11:10:31  5-MIN KARA 111710Z 04003KT 10SM CLR 19/08 A3019 -210 46 300 040/03 RMK AO2 T01940078
53915KARA ARA20161111111510311/11/16 11:15:31  5-MIN KARA 111715Z 06005KT 10SM CLR 19/07 A3018 -210 44 300 050/05 RMK AO2 T01940072
53915KARA ARA20161111112010311/11/16 11:20:31  5-MIN KARA 111720Z 07004KT 10SM CLR 19/07 A3018 -210 44 300 070/04 RMK AO2 T01940072
53915KARA ARA20161111112510311/11/16 11:25:31  5-MIN KARA 111725Z 05003KT 10SM CLR 19/07 A3018 -210 43 300 050/03 RMK AO2 T01940067
53915KARA ARA20161111113010311/11/16 11:30:31  5-MIN KARA 111730Z 04004KT 10SM CLR 20/07 A3018 -210 43 400 040/04 RMK AO2 T02000072
53915KARA ARA20161111113510311/11/16 11:35:31  5-MIN KARA 111735Z 04006KT 10SM CLR 21/07 A3017 -200 41 400 040/06 RMK AO2 T02060072
53915KARA ARA20161111114010311/11/16 11:40:31  5-MIN KARA 111740Z 02006KT 10SM CLR 21/07 A3017 -200 40 400 020/06 RMK AO2 T02060067
53915KARA ARA20161111114510311/11/16 11:45:31  5-MIN KARA 111745Z 05006KT 10SM CLR 21/07 A3017 -200 38 500 050/06 RMK AO2 T02110067
53915KARA ARA20161111115012811/11/16 11:50:31  5-MIN KARA 111750Z 04006KT 10SM CLR 21/06 A3017 -200 37 500 040/06 RMK AO2 SLP216 T02110061 10211 20122 50007
53915KARA ARA20161111115510311/11/16 11:55:31  5-MIN KARA 111755Z 03006KT 10SM CLR 21/06 A3017 -200 36 500 030/06 RMK AO2 T02110056
53915KARA ARA20161111120010311/11/16 12:00:31  5-MIN KARA 111800Z 03006KT 10SM CLR 21/06 A3017 -200 36 500 030/06 RMK AO2 T02110056
53915KARA ARA20161111120510311/11/16 12:05:31  5-MIN KARA 111805Z 06006KT 10SM CLR 22/06 A3017 -200 36 600 060/06 RMK AO2 T02170061
53915KARA ARA20161111121010311/11/16 12:10:31  5-MIN KARA 111810Z 04006KT 10SM CLR 21/07 A3016 -190 38 500 040/06 RMK AO2 T02110067
53915KARA ARA20161111121510311/11/16 12:15:31  5-MIN KARA 111815Z 02005KT 10SM CLR 21/07 A3016 -190 40 500 020/05 RMK AO2 T02110072
53915KARA ARA20161111122010311/11/16 12:20:31  5-MIN KARA 111820Z 05007KT 10SM CLR 22/07 A3016 -190 39 600 040/07 RMK AO2 T02170072
53915KARA ARA20161111122510311/11/16 12:25:31  5-MIN KARA 111825Z 02008KT 10SM CLR 22/07 A3016 -190 37 600 020/08 RMK AO2 T02170067
53915KARA ARA20161111123010311/11/16 12:30:31  5-MIN KARA 111830Z 36006KT 10SM CLR 22/07 A3016 -190 37 600 360/06 RMK AO2 T02220072
53915KARA ARA20161111123510311/11/16 12:35:31  5-MIN KARA 111835Z 36008KT 10SM CLR 22/07 A3016 -190 37 600 360/08 RMK AO2 T02220072
53915KARA ARA20161111124010311/11/16 12:40:31  5-MIN KARA 111840Z 36007KT 10SM CLR 22/07 A3016 -190 37 600 360/07 RMK AO2 T02170067
53915KARA ARA20161111124510311/11/16 12:45:31  5-MIN KARA 111845Z 03005KT 10SM CLR 22/07 A3015 -180 37 600 030/05 RMK AO2 T02220072
53915KARA ARA20161111125011011/11/16 12:50:31  5-MIN KARA 111850Z 03007KT 10SM CLR 22/07 A3015 -180 37 700 020/07 RMK AO2 SLP208 T02220072
53915KARA ARA20161111125511011/11/16 12:55:31  5-MIN KARA 111855Z 03009KT 10SM CLR 22/07 A3014 -170 36 700 030/09 RMK AO2 PRESFR T02220067
53915KARA ARA20161111130010311/11/16 13:00:31  5-MIN KARA 111900Z 36007KT 10SM CLR 22/06 A3014 -170 35 700 360/07 RMK AO2 T02220061
53915KARA ARA20161111130510311/11/16 13:05:31  5-MIN KARA 111905Z 04005KT 10SM CLR 23/07 A3015 -180 35 700 040/05 RMK AO2 T02280067
53915KARA ARA20161111131010311/11/16 13:10:31  5-MIN KARA 111910Z 03007KT 10SM CLR 23/07 A3014 -170 36 700 030/07 RMK AO2 T02280072
53915KARA ARA20161111131510311/11/16 13:15:31  5-MIN KARA 111915Z 36008KT 10SM CLR 23/07 A3014 -170 35 700 360/08 RMK AO2 T02280067
53915KARA ARA20161111132010311/11/16 13:20:31  5-MIN KARA 111920Z 03009KT 10SM CLR 23/07 A3013 -160 35 700 030/09 RMK AO2 T02280067
53915KARA ARA20161111132510311/11/16 13:25:31  5-MIN KARA 111925Z 36007KT 10SM CLR 22/06 A3013 -160 35 700 360/07 RMK AO2 T02220061
53915KARA ARA20161111133010311/11/16 13:30:31  5-MIN KARA 111930Z 36009KT 10SM CLR 22/07 A3013 -160 39 600 360/09 RMK AO2 T02170072
53915KARA ARA20161111133510311/11/16 13:35:31  5-MIN KARA 111935Z 01007KT 10SM CLR 22/07 A3013 -160 37 700 010/07 RMK AO2 T02220072
53915KARA ARA20161111134010311/11/16 13:40:31  5-MIN KARA 111940Z 36006KT 10SM CLR 22/08 A3013 -160 39 700 360/06 RMK AO2 T02220078
53915KARA ARA20161111134510311/11/16 13:45:31  5-MIN KARA 111945Z 01008KT 10SM CLR 23/08 A3013 -160 39 700 010/08 RMK AO2 T02280083
53915KARA ARA20161111135011011/11/16 13:50:31  5-MIN KARA 111950Z 01009KT 10SM CLR 22/08 A3013 -160 39 700 010/09 RMK AO2 SLP203 T02220078
53915KARA ARA20161111135510311/11/16 13:55:31  5-MIN KARA 111955Z 01008KT 10SM CLR 22/08 A3013 -160 40 600 010/08 RMK AO2 T02170078
53915KARA ARA20161111140010311/11/16 14:00:31  5-MIN KARA 112000Z 04006KT 10SM CLR 22/07 A3013 -170 39 600 040/06 RMK AO2 T02170072
53915KARA ARA20161111140510311/11/16 14:05:31  5-MIN KARA 112005Z 03007KT 10SM CLR 22/07 A3014 -170 37 700 030/07 RMK AO2 T02220072
53915KARA ARA20161111141010311/11/16 14:10:31  5-MIN KARA 112010Z 02008KT 10SM CLR 22/07 A3013 -170 39 600 020/08 RMK AO2 T02170072
53915KARA ARA20161111141510311/11/16 14:15:31  5-MIN KARA 112015Z 01008KT 10SM CLR 22/07 A3013 -170 39 600 010/08 RMK AO2 T02170072
53915KARA ARA20161111142010311/11/16 14:20:31  5-MIN KARA 112020Z 01008KT 10SM CLR 22/07 A3013 -160 37 700 010/08 RMK AO2 T02220072
53915KARA ARA20161111142510311/11/16 14:25:31  5-MIN KARA 112025Z 03008KT 10SM CLR 22/08 A3013 -160 40 600 030/08 RMK AO2 T02170078
53915KARA ARA20161111143010311/11/16 14:30:31  5-MIN KARA 112030Z 04007KT 10SM CLR 22/08 A3013 -160 40 600 040/07 RMK AO2 T02170078
53915KARA ARA20161111143510811/11/16 14:35:31  5-MIN KARA 112035Z AUTO 03010KT 10SM CLR 21/07 A3013 -160 38 500 030/10 RMK AO2 T02110067
53915KARA ARA20161111144010811/11/16 14:40:31  5-MIN KARA 112040Z AUTO 03010KT 10SM CLR 21/07 A3013 -160 38 500 030/10 RMK AO2 T02110067
53915KARA ARA20161111144510811/11/16 14:45:31  5-MIN KARA 112045Z AUTO 03009KT 10SM CLR 22/06 A3013 -160 36 600 030/09 RMK AO2 T02170061
53915KARA ARA20161111145012111/11/16 14:50:31  5-MIN KARA 112050Z AUTO 01009KT 10SM CLR 21/06 A3013 -160 37 500 010/09 RMK AO2 SLP202 T02110061 58018
53915KARA ARA20161111145510811/11/16 14:55:31  5-MIN KARA 112055Z AUTO 03009KT 10SM CLR 21/06 A3013 -170 37 500 030/09 RMK AO2 T02060056
53915KARA ARA20161111150010811/11/16 15:00:31  5-MIN KARA 112100Z AUTO 03009KT 10SM CLR 21/05 A3014 -170 35 500 030/09 RMK AO2 T02060050
53915KARA ARA20161111150510811/11/16 15:05:31  5-MIN KARA 112105Z AUTO 03009KT 10SM CLR 20/06 A3014 -170 40 400 020/09 RMK AO2 T02000061
53915KARA ARA20161111151010311/11/16 15:10:31  5-MIN KARA 112110Z 03009KT 10SM CLR 20/07 A3014 -170 41 400 030/09 RMK AO2 T02000067
53915KARA ARA20161111151510311/11/16 15:15:31  5-MIN KARA 112115Z 03010KT 10SM CLR 20/07 A3014 -170 41 400 030/10 RMK AO2 T02000067
53915KARA ARA20161111152010311/11/16 15:20:31  5-MIN KARA 112120Z 03009KT 10SM CLR 20/07 A3014 -170 41 400 030/09 RMK AO2 T02000067
53915KARA ARA20161111152510311/11/16 15:25:31  5-MIN KARA 112125Z 03009KT 10SM CLR 20/07 A3014 -170 41 400 030/09 RMK AO2 T02000067
53915KARA ARA20161111153010311/11/16 15:30:31  5-MIN KARA 112130Z 03009KT 10SM CLR 20/07 A3013 -170 43 400 030/09 RMK AO2 T02000072
53915KARA ARA20161111153510311/11/16 15:35:31  5-MIN KARA 112135Z 03008KT 10SM CLR 19/07 A3013 -160 44 400 030/08 RMK AO2 T01940072
53915KARA ARA20161111154010311/11/16 15:40:31  5-MIN KARA 112140Z 03006KT 10SM CLR 19/07 A3013 -160 44 400 030/06 RMK AO2 T01940072
53915KARA ARA20161111154510311/11/16 15:45:31  5-MIN KARA 112145Z 03007KT 10SM CLR 19/07 A3013 -170 44 400 030/07 RMK AO2 T01940072
53915KARA ARA20161111155011011/11/16 15:50:31  5-MIN KARA 112150Z 05007KT 10SM CLR 19/07 A3013 -170 44 400 050/07 RMK AO2 SLP203 T01940072
53915KARA ARA20161111155510311/11/16 15:55:31  5-MIN KARA 112155Z 05007KT 10SM CLR 19/07 A3013 -170 44 400 050/07 RMK AO2 T01940072
53915KARA ARA20161111160010311/11/16 16:00:31  5-MIN KARA 112200Z 05007KT 10SM CLR 19/07 A3014 -170 44 300 050/07 RMK AO2 T01940072
53915KARA ARA20161111160510311/11/16 16:05:31  5-MIN KARA 112205Z 04006KT 10SM CLR 19/08 A3014 -170 48 300 040/06 RMK AO2 T01890078
53915KARA ARA20161111161010311/11/16 16:10:31  5-MIN KARA 112210Z 04006KT 10SM CLR 19/08 A3014 -170 48 300 040/06 RMK AO2 T01890078
53915KARA ARA20161111161510311/11/16 16:15:31  5-MIN KARA 112215Z 04006KT 10SM CLR 19/07 A3014 -170 46 300 040/06 RMK AO2 T01890072
53915KARA ARA20161111162010311/11/16 16:20:31  5-MIN KARA 112220Z 04005KT 10SM CLR 19/07 A3014 -170 46 300 040/05 RMK AO2 T01890072
53915KARA ARA20161111162510311/11/16 16:25:31  5-MIN KARA 112225Z 04003KT 10SM CLR 19/08 A3014 -170 48 300 040/03 RMK AO2 T01890078
53915KARA ARA20161111163010311/11/16 16:30:31  5-MIN KARA 112230Z 02004KT 10SM CLR 18/08 A3015 -180 50 200 020/04 RMK AO2 T01830078
53915KARA ARA20161111163510311/11/16 16:35:31  5-MIN KARA 112235Z 03004KT 10SM CLR 18/08 A3015 -180 52 200 030/04 RMK AO2 T01830083
53915KARA ARA20161111164010311/11/16 16:40:31  5-MIN KARA 112240Z 03004KT 10SM CLR 18/08 A3015 -180 52 200 030/04 RMK AO2 T01830083
53915KARA ARA20161111164510311/11/16 16:45:31  5-MIN KARA 112245Z 03004KT 10SM CLR 18/08 A3015 -180 52 200 030/04 RMK AO2 T01830083
53915KARA ARA20161111165011011/11/16 16:50:31  5-MIN KARA 112250Z 03003KT 10SM CLR 18/08 A3015 -180 53 100 030/03 RMK AO2 SLP209 T01780083
53915KARA ARA20161111165510311/11/16 16:55:31  5-MIN KARA 112255Z 03003KT 10SM CLR 18/08 A3015 -180 53 100 030/03 RMK AO2 T01780083
53915KARA ARA20161111170010311/11/16 17:00:31  5-MIN KARA 112300Z 02003KT 10SM CLR 18/08 A3015 -180 53 100 020/03 RMK AO2 T01780083
53915KARA ARA20161111170510311/11/16 17:05:31  5-MIN KARA 112305Z 03004KT 10SM CLR 18/08 A3015 -180 53 100 030/04 RMK AO2 T01780083
53915KARA ARA20161111171010311/11/16 17:10:31  5-MIN KARA 112310Z 02003KT 10SM CLR 17/09 A3015 -180 57 100 020/03 RMK AO2 T01720089
53915KARA ARA20161111171510311/11/16 17:15:31  5-MIN KARA 112315Z 03003KT 10SM CLR 17/09 A3015 -180 57 100 020/03 RMK AO2 T01720089
53915KARA ARA20161111172010311/11/16 17:20:31  5-MIN KARA 112320Z 03003KT 10SM CLR 17/09 A3015 -180 57 100 030/03 RMK AO2 T01720089
53915KARA ARA20161111172510311/11/16 17:25:31  5-MIN KARA 112325Z 03003KT 10SM CLR 17/09 A3015 -180 57 100 030/03 RMK AO2 T01720089
53915KARA ARA20161111173010111/11/16 17:30:31  5-MIN KARA 112330Z 03004KT 10SM CLR 17/09 A3015 -180 60 0 030/04 RMK AO2 T01670089
53915KARA ARA20161111173510111/11/16 17:35:31  5-MIN KARA 112335Z 02005KT 10SM CLR 17/09 A3015 -180 60 0 020/05 RMK AO2 T01670089
53915KARA ARA20161111174010111/11/16 17:40:31  5-MIN KARA 112340Z 02005KT 10SM CLR 16/09 A3015 -180 62 0 020/05 RMK AO2 T01610089
53915KARA ARA20161111174510111/11/16 17:45:31  5-MIN KARA 112345Z 02004KT 10SM CLR 16/09 A3015 -180 62 0 020/04 RMK AO2 T01610089
53915KARA ARA20161111175012611/11/16 17:50:31  5-MIN KARA 112350Z 02003KT 10SM CLR 16/09 A3016 -190 62 0 020/03 RMK AO2 SLP211 T01610089 10233 20161 55013
53915KARA ARA20161111175510111/11/16 17:55:31  5-MIN KARA 112355Z 02003KT 10SM CLR 16/08 A3016 -190 59 0 020/03 RMK AO2 T01610083
53915KARA ARA20161111180010411/11/16 18:00:31  5-MIN KARA 120000Z 02003KT 10SM CLR 16/08 A3016 -190 62 -100 020/03 RMK AO2 T01560083
53915KARA ARA20161111180510411/11/16 18:05:31  5-MIN KARA 120005Z 00000KT 10SM CLR 15/08 A3016 -190 64 -200 000/00 RMK AO2 T01500083
53915KARA ARA20161111181010411/11/16 18:10:31  5-MIN KARA 120010Z 00000KT 10SM CLR 15/08 A3016 -190 64 -200 000/00 RMK AO2 T01500083
53915KARA ARA20161111181510411/11/16 18:15:31  5-MIN KARA 120015Z 00000KT 10SM CLR 15/08 A3017 -200 64 -200 000/00 RMK AO2 T01500083
53915KARA ARA20161111182010411/11/16 18:20:31  5-MIN KARA 120020Z 00000KT 10SM CLR 15/08 A3017 -200 64 -200 000/00 RMK AO2 T01500083
53915KARA ARA20161111182510411/11/16 18:25:31  5-MIN KARA 120025Z 00000KT 10SM CLR 14/09 A3017 -200 72 -200 000/00 RMK AO2 T01440094
53915KARA ARA20161111183010411/11/16 18:30:31  5-MIN KARA 120030Z 04003KT 10SM CLR 15/09 A3017 -200 66 -200 040/03 RMK AO2 T01500089
53915KARA ARA20161111183510411/11/16 18:35:31  5-MIN KARA 120035Z 04003KT 10SM CLR 15/09 A3017 -200 66 -200 030/03 RMK AO2 T01500089
53915KARA ARA20161111184010411/11/16 18:40:31  5-MIN KARA 120040Z 03003KT 10SM CLR 15/09 A3017 -200 66 -200 030/03 RMK AO2 T01500089
53915KARA ARA20161111184510411/11/16 18:45:31  5-MIN KARA 120045Z 04003KT 10SM CLR 15/09 A3016 -190 66 -200 040/03 RMK AO2 T01500089
53915KARA ARA20161111185011111/11/16 18:50:31  5-MIN KARA 120050Z 04003KT 10SM CLR 15/08 A3016 -190 64 -200 040/03 RMK AO2 SLP214 T01500083
53915KARA ARA20161111185510411/11/16 18:55:31  5-MIN KARA 120055Z 00000KT 10SM CLR 15/08 A3017 -200 64 -200 000/00 RMK AO2 T01500083
53915KARA ARA20161111190010411/11/16 19:00:31  5-MIN KARA 120100Z 00000KT 10SM CLR 14/08 A3017 -200 66 -200 000/00 RMK AO2 T01440083
53915KARA ARA20161111190510411/11/16 19:05:31  5-MIN KARA 120105Z 00000KT 10SM CLR 15/09 A3017 -200 69 -200 000/00 RMK AO2 T01500094
53915KARA ARA20161111191010411/11/16 19:10:31  5-MIN KARA 120110Z 00000KT 10SM CLR 14/09 A3017 -200 72 -200 000/00 RMK AO2 T01440094
53915KARA ARA20161111191510411/11/16 19:15:31  5-MIN KARA 120115Z 00000KT 10SM CLR 13/09 A3017 -200 77 -400 000/00 RMK AO2 T01330094
53915KARA ARA20161111192010411/11/16 19:20:31  5-MIN KARA 120120Z 00000KT 10SM CLR 13/09 A3017 -200 77 -400 000/00 RMK AO2 T01330094
53915KARA ARA20161111192510411/11/16 19:25:31  5-MIN KARA 120125Z 00000KT 10SM CLR 13/10 A3017 -200 80 -400 000/00 RMK AO2 T01330100
53915KARA ARA20161111193010411/11/16 19:30:31  5-MIN KARA 120130Z 00000KT 10SM CLR 13/10 A3017 -200 80 -400 000/00 RMK AO2 T01330100
53915KARA ARA20161111193510411/11/16 19:35:31  5-MIN KARA 120135Z 00000KT 10SM CLR 13/10 A3018 -200 83 -400 000/00 RMK AO2 T01280100
53915KARA ARA20161111194010411/11/16 19:40:31  5-MIN KARA 120140Z 00000KT 10SM CLR 13/10 A3018 -200 80 -400 000/00 RMK AO2 T01330100
53915KARA ARA20161111194510411/11/16 19:45:31  5-MIN KARA 120145Z 00000KT 10SM CLR 13/10 A3018 -200 80 -400 000/00 RMK AO2 T01330100
53915KARA ARA20161111195011111/11/16 19:50:31  5-MIN KARA 120150Z 00000KT 10SM CLR 13/10 A3018 -210 83 -400 000/00 RMK AO2 SLP218 T01280100
53915KARA ARA20161111195510411/11/16 19:55:31  5-MIN KARA 120155Z 00000KT 10SM CLR 13/09 A3018 -210 80 -400 000/00 RMK AO2 T01280094
53915KARA ARA20161111200010411/11/16 20:00:31  5-MIN KARA 120200Z 00000KT 10SM CLR 13/09 A3018 -210 80 -400 000/00 RMK AO2 T01280094
53915KARA ARA20161111200510411/11/16 20:05:31  5-MIN KARA 120205Z 00000KT 10SM CLR 13/09 A3018 -210 80 -400 000/00 RMK AO2 T01280094
53915KARA ARA20161111201010411/11/16 20:10:31  5-MIN KARA 120210Z 00000KT 10SM CLR 13/09 A3018 -210 80 -400 000/00 RMK AO2 T01280094
53915KARA ARA20161111201510411/11/16 20:15:31  5-MIN KARA 120215Z 00000KT 10SM CLR 13/09 A3018 -210 80 -400 000/00 RMK AO2 T01280094
53915KARA ARA20161111202010411/11/16 20:20:31  5-MIN KARA 120220Z 00000KT 10SM CLR 13/09 A3018 -210 77 -400 000/00 RMK AO2 T01330094
53915KARA ARA20161111202510411/11/16 20:25:31  5-MIN KARA 120225Z 00000KT 10SM CLR 13/09 A3018 -210 77 -400 000/00 RMK AO2 T01330094
53915KARA ARA20161111203010411/11/16 20:30:31  5-MIN KARA 120230Z 00000KT 10SM CLR 13/10 A3018 -210 80 -400 000/00 RMK AO2 T01330100
53915KARA ARA20161111203510411/11/16 20:35:31  5-MIN KARA 120235Z 00000KT 10SM CLR 13/10 A3018 -210 83 -400 000/00 RMK AO2 T01280100
53915KARA ARA20161111204010411/11/16 20:40:31  5-MIN KARA 120240Z 00000KT 10SM CLR 12/10 A3018 -210 86 -500 000/00 RMK AO2 T01220100
53915KARA ARA20161111204510411/11/16 20:45:31  5-MIN KARA 120245Z 00000KT 10SM CLR 12/10 A3018 -210 86 -500 000/00 RMK AO2 T01220100
53915KARA ARA20161111205011711/11/16 20:50:31  5-MIN KARA 120250Z 00000KT 10SM CLR 12/09 A3018 -200 83 -500 000/00 RMK AO2 SLP218 T01220094 53008
53915KARA ARA20161111205510411/11/16 20:55:31  5-MIN KARA 120255Z 16003KT 10SM CLR 12/09 A3017 -200 83 -500 160/03 RMK AO2 T01220094
53915KARA ARA20161111210010911/11/16 21:00:31  5-MIN KARA 120300Z AUTO 00000KT 10SM CLR 12/09 A3018 -200 83 -600 000/00 RMK AO2 T01170089
53915KARA ARA20161111210510911/11/16 21:05:31  5-MIN KARA 120305Z AUTO 00000KT 10SM CLR 12/09 A3018 -200 83 -600 000/00 RMK AO2 T01170089
53915KARA ARA20161111211010911/11/16 21:10:31  5-MIN KARA 120310Z AUTO 00000KT 10SM CLR 12/09 A3017 -200 83 -600 000/00 RMK AO2 T01170089
53915KARA ARA20161111211510911/11/16 21:15:31  5-MIN KARA 120315Z AUTO 00000KT 10SM CLR 12/09 A3017 -200 83 -600 000/00 RMK AO2 T01170089
53915KARA ARA20161111212010911/11/16 21:20:31  5-MIN KARA 120320Z AUTO 00000KT 10SM CLR 12/09 A3017 -200 86 -600 000/00 RMK AO2 T01170094
53915KARA ARA20161111212510911/11/16 21:25:31  5-MIN KARA 120325Z AUTO 00000KT 10SM CLR 12/09 A3017 -200 83 -600 000/00 RMK AO2 T01170089
53915KARA ARA20161111213010911/11/16 21:30:31  5-MIN KARA 120330Z AUTO 00000KT 10SM CLR 12/09 A3017 -190 83 -600 000/00 RMK AO2 T01170089
53915KARA ARA20161111213510911/11/16 21:35:31  5-MIN KARA 120335Z AUTO 00000KT 10SM CLR 13/09 A3017 -200 80 -400 000/00 RMK AO2 T01280094
53915KARA ARA20161111214010911/11/16 21:40:31  5-MIN KARA 120340Z AUTO 00000KT 10SM CLR 13/09 A3017 -200 80 -400 000/00 RMK AO2 T01280094
53915KARA ARA20161111214510911/11/16 21:45:31  5-MIN KARA 120345Z AUTO 35003KT 10SM CLR 12/09 A3017 -200 83 -500 350/03 RMK AO2 T01220094
53915KARA ARA20161111215011611/11/16 21:50:31  5-MIN KARA 120350Z AUTO 36004KT 10SM CLR 12/09 A3017 -200 83 -600 360/04 RMK AO2 SLP214 T01170089
53915KARA ARA20161111215510911/11/16 21:55:31  5-MIN KARA 120355Z AUTO 36004KT 10SM CLR 12/09 A3017 -200 83 -600 360/04 RMK AO2 T01170089
53915KARA ARA20161111220010911/11/16 22:00:31  5-MIN KARA 120400Z AUTO 35003KT 10SM CLR 11/09 A3017 -200 86 -600 350/03 RMK AO2 T01110089
53915KARA ARA20161111220510911/11/16 22:05:31  5-MIN KARA 120405Z AUTO 36003KT 10SM CLR 12/09 A3017 -200 83 -600 360/03 RMK AO2 T01170089
53915KARA ARA20161111221010911/11/16 22:10:31  5-MIN KARA 120410Z AUTO 00000KT 10SM CLR 12/09 A3017 -200 83 -600 000/00 RMK AO2 T01170089
53915KARA ARA20161111221510911/11/16 22:15:31  5-MIN KARA 120415Z AUTO 00000KT 10SM CLR 11/09 A3017 -200 86 -600 000/00 RMK AO2 T01110089
53915KARA ARA20161111222010911/11/16 22:20:31  5-MIN KARA 120420Z AUTO 00000KT 10SM CLR 12/09 A3017 -200 86 -600 000/00 RMK AO2 T01170094
53915KARA ARA20161111222510911/11/16 22:25:31  5-MIN KARA 120425Z AUTO 00000KT 10SM CLR 12/09 A3017 -200 86 -600 000/00 RMK AO2 T01170094
53915KARA ARA20161111223010911/11/16 22:30:31  5-MIN KARA 120430Z AUTO 00000KT 10SM CLR 12/09 A3017 -200 86 -600 000/00 RMK AO2 T01170094
53915KARA ARA20161111223510911/11/16 22:35:31  5-MIN KARA 120435Z AUTO 00000KT 10SM CLR 12/09 A3017 -200 86 -600 000/00 RMK AO2 T01170094
53915KARA ARA20161111224010911/11/16 22:40:31  5-MIN KARA 120440Z AUTO 00000KT 10SM CLR 12/09 A3017 -200 86 -600 000/00 RMK AO2 T01170094
53915KARA ARA20161111224510911/11/16 22:45:31  5-MIN KARA 120445Z AUTO 00000KT 10SM CLR 11/09 A3017 -200 86 -600 000/00 RMK AO2 T01110089
53915KARA ARA20161111225011611/11/16 22:50:31  5-MIN KARA 120450Z AUTO 00000KT 10SM CLR 11/09 A3017 -200 86 -600 000/00 RMK AO2 SLP216 T01110089
53915KARA ARA20161111225510911/11/16 22:55:31  5-MIN KARA 120455Z AUTO 00000KT 10SM CLR 11/09 A3017 -200 86 -600 000/00 RMK AO2 T01110089
53915KARA ARA20161111230010911/11/16 23:00:31  5-MIN KARA 120500Z AUTO 00000KT 10SM CLR 12/09 A3017 -200 86 -600 000/00 RMK AO2 T01170094
53915KARA ARA20161111230510911/11/16 23:05:31  5-MIN KARA 120505Z AUTO 00000KT 10SM CLR 11/09 A3017 -200 86 -600 000/00 RMK AO2 T01110089
53915KARA ARA20161111231010911/11/16 23:10:31  5-MIN KARA 120510Z AUTO 00000KT 10SM CLR 11/09 A3017 -200 86 -600 000/00 RMK AO2 T01110089
53915KARA ARA20161112201510411/12/16 20:15:31  5-MIN KARA 130215Z 02006KT 10SM CLR 15/06 A3021 -240 55 -200 020/06 RMK AO2 T01500061
53915KARA ARA20161112202010411/12/16 20:20:31  5-MIN KARA 130220Z 01006KT 10SM CLR 15/06 A3021 -240 55 -200 010/06 RMK AO2 T01500061
53915KARA ARA20161112202510411/12/16 20:25:31  5-MIN KARA 130225Z 01007KT 10SM CLR 15/06 A3022 -240 55 -200 010/07 RMK AO2 T01500061
53915KARA ARA20161112203010411/12/16 20:30:31  5-MIN KARA 130230Z 01006KT 10SM CLR 15/06 A3022 -250 55 -200 010/06 RMK AO2 T01500061
53915KARA ARA20161112203510411/12/16 20:35:31  5-MIN KARA 130235Z 01007KT 10SM CLR 14/06 A3023 -250 57 -300 010/07 RMK AO2 T01440061
53915KARA ARA20161112204010411/12/16 20:40:31  5-MIN KARA 130240Z 02007KT 10SM CLR 14/06 A3022 -250 59 -400 020/07 RMK AO2 T01390061
53915KARA ARA20161112204510411/12/16 20:45:31  5-MIN KARA 130245Z 02008KT 10SM CLR 14/06 A3022 -250 57 -300 020/08 RMK AO2 T01440061
53915KARA ARA20161112205011711/12/16 20:50:31  5-MIN KARA 130250Z 02008KT 10SM CLR 15/06 A3023 -250 55 -200 020/08 RMK AO2 SLP234 T01500061 53010
53915KARA ARA20161112205510411/12/16 20:55:31  5-MIN KARA 130255Z 02009KT 10SM CLR 15/06 A3023 -250 55 -200 020/09 RMK AO2 T01500061
53915KARA ARA20161112210010911/12/16 21:00:31  5-MIN KARA 130300Z AUTO 02008KT 10SM CLR 15/06 A3023 -250 55 -200 020/08 RMK AO2 T01500061
53915KARA ARA20161112210510911/12/16 21:05:31  5-MIN KARA 130305Z AUTO 02008KT 10SM CLR 15/06 A3023 -250 55 -200 020/08 RMK AO2 T01500061
53915KARA ARA20161112211010911/12/16 21:10:31  5-MIN KARA 130310Z AUTO 02008KT 10SM CLR 15/06 A3023 -250 55 -200 020/08 RMK AO2 T01500061
53915KARA ARA20161112211510911/12/16 21:15:31  5-MIN KARA 130315Z AUTO 02008KT 10SM CLR 15/06 A3023 -250 55 -200 020/08 RMK AO2 T01500061
53915KARA ARA20161112212010911/12/16 21:20:31  5-MIN KARA 130320Z AUTO 02007KT 10SM CLR 15/06 A3023 -250 55 -200 020/07 RMK AO2 T01500061
53915KARA ARA20161112212510911/12/16 21:25:31  5-MIN KARA 130325Z AUTO 02009KT 10SM CLR 15/06 A3023 -260 55 -200 020/09 RMK AO2 T01500061
53915KARA ARA20161112213010911/12/16 21:30:31  5-MIN KARA 130330Z AUTO 02008KT 10SM CLR 15/06 A3023 -250 55 -200 020/08 RMK AO2 T01500061
53915KARA ARA20161112213510911/12/16 21:35:31  5-MIN KARA 130335Z AUTO 02008KT 10SM CLR 15/06 A3023 -260 55 -200 020/08 RMK AO2 T01500061
53915KARA ARA20161112214010911/12/16 21:40:31  5-MIN KARA 130340Z AUTO 02008KT 10SM CLR 15/06 A3023 -260 55 -200 020/08 RMK AO2 T01500061
53915KARA ARA20161112214510911/12/16 21:45:31  5-MIN KARA 130345Z AUTO 02007KT 10SM CLR 15/06 A3023 -250 55 -200 020/07 RMK AO2 T01500061
53915KARA ARA20161112215011611/12/16 21:50:31  5-MIN KARA 130350Z AUTO 02008KT 10SM CLR 15/06 A3023 -250 53 -200 020/08 RMK AO2 SLP236 T01500056
53915KARA ARA20161112215510911/12/16 21:55:31  5-MIN KARA 130355Z AUTO 01008KT 10SM CLR 15/06 A3024 -260 53 -200 010/08 RMK AO2 T01500056
53915KARA ARA20161112220010911/12/16 22:00:31  5-MIN KARA 130400Z AUTO 02008KT 10SM CLR 15/06 A3023 -260 53 -200 020/08 RMK AO2 T01500056
53915KARA ARA20161112220510911/12/16 22:05:31  5-MIN KARA 130405Z AUTO 02008KT 10SM CLR 15/06 A3023 -250 53 -200 020/08 RMK AO2 T01500056
53915KARA ARA20161112221010911/12/16 22:10:31  5-MIN KARA 130410Z AUTO 02009KT 10SM CLR 15/06 A3023 -260 53 -200 020/09 RMK AO2 T01500056
53915KARA ARA20161112221510911/12/16 22:15:31  5-MIN KARA 130415Z AUTO 02009KT 10SM CLR 15/06 A3023 -260 53 -200 020/09 RMK AO2 T01500056
53915KARA ARA20161112222010911/12/16 22:20:31  5-MIN KARA 130420Z AUTO 02008KT 10SM CLR 15/06 A3023 -260 53 -200 020/08 RMK AO2 T01500056
53915KARA ARA20161112222510911/12/16 22:25:31  5-MIN KARA 130425Z AUTO 02008KT 10SM CLR 14/06 A3023 -260 55 -300 020/08 RMK AO2 T01440056
53915KARA ARA20161112223010911/12/16 22:30:31  5-MIN KARA 130430Z AUTO 02009KT 10SM CLR 14/06 A3023 -250 55 -300 020/09 RMK AO2 T01440056
53915KARA ARA20161112223510911/12/16 22:35:31  5-MIN KARA 130435Z AUTO 02009KT 10SM CLR 14/06 A3022 -250 55 -300 020/09 RMK AO2 T01440056
53915KARA ARA20161112224010911/12/16 22:40:31  5-MIN KARA 130440Z AUTO 02009KT 10SM CLR 14/06 A3022 -250 55 -300 020/09 RMK AO2 T01440056
53915KARA ARA20161112224510911/12/16 22:45:31  5-MIN KARA 130445Z AUTO 02008KT 10SM CLR 15/06 A3022 -250 53 -200 020/08 RMK AO2 T01500056
53915KARA ARA20161112225011611/12/16 22:50:31  5-MIN KARA 130450Z AUTO 02008KT 10SM CLR 14/06 A3022 -250 55 -300 020/08 RMK AO2 SLP234 T01440056
53915KARA ARA20161112225510911/12/16 22:55:31  5-MIN KARA 130455Z AUTO 02008KT 10SM CLR 15/06 A3022 -250 53 -200 020/08 RMK AO2 T01500056
53915KARA ARA20161112230010911/12/16 23:00:31  5-MIN KARA 130500Z AUTO 02009KT 10SM CLR 14/06 A3022 -250 55 -300 020/09 RMK AO2 T01440056
53915KARA ARA20161112230510911/12/16 23:05:31  5-MIN KARA 130505Z AUTO 02008KT 10SM CLR 14/05 A3022 -250 53 -300 020/08 RMK AO2 T01440050
53915KARA ARA20161112231010911/12/16 23:10:31  5-MIN KARA 130510Z AUTO 02008KT 10SM CLR 14/05 A3022 -250 53 -300 020/08 RMK AO2 T01440050
53915KARA ARA20161112231510911/12/16 23:15:31  5-MIN KARA 130515Z AUTO 02009KT 10SM CLR 14/05 A3022 -240 53 -300 020/09 RMK AO2 T01440050
53915KARA ARA20161112232010911/12/16 23:20:31  5-MIN KARA 130520Z AUTO 02008KT 10SM CLR 14/05 A3022 -240 53 -300 020/08 RMK AO2 T01440050
53915KARA ARA20161112232510911/12/16 23:25:31  5-MIN KARA 130525Z AUTO 02009KT 10SM CLR 14/05 A3022 -250 53 -300 010/09 RMK AO2 T01440050
53915KARA ARA20161112233010911/12/16 23:30:31  5-MIN KARA 130530Z AUTO 02010KT 10SM CLR 14/05 A3022 -240 55 -300 020/10 RMK AO2 T01390050
53915KARA ARA20161112233510911/12/16 23:35:31  5-MIN KARA 130535Z AUTO 02009KT 10SM CLR 14/05 A3021 -240 55 -300 020/09 RMK AO2 T01390050
53915KARA ARA20161112234010911/12/16 23:40:31  5-MIN KARA 130540Z AUTO 02009KT 10SM CLR 14/05 A3022 -240 55 -300 020/09 RMK AO2 T01390050
53915KARA ARA20161112234510911/12/16 23:45:31  5-MIN KARA 130545Z AUTO 02009KT 10SM CLR 14/05 A3022 -240 55 -300 020/09 RMK AO2 T01390050
53915KARA ARA20161112235014411/12/16 23:50:31  5-MIN KARA 130550Z AUTO 02010KT 10SM CLR 14/05 A3021 -240 55 -300 020/10 RMK AO2 SLP229 T01390050 10178 20139 402500094 53025
53915KARA ARA20161112235510911/12/16 23:55:31  5-MIN KARA 130555Z AUTO 02009KT 10SM CLR 14/05 A3021 -240 55 -300 020/09 RMK AO2 T01390050
53915KARA ARA20161113000010911/13/16 00:00:31  5-MIN KARA 130600Z AUTO 02008KT 10SM CLR 14/05 A3021 -240 55 -300 020/08 RMK AO2 T01390050
53915KARA ARA20161113000510911/13/16 00:05:31  5-MIN KARA 130605Z AUTO 02007KT 10SM CLR 13/05 A3021 -240 57 -400 020/07 RMK AO2 T01330050
53915KARA ARA20161113001010911/13/16 00:10:31  5-MIN KARA 130610Z AUTO 02007KT 10SM CLR 13/05 A3021 -240 57 -400 020/07 RMK AO2 T01330050
53915KARA ARA20161113001510911/13/16 00:15:31  5-MIN KARA 130615Z AUTO 02008KT 10SM CLR 13/05 A3021 -240 57 -400 020/08 RMK AO2 T01330050
53915KARA ARA20161113002010911/13/16 00:20:31  5-MIN KARA 130620Z AUTO 02007KT 10SM CLR 13/05 A3021 -240 57 -400 020/07 RMK AO2 T01330050
53915KARA ARA20161113002510911/13/16 00:25:31  5-MIN KARA 130625Z AUTO 01007KT 10SM CLR 13/05 A3021 -240 57 -400 010/07 RMK AO2 T01330050
53915KARA ARA20161113003010911/13/16 00:30:31  5-MIN KARA 130630Z AUTO 01006KT 10SM CLR 13/05 A3021 -240 57 -400 010/06 RMK AO2 T01330050
53915KARA ARA20161113003510911/13/16 00:35:31  5-MIN KARA 130635Z AUTO 01006KT 10SM CLR 13/05 A3021 -240 59 -500 010/06 RMK AO2 T01280050
53915KARA ARA20161113004010911/13/16 00:40:31  5-MIN KARA 130640Z AUTO 01006KT 10SM CLR 13/05 A3021 -230 59 -500 010/06 RMK AO2 T01280050
53915KARA ARA20161113004510911/13/16 00:45:31  5-MIN KARA 130645Z AUTO 36006KT 10SM CLR 13/05 A3021 -240 59 -500 360/06 RMK AO2 T01280050
53915KARA ARA20161113005011611/13/16 00:50:31  5-MIN KARA 130650Z AUTO 35004KT 10SM CLR 13/05 A3022 -240 59 -500 350/04 RMK AO2 SLP231 T01280050
53915KARA ARA20161113005510911/13/16 00:55:31  5-MIN KARA 130655Z AUTO 35004KT 10SM CLR 12/05 A3021 -240 61 -500 350/04 RMK AO2 T01220050
53915KARA ARA20161113010010911/13/16 01:00:31  5-MIN KARA 130700Z AUTO 36004KT 10SM CLR 12/06 A3021 -240 63 -500 360/04 RMK AO2 T01220056
53915KARA ARA20161113010510911/13/16 01:05:31  5-MIN KARA 130705Z AUTO 36004KT 10SM CLR 12/06 A3021 -240 63 -500 360/04 RMK AO2 T01220056
53915KARA ARA20161113011010911/13/16 01:10:31  5-MIN KARA 130710Z AUTO 36005KT 10SM CLR 12/06 A3021 -230 63 -500 360/05 RMK AO2 T01220056
53915KARA ARA20161113011510911/13/16 01:15:31  5-MIN KARA 130715Z AUTO 36006KT 10SM CLR 12/06 A3021 -230 63 -500 360/06 RMK AO2 T01220056
53915KARA ARA20161113012010911/13/16 01:20:31  5-MIN KARA 130720Z AUTO 01005KT 10SM CLR 12/06 A3020 -230 63 -500 360/05 RMK AO2 T01220056
53915KARA ARA20161113012510911/13/16 01:25:31  5-MIN KARA 130725Z AUTO 36007KT 10SM CLR 12/06 A3021 -230 66 -600 360/07 RMK AO2 T01170056
53915KARA ARA20161113013010911/13/16 01:30:31  5-MIN KARA 130730Z AUTO 01006KT 10SM CLR 12/06 A3020 -230 66 -600 010/06 RMK AO2 T01170056
53915KARA ARA20161113013510911/13/16 01:35:31  5-MIN KARA 130735Z AUTO 01006KT 10SM CLR 12/06 A3020 -230 66 -600 010/06 RMK AO2 T01170056
53915KARA ARA20161113014010911/13/16 01:40:31  5-MIN KARA 130740Z AUTO 01007KT 10SM CLR 12/06 A3020 -230 66 -600 010/07 RMK AO2 T01170056
53915KARA ARA20161113014510911/13/16 01:45:31  5-MIN KARA 130745Z AUTO 01007KT 10SM CLR 12/06 A3021 -230 66 -600 010/07 RMK AO2 T01170056
53915KARA ARA20161113015011611/13/16 01:50:31  5-MIN KARA 130750Z AUTO 01006KT 10SM CLR 12/06 A3020 -230 66 -600 010/06 RMK AO2 SLP227 T01170056
53915KARA ARA20161113015510911/13/16 01:55:31  5-MIN KARA 130755Z AUTO 36006KT 10SM CLR 12/06 A3020 -230 66 -600 360/06 RMK AO2 T01170056
53915KARA ARA20161113020010911/13/16 02:00:31  5-MIN KARA 130800Z AUTO 36005KT 10SM CLR 12/06 A3020 -230 66 -600 360/05 RMK AO2 T01170056
53915KARA ARA20161113020510911/13/16 02:05:31  5-MIN KARA 130805Z AUTO 01005KT 10SM CLR 12/05 A3020 -230 63 -600 010/05 RMK AO2 T01170050
53915KARA ARA20161113021010911/13/16 02:10:31  5-MIN KARA 130810Z AUTO 01007KT 10SM CLR 11/05 A3020 -220 66 -700 010/07 RMK AO2 T01110050
53915KARA ARA20161113021510911/13/16 02:15:31  5-MIN KARA 130815Z AUTO 01007KT 10SM CLR 11/05 A3020 -220 66 -700 010/07 RMK AO2 T01110050
53915KARA ARA20161113022010911/13/16 02:20:31  5-MIN KARA 130820Z AUTO 01008KT 10SM CLR 11/06 A3020 -230 68 -700 010/08 RMK AO2 T01110056
53915KARA ARA20161113022510911/13/16 02:25:31  5-MIN KARA 130825Z AUTO 01007KT 10SM CLR 12/06 A3020 -230 66 -600 010/07 RMK AO2 T01170056
53915KARA ARA20161113023010911/13/16 02:30:31  5-MIN KARA 130830Z AUTO 01007KT 10SM CLR 12/06 A3020 -230 66 -600 010/07 RMK AO2 T01170056
53915KARA ARA20161113023510911/13/16 02:35:31  5-MIN KARA 130835Z AUTO 01007KT 10SM CLR 11/05 A3020 -220 66 -700 010/07 RMK AO2 T01110050
53915KARA ARA20161113024010911/13/16 02:40:31  5-MIN KARA 130840Z AUTO 01007KT 10SM CLR 12/05 A3019 -220 63 -600 010/07 RMK AO2 T01170050
53915KARA ARA20161113024510911/13/16 02:45:31  5-MIN KARA 130845Z AUTO 02007KT 10SM CLR 12/06 A3019 -220 66 -600 020/07 RMK AO2 T01170056
53915KARA ARA20161113025012211/13/16 02:50:31  5-MIN KARA 130850Z AUTO 01007KT 10SM CLR 12/06 A3020 -220 66 -600 010/07 RMK AO2 SLP225 T01170056 58005
53915KARA ARA20161113025510911/13/16 02:55:31  5-MIN KARA 130855Z AUTO 36007KT 10SM CLR 12/05 A3020 -220 63 -600 360/07 RMK AO2 T01170050
53915KARA ARA20161113030010911/13/16 03:00:31  5-MIN KARA 130900Z AUTO 36007KT 10SM CLR 11/05 A3020 -220 66 -700 360/07 RMK AO2 T01110050
53915KARA ARA20161113030510911/13/16 03:05:31  5-MIN KARA 130905Z AUTO 36006KT 10SM CLR 11/06 A3019 -220 68 -700 360/06 RMK AO2 T01110056
53915KARA ARA20161113031010911/13/16 03:10:31  5-MIN KARA 130910Z AUTO 01006KT 10SM CLR 11/06 A3019 -220 68 -600 360/06 RMK AO2 T01110056
53915KARA ARA20161113031510911/13/16 03:15:31  5-MIN KARA 130915Z AUTO 01007KT 10SM CLR 11/06 A3018 -210 68 -600 010/07 RMK AO2 T01110056
53915KARA ARA20161113032010911/13/16 03:20:31  5-MIN KARA 130920Z AUTO 01007KT 10SM CLR 12/06 A3018 -210 66 -600 010/07 RMK AO2 T01170056
53915KARA ARA20161113032510911/13/16 03:25:31  5-MIN KARA 130925Z AUTO 01007KT 10SM CLR 12/06 A3018 -210 66 -600 010/07 RMK AO2 T01170056
53915KARA ARA20161113033010911/13/16 03:30:31  5-MIN KARA 130930Z AUTO 01007KT 10SM CLR 12/06 A3018 -210 66 -600 010/07 RMK AO2 T01170056
53915KARA ARA20161113033510911/13/16 03:35:31  5-MIN KARA 130935Z AUTO 36006KT 10SM CLR 12/06 A3018 -210 66 -600 360/06 RMK AO2 T01170056
53915KARA ARA20161113034010911/13/16 03:40:31  5-MIN KARA 130940Z AUTO 36006KT 10SM CLR 11/06 A3018 -210 68 -600 360/06 RMK AO2 T01110056
53915KARA ARA20161113034510911/13/16 03:45:31  5-MIN KARA 130945Z AUTO 01006KT 10SM CLR 11/06 A3018 -210 68 -600 010/06 RMK AO2 T01110056
53915KARA ARA20161113035011611/13/16 03:50:31  5-MIN KARA 130950Z AUTO 01007KT 10SM CLR 12/06 A3018 -210 66 -600 360/07 RMK AO2 SLP218 T01170056
53915KARA ARA20161113035510911/13/16 03:55:31  5-MIN KARA 130955Z AUTO 01007KT 10SM CLR 12/06 A3018 -200 66 -600 010/07 RMK AO2 T01170056
53915KARA ARA20161113040010911/13/16 04:00:31  5-MIN KARA 131000Z AUTO 36007KT 10SM CLR 12/06 A3018 -210 66 -600 360/07 RMK AO2 T01170056
53915KARA ARA20161113040510911/13/16 04:05:31  5-MIN KARA 131005Z AUTO 36005KT 10SM CLR 11/06 A3018 -210 68 -600 360/05 RMK AO2 T01110056
53915KARA ARA20161113041010911/13/16 04:10:31  5-MIN KARA 131010Z AUTO 35005KT 10SM CLR 11/06 A3018 -210 68 -600 350/05 RMK AO2 T01110056
53915KARA ARA20161113041510911/13/16 04:15:31  5-MIN KARA 131015Z AUTO 36006KT 10SM CLR 11/06 A3018 -210 68 -600 350/06 RMK AO2 T01110056
53915KARA ARA20161113042010911/13/16 04:20:31  5-MIN KARA 131020Z AUTO 36006KT 10SM CLR 11/06 A3018 -210 68 -600 350/06 RMK AO2 T01110056
53915KARA ARA20161113042510911/13/16 04:25:31  5-MIN KARA 131025Z AUTO 35005KT 10SM CLR 11/06 A3018 -210 68 -600 350/05 RMK AO2 T01110056
53915KARA ARA20161113043010911/13/16 04:30:31  5-MIN KARA 131030Z AUTO 35005KT 10SM CLR 11/06 A3019 -210 71 -700 350/05 RMK AO2 T01060056
53915KARA ARA20161113043510911/13/16 04:35:31  5-MIN KARA 131035Z AUTO 35005KT 10SM CLR 11/06 A3019 -210 71 -700 350/05 RMK AO2 T01060056
53915KARA ARA20161113044010911/13/16 04:40:31  5-MIN KARA 131040Z AUTO 35005KT 10SM CLR 11/06 A3019 -210 71 -700 350/05 RMK AO2 T01060056
53915KARA ARA20161113044510911/13/16 04:45:31  5-MIN KARA 131045Z AUTO 35004KT 10SM CLR 11/06 A3019 -220 71 -700 350/04 RMK AO2 T01060056
53915KARA ARA20161113045011611/13/16 04:50:31  5-MIN KARA 131050Z AUTO 35004KT 10SM CLR 11/06 A3019 -220 71 -700 350/04 RMK AO2 SLP223 T01060056
53915KARA ARA20161113045510911/13/16 04:55:31  5-MIN KARA 131055Z AUTO 35005KT 10SM CLR 11/06 A3019 -220 71 -700 350/05 RMK AO2 T01060056
53915KARA ARA20161113050010911/13/16 05:00:31  5-MIN KARA 131100Z AUTO 35005KT 10SM CLR 11/06 A3019 -220 71 -700 350/05 RMK AO2 T01060056
53915KARA ARA20161113050510911/13/16 05:05:31  5-MIN KARA 131105Z AUTO 35005KT 10SM CLR 11/06 A3020 -220 71 -700 350/05 RMK AO2 T01060056
53915KARA ARA20161113051010911/13/16 05:10:31  5-MIN KARA 131110Z AUTO 35004KT 10SM CLR 11/06 A3020 -220 71 -700 350/04 RMK AO2 T01060056
53915KARA ARA20161113051510911/13/16 05:15:31  5-MIN KARA 131115Z AUTO 35004KT 10SM CLR 10/06 A3020 -220 74 -800 340/04 RMK AO2 T01000056
53915KARA ARA20161113052010911/13/16 05:20:31  5-MIN KARA 131120Z AUTO 35004KT 10SM CLR 10/06 A3020 -230 74 -800 350/04 RMK AO2 T01000056
53915KARA ARA20161113052510911/13/16 05:25:31  5-MIN KARA 131125Z AUTO 35004KT 10SM CLR 10/06 A3020 -230 74 -800 350/04 RMK AO2 T01000056
53915KARA ARA20161113053010911/13/16 05:30:31  5-MIN KARA 131130Z AUTO 35005KT 10SM CLR 10/06 A3020 -230 74 -800 350/05 RMK AO2 T01000056
53915KARA ARA20161113053510911/13/16 05:35:31  5-MIN KARA 131135Z AUTO 35005KT 10SM CLR 10/05 A3020 -230 71 -800 350/05 RMK AO2 T01000050
53915KARA ARA20161113054010911/13/16 05:40:31  5-MIN KARA 131140Z AUTO 01005KT 10SM CLR 10/05 A3020 -220 71 -800 360/05 RMK AO2 T01000050
53915KARA ARA20161113054510411/13/16 05:45:31  5-MIN KARA 131145Z 36005KT 10SM CLR 10/05 A3020 -220 71 -800 360/05 RMK AO2 T01000050
53915KARA ARA20161113055012911/13/16 05:50:31  5-MIN KARA 131150Z 35005KT 10SM CLR 09/05 A3020 -230 74 -900 350/05 RMK AO2 SLP226 T00940050 10139 20094 58005
53915KARA ARA20161113055510411/13/16 05:55:31  5-MIN KARA 131155Z 34005KT 10SM CLR 10/06 A3021 -230 74 -800 340/05 RMK AO2 T01000056
53915KARA ARA20161113060010411/13/16 06:00:31  5-MIN KARA 131200Z 36005KT 10SM CLR 10/06 A3020 -230 74 -800 360/05 RMK AO2 T01000056
53915KARA ARA20161113060510411/13/16 06:05:31  5-MIN KARA 131205Z 01005KT 10SM CLR 10/06 A3020 -230 74 -800 360/05 RMK AO2 T01000056
53915KARA ARA20161113061010411/13/16 06:10:31  5-MIN KARA 131210Z 36005KT 10SM CLR 09/06 A3020 -230 76 -900 360/05 RMK AO2 T00940056
53915KARA ARA20161113061510411/13/16 06:15:31  5-MIN KARA 131215Z 36005KT 10SM CLR 09/06 A3020 -230 76 -900 360/05 RMK AO2 T00940056
53915KARA ARA20161113062010411/13/16 06:20:31  5-MIN KARA 131220Z 35005KT 10SM CLR 10/06 A3021 -240 74 -800 350/05 RMK AO2 T01000056
53915KARA ARA20161113062510411/13/16 06:25:31  5-MIN KARA 131225Z 36005KT 10SM CLR 10/06 A3021 -230 74 -800 360/05 RMK AO2 T01000056
53915KARA ARA20161113063010411/13/16 06:30:31  5-MIN KARA 131230Z 36005KT 10SM CLR 09/06 A3021 -230 76 -900 360/05 RMK AO2 T00940056
53915KARA ARA20161113063510411/13/16 06:35:31  5-MIN KARA 131235Z 02005KT 10SM CLR 10/06 A3020 -230 74 -800 020/05 RMK AO2 T01000056
53915KARA ARA20161113064010411/13/16 06:40:31  5-MIN KARA 131240Z 36004KT 10SM CLR 10/06 A3021 -230 74 -800 360/04 RMK AO2 T01000056
53915KARA ARA20161113064510411/13/16 06:45:31  5-MIN KARA 131245Z 36004KT 10SM CLR 10/06 A3021 -230 74 -800 360/04 RMK AO2 T01000056
53915KARA ARA20161113065011111/13/16 06:50:31  5-MIN KARA 131250Z 36004KT 10SM CLR 10/06 A3021 -230 74 -800 360/04 RMK AO2 SLP228 T01000056
53915KARA ARA20161113065510411/13/16 06:55:31  5-MIN KARA 131255Z 01004KT 10SM CLR 10/06 A3021 -230 74 -800 360/04 RMK AO2 T01000056
53915KARA ARA20161113070010411/13/16 07:00:31  5-MIN KARA 131300Z 36005KT 10SM CLR 10/06 A3021 -230 74 -800 360/05 RMK AO2 T01000056
53915KARA ARA20161113070510411/13/16 07:05:31  5-MIN KARA 131305Z 35005KT 10SM CLR 10/06 A3021 -240 74 -800 350/05 RMK AO2 T01000056
53915KARA ARA20161113071010411/13/16 07:10:31  5-MIN KARA 131310Z 35006KT 10SM CLR 10/06 A3022 -240 74 -800 350/06 RMK AO2 T01000056
53915KARA ARA20161113071510411/13/16 07:15:31  5-MIN KARA 131315Z 35006KT 10SM CLR 10/06 A3022 -250 74 -800 350/06 RMK AO2 T01000056
53915KARA ARA20161113072010411/13/16 07:20:31  5-MIN KARA 131320Z 35006KT 10SM CLR 11/06 A3023 -250 71 -800 350/06 RMK AO2 T01060056
53915KARA ARA20161113072510411/13/16 07:25:31  5-MIN KARA 131325Z 01005KT 10SM CLR 11/06 A3022 -250 74 -800 010/05 RMK AO2 T01060061
53915KARA ARA20161113073010411/13/16 07:30:31  5-MIN KARA 131330Z 01006KT 10SM CLR 11/07 A3022 -250 77 -800 010/06 RMK AO2 T01060067
53915KARA ARA20161113073510411/13/16 07:35:31  5-MIN KARA 131335Z 02007KT 10SM CLR 11/06 A3022 -250 71 -700 020/07 RMK AO2 T01110061
53915KARA ARA20161113074010411/13/16 07:40:31  5-MIN KARA 131340Z 01007KT 10SM CLR 11/06 A3022 -250 71 -700 010/07 RMK AO2 T01110061
53915KARA ARA20161113074510411/13/16 07:45:31  5-MIN KARA 131345Z 02007KT 10SM CLR 11/06 A3022 -250 71 -700 010/07 RMK AO2 T01110061
53915KARA ARA20161113075011111/13/16 07:50:31  5-MIN KARA 131350Z 02007KT 10SM CLR 11/06 A3022 -250 71 -700 020/07 RMK AO2 SLP233 T01110061
53915KARA ARA20161113075510411/13/16 07:55:31  5-MIN KARA 131355Z 02007KT 10SM CLR 11/06 A3022 -250 71 -700 020/07 RMK AO2 T01110061
53915KARA ARA20161113080010411/13/16 08:00:31  5-MIN KARA 131400Z 01005KT 10SM CLR 12/06 A3023 -250 68 -600 010/05 RMK AO2 T01170061
53915KARA ARA20161113080510411/13/16 08:05:31  5-MIN KARA 131405Z 36006KT 10SM CLR 12/06 A3024 -260 68 -600 360/06 RMK AO2 T01170061
53915KARA ARA20161113081011111/13/16 08:10:31  5-MIN KARA 131410Z 36005KT 10SM CLR 12/06 A3024 -270 68 -600 360/05 RMK AO2 PRESRR T01170061
53915KARA ARA20161113081510411/13/16 08:15:31  5-MIN KARA 131415Z 01006KT 10SM CLR 12/06 A3024 -260 68 -600 010/06 RMK AO2 T01170061
53915KARA ARA20161113082010411/13/16 08:20:31  5-MIN KARA 131420Z 01006KT 10SM CLR 12/06 A3024 -260 68 -600 010/06 RMK AO2 T01170061
53915KARA ARA20161113082510411/13/16 08:25:31  5-MIN KARA 131425Z 01004KT 10SM CLR 12/06 A3024 -270 68 -600 010/04 RMK AO2 T01170061
53915KARA ARA20161113083010411/13/16 08:30:31  5-MIN KARA 131430Z 02005KT 10SM CLR 13/07 A3025 -270 66 -500 020/05 RMK AO2 T01280067
53915KARA ARA20161113083510411/13/16 08:35:31  5-MIN KARA 131435Z 02007KT 10SM CLR 13/06 A3025 -270 63 -500 020/07 RMK AO2 T01280061
53915KARA ARA20161113084010411/13/16 08:40:31  5-MIN KARA 131440Z 02005KT 10SM CLR 13/06 A3025 -270 63 -500 020/05 RMK AO2 T01280061
53915KARA ARA20161113084510411/13/16 08:45:31  5-MIN KARA 131445Z 04007KT 10SM CLR 13/06 A3025 -270 61 -400 040/07 RMK AO2 T01330061
53915KARA ARA20161113085011711/13/16 08:50:31  5-MIN KARA 131450Z 04007KT 10SM CLR 14/06 A3025 -270 59 -400 040/07 RMK AO2 SLP241 T01390061 53002
53915KARA ARA20161113085510411/13/16 08:55:31  5-MIN KARA 131455Z 03007KT 10SM CLR 14/06 A3024 -270 57 -400 030/07 RMK AO2 T01390056
53915KARA ARA20161113090010411/13/16 09:00:31  5-MIN KARA 131500Z 03007KT 10SM CLR 14/06 A3024 -270 59 -400 030/07 RMK AO2 T01390061
53915KARA ARA20161113090510411/13/16 09:05:31  5-MIN KARA 131505Z 03008KT 10SM CLR 14/06 A3024 -270 57 -300 030/08 RMK AO2 T01440061
53915KARA ARA20161113091010411/13/16 09:10:31  5-MIN KARA 131510Z 04008KT 10SM CLR 14/06 A3024 -260 57 -300 040/08 RMK AO2 T01440061
53915KARA ARA20161113091510411/13/16 09:15:31  5-MIN KARA 131515Z 03008KT 10SM CLR 14/06 A3024 -270 57 -300 030/08 RMK AO2 T01440061
53915KARA ARA20161113092010411/13/16 09:20:31  5-MIN KARA 131520Z VRB05KT 10SM CLR 15/06 A3025 -270 55 -200 VRB/05 RMK AO2 T01500061
53915KARA ARA20161113092510411/13/16 09:25:31  5-MIN KARA 131525Z 02005KT 10SM CLR 15/06 A3026 -280 55 -300 020/05 RMK AO2 T01500061
53915KARA ARA20161113093010411/13/16 09:30:31  5-MIN KARA 131530Z 02005KT 10SM CLR 16/06 A3026 -280 53 -200 020/05 RMK AO2 T01560061
53915KARA ARA20161113093510411/13/16 09:35:31  5-MIN KARA 131535Z 05005KT 10SM CLR 16/06 A3026 -280 53 -200 050/05 RMK AO2 T01560061
53915KARA ARA20161113094010411/13/16 09:40:31  5-MIN KARA 131540Z 04005KT 10SM CLR 16/06 A3025 -280 53 -200 040/05 RMK AO2 T01560061
53915KARA ARA20161113094510411/13/16 09:45:31  5-MIN KARA 131545Z 04005KT 10SM CLR 16/06 A3025 -280 53 -200 040/05 RMK AO2 T01560061
53915KARA ARA20161113095011111/13/16 09:50:31  5-MIN KARA 131550Z 04005KT 10SM CLR 16/07 A3025 -280 53 -100 040/05 RMK AO2 SLP244 T01610067
53915KARA ARA20161113095510411/13/16 09:55:31  5-MIN KARA 131555Z 02006KT 10SM CLR 16/06 A3025 -280 51 -100 010/06 RMK AO2 T01610061
53915KARA ARA20161113100010411/13/16 10:00:31  5-MIN KARA 131600Z 02004KT 10SM CLR 16/06 A3026 -280 51 -100 020/04 RMK AO2 T01610061
53915KARA ARA20161113100510411/13/16 10:05:31  5-MIN KARA 131605Z 03006KT 10SM CLR 17/06 A3025 -270 49 -100 030/06 RMK AO2 T01670061
53915KARA ARA20161113101010111/13/16 10:10:31  5-MIN KARA 131610Z 01007KT 10SM CLR 17/07 A3025 -270 49 0 010/07 RMK AO2 T01720067
53915KARA ARA20161113101510111/13/16 10:15:31  5-MIN KARA 131615Z 02007KT 10SM CLR 17/06 A3025 -270 47 0 020/07 RMK AO2 T01720061
53915KARA ARA20161113102010111/13/16 10:20:31  5-MIN KARA 131620Z 02009KT 10SM CLR 17/06 A3025 -270 47 0 020/09 RMK AO2 T01720061
53915KARA ARA20161113102510111/13/16 10:25:31  5-MIN KARA 131625Z 02008KT 10SM CLR 17/06 A3024 -260 47 0 020/08 RMK AO2 T01720061
53915KARA ARA20161113103010111/13/16 10:30:31  5-MIN KARA 131630Z 02008KT 10SM CLR 17/07 A3024 -260 49 0 020/08 RMK AO2 T01720067
53915KARA ARA20161113103510111/13/16 10:35:31  5-MIN KARA 131635Z 01010KT 10SM CLR 18/07 A3023 -260 48 0 010/10 RMK AO2 T01780067
53915KARA ARA20161113104010111/13/16 10:40:31  5-MIN KARA 131640Z 36008KT 10SM CLR 18/07 A3023 -250 48 0 360/08 RMK AO2 T01780067
53915KARA ARA20161113104510111/13/16 10:45:31  5-MIN KARA 131645Z 03009KT 10SM CLR 18/06 A3023 -250 46 0 030/09 RMK AO2 T01780061
53915KARA ARA20161113105011011/13/16 10:50:31  5-MIN KARA 131650Z 03008KT 10SM CLR 18/06 A3023 -250 46 100 020/08 RMK AO2 SLP235 T01780061
53915KARA ARA20161113105510311/13/16 10:55:31  5-MIN KARA 131655Z 03007KT 10SM CLR 18/06 A3022 -250 44 100 030/07 RMK AO2 T01830061
53915KARA ARA20161113110010311/13/16 11:00:31  5-MIN KARA 131700Z 04009KT 10SM CLR 18/06 A3022 -250 44 100 040/09 RMK AO2 T01830061
53915KARA ARA20161113110510311/13/16 11:05:31  5-MIN KARA 131705Z 04008KT 10SM CLR 18/06 A3022 -250 44 100 030/08 RMK AO2 T01830061
53915KARA ARA20161113111010311/13/16 11:10:31  5-MIN KARA 131710Z 01009KT 10SM CLR 19/06 A3022 -240 43 200 010/09 RMK AO2 T01890061
53915KARA ARA20161113111510311/13/16 11:15:31  5-MIN KARA 131715Z 03009KT 10SM CLR 18/06 A3021 -240 42 100 020/09 RMK AO2 T01830056
53915KARA ARA20161113112010311/13/16 11:20:31  5-MIN KARA 131720Z 03008KT 10SM CLR 19/06 A3021 -230 41 200 030/08 RMK AO2 T01890056
53915KARA ARA20161113112510311/13/16 11:25:31  5-MIN KARA 131725Z 03007KT 10SM CLR 19/06 A3021 -240 43 200 030/07 RMK AO2 T01890061
53915KARA ARA20161113113010311/13/16 11:30:31  5-MIN KARA 131730Z 03009KT 10SM CLR 19/06 A3021 -230 41 300 030/09 RMK AO2 T01940061
53915KARA ARA20161113113510311/13/16 11:35:31  5-MIN KARA 131735Z 02010KT 10SM CLR 19/06 A3021 -230 41 300 020/10 RMK AO2 T01940061
53915KARA ARA20161113114010311/13/16 11:40:31  5-MIN KARA 131740Z 36009KT 10SM CLR 19/06 A3020 -230 41 300 360/09 RMK AO2 T01940061
53915KARA ARA20161113114510311/13/16 11:45:31  5-MIN KARA 131745Z 02006KT 10SM CLR 19/06 A3020 -230 40 300 020/06 RMK AO2 T01940056
53915KARA ARA20161113115012811/13/16 11:50:31  5-MIN KARA 131750Z 36009KT 10SM CLR 19/06 A3020 -230 41 300 360/09 RMK AO2 SLP225 T01940061 10194 20094 53014
53915KARA ARA20161113115510311/13/16 11:55:31  5-MIN KARA 131755Z 36009KT 10SM CLR 19/06 A3020 -220 41 200 360/09 RMK AO2 T01890056
53915KARA ARA20161113120010311/13/16 12:00:31  5-MIN KARA 131800Z 35010KT 10SM CLR 19/06 A3019 -220 41 200 350/10 RMK AO2 T01890056
53915KARA ARA20161113120510311/13/16 12:05:31  5-MIN KARA 131805Z 01011KT 10SM CLR 19/06 A3019 -210 41 200 010/11 RMK AO2 T01890056
53915KARA ARA20161113121010311/13/16 12:10:31  5-MIN KARA 131810Z 01009KT 10SM CLR 19/06 A3018 -210 41 200 010/09 RMK AO2 T01890056
53915KARA ARA20161113121510311/13/16 12:15:31  5-MIN KARA 131815Z 36010KT 10SM CLR 19/06 A3018 -210 41 200 350/10 RMK AO2 T01890056
53915KARA ARA20161113122010311/13/16 12:20:31  5-MIN KARA 131820Z 01009KT 10SM CLR 19/06 A3018 -210 41 200 010/09 RMK AO2 T01890056
53915KARA ARA20161113122510311/13/16 12:25:31  5-MIN KARA 131825Z 01010KT 10SM CLR 19/06 A3018 -210 41 200 010/10 RMK AO2 T01890056
53915KARA ARA20161113123010311/13/16 12:30:31  5-MIN KARA 131830Z 36012KT 10SM CLR 19/06 A3018 -200 41 200 360/12 RMK AO2 T01890056
53915KARA ARA20161113123510311/13/16 12:35:31  5-MIN KARA 131835Z 02010KT 10SM CLR 19/06 A3017 -200 41 200 020/10 RMK AO2 T01890056
53915KARA ARA20161113124010311/13/16 12:40:31  5-MIN KARA 131840Z 01011KT 10SM CLR 19/06 A3017 -200 41 200 360/11 RMK AO2 T01890056
53915KARA ARA20161113124510311/13/16 12:45:31  5-MIN KARA 131845Z 01010KT 10SM CLR 18/06 A3016 -190 42 200 360/10 RMK AO2 T01830056
53915KARA ARA20161113125011011/13/16 12:50:31  5-MIN KARA 131850Z 36011KT 10SM CLR 18/06 A3016 -190 42 200 360/11 RMK AO2 SLP213 T01830056
53915KARA ARA20161113125510311/13/16 12:55:31  5-MIN KARA 131855Z 36010KT 10SM CLR 18/06 A3016 -190 42 200 360/10 RMK AO2 T01830056
53915KARA ARA20161113130010311/13/16 13:00:31  5-MIN KARA 131900Z 36010KT 10SM CLR 18/06 A3016 -190 42 200 360/10 RMK AO2 T01830056
53915KARA ARA20161113130510311/13/16 13:05:31  5-MIN KARA 131905Z 36011KT 10SM CLR 18/05 A3016 -190 42 100 360/11 RMK AO2 T01780050
53915KARA ARA20161113131010311/13/16 13:10:31  5-MIN KARA 131910Z 36010KT 10SM CLR 18/06 A3016 -190 44 100 360/10 RMK AO2 T01780056
53915KARA ARA20161113131510311/13/16 13:15:31  5-MIN KARA 131915Z 01010KT 10SM CLR 18/05 A3016 -190 42 100 010/10 RMK AO2 T01780050
53915KARA ARA20161113132010311/13/16 13:20:31  5-MIN KARA 131920Z 02009KT 10SM CLR 18/06 A3016 -190 44 100 010/09 RMK AO2 T01780056
53915KARA ARA20161113132510311/13/16 13:25:31  5-MIN KARA 131925Z 36009KT 10SM CLR 18/06 A3016 -190 44 100 360/09 RMK AO2 T01780056
53915KARA ARA20161113133010311/13/16 13:30:31  5-MIN KARA 131930Z 01010KT 10SM CLR 18/06 A3016 -190 44 100 360/10 RMK AO2 T01780056
53915KARA ARA20161113133510311/13/16 13:35:31  5-MIN KARA 131935Z 36010KT 10SM CLR 18/05 A3016 -190 42 100 360/10 RMK AO2 T01780050
53915KARA ARA20161113134010311/13/16 13:40:31  5-MIN KARA 131940Z 02012KT 10SM CLR 18/06 A3016 -190 44 100 020/12 RMK AO2 T01780056
53915KARA ARA20161113134510611/13/16 13:45:31  5-MIN KARA 131945Z 01007KT 10SM FEW100 18/06 A3015 -180 44 100 010/07 RMK AO2 T01780056
53915KARA ARA20161113135011311/13/16 13:50:31  5-MIN KARA 131950Z 35008KT 10SM FEW100 18/06 A3015 -180 46 100 350/08 RMK AO2 SLP210 T01780061
53915KARA ARA20161113135510611/13/16 13:55:31  5-MIN KARA 131955Z 36007KT 10SM FEW100 18/06 A3015 -180 46 100 360/07 RMK AO2 T01780061
53915KARA ARA20161113140010611/13/16 14:00:31  5-MIN KARA 132000Z 36007KT 10SM FEW100 18/06 A3015 -180 46 100 360/07 RMK AO2 T01780061
53915KARA ARA20161113140510611/13/16 14:05:31  5-MIN KARA 132005Z 34009KT 10SM SCT110 17/06 A3016 -190 47 100 340/09 RMK AO2 T01720061
53915KARA ARA20161113141010611/13/16 14:10:31  5-MIN KARA 132010Z 36008KT 10SM SCT110 17/06 A3015 -190 47 100 360/08 RMK AO2 T01720061
53915KARA ARA20161113141510611/13/16 14:15:31  5-MIN KARA 132015Z 35008KT 10SM SCT100 17/06 A3016 -190 47 100 350/08 RMK AO2 T01720061
53915KARA ARA20161113142010611/13/16 14:20:31  5-MIN KARA 132020Z 01006KT 10SM BKN100 17/06 A3016 -190 47 100 360/06 RMK AO2 T01720061
53915KARA ARA20161113142511311/13/16 14:25:31  5-MIN KARA 132025Z 36007KT 10SM BKN100 BKN120 17/06 A3016 -190 47 100 360/07 RMK AO2 T01720061
53915KARA ARA20161113143011311/13/16 14:30:31  5-MIN KARA 132030Z 35008KT 10SM BKN100 OVC120 17/06 A3016 -190 47 100 350/08 RMK AO2 T01720061
53915KARA ARA20161113143511311/13/16 14:35:31  5-MIN KARA 132035Z 35008KT 10SM BKN100 OVC120 17/06 A3016 -190 47 100 350/08 RMK AO2 T01720061
53915KARA ARA20161113144011311/13/16 14:40:31  5-MIN KARA 132040Z 36008KT 10SM BKN100 OVC120 17/06 A3016 -190 46 100 350/08 RMK AO2 T01720056
53915KARA ARA20161113144511811/13/16 14:45:31  5-MIN KARA 132045Z AUTO 35008KT 10SM SCT100 OVC120 17/06 A3016 -190 47 100 350/08 RMK AO2 T01720061
53915KARA ARA20161113145011911/13/16 14:50:31  5-MIN KARA 132050Z 01007KT 10SM OVC110 17/06 A3016 -190 46 100 010/07 RMK AO2 SLP211 T01720056 58016
53915KARA ARA20161113145510611/13/16 14:55:31  5-MIN KARA 132055Z 36007KT 10SM OVC110 17/06 A3016 -190 47 100 360/07 RMK AO2 T01720061
53915KARA ARA20161113150011311/13/16 15:00:31  5-MIN KARA 132100Z 36006KT 10SM FEW100 OVC110 17/06 A3016 -190 47 100 360/06 RMK AO2 T01720061
53915KARA ARA20161113150511111/13/16 15:05:31  5-MIN KARA 132105Z 35007KT 10SM FEW095 OVC110 17/06 A3016 -190 49 0 350/07 RMK AO2 T01670061
53915KARA ARA20161113151011111/13/16 15:10:31  5-MIN KARA 132110Z 01006KT 10SM FEW095 OVC110 17/06 A3016 -190 47 0 010/06 RMK AO2 T01670056
53915KARA ARA20161113151511111/13/16 15:15:31  5-MIN KARA 132115Z 35007KT 10SM FEW095 OVC110 17/06 A3016 -190 49 0 350/07 RMK AO2 T01670061
53915KARA ARA20161113152010411/13/16 15:20:31  5-MIN KARA 132120Z 35008KT 10SM OVC110 17/06 A3016 -190 49 0 350/08 RMK AO2 T01670061
53915KARA ARA20161113152510411/13/16 15:25:31  5-MIN KARA 132125Z 36008KT 10SM OVC110 17/06 A3016 -190 49 0 360/08 RMK AO2 T01670061
53915KARA ARA20161113153010411/13/16 15:30:31  5-MIN KARA 132130Z 35007KT 10SM OVC110 17/06 A3016 -190 49 0 350/07 RMK AO2 T01670061
53915KARA ARA20161113153510411/13/16 15:35:31  5-MIN KARA 132135Z 34007KT 10SM OVC110 17/06 A3016 -190 49 0 340/07 RMK AO2 T01670061
53915KARA ARA20161113154010411/13/16 15:40:31  5-MIN KARA 132140Z 36008KT 10SM OVC110 17/06 A3015 -180 49 0 360/08 RMK AO2 T01670061
53915KARA ARA20161113154510411/13/16 15:45:31  5-MIN KARA 132145Z 35006KT 10SM BKN110 17/06 A3015 -180 49 0 350/06 RMK AO2 T01670061
53915KARA ARA20161113155011111/13/16 15:50:31  5-MIN KARA 132150Z 35006KT 10SM BKN110 17/06 A3016 -190 49 0 350/06 RMK AO2 SLP211 T01670061
53915KARA ARA20161113155510411/13/16 15:55:31  5-MIN KARA 132155Z 35006KT 10SM SCT120 17/06 A3016 -190 49 0 350/06 RMK AO2 T01670061
53915KARA ARA20161113160010411/13/16 16:00:31  5-MIN KARA 132200Z 35005KT 10SM FEW120 17/07 A3016 -190 51 0 350/05 RMK AO2 T01670067
53915KARA ARA20161113160510411/13/16 16:05:31  5-MIN KARA 132205Z 35007KT 10SM FEW120 17/07 A3016 -190 51 0 350/07 RMK AO2 T01670067
53915KARA ARA20161113161010111/13/16 16:10:31  5-MIN KARA 132210Z 35007KT 10SM CLR 16/06 A3016 -190 51 0 350/07 RMK AO2 T01610061
53915KARA ARA20161113161510111/13/16 16:15:31  5-MIN KARA 132215Z 36006KT 10SM CLR 16/06 A3016 -190 51 0 360/06 RMK AO2 T01610061
53915KARA ARA20161113162010111/13/16 16:20:31  5-MIN KARA 132220Z 01006KT 10SM CLR 16/07 A3015 -180 53 0 010/06 RMK AO2 T01610067
53915KARA ARA20161113162510111/13/16 16:25:31  5-MIN KARA 132225Z 36007KT 10SM CLR 16/06 A3015 -180 51 0 360/07 RMK AO2 T01610061
53915KARA ARA20161113163010111/13/16 16:30:31  5-MIN KARA 132230Z 01007KT 10SM CLR 16/06 A3016 -190 51 0 010/07 RMK AO2 T01610061
53915KARA ARA20161113163510111/13/16 16:35:31  5-MIN KARA 132235Z 02006KT 10SM CLR 16/06 A3015 -180 51 0 010/06 RMK AO2 T01610061
53915KARA ARA20161113164010111/13/16 16:40:31  5-MIN KARA 132240Z 02006KT 10SM CLR 16/06 A3015 -180 51 0 020/06 RMK AO2 T01610061
53915KARA ARA20161113164510111/13/16 16:45:31  5-MIN KARA 132245Z 01008KT 10SM CLR 16/06 A3016 -190 51 0 010/08 RMK AO2 T01610061
53915KARA ARA20161113165010811/13/16 16:50:31  5-MIN KARA 132250Z 01007KT 10SM CLR 16/06 A3016 -190 49 0 010/07 RMK AO2 SLP210 T01610056
53915KARA ARA20161113165510111/13/16 16:55:31  5-MIN KARA 132255Z 36006KT 10SM CLR 16/06 A3016 -190 51 0 360/06 RMK AO2 T01610061
53915KARA ARA20161113170010111/13/16 17:00:31  5-MIN KARA 132300Z 01005KT 10SM CLR 16/06 A3016 -190 51 0 360/05 RMK AO2 T01610061
53915KARA ARA20161113170510411/13/16 17:05:31  5-MIN KARA 132305Z 35003KT 10SM CLR 16/06 A3016 -190 53 -100 350/03 RMK AO2 T01560061
53915KARA ARA20161113171010411/13/16 17:10:31  5-MIN KARA 132310Z 35004KT 10SM CLR 16/07 A3016 -190 55 -100 350/04 RMK AO2 T01560067
53915KARA ARA20161113171510411/13/16 17:15:31  5-MIN KARA 132315Z 35004KT 10SM CLR 16/06 A3016 -190 53 -100 350/04 RMK AO2 T01560061
53915KARA ARA20161113172010411/13/16 17:20:31  5-MIN KARA 132320Z 36003KT 10SM CLR 15/06 A3016 -190 55 -100 360/03 RMK AO2 T01500061
53915KARA ARA20161113172510411/13/16 17:25:31  5-MIN KARA 132325Z 36003KT 10SM CLR 15/07 A3016 -190 57 -100 360/03 RMK AO2 T01500067
53915KARA ARA20161113173010411/13/16 17:30:31  5-MIN KARA 132330Z 01003KT 10SM CLR 15/07 A3016 -190 57 -100 360/03 RMK AO2 T01500067
53915KARA ARA20161113173510411/13/16 17:35:31  5-MIN KARA 132335Z 36003KT 10SM CLR 15/07 A3016 -190 57 -100 360/03 RMK AO2 T01500067
53915KARA ARA20161113174010411/13/16 17:40:31  5-MIN KARA 132340Z 00000KT 10SM CLR 15/07 A3016 -190 57 -100 000/00 RMK AO2 T01500067
53915KARA ARA20161113174510411/13/16 17:45:31  5-MIN KARA 132345Z 33003KT 10SM CLR 14/07 A3016 -190 61 -200 330/03 RMK AO2 T01440072
53915KARA ARA20161113175012911/13/16 17:50:31  5-MIN KARA 132350Z 33004KT 10SM CLR 14/08 A3016 -190 64 -200 330/04 RMK AO2 SLP213 T01440078 10189 20144 55013
53915KARA ARA20161113175510411/13/16 17:55:31  5-MIN KARA 132355Z 32003KT 10SM CLR 14/08 A3016 -190 66 -300 320/03 RMK AO2 T01390078
53915KARA ARA20161113180010411/13/16 18:00:31  5-MIN KARA 140000Z 33003KT 10SM CLR 14/08 A3016 -190 64 -200 330/03 RMK AO2 T01440078
53915KARA ARA20161113180510411/13/16 18:05:31  5-MIN KARA 140005Z 33003KT 10SM CLR 14/08 A3016 -190 66 -200 330/03 RMK AO2 T01440083
53915KARA ARA20161113181010411/13/16 18:10:31  5-MIN KARA 140010Z 33003KT 10SM CLR 14/08 A3016 -190 66 -200 320/03 RMK AO2 T01440083
53915KARA ARA20161113181510411/13/16 18:15:31  5-MIN KARA 140015Z 33003KT 10SM CLR 14/08 A3016 -190 66 -200 330/03 RMK AO2 T01440083
53915KARA ARA20161113182010411/13/16 18:20:31  5-MIN KARA 140020Z 00000KT 10SM CLR 14/08 A3016 -190 66 -200 000/00 RMK AO2 T01440083
53915KARA ARA20161113182510411/13/16 18:25:31  5-MIN KARA 140025Z 00000KT 10SM CLR 14/08 A3016 -190 66 -200 000/00 RMK AO2 T01440083
53915KARA ARA20161113183010411/13/16 18:30:31  5-MIN KARA 140030Z 32003KT 10SM CLR 14/08 A3016 -190 66 -200 320/03 RMK AO2 T01440083
53915KARA ARA20161113183510411/13/16 18:35:31  5-MIN KARA 140035Z 33004KT 10SM CLR 14/08 A3016 -190 69 -300 330/04 RMK AO2 T01390083
53915KARA ARA20161113184010411/13/16 18:40:31  5-MIN KARA 140040Z 33003KT 10SM CLR 14/08 A3016 -190 69 -300 330/03 RMK AO2 T01390083
53915KARA ARA20161113184510911/13/16 18:45:31  5-MIN KARA 140045Z AUTO 34003KT 10SM CLR 14/08 A3016 -190 69 -300 340/03 RMK AO2 T01390083
53915KARA ARA20161113185011611/13/16 18:50:31  5-MIN KARA 140050Z AUTO 00000KT 10SM CLR 14/08 A3016 -190 64 -200 000/00 RMK AO2 SLP212 T01440078
53915KARA ARA20161113185510911/13/16 18:55:31  5-MIN KARA 140055Z AUTO 33003KT 10SM CLR 14/08 A3016 -190 69 -300 320/03 RMK AO2 T01390083
53915KARA ARA20161113190010911/13/16 19:00:31  5-MIN KARA 140100Z AUTO 33004KT 10SM CLR 14/09 A3017 -190 71 -300 330/04 RMK AO2 T01390089
53915KARA ARA20161113190510911/13/16 19:05:31  5-MIN KARA 140105Z AUTO 35003KT 10SM CLR 14/09 A3016 -190 71 -300 350/03 RMK AO2 T01390089
53915KARA ARA20161113191010911/13/16 19:10:31  5-MIN KARA 140110Z AUTO 35003KT 10SM CLR 14/08 A3016 -190 66 -300 350/03 RMK AO2 T01390078
53915KARA ARA20161113191510911/13/16 19:15:31  5-MIN KARA 140115Z AUTO 34003KT 10SM CLR 14/08 A3016 -190 66 -300 340/03 RMK AO2 T01390078
53915KARA ARA20161113192010911/13/16 19:20:31  5-MIN KARA 140120Z AUTO 34004KT 10SM CLR 13/08 A3016 -190 69 -400 340/04 RMK AO2 T01330078
53915KARA ARA20161113192510911/13/16 19:25:31  5-MIN KARA 140125Z AUTO 33003KT 10SM CLR 13/09 A3017 -190 74 -400 330/03 RMK AO2 T01330089
53915KARA ARA20161113193010911/13/16 19:30:31  5-MIN KARA 140130Z AUTO 34003KT 10SM CLR 13/08 A3016 -190 71 -400 340/03 RMK AO2 T01330083
53915KARA ARA20161113193510911/13/16 19:35:31  5-MIN KARA 140135Z AUTO 00000KT 10SM CLR 13/08 A3017 -190 71 -400 000/00 RMK AO2 T01330083
53915KARA ARA20161113194010911/13/16 19:40:31  5-MIN KARA 140140Z AUTO 00000KT 10SM CLR 13/08 A3017 -200 71 -400 000/00 RMK AO2 T01330083
53915KARA ARA20161113194510911/13/16 19:45:31  5-MIN KARA 140145Z AUTO 00000KT 10SM CLR 13/09 A3017 -200 74 -400 000/00 RMK AO2 T01330089
53915KARA ARA20161113195011611/13/16 19:50:31  5-MIN KARA 140150Z AUTO 00000KT 10SM CLR 13/09 A3017 -200 74 -400 000/00 RMK AO2 SLP216 T01330089
53915KARA ARA20161113195510911/13/16 19:55:31  5-MIN KARA 140155Z AUTO 00000KT 10SM CLR 13/09 A3017 -200 74 -400 000/00 RMK AO2 T01330089
53915KARA ARA20161113200010911/13/16 20:00:31  5-MIN KARA 140200Z AUTO 00000KT 10SM CLR 13/09 A3016 -190 74 -400 000/00 RMK AO2 T01330089
53915KARA ARA20161113200510911/13/16 20:05:31  5-MIN KARA 140205Z AUTO 00000KT 10SM CLR 13/09 A3016 -190 74 -400 000/00 RMK AO2 T01330089
53915KARA ARA20161113201010911/13/16 20:10:31  5-MIN KARA 140210Z AUTO 31003KT 10SM CLR 13/09 A3017 -200 74 -400 310/03 RMK AO2 T01330089
53915KARA ARA20161113201510911/13/16 20:15:31  5-MIN KARA 140215Z AUTO 32003KT 10SM CLR 13/09 A3017 -200 74 -400 320/03 RMK AO2 T01330089
53915KARA ARA20161113202010911/13/16 20:20:31  5-MIN KARA 140220Z AUTO 31003KT 10SM CLR 13/09 A3017 -200 77 -400 310/03 RMK AO2 T01280089
53915KARA ARA20161113202510911/13/16 20:25:31  5-MIN KARA 140225Z AUTO 32003KT 10SM CLR 13/09 A3017 -200 74 -400 320/03 RMK AO2 T01330089
53915KARA ARA20161113203010911/13/16 20:30:31  5-MIN KARA 140230Z AUTO 32003KT 10SM CLR 13/09 A3017 -200 74 -400 320/03 RMK AO2 T01330089
53915KARA ARA20161113203510911/13/16 20:35:31  5-MIN KARA 140235Z AUTO 32003KT 10SM CLR 13/08 A3017 -200 71 -400 320/03 RMK AO2 T01330083
53915KARA ARA20161113204010911/13/16 20:40:31  5-MIN KARA 140240Z AUTO 00000KT 10SM CLR 13/08 A3017 -200 71 -400 000/00 RMK AO2 T01330083
53915KARA ARA20161113204510911/13/16 20:45:31  5-MIN KARA 140245Z AUTO 32003KT 10SM CLR 13/08 A3017 -200 71 -400 310/03 RMK AO2 T01330083
53915KARA ARA20161113205012211/13/16 20:50:31  5-MIN KARA 140250Z AUTO 32003KT 10SM CLR 13/08 A3017 -200 74 -400 320/03 RMK AO2 SLP217 T01280083 53001
53915KARA ARA20161113205510911/13/16 20:55:31  5-MIN KARA 140255Z AUTO 32003KT 10SM CLR 13/08 A3017 -200 74 -400 320/03 RMK AO2 T01280083
53915KARA ARA20161113210010911/13/16 21:00:31  5-MIN KARA 140300Z AUTO 32003KT 10SM CLR 13/09 A3017 -200 77 -400 320/03 RMK AO2 T01280089
53915KARA ARA20161113210510911/13/16 21:05:31  5-MIN KARA 140305Z AUTO 33003KT 10SM CLR 13/09 A3017 -200 77 -400 330/03 RMK AO2 T01280089
53915KARA ARA20161113211010911/13/16 21:10:31  5-MIN KARA 140310Z AUTO 33003KT 10SM CLR 13/09 A3017 -200 77 -400 320/03 RMK AO2 T01280089
53915KARA ARA20161113211510911/13/16 21:15:31  5-MIN KARA 140315Z AUTO 33003KT 10SM CLR 13/09 A3017 -200 77 -400 330/03 RMK AO2 T01280089
53915KARA ARA20161113212010911/13/16 21:20:31  5-MIN KARA 140320Z AUTO 33003KT 10SM CLR 13/09 A3017 -190 77 -400 320/03 RMK AO2 T01280089
53915KARA ARA20161113212510911/13/16 21:25:31  5-MIN KARA 140325Z AUTO 33003KT 10SM CLR 12/09 A3016 -190 80 -500 320/03 RMK AO2 T01220089
53915KARA ARA20161113213010911/13/16 21:30:31  5-MIN KARA 140330Z AUTO 00000KT 10SM CLR 12/09 A3016 -190 80 -500 000/00 RMK AO2 T01220089
53915KARA ARA20161113213510911/13/16 21:35:31  5-MIN KARA 140335Z AUTO 00000KT 10SM CLR 12/09 A3016 -190 80 -500 000/00 RMK AO2 T01220089
53915KARA ARA20161113214010911/13/16 21:40:31  5-MIN KARA 140340Z AUTO 00000KT 10SM CLR 12/09 A3016 -190 83 -500 000/00 RMK AO2 T01170089
53915KARA ARA20161113214510911/13/16 21:45:31  5-MIN KARA 140345Z AUTO 34003KT 10SM CLR 12/09 A3016 -190 80 -500 330/03 RMK AO2 T01220089
53915KARA ARA20161113215011611/13/16 21:50:31  5-MIN KARA 140350Z AUTO 34003KT 10SM CLR 12/09 A3016 -190 80 -500 330/03 RMK AO2 SLP211 T01220089
53915KARA ARA20161113215510911/13/16 21:55:31  5-MIN KARA 140355Z AUTO 32003KT 10SM CLR 12/09 A3016 -190 80 -500 320/03 RMK AO2 T01220089
53915KARA ARA20161113220010911/13/16 22:00:31  5-MIN KARA 140400Z AUTO 31003KT 10SM CLR 12/09 A3016 -190 83 -600 310/03 RMK AO2 T01170089
53915KARA ARA20161113220510911/13/16 22:05:31  5-MIN KARA 140405Z AUTO 31004KT 10SM CLR 12/08 A3016 -190 80 -600 310/04 RMK AO2 T01170083
53915KARA ARA20161113221010911/13/16 22:10:31  5-MIN KARA 140410Z AUTO 30003KT 10SM CLR 12/08 A3017 -190 80 -600 300/03 RMK AO2 T01170083
53915KARA ARA20161113221510911/13/16 22:15:31  5-MIN KARA 140415Z AUTO 32003KT 10SM CLR 12/08 A3016 -190 80 -500 320/03 RMK AO2 T01170083
53915KARA ARA20161113222010911/13/16 22:20:31  5-MIN KARA 140420Z AUTO 33003KT 10SM CLR 12/08 A3016 -190 80 -500 330/03 RMK AO2 T01170083
53915KARA ARA20161113222510911/13/16 22:25:31  5-MIN KARA 140425Z AUTO 35003KT 10SM CLR 11/08 A3016 -190 80 -600 340/03 RMK AO2 T01110078
53915KARA ARA20161113223010911/13/16 22:30:31  5-MIN KARA 140430Z AUTO 34003KT 10SM CLR 11/08 A3016 -190 80 -600 340/03 RMK AO2 T01110078
53915KARA ARA20161113223510911/13/16 22:35:31  5-MIN KARA 140435Z AUTO 33003KT 10SM CLR 11/08 A3016 -190 80 -600 330/03 RMK AO2 T01110078
53915KARA ARA20161113224010911/13/16 22:40:31  5-MIN KARA 140440Z AUTO 34004KT 10SM CLR 11/08 A3016 -190 80 -600 340/04 RMK AO2 T01110078
53915KARA ARA20161113224510911/13/16 22:45:31  5-MIN KARA 140445Z AUTO 33004KT 10SM CLR 12/08 A3016 -190 80 -500 330/04 RMK AO2 T01170083
53915KARA ARA20161113225011611/13/16 22:50:31  5-MIN KARA 140450Z AUTO 34003KT 10SM CLR 11/08 A3016 -190 83 -600 340/03 RMK AO2 SLP211 T01110083
53915KARA ARA20161113225510911/13/16 22:55:31  5-MIN KARA 140455Z AUTO 34003KT 10SM CLR 11/08 A3016 -190 83 -600 340/03 RMK AO2 T01110083
53915KARA ARA20161113230010911/13/16 23:00:31  5-MIN KARA 140500Z AUTO 34003KT 10SM CLR 11/08 A3016 -190 83 -700 340/03 RMK AO2 T01060078
53915KARA ARA20161113230510911/13/16 23:05:31  5-MIN KARA 140505Z AUTO 34003KT 10SM CLR 11/08 A3015 -190 80 -600 340/03 RMK AO2 T01110078
53915KARA ARA20161113231010911/13/16 23:10:31  5-MIN KARA 140510Z AUTO 34003KT 10SM CLR 11/07 A3015 -180 80 -700 340/03 RMK AO2 T01060072
53915KARA ARA20161113231510911/13/16 23:15:31  5-MIN KARA 140515Z AUTO 36003KT 10SM CLR 11/07 A3015 -180 80 -700 350/03 RMK AO2 T01060072
53915KARA ARA20161113232010911/13/16 23:20:31  5-MIN KARA 140520Z AUTO 36003KT 10SM CLR 11/07 A3015 -180 80 -700 360/03 RMK AO2 T01060072
53915KARA ARA20161113232510911/13/16 23:25:31  5-MIN KARA 140525Z AUTO 36003KT 10SM CLR 11/07 A3015 -180 80 -700 360/03 RMK AO2 T01060072
53915KARA ARA20161113233010911/13/16 23:30:31  5-MIN KARA 140530Z AUTO 35003KT 10SM CLR 10/07 A3015 -180 80 -700 350/03 RMK AO2 T01000067
53915KARA ARA20161113233510911/13/16 23:35:31  5-MIN KARA 140535Z AUTO 00000KT 10SM CLR 10/07 A3015 -180 80 -700 000/00 RMK AO2 T01000067
53915KARA ARA20161113234010911/13/16 23:40:31  5-MIN KARA 140540Z AUTO 00000KT 10SM CLR 10/07 A3015 -180 80 -700 000/00 RMK AO2 T01000067
53915KARA ARA20161113234510911/13/16 23:45:31  5-MIN KARA 140545Z AUTO 00000KT 10SM CLR 09/07 A3015 -180 83 -800 000/00 RMK AO2 T00940067
53915KARA ARA20161113235014411/13/16 23:50:31  5-MIN KARA 140550Z AUTO 00000KT 10SM CLR 09/07 A3015 -180 83 -800 000/00 RMK AO2 SLP207 T00940067 10144 20094 401940094 53003
53915KARA ARA20161113235510911/13/16 23:55:31  5-MIN KARA 140555Z AUTO 00000KT 10SM CLR 09/07 A3014 -170 83 -800 000/00 RMK AO2 T00940067
53915KARA ARA20161114000010911/14/16 00:00:31  5-MIN KARA 140600Z AUTO 00000KT 10SM CLR 10/07 A3014 -170 83 -700 000/00 RMK AO2 T01000072
53915KARA ARA20161114000510911/14/16 00:05:31  5-MIN KARA 140605Z AUTO 00000KT 10SM CLR 09/07 A3014 -170 86 -800 000/00 RMK AO2 T00940072
53915KARA ARA20161114001010911/14/16 00:10:31  5-MIN KARA 140610Z AUTO 00000KT 10SM CLR 09/07 A3014 -170 86 -900 000/00 RMK AO2 T00890067
53915KARA ARA20161114001510911/14/16 00:15:31  5-MIN KARA 140615Z AUTO 32003KT 10SM CLR 09/07 A3014 -170 86 -900 320/03 RMK AO2 T00890067
53915KARA ARA20161114002010911/14/16 00:20:31  5-MIN KARA 140620Z AUTO 33003KT 10SM CLR 09/07 A3014 -180 86 -900 330/03 RMK AO2 T00890067
53915KARA ARA20161114002510911/14/16 00:25:31  5-MIN KARA 140625Z AUTO 00000KT 10SM CLR 09/06 A3014 -170 83 -900 000/00 RMK AO2 T00890061
53915KARA ARA20161114003010911/14/16 00:30:31  5-MIN KARA 140630Z AUTO 00000KT 10SM CLR 09/07 A3014 -180 86 -900 000/00 RMK AO2 T00890067
53915KARA ARA20161114003510911/14/16 00:35:31  5-MIN KARA 140635Z AUTO 32003KT 10SM CLR 09/07 A3014 -180 86 -900 320/03 RMK AO2 T00890067
53915KARA ARA20161114004010911/14/16 00:40:31  5-MIN KARA 140640Z AUTO 32003KT 10SM CLR 09/07 A3014 -170 86 -900 320/03 RMK AO2 T00890067
53915KARA ARA20161114004510911/14/16 00:45:31  5-MIN KARA 140645Z AUTO 33003KT 10SM CLR 09/06 A3014 -170 83 -900 330/03 RMK AO2 T00890061
53915KARA ARA20161114005011611/14/16 00:50:31  5-MIN KARA 140650Z AUTO 34003KT 10SM CLR 09/06 A3014 -170 83 -900 340/03 RMK AO2 SLP205 T00890061
53915KARA ARA20161114005510911/14/16 00:55:31  5-MIN KARA 140655Z AUTO 00000KT 10SM CLR 09/06 A3014 -170 83 -900 000/00 RMK AO2 T00890061
53915KARA ARA20161114010010911/14/16 01:00:31  5-MIN KARA 140700Z AUTO 00000KT 10SM CLR 09/06 A3014 -170 83 -900 000/00 RMK AO2 T00890061
53915KARA ARA20161114010510911/14/16 01:05:31  5-MIN KARA 140705Z AUTO 00000KT 10SM CLR 08/06 A3014 -170 86 -900 000/00 RMK AO2 T00830061
53915KARA ARA20161114011010911/14/16 01:10:31  5-MIN KARA 140710Z AUTO 00000KT 10SM CLR 08/06 A3014 -170 86 -900 000/00 RMK AO2 T00830061
53915KARA ARA20161114011510911/14/16 01:15:31  5-MIN KARA 140715Z AUTO 00000KT 10SM CLR 08/07 A3014 -170 89 -900 000/00 RMK AO2 T00830067
53915KARA ARA20161114012010911/14/16 01:20:31  5-MIN KARA 140720Z AUTO 00000KT 10SM CLR 08/06 A3014 -170 86 -900 000/00 RMK AO2 T00830061
53915KARA ARA20161114012510911/14/16 01:25:31  5-MIN KARA 140725Z AUTO 00000KT 10SM CLR 09/06 A3014 -170 83 -900 000/00 RMK AO2 T00890061
53915KARA ARA20161114013010911/14/16 01:30:31  5-MIN KARA 140730Z AUTO 00000KT 10SM CLR 09/07 A3014 -170 83 -800 000/00 RMK AO2 T00940067
53915KARA ARA20161114013510911/14/16 01:35:31  5-MIN KARA 140735Z AUTO 36003KT 10SM CLR 09/07 A3013 -170 86 -800 360/03 RMK AO2 T00940072
53915KARA ARA20161114014010911/14/16 01:40:31  5-MIN KARA 140740Z AUTO 36003KT 10SM CLR 09/07 A3013 -160 83 -800 360/03 RMK AO2 T00940067
53915KARA ARA20161114014510911/14/16 01:45:31  5-MIN KARA 140745Z AUTO 35003KT 10SM CLR 09/07 A3013 -160 83 -800 350/03 RMK AO2 T00940067
53915KARA ARA20161114015011611/14/16 01:50:31  5-MIN KARA 140750Z AUTO 35003KT 10SM CLR 09/06 A3013 -160 83 -900 350/03 RMK AO2 SLP202 T00890061
53915KARA ARA20161114015510911/14/16 01:55:31  5-MIN KARA 140755Z AUTO 35003KT 10SM CLR 08/06 A3013 -160 82 -900 350/03 RMK AO2 T00830056
53915KARA ARA20161114020010911/14/16 02:00:31  5-MIN KARA 140800Z AUTO 00000KT 10SM CLR 08/06 A3013 -160 82 -900 000/00 RMK AO2 T00830056
53915KARA ARA20161114020510911/14/16 02:05:31  5-MIN KARA 140805Z AUTO 00000KT 10SM CLR 08/06 A3013 -160 82 -900 000/00 RMK AO2 T00830056
53915KARA ARA20161114021010911/14/16 02:10:31  5-MIN KARA 140810Z AUTO 36003KT 10SM CLR 08/06 A3013 -160 82 -900 360/03 RMK AO2 T00830056
53915KARA ARA20161114021510911/14/16 02:15:31  5-MIN KARA 140815Z AUTO 35004KT 10SM CLR 08/06 A3013 -160 82 -900 350/04 RMK AO2 T00830056
53915KARA ARA20161114022010911/14/16 02:20:31  5-MIN KARA 140820Z AUTO 35004KT 10SM CLR 09/06 A3012 -160 79 -800 350/04 RMK AO2 T00890056
53915KARA ARA20161114022510911/14/16 02:25:31  5-MIN KARA 140825Z AUTO 35004KT 10SM CLR 09/06 A3012 -150 79 -800 350/04 RMK AO2 T00940061
53915KARA ARA20161114023010911/14/16 02:30:31  5-MIN KARA 140830Z AUTO 35003KT 10SM CLR 09/06 A3012 -150 79 -800 350/03 RMK AO2 T00940061
53915KARA ARA20161114023510911/14/16 02:35:31  5-MIN KARA 140835Z AUTO 35004KT 10SM CLR 09/06 A3012 -150 79 -800 350/04 RMK AO2 T00940061
53915KARA ARA20161114024010911/14/16 02:40:31  5-MIN KARA 140840Z AUTO 35004KT 10SM CLR 09/06 A3012 -150 83 -800 350/04 RMK AO2 T00890061
53915KARA ARA20161114024510911/14/16 02:45:31  5-MIN KARA 140845Z AUTO 36004KT 10SM CLR 09/06 A3012 -150 83 -800 360/04 RMK AO2 T00890061
53915KARA ARA20161114025012211/14/16 02:50:31  5-MIN KARA 140850Z AUTO 36004KT 10SM CLR 09/06 A3012 -150 76 -800 360/04 RMK AO2 SLP198 T00940056 57010
53915KARA ARA20161114025510911/14/16 02:55:31  5-MIN KARA 140855Z AUTO 36004KT 10SM CLR 09/06 A3012 -150 79 -800 360/04 RMK AO2 T00890056
53915KARA ARA20161114030010911/14/16 03:00:31  5-MIN KARA 140900Z AUTO 35003KT 10SM CLR 08/06 A3012 -150 82 -900 350/03 RMK AO2 T00830056
53915KARA ARA20161114030510911/14/16 03:05:31  5-MIN KARA 140905Z AUTO 00000KT 10SM CLR 08/05 A3012 -160 79 -900 000/00 RMK AO2 T00830050
53915KARA ARA20161114031010911/14/16 03:10:31  5-MIN KARA 140910Z AUTO 35004KT 10SM CLR 08/06 A3012 -150 82 -900 340/04 RMK AO2 T00830056
53915KARA ARA20161114031510911/14/16 03:15:31  5-MIN KARA 140915Z AUTO 35004KT 10SM CLR 08/06 A3012 -150 82 -900 350/04 RMK AO2 T00830056
53915KARA ARA20161114032010911/14/16 03:20:31  5-MIN KARA 140920Z AUTO 36005KT 10SM CLR 09/06 A3012 -150 79 -800 360/05 RMK AO2 T00890056
53915KARA ARA20161114032510911/14/16 03:25:31  5-MIN KARA 140925Z AUTO 36005KT 10SM CLR 09/06 A3012 -150 76 -800 360/05 RMK AO2 T00940056
53915KARA ARA20161114033010911/14/16 03:30:31  5-MIN KARA 140930Z AUTO 35005KT 10SM CLR 09/06 A3012 -150 76 -800 350/05 RMK AO2 T00940056
53915KARA ARA20161114033510911/14/16 03:35:31  5-MIN KARA 140935Z AUTO 35004KT 10SM CLR 09/05 A3012 -150 76 -800 350/04 RMK AO2 T00890050
53915KARA ARA20161114034010911/14/16 03:40:31  5-MIN KARA 140940Z AUTO 35004KT 10SM CLR 08/05 A3012 -150 79 -900 350/04 RMK AO2 T00830050
53915KARA ARA20161114034510911/14/16 03:45:31  5-MIN KARA 140945Z AUTO 35004KT 10SM CLR 08/06 A3012 -150 82 -900 350/04 RMK AO2 T00830056
53915KARA ARA20161114035011611/14/16 03:50:31  5-MIN KARA 140950Z AUTO 35004KT 10SM CLR 08/06 A3012 -150 82 -900 350/04 RMK AO2 SLP198 T00830056
53915KARA ARA20161114035510911/14/16 03:55:31  5-MIN KARA 140955Z AUTO 35004KT 10SM CLR 08/06 A3012 -150 82 -900 350/04 RMK AO2 T00830056
53915KARA ARA20161114040010911/14/16 04:00:31  5-MIN KARA 141000Z AUTO 34004KT 10SM CLR 08/06 A3012 -150 82 -900 340/04 RMK AO2 T00830056
53915KARA ARA20161114040510911/14/16 04:05:31  5-MIN KARA 141005Z AUTO 32003KT 10SM CLR 08/06 A3012 -150 82 -900 320/03 RMK AO2 T00830056
53915KARA ARA20161114041011011/14/16 04:10:31  5-MIN KARA 141010Z AUTO 32003KT 10SM CLR 08/06 A3012 -150 86 -1000 320/03 RMK AO2 T00780056
53915KARA ARA20161114041511011/14/16 04:15:31  5-MIN KARA 141015Z AUTO 33003KT 10SM CLR 08/05 A3012 -150 82 -1000 330/03 RMK AO2 T00780050
53915KARA ARA20161114042011011/14/16 04:20:31  5-MIN KARA 141020Z AUTO 33003KT 10SM CLR 08/06 A3012 -150 86 -1000 330/03 RMK AO2 T00780056
53915KARA ARA20161114042510911/14/16 04:25:31  5-MIN KARA 141025Z AUTO 33004KT 10SM CLR 08/06 A3012 -150 82 -900 330/04 RMK AO2 T00830056
53915KARA ARA20161114043011011/14/16 04:30:31  5-MIN KARA 141030Z AUTO 33004KT 10SM CLR 08/06 A3012 -160 86 -1000 330/04 RMK AO2 T00780056
53915KARA ARA20161114043511011/14/16 04:35:31  5-MIN KARA 141035Z AUTO 33004KT 10SM CLR 08/06 A3012 -160 86 -1000 320/04 RMK AO2 T00780056
53915KARA ARA20161114044010911/14/16 04:40:31  5-MIN KARA 141040Z AUTO 33004KT 10SM CLR 08/06 A3012 -160 82 -900 330/04 RMK AO2 T00830056
53915KARA ARA20161114044510911/14/16 04:45:31  5-MIN KARA 141045Z AUTO 33004KT 10SM CLR 08/06 A3013 -160 82 -900 330/04 RMK AO2 T00830056
53915KARA ARA20161114045011611/14/16 04:50:31  5-MIN KARA 141050Z AUTO 33003KT 10SM CLR 08/06 A3013 -160 82 -900 330/03 RMK AO2 SLP202 T00830056
53915KARA ARA20161114045511011/14/16 04:55:31  5-MIN KARA 141055Z AUTO 00000KT 10SM CLR 08/06 A3013 -160 86 -1000 000/00 RMK AO2 T00780056
53915KARA ARA20161114050010911/14/16 05:00:31  5-MIN KARA 141100Z AUTO 00000KT 10SM CLR 08/06 A3013 -160 82 -900 000/00 RMK AO2 T00830056
53915KARA ARA20161114050511011/14/16 05:05:31  5-MIN KARA 141105Z AUTO 36003KT 10SM CLR 08/06 A3012 -160 86 -1000 360/03 RMK AO2 T00780056
53915KARA ARA20161114051010911/14/16 05:10:31  5-MIN KARA 141110Z AUTO 00000KT 10SM CLR 08/06 A3013 -160 82 -900 000/00 RMK AO2 T00830056
53915KARA ARA20161114051511011/14/16 05:15:31  5-MIN KARA 141115Z AUTO 00000KT 10SM CLR 08/06 A3013 -160 86 -1000 000/00 RMK AO2 T00780056
53915KARA ARA20161114052010911/14/16 05:20:31  5-MIN KARA 141120Z AUTO 00000KT 10SM CLR 08/06 A3013 -160 82 -900 000/00 RMK AO2 T00830056
53915KARA ARA20161114052510911/14/16 05:25:31  5-MIN KARA 141125Z AUTO 36003KT 10SM CLR 08/06 A3013 -160 82 -900 350/03 RMK AO2 T00830056
53915KARA ARA20161114053011011/14/16 05:30:31  5-MIN KARA 141130Z AUTO 35003KT 10SM CLR 08/05 A3013 -160 82 -1000 350/03 RMK AO2 T00780050
53915KARA ARA20161114053510511/14/16 05:35:31  5-MIN KARA 141135Z 36003KT 10SM CLR 08/04 A3013 -160 79 -1000 350/03 RMK AO2 T00780044
53915KARA ARA20161114054010511/14/16 05:40:31  5-MIN KARA 141140Z 35004KT 10SM CLR 08/04 A3013 -160 79 -1000 350/04 RMK AO2 T00780044
53915KARA ARA20161114054510411/14/16 05:45:31  5-MIN KARA 141145Z 36004KT 10SM CLR 08/04 A3013 -160 76 -900 360/04 RMK AO2 T00830044
53915KARA ARA20161114055012911/14/16 05:50:31  5-MIN KARA 141150Z 35004KT 10SM CLR 08/05 A3013 -170 79 -900 350/04 RMK AO2 SLP204 T00830050 10100 20078 58008
53915KARA ARA20161114055510411/14/16 05:55:31  5-MIN KARA 141155Z 35004KT 10SM CLR 08/05 A3014 -170 79 -900 340/04 RMK AO2 T00830050
53915KARA ARA20161114060010411/14/16 06:00:31  5-MIN KARA 141200Z 35005KT 10SM CLR 08/05 A3014 -170 79 -900 350/05 RMK AO2 T00830050
53915KARA ARA20161114060510411/14/16 06:05:31  5-MIN KARA 141205Z 34004KT 9SM CLR 08/05 A3014 -170 82 -1000 340/04 RMK AO2 T00780050
53915KARA ARA20161114061010411/14/16 06:10:31  5-MIN KARA 141210Z 34004KT 7SM CLR 08/05 A3014 -170 82 -1000 340/04 RMK AO2 T00780050
53915KARA ARA20161114161510211/14/16 16:15:31  5-MIN KARA 142215Z 01005KT 10SM CLR 23/07 A3004 -80 35 800 010/05 RMK AO2 T02280067
53915KARA ARA20161114162010211/14/16 16:20:31  5-MIN KARA 142220Z 36004KT 10SM CLR 23/07 A3004 -80 35 800 360/04 RMK AO2 T02280067
53915KARA ARA20161114162510211/14/16 16:25:31  5-MIN KARA 142225Z 36006KT 10SM CLR 22/07 A3004 -80 36 800 360/06 RMK AO2 T02220067
53915KARA ARA20161114163010211/14/16 16:30:31  5-MIN KARA 142230Z 36005KT 10SM CLR 22/07 A3005 -80 37 800 360/05 RMK AO2 T02220072
53915KARA ARA20161114163510211/14/16 16:35:31  5-MIN KARA 142235Z 01005KT 10SM CLR 22/07 A3005 -80 39 700 010/05 RMK AO2 T02170072
53915KARA ARA20161114164010211/14/16 16:40:31  5-MIN KARA 142240Z 01004KT 10SM CLR 22/07 A3005 -80 39 700 010/04 RMK AO2 T02170072
53915KARA ARA20161114164510211/14/16 16:45:31  5-MIN KARA 142245Z 02005KT 10SM CLR 21/07 A3005 -90 40 600 020/05 RMK AO2 T02110072
53915KARA ARA20161114165010911/14/16 16:50:31  5-MIN KARA 142250Z 04005KT 10SM CLR 21/07 A3005 -90 41 600 040/05 RMK AO2 SLP174 T02060072
53915KARA ARA20161114165510211/14/16 16:55:31  5-MIN KARA 142255Z 05003KT 10SM CLR 20/07 A3005 -90 43 500 050/03 RMK AO2 T02000072
53915KARA ARA20161114170010211/14/16 17:00:31  5-MIN KARA 142300Z 07003KT 10SM CLR 20/07 A3005 -90 43 500 070/03 RMK AO2 T02000072
53915KARA ARA20161114170510211/14/16 17:05:31  5-MIN KARA 142305Z 08005KT 10SM CLR 19/07 A3005 -90 44 400 080/05 RMK AO2 T01940072
53915KARA ARA20161114171010211/14/16 17:10:31  5-MIN KARA 142310Z 09005KT 10SM CLR 19/08 A3005 -80 46 500 090/05 RMK AO2 T01940078
53915KARA ARA20161114171510211/14/16 17:15:31  5-MIN KARA 142315Z 08005KT 10SM CLR 18/08 A3005 -90 50 300 080/05 RMK AO2 T01830078
53915KARA ARA20161114172010211/14/16 17:20:31  5-MIN KARA 142320Z 08004KT 10SM CLR 18/08 A3005 -90 51 300 080/04 RMK AO2 T01780078
53915KARA ARA20161114172510211/14/16 17:25:31  5-MIN KARA 142325Z 09004KT 10SM CLR 18/08 A3005 -90 51 300 090/04 RMK AO2 T01780078
53915KARA ARA20161114173010211/14/16 17:30:31  5-MIN KARA 142330Z 08004KT 10SM CLR 17/08 A3005 -90 53 200 080/04 RMK AO2 T01720078
53915KARA ARA20161114173510211/14/16 17:35:31  5-MIN KARA 142335Z 08004KT 10SM CLR 17/08 A3005 -90 53 200 080/04 RMK AO2 T01720078
53915KARA ARA20161114174010211/14/16 17:40:31  5-MIN KARA 142340Z 07004KT 10SM CLR 17/08 A3005 -90 55 100 070/04 RMK AO2 T01670078
53915KARA ARA20161114174510211/14/16 17:45:31  5-MIN KARA 142345Z 08003KT 10SM CLR 16/08 A3005 -90 57 100 080/03 RMK AO2 T01610078
53915KARA ARA20161114175012711/14/16 17:50:31  5-MIN KARA 142350Z 08003KT 10SM CLR 16/08 A3005 -90 57 100 080/03 RMK AO2 SLP176 T01610078 10239 20161 56024
53915KARA ARA20161114175510211/14/16 17:55:31  5-MIN KARA 142355Z 08003KT 10SM CLR 16/08 A3005 -90 57 100 080/03 RMK AO2 T01610078
53915KARA ARA20161114180010011/14/16 18:00:31  5-MIN KARA 150000Z 09003KT 10SM CLR 16/08 A3006 -90 59 0 090/03 RMK AO2 T01610083
53915KARA ARA20161114180510011/14/16 18:05:31  5-MIN KARA 150005Z 00000KT 10SM CLR 16/08 A3006 -90 62 0 000/00 RMK AO2 T01560083
53915KARA ARA20161114181010111/14/16 18:10:31  5-MIN KARA 150010Z 00000KT 10SM CLR 15/09 A3006 -100 66 0 000/00 RMK AO2 T01500089
53915KARA ARA20161114181510111/14/16 18:15:31  5-MIN KARA 150015Z 00000KT 10SM CLR 15/09 A3006 -100 66 0 000/00 RMK AO2 T01500089
53915KARA ARA20161114182010111/14/16 18:20:31  5-MIN KARA 150020Z 00000KT 10SM CLR 15/09 A3006 -100 66 0 000/00 RMK AO2 T01500089
53915KARA ARA20161114182510411/14/16 18:25:31  5-MIN KARA 150025Z 00000KT 10SM CLR 14/09 A3006 -100 71 -200 000/00 RMK AO2 T01390089
53915KARA ARA20161114183010411/14/16 18:30:31  5-MIN KARA 150030Z 00000KT 10SM CLR 14/09 A3006 -100 69 -100 000/00 RMK AO2 T01440089
53915KARA ARA20161114183510411/14/16 18:35:31  5-MIN KARA 150035Z 00000KT 10SM CLR 14/08 A3006 -100 66 -100 000/00 RMK AO2 T01440083
53915KARA ARA20161114184010411/14/16 18:40:31  5-MIN KARA 150040Z 00000KT 10SM CLR 14/09 A3007 -100 69 -100 000/00 RMK AO2 T01440089
53915KARA ARA20161114184510411/14/16 18:45:31  5-MIN KARA 150045Z 00000KT 10SM CLR 14/09 A3007 -100 69 -100 000/00 RMK AO2 T01440089
53915KARA ARA20161114185011111/14/16 18:50:31  5-MIN KARA 150050Z 00000KT 10SM CLR 14/09 A3007 -110 71 -200 000/00 RMK AO2 SLP181 T01390089
53915KARA ARA20161114185510411/14/16 18:55:31  5-MIN KARA 150055Z 00000KT 10SM CLR 14/09 A3007 -110 69 -100 000/00 RMK AO2 T01440089
53915KARA ARA20161114190010411/14/16 19:00:31  5-MIN KARA 150100Z 15003KT 10SM CLR 14/08 A3007 -110 69 -200 150/03 RMK AO2 T01390083
53915KARA ARA20161114190510411/14/16 19:05:31  5-MIN KARA 150105Z 16003KT 10SM CLR 13/08 A3007 -110 71 -200 160/03 RMK AO2 T01330083
53915KARA ARA20161114191010411/14/16 19:10:31  5-MIN KARA 150110Z 00000KT 10SM CLR 13/08 A3007 -110 71 -200 000/00 RMK AO2 T01330083
53915KARA ARA20161114191510411/14/16 19:15:31  5-MIN KARA 150115Z 00000KT 10SM CLR 13/08 A3007 -110 74 -300 000/00 RMK AO2 T01280083
53915KARA ARA20161114192010411/14/16 19:20:31  5-MIN KARA 150120Z 00000KT 10SM CLR 13/08 A3007 -110 74 -300 000/00 RMK AO2 T01280083
53915KARA ARA20161114192510411/14/16 19:25:31  5-MIN KARA 150125Z 00000KT 10SM CLR 13/08 A3008 -110 74 -300 000/00 RMK AO2 T01280083
53915KARA ARA20161114193010411/14/16 19:30:31  5-MIN KARA 150130Z 24003KT 10SM CLR 13/09 A3008 -120 77 -300 240/03 RMK AO2 T01280089
53915KARA ARA20161114193510411/14/16 19:35:31  5-MIN KARA 150135Z 23004KT 10SM CLR 13/09 A3008 -120 74 -300 230/04 RMK AO2 T01330089
53915KARA ARA20161114194010911/14/16 19:40:31  5-MIN KARA 150140Z AUTO 24003KT 10SM CLR 13/08 A3008 -120 74 -300 240/03 RMK AO2 T01280083
53915KARA ARA20161114194510911/14/16 19:45:31  5-MIN KARA 150145Z AUTO 23003KT 10SM CLR 13/08 A3008 -120 74 -300 230/03 RMK AO2 T01280083
53915KARA ARA20161114195011611/14/16 19:50:31  5-MIN KARA 150150Z AUTO 00000KT 10SM CLR 13/08 A3008 -120 74 -300 000/00 RMK AO2 SLP186 T01280083
53915KARA ARA20161114195510911/14/16 19:55:31  5-MIN KARA 150155Z AUTO 00000KT 10SM CLR 12/08 A3008 -120 77 -400 000/00 RMK AO2 T01220083
53915KARA ARA20161114200010911/14/16 20:00:31  5-MIN KARA 150200Z AUTO 00000KT 10SM CLR 12/08 A3008 -120 77 -400 000/00 RMK AO2 T01220083
53915KARA ARA20161114200510911/14/16 20:05:31  5-MIN KARA 150205Z AUTO 00000KT 10SM CLR 12/08 A3008 -120 77 -400 000/00 RMK AO2 T01220083
53915KARA ARA20161114201010911/14/16 20:10:31  5-MIN KARA 150210Z AUTO 00000KT 10SM CLR 13/08 A3008 -120 74 -300 000/00 RMK AO2 T01280083
53915KARA ARA20161114201510911/14/16 20:15:31  5-MIN KARA 150215Z AUTO 00000KT 10SM CLR 13/08 A3009 -120 74 -300 000/00 RMK AO2 T01280083
53915KARA ARA20161114202010911/14/16 20:20:31  5-MIN KARA 150220Z AUTO 00000KT 10SM CLR 12/08 A3008 -120 77 -400 000/00 RMK AO2 T01220083
53915KARA ARA20161114202510911/14/16 20:25:31  5-MIN KARA 150225Z AUTO 00000KT 10SM CLR 12/08 A3008 -120 77 -400 000/00 RMK AO2 T01220083
53915KARA ARA20161114203010911/14/16 20:30:31  5-MIN KARA 150230Z AUTO 00000KT 10SM CLR 12/08 A3008 -120 80 -500 000/00 RMK AO2 T01170083
53915KARA ARA20161114203510911/14/16 20:35:31  5-MIN KARA 150235Z AUTO 00000KT 10SM CLR 12/08 A3009 -120 80 -500 000/00 RMK AO2 T01170083
53915KARA ARA20161114204010911/14/16 20:40:31  5-MIN KARA 150240Z AUTO 17003KT 10SM CLR 12/08 A3009 -120 80 -500 170/03 RMK AO2 T01170083
53915KARA ARA20161114204510911/14/16 20:45:31  5-MIN KARA 150245Z AUTO 17003KT 10SM CLR 12/08 A3009 -120 80 -500 160/03 RMK AO2 T01170083
53915KARA ARA20161114205011211/14/16 20:50:31  5-MIN KARA 150250Z AUTO 10SM CLR 12/08 A3009 -120 80 -500 M /M RMK AO2 SLP187 T01170083 53003
53915KARA ARA20161114205510911/14/16 20:55:31  5-MIN KARA 150255Z AUTO 00000KT 10SM CLR 12/08 A3009 -120 80 -500 000/00 RMK AO2 T01170083
53915KARA ARA20161114210010911/14/16 21:00:31  5-MIN KARA 150300Z AUTO 00000KT 10SM CLR 12/08 A3009 -120 80 -500 000/00 RMK AO2 T01170083
53915KARA ARA20161114210510911/14/16 21:05:31  5-MIN KARA 150305Z AUTO 00000KT 10SM CLR 11/08 A3009 -120 83 -500 000/00 RMK AO2 T01110083
53915KARA ARA20161114211010911/14/16 21:10:31  5-MIN KARA 150310Z AUTO 15003KT 10SM CLR 12/08 A3009 -120 80 -500 150/03 RMK AO2 T01170083
53915KARA ARA20161114211510911/14/16 21:15:31  5-MIN KARA 150315Z AUTO 15003KT 10SM CLR 11/08 A3009 -120 80 -500 150/03 RMK AO2 T01110078
53915KARA ARA20161114212010911/14/16 21:20:31  5-MIN KARA 150320Z AUTO 00000KT 10SM CLR 11/08 A3009 -120 83 -500 000/00 RMK AO2 T01110083
53915KARA ARA20161114212510911/14/16 21:25:31  5-MIN KARA 150325Z AUTO 15003KT 10SM CLR 11/08 A3009 -120 83 -500 150/03 RMK AO2 T01110083
53915KARA ARA20161114213010911/14/16 21:30:31  5-MIN KARA 150330Z AUTO 00000KT 10SM CLR 11/08 A3009 -120 83 -500 000/00 RMK AO2 T01110083
53915KARA ARA20161114213510911/14/16 21:35:31  5-MIN KARA 150335Z AUTO 00000KT 10SM CLR 11/08 A3009 -120 83 -500 000/00 RMK AO2 T01110083
53915KARA ARA20161114214010911/14/16 21:40:31  5-MIN KARA 150340Z AUTO 15003KT 10SM CLR 11/08 A3008 -120 83 -500 150/03 RMK AO2 T01110083
53915KARA ARA20161114214510911/14/16 21:45:31  5-MIN KARA 150345Z AUTO 00000KT 10SM CLR 11/08 A3008 -120 83 -500 000/00 RMK AO2 T01110083
53915KARA ARA20161114215011611/14/16 21:50:31  5-MIN KARA 150350Z AUTO 00000KT 10SM CLR 12/08 A3008 -120 80 -500 000/00 RMK AO2 SLP186 T01170083
53915KARA ARA20161114215510811/14/16 21:55:31  5-MIN KARA 150355Z AUTO 00000KT 9SM CLR 11/08 A3008 -120 83 -500 000/00 RMK AO2 T01110083
53915KARA ARA20161114220010811/14/16 22:00:31  5-MIN KARA 150400Z AUTO 00000KT 9SM CLR 11/08 A3008 -120 83 -500 000/00 RMK AO2 T01110083
53915KARA ARA20161114220510811/14/16 22:05:31  5-MIN KARA 150405Z AUTO 00000KT 8SM CLR 11/08 A3008 -120 83 -500 000/00 RMK AO2 T01110083
53915KARA ARA20161114221010811/14/16 22:10:31  5-MIN KARA 150410Z AUTO 00000KT 8SM CLR 11/08 A3008 -120 80 -500 000/00 RMK AO2 T01110078
53915KARA ARA20161114221510811/14/16 22:15:31  5-MIN KARA 150415Z AUTO 00000KT 8SM CLR 11/08 A3008 -120 83 -500 000/00 RMK AO2 T01110083
53915KARA ARA20161114222010811/14/16 22:20:31  5-MIN KARA 150420Z AUTO 00000KT 8SM CLR 11/08 A3008 -120 83 -500 000/00 RMK AO2 T01110083
53915KARA ARA20161114222510811/14/16 22:25:31  5-MIN KARA 150425Z AUTO 00000KT 8SM CLR 11/08 A3008 -120 80 -500 000/00 RMK AO2 T01110078
53915KARA ARA20161114223010811/14/16 22:30:31  5-MIN KARA 150430Z AUTO 00000KT 8SM CLR 11/08 A3008 -120 83 -500 000/00 RMK AO2 T01110083
53915KARA ARA20161114223510811/14/16 22:35:31  5-MIN KARA 150435Z AUTO 00000KT 8SM CLR 11/08 A3008 -120 83 -500 000/00 RMK AO2 T01110083
53915KARA ARA20161114224010811/14/16 22:40:31  5-MIN KARA 150440Z AUTO 00000KT 8SM CLR 11/08 A3008 -120 86 -600 000/00 RMK AO2 T01060083
53915KARA ARA20161114224510811/14/16 22:45:31  5-MIN KARA 150445Z AUTO 00000KT 8SM CLR 11/08 A3008 -120 86 -600 000/00 RMK AO2 T01060083
53915KARA ARA20161114225011511/14/16 22:50:31  5-MIN KARA 150450Z AUTO 00000KT 8SM CLR 11/08 A3008 -120 86 -600 000/00 RMK AO2 SLP186 T01060083
53915KARA ARA20161114225510811/14/16 22:55:31  5-MIN KARA 150455Z AUTO 00000KT 7SM CLR 11/08 A3008 -120 86 -600 000/00 RMK AO2 T01060083
53915KARA ARA20161114230011111/14/16 23:00:31  5-MIN KARA 150500Z AUTO 00000KT 6SM HZ CLR 11/08 A3008 -120 83 -500 000/00 RMK AO2 T01110083
53915KARA ARA20161114230511111/14/16 23:05:31  5-MIN KARA 150505Z AUTO 00000KT 6SM BR CLR 11/08 A3008 -120 86 -600 000/00 RMK AO2 T01060083
53915KARA ARA20161114231010811/14/16 23:10:31  5-MIN KARA 150510Z AUTO 00000KT 7SM CLR 11/08 A3008 -120 86 -600 000/00 RMK AO2 T01060083
53915KARA ARA20161114231510811/14/16 23:15:31  5-MIN KARA 150515Z AUTO 00000KT 8SM CLR 11/08 A3008 -120 86 -600 000/00 RMK AO2 T01060083
53915KARA ARA20161114232010811/14/16 23:20:31  5-MIN KARA 150520Z AUTO 00000KT 8SM CLR 11/08 A3008 -120 86 -600 000/00 RMK AO2 T01060083
53915KARA ARA20161114232510811/14/16 23:25:31  5-MIN KARA 150525Z AUTO 00000KT 8SM CLR 10/08 A3008 -120 89 -700 000/00 RMK AO2 T01000083
53915KARA ARA20161114233010811/14/16 23:30:31  5-MIN KARA 150530Z AUTO 00000KT 7SM CLR 10/08 A3008 -120 89 -700 000/00 RMK AO2 T01000083
53915KARA ARA20161114233511111/14/16 23:35:31  5-MIN KARA 150535Z AUTO 00000KT 6SM BR CLR 10/08 A3008 -120 89 -700 000/00 RMK AO2 T01000083
53915KARA ARA20161114234011111/14/16 23:40:31  5-MIN KARA 150540Z AUTO 00000KT 6SM BR CLR 10/08 A3008 -120 89 -700 000/00 RMK AO2 T01000083
53915KARA ARA20161114234511111/14/16 23:45:31  5-MIN KARA 150545Z AUTO 00000KT 6SM BR CLR 10/08 A3008 -110 86 -700 000/00 RMK AO2 T01000078
53915KARA ARA20161114235014611/14/16 23:50:31  5-MIN KARA 150550Z AUTO 00000KT 6SM BR CLR 10/08 A3007 -110 86 -700 000/00 RMK AO2 SLP183 T01000078 10161 20100 402390072 51011
53915KARA ARA20161114235511111/14/16 23:55:31  5-MIN KARA 150555Z AUTO 00000KT 6SM BR CLR 10/08 A3007 -110 86 -700 000/00 RMK AO2 T01000078
53915KARA ARA20161115000011111/15/16 00:00:31  5-MIN KARA 150600Z AUTO 00000KT 5SM BR CLR 11/08 A3007 -110 86 -600 000/00 RMK AO2 T01060083
53915KARA ARA20161115000511111/15/16 00:05:31  5-MIN KARA 150605Z AUTO 00000KT 4SM BR CLR 11/08 A3007 -110 86 -600 000/00 RMK AO2 T01060083
53915KARA ARA20161115001011111/15/16 00:10:31  5-MIN KARA 150610Z AUTO 00000KT 4SM BR CLR 10/08 A3007 -110 86 -700 000/00 RMK AO2 T01000078
53915KARA ARA20161115001511111/15/16 00:15:31  5-MIN KARA 150615Z AUTO 00000KT 4SM BR CLR 10/08 A3007 -110 86 -700 000/00 RMK AO2 T01000078
53915KARA ARA20161115002011111/15/16 00:20:31  5-MIN KARA 150620Z AUTO 00000KT 4SM HZ CLR 11/08 A3007 -110 83 -600 000/00 RMK AO2 T01060078
53915KARA ARA20161115002511111/15/16 00:25:31  5-MIN KARA 150625Z AUTO 00000KT 3SM HZ CLR 11/08 A3008 -110 83 -600 000/00 RMK AO2 T01060078
53915KARA ARA20161115003011511/15/16 00:30:31  5-MIN KARA 150630Z AUTO 00000KT 1 1/4SM HZ CLR 11/08 A3008 -110 83 -500 000/00 RMK AO2 T01110083
53915KARA ARA20161115003511511/15/16 00:35:31  5-MIN KARA 150635Z AUTO 00000KT 1 1/4SM BR CLR 11/09 A3008 -110 89 -600 000/00 RMK AO2 T01060089
53915KARA ARA20161115004011511/15/16 00:40:31  5-MIN KARA 150640Z AUTO 00000KT 2 1/2SM BR CLR 11/09 A3008 -110 93 -600 000/00 RMK AO2 T01060094
53915KARA ARA20161115004511111/15/16 00:45:31  5-MIN KARA 150645Z AUTO 00000KT 5SM BR CLR 10/09 A3007 -110 96 -700 000/00 RMK AO2 T01000094
53915KARA ARA20161115005011811/15/16 00:50:31  5-MIN KARA 150650Z AUTO 00000KT 5SM BR CLR 10/09 A3007 -110 93 -700 000/00 RMK AO2 SLP183 T01000089
53915KARA ARA20161115005511111/15/16 00:55:31  5-MIN KARA 150655Z AUTO 00000KT 5SM BR CLR 10/09 A3007 -110 93 -700 000/00 RMK AO2 T01000089
53915KARA ARA20161115010011111/15/16 01:00:31  5-MIN KARA 150700Z AUTO 00000KT 5SM BR CLR 11/09 A3007 -110 89 -600 000/00 RMK AO2 T01060089
53915KARA ARA20161115010511111/15/16 01:05:31  5-MIN KARA 150705Z AUTO 00000KT 5SM BR CLR 10/08 A3007 -110 89 -600 000/00 RMK AO2 T01000083
53915KARA ARA20161115011011111/15/16 01:10:31  5-MIN KARA 150710Z AUTO 00000KT 5SM BR CLR 10/08 A3007 -110 89 -600 000/00 RMK AO2 T01000083
53915KARA ARA20161115011511111/15/16 01:15:31  5-MIN KARA 150715Z AUTO 00000KT 6SM BR CLR 11/08 A3007 -110 86 -600 000/00 RMK AO2 T01060083
53915KARA ARA20161115012011111/15/16 01:20:31  5-MIN KARA 150720Z AUTO 00000KT 5SM BR CLR 11/08 A3007 -110 86 -600 000/00 RMK AO2 T01060083
53915KARA ARA20161115012511311/15/16 01:25:31  5-MIN KARA 150725Z AUTO 00000KT 3/4SM BR CLR 10/08 A3007 -110 89 -600 000/00 RMK AO2 T01000083
53915KARA ARA20161115013011311/15/16 01:30:31  5-MIN KARA 150730Z AUTO 00000KT 3/4SM BR CLR 10/08 A3007 -110 89 -600 000/00 RMK AO2 T01000083
53915KARA ARA20161115013511511/15/16 01:35:31  5-MIN KARA 150735Z AUTO 00000KT 1 3/4SM BR CLR 09/08 A3007 -100 89 -700 000/00 RMK AO2 T00940078
53915KARA ARA20161115014011111/15/16 01:40:31  5-MIN KARA 150740Z AUTO 00000KT 4SM BR CLR 09/08 A3007 -100 89 -700 000/00 RMK AO2 T00940078
53915KARA ARA20161115014511111/15/16 01:45:31  5-MIN KARA 150745Z AUTO 00000KT 4SM BR CLR 10/08 A3007 -100 86 -600 000/00 RMK AO2 T01000078
53915KARA ARA20161115015011811/15/16 01:50:31  5-MIN KARA 150750Z AUTO 00000KT 4SM BR CLR 09/08 A3007 -100 89 -700 000/00 RMK AO2 SLP180 T00940078
53915KARA ARA20161115015511111/15/16 01:55:31  5-MIN KARA 150755Z AUTO 00000KT 4SM BR CLR 10/08 A3007 -100 86 -600 000/00 RMK AO2 T01000078
53915KARA ARA20161115020011111/15/16 02:00:31  5-MIN KARA 150800Z AUTO 00000KT 4SM BR CLR 09/08 A3007 -100 89 -700 000/00 RMK AO2 T00940078
53915KARA ARA20161115020511111/15/16 02:05:31  5-MIN KARA 150805Z AUTO 00000KT 4SM HZ CLR 10/07 A3007 -100 83 -600 000/00 RMK AO2 T01000072
53915KARA ARA20161115021011111/15/16 02:10:31  5-MIN KARA 150810Z AUTO 00000KT 3SM HZ CLR 10/07 A3007 -100 83 -600 000/00 RMK AO2 T01000072
53915KARA ARA20161115021511111/15/16 02:15:31  5-MIN KARA 150815Z AUTO 00000KT 4SM BR CLR 10/08 A3007 -100 86 -600 000/00 RMK AO2 T01000078
53915KARA ARA20161115022011311/15/16 02:20:31  5-MIN KARA 150820Z AUTO 12003KT 3/4SM BR CLR 09/08 A3006 -100 89 -700 120/03 RMK AO2 T00940078
53915KARA ARA20161115022512911/15/16 02:25:31  5-MIN KARA 150825Z AUTO 12004KT 1/2SM -RA FG CLR 09/07 A3006 -100 89 -800 120/04 RMK AO2 RAB21 P0000 T00890072
53915KARA ARA20161115023012911/15/16 02:30:31  5-MIN KARA 150830Z AUTO 13003KT 3/4SM -RA BR CLR 09/08 A3006 -100 89 -700 120/03 RMK AO2 RAB21 P0000 T00940078
53915KARA ARA20161115023512711/15/16 02:35:31  5-MIN KARA 150835Z AUTO 13004KT 4SM -RA BR CLR 09/08 A3006 -100 89 -700 130/04 RMK AO2 RAB21 P0000 T00940078
53915KARA ARA20161115024012611/15/16 02:40:31  5-MIN KARA 150840Z AUTO 00000KT 5SM BR CLR 09/08 A3006 -100 89 -700 000/00 RMK AO2 RAB21E36 P0000 T00940078
53915KARA ARA20161115024512611/15/16 02:45:31  5-MIN KARA 150845Z AUTO 00000KT 6SM BR CLR 09/08 A3006 -100 93 -700 000/00 RMK AO2 RAB21E36 P0000 T00940083
53915KARA ARA20161115025014511/15/16 02:50:31  5-MIN KARA 150850Z AUTO 00000KT 5SM BR CLR 10/08 A3006 -100 89 -600 000/00 RMK AO2 RAB21E36 SLP178 P0000 60000 T01000083 58004
53915KARA ARA20161115025511111/15/16 02:55:31  5-MIN KARA 150855Z AUTO 00000KT 4SM BR CLR 09/08 A3006 -100 93 -700 000/00 RMK AO2 T00940083
53915KARA ARA20161115030011111/15/16 03:00:31  5-MIN KARA 150900Z AUTO 00000KT 4SM BR CLR 10/08 A3006 -100 86 -600 000/00 RMK AO2 T01000078
53915KARA ARA20161115030511111/15/16 03:05:31  5-MIN KARA 150905Z AUTO 00000KT 3SM BR CLR 10/08 A3006 -100 86 -600 000/00 RMK AO2 T01000078
53915KARA ARA20161115031011111/15/16 03:10:31  5-MIN KARA 150910Z AUTO 00000KT 4SM BR CLR 10/08 A3006 -100 86 -600 000/00 RMK AO2 T01000078
53915KARA ARA20161115031511411/15/16 03:15:31  5-MIN KARA 150915Z AUTO 00000KT 3SM BR FEW049 10/08 A3006 -100 86 -600 000/00 RMK AO2 T01000078
53915KARA ARA20161115032012111/15/16 03:20:31  5-MIN KARA 150920Z AUTO 00000KT 3SM BR FEW002 FEW049 11/08 A3006 -100 86 -600 000/00 RMK AO2 T01060083
53915KARA ARA20161115032511811/15/16 03:25:31  5-MIN KARA 150925Z AUTO 00000KT 2 1/2SM BR SCT002 11/08 A3006 -100 86 -600 000/00 RMK AO2 T01060083
53915KARA ARA20161115033011711/15/16 03:30:31  5-MIN KARA 150930Z AUTO 00000KT 1 1/4SM BR BKN002 11/08 A3006 -90 86 -600 000/00 RMK AO2 T01060083
53915KARA ARA20161115033511411/15/16 03:35:31  5-MIN KARA 150935Z AUTO 00000KT 1/4SM FG VV002 11/09 A3006 -90 89 -600 000/00 RMK AO2 T01060089
53915KARA ARA20161115034011411/15/16 03:40:31  5-MIN KARA 150940Z AUTO 00000KT 1/4SM FG VV002 11/09 A3005 -90 89 -600 000/00 RMK AO2 T01060089
53915KARA ARA20161115034511411/15/16 03:45:31  5-MIN KARA 150945Z AUTO 00000KT 1/4SM FG VV002 10/09 A3005 -90 93 -600 000/00 RMK AO2 T01000089
53915KARA ARA20161115035012111/15/16 03:50:31  5-MIN KARA 150950Z AUTO 00000KT 1/4SM FG VV002 09/08 A3005 -90 93 -700 000/00 RMK AO2 SLP176 T00940083
53915KARA ARA20161115035511411/15/16 03:55:31  5-MIN KARA 150955Z AUTO 00000KT 1/4SM FG VV002 10/08 A3005 -90 89 -600 000/00 RMK AO2 T01000083
53915KARA ARA20161115040011411/15/16 04:00:31  5-MIN KARA 151000Z AUTO 00000KT 1/4SM FG VV002 11/09 A3006 -90 89 -600 000/00 RMK AO2 T01060089
53915KARA ARA20161115040511211/15/16 04:05:31  5-MIN KARA 151005Z AUTO 00000KT 1/2SM FG CLR 10/09 A3006 -90 93 -600 000/00 RMK AO2 T01000089
53915KARA ARA20161115041011011/15/16 04:10:31  5-MIN KARA 151010Z AUTO 00000KT 3SM BR CLR 10/09 A3006 -90 93 -600 000/00 RMK AO2 T01000089
53915KARA ARA20161115191510111/15/16 19:15:31  5-MIN KARA 160115Z 01004KT 7SM CLR 19/14 A3001 -50 72 400 010/04 RMK AO2 T01890139
53915KARA ARA20161115192010111/15/16 19:20:31  5-MIN KARA 160120Z 36003KT 8SM CLR 19/14 A3001 -50 72 400 360/03 RMK AO2 T01890139
53915KARA ARA20161115192510111/15/16 19:25:31  5-MIN KARA 160125Z 36003KT 8SM CLR 18/14 A3001 -50 75 400 350/03 RMK AO2 T01830139
53915KARA ARA20161115193010111/15/16 19:30:31  5-MIN KARA 160130Z 36004KT 8SM CLR 18/14 A3001 -50 75 400 360/04 RMK AO2 T01830139
53915KARA ARA20161115193510111/15/16 19:35:31  5-MIN KARA 160135Z 01004KT 8SM CLR 18/14 A3001 -50 75 400 010/04 RMK AO2 T01830139
53915KARA ARA20161115194010111/15/16 19:40:31  5-MIN KARA 160140Z 01005KT 8SM CLR 18/14 A3001 -50 75 400 010/05 RMK AO2 T01830139
53915KARA ARA20161115194510111/15/16 19:45:31  5-MIN KARA 160145Z 01005KT 8SM CLR 18/14 A3001 -50 78 300 360/05 RMK AO2 T01780139
53915KARA ARA20161115195010811/15/16 19:50:31  5-MIN KARA 160150Z 01005KT 8SM CLR 18/14 A3001 -50 78 300 360/05 RMK AO2 SLP162 T01780139
53915KARA ARA20161115195510111/15/16 19:55:31  5-MIN KARA 160155Z 36005KT 8SM CLR 18/14 A3001 -60 78 300 360/05 RMK AO2 T01780139
53915KARA ARA20161115200010111/15/16 20:00:31  5-MIN KARA 160200Z 36005KT 8SM CLR 18/14 A3002 -60 78 300 360/05 RMK AO2 T01780139
53915KARA ARA20161115200510111/15/16 20:05:31  5-MIN KARA 160205Z 36005KT 8SM CLR 18/14 A3002 -60 78 300 360/05 RMK AO2 T01780139
53915KARA ARA20161115201010111/15/16 20:10:31  5-MIN KARA 160210Z 36005KT 8SM CLR 17/14 A3001 -60 80 200 360/05 RMK AO2 T01720139
53915KARA ARA20161115201510111/15/16 20:15:31  5-MIN KARA 160215Z 36005KT 8SM CLR 17/14 A3001 -60 80 200 360/05 RMK AO2 T01720139
53915KARA ARA20161115202010111/15/16 20:20:31  5-MIN KARA 160220Z 01004KT 8SM CLR 17/14 A3001 -50 83 200 360/04 RMK AO2 T01670139
53915KARA ARA20161115202510111/15/16 20:25:31  5-MIN KARA 160225Z 36004KT 8SM CLR 17/14 A3001 -50 80 200 360/04 RMK AO2 T01720139
53915KARA ARA20161115203010111/15/16 20:30:31  5-MIN KARA 160230Z 36004KT 8SM CLR 17/14 A3001 -60 83 200 360/04 RMK AO2 T01670139
53915KARA ARA20161115203510111/15/16 20:35:31  5-MIN KARA 160235Z 36004KT 8SM CLR 17/14 A3002 -60 83 200 360/04 RMK AO2 T01670139
53915KARA ARA20161115204010111/15/16 20:40:31  5-MIN KARA 160240Z 36004KT 8SM CLR 17/14 A3002 -60 83 200 360/04 RMK AO2 T01670139
53915KARA ARA20161115204509911/15/16 20:45:31  5-MIN KARA 160245Z 02003KT 7SM CLR 16/13 A3002 -60 86 0 010/03 RMK AO2 T01560133
53915KARA ARA20161115205011711/15/16 20:50:31  5-MIN KARA 160250Z AUTO 00000KT 7SM CLR 16/13 A3002 -60 86 0 000/00 RMK AO2 SLP165 T01560133 53012
53915KARA ARA20161115205510411/15/16 20:55:31  5-MIN KARA 160255Z AUTO 00000KT 7SM CLR 16/13 A3002 -60 83 0 000/00 RMK AO2 T01560128
53915KARA ARA20161115210010411/15/16 21:00:31  5-MIN KARA 160300Z AUTO 00000KT 7SM CLR 15/13 A3002 -60 86 0 000/00 RMK AO2 T01500128
53915KARA ARA20161115210510711/15/16 21:05:31  5-MIN KARA 160305Z AUTO 00000KT 6SM BR CLR 15/13 A3002 -60 86 0 000/00 RMK AO2 T01500128
53915KARA ARA20161115211010711/15/16 21:10:31  5-MIN KARA 160310Z AUTO 00000KT 6SM HZ CLR 16/13 A3002 -60 83 0 000/00 RMK AO2 T01560128
53915KARA ARA20161115211510711/15/16 21:15:31  5-MIN KARA 160315Z AUTO 00000KT 6SM BR CLR 15/13 A3002 -60 90 0 000/00 RMK AO2 T01500133
53915KARA ARA20161115212010711/15/16 21:20:31  5-MIN KARA 160320Z AUTO 00000KT 6SM BR CLR 16/14 A3002 -60 90 0 000/00 RMK AO2 T01560139
53915KARA ARA20161115212510911/15/16 21:25:31  5-MIN KARA 160325Z AUTO 01003KT 6SM BR CLR 16/14 A3002 -60 86 100 010/03 RMK AO2 T01610139
53915KARA ARA20161115213010711/15/16 21:30:31  5-MIN KARA 160330Z AUTO 35003KT 6SM BR CLR 16/14 A3002 -60 90 0 350/03 RMK AO2 T01560139
53915KARA ARA20161115213510711/15/16 21:35:31  5-MIN KARA 160335Z AUTO 35004KT 5SM BR CLR 15/13 A3002 -60 90 0 350/04 RMK AO2 T01500133
53915KARA ARA20161115214010711/15/16 21:40:31  5-MIN KARA 160340Z AUTO 35004KT 5SM BR CLR 15/13 A3002 -60 90 0 350/04 RMK AO2 T01500133
53915KARA ARA20161115214510711/15/16 21:45:31  5-MIN KARA 160345Z AUTO 35004KT 5SM BR CLR 15/13 A3002 -60 90 0 350/04 RMK AO2 T01500133
53915KARA ARA20161115215011711/15/16 21:50:31  5-MIN KARA 160350Z AUTO 35004KT 4SM BR CLR 14/13 A3002 -60 90 -100 350/04 RMK AO2 SLP165 T01440128
53915KARA ARA20161115215511011/15/16 21:55:31  5-MIN KARA 160355Z AUTO 35004KT 4SM BR CLR 14/13 A3002 -60 90 -100 350/04 RMK AO2 T01440128
53915KARA ARA20161115220011011/15/16 22:00:31  5-MIN KARA 160400Z AUTO 36005KT 4SM BR CLR 14/13 A3002 -60 90 -100 360/05 RMK AO2 T01440128
53915KARA ARA20161115220511011/15/16 22:05:31  5-MIN KARA 160405Z AUTO 01004KT 4SM BR CLR 14/13 A3002 -60 90 -100 360/04 RMK AO2 T01440128
53915KARA ARA20161115221011411/15/16 22:10:31  5-MIN KARA 160410Z AUTO 01004KT 2 1/2SM BR CLR 14/13 A3002 -60 90 -100 010/04 RMK AO2 T01440128
53915KARA ARA20161115221511011/15/16 22:15:31  5-MIN KARA 160415Z AUTO 01004KT 3SM BR CLR 14/13 A3002 -60 90 -100 010/04 RMK AO2 T01440128
53915KARA ARA20161115222011011/15/16 22:20:31  5-MIN KARA 160420Z AUTO 00000KT 5SM BR CLR 14/13 A3001 -60 93 -100 000/00 RMK AO2 T01440133
53915KARA ARA20161115222511011/15/16 22:25:31  5-MIN KARA 160425Z AUTO 00000KT 4SM BR CLR 14/13 A3001 -60 93 -100 000/00 RMK AO2 T01440133
53915KARA ARA20161115223011111/15/16 22:30:31  5-MIN KARA 160430Z AUTO 00000KT 2 1/2SM BR CLR 14/13 A3001 -50 90 0 000/00 RMK AO2 T01440128
53915KARA ARA20161115223510711/15/16 22:35:31  5-MIN KARA 160435Z AUTO 00000KT 2SM BR CLR 14/13 A3001 -50 93 0 000/00 RMK AO2 T01440133
53915KARA ARA20161115224010711/15/16 22:40:31  5-MIN KARA 160440Z AUTO 00000KT 2SM BR CLR 14/13 A3001 -50 93 0 000/00 RMK AO2 T01440133
53915KARA ARA20161115224511411/15/16 22:45:31  5-MIN KARA 160445Z AUTO 00000KT 1 1/2SM BR CLR 13/12 A3001 -50 93 -200 000/00 RMK AO2 T01280117
53915KARA ARA20161115225012111/15/16 22:50:31  5-MIN KARA 160450Z AUTO 00000KT 1 1/2SM BR CLR 12/11 A3001 -50 89 -300 000/00 RMK AO2 SLP162 T01220106
53915KARA ARA20161115225511011/15/16 22:55:31  5-MIN KARA 160455Z AUTO 00000KT 2SM BR CLR 13/11 A3001 -50 89 -200 000/00 RMK AO2 T01280111
53915KARA ARA20161115230011011/15/16 23:00:31  5-MIN KARA 160500Z AUTO 00000KT 2SM BR CLR 13/11 A3001 -50 89 -200 000/00 RMK AO2 T01280111
53915KARA ARA20161115230511011/15/16 23:05:31  5-MIN KARA 160505Z AUTO 00000KT 2SM BR CLR 13/11 A3001 -50 89 -200 000/00 RMK AO2 T01280111
53915KARA ARA20161115231011011/15/16 23:10:31  5-MIN KARA 160510Z AUTO 00000KT 2SM BR CLR 12/11 A3001 -50 89 -300 000/00 RMK AO2 T01220106
53915KARA ARA20161115231511411/15/16 23:15:31  5-MIN KARA 160515Z AUTO 00000KT 1 1/4SM BR CLR 12/11 A3001 -50 89 -300 000/00 RMK AO2 T01220106
53915KARA ARA20161115232012011/15/16 23:20:31  5-MIN KARA 160520Z AUTO 00000KT 1SM BR CLR 12/11 A3001 -50 93 -300 000/00 RMK AO2 VIS 1/2V2 T01220111
53915KARA ARA20161115232511411/15/16 23:25:31  5-MIN KARA 160525Z AUTO 00000KT 1 3/4SM BR CLR 12/11 A3001 -50 96 -400 000/00 RMK AO2 T01170111
53915KARA ARA20161115233011411/15/16 23:30:31  5-MIN KARA 160530Z AUTO 00000KT 2 1/2SM BR CLR 12/11 A3001 -50 93 -300 000/00 RMK AO2 T01220111
53915KARA ARA20161115233511011/15/16 23:35:31  5-MIN KARA 160535Z AUTO 00000KT 3SM BR CLR 12/11 A3001 -50 93 -300 000/00 RMK AO2 T01220111
53915KARA ARA20161115234011211/15/16 23:40:31  5-MIN KARA 160540Z AUTO 00000KT 3/4SM BR CLR 12/11 A3001 -50 93 -300 000/00 RMK AO2 T01220111
53915KARA ARA20161115234511211/15/16 23:45:31  5-MIN KARA 160545Z AUTO 00000KT 1/4SM FG CLR 13/12 A3001 -50 93 -200 000/00 RMK AO2 T01280117
53915KARA ARA20161115235014911/15/16 23:50:31  5-MIN KARA 160550Z AUTO 00000KT 1/4SM FG VV004 13/12 A3001 -50 93 -200 000/00 RMK AO2 SLP162 T01280117 10194 20117 402720089 51013
53915KARA ARA20161115235511211/15/16 23:55:31  5-MIN KARA 160555Z AUTO 00000KT 1/2SM FG CLR 12/11 A3001 -50 93 -300 000/00 RMK AO2 T01220111
53915KARA ARA20161116000011711/16/16 00:00:31  5-MIN KARA 160600Z AUTO 00000KT 1 1/4SM BR FEW004 13/11 A3001 -50 89 -200 000/00 RMK AO2 T01280111
53915KARA ARA20161116000512811/16/16 00:05:31  5-MIN KARA 160605Z AUTO 00000KT 1/2SM FG VV003 12/11 A3001 -60 93 -300 000/00 RMK AO2 VIS 1/4V1 3/4 T01220111
53915KARA ARA20161116001011411/16/16 00:10:31  5-MIN KARA 160610Z AUTO 00000KT 1/4SM FG VV003 12/11 A3001 -60 89 -300 000/00 RMK AO2 T01220106
53915KARA ARA20161116001511411/16/16 00:15:31  5-MIN KARA 160615Z AUTO 00000KT 1/2SM FG VV003 13/11 A3001 -60 89 -200 000/00 RMK AO2 T01280111
53915KARA ARA20161116002011711/16/16 00:20:31  5-MIN KARA 160620Z AUTO 00000KT 1 1/4SM BR FEW003 13/11 A3001 -60 86 -200 000/00 RMK AO2 T01280106
53915KARA ARA20161116002511711/16/16 00:25:31  5-MIN KARA 160625Z AUTO 00000KT 1 1/4SM BR FEW003 12/11 A3001 -50 89 -300 000/00 RMK AO2 T01220106
53915KARA ARA20161116003011411/16/16 00:30:31  5-MIN KARA 160630Z AUTO 00000KT 1/2SM FG VV003 12/11 A3001 -60 89 -300 000/00 RMK AO2 T01220106
53915KARA ARA20161116003511411/16/16 00:35:31  5-MIN KARA 160635Z AUTO 00000KT 1/2SM FG VV003 12/11 A3002 -60 93 -300 000/00 RMK AO2 T01220111
53915KARA ARA20161116004011211/16/16 00:40:31  5-MIN KARA 160640Z AUTO 00000KT 1/2SM FG CLR 12/11 A3002 -60 89 -300 000/00 RMK AO2 T01220106
53915KARA ARA20161116004511411/16/16 00:45:31  5-MIN KARA 160645Z AUTO 00000KT 1/4SM FG VV003 11/11 A3002 -60 96 -500 000/00 RMK AO2 T01110106
53915KARA ARA20161116005010411/16/16 00:50:31  5-MIN KARA 160650Z AUTO 00000KT 1/4SM FG VV003 11/10 A3001 -60 93 -500 000/00 RMK AO2
53915KARA ARA20161116005511411/16/16 00:55:31  5-MIN KARA 160655Z AUTO 00000KT 1/4SM FG VV003 11/10 A3001 -60 93 -400 000/00 RMK AO2 T01110100
53915KARA ARA20161116010011411/16/16 01:00:31  5-MIN KARA 160700Z AUTO 00000KT 1/4SM FG VV002 11/10 A3002 -60 93 -500 000/00 RMK AO2 T01110100
53915KARA ARA20161116010511411/16/16 01:05:31  5-MIN KARA 160705Z AUTO 00000KT 1/4SM FG VV002 11/09 A3002 -60 93 -500 000/00 RMK AO2 T01060094
53915KARA ARA20161116011011411/16/16 01:10:31  5-MIN KARA 160710Z AUTO 00000KT 1/4SM FG VV002 11/10 A3002 -60 93 -500 000/00 RMK AO2 T01110100
53915KARA ARA20161116011511411/16/16 01:15:31  5-MIN KARA 160715Z AUTO 00000KT 1/4SM FG VV002 11/09 A3001 -60 89 -500 000/00 RMK AO2 T01110094
53915KARA ARA20161116012011411/16/16 01:20:31  5-MIN KARA 160720Z AUTO 00000KT 1/4SM FG VV002 11/09 A3001 -60 89 -400 000/00 RMK AO2 T01110094
53915KARA ARA20161116012511411/16/16 01:25:31  5-MIN KARA 160725Z AUTO 00000KT 1/4SM FG VV002 11/09 A3001 -60 89 -500 000/00 RMK AO2 T01110094
53915KARA ARA20161116013011411/16/16 01:30:31  5-MIN KARA 160730Z AUTO 00000KT 1/4SM FG VV002 11/10 A3001 -60 93 -400 000/00 RMK AO2 T01110100
53915KARA ARA20161116013511511/16/16 01:35:31  5-MIN KARA 160735Z AUTO 00000KT M1/4SM FG VV002 11/10 A3001 -50 96 -500 000/00 RMK AO2 T01060100
53915KARA ARA20161116014011511/16/16 01:40:31  5-MIN KARA 160740Z AUTO 00000KT M1/4SM FG VV002 11/09 A3001 -50 93 -500 000/00 RMK AO2 T01060094
53915KARA ARA20161116014511511/16/16 01:45:31  5-MIN KARA 160745Z AUTO 00000KT M1/4SM FG VV002 11/09 A3001 -50 89 -400 000/00 RMK AO2 T01110094
53915KARA ARA20161116015012211/16/16 01:50:31  5-MIN KARA 160750Z AUTO 00000KT M1/4SM FG VV002 11/10 A3001 -50 93 -400 000/00 RMK AO2 SLP162 T01110100
53915KARA ARA20161116015511511/16/16 01:55:31  5-MIN KARA 160755Z AUTO 00000KT M1/4SM FG VV001 11/10 A3001 -50 93 -400 000/00 RMK AO2 T01110100
53915KARA ARA20161116020011411/16/16 02:00:31  5-MIN KARA 160800Z AUTO 00000KT 1/4SM FG VV001 11/10 A3001 -50 93 -400 000/00 RMK AO2 T01110100
53915KARA ARA20161116020511511/16/16 02:05:31  5-MIN KARA 160805Z AUTO 00000KT M1/4SM FG VV001 11/10 A3001 -50 96 -500 000/00 RMK AO2 T01060100
53915KARA ARA20161116021011411/16/16 02:10:31  5-MIN KARA 160810Z AUTO 00000KT 1/4SM FG VV001 10/09 A3001 -50 96 -600 000/00 RMK AO2 T01000094
53915KARA ARA20161116021511411/16/16 02:15:31  5-MIN KARA 160815Z AUTO 00000KT 1/4SM FG VV001 10/09 A3001 -50 93 -600 000/00 RMK AO2 T01000089
53915KARA ARA20161116022011411/16/16 02:20:31  5-MIN KARA 160820Z AUTO 00000KT 1/4SM FG VV001 11/09 A3001 -50 89 -500 000/00 RMK AO2 T01060089
53915KARA ARA20161116022511411/16/16 02:25:31  5-MIN KARA 160825Z AUTO 00000KT 1/4SM FG VV001 11/09 A3001 -60 89 -500 000/00 RMK AO2 T01060089
53915KARA ARA20161116023011411/16/16 02:30:31  5-MIN KARA 160830Z AUTO 00000KT 1/4SM FG VV001 11/09 A3002 -60 89 -500 000/00 RMK AO2 T01060089
53915KARA ARA20161116023511411/16/16 02:35:31  5-MIN KARA 160835Z AUTO 00000KT 1/4SM FG VV001 11/09 A3002 -60 93 -500 000/00 RMK AO2 T01060094
53915KARA ARA20161116024011411/16/16 02:40:31  5-MIN KARA 160840Z AUTO 00000KT 1/4SM FG VV001 11/10 A3002 -60 93 -500 000/00 RMK AO2 T01110100
53915KARA ARA20161116024511411/16/16 02:45:31  5-MIN KARA 160845Z AUTO 00000KT 1/4SM FG VV001 11/10 A3002 -60 96 -500 000/00 RMK AO2 T01060100
53915KARA ARA20161116025012711/16/16 02:50:31  5-MIN KARA 160850Z AUTO 00000KT 1/4SM FG VV001 11/10 A3002 -60 96 -500 000/00 RMK AO2 SLP164 T01060100 56003
53915KARA ARA20161116025511411/16/16 02:55:31  5-MIN KARA 160855Z AUTO 00000KT 1/4SM FG VV001 11/10 A3002 -60 96 -500 000/00 RMK AO2 T01060100
53915KARA ARA20161116030011411/16/16 03:00:31  5-MIN KARA 160900Z AUTO 00000KT 1/4SM FG VV001 11/10 A3002 -60 96 -500 000/00 RMK AO2 T01060100
53915KARA ARA20161116030511411/16/16 03:05:31  5-MIN KARA 160905Z AUTO 00000KT 1/4SM FG VV001 10/09 A3002 -60 96 -600 000/00 RMK AO2 T01000094
53915KARA ARA20161116031013011/16/16 03:10:31  5-MIN KARA 160910Z AUTO 00000KT 1/4SM -RA FG VV001 11/09 A3002 -60 89 -500 000/00 RMK AO2 RAB08 P0000 T01060089
53915KARA ARA20161116031513011/16/16 03:15:31  5-MIN KARA 160915Z AUTO 00000KT 1/4SM -RA FG VV001 11/09 A3003 -70 89 -500 000/00 RMK AO2 RAB08 P0000 T01060089
53915KARA ARA20161116032013011/16/16 03:20:31  5-MIN KARA 160920Z AUTO 33003KT 1/4SM -RA FG VV001 11/09 A3003 -70 93 -500 330/03 RMK AO2 RAB08 P0000 T01060094
53915KARA ARA20161116032512911/16/16 03:25:31  5-MIN KARA 160925Z AUTO 33003KT 1/4SM FG VV001 11/09 A3003 -70 93 -500 330/03 RMK AO2 RAB08E25 P0000 T01060094
53915KARA ARA20161116033013011/16/16 03:30:31  5-MIN KARA 160930Z AUTO 33003KT 1/4SM -RA FG VV001 11/10 A3003 -70 93 -500 320/03 RMK AO2 RAB08 P0000 T01110100
53915KARA ARA20161116033513011/16/16 03:35:31  5-MIN KARA 160935Z AUTO 32003KT 1/4SM -RA FG VV001 11/10 A3003 -70 96 -500 320/03 RMK AO2 RAB08 P0000 T01060100
53915KARA ARA20161116034013011/16/16 03:40:31  5-MIN KARA 160940Z AUTO 32003KT 1/4SM -RA FG VV001 11/10 A3003 -70 93 -500 320/03 RMK AO2 RAB08 P0000 T01110100
53915KARA ARA20161116034513011/16/16 03:45:31  5-MIN KARA 160945Z AUTO 00000KT 1/4SM -RA FG VV001 11/10 A3003 -70 93 -500 000/00 RMK AO2 RAB08 P0000 T01110100
53915KARA ARA20161116035013611/16/16 03:50:31  5-MIN KARA 160950Z AUTO 00000KT 1/4SM FG VV001 11/10 A3003 -70 96 -500 000/00 RMK AO2 RAB08E49 SLP169 P0000 T01060100
53915KARA ARA20161116035511411/16/16 03:55:31  5-MIN KARA 160955Z AUTO 00000KT 1/4SM FG VV001 11/10 A3004 -80 93 -500 000/00 RMK AO2 T01110100
53915KARA ARA20161116040011411/16/16 04:00:31  5-MIN KARA 161000Z AUTO 00000KT 1/4SM FG VV001 11/10 A3004 -80 93 -500 000/00 RMK AO2 T01110100
53915KARA ARA20161116040511411/16/16 04:05:31  5-MIN KARA 161005Z AUTO 00000KT 1/4SM FG VV001 10/09 A3004 -80 96 -600 000/00 RMK AO2 T01000094
53915KARA ARA20161116041011411/16/16 04:10:31  5-MIN KARA 161010Z AUTO 00000KT 1/4SM FG VV001 10/09 A3004 -80 93 -600 000/00 RMK AO2 T01000089
53915KARA ARA20161116041511411/16/16 04:15:31  5-MIN KARA 161015Z AUTO 00000KT 1/4SM FG VV001 11/09 A3004 -80 93 -500 000/00 RMK AO2 T01060094
53915KARA ARA20161116042011411/16/16 04:20:31  5-MIN KARA 161020Z AUTO 00000KT 1/4SM FG VV001 11/09 A3004 -80 93 -500 000/00 RMK AO2 T01060094
53915KARA ARA20161116042511411/16/16 04:25:31  5-MIN KARA 161025Z AUTO 00000KT 1/4SM FG VV001 11/09 A3004 -80 93 -500 000/00 RMK AO2 T01060094
53915KARA ARA20161116043011411/16/16 04:30:31  5-MIN KARA 161030Z AUTO 00000KT 1/4SM FG VV001 10/09 A3004 -80 96 -600 000/00 RMK AO2 T01000094
53915KARA ARA20161116043511411/16/16 04:35:31  5-MIN KARA 161035Z AUTO 00000KT 1/4SM FG VV002 10/09 A3005 -80 93 -600 000/00 RMK AO2 T01000089
53915KARA ARA20161116044011411/16/16 04:40:31  5-MIN KARA 161040Z AUTO 00000KT 1/4SM FG VV002 10/09 A3005 -90 93 -600 000/00 RMK AO2 T01000089
53915KARA ARA20161116044511411/16/16 04:45:31  5-MIN KARA 161045Z AUTO 00000KT 1/4SM FG VV002 10/09 A3005 -90 93 -600 000/00 RMK AO2 T01000089
53915KARA ARA20161116045012111/16/16 04:50:31  5-MIN KARA 161050Z AUTO 00000KT 1/4SM FG VV002 10/09 A3005 -90 93 -600 000/00 RMK AO2 SLP174 T01000089
53915KARA ARA20161116045511411/16/16 04:55:31  5-MIN KARA 161055Z AUTO 00000KT 1/4SM FG VV001 11/09 A3005 -90 89 -600 000/00 RMK AO2 T01060089
53915KARA ARA20161116050011411/16/16 05:00:31  5-MIN KARA 161100Z AUTO 00000KT 1/4SM FG VV001 11/09 A3005 -90 89 -600 000/00 RMK AO2 T01060089
53915KARA ARA20161116050511411/16/16 05:05:31  5-MIN KARA 161105Z AUTO 00000KT 1/4SM FG VV001 11/09 A3005 -90 89 -600 000/00 RMK AO2 T01060089
53915KARA ARA20161116051013011/16/16 05:10:31  5-MIN KARA 161110Z AUTO 00000KT 1/4SM -RA FG VV001 11/09 A3005 -90 89 -500 000/00 RMK AO2 RAB07 P0000 T01110094
53915KARA ARA20161116051513011/16/16 05:15:31  5-MIN KARA 161115Z AUTO 00000KT 1/4SM -RA FG VV001 11/10 A3005 -90 93 -500 000/00 RMK AO2 RAB07 P0000 T01110100
53915KARA ARA20161116052013011/16/16 05:20:31  5-MIN KARA 161120Z AUTO 00000KT 1/4SM -RA FG VV001 11/09 A3005 -90 89 -500 000/00 RMK AO2 RAB07 P0000 T01110094
53915KARA ARA20161116052513011/16/16 05:25:31  5-MIN KARA 161125Z AUTO 00000KT 1/4SM -RA FG VV001 11/09 A3005 -90 93 -600 000/00 RMK AO2 RAB07 P0000 T01060094
53915KARA ARA20161116053013011/16/16 05:30:31  5-MIN KARA 161130Z AUTO 00000KT 1/4SM -RA FG VV001 11/09 A3005 -90 93 -600 000/00 RMK AO2 RAB07 P0000 T01060094
53915KARA ARA20161116053512511/16/16 05:35:31  5-MIN KARA 161135Z 00000KT 1/4SM FG VV001 11/09 A3006 -100 93 -600 000/00 RMK AO2 RAB07E35 P0000 T01060094
53915KARA ARA20161116054012511/16/16 05:40:31  5-MIN KARA 161140Z 00000KT 1/4SM FG VV001 11/09 A3006 -100 93 -600 000/00 RMK AO2 RAB07E35 P0000 T01060094
53915KARA ARA20161116054512511/16/16 05:45:31  5-MIN KARA 161145Z 00000KT 1/4SM FG VV002 11/09 A3006 -100 93 -600 000/00 RMK AO2 RAB07E35 P0000 T01060094
53915KARA ARA20161116055011511/16/16 05:50:31  5-MIN KARA 161150Z 00000KT 1/4SM FG VV002 11/09 A3006 -100 93 -600 000/00 RMK AO2 RAB07E35 P0000
53915KARA ARA20161116055511011/16/16 05:55:31  5-MIN KARA 161155Z 32003KT 1/2SM FG VV002 11/09 A3006 -100 93 -600 320/03 RMK AO2 T01060094
53915KARA ARA20161116060011011/16/16 06:00:31  5-MIN KARA 161200Z 32003KT 1/4SM FG VV002 11/09 A3006 -100 93 -600 320/03 RMK AO2 T01060094
53915KARA ARA20161116060511011/16/16 06:05:31  5-MIN KARA 161205Z 00000KT 1/4SM FG VV002 11/09 A3006 -100 93 -600 000/00 RMK AO2 T01060094
53915KARA ARA20161116061011011/16/16 06:10:31  5-MIN KARA 161210Z 00000KT 1/4SM FG VV001 11/09 A3006 -100 93 -600 000/00 RMK AO2 T01060094
53915KARA ARA20161116061511011/16/16 06:15:31  5-MIN KARA 161215Z 00000KT 1/4SM FG VV001 11/10 A3006 -100 96 -600 000/00 RMK AO2 T01060100
53915KARA ARA20161116062011011/16/16 06:20:31  5-MIN KARA 161220Z 00000KT 1/4SM FG VV001 11/10 A3006 -100 93 -500 000/00 RMK AO2 T01110100
53915KARA ARA20161116062512711/16/16 06:25:31  5-MIN KARA 161225Z 00000KT M1/4SM -RA FG VV001 11/10 A3006 -100 93 -500 000/00 RMK AO2 RAB21 P0000 T01110100
53915KARA ARA20161116063012711/16/16 06:30:31  5-MIN KARA 161230Z 00000KT M1/4SM -RA FG VV001 11/10 A3006 -100 93 -500 000/00 RMK AO2 RAB21 P0000 T01110100
53915KARA ARA20161116063512711/16/16 06:35:31  5-MIN KARA 161235Z 00000KT M1/4SM -RA FG VV001 11/10 A3006 -100 93 -500 000/00 RMK AO2 RAB21 P0000 T01110100
53915KARA ARA20161116064012711/16/16 06:40:31  5-MIN KARA 161240Z 00000KT M1/4SM -RA FG VV001 11/10 A3007 -100 93 -500 000/00 RMK AO2 RAB21 P0000 T01110100
53915KARA ARA20161116064512611/16/16 06:45:31  5-MIN KARA 161245Z 00000KT M1/4SM FG VV001 11/10 A3007 -100 93 -500 000/00 RMK AO2 RAB21E43 P0000 T01110100
53915KARA ARA20161116065013311/16/16 06:50:31  5-MIN KARA 161250Z 00000KT M1/4SM FG VV001 11/10 A3007 -110 93 -500 000/00 RMK AO2 RAB21E43 SLP182 P0000 T01110100
53915KARA ARA20161116065511111/16/16 06:55:31  5-MIN KARA 161255Z 00000KT M1/4SM FG VV001 11/10 A3007 -110 93 -500 000/00 RMK AO2 T01110100
53915KARA ARA20161116070012911/16/16 07:00:31  5-MIN KARA 161300Z 00000KT M1/4SM -RA FG VV001 11/10 A3007 -110 93 -500 000/00 RMK AO2 RAB1259 P0000 T01110100
53915KARA ARA20161116070512911/16/16 07:05:31  5-MIN KARA 161305Z 00000KT M1/4SM -RA FG VV001 11/10 A3008 -110 93 -500 000/00 RMK AO2 RAB1259 P0000 T01110100
53915KARA ARA20161116071012911/16/16 07:10:31  5-MIN KARA 161310Z 00000KT M1/4SM -RA FG VV001 11/10 A3008 -110 93 -500 000/00 RMK AO2 RAB1259 P0000 T01110100
53915KARA ARA20161116071512911/16/16 07:15:31  5-MIN KARA 161315Z 00000KT M1/4SM -RA FG VV001 11/10 A3008 -110 93 -500 000/00 RMK AO2 RAB1259 P0000 T01110100
53915KARA ARA20161116072012811/16/16 07:20:31  5-MIN KARA 161320Z 00000KT M1/4SM FG VV001 11/11 A3008 -120 96 -500 000/00 RMK AO2 RAB1259E20 P0000 T01110106
53915KARA ARA20161116072512811/16/16 07:25:31  5-MIN KARA 161325Z 00000KT M1/4SM FG VV001 12/11 A3008 -120 93 -500 000/00 RMK AO2 RAB1259E20 P0000 T01170106
53915KARA ARA20161116073012811/16/16 07:30:31  5-MIN KARA 161330Z 00000KT M1/4SM FG VV001 12/11 A3008 -120 93 -500 000/00 RMK AO2 RAB1259E20 P0000 T01170106
53915KARA ARA20161116073512711/16/16 07:35:31  5-MIN KARA 161335Z 00000KT 1/4SM FG VV001 12/11 A3008 -120 93 -400 000/00 RMK AO2 RAB1259E20 P0000 T01220111
53915KARA ARA20161116074012811/16/16 07:40:31  5-MIN KARA 161340Z 00000KT M1/4SM FG VV001 12/11 A3008 -120 93 -400 000/00 RMK AO2 RAB1259E20 P0000 T01220111
53915KARA ARA20161116074512811/16/16 07:45:31  5-MIN KARA 161345Z 00000KT M1/4SM FG VV001 13/12 A3008 -120 93 -300 000/00 RMK AO2 RAB1259E20 P0000 T01280117
53915KARA ARA20161116075014211/16/16 07:50:31  5-MIN KARA 161350Z 00000KT M1/4SM -RA FG VV001 13/12 A3009 -120 89 -300 000/00 RMK AO2 RAB1259E20B48 SLP187 P0000 T01330117
53915KARA ARA20161116075512011/16/16 07:55:31  5-MIN KARA 161355Z 00000KT 1/4SM -RA FG VV001 14/12 A3009 -120 90 -200 000/00 RMK AO2 P0000 T01390122
53915KARA ARA20161116080012011/16/16 08:00:31  5-MIN KARA 161400Z 00000KT 1/4SM -RA FG VV002 14/13 A3009 -120 93 -100 000/00 RMK AO2 P0000 T01440133
53915KARA ARA20161116080512011/16/16 08:05:31  5-MIN KARA 161405Z 00000KT 3/4SM -RA BR VV002 15/14 A3009 -120 93 -100 000/00 RMK AO2 P0000 T01500139
53915KARA ARA20161116081012011/16/16 08:10:31  5-MIN KARA 161410Z 01003KT 1 1/2SM -RA BR BKN002 16/14 A3009 -130 93 0 360/03 RMK AO2 P0000 T01560144
53915KARA ARA20161116081512011/16/16 08:15:31  5-MIN KARA 161415Z 00000KT 1 3/4SM -RA BR SCT002 16/14 A3009 -120 90 0 000/00 RMK AO2 P0000 T01610144
53915KARA ARA20161116082011811/16/16 08:20:31  5-MIN KARA 161420Z 03003KT 2SM -RA BR FEW002 17/15 A3009 -130 90 100 030/03 RMK AO2 P0000 T01670150
53915KARA ARA20161116082512411/16/16 08:25:31  5-MIN KARA 161425Z 02003KT 2 1/2SM BR FEW002 17/15 A3009 -130 87 100 020/03 RMK AO2 RAE22 P0000 T01720150
53915KARA ARA20161116083012111/16/16 08:30:31  5-MIN KARA 161430Z 00000KT 2 1/2SM BR CLR 17/16 A3009 -130 90 100 000/00 RMK AO2 RAE22 P0000 T01720156
53915KARA ARA20161116083512111/16/16 08:35:31  5-MIN KARA 161435Z 00000KT 2 1/2SM BR CLR 17/16 A3009 -130 90 100 000/00 RMK AO2 RAE22 P0000 T01720156
53915KARA ARA20161116084011711/16/16 08:40:31  5-MIN KARA 161440Z VRB03KT 3SM BR CLR 17/16 A3009 -130 90 100 VRB/03 RMK AO2 RAE22 P0000 T01720156
53915KARA ARA20161116084511711/16/16 08:45:31  5-MIN KARA 161445Z 05003KT 3SM BR CLR 18/16 A3009 -130 87 200 050/03 RMK AO2 RAE22 P0000 T01780156
53915KARA ARA20161116085013611/16/16 08:50:31  5-MIN KARA 161450Z 04004KT 4SM BR CLR 18/16 A3009 -130 87 200 040/04 RMK AO2 RAE22 SLP189 P0000 60000 T01780156 51009
53915KARA ARA20161116085510511/16/16 08:55:31  5-MIN KARA 161455Z 04004KT 4SM HZ CLR 18/16 A3009 -130 84 300 040/04 RMK AO2 T01830156
53915KARA ARA20161116090010511/16/16 09:00:31  5-MIN KARA 161500Z 04005KT 4SM HZ CLR 18/15 A3009 -130 81 300 030/05 RMK AO2 T01830150
53915KARA ARA20161116090510511/16/16 09:05:31  5-MIN KARA 161505Z 03004KT 4SM HZ CLR 18/16 A3009 -120 84 300 030/04 RMK AO2 T01830156
53915KARA ARA20161116091010511/16/16 09:10:31  5-MIN KARA 161510Z 05005KT 5SM HZ CLR 19/16 A3009 -130 81 300 050/05 RMK AO2 T01890156
53915KARA ARA20161116091510511/16/16 09:15:31  5-MIN KARA 161515Z 06005KT 5SM HZ CLR 19/16 A3009 -130 78 400 050/05 RMK AO2 T01940156
53915KARA ARA20161116092010511/16/16 09:20:31  5-MIN KARA 161520Z 06004KT 5SM HZ CLR 19/16 A3009 -130 78 400 060/04 RMK AO2 T01940156
53915KARA ARA20161116092510511/16/16 09:25:31  5-MIN KARA 161525Z 06004KT 5SM HZ CLR 20/16 A3009 -130 75 500 060/04 RMK AO2 T02000156
53915KARA ARA20161116093010511/16/16 09:30:31  5-MIN KARA 161530Z VRB03KT 5SM HZ CLR 20/16 A3010 -130 78 500 VRB/03 RMK AO2 T02000161
53915KARA ARA20161116093510511/16/16 09:35:31  5-MIN KARA 161535Z VRB03KT 5SM HZ CLR 21/16 A3010 -130 75 500 VRB/03 RMK AO2 T02060161
53915KARA ARA20161116094010511/16/16 09:40:31  5-MIN KARA 161540Z VRB04KT 6SM HZ CLR 21/16 A3010 -130 75 500 VRB/04 RMK AO2 T02060161
53915KARA ARA20161116094510211/16/16 09:45:31  5-MIN KARA 161545Z 08005KT 7SM CLR 21/16 A3010 -130 70 600 080/05 RMK AO2 T02110156
53915KARA ARA20161116095010911/16/16 09:50:31  5-MIN KARA 161550Z 09005KT 7SM CLR 21/16 A3010 -130 70 600 090/05 RMK AO2 SLP191 T02110156
53915KARA ARA20161116095510211/16/16 09:55:31  5-MIN KARA 161555Z 08005KT 8SM CLR 21/15 A3010 -130 68 600 080/05 RMK AO2 T02110150
53915KARA ARA20161116100010211/16/16 10:00:31  5-MIN KARA 161600Z 10006KT 9SM CLR 22/15 A3010 -130 65 700 100/06 RMK AO2 T02170150
53915KARA ARA20161116100510211/16/16 10:05:31  5-MIN KARA 161605Z 09005KT 9SM CLR 22/14 A3010 -130 63 700 090/05 RMK AO2 T02170144
53915KARA ARA20161116101010211/16/16 10:10:31  5-MIN KARA 161610Z 08006KT 9SM CLR 22/14 A3010 -130 61 700 080/06 RMK AO2 T02220144
53915KARA ARA20161116101510311/16/16 10:15:31  5-MIN KARA 161615Z 09004KT 10SM CLR 22/14 A3010 -130 61 700 090/04 RMK AO2 T02220144
53915KARA ARA20161116102010211/16/16 10:20:31  5-MIN KARA 161620Z 09004KT 9SM CLR 22/14 A3009 -130 59 700 090/04 RMK AO2 T02220139
53915KARA ARA20161116102510211/16/16 10:25:31  5-MIN KARA 161625Z 08004KT 9SM CLR 23/14 A3009 -130 59 800 080/04 RMK AO2 T02280144
53915KARA ARA20161116103010211/16/16 10:30:31  5-MIN KARA 161630Z 00000KT 9SM CLR 23/14 A3009 -130 59 800 000/00 RMK AO2 T02280144
53915KARA ARA20161116103510311/16/16 10:35:31  5-MIN KARA 161635Z VRB04KT 10SM CLR 23/14 A3009 -120 57 800 VRB/04 RMK AO2 T02280139
53915KARA ARA20161116104010311/16/16 10:40:31  5-MIN KARA 161640Z 11004KT 10SM CLR 23/14 A3009 -120 57 800 110/04 RMK AO2 T02280139
53915KARA ARA20161116104510311/16/16 10:45:31  5-MIN KARA 161645Z 10005KT 10SM CLR 23/13 A3008 -120 53 900 100/05 RMK AO2 T02330133
53915KARA ARA20161116105011011/16/16 10:50:31  5-MIN KARA 161650Z VRB03KT 10SM CLR 24/13 A3008 -120 51 900 VRB/03 RMK AO2 SLP186 T02390133
53915KARA ARA20161116105510311/16/16 10:55:31  5-MIN KARA 161655Z 11006KT 10SM CLR 24/13 A3008 -120 49 900 110/06 RMK AO2 T02390128
53915KARA ARA20161116110010311/16/16 11:00:31  5-MIN KARA 161700Z 09005KT 10SM CLR 24/13 A3008 -120 49 900 090/05 RMK AO2 T02390128
53915KARA ARA20161116110510311/16/16 11:05:31  5-MIN KARA 161705Z 09003KT 10SM CLR 24/12 A3008 -110 47 900 090/03 RMK AO2 T02390122
53915KARA ARA20161116111010411/16/16 11:10:31  5-MIN KARA 161710Z 07006KT 10SM CLR 24/12 A3008 -110 44 1000 070/06 RMK AO2 T02440117
53915KARA ARA20161116111510411/16/16 11:15:31  5-MIN KARA 161715Z 11006KT 10SM CLR 24/12 A3008 -110 46 1000 100/06 RMK AO2 T02440122
53915KARA ARA20161116112010411/16/16 11:20:31  5-MIN KARA 161720Z 11006KT 10SM CLR 24/12 A3007 -110 46 1000 100/06 RMK AO2 T02440122
53915KARA ARA20161116112510411/16/16 11:25:31  5-MIN KARA 161725Z VRB03KT 10SM CLR 24/12 A3007 -110 44 1000 VRB/03 RMK AO2 T02440117
53915KARA ARA20161116113010411/16/16 11:30:31  5-MIN KARA 161730Z 07005KT 10SM CLR 25/11 A3007 -110 41 1100 070/05 RMK AO2 T02500111
53915KARA ARA20161116113510411/16/16 11:35:31  5-MIN KARA 161735Z 08004KT 10SM CLR 25/12 A3006 -100 43 1100 080/04 RMK AO2 T02500117
53915KARA ARA20161116114010411/16/16 11:40:31  5-MIN KARA 161740Z 10006KT 10SM CLR 25/12 A3006 -100 43 1100 100/06 RMK AO2 T02500117
53915KARA ARA20161116114510411/16/16 11:45:31  5-MIN KARA 161745Z 11003KT 10SM CLR 25/12 A3006 -100 43 1100 100/03 RMK AO2 T02500117
53915KARA ARA20161116115013411/16/16 11:50:31  5-MIN KARA 161750Z 06008KT 10SM CLR 26/11 A3006 -90 40 1100 060/08 RMK AO2 SLP177 60000 T02560111 10256 20106 51010
53915KARA ARA20161116115510311/16/16 11:55:31  5-MIN KARA 161755Z VRB03KT 10SM CLR 26/11 A3005 -90 38 1100 VRB/03 RMK AO2 T02560106
53915KARA ARA20161116120010311/16/16 12:00:31  5-MIN KARA 161800Z VRB06KT 10SM CLR 26/11 A3005 -90 38 1200 VRB/06 RMK AO2 T02610111
53915KARA ARA20161116120510311/16/16 12:05:31  5-MIN KARA 161805Z 11006KT 10SM CLR 26/11 A3005 -90 38 1100 110/06 RMK AO2 T02560106
53915KARA ARA20161116121010311/16/16 12:10:31  5-MIN KARA 161810Z VRB03KT 10SM CLR 26/10 A3005 -90 37 1200 VRB/03 RMK AO2 T02560100
53915KARA ARA20161116121510311/16/16 12:15:31  5-MIN KARA 161815Z 08006KT 10SM CLR 26/10 A3004 -80 36 1200 080/06 RMK AO2 T02610100
53915KARA ARA20161116122010311/16/16 12:20:31  5-MIN KARA 161820Z VRB04KT 10SM CLR 26/10 A3004 -80 37 1200 VRB/04 RMK AO2 T02560100
53915KARA ARA20161116122510311/16/16 12:25:31  5-MIN KARA 161825Z 07007KT 10SM CLR 27/09 A3004 -80 33 1300 070/07 RMK AO2 T02670094
53915KARA ARA20161116123010311/16/16 12:30:31  5-MIN KARA 161830Z 05005KT 10SM CLR 26/09 A3004 -80 34 1200 050/05 RMK AO2 T02560089
53915KARA ARA20161116123510311/16/16 12:35:31  5-MIN KARA 161835Z 05005KT 10SM CLR 26/08 A3003 -70 32 1200 050/05 RMK AO2 T02610083
53915KARA ARA20161116124010311/16/16 12:40:31  5-MIN KARA 161840Z 11004KT 10SM CLR 26/09 A3003 -70 33 1200 110/04 RMK AO2 T02610089
53915KARA ARA20161116124510311/16/16 12:45:31  5-MIN KARA 161845Z VRB05KT 10SM CLR 27/09 A3003 -70 33 1300 VRB/05 RMK AO2 T02670094
53915KARA ARA20161116125011011/16/16 12:50:31  5-MIN KARA 161850Z 08005KT 10SM CLR 26/09 A3002 -60 33 1200 080/05 RMK AO2 SLP166 T02610089
53915KARA ARA20161116125510311/16/16 12:55:31  5-MIN KARA 161855Z VRB03KT 10SM CLR 26/08 A3002 -60 31 1200 VRB/03 RMK AO2 T02610078
53915KARA ARA20161116130010311/16/16 13:00:31  5-MIN KARA 161900Z 13004KT 10SM CLR 26/09 A3002 -60 33 1200 130/04 RMK AO2 T02610089
53915KARA ARA20161116130510311/16/16 13:05:31  5-MIN KARA 161905Z 00000KT 10SM CLR 26/09 A3002 -60 33 1200 000/00 RMK AO2 T02610089
53915KARA ARA20161116131009311/16/16 13:10:31  5-MIN KARA 161910Z 10SM CLR 27/09 A3001 -60 32 1300 M /M RMK AO2 T02670089
53915KARA ARA20161116131510311/16/16 13:15:31  5-MIN KARA 161915Z 13003KT 10SM CLR 26/09 A3001 -50 34 1300 130/03 RMK AO2 T02610094
53915KARA ARA20161116132010311/16/16 13:20:31  5-MIN KARA 161920Z VRB05KT 10SM CLR 27/08 A3001 -60 31 1300 VRB/05 RMK AO2 T02670083
53915KARA ARA20161116132510311/16/16 13:25:31  5-MIN KARA 161925Z VRB04KT 10SM CLR 27/09 A3001 -50 32 1300 VRB/04 RMK AO2 T02670089
53915KARA ARA20161116133010311/16/16 13:30:31  5-MIN KARA 161930Z 11004KT 10SM CLR 27/09 A3001 -50 32 1300 110/04 RMK AO2 T02670089
53915KARA ARA20161116133510311/16/16 13:35:31  5-MIN KARA 161935Z VRB03KT 10SM CLR 27/09 A3001 -50 32 1300 VRB/03 RMK AO2 T02670089
53915KARA ARA20161116134009311/16/16 13:40:31  5-MIN KARA 161940Z 10SM CLR 27/08 A3001 -50 29 1300 M /M RMK AO2 T02670078
53915KARA ARA20161116134510311/16/16 13:45:31  5-MIN KARA 161945Z 07005KT 10SM CLR 27/08 A3001 -50 29 1300 070/05 RMK AO2 T02670078
53915KARA ARA20161116135011011/16/16 13:50:31  5-MIN KARA 161950Z 09004KT 10SM CLR 27/08 A3001 -50 29 1300 090/04 RMK AO2 SLP160 T02670078
53915KARA ARA20161116135510311/16/16 13:55:31  5-MIN KARA 161955Z 05003KT 10SM CLR 27/08 A3000 -50 30 1400 050/03 RMK AO2 T02720083
53915KARA ARA20161116140010311/16/16 14:00:31  5-MIN KARA 162000Z 09006KT 10SM CLR 27/07 A3000 -50 27 1400 090/06 RMK AO2 T02720072
53915KARA ARA20161116140510311/16/16 14:05:31  5-MIN KARA 162005Z 09003KT 10SM CLR 27/07 A3000 -40 27 1400 090/03 RMK AO2 T02720072
53915KARA ARA20161116141010311/16/16 14:10:31  5-MIN KARA 162010Z VRB03KT 10SM CLR 27/08 A3000 -40 31 1300 VRB/03 RMK AO2 T02670083
53915KARA ARA20161116141510311/16/16 14:15:31  5-MIN KARA 162015Z 13003KT 10SM CLR 27/08 A3000 -50 29 1300 130/03 RMK AO2 T02670078
53915KARA ARA20161116142010311/16/16 14:20:31  5-MIN KARA 162020Z VRB06KT 10SM CLR 27/08 A3000 -40 30 1400 VRB/06 RMK AO2 T02720083
53915KARA ARA20161116142510311/16/16 14:25:31  5-MIN KARA 162025Z 10005KT 10SM CLR 27/09 A3000 -40 31 1400 100/05 RMK AO2 T02720089
53915KARA ARA20161116143010311/16/16 14:30:31  5-MIN KARA 162030Z 12005KT 10SM CLR 27/09 A3000 -50 32 1300 120/05 RMK AO2 T02670089
53915KARA ARA20161116143510811/16/16 14:35:31  5-MIN KARA 162035Z AUTO 14003KT 10SM CLR 27/09 A3000 -40 32 1300 140/03 RMK AO2 T02670089
53915KARA ARA20161116144010811/16/16 14:40:31  5-MIN KARA 162040Z AUTO 13005KT 10SM CLR 27/09 A3000 -40 32 1300 130/05 RMK AO2 T02670089
53915KARA ARA20161116144510811/16/16 14:45:31  5-MIN KARA 162045Z AUTO 00000KT 10SM CLR 27/08 A3000 -40 31 1300 000/00 RMK AO2 T02670083
53915KARA ARA20161116145011611/16/16 14:50:31  5-MIN KARA 162050Z 11005KT 10SM CLR 27/09 A3000 -50 32 1300 110/05 RMK AO2 SLP159 T02670089 58012
53915KARA ARA20161116145510311/16/16 14:55:31  5-MIN KARA 162055Z 13003KT 10SM CLR 27/09 A3000 -40 32 1300 130/03 RMK AO2 T02670089
53915KARA ARA20161116150010311/16/16 15:00:31  5-MIN KARA 162100Z 00000KT 10SM CLR 27/08 A3000 -40 31 1300 000/00 RMK AO2 T02670083
53915KARA ARA20161116150510311/16/16 15:05:31  5-MIN KARA 162105Z 14003KT 10SM CLR 27/09 A3000 -40 32 1300 130/03 RMK AO2 T02670089
53915KARA ARA20161116151010311/16/16 15:10:31  5-MIN KARA 162110Z VRB03KT 10SM CLR 27/09 A3000 -40 32 1300 VRB/03 RMK AO2 T02670089
53915KARA ARA20161116151510311/16/16 15:15:31  5-MIN KARA 162115Z 11005KT 10SM CLR 27/09 A3000 -40 32 1300 110/05 RMK AO2 T02670089
53915KARA ARA20161116152010311/16/16 15:20:31  5-MIN KARA 162120Z 10004KT 10SM CLR 27/09 A3000 -40 32 1300 090/04 RMK AO2 T02670089
53915KARA ARA20161116152510311/16/16 15:25:31  5-MIN KARA 162125Z 13006KT 10SM CLR 27/09 A3000 -40 32 1300 130/06 RMK AO2 T02670089
53915KARA ARA20161116153010311/16/16 15:30:31  5-MIN KARA 162130Z 10005KT 10SM CLR 26/08 A3000 -40 32 1300 100/05 RMK AO2 T02610083
53915KARA ARA20161116153510311/16/16 15:35:31  5-MIN KARA 162135Z 15004KT 10SM CLR 26/09 A3000 -40 33 1300 150/04 RMK AO2 T02610089
53915KARA ARA20161116154010311/16/16 15:40:31  5-MIN KARA 162140Z 12005KT 10SM CLR 26/09 A3000 -40 33 1300 120/05 RMK AO2 T02610089
53915KARA ARA20161116154510311/16/16 15:45:31  5-MIN KARA 162145Z 13005KT 10SM CLR 26/08 A3000 -40 32 1300 130/05 RMK AO2 T02610083
53915KARA ARA20161116155011011/16/16 15:50:31  5-MIN KARA 162150Z 11005KT 10SM CLR 26/08 A3000 -40 32 1300 100/05 RMK AO2 SLP158 T02610083
53915KARA ARA20161116155510311/16/16 15:55:31  5-MIN KARA 162155Z 12005KT 10SM CLR 26/08 A3000 -40 32 1300 120/05 RMK AO2 T02610083
53915KARA ARA20161116160010311/16/16 16:00:31  5-MIN KARA 162200Z 15005KT 10SM CLR 26/09 A3000 -40 33 1300 150/05 RMK AO2 T02610089
53915KARA ARA20161116160510311/16/16 16:05:31  5-MIN KARA 162205Z 14006KT 10SM CLR 26/09 A3000 -40 34 1200 140/06 RMK AO2 T02560089
53915KARA ARA20161116161010311/16/16 16:10:31  5-MIN KARA 162210Z 14005KT 10SM CLR 26/08 A3000 -40 33 1200 140/05 RMK AO2 T02560083
53915KARA ARA20161116161510311/16/16 16:15:31  5-MIN KARA 162215Z 13006KT 10SM CLR 26/09 A3000 -40 34 1200 130/06 RMK AO2 T02560089
53915KARA ARA20161116162010311/16/16 16:20:31  5-MIN KARA 162220Z 19005KT 10SM CLR 25/09 A3000 -40 37 1100 190/05 RMK AO2 T02500094
53915KARA ARA20161116162510311/16/16 16:25:31  5-MIN KARA 162225Z 20005KT 10SM CLR 24/11 A3000 -40 44 1000 200/05 RMK AO2 T02390111
53915KARA ARA20161116163010311/16/16 16:30:31  5-MIN KARA 162230Z 20005KT 10SM CLR 24/11 A3000 -40 44 1000 200/05 RMK AO2 T02390111
53915KARA ARA20161116163510311/16/16 16:35:31  5-MIN KARA 162235Z 21005KT 10SM CLR 23/11 A3000 -40 45 1000 210/05 RMK AO2 T02330111
53915KARA ARA20161116164010211/16/16 16:40:31  5-MIN KARA 162240Z 21006KT 10SM CLR 23/11 A3000 -40 45 900 210/06 RMK AO2 T02280106
53915KARA ARA20161116164510211/16/16 16:45:31  5-MIN KARA 162245Z 21004KT 10SM CLR 23/11 A3000 -40 45 900 210/04 RMK AO2 T02280106
53915KARA ARA20161116165010911/16/16 16:50:31  5-MIN KARA 162250Z 22004KT 10SM CLR 22/11 A3000 -50 47 800 220/04 RMK AO2 SLP159 T02220106
53915KARA ARA20161116165510211/16/16 16:55:31  5-MIN KARA 162255Z 22005KT 10SM CLR 22/11 A3000 -50 49 800 220/05 RMK AO2 T02170106
53915KARA ARA20161116170010211/16/16 17:00:31  5-MIN KARA 162300Z 21004KT 10SM CLR 21/11 A3000 -50 50 700 210/04 RMK AO2 T02110106
53915KARA ARA20161116170510211/16/16 17:05:31  5-MIN KARA 162305Z 22004KT 10SM CLR 21/11 A3000 -40 50 700 220/04 RMK AO2 T02110106
53915KARA ARA20161116171010211/16/16 17:10:31  5-MIN KARA 162310Z 22004KT 10SM CLR 21/11 A3000 -40 52 600 220/04 RMK AO2 T02060106
53915KARA ARA20161116171510211/16/16 17:15:31  5-MIN KARA 162315Z 21004KT 10SM CLR 21/11 A3000 -40 52 600 210/04 RMK AO2 T02060106
53915KARA ARA20161116172010211/16/16 17:20:31  5-MIN KARA 162320Z 21003KT 10SM CLR 20/11 A3000 -40 54 600 210/03 RMK AO2 T02000106
53915KARA ARA20161116172510211/16/16 17:25:31  5-MIN KARA 162325Z 22003KT 10SM CLR 19/11 A3000 -40 58 500 220/03 RMK AO2 T01940111
53915KARA ARA20161116173010211/16/16 17:30:31  5-MIN KARA 162330Z 21003KT 10SM CLR 19/11 A3000 -50 58 500 210/03 RMK AO2 T01940111
53915KARA ARA20161116173510211/16/16 17:35:31  5-MIN KARA 162335Z 20003KT 10SM CLR 18/11 A3001 -50 62 400 200/03 RMK AO2 T01830111
53915KARA ARA20161116174010211/16/16 17:40:31  5-MIN KARA 162340Z 19004KT 10SM CLR 18/11 A3001 -50 62 400 190/04 RMK AO2 T01830111
53915KARA ARA20161116174510211/16/16 17:45:31  5-MIN KARA 162345Z 19004KT 10SM CLR 18/11 A3001 -50 62 400 190/04 RMK AO2 T01830111
53915KARA ARA20161116175012711/16/16 17:50:31  5-MIN KARA 162350Z 19004KT 10SM CLR 18/11 A3001 -50 62 300 180/04 RMK AO2 SLP160 T01780106 10272 20178 56018
53915KARA ARA20161116175510211/16/16 17:55:31  5-MIN KARA 162355Z 19004KT 10SM CLR 18/11 A3001 -50 64 300 190/04 RMK AO2 T01780111
53915KARA ARA20161116180010211/16/16 18:00:31  5-MIN KARA 170000Z 18003KT 10SM CLR 18/11 A3001 -50 62 300 180/03 RMK AO2 T01780106
53915KARA ARA20161116180510211/16/16 18:05:31  5-MIN KARA 170005Z 00000KT 10SM CLR 18/10 A3001 -50 60 300 000/00 RMK AO2 T01780100
53915KARA ARA20161116181010211/16/16 18:10:31  5-MIN KARA 170010Z 00000KT 10SM CLR 17/10 A3001 -50 62 200 000/00 RMK AO2 T01720100
53915KARA ARA20161117151510311/17/16 15:15:31  5-MIN KARA 172115Z 16012KT 10SM CLR 26/16 A3001 -50 53 1200 160/12 RMK AO2 T02560156
53915KARA ARA20161117152010311/17/16 15:20:31  5-MIN KARA 172120Z 16013KT 10SM CLR 26/16 A3001 -50 53 1200 160/13 RMK AO2 T02560156
53915KARA ARA20161117152510311/17/16 15:25:31  5-MIN KARA 172125Z 16014KT 10SM CLR 26/16 A3000 -50 53 1200 160/14 RMK AO2 T02560156
53915KARA ARA20161117153010311/17/16 15:30:31  5-MIN KARA 172130Z 16012KT 10SM CLR 26/16 A3001 -50 53 1200 160/12 RMK AO2 T02560156
53915KARA ARA20161117153510311/17/16 15:35:31  5-MIN KARA 172135Z 16013KT 10SM CLR 26/16 A3000 -50 53 1200 160/13 RMK AO2 T02560156
53915KARA ARA20161117154010311/17/16 15:40:31  5-MIN KARA 172140Z 16013KT 10SM CLR 25/16 A3000 -50 55 1100 160/13 RMK AO2 T02500156
53915KARA ARA20161117154510311/17/16 15:45:31  5-MIN KARA 172145Z 16014KT 10SM CLR 25/16 A3000 -50 55 1100 160/14 RMK AO2 T02500156
53915KARA ARA20161117155011611/17/16 15:50:31  5-MIN KARA 172150Z 17011G18KT 10SM CLR 25/16 A3000 -50 55 1100 170/11G18 RMK AO2 SLP159 T02500156
53915KARA ARA20161117155510311/17/16 15:55:31  5-MIN KARA 172155Z 17009KT 10SM CLR 25/16 A3000 -50 55 1100 170/09 RMK AO2 T02500156
53915KARA ARA20161117160010311/17/16 16:00:31  5-MIN KARA 172200Z 16013KT 10SM CLR 25/16 A3000 -50 55 1100 160/13 RMK AO2 T02500156
53915KARA ARA20161117160510311/17/16 16:05:31  5-MIN KARA 172205Z 17012KT 10SM CLR 24/16 A3000 -50 57 1100 170/12 RMK AO2 T02440156
53915KARA ARA20161117161010311/17/16 16:10:31  5-MIN KARA 172210Z 16012KT 10SM CLR 24/15 A3001 -50 55 1100 150/12 RMK AO2 T02440150
53915KARA ARA20161117161510311/17/16 16:15:31  5-MIN KARA 172215Z 16012KT 10SM CLR 24/15 A3000 -50 55 1100 160/12 RMK AO2 T02440150
53915KARA ARA20161117162010311/17/16 16:20:31  5-MIN KARA 172220Z 16011KT 10SM CLR 24/15 A3001 -50 55 1100 150/11 RMK AO2 T02440150
53915KARA ARA20161117162510311/17/16 16:25:31  5-MIN KARA 172225Z 16013KT 10SM CLR 24/15 A3001 -50 57 1000 160/13 RMK AO2 T02390150
53915KARA ARA20161117163010311/17/16 16:30:31  5-MIN KARA 172230Z 15010KT 10SM CLR 24/15 A3001 -50 57 1000 150/10 RMK AO2 T02390150
53915KARA ARA20161117163510311/17/16 16:35:31  5-MIN KARA 172235Z 16012KT 10SM CLR 24/15 A3001 -50 57 1000 160/12 RMK AO2 T02390150
53915KARA ARA20161117164010211/17/16 16:40:31  5-MIN KARA 172240Z 16014KT 10SM CLR 23/15 A3001 -50 59 900 160/14 RMK AO2 T02330150
53915KARA ARA20161117164510211/17/16 16:45:31  5-MIN KARA 172245Z 16011KT 10SM CLR 23/14 A3001 -50 57 900 160/11 RMK AO2 T02330144
53915KARA ARA20161117165010911/17/16 16:50:31  5-MIN KARA 172250Z 15010KT 10SM CLR 23/14 A3001 -50 57 900 150/10 RMK AO2 SLP161 T02330144
53915KARA ARA20161117165510111/17/16 16:55:31  5-MIN KARA 172255Z 16010KT 7SM CLR 23/14 A3001 -50 59 900 160/10 RMK AO2 T02280144
53915KARA ARA20161117170010411/17/16 17:00:31  5-MIN KARA 172300Z 16008KT 4SM HZ CLR 23/14 A3001 -60 59 900 160/08 RMK AO2 T02280144
53915KARA ARA20161117170510411/17/16 17:05:31  5-MIN KARA 172305Z 16008KT 4SM HZ CLR 22/14 A3002 -60 61 800 160/08 RMK AO2 T02220144
53915KARA ARA20161117171010411/17/16 17:10:31  5-MIN KARA 172310Z 16008KT 6SM HZ CLR 22/14 A3002 -60 61 800 160/08 RMK AO2 T02220144
53915KARA ARA20161117171510111/17/16 17:15:31  5-MIN KARA 172315Z 17007KT 9SM CLR 22/14 A3002 -60 61 800 170/07 RMK AO2 T02220144
53915KARA ARA20161117172010211/17/16 17:20:31  5-MIN KARA 172320Z 16007KT 10SM CLR 22/14 A3002 -60 63 700 160/07 RMK AO2 T02170144
53915KARA ARA20161117172510211/17/16 17:25:31  5-MIN KARA 172325Z 16007KT 10SM CLR 22/14 A3002 -60 63 700 160/07 RMK AO2 T02170144
53915KARA ARA20161117173010211/17/16 17:30:31  5-MIN KARA 172330Z 16006KT 10SM CLR 22/14 A3002 -60 63 700 160/06 RMK AO2 T02170144
53915KARA ARA20161117173510211/17/16 17:35:31  5-MIN KARA 172335Z 16006KT 10SM CLR 21/14 A3002 -60 67 600 160/06 RMK AO2 T02060144
53915KARA ARA20161117174010211/17/16 17:40:31  5-MIN KARA 172340Z 16007KT 10SM CLR 21/14 A3002 -60 67 600 160/07 RMK AO2 T02060144
53915KARA ARA20161117174510211/17/16 17:45:31  5-MIN KARA 172345Z 16007KT 10SM CLR 21/14 A3002 -60 67 600 160/07 RMK AO2 T02060144
53915KARA ARA20161117175012711/17/16 17:50:31  5-MIN KARA 172350Z 15007KT 10SM CLR 20/14 A3002 -60 70 500 150/07 RMK AO2 SLP166 T02000144 10272 20200 56014
53915KARA ARA20161117175510111/17/16 17:55:31  5-MIN KARA 172355Z 15008KT 8SM CLR 20/14 A3003 -70 70 500 150/08 RMK AO2 T02000144
53915KARA ARA20161117180010111/17/16 18:00:31  5-MIN KARA 180000Z 15008KT 7SM CLR 20/14 A3003 -70 70 500 150/08 RMK AO2 T02000144
53915KARA ARA20161117180510111/17/16 18:05:31  5-MIN KARA 180005Z 14007KT 9SM CLR 20/14 A3003 -70 70 500 140/07 RMK AO2 T02000144
53915KARA ARA20161117181010211/17/16 18:10:31  5-MIN KARA 180010Z 14007KT 10SM CLR 19/14 A3003 -70 72 500 140/07 RMK AO2 T01940144
53915KARA ARA20161117181510211/17/16 18:15:31  5-MIN KARA 180015Z 14006KT 10SM CLR 19/14 A3003 -70 72 500 140/06 RMK AO2 T01940144
53915KARA ARA20161117182010211/17/16 18:20:31  5-MIN KARA 180020Z 15005KT 10SM CLR 19/14 A3003 -70 75 400 150/05 RMK AO2 T01890144
53915KARA ARA20161117182510211/17/16 18:25:31  5-MIN KARA 180025Z 13005KT 10SM CLR 18/14 A3003 -70 75 300 130/05 RMK AO2 T01830139
53915KARA ARA20161117183010211/17/16 18:30:31  5-MIN KARA 180030Z 13006KT 10SM CLR 18/14 A3003 -70 75 300 120/06 RMK AO2 T01830139
53915KARA ARA20161117183510211/17/16 18:35:31  5-MIN KARA 180035Z 13006KT 10SM CLR 18/14 A3003 -70 78 300 130/06 RMK AO2 T01830144
53915KARA ARA20161117184010211/17/16 18:40:31  5-MIN KARA 180040Z 13006KT 10SM CLR 18/14 A3003 -70 78 300 130/06 RMK AO2 T01830144
53915KARA ARA20161117184510211/17/16 18:45:31  5-MIN KARA 180045Z 14007KT 10SM CLR 18/14 A3003 -70 78 300 140/07 RMK AO2 T01780139
53915KARA ARA20161117185010911/17/16 18:50:31  5-MIN KARA 180050Z 14006KT 10SM CLR 18/14 A3004 -80 78 300 140/06 RMK AO2 SLP170 T01780139
53915KARA ARA20161117185510211/17/16 18:55:31  5-MIN KARA 180055Z 14006KT 10SM CLR 18/14 A3004 -80 78 300 140/06 RMK AO2 T01780139
53915KARA ARA20161117190010211/17/16 19:00:31  5-MIN KARA 180100Z 14006KT 10SM CLR 17/14 A3004 -80 80 200 130/06 RMK AO2 T01720139
53915KARA ARA20161117190510211/17/16 19:05:31  5-MIN KARA 180105Z 14007KT 10SM CLR 17/14 A3004 -80 80 200 140/07 RMK AO2 T01720139
53915KARA ARA20161117191010211/17/16 19:10:31  5-MIN KARA 180110Z 13007KT 10SM CLR 17/14 A3004 -80 80 200 130/07 RMK AO2 T01720139
53915KARA ARA20161117191510211/17/16 19:15:31  5-MIN KARA 180115Z 13007KT 10SM CLR 18/14 A3004 -80 78 300 130/07 RMK AO2 T01780139
53915KARA ARA20161117192010211/17/16 19:20:31  5-MIN KARA 180120Z 14008KT 10SM CLR 18/14 A3004 -80 81 300 140/08 RMK AO2 T01780144
53915KARA ARA20161117192510211/17/16 19:25:31  5-MIN KARA 180125Z 14007KT 10SM CLR 18/14 A3004 -80 81 300 140/07 RMK AO2 T01780144
53915KARA ARA20161117193010211/17/16 19:30:31  5-MIN KARA 180130Z 14007KT 10SM CLR 18/14 A3004 -80 81 300 140/07 RMK AO2 T01780144
53915KARA ARA20161117193510211/17/16 19:35:31  5-MIN KARA 180135Z 14007KT 10SM CLR 17/14 A3004 -80 80 200 140/07 RMK AO2 T01720139
53915KARA ARA20161117194010211/17/16 19:40:31  5-MIN KARA 180140Z 14006KT 10SM CLR 17/14 A3004 -80 80 200 140/06 RMK AO2 T01720139
53915KARA ARA20161117194510211/17/16 19:45:31  5-MIN KARA 180145Z 15005KT 10SM CLR 17/14 A3004 -80 83 100 150/05 RMK AO2 T01670139
53915KARA ARA20161117195010911/17/16 19:50:31  5-MIN KARA 180150Z 15006KT 10SM CLR 17/14 A3005 -80 83 100 150/06 RMK AO2 SLP173 T01670139
53915KARA ARA20161117195510211/17/16 19:55:31  5-MIN KARA 180155Z 15006KT 10SM CLR 17/14 A3005 -90 83 100 150/06 RMK AO2 T01670139
53915KARA ARA20161117200010211/17/16 20:00:31  5-MIN KARA 180200Z 14006KT 10SM CLR 17/14 A3005 -90 83 100 140/06 RMK AO2 T01670139
53915KARA ARA20161117200510211/17/16 20:05:31  5-MIN KARA 180205Z 14005KT 10SM CLR 17/13 A3005 -90 80 100 140/05 RMK AO2 T01670133
53915KARA ARA20161117201010211/17/16 20:10:31  5-MIN KARA 180210Z 14005KT 10SM CLR 16/13 A3005 -90 83 100 140/05 RMK AO2 T01610133
53915KARA ARA20161117201510111/17/16 20:15:31  5-MIN KARA 180215Z 15006KT 9SM CLR 16/14 A3005 -90 86 100 140/06 RMK AO2 T01610139
53915KARA ARA20161117202010111/17/16 20:20:31  5-MIN KARA 180220Z 15006KT 7SM CLR 17/14 A3005 -90 83 100 140/06 RMK AO2 T01670139
53915KARA ARA20161117202510911/17/16 20:25:31  5-MIN KARA 180225Z AUTO 14007KT 6SM BR CLR 17/14 A3005 -90 86 100 140/07 RMK AO2 T01670144
53915KARA ARA20161117203010911/17/16 20:30:31  5-MIN KARA 180230Z AUTO 15006KT 5SM BR CLR 17/14 A3005 -90 86 100 140/06 RMK AO2 T01670144
53915KARA ARA20161117203510911/17/16 20:35:31  5-MIN KARA 180235Z AUTO 14006KT 5SM BR CLR 17/14 A3006 -90 86 100 140/06 RMK AO2 T01670144
53915KARA ARA20161117204010711/17/16 20:40:31  5-MIN KARA 180240Z AUTO 14006KT 5SM BR CLR 16/14 A3006 -90 86 0 140/06 RMK AO2 T01610139
53915KARA ARA20161117204510811/17/16 20:45:31  5-MIN KARA 180245Z AUTO 14007KT 4SM BR CLR 16/14 A3006 -100 86 0 140/07 RMK AO2 T01610139
53915KARA ARA20161117205012011/17/16 20:50:31  5-MIN KARA 180250Z AUTO 14007KT 4SM BR CLR 16/14 A3006 -90 86 0 140/07 RMK AO2 SLP177 T01610139 53006
53915KARA ARA20161117205510911/17/16 20:55:31  5-MIN KARA 180255Z AUTO 14007KT 4SM BR CLR 16/14 A3005 -90 86 100 140/07 RMK AO2 T01610139
53915KARA ARA20161117210010911/17/16 21:00:31  5-MIN KARA 180300Z AUTO 14006KT 4SM BR CLR 16/14 A3005 -90 86 100 140/06 RMK AO2 T01610139
53915KARA ARA20161117210510911/17/16 21:05:31  5-MIN KARA 180305Z AUTO 14007KT 4SM BR CLR 16/14 A3005 -90 86 100 140/07 RMK AO2 T01610139
53915KARA ARA20161117211010911/17/16 21:10:31  5-MIN KARA 180310Z AUTO 14006KT 5SM BR CLR 16/14 A3005 -90 86 100 140/06 RMK AO2 T01610139
53915KARA ARA20161117211510911/17/16 21:15:31  5-MIN KARA 180315Z AUTO 14007KT 5SM BR CLR 16/14 A3005 -90 86 100 140/07 RMK AO2 T01610139
53915KARA ARA20161117212010911/17/16 21:20:31  5-MIN KARA 180320Z AUTO 14007KT 5SM BR CLR 16/14 A3005 -90 86 100 140/07 RMK AO2 T01610139
53915KARA ARA20161117212510911/17/16 21:25:31  5-MIN KARA 180325Z AUTO 14007KT 6SM BR CLR 16/14 A3005 -90 86 100 140/07 RMK AO2 T01610139
53915KARA ARA20161117213010911/17/16 21:30:31  5-MIN KARA 180330Z AUTO 14007KT 6SM BR CLR 16/14 A3005 -90 86 100 130/07 RMK AO2 T01610139
53915KARA ARA20161117213510611/17/16 21:35:31  5-MIN KARA 180335Z AUTO 14007KT 7SM CLR 17/14 A3005 -90 86 100 140/07 RMK AO2 T01670144
53915KARA ARA20161117214010611/17/16 21:40:31  5-MIN KARA 180340Z AUTO 14007KT 8SM CLR 17/14 A3005 -90 86 100 140/07 RMK AO2 T01670144
53915KARA ARA20161117214510611/17/16 21:45:31  5-MIN KARA 180345Z AUTO 14007KT 8SM CLR 17/14 A3006 -90 86 100 140/07 RMK AO2 T01670144
53915KARA ARA20161117215011311/17/16 21:50:31  5-MIN KARA 180350Z AUTO 14007KT 8SM CLR 17/14 A3006 -90 86 100 140/07 RMK AO2 SLP177 T01670144
53915KARA ARA20161117215510711/17/16 21:55:31  5-MIN KARA 180355Z AUTO 14006KT 8SM CLR 17/14 A3006 -100 86 100 140/06 RMK AO2 T01670144
53915KARA ARA20161117220010711/17/16 22:00:31  5-MIN KARA 180400Z AUTO 14006KT 8SM CLR 17/14 A3006 -100 86 100 140/06 RMK AO2 T01670144
53915KARA ARA20161117220510511/17/16 22:05:31  5-MIN KARA 180405Z AUTO 14007KT 8SM CLR 16/14 A3006 -100 90 0 140/07 RMK AO2 T01610144
53915KARA ARA20161117221010511/17/16 22:10:31  5-MIN KARA 180410Z AUTO 14007KT 7SM CLR 16/14 A3006 -100 86 0 140/07 RMK AO2 T01610139
53915KARA ARA20161117221510511/17/16 22:15:31  5-MIN KARA 180415Z AUTO 14007KT 7SM CLR 16/14 A3006 -100 86 0 140/07 RMK AO2 T01610139
53915KARA ARA20161117222010511/17/16 22:20:31  5-MIN KARA 180420Z AUTO 14007KT 7SM CLR 16/14 A3006 -100 90 0 130/07 RMK AO2 T01560139
53915KARA ARA20161117222510511/17/16 22:25:31  5-MIN KARA 180425Z AUTO 14006KT 7SM CLR 16/14 A3006 -100 90 0 130/06 RMK AO2 T01560139
53915KARA ARA20161117223010511/17/16 22:30:31  5-MIN KARA 180430Z AUTO 14006KT 7SM CLR 16/14 A3006 -100 90 0 140/06 RMK AO2 T01560139
53915KARA ARA20161117223510511/17/16 22:35:31  5-MIN KARA 180435Z AUTO 14006KT 7SM CLR 16/13 A3006 -100 86 0 130/06 RMK AO2 T01560133
53915KARA ARA20161117224010511/17/16 22:40:31  5-MIN KARA 180440Z AUTO 14006KT 7SM CLR 15/13 A3006 -100 90 0 140/06 RMK AO2 T01500133
53915KARA ARA20161117224510811/17/16 22:45:31  5-MIN KARA 180445Z AUTO 14007KT 6SM BR CLR 15/13 A3006 -100 90 0 140/07 RMK AO2 T01500133
53915KARA ARA20161117225011511/17/16 22:50:31  5-MIN KARA 180450Z AUTO 13007KT 6SM BR CLR 16/13 A3006 -100 86 0 130/07 RMK AO2 SLP179 T01560133
53915KARA ARA20161117225510811/17/16 22:55:31  5-MIN KARA 180455Z AUTO 13006KT 6SM BR CLR 16/14 A3006 -100 90 0 130/06 RMK AO2 T01560139
53915KARA ARA20161117230010811/17/16 23:00:31  5-MIN KARA 180500Z AUTO 13006KT 6SM BR CLR 16/14 A3006 -100 90 0 130/06 RMK AO2 T01560139
53915KARA ARA20161117230510511/17/16 23:05:31  5-MIN KARA 180505Z AUTO 13005KT 7SM CLR 16/14 A3006 -100 90 0 130/05 RMK AO2 T01560139
53915KARA ARA20161117231010811/17/16 23:10:31  5-MIN KARA 180510Z AUTO 13005KT 6SM BR CLR 15/13 A3006 -100 90 0 130/05 RMK AO2 T01500133
53915KARA ARA20161117231510811/17/16 23:15:31  5-MIN KARA 180515Z AUTO 14005KT 6SM BR CLR 15/13 A3006 -100 90 0 140/05 RMK AO2 T01500133
53915KARA ARA20161117232010811/17/16 23:20:31  5-MIN KARA 180520Z AUTO 14005KT 6SM BR CLR 15/13 A3006 -100 90 0 140/05 RMK AO2 T01500133
53915KARA ARA20161117232510811/17/16 23:25:31  5-MIN KARA 180525Z AUTO 14004KT 5SM BR CLR 15/13 A3007 -100 90 0 140/04 RMK AO2 T01500133
53915KARA ARA20161117233010811/17/16 23:30:31  5-MIN KARA 180530Z AUTO 15004KT 5SM BR CLR 15/13 A3007 -110 90 0 150/04 RMK AO2 T01500133
53915KARA ARA20161117233510811/17/16 23:35:31  5-MIN KARA 180535Z AUTO 14005KT 5SM BR CLR 16/14 A3007 -110 90 0 140/05 RMK AO2 T01560139
53915KARA ARA20161117234010811/17/16 23:40:31  5-MIN KARA 180540Z AUTO 14006KT 5SM BR CLR 15/13 A3006 -100 90 0 140/06 RMK AO2 T01500133
53915KARA ARA20161117234511111/17/16 23:45:31  5-MIN KARA 180545Z AUTO 13006KT 5SM BR CLR 14/13 A3006 -100 93 -200 130/06 RMK AO2 T01390128
53915KARA ARA20161117235014611/17/16 23:50:31  5-MIN KARA 180550Z AUTO 13005KT 5SM BR CLR 14/13 A3006 -100 90 -100 130/05 RMK AO2 SLP180 T01440128 10200 20139 402720089 51010
53915KARA ARA20161117235511111/17/16 23:55:31  5-MIN KARA 180555Z AUTO 13005KT 6SM BR CLR 14/13 A3006 -100 90 -100 130/05 RMK AO2 T01440128
53915KARA ARA20161118000011111/18/16 00:00:31  5-MIN KARA 180600Z AUTO 13005KT 6SM BR CLR 14/13 A3006 -100 90 -100 130/05 RMK AO2 T01440128
53915KARA ARA20161118000510811/18/16 00:05:31  5-MIN KARA 180605Z AUTO 13005KT 7SM CLR 14/13 A3006 -100 90 -100 130/05 RMK AO2 T01440128
53915KARA ARA20161118001010811/18/16 00:10:31  5-MIN KARA 180610Z AUTO 12006KT 7SM CLR 14/13 A3006 -100 90 -100 120/06 RMK AO2 T01440128
53915KARA ARA20161118001510811/18/16 00:15:31  5-MIN KARA 180615Z AUTO 13006KT 7SM CLR 14/13 A3006 -100 93 -200 120/06 RMK AO2 T01390128
53915KARA ARA20161118002010811/18/16 00:20:31  5-MIN KARA 180620Z AUTO 13005KT 7SM CLR 14/12 A3006 -100 90 -200 120/05 RMK AO2 T01390122
53915KARA ARA20161118002511111/18/16 00:25:31  5-MIN KARA 180625Z AUTO 13005KT 6SM BR CLR 14/13 A3006 -100 93 -200 130/05 RMK AO2 T01390128
53915KARA ARA20161118003011111/18/16 00:30:31  5-MIN KARA 180630Z AUTO 13004KT 6SM BR CLR 14/13 A3006 -100 93 -200 130/04 RMK AO2 T01390128
53915KARA ARA20161118003511111/18/16 00:35:31  5-MIN KARA 180635Z AUTO 14004KT 6SM BR CLR 14/13 A3006 -100 90 -100 130/04 RMK AO2 T01440128
53915KARA ARA20161118004011111/18/16 00:40:31  5-MIN KARA 180640Z AUTO 14004KT 5SM BR CLR 14/13 A3007 -100 90 -100 140/04 RMK AO2 T01440128
53915KARA ARA20161118004511111/18/16 00:45:31  5-MIN KARA 180645Z AUTO 13004KT 5SM BR CLR 14/13 A3007 -100 93 -100 130/04 RMK AO2 T01440133
53915KARA ARA20161118005011811/18/16 00:50:31  5-MIN KARA 180650Z AUTO 13004KT 6SM BR CLR 14/13 A3007 -100 90 -100 130/04 RMK AO2 SLP180 T01440128
53915KARA ARA20161118005511111/18/16 00:55:31  5-MIN KARA 180655Z AUTO 13004KT 5SM BR CLR 14/13 A3007 -100 90 -100 130/04 RMK AO2 T01440128
53915KARA ARA20161118010011111/18/16 01:00:31  5-MIN KARA 180700Z AUTO 13005KT 5SM BR CLR 14/13 A3007 -110 90 -100 130/05 RMK AO2 T01440128
53915KARA ARA20161118010511111/18/16 01:05:31  5-MIN KARA 180705Z AUTO 13005KT 5SM BR CLR 14/13 A3007 -110 93 -200 130/05 RMK AO2 T01390128
53915KARA ARA20161118011011111/18/16 01:10:31  5-MIN KARA 180710Z AUTO 13005KT 6SM BR CLR 14/12 A3007 -110 90 -200 130/05 RMK AO2 T01390122
53915KARA ARA20161118011511111/18/16 01:15:31  5-MIN KARA 180715Z AUTO 13006KT 6SM BR CLR 13/12 A3007 -110 93 -200 130/06 RMK AO2 T01330122
53915KARA ARA20161118012011111/18/16 01:20:31  5-MIN KARA 180720Z AUTO 12007KT 6SM BR CLR 13/12 A3007 -110 93 -200 120/07 RMK AO2 T01330122
53915KARA ARA20161118012511111/18/16 01:25:31  5-MIN KARA 180725Z AUTO 12006KT 6SM BR CLR 14/13 A3007 -110 93 -100 120/06 RMK AO2 T01440133
53915KARA ARA20161118013011111/18/16 01:30:31  5-MIN KARA 180730Z AUTO 12005KT 6SM BR CLR 14/13 A3007 -110 93 -100 120/05 RMK AO2 T01440133
53915KARA ARA20161118013511111/18/16 01:35:31  5-MIN KARA 180735Z AUTO 13004KT 6SM BR CLR 14/13 A3007 -110 93 -200 130/04 RMK AO2 T01390128
53915KARA ARA20161118014011111/18/16 01:40:31  5-MIN KARA 180740Z AUTO 13004KT 5SM BR CLR 14/13 A3007 -110 93 -100 130/04 RMK AO2 T01440133
53915KARA ARA20161118014511111/18/16 01:45:31  5-MIN KARA 180745Z AUTO 13005KT 5SM BR CLR 14/13 A3007 -110 93 -100 130/05 RMK AO2 T01440133
53915KARA ARA20161118015011811/18/16 01:50:31  5-MIN KARA 180750Z AUTO 13005KT 4SM BR CLR 14/13 A3007 -100 93 -100 130/05 RMK AO2 SLP180 T01440133
53915KARA ARA20161118015511111/18/16 01:55:31  5-MIN KARA 180755Z AUTO 14004KT 3SM BR CLR 14/13 A3007 -100 93 -100 140/04 RMK AO2 T01440133
53915KARA ARA20161118020011111/18/16 02:00:31  5-MIN KARA 180800Z AUTO 14004KT 3SM BR CLR 14/13 A3007 -100 90 -100 130/04 RMK AO2 T01440128
53915KARA ARA20161118020511111/18/16 02:05:31  5-MIN KARA 180805Z AUTO 14004KT 3SM BR CLR 14/13 A3007 -110 93 -100 130/04 RMK AO2 T01440133
53915KARA ARA20161118021011411/18/16 02:10:31  5-MIN KARA 180810Z AUTO 13004KT 4SM BR FEW036 14/13 A3007 -110 93 -100 130/04 RMK AO2 T01440133
53915KARA ARA20161118021511411/18/16 02:15:31  5-MIN KARA 180815Z AUTO 13004KT 4SM BR FEW036 14/13 A3007 -110 93 -100 130/04 RMK AO2 T01440133
53915KARA ARA20161118022011411/18/16 02:20:31  5-MIN KARA 180820Z AUTO 13004KT 4SM BR SCT036 14/13 A3007 -110 93 -100 130/04 RMK AO2 T01440133
53915KARA ARA20161118022511411/18/16 02:25:31  5-MIN KARA 180825Z AUTO 13004KT 4SM BR SCT036 14/13 A3007 -110 93 -100 130/04 RMK AO2 T01440133
53915KARA ARA20161118023011411/18/16 02:30:31  5-MIN KARA 180830Z AUTO 12004KT 5SM BR SCT037 14/13 A3007 -110 93 -100 120/04 RMK AO2 T01440133
53915KARA ARA20161118023511411/18/16 02:35:31  5-MIN KARA 180835Z AUTO 12004KT 5SM BR SCT037 14/13 A3007 -110 93 -100 120/04 RMK AO2 T01440133
53915KARA ARA20161118024011411/18/16 02:40:31  5-MIN KARA 180840Z AUTO 12003KT 5SM BR FEW037 14/13 A3007 -110 93 -100 120/03 RMK AO2 T01440133
53915KARA ARA20161118024511411/18/16 02:45:31  5-MIN KARA 180845Z AUTO 12004KT 5SM BR FEW037 14/13 A3007 -110 93 -100 120/04 RMK AO2 T01440133
53915KARA ARA20161118025012411/18/16 02:50:31  5-MIN KARA 180850Z AUTO 12005KT 4SM BR CLR 14/13 A3007 -110 93 -100 120/05 RMK AO2 SLP182 T01440133 51003
53915KARA ARA20161118025511111/18/16 02:55:31  5-MIN KARA 180855Z AUTO 12006KT 5SM BR CLR 14/13 A3007 -110 90 -100 120/06 RMK AO2 T01440128
53915KARA ARA20161118030010811/18/16 03:00:31  5-MIN KARA 180900Z AUTO 12005KT 6SM BR CLR 16/14 A3007 -110 90 0 120/05 RMK AO2 T01560139
53915KARA ARA20161118030510811/18/16 03:05:31  5-MIN KARA 180905Z AUTO 12005KT 6SM BR CLR 16/14 A3007 -110 90 0 120/05 RMK AO2 T01560139
53915KARA ARA20161118031010811/18/16 03:10:31  5-MIN KARA 180910Z AUTO 12006KT 6SM BR CLR 16/14 A3007 -100 90 0 120/06 RMK AO2 T01560139
53915KARA ARA20161118031510511/18/16 03:15:31  5-MIN KARA 180915Z AUTO 12006KT 7SM CLR 16/14 A3006 -100 90 0 120/06 RMK AO2 T01560139
53915KARA ARA20161118032010511/18/16 03:20:31  5-MIN KARA 180920Z AUTO 12005KT 7SM CLR 16/14 A3006 -100 90 0 110/05 RMK AO2 T01610144
53915KARA ARA20161118032510511/18/16 03:25:31  5-MIN KARA 180925Z AUTO 12005KT 7SM CLR 16/14 A3006 -100 90 0 120/05 RMK AO2 T01610144
53915KARA ARA20161118033010511/18/16 03:30:31  5-MIN KARA 180930Z AUTO 12005KT 7SM CLR 16/14 A3006 -100 90 0 120/05 RMK AO2 T01610144
53915KARA ARA20161118033510511/18/16 03:35:31  5-MIN KARA 180935Z AUTO 12003KT 7SM CLR 16/14 A3007 -100 93 0 120/03 RMK AO2 T01560144
53915KARA ARA20161118034010811/18/16 03:40:31  5-MIN KARA 180940Z AUTO 13003KT 6SM BR CLR 16/14 A3006 -100 93 0 130/03 RMK AO2 T01560144
53915KARA ARA20161118034510811/18/16 03:45:31  5-MIN KARA 180945Z AUTO 13003KT 6SM BR CLR 16/14 A3006 -100 93 0 130/03 RMK AO2 T01560144
53915KARA ARA20161118035011511/18/16 03:50:31  5-MIN KARA 180950Z AUTO 12003KT 5SM BR CLR 16/14 A3006 -100 93 0 120/03 RMK AO2 SLP180 T01560144
53915KARA ARA20161118035510811/18/16 03:55:31  5-MIN KARA 180955Z AUTO 00000KT 5SM BR CLR 16/14 A3006 -100 90 0 000/00 RMK AO2 T01560139
53915KARA ARA20161118040010811/18/16 04:00:31  5-MIN KARA 181000Z AUTO 12003KT 4SM BR CLR 16/14 A3006 -100 90 0 120/03 RMK AO2 T01560139
53915KARA ARA20161118040510811/18/16 04:05:31  5-MIN KARA 181005Z AUTO 12003KT 5SM BR CLR 16/14 A3006 -100 90 0 120/03 RMK AO2 T01560139
53915KARA ARA20161118041010811/18/16 04:10:31  5-MIN KARA 181010Z AUTO 12003KT 5SM BR CLR 16/14 A3007 -100 90 0 120/03 RMK AO2 T01560139
53915KARA ARA20161118041510811/18/16 04:15:31  5-MIN KARA 181015Z AUTO 12003KT 4SM BR CLR 16/14 A3007 -100 90 0 120/03 RMK AO2 T01560139
53915KARA ARA20161118042010811/18/16 04:20:31  5-MIN KARA 181020Z AUTO 12003KT 4SM BR CLR 16/14 A3007 -100 90 0 120/03 RMK AO2 T01560139
53915KARA ARA20161118042510811/18/16 04:25:31  5-MIN KARA 181025Z AUTO 12004KT 4SM BR CLR 16/14 A3007 -100 90 0 110/04 RMK AO2 T01560139
53915KARA ARA20161118043010811/18/16 04:30:31  5-MIN KARA 181030Z AUTO 11004KT 4SM BR CLR 16/14 A3007 -100 90 0 110/04 RMK AO2 T01560139
53915KARA ARA20161118043510811/18/16 04:35:31  5-MIN KARA 181035Z AUTO 11004KT 5SM BR CLR 16/14 A3007 -110 90 0 110/04 RMK AO2 T01560139
53915KARA ARA20161118044010811/18/16 04:40:31  5-MIN KARA 181040Z AUTO 10003KT 6SM BR CLR 16/14 A3007 -110 90 0 100/03 RMK AO2 T01560139
53915KARA ARA20161118044510811/18/16 04:45:31  5-MIN KARA 181045Z AUTO 11004KT 6SM BR CLR 16/14 A3007 -110 90 0 110/04 RMK AO2 T01560139
53915KARA ARA20161118045011511/18/16 04:50:31  5-MIN KARA 181050Z AUTO 11004KT 5SM BR CLR 16/14 A3007 -110 90 0 110/04 RMK AO2 SLP181 T01560139
53915KARA ARA20161118045510811/18/16 04:55:31  5-MIN KARA 181055Z AUTO 11003KT 5SM BR CLR 15/14 A3007 -110 93 0 110/03 RMK AO2 T01500139
53915KARA ARA20161118050011111/18/16 05:00:31  5-MIN KARA 181100Z AUTO 11003KT 5SM BR CLR 15/14 A3007 -110 93 -100 110/03 RMK AO2 T01500139
53915KARA ARA20161118050511111/18/16 05:05:31  5-MIN KARA 181105Z AUTO 11004KT 4SM BR CLR 15/14 A3007 -110 93 -100 110/04 RMK AO2 T01500139
53915KARA ARA20161118051010811/18/16 05:10:31  5-MIN KARA 181110Z AUTO 11003KT 4SM BR CLR 16/14 A3008 -110 90 0 110/03 RMK AO2 T01560139
53915KARA ARA20161118051510811/18/16 05:15:31  5-MIN KARA 181115Z AUTO 11004KT 5SM BR CLR 16/14 A3008 -110 90 0 110/04 RMK AO2 T01560139
53915KARA ARA20161118052011111/18/16 05:20:31  5-MIN KARA 181120Z AUTO 11003KT 4SM BR CLR 15/14 A3008 -110 93 -100 110/03 RMK AO2 T01500139
53915KARA ARA20161118052511111/18/16 05:25:31  5-MIN KARA 181125Z AUTO 12003KT 4SM BR CLR 15/14 A3008 -110 93 -100 110/03 RMK AO2 T01500139
53915KARA ARA20161118053011111/18/16 05:30:31  5-MIN KARA 181130Z AUTO 12004KT 4SM BR CLR 15/14 A3008 -110 93 -100 120/04 RMK AO2 T01500139
53915KARA ARA20161118053510611/18/16 05:35:31  5-MIN KARA 181135Z 12004KT 4SM BR CLR 15/14 A3008 -110 93 -100 120/04 RMK AO2 T01500139
53915KARA ARA20161118054010611/18/16 05:40:31  5-MIN KARA 181140Z 12003KT 4SM BR CLR 15/14 A3008 -110 93 -100 120/03 RMK AO2 T01500139
53915KARA ARA20161118054510611/18/16 05:45:31  5-MIN KARA 181145Z 12003KT 4SM BR CLR 15/14 A3008 -120 93 -100 120/03 RMK AO2 T01500139
53915KARA ARA20161118055013111/18/16 05:50:31  5-MIN KARA 181150Z 12003KT 4SM BR CLR 15/14 A3008 -120 93 -100 110/03 RMK AO2 SLP186 T01500139 10161 20133 53002
53915KARA ARA20161118055510611/18/16 05:55:31  5-MIN KARA 181155Z 11003KT 4SM BR CLR 15/14 A3008 -120 93 -100 100/03 RMK AO2 T01500139
53915KARA ARA20161118060010311/18/16 06:00:31  5-MIN KARA 181200Z 10003KT 3SM BR CLR 16/14 A3009 -120 90 0 100/03 RMK AO2 T01560139
53915KARA ARA20161118060510311/18/16 06:05:31  5-MIN KARA 181205Z 10004KT 3SM BR CLR 16/14 A3009 -120 90 0 100/04 RMK AO2 T01560139
53915KARA ARA20161118061010311/18/16 06:10:31  5-MIN KARA 181210Z 11004KT 3SM BR CLR 16/14 A3009 -120 93 0 100/04 RMK AO2 T01560144
53915KARA ARA20161118061510711/18/16 06:15:31  5-MIN KARA 181215Z 11003KT 2 1/2SM BR CLR 16/14 A3009 -120 90 0 110/03 RMK AO2 T01560139
53915KARA ARA20161118062011011/18/16 06:20:31  5-MIN KARA 181220Z 11004KT 2 1/2SM BR CLR 15/14 A3009 -120 93 -100 110/04 RMK AO2 T01500139
53915KARA ARA20161118062510611/18/16 06:25:31  5-MIN KARA 181225Z 12005KT 2SM BR CLR 14/13 A3008 -120 93 -100 120/05 RMK AO2 T01440133
53915KARA ARA20161118063010311/18/16 06:30:31  5-MIN KARA 181230Z 12006KT 3SM BR CLR 16/14 A3008 -120 90 0 110/06 RMK AO2 T01560139
53915KARA ARA20161118063510311/18/16 06:35:31  5-MIN KARA 181235Z 11007KT 4SM BR CLR 16/14 A3008 -120 90 0 110/07 RMK AO2 T01610144
53915KARA ARA20161118064010311/18/16 06:40:31  5-MIN KARA 181240Z 11007KT 4SM BR CLR 16/15 A3008 -110 93 0 110/07 RMK AO2 T01610150
53915KARA ARA20161118064510311/18/16 06:45:31  5-MIN KARA 181245Z 11006KT 4SM BR CLR 16/15 A3008 -120 93 0 110/06 RMK AO2 T01610150
53915KARA ARA20161118065011211/18/16 06:50:31  5-MIN KARA 181250Z 12005KT 5SM BR CLR 17/15 A3008 -120 90 100 120/05 RMK AO2 SLP186 T01670150
53915KARA ARA20161118065510311/18/16 06:55:31  5-MIN KARA 181255Z 12004KT 5SM BR CLR 16/15 A3008 -120 93 0 120/04 RMK AO2 T01610150
53915KARA ARA20161118070010311/18/16 07:00:31  5-MIN KARA 181300Z 13003KT 4SM BR CLR 16/15 A3009 -120 96 0 130/03 RMK AO2 T01560150
53915KARA ARA20161118070510311/18/16 07:05:31  5-MIN KARA 181305Z 12003KT 3SM BR CLR 16/15 A3009 -120 96 0 120/03 RMK AO2 T01560150
53915KARA ARA20161118071010311/18/16 07:10:31  5-MIN KARA 181310Z 00000KT 3SM BR CLR 16/15 A3009 -130 93 0 000/00 RMK AO2 T01610150
53915KARA ARA20161118071510311/18/16 07:15:31  5-MIN KARA 181315Z 00000KT 3SM BR CLR 16/14 A3010 -130 90 0 000/00 RMK AO2 T01610144
53915KARA ARA20161118072010511/18/16 07:20:31  5-MIN KARA 181320Z 00000KT 3SM BR CLR 17/15 A3010 -140 90 100 000/00 RMK AO2 T01670150
53915KARA ARA20161118072510511/18/16 07:25:31  5-MIN KARA 181325Z 00000KT 4SM BR CLR 17/16 A3011 -140 90 100 000/00 RMK AO2 T01720156
53915KARA ARA20161118073010511/18/16 07:30:31  5-MIN KARA 181330Z 00000KT 4SM BR CLR 17/16 A3011 -140 90 100 000/00 RMK AO2 T01720156
53915KARA ARA20161118073512111/18/16 07:35:31  5-MIN KARA 181335Z 00000KT 5SM -RA BR CLR 18/16 A3011 -140 90 200 000/00 RMK AO2 RAB33 P0000 T01780161
53915KARA ARA20161118074012111/18/16 07:40:31  5-MIN KARA 181340Z 00000KT 6SM -RA BR CLR 18/16 A3011 -140 87 200 000/00 RMK AO2 RAB33 P0000 T01830161
53915KARA ARA20161118074512111/18/16 07:45:31  5-MIN KARA 181345Z 00000KT 6SM -RA BR CLR 18/17 A3011 -140 90 300 000/00 RMK AO2 RAB33 P0000 T01830167
53915KARA ARA20161118075012811/18/16 07:50:31  5-MIN KARA 181350Z 00000KT 6SM -RA BR CLR 19/17 A3011 -150 90 300 000/00 RMK AO2 RAB33 SLP196 P0000 T01890172
53915KARA ARA20161118075511211/18/16 07:55:31  5-MIN KARA 181355Z 00000KT 7SM -RA CLR 19/17 A3012 -150 87 400 000/00 RMK AO2 P0000 T01940172
53915KARA ARA20161118080011211/18/16 08:00:31  5-MIN KARA 181400Z 00000KT 8SM -RA CLR 20/17 A3012 -150 84 400 000/00 RMK AO2 P0000 T02000172
53915KARA ARA20161118080511211/18/16 08:05:31  5-MIN KARA 181405Z 12004KT 8SM -RA CLR 20/17 A3012 -150 84 400 120/04 RMK AO2 P0000 T02000172
53915KARA ARA20161118081011411/18/16 08:10:31  5-MIN KARA 181410Z 12004KT 8SM CLR 20/17 A3012 -150 84 400 120/04 RMK AO2 RAE07 P0000 T02000172
53915KARA ARA20161118081511411/18/16 08:15:31  5-MIN KARA 181415Z 12004KT 8SM CLR 20/18 A3012 -150 87 400 120/04 RMK AO2 RAE07 P0000 T02000178
53915KARA ARA20161118082011411/18/16 08:20:31  5-MIN KARA 181420Z 14004KT 8SM CLR 21/18 A3012 -160 84 500 140/04 RMK AO2 RAE07 P0000 T02060178
53915KARA ARA20161118082511411/18/16 08:25:31  5-MIN KARA 181425Z 14003KT 9SM CLR 21/18 A3013 -160 81 600 140/03 RMK AO2 RAE07 P0000 T02110178
53915KARA ARA20161118083011411/18/16 08:30:31  5-MIN KARA 181430Z 13005KT 9SM CLR 21/17 A3013 -160 78 600 130/05 RMK AO2 RAE07 P0000 T02110172
53915KARA ARA20161118083511511/18/16 08:35:31  5-MIN KARA 181435Z 14005KT 10SM CLR 21/18 A3013 -160 81 600 140/05 RMK AO2 RAE07 P0000 T02110178
53915KARA ARA20161118084011511/18/16 08:40:31  5-MIN KARA 181440Z 14006KT 10SM CLR 22/18 A3013 -160 78 600 130/06 RMK AO2 RAE07 P0000 T02170178
53915KARA ARA20161118084511511/18/16 08:45:31  5-MIN KARA 181445Z 13005KT 10SM CLR 22/18 A3013 -160 78 600 130/05 RMK AO2 RAE07 P0000 T02170178
53915KARA ARA20161118085013411/18/16 08:50:31  5-MIN KARA 181450Z 14007KT 10SM CLR 22/18 A3013 -160 75 700 140/07 RMK AO2 RAE07 SLP202 P0000 60000 T02220178 53004
53915KARA ARA20161118085510311/18/16 08:55:31  5-MIN KARA 181455Z 14007KT 10SM CLR 22/18 A3013 -160 75 700 130/07 RMK AO2 T02220178
53915KARA ARA20161118090010311/18/16 09:00:31  5-MIN KARA 181500Z 14006KT 10SM CLR 22/18 A3013 -160 75 700 140/06 RMK AO2 T02220178
53915KARA ARA20161118090510311/18/16 09:05:31  5-MIN KARA 181505Z 14007KT 10SM CLR 23/18 A3013 -160 73 700 140/07 RMK AO2 T02280178
53915KARA ARA20161118091010311/18/16 09:10:31  5-MIN KARA 181510Z 15007KT 10SM CLR 23/18 A3014 -170 73 800 150/07 RMK AO2 T02330183
53915KARA ARA20161118091510311/18/16 09:15:31  5-MIN KARA 181515Z 15006KT 10SM CLR 23/18 A3014 -170 73 800 150/06 RMK AO2 T02330183
53915KARA ARA20161118092010311/18/16 09:20:31  5-MIN KARA 181520Z 15007KT 10SM CLR 23/18 A3014 -170 70 800 140/07 RMK AO2 T02330178
53915KARA ARA20161118092510311/18/16 09:25:31  5-MIN KARA 181525Z 15008KT 10SM CLR 24/18 A3014 -170 68 900 150/08 RMK AO2 T02390178
53915KARA ARA20161118093010311/18/16 09:30:31  5-MIN KARA 181530Z 15007KT 10SM CLR 24/18 A3014 -170 68 900 150/07 RMK AO2 T02390178
53915KARA ARA20161118093510311/18/16 09:35:31  5-MIN KARA 181535Z 15008KT 10SM CLR 24/17 A3014 -170 63 900 150/08 RMK AO2 T02440172
53915KARA ARA20161118094010311/18/16 09:40:31  5-MIN KARA 181540Z 16007KT 10SM CLR 24/17 A3014 -170 63 900 160/07 RMK AO2 T02440172
53915KARA ARA20161118094510411/18/16 09:45:31  5-MIN KARA 181545Z 16008KT 10SM CLR 25/17 A3014 -170 61 1000 150/08 RMK AO2 T02500172
53915KARA ARA20161118095011111/18/16 09:50:31  5-MIN KARA 181550Z 15010KT 10SM CLR 25/17 A3014 -170 61 1000 150/10 RMK AO2 SLP205 T02500172
53915KARA ARA20161118095510411/18/16 09:55:31  5-MIN KARA 181555Z 15008KT 10SM CLR 25/17 A3014 -170 59 1000 150/08 RMK AO2 T02500167
53915KARA ARA20161118100010411/18/16 10:00:31  5-MIN KARA 181600Z 16011KT 10SM CLR 26/17 A3014 -170 59 1000 160/11 RMK AO2 T02560172
53915KARA ARA20161118100510411/18/16 10:05:31  5-MIN KARA 181605Z 17010KT 10SM CLR 26/17 A3014 -170 57 1000 170/10 RMK AO2 T02560167
53915KARA ARA20161118101010411/18/16 10:10:31  5-MIN KARA 181610Z 16009KT 10SM CLR 26/17 A3014 -170 57 1000 160/09 RMK AO2 T02560167
53915KARA ARA20161118101510411/18/16 10:15:31  5-MIN KARA 181615Z 17008KT 10SM CLR 26/17 A3014 -170 55 1100 170/08 RMK AO2 T02610167
53915KARA ARA20161118102010411/18/16 10:20:31  5-MIN KARA 181620Z 15008KT 10SM CLR 26/17 A3014 -170 55 1100 150/08 RMK AO2 T02610167
53915KARA ARA20161118102510411/18/16 10:25:31  5-MIN KARA 181625Z 17007KT 10SM CLR 27/17 A3014 -170 53 1200 170/07 RMK AO2 T02670167
53915KARA ARA20161118103010411/18/16 10:30:31  5-MIN KARA 181630Z 17007KT 10SM CLR 27/16 A3014 -170 52 1200 170/07 RMK AO2 T02670161
53915KARA ARA20161118103510411/18/16 10:35:31  5-MIN KARA 181635Z 17007KT 10SM CLR 27/17 A3014 -170 53 1200 170/07 RMK AO2 T02670167
53915KARA ARA20161118104010411/18/16 10:40:31  5-MIN KARA 181640Z 21009KT 10SM CLR 27/16 A3014 -170 52 1200 210/09 RMK AO2 T02670161
53915KARA ARA20161118104510411/18/16 10:45:31  5-MIN KARA 181645Z 19008KT 10SM CLR 27/16 A3014 -170 48 1200 190/08 RMK AO2 T02720156
53915KARA ARA20161118105011111/18/16 10:50:31  5-MIN KARA 181650Z 19009KT 10SM CLR 27/16 A3014 -170 50 1200 190/09 RMK AO2 SLP205 T02670156
53915KARA ARA20161118105510411/18/16 10:55:31  5-MIN KARA 181655Z 20009KT 10SM CLR 27/16 A3014 -170 50 1200 200/09 RMK AO2 T02670156
53915KARA ARA20161118110010411/18/16 11:00:31  5-MIN KARA 181700Z 20008KT 10SM CLR 27/16 A3014 -170 48 1200 190/08 RMK AO2 T02720156
53915KARA ARA20161118110512011/18/16 11:05:31  5-MIN KARA 181705Z 17009KT 150V210 10SM CLR 27/16 A3014 -170 48 1200 170/09 150V210 RMK AO2 T02720156
53915KARA ARA20161118111010411/18/16 11:10:31  5-MIN KARA 181710Z 22008KT 10SM CLR 27/16 A3014 -170 48 1200 210/08 RMK AO2 T02720156
53915KARA ARA20161118111510411/18/16 11:15:31  5-MIN KARA 181715Z 17007KT 10SM CLR 27/16 A3014 -170 48 1200 170/07 RMK AO2 T02720156
53915KARA ARA20161118112010411/18/16 11:20:31  5-MIN KARA 181720Z 16009KT 10SM CLR 27/16 A3013 -160 48 1200 160/09 RMK AO2 T02720156
53915KARA ARA20161118112510411/18/16 11:25:31  5-MIN KARA 181725Z 19010KT 10SM CLR 27/16 A3013 -160 48 1200 190/10 RMK AO2 T02720156
53915KARA ARA20161118113010411/18/16 11:30:31  5-MIN KARA 181730Z 18008KT 10SM CLR 27/15 A3013 -160 46 1200 180/08 RMK AO2 T02720150
53915KARA ARA20161118113510411/18/16 11:35:31  5-MIN KARA 181735Z 18010KT 10SM CLR 27/16 A3013 -160 48 1200 180/10 RMK AO2 T02720156
53915KARA ARA20161118114010411/18/16 11:40:31  5-MIN KARA 181740Z 20008KT 10SM CLR 27/16 A3012 -160 48 1300 200/08 RMK AO2 T02720156
53915KARA ARA20161118114510411/18/16 11:45:31  5-MIN KARA 181745Z 17011KT 10SM CLR 27/16 A3012 -150 48 1300 170/11 RMK AO2 T02720156
53915KARA ARA20161118115013511/18/16 11:50:31  5-MIN KARA 181750Z 21008KT 10SM CLR 27/15 A3012 -160 46 1300 210/08 RMK AO2 SLP199 60000 T02720150 10272 20144 53016
53915KARA ARA20161118115512011/18/16 11:55:31  5-MIN KARA 181755Z 21008KT 170V240 10SM CLR 28/16 A3012 -160 46 1300 210/08 170V240 RMK AO2 T02780156
53915KARA ARA20161118120010411/18/16 12:00:31  5-MIN KARA 181800Z 20009KT 10SM CLR 28/16 A3012 -160 46 1300 200/09 RMK AO2 T02780156
53915KARA ARA20161118120510411/18/16 12:05:31  5-MIN KARA 181805Z 20011KT 10SM CLR 27/16 A3012 -150 48 1300 200/11 RMK AO2 T02720156
53915KARA ARA20161118121010411/18/16 12:10:31  5-MIN KARA 181810Z 20011KT 10SM CLR 28/16 A3012 -150 46 1300 200/11 RMK AO2 T02780156
53915KARA ARA20161118121510411/18/16 12:15:31  5-MIN KARA 181815Z 19006KT 10SM CLR 27/16 A3012 -150 48 1300 190/06 RMK AO2 T02720156
53915KARA ARA20161118122010411/18/16 12:20:31  5-MIN KARA 181820Z 20007KT 10SM CLR 28/16 A3012 -150 46 1300 200/07 RMK AO2 T02780156
53915KARA ARA20161118122511011/18/16 12:25:31  5-MIN KARA 181825Z 17007G15KT 10SM CLR 27/16 A3011 -150 48 1300 160/07G15 RMK AO2 T02720156
53915KARA ARA20161118123010411/18/16 12:30:31  5-MIN KARA 181830Z 22008KT 10SM CLR 28/16 A3011 -150 48 1300 210/08 RMK AO2 T02780161
53915KARA ARA20161118123511011/18/16 12:35:31  5-MIN KARA 181835Z 22012G16KT 10SM CLR 28/16 A3011 -140 46 1300 220/12G16 RMK AO2 T02780156
53915KARA ARA20161118124010411/18/16 12:40:31  5-MIN KARA 181840Z 22010KT 10SM CLR 28/16 A3011 -140 46 1300 220/10 RMK AO2 T02780156
53915KARA ARA20161118124510411/18/16 12:45:31  5-MIN KARA 181845Z 17010KT 10SM CLR 27/16 A3010 -140 48 1300 170/10 RMK AO2 T02720156
53915KARA ARA20161118125011111/18/16 12:50:31  5-MIN KARA 181850Z 19010KT 10SM CLR 27/16 A3010 -140 50 1300 190/10 RMK AO2 SLP193 T02720161
53915KARA ARA20161118125512011/18/16 12:55:31  5-MIN KARA 181855Z 19008KT 160V230 10SM CLR 27/16 A3010 -140 48 1300 190/08 160V230 RMK AO2 T02720156
53915KARA ARA20161118130010411/18/16 13:00:31  5-MIN KARA 181900Z 19010KT 10SM CLR 28/16 A3010 -140 48 1300 190/10 RMK AO2 T02780161
53915KARA ARA20161118130510411/18/16 13:05:31  5-MIN KARA 181905Z 19008KT 10SM CLR 27/16 A3010 -130 48 1300 190/08 RMK AO2 T02720156
53915KARA ARA20161118131011011/18/16 13:10:31  5-MIN KARA 181910Z 20009G15KT 10SM CLR 28/16 A3010 -130 48 1300 190/09G15 RMK AO2 T02780161
53915KARA ARA20161118131511011/18/16 13:15:31  5-MIN KARA 181915Z 21009G15KT 10SM CLR 27/16 A3010 -130 48 1300 210/09G15 RMK AO2 T02720156
53915KARA ARA20161118132010411/18/16 13:20:31  5-MIN KARA 181920Z 19008KT 10SM CLR 27/16 A3010 -130 50 1200 190/08 RMK AO2 T02670156
53915KARA ARA20161118132510411/18/16 13:25:31  5-MIN KARA 181925Z 19009KT 10SM CLR 27/16 A3010 -130 50 1300 190/09 RMK AO2 T02720161
53915KARA ARA20161118133010411/18/16 13:30:31  5-MIN KARA 181930Z 18006KT 10SM CLR 27/16 A3010 -130 50 1300 180/06 RMK AO2 T02720161
53915KARA ARA20161118133510411/18/16 13:35:31  5-MIN KARA 181935Z 21008KT 10SM CLR 28/16 A3009 -130 48 1300 210/08 RMK AO2 T02780161
53915KARA ARA20161118134010411/18/16 13:40:31  5-MIN KARA 181940Z 20010KT 10SM CLR 28/16 A3009 -130 46 1300 200/10 RMK AO2 T02780156
53915KARA ARA20161118134510411/18/16 13:45:31  5-MIN KARA 181945Z 20008KT 10SM CLR 28/16 A3009 -130 46 1400 200/08 RMK AO2 T02780156
53915KARA ARA20161118135011111/18/16 13:50:31  5-MIN KARA 181950Z 20007KT 10SM CLR 28/16 A3009 -130 46 1400 200/07 RMK AO2 SLP189 T02780156
53915KARA ARA20161118135510411/18/16 13:55:31  5-MIN KARA 181955Z 21009KT 10SM CLR 28/16 A3009 -130 46 1400 210/09 RMK AO2 T02780156
53915KARA ARA20161118140010411/18/16 14:00:31  5-MIN KARA 182000Z 23006KT 10SM CLR 27/15 A3009 -130 46 1300 230/06 RMK AO2 T02720150
53915KARA ARA20161118140510411/18/16 14:05:31  5-MIN KARA 182005Z 21009KT 10SM CLR 28/16 A3009 -130 46 1400 200/09 RMK AO2 T02780156
53915KARA ARA20161118141010411/18/16 14:10:31  5-MIN KARA 182010Z 20007KT 10SM CLR 28/16 A3009 -130 47 1400 200/07 RMK AO2 T02830161
53915KARA ARA20161119111512511/19/16 11:15:31  5-MIN KARA 191715Z 02017G22KT 10SM CLR 14/01 A3043 -430 40 -500 020/17G22 RMK AO2 RAB01E11 P0000 T01440011
53915KARA ARA20161119112012511/19/16 11:20:31  5-MIN KARA 191720Z 01017G23KT 10SM CLR 15/01 A3043 -430 38 -500 010/17G23 RMK AO2 RAB01E11 P0000 T01500011
53915KARA ARA20161119112511911/19/16 11:25:31  5-MIN KARA 191725Z 02018KT 10SM CLR 14/01 A3042 -430 40 -500 020/18 RMK AO2 RAB01E11 P0000 T01440011
53915KARA ARA20161119113012511/19/16 11:30:31  5-MIN KARA 191730Z 02019G24KT 10SM CLR 15/01 A3042 -430 38 -400 020/19G24 RMK AO2 RAB01E11 P0000 T01500011
53915KARA ARA20161119113512511/19/16 11:35:31  5-MIN KARA 191735Z 02016G24KT 10SM CLR 15/01 A3042 -430 38 -400 020/16G24 RMK AO2 RAB01E11 P0000 T01500011
53915KARA ARA20161119114012511/19/16 11:40:31  5-MIN KARA 191740Z 01017G21KT 10SM CLR 15/01 A3042 -420 38 -400 360/17G21 RMK AO2 RAB01E11 P0000 T01500011
53915KARA ARA20161119114512511/19/16 11:45:31  5-MIN KARA 191745Z 01016G22KT 10SM CLR 15/01 A3041 -420 37 -400 010/16G22 RMK AO2 RAB01E11 P0000 T01500006
53915KARA ARA20161119115015711/19/16 11:50:31  5-MIN KARA 191750Z 01018KT 10SM -RA CLR 15/01 A3041 -420 37 -400 360/18 RMK AO2 RAB01E11B49 SLP296 P0000 60000 T01500006 10150 20083 51026
53915KARA ARA20161119115512011/19/16 11:55:31  5-MIN KARA 191755Z 01016G26KT 10SM -RA CLR 15/01 A3041 -420 37 -400 010/16G26 RMK AO2 P0000 T01500006
53915KARA ARA20161119120012411/19/16 12:00:31  5-MIN KARA 191800Z 01020G26KT 10SM CLR 16/01 A3040 -410 36 -400 010/20G26 RMK AO2 RAE1758 P0000 T01560006
53915KARA ARA20161119120514211/19/16 12:05:31  5-MIN KARA 191805Z 02020G26KT 10SM CLR 16/00 A3040 -410 34 -400 020/20G26 RMK AO2 PK WND 03026/1804 RAE1758 P0000 T01560000
53915KARA ARA20161119121014211/19/16 12:10:31  5-MIN KARA 191810Z 02018G26KT 10SM CLR 16/00 A3040 -410 34 -400 020/18G26 RMK AO2 PK WND 01026/1806 RAE1758 P0000 T01560000
53915KARA ARA20161119121514211/19/16 12:15:31  5-MIN KARA 191815Z 04016G26KT 10SM CLR 16/00 A3040 -410 34 -400 030/16G26 RMK AO2 PK WND 01026/1806 RAE1758 P0000 T01560000
53915KARA ARA20161119122014211/19/16 12:20:31  5-MIN KARA 191820Z 02016G21KT 10SM CLR 16/01 A3040 -410 34 -300 020/16G21 RMK AO2 PK WND 01026/1806 RAE1758 P0000 T01610006
53915KARA ARA20161119122514211/19/16 12:25:31  5-MIN KARA 191825Z 01015G21KT 10SM CLR 16/01 A3039 -400 34 -300 010/15G21 RMK AO2 PK WND 01026/1806 RAE1758 P0000 T01610006
53915KARA ARA20161119123013611/19/16 12:30:31  5-MIN KARA 191830Z 03018KT 10SM CLR 16/00 A3039 -400 33 -300 020/18 RMK AO2 PK WND 01026/1806 RAE1758 P0000 T01610000
53915KARA ARA20161119123513611/19/16 12:35:31  5-MIN KARA 191835Z 02018KT 10SM CLR 16/00 A3039 -400 33 -300 020/18 RMK AO2 PK WND 01026/1806 RAE1758 P0000 T01610000
53915KARA ARA20161119124014311/19/16 12:40:31  5-MIN KARA 191840Z 02018KT 10SM -RA CLR 16/00 A3038 -400 33 -300 020/18 RMK AO2 PK WND 01026/1806 RAE1758B37 P0000 T01610000
53915KARA ARA20161119124514311/19/16 12:45:31  5-MIN KARA 191845Z 01016KT 10SM CLR 17/M01 A3038 -390 31 -200 010/16 RMK AO2 PK WND 01026/1806 RAE1758B37E41 P0000 T01671006
53915KARA ARA20161119125014911/19/16 12:50:31  5-MIN KARA 191850Z 01016KT 10SM CLR 16/00 A3038 -390 33 -300 010/16 RMK AO2 PK WND 01026/1806 RAE1758B37E41 SLP287 P0000 T01610000
53915KARA ARA20161119125510411/19/16 12:55:31  5-MIN KARA 191855Z 01015KT 10SM CLR 16/00 A3038 -390 33 -300 010/15 RMK AO2 T01610000
53915KARA ARA20161119130010411/19/16 13:00:31  5-MIN KARA 191900Z 02016KT 10SM CLR 17/00 A3038 -390 32 -200 020/16 RMK AO2 T01670000
53915KARA ARA20161119130510411/19/16 13:05:31  5-MIN KARA 191905Z 03014KT 10SM CLR 17/00 A3037 -390 32 -200 020/14 RMK AO2 T01670000
53915KARA ARA20161119131010411/19/16 13:10:31  5-MIN KARA 191910Z 03018KT 10SM CLR 17/00 A3037 -380 32 -200 030/18 RMK AO2 T01670000
53915KARA ARA20161119131510511/19/16 13:15:31  5-MIN KARA 191915Z 01018KT 10SM CLR 17/M01 A3037 -380 31 -200 010/18 RMK AO2 T01671006
53915KARA ARA20161119132011111/19/16 13:20:31  5-MIN KARA 191920Z 03017G24KT 10SM CLR 17/M01 A3037 -380 31 -200 030/17G24 RMK AO2 T01671006
53915KARA ARA20161119132511111/19/16 13:25:31  5-MIN KARA 191925Z 02016G24KT 10SM CLR 17/M01 A3036 -380 31 -200 010/16G24 RMK AO2 T01671006
53915KARA ARA20161119133011111/19/16 13:30:31  5-MIN KARA 191930Z 36018G24KT 10SM CLR 17/M01 A3036 -370 31 -200 360/18G24 RMK AO2 T01671006
53915KARA ARA20161119133511111/19/16 13:35:31  5-MIN KARA 191935Z 03017G24KT 10SM CLR 17/M01 A3036 -380 28 -100 030/17G24 RMK AO2 T01721011
53915KARA ARA20161119134011111/19/16 13:40:31  5-MIN KARA 191940Z 03017G25KT 10SM CLR 17/M01 A3036 -380 29 -100 030/17G25 RMK AO2 T01721006
53915KARA ARA20161119134511111/19/16 13:45:31  5-MIN KARA 191945Z 03013G25KT 10SM CLR 17/M01 A3036 -370 31 -200 030/13G25 RMK AO2 T01671006
53915KARA ARA20161119135011811/19/16 13:50:31  5-MIN KARA 191950Z 03016G25KT 10SM CLR 17/M01 A3036 -370 29 -200 030/16G25 RMK AO2 SLP280 T01671011
53915KARA ARA20161119135511111/19/16 13:55:31  5-MIN KARA 191955Z 01014G22KT 10SM CLR 17/M01 A3036 -370 28 -100 010/14G22 RMK AO2 T01721011
53915KARA ARA20161119140010511/19/16 14:00:31  5-MIN KARA 192000Z 02013KT 10SM CLR 17/M01 A3036 -370 29 -100 020/13 RMK AO2 T01721006
53915KARA ARA20161119140511111/19/16 14:05:31  5-MIN KARA 192005Z 03015G19KT 10SM CLR 17/M01 A3035 -370 29 -100 030/15G19 RMK AO2 T01721006
53915KARA ARA20161119141010411/19/16 14:10:31  5-MIN KARA 192010Z 36013KT 10SM CLR 17/00 A3035 -370 31 -100 360/13 RMK AO2 T01720000
53915KARA ARA20161119141510511/19/16 14:15:31  5-MIN KARA 192015Z 02012KT 10SM CLR 17/M01 A3035 -370 29 -100 020/12 RMK AO2 T01721006
53915KARA ARA20161119142010511/19/16 14:20:31  5-MIN KARA 192020Z 01014KT 10SM CLR 17/M01 A3035 -370 29 -100 010/14 RMK AO2 T01721006
53915KARA ARA20161119142510511/19/16 14:25:31  5-MIN KARA 192025Z 02015KT 10SM CLR 17/M01 A3035 -370 29 -100 010/15 RMK AO2 T01721006
53915KARA ARA20161119143010511/19/16 14:30:31  5-MIN KARA 192030Z 01015KT 10SM CLR 17/M01 A3036 -370 29 -100 010/15 RMK AO2 T01721006
53915KARA ARA20161119143511011/19/16 14:35:31  5-MIN KARA 192035Z AUTO 01012KT 10SM CLR 17/M01 A3036 -370 31 -200 010/12 RMK AO2 T01671006
53915KARA ARA20161119144011611/19/16 14:40:31  5-MIN KARA 192040Z AUTO 03014G19KT 10SM CLR 17/M01 A3036 -370 29 -100 030/14G19 RMK AO2 T01721006
53915KARA ARA20161119144511611/19/16 14:45:31  5-MIN KARA 192045Z AUTO 02012G19KT 10SM CLR 17/M01 A3036 -370 29 -100 020/12G19 RMK AO2 T01721006
53915KARA ARA20161119145012411/19/16 14:50:31  5-MIN KARA 192050Z 36012KT 10SM CLR 17/M01 A3036 -370 29 -100 360/12 RMK AO2 SLP278 60000 T01721006 58012
53915KARA ARA20161119145510511/19/16 14:55:31  5-MIN KARA 192055Z 36014KT 10SM CLR 17/M01 A3036 -370 29 -100 350/14 RMK AO2 T01721006
53915KARA ARA20161119150010511/19/16 15:00:31  5-MIN KARA 192100Z 36012KT 10SM CLR 17/M01 A3036 -370 31 -200 360/12 RMK AO2 T01671006
53915KARA ARA20161119150510511/19/16 15:05:31  5-MIN KARA 192105Z 36016KT 10SM CLR 17/M01 A3036 -370 31 -200 360/16 RMK AO2 T01671006
53915KARA ARA20161119151011111/19/16 15:10:31  5-MIN KARA 192110Z 36014G20KT 10SM CLR 17/M01 A3036 -370 29 -200 360/14G20 RMK AO2 T01671011
53915KARA ARA20161119151511111/19/16 15:15:31  5-MIN KARA 192115Z 01012G18KT 10SM CLR 17/M01 A3036 -370 29 -200 010/12G18 RMK AO2 T01671011
53915KARA ARA20161119152010511/19/16 15:20:31  5-MIN KARA 192120Z 01013KT 10SM CLR 17/M01 A3036 -370 29 -100 010/13 RMK AO2 T01721006
53915KARA ARA20161119152511111/19/16 15:25:31  5-MIN KARA 192125Z 01010G18KT 10SM CLR 17/M01 A3036 -370 29 -200 010/10G18 RMK AO2 T01671011
53915KARA ARA20161119153010511/19/16 15:30:31  5-MIN KARA 192130Z 35014KT 10SM CLR 17/M02 A3036 -370 28 -200 350/14 RMK AO2 T01671017
53915KARA ARA20161119153510511/19/16 15:35:31  5-MIN KARA 192135Z 36013KT 10SM CLR 17/M02 A3036 -370 27 -200 350/13 RMK AO2 T01671022
53915KARA ARA20161119154010511/19/16 15:40:31  5-MIN KARA 192140Z 01013KT 10SM CLR 17/M03 A3036 -370 26 -200 010/13 RMK AO2 T01671028
53915KARA ARA20161119154510511/19/16 15:45:31  5-MIN KARA 192145Z 01013KT 10SM CLR 17/M02 A3036 -370 27 -200 010/13 RMK AO2 T01671022
53915KARA ARA20161119155011211/19/16 15:50:31  5-MIN KARA 192150Z 01014KT 10SM CLR 17/M02 A3036 -370 27 -200 010/14 RMK AO2 SLP280 T01671022
53915KARA ARA20161119155510511/19/16 15:55:31  5-MIN KARA 192155Z 02012KT 10SM CLR 16/M03 A3036 -370 26 -200 020/12 RMK AO2 T01611033
53915KARA ARA20161119160010511/19/16 16:00:31  5-MIN KARA 192200Z 02014KT 10SM CLR 16/M03 A3036 -380 26 -300 020/14 RMK AO2 T01611033
53915KARA ARA20161119160510511/19/16 16:05:31  5-MIN KARA 192205Z 36016KT 10SM CLR 16/M03 A3037 -380 26 -300 360/16 RMK AO2 T01611033
53915KARA ARA20161119161010511/19/16 16:10:31  5-MIN KARA 192210Z 36015KT 10SM CLR 16/M04 A3037 -380 25 -300 360/15 RMK AO2 T01611039
53915KARA ARA20161119161510511/19/16 16:15:31  5-MIN KARA 192215Z 01014KT 10SM CLR 16/M04 A3037 -380 25 -300 010/14 RMK AO2 T01611039
53915KARA ARA20161119162010511/19/16 16:20:31  5-MIN KARA 192220Z 01010KT 10SM CLR 16/M03 A3037 -380 27 -300 360/10 RMK AO2 T01561033
53915KARA ARA20161119162510511/19/16 16:25:31  5-MIN KARA 192225Z 01010KT 10SM CLR 16/M03 A3037 -380 27 -300 010/10 RMK AO2 T01561033
53915KARA ARA20161119163010511/19/16 16:30:31  5-MIN KARA 192230Z 36010KT 10SM CLR 16/M03 A3037 -380 27 -300 360/10 RMK AO2 T01561033
53915KARA ARA20161119163510511/19/16 16:35:31  5-MIN KARA 192235Z 35011KT 10SM CLR 15/M03 A3037 -380 28 -400 350/11 RMK AO2 T01501033
53915KARA ARA20161119164010511/19/16 16:40:31  5-MIN KARA 192240Z 35009KT 10SM CLR 15/M03 A3037 -380 28 -400 350/09 RMK AO2 T01501033
53915KARA ARA20161119164510511/19/16 16:45:31  5-MIN KARA 192245Z 35010KT 10SM CLR 14/M03 A3037 -390 29 -500 350/10 RMK AO2 T01441033
53915KARA ARA20161119165011211/19/16 16:50:31  5-MIN KARA 192250Z 36012KT 10SM CLR 14/M03 A3038 -390 30 -500 350/12 RMK AO2 SLP285 T01391033
53915KARA ARA20161119165510511/19/16 16:55:31  5-MIN KARA 192255Z 36010KT 10SM CLR 14/M04 A3037 -390 29 -500 350/10 RMK AO2 T01391039
53915KARA ARA20161119170010511/19/16 17:00:31  5-MIN KARA 192300Z 36013KT 10SM CLR 14/M04 A3038 -390 29 -500 360/13 RMK AO2 T01391039
53915KARA ARA20161119170510511/19/16 17:05:31  5-MIN KARA 192305Z 36012KT 10SM CLR 14/M04 A3038 -390 29 -500 360/12 RMK AO2 T01391039
53915KARA ARA20161119171010511/19/16 17:10:31  5-MIN KARA 192310Z 36011KT 10SM CLR 13/M04 A3038 -390 30 -600 360/11 RMK AO2 T01331039
53915KARA ARA20161119171510511/19/16 17:15:31  5-MIN KARA 192315Z 36009KT 10SM CLR 13/M04 A3038 -390 30 -600 360/09 RMK AO2 T01331039
53915KARA ARA20161119172010511/19/16 17:20:31  5-MIN KARA 192320Z 36009KT 10SM CLR 13/M04 A3038 -390 31 -700 360/09 RMK AO2 T01281039
53915KARA ARA20161119172510511/19/16 17:25:31  5-MIN KARA 192325Z 36008KT 10SM CLR 12/M03 A3038 -390 33 -700 360/08 RMK AO2 T01221033
53915KARA ARA20161119173010511/19/16 17:30:31  5-MIN KARA 192330Z 36007KT 10SM CLR 12/M03 A3038 -390 35 -800 360/07 RMK AO2 T01171033
53915KARA ARA20161119173510511/19/16 17:35:31  5-MIN KARA 192335Z 36007KT 10SM CLR 11/M03 A3038 -390 37 -900 360/07 RMK AO2 T01111028
53915KARA ARA20161119174010511/19/16 17:40:31  5-MIN KARA 192340Z 36007KT 10SM CLR 11/M03 A3038 -390 39 -900 350/07 RMK AO2 T01061028
53915KARA ARA20161119174510511/19/16 17:45:31  5-MIN KARA 192345Z 35007KT 10SM CLR 11/M03 A3038 -390 37 -900 350/07 RMK AO2 T01111028
53915KARA ARA20161119175013611/19/16 17:50:31  5-MIN KARA 192350Z 35006KT 10SM CLR 11/M03 A3039 -400 39 -900 340/06 RMK AO2 SLP288 60000 T01061028 10172 20106 56017
53915KARA ARA20161119175510511/19/16 17:55:31  5-MIN KARA 192355Z 34007KT 10SM CLR 11/M02 A3039 -400 40 -900 340/07 RMK AO2 T01061022
53915KARA ARA20161119180010511/19/16 18:00:31  5-MIN KARA 200000Z 35006KT 10SM CLR 11/M02 A3039 -400 42 -900 340/06 RMK AO2 T01061017
53915KARA ARA20161119180510511/19/16 18:05:31  5-MIN KARA 200005Z 34007KT 10SM CLR 11/M01 A3039 -400 46 -900 340/07 RMK AO2 T01061006
53915KARA ARA20161119181010611/19/16 18:10:31  5-MIN KARA 200010Z 34006KT 10SM CLR 10/M01 A3039 -400 47 -1000 340/06 RMK AO2 T01001006
53915KARA ARA20161119181510611/19/16 18:15:31  5-MIN KARA 200015Z 34006KT 10SM CLR 10/M01 A3039 -400 47 -1000 340/06 RMK AO2 T01001006
53915KARA ARA20161119182010511/19/16 18:20:31  5-MIN KARA 200020Z 35007KT 10SM CLR 10/00 A3039 -400 49 -1000 340/07 RMK AO2 T01000000
53915KARA ARA20161119182510511/19/16 18:25:31  5-MIN KARA 200025Z 34007KT 10SM CLR 11/M01 A3039 -400 46 -900 340/07 RMK AO2 T01061006
53915KARA ARA20161119183010611/19/16 18:30:31  5-MIN KARA 200030Z 34007KT 10SM CLR 10/M01 A3040 -410 47 -1000 340/07 RMK AO2 T01001006
53915KARA ARA20161119183510611/19/16 18:35:31  5-MIN KARA 200035Z 35008KT 10SM CLR 09/M01 A3040 -410 49 -1100 340/08 RMK AO2 T00941006
53915KARA ARA20161119184010611/19/16 18:40:31  5-MIN KARA 200040Z 35007KT 10SM CLR 10/M01 A3040 -410 47 -1000 340/07 RMK AO2 T01001006
53915KARA ARA20161119184510611/19/16 18:45:31  5-MIN KARA 200045Z 35007KT 10SM CLR 10/M01 A3040 -410 47 -1000 340/07 RMK AO2 T01001006
53915KARA ARA20161119185011311/19/16 18:50:31  5-MIN KARA 200050Z 34007KT 10SM CLR 10/M01 A3040 -410 47 -1000 340/07 RMK AO2 SLP292 T01001006
53915KARA ARA20161119185510611/19/16 18:55:31  5-MIN KARA 200055Z 35008KT 10SM CLR 10/M01 A3040 -410 47 -1000 340/08 RMK AO2 T01001006
53915KARA ARA20161119190010611/19/16 19:00:31  5-MIN KARA 200100Z 35008KT 10SM CLR 10/M01 A3040 -410 46 -1000 350/08 RMK AO2 T01001011
53915KARA ARA20161119190510611/19/16 19:05:31  5-MIN KARA 200105Z 35007KT 10SM CLR 10/M01 A3040 -410 46 -1000 340/07 RMK AO2 T01001011
53915KARA ARA20161119191010611/19/16 19:10:31  5-MIN KARA 200110Z 34006KT 10SM CLR 09/M01 A3041 -410 49 -1100 340/06 RMK AO2 T00941006
53915KARA ARA20161119191510511/19/16 19:15:31  5-MIN KARA 200115Z 34005KT 10SM CLR 09/00 A3041 -420 51 -1100 340/05 RMK AO2 T00940000
53915KARA ARA20161119192010511/19/16 19:20:31  5-MIN KARA 200120Z 34007KT 10SM CLR 09/00 A3041 -420 51 -1100 340/07 RMK AO2 T00940000
53915KARA ARA20161119192510511/19/16 19:25:31  5-MIN KARA 200125Z 35007KT 10SM CLR 09/00 A3041 -420 51 -1100 350/07 RMK AO2 T00940000
53915KARA ARA20161119193010611/19/16 19:30:31  5-MIN KARA 200130Z 35008KT 10SM CLR 10/M01 A3041 -420 46 -1000 350/08 RMK AO2 T01001011
53915KARA ARA20161119193510611/19/16 19:35:31  5-MIN KARA 200135Z 35008KT 10SM CLR 09/M01 A3041 -420 47 -1100 350/08 RMK AO2 T00941011
53915KARA ARA20161119194010611/19/16 19:40:31  5-MIN KARA 200140Z 35008KT 10SM CLR 09/M01 A3042 -420 49 -1200 350/08 RMK AO2 T00891011
53915KARA ARA20161119194510611/19/16 19:45:31  5-MIN KARA 200145Z 35007KT 10SM CLR 09/M01 A3042 -430 49 -1200 350/07 RMK AO2 T00891011
53915KARA ARA20161119195011311/19/16 19:50:31  5-MIN KARA 200150Z 35007KT 10SM CLR 09/M01 A3042 -430 49 -1200 350/07 RMK AO2 SLP300 T00891011
53915KARA ARA20161119195510611/19/16 19:55:31  5-MIN KARA 200155Z 35008KT 10SM CLR 09/M01 A3042 -430 49 -1200 350/08 RMK AO2 T00891011
53915KARA ARA20161119200010611/19/16 20:00:31  5-MIN KARA 200200Z 35007KT 10SM CLR 09/M01 A3042 -430 49 -1200 350/07 RMK AO2 T00891011
53915KARA ARA20161119200510611/19/16 20:05:31  5-MIN KARA 200205Z 35008KT 10SM CLR 09/M01 A3042 -430 49 -1200 350/08 RMK AO2 T00891011
53915KARA ARA20161119201010611/19/16 20:10:31  5-MIN KARA 200210Z 35008KT 10SM CLR 08/M01 A3042 -430 51 -1300 350/08 RMK AO2 T00831011
53915KARA ARA20161119201510611/19/16 20:15:31  5-MIN KARA 200215Z 35008KT 10SM CLR 08/M01 A3042 -430 51 -1300 350/08 RMK AO2 T00831011
53915KARA ARA20161119202010611/19/16 20:20:31  5-MIN KARA 200220Z 35008KT 10SM CLR 08/M01 A3042 -430 51 -1300 350/08 RMK AO2 T00831011
53915KARA ARA20161119202510611/19/16 20:25:31  5-MIN KARA 200225Z 35008KT 10SM CLR 08/M01 A3042 -430 51 -1300 350/08 RMK AO2 T00831011
53915KARA ARA20161119203010611/19/16 20:30:31  5-MIN KARA 200230Z 35008KT 10SM CLR 08/M01 A3042 -430 51 -1300 350/08 RMK AO2 T00831011
53915KARA ARA20161119203510611/19/16 20:35:31  5-MIN KARA 200235Z 35008KT 10SM CLR 08/M01 A3042 -430 53 -1300 350/08 RMK AO2 T00781011
53915KARA ARA20161119204010611/19/16 20:40:31  5-MIN KARA 200240Z 35008KT 10SM CLR 08/M01 A3042 -430 53 -1300 350/08 RMK AO2 T00781011
53915KARA ARA20161119204510611/19/16 20:45:31  5-MIN KARA 200245Z 35008KT 10SM CLR 08/M01 A3042 -430 53 -1300 350/08 RMK AO2 T00781011
53915KARA ARA20161119205011911/19/16 20:50:31  5-MIN KARA 200250Z 35007KT 10SM CLR 08/M01 A3042 -430 53 -1300 350/07 RMK AO2 SLP301 T00781011 53010
53915KARA ARA20161119205511111/19/16 20:55:31  5-MIN KARA 200255Z AUTO 35006KT 10SM CLR 08/M01 A3043 -430 53 -1300 350/06 RMK AO2 T00781011
53915KARA ARA20161119210011111/19/16 21:00:31  5-MIN KARA 200300Z AUTO 35006KT 10SM CLR 08/M01 A3043 -430 53 -1300 350/06 RMK AO2 T00781011
53915KARA ARA20161119210511111/19/16 21:05:31  5-MIN KARA 200305Z AUTO 35005KT 10SM CLR 08/M01 A3043 -430 53 -1300 350/05 RMK AO2 T00781011
53915KARA ARA20161119211011111/19/16 21:10:31  5-MIN KARA 200310Z AUTO 35005KT 10SM CLR 08/M01 A3043 -430 53 -1300 350/05 RMK AO2 T00781011
53915KARA ARA20161119211511111/19/16 21:15:31  5-MIN KARA 200315Z AUTO 34005KT 10SM CLR 07/M01 A3043 -430 55 -1400 340/05 RMK AO2 T00721011
53915KARA ARA20161119212011111/19/16 21:20:31  5-MIN KARA 200320Z AUTO 34003KT 10SM CLR 07/M01 A3043 -440 57 -1400 340/03 RMK AO2 T00721006
53915KARA ARA20161119212511011/19/16 21:25:31  5-MIN KARA 200325Z AUTO 33003KT 10SM CLR 07/01 A3043 -440 62 -1400 330/03 RMK AO2 T00720006
53915KARA ARA20161119213011011/19/16 21:30:31  5-MIN KARA 200330Z AUTO 33004KT 10SM CLR 07/01 A3043 -430 62 -1400 330/04 RMK AO2 T00720006
53915KARA ARA20161119213511011/19/16 21:35:31  5-MIN KARA 200335Z AUTO 33003KT 10SM CLR 07/01 A3043 -430 62 -1400 330/03 RMK AO2 T00720006
53915KARA ARA20161119214011011/19/16 21:40:31  5-MIN KARA 200340Z AUTO 00000KT 10SM CLR 07/01 A3043 -430 62 -1400 000/00 RMK AO2 T00720006
53915KARA ARA20161119214511011/19/16 21:45:31  5-MIN KARA 200345Z AUTO 32003KT 10SM CLR 07/01 A3043 -430 65 -1500 320/03 RMK AO2 T00670006
53915KARA ARA20161119215011711/19/16 21:50:31  5-MIN KARA 200350Z AUTO 34003KT 10SM CLR 07/01 A3043 -430 67 -1500 340/03 RMK AO2 SLP302 T00670011
53915KARA ARA20161119215511011/19/16 21:55:31  5-MIN KARA 200355Z AUTO 33003KT 10SM CLR 06/01 A3043 -430 70 -1500 330/03 RMK AO2 T00610011
53915KARA ARA20161119220011011/19/16 22:00:31  5-MIN KARA 200400Z AUTO 34004KT 10SM CLR 07/02 A3043 -430 70 -1500 340/04 RMK AO2 T00670017
53915KARA ARA20161119220511011/19/16 22:05:31  5-MIN KARA 200405Z AUTO 33004KT 10SM CLR 07/02 A3043 -430 70 -1500 330/04 RMK AO2 T00670017
53915KARA ARA20161119221011011/19/16 22:10:31  5-MIN KARA 200410Z AUTO 33004KT 10SM CLR 07/01 A3043 -430 67 -1500 330/04 RMK AO2 T00670011
53915KARA ARA20161119221511011/19/16 22:15:31  5-MIN KARA 200415Z AUTO 33004KT 10SM CLR 07/02 A3043 -440 70 -1500 330/04 RMK AO2 T00670017
53915KARA ARA20161119222011011/19/16 22:20:31  5-MIN KARA 200420Z AUTO 34004KT 10SM CLR 07/01 A3043 -440 67 -1500 340/04 RMK AO2 T00670011
53915KARA ARA20161119222511011/19/16 22:25:31  5-MIN KARA 200425Z AUTO 35003KT 10SM CLR 06/01 A3043 -440 70 -1500 350/03 RMK AO2 T00610011
53915KARA ARA20161119223011011/19/16 22:30:31  5-MIN KARA 200430Z AUTO 35004KT 10SM CLR 06/01 A3043 -440 67 -1500 350/04 RMK AO2 T00610006
53915KARA ARA20161119223511111/19/16 22:35:31  5-MIN KARA 200435Z AUTO 36005KT 10SM CLR 06/M01 A3043 -430 62 -1500 360/05 RMK AO2 T00611006
53915KARA ARA20161119224011111/19/16 22:40:31  5-MIN KARA 200440Z AUTO 36004KT 10SM CLR 06/M01 A3043 -430 62 -1500 360/04 RMK AO2 T00611006
53915KARA ARA20161119224511111/19/16 22:45:31  5-MIN KARA 200445Z AUTO 36004KT 10SM CLR 06/M01 A3043 -430 62 -1500 360/04 RMK AO2 T00611006
53915KARA ARA20161119225011811/19/16 22:50:31  5-MIN KARA 200450Z AUTO 36004KT 10SM CLR 06/M01 A3043 -430 62 -1500 360/04 RMK AO2 SLP302 T00611006
53915KARA ARA20161119225511111/19/16 22:55:31  5-MIN KARA 200455Z AUTO 36003KT 10SM CLR 07/M01 A3043 -430 60 -1500 360/03 RMK AO2 T00671006
53915KARA ARA20161119230011111/19/16 23:00:31  5-MIN KARA 200500Z AUTO 36004KT 10SM CLR 07/M01 A3043 -430 60 -1500 360/04 RMK AO2 T00671006
53915KARA ARA20161119230511111/19/16 23:05:31  5-MIN KARA 200505Z AUTO 36004KT 10SM CLR 07/M01 A3043 -430 60 -1500 360/04 RMK AO2 T00671006
53915KARA ARA20161119231011111/19/16 23:10:31  5-MIN KARA 200510Z AUTO 01004KT 10SM CLR 07/M01 A3043 -430 60 -1500 010/04 RMK AO2 T00671006
53915KARA ARA20161120091510611/20/16 09:15:31  5-MIN KARA 201515Z 07011KT 10SM CLR 11/M02 A3044 -440 42 -1000 070/11 RMK AO2 T01061017
53915KARA ARA20161120092010611/20/16 09:20:31  5-MIN KARA 201520Z 09009KT 10SM CLR 11/M02 A3043 -440 42 -1000 090/09 RMK AO2 T01061017
53915KARA ARA20161120092510611/20/16 09:25:31  5-MIN KARA 201525Z 07011KT 10SM CLR 11/M02 A3043 -440 42 -1000 070/11 RMK AO2 T01061017
53915KARA ARA20161120093010511/20/16 09:30:31  5-MIN KARA 201530Z 07010KT 10SM CLR 11/M02 A3043 -440 41 -900 060/10 RMK AO2 T01111017
53915KARA ARA20161120093510511/20/16 09:35:31  5-MIN KARA 201535Z 07010KT 10SM CLR 11/M02 A3043 -440 41 -900 070/10 RMK AO2 T01111017
53915KARA ARA20161120094010511/20/16 09:40:31  5-MIN KARA 201540Z 09010KT 10SM CLR 11/M02 A3043 -440 39 -900 090/10 RMK AO2 T01111022
53915KARA ARA20161120094510511/20/16 09:45:31  5-MIN KARA 201545Z 07009KT 10SM CLR 12/M02 A3043 -440 38 -800 070/09 RMK AO2 T01221017
53915KARA ARA20161120095011211/20/16 09:50:31  5-MIN KARA 201550Z 07008KT 10SM CLR 12/M02 A3043 -440 36 -800 070/08 RMK AO2 SLP304 T01221022
53915KARA ARA20161120095510511/20/16 09:55:31  5-MIN KARA 201555Z 08008KT 10SM CLR 12/M03 A3043 -440 36 -900 080/08 RMK AO2 T01171028
53915KARA ARA20161120100011111/20/16 10:00:31  5-MIN KARA 201600Z 07010G15KT 10SM CLR 12/M03 A3043 -440 35 -800 070/10G15 RMK AO2 T01221028
53915KARA ARA20161120100511111/20/16 10:05:31  5-MIN KARA 201605Z 06010G15KT 10SM CLR 13/M03 A3043 -440 33 -700 060/10G15 RMK AO2 T01281028
53915KARA ARA20161120101010511/20/16 10:10:31  5-MIN KARA 201610Z 05008KT 10SM CLR 13/M03 A3043 -440 32 -700 050/08 RMK AO2 T01281033
53915KARA ARA20161120101510511/20/16 10:15:31  5-MIN KARA 201615Z 06010KT 10SM CLR 13/M03 A3043 -430 31 -700 060/10 RMK AO2 T01331033
53915KARA ARA20161120102010511/20/16 10:20:31  5-MIN KARA 201620Z 09006KT 10SM CLR 13/M03 A3043 -430 33 -700 090/06 RMK AO2 T01281028
53915KARA ARA20161120102510511/20/16 10:25:31  5-MIN KARA 201625Z 08007KT 10SM CLR 13/M03 A3043 -430 31 -700 080/07 RMK AO2 T01331033
53915KARA ARA20161120103010511/20/16 10:30:31  5-MIN KARA 201630Z VRB06KT 10SM CLR 13/M03 A3042 -430 31 -600 VRB/06 RMK AO2 T01331033
53915KARA ARA20161120103510511/20/16 10:35:31  5-MIN KARA 201635Z 07008KT 10SM CLR 14/M04 A3042 -430 29 -600 070/08 RMK AO2 T01391039
53915KARA ARA20161120104010511/20/16 10:40:31  5-MIN KARA 201640Z 07007KT 10SM CLR 13/M04 A3042 -430 30 -600 070/07 RMK AO2 T01331039
53915KARA ARA20161120104510511/20/16 10:45:31  5-MIN KARA 201645Z 07003KT 10SM CLR 13/M03 A3042 -430 31 -600 070/03 RMK AO2 T01331033
53915KARA ARA20161120105011211/20/16 10:50:31  5-MIN KARA 201650Z 04007KT 10SM CLR 14/M03 A3042 -430 30 -600 040/07 RMK AO2 SLP300 T01391033
53915KARA ARA20161120105510511/20/16 10:55:31  5-MIN KARA 201655Z 06006KT 10SM CLR 14/M03 A3042 -420 29 -500 060/06 RMK AO2 T01441033
53915KARA ARA20161120110010511/20/16 11:00:31  5-MIN KARA 201700Z 08006KT 10SM CLR 14/M04 A3041 -420 28 -500 070/06 RMK AO2 T01441039
53915KARA ARA20161120110510511/20/16 11:05:31  5-MIN KARA 201705Z 07005KT 10SM CLR 14/M04 A3041 -420 29 -600 060/05 RMK AO2 T01391039
53915KARA ARA20161120111010511/20/16 11:10:31  5-MIN KARA 201710Z 05005KT 10SM CLR 14/M03 A3041 -420 29 -500 050/05 RMK AO2 T01441033
53915KARA ARA20161120111510511/20/16 11:15:31  5-MIN KARA 201715Z VRB05KT 10SM CLR 14/M04 A3041 -420 28 -500 VRB/05 RMK AO2 T01441039
53915KARA ARA20161120112010511/20/16 11:20:31  5-MIN KARA 201720Z VRB05KT 10SM CLR 14/M03 A3040 -410 29 -500 VRB/05 RMK AO2 T01441033
53915KARA ARA20161120112510511/20/16 11:25:31  5-MIN KARA 201725Z 04007KT 10SM CLR 15/M03 A3040 -410 29 -400 040/07 RMK AO2 T01501028
53915KARA ARA20161120113010511/20/16 11:30:31  5-MIN KARA 201730Z VRB05KT 10SM CLR 15/M03 A3040 -410 29 -400 VRB/05 RMK AO2 T01501028
53915KARA ARA20161120113510511/20/16 11:35:31  5-MIN KARA 201735Z VRB03KT 10SM CLR 15/M03 A3040 -410 28 -400 VRB/03 RMK AO2 T01501033
53915KARA ARA20161120114010511/20/16 11:40:31  5-MIN KARA 201740Z VRB04KT 10SM CLR 15/M03 A3040 -410 29 -400 VRB/04 RMK AO2 T01501028
53915KARA ARA20161120114510511/20/16 11:45:31  5-MIN KARA 201745Z VRB03KT 10SM CLR 15/M03 A3040 -410 28 -400 VRB/03 RMK AO2 T01501033
53915KARA ARA20161120115012011/20/16 11:50:31  5-MIN KARA 201750Z 10SM CLR 16/M03 A3039 -400 27 -300 M /M RMK AO2 SLP291 T01561033 10156 20011 53001
53915KARA ARA20161120115510511/20/16 11:55:31  5-MIN KARA 201755Z 01007KT 10SM CLR 16/M03 A3039 -400 27 -300 010/07 RMK AO2 T01561033
53915KARA ARA20161120120010511/20/16 12:00:31  5-MIN KARA 201800Z 02005KT 10SM CLR 16/M03 A3039 -400 27 -300 010/05 RMK AO2 T01561033
53915KARA ARA20161120120510511/20/16 12:05:31  5-MIN KARA 201805Z 04004KT 10SM CLR 16/M03 A3038 -390 28 -300 040/04 RMK AO2 T01561028
53915KARA ARA20161120121010511/20/16 12:10:31  5-MIN KARA 201810Z 29003KT 10SM CLR 16/M03 A3038 -390 27 -300 290/03 RMK AO2 T01561033
53915KARA ARA20161120121510511/20/16 12:15:31  5-MIN KARA 201815Z VRB05KT 10SM CLR 16/M03 A3038 -390 27 -300 VRB/05 RMK AO2 T01561033
53915KARA ARA20161120122010511/20/16 12:20:31  5-MIN KARA 201820Z VRB03KT 10SM CLR 16/M03 A3037 -380 27 -300 VRB/03 RMK AO2 T01561033
53915KARA ARA20161120122510511/20/16 12:25:31  5-MIN KARA 201825Z VRB04KT 10SM CLR 16/M03 A3037 -380 27 -300 VRB/04 RMK AO2 T01611028
53915KARA ARA20161120123010511/20/16 12:30:31  5-MIN KARA 201830Z 09004KT 10SM CLR 16/M03 A3037 -380 26 -300 090/04 RMK AO2 T01611033
53915KARA ARA20161120123510511/20/16 12:35:31  5-MIN KARA 201835Z 01005KT 10SM CLR 16/M03 A3036 -380 26 -200 360/05 RMK AO2 T01611033
53915KARA ARA20161120124010511/20/16 12:40:31  5-MIN KARA 201840Z 04006KT 10SM CLR 16/M04 A3036 -380 25 -200 040/06 RMK AO2 T01611039
53915KARA ARA20161120124510511/20/16 12:45:31  5-MIN KARA 201845Z 00000KT 10SM CLR 17/M03 A3036 -370 25 -200 000/00 RMK AO2 T01671033
53915KARA ARA20161120125011211/20/16 12:50:31  5-MIN KARA 201850Z 34004KT 10SM CLR 17/M03 A3036 -370 25 -200 330/04 RMK AO2 SLP279 T01671033
53915KARA ARA20161120125510511/20/16 12:55:31  5-MIN KARA 201855Z 00000KT 10SM CLR 17/M03 A3036 -370 25 -200 000/00 RMK AO2 T01671033
53915KARA ARA20161120130010511/20/16 13:00:31  5-MIN KARA 201900Z VRB03KT 10SM CLR 17/M03 A3036 -370 25 -200 VRB/03 RMK AO2 T01671033
53915KARA ARA20161120130510511/20/16 13:05:31  5-MIN KARA 201905Z 00000KT 10SM CLR 17/M03 A3036 -370 25 -100 000/00 RMK AO2 T01721028
53915KARA ARA20161120131010511/20/16 13:10:31  5-MIN KARA 201910Z VRB03KT 10SM CLR 17/M03 A3035 -370 24 -100 VRB/03 RMK AO2 T01721033
53915KARA ARA20161120131510511/20/16 13:15:31  5-MIN KARA 201915Z 32004KT 10SM CLR 17/M03 A3035 -360 24 -100 320/04 RMK AO2 T01721033
53915KARA ARA20161120132010511/20/16 13:20:31  5-MIN KARA 201920Z 26003KT 10SM CLR 17/M03 A3035 -360 25 -200 260/03 RMK AO2 T01671033
53915KARA ARA20161120132510511/20/16 13:25:31  5-MIN KARA 201925Z 21003KT 10SM CLR 17/M04 A3035 -360 24 -200 210/03 RMK AO2 T01671039
53915KARA ARA20161120133010511/20/16 13:30:31  5-MIN KARA 201930Z 00000KT 10SM CLR 17/M03 A3034 -350 24 -100 000/00 RMK AO2 T01721033
53915KARA ARA20161120133510211/20/16 13:35:31  5-MIN KARA 201935Z 00000KT 10SM CLR 18/M05 A3034 -360 20 0 000/00 RMK AO2 T01781050
53915KARA ARA20161120134010211/20/16 13:40:31  5-MIN KARA 201940Z VRB05KT 10SM CLR 18/M04 A3034 -350 21 0 VRB/05 RMK AO2 T01781044
53915KARA ARA20161120134510211/20/16 13:45:31  5-MIN KARA 201945Z 32005KT 10SM CLR 18/M04 A3033 -350 22 0 320/05 RMK AO2 T01781039
53915KARA ARA20161120135010911/20/16 13:50:31  5-MIN KARA 201950Z VRB05KT 10SM CLR 18/M04 A3034 -350 21 0 VRB/05 RMK AO2 SLP271 T01831039
53915KARA ARA20161120135510511/20/16 13:55:31  5-MIN KARA 201955Z 27005KT 10SM CLR 17/M04 A3033 -350 23 -100 270/05 RMK AO2 T01721039
53915KARA ARA20161120140010211/20/16 14:00:31  5-MIN KARA 202000Z 33003KT 10SM CLR 18/M04 A3033 -350 21 0 330/03 RMK AO2 T01781044
53915KARA ARA20161120140510211/20/16 14:05:31  5-MIN KARA 202005Z 02005KT 10SM CLR 18/M05 A3033 -340 20 0 020/05 RMK AO2 T01831050
53915KARA ARA20161120141010411/20/16 14:10:31  5-MIN KARA 202010Z 03004KT 10SM CLR 19/M04 A3033 -340 20 100 030/04 RMK AO2 T01891044
53915KARA ARA20161120141510211/20/16 14:15:31  5-MIN KARA 202015Z VRB03KT 10SM CLR 18/M04 A3033 -340 21 0 VRB/03 RMK AO2 T01831044
53915KARA ARA20161120142010211/20/16 14:20:31  5-MIN KARA 202020Z 31003KT 10SM CLR 18/M04 A3033 -340 22 0 310/03 RMK AO2 T01781039
53915KARA ARA20161120142510211/20/16 14:25:31  5-MIN KARA 202025Z VRB03KT 10SM CLR 18/M04 A3032 -340 21 0 VRB/03 RMK AO2 T01831039
53915KARA ARA20161120143010211/20/16 14:30:31  5-MIN KARA 202030Z VRB03KT 10SM CLR 18/M04 A3032 -340 22 0 VRB/03 RMK AO2 T01781039
53915KARA ARA20161120143510211/20/16 14:35:31  5-MIN KARA 202035Z 36006KT 10SM CLR 18/M04 A3032 -330 21 0 360/06 RMK AO2 T01831044
53915KARA ARA20161120144010711/20/16 14:40:31  5-MIN KARA 202040Z AUTO 00000KT 10SM CLR 18/M05 A3032 -330 20 0 000/00 RMK AO2 T01831050
53915KARA ARA20161120144510911/20/16 14:45:31  5-MIN KARA 202045Z AUTO 01004KT 10SM CLR 19/M05 A3031 -330 19 100 010/04 RMK AO2 T01891050
53915KARA ARA20161120145011711/20/16 14:50:31  5-MIN KARA 202050Z 35005KT 10SM CLR 19/M04 A3031 -330 20 100 350/05 RMK AO2 SLP264 T01891044 58013
53915KARA ARA20161120145510411/20/16 14:55:31  5-MIN KARA 202055Z VRB04KT 10SM CLR 19/M04 A3031 -330 21 100 VRB/04 RMK AO2 T01891039
53915KARA ARA20161120150010211/20/16 15:00:31  5-MIN KARA 202100Z 00000KT 10SM CLR 18/M04 A3031 -330 21 0 000/00 RMK AO2 T01831044
53915KARA ARA20161120150510211/20/16 15:05:31  5-MIN KARA 202105Z 33005KT 10SM CLR 18/M04 A3031 -330 21 0 330/05 RMK AO2 T01831044
53915KARA ARA20161120151010211/20/16 15:10:31  5-MIN KARA 202110Z 34005KT 10SM CLR 18/M04 A3031 -320 21 0 340/05 RMK AO2 T01831039
53915KARA ARA20161120151510211/20/16 15:15:31  5-MIN KARA 202115Z VRB03KT 10SM CLR 18/M04 A3030 -320 21 0 VRB/03 RMK AO2 T01831039
53915KARA ARA20161120152010411/20/16 15:20:31  5-MIN KARA 202120Z 00000KT 10SM CLR 19/M04 A3031 -320 21 100 000/00 RMK AO2 T01891039
53915KARA ARA20161120152510211/20/16 15:25:31  5-MIN KARA 202125Z 33006KT 10SM CLR 18/M04 A3030 -320 21 0 330/06 RMK AO2 T01831039
53915KARA ARA20161120153010211/20/16 15:30:31  5-MIN KARA 202130Z 35003KT 10SM CLR 18/M04 A3030 -320 21 0 350/03 RMK AO2 T01831044
53915KARA ARA20161120153510211/20/16 15:35:31  5-MIN KARA 202135Z VRB04KT 10SM CLR 18/M05 A3031 -320 20 0 VRB/04 RMK AO2 T01831050
53915KARA ARA20161120154010211/20/16 15:40:31  5-MIN KARA 202140Z 00000KT 10SM CLR 18/M06 A3030 -320 19 0 000/00 RMK AO2 T01831056
53915KARA ARA20161120154510211/20/16 15:45:31  5-MIN KARA 202145Z 30004KT 10SM CLR 18/M05 A3031 -320 20 0 300/04 RMK AO2 T01831050
53915KARA ARA20161120155010911/20/16 15:50:31  5-MIN KARA 202150Z 33004KT 10SM CLR 18/M05 A3031 -320 20 0 330/04 RMK AO2 SLP262 T01781050
53915KARA ARA20161120155510211/20/16 15:55:31  5-MIN KARA 202155Z VRB04KT 10SM CLR 18/M06 A3031 -320 20 0 VRB/04 RMK AO2 T01781056
53915KARA ARA20161120160010211/20/16 16:00:31  5-MIN KARA 202200Z 02003KT 10SM CLR 18/M06 A3031 -320 19 0 020/03 RMK AO2 T01831056
53915KARA ARA20161120160510211/20/16 16:05:31  5-MIN KARA 202205Z 31003KT 10SM CLR 18/M06 A3030 -320 19 0 300/03 RMK AO2 T01831056
53915KARA ARA20161120161010211/20/16 16:10:31  5-MIN KARA 202210Z 33003KT 10SM CLR 18/M04 A3030 -320 21 0 330/03 RMK AO2 T01781044
53915KARA ARA20161120161510211/20/16 16:15:31  5-MIN KARA 202215Z 01004KT 10SM CLR 18/M05 A3030 -320 20 0 010/04 RMK AO2 T01781050
53915KARA ARA20161120162010211/20/16 16:20:31  5-MIN KARA 202220Z 36003KT 10SM CLR 18/M05 A3030 -320 20 0 360/03 RMK AO2 T01781050
53915KARA ARA20161120162510211/20/16 16:25:31  5-MIN KARA 202225Z 02003KT 10SM CLR 18/M05 A3030 -320 20 0 020/03 RMK AO2 T01781050
53915KARA ARA20161120163010211/20/16 16:30:31  5-MIN KARA 202230Z 35003KT 10SM CLR 17/M05 A3030 -320 21 0 350/03 RMK AO2 T01721050
53915KARA ARA20161120163510211/20/16 16:35:31  5-MIN KARA 202235Z 36004KT 10SM CLR 17/M04 A3030 -320 22 0 360/04 RMK AO2 T01721044
53915KARA ARA20161120164010511/20/16 16:40:31  5-MIN KARA 202240Z 35004KT 10SM CLR 17/M04 A3030 -310 23 -100 350/04 RMK AO2 T01671044
53915KARA ARA20161120164510511/20/16 16:45:31  5-MIN KARA 202245Z 35004KT 10SM CLR 17/M04 A3030 -310 23 -100 350/04 RMK AO2 T01671044
53915KARA ARA20161120165011211/20/16 16:50:31  5-MIN KARA 202250Z 36004KT 10SM CLR 16/M05 A3030 -310 23 -200 350/04 RMK AO2 SLP258 T01611050
53915KARA ARA20161120165510511/20/16 16:55:31  5-MIN KARA 202255Z 35004KT 10SM CLR 16/M06 A3029 -310 22 -200 350/04 RMK AO2 T01611056
53915KARA ARA20161120170010511/20/16 17:00:31  5-MIN KARA 202300Z 36004KT 10SM CLR 16/M04 A3029 -310 25 -200 360/04 RMK AO2 T01561044
53915KARA ARA20161120170510511/20/16 17:05:31  5-MIN KARA 202305Z 36004KT 10SM CLR 15/M04 A3029 -310 25 -300 360/04 RMK AO2 T01501044
53915KARA ARA20161120171010511/20/16 17:10:31  5-MIN KARA 202310Z 36003KT 10SM CLR 15/M04 A3029 -310 25 -300 360/03 RMK AO2 T01501044
53915KARA ARA20161120171510511/20/16 17:15:31  5-MIN KARA 202315Z 01003KT 10SM CLR 15/M04 A3029 -310 25 -300 010/03 RMK AO2 T01501044
53915KARA ARA20161120172010511/20/16 17:20:31  5-MIN KARA 202320Z 03003KT 10SM CLR 14/M04 A3029 -310 29 -400 030/03 RMK AO2 T01391039
53915KARA ARA20161120172510511/20/16 17:25:31  5-MIN KARA 202325Z 00000KT 10SM CLR 13/M02 A3029 -310 35 -600 000/00 RMK AO2 T01281022
53915KARA ARA20161120173010511/20/16 17:30:31  5-MIN KARA 202330Z 05003KT 10SM CLR 13/M03 A3029 -310 33 -600 050/03 RMK AO2 T01281028
53915KARA ARA20161120173510511/20/16 17:35:31  5-MIN KARA 202335Z 05003KT 10SM CLR 11/M02 A3029 -310 41 -800 050/03 RMK AO2 T01111017
53915KARA ARA20161120174010511/20/16 17:40:31  5-MIN KARA 202340Z 00000KT 10SM CLR 11/M02 A3029 -310 41 -800 000/00 RMK AO2 T01111017
53915KARA ARA20161120174510511/20/16 17:45:31  5-MIN KARA 202345Z 00000KT 10SM CLR 11/M01 A3029 -310 42 -800 000/00 RMK AO2 T01111011
53915KARA ARA20161120175013011/20/16 17:50:31  5-MIN KARA 202350Z 00000KT 10SM CLR 11/M01 A3029 -310 42 -800 000/00 RMK AO2 SLP257 T01111011 10189 20111 56027
53915KARA ARA20161120175510511/20/16 17:55:31  5-MIN KARA 202355Z 00000KT 10SM CLR 11/M01 A3029 -310 44 -800 000/00 RMK AO2 T01111006
53915KARA ARA20161120180010411/20/16 18:00:31  5-MIN KARA 210000Z 07003KT 10SM CLR 11/01 A3029 -310 50 -800 070/03 RMK AO2 T01060006
53915KARA ARA20161120180510411/20/16 18:05:31  5-MIN KARA 210005Z 00000KT 10SM CLR 10/01 A3029 -310 54 -900 000/00 RMK AO2 T01000011
53915KARA ARA20161120181010411/20/16 18:10:31  5-MIN KARA 210010Z 00000KT 10SM CLR 10/01 A3029 -310 54 -900 000/00 RMK AO2 T01000011
53915KARA ARA20161120181510411/20/16 18:15:31  5-MIN KARA 210015Z 00000KT 10SM CLR 10/01 A3029 -310 54 -900 000/00 RMK AO2 T01000011
53915KARA ARA20161120182010411/20/16 18:20:31  5-MIN KARA 210020Z 00000KT 10SM CLR 10/02 A3029 -310 58 -900 000/00 RMK AO2 T01000022
53915KARA ARA20161120182510511/20/16 18:25:31  5-MIN KARA 210025Z 00000KT 10SM CLR 09/02 A3029 -310 60 -1000 000/00 RMK AO2 T00940022
53915KARA ARA20161120183010511/20/16 18:30:31  5-MIN KARA 210030Z 00000KT 10SM CLR 09/03 A3029 -310 63 -1000 000/00 RMK AO2 T00940028
53915KARA ARA20161120183510511/20/16 18:35:31  5-MIN KARA 210035Z 00000KT 10SM CLR 09/03 A3029 -310 65 -1000 000/00 RMK AO2 T00890028
53915KARA ARA20161120184010511/20/16 18:40:31  5-MIN KARA 210040Z 00000KT 10SM CLR 08/02 A3029 -310 65 -1100 000/00 RMK AO2 T00830022
53915KARA ARA20161120184510511/20/16 18:45:31  5-MIN KARA 210045Z 00000KT 10SM CLR 08/02 A3029 -310 63 -1100 000/00 RMK AO2 T00830017
53915KARA ARA20161120185011211/20/16 18:50:31  5-MIN KARA 210050Z 00000KT 10SM CLR 08/02 A3029 -310 68 -1200 000/00 RMK AO2 SLP256 T00780022
53915KARA ARA20161120185510511/20/16 18:55:31  5-MIN KARA 210055Z 00000KT 10SM CLR 08/02 A3029 -310 68 -1200 000/00 RMK AO2 T00780022
53915KARA ARA20161120190010511/20/16 19:00:31  5-MIN KARA 210100Z 25003KT 10SM CLR 08/02 A3029 -310 68 -1200 250/03 RMK AO2 T00780022
53915KARA ARA20161120190510511/20/16 19:05:31  5-MIN KARA 210105Z 25003KT 10SM CLR 08/02 A3029 -310 65 -1200 240/03 RMK AO2 T00780017
53915KARA ARA20161120191010511/20/16 19:10:31  5-MIN KARA 210110Z 25003KT 10SM CLR 08/02 A3029 -310 65 -1200 250/03 RMK AO2 T00780017
53915KARA ARA20161120191510511/20/16 19:15:31  5-MIN KARA 210115Z 00000KT 10SM CLR 08/01 A3029 -310 62 -1200 000/00 RMK AO2 T00780011
53915KARA ARA20161120192010511/20/16 19:20:31  5-MIN KARA 210120Z 00000KT 10SM CLR 08/01 A3029 -310 62 -1200 000/00 RMK AO2 T00780011
53915KARA ARA20161120192510511/20/16 19:25:31  5-MIN KARA 210125Z 00000KT 10SM CLR 07/02 A3029 -310 68 -1200 000/00 RMK AO2 T00720017
53915KARA ARA20161120193010511/20/16 19:30:31  5-MIN KARA 210130Z 00000KT 10SM CLR 07/02 A3029 -310 68 -1200 000/00 RMK AO2 T00720017
53915KARA ARA20161120193510511/20/16 19:35:31  5-MIN KARA 210135Z 00000KT 10SM CLR 07/02 A3029 -310 70 -1300 000/00 RMK AO2 T00670017
53915KARA ARA20161120194010511/20/16 19:40:31  5-MIN KARA 210140Z 00000KT 10SM CLR 06/02 A3029 -310 73 -1400 000/00 RMK AO2 T00610017
53915KARA ARA20161120194510511/20/16 19:45:31  5-MIN KARA 210145Z 00000KT 10SM CLR 07/02 A3029 -310 70 -1300 000/00 RMK AO2 T00670017
53915KARA ARA20161120195011211/20/16 19:50:31  5-MIN KARA 210150Z 00000KT 10SM CLR 07/02 A3029 -310 70 -1300 000/00 RMK AO2 SLP255 T00670017
53915KARA ARA20161120195510511/20/16 19:55:31  5-MIN KARA 210155Z 00000KT 10SM CLR 07/01 A3029 -310 67 -1300 000/00 RMK AO2 T00670011
53915KARA ARA20161120200010511/20/16 20:00:31  5-MIN KARA 210200Z 00000KT 10SM CLR 06/02 A3029 -310 73 -1400 000/00 RMK AO2 T00610017
53915KARA ARA20161120200511011/20/16 20:05:31  5-MIN KARA 210205Z AUTO 00000KT 10SM CLR 06/02 A3029 -310 73 -1400 000/00 RMK AO2 T00610017
53915KARA ARA20161120201011011/20/16 20:10:31  5-MIN KARA 210210Z AUTO 00000KT 10SM CLR 06/02 A3029 -310 73 -1400 000/00 RMK AO2 T00610017
53915KARA ARA20161120201511011/20/16 20:15:31  5-MIN KARA 210215Z AUTO 00000KT 10SM CLR 06/02 A3029 -310 76 -1400 000/00 RMK AO2 T00560017
53915KARA ARA20161120202011011/20/16 20:20:31  5-MIN KARA 210220Z AUTO 00000KT 10SM CLR 06/02 A3029 -310 76 -1400 000/00 RMK AO2 T00560017
53915KARA ARA20161120202511011/20/16 20:25:31  5-MIN KARA 210225Z AUTO 00000KT 10SM CLR 06/02 A3029 -310 76 -1400 000/00 RMK AO2 T00560017
53915KARA ARA20161120203011011/20/16 20:30:31  5-MIN KARA 210230Z AUTO 00000KT 10SM CLR 05/02 A3029 -310 79 -1500 000/00 RMK AO2 T00500017
53915KARA ARA20161120203511011/20/16 20:35:31  5-MIN KARA 210235Z AUTO 00000KT 10SM CLR 05/02 A3029 -310 79 -1500 000/00 RMK AO2 T00500017
53915KARA ARA20161120204011011/20/16 20:40:31  5-MIN KARA 210240Z AUTO 00000KT 10SM CLR 06/02 A3029 -300 76 -1400 000/00 RMK AO2 T00560017
53915KARA ARA20161120204511011/20/16 20:45:31  5-MIN KARA 210245Z AUTO 00000KT 10SM CLR 06/02 A3028 -300 73 -1400 000/00 RMK AO2 T00610017
53915KARA ARA20161120205012311/20/16 20:50:31  5-MIN KARA 210250Z AUTO 00000KT 10SM CLR 06/02 A3028 -300 79 -1400 000/00 RMK AO2 SLP254 T00560022 56007
53915KARA ARA20161120205511011/20/16 20:55:31  5-MIN KARA 210255Z AUTO 00000KT 10SM CLR 05/02 A3028 -300 82 -1500 000/00 RMK AO2 T00500022
53915KARA ARA20161120210011011/20/16 21:00:31  5-MIN KARA 210300Z AUTO 00000KT 10SM CLR 06/02 A3028 -300 76 -1400 000/00 RMK AO2 T00560017
53915KARA ARA20161120210511011/20/16 21:05:31  5-MIN KARA 210305Z AUTO 00000KT 10SM CLR 06/02 A3028 -300 76 -1400 000/00 RMK AO2 T00560017
53915KARA ARA20161120211011011/20/16 21:10:31  5-MIN KARA 210310Z AUTO 00000KT 10SM CLR 06/02 A3028 -300 79 -1400 000/00 RMK AO2 T00560022
53915KARA ARA20161121181510411/21/16 18:15:31  5-MIN KARA 220015Z 16003KT 10SM CLR 12/06 A3015 -180 68 -500 160/03 RMK AO2 T01170061
53915KARA ARA20161121182010411/21/16 18:20:31  5-MIN KARA 220020Z 16004KT 10SM CLR 12/06 A3016 -190 68 -500 160/04 RMK AO2 T01170061
53915KARA ARA20161121182510411/21/16 18:25:31  5-MIN KARA 220025Z 16004KT 10SM CLR 12/06 A3016 -190 68 -500 160/04 RMK AO2 T01170061
53915KARA ARA20161121183010411/21/16 18:30:31  5-MIN KARA 220030Z 17005KT 10SM CLR 12/07 A3016 -190 68 -500 170/05 RMK AO2 T01220067
53915KARA ARA20161121183510911/21/16 18:35:31  5-MIN KARA 220035Z AUTO 16005KT 10SM CLR 13/06 A3016 -190 63 -400 160/05 RMK AO2 T01280061
53915KARA ARA20161121184010911/21/16 18:40:31  5-MIN KARA 220040Z AUTO 16005KT 10SM CLR 12/06 A3016 -190 66 -500 150/05 RMK AO2 T01220061
53915KARA ARA20161121184510911/21/16 18:45:31  5-MIN KARA 220045Z AUTO 16005KT 10SM CLR 12/06 A3016 -190 68 -500 160/05 RMK AO2 T01170061
53915KARA ARA20161121185011611/21/16 18:50:31  5-MIN KARA 220050Z AUTO 16005KT 10SM CLR 12/06 A3016 -190 66 -500 160/05 RMK AO2 SLP211 T01220061
53915KARA ARA20161121185510911/21/16 18:55:31  5-MIN KARA 220055Z AUTO 16005KT 10SM CLR 12/06 A3016 -190 63 -500 160/05 RMK AO2 T01220056
53915KARA ARA20161121190010911/21/16 19:00:31  5-MIN KARA 220100Z AUTO 16005KT 10SM CLR 12/06 A3016 -190 66 -600 160/05 RMK AO2 T01170056
53915KARA ARA20161121190510911/21/16 19:05:31  5-MIN KARA 220105Z AUTO 17004KT 10SM CLR 11/06 A3016 -190 68 -600 160/04 RMK AO2 T01110056
53915KARA ARA20161121191010911/21/16 19:10:31  5-MIN KARA 220110Z AUTO 16004KT 10SM CLR 10/06 A3017 -200 74 -800 160/04 RMK AO2 T01000056
53915KARA ARA20161121191510911/21/16 19:15:31  5-MIN KARA 220115Z AUTO 17004KT 10SM CLR 11/06 A3017 -200 71 -700 170/04 RMK AO2 T01060056
53915KARA ARA20161121192010911/21/16 19:20:31  5-MIN KARA 220120Z AUTO 17004KT 10SM CLR 11/06 A3017 -200 71 -600 160/04 RMK AO2 T01110061
53915KARA ARA20161121192510911/21/16 19:25:31  5-MIN KARA 220125Z AUTO 16004KT 10SM CLR 11/06 A3017 -200 68 -600 160/04 RMK AO2 T01110056
53915KARA ARA20161121193010911/21/16 19:30:31  5-MIN KARA 220130Z AUTO 17004KT 10SM CLR 11/06 A3017 -200 71 -700 170/04 RMK AO2 T01060056
53915KARA ARA20161121193510911/21/16 19:35:31  5-MIN KARA 220135Z AUTO 16003KT 10SM CLR 10/06 A3017 -200 74 -800 160/03 RMK AO2 T01000056
53915KARA ARA20161121194010911/21/16 19:40:31  5-MIN KARA 220140Z AUTO 15003KT 10SM CLR 09/05 A3017 -200 76 -900 150/03 RMK AO2 T00890050
53915KARA ARA20161121194510911/21/16 19:45:31  5-MIN KARA 220145Z AUTO 00000KT 10SM CLR 11/06 A3017 -200 71 -700 000/00 RMK AO2 T01060056
53915KARA ARA20161121195011611/21/16 19:50:31  5-MIN KARA 220150Z AUTO 00000KT 10SM CLR 11/06 A3017 -200 68 -600 000/00 RMK AO2 SLP216 T01110056
53915KARA ARA20161121195510911/21/16 19:55:31  5-MIN KARA 220155Z AUTO 00000KT 10SM CLR 10/06 A3017 -200 74 -800 000/00 RMK AO2 T01000056
53915KARA ARA20161121200010911/21/16 20:00:31  5-MIN KARA 220200Z AUTO 00000KT 10SM CLR 09/06 A3017 -200 76 -800 000/00 RMK AO2 T00940056
53915KARA ARA20161121200510911/21/16 20:05:31  5-MIN KARA 220205Z AUTO 14003KT 10SM CLR 09/06 A3017 -200 76 -800 140/03 RMK AO2 T00940056
53915KARA ARA20161121201010911/21/16 20:10:31  5-MIN KARA 220210Z AUTO 14004KT 10SM CLR 11/06 A3017 -200 71 -700 140/04 RMK AO2 T01060056
53915KARA ARA20161121201510911/21/16 20:15:31  5-MIN KARA 220215Z AUTO 13004KT 10SM CLR 10/06 A3017 -200 74 -800 130/04 RMK AO2 T01000056
53915KARA ARA20161121202010911/21/16 20:20:31  5-MIN KARA 220220Z AUTO 12004KT 10SM CLR 10/06 A3017 -200 74 -800 120/04 RMK AO2 T01000056
53915KARA ARA20161121202510911/21/16 20:25:31  5-MIN KARA 220225Z AUTO 12004KT 10SM CLR 09/06 A3017 -200 79 -900 120/04 RMK AO2 T00890056
53915KARA ARA20161121203010911/21/16 20:30:31  5-MIN KARA 220230Z AUTO 13004KT 10SM CLR 09/06 A3017 -200 76 -800 130/04 RMK AO2 T00940056
53915KARA ARA20161121203510911/21/16 20:35:31  5-MIN KARA 220235Z AUTO 13005KT 10SM CLR 09/06 A3017 -200 76 -800 130/05 RMK AO2 T00940056
53915KARA ARA20161121204010911/21/16 20:40:31  5-MIN KARA 220240Z AUTO 13004KT 10SM CLR 09/06 A3017 -200 76 -800 130/04 RMK AO2 T00940056
53915KARA ARA20161121204510911/21/16 20:45:31  5-MIN KARA 220245Z AUTO 14004KT 10SM CLR 09/06 A3017 -200 76 -800 140/04 RMK AO2 T00940056
53915KARA ARA20161121205012211/21/16 20:50:31  5-MIN KARA 220250Z AUTO 13004KT 10SM CLR 09/06 A3017 -200 76 -800 130/04 RMK AO2 SLP215 T00940056 55003
53915KARA ARA20161121205510911/21/16 20:55:31  5-MIN KARA 220255Z AUTO 13004KT 10SM CLR 09/06 A3017 -200 79 -900 130/04 RMK AO2 T00890056
53915KARA ARA20161121210010911/21/16 21:00:31  5-MIN KARA 220300Z AUTO 13004KT 10SM CLR 09/06 A3017 -200 79 -900 130/04 RMK AO2 T00890056
53915KARA ARA20161121210510911/21/16 21:05:31  5-MIN KARA 220305Z AUTO 13004KT 10SM CLR 09/06 A3016 -190 79 -900 130/04 RMK AO2 T00890056
53915KARA ARA20161121211010911/21/16 21:10:31  5-MIN KARA 220310Z AUTO 13004KT 10SM CLR 09/06 A3016 -190 79 -900 130/04 RMK AO2 T00890056
53915KARA ARA20161121211510911/21/16 21:15:31  5-MIN KARA 220315Z AUTO 14004KT 10SM CLR 09/06 A3017 -190 79 -900 140/04 RMK AO2 T00890056
53915KARA ARA20161121212010911/21/16 21:20:31  5-MIN KARA 220320Z AUTO 14005KT 10SM CLR 09/06 A3017 -200 79 -900 140/05 RMK AO2 T00890056
53915KARA ARA20161121212510911/21/16 21:25:31  5-MIN KARA 220325Z AUTO 15004KT 10SM CLR 09/06 A3017 -200 83 -900 140/04 RMK AO2 T00890061
53915KARA ARA20161121213010911/21/16 21:30:31  5-MIN KARA 220330Z AUTO 14004KT 10SM CLR 09/06 A3017 -200 79 -800 140/04 RMK AO2 T00940061
53915KARA ARA20161121213510911/21/16 21:35:31  5-MIN KARA 220335Z AUTO 13003KT 10SM CLR 09/06 A3017 -200 83 -900 130/03 RMK AO2 T00890061
53915KARA ARA20161121214010911/21/16 21:40:31  5-MIN KARA 220340Z AUTO 13003KT 10SM CLR 09/06 A3017 -200 83 -900 130/03 RMK AO2 T00890061
53915KARA ARA20161121214510911/21/16 21:45:31  5-MIN KARA 220345Z AUTO 00000KT 10SM CLR 09/06 A3018 -200 79 -800 000/00 RMK AO2 T00940061
53915KARA ARA20161121215011611/21/16 21:50:31  5-MIN KARA 220350Z AUTO 00000KT 10SM CLR 09/06 A3018 -210 79 -800 000/00 RMK AO2 SLP218 T00940061
53915KARA ARA20161121215510911/21/16 21:55:31  5-MIN KARA 220355Z AUTO 00000KT 10SM CLR 09/06 A3018 -210 76 -800 000/00 RMK AO2 T00940056
53915KARA ARA20161121220010911/21/16 22:00:31  5-MIN KARA 220400Z AUTO 00000KT 10SM CLR 09/06 A3018 -210 79 -800 000/00 RMK AO2 T00940061
53915KARA ARA20161121220511011/21/16 22:05:31  5-MIN KARA 220405Z AUTO 00000KT 10SM CLR 08/06 A3018 -210 86 -1000 000/00 RMK AO2 T00830061
53915KARA ARA20161121221011011/21/16 22:10:31  5-MIN KARA 220410Z AUTO 00000KT 10SM CLR 08/06 A3018 -210 82 -1000 000/00 RMK AO2 T00830056
53915KARA ARA20161121221510911/21/16 22:15:31  5-MIN KARA 220415Z AUTO 00000KT 10SM CLR 09/06 A3018 -210 79 -900 000/00 RMK AO2 T00890056
53915KARA ARA20161121222010911/21/16 22:20:31  5-MIN KARA 220420Z AUTO 13003KT 10SM CLR 09/06 A3019 -210 76 -800 130/03 RMK AO2 T00940056
53915KARA ARA20161121222510911/21/16 22:25:31  5-MIN KARA 220425Z AUTO 13003KT 10SM CLR 09/06 A3019 -220 76 -800 130/03 RMK AO2 T00940056
53915KARA ARA20161121223010911/21/16 22:30:31  5-MIN KARA 220430Z AUTO 13003KT 10SM CLR 09/06 A3019 -220 76 -900 130/03 RMK AO2 T00940056
53915KARA ARA20161121223511011/21/16 22:35:31  5-MIN KARA 220435Z AUTO 00000KT 10SM CLR 08/06 A3019 -220 82 -1000 000/00 RMK AO2 T00830056
53915KARA ARA20161121224011011/21/16 22:40:31  5-MIN KARA 220440Z AUTO 00000KT 10SM CLR 08/06 A3019 -220 82 -1000 000/00 RMK AO2 T00830056
53915KARA ARA20161121224511211/21/16 22:45:31  5-MIN KARA 220445Z AUTO 00000KT 10SM FEW042 09/06 A3019 -220 76 -900 000/00 RMK AO2 T00940056
53915KARA ARA20161121225011911/21/16 22:50:31  5-MIN KARA 220450Z AUTO 10003KT 10SM FEW042 09/06 A3019 -220 76 -900 090/03 RMK AO2 SLP223 T00940056
53915KARA ARA20161121225511211/21/16 22:55:31  5-MIN KARA 220455Z AUTO 00000KT 10SM FEW042 09/05 A3019 -220 76 -900 000/00 RMK AO2 T00890050
53915KARA ARA20161121230011211/21/16 23:00:31  5-MIN KARA 220500Z AUTO 00000KT 10SM SCT042 09/06 A3019 -220 79 -900 000/00 RMK AO2 T00890056
53915KARA ARA20161121230511311/21/16 23:05:31  5-MIN KARA 220505Z AUTO 00000KT 10SM SCT043 08/06 A3019 -220 82 -1000 000/00 RMK AO2 T00830056
53915KARA ARA20161121231011311/21/16 23:10:31  5-MIN KARA 220510Z AUTO 00000KT 10SM SCT043 08/05 A3019 -220 82 -1100 000/00 RMK AO2 T00780050
53915KARA ARA20161121231511311/21/16 23:15:31  5-MIN KARA 220515Z AUTO 10003KT 10SM SCT043 08/05 A3019 -220 79 -1000 100/03 RMK AO2 T00830050
53915KARA ARA20161121232011311/21/16 23:20:31  5-MIN KARA 220520Z AUTO 10003KT 10SM SCT043 08/05 A3018 -210 79 -1000 100/03 RMK AO2 T00830050
53915KARA ARA20161121232511211/21/16 23:25:31  5-MIN KARA 220525Z AUTO 10004KT 10SM SCT044 09/05 A3018 -210 76 -900 100/04 RMK AO2 T00890050
53915KARA ARA20161121233011311/21/16 23:30:31  5-MIN KARA 220530Z AUTO 10004KT 10SM SCT044 08/05 A3018 -210 79 -1000 100/04 RMK AO2 T00830050
53915KARA ARA20161121233511311/21/16 23:35:31  5-MIN KARA 220535Z AUTO 11004KT 10SM SCT044 08/05 A3018 -210 79 -1000 110/04 RMK AO2 T00830050
53915KARA ARA20161121234011311/21/16 23:40:31  5-MIN KARA 220540Z AUTO 11005KT 10SM SCT043 08/04 A3018 -200 76 -1000 110/05 RMK AO2 T00830044
53915KARA ARA20161121234511311/21/16 23:45:31  5-MIN KARA 220545Z AUTO 12006KT 10SM SCT043 08/04 A3017 -200 79 -1000 110/06 RMK AO2 T00780044
53915KARA ARA20161121235014811/21/16 23:50:31  5-MIN KARA 220550Z AUTO 11005KT 10SM SCT043 07/04 A3017 -200 82 -1100 110/05 RMK AO2 SLP216 T00720044 10128 20072 402170006 50006
53915KARA ARA20161121235511311/21/16 23:55:31  5-MIN KARA 220555Z AUTO 12005KT 10SM SCT043 07/04 A3017 -200 82 -1100 120/05 RMK AO2 T00720044
53915KARA ARA20161122000011311/22/16 00:00:31  5-MIN KARA 220600Z AUTO 12005KT 10SM FEW043 08/04 A3016 -190 79 -1000 120/05 RMK AO2 T00780044
53915KARA ARA20161122000511311/22/16 00:05:31  5-MIN KARA 220605Z AUTO 13004KT 10SM FEW043 07/04 A3016 -190 82 -1100 130/04 RMK AO2 T00720044
53915KARA ARA20161122001011311/22/16 00:10:31  5-MIN KARA 220610Z AUTO 13005KT 10SM FEW043 07/04 A3016 -190 82 -1100 130/05 RMK AO2 T00720044
53915KARA ARA20161122001511011/22/16 00:15:31  5-MIN KARA 220615Z AUTO 12006KT 10SM CLR 07/04 A3015 -180 82 -1100 120/06 RMK AO2 T00720044
53915KARA ARA20161122002011011/22/16 00:20:31  5-MIN KARA 220620Z AUTO 13006KT 10SM CLR 07/04 A3015 -180 82 -1100 130/06 RMK AO2 T00670039
53915KARA ARA20161122002511011/22/16 00:25:31  5-MIN KARA 220625Z AUTO 13007KT 10SM CLR 07/04 A3014 -180 82 -1100 130/07 RMK AO2 T00670039
53915KARA ARA20161122003011011/22/16 00:30:31  5-MIN KARA 220630Z AUTO 13006KT 10SM CLR 07/03 A3014 -170 79 -1100 130/06 RMK AO2 T00670033
53915KARA ARA20161122003511011/22/16 00:35:31  5-MIN KARA 220635Z AUTO 14008KT 10SM CLR 08/04 A3014 -170 79 -1000 140/08 RMK AO2 T00780044
53915KARA ARA20161122004010911/22/16 00:40:31  5-MIN KARA 220640Z AUTO 14008KT 10SM CLR 09/05 A3014 -170 76 -900 140/08 RMK AO2 T00890050
53915KARA ARA20161122004510911/22/16 00:45:31  5-MIN KARA 220645Z AUTO 14007KT 10SM CLR 09/05 A3014 -170 76 -900 140/07 RMK AO2 T00890050
53915KARA ARA20161122005011611/22/16 00:50:31  5-MIN KARA 220650Z AUTO 14007KT 10SM CLR 09/05 A3014 -170 76 -900 140/07 RMK AO2 SLP205 T00890050
53915KARA ARA20161122005510911/22/16 00:55:31  5-MIN KARA 220655Z AUTO 13007KT 10SM CLR 09/05 A3014 -170 76 -900 130/07 RMK AO2 T00890050
53915KARA ARA20161122010010911/22/16 01:00:31  5-MIN KARA 220700Z AUTO 14007KT 10SM CLR 09/05 A3014 -170 76 -900 140/07 RMK AO2 T00890050
53915KARA ARA20161122010510911/22/16 01:05:31  5-MIN KARA 220705Z AUTO 14007KT 10SM CLR 09/05 A3014 -170 76 -900 140/07 RMK AO2 T00890050
53915KARA ARA20161122011010911/22/16 01:10:31  5-MIN KARA 220710Z AUTO 13008KT 10SM CLR 09/05 A3014 -170 76 -900 130/08 RMK AO2 T00890050
53915KARA ARA20161122011510911/22/16 01:15:31  5-MIN KARA 220715Z AUTO 13008KT 10SM CLR 09/05 A3014 -170 76 -900 130/08 RMK AO2 T00890050
53915KARA ARA20161122012010911/22/16 01:20:31  5-MIN KARA 220720Z AUTO 13007KT 10SM CLR 09/05 A3013 -170 76 -900 130/07 RMK AO2 T00890050
53915KARA ARA20161122012510911/22/16 01:25:31  5-MIN KARA 220725Z AUTO 13007KT 10SM CLR 09/05 A3013 -160 76 -900 130/07 RMK AO2 T00890050
53915KARA ARA20161122013010911/22/16 01:30:31  5-MIN KARA 220730Z AUTO 12006KT 10SM CLR 09/05 A3013 -160 76 -800 120/06 RMK AO2 T00890050
53915KARA ARA20161122013510911/22/16 01:35:31  5-MIN KARA 220735Z AUTO 12007KT 10SM CLR 09/05 A3013 -160 76 -800 120/07 RMK AO2 T00890050
53915KARA ARA20161122014010911/22/16 01:40:31  5-MIN KARA 220740Z AUTO 13007KT 10SM CLR 09/05 A3013 -160 74 -800 120/07 RMK AO2 T00940050
53915KARA ARA20161122014510911/22/16 01:45:31  5-MIN KARA 220745Z AUTO 13007KT 10SM CLR 09/05 A3013 -160 74 -800 130/07 RMK AO2 T00940050
53915KARA ARA20161122015011611/22/16 01:50:31  5-MIN KARA 220750Z AUTO 13006KT 10SM CLR 09/05 A3013 -160 76 -800 130/06 RMK AO2 SLP201 T00890050
53915KARA ARA20161122015510911/22/16 01:55:31  5-MIN KARA 220755Z AUTO 13006KT 10SM CLR 09/04 A3013 -160 73 -800 130/06 RMK AO2 T00890044
53915KARA ARA20161122020010911/22/16 02:00:31  5-MIN KARA 220800Z AUTO 13006KT 10SM CLR 09/04 A3013 -160 73 -800 130/06 RMK AO2 T00890044
53915KARA ARA20161122020510911/22/16 02:05:31  5-MIN KARA 220805Z AUTO 13005KT 10SM CLR 08/04 A3013 -160 76 -900 130/05 RMK AO2 T00830044
53915KARA ARA20161122021010911/22/16 02:10:31  5-MIN KARA 220810Z AUTO 14004KT 10SM CLR 08/04 A3013 -160 76 -900 140/04 RMK AO2 T00830044
53915KARA ARA20161122021510911/22/16 02:15:31  5-MIN KARA 220815Z AUTO 13006KT 10SM CLR 08/04 A3013 -160 76 -900 130/06 RMK AO2 T00830044
53915KARA ARA20161122022010911/22/16 02:20:31  5-MIN KARA 220820Z AUTO 13005KT 10SM CLR 08/04 A3013 -160 73 -900 130/05 RMK AO2 T00830039
53915KARA ARA20161122022510911/22/16 02:25:31  5-MIN KARA 220825Z AUTO 13004KT 10SM CLR 08/04 A3013 -160 73 -900 130/04 RMK AO2 T00830039
53915KARA ARA20161122023010911/22/16 02:30:31  5-MIN KARA 220830Z AUTO 14003KT 10SM CLR 08/04 A3013 -160 73 -900 140/03 RMK AO2 T00830039
53915KARA ARA20161122023510911/22/16 02:35:31  5-MIN KARA 220835Z AUTO 13003KT 10SM CLR 08/04 A3013 -160 76 -900 130/03 RMK AO2 T00830044
53915KARA ARA20161122024010911/22/16 02:40:31  5-MIN KARA 220840Z AUTO 15003KT 10SM CLR 08/04 A3013 -160 76 -900 150/03 RMK AO2 T00830044
53915KARA ARA20161122024510911/22/16 02:45:31  5-MIN KARA 220845Z AUTO 15003KT 10SM CLR 08/04 A3013 -160 76 -900 150/03 RMK AO2 T00830044
53915KARA ARA20161122025012211/22/16 02:50:31  5-MIN KARA 220850Z AUTO 14003KT 10SM CLR 08/04 A3013 -160 76 -900 140/03 RMK AO2 SLP203 T00830044 50001
53915KARA ARA20161122025510911/22/16 02:55:31  5-MIN KARA 220855Z AUTO 11003KT 10SM CLR 08/04 A3013 -160 76 -900 110/03 RMK AO2 T00830044
53915KARA ARA20161122030010911/22/16 03:00:31  5-MIN KARA 220900Z AUTO 11004KT 10SM CLR 08/04 A3013 -160 73 -900 110/04 RMK AO2 T00830039
53915KARA ARA20161122030511011/22/16 03:05:31  5-MIN KARA 220905Z AUTO 11006KT 10SM CLR 08/04 A3013 -160 76 -1000 110/06 RMK AO2 T00780039
53915KARA ARA20161122031011011/22/16 03:10:31  5-MIN KARA 220910Z AUTO 11006KT 10SM CLR 08/04 A3012 -160 76 -1000 110/06 RMK AO2 T00780039
53915KARA ARA20161122031510911/22/16 03:15:31  5-MIN KARA 220915Z AUTO 11005KT 10SM CLR 08/04 A3013 -160 73 -900 110/05 RMK AO2 T00830039
53915KARA ARA20161122032010911/22/16 03:20:31  5-MIN KARA 220920Z AUTO 11006KT 10SM CLR 08/04 A3013 -160 76 -900 110/06 RMK AO2 T00830044
53915KARA ARA20161122032510911/22/16 03:25:31  5-MIN KARA 220925Z AUTO 12005KT 10SM CLR 09/04 A3013 -160 73 -800 120/05 RMK AO2 T00890044
53915KARA ARA20161122033010911/22/16 03:30:31  5-MIN KARA 220930Z AUTO 11005KT 10SM CLR 09/04 A3013 -160 73 -800 110/05 RMK AO2 T00890044
53915KARA ARA20161122033510911/22/16 03:35:31  5-MIN KARA 220935Z AUTO 11006KT 10SM CLR 09/04 A3013 -160 71 -800 110/06 RMK AO2 T00940044
53915KARA ARA20161122034010911/22/16 03:40:31  5-MIN KARA 220940Z AUTO 11006KT 10SM CLR 09/04 A3013 -160 71 -800 110/06 RMK AO2 T00940044
53915KARA ARA20161122034510911/22/16 03:45:31  5-MIN KARA 220945Z AUTO 11005KT 10SM CLR 09/05 A3013 -160 74 -800 110/05 RMK AO2 T00940050
53915KARA ARA20161122035011611/22/16 03:50:31  5-MIN KARA 220950Z AUTO 12004KT 10SM CLR 09/05 A3013 -160 76 -900 120/04 RMK AO2 SLP202 T00890050
53915KARA ARA20161122035510911/22/16 03:55:31  5-MIN KARA 220955Z AUTO 12004KT 10SM CLR 09/05 A3013 -160 76 -900 120/04 RMK AO2 T00890050
53915KARA ARA20161122040010911/22/16 04:00:31  5-MIN KARA 221000Z AUTO 13005KT 10SM CLR 08/04 A3013 -160 76 -900 120/05 RMK AO2 T00830044
53915KARA ARA20161122040510911/22/16 04:05:31  5-MIN KARA 221005Z AUTO 12005KT 10SM CLR 08/04 A3013 -170 76 -900 120/05 RMK AO2 T00830044
53915KARA ARA20161122041010911/22/16 04:10:31  5-MIN KARA 221010Z AUTO 12004KT 10SM CLR 08/05 A3013 -170 79 -900 120/04 RMK AO2 T00830050
53915KARA ARA20161122041510911/22/16 04:15:31  5-MIN KARA 221015Z AUTO 12005KT 10SM CLR 08/05 A3013 -170 79 -900 120/05 RMK AO2 T00830050
53915KARA ARA20161122042010911/22/16 04:20:31  5-MIN KARA 221020Z AUTO 13005KT 10SM CLR 08/05 A3013 -170 79 -900 120/05 RMK AO2 T00830050
53915KARA ARA20161122042510911/22/16 04:25:31  5-MIN KARA 221025Z AUTO 13004KT 10SM CLR 08/05 A3013 -170 79 -900 130/04 RMK AO2 T00830050
53915KARA ARA20161122043011011/22/16 04:30:31  5-MIN KARA 221030Z AUTO 13004KT 10SM CLR 08/05 A3014 -170 82 -1000 130/04 RMK AO2 T00780050
53915KARA ARA20161122043510911/22/16 04:35:31  5-MIN KARA 221035Z AUTO 13004KT 10SM CLR 08/05 A3013 -170 79 -900 130/04 RMK AO2 T00830050
53915KARA ARA20161122044010911/22/16 04:40:31  5-MIN KARA 221040Z AUTO 13005KT 10SM CLR 08/05 A3013 -160 79 -900 130/05 RMK AO2 T00830050
53915KARA ARA20161122044511011/22/16 04:45:31  5-MIN KARA 221045Z AUTO 12006KT 10SM CLR 08/04 A3013 -160 79 -1000 120/06 RMK AO2 T00780044
53915KARA ARA20161122045011711/22/16 04:50:31  5-MIN KARA 221050Z AUTO 12005KT 10SM CLR 07/04 A3013 -160 82 -1100 120/05 RMK AO2 SLP203 T00720044
53915KARA ARA20161122045511011/22/16 04:55:31  5-MIN KARA 221055Z AUTO 12005KT 10SM CLR 08/04 A3013 -160 79 -1000 120/05 RMK AO2 T00780044
53915KARA ARA20161122050010911/22/16 05:00:31  5-MIN KARA 221100Z AUTO 12005KT 10SM CLR 08/05 A3013 -160 79 -900 120/05 RMK AO2 T00830050
53915KARA ARA20161122050510911/22/16 05:05:31  5-MIN KARA 221105Z AUTO 12006KT 10SM CLR 08/06 A3013 -160 82 -900 120/06 RMK AO2 T00830056
53915KARA ARA20161122051010911/22/16 05:10:31  5-MIN KARA 221110Z AUTO 12006KT 10SM CLR 08/06 A3013 -160 82 -900 120/06 RMK AO2 T00830056
53915KARA ARA20161122051511311/22/16 05:15:31  5-MIN KARA 221115Z AUTO 13005KT 10SM FEW041 08/06 A3013 -160 86 -1000 130/05 RMK AO2 T00780056
53915KARA ARA20161122052011311/22/16 05:20:31  5-MIN KARA 221120Z AUTO 13005KT 10SM FEW041 08/05 A3013 -160 82 -1000 130/05 RMK AO2 T00780050
53915KARA ARA20161122052511311/22/16 05:25:31  5-MIN KARA 221125Z AUTO 12005KT 10SM FEW041 07/05 A3013 -160 86 -1100 120/05 RMK AO2 T00720050
53915KARA ARA20161122053011311/22/16 05:30:31  5-MIN KARA 221130Z AUTO 11006KT 10SM FEW041 08/05 A3013 -160 82 -1000 110/06 RMK AO2 T00780050
53915KARA ARA20161122053511211/22/16 05:35:31  5-MIN KARA 221135Z AUTO 12007KT 10SM FEW041 09/06 A3012 -160 79 -800 120/07 RMK AO2 T00890056
53915KARA ARA20161122054011211/22/16 05:40:31  5-MIN KARA 221140Z AUTO 12008KT 10SM FEW041 09/07 A3012 -150 83 -800 120/08 RMK AO2 T00940067
53915KARA ARA20161122054510911/22/16 05:45:31  5-MIN KARA 221145Z AUTO 12008KT 10SM CLR 10/07 A3012 -160 80 -700 120/08 RMK AO2 T01000067
53915KARA ARA20161122055013411/22/16 05:50:31  5-MIN KARA 221150Z AUTO 13007KT 10SM CLR 10/07 A3012 -160 80 -700 120/07 RMK AO2 SLP199 T01000067 10100 20061 55013
53915KARA ARA20161122055510911/22/16 05:55:31  5-MIN KARA 221155Z AUTO 13006KT 10SM CLR 10/07 A3013 -160 80 -700 120/06 RMK AO2 T01000067
53915KARA ARA20161122060010411/22/16 06:00:31  5-MIN KARA 221200Z 12007KT 10SM CLR 10/07 A3012 -150 80 -700 120/07 RMK AO2 T01000067
53915KARA ARA20161122060510411/22/16 06:05:31  5-MIN KARA 221205Z 13006KT 10SM CLR 10/07 A3012 -160 80 -700 120/06 RMK AO2 T01000067
53915KARA ARA20161122061010411/22/16 06:10:31  5-MIN KARA 221210Z 13006KT 10SM CLR 09/07 A3012 -160 83 -800 130/06 RMK AO2 T00940067
53915KARA ARA20161123142511611/23/16 14:25:31  5-MIN KARA 232025Z 16008KT 10SM -RA SCT100 19/18 A3009 -120 90 400 160/08 RMK AO2 P0001 T01940178
53915KARA ARA20161123143011811/23/16 14:30:31  5-MIN KARA 232030Z 17006KT 10SM SCT100 19/18 A3009 -120 90 400 170/06 RMK AO2 RAE30 P0001 T01940178
53915KARA ARA20161123143511811/23/16 14:35:31  5-MIN KARA 232035Z 17005KT 10SM SCT110 19/18 A3009 -120 90 400 170/05 RMK AO2 RAE30 P0001 T01940178
53915KARA ARA20161123144012511/23/16 14:40:31  5-MIN KARA 232040Z 16006KT 10SM FEW095 BKN120 19/18 A3009 -120 90 400 160/06 RMK AO2 RAE30 P0001 T01940178
53915KARA ARA20161123144511811/23/16 14:45:31  5-MIN KARA 232045Z 15006KT 10SM BKN120 20/18 A3008 -120 87 500 150/06 RMK AO2 RAE30 P0001 T02000178
53915KARA ARA20161123145013711/23/16 14:50:31  5-MIN KARA 232050Z 16005KT 10SM BKN110 20/18 A3008 -120 87 500 160/05 RMK AO2 RAE30 SLP185 P0001 60015 T02000178 55004
53915KARA ARA20161123145512211/23/16 14:55:31  5-MIN KARA 232055Z 15006KT 10SM -RA BKN110 20/18 A3008 -110 87 500 150/06 RMK AO2 RAB54 P0000 T02000178
53915KARA ARA20161123150012311/23/16 15:00:31  5-MIN KARA 232100Z 15005KT 9SM -RA OVC110 20/18 A3007 -110 87 500 140/05 RMK AO2 RAB2054 P0000 T02000178
53915KARA ARA20161123150512311/23/16 15:05:31  5-MIN KARA 232105Z 14005KT 9SM -RA OVC110 20/18 A3007 -110 87 500 140/05 RMK AO2 RAB2054 P0000 T02000178
53915KARA ARA20161123151012411/23/16 15:10:31  5-MIN KARA 232110Z 13006KT 10SM -RA OVC110 20/18 A3007 -100 87 500 130/06 RMK AO2 RAB2054 P0000 T02000178
53915KARA ARA20161123151512411/23/16 15:15:31  5-MIN KARA 232115Z 14005KT 10SM -RA OVC110 20/18 A3007 -100 87 500 140/05 RMK AO2 RAB2054 P0000 T02000178
53915KARA ARA20161123152012311/23/16 15:20:31  5-MIN KARA 232120Z 14005KT 10SM OVC110 21/18 A3006 -100 87 600 140/05 RMK AO2 RAB2054E16 P0000 T02060183
53915KARA ARA20161123152512211/23/16 15:25:31  5-MIN KARA 232125Z 12005KT 10SM OVC110 21/18 A3006 -90 84 600 120/05 RMK AO2 RAB2054E16 P0000 T02060178
53915KARA ARA20161123153012311/23/16 15:30:31  5-MIN KARA 232130Z 14004KT 10SM OVC110 21/18 A3006 -100 87 600 140/04 RMK AO2 RAB2054E16 P0000 T02060183
53915KARA ARA20161123153512311/23/16 15:35:31  5-MIN KARA 232135Z 14003KT 10SM OVC110 21/18 A3006 -100 87 600 140/03 RMK AO2 RAB2054E16 P0000 T02060183
53915KARA ARA20161123154012311/23/16 15:40:31  5-MIN KARA 232140Z 12003KT 10SM BKN110 21/18 A3006 -100 84 600 120/03 RMK AO2 RAB2054E16 P0000 T02110183
53915KARA ARA20161123154512311/23/16 15:45:31  5-MIN KARA 232145Z 13003KT 10SM BKN110 21/18 A3006 -100 84 600 120/03 RMK AO2 RAB2054E16 P0000 T02110183
53915KARA ARA20161123155013011/23/16 15:50:31  5-MIN KARA 232150Z 15004KT 10SM SCT110 21/18 A3006 -100 84 600 150/04 RMK AO2 RAB2054E16 SLP180 P0000 T02110183
53915KARA ARA20161123155510611/23/16 15:55:31  5-MIN KARA 232155Z 18003KT 10SM FEW120 22/18 A3007 -110 81 700 180/03 RMK AO2 T02170183
53915KARA ARA20161123160010611/23/16 16:00:31  5-MIN KARA 232200Z 19003KT 10SM FEW120 22/18 A3007 -110 81 700 190/03 RMK AO2 T02170183
53915KARA ARA20161123160510311/23/16 16:05:31  5-MIN KARA 232205Z 19004KT 10SM CLR 22/18 A3007 -110 81 700 190/04 RMK AO2 T02170183
53915KARA ARA20161123161010311/23/16 16:10:31  5-MIN KARA 232210Z 19004KT 10SM CLR 22/18 A3007 -110 81 700 180/04 RMK AO2 T02170183
53915KARA ARA20161123161510311/23/16 16:15:31  5-MIN KARA 232215Z 18005KT 10SM CLR 22/18 A3008 -110 81 700 180/05 RMK AO2 T02170183
53915KARA ARA20161123162010311/23/16 16:20:31  5-MIN KARA 232220Z 19006KT 10SM CLR 22/18 A3008 -110 81 700 180/06 RMK AO2 T02170183
53915KARA ARA20161123162510311/23/16 16:25:31  5-MIN KARA 232225Z 20004KT 10SM CLR 21/18 A3008 -120 84 600 200/04 RMK AO2 T02110183
53915KARA ARA20161123163010311/23/16 16:30:31  5-MIN KARA 232230Z 19005KT 10SM CLR 21/18 A3008 -120 84 600 190/05 RMK AO2 T02110183
53915KARA ARA20161123163510611/23/16 16:35:31  5-MIN KARA 232235Z 19004KT 10SM FEW020 21/18 A3008 -120 84 500 190/04 RMK AO2 T02060178
53915KARA ARA20161123164010611/23/16 16:40:31  5-MIN KARA 232240Z 19004KT 10SM SCT020 21/18 A3008 -120 87 500 190/04 RMK AO2 T02060183
53915KARA ARA20161123164510611/23/16 16:45:31  5-MIN KARA 232245Z 19004KT 10SM SCT019 21/18 A3008 -120 87 500 190/04 RMK AO2 T02060183
53915KARA ARA20161123165011311/23/16 16:50:31  5-MIN KARA 232250Z 20006KT 10SM SCT019 21/18 A3008 -120 84 500 190/06 RMK AO2 SLP185 T02060178
53915KARA ARA20161123165510611/23/16 16:55:31  5-MIN KARA 232255Z 20005KT 10SM SCT019 21/18 A3008 -120 84 500 200/05 RMK AO2 T02060178
53915KARA ARA20161123170010611/23/16 17:00:31  5-MIN KARA 232300Z 20005KT 10SM SCT019 20/18 A3008 -120 87 500 200/05 RMK AO2 T02000178
53915KARA ARA20161123170510611/23/16 17:05:31  5-MIN KARA 232305Z 20004KT 10SM FEW019 20/17 A3008 -120 84 500 200/04 RMK AO2 T02000172
53915KARA ARA20161123171010611/23/16 17:10:31  5-MIN KARA 232310Z 20004KT 10SM FEW019 19/17 A3008 -120 87 400 200/04 RMK AO2 T01940172
53915KARA ARA20161123171510311/23/16 17:15:31  5-MIN KARA 232315Z 20004KT 10SM CLR 19/17 A3008 -120 87 400 200/04 RMK AO2 T01940172
53915KARA ARA20161123172010311/23/16 17:20:31  5-MIN KARA 232320Z 20004KT 10SM CLR 19/17 A3008 -120 90 300 200/04 RMK AO2 T01890172
53915KARA ARA20161123172510311/23/16 17:25:31  5-MIN KARA 232325Z 19004KT 10SM CLR 19/17 A3008 -120 90 300 190/04 RMK AO2 T01890172
53915KARA ARA20161123173010311/23/16 17:30:31  5-MIN KARA 232330Z 19004KT 10SM CLR 19/17 A3009 -120 90 300 190/04 RMK AO2 T01890172
53915KARA ARA20161123173510311/23/16 17:35:31  5-MIN KARA 232335Z 21003KT 10SM CLR 18/17 A3009 -120 90 300 210/03 RMK AO2 T01830167
53915KARA ARA20161123174010311/23/16 17:40:31  5-MIN KARA 232340Z 00000KT 10SM CLR 18/17 A3009 -120 90 300 000/00 RMK AO2 T01830167
53915KARA ARA20161123174510311/23/16 17:45:31  5-MIN KARA 232345Z 00000KT 10SM CLR 19/17 A3009 -120 87 300 000/00 RMK AO2 T01890167
53915KARA ARA20161123175013311/23/16 17:50:31  5-MIN KARA 232350Z 23003KT 9SM CLR 18/17 A3009 -130 90 300 230/03 RMK AO2 SLP188 60015 T01830167 10244 20183 56019
53915KARA ARA20161123175510811/23/16 17:55:31  5-MIN KARA 232355Z 26003KT 6SM BR SCT010 18/17 A3009 -130 93 200 260/03 RMK AO2 T01780167
53915KARA ARA20161123180010811/23/16 18:00:31  5-MIN KARA 240000Z 26003KT 5SM BR BKN010 18/17 A3009 -130 90 300 260/03 RMK AO2 T01830167
53915KARA ARA20161123180510511/23/16 18:05:31  5-MIN KARA 240005Z 26003KT 7SM BKN008 18/17 A3009 -130 90 300 260/03 RMK AO2 T01830167
53915KARA ARA20161123181010611/23/16 18:10:31  5-MIN KARA 240010Z 25004KT 10SM BKN008 18/17 A3010 -130 93 300 250/04 RMK AO2 T01830172
53915KARA ARA20161123181510611/23/16 18:15:31  5-MIN KARA 240015Z 25003KT 10SM OVC008 19/17 A3010 -140 90 300 250/03 RMK AO2 T01890172
53915KARA ARA20161123182010611/23/16 18:20:31  5-MIN KARA 240020Z 24004KT 10SM OVC008 19/17 A3010 -140 90 300 240/04 RMK AO2 T01890172
53915KARA ARA20161123182510611/23/16 18:25:31  5-MIN KARA 240025Z 24003KT 10SM OVC008 19/17 A3011 -140 90 300 240/03 RMK AO2 T01890172
53915KARA ARA20161123183010611/23/16 18:30:31  5-MIN KARA 240030Z 26003KT 10SM OVC008 19/18 A3011 -140 90 400 260/03 RMK AO2 T01940178
53915KARA ARA20161123183510611/23/16 18:35:31  5-MIN KARA 240035Z 27003KT 10SM OVC008 19/18 A3011 -140 90 400 270/03 RMK AO2 T01940178
53915KARA ARA20161123184010611/23/16 18:40:31  5-MIN KARA 240040Z 28003KT 10SM OVC008 19/18 A3011 -140 90 400 280/03 RMK AO2 T01940178
53915KARA ARA20161123184511811/23/16 18:45:31  5-MIN KARA 240045Z 30003KT 10SM OVC010 19/18 A3011 -140 90 400 300/03 RMK AO2 CIG 008V014 T01940178
53915KARA ARA20161123185011511/23/16 18:50:31  5-MIN KARA 240050Z 00000KT 10SM BKN010 OVC014 19/18 A3011 -150 90 400 000/00 RMK AO2 CIG 008V012
53915KARA ARA20161123185510611/23/16 18:55:31  5-MIN KARA 240055Z 00000KT 10SM OVC012 19/18 A3011 -150 90 400 000/00 RMK AO2 T01940178
53915KARA ARA20161123190010611/23/16 19:00:31  5-MIN KARA 240100Z 00000KT 10SM OVC012 19/18 A3012 -150 93 300 000/00 RMK AO2 T01890178
53915KARA ARA20161123190510611/23/16 19:05:31  5-MIN KARA 240105Z 00000KT 10SM OVC012 19/18 A3012 -150 93 300 000/00 RMK AO2 T01890178
53915KARA ARA20161123191010611/23/16 19:10:31  5-MIN KARA 240110Z 00000KT 10SM OVC012 19/17 A3012 -150 90 300 000/00 RMK AO2 T01890172
53915KARA ARA20161123191510611/23/16 19:15:31  5-MIN KARA 240115Z 16004KT 10SM OVC013 19/17 A3012 -150 90 300 160/04 RMK AO2 T01890172
53915KARA ARA20161123192010611/23/16 19:20:31  5-MIN KARA 240120Z 00000KT 10SM OVC013 19/17 A3012 -150 90 300 000/00 RMK AO2 T01890172
53915KARA ARA20161123192510611/23/16 19:25:31  5-MIN KARA 240125Z 00000KT 10SM BKN013 18/17 A3012 -150 93 200 000/00 RMK AO2 T01830172
53915KARA ARA20161123193010611/23/16 19:30:31  5-MIN KARA 240130Z 00000KT 10SM BKN013 18/17 A3012 -150 90 200 000/00 RMK AO2 T01830167
53915KARA ARA20161123193510811/23/16 19:35:31  5-MIN KARA 240135Z 00000KT 4SM BR BKN013 18/17 A3012 -150 93 200 000/00 RMK AO2 T01780167
53915KARA ARA20161123194012211/23/16 19:40:31  5-MIN KARA 240140Z 00000KT 1 1/4SM BR BKN013 18/17 A3012 -150 90 200 000/00 RMK AO2 VIS 1/2V5 T01830167
53915KARA ARA20161123194512211/23/16 19:45:31  5-MIN KARA 240145Z 00000KT 1 1/2SM BR BKN012 18/17 A3012 -150 90 200 000/00 RMK AO2 VIS 1/2V5 T01830167
53915KARA ARA20161123195011511/23/16 19:50:31  5-MIN KARA 240150Z 00000KT 5SM BR BKN012 18/17 A3012 -160 93 200 000/00 RMK AO2 SLP199 T01830172
53915KARA ARA20161123195512211/23/16 19:55:31  5-MIN KARA 240155Z 00000KT 1 3/4SM BR BKN012 18/17 A3012 -150 93 200 000/00 RMK AO2 VIS 1/2V5 T01780167
53915KARA ARA20161123200012011/23/16 20:00:31  5-MIN KARA 240200Z 00000KT 1/2SM FG BKN012 18/16 A3012 -160 90 200 000/00 RMK AO2 VIS 1/4V4 T01780161
53915KARA ARA20161123200511711/23/16 20:05:31  5-MIN KARA 240205Z 00000KT 1/4SM FG BKN012 BKN025 17/16 A3013 -160 93 100 000/00 RMK AO2 T01720161
53915KARA ARA20161123201011711/23/16 20:10:31  5-MIN KARA 240210Z 00000KT 1/4SM FG SCT012 SCT025 18/16 A3013 -160 90 200 000/00 RMK AO2 T01780161
53915KARA ARA20161123201512211/23/16 20:15:31  5-MIN KARA 240215Z 15003KT 1/4SM FG FEW002 FEW012 SCT025 17/16 A3013 -160 93 0 140/03 RMK AO2 T01670156
53915KARA ARA20161123202011511/23/16 20:20:31  5-MIN KARA 240220Z 00000KT 1/4SM FG SCT002 SCT012 17/15 A3013 -170 90 0 000/00 RMK AO2 T01670150
53915KARA ARA20161123202511511/23/16 20:25:31  5-MIN KARA 240225Z 00000KT 1/4SM FG BKN002 BKN011 17/15 A3013 -170 90 0 000/00 RMK AO2 T01670150
53915KARA ARA20161123203010711/23/16 20:30:31  5-MIN KARA 240230Z 00000KT 1/4SM FG VV002 16/15 A3013 -170 93 0 000/00 RMK AO2 T01610150
53915KARA ARA20161123203510811/23/16 20:35:31  5-MIN KARA 240235Z 00000KT M1/4SM FG VV002 16/15 A3013 -170 93 0 000/00 RMK AO2 T01610150
53915KARA ARA20161123204011111/23/16 20:40:31  5-MIN KARA 240240Z 00000KT M1/4SM FG VV002 16/14 A3014 -170 93 -100 000/00 RMK AO2 T01560144
53915KARA ARA20161123204511011/23/16 20:45:31  5-MIN KARA 240245Z 00000KT 1/4SM FG VV002 16/14 A3014 -170 93 -100 000/00 RMK AO2 T01560144
53915KARA ARA20161123205012511/23/16 20:50:31  5-MIN KARA 240250Z AUTO 30003KT 1/4SM FG VV002 16/14 A3014 -170 90 0 290/03 RMK AO2 SLP205 T01610144 53004
53915KARA ARA20161123205511511/23/16 20:55:31  5-MIN KARA 240255Z AUTO 29003KT 1/4SM FG VV002 15/14 A3014 -170 93 -100 290/03 RMK AO2 T01500139
53915KARA ARA20161123210011511/23/16 21:00:31  5-MIN KARA 240300Z AUTO 00000KT 1/4SM FG VV002 15/14 A3015 -180 93 -100 000/00 RMK AO2 T01500139
53915KARA ARA20161123210511511/23/16 21:05:31  5-MIN KARA 240305Z AUTO 00000KT 1/4SM FG VV001 14/13 A3015 -180 93 -200 000/00 RMK AO2 T01440133
53915KARA ARA20161123211011511/23/16 21:10:31  5-MIN KARA 240310Z AUTO 00000KT 1/4SM FG VV001 15/13 A3015 -180 90 -100 000/00 RMK AO2 T01500133
53915KARA ARA20161123211511511/23/16 21:15:31  5-MIN KARA 240315Z AUTO 00000KT 1/4SM FG VV001 15/13 A3015 -180 90 -100 000/00 RMK AO2 T01500133
53915KARA ARA20161123212011511/23/16 21:20:31  5-MIN KARA 240320Z AUTO 00000KT 1/4SM FG VV001 15/14 A3015 -180 93 -100 000/00 RMK AO2 T01500139
53915KARA ARA20161123212511511/23/16 21:25:31  5-MIN KARA 240325Z AUTO 00000KT 1/4SM FG VV001 15/14 A3015 -180 93 -100 000/00 RMK AO2 T01500139
53915KARA ARA20161123213011611/23/16 21:30:31  5-MIN KARA 240330Z AUTO 00000KT M1/4SM FG VV001 14/14 A3015 -180 96 -200 000/00 RMK AO2 T01440139
53915KARA ARA20161123213511611/23/16 21:35:31  5-MIN KARA 240335Z AUTO 00000KT M1/4SM FG VV001 15/14 A3015 -180 93 -100 000/00 RMK AO2 T01500139
53915KARA ARA20161123214011611/23/16 21:40:31  5-MIN KARA 240340Z AUTO 00000KT M1/4SM FG VV001 14/14 A3015 -180 96 -200 000/00 RMK AO2 T01440139
53915KARA ARA20161123214511511/23/16 21:45:31  5-MIN KARA 240345Z AUTO 00000KT 1/4SM FG VV001 14/13 A3015 -180 93 -200 000/00 RMK AO2 T01440133
53915KARA ARA20161123215012211/23/16 21:50:31  5-MIN KARA 240350Z AUTO 00000KT 1/4SM FG VV001 14/13 A3015 -180 93 -200 000/00 RMK AO2 SLP209 T01440133
53915KARA ARA20161123215511511/23/16 21:55:31  5-MIN KARA 240355Z AUTO 00000KT 1/4SM FG VV001 14/13 A3015 -190 93 -200 000/00 RMK AO2 T01440133
53915KARA ARA20161123220011511/23/16 22:00:31  5-MIN KARA 240400Z AUTO 00000KT 1/4SM FG VV001 14/13 A3016 -190 93 -200 000/00 RMK AO2 T01440133
53915KARA ARA20161123220511511/23/16 22:05:31  5-MIN KARA 240405Z AUTO 00000KT 1/4SM FG VV001 14/13 A3016 -190 93 -200 000/00 RMK AO2 T01440133
53915KARA ARA20161123221011511/23/16 22:10:31  5-MIN KARA 240410Z AUTO 00000KT 1/2SM FG VV001 15/13 A3016 -190 90 -200 000/00 RMK AO2 T01500133
53915KARA ARA20161123221511511/23/16 22:15:31  5-MIN KARA 240415Z AUTO 00000KT 1/4SM FG VV002 14/13 A3016 -190 96 -300 000/00 RMK AO2 T01390133
53915KARA ARA20161123222011511/23/16 22:20:31  5-MIN KARA 240420Z AUTO 00000KT 1/4SM FG VV002 14/13 A3016 -190 93 -300 000/00 RMK AO2 T01390128
53915KARA ARA20161123222511511/23/16 22:25:31  5-MIN KARA 240425Z AUTO 30003KT 1/4SM FG VV002 14/13 A3016 -190 93 -200 300/03 RMK AO2 T01440133
53915KARA ARA20161123223011511/23/16 22:30:31  5-MIN KARA 240430Z AUTO 00000KT 1/4SM FG VV002 14/13 A3017 -190 93 -200 000/00 RMK AO2 T01440133
53915KARA ARA20161123223511511/23/16 22:35:31  5-MIN KARA 240435Z AUTO 00000KT 1/4SM FG VV002 14/13 A3017 -200 93 -300 000/00 RMK AO2 T01390128
53915KARA ARA20161123224011511/23/16 22:40:31  5-MIN KARA 240440Z AUTO 00000KT 1/4SM FG VV002 14/13 A3017 -200 93 -300 000/00 RMK AO2 T01390128
53915KARA ARA20161123224511511/23/16 22:45:31  5-MIN KARA 240445Z AUTO 00000KT 1/4SM FG VV002 14/13 A3017 -200 93 -200 000/00 RMK AO2 T01440133
53915KARA ARA20161123225012211/23/16 22:50:31  5-MIN KARA 240450Z AUTO 00000KT 1/4SM FG VV002 14/13 A3017 -200 93 -200 000/00 RMK AO2 SLP215 T01440133
53915KARA ARA20161123225511511/23/16 22:55:31  5-MIN KARA 240455Z AUTO 00000KT 1/4SM FG VV002 14/13 A3017 -200 93 -200 000/00 RMK AO2 T01440133
53915KARA ARA20161123230011511/23/16 23:00:31  5-MIN KARA 240500Z AUTO 00000KT 1/4SM FG VV002 14/13 A3017 -200 93 -200 000/00 RMK AO2 T01440133
53915KARA ARA20161123230512311/23/16 23:05:31  5-MIN KARA 240505Z AUTO 00000KT 1/4SM FG BKN002 OVC022 15/14 A3017 -200 93 -200 000/00 RMK AO2 T01500139
53915KARA ARA20161123231011611/23/16 23:10:31  5-MIN KARA 240510Z AUTO 00000KT 1/2SM FG OVC002 15/14 A3017 -200 93 -200 000/00 RMK AO2 T01500139
53915KARA ARA20161123231511611/23/16 23:15:31  5-MIN KARA 240515Z AUTO 00000KT 1/2SM FG OVC002 15/14 A3017 -200 93 -200 000/00 RMK AO2 T01500139
53915KARA ARA20161123232012311/23/16 23:20:31  5-MIN KARA 240520Z AUTO 00000KT 3/4SM BR BKN002 OVC014 15/14 A3017 -200 93 -200 000/00 RMK AO2 T01500139
53915KARA ARA20161123232513211/23/16 23:25:31  5-MIN KARA 240525Z AUTO 00000KT 1 1/4SM BR BKN002 BKN014 OVC023 16/14 A3017 -200 93 -100 000/00 RMK AO2 T01560144
53915KARA ARA20161123233013411/23/16 23:30:31  5-MIN KARA 240530Z AUTO 00000KT 1 1/4SM BR BKN001 BKN012 OVC026 16/14 A3017 -200 90 -100 000/00 RMK AO2 T01560139 $
53915KARA ARA20161123233513411/23/16 23:35:31  5-MIN KARA 240535Z AUTO 00000KT 1 1/2SM BR BKN001 BKN012 OVC026 16/14 A3017 -200 90 -100 000/00 RMK AO2 T01560139 $
53915KARA ARA20161123234013411/23/16 23:40:31  5-MIN KARA 240540Z AUTO 00000KT 1 1/2SM BR BKN001 BKN012 OVC026 16/14 A3017 -200 93 -100 000/00 RMK AO2 T01560144 $
53915KARA ARA20161123234513211/23/16 23:45:31  5-MIN KARA 240545Z AUTO 00000KT 3/4SM BR SCT001 BKN012 OVC026 15/14 A3017 -200 93 -200 000/00 RMK AO2 T01500139 $
53915KARA ARA20161123235011511/23/16 23:50:31  5-MIN KARA 240550Z AUTO 33003KT 1/2SM FG BKN001 OVC026 15/14 A3016 -190 93 -200 330/03 RMK AO2 $
53915KARA ARA20161123235512511/23/16 23:55:31  5-MIN KARA 240555Z AUTO 34003KT 1/4SM FG BKN001 OVC026 15/13 A3017 -190 90 -200 340/03 RMK AO2 T01500133 $
53915KARA ARA20161124000012511/24/16 00:00:31  5-MIN KARA 240600Z AUTO 34004KT 1/4SM FG BKN003 OVC026 15/14 A3017 -190 93 -200 340/04 RMK AO2 T01500139 $
53915KARA ARA20161124000512511/24/16 00:05:31  5-MIN KARA 240605Z AUTO 33003KT 1/4SM FG BKN003 OVC026 15/14 A3016 -190 93 -200 330/03 RMK AO2 T01500139 $
53915KARA ARA20161124001011711/24/16 00:10:31  5-MIN KARA 240610Z AUTO 00000KT 1/4SM FG VV004 15/14 A3016 -190 93 -200 000/00 RMK AO2 T01500139 $
53915KARA ARA20161124001511711/24/16 00:15:31  5-MIN KARA 240615Z AUTO 00000KT 1/4SM FG VV003 15/14 A3016 -190 93 -200 000/00 RMK AO2 T01500139 $
53915KARA ARA20161124002011711/24/16 00:20:31  5-MIN KARA 240620Z AUTO 00000KT 1/4SM FG VV003 15/14 A3016 -190 93 -200 000/00 RMK AO2 T01500139 $
53915KARA ARA20161124002511711/24/16 00:25:31  5-MIN KARA 240625Z AUTO 00000KT 1/4SM FG VV003 14/14 A3016 -190 96 -200 000/00 RMK AO2 T01440139 $
53915KARA ARA20161124003011111/24/16 00:30:31  5-MIN KARA 240630Z AUTO 35003KT 1/4SM FG 14/13 A3016 -190 93 -200 350/03 RMK AO2 T01440133 $
53915KARA ARA20161124003511111/24/16 00:35:31  5-MIN KARA 240635Z AUTO 34004KT 1/2SM FG 14/13 A3016 -190 93 -200 340/04 RMK AO2 T01440133 $
53915KARA ARA20161124004011111/24/16 00:40:31  5-MIN KARA 240640Z AUTO 35006KT 1/2SM FG 14/13 A3016 -190 93 -200 350/06 RMK AO2 T01440133 $
53915KARA ARA20161124004511111/24/16 00:45:31  5-MIN KARA 240645Z AUTO 36005KT 1/2SM FG 15/13 A3016 -190 90 -200 350/05 RMK AO2 T01500133 $
53915KARA ARA20161124005011811/24/16 00:50:31  5-MIN KARA 240650Z AUTO 36004KT 3/4SM BR 14/13 A3016 -190 93 -200 360/04 RMK AO2 SLP213 T01440133 $
53915KARA ARA20161124005511311/24/16 00:55:31  5-MIN KARA 240655Z AUTO 36005KT 2 1/2SM BR 14/13 A3016 -190 93 -300 360/05 RMK AO2 T01390128 $
53915KARA ARA20161124010011611/24/16 01:00:31  5-MIN KARA 240700Z AUTO 36005KT 6SM BR FEW002 14/13 A3016 -190 93 -300 360/05 RMK AO2 T01390128 $
53915KARA ARA20161124010511411/24/16 01:05:31  5-MIN KARA 240705Z AUTO 36005KT 10SM FEW002 14/13 A3017 -200 93 -300 360/05 RMK AO2 T01390128 $
53915KARA ARA20161124011011111/24/16 01:10:31  5-MIN KARA 240710Z AUTO 36005KT 10SM CLR 14/13 A3017 -200 93 -300 360/05 RMK AO2 T01390128 $
53915KARA ARA20161124011511111/24/16 01:15:31  5-MIN KARA 240715Z AUTO 36005KT 10SM CLR 14/12 A3016 -190 90 -300 360/05 RMK AO2 T01390122 $
53915KARA ARA20161124012011111/24/16 01:20:31  5-MIN KARA 240720Z AUTO 01005KT 10SM CLR 14/12 A3017 -190 90 -300 010/05 RMK AO2 T01390122 $
53915KARA ARA20161124012511111/24/16 01:25:31  5-MIN KARA 240725Z AUTO 01005KT 10SM CLR 14/12 A3017 -190 90 -300 360/05 RMK AO2 T01390122 $
53915KARA ARA20161124013011111/24/16 01:30:31  5-MIN KARA 240730Z AUTO 01005KT 10SM CLR 14/12 A3017 -190 90 -300 010/05 RMK AO2 T01390122 $
53915KARA ARA20161124013511111/24/16 01:35:31  5-MIN KARA 240735Z AUTO 36006KT 10SM CLR 14/12 A3016 -190 90 -300 360/06 RMK AO2 T01390122 $
53915KARA ARA20161124014011111/24/16 01:40:31  5-MIN KARA 240740Z AUTO 01007KT 10SM CLR 14/12 A3017 -190 90 -300 010/07 RMK AO2 T01390122 $
53915KARA ARA20161124014511111/24/16 01:45:31  5-MIN KARA 240745Z AUTO 02006KT 10SM CLR 14/12 A3017 -200 90 -300 020/06 RMK AO2 T01390122 $
53915KARA ARA20161124015011811/24/16 01:50:31  5-MIN KARA 240750Z AUTO 02006KT 10SM CLR 14/12 A3017 -200 90 -300 020/06 RMK AO2 SLP214 T01390122 $
53915KARA ARA20161124015511111/24/16 01:55:31  5-MIN KARA 240755Z AUTO 03006KT 10SM CLR 14/12 A3017 -200 90 -300 030/06 RMK AO2 T01390122 $
53915KARA ARA20161124020011111/24/16 02:00:31  5-MIN KARA 240800Z AUTO 02006KT 10SM CLR 14/12 A3017 -200 90 -300 020/06 RMK AO2 T01390122 $
53915KARA ARA20161124020511111/24/16 02:05:31  5-MIN KARA 240805Z AUTO 02006KT 10SM CLR 14/12 A3017 -200 90 -300 020/06 RMK AO2 T01390122 $
53915KARA ARA20161124021011111/24/16 02:10:31  5-MIN KARA 240810Z AUTO 02006KT 10SM CLR 14/12 A3017 -200 86 -300 020/06 RMK AO2 T01390117 $
53915KARA ARA20161124021511111/24/16 02:15:31  5-MIN KARA 240815Z AUTO 01006KT 10SM CLR 14/12 A3017 -200 86 -300 010/06 RMK AO2 T01390117 $
53915KARA ARA20161124022011111/24/16 02:20:31  5-MIN KARA 240820Z AUTO 01005KT 10SM CLR 13/12 A3017 -200 89 -400 010/05 RMK AO2 T01330117 $
53915KARA ARA20161124022511111/24/16 02:25:31  5-MIN KARA 240825Z AUTO 01006KT 10SM CLR 13/12 A3017 -200 89 -400 010/06 RMK AO2 T01330117 $
53915KARA ARA20161124023011111/24/16 02:30:31  5-MIN KARA 240830Z AUTO 01006KT 10SM CLR 13/12 A3017 -200 89 -400 010/06 RMK AO2 T01330117 $
53915KARA ARA20161124023511111/24/16 02:35:31  5-MIN KARA 240835Z AUTO 01005KT 10SM CLR 13/12 A3017 -200 89 -400 360/05 RMK AO2 T01330117 $
53915KARA ARA20161124024011111/24/16 02:40:31  5-MIN KARA 240840Z AUTO 36006KT 10SM CLR 13/12 A3017 -200 89 -400 360/06 RMK AO2 T01330117 $
53915KARA ARA20161124024511111/24/16 02:45:31  5-MIN KARA 240845Z AUTO 36007KT 10SM CLR 13/11 A3017 -200 89 -400 360/07 RMK AO2 T01280111 $
53915KARA ARA20161124025012411/24/16 02:50:31  5-MIN KARA 240850Z AUTO 36007KT 10SM CLR 13/11 A3018 -200 86 -400 360/07 RMK AO2 SLP218 T01330111 50008 $
53915KARA ARA20161124025511111/24/16 02:55:31  5-MIN KARA 240855Z AUTO 01007KT 10SM CLR 13/12 A3018 -200 89 -400 010/07 RMK AO2 T01330117 $
53915KARA ARA20161124030011111/24/16 03:00:31  5-MIN KARA 240900Z AUTO 01008KT 10SM CLR 13/12 A3018 -200 89 -400 010/08 RMK AO2 T01330117 $
53915KARA ARA20161124030511111/24/16 03:05:31  5-MIN KARA 240905Z AUTO 01009KT 10SM CLR 13/12 A3017 -200 89 -400 010/09 RMK AO2 T01330117 $
53915KARA ARA20161124031011111/24/16 03:10:31  5-MIN KARA 240910Z AUTO 01008KT 10SM CLR 13/12 A3018 -200 89 -400 010/08 RMK AO2 T01330117 $
53915KARA ARA20161124031511111/24/16 03:15:31  5-MIN KARA 240915Z AUTO 01007KT 10SM CLR 13/12 A3018 -210 89 -400 010/07 RMK AO2 T01330117 $
53915KARA ARA20161124032011111/24/16 03:20:31  5-MIN KARA 240920Z AUTO 36006KT 10SM CLR 13/11 A3018 -210 86 -400 360/06 RMK AO2 T01330111 $
53915KARA ARA20161124032511111/24/16 03:25:31  5-MIN KARA 240925Z AUTO 01007KT 10SM CLR 13/11 A3018 -210 86 -400 010/07 RMK AO2 T01330111 $
53915KARA ARA20161124033011111/24/16 03:30:31  5-MIN KARA 240930Z AUTO 01006KT 10SM CLR 13/11 A3018 -210 89 -400 010/06 RMK AO2 T01280111 $
53915KARA ARA20161124033511111/24/16 03:35:31  5-MIN KARA 240935Z AUTO 01007KT 10SM CLR 13/11 A3018 -210 89 -400 010/07 RMK AO2 T01280111 $
53915KARA ARA20161124034011111/24/16 03:40:31  5-MIN KARA 240940Z AUTO 01007KT 10SM CLR 13/11 A3018 -210 89 -400 010/07 RMK AO2 T01280111 $
53915KARA ARA20161124034511111/24/16 03:45:31  5-MIN KARA 240945Z AUTO 01007KT 10SM CLR 13/11 A3018 -210 89 -400 010/07 RMK AO2 T01280111 $
53915KARA ARA20161124035011811/24/16 03:50:31  5-MIN KARA 240950Z AUTO 01006KT 10SM CLR 13/11 A3018 -210 86 -400 360/06 RMK AO2 SLP219 T01280106 $
53915KARA ARA20161124035511111/24/16 03:55:31  5-MIN KARA 240955Z AUTO 01007KT 10SM CLR 13/11 A3018 -210 86 -400 360/07 RMK AO2 T01280106 $
53915KARA ARA20161124040011111/24/16 04:00:31  5-MIN KARA 241000Z AUTO 01006KT 10SM CLR 13/11 A3018 -210 86 -400 010/06 RMK AO2 T01280106 $
53915KARA ARA20161124040511111/24/16 04:05:31  5-MIN KARA 241005Z AUTO 01006KT 10SM CLR 12/11 A3018 -210 89 -500 010/06 RMK AO2 T01220106 $
53915KARA ARA20161124041011111/24/16 04:10:31  5-MIN KARA 241010Z AUTO 01007KT 10SM CLR 12/11 A3018 -210 89 -500 010/07 RMK AO2 T01220106 $
53915KARA ARA20161124041511111/24/16 04:15:31  5-MIN KARA 241015Z AUTO 01006KT 10SM CLR 12/11 A3018 -210 89 -500 010/06 RMK AO2 T01220106 $
53915KARA ARA20161124042011111/24/16 04:20:31  5-MIN KARA 241020Z AUTO 01006KT 10SM CLR 12/11 A3018 -210 89 -500 010/06 RMK AO2 T01220106 $
53915KARA ARA20161124042511111/24/16 04:25:31  5-MIN KARA 241025Z AUTO 01006KT 10SM CLR 12/11 A3019 -210 89 -500 010/06 RMK AO2 T01220106 $
53915KARA ARA20161124043011111/24/16 04:30:31  5-MIN KARA 241030Z AUTO 02006KT 10SM CLR 12/10 A3019 -210 86 -500 010/06 RMK AO2 T01220100 $
53915KARA ARA20161124043511111/24/16 04:35:31  5-MIN KARA 241035Z AUTO 02006KT 10SM CLR 12/10 A3019 -210 86 -500 020/06 RMK AO2 T01220100 $
53915KARA ARA20161124044011111/24/16 04:40:31  5-MIN KARA 241040Z AUTO 02006KT 10SM CLR 12/10 A3019 -220 86 -500 020/06 RMK AO2 T01220100 $
53915KARA ARA20161124044511111/24/16 04:45:31  5-MIN KARA 241045Z AUTO 02007KT 10SM CLR 12/11 A3019 -220 89 -500 020/07 RMK AO2 T01220106 $
53915KARA ARA20161124045011811/24/16 04:50:31  5-MIN KARA 241050Z AUTO 02006KT 10SM CLR 12/10 A3019 -220 86 -500 020/06 RMK AO2 SLP222 T01220100 $
53915KARA ARA20161124045511111/24/16 04:55:31  5-MIN KARA 241055Z AUTO 02006KT 10SM CLR 12/10 A3019 -220 86 -500 020/06 RMK AO2 T01220100 $
53915KARA ARA20161124050011111/24/16 05:00:31  5-MIN KARA 241100Z AUTO 01006KT 10SM CLR 12/10 A3019 -220 86 -500 010/06 RMK AO2 T01220100 $
53915KARA ARA20161124050511111/24/16 05:05:31  5-MIN KARA 241105Z AUTO 02006KT 10SM CLR 12/10 A3019 -220 89 -600 020/06 RMK AO2 T01170100 $
53915KARA ARA20161124051011111/24/16 05:10:31  5-MIN KARA 241110Z AUTO 02005KT 10SM CLR 12/10 A3020 -220 89 -600 020/05 RMK AO2 T01170100 $
53915KARA ARA20161124051511111/24/16 05:15:31  5-MIN KARA 241115Z AUTO 01005KT 10SM CLR 12/10 A3020 -220 89 -600 010/05 RMK AO2 T01170100 $
53915KARA ARA20161124052011111/24/16 05:20:31  5-MIN KARA 241120Z AUTO 02005KT 10SM CLR 12/10 A3020 -230 89 -600 020/05 RMK AO2 T01170100 $
53915KARA ARA20161124052511111/24/16 05:25:31  5-MIN KARA 241125Z AUTO 02005KT 10SM CLR 12/10 A3020 -230 89 -600 020/05 RMK AO2 T01170100 $
53915KARA ARA20161124053011111/24/16 05:30:31  5-MIN KARA 241130Z AUTO 03004KT 10SM CLR 12/10 A3020 -230 89 -600 030/04 RMK AO2 T01170100 $
53915KARA ARA20161124053510611/24/16 05:35:31  5-MIN KARA 241135Z 03004KT 10SM CLR 12/09 A3020 -230 86 -600 030/04 RMK AO2 T01170094 $
53915KARA ARA20161124054010611/24/16 05:40:31  5-MIN KARA 241140Z 02004KT 10SM CLR 12/09 A3020 -230 86 -600 020/04 RMK AO2 T01170094 $
53915KARA ARA20161124054510611/24/16 05:45:31  5-MIN KARA 241145Z 01004KT 10SM CLR 12/09 A3020 -230 86 -600 010/04 RMK AO2 T01170094 $
53915KARA ARA20161124055013611/24/16 05:50:31  5-MIN KARA 241150Z 03003KT 9SM CLR 12/09 A3021 -230 86 -600 030/03 RMK AO2 SLP227 70015 T01170094 10150 20117 53004 $
53915KARA ARA20161124055510511/24/16 05:55:31  5-MIN KARA 241155Z 04003KT 9SM CLR 12/09 A3020 -230 86 -600 040/03 RMK AO2 T01170094 $
53915KARA ARA20161124060010611/24/16 06:00:31  5-MIN KARA 241200Z 05005KT 10SM CLR 12/09 A3020 -230 86 -600 050/05 RMK AO2 T01170094 $
53915KARA ARA20161124060510611/24/16 06:05:31  5-MIN KARA 241205Z 04004KT 10SM CLR 12/09 A3020 -230 86 -600 040/04 RMK AO2 T01170094 $
53915KARA ARA20161124061010611/24/16 06:10:31  5-MIN KARA 241210Z 04005KT 10SM CLR 12/10 A3021 -230 89 -600 040/05 RMK AO2 T01170100 $
53915KARA ARA20161124061510611/24/16 06:15:31  5-MIN KARA 241215Z 04005KT 10SM CLR 12/09 A3021 -230 86 -600 040/05 RMK AO2 T01170094 $
53915KARA ARA20161124062010611/24/16 06:20:31  5-MIN KARA 241220Z 03005KT 10SM CLR 12/09 A3020 -230 86 -600 030/05 RMK AO2 T01170094 $
53915KARA ARA20161124062510611/24/16 06:25:31  5-MIN KARA 241225Z 03006KT 10SM CLR 12/09 A3021 -230 86 -600 030/06 RMK AO2 T01170094 $
53915KARA ARA20161124063010611/24/16 06:30:31  5-MIN KARA 241230Z 02006KT 10SM CLR 12/09 A3021 -230 86 -600 020/06 RMK AO2 T01170094 $
53915KARA ARA20161124063510611/24/16 06:35:31  5-MIN KARA 241235Z 02005KT 10SM CLR 12/09 A3021 -230 86 -600 020/05 RMK AO2 T01170094 $
53915KARA ARA20161124064010511/24/16 06:40:31  5-MIN KARA 241240Z 01006KT 9SM CLR 12/09 A3021 -230 86 -600 010/06 RMK AO2 T01170094 $
53915KARA ARA20161124064510511/24/16 06:45:31  5-MIN KARA 241245Z 02005KT 8SM CLR 12/09 A3021 -230 86 -600 020/05 RMK AO2 T01170094 $
53915KARA ARA20161124065011211/24/16 06:50:31  5-MIN KARA 241250Z 02005KT 8SM CLR 12/09 A3021 -240 86 -600 020/05 RMK AO2 SLP229 T01170094 $
53915KARA ARA20161124065510511/24/16 06:55:31  5-MIN KARA 241255Z 03004KT 9SM CLR 12/10 A3021 -240 89 -600 030/04 RMK AO2 T01170100 $
53915KARA ARA20161124070010511/24/16 07:00:31  5-MIN KARA 241300Z 04004KT 9SM CLR 12/10 A3021 -240 89 -600 040/04 RMK AO2 T01170100 $
53915KARA ARA20161124070510511/24/16 07:05:31  5-MIN KARA 241305Z 04003KT 9SM CLR 12/10 A3021 -240 86 -500 040/03 RMK AO2 T01220100 $
53915KARA ARA20161124071010511/24/16 07:10:31  5-MIN KARA 241310Z 03004KT 9SM CLR 12/10 A3021 -240 86 -500 030/04 RMK AO2 T01220100 $
53915KARA ARA20161124071510511/24/16 07:15:31  5-MIN KARA 241315Z 03003KT 9SM CLR 12/10 A3021 -240 86 -500 020/03 RMK AO2 T01220100 $
53915KARA ARA20161124072010511/24/16 07:20:31  5-MIN KARA 241320Z 03004KT 9SM CLR 13/11 A3021 -240 86 -500 030/04 RMK AO2 T01280106 $
53915KARA ARA20161124072510611/24/16 07:25:31  5-MIN KARA 241325Z 04005KT 10SM CLR 13/11 A3021 -240 86 -500 030/05 RMK AO2 T01280106 $
53915KARA ARA20161124073010611/24/16 07:30:31  5-MIN KARA 241330Z 04005KT 10SM CLR 13/11 A3021 -240 86 -500 040/05 RMK AO2 T01280106 $
53915KARA ARA20161124073510611/24/16 07:35:31  5-MIN KARA 241335Z 04006KT 10SM CLR 13/11 A3022 -240 83 -400 040/06 RMK AO2 T01330106 $
53915KARA ARA20161124074010611/24/16 07:40:31  5-MIN KARA 241340Z 05006KT 10SM CLR 13/11 A3022 -240 83 -400 050/06 RMK AO2 T01330106 $
53915KARA ARA20161124074510611/24/16 07:45:31  5-MIN KARA 241345Z 04006KT 10SM CLR 13/11 A3022 -240 83 -400 040/06 RMK AO2 T01330106 $
53915KARA ARA20161124075011311/24/16 07:50:31  5-MIN KARA 241350Z 05006KT 10SM CLR 14/11 A3022 -240 80 -300 050/06 RMK AO2 SLP232 T01390106 $
53915KARA ARA20161124075510611/24/16 07:55:31  5-MIN KARA 241355Z 05006KT 10SM CLR 14/11 A3022 -250 80 -400 050/06 RMK AO2 T01390106 $
53915KARA ARA20161124080010611/24/16 08:00:31  5-MIN KARA 241400Z 05008KT 10SM CLR 14/11 A3022 -250 80 -400 050/08 RMK AO2 T01390106 $
53915KARA ARA20161124080510611/24/16 08:05:31  5-MIN KARA 241405Z 04007KT 10SM CLR 14/11 A3022 -250 80 -400 040/07 RMK AO2 T01390106 $
53915KARA ARA20161124081010611/24/16 08:10:31  5-MIN KARA 241410Z 05007KT 10SM CLR 14/11 A3023 -250 80 -400 050/07 RMK AO2 T01390106 $
53915KARA ARA20161124081510611/24/16 08:15:31  5-MIN KARA 241415Z 05006KT 10SM CLR 14/11 A3023 -250 80 -400 040/06 RMK AO2 T01390106 $
53915KARA ARA20161124082010611/24/16 08:20:31  5-MIN KARA 241420Z 05006KT 10SM CLR 14/11 A3023 -250 77 -300 050/06 RMK AO2 T01440106 $
53915KARA ARA20161124082510611/24/16 08:25:31  5-MIN KARA 241425Z 06005KT 10SM CLR 14/11 A3023 -250 77 -300 060/05 RMK AO2 T01440106 $
53915KARA ARA20161124083010611/24/16 08:30:31  5-MIN KARA 241430Z 04007KT 10SM CLR 14/11 A3023 -250 80 -300 040/07 RMK AO2 T01440111 $
53915KARA ARA20161124083510611/24/16 08:35:31  5-MIN KARA 241435Z 05005KT 10SM CLR 14/11 A3023 -260 80 -300 050/05 RMK AO2 T01440111 $
53915KARA ARA20161124084010611/24/16 08:40:31  5-MIN KARA 241440Z 05005KT 10SM CLR 15/11 A3023 -260 77 -200 050/05 RMK AO2 T01500111 $
53915KARA ARA20161124084510611/24/16 08:45:31  5-MIN KARA 241445Z 04006KT 10SM CLR 15/11 A3023 -260 77 -200 040/06 RMK AO2 T01500111 $
53915KARA ARA20161124085011911/24/16 08:50:31  5-MIN KARA 241450Z 06005KT 10SM CLR 15/11 A3023 -260 77 -200 060/05 RMK AO2 SLP237 T01500111 53010 $
53915KARA ARA20161124085510611/24/16 08:55:31  5-MIN KARA 241455Z 05005KT 10SM CLR 16/11 A3024 -260 74 -200 040/05 RMK AO2 T01560111 $
53915KARA ARA20161124090010611/24/16 09:00:31  5-MIN KARA 241500Z 04006KT 10SM CLR 16/11 A3024 -260 74 -200 040/06 RMK AO2 T01560111 $
53915KARA ARA20161124090510611/24/16 09:05:31  5-MIN KARA 241505Z 04006KT 10SM CLR 16/12 A3024 -260 75 -100 040/06 RMK AO2 T01610117 $
53915KARA ARA20161124091010611/24/16 09:10:31  5-MIN KARA 241510Z 04006KT 10SM CLR 16/11 A3024 -270 72 -100 040/06 RMK AO2 T01610111 $
53915KARA ARA20161124091510611/24/16 09:15:31  5-MIN KARA 241515Z 04005KT 10SM CLR 16/11 A3024 -270 72 -100 040/05 RMK AO2 T01610111 $
53915KARA ARA20161124092010311/24/16 09:20:31  5-MIN KARA 241520Z 04005KT 10SM CLR 17/12 A3024 -270 72 0 040/05 RMK AO2 T01670117 $
53915KARA ARA20161124092510311/24/16 09:25:31  5-MIN KARA 241525Z 04006KT 10SM CLR 17/12 A3024 -270 72 0 040/06 RMK AO2 T01670117 $
53915KARA ARA20161124093010311/24/16 09:30:31  5-MIN KARA 241530Z 05005KT 10SM CLR 17/12 A3024 -270 72 0 040/05 RMK AO2 T01670117 $
53915KARA ARA20161124093510611/24/16 09:35:31  5-MIN KARA 241535Z 05005KT 10SM CLR 17/12 A3025 -270 72 -100 050/05 RMK AO2 T01670117 $
53915KARA ARA20161124094010311/24/16 09:40:31  5-MIN KARA 241540Z 03005KT 10SM CLR 17/12 A3025 -270 69 0 030/05 RMK AO2 T01720117 $
53915KARA ARA20161124094510311/24/16 09:45:31  5-MIN KARA 241545Z 03006KT 10SM CLR 17/12 A3025 -270 69 0 030/06 RMK AO2 T01720117 $
53915KARA ARA20161124095011011/24/16 09:50:31  5-MIN KARA 241550Z 04006KT 10SM CLR 17/12 A3025 -270 69 0 040/06 RMK AO2 SLP242 T01720117 $
53915KARA ARA20161124095510311/24/16 09:55:31  5-MIN KARA 241555Z 04006KT 10SM CLR 18/12 A3025 -270 67 0 040/06 RMK AO2 T01780117 $
53915KARA ARA20161124100010311/24/16 10:00:31  5-MIN KARA 241600Z 04006KT 10SM CLR 18/12 A3025 -270 67 0 030/06 RMK AO2 T01780117 $
53915KARA ARA20161124100510511/24/16 10:05:31  5-MIN KARA 241605Z 04005KT 10SM CLR 18/12 A3025 -270 67 100 040/05 RMK AO2 T01830122 $
53915KARA ARA20161124101010511/24/16 10:10:31  5-MIN KARA 241610Z 02006KT 10SM CLR 18/12 A3025 -270 67 100 020/06 RMK AO2 T01830122 $
53915KARA ARA20161124101510511/24/16 10:15:31  5-MIN KARA 241615Z 03007KT 10SM CLR 18/12 A3025 -270 65 100 030/07 RMK AO2 T01830117 $
53915KARA ARA20161124102010511/24/16 10:20:31  5-MIN KARA 241620Z 03007KT 10SM CLR 18/12 A3025 -270 65 100 030/07 RMK AO2 T01830117 $
53915KARA ARA20161124102510511/24/16 10:25:31  5-MIN KARA 241625Z 03006KT 10SM CLR 19/12 A3025 -270 62 200 030/06 RMK AO2 T01890117 $
53915KARA ARA20161124103010511/24/16 10:30:31  5-MIN KARA 241630Z 02006KT 10SM CLR 19/12 A3025 -270 62 200 020/06 RMK AO2 T01890117 $
53915KARA ARA20161124103510511/24/16 10:35:31  5-MIN KARA 241635Z 03006KT 10SM CLR 19/12 A3024 -270 62 200 020/06 RMK AO2 T01890117 $
53915KARA ARA20161124104010511/24/16 10:40:31  5-MIN KARA 241640Z 04004KT 10SM CLR 19/12 A3024 -270 62 200 040/04 RMK AO2 T01890117 $
53915KARA ARA20161124104510511/24/16 10:45:31  5-MIN KARA 241645Z 07005KT 10SM CLR 19/12 A3024 -270 62 200 060/05 RMK AO2 T01940122 $
53915KARA ARA20161124105011211/24/16 10:50:31  5-MIN KARA 241650Z 04004KT 10SM CLR 20/12 A3024 -260 60 300 040/04 RMK AO2 SLP239 T02000122 $
53915KARA ARA20161124105510511/24/16 10:55:31  5-MIN KARA 241655Z 06004KT 10SM CLR 19/12 A3024 -260 62 200 060/04 RMK AO2 T01940122 $
53915KARA ARA20161124110010511/24/16 11:00:31  5-MIN KARA 241700Z 04005KT 10SM CLR 19/12 A3024 -260 62 200 040/05 RMK AO2 T01940122 $
53915KARA ARA20161124110510511/24/16 11:05:31  5-MIN KARA 241705Z 04006KT 10SM CLR 20/12 A3024 -260 60 300 040/06 RMK AO2 T02000122 $
53915KARA ARA20161124111010511/24/16 11:10:31  5-MIN KARA 241710Z 03005KT 10SM CLR 20/12 A3023 -260 60 300 030/05 RMK AO2 T02000122 $
53915KARA ARA20161124111510511/24/16 11:15:31  5-MIN KARA 241715Z VRB04KT 10SM CLR 20/12 A3023 -250 60 300 VRB/04 RMK AO2 T02000122 $
53915KARA ARA20161124112010511/24/16 11:20:31  5-MIN KARA 241720Z VRB05KT 10SM CLR 21/12 A3023 -250 58 400 VRB/05 RMK AO2 T02060122 $
53915KARA ARA20161124112510511/24/16 11:25:31  5-MIN KARA 241725Z 03007KT 10SM CLR 21/13 A3022 -250 60 400 030/07 RMK AO2 T02060128 $
53915KARA ARA20161124113010511/24/16 11:30:31  5-MIN KARA 241730Z 01007KT 10SM CLR 21/12 A3022 -250 58 400 010/07 RMK AO2 T02060122 $
53915KARA ARA20161124113510511/24/16 11:35:31  5-MIN KARA 241735Z 05006KT 10SM CLR 21/12 A3022 -240 56 400 050/06 RMK AO2 T02110122 $
53915KARA ARA20161124114010511/24/16 11:40:31  5-MIN KARA 241740Z 06006KT 10SM CLR 21/13 A3021 -240 58 500 060/06 RMK AO2 T02110128 $
53915KARA ARA20161124114510511/24/16 11:45:31  5-MIN KARA 241745Z 05005KT 10SM CLR 21/13 A3021 -240 58 500 050/05 RMK AO2 T02110128 $
53915KARA ARA20161124115013011/24/16 11:50:31  5-MIN KARA 241750Z 05005KT 10SM CLR 21/13 A3021 -240 58 500 050/05 RMK AO2 SLP229 T02110128 10211 20111 53010 $
53915KARA ARA20161124115510511/24/16 11:55:31  5-MIN KARA 241755Z 04005KT 10SM CLR 21/13 A3021 -240 58 500 040/05 RMK AO2 T02110128 $
53915KARA ARA20161124120010511/24/16 12:00:31  5-MIN KARA 241800Z 06003KT 10SM CLR 21/13 A3021 -240 58 500 060/03 RMK AO2 T02110128 $
53915KARA ARA20161124120510511/24/16 12:05:31  5-MIN KARA 241805Z 02005KT 10SM CLR 22/13 A3021 -240 56 500 020/05 RMK AO2 T02170128 $
53915KARA ARA20161124121010511/24/16 12:10:31  5-MIN KARA 241810Z 02004KT 10SM CLR 22/13 A3021 -230 56 500 020/04 RMK AO2 T02170128 $
53915KARA ARA20161124121510511/24/16 12:15:31  5-MIN KARA 241815Z 36004KT 10SM CLR 22/13 A3021 -230 54 600 360/04 RMK AO2 T02220128 $
53915KARA ARA20161124122010511/24/16 12:20:31  5-MIN KARA 241820Z 01004KT 10SM CLR 22/13 A3021 -230 56 500 010/04 RMK AO2 T02170128 $
53915KARA ARA20161124122510511/24/16 12:25:31  5-MIN KARA 241825Z VRB03KT 10SM CLR 22/13 A3021 -230 54 600 VRB/03 RMK AO2 T02220128 $
53915KARA ARA20161124123010511/24/16 12:30:31  5-MIN KARA 241830Z 01004KT 10SM CLR 23/13 A3020 -230 53 700 010/04 RMK AO2 T02280128 $
53915KARA ARA20161124123510511/24/16 12:35:31  5-MIN KARA 241835Z VRB03KT 10SM CLR 22/13 A3020 -230 54 600 VRB/03 RMK AO2 T02220128 $
53915KARA ARA20161124124010511/24/16 12:40:31  5-MIN KARA 241840Z 00000KT 10SM CLR 23/13 A3020 -230 53 700 000/00 RMK AO2 T02280128 $
53915KARA ARA20161124124510511/24/16 12:45:31  5-MIN KARA 241845Z 04004KT 10SM CLR 23/13 A3020 -220 51 700 030/04 RMK AO2 T02330128 $
53915KARA ARA20161124125011211/24/16 12:50:31  5-MIN KARA 241850Z 35005KT 10SM CLR 23/13 A3020 -220 53 700 350/05 RMK AO2 SLP225 T02280128 $
53915KARA ARA20161124125510511/24/16 12:55:31  5-MIN KARA 241855Z VRB04KT 10SM CLR 23/12 A3020 -220 49 700 VRB/04 RMK AO2 T02330122 $
53915KARA ARA20161124130010511/24/16 13:00:31  5-MIN KARA 241900Z 00000KT 10SM CLR 23/12 A3020 -220 51 700 000/00 RMK AO2 T02280122 $
53915KARA ARA20161124130510511/24/16 13:05:31  5-MIN KARA 241905Z VRB03KT 10SM CLR 23/12 A3019 -220 47 700 VRB/03 RMK AO2 T02330117 $
53915KARA ARA20161124131010511/24/16 13:10:31  5-MIN KARA 241910Z VRB03KT 10SM CLR 23/11 A3019 -220 47 700 VRB/03 RMK AO2 T02280111 $
53915KARA ARA20161124131510511/24/16 13:15:31  5-MIN KARA 241915Z 00000KT 10SM CLR 23/11 A3019 -220 47 700 000/00 RMK AO2 T02280111 $
53915KARA ARA20161124132010511/24/16 13:20:31  5-MIN KARA 241920Z 00000KT 10SM CLR 23/12 A3019 -220 49 700 000/00 RMK AO2 T02280117 $
53915KARA ARA20161124132510511/24/16 13:25:31  5-MIN KARA 241925Z VRB03KT 10SM CLR 24/12 A3019 -220 46 800 VRB/03 RMK AO2 T02390117 $
53915KARA ARA20161124133010511/24/16 13:30:31  5-MIN KARA 241930Z VRB04KT 10SM CLR 23/12 A3018 -210 47 700 VRB/04 RMK AO2 T02330117 $
53915KARA ARA20161124133510511/24/16 13:35:31  5-MIN KARA 241935Z VRB03KT 10SM CLR 23/12 A3018 -210 47 700 VRB/03 RMK AO2 T02330117 $
53915KARA ARA20161124134010511/24/16 13:40:31  5-MIN KARA 241940Z 00000KT 10SM CLR 23/12 A3018 -210 47 700 000/00 RMK AO2 T02330117 $
53915KARA ARA20161124134510511/24/16 13:45:31  5-MIN KARA 241945Z 00000KT 10SM CLR 24/12 A3018 -210 47 800 000/00 RMK AO2 T02390122 $
53915KARA ARA20161124135011211/24/16 13:50:31  5-MIN KARA 241950Z 00000KT 10SM CLR 23/12 A3018 -210 47 700 000/00 RMK AO2 SLP220 T02330117 $
53915KARA ARA20161124135510511/24/16 13:55:31  5-MIN KARA 241955Z 09004KT 10SM CLR 23/12 A3018 -210 47 700 090/04 RMK AO2 T02330117 $
53915KARA ARA20161124140010511/24/16 14:00:31  5-MIN KARA 242000Z 00000KT 10SM CLR 23/12 A3018 -210 47 700 000/00 RMK AO2 T02330117 $
53915KARA ARA20161124140510511/24/16 14:05:31  5-MIN KARA 242005Z VRB03KT 10SM CLR 23/12 A3018 -210 49 700 VRB/03 RMK AO2 T02330122 $
53915KARA ARA20161124141010511/24/16 14:10:31  5-MIN KARA 242010Z 13003KT 10SM CLR 24/12 A3018 -210 47 800 130/03 RMK AO2 T02390122 $
53915KARA ARA20161124141510511/24/16 14:15:31  5-MIN KARA 242015Z 00000KT 10SM CLR 24/12 A3018 -210 46 800 000/00 RMK AO2 T02390117 $
53915KARA ARA20161124142010511/24/16 14:20:31  5-MIN KARA 242020Z 00000KT 10SM CLR 24/12 A3018 -210 46 900 000/00 RMK AO2 T02440122 $
53915KARA ARA20161124142510511/24/16 14:25:31  5-MIN KARA 242025Z 00000KT 10SM CLR 24/12 A3018 -210 46 800 000/00 RMK AO2 T02390117 $
53915KARA ARA20161124143010511/24/16 14:30:31  5-MIN KARA 242030Z 29004KT 10SM CLR 24/11 A3018 -210 44 800 290/04 RMK AO2 T02390111 $
53915KARA ARA20161124143511011/24/16 14:35:31  5-MIN KARA 242035Z AUTO 26003KT 10SM CLR 24/11 A3018 -210 42 800 260/03 RMK AO2 T02390106 $
53915KARA ARA20161124144011011/24/16 14:40:31  5-MIN KARA 242040Z AUTO 33004KT 10SM CLR 24/11 A3018 -200 44 800 320/04 RMK AO2 T02390111 $
53915KARA ARA20161124144511011/24/16 14:45:31  5-MIN KARA 242045Z AUTO 32004KT 10SM CLR 24/11 A3018 -200 42 800 320/04 RMK AO2 T02390106 $
53915KARA ARA20161124145012311/24/16 14:50:31  5-MIN KARA 242050Z AUTO 33003KT 10SM CLR 24/11 A3018 -200 41 900 330/03 RMK AO2 SLP218 T02440106 58008 $
53915KARA ARA20161124145510511/24/16 14:55:31  5-MIN KARA 242055Z 30004KT 10SM CLR 24/11 A3018 -200 41 900 300/04 RMK AO2 T02440106 $
53915KARA ARA20161124150010511/24/16 15:00:31  5-MIN KARA 242100Z 28003KT 10SM CLR 24/11 A3018 -200 41 900 280/03 RMK AO2 T02440106 $
53915KARA ARA20161124150510511/24/16 15:05:31  5-MIN KARA 242105Z 00000KT 10SM CLR 24/11 A3017 -200 42 800 000/00 RMK AO2 T02390106 $
53915KARA ARA20161124151010511/24/16 15:10:31  5-MIN KARA 242110Z 28003KT 10SM CLR 24/11 A3017 -200 41 900 280/03 RMK AO2 T02440106 $
53915KARA ARA20161124151510511/24/16 15:15:31  5-MIN KARA 242115Z 32004KT 10SM CLR 24/11 A3018 -210 41 900 320/04 RMK AO2 T02440106 $
53915KARA ARA20161124152010511/24/16 15:20:31  5-MIN KARA 242120Z VRB03KT 10SM CLR 24/10 A3018 -210 41 800 VRB/03 RMK AO2 T02390100 $
53915KARA ARA20161124152510511/24/16 15:25:31  5-MIN KARA 242125Z 00000KT 10SM CLR 24/10 A3018 -210 39 900 000/00 RMK AO2 T02440100 $
53915KARA ARA20161124153010511/24/16 15:30:31  5-MIN KARA 242130Z VRB04KT 10SM CLR 25/10 A3018 -210 38 900 VRB/04 RMK AO2 T02500100 $
53915KARA ARA20161124153510511/24/16 15:35:31  5-MIN KARA 242135Z 31004KT 10SM CLR 24/11 A3018 -200 41 900 310/04 RMK AO2 T02440106 $
53915KARA ARA20161124154010511/24/16 15:40:31  5-MIN KARA 242140Z 32003KT 10SM CLR 24/11 A3018 -210 42 800 320/03 RMK AO2 T02390106 $
53915KARA ARA20161124154510511/24/16 15:45:31  5-MIN KARA 242145Z 00000KT 10SM CLR 24/10 A3018 -210 41 800 000/00 RMK AO2 T02390100 $
53915KARA ARA20161124155011211/24/16 15:50:31  5-MIN KARA 242150Z 00000KT 10SM CLR 24/11 A3018 -210 41 900 000/00 RMK AO2 SLP219 T02440106 $
53915KARA ARA20161124155510511/24/16 15:55:31  5-MIN KARA 242155Z 00000KT 10SM CLR 24/10 A3018 -210 41 800 000/00 RMK AO2 T02390100 $
53915KARA ARA20161124160010511/24/16 16:00:31  5-MIN KARA 242200Z 00000KT 10SM CLR 24/11 A3018 -210 42 800 000/00 RMK AO2 T02390106 $
53915KARA ARA20161124160510511/24/16 16:05:31  5-MIN KARA 242205Z 29003KT 10SM CLR 24/10 A3018 -210 41 800 280/03 RMK AO2 T02390100 $
53915KARA ARA20161124161010511/24/16 16:10:31  5-MIN KARA 242210Z 00000KT 10SM CLR 23/10 A3018 -200 42 800 000/00 RMK AO2 T02330100 $
53915KARA ARA20161124161510511/24/16 16:15:31  5-MIN KARA 242215Z 00000KT 10SM CLR 24/10 A3018 -200 41 800 000/00 RMK AO2 T02390100 $
53915KARA ARA20161124162010511/24/16 16:20:31  5-MIN KARA 242220Z 00000KT 10SM CLR 24/11 A3018 -210 42 800 000/00 RMK AO2 T02390106 $
53915KARA ARA20161124162510511/24/16 16:25:31  5-MIN KARA 242225Z 00000KT 10SM CLR 23/11 A3018 -210 44 800 000/00 RMK AO2 T02330106 $
53915KARA ARA20161124163010511/24/16 16:30:31  5-MIN KARA 242230Z 00000KT 10SM CLR 23/11 A3018 -210 44 800 000/00 RMK AO2 T02330106 $
53915KARA ARA20161124163510511/24/16 16:35:31  5-MIN KARA 242235Z 00000KT 10SM CLR 23/11 A3018 -210 44 800 000/00 RMK AO2 T02330106 $
53915KARA ARA20161124164010511/24/16 16:40:31  5-MIN KARA 242240Z 00000KT 10SM CLR 23/11 A3018 -210 44 800 000/00 RMK AO2 T02330106 $
53915KARA ARA20161124164510511/24/16 16:45:31  5-MIN KARA 242245Z 00000KT 10SM CLR 23/11 A3018 -210 47 700 000/00 RMK AO2 T02280111 $
53915KARA ARA20161124165011211/24/16 16:50:31  5-MIN KARA 242250Z 00000KT 10SM CLR 21/12 A3018 -210 56 500 000/00 RMK AO2 SLP218 T02110122 $
53915KARA ARA20161124165510511/24/16 16:55:31  5-MIN KARA 242255Z 00000KT 10SM CLR 21/12 A3018 -210 56 500 000/00 RMK AO2 T02110122 $
53915KARA ARA20161124170010511/24/16 17:00:31  5-MIN KARA 242300Z 00000KT 10SM CLR 21/12 A3018 -210 56 400 000/00 RMK AO2 T02060117 $
53915KARA ARA20161124170510511/24/16 17:05:31  5-MIN KARA 242305Z 00000KT 10SM CLR 20/12 A3018 -210 58 400 000/00 RMK AO2 T02000117 $
53915KARA ARA20161124171010511/24/16 17:10:31  5-MIN KARA 242310Z 00000KT 10SM CLR 19/12 A3018 -210 62 300 000/00 RMK AO2 T01940122 $
53915KARA ARA20161124171510511/24/16 17:15:31  5-MIN KARA 242315Z 00000KT 10SM CLR 19/13 A3018 -210 65 300 000/00 RMK AO2 T01940128 $
53915KARA ARA20161124172010511/24/16 17:20:31  5-MIN KARA 242320Z 00000KT 10SM CLR 18/12 A3018 -210 67 200 000/00 RMK AO2 T01830122 $
53915KARA ARA20161124172510511/24/16 17:25:31  5-MIN KARA 242325Z 36003KT 10SM CLR 18/13 A3018 -200 70 200 360/03 RMK AO2 T01830128 $
53915KARA ARA20161124173010511/24/16 17:30:31  5-MIN KARA 242330Z 35003KT 10SM CLR 19/11 A3018 -210 60 200 350/03 RMK AO2 T01890111 $
53915KARA ARA20161124173510511/24/16 17:35:31  5-MIN KARA 242335Z 36003KT 10SM CLR 18/11 A3018 -210 62 200 360/03 RMK AO2 T01830111 $
53915KARA ARA20161124174010511/24/16 17:40:31  5-MIN KARA 242340Z 01003KT 10SM CLR 18/11 A3018 -210 62 200 010/03 RMK AO2 T01830111 $
53915KARA ARA20161124174510511/24/16 17:45:31  5-MIN KARA 242345Z 01003KT 10SM CLR 18/11 A3018 -210 64 100 010/03 RMK AO2 T01780111 $
53915KARA ARA20161124175012811/24/16 17:50:31  5-MIN KARA 242350Z 01003KT 10SM CLR 17/11 A3018 -210 67 0 010/03 RMK AO2 SLP219 T01720111 10250 20172 56012 $
53915KARA ARA20161124175510311/24/16 17:55:31  5-MIN KARA 242355Z 00000KT 10SM CLR 16/12 A3018 -210 75 0 000/00 RMK AO2 T01610117 $
53915KARA ARA20161124180010611/24/16 18:00:31  5-MIN KARA 250000Z 00000KT 10SM CLR 16/12 A3019 -210 80 -100 000/00 RMK AO2 T01560122 $
53915KARA ARA20161124180510311/24/16 18:05:31  5-MIN KARA 250005Z 00000KT 10SM CLR 16/12 A3019 -210 77 0 000/00 RMK AO2 T01610122 $
53915KARA ARA20161124181010311/24/16 18:10:31  5-MIN KARA 250010Z 00000KT 10SM CLR 16/13 A3019 -210 80 0 000/00 RMK AO2 T01610128 $
53915KARA ARA20161124181510611/24/16 18:15:31  5-MIN KARA 250015Z 00000KT 10SM CLR 16/13 A3019 -220 80 -100 000/00 RMK AO2 T01610128 $
53915KARA ARA20161124182010611/24/16 18:20:31  5-MIN KARA 250020Z 18003KT 10SM CLR 16/12 A3019 -220 77 -100 180/03 RMK AO2 T01560117 $
53915KARA ARA20161124182510611/24/16 18:25:31  5-MIN KARA 250025Z 00000KT 10SM CLR 16/12 A3019 -220 77 -100 000/00 RMK AO2 T01560117 $
53915KARA ARA20161124183010611/24/16 18:30:31  5-MIN KARA 250030Z 00000KT 10SM CLR 16/12 A3019 -220 75 -100 000/00 RMK AO2 T01610117 $
53915KARA ARA20161124183510611/24/16 18:35:31  5-MIN KARA 250035Z 00000KT 10SM CLR 16/12 A3019 -220 75 -100 000/00 RMK AO2 T01610117 $
53915KARA ARA20161124184010611/24/16 18:40:31  5-MIN KARA 250040Z 00000KT 10SM CLR 16/12 A3020 -220 77 -100 000/00 RMK AO2 T01560117 $
53915KARA ARA20161124184510611/24/16 18:45:31  5-MIN KARA 250045Z 00000KT 10SM CLR 15/11 A3020 -220 77 -200 000/00 RMK AO2 T01500111 $
53915KARA ARA20161124185011311/24/16 18:50:31  5-MIN KARA 250050Z 00000KT 10SM CLR 14/11 A3020 -220 80 -300 000/00 RMK AO2 SLP225 T01440111 $
53915KARA ARA20161124185510611/24/16 18:55:31  5-MIN KARA 250055Z 00000KT 10SM CLR 14/11 A3020 -220 77 -300 000/00 RMK AO2 T01440106 $
53915KARA ARA20161124190010611/24/16 19:00:31  5-MIN KARA 250100Z 00000KT 10SM CLR 14/11 A3020 -230 80 -300 000/00 RMK AO2 T01440111 $
53915KARA ARA20161124190510611/24/16 19:05:31  5-MIN KARA 250105Z 00000KT 10SM CLR 14/11 A3020 -230 80 -300 000/00 RMK AO2 T01390106 $
53915KARA ARA20161124191010611/24/16 19:10:31  5-MIN KARA 250110Z 00000KT 10SM CLR 14/11 A3020 -230 80 -300 000/00 RMK AO2 T01390106 $
53915KARA ARA20161124191510611/24/16 19:15:31  5-MIN KARA 250115Z 00000KT 10SM CLR 14/11 A3020 -230 83 -300 000/00 RMK AO2 T01390111 $
53915KARA ARA20161124192010611/24/16 19:20:31  5-MIN KARA 250120Z 00000KT 10SM CLR 14/11 A3020 -230 83 -300 000/00 RMK AO2 T01390111 $
53915KARA ARA20161124192510611/24/16 19:25:31  5-MIN KARA 250125Z 13003KT 10SM CLR 13/11 A3020 -230 83 -400 130/03 RMK AO2 T01330106 $
53915KARA ARA20161124193010611/24/16 19:30:31  5-MIN KARA 250130Z 00000KT 10SM CLR 13/11 A3021 -230 83 -400 000/00 RMK AO2 T01330106 $
53915KARA ARA20161124193510611/24/16 19:35:31  5-MIN KARA 250135Z 00000KT 10SM CLR 13/11 A3021 -230 83 -400 000/00 RMK AO2 T01330106 $
53915KARA ARA20161124194010611/24/16 19:40:31  5-MIN KARA 250140Z 00000KT 10SM CLR 14/11 A3021 -230 83 -300 000/00 RMK AO2 T01390111 $
53915KARA ARA20161124194510611/24/16 19:45:31  5-MIN KARA 250145Z 00000KT 10SM CLR 13/11 A3021 -240 86 -400 000/00 RMK AO2 T01330111 $
53915KARA ARA20161124195011311/24/16 19:50:31  5-MIN KARA 250150Z 00000KT 10SM CLR 13/11 A3021 -240 83 -400 000/00 RMK AO2 SLP230 T01330106 $
53915KARA ARA20161124195510611/24/16 19:55:31  5-MIN KARA 250155Z 00000KT 10SM CLR 13/11 A3021 -240 86 -500 000/00 RMK AO2 T01280106 $
53915KARA ARA20161124200010611/24/16 20:00:31  5-MIN KARA 250200Z 00000KT 10SM CLR 13/11 A3021 -240 83 -400 000/00 RMK AO2 T01330106 $
53915KARA ARA20161124200510611/24/16 20:05:31  5-MIN KARA 250205Z 00000KT 10SM CLR 13/11 A3022 -240 83 -400 000/00 RMK AO2 T01330106 $
53915KARA ARA20161124201010611/24/16 20:10:31  5-MIN KARA 250210Z 00000KT 10SM CLR 13/11 A3022 -240 83 -400 000/00 RMK AO2 T01330106 $
53915KARA ARA20161124201510611/24/16 20:15:31  5-MIN KARA 250215Z 00000KT 10SM CLR 13/11 A3022 -240 86 -400 000/00 RMK AO2 T01330111 $
53915KARA ARA20161124202010511/24/16 20:20:31  5-MIN KARA 250220Z 00000KT 9SM CLR 13/11 A3022 -240 86 -400 000/00 RMK AO2 T01330111 $
53915KARA ARA20161124202510611/24/16 20:25:31  5-MIN KARA 250225Z 00000KT 10SM CLR 14/12 A3021 -240 86 -300 000/00 RMK AO2 T01390117 $
53915KARA ARA20161124203010511/24/16 20:30:31  5-MIN KARA 250230Z 33003KT 9SM CLR 13/11 A3022 -240 86 -400 330/03 RMK AO2 T01330111 $
53915KARA ARA20161124203510511/24/16 20:35:31  5-MIN KARA 250235Z 00000KT 9SM CLR 13/11 A3022 -240 89 -500 000/00 RMK AO2 T01280111 $
53915KARA ARA20161124204010511/24/16 20:40:31  5-MIN KARA 250240Z 36004KT 8SM CLR 12/10 A3022 -240 89 -600 360/04 RMK AO2 T01170100 $
53915KARA ARA20161124204510511/24/16 20:45:31  5-MIN KARA 250245Z 02003KT 8SM CLR 12/10 A3022 -240 89 -600 020/03 RMK AO2 T01170100 $
53915KARA ARA20161124205012411/24/16 20:50:31  5-MIN KARA 250250Z AUTO 00000KT 10SM CLR 12/10 A3022 -240 89 -600 000/00 RMK AO2 SLP232 T01170100 53002 $
53915KARA ARA20161124205511111/24/16 20:55:31  5-MIN KARA 250255Z AUTO 00000KT 10SM CLR 12/11 A3022 -240 89 -500 000/00 RMK AO2 T01220106 $
53915KARA ARA20161124210011011/24/16 21:00:31  5-MIN KARA 250300Z AUTO 00000KT 9SM CLR 13/11 A3022 -250 86 -500 000/00 RMK AO2 T01280106 $
53915KARA ARA20161124210511011/24/16 21:05:31  5-MIN KARA 250305Z AUTO 00000KT 7SM CLR 12/11 A3022 -250 89 -600 000/00 RMK AO2 T01220106 $
53915KARA ARA20161124211011011/24/16 21:10:31  5-MIN KARA 250310Z AUTO 00000KT 7SM CLR 12/11 A3022 -250 89 -600 000/00 RMK AO2 T01220106 $
53915KARA ARA20161124211511011/24/16 21:15:31  5-MIN KARA 250315Z AUTO 00000KT 8SM CLR 13/11 A3023 -250 86 -500 000/00 RMK AO2 T01280106 $
53915KARA ARA20161124212011011/24/16 21:20:31  5-MIN KARA 250320Z AUTO 00000KT 8SM CLR 13/11 A3023 -250 89 -500 000/00 RMK AO2 T01280111 $
53915KARA ARA20161124212511011/24/16 21:25:31  5-MIN KARA 250325Z AUTO 34003KT 8SM CLR 13/11 A3023 -250 86 -500 340/03 RMK AO2 T01280106 $
53915KARA ARA20161124213011011/24/16 21:30:31  5-MIN KARA 250330Z AUTO 00000KT 8SM CLR 13/11 A3023 -250 86 -500 000/00 RMK AO2 T01280106 $
53915KARA ARA20161124213511011/24/16 21:35:31  5-MIN KARA 250335Z AUTO 35003KT 8SM CLR 12/11 A3023 -250 89 -600 350/03 RMK AO2 T01220106 $
53915KARA ARA20161124214011011/24/16 21:40:31  5-MIN KARA 250340Z AUTO 01003KT 7SM CLR 12/11 A3023 -250 93 -600 010/03 RMK AO2 T01170106 $
53915KARA ARA20161124214511311/24/16 21:45:31  5-MIN KARA 250345Z AUTO 36003KT 6SM BR CLR 12/10 A3023 -250 89 -600 360/03 RMK AO2 T01170100 $
53915KARA ARA20161124215012011/24/16 21:50:31  5-MIN KARA 250350Z AUTO 35003KT 6SM BR CLR 12/11 A3023 -250 93 -600 350/03 RMK AO2 SLP235 T01170106 $
53915KARA ARA20161124215511311/24/16 21:55:31  5-MIN KARA 250355Z AUTO 36003KT 5SM BR CLR 12/10 A3023 -250 89 -600 350/03 RMK AO2 T01170100 $
53915KARA ARA20161124220011311/24/16 22:00:31  5-MIN KARA 250400Z AUTO 36003KT 6SM BR CLR 12/11 A3023 -250 89 -600 360/03 RMK AO2 T01220106 $
53915KARA ARA20161124220511311/24/16 22:05:31  5-MIN KARA 250405Z AUTO 01003KT 6SM BR CLR 12/10 A3023 -250 89 -600 010/03 RMK AO2 T01170100 $
53915KARA ARA20161124221011011/24/16 22:10:31  5-MIN KARA 250410Z AUTO 00000KT 7SM CLR 12/10 A3023 -250 89 -600 000/00 RMK AO2 T01170100 $
53915KARA ARA20161124221511011/24/16 22:15:31  5-MIN KARA 250415Z AUTO 00000KT 8SM CLR 12/10 A3023 -250 89 -600 000/00 RMK AO2 T01170100 $
53915KARA ARA20161124222011011/24/16 22:20:31  5-MIN KARA 250420Z AUTO 00000KT 9SM CLR 12/10 A3023 -250 89 -600 000/00 RMK AO2 T01170100 $
53915KARA ARA20161124222511011/24/16 22:25:31  5-MIN KARA 250425Z AUTO 00000KT 9SM CLR 12/10 A3023 -250 86 -600 000/00 RMK AO2 T01220100 $
53915KARA ARA20161124223011011/24/16 22:30:31  5-MIN KARA 250430Z AUTO 00000KT 8SM CLR 12/10 A3023 -250 89 -600 000/00 RMK AO2 T01170100 $
53915KARA ARA20161124223511011/24/16 22:35:31  5-MIN KARA 250435Z AUTO 00000KT 7SM CLR 12/10 A3023 -250 89 -600 000/00 RMK AO2 T01170100 $
53915KARA ARA20161124224011311/24/16 22:40:31  5-MIN KARA 250440Z AUTO 00000KT 6SM BR CLR 12/09 A3023 -250 86 -600 000/00 RMK AO2 T01170094 $
53915KARA ARA20161124224511311/24/16 22:45:31  5-MIN KARA 250445Z AUTO 00000KT 6SM BR CLR 11/09 A3023 -250 89 -700 000/00 RMK AO2 T01110094 $
53915KARA ARA20161124225012011/24/16 22:50:31  5-MIN KARA 250450Z AUTO 00000KT 5SM BR CLR 11/09 A3023 -250 89 -700 000/00 RMK AO2 SLP235 T01110094 $
53915KARA ARA20161124225511311/24/16 22:55:31  5-MIN KARA 250455Z AUTO 00000KT 5SM BR CLR 12/10 A3022 -250 89 -600 000/00 RMK AO2 T01170100 $
53915KARA ARA20161124230011011/24/16 23:00:31  5-MIN KARA 250500Z AUTO 00000KT 7SM CLR 12/10 A3023 -250 89 -600 000/00 RMK AO2 T01170100 $
53915KARA ARA20161124230511711/24/16 23:05:31  5-MIN KARA 250505Z AUTO 00000KT 2 1/2SM BR CLR 11/10 A3023 -250 96 -800 000/00 RMK AO2 T01060100 $
53915KARA ARA20161124231011311/24/16 23:10:31  5-MIN KARA 250510Z AUTO 00000KT 1SM BR CLR 11/09 A3022 -250 93 -800 000/00 RMK AO2 T01060094 $
53915KARA ARA20161124231511711/24/16 23:15:31  5-MIN KARA 250515Z AUTO 00000KT 1 1/4SM BR CLR 11/09 A3023 -250 89 -700 000/00 RMK AO2 T01110094 $
53915KARA ARA20161124232011311/24/16 23:20:31  5-MIN KARA 250520Z AUTO 00000KT 4SM BR CLR 11/09 A3023 -250 93 -800 000/00 RMK AO2 T01060094 $
53915KARA ARA20161124232511311/24/16 23:25:31  5-MIN KARA 250525Z AUTO 00000KT 5SM BR CLR 11/09 A3023 -250 89 -700 000/00 RMK AO2 T01110094 $
53915KARA ARA20161124233011311/24/16 23:30:31  5-MIN KARA 250530Z AUTO 00000KT 6SM BR CLR 11/09 A3023 -250 89 -700 000/00 RMK AO2 T01110094 $
53915KARA ARA20161124233511311/24/16 23:35:31  5-MIN KARA 250535Z AUTO 00000KT 6SM BR CLR 11/10 A3023 -250 93 -700 000/00 RMK AO2 T01110100 $
53915KARA ARA20161124234011011/24/16 23:40:31  5-MIN KARA 250540Z AUTO 35003KT 7SM CLR 11/09 A3023 -250 89 -700 350/03 RMK AO2 T01110094 $
53915KARA ARA20161124234511011/24/16 23:45:31  5-MIN KARA 250545Z AUTO 00000KT 8SM CLR 12/10 A3022 -250 89 -600 000/00 RMK AO2 T01170100 $
53915KARA ARA20161124235014811/24/16 23:50:31  5-MIN KARA 250550Z AUTO 35003KT 6SM BR CLR 11/10 A3022 -250 93 -700 350/03 RMK AO2 SLP233 T01110100 10161 20106 402500106 51013 $
53915KARA ARA20161124235511311/24/16 23:55:31  5-MIN KARA 250555Z AUTO 36004KT 5SM BR CLR 11/09 A3022 -250 89 -800 360/04 RMK AO2 T01060089 $
53915KARA ARA20161125000011311/25/16 00:00:31  5-MIN KARA 250600Z AUTO 35004KT 5SM BR CLR 11/09 A3022 -250 93 -800 350/04 RMK AO2 T01060094 $
53915KARA ARA20161125000511011/25/16 00:05:31  5-MIN KARA 250605Z AUTO 36004KT 7SM CLR 11/09 A3022 -250 93 -800 360/04 RMK AO2 T01060094 $
53915KARA ARA20161125001011011/25/16 00:10:31  5-MIN KARA 250610Z AUTO 34003KT 8SM CLR 11/09 A3022 -250 89 -700 340/03 RMK AO2 T01110094 $
53915KARA ARA20161125101510511/25/16 10:15:31  5-MIN KARA 251615Z 05004KT 10SM CLR 20/11 A3034 -360 56 200 050/04 RMK AO2 T02000111 $
53915KARA ARA20161125102010511/25/16 10:20:31  5-MIN KARA 251620Z 06006KT 10SM CLR 21/11 A3033 -350 54 300 060/06 RMK AO2 T02060111 $
53915KARA ARA20161125102510511/25/16 10:25:31  5-MIN KARA 251625Z 05008KT 10SM CLR 21/11 A3033 -350 52 300 050/08 RMK AO2 T02060106 $
53915KARA ARA20161125103010511/25/16 10:30:31  5-MIN KARA 251630Z 04007KT 10SM CLR 21/11 A3033 -350 52 300 040/07 RMK AO2 T02060106 $
53915KARA ARA20161125103510511/25/16 10:35:31  5-MIN KARA 251635Z 05006KT 10SM CLR 21/11 A3033 -340 52 300 050/06 RMK AO2 T02060106 $
53915KARA ARA20161125104010511/25/16 10:40:31  5-MIN KARA 251640Z 04006KT 10SM CLR 21/11 A3033 -340 54 300 040/06 RMK AO2 T02060111 $
53915KARA ARA20161125104510511/25/16 10:45:31  5-MIN KARA 251645Z VRB04KT 10SM CLR 21/11 A3033 -340 52 300 VRB/04 RMK AO2 T02110111 $
53915KARA ARA20161125105011211/25/16 10:50:31  5-MIN KARA 251650Z 04005KT 10SM CLR 22/11 A3032 -340 50 400 030/05 RMK AO2 SLP267 T02170111 $
53915KARA ARA20161125105510511/25/16 10:55:31  5-MIN KARA 251655Z 02006KT 10SM CLR 22/11 A3032 -340 50 400 020/06 RMK AO2 T02170111 $
53915KARA ARA20161125110010511/25/16 11:00:31  5-MIN KARA 251700Z 07006KT 10SM CLR 21/11 A3032 -340 52 300 070/06 RMK AO2 T02110111 $
53915KARA ARA20161125110510511/25/16 11:05:31  5-MIN KARA 251705Z 05005KT 10SM CLR 22/11 A3032 -330 50 400 050/05 RMK AO2 T02170111 $
53915KARA ARA20161125111010511/25/16 11:10:31  5-MIN KARA 251710Z 05007KT 10SM CLR 22/11 A3031 -330 47 500 050/07 RMK AO2 T02220106 $
53915KARA ARA20161125111510511/25/16 11:15:31  5-MIN KARA 251715Z 03008KT 10SM CLR 22/11 A3032 -330 47 500 030/08 RMK AO2 T02220106 $
53915KARA ARA20161125112010511/25/16 11:20:31  5-MIN KARA 251720Z 05007KT 10SM CLR 22/11 A3031 -330 47 500 050/07 RMK AO2 T02220106 $
53915KARA ARA20161125112510511/25/16 11:25:31  5-MIN KARA 251725Z 02006KT 10SM CLR 22/11 A3031 -330 47 500 020/06 RMK AO2 T02220106 $
53915KARA ARA20161125113010511/25/16 11:30:31  5-MIN KARA 251730Z 04006KT 10SM CLR 23/11 A3031 -330 45 500 040/06 RMK AO2 T02280106 $
53915KARA ARA20161125113510511/25/16 11:35:31  5-MIN KARA 251735Z 05006KT 10SM CLR 23/11 A3030 -320 45 500 050/06 RMK AO2 T02280106 $
53915KARA ARA20161125114010511/25/16 11:40:31  5-MIN KARA 251740Z 03005KT 10SM CLR 22/11 A3030 -310 47 500 030/05 RMK AO2 T02220106 $
53915KARA ARA20161125114510511/25/16 11:45:31  5-MIN KARA 251745Z 05008KT 10SM CLR 23/11 A3029 -310 45 600 050/08 RMK AO2 T02280106 $
53915KARA ARA20161125115013011/25/16 11:50:31  5-MIN KARA 251750Z 04009KT 10SM CLR 23/11 A3029 -310 45 600 040/09 RMK AO2 SLP257 T02280106 10228 20094 51019 $
53915KARA ARA20161125115510511/25/16 11:55:31  5-MIN KARA 251755Z 04006KT 10SM CLR 23/10 A3029 -310 44 600 040/06 RMK AO2 T02280100 $
53915KARA ARA20161125120010511/25/16 12:00:31  5-MIN KARA 251800Z 04009KT 10SM CLR 23/10 A3028 -300 44 600 040/09 RMK AO2 T02280100 $
53915KARA ARA20161125120510511/25/16 12:05:31  5-MIN KARA 251805Z 07007KT 10SM CLR 23/10 A3028 -300 42 600 060/07 RMK AO2 T02330100 $
53915KARA ARA20161125121010511/25/16 12:10:31  5-MIN KARA 251810Z 05007KT 10SM CLR 23/11 A3028 -300 44 600 050/07 RMK AO2 T02330106 $
53915KARA ARA20161125121510511/25/16 12:15:31  5-MIN KARA 251815Z VRB04KT 10SM CLR 23/11 A3028 -300 44 600 VRB/04 RMK AO2 T02330106 $
53915KARA ARA20161125122010511/25/16 12:20:31  5-MIN KARA 251820Z 01005KT 10SM CLR 23/11 A3027 -290 44 600 010/05 RMK AO2 T02330106 $
53915KARA ARA20161125122510511/25/16 12:25:31  5-MIN KARA 251825Z VRB05KT 10SM CLR 23/11 A3027 -290 44 700 VRB/05 RMK AO2 T02330106 $
53915KARA ARA20161125123010511/25/16 12:30:31  5-MIN KARA 251830Z 01006KT 10SM CLR 23/11 A3027 -290 44 700 010/06 RMK AO2 T02330106 $
53915KARA ARA20161125123510511/25/16 12:35:31  5-MIN KARA 251835Z 36008KT 10SM CLR 24/11 A3027 -290 42 700 360/08 RMK AO2 T02390106 $
53915KARA ARA20161125124010511/25/16 12:40:31  5-MIN KARA 251840Z VRB05KT 10SM CLR 24/10 A3026 -280 41 700 VRB/05 RMK AO2 T02390100 $
53915KARA ARA20161125124510511/25/16 12:45:31  5-MIN KARA 251845Z 04008KT 10SM CLR 24/10 A3026 -280 41 700 040/08 RMK AO2 T02390100 $
53915KARA ARA20161125125011211/25/16 12:50:31  5-MIN KARA 251850Z 06006KT 10SM CLR 24/10 A3025 -270 41 700 050/06 RMK AO2 SLP243 T02390100 $
53915KARA ARA20161125125510511/25/16 12:55:31  5-MIN KARA 251855Z 06007KT 10SM CLR 24/10 A3025 -270 41 700 060/07 RMK AO2 T02390100 $
53915KARA ARA20161125130010511/25/16 13:00:31  5-MIN KARA 251900Z 03006KT 10SM CLR 24/10 A3025 -270 41 700 030/06 RMK AO2 T02390100 $
53915KARA ARA20161125130510511/25/16 13:05:31  5-MIN KARA 251905Z VRB05KT 10SM CLR 24/10 A3025 -270 41 700 VRB/05 RMK AO2 T02390100 $
53915KARA ARA20161125131010511/25/16 13:10:31  5-MIN KARA 251910Z VRB05KT 10SM CLR 24/10 A3025 -270 41 700 VRB/05 RMK AO2 T02390100 $
53915KARA ARA20161125131510511/25/16 13:15:31  5-MIN KARA 251915Z 36007KT 10SM CLR 24/10 A3025 -270 39 800 360/07 RMK AO2 T02440100 $
53915KARA ARA20161125132010511/25/16 13:20:31  5-MIN KARA 251920Z 06006KT 10SM CLR 24/09 A3025 -270 38 800 060/06 RMK AO2 T02440094 $
53915KARA ARA20161125132510411/25/16 13:25:31  5-MIN KARA 251925Z 01005KT 9SM CLR 24/09 A3025 -270 39 700 010/05 RMK AO2 T02390094 $
53915KARA ARA20161125133010411/25/16 13:30:31  5-MIN KARA 251930Z 02006KT 9SM CLR 24/09 A3025 -270 38 800 020/06 RMK AO2 T02440094 $
53915KARA ARA20161125133510511/25/16 13:35:31  5-MIN KARA 251935Z 02007KT 10SM CLR 24/09 A3025 -270 38 800 020/07 RMK AO2 T02440094 $
53915KARA ARA20161125134010511/25/16 13:40:31  5-MIN KARA 251940Z 01005KT 10SM CLR 25/09 A3025 -270 37 900 010/05 RMK AO2 T02500094 $
53915KARA ARA20161125134510511/25/16 13:45:31  5-MIN KARA 251945Z 04007KT 10SM CLR 25/09 A3025 -270 35 900 040/07 RMK AO2 T02500089 $
53915KARA ARA20161125135011211/25/16 13:50:31  5-MIN KARA 251950Z 05007KT 10SM CLR 24/09 A3024 -270 36 800 050/07 RMK AO2 SLP240 T02440089 $
53915KARA ARA20161125135510511/25/16 13:55:31  5-MIN KARA 251955Z 03005KT 10SM CLR 24/09 A3024 -270 36 800 030/05 RMK AO2 T02440089 $
53915KARA ARA20161125140010511/25/16 14:00:31  5-MIN KARA 252000Z 04008KT 10SM CLR 25/09 A3024 -260 37 900 040/08 RMK AO2 T02500094 $
53915KARA ARA20161125140510511/25/16 14:05:31  5-MIN KARA 252005Z 04006KT 10SM CLR 25/09 A3024 -270 35 900 040/06 RMK AO2 T02500089 $
53915KARA ARA20161125141010511/25/16 14:10:31  5-MIN KARA 252010Z 04008KT 10SM CLR 25/08 A3024 -260 34 900 040/08 RMK AO2 T02500083 $
53915KARA ARA20161125141510511/25/16 14:15:31  5-MIN KARA 252015Z 02008KT 10SM CLR 25/08 A3024 -260 34 900 020/08 RMK AO2 T02500083 $
53915KARA ARA20161125142010511/25/16 14:20:31  5-MIN KARA 252020Z 01007KT 10SM CLR 25/08 A3024 -260 34 900 010/07 RMK AO2 T02500083 $
53915KARA ARA20161125142510511/25/16 14:25:31  5-MIN KARA 252025Z VRB06KT 10SM CLR 25/08 A3024 -260 34 900 VRB/06 RMK AO2 T02500083 $
53915KARA ARA20161125143011011/25/16 14:30:31  5-MIN KARA 252030Z AUTO 04008KT 10SM CLR 25/08 A3024 -260 34 900 040/08 RMK AO2 T02500083 $
53915KARA ARA20161125143511011/25/16 14:35:31  5-MIN KARA 252035Z AUTO 05008KT 10SM CLR 25/08 A3024 -260 34 900 040/08 RMK AO2 T02500083 $
53915KARA ARA20161125144011011/25/16 14:40:31  5-MIN KARA 252040Z AUTO 04007KT 10SM CLR 25/08 A3024 -260 34 900 040/07 RMK AO2 T02500083 $
53915KARA ARA20161125144511011/25/16 14:45:31  5-MIN KARA 252045Z AUTO 03007KT 10SM CLR 25/08 A3024 -260 34 900 030/07 RMK AO2 T02500083 $
53915KARA ARA20161125145011711/25/16 14:50:31  5-MIN KARA 252050Z 03009KT 9SM CLR 25/09 A3024 -260 35 900 030/09 RMK AO2 SLP239 T02500089 58012 $
53915KARA ARA20161125145510411/25/16 14:55:31  5-MIN KARA 252055Z 01008KT 7SM CLR 24/09 A3024 -260 38 800 360/08 RMK AO2 T02440094 $
53915KARA ARA20161125150010711/25/16 15:00:31  5-MIN KARA 252100Z 03008KT 5SM HZ CLR 24/09 A3024 -260 38 800 030/08 RMK AO2 T02440094 $
53915KARA ARA20161125150510711/25/16 15:05:31  5-MIN KARA 252105Z 03008KT 5SM HZ CLR 24/09 A3024 -260 38 800 020/08 RMK AO2 T02440094 $
53915KARA ARA20161125151010711/25/16 15:10:31  5-MIN KARA 252110Z 01006KT 5SM HZ CLR 24/09 A3024 -260 38 800 010/06 RMK AO2 T02440094 $
53915KARA ARA20161125151510711/25/16 15:15:31  5-MIN KARA 252115Z 03007KT 5SM HZ CLR 24/09 A3024 -260 38 800 030/07 RMK AO2 T02440094 $
53915KARA ARA20161125152010711/25/16 15:20:31  5-MIN KARA 252120Z 04008KT 4SM HZ CLR 24/09 A3024 -260 38 700 040/08 RMK AO2 T02390089 $
53915KARA ARA20161125152510711/25/16 15:25:31  5-MIN KARA 252125Z 03007KT 5SM HZ CLR 24/09 A3024 -260 38 700 030/07 RMK AO2 T02390089 $
53915KARA ARA20161125153010711/25/16 15:30:31  5-MIN KARA 252130Z 03008KT 5SM HZ CLR 24/09 A3024 -260 38 700 030/08 RMK AO2 T02390089 $
53915KARA ARA20161125153510711/25/16 15:35:31  5-MIN KARA 252135Z 04006KT 5SM HZ CLR 24/09 A3024 -270 38 700 040/06 RMK AO2 T02390089 $
53915KARA ARA20161125154010711/25/16 15:40:31  5-MIN KARA 252140Z 04005KT 6SM HZ CLR 24/09 A3024 -270 38 700 040/05 RMK AO2 T02390089 $
53915KARA ARA20161125154510711/25/16 15:45:31  5-MIN KARA 252145Z 03005KT 6SM HZ CLR 24/08 A3024 -260 36 700 030/05 RMK AO2 T02390083 $
53915KARA ARA20161125155011111/25/16 15:50:31  5-MIN KARA 252150Z 03004KT 8SM CLR 24/09 A3024 -270 38 700 030/04 RMK AO2 SLP240 T02390089 $
53915KARA ARA20161125155510411/25/16 15:55:31  5-MIN KARA 252155Z 02005KT 9SM CLR 24/09 A3024 -270 38 700 020/05 RMK AO2 T02390089 $
53915KARA ARA20161125160010511/25/16 16:00:31  5-MIN KARA 252200Z 02004KT 10SM CLR 24/09 A3024 -270 38 700 020/04 RMK AO2 T02390089 $
53915KARA ARA20161125160510511/25/16 16:05:31  5-MIN KARA 252205Z 04008KT 10SM CLR 24/09 A3025 -270 39 700 040/08 RMK AO2 T02390094 $
53915KARA ARA20161125161010511/25/16 16:10:31  5-MIN KARA 252210Z 03008KT 10SM CLR 23/09 A3025 -270 41 700 030/08 RMK AO2 T02330094 $
53915KARA ARA20161125161510511/25/16 16:15:31  5-MIN KARA 252215Z 01006KT 10SM CLR 23/09 A3025 -270 41 700 010/06 RMK AO2 T02330094 $
53915KARA ARA20161125162010511/25/16 16:20:31  5-MIN KARA 252220Z 36005KT 10SM CLR 23/09 A3025 -270 41 700 360/05 RMK AO2 T02330094 $
53915KARA ARA20161125162510511/25/16 16:25:31  5-MIN KARA 252225Z 36006KT 10SM CLR 23/09 A3025 -270 42 600 360/06 RMK AO2 T02280094 $
53915KARA ARA20161125163010511/25/16 16:30:31  5-MIN KARA 252230Z 01005KT 10SM CLR 22/09 A3025 -270 43 500 360/05 RMK AO2 T02220094 $
53915KARA ARA20161125163510511/25/16 16:35:31  5-MIN KARA 252235Z 35005KT 10SM CLR 22/09 A3025 -280 45 500 350/05 RMK AO2 T02170094 $
53915KARA ARA20161125164010511/25/16 16:40:31  5-MIN KARA 252240Z 35007KT 10SM CLR 22/10 A3026 -280 47 500 350/07 RMK AO2 T02170100 $
53915KARA ARA20161125164510511/25/16 16:45:31  5-MIN KARA 252245Z 34006KT 10SM CLR 21/11 A3026 -280 50 400 340/06 RMK AO2 T02110106 $
53915KARA ARA20161125165011211/25/16 16:50:31  5-MIN KARA 252250Z 34007KT 10SM CLR 21/11 A3026 -280 50 400 340/07 RMK AO2 SLP246 T02110106 $
53915KARA ARA20161125165510511/25/16 16:55:31  5-MIN KARA 252255Z 34007KT 10SM CLR 21/11 A3026 -280 52 300 340/07 RMK AO2 T02060106 $
53915KARA ARA20161125170010511/25/16 17:00:31  5-MIN KARA 252300Z 34007KT 10SM CLR 20/11 A3026 -280 56 300 340/07 RMK AO2 T02000111 $
53915KARA ARA20161125170510511/25/16 17:05:31  5-MIN KARA 252305Z 34006KT 10SM CLR 20/11 A3026 -280 54 300 340/06 RMK AO2 T02000106 $
53915KARA ARA20161125171010511/25/16 17:10:31  5-MIN KARA 252310Z 35006KT 10SM CLR 20/11 A3026 -280 54 300 350/06 RMK AO2 T02000106 $
53915KARA ARA20161125171510511/25/16 17:15:31  5-MIN KARA 252315Z 35007KT 10SM CLR 19/11 A3026 -280 58 100 350/07 RMK AO2 T01890106 $
53915KARA ARA20161125172010511/25/16 17:20:31  5-MIN KARA 252320Z 36006KT 10SM CLR 18/11 A3026 -280 60 100 360/06 RMK AO2 T01830106 $
53915KARA ARA20161125172510311/25/16 17:25:31  5-MIN KARA 252325Z 36006KT 10SM CLR 18/11 A3027 -290 62 0 360/06 RMK AO2 T01780106 $
53915KARA ARA20161125173010311/25/16 17:30:31  5-MIN KARA 252330Z 36006KT 10SM CLR 18/11 A3027 -290 62 0 360/06 RMK AO2 T01780106 $
53915KARA ARA20161125173510511/25/16 17:35:31  5-MIN KARA 252335Z 36006KT 10SM CLR 18/11 A3027 -290 60 100 350/06 RMK AO2 T01830106 $
53915KARA ARA20161125174010511/25/16 17:40:31  5-MIN KARA 252340Z 35006KT 10SM CLR 18/11 A3027 -290 60 100 350/06 RMK AO2 T01830106 $
53915KARA ARA20161125174510311/25/16 17:45:31  5-MIN KARA 252345Z 35006KT 10SM CLR 18/11 A3027 -290 62 0 350/06 RMK AO2 T01780106 $
53915KARA ARA20161125175012811/25/16 17:50:31  5-MIN KARA 252350Z 35006KT 10SM CLR 18/11 A3027 -290 62 0 350/06 RMK AO2 SLP250 T01780106 10250 20178 56017 $
53915KARA ARA20161125175510311/25/16 17:55:31  5-MIN KARA 252355Z 35006KT 10SM CLR 18/11 A3027 -290 62 0 350/06 RMK AO2 T01780106 $
53915KARA ARA20161125180010311/25/16 18:00:31  5-MIN KARA 260000Z 35007KT 10SM CLR 18/10 A3027 -290 60 0 350/07 RMK AO2 T01780100 $
53915KARA ARA20161125180510311/25/16 18:05:31  5-MIN KARA 260005Z 36006KT 10SM CLR 18/10 A3027 -290 60 0 360/06 RMK AO2 T01780100 $
53915KARA ARA20161125181010611/25/16 18:10:31  5-MIN KARA 260010Z 36005KT 10SM CLR 17/10 A3027 -290 64 -100 360/05 RMK AO2 T01670100 $
53915KARA ARA20161125181510611/25/16 18:15:31  5-MIN KARA 260015Z 36005KT 10SM CLR 17/10 A3028 -300 64 -100 360/05 RMK AO2 T01670100 $
53915KARA ARA20161125182010311/25/16 18:20:31  5-MIN KARA 260020Z 36005KT 10SM CLR 17/10 A3028 -300 62 0 360/05 RMK AO2 T01720100 $
53915KARA ARA20161125182510311/25/16 18:25:31  5-MIN KARA 260025Z 36005KT 10SM CLR 17/11 A3028 -300 64 0 360/05 RMK AO2 T01720106 $
53915KARA ARA20161125183010311/25/16 18:30:31  5-MIN KARA 260030Z 36006KT 10SM CLR 17/10 A3028 -300 62 0 360/06 RMK AO2 T01720100 $
53915KARA ARA20161125183510611/25/16 18:35:31  5-MIN KARA 260035Z 36006KT 10SM CLR 17/10 A3028 -300 64 -100 360/06 RMK AO2 T01670100 $
53915KARA ARA20161125184010611/25/16 18:40:31  5-MIN KARA 260040Z 36006KT 10SM CLR 17/10 A3028 -300 64 -100 360/06 RMK AO2 T01670100 $
53915KARA ARA20161125184510611/25/16 18:45:31  5-MIN KARA 260045Z 36006KT 10SM CLR 17/10 A3028 -300 64 -100 360/06 RMK AO2 T01670100 $
53915KARA ARA20161125185011311/25/16 18:50:31  5-MIN KARA 260050Z 01005KT 10SM CLR 17/10 A3028 -300 64 -100 010/05 RMK AO2 SLP254 T01670100 $
53915KARA ARA20161125185510611/25/16 18:55:31  5-MIN KARA 260055Z 01005KT 10SM CLR 17/10 A3028 -300 64 -100 360/05 RMK AO2 T01670100 $
53915KARA ARA20161125190010611/25/16 19:00:31  5-MIN KARA 260100Z 36006KT 10SM CLR 17/10 A3028 -300 64 -100 360/06 RMK AO2 T01670100 $
53915KARA ARA20161125190510611/25/16 19:05:31  5-MIN KARA 260105Z 36006KT 10SM CLR 17/10 A3029 -310 64 -100 360/06 RMK AO2 T01670100 $
53915KARA ARA20161125191010611/25/16 19:10:31  5-MIN KARA 260110Z 36006KT 10SM CLR 17/10 A3029 -310 64 -100 360/06 RMK AO2 T01670100 $
53915KARA ARA20161125191510611/25/16 19:15:31  5-MIN KARA 260115Z 36006KT 10SM CLR 16/10 A3029 -310 67 -200 360/06 RMK AO2 T01610100 $
53915KARA ARA20161125192010611/25/16 19:20:31  5-MIN KARA 260120Z 36006KT 10SM CLR 16/10 A3029 -310 67 -200 360/06 RMK AO2 T01610100 $
53915KARA ARA20161125192510611/25/16 19:25:31  5-MIN KARA 260125Z 36007KT 10SM CLR 16/10 A3029 -310 69 -200 360/07 RMK AO2 T01560100 $
53915KARA ARA20161125193010611/25/16 19:30:31  5-MIN KARA 260130Z 36008KT 10SM CLR 16/10 A3029 -310 67 -200 360/08 RMK AO2 T01610100 $
53915KARA ARA20161125193510611/25/16 19:35:31  5-MIN KARA 260135Z 36008KT 10SM CLR 16/10 A3029 -310 69 -200 360/08 RMK AO2 T01560100 $
53915KARA ARA20161125194010611/25/16 19:40:31  5-MIN KARA 260140Z 36008KT 10SM CLR 16/10 A3029 -310 67 -200 360/08 RMK AO2 T01610100 $
53915KARA ARA20161125194510611/25/16 19:45:31  5-MIN KARA 260145Z 36007KT 10SM CLR 16/10 A3029 -310 69 -200 360/07 RMK AO2 T01560100 $
53915KARA ARA20161125195011311/25/16 19:50:31  5-MIN KARA 260150Z 36007KT 10SM CLR 16/10 A3029 -310 69 -200 360/07 RMK AO2 SLP258 T01560100 $
53915KARA ARA20161125195510611/25/16 19:55:31  5-MIN KARA 260155Z 01007KT 10SM CLR 16/10 A3029 -310 69 -200 360/07 RMK AO2 T01560100 $
53915KARA ARA20161125200010611/25/16 20:00:31  5-MIN KARA 260200Z 01008KT 10SM CLR 16/11 A3029 -310 69 -200 010/08 RMK AO2 T01610106 $
53915KARA ARA20161125200510611/25/16 20:05:31  5-MIN KARA 260205Z 01007KT 10SM CLR 17/11 A3030 -320 67 -100 010/07 RMK AO2 T01670106 $
53915KARA ARA20161125201010611/25/16 20:10:31  5-MIN KARA 260210Z 01007KT 10SM CLR 17/10 A3030 -320 64 -100 010/07 RMK AO2 T01670100 $
53915KARA ARA20161125201510611/25/16 20:15:31  5-MIN KARA 260215Z 01006KT 10SM CLR 16/10 A3030 -320 67 -200 010/06 RMK AO2 T01610100 $
53915KARA ARA20161125202010611/25/16 20:20:31  5-MIN KARA 260220Z 01007KT 10SM CLR 16/10 A3031 -320 67 -200 010/07 RMK AO2 T01610100 $
53915KARA ARA20161125202510611/25/16 20:25:31  5-MIN KARA 260225Z 02007KT 10SM CLR 16/10 A3031 -320 67 -200 010/07 RMK AO2 T01610100 $
53915KARA ARA20161125203010611/25/16 20:30:31  5-MIN KARA 260230Z 02007KT 10SM CLR 16/10 A3031 -320 67 -200 010/07 RMK AO2 T01610100 $
53915KARA ARA20161125203510611/25/16 20:35:31  5-MIN KARA 260235Z 02008KT 10SM CLR 16/10 A3031 -330 67 -200 020/08 RMK AO2 T01610100 $
53915KARA ARA20161125204010611/25/16 20:40:31  5-MIN KARA 260240Z 02007KT 10SM CLR 16/10 A3031 -330 67 -200 020/07 RMK AO2 T01610100 $
53915KARA ARA20161125204510611/25/16 20:45:31  5-MIN KARA 260245Z 02008KT 10SM CLR 16/10 A3031 -320 67 -200 020/08 RMK AO2 T01610100 $
53915KARA ARA20161125205011911/25/16 20:50:31  5-MIN KARA 260250Z 02009KT 10SM CLR 16/10 A3031 -320 67 -200 020/09 RMK AO2 SLP262 T01610100 53011 $
53915KARA ARA20161125205511111/25/16 20:55:31  5-MIN KARA 260255Z AUTO 03009KT 10SM CLR 16/10 A3031 -330 67 -200 030/09 RMK AO2 T01610100 $
53915KARA ARA20161125210011111/25/16 21:00:31  5-MIN KARA 260300Z AUTO 03009KT 10SM CLR 16/10 A3031 -330 67 -200 030/09 RMK AO2 T01610100 $
53915KARA ARA20161125210511111/25/16 21:05:31  5-MIN KARA 260305Z AUTO 03009KT 10SM CLR 16/10 A3031 -330 67 -200 030/09 RMK AO2 T01610100 $
53915KARA ARA20161125211011111/25/16 21:10:31  5-MIN KARA 260310Z AUTO 03008KT 10SM CLR 16/10 A3031 -330 67 -200 030/08 RMK AO2 T01610100 $
53915KARA ARA20161125211511111/25/16 21:15:31  5-MIN KARA 260315Z AUTO 03008KT 10SM CLR 16/10 A3031 -330 67 -200 030/08 RMK AO2 T01610100 $
53915KARA ARA20161125212011111/25/16 21:20:31  5-MIN KARA 260320Z AUTO 03008KT 10SM CLR 16/10 A3031 -330 67 -200 020/08 RMK AO2 T01610100 $
53915KARA ARA20161125212511111/25/16 21:25:31  5-MIN KARA 260325Z AUTO 03008KT 10SM CLR 16/10 A3031 -330 67 -200 030/08 RMK AO2 T01610100 $
53915KARA ARA20161125213011111/25/16 21:30:31  5-MIN KARA 260330Z AUTO 03008KT 10SM CLR 16/10 A3031 -330 69 -300 030/08 RMK AO2 T01560100 $
53915KARA ARA20161125213511111/25/16 21:35:31  5-MIN KARA 260335Z AUTO 02007KT 10SM CLR 16/10 A3031 -330 67 -200 020/07 RMK AO2 T01610100 $
53915KARA ARA20161125214011111/25/16 21:40:31  5-MIN KARA 260340Z AUTO 03008KT 10SM CLR 16/10 A3031 -330 69 -300 030/08 RMK AO2 T01560100 $
53915KARA ARA20161125214511111/25/16 21:45:31  5-MIN KARA 260345Z AUTO 02007KT 10SM CLR 16/10 A3031 -330 69 -300 020/07 RMK AO2 T01560100 $
53915KARA ARA20161125215011811/25/16 21:50:31  5-MIN KARA 260350Z AUTO 02006KT 10SM CLR 16/10 A3031 -330 69 -300 020/06 RMK AO2 SLP264 T01560100 $
53915KARA ARA20161125215511111/25/16 21:55:31  5-MIN KARA 260355Z AUTO 03006KT 10SM CLR 16/10 A3031 -330 69 -300 030/06 RMK AO2 T01560100 $
53915KARA ARA20161125220011111/25/16 22:00:31  5-MIN KARA 260400Z AUTO 02006KT 10SM CLR 15/10 A3031 -330 72 -300 020/06 RMK AO2 T01500100 $
53915KARA ARA20161125220511111/25/16 22:05:31  5-MIN KARA 260405Z AUTO 02006KT 10SM CLR 15/10 A3032 -330 72 -300 020/06 RMK AO2 T01500100 $
53915KARA ARA20161125221011111/25/16 22:10:31  5-MIN KARA 260410Z AUTO 01007KT 10SM CLR 15/10 A3032 -330 72 -300 010/07 RMK AO2 T01500100 $
53915KARA ARA20161126191511111/26/16 19:15:31  5-MIN KARA 270115Z AUTO 36006KT 10SM CLR 11/08 A3027 -290 80 -700 360/06 RMK AO2 T01110078 $
53915KARA ARA20161126192011111/26/16 19:20:31  5-MIN KARA 270120Z AUTO 36005KT 10SM CLR 11/07 A3027 -290 77 -700 360/05 RMK AO2 T01110072 $
53915KARA ARA20161126192511111/26/16 19:25:31  5-MIN KARA 270125Z AUTO 35004KT 10SM CLR 11/08 A3027 -290 80 -700 350/04 RMK AO2 T01110078 $
53915KARA ARA20161126193011111/26/16 19:30:31  5-MIN KARA 270130Z AUTO 35005KT 10SM CLR 11/07 A3027 -290 80 -800 350/05 RMK AO2 T01060072 $
53915KARA ARA20161126193511111/26/16 19:35:31  5-MIN KARA 270135Z AUTO 36005KT 10SM CLR 11/08 A3028 -300 80 -700 350/05 RMK AO2 T01110078 $
53915KARA ARA20161126194011111/26/16 19:40:31  5-MIN KARA 270140Z AUTO 36005KT 10SM CLR 11/08 A3028 -300 80 -700 360/05 RMK AO2 T01110078 $
53915KARA ARA20161126194511111/26/16 19:45:31  5-MIN KARA 270145Z AUTO 36005KT 10SM CLR 11/08 A3028 -300 80 -700 360/05 RMK AO2 T01110078 $
53915KARA ARA20161126195011811/26/16 19:50:31  5-MIN KARA 270150Z AUTO 36005KT 10SM CLR 11/07 A3028 -300 80 -800 360/05 RMK AO2 SLP251 T01060072 $
53915KARA ARA20161126195511111/26/16 19:55:31  5-MIN KARA 270155Z AUTO 36005KT 10SM CLR 11/07 A3028 -300 80 -800 360/05 RMK AO2 T01060072 $
53915KARA ARA20161126200011111/26/16 20:00:31  5-MIN KARA 270200Z AUTO 36005KT 10SM CLR 11/07 A3028 -300 80 -800 360/05 RMK AO2 T01060072 $
53915KARA ARA20161126200511111/26/16 20:05:31  5-MIN KARA 270205Z AUTO 36006KT 10SM CLR 11/07 A3027 -300 80 -800 360/06 RMK AO2 T01060072 $
53915KARA ARA20161126201011111/26/16 20:10:31  5-MIN KARA 270210Z AUTO 36005KT 10SM CLR 11/07 A3028 -300 80 -800 360/05 RMK AO2 T01060072 $
53915KARA ARA20161126201511111/26/16 20:15:31  5-MIN KARA 270215Z AUTO 01005KT 10SM CLR 11/07 A3028 -300 80 -800 360/05 RMK AO2 T01060072 $
53915KARA ARA20161126202011111/26/16 20:20:31  5-MIN KARA 270220Z AUTO 36005KT 10SM CLR 11/07 A3028 -300 80 -800 360/05 RMK AO2 T01060072 $
53915KARA ARA20161126202511111/26/16 20:25:31  5-MIN KARA 270225Z AUTO 36005KT 10SM CLR 11/07 A3028 -300 80 -800 360/05 RMK AO2 T01060072 $
53915KARA ARA20161126203011111/26/16 20:30:31  5-MIN KARA 270230Z AUTO 36005KT 10SM CLR 11/07 A3028 -300 80 -800 360/05 RMK AO2 T01060072 $
53915KARA ARA20161126203511111/26/16 20:35:31  5-MIN KARA 270235Z AUTO 36006KT 10SM CLR 10/07 A3028 -300 83 -900 360/06 RMK AO2 T01000072 $
53915KARA ARA20161126204011111/26/16 20:40:31  5-MIN KARA 270240Z AUTO 36006KT 10SM CLR 10/07 A3028 -300 83 -900 360/06 RMK AO2 T01000072 $
53915KARA ARA20161126204511111/26/16 20:45:31  5-MIN KARA 270245Z AUTO 36005KT 10SM CLR 10/07 A3028 -300 83 -900 360/05 RMK AO2 T01000072 $
53915KARA ARA20161126205012411/26/16 20:50:31  5-MIN KARA 270250Z AUTO 36005KT 10SM CLR 10/07 A3028 -300 83 -900 360/05 RMK AO2 SLP253 T01000072 56008 $
53915KARA ARA20161126205511111/26/16 20:55:31  5-MIN KARA 270255Z AUTO 36005KT 10SM CLR 10/07 A3028 -300 83 -900 360/05 RMK AO2 T01000072 $
53915KARA ARA20161126210011111/26/16 21:00:31  5-MIN KARA 270300Z AUTO 36005KT 10SM CLR 10/07 A3028 -300 83 -900 360/05 RMK AO2 T01000072 $
53915KARA ARA20161126210511111/26/16 21:05:31  5-MIN KARA 270305Z AUTO 35005KT 10SM CLR 10/07 A3028 -300 83 -900 350/05 RMK AO2 T01000072 $
53915KARA ARA20161126211011111/26/16 21:10:31  5-MIN KARA 270310Z AUTO 36005KT 10SM CLR 10/07 A3029 -300 83 -900 360/05 RMK AO2 T01000072 $
53915KARA ARA20161126211511111/26/16 21:15:31  5-MIN KARA 270315Z AUTO 36005KT 10SM CLR 10/07 A3029 -310 83 -900 360/05 RMK AO2 T01000072 $
53915KARA ARA20161126212011111/26/16 21:20:31  5-MIN KARA 270320Z AUTO 36005KT 10SM CLR 10/07 A3029 -310 83 -900 360/05 RMK AO2 T01000072 $
53915KARA ARA20161126212511111/26/16 21:25:31  5-MIN KARA 270325Z AUTO 01005KT 10SM CLR 10/07 A3029 -310 83 -900 010/05 RMK AO2 T01000072 $
53915KARA ARA20161126213011211/26/16 21:30:31  5-MIN KARA 270330Z AUTO 02005KT 10SM CLR 09/07 A3029 -310 83 -1000 010/05 RMK AO2 T00940067 $
53915KARA ARA20161126213511211/26/16 21:35:31  5-MIN KARA 270335Z AUTO 01006KT 10SM CLR 09/07 A3029 -310 83 -1000 010/06 RMK AO2 T00940067 $
53915KARA ARA20161126214011211/26/16 21:40:31  5-MIN KARA 270340Z AUTO 02006KT 10SM CLR 09/07 A3029 -310 83 -1000 020/06 RMK AO2 T00940067 $
53915KARA ARA20161126214511211/26/16 21:45:31  5-MIN KARA 270345Z AUTO 01006KT 10SM CLR 09/07 A3029 -310 83 -1000 010/06 RMK AO2 T00940067 $
53915KARA ARA20161126215011911/26/16 21:50:31  5-MIN KARA 270350Z AUTO 02005KT 10SM CLR 09/07 A3029 -310 83 -1000 020/05 RMK AO2 SLP255 T00940067 $
53915KARA ARA20161126215511211/26/16 21:55:31  5-MIN KARA 270355Z AUTO 02005KT 10SM CLR 09/07 A3029 -310 83 -1000 020/05 RMK AO2 T00940067 $
53915KARA ARA20161126220011211/26/16 22:00:31  5-MIN KARA 270400Z AUTO 02006KT 10SM CLR 09/07 A3028 -300 86 -1000 020/06 RMK AO2 T00940072 $
53915KARA ARA20161126220511111/26/16 22:05:31  5-MIN KARA 270405Z AUTO 03007KT 10SM CLR 10/07 A3028 -300 83 -900 030/07 RMK AO2 T01000072 $
53915KARA ARA20161126221011111/26/16 22:10:31  5-MIN KARA 270410Z AUTO 03008KT 10SM CLR 10/08 A3028 -300 86 -900 030/08 RMK AO2 T01000078 $
53915KARA ARA20161126221511111/26/16 22:15:31  5-MIN KARA 270415Z AUTO 03007KT 10SM CLR 10/07 A3028 -300 83 -900 030/07 RMK AO2 T01000072 $
53915KARA ARA20161126222011111/26/16 22:20:31  5-MIN KARA 270420Z AUTO 03007KT 10SM CLR 11/07 A3028 -300 80 -800 030/07 RMK AO2 T01060072 $
53915KARA ARA20161126222511111/26/16 22:25:31  5-MIN KARA 270425Z AUTO 03006KT 10SM CLR 10/07 A3028 -300 83 -900 030/06 RMK AO2 T01000072 $
53915KARA ARA20161126223011111/26/16 22:30:31  5-MIN KARA 270430Z AUTO 03005KT 10SM CLR 10/07 A3028 -300 83 -900 030/05 RMK AO2 T01000072 $
53915KARA ARA20161126223511111/26/16 22:35:31  5-MIN KARA 270435Z AUTO 03006KT 10SM CLR 10/07 A3028 -300 83 -900 030/06 RMK AO2 T01000072 $
53915KARA ARA20161126224011111/26/16 22:40:31  5-MIN KARA 270440Z AUTO 03006KT 10SM CLR 10/07 A3028 -300 83 -900 030/06 RMK AO2 T01000072 $
53915KARA ARA20161126224511111/26/16 22:45:31  5-MIN KARA 270445Z AUTO 04007KT 10SM CLR 10/07 A3028 -300 83 -900 040/07 RMK AO2 T01000072 $
53915KARA ARA20161126225011811/26/16 22:50:31  5-MIN KARA 270450Z AUTO 04008KT 10SM CLR 11/07 A3027 -290 80 -800 040/08 RMK AO2 SLP250 T01060072 $
53915KARA ARA20161126225511111/26/16 22:55:31  5-MIN KARA 270455Z AUTO 04009KT 10SM CLR 11/07 A3027 -290 80 -800 040/09 RMK AO2 T01060072 $
53915KARA ARA20161126230011111/26/16 23:00:31  5-MIN KARA 270500Z AUTO 04009KT 10SM CLR 11/07 A3027 -290 80 -800 040/09 RMK AO2 T01060072 $
53915KARA ARA20161126230511111/26/16 23:05:31  5-MIN KARA 270505Z AUTO 04009KT 10SM CLR 11/07 A3027 -290 80 -800 040/09 RMK AO2 T01060072 $
53915KARA ARA20161126231011111/26/16 23:10:31  5-MIN KARA 270510Z AUTO 04008KT 10SM CLR 11/07 A3027 -290 80 -800 040/08 RMK AO2 T01060072 $
53915KARA ARA20161126231511111/26/16 23:15:31  5-MIN KARA 270515Z AUTO 04008KT 10SM CLR 11/07 A3027 -290 80 -800 040/08 RMK AO2 T01060072 $
53915KARA ARA20161126232011111/26/16 23:20:31  5-MIN KARA 270520Z AUTO 04008KT 10SM CLR 11/07 A3027 -290 80 -800 040/08 RMK AO2 T01060072 $
53915KARA ARA20161126232511111/26/16 23:25:31  5-MIN KARA 270525Z AUTO 04007KT 10SM CLR 11/07 A3027 -290 80 -800 040/07 RMK AO2 T01060072 $
53915KARA ARA20161126233011111/26/16 23:30:31  5-MIN KARA 270530Z AUTO 04006KT 10SM CLR 11/07 A3027 -290 80 -800 040/06 RMK AO2 T01060072 $
53915KARA ARA20161126233511111/26/16 23:35:31  5-MIN KARA 270535Z AUTO 04006KT 10SM CLR 10/07 A3027 -290 80 -900 040/06 RMK AO2 T01000067 $
53915KARA ARA20161126234011111/26/16 23:40:31  5-MIN KARA 270540Z AUTO 04005KT 10SM CLR 10/07 A3027 -290 80 -900 040/05 RMK AO2 T01000067 $
53915KARA ARA20161126234511111/26/16 23:45:31  5-MIN KARA 270545Z AUTO 04006KT 10SM CLR 10/07 A3027 -290 80 -900 040/06 RMK AO2 T01000067 $
53915KARA ARA20161126235014611/26/16 23:50:31  5-MIN KARA 270550Z AUTO 04006KT 10SM CLR 10/07 A3027 -290 80 -900 040/06 RMK AO2 SLP249 T01000067 10133 20094 402060094 51008 $
53915KARA ARA20161126235511111/26/16 23:55:31  5-MIN KARA 270555Z AUTO 03005KT 10SM CLR 10/07 A3027 -290 80 -900 030/05 RMK AO2 T01000067 $
53915KARA ARA20161127000011111/27/16 00:00:31  5-MIN KARA 270600Z AUTO 02004KT 10SM CLR 10/07 A3027 -290 80 -900 020/04 RMK AO2 T01000067 $
53915KARA ARA20161127000511111/27/16 00:05:31  5-MIN KARA 270605Z AUTO 02004KT 10SM CLR 09/06 A3027 -290 79 -900 020/04 RMK AO2 T00940061 $
53915KARA ARA20161127001011211/27/16 00:10:31  5-MIN KARA 270610Z AUTO 35004KT 10SM CLR 09/06 A3026 -290 83 -1000 350/04 RMK AO2 T00890061 $
53915KARA ARA20161127001511111/27/16 00:15:31  5-MIN KARA 270615Z AUTO 34003KT 9SM CLR 09/06 A3026 -290 83 -1000 340/03 RMK AO2 T00890061 $
53915KARA ARA20161127002011111/27/16 00:20:31  5-MIN KARA 270620Z AUTO 36004KT 9SM CLR 09/06 A3026 -280 83 -1000 360/04 RMK AO2 T00890061 $
53915KARA ARA20161127002511111/27/16 00:25:31  5-MIN KARA 270625Z AUTO 01004KT 9SM CLR 08/06 A3026 -280 82 -1100 010/04 RMK AO2 T00830056 $
53915KARA ARA20161127003011111/27/16 00:30:31  5-MIN KARA 270630Z AUTO 03005KT 9SM CLR 08/06 A3026 -280 82 -1100 030/05 RMK AO2 T00830056 $
53915KARA ARA20161127003511111/27/16 00:35:31  5-MIN KARA 270635Z AUTO 04005KT 9SM CLR 08/06 A3025 -280 86 -1100 040/05 RMK AO2 T00780056 $
53915KARA ARA20161127004011211/27/16 00:40:31  5-MIN KARA 270640Z AUTO 04005KT 10SM CLR 09/06 A3025 -270 83 -1000 040/05 RMK AO2 T00890061 $
53915KARA ARA20161127004511211/27/16 00:45:31  5-MIN KARA 270645Z AUTO 05006KT 10SM CLR 09/06 A3025 -270 83 -1000 040/06 RMK AO2 T00890061 $
53915KARA ARA20161127005011911/27/16 00:50:31  5-MIN KARA 270650Z AUTO 05006KT 10SM CLR 09/06 A3025 -270 83 -1000 050/06 RMK AO2 SLP242 T00890061 $
53915KARA ARA20161127005511111/27/16 00:55:31  5-MIN KARA 270655Z AUTO 04005KT 10SM CLR 09/06 A3025 -270 79 -900 040/05 RMK AO2 T00940061 $
53915KARA ARA20161127010011111/27/16 01:00:31  5-MIN KARA 270700Z AUTO 04004KT 10SM CLR 09/07 A3025 -270 83 -900 030/04 RMK AO2 T00940067 $
53915KARA ARA20161127010511111/27/16 01:05:31  5-MIN KARA 270705Z AUTO 04004KT 10SM CLR 09/06 A3024 -270 79 -900 040/04 RMK AO2 T00940061 $
53915KARA ARA20161127011011211/27/16 01:10:31  5-MIN KARA 270710Z AUTO 04004KT 10SM CLR 09/06 A3024 -270 83 -1000 040/04 RMK AO2 T00890061 $
53915KARA ARA20161127011511211/27/16 01:15:31  5-MIN KARA 270715Z AUTO 04004KT 10SM CLR 09/06 A3024 -270 83 -1000 040/04 RMK AO2 T00890061 $
53915KARA ARA20161127012011211/27/16 01:20:31  5-MIN KARA 270720Z AUTO 04005KT 10SM CLR 09/06 A3024 -270 83 -1000 040/05 RMK AO2 T00890061 $
53915KARA ARA20161127012511211/27/16 01:25:31  5-MIN KARA 270725Z AUTO 04006KT 10SM CLR 09/06 A3024 -260 79 -1000 040/06 RMK AO2 T00890056 $
53915KARA ARA20161127013011211/27/16 01:30:31  5-MIN KARA 270730Z AUTO 05005KT 10SM CLR 09/06 A3024 -260 79 -1000 050/05 RMK AO2 T00890056 $
53915KARA ARA20161127013511211/27/16 01:35:31  5-MIN KARA 270735Z AUTO 05007KT 10SM CLR 09/06 A3023 -260 83 -1000 050/07 RMK AO2 T00890061 $
53915KARA ARA20161127014011211/27/16 01:40:31  5-MIN KARA 270740Z AUTO 05006KT 10SM CLR 09/06 A3023 -260 83 -1000 050/06 RMK AO2 T00890061 $
53915KARA ARA20161127014511111/27/16 01:45:31  5-MIN KARA 270745Z AUTO 05007KT 10SM CLR 09/06 A3023 -250 79 -900 050/07 RMK AO2 T00940061 $
53915KARA ARA20161127015011811/27/16 01:50:31  5-MIN KARA 270750Z AUTO 05006KT 10SM CLR 09/06 A3023 -260 76 -900 050/06 RMK AO2 SLP236 T00940056 $
53915KARA ARA20161127015511211/27/16 01:55:31  5-MIN KARA 270755Z AUTO 05005KT 10SM CLR 09/06 A3023 -250 79 -1000 050/05 RMK AO2 T00890056 $
53915KARA ARA20161127020011211/27/16 02:00:31  5-MIN KARA 270800Z AUTO 05005KT 10SM CLR 09/06 A3023 -250 79 -1000 050/05 RMK AO2 T00890056 $
53915KARA ARA20161127020511211/27/16 02:05:31  5-MIN KARA 270805Z AUTO 06006KT 10SM CLR 09/06 A3022 -250 79 -1000 050/06 RMK AO2 T00890056 $
53915KARA ARA20161127021011211/27/16 02:10:31  5-MIN KARA 270810Z AUTO 05005KT 10SM CLR 09/06 A3022 -250 79 -1000 050/05 RMK AO2 T00890056 $
53915KARA ARA20161127021511211/27/16 02:15:31  5-MIN KARA 270815Z AUTO 05004KT 10SM CLR 09/06 A3022 -250 79 -1000 050/04 RMK AO2 T00890056 $
53915KARA ARA20161127022011211/27/16 02:20:31  5-MIN KARA 270820Z AUTO 00000KT 10SM CLR 09/06 A3022 -250 79 -1000 000/00 RMK AO2 T00890056 $
53915KARA ARA20161127022511211/27/16 02:25:31  5-MIN KARA 270825Z AUTO 07004KT 10SM CLR 08/05 A3022 -250 79 -1000 070/04 RMK AO2 T00830050 $
53915KARA ARA20161127023011211/27/16 02:30:31  5-MIN KARA 270830Z AUTO 07005KT 10SM CLR 08/05 A3022 -240 79 -1000 070/05 RMK AO2 T00830050 $
53915KARA ARA20161127023511211/27/16 02:35:31  5-MIN KARA 270835Z AUTO 07005KT 10SM CLR 08/05 A3022 -240 79 -1000 070/05 RMK AO2 T00830050 $
53915KARA ARA20161127024011211/27/16 02:40:31  5-MIN KARA 270840Z AUTO 06004KT 10SM CLR 08/05 A3022 -240 79 -1000 060/04 RMK AO2 T00830050 $
53915KARA ARA20161127024511211/27/16 02:45:31  5-MIN KARA 270845Z AUTO 06003KT 10SM CLR 08/05 A3022 -250 79 -1000 060/03 RMK AO2 T00830050 $
53915KARA ARA20161127025012511/27/16 02:50:31  5-MIN KARA 270850Z AUTO 07003KT 10SM CLR 08/04 A3022 -250 76 -1000 070/03 RMK AO2 SLP233 T00830044 58004 $
53915KARA ARA20161127025511211/27/16 02:55:31  5-MIN KARA 270855Z AUTO 00000KT 10SM CLR 08/05 A3022 -250 79 -1000 000/00 RMK AO2 T00830050 $
53915KARA ARA20161127030011211/27/16 03:00:31  5-MIN KARA 270900Z AUTO 08003KT 10SM CLR 08/04 A3022 -240 79 -1100 080/03 RMK AO2 T00780044 $
53915KARA ARA20161127030511211/27/16 03:05:31  5-MIN KARA 270905Z AUTO 07004KT 10SM CLR 08/04 A3022 -240 79 -1100 070/04 RMK AO2 T00780044 $
53915KARA ARA20161127031011211/27/16 03:10:31  5-MIN KARA 270910Z AUTO 06003KT 10SM CLR 08/04 A3022 -250 79 -1100 050/03 RMK AO2 T00780044 $
53915KARA ARA20161127031511211/27/16 03:15:31  5-MIN KARA 270915Z AUTO 00000KT 10SM CLR 07/04 A3022 -250 82 -1200 000/00 RMK AO2 T00720044 $
53915KARA ARA20161127032011211/27/16 03:20:31  5-MIN KARA 270920Z AUTO 00000KT 10SM CLR 07/04 A3022 -250 82 -1200 000/00 RMK AO2 T00720044 $
53915KARA ARA20161127032511111/27/16 03:25:31  5-MIN KARA 270925Z AUTO 00000KT 8SM CLR 07/04 A3022 -250 86 -1200 000/00 RMK AO2 T00670044 $
53915KARA ARA20161127033011111/27/16 03:30:31  5-MIN KARA 270930Z AUTO 00000KT 7SM CLR 06/04 A3022 -240 86 -1300 000/00 RMK AO2 T00610039 $
53915KARA ARA20161127033511111/27/16 03:35:31  5-MIN KARA 270935Z AUTO 00000KT 7SM CLR 06/04 A3021 -240 86 -1300 000/00 RMK AO2 T00610039 $
53915KARA ARA20161127034011111/27/16 03:40:31  5-MIN KARA 270940Z AUTO 00000KT 8SM CLR 07/04 A3021 -240 86 -1200 000/00 RMK AO2 T00670044 $
53915KARA ARA20161127034511111/27/16 03:45:31  5-MIN KARA 270945Z AUTO 04003KT 8SM CLR 07/04 A3021 -240 86 -1200 040/03 RMK AO2 T00670044 $
53915KARA ARA20161127035011811/27/16 03:50:31  5-MIN KARA 270950Z AUTO 05004KT 9SM CLR 07/04 A3021 -230 86 -1200 050/04 RMK AO2 SLP228 T00670044 $
53915KARA ARA20161127035511211/27/16 03:55:31  5-MIN KARA 270955Z AUTO 05004KT 10SM CLR 07/04 A3021 -240 82 -1100 050/04 RMK AO2 T00720044 $
53915KARA ARA20161127040011211/27/16 04:00:31  5-MIN KARA 271000Z AUTO 04003KT 10SM CLR 07/04 A3021 -240 82 -1200 040/03 RMK AO2 T00720044 $
53915KARA ARA20161127040511211/27/16 04:05:31  5-MIN KARA 271005Z AUTO 00000KT 10SM CLR 07/04 A3021 -240 86 -1200 000/00 RMK AO2 T00670044 $
53915KARA ARA20161127041011111/27/16 04:10:31  5-MIN KARA 271010Z AUTO 00000KT 9SM CLR 06/04 A3021 -240 86 -1300 000/00 RMK AO2 T00610039 $
53915KARA ARA20161127041511111/27/16 04:15:31  5-MIN KARA 271015Z AUTO 00000KT 7SM CLR 06/04 A3021 -240 89 -1400 000/00 RMK AO2 T00560039 $
53915KARA ARA20161127042011411/27/16 04:20:31  5-MIN KARA 271020Z AUTO 00000KT 6SM BR CLR 06/04 A3021 -230 86 -1300 000/00 RMK AO2 T00610039 $
53915KARA ARA20161127042511411/27/16 04:25:31  5-MIN KARA 271025Z AUTO 00000KT 6SM BR CLR 06/04 A3021 -230 86 -1300 000/00 RMK AO2 T00610039 $
53915KARA ARA20161127043011411/27/16 04:30:31  5-MIN KARA 271030Z AUTO 00000KT 5SM BR CLR 06/04 A3021 -240 89 -1400 000/00 RMK AO2 T00560039 $
53915KARA ARA20161127043511411/27/16 04:35:31  5-MIN KARA 271035Z AUTO 00000KT 5SM BR CLR 05/03 A3021 -240 89 -1400 000/00 RMK AO2 T00500033 $
53915KARA ARA20161127044011411/27/16 04:40:31  5-MIN KARA 271040Z AUTO 00000KT 6SM BR CLR 06/04 A3021 -230 86 -1300 000/00 RMK AO2 T00610039 $
53915KARA ARA20161127044511411/27/16 04:45:31  5-MIN KARA 271045Z AUTO 00000KT 6SM BR CLR 06/04 A3021 -230 89 -1300 000/00 RMK AO2 T00560039 $
53915KARA ARA20161127045012111/27/16 04:50:31  5-MIN KARA 271050Z AUTO 00000KT 6SM BR CLR 06/04 A3021 -240 89 -1400 000/00 RMK AO2 SLP229 T00560039 $
53915KARA ARA20161127045511111/27/16 04:55:31  5-MIN KARA 271055Z AUTO 00000KT 7SM CLR 06/04 A3021 -230 89 -1300 000/00 RMK AO2 T00560039 $
53915KARA ARA20161127050011111/27/16 05:00:31  5-MIN KARA 271100Z AUTO 00000KT 7SM CLR 05/03 A3021 -230 89 -1400 000/00 RMK AO2 T00500033 $
53915KARA ARA20161127050511111/27/16 05:05:31  5-MIN KARA 271105Z AUTO 00000KT 7SM CLR 05/03 A3021 -240 89 -1400 000/00 RMK AO2 T00500033 $
53915KARA ARA20161127051011111/27/16 05:10:31  5-MIN KARA 271110Z AUTO 35003KT 7SM CLR 06/04 A3021 -230 89 -1400 350/03 RMK AO2 T00560039 $
53915KARA ARA20161127051511111/27/16 05:15:31  5-MIN KARA 271115Z AUTO 36003KT 7SM CLR 06/04 A3021 -240 89 -1400 360/03 RMK AO2 T00560039 $
53915KARA ARA20161127052011111/27/16 05:20:31  5-MIN KARA 271120Z AUTO 01003KT 7SM CLR 06/03 A3021 -240 85 -1400 010/03 RMK AO2 T00560033 $
53915KARA ARA20161127052511111/27/16 05:25:31  5-MIN KARA 271125Z AUTO 03003KT 7SM CLR 06/03 A3021 -240 85 -1400 030/03 RMK AO2 T00560033 $
53915KARA ARA20161127053011111/27/16 05:30:31  5-MIN KARA 271130Z AUTO 03003KT 7SM CLR 06/03 A3021 -230 85 -1300 030/03 RMK AO2 T00560033 $
53915KARA ARA20161127053511111/27/16 05:35:31  5-MIN KARA 271135Z AUTO 04003KT 7SM CLR 05/03 A3020 -230 89 -1400 040/03 RMK AO2 T00500033 $
53915KARA ARA20161127054011111/27/16 05:40:31  5-MIN KARA 271140Z AUTO 06003KT 8SM CLR 04/03 A3020 -230 89 -1500 060/03 RMK AO2 T00440028 $
53915KARA ARA20161127054511111/27/16 05:45:31  5-MIN KARA 271145Z AUTO 05003KT 9SM CLR 05/03 A3021 -230 89 -1400 050/03 RMK AO2 T00500033 $
53915KARA ARA20161127055013111/27/16 05:50:31  5-MIN KARA 271150Z 00000KT 9SM CLR 06/03 A3021 -230 85 -1300 000/00 RMK AO2 SLP228 T00560033 10100 20044 56016 $
53915KARA ARA20161127055510611/27/16 05:55:31  5-MIN KARA 271155Z 06003KT 9SM CLR 06/04 A3020 -230 89 -1300 060/03 RMK AO2 T00560039 $
53915KARA ARA20161127060010611/27/16 06:00:31  5-MIN KARA 271200Z 07003KT 9SM CLR 06/03 A3020 -230 85 -1300 070/03 RMK AO2 T00560033 $
53915KARA ARA20161127060510611/27/16 06:05:31  5-MIN KARA 271205Z 07006KT 9SM CLR 06/03 A3020 -230 85 -1300 070/06 RMK AO2 T00560033 $
53915KARA ARA20161127061010711/27/16 06:10:31  5-MIN KARA 271210Z 07006KT 10SM CLR 07/04 A3020 -230 82 -1200 070/06 RMK AO2 T00670039 $
53915KARA ARA20161127061510711/27/16 06:15:31  5-MIN KARA 271215Z 07008KT 10SM CLR 07/04 A3020 -220 82 -1100 060/08 RMK AO2 T00720044 $
53915KARA ARA20161127062010711/27/16 06:20:31  5-MIN KARA 271220Z 07006KT 10SM CLR 07/04 A3020 -220 82 -1100 070/06 RMK AO2 T00720044 $
53915KARA ARA20161127062510711/27/16 06:25:31  5-MIN KARA 271225Z 07006KT 10SM CLR 07/04 A3020 -220 82 -1100 070/06 RMK AO2 T00720044 $
53915KARA ARA20161127063010711/27/16 06:30:31  5-MIN KARA 271230Z 07005KT 10SM CLR 07/04 A3020 -230 82 -1100 070/05 RMK AO2 T00720044 $
53915KARA ARA20161127063510711/27/16 06:35:31  5-MIN KARA 271235Z 07005KT 10SM CLR 07/04 A3021 -230 82 -1100 060/05 RMK AO2 T00720044 $
53915KARA ARA20161127064010711/27/16 06:40:31  5-MIN KARA 271240Z 05003KT 10SM CLR 07/04 A3021 -240 82 -1100 050/03 RMK AO2 T00720044 $
53915KARA ARA20161127064510711/27/16 06:45:31  5-MIN KARA 271245Z 05005KT 10SM CLR 07/04 A3021 -240 82 -1100 050/05 RMK AO2 T00720044 $
53915KARA ARA20161127065011411/27/16 06:50:31  5-MIN KARA 271250Z 07004KT 10SM CLR 07/04 A3021 -230 79 -1100 070/04 RMK AO2 SLP228 T00720039 $
53915KARA ARA20161127065510711/27/16 06:55:31  5-MIN KARA 271255Z 08004KT 10SM CLR 07/04 A3021 -230 82 -1200 070/04 RMK AO2 T00670039 $
53915KARA ARA20161127070010611/27/16 07:00:31  5-MIN KARA 271300Z 07004KT 9SM CLR 07/04 A3021 -230 82 -1200 070/04 RMK AO2 T00670039 $
53915KARA ARA20161127070510611/27/16 07:05:31  5-MIN KARA 271305Z 09004KT 9SM CLR 07/04 A3021 -230 82 -1200 090/04 RMK AO2 T00670039 $
53915KARA ARA20161127071010611/27/16 07:10:31  5-MIN KARA 271310Z 08003KT 9SM CLR 07/04 A3021 -230 82 -1200 080/03 RMK AO2 T00670039 $
53915KARA ARA20161129131511911/29/16 13:15:31  5-MIN KARA 291915Z 20016G22KT 10SM BKN021 BKN028 28/21 A2970 230 66 1800 200/16G22 RMK AO2 T02780211
53915KARA ARA20161129132011911/29/16 13:20:31  5-MIN KARA 291920Z 18016G23KT 10SM SCT021 BKN030 27/21 A2970 230 69 1700 180/16G23 RMK AO2 T02720211
53915KARA ARA20161129132511911/29/16 13:25:31  5-MIN KARA 291925Z 19014G23KT 10SM BKN021 BKN030 27/21 A2970 230 69 1700 190/14G23 RMK AO2 T02720211
53915KARA ARA20161129133011911/29/16 13:30:31  5-MIN KARA 291930Z 19013G22KT 10SM BKN021 BKN030 27/21 A2970 230 69 1700 190/13G22 RMK AO2 T02720211
53915KARA ARA20161129133511911/29/16 13:35:31  5-MIN KARA 291935Z 19015G20KT 10SM BKN021 BKN030 28/21 A2970 230 66 1800 190/15G20 RMK AO2 T02780211
53915KARA ARA20161129134011911/29/16 13:40:31  5-MIN KARA 291940Z 18016G21KT 10SM BKN021 BKN028 27/21 A2970 240 69 1700 180/16G21 RMK AO2 T02720211
53915KARA ARA20161129134512611/29/16 13:45:31  5-MIN KARA 291945Z 19010G21KT 10SM BKN021 BKN029 BKN060 27/21 A2969 240 69 1700 190/10G21 RMK AO2 T02720211
53915KARA ARA20161129135012611/29/16 13:50:31  5-MIN KARA 291950Z 19016G21KT 10SM BKN021 BKN027 27/21 A2969 240 69 1700 190/16G21 RMK AO2 SLP054 T02720211
53915KARA ARA20161129135511911/29/16 13:55:31  5-MIN KARA 291955Z 19012G22KT 10SM BKN021 BKN029 27/21 A2969 240 69 1700 190/12G22 RMK AO2 T02720211
53915KARA ARA20161129140011911/29/16 14:00:31  5-MIN KARA 292000Z 18012G22KT 10SM BKN021 OVC027 27/21 A2969 240 69 1700 180/12G22 RMK AO2 T02720211
53915KARA ARA20161129140511311/29/16 14:05:31  5-MIN KARA 292005Z 19013KT 10SM BKN021 OVC029 27/21 A2969 240 69 1700 190/13 RMK AO2 T02720211
53915KARA ARA20161129141011911/29/16 14:10:31  5-MIN KARA 292010Z 18015G21KT 10SM BKN019 OVC027 27/21 A2969 240 69 1700 180/15G21 RMK AO2 T02720211
53915KARA ARA20161129141511911/29/16 14:15:31  5-MIN KARA 292015Z 19012G21KT 10SM BKN019 OVC027 27/21 A2969 240 69 1700 180/12G21 RMK AO2 T02720211
53915KARA ARA20161129142011311/29/16 14:20:31  5-MIN KARA 292020Z 18012KT 10SM BKN019 OVC027 27/21 A2969 240 71 1700 180/12 RMK AO2 T02670211
53915KARA ARA20161129142511911/29/16 14:25:31  5-MIN KARA 292025Z 18015G22KT 10SM BKN019 OVC027 27/21 A2969 240 71 1700 180/15G22 RMK AO2 T02670211
53915KARA ARA20161129143011911/29/16 14:30:31  5-MIN KARA 292030Z 19013G22KT 10SM BKN019 OVC027 27/21 A2969 240 71 1700 190/13G22 RMK AO2 T02670211
53915KARA ARA20161129143511311/29/16 14:35:31  5-MIN KARA 292035Z 18013KT 10SM BKN019 OVC027 27/21 A2969 240 71 1700 180/13 RMK AO2 T02670211
53915KARA ARA20161129144012011/29/16 14:40:31  5-MIN KARA 292040Z 18014KT 10SM BKN019 BKN027 OVC035 27/21 A2969 240 71 1700 180/14 RMK AO2 T02670211
53915KARA ARA20161129144512011/29/16 14:45:31  5-MIN KARA 292045Z 16012KT 10SM FEW016 BKN021 OVC033 27/21 A2969 240 71 1700 160/12 RMK AO2 T02670211
53915KARA ARA20161129145013311/29/16 14:50:31  5-MIN KARA 292050Z 17013KT 10SM SCT016 BKN021 OVC031 26/21 A2969 240 73 1600 170/13 RMK AO2 SLP052 T02610211 50003
53915KARA ARA20161129145511911/29/16 14:55:31  5-MIN KARA 292055Z 17012KT 9SM SCT016 BKN024 OVC050 26/21 A2969 240 73 1600 170/12 RMK AO2 T02610211
53915KARA ARA20161129150013811/29/16 15:00:31  5-MIN KARA 292100Z 17014KT 10SM -RA SCT020 BKN032 OVC065 26/21 A2969 240 73 1600 170/14 RMK AO2 RAB2057 P0000 T02610211
53915KARA ARA20161129150513811/29/16 15:05:31  5-MIN KARA 292105Z 17011KT 10SM -RA SCT019 BKN030 BKN070 26/21 A2968 250 73 1600 170/11 RMK AO2 RAB2057 P0000 T02610211
53915KARA ARA20161129151013711/29/16 15:10:31  5-MIN KARA 292110Z 17010KT 10SM SCT019 BKN030 BKN055 26/21 A2968 250 73 1600 170/10 RMK AO2 RAB2057E06 P0000 T02610211
53915KARA ARA20161129151513611/29/16 15:15:31  5-MIN KARA 292115Z 17012KT 9SM SCT021 BKN029 OVC075 26/21 A2969 240 76 1600 170/12 RMK AO2 RAB2057E06 P0000 T02560211
53915KARA ARA20161129152013611/29/16 15:20:31  5-MIN KARA 292120Z 17010KT 9SM SCT024 BKN038 BKN075 26/21 A2969 240 76 1600 170/10 RMK AO2 RAB2057E06 P0000 T02560211
53915KARA ARA20161129152513611/29/16 15:25:31  5-MIN KARA 292125Z 18009KT 9SM SCT022 BKN038 OVC075 26/21 A2969 240 76 1600 180/09 RMK AO2 RAB2057E06 P0000 T02560211
53915KARA ARA20161129153013611/29/16 15:30:31  5-MIN KARA 292130Z 18010KT 9SM FEW015 BKN025 OVC075 26/22 A2968 250 79 1600 170/10 RMK AO2 RAB2057E06 P0000 T02560217
53915KARA ARA20161129153513611/29/16 15:35:31  5-MIN KARA 292135Z 17010KT 8SM FEW015 BKN025 OVC070 26/22 A2968 250 79 1600 170/10 RMK AO2 RAB2057E06 P0000 T02560217
53915KARA ARA20161129154013611/29/16 15:40:31  5-MIN KARA 292140Z 18011KT 8SM FEW015 BKN024 OVC070 26/22 A2968 250 79 1600 180/11 RMK AO2 RAB2057E06 P0000 T02560217
53915KARA ARA20161129154513611/29/16 15:45:31  5-MIN KARA 292145Z 18013KT 9SM SCT020 BKN030 OVC037 26/22 A2968 250 79 1600 180/13 RMK AO2 RAB2057E06 P0000 T02560217
53915KARA ARA20161129155014311/29/16 15:50:31  5-MIN KARA 292150Z 17012KT 9SM FEW016 BKN030 OVC038 26/22 A2968 240 79 1600 170/12 RMK AO2 RAB2057E06 SLP051 P0000 T02560217
53915KARA ARA20161129155511911/29/16 15:55:31  5-MIN KARA 292155Z 18011KT 9SM FEW019 BKN030 OVC070 26/22 A2968 250 79 1600 180/11 RMK AO2 T02560217
53915KARA ARA20161129160011911/29/16 16:00:31  5-MIN KARA 292200Z 17012KT 8SM FEW019 BKN030 OVC070 26/22 A2968 250 79 1600 170/12 RMK AO2 T02560217
53915KARA ARA20161129160511911/29/16 16:05:31  5-MIN KARA 292205Z 17010KT 8SM FEW020 BKN037 OVC070 26/22 A2968 250 79 1600 170/10 RMK AO2 T02560217
53915KARA ARA20161129161013511/29/16 16:10:31  5-MIN KARA 292210Z 17010KT 8SM -RA FEW023 BKN039 OVC065 26/22 A2968 250 79 1600 170/10 RMK AO2 RAB09 P0000 T02560217
53915KARA ARA20161129161514111/29/16 16:15:31  5-MIN KARA 292215Z 17010G16KT 9SM -RA SCT021 BKN039 OVC065 26/22 A2968 250 79 1600 170/10G16 RMK AO2 RAB09 P0000 T02560217
53915KARA ARA20161129162014011/29/16 16:20:31  5-MIN KARA 292220Z 17012G18KT 9SM SCT025 BKN039 OVC070 26/22 A2968 250 79 1600 170/12G18 RMK AO2 RAB09E18 P0000 T02560217
53915KARA ARA20161129162513411/29/16 16:25:31  5-MIN KARA 292225Z 16012KT 8SM SCT026 BKN039 OVC065 25/22 A2968 250 81 1500 160/12 RMK AO2 RAB09E18 P0000 T02500217
53915KARA ARA20161129163013411/29/16 16:30:31  5-MIN KARA 292230Z 17012KT 8SM SCT026 BKN039 OVC065 25/22 A2968 250 81 1500 170/12 RMK AO2 RAB09E18 P0000 T02500217
53915KARA ARA20161129163513411/29/16 16:35:31  5-MIN KARA 292235Z 18011KT 8SM FEW020 BKN039 OVC065 25/22 A2969 240 81 1500 170/11 RMK AO2 RAB09E18 P0000 T02500217
53915KARA ARA20161129164013411/29/16 16:40:31  5-MIN KARA 292240Z 17011KT 8SM FEW022 BKN027 OVC065 25/22 A2969 240 81 1500 170/11 RMK AO2 RAB09E18 P0000 T02500217
53915KARA ARA20161129164514011/29/16 16:45:31  5-MIN KARA 292245Z 18012G18KT 7SM BKN025 BKN050 OVC065 25/22 A2969 240 81 1500 180/12G18 RMK AO2 RAB09E18 P0000 T02500217
53915KARA ARA20161129165014011/29/16 16:50:31  5-MIN KARA 292250Z 17011G18KT 7SM BKN027 OVC065 25/22 A2968 250 81 1500 170/11G18 RMK AO2 RAB09E18 SLP051 P0000 T02500217
53915KARA ARA20161129165511211/29/16 16:55:31  5-MIN KARA 292255Z 17012KT 7SM BKN027 OVC070 25/22 A2968 250 81 1500 170/12 RMK AO2 T02500217
53915KARA ARA20161129170011211/29/16 17:00:31  5-MIN KARA 292300Z 17009KT 7SM BKN027 OVC070 25/22 A2969 240 81 1500 170/09 RMK AO2 T02500217
53915KARA ARA20161129170510511/29/16 17:05:31  5-MIN KARA 292305Z 17011KT 7SM OVC027 24/22 A2969 240 84 1400 170/11 RMK AO2 T02440217
53915KARA ARA20161129171010511/29/16 17:10:31  5-MIN KARA 292310Z 17010KT 7SM OVC027 24/22 A2969 240 84 1400 170/10 RMK AO2 T02440217
53915KARA ARA20161129171511211/29/16 17:15:31  5-MIN KARA 292315Z 17011KT 7SM BKN027 OVC070 24/22 A2969 240 84 1400 170/11 RMK AO2 T02440217
53915KARA ARA20161129172011211/29/16 17:20:31  5-MIN KARA 292320Z 17010KT 8SM BKN027 OVC070 24/22 A2969 240 84 1400 170/10 RMK AO2 T02440217
53915KARA ARA20161129172512511/29/16 17:25:31  5-MIN KARA 292325Z 17009G18KT 8SM SCT027 BKN055 OVC075 24/22 A2969 240 84 1400 170/09G18 RMK AO2 T02440217
53915KARA ARA20161129173011911/29/16 17:30:31  5-MIN KARA 292330Z 17010KT 8SM SCT029 BKN055 OVC075 24/22 A2969 240 84 1400 170/10 RMK AO2 T02440217
53915KARA ARA20161129173511911/29/16 17:35:31  5-MIN KARA 292335Z 17011KT 8SM SCT027 BKN039 OVC070 24/22 A2969 240 84 1400 170/11 RMK AO2 T02440217
53915KARA ARA20161129174011911/29/16 17:40:31  5-MIN KARA 292340Z 17012KT 8SM SCT026 BKN034 OVC070 24/22 A2969 240 84 1400 170/12 RMK AO2 T02440217
53915KARA ARA20161129174513511/29/16 17:45:31  5-MIN KARA 292345Z 18009KT 8SM -RA FEW018 BKN032 OVC070 24/22 A2969 240 84 1400 180/09 RMK AO2 RAB45 P0000 T02440217
53915KARA ARA20161129175016611/29/16 17:50:31  5-MIN KARA 292350Z 18011KT 8SM -RA SCT026 BKN035 OVC070 24/22 A2970 230 87 1400 180/11 RMK AO2 RAB45 SLP055 P0000 60000 T02390217 10278 20239 56013
53915KARA ARA20161129175513111/29/16 17:55:31  5-MIN KARA 292355Z 18010KT 9SM FEW024 BKN033 OVC065 24/22 A2969 240 87 1400 180/10 RMK AO2 RAE55 P0000 T02390217
53915KARA ARA20161129180013311/29/16 18:00:31  5-MIN KARA 300000Z 17008KT 8SM BKN033 BKN047 OVC070 24/22 A2969 240 87 1400 170/08 RMK AO2 RAE2355 P0000 T02390217
53915KARA ARA20161129180512911/29/16 18:05:31  5-MIN KARA 300005Z 18010KT 8SM -RA FEW024 BKN033 OVC070 24/22 A2970 230 87 1400 180/10 RMK AO2 P0000 T02390217
53915KARA ARA20161129181012911/29/16 18:10:31  5-MIN KARA 300010Z 21009KT 8SM -RA FEW009 BKN031 OVC070 24/22 A2970 230 87 1400 210/09 RMK AO2 P0000 T02390217
53915KARA ARA20161129181512911/29/16 18:15:31  5-MIN KARA 300015Z 20008KT 8SM -RA SCT009 BKN031 OVC070 24/22 A2970 230 87 1400 200/08 RMK AO2 P0000 T02390217
53915KARA ARA20161129182013111/29/16 18:20:31  5-MIN KARA 300020Z 18009KT 8SM SCT009 BKN031 OVC070 24/22 A2970 230 87 1400 180/09 RMK AO2 RAE16 P0000 T02390217
53915KARA ARA20161129182513111/29/16 18:25:31  5-MIN KARA 300025Z 17009KT 7SM FEW009 BKN022 OVC075 24/22 A2970 230 87 1400 170/09 RMK AO2 RAE16 P0000 T02390217
53915KARA ARA20161129183013111/29/16 18:30:31  5-MIN KARA 300030Z 18010KT 7SM FEW009 BKN022 OVC035 24/22 A2970 230 87 1400 180/10 RMK AO2 RAE16 P0000 T02390217
53915KARA ARA20161129183514111/29/16 18:35:31  5-MIN KARA 300035Z 18008KT 5SM +RA BR SCT009 BKN022 OVC055 24/22 A2971 220 87 1300 180/08 RMK AO2 RAE16B32 P0002 T02390217
53915KARA ARA20161129184014111/29/16 18:40:31  5-MIN KARA 300040Z 17010KT 5SM -RA BR SCT009 BKN024 OVC050 24/22 A2971 220 87 1300 160/10 RMK AO2 RAE16B32 P0002 T02390217
53915KARA ARA20161129184514011/29/16 18:45:31  5-MIN KARA 300045Z 16010KT 6SM RA BR SCT016 BKN027 OVC050 24/22 A2970 230 87 1400 160/10 RMK AO2 RAE16B32 P0002 T02390217
53915KARA ARA20161129185014811/29/16 18:50:31  5-MIN KARA 300050Z 17008KT 6SM -RA BR FEW012 BKN022 OVC034 24/22 A2970 230 87 1400 160/08 RMK AO2 RAE16B32 SLP058 P0002 T02390217
53915KARA ARA20161129185512911/29/16 18:55:31  5-MIN KARA 300055Z 17008KT 8SM -RA SCT010 BKN022 OVC037 23/22 A2971 220 90 1300 160/08 RMK AO2 P0000 T02330217
53915KARA ARA20161129190013311/29/16 19:00:31  5-MIN KARA 300100Z 18009KT 7SM SCT008 BKN017 OVC041 23/22 A2971 220 90 1300 180/09 RMK AO2 RAE0056 P0000 T02330217
53915KARA ARA20161129190513911/29/16 19:05:31  5-MIN KARA 300105Z 18011G16KT 7SM SCT008 BKN017 OVC027 23/22 A2971 220 90 1300 180/11G16 RMK AO2 RAE0056 P0000 T02330217
53915KARA ARA20161129191012611/29/16 19:10:31  5-MIN KARA 300110Z 18011KT 7SM SCT008 OVC020 23/22 A2972 210 90 1300 180/11 RMK AO2 RAE0056 P0000 T02330217
53915KARA ARA20161129191512611/29/16 19:15:31  5-MIN KARA 300115Z 18011KT 7SM SCT008 OVC020 23/22 A2972 210 90 1300 180/11 RMK AO2 RAE0056 P0000 T02330217
53915KARA ARA20161129192013311/29/16 19:20:31  5-MIN KARA 300120Z 17010KT 7SM SCT008 SCT015 OVC022 23/22 A2972 210 90 1300 170/10 RMK AO2 RAE0056 P0000 T02330217
53915KARA ARA20161129192513311/29/16 19:25:31  5-MIN KARA 300125Z 17009KT 7SM FEW008 BKN022 OVC039 23/22 A2972 210 90 1300 170/09 RMK AO2 RAE0056 P0000 T02330217
53915KARA ARA20161129193013311/29/16 19:30:31  5-MIN KARA 300130Z 17010KT 7SM FEW008 BKN022 OVC050 23/22 A2973 210 90 1300 170/10 RMK AO2 RAE0056 P0000 T02330217
53915KARA ARA20161129193513311/29/16 19:35:31  5-MIN KARA 300135Z 17009KT 7SM FEW008 BKN020 OVC045 23/22 A2973 200 90 1300 170/09 RMK AO2 RAE0056 P0000 T02330217
53915KARA ARA20161129194013311/29/16 19:40:31  5-MIN KARA 300140Z 17011KT 7SM SCT016 BKN022 OVC050 23/22 A2973 200 90 1300 170/11 RMK AO2 RAE0056 P0000 T02330217
53915KARA ARA20161129194513311/29/16 19:45:31  5-MIN KARA 300145Z 17011KT 7SM SCT018 BKN022 OVC050 23/21 A2973 200 87 1300 170/11 RMK AO2 RAE0056 P0000 T02330211
53915KARA ARA20161129195014011/29/16 19:50:31  5-MIN KARA 300150Z 17010KT 7SM SCT018 BKN024 OVC050 23/21 A2973 200 87 1300 170/10 RMK AO2 RAE0056 SLP068 P0000 T02330211
53915KARA ARA20161129195511911/29/16 19:55:31  5-MIN KARA 300155Z 18012KT 7SM FEW018 BKN024 OVC035 23/22 A2973 200 90 1300 180/12 RMK AO2 T02330217
53915KARA ARA20161129200011911/29/16 20:00:31  5-MIN KARA 300200Z 17012KT 7SM FEW016 BKN024 OVC035 23/22 A2973 200 90 1300 170/12 RMK AO2 T02330217
53915KARA ARA20161129200512511/29/16 20:05:31  5-MIN KARA 300205Z 17013G19KT 7SM BKN024 BKN036 OVC060 23/21 A2973 200 87 1300 170/13G19 RMK AO2 T02330211
53915KARA ARA20161129201012511/29/16 20:10:31  5-MIN KARA 300210Z 17011G19KT 7SM SCT024 BKN036 OVC075 23/21 A2973 200 87 1300 170/11G19 RMK AO2 T02330211
53915KARA ARA20161129201511911/29/16 20:15:31  5-MIN KARA 300215Z 17012KT 7SM SCT024 BKN035 OVC075 23/21 A2974 200 87 1300 170/12 RMK AO2 T02330211
53915KARA ARA20161129202011911/29/16 20:20:31  5-MIN KARA 300220Z 17013KT 7SM SCT026 BKN037 OVC075 23/21 A2974 200 87 1300 170/13 RMK AO2 T02330211
53915KARA ARA20161129202511911/29/16 20:25:31  5-MIN KARA 300225Z 17012KT 7SM BKN024 BKN036 OVC075 23/21 A2974 200 87 1300 170/12 RMK AO2 T02330211
53915KARA ARA20161129203011911/29/16 20:30:31  5-MIN KARA 300230Z 17011KT 7SM FEW021 BKN026 OVC075 23/21 A2974 200 90 1200 170/11 RMK AO2 T02280211
53915KARA ARA20161129203511911/29/16 20:35:31  5-MIN KARA 300235Z 17012KT 7SM FEW021 BKN026 OVC075 24/21 A2974 190 84 1300 170/12 RMK AO2 T02390211
53915KARA ARA20161129204011911/29/16 20:40:31  5-MIN KARA 300240Z 18012KT 7SM FEW008 BKN026 OVC040 23/21 A2974 190 87 1200 180/12 RMK AO2 T02330211
53915KARA ARA20161129204512411/29/16 20:45:31  5-MIN KARA 300245Z AUTO 17011KT 7SM FEW008 BKN026 OVC040 23/21 A2974 190 87 1200 170/11 RMK AO2 T02330211
53915KARA ARA20161129205014311/29/16 20:50:31  5-MIN KARA 300250Z AUTO 17011KT 7SM FEW008 BKN026 OVC042 23/21 A2974 190 87 1200 170/11 RMK AO2 SLP071 60002 T02330211 53004
53915KARA ARA20161129205512411/29/16 20:55:31  5-MIN KARA 300255Z AUTO 17013KT 7SM FEW007 BKN022 OVC030 23/21 A2974 190 87 1200 170/13 RMK AO2 T02330211
53915KARA ARA20161129210012411/29/16 21:00:31  5-MIN KARA 300300Z AUTO 17010KT 7SM FEW007 BKN024 OVC034 23/21 A2974 190 87 1200 170/10 RMK AO2 T02330211
53915KARA ARA20161129210512411/29/16 21:05:31  5-MIN KARA 300305Z AUTO 17012KT 7SM FEW007 BKN027 OVC037 23/21 A2974 190 87 1200 170/12 RMK AO2 T02330211
53915KARA ARA20161129211014011/29/16 21:10:31  5-MIN KARA 300310Z AUTO 18013KT 7SM -RA SCT007 BKN019 OVC028 23/21 A2975 190 87 1200 180/13 RMK AO2 RAB06 P0000 T02330211
53915KARA ARA20161129211514511/29/16 21:15:31  5-MIN KARA 300315Z AUTO 17012G19KT 7SM FEW007 BKN019 OVC032 23/21 A2975 190 87 1200 170/12G19 RMK AO2 RAB06E15 P0000 T02330211
53915KARA ARA20161129212013911/29/16 21:20:31  5-MIN KARA 300320Z AUTO 17013KT 7SM SCT007 BKN019 OVC024 23/21 A2975 190 87 1200 170/13 RMK AO2 RAB06E15 P0000 T02330211
53915KARA ARA20161129212513911/29/16 21:25:31  5-MIN KARA 300325Z AUTO 17011KT 7SM FEW007 BKN023 OVC034 23/21 A2975 190 87 1200 170/11 RMK AO2 RAB06E15 P0000 T02330211
53915KARA ARA20161129213013911/29/16 21:30:31  5-MIN KARA 300330Z AUTO 17012KT 7SM FEW007 BKN023 OVC032 23/21 A2975 190 87 1200 170/12 RMK AO2 RAB06E15 P0000 T02330211
53915KARA ARA20161129213513911/29/16 21:35:31  5-MIN KARA 300335Z AUTO 17014KT 7SM FEW007 BKN025 OVC034 23/21 A2975 190 87 1200 170/14 RMK AO2 RAB06E15 P0000 T02330211
53915KARA ARA20161129214014511/29/16 21:40:31  5-MIN KARA 300340Z AUTO 17014G20KT 7SM FEW007 BKN023 OVC034 23/21 A2975 190 87 1200 170/14G20 RMK AO2 RAB06E15 P0000 T02330211
53915KARA ARA20161129214514511/29/16 21:45:31  5-MIN KARA 300345Z AUTO 17012G20KT 7SM FEW007 BKN023 OVC034 23/21 A2975 190 87 1200 170/12G20 RMK AO2 RAB06E15 P0000 T02330211
53915KARA ARA20161129215013211/29/16 21:50:31  5-MIN KARA 300350Z AUTO 17014KT 7SM BKN023 23/21 A2975 190 90 1200 170/14 RMK AO2 RAB06E15 SLP072 P0000 T02280211
53915KARA ARA20161129215511711/29/16 21:55:31  5-MIN KARA 300355Z AUTO 17013KT 7SM BKN024 OVC075 23/21 A2975 190 90 1200 170/13 RMK AO2 T02280211
53915KARA ARA20161129220012411/29/16 22:00:31  5-MIN KARA 300400Z AUTO 17012KT 7SM BKN024 BKN034 OVC075 23/21 A2975 190 87 1200 170/12 RMK AO2 T02330211
53915KARA ARA20161129220511711/29/16 22:05:31  5-MIN KARA 300405Z AUTO 16014KT 7SM BKN025 OVC075 23/21 A2975 190 87 1200 160/14 RMK AO2 T02330211
53915KARA ARA20161129221011611/29/16 22:10:31  5-MIN KARA 300410Z AUTO 17015G21KT 7SM OVC025 23/21 A2975 190 87 1200 170/15G21 RMK AO2 T02330211
53915KARA ARA20161129221511011/29/16 22:15:31  5-MIN KARA 300415Z AUTO 17015KT 7SM OVC025 23/21 A2975 190 87 1200 170/15 RMK AO2 T02330211
53915KARA ARA20161129222012311/29/16 22:20:31  5-MIN KARA 300420Z AUTO 17014G21KT 7SM FEW018 OVC025 23/21 A2975 190 87 1200 170/14G21 RMK AO2 T02330211
53915KARA ARA20161129222511711/29/16 22:25:31  5-MIN KARA 300425Z AUTO 18014KT 7SM FEW018 OVC025 23/21 A2975 190 87 1200 170/14 RMK AO2 T02330211
53915KARA ARA20161129223012311/29/16 22:30:31  5-MIN KARA 300430Z AUTO 17014G20KT 7SM FEW020 OVC026 23/21 A2974 190 87 1200 170/14G20 RMK AO2 T02330211
53915KARA ARA20161129223512311/29/16 22:35:31  5-MIN KARA 300435Z AUTO 17015G20KT 7SM FEW020 OVC026 23/21 A2974 190 87 1200 170/15G20 RMK AO2 T02330211
53915KARA ARA20161129224011711/29/16 22:40:31  5-MIN KARA 300440Z AUTO 17014KT 7SM FEW020 OVC026 23/21 A2974 200 87 1200 170/14 RMK AO2 T02330211
53915KARA ARA20161129224511011/29/16 22:45:31  5-MIN KARA 300445Z AUTO 17014KT 7SM OVC024 23/21 A2974 200 87 1300 170/14 RMK AO2 T02330211
53915KARA ARA20161129225013011/29/16 22:50:31  5-MIN KARA 300450Z AUTO 17016G21KT 7SM BKN024 OVC070 23/21 A2973 200 87 1300 170/16G21 RMK AO2 SLP068 T02330211
53915KARA ARA20161129225513411/29/16 22:55:31  5-MIN KARA 300455Z AUTO 17012G21KT 7SM BKN023 OVC070 23/21 A2973 200 87 1300 170/12G21 RMK AO2 LTG DSNT N T02330211
53915KARA ARA20161129230012811/29/16 23:00:31  5-MIN KARA 300500Z AUTO 17014KT 7SM BKN021 OVC070 23/21 A2973 200 90 1200 170/14 RMK AO2 LTG DSNT N T02280211
53915KARA ARA20161129230512811/29/16 23:05:31  5-MIN KARA 300505Z AUTO 17014KT 7SM BKN019 OVC070 23/21 A2973 200 90 1200 170/14 RMK AO2 LTG DSNT N T02280211
53915KARA ARA20161129231012311/29/16 23:10:31  5-MIN KARA 300510Z AUTO 18012G20KT 7SM BKN019 BKN070 23/21 A2973 200 90 1200 170/12G20 RMK AO2 T02280211
53915KARA ARA20161129231512911/29/16 23:15:31  5-MIN KARA 300515Z AUTO 18012KT 7SM BKN018 BKN070 23/21 A2973 210 90 1200 170/12 RMK AO2 LTG DSNT NW T02280211
53915KARA ARA20161129232012911/29/16 23:20:31  5-MIN KARA 300520Z AUTO 17013KT 7SM SCT018 BKN070 23/21 A2972 210 90 1200 170/13 RMK AO2 LTG DSNT NW T02280211
53915KARA ARA20161129232512211/29/16 23:25:31  5-MIN KARA 300525Z AUTO 17011KT 8SM BKN017 23/21 A2972 210 90 1200 170/11 RMK AO2 LTG DSNT NW T02280211
53915KARA ARA20161129233013511/29/16 23:30:31  5-MIN KARA 300530Z AUTO 17013G22KT 8SM BKN017 BKN070 23/21 A2972 210 90 1200 170/13G22 RMK AO2 LTG DSNT NW T02280211
53915KARA ARA20161129233512311/29/16 23:35:31  5-MIN KARA 300535Z AUTO 17014G22KT 8SM SCT018 BKN070 23/21 A2972 210 90 1200 170/14G22 RMK AO2 T02280211
53915KARA ARA20161129234013411/29/16 23:40:31  5-MIN KARA 300540Z AUTO 17012G19KT 8SM FEW018 BKN070 23/21 A2972 220 87 1300 170/12G19 RMK AO2 LTG DSNT N T02330211
53915KARA ARA20161129234514111/29/16 23:45:31  5-MIN KARA 300545Z AUTO 18014G19KT 8SM FEW008 FEW018 BKN070 23/21 A2971 220 87 1300 170/14G19 RMK AO2 LTG DSNT N T02330211
53915KARA ARA20161129235013111/29/16 23:50:31  5-MIN KARA 300550Z AUTO 18012G21KT 8SM FEW008 FEW018 OVC070 23/21 A2972 220 87 1300 170/12G21 RMK AO2 LTG DSNT N
53915KARA ARA20161129235512311/29/16 23:55:31  5-MIN KARA 300555Z AUTO 18012G21KT 8SM FEW008 OVC070 23/21 A2972 210 87 1300 170/12G21 RMK AO2 T02330211
53915KARA ARA20161130000012311/30/16 00:00:31  5-MIN KARA 300600Z AUTO 18013G19KT 8SM FEW008 OVC070 23/21 A2972 210 87 1300 180/13G19 RMK AO2 T02330211
53915KARA ARA20161130000512311/30/16 00:05:31  5-MIN KARA 300605Z AUTO 18012G19KT 8SM FEW008 OVC070 23/21 A2972 210 87 1300 180/12G19 RMK AO2 T02330211
53915KARA ARA20161130001011711/30/16 00:10:31  5-MIN KARA 300610Z AUTO 18011KT 8SM FEW008 OVC070 23/21 A2972 210 87 1300 180/11 RMK AO2 T02330211
53915KARA ARA20161130001512311/30/16 00:15:31  5-MIN KARA 300615Z AUTO 18011G19KT 8SM FEW008 OVC070 23/21 A2972 210 87 1300 180/11G19 RMK AO2 T02330211
53915KARA ARA20161130002012311/30/16 00:20:31  5-MIN KARA 300620Z AUTO 18013G19KT 8SM FEW008 OVC070 23/21 A2971 220 87 1300 180/13G19 RMK AO2 T02330211
53915KARA ARA20161130002512311/30/16 00:25:31  5-MIN KARA 300625Z AUTO 18012G21KT 8SM FEW008 OVC070 23/21 A2972 220 87 1300 180/12G21 RMK AO2 T02330211
53915KARA ARA20161130003012311/30/16 00:30:31  5-MIN KARA 300630Z AUTO 18010G21KT 8SM FEW008 OVC070 23/21 A2972 210 87 1300 180/10G21 RMK AO2 T02330211
53915KARA ARA20161130003513011/30/16 00:35:31  5-MIN KARA 300635Z AUTO 18012G18KT 8SM FEW008 SCT055 OVC070 23/21 A2972 210 87 1300 180/12G18 RMK AO2 T02330211
53915KARA ARA20161130004012411/30/16 00:40:31  5-MIN KARA 300640Z AUTO 18011KT 8SM FEW008 SCT055 OVC070 23/21 A2973 210 87 1300 180/11 RMK AO2 T02330211
53915KARA ARA20161130004512411/30/16 00:45:31  5-MIN KARA 300645Z AUTO 18010KT 8SM FEW008 FEW060 OVC070 23/21 A2972 210 87 1300 180/10 RMK AO2 T02330211
53915KARA ARA20161130005013111/30/16 00:50:31  5-MIN KARA 300650Z AUTO 18012KT 8SM FEW008 FEW060 OVC075 23/21 A2972 220 90 1200 180/12 RMK AO2 SLP062 T02280211
53915KARA ARA20161130005513011/30/16 00:55:31  5-MIN KARA 300655Z AUTO 18011G19KT 8SM FEW008 FEW055 OVC075 23/21 A2972 210 90 1200 180/11G19 RMK AO2 T02280211
53915KARA ARA20161130010013011/30/16 01:00:31  5-MIN KARA 300700Z AUTO 18013G19KT 8SM FEW010 FEW055 OVC075 23/21 A2971 220 90 1200 180/13G19 RMK AO2 T02280211
53915KARA ARA20161130010512311/30/16 01:05:31  5-MIN KARA 300705Z AUTO 17009G18KT 8SM FEW060 OVC075 23/21 A2971 220 90 1200 170/09G18 RMK AO2 T02280211
53915KARA ARA20161130011011011/30/16 01:10:31  5-MIN KARA 300710Z AUTO 18011KT 8SM OVC075 23/21 A2971 220 87 1200 170/11 RMK AO2 T02280206
53915KARA ARA20161130111512211/30/16 11:15:31  5-MIN KARA 301715Z 34018KT 10SM OVC070 19/04 A2994 10 37 600 340/18 RMK AO2 PK WND 34026/1659 T01940044
53915KARA ARA20161130112012811/30/16 11:20:31  5-MIN KARA 301720Z 34014G23KT 10SM OVC070 19/05 A2994 10 38 600 340/14G23 RMK AO2 PK WND 34026/1659 T01940050
53915KARA ARA20161130112512111/30/16 11:25:31  5-MIN KARA 301725Z 34015KT 10SM OVC070 19/05 A2994 0 38 600 340/15 RMK AO2 PK WND 34026/1659 T01940050
53915KARA ARA20161130113012811/30/16 11:30:31  5-MIN KARA 301730Z 35014G21KT 10SM OVC070 19/05 A2994 10 38 600 350/14G21 RMK AO2 PK WND 34026/1659 T01940050
53915KARA ARA20161130113512211/30/16 11:35:31  5-MIN KARA 301735Z 35013KT 10SM OVC070 20/06 A2994 10 38 600 350/13 RMK AO2 PK WND 34026/1659 T02000056
53915KARA ARA20161130114012911/30/16 11:40:31  5-MIN KARA 301740Z 35015KT 10SM BKN075 OVC095 20/06 A2994 10 38 600 350/15 RMK AO2 PK WND 34026/1659 T02000056
53915KARA ARA20161130114513511/30/16 11:45:31  5-MIN KARA 301745Z 35015G24KT 10SM BKN075 OVC095 21/05 A2993 10 35 700 350/15G24 RMK AO2 PK WND 34026/1659 T02060050
53915KARA ARA20161130115016611/30/16 11:50:31  5-MIN KARA 301750Z 34017G24KT 10SM BKN080 OVC095 21/04 A2993 20 34 700 340/17G24 RMK AO2 PK WND 34026/1659 SLP134 60000 T02060044 10206 20167 53040
53915KARA ARA20161130115511711/30/16 11:55:31  5-MIN KARA 301755Z 34016G22KT 10SM BKN075 BKN095 20/04 A2993 20 34 600 340/16G22 RMK AO2 T02000039
53915KARA ARA20161130120011111/30/16 12:00:31  5-MIN KARA 301800Z 34017KT 10SM BKN080 BKN100 20/03 A2993 20 33 600 340/17 RMK AO2 T02000033
53915KARA ARA20161130120511711/30/16 12:05:31  5-MIN KARA 301805Z 34014G22KT 10SM SCT075 BKN100 20/04 A2993 20 34 600 340/14G22 RMK AO2 T02000039
53915KARA ARA20161130121011111/30/16 12:10:31  5-MIN KARA 301810Z 35014KT 10SM BKN075 BKN100 20/04 A2993 20 34 600 350/14 RMK AO2 T02000039
53915KARA ARA20161130121511111/30/16 12:15:31  5-MIN KARA 301815Z 34013KT 10SM BKN080 BKN100 20/04 A2993 10 34 600 340/13 RMK AO2 T02000039
53915KARA ARA20161130122011111/30/16 12:20:31  5-MIN KARA 301820Z 35014KT 10SM BKN075 BKN100 21/04 A2993 10 34 700 350/14 RMK AO2 T02060044
53915KARA ARA20161130122511111/30/16 12:25:31  5-MIN KARA 301825Z 35012KT 10SM BKN075 BKN100 21/04 A2993 20 34 700 350/12 RMK AO2 T02060044
53915KARA ARA20161130123011711/30/16 12:30:31  5-MIN KARA 301830Z 34015G21KT 10SM BKN075 BKN100 21/04 A2993 20 33 800 340/15G21 RMK AO2 T02110044
53915KARA ARA20161130123511711/30/16 12:35:31  5-MIN KARA 301835Z 35014G21KT 10SM BKN075 BKN095 21/04 A2993 20 33 800 340/14G21 RMK AO2 T02110044
53915KARA ARA20161130124010411/30/16 12:40:31  5-MIN KARA 301840Z 35014KT 10SM BKN075 20/04 A2993 20 34 600 350/14 RMK AO2 T02000039
53915KARA ARA20161130124510411/30/16 12:45:31  5-MIN KARA 301845Z 35014KT 10SM BKN075 21/03 A2993 20 32 700 350/14 RMK AO2 T02060033
53915KARA ARA20161130125011111/30/16 12:50:31  5-MIN KARA 301850Z 34015KT 10SM BKN075 20/03 A2993 10 31 600 340/15 RMK AO2 SLP135 T02000028
53915KARA ARA20161130125510411/30/16 12:55:31  5-MIN KARA 301855Z 34013KT 10SM OVC075 21/03 A2993 20 32 700 340/13 RMK AO2 T02060033
53915KARA ARA20161130130010411/30/16 13:00:31  5-MIN KARA 301900Z 35013KT 10SM OVC075 20/04 A2993 10 34 600 350/13 RMK AO2 T02000039
53915KARA ARA20161130130511111/30/16 13:05:31  5-MIN KARA 301905Z 35013KT 10SM BKN075 BKN090 20/03 A2993 20 33 600 350/13 RMK AO2 T02000033
53915KARA ARA20161130131011111/30/16 13:10:31  5-MIN KARA 301910Z 35014KT 10SM BKN075 BKN090 21/03 A2993 20 32 700 350/14 RMK AO2 T02060033
53915KARA ARA20161130131511111/30/16 13:15:31  5-MIN KARA 301915Z 34015KT 10SM SCT080 OVC090 20/02 A2993 20 30 600 340/15 RMK AO2 T02000022
53915KARA ARA20161130132011111/30/16 13:20:31  5-MIN KARA 301920Z 35016KT 10SM SCT080 OVC090 20/02 A2993 20 29 600 350/16 RMK AO2 T02000017
53915KARA ARA20161130132511811/30/16 13:25:31  5-MIN KARA 301925Z 35015KT 10SM FEW080 BKN095 OVC110 20/01 A2993 10 28 600 350/15 RMK AO2 T02000011
53915KARA ARA20161130133011111/30/16 13:30:31  5-MIN KARA 301930Z 36015KT 10SM BKN095 OVC110 20/01 A2993 10 28 600 360/15 RMK AO2 T02000011
53915KARA ARA20161130133511111/30/16 13:35:31  5-MIN KARA 301935Z 36014KT 10SM BKN095 BKN120 20/02 A2993 10 29 600 360/14 RMK AO2 T02000017
53915KARA ARA20161130134011111/30/16 13:40:31  5-MIN KARA 301940Z 01017KT 10SM BKN095 BKN120 19/01 A2994 10 29 600 360/17 RMK AO2 T01940011
53915KARA ARA20161130134511111/30/16 13:45:31  5-MIN KARA 301945Z 35011KT 10SM SCT100 BKN120 19/01 A2994 10 29 600 350/11 RMK AO2 T01940011
53915KARA ARA20161130135011711/30/16 13:50:31  5-MIN KARA 301950Z 34018G22KT 10SM BKN100 20/01 A2993 20 28 600 340/18G22 RMK AO2 SLP134 T02000011
53915KARA ARA20161130135511011/30/16 13:55:31  5-MIN KARA 301955Z 35016G22KT 10SM BKN110 20/02 A2993 20 29 600 340/16G22 RMK AO2 T02000017
53915KARA ARA20161130140010411/30/16 14:00:31  5-MIN KARA 302000Z 34017KT 10SM BKN110 19/02 A2993 10 30 600 340/17 RMK AO2 T01940017
53915KARA ARA20161130140512611/30/16 14:05:31  5-MIN KARA 302005Z 35018G24KT 10SM -RA BKN110 19/02 A2993 10 30 600 350/18G24 RMK AO2 RAB05 P0000 T01940017
53915KARA ARA20161130141012611/30/16 14:10:31  5-MIN KARA 302010Z 36018G24KT 10SM -RA BKN100 20/02 A2993 10 29 600 350/18G24 RMK AO2 RAB05 P0000 T02000017
53915KARA ARA20161130141512611/30/16 14:15:31  5-MIN KARA 302015Z 36017KT 10SM SCT100 BKN110 19/02 A2993 10 30 600 360/17 RMK AO2 RAB05E14 P0000 T01940017
53915KARA ARA20161130142012611/30/16 14:20:31  5-MIN KARA 302020Z 36016KT 10SM FEW100 SCT110 19/02 A2994 10 30 600 360/16 RMK AO2 RAB05E14 P0000 T01940017
53915KARA ARA20161130142513211/30/16 14:25:31  5-MIN KARA 302025Z 35013G19KT 10SM FEW100 SCT110 20/02 A2994 10 30 600 350/13G19 RMK AO2 RAB05E14 P0000 T02000022
53915KARA ARA20161130143013211/30/16 14:30:31  5-MIN KARA 302030Z 35017G21KT 10SM FEW090 SCT110 20/03 A2994 10 31 600 350/17G21 RMK AO2 RAB05E14 P0000 T02000028
53915KARA ARA20161130143512511/30/16 14:35:31  5-MIN KARA 302035Z 35015G21KT 10SM FEW090 19/02 A2994 10 31 600 350/15G21 RMK AO2 RAB05E14 P0000 T01940022
53915KARA ARA20161130144012511/30/16 14:40:31  5-MIN KARA 302040Z 35012G21KT 10SM SCT090 19/02 A2993 10 32 500 350/12G21 RMK AO2 RAB05E14 P0000 T01890022
53915KARA ARA20161130144512511/30/16 14:45:31  5-MIN KARA 302045Z 36018G24KT 10SM FEW090 19/01 A2993 10 29 600 360/18G24 RMK AO2 RAB05E14 P0000 T01940011
53915KARA ARA20161130145014411/30/16 14:50:31  5-MIN KARA 302050Z 36016G24KT 10SM FEW090 19/00 A2993 10 27 600 360/16G24 RMK AO2 RAB05E14 SLP136 P0000 60000 T01940000 50015
53915KARA ARA20161130145511011/30/16 14:55:31  5-MIN KARA 302055Z 36016G23KT 10SM FEW090 19/00 A2993 10 27 600 360/16G23 RMK AO2 T01940000
53915KARA ARA20161130150011011/30/16 15:00:31  5-MIN KARA 302100Z 35015G22KT 10SM FEW090 19/00 A2994 10 27 600 350/15G22 RMK AO2 T01940000
53915KARA ARA20161130150510511/30/16 15:05:31  5-MIN KARA 302105Z 36015KT 10SM FEW090 19/M01 A2994 10 26 600 360/15 RMK AO2 T01941006
53915KARA ARA20161130151010211/30/16 15:10:31  5-MIN KARA 302110Z 35013KT 10SM CLR 19/M01 A2993 10 26 600 350/13 RMK AO2 T01941006
53915KARA ARA20161130151510811/30/16 15:15:31  5-MIN KARA 302115Z 01016G20KT 10SM CLR 19/M01 A2993 10 26 600 010/16G20 RMK AO2 T01941006
53915KARA ARA20161130152010811/30/16 15:20:31  5-MIN KARA 302120Z 36013G20KT 10SM CLR 19/M01 A2993 10 26 600 360/13G20 RMK AO2 T01941006
53915KARA ARA20161130152510811/30/16 15:25:31  5-MIN KARA 302125Z 36013G20KT 10SM CLR 19/M01 A2994 10 26 600 360/13G20 RMK AO2 T01941006
53915KARA ARA20161130153010711/30/16 15:30:31  5-MIN KARA 302130Z 36012G20KT 10SM CLR 19/00 A2994 10 27 600 360/12G20 RMK AO2 T01940000
53915KARA ARA20161130153510111/30/16 15:35:31  5-MIN KARA 302135Z 01012KT 10SM CLR 19/01 A2994 10 28 600 010/12 RMK AO2 T01940006
53915KARA ARA20161130154010011/30/16 15:40:31  5-MIN KARA 302140Z 35013KT 10SM CLR 19/01 A2994 0 29 500 350/13 RMK AO2 T01890006
53915KARA ARA20161130154510011/30/16 15:45:31  5-MIN KARA 302145Z 01010KT 10SM CLR 19/01 A2995 0 29 500 010/10 RMK AO2 T01890006
53915KARA ARA20161130155010711/30/16 15:50:31  5-MIN KARA 302150Z 01013KT 10SM CLR 19/01 A2995 0 29 500 010/13 RMK AO2 SLP140 T01890006
53915KARA ARA20161130155510011/30/16 15:55:31  5-MIN KARA 302155Z 01013KT 10SM CLR 19/01 A2995 0 29 500 010/13 RMK AO2 T01890006
53915KARA ARA20161130160010011/30/16 16:00:31  5-MIN KARA 302200Z 36013KT 10SM CLR 18/01 A2995 0 30 400 360/13 RMK AO2 T01830006
53915KARA ARA20161130160510011/30/16 16:05:31  5-MIN KARA 302205Z 01013KT 10SM CLR 18/01 A2996 0 30 400 360/13 RMK AO2 T01830006
53915KARA ARA20161130161010011/30/16 16:10:31  5-MIN KARA 302210Z 01014KT 10SM CLR 18/01 A2995 0 30 400 010/14 RMK AO2 T01830006
53915KARA ARA20161130161510011/30/16 16:15:31  5-MIN KARA 302215Z 01010KT 10SM CLR 18/02 A2996 0 32 400 010/10 RMK AO2 T01830017
53915KARA ARA20161130162010011/30/16 16:20:31  5-MIN KARA 302220Z 01011KT 10SM CLR 18/02 A2996 0 33 400 010/11 RMK AO2 T01780017
53915KARA ARA20161130162510211/30/16 16:25:31  5-MIN KARA 302225Z 36009KT 10SM CLR 18/02 A2996 -10 33 400 360/09 RMK AO2 T01780017
53915KARA ARA20161130163010211/30/16 16:30:31  5-MIN KARA 302230Z 36010KT 10SM CLR 18/02 A2996 -10 33 400 350/10 RMK AO2 T01780017
53915KARA ARA20161130163510211/30/16 16:35:31  5-MIN KARA 302235Z 35009KT 10SM CLR 18/02 A2996 -10 33 400 350/09 RMK AO2 T01780017
53915KARA ARA20161130164010211/30/16 16:40:31  5-MIN KARA 302240Z 35008KT 10SM CLR 17/01 A2996 -10 33 300 350/08 RMK AO2 T01720011
53915KARA ARA20161130164510211/30/16 16:45:31  5-MIN KARA 302245Z 35010KT 10SM CLR 17/01 A2997 -10 34 200 350/10 RMK AO2 T01670011
53915KARA ARA20161130165010911/30/16 16:50:31  5-MIN KARA 302250Z 35008KT 10SM CLR 17/01 A2997 -10 34 200 350/08 RMK AO2 SLP147 T01670011
53915KARA ARA20161130165510211/30/16 16:55:31  5-MIN KARA 302255Z 35008KT 10SM CLR 16/01 A2997 -20 36 100 350/08 RMK AO2 T01610011
53915KARA ARA20161130170010211/30/16 17:00:31  5-MIN KARA 302300Z 35007KT 10SM CLR 16/01 A2997 -20 36 100 350/07 RMK AO2 T01610011
53915KARA ARA20161130170510211/30/16 17:05:31  5-MIN KARA 302305Z 34006KT 10SM CLR 16/02 A2998 -20 39 100 340/06 RMK AO2 T01560017
53915KARA ARA20161130171010211/30/16 17:10:31  5-MIN KARA 302310Z 35007KT 10SM CLR 16/02 A2998 -20 40 100 340/07 RMK AO2 T01560022
53915KARA ARA20161130171510211/30/16 17:15:31  5-MIN KARA 302315Z 35008KT 10SM CLR 16/02 A2998 -20 39 100 350/08 RMK AO2 T01560017
53915KARA ARA20161130172010011/30/16 17:20:31  5-MIN KARA 302320Z 34008KT 10SM CLR 15/02 A2998 -30 40 0 340/08 RMK AO2 T01500017
53915KARA ARA20161130172510011/30/16 17:25:31  5-MIN KARA 302325Z 34007KT 10SM CLR 15/02 A2999 -30 40 0 340/07 RMK AO2 T01500017
53915KARA ARA20161130173010011/30/16 17:30:31  5-MIN KARA 302330Z 34006KT 10SM CLR 14/03 A2999 -30 45 0 340/06 RMK AO2 T01440028
53915KARA ARA20161130173510011/30/16 17:35:31  5-MIN KARA 302335Z 34006KT 10SM CLR 14/02 A2999 -30 43 0 340/06 RMK AO2 T01440022
53915KARA ARA20161130174010011/30/16 17:40:31  5-MIN KARA 302340Z 35006KT 10SM CLR 14/02 A2999 -30 43 0 350/06 RMK AO2 T01440022
53915KARA ARA20161130174510311/30/16 17:45:31  5-MIN KARA 302345Z 34006KT 10SM CLR 13/02 A2999 -40 46 -200 340/06 RMK AO2 T01330022
53915KARA ARA20161130175013411/30/16 17:50:31  5-MIN KARA 302350Z 35006KT 10SM CLR 13/02 A3000 -40 46 -200 350/06 RMK AO2 SLP157 60000 T01330022 10211 20133 53001
53915KARA ARA20161130175510311/30/16 17:55:31  5-MIN KARA 302355Z 35006KT 10SM CLR 13/02 A3000 -40 46 -200 350/06 RMK AO2 T01330022
53915KARA ARA20161130180010311/30/16 18:00:31  5-MIN KARA 010000Z 35005KT 10SM CLR 13/02 A3000 -40 48 -200 350/05 RMK AO2 T01280022
53915KARA ARA20161130180510311/30/16 18:05:31  5-MIN KARA 010005Z 35005KT 10SM CLR 13/02 A3001 -50 46 -200 350/05 RMK AO2 T01330022
53915KARA ARA20161130181010311/30/16 18:10:31  5-MIN KARA 010010Z 36005KT 10SM CLR 13/02 A3001 -50 46 -200 360/05 RMK AO2 T01330022
53915KARA ARA20161130181510311/30/16 18:15:31  5-MIN KARA 010015Z 35005KT 10SM CLR 13/02 A3001 -50 48 -200 350/05 RMK AO2 T01280022
53915KARA ARA20161130182010311/30/16 18:20:31  5-MIN KARA 010020Z 36005KT 10SM CLR 13/02 A3001 -50 48 -200 360/05 RMK AO2 T01280022
53915KARA ARA20161130182510311/30/16 18:25:31  5-MIN KARA 010025Z 35004KT 10SM CLR 13/03 A3001 -50 50 -200 350/04 RMK AO2 T01280028
53915KARA ARA20161130183010311/30/16 18:30:31  5-MIN KARA 010030Z 35005KT 10SM CLR 13/03 A3002 -60 48 -200 350/05 RMK AO2 T01330028
53915KARA ARA20161130183510311/30/16 18:35:31  5-MIN KARA 010035Z 35005KT 10SM CLR 12/03 A3002 -60 54 -400 350/05 RMK AO2 T01170028
53915KARA ARA20161130184010311/30/16 18:40:31  5-MIN KARA 010040Z 34004KT 10SM CLR 12/03 A3002 -60 54 -400 340/04 RMK AO2 T01170028
53915KARA ARA20161130184510311/30/16 18:45:31  5-MIN KARA 010045Z 34004KT 10SM CLR 12/03 A3002 -60 56 -400 340/04 RMK AO2 T01170033
53915KARA ARA20161130185011011/30/16 18:50:31  5-MIN KARA 010050Z 35004KT 10SM CLR 12/04 A3003 -70 56 -300 350/04 RMK AO2 SLP167 T01220039
53915KARA ARA20161130185510311/30/16 18:55:31  5-MIN KARA 010055Z 35004KT 10SM CLR 12/04 A3003 -70 56 -300 350/04 RMK AO2 T01220039
53915KARA ARA20161130190010311/30/16 19:00:31  5-MIN KARA 010100Z 35005KT 10SM CLR 12/03 A3003 -70 54 -300 340/05 RMK AO2 T01220033
53915KARA ARA20161130190510311/30/16 19:05:31  5-MIN KARA 010105Z 34005KT 10SM CLR 12/03 A3002 -70 56 -400 340/05 RMK AO2 T01170033
53915KARA ARA20161130191010311/30/16 19:10:31  5-MIN KARA 010110Z 34004KT 10SM CLR 12/04 A3003 -70 61 -400 340/04 RMK AO2 T01170044
53915KARA ARA20161130191510311/30/16 19:15:31  5-MIN KARA 010115Z 34004KT 10SM CLR 12/06 A3003 -70 66 -400 330/04 RMK AO2 T01170056
53915KARA ARA20161130192010311/30/16 19:20:31  5-MIN KARA 010120Z 33005KT 10SM CLR 12/04 A3003 -70 61 -400 330/05 RMK AO2 T01170044
53915KARA ARA20161130192510311/30/16 19:25:31  5-MIN KARA 010125Z 32005KT 10SM CLR 12/05 A3003 -70 63 -400 320/05 RMK AO2 T01170050
53915KARA ARA20161130193010311/30/16 19:30:31  5-MIN KARA 010130Z 32005KT 10SM CLR 11/05 A3003 -70 66 -500 320/05 RMK AO2 T01110050
53915KARA ARA20161130193510311/30/16 19:35:31  5-MIN KARA 010135Z 32005KT 10SM CLR 11/05 A3003 -70 68 -500 320/05 RMK AO2 T01060050
53915KARA ARA20161130194010311/30/16 19:40:31  5-MIN KARA 010140Z 32005KT 10SM CLR 11/04 A3003 -70 66 -500 320/05 RMK AO2 T01060044
53915KARA ARA20161130194510311/30/16 19:45:31  5-MIN KARA 010145Z 32005KT 10SM CLR 11/04 A3003 -70 63 -500 320/05 RMK AO2 T01110044
53915KARA ARA20161130195011011/30/16 19:50:31  5-MIN KARA 010150Z 32004KT 10SM CLR 12/04 A3003 -70 61 -400 320/04 RMK AO2 SLP170 T01170044
53915KARA ARA20161130195510311/30/16 19:55:31  5-MIN KARA 010155Z 32004KT 10SM CLR 12/04 A3004 -80 61 -400 320/04 RMK AO2 T01170044
53915KARA ARA20161130200010311/30/16 20:00:31  5-MIN KARA 010200Z 32004KT 10SM CLR 12/05 A3004 -80 63 -400 320/04 RMK AO2 T01170050
53915KARA ARA20161130200510311/30/16 20:05:31  5-MIN KARA 010205Z 33003KT 10SM CLR 12/05 A3004 -80 63 -400 330/03 RMK AO2 T01170050
53915KARA ARA20161130201010311/30/16 20:10:31  5-MIN KARA 010210Z 33003KT 10SM CLR 11/04 A3004 -80 63 -500 330/03 RMK AO2 T01110044
53915KARA ARA20161130201510311/30/16 20:15:31  5-MIN KARA 010215Z 33004KT 10SM CLR 12/04 A3004 -80 58 -400 330/04 RMK AO2 T01170039
53915KARA ARA20161130202010311/30/16 20:20:31  5-MIN KARA 010220Z 32004KT 10SM CLR 12/04 A3004 -80 61 -400 320/04 RMK AO2 T01170044
53915KARA ARA20161130202510311/30/16 20:25:31  5-MIN KARA 010225Z 32004KT 10SM CLR 11/05 A3004 -80 66 -500 320/04 RMK AO2 T01110050
53915KARA ARA20161130203010311/30/16 20:30:31  5-MIN KARA 010230Z 33003KT 10SM CLR 11/05 A3004 -80 66 -500 330/03 RMK AO2 T01110050
53915KARA ARA20161130203510311/30/16 20:35:31  5-MIN KARA 010235Z 33004KT 10SM CLR 11/06 A3004 -80 71 -500 330/04 RMK AO2 T01060056
53915KARA ARA20161130204010311/30/16 20:40:31  5-MIN KARA 010240Z 33004KT 10SM CLR 11/05 A3004 -80 68 -500 330/04 RMK AO2 T01060050
53915KARA ARA20161130204510811/30/16 20:45:31  5-MIN KARA 010245Z AUTO 33004KT 10SM CLR 11/05 A3004 -80 66 -500 330/04 RMK AO2 T01110050
53915KARA ARA20161130205012111/30/16 20:50:31  5-MIN KARA 010250Z AUTO 33003KT 10SM CLR 11/04 A3004 -80 66 -500 330/03 RMK AO2 SLP172 T01060044 53022
53915KARA ARA20161130205510811/30/16 20:55:31  5-MIN KARA 010255Z AUTO 00000KT 10SM CLR 10/04 A3004 -80 65 -600 000/00 RMK AO2 T01000039
53915KARA ARA20161130210010811/30/16 21:00:31  5-MIN KARA 010300Z AUTO 00000KT 10SM CLR 10/04 A3005 -80 65 -600 000/00 RMK AO2 T01000039
53915KARA ARA20161130210510811/30/16 21:05:31  5-MIN KARA 010305Z AUTO 33004KT 10SM CLR 10/04 A3005 -90 65 -600 330/04 RMK AO2 T01000039
53915KARA ARA20161130211010811/30/16 21:10:31  5-MIN KARA 010310Z AUTO 33004KT 10SM CLR 11/03 A3005 -90 61 -600 330/04 RMK AO2 T01060033
53915KARA ARA20161130211510811/30/16 21:15:31  5-MIN KARA 010315Z AUTO 33005KT 10SM CLR 11/03 A3005 -90 61 -600 330/05 RMK AO2 T01060033
53915KARA ARA20161130212010811/30/16 21:20:31  5-MIN KARA 010320Z AUTO 33005KT 10SM CLR 10/04 A3005 -90 65 -600 330/05 RMK AO2 T01000039
53915KARA ARA20161130212510811/30/16 21:25:31  5-MIN KARA 010325Z AUTO 33005KT 10SM CLR 10/04 A3005 -90 68 -600 330/05 RMK AO2 T01000044
53915KARA ARA20161130213010811/30/16 21:30:31  5-MIN KARA 010330Z AUTO 33006KT 10SM CLR 09/05 A3005 -90 74 -700 330/06 RMK AO2 T00940050
53915KARA ARA20161130213510811/30/16 21:35:31  5-MIN KARA 010335Z AUTO 33005KT 10SM CLR 09/05 A3005 -90 74 -700 330/05 RMK AO2 T00940050
53915KARA ARA20161130214010811/30/16 21:40:31  5-MIN KARA 010340Z AUTO 33005KT 10SM CLR 10/04 A3005 -90 68 -600 330/05 RMK AO2 T01000044
53915KARA ARA20161130214510811/30/16 21:45:31  5-MIN KARA 010345Z AUTO 33005KT 10SM CLR 09/05 A3006 -90 74 -700 330/05 RMK AO2 T00940050
53915KARA ARA20161130215011511/30/16 21:50:31  5-MIN KARA 010350Z AUTO 33004KT 10SM CLR 09/04 A3006 -90 71 -700 330/04 RMK AO2 SLP177 T00940044
53915KARA ARA20161130215510811/30/16 21:55:31  5-MIN KARA 010355Z AUTO 33005KT 10SM CLR 10/04 A3006 -90 68 -600 330/05 RMK AO2 T01000044
53915KARA ARA20161130220010911/30/16 22:00:31  5-MIN KARA 010400Z AUTO 33005KT 10SM CLR 09/04 A3006 -100 71 -700 330/05 RMK AO2 T00940044
53915KARA ARA20161130220510911/30/16 22:05:31  5-MIN KARA 010405Z AUTO 32005KT 10SM CLR 09/04 A3006 -100 71 -700 320/05 RMK AO2 T00940044
53915KARA ARA20161130221010911/30/16 22:10:31  5-MIN KARA 010410Z AUTO 32005KT 10SM CLR 09/04 A3006 -100 68 -700 320/05 RMK AO2 T00940039
53915KARA ARA20161130221510911/30/16 22:15:31  5-MIN KARA 010415Z AUTO 33004KT 10SM CLR 09/04 A3006 -100 68 -700 330/04 RMK AO2 T00940039
53915KARA ARA20161130222010911/30/16 22:20:31  5-MIN KARA 010420Z AUTO 33004KT 10SM CLR 09/04 A3006 -100 68 -700 330/04 RMK AO2 T00940039
53915KARA ARA20161130222510911/30/16 22:25:31  5-MIN KARA 010425Z AUTO 33004KT 10SM CLR 10/03 A3006 -100 63 -600 330/04 RMK AO2 T01000033
53915KARA ARA20161130223010911/30/16 22:30:31  5-MIN KARA 010430Z AUTO 33004KT 10SM CLR 09/03 A3006 -100 65 -700 330/04 RMK AO2 T00940033
53915KARA ARA20161130223510911/30/16 22:35:31  5-MIN KARA 010435Z AUTO 33004KT 10SM CLR 10/03 A3006 -100 60 -600 330/04 RMK AO2 T01000028
53915KARA ARA20161130224010911/30/16 22:40:31  5-MIN KARA 010440Z AUTO 33004KT 10SM CLR 10/04 A3007 -100 65 -600 320/04 RMK AO2 T01000039
53915KARA ARA20161130224510911/30/16 22:45:31  5-MIN KARA 010445Z AUTO 32004KT 10SM CLR 10/04 A3007 -100 65 -600 320/04 RMK AO2 T01000039
53915KARA ARA20161130225011611/30/16 22:50:31  5-MIN KARA 010450Z AUTO 32005KT 10SM CLR 10/03 A3007 -100 63 -600 320/05 RMK AO2 SLP181 T01000033
53915KARA ARA20161130225510911/30/16 22:55:31  5-MIN KARA 010455Z AUTO 33005KT 10SM CLR 09/03 A3007 -110 65 -700 330/05 RMK AO2 T00940033
53915KARA ARA20161130230010911/30/16 23:00:31  5-MIN KARA 010500Z AUTO 32004KT 10SM CLR 09/03 A3007 -110 65 -700 320/04 RMK AO2 T00940033
53915KARA ARA20161130230510911/30/16 23:05:31  5-MIN KARA 010505Z AUTO 32004KT 10SM CLR 09/04 A3007 -110 68 -700 320/04 RMK AO2 T00940039
53915KARA ARA20161130231010911/30/16 23:10:31  5-MIN KARA 010510Z AUTO 33004KT 10SM CLR 09/04 A3007 -110 68 -700 330/04 RMK AO2 T00940039
53915KARA ARA20161130231510911/30/16 23:15:31  5-MIN KARA 010515Z AUTO 32004KT 10SM CLR 09/04 A3007 -110 68 -700 320/04 RMK AO2 T00940039
53915KARA ARA20161130232010911/30/16 23:20:31  5-MIN KARA 010520Z AUTO 33003KT 10SM CLR 09/03 A3007 -110 65 -700 330/03 RMK AO2 T00940033
53915KARA ARA20161130232510911/30/16 23:25:31  5-MIN KARA 010525Z AUTO 32003KT 10SM CLR 09/03 A3007 -110 65 -700 320/03 RMK AO2 T00940033
53915KARA ARA20161130233010911/30/16 23:30:31  5-MIN KARA 010530Z AUTO 32003KT 10SM CLR 09/03 A3007 -110 63 -700 320/03 RMK AO2 T00940028
53915KARA ARA20161130233510911/30/16 23:35:31  5-MIN KARA 010535Z AUTO 32003KT 10SM CLR 09/03 A3007 -110 65 -800 320/03 RMK AO2 T00890028
53915KARA ARA20161130234010911/30/16 23:40:31  5-MIN KARA 010540Z AUTO 00000KT 10SM CLR 08/03 A3008 -110 68 -900 000/00 RMK AO2 T00830028
53915KARA ARA20161130234510911/30/16 23:45:31  5-MIN KARA 010545Z AUTO 00000KT 10SM CLR 08/03 A3008 -110 68 -900 000/00 RMK AO2 T00830028
53915KARA ARA20161130235014411/30/16 23:50:31  5-MIN KARA 010550Z AUTO 32003KT 10SM CLR 08/02 A3008 -110 68 -900 320/03 RMK AO2 SLP183 T00780022 10133 20078 402330078 51015
53915KARA ARA20161130235510911/30/16 23:55:31  5-MIN KARA 010555Z AUTO 32003KT 10SM CLR 08/03 A3008 -110 68 -900 320/03 RMK AO2 T00830028
