94299KAAT AAT20161201000011812/01/16 00:00:31  5-MIN KAAT 010800Z AUTO 00000KT 2SM BR CLR M06/M06 A3014 4180 96 2700 000/00 RMK AO2 T10561061 TSNO
94299KAAT AAT20161201000511812/01/16 00:05:31  5-MIN KAAT 010805Z AUTO 00000KT 3SM BR CLR M06/M07 A3014 4180 92 2600 000/00 RMK AO2 T10611072 TSNO
94299KAAT AAT20161201001011512/01/16 00:10:31  5-MIN KAAT 010810Z AUTO 00000KT 7SM CLR M06/M07 A3014 4180 92 2600 000/00 RMK AO2 T10611072 TSNO
94299KAAT AAT20161201001511512/01/16 00:15:31  5-MIN KAAT 010815Z AUTO 00000KT 9SM CLR M05/M06 A3014 4180 92 2800 000/00 RMK AO2 T10501061 TSNO
94299KAAT AAT20161201002011612/01/16 00:20:31  5-MIN KAAT 010820Z AUTO 32003KT 10SM CLR M05/M06 A3014 4170 96 2800 310/03 RMK AO2 T10501056 TSNO
94299KAAT AAT20161201002511612/01/16 00:25:31  5-MIN KAAT 010825Z AUTO 31003KT 10SM CLR M06/M06 A3014 4170 96 2700 300/03 RMK AO2 T10561061 TSNO
94299KAAT AAT20161201003011612/01/16 00:30:31  5-MIN KAAT 010830Z AUTO 31003KT 10SM CLR M06/M06 A3014 4170 96 2700 290/03 RMK AO2 T10561061 TSNO
94299KAAT AAT20161201003511612/01/16 00:35:31  5-MIN KAAT 010835Z AUTO 00000KT 10SM CLR M06/M07 A3015 4170 92 2700 000/00 RMK AO2 T10561067 TSNO
94299KAAT AAT20161201004011612/01/16 00:40:31  5-MIN KAAT 010840Z AUTO 00000KT 10SM CLR M06/M07 A3015 4170 92 2700 000/00 RMK AO2 T10561067 TSNO
94299KAAT AAT20161201004511912/01/16 00:45:31  5-MIN KAAT 010845Z AUTO 00000KT 6SM BR CLR M07/M07 A3015 4170 100 2600 000/00 RMK AO2 T10671067 TSNO
94299KAAT AAT20161201005013112/01/16 00:50:31  5-MIN KAAT 010850Z AUTO 28004KT 5SM BR CLR M06/M07 A3015 4170 92 2600 270/04 RMK AO2 SLP233 T10611072 51006 TSNO
94299KAAT AAT20161201005512812/01/16 00:55:31  5-MIN KAAT 010855Z AUTO 00000KT 8SM CLR M06/M07 A3015 4170 96 2600 000/00 RMK AO2 SLP233 T10611067 51006 TSNO
94299KAAT AAT20161201010011612/01/16 01:00:31  5-MIN KAAT 010900Z AUTO 28003KT 10SM CLR M06/M07 A3015 4170 92 2700 260/03 RMK AO2 T10561067 TSNO
94299KAAT AAT20161201010511612/01/16 01:05:31  5-MIN KAAT 010905Z AUTO 00000KT 10SM CLR M06/M07 A3015 4170 96 2600 000/00 RMK AO2 T10611067 TSNO
94299KAAT AAT20161201011011612/01/16 01:10:31  5-MIN KAAT 010910Z AUTO 00000KT 10SM CLR M06/M07 A3015 4170 92 2700 000/00 RMK AO2 T10561067 TSNO
94299KAAT AAT20161201011511612/01/16 01:15:31  5-MIN KAAT 010915Z AUTO 00000KT 10SM CLR M06/M07 A3015 4170 92 2700 000/00 RMK AO2 T10561067 TSNO
94299KAAT AAT20161201012011612/01/16 01:20:31  5-MIN KAAT 010920Z AUTO 00000KT 10SM CLR M06/M07 A3015 4170 96 2600 000/00 RMK AO2 T10611067 TSNO
94299KAAT AAT20161201012511512/01/16 01:25:31  5-MIN KAAT 010925Z AUTO 00000KT 8SM CLR M06/M07 A3015 4170 96 2600 000/00 RMK AO2 T10611067 TSNO
94299KAAT AAT20161201013012112/01/16 01:30:31  5-MIN KAAT 010930Z AUTO 10003KT 5SM BR FEW012 M06/M07 A3016 4160 92 2600 080/03 RMK AO2 T10611072 TSNO
94299KAAT AAT20161201013512112/01/16 01:35:31  5-MIN KAAT 010935Z AUTO 00000KT 5SM BR FEW012 M06/M07 A3016 4160 92 2700 000/00 RMK AO2 T10561067 TSNO
94299KAAT AAT20161201014012812/01/16 01:40:31  5-MIN KAAT 010940Z AUTO 07005KT 5SM BR FEW005 FEW012 M06/M07 A3016 4160 92 2700 060/05 RMK AO2 T10561067 TSNO
94299KAAT AAT20161201014512812/01/16 01:45:31  5-MIN KAAT 010945Z AUTO 08004KT 5SM BR SCT005 SCT012 M06/M07 A3016 4160 92 2700 060/04 RMK AO2 T10561067 TSNO
94299KAAT AAT20161201015013212/01/16 01:50:31  5-MIN KAAT 010950Z AUTO 07003KT 7SM FEW005 SCT012 M06/M07 A3016 4160 92 2700 060/03 RMK AO2 SLP233 T10561067 TSNO
94299KAAT AAT20161201015513212/01/16 01:55:31  5-MIN KAAT 010955Z AUTO 07004KT 8SM SCT004 SCT012 M06/M07 A3016 4160 92 2700 060/04 RMK AO2 SLP234 T10561067 TSNO
94299KAAT AAT20161201020012612/01/16 02:00:31  5-MIN KAAT 011000Z AUTO 00000KT 10SM SCT004 BKN012 M05/M06 A3016 4160 92 2800 000/00 RMK AO2 T10501061 TSNO
94299KAAT AAT20161201020512612/01/16 02:05:31  5-MIN KAAT 011005Z AUTO 04003KT 10SM FEW004 BKN012 M06/M07 A3017 4160 92 2700 020/03 RMK AO2 T10561067 TSNO
94299KAAT AAT20161201021012612/01/16 02:10:31  5-MIN KAAT 011010Z AUTO 00000KT 10SM FEW004 BKN012 M06/M06 A3017 4150 96 2700 000/00 RMK AO2 T10561061 TSNO
94299KAAT AAT20161201021512612/01/16 02:15:31  5-MIN KAAT 011015Z AUTO 00000KT 10SM FEW004 BKN012 M06/M07 A3017 4150 92 2700 000/00 RMK AO2 T10561067 TSNO
94299KAAT AAT20161201022012612/01/16 02:20:31  5-MIN KAAT 011020Z AUTO 00000KT 10SM FEW004 OVC012 M06/M07 A3017 4150 92 2700 000/00 RMK AO2 T10561067 TSNO
94299KAAT AAT20161201022511912/01/16 02:25:31  5-MIN KAAT 011025Z AUTO 32004KT 10SM OVC011 M06/M07 A3016 4160 92 2700 310/04 RMK AO2 T10561067 TSNO
94299KAAT AAT20161201023011912/01/16 02:30:31  5-MIN KAAT 011030Z AUTO 31003KT 10SM OVC011 M05/M06 A3016 4160 92 2800 290/03 RMK AO2 T10501061 TSNO
94299KAAT AAT20161201023511912/01/16 02:35:31  5-MIN KAAT 011035Z AUTO 32004KT 10SM OVC011 M05/M06 A3017 4160 96 2800 300/04 RMK AO2 T10501056 TSNO
94299KAAT AAT20161201024013212/01/16 02:40:31  5-MIN KAAT 011040Z AUTO 00000KT 10SM OVC011 M05/M05 A3017 4150 100 2800 000/00 RMK AO2 CIG 009V013 T10501050 TSNO
94299KAAT AAT20161201024513112/01/16 02:45:31  5-MIN KAAT 011045Z AUTO 32003KT 10SM OVC011 M05/M06 A3017 4150 96 2800 300/03 RMK AO2 CIG 009V013 T10501056 TSNO
94299KAAT AAT20161201025013812/01/16 02:50:31  5-MIN KAAT 011050Z AUTO 00000KT 10SM OVC010 M04/M06 A3016 4160 92 2800 000/00 RMK AO2 CIG 010V013 SLP233 T10441056 TSNO
94299KAAT AAT20161201025512612/01/16 02:55:31  5-MIN KAAT 011055Z AUTO 00000KT 10SM OVC010 M04/M06 A3016 4160 88 2900 000/00 RMK AO2 SLP233 T10391056 TSNO
94299KAAT AAT20161201030011912/01/16 03:00:31  5-MIN KAAT 011100Z AUTO 00000KT 10SM OVC010 M04/M05 A3016 4160 92 2900 000/00 RMK AO2 T10391050 TSNO
94299KAAT AAT20161201030511912/01/16 03:05:31  5-MIN KAAT 011105Z AUTO 00000KT 10SM OVC010 M04/M04 A3016 4160 96 2900 000/00 RMK AO2 T10391044 TSNO
94299KAAT AAT20161201031011912/01/16 03:10:31  5-MIN KAAT 011110Z AUTO 00000KT 10SM OVC010 M04/M04 A3016 4160 96 2900 000/00 RMK AO2 T10391044 TSNO
94299KAAT AAT20161201031511912/01/16 03:15:31  5-MIN KAAT 011115Z AUTO 00000KT 10SM OVC010 M04/M05 A3016 4160 92 2900 000/00 RMK AO2 T10391050 TSNO
94299KAAT AAT20161201032011912/01/16 03:20:31  5-MIN KAAT 011120Z AUTO 00000KT 10SM OVC010 M04/M05 A3016 4160 92 2900 000/00 RMK AO2 T10391050 TSNO
94299KAAT AAT20161201032511912/01/16 03:25:31  5-MIN KAAT 011125Z AUTO 00000KT 10SM OVC010 M04/M05 A3016 4160 92 2900 000/00 RMK AO2 T10391050 TSNO
94299KAAT AAT20161201033011912/01/16 03:30:31  5-MIN KAAT 011130Z AUTO 00000KT 10SM OVC010 M04/M04 A3015 4170 96 2900 000/00 RMK AO2 T10391044 TSNO
94299KAAT AAT20161201033511912/01/16 03:35:31  5-MIN KAAT 011135Z AUTO 00000KT 10SM OVC010 M04/M04 A3015 4170 96 2900 000/00 RMK AO2 T10391044 TSNO
94299KAAT AAT20161201034011912/01/16 03:40:31  5-MIN KAAT 011140Z AUTO 00000KT 10SM OVC010 M04/M04 A3015 4170 96 2900 000/00 RMK AO2 T10391044 TSNO
94299KAAT AAT20161201034511912/01/16 03:45:31  5-MIN KAAT 011145Z AUTO 00000KT 10SM OVC010 M04/M04 A3016 4160 96 2900 000/00 RMK AO2 T10391044 TSNO
94299KAAT AAT20161201035015012/01/16 03:50:31  5-MIN KAAT 011150Z AUTO 00000KT 10SM OVC010 M04/M05 A3016 4160 92 2900 000/00 RMK AO2 SLP231 70005 T10391050 11028 21067 51006 TSNO
94299KAAT AAT20161201035515012/01/16 03:55:31  5-MIN KAAT 011155Z AUTO 27003KT 10SM OVC010 M04/M05 A3016 4160 92 2900 250/03 RMK AO2 SLP231 70005 T10391050 11028 21067 50001 TSNO
94299KAAT AAT20161201040011912/01/16 04:00:31  5-MIN KAAT 011200Z AUTO 26004KT 10SM OVC010 M04/M05 A3016 4160 92 2900 250/04 RMK AO2 T10391050 TSNO
94299KAAT AAT20161201040511912/01/16 04:05:31  5-MIN KAAT 011205Z AUTO 28004KT 10SM OVC010 M04/M04 A3016 4160 96 2900 270/04 RMK AO2 T10391044 TSNO
94299KAAT AAT20161201041011912/01/16 04:10:31  5-MIN KAAT 011210Z AUTO 31003KT 10SM OVC010 M04/M04 A3016 4160 96 2900 300/03 RMK AO2 T10391044 TSNO
94299KAAT AAT20161201041511912/01/16 04:15:31  5-MIN KAAT 011215Z AUTO 00000KT 10SM OVC010 M03/M04 A3016 4160 92 3000 000/00 RMK AO2 T10331044 TSNO
94299KAAT AAT20161201042011912/01/16 04:20:31  5-MIN KAAT 011220Z AUTO 00000KT 10SM OVC010 M03/M04 A3016 4160 92 3000 000/00 RMK AO2 T10331044 TSNO
94299KAAT AAT20161201042511912/01/16 04:25:31  5-MIN KAAT 011225Z AUTO 00000KT 10SM OVC011 M03/M04 A3016 4160 92 3000 000/00 RMK AO2 T10331044 TSNO
94299KAAT AAT20161201043011912/01/16 04:30:31  5-MIN KAAT 011230Z AUTO 00000KT 10SM OVC011 M03/M04 A3016 4160 92 3000 000/00 RMK AO2 T10331044 TSNO
94299KAAT AAT20161201043511912/01/16 04:35:31  5-MIN KAAT 011235Z AUTO 00000KT 10SM OVC011 M03/M04 A3016 4160 92 3000 000/00 RMK AO2 T10331044 TSNO
94299KAAT AAT20161201044011912/01/16 04:40:31  5-MIN KAAT 011240Z AUTO 00000KT 10SM OVC012 M03/M04 A3016 4160 92 3000 000/00 RMK AO2 T10331044 TSNO
94299KAAT AAT20161201044511912/01/16 04:45:31  5-MIN KAAT 011245Z AUTO 00000KT 10SM OVC012 M03/M04 A3016 4160 92 3000 000/00 RMK AO2 T10331044 TSNO
94299KAAT AAT20161201045012612/01/16 04:50:31  5-MIN KAAT 011250Z AUTO 00000KT 10SM OVC012 M03/M04 A3016 4160 96 3000 000/00 RMK AO2 SLP237 T10331039 TSNO
94299KAAT AAT20161201045512612/01/16 04:55:31  5-MIN KAAT 011255Z AUTO 00000KT 10SM OVC012 M03/M04 A3016 4160 96 3000 000/00 RMK AO2 SLP235 T10331039 TSNO
94299KAAT AAT20161201050011912/01/16 05:00:31  5-MIN KAAT 011300Z AUTO 00000KT 10SM OVC012 M03/M04 A3016 4160 96 3000 000/00 RMK AO2 T10331039 TSNO
94299KAAT AAT20161201050511912/01/16 05:05:31  5-MIN KAAT 011305Z AUTO 00000KT 10SM OVC012 M03/M04 A3016 4160 96 3000 000/00 RMK AO2 T10331039 TSNO
94299KAAT AAT20161201051011912/01/16 05:10:31  5-MIN KAAT 011310Z AUTO 00000KT 10SM OVC012 M03/M04 A3016 4160 96 3000 000/00 RMK AO2 T10331039 TSNO
94299KAAT AAT20161201051511912/01/16 05:15:31  5-MIN KAAT 011315Z AUTO 00000KT 10SM OVC012 M03/M04 A3016 4160 96 3000 000/00 RMK AO2 T10331039 TSNO
94299KAAT AAT20161201052011912/01/16 05:20:31  5-MIN KAAT 011320Z AUTO 00000KT 10SM OVC013 M03/M04 A3017 4150 96 3000 000/00 RMK AO2 T10331039 TSNO
94299KAAT AAT20161201052511912/01/16 05:25:31  5-MIN KAAT 011325Z AUTO 00000KT 10SM OVC013 M03/M04 A3017 4150 96 3000 000/00 RMK AO2 T10331039 TSNO
94299KAAT AAT20161201053011912/01/16 05:30:31  5-MIN KAAT 011330Z AUTO 00000KT 10SM OVC013 M03/M04 A3017 4150 96 3000 000/00 RMK AO2 T10331039 TSNO
94299KAAT AAT20161201053511912/01/16 05:35:31  5-MIN KAAT 011335Z AUTO 00000KT 10SM OVC013 M03/M04 A3017 4150 92 3000 000/00 RMK AO2 T10281039 TSNO
94299KAAT AAT20161201054011912/01/16 05:40:31  5-MIN KAAT 011340Z AUTO 00000KT 10SM OVC013 M03/M04 A3017 4150 96 3000 000/00 RMK AO2 T10331039 TSNO
94299KAAT AAT20161201054511912/01/16 05:45:31  5-MIN KAAT 011345Z AUTO 29004KT 10SM OVC013 M03/M04 A3018 4150 96 3000 280/04 RMK AO2 T10331039 TSNO
94299KAAT AAT20161201055012612/01/16 05:50:31  5-MIN KAAT 011350Z AUTO 28003KT 10SM OVC013 M03/M04 A3018 4140 92 3000 260/03 RMK AO2 SLP240 T10331044 TSNO
94299KAAT AAT20161201055512612/01/16 05:55:31  5-MIN KAAT 011355Z AUTO 28004KT 10SM OVC012 M03/M04 A3018 4140 92 3000 270/04 RMK AO2 SLP241 T10331044 TSNO
94299KAAT AAT20161201060011912/01/16 06:00:31  5-MIN KAAT 011400Z AUTO 27005KT 10SM OVC012 M03/M04 A3018 4140 92 3000 260/05 RMK AO2 T10331044 TSNO
94299KAAT AAT20161201060511912/01/16 06:05:31  5-MIN KAAT 011405Z AUTO 27004KT 10SM OVC012 M04/M04 A3018 4140 96 2900 260/04 RMK AO2 T10391044 TSNO
94299KAAT AAT20161201061011912/01/16 06:10:31  5-MIN KAAT 011410Z AUTO 28004KT 10SM OVC012 M04/M04 A3018 4140 96 2900 260/04 RMK AO2 T10391044 TSNO
94299KAAT AAT20161201061511912/01/16 06:15:31  5-MIN KAAT 011415Z AUTO 27004KT 10SM OVC012 M04/M04 A3018 4140 96 2900 260/04 RMK AO2 T10391044 TSNO
94299KAAT AAT20161201062011912/01/16 06:20:31  5-MIN KAAT 011420Z AUTO 27003KT 10SM OVC013 M04/M04 A3018 4140 96 2900 260/03 RMK AO2 T10391044 TSNO
94299KAAT AAT20161201062511912/01/16 06:25:31  5-MIN KAAT 011425Z AUTO 28004KT 10SM OVC013 M04/M04 A3019 4140 96 2900 260/04 RMK AO2 T10391044 TSNO
94299KAAT AAT20161201063011912/01/16 06:30:31  5-MIN KAAT 011430Z AUTO 27003KT 10SM OVC013 M04/M04 A3018 4140 96 2900 250/03 RMK AO2 T10391044 TSNO
94299KAAT AAT20161201063511912/01/16 06:35:31  5-MIN KAAT 011435Z AUTO 27003KT 10SM OVC013 M04/M04 A3019 4140 96 2900 250/03 RMK AO2 T10391044 TSNO
94299KAAT AAT20161201064011912/01/16 06:40:31  5-MIN KAAT 011440Z AUTO 26003KT 10SM OVC013 M04/M04 A3019 4130 96 2900 250/03 RMK AO2 T10391044 TSNO
94299KAAT AAT20161201064511912/01/16 06:45:31  5-MIN KAAT 011445Z AUTO 00000KT 10SM OVC013 M04/M04 A3019 4130 96 2900 000/00 RMK AO2 T10391044 TSNO
94299KAAT AAT20161201065013212/01/16 06:50:31  5-MIN KAAT 011450Z AUTO 00000KT 10SM OVC013 M03/M04 A3019 4130 96 2900 000/00 RMK AO2 SLP247 T10331039 50001 TSNO
94299KAAT AAT20161201065513212/01/16 06:55:31  5-MIN KAAT 011455Z AUTO 00000KT 10SM OVC013 M04/M04 A3019 4130 96 2900 000/00 RMK AO2 SLP249 T10391044 53011 TSNO
94299KAAT AAT20161201070011912/01/16 07:00:31  5-MIN KAAT 011500Z AUTO 00000KT 10SM OVC013 M03/M04 A3019 4130 92 2900 000/00 RMK AO2 T10331044 TSNO
94299KAAT AAT20161201070511912/01/16 07:05:31  5-MIN KAAT 011505Z AUTO 00000KT 10SM OVC013 M03/M04 A3019 4130 92 2900 000/00 RMK AO2 T10331044 TSNO
94299KAAT AAT20161201071011912/01/16 07:10:31  5-MIN KAAT 011510Z AUTO 00000KT 10SM OVC013 M03/M04 A3019 4130 92 2900 000/00 RMK AO2 T10331044 TSNO
94299KAAT AAT20161201071511912/01/16 07:15:31  5-MIN KAAT 011515Z AUTO 07004KT 10SM OVC013 M03/M04 A3019 4130 92 2900 060/04 RMK AO2 T10331044 TSNO
94299KAAT AAT20161201072011912/01/16 07:20:31  5-MIN KAAT 011520Z AUTO 08003KT 10SM OVC013 M04/M05 A3019 4130 92 2900 070/03 RMK AO2 T10391050 TSNO
94299KAAT AAT20161201072511912/01/16 07:25:31  5-MIN KAAT 011525Z AUTO 07004KT 10SM OVC013 M04/M05 A3020 4130 92 2900 060/04 RMK AO2 T10391050 TSNO
94299KAAT AAT20161201073011912/01/16 07:30:31  5-MIN KAAT 011530Z AUTO 09003KT 10SM OVC013 M04/M05 A3019 4130 92 2900 070/03 RMK AO2 T10391050 TSNO
94299KAAT AAT20161201073511912/01/16 07:35:31  5-MIN KAAT 011535Z AUTO 06003KT 10SM OVC013 M04/M05 A3019 4130 92 2900 050/03 RMK AO2 T10391050 TSNO
94299KAAT AAT20161201074011912/01/16 07:40:31  5-MIN KAAT 011540Z AUTO 00000KT 10SM OVC013 M04/M05 A3019 4130 92 2900 000/00 RMK AO2 T10391050 TSNO
94299KAAT AAT20161201074511912/01/16 07:45:31  5-MIN KAAT 011545Z AUTO 06003KT 10SM OVC013 M04/M05 A3019 4130 92 2900 050/03 RMK AO2 T10391050 TSNO
94299KAAT AAT20161201075012612/01/16 07:50:31  5-MIN KAAT 011550Z AUTO 07003KT 10SM OVC013 M04/M05 A3019 4130 92 2900 060/03 RMK AO2 SLP250 T10391050 TSNO
94299KAAT AAT20161201075512612/01/16 07:55:31  5-MIN KAAT 011555Z AUTO 07003KT 10SM OVC013 M04/M05 A3019 4130 92 2900 050/03 RMK AO2 SLP250 T10391050 TSNO
94299KAAT AAT20161201080011912/01/16 08:00:31  5-MIN KAAT 011600Z AUTO 08003KT 10SM OVC013 M04/M05 A3019 4130 92 2900 060/03 RMK AO2 T10391050 TSNO
94299KAAT AAT20161201080511912/01/16 08:05:31  5-MIN KAAT 011605Z AUTO 06004KT 10SM OVC013 M03/M05 A3019 4130 88 2900 050/04 RMK AO2 T10331050 TSNO
94299KAAT AAT20161201081011912/01/16 08:10:31  5-MIN KAAT 011610Z AUTO 08004KT 10SM OVC013 M03/M05 A3019 4130 88 2900 060/04 RMK AO2 T10331050 TSNO
94299KAAT AAT20161201081511912/01/16 08:15:31  5-MIN KAAT 011615Z AUTO 08004KT 10SM OVC013 M03/M05 A3019 4130 88 2900 070/04 RMK AO2 T10331050 TSNO
94299KAAT AAT20161201082011912/01/16 08:20:31  5-MIN KAAT 011620Z AUTO 08005KT 10SM OVC012 M03/M04 A3019 4130 92 2900 070/05 RMK AO2 T10331044 TSNO
94299KAAT AAT20161201082511912/01/16 08:25:31  5-MIN KAAT 011625Z AUTO 08005KT 10SM OVC012 M03/M04 A3019 4130 92 2900 060/05 RMK AO2 T10331044 TSNO
94299KAAT AAT20161201083011912/01/16 08:30:31  5-MIN KAAT 011630Z AUTO 07006KT 10SM OVC012 M04/M05 A3019 4130 92 2900 060/06 RMK AO2 T10391050 TSNO
94299KAAT AAT20161201083511912/01/16 08:35:31  5-MIN KAAT 011635Z AUTO 07005KT 10SM OVC012 M04/M05 A3020 4130 92 2900 050/05 RMK AO2 T10391050 TSNO
94299KAAT AAT20161201084011912/01/16 08:40:31  5-MIN KAAT 011640Z AUTO 06006KT 10SM OVC012 M04/M05 A3020 4130 92 2900 040/06 RMK AO2 T10391050 TSNO
94299KAAT AAT20161201084511912/01/16 08:45:31  5-MIN KAAT 011645Z AUTO 06005KT 10SM OVC012 M04/M05 A3020 4130 92 2900 050/05 RMK AO2 T10391050 TSNO
94299KAAT AAT20161201085012612/01/16 08:50:31  5-MIN KAAT 011650Z AUTO 06004KT 10SM OVC012 M04/M05 A3020 4120 92 2900 040/04 RMK AO2 SLP254 T10391050 TSNO
94299KAAT AAT20161201085512612/01/16 08:55:31  5-MIN KAAT 011655Z AUTO 06003KT 10SM OVC012 M03/M04 A3021 4120 92 2900 050/03 RMK AO2 SLP254 T10331044 TSNO
94299KAAT AAT20161201090011912/01/16 09:00:31  5-MIN KAAT 011700Z AUTO 07003KT 10SM OVC012 M03/M04 A3021 4120 92 2900 050/03 RMK AO2 T10331044 TSNO
94299KAAT AAT20161201090511912/01/16 09:05:31  5-MIN KAAT 011705Z AUTO 00000KT 10SM OVC012 M03/M04 A3021 4120 92 2900 000/00 RMK AO2 T10331044 TSNO
94299KAAT AAT20161201091011912/01/16 09:10:31  5-MIN KAAT 011710Z AUTO 00000KT 10SM OVC012 M03/M04 A3021 4120 92 2900 000/00 RMK AO2 T10331044 TSNO
94299KAAT AAT20161201091511912/01/16 09:15:31  5-MIN KAAT 011715Z AUTO 00000KT 10SM OVC012 M03/M04 A3021 4120 92 2900 000/00 RMK AO2 T10331044 TSNO
94299KAAT AAT20161201092011912/01/16 09:20:31  5-MIN KAAT 011720Z AUTO 00000KT 10SM OVC012 M03/M04 A3021 4120 92 3000 000/00 RMK AO2 T10281039 TSNO
94299KAAT AAT20161201092511912/01/16 09:25:31  5-MIN KAAT 011725Z AUTO 00000KT 10SM OVC012 M03/M04 A3021 4120 92 3000 000/00 RMK AO2 T10281039 TSNO
94299KAAT AAT20161201093011912/01/16 09:30:31  5-MIN KAAT 011730Z AUTO 00000KT 10SM OVC011 M03/M04 A3021 4120 92 3000 000/00 RMK AO2 T10281039 TSNO
94299KAAT AAT20161201093511912/01/16 09:35:31  5-MIN KAAT 011735Z AUTO 00000KT 10SM OVC011 M02/M04 A3021 4120 88 3100 000/00 RMK AO2 T10221039 TSNO
94299KAAT AAT20161201094011912/01/16 09:40:31  5-MIN KAAT 011740Z AUTO 00000KT 10SM OVC011 M02/M04 A3021 4120 88 3100 000/00 RMK AO2 T10221039 TSNO
94299KAAT AAT20161201094511912/01/16 09:45:31  5-MIN KAAT 011745Z AUTO 00000KT 10SM OVC011 M02/M04 A3021 4110 88 3100 000/00 RMK AO2 T10221039 TSNO
94299KAAT AAT20161201095014412/01/16 09:50:31  5-MIN KAAT 011750Z AUTO 00000KT 10SM OVC011 M02/M04 A3021 4110 88 3100 000/00 RMK AO2 SLP256 T10221039 11022 21039 53011 TSNO
94299KAAT AAT20161201095514412/01/16 09:55:31  5-MIN KAAT 011755Z AUTO 29003KT 10SM OVC011 M02/M04 A3021 4110 88 3100 280/03 RMK AO2 SLP256 T10221039 11022 21039 53006 TSNO
94299KAAT AAT20161201100011912/01/16 10:00:31  5-MIN KAAT 011800Z AUTO 00000KT 10SM OVC011 M02/M04 A3022 4110 88 3000 000/00 RMK AO2 T10221039 TSNO
94299KAAT AAT20161201100511912/01/16 10:05:31  5-MIN KAAT 011805Z AUTO 32003KT 10SM OVC011 M02/M04 A3022 4110 88 3000 300/03 RMK AO2 T10221039 TSNO
94299KAAT AAT20161201101011912/01/16 10:10:31  5-MIN KAAT 011810Z AUTO 00000KT 10SM OVC011 M02/M04 A3022 4110 88 3000 000/00 RMK AO2 T10221039 TSNO
94299KAAT AAT20161201101511912/01/16 10:15:31  5-MIN KAAT 011815Z AUTO 00000KT 10SM OVC011 M02/M04 A3022 4110 85 3000 000/00 RMK AO2 T10221044 TSNO
94299KAAT AAT20161201102011912/01/16 10:20:31  5-MIN KAAT 011820Z AUTO 00000KT 10SM OVC011 M02/M04 A3021 4110 85 3000 000/00 RMK AO2 T10221044 TSNO
94299KAAT AAT20161201102511912/01/16 10:25:31  5-MIN KAAT 011825Z AUTO 00000KT 10SM OVC011 M02/M04 A3022 4110 85 3000 000/00 RMK AO2 T10221044 TSNO
94299KAAT AAT20161201103011912/01/16 10:30:31  5-MIN KAAT 011830Z AUTO 00000KT 10SM OVC011 M02/M04 A3021 4110 85 3100 000/00 RMK AO2 T10171039 TSNO
94299KAAT AAT20161201103511912/01/16 10:35:31  5-MIN KAAT 011835Z AUTO 00000KT 10SM OVC011 M02/M04 A3021 4110 85 3100 000/00 RMK AO2 T10171039 TSNO
94299KAAT AAT20161201104011912/01/16 10:40:31  5-MIN KAAT 011840Z AUTO 00000KT 10SM OVC011 M02/M04 A3021 4110 88 3100 000/00 RMK AO2 T10221039 TSNO
94299KAAT AAT20161201104511912/01/16 10:45:31  5-MIN KAAT 011845Z AUTO 06003KT 10SM OVC011 M02/M04 A3021 4110 85 3100 050/03 RMK AO2 T10171039 TSNO
94299KAAT AAT20161201105012612/01/16 10:50:31  5-MIN KAAT 011850Z AUTO 10003KT 10SM OVC011 M02/M04 A3021 4120 85 3100 080/03 RMK AO2 SLP256 T10171039 TSNO
94299KAAT AAT20161201105512612/01/16 10:55:31  5-MIN KAAT 011855Z AUTO 08004KT 10SM OVC011 M02/M04 A3021 4120 88 3100 070/04 RMK AO2 SLP257 T10221039 TSNO
94299KAAT AAT20161201110011912/01/16 11:00:31  5-MIN KAAT 011900Z AUTO 07006KT 10SM OVC011 M02/M04 A3020 4120 85 3100 060/06 RMK AO2 T10221044 TSNO
94299KAAT AAT20161201110511912/01/16 11:05:31  5-MIN KAAT 011905Z AUTO 09006KT 10SM OVC011 M02/M04 A3020 4120 85 3100 070/06 RMK AO2 T10221044 TSNO
94299KAAT AAT20161201111011912/01/16 11:10:31  5-MIN KAAT 011910Z AUTO 08006KT 10SM OVC011 M02/M04 A3020 4120 85 3100 070/06 RMK AO2 T10221044 TSNO
94299KAAT AAT20161201111511912/01/16 11:15:31  5-MIN KAAT 011915Z AUTO 08005KT 10SM OVC011 M02/M04 A3020 4120 85 3100 070/05 RMK AO2 T10221044 TSNO
94299KAAT AAT20161201112011912/01/16 11:20:31  5-MIN KAAT 011920Z AUTO 08005KT 10SM OVC011 M02/M04 A3020 4120 85 3100 070/05 RMK AO2 T10221044 TSNO
94299KAAT AAT20161201112511912/01/16 11:25:31  5-MIN KAAT 011925Z AUTO 07004KT 10SM OVC011 M02/M04 A3020 4120 88 3100 060/04 RMK AO2 T10221039 TSNO
94299KAAT AAT20161201113011912/01/16 11:30:31  5-MIN KAAT 011930Z AUTO 07004KT 10SM OVC011 M02/M04 A3020 4120 85 3100 050/04 RMK AO2 T10171039 TSNO
94299KAAT AAT20161201113511912/01/16 11:35:31  5-MIN KAAT 011935Z AUTO 08005KT 10SM OVC011 M02/M04 A3021 4120 85 3100 060/05 RMK AO2 T10171039 TSNO
94299KAAT AAT20161201114011912/01/16 11:40:31  5-MIN KAAT 011940Z AUTO VRB04KT 10SM OVC011 M02/M04 A3020 4120 88 3100 VRB/04 RMK AO2 T10221039 TSNO
94299KAAT AAT20161201114511912/01/16 11:45:31  5-MIN KAAT 011945Z AUTO 02005KT 10SM OVC010 M02/M04 A3020 4120 85 3100 360/05 RMK AO2 T10171039 TSNO
94299KAAT AAT20161201115012612/01/16 11:50:31  5-MIN KAAT 011950Z AUTO 01004KT 10SM OVC010 M02/M04 A3021 4120 81 3100 360/04 RMK AO2 SLP256 T10171044 TSNO
94299KAAT AAT20161201115512612/01/16 11:55:31  5-MIN KAAT 011955Z AUTO 04005KT 10SM OVC010 M02/M04 A3020 4120 85 3100 020/05 RMK AO2 SLP256 T10171039 TSNO
94299KAAT AAT20161201120011912/01/16 12:00:31  5-MIN KAAT 012000Z AUTO 05005KT 10SM OVC010 M02/M04 A3020 4120 85 3100 030/05 RMK AO2 T10171039 TSNO
94299KAAT AAT20161201120511912/01/16 12:05:31  5-MIN KAAT 012005Z AUTO 02005KT 10SM OVC010 M02/M04 A3020 4120 81 3100 360/05 RMK AO2 T10171044 TSNO
94299KAAT AAT20161201121011912/01/16 12:10:31  5-MIN KAAT 012010Z AUTO 02004KT 10SM OVC010 M02/M04 A3020 4120 85 3100 360/04 RMK AO2 T10171039 TSNO
94299KAAT AAT20161201121511912/01/16 12:15:31  5-MIN KAAT 012015Z AUTO 04003KT 10SM OVC011 M02/M04 A3020 4120 85 3100 030/03 RMK AO2 T10171039 TSNO
94299KAAT AAT20161201122011912/01/16 12:20:31  5-MIN KAAT 012020Z AUTO 02004KT 10SM OVC011 M02/M04 A3020 4120 81 3100 360/04 RMK AO2 T10171044 TSNO
94299KAAT AAT20161201122511912/01/16 12:25:31  5-MIN KAAT 012025Z AUTO 36003KT 10SM OVC011 M01/M04 A3020 4120 81 3200 350/03 RMK AO2 T10111039 TSNO
94299KAAT AAT20161201123011912/01/16 12:30:31  5-MIN KAAT 012030Z AUTO 04004KT 10SM OVC011 M02/M04 A3020 4130 81 3100 020/04 RMK AO2 T10171044 TSNO
94299KAAT AAT20161201123511912/01/16 12:35:31  5-MIN KAAT 012035Z AUTO 04003KT 10SM OVC011 M02/M04 A3020 4120 81 3100 030/03 RMK AO2 T10171044 TSNO
94299KAAT AAT20161201124011912/01/16 12:40:31  5-MIN KAAT 012040Z AUTO 03003KT 10SM OVC012 M01/M04 A3020 4120 78 3200 020/03 RMK AO2 T10111044 TSNO
94299KAAT AAT20161201124511912/01/16 12:45:31  5-MIN KAAT 012045Z AUTO 00000KT 10SM OVC012 M01/M04 A3020 4130 81 3200 000/00 RMK AO2 T10111039 TSNO
94299KAAT AAT20161201125013212/01/16 12:50:31  5-MIN KAAT 012050Z AUTO 00000KT 10SM OVC012 M01/M04 A3019 4130 78 3200 000/00 RMK AO2 SLP252 T10111044 53006 TSNO
94299KAAT AAT20161201125513212/01/16 12:55:31  5-MIN KAAT 012055Z AUTO 00000KT 10SM OVC012 M02/M04 A3019 4130 81 3100 000/00 RMK AO2 SLP256 T10171044 56005 TSNO
94299KAAT AAT20161201130011912/01/16 13:00:31  5-MIN KAAT 012100Z AUTO 00000KT 10SM BKN012 M02/M04 A3019 4130 81 3100 000/00 RMK AO2 T10171044 TSNO
94299KAAT AAT20161201130511912/01/16 13:05:31  5-MIN KAAT 012105Z AUTO 00000KT 10SM BKN012 M01/M04 A3018 4140 81 3200 000/00 RMK AO2 T10111039 TSNO
94299KAAT AAT20161201131011912/01/16 13:10:31  5-MIN KAAT 012110Z AUTO 13005KT 10SM SCT012 M01/M04 A3019 4140 78 3300 120/05 RMK AO2 T10061039 TSNO
94299KAAT AAT20161201131511912/01/16 13:15:31  5-MIN KAAT 012115Z AUTO 13003KT 10SM SCT012 M01/M04 A3019 4140 81 3200 110/03 RMK AO2 T10111039 TSNO
94299KAAT AAT20161201132011912/01/16 13:20:31  5-MIN KAAT 012120Z AUTO VRB03KT 10SM FEW012 M01/M04 A3019 4140 78 3300 VRB/03 RMK AO2 T10061039 TSNO
94299KAAT AAT20161201132511612/01/16 13:25:31  5-MIN KAAT 012125Z AUTO VRB04KT 10SM CLR M01/M04 A3019 4140 78 3300 VRB/04 RMK AO2 T10061039 TSNO
94299KAAT AAT20161201133011612/01/16 13:30:31  5-MIN KAAT 012130Z AUTO 14004KT 10SM CLR M01/M04 A3018 4140 78 3300 130/04 RMK AO2 T10061039 TSNO
94299KAAT AAT20161201133511612/01/16 13:35:31  5-MIN KAAT 012135Z AUTO 14004KT 10SM CLR M01/M03 A3018 4140 81 3300 120/04 RMK AO2 T10061033 TSNO
94299KAAT AAT20161201134011912/01/16 13:40:31  5-MIN KAAT 012140Z AUTO 14003KT 10SM FEW015 M01/M03 A3018 4140 81 3300 130/03 RMK AO2 T10061033 TSNO
94299KAAT AAT20161201134511612/01/16 13:45:31  5-MIN KAAT 012145Z AUTO 16004KT 10SM CLR M01/M04 A3018 4140 78 3300 140/04 RMK AO2 T10061039 TSNO
94299KAAT AAT20161201135012312/01/16 13:50:31  5-MIN KAAT 012150Z AUTO 00000KT 10SM CLR M01/M04 A3018 4140 78 3300 000/00 RMK AO2 SLP247 T10061039 TSNO
94299KAAT AAT20161201135512212/01/16 13:55:31  5-MIN KAAT 012155Z AUTO 00000KT 10SM CLR 00/M04 A3018 4140 75 3400 000/00 RMK AO2 SLP247 T00001039 TSNO
94299KAAT AAT20161201140011612/01/16 14:00:31  5-MIN KAAT 012200Z AUTO 00000KT 10SM CLR M01/M03 A3018 4140 81 3300 000/00 RMK AO2 T10061033 TSNO
94299KAAT AAT20161201140511512/01/16 14:05:31  5-MIN KAAT 012205Z AUTO 13004KT 10SM CLR 00/M04 A3018 4140 75 3400 120/04 RMK AO2 T00001039 TSNO
94299KAAT AAT20161201141011512/01/16 14:10:31  5-MIN KAAT 012210Z AUTO 00000KT 10SM CLR 00/M04 A3018 4140 75 3400 000/00 RMK AO2 T00001039 TSNO
94299KAAT AAT20161201141511512/01/16 14:15:31  5-MIN KAAT 012215Z AUTO 00000KT 10SM CLR 00/M03 A3018 4140 78 3400 000/00 RMK AO2 T00001033 TSNO
94299KAAT AAT20161201142011512/01/16 14:20:31  5-MIN KAAT 012220Z AUTO 00000KT 10SM CLR 01/M03 A3019 4140 75 3400 000/00 RMK AO2 T00061033 TSNO
94299KAAT AAT20161201142511512/01/16 14:25:31  5-MIN KAAT 012225Z AUTO 00000KT 10SM CLR 01/M04 A3019 4140 72 3400 000/00 RMK AO2 T00061039 TSNO
94299KAAT AAT20161201143011512/01/16 14:30:31  5-MIN KAAT 012230Z AUTO 00000KT 10SM CLR 01/M04 A3019 4130 72 3400 000/00 RMK AO2 T00061039 TSNO
94299KAAT AAT20161201143511512/01/16 14:35:31  5-MIN KAAT 012235Z AUTO 00000KT 10SM CLR 01/M03 A3019 4130 75 3400 000/00 RMK AO2 T00061033 TSNO
94299KAAT AAT20161201144011512/01/16 14:40:31  5-MIN KAAT 012240Z AUTO 00000KT 10SM CLR 01/M04 A3019 4130 72 3400 000/00 RMK AO2 T00061039 TSNO
94299KAAT AAT20161201144511512/01/16 14:45:31  5-MIN KAAT 012245Z AUTO VRB03KT 10SM CLR 01/M04 A3019 4130 72 3400 VRB/03 RMK AO2 T00061039 TSNO
94299KAAT AAT20161201145012212/01/16 14:50:31  5-MIN KAAT 012250Z AUTO 17003KT 10SM CLR 01/M04 A3020 4130 72 3400 160/03 RMK AO2 SLP248 T00061039 TSNO
94299KAAT AAT20161201145512212/01/16 14:55:31  5-MIN KAAT 012255Z AUTO 18003KT 10SM CLR 01/M03 A3020 4130 72 3500 160/03 RMK AO2 SLP247 T00111033 TSNO
94299KAAT AAT20161201150011512/01/16 15:00:31  5-MIN KAAT 012300Z AUTO 00000KT 10SM CLR 01/M04 A3020 4130 69 3500 000/00 RMK AO2 T00111039 TSNO
94299KAAT AAT20161201150511512/01/16 15:05:31  5-MIN KAAT 012305Z AUTO 00000KT 10SM CLR 01/M04 A3020 4130 66 3500 000/00 RMK AO2 T00111044 TSNO
94299KAAT AAT20161201151011512/01/16 15:10:31  5-MIN KAAT 012310Z AUTO 09003KT 10SM CLR 02/M04 A3020 4120 64 3500 070/03 RMK AO2 T00171044 TSNO
94299KAAT AAT20161201151511512/01/16 15:15:31  5-MIN KAAT 012315Z AUTO 03004KT 10SM CLR 02/M04 A3020 4130 61 3600 010/04 RMK AO2 T00221044 TSNO
94299KAAT AAT20161201152011512/01/16 15:20:31  5-MIN KAAT 012320Z AUTO 00000KT 10SM CLR 02/M05 A3020 4130 61 3500 000/00 RMK AO2 T00171050 TSNO
94299KAAT AAT20161201152511512/01/16 15:25:31  5-MIN KAAT 012325Z AUTO 14005KT 10SM CLR 01/M04 A3020 4130 69 3500 120/05 RMK AO2 T00111039 TSNO
94299KAAT AAT20161201153011512/01/16 15:30:31  5-MIN KAAT 012330Z AUTO 00000KT 10SM CLR 01/M04 A3020 4130 69 3500 000/00 RMK AO2 T00111039 TSNO
94299KAAT AAT20161201153511512/01/16 15:35:31  5-MIN KAAT 012335Z AUTO VRB03KT 10SM CLR 01/M04 A3020 4130 69 3500 VRB/03 RMK AO2 T00111039 TSNO
94299KAAT AAT20161201154011512/01/16 15:40:31  5-MIN KAAT 012340Z AUTO 13004KT 10SM CLR 01/M04 A3020 4130 69 3500 110/04 RMK AO2 T00111039 TSNO
94299KAAT AAT20161201154511512/01/16 15:45:31  5-MIN KAAT 012345Z AUTO 13003KT 10SM CLR 01/M04 A3020 4130 69 3400 110/03 RMK AO2 T00061044 TSNO
94299KAAT AAT20161201155014012/01/16 15:50:31  5-MIN KAAT 012350Z AUTO 14003KT 10SM CLR 01/M04 A3020 4130 66 3500 120/03 RMK AO2 SLP247 T00111044 10022 21022 56005 TSNO
94299KAAT AAT20161201155514012/01/16 15:55:31  5-MIN KAAT 012355Z AUTO 14005KT 10SM CLR 01/M04 A3020 4130 72 3400 120/05 RMK AO2 SLP248 T00061039 10022 21022 53000 TSNO
94299KAAT AAT20161201160011512/01/16 16:00:31  5-MIN KAAT 020000Z AUTO 14005KT 10SM CLR 01/M04 A3020 4130 72 3400 130/05 RMK AO2 T00061039 TSNO
94299KAAT AAT20161201160511512/01/16 16:05:31  5-MIN KAAT 020005Z AUTO 14004KT 10SM CLR 00/M04 A3019 4130 75 3300 120/04 RMK AO2 T00001039 TSNO
94299KAAT AAT20161201161011512/01/16 16:10:31  5-MIN KAAT 020010Z AUTO 14004KT 10SM CLR 00/M04 A3019 4130 75 3300 120/04 RMK AO2 T00001039 TSNO
94299KAAT AAT20161201161511512/01/16 16:15:31  5-MIN KAAT 020015Z AUTO 13005KT 10SM CLR 00/M04 A3019 4130 75 3300 120/05 RMK AO2 T00001039 TSNO
94299KAAT AAT20161201162011612/01/16 16:20:31  5-MIN KAAT 020020Z AUTO 10005KT 10SM CLR M01/M04 A3019 4130 75 3300 090/05 RMK AO2 T10061044 TSNO
94299KAAT AAT20161201162511612/01/16 16:25:31  5-MIN KAAT 020025Z AUTO 10004KT 10SM CLR M01/M06 A3020 4130 72 3200 090/04 RMK AO2 T10111056 TSNO
94299KAAT AAT20161201163011612/01/16 16:30:31  5-MIN KAAT 020030Z AUTO 10005KT 10SM CLR M01/M06 A3020 4120 72 3200 090/05 RMK AO2 T10111056 TSNO
94299KAAT AAT20161201163511612/01/16 16:35:31  5-MIN KAAT 020035Z AUTO 10004KT 10SM CLR M02/M06 A3020 4120 75 3100 090/04 RMK AO2 T10171056 TSNO
94299KAAT AAT20161201164011612/01/16 16:40:31  5-MIN KAAT 020040Z AUTO 10003KT 10SM CLR M02/M06 A3020 4120 75 3100 090/03 RMK AO2 T10171056 TSNO
94299KAAT AAT20161201164511612/01/16 16:45:31  5-MIN KAAT 020045Z AUTO 00000KT 10SM CLR M02/M06 A3021 4120 72 3100 000/00 RMK AO2 T10171061 TSNO
94299KAAT AAT20161201165012212/01/16 16:50:31  5-MIN KAAT 020050Z AUTO 10003KT 9SM CLR M02/M06 A3021 4110 75 3100 090/03 RMK AO2 SLP256 T10221061 TSNO
94299KAAT AAT20161201165512212/01/16 16:55:31  5-MIN KAAT 020055Z AUTO 00000KT 9SM CLR M02/M06 A3021 4110 75 3100 000/00 RMK AO2 SLP257 T10221061 TSNO
94299KAAT AAT20161201170011612/01/16 17:00:31  5-MIN KAAT 020100Z AUTO 00000KT 10SM CLR M02/M06 A3021 4110 78 3000 000/00 RMK AO2 T10221056 TSNO
94299KAAT AAT20161201170511912/01/16 17:05:31  5-MIN KAAT 020105Z AUTO 33003KT 10SM FEW060 M02/M06 A3022 4110 75 3000 310/03 RMK AO2 T10221061 TSNO
94299KAAT AAT20161201171011912/01/16 17:10:31  5-MIN KAAT 020110Z AUTO 32003KT 10SM SCT060 M02/M06 A3022 4110 75 3000 310/03 RMK AO2 T10221061 TSNO
94299KAAT AAT20161201171511912/01/16 17:15:31  5-MIN KAAT 020115Z AUTO 32004KT 10SM BKN060 M02/M06 A3022 4110 75 3000 300/04 RMK AO2 T10221061 TSNO
94299KAAT AAT20161201172011912/01/16 17:20:31  5-MIN KAAT 020120Z AUTO 33004KT 10SM BKN060 M02/M06 A3022 4110 78 3000 310/04 RMK AO2 T10221056 TSNO
94299KAAT AAT20161201172511912/01/16 17:25:31  5-MIN KAAT 020125Z AUTO 33004KT 10SM BKN055 M02/M06 A3022 4110 78 3000 310/04 RMK AO2 T10221056 TSNO
94299KAAT AAT20161201173011912/01/16 17:30:31  5-MIN KAAT 020130Z AUTO VRB03KT 10SM OVC055 M02/M06 A3022 4100 75 3000 VRB/03 RMK AO2 T10221061 TSNO
94299KAAT AAT20161201173511912/01/16 17:35:31  5-MIN KAAT 020135Z AUTO VRB03KT 10SM OVC055 M02/M06 A3023 4100 75 3000 VRB/03 RMK AO2 T10221061 TSNO
94299KAAT AAT20161201174011912/01/16 17:40:31  5-MIN KAAT 020140Z AUTO 00000KT 10SM OVC055 M02/M07 A3023 4100 69 3100 000/00 RMK AO2 T10171067 TSNO
94299KAAT AAT20161201174511912/01/16 17:45:31  5-MIN KAAT 020145Z AUTO 01003KT 10SM BKN055 M02/M07 A3023 4100 69 3100 360/03 RMK AO2 T10171067 TSNO
94299KAAT AAT20161201175012612/01/16 17:50:31  5-MIN KAAT 020150Z AUTO 01004KT 10SM BKN055 M02/M07 A3023 4090 69 3100 350/04 RMK AO2 SLP263 T10171067 TSNO
94299KAAT AAT20161201175513312/01/16 17:55:31  5-MIN KAAT 020155Z AUTO 36004KT 10SM BKN055 BKN095 M02/M07 A3024 4090 69 3100 350/04 RMK AO2 SLP264 T10171067 TSNO
94299KAAT AAT20161201180011912/01/16 18:00:31  5-MIN KAAT 020200Z AUTO 00000KT 10SM BKN055 M02/M07 A3024 4090 69 3100 000/00 RMK AO2 T10171067 TSNO
94299KAAT AAT20161201180512612/01/16 18:05:31  5-MIN KAAT 020205Z AUTO 00000KT 10SM SCT055 SCT095 M02/M07 A3024 4090 69 3100 000/00 RMK AO2 T10171067 TSNO
94299KAAT AAT20161201181012612/01/16 18:10:31  5-MIN KAAT 020210Z AUTO 05003KT 10SM FEW055 SCT095 M02/M07 A3023 4090 72 3000 030/03 RMK AO2 T10221067 TSNO
94299KAAT AAT20161201181512612/01/16 18:15:31  5-MIN KAAT 020215Z AUTO 00000KT 10SM FEW055 FEW095 M03/M07 A3023 4090 75 3000 000/00 RMK AO2 T10281067 TSNO
94299KAAT AAT20161201182011812/01/16 18:20:31  5-MIN KAAT 020220Z AUTO 00000KT 9SM FEW060 M03/M07 A3023 4100 75 3000 000/00 RMK AO2 T10281067 TSNO
94299KAAT AAT20161201182511512/01/16 18:25:31  5-MIN KAAT 020225Z AUTO 08003KT 9SM CLR M03/M07 A3023 4100 75 3000 060/03 RMK AO2 T10281067 TSNO
94299KAAT AAT20161201183011612/01/16 18:30:31  5-MIN KAAT 020230Z AUTO 00000KT 10SM CLR M03/M07 A3023 4100 75 3000 000/00 RMK AO2 T10281067 TSNO
94299KAAT AAT20161201183511612/01/16 18:35:31  5-MIN KAAT 020235Z AUTO 04003KT 10SM CLR M03/M07 A3023 4090 75 3000 030/03 RMK AO2 T10281067 TSNO
94299KAAT AAT20161201184011612/01/16 18:40:31  5-MIN KAAT 020240Z AUTO 02004KT 10SM CLR M03/M07 A3024 4090 75 3000 360/04 RMK AO2 T10281067 TSNO
94299KAAT AAT20161201184511612/01/16 18:45:31  5-MIN KAAT 020245Z AUTO 01003KT 10SM CLR M03/M07 A3024 4090 75 3000 360/03 RMK AO2 T10281067 TSNO
94299KAAT AAT20161201185012912/01/16 18:50:31  5-MIN KAAT 020250Z AUTO 00000KT 10SM CLR M03/M07 A3024 4090 78 2900 000/00 RMK AO2 SLP269 T10331067 53000 TSNO
94299KAAT AAT20161201185512912/01/16 18:55:31  5-MIN KAAT 020255Z AUTO 04003KT 10SM CLR M03/M07 A3024 4090 78 2900 020/03 RMK AO2 SLP269 T10331067 51014 TSNO
94299KAAT AAT20161201190011612/01/16 19:00:31  5-MIN KAAT 020300Z AUTO 04004KT 10SM CLR M03/M07 A3024 4080 74 2900 030/04 RMK AO2 T10331072 TSNO
94299KAAT AAT20161201190511612/01/16 19:05:31  5-MIN KAAT 020305Z AUTO VRB03KT 10SM CLR M03/M07 A3024 4090 78 2900 VRB/03 RMK AO2 T10331067 TSNO
94299KAAT AAT20161201191011512/01/16 19:10:31  5-MIN KAAT 020310Z AUTO 12003KT 9SM CLR M03/M07 A3024 4090 78 2900 100/03 RMK AO2 T10331067 TSNO
94299KAAT AAT20161201191511512/01/16 19:15:31  5-MIN KAAT 020315Z AUTO 09004KT 7SM CLR M04/M07 A3024 4090 81 2700 080/04 RMK AO2 T10441072 TSNO
94299KAAT AAT20161201192011512/01/16 19:20:31  5-MIN KAAT 020320Z AUTO 10006KT 7SM CLR M04/M07 A3024 4090 81 2700 080/06 RMK AO2 T10441072 TSNO
94299KAAT AAT20161201192511512/01/16 19:25:31  5-MIN KAAT 020325Z AUTO 08005KT 8SM CLR M05/M07 A3024 4090 88 2700 060/05 RMK AO2 T10501067 TSNO
94299KAAT AAT20161201193011612/01/16 19:30:31  5-MIN KAAT 020330Z AUTO 08005KT 10SM CLR M04/M07 A3024 4080 84 2700 070/05 RMK AO2 T10441067 TSNO
94299KAAT AAT20161201193511612/01/16 19:35:31  5-MIN KAAT 020335Z AUTO 08004KT 10SM CLR M04/M07 A3024 4080 84 2700 070/04 RMK AO2 T10441067 TSNO
94299KAAT AAT20161201194011612/01/16 19:40:31  5-MIN KAAT 020340Z AUTO 09003KT 10SM CLR M04/M07 A3025 4080 84 2700 070/03 RMK AO2 T10441067 TSNO
94299KAAT AAT20161201194511612/01/16 19:45:31  5-MIN KAAT 020345Z AUTO 00000KT 10SM CLR M05/M07 A3025 4080 88 2700 000/00 RMK AO2 T10501067 TSNO
94299KAAT AAT20161201195012312/01/16 19:50:31  5-MIN KAAT 020350Z AUTO 22003KT 10SM CLR M07/M08 A3025 4080 92 2500 210/03 RMK AO2 SLP279 T10671078 TSNO
94299KAAT AAT20161201195512312/01/16 19:55:31  5-MIN KAAT 020355Z AUTO 00000KT 10SM CLR M07/M08 A3025 4080 92 2500 000/00 RMK AO2 SLP279 T10671078 TSNO
94299KAAT AAT20161201200011612/01/16 20:00:31  5-MIN KAAT 020400Z AUTO 00000KT 10SM CLR M07/M08 A3025 4070 92 2500 000/00 RMK AO2 T10671078 TSNO
94299KAAT AAT20161201200511612/01/16 20:05:31  5-MIN KAAT 020405Z AUTO 04003KT 10SM CLR M06/M08 A3025 4080 88 2500 030/03 RMK AO2 T10611078 TSNO
94299KAAT AAT20161201201011612/01/16 20:10:31  5-MIN KAAT 020410Z AUTO 04003KT 10SM CLR M06/M07 A3025 4080 88 2600 030/03 RMK AO2 T10561072 TSNO
94299KAAT AAT20161201201511612/01/16 20:15:31  5-MIN KAAT 020415Z AUTO 05004KT 10SM CLR M06/M07 A3025 4080 88 2600 030/04 RMK AO2 T10561072 TSNO
94299KAAT AAT20161201202011612/01/16 20:20:31  5-MIN KAAT 020420Z AUTO 07005KT 10SM CLR M06/M07 A3026 4070 88 2600 050/05 RMK AO2 T10561072 TSNO
94299KAAT AAT20161201202511612/01/16 20:25:31  5-MIN KAAT 020425Z AUTO 07005KT 10SM CLR M06/M07 A3026 4070 88 2600 050/05 RMK AO2 T10561072 TSNO
94299KAAT AAT20161201203011612/01/16 20:30:31  5-MIN KAAT 020430Z AUTO 06006KT 10SM CLR M06/M08 A3026 4060 88 2500 050/06 RMK AO2 T10611078 TSNO
94299KAAT AAT20161201203511612/01/16 20:35:31  5-MIN KAAT 020435Z AUTO 06006KT 10SM CLR M06/M08 A3027 4060 88 2500 050/06 RMK AO2 T10611078 TSNO
94299KAAT AAT20161201204011612/01/16 20:40:31  5-MIN KAAT 020440Z AUTO 06005KT 10SM CLR M06/M08 A3027 4060 88 2500 050/05 RMK AO2 T10611078 TSNO
94299KAAT AAT20161201204511612/01/16 20:45:31  5-MIN KAAT 020445Z AUTO 07006KT 10SM CLR M06/M08 A3027 4060 84 2600 060/06 RMK AO2 T10561078 TSNO
94299KAAT AAT20161201205012312/01/16 20:50:31  5-MIN KAAT 020450Z AUTO 07007KT 10SM CLR M06/M07 A3027 4060 88 2600 060/07 RMK AO2 SLP283 T10561072 TSNO
94299KAAT AAT20161201205512312/01/16 20:55:31  5-MIN KAAT 020455Z AUTO 07007KT 10SM CLR M05/M07 A3027 4060 84 2600 060/07 RMK AO2 SLP281 T10501072 TSNO
94299KAAT AAT20161201210011612/01/16 21:00:31  5-MIN KAAT 020500Z AUTO 07006KT 10SM CLR M05/M07 A3027 4060 84 2600 060/06 RMK AO2 T10501072 TSNO
94299KAAT AAT20161201210511612/01/16 21:05:31  5-MIN KAAT 020505Z AUTO 07007KT 10SM CLR M06/M07 A3027 4060 88 2600 060/07 RMK AO2 T10561072 TSNO
94299KAAT AAT20161201211011612/01/16 21:10:31  5-MIN KAAT 020510Z AUTO 07005KT 10SM CLR M06/M07 A3026 4060 88 2600 060/05 RMK AO2 T10561072 TSNO
94299KAAT AAT20161201211511612/01/16 21:15:31  5-MIN KAAT 020515Z AUTO 04004KT 10SM CLR M06/M08 A3027 4060 88 2500 020/04 RMK AO2 T10611078 TSNO
94299KAAT AAT20161201212011512/01/16 21:20:31  5-MIN KAAT 020520Z AUTO 04005KT 8SM CLR M06/M08 A3027 4060 88 2500 020/05 RMK AO2 T10611078 TSNO
94299KAAT AAT20161201212511512/01/16 21:25:31  5-MIN KAAT 020525Z AUTO 07006KT 8SM CLR M06/M08 A3027 4060 88 2500 050/06 RMK AO2 T10611078 TSNO
94299KAAT AAT20161201213011512/01/16 21:30:31  5-MIN KAAT 020530Z AUTO 08005KT 9SM CLR M06/M08 A3028 4050 84 2600 060/05 RMK AO2 T10561078 TSNO
94299KAAT AAT20161201213511612/01/16 21:35:31  5-MIN KAAT 020535Z AUTO 10005KT 10SM CLR M06/M08 A3028 4050 84 2600 090/05 RMK AO2 T10561078 TSNO
94299KAAT AAT20161201214011612/01/16 21:40:31  5-MIN KAAT 020540Z AUTO 09006KT 10SM CLR M06/M08 A3028 4050 88 2500 070/06 RMK AO2 T10611078 TSNO
94299KAAT AAT20161201214511612/01/16 21:45:31  5-MIN KAAT 020545Z AUTO 00000KT 10SM CLR M06/M08 A3028 4050 88 2500 000/00 RMK AO2 T10611078 TSNO
94299KAAT AAT20161201215014112/01/16 21:50:31  5-MIN KAAT 020550Z AUTO 00000KT 10SM CLR M07/M08 A3028 4050 88 2400 000/00 RMK AO2 SLP288 T10671083 10006 21067 51014 TSNO
94299KAAT AAT20161201215514112/01/16 21:55:31  5-MIN KAAT 020555Z AUTO 00000KT 10SM CLR M07/M08 A3028 4050 92 2300 000/00 RMK AO2 SLP288 T10721083 10006 21072 53013 TSNO
94299KAAT AAT20161201220011612/01/16 22:00:31  5-MIN KAAT 020600Z AUTO 00000KT 10SM CLR M07/M08 A3028 4050 92 2300 000/00 RMK AO2 T10721083 TSNO
94299KAAT AAT20161201220511612/01/16 22:05:31  5-MIN KAAT 020605Z AUTO 06003KT 10SM CLR M07/M08 A3028 4050 88 2400 050/03 RMK AO2 T10671083 TSNO
94299KAAT AAT20161201221011612/01/16 22:10:31  5-MIN KAAT 020610Z AUTO 07005KT 10SM CLR M07/M08 A3028 4050 92 2300 050/05 RMK AO2 T10721083 TSNO
94299KAAT AAT20161201221511612/01/16 22:15:31  5-MIN KAAT 020615Z AUTO 06005KT 10SM CLR M07/M08 A3028 4050 88 2400 050/05 RMK AO2 T10671083 TSNO
94299KAAT AAT20161201222011612/01/16 22:20:31  5-MIN KAAT 020620Z AUTO 06005KT 10SM CLR M07/M08 A3028 4050 88 2400 040/05 RMK AO2 T10671083 TSNO
94299KAAT AAT20161201222511612/01/16 22:25:31  5-MIN KAAT 020625Z AUTO 06005KT 10SM CLR M07/M08 A3029 4040 88 2400 040/05 RMK AO2 T10671083 TSNO
94299KAAT AAT20161201223011612/01/16 22:30:31  5-MIN KAAT 020630Z AUTO 07006KT 10SM CLR M07/M08 A3029 4040 88 2400 060/06 RMK AO2 T10671083 TSNO
94299KAAT AAT20161201223511512/01/16 22:35:31  5-MIN KAAT 020635Z AUTO 10004KT 9SM CLR M06/M08 A3029 4040 88 2500 090/04 RMK AO2 T10611078 TSNO
94299KAAT AAT20161201224011512/01/16 22:40:31  5-MIN KAAT 020640Z AUTO 00000KT 9SM CLR M07/M08 A3029 4040 88 2400 000/00 RMK AO2 T10671083 TSNO
94299KAAT AAT20161201224511812/01/16 22:45:31  5-MIN KAAT 020645Z AUTO 08004KT 8SM FEW048 M07/M08 A3029 4040 88 2400 070/04 RMK AO2 T10671083 TSNO
94299KAAT AAT20161201225012512/01/16 22:50:31  5-MIN KAAT 020650Z AUTO 08005KT 9SM FEW048 M06/M08 A3029 4040 84 2500 060/05 RMK AO2 SLP291 T10611083 TSNO
94299KAAT AAT20161201225512512/01/16 22:55:31  5-MIN KAAT 020655Z AUTO 08006KT 9SM FEW048 M06/M08 A3029 4040 84 2500 060/06 RMK AO2 SLP291 T10611083 TSNO
94299KAAT AAT20161201230011912/01/16 23:00:31  5-MIN KAAT 020700Z AUTO 07006KT 10SM FEW048 M06/M08 A3029 4040 88 2500 060/06 RMK AO2 T10611078 TSNO
94299KAAT AAT20161201230511912/01/16 23:05:31  5-MIN KAAT 020705Z AUTO 08006KT 10SM FEW048 M06/M08 A3029 4040 88 2500 060/06 RMK AO2 T10611078 TSNO
94299KAAT AAT20161201231011912/01/16 23:10:31  5-MIN KAAT 020710Z AUTO 07006KT 10SM FEW048 M06/M08 A3029 4040 88 2500 050/06 RMK AO2 T10611078 TSNO
94299KAAT AAT20161201231511912/01/16 23:15:31  5-MIN KAAT 020715Z AUTO 09005KT 10SM FEW048 M06/M08 A3029 4040 88 2500 070/05 RMK AO2 T10611078 TSNO
94299KAAT AAT20161201232011912/01/16 23:20:31  5-MIN KAAT 020720Z AUTO 00000KT 10SM FEW047 M07/M08 A3029 4040 92 2400 000/00 RMK AO2 T10671078 TSNO
94299KAAT AAT20161201232511912/01/16 23:25:31  5-MIN KAAT 020725Z AUTO 00000KT 10SM FEW047 M07/M08 A3029 4040 92 2300 000/00 RMK AO2 T10721083 TSNO
94299KAAT AAT20161201233011912/01/16 23:30:31  5-MIN KAAT 020730Z AUTO 00000KT 10SM FEW047 M07/M08 A3029 4040 88 2400 000/00 RMK AO2 T10671083 TSNO
94299KAAT AAT20161201233511612/01/16 23:35:31  5-MIN KAAT 020735Z AUTO 07004KT 10SM CLR M07/M08 A3030 4040 88 2400 060/04 RMK AO2 T10671083 TSNO
94299KAAT AAT20161201234011612/01/16 23:40:31  5-MIN KAAT 020740Z AUTO 08004KT 10SM CLR M07/M08 A3029 4040 88 2400 060/04 RMK AO2 T10671083 TSNO
94299KAAT AAT20161201234511612/01/16 23:45:31  5-MIN KAAT 020745Z AUTO 08006KT 10SM CLR M07/M08 A3029 4040 88 2400 060/06 RMK AO2 T10671083 TSNO
94299KAAT AAT20161201235013312/01/16 23:50:31  5-MIN KAAT 020750Z AUTO 06004KT 10SM CLR M07/M08 A3029 4040 88 2400 040/04 RMK AO2 SLP290 T10671083 400221072 TSNO
94299KAAT AAT20161201235513312/01/16 23:55:31  5-MIN KAAT 020755Z AUTO 07005KT 10SM CLR M07/M08 A3029 4040 88 2400 050/05 RMK AO2 SLP290 T10671083 400221072 TSNO
94299KAAT AAT20161202000011612/02/16 00:00:31  5-MIN KAAT 020800Z AUTO 08005KT 10SM CLR M07/M08 A3029 4040 88 2400 060/05 RMK AO2 T10671083 TSNO
94299KAAT AAT20161202000511912/02/16 00:05:31  5-MIN KAAT 020805Z AUTO 07003KT 10SM FEW048 M07/M08 A3030 4040 88 2400 060/03 RMK AO2 T10671083 TSNO
94299KAAT AAT20161202001011912/02/16 00:10:31  5-MIN KAAT 020810Z AUTO 00000KT 10SM FEW048 M07/M08 A3030 4040 88 2400 000/00 RMK AO2 T10671083 TSNO
94299KAAT AAT20161202001511912/02/16 00:15:31  5-MIN KAAT 020815Z AUTO 00000KT 10SM SCT048 M07/M08 A3030 4040 92 2300 000/00 RMK AO2 T10721083 TSNO
94299KAAT AAT20161202002011812/02/16 00:20:31  5-MIN KAAT 020820Z AUTO 09004KT 9SM SCT046 M07/M09 A3029 4040 88 2300 080/04 RMK AO2 T10721089 TSNO
94299KAAT AAT20161202002511812/02/16 00:25:31  5-MIN KAAT 020825Z AUTO 06003KT 9SM SCT046 M07/M09 A3029 4040 88 2300 050/03 RMK AO2 T10721089 TSNO
94299KAAT AAT20161202003011912/02/16 00:30:31  5-MIN KAAT 020830Z AUTO 00000KT 10SM BKN046 M08/M09 A3029 4040 92 2300 000/00 RMK AO2 T10781089 TSNO
94299KAAT AAT20161202003511912/02/16 00:35:31  5-MIN KAAT 020835Z AUTO 00000KT 10SM SCT046 M08/M09 A3029 4040 92 2200 000/00 RMK AO2 T10831094 TSNO
94299KAAT AAT20161202004011912/02/16 00:40:31  5-MIN KAAT 020840Z AUTO 13003KT 10SM SCT046 M08/M09 A3029 4040 92 2200 110/03 RMK AO2 T10831094 TSNO
94299KAAT AAT20161202004511912/02/16 00:45:31  5-MIN KAAT 020845Z AUTO 15003KT 10SM FEW046 M09/M10 A3029 4040 92 2100 140/03 RMK AO2 T10891100 TSNO
94299KAAT AAT20161202005013212/02/16 00:50:31  5-MIN KAAT 020850Z AUTO 19003KT 10SM FEW046 M09/M10 A3029 4040 92 2100 170/03 RMK AO2 SLP293 T10891100 53013 TSNO
94299KAAT AAT20161202005513212/02/16 00:55:31  5-MIN KAAT 020855Z AUTO 00000KT 10SM FEW046 M09/M10 A3029 4040 92 2100 000/00 RMK AO2 SLP293 T10891100 50003 TSNO
94299KAAT AAT20161202010011612/02/16 01:00:31  5-MIN KAAT 020900Z AUTO 00000KT 10SM CLR M09/M10 A3029 4040 92 2100 000/00 RMK AO2 T10891100 TSNO
94299KAAT AAT20161202010511612/02/16 01:05:31  5-MIN KAAT 020905Z AUTO 20003KT 10SM CLR M09/M10 A3029 4040 92 2100 180/03 RMK AO2 T10891100 TSNO
94299KAAT AAT20161202011011612/02/16 01:10:31  5-MIN KAAT 020910Z AUTO 18003KT 10SM CLR M09/M11 A3029 4040 92 2100 160/03 RMK AO2 T10941106 TSNO
94299KAAT AAT20161202011511612/02/16 01:15:31  5-MIN KAAT 020915Z AUTO 00000KT 10SM CLR M09/M11 A3029 4040 88 2100 000/00 RMK AO2 T10891106 TSNO
94299KAAT AAT20161202012011612/02/16 01:20:31  5-MIN KAAT 020920Z AUTO 00000KT 10SM CLR M08/M10 A3028 4050 88 2200 000/00 RMK AO2 T10831100 TSNO
94299KAAT AAT20161202012511612/02/16 01:25:31  5-MIN KAAT 020925Z AUTO 00000KT 10SM CLR M08/M09 A3029 4040 92 2200 000/00 RMK AO2 T10831094 TSNO
94299KAAT AAT20161202013011612/02/16 01:30:31  5-MIN KAAT 020930Z AUTO 00000KT 10SM CLR M09/M10 A3029 4040 92 2100 000/00 RMK AO2 T10891100 TSNO
94299KAAT AAT20161202013511612/02/16 01:35:31  5-MIN KAAT 020935Z AUTO 00000KT 10SM CLR M09/M10 A3029 4040 92 2100 000/00 RMK AO2 T10891100 TSNO
94299KAAT AAT20161202014011512/02/16 01:40:31  5-MIN KAAT 020940Z AUTO 00000KT 7SM CLR M09/M10 A3028 4050 92 2100 000/00 RMK AO2 T10891100 TSNO
94299KAAT AAT20161202014511812/02/16 01:45:31  5-MIN KAAT 020945Z AUTO 00000KT 6SM BR CLR M09/M10 A3029 4050 92 2100 000/00 RMK AO2 T10891100 TSNO
94299KAAT AAT20161202015012512/02/16 01:50:31  5-MIN KAAT 020950Z AUTO 00000KT 5SM BR CLR M08/M09 A3029 4040 92 2200 000/00 RMK AO2 SLP290 T10831094 TSNO
94299KAAT AAT20161202015512812/02/16 01:55:31  5-MIN KAAT 020955Z AUTO 00000KT 5SM BR FEW042 M09/M09 A3029 4040 96 2100 000/00 RMK AO2 SLP290 T10891094 TSNO
94299KAAT AAT20161202020012112/02/16 02:00:31  5-MIN KAAT 021000Z AUTO 00000KT 6SM BR FEW042 M09/M11 A3028 4050 92 2100 000/00 RMK AO2 T10941106 TSNO
94299KAAT AAT20161202020511812/02/16 02:05:31  5-MIN KAAT 021005Z AUTO 00000KT 8SM FEW042 M09/M11 A3028 4050 92 2100 000/00 RMK AO2 T10941106 TSNO
94299KAAT AAT20161202021011912/02/16 02:10:31  5-MIN KAAT 021010Z AUTO 00000KT 10SM FEW042 M09/M11 A3028 4050 88 2100 000/00 RMK AO2 T10941111 TSNO
94299KAAT AAT20161202021511812/02/16 02:15:31  5-MIN KAAT 021015Z AUTO 14004KT 9SM FEW042 M09/M11 A3028 4050 88 2100 120/04 RMK AO2 T10891106 TSNO
94299KAAT AAT20161202022011812/02/16 02:20:31  5-MIN KAAT 021020Z AUTO 00000KT 8SM FEW042 M09/M11 A3028 4050 92 2100 000/00 RMK AO2 T10941106 TSNO
94299KAAT AAT20161202022511812/02/16 02:25:31  5-MIN KAAT 021025Z AUTO 00000KT 9SM FEW042 M10/M11 A3028 4050 92 2000 000/00 RMK AO2 T11001111 TSNO
94299KAAT AAT20161202023011912/02/16 02:30:31  5-MIN KAAT 021030Z AUTO 00000KT 10SM FEW042 M11/M11 A3028 4050 96 1900 000/00 RMK AO2 T11061111 TSNO
94299KAAT AAT20161202023511612/02/16 02:35:31  5-MIN KAAT 021035Z AUTO 00000KT 10SM CLR M10/M12 A3028 4050 88 2000 000/00 RMK AO2 T11001117 TSNO
94299KAAT AAT20161202024011612/02/16 02:40:31  5-MIN KAAT 021040Z AUTO 00000KT 10SM CLR M11/M12 A3028 4050 92 1900 000/00 RMK AO2 T11061117 TSNO
94299KAAT AAT20161202024511612/02/16 02:45:31  5-MIN KAAT 021045Z AUTO 00000KT 10SM CLR M09/M11 A3028 4050 88 2100 000/00 RMK AO2 T10941111 TSNO
94299KAAT AAT20161202025012312/02/16 02:50:31  5-MIN KAAT 021050Z AUTO 00000KT 10SM CLR M10/M11 A3028 4050 96 2000 000/00 RMK AO2 SLP288 T11001106 TSNO
94299KAAT AAT20161202025512312/02/16 02:55:31  5-MIN KAAT 021055Z AUTO 00000KT 10SM CLR M09/M11 A3028 4050 92 2100 000/00 RMK AO2 SLP286 T10941106 TSNO
94299KAAT AAT20161202030011612/02/16 03:00:31  5-MIN KAAT 021100Z AUTO 00000KT 10SM CLR M09/M11 A3028 4050 88 2100 000/00 RMK AO2 T10891106 TSNO
94299KAAT AAT20161202030511612/02/16 03:05:31  5-MIN KAAT 021105Z AUTO 00000KT 10SM CLR M09/M10 A3028 4050 92 2100 000/00 RMK AO2 T10891100 TSNO
94299KAAT AAT20161202031011612/02/16 03:10:31  5-MIN KAAT 021110Z AUTO 00000KT 10SM CLR M08/M09 A3028 4050 92 2200 000/00 RMK AO2 T10831094 TSNO
94299KAAT AAT20161202031511512/02/16 03:15:31  5-MIN KAAT 021115Z AUTO 00000KT 9SM CLR M08/M09 A3029 4050 92 2200 000/00 RMK AO2 T10831094 TSNO
94299KAAT AAT20161202032011512/02/16 03:20:31  5-MIN KAAT 021120Z AUTO VRB03KT 9SM CLR M09/M10 A3028 4050 96 2100 VRB/03 RMK AO2 T10941100 TSNO
94299KAAT AAT20161202032511512/02/16 03:25:31  5-MIN KAAT 021125Z AUTO 00000KT 7SM CLR M09/M11 A3029 4040 88 2100 000/00 RMK AO2 T10891106 TSNO
94299KAAT AAT20161202033011812/02/16 03:30:31  5-MIN KAAT 021130Z AUTO 11003KT 5SM BR CLR M09/M11 A3029 4040 92 2100 100/03 RMK AO2 T10941106 TSNO
94299KAAT AAT20161202033511812/02/16 03:35:31  5-MIN KAAT 021135Z AUTO 00000KT 5SM BR CLR M09/M11 A3029 4040 92 2100 000/00 RMK AO2 T10941106 TSNO
94299KAAT AAT20161202034011812/02/16 03:40:31  5-MIN KAAT 021140Z AUTO 10003KT 4SM BR CLR M09/M11 A3029 4040 92 2100 080/03 RMK AO2 T10941106 TSNO
94299KAAT AAT20161202034511812/02/16 03:45:31  5-MIN KAAT 021145Z AUTO 00000KT 4SM BR CLR M09/M11 A3029 4040 92 2100 000/00 RMK AO2 T10941106 TSNO
94299KAAT AAT20161202035014312/02/16 03:50:31  5-MIN KAAT 021150Z AUTO 11004KT 5SM BR CLR M09/M11 A3029 4040 88 2100 090/04 RMK AO2 SLP288 T10891106 11061 21106 50003 TSNO
94299KAAT AAT20161202035514312/02/16 03:55:31  5-MIN KAAT 021155Z AUTO 00000KT 6SM BR CLR M08/M10 A3029 4040 88 2200 000/00 RMK AO2 SLP288 T10831100 11061 21106 55002 TSNO
94299KAAT AAT20161202040011812/02/16 04:00:31  5-MIN KAAT 021200Z AUTO 00000KT 6SM BR CLR M08/M09 A3029 4040 92 2300 000/00 RMK AO2 T10781089 TSNO
94299KAAT AAT20161202040511812/02/16 04:05:31  5-MIN KAAT 021205Z AUTO 00000KT 5SM BR CLR M08/M09 A3029 4040 96 2200 000/00 RMK AO2 T10831089 TSNO
94299KAAT AAT20161202041011812/02/16 04:10:31  5-MIN KAAT 021210Z AUTO 00000KT 6SM BR CLR M09/M09 A3029 4040 96 2100 000/00 RMK AO2 T10891094 TSNO
94299KAAT AAT20161202041511812/02/16 04:15:31  5-MIN KAAT 021215Z AUTO 00000KT 6SM BR CLR M10/M11 A3029 4040 92 2000 000/00 RMK AO2 T11001111 TSNO
94299KAAT AAT20161202042011812/02/16 04:20:31  5-MIN KAAT 021220Z AUTO 00000KT 6SM BR CLR M10/M12 A3029 4040 88 2000 000/00 RMK AO2 T11001117 TSNO
94299KAAT AAT20161202042511812/02/16 04:25:31  5-MIN KAAT 021225Z AUTO 00000KT 6SM BR CLR M11/M12 A3029 4040 88 1900 000/00 RMK AO2 T11061122 TSNO
94299KAAT AAT20161202043011512/02/16 04:30:31  5-MIN KAAT 021230Z AUTO 00000KT 7SM CLR M11/M12 A3029 4040 92 1900 000/00 RMK AO2 T11061117 TSNO
94299KAAT AAT20161202043511512/02/16 04:35:31  5-MIN KAAT 021235Z AUTO 00000KT 7SM CLR M10/M12 A3029 4040 88 2000 000/00 RMK AO2 T11001117 TSNO
94299KAAT AAT20161202044011512/02/16 04:40:31  5-MIN KAAT 021240Z AUTO 16003KT 8SM CLR M10/M11 A3029 4040 92 2000 140/03 RMK AO2 T11001111 TSNO
94299KAAT AAT20161202044511512/02/16 04:45:31  5-MIN KAAT 021245Z AUTO 17003KT 7SM CLR M09/M11 A3029 4040 88 2100 160/03 RMK AO2 T10941111 TSNO
94299KAAT AAT20161202045012212/02/16 04:50:31  5-MIN KAAT 021250Z AUTO 16004KT 7SM CLR M09/M11 A3029 4040 92 2100 140/04 RMK AO2 SLP296 T10941106 TSNO
94299KAAT AAT20161202045512312/02/16 04:55:31  5-MIN KAAT 021255Z AUTO 20003KT 10SM CLR M09/M10 A3030 4030 96 2000 180/03 RMK AO2 SLP297 T10941100 TSNO
94299KAAT AAT20161202050011612/02/16 05:00:31  5-MIN KAAT 021300Z AUTO 19003KT 10SM CLR M10/M11 A3030 4030 96 2000 170/03 RMK AO2 T11001106 TSNO
94299KAAT AAT20161202050511612/02/16 05:05:31  5-MIN KAAT 021305Z AUTO 00000KT 10SM CLR M10/M12 A3030 4030 88 2000 000/00 RMK AO2 T11001117 TSNO
94299KAAT AAT20161202051011612/02/16 05:10:31  5-MIN KAAT 021310Z AUTO 17004KT 10SM CLR M09/M11 A3030 4030 88 2000 150/04 RMK AO2 T10941111 TSNO
94299KAAT AAT20161202051511612/02/16 05:15:31  5-MIN KAAT 021315Z AUTO 17004KT 10SM CLR M09/M11 A3031 4030 92 2000 150/04 RMK AO2 T10941106 TSNO
94299KAAT AAT20161202052011612/02/16 05:20:31  5-MIN KAAT 021320Z AUTO 16003KT 10SM CLR M09/M11 A3030 4030 92 2000 150/03 RMK AO2 T10941106 TSNO
94299KAAT AAT20161202052511612/02/16 05:25:31  5-MIN KAAT 021325Z AUTO 17003KT 10SM CLR M10/M11 A3031 4030 96 2000 150/03 RMK AO2 T11001106 TSNO
94299KAAT AAT20161202053011612/02/16 05:30:31  5-MIN KAAT 021330Z AUTO 17003KT 10SM CLR M09/M11 A3030 4030 88 2000 150/03 RMK AO2 T10941111 TSNO
94299KAAT AAT20161202053511612/02/16 05:35:31  5-MIN KAAT 021335Z AUTO 17004KT 10SM CLR M09/M11 A3030 4030 88 2100 160/04 RMK AO2 T10891106 TSNO
94299KAAT AAT20161202054011612/02/16 05:40:31  5-MIN KAAT 021340Z AUTO 17003KT 10SM CLR M09/M10 A3030 4030 92 2100 150/03 RMK AO2 T10891100 TSNO
94299KAAT AAT20161202054511612/02/16 05:45:31  5-MIN KAAT 021345Z AUTO 17003KT 10SM CLR M09/M10 A3030 4030 92 2100 150/03 RMK AO2 T10891100 TSNO
94299KAAT AAT20161202055012312/02/16 05:50:31  5-MIN KAAT 021350Z AUTO 00000KT 10SM CLR M10/M11 A3030 4030 96 2000 000/00 RMK AO2 SLP299 T11001106 TSNO
94299KAAT AAT20161202055512212/02/16 05:55:31  5-MIN KAAT 021355Z AUTO 36003KT 8SM CLR M10/M12 A3030 4030 88 2000 340/03 RMK AO2 SLP299 T11001117 TSNO
94299KAAT AAT20161202060011812/02/16 06:00:31  5-MIN KAAT 021400Z AUTO 00000KT 6SM BR CLR M11/M12 A3031 4020 88 1900 000/00 RMK AO2 T11061122 TSNO
94299KAAT AAT20161202060511812/02/16 06:05:31  5-MIN KAAT 021405Z AUTO 00000KT 5SM BR CLR M10/M11 A3031 4020 92 2000 000/00 RMK AO2 T11001111 TSNO
94299KAAT AAT20161202061011812/02/16 06:10:31  5-MIN KAAT 021410Z AUTO 00000KT 5SM BR CLR M10/M11 A3032 4020 92 2000 000/00 RMK AO2 T11001111 TSNO
94299KAAT AAT20161202061511812/02/16 06:15:31  5-MIN KAAT 021415Z AUTO 34003KT 6SM BR CLR M09/M11 A3032 4020 88 2000 320/03 RMK AO2 T10941111 TSNO
94299KAAT AAT20161202062011512/02/16 06:20:31  5-MIN KAAT 021420Z AUTO 00000KT 7SM CLR M09/M11 A3032 4020 88 2000 000/00 RMK AO2 T10941111 TSNO
94299KAAT AAT20161202062511512/02/16 06:25:31  5-MIN KAAT 021425Z AUTO 00000KT 7SM CLR M09/M11 A3032 4010 92 2000 000/00 RMK AO2 T10941106 TSNO
94299KAAT AAT20161202063011512/02/16 06:30:31  5-MIN KAAT 021430Z AUTO 00000KT 8SM CLR M09/M11 A3032 4010 92 2000 000/00 RMK AO2 T10941106 TSNO
94299KAAT AAT20161202063511512/02/16 06:35:31  5-MIN KAAT 021435Z AUTO 00000KT 8SM CLR M09/M11 A3032 4010 92 2000 000/00 RMK AO2 T10941106 TSNO
94299KAAT AAT20161202064011512/02/16 06:40:31  5-MIN KAAT 021440Z AUTO 16003KT 9SM CLR M09/M11 A3033 4010 92 2000 140/03 RMK AO2 T10941106 TSNO
94299KAAT AAT20161202064511612/02/16 06:45:31  5-MIN KAAT 021445Z AUTO 18004KT 10SM CLR M09/M11 A3033 4010 92 2000 160/04 RMK AO2 T10941106 TSNO
94299KAAT AAT20161202065012912/02/16 06:50:31  5-MIN KAAT 021450Z AUTO 18004KT 10SM CLR M09/M11 A3033 4010 92 2000 160/04 RMK AO2 SLP310 T10941106 55002 TSNO
94299KAAT AAT20161202065512912/02/16 06:55:31  5-MIN KAAT 021455Z AUTO 16003KT 10SM CLR M09/M11 A3033 4010 92 2000 150/03 RMK AO2 SLP311 T10941106 53013 TSNO
94299KAAT AAT20161202070011612/02/16 07:00:31  5-MIN KAAT 021500Z AUTO 18003KT 10SM CLR M09/M11 A3033 4010 92 2000 170/03 RMK AO2 T10941106 TSNO
94299KAAT AAT20161202070511612/02/16 07:05:31  5-MIN KAAT 021505Z AUTO 00000KT 10SM CLR M09/M11 A3033 4000 92 2000 000/00 RMK AO2 T10941106 TSNO
94299KAAT AAT20161202071011612/02/16 07:10:31  5-MIN KAAT 021510Z AUTO 00000KT 10SM CLR M09/M11 A3033 4000 92 2000 000/00 RMK AO2 T10941106 TSNO
94299KAAT AAT20161202071511612/02/16 07:15:31  5-MIN KAAT 021515Z AUTO 00000KT 10SM CLR M11/M11 A3033 4000 96 1900 000/00 RMK AO2 T11061111 TSNO
94299KAAT AAT20161202072011612/02/16 07:20:31  5-MIN KAAT 021520Z AUTO 19003KT 10SM CLR M11/M12 A3033 4000 92 1900 170/03 RMK AO2 T11061117 TSNO
94299KAAT AAT20161202072511612/02/16 07:25:31  5-MIN KAAT 021525Z AUTO 00000KT 10SM CLR M11/M12 A3033 4010 88 1900 000/00 RMK AO2 T11061122 TSNO
94299KAAT AAT20161202073011612/02/16 07:30:31  5-MIN KAAT 021530Z AUTO 22003KT 10SM CLR M10/M12 A3033 4010 88 1900 200/03 RMK AO2 T11001117 TSNO
94299KAAT AAT20161202073511612/02/16 07:35:31  5-MIN KAAT 021535Z AUTO 21004KT 10SM CLR M10/M11 A3033 4010 92 1900 200/04 RMK AO2 T11001111 TSNO
94299KAAT AAT20161202074011612/02/16 07:40:31  5-MIN KAAT 021540Z AUTO 00000KT 10SM CLR M10/M11 A3033 4010 92 1900 000/00 RMK AO2 T11001111 TSNO
94299KAAT AAT20161202074511612/02/16 07:45:31  5-MIN KAAT 021545Z AUTO 00000KT 10SM CLR M10/M11 A3033 4010 92 1900 000/00 RMK AO2 T11001111 TSNO
94299KAAT AAT20161202075012312/02/16 07:50:31  5-MIN KAAT 021550Z AUTO 00000KT 10SM CLR M09/M11 A3033 4010 92 2000 000/00 RMK AO2 SLP317 T10941106 TSNO
94299KAAT AAT20161202075512312/02/16 07:55:31  5-MIN KAAT 021555Z AUTO 00000KT 10SM CLR M09/M11 A3033 4000 88 2100 000/00 RMK AO2 SLP317 T10891106 TSNO
94299KAAT AAT20161202080011612/02/16 08:00:31  5-MIN KAAT 021600Z AUTO 00000KT 10SM CLR M08/M10 A3034 4000 88 2100 000/00 RMK AO2 T10831100 TSNO
94299KAAT AAT20161202080511612/02/16 08:05:31  5-MIN KAAT 021605Z AUTO 00000KT 10SM CLR M08/M10 A3033 4000 88 2200 000/00 RMK AO2 T10831100 TSNO
94299KAAT AAT20161202081011912/02/16 08:10:31  5-MIN KAAT 021610Z AUTO 00000KT 10SM SCT110 M08/M09 A3034 4000 88 2200 000/00 RMK AO2 T10781094 TSNO
94299KAAT AAT20161202081511912/02/16 08:15:31  5-MIN KAAT 021615Z AUTO 00000KT 10SM SCT110 M07/M09 A3034 4000 84 2300 000/00 RMK AO2 T10721094 TSNO
94299KAAT AAT20161202082011912/02/16 08:20:31  5-MIN KAAT 021620Z AUTO 00000KT 10SM SCT110 M07/M09 A3034 3990 88 2300 000/00 RMK AO2 T10721089 TSNO
94299KAAT AAT20161202082511812/02/16 08:25:31  5-MIN KAAT 021625Z AUTO 00000KT 9SM FEW110 M07/M09 A3035 3990 84 2300 000/00 RMK AO2 T10671089 TSNO
94299KAAT AAT20161202083011812/02/16 08:30:31  5-MIN KAAT 021630Z AUTO 00000KT 7SM FEW110 M06/M08 A3035 3980 84 2400 000/00 RMK AO2 T10611083 TSNO
94299KAAT AAT20161202083512112/02/16 08:35:31  5-MIN KAAT 021635Z AUTO 00000KT 5SM BR FEW110 M06/M08 A3035 3990 84 2400 000/00 RMK AO2 T10611083 TSNO
94299KAAT AAT20161202084012112/02/16 08:40:31  5-MIN KAAT 021640Z AUTO 15004KT 6SM BR FEW110 M06/M08 A3035 3990 88 2400 140/04 RMK AO2 T10611078 TSNO
94299KAAT AAT20161202084511612/02/16 08:45:31  5-MIN KAAT 021645Z AUTO 13004KT 10SM CLR M07/M08 A3035 3990 92 2300 110/04 RMK AO2 T10671078 TSNO
94299KAAT AAT20161202085012312/02/16 08:50:31  5-MIN KAAT 021650Z AUTO 11004KT 10SM CLR M06/M08 A3035 3990 88 2400 090/04 RMK AO2 SLP315 T10611078 TSNO
94299KAAT AAT20161202085512312/02/16 08:55:31  5-MIN KAAT 021655Z AUTO 12004KT 10SM CLR M06/M08 A3035 3990 88 2400 100/04 RMK AO2 SLP315 T10611078 TSNO
94299KAAT AAT20161202090011612/02/16 09:00:31  5-MIN KAAT 021700Z AUTO 00000KT 10SM CLR M06/M07 A3036 3980 88 2500 000/00 RMK AO2 T10561072 TSNO
94299KAAT AAT20161202090511612/02/16 09:05:31  5-MIN KAAT 021705Z AUTO 00000KT 10SM CLR M06/M07 A3036 3980 92 2500 000/00 RMK AO2 T10561067 TSNO
94299KAAT AAT20161202091011612/02/16 09:10:31  5-MIN KAAT 021710Z AUTO 00000KT 10SM CLR M06/M07 A3036 3970 92 2500 000/00 RMK AO2 T10561067 TSNO
94299KAAT AAT20161202091511612/02/16 09:15:31  5-MIN KAAT 021715Z AUTO 00000KT 10SM CLR M05/M07 A3037 3970 88 2500 000/00 RMK AO2 T10501067 TSNO
94299KAAT AAT20161202092011612/02/16 09:20:31  5-MIN KAAT 021720Z AUTO 00000KT 10SM CLR M04/M06 A3037 3970 88 2600 000/00 RMK AO2 T10441061 TSNO
94299KAAT AAT20161202092511612/02/16 09:25:31  5-MIN KAAT 021725Z AUTO 00000KT 10SM CLR M04/M06 A3037 3970 88 2600 000/00 RMK AO2 T10441061 TSNO
94299KAAT AAT20161202093011612/02/16 09:30:31  5-MIN KAAT 021730Z AUTO 00000KT 10SM CLR M04/M06 A3037 3970 88 2600 000/00 RMK AO2 T10441061 TSNO
94299KAAT AAT20161202093511612/02/16 09:35:31  5-MIN KAAT 021735Z AUTO 00000KT 10SM CLR M04/M06 A3036 3970 88 2600 000/00 RMK AO2 T10441061 TSNO
94299KAAT AAT20161202094011612/02/16 09:40:31  5-MIN KAAT 021740Z AUTO 00000KT 10SM CLR M04/M06 A3037 3970 88 2600 000/00 RMK AO2 T10441061 TSNO
94299KAAT AAT20161202094511612/02/16 09:45:31  5-MIN KAAT 021745Z AUTO 14003KT 10SM CLR M04/M06 A3037 3970 85 2700 130/03 RMK AO2 T10391061 TSNO
94299KAAT AAT20161202095014112/02/16 09:50:31  5-MIN KAAT 021750Z AUTO 00000KT 10SM CLR M04/M06 A3037 3970 85 2700 000/00 RMK AO2 SLP321 T10391061 11039 21106 53013 TSNO
94299KAAT AAT20161202095514112/02/16 09:55:31  5-MIN KAAT 021755Z AUTO 15003KT 10SM CLR M03/M06 A3037 3970 85 2700 130/03 RMK AO2 SLP320 T10331056 11033 21106 53012 TSNO
94299KAAT AAT20161202100011612/02/16 10:00:31  5-MIN KAAT 021800Z AUTO 14004KT 10SM CLR M03/M06 A3037 3970 85 2700 130/04 RMK AO2 T10331056 TSNO
94299KAAT AAT20161202100511612/02/16 10:05:31  5-MIN KAAT 021805Z AUTO 17003KT 10SM CLR M03/M06 A3037 3960 85 2700 160/03 RMK AO2 T10331056 TSNO
94299KAAT AAT20161202101011612/02/16 10:10:31  5-MIN KAAT 021810Z AUTO 00000KT 10SM CLR M03/M06 A3038 3960 85 2700 000/00 RMK AO2 T10331056 TSNO
94299KAAT AAT20161202101511612/02/16 10:15:31  5-MIN KAAT 021815Z AUTO VRB03KT 10SM CLR M03/M06 A3037 3970 85 2700 VRB/03 RMK AO2 T10331056 TSNO
94299KAAT AAT20161202102011612/02/16 10:20:31  5-MIN KAAT 021820Z AUTO 17003KT 10SM CLR M03/M06 A3037 3970 81 2800 160/03 RMK AO2 T10281056 TSNO
94299KAAT AAT20161202102511612/02/16 10:25:31  5-MIN KAAT 021825Z AUTO 18003KT 10SM CLR M03/M05 A3037 3970 85 2800 170/03 RMK AO2 T10281050 TSNO
94299KAAT AAT20161202103011612/02/16 10:30:31  5-MIN KAAT 021830Z AUTO 21003KT 10SM CLR M03/M05 A3037 3970 85 2800 190/03 RMK AO2 T10281050 TSNO
94299KAAT AAT20161202103511612/02/16 10:35:31  5-MIN KAAT 021835Z AUTO 20004KT 10SM CLR M02/M05 A3036 3980 81 2900 180/04 RMK AO2 T10221050 TSNO
94299KAAT AAT20161202104011612/02/16 10:40:31  5-MIN KAAT 021840Z AUTO VRB04KT 10SM CLR M02/M05 A3037 3970 78 2900 VRB/04 RMK AO2 T10171050 TSNO
94299KAAT AAT20161202104511612/02/16 10:45:31  5-MIN KAAT 021845Z AUTO VRB03KT 10SM CLR M02/M05 A3037 3970 81 2900 VRB/03 RMK AO2 T10221050 TSNO
94299KAAT AAT20161202105012312/02/16 10:50:31  5-MIN KAAT 021850Z AUTO 15003KT 10SM CLR M02/M06 A3036 3970 75 2900 130/03 RMK AO2 SLP315 T10171056 TSNO
94299KAAT AAT20161202105512312/02/16 10:55:31  5-MIN KAAT 021855Z AUTO 00000KT 10SM CLR M01/M06 A3036 3980 72 3000 000/00 RMK AO2 SLP310 T10111056 TSNO
94299KAAT AAT20161202110011612/02/16 11:00:31  5-MIN KAAT 021900Z AUTO 00000KT 10SM CLR M01/M06 A3036 3980 72 3000 000/00 RMK AO2 T10111056 TSNO
94299KAAT AAT20161202110511612/02/16 11:05:31  5-MIN KAAT 021905Z AUTO 00000KT 10SM CLR M01/M05 A3035 3980 75 3000 000/00 RMK AO2 T10111050 TSNO
94299KAAT AAT20161202111011612/02/16 11:10:31  5-MIN KAAT 021910Z AUTO 00000KT 10SM CLR M01/M06 A3035 3980 72 3000 000/00 RMK AO2 T10111056 TSNO
94299KAAT AAT20161202111511612/02/16 11:15:31  5-MIN KAAT 021915Z AUTO 17003KT 10SM CLR M01/M05 A3035 3990 75 3000 150/03 RMK AO2 T10111050 TSNO
94299KAAT AAT20161202112011612/02/16 11:20:31  5-MIN KAAT 021920Z AUTO 15004KT 10SM CLR M01/M05 A3035 3990 72 3100 140/04 RMK AO2 T10061050 TSNO
94299KAAT AAT20161202112511612/02/16 11:25:31  5-MIN KAAT 021925Z AUTO 16003KT 10SM CLR M01/M05 A3035 3990 72 3100 140/03 RMK AO2 T10061050 TSNO
94299KAAT AAT20161202113011612/02/16 11:30:31  5-MIN KAAT 021930Z AUTO 00000KT 10SM CLR M01/M06 A3035 3980 69 3100 000/00 RMK AO2 T10061056 TSNO
94299KAAT AAT20161202113511612/02/16 11:35:31  5-MIN KAAT 021935Z AUTO VRB03KT 10SM CLR M01/M05 A3035 3980 72 3100 VRB/03 RMK AO2 T10061050 TSNO
94299KAAT AAT20161202114011512/02/16 11:40:31  5-MIN KAAT 021940Z AUTO 00000KT 10SM CLR 00/M05 A3035 3990 69 3200 000/00 RMK AO2 T00001050 TSNO
94299KAAT AAT20161202114511512/02/16 11:45:31  5-MIN KAAT 021945Z AUTO VRB03KT 10SM CLR 00/M05 A3035 3990 69 3200 VRB/03 RMK AO2 T00001050 TSNO
94299KAAT AAT20161202115012512/02/16 11:50:31  5-MIN KAAT 021950Z AUTO 19003KT 10SM FEW090 00/M05 A3035 3990 69 3200 170/03 RMK AO2 SLP306 T00001050 TSNO
94299KAAT AAT20161202115512512/02/16 11:55:31  5-MIN KAAT 021955Z AUTO VRB03KT 10SM BKN090 01/M05 A3034 3990 66 3200 VRB/03 RMK AO2 SLP303 T00061050 TSNO
94299KAAT AAT20161202120011812/02/16 12:00:31  5-MIN KAAT 022000Z AUTO 16003KT 10SM BKN090 00/M05 A3034 4000 69 3200 150/03 RMK AO2 T00001050 TSNO
94299KAAT AAT20161202120511812/02/16 12:05:31  5-MIN KAAT 022005Z AUTO 11004KT 10SM BKN090 00/M05 A3033 4000 69 3200 100/04 RMK AO2 T00001050 TSNO
94299KAAT AAT20161202121011812/02/16 12:10:31  5-MIN KAAT 022010Z AUTO VRB03KT 10SM OVC090 01/M06 A3034 4000 63 3200 VRB/03 RMK AO2 T00061056 TSNO
94299KAAT AAT20161202121511812/02/16 12:15:31  5-MIN KAAT 022015Z AUTO 00000KT 10SM OVC090 01/M06 A3034 3990 61 3300 000/00 RMK AO2 T00111056 TSNO
94299KAAT AAT20161202122011812/02/16 12:20:31  5-MIN KAAT 022020Z AUTO 14003KT 10SM BKN090 01/M06 A3034 3990 63 3200 120/03 RMK AO2 T00061056 TSNO
94299KAAT AAT20161202122511812/02/16 12:25:31  5-MIN KAAT 022025Z AUTO 00000KT 10SM BKN090 01/M05 A3034 4000 66 3300 000/00 RMK AO2 T00061050 TSNO
94299KAAT AAT20161202123011812/02/16 12:30:31  5-MIN KAAT 022030Z AUTO VRB03KT 10SM SCT090 01/M06 A3034 4000 63 3300 VRB/03 RMK AO2 T00061056 TSNO
94299KAAT AAT20161202123511812/02/16 12:35:31  5-MIN KAAT 022035Z AUTO VRB03KT 10SM FEW090 02/M06 A3033 4000 59 3400 VRB/03 RMK AO2 T00171056 TSNO
94299KAAT AAT20161202124011812/02/16 12:40:31  5-MIN KAAT 022040Z AUTO VRB03KT 10SM FEW090 01/M06 A3033 4010 58 3300 VRB/03 RMK AO2 T00111061 TSNO
94299KAAT AAT20161202124511512/02/16 12:45:31  5-MIN KAAT 022045Z AUTO VRB03KT 10SM CLR 02/M06 A3033 4010 59 3400 VRB/03 RMK AO2 T00171056 TSNO
94299KAAT AAT20161202125012812/02/16 12:50:31  5-MIN KAAT 022050Z AUTO 15005KT 10SM CLR 01/M06 A3032 4010 61 3300 130/05 RMK AO2 SLP300 T00111056 53012 TSNO
94299KAAT AAT20161202125512812/02/16 12:55:31  5-MIN KAAT 022055Z AUTO VRB04KT 10SM CLR 02/M06 A3032 4010 56 3400 VRB/04 RMK AO2 SLP298 T00171061 58014 TSNO
94299KAAT AAT20161202130011512/02/16 13:00:31  5-MIN KAAT 022100Z AUTO 13003KT 10SM CLR 02/M06 A3032 4010 59 3400 110/03 RMK AO2 T00171056 TSNO
94299KAAT AAT20161202130511512/02/16 13:05:31  5-MIN KAAT 022105Z AUTO VRB04KT 10SM CLR 02/M06 A3032 4010 54 3500 VRB/04 RMK AO2 T00221061 TSNO
94299KAAT AAT20161202131011512/02/16 13:10:31  5-MIN KAAT 022110Z AUTO 09005KT 10SM CLR 02/M06 A3032 4020 54 3500 070/05 RMK AO2 T00221061 TSNO
94299KAAT AAT20161202131511512/02/16 13:15:31  5-MIN KAAT 022115Z AUTO 09004KT 10SM CLR 02/M06 A3031 4020 54 3500 080/04 RMK AO2 T00221061 TSNO
94299KAAT AAT20161202132011512/02/16 13:20:31  5-MIN KAAT 022120Z AUTO 00000KT 10SM CLR 02/M06 A3031 4020 54 3500 000/00 RMK AO2 T00221061 TSNO
94299KAAT AAT20161202132511512/02/16 13:25:31  5-MIN KAAT 022125Z AUTO VRB03KT 10SM CLR 03/M06 A3032 4020 52 3500 VRB/03 RMK AO2 T00281061 TSNO
94299KAAT AAT20161202133011512/02/16 13:30:31  5-MIN KAAT 022130Z AUTO 09004KT 10SM CLR 02/M06 A3031 4020 54 3500 080/04 RMK AO2 T00221061 TSNO
94299KAAT AAT20161202133511512/02/16 13:35:31  5-MIN KAAT 022135Z AUTO 01004KT 10SM CLR 03/M07 A3032 4020 50 3500 360/04 RMK AO2 T00281067 TSNO
94299KAAT AAT20161202134011512/02/16 13:40:31  5-MIN KAAT 022140Z AUTO 06004KT 10SM CLR 03/M07 A3031 4020 50 3500 040/04 RMK AO2 T00281067 TSNO
94299KAAT AAT20161202134511512/02/16 13:45:31  5-MIN KAAT 022145Z AUTO 00000KT 10SM CLR 03/M07 A3031 4020 50 3500 000/00 RMK AO2 T00281067 TSNO
94299KAAT AAT20161202135012212/02/16 13:50:31  5-MIN KAAT 022150Z AUTO 00000KT 10SM CLR 03/M07 A3031 4020 50 3600 000/00 RMK AO2 SLP291 T00281067 TSNO
94299KAAT AAT20161202135512512/02/16 13:55:31  5-MIN KAAT 022155Z AUTO 11005KT 10SM FEW075 03/M06 A3031 4030 52 3600 100/05 RMK AO2 SLP290 T00281061 TSNO
94299KAAT AAT20161202140011812/02/16 14:00:31  5-MIN KAAT 022200Z AUTO 12005KT 10SM SCT075 02/M07 A3030 4030 52 3500 110/05 RMK AO2 T00221067 TSNO
94299KAAT AAT20161202140511812/02/16 14:05:31  5-MIN KAAT 022205Z AUTO 11004KT 10SM BKN070 02/M07 A3030 4030 52 3500 100/04 RMK AO2 T00221067 TSNO
94299KAAT AAT20161202141011812/02/16 14:10:31  5-MIN KAAT 022210Z AUTO 08006KT 10SM BKN070 02/M06 A3031 4030 54 3500 070/06 RMK AO2 T00221061 TSNO
94299KAAT AAT20161202141511812/02/16 14:15:31  5-MIN KAAT 022215Z AUTO 10006KT 10SM BKN070 02/M06 A3031 4030 54 3500 080/06 RMK AO2 T00221061 TSNO
94299KAAT AAT20161202142011812/02/16 14:20:31  5-MIN KAAT 022220Z AUTO 07005KT 10SM OVC070 02/M06 A3031 4020 54 3500 060/05 RMK AO2 T00221061 TSNO
94299KAAT AAT20161202142511812/02/16 14:25:31  5-MIN KAAT 022225Z AUTO 10003KT 10SM OVC070 03/M07 A3031 4020 50 3600 090/03 RMK AO2 T00281067 TSNO
94299KAAT AAT20161202143011812/02/16 14:30:31  5-MIN KAAT 022230Z AUTO 13003KT 10SM OVC070 02/M07 A3031 4020 50 3500 110/03 RMK AO2 T00221072 TSNO
94299KAAT AAT20161202143511812/02/16 14:35:31  5-MIN KAAT 022235Z AUTO VRB04KT 10SM OVC070 02/M08 A3032 4020 47 3500 VRB/04 RMK AO2 T00221078 TSNO
94299KAAT AAT20161202144011812/02/16 14:40:31  5-MIN KAAT 022240Z AUTO 00000KT 10SM OVC065 03/M07 A3032 4020 48 3500 000/00 RMK AO2 T00281072 TSNO
94299KAAT AAT20161202144511812/02/16 14:45:31  5-MIN KAAT 022245Z AUTO 11003KT 10SM OVC065 02/M08 A3031 4020 47 3500 100/03 RMK AO2 T00221078 TSNO
94299KAAT AAT20161202145012512/02/16 14:50:31  5-MIN KAAT 022250Z AUTO 00000KT 10SM OVC065 02/M07 A3031 4020 50 3500 000/00 RMK AO2 SLP297 T00221072 TSNO
94299KAAT AAT20161202145512512/02/16 14:55:31  5-MIN KAAT 022255Z AUTO 00000KT 10SM OVC065 03/M07 A3032 4020 50 3500 000/00 RMK AO2 SLP296 T00281067 TSNO
94299KAAT AAT20161202150011812/02/16 15:00:31  5-MIN KAAT 022300Z AUTO 00000KT 10SM OVC065 03/M07 A3031 4020 50 3500 000/00 RMK AO2 T00281067 TSNO
94299KAAT AAT20161202150511812/02/16 15:05:31  5-MIN KAAT 022305Z AUTO 15004KT 10SM OVC065 03/M06 A3031 4020 52 3500 140/04 RMK AO2 T00281061 TSNO
94299KAAT AAT20161202151012512/02/16 15:10:31  5-MIN KAAT 022310Z AUTO 10005KT 10SM BKN060 OVC095 03/M07 A3031 4020 50 3600 090/05 RMK AO2 T00281067 TSNO
94299KAAT AAT20161202151512512/02/16 15:15:31  5-MIN KAAT 022315Z AUTO 13003KT 10SM BKN060 OVC095 02/M07 A3031 4030 50 3500 110/03 RMK AO2 T00221072 TSNO
94299KAAT AAT20161202152012512/02/16 15:20:31  5-MIN KAAT 022320Z AUTO 09003KT 10SM SCT060 OVC095 03/M07 A3031 4020 50 3600 070/03 RMK AO2 T00281067 TSNO
94299KAAT AAT20161202152512512/02/16 15:25:31  5-MIN KAAT 022325Z AUTO 00000KT 10SM SCT060 OVC095 03/M07 A3031 4020 50 3500 000/00 RMK AO2 T00281067 TSNO
94299KAAT AAT20161202153012512/02/16 15:30:31  5-MIN KAAT 022330Z AUTO 00000KT 10SM FEW060 OVC095 03/M07 A3031 4030 50 3600 000/00 RMK AO2 T00281067 TSNO
94299KAAT AAT20161202153511812/02/16 15:35:31  5-MIN KAAT 022335Z AUTO 09005KT 10SM OVC090 03/M06 A3030 4030 50 3600 070/05 RMK AO2 T00331061 TSNO
94299KAAT AAT20161202154011812/02/16 15:40:31  5-MIN KAAT 022340Z AUTO VRB03KT 10SM OVC090 03/M07 A3030 4030 48 3600 VRB/03 RMK AO2 T00281072 TSNO
94299KAAT AAT20161202154511812/02/16 15:45:31  5-MIN KAAT 022345Z AUTO 11003KT 10SM OVC090 03/M07 A3031 4020 48 3600 090/03 RMK AO2 T00281072 TSNO
94299KAAT AAT20161202155015012/02/16 15:50:31  5-MIN KAAT 022350Z AUTO 00000KT 10SM BKN090 OVC110 02/M08 A3031 4030 47 3500 000/00 RMK AO2 SLP292 T00221078 10033 21039 58014 TSNO
94299KAAT AAT20161202155514312/02/16 15:55:31  5-MIN KAAT 022355Z AUTO 13003KT 10SM OVC100 02/M08 A3030 4030 49 3400 120/03 RMK AO2 SLP291 T00171078 10033 21039 56006 TSNO
94299KAAT AAT20161202160012512/02/16 16:00:31  5-MIN KAAT 030000Z AUTO 13003KT 10SM BKN090 OVC110 02/M08 A3030 4030 49 3400 110/03 RMK AO2 T00171078 TSNO
94299KAAT AAT20161202160512512/02/16 16:05:31  5-MIN KAAT 030005Z AUTO 00000KT 10SM BKN085 OVC110 02/M07 A3030 4030 52 3400 000/00 RMK AO2 T00171072 TSNO
94299KAAT AAT20161202161012512/02/16 16:10:31  5-MIN KAAT 030010Z AUTO 11003KT 10SM SCT085 OVC100 02/M07 A3030 4030 52 3400 090/03 RMK AO2 T00171072 TSNO
94299KAAT AAT20161202161512512/02/16 16:15:31  5-MIN KAAT 030015Z AUTO 11004KT 10SM BKN080 OVC100 02/M07 A3029 4040 52 3400 100/04 RMK AO2 T00171072 TSNO
94299KAAT AAT20161202162012512/02/16 16:20:31  5-MIN KAAT 030020Z AUTO 00000KT 10SM BKN080 OVC100 02/M07 A3030 4030 52 3400 000/00 RMK AO2 T00171072 TSNO
94299KAAT AAT20161202162512512/02/16 16:25:31  5-MIN KAAT 030025Z AUTO 00000KT 10SM SCT080 OVC110 02/M07 A3031 4030 52 3400 000/00 RMK AO2 T00171072 TSNO
94299KAAT AAT20161202163012512/02/16 16:30:31  5-MIN KAAT 030030Z AUTO 09003KT 10SM SCT080 OVC110 02/M07 A3031 4030 52 3400 070/03 RMK AO2 T00171072 TSNO
94299KAAT AAT20161202163512512/02/16 16:35:31  5-MIN KAAT 030035Z AUTO 00000KT 10SM FEW080 OVC100 01/M07 A3031 4020 54 3300 000/00 RMK AO2 T00111072 TSNO
94299KAAT AAT20161202164013212/02/16 16:40:31  5-MIN KAAT 030040Z AUTO 00000KT 10SM SCT075 BKN090 OVC110 01/M07 A3031 4020 54 3300 000/00 RMK AO2 T00111072 TSNO
94299KAAT AAT20161202164513212/02/16 16:45:31  5-MIN KAAT 030045Z AUTO 00000KT 10SM FEW075 BKN090 OVC110 01/M07 A3031 4020 54 3400 000/00 RMK AO2 T00111072 TSNO
94299KAAT AAT20161202165013912/02/16 16:50:31  5-MIN KAAT 030050Z AUTO 00000KT 10SM FEW075 BKN090 OVC110 01/M07 A3031 4020 54 3300 000/00 RMK AO2 SLP296 T00111072 TSNO
94299KAAT AAT20161202165513912/02/16 16:55:31  5-MIN KAAT 030055Z AUTO 00000KT 10SM FEW075 BKN090 OVC110 01/M07 A3031 4020 58 3300 000/00 RMK AO2 SLP298 T00061067 TSNO
94299KAAT AAT20161202170013212/02/16 17:00:31  5-MIN KAAT 030100Z AUTO 00000KT 10SM FEW055 FEW075 OVC090 01/M06 A3031 4020 63 3300 000/00 RMK AO2 T00061056 TSNO
94299KAAT AAT20161202170513212/02/16 17:05:31  5-MIN KAAT 030105Z AUTO 00000KT 10SM SCT055 SCT070 OVC090 01/M07 A3032 4020 56 3300 000/00 RMK AO2 T00111067 TSNO
94299KAAT AAT20161202171013212/02/16 17:10:31  5-MIN KAAT 030110Z AUTO 11003KT 10SM SCT055 BKN070 OVC090 01/M07 A3032 4020 56 3300 100/03 RMK AO2 T00111067 TSNO
94299KAAT AAT20161202171513212/02/16 17:15:31  5-MIN KAAT 030115Z AUTO 00000KT 10SM FEW055 BKN070 OVC090 01/M07 A3032 4010 56 3300 000/00 RMK AO2 T00111067 TSNO
94299KAAT AAT20161202172013212/02/16 17:20:31  5-MIN KAAT 030120Z AUTO 00000KT 10SM FEW055 BKN070 OVC090 01/M06 A3032 4010 61 3300 000/00 RMK AO2 T00061061 TSNO
94299KAAT AAT20161202172513112/02/16 17:25:31  5-MIN KAAT 030125Z AUTO 12003KT 9SM FEW055 BKN070 OVC085 01/M07 A3031 4020 56 3300 100/03 RMK AO2 T00111067 TSNO
94299KAAT AAT20161202173013112/02/16 17:30:31  5-MIN KAAT 030130Z AUTO 11003KT 9SM FEW050 BKN070 OVC090 01/M06 A3031 4030 58 3400 100/03 RMK AO2 T00111061 TSNO
94299KAAT AAT20161202173512412/02/16 17:35:31  5-MIN KAAT 030135Z AUTO 11003KT 8SM SCT070 OVC090 01/M06 A3031 4030 58 3400 100/03 RMK AO2 T00111061 TSNO
94299KAAT AAT20161202174012412/02/16 17:40:31  5-MIN KAAT 030140Z AUTO 00000KT 7SM SCT065 OVC085 01/M06 A3030 4030 58 3400 000/00 RMK AO2 T00111061 TSNO
94299KAAT AAT20161202174512412/02/16 17:45:31  5-MIN KAAT 030145Z AUTO 00000KT 8SM SCT065 OVC085 01/M06 A3031 4030 58 3400 000/00 RMK AO2 T00111061 TSNO
94299KAAT AAT20161202175013112/02/16 17:50:31  5-MIN KAAT 030150Z AUTO 00000KT 9SM SCT065 OVC085 01/M06 A3030 4030 58 3400 000/00 RMK AO2 SLP296 T00111061 TSNO
94299KAAT AAT20161202175513212/02/16 17:55:31  5-MIN KAAT 030155Z AUTO 00000KT 10SM BKN070 OVC085 01/M06 A3030 4030 58 3400 000/00 RMK AO2 SLP294 T00111061 TSNO
94299KAAT AAT20161202180012512/02/16 18:00:31  5-MIN KAAT 030200Z AUTO 00000KT 10SM BKN075 OVC085 01/M05 A3030 4030 66 3300 000/00 RMK AO2 T00061050 TSNO
94299KAAT AAT20161202180512512/02/16 18:05:31  5-MIN KAAT 030205Z AUTO 00000KT 10SM BKN075 OVC085 01/M05 A3030 4030 66 3300 000/00 RMK AO2 T00061050 TSNO
94299KAAT AAT20161202181012512/02/16 18:10:31  5-MIN KAAT 030210Z AUTO 00000KT 10SM SCT060 OVC080 01/M05 A3030 4030 66 3300 000/00 RMK AO2 T00061050 TSNO
94299KAAT AAT20161202181512512/02/16 18:15:31  5-MIN KAAT 030215Z AUTO 00000KT 10SM BKN060 OVC075 01/M04 A3030 4030 69 3300 000/00 RMK AO2 T00061044 TSNO
94299KAAT AAT20161202182012512/02/16 18:20:31  5-MIN KAAT 030220Z AUTO 00000KT 10SM BKN060 OVC075 00/M04 A3029 4040 72 3200 000/00 RMK AO2 T00001044 TSNO
94299KAAT AAT20161202182512512/02/16 18:25:31  5-MIN KAAT 030225Z AUTO 00000KT 10SM BKN060 BKN080 00/M04 A3030 4030 72 3200 000/00 RMK AO2 T00001044 TSNO
94299KAAT AAT20161202183012612/02/16 18:30:31  5-MIN KAAT 030230Z AUTO 00000KT 10SM SCT055 BKN070 M01/M04 A3030 4030 75 3200 000/00 RMK AO2 T10061044 TSNO
94299KAAT AAT20161202183512612/02/16 18:35:31  5-MIN KAAT 030235Z AUTO 00000KT 10SM BKN060 BKN075 M01/M04 A3030 4030 75 3200 000/00 RMK AO2 T10061044 TSNO
94299KAAT AAT20161202184012512/02/16 18:40:31  5-MIN KAAT 030240Z AUTO 00000KT 10SM BKN060 BKN070 00/M04 A3031 4030 72 3200 000/00 RMK AO2 T00001044 TSNO
94299KAAT AAT20161202184512612/02/16 18:45:31  5-MIN KAAT 030245Z AUTO 00000KT 10SM BKN055 BKN070 M01/M04 A3030 4030 75 3200 000/00 RMK AO2 T10061044 TSNO
94299KAAT AAT20161202185014512/02/16 18:50:31  5-MIN KAAT 030250Z AUTO 00000KT 10SM BKN055 BKN070 BKN085 00/M04 A3030 4030 75 3200 000/00 RMK AO2 SLP295 T00001039 56006 TSNO
94299KAAT AAT20161202185514512/02/16 18:55:31  5-MIN KAAT 030255Z AUTO 00000KT 10SM SCT050 BKN065 OVC080 00/M04 A3030 4030 72 3200 000/00 RMK AO2 SLP295 T00001044 58000 TSNO
94299KAAT AAT20161202190012612/02/16 19:00:31  5-MIN KAAT 030300Z AUTO 00000KT 10SM BKN050 OVC070 M01/M04 A3029 4040 75 3200 000/00 RMK AO2 T10061044 TSNO
94299KAAT AAT20161202190512612/02/16 19:05:31  5-MIN KAAT 030305Z AUTO 00000KT 10SM SCT050 OVC070 M01/M04 A3030 4040 75 3200 000/00 RMK AO2 T10061044 TSNO
94299KAAT AAT20161202191012612/02/16 19:10:31  5-MIN KAAT 030310Z AUTO 00000KT 10SM SCT050 OVC070 M01/M04 A3030 4030 75 3200 000/00 RMK AO2 T10061044 TSNO
94299KAAT AAT20161202191512612/02/16 19:15:31  5-MIN KAAT 030315Z AUTO 00000KT 10SM FEW050 OVC065 M01/M04 A3030 4030 75 3200 000/00 RMK AO2 T10061044 TSNO
94299KAAT AAT20161202192012612/02/16 19:20:31  5-MIN KAAT 030320Z AUTO 00000KT 10SM FEW050 OVC065 M01/M04 A3030 4030 75 3200 000/00 RMK AO2 T10061044 TSNO
94299KAAT AAT20161202192512612/02/16 19:25:31  5-MIN KAAT 030325Z AUTO 00000KT 10SM FEW049 OVC065 M01/M04 A3029 4040 75 3200 000/00 RMK AO2 T10061044 TSNO
94299KAAT AAT20161202193011812/02/16 19:30:31  5-MIN KAAT 030330Z AUTO 00000KT 10SM OVC060 00/M04 A3029 4040 72 3200 000/00 RMK AO2 T00001044 TSNO
94299KAAT AAT20161202193511912/02/16 19:35:31  5-MIN KAAT 030335Z AUTO 00000KT 10SM OVC060 M01/M04 A3028 4050 78 3200 000/00 RMK AO2 T10061039 TSNO
94299KAAT AAT20161202194011912/02/16 19:40:31  5-MIN KAAT 030340Z AUTO 00000KT 10SM OVC060 M01/M04 A3028 4050 78 3200 000/00 RMK AO2 T10061039 TSNO
94299KAAT AAT20161202194512612/02/16 19:45:31  5-MIN KAAT 030345Z AUTO 00000KT 10SM SCT055 OVC070 M01/M04 A3029 4050 75 3200 000/00 RMK AO2 T10061044 TSNO
94299KAAT AAT20161202195013312/02/16 19:50:31  5-MIN KAAT 030350Z AUTO 00000KT 10SM SCT055 BKN070 M01/M04 A3029 4040 78 3100 000/00 RMK AO2 SLP293 T10111044 TSNO
94299KAAT AAT20161202195512612/02/16 19:55:31  5-MIN KAAT 030355Z AUTO 00000KT 10SM SCT065 M01/M04 A3029 4040 78 3100 000/00 RMK AO2 SLP293 T10111044 TSNO
94299KAAT AAT20161202200011912/02/16 20:00:31  5-MIN KAAT 030400Z AUTO 00000KT 10SM SCT070 M01/M04 A3029 4040 78 3100 000/00 RMK AO2 T10111044 TSNO
94299KAAT AAT20161202200511912/02/16 20:05:31  5-MIN KAAT 030405Z AUTO 00000KT 10SM FEW070 M01/M04 A3029 4040 78 3100 000/00 RMK AO2 T10111044 TSNO
94299KAAT AAT20161202201011912/02/16 20:10:31  5-MIN KAAT 030410Z AUTO 00000KT 10SM FEW070 M02/M05 A3030 4040 81 3000 000/00 RMK AO2 T10221050 TSNO
94299KAAT AAT20161202201511612/02/16 20:15:31  5-MIN KAAT 030415Z AUTO 00000KT 10SM CLR M02/M04 A3029 4040 81 3000 000/00 RMK AO2 T10171044 TSNO
94299KAAT AAT20161202202011912/02/16 20:20:31  5-MIN KAAT 030420Z AUTO 34003KT 10SM FEW042 M02/M04 A3030 4030 81 3000 320/03 RMK AO2 T10171044 TSNO
94299KAAT AAT20161202202511912/02/16 20:25:31  5-MIN KAAT 030425Z AUTO 00000KT 10SM SCT042 M02/M04 A3029 4040 81 3000 000/00 RMK AO2 T10171044 TSNO
94299KAAT AAT20161202203011812/02/16 20:30:31  5-MIN KAAT 030430Z AUTO 00000KT 8SM BKN038 M02/M04 A3029 4040 81 3000 000/00 RMK AO2 T10171044 TSNO
94299KAAT AAT20161202203512812/02/16 20:35:31  5-MIN KAAT 030435Z AUTO 00000KT 6SM HZ SCT035 BKN042 M02/M04 A3028 4050 81 3000 000/00 RMK AO2 T10171044 TSNO
94299KAAT AAT20161202204012812/02/16 20:40:31  5-MIN KAAT 030440Z AUTO 13003KT 5SM HZ SCT035 BKN042 M02/M04 A3028 4050 81 3000 110/03 RMK AO2 T10171044 TSNO
94299KAAT AAT20161202204512812/02/16 20:45:31  5-MIN KAAT 030445Z AUTO 13003KT 4SM HZ FEW034 SCT042 M02/M05 A3028 4050 81 3000 120/03 RMK AO2 T10221050 TSNO
94299KAAT AAT20161202205012812/02/16 20:50:31  5-MIN KAAT 030450Z AUTO 00000KT 5SM HZ SCT036 M02/M05 A3029 4050 81 3000 000/00 RMK AO2 SLP287 T10221050 TSNO
94299KAAT AAT20161202205512812/02/16 20:55:31  5-MIN KAAT 030455Z AUTO 00000KT 4SM HZ BKN034 M02/M05 A3028 4050 81 3000 000/00 RMK AO2 SLP287 T10221050 TSNO
94299KAAT AAT20161202210012112/02/16 21:00:31  5-MIN KAAT 030500Z AUTO 00000KT 3SM HZ BKN034 M02/M05 A3028 4050 81 3000 000/00 RMK AO2 T10221050 TSNO
94299KAAT AAT20161202210512112/02/16 21:05:31  5-MIN KAAT 030505Z AUTO 00000KT 3SM HZ BKN034 M02/M04 A3029 4050 81 3000 000/00 RMK AO2 T10171044 TSNO
94299KAAT AAT20161202211012112/02/16 21:10:31  5-MIN KAAT 030510Z AUTO 00000KT 3SM HZ BKN034 M02/M05 A3029 4040 81 3000 000/00 RMK AO2 T10221050 TSNO
94299KAAT AAT20161202211512112/02/16 21:15:31  5-MIN KAAT 030515Z AUTO 00000KT 4SM BR SCT034 M03/M06 A3029 4040 85 2800 000/00 RMK AO2 T10331056 TSNO
94299KAAT AAT20161202212012112/02/16 21:20:31  5-MIN KAAT 030520Z AUTO 00000KT 5SM BR SCT034 M03/M06 A3029 4050 85 2800 000/00 RMK AO2 T10331056 TSNO
94299KAAT AAT20161202212511812/02/16 21:25:31  5-MIN KAAT 030525Z AUTO 00000KT 9SM SCT034 M03/M05 A3029 4040 88 2800 000/00 RMK AO2 T10331050 TSNO
94299KAAT AAT20161202213011912/02/16 21:30:31  5-MIN KAAT 030530Z AUTO 00000KT 10SM SCT034 M03/M05 A3029 4040 88 2800 000/00 RMK AO2 T10331050 TSNO
94299KAAT AAT20161202213511912/02/16 21:35:31  5-MIN KAAT 030535Z AUTO 00000KT 10SM SCT034 M03/M04 A3029 4040 88 2900 000/00 RMK AO2 T10281044 TSNO
94299KAAT AAT20161202214011912/02/16 21:40:31  5-MIN KAAT 030540Z AUTO 33003KT 10SM SCT034 M03/M04 A3030 4030 88 2900 320/03 RMK AO2 T10281044 TSNO
94299KAAT AAT20161202214511912/02/16 21:45:31  5-MIN KAAT 030545Z AUTO 36003KT 10SM BKN034 M03/M04 A3030 4030 88 2900 340/03 RMK AO2 T10281044 TSNO
94299KAAT AAT20161202215014312/02/16 21:50:31  5-MIN KAAT 030550Z AUTO 00000KT 7SM BKN035 M02/M04 A3030 4030 85 3000 000/00 RMK AO2 SLP288 T10221044 10017 21033 58000 TSNO
94299KAAT AAT20161202215514612/02/16 21:55:31  5-MIN KAAT 030555Z AUTO 00000KT 5SM HZ BKN035 M02/M04 A3030 4030 81 3000 000/00 RMK AO2 SLP287 T10171044 10017 21033 55000 TSNO
94299KAAT AAT20161202220012112/02/16 22:00:31  5-MIN KAAT 030600Z AUTO 00000KT 4SM HZ OVC035 M02/M04 A3030 4030 81 3000 000/00 RMK AO2 T10171044 TSNO
94299KAAT AAT20161202220512112/02/16 22:05:31  5-MIN KAAT 030605Z AUTO 03003KT 4SM HZ OVC035 M01/M04 A3030 4030 78 3100 020/03 RMK AO2 T10111044 TSNO
94299KAAT AAT20161202221012112/02/16 22:10:31  5-MIN KAAT 030610Z AUTO 00000KT 5SM HZ OVC035 M01/M04 A3031 4020 78 3100 000/00 RMK AO2 T10111044 TSNO
94299KAAT AAT20161202221512112/02/16 22:15:31  5-MIN KAAT 030615Z AUTO 00000KT 6SM HZ OVC035 M01/M04 A3031 4030 78 3100 000/00 RMK AO2 T10111044 TSNO
94299KAAT AAT20161202222012112/02/16 22:20:31  5-MIN KAAT 030620Z AUTO 12003KT 5SM HZ OVC035 M01/M04 A3030 4030 78 3100 110/03 RMK AO2 T10111044 TSNO
94299KAAT AAT20161202222512112/02/16 22:25:31  5-MIN KAAT 030625Z AUTO 12004KT 4SM HZ OVC035 M01/M04 A3030 4030 75 3200 100/04 RMK AO2 T10061044 TSNO
94299KAAT AAT20161202223012112/02/16 22:30:31  5-MIN KAAT 030630Z AUTO 10003KT 3SM HZ OVC033 M01/M05 A3031 4030 72 3100 090/03 RMK AO2 T10061050 TSNO
94299KAAT AAT20161202223512112/02/16 22:35:31  5-MIN KAAT 030635Z AUTO 08003KT 4SM HZ OVC033 M01/M04 A3031 4020 75 3100 060/03 RMK AO2 T10061044 TSNO
94299KAAT AAT20161202224012112/02/16 22:40:31  5-MIN KAAT 030640Z AUTO 00000KT 6SM HZ OVC033 M01/M04 A3031 4030 75 3200 000/00 RMK AO2 T10061044 TSNO
94299KAAT AAT20161202224511812/02/16 22:45:31  5-MIN KAAT 030645Z AUTO 00000KT 7SM OVC033 M01/M04 A3031 4030 81 3100 000/00 RMK AO2 T10111039 TSNO
94299KAAT AAT20161202225012812/02/16 22:50:31  5-MIN KAAT 030650Z AUTO 00000KT 5SM HZ OVC033 M01/M04 A3031 4030 81 3100 000/00 RMK AO2 SLP285 T10111039 TSNO
94299KAAT AAT20161202225512812/02/16 22:55:31  5-MIN KAAT 030655Z AUTO 00000KT 5SM HZ OVC033 M01/M04 A3030 4030 81 3100 000/00 RMK AO2 SLP285 T10111039 TSNO
94299KAAT AAT20161202230012112/02/16 23:00:31  5-MIN KAAT 030700Z AUTO 00000KT 5SM HZ OVC033 M01/M04 A3030 4030 81 3100 000/00 RMK AO2 T10111039 TSNO
94299KAAT AAT20161202230511812/02/16 23:05:31  5-MIN KAAT 030705Z AUTO 08003KT 8SM OVC033 M01/M04 A3030 4030 78 3200 070/03 RMK AO2 T10061039 TSNO
94299KAAT AAT20161202231011812/02/16 23:10:31  5-MIN KAAT 030710Z AUTO 09003KT 10SM OVC033 00/M04 A3030 4030 72 3200 070/03 RMK AO2 T00001044 TSNO
94299KAAT AAT20161202231511812/02/16 23:15:31  5-MIN KAAT 030715Z AUTO 00000KT 10SM OVC033 00/M04 A3030 4040 72 3200 000/00 RMK AO2 T00001044 TSNO
94299KAAT AAT20161202232011812/02/16 23:20:31  5-MIN KAAT 030720Z AUTO 00000KT 8SM OVC032 M01/M04 A3029 4040 75 3200 000/00 RMK AO2 T10061044 TSNO
94299KAAT AAT20161202232511812/02/16 23:25:31  5-MIN KAAT 030725Z AUTO 00000KT 7SM OVC032 M01/M04 A3030 4040 78 3200 000/00 RMK AO2 T10061039 TSNO
94299KAAT AAT20161202233011812/02/16 23:30:31  5-MIN KAAT 030730Z AUTO 00000KT 8SM OVC030 M01/M04 A3030 4040 81 3100 000/00 RMK AO2 T10111039 TSNO
94299KAAT AAT20161202233511812/02/16 23:35:31  5-MIN KAAT 030735Z AUTO 00000KT 9SM OVC030 M01/M03 A3029 4040 85 3100 000/00 RMK AO2 T10111033 TSNO
94299KAAT AAT20161202234011812/02/16 23:40:31  5-MIN KAAT 030740Z AUTO 00000KT 9SM OVC030 M01/M03 A3029 4040 85 3100 000/00 RMK AO2 T10111033 TSNO
94299KAAT AAT20161202234511812/02/16 23:45:31  5-MIN KAAT 030745Z AUTO 00000KT 9SM OVC030 M01/M03 A3029 4040 85 3100 000/00 RMK AO2 T10111033 TSNO
94299KAAT AAT20161202235013512/02/16 23:50:31  5-MIN KAAT 030750Z AUTO 00000KT 9SM OVC030 M01/M04 A3029 4040 78 3200 000/00 RMK AO2 SLP275 T10061039 400331106 TSNO
94299KAAT AAT20161202235513512/02/16 23:55:31  5-MIN KAAT 030755Z AUTO 00000KT 8SM OVC030 M01/M04 A3029 4040 78 3200 000/00 RMK AO2 SLP276 T10061039 400331106 TSNO
94299KAAT AAT20161203000011812/03/16 00:00:31  5-MIN KAAT 030800Z AUTO 32003KT 7SM OVC030 M01/M04 A3029 4040 81 3100 310/03 RMK AO2 T10111039 TSNO
94299KAAT AAT20161203000511812/03/16 00:05:31  5-MIN KAAT 030805Z AUTO 00000KT 8SM OVC030 M01/M04 A3029 4040 78 3200 000/00 RMK AO2 T10061039 TSNO
94299KAAT AAT20161203001011812/03/16 00:10:31  5-MIN KAAT 030810Z AUTO 00000KT 8SM OVC030 M01/M04 A3029 4040 78 3200 000/00 RMK AO2 T10061039 TSNO
94299KAAT AAT20161203001511812/03/16 00:15:31  5-MIN KAAT 030815Z AUTO 00000KT 8SM OVC030 M01/M04 A3030 4040 81 3100 000/00 RMK AO2 T10111039 TSNO
94299KAAT AAT20161203002011812/03/16 00:20:31  5-MIN KAAT 030820Z AUTO 00000KT 9SM OVC030 M01/M04 A3030 4040 81 3100 000/00 RMK AO2 T10111039 TSNO
94299KAAT AAT20161203002511912/03/16 00:25:31  5-MIN KAAT 030825Z AUTO 00000KT 10SM OVC031 M01/M04 A3029 4040 78 3200 000/00 RMK AO2 T10061039 TSNO
94299KAAT AAT20161203003011912/03/16 00:30:31  5-MIN KAAT 030830Z AUTO 00000KT 10SM OVC031 M01/M04 A3029 4040 78 3200 000/00 RMK AO2 T10061039 TSNO
94299KAAT AAT20161203003511912/03/16 00:35:31  5-MIN KAAT 030835Z AUTO 00000KT 10SM OVC031 M01/M04 A3029 4040 75 3200 000/00 RMK AO2 T10061044 TSNO
94299KAAT AAT20161203004011912/03/16 00:40:31  5-MIN KAAT 030840Z AUTO 00000KT 10SM OVC031 M01/M04 A3029 4040 75 3200 000/00 RMK AO2 T10061044 TSNO
94299KAAT AAT20161203004511912/03/16 00:45:31  5-MIN KAAT 030845Z AUTO 00000KT 10SM OVC032 M01/M04 A3030 4030 75 3200 000/00 RMK AO2 T10061044 TSNO
94299KAAT AAT20161203005013212/03/16 00:50:31  5-MIN KAAT 030850Z AUTO 34003KT 10SM OVC032 M01/M04 A3030 4030 78 3200 330/03 RMK AO2 SLP278 T10061039 55000 TSNO
94299KAAT AAT20161203005513212/03/16 00:55:31  5-MIN KAAT 030855Z AUTO 35004KT 10SM OVC032 M01/M04 A3030 4030 75 3200 340/04 RMK AO2 SLP278 T10061044 55000 TSNO
94299KAAT AAT20161203010011812/03/16 01:00:31  5-MIN KAAT 030900Z AUTO 00000KT 9SM OVC033 M01/M04 A3030 4040 75 3200 000/00 RMK AO2 T10061044 TSNO
94299KAAT AAT20161203010511712/03/16 01:05:31  5-MIN KAAT 030905Z AUTO 00000KT 8SM OVC033 00/M05 A3030 4030 69 3200 000/00 RMK AO2 T00001050 TSNO
94299KAAT AAT20161203011011812/03/16 01:10:31  5-MIN KAAT 030910Z AUTO 00000KT 9SM OVC033 M01/M04 A3030 4030 75 3200 000/00 RMK AO2 T10061044 TSNO
94299KAAT AAT20161203011511812/03/16 01:15:31  5-MIN KAAT 030915Z AUTO 00000KT 9SM OVC032 M01/M03 A3029 4040 81 3200 000/00 RMK AO2 T10061033 TSNO
94299KAAT AAT20161203012011912/03/16 01:20:31  5-MIN KAAT 030920Z AUTO 00000KT 10SM OVC032 M01/M03 A3029 4040 81 3200 000/00 RMK AO2 T10061033 TSNO
94299KAAT AAT20161203012511912/03/16 01:25:31  5-MIN KAAT 030925Z AUTO 00000KT 10SM OVC032 M01/M03 A3029 4040 85 3100 000/00 RMK AO2 T10111033 TSNO
94299KAAT AAT20161203013011912/03/16 01:30:31  5-MIN KAAT 030930Z AUTO 14003KT 10SM OVC032 M01/M03 A3029 4040 85 3100 130/03 RMK AO2 T10111033 TSNO
94299KAAT AAT20161203013511912/03/16 01:35:31  5-MIN KAAT 030935Z AUTO 00000KT 10SM OVC030 M01/M04 A3029 4040 81 3100 000/00 RMK AO2 T10111039 TSNO
94299KAAT AAT20161203014011912/03/16 01:40:31  5-MIN KAAT 030940Z AUTO 00000KT 10SM OVC030 M01/M04 A3029 4040 81 3100 000/00 RMK AO2 T10111039 TSNO
94299KAAT AAT20161203014511912/03/16 01:45:31  5-MIN KAAT 030945Z AUTO 00000KT 10SM OVC028 M01/M03 A3030 4040 81 3200 000/00 RMK AO2 T10061033 TSNO
94299KAAT AAT20161203015010912/03/16 01:50:31  5-MIN KAAT 030950Z AUTO 00000KT 10SM OVC028 M01/M03 A3030 4030 85 3100 000/00 RMK AO2 TSNO
94299KAAT AAT20161203015512612/03/16 01:55:31  5-MIN KAAT 030955Z AUTO 00000KT 10SM OVC028 M01/M03 A3030 4030 85 3100 000/00 RMK AO2 SLP274 T10111033 TSNO
94299KAAT AAT20161203020011912/03/16 02:00:31  5-MIN KAAT 031000Z AUTO 00000KT 10SM OVC028 M01/M03 A3030 4030 85 3100 000/00 RMK AO2 T10111033 TSNO
94299KAAT AAT20161203020511912/03/16 02:05:31  5-MIN KAAT 031005Z AUTO 00000KT 10SM OVC026 M01/M03 A3030 4030 85 3100 000/00 RMK AO2 T10111033 TSNO
94299KAAT AAT20161203021011912/03/16 02:10:31  5-MIN KAAT 031010Z AUTO 00000KT 10SM OVC026 M01/M03 A3031 4030 81 3200 000/00 RMK AO2 T10061033 TSNO
94299KAAT AAT20161203021511912/03/16 02:15:31  5-MIN KAAT 031015Z AUTO 00000KT 10SM OVC024 M01/M03 A3031 4020 81 3100 000/00 RMK AO2 T10061033 TSNO
94299KAAT AAT20161203022011912/03/16 02:20:31  5-MIN KAAT 031020Z AUTO 00000KT 10SM OVC024 M01/M03 A3030 4030 81 3200 000/00 RMK AO2 T10061033 TSNO
94299KAAT AAT20161203022511912/03/16 02:25:31  5-MIN KAAT 031025Z AUTO 00000KT 10SM OVC024 M01/M03 A3031 4030 81 3100 000/00 RMK AO2 T10061033 TSNO
94299KAAT AAT20161203023011912/03/16 02:30:31  5-MIN KAAT 031030Z AUTO 00000KT 10SM OVC024 M01/M03 A3031 4020 81 3100 000/00 RMK AO2 T10061033 TSNO
94299KAAT AAT20161203023511912/03/16 02:35:31  5-MIN KAAT 031035Z AUTO 00000KT 10SM OVC024 M01/M03 A3031 4020 81 3100 000/00 RMK AO2 T10061033 TSNO
94299KAAT AAT20161203024011912/03/16 02:40:31  5-MIN KAAT 031040Z AUTO 00000KT 10SM OVC023 M01/M03 A3031 4020 81 3100 000/00 RMK AO2 T10061033 TSNO
94299KAAT AAT20161203024511912/03/16 02:45:31  5-MIN KAAT 031045Z AUTO 00000KT 10SM OVC023 M01/M03 A3031 4020 81 3100 000/00 RMK AO2 T10061033 TSNO
94299KAAT AAT20161203025012612/03/16 02:50:31  5-MIN KAAT 031050Z AUTO 00000KT 10SM OVC023 M01/M03 A3031 4020 81 3100 000/00 RMK AO2 SLP278 T10061033 TSNO
94299KAAT AAT20161203025512612/03/16 02:55:31  5-MIN KAAT 031055Z AUTO 00000KT 10SM OVC023 M01/M03 A3031 4020 81 3100 000/00 RMK AO2 SLP279 T10061033 TSNO
94299KAAT AAT20161203030011912/03/16 03:00:31  5-MIN KAAT 031100Z AUTO 00000KT 10SM OVC023 M01/M03 A3031 4030 81 3100 000/00 RMK AO2 T10061033 TSNO
94299KAAT AAT20161203030511912/03/16 03:05:31  5-MIN KAAT 031105Z AUTO 00000KT 10SM OVC023 M01/M03 A3031 4020 85 3100 000/00 RMK AO2 T10061028 TSNO
94299KAAT AAT20161203031011912/03/16 03:10:31  5-MIN KAAT 031110Z AUTO 00000KT 10SM OVC022 M01/M03 A3031 4030 81 3100 000/00 RMK AO2 T10061033 TSNO
94299KAAT AAT20161203031511912/03/16 03:15:31  5-MIN KAAT 031115Z AUTO 00000KT 10SM OVC022 M01/M03 A3031 4020 81 3100 000/00 RMK AO2 T10061033 TSNO
94299KAAT AAT20161203032011912/03/16 03:20:31  5-MIN KAAT 031120Z AUTO 00000KT 10SM OVC022 M01/M03 A3031 4030 81 3200 000/00 RMK AO2 T10061033 TSNO
94299KAAT AAT20161203032511912/03/16 03:25:31  5-MIN KAAT 031125Z AUTO 00000KT 10SM OVC022 M01/M03 A3031 4030 85 3200 000/00 RMK AO2 T10061028 TSNO
94299KAAT AAT20161203033011912/03/16 03:30:31  5-MIN KAAT 031130Z AUTO 00000KT 10SM OVC021 M01/M03 A3030 4030 85 3200 000/00 RMK AO2 T10061028 TSNO
94299KAAT AAT20161203033511912/03/16 03:35:31  5-MIN KAAT 031135Z AUTO 00000KT 10SM OVC021 M01/M03 A3030 4030 85 3200 000/00 RMK AO2 T10061028 TSNO
94299KAAT AAT20161203034011912/03/16 03:40:31  5-MIN KAAT 031140Z AUTO 00000KT 10SM OVC021 M01/M03 A3030 4030 81 3200 000/00 RMK AO2 T10061033 TSNO
94299KAAT AAT20161203034511912/03/16 03:45:31  5-MIN KAAT 031145Z AUTO 00000KT 10SM OVC021 M01/M03 A3030 4030 85 3200 000/00 RMK AO2 T10061028 TSNO
94299KAAT AAT20161203035014412/03/16 03:50:31  5-MIN KAAT 031150Z AUTO 00000KT 10SM OVC021 M01/M03 A3030 4030 81 3200 000/00 RMK AO2 SLP276 T10061033 10000 21017 55000 TSNO
94299KAAT AAT20161203035514412/03/16 03:55:31  5-MIN KAAT 031155Z AUTO 00000KT 10SM OVC020 M01/M03 A3030 4030 81 3200 000/00 RMK AO2 SLP279 T10061033 10000 21017 50002 TSNO
94299KAAT AAT20161203040011912/03/16 04:00:31  5-MIN KAAT 031200Z AUTO 00000KT 10SM OVC020 M01/M03 A3031 4030 81 3200 000/00 RMK AO2 T10061033 TSNO
94299KAAT AAT20161203040511912/03/16 04:05:31  5-MIN KAAT 031205Z AUTO 31003KT 10SM OVC020 M01/M03 A3031 4020 81 3100 290/03 RMK AO2 T10061033 TSNO
94299KAAT AAT20161203041011912/03/16 04:10:31  5-MIN KAAT 031210Z AUTO 29003KT 10SM OVC020 M01/M03 A3031 4030 81 3100 270/03 RMK AO2 T10061033 TSNO
94299KAAT AAT20161203041511912/03/16 04:15:31  5-MIN KAAT 031215Z AUTO 00000KT 10SM OVC020 M01/M03 A3031 4020 81 3100 000/00 RMK AO2 T10061033 TSNO
94299KAAT AAT20161203042011912/03/16 04:20:31  5-MIN KAAT 031220Z AUTO 00000KT 10SM OVC019 M01/M03 A3031 4030 81 3100 000/00 RMK AO2 T10061033 TSNO
94299KAAT AAT20161203042511812/03/16 04:25:31  5-MIN KAAT 031225Z AUTO 00000KT 10SM OVC019 00/M03 A3031 4030 78 3200 000/00 RMK AO2 T00001033 TSNO
94299KAAT AAT20161203043011912/03/16 04:30:31  5-MIN KAAT 031230Z AUTO 00000KT 10SM OVC018 M01/M03 A3031 4020 81 3100 000/00 RMK AO2 T10061033 TSNO
94299KAAT AAT20161203043511812/03/16 04:35:31  5-MIN KAAT 031235Z AUTO 00000KT 10SM OVC018 00/M03 A3031 4020 78 3200 000/00 RMK AO2 T00001033 TSNO
94299KAAT AAT20161203044011912/03/16 04:40:31  5-MIN KAAT 031240Z AUTO 00000KT 10SM OVC018 M01/M03 A3031 4020 81 3100 000/00 RMK AO2 T10061033 TSNO
94299KAAT AAT20161203044511812/03/16 04:45:31  5-MIN KAAT 031245Z AUTO 00000KT 10SM OVC018 00/M03 A3031 4020 78 3200 000/00 RMK AO2 T00001033 TSNO
94299KAAT AAT20161203045012512/03/16 04:50:31  5-MIN KAAT 031250Z AUTO 00000KT 10SM OVC018 00/M03 A3031 4020 78 3200 000/00 RMK AO2 SLP281 T00001033 TSNO
94299KAAT AAT20161203045512512/03/16 04:55:31  5-MIN KAAT 031255Z AUTO 00000KT 10SM OVC018 00/M03 A3032 4020 78 3200 000/00 RMK AO2 SLP283 T00001033 TSNO
94299KAAT AAT20161203050011812/03/16 05:00:31  5-MIN KAAT 031300Z AUTO 00000KT 10SM OVC018 00/M03 A3032 4020 78 3200 000/00 RMK AO2 T00001033 TSNO
94299KAAT AAT20161203050511812/03/16 05:05:31  5-MIN KAAT 031305Z AUTO 00000KT 10SM OVC018 00/M03 A3032 4020 78 3200 000/00 RMK AO2 T00001033 TSNO
94299KAAT AAT20161203051011812/03/16 05:10:31  5-MIN KAAT 031310Z AUTO 00000KT 10SM OVC018 00/M03 A3031 4020 78 3200 000/00 RMK AO2 T00001033 TSNO
94299KAAT AAT20161203051511812/03/16 05:15:31  5-MIN KAAT 031315Z AUTO 00000KT 10SM OVC018 00/M03 A3031 4020 78 3200 000/00 RMK AO2 T00001033 TSNO
94299KAAT AAT20161203052011812/03/16 05:20:31  5-MIN KAAT 031320Z AUTO 00000KT 10SM OVC018 00/M03 A3032 4010 78 3200 000/00 RMK AO2 T00001033 TSNO
94299KAAT AAT20161203052511812/03/16 05:25:31  5-MIN KAAT 031325Z AUTO 00000KT 10SM OVC018 00/M03 A3032 4010 78 3200 000/00 RMK AO2 T00001033 TSNO
94299KAAT AAT20161203053011812/03/16 05:30:31  5-MIN KAAT 031330Z AUTO 00000KT 10SM OVC018 00/M03 A3032 4010 78 3200 000/00 RMK AO2 T00001033 TSNO
94299KAAT AAT20161203053511812/03/16 05:35:31  5-MIN KAAT 031335Z AUTO 00000KT 10SM OVC016 00/M03 A3032 4010 78 3200 000/00 RMK AO2 T00001033 TSNO
94299KAAT AAT20161203054011812/03/16 05:40:31  5-MIN KAAT 031340Z AUTO 00000KT 10SM OVC016 00/M03 A3032 4010 78 3200 000/00 RMK AO2 T00001033 TSNO
94299KAAT AAT20161203054511812/03/16 05:45:31  5-MIN KAAT 031345Z AUTO 12003KT 10SM OVC016 00/M04 A3032 4020 75 3200 110/03 RMK AO2 T00001039 TSNO
94299KAAT AAT20161203055012512/03/16 05:50:31  5-MIN KAAT 031350Z AUTO 14003KT 10SM OVC018 00/M03 A3032 4020 78 3200 120/03 RMK AO2 SLP283 T00001033 TSNO
94299KAAT AAT20161203055512512/03/16 05:55:31  5-MIN KAAT 031355Z AUTO 00000KT 10SM OVC018 00/M03 A3032 4020 81 3200 000/00 RMK AO2 SLP284 T00001028 TSNO
94299KAAT AAT20161203060011812/03/16 06:00:31  5-MIN KAAT 031400Z AUTO 00000KT 10SM OVC018 00/M03 A3032 4010 81 3200 000/00 RMK AO2 T00001028 TSNO
94299KAAT AAT20161203060511812/03/16 06:05:31  5-MIN KAAT 031405Z AUTO 11003KT 10SM OVC018 00/M03 A3031 4020 78 3200 090/03 RMK AO2 T00001033 TSNO
94299KAAT AAT20161203061011812/03/16 06:10:31  5-MIN KAAT 031410Z AUTO 00000KT 10SM OVC018 00/M03 A3031 4020 78 3200 000/00 RMK AO2 T00001033 TSNO
94299KAAT AAT20161203061511812/03/16 06:15:31  5-MIN KAAT 031415Z AUTO 00000KT 10SM OVC018 00/M03 A3031 4020 78 3200 000/00 RMK AO2 T00001033 TSNO
94299KAAT AAT20161203062011812/03/16 06:20:31  5-MIN KAAT 031420Z AUTO 02003KT 10SM OVC018 00/M04 A3032 4020 75 3200 010/03 RMK AO2 T00001039 TSNO
94299KAAT AAT20161203062511812/03/16 06:25:31  5-MIN KAAT 031425Z AUTO 34003KT 10SM OVC018 00/M03 A3032 4020 78 3200 320/03 RMK AO2 T00001033 TSNO
94299KAAT AAT20161203063011812/03/16 06:30:31  5-MIN KAAT 031430Z AUTO 00000KT 10SM OVC018 00/M03 A3032 4010 78 3200 000/00 RMK AO2 T00001033 TSNO
94299KAAT AAT20161203063511812/03/16 06:35:31  5-MIN KAAT 031435Z AUTO 00000KT 10SM OVC018 00/M03 A3032 4010 78 3200 000/00 RMK AO2 T00001033 TSNO
94299KAAT AAT20161203064011812/03/16 06:40:31  5-MIN KAAT 031440Z AUTO 00000KT 10SM OVC018 00/M04 A3032 4010 75 3200 000/00 RMK AO2 T00001039 TSNO
94299KAAT AAT20161203064511812/03/16 06:45:31  5-MIN KAAT 031445Z AUTO 00000KT 10SM OVC018 00/M03 A3033 4010 78 3200 000/00 RMK AO2 T00001033 TSNO
94299KAAT AAT20161203065013112/03/16 06:50:31  5-MIN KAAT 031450Z AUTO 00000KT 10SM OVC019 00/M03 A3033 4010 78 3200 000/00 RMK AO2 SLP288 T00001033 50002 TSNO
94299KAAT AAT20161203065513112/03/16 06:55:31  5-MIN KAAT 031455Z AUTO 00000KT 10SM OVC019 00/M03 A3033 4010 78 3200 000/00 RMK AO2 SLP289 T00001033 52007 TSNO
94299KAAT AAT20161203070011812/03/16 07:00:31  5-MIN KAAT 031500Z AUTO 00000KT 10SM OVC019 00/M03 A3033 4010 78 3200 000/00 RMK AO2 T00001033 TSNO
94299KAAT AAT20161203070511812/03/16 07:05:31  5-MIN KAAT 031505Z AUTO 00000KT 10SM OVC020 00/M03 A3032 4010 78 3200 000/00 RMK AO2 T00001033 TSNO
94299KAAT AAT20161203071011812/03/16 07:10:31  5-MIN KAAT 031510Z AUTO 00000KT 10SM OVC020 00/M04 A3033 4010 75 3200 000/00 RMK AO2 T00001039 TSNO
94299KAAT AAT20161203071511812/03/16 07:15:31  5-MIN KAAT 031515Z AUTO 07003KT 10SM OVC020 00/M04 A3032 4010 75 3200 050/03 RMK AO2 T00001039 TSNO
94299KAAT AAT20161203072011812/03/16 07:20:31  5-MIN KAAT 031520Z AUTO 00000KT 10SM OVC021 00/M04 A3033 4010 72 3200 000/00 RMK AO2 T00001044 TSNO
94299KAAT AAT20161203072511812/03/16 07:25:31  5-MIN KAAT 031525Z AUTO 00000KT 10SM OVC021 00/M04 A3033 4010 75 3200 000/00 RMK AO2 T00001039 TSNO
94299KAAT AAT20161203073011812/03/16 07:30:31  5-MIN KAAT 031530Z AUTO 00000KT 10SM OVC021 00/M04 A3033 4000 75 3200 000/00 RMK AO2 T00001039 TSNO
94299KAAT AAT20161203073511812/03/16 07:35:31  5-MIN KAAT 031535Z AUTO 05003KT 10SM OVC021 00/M04 A3033 4000 75 3200 030/03 RMK AO2 T00001039 TSNO
94299KAAT AAT20161203074011712/03/16 07:40:31  5-MIN KAAT 031540Z AUTO 00000KT 9SM OVC022 00/M04 A3033 4000 75 3200 000/00 RMK AO2 T00001039 TSNO
94299KAAT AAT20161203074511712/03/16 07:45:31  5-MIN KAAT 031545Z AUTO 00000KT 9SM OVC022 00/M03 A3034 4000 78 3200 000/00 RMK AO2 T00001033 TSNO
94299KAAT AAT20161203075012412/03/16 07:50:31  5-MIN KAAT 031550Z AUTO 00000KT 9SM OVC022 01/M04 A3034 4000 72 3300 000/00 RMK AO2 SLP292 T00061039 TSNO
94299KAAT AAT20161203075512412/03/16 07:55:31  5-MIN KAAT 031555Z AUTO 00000KT 8SM OVC022 01/M04 A3034 4000 72 3300 000/00 RMK AO2 SLP292 T00061039 TSNO
94299KAAT AAT20161203080011712/03/16 08:00:31  5-MIN KAAT 031600Z AUTO 00000KT 9SM OVC022 01/M04 A3034 4000 72 3300 000/00 RMK AO2 T00061039 TSNO
94299KAAT AAT20161203080511812/03/16 08:05:31  5-MIN KAAT 031605Z AUTO 00000KT 10SM OVC022 01/M04 A3034 4000 72 3200 000/00 RMK AO2 T00061039 TSNO
94299KAAT AAT20161203081011812/03/16 08:10:31  5-MIN KAAT 031610Z AUTO 00000KT 10SM OVC022 01/M03 A3034 4000 75 3200 000/00 RMK AO2 T00061033 TSNO
94299KAAT AAT20161203081511812/03/16 08:15:31  5-MIN KAAT 031615Z AUTO 00000KT 10SM OVC022 01/M04 A3034 4000 72 3300 000/00 RMK AO2 T00061039 TSNO
94299KAAT AAT20161203082011812/03/16 08:20:31  5-MIN KAAT 031620Z AUTO 00000KT 10SM OVC022 01/M04 A3034 4000 69 3300 000/00 RMK AO2 T00111039 TSNO
94299KAAT AAT20161203082511712/03/16 08:25:31  5-MIN KAAT 031625Z AUTO 00000KT 9SM OVC022 01/M04 A3034 4000 69 3300 000/00 RMK AO2 T00111039 TSNO
94299KAAT AAT20161203083011712/03/16 08:30:31  5-MIN KAAT 031630Z AUTO 00000KT 9SM OVC022 01/M04 A3034 4000 69 3300 000/00 RMK AO2 T00111039 TSNO
94299KAAT AAT20161203083511812/03/16 08:35:31  5-MIN KAAT 031635Z AUTO 00000KT 10SM OVC021 01/M04 A3034 4000 69 3300 000/00 RMK AO2 T00111039 TSNO
94299KAAT AAT20161203084011812/03/16 08:40:31  5-MIN KAAT 031640Z AUTO 00000KT 10SM OVC021 01/M04 A3034 4000 69 3300 000/00 RMK AO2 T00111039 TSNO
94299KAAT AAT20161203084511712/03/16 08:45:31  5-MIN KAAT 031645Z AUTO 00000KT 9SM OVC021 01/M04 A3034 4000 69 3300 000/00 RMK AO2 T00111039 TSNO
94299KAAT AAT20161203085012412/03/16 08:50:31  5-MIN KAAT 031650Z AUTO 00000KT 9SM OVC021 01/M03 A3034 4000 72 3300 000/00 RMK AO2 SLP294 T00111033 TSNO
94299KAAT AAT20161203085512412/03/16 08:55:31  5-MIN KAAT 031655Z AUTO 00000KT 9SM OVC021 01/M03 A3034 4000 72 3300 000/00 RMK AO2 SLP295 T00111033 TSNO
94299KAAT AAT20161203090011712/03/16 09:00:31  5-MIN KAAT 031700Z AUTO 00000KT 9SM OVC021 02/M04 A3034 3990 66 3400 000/00 RMK AO2 T00171039 TSNO
94299KAAT AAT20161203090511812/03/16 09:05:31  5-MIN KAAT 031705Z AUTO 00000KT 10SM OVC021 02/M04 A3034 3990 66 3400 000/00 RMK AO2 T00171039 TSNO
94299KAAT AAT20161203091011812/03/16 09:10:31  5-MIN KAAT 031710Z AUTO 00000KT 10SM OVC021 02/M03 A3035 3990 69 3400 000/00 RMK AO2 T00171033 TSNO
94299KAAT AAT20161203091511812/03/16 09:15:31  5-MIN KAAT 031715Z AUTO 00000KT 10SM OVC021 01/M03 A3035 3990 72 3300 000/00 RMK AO2 T00111033 TSNO
94299KAAT AAT20161203092011812/03/16 09:20:31  5-MIN KAAT 031720Z AUTO 00000KT 10SM OVC021 02/M03 A3035 3990 69 3400 000/00 RMK AO2 T00171033 TSNO
94299KAAT AAT20161203092511812/03/16 09:25:31  5-MIN KAAT 031725Z AUTO 00000KT 10SM OVC021 02/M03 A3035 3980 69 3400 000/00 RMK AO2 T00171033 TSNO
94299KAAT AAT20161203093011812/03/16 09:30:31  5-MIN KAAT 031730Z AUTO 00000KT 10SM OVC021 02/M03 A3035 3980 69 3400 000/00 RMK AO2 T00171033 TSNO
94299KAAT AAT20161203093511812/03/16 09:35:31  5-MIN KAAT 031735Z AUTO 00000KT 10SM OVC021 02/M03 A3036 3980 67 3400 000/00 RMK AO2 T00221033 TSNO
94299KAAT AAT20161203094011812/03/16 09:40:31  5-MIN KAAT 031740Z AUTO 00000KT 10SM OVC021 02/M03 A3035 3980 69 3400 000/00 RMK AO2 T00221028 TSNO
94299KAAT AAT20161203094511812/03/16 09:45:31  5-MIN KAAT 031745Z AUTO 00000KT 10SM OVC021 02/M02 A3035 3980 72 3400 000/00 RMK AO2 T00221022 TSNO
94299KAAT AAT20161203095014312/03/16 09:50:31  5-MIN KAAT 031750Z AUTO 17003KT 10SM OVC021 02/M02 A3035 3990 72 3400 160/03 RMK AO2 SLP297 T00221022 10022 21006 52007 TSNO
94299KAAT AAT20161203095514312/03/16 09:55:31  5-MIN KAAT 031755Z AUTO 00000KT 10SM OVC021 02/M02 A3035 3990 72 3400 000/00 RMK AO2 SLP295 T00221022 10022 21006 53006 TSNO
94299KAAT AAT20161203100011812/03/16 10:00:31  5-MIN KAAT 031800Z AUTO 00000KT 10SM OVC023 03/M02 A3035 3980 69 3500 000/00 RMK AO2 T00281022 TSNO
94299KAAT AAT20161203100511812/03/16 10:05:31  5-MIN KAAT 031805Z AUTO 00000KT 10SM OVC023 03/M02 A3035 3980 69 3500 000/00 RMK AO2 T00281022 TSNO
94299KAAT AAT20161203101011812/03/16 10:10:31  5-MIN KAAT 031810Z AUTO 16004KT 10SM OVC023 03/M02 A3034 3990 69 3500 150/04 RMK AO2 T00281022 TSNO
94299KAAT AAT20161203101511812/03/16 10:15:31  5-MIN KAAT 031815Z AUTO 00000KT 10SM OVC023 03/M02 A3035 3990 72 3500 000/00 RMK AO2 T00281017 TSNO
94299KAAT AAT20161203102011812/03/16 10:20:31  5-MIN KAAT 031820Z AUTO 00000KT 10SM OVC023 03/M02 A3035 3990 72 3500 000/00 RMK AO2 T00281017 TSNO
94299KAAT AAT20161203102511812/03/16 10:25:31  5-MIN KAAT 031825Z AUTO 16003KT 10SM OVC024 03/M02 A3034 3990 70 3600 140/03 RMK AO2 T00331017 TSNO
94299KAAT AAT20161203103011812/03/16 10:30:31  5-MIN KAAT 031830Z AUTO 00000KT 10SM OVC024 04/M01 A3034 4000 67 3700 000/00 RMK AO2 T00441011 TSNO
94299KAAT AAT20161203103511812/03/16 10:35:31  5-MIN KAAT 031835Z AUTO VRB03KT 10SM OVC024 05/M01 A3034 4000 67 3800 VRB/03 RMK AO2 T00501006 TSNO
94299KAAT AAT20161203104011812/03/16 10:40:31  5-MIN KAAT 031840Z AUTO 17004KT 10SM OVC023 05/M01 A3034 3990 67 3800 150/04 RMK AO2 T00501006 TSNO
94299KAAT AAT20161203104511712/03/16 10:45:31  5-MIN KAAT 031845Z AUTO 16006KT 10SM OVC023 06/00 A3034 4000 67 3900 150/06 RMK AO2 T00560000 TSNO
94299KAAT AAT20161203105012512/03/16 10:50:31  5-MIN KAAT 031850Z AUTO 17006KT 10SM OVC023 06/M01 A3033 4000 65 3900 150/06 RMK AO2 SLP284 T00561006 TSNO
94299KAAT AAT20161203105512512/03/16 10:55:31  5-MIN KAAT 031855Z AUTO VRB04KT 10SM OVC023 05/M01 A3033 4000 67 3800 VRB/04 RMK AO2 SLP283 T00501006 TSNO
94299KAAT AAT20161203110011812/03/16 11:00:31  5-MIN KAAT 031900Z AUTO VRB03KT 10SM BKN023 06/M01 A3033 4000 65 3900 VRB/03 RMK AO2 T00561006 TSNO
94299KAAT AAT20161203110511812/03/16 11:05:31  5-MIN KAAT 031905Z AUTO 22005KT 10SM BKN023 06/M01 A3033 4000 65 3900 210/05 RMK AO2 T00561006 TSNO
94299KAAT AAT20161203111011812/03/16 11:10:31  5-MIN KAAT 031910Z AUTO 00000KT 10SM SCT023 05/M01 A3034 4000 67 3800 000/00 RMK AO2 T00501006 TSNO
94299KAAT AAT20161203111511812/03/16 11:15:31  5-MIN KAAT 031915Z AUTO VRB03KT 10SM FEW023 06/M01 A3033 4000 65 3900 VRB/03 RMK AO2 T00561006 TSNO
94299KAAT AAT20161203112011812/03/16 11:20:31  5-MIN KAAT 031920Z AUTO 10003KT 10SM FEW023 06/M01 A3033 4000 65 3900 080/03 RMK AO2 T00561006 TSNO
94299KAAT AAT20161203112511512/03/16 11:25:31  5-MIN KAAT 031925Z AUTO 00000KT 10SM CLR 06/M01 A3033 4000 62 3900 000/00 RMK AO2 T00611006 TSNO
94299KAAT AAT20161203113011812/03/16 11:30:31  5-MIN KAAT 031930Z AUTO 20005KT 10SM FEW026 06/M01 A3033 4000 62 3900 180/05 RMK AO2 T00611006 TSNO
94299KAAT AAT20161203113511812/03/16 11:35:31  5-MIN KAAT 031935Z AUTO 21004KT 10SM FEW026 06/M01 A3033 4010 65 3900 200/04 RMK AO2 T00561006 TSNO
94299KAAT AAT20161203114011512/03/16 11:40:31  5-MIN KAAT 031940Z AUTO VRB03KT 10SM CLR 06/M01 A3032 4010 62 3900 VRB/03 RMK AO2 T00611006 TSNO
94299KAAT AAT20161203114511512/03/16 11:45:31  5-MIN KAAT 031945Z AUTO VRB03KT 10SM CLR 06/M01 A3032 4010 62 3900 VRB/03 RMK AO2 T00611006 TSNO
94299KAAT AAT20161203115012212/03/16 11:50:31  5-MIN KAAT 031950Z AUTO VRB03KT 10SM CLR 06/M01 A3032 4020 62 3900 VRB/03 RMK AO2 SLP276 T00561011 TSNO
94299KAAT AAT20161203115512212/03/16 11:55:31  5-MIN KAAT 031955Z AUTO 00000KT 10SM CLR 07/M01 A3032 4010 60 4000 000/00 RMK AO2 SLP275 T00671006 TSNO
94299KAAT AAT20161203120011512/03/16 12:00:31  5-MIN KAAT 032000Z AUTO VRB03KT 10SM CLR 07/M01 A3032 4010 60 4000 VRB/03 RMK AO2 T00671006 TSNO
94299KAAT AAT20161203120511512/03/16 12:05:31  5-MIN KAAT 032005Z AUTO 22005KT 10SM CLR 07/M01 A3032 4010 60 4000 210/05 RMK AO2 T00671006 TSNO
94299KAAT AAT20161203121011512/03/16 12:10:31  5-MIN KAAT 032010Z AUTO 22003KT 10SM CLR 07/M01 A3032 4010 57 4000 210/03 RMK AO2 T00671011 TSNO
94299KAAT AAT20161203121511512/03/16 12:15:31  5-MIN KAAT 032015Z AUTO VRB03KT 10SM CLR 07/M01 A3032 4010 57 4000 VRB/03 RMK AO2 T00671011 TSNO
94299KAAT AAT20161203122011512/03/16 12:20:31  5-MIN KAAT 032020Z AUTO 19004KT 10SM CLR 07/M01 A3031 4020 57 4000 170/04 RMK AO2 T00671011 TSNO
94299KAAT AAT20161203122511512/03/16 12:25:31  5-MIN KAAT 032025Z AUTO 00000KT 10SM CLR 07/M01 A3031 4020 57 4000 000/00 RMK AO2 T00671011 TSNO
94299KAAT AAT20161203123011512/03/16 12:30:31  5-MIN KAAT 032030Z AUTO 27003KT 10SM CLR 07/M01 A3031 4020 57 4000 250/03 RMK AO2 T00671011 TSNO
94299KAAT AAT20161203123511512/03/16 12:35:31  5-MIN KAAT 032035Z AUTO VRB03KT 10SM CLR 07/M01 A3031 4020 57 4000 VRB/03 RMK AO2 T00671011 TSNO
94299KAAT AAT20161203124011512/03/16 12:40:31  5-MIN KAAT 032040Z AUTO 25003KT 10SM CLR 08/M01 A3031 4020 53 4100 230/03 RMK AO2 T00781011 TSNO
94299KAAT AAT20161203124511512/03/16 12:45:31  5-MIN KAAT 032045Z AUTO 00000KT 10SM CLR 07/M01 A3031 4020 55 4100 000/00 RMK AO2 T00721011 TSNO
94299KAAT AAT20161203125012812/03/16 12:50:31  5-MIN KAAT 032050Z AUTO 00000KT 10SM CLR 08/M01 A3031 4020 53 4100 000/00 RMK AO2 SLP269 T00781011 53006 TSNO
94299KAAT AAT20161203125512812/03/16 12:55:31  5-MIN KAAT 032055Z AUTO 00000KT 10SM CLR 07/M01 A3031 4030 55 4100 000/00 RMK AO2 SLP270 T00721011 56013 TSNO
94299KAAT AAT20161203130011512/03/16 13:00:31  5-MIN KAAT 032100Z AUTO VRB03KT 10SM CLR 08/M01 A3030 4030 53 4200 VRB/03 RMK AO2 T00781011 TSNO
94299KAAT AAT20161203130511512/03/16 13:05:31  5-MIN KAAT 032105Z AUTO 00000KT 10SM CLR 08/M01 A3030 4030 55 4200 000/00 RMK AO2 T00781006 TSNO
94299KAAT AAT20161203131011512/03/16 13:10:31  5-MIN KAAT 032110Z AUTO VRB04KT 10SM CLR 07/M01 A3030 4030 55 4100 VRB/04 RMK AO2 T00721011 TSNO
94299KAAT AAT20161203131511512/03/16 13:15:31  5-MIN KAAT 032115Z AUTO 00000KT 10SM CLR 08/M01 A3030 4040 53 4200 000/00 RMK AO2 T00781011 TSNO
94299KAAT AAT20161203132011512/03/16 13:20:31  5-MIN KAAT 032120Z AUTO VRB04KT 10SM CLR 07/M01 A3030 4030 55 4100 VRB/04 RMK AO2 T00721011 TSNO
94299KAAT AAT20161203132511512/03/16 13:25:31  5-MIN KAAT 032125Z AUTO 30003KT 10SM CLR 08/M02 A3030 4030 51 4200 280/03 RMK AO2 T00781017 TSNO
94299KAAT AAT20161203133011512/03/16 13:30:31  5-MIN KAAT 032130Z AUTO 00000KT 10SM CLR 08/M02 A3030 4030 51 4200 000/00 RMK AO2 T00781017 TSNO
94299KAAT AAT20161203133511512/03/16 13:35:31  5-MIN KAAT 032135Z AUTO VRB03KT 10SM CLR 08/M02 A3030 4030 51 4200 VRB/03 RMK AO2 T00781017 TSNO
94299KAAT AAT20161203134011512/03/16 13:40:31  5-MIN KAAT 032140Z AUTO 22005KT 10SM CLR 08/M02 A3030 4030 51 4200 210/05 RMK AO2 T00781017 TSNO
94299KAAT AAT20161203134511512/03/16 13:45:31  5-MIN KAAT 032145Z AUTO 00000KT 10SM CLR 08/M02 A3030 4030 49 4200 000/00 RMK AO2 T00781022 TSNO
94299KAAT AAT20161203135012212/03/16 13:50:31  5-MIN KAAT 032150Z AUTO VRB03KT 10SM CLR 08/M02 A3029 4040 49 4200 VRB/03 RMK AO2 SLP266 T00781022 TSNO
94299KAAT AAT20161203135512212/03/16 13:55:31  5-MIN KAAT 032155Z AUTO VRB03KT 10SM CLR 08/M02 A3029 4040 49 4200 VRB/03 RMK AO2 SLP265 T00781022 TSNO
94299KAAT AAT20161203140011512/03/16 14:00:31  5-MIN KAAT 032200Z AUTO 25003KT 10SM CLR 08/M02 A3029 4040 49 4200 240/03 RMK AO2 T00781022 TSNO
94299KAAT AAT20161203140511512/03/16 14:05:31  5-MIN KAAT 032205Z AUTO 00000KT 10SM CLR 08/M03 A3029 4040 47 4200 000/00 RMK AO2 T00781028 TSNO
94299KAAT AAT20161203141011512/03/16 14:10:31  5-MIN KAAT 032210Z AUTO 00000KT 10SM CLR 08/M02 A3029 4040 49 4200 000/00 RMK AO2 T00781022 TSNO
94299KAAT AAT20161203141511512/03/16 14:15:31  5-MIN KAAT 032215Z AUTO 00000KT 10SM CLR 08/M02 A3029 4040 49 4200 000/00 RMK AO2 T00781022 TSNO
94299KAAT AAT20161203142011512/03/16 14:20:31  5-MIN KAAT 032220Z AUTO 00000KT 10SM CLR 08/M02 A3029 4040 49 4200 000/00 RMK AO2 T00781022 TSNO
94299KAAT AAT20161203142511512/03/16 14:25:31  5-MIN KAAT 032225Z AUTO 33003KT 10SM CLR 08/M03 A3029 4040 47 4200 310/03 RMK AO2 T00781028 TSNO
94299KAAT AAT20161203143011512/03/16 14:30:31  5-MIN KAAT 032230Z AUTO 00000KT 10SM CLR 08/M03 A3029 4050 45 4200 000/00 RMK AO2 T00831028 TSNO
94299KAAT AAT20161203143511512/03/16 14:35:31  5-MIN KAAT 032235Z AUTO 00000KT 10SM CLR 08/M03 A3028 4050 47 4200 000/00 RMK AO2 T00781028 TSNO
94299KAAT AAT20161203144011512/03/16 14:40:31  5-MIN KAAT 032240Z AUTO 00000KT 10SM CLR 08/M03 A3028 4050 47 4200 000/00 RMK AO2 T00781028 TSNO
94299KAAT AAT20161203144511512/03/16 14:45:31  5-MIN KAAT 032245Z AUTO 00000KT 10SM CLR 08/M03 A3028 4050 47 4200 000/00 RMK AO2 T00781028 TSNO
94299KAAT AAT20161203145012212/03/16 14:50:31  5-MIN KAAT 032250Z AUTO 00000KT 10SM CLR 08/M03 A3028 4050 47 4200 000/00 RMK AO2 SLP258 T00781028 TSNO
94299KAAT AAT20161203145512212/03/16 14:55:31  5-MIN KAAT 032255Z AUTO 00000KT 10SM CLR 08/M03 A3028 4050 47 4200 000/00 RMK AO2 SLP258 T00781028 TSNO
94299KAAT AAT20161203150011512/03/16 15:00:31  5-MIN KAAT 032300Z AUTO 00000KT 10SM CLR 08/M03 A3027 4060 47 4200 000/00 RMK AO2 T00781028 TSNO
94299KAAT AAT20161203150511512/03/16 15:05:31  5-MIN KAAT 032305Z AUTO 00000KT 10SM CLR 08/M03 A3028 4050 47 4200 000/00 RMK AO2 T00781028 TSNO
94299KAAT AAT20161203151011512/03/16 15:10:31  5-MIN KAAT 032310Z AUTO 00000KT 10SM CLR 08/M03 A3027 4060 43 4300 000/00 RMK AO2 T00831033 TSNO
94299KAAT AAT20161203151511512/03/16 15:15:31  5-MIN KAAT 032315Z AUTO 00000KT 10SM CLR 08/M03 A3027 4060 45 4200 000/00 RMK AO2 T00781033 TSNO
94299KAAT AAT20161203152011512/03/16 15:20:31  5-MIN KAAT 032320Z AUTO 00000KT 10SM CLR 08/M03 A3027 4060 43 4300 000/00 RMK AO2 T00831033 TSNO
94299KAAT AAT20161203152511512/03/16 15:25:31  5-MIN KAAT 032325Z AUTO 20003KT 10SM CLR 08/M03 A3027 4060 47 4200 180/03 RMK AO2 T00781028 TSNO
94299KAAT AAT20161203153011512/03/16 15:30:31  5-MIN KAAT 032330Z AUTO 21003KT 10SM CLR 08/M03 A3026 4060 45 4200 190/03 RMK AO2 T00781033 TSNO
94299KAAT AAT20161203153511512/03/16 15:35:31  5-MIN KAAT 032335Z AUTO 00000KT 10SM CLR 08/M03 A3027 4060 45 4200 000/00 RMK AO2 T00781033 TSNO
94299KAAT AAT20161203154011512/03/16 15:40:31  5-MIN KAAT 032340Z AUTO 24003KT 10SM CLR 08/M03 A3026 4060 45 4200 220/03 RMK AO2 T00781033 TSNO
94299KAAT AAT20161203154511512/03/16 15:45:31  5-MIN KAAT 032345Z AUTO 25003KT 10SM CLR 08/M03 A3026 4070 45 4200 240/03 RMK AO2 T00781033 TSNO
94299KAAT AAT20161203155014012/03/16 15:50:31  5-MIN KAAT 032350Z AUTO 24003KT 10SM CLR 07/M03 A3026 4070 47 4100 230/03 RMK AO2 SLP254 T00721033 10083 20028 56013 TSNO
94299KAAT AAT20161203155514012/03/16 15:55:31  5-MIN KAAT 032355Z AUTO 00000KT 10SM CLR 08/M03 A3026 4070 47 4200 000/00 RMK AO2 SLP253 T00781028 10083 20028 57014 TSNO
94299KAAT AAT20161203160011512/03/16 16:00:31  5-MIN KAAT 040000Z AUTO 00000KT 10SM CLR 07/M03 A3026 4070 47 4100 000/00 RMK AO2 T00721033 TSNO
94299KAAT AAT20161203160511512/03/16 16:05:31  5-MIN KAAT 040005Z AUTO 00000KT 10SM CLR 07/M03 A3026 4070 47 4100 000/00 RMK AO2 T00721033 TSNO
94299KAAT AAT20161203161011512/03/16 16:10:31  5-MIN KAAT 040010Z AUTO 00000KT 10SM CLR 07/M03 A3026 4070 47 4100 000/00 RMK AO2 T00721033 TSNO
94299KAAT AAT20161203161511512/03/16 16:15:31  5-MIN KAAT 040015Z AUTO 00000KT 10SM CLR 07/M03 A3026 4070 47 4100 000/00 RMK AO2 T00721033 TSNO
94299KAAT AAT20161203162011512/03/16 16:20:31  5-MIN KAAT 040020Z AUTO 00000KT 10SM CLR 07/M03 A3026 4070 49 4100 000/00 RMK AO2 T00671033 TSNO
94299KAAT AAT20161203162511512/03/16 16:25:31  5-MIN KAAT 040025Z AUTO 00000KT 10SM CLR 07/M03 A3026 4070 49 4100 000/00 RMK AO2 T00671033 TSNO
94299KAAT AAT20161203163011512/03/16 16:30:31  5-MIN KAAT 040030Z AUTO 00000KT 10SM CLR 06/M03 A3026 4070 55 3900 000/00 RMK AO2 T00561028 TSNO
94299KAAT AAT20161203163511512/03/16 16:35:31  5-MIN KAAT 040035Z AUTO 00000KT 10SM CLR 05/M03 A3027 4060 55 3900 000/00 RMK AO2 T00501033 TSNO
94299KAAT AAT20161203164011412/03/16 16:40:31  5-MIN KAAT 040040Z AUTO 03003KT 9SM CLR 04/M03 A3027 4060 57 3800 010/03 RMK AO2 T00441033 TSNO
94299KAAT AAT20161203164511412/03/16 16:45:31  5-MIN KAAT 040045Z AUTO 03004KT 9SM CLR 04/M03 A3027 4060 57 3800 020/04 RMK AO2 T00441033 TSNO
94299KAAT AAT20161203165012212/03/16 16:50:31  5-MIN KAAT 040050Z AUTO 04004KT 10SM CLR 04/M03 A3027 4060 59 3700 020/04 RMK AO2 SLP262 T00391033 TSNO
94299KAAT AAT20161203165512212/03/16 16:55:31  5-MIN KAAT 040055Z AUTO 06004KT 10SM CLR 04/M03 A3027 4060 59 3700 040/04 RMK AO2 SLP262 T00391033 TSNO
94299KAAT AAT20161203170011512/03/16 17:00:31  5-MIN KAAT 040100Z AUTO 06004KT 10SM CLR 04/M03 A3027 4060 62 3700 040/04 RMK AO2 T00391028 TSNO
94299KAAT AAT20161203170511512/03/16 17:05:31  5-MIN KAAT 040105Z AUTO 06004KT 10SM CLR 04/M03 A3027 4060 62 3700 040/04 RMK AO2 T00391028 TSNO
94299KAAT AAT20161203171011512/03/16 17:10:31  5-MIN KAAT 040110Z AUTO 06004KT 10SM CLR 04/M03 A3027 4060 59 3700 050/04 RMK AO2 T00391033 TSNO
94299KAAT AAT20161203171511512/03/16 17:15:31  5-MIN KAAT 040115Z AUTO 06004KT 10SM CLR 04/M03 A3027 4050 59 3700 040/04 RMK AO2 T00391033 TSNO
94299KAAT AAT20161203172011512/03/16 17:20:31  5-MIN KAAT 040120Z AUTO 06004KT 10SM CLR 03/M03 A3027 4060 61 3700 050/04 RMK AO2 T00331033 TSNO
94299KAAT AAT20161203172511412/03/16 17:25:31  5-MIN KAAT 040125Z AUTO 07005KT 8SM CLR 03/M03 A3027 4060 64 3600 060/05 RMK AO2 T00281033 TSNO
94299KAAT AAT20161203173011412/03/16 17:30:31  5-MIN KAAT 040130Z AUTO 06005KT 7SM CLR 03/M03 A3027 4060 64 3600 050/05 RMK AO2 T00281033 TSNO
94299KAAT AAT20161203173511412/03/16 17:35:31  5-MIN KAAT 040135Z AUTO 06005KT 9SM CLR 03/M03 A3027 4060 61 3700 040/05 RMK AO2 T00331033 TSNO
94299KAAT AAT20161203174011512/03/16 17:40:31  5-MIN KAAT 040140Z AUTO 07005KT 10SM CLR 03/M03 A3027 4060 64 3600 060/05 RMK AO2 T00281033 TSNO
94299KAAT AAT20161203174511512/03/16 17:45:31  5-MIN KAAT 040145Z AUTO 06004KT 10SM CLR 02/M03 A3027 4060 69 3500 050/04 RMK AO2 T00171033 TSNO
94299KAAT AAT20161203175012212/03/16 17:50:31  5-MIN KAAT 040150Z AUTO 00000KT 10SM CLR 01/M03 A3027 4060 75 3300 000/00 RMK AO2 SLP268 T00061033 TSNO
94299KAAT AAT20161203175512112/03/16 17:55:31  5-MIN KAAT 040155Z AUTO 00000KT 9SM CLR 00/M03 A3027 4060 78 3300 000/00 RMK AO2 SLP270 T00001033 TSNO
94299KAAT AAT20161203180011512/03/16 18:00:31  5-MIN KAAT 040200Z AUTO 00000KT 9SM CLR M01/M04 A3027 4060 78 3200 000/00 RMK AO2 T10061039 TSNO
94299KAAT AAT20161203180511612/03/16 18:05:31  5-MIN KAAT 040205Z AUTO 00000KT 10SM CLR M01/M04 A3027 4060 78 3200 000/00 RMK AO2 T10061039 TSNO
94299KAAT AAT20161203181011512/03/16 18:10:31  5-MIN KAAT 040210Z AUTO 00000KT 10SM CLR 00/M04 A3027 4060 75 3300 000/00 RMK AO2 T00001039 TSNO
94299KAAT AAT20161203181511612/03/16 18:15:31  5-MIN KAAT 040215Z AUTO 00000KT 10SM CLR M01/M04 A3027 4060 78 3200 000/00 RMK AO2 T10061039 TSNO
94299KAAT AAT20161203182011612/03/16 18:20:31  5-MIN KAAT 040220Z AUTO 00000KT 10SM CLR M01/M04 A3027 4060 78 3200 000/00 RMK AO2 T10061039 TSNO
94299KAAT AAT20161203182511612/03/16 18:25:31  5-MIN KAAT 040225Z AUTO 00000KT 10SM CLR M01/M04 A3027 4060 78 3200 000/00 RMK AO2 T10061039 TSNO
94299KAAT AAT20161203183011612/03/16 18:30:31  5-MIN KAAT 040230Z AUTO 00000KT 10SM CLR M01/M04 A3027 4060 81 3100 000/00 RMK AO2 T10111039 TSNO
94299KAAT AAT20161203183511612/03/16 18:35:31  5-MIN KAAT 040235Z AUTO 00000KT 10SM CLR M02/M04 A3027 4060 81 3100 000/00 RMK AO2 T10171044 TSNO
94299KAAT AAT20161203184011612/03/16 18:40:31  5-MIN KAAT 040240Z AUTO 00000KT 10SM CLR M02/M04 A3027 4060 85 3100 000/00 RMK AO2 T10171039 TSNO
94299KAAT AAT20161203184511612/03/16 18:45:31  5-MIN KAAT 040245Z AUTO 00000KT 10SM CLR M01/M04 A3028 4050 81 3100 000/00 RMK AO2 T10111039 TSNO
94299KAAT AAT20161203185012912/03/16 18:50:31  5-MIN KAAT 040250Z AUTO 00000KT 10SM CLR M01/M04 A3028 4050 78 3200 000/00 RMK AO2 SLP272 T10061039 57014 TSNO
94299KAAT AAT20161203185512912/03/16 18:55:31  5-MIN KAAT 040255Z AUTO 00000KT 10SM CLR M02/M04 A3028 4050 85 3000 000/00 RMK AO2 SLP274 T10171039 51005 TSNO
94299KAAT AAT20161203190011612/03/16 19:00:31  5-MIN KAAT 040300Z AUTO 00000KT 10SM CLR M02/M04 A3028 4050 85 3000 000/00 RMK AO2 T10221044 TSNO
94299KAAT AAT20161203190511612/03/16 19:05:31  5-MIN KAAT 040305Z AUTO 00000KT 10SM CLR M02/M04 A3028 4050 85 3000 000/00 RMK AO2 T10221044 TSNO
94299KAAT AAT20161203191011512/03/16 19:10:31  5-MIN KAAT 040310Z AUTO 00000KT 9SM CLR M01/M04 A3028 4050 81 3100 000/00 RMK AO2 T10111039 TSNO
94299KAAT AAT20161203191511512/03/16 19:15:31  5-MIN KAAT 040315Z AUTO 00000KT 9SM CLR M02/M04 A3028 4050 85 3000 000/00 RMK AO2 T10171039 TSNO
94299KAAT AAT20161203192011512/03/16 19:20:31  5-MIN KAAT 040320Z AUTO 00000KT 8SM CLR M02/M04 A3028 4050 88 3000 000/00 RMK AO2 T10221039 TSNO
94299KAAT AAT20161203192511512/03/16 19:25:31  5-MIN KAAT 040325Z AUTO 00000KT 7SM CLR M03/M04 A3028 4050 88 2900 000/00 RMK AO2 T10281044 TSNO
94299KAAT AAT20161203193011512/03/16 19:30:31  5-MIN KAAT 040330Z AUTO 00000KT 7SM CLR M02/M04 A3028 4050 85 3000 000/00 RMK AO2 T10221044 TSNO
94299KAAT AAT20161203193511512/03/16 19:35:31  5-MIN KAAT 040335Z AUTO 00000KT 7SM CLR M02/M04 A3028 4050 85 3000 000/00 RMK AO2 T10221044 TSNO
94299KAAT AAT20161203194011812/03/16 19:40:31  5-MIN KAAT 040340Z AUTO 00000KT 6SM BR CLR M03/M04 A3028 4050 88 2900 000/00 RMK AO2 T10281044 TSNO
94299KAAT AAT20161203194511812/03/16 19:45:31  5-MIN KAAT 040345Z AUTO 00000KT 6SM BR CLR M02/M04 A3028 4050 88 3000 000/00 RMK AO2 T10221039 TSNO
94299KAAT AAT20161203195012512/03/16 19:50:31  5-MIN KAAT 040350Z AUTO 04003KT 5SM BR CLR M02/M04 A3028 4050 85 3000 030/03 RMK AO2 SLP274 T10171039 TSNO
94299KAAT AAT20161203195512512/03/16 19:55:31  5-MIN KAAT 040355Z AUTO 04004KT 4SM BR CLR M02/M04 A3028 4050 88 3000 030/04 RMK AO2 SLP274 T10221039 TSNO
94299KAAT AAT20161203200011812/03/16 20:00:31  5-MIN KAAT 040400Z AUTO 05003KT 4SM BR CLR M02/M04 A3028 4050 85 3000 030/03 RMK AO2 T10221044 TSNO
94299KAAT AAT20161203200511812/03/16 20:05:31  5-MIN KAAT 040405Z AUTO 00000KT 5SM BR CLR M03/M04 A3028 4050 88 2900 000/00 RMK AO2 T10281044 TSNO
94299KAAT AAT20161203201011512/03/16 20:10:31  5-MIN KAAT 040410Z AUTO 00000KT 8SM CLR M03/M04 A3027 4060 88 2900 000/00 RMK AO2 T10281044 TSNO
94299KAAT AAT20161203201511612/03/16 20:15:31  5-MIN KAAT 040415Z AUTO 05003KT 10SM CLR M03/M04 A3027 4060 88 2900 030/03 RMK AO2 T10281044 TSNO
94299KAAT AAT20161203202011612/03/16 20:20:31  5-MIN KAAT 040420Z AUTO 00000KT 10SM CLR M02/M04 A3027 4060 88 3000 000/00 RMK AO2 T10221039 TSNO
94299KAAT AAT20161203202511612/03/16 20:25:31  5-MIN KAAT 040425Z AUTO 00000KT 10SM CLR M03/M04 A3027 4060 92 2900 000/00 RMK AO2 T10331044 TSNO
94299KAAT AAT20161203203011612/03/16 20:30:31  5-MIN KAAT 040430Z AUTO 00000KT 10SM CLR M03/M04 A3027 4060 88 2900 000/00 RMK AO2 T10281044 TSNO
94299KAAT AAT20161203203511612/03/16 20:35:31  5-MIN KAAT 040435Z AUTO 00000KT 10SM CLR M03/M04 A3027 4060 92 2900 000/00 RMK AO2 T10331044 TSNO
94299KAAT AAT20161203204011612/03/16 20:40:31  5-MIN KAAT 040440Z AUTO 00000KT 10SM CLR M03/M04 A3026 4070 88 2900 000/00 RMK AO2 T10281044 TSNO
94299KAAT AAT20161203204511612/03/16 20:45:31  5-MIN KAAT 040445Z AUTO 00000KT 10SM CLR M03/M04 A3026 4070 88 2900 000/00 RMK AO2 T10281044 TSNO
94299KAAT AAT20161203205012312/03/16 20:50:31  5-MIN KAAT 040450Z AUTO 00000KT 10SM CLR M03/M04 A3026 4070 92 2900 000/00 RMK AO2 SLP269 T10331044 TSNO
94299KAAT AAT20161203205512312/03/16 20:55:31  5-MIN KAAT 040455Z AUTO 00000KT 10SM CLR M03/M04 A3026 4070 92 2900 000/00 RMK AO2 SLP268 T10331044 TSNO
94299KAAT AAT20161203210011612/03/16 21:00:31  5-MIN KAAT 040500Z AUTO 15003KT 10SM CLR M03/M04 A3025 4070 88 2900 130/03 RMK AO2 T10281044 TSNO
94299KAAT AAT20161203210511612/03/16 21:05:31  5-MIN KAAT 040505Z AUTO 13003KT 10SM CLR M03/M04 A3025 4080 88 2900 120/03 RMK AO2 T10281044 TSNO
94299KAAT AAT20161203211011612/03/16 21:10:31  5-MIN KAAT 040510Z AUTO 13004KT 10SM CLR M03/M04 A3025 4080 88 2900 120/04 RMK AO2 T10281044 TSNO
94299KAAT AAT20161203211511512/03/16 21:15:31  5-MIN KAAT 040515Z AUTO 00000KT 8SM CLR M03/M04 A3026 4070 88 2900 000/00 RMK AO2 T10281044 TSNO
94299KAAT AAT20161203212011512/03/16 21:20:31  5-MIN KAAT 040520Z AUTO 34003KT 7SM CLR M04/M05 A3027 4060 92 2800 330/03 RMK AO2 T10391050 TSNO
94299KAAT AAT20161203212511512/03/16 21:25:31  5-MIN KAAT 040525Z AUTO 00000KT 9SM CLR M04/M05 A3027 4060 92 2800 000/00 RMK AO2 T10391050 TSNO
94299KAAT AAT20161203213011512/03/16 21:30:31  5-MIN KAAT 040530Z AUTO 33003KT 9SM CLR M04/M05 A3027 4060 92 2800 310/03 RMK AO2 T10391050 TSNO
94299KAAT AAT20161203213511512/03/16 21:35:31  5-MIN KAAT 040535Z AUTO 34003KT 9SM CLR M04/M05 A3027 4060 92 2800 330/03 RMK AO2 T10391050 TSNO
94299KAAT AAT20161203214011512/03/16 21:40:31  5-MIN KAAT 040540Z AUTO 00000KT 9SM CLR M03/M05 A3027 4060 88 2900 000/00 RMK AO2 T10331050 TSNO
94299KAAT AAT20161203214511512/03/16 21:45:31  5-MIN KAAT 040545Z AUTO 00000KT 7SM CLR M03/M04 A3027 4060 88 2900 000/00 RMK AO2 T10281044 TSNO
94299KAAT AAT20161203215014312/03/16 21:50:31  5-MIN KAAT 040550Z AUTO 00000KT 4SM BR CLR M03/M04 A3026 4070 92 2900 000/00 RMK AO2 SLP268 T10331044 10078 21039 51005 TSNO
94299KAAT AAT20161203215514312/03/16 21:55:31  5-MIN KAAT 040555Z AUTO 00000KT 3SM BR CLR M03/M05 A3026 4070 88 2900 000/00 RMK AO2 SLP268 T10331050 10078 21039 55005 TSNO
94299KAAT AAT20161203220011812/03/16 22:00:31  5-MIN KAAT 040600Z AUTO 01003KT 4SM BR CLR M04/M05 A3026 4070 92 2800 350/03 RMK AO2 T10391050 TSNO
94299KAAT AAT20161203220511812/03/16 22:05:31  5-MIN KAAT 040605Z AUTO 00000KT 4SM BR CLR M03/M04 A3026 4070 92 2900 000/00 RMK AO2 T10331044 TSNO
94299KAAT AAT20161203221011812/03/16 22:10:31  5-MIN KAAT 040610Z AUTO 00000KT 5SM BR CLR M04/M04 A3026 4070 96 2800 000/00 RMK AO2 T10391044 TSNO
94299KAAT AAT20161203221511812/03/16 22:15:31  5-MIN KAAT 040615Z AUTO 00000KT 4SM BR CLR M05/M06 A3026 4060 96 2600 000/00 RMK AO2 T10501056 TSNO
94299KAAT AAT20161203222011812/03/16 22:20:31  5-MIN KAAT 040620Z AUTO 00000KT 4SM BR CLR M04/M06 A3027 4060 88 2800 000/00 RMK AO2 T10391056 TSNO
94299KAAT AAT20161203222511812/03/16 22:25:31  5-MIN KAAT 040625Z AUTO 10004KT 4SM BR CLR M04/M05 A3026 4070 92 2800 090/04 RMK AO2 T10391050 TSNO
94299KAAT AAT20161203223011812/03/16 22:30:31  5-MIN KAAT 040630Z AUTO 12005KT 4SM BR CLR M04/M05 A3026 4060 92 2800 100/05 RMK AO2 T10391050 TSNO
94299KAAT AAT20161203223511812/03/16 22:35:31  5-MIN KAAT 040635Z AUTO 11003KT 6SM BR CLR M04/M05 A3027 4060 92 2800 090/03 RMK AO2 T10391050 TSNO
94299KAAT AAT20161203224011812/03/16 22:40:31  5-MIN KAAT 040640Z AUTO 10004KT 6SM BR CLR M04/M05 A3027 4060 92 2800 080/04 RMK AO2 T10391050 TSNO
94299KAAT AAT20161203224511812/03/16 22:45:31  5-MIN KAAT 040645Z AUTO 10004KT 6SM BR CLR M04/M05 A3026 4060 92 2800 080/04 RMK AO2 T10391050 TSNO
94299KAAT AAT20161203225012212/03/16 22:50:31  5-MIN KAAT 040650Z AUTO 08005KT 8SM CLR M03/M04 A3026 4070 88 2900 070/05 RMK AO2 SLP260 T10281044 TSNO
94299KAAT AAT20161203225512212/03/16 22:55:31  5-MIN KAAT 040655Z AUTO 09004KT 9SM CLR M03/M04 A3026 4070 88 2900 070/04 RMK AO2 SLP262 T10281044 TSNO
94299KAAT AAT20161203230011512/03/16 23:00:31  5-MIN KAAT 040700Z AUTO 09003KT 8SM CLR M03/M04 A3026 4070 88 2900 070/03 RMK AO2 T10281044 TSNO
94299KAAT AAT20161203230511512/03/16 23:05:31  5-MIN KAAT 040705Z AUTO 00000KT 9SM CLR M03/M04 A3026 4070 92 2900 000/00 RMK AO2 T10331044 TSNO
94299KAAT AAT20161203231011512/03/16 23:10:31  5-MIN KAAT 040710Z AUTO 00000KT 8SM CLR M04/M06 A3026 4070 88 2800 000/00 RMK AO2 T10391056 TSNO
94299KAAT AAT20161203231511512/03/16 23:15:31  5-MIN KAAT 040715Z AUTO 00000KT 9SM CLR M03/M05 A3026 4070 88 2900 000/00 RMK AO2 T10331050 TSNO
94299KAAT AAT20161203232011612/03/16 23:20:31  5-MIN KAAT 040720Z AUTO 32003KT 10SM CLR M04/M06 A3027 4060 88 2800 300/03 RMK AO2 T10391056 TSNO
94299KAAT AAT20161203232511612/03/16 23:25:31  5-MIN KAAT 040725Z AUTO 29003KT 10SM CLR M05/M06 A3027 4060 92 2600 280/03 RMK AO2 T10501061 TSNO
94299KAAT AAT20161203233011512/03/16 23:30:31  5-MIN KAAT 040730Z AUTO 31003KT 9SM CLR M05/M06 A3027 4060 96 2600 300/03 RMK AO2 T10501056 TSNO
94299KAAT AAT20161203233511512/03/16 23:35:31  5-MIN KAAT 040735Z AUTO 00000KT 9SM CLR M04/M06 A3027 4060 92 2700 000/00 RMK AO2 T10441056 TSNO
94299KAAT AAT20161203234011612/03/16 23:40:31  5-MIN KAAT 040740Z AUTO 24003KT 10SM CLR M05/M06 A3026 4060 96 2600 220/03 RMK AO2 T10501056 TSNO
94299KAAT AAT20161203234511612/03/16 23:45:31  5-MIN KAAT 040745Z AUTO 23003KT 10SM CLR M04/M06 A3027 4060 92 2700 220/03 RMK AO2 T10441056 TSNO
94299KAAT AAT20161203235013312/03/16 23:50:31  5-MIN KAAT 040750Z AUTO 00000KT 10SM CLR M04/M06 A3026 4070 92 2700 000/00 RMK AO2 SLP264 T10441056 400831050 TSNO
94299KAAT AAT20161203235513312/03/16 23:55:31  5-MIN KAAT 040755Z AUTO 00000KT 10SM CLR M04/M06 A3026 4060 92 2700 000/00 RMK AO2 SLP262 T10441056 400831050 TSNO
94299KAAT AAT20161204000011612/04/16 00:00:31  5-MIN KAAT 040800Z AUTO 00000KT 10SM CLR M04/M06 A3027 4060 92 2700 000/00 RMK AO2 T10441056 TSNO
94299KAAT AAT20161204000511612/04/16 00:05:31  5-MIN KAAT 040805Z AUTO 00000KT 10SM CLR M04/M06 A3027 4060 92 2700 000/00 RMK AO2 T10441056 TSNO
94299KAAT AAT20161204001011612/04/16 00:10:31  5-MIN KAAT 040810Z AUTO 00000KT 10SM CLR M04/M06 A3027 4060 92 2700 000/00 RMK AO2 T10441056 TSNO
94299KAAT AAT20161204001511612/04/16 00:15:31  5-MIN KAAT 040815Z AUTO 00000KT 10SM CLR M04/M05 A3027 4060 92 2800 000/00 RMK AO2 T10391050 TSNO
94299KAAT AAT20161204002011612/04/16 00:20:31  5-MIN KAAT 040820Z AUTO 00000KT 10SM CLR M04/M05 A3027 4060 92 2800 000/00 RMK AO2 T10391050 TSNO
94299KAAT AAT20161204002511612/04/16 00:25:31  5-MIN KAAT 040825Z AUTO 00000KT 10SM CLR M03/M05 A3027 4060 88 2900 000/00 RMK AO2 T10331050 TSNO
94299KAAT AAT20161204003011612/04/16 00:30:31  5-MIN KAAT 040830Z AUTO 00000KT 10SM CLR M03/M04 A3026 4070 92 2900 000/00 RMK AO2 T10331044 TSNO
94299KAAT AAT20161204003511612/04/16 00:35:31  5-MIN KAAT 040835Z AUTO 00000KT 10SM CLR M03/M04 A3026 4070 92 2900 000/00 RMK AO2 T10331044 TSNO
94299KAAT AAT20161204004011612/04/16 00:40:31  5-MIN KAAT 040840Z AUTO 00000KT 10SM CLR M03/M04 A3026 4070 92 2900 000/00 RMK AO2 T10331044 TSNO
94299KAAT AAT20161204004511612/04/16 00:45:31  5-MIN KAAT 040845Z AUTO 00000KT 10SM CLR M03/M04 A3025 4070 88 2900 000/00 RMK AO2 T10281044 TSNO
94299KAAT AAT20161204005012812/04/16 00:50:31  5-MIN KAAT 040850Z AUTO 09003KT 7SM CLR M03/M04 A3025 4080 88 2900 070/03 RMK AO2 SLP252 T10281044 55005 TSNO
94299KAAT AAT20161204005513112/04/16 00:55:31  5-MIN KAAT 040855Z AUTO 12004KT 4SM BR CLR M03/M04 A3025 4080 88 2900 100/04 RMK AO2 SLP253 T10281044 58004 TSNO
94299KAAT AAT20161204010011812/04/16 01:00:31  5-MIN KAAT 040900Z AUTO VRB03KT 4SM BR CLR M03/M04 A3025 4080 88 2900 VRB/03 RMK AO2 T10281044 TSNO
94299KAAT AAT20161204010511812/04/16 01:05:31  5-MIN KAAT 040905Z AUTO 00000KT 5SM BR CLR M03/M04 A3025 4080 92 2900 000/00 RMK AO2 T10281039 TSNO
94299KAAT AAT20161204011011812/04/16 01:10:31  5-MIN KAAT 040910Z AUTO 00000KT 5SM BR CLR M03/M04 A3024 4090 92 3000 000/00 RMK AO2 T10281039 TSNO
94299KAAT AAT20161204011512112/04/16 01:15:31  5-MIN KAAT 040915Z AUTO 00000KT 6SM BR FEW120 M03/M04 A3024 4090 92 3000 000/00 RMK AO2 T10281039 TSNO
94299KAAT AAT20161204012011812/04/16 01:20:31  5-MIN KAAT 040920Z AUTO 00000KT 7SM SCT120 M03/M04 A3024 4090 88 3000 000/00 RMK AO2 T10281044 TSNO
94299KAAT AAT20161204012511812/04/16 01:25:31  5-MIN KAAT 040925Z AUTO 00000KT 7SM SCT120 M03/M05 A3024 4090 88 2900 000/00 RMK AO2 T10331050 TSNO
94299KAAT AAT20161204013011812/04/16 01:30:31  5-MIN KAAT 040930Z AUTO 00000KT 7SM SCT120 M03/M05 A3024 4090 88 2900 000/00 RMK AO2 T10331050 TSNO
94299KAAT AAT20161204013511812/04/16 01:35:31  5-MIN KAAT 040935Z AUTO 00000KT 7SM SCT120 M04/M05 A3023 4090 92 2800 000/00 RMK AO2 T10391050 TSNO
94299KAAT AAT20161204014012112/04/16 01:40:31  5-MIN KAAT 040940Z AUTO 00000KT 6SM BR FEW120 M03/M05 A3023 4100 88 2900 000/00 RMK AO2 T10331050 TSNO
94299KAAT AAT20161204014512112/04/16 01:45:31  5-MIN KAAT 040945Z AUTO 00000KT 6SM BR SCT110 M04/M05 A3022 4100 92 2800 000/00 RMK AO2 T10391050 TSNO
94299KAAT AAT20161204015012812/04/16 01:50:31  5-MIN KAAT 040950Z AUTO 00000KT 6SM BR FEW110 M04/M05 A3022 4110 92 2800 000/00 RMK AO2 SLP243 T10391050 TSNO
94299KAAT AAT20161204015512512/04/16 01:55:31  5-MIN KAAT 040955Z AUTO 00000KT 7SM FEW110 M04/M05 A3022 4110 92 2800 000/00 RMK AO2 SLP243 T10391050 TSNO
94299KAAT AAT20161204020011812/04/16 02:00:31  5-MIN KAAT 041000Z AUTO 00000KT 8SM SCT110 M04/M05 A3022 4110 92 2800 000/00 RMK AO2 T10391050 TSNO
94299KAAT AAT20161204020511812/04/16 02:05:31  5-MIN KAAT 041005Z AUTO 00000KT 9SM BKN110 M03/M04 A3021 4110 92 2900 000/00 RMK AO2 T10331044 TSNO
94299KAAT AAT20161204021011912/04/16 02:10:31  5-MIN KAAT 041010Z AUTO 00000KT 10SM BKN110 M03/M04 A3021 4110 92 2900 000/00 RMK AO2 T10331044 TSNO
94299KAAT AAT20161204021511912/04/16 02:15:31  5-MIN KAAT 041015Z AUTO 00000KT 10SM BKN100 M03/M04 A3021 4120 92 2900 000/00 RMK AO2 T10331044 TSNO
94299KAAT AAT20161204022011912/04/16 02:20:31  5-MIN KAAT 041020Z AUTO 00000KT 10SM BKN110 M04/M04 A3020 4120 96 2900 000/00 RMK AO2 T10391044 TSNO
94299KAAT AAT20161204022511912/04/16 02:25:31  5-MIN KAAT 041025Z AUTO 20003KT 10SM BKN110 M04/M04 A3020 4130 96 2900 190/03 RMK AO2 T10391044 TSNO
94299KAAT AAT20161204023011912/04/16 02:30:31  5-MIN KAAT 041030Z AUTO 00000KT 10SM SCT100 M04/M05 A3020 4130 96 2800 000/00 RMK AO2 T10441050 TSNO
94299KAAT AAT20161204023511912/04/16 02:35:31  5-MIN KAAT 041035Z AUTO 00000KT 10SM SCT100 M04/M05 A3019 4130 96 2800 000/00 RMK AO2 T10441050 TSNO
94299KAAT AAT20161204024011912/04/16 02:40:31  5-MIN KAAT 041040Z AUTO 00000KT 10SM FEW110 M04/M05 A3019 4130 96 2800 000/00 RMK AO2 T10441050 TSNO
94299KAAT AAT20161204024511912/04/16 02:45:31  5-MIN KAAT 041045Z AUTO 00000KT 10SM FEW110 M04/M06 A3019 4140 92 2800 000/00 RMK AO2 T10441056 TSNO
94299KAAT AAT20161204025012312/04/16 02:50:31  5-MIN KAAT 041050Z AUTO 00000KT 10SM CLR M04/M05 A3019 4140 92 2900 000/00 RMK AO2 SLP232 T10391050 TSNO
94299KAAT AAT20161204025512312/04/16 02:55:31  5-MIN KAAT 041055Z AUTO 00000KT 10SM CLR M04/M05 A3019 4130 92 2900 000/00 RMK AO2 SLP232 T10391050 TSNO
94299KAAT AAT20161204030011912/04/16 03:00:31  5-MIN KAAT 041100Z AUTO 36003KT 10SM FEW110 M04/M05 A3019 4130 92 2900 340/03 RMK AO2 T10391050 TSNO
94299KAAT AAT20161204030511912/04/16 03:05:31  5-MIN KAAT 041105Z AUTO 36004KT 10SM SCT110 M04/M05 A3020 4130 92 2900 340/04 RMK AO2 T10391050 TSNO
94299KAAT AAT20161204031011812/04/16 03:10:31  5-MIN KAAT 041110Z AUTO 03004KT 8SM SCT110 M04/M05 A3019 4130 92 2900 010/04 RMK AO2 T10391050 TSNO
94299KAAT AAT20161204031511812/04/16 03:15:31  5-MIN KAAT 041115Z AUTO 02004KT 7SM SCT110 M04/M04 A3020 4130 96 2900 010/04 RMK AO2 T10391044 TSNO
94299KAAT AAT20161204032011812/04/16 03:20:31  5-MIN KAAT 041120Z AUTO 01003KT 8SM BKN110 M04/M05 A3020 4130 92 2900 360/03 RMK AO2 T10391050 TSNO
94299KAAT AAT20161204032511812/04/16 03:25:31  5-MIN KAAT 041125Z AUTO 00000KT 9SM BKN110 M04/M05 A3020 4130 92 2900 000/00 RMK AO2 T10391050 TSNO
94299KAAT AAT20161204033011912/04/16 03:30:31  5-MIN KAAT 041130Z AUTO 00000KT 10SM SCT110 M03/M05 A3020 4130 88 2900 000/00 RMK AO2 T10331050 TSNO
94299KAAT AAT20161204033511912/04/16 03:35:31  5-MIN KAAT 041135Z AUTO 00000KT 10SM FEW110 M03/M05 A3020 4130 88 2900 000/00 RMK AO2 T10331050 TSNO
94299KAAT AAT20161204034011912/04/16 03:40:31  5-MIN KAAT 041140Z AUTO 00000KT 10SM FEW120 M04/M06 A3020 4130 92 2800 000/00 RMK AO2 T10441056 TSNO
94299KAAT AAT20161204034511912/04/16 03:45:31  5-MIN KAAT 041145Z AUTO 10004KT 10SM FEW120 M04/M06 A3019 4130 92 2800 090/04 RMK AO2 T10441056 TSNO
94299KAAT AAT20161204035014012/04/16 03:50:31  5-MIN KAAT 041150Z AUTO 12005KT 9SM CLR M04/M06 A3019 4130 88 2900 100/05 RMK AO2 SLP236 T10391056 11028 21050 58004 TSNO
94299KAAT AAT20161204035514012/04/16 03:55:31  5-MIN KAAT 041155Z AUTO 10004KT 7SM CLR M04/M05 A3019 4130 92 2900 090/04 RMK AO2 SLP233 T10391050 11028 21050 56017 TSNO
94299KAAT AAT20161204040011512/04/16 04:00:31  5-MIN KAAT 041200Z AUTO 10003KT 7SM CLR M04/M05 A3019 4130 92 2900 080/03 RMK AO2 T10391050 TSNO
94299KAAT AAT20161204040511612/04/16 04:05:31  5-MIN KAAT 041205Z AUTO 10004KT 10SM CLR M03/M05 A3019 4130 88 2900 090/04 RMK AO2 T10331050 TSNO
94299KAAT AAT20161204041011612/04/16 04:10:31  5-MIN KAAT 041210Z AUTO 00000KT 10SM CLR M04/M05 A3019 4130 92 2900 000/00 RMK AO2 T10391050 TSNO
94299KAAT AAT20161204041511612/04/16 04:15:31  5-MIN KAAT 041215Z AUTO 13003KT 10SM CLR M05/M06 A3018 4140 96 2700 120/03 RMK AO2 T10501056 TSNO
94299KAAT AAT20161204042011612/04/16 04:20:31  5-MIN KAAT 041220Z AUTO 16004KT 10SM CLR M05/M06 A3018 4140 92 2700 140/04 RMK AO2 T10501061 TSNO
94299KAAT AAT20161204042511612/04/16 04:25:31  5-MIN KAAT 041225Z AUTO 18003KT 10SM CLR M05/M06 A3018 4140 92 2700 160/03 RMK AO2 T10501061 TSNO
94299KAAT AAT20161204043011512/04/16 04:30:31  5-MIN KAAT 041230Z AUTO 00000KT 9SM CLR M06/M06 A3018 4140 96 2700 000/00 RMK AO2 T10561061 TSNO
94299KAAT AAT20161204043511512/04/16 04:35:31  5-MIN KAAT 041235Z AUTO 00000KT 9SM CLR M06/M06 A3018 4140 96 2700 000/00 RMK AO2 T10561061 TSNO
94299KAAT AAT20161204044011512/04/16 04:40:31  5-MIN KAAT 041240Z AUTO 27003KT 9SM CLR M06/M07 A3018 4140 96 2600 250/03 RMK AO2 T10611067 TSNO
94299KAAT AAT20161204044511612/04/16 04:45:31  5-MIN KAAT 041245Z AUTO 31003KT 10SM CLR M06/M07 A3018 4140 92 2600 290/03 RMK AO2 T10611072 TSNO
94299KAAT AAT20161204045012312/04/16 04:50:31  5-MIN KAAT 041250Z AUTO 34003KT 10SM CLR M06/M07 A3018 4140 92 2600 320/03 RMK AO2 SLP241 T10611072 TSNO
94299KAAT AAT20161204045512312/04/16 04:55:31  5-MIN KAAT 041255Z AUTO 35003KT 10SM CLR M06/M07 A3018 4140 92 2700 340/03 RMK AO2 SLP240 T10561067 TSNO
94299KAAT AAT20161204050011512/04/16 05:00:31  5-MIN KAAT 041300Z AUTO 32003KT 7SM CLR M06/M07 A3018 4140 92 2700 310/03 RMK AO2 T10561067 TSNO
94299KAAT AAT20161204050511812/04/16 05:05:31  5-MIN KAAT 041305Z AUTO 00000KT 6SM BR CLR M06/M07 A3018 4140 92 2700 000/00 RMK AO2 T10561067 TSNO
94299KAAT AAT20161204051011812/04/16 05:10:31  5-MIN KAAT 041310Z AUTO 00000KT 6SM BR CLR M06/M06 A3018 4140 96 2700 000/00 RMK AO2 T10561061 TSNO
94299KAAT AAT20161204051511812/04/16 05:15:31  5-MIN KAAT 041315Z AUTO 00000KT 6SM BR CLR M05/M06 A3018 4140 92 2700 000/00 RMK AO2 T10501061 TSNO
94299KAAT AAT20161204052011512/04/16 05:20:31  5-MIN KAAT 041320Z AUTO 00000KT 8SM CLR M05/M06 A3018 4150 92 2700 000/00 RMK AO2 T10501061 TSNO
94299KAAT AAT20161204052511512/04/16 05:25:31  5-MIN KAAT 041325Z AUTO 00000KT 7SM CLR M04/M06 A3017 4150 92 2800 000/00 RMK AO2 T10441056 TSNO
94299KAAT AAT20161204053011512/04/16 05:30:31  5-MIN KAAT 041330Z AUTO 00000KT 7SM CLR M04/M06 A3017 4150 92 2800 000/00 RMK AO2 T10441056 TSNO
94299KAAT AAT20161204053511512/04/16 05:35:31  5-MIN KAAT 041335Z AUTO 00000KT 8SM CLR M06/M06 A3017 4150 96 2700 000/00 RMK AO2 T10561061 TSNO
94299KAAT AAT20161204054011512/04/16 05:40:31  5-MIN KAAT 041340Z AUTO 00000KT 9SM CLR M06/M06 A3018 4140 96 2700 000/00 RMK AO2 T10561061 TSNO
94299KAAT AAT20161204054511912/04/16 05:45:31  5-MIN KAAT 041345Z AUTO 00000KT 10SM FEW100 M06/M06 A3018 4150 96 2700 000/00 RMK AO2 T10561061 TSNO
94299KAAT AAT20161204055012612/04/16 05:50:31  5-MIN KAAT 041350Z AUTO 00000KT 10SM FEW100 M05/M06 A3017 4150 92 2800 000/00 RMK AO2 SLP241 T10501061 TSNO
94299KAAT AAT20161204055512512/04/16 05:55:31  5-MIN KAAT 041355Z AUTO 00000KT 8SM FEW100 M04/M06 A3017 4150 88 2800 000/00 RMK AO2 SLP239 T10441061 TSNO
94299KAAT AAT20161204060012112/04/16 06:00:31  5-MIN KAAT 041400Z AUTO 12003KT 6SM BR FEW100 M05/M06 A3017 4150 96 2800 100/03 RMK AO2 T10501056 TSNO
94299KAAT AAT20161204060512112/04/16 06:05:31  5-MIN KAAT 041405Z AUTO 11004KT 5SM BR FEW100 M04/M06 A3017 4150 92 2800 100/04 RMK AO2 T10441056 TSNO
94299KAAT AAT20161204061012112/04/16 06:10:31  5-MIN KAAT 041410Z AUTO 00000KT 6SM BR FEW100 M04/M06 A3017 4150 92 2800 000/00 RMK AO2 T10441056 TSNO
94299KAAT AAT20161204061511812/04/16 06:15:31  5-MIN KAAT 041415Z AUTO 00000KT 7SM FEW100 M04/M06 A3017 4160 92 2800 000/00 RMK AO2 T10441056 TSNO
94299KAAT AAT20161204062011512/04/16 06:20:31  5-MIN KAAT 041420Z AUTO 00000KT 8SM CLR M04/M06 A3016 4160 92 2800 000/00 RMK AO2 T10441056 TSNO
94299KAAT AAT20161204062511512/04/16 06:25:31  5-MIN KAAT 041425Z AUTO 00000KT 7SM CLR M05/M06 A3016 4160 92 2800 000/00 RMK AO2 T10501061 TSNO
94299KAAT AAT20161204063011512/04/16 06:30:31  5-MIN KAAT 041430Z AUTO 00000KT 7SM CLR M05/M06 A3016 4160 92 2800 000/00 RMK AO2 T10501061 TSNO
94299KAAT AAT20161204063511512/04/16 06:35:31  5-MIN KAAT 041435Z AUTO 00000KT 8SM CLR M05/M06 A3016 4160 92 2800 000/00 RMK AO2 T10501061 TSNO
94299KAAT AAT20161204064011512/04/16 06:40:31  5-MIN KAAT 041440Z AUTO 00000KT 8SM CLR M05/M06 A3017 4150 92 2800 000/00 RMK AO2 T10501061 TSNO
94299KAAT AAT20161204064511512/04/16 06:45:31  5-MIN KAAT 041445Z AUTO 00000KT 8SM CLR M05/M06 A3016 4160 92 2800 000/00 RMK AO2 T10501061 TSNO
94299KAAT AAT20161204065012812/04/16 06:50:31  5-MIN KAAT 041450Z AUTO 00000KT 8SM CLR M05/M06 A3015 4170 92 2800 000/00 RMK AO2 SLP236 T10501061 56017 TSNO
94299KAAT AAT20161204065512812/04/16 06:55:31  5-MIN KAAT 041455Z AUTO 00000KT 8SM CLR M06/M06 A3015 4170 96 2700 000/00 RMK AO2 SLP238 T10561061 58011 TSNO
94299KAAT AAT20161204070011512/04/16 07:00:31  5-MIN KAAT 041500Z AUTO 35003KT 8SM CLR M06/M06 A3015 4170 96 2700 330/03 RMK AO2 T10561061 TSNO
94299KAAT AAT20161204070511512/04/16 07:05:31  5-MIN KAAT 041505Z AUTO 00000KT 8SM CLR M05/M07 A3015 4160 88 2800 000/00 RMK AO2 T10501067 TSNO
94299KAAT AAT20161204071011512/04/16 07:10:31  5-MIN KAAT 041510Z AUTO 00000KT 7SM CLR M06/M07 A3016 4160 92 2700 000/00 RMK AO2 T10561067 TSNO
94299KAAT AAT20161204071511512/04/16 07:15:31  5-MIN KAAT 041515Z AUTO 00000KT 7SM CLR M05/M07 A3016 4160 88 2800 000/00 RMK AO2 T10501067 TSNO
94299KAAT AAT20161204072011512/04/16 07:20:31  5-MIN KAAT 041520Z AUTO 00000KT 7SM CLR M05/M07 A3016 4160 88 2800 000/00 RMK AO2 T10501067 TSNO
94299KAAT AAT20161204072511512/04/16 07:25:31  5-MIN KAAT 041525Z AUTO 00000KT 8SM CLR M05/M07 A3015 4160 88 2800 000/00 RMK AO2 T10501067 TSNO
94299KAAT AAT20161204073011512/04/16 07:30:31  5-MIN KAAT 041530Z AUTO 00000KT 9SM CLR M06/M07 A3016 4160 92 2700 000/00 RMK AO2 T10561067 TSNO
94299KAAT AAT20161204073511512/04/16 07:35:31  5-MIN KAAT 041535Z AUTO 00000KT 9SM CLR M06/M07 A3015 4170 92 2700 000/00 RMK AO2 T10561067 TSNO
94299KAAT AAT20161204074011512/04/16 07:40:31  5-MIN KAAT 041540Z AUTO 00000KT 9SM CLR M06/M07 A3015 4170 92 2700 000/00 RMK AO2 T10561067 TSNO
94299KAAT AAT20161204074511512/04/16 07:45:31  5-MIN KAAT 041545Z AUTO 00000KT 9SM CLR M05/M06 A3015 4170 92 2800 000/00 RMK AO2 T10501061 TSNO
94299KAAT AAT20161204075012312/04/16 07:50:31  5-MIN KAAT 041550Z AUTO 00000KT 10SM CLR M04/M05 A3014 4170 96 2900 000/00 RMK AO2 SLP234 T10441050 TSNO
94299KAAT AAT20161204075512212/04/16 07:55:31  5-MIN KAAT 041555Z AUTO 00000KT 8SM CLR M04/M05 A3014 4180 92 2900 000/00 RMK AO2 SLP232 T10391050 TSNO
94299KAAT AAT20161204080011512/04/16 08:00:31  5-MIN KAAT 041600Z AUTO 00000KT 7SM CLR M04/M05 A3014 4180 92 2900 000/00 RMK AO2 T10391050 TSNO
94299KAAT AAT20161204080511512/04/16 08:05:31  5-MIN KAAT 041605Z AUTO 31003KT 8SM CLR M04/M05 A3015 4170 92 2900 290/03 RMK AO2 T10391050 TSNO
94299KAAT AAT20161204081011512/04/16 08:10:31  5-MIN KAAT 041610Z AUTO 00000KT 8SM CLR M04/M06 A3015 4170 88 2900 000/00 RMK AO2 T10391056 TSNO
94299KAAT AAT20161204081511512/04/16 08:15:31  5-MIN KAAT 041615Z AUTO 00000KT 9SM CLR M04/M05 A3015 4170 92 2900 000/00 RMK AO2 T10391050 TSNO
94299KAAT AAT20161204082011512/04/16 08:20:31  5-MIN KAAT 041620Z AUTO 00000KT 8SM CLR M03/M05 A3014 4180 88 3000 000/00 RMK AO2 T10331050 TSNO
94299KAAT AAT20161204082511812/04/16 08:25:31  5-MIN KAAT 041625Z AUTO 00000KT 6SM BR CLR M03/M05 A3014 4180 85 3100 000/00 RMK AO2 T10281050 TSNO
94299KAAT AAT20161204083011812/04/16 08:30:31  5-MIN KAAT 041630Z AUTO 00000KT 5SM BR CLR M02/M04 A3014 4180 85 3100 000/00 RMK AO2 T10221044 TSNO
94299KAAT AAT20161204083511812/04/16 08:35:31  5-MIN KAAT 041635Z AUTO 00000KT 5SM BR CLR M02/M04 A3013 4180 85 3100 000/00 RMK AO2 T10221044 TSNO
94299KAAT AAT20161204084011812/04/16 08:40:31  5-MIN KAAT 041640Z AUTO 00000KT 5SM BR CLR M02/M04 A3013 4190 85 3200 000/00 RMK AO2 T10171039 TSNO
94299KAAT AAT20161204084511812/04/16 08:45:31  5-MIN KAAT 041645Z AUTO 00000KT 5SM BR CLR M02/M04 A3013 4190 85 3200 000/00 RMK AO2 T10171039 TSNO
94299KAAT AAT20161204085012512/04/16 08:50:31  5-MIN KAAT 041650Z AUTO 00000KT 5SM BR CLR M02/M04 A3013 4190 85 3200 000/00 RMK AO2 SLP227 T10171039 TSNO
94299KAAT AAT20161204085512512/04/16 08:55:31  5-MIN KAAT 041655Z AUTO 00000KT 6SM BR CLR M02/M04 A3013 4180 85 3200 000/00 RMK AO2 SLP228 T10171039 TSNO
94299KAAT AAT20161204090011812/04/16 09:00:31  5-MIN KAAT 041700Z AUTO 00000KT 6SM BR CLR M02/M04 A3013 4190 85 3200 000/00 RMK AO2 T10171039 TSNO
94299KAAT AAT20161204090511812/04/16 09:05:31  5-MIN KAAT 041705Z AUTO 00000KT 5SM BR CLR M02/M04 A3013 4190 85 3200 000/00 RMK AO2 T10171039 TSNO
94299KAAT AAT20161204091011812/04/16 09:10:31  5-MIN KAAT 041710Z AUTO 00000KT 5SM HZ CLR M02/M04 A3014 4180 81 3200 000/00 RMK AO2 T10171044 TSNO
94299KAAT AAT20161204091511812/04/16 09:15:31  5-MIN KAAT 041715Z AUTO 00000KT 5SM BR CLR M02/M04 A3013 4190 85 3200 000/00 RMK AO2 T10171039 TSNO
94299KAAT AAT20161204092011512/04/16 09:20:31  5-MIN KAAT 041720Z AUTO 00000KT 7SM CLR M01/M04 A3013 4190 81 3300 000/00 RMK AO2 T10111039 TSNO
94299KAAT AAT20161204092511512/04/16 09:25:31  5-MIN KAAT 041725Z AUTO 00000KT 9SM CLR M01/M04 A3014 4180 81 3300 000/00 RMK AO2 T10111039 TSNO
94299KAAT AAT20161204093011512/04/16 09:30:31  5-MIN KAAT 041730Z AUTO 00000KT 9SM CLR M01/M03 A3013 4190 81 3300 000/00 RMK AO2 T10061033 TSNO
94299KAAT AAT20161204093511512/04/16 09:35:31  5-MIN KAAT 041735Z AUTO 00000KT 9SM CLR M01/M03 A3013 4190 81 3400 000/00 RMK AO2 T10061033 TSNO
94299KAAT AAT20161204094011512/04/16 09:40:31  5-MIN KAAT 041740Z AUTO 00000KT 10SM CLR 00/M03 A3013 4190 78 3400 000/00 RMK AO2 T00001033 TSNO
94299KAAT AAT20161204094511512/04/16 09:45:31  5-MIN KAAT 041745Z AUTO 00000KT 10SM CLR 00/M03 A3013 4190 78 3400 000/00 RMK AO2 T00001033 TSNO
94299KAAT AAT20161204095014012/04/16 09:50:31  5-MIN KAAT 041750Z AUTO 00000KT 10SM CLR 01/M03 A3012 4190 75 3500 000/00 RMK AO2 SLP222 T00061033 10006 21061 58011 TSNO
94299KAAT AAT20161204095514012/04/16 09:55:31  5-MIN KAAT 041755Z AUTO 00000KT 10SM CLR 01/M03 A3012 4200 72 3600 000/00 RMK AO2 SLP220 T00111033 10011 21061 57009 TSNO
94299KAAT AAT20161204100011512/04/16 10:00:31  5-MIN KAAT 041800Z AUTO 00000KT 10SM CLR 02/M03 A3012 4190 69 3600 000/00 RMK AO2 T00171033 TSNO
94299KAAT AAT20161204100511512/04/16 10:05:31  5-MIN KAAT 041805Z AUTO 00000KT 10SM CLR 02/M03 A3012 4200 69 3600 000/00 RMK AO2 T00171033 TSNO
94299KAAT AAT20161204101011512/04/16 10:10:31  5-MIN KAAT 041810Z AUTO 00000KT 10SM CLR 02/M04 A3012 4200 66 3600 000/00 RMK AO2 T00171039 TSNO
94299KAAT AAT20161204101511512/04/16 10:15:31  5-MIN KAAT 041815Z AUTO 00000KT 10SM CLR 02/M04 A3012 4200 66 3600 000/00 RMK AO2 T00171039 TSNO
94299KAAT AAT20161204102011512/04/16 10:20:31  5-MIN KAAT 041820Z AUTO 00000KT 10SM CLR 02/M04 A3012 4200 64 3700 000/00 RMK AO2 T00221039 TSNO
94299KAAT AAT20161204102511512/04/16 10:25:31  5-MIN KAAT 041825Z AUTO 00000KT 10SM CLR 02/M03 A3012 4200 69 3600 000/00 RMK AO2 T00171033 TSNO
94299KAAT AAT20161204103011512/04/16 10:30:31  5-MIN KAAT 041830Z AUTO 00000KT 10SM CLR 02/M03 A3011 4200 67 3700 000/00 RMK AO2 T00221033 TSNO
94299KAAT AAT20161204103511512/04/16 10:35:31  5-MIN KAAT 041835Z AUTO 00000KT 10SM CLR 02/M03 A3011 4210 67 3700 000/00 RMK AO2 T00221033 TSNO
94299KAAT AAT20161204104011512/04/16 10:40:31  5-MIN KAAT 041840Z AUTO 00000KT 10SM CLR 03/M04 A3011 4210 61 3800 000/00 RMK AO2 T00281039 TSNO
94299KAAT AAT20161204104511512/04/16 10:45:31  5-MIN KAAT 041845Z AUTO 32003KT 10SM CLR 03/M03 A3011 4210 64 3800 300/03 RMK AO2 T00281033 TSNO
94299KAAT AAT20161204105012212/04/16 10:50:31  5-MIN KAAT 041850Z AUTO 00000KT 10SM CLR 03/M04 A3011 4210 61 3800 000/00 RMK AO2 SLP212 T00281039 TSNO
94299KAAT AAT20161204105512212/04/16 10:55:31  5-MIN KAAT 041855Z AUTO VRB03KT 10SM CLR 03/M03 A3010 4210 61 3900 VRB/03 RMK AO2 SLP208 T00331033 TSNO
94299KAAT AAT20161204110011512/04/16 11:00:31  5-MIN KAAT 041900Z AUTO 00000KT 10SM CLR 03/M04 A3010 4220 61 3800 000/00 RMK AO2 T00281039 TSNO
94299KAAT AAT20161204110511512/04/16 11:05:31  5-MIN KAAT 041905Z AUTO 00000KT 10SM CLR 03/M03 A3009 4220 61 3900 000/00 RMK AO2 T00331033 TSNO
94299KAAT AAT20161204111011512/04/16 11:10:31  5-MIN KAAT 041910Z AUTO 00000KT 10SM CLR 03/M03 A3009 4230 61 3900 000/00 RMK AO2 T00331033 TSNO
94299KAAT AAT20161204111511512/04/16 11:15:31  5-MIN KAAT 041915Z AUTO 25004KT 10SM CLR 04/M03 A3009 4220 59 3900 240/04 RMK AO2 T00391033 TSNO
94299KAAT AAT20161204112011512/04/16 11:20:31  5-MIN KAAT 041920Z AUTO 27005KT 10SM CLR 05/M03 A3009 4220 57 4100 260/05 RMK AO2 T00501028 TSNO
94299KAAT AAT20161204112511512/04/16 11:25:31  5-MIN KAAT 041925Z AUTO 30003KT 10SM CLR 04/M03 A3009 4230 59 4000 280/03 RMK AO2 T00441028 TSNO
94299KAAT AAT20161204113011812/04/16 11:30:31  5-MIN KAAT 041930Z AUTO 30004KT 10SM FEW110 05/M02 A3009 4230 59 4100 280/04 RMK AO2 T00501022 TSNO
94299KAAT AAT20161204113511812/04/16 11:35:31  5-MIN KAAT 041935Z AUTO 29003KT 10SM FEW110 05/M02 A3008 4230 59 4100 280/03 RMK AO2 T00501022 TSNO
94299KAAT AAT20161204114011812/04/16 11:40:31  5-MIN KAAT 041940Z AUTO 00000KT 10SM FEW110 05/M02 A3008 4240 59 4100 000/00 RMK AO2 T00501022 TSNO
94299KAAT AAT20161204114511812/04/16 11:45:31  5-MIN KAAT 041945Z AUTO 00000KT 10SM FEW110 05/M02 A3007 4240 59 4100 000/00 RMK AO2 T00501022 TSNO
94299KAAT AAT20161204115012512/04/16 11:50:31  5-MIN KAAT 041950Z AUTO 00000KT 10SM FEW110 06/M02 A3007 4250 57 4200 000/00 RMK AO2 SLP195 T00561022 TSNO
94299KAAT AAT20161204115512512/04/16 11:55:31  5-MIN KAAT 041955Z AUTO 00000KT 10SM FEW110 06/M02 A3006 4250 57 4200 000/00 RMK AO2 SLP194 T00561022 TSNO
94299KAAT AAT20161204120011812/04/16 12:00:31  5-MIN KAAT 042000Z AUTO 00000KT 10SM FEW110 06/M02 A3006 4260 57 4200 000/00 RMK AO2 T00561022 TSNO
94299KAAT AAT20161204120511812/04/16 12:05:31  5-MIN KAAT 042005Z AUTO 25004KT 10SM FEW110 07/M02 A3005 4260 53 4400 240/04 RMK AO2 T00721017 TSNO
94299KAAT AAT20161204121011512/04/16 12:10:31  5-MIN KAAT 042010Z AUTO VRB04KT 10SM CLR 08/M02 A3005 4260 49 4400 VRB/04 RMK AO2 T00781022 TSNO
94299KAAT AAT20161204121511512/04/16 12:15:31  5-MIN KAAT 042015Z AUTO 25005KT 10SM CLR 08/M02 A3005 4260 49 4400 230/05 RMK AO2 T00781022 TSNO
94299KAAT AAT20161204122011512/04/16 12:20:31  5-MIN KAAT 042020Z AUTO 25006KT 10SM CLR 07/M02 A3004 4270 51 4400 230/06 RMK AO2 T00721022 TSNO
94299KAAT AAT20161204122511512/04/16 12:25:31  5-MIN KAAT 042025Z AUTO 27004KT 10SM CLR 07/M02 A3004 4270 51 4400 250/04 RMK AO2 T00721022 TSNO
94299KAAT AAT20161204123011512/04/16 12:30:31  5-MIN KAAT 042030Z AUTO 29004KT 10SM CLR 07/M02 A3004 4270 51 4400 270/04 RMK AO2 T00721022 TSNO
94299KAAT AAT20161204123511512/04/16 12:35:31  5-MIN KAAT 042035Z AUTO 26003KT 10SM CLR 07/M02 A3003 4280 51 4400 240/03 RMK AO2 T00721022 TSNO
94299KAAT AAT20161204124011512/04/16 12:40:31  5-MIN KAAT 042040Z AUTO 00000KT 10SM CLR 07/M02 A3003 4280 53 4300 000/00 RMK AO2 T00671022 TSNO
94299KAAT AAT20161204124511512/04/16 12:45:31  5-MIN KAAT 042045Z AUTO 24004KT 10SM CLR 07/M02 A3004 4270 53 4400 220/04 RMK AO2 T00721017 TSNO
94299KAAT AAT20161204125012812/04/16 12:50:31  5-MIN KAAT 042050Z AUTO 26003KT 10SM CLR 07/M02 A3003 4280 53 4400 240/03 RMK AO2 SLP177 T00721017 57009 TSNO
94299KAAT AAT20161204125512812/04/16 12:55:31  5-MIN KAAT 042055Z AUTO 00000KT 10SM CLR 07/M02 A3003 4280 53 4400 000/00 RMK AO2 SLP177 T00721017 58027 TSNO
94299KAAT AAT20161204130011512/04/16 13:00:31  5-MIN KAAT 042100Z AUTO 00000KT 10SM CLR 07/M02 A3003 4280 53 4400 000/00 RMK AO2 T00721017 TSNO
94299KAAT AAT20161204130511512/04/16 13:05:31  5-MIN KAAT 042105Z AUTO 00000KT 10SM CLR 08/M02 A3003 4280 51 4500 000/00 RMK AO2 T00781017 TSNO
94299KAAT AAT20161204131011512/04/16 13:10:31  5-MIN KAAT 042110Z AUTO 16003KT 10SM CLR 08/M02 A3003 4280 51 4500 140/03 RMK AO2 T00781017 TSNO
94299KAAT AAT20161204131511512/04/16 13:15:31  5-MIN KAAT 042115Z AUTO VRB04KT 10SM CLR 08/M01 A3002 4290 53 4500 VRB/04 RMK AO2 T00781011 TSNO
94299KAAT AAT20161204132011512/04/16 13:20:31  5-MIN KAAT 042120Z AUTO 19005KT 10SM CLR 08/M01 A3002 4290 51 4500 170/05 RMK AO2 T00831011 TSNO
94299KAAT AAT20161204132511512/04/16 13:25:31  5-MIN KAAT 042125Z AUTO 23009KT 10SM CLR 09/M01 A3002 4290 49 4600 210/09 RMK AO2 T00891011 TSNO
94299KAAT AAT20161204133011512/04/16 13:30:31  5-MIN KAAT 042130Z AUTO 23009KT 10SM CLR 08/M01 A3002 4290 51 4500 210/09 RMK AO2 T00831011 TSNO
94299KAAT AAT20161204133511512/04/16 13:35:31  5-MIN KAAT 042135Z AUTO 24009KT 10SM CLR 08/M01 A3002 4290 51 4500 220/09 RMK AO2 T00831011 TSNO
94299KAAT AAT20161204134011512/04/16 13:40:31  5-MIN KAAT 042140Z AUTO 24009KT 10SM CLR 09/M01 A3002 4290 49 4600 220/09 RMK AO2 T00891011 TSNO
94299KAAT AAT20161204134511512/04/16 13:45:31  5-MIN KAAT 042145Z AUTO 24009KT 10SM CLR 09/M01 A3002 4290 49 4600 220/09 RMK AO2 T00891011 TSNO
94299KAAT AAT20161204135012512/04/16 13:50:31  5-MIN KAAT 042150Z AUTO 24008KT 10SM FEW110 09/M01 A3002 4290 49 4600 220/08 RMK AO2 SLP172 T00891011 TSNO
94299KAAT AAT20161204135512512/04/16 13:55:31  5-MIN KAAT 042155Z AUTO 24006KT 10SM FEW110 09/M01 A3002 4290 49 4600 230/06 RMK AO2 SLP171 T00891011 TSNO
94299KAAT AAT20161204140011812/04/16 14:00:31  5-MIN KAAT 042200Z AUTO 23009KT 10SM FEW110 09/M01 A3002 4290 47 4700 220/09 RMK AO2 T00941011 TSNO
94299KAAT AAT20161204140511812/04/16 14:05:31  5-MIN KAAT 042205Z AUTO 23009KT 10SM FEW110 09/M01 A3001 4300 49 4600 220/09 RMK AO2 T00891011 TSNO
94299KAAT AAT20161204141011812/04/16 14:10:31  5-MIN KAAT 042210Z AUTO 25009KT 10SM FEW110 09/M01 A3001 4300 47 4700 240/09 RMK AO2 T00941011 TSNO
94299KAAT AAT20161204141511812/04/16 14:15:31  5-MIN KAAT 042215Z AUTO 27009KT 10SM FEW110 09/M01 A3000 4300 49 4700 250/09 RMK AO2 T00941006 TSNO
94299KAAT AAT20161204142012112/04/16 14:20:31  5-MIN KAAT 042220Z AUTO 25011G16KT 10SM CLR 09/M01 A3001 4300 49 4700 230/11G16 RMK AO2 T00941006 TSNO
94299KAAT AAT20161204142512112/04/16 14:25:31  5-MIN KAAT 042225Z AUTO 27009G16KT 10SM CLR 09/M01 A3001 4300 49 4700 250/09G16 RMK AO2 T00941006 TSNO
94299KAAT AAT20161204143012112/04/16 14:30:31  5-MIN KAAT 042230Z AUTO 25013G18KT 10SM CLR 09/M01 A3000 4300 49 4700 240/13G18 RMK AO2 T00941006 TSNO
94299KAAT AAT20161204143511512/04/16 14:35:31  5-MIN KAAT 042235Z AUTO 26013KT 10SM CLR 09/M01 A3000 4310 51 4600 240/13 RMK AO2 T00891006 TSNO
94299KAAT AAT20161204144012112/04/16 14:40:31  5-MIN KAAT 042240Z AUTO 24017G20KT 10SM CLR 09/M01 A3000 4310 51 4600 220/17G20 RMK AO2 T00891006 TSNO
94299KAAT AAT20161204144512112/04/16 14:45:31  5-MIN KAAT 042245Z AUTO 25014G20KT 10SM CLR 09/M01 A3000 4310 51 4600 230/14G20 RMK AO2 T00891006 TSNO
94299KAAT AAT20161204145012112/04/16 14:50:31  5-MIN KAAT 042250Z AUTO 24016KT 10SM CLR 08/00 A3000 4310 55 4600 220/16 RMK AO2 SLP166 T00830000 TSNO
94299KAAT AAT20161204145512712/04/16 14:55:31  5-MIN KAAT 042255Z AUTO 24011G20KT 10SM CLR 08/00 A2999 4310 55 4600 220/11G20 RMK AO2 SLP164 T00830000 TSNO
94299KAAT AAT20161204150011412/04/16 15:00:31  5-MIN KAAT 042300Z AUTO 24012KT 10SM CLR 08/00 A2999 4320 55 4600 230/12 RMK AO2 T00830000 TSNO
94299KAAT AAT20161204150511412/04/16 15:05:31  5-MIN KAAT 042305Z AUTO 23009KT 10SM CLR 08/00 A2999 4320 58 4500 220/09 RMK AO2 T00780000 TSNO
94299KAAT AAT20161204151011412/04/16 15:10:31  5-MIN KAAT 042310Z AUTO 22007KT 10SM CLR 08/00 A2999 4320 58 4500 200/07 RMK AO2 T00780000 TSNO
94299KAAT AAT20161204151511412/04/16 15:15:31  5-MIN KAAT 042315Z AUTO 22007KT 10SM CLR 08/01 A2999 4320 60 4500 200/07 RMK AO2 T00780006 TSNO
94299KAAT AAT20161204152012012/04/16 15:20:31  5-MIN KAAT 042320Z AUTO 22011G15KT 10SM CLR 08/01 A2999 4320 60 4500 210/11G15 RMK AO2 T00780006 TSNO
94299KAAT AAT20161204152512012/04/16 15:25:31  5-MIN KAAT 042325Z AUTO 23011G15KT 10SM CLR 07/01 A2999 4320 62 4400 210/11G15 RMK AO2 T00720006 TSNO
94299KAAT AAT20161204153011412/04/16 15:30:31  5-MIN KAAT 042330Z AUTO 23012KT 10SM CLR 07/01 A2999 4320 62 4400 210/12 RMK AO2 T00720006 TSNO
94299KAAT AAT20161204153512012/04/16 15:35:31  5-MIN KAAT 042335Z AUTO 23016G21KT 10SM CLR 07/01 A2999 4320 65 4400 220/16G21 RMK AO2 T00670006 TSNO
94299KAAT AAT20161204154012012/04/16 15:40:31  5-MIN KAAT 042340Z AUTO 24013G21KT 10SM CLR 07/01 A2999 4320 67 4400 220/13G21 RMK AO2 T00670011 TSNO
94299KAAT AAT20161204154512012/04/16 15:45:31  5-MIN KAAT 042345Z AUTO 23011G19KT 10SM CLR 07/01 A2999 4320 67 4400 220/11G19 RMK AO2 T00670011 TSNO
94299KAAT AAT20161204155013912/04/16 15:50:31  5-MIN KAAT 042350Z AUTO 23010KT 10SM CLR 07/01 A2999 4320 67 4400 220/10 RMK AO2 SLP164 T00670011 10100 20011 58027 TSNO
94299KAAT AAT20161204155513912/04/16 15:55:31  5-MIN KAAT 042355Z AUTO 24012KT 10SM CLR 07/01 A2998 4320 67 4400 220/12 RMK AO2 SLP163 T00670011 10100 20011 56013 TSNO
94299KAAT AAT20161204160011412/04/16 16:00:31  5-MIN KAAT 050000Z AUTO 23012KT 10SM CLR 06/01 A2998 4330 70 4300 220/12 RMK AO2 T00610011 TSNO
94299KAAT AAT20161204160512012/04/16 16:05:31  5-MIN KAAT 050005Z AUTO 23012G18KT 10SM CLR 06/01 A2998 4330 70 4300 220/12G18 RMK AO2 T00610011 TSNO
94299KAAT AAT20161204161011412/04/16 16:10:31  5-MIN KAAT 050010Z AUTO 23011KT 10SM CLR 06/01 A2998 4330 70 4300 220/11 RMK AO2 T00610011 TSNO
94299KAAT AAT20161204161511412/04/16 16:15:31  5-MIN KAAT 050015Z AUTO 23011KT 10SM CLR 06/01 A2998 4330 73 4300 220/11 RMK AO2 T00560011 TSNO
94299KAAT AAT20161204162011412/04/16 16:20:31  5-MIN KAAT 050020Z AUTO 23011KT 10SM CLR 06/01 A2997 4330 73 4300 220/11 RMK AO2 T00560011 TSNO
94299KAAT AAT20161204162511412/04/16 16:25:31  5-MIN KAAT 050025Z AUTO 23011KT 10SM CLR 06/01 A2997 4330 73 4300 210/11 RMK AO2 T00560011 TSNO
94299KAAT AAT20161204163011412/04/16 16:30:31  5-MIN KAAT 050030Z AUTO 23010KT 10SM CLR 05/01 A2997 4340 76 4200 220/10 RMK AO2 T00500011 TSNO
94299KAAT AAT20161204163511712/04/16 16:35:31  5-MIN KAAT 050035Z AUTO 23011KT 10SM FEW120 05/01 A2997 4330 76 4200 210/11 RMK AO2 T00500011 TSNO
94299KAAT AAT20161204164011712/04/16 16:40:31  5-MIN KAAT 050040Z AUTO 22010KT 10SM FEW120 05/01 A2997 4330 76 4200 210/10 RMK AO2 T00500011 TSNO
94299KAAT AAT20161204164511712/04/16 16:45:31  5-MIN KAAT 050045Z AUTO 23010KT 10SM FEW120 04/01 A2997 4340 79 4100 210/10 RMK AO2 T00440011 TSNO
94299KAAT AAT20161204165012412/04/16 16:50:31  5-MIN KAAT 050050Z AUTO 22010KT 10SM FEW120 05/01 A2997 4340 76 4200 210/10 RMK AO2 SLP164 T00500011 TSNO
94299KAAT AAT20161204165512412/04/16 16:55:31  5-MIN KAAT 050055Z AUTO 23011KT 10SM SCT120 05/01 A2997 4340 76 4200 210/11 RMK AO2 SLP163 T00500011 TSNO
94299KAAT AAT20161204170012412/04/16 17:00:31  5-MIN KAAT 050100Z AUTO 23013KT 10SM FEW024 BKN120 05/01 A2997 4340 76 4200 210/13 RMK AO2 T00500011 TSNO
94299KAAT AAT20161204170512412/04/16 17:05:31  5-MIN KAAT 050105Z AUTO 23011KT 10SM SCT024 BKN120 05/01 A2997 4340 76 4200 210/11 RMK AO2 T00500011 TSNO
94299KAAT AAT20161204171012412/04/16 17:10:31  5-MIN KAAT 050110Z AUTO 23011KT 10SM BKN025 BKN120 05/01 A2997 4340 76 4200 220/11 RMK AO2 T00500011 TSNO
94299KAAT AAT20161204171512412/04/16 17:15:31  5-MIN KAAT 050115Z AUTO 23011KT 10SM BKN025 BKN120 05/01 A2997 4340 76 4200 220/11 RMK AO2 T00500011 TSNO
94299KAAT AAT20161204172012412/04/16 17:20:31  5-MIN KAAT 050120Z AUTO 23010KT 10SM BKN025 BKN120 05/01 A2997 4340 76 4200 220/10 RMK AO2 T00500011 TSNO
94299KAAT AAT20161204172511712/04/16 17:25:31  5-MIN KAAT 050125Z AUTO 23010KT 10SM BKN025 05/02 A2997 4340 79 4200 220/10 RMK AO2 T00500017 TSNO
94299KAAT AAT20161204173011712/04/16 17:30:31  5-MIN KAAT 050130Z AUTO 23010KT 10SM OVC025 05/02 A2997 4340 79 4200 210/10 RMK AO2 T00500017 TSNO
94299KAAT AAT20161204173511712/04/16 17:35:31  5-MIN KAAT 050135Z AUTO 23010KT 10SM OVC024 05/02 A2997 4340 79 4200 220/10 RMK AO2 T00500017 TSNO
94299KAAT AAT20161204174011712/04/16 17:40:31  5-MIN KAAT 050140Z AUTO 24008KT 10SM OVC024 05/02 A2997 4340 79 4200 220/08 RMK AO2 T00500017 TSNO
94299KAAT AAT20161204174511712/04/16 17:45:31  5-MIN KAAT 050145Z AUTO 25009KT 10SM OVC024 05/02 A2997 4330 79 4200 230/09 RMK AO2 T00500017 TSNO
94299KAAT AAT20161204175012412/04/16 17:50:31  5-MIN KAAT 050150Z AUTO 25008KT 10SM OVC024 05/02 A2997 4330 79 4200 240/08 RMK AO2 SLP164 T00500017 TSNO
94299KAAT AAT20161204175512412/04/16 17:55:31  5-MIN KAAT 050155Z AUTO 25008KT 10SM OVC023 05/02 A2997 4330 79 4200 230/08 RMK AO2 SLP163 T00500017 TSNO
94299KAAT AAT20161204180011712/04/16 18:00:31  5-MIN KAAT 050200Z AUTO 25008KT 10SM OVC023 05/02 A2997 4340 79 4200 230/08 RMK AO2 T00500017 TSNO
94299KAAT AAT20161204180511712/04/16 18:05:31  5-MIN KAAT 050205Z AUTO 24009KT 10SM OVC023 05/02 A2996 4340 79 4200 230/09 RMK AO2 T00500017 TSNO
94299KAAT AAT20161204181011712/04/16 18:10:31  5-MIN KAAT 050210Z AUTO 25009KT 10SM BKN023 04/02 A2996 4340 82 4100 230/09 RMK AO2 T00440017 TSNO
94299KAAT AAT20161204181511712/04/16 18:15:31  5-MIN KAAT 050215Z AUTO 25011KT 10SM BKN023 04/02 A2996 4340 82 4100 240/11 RMK AO2 T00440017 TSNO
94299KAAT AAT20161204182011712/04/16 18:20:31  5-MIN KAAT 050220Z AUTO 25011KT 10SM BKN023 05/02 A2997 4340 82 4200 240/11 RMK AO2 T00500022 TSNO
94299KAAT AAT20161204182511712/04/16 18:25:31  5-MIN KAAT 050225Z AUTO 26010KT 10SM BKN023 05/02 A2996 4340 82 4200 240/10 RMK AO2 T00500022 TSNO
94299KAAT AAT20161204183011712/04/16 18:30:31  5-MIN KAAT 050230Z AUTO 26011KT 10SM BKN023 05/02 A2997 4340 82 4200 240/11 RMK AO2 T00500022 TSNO
94299KAAT AAT20161204183511712/04/16 18:35:31  5-MIN KAAT 050235Z AUTO 26012KT 10SM OVC024 05/02 A2997 4330 82 4200 250/12 RMK AO2 T00500022 TSNO
94299KAAT AAT20161204184011712/04/16 18:40:31  5-MIN KAAT 050240Z AUTO 26012KT 10SM OVC024 05/02 A2998 4330 82 4200 250/12 RMK AO2 T00500022 TSNO
94299KAAT AAT20161204184511712/04/16 18:45:31  5-MIN KAAT 050245Z AUTO 27015KT 10SM OVC025 05/02 A2997 4330 82 4200 250/15 RMK AO2 T00500022 TSNO
94299KAAT AAT20161204185014312/04/16 18:50:31  5-MIN KAAT 050250Z AUTO 26016G20KT 10SM BKN025 OVC044 05/02 A2998 4330 82 4200 250/16G20 RMK AO2 SLP168 T00500022 56013 TSNO
94299KAAT AAT20161204185515012/04/16 18:55:31  5-MIN KAAT 050255Z AUTO 27016G20KT 10SM BKN023 BKN028 OVC044 05/02 A2998 4320 82 4200 260/16G20 RMK AO2 SLP168 T00500022 55000 TSNO
94299KAAT AAT20161204190015312/04/16 19:00:31  5-MIN KAAT 050300Z AUTO 27016G23KT 10SM -RA BKN023 BKN028 OVC038 05/03 A2998 4320 85 4200 260/16G23 RMK AO2 RAB00 P0000 T00500028 TSNO
94299KAAT AAT20161204190515212/04/16 19:05:31  5-MIN KAAT 050305Z AUTO 28019G23KT 9SM -RA FEW015 BKN024 OVC036 04/03 A2999 4310 89 4100 270/19G23 RMK AO2 RAB00 P0000 T00440028 TSNO
94299KAAT AAT20161204191015112/04/16 19:10:31  5-MIN KAAT 050310Z AUTO 29019G25KT 7SM RA FEW016 BKN022 OVC034 04/03 A3000 4310 89 4100 270/19G25 RMK AO2 RAB00 P0001 T00440028 TSNO
94299KAAT AAT20161204191515212/04/16 19:15:31  5-MIN KAAT 050315Z AUTO 30015G25KT 8SM -RA FEW018 SCT026 OVC036 04/02 A3000 4310 89 4000 290/15G25 RMK AO2 RAB00 P0001 T00390022 TSNO
94299KAAT AAT20161204192015212/04/16 19:20:31  5-MIN KAAT 050320Z AUTO 32015G25KT 10SM FEW015 SCT022 OVC036 03/02 A3000 4310 89 4000 300/15G25 RMK AO2 RAB00E20 P0001 T00330017 TSNO
94299KAAT AAT20161204192514512/04/16 19:25:31  5-MIN KAAT 050325Z AUTO 33014G21KT 10SM FEW018 OVC038 03/02 A2999 4310 92 3900 310/14G21 RMK AO2 RAB00E20 P0001 T00280017 TSNO
94299KAAT AAT20161204193015212/04/16 19:30:31  5-MIN KAAT 050330Z AUTO 33016G21KT 10SM FEW018 BKN040 OVC070 03/01 A2999 4320 89 3900 320/16G21 RMK AO2 RAB00E20 P0001 T00280011 TSNO
94299KAAT AAT20161204193514612/04/16 19:35:31  5-MIN KAAT 050335Z AUTO 33016KT 10SM FEW018 BKN038 OVC080 02/01 A2999 4310 92 3800 320/16 RMK AO2 RAB00E20 P0001 T00220011 TSNO
94299KAAT AAT20161204194014612/04/16 19:40:31  5-MIN KAAT 050340Z AUTO 32013KT 10SM FEW033 BKN042 OVC070 02/01 A3000 4310 89 3800 310/13 RMK AO2 RAB00E20 P0001 T00220006 TSNO
94299KAAT AAT20161204194514612/04/16 19:45:31  5-MIN KAAT 050345Z AUTO 32013KT 10SM FEW033 BKN046 OVC070 02/01 A3000 4310 89 3800 300/13 RMK AO2 RAB00E20 P0001 T00220006 TSNO
94299KAAT AAT20161204195015312/04/16 19:50:31  5-MIN KAAT 050350Z AUTO 32013KT 10SM FEW033 BKN055 OVC070 02/01 A3000 4310 89 3800 300/13 RMK AO2 RAB00E20 SLP177 P0001 T00220006 TSNO
94299KAAT AAT20161204195515912/04/16 19:55:31  5-MIN KAAT 050355Z AUTO 31014G20KT 10SM FEW033 BKN060 OVC080 02/01 A3000 4310 89 3800 300/14G20 RMK AO2 RAB00E20 SLP177 P0001 T00220006 TSNO
94299KAAT AAT20161204200013712/04/16 20:00:31  5-MIN KAAT 050400Z AUTO 30011G20KT 10SM FEW033 BKN060 OVC075 02/01 A3000 4310 89 3800 280/11G20 RMK AO2 T00220006 TSNO
94299KAAT AAT20161204200513712/04/16 20:05:31  5-MIN KAAT 050405Z AUTO 29011G17KT 10SM FEW036 BKN060 OVC075 02/01 A3001 4300 89 3800 280/11G17 RMK AO2 T00220006 TSNO
94299KAAT AAT20161204201013712/04/16 20:10:31  5-MIN KAAT 050410Z AUTO 27009G16KT 10SM FEW038 BKN060 OVC080 02/01 A3001 4290 89 3800 250/09G16 RMK AO2 T00220006 TSNO
94299KAAT AAT20161204201513712/04/16 20:15:31  5-MIN KAAT 050415Z AUTO 26008G16KT 10SM FEW024 BKN055 OVC075 02/01 A3001 4300 92 3800 250/08G16 RMK AO2 T00170006 TSNO
94299KAAT AAT20161204202013112/04/16 20:20:31  5-MIN KAAT 050420Z AUTO 28007KT 10SM SCT024 SCT039 OVC055 02/01 A3001 4290 92 3800 260/07 RMK AO2 T00170006 TSNO
94299KAAT AAT20161204202512412/04/16 20:25:31  5-MIN KAAT 050425Z AUTO 28011KT 10SM SCT023 OVC055 02/01 A3002 4290 92 3800 270/11 RMK AO2 T00170006 TSNO
94299KAAT AAT20161204203013112/04/16 20:30:31  5-MIN KAAT 050430Z AUTO 27007KT 10SM BKN023 BKN049 OVC060 02/01 A3001 4290 92 3800 260/07 RMK AO2 T00170006 TSNO
94299KAAT AAT20161204203512412/04/16 20:35:31  5-MIN KAAT 050435Z AUTO 26006KT 10SM BKN022 OVC047 02/01 A3001 4300 92 3800 250/06 RMK AO2 T00170006 TSNO
94299KAAT AAT20161204204012412/04/16 20:40:31  5-MIN KAAT 050440Z AUTO 26008KT 10SM BKN022 OVC047 02/01 A3002 4290 92 3800 250/08 RMK AO2 T00170006 TSNO
94299KAAT AAT20161204204511712/04/16 20:45:31  5-MIN KAAT 050445Z AUTO 27010KT 10SM OVC022 02/00 A3002 4290 89 3700 260/10 RMK AO2 T00170000 TSNO
94299KAAT AAT20161204205013112/04/16 20:50:31  5-MIN KAAT 050450Z AUTO 28008KT 10SM BKN022 OVC042 02/00 A3002 4290 89 3700 270/08 RMK AO2 SLP181 T00170000 TSNO
94299KAAT AAT20161204205512412/04/16 20:55:31  5-MIN KAAT 050455Z AUTO 28010KT 10SM OVC022 02/00 A3002 4290 89 3700 270/10 RMK AO2 SLP181 T00170000 TSNO
94299KAAT AAT20161204210012312/04/16 21:00:31  5-MIN KAAT 050500Z AUTO 29011G16KT 10SM OVC022 02/00 A3002 4290 89 3700 270/11G16 RMK AO2 T00170000 TSNO
94299KAAT AAT20161204210512312/04/16 21:05:31  5-MIN KAAT 050505Z AUTO 29010G16KT 10SM OVC022 02/00 A3002 4290 89 3700 280/10G16 RMK AO2 T00170000 TSNO
94299KAAT AAT20161204211012412/04/16 21:10:31  5-MIN KAAT 050510Z AUTO 30011KT 10SM BKN022 OVC031 02/00 A3002 4290 89 3700 290/11 RMK AO2 T00170000 TSNO
94299KAAT AAT20161204211512512/04/16 21:15:31  5-MIN KAAT 050515Z AUTO 30011KT 10SM BKN022 OVC029 02/M01 A3002 4290 85 3700 290/11 RMK AO2 T00171006 TSNO
94299KAAT AAT20161204212011812/04/16 21:20:31  5-MIN KAAT 050520Z AUTO 31010KT 10SM OVC021 01/M01 A3002 4290 89 3700 290/10 RMK AO2 T00111006 TSNO
94299KAAT AAT20161204212512412/04/16 21:25:31  5-MIN KAAT 050525Z AUTO 31013G17KT 10SM OVC021 01/M01 A3002 4280 89 3700 290/13G17 RMK AO2 T00111006 TSNO
94299KAAT AAT20161204213011812/04/16 21:30:31  5-MIN KAAT 050530Z AUTO 30009KT 10SM OVC021 01/M01 A3002 4290 89 3700 290/09 RMK AO2 T00111006 TSNO
94299KAAT AAT20161204213511812/04/16 21:35:31  5-MIN KAAT 050535Z AUTO 30012KT 10SM OVC021 01/M01 A3002 4290 89 3700 280/12 RMK AO2 T00111006 TSNO
94299KAAT AAT20161204214012412/04/16 21:40:31  5-MIN KAAT 050540Z AUTO 26005G17KT 10SM OVC022 01/M01 A3003 4280 89 3700 250/05G17 RMK AO2 T00111006 TSNO
94299KAAT AAT20161204214511812/04/16 21:45:31  5-MIN KAAT 050545Z AUTO 27005KT 10SM OVC022 01/M01 A3003 4280 89 3700 260/05 RMK AO2 T00111006 TSNO
94299KAAT AAT20161204215014912/04/16 21:50:31  5-MIN KAAT 050550Z AUTO 26004KT 10SM OVC024 01/M01 A3003 4280 89 3700 240/04 RMK AO2 SLP179 60001 T00111006 10061 20011 55000 TSNO
94299KAAT AAT20161204215514912/04/16 21:55:31  5-MIN KAAT 050555Z AUTO 26003KT 10SM OVC024 01/M01 A3003 4280 89 3700 240/03 RMK AO2 SLP179 60001 T00111006 10061 20011 51013 TSNO
94299KAAT AAT20161204220011812/04/16 22:00:31  5-MIN KAAT 050600Z AUTO 26005KT 10SM OVC024 01/M01 A3003 4280 89 3700 250/05 RMK AO2 T00111006 TSNO
94299KAAT AAT20161204220512512/04/16 22:05:31  5-MIN KAAT 050605Z AUTO 25005KT 10SM BKN025 OVC042 01/M01 A3003 4280 89 3700 230/05 RMK AO2 T00111006 TSNO
94299KAAT AAT20161204221012512/04/16 22:10:31  5-MIN KAAT 050610Z AUTO 26006KT 10SM BKN025 OVC032 01/M01 A3003 4280 85 3700 250/06 RMK AO2 T00111011 TSNO
94299KAAT AAT20161204221512512/04/16 22:15:31  5-MIN KAAT 050615Z AUTO 27005KT 10SM BKN025 OVC032 01/M01 A3003 4280 85 3700 260/05 RMK AO2 T00111011 TSNO
94299KAAT AAT20161204222012512/04/16 22:20:31  5-MIN KAAT 050620Z AUTO 29004KT 10SM BKN026 OVC034 01/M01 A3004 4270 85 3700 270/04 RMK AO2 T00111011 TSNO
94299KAAT AAT20161204222512512/04/16 22:25:31  5-MIN KAAT 050625Z AUTO 24004KT 10SM BKN026 OVC034 01/M01 A3004 4270 85 3700 220/04 RMK AO2 T00111011 TSNO
94299KAAT AAT20161204223012512/04/16 22:30:31  5-MIN KAAT 050630Z AUTO 20004KT 10SM BKN026 OVC034 01/M01 A3004 4270 89 3700 190/04 RMK AO2 T00111006 TSNO
94299KAAT AAT20161204223512412/04/16 22:35:31  5-MIN KAAT 050635Z AUTO 00000KT 10SM FEW016 OVC026 01/00 A3004 4270 96 3600 000/00 RMK AO2 T00060000 TSNO
94299KAAT AAT20161204224012512/04/16 22:40:31  5-MIN KAAT 050640Z AUTO 24003KT 10SM FEW018 OVC026 01/M01 A3004 4270 89 3700 230/03 RMK AO2 T00111006 TSNO
94299KAAT AAT20161204224512512/04/16 22:45:31  5-MIN KAAT 050645Z AUTO VRB04KT 10SM FEW018 OVC026 01/M01 A3004 4270 89 3700 VRB/04 RMK AO2 T00111006 TSNO
94299KAAT AAT20161204225013212/04/16 22:50:31  5-MIN KAAT 050650Z AUTO 22005KT 10SM FEW018 OVC026 01/M01 A3005 4260 89 3600 200/05 RMK AO2 SLP183 T00111006 TSNO
94299KAAT AAT20161204225513212/04/16 22:55:31  5-MIN KAAT 050655Z AUTO 22003KT 10SM FEW017 OVC026 01/M01 A3005 4260 92 3600 200/03 RMK AO2 SLP184 T00061006 TSNO
94299KAAT AAT20161204230012512/04/16 23:00:31  5-MIN KAAT 050700Z AUTO 21004KT 10SM FEW017 OVC026 01/M01 A3005 4260 89 3600 190/04 RMK AO2 T00111006 TSNO
94299KAAT AAT20161204230512512/04/16 23:05:31  5-MIN KAAT 050705Z AUTO 20003KT 10SM FEW018 OVC025 01/M01 A3005 4260 92 3600 190/03 RMK AO2 T00061006 TSNO
94299KAAT AAT20161204231012512/04/16 23:10:31  5-MIN KAAT 050710Z AUTO 23004KT 10SM FEW018 OVC025 01/M01 A3006 4260 92 3600 210/04 RMK AO2 T00061006 TSNO
94299KAAT AAT20161204231512512/04/16 23:15:31  5-MIN KAAT 050715Z AUTO 24005KT 10SM FEW018 OVC025 01/M01 A3006 4260 85 3600 220/05 RMK AO2 T00111011 TSNO
94299KAAT AAT20161204232012512/04/16 23:20:31  5-MIN KAAT 050720Z AUTO VRB03KT 10SM SCT018 OVC025 01/M01 A3006 4260 85 3600 VRB/03 RMK AO2 T00111011 TSNO
94299KAAT AAT20161204232512512/04/16 23:25:31  5-MIN KAAT 050725Z AUTO 21004KT 10SM SCT019 OVC025 01/M01 A3006 4250 85 3600 200/04 RMK AO2 T00111011 TSNO
94299KAAT AAT20161204233012512/04/16 23:30:31  5-MIN KAAT 050730Z AUTO 26005KT 10SM BKN019 OVC026 01/M02 A3006 4250 82 3600 240/05 RMK AO2 T00111017 TSNO
94299KAAT AAT20161204233512512/04/16 23:35:31  5-MIN KAAT 050735Z AUTO 25004KT 10SM BKN019 OVC026 01/M02 A3006 4250 82 3600 240/04 RMK AO2 T00111017 TSNO
94299KAAT AAT20161204234012512/04/16 23:40:31  5-MIN KAAT 050740Z AUTO 25004KT 10SM BKN018 OVC026 01/M02 A3007 4250 82 3600 240/04 RMK AO2 T00111017 TSNO
94299KAAT AAT20161204234512512/04/16 23:45:31  5-MIN KAAT 050745Z AUTO 00000KT 10SM BKN018 OVC026 01/M02 A3007 4250 82 3600 000/00 RMK AO2 T00111017 TSNO
94299KAAT AAT20161204235013512/04/16 23:50:31  5-MIN KAAT 050750Z AUTO 30003KT 10SM OVC018 01/M02 A3007 4250 82 3600 290/03 RMK AO2 SLP186 T00111017 401001061 TSNO
94299KAAT AAT20161204235513512/04/16 23:55:31  5-MIN KAAT 050755Z AUTO 30004KT 10SM OVC017 01/M02 A3007 4250 78 3600 290/04 RMK AO2 SLP187 T00111022 401001061 TSNO
94299KAAT AAT20161205000011812/05/16 00:00:31  5-MIN KAAT 050800Z AUTO 28004KT 10SM OVC017 01/M02 A3007 4240 82 3600 270/04 RMK AO2 T00111017 TSNO
94299KAAT AAT20161205000511812/05/16 00:05:31  5-MIN KAAT 050805Z AUTO 32003KT 10SM OVC017 01/M02 A3007 4240 85 3600 300/03 RMK AO2 T00061017 TSNO
94299KAAT AAT20161205001011812/05/16 00:10:31  5-MIN KAAT 050810Z AUTO 00000KT 10SM OVC017 01/M02 A3007 4240 85 3600 000/00 RMK AO2 T00061017 TSNO
94299KAAT AAT20161205001512512/05/16 00:15:31  5-MIN KAAT 050815Z AUTO 00000KT 10SM BKN017 OVC024 01/M02 A3007 4240 82 3600 000/00 RMK AO2 T00111017 TSNO
94299KAAT AAT20161205002011812/05/16 00:20:31  5-MIN KAAT 050820Z AUTO 32004KT 10SM OVC019 01/M02 A3007 4240 82 3600 310/04 RMK AO2 T00061022 TSNO
94299KAAT AAT20161205002512512/05/16 00:25:31  5-MIN KAAT 050825Z AUTO 30005KT 10SM BKN019 OVC032 01/M02 A3007 4240 82 3600 280/05 RMK AO2 T00061022 TSNO
94299KAAT AAT20161205003011812/05/16 00:30:31  5-MIN KAAT 050830Z AUTO 32005KT 10SM OVC019 01/M02 A3007 4240 82 3500 300/05 RMK AO2 T00061022 TSNO
94299KAAT AAT20161205003512512/05/16 00:35:31  5-MIN KAAT 050835Z AUTO 30005KT 10SM BKN019 OVC031 01/M02 A3008 4240 82 3500 290/05 RMK AO2 T00061022 TSNO
94299KAAT AAT20161205004012512/05/16 00:40:31  5-MIN KAAT 050840Z AUTO 29005KT 10SM BKN019 OVC029 01/M02 A3007 4240 82 3500 280/05 RMK AO2 T00061022 TSNO
94299KAAT AAT20161205004512512/05/16 00:45:31  5-MIN KAAT 050845Z AUTO 29005KT 10SM BKN019 OVC027 01/M02 A3007 4240 82 3500 270/05 RMK AO2 T00061022 TSNO
94299KAAT AAT20161205005013812/05/16 00:50:31  5-MIN KAAT 050850Z AUTO 29005KT 10SM BKN019 OVC027 01/M02 A3007 4240 82 3500 280/05 RMK AO2 SLP188 T00061022 51013 TSNO
94299KAAT AAT20161205005514512/05/16 00:55:31  5-MIN KAAT 050855Z AUTO 28005KT 10SM BKN019 BKN024 OVC029 00/M02 A3007 4240 85 3500 270/05 RMK AO2 SLP187 T00001022 51014 TSNO
94299KAAT AAT20161205010013212/05/16 01:00:31  5-MIN KAAT 050900Z AUTO 28006KT 10SM SCT019 BKN024 OVC029 01/M03 A3007 4240 78 3600 270/06 RMK AO2 T00061028 TSNO
94299KAAT AAT20161205010513212/05/16 01:05:31  5-MIN KAAT 050905Z AUTO 31003KT 10SM FEW018 BKN031 OVC035 00/M03 A3007 4240 81 3500 300/03 RMK AO2 T00001028 TSNO
94299KAAT AAT20161205011013212/05/16 01:10:31  5-MIN KAAT 050910Z AUTO 29004KT 10SM FEW018 BKN029 OVC035 00/M03 A3007 4250 81 3500 280/04 RMK AO2 T00001028 TSNO
94299KAAT AAT20161205011513212/05/16 01:15:31  5-MIN KAAT 050915Z AUTO 29004KT 10SM FEW018 SCT029 OVC035 00/M03 A3007 4250 81 3500 270/04 RMK AO2 T00001028 TSNO
94299KAAT AAT20161205012012512/05/16 01:20:31  5-MIN KAAT 050920Z AUTO 30005KT 10SM SCT030 OVC035 00/M03 A3007 4240 81 3500 290/05 RMK AO2 T00001028 TSNO
94299KAAT AAT20161205012512512/05/16 01:25:31  5-MIN KAAT 050925Z AUTO 28006KT 10SM FEW030 OVC036 00/M03 A3007 4240 81 3500 270/06 RMK AO2 T00001028 TSNO
94299KAAT AAT20161205013011812/05/16 01:30:31  5-MIN KAAT 050930Z AUTO 28005KT 10SM OVC038 00/M03 A3007 4240 81 3500 270/05 RMK AO2 T00001028 TSNO
94299KAAT AAT20161205013511812/05/16 01:35:31  5-MIN KAAT 050935Z AUTO 29004KT 10SM OVC038 00/M03 A3007 4240 81 3500 280/04 RMK AO2 T00001028 TSNO
94299KAAT AAT20161205014011812/05/16 01:40:31  5-MIN KAAT 050940Z AUTO 30003KT 10SM BKN040 00/M03 A3007 4240 81 3500 280/03 RMK AO2 T00001028 TSNO
94299KAAT AAT20161205014512512/05/16 01:45:31  5-MIN KAAT 050945Z AUTO 26004KT 10SM BKN040 BKN049 00/M03 A3007 4240 81 3500 250/04 RMK AO2 T00001028 TSNO
94299KAAT AAT20161205015013212/05/16 01:50:31  5-MIN KAAT 050950Z AUTO 29004KT 10SM BKN040 BKN049 00/M03 A3008 4240 78 3500 280/04 RMK AO2 SLP186 T00001033 TSNO
94299KAAT AAT20161205015513212/05/16 01:55:31  5-MIN KAAT 050955Z AUTO 28005KT 10SM BKN042 BKN049 00/M03 A3008 4230 81 3500 270/05 RMK AO2 SLP187 T00001028 TSNO
94299KAAT AAT20161205020012612/05/16 02:00:31  5-MIN KAAT 051000Z AUTO 31005KT 10SM SCT042 BKN050 M01/M03 A3008 4230 85 3400 290/05 RMK AO2 T10061028 TSNO
94299KAAT AAT20161205020512612/05/16 02:05:31  5-MIN KAAT 051005Z AUTO 30006KT 10SM SCT045 BKN050 M01/M03 A3008 4240 81 3400 280/06 RMK AO2 T10061033 TSNO
94299KAAT AAT20161205021011812/05/16 02:10:31  5-MIN KAAT 051010Z AUTO 29006KT 10SM SCT048 00/M03 A3008 4230 78 3500 270/06 RMK AO2 T00001033 TSNO
94299KAAT AAT20161205021511912/05/16 02:15:31  5-MIN KAAT 051015Z AUTO 28005KT 10SM BKN047 M01/M03 A3008 4230 81 3400 270/05 RMK AO2 T10061033 TSNO
94299KAAT AAT20161205022011912/05/16 02:20:31  5-MIN KAAT 051020Z AUTO 29005KT 10SM BKN047 M01/M03 A3008 4230 81 3400 280/05 RMK AO2 T10061033 TSNO
94299KAAT AAT20161205022512612/05/16 02:25:31  5-MIN KAAT 051025Z AUTO 31005KT 10SM BKN045 BKN050 M01/M03 A3008 4230 81 3400 300/05 RMK AO2 T10061033 TSNO
94299KAAT AAT20161205023011912/05/16 02:30:31  5-MIN KAAT 051030Z AUTO 30006KT 10SM BKN045 M01/M03 A3008 4230 81 3400 280/06 RMK AO2 T10061033 TSNO
94299KAAT AAT20161205023511912/05/16 02:35:31  5-MIN KAAT 051035Z AUTO 30006KT 10SM BKN045 M01/M03 A3009 4230 81 3400 290/06 RMK AO2 T10061033 TSNO
94299KAAT AAT20161205024011912/05/16 02:40:31  5-MIN KAAT 051040Z AUTO 31006KT 10SM BKN044 M01/M03 A3009 4230 81 3400 290/06 RMK AO2 T10061033 TSNO
94299KAAT AAT20161205024511912/05/16 02:45:31  5-MIN KAAT 051045Z AUTO 31004KT 10SM BKN044 M01/M03 A3009 4230 81 3400 300/04 RMK AO2 T10061033 TSNO
94299KAAT AAT20161205025012612/05/16 02:50:31  5-MIN KAAT 051050Z AUTO 30005KT 10SM SCT044 M01/M03 A3008 4230 81 3400 290/05 RMK AO2 SLP191 T10061033 TSNO
94299KAAT AAT20161205025512612/05/16 02:55:31  5-MIN KAAT 051055Z AUTO 30003KT 10SM SCT044 M01/M03 A3008 4230 85 3300 280/03 RMK AO2 SLP190 T10111033 TSNO
94299KAAT AAT20161205030011912/05/16 03:00:31  5-MIN KAAT 051100Z AUTO 00000KT 10SM FEW044 M01/M03 A3008 4230 85 3300 000/00 RMK AO2 T10111033 TSNO
94299KAAT AAT20161205030511912/05/16 03:05:31  5-MIN KAAT 051105Z AUTO 00000KT 10SM SCT044 M01/M04 A3008 4230 81 3300 000/00 RMK AO2 T10111039 TSNO
94299KAAT AAT20161205031011912/05/16 03:10:31  5-MIN KAAT 051110Z AUTO 00000KT 10SM SCT044 M01/M04 A3008 4230 81 3300 000/00 RMK AO2 T10111039 TSNO
94299KAAT AAT20161205031511912/05/16 03:15:31  5-MIN KAAT 051115Z AUTO 00000KT 10SM BKN044 M01/M04 A3008 4240 81 3300 000/00 RMK AO2 T10111039 TSNO
94299KAAT AAT20161205032011912/05/16 03:20:31  5-MIN KAAT 051120Z AUTO 00000KT 10SM BKN044 M02/M04 A3008 4240 85 3300 000/00 RMK AO2 T10171039 TSNO
94299KAAT AAT20161205032511912/05/16 03:25:31  5-MIN KAAT 051125Z AUTO 00000KT 10SM BKN044 M02/M04 A3008 4240 85 3200 000/00 RMK AO2 T10221044 TSNO
94299KAAT AAT20161205033011912/05/16 03:30:31  5-MIN KAAT 051130Z AUTO 00000KT 10SM OVC044 M02/M04 A3008 4240 85 3300 000/00 RMK AO2 T10171039 TSNO
94299KAAT AAT20161205033511912/05/16 03:35:31  5-MIN KAAT 051135Z AUTO 00000KT 10SM OVC044 M01/M04 A3008 4240 81 3300 000/00 RMK AO2 T10111039 TSNO
94299KAAT AAT20161205034011912/05/16 03:40:31  5-MIN KAAT 051140Z AUTO 29003KT 10SM OVC043 M02/M04 A3008 4240 85 3300 280/03 RMK AO2 T10171039 TSNO
94299KAAT AAT20161205034511912/05/16 03:45:31  5-MIN KAAT 051145Z AUTO 34003KT 10SM OVC043 M02/M04 A3008 4240 85 3300 330/03 RMK AO2 T10171039 TSNO
94299KAAT AAT20161205035015012/05/16 03:50:31  5-MIN KAAT 051150Z AUTO 35003KT 10SM BKN042 M02/M04 A3008 4230 85 3200 340/03 RMK AO2 SLP194 70001 T10221044 10011 21022 51014 TSNO
94299KAAT AAT20161205035515012/05/16 03:55:31  5-MIN KAAT 051155Z AUTO 34003KT 10SM BKN042 M02/M04 A3008 4230 85 3200 330/03 RMK AO2 SLP194 70001 T10221044 10011 21022 50002 TSNO
94299KAAT AAT20161205040011912/05/16 04:00:31  5-MIN KAAT 051200Z AUTO 32004KT 10SM BKN042 M02/M04 A3008 4230 85 3200 310/04 RMK AO2 T10221044 TSNO
94299KAAT AAT20161205040511912/05/16 04:05:31  5-MIN KAAT 051205Z AUTO 32004KT 10SM BKN042 M02/M04 A3008 4230 88 3200 300/04 RMK AO2 T10221039 TSNO
94299KAAT AAT20161205041011912/05/16 04:10:31  5-MIN KAAT 051210Z AUTO 33003KT 10SM SCT042 M03/M04 A3008 4230 88 3100 310/03 RMK AO2 T10281044 TSNO
94299KAAT AAT20161205041511912/05/16 04:15:31  5-MIN KAAT 051215Z AUTO 31003KT 10SM SCT042 M03/M04 A3008 4230 88 3100 290/03 RMK AO2 T10281044 TSNO
94299KAAT AAT20161205042011912/05/16 04:20:31  5-MIN KAAT 051220Z AUTO VRB03KT 10SM BKN042 M03/M04 A3008 4230 88 3100 VRB/03 RMK AO2 T10281044 TSNO
94299KAAT AAT20161205042511912/05/16 04:25:31  5-MIN KAAT 051225Z AUTO 00000KT 10SM BKN042 M03/M04 A3008 4230 88 3100 000/00 RMK AO2 T10281044 TSNO
94299KAAT AAT20161205043011912/05/16 04:30:31  5-MIN KAAT 051230Z AUTO 00000KT 10SM BKN042 M03/M04 A3009 4230 88 3100 000/00 RMK AO2 T10281044 TSNO
94299KAAT AAT20161205043511912/05/16 04:35:31  5-MIN KAAT 051235Z AUTO 35003KT 10SM BKN042 M03/M05 A3008 4230 88 3100 340/03 RMK AO2 T10331050 TSNO
94299KAAT AAT20161205044011912/05/16 04:40:31  5-MIN KAAT 051240Z AUTO 03003KT 10SM OVC042 M03/M06 A3009 4230 85 3100 020/03 RMK AO2 T10331056 TSNO
94299KAAT AAT20161205044511912/05/16 04:45:31  5-MIN KAAT 051245Z AUTO 03004KT 10SM OVC042 M03/M06 A3009 4230 85 3100 010/04 RMK AO2 T10331056 TSNO
94299KAAT AAT20161205045012612/05/16 04:50:31  5-MIN KAAT 051250Z AUTO 00000KT 10SM BKN042 M03/M05 A3009 4230 88 3100 000/00 RMK AO2 SLP200 T10331050 TSNO
94299KAAT AAT20161205045512612/05/16 04:55:31  5-MIN KAAT 051255Z AUTO 00000KT 10SM BKN041 M03/M05 A3009 4230 85 3100 000/00 RMK AO2 SLP201 T10281050 TSNO
94299KAAT AAT20161205050011912/05/16 05:00:31  5-MIN KAAT 051300Z AUTO 05004KT 10SM SCT041 M03/M06 A3009 4230 85 3100 040/04 RMK AO2 T10331056 TSNO
94299KAAT AAT20161205050511912/05/16 05:05:31  5-MIN KAAT 051305Z AUTO 03004KT 10SM SCT041 M03/M06 A3009 4230 85 3100 010/04 RMK AO2 T10331056 TSNO
94299KAAT AAT20161205051011912/05/16 05:10:31  5-MIN KAAT 051310Z AUTO 03003KT 10SM FEW041 M03/M06 A3009 4230 85 3100 010/03 RMK AO2 T10331056 TSNO
94299KAAT AAT20161205051511612/05/16 05:15:31  5-MIN KAAT 051315Z AUTO 02003KT 10SM CLR M04/M06 A3008 4230 88 3000 010/03 RMK AO2 T10391056 TSNO
94299KAAT AAT20161205052011612/05/16 05:20:31  5-MIN KAAT 051320Z AUTO 00000KT 10SM CLR M04/M06 A3008 4230 85 3000 000/00 RMK AO2 T10391061 TSNO
94299KAAT AAT20161205052511612/05/16 05:25:31  5-MIN KAAT 051325Z AUTO 00000KT 10SM CLR M04/M06 A3008 4230 85 3000 000/00 RMK AO2 T10391061 TSNO
94299KAAT AAT20161205053011612/05/16 05:30:31  5-MIN KAAT 051330Z AUTO 00000KT 10SM CLR M04/M06 A3009 4230 88 2900 000/00 RMK AO2 T10441061 TSNO
94299KAAT AAT20161205053511612/05/16 05:35:31  5-MIN KAAT 051335Z AUTO 00000KT 10SM CLR M04/M06 A3009 4230 88 2900 000/00 RMK AO2 T10441061 TSNO
94299KAAT AAT20161205054011612/05/16 05:40:31  5-MIN KAAT 051340Z AUTO 00000KT 10SM CLR M05/M07 A3009 4230 88 2800 000/00 RMK AO2 T10501067 TSNO
94299KAAT AAT20161205054511612/05/16 05:45:31  5-MIN KAAT 051345Z AUTO 00000KT 10SM CLR M05/M07 A3009 4230 88 2800 000/00 RMK AO2 T10501067 TSNO
94299KAAT AAT20161205055012312/05/16 05:50:31  5-MIN KAAT 051350Z AUTO 00000KT 10SM CLR M05/M07 A3009 4230 88 2800 000/00 RMK AO2 SLP205 T10501067 TSNO
94299KAAT AAT20161205055512312/05/16 05:55:31  5-MIN KAAT 051355Z AUTO 00000KT 10SM CLR M05/M07 A3009 4230 88 2800 000/00 RMK AO2 SLP206 T10501067 TSNO
94299KAAT AAT20161205060011612/05/16 06:00:31  5-MIN KAAT 051400Z AUTO 00000KT 10SM CLR M06/M07 A3009 4220 92 2800 000/00 RMK AO2 T10561067 TSNO
94299KAAT AAT20161205060511612/05/16 06:05:31  5-MIN KAAT 051405Z AUTO 00000KT 10SM CLR M06/M07 A3009 4220 92 2800 000/00 RMK AO2 T10561067 TSNO
94299KAAT AAT20161205061011612/05/16 06:10:31  5-MIN KAAT 051410Z AUTO 00000KT 10SM CLR M05/M07 A3010 4220 88 2800 000/00 RMK AO2 T10501067 TSNO
94299KAAT AAT20161205061511612/05/16 06:15:31  5-MIN KAAT 051415Z AUTO 01003KT 10SM CLR M05/M07 A3010 4220 88 2800 350/03 RMK AO2 T10501067 TSNO
94299KAAT AAT20161205062011512/05/16 06:20:31  5-MIN KAAT 051420Z AUTO 01003KT 9SM CLR M05/M07 A3010 4220 88 2800 360/03 RMK AO2 T10501067 TSNO
94299KAAT AAT20161205062511512/05/16 06:25:31  5-MIN KAAT 051425Z AUTO 03003KT 9SM CLR M05/M07 A3009 4220 88 2800 020/03 RMK AO2 T10501067 TSNO
94299KAAT AAT20161205063011612/05/16 06:30:31  5-MIN KAAT 051430Z AUTO 02005KT 10SM CLR M06/M07 A3009 4220 88 2800 010/05 RMK AO2 T10561072 TSNO
94299KAAT AAT20161205063511612/05/16 06:35:31  5-MIN KAAT 051435Z AUTO VRB03KT 10SM CLR M05/M07 A3009 4220 84 2800 VRB/03 RMK AO2 T10501072 TSNO
94299KAAT AAT20161205064011512/05/16 06:40:31  5-MIN KAAT 051440Z AUTO 11004KT 8SM CLR M06/M07 A3009 4220 88 2800 090/04 RMK AO2 T10561072 TSNO
94299KAAT AAT20161205064511812/05/16 06:45:31  5-MIN KAAT 051445Z AUTO 11003KT 4SM BR CLR M05/M07 A3009 4220 88 2800 090/03 RMK AO2 T10501067 TSNO
94299KAAT AAT20161205065011212/05/16 06:50:31  5-MIN KAAT 051450Z AUTO 10003KT 2 1/2SM BR CLR M06/M07 A3010 4220 92 2800 080/03 RMK AO2 TSNO
94299KAAT AAT20161205065513112/05/16 06:55:31  5-MIN KAAT 051455Z AUTO 07003KT 3SM BR CLR M06/M07 A3010 4220 92 2800 060/03 RMK AO2 SLP209 T10561067 51003 TSNO
94299KAAT AAT20161205070011612/05/16 07:00:31  5-MIN KAAT 051500Z AUTO 06003KT 10SM CLR M06/M07 A3010 4220 96 2700 050/03 RMK AO2 T10611067 TSNO
94299KAAT AAT20161205070511612/05/16 07:05:31  5-MIN KAAT 051505Z AUTO 00000KT 10SM CLR M06/M07 A3009 4220 88 2800 000/00 RMK AO2 T10561072 TSNO
94299KAAT AAT20161205071011612/05/16 07:10:31  5-MIN KAAT 051510Z AUTO 06003KT 10SM CLR M06/M08 A3009 4220 88 2700 040/03 RMK AO2 T10611078 TSNO
94299KAAT AAT20161205071511512/05/16 07:15:31  5-MIN KAAT 051515Z AUTO 15003KT 9SM CLR M07/M08 A3009 4220 92 2600 140/03 RMK AO2 T10671078 TSNO
94299KAAT AAT20161205072011512/05/16 07:20:31  5-MIN KAAT 051520Z AUTO 15003KT 9SM CLR M07/M08 A3009 4220 92 2600 130/03 RMK AO2 T10671078 TSNO
94299KAAT AAT20161205072511612/05/16 07:25:31  5-MIN KAAT 051525Z AUTO 17003KT 10SM CLR M06/M07 A3009 4220 92 2700 150/03 RMK AO2 T10611072 TSNO
94299KAAT AAT20161205073011612/05/16 07:30:31  5-MIN KAAT 051530Z AUTO 15003KT 10SM CLR M07/M08 A3009 4220 92 2600 130/03 RMK AO2 T10671078 TSNO
94299KAAT AAT20161205073511612/05/16 07:35:31  5-MIN KAAT 051535Z AUTO 00000KT 10SM CLR M06/M07 A3009 4220 92 2700 000/00 RMK AO2 T10611072 TSNO
94299KAAT AAT20161205074011812/05/16 07:40:31  5-MIN KAAT 051540Z AUTO 00000KT 4SM BR CLR M06/M07 A3009 4220 88 2800 000/00 RMK AO2 T10561072 TSNO
94299KAAT AAT20161205074511812/05/16 07:45:31  5-MIN KAAT 051545Z AUTO 00000KT 3SM BR CLR M07/M08 A3009 4220 92 2600 000/00 RMK AO2 T10671078 TSNO
94299KAAT AAT20161205075012512/05/16 07:50:31  5-MIN KAAT 051550Z AUTO 00000KT 4SM BR CLR M07/M08 A3009 4220 88 2600 000/00 RMK AO2 SLP213 T10671083 TSNO
94299KAAT AAT20161205075512312/05/16 07:55:31  5-MIN KAAT 051555Z AUTO 02004KT 10SM CLR M06/M08 A3009 4220 88 2700 360/04 RMK AO2 SLP212 T10611078 TSNO
94299KAAT AAT20161205080011512/05/16 08:00:31  5-MIN KAAT 051600Z AUTO 00000KT 8SM CLR M06/M07 A3009 4220 88 2800 000/00 RMK AO2 T10561072 TSNO
94299KAAT AAT20161205080511812/05/16 08:05:31  5-MIN KAAT 051605Z AUTO 00000KT 6SM BR CLR M06/M07 A3009 4220 92 2800 000/00 RMK AO2 T10561067 TSNO
94299KAAT AAT20161205081011512/05/16 08:10:31  5-MIN KAAT 051610Z AUTO 00000KT 7SM CLR M06/M07 A3009 4220 92 2800 000/00 RMK AO2 T10561067 TSNO
94299KAAT AAT20161205081511512/05/16 08:15:31  5-MIN KAAT 051615Z AUTO 03003KT 7SM CLR M04/M07 A3009 4220 84 2900 020/03 RMK AO2 T10441067 TSNO
94299KAAT AAT20161205082011512/05/16 08:20:31  5-MIN KAAT 051620Z AUTO 00000KT 7SM CLR M04/M07 A3009 4220 84 2900 000/00 RMK AO2 T10441067 TSNO
94299KAAT AAT20161205082511512/05/16 08:25:31  5-MIN KAAT 051625Z AUTO 00000KT 9SM CLR M04/M07 A3009 4220 84 2900 000/00 RMK AO2 T10441067 TSNO
94299KAAT AAT20161205083011612/05/16 08:30:31  5-MIN KAAT 051630Z AUTO 00000KT 10SM CLR M04/M06 A3009 4220 88 2900 000/00 RMK AO2 T10441061 TSNO
94299KAAT AAT20161205083511612/05/16 08:35:31  5-MIN KAAT 051635Z AUTO 00000KT 10SM CLR M04/M06 A3009 4220 85 3000 000/00 RMK AO2 T10391061 TSNO
94299KAAT AAT20161205084011612/05/16 08:40:31  5-MIN KAAT 051640Z AUTO 00000KT 10SM CLR M03/M06 A3009 4220 81 3100 000/00 RMK AO2 T10331061 TSNO
94299KAAT AAT20161205084511612/05/16 08:45:31  5-MIN KAAT 051645Z AUTO 00000KT 10SM CLR M03/M06 A3009 4220 78 3100 000/00 RMK AO2 T10281061 TSNO
94299KAAT AAT20161205085012312/05/16 08:50:31  5-MIN KAAT 051650Z AUTO 00000KT 10SM CLR M03/M06 A3009 4220 81 3100 000/00 RMK AO2 SLP208 T10281056 TSNO
94299KAAT AAT20161205085512312/05/16 08:55:31  5-MIN KAAT 051655Z AUTO 00000KT 10SM CLR M02/M06 A3009 4220 78 3200 000/00 RMK AO2 SLP206 T10221056 TSNO
94299KAAT AAT20161205090011612/05/16 09:00:31  5-MIN KAAT 051700Z AUTO 00000KT 10SM CLR M02/M06 A3009 4230 78 3200 000/00 RMK AO2 T10221056 TSNO
94299KAAT AAT20161205090511612/05/16 09:05:31  5-MIN KAAT 051705Z AUTO 00000KT 10SM CLR M02/M06 A3009 4230 75 3200 000/00 RMK AO2 T10221061 TSNO
94299KAAT AAT20161205091011612/05/16 09:10:31  5-MIN KAAT 051710Z AUTO 00000KT 10SM CLR M02/M06 A3009 4220 75 3300 000/00 RMK AO2 T10171056 TSNO
94299KAAT AAT20161205091511612/05/16 09:15:31  5-MIN KAAT 051715Z AUTO 00000KT 10SM CLR M02/M06 A3009 4220 75 3300 000/00 RMK AO2 T10171056 TSNO
94299KAAT AAT20161205092011612/05/16 09:20:31  5-MIN KAAT 051720Z AUTO 16003KT 10SM CLR M02/M06 A3009 4230 78 3200 150/03 RMK AO2 T10221056 TSNO
94299KAAT AAT20161205092511612/05/16 09:25:31  5-MIN KAAT 051725Z AUTO 00000KT 10SM CLR M02/M06 A3009 4230 78 3200 000/00 RMK AO2 T10221056 TSNO
94299KAAT AAT20161205093011612/05/16 09:30:31  5-MIN KAAT 051730Z AUTO 19003KT 10SM CLR M02/M05 A3009 4230 78 3300 170/03 RMK AO2 T10171050 TSNO
94299KAAT AAT20161205093511612/05/16 09:35:31  5-MIN KAAT 051735Z AUTO 00000KT 10SM CLR M01/M04 A3009 4230 78 3300 000/00 RMK AO2 T10111044 TSNO
94299KAAT AAT20161205094011612/05/16 09:40:31  5-MIN KAAT 051740Z AUTO 00000KT 10SM CLR M02/M05 A3009 4230 78 3300 000/00 RMK AO2 T10171050 TSNO
94299KAAT AAT20161205094511612/05/16 09:45:31  5-MIN KAAT 051745Z AUTO 17003KT 10SM CLR M02/M05 A3008 4230 78 3300 160/03 RMK AO2 T10171050 TSNO
94299KAAT AAT20161205095014112/05/16 09:50:31  5-MIN KAAT 051750Z AUTO 00000KT 10SM CLR M01/M05 A3008 4230 75 3300 000/00 RMK AO2 SLP204 T10111050 11011 21072 51003 TSNO
94299KAAT AAT20161205095514112/05/16 09:55:31  5-MIN KAAT 051755Z AUTO 00000KT 10SM CLR M01/M05 A3008 4230 75 3300 000/00 RMK AO2 SLP203 T10111050 11011 21072 58004 TSNO
94299KAAT AAT20161205100011612/05/16 10:00:31  5-MIN KAAT 051800Z AUTO 00000KT 10SM CLR M01/M05 A3008 4230 75 3300 000/00 RMK AO2 T10111050 TSNO
94299KAAT AAT20161205100511612/05/16 10:05:31  5-MIN KAAT 051805Z AUTO 00000KT 10SM CLR M01/M06 A3008 4230 72 3300 000/00 RMK AO2 T10111056 TSNO
94299KAAT AAT20161205101011612/05/16 10:10:31  5-MIN KAAT 051810Z AUTO 00000KT 10SM CLR M01/M06 A3008 4240 72 3300 000/00 RMK AO2 T10111056 TSNO
94299KAAT AAT20161205101511612/05/16 10:15:31  5-MIN KAAT 051815Z AUTO 00000KT 10SM CLR M01/M06 A3008 4240 69 3300 000/00 RMK AO2 T10111061 TSNO
94299KAAT AAT20161205102011612/05/16 10:20:31  5-MIN KAAT 051820Z AUTO 00000KT 10SM CLR M01/M06 A3007 4240 69 3300 000/00 RMK AO2 T10111061 TSNO
94299KAAT AAT20161205102511612/05/16 10:25:31  5-MIN KAAT 051825Z AUTO 17003KT 10SM CLR M01/M06 A3007 4240 66 3400 160/03 RMK AO2 T10061061 TSNO
94299KAAT AAT20161205103011612/05/16 10:30:31  5-MIN KAAT 051830Z AUTO 00000KT 10SM CLR M01/M07 A3007 4240 63 3400 000/00 RMK AO2 T10061067 TSNO
94299KAAT AAT20161205103511612/05/16 10:35:31  5-MIN KAAT 051835Z AUTO 00000KT 10SM CLR M01/M07 A3007 4240 63 3400 000/00 RMK AO2 T10061067 TSNO
94299KAAT AAT20161205104011612/05/16 10:40:31  5-MIN KAAT 051840Z AUTO 00000KT 10SM CLR M01/M07 A3007 4240 63 3400 000/00 RMK AO2 T10061067 TSNO
94299KAAT AAT20161205104511612/05/16 10:45:31  5-MIN KAAT 051845Z AUTO 00000KT 10SM CLR M01/M07 A3007 4250 61 3400 000/00 RMK AO2 T10061072 TSNO
94299KAAT AAT20161205105012312/05/16 10:50:31  5-MIN KAAT 051850Z AUTO 13003KT 10SM CLR M01/M07 A3006 4250 63 3400 120/03 RMK AO2 SLP195 T10061067 TSNO
94299KAAT AAT20161205105512312/05/16 10:55:31  5-MIN KAAT 051855Z AUTO 00000KT 10SM CLR M01/M07 A3006 4250 61 3400 000/00 RMK AO2 SLP197 T10061072 TSNO
94299KAAT AAT20161205110011612/05/16 11:00:31  5-MIN KAAT 051900Z AUTO 00000KT 10SM CLR M01/M07 A3006 4250 61 3400 000/00 RMK AO2 T10061072 TSNO
94299KAAT AAT20161205110511512/05/16 11:05:31  5-MIN KAAT 051905Z AUTO 00000KT 10SM CLR 00/M07 A3006 4250 61 3500 000/00 RMK AO2 T00001067 TSNO
94299KAAT AAT20161205111011512/05/16 11:10:31  5-MIN KAAT 051910Z AUTO 16003KT 10SM CLR 00/M07 A3006 4260 61 3500 150/03 RMK AO2 T00001067 TSNO
94299KAAT AAT20161205111511512/05/16 11:15:31  5-MIN KAAT 051915Z AUTO 16004KT 10SM CLR 00/M07 A3005 4260 61 3500 140/04 RMK AO2 T00001067 TSNO
94299KAAT AAT20161205112011512/05/16 11:20:31  5-MIN KAAT 051920Z AUTO 00000KT 10SM CLR 00/M07 A3005 4260 61 3500 000/00 RMK AO2 T00001067 TSNO
94299KAAT AAT20161205112511512/05/16 11:25:31  5-MIN KAAT 051925Z AUTO 11003KT 10SM CLR 01/M07 A3005 4260 58 3600 100/03 RMK AO2 T00061067 TSNO
94299KAAT AAT20161205113011512/05/16 11:30:31  5-MIN KAAT 051930Z AUTO 21003KT 10SM CLR 01/M07 A3005 4260 56 3600 190/03 RMK AO2 T00061072 TSNO
94299KAAT AAT20161205113511512/05/16 11:35:31  5-MIN KAAT 051935Z AUTO VRB04KT 10SM CLR 01/M07 A3005 4260 58 3600 VRB/04 RMK AO2 T00061067 TSNO
94299KAAT AAT20161205114011512/05/16 11:40:31  5-MIN KAAT 051940Z AUTO 17003KT 10SM CLR 01/M07 A3004 4270 56 3600 160/03 RMK AO2 T00061072 TSNO
94299KAAT AAT20161205114511512/05/16 11:45:31  5-MIN KAAT 051945Z AUTO 10003KT 10SM CLR 01/M07 A3004 4270 56 3600 080/03 RMK AO2 T00061072 TSNO
94299KAAT AAT20161205115012212/05/16 11:50:31  5-MIN KAAT 051950Z AUTO 23003KT 10SM CLR 01/M07 A3004 4270 58 3600 210/03 RMK AO2 SLP184 T00061067 TSNO
94299KAAT AAT20161205115512212/05/16 11:55:31  5-MIN KAAT 051955Z AUTO 00000KT 10SM CLR 01/M07 A3003 4280 58 3600 000/00 RMK AO2 SLP182 T00061067 TSNO
94299KAAT AAT20161205120011512/05/16 12:00:31  5-MIN KAAT 052000Z AUTO 00000KT 10SM CLR 01/M07 A3003 4280 58 3600 000/00 RMK AO2 T00061067 TSNO
94299KAAT AAT20161205120511512/05/16 12:05:31  5-MIN KAAT 052005Z AUTO 00000KT 10SM CLR 01/M07 A3003 4280 56 3700 000/00 RMK AO2 T00111067 TSNO
94299KAAT AAT20161205121011512/05/16 12:10:31  5-MIN KAAT 052010Z AUTO VRB03KT 10SM CLR 01/M07 A3003 4280 56 3700 VRB/03 RMK AO2 T00111067 TSNO
94299KAAT AAT20161205121511512/05/16 12:15:31  5-MIN KAAT 052015Z AUTO VRB03KT 10SM CLR 01/M07 A3003 4280 56 3700 VRB/03 RMK AO2 T00111067 TSNO
94299KAAT AAT20161205122011812/05/16 12:20:31  5-MIN KAAT 052020Z AUTO 00000KT 10SM FEW033 01/M07 A3002 4290 56 3700 000/00 RMK AO2 T00111067 TSNO
94299KAAT AAT20161205122511812/05/16 12:25:31  5-MIN KAAT 052025Z AUTO 18004KT 10SM SCT033 01/M07 A3002 4290 56 3700 160/04 RMK AO2 T00111067 TSNO
94299KAAT AAT20161205123011812/05/16 12:30:31  5-MIN KAAT 052030Z AUTO 23005KT 10SM SCT033 01/M07 A3002 4290 56 3700 210/05 RMK AO2 T00111067 TSNO
94299KAAT AAT20161205123511812/05/16 12:35:31  5-MIN KAAT 052035Z AUTO 22003KT 10SM FEW032 01/M07 A3002 4290 58 3600 210/03 RMK AO2 T00061067 TSNO
94299KAAT AAT20161205124011812/05/16 12:40:31  5-MIN KAAT 052040Z AUTO 23004KT 10SM FEW032 01/M07 A3002 4290 56 3700 220/04 RMK AO2 T00111067 TSNO
94299KAAT AAT20161205124511812/05/16 12:45:31  5-MIN KAAT 052045Z AUTO 25003KT 10SM FEW032 01/M07 A3002 4290 58 3600 240/03 RMK AO2 T00061067 TSNO
94299KAAT AAT20161205125013112/05/16 12:50:31  5-MIN KAAT 052050Z AUTO 00000KT 10SM FEW032 01/M07 A3002 4290 56 3600 000/00 RMK AO2 SLP179 T00061072 58004 TSNO
94299KAAT AAT20161205125512812/05/16 12:55:31  5-MIN KAAT 052055Z AUTO 00000KT 10SM CLR 01/M07 A3002 4290 56 3600 000/00 RMK AO2 SLP179 T00061072 56020 TSNO
94299KAAT AAT20161205130011512/05/16 13:00:31  5-MIN KAAT 052100Z AUTO 00000KT 10SM CLR 01/M07 A3002 4290 58 3600 000/00 RMK AO2 T00061067 TSNO
94299KAAT AAT20161205130511512/05/16 13:05:31  5-MIN KAAT 052105Z AUTO 23004KT 10SM CLR 02/M06 A3001 4290 56 3800 210/04 RMK AO2 T00171061 TSNO
94299KAAT AAT20161205131011512/05/16 13:10:31  5-MIN KAAT 052110Z AUTO VRB03KT 10SM CLR 01/M07 A3001 4300 56 3700 VRB/03 RMK AO2 T00111067 TSNO
94299KAAT AAT20161205131511512/05/16 13:15:31  5-MIN KAAT 052115Z AUTO 21003KT 10SM CLR 01/M07 A3001 4300 56 3700 190/03 RMK AO2 T00111067 TSNO
94299KAAT AAT20161205132011512/05/16 13:20:31  5-MIN KAAT 052120Z AUTO VRB04KT 10SM CLR 02/M06 A3001 4300 59 3800 VRB/04 RMK AO2 T00171056 TSNO
94299KAAT AAT20161205132511512/05/16 13:25:31  5-MIN KAAT 052125Z AUTO 29006KT 10SM CLR 02/M06 A3001 4300 59 3800 280/06 RMK AO2 T00171056 TSNO
94299KAAT AAT20161205133011512/05/16 13:30:31  5-MIN KAAT 052130Z AUTO 22005KT 10SM CLR 02/M06 A3000 4300 56 3800 200/05 RMK AO2 T00171061 TSNO
94299KAAT AAT20161205133511512/05/16 13:35:31  5-MIN KAAT 052135Z AUTO 00000KT 10SM CLR 02/M06 A3000 4310 56 3800 000/00 RMK AO2 T00171061 TSNO
94299KAAT AAT20161205134011512/05/16 13:40:31  5-MIN KAAT 052140Z AUTO 00000KT 10SM CLR 02/M06 A3000 4310 56 3800 000/00 RMK AO2 T00221056 TSNO
94299KAAT AAT20161205134511512/05/16 13:45:31  5-MIN KAAT 052145Z AUTO VRB06KT 10SM CLR 02/M06 A3000 4310 56 3800 VRB/06 RMK AO2 T00221056 TSNO
94299KAAT AAT20161205135012212/05/16 13:50:31  5-MIN KAAT 052150Z AUTO 29006KT 10SM CLR 02/M06 A3000 4310 59 3800 270/06 RMK AO2 SLP169 T00171056 TSNO
94299KAAT AAT20161205135512212/05/16 13:55:31  5-MIN KAAT 052155Z AUTO 00000KT 10SM CLR 02/M06 A3000 4310 59 3800 000/00 RMK AO2 SLP168 T00171056 TSNO
94299KAAT AAT20161205140011512/05/16 14:00:31  5-MIN KAAT 052200Z AUTO 25004KT 10SM CLR 02/M06 A2999 4310 56 3800 240/04 RMK AO2 T00221056 TSNO
94299KAAT AAT20161205140511512/05/16 14:05:31  5-MIN KAAT 052205Z AUTO 24006KT 10SM CLR 02/M06 A2999 4310 59 3800 230/06 RMK AO2 T00171056 TSNO
94299KAAT AAT20161205141011512/05/16 14:10:31  5-MIN KAAT 052210Z AUTO 24006KT 10SM CLR 02/M06 A2999 4320 59 3800 220/06 RMK AO2 T00171056 TSNO
94299KAAT AAT20161205141511512/05/16 14:15:31  5-MIN KAAT 052215Z AUTO 21006KT 10SM CLR 02/M05 A2999 4320 59 3900 190/06 RMK AO2 T00221050 TSNO
94299KAAT AAT20161205142011512/05/16 14:20:31  5-MIN KAAT 052220Z AUTO 25003KT 10SM CLR 02/M06 A2999 4320 59 3800 230/03 RMK AO2 T00171056 TSNO
94299KAAT AAT20161205142511812/05/16 14:25:31  5-MIN KAAT 052225Z AUTO VRB04KT 10SM FEW032 02/M05 A2999 4320 59 3800 VRB/04 RMK AO2 T00221050 TSNO
94299KAAT AAT20161205143011812/05/16 14:30:31  5-MIN KAAT 052230Z AUTO 25005KT 10SM SCT032 02/M05 A2999 4320 59 3900 240/05 RMK AO2 T00221050 TSNO
94299KAAT AAT20161205143511812/05/16 14:35:31  5-MIN KAAT 052235Z AUTO 27008KT 10SM SCT031 02/M05 A2999 4320 59 3800 250/08 RMK AO2 T00221050 TSNO
94299KAAT AAT20161205144011812/05/16 14:40:31  5-MIN KAAT 052240Z AUTO 25007KT 10SM SCT031 02/M05 A2999 4320 61 3800 240/07 RMK AO2 T00171050 TSNO
94299KAAT AAT20161205144511812/05/16 14:45:31  5-MIN KAAT 052245Z AUTO 22004KT 10SM BKN031 02/M05 A2998 4320 61 3800 200/04 RMK AO2 T00171050 TSNO
94299KAAT AAT20161205145012512/05/16 14:50:31  5-MIN KAAT 052250Z AUTO 19003KT 10SM BKN032 02/M05 A2998 4320 61 3800 170/03 RMK AO2 SLP167 T00171050 TSNO
94299KAAT AAT20161205145512512/05/16 14:55:31  5-MIN KAAT 052255Z AUTO VRB05KT 10SM BKN032 02/M05 A2998 4320 59 3900 VRB/05 RMK AO2 SLP166 T00221050 TSNO
94299KAAT AAT20161205150011812/05/16 15:00:31  5-MIN KAAT 052300Z AUTO 26005KT 10SM SCT032 02/M06 A2998 4330 56 3900 250/05 RMK AO2 T00221056 TSNO
94299KAAT AAT20161205150511812/05/16 15:05:31  5-MIN KAAT 052305Z AUTO 24006KT 10SM SCT032 02/M05 A2998 4330 59 3900 230/06 RMK AO2 T00221050 TSNO
94299KAAT AAT20161205151011812/05/16 15:10:31  5-MIN KAAT 052310Z AUTO 23005KT 10SM SCT032 02/M05 A2998 4330 61 3800 220/05 RMK AO2 T00171050 TSNO
94299KAAT AAT20161205151511812/05/16 15:15:31  5-MIN KAAT 052315Z AUTO 24003KT 10SM FEW032 02/M05 A2998 4330 61 3800 230/03 RMK AO2 T00171050 TSNO
94299KAAT AAT20161205152011512/05/16 15:20:31  5-MIN KAAT 052320Z AUTO 21004KT 10SM CLR 02/M05 A2998 4330 61 3800 200/04 RMK AO2 T00171050 TSNO
94299KAAT AAT20161205152511512/05/16 15:25:31  5-MIN KAAT 052325Z AUTO 26006KT 10SM CLR 02/M05 A2998 4330 59 3900 250/06 RMK AO2 T00221050 TSNO
94299KAAT AAT20161205153011512/05/16 15:30:31  5-MIN KAAT 052330Z AUTO 27004KT 10SM CLR 02/M06 A2997 4330 59 3800 250/04 RMK AO2 T00171056 TSNO
94299KAAT AAT20161205153511512/05/16 15:35:31  5-MIN KAAT 052335Z AUTO 00000KT 10SM CLR 02/M05 A2997 4330 61 3800 000/00 RMK AO2 T00171050 TSNO
94299KAAT AAT20161205154011512/05/16 15:40:31  5-MIN KAAT 052340Z AUTO 20003KT 10SM CLR 02/M05 A2997 4340 61 3800 190/03 RMK AO2 T00171050 TSNO
94299KAAT AAT20161205154511512/05/16 15:45:31  5-MIN KAAT 052345Z AUTO 24005KT 10SM CLR 02/M05 A2997 4340 61 3800 230/05 RMK AO2 T00171050 TSNO
94299KAAT AAT20161205155014012/05/16 15:50:31  5-MIN KAAT 052350Z AUTO 28004KT 10SM CLR 02/M06 A2997 4340 56 3800 260/04 RMK AO2 SLP164 T00171061 10022 21011 56020 TSNO
94299KAAT AAT20161205155514012/05/16 15:55:31  5-MIN KAAT 052355Z AUTO 30007KT 10SM CLR 02/M07 A2997 4340 54 3800 290/07 RMK AO2 SLP164 T00171067 10022 21011 56014 TSNO
94299KAAT AAT20161205160011512/05/16 16:00:31  5-MIN KAAT 060000Z AUTO 29005KT 10SM CLR 02/M07 A2997 4340 52 3800 280/05 RMK AO2 T00171072 TSNO
94299KAAT AAT20161205160511512/05/16 16:05:31  5-MIN KAAT 060005Z AUTO 29004KT 10SM CLR 02/M07 A2997 4340 54 3800 270/04 RMK AO2 T00171067 TSNO
94299KAAT AAT20161205161011512/05/16 16:10:31  5-MIN KAAT 060010Z AUTO 33004KT 10SM CLR 01/M07 A2997 4340 56 3700 310/04 RMK AO2 T00111067 TSNO
94299KAAT AAT20161205161511512/05/16 16:15:31  5-MIN KAAT 060015Z AUTO 34004KT 10SM CLR 01/M06 A2997 4330 61 3700 320/04 RMK AO2 T00061061 TSNO
94299KAAT AAT20161205162011512/05/16 16:20:31  5-MIN KAAT 060020Z AUTO 35005KT 10SM CLR 01/M06 A2997 4330 61 3700 330/05 RMK AO2 T00061061 TSNO
94299KAAT AAT20161205162511512/05/16 16:25:31  5-MIN KAAT 060025Z AUTO 36004KT 10SM CLR 00/M06 A2997 4330 63 3600 340/04 RMK AO2 T00001061 TSNO
94299KAAT AAT20161205163011512/05/16 16:30:31  5-MIN KAAT 060030Z AUTO 35004KT 10SM CLR 00/M06 A2997 4330 63 3600 340/04 RMK AO2 T00001061 TSNO
94299KAAT AAT20161205163511612/05/16 16:35:31  5-MIN KAAT 060035Z AUTO 35005KT 10SM CLR M01/M06 A2997 4340 66 3500 330/05 RMK AO2 T10061061 TSNO
94299KAAT AAT20161205164011612/05/16 16:40:31  5-MIN KAAT 060040Z AUTO 35004KT 10SM CLR M01/M06 A2997 4340 66 3500 340/04 RMK AO2 T10061061 TSNO
94299KAAT AAT20161205164511612/05/16 16:45:31  5-MIN KAAT 060045Z AUTO 35003KT 10SM CLR M01/M07 A2997 4340 66 3500 330/03 RMK AO2 T10111067 TSNO
94299KAAT AAT20161205165012312/05/16 16:50:31  5-MIN KAAT 060050Z AUTO 35004KT 10SM CLR M01/M07 A2997 4340 66 3500 340/04 RMK AO2 SLP171 T10111067 TSNO
94299KAAT AAT20161205165512312/05/16 16:55:31  5-MIN KAAT 060055Z AUTO 34004KT 10SM CLR M01/M07 A2997 4340 63 3500 330/04 RMK AO2 SLP169 T10111072 TSNO
94299KAAT AAT20161205170011612/05/16 17:00:31  5-MIN KAAT 060100Z AUTO 34004KT 10SM CLR M01/M07 A2997 4330 63 3500 330/04 RMK AO2 T10111072 TSNO
94299KAAT AAT20161205170511612/05/16 17:05:31  5-MIN KAAT 060105Z AUTO 36004KT 10SM CLR M01/M07 A2997 4330 63 3500 340/04 RMK AO2 T10111072 TSNO
94299KAAT AAT20161205171011612/05/16 17:10:31  5-MIN KAAT 060110Z AUTO 01004KT 10SM CLR M02/M08 A2997 4330 63 3400 350/04 RMK AO2 T10171078 TSNO
94299KAAT AAT20161205171511612/05/16 17:15:31  5-MIN KAAT 060115Z AUTO 01003KT 10SM CLR M02/M08 A2997 4340 63 3400 360/03 RMK AO2 T10171078 TSNO
94299KAAT AAT20161205172011612/05/16 17:20:31  5-MIN KAAT 060120Z AUTO 35004KT 10SM CLR M02/M08 A2997 4340 63 3400 340/04 RMK AO2 T10171078 TSNO
94299KAAT AAT20161205172511612/05/16 17:25:31  5-MIN KAAT 060125Z AUTO 36003KT 10SM CLR M02/M07 A2997 4340 66 3400 350/03 RMK AO2 T10171072 TSNO
94299KAAT AAT20161205173011612/05/16 17:30:31  5-MIN KAAT 060130Z AUTO 36003KT 10SM CLR M02/M08 A2997 4330 63 3400 350/03 RMK AO2 T10171078 TSNO
94299KAAT AAT20161205173511612/05/16 17:35:31  5-MIN KAAT 060135Z AUTO 36003KT 10SM CLR M02/M08 A2997 4330 63 3400 350/03 RMK AO2 T10171078 TSNO
94299KAAT AAT20161205174011612/05/16 17:40:31  5-MIN KAAT 060140Z AUTO 00000KT 10SM CLR M02/M08 A2997 4330 66 3300 000/00 RMK AO2 T10221078 TSNO
94299KAAT AAT20161205174511612/05/16 17:45:31  5-MIN KAAT 060145Z AUTO 32004KT 10SM CLR M02/M08 A2997 4330 66 3300 310/04 RMK AO2 T10221078 TSNO
94299KAAT AAT20161205175012312/05/16 17:50:31  5-MIN KAAT 060150Z AUTO 35003KT 10SM CLR M02/M08 A2997 4330 66 3300 340/03 RMK AO2 SLP175 T10221078 TSNO
94299KAAT AAT20161205175512312/05/16 17:55:31  5-MIN KAAT 060155Z AUTO 02003KT 10SM CLR M03/M08 A2997 4330 68 3300 010/03 RMK AO2 SLP178 T10281078 TSNO
94299KAAT AAT20161205180011612/05/16 18:00:31  5-MIN KAAT 060200Z AUTO 36004KT 10SM CLR M03/M08 A2997 4330 68 3300 350/04 RMK AO2 T10281078 TSNO
94299KAAT AAT20161205180511612/05/16 18:05:31  5-MIN KAAT 060205Z AUTO 36004KT 10SM CLR M03/M07 A2997 4330 71 3300 340/04 RMK AO2 T10281072 TSNO
94299KAAT AAT20161205181011612/05/16 18:10:31  5-MIN KAAT 060210Z AUTO VRB03KT 10SM CLR M04/M07 A2997 4330 78 3100 VRB/03 RMK AO2 T10391072 TSNO
94299KAAT AAT20161205181511612/05/16 18:15:31  5-MIN KAAT 060215Z AUTO 00000KT 10SM CLR M04/M08 A2998 4330 78 3000 000/00 RMK AO2 T10441078 TSNO
94299KAAT AAT20161205182011612/05/16 18:20:31  5-MIN KAAT 060220Z AUTO 00000KT 10SM CLR M04/M08 A2998 4330 74 3100 000/00 RMK AO2 T10391078 TSNO
94299KAAT AAT20161205182511612/05/16 18:25:31  5-MIN KAAT 060225Z AUTO 01003KT 10SM CLR M04/M08 A2997 4330 74 3100 350/03 RMK AO2 T10391078 TSNO
94299KAAT AAT20161205183011912/05/16 18:30:31  5-MIN KAAT 060230Z AUTO 33003KT 10SM FEW038 M03/M08 A2997 4330 71 3200 320/03 RMK AO2 T10331078 TSNO
94299KAAT AAT20161205183511912/05/16 18:35:31  5-MIN KAAT 060235Z AUTO 34005KT 10SM SCT038 M03/M07 A2997 4330 71 3300 330/05 RMK AO2 T10281072 TSNO
94299KAAT AAT20161205184011912/05/16 18:40:31  5-MIN KAAT 060240Z AUTO 35005KT 10SM SCT038 M03/M07 A2998 4330 71 3300 330/05 RMK AO2 T10281072 TSNO
94299KAAT AAT20161205184511912/05/16 18:45:31  5-MIN KAAT 060245Z AUTO 34004KT 10SM BKN037 M02/M07 A2998 4330 69 3300 330/04 RMK AO2 T10221072 TSNO
94299KAAT AAT20161205185013212/05/16 18:50:31  5-MIN KAAT 060250Z AUTO 30003KT 10SM BKN037 M03/M07 A2998 4330 71 3300 290/03 RMK AO2 SLP180 T10281072 56014 TSNO
94299KAAT AAT20161205185513212/05/16 18:55:31  5-MIN KAAT 060255Z AUTO 28003KT 10SM BKN037 M02/M07 A2998 4330 69 3300 260/03 RMK AO2 SLP181 T10221072 53003 TSNO
94299KAAT AAT20161205190011912/05/16 19:00:31  5-MIN KAAT 060300Z AUTO 32003KT 10SM BKN036 M03/M07 A2998 4330 71 3200 310/03 RMK AO2 T10281072 TSNO
94299KAAT AAT20161205190511912/05/16 19:05:31  5-MIN KAAT 060305Z AUTO 30005KT 10SM BKN036 M02/M07 A2998 4320 69 3300 290/05 RMK AO2 T10221072 TSNO
94299KAAT AAT20161205191011912/05/16 19:10:31  5-MIN KAAT 060310Z AUTO 00000KT 10SM OVC036 M02/M07 A2998 4320 66 3400 000/00 RMK AO2 T10171072 TSNO
94299KAAT AAT20161205191511912/05/16 19:15:31  5-MIN KAAT 060315Z AUTO 35003KT 10SM OVC036 M02/M07 A2998 4320 69 3300 340/03 RMK AO2 T10221072 TSNO
94299KAAT AAT20161205192011912/05/16 19:20:31  5-MIN KAAT 060320Z AUTO 00000KT 10SM OVC036 M02/M07 A2998 4330 66 3400 000/00 RMK AO2 T10171072 TSNO
94299KAAT AAT20161205192511912/05/16 19:25:31  5-MIN KAAT 060325Z AUTO 27003KT 10SM OVC036 M02/M07 A2998 4330 69 3300 260/03 RMK AO2 T10221072 TSNO
94299KAAT AAT20161205193011912/05/16 19:30:31  5-MIN KAAT 060330Z AUTO 00000KT 10SM BKN037 M03/M07 A2998 4330 71 3300 000/00 RMK AO2 T10281072 TSNO
94299KAAT AAT20161205193511912/05/16 19:35:31  5-MIN KAAT 060335Z AUTO 00000KT 10SM BKN037 M03/M07 A2998 4330 71 3200 000/00 RMK AO2 T10281072 TSNO
94299KAAT AAT20161205194011912/05/16 19:40:31  5-MIN KAAT 060340Z AUTO 00000KT 10SM BKN037 M02/M07 A2998 4330 69 3300 000/00 RMK AO2 T10221072 TSNO
94299KAAT AAT20161205194511912/05/16 19:45:31  5-MIN KAAT 060345Z AUTO 00000KT 10SM BKN037 M02/M07 A2998 4330 69 3300 000/00 RMK AO2 T10221072 TSNO
94299KAAT AAT20161205195012612/05/16 19:50:31  5-MIN KAAT 060350Z AUTO 00000KT 10SM BKN037 M02/M08 A2998 4320 66 3300 000/00 RMK AO2 SLP183 T10221078 TSNO
94299KAAT AAT20161205195512612/05/16 19:55:31  5-MIN KAAT 060355Z AUTO 00000KT 10SM BKN038 M03/M08 A2998 4330 71 3200 000/00 RMK AO2 SLP183 T10331078 TSNO
94299KAAT AAT20161205200011912/05/16 20:00:31  5-MIN KAAT 060400Z AUTO 00000KT 10SM SCT038 M03/M08 A2998 4330 68 3300 000/00 RMK AO2 T10281078 TSNO
94299KAAT AAT20161205200511912/05/16 20:05:31  5-MIN KAAT 060405Z AUTO 21003KT 10SM SCT038 M03/M08 A2998 4330 68 3300 190/03 RMK AO2 T10281078 TSNO
94299KAAT AAT20161205201011912/05/16 20:10:31  5-MIN KAAT 060410Z AUTO 21003KT 10SM FEW038 M03/M08 A2998 4330 71 3200 190/03 RMK AO2 T10331078 TSNO
94299KAAT AAT20161205201511912/05/16 20:15:31  5-MIN KAAT 060415Z AUTO 20003KT 10SM FEW038 M04/M08 A2998 4330 74 3100 180/03 RMK AO2 T10391078 TSNO
94299KAAT AAT20161205202011612/05/16 20:20:31  5-MIN KAAT 060420Z AUTO 00000KT 10SM CLR M04/M08 A2998 4330 78 3000 000/00 RMK AO2 T10441078 TSNO
94299KAAT AAT20161205202511612/05/16 20:25:31  5-MIN KAAT 060425Z AUTO 00000KT 10SM CLR M04/M08 A2998 4330 78 3000 000/00 RMK AO2 T10441078 TSNO
94299KAAT AAT20161205203011612/05/16 20:30:31  5-MIN KAAT 060430Z AUTO 00000KT 10SM CLR M06/M08 A2998 4330 84 2900 000/00 RMK AO2 T10561078 TSNO
94299KAAT AAT20161205203511612/05/16 20:35:31  5-MIN KAAT 060435Z AUTO 00000KT 10SM CLR M05/M08 A2998 4330 81 3000 000/00 RMK AO2 T10501078 TSNO
94299KAAT AAT20161205204011612/05/16 20:40:31  5-MIN KAAT 060440Z AUTO 00000KT 10SM CLR M06/M08 A2998 4330 84 2900 000/00 RMK AO2 T10561078 TSNO
94299KAAT AAT20161205204511612/05/16 20:45:31  5-MIN KAAT 060445Z AUTO 00000KT 10SM CLR M06/M08 A2997 4330 84 2900 000/00 RMK AO2 T10561078 TSNO
94299KAAT AAT20161205205012312/05/16 20:50:31  5-MIN KAAT 060450Z AUTO 00000KT 10SM CLR M06/M08 A2997 4330 84 2900 000/00 RMK AO2 SLP178 T10561078 TSNO
94299KAAT AAT20161205205512312/05/16 20:55:31  5-MIN KAAT 060455Z AUTO 17003KT 10SM CLR M04/M07 A2997 4330 81 3100 160/03 RMK AO2 SLP175 T10441072 TSNO
94299KAAT AAT20161205210011612/05/16 21:00:31  5-MIN KAAT 060500Z AUTO 20003KT 10SM CLR M05/M08 A2997 4330 81 3000 180/03 RMK AO2 T10501078 TSNO
94299KAAT AAT20161205210511612/05/16 21:05:31  5-MIN KAAT 060505Z AUTO 19004KT 10SM CLR M05/M08 A2997 4340 81 3000 180/04 RMK AO2 T10501078 TSNO
94299KAAT AAT20161205211011612/05/16 21:10:31  5-MIN KAAT 060510Z AUTO 20003KT 10SM CLR M06/M08 A2997 4330 84 2900 180/03 RMK AO2 T10561078 TSNO
94299KAAT AAT20161205211511612/05/16 21:15:31  5-MIN KAAT 060515Z AUTO 00000KT 10SM CLR M06/M08 A2997 4330 88 2800 000/00 RMK AO2 T10611078 TSNO
94299KAAT AAT20161205212011612/05/16 21:20:31  5-MIN KAAT 060520Z AUTO 00000KT 10SM CLR M07/M09 A2997 4340 88 2700 000/00 RMK AO2 T10721089 TSNO
94299KAAT AAT20161205212511612/05/16 21:25:31  5-MIN KAAT 060525Z AUTO 00000KT 10SM CLR M07/M09 A2997 4340 88 2700 000/00 RMK AO2 T10721089 TSNO
94299KAAT AAT20161205213011612/05/16 21:30:31  5-MIN KAAT 060530Z AUTO 00000KT 10SM CLR M06/M08 A2997 4340 84 2800 000/00 RMK AO2 T10611083 TSNO
94299KAAT AAT20161205213511612/05/16 21:35:31  5-MIN KAAT 060535Z AUTO 00000KT 10SM CLR M07/M08 A2997 4340 88 2800 000/00 RMK AO2 T10671083 TSNO
94299KAAT AAT20161205214011612/05/16 21:40:31  5-MIN KAAT 060540Z AUTO 00000KT 10SM CLR M06/M08 A2997 4340 81 2900 000/00 RMK AO2 T10561083 TSNO
94299KAAT AAT20161205214511612/05/16 21:45:31  5-MIN KAAT 060545Z AUTO 23003KT 10SM CLR M06/M08 A2997 4340 81 2900 210/03 RMK AO2 T10561083 TSNO
94299KAAT AAT20161205215014112/05/16 21:50:31  5-MIN KAAT 060550Z AUTO VRB03KT 10SM CLR M07/M08 A2997 4340 88 2800 VRB/03 RMK AO2 SLP177 T10671083 10017 21072 53003 TSNO
94299KAAT AAT20161205215514112/05/16 21:55:31  5-MIN KAAT 060555Z AUTO 28003KT 10SM CLR M08/M09 A2997 4340 88 2600 260/03 RMK AO2 SLP178 T10781094 10017 21078 58004 TSNO
94299KAAT AAT20161205220011612/05/16 22:00:31  5-MIN KAAT 060600Z AUTO 00000KT 10SM CLR M08/M09 A2997 4340 88 2600 000/00 RMK AO2 T10781094 TSNO
94299KAAT AAT20161205220511612/05/16 22:05:31  5-MIN KAAT 060605Z AUTO 00000KT 10SM CLR M07/M09 A2997 4340 84 2700 000/00 RMK AO2 T10721094 TSNO
94299KAAT AAT20161205221011612/05/16 22:10:31  5-MIN KAAT 060610Z AUTO 00000KT 10SM CLR M07/M09 A2997 4340 84 2800 000/00 RMK AO2 T10671089 TSNO
94299KAAT AAT20161205221511612/05/16 22:15:31  5-MIN KAAT 060615Z AUTO 00000KT 10SM CLR M07/M09 A2997 4340 84 2800 000/00 RMK AO2 T10671089 TSNO
94299KAAT AAT20161205222011612/05/16 22:20:31  5-MIN KAAT 060620Z AUTO 00000KT 10SM CLR M07/M09 A2996 4340 88 2700 000/00 RMK AO2 T10721089 TSNO
94299KAAT AAT20161205222511612/05/16 22:25:31  5-MIN KAAT 060625Z AUTO 00000KT 10SM CLR M08/M09 A2996 4340 92 2600 000/00 RMK AO2 T10781089 TSNO
94299KAAT AAT20161205223011612/05/16 22:30:31  5-MIN KAAT 060630Z AUTO 00000KT 10SM CLR M07/M09 A2996 4340 88 2700 000/00 RMK AO2 T10721089 TSNO
94299KAAT AAT20161205223511612/05/16 22:35:31  5-MIN KAAT 060635Z AUTO 00000KT 10SM CLR M06/M08 A2996 4340 84 2900 000/00 RMK AO2 T10611083 TSNO
94299KAAT AAT20161205224011612/05/16 22:40:31  5-MIN KAAT 060640Z AUTO 00000KT 10SM CLR M06/M08 A2996 4350 84 2900 000/00 RMK AO2 T10611083 TSNO
94299KAAT AAT20161205224511612/05/16 22:45:31  5-MIN KAAT 060645Z AUTO 00000KT 10SM CLR M07/M09 A2996 4350 84 2800 000/00 RMK AO2 T10671089 TSNO
94299KAAT AAT20161205225012312/05/16 22:50:31  5-MIN KAAT 060650Z AUTO 00000KT 10SM CLR M06/M08 A2996 4350 84 2900 000/00 RMK AO2 SLP169 T10611083 TSNO
94299KAAT AAT20161205225512212/05/16 22:55:31  5-MIN KAAT 060655Z AUTO 00000KT 9SM CLR M07/M08 A2996 4350 92 2700 000/00 RMK AO2 SLP173 T10721083 TSNO
94299KAAT AAT20161205230011512/05/16 23:00:31  5-MIN KAAT 060700Z AUTO 00000KT 9SM CLR M08/M09 A2996 4350 92 2600 000/00 RMK AO2 T10831094 TSNO
94299KAAT AAT20161205230511512/05/16 23:05:31  5-MIN KAAT 060705Z AUTO 00000KT 8SM CLR M09/M11 A2996 4350 88 2500 000/00 RMK AO2 T10891106 TSNO
94299KAAT AAT20161205231011812/05/16 23:10:31  5-MIN KAAT 060710Z AUTO 00000KT 5SM BR CLR M08/M10 A2996 4350 88 2600 000/00 RMK AO2 T10831100 TSNO
94299KAAT AAT20161205231511812/05/16 23:15:31  5-MIN KAAT 060715Z AUTO 00000KT 4SM BR CLR M08/M10 A2996 4350 88 2600 000/00 RMK AO2 T10831100 TSNO
94299KAAT AAT20161205232011812/05/16 23:20:31  5-MIN KAAT 060720Z AUTO 00000KT 4SM BR CLR M08/M09 A2996 4350 88 2700 000/00 RMK AO2 T10781094 TSNO
94299KAAT AAT20161205232511812/05/16 23:25:31  5-MIN KAAT 060725Z AUTO 15005KT 5SM BR CLR M08/M09 A2995 4350 92 2700 140/05 RMK AO2 T10781089 TSNO
94299KAAT AAT20161205233011512/05/16 23:30:31  5-MIN KAAT 060730Z AUTO 16005KT 7SM CLR M07/M09 A2995 4350 88 2700 140/05 RMK AO2 T10721089 TSNO
94299KAAT AAT20161205233511612/05/16 23:35:31  5-MIN KAAT 060735Z AUTO 17005KT 10SM CLR M07/M08 A2995 4350 88 2800 150/05 RMK AO2 T10671083 TSNO
94299KAAT AAT20161205234011612/05/16 23:40:31  5-MIN KAAT 060740Z AUTO 16004KT 10SM CLR M07/M08 A2995 4350 88 2800 150/04 RMK AO2 T10671083 TSNO
94299KAAT AAT20161205234511612/05/16 23:45:31  5-MIN KAAT 060745Z AUTO 16004KT 10SM CLR M07/M08 A2995 4350 88 2800 150/04 RMK AO2 T10671083 TSNO
94299KAAT AAT20161205235013312/05/16 23:50:31  5-MIN KAAT 060750Z AUTO 15003KT 10SM CLR M07/M08 A2994 4360 92 2700 130/03 RMK AO2 SLP166 T10721083 400221089 TSNO
94299KAAT AAT20161205235513312/05/16 23:55:31  5-MIN KAAT 060755Z AUTO 16003KT 10SM CLR M08/M09 A2995 4360 96 2600 150/03 RMK AO2 SLP169 T10831089 400221089 TSNO
94299KAAT AAT20161206000011612/06/16 00:00:31  5-MIN KAAT 060800Z AUTO 00000KT 10SM CLR M08/M10 A2995 4360 88 2600 000/00 RMK AO2 T10831100 TSNO
94299KAAT AAT20161206000511612/06/16 00:05:31  5-MIN KAAT 060805Z AUTO 00000KT 10SM CLR M09/M11 A2994 4360 92 2500 000/00 RMK AO2 T10941106 TSNO
94299KAAT AAT20161206001011512/06/16 00:10:31  5-MIN KAAT 060810Z AUTO 00000KT 9SM CLR M09/M11 A2994 4360 88 2500 000/00 RMK AO2 T10941111 TSNO
94299KAAT AAT20161206001511512/06/16 00:15:31  5-MIN KAAT 060815Z AUTO 17003KT 9SM CLR M09/M11 A2994 4360 88 2500 160/03 RMK AO2 T10941111 TSNO
94299KAAT AAT20161206002011612/06/16 00:20:31  5-MIN KAAT 060820Z AUTO VRB04KT 10SM CLR M08/M10 A2994 4360 88 2600 VRB/04 RMK AO2 T10831100 TSNO
94299KAAT AAT20161206002511612/06/16 00:25:31  5-MIN KAAT 060825Z AUTO 00000KT 10SM CLR M10/M11 A2993 4370 92 2400 000/00 RMK AO2 T11001111 TSNO
94299KAAT AAT20161206003011612/06/16 00:30:31  5-MIN KAAT 060830Z AUTO 00000KT 10SM CLR M09/M11 A2993 4370 88 2500 000/00 RMK AO2 T10941111 TSNO
94299KAAT AAT20161206003511512/06/16 00:35:31  5-MIN KAAT 060835Z AUTO 18003KT 9SM CLR M09/M11 A2993 4380 88 2500 160/03 RMK AO2 T10891106 TSNO
94299KAAT AAT20161206004011512/06/16 00:40:31  5-MIN KAAT 060840Z AUTO 14003KT 9SM CLR M08/M10 A2992 4380 88 2600 120/03 RMK AO2 T10831100 TSNO
94299KAAT AAT20161206004511612/06/16 00:45:31  5-MIN KAAT 060845Z AUTO 00000KT 10SM CLR M08/M09 A2992 4380 92 2600 000/00 RMK AO2 T10831094 TSNO
94299KAAT AAT20161206005012912/06/16 00:50:31  5-MIN KAAT 060850Z AUTO 00000KT 10SM CLR M08/M09 A2992 4380 92 2700 000/00 RMK AO2 SLP158 T10781089 58004 TSNO
94299KAAT AAT20161206005512812/06/16 00:55:31  5-MIN KAAT 060855Z AUTO 10003KT 8SM CLR M08/M09 A2992 4380 88 2700 090/03 RMK AO2 SLP156 T10781094 58015 TSNO
94299KAAT AAT20161206010011512/06/16 01:00:31  5-MIN KAAT 060900Z AUTO 00000KT 7SM CLR M08/M09 A2992 4380 92 2600 000/00 RMK AO2 T10831094 TSNO
94299KAAT AAT20161206010511812/06/16 01:05:31  5-MIN KAAT 060905Z AUTO 00000KT 6SM BR CLR M09/M11 A2992 4390 92 2500 000/00 RMK AO2 T10941106 TSNO
94299KAAT AAT20161206011011812/06/16 01:10:31  5-MIN KAAT 060910Z AUTO 00000KT 5SM BR CLR M09/M11 A2992 4390 92 2500 000/00 RMK AO2 T10941106 TSNO
94299KAAT AAT20161206011511812/06/16 01:15:31  5-MIN KAAT 060915Z AUTO 00000KT 5SM BR CLR M10/M11 A2991 4390 96 2400 000/00 RMK AO2 T11001106 TSNO
94299KAAT AAT20161206012011812/06/16 01:20:31  5-MIN KAAT 060920Z AUTO 00000KT 5SM BR CLR M10/M11 A2991 4390 92 2400 000/00 RMK AO2 T11001111 TSNO
94299KAAT AAT20161206012511812/06/16 01:25:31  5-MIN KAAT 060925Z AUTO 00000KT 5SM BR CLR M10/M11 A2991 4390 92 2400 000/00 RMK AO2 T11001111 TSNO
94299KAAT AAT20161206013011812/06/16 01:30:31  5-MIN KAAT 060930Z AUTO 00000KT 6SM BR CLR M09/M11 A2991 4390 88 2500 000/00 RMK AO2 T10941111 TSNO
94299KAAT AAT20161206013511812/06/16 01:35:31  5-MIN KAAT 060935Z AUTO 00000KT 6SM BR CLR M09/M10 A2991 4390 92 2600 000/00 RMK AO2 T10891100 TSNO
94299KAAT AAT20161206014011812/06/16 01:40:31  5-MIN KAAT 060940Z AUTO 04003KT 6SM BR CLR M08/M10 A2991 4390 88 2600 020/03 RMK AO2 T10831100 TSNO
94299KAAT AAT20161206014511812/06/16 01:45:31  5-MIN KAAT 060945Z AUTO 08003KT 5SM BR CLR M08/M10 A2991 4390 88 2600 070/03 RMK AO2 T10831100 TSNO
94299KAAT AAT20161206015012512/06/16 01:50:31  5-MIN KAAT 060950Z AUTO 08004KT 5SM BR CLR M08/M10 A2991 4390 88 2600 070/04 RMK AO2 SLP154 T10831100 TSNO
94299KAAT AAT20161206015512212/06/16 01:55:31  5-MIN KAAT 060955Z AUTO 06003KT 7SM CLR M08/M09 A2991 4390 88 2700 050/03 RMK AO2 SLP153 T10781094 TSNO
94299KAAT AAT20161206020011812/06/16 02:00:31  5-MIN KAAT 061000Z AUTO 10003KT 9SM FEW065 M08/M09 A2991 4390 88 2700 080/03 RMK AO2 T10781094 TSNO
94299KAAT AAT20161206020511912/06/16 02:05:31  5-MIN KAAT 061005Z AUTO 15004KT 10SM SCT065 M07/M09 A2991 4390 88 2800 130/04 RMK AO2 T10721089 TSNO
94299KAAT AAT20161206021011912/06/16 02:10:31  5-MIN KAAT 061010Z AUTO 16004KT 10SM SCT065 M07/M09 A2991 4390 88 2800 150/04 RMK AO2 T10721089 TSNO
94299KAAT AAT20161206021511912/06/16 02:15:31  5-MIN KAAT 061015Z AUTO 15004KT 10SM BKN060 M07/M08 A2990 4400 92 2800 140/04 RMK AO2 T10721083 TSNO
94299KAAT AAT20161206022011912/06/16 02:20:31  5-MIN KAAT 061020Z AUTO 16003KT 10SM BKN060 M07/M08 A2990 4400 88 2900 150/03 RMK AO2 T10671083 TSNO
94299KAAT AAT20161206022511912/06/16 02:25:31  5-MIN KAAT 061025Z AUTO 00000KT 10SM OVC060 M07/M08 A2990 4400 88 2900 000/00 RMK AO2 T10671083 TSNO
94299KAAT AAT20161206023011912/06/16 02:30:31  5-MIN KAAT 061030Z AUTO 00000KT 10SM OVC060 M07/M08 A2990 4400 88 2900 000/00 RMK AO2 T10671083 TSNO
94299KAAT AAT20161206023511912/06/16 02:35:31  5-MIN KAAT 061035Z AUTO 00000KT 10SM OVC060 M07/M08 A2990 4400 88 2900 000/00 RMK AO2 T10671083 TSNO
94299KAAT AAT20161206024011912/06/16 02:40:31  5-MIN KAAT 061040Z AUTO 00000KT 10SM OVC060 M07/M08 A2990 4400 88 2900 000/00 RMK AO2 T10671083 TSNO
94299KAAT AAT20161206024511912/06/16 02:45:31  5-MIN KAAT 061045Z AUTO 00000KT 10SM OVC055 M07/M08 A2990 4400 88 2900 000/00 RMK AO2 T10671083 TSNO
94299KAAT AAT20161206025012612/06/16 02:50:31  5-MIN KAAT 061050Z AUTO 00000KT 10SM OVC055 M07/M08 A2990 4400 92 2900 000/00 RMK AO2 SLP146 T10671078 TSNO
94299KAAT AAT20161206025512612/06/16 02:55:31  5-MIN KAAT 061055Z AUTO 00000KT 10SM OVC055 M06/M08 A2990 4400 88 2900 000/00 RMK AO2 SLP144 T10611078 TSNO
94299KAAT AAT20161206030011912/06/16 03:00:31  5-MIN KAAT 061100Z AUTO 00000KT 10SM OVC055 M06/M08 A2989 4410 88 2900 000/00 RMK AO2 T10611078 TSNO
94299KAAT AAT20161206030511912/06/16 03:05:31  5-MIN KAAT 061105Z AUTO 00000KT 10SM OVC060 M06/M08 A2989 4410 88 2900 000/00 RMK AO2 T10611078 TSNO
94299KAAT AAT20161206031011912/06/16 03:10:31  5-MIN KAAT 061110Z AUTO 00000KT 10SM OVC055 M06/M08 A2989 4410 84 2900 000/00 RMK AO2 T10611083 TSNO
94299KAAT AAT20161206031511912/06/16 03:15:31  5-MIN KAAT 061115Z AUTO 19003KT 10SM OVC055 M06/M08 A2989 4410 84 2900 170/03 RMK AO2 T10611083 TSNO
94299KAAT AAT20161206032012612/06/16 03:20:31  5-MIN KAAT 061120Z AUTO 18004KT 10SM BKN050 OVC060 M06/M08 A2989 4410 84 2900 170/04 RMK AO2 T10611083 TSNO
94299KAAT AAT20161206032512612/06/16 03:25:31  5-MIN KAAT 061125Z AUTO 19004KT 10SM BKN050 OVC060 M06/M08 A2989 4410 84 3000 180/04 RMK AO2 T10561078 TSNO
94299KAAT AAT20161206033012612/06/16 03:30:31  5-MIN KAAT 061130Z AUTO 17003KT 10SM BKN050 OVC060 M06/M07 A2989 4410 88 3000 150/03 RMK AO2 T10561072 TSNO
94299KAAT AAT20161206033511912/06/16 03:35:31  5-MIN KAAT 061135Z AUTO 16004KT 10SM OVC050 M06/M07 A2989 4410 88 3000 150/04 RMK AO2 T10561072 TSNO
94299KAAT AAT20161206034011912/06/16 03:40:31  5-MIN KAAT 061140Z AUTO 17005KT 10SM OVC050 M06/M07 A2988 4420 88 3000 150/05 RMK AO2 T10561072 TSNO
94299KAAT AAT20161206034512612/06/16 03:45:31  5-MIN KAAT 061145Z AUTO 17005KT 10SM BKN050 BKN065 M06/M08 A2988 4420 84 3000 150/05 RMK AO2 T10561078 TSNO
94299KAAT AAT20161206035015112/06/16 03:50:31  5-MIN KAAT 061150Z AUTO 16004KT 10SM SCT048 BKN065 M06/M08 A2988 4420 84 3000 140/04 RMK AO2 SLP138 T10561078 11056 21100 58015 TSNO
94299KAAT AAT20161206035515112/06/16 03:55:31  5-MIN KAAT 061155Z AUTO 00000KT 10SM SCT048 BKN065 M06/M08 A2988 4420 88 2900 000/00 RMK AO2 SLP141 T10611078 11056 21100 58010 TSNO
94299KAAT AAT20161206040012612/06/16 04:00:31  5-MIN KAAT 061200Z AUTO 03003KT 10SM FEW048 BKN065 M06/M08 A2988 4410 84 2900 010/03 RMK AO2 T10611083 TSNO
94299KAAT AAT20161206040512612/06/16 04:05:31  5-MIN KAAT 061205Z AUTO 00000KT 10SM FEW047 BKN065 M07/M08 A2989 4410 88 2900 000/00 RMK AO2 T10671083 TSNO
94299KAAT AAT20161206041012612/06/16 04:10:31  5-MIN KAAT 061210Z AUTO 00000KT 10SM FEW047 BKN065 M06/M08 A2989 4410 84 2900 000/00 RMK AO2 T10611083 TSNO
94299KAAT AAT20161206041512612/06/16 04:15:31  5-MIN KAAT 061215Z AUTO 00000KT 10SM FEW048 BKN065 M06/M08 A2988 4410 84 2900 000/00 RMK AO2 T10611083 TSNO
94299KAAT AAT20161206042012612/06/16 04:20:31  5-MIN KAAT 061220Z AUTO 00000KT 10SM SCT046 OVC065 M06/M08 A2988 4420 84 2900 000/00 RMK AO2 T10611083 TSNO
94299KAAT AAT20161206042513312/06/16 04:25:31  5-MIN KAAT 061225Z AUTO 00000KT 10SM BKN044 BKN050 OVC065 M06/M08 A2988 4420 88 2900 000/00 RMK AO2 T10611078 TSNO
94299KAAT AAT20161206043013312/06/16 04:30:31  5-MIN KAAT 061230Z AUTO 00000KT 10SM BKN042 BKN050 OVC065 M06/M08 A2988 4420 88 2900 000/00 RMK AO2 T10611078 TSNO
94299KAAT AAT20161206043513312/06/16 04:35:31  5-MIN KAAT 061235Z AUTO 00000KT 10SM SCT042 BKN049 OVC065 M06/M07 A2988 4420 88 3000 000/00 RMK AO2 T10561072 TSNO
94299KAAT AAT20161206044012612/06/16 04:40:31  5-MIN KAAT 061240Z AUTO 00000KT 10SM SCT042 OVC060 M06/M07 A2988 4420 88 3000 000/00 RMK AO2 T10561072 TSNO
94299KAAT AAT20161206044512612/06/16 04:45:31  5-MIN KAAT 061245Z AUTO 00000KT 10SM SCT042 OVC065 M06/M07 A2987 4420 88 3000 000/00 RMK AO2 T10561072 TSNO
94299KAAT AAT20161206045013312/06/16 04:50:31  5-MIN KAAT 061250Z AUTO 00000KT 10SM FEW042 OVC065 M06/M07 A2988 4420 88 3000 000/00 RMK AO2 SLP141 T10561072 TSNO
94299KAAT AAT20161206045513312/06/16 04:55:31  5-MIN KAAT 061255Z AUTO 00000KT 10SM FEW042 OVC060 M06/M07 A2987 4430 88 3000 000/00 RMK AO2 SLP140 T10561072 TSNO
94299KAAT AAT20161206050013312/06/16 05:00:31  5-MIN KAAT 061300Z AUTO 00000KT 10SM FEW039 BKN055 OVC070 M06/M07 A2988 4420 88 3000 000/00 RMK AO2 T10561072 TSNO
94299KAAT AAT20161206050513312/06/16 05:05:31  5-MIN KAAT 061305Z AUTO 00000KT 10SM FEW039 BKN050 OVC070 M05/M07 A2987 4420 84 3100 000/00 RMK AO2 T10501072 TSNO
94299KAAT AAT20161206051012612/06/16 05:10:31  5-MIN KAAT 061310Z AUTO 00000KT 10SM BKN045 OVC065 M05/M07 A2987 4430 84 3100 000/00 RMK AO2 T10501072 TSNO
94299KAAT AAT20161206051512612/06/16 05:15:31  5-MIN KAAT 061315Z AUTO 00000KT 10SM SCT040 OVC047 M05/M07 A2987 4430 84 3100 000/00 RMK AO2 T10501072 TSNO
94299KAAT AAT20161206052011912/06/16 05:20:31  5-MIN KAAT 061320Z AUTO 00000KT 10SM OVC042 M05/M07 A2987 4430 84 3100 000/00 RMK AO2 T10501072 TSNO
94299KAAT AAT20161206052511912/06/16 05:25:31  5-MIN KAAT 061325Z AUTO 00000KT 10SM OVC042 M05/M07 A2987 4430 84 3100 000/00 RMK AO2 T10501072 TSNO
94299KAAT AAT20161206053011912/06/16 05:30:31  5-MIN KAAT 061330Z AUTO 00000KT 10SM OVC040 M05/M07 A2987 4430 84 3100 000/00 RMK AO2 T10501072 TSNO
94299KAAT AAT20161206053511912/06/16 05:35:31  5-MIN KAAT 061335Z AUTO 00000KT 10SM OVC042 M05/M07 A2987 4430 84 3100 000/00 RMK AO2 T10501072 TSNO
94299KAAT AAT20161206054011912/06/16 05:40:31  5-MIN KAAT 061340Z AUTO 00000KT 10SM OVC042 M05/M07 A2987 4430 84 3100 000/00 RMK AO2 T10501072 TSNO
94299KAAT AAT20161206054511912/06/16 05:45:31  5-MIN KAAT 061345Z AUTO 00000KT 10SM OVC038 M05/M07 A2987 4430 84 3100 000/00 RMK AO2 T10501072 TSNO
94299KAAT AAT20161206055014812/06/16 05:50:31  5-MIN KAAT 061350Z AUTO 00000KT 8SM -SN BKN031 OVC041 M05/M07 A2987 4430 84 3100 000/00 RMK AO2 SNB49 SLP140 P0000 T10501072 TSNO
94299KAAT AAT20161206055514412/06/16 05:55:31  5-MIN KAAT 061355Z AUTO 00000KT 4SM -SN BR OVC029 M05/M07 A2987 4420 84 3100 000/00 RMK AO2 SNB49 SLP143 P0000 T10501072 TSNO
94299KAAT AAT20161206060013512/06/16 06:00:31  5-MIN KAAT 061400Z AUTO 00000KT 2 1/2SM -SN BR OVC029 M05/M07 A2987 4420 88 3100 000/00 RMK AO2 P0000 T10501067 TSNO
94299KAAT AAT20161206060513112/06/16 06:05:31  5-MIN KAAT 061405Z AUTO 01003KT 4SM -SN BR OVC029 M05/M07 A2988 4420 88 3100 360/03 RMK AO2 P0000 T10501067 TSNO
94299KAAT AAT20161206061013512/06/16 06:10:31  5-MIN KAAT 061410Z AUTO 36003KT 7SM -SN BKN029 OVC036 M05/M07 A2988 4420 88 3100 340/03 RMK AO2 P0000 T10501067 TSNO
94299KAAT AAT20161206061513812/06/16 06:15:31  5-MIN KAAT 061415Z AUTO 02003KT 6SM -SN BR BKN029 OVC036 M05/M07 A2988 4420 88 3100 010/03 RMK AO2 P0000 T10501067 TSNO
94299KAAT AAT20161206062013812/06/16 06:20:31  5-MIN KAAT 061420Z AUTO 00000KT 5SM -SN BR BKN035 OVC045 M05/M07 A2988 4420 88 3100 000/00 RMK AO2 P0000 T10501067 TSNO
94299KAAT AAT20161206062513512/06/16 06:25:31  5-MIN KAAT 061425Z AUTO 02004KT 7SM -SN FEW036 OVC043 M04/M07 A2988 4420 84 3200 360/04 RMK AO2 P0000 T10441067 TSNO
94299KAAT AAT20161206063013712/06/16 06:30:31  5-MIN KAAT 061430Z AUTO 02004KT 9SM FEW036 OVC049 M04/M07 A2987 4420 84 3200 010/04 RMK AO2 SNE27 P0000 T10441067 TSNO
94299KAAT AAT20161206063513812/06/16 06:35:31  5-MIN KAAT 061435Z AUTO 04003KT 10SM FEW036 OVC049 M04/M07 A2987 4420 84 3200 030/03 RMK AO2 SNE27 P0000 T10441067 TSNO
94299KAAT AAT20161206064013812/06/16 06:40:31  5-MIN KAAT 061440Z AUTO 06004KT 10SM FEW036 OVC047 M04/M06 A2987 4430 88 3200 040/04 RMK AO2 SNE27 P0000 T10441061 TSNO
94299KAAT AAT20161206164511612/06/16 16:45:31  5-MIN KAAT 070045Z AUTO 27005KT 10SM CLR M02/M07 A2996 4340 72 3300 260/05 RMK AO2 T10221067 TSNO
94299KAAT AAT20161206165012312/06/16 16:50:31  5-MIN KAAT 070050Z AUTO VRB04KT 10SM CLR M02/M07 A2996 4340 72 3300 VRB/04 RMK AO2 SLP175 T10221067 TSNO
94299KAAT AAT20161206165512312/06/16 16:55:31  5-MIN KAAT 070055Z AUTO 28005KT 10SM CLR M02/M07 A2997 4340 72 3300 270/05 RMK AO2 SLP175 T10221067 TSNO
94299KAAT AAT20161206170011612/06/16 17:00:31  5-MIN KAAT 070100Z AUTO 23003KT 10SM CLR M03/M07 A2997 4340 75 3300 220/03 RMK AO2 T10281067 TSNO
94299KAAT AAT20161206170511612/06/16 17:05:31  5-MIN KAAT 070105Z AUTO 26003KT 10SM CLR M03/M07 A2997 4330 75 3300 250/03 RMK AO2 T10281067 TSNO
94299KAAT AAT20161206171011612/06/16 17:10:31  5-MIN KAAT 070110Z AUTO 00000KT 10SM CLR M03/M07 A2997 4330 78 3200 000/00 RMK AO2 T10331067 TSNO
94299KAAT AAT20161206171511612/06/16 17:15:31  5-MIN KAAT 070115Z AUTO 00000KT 10SM CLR M03/M07 A2998 4330 74 3200 000/00 RMK AO2 T10331072 TSNO
94299KAAT AAT20161206172011612/06/16 17:20:31  5-MIN KAAT 070120Z AUTO 00000KT 10SM CLR M04/M07 A2998 4320 78 3100 000/00 RMK AO2 T10391072 TSNO
94299KAAT AAT20161206172511612/06/16 17:25:31  5-MIN KAAT 070125Z AUTO 00000KT 10SM CLR M03/M07 A2998 4330 75 3200 000/00 RMK AO2 T10281067 TSNO
94299KAAT AAT20161206173011612/06/16 17:30:31  5-MIN KAAT 070130Z AUTO 06004KT 10SM CLR M03/M07 A2999 4320 78 3200 040/04 RMK AO2 T10331067 TSNO
94299KAAT AAT20161206173511912/06/16 17:35:31  5-MIN KAAT 070135Z AUTO 08005KT 10SM FEW024 M03/M07 A2999 4320 78 3200 060/05 RMK AO2 T10331067 TSNO
94299KAAT AAT20161206174011912/06/16 17:40:31  5-MIN KAAT 070140Z AUTO 10006KT 10SM SCT024 M03/M07 A2999 4320 78 3200 090/06 RMK AO2 T10331067 TSNO
94299KAAT AAT20161206174511912/06/16 17:45:31  5-MIN KAAT 070145Z AUTO 12006KT 10SM BKN022 M03/M07 A2999 4320 75 3200 100/06 RMK AO2 T10281067 TSNO
94299KAAT AAT20161206175010912/06/16 17:50:31  5-MIN KAAT 070150Z AUTO 13005KT 10SM BKN020 M03/M06 A2999 4310 78 3200 110/05 RMK AO2 TSNO
94299KAAT AAT20161206175513312/06/16 17:55:31  5-MIN KAAT 070155Z AUTO 00000KT 10SM BKN020 BKN034 M02/M06 A2999 4310 75 3300 000/00 RMK AO2 SLP183 T10221061 TSNO
94299KAAT AAT20161206180012612/06/16 18:00:31  5-MIN KAAT 070200Z AUTO 05003KT 10SM BKN020 OVC034 M03/M06 A3000 4310 78 3200 030/03 RMK AO2 T10281061 TSNO
94299KAAT AAT20161206180512612/06/16 18:05:31  5-MIN KAAT 070205Z AUTO 01004KT 10SM BKN021 OVC034 M03/M07 A3000 4310 78 3200 360/04 RMK AO2 T10331067 TSNO
94299KAAT AAT20161206181012612/06/16 18:10:31  5-MIN KAAT 070210Z AUTO 03004KT 10SM BKN021 BKN034 M03/M07 A3000 4310 78 3200 010/04 RMK AO2 T10331067 TSNO
94299KAAT AAT20161206181512612/06/16 18:15:31  5-MIN KAAT 070215Z AUTO 00000KT 10SM SCT021 BKN034 M03/M07 A3000 4310 78 3200 000/00 RMK AO2 T10331067 TSNO
94299KAAT AAT20161206182012612/06/16 18:20:31  5-MIN KAAT 070220Z AUTO 00000KT 10SM FEW020 SCT034 M03/M07 A3000 4310 78 3200 000/00 RMK AO2 T10331067 TSNO
94299KAAT AAT20161206182512612/06/16 18:25:31  5-MIN KAAT 070225Z AUTO 00000KT 10SM FEW020 SCT033 M04/M07 A3001 4300 81 3000 000/00 RMK AO2 T10441072 TSNO
94299KAAT AAT20161206183012612/06/16 18:30:31  5-MIN KAAT 070230Z AUTO 00000KT 10SM FEW020 FEW033 M04/M07 A3001 4300 81 3000 000/00 RMK AO2 T10441072 TSNO
94299KAAT AAT20161206183512612/06/16 18:35:31  5-MIN KAAT 070235Z AUTO 04005KT 10SM FEW020 SCT029 M04/M07 A3001 4290 84 3000 020/05 RMK AO2 T10441067 TSNO
94299KAAT AAT20161206184012612/06/16 18:40:31  5-MIN KAAT 070240Z AUTO 02004KT 10SM SCT018 SCT026 M04/M07 A3002 4290 84 3000 010/04 RMK AO2 T10441067 TSNO
94299KAAT AAT20161206184512612/06/16 18:45:31  5-MIN KAAT 070245Z AUTO 01007KT 10SM BKN018 BKN026 M04/M07 A3002 4290 81 3100 360/07 RMK AO2 T10391067 TSNO
94299KAAT AAT20161206185013912/06/16 18:50:31  5-MIN KAAT 070250Z AUTO 35005KT 10SM BKN018 BKN026 M03/M06 A3002 4290 81 3100 330/05 RMK AO2 SLP195 T10331061 51015 TSNO
94299KAAT AAT20161206185513912/06/16 18:55:31  5-MIN KAAT 070255Z AUTO 36006KT 10SM BKN020 BKN026 M03/M06 A3002 4280 81 3100 350/06 RMK AO2 SLP196 T10331061 51027 TSNO
94299KAAT AAT20161206190013612/06/16 19:00:31  5-MIN KAAT 070300Z AUTO 01010KT 9SM -SN OVC020 M04/M06 A3003 4280 85 3100 350/10 RMK AO2 SNB0258 P0000 T10391061 TSNO
94299KAAT AAT20161206190515312/06/16 19:05:31  5-MIN KAAT 070305Z AUTO 02007KT 4SM -SN BR FEW012 BKN024 OVC028 M04/M06 A3003 4280 85 3100 010/07 RMK AO2 SNB0258 P0000 T10391061 TSNO
94299KAAT AAT20161206191015312/06/16 19:10:31  5-MIN KAAT 070310Z AUTO 03006KT 3SM -SN BR FEW014 BKN022 OVC030 M04/M06 A3003 4280 85 3100 020/06 RMK AO2 SNB0258 P0000 T10391061 TSNO
94299KAAT AAT20161206191515312/06/16 19:15:31  5-MIN KAAT 070315Z AUTO 04005KT 5SM -SN BR FEW012 BKN022 OVC030 M04/M06 A3003 4280 85 3100 030/05 RMK AO2 SNB0258 P0000 T10391061 TSNO
94299KAAT AAT20161206192014212/06/16 19:20:31  5-MIN KAAT 070320Z AUTO 04005KT 9SM SCT023 OVC030 M04/M06 A3003 4280 85 3100 030/05 RMK AO2 SNB0258E18 P0000 T10391061 TSNO
94299KAAT AAT20161206192514312/06/16 19:25:31  5-MIN KAAT 070325Z AUTO 04004KT 10SM FEW023 OVC028 M04/M07 A3003 4280 81 3100 020/04 RMK AO2 SNB0258E18 P0000 T10391067 TSNO
94299KAAT AAT20161206193013612/06/16 19:30:31  5-MIN KAAT 070330Z AUTO 01004KT 10SM OVC028 M04/M07 A3003 4280 81 3100 360/04 RMK AO2 SNB0258E18 P0000 T10391067 TSNO
94299KAAT AAT20161206193513612/06/16 19:35:31  5-MIN KAAT 070335Z AUTO 02005KT 10SM OVC030 M04/M06 A3004 4270 85 3000 360/05 RMK AO2 SNB0258E18 P0000 T10391061 TSNO
94299KAAT AAT20161206194013612/06/16 19:40:31  5-MIN KAAT 070340Z AUTO 01004KT 10SM OVC030 M04/M07 A3004 4270 78 3000 360/04 RMK AO2 SNB0258E18 P0000 T10391072 TSNO
94299KAAT AAT20161206194514312/06/16 19:45:31  5-MIN KAAT 070345Z AUTO 02006KT 10SM BKN030 OVC060 M04/M07 A3004 4270 78 3000 010/06 RMK AO2 SNB0258E18 P0000 T10391072 TSNO
94299KAAT AAT20161206195015012/06/16 19:50:31  5-MIN KAAT 070350Z AUTO 03005KT 10SM BKN030 OVC060 M04/M08 A3004 4270 74 3000 010/05 RMK AO2 SNB0258E18 SLP202 P0000 T10391078 TSNO
94299KAAT AAT20161206195515012/06/16 19:55:31  5-MIN KAAT 070355Z AUTO 03005KT 10SM SCT030 OVC065 M04/M08 A3005 4270 74 3000 010/05 RMK AO2 SNB0258E18 SLP203 P0000 T10391078 TSNO
94299KAAT AAT20161206200012612/06/16 20:00:31  5-MIN KAAT 070400Z AUTO 04005KT 10SM SCT032 OVC065 M04/M08 A3005 4260 74 3000 020/05 RMK AO2 T10391078 TSNO
94299KAAT AAT20161206200512612/06/16 20:05:31  5-MIN KAAT 070405Z AUTO VRB06KT 10SM BKN034 OVC065 M04/M08 A3005 4260 71 3000 VRB/06 RMK AO2 T10391083 TSNO
94299KAAT AAT20161206201012612/06/16 20:10:31  5-MIN KAAT 070410Z AUTO 36006KT 10SM BKN034 OVC065 M04/M08 A3005 4260 71 3000 350/06 RMK AO2 T10391083 TSNO
94299KAAT AAT20161206201513312/06/16 20:15:31  5-MIN KAAT 070415Z AUTO 36007KT 10SM BKN036 BKN043 OVC070 M04/M08 A3005 4260 74 3000 340/07 RMK AO2 T10441083 TSNO
94299KAAT AAT20161206202013312/06/16 20:20:31  5-MIN KAAT 070420Z AUTO 35007KT 10SM SCT034 BKN045 OVC070 M04/M08 A3005 4260 74 3000 340/07 RMK AO2 T10441083 TSNO
94299KAAT AAT20161206202512612/06/16 20:25:31  5-MIN KAAT 070425Z AUTO 36010KT 10SM SCT034 BKN045 M04/M08 A3005 4260 74 3000 350/10 RMK AO2 T10441083 TSNO
94299KAAT AAT20161206203012612/06/16 20:30:31  5-MIN KAAT 070430Z AUTO 36008KT 10SM SCT036 BKN047 M05/M08 A3005 4260 77 2900 350/08 RMK AO2 T10501083 TSNO
94299KAAT AAT20161206203512612/06/16 20:35:31  5-MIN KAAT 070435Z AUTO 01009KT 10SM FEW036 BKN047 M05/M08 A3005 4260 77 2900 350/09 RMK AO2 T10501083 TSNO
94299KAAT AAT20161206204011912/06/16 20:40:31  5-MIN KAAT 070440Z AUTO 01007KT 10SM SCT044 M05/M09 A3005 4260 74 2900 350/07 RMK AO2 T10501089 TSNO
94299KAAT AAT20161206204512612/06/16 20:45:31  5-MIN KAAT 070445Z AUTO 01007KT 10SM FEW023 SCT046 M06/M09 A3006 4260 77 2800 360/07 RMK AO2 T10561089 TSNO
94299KAAT AAT20161206205014012/06/16 20:50:31  5-MIN KAAT 070450Z AUTO VRB05KT 10SM FEW023 FEW035 SCT046 M06/M09 A3006 4250 77 2800 VRB/05 RMK AO2 SLP210 T10561089 TSNO
94299KAAT AAT20161206205514012/06/16 20:55:31  5-MIN KAAT 070455Z AUTO 08004KT 10SM SCT025 SCT035 BKN046 M06/M09 A3006 4250 77 2800 060/04 RMK AO2 SLP212 T10561089 TSNO
94299KAAT AAT20161206210011912/06/16 21:00:31  5-MIN KAAT 070500Z AUTO 00000KT 10SM BKN025 M06/M08 A3007 4250 81 2800 000/00 RMK AO2 T10561083 TSNO
94299KAAT AAT20161206210511912/06/16 21:05:31  5-MIN KAAT 070505Z AUTO 05004KT 10SM BKN024 M06/M09 A3007 4240 77 2800 030/04 RMK AO2 T10561089 TSNO
94299KAAT AAT20161206211011912/06/16 21:10:31  5-MIN KAAT 070510Z AUTO VRB04KT 10SM SCT024 M06/M09 A3007 4240 77 2800 VRB/04 RMK AO2 T10561089 TSNO
94299KAAT AAT20161206211511912/06/16 21:15:31  5-MIN KAAT 070515Z AUTO VRB04KT 10SM SCT024 M06/M09 A3008 4240 81 2700 VRB/04 RMK AO2 T10611089 TSNO
94299KAAT AAT20161206212012612/06/16 21:20:31  5-MIN KAAT 070520Z AUTO VRB03KT 10SM BKN026 BKN031 M06/M09 A3008 4230 81 2700 VRB/03 RMK AO2 T10611089 TSNO
94299KAAT AAT20161206212513312/06/16 21:25:31  5-MIN KAAT 070525Z AUTO VRB04KT 10SM SCT026 BKN031 BKN039 M06/M09 A3008 4230 81 2700 VRB/04 RMK AO2 T10611089 TSNO
94299KAAT AAT20161206213013312/06/16 21:30:31  5-MIN KAAT 070530Z AUTO 05004KT 10SM FEW026 SCT031 BKN075 M06/M09 A3008 4230 77 2700 040/04 RMK AO2 T10611094 TSNO
94299KAAT AAT20161206213513312/06/16 21:35:31  5-MIN KAAT 070535Z AUTO 05005KT 10SM FEW026 SCT031 BKN075 M07/M09 A3008 4230 81 2600 030/05 RMK AO2 T10671094 TSNO
94299KAAT AAT20161206214013312/06/16 21:40:31  5-MIN KAAT 070540Z AUTO VRB03KT 10SM FEW026 SCT031 BKN075 M07/M09 A3009 4230 81 2600 VRB/03 RMK AO2 T10671094 TSNO
94299KAAT AAT20161206214512612/06/16 21:45:31  5-MIN KAAT 070545Z AUTO 00000KT 10SM FEW029 BKN075 M07/M09 A3009 4230 81 2600 000/00 RMK AO2 T10671094 TSNO
94299KAAT AAT20161206215015712/06/16 21:50:31  5-MIN KAAT 070550Z AUTO VRB03KT 10SM FEW031 SCT075 M07/M09 A3009 4220 81 2600 VRB/03 RMK AO2 SLP221 60000 T10671094 11022 21067 51027 TSNO
94299KAAT AAT20161206215515012/06/16 21:55:31  5-MIN KAAT 070555Z AUTO 11003KT 10SM FEW075 M07/M09 A3010 4220 81 2600 100/03 RMK AO2 SLP223 60000 T10671094 11022 21067 53021 TSNO
94299KAAT AAT20161206220011912/06/16 22:00:31  5-MIN KAAT 070600Z AUTO 09003KT 10SM FEW075 M07/M09 A3010 4220 81 2600 070/03 RMK AO2 T10671094 TSNO
94299KAAT AAT20161206220511612/06/16 22:05:31  5-MIN KAAT 070605Z AUTO 05003KT 10SM CLR M07/M09 A3010 4220 81 2600 040/03 RMK AO2 T10671094 TSNO
94299KAAT AAT20161206221011612/06/16 22:10:31  5-MIN KAAT 070610Z AUTO 04004KT 10SM CLR M07/M09 A3010 4220 84 2600 030/04 RMK AO2 T10721094 TSNO
94299KAAT AAT20161206221511612/06/16 22:15:31  5-MIN KAAT 070615Z AUTO 04005KT 10SM CLR M07/M09 A3010 4220 84 2600 030/05 RMK AO2 T10721094 TSNO
94299KAAT AAT20161206222011612/06/16 22:20:31  5-MIN KAAT 070620Z AUTO 04005KT 10SM CLR M07/M09 A3010 4210 84 2600 030/05 RMK AO2 T10721094 TSNO
94299KAAT AAT20161206222511912/06/16 22:25:31  5-MIN KAAT 070625Z AUTO 07003KT 10SM FEW037 M07/M09 A3010 4210 84 2600 050/03 RMK AO2 T10721094 TSNO
94299KAAT AAT20161206223011912/06/16 22:30:31  5-MIN KAAT 070630Z AUTO 07003KT 10SM FEW037 M07/M10 A3011 4210 81 2500 050/03 RMK AO2 T10721100 TSNO
94299KAAT AAT20161206223511912/06/16 22:35:31  5-MIN KAAT 070635Z AUTO 00000KT 10SM SCT037 M08/M10 A3011 4210 84 2500 000/00 RMK AO2 T10781100 TSNO
94299KAAT AAT20161206224011812/06/16 22:40:31  5-MIN KAAT 070640Z AUTO 05003KT 9SM SCT038 M08/M10 A3011 4210 84 2500 030/03 RMK AO2 T10781100 TSNO
94299KAAT AAT20161206224511812/06/16 22:45:31  5-MIN KAAT 070645Z AUTO 03004KT 8SM FEW038 M08/M10 A3011 4210 88 2400 010/04 RMK AO2 T10831100 TSNO
94299KAAT AAT20161206225012612/06/16 22:50:31  5-MIN KAAT 070650Z AUTO 02005KT 10SM FEW038 M08/M10 A3011 4210 84 2500 010/05 RMK AO2 SLP228 T10781100 TSNO
94299KAAT AAT20161206225512612/06/16 22:55:31  5-MIN KAAT 070655Z AUTO 02006KT 10SM FEW038 M08/M10 A3011 4200 84 2500 360/06 RMK AO2 SLP228 T10781100 TSNO
94299KAAT AAT20161206230011912/06/16 23:00:31  5-MIN KAAT 070700Z AUTO 02006KT 10SM FEW038 M08/M10 A3011 4200 84 2500 360/06 RMK AO2 T10781100 TSNO
94299KAAT AAT20161206230511612/06/16 23:05:31  5-MIN KAAT 070705Z AUTO 03003KT 10SM CLR M08/M10 A3011 4200 84 2500 020/03 RMK AO2 T10781100 TSNO
94299KAAT AAT20161206231011612/06/16 23:10:31  5-MIN KAAT 070710Z AUTO 17005KT 10SM CLR M09/M11 A3012 4200 88 2300 150/05 RMK AO2 T10891106 TSNO
94299KAAT AAT20161206231511612/06/16 23:15:31  5-MIN KAAT 070715Z AUTO 14004KT 10SM CLR M10/M11 A3012 4200 92 2200 120/04 RMK AO2 T11001111 TSNO
94299KAAT AAT20161206232011612/06/16 23:20:31  5-MIN KAAT 070720Z AUTO VRB03KT 10SM CLR M09/M11 A3012 4200 88 2300 VRB/03 RMK AO2 T10941111 TSNO
94299KAAT AAT20161206232511612/06/16 23:25:31  5-MIN KAAT 070725Z AUTO 16007KT 10SM CLR M09/M11 A3013 4190 88 2200 140/07 RMK AO2 T10941111 TSNO
94299KAAT AAT20161206233011612/06/16 23:30:31  5-MIN KAAT 070730Z AUTO 14005KT 10SM CLR M09/M11 A3013 4190 88 2200 120/05 RMK AO2 T10941111 TSNO
94299KAAT AAT20161206233511612/06/16 23:35:31  5-MIN KAAT 070735Z AUTO 12005KT 10SM CLR M10/M11 A3013 4190 92 2200 110/05 RMK AO2 T11001111 TSNO
94299KAAT AAT20161206234011612/06/16 23:40:31  5-MIN KAAT 070740Z AUTO 11004KT 10SM CLR M10/M11 A3013 4190 92 2200 100/04 RMK AO2 T11001111 TSNO
94299KAAT AAT20161206234511512/06/16 23:45:31  5-MIN KAAT 070745Z AUTO 09004KT 8SM CLR M10/M12 A3013 4190 88 2200 070/04 RMK AO2 T11001117 TSNO
94299KAAT AAT20161206235013212/06/16 23:50:31  5-MIN KAAT 070750Z AUTO 06003KT 8SM CLR M10/M12 A3013 4190 88 2200 040/03 RMK AO2 SLP235 T11001117 400111100 TSNO
94299KAAT AAT20161206235513312/06/16 23:55:31  5-MIN KAAT 070755Z AUTO 05003KT 10SM CLR M10/M11 A3013 4190 92 2200 030/03 RMK AO2 SLP237 T11001111 400111100 TSNO
94299KAAT AAT20161207000011512/07/16 00:00:31  5-MIN KAAT 070800Z AUTO 06004KT 9SM CLR M11/M12 A3013 4180 92 2100 040/04 RMK AO2 T11061117 TSNO
94299KAAT AAT20161207000511512/07/16 00:05:31  5-MIN KAAT 070805Z AUTO 04004KT 8SM CLR M11/M12 A3013 4180 88 2100 020/04 RMK AO2 T11061122 TSNO
94299KAAT AAT20161207001011512/07/16 00:10:31  5-MIN KAAT 070810Z AUTO 00000KT 7SM CLR M11/M12 A3013 4180 92 2000 000/00 RMK AO2 T11111122 TSNO
94299KAAT AAT20161207001511512/07/16 00:15:31  5-MIN KAAT 070815Z AUTO 00000KT 7SM CLR M11/M12 A3014 4180 92 2000 000/00 RMK AO2 T11111122 TSNO
94299KAAT AAT20161207002011512/07/16 00:20:31  5-MIN KAAT 070820Z AUTO 00000KT 9SM CLR M11/M12 A3014 4180 92 2000 000/00 RMK AO2 T11111122 TSNO
94299KAAT AAT20161207002511512/07/16 00:25:31  5-MIN KAAT 070825Z AUTO 05003KT 9SM CLR M11/M12 A3014 4180 92 2000 040/03 RMK AO2 T11111122 TSNO
94299KAAT AAT20161207003011512/07/16 00:30:31  5-MIN KAAT 070830Z AUTO 00000KT 9SM CLR M11/M12 A3014 4180 88 2100 000/00 RMK AO2 T11061122 TSNO
94299KAAT AAT20161207003511512/07/16 00:35:31  5-MIN KAAT 070835Z AUTO 00000KT 7SM CLR M11/M12 A3014 4180 88 2100 000/00 RMK AO2 T11061122 TSNO
94299KAAT AAT20161207004011812/07/16 00:40:31  5-MIN KAAT 070840Z AUTO 00000KT 6SM BR CLR M12/M13 A3014 4180 91 1900 000/00 RMK AO2 T11221133 TSNO
94299KAAT AAT20161207004511512/07/16 00:45:31  5-MIN KAAT 070845Z AUTO 00000KT 8SM CLR M12/M14 A3014 4180 87 1900 000/00 RMK AO2 T11221139 TSNO
94299KAAT AAT20161207005012812/07/16 00:50:31  5-MIN KAAT 070850Z AUTO 00000KT 9SM CLR M12/M14 A3014 4180 87 1900 000/00 RMK AO2 SLP245 T11221139 53021 TSNO
94299KAAT AAT20161207005512812/07/16 00:55:31  5-MIN KAAT 070855Z AUTO 01004KT 7SM CLR M12/M13 A3014 4180 91 1900 360/04 RMK AO2 SLP245 T11221133 51014 TSNO
94299KAAT AAT20161207010011512/07/16 01:00:31  5-MIN KAAT 070900Z AUTO 01004KT 8SM CLR M12/M13 A3014 4180 91 1900 360/04 RMK AO2 T11221133 TSNO
94299KAAT AAT20161207010511512/07/16 01:05:31  5-MIN KAAT 070905Z AUTO 01003KT 9SM CLR M12/M14 A3014 4180 87 1900 360/03 RMK AO2 T11221139 TSNO
94299KAAT AAT20161207011011512/07/16 01:10:31  5-MIN KAAT 070910Z AUTO 00000KT 8SM CLR M12/M13 A3015 4170 91 1900 000/00 RMK AO2 T11221133 TSNO
94299KAAT AAT20161207011511512/07/16 01:15:31  5-MIN KAAT 070915Z AUTO 08003KT 7SM CLR M12/M13 A3015 4170 91 1900 070/03 RMK AO2 T11171128 TSNO
94299KAAT AAT20161207012011512/07/16 01:20:31  5-MIN KAAT 070920Z AUTO 08003KT 8SM CLR M12/M13 A3015 4170 91 1900 060/03 RMK AO2 T11171128 TSNO
94299KAAT AAT20161207012511512/07/16 01:25:31  5-MIN KAAT 070925Z AUTO 09003KT 9SM CLR M12/M13 A3015 4170 91 1900 070/03 RMK AO2 T11171128 TSNO
94299KAAT AAT20161207013011512/07/16 01:30:31  5-MIN KAAT 070930Z AUTO 10003KT 9SM CLR M12/M13 A3015 4170 87 1900 090/03 RMK AO2 T11171133 TSNO
94299KAAT AAT20161207013511512/07/16 01:35:31  5-MIN KAAT 070935Z AUTO 08003KT 8SM CLR M12/M14 A3015 4170 84 1900 070/03 RMK AO2 T11171139 TSNO
94299KAAT AAT20161207014011512/07/16 01:40:31  5-MIN KAAT 070940Z AUTO 07003KT 8SM CLR M12/M14 A3015 4170 84 1900 060/03 RMK AO2 T11171139 TSNO
94299KAAT AAT20161207014511512/07/16 01:45:31  5-MIN KAAT 070945Z AUTO 00000KT 9SM CLR M12/M13 A3016 4160 87 1900 000/00 RMK AO2 T11171133 TSNO
94299KAAT AAT20161207015012212/07/16 01:50:31  5-MIN KAAT 070950Z AUTO 00000KT 9SM CLR M13/M14 A3016 4160 91 1700 000/00 RMK AO2 SLP254 T11331144 TSNO
94299KAAT AAT20161207015512212/07/16 01:55:31  5-MIN KAAT 070955Z AUTO 00000KT 9SM CLR M13/M14 A3016 4160 87 1800 000/00 RMK AO2 SLP252 T11281144 TSNO
94299KAAT AAT20161207020011612/07/16 02:00:31  5-MIN KAAT 071000Z AUTO 00000KT 10SM CLR M13/M15 A3016 4160 84 1800 000/00 RMK AO2 T11281150 TSNO
94299KAAT AAT20161207020511512/07/16 02:05:31  5-MIN KAAT 071005Z AUTO 00000KT 9SM CLR M12/M14 A3016 4160 87 1800 000/00 RMK AO2 T11221139 TSNO
94299KAAT AAT20161207021011512/07/16 02:10:31  5-MIN KAAT 071010Z AUTO 00000KT 8SM CLR M13/M14 A3016 4160 87 1800 000/00 RMK AO2 T11281144 TSNO
94299KAAT AAT20161207021511512/07/16 02:15:31  5-MIN KAAT 071015Z AUTO 08003KT 8SM CLR M13/M15 A3016 4160 87 1700 070/03 RMK AO2 T11331150 TSNO
94299KAAT AAT20161207022011512/07/16 02:20:31  5-MIN KAAT 071020Z AUTO 16004KT 9SM CLR M13/M16 A3016 4160 83 1700 140/04 RMK AO2 T11331156 TSNO
94299KAAT AAT20161207022511512/07/16 02:25:31  5-MIN KAAT 071025Z AUTO 00000KT 9SM CLR M13/M16 A3016 4160 83 1700 000/00 RMK AO2 T11331156 TSNO
94299KAAT AAT20161207023011612/07/16 02:30:31  5-MIN KAAT 071030Z AUTO 00000KT 10SM CLR M13/M14 A3016 4160 87 1800 000/00 RMK AO2 T11281144 TSNO
94299KAAT AAT20161207023511612/07/16 02:35:31  5-MIN KAAT 071035Z AUTO 00000KT 10SM CLR M13/M14 A3016 4160 91 1700 000/00 RMK AO2 T11331144 TSNO
94299KAAT AAT20161207024011512/07/16 02:40:31  5-MIN KAAT 071040Z AUTO 04003KT 9SM CLR M13/M15 A3016 4160 87 1700 030/03 RMK AO2 T11331150 TSNO
94299KAAT AAT20161207024511512/07/16 02:45:31  5-MIN KAAT 071045Z AUTO 00000KT 9SM CLR M14/M16 A3016 4160 87 1600 000/00 RMK AO2 T11391156 TSNO
94299KAAT AAT20161207025012312/07/16 02:50:31  5-MIN KAAT 071050Z AUTO 00000KT 10SM CLR M13/M15 A3016 4160 84 1800 000/00 RMK AO2 SLP254 T11281150 TSNO
94299KAAT AAT20161207025512312/07/16 02:55:31  5-MIN KAAT 071055Z AUTO 00000KT 10SM CLR M13/M14 A3016 4160 87 1800 000/00 RMK AO2 SLP253 T11281144 TSNO
94299KAAT AAT20161207030011612/07/16 03:00:31  5-MIN KAAT 071100Z AUTO 00000KT 10SM CLR M13/M14 A3016 4160 91 1700 000/00 RMK AO2 T11331144 TSNO
94299KAAT AAT20161207030511612/07/16 03:05:31  5-MIN KAAT 071105Z AUTO 00000KT 10SM CLR M13/M15 A3016 4160 87 1700 000/00 RMK AO2 T11331150 TSNO
94299KAAT AAT20161207031011612/07/16 03:10:31  5-MIN KAAT 071110Z AUTO 00000KT 10SM CLR M14/M16 A3016 4160 91 1600 000/00 RMK AO2 T11441156 TSNO
94299KAAT AAT20161207031511612/07/16 03:15:31  5-MIN KAAT 071115Z AUTO 00000KT 10SM CLR M14/M16 A3016 4160 87 1600 000/00 RMK AO2 T11441161 TSNO
94299KAAT AAT20161207032011612/07/16 03:20:31  5-MIN KAAT 071120Z AUTO 00000KT 10SM CLR M14/M16 A3016 4160 87 1600 000/00 RMK AO2 T11391156 TSNO
94299KAAT AAT20161207032511612/07/16 03:25:31  5-MIN KAAT 071125Z AUTO 14004KT 10SM CLR M14/M16 A3016 4160 87 1600 130/04 RMK AO2 T11391156 TSNO
94299KAAT AAT20161207033011612/07/16 03:30:31  5-MIN KAAT 071130Z AUTO 12005KT 10SM CLR M14/M16 A3016 4160 87 1600 110/05 RMK AO2 T11441161 TSNO
94299KAAT AAT20161207033511612/07/16 03:35:31  5-MIN KAAT 071135Z AUTO 10003KT 10SM CLR M14/M16 A3016 4160 87 1600 080/03 RMK AO2 T11441161 TSNO
94299KAAT AAT20161207034011512/07/16 03:40:31  5-MIN KAAT 071140Z AUTO 00000KT 9SM CLR M14/M16 A3016 4160 91 1600 000/00 RMK AO2 T11441156 TSNO
94299KAAT AAT20161207034511512/07/16 03:45:31  5-MIN KAAT 071145Z AUTO 00000KT 9SM CLR M15/M16 A3016 4160 91 1500 000/00 RMK AO2 T11501161 TSNO
94299KAAT AAT20161207035014712/07/16 03:50:31  5-MIN KAAT 071150Z AUTO 03003KT 10SM CLR M14/M17 A3016 4160 83 1600 010/03 RMK AO2 SLP255 70002 T11441167 11067 21150 51014 TSNO
94299KAAT AAT20161207035514712/07/16 03:55:31  5-MIN KAAT 071155Z AUTO 00000KT 10SM CLR M14/M17 A3016 4160 83 1600 000/00 RMK AO2 SLP254 70002 T11441167 11067 21150 50005 TSNO
94299KAAT AAT20161207040011612/07/16 04:00:31  5-MIN KAAT 071200Z AUTO 06003KT 10SM CLR M15/M16 A3016 4160 91 1500 050/03 RMK AO2 T11501161 TSNO
94299KAAT AAT20161207040511612/07/16 04:05:31  5-MIN KAAT 071205Z AUTO 00000KT 10SM CLR M14/M16 A3016 4160 87 1600 000/00 RMK AO2 T11441161 TSNO
94299KAAT AAT20161207041011612/07/16 04:10:31  5-MIN KAAT 071210Z AUTO 00000KT 10SM CLR M16/M17 A3016 4160 91 1400 000/00 RMK AO2 T11561167 TSNO
94299KAAT AAT20161207041511612/07/16 04:15:31  5-MIN KAAT 071215Z AUTO 00000KT 10SM CLR M16/M17 A3015 4170 87 1400 000/00 RMK AO2 T11561172 TSNO
94299KAAT AAT20161207042011612/07/16 04:20:31  5-MIN KAAT 071220Z AUTO 00000KT 10SM CLR M16/M17 A3016 4160 87 1400 000/00 RMK AO2 T11561172 TSNO
94299KAAT AAT20161207042511612/07/16 04:25:31  5-MIN KAAT 071225Z AUTO 00000KT 10SM CLR M16/M17 A3016 4160 87 1400 000/00 RMK AO2 T11561172 TSNO
94299KAAT AAT20161207043011612/07/16 04:30:31  5-MIN KAAT 071230Z AUTO 00000KT 10SM CLR M15/M17 A3016 4160 87 1500 000/00 RMK AO2 T11501167 TSNO
94299KAAT AAT20161207043511612/07/16 04:35:31  5-MIN KAAT 071235Z AUTO 00000KT 10SM CLR M16/M17 A3016 4160 87 1400 000/00 RMK AO2 T11561172 TSNO
94299KAAT AAT20161207044011612/07/16 04:40:31  5-MIN KAAT 071240Z AUTO 00000KT 10SM CLR M15/M17 A3016 4160 87 1500 000/00 RMK AO2 T11501167 TSNO
94299KAAT AAT20161207044511612/07/16 04:45:31  5-MIN KAAT 071245Z AUTO 00000KT 10SM CLR M15/M17 A3016 4160 83 1500 000/00 RMK AO2 T11501172 TSNO
94299KAAT AAT20161207045012312/07/16 04:50:31  5-MIN KAAT 071250Z AUTO 00000KT 10SM CLR M14/M17 A3016 4160 83 1600 000/00 RMK AO2 SLP261 T11441167 TSNO
94299KAAT AAT20161207045512312/07/16 04:55:31  5-MIN KAAT 071255Z AUTO 05004KT 10SM CLR M14/M17 A3016 4160 83 1600 040/04 RMK AO2 SLP260 T11441167 TSNO
94299KAAT AAT20161207050011612/07/16 05:00:31  5-MIN KAAT 071300Z AUTO 06005KT 10SM CLR M15/M17 A3016 4160 87 1500 050/05 RMK AO2 T11501167 TSNO
94299KAAT AAT20161207050511612/07/16 05:05:31  5-MIN KAAT 071305Z AUTO 07007KT 10SM CLR M14/M16 A3016 4160 83 1600 060/07 RMK AO2 T11391161 TSNO
94299KAAT AAT20161207051011612/07/16 05:10:31  5-MIN KAAT 071310Z AUTO 08007KT 10SM CLR M13/M16 A3016 4160 83 1700 060/07 RMK AO2 T11331156 TSNO
94299KAAT AAT20161207051511612/07/16 05:15:31  5-MIN KAAT 071315Z AUTO 07005KT 10SM CLR M13/M15 A3017 4160 87 1700 050/05 RMK AO2 T11331150 TSNO
94299KAAT AAT20161207052011612/07/16 05:20:31  5-MIN KAAT 071320Z AUTO 08004KT 10SM CLR M14/M16 A3017 4150 87 1600 070/04 RMK AO2 T11391156 TSNO
94299KAAT AAT20161207052511612/07/16 05:25:31  5-MIN KAAT 071325Z AUTO 00000KT 10SM CLR M14/M16 A3017 4150 91 1600 000/00 RMK AO2 T11441156 TSNO
94299KAAT AAT20161207053011612/07/16 05:30:31  5-MIN KAAT 071330Z AUTO 00000KT 10SM CLR M15/M16 A3017 4150 91 1500 000/00 RMK AO2 T11501161 TSNO
94299KAAT AAT20161207053511612/07/16 05:35:31  5-MIN KAAT 071335Z AUTO 00000KT 10SM CLR M15/M17 A3017 4150 83 1500 000/00 RMK AO2 T11501172 TSNO
94299KAAT AAT20161207054011612/07/16 05:40:31  5-MIN KAAT 071340Z AUTO 00000KT 10SM CLR M16/M18 A3017 4150 83 1400 000/00 RMK AO2 T11561178 TSNO
94299KAAT AAT20161207054511612/07/16 05:45:31  5-MIN KAAT 071345Z AUTO 00000KT 10SM CLR M16/M18 A3017 4150 87 1300 000/00 RMK AO2 T11611178 TSNO
94299KAAT AAT20161207055012312/07/16 05:50:31  5-MIN KAAT 071350Z AUTO 00000KT 10SM CLR M16/M18 A3018 4150 83 1400 000/00 RMK AO2 SLP268 T11561178 TSNO
94299KAAT AAT20161207055512312/07/16 05:55:31  5-MIN KAAT 071355Z AUTO 00000KT 10SM CLR M15/M17 A3018 4140 83 1500 000/00 RMK AO2 SLP267 T11501172 TSNO
94299KAAT AAT20161207060011612/07/16 06:00:31  5-MIN KAAT 071400Z AUTO 00000KT 10SM CLR M16/M17 A3018 4140 87 1400 000/00 RMK AO2 T11561172 TSNO
94299KAAT AAT20161207060511612/07/16 06:05:31  5-MIN KAAT 071405Z AUTO 00000KT 10SM CLR M16/M17 A3018 4140 87 1400 000/00 RMK AO2 T11561172 TSNO
94299KAAT AAT20161207061011612/07/16 06:10:31  5-MIN KAAT 071410Z AUTO 00000KT 10SM CLR M16/M18 A3018 4140 87 1300 000/00 RMK AO2 T11611178 TSNO
94299KAAT AAT20161207061511612/07/16 06:15:31  5-MIN KAAT 071415Z AUTO 05003KT 10SM CLR M16/M18 A3018 4140 87 1300 030/03 RMK AO2 T11611178 TSNO
94299KAAT AAT20161207062011612/07/16 06:20:31  5-MIN KAAT 071420Z AUTO 05003KT 10SM CLR M16/M18 A3018 4140 87 1300 040/03 RMK AO2 T11611178 TSNO
94299KAAT AAT20161207062511612/07/16 06:25:31  5-MIN KAAT 071425Z AUTO 06006KT 10SM CLR M16/M18 A3018 4140 83 1300 050/06 RMK AO2 T11611183 TSNO
94299KAAT AAT20161207063011612/07/16 06:30:31  5-MIN KAAT 071430Z AUTO 07003KT 10SM CLR M16/M18 A3018 4140 83 1400 050/03 RMK AO2 T11561178 TSNO
94299KAAT AAT20161207063511612/07/16 06:35:31  5-MIN KAAT 071435Z AUTO 08003KT 10SM CLR M16/M17 A3018 4140 87 1400 060/03 RMK AO2 T11561172 TSNO
94299KAAT AAT20161207064011612/07/16 06:40:31  5-MIN KAAT 071440Z AUTO 07004KT 10SM CLR M16/M18 A3018 4140 87 1300 050/04 RMK AO2 T11611178 TSNO
94299KAAT AAT20161207064511612/07/16 06:45:31  5-MIN KAAT 071445Z AUTO 07003KT 10SM CLR M16/M18 A3018 4140 87 1300 060/03 RMK AO2 T11611178 TSNO
94299KAAT AAT20161207065012912/07/16 06:50:31  5-MIN KAAT 071450Z AUTO 00000KT 10SM CLR M16/M18 A3018 4140 83 1300 000/00 RMK AO2 SLP272 T11611183 50005 TSNO
94299KAAT AAT20161207065512912/07/16 06:55:31  5-MIN KAAT 071455Z AUTO 00000KT 10SM CLR M17/M18 A3018 4140 87 1200 000/00 RMK AO2 SLP274 T11671183 51008 TSNO
94299KAAT AAT20161207070011612/07/16 07:00:31  5-MIN KAAT 071500Z AUTO 00000KT 10SM CLR M17/M19 A3018 4140 83 1200 000/00 RMK AO2 T11671189 TSNO
94299KAAT AAT20161207070511612/07/16 07:05:31  5-MIN KAAT 071505Z AUTO 05004KT 10SM CLR M17/M19 A3018 4140 83 1200 040/04 RMK AO2 T11671189 TSNO
94299KAAT AAT20161207071011612/07/16 07:10:31  5-MIN KAAT 071510Z AUTO 00000KT 10SM CLR M17/M19 A3018 4140 83 1200 000/00 RMK AO2 T11671189 TSNO
94299KAAT AAT20161207071511512/07/16 07:15:31  5-MIN KAAT 071515Z AUTO 00000KT 9SM CLR M17/M18 A3019 4140 87 1200 000/00 RMK AO2 T11671183 TSNO
94299KAAT AAT20161207072011512/07/16 07:20:31  5-MIN KAAT 071520Z AUTO 00000KT 7SM CLR M17/M18 A3019 4140 87 1200 000/00 RMK AO2 T11671183 TSNO
94299KAAT AAT20161207072511512/07/16 07:25:31  5-MIN KAAT 071525Z AUTO 00000KT 7SM CLR M17/M18 A3019 4140 87 1200 000/00 RMK AO2 T11671183 TSNO
94299KAAT AAT20161207073011512/07/16 07:30:31  5-MIN KAAT 071530Z AUTO 00000KT 9SM CLR M17/M19 A3019 4130 87 1200 000/00 RMK AO2 T11721189 TSNO
94299KAAT AAT20161207073511612/07/16 07:35:31  5-MIN KAAT 071535Z AUTO 00000KT 10SM CLR M17/M19 A3019 4140 83 1200 000/00 RMK AO2 T11671189 TSNO
94299KAAT AAT20161207074011612/07/16 07:40:31  5-MIN KAAT 071540Z AUTO 00000KT 10SM CLR M17/M19 A3018 4140 83 1200 000/00 RMK AO2 T11671189 TSNO
94299KAAT AAT20161207074511612/07/16 07:45:31  5-MIN KAAT 071545Z AUTO 00000KT 10SM CLR M16/M18 A3018 4140 83 1300 000/00 RMK AO2 T11611183 TSNO
94299KAAT AAT20161207075012212/07/16 07:50:31  5-MIN KAAT 071550Z AUTO 00000KT 9SM CLR M16/M17 A3018 4140 87 1400 000/00 RMK AO2 SLP272 T11561172 TSNO
94299KAAT AAT20161207075512212/07/16 07:55:31  5-MIN KAAT 071555Z AUTO 00000KT 8SM CLR M15/M17 A3018 4140 83 1500 000/00 RMK AO2 SLP272 T11501172 TSNO
94299KAAT AAT20161207080011512/07/16 08:00:31  5-MIN KAAT 071600Z AUTO 00000KT 8SM CLR M15/M17 A3019 4140 83 1500 000/00 RMK AO2 T11501172 TSNO
94299KAAT AAT20161207080511612/07/16 08:05:31  5-MIN KAAT 071605Z AUTO 00000KT 10SM CLR M14/M17 A3018 4140 83 1500 000/00 RMK AO2 T11441167 TSNO
94299KAAT AAT20161207081011612/07/16 08:10:31  5-MIN KAAT 071610Z AUTO 00000KT 10SM CLR M14/M17 A3018 4140 83 1500 000/00 RMK AO2 T11441167 TSNO
94299KAAT AAT20161207081511612/07/16 08:15:31  5-MIN KAAT 071615Z AUTO 00000KT 10SM CLR M14/M16 A3018 4140 83 1600 000/00 RMK AO2 T11391161 TSNO
94299KAAT AAT20161207082011612/07/16 08:20:31  5-MIN KAAT 071620Z AUTO 00000KT 10SM CLR M14/M16 A3019 4140 83 1600 000/00 RMK AO2 T11391161 TSNO
94299KAAT AAT20161207082511612/07/16 08:25:31  5-MIN KAAT 071625Z AUTO 00000KT 10SM CLR M13/M16 A3019 4140 83 1700 000/00 RMK AO2 T11331156 TSNO
94299KAAT AAT20161207083011612/07/16 08:30:31  5-MIN KAAT 071630Z AUTO 00000KT 10SM CLR M13/M16 A3019 4140 83 1700 000/00 RMK AO2 T11331156 TSNO
94299KAAT AAT20161207083511612/07/16 08:35:31  5-MIN KAAT 071635Z AUTO 00000KT 10SM CLR M13/M15 A3019 4140 84 1700 000/00 RMK AO2 T11281150 TSNO
94299KAAT AAT20161207084011612/07/16 08:40:31  5-MIN KAAT 071640Z AUTO 00000KT 10SM CLR M13/M15 A3019 4140 84 1700 000/00 RMK AO2 T11281150 TSNO
94299KAAT AAT20161207084511612/07/16 08:45:31  5-MIN KAAT 071645Z AUTO 00000KT 10SM CLR M13/M14 A3019 4140 87 1700 000/00 RMK AO2 T11281144 TSNO
94299KAAT AAT20161207085012212/07/16 08:50:31  5-MIN KAAT 071650Z AUTO 00000KT 9SM CLR M12/M14 A3019 4130 84 1800 000/00 RMK AO2 SLP272 T11221144 TSNO
94299KAAT AAT20161207085512212/07/16 08:55:31  5-MIN KAAT 071655Z AUTO 00000KT 8SM CLR M12/M14 A3019 4130 84 1800 000/00 RMK AO2 SLP272 T11221144 TSNO
94299KAAT AAT20161207090011512/07/16 09:00:31  5-MIN KAAT 071700Z AUTO 08003KT 9SM CLR M12/M14 A3019 4130 84 1900 070/03 RMK AO2 T11171139 TSNO
94299KAAT AAT20161207090511612/07/16 09:05:31  5-MIN KAAT 071705Z AUTO 00000KT 10SM CLR M12/M14 A3019 4140 84 1900 000/00 RMK AO2 T11171139 TSNO
94299KAAT AAT20161207091011612/07/16 09:10:31  5-MIN KAAT 071710Z AUTO 00000KT 10SM CLR M11/M13 A3019 4140 84 2000 000/00 RMK AO2 T11111133 TSNO
94299KAAT AAT20161207091511612/07/16 09:15:31  5-MIN KAAT 071715Z AUTO 09003KT 10SM CLR M11/M13 A3019 4140 84 2000 080/03 RMK AO2 T11111133 TSNO
94299KAAT AAT20161207092011612/07/16 09:20:31  5-MIN KAAT 071720Z AUTO 07004KT 10SM CLR M11/M13 A3019 4140 84 2000 060/04 RMK AO2 T11111133 TSNO
94299KAAT AAT20161207092511612/07/16 09:25:31  5-MIN KAAT 071725Z AUTO 00000KT 10SM CLR M11/M13 A3019 4140 84 2000 000/00 RMK AO2 T11061128 TSNO
94299KAAT AAT20161207093011612/07/16 09:30:31  5-MIN KAAT 071730Z AUTO 00000KT 10SM CLR M11/M12 A3019 4140 88 2000 000/00 RMK AO2 T11061122 TSNO
94299KAAT AAT20161207093511612/07/16 09:35:31  5-MIN KAAT 071735Z AUTO 00000KT 10SM CLR M10/M12 A3019 4140 84 2100 000/00 RMK AO2 T11001122 TSNO
94299KAAT AAT20161207094011612/07/16 09:40:31  5-MIN KAAT 071740Z AUTO 00000KT 10SM CLR M09/M12 A3018 4140 80 2200 000/00 RMK AO2 T10941122 TSNO
94299KAAT AAT20161207094511612/07/16 09:45:31  5-MIN KAAT 071745Z AUTO 00000KT 10SM CLR M09/M12 A3018 4140 84 2200 000/00 RMK AO2 T10941117 TSNO
94299KAAT AAT20161207095014112/07/16 09:50:31  5-MIN KAAT 071750Z AUTO 00000KT 10SM CLR M09/M12 A3018 4140 80 2200 000/00 RMK AO2 SLP265 T10941122 11094 21172 51008 TSNO
94299KAAT AAT20161207095514112/07/16 09:55:31  5-MIN KAAT 071755Z AUTO 00000KT 10SM CLR M09/M12 A3018 4140 80 2300 000/00 RMK AO2 SLP265 T10891117 11089 21172 58001 TSNO
94299KAAT AAT20161207100011612/07/16 10:00:31  5-MIN KAAT 071800Z AUTO 00000KT 10SM CLR M09/M12 A3018 4140 80 2300 000/00 RMK AO2 T10891117 TSNO
94299KAAT AAT20161207100511612/07/16 10:05:31  5-MIN KAAT 071805Z AUTO 00000KT 10SM CLR M08/M11 A3018 4140 80 2300 000/00 RMK AO2 T10831111 TSNO
94299KAAT AAT20161207101011612/07/16 10:10:31  5-MIN KAAT 071810Z AUTO 00000KT 10SM CLR M08/M11 A3018 4140 80 2300 000/00 RMK AO2 T10831111 TSNO
94299KAAT AAT20161207101511612/07/16 10:15:31  5-MIN KAAT 071815Z AUTO 00000KT 10SM CLR M08/M11 A3018 4140 77 2400 000/00 RMK AO2 T10781111 TSNO
94299KAAT AAT20161207102011612/07/16 10:20:31  5-MIN KAAT 071820Z AUTO 04004KT 10SM CLR M08/M11 A3018 4140 77 2400 030/04 RMK AO2 T10781111 TSNO
94299KAAT AAT20161207102511612/07/16 10:25:31  5-MIN KAAT 071825Z AUTO 03003KT 10SM CLR M07/M11 A3018 4140 77 2500 020/03 RMK AO2 T10721106 TSNO
94299KAAT AAT20161207103011612/07/16 10:30:31  5-MIN KAAT 071830Z AUTO VRB03KT 10SM CLR M07/M11 A3018 4150 77 2500 VRB/03 RMK AO2 T10721106 TSNO
94299KAAT AAT20161207103511612/07/16 10:35:31  5-MIN KAAT 071835Z AUTO 05004KT 10SM CLR M07/M10 A3017 4150 77 2500 030/04 RMK AO2 T10671100 TSNO
94299KAAT AAT20161207104011612/07/16 10:40:31  5-MIN KAAT 071840Z AUTO 05004KT 10SM CLR M06/M10 A3017 4150 74 2600 030/04 RMK AO2 T10611100 TSNO
94299KAAT AAT20161207104511612/07/16 10:45:31  5-MIN KAAT 071845Z AUTO VRB03KT 10SM CLR M06/M10 A3017 4150 74 2600 VRB/03 RMK AO2 T10611100 TSNO
94299KAAT AAT20161207105012312/07/16 10:50:31  5-MIN KAAT 071850Z AUTO 05004KT 10SM CLR M06/M10 A3017 4150 74 2600 030/04 RMK AO2 SLP256 T10611100 TSNO
94299KAAT AAT20161207105512312/07/16 10:55:31  5-MIN KAAT 071855Z AUTO 05004KT 10SM CLR M06/M09 A3017 4160 74 2700 030/04 RMK AO2 SLP255 T10561094 TSNO
94299KAAT AAT20161207110011612/07/16 11:00:31  5-MIN KAAT 071900Z AUTO VRB03KT 10SM CLR M06/M09 A3016 4160 74 2700 VRB/03 RMK AO2 T10561094 TSNO
94299KAAT AAT20161207110511612/07/16 11:05:31  5-MIN KAAT 071905Z AUTO 09004KT 10SM CLR M05/M09 A3016 4160 71 2800 070/04 RMK AO2 T10501094 TSNO
94299KAAT AAT20161207111011612/07/16 11:10:31  5-MIN KAAT 071910Z AUTO 06003KT 10SM CLR M05/M09 A3016 4160 71 2800 040/03 RMK AO2 T10501094 TSNO
94299KAAT AAT20161207111511612/07/16 11:15:31  5-MIN KAAT 071915Z AUTO 07003KT 10SM CLR M04/M09 A3015 4170 68 2800 060/03 RMK AO2 T10441094 TSNO
94299KAAT AAT20161207112011612/07/16 11:20:31  5-MIN KAAT 071920Z AUTO VRB03KT 10SM CLR M04/M09 A3015 4170 68 2800 VRB/03 RMK AO2 T10441094 TSNO
94299KAAT AAT20161207112511612/07/16 11:25:31  5-MIN KAAT 071925Z AUTO 09004KT 10SM CLR M04/M10 A3015 4170 63 2900 070/04 RMK AO2 T10391100 TSNO
94299KAAT AAT20161207113011612/07/16 11:30:31  5-MIN KAAT 071930Z AUTO VRB03KT 10SM CLR M04/M10 A3015 4170 63 2900 VRB/03 RMK AO2 T10391100 TSNO
94299KAAT AAT20161207113511612/07/16 11:35:31  5-MIN KAAT 071935Z AUTO 07005KT 10SM CLR M03/M09 A3015 4170 63 3000 050/05 RMK AO2 T10331094 TSNO
94299KAAT AAT20161207114011612/07/16 11:40:31  5-MIN KAAT 071940Z AUTO 07005KT 10SM CLR M03/M09 A3014 4180 63 3000 060/05 RMK AO2 T10331094 TSNO
94299KAAT AAT20161207114511612/07/16 11:45:31  5-MIN KAAT 071945Z AUTO 07006KT 10SM CLR M04/M10 A3014 4180 63 2900 050/06 RMK AO2 T10391100 TSNO
94299KAAT AAT20161207115012312/07/16 11:50:31  5-MIN KAAT 071950Z AUTO 08005KT 10SM CLR M04/M11 A3014 4180 60 2900 060/05 RMK AO2 SLP245 T10391106 TSNO
94299KAAT AAT20161207115512312/07/16 11:55:31  5-MIN KAAT 071955Z AUTO 08006KT 10SM CLR M03/M10 A3013 4180 60 3000 070/06 RMK AO2 SLP244 T10331100 TSNO
94299KAAT AAT20161207120011612/07/16 12:00:31  5-MIN KAAT 072000Z AUTO 06005KT 10SM CLR M04/M10 A3013 4190 63 2900 050/05 RMK AO2 T10391100 TSNO
94299KAAT AAT20161207120511612/07/16 12:05:31  5-MIN KAAT 072005Z AUTO 07006KT 10SM CLR M03/M10 A3013 4190 60 3000 050/06 RMK AO2 T10331100 TSNO
94299KAAT AAT20161207121011612/07/16 12:10:31  5-MIN KAAT 072010Z AUTO 05006KT 10SM CLR M03/M10 A3013 4190 60 3000 040/06 RMK AO2 T10331100 TSNO
94299KAAT AAT20161207121511612/07/16 12:15:31  5-MIN KAAT 072015Z AUTO 06006KT 10SM CLR M03/M10 A3012 4190 58 3100 040/06 RMK AO2 T10281100 TSNO
94299KAAT AAT20161207122011612/07/16 12:20:31  5-MIN KAAT 072020Z AUTO 07005KT 10SM CLR M03/M10 A3012 4190 60 3000 050/05 RMK AO2 T10331100 TSNO
94299KAAT AAT20161207122511612/07/16 12:25:31  5-MIN KAAT 072025Z AUTO 07005KT 10SM CLR M03/M09 A3012 4200 60 3100 050/05 RMK AO2 T10281094 TSNO
94299KAAT AAT20161207123011612/07/16 12:30:31  5-MIN KAAT 072030Z AUTO 06006KT 10SM CLR M03/M09 A3012 4200 60 3100 050/06 RMK AO2 T10281094 TSNO
94299KAAT AAT20161207123511612/07/16 12:35:31  5-MIN KAAT 072035Z AUTO 08005KT 10SM CLR M03/M09 A3012 4200 60 3100 070/05 RMK AO2 T10281094 TSNO
94299KAAT AAT20161207124011612/07/16 12:40:31  5-MIN KAAT 072040Z AUTO 06004KT 10SM CLR M02/M09 A3011 4200 58 3200 050/04 RMK AO2 T10221094 TSNO
94299KAAT AAT20161207124511612/07/16 12:45:31  5-MIN KAAT 072045Z AUTO 06005KT 10SM CLR M02/M09 A3011 4200 58 3200 040/05 RMK AO2 T10221094 TSNO
94299KAAT AAT20161207125012912/07/16 12:50:31  5-MIN KAAT 072050Z AUTO 07006KT 10SM CLR M02/M10 A3011 4200 55 3200 060/06 RMK AO2 SLP238 T10221100 58001 TSNO
94299KAAT AAT20161207125512912/07/16 12:55:31  5-MIN KAAT 072055Z AUTO 07004KT 10SM CLR M02/M10 A3011 4200 55 3200 050/04 RMK AO2 SLP238 T10221100 58020 TSNO
94299KAAT AAT20161207130011612/07/16 13:00:31  5-MIN KAAT 072100Z AUTO 06005KT 10SM CLR M02/M09 A3011 4210 58 3200 040/05 RMK AO2 T10221094 TSNO
94299KAAT AAT20161207130511612/07/16 13:05:31  5-MIN KAAT 072105Z AUTO 07005KT 10SM CLR M02/M09 A3011 4210 58 3200 050/05 RMK AO2 T10221094 TSNO
94299KAAT AAT20161207131011612/07/16 13:10:31  5-MIN KAAT 072110Z AUTO 07007KT 10SM CLR M02/M09 A3010 4210 58 3200 050/07 RMK AO2 T10221094 TSNO
94299KAAT AAT20161207131511612/07/16 13:15:31  5-MIN KAAT 072115Z AUTO 07007KT 10SM CLR M02/M09 A3010 4220 58 3200 050/07 RMK AO2 T10221094 TSNO
94299KAAT AAT20161207132011612/07/16 13:20:31  5-MIN KAAT 072120Z AUTO 07007KT 10SM CLR M02/M09 A3010 4220 58 3200 060/07 RMK AO2 T10221094 TSNO
94299KAAT AAT20161207132511612/07/16 13:25:31  5-MIN KAAT 072125Z AUTO 06008KT 10SM CLR M02/M09 A3010 4220 55 3300 040/08 RMK AO2 T10171094 TSNO
94299KAAT AAT20161207133011612/07/16 13:30:31  5-MIN KAAT 072130Z AUTO 07007KT 10SM CLR M02/M09 A3010 4220 55 3300 050/07 RMK AO2 T10171094 TSNO
94299KAAT AAT20161207133511612/07/16 13:35:31  5-MIN KAAT 072135Z AUTO 07007KT 10SM CLR M02/M09 A3009 4220 55 3300 050/07 RMK AO2 T10171094 TSNO
94299KAAT AAT20161207134011612/07/16 13:40:31  5-MIN KAAT 072140Z AUTO 06006KT 10SM CLR M02/M09 A3009 4230 55 3300 040/06 RMK AO2 T10171094 TSNO
94299KAAT AAT20161207134511612/07/16 13:45:31  5-MIN KAAT 072145Z AUTO 06008KT 10SM CLR M01/M09 A3009 4230 53 3300 040/08 RMK AO2 T10111094 TSNO
94299KAAT AAT20161207135012312/07/16 13:50:31  5-MIN KAAT 072150Z AUTO 06006KT 10SM CLR M01/M09 A3009 4230 53 3300 050/06 RMK AO2 SLP230 T10111094 TSNO
94299KAAT AAT20161207135512312/07/16 13:55:31  5-MIN KAAT 072155Z AUTO 06007KT 10SM CLR M01/M10 A3009 4220 51 3300 040/07 RMK AO2 SLP229 T10111100 TSNO
94299KAAT AAT20161207140011612/07/16 14:00:31  5-MIN KAAT 072200Z AUTO 06007KT 10SM CLR M02/M10 A3010 4220 53 3300 040/07 RMK AO2 T10171100 TSNO
94299KAAT AAT20161207140511612/07/16 14:05:31  5-MIN KAAT 072205Z AUTO 06007KT 10SM CLR M02/M10 A3009 4230 55 3200 040/07 RMK AO2 T10221100 TSNO
94299KAAT AAT20161207141011612/07/16 14:10:31  5-MIN KAAT 072210Z AUTO 06008KT 10SM CLR M02/M10 A3009 4230 55 3200 040/08 RMK AO2 T10221100 TSNO
94299KAAT AAT20161207141511612/07/16 14:15:31  5-MIN KAAT 072215Z AUTO 06007KT 10SM CLR M02/M10 A3008 4230 55 3200 040/07 RMK AO2 T10221100 TSNO
94299KAAT AAT20161207142011612/07/16 14:20:31  5-MIN KAAT 072220Z AUTO 06007KT 10SM CLR M02/M10 A3008 4230 55 3200 040/07 RMK AO2 T10221100 TSNO
94299KAAT AAT20161207142511612/07/16 14:25:31  5-MIN KAAT 072225Z AUTO 05007KT 10SM CLR M02/M10 A3008 4230 55 3200 040/07 RMK AO2 T10221100 TSNO
94299KAAT AAT20161207143011612/07/16 14:30:31  5-MIN KAAT 072230Z AUTO 06007KT 10SM CLR M02/M10 A3008 4230 55 3200 050/07 RMK AO2 T10221100 TSNO
94299KAAT AAT20161207143511612/07/16 14:35:31  5-MIN KAAT 072235Z AUTO 05008KT 10SM CLR M03/M10 A3008 4240 58 3100 040/08 RMK AO2 T10281100 TSNO
94299KAAT AAT20161207144011912/07/16 14:40:31  5-MIN KAAT 072240Z AUTO 05009KT 10SM FEW120 M03/M10 A3007 4240 58 3100 040/09 RMK AO2 T10281100 TSNO
94299KAAT AAT20161207144511912/07/16 14:45:31  5-MIN KAAT 072245Z AUTO 05009KT 10SM FEW120 M03/M10 A3007 4240 58 3100 040/09 RMK AO2 T10281100 TSNO
94299KAAT AAT20161207145012612/07/16 14:50:31  5-MIN KAAT 072250Z AUTO 06007KT 10SM FEW120 M03/M10 A3007 4240 58 3100 040/07 RMK AO2 SLP226 T10281100 TSNO
94299KAAT AAT20161207145512612/07/16 14:55:31  5-MIN KAAT 072255Z AUTO 05007KT 10SM FEW120 M03/M10 A3007 4240 58 3100 040/07 RMK AO2 SLP227 T10281100 TSNO
94299KAAT AAT20161207150011612/07/16 15:00:31  5-MIN KAAT 072300Z AUTO 05005KT 10SM CLR M02/M10 A3007 4240 55 3200 040/05 RMK AO2 T10221100 TSNO
94299KAAT AAT20161207150511612/07/16 15:05:31  5-MIN KAAT 072305Z AUTO 05006KT 10SM CLR M02/M10 A3008 4240 55 3200 030/06 RMK AO2 T10221100 TSNO
94299KAAT AAT20161207151011612/07/16 15:10:31  5-MIN KAAT 072310Z AUTO 05005KT 10SM CLR M02/M10 A3008 4240 55 3200 040/05 RMK AO2 T10221100 TSNO
94299KAAT AAT20161207151511612/07/16 15:15:31  5-MIN KAAT 072315Z AUTO 04006KT 10SM CLR M02/M10 A3008 4240 55 3200 030/06 RMK AO2 T10221100 TSNO
94299KAAT AAT20161207152011912/07/16 15:20:31  5-MIN KAAT 072320Z AUTO 06003KT 10SM FEW120 M02/M10 A3008 4240 55 3200 040/03 RMK AO2 T10221100 TSNO
94299KAAT AAT20161207152511912/07/16 15:25:31  5-MIN KAAT 072325Z AUTO 07004KT 10SM FEW120 M02/M09 A3008 4230 58 3200 060/04 RMK AO2 T10221094 TSNO
94299KAAT AAT20161207153011912/07/16 15:30:31  5-MIN KAAT 072330Z AUTO 00000KT 10SM FEW120 M02/M09 A3008 4230 58 3200 000/00 RMK AO2 T10221094 TSNO
94299KAAT AAT20161207153511912/07/16 15:35:31  5-MIN KAAT 072335Z AUTO 06003KT 10SM SCT120 M02/M09 A3008 4240 58 3200 050/03 RMK AO2 T10221094 TSNO
94299KAAT AAT20161207154011912/07/16 15:40:31  5-MIN KAAT 072340Z AUTO 08004KT 10SM SCT120 M02/M09 A3008 4230 60 3200 070/04 RMK AO2 T10221089 TSNO
94299KAAT AAT20161207154511912/07/16 15:45:31  5-MIN KAAT 072345Z AUTO 08005KT 10SM SCT120 M02/M09 A3008 4240 60 3200 070/05 RMK AO2 T10221089 TSNO
94299KAAT AAT20161207155014412/07/16 15:50:31  5-MIN KAAT 072350Z AUTO 08006KT 10SM SCT120 M02/M09 A3007 4240 60 3200 060/06 RMK AO2 SLP228 T10221089 11011 21089 58020 TSNO
94299KAAT AAT20161207155514412/07/16 15:55:31  5-MIN KAAT 072355Z AUTO 08005KT 10SM BKN120 M02/M09 A3007 4240 60 3200 060/05 RMK AO2 SLP228 T10221089 11011 21089 56012 TSNO
94299KAAT AAT20161207160011912/07/16 16:00:31  5-MIN KAAT 080000Z AUTO 08004KT 10SM BKN110 M02/M09 A3007 4240 60 3200 060/04 RMK AO2 T10221089 TSNO
94299KAAT AAT20161207160511912/07/16 16:05:31  5-MIN KAAT 080005Z AUTO 06007KT 10SM BKN110 M02/M09 A3007 4240 60 3200 050/07 RMK AO2 T10221089 TSNO
94299KAAT AAT20161207161011912/07/16 16:10:31  5-MIN KAAT 080010Z AUTO 08005KT 10SM OVC110 M02/M09 A3007 4250 60 3200 060/05 RMK AO2 T10221089 TSNO
94299KAAT AAT20161207161511912/07/16 16:15:31  5-MIN KAAT 080015Z AUTO 08005KT 10SM OVC110 M02/M09 A3007 4240 60 3200 070/05 RMK AO2 T10221089 TSNO
94299KAAT AAT20161207162011912/07/16 16:20:31  5-MIN KAAT 080020Z AUTO 10005KT 10SM OVC110 M02/M09 A3007 4240 60 3200 080/05 RMK AO2 T10221089 TSNO
94299KAAT AAT20161207162511912/07/16 16:25:31  5-MIN KAAT 080025Z AUTO 00000KT 10SM OVC110 M02/M09 A3008 4240 60 3200 000/00 RMK AO2 T10221089 TSNO
94299KAAT AAT20161207163011912/07/16 16:30:31  5-MIN KAAT 080030Z AUTO 08004KT 10SM OVC110 M02/M09 A3008 4240 60 3200 060/04 RMK AO2 T10221089 TSNO
94299KAAT AAT20161207163511912/07/16 16:35:31  5-MIN KAAT 080035Z AUTO 07004KT 10SM OVC100 M02/M09 A3008 4230 60 3200 060/04 RMK AO2 T10221089 TSNO
94299KAAT AAT20161207164011912/07/16 16:40:31  5-MIN KAAT 080040Z AUTO 07004KT 10SM OVC100 M03/M09 A3008 4230 63 3100 050/04 RMK AO2 T10281089 TSNO
94299KAAT AAT20161207164511912/07/16 16:45:31  5-MIN KAAT 080045Z AUTO 07005KT 10SM OVC100 M03/M09 A3008 4230 63 3100 060/05 RMK AO2 T10281089 TSNO
94299KAAT AAT20161207165012612/07/16 16:50:31  5-MIN KAAT 080050Z AUTO 07003KT 10SM OVC095 M03/M08 A3008 4230 66 3100 050/03 RMK AO2 SLP231 T10281083 TSNO
94299KAAT AAT20161207165512612/07/16 16:55:31  5-MIN KAAT 080055Z AUTO 06004KT 10SM OVC090 M02/M08 A3008 4230 63 3200 050/04 RMK AO2 SLP231 T10221083 TSNO
94299KAAT AAT20161207170011912/07/16 17:00:31  5-MIN KAAT 080100Z AUTO 07004KT 10SM OVC090 M02/M08 A3008 4230 63 3200 060/04 RMK AO2 T10221083 TSNO
94299KAAT AAT20161207170511912/07/16 17:05:31  5-MIN KAAT 080105Z AUTO 10003KT 10SM OVC090 M02/M09 A3008 4230 60 3200 080/03 RMK AO2 T10221089 TSNO
94299KAAT AAT20161207171011912/07/16 17:10:31  5-MIN KAAT 080110Z AUTO 07003KT 10SM OVC085 M02/M09 A3008 4230 60 3200 060/03 RMK AO2 T10221089 TSNO
94299KAAT AAT20161207171511912/07/16 17:15:31  5-MIN KAAT 080115Z AUTO 00000KT 10SM OVC085 M02/M08 A3008 4230 63 3200 000/00 RMK AO2 T10221083 TSNO
94299KAAT AAT20161207172011912/07/16 17:20:31  5-MIN KAAT 080120Z AUTO 11003KT 10SM OVC080 M02/M09 A3007 4240 60 3200 090/03 RMK AO2 T10221089 TSNO
94299KAAT AAT20161207172511912/07/16 17:25:31  5-MIN KAAT 080125Z AUTO 10003KT 10SM OVC080 M02/M08 A3007 4240 63 3200 090/03 RMK AO2 T10221083 TSNO
94299KAAT AAT20161207173011912/07/16 17:30:31  5-MIN KAAT 080130Z AUTO 09005KT 10SM OVC080 M02/M08 A3007 4240 63 3200 070/05 RMK AO2 T10221083 TSNO
94299KAAT AAT20161207173511912/07/16 17:35:31  5-MIN KAAT 080135Z AUTO 11004KT 10SM OVC075 M03/M08 A3007 4240 66 3100 090/04 RMK AO2 T10281083 TSNO
94299KAAT AAT20161207174011912/07/16 17:40:31  5-MIN KAAT 080140Z AUTO 10004KT 10SM OVC075 M03/M08 A3007 4240 66 3100 080/04 RMK AO2 T10281083 TSNO
94299KAAT AAT20161207174511912/07/16 17:45:31  5-MIN KAAT 080145Z AUTO 08004KT 10SM OVC070 M03/M08 A3007 4240 66 3100 070/04 RMK AO2 T10281083 TSNO
94299KAAT AAT20161207175012612/07/16 17:50:31  5-MIN KAAT 080150Z AUTO 10004KT 10SM OVC070 M03/M08 A3007 4250 66 3100 080/04 RMK AO2 SLP229 T10281083 TSNO
94299KAAT AAT20161207175513312/07/16 17:55:31  5-MIN KAAT 080155Z AUTO 11003KT 10SM BKN065 OVC080 M03/M08 A3007 4250 66 3100 090/03 RMK AO2 SLP229 T10281083 TSNO
94299KAAT AAT20161207180011912/07/16 18:00:31  5-MIN KAAT 080200Z AUTO 10004KT 10SM OVC060 M02/M08 A3007 4240 63 3200 090/04 RMK AO2 T10221083 TSNO
94299KAAT AAT20161207180511912/07/16 18:05:31  5-MIN KAAT 080205Z AUTO 10004KT 10SM OVC055 M02/M08 A3007 4240 63 3200 090/04 RMK AO2 T10221083 TSNO
94299KAAT AAT20161207181011912/07/16 18:10:31  5-MIN KAAT 080210Z AUTO 12005KT 10SM OVC055 M02/M08 A3006 4250 63 3200 100/05 RMK AO2 T10221083 TSNO
94299KAAT AAT20161207181512612/07/16 18:15:31  5-MIN KAAT 080215Z AUTO VRB05KT 10SM BKN055 OVC070 M02/M08 A3007 4240 63 3200 VRB/05 RMK AO2 T10221083 TSNO
94299KAAT AAT20161207182011912/07/16 18:20:31  5-MIN KAAT 080220Z AUTO 14004KT 10SM OVC055 M02/M08 A3006 4250 66 3200 120/04 RMK AO2 T10221078 TSNO
94299KAAT AAT20161207182511912/07/16 18:25:31  5-MIN KAAT 080225Z AUTO 16008KT 10SM OVC055 M02/M07 A3007 4250 66 3300 150/08 RMK AO2 T10171072 TSNO
94299KAAT AAT20161207183012512/07/16 18:30:31  5-MIN KAAT 080230Z AUTO 17011G15KT 10SM OVC050 M02/M08 A3006 4250 63 3300 150/11G15 RMK AO2 T10171078 TSNO
94299KAAT AAT20161207183511912/07/16 18:35:31  5-MIN KAAT 080235Z AUTO 18009KT 10SM OVC048 M02/M08 A3007 4240 63 3300 160/09 RMK AO2 T10171078 TSNO
94299KAAT AAT20161207184011912/07/16 18:40:31  5-MIN KAAT 080240Z AUTO 17010KT 10SM OVC046 M02/M07 A3007 4250 66 3300 160/10 RMK AO2 T10171072 TSNO
94299KAAT AAT20161207184511912/07/16 18:45:31  5-MIN KAAT 080245Z AUTO 17012KT 10SM OVC048 M02/M07 A3006 4250 66 3300 150/12 RMK AO2 T10171072 TSNO
94299KAAT AAT20161207185013212/07/16 18:50:31  5-MIN KAAT 080250Z AUTO 17011KT 10SM OVC048 M02/M07 A3006 4250 66 3300 150/11 RMK AO2 SLP226 T10171072 56012 TSNO
94299KAAT AAT20161207185513212/07/16 18:55:31  5-MIN KAAT 080255Z AUTO 17010KT 10SM OVC046 M02/M07 A3006 4250 66 3300 150/10 RMK AO2 SLP227 T10171072 58003 TSNO
94299KAAT AAT20161207190011912/07/16 19:00:31  5-MIN KAAT 080300Z AUTO 17011KT 10SM OVC042 M02/M07 A3007 4240 66 3300 160/11 RMK AO2 T10171072 TSNO
94299KAAT AAT20161207190511912/07/16 19:05:31  5-MIN KAAT 080305Z AUTO 17011KT 10SM OVC040 M02/M07 A3007 4240 69 3300 150/11 RMK AO2 T10171067 TSNO
94299KAAT AAT20161207191013412/07/16 19:10:31  5-MIN KAAT 080310Z AUTO 17011KT 7SM -SN OVC036 M02/M07 A3007 4240 72 3200 150/11 RMK AO2 SNB07 P0000 T10221067 TSNO
94299KAAT AAT20161207191513412/07/16 19:15:31  5-MIN KAAT 080315Z AUTO 17011KT 6SM -SN OVC032 M02/M07 A3008 4240 72 3200 150/11 RMK AO2 SNB07 P0000 T10221067 TSNO
94299KAAT AAT20161207192013412/07/16 19:20:31  5-MIN KAAT 080320Z AUTO 16011KT 5SM -SN OVC030 M02/M06 A3007 4240 75 3200 150/11 RMK AO2 SNB07 P0000 T10221061 TSNO
94299KAAT AAT20161207192513812/07/16 19:25:31  5-MIN KAAT 080325Z AUTO 17010KT 2 1/2SM -SN OVC026 M03/M06 A3008 4230 81 3100 150/10 RMK AO2 SNB07 P0000 T10281056 TSNO
94299KAAT AAT20161207193013412/07/16 19:30:31  5-MIN KAAT 080330Z AUTO 17010KT 2SM -SN OVC026 M03/M06 A3009 4230 81 3100 160/10 RMK AO2 SNB07 P0000 T10281056 TSNO
94299KAAT AAT20161207193513712/07/16 19:35:31  5-MIN KAAT 080335Z AUTO 17010KT 2SM -SN BR OVC024 M03/M05 A3008 4230 85 3100 150/10 RMK AO2 SNB07 P0000 T10281050 TSNO
94299KAAT AAT20161207194013712/07/16 19:40:31  5-MIN KAAT 080340Z AUTO 17010KT 2SM -SN BR OVC020 M03/M05 A3009 4230 88 3100 160/10 RMK AO2 SNB07 P0000 T10331050 TSNO
94299KAAT AAT20161207194514112/07/16 19:45:31  5-MIN KAAT 080345Z AUTO 17010KT 1 1/2SM -SN BR OVC018 M03/M05 A3009 4230 88 3100 160/10 RMK AO2 SNB07 P0000 T10331050 TSNO
94299KAAT AAT20161207195014812/07/16 19:50:31  5-MIN KAAT 080350Z AUTO 17011KT 1 1/4SM -SN BR OVC016 M03/M05 A3009 4230 88 3100 150/11 RMK AO2 SNB07 SLP238 P0000 T10331050 TSNO
94299KAAT AAT20161207195514512/07/16 19:55:31  5-MIN KAAT 080355Z AUTO 17011KT 3/4SM -SN BR VV013 M03/M05 A3008 4240 88 3100 150/11 RMK AO2 SNB07 SLP233 P0000 T10331050 TSNO
94299KAAT AAT20161207200013212/07/16 20:00:31  5-MIN KAAT 080400Z AUTO 16009KT 3/4SM -SN BR VV011 M03/M04 A3008 4230 92 3100 150/09 RMK AO2 P0001 T10331044 TSNO
94299KAAT AAT20161207200513212/07/16 20:05:31  5-MIN KAAT 080405Z AUTO 16009KT 3/4SM -SN BR VV010 M03/M04 A3008 4230 92 3100 150/09 RMK AO2 P0001 T10331044 TSNO
94299KAAT AAT20161207201013212/07/16 20:10:31  5-MIN KAAT 080410Z AUTO 17012KT 3/4SM -SN BR VV010 M03/M04 A3008 4230 92 3100 150/12 RMK AO2 P0002 T10331044 TSNO
94299KAAT AAT20161207201513212/07/16 20:15:31  5-MIN KAAT 080415Z AUTO 17010KT 3/4SM -SN BR VV009 M03/M04 A3008 4230 92 3100 150/10 RMK AO2 P0002 T10331044 TSNO
94299KAAT AAT20161207202013212/07/16 20:20:31  5-MIN KAAT 080420Z AUTO 17010KT 3/4SM -SN BR VV009 M03/M04 A3008 4230 92 3100 160/10 RMK AO2 P0002 T10331044 TSNO
94299KAAT AAT20161207202513212/07/16 20:25:31  5-MIN KAAT 080425Z AUTO 17009KT 3/4SM -SN BR VV009 M03/M04 A3008 4230 92 3100 160/09 RMK AO2 P0003 T10331044 TSNO
94299KAAT AAT20161207203013212/07/16 20:30:31  5-MIN KAAT 080430Z AUTO 17009KT 3/4SM -SN BR VV009 M03/M04 A3008 4240 92 3100 160/09 RMK AO2 P0003 T10331044 TSNO
94299KAAT AAT20161207203513212/07/16 20:35:31  5-MIN KAAT 080435Z AUTO 17009KT 3/4SM -SN BR VV009 M03/M04 A3007 4240 92 3100 150/09 RMK AO2 P0004 T10331044 TSNO
94299KAAT AAT20161207204013012/07/16 20:40:31  5-MIN KAAT 080440Z AUTO 17009KT 1SM -SN BR VV012 M03/M04 A3007 4240 92 3100 150/09 RMK AO2 P0004 T10331044 TSNO
94299KAAT AAT20161207204513512/07/16 20:45:31  5-MIN KAAT 080445Z AUTO 17007KT 1 1/2SM -SN BR OVC013 M03/M04 A3008 4240 92 3100 150/07 RMK AO2 P0004 T10331044 TSNO
94299KAAT AAT20161207205013812/07/16 20:50:31  5-MIN KAAT 080450Z AUTO 16009KT 2SM -SN BR OVC015 M03/M04 A3008 4230 92 3100 150/09 RMK AO2 SLP229 P0004 T10331044 TSNO
94299KAAT AAT20161207205514212/07/16 20:55:31  5-MIN KAAT 080455Z AUTO 16007KT 1 3/4SM -SN BR OVC015 M03/M04 A3007 4240 92 3100 150/07 RMK AO2 SLP227 P0004 T10331044 TSNO
94299KAAT AAT20161207210014212/07/16 21:00:31  5-MIN KAAT 080500Z AUTO VRB06KT 1 1/4SM -SN BR FEW005 OVC015 M04/M04 A3007 4240 96 3000 VRB/06 RMK AO2 P0001 T10391044 TSNO
94299KAAT AAT20161207210513812/07/16 21:05:31  5-MIN KAAT 080505Z AUTO 11004KT 1SM -SN BR FEW005 OVC015 M04/M04 A3007 4240 96 3000 100/04 RMK AO2 P0001 T10391044 TSNO
94299KAAT AAT20161207211014012/07/16 21:10:31  5-MIN KAAT 080510Z AUTO 10003KT 3/4SM -SN BR FEW005 OVC013 M04/M04 A3008 4240 96 3000 090/03 RMK AO2 P0002 T10391044 TSNO
94299KAAT AAT20161207211513812/07/16 21:15:31  5-MIN KAAT 080515Z AUTO 11004KT 1SM -SN BR FEW005 OVC013 M04/M04 A3008 4240 96 3000 100/04 RMK AO2 P0002 T10391044 TSNO
94299KAAT AAT20161207212013812/07/16 21:20:31  5-MIN KAAT 080520Z AUTO 09003KT 1SM -SN BR FEW005 OVC013 M04/M04 A3007 4240 96 3000 080/03 RMK AO2 P0002 T10391044 TSNO
94299KAAT AAT20161207212513812/07/16 21:25:31  5-MIN KAAT 080525Z AUTO 10003KT 1SM -SN BR FEW005 OVC013 M04/M05 A3007 4240 92 3000 090/03 RMK AO2 P0003 T10391050 TSNO
94299KAAT AAT20161207213013012/07/16 21:30:31  5-MIN KAAT 080530Z AUTO 10003KT 1SM -SN BR VV013 M04/M05 A3007 4240 92 3000 090/03 RMK AO2 P0003 T10391050 TSNO
94299KAAT AAT20161207213513012/07/16 21:35:31  5-MIN KAAT 080535Z AUTO 10003KT 1SM -SN BR VV015 M04/M05 A3007 4240 92 3000 080/03 RMK AO2 P0003 T10391050 TSNO
94299KAAT AAT20161207214013512/07/16 21:40:31  5-MIN KAAT 080540Z AUTO 09004KT 1 1/4SM -SN BR OVC016 M04/M05 A3007 4240 92 3000 070/04 RMK AO2 P0003 T10391050 TSNO
94299KAAT AAT20161207214513012/07/16 21:45:31  5-MIN KAAT 080545Z AUTO 08004KT 1SM -SN BR VV015 M04/M05 A3007 4250 92 3000 070/04 RMK AO2 P0004 T10391050 TSNO
94299KAAT AAT20161207215012012/07/16 21:50:31  5-MIN KAAT 080550Z AUTO 08003KT 1SM -SN BR VV014 M04/M05 A3007 4250 92 3000 060/03 RMK AO2 P0004 TSNO
94299KAAT AAT20161207215516112/07/16 21:55:31  5-MIN KAAT 080555Z AUTO 00000KT 1SM -SN BR VV014 M04/M05 A3007 4250 92 3000 000/00 RMK AO2 SLP219 P0004 60008 T10391050 11017 21039 56003 TSNO
94299KAAT AAT20161207220013012/07/16 22:00:31  5-MIN KAAT 080600Z AUTO 00000KT 1SM -SN BR VV014 M04/M05 A3007 4250 92 3000 000/00 RMK AO2 P0001 T10391050 TSNO
94299KAAT AAT20161207220513012/07/16 22:05:31  5-MIN KAAT 080605Z AUTO 05003KT 1SM -SN BR VV014 M04/M05 A3007 4250 92 3000 030/03 RMK AO2 P0001 T10391050 TSNO
94299KAAT AAT20161207221014212/07/16 22:10:31  5-MIN KAAT 080610Z AUTO 00000KT 1 1/4SM -SN BR BKN013 OVC039 M04/M05 A3007 4240 92 3000 000/00 RMK AO2 P0001 T10391050 TSNO
94299KAAT AAT20161207221514912/07/16 22:15:31  5-MIN KAAT 080615Z AUTO 00000KT 1 3/4SM -SN BR FEW009 BKN015 OVC037 M04/M05 A3007 4240 92 3000 000/00 RMK AO2 P0001 T10391050 TSNO
94299KAAT AAT20161207222014912/07/16 22:20:31  5-MIN KAAT 080620Z AUTO 00000KT 1 3/4SM -SN BR SCT009 BKN015 OVC035 M04/M05 A3007 4240 92 3000 000/00 RMK AO2 P0002 T10391050 TSNO
94299KAAT AAT20161207222514912/07/16 22:25:31  5-MIN KAAT 080625Z AUTO 00000KT 1 1/2SM -SN BR SCT009 BKN017 OVC035 M04/M04 A3007 4240 96 3000 000/00 RMK AO2 P0002 T10391044 TSNO
94299KAAT AAT20161207223014912/07/16 22:30:31  5-MIN KAAT 080630Z AUTO 00000KT 1 1/4SM -SN BR SCT009 BKN015 OVC035 M04/M04 A3007 4240 96 3000 000/00 RMK AO2 P0002 T10391044 TSNO
94299KAAT AAT20161207223514512/07/16 22:35:31  5-MIN KAAT 080635Z AUTO 00000KT 1SM -SN BR FEW009 BKN015 OVC036 M04/M05 A3006 4250 92 3000 000/00 RMK AO2 P0003 T10391050 TSNO
94299KAAT AAT20161207224013812/07/16 22:40:31  5-MIN KAAT 080640Z AUTO 00000KT 1SM -SN BR FEW009 OVC015 M04/M05 A3007 4250 92 3000 000/00 RMK AO2 P0003 T10391050 TSNO
94299KAAT AAT20161207224513812/07/16 22:45:31  5-MIN KAAT 080645Z AUTO 04003KT 1SM -SN BR FEW009 OVC013 M04/M05 A3007 4250 92 3000 020/03 RMK AO2 P0003 T10391050 TSNO
94299KAAT AAT20161207225015412/07/16 22:50:31  5-MIN KAAT 080650Z AUTO 00000KT 3/4SM -SN BR FEW009 BKN013 OVC032 M04/M05 A3007 4250 92 3000 000/00 RMK AO2 SLP214 P0004 T10391050 TSNO
94299KAAT AAT20161207225513812/07/16 22:55:31  5-MIN KAAT 080655Z AUTO 00000KT 1SM -SN BR BKN013 OVC032 M04/M04 A3006 4250 96 3000 000/00 RMK AO2 P0000 T10391044 TSNO
94299KAAT AAT20161207230014212/07/16 23:00:31  5-MIN KAAT 080700Z AUTO 07003KT 2 1/2SM -SN BR BKN013 OVC032 M04/M04 A3006 4250 96 3000 060/03 RMK AO2 P0000 T10391044 TSNO
94299KAAT AAT20161207230513812/07/16 23:05:31  5-MIN KAAT 080705Z AUTO 07003KT 3SM -SN BR SCT013 OVC033 M04/M04 A3006 4260 96 3000 060/03 RMK AO2 P0000 T10391044 TSNO
94299KAAT AAT20161207231014212/07/16 23:10:31  5-MIN KAAT 080710Z AUTO 07003KT 2 1/2SM -SN BR FEW013 OVC033 M04/M04 A3006 4250 96 3000 060/03 RMK AO2 P0000 T10391044 TSNO
94299KAAT AAT20161207231514212/07/16 23:15:31  5-MIN KAAT 080715Z AUTO 07005KT 2 1/2SM -SN BR FEW013 OVC033 M04/M05 A3005 4260 92 3000 050/05 RMK AO2 P0000 T10391050 TSNO
94299KAAT AAT20161207232013512/07/16 23:20:31  5-MIN KAAT 080720Z AUTO 07003KT 2 1/2SM -SN BR OVC033 M04/M05 A3005 4260 92 3000 050/03 RMK AO2 P0000 T10391050 TSNO
94299KAAT AAT20161207232513812/07/16 23:25:31  5-MIN KAAT 080725Z AUTO 10003KT 3SM -SN BR FEW012 OVC035 M04/M05 A3005 4260 96 3000 090/03 RMK AO2 P0000 T10441050 TSNO
94299KAAT AAT20161207233013812/07/16 23:30:31  5-MIN KAAT 080730Z AUTO 08004KT 3SM -SN BR FEW012 OVC035 M04/M06 A3005 4260 92 3000 070/04 RMK AO2 P0001 T10441056 TSNO
94299KAAT AAT20161207233513812/07/16 23:35:31  5-MIN KAAT 080735Z AUTO 07003KT 3SM -SN BR FEW012 OVC037 M04/M06 A3005 4270 92 3000 060/03 RMK AO2 P0001 T10441056 TSNO
94299KAAT AAT20161207234013812/07/16 23:40:31  5-MIN KAAT 080740Z AUTO 06006KT 3SM -SN BR FEW012 OVC037 M04/M06 A3004 4270 92 3000 050/06 RMK AO2 P0001 T10441056 TSNO
94299KAAT AAT20161207234513812/07/16 23:45:31  5-MIN KAAT 080745Z AUTO 08005KT 4SM -SN BR BKN037 OVC070 M04/M06 A3004 4270 92 3000 060/05 RMK AO2 P0001 T10441056 TSNO
94299KAAT AAT20161207235015512/07/16 23:50:31  5-MIN KAAT 080750Z AUTO 09003KT 4SM -SN BR BKN037 OVC070 M04/M06 A3004 4270 92 3000 070/03 RMK AO2 SLP202 P0001 T10441056 410111172 TSNO
94299KAAT AAT20161207235515512/07/16 23:55:31  5-MIN KAAT 080755Z AUTO 08003KT 4SM -SN BR BKN037 OVC070 M04/M06 A3004 4270 92 3000 060/03 RMK AO2 SLP202 P0001 T10441056 410111172 TSNO
94299KAAT AAT20161208000014512/08/16 00:00:31  5-MIN KAAT 080800Z AUTO 09003KT 3SM -SN BR SCT028 BKN037 OVC070 M04/M06 A3004 4270 92 3000 080/03 RMK AO2 P0000 T10441056 TSNO
94299KAAT AAT20161208000514512/08/16 00:05:31  5-MIN KAAT 080805Z AUTO 07003KT 2SM -SN BR BKN020 BKN037 OVC070 M04/M06 A3004 4270 92 3000 050/03 RMK AO2 P0001 T10441056 TSNO
94299KAAT AAT20161208001014912/08/16 00:10:31  5-MIN KAAT 080810Z AUTO 06004KT 1 1/4SM -SN BR BKN016 BKN037 OVC070 M04/M06 A3004 4270 92 3000 040/04 RMK AO2 P0001 T10441056 TSNO
94299KAAT AAT20161208001513812/08/16 00:15:31  5-MIN KAAT 080815Z AUTO 06004KT 1SM -SN BR BKN014 OVC038 M04/M06 A3004 4270 92 3000 040/04 RMK AO2 P0002 T10441056 TSNO
94299KAAT AAT20161208002013212/08/16 00:20:31  5-MIN KAAT 080820Z AUTO 08004KT 3/4SM -SN BR VV013 M04/M06 A3004 4270 92 3000 070/04 RMK AO2 P0002 T10441056 TSNO
94299KAAT AAT20161208002513212/08/16 00:25:31  5-MIN KAAT 080825Z AUTO 05005KT 3/4SM -SN BR VV012 M04/M06 A3004 4270 92 3000 040/05 RMK AO2 P0003 T10441056 TSNO
94299KAAT AAT20161208003013212/08/16 00:30:31  5-MIN KAAT 080830Z AUTO 08004KT 3/4SM -SN BR VV010 M04/M06 A3004 4270 92 3000 060/04 RMK AO2 P0004 T10441056 TSNO
94299KAAT AAT20161208003513212/08/16 00:35:31  5-MIN KAAT 080835Z AUTO 00000KT 3/4SM -SN BR VV010 M04/M06 A3003 4280 92 3000 000/00 RMK AO2 P0004 T10441056 TSNO
94299KAAT AAT20161208004013012/08/16 00:40:31  5-MIN KAAT 080840Z AUTO 07003KT 1SM -SN BR VV011 M04/M06 A3003 4280 92 3000 060/03 RMK AO2 P0005 T10441056 TSNO
94299KAAT AAT20161208004513012/08/16 00:45:31  5-MIN KAAT 080845Z AUTO 08003KT 1SM -SN BR VV012 M04/M06 A3003 4280 92 3000 060/03 RMK AO2 P0005 T10441056 TSNO
94299KAAT AAT20161208005015412/08/16 00:50:31  5-MIN KAAT 080850Z AUTO VRB04KT 1 1/4SM -SN BR OVC013 M04/M06 A3003 4280 92 3000 VRB/04 RMK AO2 SLP194 P0005 60010 T10441056 56003 TSNO
94299KAAT AAT20161208005516112/08/16 00:55:31  5-MIN KAAT 080855Z AUTO 08004KT 1 1/4SM -SN BR FEW010 OVC017 M04/M06 A3003 4280 92 3000 070/04 RMK AO2 SLP194 P0006 60011 T10441056 58012 TSNO
94299KAAT AAT20161208010013112/08/16 01:00:31  5-MIN KAAT 080900Z AUTO 07005KT 2SM -SN BR OVC021 M04/M06 A3003 4280 92 3000 050/05 RMK AO2 P0000 T10441056 TSNO
94299KAAT AAT20161208010513112/08/16 01:05:31  5-MIN KAAT 080905Z AUTO 06005KT 4SM -SN BR OVC025 M04/M06 A3002 4290 92 3000 040/05 RMK AO2 P0000 T10441056 TSNO
94299KAAT AAT20161208011013112/08/16 01:10:31  5-MIN KAAT 080910Z AUTO 09003KT 4SM -SN BR OVC025 M04/M05 A3003 4280 96 3000 070/03 RMK AO2 P0000 T10441050 TSNO
94299KAAT AAT20161208011513112/08/16 01:15:31  5-MIN KAAT 080915Z AUTO 09004KT 3SM -SN BR OVC027 M04/M05 A3002 4290 92 3100 070/04 RMK AO2 P0000 T10391050 TSNO
94299KAAT AAT20161208012013112/08/16 01:20:31  5-MIN KAAT 080920Z AUTO 06005KT 3SM -SN BR OVC031 M04/M05 A3002 4290 92 3100 050/05 RMK AO2 P0000 T10391050 TSNO
94299KAAT AAT20161208012513112/08/16 01:25:31  5-MIN KAAT 080925Z AUTO 05004KT 3SM -SN BR OVC031 M04/M05 A3001 4300 92 3100 030/04 RMK AO2 P0000 T10391050 TSNO
94299KAAT AAT20161208013013112/08/16 01:30:31  5-MIN KAAT 080930Z AUTO VRB03KT 3SM -SN BR OVC031 M04/M05 A3001 4300 92 3100 VRB/03 RMK AO2 P0001 T10391050 TSNO
94299KAAT AAT20161208013513112/08/16 01:35:31  5-MIN KAAT 080935Z AUTO 00000KT 3SM -SN BR OVC035 M04/M05 A3001 4300 92 3100 000/00 RMK AO2 P0001 T10391050 TSNO
94299KAAT AAT20161208014013112/08/16 01:40:31  5-MIN KAAT 080940Z AUTO 07003KT 5SM -SN BR OVC037 M04/M04 A3001 4300 96 3100 060/03 RMK AO2 P0001 T10391044 TSNO
94299KAAT AAT20161208014513812/08/16 01:45:31  5-MIN KAAT 080945Z AUTO 00000KT 4SM -SN BR FEW017 OVC037 M04/M04 A3001 4300 96 3100 000/00 RMK AO2 P0001 T10391044 TSNO
94299KAAT AAT20161208015014512/08/16 01:50:31  5-MIN KAAT 080950Z AUTO 00000KT 4SM -SN BR FEW017 OVC035 M04/M04 A3001 4300 96 3100 000/00 RMK AO2 SLP186 P0001 T10391044 TSNO
94299KAAT AAT20161208015514512/08/16 01:55:31  5-MIN KAAT 080955Z AUTO 00000KT 4SM -SN BR FEW009 OVC035 M04/M04 A3001 4300 96 3100 000/00 RMK AO2 SLP185 P0001 T10391044 TSNO
94299KAAT AAT20161208020014912/08/16 02:00:31  5-MIN KAAT 081000Z AUTO 00000KT 1 3/4SM -SN BR FEW009 BKN025 OVC033 M04/M04 A3001 4300 96 3100 000/00 RMK AO2 P0000 T10391044 TSNO
94299KAAT AAT20161208020514512/08/16 02:05:31  5-MIN KAAT 081005Z AUTO 00000KT 1SM -SN BR FEW007 BKN021 OVC033 M04/M05 A3001 4300 92 3100 000/00 RMK AO2 P0001 T10391050 TSNO
94299KAAT AAT20161208021014912/08/16 02:10:31  5-MIN KAAT 081010Z AUTO 03003KT 1 1/2SM -SN BR FEW007 BKN023 OVC034 M04/M05 A3001 4300 92 3100 020/03 RMK AO2 P0001 T10391050 TSNO
94299KAAT AAT20161208021514512/08/16 02:15:31  5-MIN KAAT 081015Z AUTO 03003KT 4SM -SN BR SCT007 BKN023 OVC034 M03/M04 A3001 4300 92 3100 010/03 RMK AO2 P0001 T10331044 TSNO
94299KAAT AAT20161208022013812/08/16 02:20:31  5-MIN KAAT 081020Z AUTO 03003KT 4SM -SN BR SCT007 OVC021 M03/M04 A3001 4300 92 3100 020/03 RMK AO2 P0002 T10331044 TSNO
94299KAAT AAT20161208022514212/08/16 02:25:31  5-MIN KAAT 081025Z AUTO 03003KT 2 1/2SM -SN BR SCT008 OVC019 M03/M04 A3001 4300 92 3200 010/03 RMK AO2 P0002 T10331044 TSNO
94299KAAT AAT20161208023014912/08/16 02:30:31  5-MIN KAAT 081030Z AUTO 00000KT 2 1/2SM -SN BR SCT008 BKN023 OVC034 M03/M04 A3000 4300 92 3200 000/00 RMK AO2 P0002 T10331044 TSNO
94299KAAT AAT20161208023514512/08/16 02:35:31  5-MIN KAAT 081035Z AUTO 00000KT 4SM -SN BR BKN008 BKN026 OVC034 M03/M04 A3000 4310 96 3200 000/00 RMK AO2 P0002 T10331039 TSNO
94299KAAT AAT20161208024013812/08/16 02:40:31  5-MIN KAAT 081040Z AUTO 00000KT 4SM -SN BR BKN008 OVC025 M03/M04 A3000 4310 96 3200 000/00 RMK AO2 P0002 T10331039 TSNO
94299KAAT AAT20161208024514512/08/16 02:45:31  5-MIN KAAT 081045Z AUTO 09003KT 4SM -SN BR BKN008 BKN031 OVC046 M03/M04 A3000 4310 92 3200 070/03 RMK AO2 P0003 T10331044 TSNO
94299KAAT AAT20161208025016212/08/16 02:50:31  5-MIN KAAT 081050Z AUTO 00000KT 5SM UP BR BKN008 BKN036 OVC046 M03/M04 A3000 4310 92 3200 000/00 RMK AO2 UPB50SNE50 SLP183 P0003 T10331044 TSNO
94299KAAT AAT20161208025516212/08/16 02:55:31  5-MIN KAAT 081055Z AUTO 06003KT 5SM -SN BR BKN008 OVC036 M03/M04 A3000 4310 92 3200 050/03 RMK AO2 UPB50E51SNE50B51 SLP183 P0003 T10331044 TSNO
94299KAAT AAT20161208030013812/08/16 03:00:31  5-MIN KAAT 081100Z AUTO VRB03KT 3SM -SN BR SCT008 OVC034 M03/M04 A3000 4310 92 3200 VRB/03 RMK AO2 P0000 T10331044 TSNO
94299KAAT AAT20161208030514212/08/16 03:05:31  5-MIN KAAT 081105Z AUTO 00000KT 2 1/2SM -SN BR SCT008 OVC032 M04/M04 A3000 4300 96 3100 000/00 RMK AO2 P0000 T10391044 TSNO
94299KAAT AAT20161208031014212/08/16 03:10:31  5-MIN KAAT 081110Z AUTO 10003KT 2 1/2SM -SN BR FEW008 OVC032 M03/M04 A3001 4300 92 3200 090/03 RMK AO2 P0000 T10331044 TSNO
94299KAAT AAT20161208031513812/08/16 03:15:31  5-MIN KAAT 081115Z AUTO 06003KT 3SM -SN BR FEW008 OVC032 M03/M04 A3000 4300 92 3200 050/03 RMK AO2 P0000 T10331044 TSNO
94299KAAT AAT20161208032014512/08/16 03:20:31  5-MIN KAAT 081120Z AUTO 07003KT 4SM -SN BR FEW007 BKN032 OVC043 M04/M04 A3000 4300 96 3100 060/03 RMK AO2 P0000 T10391044 TSNO
94299KAAT AAT20161208032514512/08/16 03:25:31  5-MIN KAAT 081125Z AUTO 11004KT 5SM -SN BR FEW007 BKN032 OVC043 M03/M04 A3000 4310 92 3200 090/04 RMK AO2 P0000 T10331044 TSNO
94299KAAT AAT20161208033013512/08/16 03:30:31  5-MIN KAAT 081130Z AUTO 12005KT 8SM -SN BKN032 OVC041 M03/M04 A2999 4310 92 3200 100/05 RMK AO2 P0000 T10331044 TSNO
94299KAAT AAT20161208033513012/08/16 03:35:31  5-MIN KAAT 081135Z AUTO 12007KT 9SM OVC039 M03/M04 A2999 4320 92 3200 110/07 RMK AO2 SNE31 P0000 T10331044 TSNO
94299KAAT AAT20161208034013812/08/16 03:40:31  5-MIN KAAT 081140Z AUTO 13007KT 10SM FEW031 OVC041 M03/M04 A2999 4320 92 3200 110/07 RMK AO2 SNE31 P0000 T10331044 TSNO
94299KAAT AAT20161208034513812/08/16 03:45:31  5-MIN KAAT 081145Z AUTO 11006KT 10SM FEW031 OVC043 M03/M04 A2998 4320 92 3200 090/06 RMK AO2 SNE31 P0000 T10331044 TSNO
94299KAAT AAT20161208035017512/08/16 03:50:31  5-MIN KAAT 081150Z AUTO 11006KT 10SM FEW031 OVC043 M03/M04 A2998 4330 92 3200 090/06 RMK AO2 SNE31 SLP176 P0000 60015 70023 T10331044 11033 21044 58012 TSNO
94299KAAT AAT20161208035516812/08/16 03:55:31  5-MIN KAAT 081155Z AUTO 10006KT 10SM OVC041 M03/M04 A2998 4330 92 3200 090/06 RMK AO2 SNE31 SLP177 P0000 60015 70023 T10331044 11033 21044 58014 TSNO
94299KAAT AAT20161208040010912/08/16 04:00:31  5-MIN KAAT 081200Z AUTO 10SM OVC041 M03/M04 A2998 4330 92 3200 M /M RMK AO2 T10331044 TSNO
94299KAAT AAT20161208040511912/08/16 04:05:31  5-MIN KAAT 081205Z AUTO 12005KT 10SM OVC041 M03/M04 A2998 4330 92 3200 110/05 RMK AO2 T10331044 TSNO
94299KAAT AAT20161208041011912/08/16 04:10:31  5-MIN KAAT 081210Z AUTO 13007KT 10SM OVC041 M03/M04 A2997 4330 92 3200 110/07 RMK AO2 T10331044 TSNO
94299KAAT AAT20161208041511912/08/16 04:15:31  5-MIN KAAT 081215Z AUTO 13006KT 10SM OVC041 M03/M04 A2997 4330 92 3200 110/06 RMK AO2 T10331044 TSNO
94299KAAT AAT20161208042011912/08/16 04:20:31  5-MIN KAAT 081220Z AUTO 14007KT 10SM OVC041 M03/M04 A2997 4340 88 3300 120/07 RMK AO2 T10281044 TSNO
94299KAAT AAT20161208042511912/08/16 04:25:31  5-MIN KAAT 081225Z AUTO 16005KT 10SM OVC039 M02/M04 A2997 4330 85 3300 140/05 RMK AO2 T10221044 TSNO
94299KAAT AAT20161208043011912/08/16 04:30:31  5-MIN KAAT 081230Z AUTO 16007KT 10SM OVC037 M02/M04 A2997 4340 85 3300 150/07 RMK AO2 T10221044 TSNO
94299KAAT AAT20161208043511912/08/16 04:35:31  5-MIN KAAT 081235Z AUTO 16008KT 10SM OVC037 M02/M05 A2997 4340 81 3300 150/08 RMK AO2 T10221050 TSNO
94299KAAT AAT20161208044011912/08/16 04:40:31  5-MIN KAAT 081240Z AUTO 17008KT 10SM OVC035 M02/M05 A2997 4340 81 3300 150/08 RMK AO2 T10221050 TSNO
94299KAAT AAT20161208044511912/08/16 04:45:31  5-MIN KAAT 081245Z AUTO 17009KT 10SM OVC033 M02/M05 A2997 4340 81 3300 160/09 RMK AO2 T10221050 TSNO
94299KAAT AAT20161208045012612/08/16 04:50:31  5-MIN KAAT 081250Z AUTO 18011KT 10SM OVC033 M02/M05 A2997 4340 81 3300 160/11 RMK AO2 SLP170 T10221050 TSNO
94299KAAT AAT20161208045512612/08/16 04:55:31  5-MIN KAAT 081255Z AUTO 18010KT 10SM OVC033 M02/M05 A2997 4340 78 3400 160/10 RMK AO2 SLP169 T10171050 TSNO
94299KAAT AAT20161208050011912/08/16 05:00:31  5-MIN KAAT 081300Z AUTO 17010KT 10SM OVC035 M02/M05 A2997 4340 78 3400 160/10 RMK AO2 T10171050 TSNO
94299KAAT AAT20161208050511912/08/16 05:05:31  5-MIN KAAT 081305Z AUTO 17011KT 10SM OVC035 M02/M05 A2996 4340 78 3400 160/11 RMK AO2 T10171050 TSNO
94299KAAT AAT20161208051011912/08/16 05:10:31  5-MIN KAAT 081310Z AUTO 17011KT 10SM OVC037 M02/M04 A2997 4340 81 3400 160/11 RMK AO2 T10171044 TSNO
94299KAAT AAT20161208051511912/08/16 05:15:31  5-MIN KAAT 081315Z AUTO 18009KT 10SM OVC037 M02/M04 A2997 4340 81 3400 160/09 RMK AO2 T10171044 TSNO
94299KAAT AAT20161208052011912/08/16 05:20:31  5-MIN KAAT 081320Z AUTO 18008KT 10SM OVC038 M02/M04 A2997 4330 81 3400 160/08 RMK AO2 T10171044 TSNO
94299KAAT AAT20161208052511912/08/16 05:25:31  5-MIN KAAT 081325Z AUTO 17009KT 10SM OVC038 M02/M04 A2997 4330 81 3400 160/09 RMK AO2 T10171044 TSNO
94299KAAT AAT20161208053011912/08/16 05:30:31  5-MIN KAAT 081330Z AUTO 17009KT 10SM OVC038 M02/M04 A2997 4330 81 3400 160/09 RMK AO2 T10171044 TSNO
94299KAAT AAT20161208053511912/08/16 05:35:31  5-MIN KAAT 081335Z AUTO 17011KT 10SM OVC035 M02/M04 A2997 4340 81 3400 160/11 RMK AO2 T10171044 TSNO
94299KAAT AAT20161208054011912/08/16 05:40:31  5-MIN KAAT 081340Z AUTO 17010KT 10SM OVC035 M02/M04 A2997 4340 81 3400 150/10 RMK AO2 T10171044 TSNO
94299KAAT AAT20161208054511912/08/16 05:45:31  5-MIN KAAT 081345Z AUTO 17009KT 10SM OVC035 M02/M04 A2997 4330 81 3400 160/09 RMK AO2 T10171044 TSNO
94299KAAT AAT20161208055012612/08/16 05:50:31  5-MIN KAAT 081350Z AUTO 18008KT 10SM OVC033 M02/M04 A2997 4340 81 3400 160/08 RMK AO2 SLP171 T10171044 TSNO
94299KAAT AAT20161208055512612/08/16 05:55:31  5-MIN KAAT 081355Z AUTO 18009KT 10SM OVC033 M02/M04 A2997 4330 81 3400 160/09 RMK AO2 SLP172 T10171044 TSNO
94299KAAT AAT20161208060011912/08/16 06:00:31  5-MIN KAAT 081400Z AUTO 18008KT 10SM OVC033 M02/M04 A2997 4330 81 3400 160/08 RMK AO2 T10171044 TSNO
94299KAAT AAT20161208060511912/08/16 06:05:31  5-MIN KAAT 081405Z AUTO 18007KT 10SM OVC033 M02/M04 A2998 4330 81 3400 170/07 RMK AO2 T10171044 TSNO
94299KAAT AAT20161208061011912/08/16 06:10:31  5-MIN KAAT 081410Z AUTO 18007KT 10SM OVC031 M02/M04 A2998 4330 81 3400 160/07 RMK AO2 T10171044 TSNO
94299KAAT AAT20161208061513412/08/16 06:15:31  5-MIN KAAT 081415Z AUTO 18006KT 9SM -SN OVC031 M02/M04 A2998 4330 81 3400 170/06 RMK AO2 SNB12 P0000 T10171044 TSNO
94299KAAT AAT20161208062013412/08/16 06:20:31  5-MIN KAAT 081420Z AUTO 19007KT 9SM -SN OVC031 M02/M04 A2998 4330 81 3400 180/07 RMK AO2 SNB12 P0000 T10171044 TSNO
94299KAAT AAT20161208062513412/08/16 06:25:31  5-MIN KAAT 081425Z AUTO 19006KT 9SM -SN OVC031 M02/M04 A2998 4320 81 3400 180/06 RMK AO2 SNB12 P0000 T10171044 TSNO
94299KAAT AAT20161208063014012/08/16 06:30:31  5-MIN KAAT 081430Z AUTO 19006KT 9SM FEW024 OVC031 M02/M04 A2998 4320 81 3400 170/06 RMK AO2 SNB12E26 P0000 T10171044 TSNO
94299KAAT AAT20161208063514112/08/16 06:35:31  5-MIN KAAT 081435Z AUTO 19006KT 10SM FEW024 OVC031 M01/M04 A2998 4330 78 3500 180/06 RMK AO2 SNB12E26 P0000 T10111044 TSNO
94299KAAT AAT20161208064014112/08/16 06:40:31  5-MIN KAAT 081440Z AUTO 20006KT 10SM BKN027 OVC031 M01/M04 A2998 4330 78 3500 180/06 RMK AO2 SNB12E26 P0000 T10111044 TSNO
94299KAAT AAT20161208064514112/08/16 06:45:31  5-MIN KAAT 081445Z AUTO 20005KT 10SM SCT024 OVC031 M02/M04 A2998 4320 81 3400 190/05 RMK AO2 SNB12E26 P0000 T10171044 TSNO
94299KAAT AAT20161208065013112/08/16 06:50:31  5-MIN KAAT 081450Z AUTO 20007KT 10SM BKN024 OVC031 M02/M04 A2998 4320 81 3400 180/07 RMK AO2 SNB12E26 P0000 TSNO
94299KAAT AAT20161208065516012/08/16 06:55:31  5-MIN KAAT 081455Z AUTO 19006KT 10SM SCT024 OVC031 M02/M04 A2998 4330 81 3400 180/06 RMK AO2 SNB12E26 SLP172 P0000 60000 T10171044 50002 TSNO
94299KAAT AAT20161208070012612/08/16 07:00:31  5-MIN KAAT 081500Z AUTO 20007KT 10SM SCT024 OVC031 M02/M04 A2998 4330 81 3400 180/07 RMK AO2 T10171044 TSNO
94299KAAT AAT20161208070514212/08/16 07:05:31  5-MIN KAAT 081505Z AUTO 20007KT 10SM -SN SCT024 OVC034 M02/M04 A2997 4330 85 3400 180/07 RMK AO2 SNB03 P0000 T10171039 TSNO
94299KAAT AAT20161208071014112/08/16 07:10:31  5-MIN KAAT 081510Z AUTO 20007KT 9SM -SN FEW024 OVC036 M02/M04 A2997 4340 85 3400 180/07 RMK AO2 SNB03 P0000 T10171039 TSNO
94299KAAT AAT20161208071514012/08/16 07:15:31  5-MIN KAAT 081515Z AUTO 20008KT 9SM FEW024 OVC036 M02/M04 A2997 4330 85 3400 180/08 RMK AO2 SNB03E13 P0000 T10171039 TSNO
94299KAAT AAT20161208072013412/08/16 07:20:31  5-MIN KAAT 081520Z AUTO 20009KT 10SM OVC036 M02/M04 A2997 4330 85 3400 180/09 RMK AO2 SNB03E13 P0000 T10171039 TSNO
94299KAAT AAT20161208072513412/08/16 07:25:31  5-MIN KAAT 081525Z AUTO 20008KT 10SM OVC036 M02/M04 A2998 4330 85 3400 190/08 RMK AO2 SNB03E13 P0000 T10171039 TSNO
94299KAAT AAT20161208073013412/08/16 07:30:31  5-MIN KAAT 081530Z AUTO 21007KT 10SM OVC036 M02/M03 A2998 4330 88 3400 190/07 RMK AO2 SNB03E13 P0000 T10171033 TSNO
94299KAAT AAT20161208073513412/08/16 07:35:31  5-MIN KAAT 081535Z AUTO 21007KT 10SM OVC034 M02/M03 A2998 4330 88 3400 200/07 RMK AO2 SNB03E13 P0000 T10171033 TSNO
94299KAAT AAT20161208074014812/08/16 07:40:31  5-MIN KAAT 081540Z AUTO 21007KT 10SM -SN BKN030 OVC036 M01/M03 A2997 4330 85 3500 190/07 RMK AO2 SNB03E13B40 P0000 T10111033 TSNO
94299KAAT AAT20161208074514712/08/16 07:45:31  5-MIN KAAT 081545Z AUTO 22007KT 9SM -SN BKN030 OVC036 M01/M03 A2997 4330 85 3500 210/07 RMK AO2 SNB03E13B40 P0000 T10111033 TSNO
94299KAAT AAT20161208075015412/08/16 07:50:31  5-MIN KAAT 081550Z AUTO 23005KT 9SM -SN FEW022 OVC030 M01/M03 A2998 4330 85 3500 220/05 RMK AO2 SNB03E13B40 SLP174 P0000 T10111033 TSNO
94299KAAT AAT20161208075515312/08/16 07:55:31  5-MIN KAAT 081555Z AUTO 25005KT 9SM FEW022 OVC030 M01/M03 A2998 4320 85 3500 240/05 RMK AO2 SNB03E13B40E52 SLP175 P0000 T10111033 TSNO
94299KAAT AAT20161208080012612/08/16 08:00:31  5-MIN KAAT 081600Z AUTO 27005KT 10SM SCT023 OVC028 M02/M03 A2998 4320 88 3400 260/05 RMK AO2 T10171033 TSNO
94299KAAT AAT20161208080512612/08/16 08:05:31  5-MIN KAAT 081605Z AUTO 26004KT 10SM BKN021 OVC028 M02/M03 A2998 4320 88 3400 250/04 RMK AO2 T10171033 TSNO
94299KAAT AAT20161208081012612/08/16 08:10:31  5-MIN KAAT 081610Z AUTO 26005KT 10SM BKN021 OVC029 M02/M03 A2998 4320 88 3400 250/05 RMK AO2 T10171033 TSNO
94299KAAT AAT20161208081512612/08/16 08:15:31  5-MIN KAAT 081615Z AUTO 27004KT 10SM BKN021 OVC027 M02/M03 A2998 4320 92 3400 250/04 RMK AO2 T10171028 TSNO
94299KAAT AAT20161208082012612/08/16 08:20:31  5-MIN KAAT 081620Z AUTO 27005KT 10SM BKN021 OVC027 M02/M03 A2999 4320 92 3400 260/05 RMK AO2 T10171028 TSNO
94299KAAT AAT20161208082511912/08/16 08:25:31  5-MIN KAAT 081625Z AUTO 27004KT 10SM OVC023 M02/M03 A2999 4320 92 3400 250/04 RMK AO2 T10171028 TSNO
94299KAAT AAT20161208083012612/08/16 08:30:31  5-MIN KAAT 081630Z AUTO 26005KT 10SM BKN023 OVC028 M01/M03 A2999 4320 88 3400 240/05 RMK AO2 T10111028 TSNO
94299KAAT AAT20161208083511912/08/16 08:35:31  5-MIN KAAT 081635Z AUTO 27005KT 10SM OVC023 M01/M03 A2999 4320 88 3400 250/05 RMK AO2 T10111028 TSNO
94299KAAT AAT20161208084011912/08/16 08:40:31  5-MIN KAAT 081640Z AUTO 27005KT 10SM OVC025 M01/M02 A2999 4320 92 3400 260/05 RMK AO2 T10111022 TSNO
94299KAAT AAT20161208084511912/08/16 08:45:31  5-MIN KAAT 081645Z AUTO 27005KT 10SM OVC025 M01/M02 A2999 4320 92 3400 250/05 RMK AO2 T10111022 TSNO
94299KAAT AAT20161208085012612/08/16 08:50:31  5-MIN KAAT 081650Z AUTO 28005KT 10SM OVC025 M01/M02 A2999 4320 92 3400 260/05 RMK AO2 SLP178 T10111022 TSNO
94299KAAT AAT20161208085512612/08/16 08:55:31  5-MIN KAAT 081655Z AUTO 27006KT 10SM OVC025 M01/M02 A2999 4320 92 3400 250/06 RMK AO2 SLP178 T10111022 TSNO
94299KAAT AAT20161208090011912/08/16 09:00:31  5-MIN KAAT 081700Z AUTO 27006KT 10SM OVC025 M01/M02 A2999 4310 92 3400 250/06 RMK AO2 T10111022 TSNO
94299KAAT AAT20161208090511912/08/16 09:05:31  5-MIN KAAT 081705Z AUTO 28007KT 10SM OVC025 M01/M02 A2999 4310 92 3400 260/07 RMK AO2 T10111022 TSNO
94299KAAT AAT20161208091011912/08/16 09:10:31  5-MIN KAAT 081710Z AUTO 28007KT 10SM OVC025 M01/M02 A2999 4310 92 3400 260/07 RMK AO2 T10111022 TSNO
94299KAAT AAT20161208091511912/08/16 09:15:31  5-MIN KAAT 081715Z AUTO 28007KT 10SM OVC025 M01/M02 A2999 4310 92 3400 260/07 RMK AO2 T10111022 TSNO
94299KAAT AAT20161208092011912/08/16 09:20:31  5-MIN KAAT 081720Z AUTO 28007KT 10SM OVC025 M01/M02 A3000 4310 92 3400 260/07 RMK AO2 T10111022 TSNO
94299KAAT AAT20161208092511912/08/16 09:25:31  5-MIN KAAT 081725Z AUTO 28007KT 10SM OVC025 M01/M02 A3000 4310 92 3400 260/07 RMK AO2 T10111022 TSNO
94299KAAT AAT20161208093011912/08/16 09:30:31  5-MIN KAAT 081730Z AUTO 27007KT 10SM OVC024 M01/M02 A3000 4310 92 3400 260/07 RMK AO2 T10111022 TSNO
94299KAAT AAT20161208093511912/08/16 09:35:31  5-MIN KAAT 081735Z AUTO 28008KT 10SM OVC024 M01/M02 A3001 4300 92 3400 270/08 RMK AO2 T10111022 TSNO
94299KAAT AAT20161208094011912/08/16 09:40:31  5-MIN KAAT 081740Z AUTO 27006KT 10SM OVC024 M01/M02 A3000 4310 92 3400 260/06 RMK AO2 T10111022 TSNO
94299KAAT AAT20161208094511912/08/16 09:45:31  5-MIN KAAT 081745Z AUTO 28006KT 10SM OVC024 M01/M02 A3001 4300 88 3500 260/06 RMK AO2 T10061022 TSNO
94299KAAT AAT20161208095015012/08/16 09:50:31  5-MIN KAAT 081750Z AUTO 28007KT 10SM OVC023 M01/M02 A3001 4300 88 3500 260/07 RMK AO2 SLP184 60000 T10061022 11006 21033 50002 TSNO
94299KAAT AAT20161208095515012/08/16 09:55:31  5-MIN KAAT 081755Z AUTO 27005KT 10SM OVC023 M01/M02 A3001 4300 88 3500 260/05 RMK AO2 SLP184 60000 T10061022 11006 21033 53009 TSNO
94299KAAT AAT20161208100011912/08/16 10:00:31  5-MIN KAAT 081800Z AUTO 28005KT 10SM OVC022 M01/M02 A3001 4300 88 3500 260/05 RMK AO2 T10061022 TSNO
94299KAAT AAT20161208100511812/08/16 10:05:31  5-MIN KAAT 081805Z AUTO 29005KT 10SM OVC022 00/M02 A3001 4300 85 3600 270/05 RMK AO2 T00001022 TSNO
94299KAAT AAT20161208101011812/08/16 10:10:31  5-MIN KAAT 081810Z AUTO 27005KT 10SM OVC022 00/M02 A3001 4300 85 3600 260/05 RMK AO2 T00001022 TSNO
94299KAAT AAT20161208101511812/08/16 10:15:31  5-MIN KAAT 081815Z AUTO 27004KT 10SM OVC022 00/M02 A3000 4300 88 3600 250/04 RMK AO2 T00001017 TSNO
94299KAAT AAT20161208102011812/08/16 10:20:31  5-MIN KAAT 081820Z AUTO 28003KT 10SM OVC022 00/M02 A3000 4310 88 3600 270/03 RMK AO2 T00001017 TSNO
94299KAAT AAT20161208102511812/08/16 10:25:31  5-MIN KAAT 081825Z AUTO 26004KT 10SM OVC022 00/M02 A3000 4310 88 3600 250/04 RMK AO2 T00001017 TSNO
94299KAAT AAT20161208103011812/08/16 10:30:31  5-MIN KAAT 081830Z AUTO 27003KT 10SM OVC022 00/M02 A3000 4310 88 3600 260/03 RMK AO2 T00001017 TSNO
94299KAAT AAT20161208103511812/08/16 10:35:31  5-MIN KAAT 081835Z AUTO 00000KT 10SM OVC022 00/M02 A3000 4310 88 3600 000/00 RMK AO2 T00001017 TSNO
94299KAAT AAT20161208104011812/08/16 10:40:31  5-MIN KAAT 081840Z AUTO 29004KT 10SM OVC022 00/M02 A3001 4300 88 3600 280/04 RMK AO2 T00001017 TSNO
94299KAAT AAT20161208104511812/08/16 10:45:31  5-MIN KAAT 081845Z AUTO 29004KT 10SM OVC022 00/M02 A3001 4300 88 3600 280/04 RMK AO2 T00001017 TSNO
94299KAAT AAT20161208105012512/08/16 10:50:31  5-MIN KAAT 081850Z AUTO 27003KT 10SM OVC022 01/M02 A3001 4300 85 3600 260/03 RMK AO2 SLP182 T00061017 TSNO
94299KAAT AAT20161208105512512/08/16 10:55:31  5-MIN KAAT 081855Z AUTO 26004KT 10SM OVC022 01/M02 A3000 4310 85 3600 250/04 RMK AO2 SLP179 T00061017 TSNO
94299KAAT AAT20161208110011812/08/16 11:00:31  5-MIN KAAT 081900Z AUTO 25005KT 10SM OVC022 01/M02 A3000 4310 85 3600 230/05 RMK AO2 T00061017 TSNO
94299KAAT AAT20161208110511812/08/16 11:05:31  5-MIN KAAT 081905Z AUTO 24006KT 10SM OVC022 01/M01 A2999 4320 89 3600 220/06 RMK AO2 T00061011 TSNO
94299KAAT AAT20161208111011812/08/16 11:10:31  5-MIN KAAT 081910Z AUTO 23006KT 10SM OVC023 01/M01 A2999 4320 89 3600 220/06 RMK AO2 T00061011 TSNO
94299KAAT AAT20161208111511812/08/16 11:15:31  5-MIN KAAT 081915Z AUTO 24005KT 10SM OVC023 01/M01 A2999 4320 89 3600 220/05 RMK AO2 T00061011 TSNO
94299KAAT AAT20161208112011812/08/16 11:20:31  5-MIN KAAT 081920Z AUTO 26005KT 10SM OVC023 01/M01 A2999 4320 89 3600 250/05 RMK AO2 T00061011 TSNO
94299KAAT AAT20161208112511812/08/16 11:25:31  5-MIN KAAT 081925Z AUTO 27005KT 10SM OVC023 01/M01 A2999 4320 89 3600 260/05 RMK AO2 T00061011 TSNO
94299KAAT AAT20161208113011812/08/16 11:30:31  5-MIN KAAT 081930Z AUTO 27006KT 10SM OVC023 01/M02 A2999 4310 85 3600 260/06 RMK AO2 T00061017 TSNO
94299KAAT AAT20161208113511812/08/16 11:35:31  5-MIN KAAT 081935Z AUTO 27006KT 10SM OVC023 01/M02 A2999 4310 85 3600 260/06 RMK AO2 T00061017 TSNO
94299KAAT AAT20161208114011812/08/16 11:40:31  5-MIN KAAT 081940Z AUTO 28005KT 10SM OVC023 01/M02 A2999 4320 85 3600 260/05 RMK AO2 T00061017 TSNO
94299KAAT AAT20161208114511812/08/16 11:45:31  5-MIN KAAT 081945Z AUTO 27006KT 10SM OVC023 01/M02 A2999 4320 85 3600 260/06 RMK AO2 T00061017 TSNO
94299KAAT AAT20161208115012512/08/16 11:50:31  5-MIN KAAT 081950Z AUTO 28005KT 10SM OVC023 01/M02 A2999 4320 82 3700 260/05 RMK AO2 SLP175 T00111017 TSNO
94299KAAT AAT20161208115512512/08/16 11:55:31  5-MIN KAAT 081955Z AUTO 29006KT 10SM OVC023 01/M02 A2999 4320 82 3700 280/06 RMK AO2 SLP175 T00111017 TSNO
94299KAAT AAT20161208120011812/08/16 12:00:31  5-MIN KAAT 082000Z AUTO 27005KT 10SM OVC023 01/M02 A2999 4310 82 3700 250/05 RMK AO2 T00111017 TSNO
94299KAAT AAT20161208120511812/08/16 12:05:31  5-MIN KAAT 082005Z AUTO 26007KT 10SM OVC024 01/M01 A2999 4310 85 3700 240/07 RMK AO2 T00111011 TSNO
94299KAAT AAT20161208121011812/08/16 12:10:31  5-MIN KAAT 082010Z AUTO 27007KT 10SM OVC024 01/M01 A2999 4320 85 3700 260/07 RMK AO2 T00111011 TSNO
94299KAAT AAT20161208121511812/08/16 12:15:31  5-MIN KAAT 082015Z AUTO 27008KT 10SM OVC024 01/M01 A2999 4320 85 3700 260/08 RMK AO2 T00111011 TSNO
94299KAAT AAT20161208122011812/08/16 12:20:31  5-MIN KAAT 082020Z AUTO 28007KT 10SM OVC024 01/M01 A2999 4320 85 3700 270/07 RMK AO2 T00111011 TSNO
94299KAAT AAT20161208122511812/08/16 12:25:31  5-MIN KAAT 082025Z AUTO 28007KT 10SM OVC024 01/M01 A2999 4320 85 3700 270/07 RMK AO2 T00111011 TSNO
94299KAAT AAT20161208123011812/08/16 12:30:31  5-MIN KAAT 082030Z AUTO 28006KT 10SM OVC024 01/M01 A2999 4320 85 3700 260/06 RMK AO2 T00111011 TSNO
94299KAAT AAT20161208123511812/08/16 12:35:31  5-MIN KAAT 082035Z AUTO 28005KT 10SM OVC024 01/M01 A2998 4320 85 3700 260/05 RMK AO2 T00111011 TSNO
94299KAAT AAT20161208124011812/08/16 12:40:31  5-MIN KAAT 082040Z AUTO 27007KT 10SM OVC026 01/M01 A2999 4320 85 3700 260/07 RMK AO2 T00111011 TSNO
94299KAAT AAT20161208124512512/08/16 12:45:31  5-MIN KAAT 082045Z AUTO 27006KT 10SM FEW018 OVC026 01/M01 A2999 4310 85 3700 260/06 RMK AO2 T00111011 TSNO
94299KAAT AAT20161208125013812/08/16 12:50:31  5-MIN KAAT 082050Z AUTO 27006KT 10SM SCT018 OVC026 01/M01 A2999 4320 85 3700 260/06 RMK AO2 SLP176 T00111011 53009 TSNO
94299KAAT AAT20161208125514512/08/16 12:55:31  5-MIN KAAT 082055Z AUTO 29005KT 10SM FEW018 BKN026 OVC032 01/M01 A2998 4320 85 3700 270/05 RMK AO2 SLP173 T00111011 56007 TSNO
94299KAAT AAT20161208130013212/08/16 13:00:31  5-MIN KAAT 082100Z AUTO 28007KT 10SM FEW018 BKN026 OVC032 01/M01 A2999 4320 85 3700 260/07 RMK AO2 T00111011 TSNO
94299KAAT AAT20161208130512512/08/16 13:05:31  5-MIN KAAT 082105Z AUTO 27008KT 10SM FEW018 OVC026 01/M01 A2999 4320 85 3700 250/08 RMK AO2 T00111011 TSNO
94299KAAT AAT20161208131012512/08/16 13:10:31  5-MIN KAAT 082110Z AUTO 28006KT 10SM FEW018 OVC028 01/M01 A2999 4320 85 3700 270/06 RMK AO2 T00111011 TSNO
94299KAAT AAT20161208131513212/08/16 13:15:31  5-MIN KAAT 082115Z AUTO 27006KT 10SM FEW019 BKN028 OVC032 01/M01 A2999 4310 89 3700 250/06 RMK AO2 T00111006 TSNO
94299KAAT AAT20161208132011812/08/16 13:20:31  5-MIN KAAT 082120Z AUTO 27006KT 10SM OVC028 01/M01 A2999 4310 89 3700 250/06 RMK AO2 T00111006 TSNO
94299KAAT AAT20161208132511812/08/16 13:25:31  5-MIN KAAT 082125Z AUTO 28007KT 10SM OVC028 01/M01 A2999 4310 89 3700 260/07 RMK AO2 T00111006 TSNO
94299KAAT AAT20161208133011812/08/16 13:30:31  5-MIN KAAT 082130Z AUTO 27006KT 10SM OVC028 02/M01 A3000 4310 85 3800 260/06 RMK AO2 T00171006 TSNO
94299KAAT AAT20161208133512512/08/16 13:35:31  5-MIN KAAT 082135Z AUTO 27004KT 10SM BKN028 OVC037 02/M01 A2999 4310 85 3800 260/04 RMK AO2 T00171006 TSNO
94299KAAT AAT20161208134011812/08/16 13:40:31  5-MIN KAAT 082140Z AUTO 27004KT 10SM OVC028 02/M01 A2999 4310 85 3800 260/04 RMK AO2 T00171006 TSNO
94299KAAT AAT20161208134511812/08/16 13:45:31  5-MIN KAAT 082145Z AUTO 28004KT 10SM OVC028 02/M01 A3000 4310 85 3800 260/04 RMK AO2 T00171006 TSNO
94299KAAT AAT20161208135013112/08/16 13:50:31  5-MIN KAAT 082150Z AUTO 29004KT 10SM BKN028 OVC041 02/00 A2999 4320 89 3800 280/04 RMK AO2 SLP175 T00170000 TSNO
94299KAAT AAT20161208135513812/08/16 13:55:31  5-MIN KAAT 082155Z AUTO 28005KT 10SM BKN028 BKN032 OVC041 02/00 A2999 4320 89 3800 260/05 RMK AO2 SLP175 T00170000 TSNO
94299KAAT AAT20161208140012412/08/16 14:00:31  5-MIN KAAT 082200Z AUTO 28006KT 10SM BKN026 OVC032 02/00 A2999 4320 89 3800 260/06 RMK AO2 T00170000 TSNO
94299KAAT AAT20161208140513112/08/16 14:05:31  5-MIN KAAT 082205Z AUTO 28004KT 10SM BKN026 BKN031 OVC050 02/00 A2999 4320 89 3800 270/04 RMK AO2 T00170000 TSNO
94299KAAT AAT20161208141013112/08/16 14:10:31  5-MIN KAAT 082210Z AUTO 28005KT 10SM BKN026 BKN031 OVC046 02/00 A2999 4310 89 3800 270/05 RMK AO2 T00170000 TSNO
94299KAAT AAT20161208141512412/08/16 14:15:31  5-MIN KAAT 082215Z AUTO 27006KT 10SM BKN026 OVC046 02/00 A2999 4310 89 3800 260/06 RMK AO2 T00170000 TSNO
94299KAAT AAT20161208142013112/08/16 14:20:31  5-MIN KAAT 082220Z AUTO 27005KT 10SM SCT026 BKN041 OVC048 02/00 A2999 4310 89 3800 250/05 RMK AO2 T00170000 TSNO
94299KAAT AAT20161208142512412/08/16 14:25:31  5-MIN KAAT 082225Z AUTO 26005KT 10SM SCT026 OVC048 02/00 A3000 4310 89 3800 250/05 RMK AO2 T00170000 TSNO
94299KAAT AAT20161208143013112/08/16 14:30:31  5-MIN KAAT 082230Z AUTO 26007KT 10SM FEW026 BKN030 OVC048 02/00 A3000 4310 89 3800 240/07 RMK AO2 T00170000 TSNO
94299KAAT AAT20161208143513112/08/16 14:35:31  5-MIN KAAT 082235Z AUTO 26006KT 10SM FEW025 BKN031 OVC048 02/00 A3000 4310 89 3800 250/06 RMK AO2 T00170000 TSNO
94299KAAT AAT20161208144013112/08/16 14:40:31  5-MIN KAAT 082240Z AUTO 25006KT 10SM SCT028 BKN042 OVC048 02/00 A3000 4310 89 3800 230/06 RMK AO2 T00170000 TSNO
94299KAAT AAT20161208144512412/08/16 14:45:31  5-MIN KAAT 082245Z AUTO 24005KT 10SM SCT029 OVC048 02/00 A3000 4310 89 3800 230/05 RMK AO2 T00170000 TSNO
94299KAAT AAT20161208145013112/08/16 14:50:31  5-MIN KAAT 082250Z AUTO 26005KT 10SM SCT029 OVC048 02/01 A3000 4310 92 3800 240/05 RMK AO2 SLP176 T00170006 TSNO
94299KAAT AAT20161208145513812/08/16 14:55:31  5-MIN KAAT 082255Z AUTO 26005KT 10SM SCT029 BKN042 OVC049 02/00 A3000 4300 89 3800 250/05 RMK AO2 SLP177 T00170000 TSNO
94299KAAT AAT20161208150013112/08/16 15:00:31  5-MIN KAAT 082300Z AUTO 25004KT 10SM SCT029 BKN042 OVC049 02/00 A3000 4300 89 3800 240/04 RMK AO2 T00170000 TSNO
94299KAAT AAT20161208150512412/08/16 15:05:31  5-MIN KAAT 082305Z AUTO 26005KT 10SM BKN029 OVC046 02/00 A3001 4300 89 3800 240/05 RMK AO2 T00170000 TSNO
94299KAAT AAT20161208151013112/08/16 15:10:31  5-MIN KAAT 082310Z AUTO 26008KT 10SM SCT029 BKN033 OVC043 02/00 A3000 4300 89 3800 240/08 RMK AO2 T00170000 TSNO
94299KAAT AAT20161208151513112/08/16 15:15:31  5-MIN KAAT 082315Z AUTO 25005KT 10SM BKN030 BKN038 OVC046 02/01 A3001 4300 92 3800 240/05 RMK AO2 T00170006 TSNO
94299KAAT AAT20161208152012412/08/16 15:20:31  5-MIN KAAT 082320Z AUTO 26007KT 10SM BKN030 OVC043 02/01 A3001 4300 92 3800 240/07 RMK AO2 T00170006 TSNO
94299KAAT AAT20161208152512412/08/16 15:25:31  5-MIN KAAT 082325Z AUTO 25007KT 10SM BKN030 OVC045 02/01 A3001 4300 92 3800 240/07 RMK AO2 T00170006 TSNO
94299KAAT AAT20161208153013112/08/16 15:30:31  5-MIN KAAT 082330Z AUTO 25008KT 10SM BKN030 BKN037 OVC047 02/01 A3001 4300 92 3800 240/08 RMK AO2 T00170006 TSNO
94299KAAT AAT20161208153513112/08/16 15:35:31  5-MIN KAAT 082335Z AUTO 25008KT 10SM BKN030 BKN037 OVC047 02/01 A3002 4290 92 3800 240/08 RMK AO2 T00170006 TSNO
94299KAAT AAT20161208154013112/08/16 15:40:31  5-MIN KAAT 082340Z AUTO 25007KT 10SM SCT029 BKN034 OVC047 02/01 A3002 4290 92 3700 240/07 RMK AO2 T00170006 TSNO
94299KAAT AAT20161208154513112/08/16 15:45:31  5-MIN KAAT 082345Z AUTO 25006KT 10SM BKN029 BKN034 OVC047 02/01 A3002 4290 92 3700 230/06 RMK AO2 T00170006 TSNO
94299KAAT AAT20161208155015612/08/16 15:50:31  5-MIN KAAT 082350Z AUTO 24005KT 10SM BKN029 BKN034 OVC047 02/01 A3002 4290 92 3700 230/05 RMK AO2 SLP182 T00170006 10017 21006 56007 TSNO
94299KAAT AAT20161208155514212/08/16 15:55:31  5-MIN KAAT 082355Z AUTO 25005KT 10SM OVC031 02/01 A3001 4290 92 3800 230/05 RMK AO2 SLP181 T00170006 10017 21006 53010 TSNO
94299KAAT AAT20161208160011712/08/16 16:00:31  5-MIN KAAT 090000Z AUTO 26007KT 10SM OVC031 02/01 A3002 4290 92 3700 240/07 RMK AO2 T00170006 TSNO
94299KAAT AAT20161208160512412/08/16 16:05:31  5-MIN KAAT 090005Z AUTO 24007KT 10SM BKN031 OVC036 02/01 A3002 4290 92 3700 230/07 RMK AO2 T00170006 TSNO
94299KAAT AAT20161208161012412/08/16 16:10:31  5-MIN KAAT 090010Z AUTO 26011KT 10SM BKN030 OVC036 02/01 A3002 4290 92 3700 240/11 RMK AO2 T00170006 TSNO
94299KAAT AAT20161208161512412/08/16 16:15:31  5-MIN KAAT 090015Z AUTO 25010KT 10SM BKN030 OVC036 02/01 A3002 4290 92 3700 240/10 RMK AO2 T00170006 TSNO
94299KAAT AAT20161208162012412/08/16 16:20:31  5-MIN KAAT 090020Z AUTO 25010KT 10SM BKN030 OVC037 02/01 A3002 4290 92 3700 240/10 RMK AO2 T00170006 TSNO
94299KAAT AAT20161208162512412/08/16 16:25:31  5-MIN KAAT 090025Z AUTO 26011KT 10SM BKN030 OVC043 02/01 A3002 4290 92 3700 240/11 RMK AO2 T00170006 TSNO
94299KAAT AAT20161208163012412/08/16 16:30:31  5-MIN KAAT 090030Z AUTO 26011KT 10SM BKN030 OVC035 02/01 A3002 4290 92 3700 250/11 RMK AO2 T00170006 TSNO
94299KAAT AAT20161208163512412/08/16 16:35:31  5-MIN KAAT 090035Z AUTO 26009KT 10SM BKN030 OVC035 02/01 A3002 4290 92 3700 250/09 RMK AO2 T00170006 TSNO
94299KAAT AAT20161208164011712/08/16 16:40:31  5-MIN KAAT 090040Z AUTO 26012KT 10SM OVC030 02/01 A3003 4280 92 3700 250/12 RMK AO2 T00170006 TSNO
94299KAAT AAT20161208164511712/08/16 16:45:31  5-MIN KAAT 090045Z AUTO 26010KT 10SM OVC028 02/01 A3003 4280 92 3700 250/10 RMK AO2 T00170006 TSNO
94299KAAT AAT20161208165010712/08/16 16:50:31  5-MIN KAAT 090050Z AUTO 26012KT 10SM OVC028 02/01 A3003 4280 92 3700 240/12 RMK AO2 TSNO
94299KAAT AAT20161208165512412/08/16 16:55:31  5-MIN KAAT 090055Z AUTO 25012KT 10SM OVC029 02/01 A3003 4280 92 3700 240/12 RMK AO2 SLP184 T00170006 TSNO
94299KAAT AAT20161208170011712/08/16 17:00:31  5-MIN KAAT 090100Z AUTO 26012KT 10SM OVC029 02/01 A3003 4280 92 3700 240/12 RMK AO2 T00170006 TSNO
94299KAAT AAT20161208170511712/08/16 17:05:31  5-MIN KAAT 090105Z AUTO 27012KT 10SM OVC027 02/01 A3003 4280 92 3700 250/12 RMK AO2 T00170006 TSNO
94299KAAT AAT20161208171012412/08/16 17:10:31  5-MIN KAAT 090110Z AUTO 25010KT 10SM BKN027 OVC055 02/01 A3003 4280 92 3700 240/10 RMK AO2 T00170006 TSNO
94299KAAT AAT20161208171512412/08/16 17:15:31  5-MIN KAAT 090115Z AUTO 25012KT 10SM BKN029 OVC055 02/01 A3003 4280 92 3700 230/12 RMK AO2 T00170006 TSNO
94299KAAT AAT20161208172012412/08/16 17:20:31  5-MIN KAAT 090120Z AUTO 23010KT 10SM BKN029 OVC055 02/01 A3002 4290 92 3700 220/10 RMK AO2 T00170006 TSNO
94299KAAT AAT20161208172512412/08/16 17:25:31  5-MIN KAAT 090125Z AUTO 23010KT 10SM BKN028 OVC050 02/01 A3002 4290 92 3700 210/10 RMK AO2 T00170006 TSNO
94299KAAT AAT20161208173012412/08/16 17:30:31  5-MIN KAAT 090130Z AUTO 23012KT 10SM BKN028 OVC050 02/01 A3003 4280 92 3700 220/12 RMK AO2 T00170006 TSNO
94299KAAT AAT20161208173514612/08/16 17:35:31  5-MIN KAAT 090135Z AUTO 23013KT 10SM UP BKN028 BKN045 OVC055 02/01 A3003 4280 92 3700 220/13 RMK AO2 UPB35 P0000 T00170006 TSNO
94299KAAT AAT20161208174014612/08/16 17:40:31  5-MIN KAAT 090140Z AUTO 23010KT 10SM UP BKN030 BKN045 OVC050 02/01 A3002 4290 92 3700 220/10 RMK AO2 UPB35 P0000 T00170006 TSNO
94299KAAT AAT20161208174514612/08/16 17:45:31  5-MIN KAAT 090145Z AUTO 22009KT 10SM FEW026 BKN032 OVC100 02/01 A3003 4280 96 3700 210/09 RMK AO2 UPB35E42 P0000 T00170011 TSNO
94299KAAT AAT20161208175015312/08/16 17:50:31  5-MIN KAAT 090150Z AUTO 22006KT 10SM SCT027 BKN037 OVC100 02/01 A3002 4290 96 3700 210/06 RMK AO2 UPB35E42 SLP183 P0000 T00170011 TSNO
94299KAAT AAT20161208175515312/08/16 17:55:31  5-MIN KAAT 090155Z AUTO 21006KT 10SM SCT027 BKN031 OVC047 02/01 A3002 4290 96 3700 200/06 RMK AO2 UPB35E42 SLP183 P0000 T00170011 TSNO
94299KAAT AAT20161208180013112/08/16 18:00:31  5-MIN KAAT 090200Z AUTO 21007KT 10SM BKN027 BKN031 OVC050 02/01 A3002 4290 96 3700 190/07 RMK AO2 T00170011 TSNO
94299KAAT AAT20161208180513212/08/16 18:05:31  5-MIN KAAT 090205Z AUTO 20007KT 10SM BKN027 BKN038 OVC050 01/01 A3002 4290 100 3700 190/07 RMK AO2 T00110011 TSNO
94299KAAT AAT20161208181013112/08/16 18:10:31  5-MIN KAAT 090210Z AUTO 22007KT 10SM BKN027 BKN034 OVC046 01/01 A3002 4290 96 3700 210/07 RMK AO2 T00110006 TSNO
94299KAAT AAT20161208181513112/08/16 18:15:31  5-MIN KAAT 090215Z AUTO 22008KT 10SM BKN027 BKN034 OVC110 02/01 A3002 4290 92 3700 200/08 RMK AO2 T00170006 TSNO
94299KAAT AAT20161208182013112/08/16 18:20:31  5-MIN KAAT 090220Z AUTO 22008KT 10SM BKN026 BKN033 OVC110 01/01 A3002 4290 96 3700 200/08 RMK AO2 T00110006 TSNO
94299KAAT AAT20161208182513112/08/16 18:25:31  5-MIN KAAT 090225Z AUTO 22008KT 10SM BKN026 BKN033 OVC110 01/01 A3003 4280 96 3700 210/08 RMK AO2 T00110006 TSNO
94299KAAT AAT20161208183013112/08/16 18:30:31  5-MIN KAAT 090230Z AUTO 23007KT 10SM SCT025 BKN033 OVC100 01/00 A3003 4280 92 3700 210/07 RMK AO2 T00110000 TSNO
94299KAAT AAT20161208183513112/08/16 18:35:31  5-MIN KAAT 090235Z AUTO 22006KT 10SM SCT025 SCT039 OVC100 01/00 A3003 4280 92 3700 210/06 RMK AO2 T00110000 TSNO
94299KAAT AAT20161208184013112/08/16 18:40:31  5-MIN KAAT 090240Z AUTO 22007KT 10SM FEW025 SCT043 OVC100 01/00 A3004 4270 92 3700 200/07 RMK AO2 T00110000 TSNO
94299KAAT AAT20161208184513112/08/16 18:45:31  5-MIN KAAT 090245Z AUTO 21009KT 10SM FEW023 SCT043 OVC100 01/00 A3004 4270 92 3700 190/09 RMK AO2 T00110000 TSNO
94299KAAT AAT20161208185015012/08/16 18:50:31  5-MIN KAAT 090250Z AUTO 21008KT 10SM SCT023 BKN043 OVC100 01/01 A3005 4260 96 3600 200/08 RMK AO2 SLP192 60000 T00110006 53010 TSNO
94299KAAT AAT20161208185515712/08/16 18:55:31  5-MIN KAAT 090255Z AUTO 23007KT 10SM BKN023 BKN043 OVC100 01/00 A3006 4250 92 3600 210/07 RMK AO2 PRESRR SLP194 60000 T00110000 53013 TSNO
94299KAAT AAT20161208190013112/08/16 19:00:31  5-MIN KAAT 090300Z AUTO 24006KT 10SM BKN021 BKN042 OVC100 01/00 A3006 4250 92 3600 230/06 RMK AO2 T00110000 TSNO
94299KAAT AAT20161208190513112/08/16 19:05:31  5-MIN KAAT 090305Z AUTO 24006KT 10SM BKN021 BKN026 OVC100 01/01 A3006 4250 96 3600 220/06 RMK AO2 T00110006 TSNO
94299KAAT AAT20161208191013112/08/16 19:10:31  5-MIN KAAT 090310Z AUTO 24006KT 10SM SCT021 BKN026 OVC044 01/01 A3006 4260 96 3600 230/06 RMK AO2 T00110006 TSNO
94299KAAT AAT20161208191513112/08/16 19:15:31  5-MIN KAAT 090315Z AUTO 23006KT 10SM SCT020 BKN027 OVC042 02/01 A3006 4250 92 3700 210/06 RMK AO2 T00170006 TSNO
94299KAAT AAT20161208192013112/08/16 19:20:31  5-MIN KAAT 090320Z AUTO 22004KT 10SM SCT020 BKN027 OVC050 02/01 A3006 4250 92 3700 210/04 RMK AO2 T00170006 TSNO
94299KAAT AAT20161208192513112/08/16 19:25:31  5-MIN KAAT 090325Z AUTO 25006KT 10SM FEW020 BKN027 OVC100 02/01 A3006 4250 96 3700 230/06 RMK AO2 T00170011 TSNO
94299KAAT AAT20161208193013112/08/16 19:30:31  5-MIN KAAT 090330Z AUTO 26006KT 10SM BKN025 BKN042 OVC110 02/01 A3007 4250 92 3800 250/06 RMK AO2 T00220011 TSNO
94299KAAT AAT20161208193513112/08/16 19:35:31  5-MIN KAAT 090335Z AUTO 25008KT 10SM BKN025 BKN042 OVC110 02/01 A3007 4250 92 3800 240/08 RMK AO2 T00220011 TSNO
94299KAAT AAT20161208194013112/08/16 19:40:31  5-MIN KAAT 090340Z AUTO 23006KT 10SM BKN026 BKN042 OVC110 02/01 A3006 4250 92 3800 210/06 RMK AO2 T00220011 TSNO
94299KAAT AAT20161208194513112/08/16 19:45:31  5-MIN KAAT 090345Z AUTO 22007KT 10SM SCT026 SCT050 OVC110 02/01 A3006 4250 96 3700 200/07 RMK AO2 T00170011 TSNO
94299KAAT AAT20161208195013812/08/16 19:50:31  5-MIN KAAT 090350Z AUTO 22007KT 10SM FEW026 SCT045 BKN110 02/01 A3006 4250 96 3700 210/07 RMK AO2 SLP195 T00170011 TSNO
94299KAAT AAT20161208195515412/08/16 19:55:31  5-MIN KAAT 090355Z AUTO 22007KT 10SM -RA FEW026 SCT090 OVC110 02/01 A3006 4260 96 3700 210/07 RMK AO2 RAB55 SLP193 P0000 T00170011 TSNO
94299KAAT AAT20161208200013412/08/16 20:00:31  5-MIN KAAT 090400Z AUTO 23006KT 10SM -RA FEW026 BKN110 02/01 A3006 4250 96 3700 210/06 RMK AO2 P0000 T00170011 TSNO
94299KAAT AAT20161208200512912/08/16 20:05:31  5-MIN KAAT 090405Z AUTO 22006KT 10SM OVC110 02/01 A3006 4250 96 3700 210/06 RMK AO2 RAE05 P0000 T00170011 TSNO
94299KAAT AAT20161208201012912/08/16 20:10:31  5-MIN KAAT 090410Z AUTO 23006KT 10SM BKN110 02/01 A3006 4250 96 3700 210/06 RMK AO2 RAE05 P0000 T00170011 TSNO
94299KAAT AAT20161208201512912/08/16 20:15:31  5-MIN KAAT 090415Z AUTO 24005KT 10SM OVC110 02/01 A3006 4250 96 3700 220/05 RMK AO2 RAE05 P0000 T00170011 TSNO
94299KAAT AAT20161208202012912/08/16 20:20:31  5-MIN KAAT 090420Z AUTO 26003KT 10SM OVC110 02/01 A3006 4250 96 3700 250/03 RMK AO2 RAE05 P0000 T00170011 TSNO
94299KAAT AAT20161208202512912/08/16 20:25:31  5-MIN KAAT 090425Z AUTO 26003KT 10SM OVC110 02/01 A3007 4250 96 3700 240/03 RMK AO2 RAE05 P0000 T00170011 TSNO
94299KAAT AAT20161208203013612/08/16 20:30:31  5-MIN KAAT 090430Z AUTO 23004KT 10SM FEW019 OVC110 02/01 A3007 4240 96 3700 220/04 RMK AO2 RAE05 P0000 T00170011 TSNO
94299KAAT AAT20161208203513612/08/16 20:35:31  5-MIN KAAT 090435Z AUTO 26003KT 10SM FEW019 OVC110 02/01 A3007 4250 96 3700 250/03 RMK AO2 RAE05 P0000 T00170011 TSNO
94299KAAT AAT20161208204013612/08/16 20:40:31  5-MIN KAAT 090440Z AUTO 00000KT 10SM FEW019 OVC110 02/01 A3006 4250 96 3700 000/00 RMK AO2 RAE05 P0000 T00170011 TSNO
94299KAAT AAT20161208204513612/08/16 20:45:31  5-MIN KAAT 090445Z AUTO 31005KT 10SM FEW019 OVC110 02/01 A3007 4240 96 3700 290/05 RMK AO2 RAE05 P0000 T00170011 TSNO
94299KAAT AAT20161208205014312/08/16 20:50:31  5-MIN KAAT 090450Z AUTO 30004KT 10SM FEW019 OVC110 02/01 A3007 4240 96 3700 280/04 RMK AO2 RAE05 SLP197 P0000 T00170011 TSNO
94299KAAT AAT20161208205514312/08/16 20:55:31  5-MIN KAAT 090455Z AUTO 31004KT 10SM FEW019 OVC110 02/01 A3007 4250 96 3700 290/04 RMK AO2 RAE05 SLP196 P0000 T00170011 TSNO
94299KAAT AAT20161208210011812/08/16 21:00:31  5-MIN KAAT 090500Z AUTO 00000KT 10SM OVC110 02/02 A3007 4240 100 3700 000/00 RMK AO2 T00170017 TSNO
94299KAAT AAT20161208210511712/08/16 21:05:31  5-MIN KAAT 090505Z AUTO 24003KT 10SM OVC110 02/02 A3007 4250 96 3800 230/03 RMK AO2 T00220017 TSNO
94299KAAT AAT20161208211011712/08/16 21:10:31  5-MIN KAAT 090510Z AUTO 24004KT 10SM OVC110 02/02 A3007 4240 96 3800 220/04 RMK AO2 T00220017 TSNO
94299KAAT AAT20161208211511812/08/16 21:15:31  5-MIN KAAT 090515Z AUTO 23004KT 10SM OVC110 02/02 A3006 4250 100 3700 220/04 RMK AO2 T00170017 TSNO
94299KAAT AAT20161208212011812/08/16 21:20:31  5-MIN KAAT 090520Z AUTO 00000KT 10SM OVC110 02/02 A3007 4250 100 3700 000/00 RMK AO2 T00170017 TSNO
94299KAAT AAT20161208212511812/08/16 21:25:31  5-MIN KAAT 090525Z AUTO 00000KT 10SM OVC100 02/02 A3007 4250 100 3700 000/00 RMK AO2 T00170017 TSNO
94299KAAT AAT20161208213011712/08/16 21:30:31  5-MIN KAAT 090530Z AUTO 23003KT 10SM OVC100 02/02 A3007 4240 96 3800 220/03 RMK AO2 T00220017 TSNO
94299KAAT AAT20161208213511712/08/16 21:35:31  5-MIN KAAT 090535Z AUTO 24004KT 10SM OVC100 02/02 A3007 4240 96 3800 220/04 RMK AO2 T00220017 TSNO
94299KAAT AAT20161208214011712/08/16 21:40:31  5-MIN KAAT 090540Z AUTO 24003KT 10SM OVC100 02/02 A3007 4240 96 3800 220/03 RMK AO2 T00220017 TSNO
94299KAAT AAT20161208214511712/08/16 21:45:31  5-MIN KAAT 090545Z AUTO 23005KT 10SM OVC100 02/02 A3008 4240 96 3700 210/05 RMK AO2 T00220017 TSNO
94299KAAT AAT20161208215014812/08/16 21:50:31  5-MIN KAAT 090550Z AUTO 24004KT 10SM OVC100 02/02 A3008 4240 96 3700 230/04 RMK AO2 SLP197 60000 T00220017 10022 20011 53013 TSNO
94299KAAT AAT20161208215514812/08/16 21:55:31  5-MIN KAAT 090555Z AUTO 26006KT 10SM OVC100 02/02 A3008 4240 96 3800 240/06 RMK AO2 SLP196 60000 T00220017 10022 20011 53005 TSNO
94299KAAT AAT20161208220011712/08/16 22:00:31  5-MIN KAAT 090600Z AUTO 27007KT 10SM OVC100 03/02 A3008 4230 92 3800 250/07 RMK AO2 T00280017 TSNO
94299KAAT AAT20161208220511712/08/16 22:05:31  5-MIN KAAT 090605Z AUTO 27008KT 10SM OVC100 02/02 A3008 4230 96 3700 250/08 RMK AO2 T00220017 TSNO
94299KAAT AAT20161208221011712/08/16 22:10:31  5-MIN KAAT 090610Z AUTO 27009KT 10SM OVC100 02/02 A3008 4230 96 3700 260/09 RMK AO2 T00220017 TSNO
94299KAAT AAT20161208221511712/08/16 22:15:31  5-MIN KAAT 090615Z AUTO 27009KT 10SM OVC095 03/02 A3009 4230 92 3800 250/09 RMK AO2 T00280017 TSNO
94299KAAT AAT20161208222011712/08/16 22:20:31  5-MIN KAAT 090620Z AUTO 26008KT 10SM OVC100 02/02 A3009 4230 96 3700 250/08 RMK AO2 T00220017 TSNO
94299KAAT AAT20161208222511712/08/16 22:25:31  5-MIN KAAT 090625Z AUTO 25008KT 10SM OVC100 02/02 A3009 4230 96 3700 230/08 RMK AO2 T00220017 TSNO
94299KAAT AAT20161208223011712/08/16 22:30:31  5-MIN KAAT 090630Z AUTO 25008KT 10SM OVC095 02/02 A3009 4230 96 3700 230/08 RMK AO2 T00220017 TSNO
94299KAAT AAT20161208223511712/08/16 22:35:31  5-MIN KAAT 090635Z AUTO 23009KT 10SM OVC095 03/02 A3009 4230 92 3800 220/09 RMK AO2 T00280017 TSNO
94299KAAT AAT20161208224011712/08/16 22:40:31  5-MIN KAAT 090640Z AUTO 23010KT 10SM OVC095 03/02 A3009 4230 92 3800 220/10 RMK AO2 T00280017 TSNO
94299KAAT AAT20161208224511712/08/16 22:45:31  5-MIN KAAT 090645Z AUTO 23009KT 10SM OVC095 03/02 A3009 4230 96 3800 220/09 RMK AO2 T00280022 TSNO
94299KAAT AAT20161208225013112/08/16 22:50:31  5-MIN KAAT 090650Z AUTO 24010KT 10SM BKN095 BKN120 03/02 A3009 4220 92 3800 230/10 RMK AO2 SLP200 T00280017 TSNO
94299KAAT AAT20161208225513812/08/16 22:55:31  5-MIN KAAT 090655Z AUTO 24009KT 10SM FEW060 BKN095 BKN120 03/02 A3009 4230 92 3800 230/09 RMK AO2 SLP199 T00280017 TSNO
94299KAAT AAT20161208230013112/08/16 23:00:31  5-MIN KAAT 090700Z AUTO 25009KT 10SM SCT060 BKN100 OVC120 03/02 A3009 4220 92 3800 230/09 RMK AO2 T00280017 TSNO
94299KAAT AAT20161208230513112/08/16 23:05:31  5-MIN KAAT 090705Z AUTO 24008KT 10SM SCT060 BKN095 BKN110 03/02 A3009 4220 92 3800 220/08 RMK AO2 T00280017 TSNO
94299KAAT AAT20161208231014712/08/16 23:10:31  5-MIN KAAT 090710Z AUTO 21007KT 180V240 10SM FEW033 SCT060 OVC110 03/02 A3009 4220 96 3800 200/07 170V230 RMK AO2 T00280022 TSNO
94299KAAT AAT20161208231513112/08/16 23:15:31  5-MIN KAAT 090715Z AUTO 25009KT 10SM SCT033 BKN060 OVC110 03/02 A3009 4220 96 3800 230/09 RMK AO2 T00280022 TSNO
94299KAAT AAT20161208232013112/08/16 23:20:31  5-MIN KAAT 090720Z AUTO 25008KT 10SM SCT033 BKN060 OVC110 03/02 A3009 4220 96 3800 230/08 RMK AO2 T00280022 TSNO
94299KAAT AAT20161208232513112/08/16 23:25:31  5-MIN KAAT 090725Z AUTO 25007KT 10SM BKN033 BKN055 OVC110 03/02 A3009 4220 96 3800 240/07 RMK AO2 T00280022 TSNO
94299KAAT AAT20161208233013112/08/16 23:30:31  5-MIN KAAT 090730Z AUTO 25006KT 10SM BKN033 BKN050 OVC110 03/02 A3009 4220 96 3800 230/06 RMK AO2 T00280022 TSNO
94299KAAT AAT20161208233512412/08/16 23:35:31  5-MIN KAAT 090735Z AUTO 25005KT 10SM BKN035 OVC050 03/02 A3009 4220 96 3800 240/05 RMK AO2 T00280022 TSNO
94299KAAT AAT20161208234013112/08/16 23:40:31  5-MIN KAAT 090740Z AUTO 26006KT 10SM BKN033 BKN040 OVC050 03/02 A3010 4220 96 3800 250/06 RMK AO2 T00280022 TSNO
94299KAAT AAT20161208234512412/08/16 23:45:31  5-MIN KAAT 090745Z AUTO 25005KT 10SM BKN035 OVC050 03/02 A3009 4220 96 3800 240/05 RMK AO2 T00280022 TSNO
94299KAAT AAT20161208235014112/08/16 23:50:31  5-MIN KAAT 090750Z AUTO 25006KT 10SM BKN037 OVC050 03/02 A3009 4220 96 3800 240/06 RMK AO2 SLP199 T00280022 400281044 TSNO
94299KAAT AAT20161208235514812/08/16 23:55:31  5-MIN KAAT 090755Z AUTO 25006KT 10SM BKN037 BKN050 OVC110 03/02 A3008 4230 96 3800 240/06 RMK AO2 SLP196 T00280022 400281044 TSNO
94299KAAT AAT20161209000013112/09/16 00:00:31  5-MIN KAAT 090800Z AUTO 25006KT 10SM SCT037 BKN050 OVC110 03/02 A3008 4230 92 3900 230/06 RMK AO2 T00330022 TSNO
94299KAAT AAT20161209000513112/09/16 00:05:31  5-MIN KAAT 090805Z AUTO 24007KT 10SM SCT037 SCT050 OVC110 03/02 A3008 4230 92 3900 220/07 RMK AO2 T00330022 TSNO
94299KAAT AAT20161209001012412/09/16 00:10:31  5-MIN KAAT 090810Z AUTO 25006KT 10SM SCT038 OVC110 03/02 A3008 4230 92 3900 230/06 RMK AO2 T00330022 TSNO
94299KAAT AAT20161209001512412/09/16 00:15:31  5-MIN KAAT 090815Z AUTO 26005KT 10SM SCT038 OVC110 03/02 A3008 4230 96 3800 250/05 RMK AO2 T00280022 TSNO
94299KAAT AAT20161209002012412/09/16 00:20:31  5-MIN KAAT 090820Z AUTO 25005KT 10SM SCT038 OVC110 03/02 A3009 4230 96 3800 240/05 RMK AO2 T00280022 TSNO
94299KAAT AAT20161209002512412/09/16 00:25:31  5-MIN KAAT 090825Z AUTO 24005KT 10SM BKN038 OVC110 03/02 A3008 4230 92 3900 230/05 RMK AO2 T00330022 TSNO
94299KAAT AAT20161209003012412/09/16 00:30:31  5-MIN KAAT 090830Z AUTO 23004KT 10SM BKN038 OVC110 03/02 A3008 4230 92 3900 210/04 RMK AO2 T00330022 TSNO
94299KAAT AAT20161209003512412/09/16 00:35:31  5-MIN KAAT 090835Z AUTO 23004KT 10SM BKN036 OVC110 04/02 A3008 4230 89 3900 210/04 RMK AO2 T00390022 TSNO
94299KAAT AAT20161209004013112/09/16 00:40:31  5-MIN KAAT 090840Z AUTO 23007KT 10SM BKN036 BKN042 OVC120 04/02 A3008 4230 85 4000 220/07 RMK AO2 T00440022 TSNO
94299KAAT AAT20161209004511712/09/16 00:45:31  5-MIN KAAT 090845Z AUTO 23006KT 10SM OVC036 04/03 A3009 4230 89 4000 210/06 RMK AO2 T00440028 TSNO
94299KAAT AAT20161209005013012/09/16 00:50:31  5-MIN KAAT 090850Z AUTO 25004KT 10SM OVC036 04/02 A3009 4230 89 3900 230/04 RMK AO2 SLP195 T00390022 53005 TSNO
94299KAAT AAT20161209005513012/09/16 00:55:31  5-MIN KAAT 090855Z AUTO 27005KT 10SM OVC036 04/02 A3009 4230 89 3900 250/05 RMK AO2 SLP196 T00390022 51004 TSNO
94299KAAT AAT20161209010012412/09/16 01:00:31  5-MIN KAAT 090900Z AUTO 25005KT 10SM BKN036 OVC043 04/02 A3009 4230 89 3900 240/05 RMK AO2 T00390022 TSNO
94299KAAT AAT20161209010512412/09/16 01:05:31  5-MIN KAAT 090905Z AUTO 26005KT 10SM BKN036 OVC045 03/02 A3009 4230 92 3900 240/05 RMK AO2 T00330022 TSNO
94299KAAT AAT20161209011012412/09/16 01:10:31  5-MIN KAAT 090910Z AUTO 25005KT 10SM BKN038 OVC047 03/02 A3009 4220 92 3900 230/05 RMK AO2 T00330022 TSNO
94299KAAT AAT20161209011512412/09/16 01:15:31  5-MIN KAAT 090915Z AUTO 26006KT 10SM BKN038 OVC045 03/02 A3009 4220 92 3900 240/06 RMK AO2 T00330022 TSNO
94299KAAT AAT20161209012013112/09/16 01:20:31  5-MIN KAAT 090920Z AUTO 24005KT 10SM BKN038 BKN045 OVC120 03/02 A3009 4220 92 3900 220/05 RMK AO2 T00330022 TSNO
94299KAAT AAT20161209012513112/09/16 01:25:31  5-MIN KAAT 090925Z AUTO 23005KT 10SM BKN038 BKN045 OVC120 03/02 A3009 4220 92 3900 220/05 RMK AO2 T00330022 TSNO
94299KAAT AAT20161209013012412/09/16 01:30:31  5-MIN KAAT 090930Z AUTO 25006KT 10SM BKN036 OVC045 03/02 A3009 4220 92 3900 240/06 RMK AO2 T00330022 TSNO
94299KAAT AAT20161209013513112/09/16 01:35:31  5-MIN KAAT 090935Z AUTO 27006KT 10SM BKN036 BKN045 OVC120 03/02 A3009 4220 92 3900 250/06 RMK AO2 T00330022 TSNO
94299KAAT AAT20161209014013112/09/16 01:40:31  5-MIN KAAT 090940Z AUTO 26006KT 10SM BKN036 BKN045 OVC110 04/02 A3009 4220 89 3900 250/06 RMK AO2 T00390022 TSNO
94299KAAT AAT20161209014513112/09/16 01:45:31  5-MIN KAAT 090945Z AUTO 27007KT 10SM SCT037 BKN046 OVC110 04/02 A3009 4220 89 3900 250/07 RMK AO2 T00390022 TSNO
94299KAAT AAT20161209015013812/09/16 01:50:31  5-MIN KAAT 090950Z AUTO 25006KT 10SM FEW033 BKN041 BKN048 03/02 A3010 4220 92 3900 230/06 RMK AO2 SLP199 T00330022 TSNO
94299KAAT AAT20161209015513112/09/16 01:55:31  5-MIN KAAT 090955Z AUTO 20004KT 10SM BKN041 BKN049 03/02 A3010 4220 92 3900 190/04 RMK AO2 SLP199 T00330022 TSNO
94299KAAT AAT20161209020013112/09/16 02:00:31  5-MIN KAAT 091000Z AUTO 27005KT 10SM BKN039 BKN045 OVC055 03/02 A3010 4220 92 3900 250/05 RMK AO2 T00330022 TSNO
94299KAAT AAT20161209020512412/09/16 02:05:31  5-MIN KAAT 091005Z AUTO 26007KT 10SM BKN040 OVC048 03/02 A3010 4210 92 3900 250/07 RMK AO2 T00330022 TSNO
94299KAAT AAT20161209021012412/09/16 02:10:31  5-MIN KAAT 091010Z AUTO 25005KT 10SM SCT035 OVC045 04/02 A3010 4210 89 3900 240/05 RMK AO2 T00390022 TSNO
94299KAAT AAT20161209021512412/09/16 02:15:31  5-MIN KAAT 091015Z AUTO 27009KT 10SM BKN036 OVC044 04/02 A3010 4210 89 3900 250/09 RMK AO2 T00390022 TSNO
94299KAAT AAT20161209022012412/09/16 02:20:31  5-MIN KAAT 091020Z AUTO 27008KT 10SM BKN037 OVC045 04/03 A3010 4210 89 4000 260/08 RMK AO2 T00440028 TSNO
94299KAAT AAT20161209022512412/09/16 02:25:31  5-MIN KAAT 091025Z AUTO 25006KT 10SM BKN037 OVC047 04/03 A3010 4210 89 4000 230/06 RMK AO2 T00440028 TSNO
94299KAAT AAT20161209023012412/09/16 02:30:31  5-MIN KAAT 091030Z AUTO 24004KT 10SM BKN039 OVC049 04/03 A3010 4210 89 4000 230/04 RMK AO2 T00440028 TSNO
94299KAAT AAT20161209023512412/09/16 02:35:31  5-MIN KAAT 091035Z AUTO 25006KT 10SM BKN037 OVC049 04/03 A3010 4210 89 4000 240/06 RMK AO2 T00440028 TSNO
94299KAAT AAT20161209024012412/09/16 02:40:31  5-MIN KAAT 091040Z AUTO 26007KT 10SM BKN036 OVC045 04/02 A3010 4210 89 3900 240/07 RMK AO2 T00390022 TSNO
94299KAAT AAT20161209024512412/09/16 02:45:31  5-MIN KAAT 091045Z AUTO 27006KT 10SM BKN036 OVC047 04/02 A3010 4210 89 3900 260/06 RMK AO2 T00390022 TSNO
94299KAAT AAT20161209025013112/09/16 02:50:31  5-MIN KAAT 091050Z AUTO 26005KT 10SM BKN036 OVC045 04/02 A3010 4210 85 4000 250/05 RMK AO2 SLP199 T00440022 TSNO
94299KAAT AAT20161209025513112/09/16 02:55:31  5-MIN KAAT 091055Z AUTO 27006KT 10SM BKN036 OVC047 04/03 A3011 4210 89 4000 250/06 RMK AO2 SLP200 T00440028 TSNO
94299KAAT AAT20161209030012412/09/16 03:00:31  5-MIN KAAT 091100Z AUTO 24005KT 10SM BKN034 OVC044 04/03 A3011 4210 89 4000 220/05 RMK AO2 T00440028 TSNO
94299KAAT AAT20161209030512412/09/16 03:05:31  5-MIN KAAT 091105Z AUTO 28006KT 10SM BKN034 OVC044 04/03 A3010 4210 89 4000 260/06 RMK AO2 T00440028 TSNO
94299KAAT AAT20161209031011712/09/16 03:10:31  5-MIN KAAT 091110Z AUTO 26007KT 10SM OVC034 04/03 A3011 4210 89 4000 240/07 RMK AO2 T00440028 TSNO
94299KAAT AAT20161209031512412/09/16 03:15:31  5-MIN KAAT 091115Z AUTO 27007KT 10SM BKN034 OVC043 04/03 A3011 4210 89 4000 250/07 RMK AO2 T00440028 TSNO
94299KAAT AAT20161209032011712/09/16 03:20:31  5-MIN KAAT 091120Z AUTO 25005KT 10SM OVC034 04/03 A3011 4210 89 4000 240/05 RMK AO2 T00440028 TSNO
94299KAAT AAT20161209032511712/09/16 03:25:31  5-MIN KAAT 091125Z AUTO 26005KT 10SM OVC034 04/03 A3011 4210 92 3900 250/05 RMK AO2 T00390028 TSNO
94299KAAT AAT20161209033011712/09/16 03:30:31  5-MIN KAAT 091130Z AUTO 25004KT 10SM OVC034 04/03 A3011 4210 92 3900 230/04 RMK AO2 T00390028 TSNO
94299KAAT AAT20161209033511712/09/16 03:35:31  5-MIN KAAT 091135Z AUTO 00000KT 10SM OVC034 04/03 A3011 4210 92 3900 000/00 RMK AO2 T00390028 TSNO
94299KAAT AAT20161209034012412/09/16 03:40:31  5-MIN KAAT 091140Z AUTO 24003KT 10SM BKN034 OVC040 04/03 A3011 4210 92 3900 230/03 RMK AO2 T00390028 TSNO
94299KAAT AAT20161209034512412/09/16 03:45:31  5-MIN KAAT 091145Z AUTO 21003KT 10SM BKN033 OVC040 04/03 A3011 4210 92 3900 200/03 RMK AO2 T00390028 TSNO
94299KAAT AAT20161209035014912/09/16 03:50:31  5-MIN KAAT 091150Z AUTO 25004KT 10SM BKN033 OVC040 04/03 A3011 4210 89 4000 230/04 RMK AO2 SLP201 T00440028 10044 20022 51004 TSNO
94299KAAT AAT20161209035514212/09/16 03:55:31  5-MIN KAAT 091155Z AUTO 00000KT 10SM OVC036 04/03 A3010 4210 92 3900 000/00 RMK AO2 SLP201 T00390028 10044 20022 50004 TSNO
94299KAAT AAT20161209040011712/09/16 04:00:31  5-MIN KAAT 091200Z AUTO 00000KT 10SM OVC034 04/03 A3010 4210 92 3900 000/00 RMK AO2 T00390028 TSNO
94299KAAT AAT20161209040511712/09/16 04:05:31  5-MIN KAAT 091205Z AUTO 23003KT 10SM OVC034 04/03 A3010 4210 89 4000 220/03 RMK AO2 T00440028 TSNO
94299KAAT AAT20161209041011712/09/16 04:10:31  5-MIN KAAT 091210Z AUTO 20003KT 10SM OVC034 04/03 A3010 4220 89 4000 190/03 RMK AO2 T00440028 TSNO
94299KAAT AAT20161209041511712/09/16 04:15:31  5-MIN KAAT 091215Z AUTO 21003KT 10SM OVC035 04/03 A3010 4220 89 4000 200/03 RMK AO2 T00440028 TSNO
94299KAAT AAT20161209042011712/09/16 04:20:31  5-MIN KAAT 091220Z AUTO 00000KT 10SM OVC035 04/03 A3010 4220 92 3900 000/00 RMK AO2 T00390028 TSNO
94299KAAT AAT20161209042511712/09/16 04:25:31  5-MIN KAAT 091225Z AUTO 00000KT 10SM OVC035 04/02 A3010 4220 89 3900 000/00 RMK AO2 T00390022 TSNO
94299KAAT AAT20161209043011712/09/16 04:30:31  5-MIN KAAT 091230Z AUTO 20005KT 10SM OVC035 04/03 A3010 4210 89 4000 180/05 RMK AO2 T00440028 TSNO
94299KAAT AAT20161209043512412/09/16 04:35:31  5-MIN KAAT 091235Z AUTO 19006KT 10SM BKN033 OVC043 05/02 A3010 4220 82 4100 180/06 RMK AO2 T00500022 TSNO
94299KAAT AAT20161209044011712/09/16 04:40:31  5-MIN KAAT 091240Z AUTO 20004KT 10SM OVC033 04/02 A3009 4220 89 3900 190/04 RMK AO2 T00390022 TSNO
94299KAAT AAT20161209044511712/09/16 04:45:31  5-MIN KAAT 091245Z AUTO 21004KT 10SM OVC033 04/02 A3010 4220 85 4000 200/04 RMK AO2 T00440022 TSNO
94299KAAT AAT20161209045012412/09/16 04:50:31  5-MIN KAAT 091250Z AUTO 00000KT 10SM OVC033 04/02 A3010 4220 85 4000 000/00 RMK AO2 SLP198 T00440022 TSNO
94299KAAT AAT20161209045513112/09/16 04:55:31  5-MIN KAAT 091255Z AUTO 00000KT 10SM BKN031 OVC046 04/02 A3010 4220 85 3900 000/00 RMK AO2 SLP200 T00390017 TSNO
94299KAAT AAT20161209050012412/09/16 05:00:31  5-MIN KAAT 091300Z AUTO 00000KT 10SM BKN031 OVC046 04/02 A3010 4220 89 3900 000/00 RMK AO2 T00390022 TSNO
94299KAAT AAT20161209050512412/09/16 05:05:31  5-MIN KAAT 091305Z AUTO 33003KT 10SM BKN032 OVC048 04/02 A3010 4210 89 3900 310/03 RMK AO2 T00390022 TSNO
94299KAAT AAT20161209051013112/09/16 05:10:31  5-MIN KAAT 091310Z AUTO 00000KT 10SM BKN032 BKN041 OVC048 03/02 A3010 4220 89 3900 000/00 RMK AO2 T00330017 TSNO
94299KAAT AAT20161209051513112/09/16 05:15:31  5-MIN KAAT 091315Z AUTO 00000KT 10SM BKN032 BKN041 OVC048 03/02 A3010 4210 89 3900 000/00 RMK AO2 T00330017 TSNO
94299KAAT AAT20161209052012412/09/16 05:20:31  5-MIN KAAT 091320Z AUTO 00000KT 10SM BKN032 OVC040 04/02 A3010 4210 89 3900 000/00 RMK AO2 T00390022 TSNO
94299KAAT AAT20161209052512412/09/16 05:25:31  5-MIN KAAT 091325Z AUTO 00000KT 10SM BKN032 OVC039 04/02 A3010 4210 89 3900 000/00 RMK AO2 T00390022 TSNO
94299KAAT AAT20161209053012412/09/16 05:30:31  5-MIN KAAT 091330Z AUTO 00000KT 10SM BKN032 OVC041 04/02 A3010 4210 89 3900 000/00 RMK AO2 T00390022 TSNO
94299KAAT AAT20161209053512412/09/16 05:35:31  5-MIN KAAT 091335Z AUTO 00000KT 10SM BKN034 OVC044 03/02 A3010 4220 92 3800 000/00 RMK AO2 T00280017 TSNO
94299KAAT AAT20161209054012412/09/16 05:40:31  5-MIN KAAT 091340Z AUTO 20003KT 10SM BKN034 OVC044 03/02 A3010 4220 92 3800 190/03 RMK AO2 T00280017 TSNO
94299KAAT AAT20161209054511712/09/16 05:45:31  5-MIN KAAT 091345Z AUTO 21004KT 10SM OVC034 03/02 A3010 4220 92 3800 200/04 RMK AO2 T00280017 TSNO
94299KAAT AAT20161209055013112/09/16 05:50:31  5-MIN KAAT 091350Z AUTO 19005KT 10SM BKN034 OVC044 03/02 A3010 4220 92 3800 180/05 RMK AO2 SLP201 T00280017 TSNO
94299KAAT AAT20161209055513112/09/16 05:55:31  5-MIN KAAT 091355Z AUTO 22004KT 10SM BKN034 OVC044 03/02 A3010 4220 92 3800 200/04 RMK AO2 SLP200 T00280017 TSNO
94299KAAT AAT20161209060012412/09/16 06:00:31  5-MIN KAAT 091400Z AUTO 20006KT 10SM BKN034 OVC041 04/02 A3010 4220 89 3900 180/06 RMK AO2 T00390022 TSNO
94299KAAT AAT20161209060514012/09/16 06:05:31  5-MIN KAAT 091405Z AUTO 19006KT 10SM -RA BKN033 OVC120 04/02 A3009 4220 89 3900 170/06 RMK AO2 RAB01 P0000 T00390022 TSNO
94299KAAT AAT20161209061014712/09/16 06:10:31  5-MIN KAAT 091410Z AUTO 21004KT 10SM -RA SCT030 BKN035 OVC120 04/02 A3009 4220 89 3900 200/04 RMK AO2 RAB01 P0000 T00390022 TSNO
94299KAAT AAT20161209061513912/09/16 06:15:31  5-MIN KAAT 091415Z AUTO VRB04KT 10SM BKN033 OVC120 03/02 A3010 4220 92 3900 VRB/04 RMK AO2 RAB01E13 P0000 T00330022 TSNO
94299KAAT AAT20161209062014612/09/16 06:20:31  5-MIN KAAT 091420Z AUTO 20004KT 10SM BKN031 BKN038 OVC120 03/02 A3010 4220 92 3800 180/04 RMK AO2 RAB01E13 P0000 T00280017 TSNO
94299KAAT AAT20161209062513912/09/16 06:25:31  5-MIN KAAT 091425Z AUTO 19004KT 10SM BKN031 OVC110 03/02 A3010 4220 92 3900 180/04 RMK AO2 RAB01E13 P0000 T00330022 TSNO
94299KAAT AAT20161209063013912/09/16 06:30:31  5-MIN KAAT 091430Z AUTO VRB03KT 10SM BKN033 OVC110 03/02 A3010 4220 89 3900 VRB/03 RMK AO2 RAB01E13 P0000 T00330017 TSNO
94299KAAT AAT20161209063513612/09/16 06:35:31  5-MIN KAAT 091435Z AUTO 10SM BKN033 BKN039 OVC110 03/02 A3010 4220 89 3900 M /M RMK AO2 RAB01E13 P0000 T00330017 TSNO
94299KAAT AAT20161209064012912/09/16 06:40:31  5-MIN KAAT 091440Z AUTO 10SM BKN033 OVC100 03/02 A3010 4220 92 3900 M /M RMK AO2 RAB01E13 P0000 T00330022 TSNO
94299KAAT AAT20161209064513912/09/16 06:45:31  5-MIN KAAT 091445Z AUTO 24003KT 10SM BKN033 OVC100 04/02 A3010 4220 89 3900 230/03 RMK AO2 RAB01E13 P0000 T00390022 TSNO
94299KAAT AAT20161209065015812/09/16 06:50:31  5-MIN KAAT 091450Z AUTO 21003KT 10SM BKN032 OVC041 04/02 A3010 4220 89 3900 190/03 RMK AO2 RAB01E13 SLP199 P0000 60000 T00390022 50004 TSNO
94299KAAT AAT20161209065515812/09/16 06:55:31  5-MIN KAAT 091455Z AUTO 21004KT 10SM BKN032 OVC041 04/02 A3010 4220 89 3900 190/04 RMK AO2 RAB01E13 SLP199 P0000 60000 T00390022 55001 TSNO
94299KAAT AAT20161209070011712/09/16 07:00:31  5-MIN KAAT 091500Z AUTO 20005KT 10SM OVC032 04/02 A3010 4220 89 3900 180/05 RMK AO2 T00390022 TSNO
94299KAAT AAT20161209070511712/09/16 07:05:31  5-MIN KAAT 091505Z AUTO 19006KT 10SM OVC032 04/02 A3010 4220 89 3900 170/06 RMK AO2 T00390022 TSNO
94299KAAT AAT20161209071011712/09/16 07:10:31  5-MIN KAAT 091510Z AUTO 00000KT 10SM OVC032 03/02 A3010 4220 89 3900 000/00 RMK AO2 T00330017 TSNO
94299KAAT AAT20161209071511712/09/16 07:15:31  5-MIN KAAT 091515Z AUTO 18004KT 10SM OVC034 03/02 A3010 4220 89 3900 170/04 RMK AO2 T00330017 TSNO
94299KAAT AAT20161209072011712/09/16 07:20:31  5-MIN KAAT 091520Z AUTO 20004KT 10SM OVC034 04/02 A3010 4220 85 4000 180/04 RMK AO2 T00440022 TSNO
94299KAAT AAT20161209072511712/09/16 07:25:31  5-MIN KAAT 091525Z AUTO 21004KT 10SM OVC034 04/02 A3010 4220 85 4000 190/04 RMK AO2 T00440022 TSNO
94299KAAT AAT20161209073011712/09/16 07:30:31  5-MIN KAAT 091530Z AUTO 00000KT 10SM OVC034 04/02 A3010 4220 89 3900 000/00 RMK AO2 T00390022 TSNO
94299KAAT AAT20161209073512412/09/16 07:35:31  5-MIN KAAT 091535Z AUTO 27003KT 10SM BKN032 OVC039 03/02 A3010 4210 92 3900 260/03 RMK AO2 T00330022 TSNO
94299KAAT AAT20161209074012412/09/16 07:40:31  5-MIN KAAT 091540Z AUTO 00000KT 10SM BKN032 OVC039 03/02 A3010 4220 89 3900 000/00 RMK AO2 T00330017 TSNO
94299KAAT AAT20161209074512412/09/16 07:45:31  5-MIN KAAT 091545Z AUTO 30003KT 10SM BKN032 OVC039 03/02 A3010 4210 89 3900 290/03 RMK AO2 T00330017 TSNO
94299KAAT AAT20161209075013112/09/16 07:50:31  5-MIN KAAT 091550Z AUTO 28004KT 10SM BKN032 OVC038 03/02 A3010 4210 92 3800 260/04 RMK AO2 SLP203 T00280017 TSNO
94299KAAT AAT20161209075513112/09/16 07:55:31  5-MIN KAAT 091555Z AUTO 00000KT 10SM BKN030 OVC036 03/02 A3010 4210 92 3800 000/00 RMK AO2 SLP202 T00280017 TSNO
94299KAAT AAT20161209080012412/09/16 08:00:31  5-MIN KAAT 091600Z AUTO 27003KT 10SM BKN030 OVC036 03/02 A3011 4210 89 3900 250/03 RMK AO2 T00330017 TSNO
94299KAAT AAT20161209080511712/09/16 08:05:31  5-MIN KAAT 091605Z AUTO 33003KT 10SM OVC032 03/02 A3011 4210 89 3800 310/03 RMK AO2 T00330017 TSNO
94299KAAT AAT20161209081012412/09/16 08:10:31  5-MIN KAAT 091610Z AUTO 34003KT 10SM BKN030 OVC036 03/02 A3010 4210 92 3900 320/03 RMK AO2 T00330022 TSNO
94299KAAT AAT20161209081511712/09/16 08:15:31  5-MIN KAAT 091615Z AUTO 30003KT 10SM OVC030 03/02 A3011 4210 92 3800 280/03 RMK AO2 T00330022 TSNO
94299KAAT AAT20161209082012412/09/16 08:20:31  5-MIN KAAT 091620Z AUTO 00000KT 10SM BKN032 OVC041 03/02 A3011 4210 92 3800 000/00 RMK AO2 T00330022 TSNO
94299KAAT AAT20161209082512412/09/16 08:25:31  5-MIN KAAT 091625Z AUTO 00000KT 10SM BKN032 OVC041 04/02 A3011 4210 89 3900 000/00 RMK AO2 T00390022 TSNO
94299KAAT AAT20161209083012412/09/16 08:30:31  5-MIN KAAT 091630Z AUTO 25004KT 10SM BKN034 OVC041 04/03 A3010 4210 92 3900 230/04 RMK AO2 T00390028 TSNO
94299KAAT AAT20161209083512412/09/16 08:35:31  5-MIN KAAT 091635Z AUTO 26004KT 10SM BKN034 OVC042 04/03 A3011 4210 92 3900 240/04 RMK AO2 T00390028 TSNO
94299KAAT AAT20161209084012412/09/16 08:40:31  5-MIN KAAT 091640Z AUTO 00000KT 10SM BKN037 OVC048 04/02 A3011 4210 89 3900 000/00 RMK AO2 T00390022 TSNO
94299KAAT AAT20161209084512412/09/16 08:45:31  5-MIN KAAT 091645Z AUTO 00000KT 10SM BKN037 OVC046 04/02 A3011 4210 89 3900 000/00 RMK AO2 T00390022 TSNO
94299KAAT AAT20161209085013112/09/16 08:50:31  5-MIN KAAT 091650Z AUTO 00000KT 10SM BKN037 OVC046 04/03 A3011 4210 92 3900 000/00 RMK AO2 SLP203 T00390028 TSNO
94299KAAT AAT20161209085513112/09/16 08:55:31  5-MIN KAAT 091655Z AUTO 00000KT 10SM BKN037 OVC046 04/03 A3011 4210 89 4000 000/00 RMK AO2 SLP202 T00440028 TSNO
94299KAAT AAT20161209090012412/09/16 09:00:31  5-MIN KAAT 091700Z AUTO 31003KT 10SM BKN037 OVC045 04/02 A3011 4200 89 3900 300/03 RMK AO2 T00390022 TSNO
94299KAAT AAT20161209090512412/09/16 09:05:31  5-MIN KAAT 091705Z AUTO 00000KT 10SM BKN037 OVC045 04/03 A3011 4200 89 4000 000/00 RMK AO2 T00440028 TSNO
94299KAAT AAT20161209091012412/09/16 09:10:31  5-MIN KAAT 091710Z AUTO 32003KT 10SM BKN037 OVC047 05/03 A3011 4200 85 4000 300/03 RMK AO2 T00500028 TSNO
94299KAAT AAT20161209091512412/09/16 09:15:31  5-MIN KAAT 091715Z AUTO 00000KT 10SM BKN037 OVC048 04/03 A3011 4210 89 4000 000/00 RMK AO2 T00440028 TSNO
94299KAAT AAT20161209092012412/09/16 09:20:31  5-MIN KAAT 091720Z AUTO 26004KT 10SM BKN037 OVC045 04/03 A3011 4210 89 4000 240/04 RMK AO2 T00440028 TSNO
94299KAAT AAT20161209092513112/09/16 09:25:31  5-MIN KAAT 091725Z AUTO 22004KT 10SM FEW032 BKN041 OVC049 04/03 A3011 4210 89 4000 200/04 RMK AO2 T00440028 TSNO
94299KAAT AAT20161209093012412/09/16 09:30:31  5-MIN KAAT 091730Z AUTO 19006KT 10SM BKN038 OVC047 05/03 A3011 4210 85 4000 180/06 RMK AO2 T00500028 TSNO
94299KAAT AAT20161209093512412/09/16 09:35:31  5-MIN KAAT 091735Z AUTO 20004KT 10SM BKN040 OVC047 06/03 A3010 4210 82 4100 180/04 RMK AO2 T00560028 TSNO
94299KAAT AAT20161209094012412/09/16 09:40:31  5-MIN KAAT 091740Z AUTO 19008KT 10SM BKN040 OVC047 06/03 A3010 4210 79 4200 170/08 RMK AO2 T00610028 TSNO
94299KAAT AAT20161209094512412/09/16 09:45:31  5-MIN KAAT 091745Z AUTO 18008KT 10SM BKN040 OVC047 07/03 A3010 4210 76 4300 170/08 RMK AO2 T00670028 TSNO
94299KAAT AAT20161209095014812/09/16 09:50:31  5-MIN KAAT 091750Z AUTO 19007KT 10SM OVC040 07/03 A3011 4210 76 4200 170/07 RMK AO2 SLP198 60000 T00670028 10067 20028 55001 TSNO
94299KAAT AAT20161209095515512/09/16 09:55:31  5-MIN KAAT 091755Z AUTO 19007KT 10SM BKN040 OVC050 07/03 A3011 4210 76 4200 170/07 RMK AO2 SLP198 60000 T00670028 10067 20028 51004 TSNO
94299KAAT AAT20161209100012412/09/16 10:00:31  5-MIN KAAT 091800Z AUTO 19006KT 10SM BKN042 OVC048 07/03 A3011 4210 73 4300 180/06 RMK AO2 T00720028 TSNO
94299KAAT AAT20161209100512412/09/16 10:05:31  5-MIN KAAT 091805Z AUTO 19007KT 10SM BKN042 OVC048 07/03 A3011 4210 73 4300 180/07 RMK AO2 T00720028 TSNO
94299KAAT AAT20161209101012412/09/16 10:10:31  5-MIN KAAT 091810Z AUTO 19005KT 10SM BKN040 OVC048 07/03 A3011 4210 73 4300 180/05 RMK AO2 T00720028 TSNO
94299KAAT AAT20161209101512412/09/16 10:15:31  5-MIN KAAT 091815Z AUTO 23004KT 10SM BKN042 OVC050 07/03 A3011 4200 73 4300 220/04 RMK AO2 T00720028 TSNO
94299KAAT AAT20161209102012412/09/16 10:20:31  5-MIN KAAT 091820Z AUTO 00000KT 10SM BKN042 BKN050 07/03 A3011 4200 76 4300 000/00 RMK AO2 T00720033 TSNO
94299KAAT AAT20161209102512412/09/16 10:25:31  5-MIN KAAT 091825Z AUTO VRB05KT 10SM BKN042 BKN050 07/03 A3012 4200 76 4300 VRB/05 RMK AO2 T00720033 TSNO
94299KAAT AAT20161209103012412/09/16 10:30:31  5-MIN KAAT 091830Z AUTO 23006KT 10SM SCT037 BKN046 07/03 A3011 4200 79 4200 220/06 RMK AO2 T00670033 TSNO
94299KAAT AAT20161209103512412/09/16 10:35:31  5-MIN KAAT 091835Z AUTO 21007KT 10SM BKN039 BKN048 07/03 A3011 4200 79 4200 200/07 RMK AO2 T00670033 TSNO
94299KAAT AAT20161209104012412/09/16 10:40:31  5-MIN KAAT 091840Z AUTO 22006KT 10SM BKN039 BKN048 07/03 A3011 4200 76 4300 200/06 RMK AO2 T00720033 TSNO
94299KAAT AAT20161209104512412/09/16 10:45:31  5-MIN KAAT 091845Z AUTO 23006KT 10SM BKN039 BKN048 07/03 A3012 4200 76 4300 210/06 RMK AO2 T00720033 TSNO
94299KAAT AAT20161209105013112/09/16 10:50:31  5-MIN KAAT 091850Z AUTO 22006KT 10SM BKN039 OVC046 07/03 A3012 4200 76 4300 210/06 RMK AO2 SLP201 T00720033 TSNO
94299KAAT AAT20161209105512412/09/16 10:55:31  5-MIN KAAT 091855Z AUTO 22005KT 10SM OVC037 08/03 A3012 4200 73 4400 200/05 RMK AO2 SLP199 T00780033 TSNO
94299KAAT AAT20161209110012412/09/16 11:00:31  5-MIN KAAT 091900Z AUTO 23004KT 10SM BKN035 OVC043 08/03 A3012 4190 73 4400 220/04 RMK AO2 T00780033 TSNO
94299KAAT AAT20161209110512412/09/16 11:05:31  5-MIN KAAT 091905Z AUTO 29003KT 10SM BKN034 OVC043 07/03 A3012 4200 76 4300 280/03 RMK AO2 T00720033 TSNO
94299KAAT AAT20161209111012412/09/16 11:10:31  5-MIN KAAT 091910Z AUTO 00000KT 10SM BKN036 OVC044 07/03 A3012 4200 76 4300 000/00 RMK AO2 T00720033 TSNO
94299KAAT AAT20161209111512412/09/16 11:15:31  5-MIN KAAT 091915Z AUTO 00000KT 10SM BKN036 OVC044 08/04 A3012 4200 76 4400 000/00 RMK AO2 T00780039 TSNO
94299KAAT AAT20161209112012412/09/16 11:20:31  5-MIN KAAT 091920Z AUTO 24005KT 10SM BKN036 OVC045 08/03 A3012 4200 70 4400 230/05 RMK AO2 T00830033 TSNO
94299KAAT AAT20161209112512412/09/16 11:25:31  5-MIN KAAT 091925Z AUTO VRB05KT 10SM BKN036 OVC045 08/03 A3011 4210 73 4400 VRB/05 RMK AO2 T00780033 TSNO
94299KAAT AAT20161209113012412/09/16 11:30:31  5-MIN KAAT 091930Z AUTO 19006KT 10SM BKN036 OVC045 08/03 A3010 4210 70 4400 170/06 RMK AO2 T00830033 TSNO
94299KAAT AAT20161209113512412/09/16 11:35:31  5-MIN KAAT 091935Z AUTO 20005KT 10SM BKN038 OVC045 08/03 A3010 4210 70 4400 180/05 RMK AO2 T00830033 TSNO
94299KAAT AAT20161209114012412/09/16 11:40:31  5-MIN KAAT 091940Z AUTO VRB03KT 10SM BKN038 OVC045 08/03 A3010 4220 70 4500 VRB/03 RMK AO2 T00830033 TSNO
94299KAAT AAT20161209114512412/09/16 11:45:31  5-MIN KAAT 091945Z AUTO 19007KT 10SM BKN038 OVC048 08/03 A3009 4230 70 4500 180/07 RMK AO2 T00830033 TSNO
94299KAAT AAT20161209115013712/09/16 11:50:31  5-MIN KAAT 091950Z AUTO 20007G17KT 10SM BKN036 BKN047 08/03 A3009 4220 70 4500 180/07G17 RMK AO2 SLP189 T00830033 TSNO
94299KAAT AAT20161209115513712/09/16 11:55:31  5-MIN KAAT 091955Z AUTO 21012G17KT 10SM BKN038 OVC047 08/03 A3009 4230 70 4500 190/12G17 RMK AO2 SLP188 T00830033 TSNO
94299KAAT AAT20161209120013012/09/16 12:00:31  5-MIN KAAT 092000Z AUTO 21009G17KT 10SM BKN040 BKN047 08/03 A3008 4230 70 4500 190/09G17 RMK AO2 T00830033 TSNO
94299KAAT AAT20161209120512412/09/16 12:05:31  5-MIN KAAT 092005Z AUTO 21009KT 10SM SCT040 BKN047 08/03 A3008 4240 70 4500 200/09 RMK AO2 T00830033 TSNO
94299KAAT AAT20161209121012412/09/16 12:10:31  5-MIN KAAT 092010Z AUTO 20012KT 10SM SCT040 BKN047 08/03 A3007 4240 70 4500 190/12 RMK AO2 T00830033 TSNO
94299KAAT AAT20161209121512412/09/16 12:15:31  5-MIN KAAT 092015Z AUTO 20010KT 10SM SCT040 SCT050 08/03 A3007 4240 70 4500 190/10 RMK AO2 T00830033 TSNO
94299KAAT AAT20161209122011712/09/16 12:20:31  5-MIN KAAT 092020Z AUTO 20013KT 10SM SCT042 08/04 A3006 4250 73 4500 180/13 RMK AO2 T00830039 TSNO
94299KAAT AAT20161209122512412/09/16 12:25:31  5-MIN KAAT 092025Z AUTO 20010KT 10SM FEW037 FEW047 08/03 A3006 4250 70 4500 190/10 RMK AO2 T00830033 TSNO
94299KAAT AAT20161209123011712/09/16 12:30:31  5-MIN KAAT 092030Z AUTO 21008KT 10SM FEW042 09/04 A3006 4250 71 4600 190/08 RMK AO2 T00890039 TSNO
94299KAAT AAT20161209123511712/09/16 12:35:31  5-MIN KAAT 092035Z AUTO 22010KT 10SM FEW044 09/04 A3007 4250 71 4600 200/10 RMK AO2 T00890039 TSNO
94299KAAT AAT20161209124011712/09/16 12:40:31  5-MIN KAAT 092040Z AUTO 21011KT 10SM FEW044 09/04 A3006 4260 71 4600 200/11 RMK AO2 T00890039 TSNO
94299KAAT AAT20161209124511712/09/16 12:45:31  5-MIN KAAT 092045Z AUTO 21010KT 10SM FEW044 09/03 A3005 4260 68 4600 200/10 RMK AO2 T00890033 TSNO
94299KAAT AAT20161209125013012/09/16 12:50:31  5-MIN KAAT 092050Z AUTO 22010KT 10SM FEW044 08/03 A3005 4260 70 4500 210/10 RMK AO2 SLP173 T00830033 51004 TSNO
94299KAAT AAT20161209125513012/09/16 12:55:31  5-MIN KAAT 092055Z AUTO 21009KT 10SM FEW045 08/03 A3004 4270 70 4500 200/09 RMK AO2 SLP170 T00830033 58020 TSNO
94299KAAT AAT20161209130011712/09/16 13:00:31  5-MIN KAAT 092100Z AUTO 22008KT 10SM FEW045 08/03 A3004 4270 70 4500 210/08 RMK AO2 T00830033 TSNO
94299KAAT AAT20161209130511412/09/16 13:05:31  5-MIN KAAT 092105Z AUTO 22008KT 10SM CLR 08/03 A3004 4270 70 4500 200/08 RMK AO2 T00830033 TSNO
94299KAAT AAT20161209131011412/09/16 13:10:31  5-MIN KAAT 092110Z AUTO 22010KT 10SM CLR 08/03 A3005 4260 70 4500 200/10 RMK AO2 T00830033 TSNO
94299KAAT AAT20161209131511412/09/16 13:15:31  5-MIN KAAT 092115Z AUTO 21009KT 10SM CLR 08/03 A3004 4270 70 4500 200/09 RMK AO2 T00830033 TSNO
94299KAAT AAT20161209132011412/09/16 13:20:31  5-MIN KAAT 092120Z AUTO 24007KT 10SM CLR 08/03 A3005 4260 70 4500 220/07 RMK AO2 T00830033 TSNO
94299KAAT AAT20161209132511412/09/16 13:25:31  5-MIN KAAT 092125Z AUTO 24006KT 10SM CLR 08/03 A3005 4260 70 4500 220/06 RMK AO2 T00830033 TSNO
94299KAAT AAT20161209133011412/09/16 13:30:31  5-MIN KAAT 092130Z AUTO 26007KT 10SM CLR 08/03 A3005 4260 70 4500 240/07 RMK AO2 T00830033 TSNO
94299KAAT AAT20161209133511712/09/16 13:35:31  5-MIN KAAT 092135Z AUTO 25007KT 10SM FEW075 08/03 A3005 4260 68 4500 240/07 RMK AO2 T00830028 TSNO
94299KAAT AAT20161209134011712/09/16 13:40:31  5-MIN KAAT 092140Z AUTO 26006KT 10SM FEW075 08/03 A3005 4270 68 4500 240/06 RMK AO2 T00830028 TSNO
94299KAAT AAT20161209134511712/09/16 13:45:31  5-MIN KAAT 092145Z AUTO 25009KT 10SM FEW075 09/03 A3005 4260 65 4600 230/09 RMK AO2 T00890028 TSNO
94299KAAT AAT20161209135012412/09/16 13:50:31  5-MIN KAAT 092150Z AUTO 25008KT 10SM SCT075 09/03 A3006 4260 65 4600 240/08 RMK AO2 SLP175 T00890028 TSNO
94299KAAT AAT20161209135513012/09/16 13:55:31  5-MIN KAAT 092155Z AUTO 24014G18KT 10SM BKN080 09/02 A3005 4260 63 4600 230/14G18 RMK AO2 SLP174 T00890022 TSNO
94299KAAT AAT20161209140012412/09/16 14:00:31  5-MIN KAAT 092200Z AUTO 24016KT 10SM BKN080 BKN120 09/02 A3005 4260 63 4600 220/16 RMK AO2 T00890022 TSNO
94299KAAT AAT20161209140512412/09/16 14:05:31  5-MIN KAAT 092205Z AUTO 24013KT 10SM BKN080 BKN120 09/02 A3006 4250 63 4600 230/13 RMK AO2 T00890022 TSNO
94299KAAT AAT20161209141012412/09/16 14:10:31  5-MIN KAAT 092210Z AUTO 23011KT 10SM BKN080 BKN120 09/02 A3005 4260 63 4600 220/11 RMK AO2 T00890022 TSNO
94299KAAT AAT20161209141512412/09/16 14:15:31  5-MIN KAAT 092215Z AUTO 23011KT 10SM BKN080 OVC120 08/02 A3005 4270 65 4500 220/11 RMK AO2 T00830022 TSNO
94299KAAT AAT20161209142012412/09/16 14:20:31  5-MIN KAAT 092220Z AUTO 22011KT 10SM BKN080 BKN120 08/02 A3004 4270 65 4500 210/11 RMK AO2 T00830022 TSNO
94299KAAT AAT20161209142512412/09/16 14:25:31  5-MIN KAAT 092225Z AUTO 21010KT 10SM SCT080 BKN120 08/03 A3004 4270 68 4500 200/10 RMK AO2 T00830028 TSNO
94299KAAT AAT20161209143012412/09/16 14:30:31  5-MIN KAAT 092230Z AUTO 23010KT 10SM SCT080 SCT120 08/03 A3005 4260 68 4500 220/10 RMK AO2 T00830028 TSNO
94299KAAT AAT20161209143513112/09/16 14:35:31  5-MIN KAAT 092235Z AUTO 23009KT 10SM FEW040 SCT080 SCT120 08/03 A3005 4260 68 4500 220/09 RMK AO2 T00830028 TSNO
94299KAAT AAT20161209144013112/09/16 14:40:31  5-MIN KAAT 092240Z AUTO 22009KT 10SM FEW042 FEW075 BKN120 08/03 A3004 4270 68 4500 210/09 RMK AO2 T00830028 TSNO
94299KAAT AAT20161209144512412/09/16 14:45:31  5-MIN KAAT 092245Z AUTO 23008KT 10SM FEW042 SCT120 08/03 A3005 4260 68 4500 220/08 RMK AO2 T00830028 TSNO
94299KAAT AAT20161209145013112/09/16 14:50:31  5-MIN KAAT 092250Z AUTO 23007KT 10SM FEW042 FEW120 08/03 A3005 4260 68 4500 210/07 RMK AO2 SLP170 T00830028 TSNO
94299KAAT AAT20161209145513112/09/16 14:55:31  5-MIN KAAT 092255Z AUTO 23008KT 10SM FEW037 SCT120 09/03 A3005 4260 65 4600 220/08 RMK AO2 SLP172 T00890028 TSNO
94299KAAT AAT20161209150012412/09/16 15:00:31  5-MIN KAAT 092300Z AUTO 23010KT 10SM SCT040 SCT120 09/03 A3005 4260 65 4600 220/10 RMK AO2 T00940033 TSNO
94299KAAT AAT20161209150513012/09/16 15:05:31  5-MIN KAAT 092305Z AUTO 23012G18KT 10SM SCT042 SCT120 09/03 A3005 4260 63 4600 220/12G18 RMK AO2 T00940028 TSNO
94299KAAT AAT20161209151012312/09/16 15:10:31  5-MIN KAAT 092310Z AUTO 22013G18KT 10SM FEW040 09/02 A3005 4260 63 4600 210/13G18 RMK AO2 T00890022 TSNO
94299KAAT AAT20161209151511712/09/16 15:15:31  5-MIN KAAT 092315Z AUTO 22013KT 10SM FEW040 09/02 A3005 4260 63 4600 210/13 RMK AO2 T00890022 TSNO
94299KAAT AAT20161209152011712/09/16 15:20:31  5-MIN KAAT 092320Z AUTO 22012KT 10SM FEW044 08/02 A3005 4260 65 4500 210/12 RMK AO2 T00830022 TSNO
94299KAAT AAT20161209152511712/09/16 15:25:31  5-MIN KAAT 092325Z AUTO 22012KT 10SM FEW042 08/02 A3004 4270 65 4500 200/12 RMK AO2 T00830022 TSNO
94299KAAT AAT20161209153012412/09/16 15:30:31  5-MIN KAAT 092330Z AUTO 22009KT 10SM FEW037 SCT048 08/02 A3003 4280 65 4500 200/09 RMK AO2 T00830022 TSNO
94299KAAT AAT20161209153512412/09/16 15:35:31  5-MIN KAAT 092335Z AUTO 21011KT 10SM FEW037 SCT048 08/03 A3003 4280 68 4500 200/11 RMK AO2 T00830028 TSNO
94299KAAT AAT20161209154012412/09/16 15:40:31  5-MIN KAAT 092340Z AUTO 22010KT 10SM SCT041 SCT049 08/03 A3003 4280 70 4500 200/10 RMK AO2 T00780028 TSNO
94299KAAT AAT20161209154512412/09/16 15:45:31  5-MIN KAAT 092345Z AUTO 22009KT 10SM FEW041 SCT049 08/03 A3004 4280 70 4500 210/09 RMK AO2 T00780028 TSNO
94299KAAT AAT20161209155014912/09/16 15:50:31  5-MIN KAAT 092350Z AUTO 25008KT 10SM FEW041 SCT049 08/03 A3004 4270 70 4500 230/08 RMK AO2 SLP168 T00780028 10094 20067 58020 TSNO
94299KAAT AAT20161209155514912/09/16 15:55:31  5-MIN KAAT 092355Z AUTO 25007KT 10SM FEW041 FEW049 07/03 A3004 4270 73 4400 240/07 RMK AO2 SLP170 T00720028 10094 20067 58002 TSNO
94299KAAT AAT20161209160011712/09/16 16:00:31  5-MIN KAAT 100000Z AUTO 24007KT 10SM FEW041 07/03 A3003 4280 73 4400 220/07 RMK AO2 T00720028 TSNO
94299KAAT AAT20161209160511712/09/16 16:05:31  5-MIN KAAT 100005Z AUTO 24008KT 10SM FEW041 07/03 A3003 4280 73 4400 230/08 RMK AO2 T00720028 TSNO
94299KAAT AAT20161209161011412/09/16 16:10:31  5-MIN KAAT 100010Z AUTO 23008KT 10SM CLR 07/03 A3003 4280 76 4300 210/08 RMK AO2 T00670028 TSNO
94299KAAT AAT20161209161511712/09/16 16:15:31  5-MIN KAAT 100015Z AUTO 23007KT 10SM FEW120 07/02 A3003 4280 73 4300 210/07 RMK AO2 T00670022 TSNO
94299KAAT AAT20161209162011712/09/16 16:20:31  5-MIN KAAT 100020Z AUTO 24007KT 10SM SCT110 07/02 A3003 4280 73 4300 220/07 RMK AO2 T00670022 TSNO
94299KAAT AAT20161209162511712/09/16 16:25:31  5-MIN KAAT 100025Z AUTO 24007KT 10SM BKN110 07/02 A3003 4280 73 4300 220/07 RMK AO2 T00670022 TSNO
94299KAAT AAT20161209163011712/09/16 16:30:31  5-MIN KAAT 100030Z AUTO 24006KT 10SM BKN110 07/03 A3002 4280 76 4300 230/06 RMK AO2 T00670028 TSNO
94299KAAT AAT20161209163511712/09/16 16:35:31  5-MIN KAAT 100035Z AUTO 22004KT 10SM BKN110 06/02 A3002 4290 76 4300 210/04 RMK AO2 T00610022 TSNO
94299KAAT AAT20161209164011712/09/16 16:40:31  5-MIN KAAT 100040Z AUTO 23006KT 10SM BKN110 06/02 A3002 4290 76 4300 210/06 RMK AO2 T00610022 TSNO
94299KAAT AAT20161209164511712/09/16 16:45:31  5-MIN KAAT 100045Z AUTO 21008KT 10SM SCT110 07/02 A3002 4290 73 4300 200/08 RMK AO2 T00670022 TSNO
94299KAAT AAT20161209165012412/09/16 16:50:31  5-MIN KAAT 100050Z AUTO 22011KT 10SM SCT110 07/02 A3001 4300 70 4400 210/11 RMK AO2 SLP160 T00720022 TSNO
94299KAAT AAT20161209165512412/09/16 16:55:31  5-MIN KAAT 100055Z AUTO 23009KT 10SM SCT120 07/02 A3001 4300 70 4400 210/09 RMK AO2 SLP161 T00720022 TSNO
94299KAAT AAT20161209170011712/09/16 17:00:31  5-MIN KAAT 100100Z AUTO 22010KT 10SM SCT120 07/02 A3001 4300 70 4400 210/10 RMK AO2 T00720022 TSNO
94299KAAT AAT20161209170511712/09/16 17:05:31  5-MIN KAAT 100105Z AUTO 21007KT 10SM BKN120 07/02 A3001 4300 70 4400 200/07 RMK AO2 T00720022 TSNO
94299KAAT AAT20161209171011712/09/16 17:10:31  5-MIN KAAT 100110Z AUTO 21007KT 10SM BKN120 07/02 A3001 4300 73 4400 200/07 RMK AO2 T00670022 TSNO
94299KAAT AAT20161209171511712/09/16 17:15:31  5-MIN KAAT 100115Z AUTO 21007KT 10SM BKN110 07/02 A3000 4300 73 4400 190/07 RMK AO2 T00670022 TSNO
94299KAAT AAT20161209172011712/09/16 17:20:31  5-MIN KAAT 100120Z AUTO 21008KT 10SM BKN110 07/02 A3001 4300 73 4400 200/08 RMK AO2 T00670022 TSNO
94299KAAT AAT20161209172512412/09/16 17:25:31  5-MIN KAAT 100125Z AUTO 22006KT 10SM FEW060 BKN120 07/02 A3001 4300 73 4400 200/06 RMK AO2 T00670022 TSNO
94299KAAT AAT20161209173012412/09/16 17:30:31  5-MIN KAAT 100130Z AUTO 22006KT 10SM FEW065 BKN120 07/02 A3001 4300 73 4400 210/06 RMK AO2 T00670022 TSNO
94299KAAT AAT20161209173512412/09/16 17:35:31  5-MIN KAAT 100135Z AUTO 22006KT 10SM SCT060 BKN120 07/02 A3001 4300 73 4400 210/06 RMK AO2 T00670022 TSNO
94299KAAT AAT20161209174013112/09/16 17:40:31  5-MIN KAAT 100140Z AUTO 22008KT 10SM FEW035 BKN060 OVC110 07/02 A3001 4290 73 4400 210/08 RMK AO2 T00670022 TSNO
94299KAAT AAT20161209174513112/09/16 17:45:31  5-MIN KAAT 100145Z AUTO 21007KT 10SM FEW035 BKN060 OVC120 07/02 A3001 4300 73 4400 190/07 RMK AO2 T00670022 TSNO
94299KAAT AAT20161209175013112/09/16 17:50:31  5-MIN KAAT 100150Z AUTO 22007KT 10SM BKN060 BKN120 07/02 A3001 4300 70 4400 210/07 RMK AO2 SLP163 T00720022 TSNO
94299KAAT AAT20161209175513112/09/16 17:55:31  5-MIN KAAT 100155Z AUTO 22007KT 10SM FEW034 OVC060 07/02 A3001 4300 73 4400 210/07 RMK AO2 SLP163 T00670022 TSNO
94299KAAT AAT20161209180012412/09/16 18:00:31  5-MIN KAAT 100200Z AUTO 21007KT 10SM FEW034 OVC055 07/02 A3001 4300 73 4400 190/07 RMK AO2 T00670022 TSNO
94299KAAT AAT20161209180512412/09/16 18:05:31  5-MIN KAAT 100205Z AUTO 20008KT 10SM FEW035 OVC055 07/02 A3000 4310 73 4400 190/08 RMK AO2 T00670022 TSNO
94299KAAT AAT20161209181012412/09/16 18:10:31  5-MIN KAAT 100210Z AUTO 19007KT 10SM FEW035 OVC055 07/02 A3000 4300 70 4400 180/07 RMK AO2 T00720022 TSNO
94299KAAT AAT20161209181512412/09/16 18:15:31  5-MIN KAAT 100215Z AUTO 19008KT 10SM FEW035 OVC055 07/02 A3000 4310 70 4400 180/08 RMK AO2 T00720022 TSNO
94299KAAT AAT20161209182012412/09/16 18:20:31  5-MIN KAAT 100220Z AUTO 20008KT 10SM SCT035 OVC055 07/02 A2999 4310 73 4400 180/08 RMK AO2 T00670022 TSNO
94299KAAT AAT20161209182513112/09/16 18:25:31  5-MIN KAAT 100225Z AUTO 19009KT 10SM SCT035 BKN055 OVC110 07/02 A3000 4310 73 4400 180/09 RMK AO2 T00670022 TSNO
94299KAAT AAT20161209183013112/09/16 18:30:31  5-MIN KAAT 100230Z AUTO 18007KT 10SM FEW035 BKN055 OVC085 07/02 A3000 4310 70 4400 160/07 RMK AO2 T00720022 TSNO
94299KAAT AAT20161209183513112/09/16 18:35:31  5-MIN KAAT 100235Z AUTO 17007KT 10SM SCT037 BKN055 OVC085 07/02 A3000 4310 73 4400 160/07 RMK AO2 T00670022 TSNO
94299KAAT AAT20161209184013112/09/16 18:40:31  5-MIN KAAT 100240Z AUTO 17006KT 10SM SCT035 BKN050 OVC085 06/02 A3000 4310 76 4300 160/06 RMK AO2 T00610022 TSNO
94299KAAT AAT20161209184513112/09/16 18:45:31  5-MIN KAAT 100245Z AUTO 17006KT 10SM BKN035 BKN055 OVC070 06/02 A3000 4310 76 4300 150/06 RMK AO2 T00610022 TSNO
94299KAAT AAT20161209185016612/09/16 18:50:31  5-MIN KAAT 100250Z AUTO 17007KT 10SM -RA BKN035 BKN050 OVC070 06/02 A2999 4310 76 4300 150/07 RMK AO2 RAB48 SLP157 P0000 60000 T00610022 58002 TSNO
94299KAAT AAT20161209185516612/09/16 18:55:31  5-MIN KAAT 100255Z AUTO 20006KT 10SM -RA SCT033 BKN042 OVC070 06/03 A2999 4310 79 4300 180/06 RMK AO2 RAB48 SLP157 P0000 60000 T00610028 56013 TSNO
94299KAAT AAT20161209190014112/09/16 19:00:31  5-MIN KAAT 100300Z AUTO 20006KT 10SM -RA SCT033 BKN042 OVC050 06/03 A3000 4310 82 4200 180/06 RMK AO2 P0000 T00560028 TSNO
94299KAAT AAT20161209190513612/09/16 19:05:31  5-MIN KAAT 100305Z AUTO 19006KT 10SM BKN033 OVC046 06/03 A3000 4310 79 4300 180/06 RMK AO2 RAE05 P0000 T00610028 TSNO
94299KAAT AAT20161209191013612/09/16 19:10:31  5-MIN KAAT 100310Z AUTO 20006KT 10SM BKN035 OVC046 06/03 A3000 4310 79 4300 180/06 RMK AO2 RAE05 P0000 T00610028 TSNO
94299KAAT AAT20161209191513612/09/16 19:15:31  5-MIN KAAT 100315Z AUTO 21006KT 10SM BKN035 OVC046 06/03 A3000 4310 79 4300 190/06 RMK AO2 RAE05 P0000 T00610028 TSNO
94299KAAT AAT20161209192013612/09/16 19:20:31  5-MIN KAAT 100320Z AUTO 22005KT 10SM BKN035 OVC045 06/03 A3000 4300 79 4300 200/05 RMK AO2 RAE05 P0000 T00610028 TSNO
94299KAAT AAT20161209192514312/09/16 19:25:31  5-MIN KAAT 100325Z AUTO 23006KT 10SM -RA BKN035 OVC046 06/03 A3001 4300 82 4300 210/06 RMK AO2 RAE05B22 P0000 T00610033 TSNO
94299KAAT AAT20161209193014312/09/16 19:30:31  5-MIN KAAT 100330Z AUTO 23008KT 10SM -RA BKN035 OVC044 06/03 A3001 4300 82 4300 220/08 RMK AO2 RAE05B22 P0000 T00610033 TSNO
94299KAAT AAT20161209193514312/09/16 19:35:31  5-MIN KAAT 100335Z AUTO 24007KT 10SM -RA BKN033 OVC041 06/03 A3001 4300 82 4300 220/07 RMK AO2 RAE05B22 P0000 T00610033 TSNO
94299KAAT AAT20161209194014212/09/16 19:40:31  5-MIN KAAT 100340Z AUTO 24006KT 10SM BKN033 OVC041 06/03 A3001 4300 82 4300 230/06 RMK AO2 RAE05B22E38 P0000 T00610033 TSNO
94299KAAT AAT20161209194514212/09/16 19:45:31  5-MIN KAAT 100345Z AUTO 23006KT 10SM BKN033 OVC040 06/03 A3001 4300 82 4300 210/06 RMK AO2 RAE05B22E38 P0000 T00610033 TSNO
94299KAAT AAT20161209195015012/09/16 19:50:31  5-MIN KAAT 100350Z AUTO 22006KT 10SM -RA BKN033 OVC043 06/03 A3000 4310 82 4300 200/06 RMK AO2 RAE05B22 SLP160 P0000 T00610033 TSNO
94299KAAT AAT20161209195515012/09/16 19:55:31  5-MIN KAAT 100355Z AUTO 20005KT 10SM -RA BKN033 OVC046 06/03 A3000 4310 85 4200 180/05 RMK AO2 RAE05B22 SLP159 P0000 T00560033 TSNO
94299KAAT AAT20161209200013412/09/16 20:00:31  5-MIN KAAT 100400Z AUTO 20005KT 10SM -RA BKN033 OVC040 06/03 A3000 4310 85 4200 190/05 RMK AO2 P0000 T00560033 TSNO
94299KAAT AAT20161209200513412/09/16 20:05:31  5-MIN KAAT 100405Z AUTO 20005KT 10SM -RA BKN033 OVC040 05/03 A3000 4310 89 4200 180/05 RMK AO2 P0000 T00500033 TSNO
94299KAAT AAT20161209201013412/09/16 20:10:31  5-MIN KAAT 100410Z AUTO 21004KT 10SM -RA SCT031 OVC038 05/03 A3000 4310 89 4200 200/04 RMK AO2 P0000 T00500033 TSNO
94299KAAT AAT20161209201513412/09/16 20:15:31  5-MIN KAAT 100415Z AUTO 22005KT 10SM -RA BKN033 OVC041 05/04 A3000 4310 92 4200 210/05 RMK AO2 P0000 T00500039 TSNO
94299KAAT AAT20161209202013412/09/16 20:20:31  5-MIN KAAT 100420Z AUTO 24005KT 10SM -RA BKN030 OVC038 05/04 A3000 4310 92 4200 220/05 RMK AO2 P0000 T00500039 TSNO
94299KAAT AAT20161209202513412/09/16 20:25:31  5-MIN KAAT 100425Z AUTO 26005KT 10SM -RA BKN030 OVC038 04/04 A3000 4310 96 4100 240/05 RMK AO2 P0000 T00440039 TSNO
94299KAAT AAT20161209203012712/09/16 20:30:31  5-MIN KAAT 100430Z AUTO 27003KT 10SM -RA OVC030 04/04 A3000 4310 96 4100 260/03 RMK AO2 P0000 T00440039 TSNO
94299KAAT AAT20161209203513412/09/16 20:35:31  5-MIN KAAT 100435Z AUTO 00000KT 10SM -RA BKN028 OVC036 04/04 A3000 4310 96 4100 000/00 RMK AO2 P0001 T00440039 TSNO
94299KAAT AAT20161209204013412/09/16 20:40:31  5-MIN KAAT 100440Z AUTO 29003KT 10SM -RA BKN028 OVC034 04/04 A3000 4310 96 4100 280/03 RMK AO2 P0001 T00440039 TSNO
94299KAAT AAT20161209204512712/09/16 20:45:31  5-MIN KAAT 100445Z AUTO 28003KT 10SM -RA OVC028 04/04 A3000 4310 96 4100 260/03 RMK AO2 P0001 T00440039 TSNO
94299KAAT AAT20161209205014112/09/16 20:50:31  5-MIN KAAT 100450Z AUTO 00000KT 10SM -RA BKN029 OVC034 04/04 A3000 4310 96 4100 000/00 RMK AO2 SLP160 P0001 T00440039 TSNO
94299KAAT AAT20161209205513412/09/16 20:55:31  5-MIN KAAT 100455Z AUTO 00000KT 10SM -RA OVC029 04/04 A3000 4310 96 4100 000/00 RMK AO2 SLP160 P0001 T00440039 TSNO
94299KAAT AAT20161209210012712/09/16 21:00:31  5-MIN KAAT 100500Z AUTO 00000KT 10SM -RA OVC029 04/04 A3000 4310 96 4100 000/00 RMK AO2 P0000 T00440039 TSNO
94299KAAT AAT20161209210512712/09/16 21:05:31  5-MIN KAAT 100505Z AUTO 00000KT 10SM -RA OVC029 04/04 A3000 4310 96 4100 000/00 RMK AO2 P0001 T00440039 TSNO
94299KAAT AAT20161209211012612/09/16 21:10:31  5-MIN KAAT 100510Z AUTO 00000KT 9SM -RA OVC027 04/04 A2999 4310 96 4100 000/00 RMK AO2 P0001 T00440039 TSNO
94299KAAT AAT20161209211513312/09/16 21:15:31  5-MIN KAAT 100515Z AUTO 00000KT 8SM -RA BKN025 OVC030 04/04 A2999 4310 96 4100 000/00 RMK AO2 P0002 T00440039 TSNO
94299KAAT AAT20161209212013612/09/16 21:20:31  5-MIN KAAT 100520Z AUTO 00000KT 5SM -RA BR BKN025 OVC030 04/04 A2999 4310 96 4100 000/00 RMK AO2 P0002 T00440039 TSNO
94299KAAT AAT20161209212513612/09/16 21:25:31  5-MIN KAAT 100525Z AUTO 00000KT 4SM -RA BR BKN025 OVC030 04/04 A2999 4320 96 4100 000/00 RMK AO2 P0002 T00440039 TSNO
94299KAAT AAT20161209213013612/09/16 21:30:31  5-MIN KAAT 100530Z AUTO 00000KT 4SM -RA BR BKN025 OVC030 04/04 A2999 4320 96 4100 000/00 RMK AO2 P0002 T00440039 TSNO
94299KAAT AAT20161209213512712/09/16 21:35:31  5-MIN KAAT 100535Z AUTO 00000KT 8SM -RA OVC027 04/04 A2999 4320 100 4100 000/00 RMK AO2 P0002 T00440044 TSNO
94299KAAT AAT20161209214012712/09/16 21:40:31  5-MIN KAAT 100540Z AUTO 00000KT 10SM -RA OVC027 04/04 A2999 4320 96 4100 000/00 RMK AO2 P0003 T00440039 TSNO
94299KAAT AAT20161209214512612/09/16 21:45:31  5-MIN KAAT 100545Z AUTO 00000KT 9SM -RA OVC025 04/04 A2999 4320 96 4100 000/00 RMK AO2 P0003 T00440039 TSNO
94299KAAT AAT20161209215015712/09/16 21:50:31  5-MIN KAAT 100550Z AUTO 00000KT 9SM -RA OVC025 04/04 A2999 4320 96 4100 000/00 RMK AO2 SLP153 P0003 60004 T00440039 10072 20044 56013 TSNO
94299KAAT AAT20161209215515712/09/16 21:55:31  5-MIN KAAT 100555Z AUTO 00000KT 9SM -RA OVC026 04/04 A2998 4320 96 4100 000/00 RMK AO2 SLP152 P0003 60004 T00440039 10072 20044 58003 TSNO
94299KAAT AAT20161209220012612/09/16 22:00:31  5-MIN KAAT 100600Z AUTO 00000KT 9SM -RA OVC026 04/04 A2999 4320 96 4100 000/00 RMK AO2 P0000 T00440039 TSNO
94299KAAT AAT20161209220512712/09/16 22:05:31  5-MIN KAAT 100605Z AUTO 00000KT 10SM -RA OVC026 04/04 A2999 4320 96 4100 000/00 RMK AO2 P0000 T00440039 TSNO
94299KAAT AAT20161209221012712/09/16 22:10:31  5-MIN KAAT 100610Z AUTO 00000KT 10SM -RA OVC026 04/04 A2998 4330 96 4100 000/00 RMK AO2 P0001 T00440039 TSNO
94299KAAT AAT20161209221512712/09/16 22:15:31  5-MIN KAAT 100615Z AUTO 00000KT 10SM -RA OVC026 04/04 A2998 4320 96 4100 000/00 RMK AO2 P0001 T00440039 TSNO
94299KAAT AAT20161209222012612/09/16 22:20:31  5-MIN KAAT 100620Z AUTO 00000KT 8SM -RA OVC028 04/04 A2998 4320 96 4100 000/00 RMK AO2 P0001 T00440039 TSNO
94299KAAT AAT20161209222513412/09/16 22:25:31  5-MIN KAAT 100625Z AUTO 00000KT 7SM -RA FEW008 OVC028 04/04 A2998 4320 100 4100 000/00 RMK AO2 P0001 T00440044 TSNO
94299KAAT AAT20161209223013412/09/16 22:30:31  5-MIN KAAT 100630Z AUTO 00000KT 8SM -RA FEW008 OVC026 04/04 A2998 4320 100 4100 000/00 RMK AO2 P0001 T00440044 TSNO
94299KAAT AAT20161209223513412/09/16 22:35:31  5-MIN KAAT 100635Z AUTO 00000KT 9SM -RA FEW008 OVC026 04/04 A2998 4320 100 4100 000/00 RMK AO2 P0002 T00440044 TSNO
94299KAAT AAT20161209224013412/09/16 22:40:31  5-MIN KAAT 100640Z AUTO 00000KT 7SM -RA FEW008 OVC026 04/04 A2998 4320 100 4100 000/00 RMK AO2 P0002 T00440044 TSNO
94299KAAT AAT20161209224513712/09/16 22:45:31  5-MIN KAAT 100645Z AUTO 00000KT 3SM -RA BR FEW008 OVC027 04/04 A2998 4320 100 4100 000/00 RMK AO2 P0002 T00390039 TSNO
94299KAAT AAT20161209225014812/09/16 22:50:31  5-MIN KAAT 100650Z AUTO 00000KT 1 1/2SM -RA BR FEW008 OVC027 04/04 A2998 4330 100 4100 000/00 RMK AO2 SLP150 P0002 T00390039 TSNO
94299KAAT AAT20161209225514412/09/16 22:55:31  5-MIN KAAT 100655Z AUTO 00000KT 1SM -RA BR FEW008 OVC027 04/04 A2998 4330 100 4100 000/00 RMK AO2 SLP147 P0003 T00390039 TSNO
94299KAAT AAT20161209230013212/09/16 23:00:31  5-MIN KAAT 100700Z AUTO 00000KT 3/4SM -RA BR OVC027 03/03 A2997 4330 100 4000 000/00 RMK AO2 P0000 T00330033 TSNO
94299KAAT AAT20161209230513012/09/16 23:05:31  5-MIN KAAT 100705Z AUTO 00000KT 1SM -RA BR OVC028 03/03 A2997 4340 100 4000 000/00 RMK AO2 P0001 T00330033 TSNO
94299KAAT AAT20161209231013712/09/16 23:10:31  5-MIN KAAT 100710Z AUTO 00000KT 1SM -RA BR FEW024 OVC028 04/04 A2997 4340 100 4100 000/00 RMK AO2 P0002 T00390039 TSNO
94299KAAT AAT20161209231513212/09/16 23:15:31  5-MIN KAAT 100715Z AUTO 00000KT 3/4SM -RA BR OVC028 03/03 A2997 4340 100 4000 000/00 RMK AO2 P0002 T00330033 TSNO
94299KAAT AAT20161209232013212/09/16 23:20:31  5-MIN KAAT 100720Z AUTO 00000KT 3/4SM -RA BR OVC028 03/03 A2997 4340 100 4000 000/00 RMK AO2 P0002 T00330033 TSNO
94299KAAT AAT20161209232513212/09/16 23:25:31  5-MIN KAAT 100725Z AUTO 00000KT 3/4SM -RA BR OVC027 03/03 A2997 4340 100 4000 000/00 RMK AO2 P0003 T00330033 TSNO
94299KAAT AAT20161209233013912/09/16 23:30:31  5-MIN KAAT 100730Z AUTO 00000KT 3/4SM -RA BR FEW006 OVC027 03/03 A2997 4340 100 4000 000/00 RMK AO2 P0003 T00330033 TSNO
94299KAAT AAT20161209233514612/09/16 23:35:31  5-MIN KAAT 100735Z AUTO 00000KT 3/4SM -RA BR SCT006 BKN027 OVC031 03/03 A2997 4340 100 4000 000/00 RMK AO2 P0003 T00330033 TSNO
94299KAAT AAT20161209234014412/09/16 23:40:31  5-MIN KAAT 100740Z AUTO 00000KT 1SM -RA BR FEW006 BKN025 OVC035 04/04 A2997 4340 100 4100 000/00 RMK AO2 P0003 T00390039 TSNO
94299KAAT AAT20161209234514412/09/16 23:45:31  5-MIN KAAT 100745Z AUTO 00000KT 2SM -RA BR SCT006 BKN030 OVC035 04/04 A2997 4340 100 4100 000/00 RMK AO2 P0003 T00390039 TSNO
94299KAAT AAT20161209235013412/09/16 23:50:31  5-MIN KAAT 100750Z AUTO 00000KT 5SM -RA BR SCT006 BKN028 OVC033 04/04 A2996 4340 100 4100 000/00 RMK AO2 P0004 TSNO
94299KAAT AAT20161209235516112/09/16 23:55:31  5-MIN KAAT 100755Z AUTO 00000KT 6SM -RA BR FEW006 BKN026 OVC031 04/04 A2996 4340 100 4100 000/00 RMK AO2 SLP142 P0004 T00390039 400940028 TSNO
94299KAAT AAT20161210000014412/10/16 00:00:31  5-MIN KAAT 100800Z AUTO 00000KT 3SM -RA BR FEW006 BKN026 OVC031 04/04 A2996 4340 100 4100 000/00 RMK AO2 P0000 T00390039 TSNO
94299KAAT AAT20161210000514412/10/16 00:05:31  5-MIN KAAT 100805Z AUTO 00000KT 3SM -RA BR FEW006 BKN024 OVC029 04/04 A2996 4350 100 4100 000/00 RMK AO2 P0001 T00390039 TSNO
94299KAAT AAT20161210001014412/10/16 00:10:31  5-MIN KAAT 100810Z AUTO 00000KT 3SM -RA BR FEW006 SCT024 OVC029 04/04 A2995 4350 100 4100 000/00 RMK AO2 P0001 T00390039 TSNO
94299KAAT AAT20161210001513712/10/16 00:15:31  5-MIN KAAT 100815Z AUTO 00000KT 3SM -RA BR SCT024 OVC033 04/04 A2995 4350 100 4100 000/00 RMK AO2 P0002 T00390039 TSNO
94299KAAT AAT20161210002013712/10/16 00:20:31  5-MIN KAAT 100820Z AUTO 00000KT 3SM -RA BR FEW024 OVC033 04/04 A2995 4350 100 4100 000/00 RMK AO2 P0002 T00390039 TSNO
94299KAAT AAT20161210002513712/10/16 00:25:31  5-MIN KAAT 100825Z AUTO 00000KT 4SM -RA BR FEW024 OVC035 04/04 A2995 4350 100 4100 000/00 RMK AO2 P0002 T00390039 TSNO
94299KAAT AAT20161210003013712/10/16 00:30:31  5-MIN KAAT 100830Z AUTO 00000KT 4SM -RA BR FEW024 OVC033 04/04 A2995 4360 100 4100 000/00 RMK AO2 P0003 T00390039 TSNO
94299KAAT AAT20161210003515112/10/16 00:35:31  5-MIN KAAT 100835Z AUTO 00000KT 1 3/4SM -RA BR FEW024 OVC033 04/04 A2994 4360 100 4100 000/00 RMK AO2 VIS 3/4V5 P0003 T00390039 TSNO
94299KAAT AAT20161210004015112/10/16 00:40:31  5-MIN KAAT 100840Z AUTO 00000KT 1SM -RA BR FEW024 OVC032 04/04 A2994 4360 100 4100 000/00 RMK AO2 VIS 3/4V2 1/2 P0003 T00390039 TSNO
94299KAAT AAT20161210004515112/10/16 00:45:31  5-MIN KAAT 100845Z AUTO 00000KT 1 1/2SM -RA BR FEW023 OVC032 04/04 A2994 4360 100 4100 000/00 RMK AO2 VIS 3/4V5 P0004 T00390039 TSNO
94299KAAT AAT20161210005015612/10/16 00:50:31  5-MIN KAAT 100850Z AUTO 00000KT 5SM -RA BR FEW023 OVC031 04/04 A2994 4370 100 4100 000/00 RMK AO2 SLP133 P0004 60011 T00390039 58003 TSNO
94299KAAT AAT20161210005515612/10/16 00:55:31  5-MIN KAAT 100855Z AUTO 00000KT 6SM -RA BR FEW023 OVC031 04/04 A2993 4370 100 4100 000/00 RMK AO2 SLP132 P0004 60011 T00390039 58014 TSNO
94299KAAT AAT20161210010013412/10/16 01:00:31  5-MIN KAAT 100900Z AUTO 18003KT 8SM -RA FEW023 OVC033 04/04 A2993 4370 100 4100 160/03 RMK AO2 P0001 T00390039 TSNO
94299KAAT AAT20161210010513412/10/16 01:05:31  5-MIN KAAT 100905Z AUTO 18003KT 8SM -RA FEW023 OVC033 04/04 A2993 4370 100 4100 170/03 RMK AO2 P0001 T00390039 TSNO
94299KAAT AAT20161210011012712/10/16 01:10:31  5-MIN KAAT 100910Z AUTO 17003KT 7SM -RA OVC035 04/04 A2993 4370 100 4100 160/03 RMK AO2 P0001 T00390039 TSNO
94299KAAT AAT20161210011513012/10/16 01:15:31  5-MIN KAAT 100915Z AUTO 17003KT 6SM -RA BR OVC035 04/04 A2993 4380 100 4100 160/03 RMK AO2 P0002 T00390039 TSNO
94299KAAT AAT20161210012012712/10/16 01:20:31  5-MIN KAAT 100920Z AUTO 00000KT 7SM -RA OVC035 04/04 A2992 4380 100 4100 000/00 RMK AO2 P0002 T00390039 TSNO
94299KAAT AAT20161210012513412/10/16 01:25:31  5-MIN KAAT 100925Z AUTO 00000KT 8SM -RA BKN035 OVC042 04/04 A2992 4380 100 4100 000/00 RMK AO2 P0003 T00390039 TSNO
94299KAAT AAT20161210013012712/10/16 01:30:31  5-MIN KAAT 100930Z AUTO 17003KT 7SM -RA OVC033 04/04 A2992 4380 100 4100 150/03 RMK AO2 P0003 T00390039 TSNO
94299KAAT AAT20161210013512712/10/16 01:35:31  5-MIN KAAT 100935Z AUTO 17003KT 8SM -RA OVC033 04/04 A2992 4380 100 4100 160/03 RMK AO2 P0003 T00390039 TSNO
94299KAAT AAT20161210014012712/10/16 01:40:31  5-MIN KAAT 100940Z AUTO 15005KT 9SM -RA OVC032 04/04 A2992 4380 100 4100 140/05 RMK AO2 P0004 T00390039 TSNO
94299KAAT AAT20161210014512712/10/16 01:45:31  5-MIN KAAT 100945Z AUTO 16006KT 10SM -RA OVC032 04/04 A2992 4380 96 4200 140/06 RMK AO2 P0004 T00440039 TSNO
94299KAAT AAT20161210015013412/10/16 01:50:31  5-MIN KAAT 100950Z AUTO 16006KT 10SM -RA OVC030 04/04 A2991 4390 96 4200 140/06 RMK AO2 SLP123 P0004 T00440039 TSNO
94299KAAT AAT20161210015513412/10/16 01:55:31  5-MIN KAAT 100955Z AUTO 16006KT 10SM -RA OVC030 04/04 A2991 4390 96 4200 140/06 RMK AO2 SLP123 P0004 T00440039 TSNO
94299KAAT AAT20161210020012712/10/16 02:00:31  5-MIN KAAT 101000Z AUTO 16005KT 10SM -RA OVC030 04/04 A2991 4390 96 4200 150/05 RMK AO2 P0001 T00440039 TSNO
94299KAAT AAT20161210020512812/10/16 02:05:31  5-MIN KAAT 101005Z AUTO 15005KT 10SM -RA OVC030 04/04 A2990 4400 100 4100 140/05 RMK AO2 P0001 T00390039 TSNO
94299KAAT AAT20161210021012812/10/16 02:10:31  5-MIN KAAT 101010Z AUTO 16005KT 10SM -RA OVC029 04/04 A2990 4400 100 4200 140/05 RMK AO2 P0001 T00390039 TSNO
94299KAAT AAT20161210021512812/10/16 02:15:31  5-MIN KAAT 101015Z AUTO 15005KT 10SM -RA OVC029 04/04 A2990 4400 100 4200 130/05 RMK AO2 P0001 T00390039 TSNO
94299KAAT AAT20161210022012812/10/16 02:20:31  5-MIN KAAT 101020Z AUTO 14005KT 10SM -RA OVC027 04/04 A2989 4410 100 4200 120/05 RMK AO2 P0001 T00390039 TSNO
94299KAAT AAT20161210022512812/10/16 02:25:31  5-MIN KAAT 101025Z AUTO 13004KT 10SM -RA OVC027 04/04 A2989 4410 100 4200 120/04 RMK AO2 P0001 T00390039 TSNO
94299KAAT AAT20161210023012812/10/16 02:30:31  5-MIN KAAT 101030Z AUTO 13003KT 10SM -RA OVC027 04/04 A2989 4410 100 4200 110/03 RMK AO2 P0001 T00390039 TSNO
94299KAAT AAT20161210023512812/10/16 02:35:31  5-MIN KAAT 101035Z AUTO 13003KT 10SM -RA OVC027 04/04 A2988 4410 100 4200 110/03 RMK AO2 P0001 T00390039 TSNO
94299KAAT AAT20161210024012812/10/16 02:40:31  5-MIN KAAT 101040Z AUTO 13003KT 10SM -RA OVC025 04/04 A2988 4410 100 4200 110/03 RMK AO2 P0001 T00390039 TSNO
94299KAAT AAT20161210024512712/10/16 02:45:31  5-MIN KAAT 101045Z AUTO 00000KT 10SM -RA OVC025 04/03 A2988 4420 96 4200 000/00 RMK AO2 P0001 T00390033 TSNO
94299KAAT AAT20161210025013412/10/16 02:50:31  5-MIN KAAT 101050Z AUTO 00000KT 10SM -RA OVC025 04/03 A2988 4420 96 4200 000/00 RMK AO2 SLP114 P0001 T00390033 TSNO
94299KAAT AAT20161210025513312/10/16 02:55:31  5-MIN KAAT 101055Z AUTO 00000KT 9SM -RA OVC025 04/03 A2988 4420 96 4200 000/00 RMK AO2 SLP112 P0002 T00390033 TSNO
94299KAAT AAT20161210030012612/10/16 03:00:31  5-MIN KAAT 101100Z AUTO 00000KT 7SM -RA OVC024 04/03 A2988 4420 96 4200 000/00 RMK AO2 P0000 T00390033 TSNO
94299KAAT AAT20161210030513012/10/16 03:05:31  5-MIN KAAT 101105Z AUTO 00000KT 6SM -RA BR OVC024 04/04 A2988 4420 100 4200 000/00 RMK AO2 P0000 T00390039 TSNO
94299KAAT AAT20161210031013012/10/16 03:10:31  5-MIN KAAT 101110Z AUTO 00000KT 6SM -RA BR OVC022 04/04 A2988 4420 100 4200 000/00 RMK AO2 P0001 T00390039 TSNO
94299KAAT AAT20161210031513012/10/16 03:15:31  5-MIN KAAT 101115Z AUTO 00000KT 6SM -RA BR OVC022 04/04 A2988 4420 100 4200 000/00 RMK AO2 P0001 T00390039 TSNO
94299KAAT AAT20161210032013012/10/16 03:20:31  5-MIN KAAT 101120Z AUTO 00000KT 6SM -RA BR OVC022 04/04 A2988 4420 100 4200 000/00 RMK AO2 P0002 T00390039 TSNO
94299KAAT AAT20161210032512712/10/16 03:25:31  5-MIN KAAT 101125Z AUTO 00000KT 7SM -RA OVC022 04/04 A2988 4420 100 4200 000/00 RMK AO2 P0002 T00390039 TSNO
94299KAAT AAT20161210033012612/10/16 03:30:31  5-MIN KAAT 101130Z AUTO 30003KT 7SM -RA OVC022 04/03 A2988 4420 96 4200 280/03 RMK AO2 P0003 T00390033 TSNO
94299KAAT AAT20161210033512612/10/16 03:35:31  5-MIN KAAT 101135Z AUTO 00000KT 7SM -RA OVC024 04/03 A2988 4420 96 4200 000/00 RMK AO2 P0003 T00390033 TSNO
94299KAAT AAT20161210034013312/10/16 03:40:31  5-MIN KAAT 101140Z AUTO 00000KT 8SM -RA FEW021 OVC026 04/03 A2988 4420 96 4200 000/00 RMK AO2 P0003 T00390033 TSNO
94299KAAT AAT20161210034513412/10/16 03:45:31  5-MIN KAAT 101145Z AUTO 00000KT 9SM -RA FEW021 OVC028 04/04 A2987 4420 100 4200 000/00 RMK AO2 P0004 T00390039 TSNO
94299KAAT AAT20161210035012512/10/16 03:50:31  5-MIN KAAT 101150Z AUTO 00000KT 10SM -RA FEW021 OVC030 04/04 A2987 4430 100 4200 000/00 RMK AO2 P0004 TSNO
94299KAAT AAT20161210035516512/10/16 03:55:31  5-MIN KAAT 101155Z AUTO 00000KT 10SM -RA OVC030 04/04 A2987 4430 100 4200 000/00 RMK AO2 SLP112 P0004 60021 70025 T00390039 10044 20033 56018 TSNO
94299KAAT AAT20161210040012812/10/16 04:00:31  5-MIN KAAT 101200Z AUTO 00000KT 10SM -RA OVC032 04/04 A2987 4430 100 4200 000/00 RMK AO2 P0000 T00390039 TSNO
94299KAAT AAT20161210040513412/10/16 04:05:31  5-MIN KAAT 101205Z AUTO 00000KT 10SM -RA FEW030 OVC035 04/03 A2988 4420 96 4200 000/00 RMK AO2 P0001 T00390033 TSNO
94299KAAT AAT20161210041012712/10/16 04:10:31  5-MIN KAAT 101210Z AUTO 00000KT 10SM -RA OVC035 04/03 A2988 4420 96 4200 000/00 RMK AO2 P0001 T00390033 TSNO
94299KAAT AAT20161210041512712/10/16 04:15:31  5-MIN KAAT 101215Z AUTO 33004KT 10SM -RA OVC035 04/03 A2988 4420 96 4200 320/04 RMK AO2 P0001 T00390033 TSNO
94299KAAT AAT20161210042014212/10/16 04:20:31  5-MIN KAAT 101220Z AUTO 34005KT 10SM -RA FEW021 SCT026 OVC033 04/04 A2988 4420 100 4200 330/05 RMK AO2 P0001 T00390039 TSNO
94299KAAT AAT20161210042514212/10/16 04:25:31  5-MIN KAAT 101225Z AUTO 01004KT 10SM -RA FEW021 SCT028 OVC033 04/04 A2988 4420 100 4200 350/04 RMK AO2 P0001 T00390039 TSNO
94299KAAT AAT20161210043013312/10/16 04:30:31  5-MIN KAAT 101230Z AUTO 01004KT 9SM -RA SCT021 OVC028 04/04 A2988 4420 96 4200 360/04 RMK AO2 P0002 T00440039 TSNO
94299KAAT AAT20161210043513312/10/16 04:35:31  5-MIN KAAT 101235Z AUTO 01003KT 9SM -RA FEW018 OVC026 04/04 A2988 4420 96 4200 350/03 RMK AO2 P0002 T00440039 TSNO
94299KAAT AAT20161210044013412/10/16 04:40:31  5-MIN KAAT 101240Z AUTO 01003KT 10SM -RA SCT018 OVC024 04/04 A2988 4420 96 4200 360/03 RMK AO2 P0002 T00440039 TSNO
94299KAAT AAT20161210044513312/10/16 04:45:31  5-MIN KAAT 101245Z AUTO 03003KT 8SM -RA BKN016 OVC022 04/04 A2988 4420 96 4200 010/03 RMK AO2 P0003 T00440039 TSNO
94299KAAT AAT20161210045012612/10/16 04:50:31  5-MIN KAAT 101250Z AUTO 04004KT 6SM -RA BR BKN014 OVC020 04/04 A2988 4420 96 4200 020/04 RMK AO2 P0003 TSNO
94299KAAT AAT20161210045514412/10/16 04:55:31  5-MIN KAAT 101255Z AUTO 01004KT 6SM -RA BR BKN014 OVC019 04/04 A2988 4410 100 4200 360/04 RMK AO2 SLP117 P0003 T00390039 TSNO
94299KAAT AAT20161210050013012/10/16 05:00:31  5-MIN KAAT 101300Z AUTO 01003KT 6SM -RA BR OVC012 04/04 A2989 4410 100 4200 360/03 RMK AO2 P0001 T00390039 TSNO
94299KAAT AAT20161210050513012/10/16 05:05:31  5-MIN KAAT 101305Z AUTO 02003KT 5SM -RA BR OVC012 04/04 A2989 4410 100 4200 360/03 RMK AO2 P0002 T00390039 TSNO
94299KAAT AAT20161210051013012/10/16 05:10:31  5-MIN KAAT 101310Z AUTO 02003KT 4SM -RA BR OVC012 04/04 A2989 4410 100 4200 010/03 RMK AO2 P0002 T00390039 TSNO
94299KAAT AAT20161210051513712/10/16 05:15:31  5-MIN KAAT 101315Z AUTO 04003KT 4SM -RA BR SCT010 OVC014 04/04 A2989 4410 100 4200 020/03 RMK AO2 P0003 T00390039 TSNO
94299KAAT AAT20161210052013712/10/16 05:20:31  5-MIN KAAT 101320Z AUTO 00000KT 5SM -RA BR SCT010 OVC016 04/04 A2989 4410 100 4200 000/00 RMK AO2 P0003 T00390039 TSNO
94299KAAT AAT20161210052513412/10/16 05:25:31  5-MIN KAAT 101325Z AUTO 05003KT 7SM -RA FEW010 OVC016 04/04 A2989 4410 100 4200 030/03 RMK AO2 P0003 T00390039 TSNO
94299KAAT AAT20161210053013412/10/16 05:30:31  5-MIN KAAT 101330Z AUTO 06003KT 8SM -RA FEW010 OVC016 04/04 A2989 4410 100 4200 040/03 RMK AO2 P0003 T00390039 TSNO
94299KAAT AAT20161210053513412/10/16 05:35:31  5-MIN KAAT 101335Z AUTO 08003KT 9SM -RA FEW010 OVC020 04/04 A2989 4410 100 4200 060/03 RMK AO2 P0004 T00390039 TSNO
94299KAAT AAT20161210054013412/10/16 05:40:31  5-MIN KAAT 101340Z AUTO 09003KT 10SM -RA FEW012 OVC025 04/04 A2989 4410 96 4200 070/03 RMK AO2 P0004 T00440039 TSNO
94299KAAT AAT20161210054514112/10/16 05:45:31  5-MIN KAAT 101345Z AUTO 10003KT 9SM -RA FEW012 BKN027 OVC033 04/04 A2989 4410 100 4200 080/03 RMK AO2 P0004 T00390039 TSNO
94299KAAT AAT20161210055012412/10/16 05:50:31  5-MIN KAAT 101350Z AUTO 11004KT 8SM -RA FEW012 OVC031 04/04 A2989 4410 100 4200 090/04 RMK AO2 P0004 TSNO
94299KAAT AAT20161210055514412/10/16 05:55:31  5-MIN KAAT 101355Z AUTO 11004KT 5SM -RA BR SCT012 OVC033 04/04 A2989 4410 100 4200 100/04 RMK AO2 SLP118 P0004 T00390039 TSNO
94299KAAT AAT20161210060013712/10/16 06:00:31  5-MIN KAAT 101400Z AUTO 11004KT 4SM -RA BR SCT011 OVC033 04/04 A2989 4410 100 4200 100/04 RMK AO2 P0000 T00390039 TSNO
94299KAAT AAT20161210060514412/10/16 06:05:31  5-MIN KAAT 101405Z AUTO 12004KT 4SM -RA BR BKN008 BKN030 OVC035 04/04 A2989 4410 100 4200 100/04 RMK AO2 P0000 T00390039 TSNO
94299KAAT AAT20161210061013712/10/16 06:10:31  5-MIN KAAT 101410Z AUTO 11004KT 6SM -RA BR BKN008 OVC033 04/04 A2989 4410 100 4200 100/04 RMK AO2 P0000 T00390039 TSNO
94299KAAT AAT20161210061513612/10/16 06:15:31  5-MIN KAAT 101415Z AUTO 11005KT 8SM BKN009 OVC029 04/04 A2989 4410 100 4200 100/05 RMK AO2 RAE14 P0000 T00390039 TSNO
94299KAAT AAT20161210062013612/10/16 06:20:31  5-MIN KAAT 101420Z AUTO 13004KT 8SM BKN009 OVC024 04/04 A2989 4410 100 4200 110/04 RMK AO2 RAE14 P0000 T00390039 TSNO
94299KAAT AAT20161210062512912/10/16 06:25:31  5-MIN KAAT 101425Z AUTO 14003KT 9SM OVC009 04/04 A2990 4400 100 4200 130/03 RMK AO2 RAE14 P0000 T00390039 TSNO
94299KAAT AAT20161210063013612/10/16 06:30:31  5-MIN KAAT 101430Z AUTO 17003KT 9SM -RA OVC008 04/04 A2990 4400 100 4200 160/03 RMK AO2 RAE14B30 P0000 T00390039 TSNO
94299KAAT AAT20161210063513612/10/16 06:35:31  5-MIN KAAT 101435Z AUTO 17003KT 8SM -RA OVC008 04/04 A2990 4400 100 4200 150/03 RMK AO2 RAE14B30 P0000 T00390039 TSNO
94299KAAT AAT20161210064013612/10/16 06:40:31  5-MIN KAAT 101440Z AUTO 16003KT 7SM -RA OVC007 04/04 A2990 4400 100 4200 150/03 RMK AO2 RAE14B30 P0000 T00390039 TSNO
94299KAAT AAT20161210064513612/10/16 06:45:31  5-MIN KAAT 101445Z AUTO 00000KT 7SM -RA OVC007 04/04 A2990 4400 100 4200 000/00 RMK AO2 RAE14B30 P0000 T00390039 TSNO
94299KAAT AAT20161210065015512/10/16 06:50:31  5-MIN KAAT 101450Z AUTO 00000KT 8SM -RA OVC007 04/04 A2990 4400 100 4200 000/00 RMK AO2 RAE14B30 SLP124 P0001 60008 T00390039 56018 TSNO
94299KAAT AAT20161210065515512/10/16 06:55:31  5-MIN KAAT 101455Z AUTO 00000KT 9SM -RA OVC007 04/04 A2990 4400 100 4200 000/00 RMK AO2 RAE14B30 SLP124 P0001 60008 T00390039 53004 TSNO
94299KAAT AAT20161210070012712/10/16 07:00:31  5-MIN KAAT 101500Z AUTO 00000KT 9SM -RA OVC007 04/04 A2990 4400 100 4200 000/00 RMK AO2 P0000 T00390039 TSNO
94299KAAT AAT20161210070512712/10/16 07:05:31  5-MIN KAAT 101505Z AUTO 00000KT 7SM -RA OVC007 04/04 A2990 4400 100 4100 000/00 RMK AO2 P0000 T00390039 TSNO
94299KAAT AAT20161210071013012/10/16 07:10:31  5-MIN KAAT 101510Z AUTO 00000KT 5SM -RA BR OVC007 04/04 A2990 4400 100 4100 000/00 RMK AO2 P0000 T00390039 TSNO
94299KAAT AAT20161210071514212/10/16 07:15:31  5-MIN KAAT 101515Z AUTO 00000KT 5SM -RA BR OVC007 04/04 A2990 4400 100 4100 000/00 RMK AO2 CIG 006V011 P0000 T00390039 TSNO
94299KAAT AAT20161210072013912/10/16 07:20:31  5-MIN KAAT 101520Z AUTO 00000KT 7SM -RA OVC007 04/04 A2991 4390 100 4100 000/00 RMK AO2 CIG 006V011 P0000 T00390039 TSNO
94299KAAT AAT20161210072512712/10/16 07:25:31  5-MIN KAAT 101525Z AUTO 00000KT 7SM -RA OVC007 04/04 A2991 4400 100 4100 000/00 RMK AO2 P0001 T00390039 TSNO
94299KAAT AAT20161210073014212/10/16 07:30:31  5-MIN KAAT 101530Z AUTO 00000KT 6SM -RA BR OVC007 04/04 A2991 4390 100 4100 000/00 RMK AO2 CIG 006V010 P0001 T00390039 TSNO
94299KAAT AAT20161210073513012/10/16 07:35:31  5-MIN KAAT 101535Z AUTO 00000KT 5SM -RA BR OVC007 04/04 A2991 4390 100 4100 000/00 RMK AO2 P0001 T00390039 TSNO
94299KAAT AAT20161210074013012/10/16 07:40:31  5-MIN KAAT 101540Z AUTO 00000KT 5SM -RA BR OVC007 04/04 A2991 4390 100 4100 000/00 RMK AO2 P0002 T00390039 TSNO
94299KAAT AAT20161210074513012/10/16 07:45:31  5-MIN KAAT 101545Z AUTO 00000KT 5SM -RA BR OVC007 04/04 A2991 4390 100 4100 000/00 RMK AO2 P0002 T00390039 TSNO
94299KAAT AAT20161210075013712/10/16 07:50:31  5-MIN KAAT 101550Z AUTO 01003KT 4SM -RA BR OVC007 04/04 A2991 4390 100 4100 360/03 RMK AO2 SLP128 P0002 T00390039 TSNO
94299KAAT AAT20161210075513712/10/16 07:55:31  5-MIN KAAT 101555Z AUTO 00000KT 3SM -RA BR OVC007 04/04 A2991 4390 100 4100 000/00 RMK AO2 SLP129 P0003 T00390039 TSNO
94299KAAT AAT20161210080014012/10/16 08:00:31  5-MIN KAAT 101600Z AUTO 34003KT 1 3/4SM RA BR FEW002 OVC007 04/04 A2992 4380 100 4100 330/03 RMK AO2 P0000 T00390039 TSNO
94299KAAT AAT20161210080513312/10/16 08:05:31  5-MIN KAAT 101605Z AUTO 15005KT 1 1/2SM RA BR OVC007 04/04 A2990 4400 100 4100 140/05 RMK AO2 P0002 T00390039 TSNO
94299KAAT AAT20161210081016912/10/16 08:10:31  5-MIN KAAT 101610Z AUTO 22008G15KT 200V260 1 1/2SM -RA BR FEW003 BKN007 OVC026 04/04 A2990 4400 96 4200 210/08G15 190V250 RMK AO2 P0003 T00440039 TSNO
94299KAAT AAT20161210081515312/10/16 08:15:31  5-MIN KAAT 101615Z AUTO 18005G15KT 2 1/2SM -RA BR BKN007 BKN035 OVC060 05/04 A2991 4390 96 4300 160/05G15 RMK AO2 P0003 T00500044 TSNO
94299KAAT AAT20161210082014112/10/16 08:20:31  5-MIN KAAT 101620Z AUTO 32005KT 9SM -RA SCT007 BKN037 OVC070 04/04 A2992 4380 100 4200 310/05 RMK AO2 P0003 T00440044 TSNO
94299KAAT AAT20161210082514412/10/16 08:25:31  5-MIN KAAT 101625Z AUTO 00000KT 10SM SCT006 BKN015 OVC070 04/04 A2991 4390 100 4200 000/00 RMK AO2 RAE24 P0003 T00440044 TSNO
94299KAAT AAT20161210083014412/10/16 08:30:31  5-MIN KAAT 101630Z AUTO 33003KT 10SM FEW006 BKN013 OVC060 04/04 A2992 4380 100 4200 310/03 RMK AO2 RAE24 P0003 T00440044 TSNO
94299KAAT AAT20161210083514412/10/16 08:35:31  5-MIN KAAT 101635Z AUTO 00000KT 10SM FEW007 BKN012 OVC060 04/04 A2992 4380 100 4200 000/00 RMK AO2 RAE24 P0003 T00440044 TSNO
94299KAAT AAT20161210084013712/10/16 08:40:31  5-MIN KAAT 101640Z AUTO 00000KT 10SM BKN012 OVC050 04/04 A2991 4390 100 4200 000/00 RMK AO2 RAE24 P0003 T00440044 TSNO
94299KAAT AAT20161210084513012/10/16 08:45:31  5-MIN KAAT 101645Z AUTO 00000KT 10SM OVC012 04/04 A2992 4380 100 4200 000/00 RMK AO2 RAE24 P0003 T00440044 TSNO
94299KAAT AAT20161210085013512/10/16 08:50:31  5-MIN KAAT 101650Z AUTO 01003KT 7SM OVC012 04/04 A2993 4370 96 4200 360/03 RMK AO2 RAE24 SLP134 P0003 T00440039 TSNO
94299KAAT AAT20161210085513812/10/16 08:55:31  5-MIN KAAT 101655Z AUTO 01005KT 6SM BR OVC012 04/04 A2993 4370 96 4200 360/05 RMK AO2 RAE24 SLP136 P0003 T00440039 TSNO
94299KAAT AAT20161210090011912/10/16 09:00:31  5-MIN KAAT 101700Z AUTO 02003KT 6SM BR OVC012 04/04 A2994 4370 96 4200 360/03 RMK AO2 T00440039 TSNO
94299KAAT AAT20161210090511712/10/16 09:05:31  5-MIN KAAT 101705Z AUTO 00000KT 7SM OVC012 04/04 A2993 4370 100 4200 000/00 RMK AO2 T00440044 TSNO
94299KAAT AAT20161210091012412/10/16 09:10:31  5-MIN KAAT 101710Z AUTO 24004KT 9SM BKN012 OVC090 05/05 A2993 4370 100 4200 220/04 RMK AO2 T00500050 TSNO
94299KAAT AAT20161210091512412/10/16 09:15:31  5-MIN KAAT 101715Z AUTO 27005KT 10SM BKN012 OVC090 06/05 A2994 4370 96 4300 250/05 RMK AO2 T00560050 TSNO
94299KAAT AAT20161210092012412/10/16 09:20:31  5-MIN KAAT 101720Z AUTO 25003KT 10SM SCT012 OVC090 06/05 A2993 4370 96 4300 240/03 RMK AO2 T00560050 TSNO
94299KAAT AAT20161210092512412/10/16 09:25:31  5-MIN KAAT 101725Z AUTO 25003KT 10SM FEW012 OVC090 06/05 A2993 4370 96 4300 240/03 RMK AO2 T00560050 TSNO
94299KAAT AAT20161210093012412/10/16 09:30:31  5-MIN KAAT 101730Z AUTO 00000KT 10SM FEW010 OVC090 06/05 A2994 4370 96 4300 000/00 RMK AO2 T00560050 TSNO
94299KAAT AAT20161210093511712/10/16 09:35:31  5-MIN KAAT 101735Z AUTO 00000KT 10SM OVC090 06/05 A2994 4360 96 4300 000/00 RMK AO2 T00560050 TSNO
94299KAAT AAT20161210094011712/10/16 09:40:31  5-MIN KAAT 101740Z AUTO 00000KT 10SM OVC090 06/05 A2995 4360 96 4300 000/00 RMK AO2 T00560050 TSNO
94299KAAT AAT20161210094511712/10/16 09:45:31  5-MIN KAAT 101745Z AUTO 00000KT 10SM OVC090 06/05 A2996 4350 96 4300 000/00 RMK AO2 T00560050 TSNO
94299KAAT AAT20161210095014812/10/16 09:50:31  5-MIN KAAT 101750Z AUTO 00000KT 10SM OVC085 06/05 A2996 4350 96 4300 000/00 RMK AO2 SLP144 60014 T00560050 10056 20039 53004 TSNO
94299KAAT AAT20161210095515512/10/16 09:55:31  5-MIN KAAT 101755Z AUTO 00000KT 10SM FEW070 OVC085 06/05 A2996 4350 96 4300 000/00 RMK AO2 SLP144 60014 T00560050 10056 20039 53018 TSNO
94299KAAT AAT20161210100011712/10/16 10:00:31  5-MIN KAAT 101800Z AUTO 00000KT 10SM OVC085 06/05 A2996 4350 96 4300 000/00 RMK AO2 T00560050 TSNO
94299KAAT AAT20161210100513112/10/16 10:05:31  5-MIN KAAT 101805Z AUTO 00000KT 10SM FEW032 SCT075 OVC090 06/05 A2996 4350 96 4300 000/00 RMK AO2 T00560050 TSNO
94299KAAT AAT20161210101013012/10/16 10:10:31  5-MIN KAAT 101810Z AUTO 00000KT 9SM FEW032 BKN070 OVC085 06/05 A2996 4350 96 4300 000/00 RMK AO2 T00560050 TSNO
94299KAAT AAT20161210101513112/10/16 10:15:31  5-MIN KAAT 101815Z AUTO 00000KT 7SM FEW032 BKN075 OVC085 06/06 A2996 4350 100 4300 000/00 RMK AO2 T00560056 TSNO
94299KAAT AAT20161210102013112/10/16 10:20:31  5-MIN KAAT 101820Z AUTO 00000KT 7SM FEW032 BKN070 OVC085 06/06 A2996 4350 100 4300 000/00 RMK AO2 T00560056 TSNO
94299KAAT AAT20161210102513112/10/16 10:25:31  5-MIN KAAT 101825Z AUTO 00000KT 7SM FEW032 BKN070 OVC085 06/06 A2995 4350 100 4300 000/00 RMK AO2 T00560056 TSNO
94299KAAT AAT20161210103013112/10/16 10:30:31  5-MIN KAAT 101830Z AUTO 00000KT 9SM FEW030 BKN070 OVC090 06/06 A2996 4350 100 4300 000/00 RMK AO2 T00560056 TSNO
94299KAAT AAT20161210103513012/10/16 10:35:31  5-MIN KAAT 101835Z AUTO 11005KT 7SM FEW032 SCT070 OVC090 06/05 A2995 4350 96 4300 100/05 RMK AO2 T00560050 TSNO
94299KAAT AAT20161210104013312/10/16 10:40:31  5-MIN KAAT 101840Z AUTO 11005KT 5SM BR SCT017 BKN070 OVC090 06/05 A2995 4360 96 4300 100/05 RMK AO2 T00560050 TSNO
94299KAAT AAT20161210104513312/10/16 10:45:31  5-MIN KAAT 101845Z AUTO 13005KT 6SM BR SCT015 SCT075 OVC090 06/05 A2994 4360 96 4300 110/05 RMK AO2 T00560050 TSNO
94299KAAT AAT20161210105013012/10/16 10:50:31  5-MIN KAAT 101850Z AUTO 13004KT 9SM FEW015 OVC090 06/05 A2995 4350 96 4300 120/04 RMK AO2 SLP142 T00560050 TSNO
94299KAAT AAT20161210105513212/10/16 10:55:31  5-MIN KAAT 101855Z AUTO 13005KT 10SM SCT015 OVC090 06/06 A2994 4360 100 4300 110/05 RMK AO2 SLP139 T00560056 TSNO
94299KAAT AAT20161210110012512/10/16 11:00:31  5-MIN KAAT 101900Z AUTO 15007KT 10SM SCT015 OVC090 06/06 A2994 4360 100 4300 140/07 RMK AO2 T00560056 TSNO
94299KAAT AAT20161210110512412/10/16 11:05:31  5-MIN KAAT 101905Z AUTO 16005KT 10SM FEW015 OVC085 06/06 A2994 4360 96 4400 150/05 RMK AO2 T00610056 TSNO
94299KAAT AAT20161210111012412/10/16 11:10:31  5-MIN KAAT 101910Z AUTO 16006KT 10SM FEW015 OVC085 06/06 A2994 4360 96 4400 150/06 RMK AO2 T00610056 TSNO
94299KAAT AAT20161210111512412/10/16 11:15:31  5-MIN KAAT 101915Z AUTO 17004KT 10SM SCT015 OVC085 06/06 A2995 4360 96 4400 150/04 RMK AO2 T00610056 TSNO
94299KAAT AAT20161210112013112/10/16 11:20:31  5-MIN KAAT 101920Z AUTO 28003KT 10SM SCT013 SCT019 OVC080 06/06 A2995 4350 96 4400 270/03 RMK AO2 T00610056 TSNO
94299KAAT AAT20161210112513112/10/16 11:25:31  5-MIN KAAT 101925Z AUTO 26003KT 10SM SCT015 BKN033 OVC080 06/06 A2996 4350 96 4400 250/03 RMK AO2 T00610056 TSNO
94299KAAT AAT20161210113013112/10/16 11:30:31  5-MIN KAAT 101930Z AUTO 21003KT 10SM SCT015 BKN031 OVC080 06/06 A2995 4360 96 4400 200/03 RMK AO2 T00610056 TSNO
94299KAAT AAT20161210113513112/10/16 11:35:31  5-MIN KAAT 101935Z AUTO 21003KT 10SM SCT015 BKN065 OVC080 06/06 A2994 4360 96 4400 190/03 RMK AO2 T00610056 TSNO
94299KAAT AAT20161210114013112/10/16 11:40:31  5-MIN KAAT 101940Z AUTO 21004KT 10SM FEW015 BKN065 OVC080 06/06 A2994 4360 96 4400 190/04 RMK AO2 T00610056 TSNO
94299KAAT AAT20161210114513812/10/16 11:45:31  5-MIN KAAT 101945Z AUTO 16008KT 10SM FEW015 SCT030 OVC065 06/05 A2993 4370 96 4300 150/08 RMK AO2 PRESFR T00560050 TSNO
94299KAAT AAT20161210115013812/10/16 11:50:31  5-MIN KAAT 101950Z AUTO 17006KT 10SM FEW015 BKN060 OVC075 06/05 A2993 4370 93 4400 160/06 RMK AO2 SLP135 T00610050 TSNO
94299KAAT AAT20161210115513112/10/16 11:55:31  5-MIN KAAT 101955Z AUTO 17007KT 10SM BKN060 OVC075 06/06 A2992 4380 96 4400 150/07 RMK AO2 SLP132 T00610056 TSNO
94299KAAT AAT20161210120011712/10/16 12:00:31  5-MIN KAAT 102000Z AUTO 18009KT 10SM OVC065 06/05 A2992 4380 93 4400 160/09 RMK AO2 T00610050 TSNO
94299KAAT AAT20161210120512412/10/16 12:05:31  5-MIN KAAT 102005Z AUTO 19009KT 10SM BKN065 OVC075 06/05 A2992 4380 93 4400 170/09 RMK AO2 T00610050 TSNO
94299KAAT AAT20161210121013012/10/16 12:10:31  5-MIN KAAT 102010Z AUTO 21016G21KT 10SM BKN065 OVC080 06/04 A2992 4380 86 4400 200/16G21 RMK AO2 T00610039 TSNO
94299KAAT AAT20161210121513012/10/16 12:15:31  5-MIN KAAT 102015Z AUTO 20012G21KT 10SM SCT060 OVC080 06/03 A2991 4390 79 4400 180/12G21 RMK AO2 T00610028 TSNO
94299KAAT AAT20161210122013012/10/16 12:20:31  5-MIN KAAT 102020Z AUTO 21015G20KT 10SM SCT065 OVC080 06/03 A2991 4390 82 4300 190/15G20 RMK AO2 T00560028 TSNO
94299KAAT AAT20161210122513012/10/16 12:25:31  5-MIN KAAT 102025Z AUTO 21009G20KT 10SM BKN080 OVC100 06/02 A2991 4390 79 4300 190/09G20 RMK AO2 T00560022 TSNO
94299KAAT AAT20161210123012412/10/16 12:30:31  5-MIN KAAT 102030Z AUTO 25008KT 10SM BKN080 OVC100 06/02 A2992 4380 79 4300 240/08 RMK AO2 T00560022 TSNO
94299KAAT AAT20161210123512412/10/16 12:35:31  5-MIN KAAT 102035Z AUTO 28008KT 10SM BKN085 OVC110 06/02 A2993 4380 79 4300 260/08 RMK AO2 T00560022 TSNO
94299KAAT AAT20161210124012412/10/16 12:40:31  5-MIN KAAT 102040Z AUTO 25009KT 10SM BKN085 OVC110 06/03 A2993 4380 82 4300 240/09 RMK AO2 T00560028 TSNO
94299KAAT AAT20161210124511712/10/16 12:45:31  5-MIN KAAT 102045Z AUTO 25008KT 10SM OVC100 06/03 A2993 4380 82 4300 240/08 RMK AO2 T00560028 TSNO
94299KAAT AAT20161210125013712/10/16 12:50:31  5-MIN KAAT 102050Z AUTO 22008KT 10SM FEW090 OVC110 06/02 A2992 4380 79 4300 210/08 RMK AO2 SLP132 T00560022 53018 TSNO
94299KAAT AAT20161210125513712/10/16 12:55:31  5-MIN KAAT 102055Z AUTO 23009KT 10SM FEW090 OVC110 06/02 A2992 4380 79 4300 210/09 RMK AO2 SLP131 T00560022 56012 TSNO
94299KAAT AAT20161210130012412/10/16 13:00:31  5-MIN KAAT 102100Z AUTO 22009KT 10SM FEW036 OVC110 06/02 A2992 4380 79 4300 210/09 RMK AO2 T00560022 TSNO
94299KAAT AAT20161210130512412/10/16 13:05:31  5-MIN KAAT 102105Z AUTO 24009KT 10SM SCT038 OVC110 06/02 A2992 4380 79 4300 220/09 RMK AO2 T00560022 TSNO
94299KAAT AAT20161210131013012/10/16 13:10:31  5-MIN KAAT 102110Z AUTO 23012G19KT 10SM BKN038 OVC110 06/02 A2993 4370 79 4300 220/12G19 RMK AO2 T00560022 TSNO
94299KAAT AAT20161210131513012/10/16 13:15:31  5-MIN KAAT 102115Z AUTO 23012G19KT 10SM BKN038 OVC110 06/02 A2993 4370 73 4400 220/12G19 RMK AO2 T00610017 TSNO
94299KAAT AAT20161210132012412/10/16 13:20:31  5-MIN KAAT 102120Z AUTO 24013KT 10SM BKN038 OVC110 06/02 A2993 4370 76 4300 220/13 RMK AO2 T00560017 TSNO
94299KAAT AAT20161210132512412/10/16 13:25:31  5-MIN KAAT 102125Z AUTO 24013KT 10SM BKN038 OVC110 06/02 A2993 4370 76 4300 220/13 RMK AO2 T00560017 TSNO
94299KAAT AAT20161210133012412/10/16 13:30:31  5-MIN KAAT 102130Z AUTO 24015KT 10SM BKN038 OVC110 06/02 A2993 4370 76 4300 220/15 RMK AO2 T00560017 TSNO
94299KAAT AAT20161210133513012/10/16 13:35:31  5-MIN KAAT 102135Z AUTO 23014G20KT 10SM BKN038 BKN110 06/02 A2992 4380 76 4300 220/14G20 RMK AO2 T00560017 TSNO
94299KAAT AAT20161210134012412/10/16 13:40:31  5-MIN KAAT 102140Z AUTO 22012KT 10SM SCT038 BKN110 06/02 A2991 4390 76 4300 210/12 RMK AO2 T00560017 TSNO
94299KAAT AAT20161210134512412/10/16 13:45:31  5-MIN KAAT 102145Z AUTO 22012KT 10SM FEW038 BKN110 05/02 A2991 4390 79 4300 210/12 RMK AO2 T00500017 TSNO
94299KAAT AAT20161210135013112/10/16 13:50:31  5-MIN KAAT 102150Z AUTO 22012KT 10SM FEW038 BKN110 05/02 A2991 4390 79 4300 210/12 RMK AO2 SLP129 T00500017 TSNO
94299KAAT AAT20161210135512412/10/16 13:55:31  5-MIN KAAT 102155Z AUTO 22013KT 10SM BKN120 05/02 A2991 4390 79 4300 200/13 RMK AO2 SLP127 T00500017 TSNO
94299KAAT AAT20161210140011712/10/16 14:00:31  5-MIN KAAT 102200Z AUTO 22012KT 10SM BKN120 06/02 A2991 4390 76 4300 200/12 RMK AO2 T00560017 TSNO
94299KAAT AAT20161210140511712/10/16 14:05:31  5-MIN KAAT 102205Z AUTO 22013KT 10SM SCT120 06/02 A2991 4390 76 4300 210/13 RMK AO2 T00560017 TSNO
94299KAAT AAT20161210141011712/10/16 14:10:31  5-MIN KAAT 102210Z AUTO 22012KT 10SM SCT120 06/02 A2992 4380 76 4300 210/12 RMK AO2 T00560017 TSNO
94299KAAT AAT20161210141511712/10/16 14:15:31  5-MIN KAAT 102215Z AUTO 22010KT 10SM FEW120 06/02 A2992 4380 76 4300 210/10 RMK AO2 T00560017 TSNO
94299KAAT AAT20161210142011712/10/16 14:20:31  5-MIN KAAT 102220Z AUTO 22009KT 10SM FEW120 06/02 A2992 4380 76 4300 200/09 RMK AO2 T00560017 TSNO
94299KAAT AAT20161210142511412/10/16 14:25:31  5-MIN KAAT 102225Z AUTO 22009KT 10SM CLR 06/02 A2992 4380 76 4300 200/09 RMK AO2 T00560017 TSNO
94299KAAT AAT20161210143011712/10/16 14:30:31  5-MIN KAAT 102230Z AUTO 23008KT 10SM FEW033 06/02 A2992 4380 76 4300 210/08 RMK AO2 T00560017 TSNO
94299KAAT AAT20161210143511712/10/16 14:35:31  5-MIN KAAT 102235Z AUTO 23008KT 10SM FEW033 06/02 A2992 4380 76 4300 210/08 RMK AO2 T00560017 TSNO
94299KAAT AAT20161211004511912/11/16 00:45:31  5-MIN KAAT 110845Z AUTO 00000KT 10SM SCT032 M03/M03 A3010 4220 96 3100 000/00 RMK AO2 T10281033 TSNO
94299KAAT AAT20161211005013212/11/16 00:50:31  5-MIN KAAT 110850Z AUTO 00000KT 10SM FEW032 M02/M03 A3010 4210 92 3200 000/00 RMK AO2 SLP204 T10221033 53022 TSNO
94299KAAT AAT20161211005513212/11/16 00:55:31  5-MIN KAAT 110855Z AUTO 00000KT 10SM FEW032 M03/M03 A3010 4210 96 3100 000/00 RMK AO2 SLP204 T10281033 51013 TSNO
94299KAAT AAT20161211010011912/11/16 01:00:31  5-MIN KAAT 110900Z AUTO 30003KT 10SM FEW032 M03/M03 A3010 4210 96 3100 280/03 RMK AO2 T10281033 TSNO
94299KAAT AAT20161211010511612/11/16 01:05:31  5-MIN KAAT 110905Z AUTO 00000KT 10SM CLR M03/M04 A3010 4210 96 3000 000/00 RMK AO2 T10331039 TSNO
94299KAAT AAT20161211011011612/11/16 01:10:31  5-MIN KAAT 110910Z AUTO 00000KT 10SM CLR M03/M04 A3010 4210 92 3100 000/00 RMK AO2 T10281039 TSNO
94299KAAT AAT20161211011511612/11/16 01:15:31  5-MIN KAAT 110915Z AUTO 00000KT 10SM CLR M03/M03 A3011 4210 96 3100 000/00 RMK AO2 T10281033 TSNO
94299KAAT AAT20161211012011612/11/16 01:20:31  5-MIN KAAT 110920Z AUTO 00000KT 10SM CLR M03/M03 A3011 4210 96 3100 000/00 RMK AO2 T10281033 TSNO
94299KAAT AAT20161211012511612/11/16 01:25:31  5-MIN KAAT 110925Z AUTO 00000KT 10SM CLR M03/M03 A3011 4210 96 3100 000/00 RMK AO2 T10281033 TSNO
94299KAAT AAT20161211013011912/11/16 01:30:31  5-MIN KAAT 110930Z AUTO 00000KT 10SM FEW030 M03/M03 A3011 4210 96 3100 000/00 RMK AO2 T10281033 TSNO
94299KAAT AAT20161211013511912/11/16 01:35:31  5-MIN KAAT 110935Z AUTO 00000KT 10SM FEW030 M03/M04 A3011 4210 92 3100 000/00 RMK AO2 T10281039 TSNO
94299KAAT AAT20161211014011812/11/16 01:40:31  5-MIN KAAT 110940Z AUTO 13003KT 8SM SCT028 M03/M04 A3011 4210 92 3100 120/03 RMK AO2 T10281039 TSNO
94299KAAT AAT20161211014512512/11/16 01:45:31  5-MIN KAAT 110945Z AUTO 00000KT 8SM SCT028 BKN036 M03/M03 A3011 4210 96 3100 000/00 RMK AO2 T10281033 TSNO
94299KAAT AAT20161211015013312/11/16 01:50:31  5-MIN KAAT 110950Z AUTO 00000KT 10SM FEW030 BKN036 M02/M03 A3010 4210 92 3200 000/00 RMK AO2 SLP205 T10221033 TSNO
94299KAAT AAT20161211015513312/11/16 01:55:31  5-MIN KAAT 110955Z AUTO 00000KT 10SM FEW030 BKN034 M02/M03 A3010 4210 92 3200 000/00 RMK AO2 SLP204 T10171028 TSNO
94299KAAT AAT20161211020012612/11/16 02:00:31  5-MIN KAAT 111000Z AUTO 00000KT 10SM FEW028 BKN034 M02/M03 A3010 4210 92 3200 000/00 RMK AO2 T10221033 TSNO
94299KAAT AAT20161211020511912/11/16 02:05:31  5-MIN KAAT 111005Z AUTO 00000KT 10SM BKN032 M02/M03 A3010 4210 92 3200 000/00 RMK AO2 T10221033 TSNO
94299KAAT AAT20161211021011812/11/16 02:10:31  5-MIN KAAT 111010Z AUTO 00000KT 9SM BKN032 M02/M03 A3010 4210 92 3200 000/00 RMK AO2 T10221033 TSNO
94299KAAT AAT20161211021511812/11/16 02:15:31  5-MIN KAAT 111015Z AUTO 05004KT 7SM SCT032 M03/M04 A3011 4210 92 3100 030/04 RMK AO2 T10281039 TSNO
94299KAAT AAT20161211022012112/11/16 02:20:31  5-MIN KAAT 111020Z AUTO 06004KT 5SM BR SCT032 M03/M04 A3010 4210 92 3000 040/04 RMK AO2 T10331044 TSNO
94299KAAT AAT20161211022512112/11/16 02:25:31  5-MIN KAAT 111025Z AUTO 07005KT 5SM BR FEW032 M03/M04 A3011 4210 92 3000 050/05 RMK AO2 T10331044 TSNO
94299KAAT AAT20161211023012112/11/16 02:30:31  5-MIN KAAT 111030Z AUTO 07004KT 6SM BR FEW032 M03/M04 A3010 4220 96 3000 060/04 RMK AO2 T10331039 TSNO
94299KAAT AAT20161211023511512/11/16 02:35:31  5-MIN KAAT 111035Z AUTO 07005KT 8SM CLR M03/M04 A3010 4220 92 3100 050/05 RMK AO2 T10281039 TSNO
94299KAAT AAT20161211024011512/11/16 02:40:31  5-MIN KAAT 111040Z AUTO 06004KT 9SM CLR M03/M04 A3010 4220 96 3000 050/04 RMK AO2 T10331039 TSNO
94299KAAT AAT20161211024511512/11/16 02:45:31  5-MIN KAAT 111045Z AUTO 08003KT 9SM CLR M03/M03 A3010 4220 96 3100 060/03 RMK AO2 T10281033 TSNO
94299KAAT AAT20161211025012212/11/16 02:50:31  5-MIN KAAT 111050Z AUTO 00000KT 8SM CLR M03/M03 A3010 4220 96 3100 000/00 RMK AO2 SLP202 T10281033 TSNO
94299KAAT AAT20161211025512512/11/16 02:55:31  5-MIN KAAT 111055Z AUTO 00000KT 7SM FEW030 M04/M04 A3010 4220 96 3000 000/00 RMK AO2 SLP203 T10391044 TSNO
94299KAAT AAT20161211030012112/11/16 03:00:31  5-MIN KAAT 111100Z AUTO 00000KT 6SM BR SCT030 M04/M05 A3009 4220 96 2900 000/00 RMK AO2 T10441050 TSNO
94299KAAT AAT20161211030511812/11/16 03:05:31  5-MIN KAAT 111105Z AUTO 00000KT 7SM FEW030 M04/M06 A3009 4220 92 2900 000/00 RMK AO2 T10441056 TSNO
94299KAAT AAT20161211031012112/11/16 03:10:31  5-MIN KAAT 111110Z AUTO 00000KT 6SM BR FEW030 M04/M06 A3009 4220 92 2900 000/00 RMK AO2 T10441056 TSNO
94299KAAT AAT20161211031511812/11/16 03:15:31  5-MIN KAAT 111115Z AUTO 34003KT 7SM FEW030 M05/M06 A3009 4220 92 2800 320/03 RMK AO2 T10501061 TSNO
94299KAAT AAT20161211032011812/11/16 03:20:31  5-MIN KAAT 111120Z AUTO 34003KT 8SM FEW030 M05/M06 A3009 4220 92 2800 330/03 RMK AO2 T10501061 TSNO
94299KAAT AAT20161211032511512/11/16 03:25:31  5-MIN KAAT 111125Z AUTO 00000KT 8SM CLR M05/M06 A3009 4220 96 2800 000/00 RMK AO2 T10501056 TSNO
94299KAAT AAT20161211033011512/11/16 03:30:31  5-MIN KAAT 111130Z AUTO 00000KT 8SM CLR M04/M06 A3010 4220 92 2900 000/00 RMK AO2 T10441056 TSNO
94299KAAT AAT20161211033511512/11/16 03:35:31  5-MIN KAAT 111135Z AUTO 00000KT 9SM CLR M04/M06 A3009 4220 92 2900 000/00 RMK AO2 T10441056 TSNO
94299KAAT AAT20161211034011612/11/16 03:40:31  5-MIN KAAT 111140Z AUTO 00000KT 10SM CLR M04/M06 A3009 4220 92 2900 000/00 RMK AO2 T10441056 TSNO
94299KAAT AAT20161211034511612/11/16 03:45:31  5-MIN KAAT 111145Z AUTO 00000KT 10SM CLR M05/M06 A3009 4220 96 2800 000/00 RMK AO2 T10501056 TSNO
94299KAAT AAT20161211035014712/11/16 03:50:31  5-MIN KAAT 111150Z AUTO 00000KT 10SM CLR M05/M06 A3009 4220 96 2800 000/00 RMK AO2 SLP208 70016 T10501056 10011 21056 51013 TSNO
94299KAAT AAT20161211035514712/11/16 03:55:31  5-MIN KAAT 111155Z AUTO 00000KT 10SM CLR M06/M06 A3010 4220 96 2800 000/00 RMK AO2 SLP208 70016 T10561061 10011 21056 57002 TSNO
94299KAAT AAT20161211040011612/11/16 04:00:31  5-MIN KAAT 111200Z AUTO 00000KT 10SM CLR M05/M06 A3009 4220 92 2800 000/00 RMK AO2 T10501061 TSNO
94299KAAT AAT20161211040511612/11/16 04:05:31  5-MIN KAAT 111205Z AUTO 00000KT 10SM CLR M04/M06 A3009 4220 92 2900 000/00 RMK AO2 T10441056 TSNO
94299KAAT AAT20161211041011612/11/16 04:10:31  5-MIN KAAT 111210Z AUTO 08003KT 10SM CLR M04/M06 A3009 4230 92 2900 070/03 RMK AO2 T10441056 TSNO
94299KAAT AAT20161211041511512/11/16 04:15:31  5-MIN KAAT 111215Z AUTO 00000KT 8SM CLR M05/M06 A3009 4230 96 2800 000/00 RMK AO2 T10501056 TSNO
94299KAAT AAT20161211042011512/11/16 04:20:31  5-MIN KAAT 111220Z AUTO 00000KT 7SM CLR M04/M06 A3009 4220 92 2900 000/00 RMK AO2 T10441056 TSNO
94299KAAT AAT20161211042511812/11/16 04:25:31  5-MIN KAAT 111225Z AUTO 00000KT 5SM BR CLR M05/M06 A3009 4230 92 2800 000/00 RMK AO2 T10501061 TSNO
94299KAAT AAT20161211043011812/11/16 04:30:31  5-MIN KAAT 111230Z AUTO 07003KT 4SM BR CLR M05/M06 A3009 4230 92 2800 060/03 RMK AO2 T10501061 TSNO
94299KAAT AAT20161211043511812/11/16 04:35:31  5-MIN KAAT 111235Z AUTO 07003KT 5SM BR CLR M04/M06 A3009 4230 92 2900 060/03 RMK AO2 T10441056 TSNO
94299KAAT AAT20161211044011512/11/16 04:40:31  5-MIN KAAT 111240Z AUTO 08003KT 7SM CLR M04/M05 A3009 4230 96 2900 060/03 RMK AO2 T10441050 TSNO
94299KAAT AAT20161211044511512/11/16 04:45:31  5-MIN KAAT 111245Z AUTO 00000KT 8SM CLR M04/M05 A3009 4230 96 2900 000/00 RMK AO2 T10441050 TSNO
94299KAAT AAT20161211045012212/11/16 04:50:31  5-MIN KAAT 111250Z AUTO 00000KT 8SM CLR M06/M06 A3008 4230 96 2800 000/00 RMK AO2 SLP206 T10561061 TSNO
94299KAAT AAT20161211045512212/11/16 04:55:31  5-MIN KAAT 111255Z AUTO 00000KT 7SM CLR M06/M07 A3008 4230 92 2800 000/00 RMK AO2 SLP206 T10561067 TSNO
94299KAAT AAT20161211050011512/11/16 05:00:31  5-MIN KAAT 111300Z AUTO 00000KT 7SM CLR M06/M07 A3008 4230 92 2700 000/00 RMK AO2 T10611072 TSNO
94299KAAT AAT20161211050511512/11/16 05:05:31  5-MIN KAAT 111305Z AUTO 00000KT 7SM CLR M07/M07 A3009 4230 96 2600 000/00 RMK AO2 T10671072 TSNO
94299KAAT AAT20161211051011512/11/16 05:10:31  5-MIN KAAT 111310Z AUTO 00000KT 8SM CLR M07/M07 A3009 4230 96 2600 000/00 RMK AO2 T10671072 TSNO
94299KAAT AAT20161211051511512/11/16 05:15:31  5-MIN KAAT 111315Z AUTO 00000KT 8SM CLR M07/M07 A3009 4230 96 2600 000/00 RMK AO2 T10671072 TSNO
94299KAAT AAT20161211052011512/11/16 05:20:31  5-MIN KAAT 111320Z AUTO 00000KT 9SM CLR M06/M07 A3009 4220 92 2700 000/00 RMK AO2 T10611072 TSNO
94299KAAT AAT20161211052511512/11/16 05:25:31  5-MIN KAAT 111325Z AUTO 00000KT 8SM CLR M06/M07 A3009 4220 92 2700 000/00 RMK AO2 T10611072 TSNO
94299KAAT AAT20161211053011512/11/16 05:30:31  5-MIN KAAT 111330Z AUTO 00000KT 7SM CLR M06/M07 A3009 4220 92 2700 000/00 RMK AO2 T10611072 TSNO
94299KAAT AAT20161211053511812/11/16 05:35:31  5-MIN KAAT 111335Z AUTO 00000KT 6SM BR CLR M06/M07 A3009 4220 92 2800 000/00 RMK AO2 T10561067 TSNO
94299KAAT AAT20161211054011812/11/16 05:40:31  5-MIN KAAT 111340Z AUTO 00000KT 5SM BR CLR M06/M07 A3010 4220 92 2800 000/00 RMK AO2 T10561067 TSNO
94299KAAT AAT20161211054511812/11/16 05:45:31  5-MIN KAAT 111345Z AUTO 00000KT 5SM BR CLR M06/M07 A3009 4220 92 2800 000/00 RMK AO2 T10561067 TSNO
94299KAAT AAT20161211055012512/11/16 05:50:31  5-MIN KAAT 111350Z AUTO 00000KT 6SM BR CLR M06/M07 A3009 4220 92 2800 000/00 RMK AO2 SLP212 T10561067 TSNO
94299KAAT AAT20161211055512512/11/16 05:55:31  5-MIN KAAT 111355Z AUTO 00000KT 6SM BR CLR M06/M07 A3009 4220 96 2700 000/00 RMK AO2 SLP212 T10611067 TSNO
94299KAAT AAT20161211060011512/11/16 06:00:31  5-MIN KAAT 111400Z AUTO 00000KT 7SM CLR M06/M07 A3010 4220 96 2700 000/00 RMK AO2 T10611067 TSNO
94299KAAT AAT20161211060511512/11/16 06:05:31  5-MIN KAAT 111405Z AUTO 00000KT 8SM CLR M06/M07 A3010 4220 92 2800 000/00 RMK AO2 T10561067 TSNO
94299KAAT AAT20161211061011512/11/16 06:10:31  5-MIN KAAT 111410Z AUTO 00000KT 8SM CLR M06/M07 A3010 4210 92 2800 000/00 RMK AO2 T10561067 TSNO
94299KAAT AAT20161211061511512/11/16 06:15:31  5-MIN KAAT 111415Z AUTO 00000KT 7SM CLR M06/M07 A3010 4210 92 2800 000/00 RMK AO2 T10561067 TSNO
94299KAAT AAT20161211062011812/11/16 06:20:31  5-MIN KAAT 111420Z AUTO 00000KT 6SM BR CLR M06/M07 A3010 4210 92 2700 000/00 RMK AO2 T10611072 TSNO
94299KAAT AAT20161211062511512/11/16 06:25:31  5-MIN KAAT 111425Z AUTO 00000KT 7SM CLR M06/M07 A3010 4210 96 2700 000/00 RMK AO2 T10611067 TSNO
94299KAAT AAT20161211063011812/11/16 06:30:31  5-MIN KAAT 111430Z AUTO 00000KT 6SM BR CLR M06/M07 A3010 4210 96 2700 000/00 RMK AO2 T10611067 TSNO
94299KAAT AAT20161211063511512/11/16 06:35:31  5-MIN KAAT 111435Z AUTO 00000KT 7SM CLR M06/M07 A3011 4210 92 2800 000/00 RMK AO2 T10561067 TSNO
94299KAAT AAT20161211064011612/11/16 06:40:31  5-MIN KAAT 111440Z AUTO 03003KT 10SM CLR M06/M07 A3011 4210 92 2700 010/03 RMK AO2 T10611072 TSNO
94299KAAT AAT20161211064511812/11/16 06:45:31  5-MIN KAAT 111445Z AUTO 00000KT 9SM FEW036 M06/M07 A3010 4210 92 2700 000/00 RMK AO2 T10611072 TSNO
94299KAAT AAT20161211065013112/11/16 06:50:31  5-MIN KAAT 111450Z AUTO 00000KT 9SM FEW036 M06/M06 A3010 4210 96 2800 000/00 RMK AO2 SLP215 T10561061 57002 TSNO
94299KAAT AAT20161211065512912/11/16 06:55:31  5-MIN KAAT 111455Z AUTO 09003KT 10SM CLR M06/M07 A3010 4210 92 2800 070/03 RMK AO2 SLP216 T10561067 53003 TSNO
94299KAAT AAT20161211070011712/11/16 07:00:31  5-MIN KAAT 111500Z AUTO 00000KT 10SM CLR M07/M07 A3011 4210 100 2600 000/00 RMK AO2 T10671067 TSNO
94299KAAT AAT20161211070511512/11/16 07:05:31  5-MIN KAAT 111505Z AUTO 00000KT 9SM CLR M07/M08 A3011 4210 96 2500 000/00 RMK AO2 T10721078 TSNO
94299KAAT AAT20161211071011512/11/16 07:10:31  5-MIN KAAT 111510Z AUTO 00000KT 8SM CLR M07/M08 A3011 4210 92 2500 000/00 RMK AO2 T10721083 TSNO
94299KAAT AAT20161211071511812/11/16 07:15:31  5-MIN KAAT 111515Z AUTO 00000KT 7SM FEW038 M07/M08 A3011 4210 92 2500 000/00 RMK AO2 T10721083 TSNO
94299KAAT AAT20161211072011812/11/16 07:20:31  5-MIN KAAT 111520Z AUTO 00000KT 7SM SCT038 M07/M08 A3011 4210 92 2500 000/00 RMK AO2 T10721083 TSNO
94299KAAT AAT20161211072511812/11/16 07:25:31  5-MIN KAAT 111525Z AUTO 00000KT 8SM BKN036 M07/M08 A3011 4210 92 2600 000/00 RMK AO2 T10671078 TSNO
94299KAAT AAT20161211073011812/11/16 07:30:31  5-MIN KAAT 111530Z AUTO 00000KT 8SM BKN036 M07/M08 A3011 4210 92 2600 000/00 RMK AO2 T10671078 TSNO
94299KAAT AAT20161211073511812/11/16 07:35:31  5-MIN KAAT 111535Z AUTO 00000KT 7SM BKN036 M06/M07 A3011 4210 96 2700 000/00 RMK AO2 T10611067 TSNO
94299KAAT AAT20161211074011812/11/16 07:40:31  5-MIN KAAT 111540Z AUTO 00000KT 7SM OVC036 M06/M06 A3011 4210 96 2800 000/00 RMK AO2 T10561061 TSNO
94299KAAT AAT20161211074511812/11/16 07:45:31  5-MIN KAAT 111545Z AUTO 00000KT 7SM OVC036 M05/M06 A3010 4210 92 2800 000/00 RMK AO2 T10501061 TSNO
94299KAAT AAT20161211075012812/11/16 07:50:31  5-MIN KAAT 111550Z AUTO 33003KT 6SM BR OVC036 M05/M06 A3011 4210 96 2800 320/03 RMK AO2 SLP218 T10501056 TSNO
94299KAAT AAT20161211075512812/11/16 07:55:31  5-MIN KAAT 111555Z AUTO 00000KT 6SM BR OVC036 M05/M06 A3011 4210 96 2800 000/00 RMK AO2 SLP217 T10501056 TSNO
94299KAAT AAT20161211080012112/11/16 08:00:31  5-MIN KAAT 111600Z AUTO 00000KT 5SM BR OVC034 M04/M05 A3011 4210 96 2900 000/00 RMK AO2 T10441050 TSNO
94299KAAT AAT20161211080512112/11/16 08:05:31  5-MIN KAAT 111605Z AUTO 00000KT 4SM BR OVC034 M04/M04 A3011 4210 96 3000 000/00 RMK AO2 T10391044 TSNO
94299KAAT AAT20161211081012112/11/16 08:10:31  5-MIN KAAT 111610Z AUTO VRB03KT 5SM BR OVC034 M03/M04 A3010 4210 96 3000 VRB/03 RMK AO2 T10331039 TSNO
94299KAAT AAT20161211081511812/11/16 08:15:31  5-MIN KAAT 111615Z AUTO 00000KT 7SM OVC034 M03/M04 A3011 4210 92 3100 000/00 RMK AO2 T10281039 TSNO
94299KAAT AAT20161211082011912/11/16 08:20:31  5-MIN KAAT 111620Z AUTO 09004KT 10SM OVC033 M03/M04 A3011 4210 92 3100 070/04 RMK AO2 T10281039 TSNO
94299KAAT AAT20161211082511912/11/16 08:25:31  5-MIN KAAT 111625Z AUTO 00000KT 10SM OVC033 M02/M04 A3011 4200 88 3200 000/00 RMK AO2 T10221039 TSNO
94299KAAT AAT20161211083011912/11/16 08:30:31  5-MIN KAAT 111630Z AUTO 00000KT 10SM OVC033 M02/M03 A3011 4200 92 3200 000/00 RMK AO2 T10221033 TSNO
94299KAAT AAT20161211083511912/11/16 08:35:31  5-MIN KAAT 111635Z AUTO 00000KT 10SM OVC032 M02/M04 A3012 4200 88 3200 000/00 RMK AO2 T10221039 TSNO
94299KAAT AAT20161211084011912/11/16 08:40:31  5-MIN KAAT 111640Z AUTO 14003KT 10SM OVC032 M02/M04 A3012 4200 88 3200 120/03 RMK AO2 T10221039 TSNO
94299KAAT AAT20161211084511912/11/16 08:45:31  5-MIN KAAT 111645Z AUTO 16003KT 10SM OVC032 M02/M04 A3012 4200 88 3200 140/03 RMK AO2 T10221039 TSNO
94299KAAT AAT20161211085012612/11/16 08:50:31  5-MIN KAAT 111650Z AUTO 14004KT 10SM OVC032 M02/M04 A3011 4200 88 3200 120/04 RMK AO2 SLP216 T10221039 TSNO
94299KAAT AAT20161211085512612/11/16 08:55:31  5-MIN KAAT 111655Z AUTO 00000KT 10SM OVC032 M02/M03 A3012 4200 92 3200 000/00 RMK AO2 SLP216 T10221033 TSNO
94299KAAT AAT20161211090011912/11/16 09:00:31  5-MIN KAAT 111700Z AUTO 00000KT 10SM BKN032 M02/M03 A3011 4200 92 3200 000/00 RMK AO2 T10171028 TSNO
94299KAAT AAT20161211090511912/11/16 09:05:31  5-MIN KAAT 111705Z AUTO 13004KT 10SM BKN032 M02/M03 A3011 4200 92 3200 120/04 RMK AO2 T10171028 TSNO
94299KAAT AAT20161211091011912/11/16 09:10:31  5-MIN KAAT 111710Z AUTO 00000KT 10SM BKN032 M01/M02 A3012 4200 92 3300 000/00 RMK AO2 T10111022 TSNO
94299KAAT AAT20161211091511912/11/16 09:15:31  5-MIN KAAT 111715Z AUTO 00000KT 10SM BKN032 M01/M03 A3012 4200 88 3300 000/00 RMK AO2 T10111028 TSNO
94299KAAT AAT20161211092011912/11/16 09:20:31  5-MIN KAAT 111720Z AUTO 20003KT 10SM SCT032 M01/M03 A3012 4200 88 3300 190/03 RMK AO2 T10111028 TSNO
94299KAAT AAT20161211092511912/11/16 09:25:31  5-MIN KAAT 111725Z AUTO 18004KT 10SM SCT032 M01/M03 A3012 4200 85 3400 160/04 RMK AO2 T10061028 TSNO
94299KAAT AAT20161211093011912/11/16 09:30:31  5-MIN KAAT 111730Z AUTO 18005KT 10SM SCT032 M01/M03 A3012 4200 81 3400 170/05 RMK AO2 T10061033 TSNO
94299KAAT AAT20161211093511912/11/16 09:35:31  5-MIN KAAT 111735Z AUTO 22004KT 10SM FEW031 M01/M03 A3012 4200 81 3400 200/04 RMK AO2 T10061033 TSNO
94299KAAT AAT20161211094011912/11/16 09:40:31  5-MIN KAAT 111740Z AUTO 19004KT 10SM FEW031 M01/M03 A3012 4200 81 3400 180/04 RMK AO2 T10061033 TSNO
94299KAAT AAT20161211094511812/11/16 09:45:31  5-MIN KAAT 111745Z AUTO 00000KT 10SM FEW031 00/M03 A3012 4200 78 3400 000/00 RMK AO2 T00001033 TSNO
94299KAAT AAT20161211095014412/11/16 09:50:31  5-MIN KAAT 111750Z AUTO 21005KT 10SM FEW031 M01/M04 A3012 4190 78 3400 200/05 RMK AO2 SLP216 T10061039 10000 21078 53003 TSNO
94299KAAT AAT20161211095514112/11/16 09:55:31  5-MIN KAAT 111755Z AUTO VRB03KT 10SM CLR M01/M04 A3012 4200 78 3400 VRB/03 RMK AO2 SLP215 T10061039 10000 21078 53005 TSNO
94299KAAT AAT20161211100011512/11/16 10:00:31  5-MIN KAAT 111800Z AUTO 17004KT 10SM CLR 00/M03 A3012 4200 78 3400 160/04 RMK AO2 T00001033 TSNO
94299KAAT AAT20161211100511512/11/16 10:05:31  5-MIN KAAT 111805Z AUTO 15004KT 10SM CLR 01/M03 A3012 4190 75 3500 140/04 RMK AO2 T00061033 TSNO
94299KAAT AAT20161211101011512/11/16 10:10:31  5-MIN KAAT 111810Z AUTO 17005KT 10SM CLR 01/M03 A3012 4200 75 3500 160/05 RMK AO2 T00061033 TSNO
94299KAAT AAT20161211101511512/11/16 10:15:31  5-MIN KAAT 111815Z AUTO 18005KT 10SM CLR 00/M04 A3012 4200 75 3400 160/05 RMK AO2 T00001039 TSNO
94299KAAT AAT20161211102011512/11/16 10:20:31  5-MIN KAAT 111820Z AUTO 17005KT 10SM CLR 01/M04 A3012 4200 72 3500 160/05 RMK AO2 T00061039 TSNO
94299KAAT AAT20161211102511512/11/16 10:25:31  5-MIN KAAT 111825Z AUTO 18004KT 10SM CLR 01/M04 A3012 4200 69 3500 160/04 RMK AO2 T00061044 TSNO
94299KAAT AAT20161211103011512/11/16 10:30:31  5-MIN KAAT 111830Z AUTO 18003KT 10SM CLR 01/M04 A3012 4200 69 3600 160/03 RMK AO2 T00111039 TSNO
94299KAAT AAT20161211103511512/11/16 10:35:31  5-MIN KAAT 111835Z AUTO 17005KT 10SM CLR 01/M04 A3011 4200 69 3600 160/05 RMK AO2 T00111039 TSNO
94299KAAT AAT20161211104011512/11/16 10:40:31  5-MIN KAAT 111840Z AUTO 14003KT 10SM CLR 01/M04 A3011 4210 69 3600 120/03 RMK AO2 T00111039 TSNO
94299KAAT AAT20161211104511512/11/16 10:45:31  5-MIN KAAT 111845Z AUTO 18003KT 10SM CLR 01/M04 A3011 4210 69 3600 170/03 RMK AO2 T00111039 TSNO
94299KAAT AAT20161211105012212/11/16 10:50:31  5-MIN KAAT 111850Z AUTO 14003KT 10SM CLR 02/M03 A3010 4210 72 3600 130/03 RMK AO2 SLP205 T00171028 TSNO
94299KAAT AAT20161211105512212/11/16 10:55:31  5-MIN KAAT 111855Z AUTO VRB03KT 10SM CLR 02/M03 A3010 4210 69 3700 VRB/03 RMK AO2 SLP206 T00171033 TSNO
94299KAAT AAT20161211110011512/11/16 11:00:31  5-MIN KAAT 111900Z AUTO 00000KT 10SM CLR 02/M04 A3010 4210 66 3700 000/00 RMK AO2 T00171039 TSNO
94299KAAT AAT20161211110511512/11/16 11:05:31  5-MIN KAAT 111905Z AUTO 00000KT 10SM CLR 02/M03 A3010 4210 69 3700 000/00 RMK AO2 T00171033 TSNO
94299KAAT AAT20161211111011512/11/16 11:10:31  5-MIN KAAT 111910Z AUTO 00000KT 10SM CLR 02/M03 A3010 4210 69 3700 000/00 RMK AO2 T00171033 TSNO
94299KAAT AAT20161211111511512/11/16 11:15:31  5-MIN KAAT 111915Z AUTO 00000KT 10SM CLR 02/M03 A3010 4220 67 3700 000/00 RMK AO2 T00221033 TSNO
94299KAAT AAT20161211112011512/11/16 11:20:31  5-MIN KAAT 111920Z AUTO 00000KT 10SM CLR 02/M03 A3010 4220 67 3700 000/00 RMK AO2 T00221033 TSNO
94299KAAT AAT20161211112511512/11/16 11:25:31  5-MIN KAAT 111925Z AUTO 00000KT 10SM CLR 03/M03 A3010 4220 64 3800 000/00 RMK AO2 T00281033 TSNO
94299KAAT AAT20161211113011512/11/16 11:30:31  5-MIN KAAT 111930Z AUTO 00000KT 10SM CLR 03/M03 A3009 4220 67 3800 000/00 RMK AO2 T00281028 TSNO
94299KAAT AAT20161211113511512/11/16 11:35:31  5-MIN KAAT 111935Z AUTO 00000KT 10SM CLR 03/M03 A3009 4220 67 3800 000/00 RMK AO2 T00281028 TSNO
94299KAAT AAT20161211114011512/11/16 11:40:31  5-MIN KAAT 111940Z AUTO 00000KT 10SM CLR 03/M03 A3009 4220 67 3800 000/00 RMK AO2 T00281028 TSNO
94299KAAT AAT20161211114511512/11/16 11:45:31  5-MIN KAAT 111945Z AUTO 00000KT 10SM CLR 03/M03 A3009 4230 64 3900 000/00 RMK AO2 T00331028 TSNO
94299KAAT AAT20161211115012212/11/16 11:50:31  5-MIN KAAT 111950Z AUTO 00000KT 10SM CLR 04/M03 A3009 4230 62 3900 000/00 RMK AO2 SLP199 T00391028 TSNO
94299KAAT AAT20161211115512212/11/16 11:55:31  5-MIN KAAT 111955Z AUTO 00000KT 10SM CLR 03/M03 A3008 4230 61 3900 000/00 RMK AO2 SLP199 T00331033 TSNO
94299KAAT AAT20161211120011512/11/16 12:00:31  5-MIN KAAT 112000Z AUTO 00000KT 10SM CLR 03/M03 A3008 4230 64 3900 000/00 RMK AO2 T00331028 TSNO
94299KAAT AAT20161211120511512/11/16 12:05:31  5-MIN KAAT 112005Z AUTO 00000KT 10SM CLR 03/M03 A3008 4230 64 3900 000/00 RMK AO2 T00331028 TSNO
94299KAAT AAT20161211121011512/11/16 12:10:31  5-MIN KAAT 112010Z AUTO 00000KT 10SM CLR 04/M03 A3008 4240 59 3900 000/00 RMK AO2 T00391033 TSNO
94299KAAT AAT20161211121511512/11/16 12:15:31  5-MIN KAAT 112015Z AUTO 00000KT 10SM CLR 04/M03 A3008 4230 57 4000 000/00 RMK AO2 T00441033 TSNO
94299KAAT AAT20161211122011512/11/16 12:20:31  5-MIN KAAT 112020Z AUTO 30003KT 10SM CLR 04/M03 A3008 4240 59 3900 290/03 RMK AO2 T00391033 TSNO
94299KAAT AAT20161211122511512/11/16 12:25:31  5-MIN KAAT 112025Z AUTO VRB03KT 10SM CLR 04/M03 A3007 4240 59 4000 VRB/03 RMK AO2 T00391033 TSNO
94299KAAT AAT20161211123011512/11/16 12:30:31  5-MIN KAAT 112030Z AUTO 26006KT 10SM CLR 03/M03 A3007 4240 64 3900 250/06 RMK AO2 T00331028 TSNO
94299KAAT AAT20161211123511512/11/16 12:35:31  5-MIN KAAT 112035Z AUTO 27006KT 10SM CLR 03/M02 A3007 4240 67 3900 250/06 RMK AO2 T00331022 TSNO
94299KAAT AAT20161211124011512/11/16 12:40:31  5-MIN KAAT 112040Z AUTO 27006KT 10SM CLR 03/M02 A3007 4240 67 3900 250/06 RMK AO2 T00331022 TSNO
94299KAAT AAT20161211124511512/11/16 12:45:31  5-MIN KAAT 112045Z AUTO 26005KT 10SM CLR 03/M02 A3007 4240 67 3900 250/05 RMK AO2 T00331022 TSNO
94299KAAT AAT20161211125012812/11/16 12:50:31  5-MIN KAAT 112050Z AUTO 27005KT 10SM CLR 03/M02 A3007 4250 67 3900 260/05 RMK AO2 SLP196 T00331022 53005 TSNO
94299KAAT AAT20161211125512812/11/16 12:55:31  5-MIN KAAT 112055Z AUTO 27007KT 10SM CLR 03/M02 A3006 4250 67 3900 250/07 RMK AO2 SLP195 T00331022 58017 TSNO
94299KAAT AAT20161211130011512/11/16 13:00:31  5-MIN KAAT 112100Z AUTO 26007KT 10SM CLR 03/M02 A3006 4250 67 3900 250/07 RMK AO2 T00331022 TSNO
94299KAAT AAT20161211130511512/11/16 13:05:31  5-MIN KAAT 112105Z AUTO 25007KT 10SM CLR 03/M02 A3006 4250 67 3900 230/07 RMK AO2 T00331022 TSNO
94299KAAT AAT20161211131011512/11/16 13:10:31  5-MIN KAAT 112110Z AUTO 25007KT 10SM CLR 03/M02 A3006 4250 67 3900 230/07 RMK AO2 T00331022 TSNO
94299KAAT AAT20161211131511512/11/16 13:15:31  5-MIN KAAT 112115Z AUTO 26007KT 10SM CLR 03/M02 A3006 4250 67 3900 240/07 RMK AO2 T00331022 TSNO
94299KAAT AAT20161211132011512/11/16 13:20:31  5-MIN KAAT 112120Z AUTO 24006KT 10SM CLR 03/M02 A3006 4250 67 3900 230/06 RMK AO2 T00331022 TSNO
94299KAAT AAT20161211132511512/11/16 13:25:31  5-MIN KAAT 112125Z AUTO 24005KT 10SM CLR 03/M02 A3006 4260 67 3900 220/05 RMK AO2 T00331022 TSNO
94299KAAT AAT20161211133011512/11/16 13:30:31  5-MIN KAAT 112130Z AUTO 24005KT 10SM CLR 03/M02 A3006 4260 70 3900 230/05 RMK AO2 T00331017 TSNO
94299KAAT AAT20161211133511512/11/16 13:35:31  5-MIN KAAT 112135Z AUTO 25005KT 10SM CLR 03/M02 A3005 4260 67 3900 240/05 RMK AO2 T00331022 TSNO
94299KAAT AAT20161211134011512/11/16 13:40:31  5-MIN KAAT 112140Z AUTO 26006KT 10SM CLR 03/M02 A3005 4260 67 3900 240/06 RMK AO2 T00331022 TSNO
94299KAAT AAT20161211134511512/11/16 13:45:31  5-MIN KAAT 112145Z AUTO 26006KT 10SM CLR 03/M02 A3005 4260 70 3900 250/06 RMK AO2 T00331017 TSNO
94299KAAT AAT20161211135012212/11/16 13:50:31  5-MIN KAAT 112150Z AUTO 26004KT 10SM CLR 03/M02 A3005 4260 70 3900 240/04 RMK AO2 SLP191 T00331017 TSNO
94299KAAT AAT20161211135512212/11/16 13:55:31  5-MIN KAAT 112155Z AUTO 28004KT 10SM CLR 03/M02 A3005 4260 70 3900 270/04 RMK AO2 SLP188 T00331017 TSNO
94299KAAT AAT20161211140011512/11/16 14:00:31  5-MIN KAAT 112200Z AUTO VRB04KT 10SM CLR 03/M02 A3005 4260 70 3900 VRB/04 RMK AO2 T00331017 TSNO
94299KAAT AAT20161211140511512/11/16 14:05:31  5-MIN KAAT 112205Z AUTO 27004KT 10SM CLR 03/M02 A3005 4260 67 3900 250/04 RMK AO2 T00331022 TSNO
94299KAAT AAT20161211141011512/11/16 14:10:31  5-MIN KAAT 112210Z AUTO 26005KT 10SM CLR 03/M02 A3005 4260 67 3900 250/05 RMK AO2 T00331022 TSNO
94299KAAT AAT20161211141511512/11/16 14:15:31  5-MIN KAAT 112215Z AUTO 26004KT 10SM CLR 04/M02 A3005 4260 67 4000 250/04 RMK AO2 T00391017 TSNO
94299KAAT AAT20161211142011512/11/16 14:20:31  5-MIN KAAT 112220Z AUTO 26005KT 10SM CLR 04/M02 A3005 4260 64 4000 240/05 RMK AO2 T00391022 TSNO
94299KAAT AAT20161211142511512/11/16 14:25:31  5-MIN KAAT 112225Z AUTO 26004KT 10SM CLR 04/M02 A3005 4260 64 4000 250/04 RMK AO2 T00391022 TSNO
94299KAAT AAT20161211143011512/11/16 14:30:31  5-MIN KAAT 112230Z AUTO 28004KT 10SM CLR 04/M02 A3005 4260 67 4000 260/04 RMK AO2 T00391017 TSNO
94299KAAT AAT20161211143511512/11/16 14:35:31  5-MIN KAAT 112235Z AUTO 28004KT 10SM CLR 04/M02 A3005 4260 67 4000 260/04 RMK AO2 T00391017 TSNO
94299KAAT AAT20161211144011512/11/16 14:40:31  5-MIN KAAT 112240Z AUTO 28004KT 10SM CLR 04/M02 A3005 4260 64 4000 260/04 RMK AO2 T00391022 TSNO
94299KAAT AAT20161211144511512/11/16 14:45:31  5-MIN KAAT 112245Z AUTO 29004KT 10SM CLR 04/M02 A3005 4260 67 4000 270/04 RMK AO2 T00391017 TSNO
94299KAAT AAT20161211145012212/11/16 14:50:31  5-MIN KAAT 112250Z AUTO 27004KT 10SM CLR 04/M02 A3005 4260 67 4000 260/04 RMK AO2 SLP191 T00391017 TSNO
94299KAAT AAT20161211145512212/11/16 14:55:31  5-MIN KAAT 112255Z AUTO 28003KT 10SM CLR 04/M02 A3005 4260 67 4000 260/03 RMK AO2 SLP193 T00391017 TSNO
94299KAAT AAT20161211150011512/11/16 15:00:31  5-MIN KAAT 112300Z AUTO 28004KT 10SM CLR 04/M02 A3005 4260 67 4000 270/04 RMK AO2 T00391017 TSNO
94299KAAT AAT20161211150511512/11/16 15:05:31  5-MIN KAAT 112305Z AUTO 28005KT 10SM CLR 04/M01 A3005 4260 70 4000 260/05 RMK AO2 T00391011 TSNO
94299KAAT AAT20161211151011512/11/16 15:10:31  5-MIN KAAT 112310Z AUTO 27005KT 10SM CLR 04/M01 A3005 4260 70 4000 260/05 RMK AO2 T00391011 TSNO
94299KAAT AAT20161211151511512/11/16 15:15:31  5-MIN KAAT 112315Z AUTO 28005KT 10SM CLR 03/M01 A3005 4260 72 3900 260/05 RMK AO2 T00331011 TSNO
94299KAAT AAT20161211152011512/11/16 15:20:31  5-MIN KAAT 112320Z AUTO 27005KT 10SM CLR 03/M01 A3006 4260 72 3900 260/05 RMK AO2 T00331011 TSNO
94299KAAT AAT20161211152511512/11/16 15:25:31  5-MIN KAAT 112325Z AUTO 28004KT 10SM CLR 03/M01 A3006 4260 72 3900 270/04 RMK AO2 T00331011 TSNO
94299KAAT AAT20161211153011512/11/16 15:30:31  5-MIN KAAT 112330Z AUTO 29004KT 10SM CLR 03/M01 A3005 4260 72 3900 270/04 RMK AO2 T00331011 TSNO
94299KAAT AAT20161211153511512/11/16 15:35:31  5-MIN KAAT 112335Z AUTO 29005KT 10SM CLR 03/M01 A3005 4260 72 3900 270/05 RMK AO2 T00331011 TSNO
94299KAAT AAT20161211154011512/11/16 15:40:31  5-MIN KAAT 112340Z AUTO 28005KT 10SM CLR 03/M01 A3005 4260 72 3900 270/05 RMK AO2 T00331011 TSNO
94299KAAT AAT20161211154511512/11/16 15:45:31  5-MIN KAAT 112345Z AUTO 28005KT 10SM CLR 03/M01 A3005 4260 75 3800 270/05 RMK AO2 T00281011 TSNO
94299KAAT AAT20161211155014012/11/16 15:50:31  5-MIN KAAT 112350Z AUTO 28005KT 10SM CLR 03/M01 A3005 4260 75 3800 270/05 RMK AO2 SLP196 T00281011 10044 21006 58017 TSNO
94299KAAT AAT20161211155514012/11/16 15:55:31  5-MIN KAAT 112355Z AUTO 28006KT 10SM CLR 03/M01 A3005 4260 75 3800 270/06 RMK AO2 SLP197 T00281011 10044 21006 55003 TSNO
94299KAAT AAT20161211160011512/11/16 16:00:31  5-MIN KAAT 120000Z AUTO 28005KT 10SM CLR 03/M01 A3005 4260 75 3800 270/05 RMK AO2 T00281011 TSNO
94299KAAT AAT20161211160511512/11/16 16:05:31  5-MIN KAAT 120005Z AUTO 27006KT 10SM CLR 02/M01 A3005 4260 78 3800 260/06 RMK AO2 T00221011 TSNO
94299KAAT AAT20161211161011512/11/16 16:10:31  5-MIN KAAT 120010Z AUTO 27005KT 10SM CLR 02/M02 A3005 4260 75 3800 250/05 RMK AO2 T00221017 TSNO
94299KAAT AAT20161211161511512/11/16 16:15:31  5-MIN KAAT 120015Z AUTO 27006KT 10SM CLR 02/M02 A3005 4260 75 3800 250/06 RMK AO2 T00221017 TSNO
94299KAAT AAT20161211162011512/11/16 16:20:31  5-MIN KAAT 120020Z AUTO 26005KT 10SM CLR 02/M02 A3005 4260 75 3800 250/05 RMK AO2 T00221017 TSNO
94299KAAT AAT20161211162511512/11/16 16:25:31  5-MIN KAAT 120025Z AUTO 26005KT 10SM CLR 02/M02 A3005 4260 78 3700 250/05 RMK AO2 T00171017 TSNO
94299KAAT AAT20161211163011512/11/16 16:30:31  5-MIN KAAT 120030Z AUTO 26006KT 10SM CLR 02/M02 A3005 4260 78 3700 250/06 RMK AO2 T00171017 TSNO
94299KAAT AAT20161211163511512/11/16 16:35:31  5-MIN KAAT 120035Z AUTO 26005KT 10SM CLR 02/M02 A3005 4260 78 3700 240/05 RMK AO2 T00171017 TSNO
94299KAAT AAT20161211164011512/11/16 16:40:31  5-MIN KAAT 120040Z AUTO 25004KT 10SM CLR 01/M02 A3005 4260 82 3600 240/04 RMK AO2 T00111017 TSNO
94299KAAT AAT20161211164511512/11/16 16:45:31  5-MIN KAAT 120045Z AUTO 27004KT 10SM CLR 01/M02 A3005 4260 78 3600 250/04 RMK AO2 T00111022 TSNO
94299KAAT AAT20161211165012212/11/16 16:50:31  5-MIN KAAT 120050Z AUTO 26005KT 10SM CLR 01/M02 A3006 4260 78 3600 250/05 RMK AO2 SLP201 T00111022 TSNO
94299KAAT AAT20161211165512212/11/16 16:55:31  5-MIN KAAT 120055Z AUTO 27005KT 10SM CLR 01/M02 A3006 4260 78 3600 250/05 RMK AO2 SLP201 T00111022 TSNO
94299KAAT AAT20161211170011512/11/16 17:00:31  5-MIN KAAT 120100Z AUTO 26005KT 10SM CLR 01/M02 A3006 4260 78 3600 250/05 RMK AO2 T00111022 TSNO
94299KAAT AAT20161211170511512/11/16 17:05:31  5-MIN KAAT 120105Z AUTO 26006KT 10SM CLR 01/M02 A3006 4260 78 3600 240/06 RMK AO2 T00111022 TSNO
94299KAAT AAT20161211171011512/11/16 17:10:31  5-MIN KAAT 120110Z AUTO 26006KT 10SM CLR 01/M02 A3005 4260 78 3600 250/06 RMK AO2 T00111022 TSNO
94299KAAT AAT20161211171511512/11/16 17:15:31  5-MIN KAAT 120115Z AUTO 28005KT 10SM CLR 01/M02 A3005 4260 82 3600 260/05 RMK AO2 T00061022 TSNO
94299KAAT AAT20161211172011512/11/16 17:20:31  5-MIN KAAT 120120Z AUTO 27006KT 10SM CLR 01/M02 A3006 4260 78 3600 260/06 RMK AO2 T00111022 TSNO
94299KAAT AAT20161211172511512/11/16 17:25:31  5-MIN KAAT 120125Z AUTO 27005KT 10SM CLR 01/M02 A3005 4260 82 3600 260/05 RMK AO2 T00061022 TSNO
94299KAAT AAT20161211173011512/11/16 17:30:31  5-MIN KAAT 120130Z AUTO 28006KT 10SM CLR 01/M02 A3005 4260 82 3600 260/06 RMK AO2 T00061022 TSNO
94299KAAT AAT20161211173511512/11/16 17:35:31  5-MIN KAAT 120135Z AUTO 28007KT 10SM CLR 01/M02 A3005 4260 82 3600 260/07 RMK AO2 T00061022 TSNO
94299KAAT AAT20161211174011512/11/16 17:40:31  5-MIN KAAT 120140Z AUTO 28008KT 10SM CLR 01/M02 A3005 4260 78 3600 260/08 RMK AO2 T00111022 TSNO
94299KAAT AAT20161211174511512/11/16 17:45:31  5-MIN KAAT 120145Z AUTO 28008KT 10SM CLR 01/M02 A3005 4260 78 3600 270/08 RMK AO2 T00111022 TSNO
94299KAAT AAT20161211175012212/11/16 17:50:31  5-MIN KAAT 120150Z AUTO 28008KT 10SM CLR 01/M02 A3005 4260 78 3600 260/08 RMK AO2 SLP199 T00111022 TSNO
94299KAAT AAT20161211175512212/11/16 17:55:31  5-MIN KAAT 120155Z AUTO 28008KT 10SM CLR 01/M02 A3005 4260 78 3600 270/08 RMK AO2 SLP200 T00111022 TSNO
94299KAAT AAT20161211180011512/11/16 18:00:31  5-MIN KAAT 120200Z AUTO 28008KT 10SM CLR 01/M02 A3005 4260 78 3600 270/08 RMK AO2 T00111022 TSNO
94299KAAT AAT20161211180511512/11/16 18:05:31  5-MIN KAAT 120205Z AUTO 29007KT 10SM CLR 01/M02 A3005 4260 78 3600 270/07 RMK AO2 T00111022 TSNO
94299KAAT AAT20161211181011512/11/16 18:10:31  5-MIN KAAT 120210Z AUTO 29007KT 10SM CLR 01/M03 A3005 4260 75 3600 270/07 RMK AO2 T00111028 TSNO
94299KAAT AAT20161211181511512/11/16 18:15:31  5-MIN KAAT 120215Z AUTO 29006KT 10SM CLR 01/M03 A3005 4260 78 3600 270/06 RMK AO2 T00061028 TSNO
94299KAAT AAT20161211182011512/11/16 18:20:31  5-MIN KAAT 120220Z AUTO 30006KT 10SM CLR 01/M03 A3005 4260 78 3600 280/06 RMK AO2 T00061028 TSNO
94299KAAT AAT20161211182511512/11/16 18:25:31  5-MIN KAAT 120225Z AUTO 29006KT 10SM CLR 01/M03 A3005 4260 78 3600 280/06 RMK AO2 T00061028 TSNO
94299KAAT AAT20161211183011512/11/16 18:30:31  5-MIN KAAT 120230Z AUTO 29004KT 10SM CLR 00/M03 A3006 4260 81 3500 280/04 RMK AO2 T00001028 TSNO
94299KAAT AAT20161211183511512/11/16 18:35:31  5-MIN KAAT 120235Z AUTO 30004KT 10SM CLR 00/M03 A3006 4250 81 3500 280/04 RMK AO2 T00001028 TSNO
94299KAAT AAT20161211184011512/11/16 18:40:31  5-MIN KAAT 120240Z AUTO 29005KT 10SM CLR 00/M03 A3006 4250 81 3500 280/05 RMK AO2 T00001028 TSNO
94299KAAT AAT20161211184511512/11/16 18:45:31  5-MIN KAAT 120245Z AUTO 28004KT 10SM CLR 00/M03 A3006 4250 81 3500 260/04 RMK AO2 T00001028 TSNO
94299KAAT AAT20161211185012812/11/16 18:50:31  5-MIN KAAT 120250Z AUTO 00000KT 10SM CLR 01/M03 A3006 4250 78 3600 000/00 RMK AO2 SLP203 T00061028 55003 TSNO
94299KAAT AAT20161211185512812/11/16 18:55:31  5-MIN KAAT 120255Z AUTO 00000KT 10SM CLR 01/M03 A3006 4250 78 3600 000/00 RMK AO2 SLP203 T00061028 53002 TSNO
94299KAAT AAT20161211190011512/11/16 19:00:31  5-MIN KAAT 120300Z AUTO 00000KT 10SM CLR 00/M03 A3006 4250 81 3500 000/00 RMK AO2 T00001028 TSNO
94299KAAT AAT20161211190511512/11/16 19:05:31  5-MIN KAAT 120305Z AUTO 00000KT 10SM CLR 00/M03 A3006 4250 81 3500 000/00 RMK AO2 T00001028 TSNO
94299KAAT AAT20161211191011512/11/16 19:10:31  5-MIN KAAT 120310Z AUTO 00000KT 10SM CLR 00/M03 A3006 4250 81 3500 000/00 RMK AO2 T00001028 TSNO
94299KAAT AAT20161211191511512/11/16 19:15:31  5-MIN KAAT 120315Z AUTO 00000KT 10SM CLR 00/M03 A3006 4250 81 3500 000/00 RMK AO2 T00001028 TSNO
94299KAAT AAT20161211192011512/11/16 19:20:31  5-MIN KAAT 120320Z AUTO 00000KT 10SM CLR 00/M03 A3006 4250 81 3500 000/00 RMK AO2 T00001028 TSNO
94299KAAT AAT20161211192511512/11/16 19:25:31  5-MIN KAAT 120325Z AUTO 14003KT 10SM CLR 00/M03 A3005 4260 81 3500 120/03 RMK AO2 T00001028 TSNO
94299KAAT AAT20161211193011612/11/16 19:30:31  5-MIN KAAT 120330Z AUTO 14003KT 10SM CLR M01/M03 A3005 4260 85 3400 130/03 RMK AO2 T10061028 TSNO
94299KAAT AAT20161211193511612/11/16 19:35:31  5-MIN KAAT 120335Z AUTO 13004KT 10SM CLR M01/M03 A3005 4260 85 3400 120/04 RMK AO2 T10061028 TSNO
94299KAAT AAT20161211194011612/11/16 19:40:31  5-MIN KAAT 120340Z AUTO 12004KT 10SM CLR M01/M03 A3005 4260 85 3400 110/04 RMK AO2 T10061028 TSNO
94299KAAT AAT20161211194511512/11/16 19:45:31  5-MIN KAAT 120345Z AUTO 13004KT 9SM CLR M01/M03 A3005 4260 85 3400 110/04 RMK AO2 T10061028 TSNO
94299KAAT AAT20161211195012212/11/16 19:50:31  5-MIN KAAT 120350Z AUTO 10003KT 7SM CLR M01/M03 A3005 4260 88 3400 090/03 RMK AO2 SLP201 T10111028 TSNO
94299KAAT AAT20161211195512212/11/16 19:55:31  5-MIN KAAT 120355Z AUTO 00000KT 7SM CLR M01/M03 A3005 4260 88 3400 000/00 RMK AO2 SLP201 T10111028 TSNO
94299KAAT AAT20161211200011612/11/16 20:00:31  5-MIN KAAT 120400Z AUTO 00000KT 10SM CLR M01/M03 A3005 4260 88 3400 000/00 RMK AO2 T10111028 TSNO
94299KAAT AAT20161211200511512/11/16 20:05:31  5-MIN KAAT 120405Z AUTO 07003KT 8SM CLR M01/M03 A3005 4260 88 3400 050/03 RMK AO2 T10111028 TSNO
94299KAAT AAT20161211201011512/11/16 20:10:31  5-MIN KAAT 120410Z AUTO 07004KT 8SM CLR M01/M03 A3005 4260 88 3400 060/04 RMK AO2 T10111028 TSNO
94299KAAT AAT20161211201511512/11/16 20:15:31  5-MIN KAAT 120415Z AUTO 08003KT 9SM CLR M01/M03 A3006 4250 88 3400 060/03 RMK AO2 T10111028 TSNO
94299KAAT AAT20161211202011612/11/16 20:20:31  5-MIN KAAT 120420Z AUTO 08004KT 10SM CLR M01/M03 A3006 4260 88 3400 060/04 RMK AO2 T10111028 TSNO
94299KAAT AAT20161211202511612/11/16 20:25:31  5-MIN KAAT 120425Z AUTO 08003KT 10SM CLR M01/M03 A3006 4260 88 3400 060/03 RMK AO2 T10111028 TSNO
94299KAAT AAT20161211203011612/11/16 20:30:31  5-MIN KAAT 120430Z AUTO 08003KT 10SM CLR M01/M03 A3005 4260 88 3400 070/03 RMK AO2 T10111028 TSNO
94299KAAT AAT20161211203511612/11/16 20:35:31  5-MIN KAAT 120435Z AUTO 07003KT 10SM CLR M01/M03 A3006 4260 88 3400 060/03 RMK AO2 T10111028 TSNO
94299KAAT AAT20161211204011512/11/16 20:40:31  5-MIN KAAT 120440Z AUTO 00000KT 9SM CLR M01/M03 A3006 4250 88 3400 000/00 RMK AO2 T10111028 TSNO
94299KAAT AAT20161211204511512/11/16 20:45:31  5-MIN KAAT 120445Z AUTO 07003KT 9SM CLR M02/M03 A3006 4260 92 3300 060/03 RMK AO2 T10171028 TSNO
94299KAAT AAT20161211205012212/11/16 20:50:31  5-MIN KAAT 120450Z AUTO 00000KT 8SM CLR M02/M03 A3006 4260 92 3300 000/00 RMK AO2 SLP199 T10171028 TSNO
94299KAAT AAT20161211205512212/11/16 20:55:31  5-MIN KAAT 120455Z AUTO 00000KT 8SM CLR M02/M03 A3006 4260 96 3200 000/00 RMK AO2 SLP201 T10221028 TSNO
94299KAAT AAT20161211210011512/11/16 21:00:31  5-MIN KAAT 120500Z AUTO 00000KT 7SM CLR M02/M03 A3006 4260 96 3200 000/00 RMK AO2 T10221028 TSNO
94299KAAT AAT20161211210511812/11/16 21:05:31  5-MIN KAAT 120505Z AUTO 06003KT 6SM BR CLR M02/M03 A3006 4260 92 3300 050/03 RMK AO2 T10171028 TSNO
94299KAAT AAT20161211211011812/11/16 21:10:31  5-MIN KAAT 120510Z AUTO 06003KT 5SM BR CLR M02/M03 A3006 4260 92 3200 040/03 RMK AO2 T10221033 TSNO
94299KAAT AAT20161211211511812/11/16 21:15:31  5-MIN KAAT 120515Z AUTO 00000KT 5SM BR CLR M02/M03 A3006 4250 92 3200 000/00 RMK AO2 T10221033 TSNO
94299KAAT AAT20161211212011812/11/16 21:20:31  5-MIN KAAT 120520Z AUTO 00000KT 5SM BR CLR M02/M03 A3006 4250 92 3200 000/00 RMK AO2 T10221033 TSNO
94299KAAT AAT20161211212511812/11/16 21:25:31  5-MIN KAAT 120525Z AUTO 00000KT 6SM BR CLR M03/M03 A3006 4250 96 3200 000/00 RMK AO2 T10281033 TSNO
94299KAAT AAT20161211213011512/11/16 21:30:31  5-MIN KAAT 120530Z AUTO 00000KT 8SM CLR M03/M03 A3006 4250 96 3200 000/00 RMK AO2 T10281033 TSNO
94299KAAT AAT20161211213511512/11/16 21:35:31  5-MIN KAAT 120535Z AUTO 00000KT 9SM CLR M03/M03 A3007 4250 96 3200 000/00 RMK AO2 T10281033 TSNO
94299KAAT AAT20161211214011512/11/16 21:40:31  5-MIN KAAT 120540Z AUTO 00000KT 8SM CLR M03/M03 A3007 4250 96 3200 000/00 RMK AO2 T10281033 TSNO
94299KAAT AAT20161211214511512/11/16 21:45:31  5-MIN KAAT 120545Z AUTO 00000KT 8SM CLR M03/M04 A3007 4250 92 3100 000/00 RMK AO2 T10281039 TSNO
94299KAAT AAT20161211215014012/11/16 21:50:31  5-MIN KAAT 120550Z AUTO 00000KT 7SM CLR M03/M04 A3007 4240 96 3100 000/00 RMK AO2 SLP204 T10331039 10028 21033 53002 TSNO
94299KAAT AAT20161211215514012/11/16 21:55:31  5-MIN KAAT 120555Z AUTO 00000KT 7SM CLR M03/M04 A3007 4240 96 3100 000/00 RMK AO2 SLP204 T10331039 10028 21033 53003 TSNO
94299KAAT AAT20161211220011812/11/16 22:00:31  5-MIN KAAT 120600Z AUTO 00000KT 4SM BR CLR M03/M03 A3007 4240 96 3100 000/00 RMK AO2 T10281033 TSNO
94299KAAT AAT20161211220511812/11/16 22:05:31  5-MIN KAAT 120605Z AUTO 00000KT 4SM BR CLR M03/M04 A3007 4240 96 3100 000/00 RMK AO2 T10331039 TSNO
94299KAAT AAT20161211221011812/11/16 22:10:31  5-MIN KAAT 120610Z AUTO 00000KT 4SM BR CLR M03/M04 A3007 4240 92 3100 000/00 RMK AO2 T10281039 TSNO
94299KAAT AAT20161211221511812/11/16 22:15:31  5-MIN KAAT 120615Z AUTO 00000KT 6SM BR CLR M03/M04 A3007 4240 96 3100 000/00 RMK AO2 T10331039 TSNO
94299KAAT AAT20161211222011812/11/16 22:20:31  5-MIN KAAT 120620Z AUTO 00000KT 6SM BR CLR M03/M04 A3007 4240 96 3100 000/00 RMK AO2 T10331039 TSNO
94299KAAT AAT20161211222511812/11/16 22:25:31  5-MIN KAAT 120625Z AUTO 00000KT 4SM BR CLR M03/M04 A3008 4240 96 3100 000/00 RMK AO2 T10331039 TSNO
94299KAAT AAT20161211223013412/11/16 22:30:31  5-MIN KAAT 120630Z AUTO 00000KT 2 1/2SM BR CLR M03/M04 A3007 4240 92 3100 000/00 RMK AO2 VIS 1 3/4V4 T10281039 TSNO
94299KAAT AAT20161211223512212/11/16 22:35:31  5-MIN KAAT 120635Z AUTO 00000KT 2 1/2SM BR CLR M03/M04 A3007 4240 96 3100 000/00 RMK AO2 T10331039 TSNO
94299KAAT AAT20161211224011812/11/16 22:40:31  5-MIN KAAT 120640Z AUTO 00000KT 3SM BR CLR M03/M04 A3007 4240 92 3100 000/00 RMK AO2 T10281039 TSNO
94299KAAT AAT20161211224512212/11/16 22:45:31  5-MIN KAAT 120645Z AUTO 00000KT 2 1/2SM BR CLR M03/M04 A3007 4240 96 3100 000/00 RMK AO2 T10331039 TSNO
94299KAAT AAT20161211225012512/11/16 22:50:31  5-MIN KAAT 120650Z AUTO 00000KT 2SM BR CLR M03/M04 A3008 4240 92 3100 000/00 RMK AO2 SLP203 T10281039 TSNO
94299KAAT AAT20161211225514112/11/16 22:55:31  5-MIN KAAT 120655Z AUTO 00000KT 2 1/2SM BR CLR M03/M04 A3008 4240 92 3100 000/00 RMK AO2 VIS 1 3/4V3 SLP203 T10281039 TSNO
94299KAAT AAT20161211230011812/11/16 23:00:31  5-MIN KAAT 120700Z AUTO 00000KT 3SM BR CLR M03/M04 A3008 4240 92 3100 000/00 RMK AO2 T10281039 TSNO
94299KAAT AAT20161211230512112/11/16 23:05:31  5-MIN KAAT 120705Z AUTO 10003KT 4SM BR FEW025 M03/M04 A3008 4230 92 3100 080/03 RMK AO2 T10281039 TSNO
94299KAAT AAT20161211231012112/11/16 23:10:31  5-MIN KAAT 120710Z AUTO 11003KT 6SM BR SCT025 M03/M04 A3008 4230 92 3100 090/03 RMK AO2 T10281039 TSNO
94299KAAT AAT20161211231511812/11/16 23:15:31  5-MIN KAAT 120715Z AUTO 11003KT 8SM SCT024 M03/M04 A3008 4230 92 3100 090/03 RMK AO2 T10281039 TSNO
94299KAAT AAT20161211232011812/11/16 23:20:31  5-MIN KAAT 120720Z AUTO 08004KT 7SM BKN024 M03/M03 A3008 4230 96 3100 060/04 RMK AO2 T10281033 TSNO
94299KAAT AAT20161211232511812/11/16 23:25:31  5-MIN KAAT 120725Z AUTO 07003KT 8SM BKN024 M02/M03 A3008 4230 92 3200 060/03 RMK AO2 T10221033 TSNO
94299KAAT AAT20161211233011912/11/16 23:30:31  5-MIN KAAT 120730Z AUTO 00000KT 10SM OVC024 M02/M03 A3008 4230 92 3200 000/00 RMK AO2 T10221033 TSNO
94299KAAT AAT20161211233511912/11/16 23:35:31  5-MIN KAAT 120735Z AUTO 00000KT 10SM OVC024 M02/M03 A3008 4230 92 3200 000/00 RMK AO2 T10221033 TSNO
94299KAAT AAT20161211234011812/11/16 23:40:31  5-MIN KAAT 120740Z AUTO VRB03KT 9SM BKN024 M02/M03 A3008 4230 92 3200 VRB/03 RMK AO2 T10221033 TSNO
94299KAAT AAT20161211234511812/11/16 23:45:31  5-MIN KAAT 120745Z AUTO 00000KT 9SM OVC024 M03/M03 A3008 4230 96 3100 000/00 RMK AO2 T10281033 TSNO
94299KAAT AAT20161211235013612/11/16 23:50:31  5-MIN KAAT 120750Z AUTO 13003KT 10SM BKN024 M03/M03 A3008 4240 96 3100 120/03 RMK AO2 SLP200 T10281033 400441078 TSNO
94299KAAT AAT20161211235513612/11/16 23:55:31  5-MIN KAAT 120755Z AUTO 00000KT 10SM BKN025 M03/M03 A3008 4240 96 3100 000/00 RMK AO2 SLP200 T10281033 400441078 TSNO
94299KAAT AAT20161212000011912/12/16 00:00:31  5-MIN KAAT 120800Z AUTO 00000KT 10SM BKN025 M03/M03 A3008 4230 96 3100 000/00 RMK AO2 T10281033 TSNO
94299KAAT AAT20161212000511912/12/16 00:05:31  5-MIN KAAT 120805Z AUTO 00000KT 10SM BKN025 M03/M03 A3008 4230 96 3100 000/00 RMK AO2 T10281033 TSNO
94299KAAT AAT20161212001011912/12/16 00:10:31  5-MIN KAAT 120810Z AUTO 00000KT 10SM OVC025 M03/M03 A3008 4230 96 3100 000/00 RMK AO2 T10281033 TSNO
94299KAAT AAT20161212001512612/12/16 00:15:31  5-MIN KAAT 120815Z AUTO 00000KT 10SM BKN027 OVC031 M03/M03 A3008 4230 96 3100 000/00 RMK AO2 T10281033 TSNO
94299KAAT AAT20161212002012612/12/16 00:20:31  5-MIN KAAT 120820Z AUTO VRB03KT 10SM BKN027 OVC031 M03/M03 A3008 4230 96 3100 VRB/03 RMK AO2 T10281033 TSNO
94299KAAT AAT20161212002511912/12/16 00:25:31  5-MIN KAAT 120825Z AUTO 00000KT 10SM OVC027 M02/M03 A3008 4230 92 3200 000/00 RMK AO2 T10221033 TSNO
94299KAAT AAT20161212003011912/12/16 00:30:31  5-MIN KAAT 120830Z AUTO 00000KT 10SM OVC026 M02/M03 A3008 4230 92 3200 000/00 RMK AO2 T10221033 TSNO
94299KAAT AAT20161212003511912/12/16 00:35:31  5-MIN KAAT 120835Z AUTO 00000KT 10SM OVC028 M02/M03 A3008 4230 96 3200 000/00 RMK AO2 T10221028 TSNO
94299KAAT AAT20161212004011912/12/16 00:40:31  5-MIN KAAT 120840Z AUTO 00000KT 10SM OVC028 M02/M03 A3008 4230 96 3200 000/00 RMK AO2 T10221028 TSNO
94299KAAT AAT20161212004511912/12/16 00:45:31  5-MIN KAAT 120845Z AUTO 19003KT 10SM OVC028 M02/M03 A3008 4230 96 3200 170/03 RMK AO2 T10221028 TSNO
94299KAAT AAT20161212005013212/12/16 00:50:31  5-MIN KAAT 120850Z AUTO 18003KT 10SM OVC028 M02/M03 A3008 4230 96 3200 160/03 RMK AO2 SLP201 T10221028 53003 TSNO
94299KAAT AAT20161212005513212/12/16 00:55:31  5-MIN KAAT 120855Z AUTO 00000KT 10SM OVC028 M02/M03 A3008 4230 92 3200 000/00 RMK AO2 SLP201 T10221033 51004 TSNO
94299KAAT AAT20161212010011912/12/16 01:00:31  5-MIN KAAT 120900Z AUTO 00000KT 10SM OVC030 M02/M03 A3008 4230 92 3200 000/00 RMK AO2 T10221033 TSNO
94299KAAT AAT20161212010511912/12/16 01:05:31  5-MIN KAAT 120905Z AUTO 00000KT 10SM OVC030 M02/M03 A3008 4230 96 3200 000/00 RMK AO2 T10221028 TSNO
94299KAAT AAT20161212011011912/12/16 01:10:31  5-MIN KAAT 120910Z AUTO 00000KT 10SM OVC030 M02/M03 A3008 4230 96 3200 000/00 RMK AO2 T10221028 TSNO
94299KAAT AAT20161212011511912/12/16 01:15:31  5-MIN KAAT 120915Z AUTO 00000KT 10SM OVC029 M02/M03 A3008 4230 96 3200 000/00 RMK AO2 T10221028 TSNO
94299KAAT AAT20161212012011912/12/16 01:20:31  5-MIN KAAT 120920Z AUTO 00000KT 10SM OVC029 M02/M03 A3008 4230 96 3200 000/00 RMK AO2 T10221028 TSNO
94299KAAT AAT20161212012511912/12/16 01:25:31  5-MIN KAAT 120925Z AUTO 00000KT 10SM OVC030 M02/M03 A3008 4230 96 3200 000/00 RMK AO2 T10221028 TSNO
94299KAAT AAT20161212013011812/12/16 01:30:31  5-MIN KAAT 120930Z AUTO 03003KT 8SM OVC030 M02/M03 A3009 4230 96 3200 010/03 RMK AO2 T10221028 TSNO
94299KAAT AAT20161212013511812/12/16 01:35:31  5-MIN KAAT 120935Z AUTO 04003KT 8SM OVC030 M02/M03 A3009 4230 92 3300 020/03 RMK AO2 T10171028 TSNO
94299KAAT AAT20161212014011812/12/16 01:40:31  5-MIN KAAT 120940Z AUTO 03003KT 9SM OVC030 M02/M03 A3009 4220 92 3300 010/03 RMK AO2 T10171028 TSNO
94299KAAT AAT20161212014511812/12/16 01:45:31  5-MIN KAAT 120945Z AUTO 04003KT 8SM OVC030 M02/M03 A3009 4230 92 3300 030/03 RMK AO2 T10171028 TSNO
94299KAAT AAT20161212015012512/12/16 01:50:31  5-MIN KAAT 120950Z AUTO 00000KT 8SM OVC030 M02/M03 A3009 4220 92 3300 000/00 RMK AO2 SLP202 T10171028 TSNO
94299KAAT AAT20161212015512512/12/16 01:55:31  5-MIN KAAT 120955Z AUTO 00000KT 7SM OVC030 M02/M03 A3009 4220 92 3300 000/00 RMK AO2 SLP202 T10171028 TSNO
94299KAAT AAT20161212020011812/12/16 02:00:31  5-MIN KAAT 121000Z AUTO 00000KT 7SM OVC030 M02/M03 A3009 4220 92 3300 000/00 RMK AO2 T10171028 TSNO
94299KAAT AAT20161212020511812/12/16 02:05:31  5-MIN KAAT 121005Z AUTO 00000KT 8SM OVC030 M02/M03 A3009 4230 92 3300 000/00 RMK AO2 T10171028 TSNO
94299KAAT AAT20161212021011912/12/16 02:10:31  5-MIN KAAT 121010Z AUTO 00000KT 10SM OVC030 M02/M03 A3009 4230 96 3200 000/00 RMK AO2 T10221028 TSNO
94299KAAT AAT20161212021511912/12/16 02:15:31  5-MIN KAAT 121015Z AUTO 00000KT 10SM OVC030 M02/M03 A3009 4220 92 3200 000/00 RMK AO2 T10221033 TSNO
94299KAAT AAT20161212022011812/12/16 02:20:31  5-MIN KAAT 121020Z AUTO 00000KT 9SM OVC030 M02/M03 A3009 4220 92 3200 000/00 RMK AO2 T10221033 TSNO
94299KAAT AAT20161212022511812/12/16 02:25:31  5-MIN KAAT 121025Z AUTO 00000KT 9SM OVC030 M02/M03 A3009 4230 92 3200 000/00 RMK AO2 T10221033 TSNO
94299KAAT AAT20161212023011912/12/16 02:30:31  5-MIN KAAT 121030Z AUTO 00000KT 10SM OVC030 M02/M03 A3009 4220 92 3200 000/00 RMK AO2 T10221033 TSNO
94299KAAT AAT20161212023511912/12/16 02:35:31  5-MIN KAAT 121035Z AUTO 00000KT 10SM OVC030 M02/M03 A3009 4220 92 3200 000/00 RMK AO2 T10221033 TSNO
94299KAAT AAT20161212024011912/12/16 02:40:31  5-MIN KAAT 121040Z AUTO 00000KT 10SM OVC031 M02/M03 A3009 4220 92 3200 000/00 RMK AO2 T10221033 TSNO
94299KAAT AAT20161212024511912/12/16 02:45:31  5-MIN KAAT 121045Z AUTO 00000KT 10SM OVC031 M02/M03 A3010 4220 96 3200 000/00 RMK AO2 T10221028 TSNO
94299KAAT AAT20161212025012612/12/16 02:50:31  5-MIN KAAT 121050Z AUTO 00000KT 10SM OVC031 M02/M03 A3009 4220 96 3200 000/00 RMK AO2 SLP203 T10221028 TSNO
94299KAAT AAT20161212025512612/12/16 02:55:31  5-MIN KAAT 121055Z AUTO 00000KT 10SM OVC031 M02/M03 A3009 4220 96 3200 000/00 RMK AO2 SLP203 T10221028 TSNO
94299KAAT AAT20161212030011912/12/16 03:00:31  5-MIN KAAT 121100Z AUTO 17003KT 10SM OVC031 M02/M03 A3010 4220 92 3200 150/03 RMK AO2 T10221033 TSNO
94299KAAT AAT20161212030511912/12/16 03:05:31  5-MIN KAAT 121105Z AUTO 00000KT 10SM OVC031 M02/M03 A3009 4220 96 3200 000/00 RMK AO2 T10221028 TSNO
94299KAAT AAT20161212031011912/12/16 03:10:31  5-MIN KAAT 121110Z AUTO 00000KT 10SM OVC031 M02/M03 A3009 4220 92 3200 000/00 RMK AO2 T10221033 TSNO
94299KAAT AAT20161212031511912/12/16 03:15:31  5-MIN KAAT 121115Z AUTO 14003KT 10SM OVC031 M02/M03 A3009 4220 92 3200 130/03 RMK AO2 T10221033 TSNO
94299KAAT AAT20161212032011912/12/16 03:20:31  5-MIN KAAT 121120Z AUTO 17003KT 10SM OVC031 M02/M03 A3009 4220 92 3200 150/03 RMK AO2 T10221033 TSNO
94299KAAT AAT20161212032511912/12/16 03:25:31  5-MIN KAAT 121125Z AUTO 17003KT 10SM OVC031 M02/M03 A3009 4220 92 3200 160/03 RMK AO2 T10221033 TSNO
94299KAAT AAT20161212033011912/12/16 03:30:31  5-MIN KAAT 121130Z AUTO 00000KT 10SM OVC032 M03/M03 A3009 4220 96 3100 000/00 RMK AO2 T10281033 TSNO
94299KAAT AAT20161212033511912/12/16 03:35:31  5-MIN KAAT 121135Z AUTO 00000KT 10SM OVC032 M02/M03 A3009 4220 92 3200 000/00 RMK AO2 T10221033 TSNO
94299KAAT AAT20161212034011912/12/16 03:40:31  5-MIN KAAT 121140Z AUTO 00000KT 10SM OVC032 M02/M03 A3009 4220 92 3200 000/00 RMK AO2 T10221033 TSNO
94299KAAT AAT20161212034511912/12/16 03:45:31  5-MIN KAAT 121145Z AUTO 00000KT 10SM OVC031 M02/M03 A3010 4220 92 3200 000/00 RMK AO2 T10221033 TSNO
94299KAAT AAT20161212035014412/12/16 03:50:31  5-MIN KAAT 121150Z AUTO 10003KT 10SM OVC031 M02/M03 A3009 4220 92 3200 090/03 RMK AO2 SLP205 T10221033 11017 21033 51004 TSNO
94299KAAT AAT20161212035514412/12/16 03:55:31  5-MIN KAAT 121155Z AUTO 00000KT 10SM OVC031 M02/M03 A3010 4220 96 3200 000/00 RMK AO2 SLP206 T10221028 11017 21033 51004 TSNO
94299KAAT AAT20161212040011912/12/16 04:00:31  5-MIN KAAT 121200Z AUTO 00000KT 10SM OVC031 M02/M03 A3009 4220 96 3200 000/00 RMK AO2 T10221028 TSNO
94299KAAT AAT20161212040511912/12/16 04:05:31  5-MIN KAAT 121205Z AUTO 00000KT 10SM OVC031 M02/M03 A3009 4220 96 3200 000/00 RMK AO2 T10221028 TSNO
94299KAAT AAT20161212041011912/12/16 04:10:31  5-MIN KAAT 121210Z AUTO 00000KT 10SM OVC031 M02/M03 A3009 4230 92 3200 000/00 RMK AO2 T10221033 TSNO
94299KAAT AAT20161212041511912/12/16 04:15:31  5-MIN KAAT 121215Z AUTO 18003KT 10SM OVC031 M03/M03 A3009 4220 96 3100 160/03 RMK AO2 T10281033 TSNO
94299KAAT AAT20161212042011912/12/16 04:20:31  5-MIN KAAT 121220Z AUTO 18003KT 10SM OVC031 M03/M03 A3009 4220 96 3100 160/03 RMK AO2 T10281033 TSNO
94299KAAT AAT20161212042511912/12/16 04:25:31  5-MIN KAAT 121225Z AUTO 00000KT 10SM OVC031 M03/M03 A3009 4220 96 3100 000/00 RMK AO2 T10281033 TSNO
94299KAAT AAT20161212043011912/12/16 04:30:31  5-MIN KAAT 121230Z AUTO 16004KT 10SM OVC031 M03/M03 A3009 4220 96 3100 150/04 RMK AO2 T10281033 TSNO
94299KAAT AAT20161212043511912/12/16 04:35:31  5-MIN KAAT 121235Z AUTO 16003KT 10SM BKN032 M03/M04 A3009 4220 92 3100 150/03 RMK AO2 T10281039 TSNO
94299KAAT AAT20161212044011912/12/16 04:40:31  5-MIN KAAT 121240Z AUTO 12003KT 10SM BKN032 M03/M03 A3009 4220 96 3100 110/03 RMK AO2 T10281033 TSNO
94299KAAT AAT20161212044511912/12/16 04:45:31  5-MIN KAAT 121245Z AUTO 00000KT 10SM BKN032 M03/M04 A3010 4220 92 3100 000/00 RMK AO2 T10281039 TSNO
94299KAAT AAT20161212045012612/12/16 04:50:31  5-MIN KAAT 121250Z AUTO 00000KT 10SM BKN032 M03/M04 A3010 4220 92 3100 000/00 RMK AO2 SLP211 T10281039 TSNO
94299KAAT AAT20161212045512612/12/16 04:55:31  5-MIN KAAT 121255Z AUTO 13003KT 10SM BKN032 M03/M04 A3010 4220 96 3000 120/03 RMK AO2 SLP211 T10331039 TSNO
94299KAAT AAT20161212050011912/12/16 05:00:31  5-MIN KAAT 121300Z AUTO 36004KT 10SM SCT032 M04/M04 A3010 4220 96 3000 340/04 RMK AO2 T10391044 TSNO
94299KAAT AAT20161212050511912/12/16 05:05:31  5-MIN KAAT 121305Z AUTO 00000KT 10SM SCT032 M03/M04 A3010 4210 92 3000 000/00 RMK AO2 T10331044 TSNO
94299KAAT AAT20161212051011912/12/16 05:10:31  5-MIN KAAT 121310Z AUTO 01003KT 10SM FEW032 M04/M04 A3010 4210 96 3000 360/03 RMK AO2 T10391044 TSNO
94299KAAT AAT20161212051511912/12/16 05:15:31  5-MIN KAAT 121315Z AUTO 00000KT 10SM FEW032 M03/M04 A3010 4210 96 3000 000/00 RMK AO2 T10331039 TSNO
94299KAAT AAT20161212052011812/12/16 05:20:31  5-MIN KAAT 121320Z AUTO 00000KT 8SM FEW030 M03/M04 A3010 4220 96 3000 000/00 RMK AO2 T10331039 TSNO
94299KAAT AAT20161212052512112/12/16 05:25:31  5-MIN KAAT 121325Z AUTO 00000KT 6SM BR FEW030 M03/M04 A3010 4220 92 3000 000/00 RMK AO2 T10331044 TSNO
94299KAAT AAT20161212053011812/12/16 05:30:31  5-MIN KAAT 121330Z AUTO 00000KT 8SM FEW030 M03/M04 A3010 4210 92 3000 000/00 RMK AO2 T10331044 TSNO
94299KAAT AAT20161212053511912/12/16 05:35:31  5-MIN KAAT 121335Z AUTO 00000KT 10SM SCT030 M04/M04 A3010 4210 96 3000 000/00 RMK AO2 T10391044 TSNO
94299KAAT AAT20161212054011812/12/16 05:40:31  5-MIN KAAT 121340Z AUTO 00000KT 9SM SCT030 M04/M05 A3010 4210 96 2900 000/00 RMK AO2 T10441050 TSNO
94299KAAT AAT20161212054511812/12/16 05:45:31  5-MIN KAAT 121345Z AUTO 00000KT 7SM SCT029 M04/M06 A3010 4210 92 2900 000/00 RMK AO2 T10441056 TSNO
94299KAAT AAT20161212055012812/12/16 05:50:31  5-MIN KAAT 121350Z AUTO 00000KT 6SM BR SCT029 M04/M05 A3010 4210 96 2900 000/00 RMK AO2 SLP215 T10441050 TSNO
94299KAAT AAT20161212055512512/12/16 05:55:31  5-MIN KAAT 121355Z AUTO 00000KT 7SM SCT029 M04/M05 A3010 4210 96 2900 000/00 RMK AO2 SLP215 T10441050 TSNO
94299KAAT AAT20161212060011912/12/16 06:00:31  5-MIN KAAT 121400Z AUTO 00000KT 8SM FEW029 M05/M05 A3011 4210 100 2800 000/00 RMK AO2 T10501050 TSNO
94299KAAT AAT20161212060511812/12/16 06:05:31  5-MIN KAAT 121405Z AUTO 00000KT 9SM FEW029 M06/M06 A3011 4210 96 2800 000/00 RMK AO2 T10561061 TSNO
94299KAAT AAT20161212061011612/12/16 06:10:31  5-MIN KAAT 121410Z AUTO 00000KT 10SM CLR M06/M06 A3010 4210 96 2800 000/00 RMK AO2 T10561061 TSNO
94299KAAT AAT20161212061511612/12/16 06:15:31  5-MIN KAAT 121415Z AUTO 00000KT 10SM CLR M05/M06 A3011 4210 92 2800 000/00 RMK AO2 T10501061 TSNO
94299KAAT AAT20161212062011512/12/16 06:20:31  5-MIN KAAT 121420Z AUTO 00000KT 9SM CLR M05/M06 A3011 4210 96 2800 000/00 RMK AO2 T10501056 TSNO
94299KAAT AAT20161212062511512/12/16 06:25:31  5-MIN KAAT 121425Z AUTO 00000KT 8SM CLR M06/M06 A3011 4210 96 2800 000/00 RMK AO2 T10561061 TSNO
94299KAAT AAT20161212063011512/12/16 06:30:31  5-MIN KAAT 121430Z AUTO 00000KT 8SM CLR M05/M06 A3011 4200 92 2800 000/00 RMK AO2 T10501061 TSNO
94299KAAT AAT20161212063511512/12/16 06:35:31  5-MIN KAAT 121435Z AUTO 00000KT 9SM CLR M06/M07 A3012 4200 96 2700 000/00 RMK AO2 T10611067 TSNO
94299KAAT AAT20161212064011612/12/16 06:40:31  5-MIN KAAT 121440Z AUTO 00000KT 10SM CLR M06/M07 A3012 4200 92 2700 000/00 RMK AO2 T10611072 TSNO
94299KAAT AAT20161212064511612/12/16 06:45:31  5-MIN KAAT 121445Z AUTO 00000KT 10SM CLR M06/M07 A3012 4200 92 2700 000/00 RMK AO2 T10561067 TSNO
94299KAAT AAT20161212065012912/12/16 06:50:31  5-MIN KAAT 121450Z AUTO 00000KT 10SM CLR M04/M06 A3012 4200 92 2900 000/00 RMK AO2 SLP220 T10441056 51004 TSNO
94299KAAT AAT20161212065512912/12/16 06:55:31  5-MIN KAAT 121455Z AUTO 17003KT 10SM CLR M04/M04 A3011 4210 96 3000 160/03 RMK AO2 SLP218 T10391044 53005 TSNO
94299KAAT AAT20161212070011712/12/16 07:00:31  5-MIN KAAT 121500Z AUTO 00000KT 10SM CLR M04/M04 A3011 4200 100 2900 000/00 RMK AO2 T10441044 TSNO
94299KAAT AAT20161212070511612/12/16 07:05:31  5-MIN KAAT 121505Z AUTO 00000KT 10SM CLR M04/M05 A3012 4200 96 2900 000/00 RMK AO2 T10441050 TSNO
94299KAAT AAT20161212071011512/12/16 07:10:31  5-MIN KAAT 121510Z AUTO 00000KT 8SM CLR M06/M07 A3012 4200 92 2700 000/00 RMK AO2 T10561067 TSNO
94299KAAT AAT20161212071511512/12/16 07:15:31  5-MIN KAAT 121515Z AUTO 00000KT 7SM CLR M06/M06 A3012 4200 96 2700 000/00 RMK AO2 T10561061 TSNO
94299KAAT AAT20161212072011812/12/16 07:20:31  5-MIN KAAT 121520Z AUTO 00000KT 6SM BR CLR M07/M07 A3012 4200 96 2600 000/00 RMK AO2 T10671072 TSNO
94299KAAT AAT20161212072511812/12/16 07:25:31  5-MIN KAAT 121525Z AUTO 00000KT 5SM BR CLR M07/M07 A3011 4200 96 2600 000/00 RMK AO2 T10671072 TSNO
94299KAAT AAT20161212073011812/12/16 07:30:31  5-MIN KAAT 121530Z AUTO 00000KT 5SM BR CLR M06/M07 A3011 4200 92 2700 000/00 RMK AO2 T10611072 TSNO
94299KAAT AAT20161212073511512/12/16 07:35:31  5-MIN KAAT 121535Z AUTO 15003KT 7SM CLR M06/M07 A3011 4200 92 2700 130/03 RMK AO2 T10561067 TSNO
94299KAAT AAT20161212074011612/12/16 07:40:31  5-MIN KAAT 121540Z AUTO 16004KT 10SM CLR M05/M06 A3012 4200 92 2800 140/04 RMK AO2 T10501061 TSNO
94299KAAT AAT20161212074511612/12/16 07:45:31  5-MIN KAAT 121545Z AUTO 13003KT 10SM CLR M05/M06 A3012 4200 92 2800 110/03 RMK AO2 T10501061 TSNO
94299KAAT AAT20161212075012212/12/16 07:50:31  5-MIN KAAT 121550Z AUTO 01003KT 8SM CLR M06/M07 A3013 4190 92 2700 360/03 RMK AO2 SLP229 T10561067 TSNO
94299KAAT AAT20161212075512512/12/16 07:55:31  5-MIN KAAT 121555Z AUTO 03004KT 5SM BR CLR M06/M07 A3013 4190 96 2700 020/04 RMK AO2 SLP230 T10611067 TSNO
94299KAAT AAT20161212080011812/12/16 08:00:31  5-MIN KAAT 121600Z AUTO 03004KT 5SM BR CLR M06/M07 A3013 4190 96 2700 020/04 RMK AO2 T10611067 TSNO
94299KAAT AAT20161212080511812/12/16 08:05:31  5-MIN KAAT 121605Z AUTO 00000KT 4SM BR CLR M05/M06 A3013 4190 92 2800 000/00 RMK AO2 T10501061 TSNO
94299KAAT AAT20161212081011812/12/16 08:10:31  5-MIN KAAT 121610Z AUTO 00000KT 3SM BR CLR M04/M05 A3013 4190 96 2900 000/00 RMK AO2 T10441050 TSNO
94299KAAT AAT20161212081511812/12/16 08:15:31  5-MIN KAAT 121615Z AUTO 00000KT 3SM BR CLR M04/M05 A3013 4180 92 2900 000/00 RMK AO2 T10391050 TSNO
94299KAAT AAT20161212082011812/12/16 08:20:31  5-MIN KAAT 121620Z AUTO 00000KT 4SM BR CLR M04/M06 A3013 4180 88 2900 000/00 RMK AO2 T10391056 TSNO
94299KAAT AAT20161212082511812/12/16 08:25:31  5-MIN KAAT 121625Z AUTO 00000KT 5SM BR CLR M03/M05 A3014 4180 88 3000 000/00 RMK AO2 T10331050 TSNO
94299KAAT AAT20161212083011812/12/16 08:30:31  5-MIN KAAT 121630Z AUTO 00000KT 5SM BR CLR M03/M05 A3014 4180 88 3000 000/00 RMK AO2 T10331050 TSNO
94299KAAT AAT20161212083511512/12/16 08:35:31  5-MIN KAAT 121635Z AUTO 00000KT 7SM CLR M03/M04 A3015 4170 88 3100 000/00 RMK AO2 T10281044 TSNO
94299KAAT AAT20161212084011512/12/16 08:40:31  5-MIN KAAT 121640Z AUTO 00000KT 9SM CLR M03/M04 A3015 4170 88 3100 000/00 RMK AO2 T10281044 TSNO
94299KAAT AAT20161212084511612/12/16 08:45:31  5-MIN KAAT 121645Z AUTO 00000KT 10SM CLR M03/M04 A3015 4170 88 3100 000/00 RMK AO2 T10281044 TSNO
94299KAAT AAT20161212085012312/12/16 08:50:31  5-MIN KAAT 121650Z AUTO 00000KT 10SM CLR M03/M04 A3015 4170 92 3100 000/00 RMK AO2 SLP234 T10281039 TSNO
94299KAAT AAT20161212085512312/12/16 08:55:31  5-MIN KAAT 121655Z AUTO 00000KT 10SM CLR M02/M04 A3015 4170 88 3100 000/00 RMK AO2 SLP234 T10221039 TSNO
94299KAAT AAT20161212090011612/12/16 09:00:31  5-MIN KAAT 121700Z AUTO 00000KT 10SM CLR M02/M03 A3015 4170 92 3100 000/00 RMK AO2 T10221033 TSNO
94299KAAT AAT20161212090511612/12/16 09:05:31  5-MIN KAAT 121705Z AUTO 00000KT 10SM CLR M02/M03 A3015 4170 92 3100 000/00 RMK AO2 T10221033 TSNO
94299KAAT AAT20161212091011612/12/16 09:10:31  5-MIN KAAT 121710Z AUTO 00000KT 10SM CLR M02/M03 A3016 4160 88 3200 000/00 RMK AO2 T10171033 TSNO
94299KAAT AAT20161212091511612/12/16 09:15:31  5-MIN KAAT 121715Z AUTO 00000KT 10SM CLR M01/M03 A3016 4160 85 3200 000/00 RMK AO2 T10111033 TSNO
94299KAAT AAT20161212092011612/12/16 09:20:31  5-MIN KAAT 121720Z AUTO 00000KT 10SM CLR M01/M03 A3016 4160 85 3200 000/00 RMK AO2 T10111033 TSNO
94299KAAT AAT20161212092511612/12/16 09:25:31  5-MIN KAAT 121725Z AUTO 00000KT 10SM CLR M01/M03 A3016 4160 88 3200 000/00 RMK AO2 T10111028 TSNO
94299KAAT AAT20161212093011612/12/16 09:30:31  5-MIN KAAT 121730Z AUTO 00000KT 10SM CLR M01/M03 A3017 4150 88 3200 000/00 RMK AO2 T10111028 TSNO
94299KAAT AAT20161212093511612/12/16 09:35:31  5-MIN KAAT 121735Z AUTO 00000KT 10SM CLR M01/M03 A3017 4150 88 3200 000/00 RMK AO2 T10111028 TSNO
94299KAAT AAT20161212094011612/12/16 09:40:31  5-MIN KAAT 121740Z AUTO 00000KT 10SM CLR M01/M03 A3017 4150 88 3200 000/00 RMK AO2 T10111028 TSNO
94299KAAT AAT20161212094511612/12/16 09:45:31  5-MIN KAAT 121745Z AUTO 00000KT 10SM CLR M01/M03 A3017 4150 88 3200 000/00 RMK AO2 T10111028 TSNO
94299KAAT AAT20161212095014112/12/16 09:50:31  5-MIN KAAT 121750Z AUTO 00000KT 10SM CLR M01/M03 A3018 4150 85 3300 000/00 RMK AO2 SLP241 T10061028 11006 21067 53005 TSNO
94299KAAT AAT20161212095514112/12/16 09:55:31  5-MIN KAAT 121755Z AUTO 00000KT 10SM CLR M01/M03 A3018 4150 85 3300 000/00 RMK AO2 SLP241 T10061028 11006 21067 53019 TSNO
94299KAAT AAT20161212100011512/12/16 10:00:31  5-MIN KAAT 121800Z AUTO 16003KT 10SM CLR 00/M02 A3018 4140 85 3400 150/03 RMK AO2 T00001022 TSNO
94299KAAT AAT20161212100511512/12/16 10:05:31  5-MIN KAAT 121805Z AUTO 14003KT 10SM CLR 00/M02 A3018 4140 85 3400 130/03 RMK AO2 T00001022 TSNO
94299KAAT AAT20161212101011512/12/16 10:10:31  5-MIN KAAT 121810Z AUTO 15003KT 10SM CLR 00/M03 A3018 4140 81 3400 130/03 RMK AO2 T00001028 TSNO
94299KAAT AAT20161212101511512/12/16 10:15:31  5-MIN KAAT 121815Z AUTO 00000KT 10SM CLR 00/M03 A3018 4140 81 3400 000/00 RMK AO2 T00001028 TSNO
94299KAAT AAT20161212102011512/12/16 10:20:31  5-MIN KAAT 121820Z AUTO 00000KT 10SM CLR 00/M02 A3018 4140 85 3400 000/00 RMK AO2 T00001022 TSNO
94299KAAT AAT20161212102511512/12/16 10:25:31  5-MIN KAAT 121825Z AUTO 00000KT 10SM CLR 00/M02 A3018 4140 85 3400 000/00 RMK AO2 T00001022 TSNO
94299KAAT AAT20161212103011512/12/16 10:30:31  5-MIN KAAT 121830Z AUTO 00000KT 10SM CLR 00/M02 A3018 4150 85 3400 000/00 RMK AO2 T00001022 TSNO
94299KAAT AAT20161212103511512/12/16 10:35:31  5-MIN KAAT 121835Z AUTO 00000KT 10SM CLR 01/M02 A3017 4150 82 3400 000/00 RMK AO2 T00061022 TSNO
94299KAAT AAT20161212104011512/12/16 10:40:31  5-MIN KAAT 121840Z AUTO 00000KT 10SM CLR 01/M02 A3017 4150 82 3400 000/00 RMK AO2 T00061022 TSNO
94299KAAT AAT20161212104511512/12/16 10:45:31  5-MIN KAAT 121845Z AUTO 00000KT 10SM CLR 01/M02 A3017 4150 78 3500 000/00 RMK AO2 T00111022 TSNO
94299KAAT AAT20161212105012212/12/16 10:50:31  5-MIN KAAT 121850Z AUTO 13003KT 10SM CLR 01/M02 A3017 4150 82 3400 110/03 RMK AO2 SLP237 T00061022 TSNO
94299KAAT AAT20161212105512212/12/16 10:55:31  5-MIN KAAT 121855Z AUTO 14004KT 10SM CLR 01/M02 A3017 4150 78 3500 130/04 RMK AO2 SLP235 T00111022 TSNO
94299KAAT AAT20161212110011512/12/16 11:00:31  5-MIN KAAT 121900Z AUTO 18003KT 10SM CLR 01/M02 A3017 4150 78 3500 160/03 RMK AO2 T00111022 TSNO
94299KAAT AAT20161212110511512/12/16 11:05:31  5-MIN KAAT 121905Z AUTO 17003KT 10SM CLR 01/M02 A3017 4150 78 3500 160/03 RMK AO2 T00111022 TSNO
94299KAAT AAT20161212111011512/12/16 11:10:31  5-MIN KAAT 121910Z AUTO VRB03KT 10SM CLR 01/M03 A3017 4160 75 3500 VRB/03 RMK AO2 T00111028 TSNO
94299KAAT AAT20161212111511512/12/16 11:15:31  5-MIN KAAT 121915Z AUTO 18003KT 10SM CLR 02/M03 A3016 4160 72 3600 170/03 RMK AO2 T00171028 TSNO
94299KAAT AAT20161212112011512/12/16 11:20:31  5-MIN KAAT 121920Z AUTO VRB03KT 10SM CLR 02/M03 A3016 4160 72 3600 VRB/03 RMK AO2 T00171028 TSNO
94299KAAT AAT20161212112511512/12/16 11:25:31  5-MIN KAAT 121925Z AUTO 18004KT 10SM CLR 02/M03 A3016 4160 72 3600 170/04 RMK AO2 T00171028 TSNO
94299KAAT AAT20161212113011512/12/16 11:30:31  5-MIN KAAT 121930Z AUTO VRB03KT 10SM CLR 02/M03 A3016 4160 69 3600 VRB/03 RMK AO2 T00171033 TSNO
94299KAAT AAT20161212113511512/12/16 11:35:31  5-MIN KAAT 121935Z AUTO 00000KT 10SM CLR 02/M04 A3016 4160 64 3700 000/00 RMK AO2 T00221039 TSNO
94299KAAT AAT20161212114011512/12/16 11:40:31  5-MIN KAAT 121940Z AUTO VRB03KT 10SM CLR 02/M03 A3016 4160 67 3700 VRB/03 RMK AO2 T00221033 TSNO
94299KAAT AAT20161212114511512/12/16 11:45:31  5-MIN KAAT 121945Z AUTO 19003KT 10SM CLR 02/M04 A3016 4160 64 3700 170/03 RMK AO2 T00221039 TSNO
94299KAAT AAT20161212115012212/12/16 11:50:31  5-MIN KAAT 121950Z AUTO 00000KT 10SM CLR 02/M04 A3016 4160 64 3700 000/00 RMK AO2 SLP229 T00221039 TSNO
94299KAAT AAT20161212115512212/12/16 11:55:31  5-MIN KAAT 121955Z AUTO 00000KT 10SM CLR 02/M04 A3015 4170 64 3700 000/00 RMK AO2 SLP228 T00221039 TSNO
94299KAAT AAT20161212120011512/12/16 12:00:31  5-MIN KAAT 122000Z AUTO 00000KT 10SM CLR 02/M04 A3015 4170 61 3700 000/00 RMK AO2 T00221044 TSNO
94299KAAT AAT20161212120511512/12/16 12:05:31  5-MIN KAAT 122005Z AUTO 00000KT 10SM CLR 02/M04 A3015 4170 61 3700 000/00 RMK AO2 T00221044 TSNO
94299KAAT AAT20161212121011512/12/16 12:10:31  5-MIN KAAT 122010Z AUTO 00000KT 10SM CLR 02/M04 A3015 4170 64 3700 000/00 RMK AO2 T00221039 TSNO
94299KAAT AAT20161212121511512/12/16 12:15:31  5-MIN KAAT 122015Z AUTO 00000KT 10SM CLR 03/M04 A3015 4170 61 3700 000/00 RMK AO2 T00281039 TSNO
94299KAAT AAT20161212122011512/12/16 12:20:31  5-MIN KAAT 122020Z AUTO 00000KT 10SM CLR 03/M04 A3015 4170 61 3700 000/00 RMK AO2 T00281039 TSNO
94299KAAT AAT20161212122511512/12/16 12:25:31  5-MIN KAAT 122025Z AUTO VRB04KT 10SM CLR 03/M04 A3014 4180 61 3700 VRB/04 RMK AO2 T00281039 TSNO
94299KAAT AAT20161212123011812/12/16 12:30:31  5-MIN KAAT 122030Z AUTO 11005KT 10SM FEW030 03/M04 A3014 4180 59 3800 090/05 RMK AO2 T00331039 TSNO
94299KAAT AAT20161212123511812/12/16 12:35:31  5-MIN KAAT 122035Z AUTO 00000KT 10SM FEW030 03/M04 A3014 4180 59 3800 000/00 RMK AO2 T00331039 TSNO
94299KAAT AAT20161212124011812/12/16 12:40:31  5-MIN KAAT 122040Z AUTO 09003KT 10SM FEW030 03/M04 A3014 4180 59 3800 080/03 RMK AO2 T00331039 TSNO
94299KAAT AAT20161212124511812/12/16 12:45:31  5-MIN KAAT 122045Z AUTO 04003KT 10SM FEW030 03/M04 A3014 4180 59 3800 020/03 RMK AO2 T00331039 TSNO
94299KAAT AAT20161212125013112/12/16 12:50:31  5-MIN KAAT 122050Z AUTO 00000KT 10SM FEW030 03/M04 A3014 4180 57 3800 000/00 RMK AO2 SLP222 T00331044 53019 TSNO
94299KAAT AAT20161212125513112/12/16 12:55:31  5-MIN KAAT 122055Z AUTO 00000KT 10SM FEW030 03/M04 A3014 4180 59 3700 000/00 RMK AO2 SLP221 T00281044 58011 TSNO
94299KAAT AAT20161212130011512/12/16 13:00:31  5-MIN KAAT 122100Z AUTO 00000KT 10SM CLR 03/M04 A3014 4180 57 3800 000/00 RMK AO2 T00331044 TSNO
94299KAAT AAT20161212130511512/12/16 13:05:31  5-MIN KAAT 122105Z AUTO 00000KT 10SM CLR 03/M04 A3014 4180 57 3800 000/00 RMK AO2 T00331044 TSNO
94299KAAT AAT20161212131011512/12/16 13:10:31  5-MIN KAAT 122110Z AUTO 00000KT 10SM CLR 03/M04 A3014 4180 61 3700 000/00 RMK AO2 T00281039 TSNO
94299KAAT AAT20161212131511512/12/16 13:15:31  5-MIN KAAT 122115Z AUTO 00000KT 10SM CLR 04/M04 A3014 4180 57 3900 000/00 RMK AO2 T00391039 TSNO
94299KAAT AAT20161212132011512/12/16 13:20:31  5-MIN KAAT 122120Z AUTO 13004KT 10SM CLR 03/M04 A3014 4180 59 3800 120/04 RMK AO2 T00331039 TSNO
94299KAAT AAT20161212132511512/12/16 13:25:31  5-MIN KAAT 122125Z AUTO 00000KT 10SM CLR 03/M04 A3014 4180 59 3800 000/00 RMK AO2 T00331039 TSNO
94299KAAT AAT20161212133011512/12/16 13:30:31  5-MIN KAAT 122130Z AUTO 00000KT 10SM CLR 03/M04 A3014 4180 61 3700 000/00 RMK AO2 T00281039 TSNO
94299KAAT AAT20161212133511512/12/16 13:35:31  5-MIN KAAT 122135Z AUTO 00000KT 10SM CLR 03/M04 A3014 4180 59 3800 000/00 RMK AO2 T00331039 TSNO
94299KAAT AAT20161212134011512/12/16 13:40:31  5-MIN KAAT 122140Z AUTO VRB03KT 10SM CLR 03/M04 A3014 4180 59 3800 VRB/03 RMK AO2 T00331039 TSNO
94299KAAT AAT20161212134511512/12/16 13:45:31  5-MIN KAAT 122145Z AUTO 19004KT 10SM CLR 03/M04 A3014 4180 59 3800 180/04 RMK AO2 T00331039 TSNO
94299KAAT AAT20161212135012212/12/16 13:50:31  5-MIN KAAT 122150Z AUTO 16004KT 10SM CLR 03/M04 A3014 4180 59 3800 140/04 RMK AO2 SLP218 T00331039 TSNO
94299KAAT AAT20161212135512212/12/16 13:55:31  5-MIN KAAT 122155Z AUTO 00000KT 10SM CLR 03/M04 A3014 4180 59 3800 000/00 RMK AO2 SLP218 T00331039 TSNO
94299KAAT AAT20161212140011512/12/16 14:00:31  5-MIN KAAT 122200Z AUTO 10004KT 10SM CLR 03/M04 A3013 4180 59 3800 080/04 RMK AO2 T00331039 TSNO
94299KAAT AAT20161212140511512/12/16 14:05:31  5-MIN KAAT 122205Z AUTO 00000KT 10SM CLR 03/M04 A3013 4190 59 3800 000/00 RMK AO2 T00331039 TSNO
94299KAAT AAT20161212141011512/12/16 14:10:31  5-MIN KAAT 122210Z AUTO 12003KT 10SM CLR 04/M04 A3013 4190 57 3900 110/03 RMK AO2 T00391039 TSNO
94299KAAT AAT20161212141511512/12/16 14:15:31  5-MIN KAAT 122215Z AUTO VRB03KT 10SM CLR 03/M04 A3013 4190 59 3800 VRB/03 RMK AO2 T00331039 TSNO
94299KAAT AAT20161212142011512/12/16 14:20:31  5-MIN KAAT 122220Z AUTO 00000KT 10SM CLR 03/M04 A3012 4190 59 3800 000/00 RMK AO2 T00331039 TSNO
94299KAAT AAT20161212142511512/12/16 14:25:31  5-MIN KAAT 122225Z AUTO VRB04KT 10SM CLR 03/M04 A3012 4200 59 3800 VRB/04 RMK AO2 T00331039 TSNO
94299KAAT AAT20161212143011512/12/16 14:30:31  5-MIN KAAT 122230Z AUTO 17004KT 10SM CLR 03/M04 A3012 4200 59 3800 150/04 RMK AO2 T00331039 TSNO
94299KAAT AAT20161212143511512/12/16 14:35:31  5-MIN KAAT 122235Z AUTO 14003KT 10SM CLR 03/M04 A3012 4200 59 3800 120/03 RMK AO2 T00331039 TSNO
94299KAAT AAT20161212144011512/12/16 14:40:31  5-MIN KAAT 122240Z AUTO 15004KT 10SM CLR 03/M04 A3012 4200 57 3800 140/04 RMK AO2 T00331044 TSNO
94299KAAT AAT20161212144511512/12/16 14:45:31  5-MIN KAAT 122245Z AUTO 18004KT 10SM CLR 03/M04 A3012 4200 59 3800 160/04 RMK AO2 T00281044 TSNO
94299KAAT AAT20161212145012212/12/16 14:50:31  5-MIN KAAT 122250Z AUTO 17005KT 10SM CLR 03/M04 A3011 4200 57 3800 160/05 RMK AO2 SLP213 T00331044 TSNO
94299KAAT AAT20161212145512212/12/16 14:55:31  5-MIN KAAT 122255Z AUTO 18004KT 10SM CLR 03/M04 A3011 4200 59 3800 160/04 RMK AO2 SLP212 T00331039 TSNO
94299KAAT AAT20161212150011512/12/16 15:00:31  5-MIN KAAT 122300Z AUTO 17004KT 10SM CLR 03/M04 A3011 4210 59 3800 160/04 RMK AO2 T00331039 TSNO
94299KAAT AAT20161212150511512/12/16 15:05:31  5-MIN KAAT 122305Z AUTO 16004KT 10SM CLR 03/M04 A3011 4210 59 3800 140/04 RMK AO2 T00331039 TSNO
94299KAAT AAT20161212151011512/12/16 15:10:31  5-MIN KAAT 122310Z AUTO 16003KT 10SM CLR 03/M04 A3011 4210 57 3800 150/03 RMK AO2 T00331044 TSNO
94299KAAT AAT20161212151511512/12/16 15:15:31  5-MIN KAAT 122315Z AUTO 18003KT 10SM CLR 03/M04 A3011 4200 61 3800 160/03 RMK AO2 T00281039 TSNO
94299KAAT AAT20161212152011512/12/16 15:20:31  5-MIN KAAT 122320Z AUTO 14003KT 10SM CLR 03/M04 A3011 4200 61 3800 130/03 RMK AO2 T00281039 TSNO
94299KAAT AAT20161212152511512/12/16 15:25:31  5-MIN KAAT 122325Z AUTO 18003KT 10SM CLR 03/M04 A3012 4200 59 3800 170/03 RMK AO2 T00281044 TSNO
94299KAAT AAT20161212153011512/12/16 15:30:31  5-MIN KAAT 122330Z AUTO 19004KT 10SM CLR 03/M04 A3011 4200 61 3800 170/04 RMK AO2 T00281039 TSNO
94299KAAT AAT20161212153511512/12/16 15:35:31  5-MIN KAAT 122335Z AUTO 00000KT 10SM CLR 02/M04 A3011 4200 64 3700 000/00 RMK AO2 T00221039 TSNO
94299KAAT AAT20161212154011512/12/16 15:40:31  5-MIN KAAT 122340Z AUTO 17004KT 10SM CLR 02/M04 A3011 4200 64 3700 160/04 RMK AO2 T00221039 TSNO
94299KAAT AAT20161212154511512/12/16 15:45:31  5-MIN KAAT 122345Z AUTO 18004KT 10SM CLR 02/M04 A3011 4200 64 3700 170/04 RMK AO2 T00221039 TSNO
94299KAAT AAT20161212155014012/12/16 15:50:31  5-MIN KAAT 122350Z AUTO 19003KT 10SM CLR 02/M04 A3011 4200 64 3700 180/03 RMK AO2 SLP214 T00221039 10039 21006 58011 TSNO
94299KAAT AAT20161212155514012/12/16 15:55:31  5-MIN KAAT 122355Z AUTO 00000KT 10SM CLR 02/M03 A3011 4210 67 3700 000/00 RMK AO2 SLP213 T00221033 10039 21006 57008 TSNO
94299KAAT AAT20161212160011512/12/16 16:00:31  5-MIN KAAT 130000Z AUTO 19003KT 10SM CLR 02/M04 A3011 4210 64 3700 170/03 RMK AO2 T00221039 TSNO
94299KAAT AAT20161212160511512/12/16 16:05:31  5-MIN KAAT 130005Z AUTO 00000KT 10SM CLR 02/M04 A3011 4200 64 3700 000/00 RMK AO2 T00221039 TSNO
94299KAAT AAT20161212161011512/12/16 16:10:31  5-MIN KAAT 130010Z AUTO 00000KT 10SM CLR 02/M04 A3011 4200 64 3700 000/00 RMK AO2 T00221039 TSNO
94299KAAT AAT20161212161511512/12/16 16:15:31  5-MIN KAAT 130015Z AUTO 00000KT 10SM CLR 02/M04 A3012 4200 64 3700 000/00 RMK AO2 T00221039 TSNO
94299KAAT AAT20161212162011512/12/16 16:20:31  5-MIN KAAT 130020Z AUTO 00000KT 10SM CLR 02/M04 A3011 4200 66 3600 000/00 RMK AO2 T00171039 TSNO
94299KAAT AAT20161212162511512/12/16 16:25:31  5-MIN KAAT 130025Z AUTO 00000KT 10SM CLR 02/M04 A3011 4200 66 3600 000/00 RMK AO2 T00171039 TSNO
94299KAAT AAT20161212163011512/12/16 16:30:31  5-MIN KAAT 130030Z AUTO 00000KT 10SM CLR 01/M04 A3011 4200 69 3600 000/00 RMK AO2 T00111039 TSNO
94299KAAT AAT20161212163511512/12/16 16:35:31  5-MIN KAAT 130035Z AUTO 00000KT 10SM CLR 01/M04 A3011 4210 69 3600 000/00 RMK AO2 T00111039 TSNO
94299KAAT AAT20161212164011512/12/16 16:40:31  5-MIN KAAT 130040Z AUTO 00000KT 10SM CLR 01/M04 A3011 4210 69 3600 000/00 RMK AO2 T00111039 TSNO
94299KAAT AAT20161212164511512/12/16 16:45:31  5-MIN KAAT 130045Z AUTO 00000KT 10SM CLR 01/M04 A3011 4210 72 3500 000/00 RMK AO2 T00061039 TSNO
94299KAAT AAT20161212165012212/12/16 16:50:31  5-MIN KAAT 130050Z AUTO 00000KT 10SM CLR 01/M04 A3010 4210 69 3600 000/00 RMK AO2 SLP213 T00111039 TSNO
94299KAAT AAT20161212165512212/12/16 16:55:31  5-MIN KAAT 130055Z AUTO 00000KT 10SM CLR 01/M04 A3010 4210 72 3500 000/00 RMK AO2 SLP214 T00061039 TSNO
94299KAAT AAT20161212170011512/12/16 17:00:31  5-MIN KAAT 130100Z AUTO 00000KT 10SM CLR 00/M04 A3011 4210 75 3400 000/00 RMK AO2 T00001039 TSNO
94299KAAT AAT20161212170511512/12/16 17:05:31  5-MIN KAAT 130105Z AUTO 00000KT 10SM CLR 00/M04 A3010 4210 75 3400 000/00 RMK AO2 T00001039 TSNO
94299KAAT AAT20161212171011712/12/16 17:10:31  5-MIN KAAT 130110Z AUTO 00000KT 6SM HZ CLR 00/M04 A3010 4210 75 3400 000/00 RMK AO2 T00001039 TSNO
94299KAAT AAT20161212171511712/12/16 17:15:31  5-MIN KAAT 130115Z AUTO 00000KT 5SM HZ CLR 01/M04 A3010 4210 72 3500 000/00 RMK AO2 T00061039 TSNO
94299KAAT AAT20161212172011412/12/16 17:20:31  5-MIN KAAT 130120Z AUTO 00000KT 8SM CLR 00/M04 A3010 4210 75 3400 000/00 RMK AO2 T00001039 TSNO
94299KAAT AAT20161212172511512/12/16 17:25:31  5-MIN KAAT 130125Z AUTO 00000KT 10SM CLR 00/M04 A3010 4210 75 3500 000/00 RMK AO2 T00001039 TSNO
94299KAAT AAT20161212173011512/12/16 17:30:31  5-MIN KAAT 130130Z AUTO 04003KT 10SM CLR 00/M04 A3010 4210 75 3500 020/03 RMK AO2 T00001039 TSNO
94299KAAT AAT20161212173511512/12/16 17:35:31  5-MIN KAAT 130135Z AUTO 00000KT 10SM CLR 00/M04 A3010 4210 75 3500 000/00 RMK AO2 T00001039 TSNO
94299KAAT AAT20161212174011412/12/16 17:40:31  5-MIN KAAT 130140Z AUTO 00000KT 9SM CLR 00/M04 A3010 4210 75 3500 000/00 RMK AO2 T00001039 TSNO
94299KAAT AAT20161212174511612/12/16 17:45:31  5-MIN KAAT 130145Z AUTO 00000KT 10SM CLR M01/M04 A3010 4210 78 3400 000/00 RMK AO2 T10061039 TSNO
94299KAAT AAT20161212175012312/12/16 17:50:31  5-MIN KAAT 130150Z AUTO 00000KT 10SM CLR M01/M04 A3010 4210 81 3300 000/00 RMK AO2 SLP219 T10111039 TSNO
94299KAAT AAT20161212175512212/12/16 17:55:31  5-MIN KAAT 130155Z AUTO 00000KT 9SM CLR M01/M04 A3010 4210 81 3300 000/00 RMK AO2 SLP220 T10111039 TSNO
94299KAAT AAT20161212180011512/12/16 18:00:31  5-MIN KAAT 130200Z AUTO 00000KT 8SM CLR M01/M04 A3011 4210 81 3300 000/00 RMK AO2 T10111039 TSNO
94299KAAT AAT20161212180511512/12/16 18:05:31  5-MIN KAAT 130205Z AUTO 05003KT 9SM CLR M02/M04 A3011 4210 85 3200 040/03 RMK AO2 T10171039 TSNO
94299KAAT AAT20161212181011512/12/16 18:10:31  5-MIN KAAT 130210Z AUTO 07004KT 7SM CLR M01/M04 A3011 4210 75 3400 050/04 RMK AO2 T10061044 TSNO
94299KAAT AAT20161212181511512/12/16 18:15:31  5-MIN KAAT 130215Z AUTO 08003KT 7SM CLR M01/M04 A3011 4210 75 3400 070/03 RMK AO2 T10061044 TSNO
94299KAAT AAT20161212182011512/12/16 18:20:31  5-MIN KAAT 130220Z AUTO 00000KT 7SM CLR M02/M04 A3011 4210 81 3200 000/00 RMK AO2 T10171044 TSNO
94299KAAT AAT20161212182511512/12/16 18:25:31  5-MIN KAAT 130225Z AUTO 00000KT 8SM CLR M02/M04 A3011 4210 85 3200 000/00 RMK AO2 T10171039 TSNO
94299KAAT AAT20161212183011612/12/16 18:30:31  5-MIN KAAT 130230Z AUTO 00000KT 10SM CLR M02/M04 A3011 4210 88 3200 000/00 RMK AO2 T10221039 TSNO
94299KAAT AAT20161212183511612/12/16 18:35:31  5-MIN KAAT 130235Z AUTO 00000KT 10SM CLR M02/M04 A3011 4210 88 3200 000/00 RMK AO2 T10221039 TSNO
94299KAAT AAT20161212184011612/12/16 18:40:31  5-MIN KAAT 130240Z AUTO 00000KT 10SM CLR M02/M04 A3011 4210 88 3200 000/00 RMK AO2 T10221039 TSNO
94299KAAT AAT20161212184511612/12/16 18:45:31  5-MIN KAAT 130245Z AUTO 00000KT 10SM CLR M02/M04 A3011 4210 85 3200 000/00 RMK AO2 T10171039 TSNO
94299KAAT AAT20161212185012912/12/16 18:50:31  5-MIN KAAT 130250Z AUTO 00000KT 10SM CLR M02/M04 A3011 4210 85 3200 000/00 RMK AO2 SLP220 T10171039 57008 TSNO
94299KAAT AAT20161212185512812/12/16 18:55:31  5-MIN KAAT 130255Z AUTO 00000KT 9SM CLR M02/M04 A3010 4210 85 3200 000/00 RMK AO2 SLP219 T10171039 56003 TSNO
94299KAAT AAT20161212190011512/12/16 19:00:31  5-MIN KAAT 130300Z AUTO 00000KT 9SM CLR M02/M04 A3010 4210 88 3200 000/00 RMK AO2 T10221039 TSNO
94299KAAT AAT20161212190511612/12/16 19:05:31  5-MIN KAAT 130305Z AUTO 00000KT 10SM CLR M02/M04 A3010 4210 88 3200 000/00 RMK AO2 T10221039 TSNO
94299KAAT AAT20161212191011612/12/16 19:10:31  5-MIN KAAT 130310Z AUTO 00000KT 10SM CLR M02/M04 A3010 4220 88 3200 000/00 RMK AO2 T10221039 TSNO
94299KAAT AAT20161212191511512/12/16 19:15:31  5-MIN KAAT 130315Z AUTO 11003KT 8SM CLR M02/M04 A3010 4220 85 3200 090/03 RMK AO2 T10221044 TSNO
94299KAAT AAT20161212192011812/12/16 19:20:31  5-MIN KAAT 130320Z AUTO 09003KT 5SM BR CLR M02/M04 A3010 4210 85 3200 080/03 RMK AO2 T10221044 TSNO
94299KAAT AAT20161212192511812/12/16 19:25:31  5-MIN KAAT 130325Z AUTO 00000KT 5SM BR CLR M03/M05 A3010 4220 88 3000 000/00 RMK AO2 T10331050 TSNO
94299KAAT AAT20161212193011512/12/16 19:30:31  5-MIN KAAT 130330Z AUTO 00000KT 7SM CLR M03/M04 A3010 4220 88 3100 000/00 RMK AO2 T10281044 TSNO
94299KAAT AAT20161212193511512/12/16 19:35:31  5-MIN KAAT 130335Z AUTO 00000KT 8SM CLR M03/M04 A3010 4220 88 3100 000/00 RMK AO2 T10281044 TSNO
94299KAAT AAT20161212194011512/12/16 19:40:31  5-MIN KAAT 130340Z AUTO 00000KT 8SM CLR M03/M04 A3010 4220 88 3100 000/00 RMK AO2 T10281044 TSNO
94299KAAT AAT20161212194511512/12/16 19:45:31  5-MIN KAAT 130345Z AUTO 00000KT 9SM CLR M03/M04 A3010 4220 88 3100 000/00 RMK AO2 T10281044 TSNO
94299KAAT AAT20161212195012312/12/16 19:50:31  5-MIN KAAT 130350Z AUTO 00000KT 10SM CLR M03/M04 A3010 4220 92 3000 000/00 RMK AO2 SLP223 T10331044 TSNO
94299KAAT AAT20161212195512312/12/16 19:55:31  5-MIN KAAT 130355Z AUTO 00000KT 10SM CLR M03/M04 A3010 4220 92 3000 000/00 RMK AO2 SLP223 T10331044 TSNO
94299KAAT AAT20161212200011612/12/16 20:00:31  5-MIN KAAT 130400Z AUTO 00000KT 10SM CLR M03/M04 A3010 4220 92 3000 000/00 RMK AO2 T10331044 TSNO
94299KAAT AAT20161212200511612/12/16 20:05:31  5-MIN KAAT 130405Z AUTO 00000KT 10SM CLR M03/M04 A3010 4220 92 3000 000/00 RMK AO2 T10331044 TSNO
94299KAAT AAT20161212201011612/12/16 20:10:31  5-MIN KAAT 130410Z AUTO 00000KT 10SM CLR M03/M04 A3009 4220 92 3000 000/00 RMK AO2 T10331044 TSNO
94299KAAT AAT20161212201511612/12/16 20:15:31  5-MIN KAAT 130415Z AUTO VRB03KT 10SM CLR M03/M04 A3009 4220 88 3100 VRB/03 RMK AO2 T10281044 TSNO
94299KAAT AAT20161212202011512/12/16 20:20:31  5-MIN KAAT 130420Z AUTO 00000KT 9SM CLR M03/M04 A3009 4220 92 3100 000/00 RMK AO2 T10331044 TSNO
94299KAAT AAT20161212202511512/12/16 20:25:31  5-MIN KAAT 130425Z AUTO 00000KT 8SM CLR M03/M04 A3009 4230 92 3100 000/00 RMK AO2 T10331044 TSNO
94299KAAT AAT20161212203011812/12/16 20:30:31  5-MIN KAAT 130430Z AUTO 00000KT 6SM BR CLR M03/M04 A3009 4230 92 3100 000/00 RMK AO2 T10331044 TSNO
94299KAAT AAT20161212203511812/12/16 20:35:31  5-MIN KAAT 130435Z AUTO 00000KT 6SM BR CLR M03/M04 A3009 4230 88 3100 000/00 RMK AO2 T10281044 TSNO
94299KAAT AAT20161212204011812/12/16 20:40:31  5-MIN KAAT 130440Z AUTO 00000KT 6SM BR CLR M03/M04 A3009 4220 92 3100 000/00 RMK AO2 T10331044 TSNO
94299KAAT AAT20161212204511812/12/16 20:45:31  5-MIN KAAT 130445Z AUTO 00000KT 6SM BR CLR M03/M05 A3009 4230 88 3100 000/00 RMK AO2 T10331050 TSNO
94299KAAT AAT20161212205012512/12/16 20:50:31  5-MIN KAAT 130450Z AUTO 00000KT 6SM BR CLR M03/M05 A3009 4230 88 3100 000/00 RMK AO2 SLP213 T10331050 TSNO
94299KAAT AAT20161212205512512/12/16 20:55:31  5-MIN KAAT 130455Z AUTO 00000KT 5SM BR CLR M03/M05 A3009 4230 88 3100 000/00 RMK AO2 SLP214 T10331050 TSNO
94299KAAT AAT20161212210011812/12/16 21:00:31  5-MIN KAAT 130500Z AUTO 00000KT 4SM BR CLR M03/M04 A3009 4230 88 3100 000/00 RMK AO2 T10281044 TSNO
94299KAAT AAT20161212210511812/12/16 21:05:31  5-MIN KAAT 130505Z AUTO 08004KT 4SM BR CLR M03/M04 A3009 4230 88 3100 070/04 RMK AO2 T10281044 TSNO
94299KAAT AAT20161212211011812/12/16 21:10:31  5-MIN KAAT 130510Z AUTO 06005KT 5SM BR CLR M03/M04 A3009 4220 88 3100 050/05 RMK AO2 T10281044 TSNO
94299KAAT AAT20161212211511512/12/16 21:15:31  5-MIN KAAT 130515Z AUTO 06005KT 8SM CLR M03/M05 A3009 4220 85 3100 040/05 RMK AO2 T10281050 TSNO
94299KAAT AAT20161212212011512/12/16 21:20:31  5-MIN KAAT 130520Z AUTO 06005KT 9SM CLR M03/M04 A3009 4230 88 3100 040/05 RMK AO2 T10281044 TSNO
94299KAAT AAT20161212212511512/12/16 21:25:31  5-MIN KAAT 130525Z AUTO 06005KT 8SM CLR M03/M04 A3009 4230 88 3100 040/05 RMK AO2 T10281044 TSNO
94299KAAT AAT20161212213011512/12/16 21:30:31  5-MIN KAAT 130530Z AUTO 06005KT 9SM CLR M03/M04 A3009 4230 88 3100 050/05 RMK AO2 T10281044 TSNO
94299KAAT AAT20161212213511612/12/16 21:35:31  5-MIN KAAT 130535Z AUTO 07005KT 10SM CLR M03/M04 A3009 4230 88 3100 050/05 RMK AO2 T10281044 TSNO
94299KAAT AAT20161212214011612/12/16 21:40:31  5-MIN KAAT 130540Z AUTO 07005KT 10SM CLR M03/M05 A3009 4230 85 3100 050/05 RMK AO2 T10281050 TSNO
94299KAAT AAT20161212214511612/12/16 21:45:31  5-MIN KAAT 130545Z AUTO 06005KT 10SM CLR M03/M05 A3009 4230 88 3100 050/05 RMK AO2 T10331050 TSNO
94299KAAT AAT20161212215014112/12/16 21:50:31  5-MIN KAAT 130550Z AUTO 07004KT 10SM CLR M03/M05 A3009 4230 88 3100 050/04 RMK AO2 SLP210 T10331050 10022 21039 56003 TSNO
94299KAAT AAT20161212215514112/12/16 21:55:31  5-MIN KAAT 130555Z AUTO 06004KT 10SM CLR M03/M05 A3009 4230 88 3100 040/04 RMK AO2 SLP210 T10331050 10022 21039 56005 TSNO
94299KAAT AAT20161212220011612/12/16 22:00:31  5-MIN KAAT 130600Z AUTO 06003KT 10SM CLR M03/M05 A3008 4230 88 3100 040/03 RMK AO2 T10331050 TSNO
94299KAAT AAT20161212220511512/12/16 22:05:31  5-MIN KAAT 130605Z AUTO 00000KT 9SM CLR M03/M05 A3008 4230 88 3100 000/00 RMK AO2 T10331050 TSNO
94299KAAT AAT20161212221011812/12/16 22:10:31  5-MIN KAAT 130610Z AUTO 00000KT 6SM BR CLR M03/M05 A3008 4230 88 3100 000/00 RMK AO2 T10331050 TSNO
94299KAAT AAT20161212221511812/12/16 22:15:31  5-MIN KAAT 130615Z AUTO 00000KT 6SM BR CLR M03/M05 A3008 4230 88 3100 000/00 RMK AO2 T10331050 TSNO
94299KAAT AAT20161212222011512/12/16 22:20:31  5-MIN KAAT 130620Z AUTO 00000KT 8SM CLR M04/M05 A3008 4230 92 3000 000/00 RMK AO2 T10391050 TSNO
94299KAAT AAT20161212222511612/12/16 22:25:31  5-MIN KAAT 130625Z AUTO 00000KT 10SM CLR M04/M06 A3008 4230 88 3000 000/00 RMK AO2 T10391056 TSNO
94299KAAT AAT20161212223011612/12/16 22:30:31  5-MIN KAAT 130630Z AUTO 00000KT 10SM CLR M04/M05 A3008 4230 92 3000 000/00 RMK AO2 T10391050 TSNO
94299KAAT AAT20161212223511612/12/16 22:35:31  5-MIN KAAT 130635Z AUTO 00000KT 10SM CLR M04/M05 A3008 4230 92 3000 000/00 RMK AO2 T10391050 TSNO
94299KAAT AAT20161212224011612/12/16 22:40:31  5-MIN KAAT 130640Z AUTO 00000KT 10SM CLR M04/M05 A3008 4230 96 2900 000/00 RMK AO2 T10441050 TSNO
94299KAAT AAT20161212224511612/12/16 22:45:31  5-MIN KAAT 130645Z AUTO 00000KT 10SM CLR M04/M05 A3008 4230 92 3000 000/00 RMK AO2 T10391050 TSNO
94299KAAT AAT20161212225012312/12/16 22:50:31  5-MIN KAAT 130650Z AUTO 00000KT 10SM CLR M04/M05 A3008 4230 92 3000 000/00 RMK AO2 SLP208 T10391050 TSNO
94299KAAT AAT20161212225512312/12/16 22:55:31  5-MIN KAAT 130655Z AUTO 00000KT 10SM CLR M04/M05 A3008 4230 92 3000 000/00 RMK AO2 SLP206 T10391050 TSNO
94299KAAT AAT20161212230011612/12/16 23:00:31  5-MIN KAAT 130700Z AUTO 00000KT 10SM CLR M04/M05 A3008 4230 92 3000 000/00 RMK AO2 T10391050 TSNO
94299KAAT AAT20161212230511512/12/16 23:05:31  5-MIN KAAT 130705Z AUTO 00000KT 9SM CLR M04/M05 A3008 4230 92 3000 000/00 RMK AO2 T10391050 TSNO
94299KAAT AAT20161212231011512/12/16 23:10:31  5-MIN KAAT 130710Z AUTO 00000KT 7SM CLR M03/M05 A3008 4230 88 3100 000/00 RMK AO2 T10331050 TSNO
94299KAAT AAT20161212231511812/12/16 23:15:31  5-MIN KAAT 130715Z AUTO 08003KT 6SM BR CLR M03/M05 A3008 4230 88 3100 070/03 RMK AO2 T10331050 TSNO
94299KAAT AAT20161212232011812/12/16 23:20:31  5-MIN KAAT 130720Z AUTO 06003KT 5SM BR CLR M03/M05 A3008 4240 88 3100 050/03 RMK AO2 T10331050 TSNO
94299KAAT AAT20161212232511812/12/16 23:25:31  5-MIN KAAT 130725Z AUTO 00000KT 5SM BR CLR M03/M05 A3008 4230 88 3100 000/00 RMK AO2 T10331050 TSNO
94299KAAT AAT20161212233011812/12/16 23:30:31  5-MIN KAAT 130730Z AUTO 05003KT 4SM BR CLR M03/M04 A3008 4230 92 3100 030/03 RMK AO2 T10331044 TSNO
94299KAAT AAT20161212233511812/12/16 23:35:31  5-MIN KAAT 130735Z AUTO 00000KT 4SM BR CLR M03/M05 A3008 4240 88 3100 000/00 RMK AO2 T10331050 TSNO
94299KAAT AAT20161212234011812/12/16 23:40:31  5-MIN KAAT 130740Z AUTO 00000KT 5SM BR CLR M03/M05 A3008 4240 88 3100 000/00 RMK AO2 T10331050 TSNO
94299KAAT AAT20161212234511812/12/16 23:45:31  5-MIN KAAT 130745Z AUTO 04003KT 5SM BR CLR M03/M05 A3007 4240 88 3100 020/03 RMK AO2 T10331050 TSNO
94299KAAT AAT20161212235013512/12/16 23:50:31  5-MIN KAAT 130750Z AUTO 06003KT 4SM BR CLR M03/M05 A3007 4250 88 3100 040/03 RMK AO2 SLP200 T10331050 400391067 TSNO
94299KAAT AAT20161212235513512/12/16 23:55:31  5-MIN KAAT 130755Z AUTO 08003KT 4SM BR CLR M03/M05 A3006 4250 88 3100 070/03 RMK AO2 SLP199 T10331050 400391067 TSNO
94299KAAT AAT20161213000011812/13/16 00:00:31  5-MIN KAAT 130800Z AUTO 00000KT 6SM BR CLR M03/M04 A3006 4250 88 3200 000/00 RMK AO2 T10281044 TSNO
94299KAAT AAT20161213000511512/13/16 00:05:31  5-MIN KAAT 130805Z AUTO 00000KT 7SM CLR M03/M04 A3006 4250 92 3100 000/00 RMK AO2 T10331044 TSNO
94299KAAT AAT20161213001011812/13/16 00:10:31  5-MIN KAAT 130810Z AUTO 00000KT 6SM BR CLR M03/M04 A3006 4250 88 3200 000/00 RMK AO2 T10281044 TSNO
94299KAAT AAT20161213001511812/13/16 00:15:31  5-MIN KAAT 130815Z AUTO 00000KT 6SM BR CLR M03/M04 A3006 4250 92 3100 000/00 RMK AO2 T10331044 TSNO
94299KAAT AAT20161213002011512/13/16 00:20:31  5-MIN KAAT 130820Z AUTO 00000KT 7SM CLR M03/M04 A3006 4250 92 3100 000/00 RMK AO2 T10331044 TSNO
94299KAAT AAT20161213002511512/13/16 00:25:31  5-MIN KAAT 130825Z AUTO 00000KT 8SM CLR M03/M05 A3006 4260 88 3100 000/00 RMK AO2 T10331050 TSNO
94299KAAT AAT20161213003011512/13/16 00:30:31  5-MIN KAAT 130830Z AUTO 00000KT 9SM CLR M03/M05 A3005 4260 88 3100 000/00 RMK AO2 T10331050 TSNO
94299KAAT AAT20161213003511612/13/16 00:35:31  5-MIN KAAT 130835Z AUTO 00000KT 10SM CLR M03/M05 A3005 4260 88 3100 000/00 RMK AO2 T10331050 TSNO
94299KAAT AAT20161213004011612/13/16 00:40:31  5-MIN KAAT 130840Z AUTO 00000KT 10SM CLR M03/M05 A3005 4260 88 3100 000/00 RMK AO2 T10331050 TSNO
94299KAAT AAT20161213004511612/13/16 00:45:31  5-MIN KAAT 130845Z AUTO 00000KT 10SM CLR M04/M05 A3005 4260 92 3000 000/00 RMK AO2 T10391050 TSNO
94299KAAT AAT20161213005012912/13/16 00:50:31  5-MIN KAAT 130850Z AUTO 00000KT 10SM CLR M03/M04 A3005 4260 92 3100 000/00 RMK AO2 SLP193 T10331044 56005 TSNO
94299KAAT AAT20161213005512912/13/16 00:55:31  5-MIN KAAT 130855Z AUTO 00000KT 10SM CLR M04/M04 A3006 4260 96 3000 000/00 RMK AO2 SLP196 T10391044 58009 TSNO
94299KAAT AAT20161213010011612/13/16 01:00:31  5-MIN KAAT 130900Z AUTO 00000KT 10SM CLR M04/M04 A3005 4260 96 3000 000/00 RMK AO2 T10391044 TSNO
94299KAAT AAT20161213010511912/13/16 01:05:31  5-MIN KAAT 130905Z AUTO 00000KT 10SM FEW120 M03/M04 A3005 4260 92 3100 000/00 RMK AO2 T10331044 TSNO
94299KAAT AAT20161213011011912/13/16 01:10:31  5-MIN KAAT 130910Z AUTO 00000KT 10SM FEW120 M03/M04 A3005 4260 92 3100 000/00 RMK AO2 T10331044 TSNO
94299KAAT AAT20161213011511912/13/16 01:15:31  5-MIN KAAT 130915Z AUTO 00000KT 10SM FEW120 M03/M04 A3005 4260 92 3100 000/00 RMK AO2 T10331044 TSNO
94299KAAT AAT20161213012011912/13/16 01:20:31  5-MIN KAAT 130920Z AUTO 00000KT 10SM FEW120 M03/M04 A3005 4260 92 3100 000/00 RMK AO2 T10331044 TSNO
94299KAAT AAT20161213012511912/13/16 01:25:31  5-MIN KAAT 130925Z AUTO 00000KT 10SM FEW120 M03/M04 A3005 4260 92 3100 000/00 RMK AO2 T10331044 TSNO
94299KAAT AAT20161213013011612/13/16 01:30:31  5-MIN KAAT 130930Z AUTO 00000KT 10SM CLR M03/M04 A3005 4260 92 3100 000/00 RMK AO2 T10331044 TSNO
94299KAAT AAT20161213013511612/13/16 01:35:31  5-MIN KAAT 130935Z AUTO 00000KT 10SM CLR M03/M04 A3005 4260 92 3100 000/00 RMK AO2 T10331044 TSNO
94299KAAT AAT20161213014011612/13/16 01:40:31  5-MIN KAAT 130940Z AUTO 00000KT 10SM CLR M03/M04 A3005 4260 92 3100 000/00 RMK AO2 T10331044 TSNO
94299KAAT AAT20161213014511912/13/16 01:45:31  5-MIN KAAT 130945Z AUTO 00000KT 10SM SCT120 M03/M04 A3005 4260 92 3100 000/00 RMK AO2 T10331044 TSNO
94299KAAT AAT20161213015012612/13/16 01:50:31  5-MIN KAAT 130950Z AUTO 00000KT 10SM SCT120 M03/M04 A3005 4260 92 3100 000/00 RMK AO2 SLP192 T10331044 TSNO
94299KAAT AAT20161213015512612/13/16 01:55:31  5-MIN KAAT 130955Z AUTO 00000KT 10SM SCT120 M03/M04 A3005 4260 92 3100 000/00 RMK AO2 SLP191 T10331044 TSNO
94299KAAT AAT20161213020011912/13/16 02:00:31  5-MIN KAAT 131000Z AUTO 00000KT 10SM FEW120 M03/M04 A3005 4260 92 3100 000/00 RMK AO2 T10331044 TSNO
94299KAAT AAT20161213020511912/13/16 02:05:31  5-MIN KAAT 131005Z AUTO 00000KT 10SM FEW120 M03/M04 A3005 4260 92 3100 000/00 RMK AO2 T10331044 TSNO
94299KAAT AAT20161213021011912/13/16 02:10:31  5-MIN KAAT 131010Z AUTO 00000KT 10SM FEW120 M03/M04 A3005 4260 92 3100 000/00 RMK AO2 T10331044 TSNO
94299KAAT AAT20161213021511912/13/16 02:15:31  5-MIN KAAT 131015Z AUTO 00000KT 10SM FEW110 M03/M04 A3005 4270 88 3200 000/00 RMK AO2 T10281044 TSNO
94299KAAT AAT20161213022011612/13/16 02:20:31  5-MIN KAAT 131020Z AUTO 00000KT 10SM CLR M03/M04 A3005 4270 92 3100 000/00 RMK AO2 T10331044 TSNO
94299KAAT AAT20161213022511612/13/16 02:25:31  5-MIN KAAT 131025Z AUTO 34003KT 10SM CLR M03/M04 A3005 4260 92 3100 320/03 RMK AO2 T10331044 TSNO
94299KAAT AAT20161213023011912/13/16 02:30:31  5-MIN KAAT 131030Z AUTO 34003KT 10SM FEW120 M03/M04 A3005 4260 88 3200 330/03 RMK AO2 T10281044 TSNO
94299KAAT AAT20161213023511912/13/16 02:35:31  5-MIN KAAT 131035Z AUTO 31003KT 10SM FEW120 M03/M04 A3005 4260 88 3200 300/03 RMK AO2 T10281044 TSNO
94299KAAT AAT20161213024011912/13/16 02:40:31  5-MIN KAAT 131040Z AUTO 29003KT 10SM FEW120 M03/M04 A3005 4260 88 3200 280/03 RMK AO2 T10281044 TSNO
94299KAAT AAT20161213024511912/13/16 02:45:31  5-MIN KAAT 131045Z AUTO 27003KT 10SM SCT120 M03/M04 A3005 4260 92 3200 250/03 RMK AO2 T10281039 TSNO
94299KAAT AAT20161213025012612/13/16 02:50:31  5-MIN KAAT 131050Z AUTO 00000KT 10SM FEW120 M03/M04 A3005 4260 92 3200 000/00 RMK AO2 SLP191 T10281039 TSNO
94299KAAT AAT20161213025512612/13/16 02:55:31  5-MIN KAAT 131055Z AUTO 00000KT 10SM FEW120 M03/M04 A3005 4260 92 3200 000/00 RMK AO2 SLP190 T10281039 TSNO
94299KAAT AAT20161213030011912/13/16 03:00:31  5-MIN KAAT 131100Z AUTO 32003KT 10SM FEW120 M03/M04 A3005 4260 92 3200 310/03 RMK AO2 T10281039 TSNO
94299KAAT AAT20161213030511912/13/16 03:05:31  5-MIN KAAT 131105Z AUTO 32003KT 10SM SCT110 M03/M04 A3005 4260 92 3200 310/03 RMK AO2 T10281039 TSNO
94299KAAT AAT20161213031011912/13/16 03:10:31  5-MIN KAAT 131110Z AUTO 33003KT 10SM BKN110 M03/M04 A3005 4260 92 3200 310/03 RMK AO2 T10281039 TSNO
94299KAAT AAT20161213031511912/13/16 03:15:31  5-MIN KAAT 131115Z AUTO 00000KT 10SM BKN110 M03/M04 A3005 4260 92 3200 000/00 RMK AO2 T10281039 TSNO
94299KAAT AAT20161213032011912/13/16 03:20:31  5-MIN KAAT 131120Z AUTO 00000KT 10SM BKN110 M03/M04 A3005 4260 92 3200 000/00 RMK AO2 T10281039 TSNO
94299KAAT AAT20161213032511912/13/16 03:25:31  5-MIN KAAT 131125Z AUTO 00000KT 10SM OVC110 M03/M04 A3005 4260 92 3200 000/00 RMK AO2 T10281039 TSNO
94299KAAT AAT20161213033011912/13/16 03:30:31  5-MIN KAAT 131130Z AUTO 00000KT 10SM OVC110 M03/M04 A3005 4260 92 3200 000/00 RMK AO2 T10281039 TSNO
94299KAAT AAT20161213033511912/13/16 03:35:31  5-MIN KAAT 131135Z AUTO 00000KT 10SM OVC110 M03/M04 A3005 4260 92 3200 000/00 RMK AO2 T10281039 TSNO
94299KAAT AAT20161213034011912/13/16 03:40:31  5-MIN KAAT 131140Z AUTO 05003KT 10SM OVC110 M03/M04 A3005 4260 92 3200 030/03 RMK AO2 T10281039 TSNO
94299KAAT AAT20161213034511812/13/16 03:45:31  5-MIN KAAT 131145Z AUTO 05003KT 9SM OVC110 M03/M04 A3005 4260 92 3200 030/03 RMK AO2 T10281039 TSNO
94299KAAT AAT20161213035014312/13/16 03:50:31  5-MIN KAAT 131150Z AUTO 00000KT 8SM OVC110 M03/M04 A3005 4260 92 3200 000/00 RMK AO2 SLP191 T10281039 11028 21044 58009 TSNO
94299KAAT AAT20161213035514312/13/16 03:55:31  5-MIN KAAT 131155Z AUTO 00000KT 8SM OVC110 M03/M04 A3005 4260 92 3200 000/00 RMK AO2 SLP191 T10281039 11028 21044 56002 TSNO
94299KAAT AAT20161213040011812/13/16 04:00:31  5-MIN KAAT 131200Z AUTO 00000KT 9SM OVC110 M03/M04 A3005 4270 92 3200 000/00 RMK AO2 T10281039 TSNO
94299KAAT AAT20161213040511912/13/16 04:05:31  5-MIN KAAT 131205Z AUTO 00000KT 10SM OVC110 M03/M04 A3005 4260 92 3200 000/00 RMK AO2 T10281039 TSNO
94299KAAT AAT20161213041011912/13/16 04:10:31  5-MIN KAAT 131210Z AUTO 00000KT 10SM OVC110 M03/M04 A3005 4260 92 3200 000/00 RMK AO2 T10281039 TSNO
94299KAAT AAT20161213041511912/13/16 04:15:31  5-MIN KAAT 131215Z AUTO 00000KT 10SM OVC110 M02/M04 A3005 4260 88 3200 000/00 RMK AO2 T10221039 TSNO
94299KAAT AAT20161213042011812/13/16 04:20:31  5-MIN KAAT 131220Z AUTO 00000KT 8SM OVC120 M03/M04 A3005 4260 92 3200 000/00 RMK AO2 T10281039 TSNO
94299KAAT AAT20161213042511812/13/16 04:25:31  5-MIN KAAT 131225Z AUTO 33003KT 8SM OVC120 M03/M04 A3005 4260 92 3200 320/03 RMK AO2 T10281039 TSNO
94299KAAT AAT20161213043011912/13/16 04:30:31  5-MIN KAAT 131230Z AUTO 00000KT 10SM OVC120 M03/M04 A3005 4260 92 3200 000/00 RMK AO2 T10281039 TSNO
94299KAAT AAT20161213043511912/13/16 04:35:31  5-MIN KAAT 131235Z AUTO 00000KT 10SM OVC120 M03/M04 A3005 4260 92 3200 000/00 RMK AO2 T10281039 TSNO
94299KAAT AAT20161213044011912/13/16 04:40:31  5-MIN KAAT 131240Z AUTO 32003KT 10SM BKN120 M03/M04 A3005 4260 92 3200 300/03 RMK AO2 T10281039 TSNO
94299KAAT AAT20161213044511912/13/16 04:45:31  5-MIN KAAT 131245Z AUTO 00000KT 10SM BKN120 M03/M04 A3005 4260 92 3200 000/00 RMK AO2 T10281039 TSNO
94299KAAT AAT20161213045012612/13/16 04:50:31  5-MIN KAAT 131250Z AUTO 00000KT 10SM BKN120 M03/M04 A3005 4260 92 3200 000/00 RMK AO2 SLP194 T10281039 TSNO
94299KAAT AAT20161213045512612/13/16 04:55:31  5-MIN KAAT 131255Z AUTO 00000KT 10SM BKN120 M03/M04 A3005 4260 92 3200 000/00 RMK AO2 SLP196 T10281039 TSNO
94299KAAT AAT20161213050011912/13/16 05:00:31  5-MIN KAAT 131300Z AUTO 00000KT 10SM BKN120 M03/M04 A3005 4260 92 3200 000/00 RMK AO2 T10281039 TSNO
94299KAAT AAT20161213050511912/13/16 05:05:31  5-MIN KAAT 131305Z AUTO 00000KT 10SM BKN120 M03/M04 A3005 4260 92 3200 000/00 RMK AO2 T10281039 TSNO
94299KAAT AAT20161213051011912/13/16 05:10:31  5-MIN KAAT 131310Z AUTO 00000KT 10SM BKN120 M03/M04 A3005 4260 92 3200 000/00 RMK AO2 T10281039 TSNO
94299KAAT AAT20161213051511912/13/16 05:15:31  5-MIN KAAT 131315Z AUTO 00000KT 10SM BKN120 M03/M04 A3005 4260 92 3200 000/00 RMK AO2 T10281039 TSNO
94299KAAT AAT20161213052011912/13/16 05:20:31  5-MIN KAAT 131320Z AUTO 00000KT 10SM BKN120 M03/M04 A3005 4260 96 3100 000/00 RMK AO2 T10331039 TSNO
94299KAAT AAT20161213052511912/13/16 05:25:31  5-MIN KAAT 131325Z AUTO 00000KT 10SM BKN120 M03/M04 A3005 4260 96 3100 000/00 RMK AO2 T10331039 TSNO
94299KAAT AAT20161213053011912/13/16 05:30:31  5-MIN KAAT 131330Z AUTO 00000KT 10SM BKN120 M03/M04 A3005 4260 96 3100 000/00 RMK AO2 T10331039 TSNO
94299KAAT AAT20161213053511912/13/16 05:35:31  5-MIN KAAT 131335Z AUTO 00000KT 10SM BKN120 M03/M04 A3005 4260 92 3100 000/00 RMK AO2 T10331044 TSNO
94299KAAT AAT20161213054011912/13/16 05:40:31  5-MIN KAAT 131340Z AUTO 00000KT 10SM BKN120 M03/M04 A3005 4260 92 3100 000/00 RMK AO2 T10331044 TSNO
94299KAAT AAT20161213054511812/13/16 05:45:31  5-MIN KAAT 131345Z AUTO 00000KT 7SM OVC120 M03/M04 A3005 4260 92 3100 000/00 RMK AO2 T10331044 TSNO
94299KAAT AAT20161213055012812/13/16 05:50:31  5-MIN KAAT 131350Z AUTO 00000KT 6SM BR OVC120 M04/M04 A3005 4260 96 3000 000/00 RMK AO2 SLP198 T10391044 TSNO
94299KAAT AAT20161213055512512/13/16 05:55:31  5-MIN KAAT 131355Z AUTO 00000KT 7SM OVC120 M04/M04 A3005 4260 96 3000 000/00 RMK AO2 SLP199 T10391044 TSNO
94299KAAT AAT20161213060011812/13/16 06:00:31  5-MIN KAAT 131400Z AUTO 00000KT 9SM OVC120 M04/M05 A3005 4260 92 3000 000/00 RMK AO2 T10391050 TSNO
94299KAAT AAT20161213060511812/13/16 06:05:31  5-MIN KAAT 131405Z AUTO 00000KT 9SM OVC120 M04/M04 A3005 4260 96 3000 000/00 RMK AO2 T10391044 TSNO
94299KAAT AAT20161213061011912/13/16 06:10:31  5-MIN KAAT 131410Z AUTO 00000KT 10SM OVC120 M04/M05 A3006 4260 96 3000 000/00 RMK AO2 T10441050 TSNO
94299KAAT AAT20161213061511912/13/16 06:15:31  5-MIN KAAT 131415Z AUTO 00000KT 10SM OVC120 M05/M06 A3006 4260 96 2900 000/00 RMK AO2 T10501056 TSNO
94299KAAT AAT20161213062011912/13/16 06:20:31  5-MIN KAAT 131420Z AUTO 00000KT 10SM OVC120 M05/M06 A3006 4260 96 2900 000/00 RMK AO2 T10501056 TSNO
94299KAAT AAT20161213062511912/13/16 06:25:31  5-MIN KAAT 131425Z AUTO 00000KT 10SM OVC120 M05/M06 A3006 4260 96 2900 000/00 RMK AO2 T10501056 TSNO
94299KAAT AAT20161213063012012/13/16 06:30:31  5-MIN KAAT 131430Z AUTO 00000KT 10SM OVC110 M06/M06 A3006 4260 100 2800 000/00 RMK AO2 T10561056 TSNO
94299KAAT AAT20161213063511912/13/16 06:35:31  5-MIN KAAT 131435Z AUTO 00000KT 10SM OVC110 M06/M06 A3005 4260 96 2800 000/00 RMK AO2 T10561061 TSNO
94299KAAT AAT20161213064011912/13/16 06:40:31  5-MIN KAAT 131440Z AUTO 00000KT 10SM OVC110 M06/M06 A3005 4260 96 2800 000/00 RMK AO2 T10561061 TSNO
94299KAAT AAT20161213064511912/13/16 06:45:31  5-MIN KAAT 131445Z AUTO 00000KT 10SM BKN110 M06/M06 A3005 4260 96 2800 000/00 RMK AO2 T10561061 TSNO
94299KAAT AAT20161213065013212/13/16 06:50:31  5-MIN KAAT 131450Z AUTO 00000KT 10SM BKN110 M05/M06 A3005 4260 92 2900 000/00 RMK AO2 SLP203 T10501061 56002 TSNO
94299KAAT AAT20161213065513212/13/16 06:55:31  5-MIN KAAT 131455Z AUTO 00000KT 10SM BKN110 M06/M06 A3005 4260 96 2800 000/00 RMK AO2 SLP203 T10561061 52001 TSNO
94299KAAT AAT20161213070011912/13/16 07:00:31  5-MIN KAAT 131500Z AUTO 00000KT 10SM SCT110 M06/M06 A3005 4260 96 2800 000/00 RMK AO2 T10561061 TSNO
94299KAAT AAT20161213070511912/13/16 07:05:31  5-MIN KAAT 131505Z AUTO 00000KT 10SM SCT110 M05/M06 A3005 4260 92 2900 000/00 RMK AO2 T10501061 TSNO
94299KAAT AAT20161213071011912/13/16 07:10:31  5-MIN KAAT 131510Z AUTO 00000KT 10SM FEW110 M06/M06 A3006 4250 96 2800 000/00 RMK AO2 T10561061 TSNO
94299KAAT AAT20161213071511912/13/16 07:15:31  5-MIN KAAT 131515Z AUTO 00000KT 10SM FEW110 M06/M07 A3006 4250 96 2700 000/00 RMK AO2 T10611067 TSNO
94299KAAT AAT20161213072011512/13/16 07:20:31  5-MIN KAAT 131520Z AUTO 00000KT 9SM CLR M06/M07 A3006 4250 92 2800 000/00 RMK AO2 T10561067 TSNO
94299KAAT AAT20161213072511512/13/16 07:25:31  5-MIN KAAT 131525Z AUTO 00000KT 8SM CLR M06/M07 A3006 4250 92 2800 000/00 RMK AO2 T10561067 TSNO
94299KAAT AAT20161213073011512/13/16 07:30:31  5-MIN KAAT 131530Z AUTO 00000KT 8SM CLR M06/M07 A3006 4250 92 2700 000/00 RMK AO2 T10611072 TSNO
94299KAAT AAT20161213073511512/13/16 07:35:31  5-MIN KAAT 131535Z AUTO 19003KT 8SM CLR M06/M07 A3006 4250 92 2700 170/03 RMK AO2 T10611072 TSNO
94299KAAT AAT20161213074011512/13/16 07:40:31  5-MIN KAAT 131540Z AUTO 20003KT 9SM CLR M06/M07 A3007 4250 96 2700 190/03 RMK AO2 T10611067 TSNO
94299KAAT AAT20161213074511612/13/16 07:45:31  5-MIN KAAT 131545Z AUTO 19003KT 10SM CLR M06/M07 A3007 4250 96 2700 180/03 RMK AO2 T10611067 TSNO
94299KAAT AAT20161213075012312/13/16 07:50:31  5-MIN KAAT 131550Z AUTO 00000KT 10SM CLR M06/M07 A3007 4250 92 2800 000/00 RMK AO2 SLP213 T10561067 TSNO
94299KAAT AAT20161213075512212/13/16 07:55:31  5-MIN KAAT 131555Z AUTO 00000KT 9SM CLR M06/M07 A3007 4240 96 2700 000/00 RMK AO2 SLP213 T10611067 TSNO
94299KAAT AAT20161213080011512/13/16 08:00:31  5-MIN KAAT 131600Z AUTO 00000KT 8SM CLR M05/M06 A3007 4240 92 2900 000/00 RMK AO2 T10501061 TSNO
94299KAAT AAT20161213080511812/13/16 08:05:31  5-MIN KAAT 131605Z AUTO 00000KT 6SM BR CLR M04/M06 A3007 4240 92 2900 000/00 RMK AO2 T10441056 TSNO
94299KAAT AAT20161213081011812/13/16 08:10:31  5-MIN KAAT 131610Z AUTO 00000KT 5SM BR CLR M05/M06 A3008 4240 96 2900 000/00 RMK AO2 T10501056 TSNO
94299KAAT AAT20161213081511512/13/16 08:15:31  5-MIN KAAT 131615Z AUTO 00000KT 7SM CLR M06/M07 A3008 4230 92 2800 000/00 RMK AO2 T10561067 TSNO
94299KAAT AAT20161213082011512/13/16 08:20:31  5-MIN KAAT 131620Z AUTO 00000KT 9SM CLR M06/M07 A3008 4240 92 2800 000/00 RMK AO2 T10561067 TSNO
94299KAAT AAT20161213082511812/13/16 08:25:31  5-MIN KAAT 131625Z AUTO 00000KT 5SM BR CLR M05/M06 A3007 4240 92 2900 000/00 RMK AO2 T10501061 TSNO
94299KAAT AAT20161213083011812/13/16 08:30:31  5-MIN KAAT 131630Z AUTO 00000KT 3SM BR CLR M04/M06 A3007 4240 92 2900 000/00 RMK AO2 T10441056 TSNO
94299KAAT AAT20161213083511812/13/16 08:35:31  5-MIN KAAT 131635Z AUTO 00000KT 3SM BR CLR M04/M06 A3008 4240 92 2900 000/00 RMK AO2 T10441056 TSNO
94299KAAT AAT20161213084011812/13/16 08:40:31  5-MIN KAAT 131640Z AUTO 04003KT 3SM BR CLR M05/M06 A3007 4240 92 2900 030/03 RMK AO2 T10501061 TSNO
94299KAAT AAT20161213084511812/13/16 08:45:31  5-MIN KAAT 131645Z AUTO 00000KT 3SM BR CLR M05/M06 A3008 4240 92 2900 000/00 RMK AO2 T10501061 TSNO
94299KAAT AAT20161213085012512/13/16 08:50:31  5-MIN KAAT 131650Z AUTO 00000KT 4SM BR CLR M04/M06 A3008 4230 92 2900 000/00 RMK AO2 SLP216 T10441056 TSNO
94299KAAT AAT20161213085512812/13/16 08:55:31  5-MIN KAAT 131655Z AUTO 00000KT 5SM BR FEW095 M04/M05 A3008 4230 96 2900 000/00 RMK AO2 SLP216 T10441050 TSNO
94299KAAT AAT20161213090011812/13/16 09:00:31  5-MIN KAAT 131700Z AUTO 00000KT 7SM SCT095 M04/M04 A3008 4230 96 3000 000/00 RMK AO2 T10391044 TSNO
94299KAAT AAT20161213090511812/13/16 09:05:31  5-MIN KAAT 131705Z AUTO 00000KT 8SM BKN090 M03/M04 A3008 4230 96 3100 000/00 RMK AO2 T10331039 TSNO
94299KAAT AAT20161213091011812/13/16 09:10:31  5-MIN KAAT 131710Z AUTO 00000KT 9SM BKN090 M03/M04 A3009 4230 96 3100 000/00 RMK AO2 T10331039 TSNO
94299KAAT AAT20161213091511812/13/16 09:15:31  5-MIN KAAT 131715Z AUTO 00000KT 9SM BKN090 M03/M04 A3009 4230 96 3100 000/00 RMK AO2 T10331039 TSNO
94299KAAT AAT20161213092011912/13/16 09:20:31  5-MIN KAAT 131720Z AUTO 00000KT 10SM OVC090 M03/M04 A3009 4230 92 3100 000/00 RMK AO2 T10281039 TSNO
94299KAAT AAT20161213092511912/13/16 09:25:31  5-MIN KAAT 131725Z AUTO 00000KT 10SM OVC090 M03/M04 A3009 4230 92 3100 000/00 RMK AO2 T10281039 TSNO
94299KAAT AAT20161213093011912/13/16 09:30:31  5-MIN KAAT 131730Z AUTO 00000KT 10SM OVC090 M02/M03 A3009 4230 92 3200 000/00 RMK AO2 T10221033 TSNO
94299KAAT AAT20161213093511812/13/16 09:35:31  5-MIN KAAT 131735Z AUTO 00000KT 9SM OVC085 M02/M03 A3009 4220 92 3200 000/00 RMK AO2 T10221033 TSNO
94299KAAT AAT20161213094011812/13/16 09:40:31  5-MIN KAAT 131740Z AUTO 00000KT 7SM OVC085 M02/M03 A3009 4230 92 3200 000/00 RMK AO2 T10221033 TSNO
94299KAAT AAT20161213094512112/13/16 09:45:31  5-MIN KAAT 131745Z AUTO 00000KT 6SM BR OVC085 M02/M03 A3009 4220 92 3200 000/00 RMK AO2 T10221033 TSNO
94299KAAT AAT20161213095014612/13/16 09:50:31  5-MIN KAAT 131750Z AUTO 00000KT 5SM BR OVC085 M02/M03 A3009 4220 88 3300 000/00 RMK AO2 SLP214 T10171033 11017 21067 52001 TSNO
94299KAAT AAT20161213095514312/13/16 09:55:31  5-MIN KAAT 131755Z AUTO 00000KT 7SM OVC085 M02/M03 A3009 4220 92 3200 000/00 RMK AO2 SLP215 T10221033 11017 21067 51012 TSNO
94299KAAT AAT20161213100011912/13/16 10:00:31  5-MIN KAAT 131800Z AUTO 00000KT 10SM OVC085 M02/M03 A3009 4230 88 3300 000/00 RMK AO2 T10171033 TSNO
94299KAAT AAT20161213100511912/13/16 10:05:31  5-MIN KAAT 131805Z AUTO 00000KT 10SM OVC085 M02/M03 A3009 4220 88 3300 000/00 RMK AO2 T10171033 TSNO
94299KAAT AAT20161213101011912/13/16 10:10:31  5-MIN KAAT 131810Z AUTO 00000KT 10SM OVC085 M01/M03 A3009 4220 88 3300 000/00 RMK AO2 T10111028 TSNO
94299KAAT AAT20161213101511912/13/16 10:15:31  5-MIN KAAT 131815Z AUTO 00000KT 10SM OVC085 M01/M03 A3009 4220 85 3300 000/00 RMK AO2 T10111033 TSNO
94299KAAT AAT20161213102011812/13/16 10:20:31  5-MIN KAAT 131820Z AUTO 00000KT 7SM OVC085 M01/M03 A3009 4230 88 3300 000/00 RMK AO2 T10111028 TSNO
94299KAAT AAT20161213102512112/13/16 10:25:31  5-MIN KAAT 131825Z AUTO 00000KT 5SM BR OVC085 M01/M03 A3009 4230 88 3300 000/00 RMK AO2 T10111028 TSNO
94299KAAT AAT20161213103012112/13/16 10:30:31  5-MIN KAAT 131830Z AUTO 00000KT 5SM BR OVC085 M01/M03 A3009 4230 88 3300 000/00 RMK AO2 T10111028 TSNO
94299KAAT AAT20161213103512112/13/16 10:35:31  5-MIN KAAT 131835Z AUTO 00000KT 5SM BR OVC085 M01/M03 A3009 4230 88 3300 000/00 RMK AO2 T10111028 TSNO
94299KAAT AAT20161213104012112/13/16 10:40:31  5-MIN KAAT 131840Z AUTO 00000KT 5SM BR OVC085 M01/M03 A3009 4230 88 3300 000/00 RMK AO2 T10111028 TSNO
94299KAAT AAT20161213104511812/13/16 10:45:31  5-MIN KAAT 131845Z AUTO 00000KT 7SM OVC085 M01/M03 A3009 4230 88 3300 000/00 RMK AO2 T10111028 TSNO
94299KAAT AAT20161213105012512/13/16 10:50:31  5-MIN KAAT 131850Z AUTO 00000KT 8SM OVC080 M01/M03 A3009 4220 85 3400 000/00 RMK AO2 SLP213 T10061028 TSNO
94299KAAT AAT20161213105512512/13/16 10:55:31  5-MIN KAAT 131855Z AUTO 00000KT 8SM OVC080 M01/M03 A3009 4230 88 3300 000/00 RMK AO2 SLP213 T10111028 TSNO
94299KAAT AAT20161213110011812/13/16 11:00:31  5-MIN KAAT 131900Z AUTO 00000KT 8SM OVC080 M01/M03 A3009 4220 85 3400 000/00 RMK AO2 T10061028 TSNO
94299KAAT AAT20161213110511812/13/16 11:05:31  5-MIN KAAT 131905Z AUTO 00000KT 9SM OVC085 M01/M03 A3009 4220 85 3400 000/00 RMK AO2 T10061028 TSNO
94299KAAT AAT20161213111011812/13/16 11:10:31  5-MIN KAAT 131910Z AUTO 00000KT 9SM OVC085 M01/M02 A3009 4220 88 3400 000/00 RMK AO2 T10061022 TSNO
94299KAAT AAT20161213111511912/13/16 11:15:31  5-MIN KAAT 131915Z AUTO 26003KT 10SM OVC085 M01/M02 A3009 4230 88 3400 250/03 RMK AO2 T10061022 TSNO
94299KAAT AAT20161213112011912/13/16 11:20:31  5-MIN KAAT 131920Z AUTO 00000KT 10SM OVC085 M01/M02 A3009 4230 88 3400 000/00 RMK AO2 T10061022 TSNO
94299KAAT AAT20161213112511912/13/16 11:25:31  5-MIN KAAT 131925Z AUTO 00000KT 10SM OVC085 M01/M02 A3009 4230 88 3400 000/00 RMK AO2 T10061022 TSNO
94299KAAT AAT20161213113011812/13/16 11:30:31  5-MIN KAAT 131930Z AUTO 00000KT 10SM OVC090 00/M02 A3008 4230 85 3500 000/00 RMK AO2 T00001022 TSNO
94299KAAT AAT20161213113511812/13/16 11:35:31  5-MIN KAAT 131935Z AUTO 00000KT 10SM OVC090 00/M02 A3008 4230 85 3500 000/00 RMK AO2 T00001022 TSNO
94299KAAT AAT20161213114011812/13/16 11:40:31  5-MIN KAAT 131940Z AUTO 00000KT 10SM OVC090 00/M03 A3008 4230 81 3500 000/00 RMK AO2 T00001028 TSNO
94299KAAT AAT20161213114511812/13/16 11:45:31  5-MIN KAAT 131945Z AUTO 00000KT 10SM OVC090 01/M03 A3008 4230 78 3500 000/00 RMK AO2 T00061028 TSNO
94299KAAT AAT20161213115013212/13/16 11:50:31  5-MIN KAAT 131950Z AUTO 00000KT 10SM FEW075 OVC090 00/M03 A3008 4230 81 3500 000/00 RMK AO2 SLP208 T00001028 TSNO
94299KAAT AAT20161213115513212/13/16 11:55:31  5-MIN KAAT 131955Z AUTO 00000KT 10SM SCT075 OVC090 01/M02 A3008 4240 82 3500 000/00 RMK AO2 SLP205 T00061022 TSNO
94299KAAT AAT20161213120011812/13/16 12:00:31  5-MIN KAAT 132000Z AUTO 00000KT 10SM OVC085 01/M02 A3008 4240 82 3500 000/00 RMK AO2 T00061022 TSNO
94299KAAT AAT20161213120512512/13/16 12:05:31  5-MIN KAAT 132005Z AUTO 00000KT 10SM SCT075 OVC090 01/M03 A3008 4240 78 3500 000/00 RMK AO2 T00061028 TSNO
94299KAAT AAT20161213121012512/13/16 12:10:31  5-MIN KAAT 132010Z AUTO 00000KT 10SM BKN075 OVC090 01/M02 A3008 4240 82 3500 000/00 RMK AO2 T00061022 TSNO
94299KAAT AAT20161213121512512/13/16 12:15:31  5-MIN KAAT 132015Z AUTO 00000KT 10SM BKN075 OVC090 01/M02 A3008 4240 78 3600 000/00 RMK AO2 T00111022 TSNO
94299KAAT AAT20161213122012512/13/16 12:20:31  5-MIN KAAT 132020Z AUTO 00000KT 10SM BKN075 OVC090 01/M03 A3007 4240 75 3600 000/00 RMK AO2 T00111028 TSNO
94299KAAT AAT20161213122511812/13/16 12:25:31  5-MIN KAAT 132025Z AUTO 00000KT 10SM OVC075 01/M03 A3007 4240 75 3600 000/00 RMK AO2 T00111028 TSNO
94299KAAT AAT20161213123011812/13/16 12:30:31  5-MIN KAAT 132030Z AUTO 00000KT 10SM OVC075 02/M03 A3006 4250 72 3700 000/00 RMK AO2 T00171028 TSNO
94299KAAT AAT20161213123512512/13/16 12:35:31  5-MIN KAAT 132035Z AUTO 36003KT 10SM BKN075 OVC090 02/M03 A3006 4250 72 3700 350/03 RMK AO2 T00171028 TSNO
94299KAAT AAT20161213124011812/13/16 12:40:31  5-MIN KAAT 132040Z AUTO 00000KT 10SM OVC080 02/M03 A3006 4250 72 3700 000/00 RMK AO2 T00171028 TSNO
94299KAAT AAT20161213124511812/13/16 12:45:31  5-MIN KAAT 132045Z AUTO 00000KT 10SM OVC085 02/M03 A3005 4260 72 3700 000/00 RMK AO2 T00171028 TSNO
94299KAAT AAT20161213125013112/13/16 12:50:31  5-MIN KAAT 132050Z AUTO 00000KT 10SM BKN085 02/M03 A3005 4260 72 3700 000/00 RMK AO2 SLP194 T00171028 51012 TSNO
94299KAAT AAT20161213125513112/13/16 12:55:31  5-MIN KAAT 132055Z AUTO 00000KT 10SM BKN085 02/M03 A3005 4260 72 3700 000/00 RMK AO2 SLP195 T00171028 58013 TSNO
94299KAAT AAT20161213130011812/13/16 13:00:31  5-MIN KAAT 132100Z AUTO 00000KT 10SM SCT085 02/M03 A3005 4260 72 3700 000/00 RMK AO2 T00171028 TSNO
94299KAAT AAT20161213130511812/13/16 13:05:31  5-MIN KAAT 132105Z AUTO 00000KT 10SM FEW085 02/M03 A3004 4270 72 3700 000/00 RMK AO2 T00171028 TSNO
94299KAAT AAT20161213131011812/13/16 13:10:31  5-MIN KAAT 132110Z AUTO 00000KT 10SM FEW085 02/M02 A3004 4270 75 3700 000/00 RMK AO2 T00171022 TSNO
94299KAAT AAT20161213131511512/13/16 13:15:31  5-MIN KAAT 132115Z AUTO 00000KT 10SM CLR 02/M02 A3004 4270 75 3700 000/00 RMK AO2 T00171022 TSNO
94299KAAT AAT20161213132011512/13/16 13:20:31  5-MIN KAAT 132120Z AUTO 00000KT 10SM CLR 02/M02 A3004 4270 75 3700 000/00 RMK AO2 T00171022 TSNO
94299KAAT AAT20161213132511812/13/16 13:25:31  5-MIN KAAT 132125Z AUTO 00000KT 10SM FEW070 02/M02 A3004 4270 72 3800 000/00 RMK AO2 T00221022 TSNO
94299KAAT AAT20161213133011812/13/16 13:30:31  5-MIN KAAT 132130Z AUTO 00000KT 10SM FEW070 02/M02 A3004 4270 72 3800 000/00 RMK AO2 T00221022 TSNO
94299KAAT AAT20161213133511812/13/16 13:35:31  5-MIN KAAT 132135Z AUTO 00000KT 10SM FEW070 02/M02 A3004 4270 72 3800 000/00 RMK AO2 T00221022 TSNO
94299KAAT AAT20161213134011812/13/16 13:40:31  5-MIN KAAT 132140Z AUTO 00000KT 10SM SCT070 02/M02 A3005 4260 75 3700 000/00 RMK AO2 T00171022 TSNO
94299KAAT AAT20161213134511812/13/16 13:45:31  5-MIN KAAT 132145Z AUTO 00000KT 10SM BKN075 02/M02 A3005 4260 72 3800 000/00 RMK AO2 T00221022 TSNO
94299KAAT AAT20161213135012512/13/16 13:50:31  5-MIN KAAT 132150Z AUTO 00000KT 10SM BKN075 02/M02 A3005 4260 75 3800 000/00 RMK AO2 SLP195 T00221017 TSNO
94299KAAT AAT20161213135512512/13/16 13:55:31  5-MIN KAAT 132155Z AUTO 00000KT 10SM BKN075 02/M02 A3006 4260 72 3800 000/00 RMK AO2 SLP196 T00221022 TSNO
94299KAAT AAT20161213140011812/13/16 14:00:31  5-MIN KAAT 132200Z AUTO 00000KT 10SM BKN075 02/M02 A3006 4250 72 3800 000/00 RMK AO2 T00221022 TSNO
94299KAAT AAT20161213140511812/13/16 14:05:31  5-MIN KAAT 132205Z AUTO 00000KT 10SM OVC075 03/M02 A3006 4250 69 3800 000/00 RMK AO2 T00281022 TSNO
94299KAAT AAT20161213141011812/13/16 14:10:31  5-MIN KAAT 132210Z AUTO 00000KT 10SM OVC075 03/M02 A3006 4250 69 3800 000/00 RMK AO2 T00281022 TSNO
94299KAAT AAT20161213141511812/13/16 14:15:31  5-MIN KAAT 132215Z AUTO 00000KT 10SM OVC075 03/M02 A3006 4250 72 3800 000/00 RMK AO2 T00281017 TSNO
94299KAAT AAT20161213142011812/13/16 14:20:31  5-MIN KAAT 132220Z AUTO 00000KT 10SM OVC075 03/M02 A3006 4260 72 3800 000/00 RMK AO2 T00281017 TSNO
94299KAAT AAT20161213142512512/13/16 14:25:31  5-MIN KAAT 132225Z AUTO 00000KT 10SM BKN075 OVC110 03/M02 A3006 4260 69 3800 000/00 RMK AO2 T00281022 TSNO
94299KAAT AAT20161213143012512/13/16 14:30:31  5-MIN KAAT 132230Z AUTO 00000KT 10SM BKN080 BKN110 03/M02 A3005 4260 69 3800 000/00 RMK AO2 T00281022 TSNO
94299KAAT AAT20161213143512512/13/16 14:35:31  5-MIN KAAT 132235Z AUTO 24003KT 10SM BKN080 BKN110 03/M02 A3005 4260 69 3800 230/03 RMK AO2 T00281022 TSNO
94299KAAT AAT20161213144012512/13/16 14:40:31  5-MIN KAAT 132240Z AUTO 21003KT 10SM SCT080 BKN120 03/M02 A3005 4260 69 3800 190/03 RMK AO2 T00281022 TSNO
94299KAAT AAT20161213144512512/13/16 14:45:31  5-MIN KAAT 132245Z AUTO 14003KT 10SM SCT080 BKN120 03/M02 A3005 4260 72 3800 120/03 RMK AO2 T00281017 TSNO
94299KAAT AAT20161213145013212/13/16 14:50:31  5-MIN KAAT 132250Z AUTO 13004KT 10SM FEW080 BKN120 03/M02 A3005 4260 72 3900 110/04 RMK AO2 SLP191 T00281017 TSNO
94299KAAT AAT20161213145513212/13/16 14:55:31  5-MIN KAAT 132255Z AUTO 10003KT 10SM FEW080 SCT120 03/M02 A3004 4270 69 3900 080/03 RMK AO2 SLP190 T00281022 TSNO
94299KAAT AAT20161213150012512/13/16 15:00:31  5-MIN KAAT 132300Z AUTO 10003KT 10SM FEW080 SCT120 03/M02 A3004 4270 69 3900 080/03 RMK AO2 T00281022 TSNO
94299KAAT AAT20161213150511812/13/16 15:05:31  5-MIN KAAT 132305Z AUTO 00000KT 10SM SCT120 03/M02 A3004 4270 69 3900 000/00 RMK AO2 T00281022 TSNO
94299KAAT AAT20161213151011812/13/16 15:10:31  5-MIN KAAT 132310Z AUTO 09003KT 10SM BKN120 03/M02 A3004 4270 72 3900 070/03 RMK AO2 T00281017 TSNO
94299KAAT AAT20161213151511712/13/16 15:15:31  5-MIN KAAT 132315Z AUTO 06003KT 8SM BKN110 02/M02 A3004 4270 75 3800 050/03 RMK AO2 T00221017 TSNO
94299KAAT AAT20161213152012012/13/16 15:20:31  5-MIN KAAT 132320Z AUTO 08004KT 5SM HZ BKN110 02/M02 A3004 4270 72 3800 070/04 RMK AO2 T00221022 TSNO
94299KAAT AAT20161213152512012/13/16 15:25:31  5-MIN KAAT 132325Z AUTO 07004KT 4SM HZ OVC110 02/M02 A3004 4270 72 3800 050/04 RMK AO2 T00221022 TSNO
94299KAAT AAT20161213153012012/13/16 15:30:31  5-MIN KAAT 132330Z AUTO 07003KT 6SM HZ OVC110 02/M03 A3004 4270 69 3800 050/03 RMK AO2 T00221028 TSNO
94299KAAT AAT20161213153511712/13/16 15:35:31  5-MIN KAAT 132335Z AUTO 07003KT 9SM OVC110 02/M03 A3004 4270 69 3800 050/03 RMK AO2 T00221028 TSNO
94299KAAT AAT20161213154011812/13/16 15:40:31  5-MIN KAAT 132340Z AUTO 05003KT 10SM OVC110 02/M03 A3004 4270 67 3800 040/03 RMK AO2 T00221033 TSNO
94299KAAT AAT20161213154511812/13/16 15:45:31  5-MIN KAAT 132345Z AUTO 05003KT 10SM OVC100 02/M03 A3005 4260 67 3800 030/03 RMK AO2 T00221033 TSNO
94299KAAT AAT20161213155014312/13/16 15:50:31  5-MIN KAAT 132350Z AUTO 05003KT 10SM OVC100 02/M03 A3005 4260 67 3800 040/03 RMK AO2 SLP192 T00221033 10028 21022 58013 TSNO
94299KAAT AAT20161213155514312/13/16 15:55:31  5-MIN KAAT 132355Z AUTO 05003KT 10SM OVC100 02/M03 A3005 4260 67 3800 040/03 RMK AO2 SLP191 T00221033 10028 21022 50000 TSNO
94299KAAT AAT20161213160011812/13/16 16:00:31  5-MIN KAAT 140000Z AUTO 06003KT 10SM OVC095 02/M03 A3005 4260 69 3700 050/03 RMK AO2 T00171033 TSNO
94299KAAT AAT20161213160511812/13/16 16:05:31  5-MIN KAAT 140005Z AUTO 06003KT 10SM OVC095 02/M03 A3005 4260 69 3700 050/03 RMK AO2 T00171033 TSNO
94299KAAT AAT20161213161011812/13/16 16:10:31  5-MIN KAAT 140010Z AUTO 00000KT 10SM OVC090 02/M03 A3005 4260 69 3700 000/00 RMK AO2 T00171033 TSNO
94299KAAT AAT20161213161511812/13/16 16:15:31  5-MIN KAAT 140015Z AUTO 34003KT 10SM OVC090 02/M03 A3006 4250 69 3700 330/03 RMK AO2 T00171033 TSNO
94299KAAT AAT20161213162011812/13/16 16:20:31  5-MIN KAAT 140020Z AUTO 00000KT 10SM OVC090 02/M03 A3006 4250 69 3700 000/00 RMK AO2 T00171033 TSNO
94299KAAT AAT20161213162511812/13/16 16:25:31  5-MIN KAAT 140025Z AUTO 00000KT 10SM OVC085 02/M03 A3007 4250 69 3700 000/00 RMK AO2 T00171033 TSNO
94299KAAT AAT20161213163012512/13/16 16:30:31  5-MIN KAAT 140030Z AUTO 00000KT 10SM BKN075 OVC090 02/M03 A3006 4250 72 3700 000/00 RMK AO2 T00171028 TSNO
94299KAAT AAT20161213163513212/13/16 16:35:31  5-MIN KAAT 140035Z AUTO 06003KT 10SM BKN065 BKN080 OVC090 02/M03 A3006 4250 69 3700 050/03 RMK AO2 T00171033 TSNO
94299KAAT AAT20161213164013112/13/16 16:40:31  5-MIN KAAT 140040Z AUTO 00000KT 9SM BKN055 BKN075 OVC090 02/M03 A3006 4260 72 3700 000/00 RMK AO2 T00171028 TSNO
94299KAAT AAT20161213164512712/13/16 16:45:31  5-MIN KAAT 140045Z AUTO 00000KT 6SM HZ BKN050 OVC075 02/M03 A3006 4260 72 3700 000/00 RMK AO2 T00171028 TSNO
94299KAAT AAT20161213165013412/13/16 16:50:31  5-MIN KAAT 140050Z AUTO 00000KT 6SM HZ BKN050 OVC070 02/M03 A3006 4250 72 3700 000/00 RMK AO2 SLP196 T00171028 TSNO
94299KAAT AAT20161213165512412/13/16 16:55:31  5-MIN KAAT 140055Z AUTO 00000KT 7SM OVC050 02/M03 A3005 4260 69 3800 000/00 RMK AO2 SLP194 T00221028 TSNO
94299KAAT AAT20161213170011812/13/16 17:00:31  5-MIN KAAT 140100Z AUTO 00000KT 10SM OVC047 02/M03 A3006 4260 69 3800 000/00 RMK AO2 T00221028 TSNO
94299KAAT AAT20161213170511812/13/16 17:05:31  5-MIN KAAT 140105Z AUTO 15003KT 10SM OVC042 02/M03 A3005 4260 69 3800 130/03 RMK AO2 T00221028 TSNO
94299KAAT AAT20161213171011712/13/16 17:10:31  5-MIN KAAT 140110Z AUTO 14007KT 9SM OVC042 01/M03 A3005 4260 75 3600 120/07 RMK AO2 T00111028 TSNO
94299KAAT AAT20161213171513312/13/16 17:15:31  5-MIN KAAT 140115Z AUTO 14005KT 7SM -SN OVC040 01/M03 A3006 4260 72 3600 130/05 RMK AO2 SNB14 P0000 T00111033 TSNO
94299KAAT AAT20161213172013312/13/16 17:20:31  5-MIN KAAT 140120Z AUTO 12005KT 6SM -SN OVC033 01/M03 A3006 4260 75 3600 100/05 RMK AO2 SNB14 P0000 T00111028 TSNO
94299KAAT AAT20161213172513312/13/16 17:25:31  5-MIN KAAT 140125Z AUTO 12004KT 4SM -SN OVC029 01/M03 A3006 4250 75 3600 110/04 RMK AO2 SNB14 P0000 T00111028 TSNO
94299KAAT AAT20161213173013312/13/16 17:30:31  5-MIN KAAT 140130Z AUTO 12004KT 3SM -SN OVC025 01/M03 A3006 4250 75 3600 110/04 RMK AO2 SNB14 P0000 T00111028 TSNO
94299KAAT AAT20161213173513712/13/16 17:35:31  5-MIN KAAT 140135Z AUTO 12003KT 2 1/2SM -SN OVC023 01/M03 A3007 4250 75 3600 100/03 RMK AO2 SNB14 P0000 T00111028 TSNO
94299KAAT AAT20161213174013712/13/16 17:40:31  5-MIN KAAT 140140Z AUTO 09004KT 2 1/2SM -SN OVC021 01/M02 A3007 4250 82 3600 070/04 RMK AO2 SNB14 P0000 T00061022 TSNO
94299KAAT AAT20161213174513712/13/16 17:45:31  5-MIN KAAT 140145Z AUTO 09003KT 2 1/2SM -SN OVC021 01/M02 A3007 4250 82 3600 080/03 RMK AO2 SNB14 P0000 T00061022 TSNO
94299KAAT AAT20161213175014712/13/16 17:50:31  5-MIN KAAT 140150Z AUTO 08003KT 2 1/2SM -SN BR OVC019 01/M02 A3007 4250 85 3600 070/03 RMK AO2 SNB14 SLP202 P0000 T00061017 TSNO
94299KAAT AAT20161213175514312/13/16 17:55:31  5-MIN KAAT 140155Z AUTO 07003KT 2SM -SN BR OVC019 01/M02 A3007 4250 85 3600 060/03 RMK AO2 SNB14 SLP203 P0000 T00061017 TSNO
94299KAAT AAT20161213180013412/13/16 18:00:31  5-MIN KAAT 140200Z AUTO 08003KT 1 3/4SM -SN BR OVC019 01/M02 A3007 4250 85 3600 070/03 RMK AO2 P0001 T00061017 TSNO
94299KAAT AAT20161213180513412/13/16 18:05:31  5-MIN KAAT 140205Z AUTO VRB03KT 1 1/2SM -SN BR OVC017 00/M01 A3007 4240 92 3500 VRB/03 RMK AO2 P0001 T00001011 TSNO
94299KAAT AAT20161213181012912/13/16 18:10:31  5-MIN KAAT 140210Z AUTO 16003KT 1SM -SN BR VV014 00/M01 A3008 4240 96 3500 150/03 RMK AO2 P0001 T00001006 TSNO
94299KAAT AAT20161213181512912/13/16 18:15:31  5-MIN KAAT 140215Z AUTO 13003KT 1SM -SN BR VV013 00/M01 A3007 4240 96 3500 120/03 RMK AO2 P0001 T00001006 TSNO
94299KAAT AAT20161213182012912/13/16 18:20:31  5-MIN KAAT 140220Z AUTO 00000KT 1SM -SN BR VV012 00/M01 A3008 4240 96 3500 000/00 RMK AO2 P0002 T00001006 TSNO
94299KAAT AAT20161213182512912/13/16 18:25:31  5-MIN KAAT 140225Z AUTO 00000KT 1SM -SN BR VV013 00/M01 A3007 4240 96 3500 000/00 RMK AO2 P0002 T00001006 TSNO
94299KAAT AAT20161213183013412/13/16 18:30:31  5-MIN KAAT 140230Z AUTO 00000KT 1 1/4SM -SN BR OVC014 00/M01 A3008 4240 96 3500 000/00 RMK AO2 P0003 T00001006 TSNO
94299KAAT AAT20161213183513412/13/16 18:35:31  5-MIN KAAT 140235Z AUTO 00000KT 1 1/2SM -SN BR OVC014 00/M01 A3007 4240 96 3500 000/00 RMK AO2 P0003 T00001006 TSNO
94299KAAT AAT20161213184013412/13/16 18:40:31  5-MIN KAAT 140240Z AUTO 00000KT 1 1/4SM -SN BR OVC015 00/M01 A3007 4240 96 3500 000/00 RMK AO2 P0003 T00001006 TSNO
94299KAAT AAT20161213184512912/13/16 18:45:31  5-MIN KAAT 140245Z AUTO 00000KT 1SM -SN BR VV015 00/M01 A3006 4250 96 3500 000/00 RMK AO2 P0004 T00001006 TSNO
94299KAAT AAT20161213185011912/13/16 18:50:31  5-MIN KAAT 140250Z AUTO 00000KT 1SM -SN BR VV014 00/M01 A3006 4250 96 3500 000/00 RMK AO2 P0004 TSNO
94299KAAT AAT20161213185514812/13/16 18:55:31  5-MIN KAAT 140255Z AUTO 00000KT 1SM -SN BR VV013 00/00 A3006 4250 100 3500 000/00 RMK AO2 SLP206 P0005 60005 T00000000 51003 TSNO
94299KAAT AAT20161213190012912/13/16 19:00:31  5-MIN KAAT 140300Z AUTO 00000KT 1SM -SN BR VV012 00/00 A3006 4250 100 3500 000/00 RMK AO2 P0000 T00000000 TSNO
94299KAAT AAT20161213190513712/13/16 19:05:31  5-MIN KAAT 140305Z AUTO 00000KT 1SM -SN BR FEW007 OVC012 00/00 A3006 4250 100 3500 000/00 RMK AO2 P0001 T00000000 TSNO
94299KAAT AAT20161213191013712/13/16 19:10:31  5-MIN KAAT 140310Z AUTO 00000KT 1SM -SN BR SCT005 OVC010 00/00 A3006 4250 100 3500 000/00 RMK AO2 P0001 T00000000 TSNO
94299KAAT AAT20161213191513912/13/16 19:15:31  5-MIN KAAT 140315Z AUTO 00000KT 3/4SM -SN BR SCT005 OVC010 00/00 A3006 4250 100 3500 000/00 RMK AO2 P0001 T00000000 TSNO
94299KAAT AAT20161213192013112/13/16 19:20:31  5-MIN KAAT 140320Z AUTO 00000KT 3/4SM -SN BR VV007 00/00 A3006 4250 100 3500 000/00 RMK AO2 P0002 T00000000 TSNO
94299KAAT AAT20161213192513212/13/16 19:25:31  5-MIN KAAT 140325Z AUTO 00000KT 3/4SM -SN BR OVC006 00/00 A3006 4250 100 3500 000/00 RMK AO2 P0003 T00000000 TSNO
94299KAAT AAT20161213193013912/13/16 19:30:31  5-MIN KAAT 140330Z AUTO 00000KT 3/4SM -SN BR BKN004 OVC008 00/00 A3006 4250 100 3500 000/00 RMK AO2 P0003 T00000000 TSNO
94299KAAT AAT20161213193513912/13/16 19:35:31  5-MIN KAAT 140335Z AUTO 00000KT 3/4SM -SN BR SCT004 OVC008 00/00 A3006 4250 100 3500 000/00 RMK AO2 P0003 T00000000 TSNO
94299KAAT AAT20161213194014412/13/16 19:40:31  5-MIN KAAT 140340Z AUTO 00000KT 1SM -SN BR SCT004 BKN010 OVC013 00/M01 A3005 4260 96 3500 000/00 RMK AO2 P0004 T00001006 TSNO
94299KAAT AAT20161213194513712/13/16 19:45:31  5-MIN KAAT 140345Z AUTO 00000KT 1SM -SN BR BKN004 OVC012 00/M01 A3006 4260 96 3500 000/00 RMK AO2 P0004 T00001006 TSNO
94299KAAT AAT20161213195013112/13/16 19:50:31  5-MIN KAAT 140350Z AUTO 00000KT 1 1/4SM -SN BR SCT004 OVC014 00/M01 A3006 4250 96 3500 000/00 RMK AO2 P0005 TSNO
94299KAAT AAT20161213195514812/13/16 19:55:31  5-MIN KAAT 140355Z AUTO 00000KT 1 1/4SM -SN BR FEW004 OVC014 00/M01 A3006 4250 96 3500 000/00 RMK AO2 SLP205 P0005 T00001006 TSNO
94299KAAT AAT20161213200013712/13/16 20:00:31  5-MIN KAAT 140400Z AUTO 27003KT 1SM -SN BR FEW004 OVC014 00/M01 A3007 4250 96 3500 250/03 RMK AO2 P0000 T00001006 TSNO
94299KAAT AAT20161213200514412/13/16 20:05:31  5-MIN KAAT 140405Z AUTO 27003KT 1SM -SN BR FEW004 BKN010 OVC014 00/M01 A3007 4240 96 3500 260/03 RMK AO2 P0001 T00001006 TSNO
94299KAAT AAT20161213201013912/13/16 20:10:31  5-MIN KAAT 140410Z AUTO 00000KT 3/4SM -SN BR FEW004 OVC012 00/M01 A3007 4250 96 3500 000/00 RMK AO2 P0001 T00001006 TSNO
94299KAAT AAT20161213201513112/13/16 20:15:31  5-MIN KAAT 140415Z AUTO 00000KT 3/4SM -SN BR VV011 00/M01 A3006 4250 96 3500 000/00 RMK AO2 P0002 T00001006 TSNO
94299KAAT AAT20161213202013112/13/16 20:20:31  5-MIN KAAT 140420Z AUTO 00000KT 3/4SM -SN BR VV010 00/M01 A3006 4250 96 3500 000/00 RMK AO2 P0002 T00001006 TSNO
94299KAAT AAT20161213202513112/13/16 20:25:31  5-MIN KAAT 140425Z AUTO 00000KT 3/4SM -SN BR VV010 00/M01 A3006 4250 96 3500 000/00 RMK AO2 P0003 T00001006 TSNO
94299KAAT AAT20161213203013112/13/16 20:30:31  5-MIN KAAT 140430Z AUTO 00000KT 3/4SM -SN BR VV011 00/M01 A3006 4250 96 3500 000/00 RMK AO2 P0003 T00001006 TSNO
94299KAAT AAT20161213203513112/13/16 20:35:31  5-MIN KAAT 140435Z AUTO 00000KT 3/4SM -SN BR VV011 00/M01 A3005 4260 96 3500 000/00 RMK AO2 P0004 T00001006 TSNO
94299KAAT AAT20161213204012912/13/16 20:40:31  5-MIN KAAT 140440Z AUTO 00000KT 1SM -SN BR VV012 00/M01 A3006 4250 96 3500 000/00 RMK AO2 P0004 T00001006 TSNO
94299KAAT AAT20161213204512912/13/16 20:45:31  5-MIN KAAT 140445Z AUTO 00000KT 1SM -SN BR VV012 00/M01 A3006 4260 96 3500 000/00 RMK AO2 P0005 T00001006 TSNO
94299KAAT AAT20161213205013612/13/16 20:50:31  5-MIN KAAT 140450Z AUTO 00000KT 1SM -SN BR VV012 00/00 A3005 4260 100 3500 000/00 RMK AO2 SLP199 P0005 T00000000 TSNO
94299KAAT AAT20161213205513612/13/16 20:55:31  5-MIN KAAT 140455Z AUTO 00000KT 1SM -SN BR VV011 00/00 A3005 4260 100 3500 000/00 RMK AO2 SLP198 P0005 T00000000 TSNO
94299KAAT AAT20161213210012912/13/16 21:00:31  5-MIN KAAT 140500Z AUTO 00000KT 1SM -SN BR VV012 00/00 A3005 4260 100 3500 000/00 RMK AO2 P0000 T00000000 TSNO
94299KAAT AAT20161213210513712/13/16 21:05:31  5-MIN KAAT 140505Z AUTO 00000KT 1SM -SN BR FEW007 OVC012 00/M01 A3006 4260 96 3500 000/00 RMK AO2 P0001 T00001006 TSNO
94299KAAT AAT20161213211014812/13/16 21:10:31  5-MIN KAAT 140510Z AUTO 00000KT 1 1/4SM -SN BR SCT007 BKN012 OVC022 00/M01 A3006 4260 96 3500 000/00 RMK AO2 P0001 T00001006 TSNO
94299KAAT AAT20161213211514812/13/16 21:15:31  5-MIN KAAT 140515Z AUTO 00000KT 1 1/4SM -SN BR SCT007 BKN012 OVC022 00/M01 A3005 4260 96 3500 000/00 RMK AO2 P0001 T00001006 TSNO
94299KAAT AAT20161213212014112/13/16 21:20:31  5-MIN KAAT 140520Z AUTO 00000KT 1 1/4SM -SN BR BKN007 OVC012 00/M01 A3005 4260 96 3500 000/00 RMK AO2 P0001 T00001006 TSNO
94299KAAT AAT20161213212514112/13/16 21:25:31  5-MIN KAAT 140525Z AUTO 00000KT 1 1/2SM -SN BR BKN007 OVC012 00/M01 A3005 4260 96 3500 000/00 RMK AO2 P0001 T00001006 TSNO
94299KAAT AAT20161213213014112/13/16 21:30:31  5-MIN KAAT 140530Z AUTO 00000KT 1 1/4SM -SN BR BKN007 OVC022 00/00 A3005 4260 100 3500 000/00 RMK AO2 P0001 T00000000 TSNO
94299KAAT AAT20161213213513412/13/16 21:35:31  5-MIN KAAT 140535Z AUTO 24003KT 1 1/4SM -SN BR OVC006 00/M01 A3005 4260 96 3500 220/03 RMK AO2 P0002 T00001006 TSNO
94299KAAT AAT20161213214013412/13/16 21:40:31  5-MIN KAAT 140540Z AUTO 23003KT 1 1/4SM -SN BR OVC006 00/M01 A3005 4260 96 3500 220/03 RMK AO2 P0002 T00001006 TSNO
94299KAAT AAT20161213214514112/13/16 21:45:31  5-MIN KAAT 140545Z AUTO 23003KT 1 1/2SM -SN BR BKN006 OVC010 00/M01 A3005 4260 96 3500 210/03 RMK AO2 P0002 T00001006 TSNO
94299KAAT AAT20161213215016512/13/16 21:50:31  5-MIN KAAT 140550Z AUTO 00000KT 1 1/2SM -SN BR OVC006 00/M01 A3005 4260 96 3500 000/00 RMK AO2 SLP193 P0002 60017 T00001006 10022 20000 51003 TSNO
94299KAAT AAT20161213215517212/13/16 21:55:31  5-MIN KAAT 140555Z AUTO 00000KT 1 1/4SM -SN BR SCT006 OVC010 00/M01 A3005 4260 96 3500 000/00 RMK AO2 SLP195 P0002 60017 T00001006 10022 20000 58004 TSNO
94299KAAT AAT20161213220014112/13/16 22:00:31  5-MIN KAAT 140600Z AUTO 00000KT 1 1/4SM -SN BR SCT006 OVC010 00/M01 A3005 4260 96 3500 000/00 RMK AO2 P0000 T00001006 TSNO
94299KAAT AAT20161213220514112/13/16 22:05:31  5-MIN KAAT 140605Z AUTO 00000KT 1 1/4SM -SN BR SCT006 OVC010 00/M01 A3005 4260 96 3500 000/00 RMK AO2 P0001 T00001006 TSNO
94299KAAT AAT20161213221014112/13/16 22:10:31  5-MIN KAAT 140610Z AUTO 00000KT 1 1/2SM -SN BR FEW006 OVC012 00/M01 A3005 4260 96 3500 000/00 RMK AO2 P0001 T00001006 TSNO
94299KAAT AAT20161213221514112/13/16 22:15:31  5-MIN KAAT 140615Z AUTO 00000KT 1 1/2SM -SN BR FEW008 OVC012 00/M01 A3005 4260 96 3500 000/00 RMK AO2 P0001 T00001006 TSNO
94299KAAT AAT20161213222014312/13/16 22:20:31  5-MIN KAAT 140620Z AUTO 00000KT 1 3/4SM -SN BR FEW008 OVC016 M01/M01 A3005 4260 100 3400 000/00 RMK AO2 P0001 T10061006 TSNO
94299KAAT AAT20161213222513712/13/16 22:25:31  5-MIN KAAT 140625Z AUTO 00000KT 2SM -SN BR SCT007 OVC020 00/M01 A3005 4270 96 3500 000/00 RMK AO2 P0001 T00001006 TSNO
94299KAAT AAT20161213223013712/13/16 22:30:31  5-MIN KAAT 140630Z AUTO 00000KT 2SM -SN BR SCT007 OVC022 00/M01 A3005 4270 96 3500 000/00 RMK AO2 P0002 T00001006 TSNO
94299KAAT AAT20161213223513712/13/16 22:35:31  5-MIN KAAT 140635Z AUTO 00000KT 2SM -SN BR SCT007 OVC024 00/M01 A3005 4260 96 3500 000/00 RMK AO2 P0002 T00001006 TSNO
94299KAAT AAT20161213224014112/13/16 22:40:31  5-MIN KAAT 140640Z AUTO 16003KT 1 3/4SM -SN BR BKN007 OVC024 00/M01 A3005 4260 96 3500 140/03 RMK AO2 P0002 T00001006 TSNO
94299KAAT AAT20161213224514112/13/16 22:45:31  5-MIN KAAT 140645Z AUTO 00000KT 1 3/4SM -SN BR BKN007 OVC024 00/M01 A3004 4270 96 3500 000/00 RMK AO2 P0002 T00001006 TSNO
94299KAAT AAT20161213225012712/13/16 22:50:31  5-MIN KAAT 140650Z AUTO 00000KT 2SM -SN BR BKN007 OVC025 00/M01 A3004 4270 96 3500 000/00 RMK AO2 P0002 TSNO
94299KAAT AAT20161213225514412/13/16 22:55:31  5-MIN KAAT 140655Z AUTO 00000KT 2SM -SN BR BKN007 OVC023 00/M01 A3004 4270 96 3500 000/00 RMK AO2 SLP190 P0003 T00001006 TSNO
94299KAAT AAT20161213230013012/13/16 23:00:31  5-MIN KAAT 140700Z AUTO 00000KT 2SM -SN BR OVC007 00/M01 A3004 4270 96 3500 000/00 RMK AO2 P0000 T00001006 TSNO
94299KAAT AAT20161213230513012/13/16 23:05:31  5-MIN KAAT 140705Z AUTO 00000KT 2SM -SN BR OVC007 00/M01 A3004 4270 96 3500 000/00 RMK AO2 P0000 T00001006 TSNO
94299KAAT AAT20161213231014112/13/16 23:10:31  5-MIN KAAT 140710Z AUTO 00000KT 2 1/2SM -SN BR BKN007 OVC018 00/M01 A3004 4270 96 3500 000/00 RMK AO2 P0000 T00001006 TSNO
94299KAAT AAT20161213231514112/13/16 23:15:31  5-MIN KAAT 140715Z AUTO 00000KT 2 1/2SM -SN BR BKN007 OVC018 00/M01 A3004 4270 96 3500 000/00 RMK AO2 P0000 T00001006 TSNO
94299KAAT AAT20161213232014112/13/16 23:20:31  5-MIN KAAT 140720Z AUTO 00000KT 2 1/2SM -SN BR BKN007 OVC017 00/M01 A3004 4270 96 3500 000/00 RMK AO2 P0000 T00001006 TSNO
94299KAAT AAT20161213232514112/13/16 23:25:31  5-MIN KAAT 140725Z AUTO 00000KT 2 1/2SM -SN BR BKN009 OVC017 00/M01 A3004 4270 96 3500 000/00 RMK AO2 P0000 T00001006 TSNO
94299KAAT AAT20161213233014112/13/16 23:30:31  5-MIN KAAT 140730Z AUTO 00000KT 2 1/2SM -SN BR BKN009 OVC017 00/M01 A3004 4270 96 3500 000/00 RMK AO2 P0000 T00001006 TSNO
94299KAAT AAT20161213233514112/13/16 23:35:31  5-MIN KAAT 140735Z AUTO 00000KT 2 1/2SM -SN BR SCT009 OVC016 00/M01 A3004 4270 96 3500 000/00 RMK AO2 P0001 T00001006 TSNO
94299KAAT AAT20161213234013712/13/16 23:40:31  5-MIN KAAT 140740Z AUTO 00000KT 3SM -SN BR SCT009 OVC016 00/M01 A3003 4280 96 3500 000/00 RMK AO2 P0001 T00001006 TSNO
94299KAAT AAT20161213234513412/13/16 23:45:31  5-MIN KAAT 140745Z AUTO 00000KT 2 1/2SM -SN BR OVC012 00/M01 A3003 4280 96 3500 000/00 RMK AO2 P0001 T00001006 TSNO
94299KAAT AAT20161213235014712/13/16 23:50:31  5-MIN KAAT 140750Z AUTO 00000KT 2SM -SN BR OVC014 00/M01 A3003 4280 96 3500 000/00 RMK AO2 SLP185 P0001 T00001006 400281067 TSNO
94299KAAT AAT20161213235515812/13/16 23:55:31  5-MIN KAAT 140755Z AUTO 00000KT 1 3/4SM -SN BR FEW009 OVC014 00/M01 A3003 4280 96 3500 000/00 RMK AO2 SLP183 P0001 T00001006 400281067 TSNO
94299KAAT AAT20161214000014112/14/16 00:00:31  5-MIN KAAT 140800Z AUTO 02003KT 1 3/4SM -SN BR BKN014 OVC021 00/M01 A3003 4280 96 3500 010/03 RMK AO2 P0000 T00001006 TSNO
94299KAAT AAT20161214000513712/14/16 00:05:31  5-MIN KAAT 140805Z AUTO 02004KT 2SM -SN BR BKN014 OVC021 00/M01 A3002 4290 96 3500 010/04 RMK AO2 P0001 T00001006 TSNO
94299KAAT AAT20161214001014812/14/16 00:10:31  5-MIN KAAT 140810Z AUTO 01003KT 2 1/2SM -SN BR BKN014 BKN019 OVC026 00/M01 A3003 4280 96 3500 350/03 RMK AO2 P0001 T00001006 TSNO
94299KAAT AAT20161214001514812/14/16 00:15:31  5-MIN KAAT 140815Z AUTO 36003KT 2 1/2SM -SN BR BKN013 BKN019 OVC026 00/M01 A3003 4280 96 3500 350/03 RMK AO2 P0001 T00001006 TSNO
94299KAAT AAT20161214002014412/14/16 00:20:31  5-MIN KAAT 140820Z AUTO 00000KT 3SM -SN BR SCT013 BKN019 OVC024 00/M01 A3003 4280 96 3500 000/00 RMK AO2 P0001 T00001006 TSNO
94299KAAT AAT20161214002514412/14/16 00:25:31  5-MIN KAAT 140825Z AUTO 00000KT 3SM -SN BR SCT013 BKN019 OVC026 00/M01 A3003 4280 96 3500 000/00 RMK AO2 P0001 T00001006 TSNO
94299KAAT AAT20161214003016112/14/16 00:30:31  5-MIN KAAT 140830Z AUTO 36003KT 4SM -SN BR FEW013 BKN019 OVC028 00/M01 A3002 4290 96 3500 350/03 RMK AO2 UPB28E29SNE28B29 P0001 T00001006 TSNO
94299KAAT AAT20161214003516012/14/16 00:35:31  5-MIN KAAT 140835Z AUTO 02004KT 5SM BR FEW012 BKN019 OVC028 00/M01 A3002 4290 96 3500 010/04 RMK AO2 UPB28E33SNE28B29E32 P0001 T00001006 TSNO
94299KAAT AAT20161214004016612/14/16 00:40:31  5-MIN KAAT 140840Z AUTO 01003KT 5SM UP BR FEW012 SCT019 OVC026 00/M01 A3002 4290 96 3500 360/03 RMK AO2 UPB28SNE28B29E32B37E38 P0001 T00001006 TSNO
94299KAAT AAT20161214004515912/14/16 00:45:31  5-MIN KAAT 140845Z AUTO 02003KT 5SM UP BR SCT019 OVC026 00/M01 A3002 4290 96 3500 360/03 RMK AO2 UPB28SNE28B29E32B37E38 P0001 T00001006 TSNO
94299KAAT AAT20161214005017812/14/16 00:50:31  5-MIN KAAT 140850Z AUTO 00000KT 6SM UP BR FEW019 OVC026 00/M01 A3001 4290 96 3500 000/00 RMK AO2 UPB28SNE28B29E32B37E38 SLP175 P0001 60005 T00001006 58004 TSNO
94299KAAT AAT20161214005517812/14/16 00:55:31  5-MIN KAAT 140855Z AUTO 00000KT 6SM UP BR FEW019 OVC026 00/00 A3001 4290 100 3600 000/00 RMK AO2 UPB28SNE28B29E32B37E38 SLP175 P0001 60005 T00000000 58008 TSNO
94299KAAT AAT20161214010012812/14/16 01:00:31  5-MIN KAAT 140900Z AUTO 00000KT 5SM UP BR OVC026 01/00 A3001 4300 96 3600 000/00 RMK AO2 P0001 T00060000 TSNO
94299KAAT AAT20161214010513612/14/16 01:05:31  5-MIN KAAT 140905Z AUTO 00000KT 5SM UP BR FEW021 OVC026 00/00 A3001 4290 100 3600 000/00 RMK AO2 P0001 T00000000 TSNO
94299KAAT AAT20161214011012912/14/16 01:10:31  5-MIN KAAT 140910Z AUTO 00000KT 5SM UP BR OVC026 00/00 A3002 4290 100 3500 000/00 RMK AO2 P0001 T00000000 TSNO
94299KAAT AAT20161214011512912/14/16 01:15:31  5-MIN KAAT 140915Z AUTO 16003KT 4SM UP BR OVC026 00/00 A3001 4290 100 3600 150/03 RMK AO2 P0002 T00000000 TSNO
94299KAAT AAT20161214012012912/14/16 01:20:31  5-MIN KAAT 140920Z AUTO 15003KT 4SM UP BR OVC026 00/00 A3001 4300 100 3600 140/03 RMK AO2 P0002 T00000000 TSNO
94299KAAT AAT20161214012513612/14/16 01:25:31  5-MIN KAAT 140925Z AUTO 15003KT 4SM UP BR BKN026 OVC033 00/00 A3001 4300 100 3600 130/03 RMK AO2 P0002 T00000000 TSNO
94299KAAT AAT20161214013013612/14/16 01:30:31  5-MIN KAAT 140930Z AUTO 14003KT 4SM UP BR BKN026 OVC033 00/00 A3001 4300 100 3600 130/03 RMK AO2 P0002 T00000000 TSNO
94299KAAT AAT20161214013513612/14/16 01:35:31  5-MIN KAAT 140935Z AUTO 00000KT 4SM UP BR BKN027 OVC036 00/00 A3001 4300 100 3600 000/00 RMK AO2 P0003 T00000000 TSNO
94299KAAT AAT20161214014012912/14/16 01:40:31  5-MIN KAAT 140940Z AUTO 00000KT 5SM UP BR OVC027 00/00 A3001 4300 100 3600 000/00 RMK AO2 P0003 T00000000 TSNO
94299KAAT AAT20161214014512912/14/16 01:45:31  5-MIN KAAT 140945Z AUTO 00000KT 6SM UP BR OVC027 00/00 A3001 4300 100 3600 000/00 RMK AO2 P0003 T00000000 TSNO
94299KAAT AAT20161214015013512/14/16 01:50:31  5-MIN KAAT 140950Z AUTO 00000KT 6SM UP BR OVC028 01/00 A3001 4300 96 3600 000/00 RMK AO2 SLP171 P0004 T00060000 TSNO
94299KAAT AAT20161214015514712/14/16 01:55:31  5-MIN KAAT 140955Z AUTO 00000KT 6SM -RA BR OVC028 01/00 A3001 4300 96 3600 000/00 RMK AO2 UPE55RAB55 SLP171 P0004 T00060000 TSNO
94299KAAT AAT20161214020012912/14/16 02:00:31  5-MIN KAAT 141000Z AUTO 00000KT 5SM -RA BR OVC028 01/00 A3000 4300 96 3600 000/00 RMK AO2 P0000 T00060000 TSNO
94299KAAT AAT20161214020512912/14/16 02:05:31  5-MIN KAAT 141005Z AUTO 02004KT 5SM -RA BR OVC028 01/00 A3000 4310 96 3600 010/04 RMK AO2 P0000 T00060000 TSNO
94299KAAT AAT20161214021012912/14/16 02:10:31  5-MIN KAAT 141010Z AUTO 02003KT 5SM -RA BR OVC028 01/00 A3000 4310 96 3600 010/03 RMK AO2 P0000 T00060000 TSNO
94299KAAT AAT20161214021512912/14/16 02:15:31  5-MIN KAAT 141015Z AUTO 00000KT 6SM -RA BR OVC028 01/00 A2999 4310 96 3600 000/00 RMK AO2 P0000 T00060000 TSNO
94299KAAT AAT20161214022012912/14/16 02:20:31  5-MIN KAAT 141020Z AUTO 00000KT 5SM -RA BR OVC028 01/00 A2999 4320 96 3600 000/00 RMK AO2 P0001 T00060000 TSNO
94299KAAT AAT20161214022513612/14/16 02:25:31  5-MIN KAAT 141025Z AUTO 00000KT 5SM -RA BR FEW023 OVC028 01/00 A2999 4320 96 3600 000/00 RMK AO2 P0001 T00060000 TSNO
94299KAAT AAT20161214023012912/14/16 02:30:31  5-MIN KAAT 141030Z AUTO 00000KT 5SM -RA BR OVC028 01/00 A2999 4320 96 3700 000/00 RMK AO2 P0001 T00060000 TSNO
94299KAAT AAT20161214023512912/14/16 02:35:31  5-MIN KAAT 141035Z AUTO 00000KT 6SM -RA BR OVC027 01/00 A2999 4320 96 3600 000/00 RMK AO2 P0001 T00060000 TSNO
94299KAAT AAT20161214024013612/14/16 02:40:31  5-MIN KAAT 141040Z AUTO 00000KT 7SM UP OVC027 01/00 A2998 4320 96 3700 000/00 RMK AO2 RAE39UPB39 P0001 T00060000 TSNO
94299KAAT AAT20161214024514612/14/16 02:45:31  5-MIN KAAT 141045Z AUTO 00000KT 6SM UP BR BKN025 OVC032 01/00 A2998 4320 96 3700 000/00 RMK AO2 RAE39UPB39 P0001 T00060000 TSNO
94299KAAT AAT20161214025015312/14/16 02:50:31  5-MIN KAAT 141050Z AUTO 14003KT 5SM UP BR SCT022 OVC029 01/00 A2998 4330 96 3700 130/03 RMK AO2 RAE39UPB39 SLP161 P0001 T00060000 TSNO
94299KAAT AAT20161214025515312/14/16 02:55:31  5-MIN KAAT 141055Z AUTO 16004KT 5SM UP BR SCT022 OVC029 01/00 A2998 4330 96 3700 150/04 RMK AO2 RAE39UPB39 SLP161 P0001 T00060000 TSNO
94299KAAT AAT20161214030012812/14/16 03:00:31  5-MIN KAAT 141100Z AUTO 00000KT 6SM UP BR OVC027 01/00 A2998 4330 96 3700 000/00 RMK AO2 P0000 T00060000 TSNO
94299KAAT AAT20161214030513512/14/16 03:05:31  5-MIN KAAT 141105Z AUTO 00000KT 6SM UP BR FEW022 OVC027 01/00 A2998 4330 96 3700 000/00 RMK AO2 P0000 T00060000 TSNO
94299KAAT AAT20161214031013812/14/16 03:10:31  5-MIN KAAT 141110Z AUTO 00000KT 6SM BR FEW022 OVC027 01/00 A2998 4330 96 3700 000/00 RMK AO2 UPE09 P0000 T00060000 TSNO
94299KAAT AAT20161214031513712/14/16 03:15:31  5-MIN KAAT 141115Z AUTO 00000KT 6SM UP BR OVC027 01/00 A2997 4330 96 3700 000/00 RMK AO2 RAB14E15 P0000 T00060000 TSNO
94299KAAT AAT20161214032014012/14/16 03:20:31  5-MIN KAAT 141120Z AUTO 00000KT 6SM -RA BR OVC027 01/00 A2997 4340 96 3700 000/00 RMK AO2 UPE20RAB14 P0000 T00060000 TSNO
94299KAAT AAT20161214032513712/14/16 03:25:31  5-MIN KAAT 141125Z AUTO 00000KT 7SM -RA OVC027 01/00 A2997 4340 96 3700 000/00 RMK AO2 UPE20RAB14 P0001 T00060000 TSNO
94299KAAT AAT20161214033013712/14/16 03:30:31  5-MIN KAAT 141130Z AUTO 00000KT 7SM -RA OVC027 01/00 A2996 4340 96 3700 000/00 RMK AO2 UPE20RAB14 P0001 T00060000 TSNO
94299KAAT AAT20161214033514012/14/16 03:35:31  5-MIN KAAT 141135Z AUTO 00000KT 6SM -RA BR OVC027 01/00 A2996 4340 96 3700 000/00 RMK AO2 UPE20RAB14 P0001 T00060000 TSNO
94299KAAT AAT20161214034014012/14/16 03:40:31  5-MIN KAAT 141140Z AUTO 00000KT 6SM -RA BR OVC027 01/00 A2996 4340 96 3700 000/00 RMK AO2 UPE20RAB14 P0001 T00060000 TSNO
94299KAAT AAT20161214034514012/14/16 03:45:31  5-MIN KAAT 141145Z AUTO 00000KT 6SM -RA BR OVC029 01/00 A2996 4350 96 3700 000/00 RMK AO2 UPE20RAB14 P0001 T00060000 TSNO
94299KAAT AAT20161214035013412/14/16 03:50:31  5-MIN KAAT 141150Z AUTO 10003KT 7SM -RA FEW026 OVC031 01/00 A2995 4350 96 3700 080/03 RMK AO2 UPE20RAB14 P0002 TSNO
94299KAAT AAT20161214035518112/14/16 03:55:31  5-MIN KAAT 141155Z AUTO 12003KT 8SM -RA FEW026 OVC031 01/00 A2995 4350 96 3700 100/03 RMK AO2 UPE20RAB14 SLP152 P0002 60012 70029 T00060000 10006 21006 56016 TSNO
94299KAAT AAT20161214040012612/14/16 04:00:31  5-MIN KAAT 141200Z AUTO 00000KT 9SM -RA OVC033 01/00 A2995 4350 96 3700 000/00 RMK AO2 P0000 T00060000 TSNO
94299KAAT AAT20161214040512712/14/16 04:05:31  5-MIN KAAT 141205Z AUTO 12003KT 10SM -RA OVC035 01/00 A2995 4360 96 3700 110/03 RMK AO2 P0000 T00060000 TSNO
94299KAAT AAT20161214041012712/14/16 04:10:31  5-MIN KAAT 141210Z AUTO 11004KT 10SM -RA OVC037 01/00 A2994 4360 96 3700 100/04 RMK AO2 P0001 T00060000 TSNO
94299KAAT AAT20161214041512712/14/16 04:15:31  5-MIN KAAT 141215Z AUTO 12004KT 10SM -RA OVC039 01/00 A2994 4360 96 3700 100/04 RMK AO2 P0001 T00060000 TSNO
94299KAAT AAT20161214042013712/14/16 04:20:31  5-MIN KAAT 141220Z AUTO 10004KT 10SM UP OVC039 01/00 A2994 4360 96 3700 090/04 RMK AO2 RAE16UPB16 P0001 T00060000 TSNO
94299KAAT AAT20161214042513712/14/16 04:25:31  5-MIN KAAT 141225Z AUTO 10003KT 10SM UP OVC039 01/00 A2994 4360 96 3700 090/03 RMK AO2 RAE16UPB16 P0001 T00060000 TSNO
94299KAAT AAT20161214043013812/14/16 04:30:31  5-MIN KAAT 141230Z AUTO 00000KT 10SM UP OVC039 01/01 A2994 4360 100 3700 000/00 RMK AO2 RAE16UPB16 P0001 T00060006 TSNO
94299KAAT AAT20161214043514512/14/16 04:35:31  5-MIN KAAT 141235Z AUTO 00000KT 10SM -RA OVC037 01/01 A2994 4360 100 3700 000/00 RMK AO2 RAE16B35UPB16E35 P0001 T00060006 TSNO
94299KAAT AAT20161214044014712/14/16 04:40:31  5-MIN KAAT 141240Z AUTO 04003KT 6SM -RA BR OVC037 01/01 A2994 4360 100 3700 020/03 RMK AO2 RAE16B35UPB16E35 P0001 T00060006 TSNO
94299KAAT AAT20161214044514712/14/16 04:45:31  5-MIN KAAT 141245Z AUTO 03003KT 4SM -RA BR OVC035 01/01 A2994 4360 100 3700 020/03 RMK AO2 RAE16B35UPB16E35 P0001 T00060006 TSNO
94299KAAT AAT20161214045015412/14/16 04:50:31  5-MIN KAAT 141250Z AUTO 03004KT 4SM -RA BR OVC035 01/01 A2994 4360 100 3700 010/04 RMK AO2 RAE16B35UPB16E35 SLP151 P0002 T00060006 TSNO
94299KAAT AAT20161214045515412/14/16 04:55:31  5-MIN KAAT 141255Z AUTO 01003KT 5SM -RA BR OVC035 01/01 A2994 4360 100 3700 360/03 RMK AO2 RAE16B35UPB16E35 SLP148 P0002 T00060006 TSNO
94299KAAT AAT20161214050013012/14/16 05:00:31  5-MIN KAAT 141300Z AUTO 03003KT 5SM -RA BR OVC035 01/01 A2994 4370 100 3700 010/03 RMK AO2 P0000 T00060006 TSNO
94299KAAT AAT20161214050513012/14/16 05:05:31  5-MIN KAAT 141305Z AUTO 03004KT 5SM -RA BR OVC035 01/01 A2993 4370 100 3700 010/04 RMK AO2 P0001 T00060006 TSNO
94299KAAT AAT20161214051012712/14/16 05:10:31  5-MIN KAAT 141310Z AUTO 04004KT 7SM -RA OVC035 01/01 A2993 4370 100 3700 020/04 RMK AO2 P0001 T00060006 TSNO
94299KAAT AAT20161214051512612/14/16 05:15:31  5-MIN KAAT 141315Z AUTO 03004KT 8SM -RA OVC037 01/01 A2993 4370 96 3800 010/04 RMK AO2 P0001 T00110006 TSNO
94299KAAT AAT20161214052012612/14/16 05:20:31  5-MIN KAAT 141320Z AUTO 02003KT 9SM -RA OVC037 01/01 A2993 4370 96 3800 010/03 RMK AO2 P0002 T00110006 TSNO
94299KAAT AAT20161214052512712/14/16 05:25:31  5-MIN KAAT 141325Z AUTO 02003KT 10SM -RA OVC037 01/01 A2993 4370 96 3800 010/03 RMK AO2 P0002 T00110006 TSNO
94299KAAT AAT20161214053012712/14/16 05:30:31  5-MIN KAAT 141330Z AUTO 03003KT 10SM -RA OVC037 01/01 A2993 4380 96 3800 020/03 RMK AO2 P0002 T00110006 TSNO
94299KAAT AAT20161214053512712/14/16 05:35:31  5-MIN KAAT 141335Z AUTO 00000KT 10SM -RA OVC035 01/01 A2992 4380 96 3800 000/00 RMK AO2 P0002 T00110006 TSNO
94299KAAT AAT20161214054011612/14/16 05:40:31  5-MIN KAAT 141340Z AUTO 9SM -RA OVC035 01/01 A2992 4380 96 3800 M /M RMK AO2 P0003 T00110006 TSNO
94299KAAT AAT20161214054511612/14/16 05:45:31  5-MIN KAAT 141345Z AUTO 7SM -RA OVC033 01/01 A2992 4380 96 3800 M /M RMK AO2 P0003 T00110006 TSNO
94299KAAT AAT20161214055013312/14/16 05:50:31  5-MIN KAAT 141350Z AUTO 00000KT 7SM -RA OVC033 01/01 A2992 4380 96 3800 000/00 RMK AO2 SLP143 P0003 T00110006 TSNO
94299KAAT AAT20161214055514412/14/16 05:55:31  5-MIN KAAT 141355Z AUTO 00000KT 6SM -RA BR FEW027 OVC033 01/01 A2993 4380 100 3800 000/00 RMK AO2 SLP144 P0003 T00110011 TSNO
94299KAAT AAT20161214060012912/14/16 06:00:31  5-MIN KAAT 141400Z AUTO 00000KT 6SM -RA BR OVC030 01/01 A2992 4380 96 3800 000/00 RMK AO2 P0000 T00110006 TSNO
94299KAAT AAT20161214060512612/14/16 06:05:31  5-MIN KAAT 141405Z AUTO 00000KT 7SM -RA OVC030 01/01 A2993 4380 96 3800 000/00 RMK AO2 P0001 T00110006 TSNO
94299KAAT AAT20161214061011912/14/16 06:10:31  5-MIN KAAT 141410Z AUTO 6SM -RA BR OVC030 01/01 A2993 4370 96 3800 M /M RMK AO2 P0001 T00110006 TSNO
94299KAAT AAT20161214061511912/14/16 06:15:31  5-MIN KAAT 141415Z AUTO 4SM -RA BR OVC030 01/00 A2993 4370 92 3800 M /M RMK AO2 P0001 T00110000 TSNO
94299KAAT AAT20161214062012012/14/16 06:20:31  5-MIN KAAT 141420Z AUTO 4SM -RA BR OVC032 01/01 A2993 4380 100 3700 M /M RMK AO2 P0001 T00060006 TSNO
94299KAAT AAT20161214062512912/14/16 06:25:31  5-MIN KAAT 141425Z AUTO 5SM UP BR OVC032 01/01 A2992 4380 96 3800 M /M RMK AO2 RAE24UPB24 P0001 T00110006 TSNO
94299KAAT AAT20161214063012612/14/16 06:30:31  5-MIN KAAT 141430Z AUTO 8SM UP OVC032 01/01 A2992 4380 96 3800 M /M RMK AO2 RAE24UPB24 P0001 T00110006 TSNO
94299KAAT AAT20161214063512712/14/16 06:35:31  5-MIN KAAT 141435Z AUTO 10SM UP OVC030 02/01 A2992 4380 96 3900 M /M RMK AO2 RAE24UPB24 P0001 T00170011 TSNO
94299KAAT AAT20161214064013712/14/16 06:40:31  5-MIN KAAT 141440Z AUTO 00000KT 10SM OVC030 02/01 A2992 4380 92 3900 000/00 RMK AO2 RAE24UPB24E37 P0001 T00220011 TSNO
94299KAAT AAT20161214064514412/14/16 06:45:31  5-MIN KAAT 141445Z AUTO 00000KT 10SM BKN027 OVC032 02/02 A2992 4380 96 3900 000/00 RMK AO2 RAE24UPB24E37 P0001 T00220017 TSNO
94299KAAT AAT20161214065013412/14/16 06:50:31  5-MIN KAAT 141450Z AUTO 00000KT 10SM BKN027 OVC032 02/02 A2991 4390 96 3900 000/00 RMK AO2 RAE24UPB24E37 P0001 TSNO
94299KAAT AAT20161214065516412/14/16 06:55:31  5-MIN KAAT 141455Z AUTO 00000KT 10SM BKN027 OVC039 01/01 A2991 4390 100 3800 000/00 RMK AO2 RAE24UPB24E37 SLP142 P0001 60006 T00110011 55009 TSNO
94299KAAT AAT20161214070014312/14/16 07:00:31  5-MIN KAAT 141500Z AUTO 00000KT 5SM UP BR BKN029 OVC037 01/01 A2991 4400 96 3800 000/00 RMK AO2 UPB1459 P0000 T00110006 TSNO
94299KAAT AAT20161214070514312/14/16 07:05:31  5-MIN KAAT 141505Z AUTO 00000KT 4SM UP BR BKN029 OVC036 01/01 A2990 4400 96 3800 000/00 RMK AO2 UPB1459 P0000 T00110006 TSNO
94299KAAT AAT20161214071014312/14/16 07:10:31  5-MIN KAAT 141510Z AUTO 00000KT 5SM BR BKN029 OVC036 01/01 A2990 4400 96 3800 000/00 RMK AO2 UPB1459E08 P0000 T00110006 TSNO
94299KAAT AAT20161214071514112/14/16 07:15:31  5-MIN KAAT 141515Z AUTO 00000KT 7SM BKN029 OVC038 01/01 A2990 4400 100 3800 000/00 RMK AO2 UPB1459E08 P0000 T00110011 TSNO
94299KAAT AAT20161214072014112/14/16 07:20:31  5-MIN KAAT 141520Z AUTO 00000KT 8SM BKN031 OVC041 01/01 A2990 4400 100 3800 000/00 RMK AO2 UPB1459E08 P0000 T00110011 TSNO
94299KAAT AAT20161214072514812/14/16 07:25:31  5-MIN KAAT 141525Z AUTO 00000KT 8SM SCT031 BKN045 OVC055 01/01 A2990 4400 100 3800 000/00 RMK AO2 UPB1459E08 P0000 T00110011 TSNO
94299KAAT AAT20161214073014112/14/16 07:30:31  5-MIN KAAT 141530Z AUTO 00000KT 7SM SCT031 OVC047 01/01 A2990 4400 100 3800 000/00 RMK AO2 UPB1459E08 P0000 T00110011 TSNO
94299KAAT AAT20161214073514612/14/16 07:35:31  5-MIN KAAT 141535Z AUTO 00000KT 8SM UP SCT031 OVC045 02/01 A2990 4400 96 3900 000/00 RMK AO2 UPB1459E08B33 P0000 T00170011 TSNO
94299KAAT AAT20161214074015512/14/16 07:40:31  5-MIN KAAT 141540Z AUTO 00000KT 8SM -RA FEW031 OVC043 02/01 A2990 4400 96 3900 000/00 RMK AO2 UPB1459E08B33E36RAB36 P0000 T00170011 TSNO
94299KAAT AAT20161214074515512/14/16 07:45:31  5-MIN KAAT 141545Z AUTO 00000KT 8SM -RA FEW033 OVC043 02/01 A2990 4400 92 4000 000/00 RMK AO2 UPB1459E08B33E36RAB36 P0001 T00220011 TSNO
94299KAAT AAT20161214075016212/14/16 07:50:31  5-MIN KAAT 141550Z AUTO 00000KT 10SM UP FEW033 OVC044 02/02 A2990 4400 96 3900 000/00 RMK AO2 UPB1459E08B33RAB36E50 SLP136 P0001 T00220017 TSNO
94299KAAT AAT20161214075516212/14/16 07:55:31  5-MIN KAAT 141555Z AUTO 18004KT 10SM FEW033 OVC042 02/02 A2990 4400 96 4000 160/04 RMK AO2 UPB1459E08B33E54RAB36E50 SLP135 P0001 T00220017 TSNO
94299KAAT AAT20161214080012412/14/16 08:00:31  5-MIN KAAT 141600Z AUTO 19007KT 10SM FEW033 OVC042 02/02 A2990 4400 96 3900 170/07 RMK AO2 T00220017 TSNO
94299KAAT AAT20161214080512412/14/16 08:05:31  5-MIN KAAT 141605Z AUTO 18008KT 10SM FEW033 OVC042 02/02 A2990 4400 96 3900 170/08 RMK AO2 T00220017 TSNO
94299KAAT AAT20161214081012412/14/16 08:10:31  5-MIN KAAT 141610Z AUTO 18008KT 10SM SCT033 OVC042 03/02 A2991 4390 92 4000 170/08 RMK AO2 T00280017 TSNO
94299KAAT AAT20161214081512412/14/16 08:15:31  5-MIN KAAT 141615Z AUTO 18009KT 10SM SCT033 OVC040 03/02 A2991 4390 92 4000 160/09 RMK AO2 T00280017 TSNO
94299KAAT AAT20161214082013912/14/16 08:20:31  5-MIN KAAT 141620Z AUTO 18009KT 10SM UP FEW033 OVC040 03/02 A2991 4390 96 4000 160/09 RMK AO2 UPB19 P0000 T00280022 TSNO
94299KAAT AAT20161214082515512/14/16 08:25:31  5-MIN KAAT 141625Z AUTO 17009KT 10SM -RA FEW033 BKN042 OVC060 03/02 A2990 4400 96 4000 150/09 RMK AO2 UPB19E21RAB21 P0000 T00280022 TSNO
94299KAAT AAT20161214083015412/14/16 08:30:31  5-MIN KAAT 141630Z AUTO 17010KT 10SM UP FEW033 BKN046 OVC060 03/02 A2990 4400 92 4100 150/10 RMK AO2 UPB19RAB21E30 P0000 T00330022 TSNO
94299KAAT AAT20161214083515412/14/16 08:35:31  5-MIN KAAT 141635Z AUTO 16009KT 10SM FEW033 BKN046 OVC060 03/02 A2990 4400 92 4100 150/09 RMK AO2 UPB19E34RAB21E30 P0000 T00330022 TSNO
94299KAAT AAT20161214084015512/14/16 08:40:31  5-MIN KAAT 141640Z AUTO 16009KT 10SM -RA FEW034 BKN048 OVC060 03/02 A2990 4400 92 4100 150/09 RMK AO2 UPB19E34RAB21 P0000 T00330022 TSNO
94299KAAT AAT20161214084515512/14/16 08:45:31  5-MIN KAAT 141645Z AUTO 17008KT 10SM -RA FEW034 BKN048 OVC060 03/02 A2990 4400 92 4100 150/08 RMK AO2 UPB19E34RAB21 P0000 T00330022 TSNO
94299KAAT AAT20161214085015512/14/16 08:50:31  5-MIN KAAT 141650Z AUTO 17009KT 10SM -RA FEW035 OVC060 03/02 A2990 4400 92 4100 150/09 RMK AO2 UPB19E34RAB21 SLP134 P0000 T00330022 TSNO
94299KAAT AAT20161214085515512/14/16 08:55:31  5-MIN KAAT 141655Z AUTO 17010KT 10SM -RA BKN050 OVC060 03/03 A2990 4400 96 4100 160/10 RMK AO2 UPB19E34RAB21 SLP135 P0000 T00330028 TSNO
94299KAAT AAT20161214090013412/14/16 09:00:31  5-MIN KAAT 141700Z AUTO 17009KT 10SM -RA BKN050 OVC070 03/03 A2990 4400 96 4100 160/09 RMK AO2 P0001 T00330028 TSNO
94299KAAT AAT20161214090513412/14/16 09:05:31  5-MIN KAAT 141705Z AUTO 17008KT 10SM -RA BKN050 OVC070 03/03 A2990 4400 96 4100 160/08 RMK AO2 P0001 T00330028 TSNO
94299KAAT AAT20161214091013412/14/16 09:10:31  5-MIN KAAT 141710Z AUTO 18009KT 10SM -RA BKN055 OVC065 03/03 A2990 4400 96 4100 160/09 RMK AO2 P0001 T00330028 TSNO
94299KAAT AAT20161214091512712/14/16 09:15:31  5-MIN KAAT 141715Z AUTO 18010KT 10SM -RA OVC060 03/03 A2990 4400 96 4100 160/10 RMK AO2 P0001 T00330028 TSNO
94299KAAT AAT20161214092012912/14/16 09:20:31  5-MIN KAAT 141720Z AUTO 18010KT 10SM OVC060 03/03 A2990 4400 96 4100 160/10 RMK AO2 RAE19 P0001 T00330028 TSNO
94299KAAT AAT20161214092513612/14/16 09:25:31  5-MIN KAAT 141725Z AUTO 18010KT 10SM FEW047 OVC060 03/03 A2989 4410 96 4100 160/10 RMK AO2 RAE19 P0001 T00330028 TSNO
94299KAAT AAT20161214093013612/14/16 09:30:31  5-MIN KAAT 141730Z AUTO 18009KT 10SM FEW041 OVC055 03/03 A2989 4410 96 4100 160/09 RMK AO2 RAE19 P0001 T00330028 TSNO
94299KAAT AAT20161214093514312/14/16 09:35:31  5-MIN KAAT 141735Z AUTO 17009KT 10SM SCT038 BKN046 OVC060 03/03 A2990 4400 96 4100 160/09 RMK AO2 RAE19 P0001 T00330028 TSNO
94299KAAT AAT20161214094014312/14/16 09:40:31  5-MIN KAAT 141740Z AUTO 18007KT 10SM SCT034 BKN045 OVC060 04/03 A2990 4400 92 4200 160/07 RMK AO2 RAE19 P0001 T00390028 TSNO
94299KAAT AAT20161214094514312/14/16 09:45:31  5-MIN KAAT 141745Z AUTO 18007KT 10SM -RA BKN032 OVC044 04/03 A2990 4400 92 4200 160/07 RMK AO2 RAE19B42 P0001 T00390028 TSNO
94299KAAT AAT20161214095017412/14/16 09:50:31  5-MIN KAAT 141750Z AUTO 19006KT 10SM -RA BKN032 OVC044 04/03 A2990 4400 96 4200 170/06 RMK AO2 RAE19B42 SLP132 P0001 60008 T00390033 10039 20006 55009 TSNO
94299KAAT AAT20161214095517312/14/16 09:55:31  5-MIN KAAT 141755Z AUTO 19005KT 10SM BKN032 OVC043 04/03 A2990 4400 96 4200 170/05 RMK AO2 RAE19B42E55 SLP131 P0001 60008 T00390033 10039 20006 56004 TSNO
94299KAAT AAT20161214100011712/14/16 10:00:31  5-MIN KAAT 141800Z AUTO 18004KT 10SM OVC032 04/03 A2990 4400 96 4200 170/04 RMK AO2 T00390033 TSNO
94299KAAT AAT20161214100511712/14/16 10:05:31  5-MIN KAAT 141805Z AUTO 17003KT 10SM OVC032 04/03 A2990 4400 96 4200 160/03 RMK AO2 T00390033 TSNO
94299KAAT AAT20161214101011712/14/16 10:10:31  5-MIN KAAT 141810Z AUTO 17004KT 10SM OVC030 04/03 A2990 4400 92 4200 160/04 RMK AO2 T00440033 TSNO
94299KAAT AAT20161214101511712/14/16 10:15:31  5-MIN KAAT 141815Z AUTO 17003KT 10SM OVC030 04/03 A2989 4400 92 4200 150/03 RMK AO2 T00440033 TSNO
94299KAAT AAT20161214102011712/14/16 10:20:31  5-MIN KAAT 141820Z AUTO 00000KT 10SM OVC030 04/03 A2990 4400 92 4200 000/00 RMK AO2 T00440033 TSNO
94299KAAT AAT20161214102511712/14/16 10:25:31  5-MIN KAAT 141825Z AUTO 33005KT 10SM OVC030 04/03 A2989 4410 96 4200 320/05 RMK AO2 T00390033 TSNO
94299KAAT AAT20161214103011712/14/16 10:30:31  5-MIN KAAT 141830Z AUTO 00000KT 10SM OVC029 04/03 A2989 4410 96 4200 000/00 RMK AO2 T00390033 TSNO
94299KAAT AAT20161214103511712/14/16 10:35:31  5-MIN KAAT 141835Z AUTO 00000KT 10SM OVC029 04/03 A2989 4410 92 4200 000/00 RMK AO2 T00440033 TSNO
94299KAAT AAT20161214104011712/14/16 10:40:31  5-MIN KAAT 141840Z AUTO 26004KT 10SM OVC029 05/04 A2989 4410 92 4300 250/04 RMK AO2 T00500039 TSNO
94299KAAT AAT20161214104511712/14/16 10:45:31  5-MIN KAAT 141845Z AUTO 29004KT 10SM OVC029 04/03 A2989 4410 96 4200 270/04 RMK AO2 T00390033 TSNO
94299KAAT AAT20161214105010712/14/16 10:50:31  5-MIN KAAT 141850Z AUTO 30003KT 10SM OVC031 03/03 A2989 4410 96 4100 280/03 RMK AO2 TSNO
94299KAAT AAT20161214105512412/14/16 10:55:31  5-MIN KAAT 141855Z AUTO 28003KT 10SM OVC031 03/03 A2989 4410 96 4100 270/03 RMK AO2 SLP130 T00330028 TSNO
94299KAAT AAT20161214110011712/14/16 11:00:31  5-MIN KAAT 141900Z AUTO 36003KT 10SM OVC031 04/03 A2989 4410 92 4200 340/03 RMK AO2 T00390028 TSNO
94299KAAT AAT20161214110511712/14/16 11:05:31  5-MIN KAAT 141905Z AUTO 32003KT 10SM OVC031 03/03 A2989 4410 96 4100 300/03 RMK AO2 T00330028 TSNO
94299KAAT AAT20161214111011712/14/16 11:10:31  5-MIN KAAT 141910Z AUTO 30003KT 10SM OVC031 03/03 A2988 4420 96 4100 280/03 RMK AO2 T00330028 TSNO
94299KAAT AAT20161214111512512/14/16 11:15:31  5-MIN KAAT 141915Z AUTO 00000KT 10SM BKN031 OVC035 03/03 A2988 4420 100 4100 000/00 RMK AO2 T00330033 TSNO
94299KAAT AAT20161214112011712/14/16 11:20:31  5-MIN KAAT 141920Z AUTO 26004KT 10SM OVC031 04/03 A2988 4420 96 4200 240/04 RMK AO2 T00390033 TSNO
94299KAAT AAT20161214112511712/14/16 11:25:31  5-MIN KAAT 141925Z AUTO 00000KT 10SM OVC031 04/03 A2988 4420 96 4200 000/00 RMK AO2 T00390033 TSNO
94299KAAT AAT20161214113011712/14/16 11:30:31  5-MIN KAAT 141930Z AUTO 00000KT 10SM OVC031 04/04 A2987 4420 96 4200 000/00 RMK AO2 T00440039 TSNO
94299KAAT AAT20161214113511712/14/16 11:35:31  5-MIN KAAT 141935Z AUTO 28003KT 10SM OVC032 04/04 A2988 4420 96 4200 270/03 RMK AO2 T00440039 TSNO
94299KAAT AAT20161214114011712/14/16 11:40:31  5-MIN KAAT 141940Z AUTO 32005KT 10SM OVC032 04/04 A2987 4430 96 4300 310/05 RMK AO2 T00440039 TSNO
94299KAAT AAT20161214114511712/14/16 11:45:31  5-MIN KAAT 141945Z AUTO 00000KT 10SM OVC032 04/04 A2987 4430 96 4300 000/00 RMK AO2 T00440039 TSNO
94299KAAT AAT20161214115012412/14/16 11:50:31  5-MIN KAAT 141950Z AUTO 00000KT 10SM OVC033 05/04 A2987 4430 92 4300 000/00 RMK AO2 SLP119 T00500039 TSNO
94299KAAT AAT20161214115512412/14/16 11:55:31  5-MIN KAAT 141955Z AUTO 00000KT 10SM OVC033 05/04 A2986 4430 96 4300 000/00 RMK AO2 SLP117 T00500044 TSNO
94299KAAT AAT20161214120011712/14/16 12:00:31  5-MIN KAAT 142000Z AUTO 00000KT 10SM OVC034 06/04 A2986 4430 92 4400 000/00 RMK AO2 T00560044 TSNO
94299KAAT AAT20161214120511712/14/16 12:05:31  5-MIN KAAT 142005Z AUTO 00000KT 10SM OVC034 06/04 A2986 4440 92 4400 000/00 RMK AO2 T00560044 TSNO
94299KAAT AAT20161214121011712/14/16 12:10:31  5-MIN KAAT 142010Z AUTO VRB03KT 10SM OVC034 06/04 A2986 4440 92 4400 VRB/03 RMK AO2 T00560044 TSNO
94299KAAT AAT20161214121511712/14/16 12:15:31  5-MIN KAAT 142015Z AUTO 00000KT 10SM OVC035 06/05 A2986 4440 93 4500 000/00 RMK AO2 T00610050 TSNO
94299KAAT AAT20161214122011712/14/16 12:20:31  5-MIN KAAT 142020Z AUTO VRB04KT 10SM OVC037 07/05 A2986 4440 89 4500 VRB/04 RMK AO2 T00670050 TSNO
94299KAAT AAT20161214122511712/14/16 12:25:31  5-MIN KAAT 142025Z AUTO 20003KT 10SM OVC037 07/04 A2986 4440 82 4600 180/03 RMK AO2 T00720044 TSNO
94299KAAT AAT20161214123012412/14/16 12:30:31  5-MIN KAAT 142030Z AUTO 00000KT 10SM BKN037 OVC047 07/05 A2986 4440 86 4600 000/00 RMK AO2 T00720050 TSNO
94299KAAT AAT20161214123512412/14/16 12:35:31  5-MIN KAAT 142035Z AUTO 18004KT 10SM BKN039 OVC047 08/05 A2986 4440 82 4700 160/04 RMK AO2 T00780050 TSNO
94299KAAT AAT20161214124012412/14/16 12:40:31  5-MIN KAAT 142040Z AUTO 00000KT 10SM BKN039 OVC047 08/05 A2984 4450 82 4700 000/00 RMK AO2 T00780050 TSNO
94299KAAT AAT20161214124511712/14/16 12:45:31  5-MIN KAAT 142045Z AUTO 00000KT 10SM OVC041 07/05 A2984 4450 86 4600 000/00 RMK AO2 T00720050 TSNO
94299KAAT AAT20161214125013712/14/16 12:50:31  5-MIN KAAT 142050Z AUTO VRB04KT 10SM BKN041 OVC047 08/04 A2984 4460 79 4700 VRB/04 RMK AO2 SLP106 T00780044 56004 TSNO
94299KAAT AAT20161214125513012/14/16 12:55:31  5-MIN KAAT 142055Z AUTO VRB05KT 10SM OVC041 08/04 A2984 4460 79 4700 VRB/05 RMK AO2 SLP104 T00780044 58018 TSNO
94299KAAT AAT20161214130011712/14/16 13:00:31  5-MIN KAAT 142100Z AUTO 22008KT 10SM OVC041 08/04 A2983 4460 76 4800 210/08 RMK AO2 T00830044 TSNO
94299KAAT AAT20161214130512412/14/16 13:05:31  5-MIN KAAT 142105Z AUTO 23005KT 10SM BKN041 OVC047 08/04 A2983 4470 79 4700 220/05 RMK AO2 T00780044 TSNO
94299KAAT AAT20161214131011712/14/16 13:10:31  5-MIN KAAT 142110Z AUTO 24004KT 10SM OVC041 08/04 A2983 4470 79 4700 230/04 RMK AO2 T00780044 TSNO
94299KAAT AAT20161214131511712/14/16 13:15:31  5-MIN KAAT 142115Z AUTO VRB04KT 10SM OVC042 07/04 A2983 4470 82 4600 VRB/04 RMK AO2 T00720044 TSNO
94299KAAT AAT20161214132011712/14/16 13:20:31  5-MIN KAAT 142120Z AUTO 26005KT 10SM OVC042 07/04 A2983 4470 82 4600 250/05 RMK AO2 T00720044 TSNO
94299KAAT AAT20161214132511712/14/16 13:25:31  5-MIN KAAT 142125Z AUTO 27004KT 10SM OVC042 07/04 A2983 4460 82 4600 260/04 RMK AO2 T00720044 TSNO
94299KAAT AAT20161214133011712/14/16 13:30:31  5-MIN KAAT 142130Z AUTO 30007KT 10SM OVC042 08/04 A2984 4460 79 4700 280/07 RMK AO2 T00780044 TSNO
94299KAAT AAT20161214133511712/14/16 13:35:31  5-MIN KAAT 142135Z AUTO 30006KT 10SM OVC042 06/04 A2984 4460 89 4500 280/06 RMK AO2 T00610044 TSNO
94299KAAT AAT20161214134011712/14/16 13:40:31  5-MIN KAAT 142140Z AUTO VRB04KT 10SM OVC042 07/05 A2983 4460 89 4600 VRB/04 RMK AO2 T00670050 TSNO
94299KAAT AAT20161214134511712/14/16 13:45:31  5-MIN KAAT 142145Z AUTO 31004KT 10SM OVC042 07/05 A2983 4460 86 4600 290/04 RMK AO2 T00720050 TSNO
94299KAAT AAT20161214135012412/14/16 13:50:31  5-MIN KAAT 142150Z AUTO 30004KT 10SM OVC042 07/06 A2984 4460 89 4600 290/04 RMK AO2 SLP105 T00720056 TSNO
94299KAAT AAT20161214135512412/14/16 13:55:31  5-MIN KAAT 142155Z AUTO 00000KT 10SM OVC042 08/06 A2984 4460 86 4700 000/00 RMK AO2 SLP103 T00780056 TSNO
94299KAAT AAT20161214140011712/14/16 14:00:31  5-MIN KAAT 142200Z AUTO 28003KT 10SM OVC042 08/06 A2984 4460 82 4700 260/03 RMK AO2 T00830056 TSNO
94299KAAT AAT20161214140511712/14/16 14:05:31  5-MIN KAAT 142205Z AUTO 28005KT 10SM OVC044 08/06 A2983 4460 82 4800 260/05 RMK AO2 T00830056 TSNO
94299KAAT AAT20161214141011712/14/16 14:10:31  5-MIN KAAT 142210Z AUTO 27005KT 10SM BKN044 08/06 A2983 4460 86 4700 250/05 RMK AO2 T00780056 TSNO
94299KAAT AAT20161214141511712/14/16 14:15:31  5-MIN KAAT 142215Z AUTO 28005KT 10SM BKN043 08/06 A2983 4460 82 4800 270/05 RMK AO2 T00830056 TSNO
94299KAAT AAT20161214142011712/14/16 14:20:31  5-MIN KAAT 142220Z AUTO VRB03KT 10SM SCT043 08/05 A2983 4470 79 4800 VRB/03 RMK AO2 T00830050 TSNO
94299KAAT AAT20161214142511712/14/16 14:25:31  5-MIN KAAT 142225Z AUTO 27003KT 10SM SCT043 09/06 A2983 4460 79 4800 260/03 RMK AO2 T00890056 TSNO
94299KAAT AAT20161214143011712/14/16 14:30:31  5-MIN KAAT 142230Z AUTO 29005KT 10SM FEW040 09/05 A2983 4460 76 4800 270/05 RMK AO2 T00890050 TSNO
94299KAAT AAT20161214143511712/14/16 14:35:31  5-MIN KAAT 142235Z AUTO 30005KT 10SM FEW040 09/05 A2983 4460 76 4800 290/05 RMK AO2 T00890050 TSNO
94299KAAT AAT20161214144011412/14/16 14:40:31  5-MIN KAAT 142240Z AUTO 29008KT 10SM CLR 09/05 A2984 4460 76 4800 280/08 RMK AO2 T00890050 TSNO
94299KAAT AAT20161214144511412/14/16 14:45:31  5-MIN KAAT 142245Z AUTO 29007KT 10SM CLR 08/05 A2984 4460 79 4700 270/07 RMK AO2 T00830050 TSNO
94299KAAT AAT20161214145012112/14/16 14:50:31  5-MIN KAAT 142250Z AUTO 27007KT 10SM CLR 08/04 A2984 4460 79 4700 260/07 RMK AO2 SLP103 T00780044 TSNO
94299KAAT AAT20161214145512112/14/16 14:55:31  5-MIN KAAT 142255Z AUTO 26005KT 10SM CLR 08/04 A2983 4460 79 4700 250/05 RMK AO2 SLP102 T00780044 TSNO
94299KAAT AAT20161214150011412/14/16 15:00:31  5-MIN KAAT 142300Z AUTO 21004KT 10SM CLR 07/04 A2983 4470 82 4600 200/04 RMK AO2 T00720044 TSNO
94299KAAT AAT20161214150511412/14/16 15:05:31  5-MIN KAAT 142305Z AUTO 22008KT 10SM CLR 08/05 A2983 4470 79 4800 200/08 RMK AO2 T00830050 TSNO
94299KAAT AAT20161214151011412/14/16 15:10:31  5-MIN KAAT 142310Z AUTO 22012KT 10SM CLR 09/04 A2983 4470 71 4800 200/12 RMK AO2 T00890039 TSNO
94299KAAT AAT20161214151512012/14/16 15:15:31  5-MIN KAAT 142315Z AUTO 21011G18KT 10SM CLR 09/03 A2983 4460 68 4800 200/11G18 RMK AO2 T00890033 TSNO
94299KAAT AAT20161214152012012/14/16 15:20:31  5-MIN KAAT 142320Z AUTO 22014G18KT 10SM CLR 09/03 A2983 4460 68 4800 200/14G18 RMK AO2 T00890033 TSNO
94299KAAT AAT20161214152511412/14/16 15:25:31  5-MIN KAAT 142325Z AUTO 22014KT 10SM CLR 09/03 A2984 4460 68 4800 200/14 RMK AO2 T00890033 TSNO
94299KAAT AAT20161214153011412/14/16 15:30:31  5-MIN KAAT 142330Z AUTO 23013KT 10SM CLR 09/03 A2984 4460 68 4800 210/13 RMK AO2 T00890033 TSNO
94299KAAT AAT20161214153511412/14/16 15:35:31  5-MIN KAAT 142335Z AUTO 22014KT 10SM CLR 09/03 A2983 4460 68 4800 210/14 RMK AO2 T00890033 TSNO
94299KAAT AAT20161214154011412/14/16 15:40:31  5-MIN KAAT 142340Z AUTO 23011KT 10SM CLR 09/03 A2984 4460 68 4800 210/11 RMK AO2 T00890033 TSNO
94299KAAT AAT20161214154511412/14/16 15:45:31  5-MIN KAAT 142345Z AUTO 23013KT 10SM CLR 09/03 A2984 4450 68 4800 220/13 RMK AO2 T00890033 TSNO
94299KAAT AAT20161214155013912/14/16 15:50:31  5-MIN KAAT 142350Z AUTO 24012KT 10SM CLR 09/03 A2984 4450 65 4800 230/12 RMK AO2 SLP104 T00890028 10094 20033 58018 TSNO
94299KAAT AAT20161214155514212/14/16 15:55:31  5-MIN KAAT 142355Z AUTO 24008KT 10SM FEW048 08/03 A2984 4450 70 4700 230/08 RMK AO2 SLP105 T00830033 10094 20033 53003 TSNO
94299KAAT AAT20161214160011712/14/16 16:00:31  5-MIN KAAT 150000Z AUTO 23008KT 10SM FEW046 08/03 A2984 4460 70 4700 220/08 RMK AO2 T00830033 TSNO
94299KAAT AAT20161214160511712/14/16 16:05:31  5-MIN KAAT 150005Z AUTO 23007KT 10SM FEW046 08/03 A2983 4460 73 4700 210/07 RMK AO2 T00780033 TSNO
94299KAAT AAT20161214161011712/14/16 16:10:31  5-MIN KAAT 150010Z AUTO 23007KT 10SM SCT049 08/03 A2984 4460 73 4700 210/07 RMK AO2 T00780033 TSNO
94299KAAT AAT20161214161513012/14/16 16:15:31  5-MIN KAAT 150015Z AUTO 22009G16KT 10SM SCT049 SCT055 08/03 A2983 4460 70 4700 210/09G16 RMK AO2 T00780028 TSNO
94299KAAT AAT20161214162012412/14/16 16:20:31  5-MIN KAAT 150020Z AUTO 22008KT 10SM SCT049 SCT055 08/03 A2983 4470 70 4700 200/08 RMK AO2 T00780028 TSNO
94299KAAT AAT20161214162512412/14/16 16:25:31  5-MIN KAAT 150025Z AUTO 21006KT 10SM FEW045 BKN055 07/03 A2982 4470 73 4600 200/06 RMK AO2 T00720028 TSNO
94299KAAT AAT20161214163012412/14/16 16:30:31  5-MIN KAAT 150030Z AUTO 22006KT 10SM FEW043 BKN055 08/03 A2982 4470 70 4700 200/06 RMK AO2 T00780028 TSNO
94299KAAT AAT20161214163511712/14/16 16:35:31  5-MIN KAAT 150035Z AUTO 19007KT 10SM BKN050 07/03 A2982 4470 73 4600 180/07 RMK AO2 T00720028 TSNO
94299KAAT AAT20161214164012412/14/16 16:40:31  5-MIN KAAT 150040Z AUTO 18007KT 10SM FEW044 BKN055 07/03 A2982 4480 73 4600 170/07 RMK AO2 T00720028 TSNO
94299KAAT AAT20161214164512412/14/16 16:45:31  5-MIN KAAT 150045Z AUTO 20005KT 10SM SCT043 OVC050 07/03 A2982 4480 73 4600 190/05 RMK AO2 T00720028 TSNO
94299KAAT AAT20161214165013112/14/16 16:50:31  5-MIN KAAT 150050Z AUTO 21006KT 10SM BKN048 OVC055 07/03 A2982 4470 76 4600 190/06 RMK AO2 SLP100 T00670028 TSNO
94299KAAT AAT20161214165513112/14/16 16:55:31  5-MIN KAAT 150055Z AUTO 20005KT 10SM BKN046 OVC055 07/03 A2982 4480 73 4600 180/05 RMK AO2 SLP098 T00720028 TSNO
94299KAAT AAT20161214170012412/14/16 17:00:31  5-MIN KAAT 150100Z AUTO 22005KT 10SM BKN046 OVC055 07/03 A2983 4470 73 4600 200/05 RMK AO2 T00720028 TSNO
94299KAAT AAT20161214170512412/14/16 17:05:31  5-MIN KAAT 150105Z AUTO 17008KT 10SM BKN046 OVC055 07/02 A2982 4480 70 4600 160/08 RMK AO2 T00720022 TSNO
94299KAAT AAT20161214171013012/14/16 17:10:31  5-MIN KAAT 150110Z AUTO 20010G15KT 10SM BKN046 OVC055 07/02 A2983 4470 70 4600 180/10G15 RMK AO2 T00720022 TSNO
94299KAAT AAT20161214171511712/14/16 17:15:31  5-MIN KAAT 150115Z AUTO 18012KT 10SM OVC048 08/02 A2982 4470 68 4700 160/12 RMK AO2 T00780022 TSNO
94299KAAT AAT20161214172012412/14/16 17:20:31  5-MIN KAAT 150120Z AUTO 18010KT 10SM BKN045 OVC055 08/02 A2983 4470 68 4700 170/10 RMK AO2 T00780022 TSNO
94299KAAT AAT20161214172512412/14/16 17:25:31  5-MIN KAAT 150125Z AUTO 20010KT 10SM BKN045 OVC055 08/02 A2983 4460 68 4700 190/10 RMK AO2 T00780022 TSNO
94299KAAT AAT20161214173012412/14/16 17:30:31  5-MIN KAAT 150130Z AUTO 19008KT 10SM BKN045 OVC055 08/03 A2983 4460 70 4700 180/08 RMK AO2 T00780028 TSNO
94299KAAT AAT20161214173512412/14/16 17:35:31  5-MIN KAAT 150135Z AUTO 18008KT 10SM BKN043 OVC050 08/02 A2982 4470 68 4700 170/08 RMK AO2 T00780022 TSNO
94299KAAT AAT20161214174012412/14/16 17:40:31  5-MIN KAAT 150140Z AUTO 18010KT 10SM BKN043 OVC050 08/02 A2982 4470 68 4700 160/10 RMK AO2 T00780022 TSNO
94299KAAT AAT20161214174512412/14/16 17:45:31  5-MIN KAAT 150145Z AUTO 20009KT 10SM BKN043 OVC050 08/03 A2983 4470 70 4700 180/09 RMK AO2 T00780028 TSNO
94299KAAT AAT20161214175013112/14/16 17:50:31  5-MIN KAAT 150150Z AUTO 22005KT 10SM BKN043 OVC050 07/03 A2983 4470 73 4600 200/05 RMK AO2 SLP099 T00720028 TSNO
94299KAAT AAT20161214175513112/14/16 17:55:31  5-MIN KAAT 150155Z AUTO 18004KT 10SM BKN041 OVC050 07/03 A2982 4480 73 4600 170/04 RMK AO2 SLP096 T00720028 TSNO
94299KAAT AAT20161214180012412/14/16 18:00:31  5-MIN KAAT 150200Z AUTO 17007KT 10SM BKN041 OVC050 07/03 A2981 4480 73 4600 160/07 RMK AO2 T00720028 TSNO
94299KAAT AAT20161214180512412/14/16 18:05:31  5-MIN KAAT 150205Z AUTO 18007KT 10SM BKN043 OVC055 07/03 A2981 4480 73 4600 160/07 RMK AO2 T00720028 TSNO
94299KAAT AAT20161214181012412/14/16 18:10:31  5-MIN KAAT 150210Z AUTO 19007KT 10SM SCT041 OVC050 07/03 A2982 4480 73 4600 170/07 RMK AO2 T00720028 TSNO
94299KAAT AAT20161214181511712/14/16 18:15:31  5-MIN KAAT 150215Z AUTO 18005KT 10SM OVC047 07/03 A2981 4480 76 4600 160/05 RMK AO2 T00670028 TSNO
94299KAAT AAT20161214182012412/14/16 18:20:31  5-MIN KAAT 150220Z AUTO 17007KT 10SM BKN045 OVC055 07/03 A2981 4480 76 4600 160/07 RMK AO2 T00670028 TSNO
94299KAAT AAT20161214182512412/14/16 18:25:31  5-MIN KAAT 150225Z AUTO 17006KT 10SM BKN048 OVC055 07/03 A2981 4480 76 4600 160/06 RMK AO2 T00670028 TSNO
94299KAAT AAT20161214183012412/14/16 18:30:31  5-MIN KAAT 150230Z AUTO 18006KT 10SM BKN047 OVC055 07/03 A2982 4480 76 4600 170/06 RMK AO2 T00670028 TSNO
94299KAAT AAT20161214183512412/14/16 18:35:31  5-MIN KAAT 150235Z AUTO 19009KT 10SM BKN047 OVC055 07/03 A2982 4480 73 4600 170/09 RMK AO2 T00720028 TSNO
94299KAAT AAT20161214184012412/14/16 18:40:31  5-MIN KAAT 150240Z AUTO 18008KT 10SM BKN046 OVC055 07/03 A2981 4480 73 4700 170/08 RMK AO2 T00720028 TSNO
94299KAAT AAT20161214184512412/14/16 18:45:31  5-MIN KAAT 150245Z AUTO 18009KT 10SM BKN046 OVC055 07/03 A2981 4490 76 4600 160/09 RMK AO2 T00670028 TSNO
94299KAAT AAT20161214185013712/14/16 18:50:31  5-MIN KAAT 150250Z AUTO 19008KT 10SM BKN046 OVC055 07/03 A2981 4490 76 4600 180/08 RMK AO2 SLP092 T00670028 53003 TSNO
94299KAAT AAT20161214185513712/14/16 18:55:31  5-MIN KAAT 150255Z AUTO 18009KT 10SM BKN046 OVC055 07/03 A2981 4490 76 4600 170/09 RMK AO2 SLP094 T00670028 56011 TSNO
94299KAAT AAT20161214190012412/14/16 19:00:31  5-MIN KAAT 150300Z AUTO 18009KT 10SM BKN046 OVC055 07/03 A2981 4490 73 4700 170/09 RMK AO2 T00720028 TSNO
94299KAAT AAT20161214190511712/14/16 19:05:31  5-MIN KAAT 150305Z AUTO 18009KT 10SM OVC046 07/03 A2980 4490 76 4600 170/09 RMK AO2 T00670028 TSNO
94299KAAT AAT20161214191011712/14/16 19:10:31  5-MIN KAAT 150310Z AUTO 19009KT 10SM BKN046 07/03 A2980 4490 76 4600 170/09 RMK AO2 T00670028 TSNO
94299KAAT AAT20161214191511712/14/16 19:15:31  5-MIN KAAT 150315Z AUTO 19008KT 10SM BKN046 07/03 A2980 4490 76 4600 180/08 RMK AO2 T00670028 TSNO
94299KAAT AAT20161214192011712/14/16 19:20:31  5-MIN KAAT 150320Z AUTO 19009KT 10SM SCT046 06/03 A2981 4480 79 4500 180/09 RMK AO2 T00610028 TSNO
94299KAAT AAT20161214192511712/14/16 19:25:31  5-MIN KAAT 150325Z AUTO 19008KT 10SM SCT046 07/03 A2981 4480 76 4600 180/08 RMK AO2 T00670028 TSNO
94299KAAT AAT20161214193011712/14/16 19:30:31  5-MIN KAAT 150330Z AUTO 20008KT 10SM SCT046 06/03 A2981 4480 79 4500 180/08 RMK AO2 T00610028 TSNO
94299KAAT AAT20161214193511712/14/16 19:35:31  5-MIN KAAT 150335Z AUTO 19008KT 10SM FEW046 06/03 A2981 4490 79 4500 180/08 RMK AO2 T00610028 TSNO
94299KAAT AAT20161214194011712/14/16 19:40:31  5-MIN KAAT 150340Z AUTO 20008KT 10SM FEW048 06/03 A2981 4480 79 4500 180/08 RMK AO2 T00610028 TSNO
94299KAAT AAT20161214194511712/14/16 19:45:31  5-MIN KAAT 150345Z AUTO 20008KT 10SM SCT048 06/03 A2981 4490 79 4500 180/08 RMK AO2 T00610028 TSNO
94299KAAT AAT20161214195012412/14/16 19:50:31  5-MIN KAAT 150350Z AUTO 20008KT 10SM BKN048 07/03 A2981 4490 76 4600 190/08 RMK AO2 SLP092 T00670028 TSNO
94299KAAT AAT20161214195513112/14/16 19:55:31  5-MIN KAAT 150355Z AUTO 21010KT 10SM SCT048 BKN060 07/03 A2981 4480 76 4600 200/10 RMK AO2 SLP093 T00670028 TSNO
94299KAAT AAT20161214200013112/14/16 20:00:31  5-MIN KAAT 150400Z AUTO 19009KT 10SM FEW041 SCT050 BKN060 07/03 A2980 4490 76 4600 180/09 RMK AO2 T00670028 TSNO
94299KAAT AAT20161214200512412/14/16 20:05:31  5-MIN KAAT 150405Z AUTO 21009KT 10SM FEW041 BKN055 07/03 A2981 4490 73 4700 200/09 RMK AO2 T00720028 TSNO
94299KAAT AAT20161214201013112/14/16 20:10:31  5-MIN KAAT 150410Z AUTO 21010KT 10SM FEW041 SCT050 BKN060 07/03 A2981 4490 73 4700 190/10 RMK AO2 T00720028 TSNO
94299KAAT AAT20161214201512412/14/16 20:15:31  5-MIN KAAT 150415Z AUTO 21010KT 10SM FEW041 BKN055 07/03 A2981 4490 73 4700 190/10 RMK AO2 T00720028 TSNO
94299KAAT AAT20161214202012412/14/16 20:20:31  5-MIN KAAT 150420Z AUTO 19010KT 10SM FEW041 BKN055 07/03 A2981 4490 73 4700 180/10 RMK AO2 T00720028 TSNO
94299KAAT AAT20161214202513112/14/16 20:25:31  5-MIN KAAT 150425Z AUTO 20009KT 10SM FEW040 SCT049 BKN060 07/03 A2981 4490 73 4700 180/09 RMK AO2 T00720028 TSNO
94299KAAT AAT20161214203013112/14/16 20:30:31  5-MIN KAAT 150430Z AUTO 21008KT 10SM FEW038 SCT047 BKN060 07/03 A2981 4490 73 4700 190/08 RMK AO2 T00720028 TSNO
94299KAAT AAT20161214203513112/14/16 20:35:31  5-MIN KAAT 150435Z AUTO 17009KT 10SM FEW038 BKN060 BKN120 08/03 A2980 4490 70 4700 160/09 RMK AO2 T00780028 TSNO
94299KAAT AAT20161214204013112/14/16 20:40:31  5-MIN KAAT 150440Z AUTO 21008KT 10SM SCT040 BKN060 OVC120 07/03 A2980 4490 73 4700 190/08 RMK AO2 T00720028 TSNO
94299KAAT AAT20161214204513112/14/16 20:45:31  5-MIN KAAT 150445Z AUTO 18007KT 10SM SCT040 BKN060 OVC110 07/03 A2980 4490 73 4700 160/07 RMK AO2 T00720028 TSNO
94299KAAT AAT20161214205014412/14/16 20:50:31  5-MIN KAAT 150450Z AUTO 17010G15KT 10SM FEW040 BKN060 OVC110 07/03 A2980 4490 76 4700 160/10G15 RMK AO2 SLP088 T00720033 TSNO
94299KAAT AAT20161214205513812/14/16 20:55:31  5-MIN KAAT 150455Z AUTO 19008KT 10SM SCT040 BKN049 OVC110 08/03 A2980 4490 70 4700 180/08 RMK AO2 SLP089 T00780028 TSNO
94299KAAT AAT20161214210013112/14/16 21:00:31  5-MIN KAAT 150500Z AUTO 18007KT 10SM BKN041 BKN050 OVC110 08/03 A2981 4490 73 4700 170/07 RMK AO2 T00780033 TSNO
94299KAAT AAT20161214210513112/14/16 21:05:31  5-MIN KAAT 150505Z AUTO 18010KT 10SM BKN042 BKN049 OVC060 08/03 A2981 4490 73 4700 160/10 RMK AO2 T00780033 TSNO
94299KAAT AAT20161214211012412/14/16 21:10:31  5-MIN KAAT 150510Z AUTO 17008KT 10SM BKN045 OVC110 08/03 A2980 4490 73 4700 160/08 RMK AO2 T00780033 TSNO
94299KAAT AAT20161214211511712/14/16 21:15:31  5-MIN KAAT 150515Z AUTO 17008KT 10SM OVC045 08/03 A2980 4490 73 4700 160/08 RMK AO2 T00780033 TSNO
94299KAAT AAT20161214212011712/14/16 21:20:31  5-MIN KAAT 150520Z AUTO 19006KT 10SM OVC043 08/03 A2980 4490 73 4700 180/06 RMK AO2 T00780033 TSNO
94299KAAT AAT20161214212511712/14/16 21:25:31  5-MIN KAAT 150525Z AUTO 18004KT 10SM OVC045 07/03 A2980 4490 73 4700 170/04 RMK AO2 T00720028 TSNO
94299KAAT AAT20161214213011712/14/16 21:30:31  5-MIN KAAT 150530Z AUTO 19005KT 10SM OVC045 07/03 A2980 4490 73 4700 170/05 RMK AO2 T00720028 TSNO
94299KAAT AAT20161214213511712/14/16 21:35:31  5-MIN KAAT 150535Z AUTO 17007KT 10SM OVC045 07/03 A2980 4490 73 4700 160/07 RMK AO2 T00720028 TSNO
94299KAAT AAT20161214214011712/14/16 21:40:31  5-MIN KAAT 150540Z AUTO 17012KT 10SM OVC045 08/03 A2979 4500 70 4700 160/12 RMK AO2 T00780028 TSNO
94299KAAT AAT20161214214511712/14/16 21:45:31  5-MIN KAAT 150545Z AUTO 17013KT 10SM OVC045 08/03 A2979 4500 70 4800 160/13 RMK AO2 T00830033 TSNO
94299KAAT AAT20161214215014212/14/16 21:50:31  5-MIN KAAT 150550Z AUTO 17012KT 10SM OVC045 08/03 A2979 4500 70 4800 160/12 RMK AO2 SLP083 T00830033 10083 20061 56011 TSNO
94299KAAT AAT20161214215514212/14/16 21:55:31  5-MIN KAAT 150555Z AUTO 17014KT 10SM OVC045 08/03 A2979 4500 70 4800 160/14 RMK AO2 SLP082 T00830033 10083 20061 58005 TSNO
94299KAAT AAT20161214220011712/14/16 22:00:31  5-MIN KAAT 150600Z AUTO 18013KT 10SM OVC045 08/03 A2980 4500 70 4800 160/13 RMK AO2 T00830033 TSNO
94299KAAT AAT20161214220512412/14/16 22:05:31  5-MIN KAAT 150605Z AUTO 18014KT 10SM BKN045 OVC055 08/03 A2980 4500 73 4700 170/14 RMK AO2 T00780033 TSNO
94299KAAT AAT20161214221011712/14/16 22:10:31  5-MIN KAAT 150610Z AUTO 18013KT 10SM OVC045 08/03 A2979 4500 73 4700 170/13 RMK AO2 T00780033 TSNO
94299KAAT AAT20161214221512412/14/16 22:15:31  5-MIN KAAT 150615Z AUTO 18011KT 10SM BKN045 OVC050 08/03 A2979 4500 70 4800 170/11 RMK AO2 T00830033 TSNO
94299KAAT AAT20161214222012412/14/16 22:20:31  5-MIN KAAT 150620Z AUTO 18014KT 10SM BKN045 OVC050 08/03 A2979 4510 70 4800 160/14 RMK AO2 T00830033 TSNO
94299KAAT AAT20161214222511712/14/16 22:25:31  5-MIN KAAT 150625Z AUTO 18013KT 10SM OVC045 08/03 A2978 4510 70 4800 170/13 RMK AO2 T00830033 TSNO
94299KAAT AAT20161214223012412/14/16 22:30:31  5-MIN KAAT 150630Z AUTO 18014KT 10SM BKN045 OVC055 08/03 A2978 4510 70 4800 160/14 RMK AO2 T00830033 TSNO
94299KAAT AAT20161214223512312/14/16 22:35:31  5-MIN KAAT 150635Z AUTO 18013G19KT 10SM OVC045 08/03 A2978 4510 73 4800 160/13G19 RMK AO2 T00780033 TSNO
94299KAAT AAT20161214224011712/14/16 22:40:31  5-MIN KAAT 150640Z AUTO 19011KT 10SM OVC045 08/03 A2978 4510 73 4700 180/11 RMK AO2 T00780033 TSNO
94299KAAT AAT20161214224513012/14/16 22:45:31  5-MIN KAAT 150645Z AUTO 18016G22KT 10SM BKN047 OVC055 08/03 A2978 4510 73 4700 170/16G22 RMK AO2 T00780033 TSNO
94299KAAT AAT20161214225013712/14/16 22:50:31  5-MIN KAAT 150650Z AUTO 18015G22KT 10SM BKN047 OVC060 08/03 A2979 4510 70 4800 170/15G22 RMK AO2 SLP081 T00830033 TSNO
94299KAAT AAT20161214225513112/14/16 22:55:31  5-MIN KAAT 150655Z AUTO 19012KT 10SM BKN047 OVC060 08/03 A2979 4500 70 4800 170/12 RMK AO2 SLP083 T00830033 TSNO
94299KAAT AAT20161214230012412/14/16 23:00:31  5-MIN KAAT 150700Z AUTO 18014KT 10SM BKN046 OVC060 08/03 A2979 4500 70 4800 170/14 RMK AO2 T00830033 TSNO
94299KAAT AAT20161214230512412/14/16 23:05:31  5-MIN KAAT 150705Z AUTO 18014KT 10SM BKN046 OVC060 08/03 A2979 4500 70 4800 170/14 RMK AO2 T00830033 TSNO
94299KAAT AAT20161214231014612/14/16 23:10:31  5-MIN KAAT 150710Z AUTO 19014G19KT 10SM -RA BKN046 OVC055 08/03 A2979 4500 73 4700 170/14G19 RMK AO2 RAB06 P0000 T00780033 TSNO
94299KAAT AAT20161214231514512/14/16 23:15:31  5-MIN KAAT 150715Z AUTO 19013G19KT 10SM BKN045 OVC060 08/03 A2979 4500 70 4800 170/13G19 RMK AO2 RAB06E15 P0000 T00830033 TSNO
94299KAAT AAT20161214232014612/14/16 23:20:31  5-MIN KAAT 150720Z AUTO 19012KT 10SM SCT042 BKN049 OVC060 08/03 A2979 4500 70 4800 180/12 RMK AO2 RAB06E15 P0000 T00830033 TSNO
94299KAAT AAT20161214232514612/14/16 23:25:31  5-MIN KAAT 150725Z AUTO 19011KT 10SM FEW041 BKN048 OVC060 08/03 A2979 4500 70 4800 170/11 RMK AO2 RAB06E15 P0000 T00830033 TSNO
94299KAAT AAT20161214233013912/14/16 23:30:31  5-MIN KAAT 150730Z AUTO 19013KT 10SM SCT045 OVC060 08/03 A2979 4500 70 4800 180/13 RMK AO2 RAB06E15 P0000 T00830033 TSNO
94299KAAT AAT20161214233515312/14/16 23:35:31  5-MIN KAAT 150735Z AUTO 18013KT 10SM -RA FEW042 BKN050 OVC060 08/03 A2979 4500 70 4800 160/13 RMK AO2 RAB06E15B33 P0000 T00830033 TSNO
94299KAAT AAT20161214234014612/14/16 23:40:31  5-MIN KAAT 150740Z AUTO 19009KT 10SM -RA SCT046 OVC055 08/03 A2978 4510 70 4800 170/09 RMK AO2 RAB06E15B33 P0000 T00830033 TSNO
94299KAAT AAT20161214234514512/14/16 23:45:31  5-MIN KAAT 150745Z AUTO 19009KT 10SM BKN047 OVC060 08/03 A2978 4510 70 4800 180/09 RMK AO2 RAB06E15B33E44 P0000 T00830033 TSNO
94299KAAT AAT20161214235016312/14/16 23:50:31  5-MIN KAAT 150750Z AUTO 19009KT 10SM -RA BKN047 OVC060 08/03 A2978 4510 70 4800 180/09 RMK AO2 RAB06E15B33 SLP078 P0000 T00830033 400940000 TSNO
94299KAAT AAT20161214235516312/14/16 23:55:31  5-MIN KAAT 150755Z AUTO 19010KT 10SM -RA BKN048 OVC055 08/03 A2979 4510 70 4800 180/10 RMK AO2 RAB06E15B33 SLP079 P0000 T00830033 400940000 TSNO
94299KAAT AAT20161215000013412/15/16 00:00:31  5-MIN KAAT 150800Z AUTO 20009KT 10SM -RA BKN048 OVC055 08/03 A2978 4510 70 4800 190/09 RMK AO2 P0000 T00830033 TSNO
94299KAAT AAT20161215000513312/15/16 00:05:31  5-MIN KAAT 150805Z AUTO 20016G23KT 10SM -RA OVC048 08/03 A2978 4510 70 4800 190/16G23 RMK AO2 P0000 T00830033 TSNO
94299KAAT AAT20161215001015812/15/16 00:10:31  5-MIN KAAT 150810Z AUTO 18012G27KT 10SM -RA BKN048 OVC055 09/03 A2977 4520 65 4900 170/12G27 RMK AO2 PK WND 19027/0806 P0000 T00890028 TSNO
94299KAAT AAT20161215001515812/15/16 00:15:31  5-MIN KAAT 150815Z AUTO 21013G27KT 10SM -RA BKN046 OVC055 08/03 A2977 4520 68 4800 190/13G27 RMK AO2 PK WND 19027/0806 P0000 T00830028 TSNO
94299KAAT AAT20161215002015412/15/16 00:20:31  5-MIN KAAT 150820Z AUTO 20008KT 10SM SCT046 OVC050 08/03 A2976 4530 68 4800 180/08 RMK AO2 PK WND 19027/0806 RAE16 P0000 T00830028 TSNO
94299KAAT AAT20161215002515412/15/16 00:25:31  5-MIN KAAT 150825Z AUTO 18008KT 10SM BKN047 BKN055 08/03 A2976 4530 70 4800 170/08 RMK AO2 PK WND 19027/0806 RAE16 P0000 T00780028 TSNO
94299KAAT AAT20161215003015412/15/16 00:30:31  5-MIN KAAT 150830Z AUTO 19007KT 10SM BKN048 BKN055 08/03 A2976 4530 70 4800 170/07 RMK AO2 PK WND 19027/0806 RAE16 P0000 T00780028 TSNO
94299KAAT AAT20161215003515412/15/16 00:35:31  5-MIN KAAT 150835Z AUTO 17006KT 10SM BKN048 BKN055 08/03 A2976 4530 70 4800 150/06 RMK AO2 PK WND 19027/0806 RAE16 P0000 T00780028 TSNO
94299KAAT AAT20161215004014712/15/16 00:40:31  5-MIN KAAT 150840Z AUTO VRB03KT 10SM BKN050 08/03 A2976 4530 70 4800 VRB/03 RMK AO2 PK WND 19027/0806 RAE16 P0000 T00780028 TSNO
94299KAAT AAT20161215004514712/15/16 00:45:31  5-MIN KAAT 150845Z AUTO 20006KT 10SM BKN050 08/03 A2976 4530 70 4800 180/06 RMK AO2 PK WND 19027/0806 RAE16 P0000 T00780028 TSNO
94299KAAT AAT20161215005017312/15/16 00:50:31  5-MIN KAAT 150850Z AUTO 21007KT 10SM BKN050 BKN060 08/02 A2977 4520 65 4800 190/07 RMK AO2 PK WND 19027/0806 RAE16 SLP068 P0000 60000 T00830022 58005 TSNO
94299KAAT AAT20161215005517312/15/16 00:55:31  5-MIN KAAT 150855Z AUTO 21010KT 10SM BKN050 OVC060 08/03 A2977 4520 68 4800 190/10 RMK AO2 PK WND 19027/0806 RAE16 SLP069 P0000 60000 T00830028 58005 TSNO
94299KAAT AAT20161215010012412/15/16 01:00:31  5-MIN KAAT 150900Z AUTO 20009KT 10SM BKN049 OVC060 09/02 A2977 4520 63 4900 190/09 RMK AO2 T00890022 TSNO
94299KAAT AAT20161215010512412/15/16 01:05:31  5-MIN KAAT 150905Z AUTO 18011KT 10SM BKN049 OVC060 09/02 A2977 4520 63 4900 170/11 RMK AO2 T00890022 TSNO
94299KAAT AAT20161215011012312/15/16 01:10:31  5-MIN KAAT 150910Z AUTO 19010G19KT 10SM OVC049 09/03 A2977 4520 65 4900 180/10G19 RMK AO2 T00890028 TSNO
94299KAAT AAT20161215011513012/15/16 01:15:31  5-MIN KAAT 150915Z AUTO 18011G19KT 10SM BKN047 OVC060 09/02 A2977 4520 60 5000 160/11G19 RMK AO2 T00940022 TSNO
94299KAAT AAT20161215012013012/15/16 01:20:31  5-MIN KAAT 150920Z AUTO 22010G17KT 10SM BKN044 OVC055 09/03 A2977 4520 65 4900 210/10G17 RMK AO2 T00890028 TSNO
94299KAAT AAT20161215012512312/15/16 01:25:31  5-MIN KAAT 150925Z AUTO 20009G16KT 10SM OVC046 09/03 A2977 4520 65 4900 190/09G16 RMK AO2 T00890028 TSNO
94299KAAT AAT20161215013013312/15/16 01:30:31  5-MIN KAAT 150930Z AUTO 20009KT 10SM -RA OVC046 08/03 A2976 4530 70 4800 180/09 RMK AO2 RAB28 P0000 T00830033 TSNO
94299KAAT AAT20161215013513312/15/16 01:35:31  5-MIN KAAT 150935Z AUTO 21009KT 10SM -RA OVC045 08/03 A2976 4530 73 4800 190/09 RMK AO2 RAB28 P0000 T00780033 TSNO
94299KAAT AAT20161215014013312/15/16 01:40:31  5-MIN KAAT 150940Z AUTO 21008KT 10SM -RA OVC045 08/04 A2976 4530 76 4800 200/08 RMK AO2 RAB28 P0000 T00780039 TSNO
94299KAAT AAT20161215014513312/15/16 01:45:31  5-MIN KAAT 150945Z AUTO 22008KT 10SM -RA OVC043 08/04 A2976 4530 76 4800 200/08 RMK AO2 RAB28 P0000 T00780039 TSNO
94299KAAT AAT20161215015014012/15/16 01:50:31  5-MIN KAAT 150950Z AUTO 21007KT 10SM -RA OVC043 08/04 A2976 4530 76 4800 200/07 RMK AO2 RAB28 SLP068 P0000 T00780039 TSNO
94299KAAT AAT20161215015514012/15/16 01:55:31  5-MIN KAAT 150955Z AUTO 20008KT 10SM -RA OVC043 08/04 A2976 4530 76 4800 190/08 RMK AO2 RAB28 SLP067 P0000 T00780039 TSNO
94299KAAT AAT20161215020012712/15/16 02:00:31  5-MIN KAAT 151000Z AUTO 21006KT 10SM -RA OVC043 07/04 A2975 4540 79 4700 200/06 RMK AO2 P0000 T00720039 TSNO
94299KAAT AAT20161215020512712/15/16 02:05:31  5-MIN KAAT 151005Z AUTO 17010KT 10SM -RA OVC044 07/04 A2974 4550 79 4700 160/10 RMK AO2 P0000 T00720039 TSNO
94299KAAT AAT20161215021013312/15/16 02:10:31  5-MIN KAAT 151010Z AUTO 18012G17KT 10SM -RA OVC046 07/04 A2975 4540 79 4700 160/12G17 RMK AO2 P0000 T00720039 TSNO
94299KAAT AAT20161215021512712/15/16 02:15:31  5-MIN KAAT 151015Z AUTO 18015KT 10SM -RA OVC048 08/04 A2975 4540 76 4800 160/15 RMK AO2 P0000 T00780039 TSNO
94299KAAT AAT20161215022013312/15/16 02:20:31  5-MIN KAAT 151020Z AUTO 18014G20KT 10SM -RA OVC048 08/04 A2975 4540 76 4800 160/14G20 RMK AO2 P0001 T00780039 TSNO
94299KAAT AAT20161215022513312/15/16 02:25:31  5-MIN KAAT 151025Z AUTO 17015G21KT 10SM -RA OVC047 08/03 A2974 4550 73 4800 160/15G21 RMK AO2 P0001 T00780033 TSNO
94299KAAT AAT20161215023012712/15/16 02:30:31  5-MIN KAAT 151030Z AUTO 17015KT 10SM -RA OVC047 08/03 A2974 4550 70 4900 160/15 RMK AO2 P0001 T00830033 TSNO
94299KAAT AAT20161215023512712/15/16 02:35:31  5-MIN KAAT 151035Z AUTO 18015KT 10SM -RA OVC047 08/04 A2974 4550 76 4800 160/15 RMK AO2 P0001 T00780039 TSNO
94299KAAT AAT20161215024013312/15/16 02:40:31  5-MIN KAAT 151040Z AUTO 18019G24KT 10SM -RA OVC047 08/04 A2974 4550 76 4800 160/19G24 RMK AO2 P0001 T00780039 TSNO
94299KAAT AAT20161215024513312/15/16 02:45:31  5-MIN KAAT 151045Z AUTO 18017G25KT 10SM -RA OVC047 08/04 A2974 4550 73 4900 170/17G25 RMK AO2 P0001 T00830039 TSNO
94299KAAT AAT20161215025016512/15/16 02:50:31  5-MIN KAAT 151050Z AUTO 18017G26KT 10SM -RA FEW041 OVC047 08/04 A2974 4550 76 4800 170/17G26 RMK AO2 PK WND 18026/1046 SLP060 P0001 T00780039 TSNO
94299KAAT AAT20161215025516512/15/16 02:55:31  5-MIN KAAT 151055Z AUTO 19015G26KT 10SM -RA FEW041 OVC047 08/04 A2975 4540 76 4800 170/15G26 RMK AO2 PK WND 18026/1046 SLP061 P0001 T00780039 TSNO
94299KAAT AAT20161215030014012/15/16 03:00:31  5-MIN KAAT 151100Z AUTO 19013G22KT 10SM -RA FEW038 OVC045 07/04 A2974 4550 79 4700 170/13G22 RMK AO2 P0000 T00720039 TSNO
94299KAAT AAT20161215030512712/15/16 03:05:31  5-MIN KAAT 151105Z AUTO 19012KT 10SM -RA OVC043 07/04 A2974 4550 79 4700 170/12 RMK AO2 P0000 T00720039 TSNO
94299KAAT AAT20161215031013412/15/16 03:10:31  5-MIN KAAT 151110Z AUTO 20011KT 10SM -RA SCT037 OVC043 07/04 A2974 4540 82 4700 190/11 RMK AO2 P0001 T00720044 TSNO
94299KAAT AAT20161215031514012/15/16 03:15:31  5-MIN KAAT 151115Z AUTO 20014G21KT 10SM -RA SCT035 OVC044 07/04 A2974 4550 79 4700 190/14G21 RMK AO2 P0001 T00720039 TSNO
94299KAAT AAT20161215032014012/15/16 03:20:31  5-MIN KAAT 151120Z AUTO 20012G21KT 10SM -RA BKN035 OVC042 08/04 A2974 4550 76 4800 190/12G21 RMK AO2 P0001 T00780039 TSNO
94299KAAT AAT20161215032512712/15/16 03:25:31  5-MIN KAAT 151125Z AUTO 22013KT 10SM -RA OVC037 08/04 A2974 4550 76 4800 200/13 RMK AO2 P0001 T00780039 TSNO
94299KAAT AAT20161215033013412/15/16 03:30:31  5-MIN KAAT 151130Z AUTO 20009KT 10SM -RA BKN034 OVC041 08/04 A2974 4550 76 4800 190/09 RMK AO2 P0001 T00780039 TSNO
94299KAAT AAT20161215033512712/15/16 03:35:31  5-MIN KAAT 151135Z AUTO 21008KT 10SM -RA OVC036 07/04 A2974 4550 79 4700 190/08 RMK AO2 P0001 T00720039 TSNO
94299KAAT AAT20161215034012712/15/16 03:40:31  5-MIN KAAT 151140Z AUTO 20007KT 10SM -RA OVC036 07/04 A2973 4550 82 4700 180/07 RMK AO2 P0001 T00670039 TSNO
94299KAAT AAT20161215034512712/15/16 03:45:31  5-MIN KAAT 151145Z AUTO 18010KT 10SM -RA OVC036 07/04 A2973 4560 79 4700 170/10 RMK AO2 P0001 T00720039 TSNO
94299KAAT AAT20161215035016412/15/16 03:50:31  5-MIN KAAT 151150Z AUTO 19009KT 10SM -RA OVC036 07/04 A2973 4560 79 4700 180/09 RMK AO2 SLP054 P0001 60002 70010 T00720039 10094 20067 58005 TSNO
94299KAAT AAT20161215035516412/15/16 03:55:31  5-MIN KAAT 151155Z AUTO 22007KT 10SM -RA OVC036 07/04 A2973 4560 79 4700 200/07 RMK AO2 SLP055 P0001 60002 70010 T00720039 10094 20067 58014 TSNO
94299KAAT AAT20161215040012712/15/16 04:00:31  5-MIN KAAT 151200Z AUTO 21008KT 10SM -RA OVC036 07/04 A2973 4560 79 4700 190/08 RMK AO2 P0000 T00720039 TSNO
94299KAAT AAT20161215040512712/15/16 04:05:31  5-MIN KAAT 151205Z AUTO 20009KT 10SM -RA OVC036 07/04 A2972 4560 79 4700 190/09 RMK AO2 P0001 T00720039 TSNO
94299KAAT AAT20161215041012712/15/16 04:10:31  5-MIN KAAT 151210Z AUTO 21006KT 10SM -RA OVC036 07/04 A2972 4560 79 4700 200/06 RMK AO2 P0001 T00720039 TSNO
94299KAAT AAT20161215041512912/15/16 04:15:31  5-MIN KAAT 151215Z AUTO 22009KT 10SM OVC036 07/04 A2973 4560 79 4700 210/09 RMK AO2 RAE14 P0001 T00720039 TSNO
94299KAAT AAT20161215042012912/15/16 04:20:31  5-MIN KAAT 151220Z AUTO 21009KT 10SM OVC036 07/04 A2973 4560 79 4700 190/09 RMK AO2 RAE14 P0001 T00720039 TSNO
94299KAAT AAT20161215042515012/15/16 04:25:31  5-MIN KAAT 151225Z AUTO 22008KT 190V270 10SM -RA BKN034 OVC042 07/04 A2973 4560 79 4700 200/08 180V260 RMK AO2 P0001 T00720039 TSNO
94299KAAT AAT20161215043013312/15/16 04:30:31  5-MIN KAAT 151230Z AUTO 19012G16KT 10SM -RA OVC038 07/04 A2973 4560 79 4700 180/12G16 RMK AO2 P0001 T00720039 TSNO
94299KAAT AAT20161215043512712/15/16 04:35:31  5-MIN KAAT 151235Z AUTO 21011KT 10SM -RA OVC038 08/04 A2972 4560 76 4800 200/11 RMK AO2 P0001 T00780039 TSNO
94299KAAT AAT20161215044012712/15/16 04:40:31  5-MIN KAAT 151240Z AUTO 20011KT 10SM -RA OVC037 08/04 A2972 4560 76 4800 190/11 RMK AO2 P0001 T00780039 TSNO
94299KAAT AAT20161215044512712/15/16 04:45:31  5-MIN KAAT 151245Z AUTO 20008KT 10SM -RA OVC036 07/04 A2972 4570 82 4800 180/08 RMK AO2 P0001 T00720044 TSNO
94299KAAT AAT20161215045013412/15/16 04:50:31  5-MIN KAAT 151250Z AUTO 20008KT 10SM -RA OVC036 07/04 A2972 4560 86 4700 180/08 RMK AO2 SLP057 P0001 T00670044 TSNO
94299KAAT AAT20161215045513412/15/16 04:55:31  5-MIN KAAT 151255Z AUTO 20006KT 10SM -RA OVC036 07/04 A2972 4570 86 4700 190/06 RMK AO2 SLP055 P0001 T00670044 TSNO
94299KAAT AAT20161215050012712/15/16 05:00:31  5-MIN KAAT 151300Z AUTO 19007KT 10SM -RA OVC034 07/04 A2972 4570 86 4700 180/07 RMK AO2 P0000 T00670044 TSNO
94299KAAT AAT20161215050512912/15/16 05:05:31  5-MIN KAAT 151305Z AUTO 20008KT 10SM OVC034 07/04 A2972 4570 86 4700 190/08 RMK AO2 RAE04 P0000 T00670044 TSNO
94299KAAT AAT20161215051012912/15/16 05:10:31  5-MIN KAAT 151310Z AUTO 20007KT 10SM OVC034 07/04 A2972 4570 82 4700 180/07 RMK AO2 RAE04 P0000 T00670039 TSNO
94299KAAT AAT20161215051512912/15/16 05:15:31  5-MIN KAAT 151315Z AUTO 22008KT 10SM OVC034 07/04 A2972 4560 82 4700 210/08 RMK AO2 RAE04 P0000 T00670039 TSNO
94299KAAT AAT20161215052012912/15/16 05:20:31  5-MIN KAAT 151320Z AUTO 22008KT 10SM OVC034 07/04 A2972 4560 82 4700 200/08 RMK AO2 RAE04 P0000 T00670039 TSNO
94299KAAT AAT20161215052512912/15/16 05:25:31  5-MIN KAAT 151325Z AUTO 21009KT 10SM OVC033 07/04 A2973 4560 82 4700 200/09 RMK AO2 RAE04 P0000 T00670039 TSNO
94299KAAT AAT20161215053012912/15/16 05:30:31  5-MIN KAAT 151330Z AUTO 19008KT 10SM OVC033 07/04 A2973 4560 86 4700 180/08 RMK AO2 RAE04 P0000 T00670044 TSNO
94299KAAT AAT20161215053512912/15/16 05:35:31  5-MIN KAAT 151335Z AUTO 20009KT 10SM OVC033 07/04 A2973 4550 86 4700 180/09 RMK AO2 RAE04 P0000 T00670044 TSNO
94299KAAT AAT20161215054012912/15/16 05:40:31  5-MIN KAAT 151340Z AUTO 20008KT 10SM OVC033 07/04 A2973 4560 86 4700 180/08 RMK AO2 RAE04 P0000 T00670044 TSNO
94299KAAT AAT20161215054513612/15/16 05:45:31  5-MIN KAAT 151345Z AUTO 20008KT 10SM BKN033 OVC040 07/04 A2973 4560 86 4700 180/08 RMK AO2 RAE04 P0000 T00670044 TSNO
94299KAAT AAT20161215055014312/15/16 05:50:31  5-MIN KAAT 151350Z AUTO 20006KT 10SM BKN030 OVC037 07/04 A2973 4560 86 4700 190/06 RMK AO2 RAE04 SLP059 P0000 T00670044 TSNO
94299KAAT AAT20161215055514312/15/16 05:55:31  5-MIN KAAT 151355Z AUTO 20006KT 10SM BKN030 OVC037 07/04 A2974 4550 86 4700 190/06 RMK AO2 RAE04 SLP060 P0000 T00670044 TSNO
94299KAAT AAT20161215060012412/15/16 06:00:31  5-MIN KAAT 151400Z AUTO 21006KT 10SM BKN030 OVC035 07/04 A2974 4550 86 4700 200/06 RMK AO2 T00670044 TSNO
94299KAAT AAT20161215060512412/15/16 06:05:31  5-MIN KAAT 151405Z AUTO 21005KT 10SM BKN030 OVC036 07/04 A2974 4550 86 4700 190/05 RMK AO2 T00670044 TSNO
94299KAAT AAT20161215061011712/15/16 06:10:31  5-MIN KAAT 151410Z AUTO 21005KT 10SM OVC032 07/04 A2974 4550 86 4700 200/05 RMK AO2 T00670044 TSNO
94299KAAT AAT20161215061512412/15/16 06:15:31  5-MIN KAAT 151415Z AUTO 20004KT 10SM BKN032 OVC039 06/04 A2974 4550 89 4600 180/04 RMK AO2 T00610044 TSNO
94299KAAT AAT20161215062012412/15/16 06:20:31  5-MIN KAAT 151420Z AUTO 23003KT 10SM BKN032 OVC042 06/04 A2974 4540 89 4600 210/03 RMK AO2 T00610044 TSNO
94299KAAT AAT20161215062512412/15/16 06:25:31  5-MIN KAAT 151425Z AUTO 24003KT 10SM BKN032 OVC042 06/04 A2974 4550 89 4600 220/03 RMK AO2 T00610044 TSNO
94299KAAT AAT20161215063012412/15/16 06:30:31  5-MIN KAAT 151430Z AUTO 24005KT 10SM BKN032 OVC042 06/04 A2975 4540 89 4600 220/05 RMK AO2 T00610044 TSNO
94299KAAT AAT20161215063512412/15/16 06:35:31  5-MIN KAAT 151435Z AUTO 23006KT 10SM BKN034 OVC044 07/04 A2975 4540 86 4700 220/06 RMK AO2 T00670044 TSNO
94299KAAT AAT20161215064012412/15/16 06:40:31  5-MIN KAAT 151440Z AUTO 24007KT 10SM BKN032 OVC046 07/04 A2975 4540 82 4700 220/07 RMK AO2 T00720044 TSNO
94299KAAT AAT20161215064512412/15/16 06:45:31  5-MIN KAAT 151445Z AUTO 24007KT 10SM BKN032 OVC048 07/04 A2975 4540 82 4700 220/07 RMK AO2 T00720044 TSNO
94299KAAT AAT20161215065014312/15/16 06:50:31  5-MIN KAAT 151450Z AUTO 25006KT 10SM BKN031 OVC045 07/04 A2975 4540 82 4700 230/06 RMK AO2 SLP065 60001 T00720044 58014 TSNO
94299KAAT AAT20161215065514312/15/16 06:55:31  5-MIN KAAT 151455Z AUTO 24007KT 10SM BKN031 OVC049 07/04 A2975 4540 86 4600 220/07 RMK AO2 SLP068 60001 T00670044 53008 TSNO
94299KAAT AAT20161215070012412/15/16 07:00:31  5-MIN KAAT 151500Z AUTO 23008KT 10SM BKN031 OVC055 07/04 A2975 4540 86 4600 220/08 RMK AO2 T00670044 TSNO
94299KAAT AAT20161215070512412/15/16 07:05:31  5-MIN KAAT 151505Z AUTO 24006KT 10SM BKN031 OVC055 07/04 A2976 4530 82 4700 220/06 RMK AO2 T00720044 TSNO
94299KAAT AAT20161215071013112/15/16 07:10:31  5-MIN KAAT 151510Z AUTO 24006KT 10SM BKN031 BKN038 OVC050 07/04 A2976 4530 86 4600 230/06 RMK AO2 T00670044 TSNO
94299KAAT AAT20161215071513112/15/16 07:15:31  5-MIN KAAT 151515Z AUTO 23005KT 10SM BKN031 BKN042 OVC055 07/04 A2976 4530 86 4600 220/05 RMK AO2 T00670044 TSNO
94299KAAT AAT20161215072013112/15/16 07:20:31  5-MIN KAAT 151520Z AUTO 24006KT 10SM BKN031 BKN042 OVC050 07/04 A2976 4530 86 4600 230/06 RMK AO2 T00670044 TSNO
94299KAAT AAT20161215072513112/15/16 07:25:31  5-MIN KAAT 151525Z AUTO 23005KT 10SM BKN031 BKN041 OVC050 07/04 A2976 4530 86 4600 220/05 RMK AO2 T00670044 TSNO
94299KAAT AAT20161215073013112/15/16 07:30:31  5-MIN KAAT 151530Z AUTO 22004KT 10SM SCT031 BKN039 OVC050 07/04 A2976 4530 86 4600 210/04 RMK AO2 T00670044 TSNO
94299KAAT AAT20161215073514712/15/16 07:35:31  5-MIN KAAT 151535Z AUTO 20003KT 10SM -RA SCT031 SCT039 OVC050 07/04 A2976 4530 86 4600 190/03 RMK AO2 RAB33 P0000 T00670044 TSNO
94299KAAT AAT20161215074014712/15/16 07:40:31  5-MIN KAAT 151540Z AUTO 19003KT 10SM -RA FEW031 SCT041 OVC050 07/04 A2976 4530 86 4600 180/03 RMK AO2 RAB33 P0000 T00670044 TSNO
94299KAAT AAT20161215074514712/15/16 07:45:31  5-MIN KAAT 151545Z AUTO 00000KT 10SM -RA FEW031 SCT041 OVC050 07/04 A2976 4530 86 4600 000/00 RMK AO2 RAB33 P0000 T00670044 TSNO
94299KAAT AAT20161215075015412/15/16 07:50:31  5-MIN KAAT 151550Z AUTO VRB04KT 10SM -RA FEW031 SCT041 OVC050 07/04 A2976 4530 86 4600 VRB/04 RMK AO2 RAB33 SLP071 P0000 T00670044 TSNO
94299KAAT AAT20161215075515312/15/16 07:55:31  5-MIN KAAT 151555Z AUTO 22007KT 10SM FEW031 FEW041 OVC050 07/04 A2976 4530 86 4600 210/07 RMK AO2 RAB33E54 SLP071 P0000 T00670044 TSNO
94299KAAT AAT20161215080014212/15/16 08:00:31  5-MIN KAAT 151600Z AUTO 21006KT 10SM -RA FEW031 OVC050 07/04 A2977 4520 86 4600 200/06 RMK AO2 RAB1558 P0000 T00670044 TSNO
94299KAAT AAT20161215080514212/15/16 08:05:31  5-MIN KAAT 151605Z AUTO 22008KT 10SM -RA FEW031 OVC050 07/04 A2977 4520 82 4600 210/08 RMK AO2 RAB1558 P0000 T00670039 TSNO
94299KAAT AAT20161215081014112/15/16 08:10:31  5-MIN KAAT 151610Z AUTO 22005KT 10SM SCT028 OVC046 07/04 A2977 4520 86 4600 200/05 RMK AO2 RAB1558E09 P0000 T00670044 TSNO
94299KAAT AAT20161215081514112/15/16 08:15:31  5-MIN KAAT 151615Z AUTO 22004KT 10SM SCT028 OVC044 07/04 A2977 4520 82 4600 200/04 RMK AO2 RAB1558E09 P0000 T00670039 TSNO
94299KAAT AAT20161215082014112/15/16 08:20:31  5-MIN KAAT 151620Z AUTO 22003KT 10SM BKN030 OVC042 07/04 A2977 4520 86 4600 210/03 RMK AO2 RAB1558E09 P0000 T00670044 TSNO
94299KAAT AAT20161215082514112/15/16 08:25:31  5-MIN KAAT 151625Z AUTO 18003KT 10SM BKN030 OVC038 06/04 A2977 4520 89 4600 160/03 RMK AO2 RAB1558E09 P0000 T00610044 TSNO
94299KAAT AAT20161215083014112/15/16 08:30:31  5-MIN KAAT 151630Z AUTO 17003KT 10SM BKN028 OVC036 06/04 A2977 4520 89 4600 160/03 RMK AO2 RAB1558E09 P0000 T00610044 TSNO
94299KAAT AAT20161215083514812/15/16 08:35:31  5-MIN KAAT 151635Z AUTO 17003KT 10SM -RA BKN028 OVC036 06/04 A2977 4520 89 4600 150/03 RMK AO2 RAB1558E09B35 P0000 T00610044 TSNO
94299KAAT AAT20161215084014812/15/16 08:40:31  5-MIN KAAT 151640Z AUTO 17004KT 10SM -RA BKN028 OVC036 06/04 A2978 4510 89 4600 160/04 RMK AO2 RAB1558E09B35 P0000 T00610044 TSNO
94299KAAT AAT20161215084514812/15/16 08:45:31  5-MIN KAAT 151645Z AUTO 18006KT 10SM -RA BKN028 OVC035 06/04 A2978 4510 89 4600 160/06 RMK AO2 RAB1558E09B35 P0000 T00610044 TSNO
94299KAAT AAT20161215085015512/15/16 08:50:31  5-MIN KAAT 151650Z AUTO 19005KT 10SM -RA BKN026 OVC035 06/04 A2978 4510 86 4600 170/05 RMK AO2 RAB1558E09B35 SLP076 P0000 T00610039 TSNO
94299KAAT AAT20161215085515412/15/16 08:55:31  5-MIN KAAT 151655Z AUTO 19004KT 10SM BKN025 OVC032 06/04 A2978 4510 89 4600 180/04 RMK AO2 RAB1558E09B35E52 SLP074 P0000 T00610044 TSNO
94299KAAT AAT20161215090012412/15/16 09:00:31  5-MIN KAAT 151700Z AUTO 18004KT 10SM BKN025 OVC032 06/04 A2978 4510 89 4600 170/04 RMK AO2 T00610044 TSNO
94299KAAT AAT20161215090514012/15/16 09:05:31  5-MIN KAAT 151705Z AUTO 17007KT 10SM -RA BKN025 OVC031 06/04 A2978 4510 92 4500 160/07 RMK AO2 RAB04 P0000 T00560044 TSNO
94299KAAT AAT20161215091014012/15/16 09:10:31  5-MIN KAAT 151710Z AUTO 18005KT 10SM -RA BKN025 OVC030 06/04 A2978 4510 89 4500 170/05 RMK AO2 RAB04 P0000 T00560039 TSNO
94299KAAT AAT20161215091514012/15/16 09:15:31  5-MIN KAAT 151715Z AUTO 20005KT 10SM -RA BKN025 OVC030 06/04 A2978 4510 89 4500 190/05 RMK AO2 RAB04 P0000 T00560039 TSNO
94299KAAT AAT20161215092014712/15/16 09:20:31  5-MIN KAAT 151720Z AUTO 20004KT 10SM -RA BKN024 BKN028 OVC032 06/04 A2978 4510 92 4500 180/04 RMK AO2 RAB04 P0000 T00560044 TSNO
94299KAAT AAT20161215092514012/15/16 09:25:31  5-MIN KAAT 151725Z AUTO 19004KT 10SM -RA BKN024 OVC032 06/04 A2978 4510 92 4500 180/04 RMK AO2 RAB04 P0001 T00560044 TSNO
94299KAAT AAT20161215093014012/15/16 09:30:31  5-MIN KAAT 151730Z AUTO 18003KT 10SM -RA BKN024 OVC030 06/04 A2979 4510 92 4500 170/03 RMK AO2 RAB04 P0001 T00560044 TSNO
94299KAAT AAT20161215093514012/15/16 09:35:31  5-MIN KAAT 151735Z AUTO 00000KT 10SM -RA BKN024 OVC030 06/04 A2979 4510 92 4500 000/00 RMK AO2 RAB04 P0001 T00560044 TSNO
94299KAAT AAT20161215094014012/15/16 09:40:31  5-MIN KAAT 151740Z AUTO 00000KT 10SM -RA FEW022 OVC029 06/04 A2978 4510 92 4500 000/00 RMK AO2 RAB04 P0001 T00560044 TSNO
94299KAAT AAT20161215094513312/15/16 09:45:31  5-MIN KAAT 151745Z AUTO 16004KT 10SM -RA OVC032 06/04 A2978 4510 92 4500 150/04 RMK AO2 RAB04 P0002 T00560044 TSNO
94299KAAT AAT20161215095017112/15/16 09:50:31  5-MIN KAAT 151750Z AUTO 16005KT 10SM -RA SCT027 OVC032 06/04 A2978 4510 92 4500 140/05 RMK AO2 RAB04 SLP077 P0002 60003 T00560044 10078 20056 53008 TSNO
94299KAAT AAT20161215095516412/15/16 09:55:31  5-MIN KAAT 151755Z AUTO 16006KT 10SM -RA OVC029 06/04 A2978 4510 92 4500 150/06 RMK AO2 RAB04 SLP076 P0002 60003 T00560044 10078 20056 51009 TSNO
94299KAAT AAT20161215100012712/15/16 10:00:31  5-MIN KAAT 151800Z AUTO 17007KT 10SM -RA OVC029 06/04 A2978 4510 92 4500 160/07 RMK AO2 P0000 T00560044 TSNO
94299KAAT AAT20161215100513312/15/16 10:05:31  5-MIN KAAT 151805Z AUTO 19007KT 9SM -RA SCT025 OVC029 06/04 A2978 4510 92 4500 170/07 RMK AO2 P0001 T00560044 TSNO
94299KAAT AAT20161215101013312/15/16 10:10:31  5-MIN KAAT 151810Z AUTO 19007KT 9SM -RA SCT023 OVC029 06/04 A2978 4510 92 4500 170/07 RMK AO2 P0001 T00560044 TSNO
94299KAAT AAT20161215101513312/15/16 10:15:31  5-MIN KAAT 151815Z AUTO 18006KT 9SM -RA SCT023 OVC029 06/04 A2978 4510 92 4500 170/06 RMK AO2 P0001 T00560044 TSNO
94299KAAT AAT20161215102013312/15/16 10:20:31  5-MIN KAAT 151820Z AUTO 19005KT 9SM -RA SCT023 OVC029 06/04 A2978 4510 92 4500 170/05 RMK AO2 P0002 T00560044 TSNO
94299KAAT AAT20161215102513312/15/16 10:25:31  5-MIN KAAT 151825Z AUTO 18005KT 9SM -RA FEW023 OVC031 06/05 A2978 4510 96 4500 170/05 RMK AO2 P0002 T00560050 TSNO
94299KAAT AAT20161215103013312/15/16 10:30:31  5-MIN KAAT 151830Z AUTO 18006KT 9SM -RA FEW023 OVC033 06/05 A2977 4520 96 4500 160/06 RMK AO2 P0003 T00560050 TSNO
94299KAAT AAT20161215103513412/15/16 10:35:31  5-MIN KAAT 151835Z AUTO 17006KT 10SM -RA FEW020 OVC033 06/04 A2977 4520 92 4500 150/06 RMK AO2 P0003 T00560044 TSNO
94299KAAT AAT20161215104012712/15/16 10:40:31  5-MIN KAAT 151840Z AUTO 17008KT 10SM -RA OVC035 06/04 A2977 4520 92 4500 160/08 RMK AO2 P0003 T00560044 TSNO
94299KAAT AAT20161215104512712/15/16 10:45:31  5-MIN KAAT 151845Z AUTO 17007KT 10SM -RA OVC037 06/04 A2977 4520 89 4600 150/07 RMK AO2 P0004 T00610044 TSNO
94299KAAT AAT20161215105013412/15/16 10:50:31  5-MIN KAAT 151850Z AUTO 17006KT 10SM -RA OVC039 06/04 A2977 4520 89 4600 160/06 RMK AO2 SLP072 P0004 T00610044 TSNO
94299KAAT AAT20161215105514112/15/16 10:55:31  5-MIN KAAT 151855Z AUTO 17006KT 10SM -RA FEW030 OVC039 06/04 A2977 4520 89 4600 160/06 RMK AO2 SLP071 P0004 T00610044 TSNO
94299KAAT AAT20161215110014112/15/16 11:00:31  5-MIN KAAT 151900Z AUTO 16009KT 10SM -RA FEW030 BKN041 OVC050 06/05 A2976 4530 93 4600 150/09 RMK AO2 P0000 T00610050 TSNO
94299KAAT AAT20161215110514112/15/16 11:05:31  5-MIN KAAT 151905Z AUTO 16010KT 10SM -RA BKN045 OVC055 06/05 A2974 4550 93 4600 150/10 RMK AO2 PRESFR P0000 T00610050 TSNO
94299KAAT AAT20161215111013412/15/16 11:10:31  5-MIN KAAT 151910Z AUTO 17011KT 10SM -RA BKN047 OVC060 06/04 A2975 4540 89 4600 150/11 RMK AO2 P0000 T00610044 TSNO
94299KAAT AAT20161215111514112/15/16 11:15:31  5-MIN KAAT 151915Z AUTO 17011KT 10SM -RA FEW038 BKN049 OVC060 06/04 A2974 4550 89 4600 150/11 RMK AO2 P0000 T00610044 TSNO
94299KAAT AAT20161215112014112/15/16 11:20:31  5-MIN KAAT 151920Z AUTO 17012KT 10SM -RA FEW038 BKN049 OVC060 06/04 A2974 4540 89 4600 150/12 RMK AO2 P0000 T00610044 TSNO
94299KAAT AAT20161215112513412/15/16 11:25:31  5-MIN KAAT 151925Z AUTO 17013KT 10SM -RA BKN055 OVC070 06/04 A2974 4550 89 4600 150/13 RMK AO2 P0000 T00610044 TSNO
94299KAAT AAT20161215113014312/15/16 11:30:31  5-MIN KAAT 151930Z AUTO 16012KT 10SM FEW028 BKN050 OVC060 06/04 A2974 4550 89 4600 150/12 RMK AO2 RAE29 P0000 T00610044 TSNO
94299KAAT AAT20161215113514312/15/16 11:35:31  5-MIN KAAT 151935Z AUTO 17010KT 10SM FEW030 BKN050 OVC065 06/04 A2974 4550 89 4600 150/10 RMK AO2 RAE29 P0000 T00610044 TSNO
94299KAAT AAT20161215114013612/15/16 11:40:31  5-MIN KAAT 151940Z AUTO 17011KT 10SM BKN055 OVC065 06/04 A2974 4550 89 4600 150/11 RMK AO2 RAE29 P0000 T00610044 TSNO
94299KAAT AAT20161215114513612/15/16 11:45:31  5-MIN KAAT 151945Z AUTO 16012KT 10SM BKN050 OVC065 06/04 A2974 4550 89 4600 150/12 RMK AO2 RAE29 P0000 T00610044 TSNO
94299KAAT AAT20161215115014312/15/16 11:50:31  5-MIN KAAT 151950Z AUTO 16013KT 10SM BKN050 OVC065 06/04 A2973 4550 89 4600 150/13 RMK AO2 RAE29 SLP059 P0000 T00610044 TSNO
94299KAAT AAT20161215115514312/15/16 11:55:31  5-MIN KAAT 151955Z AUTO 16012KT 10SM FEW039 OVC055 06/04 A2973 4560 86 4600 150/12 RMK AO2 RAE29 SLP057 P0000 T00610039 TSNO
94299KAAT AAT20161215120011712/15/16 12:00:31  5-MIN KAAT 152000Z AUTO 16009KT 10SM OVC055 06/04 A2973 4560 89 4600 140/09 RMK AO2 T00610044 TSNO
94299KAAT AAT20161215120512412/15/16 12:05:31  5-MIN KAAT 152005Z AUTO 16009KT 10SM BKN055 OVC070 06/04 A2973 4560 89 4600 140/09 RMK AO2 T00610044 TSNO
94299KAAT AAT20161215121012412/15/16 12:10:31  5-MIN KAAT 152010Z AUTO 16010KT 10SM BKN060 OVC070 07/04 A2972 4570 86 4700 140/10 RMK AO2 T00670044 TSNO
94299KAAT AAT20161215121512412/15/16 12:15:31  5-MIN KAAT 152015Z AUTO 16010KT 10SM BKN055 OVC070 07/04 A2972 4570 86 4700 140/10 RMK AO2 T00670044 TSNO
94299KAAT AAT20161215122013112/15/16 12:20:31  5-MIN KAAT 152020Z AUTO 16006KT 10SM SCT029 BKN060 OVC070 07/04 A2972 4570 86 4700 140/06 RMK AO2 T00670044 TSNO
94299KAAT AAT20161215122513112/15/16 12:25:31  5-MIN KAAT 152025Z AUTO 16006KT 10SM SCT029 BKN060 OVC070 07/04 A2972 4570 86 4700 140/06 RMK AO2 T00670044 TSNO
94299KAAT AAT20161215123013112/15/16 12:30:31  5-MIN KAAT 152030Z AUTO 16008KT 10SM SCT028 BKN050 OVC065 07/04 A2971 4570 86 4700 150/08 RMK AO2 T00670044 TSNO
94299KAAT AAT20161215123513112/15/16 12:35:31  5-MIN KAAT 152035Z AUTO 16008KT 10SM BKN028 BKN036 OVC065 07/04 A2971 4570 86 4700 150/08 RMK AO2 T00670044 TSNO
94299KAAT AAT20161215124012412/15/16 12:40:31  5-MIN KAAT 152040Z AUTO 16007KT 10SM BKN028 OVC049 07/04 A2971 4580 86 4700 140/07 RMK AO2 T00670044 TSNO
94299KAAT AAT20161215124511712/15/16 12:45:31  5-MIN KAAT 152045Z AUTO 15007KT 10SM OVC028 07/04 A2970 4580 86 4700 130/07 RMK AO2 T00670044 TSNO
94299KAAT AAT20161215125014312/15/16 12:50:31  5-MIN KAAT 152050Z AUTO 15008KT 10SM BKN028 OVC039 07/04 A2970 4590 86 4700 140/08 RMK AO2 SLP045 60004 T00670044 51009 TSNO
94299KAAT AAT20161215125514312/15/16 12:55:31  5-MIN KAAT 152055Z AUTO 16006KT 10SM BKN028 OVC039 07/04 A2970 4590 86 4700 150/06 RMK AO2 SLP044 60004 T00670044 58026 TSNO
94299KAAT AAT20161215130012412/15/16 13:00:31  5-MIN KAAT 152100Z AUTO 16005KT 10SM BKN028 OVC033 07/04 A2970 4590 86 4700 150/05 RMK AO2 T00670044 TSNO
94299KAAT AAT20161215130511712/15/16 13:05:31  5-MIN KAAT 152105Z AUTO 16005KT 10SM OVC028 07/04 A2970 4590 86 4700 140/05 RMK AO2 T00670044 TSNO
94299KAAT AAT20161215131011712/15/16 13:10:31  5-MIN KAAT 152110Z AUTO 17005KT 10SM OVC028 07/04 A2969 4590 86 4700 160/05 RMK AO2 T00670044 TSNO
94299KAAT AAT20161215131511712/15/16 13:15:31  5-MIN KAAT 152115Z AUTO 17005KT 10SM OVC029 07/04 A2970 4590 86 4700 150/05 RMK AO2 T00670044 TSNO
94299KAAT AAT20161215132011712/15/16 13:20:31  5-MIN KAAT 152120Z AUTO 17005KT 10SM OVC029 07/04 A2970 4590 86 4700 160/05 RMK AO2 T00670044 TSNO
94299KAAT AAT20161215132511712/15/16 13:25:31  5-MIN KAAT 152125Z AUTO 18004KT 10SM OVC029 07/05 A2970 4590 89 4700 160/04 RMK AO2 T00670050 TSNO
94299KAAT AAT20161215133011712/15/16 13:30:31  5-MIN KAAT 152130Z AUTO 18004KT 10SM OVC028 07/04 A2970 4590 86 4700 170/04 RMK AO2 T00670044 TSNO
94299KAAT AAT20161215133511712/15/16 13:35:31  5-MIN KAAT 152135Z AUTO 19003KT 10SM OVC028 07/05 A2970 4590 89 4700 180/03 RMK AO2 T00670050 TSNO
94299KAAT AAT20161215134014012/15/16 13:40:31  5-MIN KAAT 152140Z AUTO 20003KT 10SM -RA BKN028 OVC034 07/05 A2970 4590 89 4700 180/03 RMK AO2 RAB36 P0000 T00670050 TSNO
94299KAAT AAT20161215134514012/15/16 13:45:31  5-MIN KAAT 152145Z AUTO 19004KT 10SM -RA BKN027 OVC034 07/05 A2969 4590 89 4700 180/04 RMK AO2 RAB36 P0000 T00670050 TSNO
94299KAAT AAT20161215135014612/15/16 13:50:31  5-MIN KAAT 152150Z AUTO 18004KT 10SM BKN027 OVC035 07/05 A2969 4600 86 4800 170/04 RMK AO2 RAB36E47 SLP042 P0000 T00720050 TSNO
94299KAAT AAT20161215135514612/15/16 13:55:31  5-MIN KAAT 152155Z AUTO 18004KT 10SM BKN027 OVC033 07/05 A2969 4600 86 4800 160/04 RMK AO2 RAB36E47 SLP041 P0000 T00720050 TSNO
94299KAAT AAT20161215140012412/15/16 14:00:31  5-MIN KAAT 152200Z AUTO 19004KT 10SM SCT024 OVC034 07/05 A2969 4600 86 4800 180/04 RMK AO2 T00720050 TSNO
94299KAAT AAT20161215140513112/15/16 14:05:31  5-MIN KAAT 152205Z AUTO 00000KT 10SM FEW026 BKN033 OVC049 07/04 A2968 4600 82 4800 000/00 RMK AO2 T00720044 TSNO
94299KAAT AAT20161215141014712/15/16 14:10:31  5-MIN KAAT 152210Z AUTO 00000KT 10SM -RA SCT028 BKN035 OVC047 07/04 A2968 4600 82 4800 000/00 RMK AO2 RAB08 P0000 T00720044 TSNO
94299KAAT AAT20161215141514712/15/16 14:15:31  5-MIN KAAT 152215Z AUTO 00000KT 10SM -RA FEW028 SCT035 OVC047 07/04 A2968 4600 82 4800 000/00 RMK AO2 RAB08 P0000 T00720044 TSNO
94299KAAT AAT20161215142014612/15/16 14:20:31  5-MIN KAAT 152220Z AUTO 00000KT 10SM FEW030 SCT035 OVC045 07/04 A2968 4610 82 4800 000/00 RMK AO2 RAB08E19 P0000 T00720044 TSNO
94299KAAT AAT20161215142514012/15/16 14:25:31  5-MIN KAAT 152225Z AUTO 00000KT 10SM -RA SCT032 OVC045 07/04 A2968 4610 82 4800 000/00 RMK AO2 RAB08 P0000 T00720044 TSNO
94299KAAT AAT20161215143014012/15/16 14:30:31  5-MIN KAAT 152230Z AUTO 00000KT 10SM -RA FEW032 OVC042 07/05 A2968 4610 86 4800 000/00 RMK AO2 RAB08 P0000 T00720050 TSNO
94299KAAT AAT20161215143514012/15/16 14:35:31  5-MIN KAAT 152235Z AUTO 00000KT 10SM -RA FEW032 OVC040 07/05 A2967 4610 86 4800 000/00 RMK AO2 RAB08 P0000 T00720050 TSNO
94299KAAT AAT20161215144013312/15/16 14:40:31  5-MIN KAAT 152240Z AUTO 17003KT 10SM -RA OVC037 07/05 A2967 4610 86 4800 150/03 RMK AO2 RAB08 P0000 T00720050 TSNO
94299KAAT AAT20161215144514012/15/16 14:45:31  5-MIN KAAT 152245Z AUTO 00000KT 10SM -RA FEW030 OVC037 07/05 A2967 4610 86 4800 000/00 RMK AO2 RAB08 P0000 T00720050 TSNO
94299KAAT AAT20161215145014712/15/16 14:50:31  5-MIN KAAT 152250Z AUTO 00000KT 10SM -RA SCT028 OVC037 07/05 A2967 4610 89 4700 000/00 RMK AO2 RAB08 SLP037 P0000 T00670050 TSNO
94299KAAT AAT20161215145514712/15/16 14:55:31  5-MIN KAAT 152255Z AUTO 20003KT 10SM -RA BKN028 OVC035 07/05 A2967 4610 89 4700 180/03 RMK AO2 RAB08 SLP037 P0000 T00670050 TSNO
94299KAAT AAT20161215150013412/15/16 15:00:31  5-MIN KAAT 152300Z AUTO 16003KT 10SM -RA FEW026 OVC033 07/05 A2967 4620 89 4800 150/03 RMK AO2 P0001 T00670050 TSNO
94299KAAT AAT20161215150513312/15/16 15:05:31  5-MIN KAAT 152305Z AUTO 15004KT 9SM -RA SCT026 OVC033 07/04 A2966 4620 86 4800 130/04 RMK AO2 P0001 T00670044 TSNO
94299KAAT AAT20161215151014112/15/16 15:10:31  5-MIN KAAT 152310Z AUTO 14003KT 10SM -RA FEW026 SCT030 OVC036 07/05 A2966 4620 89 4800 120/03 RMK AO2 P0001 T00670050 TSNO
94299KAAT AAT20161215151513412/15/16 15:15:31  5-MIN KAAT 152315Z AUTO 14003KT 10SM -RA SCT027 OVC036 07/05 A2965 4630 89 4800 130/03 RMK AO2 P0001 T00670050 TSNO
94299KAAT AAT20161215152014112/15/16 15:20:31  5-MIN KAAT 152320Z AUTO 12003KT 10SM -RA FEW027 BKN039 OVC050 07/05 A2965 4630 89 4800 110/03 RMK AO2 P0001 T00670050 TSNO
94299KAAT AAT20161215152514112/15/16 15:25:31  5-MIN KAAT 152325Z AUTO 11004KT 10SM -RA FEW036 BKN043 OVC060 07/05 A2965 4630 89 4800 090/04 RMK AO2 P0001 T00670050 TSNO
94299KAAT AAT20161215153013612/15/16 15:30:31  5-MIN KAAT 152330Z AUTO 10003KT 10SM BKN041 OVC050 07/05 A2965 4630 89 4800 090/03 RMK AO2 RAE26 P0001 T00670050 TSNO
94299KAAT AAT20161215153513612/15/16 15:35:31  5-MIN KAAT 152335Z AUTO 11003KT 10SM BKN041 OVC050 07/05 A2965 4630 89 4800 090/03 RMK AO2 RAE26 P0001 T00670050 TSNO
94299KAAT AAT20161215154013612/15/16 15:40:31  5-MIN KAAT 152340Z AUTO 11003KT 10SM BKN038 OVC048 06/06 A2965 4630 96 4700 090/03 RMK AO2 RAE26 P0001 T00610056 TSNO
94299KAAT AAT20161215154513612/15/16 15:45:31  5-MIN KAAT 152345Z AUTO 00000KT 10SM BKN036 OVC050 07/05 A2964 4640 89 4800 000/00 RMK AO2 RAE26 P0001 T00670050 TSNO
94299KAAT AAT20161215155017412/15/16 15:50:31  5-MIN KAAT 152350Z AUTO 00000KT 10SM BKN034 BKN041 OVC048 06/06 A2964 4640 96 4700 000/00 RMK AO2 RAE26 SLP029 P0001 60005 T00610056 10072 20056 58026 TSNO
94299KAAT AAT20161215155516712/15/16 15:55:31  5-MIN KAAT 152355Z AUTO 00000KT 10SM BKN029 OVC041 06/06 A2964 4640 96 4700 000/00 RMK AO2 RAE26 SLP029 P0001 60005 T00610056 10072 20056 58016 TSNO
94299KAAT AAT20161215160012412/15/16 16:00:31  5-MIN KAAT 160000Z AUTO 00000KT 10SM BKN029 OVC035 06/06 A2964 4640 96 4700 000/00 RMK AO2 T00610056 TSNO
94299KAAT AAT20161215160514012/15/16 16:05:31  5-MIN KAAT 160005Z AUTO 00000KT 10SM -RA BKN029 OVC037 06/05 A2964 4640 93 4700 000/00 RMK AO2 RAB03 P0000 T00610050 TSNO
94299KAAT AAT20161215161013912/15/16 16:10:31  5-MIN KAAT 160010Z AUTO 00000KT 8SM -RA BKN029 OVC035 06/05 A2964 4640 93 4700 000/00 RMK AO2 RAB03 P0001 T00610050 TSNO
94299KAAT AAT20161215161514212/15/16 16:15:31  5-MIN KAAT 160015Z AUTO 00000KT 6SM -RA BR BKN029 OVC035 06/05 A2964 4640 93 4700 000/00 RMK AO2 RAB03 P0001 T00610050 TSNO
94299KAAT AAT20161215162014212/15/16 16:20:31  5-MIN KAAT 160020Z AUTO 00000KT 5SM -RA BR BKN027 OVC035 06/05 A2964 4640 93 4700 000/00 RMK AO2 RAB03 P0001 T00610050 TSNO
94299KAAT AAT20161215162514212/15/16 16:25:31  5-MIN KAAT 160025Z AUTO 00000KT 4SM -RA BR BKN027 OVC034 06/05 A2964 4640 93 4700 000/00 RMK AO2 RAB03 P0002 T00610050 TSNO
94299KAAT AAT20161215163014912/15/16 16:30:31  5-MIN KAAT 160030Z AUTO 00000KT 5SM -RA BR SCT023 BKN027 OVC034 06/05 A2964 4640 93 4700 000/00 RMK AO2 RAB03 P0002 T00610050 TSNO
94299KAAT AAT20161215163514212/15/16 16:35:31  5-MIN KAAT 160035Z AUTO 16003KT 6SM -RA BR SCT023 OVC027 06/05 A2964 4650 96 4700 150/03 RMK AO2 RAB03 P0003 T00560050 TSNO
94299KAAT AAT20161215164014212/15/16 16:40:31  5-MIN KAAT 160040Z AUTO 00000KT 5SM -RA BR BKN023 OVC027 06/05 A2963 4650 96 4700 000/00 RMK AO2 RAB03 P0004 T00560050 TSNO
94299KAAT AAT20161215164513512/15/16 16:45:31  5-MIN KAAT 160045Z AUTO 16003KT 5SM -RA BR OVC024 06/05 A2963 4650 96 4700 150/03 RMK AO2 RAB03 P0005 T00560050 TSNO
94299KAAT AAT20161215165014912/15/16 16:50:31  5-MIN KAAT 160050Z AUTO 18004KT 6SM -RA BR SCT022 OVC027 06/05 A2963 4650 96 4700 160/04 RMK AO2 RAB03 SLP027 P0005 T00560050 TSNO
94299KAAT AAT20161215165514912/15/16 16:55:31  5-MIN KAAT 160055Z AUTO 18004KT 6SM -RA BR BKN022 OVC027 06/05 A2963 4650 96 4700 170/04 RMK AO2 RAB03 SLP026 P0006 T00560050 TSNO
94299KAAT AAT20161215170012612/15/16 17:00:31  5-MIN KAAT 160100Z AUTO 19005KT 7SM -RA OVC025 06/05 A2963 4650 96 4700 170/05 RMK AO2 P0001 T00560050 TSNO
94299KAAT AAT20161215170512612/15/16 17:05:31  5-MIN KAAT 160105Z AUTO 19004KT 7SM -RA OVC025 06/05 A2963 4650 96 4700 180/04 RMK AO2 P0001 T00560050 TSNO
94299KAAT AAT20161215171012912/15/16 17:10:31  5-MIN KAAT 160110Z AUTO 21004KT 6SM -RA BR OVC026 06/05 A2962 4660 96 4700 190/04 RMK AO2 P0002 T00560050 TSNO
94299KAAT AAT20161215171512912/15/16 17:15:31  5-MIN KAAT 160115Z AUTO 20004KT 6SM -RA BR OVC026 06/05 A2962 4660 96 4700 180/04 RMK AO2 P0002 T00560050 TSNO
94299KAAT AAT20161215172014312/15/16 17:20:31  5-MIN KAAT 160120Z AUTO 18003KT 6SM -RA BR FEW014 BKN023 OVC028 06/05 A2962 4660 96 4700 170/03 RMK AO2 P0003 T00560050 TSNO
94299KAAT AAT20161215172514312/15/16 17:25:31  5-MIN KAAT 160125Z AUTO 20003KT 6SM -RA BR FEW014 BKN023 OVC028 06/05 A2962 4660 96 4700 180/03 RMK AO2 P0004 T00560050 TSNO
94299KAAT AAT20161215173013612/15/16 17:30:31  5-MIN KAAT 160130Z AUTO 19003KT 6SM -RA BR BKN023 OVC028 06/05 A2962 4660 96 4700 170/03 RMK AO2 P0005 T00560050 TSNO
94299KAAT AAT20161215173513612/15/16 17:35:31  5-MIN KAAT 160135Z AUTO 17003KT 6SM -RA BR BKN024 OVC028 06/05 A2962 4660 96 4700 160/03 RMK AO2 P0005 T00560050 TSNO
94299KAAT AAT20161215174012612/15/16 17:40:31  5-MIN KAAT 160140Z AUTO 19003KT 7SM -RA OVC024 06/05 A2961 4670 96 4700 180/03 RMK AO2 P0006 T00560050 TSNO
94299KAAT AAT20161215174513312/15/16 17:45:31  5-MIN KAAT 160145Z AUTO 19003KT 7SM -RA BKN024 OVC029 06/05 A2961 4670 96 4700 180/03 RMK AO2 P0007 T00560050 TSNO
94299KAAT AAT20161215175014112/15/16 17:50:31  5-MIN KAAT 160150Z AUTO 00000KT 7SM -RA BKN022 OVC029 05/05 A2961 4670 100 4600 000/00 RMK AO2 SLP020 P0007 T00500050 TSNO
94299KAAT AAT20161215175513412/15/16 17:55:31  5-MIN KAAT 160155Z AUTO 21003KT 9SM -RA OVC025 05/05 A2961 4670 100 4600 190/03 RMK AO2 SLP019 P0007 T00500050 TSNO
94299KAAT AAT20161215180012812/15/16 18:00:31  5-MIN KAAT 160200Z AUTO 20004KT 10SM -RA OVC025 05/05 A2961 4670 100 4600 190/04 RMK AO2 P0001 T00500050 TSNO
94299KAAT AAT20161215180512712/15/16 18:05:31  5-MIN KAAT 160205Z AUTO 20003KT 9SM -RA OVC025 05/05 A2960 4680 100 4600 190/03 RMK AO2 P0001 T00500050 TSNO
94299KAAT AAT20161215181013712/15/16 18:10:31  5-MIN KAAT 160210Z AUTO 22004KT 6SM -RA BR FEW015 OVC023 05/05 A2960 4680 100 4600 200/04 RMK AO2 P0001 T00500050 TSNO
94299KAAT AAT20161215181513712/15/16 18:15:31  5-MIN KAAT 160215Z AUTO 23004KT 5SM -RA BR FEW015 OVC023 05/05 A2960 4680 100 4600 220/04 RMK AO2 P0002 T00500050 TSNO
94299KAAT AAT20161215182014312/15/16 18:20:31  5-MIN KAAT 160220Z AUTO 21003KT 6SM -RA BR FEW015 BKN022 OVC027 05/04 A2960 4680 96 4600 190/03 RMK AO2 P0002 T00500044 TSNO
94299KAAT AAT20161215182514112/15/16 18:25:31  5-MIN KAAT 160225Z AUTO 20003KT 7SM -RA FEW014 BKN021 OVC026 05/05 A2959 4680 100 4600 180/03 RMK AO2 P0002 T00500050 TSNO
94299KAAT AAT20161215183013612/15/16 18:30:31  5-MIN KAAT 160230Z AUTO 21005KT 6SM -RA BR SCT017 OVC024 05/04 A2960 4680 96 4600 200/05 RMK AO2 P0002 T00500044 TSNO
94299KAAT AAT20161215183514312/15/16 18:35:31  5-MIN KAAT 160235Z AUTO 22007KT 6SM -RA BR SCT017 SCT021 OVC026 05/04 A2959 4690 96 4600 210/07 RMK AO2 P0003 T00500044 TSNO
94299KAAT AAT20161215184014012/15/16 18:40:31  5-MIN KAAT 160240Z AUTO 23006KT 7SM -RA FEW017 FEW021 OVC026 05/04 A2959 4690 92 4600 210/06 RMK AO2 P0003 T00500039 TSNO
94299KAAT AAT20161215184513312/15/16 18:45:31  5-MIN KAAT 160245Z AUTO 24006KT 8SM -RA FEW017 OVC028 05/04 A2959 4690 92 4600 220/06 RMK AO2 P0004 T00500039 TSNO
94299KAAT AAT20161215185013112/15/16 18:50:31  5-MIN KAAT 160250Z AUTO 24005KT 10SM -RA FEW017 FEW022 OVC032 04/04 A2959 4690 96 4600 230/05 RMK AO2 P0004 TSNO
94299KAAT AAT20161215185515312/15/16 18:55:31  5-MIN KAAT 160255Z AUTO 25006KT 10SM -RA FEW017 OVC038 04/04 A2959 4690 96 4600 240/06 RMK AO2 SLP013 P0004 60017 T00440039 56013 TSNO
94299KAAT AAT20161215190013412/15/16 19:00:31  5-MIN KAAT 160300Z AUTO 25006KT 10SM -RA FEW027 OVC038 04/04 A2958 4690 96 4600 240/06 RMK AO2 P0000 T00440039 TSNO
94299KAAT AAT20161215190514112/15/16 19:05:31  5-MIN KAAT 160305Z AUTO 24005KT 10SM -RA FEW022 FEW027 OVC038 04/04 A2958 4700 96 4600 230/05 RMK AO2 P0000 T00440039 TSNO
94299KAAT AAT20161215191014112/15/16 19:10:31  5-MIN KAAT 160310Z AUTO 22003KT 10SM -RA SCT020 SCT026 OVC038 04/04 A2958 4700 96 4600 210/03 RMK AO2 P0000 T00440039 TSNO
94299KAAT AAT20161215191514112/15/16 19:15:31  5-MIN KAAT 160315Z AUTO 21003KT 9SM -RA SCT020 SCT026 OVC040 04/04 A2958 4700 100 4600 190/03 RMK AO2 P0000 T00440044 TSNO
94299KAAT AAT20161215192014212/15/16 19:20:31  5-MIN KAAT 160320Z AUTO 21003KT 10SM -RA FEW018 SCT026 OVC040 04/04 A2958 4700 100 4600 190/03 RMK AO2 P0001 T00440044 TSNO
94299KAAT AAT20161215192514212/15/16 19:25:31  5-MIN KAAT 160325Z AUTO 21005KT 10SM -RA FEW018 SCT026 OVC038 04/04 A2958 4700 100 4600 190/05 RMK AO2 P0001 T00440044 TSNO
94299KAAT AAT20161215193013412/15/16 19:30:31  5-MIN KAAT 160330Z AUTO 21004KT 10SM -RA SCT018 OVC036 04/04 A2957 4700 96 4600 200/04 RMK AO2 P0001 T00440039 TSNO
94299KAAT AAT20161215193513412/15/16 19:35:31  5-MIN KAAT 160335Z AUTO 21003KT 10SM -RA SCT018 OVC034 04/04 A2957 4710 96 4600 190/03 RMK AO2 P0001 T00440039 TSNO
94299KAAT AAT20161215194014112/15/16 19:40:31  5-MIN KAAT 160340Z AUTO 21004KT 10SM -RA FEW018 BKN029 OVC034 04/04 A2957 4710 96 4600 190/04 RMK AO2 P0001 T00440039 TSNO
94299KAAT AAT20161215194514112/15/16 19:45:31  5-MIN KAAT 160345Z AUTO 18004KT 10SM -RA FEW018 BKN036 OVC050 04/04 A2956 4720 96 4600 170/04 RMK AO2 P0001 T00440039 TSNO
94299KAAT AAT20161215195014812/15/16 19:50:31  5-MIN KAAT 160350Z AUTO 16003KT 10SM -RA FEW018 SCT029 OVC038 04/04 A2956 4710 96 4600 150/03 RMK AO2 SLP004 P0001 T00440039 TSNO
94299KAAT AAT20161215195514812/15/16 19:55:31  5-MIN KAAT 160355Z AUTO 19004KT 10SM -RA FEW018 SCT029 OVC038 04/04 A2956 4720 96 4600 180/04 RMK AO2 SLP004 P0002 T00440039 TSNO
94299KAAT AAT20161215200014112/15/16 20:00:31  5-MIN KAAT 160400Z AUTO 20005KT 9SM -RA SCT016 SCT029 OVC036 04/04 A2956 4720 100 4600 190/05 RMK AO2 P0000 T00440044 TSNO
94299KAAT AAT20161215200513312/15/16 20:05:31  5-MIN KAAT 160405Z AUTO 20004KT 7SM -RA SCT014 OVC034 04/04 A2956 4720 96 4600 190/04 RMK AO2 P0001 T00440039 TSNO
94299KAAT AAT20161215201014012/15/16 20:10:31  5-MIN KAAT 160410Z AUTO 20004KT 7SM -RA SCT012 SCT017 OVC034 04/04 A2956 4720 96 4600 180/04 RMK AO2 P0001 T00440039 TSNO
94299KAAT AAT20161215201513312/15/16 20:15:31  5-MIN KAAT 160415Z AUTO 22006KT 9SM -RA SCT012 OVC032 04/04 A2956 4720 96 4600 200/06 RMK AO2 P0002 T00440039 TSNO
94299KAAT AAT20161215202014012/15/16 20:20:31  5-MIN KAAT 160420Z AUTO 23006KT 9SM -RA FEW012 SCT018 OVC032 04/03 A2955 4720 96 4500 220/06 RMK AO2 P0003 T00390033 TSNO
94299KAAT AAT20161215202513312/15/16 20:25:31  5-MIN KAAT 160425Z AUTO 24007KT 9SM -RA FEW012 OVC032 04/03 A2955 4720 96 4600 220/07 RMK AO2 P0003 T00390033 TSNO
94299KAAT AAT20161215203014012/15/16 20:30:31  5-MIN KAAT 160430Z AUTO 23007KT 9SM -RA FEW012 SCT021 OVC032 04/03 A2955 4720 96 4600 220/07 RMK AO2 P0003 T00390033 TSNO
94299KAAT AAT20161215203514112/15/16 20:35:31  5-MIN KAAT 160435Z AUTO 23006KT 10SM -RA FEW012 SCT021 OVC030 04/03 A2955 4720 96 4600 220/06 RMK AO2 P0004 T00390033 TSNO
94299KAAT AAT20161215204014112/15/16 20:40:31  5-MIN KAAT 160440Z AUTO 25008KT 8SM -RA FEW005 SCT014 OVC030 03/03 A2955 4720 100 4500 230/08 RMK AO2 P0004 T00330033 TSNO
94299KAAT AAT20161215204514612/15/16 20:45:31  5-MIN KAAT 160445Z AUTO 29011G16KT 7SM -RA SCT005 BKN015 OVC030 03/03 A2955 4720 96 4500 280/11G16 RMK AO2 P0004 T00330028 TSNO
94299KAAT AAT20161215205013612/15/16 20:50:31  5-MIN KAAT 160450Z AUTO 31009G16KT 7SM -RA SCT005 BKN013 OVC030 03/02 A2955 4730 96 4400 300/09G16 RMK AO2 P0005 TSNO
94299KAAT AAT20161215205514712/15/16 20:55:31  5-MIN KAAT 160455Z AUTO 32010KT 8SM -RA FEW006 BKN013 OVC028 02/02 A2955 4720 96 4400 300/10 RMK AO2 SLP003 P0005 T00220017 TSNO
94299KAAT AAT20161215210014112/15/16 21:00:31  5-MIN KAAT 160500Z AUTO 32011KT 10SM -RA FEW006 BKN013 OVC020 02/01 A2956 4720 92 4300 300/11 RMK AO2 P0000 T00220011 TSNO
94299KAAT AAT20161215210513412/15/16 21:05:31  5-MIN KAAT 160505Z AUTO 33011KT 10SM -RA FEW006 OVC015 02/01 A2955 4730 92 4400 310/11 RMK AO2 P0001 T00220011 TSNO
94299KAAT AAT20161215211014712/15/16 21:10:31  5-MIN KAAT 160510Z AUTO 33014G18KT 10SM -RA FEW006 BKN015 OVC022 02/01 A2955 4730 92 4400 310/14G18 RMK AO2 P0001 T00220011 TSNO
94299KAAT AAT20161215211514012/15/16 21:15:31  5-MIN KAAT 160515Z AUTO 35018G23KT 10SM -RA BKN015 OVC022 02/01 A2955 4720 92 4400 330/18G23 RMK AO2 P0002 T00220011 TSNO
94299KAAT AAT20161215212015112/15/16 21:20:31  5-MIN KAAT 160520Z AUTO 35014G23KT 10SM -SN SCT015 OVC022 02/01 A2955 4720 89 4400 330/14G23 RMK AO2 RAE19SNB19 P0002 T00220006 TSNO
94299KAAT AAT20161215212514412/15/16 21:25:31  5-MIN KAAT 160525Z AUTO 36014KT 8SM -SN BKN018 OVC023 02/01 A2955 4730 92 4300 340/14 RMK AO2 RAE19SNB19 P0002 T00170006 TSNO
94299KAAT AAT20161215213015312/15/16 21:30:31  5-MIN KAAT 160530Z AUTO 35010G20KT 5SM -SN BR BKN016 OVC023 01/01 A2955 4730 96 4200 340/10G20 RMK AO2 RAE19SNB19 P0002 T00110006 TSNO
94299KAAT AAT20161215213514712/15/16 21:35:31  5-MIN KAAT 160535Z AUTO 34009KT 4SM -SN BR BKN016 OVC023 01/00 A2956 4720 92 4200 330/09 RMK AO2 RAE19SNB19 P0003 T00110000 TSNO
94299KAAT AAT20161215214014712/15/16 21:40:31  5-MIN KAAT 160540Z AUTO 35009KT 4SM -SN BR BKN016 OVC021 01/00 A2957 4710 92 4200 330/09 RMK AO2 RAE19SNB19 P0004 T00110000 TSNO
94299KAAT AAT20161215214514012/15/16 21:45:31  5-MIN KAAT 160545Z AUTO 35009KT 4SM -SN BR OVC016 01/00 A2956 4710 92 4200 340/09 RMK AO2 RAE19SNB19 P0004 T00110000 TSNO
94299KAAT AAT20161215215013012/15/16 21:50:31  5-MIN KAAT 160550Z AUTO 36009KT 5SM -SN BR OVC014 01/00 A2956 4720 92 4200 340/09 RMK AO2 RAE19SNB19 P0004 TSNO
94299KAAT AAT20161215215517112/15/16 21:55:31  5-MIN KAAT 160555Z AUTO 35007KT 5SM -SN BR OVC014 01/01 A2956 4720 96 4200 340/07 RMK AO2 RAE19SNB19 SLP009 P0004 60028 T00110006 10061 20011 55001 TSNO
94299KAAT AAT20161215220012912/15/16 22:00:31  5-MIN KAAT 160600Z AUTO 35007KT 3SM -SN BR OVC014 01/01 A2956 4710 96 4200 340/07 RMK AO2 P0001 T00110006 TSNO
94299KAAT AAT20161215220513312/15/16 22:05:31  5-MIN KAAT 160605Z AUTO 35010KT 2 1/2SM -SN BR OVC013 01/00 A2956 4720 92 4200 330/10 RMK AO2 P0001 T00110000 TSNO
94299KAAT AAT20161215221012912/15/16 22:10:31  5-MIN KAAT 160610Z AUTO 01009KT 2SM -SN BR OVC013 01/00 A2956 4720 96 4100 350/09 RMK AO2 P0002 T00060000 TSNO
94299KAAT AAT20161215221513312/15/16 22:15:31  5-MIN KAAT 160615Z AUTO 35008KT 1 3/4SM -SN BR OVC012 01/00 A2956 4720 96 4100 340/08 RMK AO2 P0002 T00060000 TSNO
94299KAAT AAT20161215222012912/15/16 22:20:31  5-MIN KAAT 160620Z AUTO 36008KT 2SM -SN BR OVC012 01/00 A2956 4720 96 4100 340/08 RMK AO2 P0003 T00060000 TSNO
94299KAAT AAT20161215222513312/15/16 22:25:31  5-MIN KAAT 160625Z AUTO 33005KT 2 1/2SM -SN BR OVC012 01/00 A2956 4720 96 4100 320/05 RMK AO2 P0003 T00060000 TSNO
94299KAAT AAT20161215223013312/15/16 22:30:31  5-MIN KAAT 160630Z AUTO 31005KT 2 1/2SM -SN BR OVC012 01/00 A2957 4710 96 4100 300/05 RMK AO2 P0003 T00060000 TSNO
94299KAAT AAT20161215223513612/15/16 22:35:31  5-MIN KAAT 160635Z AUTO 33006KT 3SM -SN BR FEW009 OVC012 01/00 A2956 4710 96 4100 320/06 RMK AO2 P0003 T00060000 TSNO
94299KAAT AAT20161215224012912/15/16 22:40:31  5-MIN KAAT 160640Z AUTO 33006KT 3SM -SN BR OVC012 01/00 A2956 4710 96 4100 320/06 RMK AO2 P0003 T00060000 TSNO
94299KAAT AAT20161215224512912/15/16 22:45:31  5-MIN KAAT 160645Z AUTO 33005KT 3SM -SN BR OVC012 01/00 A2957 4710 96 4100 320/05 RMK AO2 P0004 T00060000 TSNO
94299KAAT AAT20161215225013612/15/16 22:50:31  5-MIN KAAT 160650Z AUTO 32005KT 3SM -SN BR OVC012 01/00 A2956 4710 96 4100 310/05 RMK AO2 SLP011 P0004 T00060000 TSNO
94299KAAT AAT20161215225513612/15/16 22:55:31  5-MIN KAAT 160655Z AUTO 33007KT 2SM -SN BR OVC014 01/00 A2956 4720 96 4100 320/07 RMK AO2 SLP008 P0004 T00060000 TSNO
94299KAAT AAT20161215230013712/15/16 23:00:31  5-MIN KAAT 160700Z AUTO 34006KT 2SM -SN BR BKN012 OVC018 01/M01 A2956 4720 92 4100 320/06 RMK AO2 P0000 T00061006 TSNO
94299KAAT AAT20161215230514712/15/16 23:05:31  5-MIN KAAT 160705Z AUTO 32005KT 2 1/2SM -SN BR SCT009 BKN014 OVC020 01/00 A2956 4710 96 4100 310/05 RMK AO2 P0000 T00060000 TSNO
94299KAAT AAT20161215231014012/15/16 23:10:31  5-MIN KAAT 160710Z AUTO 30004KT 2 1/2SM -SN BR SCT012 OVC020 01/00 A2957 4710 96 4100 290/04 RMK AO2 P0000 T00060000 TSNO
94299KAAT AAT20161215231514712/15/16 23:15:31  5-MIN KAAT 160715Z AUTO 27004KT 2 1/2SM -SN BR FEW009 FEW014 OVC022 01/00 A2958 4700 96 4100 260/04 RMK AO2 P0000 T00060000 TSNO
94299KAAT AAT20161215232015012/15/16 23:20:31  5-MIN KAAT 160720Z AUTO 24006KT 2SM -SN BR FEW009 FEW015 OVC022 01/00 A2959 4690 96 4100 220/06 RMK AO2 PRESRR P0000 T00060000 TSNO
94299KAAT AAT20161215232514112/15/16 23:25:31  5-MIN KAAT 160725Z AUTO 26003KT 1 3/4SM -SN BR FEW007 OVC022 00/00 A2958 4690 100 4000 240/03 RMK AO2 P0001 T00000000 TSNO
94299KAAT AAT20161215233014412/15/16 23:30:31  5-MIN KAAT 160730Z AUTO 33005KT 1SM -SN BR FEW005 SCT013 OVC018 00/00 A2959 4690 100 4000 320/05 RMK AO2 P0001 T00000000 TSNO
94299KAAT AAT20161215233514412/15/16 23:35:31  5-MIN KAAT 160735Z AUTO 36004KT 1SM -SN BR FEW005 FEW011 OVC016 00/M01 A2959 4690 96 4000 350/04 RMK AO2 P0002 T00001006 TSNO
94299KAAT AAT20161215234013712/15/16 23:40:31  5-MIN KAAT 160740Z AUTO 35003KT 1SM -SN BR FEW005 OVC014 00/00 A2958 4690 100 4000 330/03 RMK AO2 P0003 T00000000 TSNO
94299KAAT AAT20161215234513712/15/16 23:45:31  5-MIN KAAT 160745Z AUTO 00000KT 1SM -SN BR FEW005 OVC012 00/00 A2958 4700 100 4000 000/00 RMK AO2 P0003 T00000000 TSNO
94299KAAT AAT20161215235015412/15/16 23:50:31  5-MIN KAAT 160750Z AUTO 00000KT 1SM -SN BR SCT005 OVC010 00/00 A2958 4690 100 4000 000/00 RMK AO2 SLP018 P0003 T00000000 400940000 TSNO
94299KAAT AAT20161215235515412/15/16 23:55:31  5-MIN KAAT 160755Z AUTO 00000KT 1SM -SN BR SCT005 OVC010 00/00 A2958 4700 100 4100 000/00 RMK AO2 SLP016 P0004 T00000000 400940000 TSNO
94299KAAT AAT20161216000013912/16/16 00:00:31  5-MIN KAAT 160800Z AUTO 00000KT 3/4SM -SN BR FEW005 OVC010 00/M01 A2957 4710 96 4100 000/00 RMK AO2 P0001 T00001006 TSNO
94299KAAT AAT20161216000513912/16/16 00:05:31  5-MIN KAAT 160805Z AUTO 01003KT 3/4SM -SN BR FEW005 OVC009 00/M01 A2956 4720 96 4100 360/03 RMK AO2 P0001 T00001006 TSNO
94299KAAT AAT20161216001014612/16/16 00:10:31  5-MIN KAAT 160810Z AUTO 04004KT 3/4SM -SN BR FEW005 OVC009 00/M01 A2954 4730 96 4100 030/04 RMK AO2 PRESFR P0001 T00001006 TSNO
94299KAAT AAT20161216001513712/16/16 00:15:31  5-MIN KAAT 160815Z AUTO 03004KT 1SM -SN BR FEW005 OVC011 00/M01 A2954 4740 96 4100 020/04 RMK AO2 P0002 T00001006 TSNO
94299KAAT AAT20161216002014112/16/16 00:20:31  5-MIN KAAT 160820Z AUTO 00000KT 1 1/2SM -SN BR FEW006 OVC015 00/00 A2956 4720 100 4100 000/00 RMK AO2 P0002 T00000000 TSNO
94299KAAT AAT20161216002513712/16/16 00:25:31  5-MIN KAAT 160825Z AUTO 00000KT 2SM -SN BR FEW006 OVC017 00/00 A2956 4720 100 4100 000/00 RMK AO2 P0002 T00000000 TSNO
94299KAAT AAT20161216003013712/16/16 00:30:31  5-MIN KAAT 160830Z AUTO 00000KT 3SM -SN BR SCT006 OVC022 00/00 A2955 4730 100 4100 000/00 RMK AO2 P0002 T00000000 TSNO
94299KAAT AAT20161216003513712/16/16 00:35:31  5-MIN KAAT 160835Z AUTO 13004KT 4SM -SN BR FEW005 OVC033 00/M01 A2955 4730 96 4100 120/04 RMK AO2 P0002 T00001006 TSNO
94299KAAT AAT20161216004013712/16/16 00:40:31  5-MIN KAAT 160840Z AUTO 13004KT 6SM -SN BR FEW005 OVC039 00/M01 A2955 4730 96 4100 110/04 RMK AO2 P0002 T00001006 TSNO
94299KAAT AAT20161216004513712/16/16 00:45:31  5-MIN KAAT 160845Z AUTO 13003KT 6SM -SN BR FEW005 OVC045 00/M01 A2954 4730 96 4100 120/03 RMK AO2 P0002 T00001006 TSNO
94299KAAT AAT20161216005015312/16/16 00:50:31  5-MIN KAAT 160850Z AUTO 15003KT 7SM -SN FEW005 OVC050 00/M01 A2955 4730 96 4100 140/03 RMK AO2 SLP005 P0002 60010 T00001006 55001 TSNO
94299KAAT AAT20161216005515712/16/16 00:55:31  5-MIN KAAT 160855Z AUTO 19003KT 9SM BKN050 OVC070 M01/M01 A2955 4730 100 4000 170/03 RMK AO2 SNE54 SLP005 P0002 60010 T10061006 58003 TSNO
94299KAAT AAT20161216010012712/16/16 01:00:31  5-MIN KAAT 160900Z AUTO 19003KT 10SM BKN050 OVC070 M01/M01 A2954 4740 100 4000 170/03 RMK AO2 T10061006 TSNO
94299KAAT AAT20161216010513412/16/16 01:05:31  5-MIN KAAT 160905Z AUTO 00000KT 10SM BKN055 BKN070 OVC100 M01/M01 A2954 4730 100 4000 000/00 RMK AO2 T10061006 TSNO
94299KAAT AAT20161216011013312/16/16 01:10:31  5-MIN KAAT 160910Z AUTO 18003KT 10SM SCT055 BKN070 OVC095 M01/M01 A2954 4730 96 4000 160/03 RMK AO2 T10061011 TSNO
94299KAAT AAT20161216011514912/16/16 01:15:31  5-MIN KAAT 160915Z AUTO 20003KT 10SM -SN FEW007 BKN070 OVC095 M01/M01 A2955 4730 96 4000 190/03 RMK AO2 SNB11 P0000 T10061011 TSNO
94299KAAT AAT20161216012014812/16/16 01:20:31  5-MIN KAAT 160920Z AUTO 23003KT 9SM FEW007 BKN060 OVC100 M01/M01 A2955 4730 100 4000 210/03 RMK AO2 SNB11E20 P0000 T10061006 TSNO
94299KAAT AAT20161216012514812/16/16 01:25:31  5-MIN KAAT 160925Z AUTO 23003KT 9SM FEW007 BKN025 OVC100 M01/M01 A2954 4730 100 4000 220/03 RMK AO2 SNB11E20 P0000 T10061006 TSNO
94299KAAT AAT20161216013014912/16/16 01:30:31  5-MIN KAAT 160930Z AUTO 00000KT 10SM FEW007 BKN023 OVC100 M01/M01 A2955 4730 100 4000 000/00 RMK AO2 SNB11E20 P0000 T10061006 TSNO
94299KAAT AAT20161216013514912/16/16 01:35:31  5-MIN KAAT 160935Z AUTO 26004KT 10SM SCT007 BKN023 OVC090 M01/M01 A2955 4730 100 4000 240/04 RMK AO2 SNB11E20 P0000 T10061006 TSNO
94299KAAT AAT20161216014014912/16/16 01:40:31  5-MIN KAAT 160940Z AUTO 18005KT 10SM SCT007 BKN021 OVC026 M01/M01 A2955 4730 100 4000 170/05 RMK AO2 SNB11E20 P0000 T10061006 TSNO
94299KAAT AAT20161216014514912/16/16 01:45:31  5-MIN KAAT 160945Z AUTO VRB03KT 10SM FEW006 BKN019 OVC026 M01/M01 A2955 4730 100 4000 VRB/03 RMK AO2 SNB11E20 P0000 T10061006 TSNO
94299KAAT AAT20161216015014912/16/16 01:50:31  5-MIN KAAT 160950Z AUTO 27003KT 10SM SCT006 OVC019 M01/M01 A2955 4730 100 4000 250/03 RMK AO2 SNB11E20 SLP005 P0000 T10061006 TSNO
94299KAAT AAT20161216015517412/16/16 01:55:31  5-MIN KAAT 160955Z AUTO 25004KT 9SM -SN SCT004 BKN008 OVC019 M01/M01 A2956 4720 100 4000 230/04 RMK AO2 SNB11E20B55 CIG 006V011 SLP009 P0000 T10061006 TSNO
94299KAAT AAT20161216020015812/16/16 02:00:31  5-MIN KAAT 161000Z AUTO 26004KT 4SM -SN BR BKN006 BKN011 OVC019 M01/M01 A2956 4720 100 4000 250/04 RMK AO2 CIG 003V008 P0000 T10061006 TSNO
94299KAAT AAT20161216020516212/16/16 02:05:31  5-MIN KAAT 161005Z AUTO 26004KT 2 1/2SM -SN BR SCT006 BKN011 OVC017 M01/M01 A2956 4720 100 4000 240/04 RMK AO2 CIG 008V011 P0000 T10061006 TSNO
94299KAAT AAT20161216021016212/16/16 02:10:31  5-MIN KAAT 161010Z AUTO 26005KT 2 1/2SM -SN BR SCT006 BKN011 OVC017 M01/M01 A2955 4720 100 4000 240/05 RMK AO2 CIG 007V011 P0000 T10061006 TSNO
94299KAAT AAT20161216021514612/16/16 02:15:31  5-MIN KAAT 161015Z AUTO 25004KT 4SM -SN BR SCT005 SCT010 OVC015 M01/M01 A2956 4720 100 4000 230/04 RMK AO2 P0000 T10061006 TSNO
94299KAAT AAT20161216022014512/16/16 02:20:31  5-MIN KAAT 161020Z AUTO 25006KT 9SM FEW005 SCT010 OVC015 M01/M01 A2956 4710 100 4000 240/06 RMK AO2 SNE19 P0000 T10061006 TSNO
94299KAAT AAT20161216022514612/16/16 02:25:31  5-MIN KAAT 161025Z AUTO 25005KT 10SM FEW005 BKN015 OVC020 M01/M01 A2956 4710 100 4000 240/05 RMK AO2 SNE19 P0000 T10061006 TSNO
94299KAAT AAT20161216023014612/16/16 02:30:31  5-MIN KAAT 161030Z AUTO 23005KT 10SM BKN015 BKN022 OVC030 M01/M01 A2957 4710 100 4000 220/05 RMK AO2 SNE19 P0000 T10061006 TSNO
94299KAAT AAT20161216023513212/16/16 02:35:31  5-MIN KAAT 161035Z AUTO 22005KT 10SM OVC017 M01/M01 A2957 4710 100 4000 210/05 RMK AO2 SNE19 P0000 T10061006 TSNO
94299KAAT AAT20161216024013912/16/16 02:40:31  5-MIN KAAT 161040Z AUTO 22005KT 10SM BKN017 OVC037 M01/M01 A2957 4700 100 4000 210/05 RMK AO2 SNE19 P0000 T10061006 TSNO
94299KAAT AAT20161216024513912/16/16 02:45:31  5-MIN KAAT 161045Z AUTO 23005KT 10SM BKN018 OVC037 M01/M01 A2957 4700 100 4000 210/05 RMK AO2 SNE19 P0000 T10061006 TSNO
94299KAAT AAT20161216025015312/16/16 02:50:31  5-MIN KAAT 161050Z AUTO 25005KT 10SM BKN018 BKN032 OVC040 M01/M01 A2957 4710 100 4000 230/05 RMK AO2 SNE19 SLP013 P0000 T10061006 TSNO
94299KAAT AAT20161216025514512/16/16 02:55:31  5-MIN KAAT 161055Z AUTO 26004KT 10SM BKN017 OVC040 M01/M01 A2957 4710 96 4000 250/04 RMK AO2 SNE19 SLP013 P0000 T10061011 TSNO
94299KAAT AAT20161216030012612/16/16 03:00:31  5-MIN KAAT 161100Z AUTO 26005KT 10SM BKN017 OVC039 M01/M01 A2957 4710 96 4000 250/05 RMK AO2 T10061011 TSNO
94299KAAT AAT20161216030512612/16/16 03:05:31  5-MIN KAAT 161105Z AUTO 27006KT 10SM SCT015 OVC039 M01/M01 A2957 4710 96 4000 250/06 RMK AO2 T10061011 TSNO
94299KAAT AAT20161216031012612/16/16 03:10:31  5-MIN KAAT 161110Z AUTO 28007KT 10SM SCT015 OVC039 M01/M01 A2957 4710 96 4000 260/07 RMK AO2 T10061011 TSNO
94299KAAT AAT20161216031512612/16/16 03:15:31  5-MIN KAAT 161115Z AUTO 28007KT 10SM FEW015 OVC040 M01/M01 A2957 4710 96 4000 270/07 RMK AO2 T10061011 TSNO
94299KAAT AAT20161216032012612/16/16 03:20:31  5-MIN KAAT 161120Z AUTO 27008KT 10SM FEW015 OVC040 M01/M01 A2957 4710 96 4000 250/08 RMK AO2 T10061011 TSNO
94299KAAT AAT20161216032512612/16/16 03:25:31  5-MIN KAAT 161125Z AUTO 27009KT 10SM FEW015 OVC040 M01/M01 A2957 4700 96 4000 250/09 RMK AO2 T10061011 TSNO
94299KAAT AAT20161216033011912/16/16 03:30:31  5-MIN KAAT 161130Z AUTO 27008KT 10SM OVC042 M01/M01 A2958 4700 96 4000 250/08 RMK AO2 T10061011 TSNO
94299KAAT AAT20161216033511912/16/16 03:35:31  5-MIN KAAT 161135Z AUTO 27008KT 10SM OVC042 M01/M01 A2958 4700 96 4000 260/08 RMK AO2 T10061011 TSNO
94299KAAT AAT20161216034011912/16/16 03:40:31  5-MIN KAAT 161140Z AUTO 28007KT 10SM OVC041 M01/M02 A2958 4700 92 4000 260/07 RMK AO2 T10061017 TSNO
94299KAAT AAT20161216034511912/16/16 03:45:31  5-MIN KAAT 161145Z AUTO 27007KT 10SM OVC041 M01/M02 A2958 4700 92 4000 260/07 RMK AO2 T10061017 TSNO
94299KAAT AAT20161216035015612/16/16 03:50:31  5-MIN KAAT 161150Z AUTO 27007KT 10SM OVC041 M01/M02 A2958 4700 92 4000 260/07 RMK AO2 SLP018 60010 70046 T10061017 10011 21006 58003 TSNO
94299KAAT AAT20161216035515612/16/16 03:55:31  5-MIN KAAT 161155Z AUTO 26007KT 10SM OVC041 M01/M02 A2958 4690 92 4000 250/07 RMK AO2 SLP019 60010 70046 T10061017 10011 21006 53010 TSNO
94299KAAT AAT20161216040011912/16/16 04:00:31  5-MIN KAAT 161200Z AUTO 27008KT 10SM OVC040 M01/M02 A2958 4690 96 3900 250/08 RMK AO2 T10111017 TSNO
94299KAAT AAT20161216040512612/16/16 04:05:31  5-MIN KAAT 161205Z AUTO 27008KT 10SM FEW014 OVC040 M01/M02 A2959 4690 96 3900 260/08 RMK AO2 T10111017 TSNO
94299KAAT AAT20161216041013312/16/16 04:10:31  5-MIN KAAT 161210Z AUTO 27010KT 10SM SCT014 SCT019 OVC040 M01/M02 A2959 4690 88 4000 260/10 RMK AO2 T10061022 TSNO
94299KAAT AAT20161216041512612/16/16 04:15:31  5-MIN KAAT 161215Z AUTO 29012KT 10SM FEW014 OVC040 M01/M02 A2959 4690 92 3900 270/12 RMK AO2 T10111022 TSNO
94299KAAT AAT20161216042012612/16/16 04:20:31  5-MIN KAAT 161220Z AUTO 28009KT 10SM FEW014 OVC038 M01/M02 A2959 4680 88 4000 270/09 RMK AO2 T10061022 TSNO
94299KAAT AAT20161216042513312/16/16 04:25:31  5-MIN KAAT 161225Z AUTO 28009KT 10SM FEW015 SCT033 OVC040 M01/M02 A2959 4690 92 3900 260/09 RMK AO2 T10111022 TSNO
94299KAAT AAT20161216043012612/16/16 04:30:31  5-MIN KAAT 161230Z AUTO 28009KT 10SM FEW015 OVC037 M01/M02 A2960 4680 92 3900 270/09 RMK AO2 T10111022 TSNO
94299KAAT AAT20161216043512612/16/16 04:35:31  5-MIN KAAT 161235Z AUTO 28008KT 10SM FEW016 OVC037 M01/M02 A2960 4680 92 3900 270/08 RMK AO2 T10111022 TSNO
94299KAAT AAT20161216044012612/16/16 04:40:31  5-MIN KAAT 161240Z AUTO 28010KT 10SM SCT018 OVC038 M01/M03 A2960 4670 88 3900 270/10 RMK AO2 T10111028 TSNO
94299KAAT AAT20161216044512612/16/16 04:45:31  5-MIN KAAT 161245Z AUTO 29009KT 10SM SCT018 OVC038 M01/M03 A2960 4670 88 3900 270/09 RMK AO2 T10111028 TSNO
94299KAAT AAT20161216045013312/16/16 04:50:31  5-MIN KAAT 161250Z AUTO 29011KT 10SM SCT018 OVC038 M01/M03 A2961 4670 88 3900 270/11 RMK AO2 SLP029 T10111028 TSNO
94299KAAT AAT20161216045513312/16/16 04:55:31  5-MIN KAAT 161255Z AUTO 29012KT 10SM SCT018 OVC038 M01/M03 A2960 4680 88 3900 270/12 RMK AO2 SLP028 T10111028 TSNO
94299KAAT AAT20161216050013212/16/16 05:00:31  5-MIN KAAT 161300Z AUTO 30010G18KT 10SM SCT016 OVC039 M01/M03 A2961 4670 85 3900 290/10G18 RMK AO2 T10111033 TSNO
94299KAAT AAT20161216050513212/16/16 05:05:31  5-MIN KAAT 161305Z AUTO 30012G18KT 10SM SCT016 OVC039 M02/M03 A2961 4670 88 3800 290/12G18 RMK AO2 T10171033 TSNO
94299KAAT AAT20161216051012612/16/16 05:10:31  5-MIN KAAT 161310Z AUTO 29012KT 10SM SCT016 OVC039 M02/M03 A2961 4670 88 3800 280/12 RMK AO2 T10171033 TSNO
94299KAAT AAT20161216051512612/16/16 05:15:31  5-MIN KAAT 161315Z AUTO 30014KT 10SM SCT016 OVC041 M02/M04 A2961 4670 85 3800 280/14 RMK AO2 T10171039 TSNO
94299KAAT AAT20161216052012612/16/16 05:20:31  5-MIN KAAT 161320Z AUTO 30011KT 10SM SCT016 OVC041 M02/M04 A2961 4670 85 3800 290/11 RMK AO2 T10171039 TSNO
94299KAAT AAT20161216052512612/16/16 05:25:31  5-MIN KAAT 161325Z AUTO 30012KT 10SM FEW016 OVC041 M02/M04 A2961 4670 85 3800 290/12 RMK AO2 T10171039 TSNO
94299KAAT AAT20161216053012612/16/16 05:30:31  5-MIN KAAT 161330Z AUTO 30013KT 10SM FEW016 OVC042 M02/M04 A2962 4660 85 3800 290/13 RMK AO2 T10171039 TSNO
94299KAAT AAT20161216053512612/16/16 05:35:31  5-MIN KAAT 161335Z AUTO 30014KT 10SM FEW017 OVC042 M02/M04 A2962 4660 81 3800 280/14 RMK AO2 T10171044 TSNO
94299KAAT AAT20161216054012612/16/16 05:40:31  5-MIN KAAT 161340Z AUTO 30011KT 10SM FEW017 OVC042 M02/M04 A2962 4660 88 3700 290/11 RMK AO2 T10221039 TSNO
94299KAAT AAT20161216054511912/16/16 05:45:31  5-MIN KAAT 161345Z AUTO 30011KT 10SM OVC042 M02/M04 A2962 4660 88 3700 290/11 RMK AO2 T10221039 TSNO
94299KAAT AAT20161216055012612/16/16 05:50:31  5-MIN KAAT 161350Z AUTO 30010KT 10SM BKN042 M02/M04 A2963 4650 88 3700 280/10 RMK AO2 SLP038 T10221039 TSNO
94299KAAT AAT20161216055512612/16/16 05:55:31  5-MIN KAAT 161355Z AUTO 29008KT 10SM BKN042 M02/M04 A2963 4650 88 3700 280/08 RMK AO2 SLP039 T10221039 TSNO
94299KAAT AAT20161216060011912/16/16 06:00:31  5-MIN KAAT 161400Z AUTO 29007KT 10SM OVC041 M03/M04 A2963 4650 92 3700 280/07 RMK AO2 T10281039 TSNO
94299KAAT AAT20161216060511912/16/16 06:05:31  5-MIN KAAT 161405Z AUTO 30008KT 10SM OVC041 M03/M04 A2963 4650 92 3600 280/08 RMK AO2 T10281039 TSNO
94299KAAT AAT20161216061011912/16/16 06:10:31  5-MIN KAAT 161410Z AUTO 30009KT 10SM OVC041 M03/M04 A2964 4640 88 3600 280/09 RMK AO2 T10281044 TSNO
94299KAAT AAT20161216061511912/16/16 06:15:31  5-MIN KAAT 161415Z AUTO 30008KT 10SM OVC042 M03/M04 A2964 4640 88 3600 280/08 RMK AO2 T10281044 TSNO
94299KAAT AAT20161216062012612/16/16 06:20:31  5-MIN KAAT 161420Z AUTO 31009KT 10SM FEW017 OVC042 M03/M04 A2964 4640 88 3600 290/09 RMK AO2 T10281044 TSNO
94299KAAT AAT20161216062512612/16/16 06:25:31  5-MIN KAAT 161425Z AUTO 31011KT 10SM FEW017 OVC043 M03/M04 A2965 4630 88 3600 300/11 RMK AO2 T10281044 TSNO
94299KAAT AAT20161216063012612/16/16 06:30:31  5-MIN KAAT 161430Z AUTO 30012KT 10SM FEW017 OVC043 M03/M05 A2965 4630 85 3600 280/12 RMK AO2 T10281050 TSNO
94299KAAT AAT20161216063512612/16/16 06:35:31  5-MIN KAAT 161435Z AUTO 31012KT 10SM FEW017 OVC043 M03/M05 A2966 4630 85 3600 290/12 RMK AO2 T10281050 TSNO
94299KAAT AAT20161216064012612/16/16 06:40:31  5-MIN KAAT 161440Z AUTO 30009KT 10SM FEW017 OVC043 M03/M04 A2966 4630 88 3600 290/09 RMK AO2 T10281044 TSNO
94299KAAT AAT20161216064511912/16/16 06:45:31  5-MIN KAAT 161445Z AUTO 31011KT 10SM OVC043 M03/M04 A2966 4620 88 3600 290/11 RMK AO2 T10281044 TSNO
94299KAAT AAT20161216065013212/16/16 06:50:31  5-MIN KAAT 161450Z AUTO 31011KT 10SM OVC041 M03/M05 A2966 4620 85 3600 290/11 RMK AO2 SLP052 T10281050 53010 TSNO
94299KAAT AAT20161216065513212/16/16 06:55:31  5-MIN KAAT 161455Z AUTO 31012KT 10SM OVC041 M03/M05 A2966 4620 85 3600 290/12 RMK AO2 SLP053 T10281050 53024 TSNO
94299KAAT AAT20161216070011912/16/16 07:00:31  5-MIN KAAT 161500Z AUTO 31010KT 10SM OVC041 M03/M05 A2967 4620 85 3600 300/10 RMK AO2 T10281050 TSNO
94299KAAT AAT20161216070511912/16/16 07:05:31  5-MIN KAAT 161505Z AUTO 31011KT 10SM OVC039 M03/M05 A2967 4610 85 3600 300/11 RMK AO2 T10281050 TSNO
94299KAAT AAT20161216071011912/16/16 07:10:31  5-MIN KAAT 161510Z AUTO 31013KT 10SM OVC039 M03/M05 A2967 4610 85 3600 290/13 RMK AO2 T10281050 TSNO
94299KAAT AAT20161216071511912/16/16 07:15:31  5-MIN KAAT 161515Z AUTO 31015KT 10SM OVC039 M03/M05 A2967 4610 85 3600 290/15 RMK AO2 T10281050 TSNO
94299KAAT AAT20161216072011912/16/16 07:20:31  5-MIN KAAT 161520Z AUTO 31013KT 10SM OVC039 M03/M05 A2967 4610 88 3500 300/13 RMK AO2 T10331050 TSNO
94299KAAT AAT20161216072511912/16/16 07:25:31  5-MIN KAAT 161525Z AUTO 31014KT 10SM OVC039 M03/M06 A2967 4610 85 3500 290/14 RMK AO2 T10331056 TSNO
94299KAAT AAT20161216073011912/16/16 07:30:31  5-MIN KAAT 161530Z AUTO 31013KT 10SM OVC039 M03/M06 A2968 4610 85 3500 300/13 RMK AO2 T10331056 TSNO
94299KAAT AAT20161216073511912/16/16 07:35:31  5-MIN KAAT 161535Z AUTO 31013KT 10SM OVC039 M03/M06 A2968 4610 85 3500 290/13 RMK AO2 T10331056 TSNO
94299KAAT AAT20161216074011912/16/16 07:40:31  5-MIN KAAT 161540Z AUTO 31011KT 10SM OVC039 M03/M06 A2968 4610 85 3500 300/11 RMK AO2 T10331056 TSNO
94299KAAT AAT20161216074511912/16/16 07:45:31  5-MIN KAAT 161545Z AUTO 32011KT 10SM OVC039 M03/M05 A2968 4600 88 3500 300/11 RMK AO2 T10331050 TSNO
94299KAAT AAT20161216075012612/16/16 07:50:31  5-MIN KAAT 161550Z AUTO 31012KT 10SM OVC039 M03/M06 A2968 4600 85 3500 300/12 RMK AO2 SLP061 T10331056 TSNO
94299KAAT AAT20161216075512612/16/16 07:55:31  5-MIN KAAT 161555Z AUTO 32012KT 10SM OVC037 M03/M06 A2968 4600 85 3500 300/12 RMK AO2 SLP062 T10331056 TSNO
94299KAAT AAT20161216080011912/16/16 08:00:31  5-MIN KAAT 161600Z AUTO 32012KT 10SM OVC037 M03/M06 A2969 4600 85 3500 300/12 RMK AO2 T10331056 TSNO
94299KAAT AAT20161216080511912/16/16 08:05:31  5-MIN KAAT 161605Z AUTO 31011KT 10SM OVC037 M03/M06 A2969 4590 85 3500 290/11 RMK AO2 T10331056 TSNO
94299KAAT AAT20161216081011912/16/16 08:10:31  5-MIN KAAT 161610Z AUTO 32011KT 10SM OVC039 M03/M06 A2970 4590 85 3500 310/11 RMK AO2 T10331056 TSNO
94299KAAT AAT20161216081511912/16/16 08:15:31  5-MIN KAAT 161615Z AUTO 32011KT 10SM OVC039 M03/M06 A2970 4590 85 3500 300/11 RMK AO2 T10331056 TSNO
94299KAAT AAT20161216082011912/16/16 08:20:31  5-MIN KAAT 161620Z AUTO 31011KT 10SM OVC039 M03/M06 A2970 4580 85 3500 300/11 RMK AO2 T10331056 TSNO
94299KAAT AAT20161216082511912/16/16 08:25:31  5-MIN KAAT 161625Z AUTO 32011KT 10SM OVC039 M03/M06 A2970 4580 85 3500 300/11 RMK AO2 T10331056 TSNO
94299KAAT AAT20161216083011912/16/16 08:30:31  5-MIN KAAT 161630Z AUTO 31013KT 10SM OVC039 M03/M06 A2971 4580 85 3500 300/13 RMK AO2 T10331056 TSNO
94299KAAT AAT20161216083511912/16/16 08:35:31  5-MIN KAAT 161635Z AUTO 30011KT 10SM OVC039 M04/M06 A2971 4580 85 3400 290/11 RMK AO2 T10391061 TSNO
94299KAAT AAT20161216084011912/16/16 08:40:31  5-MIN KAAT 161640Z AUTO 30013KT 10SM BKN039 M04/M06 A2971 4570 85 3400 290/13 RMK AO2 T10391061 TSNO
94299KAAT AAT20161216084511912/16/16 08:45:31  5-MIN KAAT 161645Z AUTO 31012KT 10SM BKN039 M04/M06 A2971 4570 85 3400 290/12 RMK AO2 T10391061 TSNO
94299KAAT AAT20161216085012612/16/16 08:50:31  5-MIN KAAT 161650Z AUTO 30011KT 10SM BKN039 M04/M06 A2972 4570 85 3400 290/11 RMK AO2 SLP077 T10391061 TSNO
94299KAAT AAT20161216085512612/16/16 08:55:31  5-MIN KAAT 161655Z AUTO 31013KT 10SM SCT041 M04/M06 A2972 4570 85 3400 290/13 RMK AO2 SLP078 T10391061 TSNO
94299KAAT AAT20161216090011912/16/16 09:00:31  5-MIN KAAT 161700Z AUTO 31011KT 10SM BKN041 M04/M06 A2972 4570 85 3400 290/11 RMK AO2 T10391061 TSNO
94299KAAT AAT20161216090511912/16/16 09:05:31  5-MIN KAAT 161705Z AUTO 31013KT 10SM BKN041 M03/M06 A2973 4560 85 3500 300/13 RMK AO2 T10331056 TSNO
94299KAAT AAT20161216091011912/16/16 09:10:31  5-MIN KAAT 161710Z AUTO 31013KT 10SM BKN042 M03/M06 A2973 4560 81 3500 290/13 RMK AO2 T10331061 TSNO
94299KAAT AAT20161216091511912/16/16 09:15:31  5-MIN KAAT 161715Z AUTO 31012KT 10SM BKN042 M03/M06 A2973 4560 81 3500 300/12 RMK AO2 T10331061 TSNO
94299KAAT AAT20161216092011912/16/16 09:20:31  5-MIN KAAT 161720Z AUTO 30013KT 10SM BKN042 M03/M06 A2973 4560 81 3500 290/13 RMK AO2 T10331061 TSNO
94299KAAT AAT20161216092511912/16/16 09:25:31  5-MIN KAAT 161725Z AUTO 31015KT 10SM BKN043 M03/M06 A2974 4550 81 3500 290/15 RMK AO2 T10331061 TSNO
94299KAAT AAT20161216093011912/16/16 09:30:31  5-MIN KAAT 161730Z AUTO 30015KT 10SM BKN041 M03/M06 A2974 4550 81 3500 280/15 RMK AO2 T10331061 TSNO
94299KAAT AAT20161216093511912/16/16 09:35:31  5-MIN KAAT 161735Z AUTO 30012KT 10SM BKN041 M03/M06 A2974 4550 81 3500 290/12 RMK AO2 T10331061 TSNO
94299KAAT AAT20161216094011912/16/16 09:40:31  5-MIN KAAT 161740Z AUTO 30014KT 10SM BKN043 M03/M06 A2974 4550 85 3500 290/14 RMK AO2 T10331056 TSNO
94299KAAT AAT20161216094511912/16/16 09:45:31  5-MIN KAAT 161745Z AUTO 30012KT 10SM SCT043 M03/M06 A2974 4550 81 3500 280/12 RMK AO2 T10281056 TSNO
94299KAAT AAT20161216095014412/16/16 09:50:31  5-MIN KAAT 161750Z AUTO 30013KT 10SM SCT041 M03/M06 A2975 4540 81 3500 290/13 RMK AO2 SLP087 T10281056 11006 21039 53024 TSNO
94299KAAT AAT20161216095514412/16/16 09:55:31  5-MIN KAAT 161755Z AUTO 30014KT 10SM FEW041 M03/M06 A2975 4540 81 3500 290/14 RMK AO2 SLP088 T10281056 11006 21039 53025 TSNO
94299KAAT AAT20161216100011912/16/16 10:00:31  5-MIN KAAT 161800Z AUTO 30014KT 10SM FEW043 M03/M06 A2975 4540 81 3500 290/14 RMK AO2 T10281056 TSNO
94299KAAT AAT20161216100511912/16/16 10:05:31  5-MIN KAAT 161805Z AUTO 30012KT 10SM FEW045 M03/M06 A2975 4540 81 3500 290/12 RMK AO2 T10281056 TSNO
94299KAAT AAT20161216101011912/16/16 10:10:31  5-MIN KAAT 161810Z AUTO 31012KT 10SM FEW045 M03/M06 A2975 4540 81 3500 290/12 RMK AO2 T10281056 TSNO
94299KAAT AAT20161216101511912/16/16 10:15:31  5-MIN KAAT 161815Z AUTO 31013KT 10SM FEW047 M03/M06 A2976 4530 81 3500 290/13 RMK AO2 T10281056 TSNO
94299KAAT AAT20161216102011912/16/16 10:20:31  5-MIN KAAT 161820Z AUTO 31013KT 10SM SCT047 M03/M06 A2976 4530 81 3500 290/13 RMK AO2 T10281056 TSNO
94299KAAT AAT20161216102511912/16/16 10:25:31  5-MIN KAAT 161825Z AUTO 30013KT 10SM SCT047 M03/M06 A2976 4530 81 3400 290/13 RMK AO2 T10331061 TSNO
94299KAAT AAT20161216103011912/16/16 10:30:31  5-MIN KAAT 161830Z AUTO 30014KT 10SM BKN047 M03/M06 A2976 4530 81 3400 280/14 RMK AO2 T10331061 TSNO
94299KAAT AAT20161216103512512/16/16 10:35:31  5-MIN KAAT 161835Z AUTO 30007G18KT 10SM BKN046 M03/M06 A2976 4530 81 3400 280/07G18 RMK AO2 T10331061 TSNO
94299KAAT AAT20161216104011912/16/16 10:40:31  5-MIN KAAT 161840Z AUTO 29010KT 10SM BKN046 M03/M06 A2977 4520 81 3500 280/10 RMK AO2 T10281056 TSNO
94299KAAT AAT20161216104511912/16/16 10:45:31  5-MIN KAAT 161845Z AUTO 31009KT 10SM OVC046 M03/M06 A2977 4520 81 3500 290/09 RMK AO2 T10281056 TSNO
94299KAAT AAT20161216105012612/16/16 10:50:31  5-MIN KAAT 161850Z AUTO 31012KT 10SM OVC046 M03/M06 A2977 4520 78 3500 290/12 RMK AO2 SLP098 T10281061 TSNO
94299KAAT AAT20161216105512612/16/16 10:55:31  5-MIN KAAT 161855Z AUTO 30011KT 10SM OVC046 M03/M06 A2977 4520 81 3400 280/11 RMK AO2 SLP098 T10331061 TSNO
94299KAAT AAT20161216110011912/16/16 11:00:31  5-MIN KAAT 161900Z AUTO 30009KT 10SM OVC046 M03/M06 A2977 4520 81 3400 290/09 RMK AO2 T10331061 TSNO
94299KAAT AAT20161216110511912/16/16 11:05:31  5-MIN KAAT 161905Z AUTO 31008KT 10SM OVC046 M03/M06 A2977 4520 81 3400 290/08 RMK AO2 T10331061 TSNO
94299KAAT AAT20161216111011912/16/16 11:10:31  5-MIN KAAT 161910Z AUTO 31011KT 10SM OVC046 M03/M06 A2977 4520 81 3400 290/11 RMK AO2 T10331061 TSNO
94299KAAT AAT20161216111511912/16/16 11:15:31  5-MIN KAAT 161915Z AUTO 30008KT 10SM OVC046 M03/M06 A2977 4520 81 3400 280/08 RMK AO2 T10331061 TSNO
94299KAAT AAT20161216112011912/16/16 11:20:31  5-MIN KAAT 161920Z AUTO 31013KT 10SM OVC046 M03/M06 A2978 4520 81 3400 290/13 RMK AO2 T10331061 TSNO
94299KAAT AAT20161216112512512/16/16 11:25:31  5-MIN KAAT 161925Z AUTO 30013G18KT 10SM OVC047 M03/M06 A2978 4520 81 3400 290/13G18 RMK AO2 T10331061 TSNO
94299KAAT AAT20161216113011912/16/16 11:30:31  5-MIN KAAT 161930Z AUTO 30012KT 10SM OVC047 M03/M06 A2977 4520 78 3500 290/12 RMK AO2 T10281061 TSNO
94299KAAT AAT20161216113511912/16/16 11:35:31  5-MIN KAAT 161935Z AUTO 31014KT 10SM OVC047 M03/M06 A2977 4520 78 3500 290/14 RMK AO2 T10281061 TSNO
94299KAAT AAT20161216114011912/16/16 11:40:31  5-MIN KAAT 161940Z AUTO 31015KT 10SM OVC049 M03/M06 A2977 4520 78 3500 290/15 RMK AO2 T10281061 TSNO
94299KAAT AAT20161216114512512/16/16 11:45:31  5-MIN KAAT 161945Z AUTO 31012G19KT 10SM BKN049 M02/M06 A2977 4520 75 3600 290/12G19 RMK AO2 T10221061 TSNO
94299KAAT AAT20161216115012612/16/16 11:50:31  5-MIN KAAT 161950Z AUTO 30015KT 10SM BKN049 M03/M06 A2977 4520 78 3500 290/15 RMK AO2 SLP099 T10281061 TSNO
94299KAAT AAT20161216115512612/16/16 11:55:31  5-MIN KAAT 161955Z AUTO 30013KT 10SM SCT049 M03/M07 A2977 4520 75 3500 280/13 RMK AO2 SLP099 T10281067 TSNO
94299KAAT AAT20161216120011912/16/16 12:00:31  5-MIN KAAT 162000Z AUTO 30016KT 10SM FEW049 M03/M06 A2977 4520 78 3500 290/16 RMK AO2 T10281061 TSNO
94299KAAT AAT20161216120511912/16/16 12:05:31  5-MIN KAAT 162005Z AUTO 30014KT 10SM FEW047 M02/M06 A2977 4520 75 3600 290/14 RMK AO2 T10221061 TSNO
94299KAAT AAT20161216121011612/16/16 12:10:31  5-MIN KAAT 162010Z AUTO 30016KT 10SM CLR M02/M06 A2977 4520 78 3600 290/16 RMK AO2 T10221056 TSNO
94299KAAT AAT20161216121511612/16/16 12:15:31  5-MIN KAAT 162015Z AUTO 29013KT 10SM CLR M02/M06 A2977 4520 75 3600 270/13 RMK AO2 T10221061 TSNO
94299KAAT AAT20161216122011612/16/16 12:20:31  5-MIN KAAT 162020Z AUTO 30014KT 10SM CLR M02/M07 A2977 4520 72 3600 280/14 RMK AO2 T10221067 TSNO
94299KAAT AAT20161216122511612/16/16 12:25:31  5-MIN KAAT 162025Z AUTO 30014KT 10SM CLR M02/M06 A2978 4510 75 3600 280/14 RMK AO2 T10171056 TSNO
94299KAAT AAT20161216123011912/16/16 12:30:31  5-MIN KAAT 162030Z AUTO 29014KT 10SM FEW046 M02/M06 A2978 4510 75 3500 270/14 RMK AO2 T10221061 TSNO
94299KAAT AAT20161216123512612/16/16 12:35:31  5-MIN KAAT 162035Z AUTO 28011KT 10SM FEW023 FEW046 M03/M07 A2978 4510 75 3500 260/11 RMK AO2 T10281067 TSNO
94299KAAT AAT20161216124012612/16/16 12:40:31  5-MIN KAAT 162040Z AUTO 29011KT 10SM FEW023 SCT046 M02/M06 A2978 4510 75 3500 270/11 RMK AO2 T10221061 TSNO
94299KAAT AAT20161216124512612/16/16 12:45:31  5-MIN KAAT 162045Z AUTO 30013KT 10SM FEW023 BKN046 M02/M06 A2978 4510 75 3600 290/13 RMK AO2 T10171056 TSNO
94299KAAT AAT20161216125013912/16/16 12:50:31  5-MIN KAAT 162050Z AUTO 30010KT 10SM FEW023 BKN046 M01/M06 A2978 4510 72 3700 290/10 RMK AO2 SLP100 T10111056 53025 TSNO
94299KAAT AAT20161216125513912/16/16 12:55:31  5-MIN KAAT 162055Z AUTO 31013KT 10SM SCT023 BKN046 M02/M06 A2978 4510 75 3600 290/13 RMK AO2 SLP102 T10171056 51010 TSNO
94299KAAT AAT20161216130012612/16/16 13:00:31  5-MIN KAAT 162100Z AUTO 29013KT 10SM SCT024 OVC046 M02/M06 A2978 4510 75 3500 280/13 RMK AO2 T10221061 TSNO
94299KAAT AAT20161216130512612/16/16 13:05:31  5-MIN KAAT 162105Z AUTO 30014KT 10SM SCT024 OVC046 M02/M06 A2979 4500 75 3500 290/14 RMK AO2 T10221061 TSNO
94299KAAT AAT20161216131012612/16/16 13:10:31  5-MIN KAAT 162110Z AUTO 31013KT 10SM FEW024 OVC046 M02/M06 A2979 4500 75 3500 290/13 RMK AO2 T10221061 TSNO
94299KAAT AAT20161216131512612/16/16 13:15:31  5-MIN KAAT 162115Z AUTO 29012KT 10SM FEW024 OVC044 M02/M06 A2979 4500 72 3600 280/12 RMK AO2 T10171061 TSNO
94299KAAT AAT20161216132012612/16/16 13:20:31  5-MIN KAAT 162120Z AUTO 29012KT 10SM FEW024 OVC044 M02/M06 A2979 4500 75 3500 270/12 RMK AO2 T10221061 TSNO
94299KAAT AAT20161216132512612/16/16 13:25:31  5-MIN KAAT 162125Z AUTO 29011KT 10SM FEW024 OVC044 M02/M07 A2979 4500 72 3500 280/11 RMK AO2 T10221067 TSNO
94299KAAT AAT20161216133011912/16/16 13:30:31  5-MIN KAAT 162130Z AUTO 29013KT 10SM OVC044 M02/M07 A2979 4500 72 3500 280/13 RMK AO2 T10221067 TSNO
94299KAAT AAT20161216133511912/16/16 13:35:31  5-MIN KAAT 162135Z AUTO 30013KT 10SM OVC044 M02/M07 A2980 4500 72 3500 290/13 RMK AO2 T10221067 TSNO
94299KAAT AAT20161216134011912/16/16 13:40:31  5-MIN KAAT 162140Z AUTO 30011KT 10SM OVC044 M02/M07 A2980 4490 72 3500 290/11 RMK AO2 T10221067 TSNO
94299KAAT AAT20161216134511912/16/16 13:45:31  5-MIN KAAT 162145Z AUTO 32010KT 10SM OVC044 M02/M07 A2980 4490 72 3500 310/10 RMK AO2 T10221067 TSNO
94299KAAT AAT20161216135012612/16/16 13:50:31  5-MIN KAAT 162150Z AUTO 30010KT 10SM OVC044 M02/M07 A2980 4490 72 3500 280/10 RMK AO2 SLP110 T10221067 TSNO
94299KAAT AAT20161216135512612/16/16 13:55:31  5-MIN KAAT 162155Z AUTO 31012KT 10SM OVC044 M02/M06 A2980 4490 75 3500 290/12 RMK AO2 SLP110 T10221061 TSNO
94299KAAT AAT20161216140011912/16/16 14:00:31  5-MIN KAAT 162200Z AUTO 30013KT 10SM OVC044 M03/M07 A2981 4480 75 3400 290/13 RMK AO2 T10281067 TSNO
94299KAAT AAT20161216140513412/16/16 14:05:31  5-MIN KAAT 162205Z AUTO 30010KT 9SM -SN OVC044 M03/M06 A2981 4490 78 3400 290/10 RMK AO2 SNB03 P0000 T10281061 TSNO
94299KAAT AAT20161216141013412/16/16 14:10:31  5-MIN KAAT 162210Z AUTO 30010KT 9SM -SN OVC044 M03/M06 A2981 4490 78 3400 280/10 RMK AO2 SNB03 P0000 T10281061 TSNO
94299KAAT AAT20161216141513312/16/16 14:15:31  5-MIN KAAT 162215Z AUTO 30013KT 9SM OVC046 M03/M06 A2981 4480 78 3400 280/13 RMK AO2 SNB03E14 P0000 T10281061 TSNO
94299KAAT AAT20161216142013412/16/16 14:20:31  5-MIN KAAT 162220Z AUTO 30010KT 10SM OVC046 M03/M07 A2981 4480 75 3400 290/10 RMK AO2 SNB03E14 P0000 T10281067 TSNO
94299KAAT AAT20161216142513412/16/16 14:25:31  5-MIN KAAT 162225Z AUTO 30012KT 10SM OVC046 M03/M07 A2981 4480 75 3400 290/12 RMK AO2 SNB03E14 P0000 T10281067 TSNO
94299KAAT AAT20161216143013412/16/16 14:30:31  5-MIN KAAT 162230Z AUTO 30011KT 10SM OVC046 M03/M07 A2982 4480 75 3400 290/11 RMK AO2 SNB03E14 P0000 T10281067 TSNO
94299KAAT AAT20161216143513412/16/16 14:35:31  5-MIN KAAT 162235Z AUTO 31009KT 10SM OVC045 M03/M07 A2982 4470 75 3400 290/09 RMK AO2 SNB03E14 P0000 T10281067 TSNO
94299KAAT AAT20161216144013412/16/16 14:40:31  5-MIN KAAT 162240Z AUTO 31012KT 10SM OVC045 M03/M07 A2983 4470 75 3400 300/12 RMK AO2 SNB03E14 P0000 T10281067 TSNO
94299KAAT AAT20161216144513412/16/16 14:45:31  5-MIN KAAT 162245Z AUTO 30012KT 10SM OVC043 M03/M07 A2983 4470 75 3400 290/12 RMK AO2 SNB03E14 P0000 T10281067 TSNO
94299KAAT AAT20161216145014112/16/16 14:50:31  5-MIN KAAT 162250Z AUTO 30013KT 10SM OVC043 M03/M07 A2983 4460 71 3400 280/13 RMK AO2 SNB03E14 SLP121 P0000 T10281072 TSNO
94299KAAT AAT20161216145514112/16/16 14:55:31  5-MIN KAAT 162255Z AUTO 32013KT 10SM OVC043 M03/M07 A2983 4460 71 3400 310/13 RMK AO2 SNB03E14 SLP121 P0000 T10281072 TSNO
94299KAAT AAT20161216150011912/16/16 15:00:31  5-MIN KAAT 162300Z AUTO 31010KT 10SM OVC045 M03/M07 A2984 4460 71 3400 290/10 RMK AO2 T10281072 TSNO
94299KAAT AAT20161216150511912/16/16 15:05:31  5-MIN KAAT 162305Z AUTO 31008KT 10SM OVC045 M03/M07 A2984 4460 75 3400 290/08 RMK AO2 T10281067 TSNO
94299KAAT AAT20161216151011912/16/16 15:10:31  5-MIN KAAT 162310Z AUTO 30012KT 10SM OVC045 M03/M07 A2984 4450 75 3400 280/12 RMK AO2 T10281067 TSNO
94299KAAT AAT20161216151511912/16/16 15:15:31  5-MIN KAAT 162315Z AUTO 31012KT 10SM OVC045 M03/M07 A2985 4450 75 3400 290/12 RMK AO2 T10281067 TSNO
94299KAAT AAT20161216152011912/16/16 15:20:31  5-MIN KAAT 162320Z AUTO 31013KT 10SM OVC045 M03/M07 A2985 4450 74 3300 290/13 RMK AO2 T10331072 TSNO
94299KAAT AAT20161216152513512/16/16 15:25:31  5-MIN KAAT 162325Z AUTO 31012KT 10SM -SN OVC045 M03/M07 A2985 4440 74 3300 300/12 RMK AO2 SNB25 P0000 T10331072 TSNO
94299KAAT AAT20161216153013412/16/16 15:30:31  5-MIN KAAT 162330Z AUTO 30009KT 9SM -SN OVC045 M03/M07 A2985 4450 74 3300 280/09 RMK AO2 SNB25 P0000 T10331072 TSNO
94299KAAT AAT20161216153513312/16/16 15:35:31  5-MIN KAAT 162335Z AUTO 30009KT 9SM OVC045 M03/M07 A2986 4440 74 3300 280/09 RMK AO2 SNB25E34 P0000 T10331072 TSNO
94299KAAT AAT20161216154014112/16/16 15:40:31  5-MIN KAAT 162340Z AUTO 30012KT 7SM -SN FEW032 OVC045 M03/M07 A2986 4440 78 3300 290/12 RMK AO2 SNB25 P0000 T10331067 TSNO
94299KAAT AAT20161216154514112/16/16 15:45:31  5-MIN KAAT 162345Z AUTO 30011KT 7SM -SN FEW032 OVC045 M03/M07 A2986 4440 74 3300 290/11 RMK AO2 SNB25 P0000 T10331072 TSNO
94299KAAT AAT20161216155016512/16/16 15:50:31  5-MIN KAAT 162350Z AUTO 30012KT 9SM -SN OVC047 M03/M07 A2986 4430 74 3300 290/12 RMK AO2 SNB25 SLP132 P0000 60000 T10331072 11011 21033 51010 TSNO
94299KAAT AAT20161216155516712/16/16 15:55:31  5-MIN KAAT 162355Z AUTO 30014KT 6SM HZ OVC047 M03/M07 A2987 4430 74 3300 290/14 RMK AO2 SNB25E53 SLP133 P0000 60000 T10331072 11011 21033 53025 TSNO
94299KAAT AAT20161216160013612/16/16 16:00:31  5-MIN KAAT 170000Z AUTO 29011KT 5SM -SN OVC047 M03/M07 A2987 4430 78 3300 280/11 RMK AO2 SNB2356 P0000 T10331067 TSNO
94299KAAT AAT20161216160513612/16/16 16:05:31  5-MIN KAAT 170005Z AUTO 30010KT 6SM -SN OVC047 M03/M07 A2987 4430 78 3300 290/10 RMK AO2 SNB2356 P0000 T10331067 TSNO
94299KAAT AAT20161216161013512/16/16 16:10:31  5-MIN KAAT 170010Z AUTO 30011KT 9SM OVC047 M03/M07 A2987 4430 78 3300 280/11 RMK AO2 SNB2356E08 P0000 T10331067 TSNO
94299KAAT AAT20161216161513612/16/16 16:15:31  5-MIN KAAT 170015Z AUTO 30009KT 10SM OVC048 M03/M07 A2987 4430 78 3300 280/09 RMK AO2 SNB2356E08 P0000 T10331067 TSNO
94299KAAT AAT20161216162013612/16/16 16:20:31  5-MIN KAAT 170020Z AUTO 30010KT 10SM OVC048 M03/M07 A2987 4430 78 3300 290/10 RMK AO2 SNB2356E08 P0000 T10331067 TSNO
94299KAAT AAT20161216162513612/16/16 16:25:31  5-MIN KAAT 170025Z AUTO 30008KT 10SM OVC048 M04/M07 A2988 4420 81 3200 290/08 RMK AO2 SNB2356E08 P0000 T10391067 TSNO
94299KAAT AAT20161216163013612/16/16 16:30:31  5-MIN KAAT 170030Z AUTO 30009KT 10SM OVC048 M04/M07 A2988 4420 81 3200 280/09 RMK AO2 SNB2356E08 P0000 T10391067 TSNO
94299KAAT AAT20161216163513612/16/16 16:35:31  5-MIN KAAT 170035Z AUTO 31007KT 10SM OVC048 M04/M07 A2988 4420 81 3200 290/07 RMK AO2 SNB2356E08 P0000 T10391067 TSNO
94299KAAT AAT20161216164013612/16/16 16:40:31  5-MIN KAAT 170040Z AUTO 30008KT 10SM OVC048 M04/M07 A2988 4420 81 3200 290/08 RMK AO2 SNB2356E08 P0000 T10391067 TSNO
94299KAAT AAT20161216164513612/16/16 16:45:31  5-MIN KAAT 170045Z AUTO 29010KT 10SM OVC048 M03/M07 A2988 4420 78 3300 280/10 RMK AO2 SNB2356E08 P0000 T10331067 TSNO
94299KAAT AAT20161216165014312/16/16 16:50:31  5-MIN KAAT 170050Z AUTO 30008KT 10SM OVC048 M03/M07 A2988 4420 78 3300 290/08 RMK AO2 SNB2356E08 SLP140 P0000 T10331067 TSNO
94299KAAT AAT20161216165514312/16/16 16:55:31  5-MIN KAAT 170055Z AUTO 30008KT 10SM OVC049 M04/M07 A2988 4420 81 3200 290/08 RMK AO2 SNB2356E08 SLP140 P0000 T10391067 TSNO
94299KAAT AAT20161216170011912/16/16 17:00:31  5-MIN KAAT 170100Z AUTO 30009KT 10SM OVC049 M04/M06 A2988 4420 85 3200 280/09 RMK AO2 T10391061 TSNO
94299KAAT AAT20161216170511912/16/16 17:05:31  5-MIN KAAT 170105Z AUTO 30009KT 10SM OVC049 M04/M06 A2989 4410 85 3200 280/09 RMK AO2 T10391061 TSNO
94299KAAT AAT20161216171011912/16/16 17:10:31  5-MIN KAAT 170110Z AUTO 30006KT 10SM OVC049 M04/M06 A2989 4410 85 3200 290/06 RMK AO2 T10391061 TSNO
94299KAAT AAT20161216171511912/16/16 17:15:31  5-MIN KAAT 170115Z AUTO 34005KT 10SM OVC049 M04/M06 A2989 4400 85 3200 320/05 RMK AO2 T10391061 TSNO
94299KAAT AAT20161216172012612/16/16 17:20:31  5-MIN KAAT 170120Z AUTO 02006KT 10SM FEW019 OVC049 M03/M06 A2990 4400 81 3300 360/06 RMK AO2 T10331061 TSNO
94299KAAT AAT20161216172512612/16/16 17:25:31  5-MIN KAAT 170125Z AUTO 02005KT 10SM BKN017 OVC049 M04/M07 A2990 4400 81 3200 360/05 RMK AO2 T10391067 TSNO
94299KAAT AAT20161216173012612/16/16 17:30:31  5-MIN KAAT 170130Z AUTO 01006KT 10SM BKN017 OVC049 M04/M07 A2990 4400 81 3200 360/06 RMK AO2 T10391067 TSNO
94299KAAT AAT20161216173512612/16/16 17:35:31  5-MIN KAAT 170135Z AUTO 02007KT 10SM BKN017 OVC049 M04/M07 A2990 4400 81 3200 010/07 RMK AO2 T10391067 TSNO
94299KAAT AAT20161216174012612/16/16 17:40:31  5-MIN KAAT 170140Z AUTO 03005KT 10SM BKN017 OVC049 M04/M07 A2990 4400 81 3100 010/05 RMK AO2 T10441072 TSNO
94299KAAT AAT20161216174512612/16/16 17:45:31  5-MIN KAAT 170145Z AUTO 02006KT 10SM BKN017 OVC024 M04/M07 A2990 4400 81 3100 010/06 RMK AO2 T10441072 TSNO
94299KAAT AAT20161216175014812/16/16 17:50:31  5-MIN KAAT 170150Z AUTO 02007KT 8SM -SN BKN017 OVC024 M04/M07 A2991 4390 81 3100 360/07 RMK AO2 SNB48 SLP153 P0000 T10441072 TSNO
94299KAAT AAT20161216175514812/16/16 17:55:31  5-MIN KAAT 170155Z AUTO 01007KT 7SM -SN BKN018 OVC024 M04/M07 A2991 4390 81 3100 350/07 RMK AO2 SNB48 SLP154 P0000 T10441072 TSNO
94299KAAT AAT20161216180013512/16/16 18:00:31  5-MIN KAAT 170200Z AUTO 36008KT 6SM -SN BKN018 OVC026 M04/M07 A2992 4380 81 3100 350/08 RMK AO2 P0000 T10441072 TSNO
94299KAAT AAT20161216180513512/16/16 18:05:31  5-MIN KAAT 170205Z AUTO 36007KT 3SM -SN SCT018 OVC024 M04/M07 A2992 4380 81 3100 340/07 RMK AO2 P0000 T10441072 TSNO
94299KAAT AAT20161216181013112/16/16 18:10:31  5-MIN KAAT 170210Z AUTO 36006KT 2SM -SN BR OVC024 M05/M07 A2992 4380 84 3000 350/06 RMK AO2 P0000 T10501072 TSNO
94299KAAT AAT20161216181513812/16/16 18:15:31  5-MIN KAAT 170215Z AUTO 36007KT 2SM -SN BR SCT019 OVC024 M05/M07 A2992 4380 84 3000 350/07 RMK AO2 P0001 T10501072 TSNO
94299KAAT AAT20161216182013812/16/16 18:20:31  5-MIN KAAT 170220Z AUTO 36006KT 2SM -SN BR BKN019 OVC024 M05/M07 A2992 4380 88 3000 350/06 RMK AO2 P0001 T10501067 TSNO
94299KAAT AAT20161216182513812/16/16 18:25:31  5-MIN KAAT 170225Z AUTO 01006KT 4SM -SN BR BKN024 OVC030 M05/M07 A2992 4380 84 3000 350/06 RMK AO2 P0001 T10501072 TSNO
94299KAAT AAT20161216183013812/16/16 18:30:31  5-MIN KAAT 170230Z AUTO 01007KT 6SM -SN BR BKN022 OVC031 M05/M07 A2993 4370 84 3000 360/07 RMK AO2 P0001 T10501072 TSNO
94299KAAT AAT20161216183513812/16/16 18:35:31  5-MIN KAAT 170235Z AUTO 02009KT 6SM -SN BR BKN020 OVC029 M05/M07 A2993 4370 84 3000 360/09 RMK AO2 P0001 T10501072 TSNO
94299KAAT AAT20161216184014412/16/16 18:40:31  5-MIN KAAT 170240Z AUTO 02007KT 9SM SCT020 BKN029 OVC043 M05/M08 A2993 4370 81 3000 010/07 RMK AO2 SNE39 P0001 T10501078 TSNO
94299KAAT AAT20161216184514512/16/16 18:45:31  5-MIN KAAT 170245Z AUTO 02007KT 10SM FEW022 BKN029 OVC045 M05/M08 A2994 4360 81 3000 010/07 RMK AO2 SNE39 P0001 T10501078 TSNO
94299KAAT AAT20161216185013512/16/16 18:50:31  5-MIN KAAT 170250Z AUTO 02007KT 10SM FEW022 SCT027 OVC045 M05/M08 A2994 4360 81 3000 360/07 RMK AO2 SNE39 P0001 TSNO
94299KAAT AAT20161216185516412/16/16 18:55:31  5-MIN KAAT 170255Z AUTO 02006KT 10SM FEW024 FEW029 OVC045 M05/M08 A2994 4360 77 3000 360/06 RMK AO2 SNE39 SLP167 P0001 60001 T10501083 51017 TSNO
94299KAAT AAT20161216190012612/16/16 19:00:31  5-MIN KAAT 170300Z AUTO 01007KT 10SM FEW029 OVC045 M05/M08 A2994 4360 77 3000 350/07 RMK AO2 T10501083 TSNO
94299KAAT AAT20161216190511912/16/16 19:05:31  5-MIN KAAT 170305Z AUTO 36009KT 10SM OVC045 M05/M08 A2994 4360 77 3000 350/09 RMK AO2 T10501083 TSNO
94299KAAT AAT20161216191011912/16/16 19:10:31  5-MIN KAAT 170310Z AUTO 01009KT 10SM OVC045 M05/M08 A2995 4360 77 3000 360/09 RMK AO2 T10501083 TSNO
94299KAAT AAT20161216191511912/16/16 19:15:31  5-MIN KAAT 170315Z AUTO 36008KT 10SM OVC045 M05/M08 A2995 4350 77 3000 340/08 RMK AO2 T10501083 TSNO
94299KAAT AAT20161216192011912/16/16 19:20:31  5-MIN KAAT 170320Z AUTO 36008KT 10SM OVC046 M05/M08 A2995 4350 77 3000 350/08 RMK AO2 T10501083 TSNO
94299KAAT AAT20161216192511912/16/16 19:25:31  5-MIN KAAT 170325Z AUTO 01008KT 10SM OVC046 M05/M09 A2996 4350 74 3000 350/08 RMK AO2 T10501089 TSNO
94299KAAT AAT20161216193011912/16/16 19:30:31  5-MIN KAAT 170330Z AUTO 36008KT 10SM OVC047 M06/M09 A2996 4340 77 2900 350/08 RMK AO2 T10561089 TSNO
94299KAAT AAT20161216193511912/16/16 19:35:31  5-MIN KAAT 170335Z AUTO 36008KT 10SM OVC047 M05/M09 A2996 4340 74 3000 350/08 RMK AO2 T10501089 TSNO
94299KAAT AAT20161216194011912/16/16 19:40:31  5-MIN KAAT 170340Z AUTO 36006KT 10SM OVC047 M05/M09 A2996 4340 74 3000 340/06 RMK AO2 T10501089 TSNO
94299KAAT AAT20161216194511912/16/16 19:45:31  5-MIN KAAT 170345Z AUTO 01008KT 10SM OVC047 M05/M09 A2997 4340 74 3000 360/08 RMK AO2 T10501089 TSNO
94299KAAT AAT20161216195012612/16/16 19:50:31  5-MIN KAAT 170350Z AUTO 01008KT 10SM OVC047 M05/M09 A2997 4340 71 3000 360/08 RMK AO2 SLP176 T10501094 TSNO
94299KAAT AAT20161216195512612/16/16 19:55:31  5-MIN KAAT 170355Z AUTO 01009KT 10SM OVC047 M05/M09 A2997 4340 71 3000 350/09 RMK AO2 SLP177 T10501094 TSNO
94299KAAT AAT20161216200011912/16/16 20:00:31  5-MIN KAAT 170400Z AUTO 01009KT 10SM OVC046 M05/M09 A2997 4330 71 3000 350/09 RMK AO2 T10501094 TSNO
94299KAAT AAT20161216200511912/16/16 20:05:31  5-MIN KAAT 170405Z AUTO 01008KT 10SM OVC046 M06/M09 A2998 4330 74 2900 360/08 RMK AO2 T10561094 TSNO
94299KAAT AAT20161216201011912/16/16 20:10:31  5-MIN KAAT 170410Z AUTO 01008KT 10SM OVC046 M06/M09 A2998 4330 74 2900 360/08 RMK AO2 T10561094 TSNO
94299KAAT AAT20161216201511912/16/16 20:15:31  5-MIN KAAT 170415Z AUTO 01008KT 10SM OVC046 M06/M09 A2998 4320 74 2900 350/08 RMK AO2 T10561094 TSNO
94299KAAT AAT20161216202011912/16/16 20:20:31  5-MIN KAAT 170420Z AUTO 01007KT 10SM OVC046 M06/M09 A2999 4320 74 2900 350/07 RMK AO2 T10561094 TSNO
94299KAAT AAT20161216202511912/16/16 20:25:31  5-MIN KAAT 170425Z AUTO 01006KT 10SM OVC045 M06/M09 A2999 4320 74 2900 360/06 RMK AO2 T10561094 TSNO
94299KAAT AAT20161216203011912/16/16 20:30:31  5-MIN KAAT 170430Z AUTO 36005KT 10SM OVC045 M06/M09 A2999 4310 77 2800 350/05 RMK AO2 T10611094 TSNO
94299KAAT AAT20161216203511912/16/16 20:35:31  5-MIN KAAT 170435Z AUTO 36006KT 10SM OVC045 M06/M09 A2999 4310 74 2900 350/06 RMK AO2 T10561094 TSNO
94299KAAT AAT20161216204011912/16/16 20:40:31  5-MIN KAAT 170440Z AUTO 36008KT 10SM OVC045 M06/M09 A2999 4310 74 2900 340/08 RMK AO2 T10561094 TSNO
94299KAAT AAT20161216204511912/16/16 20:45:31  5-MIN KAAT 170445Z AUTO 36006KT 10SM OVC044 M06/M09 A2999 4310 74 2900 340/06 RMK AO2 T10561094 TSNO
94299KAAT AAT20161216205012612/16/16 20:50:31  5-MIN KAAT 170450Z AUTO 35008KT 10SM OVC044 M06/M09 A3000 4310 74 2900 340/08 RMK AO2 SLP188 T10561094 TSNO
94299KAAT AAT20161216205512612/16/16 20:55:31  5-MIN KAAT 170455Z AUTO 36008KT 10SM OVC044 M06/M09 A3000 4310 74 2900 350/08 RMK AO2 SLP189 T10561094 TSNO
94299KAAT AAT20161216210011912/16/16 21:00:31  5-MIN KAAT 170500Z AUTO 01006KT 10SM OVC043 M06/M09 A3000 4310 74 2900 360/06 RMK AO2 T10561094 TSNO
94299KAAT AAT20161216210511912/16/16 21:05:31  5-MIN KAAT 170505Z AUTO 36006KT 10SM OVC043 M06/M10 A3000 4310 71 2900 350/06 RMK AO2 T10561100 TSNO
94299KAAT AAT20161216211011912/16/16 21:10:31  5-MIN KAAT 170510Z AUTO 02006KT 10SM OVC043 M06/M10 A3000 4310 71 2900 010/06 RMK AO2 T10561100 TSNO
94299KAAT AAT20161216211511912/16/16 21:15:31  5-MIN KAAT 170515Z AUTO 01006KT 10SM OVC041 M06/M10 A3000 4300 74 2800 360/06 RMK AO2 T10611100 TSNO
94299KAAT AAT20161216212011912/16/16 21:20:31  5-MIN KAAT 170520Z AUTO 01007KT 10SM OVC041 M06/M10 A3001 4300 74 2800 350/07 RMK AO2 T10611100 TSNO
94299KAAT AAT20161216212511912/16/16 21:25:31  5-MIN KAAT 170525Z AUTO 01007KT 10SM OVC041 M06/M10 A3001 4300 74 2800 360/07 RMK AO2 T10611100 TSNO
94299KAAT AAT20161216213011912/16/16 21:30:31  5-MIN KAAT 170530Z AUTO 01005KT 10SM OVC041 M06/M10 A3001 4300 71 2900 360/05 RMK AO2 T10561100 TSNO
94299KAAT AAT20161216213511912/16/16 21:35:31  5-MIN KAAT 170535Z AUTO 02006KT 10SM OVC041 M06/M10 A3002 4290 71 2900 010/06 RMK AO2 T10561100 TSNO
94299KAAT AAT20161216214011912/16/16 21:40:31  5-MIN KAAT 170540Z AUTO 03004KT 10SM OVC041 M06/M10 A3002 4290 71 2900 010/04 RMK AO2 T10561100 TSNO
94299KAAT AAT20161216214511912/16/16 21:45:31  5-MIN KAAT 170545Z AUTO 04006KT 10SM OVC041 M06/M10 A3002 4290 71 2900 020/06 RMK AO2 T10561100 TSNO
94299KAAT AAT20161216215015012/16/16 21:50:31  5-MIN KAAT 170550Z AUTO 02006KT 10SM OVC041 M06/M10 A3002 4290 71 2900 360/06 RMK AO2 SLP195 60001 T10561100 11033 21061 51017 TSNO
94299KAAT AAT20161216215515012/16/16 21:55:31  5-MIN KAAT 170555Z AUTO 03005KT 10SM OVC041 M06/M10 A3003 4280 74 2800 010/05 RMK AO2 SLP199 60001 T10611100 11033 21061 51026 TSNO
94299KAAT AAT20161216220011912/16/16 22:00:31  5-MIN KAAT 170600Z AUTO 03005KT 10SM OVC040 M06/M10 A3003 4280 74 2800 010/05 RMK AO2 T10611100 TSNO
94299KAAT AAT20161216220511912/16/16 22:05:31  5-MIN KAAT 170605Z AUTO 03005KT 10SM OVC040 M06/M10 A3003 4280 74 2800 010/05 RMK AO2 T10611100 TSNO
94299KAAT AAT20161216221011912/16/16 22:10:31  5-MIN KAAT 170610Z AUTO 02004KT 10SM OVC040 M07/M10 A3003 4280 77 2700 360/04 RMK AO2 T10671100 TSNO
94299KAAT AAT20161216221511912/16/16 22:15:31  5-MIN KAAT 170615Z AUTO 02004KT 10SM BKN040 M07/M11 A3003 4280 74 2700 360/04 RMK AO2 T10671106 TSNO
94299KAAT AAT20161216222011912/16/16 22:20:31  5-MIN KAAT 170620Z AUTO 02004KT 10SM BKN039 M07/M11 A3004 4280 77 2600 360/04 RMK AO2 T10721106 TSNO
94299KAAT AAT20161216222511912/16/16 22:25:31  5-MIN KAAT 170625Z AUTO 01004KT 10SM BKN039 M07/M11 A3004 4270 77 2600 360/04 RMK AO2 T10721106 TSNO
94299KAAT AAT20161216223011912/16/16 22:30:31  5-MIN KAAT 170630Z AUTO 01004KT 10SM OVC039 M07/M11 A3004 4270 77 2600 360/04 RMK AO2 T10721106 TSNO
94299KAAT AAT20161216223511912/16/16 22:35:31  5-MIN KAAT 170635Z AUTO 01004KT 10SM OVC039 M07/M11 A3004 4270 77 2600 360/04 RMK AO2 T10721106 TSNO
94299KAAT AAT20161216224011912/16/16 22:40:31  5-MIN KAAT 170640Z AUTO 01004KT 10SM OVC039 M07/M11 A3004 4270 74 2600 350/04 RMK AO2 T10721111 TSNO
94299KAAT AAT20161216224511912/16/16 22:45:31  5-MIN KAAT 170645Z AUTO 36003KT 10SM OVC039 M07/M11 A3004 4270 74 2600 340/03 RMK AO2 T10721111 TSNO
94299KAAT AAT20161216225012612/16/16 22:50:31  5-MIN KAAT 170650Z AUTO 36003KT 10SM OVC039 M08/M11 A3004 4270 77 2600 340/03 RMK AO2 SLP206 T10781111 TSNO
94299KAAT AAT20161216225512612/16/16 22:55:31  5-MIN KAAT 170655Z AUTO 36004KT 10SM BKN039 M08/M11 A3004 4270 77 2600 350/04 RMK AO2 SLP209 T10781111 TSNO
94299KAAT AAT20161216230011912/16/16 23:00:31  5-MIN KAAT 170700Z AUTO 36005KT 10SM BKN039 M08/M11 A3005 4260 77 2500 340/05 RMK AO2 T10781111 TSNO
94299KAAT AAT20161216230511912/16/16 23:05:31  5-MIN KAAT 170705Z AUTO 01005KT 10SM BKN038 M08/M11 A3005 4260 77 2500 350/05 RMK AO2 T10781111 TSNO
94299KAAT AAT20161216231011912/16/16 23:10:31  5-MIN KAAT 170710Z AUTO 01005KT 10SM BKN038 M08/M12 A3005 4260 74 2500 360/05 RMK AO2 T10781117 TSNO
94299KAAT AAT20161216231511912/16/16 23:15:31  5-MIN KAAT 170715Z AUTO 01005KT 10SM BKN037 M08/M12 A3005 4260 77 2500 350/05 RMK AO2 T10831117 TSNO
94299KAAT AAT20161216232011912/16/16 23:20:31  5-MIN KAAT 170720Z AUTO 36005KT 10SM SCT037 M08/M12 A3005 4260 77 2500 350/05 RMK AO2 T10831117 TSNO
94299KAAT AAT20161216232511912/16/16 23:25:31  5-MIN KAAT 170725Z AUTO 02005KT 10SM SCT037 M08/M12 A3006 4260 77 2500 360/05 RMK AO2 T10831117 TSNO
94299KAAT AAT20161216233011912/16/16 23:30:31  5-MIN KAAT 170730Z AUTO 02005KT 10SM SCT037 M09/M12 A3006 4260 80 2400 010/05 RMK AO2 T10891117 TSNO
94299KAAT AAT20161216233511912/16/16 23:35:31  5-MIN KAAT 170735Z AUTO 02004KT 10SM SCT037 M09/M12 A3006 4260 80 2400 010/04 RMK AO2 T10891117 TSNO
94299KAAT AAT20161216234011912/16/16 23:40:31  5-MIN KAAT 170740Z AUTO 01004KT 10SM SCT036 M09/M12 A3006 4250 80 2400 360/04 RMK AO2 T10891117 TSNO
94299KAAT AAT20161216234511912/16/16 23:45:31  5-MIN KAAT 170745Z AUTO 02003KT 10SM FEW036 M09/M12 A3006 4250 80 2400 360/03 RMK AO2 T10891117 TSNO
94299KAAT AAT20161216235013612/16/16 23:50:31  5-MIN KAAT 170750Z AUTO 02004KT 10SM SCT036 M09/M12 A3006 4250 80 2400 010/04 RMK AO2 SLP214 T10891117 400001089 TSNO
94299KAAT AAT20161216235513612/16/16 23:55:31  5-MIN KAAT 170755Z AUTO 02005KT 10SM SCT036 M09/M12 A3006 4250 80 2400 360/05 RMK AO2 SLP213 T10891117 400001089 TSNO
94299KAAT AAT20161217000011912/17/16 00:00:31  5-MIN KAAT 170800Z AUTO 01005KT 10SM SCT036 M09/M12 A3006 4260 80 2400 350/05 RMK AO2 T10891117 TSNO
94299KAAT AAT20161217000511912/17/16 00:05:31  5-MIN KAAT 170805Z AUTO 35006KT 10SM FEW036 M09/M12 A3006 4250 80 2400 340/06 RMK AO2 T10891117 TSNO
94299KAAT AAT20161217001011912/17/16 00:10:31  5-MIN KAAT 170810Z AUTO 36007KT 10SM FEW035 M09/M12 A3006 4250 80 2400 340/07 RMK AO2 T10891117 TSNO
94299KAAT AAT20161217001511912/17/16 00:15:31  5-MIN KAAT 170815Z AUTO 36007KT 10SM FEW035 M08/M12 A3006 4250 77 2500 350/07 RMK AO2 T10831117 TSNO
94299KAAT AAT20161217002011912/17/16 00:20:31  5-MIN KAAT 170820Z AUTO 36007KT 10SM FEW035 M08/M12 A3006 4250 77 2500 350/07 RMK AO2 T10831117 TSNO
94299KAAT AAT20161217002511612/17/16 00:25:31  5-MIN KAAT 170825Z AUTO 36007KT 10SM CLR M08/M12 A3006 4250 77 2500 340/07 RMK AO2 T10831117 TSNO
94299KAAT AAT20161217003011612/17/16 00:30:31  5-MIN KAAT 170830Z AUTO 36007KT 10SM CLR M08/M11 A3007 4250 80 2500 340/07 RMK AO2 T10831111 TSNO
94299KAAT AAT20161217003511612/17/16 00:35:31  5-MIN KAAT 170835Z AUTO 36007KT 10SM CLR M08/M12 A3007 4250 77 2500 340/07 RMK AO2 T10831117 TSNO
94299KAAT AAT20161217004011612/17/16 00:40:31  5-MIN KAAT 170840Z AUTO 01007KT 10SM CLR M09/M12 A3007 4240 80 2400 350/07 RMK AO2 T10891117 TSNO
94299KAAT AAT20161217004511612/17/16 00:45:31  5-MIN KAAT 170845Z AUTO 02007KT 10SM CLR M08/M12 A3007 4240 77 2400 360/07 RMK AO2 T10831117 TSNO
94299KAAT AAT20161217005012912/17/16 00:50:31  5-MIN KAAT 170850Z AUTO 01007KT 10SM CLR M09/M12 A3008 4240 80 2400 350/07 RMK AO2 SLP217 T10891117 51026 TSNO
94299KAAT AAT20161217005512912/17/16 00:55:31  5-MIN KAAT 170855Z AUTO 01005KT 10SM CLR M09/M12 A3008 4240 80 2400 360/05 RMK AO2 SLP218 T10891117 52015 TSNO
94299KAAT AAT20161217010011612/17/16 01:00:31  5-MIN KAAT 170900Z AUTO 01005KT 10SM CLR M09/M12 A3008 4240 77 2400 350/05 RMK AO2 T10891122 TSNO
94299KAAT AAT20161217010511612/17/16 01:05:31  5-MIN KAAT 170905Z AUTO 36005KT 10SM CLR M09/M12 A3008 4240 77 2400 350/05 RMK AO2 T10891122 TSNO
94299KAAT AAT20161217011011612/17/16 01:10:31  5-MIN KAAT 170910Z AUTO 01006KT 10SM CLR M09/M12 A3008 4240 80 2300 360/06 RMK AO2 T10941122 TSNO
94299KAAT AAT20161217011511912/17/16 01:15:31  5-MIN KAAT 170915Z AUTO 36005KT 10SM FEW032 M09/M12 A3008 4230 80 2300 340/05 RMK AO2 T10941122 TSNO
94299KAAT AAT20161217012011912/17/16 01:20:31  5-MIN KAAT 170920Z AUTO 35006KT 10SM FEW032 M09/M12 A3008 4230 80 2300 340/06 RMK AO2 T10941122 TSNO
94299KAAT AAT20161217012511612/17/16 01:25:31  5-MIN KAAT 170925Z AUTO 35006KT 10SM CLR M09/M12 A3008 4230 80 2300 340/06 RMK AO2 T10941122 TSNO
94299KAAT AAT20161217013011612/17/16 01:30:31  5-MIN KAAT 170930Z AUTO 36005KT 10SM CLR M09/M13 A3008 4230 77 2300 350/05 RMK AO2 T10941128 TSNO
94299KAAT AAT20161217013511612/17/16 01:35:31  5-MIN KAAT 170935Z AUTO 01004KT 10SM CLR M09/M13 A3008 4230 77 2300 360/04 RMK AO2 T10941128 TSNO
94299KAAT AAT20161217014011612/17/16 01:40:31  5-MIN KAAT 170940Z AUTO 00000KT 10SM CLR M10/M13 A3009 4230 80 2200 000/00 RMK AO2 T11001128 TSNO
94299KAAT AAT20161217014511612/17/16 01:45:31  5-MIN KAAT 170945Z AUTO 00000KT 10SM CLR M10/M13 A3009 4230 80 2200 000/00 RMK AO2 T11001128 TSNO
94299KAAT AAT20161217015012312/17/16 01:50:31  5-MIN KAAT 170950Z AUTO 00000KT 10SM CLR M11/M13 A3009 4230 84 2100 000/00 RMK AO2 SLP227 T11061128 TSNO
94299KAAT AAT20161217015512312/17/16 01:55:31  5-MIN KAAT 170955Z AUTO 08003KT 10SM CLR M10/M13 A3009 4220 80 2200 070/03 RMK AO2 SLP228 T11001128 TSNO
94299KAAT AAT20161217020011612/17/16 02:00:31  5-MIN KAAT 171000Z AUTO 03003KT 10SM CLR M10/M13 A3010 4220 80 2200 020/03 RMK AO2 T11001128 TSNO
94299KAAT AAT20161217020511612/17/16 02:05:31  5-MIN KAAT 171005Z AUTO VRB03KT 10SM CLR M10/M13 A3010 4220 77 2200 VRB/03 RMK AO2 T11001133 TSNO
94299KAAT AAT20161217021011612/17/16 02:10:31  5-MIN KAAT 171010Z AUTO 13004KT 10SM CLR M11/M13 A3010 4220 84 2100 120/04 RMK AO2 T11111133 TSNO
94299KAAT AAT20161217021511612/17/16 02:15:31  5-MIN KAAT 171015Z AUTO 13003KT 10SM CLR M11/M13 A3010 4220 88 2100 120/03 RMK AO2 T11111128 TSNO
94299KAAT AAT20161217022011612/17/16 02:20:31  5-MIN KAAT 171020Z AUTO 11003KT 10SM CLR M11/M13 A3010 4210 88 2100 090/03 RMK AO2 T11111128 TSNO
94299KAAT AAT20161217022511512/17/16 02:25:31  5-MIN KAAT 171025Z AUTO 00000KT 8SM CLR M12/M13 A3011 4210 91 2000 000/00 RMK AO2 T11171128 TSNO
94299KAAT AAT20161217023011512/17/16 02:30:31  5-MIN KAAT 171030Z AUTO 00000KT 8SM CLR M11/M13 A3011 4210 88 2100 000/00 RMK AO2 T11111128 TSNO
94299KAAT AAT20161217023511612/17/16 02:35:31  5-MIN KAAT 171035Z AUTO 00000KT 10SM CLR M12/M13 A3011 4210 91 2000 000/00 RMK AO2 T11171128 TSNO
94299KAAT AAT20161217024011612/17/16 02:40:31  5-MIN KAAT 171040Z AUTO 06003KT 10SM CLR M11/M13 A3011 4210 88 2100 050/03 RMK AO2 T11111128 TSNO
94299KAAT AAT20161217024511612/17/16 02:45:31  5-MIN KAAT 171045Z AUTO 06003KT 10SM CLR M11/M13 A3011 4200 84 2000 040/03 RMK AO2 T11111133 TSNO
94299KAAT AAT20161217025012312/17/16 02:50:31  5-MIN KAAT 171050Z AUTO 06003KT 10SM CLR M11/M13 A3011 4210 88 2000 050/03 RMK AO2 SLP236 T11111128 TSNO
94299KAAT AAT20161217025512312/17/16 02:55:31  5-MIN KAAT 171055Z AUTO 00000KT 10SM CLR M11/M13 A3011 4200 84 2000 000/00 RMK AO2 SLP237 T11111133 TSNO
94299KAAT AAT20161217030011612/17/16 03:00:31  5-MIN KAAT 171100Z AUTO 00000KT 10SM CLR M11/M13 A3011 4200 88 2000 000/00 RMK AO2 T11111128 TSNO
94299KAAT AAT20161217030511612/17/16 03:05:31  5-MIN KAAT 171105Z AUTO 10003KT 10SM CLR M11/M13 A3012 4200 84 2000 080/03 RMK AO2 T11111133 TSNO
94299KAAT AAT20161217031011512/17/16 03:10:31  5-MIN KAAT 171110Z AUTO 12004KT 9SM CLR M12/M13 A3012 4200 91 1900 110/04 RMK AO2 T11221133 TSNO
94299KAAT AAT20161217031511512/17/16 03:15:31  5-MIN KAAT 171115Z AUTO 12004KT 9SM CLR M12/M14 A3012 4200 87 1900 110/04 RMK AO2 T11221139 TSNO
94299KAAT AAT20161217032011612/17/16 03:20:31  5-MIN KAAT 171120Z AUTO 10003KT 10SM CLR M12/M14 A3012 4200 84 2000 090/03 RMK AO2 T11171139 TSNO
94299KAAT AAT20161217032511612/17/16 03:25:31  5-MIN KAAT 171125Z AUTO 00000KT 10SM CLR M12/M14 A3012 4200 87 1900 000/00 RMK AO2 T11221139 TSNO
94299KAAT AAT20161217033011612/17/16 03:30:31  5-MIN KAAT 171130Z AUTO 13003KT 10SM CLR M12/M14 A3012 4200 87 1900 110/03 RMK AO2 T11221139 TSNO
94299KAAT AAT20161217033511612/17/16 03:35:31  5-MIN KAAT 171135Z AUTO 11004KT 10SM CLR M12/M14 A3012 4200 87 1900 090/04 RMK AO2 T11221139 TSNO
94299KAAT AAT20161217034011512/17/16 03:40:31  5-MIN KAAT 171140Z AUTO 12004KT 9SM CLR M12/M14 A3012 4200 87 1900 100/04 RMK AO2 T11221139 TSNO
94299KAAT AAT20161217034511512/17/16 03:45:31  5-MIN KAAT 171145Z AUTO 00000KT 7SM CLR M13/M14 A3013 4190 91 1800 000/00 RMK AO2 T11281139 TSNO
94299KAAT AAT20161217035014612/17/16 03:50:31  5-MIN KAAT 171150Z AUTO 00000KT 8SM CLR M13/M15 A3012 4190 87 1700 000/00 RMK AO2 SLP247 70001 T11331150 11061 21133 52015 TSNO
94299KAAT AAT20161217035514712/17/16 03:55:31  5-MIN KAAT 171155Z AUTO 00000KT 10SM CLR M13/M14 A3013 4190 91 1700 000/00 RMK AO2 SLP248 70001 T11331144 11061 21133 51015 TSNO
94299KAAT AAT20161217040011512/17/16 04:00:31  5-MIN KAAT 171200Z AUTO 00000KT 9SM CLR M13/M15 A3013 4190 87 1700 000/00 RMK AO2 T11331150 TSNO
94299KAAT AAT20161217040511512/17/16 04:05:31  5-MIN KAAT 171205Z AUTO 02003KT 8SM CLR M13/M15 A3013 4190 87 1700 360/03 RMK AO2 T11331150 TSNO
94299KAAT AAT20161217041011512/17/16 04:10:31  5-MIN KAAT 171210Z AUTO 00000KT 7SM CLR M13/M15 A3013 4190 87 1700 000/00 RMK AO2 T11331150 TSNO
94299KAAT AAT20161217041511512/17/16 04:15:31  5-MIN KAAT 171215Z AUTO 20003KT 7SM CLR M14/M15 A3013 4190 91 1700 180/03 RMK AO2 T11391150 TSNO
94299KAAT AAT20161217042011512/17/16 04:20:31  5-MIN KAAT 171220Z AUTO 00000KT 9SM CLR M14/M16 A3013 4180 87 1700 000/00 RMK AO2 T11391156 TSNO
94299KAAT AAT20161217042511612/17/16 04:25:31  5-MIN KAAT 171225Z AUTO 00000KT 10SM CLR M14/M16 A3014 4180 87 1700 000/00 RMK AO2 T11391156 TSNO
94299KAAT AAT20161217043011612/17/16 04:30:31  5-MIN KAAT 171230Z AUTO 00000KT 10SM CLR M14/M16 A3014 4180 87 1700 000/00 RMK AO2 T11391156 TSNO
94299KAAT AAT20161217043511512/17/16 04:35:31  5-MIN KAAT 171235Z AUTO 04003KT 9SM CLR M13/M15 A3014 4180 87 1700 020/03 RMK AO2 T11331150 TSNO
94299KAAT AAT20161217044011512/17/16 04:40:31  5-MIN KAAT 171240Z AUTO 00000KT 7SM CLR M13/M15 A3014 4180 87 1700 000/00 RMK AO2 T11331150 TSNO
94299KAAT AAT20161217044511512/17/16 04:45:31  5-MIN KAAT 171245Z AUTO 09003KT 7SM CLR M13/M14 A3014 4180 91 1700 080/03 RMK AO2 T11331144 TSNO
94299KAAT AAT20161217045012212/17/16 04:50:31  5-MIN KAAT 171250Z AUTO 09003KT 9SM CLR M13/M15 A3014 4180 87 1700 070/03 RMK AO2 SLP252 T11331150 TSNO
94299KAAT AAT20161217045512212/17/16 04:55:31  5-MIN KAAT 171255Z AUTO 09003KT 8SM CLR M13/M15 A3014 4180 87 1700 070/03 RMK AO2 SLP252 T11331150 TSNO
94299KAAT AAT20161217050011512/17/16 05:00:31  5-MIN KAAT 171300Z AUTO 10003KT 9SM CLR M13/M15 A3014 4180 87 1700 090/03 RMK AO2 T11331150 TSNO
94299KAAT AAT20161217050511612/17/16 05:05:31  5-MIN KAAT 171305Z AUTO 09004KT 10SM CLR M13/M15 A3014 4180 87 1700 070/04 RMK AO2 T11331150 TSNO
94299KAAT AAT20161217051011612/17/16 05:10:31  5-MIN KAAT 171310Z AUTO 11003KT 10SM CLR M13/M15 A3014 4170 87 1700 090/03 RMK AO2 T11331150 TSNO
94299KAAT AAT20161217051511612/17/16 05:15:31  5-MIN KAAT 171315Z AUTO 10003KT 10SM CLR M13/M15 A3014 4180 87 1700 080/03 RMK AO2 T11331150 TSNO
94299KAAT AAT20161217052011612/17/16 05:20:31  5-MIN KAAT 171320Z AUTO 10003KT 10SM CLR M13/M15 A3014 4170 87 1700 080/03 RMK AO2 T11331150 TSNO
94299KAAT AAT20161217052511612/17/16 05:25:31  5-MIN KAAT 171325Z AUTO 08003KT 10SM CLR M13/M16 A3014 4170 83 1700 060/03 RMK AO2 T11331156 TSNO
94299KAAT AAT20161217053011612/17/16 05:30:31  5-MIN KAAT 171330Z AUTO 00000KT 10SM CLR M14/M16 A3014 4170 87 1700 000/00 RMK AO2 T11391156 TSNO
94299KAAT AAT20161217053511612/17/16 05:35:31  5-MIN KAAT 171335Z AUTO 00000KT 10SM CLR M14/M16 A3014 4170 87 1700 000/00 RMK AO2 T11391156 TSNO
94299KAAT AAT20161217054011612/17/16 05:40:31  5-MIN KAAT 171340Z AUTO 00000KT 10SM CLR M13/M16 A3014 4180 80 1700 000/00 RMK AO2 T11331161 TSNO
94299KAAT AAT20161217054511612/17/16 05:45:31  5-MIN KAAT 171345Z AUTO 00000KT 10SM CLR M14/M16 A3015 4170 87 1600 000/00 RMK AO2 T11391156 TSNO
94299KAAT AAT20161217055012312/17/16 05:50:31  5-MIN KAAT 171350Z AUTO 00000KT 10SM CLR M14/M16 A3015 4170 87 1600 000/00 RMK AO2 SLP258 T11391156 TSNO
94299KAAT AAT20161217055512312/17/16 05:55:31  5-MIN KAAT 171355Z AUTO 00000KT 10SM CLR M14/M16 A3015 4170 87 1600 000/00 RMK AO2 SLP262 T11441161 TSNO
94299KAAT AAT20161217060011612/17/16 06:00:31  5-MIN KAAT 171400Z AUTO 00000KT 10SM CLR M15/M17 A3015 4170 83 1500 000/00 RMK AO2 T11501172 TSNO
94299KAAT AAT20161217060511612/17/16 06:05:31  5-MIN KAAT 171405Z AUTO 00000KT 10SM CLR M15/M17 A3015 4170 83 1500 000/00 RMK AO2 T11501172 TSNO
94299KAAT AAT20161217061011612/17/16 06:10:31  5-MIN KAAT 171410Z AUTO 00000KT 10SM CLR M16/M17 A3015 4170 87 1400 000/00 RMK AO2 T11561172 TSNO
94299KAAT AAT20161217061511612/17/16 06:15:31  5-MIN KAAT 171415Z AUTO 00000KT 10SM CLR M16/M17 A3016 4160 87 1400 000/00 RMK AO2 T11561172 TSNO
94299KAAT AAT20161217062011612/17/16 06:20:31  5-MIN KAAT 171420Z AUTO 00000KT 10SM CLR M16/M17 A3016 4160 87 1400 000/00 RMK AO2 T11561172 TSNO
94299KAAT AAT20161217062511612/17/16 06:25:31  5-MIN KAAT 171425Z AUTO 00000KT 10SM CLR M15/M17 A3016 4160 87 1500 000/00 RMK AO2 T11501167 TSNO
94299KAAT AAT20161217063011612/17/16 06:30:31  5-MIN KAAT 171430Z AUTO 00000KT 10SM CLR M15/M17 A3017 4150 83 1500 000/00 RMK AO2 T11501172 TSNO
94299KAAT AAT20161217063511612/17/16 06:35:31  5-MIN KAAT 171435Z AUTO 00000KT 10SM CLR M15/M17 A3016 4160 87 1500 000/00 RMK AO2 T11501167 TSNO
94299KAAT AAT20161217064011612/17/16 06:40:31  5-MIN KAAT 171440Z AUTO 00000KT 10SM CLR M14/M16 A3016 4160 87 1600 000/00 RMK AO2 T11441161 TSNO
94299KAAT AAT20161217064511612/17/16 06:45:31  5-MIN KAAT 171445Z AUTO 00000KT 10SM CLR M15/M17 A3016 4160 87 1500 000/00 RMK AO2 T11501167 TSNO
94299KAAT AAT20161217065012912/17/16 06:50:31  5-MIN KAAT 171450Z AUTO 00000KT 10SM CLR M16/M17 A3017 4150 91 1400 000/00 RMK AO2 SLP269 T11561167 51015 TSNO
94299KAAT AAT20161217065512912/17/16 06:55:31  5-MIN KAAT 171455Z AUTO 00000KT 10SM CLR M15/M17 A3017 4150 83 1500 000/00 RMK AO2 SLP271 T11501172 53014 TSNO
94299KAAT AAT20161217070011612/17/16 07:00:31  5-MIN KAAT 171500Z AUTO 00000KT 10SM CLR M16/M17 A3017 4150 87 1400 000/00 RMK AO2 T11561172 TSNO
94299KAAT AAT20161217070511612/17/16 07:05:31  5-MIN KAAT 171505Z AUTO 00000KT 10SM CLR M14/M17 A3017 4150 83 1500 000/00 RMK AO2 T11441167 TSNO
94299KAAT AAT20161217071011512/17/16 07:10:31  5-MIN KAAT 171510Z AUTO 00000KT 9SM CLR M14/M16 A3018 4150 87 1500 000/00 RMK AO2 T11441161 TSNO
94299KAAT AAT20161217071511512/17/16 07:15:31  5-MIN KAAT 171515Z AUTO 00000KT 8SM CLR M15/M16 A3018 4140 91 1500 000/00 RMK AO2 T11501161 TSNO
94299KAAT AAT20161217072011512/17/16 07:20:31  5-MIN KAAT 171520Z AUTO 00000KT 9SM CLR M15/M17 A3018 4140 87 1500 000/00 RMK AO2 T11501167 TSNO
94299KAAT AAT20161217072511512/17/16 07:25:31  5-MIN KAAT 171525Z AUTO 00000KT 9SM CLR M16/M17 A3018 4140 87 1400 000/00 RMK AO2 T11561172 TSNO
94299KAAT AAT20161217073011512/17/16 07:30:31  5-MIN KAAT 171530Z AUTO 00000KT 9SM CLR M15/M17 A3018 4140 83 1500 000/00 RMK AO2 T11501172 TSNO
94299KAAT AAT20161217073511512/17/16 07:35:31  5-MIN KAAT 171535Z AUTO 13003KT 9SM CLR M16/M17 A3018 4140 87 1400 110/03 RMK AO2 T11561172 TSNO
94299KAAT AAT20161217074011512/17/16 07:40:31  5-MIN KAAT 171540Z AUTO 11003KT 8SM CLR M16/M17 A3018 4140 87 1400 090/03 RMK AO2 T11561172 TSNO
94299KAAT AAT20161217074511512/17/16 07:45:31  5-MIN KAAT 171545Z AUTO 00000KT 8SM CLR M16/M17 A3018 4140 87 1400 000/00 RMK AO2 T11561172 TSNO
94299KAAT AAT20161217075012212/17/16 07:50:31  5-MIN KAAT 171550Z AUTO 00000KT 8SM CLR M14/M17 A3019 4140 83 1500 000/00 RMK AO2 SLP273 T11441167 TSNO
94299KAAT AAT20161217075512512/17/16 07:55:31  5-MIN KAAT 171555Z AUTO 00000KT 6SM BR CLR M14/M16 A3019 4130 87 1500 000/00 RMK AO2 SLP274 T11441161 TSNO
94299KAAT AAT20161217080011812/17/16 08:00:31  5-MIN KAAT 171600Z AUTO 00000KT 6SM BR CLR M14/M16 A3019 4130 91 1500 000/00 RMK AO2 T11441156 TSNO
94299KAAT AAT20161217080511512/17/16 08:05:31  5-MIN KAAT 171605Z AUTO 00000KT 8SM CLR M14/M16 A3019 4130 87 1600 000/00 RMK AO2 T11391156 TSNO
94299KAAT AAT20161217081011612/17/16 08:10:31  5-MIN KAAT 171610Z AUTO 00000KT 10SM CLR M14/M16 A3019 4130 87 1600 000/00 RMK AO2 T11391156 TSNO
94299KAAT AAT20161217081511612/17/16 08:15:31  5-MIN KAAT 171615Z AUTO 00000KT 10SM CLR M14/M16 A3019 4130 87 1600 000/00 RMK AO2 T11391156 TSNO
94299KAAT AAT20161217082011612/17/16 08:20:31  5-MIN KAAT 171620Z AUTO 00000KT 10SM CLR M13/M15 A3019 4130 87 1700 000/00 RMK AO2 T11331150 TSNO
94299KAAT AAT20161217082511612/17/16 08:25:31  5-MIN KAAT 171625Z AUTO 00000KT 10SM CLR M13/M15 A3020 4130 87 1700 000/00 RMK AO2 T11331150 TSNO
94299KAAT AAT20161217083011612/17/16 08:30:31  5-MIN KAAT 171630Z AUTO 00000KT 10SM CLR M13/M14 A3020 4120 87 1700 000/00 RMK AO2 T11281144 TSNO
94299KAAT AAT20161217083511612/17/16 08:35:31  5-MIN KAAT 171635Z AUTO 00000KT 10SM CLR M12/M14 A3020 4120 84 1800 000/00 RMK AO2 T11221144 TSNO
94299KAAT AAT20161217084011612/17/16 08:40:31  5-MIN KAAT 171640Z AUTO 00000KT 10SM CLR M12/M14 A3020 4120 87 1800 000/00 RMK AO2 T11221139 TSNO
94299KAAT AAT20161217084511612/17/16 08:45:31  5-MIN KAAT 171645Z AUTO 00000KT 10SM CLR M12/M14 A3021 4120 84 1900 000/00 RMK AO2 T11171139 TSNO
94299KAAT AAT20161217085012212/17/16 08:50:31  5-MIN KAAT 171650Z AUTO 00000KT 9SM CLR M11/M13 A3021 4110 84 1900 000/00 RMK AO2 SLP277 T11111133 TSNO
94299KAAT AAT20161217085512212/17/16 08:55:31  5-MIN KAAT 171655Z AUTO 00000KT 7SM CLR M11/M13 A3021 4120 84 2000 000/00 RMK AO2 SLP274 T11061128 TSNO
94299KAAT AAT20161217090011812/17/16 09:00:31  5-MIN KAAT 171700Z AUTO 11003KT 6SM BR CLR M11/M13 A3021 4120 84 2000 100/03 RMK AO2 T11061128 TSNO
94299KAAT AAT20161217090511512/17/16 09:05:31  5-MIN KAAT 171705Z AUTO 13003KT 7SM CLR M11/M13 A3020 4120 88 1900 110/03 RMK AO2 T11111128 TSNO
94299KAAT AAT20161217091011612/17/16 09:10:31  5-MIN KAAT 171710Z AUTO 10004KT 10SM CLR M11/M13 A3021 4120 84 2000 090/04 RMK AO2 T11061128 TSNO
94299KAAT AAT20161217091511612/17/16 09:15:31  5-MIN KAAT 171715Z AUTO 10005KT 10SM CLR M11/M13 A3021 4110 84 2000 080/05 RMK AO2 T11061128 TSNO
94299KAAT AAT20161217092011612/17/16 09:20:31  5-MIN KAAT 171720Z AUTO 10004KT 10SM CLR M11/M13 A3021 4110 84 2000 080/04 RMK AO2 T11061128 TSNO
94299KAAT AAT20161217092511612/17/16 09:25:31  5-MIN KAAT 171725Z AUTO 12003KT 10SM CLR M11/M12 A3022 4110 88 2000 110/03 RMK AO2 T11061122 TSNO
94299KAAT AAT20161217093011612/17/16 09:30:31  5-MIN KAAT 171730Z AUTO 14003KT 10SM CLR M11/M12 A3022 4110 88 2000 120/03 RMK AO2 T11061122 TSNO
94299KAAT AAT20161217093511612/17/16 09:35:31  5-MIN KAAT 171735Z AUTO 14003KT 10SM CLR M11/M12 A3022 4100 88 2000 130/03 RMK AO2 T11061122 TSNO
94299KAAT AAT20161217094011612/17/16 09:40:31  5-MIN KAAT 171740Z AUTO 15003KT 10SM CLR M10/M12 A3022 4100 88 2100 130/03 RMK AO2 T11001117 TSNO
94299KAAT AAT20161217094511612/17/16 09:45:31  5-MIN KAAT 171745Z AUTO 16003KT 10SM CLR M10/M12 A3022 4110 88 2100 140/03 RMK AO2 T11001117 TSNO
94299KAAT AAT20161217095014112/17/16 09:50:31  5-MIN KAAT 171750Z AUTO 16003KT 10SM CLR M10/M12 A3022 4100 88 2100 140/03 RMK AO2 SLP279 T11001117 11100 21156 53014 TSNO
94299KAAT AAT20161217095514112/17/16 09:55:31  5-MIN KAAT 171755Z AUTO 00000KT 10SM CLR M10/M12 A3023 4100 88 2100 000/00 RMK AO2 SLP281 T11001117 11100 21156 53016 TSNO
94299KAAT AAT20161217100011612/17/16 10:00:31  5-MIN KAAT 171800Z AUTO 00000KT 10SM CLR M09/M12 A3023 4100 80 2200 000/00 RMK AO2 T10891117 TSNO
94299KAAT AAT20161217100511612/17/16 10:05:31  5-MIN KAAT 171805Z AUTO 00000KT 10SM CLR M09/M12 A3023 4100 84 2100 000/00 RMK AO2 T10941117 TSNO
94299KAAT AAT20161217101011612/17/16 10:10:31  5-MIN KAAT 171810Z AUTO 00000KT 10SM CLR M09/M12 A3023 4100 80 2200 000/00 RMK AO2 T10891117 TSNO
94299KAAT AAT20161217101511612/17/16 10:15:31  5-MIN KAAT 171815Z AUTO 00000KT 10SM CLR M09/M11 A3023 4100 84 2200 000/00 RMK AO2 T10891111 TSNO
94299KAAT AAT20161217102011612/17/16 10:20:31  5-MIN KAAT 171820Z AUTO 00000KT 10SM CLR M09/M12 A3023 4100 84 2100 000/00 RMK AO2 T10941117 TSNO
94299KAAT AAT20161217102511612/17/16 10:25:31  5-MIN KAAT 171825Z AUTO 00000KT 10SM CLR M09/M11 A3023 4100 88 2100 000/00 RMK AO2 T10941111 TSNO
94299KAAT AAT20161217103011612/17/16 10:30:31  5-MIN KAAT 171830Z AUTO 00000KT 10SM CLR M09/M11 A3022 4100 88 2100 000/00 RMK AO2 T10941111 TSNO
94299KAAT AAT20161217103511612/17/16 10:35:31  5-MIN KAAT 171835Z AUTO 00000KT 10SM CLR M09/M12 A3022 4100 80 2200 000/00 RMK AO2 T10891117 TSNO
94299KAAT AAT20161217104011612/17/16 10:40:31  5-MIN KAAT 171840Z AUTO 00000KT 10SM CLR M08/M11 A3023 4100 80 2300 000/00 RMK AO2 T10831111 TSNO
94299KAAT AAT20161217104511612/17/16 10:45:31  5-MIN KAAT 171845Z AUTO 20003KT 10SM CLR M08/M11 A3023 4100 80 2300 190/03 RMK AO2 T10831111 TSNO
94299KAAT AAT20161217105012312/17/16 10:50:31  5-MIN KAAT 171850Z AUTO 19003KT 10SM CLR M08/M11 A3022 4100 80 2300 180/03 RMK AO2 SLP280 T10831111 TSNO
94299KAAT AAT20161217105512312/17/16 10:55:31  5-MIN KAAT 171855Z AUTO 00000KT 10SM CLR M08/M12 A3022 4100 77 2300 000/00 RMK AO2 SLP280 T10831117 TSNO
94299KAAT AAT20161217110011612/17/16 11:00:31  5-MIN KAAT 171900Z AUTO 00000KT 10SM CLR M08/M12 A3022 4100 77 2300 000/00 RMK AO2 T10831117 TSNO
94299KAAT AAT20161217110511612/17/16 11:05:31  5-MIN KAAT 171905Z AUTO 00000KT 10SM CLR M08/M12 A3022 4100 74 2300 000/00 RMK AO2 T10781117 TSNO
94299KAAT AAT20161217111011612/17/16 11:10:31  5-MIN KAAT 171910Z AUTO 00000KT 10SM CLR M08/M12 A3022 4100 74 2300 000/00 RMK AO2 T10781117 TSNO
94299KAAT AAT20161217111511612/17/16 11:15:31  5-MIN KAAT 171915Z AUTO 00000KT 10SM CLR M08/M12 A3022 4100 74 2300 000/00 RMK AO2 T10781117 TSNO
94299KAAT AAT20161217112011612/17/16 11:20:31  5-MIN KAAT 171920Z AUTO 00000KT 10SM CLR M08/M11 A3022 4100 77 2300 000/00 RMK AO2 T10781111 TSNO
94299KAAT AAT20161217112511612/17/16 11:25:31  5-MIN KAAT 171925Z AUTO 00000KT 10SM CLR M08/M12 A3022 4100 74 2300 000/00 RMK AO2 T10781117 TSNO
94299KAAT AAT20161217113011612/17/16 11:30:31  5-MIN KAAT 171930Z AUTO 00000KT 10SM CLR M07/M12 A3023 4100 71 2400 000/00 RMK AO2 T10721117 TSNO
94299KAAT AAT20161217113511612/17/16 11:35:31  5-MIN KAAT 171935Z AUTO 22003KT 10SM CLR M07/M11 A3022 4100 74 2400 200/03 RMK AO2 T10721111 TSNO
94299KAAT AAT20161217114011612/17/16 11:40:31  5-MIN KAAT 171940Z AUTO 00000KT 10SM CLR M07/M11 A3022 4100 74 2400 000/00 RMK AO2 T10721111 TSNO
94299KAAT AAT20161217114511612/17/16 11:45:31  5-MIN KAAT 171945Z AUTO 00000KT 10SM CLR M07/M11 A3022 4100 74 2500 000/00 RMK AO2 T10671106 TSNO
94299KAAT AAT20161217115012312/17/16 11:50:31  5-MIN KAAT 171950Z AUTO 15003KT 10SM CLR M07/M11 A3022 4110 74 2500 130/03 RMK AO2 SLP278 T10671106 TSNO
94299KAAT AAT20161217115512312/17/16 11:55:31  5-MIN KAAT 171955Z AUTO 16004KT 10SM CLR M07/M11 A3021 4110 74 2500 140/04 RMK AO2 SLP276 T10671106 TSNO
94299KAAT AAT20161217120011612/17/16 12:00:31  5-MIN KAAT 172000Z AUTO 18004KT 10SM CLR M07/M11 A3021 4110 74 2500 160/04 RMK AO2 T10671106 TSNO
94299KAAT AAT20161217120511612/17/16 12:05:31  5-MIN KAAT 172005Z AUTO 18003KT 10SM CLR M07/M10 A3021 4110 77 2500 160/03 RMK AO2 T10671100 TSNO
94299KAAT AAT20161217121011612/17/16 12:10:31  5-MIN KAAT 172010Z AUTO 17003KT 10SM CLR M07/M10 A3021 4110 77 2500 160/03 RMK AO2 T10671100 TSNO
94299KAAT AAT20161217121511612/17/16 12:15:31  5-MIN KAAT 172015Z AUTO 19004KT 10SM CLR M07/M10 A3021 4120 77 2500 180/04 RMK AO2 T10671100 TSNO
94299KAAT AAT20161217122011612/17/16 12:20:31  5-MIN KAAT 172020Z AUTO 17004KT 10SM CLR M07/M11 A3020 4120 74 2500 160/04 RMK AO2 T10671106 TSNO
94299KAAT AAT20161217122511612/17/16 12:25:31  5-MIN KAAT 172025Z AUTO 18004KT 10SM CLR M07/M11 A3020 4120 74 2500 160/04 RMK AO2 T10671106 TSNO
94299KAAT AAT20161217123011612/17/16 12:30:31  5-MIN KAAT 172030Z AUTO 18004KT 10SM CLR M07/M11 A3020 4120 74 2500 170/04 RMK AO2 T10671106 TSNO
94299KAAT AAT20161217123511612/17/16 12:35:31  5-MIN KAAT 172035Z AUTO 15004KT 10SM CLR M07/M11 A3020 4120 74 2500 130/04 RMK AO2 T10671106 TSNO
94299KAAT AAT20161217124011612/17/16 12:40:31  5-MIN KAAT 172040Z AUTO 17004KT 10SM CLR M07/M11 A3020 4120 71 2500 160/04 RMK AO2 T10671111 TSNO
94299KAAT AAT20161217124511612/17/16 12:45:31  5-MIN KAAT 172045Z AUTO VRB03KT 10SM CLR M07/M11 A3020 4120 71 2500 VRB/03 RMK AO2 T10671111 TSNO
94299KAAT AAT20161217125012912/17/16 12:50:31  5-MIN KAAT 172050Z AUTO 00000KT 10SM CLR M07/M11 A3020 4120 74 2500 000/00 RMK AO2 SLP273 T10671106 53016 TSNO
94299KAAT AAT20161217125512912/17/16 12:55:31  5-MIN KAAT 172055Z AUTO 00000KT 10SM CLR M06/M11 A3020 4120 71 2600 000/00 RMK AO2 SLP270 T10611106 58007 TSNO
94299KAAT AAT20161217130011612/17/16 13:00:31  5-MIN KAAT 172100Z AUTO 17003KT 10SM CLR M06/M11 A3020 4120 68 2600 150/03 RMK AO2 T10611111 TSNO
94299KAAT AAT20161217130511612/17/16 13:05:31  5-MIN KAAT 172105Z AUTO 17003KT 10SM CLR M06/M11 A3020 4120 71 2600 150/03 RMK AO2 T10611106 TSNO
94299KAAT AAT20161217131011612/17/16 13:10:31  5-MIN KAAT 172110Z AUTO 16003KT 10SM CLR M06/M11 A3020 4120 71 2600 150/03 RMK AO2 T10611106 TSNO
94299KAAT AAT20161217131511612/17/16 13:15:31  5-MIN KAAT 172115Z AUTO 00000KT 10SM CLR M06/M11 A3020 4120 71 2600 000/00 RMK AO2 T10611106 TSNO
94299KAAT AAT20161217132011612/17/16 13:20:31  5-MIN KAAT 172120Z AUTO 00000KT 10SM CLR M06/M11 A3020 4120 68 2700 000/00 RMK AO2 T10561106 TSNO
94299KAAT AAT20161217132511612/17/16 13:25:31  5-MIN KAAT 172125Z AUTO 18003KT 10SM CLR M06/M10 A3020 4120 71 2700 170/03 RMK AO2 T10561100 TSNO
94299KAAT AAT20161217133011612/17/16 13:30:31  5-MIN KAAT 172130Z AUTO 16003KT 10SM CLR M06/M10 A3020 4120 71 2600 140/03 RMK AO2 T10561100 TSNO
94299KAAT AAT20161217133511612/17/16 13:35:31  5-MIN KAAT 172135Z AUTO 16003KT 10SM CLR M06/M11 A3020 4120 68 2600 140/03 RMK AO2 T10561106 TSNO
94299KAAT AAT20161217134011612/17/16 13:40:31  5-MIN KAAT 172140Z AUTO 16003KT 10SM CLR M06/M11 A3020 4120 68 2700 140/03 RMK AO2 T10561106 TSNO
94299KAAT AAT20161217134511612/17/16 13:45:31  5-MIN KAAT 172145Z AUTO 14003KT 10SM CLR M06/M11 A3020 4130 68 2700 130/03 RMK AO2 T10561106 TSNO
94299KAAT AAT20161217135012312/17/16 13:50:31  5-MIN KAAT 172150Z AUTO 17003KT 10SM CLR M06/M11 A3020 4130 68 2700 150/03 RMK AO2 SLP270 T10561106 TSNO
94299KAAT AAT20161217135512312/17/16 13:55:31  5-MIN KAAT 172155Z AUTO 15004KT 10SM CLR M06/M11 A3020 4130 68 2700 130/04 RMK AO2 SLP271 T10561106 TSNO
94299KAAT AAT20161217140011612/17/16 14:00:31  5-MIN KAAT 172200Z AUTO 14003KT 10SM CLR M06/M11 A3020 4120 68 2700 130/03 RMK AO2 T10561106 TSNO
94299KAAT AAT20161217140511612/17/16 14:05:31  5-MIN KAAT 172205Z AUTO 15003KT 10SM CLR M06/M11 A3020 4120 65 2700 140/03 RMK AO2 T10561111 TSNO
94299KAAT AAT20161217141011612/17/16 14:10:31  5-MIN KAAT 172210Z AUTO 16004KT 10SM CLR M05/M11 A3020 4120 62 2700 150/04 RMK AO2 T10501111 TSNO
94299KAAT AAT20161217141511612/17/16 14:15:31  5-MIN KAAT 172215Z AUTO 16004KT 10SM CLR M05/M11 A3020 4120 62 2700 150/04 RMK AO2 T10501111 TSNO
94299KAAT AAT20161217142011612/17/16 14:20:31  5-MIN KAAT 172220Z AUTO 14003KT 10SM CLR M05/M11 A3020 4120 65 2700 130/03 RMK AO2 T10501106 TSNO
94299KAAT AAT20161217142511612/17/16 14:25:31  5-MIN KAAT 172225Z AUTO 16003KT 10SM CLR M05/M10 A3020 4120 68 2700 140/03 RMK AO2 T10501100 TSNO
94299KAAT AAT20161217143011612/17/16 14:30:31  5-MIN KAAT 172230Z AUTO 14003KT 10SM CLR M05/M11 A3021 4120 65 2700 130/03 RMK AO2 T10501106 TSNO
94299KAAT AAT20161217143511612/17/16 14:35:31  5-MIN KAAT 172235Z AUTO 00000KT 10SM CLR M05/M11 A3021 4120 62 2700 000/00 RMK AO2 T10501111 TSNO
94299KAAT AAT20161217144011612/17/16 14:40:31  5-MIN KAAT 172240Z AUTO 16003KT 10SM CLR M05/M11 A3021 4120 65 2700 150/03 RMK AO2 T10501106 TSNO
94299KAAT AAT20161217144511612/17/16 14:45:31  5-MIN KAAT 172245Z AUTO 00000KT 10SM CLR M05/M11 A3021 4120 65 2700 000/00 RMK AO2 T10501106 TSNO
94299KAAT AAT20161217145012312/17/16 14:50:31  5-MIN KAAT 172250Z AUTO VRB03KT 10SM CLR M05/M11 A3021 4110 65 2700 VRB/03 RMK AO2 SLP275 T10501106 TSNO
94299KAAT AAT20161217145512312/17/16 14:55:31  5-MIN KAAT 172255Z AUTO 00000KT 10SM CLR M05/M11 A3021 4110 65 2700 000/00 RMK AO2 SLP275 T10501106 TSNO
94299KAAT AAT20161217150011612/17/16 15:00:31  5-MIN KAAT 172300Z AUTO 00000KT 10SM CLR M05/M11 A3021 4110 65 2700 000/00 RMK AO2 T10501106 TSNO
94299KAAT AAT20161217150511612/17/16 15:05:31  5-MIN KAAT 172305Z AUTO 00000KT 10SM CLR M05/M11 A3021 4110 65 2700 000/00 RMK AO2 T10501106 TSNO
94299KAAT AAT20161217151011612/17/16 15:10:31  5-MIN KAAT 172310Z AUTO 12003KT 10SM CLR M05/M11 A3021 4110 65 2700 110/03 RMK AO2 T10501106 TSNO
94299KAAT AAT20161217151511612/17/16 15:15:31  5-MIN KAAT 172315Z AUTO 14003KT 10SM CLR M05/M11 A3021 4110 65 2700 130/03 RMK AO2 T10501106 TSNO
94299KAAT AAT20161217152011612/17/16 15:20:31  5-MIN KAAT 172320Z AUTO 15003KT 10SM CLR M05/M11 A3021 4110 62 2700 130/03 RMK AO2 T10501111 TSNO
94299KAAT AAT20161217152511612/17/16 15:25:31  5-MIN KAAT 172325Z AUTO 16003KT 10SM CLR M05/M11 A3022 4110 62 2700 140/03 RMK AO2 T10501111 TSNO
94299KAAT AAT20161217153011612/17/16 15:30:31  5-MIN KAAT 172330Z AUTO 16004KT 10SM CLR M06/M11 A3022 4110 68 2600 140/04 RMK AO2 T10561106 TSNO
94299KAAT AAT20161217153511612/17/16 15:35:31  5-MIN KAAT 172335Z AUTO 15005KT 10SM CLR M06/M11 A3021 4110 68 2600 130/05 RMK AO2 T10561106 TSNO
94299KAAT AAT20161217154011612/17/16 15:40:31  5-MIN KAAT 172340Z AUTO 16004KT 10SM CLR M06/M10 A3022 4110 71 2600 140/04 RMK AO2 T10561100 TSNO
94299KAAT AAT20161217154511612/17/16 15:45:31  5-MIN KAAT 172345Z AUTO 16004KT 10SM CLR M06/M11 A3022 4100 68 2600 150/04 RMK AO2 T10561106 TSNO
94299KAAT AAT20161217155014112/17/16 15:50:31  5-MIN KAAT 172350Z AUTO 17004KT 10SM CLR M06/M10 A3023 4100 71 2600 150/04 RMK AO2 SLP286 T10561100 11050 21094 58007 TSNO
94299KAAT AAT20161217155514112/17/16 15:55:31  5-MIN KAAT 172355Z AUTO 18004KT 10SM CLR M06/M10 A3023 4100 71 2600 160/04 RMK AO2 SLP288 T10561100 11050 21094 53008 TSNO
94299KAAT AAT20161217160011612/17/16 16:00:31  5-MIN KAAT 180000Z AUTO 18004KT 10SM CLR M06/M10 A3023 4100 71 2600 170/04 RMK AO2 T10561100 TSNO
94299KAAT AAT20161217160511612/17/16 16:05:31  5-MIN KAAT 180005Z AUTO 17004KT 10SM CLR M06/M11 A3023 4100 71 2500 160/04 RMK AO2 T10611106 TSNO
94299KAAT AAT20161217161011612/17/16 16:10:31  5-MIN KAAT 180010Z AUTO 18004KT 10SM CLR M06/M11 A3023 4090 71 2500 170/04 RMK AO2 T10611106 TSNO
94299KAAT AAT20161217161511612/17/16 16:15:31  5-MIN KAAT 180015Z AUTO 17004KT 10SM CLR M06/M11 A3023 4090 71 2500 160/04 RMK AO2 T10611106 TSNO
94299KAAT AAT20161217162011612/17/16 16:20:31  5-MIN KAAT 180020Z AUTO 19004KT 10SM CLR M07/M11 A3024 4090 74 2500 180/04 RMK AO2 T10671106 TSNO
94299KAAT AAT20161217162511612/17/16 16:25:31  5-MIN KAAT 180025Z AUTO 18003KT 10SM CLR M07/M11 A3024 4090 74 2500 170/03 RMK AO2 T10671106 TSNO
94299KAAT AAT20161217163011612/17/16 16:30:31  5-MIN KAAT 180030Z AUTO 16003KT 10SM CLR M07/M11 A3024 4090 77 2400 150/03 RMK AO2 T10721106 TSNO
94299KAAT AAT20161217163511612/17/16 16:35:31  5-MIN KAAT 180035Z AUTO 17003KT 10SM CLR M07/M11 A3024 4090 77 2400 150/03 RMK AO2 T10721106 TSNO
94299KAAT AAT20161217164011612/17/16 16:40:31  5-MIN KAAT 180040Z AUTO 16003KT 10SM CLR M07/M11 A3024 4090 77 2400 140/03 RMK AO2 T10721106 TSNO
94299KAAT AAT20161217164511612/17/16 16:45:31  5-MIN KAAT 180045Z AUTO 19003KT 10SM CLR M08/M11 A3024 4090 80 2300 170/03 RMK AO2 T10781106 TSNO
94299KAAT AAT20161217165012312/17/16 16:50:31  5-MIN KAAT 180050Z AUTO 18003KT 10SM CLR M07/M11 A3024 4090 77 2400 170/03 RMK AO2 SLP294 T10721106 TSNO
94299KAAT AAT20161217165512312/17/16 16:55:31  5-MIN KAAT 180055Z AUTO 18003KT 10SM CLR M08/M11 A3024 4090 80 2300 170/03 RMK AO2 SLP296 T10781106 TSNO
94299KAAT AAT20161217170011612/17/16 17:00:31  5-MIN KAAT 180100Z AUTO 00000KT 10SM CLR M08/M11 A3024 4090 80 2300 000/00 RMK AO2 T10781106 TSNO
94299KAAT AAT20161217170511612/17/16 17:05:31  5-MIN KAAT 180105Z AUTO 00000KT 10SM CLR M08/M11 A3024 4080 80 2300 000/00 RMK AO2 T10781106 TSNO
94299KAAT AAT20161217171011612/17/16 17:10:31  5-MIN KAAT 180110Z AUTO 00000KT 10SM CLR M08/M11 A3024 4080 84 2200 000/00 RMK AO2 T10831106 TSNO
94299KAAT AAT20161217171511612/17/16 17:15:31  5-MIN KAAT 180115Z AUTO 00000KT 10SM CLR M08/M11 A3025 4080 80 2200 000/00 RMK AO2 T10831111 TSNO
94299KAAT AAT20161217172011612/17/16 17:20:31  5-MIN KAAT 180120Z AUTO 00000KT 10SM CLR M08/M11 A3025 4080 84 2200 000/00 RMK AO2 T10831106 TSNO
94299KAAT AAT20161217172511612/17/16 17:25:31  5-MIN KAAT 180125Z AUTO 00000KT 10SM CLR M09/M11 A3025 4080 88 2200 000/00 RMK AO2 T10891106 TSNO
94299KAAT AAT20161217173011612/17/16 17:30:31  5-MIN KAAT 180130Z AUTO 00000KT 10SM CLR M08/M11 A3025 4080 84 2200 000/00 RMK AO2 T10831106 TSNO
94299KAAT AAT20161217173511612/17/16 17:35:31  5-MIN KAAT 180135Z AUTO 00000KT 10SM CLR M08/M11 A3025 4080 84 2200 000/00 RMK AO2 T10831106 TSNO
94299KAAT AAT20161217174011612/17/16 17:40:31  5-MIN KAAT 180140Z AUTO 00000KT 10SM CLR M08/M11 A3025 4080 84 2200 000/00 RMK AO2 T10831106 TSNO
94299KAAT AAT20161217174511512/17/16 17:45:31  5-MIN KAAT 180145Z AUTO 00000KT 7SM CLR M08/M11 A3025 4080 80 2300 000/00 RMK AO2 T10781106 TSNO
94299KAAT AAT20161217175012512/17/16 17:50:31  5-MIN KAAT 180150Z AUTO 00000KT 6SM BR CLR M09/M11 A3025 4080 84 2200 000/00 RMK AO2 SLP303 T10891111 TSNO
94299KAAT AAT20161217175512212/17/16 17:55:31  5-MIN KAAT 180155Z AUTO 00000KT 8SM CLR M09/M11 A3025 4080 88 2200 000/00 RMK AO2 SLP305 T10891106 TSNO
94299KAAT AAT20161217180011512/17/16 18:00:31  5-MIN KAAT 180200Z AUTO 00000KT 9SM CLR M09/M11 A3025 4070 88 2100 000/00 RMK AO2 T10941111 TSNO
94299KAAT AAT20161217180511612/17/16 18:05:31  5-MIN KAAT 180205Z AUTO 11003KT 10SM CLR M09/M11 A3025 4070 88 2200 090/03 RMK AO2 T10891106 TSNO
94299KAAT AAT20161217181011612/17/16 18:10:31  5-MIN KAAT 180210Z AUTO 11003KT 10SM CLR M09/M11 A3025 4070 84 2200 090/03 RMK AO2 T10891111 TSNO
94299KAAT AAT20161217181511612/17/16 18:15:31  5-MIN KAAT 180215Z AUTO 15003KT 10SM CLR M09/M11 A3025 4080 84 2200 130/03 RMK AO2 T10891111 TSNO
94299KAAT AAT20161217182011512/17/16 18:20:31  5-MIN KAAT 180220Z AUTO 00000KT 9SM CLR M09/M11 A3025 4070 84 2200 000/00 RMK AO2 T10891111 TSNO
94299KAAT AAT20161217182511512/17/16 18:25:31  5-MIN KAAT 180225Z AUTO 13003KT 9SM CLR M09/M11 A3026 4070 84 2200 110/03 RMK AO2 T10891111 TSNO
94299KAAT AAT20161217183011612/17/16 18:30:31  5-MIN KAAT 180230Z AUTO 11003KT 10SM CLR M09/M11 A3026 4070 88 2100 090/03 RMK AO2 T10941111 TSNO
94299KAAT AAT20161217183511512/17/16 18:35:31  5-MIN KAAT 180235Z AUTO 00000KT 9SM CLR M09/M11 A3026 4070 84 2200 000/00 RMK AO2 T10891111 TSNO
94299KAAT AAT20161217184011512/17/16 18:40:31  5-MIN KAAT 180240Z AUTO 00000KT 9SM CLR M10/M12 A3026 4070 88 2000 000/00 RMK AO2 T11001117 TSNO
94299KAAT AAT20161217184511512/17/16 18:45:31  5-MIN KAAT 180245Z AUTO 00000KT 9SM CLR M10/M12 A3026 4060 88 2000 000/00 RMK AO2 T11001117 TSNO
94299KAAT AAT20161217185012812/17/16 18:50:31  5-MIN KAAT 180250Z AUTO 00000KT 7SM CLR M09/M11 A3027 4060 84 2200 000/00 RMK AO2 SLP312 T10891111 53008 TSNO
94299KAAT AAT20161217185512812/17/16 18:55:31  5-MIN KAAT 180255Z AUTO 00000KT 7SM CLR M10/M11 A3027 4060 92 2000 000/00 RMK AO2 SLP313 T11001111 53012 TSNO
94299KAAT AAT20161217190011512/17/16 19:00:31  5-MIN KAAT 180300Z AUTO 19004KT 8SM CLR M11/M12 A3027 4060 92 1900 170/04 RMK AO2 T11061117 TSNO
94299KAAT AAT20161217190511612/17/16 19:05:31  5-MIN KAAT 180305Z AUTO 18004KT 10SM CLR M11/M12 A3027 4060 92 1900 170/04 RMK AO2 T11111122 TSNO
94299KAAT AAT20161217191011612/17/16 19:10:31  5-MIN KAAT 180310Z AUTO 18004KT 10SM CLR M12/M13 A3027 4060 91 1800 160/04 RMK AO2 T11171128 TSNO
94299KAAT AAT20161217191511612/17/16 19:15:31  5-MIN KAAT 180315Z AUTO 17003KT 10SM CLR M11/M13 A3028 4050 88 1900 150/03 RMK AO2 T11111128 TSNO
94299KAAT AAT20161217192011612/17/16 19:20:31  5-MIN KAAT 180320Z AUTO 16003KT 10SM CLR M11/M13 A3028 4050 88 1900 140/03 RMK AO2 T11111128 TSNO
94299KAAT AAT20161217192511612/17/16 19:25:31  5-MIN KAAT 180325Z AUTO 16004KT 10SM CLR M11/M12 A3028 4050 88 1900 150/04 RMK AO2 T11061122 TSNO
94299KAAT AAT20161217193011612/17/16 19:30:31  5-MIN KAAT 180330Z AUTO 15004KT 10SM CLR M11/M12 A3028 4050 88 1900 140/04 RMK AO2 T11061122 TSNO
94299KAAT AAT20161217193511612/17/16 19:35:31  5-MIN KAAT 180335Z AUTO 14004KT 10SM CLR M11/M12 A3028 4050 88 1900 130/04 RMK AO2 T11061122 TSNO
94299KAAT AAT20161217194011612/17/16 19:40:31  5-MIN KAAT 180340Z AUTO 15003KT 10SM CLR M11/M12 A3028 4050 92 1900 140/03 RMK AO2 T11061117 TSNO
94299KAAT AAT20161217194511612/17/16 19:45:31  5-MIN KAAT 180345Z AUTO 00000KT 10SM CLR M11/M12 A3028 4050 88 1900 000/00 RMK AO2 T11061122 TSNO
94299KAAT AAT20161217195012212/17/16 19:50:31  5-MIN KAAT 180350Z AUTO 00000KT 9SM CLR M11/M12 A3028 4050 88 1900 000/00 RMK AO2 SLP318 T11061122 TSNO
94299KAAT AAT20161217195512212/17/16 19:55:31  5-MIN KAAT 180355Z AUTO 00000KT 8SM CLR M11/M12 A3029 4050 92 1800 000/00 RMK AO2 SLP322 T11111122 TSNO
94299KAAT AAT20161217200011512/17/16 20:00:31  5-MIN KAAT 180400Z AUTO 00000KT 9SM CLR M11/M13 A3029 4040 84 1900 000/00 RMK AO2 T11061128 TSNO
94299KAAT AAT20161217200511512/17/16 20:05:31  5-MIN KAAT 180405Z AUTO 00000KT 9SM CLR M11/M13 A3029 4040 88 1800 000/00 RMK AO2 T11111128 TSNO
94299KAAT AAT20161217201011512/17/16 20:10:31  5-MIN KAAT 180410Z AUTO 00000KT 9SM CLR M12/M13 A3029 4040 91 1700 000/00 RMK AO2 T11221133 TSNO
94299KAAT AAT20161217201511612/17/16 20:15:31  5-MIN KAAT 180415Z AUTO 00000KT 10SM CLR M12/M14 A3029 4040 87 1700 000/00 RMK AO2 T11221139 TSNO
94299KAAT AAT20161217202011612/17/16 20:20:31  5-MIN KAAT 180420Z AUTO 00000KT 10SM CLR M12/M14 A3029 4040 87 1700 000/00 RMK AO2 T11221139 TSNO
94299KAAT AAT20161217202511612/17/16 20:25:31  5-MIN KAAT 180425Z AUTO 00000KT 10SM CLR M12/M14 A3030 4040 84 1700 000/00 RMK AO2 T11221144 TSNO
94299KAAT AAT20161217203011612/17/16 20:30:31  5-MIN KAAT 180430Z AUTO 00000KT 10SM CLR M12/M14 A3030 4030 87 1700 000/00 RMK AO2 T11221139 TSNO
94299KAAT AAT20161217203511612/17/16 20:35:31  5-MIN KAAT 180435Z AUTO 00000KT 10SM CLR M12/M14 A3030 4030 87 1700 000/00 RMK AO2 T11221139 TSNO
94299KAAT AAT20161217204011612/17/16 20:40:31  5-MIN KAAT 180440Z AUTO 00000KT 10SM CLR M11/M13 A3030 4030 88 1800 000/00 RMK AO2 T11111128 TSNO
94299KAAT AAT20161217204511612/17/16 20:45:31  5-MIN KAAT 180445Z AUTO 00000KT 10SM CLR M11/M13 A3030 4030 88 1800 000/00 RMK AO2 T11111128 TSNO
94299KAAT AAT20161217205012312/17/16 20:50:31  5-MIN KAAT 180450Z AUTO 00000KT 10SM CLR M11/M12 A3030 4030 92 1800 000/00 RMK AO2 SLP321 T11111122 TSNO
94299KAAT AAT20161217205512212/17/16 20:55:31  5-MIN KAAT 180455Z AUTO 00000KT 7SM CLR M12/M13 A3031 4030 91 1800 000/00 RMK AO2 SLP322 T11171128 TSNO
94299KAAT AAT20161217210011512/17/16 21:00:31  5-MIN KAAT 180500Z AUTO 00000KT 7SM CLR M12/M14 A3031 4020 87 1700 000/00 RMK AO2 T11221139 TSNO
94299KAAT AAT20161217210511612/17/16 21:05:31  5-MIN KAAT 180505Z AUTO 00000KT 10SM CLR M12/M14 A3031 4020 84 1700 000/00 RMK AO2 T11221144 TSNO
94299KAAT AAT20161217211011612/17/16 21:10:31  5-MIN KAAT 180510Z AUTO 00000KT 10SM CLR M12/M13 A3031 4020 87 1700 000/00 RMK AO2 T11171133 TSNO
94299KAAT AAT20161217211511512/17/16 21:15:31  5-MIN KAAT 180515Z AUTO 00000KT 9SM CLR M12/M13 A3031 4020 91 1700 000/00 RMK AO2 T11221133 TSNO
94299KAAT AAT20161217212011812/17/16 21:20:31  5-MIN KAAT 180520Z AUTO 05003KT 6SM BR CLR M12/M13 A3031 4020 91 1700 040/03 RMK AO2 T11171128 TSNO
94299KAAT AAT20161217212511812/17/16 21:25:31  5-MIN KAAT 180525Z AUTO 05003KT 4SM BR CLR M12/M13 A3032 4020 87 1700 030/03 RMK AO2 T11171133 TSNO
94299KAAT AAT20161217213011812/17/16 21:30:31  5-MIN KAAT 180530Z AUTO 05003KT 4SM BR CLR M12/M13 A3031 4020 87 1700 040/03 RMK AO2 T11171133 TSNO
94299KAAT AAT20161217213511812/17/16 21:35:31  5-MIN KAAT 180535Z AUTO 06003KT 4SM BR CLR M12/M13 A3031 4020 87 1700 040/03 RMK AO2 T11171133 TSNO
94299KAAT AAT20161217214011812/17/16 21:40:31  5-MIN KAAT 180540Z AUTO 06003KT 4SM BR CLR M12/M13 A3032 4020 87 1700 050/03 RMK AO2 T11171133 TSNO
94299KAAT AAT20161217214511812/17/16 21:45:31  5-MIN KAAT 180545Z AUTO 00000KT 6SM BR CLR M12/M13 A3032 4020 87 1700 000/00 RMK AO2 T11171133 TSNO
94299KAAT AAT20161217215014012/17/16 21:50:31  5-MIN KAAT 180550Z AUTO 00000KT 7SM CLR M12/M14 A3032 4020 87 1700 000/00 RMK AO2 SLP326 T11221139 11056 21122 53012 TSNO
94299KAAT AAT20161217215514012/17/16 21:55:31  5-MIN KAAT 180555Z AUTO 00000KT 7SM CLR M12/M14 A3031 4020 87 1700 000/00 RMK AO2 SLP325 T11221139 11056 21122 51014 TSNO
94299KAAT AAT20161217220011512/17/16 22:00:31  5-MIN KAAT 180600Z AUTO 19004KT 8SM CLR M13/M15 A3032 4020 87 1500 180/04 RMK AO2 T11331150 TSNO
94299KAAT AAT20161217220511512/17/16 22:05:31  5-MIN KAAT 180605Z AUTO 17004KT 9SM CLR M14/M16 A3032 4010 87 1400 150/04 RMK AO2 T11391156 TSNO
94299KAAT AAT20161217221011612/17/16 22:10:31  5-MIN KAAT 180610Z AUTO 00000KT 10SM CLR M13/M15 A3032 4010 87 1500 000/00 RMK AO2 T11331150 TSNO
94299KAAT AAT20161217221511612/17/16 22:15:31  5-MIN KAAT 180615Z AUTO 15004KT 10SM CLR M13/M15 A3033 4010 87 1500 130/04 RMK AO2 T11331150 TSNO
94299KAAT AAT20161217222011612/17/16 22:20:31  5-MIN KAAT 180620Z AUTO 13004KT 10SM CLR M13/M14 A3033 4010 91 1500 120/04 RMK AO2 T11331144 TSNO
94299KAAT AAT20161217222511612/17/16 22:25:31  5-MIN KAAT 180625Z AUTO 14003KT 10SM CLR M13/M14 A3033 4010 87 1600 120/03 RMK AO2 T11281144 TSNO
94299KAAT AAT20161217223011612/17/16 22:30:31  5-MIN KAAT 180630Z AUTO 14003KT 10SM CLR M13/M14 A3033 4010 91 1600 120/03 RMK AO2 T11281139 TSNO
94299KAAT AAT20161217223511612/17/16 22:35:31  5-MIN KAAT 180635Z AUTO 18003KT 10SM CLR M13/M14 A3033 4000 91 1600 170/03 RMK AO2 T11281139 TSNO
94299KAAT AAT20161217224011612/17/16 22:40:31  5-MIN KAAT 180640Z AUTO 18003KT 10SM CLR M13/M14 A3033 4000 91 1600 160/03 RMK AO2 T11281139 TSNO
94299KAAT AAT20161217224511612/17/16 22:45:31  5-MIN KAAT 180645Z AUTO 00000KT 10SM CLR M13/M14 A3033 4000 91 1500 000/00 RMK AO2 T11331144 TSNO
94299KAAT AAT20161217225012312/17/16 22:50:31  5-MIN KAAT 180650Z AUTO 00000KT 10SM CLR M13/M15 A3034 4000 87 1500 000/00 RMK AO2 SLP330 T11331150 TSNO
94299KAAT AAT20161217225512312/17/16 22:55:31  5-MIN KAAT 180655Z AUTO 00000KT 10SM CLR M13/M15 A3034 4000 87 1500 000/00 RMK AO2 SLP330 T11331150 TSNO
94299KAAT AAT20161217230011612/17/16 23:00:31  5-MIN KAAT 180700Z AUTO 00000KT 10SM CLR M13/M15 A3034 4000 87 1500 000/00 RMK AO2 T11331150 TSNO
94299KAAT AAT20161217230511612/17/16 23:05:31  5-MIN KAAT 180705Z AUTO 00000KT 10SM CLR M13/M15 A3034 3990 87 1500 000/00 RMK AO2 T11331150 TSNO
94299KAAT AAT20161217231011612/17/16 23:10:31  5-MIN KAAT 180710Z AUTO 00000KT 10SM CLR M13/M15 A3034 4000 87 1500 000/00 RMK AO2 T11331150 TSNO
94299KAAT AAT20161217231511612/17/16 23:15:31  5-MIN KAAT 180715Z AUTO 00000KT 10SM CLR M13/M15 A3034 4000 87 1500 000/00 RMK AO2 T11331150 TSNO
94299KAAT AAT20161217232011612/17/16 23:20:31  5-MIN KAAT 180720Z AUTO 00000KT 10SM CLR M14/M16 A3034 4000 87 1400 000/00 RMK AO2 T11391156 TSNO
94299KAAT AAT20161217232511612/17/16 23:25:31  5-MIN KAAT 180725Z AUTO 13003KT 10SM CLR M13/M15 A3034 3990 87 1500 110/03 RMK AO2 T11331150 TSNO
94299KAAT AAT20161217233011512/17/16 23:30:31  5-MIN KAAT 180730Z AUTO 00000KT 9SM CLR M13/M15 A3034 3990 84 1600 000/00 RMK AO2 T11281150 TSNO
94299KAAT AAT20161217233511812/17/16 23:35:31  5-MIN KAAT 180735Z AUTO 00000KT 4SM BR CLR M13/M15 A3034 3990 84 1600 000/00 RMK AO2 T11281150 TSNO
94299KAAT AAT20161217234011812/17/16 23:40:31  5-MIN KAAT 180740Z AUTO 06003KT 4SM BR CLR M13/M15 A3034 3990 84 1600 050/03 RMK AO2 T11281150 TSNO
94299KAAT AAT20161217234511812/17/16 23:45:31  5-MIN KAAT 180745Z AUTO 00000KT 5SM BR CLR M13/M14 A3034 3990 87 1600 000/00 RMK AO2 T11281144 TSNO
94299KAAT AAT20161217235013512/17/16 23:50:31  5-MIN KAAT 180750Z AUTO 00000KT 4SM BR CLR M13/M15 A3034 3990 87 1500 000/00 RMK AO2 SLP330 T11331150 410501156 TSNO
94299KAAT AAT20161217235513512/17/16 23:55:31  5-MIN KAAT 180755Z AUTO 00000KT 4SM BR CLR M13/M15 A3034 3990 87 1500 000/00 RMK AO2 SLP330 T11331150 410501156 TSNO
94299KAAT AAT20161218000011812/18/16 00:00:31  5-MIN KAAT 180800Z AUTO 00000KT 5SM BR CLR M13/M15 A3034 3990 87 1500 000/00 RMK AO2 T11331150 TSNO
94299KAAT AAT20161218000511512/18/16 00:05:31  5-MIN KAAT 180805Z AUTO 00000KT 7SM CLR M13/M15 A3035 3990 87 1500 000/00 RMK AO2 T11331150 TSNO
94299KAAT AAT20161218001011512/18/16 00:10:31  5-MIN KAAT 180810Z AUTO 00000KT 9SM CLR M14/M16 A3034 3990 87 1400 000/00 RMK AO2 T11391156 TSNO
94299KAAT AAT20161218001511512/18/16 00:15:31  5-MIN KAAT 180815Z AUTO 00000KT 9SM CLR M14/M16 A3035 3990 87 1400 000/00 RMK AO2 T11391156 TSNO
94299KAAT AAT20161218002011612/18/16 00:20:31  5-MIN KAAT 180820Z AUTO 00000KT 10SM CLR M14/M16 A3035 3990 87 1400 000/00 RMK AO2 T11391156 TSNO
94299KAAT AAT20161218002511612/18/16 00:25:31  5-MIN KAAT 180825Z AUTO 00000KT 10SM CLR M14/M16 A3035 3990 87 1300 000/00 RMK AO2 T11441161 TSNO
94299KAAT AAT20161218003011612/18/16 00:30:31  5-MIN KAAT 180830Z AUTO 00000KT 10SM CLR M14/M16 A3035 3990 87 1400 000/00 RMK AO2 T11391156 TSNO
94299KAAT AAT20161218003511612/18/16 00:35:31  5-MIN KAAT 180835Z AUTO 17003KT 10SM CLR M14/M16 A3035 3990 87 1400 150/03 RMK AO2 T11391156 TSNO
94299KAAT AAT20161218004011612/18/16 00:40:31  5-MIN KAAT 180840Z AUTO 18004KT 10SM CLR M14/M16 A3035 3980 87 1400 170/04 RMK AO2 T11391156 TSNO
94299KAAT AAT20161218004511612/18/16 00:45:31  5-MIN KAAT 180845Z AUTO 00000KT 10SM CLR M14/M16 A3036 3980 87 1300 000/00 RMK AO2 T11441161 TSNO
94299KAAT AAT20161218005012912/18/16 00:50:31  5-MIN KAAT 180850Z AUTO 00000KT 10SM CLR M15/M17 A3036 3980 87 1300 000/00 RMK AO2 SLP338 T11501167 51014 TSNO
94299KAAT AAT20161218005512912/18/16 00:55:31  5-MIN KAAT 180855Z AUTO 00000KT 10SM CLR M15/M17 A3036 3980 87 1300 000/00 RMK AO2 SLP339 T11501167 51014 TSNO
94299KAAT AAT20161218010011512/18/16 01:00:31  5-MIN KAAT 180900Z AUTO 00000KT 9SM CLR M14/M16 A3037 3970 87 1300 000/00 RMK AO2 T11441161 TSNO
94299KAAT AAT20161218010511512/18/16 01:05:31  5-MIN KAAT 180905Z AUTO 00000KT 7SM CLR M14/M16 A3037 3970 87 1300 000/00 RMK AO2 T11441161 TSNO
94299KAAT AAT20161218011011812/18/16 01:10:31  5-MIN KAAT 180910Z AUTO 12003KT 6SM BR CLR M14/M16 A3037 3970 87 1400 110/03 RMK AO2 T11391156 TSNO
94299KAAT AAT20161218011511812/18/16 01:15:31  5-MIN KAAT 180915Z AUTO 15004KT 5SM BR CLR M14/M16 A3037 3970 87 1400 140/04 RMK AO2 T11391156 TSNO
94299KAAT AAT20161218012011512/18/16 01:20:31  5-MIN KAAT 180920Z AUTO 15004KT 7SM CLR M14/M16 A3037 3970 87 1400 140/04 RMK AO2 T11391156 TSNO
94299KAAT AAT20161218012511612/18/16 01:25:31  5-MIN KAAT 180925Z AUTO 16005KT 10SM CLR M14/M16 A3036 3970 87 1400 150/05 RMK AO2 T11391156 TSNO
94299KAAT AAT20161218013011612/18/16 01:30:31  5-MIN KAAT 180930Z AUTO 16003KT 10SM CLR M14/M16 A3036 3970 87 1300 150/03 RMK AO2 T11441161 TSNO
94299KAAT AAT20161218013511612/18/16 01:35:31  5-MIN KAAT 180935Z AUTO 15003KT 10SM CLR M14/M16 A3037 3970 87 1300 140/03 RMK AO2 T11441161 TSNO
94299KAAT AAT20161218014011612/18/16 01:40:31  5-MIN KAAT 180940Z AUTO 15003KT 10SM CLR M14/M16 A3037 3970 87 1400 130/03 RMK AO2 T11391156 TSNO
94299KAAT AAT20161218014511612/18/16 01:45:31  5-MIN KAAT 180945Z AUTO 00000KT 10SM CLR M14/M16 A3038 3960 87 1400 000/00 RMK AO2 T11391156 TSNO
94299KAAT AAT20161218015012312/18/16 01:50:31  5-MIN KAAT 180950Z AUTO 00000KT 10SM CLR M14/M16 A3038 3960 87 1400 000/00 RMK AO2 SLP340 T11391156 TSNO
94299KAAT AAT20161218015512312/18/16 01:55:31  5-MIN KAAT 180955Z AUTO 00000KT 10SM CLR M14/M16 A3038 3960 87 1400 000/00 RMK AO2 SLP340 T11391156 TSNO
94299KAAT AAT20161218020011612/18/16 02:00:31  5-MIN KAAT 181000Z AUTO 00000KT 10SM CLR M14/M16 A3038 3960 87 1300 000/00 RMK AO2 T11441161 TSNO
94299KAAT AAT20161218020511512/18/16 02:05:31  5-MIN KAAT 181005Z AUTO 00000KT 9SM CLR M14/M16 A3037 3960 87 1300 000/00 RMK AO2 T11441161 TSNO
94299KAAT AAT20161218021011512/18/16 02:10:31  5-MIN KAAT 181010Z AUTO 00000KT 7SM CLR M15/M17 A3037 3960 87 1200 000/00 RMK AO2 T11501167 TSNO
94299KAAT AAT20161218021511512/18/16 02:15:31  5-MIN KAAT 181015Z AUTO 00000KT 8SM CLR M14/M16 A3037 3970 83 1400 000/00 RMK AO2 T11391161 TSNO
94299KAAT AAT20161218022011612/18/16 02:20:31  5-MIN KAAT 181020Z AUTO 00000KT 10SM CLR M14/M16 A3037 3970 87 1300 000/00 RMK AO2 T11441161 TSNO
94299KAAT AAT20161218022511512/18/16 02:25:31  5-MIN KAAT 181025Z AUTO 00000KT 9SM CLR M14/M16 A3037 3970 87 1300 000/00 RMK AO2 T11441161 TSNO
94299KAAT AAT20161218023011512/18/16 02:30:31  5-MIN KAAT 181030Z AUTO 00000KT 7SM CLR M14/M16 A3037 3970 91 1300 000/00 RMK AO2 T11441156 TSNO
94299KAAT AAT20161218023511812/18/16 02:35:31  5-MIN KAAT 181035Z AUTO 00000KT 5SM BR CLR M14/M16 A3037 3970 87 1300 000/00 RMK AO2 T11441161 TSNO
94299KAAT AAT20161218024011812/18/16 02:40:31  5-MIN KAAT 181040Z AUTO 00000KT 5SM BR CLR M14/M16 A3037 3970 87 1300 000/00 RMK AO2 T11441161 TSNO
94299KAAT AAT20161218024511812/18/16 02:45:31  5-MIN KAAT 181045Z AUTO 00000KT 5SM BR CLR M15/M17 A3037 3970 87 1200 000/00 RMK AO2 T11501167 TSNO
94299KAAT AAT20161218025012512/18/16 02:50:31  5-MIN KAAT 181050Z AUTO 00000KT 4SM BR CLR M15/M17 A3037 3970 87 1200 000/00 RMK AO2 SLP339 T11501167 TSNO
94299KAAT AAT20161218025512512/18/16 02:55:31  5-MIN KAAT 181055Z AUTO 00000KT 4SM BR CLR M16/M17 A3037 3970 87 1200 000/00 RMK AO2 SLP339 T11561172 TSNO
94299KAAT AAT20161218030011812/18/16 03:00:31  5-MIN KAAT 181100Z AUTO 00000KT 6SM BR CLR M16/M17 A3037 3970 87 1200 000/00 RMK AO2 T11561172 TSNO
94299KAAT AAT20161218030511512/18/16 03:05:31  5-MIN KAAT 181105Z AUTO 00000KT 7SM CLR M16/M18 A3037 3970 83 1200 000/00 RMK AO2 T11561178 TSNO
94299KAAT AAT20161218031011512/18/16 03:10:31  5-MIN KAAT 181110Z AUTO 00000KT 8SM CLR M16/M17 A3037 3970 87 1200 000/00 RMK AO2 T11561172 TSNO
94299KAAT AAT20161218031511812/18/16 03:15:31  5-MIN KAAT 181115Z AUTO 00000KT 5SM BR CLR M16/M17 A3036 3970 87 1200 000/00 RMK AO2 T11561172 TSNO
94299KAAT AAT20161218032011812/18/16 03:20:31  5-MIN KAAT 181120Z AUTO 00000KT 5SM BR CLR M16/M18 A3037 3970 87 1100 000/00 RMK AO2 T11611178 TSNO
94299KAAT AAT20161218032511512/18/16 03:25:31  5-MIN KAAT 181125Z AUTO 17003KT 8SM CLR M16/M17 A3036 3980 87 1200 160/03 RMK AO2 T11561172 TSNO
94299KAAT AAT20161218033011612/18/16 03:30:31  5-MIN KAAT 181130Z AUTO 00000KT 10SM CLR M16/M17 A3036 3980 91 1200 000/00 RMK AO2 T11561167 TSNO
94299KAAT AAT20161218033511612/18/16 03:35:31  5-MIN KAAT 181135Z AUTO 00000KT 10SM CLR M15/M17 A3036 3980 83 1300 000/00 RMK AO2 T11501172 TSNO
94299KAAT AAT20161218034011612/18/16 03:40:31  5-MIN KAAT 181140Z AUTO 00000KT 10SM CLR M16/M17 A3036 3980 91 1200 000/00 RMK AO2 T11561167 TSNO
94299KAAT AAT20161218034511612/18/16 03:45:31  5-MIN KAAT 181145Z AUTO 00000KT 10SM CLR M16/M17 A3036 3980 87 1200 000/00 RMK AO2 T11561172 TSNO
94299KAAT AAT20161218035014112/18/16 03:50:31  5-MIN KAAT 181150Z AUTO 00000KT 10SM CLR M16/M17 A3036 3980 91 1100 000/00 RMK AO2 SLP338 T11611172 11122 21161 51014 TSNO
94299KAAT AAT20161218035514112/18/16 03:55:31  5-MIN KAAT 181155Z AUTO 00000KT 10SM CLR M16/M18 A3036 3980 87 1100 000/00 RMK AO2 SLP338 T11611178 11122 21161 58000 TSNO
94299KAAT AAT20161218040011612/18/16 04:00:31  5-MIN KAAT 181200Z AUTO 00000KT 10SM CLR M16/M18 A3036 3980 87 1100 000/00 RMK AO2 T11611178 TSNO
94299KAAT AAT20161218040511612/18/16 04:05:31  5-MIN KAAT 181205Z AUTO 00000KT 10SM CLR M16/M17 A3036 3980 87 1200 000/00 RMK AO2 T11561172 TSNO
94299KAAT AAT20161218041011612/18/16 04:10:31  5-MIN KAAT 181210Z AUTO 20003KT 10SM CLR M16/M17 A3036 3970 87 1200 180/03 RMK AO2 T11561172 TSNO
94299KAAT AAT20161218041511612/18/16 04:15:31  5-MIN KAAT 181215Z AUTO 21003KT 10SM CLR M16/M17 A3036 3980 87 1200 190/03 RMK AO2 T11561172 TSNO
94299KAAT AAT20161218042011612/18/16 04:20:31  5-MIN KAAT 181220Z AUTO 21003KT 10SM CLR M16/M17 A3036 3970 87 1200 190/03 RMK AO2 T11561172 TSNO
94299KAAT AAT20161218042511612/18/16 04:25:31  5-MIN KAAT 181225Z AUTO 00000KT 10SM CLR M16/M18 A3036 3970 83 1200 000/00 RMK AO2 T11561178 TSNO
94299KAAT AAT20161218043011612/18/16 04:30:31  5-MIN KAAT 181230Z AUTO 00000KT 10SM CLR M16/M17 A3037 3970 87 1200 000/00 RMK AO2 T11561172 TSNO
94299KAAT AAT20161218043511612/18/16 04:35:31  5-MIN KAAT 181235Z AUTO 00000KT 10SM CLR M16/M17 A3037 3970 87 1200 000/00 RMK AO2 T11561172 TSNO
94299KAAT AAT20161218044011612/18/16 04:40:31  5-MIN KAAT 181240Z AUTO 00000KT 10SM CLR M16/M17 A3038 3960 87 1200 000/00 RMK AO2 T11561172 TSNO
94299KAAT AAT20161218044511612/18/16 04:45:31  5-MIN KAAT 181245Z AUTO 00000KT 10SM CLR M16/M17 A3038 3960 91 1100 000/00 RMK AO2 T11611172 TSNO
94299KAAT AAT20161218045012312/18/16 04:50:31  5-MIN KAAT 181250Z AUTO 00000KT 10SM CLR M16/M17 A3038 3960 87 1200 000/00 RMK AO2 SLP347 T11561172 TSNO
94299KAAT AAT20161218045512312/18/16 04:55:31  5-MIN KAAT 181255Z AUTO 00000KT 10SM CLR M16/M18 A3038 3960 83 1200 000/00 RMK AO2 SLP349 T11561178 TSNO
94299KAAT AAT20161218050011612/18/16 05:00:31  5-MIN KAAT 181300Z AUTO 00000KT 10SM CLR M16/M17 A3038 3960 87 1200 000/00 RMK AO2 T11561172 TSNO
94299KAAT AAT20161218050511612/18/16 05:05:31  5-MIN KAAT 181305Z AUTO 00000KT 10SM CLR M16/M17 A3038 3960 87 1200 000/00 RMK AO2 T11561172 TSNO
94299KAAT AAT20161218051011612/18/16 05:10:31  5-MIN KAAT 181310Z AUTO 00000KT 10SM CLR M16/M17 A3038 3960 91 1200 000/00 RMK AO2 T11561167 TSNO
94299KAAT AAT20161218051511612/18/16 05:15:31  5-MIN KAAT 181315Z AUTO 00000KT 10SM CLR M16/M17 A3039 3950 87 1200 000/00 RMK AO2 T11561172 TSNO
94299KAAT AAT20161218052011612/18/16 05:20:31  5-MIN KAAT 181320Z AUTO 00000KT 10SM CLR M15/M17 A3038 3950 87 1200 000/00 RMK AO2 T11501167 TSNO
94299KAAT AAT20161218052511612/18/16 05:25:31  5-MIN KAAT 181325Z AUTO 00000KT 10SM CLR M16/M17 A3039 3950 87 1200 000/00 RMK AO2 T11561172 TSNO
94299KAAT AAT20161218053011512/18/16 05:30:31  5-MIN KAAT 181330Z AUTO 00000KT 9SM CLR M16/M18 A3039 3950 83 1200 000/00 RMK AO2 T11561178 TSNO
94299KAAT AAT20161218053511512/18/16 05:35:31  5-MIN KAAT 181335Z AUTO 00000KT 9SM CLR M16/M18 A3039 3950 83 1200 000/00 RMK AO2 T11561178 TSNO
94299KAAT AAT20161218054011612/18/16 05:40:31  5-MIN KAAT 181340Z AUTO 00000KT 10SM CLR M16/M18 A3039 3950 83 1100 000/00 RMK AO2 T11561178 TSNO
94299KAAT AAT20161218054511512/18/16 05:45:31  5-MIN KAAT 181345Z AUTO 13003KT 7SM CLR M16/M17 A3039 3950 87 1200 120/03 RMK AO2 T11561172 TSNO
94299KAAT AAT20161218055012512/18/16 05:50:31  5-MIN KAAT 181350Z AUTO 00000KT 5SM BR CLR M16/M17 A3039 3950 87 1200 000/00 RMK AO2 SLP356 T11561172 TSNO
94299KAAT AAT20161218055512512/18/16 05:55:31  5-MIN KAAT 181355Z AUTO 00000KT 6SM BR CLR M16/M17 A3039 3950 87 1100 000/00 RMK AO2 SLP356 T11561172 TSNO
94299KAAT AAT20161218060011412/18/16 06:00:31  5-MIN KAAT 181400Z AUTO 00000KT 8SM CLR M17/M18 A3039 3950 91 900 000/00 RMK AO2 T11721183 TSNO
94299KAAT AAT20161218060511412/18/16 06:05:31  5-MIN KAAT 181405Z AUTO 17003KT 9SM CLR M17/M19 A3039 3950 87 900 150/03 RMK AO2 T11721189 TSNO
94299KAAT AAT20161218061011512/18/16 06:10:31  5-MIN KAAT 181410Z AUTO 00000KT 10SM CLR M17/M19 A3040 3940 87 900 000/00 RMK AO2 T11721189 TSNO
94299KAAT AAT20161218061511512/18/16 06:15:31  5-MIN KAAT 181415Z AUTO 00000KT 10SM CLR M17/M19 A3040 3940 87 900 000/00 RMK AO2 T11721189 TSNO
94299KAAT AAT20161218062011612/18/16 06:20:31  5-MIN KAAT 181420Z AUTO 00000KT 10SM CLR M17/M19 A3040 3940 79 1000 000/00 RMK AO2 T11671194 TSNO
94299KAAT AAT20161218062511612/18/16 06:25:31  5-MIN KAAT 181425Z AUTO 00000KT 10SM CLR M17/M18 A3040 3940 87 1000 000/00 RMK AO2 T11671183 TSNO
94299KAAT AAT20161218063011512/18/16 06:30:31  5-MIN KAAT 181430Z AUTO 00000KT 8SM CLR M17/M18 A3040 3940 87 1000 000/00 RMK AO2 T11671183 TSNO
94299KAAT AAT20161218063511512/18/16 06:35:31  5-MIN KAAT 181435Z AUTO 00000KT 8SM CLR M17/M19 A3040 3940 83 1000 000/00 RMK AO2 T11671189 TSNO
94299KAAT AAT20161218064011512/18/16 06:40:31  5-MIN KAAT 181440Z AUTO 00000KT 9SM CLR M17/M18 A3041 3930 87 1000 000/00 RMK AO2 T11671183 TSNO
94299KAAT AAT20161218064511512/18/16 06:45:31  5-MIN KAAT 181445Z AUTO 00000KT 8SM CLR M17/M19 A3041 3930 83 1000 000/00 RMK AO2 T11671189 TSNO
94299KAAT AAT20161218065012812/18/16 06:50:31  5-MIN KAAT 181450Z AUTO 00000KT 9SM CLR M17/M19 A3041 3930 83 1000 000/00 RMK AO2 SLP366 T11671189 58000 TSNO
94299KAAT AAT20161218065512912/18/16 06:55:31  5-MIN KAAT 181455Z AUTO 00000KT 10SM CLR M17/M19 A3042 3920 83 1000 000/00 RMK AO2 SLP370 T11671189 53017 TSNO
94299KAAT AAT20161218070011612/18/16 07:00:31  5-MIN KAAT 181500Z AUTO 00000KT 10SM CLR M17/M19 A3042 3920 83 1000 000/00 RMK AO2 T11671189 TSNO
94299KAAT AAT20161218070511612/18/16 07:05:31  5-MIN KAAT 181505Z AUTO 00000KT 10SM CLR M17/M18 A3042 3920 87 1000 000/00 RMK AO2 T11671183 TSNO
94299KAAT AAT20161218071011612/18/16 07:10:31  5-MIN KAAT 181510Z AUTO 00000KT 10SM CLR M17/M18 A3042 3920 87 1000 000/00 RMK AO2 T11671183 TSNO
94299KAAT AAT20161218071511612/18/16 07:15:31  5-MIN KAAT 181515Z AUTO 16003KT 10SM CLR M16/M18 A3042 3920 83 1000 150/03 RMK AO2 T11611183 TSNO
94299KAAT AAT20161218072011612/18/16 07:20:31  5-MIN KAAT 181520Z AUTO 13004KT 10SM CLR M16/M18 A3041 3930 87 1000 110/04 RMK AO2 T11611178 TSNO
94299KAAT AAT20161218072511812/18/16 07:25:31  5-MIN KAAT 181525Z AUTO 12004KT 6SM BR CLR M16/M18 A3041 3930 87 1100 110/04 RMK AO2 T11611178 TSNO
94299KAAT AAT20161218073011812/18/16 07:30:31  5-MIN KAAT 181530Z AUTO 10003KT 4SM BR CLR M16/M18 A3041 3930 87 1100 090/03 RMK AO2 T11611178 TSNO
94299KAAT AAT20161218073511812/18/16 07:35:31  5-MIN KAAT 181535Z AUTO 11004KT 4SM BR CLR M16/M17 A3041 3930 87 1100 090/04 RMK AO2 T11561172 TSNO
94299KAAT AAT20161218074011812/18/16 07:40:31  5-MIN KAAT 181540Z AUTO 10004KT 4SM BR CLR M16/M17 A3040 3940 87 1100 090/04 RMK AO2 T11561172 TSNO
94299KAAT AAT20161218074511812/18/16 07:45:31  5-MIN KAAT 181545Z AUTO 12003KT 5SM BR CLR M16/M17 A3040 3940 87 1100 100/03 RMK AO2 T11561172 TSNO
94299KAAT AAT20161218075012212/18/16 07:50:31  5-MIN KAAT 181550Z AUTO 00000KT 7SM CLR M16/M17 A3040 3940 87 1100 000/00 RMK AO2 SLP364 T11561172 TSNO
94299KAAT AAT20161218075512512/18/16 07:55:31  5-MIN KAAT 181555Z AUTO 00000KT 9SM FEW003 M16/M18 A3040 3940 83 1100 000/00 RMK AO2 SLP364 T11561178 TSNO
94299KAAT AAT20161218080012112/18/16 08:00:31  5-MIN KAAT 181600Z AUTO 33003KT 6SM BR SCT003 M16/M18 A3040 3940 83 1100 310/03 RMK AO2 T11561178 TSNO
94299KAAT AAT20161218080512112/18/16 08:05:31  5-MIN KAAT 181605Z AUTO 34005KT 5SM BR BKN003 M15/M17 A3041 3930 83 1200 330/05 RMK AO2 T11501172 TSNO
94299KAAT AAT20161218081012112/18/16 08:10:31  5-MIN KAAT 181610Z AUTO 35004KT 6SM BR BKN003 M15/M17 A3041 3930 87 1200 330/04 RMK AO2 T11501167 TSNO
94299KAAT AAT20161218081511812/18/16 08:15:31  5-MIN KAAT 181615Z AUTO 02003KT 9SM BKN003 M15/M17 A3042 3930 87 1200 360/03 RMK AO2 T11501167 TSNO
94299KAAT AAT20161218082011912/18/16 08:20:31  5-MIN KAAT 181620Z AUTO 00000KT 10SM SCT003 M14/M16 A3042 3920 91 1300 000/00 RMK AO2 T11441156 TSNO
94299KAAT AAT20161218082511812/18/16 08:25:31  5-MIN KAAT 181625Z AUTO 00000KT 8SM SCT003 M14/M16 A3043 3910 87 1300 000/00 RMK AO2 T11391156 TSNO
94299KAAT AAT20161218083011812/18/16 08:30:31  5-MIN KAAT 181630Z AUTO 00000KT 9SM FEW003 M14/M16 A3044 3910 87 1300 000/00 RMK AO2 T11391156 TSNO
94299KAAT AAT20161218083511912/18/16 08:35:31  5-MIN KAAT 181635Z AUTO 00000KT 10SM FEW003 M13/M16 A3044 3910 83 1400 000/00 RMK AO2 T11331156 TSNO
94299KAAT AAT20161218084011612/18/16 08:40:31  5-MIN KAAT 181640Z AUTO 00000KT 10SM CLR M13/M15 A3044 3900 87 1400 000/00 RMK AO2 T11331150 TSNO
94299KAAT AAT20161218084511612/18/16 08:45:31  5-MIN KAAT 181645Z AUTO 29004KT 10SM CLR M13/M15 A3045 3890 84 1400 270/04 RMK AO2 T11281150 TSNO
94299KAAT AAT20161218085012312/18/16 08:50:31  5-MIN KAAT 181650Z AUTO 32003KT 10SM CLR M13/M14 A3045 3900 87 1400 300/03 RMK AO2 SLP374 T11281144 TSNO
94299KAAT AAT20161218085512312/18/16 08:55:31  5-MIN KAAT 181655Z AUTO 00000KT 10SM CLR M12/M13 A3045 3900 91 1500 000/00 RMK AO2 SLP373 T11221133 TSNO
94299KAAT AAT20161218090011612/18/16 09:00:31  5-MIN KAAT 181700Z AUTO 00000KT 10SM CLR M12/M13 A3045 3900 87 1600 000/00 RMK AO2 T11171133 TSNO
94299KAAT AAT20161218090511612/18/16 09:05:31  5-MIN KAAT 181705Z AUTO 00000KT 10SM CLR M11/M13 A3044 3900 84 1700 000/00 RMK AO2 T11111133 TSNO
94299KAAT AAT20161218091011612/18/16 09:10:31  5-MIN KAAT 181710Z AUTO 00000KT 10SM CLR M11/M13 A3044 3900 88 1700 000/00 RMK AO2 T11111128 TSNO
94299KAAT AAT20161218091511612/18/16 09:15:31  5-MIN KAAT 181715Z AUTO 00000KT 10SM CLR M11/M12 A3045 3900 92 1700 000/00 RMK AO2 T11111122 TSNO
94299KAAT AAT20161218092011612/18/16 09:20:31  5-MIN KAAT 181720Z AUTO 00000KT 10SM CLR M11/M12 A3044 3900 88 1700 000/00 RMK AO2 T11061122 TSNO
94299KAAT AAT20161218092511612/18/16 09:25:31  5-MIN KAAT 181725Z AUTO 16004KT 10SM CLR M11/M12 A3044 3910 88 1700 150/04 RMK AO2 T11061122 TSNO
94299KAAT AAT20161218093011612/18/16 09:30:31  5-MIN KAAT 181730Z AUTO 17004KT 10SM CLR M11/M13 A3044 3910 88 1700 150/04 RMK AO2 T11111128 TSNO
94299KAAT AAT20161218093511612/18/16 09:35:31  5-MIN KAAT 181735Z AUTO 16004KT 10SM CLR M11/M12 A3044 3910 92 1700 140/04 RMK AO2 T11111122 TSNO
94299KAAT AAT20161218094011612/18/16 09:40:31  5-MIN KAAT 181740Z AUTO 18004KT 10SM CLR M11/M12 A3043 3910 92 1700 170/04 RMK AO2 T11111122 TSNO
94299KAAT AAT20161218094511612/18/16 09:45:31  5-MIN KAAT 181745Z AUTO 17003KT 10SM CLR M11/M12 A3044 3910 92 1700 150/03 RMK AO2 T11111122 TSNO
94299KAAT AAT20161218095014112/18/16 09:50:31  5-MIN KAAT 181750Z AUTO 00000KT 10SM CLR M11/M12 A3044 3900 92 1700 000/00 RMK AO2 SLP371 T11111122 11106 21172 53017 TSNO
94299KAAT AAT20161218095514112/18/16 09:55:31  5-MIN KAAT 181755Z AUTO 00000KT 10SM CLR M11/M12 A3044 3900 88 1700 000/00 RMK AO2 SLP370 T11061122 11106 21172 53007 TSNO
94299KAAT AAT20161218100011612/18/16 10:00:31  5-MIN KAAT 181800Z AUTO 00000KT 10SM CLR M11/M12 A3044 3910 88 1700 000/00 RMK AO2 T11061122 TSNO
94299KAAT AAT20161218100511612/18/16 10:05:31  5-MIN KAAT 181805Z AUTO 00000KT 10SM CLR M11/M12 A3044 3910 88 1700 000/00 RMK AO2 T11061122 TSNO
94299KAAT AAT20161218101011612/18/16 10:10:31  5-MIN KAAT 181810Z AUTO 00000KT 10SM CLR M11/M12 A3044 3900 92 1700 000/00 RMK AO2 T11061117 TSNO
94299KAAT AAT20161218101511612/18/16 10:15:31  5-MIN KAAT 181815Z AUTO 00000KT 10SM CLR M10/M12 A3044 3900 88 1800 000/00 RMK AO2 T11001117 TSNO
94299KAAT AAT20161218102011612/18/16 10:20:31  5-MIN KAAT 181820Z AUTO 00000KT 10SM CLR M09/M12 A3043 3910 84 1900 000/00 RMK AO2 T10941117 TSNO
94299KAAT AAT20161218102511612/18/16 10:25:31  5-MIN KAAT 181825Z AUTO 00000KT 10SM CLR M09/M12 A3044 3900 84 1900 000/00 RMK AO2 T10941117 TSNO
94299KAAT AAT20161218103011612/18/16 10:30:31  5-MIN KAAT 181830Z AUTO 00000KT 10SM CLR M09/M12 A3043 3910 77 2000 000/00 RMK AO2 T10891122 TSNO
94299KAAT AAT20161218103511612/18/16 10:35:31  5-MIN KAAT 181835Z AUTO 00000KT 10SM CLR M09/M12 A3043 3910 80 2000 000/00 RMK AO2 T10891117 TSNO
94299KAAT AAT20161218104011612/18/16 10:40:31  5-MIN KAAT 181840Z AUTO 00000KT 10SM CLR M08/M11 A3043 3920 80 2000 000/00 RMK AO2 T10831111 TSNO
94299KAAT AAT20161218104511612/18/16 10:45:31  5-MIN KAAT 181845Z AUTO 00000KT 10SM CLR M08/M11 A3042 3920 80 2000 000/00 RMK AO2 T10831111 TSNO
94299KAAT AAT20161218105012312/18/16 10:50:31  5-MIN KAAT 181850Z AUTO 00000KT 10SM CLR M08/M11 A3042 3920 77 2100 000/00 RMK AO2 SLP359 T10781111 TSNO
94299KAAT AAT20161218105512312/18/16 10:55:31  5-MIN KAAT 181855Z AUTO 18003KT 10SM CLR M08/M11 A3042 3920 80 2100 160/03 RMK AO2 SLP358 T10831111 TSNO
94299KAAT AAT20161218110011612/18/16 11:00:31  5-MIN KAAT 181900Z AUTO 00000KT 10SM CLR M08/M11 A3042 3930 80 2100 000/00 RMK AO2 T10831111 TSNO
94299KAAT AAT20161218110511612/18/16 11:05:31  5-MIN KAAT 181905Z AUTO 00000KT 10SM CLR M08/M11 A3042 3930 80 2100 000/00 RMK AO2 T10781106 TSNO
94299KAAT AAT20161218111011612/18/16 11:10:31  5-MIN KAAT 181910Z AUTO 00000KT 10SM CLR M07/M11 A3041 3930 74 2200 000/00 RMK AO2 T10721111 TSNO
94299KAAT AAT20161218111511612/18/16 11:15:31  5-MIN KAAT 181915Z AUTO 00000KT 10SM CLR M07/M11 A3041 3930 74 2200 000/00 RMK AO2 T10721111 TSNO
94299KAAT AAT20161218112011612/18/16 11:20:31  5-MIN KAAT 181920Z AUTO 02003KT 10SM CLR M07/M11 A3041 3930 74 2200 360/03 RMK AO2 T10721111 TSNO
94299KAAT AAT20161218112511612/18/16 11:25:31  5-MIN KAAT 181925Z AUTO 00000KT 10SM CLR M07/M11 A3041 3940 71 2300 000/00 RMK AO2 T10671111 TSNO
94299KAAT AAT20161218113011612/18/16 11:30:31  5-MIN KAAT 181930Z AUTO 00000KT 10SM CLR M07/M11 A3039 3950 71 2300 000/00 RMK AO2 T10671111 TSNO
94299KAAT AAT20161218113512312/18/16 11:35:31  5-MIN KAAT 181935Z AUTO 00000KT 10SM CLR M06/M11 A3038 3960 68 2400 000/00 RMK AO2 PRESFR T10561106 TSNO
94299KAAT AAT20161218114011612/18/16 11:40:31  5-MIN KAAT 181940Z AUTO 00000KT 10SM CLR M06/M11 A3039 3950 71 2400 000/00 RMK AO2 T10611106 TSNO
94299KAAT AAT20161218114511612/18/16 11:45:31  5-MIN KAAT 181945Z AUTO 00000KT 10SM CLR M06/M10 A3039 3950 71 2400 000/00 RMK AO2 T10561100 TSNO
94299KAAT AAT20161218115012312/18/16 11:50:31  5-MIN KAAT 181950Z AUTO 11004KT 10SM CLR M06/M11 A3038 3960 71 2400 100/04 RMK AO2 SLP339 T10611106 TSNO
94299KAAT AAT20161218115512312/18/16 11:55:31  5-MIN KAAT 181955Z AUTO 12004KT 10SM CLR M06/M11 A3037 3960 71 2400 110/04 RMK AO2 SLP339 T10611106 TSNO
94299KAAT AAT20161218120011612/18/16 12:00:31  5-MIN KAAT 182000Z AUTO 12004KT 10SM CLR M07/M11 A3038 3960 74 2300 110/04 RMK AO2 T10671106 TSNO
94299KAAT AAT20161218120511612/18/16 12:05:31  5-MIN KAAT 182005Z AUTO 07003KT 10SM CLR M06/M11 A3038 3960 71 2400 050/03 RMK AO2 T10611106 TSNO
94299KAAT AAT20161218121011612/18/16 12:10:31  5-MIN KAAT 182010Z AUTO 07004KT 10SM CLR M05/M10 A3039 3950 68 2500 060/04 RMK AO2 T10501100 TSNO
94299KAAT AAT20161218121511612/18/16 12:15:31  5-MIN KAAT 182015Z AUTO VRB03KT 10SM CLR M06/M10 A3038 3960 71 2400 VRB/03 RMK AO2 T10561100 TSNO
94299KAAT AAT20161218122011612/18/16 12:20:31  5-MIN KAAT 182020Z AUTO 00000KT 10SM CLR M04/M10 A3038 3960 65 2600 000/00 RMK AO2 T10441100 TSNO
94299KAAT AAT20161218122511612/18/16 12:25:31  5-MIN KAAT 182025Z AUTO 00000KT 10SM CLR M05/M10 A3037 3970 68 2500 000/00 RMK AO2 T10501100 TSNO
94299KAAT AAT20161218123011612/18/16 12:30:31  5-MIN KAAT 182030Z AUTO 03003KT 10SM CLR M04/M10 A3037 3970 65 2600 020/03 RMK AO2 T10441100 TSNO
94299KAAT AAT20161218123511612/18/16 12:35:31  5-MIN KAAT 182035Z AUTO 00000KT 10SM CLR M04/M10 A3037 3970 65 2600 000/00 RMK AO2 T10441100 TSNO
94299KAAT AAT20161218124011612/18/16 12:40:31  5-MIN KAAT 182040Z AUTO 00000KT 10SM CLR M04/M10 A3036 3980 63 2700 000/00 RMK AO2 T10391100 TSNO
94299KAAT AAT20161218124511612/18/16 12:45:31  5-MIN KAAT 182045Z AUTO 00000KT 10SM CLR M04/M09 A3036 3970 65 2700 000/00 RMK AO2 T10391094 TSNO
94299KAAT AAT20161218125012912/18/16 12:50:31  5-MIN KAAT 182050Z AUTO 21003KT 10SM CLR M04/M09 A3035 3980 65 2700 190/03 RMK AO2 SLP332 T10391094 53007 TSNO
94299KAAT AAT20161218125512912/18/16 12:55:31  5-MIN KAAT 182055Z AUTO 20004KT 10SM CLR M04/M09 A3035 3990 68 2600 180/04 RMK AO2 SLP330 T10441094 58028 TSNO
94299KAAT AAT20161218130011612/18/16 13:00:31  5-MIN KAAT 182100Z AUTO 18003KT 10SM CLR M04/M09 A3035 3990 68 2700 160/03 RMK AO2 T10391089 TSNO
94299KAAT AAT20161218130511612/18/16 13:05:31  5-MIN KAAT 182105Z AUTO VRB03KT 10SM CLR M04/M09 A3035 3990 68 2700 VRB/03 RMK AO2 T10391089 TSNO
94299KAAT AAT20161218131011612/18/16 13:10:31  5-MIN KAAT 182110Z AUTO 07003KT 10SM CLR M03/M09 A3035 3990 65 2800 050/03 RMK AO2 T10331089 TSNO
94299KAAT AAT20161218131511612/18/16 13:15:31  5-MIN KAAT 182115Z AUTO 11003KT 10SM CLR M03/M09 A3035 3990 63 2800 100/03 RMK AO2 T10281089 TSNO
94299KAAT AAT20161218132011612/18/16 13:20:31  5-MIN KAAT 182120Z AUTO VRB03KT 10SM CLR M03/M09 A3034 3990 63 2800 VRB/03 RMK AO2 T10281089 TSNO
94299KAAT AAT20161218132511612/18/16 13:25:31  5-MIN KAAT 182125Z AUTO 07003KT 10SM CLR M03/M09 A3035 3990 63 2800 050/03 RMK AO2 T10281089 TSNO
94299KAAT AAT20161218133011612/18/16 13:30:31  5-MIN KAAT 182130Z AUTO 08004KT 10SM CLR M02/M09 A3035 3980 58 2900 060/04 RMK AO2 T10221094 TSNO
94299KAAT AAT20161218133511612/18/16 13:35:31  5-MIN KAAT 182135Z AUTO VRB03KT 10SM CLR M02/M09 A3035 3980 58 2900 VRB/03 RMK AO2 T10221094 TSNO
94299KAAT AAT20161218134011612/18/16 13:40:31  5-MIN KAAT 182140Z AUTO 07004KT 10SM CLR M02/M09 A3035 3980 55 3000 060/04 RMK AO2 T10171094 TSNO
94299KAAT AAT20161218134511612/18/16 13:45:31  5-MIN KAAT 182145Z AUTO VRB03KT 10SM CLR M02/M09 A3035 3980 55 3000 VRB/03 RMK AO2 T10171094 TSNO
94299KAAT AAT20161218135012312/18/16 13:50:31  5-MIN KAAT 182150Z AUTO 00000KT 10SM CLR M02/M09 A3036 3980 58 3000 000/00 RMK AO2 SLP327 T10171089 TSNO
94299KAAT AAT20161218135512312/18/16 13:55:31  5-MIN KAAT 182155Z AUTO 00000KT 10SM CLR M02/M09 A3036 3980 58 3000 000/00 RMK AO2 SLP327 T10171089 TSNO
94299KAAT AAT20161218140011612/18/16 14:00:31  5-MIN KAAT 182200Z AUTO VRB03KT 10SM CLR M01/M09 A3036 3980 53 3000 VRB/03 RMK AO2 T10111094 TSNO
94299KAAT AAT20161218140511612/18/16 14:05:31  5-MIN KAAT 182205Z AUTO 16004KT 10SM CLR M02/M09 A3036 3980 55 3000 140/04 RMK AO2 T10171094 TSNO
94299KAAT AAT20161218141011612/18/16 14:10:31  5-MIN KAAT 182210Z AUTO 14006KT 10SM CLR M02/M09 A3036 3980 55 3000 120/06 RMK AO2 T10171094 TSNO
94299KAAT AAT20161218141511612/18/16 14:15:31  5-MIN KAAT 182215Z AUTO 14005KT 10SM CLR M02/M09 A3035 3980 55 3000 130/05 RMK AO2 T10171094 TSNO
94299KAAT AAT20161218142011612/18/16 14:20:31  5-MIN KAAT 182220Z AUTO 15004KT 10SM CLR M02/M09 A3035 3980 58 3000 140/04 RMK AO2 T10171089 TSNO
94299KAAT AAT20161218142511612/18/16 14:25:31  5-MIN KAAT 182225Z AUTO 11003KT 10SM CLR M02/M09 A3036 3980 58 3000 100/03 RMK AO2 T10171089 TSNO
94299KAAT AAT20161218143011612/18/16 14:30:31  5-MIN KAAT 182230Z AUTO 13004KT 10SM CLR M02/M09 A3036 3980 58 3000 120/04 RMK AO2 T10171089 TSNO
94299KAAT AAT20161218143511612/18/16 14:35:31  5-MIN KAAT 182235Z AUTO 12005KT 10SM CLR M02/M09 A3036 3980 58 3000 110/05 RMK AO2 T10171089 TSNO
94299KAAT AAT20161218144011612/18/16 14:40:31  5-MIN KAAT 182240Z AUTO 11004KT 10SM CLR M02/M09 A3036 3980 58 3000 100/04 RMK AO2 T10171089 TSNO
94299KAAT AAT20161218144511612/18/16 14:45:31  5-MIN KAAT 182245Z AUTO 13003KT 10SM CLR M02/M09 A3035 3980 58 3000 110/03 RMK AO2 T10171089 TSNO
94299KAAT AAT20161218145012312/18/16 14:50:31  5-MIN KAAT 182250Z AUTO 12004KT 10SM CLR M02/M09 A3035 3980 58 3000 110/04 RMK AO2 SLP327 T10171089 TSNO
94299KAAT AAT20161218145512312/18/16 14:55:31  5-MIN KAAT 182255Z AUTO 13004KT 10SM CLR M02/M09 A3036 3980 58 3000 120/04 RMK AO2 SLP329 T10171089 TSNO
94299KAAT AAT20161218150011612/18/16 15:00:31  5-MIN KAAT 182300Z AUTO 11004KT 10SM CLR M02/M09 A3036 3980 58 3000 100/04 RMK AO2 T10171089 TSNO
94299KAAT AAT20161218150511612/18/16 15:05:31  5-MIN KAAT 182305Z AUTO 10003KT 10SM CLR M02/M09 A3036 3980 58 3000 080/03 RMK AO2 T10171089 TSNO
94299KAAT AAT20161218151011612/18/16 15:10:31  5-MIN KAAT 182310Z AUTO 09003KT 10SM CLR M02/M09 A3036 3980 58 3000 080/03 RMK AO2 T10171089 TSNO
94299KAAT AAT20161218151511612/18/16 15:15:31  5-MIN KAAT 182315Z AUTO VRB03KT 10SM CLR M01/M09 A3036 3970 55 3000 VRB/03 RMK AO2 T10111089 TSNO
94299KAAT AAT20161218152011612/18/16 15:20:31  5-MIN KAAT 182320Z AUTO 10004KT 10SM CLR M02/M09 A3037 3970 55 2900 080/04 RMK AO2 T10171094 TSNO
94299KAAT AAT20161218152511612/18/16 15:25:31  5-MIN KAAT 182325Z AUTO 10004KT 10SM CLR M02/M09 A3037 3970 55 2900 090/04 RMK AO2 T10171094 TSNO
94299KAAT AAT20161218153011612/18/16 15:30:31  5-MIN KAAT 182330Z AUTO 10004KT 10SM CLR M02/M09 A3037 3970 55 2900 090/04 RMK AO2 T10171094 TSNO
94299KAAT AAT20161218153511612/18/16 15:35:31  5-MIN KAAT 182335Z AUTO 08004KT 10SM CLR M01/M09 A3037 3970 55 3000 060/04 RMK AO2 T10111089 TSNO
94299KAAT AAT20161218154011612/18/16 15:40:31  5-MIN KAAT 182340Z AUTO 09005KT 10SM CLR M01/M09 A3038 3960 55 3000 070/05 RMK AO2 T10111089 TSNO
94299KAAT AAT20161218154511612/18/16 15:45:31  5-MIN KAAT 182345Z AUTO 08005KT 10SM CLR M02/M09 A3038 3960 58 2900 070/05 RMK AO2 T10171089 TSNO
94299KAAT AAT20161218155014112/18/16 15:50:31  5-MIN KAAT 182350Z AUTO 08005KT 10SM CLR M02/M09 A3038 3960 58 2900 070/05 RMK AO2 SLP339 T10171089 11011 21106 58028 TSNO
94299KAAT AAT20161218155514112/18/16 15:55:31  5-MIN KAAT 182355Z AUTO 06006KT 10SM CLR M02/M08 A3038 3950 60 2900 040/06 RMK AO2 SLP341 T10171083 11011 21106 53011 TSNO
94299KAAT AAT20161218160011612/18/16 16:00:31  5-MIN KAAT 190000Z AUTO 07007KT 10SM CLR M02/M08 A3038 3960 66 2900 050/07 RMK AO2 T10221078 TSNO
94299KAAT AAT20161218160511612/18/16 16:05:31  5-MIN KAAT 190005Z AUTO 07007KT 10SM CLR M02/M08 A3038 3960 66 2900 060/07 RMK AO2 T10221078 TSNO
94299KAAT AAT20161218161011612/18/16 16:10:31  5-MIN KAAT 190010Z AUTO 06007KT 10SM CLR M03/M08 A3039 3950 68 2800 050/07 RMK AO2 T10281078 TSNO
94299KAAT AAT20161218161511612/18/16 16:15:31  5-MIN KAAT 190015Z AUTO 06006KT 10SM CLR M03/M08 A3039 3950 68 2800 050/06 RMK AO2 T10281078 TSNO
94299KAAT AAT20161218162011612/18/16 16:20:31  5-MIN KAAT 190020Z AUTO 06006KT 10SM CLR M03/M08 A3039 3950 68 2800 050/06 RMK AO2 T10281078 TSNO
94299KAAT AAT20161218162511612/18/16 16:25:31  5-MIN KAAT 190025Z AUTO 04003KT 10SM CLR M03/M08 A3039 3950 68 2700 030/03 RMK AO2 T10331083 TSNO
94299KAAT AAT20161218163011612/18/16 16:30:31  5-MIN KAAT 190030Z AUTO 03005KT 10SM CLR M03/M08 A3039 3950 68 2700 010/05 RMK AO2 T10331083 TSNO
94299KAAT AAT20161218163511612/18/16 16:35:31  5-MIN KAAT 190035Z AUTO 02005KT 10SM CLR M04/M09 A3039 3950 68 2600 010/05 RMK AO2 T10391089 TSNO
94299KAAT AAT20161218164011612/18/16 16:40:31  5-MIN KAAT 190040Z AUTO 02006KT 10SM CLR M04/M09 A3039 3950 71 2600 360/06 RMK AO2 T10441089 TSNO
94299KAAT AAT20161218164511612/18/16 16:45:31  5-MIN KAAT 190045Z AUTO 02006KT 10SM CLR M04/M09 A3039 3950 68 2600 010/06 RMK AO2 T10441094 TSNO
94299KAAT AAT20161218165012312/18/16 16:50:31  5-MIN KAAT 190050Z AUTO 04004KT 10SM CLR M05/M09 A3039 3950 71 2500 030/04 RMK AO2 SLP346 T10501094 TSNO
94299KAAT AAT20161218165512312/18/16 16:55:31  5-MIN KAAT 190055Z AUTO 04006KT 10SM CLR M05/M09 A3039 3950 71 2500 020/06 RMK AO2 SLP347 T10501094 TSNO
94299KAAT AAT20161218170011612/18/16 17:00:31  5-MIN KAAT 190100Z AUTO 04004KT 10SM CLR M05/M09 A3039 3950 71 2500 020/04 RMK AO2 T10501094 TSNO
94299KAAT AAT20161218170511612/18/16 17:05:31  5-MIN KAAT 190105Z AUTO 04005KT 10SM CLR M05/M09 A3039 3950 71 2500 020/05 RMK AO2 T10501094 TSNO
94299KAAT AAT20161218171011612/18/16 17:10:31  5-MIN KAAT 190110Z AUTO 03003KT 10SM CLR M06/M10 A3039 3950 71 2400 020/03 RMK AO2 T10561100 TSNO
94299KAAT AAT20161218171511612/18/16 17:15:31  5-MIN KAAT 190115Z AUTO 00000KT 10SM CLR M06/M09 A3039 3950 74 2400 000/00 RMK AO2 T10561094 TSNO
94299KAAT AAT20161218172011612/18/16 17:20:31  5-MIN KAAT 190120Z AUTO 00000KT 10SM CLR M06/M09 A3039 3950 77 2400 000/00 RMK AO2 T10611094 TSNO
94299KAAT AAT20161218172511612/18/16 17:25:31  5-MIN KAAT 190125Z AUTO 08003KT 10SM CLR M07/M09 A3039 3950 81 2300 070/03 RMK AO2 T10671094 TSNO
94299KAAT AAT20161218173011612/18/16 17:30:31  5-MIN KAAT 190130Z AUTO 07004KT 10SM CLR M07/M10 A3039 3950 77 2300 050/04 RMK AO2 T10671100 TSNO
94299KAAT AAT20161218173511612/18/16 17:35:31  5-MIN KAAT 190135Z AUTO 05003KT 10SM CLR M06/M10 A3039 3950 74 2400 030/03 RMK AO2 T10611100 TSNO
94299KAAT AAT20161218174011612/18/16 17:40:31  5-MIN KAAT 190140Z AUTO 04003KT 10SM CLR M06/M09 A3039 3950 77 2400 020/03 RMK AO2 T10611094 TSNO
94299KAAT AAT20161218174511612/18/16 17:45:31  5-MIN KAAT 190145Z AUTO 05004KT 10SM CLR M07/M10 A3039 3950 77 2300 040/04 RMK AO2 T10671100 TSNO
94299KAAT AAT20161218175012312/18/16 17:50:31  5-MIN KAAT 190150Z AUTO 04004KT 10SM CLR M07/M10 A3039 3950 77 2300 030/04 RMK AO2 SLP350 T10671100 TSNO
94299KAAT AAT20161218175512312/18/16 17:55:31  5-MIN KAAT 190155Z AUTO 04003KT 10SM CLR M07/M10 A3039 3950 81 2200 030/03 RMK AO2 SLP350 T10721100 TSNO
94299KAAT AAT20161218180011612/18/16 18:00:31  5-MIN KAAT 190200Z AUTO 06003KT 10SM CLR M07/M10 A3039 3950 81 2200 040/03 RMK AO2 T10721100 TSNO
94299KAAT AAT20161218180511512/18/16 18:05:31  5-MIN KAAT 190205Z AUTO 11003KT 7SM CLR M07/M10 A3039 3950 81 2200 100/03 RMK AO2 T10721100 TSNO
94299KAAT AAT20161218181011812/18/16 18:10:31  5-MIN KAAT 190210Z AUTO 00000KT 5SM BR CLR M08/M10 A3039 3950 88 2100 000/00 RMK AO2 T10831100 TSNO
94299KAAT AAT20161218181511512/18/16 18:15:31  5-MIN KAAT 190215Z AUTO 00000KT 7SM CLR M09/M11 A3039 3950 88 2000 000/00 RMK AO2 T10891106 TSNO
94299KAAT AAT20161218182011512/18/16 18:20:31  5-MIN KAAT 190220Z AUTO 14003KT 9SM CLR M09/M11 A3039 3950 88 2000 130/03 RMK AO2 T10891106 TSNO
94299KAAT AAT20161218182511612/18/16 18:25:31  5-MIN KAAT 190225Z AUTO 00000KT 10SM CLR M09/M11 A3039 3950 88 1900 000/00 RMK AO2 T10941111 TSNO
94299KAAT AAT20161218183011612/18/16 18:30:31  5-MIN KAAT 190230Z AUTO 05003KT 10SM CLR M09/M11 A3039 3950 88 1900 040/03 RMK AO2 T10941111 TSNO
94299KAAT AAT20161218183511612/18/16 18:35:31  5-MIN KAAT 190235Z AUTO 06004KT 10SM CLR M08/M11 A3039 3950 84 2100 050/04 RMK AO2 T10831106 TSNO
94299KAAT AAT20161218184011512/18/16 18:40:31  5-MIN KAAT 190240Z AUTO 07005KT 8SM CLR M07/M10 A3039 3950 81 2200 050/05 RMK AO2 T10721100 TSNO
94299KAAT AAT20161218184511512/18/16 18:45:31  5-MIN KAAT 190245Z AUTO 11005KT 7SM CLR M07/M10 A3039 3950 81 2200 090/05 RMK AO2 T10721100 TSNO
94299KAAT AAT20161218185013112/18/16 18:50:31  5-MIN KAAT 190250Z AUTO 11005KT 6SM BR CLR M08/M10 A3039 3950 84 2100 100/05 RMK AO2 SLP357 T10781100 53011 TSNO
94299KAAT AAT20161218185512812/18/16 18:55:31  5-MIN KAAT 190255Z AUTO 11004KT 8SM CLR M08/M10 A3040 3940 84 2100 090/04 RMK AO2 SLP358 T10781100 53003 TSNO
94299KAAT AAT20161218190011612/18/16 19:00:31  5-MIN KAAT 190300Z AUTO 11004KT 10SM CLR M08/M11 A3040 3940 84 2100 090/04 RMK AO2 T10831106 TSNO
94299KAAT AAT20161218190511612/18/16 19:05:31  5-MIN KAAT 190305Z AUTO 10003KT 10SM CLR M09/M11 A3039 3950 84 2000 090/03 RMK AO2 T10891111 TSNO
94299KAAT AAT20161218191011612/18/16 19:10:31  5-MIN KAAT 190310Z AUTO 12003KT 10SM CLR M09/M11 A3040 3940 88 2000 100/03 RMK AO2 T10891106 TSNO
94299KAAT AAT20161218191511612/18/16 19:15:31  5-MIN KAAT 190315Z AUTO 13004KT 10SM CLR M09/M11 A3040 3940 88 1900 120/04 RMK AO2 T10941111 TSNO
94299KAAT AAT20161218192011612/18/16 19:20:31  5-MIN KAAT 190320Z AUTO 11004KT 10SM CLR M09/M11 A3040 3940 84 2000 100/04 RMK AO2 T10891111 TSNO
94299KAAT AAT20161218192511612/18/16 19:25:31  5-MIN KAAT 190325Z AUTO 13004KT 10SM CLR M09/M11 A3040 3940 84 2000 120/04 RMK AO2 T10891111 TSNO
94299KAAT AAT20161218193011612/18/16 19:30:31  5-MIN KAAT 190330Z AUTO 13004KT 10SM CLR M09/M11 A3040 3940 84 2000 110/04 RMK AO2 T10891111 TSNO
94299KAAT AAT20161218193511612/18/16 19:35:31  5-MIN KAAT 190335Z AUTO 14004KT 10SM CLR M09/M11 A3040 3940 84 2000 120/04 RMK AO2 T10891111 TSNO
94299KAAT AAT20161218194011612/18/16 19:40:31  5-MIN KAAT 190340Z AUTO 09003KT 10SM CLR M09/M11 A3040 3940 88 1900 080/03 RMK AO2 T10941111 TSNO
94299KAAT AAT20161218194511512/18/16 19:45:31  5-MIN KAAT 190345Z AUTO 08003KT 9SM CLR M09/M11 A3040 3940 88 1900 060/03 RMK AO2 T10941111 TSNO
94299KAAT AAT20161218195012212/18/16 19:50:31  5-MIN KAAT 190350Z AUTO 00000KT 9SM CLR M09/M11 A3040 3940 88 1900 000/00 RMK AO2 SLP360 T10941111 TSNO
94299KAAT AAT20161218195512312/18/16 19:55:31  5-MIN KAAT 190355Z AUTO 00000KT 10SM CLR M09/M12 A3040 3940 84 1900 000/00 RMK AO2 SLP360 T10941117 TSNO
94299KAAT AAT20161218200011612/18/16 20:00:31  5-MIN KAAT 190400Z AUTO 00000KT 10SM CLR M10/M12 A3040 3940 88 1900 000/00 RMK AO2 T11001117 TSNO
94299KAAT AAT20161218200511612/18/16 20:05:31  5-MIN KAAT 190405Z AUTO 00000KT 10SM CLR M11/M12 A3040 3940 88 1800 000/00 RMK AO2 T11061122 TSNO
94299KAAT AAT20161218201011612/18/16 20:10:31  5-MIN KAAT 190410Z AUTO 00000KT 10SM CLR M11/M12 A3040 3940 88 1800 000/00 RMK AO2 T11061122 TSNO
94299KAAT AAT20161218201511612/18/16 20:15:31  5-MIN KAAT 190415Z AUTO 34004KT 10SM CLR M12/M13 A3040 3940 91 1600 330/04 RMK AO2 T11171128 TSNO
94299KAAT AAT20161218202011612/18/16 20:20:31  5-MIN KAAT 190420Z AUTO 35003KT 10SM CLR M11/M12 A3040 3940 92 1700 330/03 RMK AO2 T11111122 TSNO
94299KAAT AAT20161218202511612/18/16 20:25:31  5-MIN KAAT 190425Z AUTO 36003KT 10SM CLR M11/M12 A3040 3940 88 1800 350/03 RMK AO2 T11061122 TSNO
94299KAAT AAT20161218203011512/18/16 20:30:31  5-MIN KAAT 190430Z AUTO 36003KT 8SM CLR M11/M12 A3040 3940 88 1800 340/03 RMK AO2 T11061122 TSNO
94299KAAT AAT20161218203511812/18/16 20:35:31  5-MIN KAAT 190435Z AUTO 36003KT 5SM BR CLR M10/M12 A3040 3940 88 1900 350/03 RMK AO2 T11001117 TSNO
94299KAAT AAT20161218204011812/18/16 20:40:31  5-MIN KAAT 190440Z AUTO 01003KT 5SM BR CLR M10/M12 A3039 3950 88 1900 350/03 RMK AO2 T11001117 TSNO
94299KAAT AAT20161218204511512/18/16 20:45:31  5-MIN KAAT 190445Z AUTO 00000KT 7SM CLR M09/M12 A3039 3950 84 1900 000/00 RMK AO2 T10941117 TSNO
94299KAAT AAT20161218205012312/18/16 20:50:31  5-MIN KAAT 190450Z AUTO 00000KT 10SM CLR M10/M12 A3039 3950 88 1900 000/00 RMK AO2 SLP350 T11001117 TSNO
94299KAAT AAT20161218205512312/18/16 20:55:31  5-MIN KAAT 190455Z AUTO 00000KT 10SM CLR M10/M12 A3038 3960 88 1900 000/00 RMK AO2 SLP349 T11001117 TSNO
94299KAAT AAT20161218210011512/18/16 21:00:31  5-MIN KAAT 190500Z AUTO 11005KT 7SM CLR M10/M12 A3038 3950 84 1900 090/05 RMK AO2 T11001122 TSNO
94299KAAT AAT20161218210511812/18/16 21:05:31  5-MIN KAAT 190505Z AUTO 09004KT 5SM BR CLR M10/M12 A3038 3960 84 1900 070/04 RMK AO2 T11001122 TSNO
94299KAAT AAT20161218211011812/18/16 21:10:31  5-MIN KAAT 190510Z AUTO 00000KT 5SM BR CLR M11/M12 A3039 3950 88 1800 000/00 RMK AO2 T11061122 TSNO
94299KAAT AAT20161218211511812/18/16 21:15:31  5-MIN KAAT 190515Z AUTO 00000KT 5SM BR CLR M11/M12 A3038 3960 88 1800 000/00 RMK AO2 T11061122 TSNO
94299KAAT AAT20161218212011812/18/16 21:20:31  5-MIN KAAT 190520Z AUTO 00000KT 6SM BR CLR M10/M12 A3038 3950 84 1900 000/00 RMK AO2 T11001122 TSNO
94299KAAT AAT20161218212511812/18/16 21:25:31  5-MIN KAAT 190525Z AUTO 08004KT 6SM BR CLR M11/M12 A3038 3960 88 1800 060/04 RMK AO2 T11061122 TSNO
94299KAAT AAT20161218213011812/18/16 21:30:31  5-MIN KAAT 190530Z AUTO 08005KT 6SM BR CLR M10/M12 A3038 3960 84 1900 060/05 RMK AO2 T11001122 TSNO
94299KAAT AAT20161218213511812/18/16 21:35:31  5-MIN KAAT 190535Z AUTO 07006KT 6SM BR CLR M11/M12 A3038 3960 88 1800 050/06 RMK AO2 T11061122 TSNO
94299KAAT AAT20161218214011512/18/16 21:40:31  5-MIN KAAT 190540Z AUTO 06006KT 7SM CLR M11/M12 A3038 3960 88 1800 040/06 RMK AO2 T11061122 TSNO
94299KAAT AAT20161218214511512/18/16 21:45:31  5-MIN KAAT 190545Z AUTO 04006KT 8SM CLR M11/M12 A3038 3960 88 1800 030/06 RMK AO2 T11061122 TSNO
94299KAAT AAT20161218215014112/18/16 21:50:31  5-MIN KAAT 190550Z AUTO 05007KT 10SM CLR M11/M12 A3037 3970 88 1800 040/07 RMK AO2 SLP343 T11061122 11017 21117 53003 TSNO
94299KAAT AAT20161218215514012/18/16 21:55:31  5-MIN KAAT 190555Z AUTO 06005KT 9SM CLR M11/M12 A3037 3970 88 1800 040/05 RMK AO2 SLP343 T11061122 11017 21117 58007 TSNO
94299KAAT AAT20161218220011512/18/16 22:00:31  5-MIN KAAT 190600Z AUTO 04003KT 9SM CLR M10/M12 A3037 3960 84 1900 030/03 RMK AO2 T11001122 TSNO
94299KAAT AAT20161218220511512/18/16 22:05:31  5-MIN KAAT 190605Z AUTO 04003KT 9SM CLR M10/M12 A3038 3960 84 1900 020/03 RMK AO2 T11001122 TSNO
94299KAAT AAT20161218221011612/18/16 22:10:31  5-MIN KAAT 190610Z AUTO 04004KT 10SM CLR M10/M12 A3038 3960 88 1900 030/04 RMK AO2 T11001117 TSNO
94299KAAT AAT20161218221511612/18/16 22:15:31  5-MIN KAAT 190615Z AUTO 12004KT 10SM CLR M09/M12 A3037 3970 84 2000 100/04 RMK AO2 T10941117 TSNO
94299KAAT AAT20161218222011612/18/16 22:20:31  5-MIN KAAT 190620Z AUTO 17006KT 10SM CLR M07/M10 A3037 3970 81 2200 150/06 RMK AO2 T10721100 TSNO
94299KAAT AAT20161218222511612/18/16 22:25:31  5-MIN KAAT 190625Z AUTO 15005KT 10SM CLR M07/M09 A3037 3970 81 2300 140/05 RMK AO2 T10671094 TSNO
94299KAAT AAT20161218223011612/18/16 22:30:31  5-MIN KAAT 190630Z AUTO 13005KT 10SM CLR M07/M09 A3037 3970 81 2300 120/05 RMK AO2 T10671094 TSNO
94299KAAT AAT20161218223511612/18/16 22:35:31  5-MIN KAAT 190635Z AUTO 13005KT 10SM CLR M07/M10 A3037 3970 77 2300 120/05 RMK AO2 T10671100 TSNO
94299KAAT AAT20161218224011612/18/16 22:40:31  5-MIN KAAT 190640Z AUTO 12005KT 10SM CLR M07/M10 A3036 3970 77 2300 110/05 RMK AO2 T10671100 TSNO
94299KAAT AAT20161218224511612/18/16 22:45:31  5-MIN KAAT 190645Z AUTO 14005KT 10SM CLR M07/M10 A3036 3970 77 2300 120/05 RMK AO2 T10671100 TSNO
94299KAAT AAT20161218225012312/18/16 22:50:31  5-MIN KAAT 190650Z AUTO 15005KT 10SM CLR M07/M11 A3036 3970 74 2300 130/05 RMK AO2 SLP326 T10671106 TSNO
94299KAAT AAT20161218225512312/18/16 22:55:31  5-MIN KAAT 190655Z AUTO 15004KT 10SM CLR M07/M11 A3036 3980 74 2300 130/04 RMK AO2 SLP324 T10671106 TSNO
94299KAAT AAT20161218230011612/18/16 23:00:31  5-MIN KAAT 190700Z AUTO 13005KT 10SM CLR M07/M11 A3036 3980 74 2300 120/05 RMK AO2 T10671106 TSNO
94299KAAT AAT20161218230511612/18/16 23:05:31  5-MIN KAAT 190705Z AUTO 15006KT 10SM CLR M07/M11 A3035 3980 74 2300 130/06 RMK AO2 T10671106 TSNO
94299KAAT AAT20161218231011612/18/16 23:10:31  5-MIN KAAT 190710Z AUTO 16006KT 10SM CLR M07/M11 A3035 3990 74 2300 140/06 RMK AO2 T10671106 TSNO
94299KAAT AAT20161218231511612/18/16 23:15:31  5-MIN KAAT 190715Z AUTO 14005KT 10SM CLR M07/M11 A3035 3980 74 2300 120/05 RMK AO2 T10671106 TSNO
94299KAAT AAT20161218232011612/18/16 23:20:31  5-MIN KAAT 190720Z AUTO 15005KT 10SM CLR M07/M11 A3035 3980 74 2300 130/05 RMK AO2 T10671106 TSNO
94299KAAT AAT20161218232511612/18/16 23:25:31  5-MIN KAAT 190725Z AUTO 15006KT 10SM CLR M07/M11 A3035 3990 74 2300 140/06 RMK AO2 T10671106 TSNO
94299KAAT AAT20161218233011612/18/16 23:30:31  5-MIN KAAT 190730Z AUTO 15006KT 10SM CLR M07/M11 A3034 3990 74 2300 140/06 RMK AO2 T10671106 TSNO
94299KAAT AAT20161218233511612/18/16 23:35:31  5-MIN KAAT 190735Z AUTO 12004KT 10SM CLR M07/M11 A3035 3990 71 2300 100/04 RMK AO2 T10671111 TSNO
94299KAAT AAT20161218234011612/18/16 23:40:31  5-MIN KAAT 190740Z AUTO 00000KT 10SM CLR M07/M11 A3035 3990 74 2300 000/00 RMK AO2 T10721111 TSNO
94299KAAT AAT20161218234511612/18/16 23:45:31  5-MIN KAAT 190745Z AUTO 00000KT 10SM CLR M07/M12 A3035 3990 71 2300 000/00 RMK AO2 T10721117 TSNO
94299KAAT AAT20161218235013312/18/16 23:50:31  5-MIN KAAT 190750Z AUTO 00000KT 10SM CLR M07/M12 A3035 3980 71 2300 000/00 RMK AO2 SLP320 T10721117 410111172 TSNO
94299KAAT AAT20161218235513312/18/16 23:55:31  5-MIN KAAT 190755Z AUTO 00000KT 10SM CLR M08/M12 A3036 3980 74 2200 000/00 RMK AO2 SLP322 T10781117 410111172 TSNO
94299KAAT AAT20161219000011612/19/16 00:00:31  5-MIN KAAT 190800Z AUTO 16003KT 10SM CLR M08/M12 A3036 3980 74 2200 150/03 RMK AO2 T10781117 TSNO
94299KAAT AAT20161219000511612/19/16 00:05:31  5-MIN KAAT 190805Z AUTO 00000KT 10SM CLR M07/M12 A3036 3980 71 2300 000/00 RMK AO2 T10721117 TSNO
94299KAAT AAT20161219001011612/19/16 00:10:31  5-MIN KAAT 190810Z AUTO 00000KT 10SM CLR M08/M12 A3036 3970 74 2200 000/00 RMK AO2 T10781117 TSNO
94299KAAT AAT20161219001511612/19/16 00:15:31  5-MIN KAAT 190815Z AUTO 00000KT 10SM CLR M08/M12 A3036 3970 74 2200 000/00 RMK AO2 T10781117 TSNO
94299KAAT AAT20161219002011612/19/16 00:20:31  5-MIN KAAT 190820Z AUTO 31004KT 10SM CLR M08/M12 A3037 3970 74 2100 300/04 RMK AO2 T10831122 TSNO
94299KAAT AAT20161219002511612/19/16 00:25:31  5-MIN KAAT 190825Z AUTO 00000KT 10SM CLR M09/M12 A3037 3960 80 2000 000/00 RMK AO2 T10941122 TSNO
94299KAAT AAT20161219003011612/19/16 00:30:31  5-MIN KAAT 190830Z AUTO VRB03KT 10SM CLR M09/M12 A3037 3960 77 2000 VRB/03 RMK AO2 T10891122 TSNO
94299KAAT AAT20161219003511612/19/16 00:35:31  5-MIN KAAT 190835Z AUTO 00000KT 10SM CLR M10/M13 A3037 3960 80 1900 000/00 RMK AO2 T11001128 TSNO
94299KAAT AAT20161219004011612/19/16 00:40:31  5-MIN KAAT 190840Z AUTO 18004KT 10SM CLR M10/M13 A3037 3970 80 1900 160/04 RMK AO2 T11001128 TSNO
94299KAAT AAT20161219004511612/19/16 00:45:31  5-MIN KAAT 190845Z AUTO 00000KT 10SM CLR M11/M13 A3037 3970 84 1800 000/00 RMK AO2 T11061128 TSNO
94299KAAT AAT20161219005012912/19/16 00:50:31  5-MIN KAAT 190850Z AUTO 15005KT 10SM CLR M11/M13 A3037 3970 84 1800 140/05 RMK AO2 SLP328 T11061128 58007 TSNO
94299KAAT AAT20161219005512912/19/16 00:55:31  5-MIN KAAT 190855Z AUTO 18005KT 10SM CLR M11/M13 A3037 3960 88 1700 170/05 RMK AO2 SLP333 T11111128 53000 TSNO
94299KAAT AAT20161219010011612/19/16 01:00:31  5-MIN KAAT 190900Z AUTO 18005KT 10SM CLR M12/M13 A3037 3970 87 1700 170/05 RMK AO2 T11171133 TSNO
94299KAAT AAT20161219010511612/19/16 01:05:31  5-MIN KAAT 190905Z AUTO 18005KT 10SM CLR M12/M13 A3037 3960 87 1700 170/05 RMK AO2 T11171133 TSNO
94299KAAT AAT20161219011011612/19/16 01:10:31  5-MIN KAAT 190910Z AUTO 21003KT 10SM CLR M12/M13 A3038 3960 87 1700 200/03 RMK AO2 T11171133 TSNO
94299KAAT AAT20161219011511612/19/16 01:15:31  5-MIN KAAT 190915Z AUTO 24003KT 10SM CLR M12/M13 A3038 3960 87 1700 220/03 RMK AO2 T11171133 TSNO
94299KAAT AAT20161219012011612/19/16 01:20:31  5-MIN KAAT 190920Z AUTO 24004KT 10SM CLR M12/M13 A3037 3970 87 1700 230/04 RMK AO2 T11171133 TSNO
94299KAAT AAT20161219012511612/19/16 01:25:31  5-MIN KAAT 190925Z AUTO 27003KT 10SM CLR M12/M13 A3037 3970 87 1700 260/03 RMK AO2 T11171133 TSNO
94299KAAT AAT20161219013011612/19/16 01:30:31  5-MIN KAAT 190930Z AUTO 27003KT 10SM CLR M12/M13 A3037 3970 87 1700 260/03 RMK AO2 T11171133 TSNO
94299KAAT AAT20161219013511612/19/16 01:35:31  5-MIN KAAT 190935Z AUTO 00000KT 10SM CLR M11/M13 A3037 3960 84 1700 000/00 RMK AO2 T11111133 TSNO
94299KAAT AAT20161219014011612/19/16 01:40:31  5-MIN KAAT 190940Z AUTO 00000KT 10SM CLR M11/M13 A3037 3960 88 1700 000/00 RMK AO2 T11111128 TSNO
94299KAAT AAT20161219014511612/19/16 01:45:31  5-MIN KAAT 190945Z AUTO 28003KT 10SM CLR M11/M13 A3038 3960 88 1700 270/03 RMK AO2 T11111128 TSNO
94299KAAT AAT20161219015012312/19/16 01:50:31  5-MIN KAAT 190950Z AUTO 29004KT 10SM CLR M12/M13 A3038 3960 91 1700 270/04 RMK AO2 SLP330 T11171128 TSNO
94299KAAT AAT20161219015512312/19/16 01:55:31  5-MIN KAAT 190955Z AUTO 00000KT 10SM CLR M12/M13 A3038 3960 87 1700 000/00 RMK AO2 SLP330 T11171133 TSNO
94299KAAT AAT20161219020011612/19/16 02:00:31  5-MIN KAAT 191000Z AUTO 28003KT 10SM CLR M11/M13 A3038 3960 84 1700 260/03 RMK AO2 T11111133 TSNO
94299KAAT AAT20161219020511612/19/16 02:05:31  5-MIN KAAT 191005Z AUTO 00000KT 10SM CLR M11/M13 A3038 3960 88 1700 000/00 RMK AO2 T11111128 TSNO
94299KAAT AAT20161219021011612/19/16 02:10:31  5-MIN KAAT 191010Z AUTO 00000KT 10SM CLR M11/M13 A3038 3960 88 1700 000/00 RMK AO2 T11111128 TSNO
94299KAAT AAT20161219021511612/19/16 02:15:31  5-MIN KAAT 191015Z AUTO 05003KT 10SM CLR M11/M13 A3038 3960 88 1700 040/03 RMK AO2 T11111128 TSNO
94299KAAT AAT20161219022011612/19/16 02:20:31  5-MIN KAAT 191020Z AUTO 06005KT 10SM CLR M11/M13 A3038 3960 88 1700 040/05 RMK AO2 T11111128 TSNO
94299KAAT AAT20161219022511612/19/16 02:25:31  5-MIN KAAT 191025Z AUTO 06005KT 10SM CLR M11/M13 A3038 3960 88 1700 040/05 RMK AO2 T11111128 TSNO
94299KAAT AAT20161219023011612/19/16 02:30:31  5-MIN KAAT 191030Z AUTO 05003KT 10SM CLR M11/M13 A3038 3960 84 1800 030/03 RMK AO2 T11061128 TSNO
94299KAAT AAT20161219023511612/19/16 02:35:31  5-MIN KAAT 191035Z AUTO 04005KT 10SM CLR M11/M13 A3038 3960 84 1800 020/05 RMK AO2 T11061128 TSNO
94299KAAT AAT20161219024011512/19/16 02:40:31  5-MIN KAAT 191040Z AUTO 02005KT 9SM CLR M11/M13 A3038 3960 88 1700 360/05 RMK AO2 T11111128 TSNO
94299KAAT AAT20161219024511512/19/16 02:45:31  5-MIN KAAT 191045Z AUTO 01004KT 9SM CLR M11/M13 A3038 3960 88 1700 350/04 RMK AO2 T11111128 TSNO
94299KAAT AAT20161219025012312/19/16 02:50:31  5-MIN KAAT 191050Z AUTO 01005KT 10SM CLR M11/M13 A3038 3960 88 1700 360/05 RMK AO2 SLP327 T11111128 TSNO
94299KAAT AAT20161219025512312/19/16 02:55:31  5-MIN KAAT 191055Z AUTO 36005KT 10SM CLR M11/M12 A3038 3960 88 1800 350/05 RMK AO2 SLP328 T11061122 TSNO
94299KAAT AAT20161219030011612/19/16 03:00:31  5-MIN KAAT 191100Z AUTO 01004KT 10SM CLR M11/M12 A3038 3960 88 1800 350/04 RMK AO2 T11061122 TSNO
94299KAAT AAT20161219030511612/19/16 03:05:31  5-MIN KAAT 191105Z AUTO 00000KT 10SM CLR M11/M12 A3038 3960 88 1800 000/00 RMK AO2 T11061122 TSNO
94299KAAT AAT20161219031011612/19/16 03:10:31  5-MIN KAAT 191110Z AUTO 01003KT 10SM CLR M11/M12 A3037 3960 88 1800 360/03 RMK AO2 T11061122 TSNO
94299KAAT AAT20161219031511612/19/16 03:15:31  5-MIN KAAT 191115Z AUTO 00000KT 10SM CLR M11/M12 A3037 3960 88 1800 000/00 RMK AO2 T11061122 TSNO
94299KAAT AAT20161219032011612/19/16 03:20:31  5-MIN KAAT 191120Z AUTO 00000KT 10SM CLR M10/M12 A3037 3970 84 1900 000/00 RMK AO2 T11001122 TSNO
94299KAAT AAT20161219032511612/19/16 03:25:31  5-MIN KAAT 191125Z AUTO 00000KT 10SM CLR M11/M12 A3037 3970 88 1800 000/00 RMK AO2 T11061122 TSNO
94299KAAT AAT20161219033011612/19/16 03:30:31  5-MIN KAAT 191130Z AUTO 00000KT 10SM CLR M11/M12 A3037 3970 88 1800 000/00 RMK AO2 T11061122 TSNO
94299KAAT AAT20161219033511612/19/16 03:35:31  5-MIN KAAT 191135Z AUTO 00000KT 10SM CLR M11/M13 A3037 3970 84 1800 000/00 RMK AO2 T11061128 TSNO
94299KAAT AAT20161219034011512/19/16 03:40:31  5-MIN KAAT 191140Z AUTO 00000KT 9SM CLR M11/M13 A3036 3970 84 1800 000/00 RMK AO2 T11111133 TSNO
94299KAAT AAT20161219034511512/19/16 03:45:31  5-MIN KAAT 191145Z AUTO 00000KT 8SM CLR M11/M13 A3037 3970 84 1800 000/00 RMK AO2 T11111133 TSNO
94299KAAT AAT20161219035014012/19/16 03:50:31  5-MIN KAAT 191150Z AUTO 00000KT 9SM CLR M12/M13 A3036 3970 87 1700 000/00 RMK AO2 SLP325 T11171133 11067 21122 53000 TSNO
94299KAAT AAT20161219035514112/19/16 03:55:31  5-MIN KAAT 191155Z AUTO 00000KT 10SM CLR M12/M13 A3036 3980 87 1700 000/00 RMK AO2 SLP324 T11171133 11067 21122 58004 TSNO
94299KAAT AAT20161219040011612/19/16 04:00:31  5-MIN KAAT 191200Z AUTO 00000KT 10SM CLR M12/M13 A3036 3980 87 1700 000/00 RMK AO2 T11171133 TSNO
94299KAAT AAT20161219040511612/19/16 04:05:31  5-MIN KAAT 191205Z AUTO 00000KT 10SM CLR M12/M14 A3035 3980 87 1600 000/00 RMK AO2 T11221139 TSNO
94299KAAT AAT20161219041011612/19/16 04:10:31  5-MIN KAAT 191210Z AUTO 00000KT 10SM CLR M12/M14 A3035 3980 87 1600 000/00 RMK AO2 T11221139 TSNO
94299KAAT AAT20161219041511612/19/16 04:15:31  5-MIN KAAT 191215Z AUTO 01003KT 10SM CLR M12/M13 A3036 3980 87 1700 350/03 RMK AO2 T11171133 TSNO
94299KAAT AAT20161219042011612/19/16 04:20:31  5-MIN KAAT 191220Z AUTO 00000KT 10SM CLR M12/M13 A3035 3980 87 1700 000/00 RMK AO2 T11171133 TSNO
94299KAAT AAT20161219042511512/19/16 04:25:31  5-MIN KAAT 191225Z AUTO 00000KT 9SM CLR M12/M13 A3035 3980 87 1700 000/00 RMK AO2 T11171133 TSNO
94299KAAT AAT20161219043011512/19/16 04:30:31  5-MIN KAAT 191230Z AUTO 00000KT 9SM CLR M12/M13 A3036 3980 91 1600 000/00 RMK AO2 T11221133 TSNO
94299KAAT AAT20161219043511612/19/16 04:35:31  5-MIN KAAT 191235Z AUTO 00000KT 10SM CLR M12/M13 A3036 3980 87 1700 000/00 RMK AO2 T11171133 TSNO
94299KAAT AAT20161219044011612/19/16 04:40:31  5-MIN KAAT 191240Z AUTO 00000KT 10SM CLR M12/M13 A3036 3980 87 1700 000/00 RMK AO2 T11171133 TSNO
94299KAAT AAT20161219044511612/19/16 04:45:31  5-MIN KAAT 191245Z AUTO 00000KT 10SM CLR M12/M13 A3036 3970 87 1700 000/00 RMK AO2 T11171133 TSNO
94299KAAT AAT20161219045012312/19/16 04:50:31  5-MIN KAAT 191250Z AUTO 00000KT 10SM CLR M12/M13 A3036 3970 87 1700 000/00 RMK AO2 SLP330 T11171133 TSNO
94299KAAT AAT20161219045512312/19/16 04:55:31  5-MIN KAAT 191255Z AUTO 00000KT 10SM CLR M12/M13 A3036 3970 87 1700 000/00 RMK AO2 SLP330 T11171133 TSNO
94299KAAT AAT20161219050011612/19/16 05:00:31  5-MIN KAAT 191300Z AUTO 00000KT 10SM CLR M12/M13 A3036 3970 87 1700 000/00 RMK AO2 T11171133 TSNO
94299KAAT AAT20161219050511612/19/16 05:05:31  5-MIN KAAT 191305Z AUTO 00000KT 10SM CLR M11/M13 A3037 3970 88 1800 000/00 RMK AO2 T11111128 TSNO
94299KAAT AAT20161219051011612/19/16 05:10:31  5-MIN KAAT 191310Z AUTO 00000KT 10SM CLR M11/M12 A3037 3970 92 1800 000/00 RMK AO2 T11111122 TSNO
94299KAAT AAT20161219051511612/19/16 05:15:31  5-MIN KAAT 191315Z AUTO 00000KT 10SM CLR M11/M12 A3037 3970 88 1800 000/00 RMK AO2 T11061122 TSNO
94299KAAT AAT20161219052011612/19/16 05:20:31  5-MIN KAAT 191320Z AUTO 00000KT 10SM CLR M11/M13 A3036 3970 88 1800 000/00 RMK AO2 T11111128 TSNO
94299KAAT AAT20161219052511612/19/16 05:25:31  5-MIN KAAT 191325Z AUTO 00000KT 10SM CLR M11/M13 A3036 3970 88 1800 000/00 RMK AO2 T11111128 TSNO
94299KAAT AAT20161219053011612/19/16 05:30:31  5-MIN KAAT 191330Z AUTO 00000KT 10SM CLR M11/M13 A3037 3970 88 1800 000/00 RMK AO2 T11111128 TSNO
94299KAAT AAT20161219053511612/19/16 05:35:31  5-MIN KAAT 191335Z AUTO 00000KT 10SM CLR M11/M12 A3037 3970 88 1800 000/00 RMK AO2 T11061122 TSNO
94299KAAT AAT20161219054011612/19/16 05:40:31  5-MIN KAAT 191340Z AUTO 00000KT 10SM CLR M11/M12 A3037 3970 92 1800 000/00 RMK AO2 T11111122 TSNO
94299KAAT AAT20161219054511612/19/16 05:45:31  5-MIN KAAT 191345Z AUTO 00000KT 10SM CLR M11/M13 A3037 3970 84 1800 000/00 RMK AO2 T11061128 TSNO
94299KAAT AAT20161219055012312/19/16 05:50:31  5-MIN KAAT 191350Z AUTO 00000KT 10SM CLR M11/M13 A3037 3970 84 1800 000/00 RMK AO2 SLP333 T11061128 TSNO
94299KAAT AAT20161219055512312/19/16 05:55:31  5-MIN KAAT 191355Z AUTO 00000KT 10SM CLR M11/M13 A3037 3960 84 1800 000/00 RMK AO2 SLP337 T11061128 TSNO
94299KAAT AAT20161219060011612/19/16 06:00:31  5-MIN KAAT 191400Z AUTO 00000KT 10SM CLR M11/M13 A3037 3970 84 1800 000/00 RMK AO2 T11061128 TSNO
94299KAAT AAT20161219060511612/19/16 06:05:31  5-MIN KAAT 191405Z AUTO 00000KT 10SM CLR M11/M12 A3038 3960 88 1800 000/00 RMK AO2 T11061122 TSNO
94299KAAT AAT20161219061011612/19/16 06:10:31  5-MIN KAAT 191410Z AUTO 00000KT 10SM CLR M10/M12 A3038 3960 88 1900 000/00 RMK AO2 T11001117 TSNO
94299KAAT AAT20161219061511612/19/16 06:15:31  5-MIN KAAT 191415Z AUTO 00000KT 10SM CLR M10/M12 A3038 3960 88 1900 000/00 RMK AO2 T11001117 TSNO
94299KAAT AAT20161219062011612/19/16 06:20:31  5-MIN KAAT 191420Z AUTO 00000KT 10SM CLR M10/M11 A3037 3970 92 1900 000/00 RMK AO2 T11001111 TSNO
94299KAAT AAT20161219062511612/19/16 06:25:31  5-MIN KAAT 191425Z AUTO 00000KT 10SM CLR M10/M11 A3037 3970 92 1900 000/00 RMK AO2 T11001111 TSNO
94299KAAT AAT20161219063011612/19/16 06:30:31  5-MIN KAAT 191430Z AUTO 00000KT 10SM CLR M09/M12 A3037 3970 84 2000 000/00 RMK AO2 T10941117 TSNO
94299KAAT AAT20161219063511612/19/16 06:35:31  5-MIN KAAT 191435Z AUTO 00000KT 10SM CLR M09/M12 A3037 3970 84 2000 000/00 RMK AO2 T10941117 TSNO
94299KAAT AAT20161219064011612/19/16 06:40:31  5-MIN KAAT 191440Z AUTO 00000KT 10SM CLR M09/M12 A3037 3970 84 2000 000/00 RMK AO2 T10941117 TSNO
94299KAAT AAT20161219064511612/19/16 06:45:31  5-MIN KAAT 191445Z AUTO 00000KT 10SM CLR M09/M12 A3037 3970 84 2000 000/00 RMK AO2 T10941117 TSNO
94299KAAT AAT20161219065012912/19/16 06:50:31  5-MIN KAAT 191450Z AUTO 00000KT 10SM CLR M09/M11 A3037 3970 88 2000 000/00 RMK AO2 SLP333 T10941111 58004 TSNO
94299KAAT AAT20161219065512912/19/16 06:55:31  5-MIN KAAT 191455Z AUTO 00000KT 10SM CLR M09/M11 A3037 3970 88 2000 000/00 RMK AO2 SLP333 T10941111 50003 TSNO
94299KAAT AAT20161219070011612/19/16 07:00:31  5-MIN KAAT 191500Z AUTO 00000KT 10SM CLR M09/M11 A3037 3970 88 2000 000/00 RMK AO2 T10941111 TSNO
94299KAAT AAT20161219070511612/19/16 07:05:31  5-MIN KAAT 191505Z AUTO 00000KT 10SM CLR M09/M11 A3037 3970 88 2000 000/00 RMK AO2 T10941111 TSNO
94299KAAT AAT20161219071011612/19/16 07:10:31  5-MIN KAAT 191510Z AUTO 00000KT 10SM CLR M09/M11 A3037 3970 88 2000 000/00 RMK AO2 T10941111 TSNO
94299KAAT AAT20161219071511612/19/16 07:15:31  5-MIN KAAT 191515Z AUTO 00000KT 10SM CLR M09/M11 A3037 3970 88 2000 000/00 RMK AO2 T10941111 TSNO
94299KAAT AAT20161219072011612/19/16 07:20:31  5-MIN KAAT 191520Z AUTO 00000KT 10SM CLR M09/M11 A3037 3970 92 2000 000/00 RMK AO2 T10941106 TSNO
94299KAAT AAT20161219072511612/19/16 07:25:31  5-MIN KAAT 191525Z AUTO 00000KT 10SM CLR M09/M11 A3037 3960 88 2000 000/00 RMK AO2 T10891106 TSNO
94299KAAT AAT20161219073011612/19/16 07:30:31  5-MIN KAAT 191530Z AUTO 00000KT 10SM CLR M09/M11 A3038 3960 88 2000 000/00 RMK AO2 T10891106 TSNO
94299KAAT AAT20161219073511612/19/16 07:35:31  5-MIN KAAT 191535Z AUTO 31003KT 10SM CLR M09/M11 A3038 3950 88 2000 300/03 RMK AO2 T10891106 TSNO
94299KAAT AAT20161219074011612/19/16 07:40:31  5-MIN KAAT 191540Z AUTO 00000KT 10SM CLR M09/M11 A3038 3960 88 2000 000/00 RMK AO2 T10891106 TSNO
94299KAAT AAT20161219074511612/19/16 07:45:31  5-MIN KAAT 191545Z AUTO 00000KT 10SM CLR M09/M11 A3038 3960 88 2000 000/00 RMK AO2 T10891106 TSNO
94299KAAT AAT20161219075012312/19/16 07:50:31  5-MIN KAAT 191550Z AUTO 00000KT 10SM CLR M09/M11 A3038 3950 88 2000 000/00 RMK AO2 SLP341 T10891106 TSNO
94299KAAT AAT20161219075512312/19/16 07:55:31  5-MIN KAAT 191555Z AUTO 00000KT 10SM CLR M09/M11 A3039 3950 88 2000 000/00 RMK AO2 SLP344 T10891106 TSNO
94299KAAT AAT20161219080011612/19/16 08:00:31  5-MIN KAAT 191600Z AUTO 00000KT 10SM CLR M09/M11 A3040 3940 88 2000 000/00 RMK AO2 T10891106 TSNO
94299KAAT AAT20161219080511612/19/16 08:05:31  5-MIN KAAT 191605Z AUTO 00000KT 10SM CLR M09/M11 A3040 3940 88 2000 000/00 RMK AO2 T10891106 TSNO
94299KAAT AAT20161219081011612/19/16 08:10:31  5-MIN KAAT 191610Z AUTO 00000KT 10SM CLR M08/M11 A3040 3940 84 2100 000/00 RMK AO2 T10831106 TSNO
94299KAAT AAT20161219081511912/19/16 08:15:31  5-MIN KAAT 191615Z AUTO 00000KT 10SM FEW090 M08/M10 A3039 3950 88 2100 000/00 RMK AO2 T10831100 TSNO
94299KAAT AAT20161219082011812/19/16 08:20:31  5-MIN KAAT 191620Z AUTO 00000KT 8SM FEW090 M08/M10 A3040 3940 88 2100 000/00 RMK AO2 T10831100 TSNO
94299KAAT AAT20161219082511512/19/16 08:25:31  5-MIN KAAT 191625Z AUTO 00000KT 8SM CLR M08/M11 A3040 3940 84 2100 000/00 RMK AO2 T10831106 TSNO
94299KAAT AAT20161219083011612/19/16 08:30:31  5-MIN KAAT 191630Z AUTO 00000KT 10SM CLR M08/M10 A3039 3950 84 2200 000/00 RMK AO2 T10781100 TSNO
94299KAAT AAT20161219083511612/19/16 08:35:31  5-MIN KAAT 191635Z AUTO 00000KT 10SM CLR M08/M10 A3040 3940 84 2100 000/00 RMK AO2 T10781100 TSNO
94299KAAT AAT20161219084011612/19/16 08:40:31  5-MIN KAAT 191640Z AUTO 00000KT 10SM CLR M08/M10 A3039 3950 84 2200 000/00 RMK AO2 T10781100 TSNO
94299KAAT AAT20161219084511612/19/16 08:45:31  5-MIN KAAT 191645Z AUTO 00000KT 10SM CLR M08/M10 A3039 3950 84 2200 000/00 RMK AO2 T10781100 TSNO
94299KAAT AAT20161219085012312/19/16 08:50:31  5-MIN KAAT 191650Z AUTO 00000KT 10SM CLR M08/M09 A3039 3950 88 2200 000/00 RMK AO2 SLP343 T10781094 TSNO
94299KAAT AAT20161219085512312/19/16 08:55:31  5-MIN KAAT 191655Z AUTO 25003KT 10SM CLR M08/M09 A3039 3950 88 2200 240/03 RMK AO2 SLP343 T10781094 TSNO
94299KAAT AAT20161219090011612/19/16 09:00:31  5-MIN KAAT 191700Z AUTO 27004KT 10SM CLR M08/M09 A3040 3940 88 2100 260/04 RMK AO2 T10781094 TSNO
94299KAAT AAT20161219090511612/19/16 09:05:31  5-MIN KAAT 191705Z AUTO 29003KT 10SM CLR M08/M09 A3040 3940 88 2100 270/03 RMK AO2 T10781094 TSNO
94299KAAT AAT20161219091011612/19/16 09:10:31  5-MIN KAAT 191710Z AUTO 27004KT 10SM CLR M07/M09 A3041 3930 84 2200 250/04 RMK AO2 T10721094 TSNO
94299KAAT AAT20161219091511612/19/16 09:15:31  5-MIN KAAT 191715Z AUTO 27003KT 10SM CLR M07/M09 A3041 3930 84 2200 250/03 RMK AO2 T10721094 TSNO
94299KAAT AAT20161219092011612/19/16 09:20:31  5-MIN KAAT 191720Z AUTO 30004KT 10SM CLR M07/M09 A3041 3930 84 2200 290/04 RMK AO2 T10721094 TSNO
94299KAAT AAT20161219092511612/19/16 09:25:31  5-MIN KAAT 191725Z AUTO 32004KT 10SM CLR M07/M09 A3042 3920 84 2200 300/04 RMK AO2 T10721094 TSNO
94299KAAT AAT20161219093011612/19/16 09:30:31  5-MIN KAAT 191730Z AUTO 30003KT 10SM CLR M07/M09 A3042 3920 84 2200 290/03 RMK AO2 T10721094 TSNO
94299KAAT AAT20161219093511912/19/16 09:35:31  5-MIN KAAT 191735Z AUTO 00000KT 10SM FEW080 M07/M09 A3042 3920 84 2200 000/00 RMK AO2 T10721094 TSNO
94299KAAT AAT20161219094011912/19/16 09:40:31  5-MIN KAAT 191740Z AUTO 00000KT 10SM FEW080 M07/M09 A3042 3920 84 2200 000/00 RMK AO2 T10721094 TSNO
94299KAAT AAT20161219094511912/19/16 09:45:31  5-MIN KAAT 191745Z AUTO 00000KT 10SM FEW080 M07/M09 A3042 3920 84 2300 000/00 RMK AO2 T10671089 TSNO
94299KAAT AAT20161219095014412/19/16 09:50:31  5-MIN KAAT 191750Z AUTO 00000KT 10SM FEW080 M07/M09 A3043 3920 84 2300 000/00 RMK AO2 SLP353 T10671089 11067 21122 50003 TSNO
94299KAAT AAT20161219095514412/19/16 09:55:31  5-MIN KAAT 191755Z AUTO 00000KT 10SM FEW080 M07/M09 A3043 3920 84 2300 000/00 RMK AO2 SLP353 T10671089 11067 21122 53017 TSNO
94299KAAT AAT20161219100011912/19/16 10:00:31  5-MIN KAAT 191800Z AUTO 00000KT 10SM FEW080 M06/M08 A3043 3920 84 2300 000/00 RMK AO2 T10611083 TSNO
94299KAAT AAT20161219100511612/19/16 10:05:31  5-MIN KAAT 191805Z AUTO 00000KT 10SM CLR M06/M09 A3042 3920 81 2300 000/00 RMK AO2 T10611089 TSNO
94299KAAT AAT20161219101011612/19/16 10:10:31  5-MIN KAAT 191810Z AUTO 00000KT 10SM CLR M06/M09 A3042 3920 81 2300 000/00 RMK AO2 T10611089 TSNO
94299KAAT AAT20161219101511612/19/16 10:15:31  5-MIN KAAT 191815Z AUTO 00000KT 10SM CLR M06/M08 A3042 3920 81 2400 000/00 RMK AO2 T10561083 TSNO
94299KAAT AAT20161219102011612/19/16 10:20:31  5-MIN KAAT 191820Z AUTO 00000KT 10SM CLR M06/M08 A3041 3930 81 2400 000/00 RMK AO2 T10561083 TSNO
94299KAAT AAT20161219102511612/19/16 10:25:31  5-MIN KAAT 191825Z AUTO 14003KT 10SM CLR M05/M08 A3041 3930 77 2500 130/03 RMK AO2 T10501083 TSNO
94299KAAT AAT20161219103011612/19/16 10:30:31  5-MIN KAAT 191830Z AUTO 00000KT 10SM CLR M05/M08 A3041 3930 81 2500 000/00 RMK AO2 T10501078 TSNO
94299KAAT AAT20161219103511612/19/16 10:35:31  5-MIN KAAT 191835Z AUTO 00000KT 10SM CLR M04/M08 A3040 3940 78 2600 000/00 RMK AO2 T10441078 TSNO
94299KAAT AAT20161219104011612/19/16 10:40:31  5-MIN KAAT 191840Z AUTO 00000KT 10SM CLR M04/M07 A3040 3940 81 2600 000/00 RMK AO2 T10441072 TSNO
94299KAAT AAT20161219104511612/19/16 10:45:31  5-MIN KAAT 191845Z AUTO 00000KT 10SM CLR M04/M07 A3040 3940 81 2600 000/00 RMK AO2 T10441072 TSNO
94299KAAT AAT20161219105012312/19/16 10:50:31  5-MIN KAAT 191850Z AUTO 00000KT 10SM CLR M04/M08 A3039 3950 78 2600 000/00 RMK AO2 SLP331 T10441078 TSNO
94299KAAT AAT20161219105512312/19/16 10:55:31  5-MIN KAAT 191855Z AUTO 32003KT 10SM CLR M04/M07 A3040 3940 78 2600 300/03 RMK AO2 SLP330 T10391072 TSNO
94299KAAT AAT20161219110011612/19/16 11:00:31  5-MIN KAAT 191900Z AUTO 00000KT 10SM CLR M04/M08 A3039 3950 74 2600 000/00 RMK AO2 T10391078 TSNO
94299KAAT AAT20161219110511612/19/16 11:05:31  5-MIN KAAT 191905Z AUTO 32004KT 10SM CLR M03/M08 A3040 3940 71 2700 300/04 RMK AO2 T10331078 TSNO
94299KAAT AAT20161219111011612/19/16 11:10:31  5-MIN KAAT 191910Z AUTO 33004KT 10SM CLR M04/M07 A3040 3940 78 2600 320/04 RMK AO2 T10391072 TSNO
94299KAAT AAT20161219111511612/19/16 11:15:31  5-MIN KAAT 191915Z AUTO 31003KT 10SM CLR M03/M08 A3039 3950 71 2700 300/03 RMK AO2 T10331078 TSNO
94299KAAT AAT20161219112011612/19/16 11:20:31  5-MIN KAAT 191920Z AUTO 33003KT 10SM CLR M03/M08 A3039 3950 71 2700 320/03 RMK AO2 T10331078 TSNO
94299KAAT AAT20161219112511612/19/16 11:25:31  5-MIN KAAT 191925Z AUTO 34005KT 10SM CLR M03/M07 A3039 3950 71 2800 330/05 RMK AO2 T10281072 TSNO
94299KAAT AAT20161219113011612/19/16 11:30:31  5-MIN KAAT 191930Z AUTO 34003KT 10SM CLR M02/M07 A3039 3950 69 2800 330/03 RMK AO2 T10221072 TSNO
94299KAAT AAT20161219113511612/19/16 11:35:31  5-MIN KAAT 191935Z AUTO 00000KT 10SM CLR M03/M08 A3040 3940 66 2800 000/00 RMK AO2 T10281083 TSNO
94299KAAT AAT20161219114011612/19/16 11:40:31  5-MIN KAAT 191940Z AUTO 35003KT 10SM CLR M02/M08 A3039 3950 63 2900 340/03 RMK AO2 T10171078 TSNO
94299KAAT AAT20161219114511612/19/16 11:45:31  5-MIN KAAT 191945Z AUTO 00000KT 10SM CLR M02/M08 A3040 3940 66 2800 000/00 RMK AO2 T10221078 TSNO
94299KAAT AAT20161219115012312/19/16 11:50:31  5-MIN KAAT 191950Z AUTO 33003KT 10SM CLR M02/M08 A3040 3940 63 2900 310/03 RMK AO2 SLP329 T10171078 TSNO
94299KAAT AAT20161219115512312/19/16 11:55:31  5-MIN KAAT 191955Z AUTO 34003KT 10SM CLR M02/M08 A3040 3940 63 2900 320/03 RMK AO2 SLP331 T10171078 TSNO
94299KAAT AAT20161219120011912/19/16 12:00:31  5-MIN KAAT 192000Z AUTO 00000KT 10SM FEW049 M01/M08 A3040 3940 60 3000 000/00 RMK AO2 T10111078 TSNO
94299KAAT AAT20161219120511912/19/16 12:05:31  5-MIN KAAT 192005Z AUTO 00000KT 10SM FEW049 M01/M08 A3040 3940 58 3000 000/00 RMK AO2 T10061078 TSNO
94299KAAT AAT20161219121012612/19/16 12:10:31  5-MIN KAAT 192010Z AUTO 10003KT 10SM FEW047 FEW090 M01/M08 A3039 3950 60 3000 080/03 RMK AO2 T10111078 TSNO
94299KAAT AAT20161219121512612/19/16 12:15:31  5-MIN KAAT 192015Z AUTO 11003KT 10SM FEW047 FEW090 M01/M08 A3039 3950 58 3100 100/03 RMK AO2 T10061078 TSNO
94299KAAT AAT20161219122012612/19/16 12:20:31  5-MIN KAAT 192020Z AUTO 13003KT 10SM FEW047 FEW090 M01/M08 A3039 3950 60 3000 120/03 RMK AO2 T10111078 TSNO
94299KAAT AAT20161219122511912/19/16 12:25:31  5-MIN KAAT 192025Z AUTO 13004KT 10SM FEW090 M01/M08 A3039 3950 60 3000 120/04 RMK AO2 T10111078 TSNO
94299KAAT AAT20161219123012612/19/16 12:30:31  5-MIN KAAT 192030Z AUTO 00000KT 10SM FEW075 FEW090 M01/M07 A3039 3950 63 3000 000/00 RMK AO2 T10111072 TSNO
94299KAAT AAT20161219123512612/19/16 12:35:31  5-MIN KAAT 192035Z AUTO 00000KT 10SM FEW075 SCT090 M01/M07 A3039 3950 63 3000 000/00 RMK AO2 T10111072 TSNO
94299KAAT AAT20161219124011912/19/16 12:40:31  5-MIN KAAT 192040Z AUTO 00000KT 10SM FEW075 M01/M07 A3039 3950 63 3100 000/00 RMK AO2 T10061067 TSNO
94299KAAT AAT20161219124511912/19/16 12:45:31  5-MIN KAAT 192045Z AUTO 17004KT 10SM FEW075 M01/M07 A3038 3960 63 3100 160/04 RMK AO2 T10061067 TSNO
94299KAAT AAT20161219125013212/19/16 12:50:31  5-MIN KAAT 192050Z AUTO VRB04KT 10SM FEW075 M01/M07 A3038 3960 63 3100 VRB/04 RMK AO2 SLP326 T10061067 53017 TSNO
94299KAAT AAT20161219125513212/19/16 12:55:31  5-MIN KAAT 192055Z AUTO 00000KT 10SM FEW075 M01/M07 A3039 3950 63 3100 000/00 RMK AO2 SLP329 T10061067 56012 TSNO
94299KAAT AAT20161219130011912/19/16 13:00:31  5-MIN KAAT 192100Z AUTO 00000KT 10SM SCT075 M01/M07 A3038 3960 63 3100 000/00 RMK AO2 T10061067 TSNO
94299KAAT AAT20161219130511912/19/16 13:05:31  5-MIN KAAT 192105Z AUTO 00000KT 10SM FEW075 M01/M07 A3038 3960 63 3100 000/00 RMK AO2 T10061067 TSNO
94299KAAT AAT20161219131011912/19/16 13:10:31  5-MIN KAAT 192110Z AUTO 16003KT 10SM FEW075 M01/M06 A3038 3960 66 3100 140/03 RMK AO2 T10061061 TSNO
94299KAAT AAT20161219131511912/19/16 13:15:31  5-MIN KAAT 192115Z AUTO 00000KT 10SM FEW075 M01/M07 A3038 3960 63 3100 000/00 RMK AO2 T10061067 TSNO
94299KAAT AAT20161219132011912/19/16 13:20:31  5-MIN KAAT 192120Z AUTO 00000KT 10SM FEW075 M01/M06 A3038 3960 66 3100 000/00 RMK AO2 T10061061 TSNO
94299KAAT AAT20161219132511912/19/16 13:25:31  5-MIN KAAT 192125Z AUTO 00000KT 10SM FEW075 M01/M06 A3038 3960 66 3100 000/00 RMK AO2 T10061061 TSNO
94299KAAT AAT20161219133011612/19/16 13:30:31  5-MIN KAAT 192130Z AUTO 00000KT 10SM CLR M01/M06 A3038 3960 66 3100 000/00 RMK AO2 T10061061 TSNO
94299KAAT AAT20161219133511612/19/16 13:35:31  5-MIN KAAT 192135Z AUTO 00000KT 10SM CLR M01/M06 A3038 3960 66 3100 000/00 RMK AO2 T10061061 TSNO
94299KAAT AAT20161219134011512/19/16 13:40:31  5-MIN KAAT 192140Z AUTO 00000KT 10SM CLR 00/M07 A3038 3960 61 3100 000/00 RMK AO2 T00001067 TSNO
94299KAAT AAT20161219134511512/19/16 13:45:31  5-MIN KAAT 192145Z AUTO 00000KT 10SM CLR 00/M06 A3038 3960 63 3100 000/00 RMK AO2 T00001061 TSNO
94299KAAT AAT20161219135012512/19/16 13:50:31  5-MIN KAAT 192150Z AUTO 00000KT 10SM FEW043 00/M06 A3039 3950 66 3100 000/00 RMK AO2 SLP328 T00001056 TSNO
94299KAAT AAT20161219135513212/19/16 13:55:31  5-MIN KAAT 192155Z AUTO 00000KT 10SM FEW043 SCT120 00/M06 A3039 3950 66 3100 000/00 RMK AO2 SLP330 T00001056 TSNO
94299KAAT AAT20161219140012512/19/16 14:00:31  5-MIN KAAT 192200Z AUTO 00000KT 10SM SCT043 SCT120 01/M06 A3039 3950 63 3200 000/00 RMK AO2 T00061056 TSNO
94299KAAT AAT20161219140511812/19/16 14:05:31  5-MIN KAAT 192205Z AUTO 00000KT 10SM SCT043 01/M06 A3038 3960 61 3200 000/00 RMK AO2 T00061061 TSNO
94299KAAT AAT20161219141011812/19/16 14:10:31  5-MIN KAAT 192210Z AUTO 00000KT 10SM FEW043 01/M06 A3038 3960 61 3200 000/00 RMK AO2 T00061061 TSNO
94299KAAT AAT20161219141511812/19/16 14:15:31  5-MIN KAAT 192215Z AUTO 00000KT 10SM FEW043 01/M06 A3039 3950 61 3200 000/00 RMK AO2 T00061061 TSNO
94299KAAT AAT20161219142011812/19/16 14:20:31  5-MIN KAAT 192220Z AUTO 00000KT 10SM FEW043 01/M06 A3038 3950 63 3200 000/00 RMK AO2 T00061056 TSNO
94299KAAT AAT20161219142511812/19/16 14:25:31  5-MIN KAAT 192225Z AUTO 00000KT 10SM FEW043 01/M06 A3038 3960 61 3200 000/00 RMK AO2 T00061061 TSNO
94299KAAT AAT20161219143011812/19/16 14:30:31  5-MIN KAAT 192230Z AUTO 00000KT 10SM FEW085 01/M06 A3038 3960 63 3200 000/00 RMK AO2 T00061056 TSNO
94299KAAT AAT20161219143511812/19/16 14:35:31  5-MIN KAAT 192235Z AUTO 00000KT 10SM SCT085 01/M06 A3038 3960 61 3200 000/00 RMK AO2 T00061061 TSNO
94299KAAT AAT20161219144011812/19/16 14:40:31  5-MIN KAAT 192240Z AUTO 00000KT 10SM SCT080 01/M06 A3038 3960 63 3200 000/00 RMK AO2 T00061056 TSNO
94299KAAT AAT20161219144511812/19/16 14:45:31  5-MIN KAAT 192245Z AUTO 00000KT 10SM BKN080 01/M06 A3038 3960 63 3200 000/00 RMK AO2 T00061056 TSNO
94299KAAT AAT20161219145013212/19/16 14:50:31  5-MIN KAAT 192250Z AUTO 00000KT 10SM SCT080 BKN095 01/M06 A3038 3960 63 3200 000/00 RMK AO2 SLP323 T00061056 TSNO
94299KAAT AAT20161219145513212/19/16 14:55:31  5-MIN KAAT 192255Z AUTO 00000KT 10SM FEW080 BKN095 01/M06 A3038 3960 63 3200 000/00 RMK AO2 SLP324 T00061056 TSNO
94299KAAT AAT20161219150012512/19/16 15:00:31  5-MIN KAAT 192300Z AUTO 00000KT 10SM FEW080 BKN090 01/M05 A3038 3960 66 3200 000/00 RMK AO2 T00061050 TSNO
94299KAAT AAT20161219150512512/19/16 15:05:31  5-MIN KAAT 192305Z AUTO 00000KT 10SM SCT080 BKN095 01/M06 A3038 3960 61 3300 000/00 RMK AO2 T00111056 TSNO
94299KAAT AAT20161219151012512/19/16 15:10:31  5-MIN KAAT 192310Z AUTO 00000KT 10SM FEW080 BKN100 01/M06 A3038 3960 63 3200 000/00 RMK AO2 T00061056 TSNO
94299KAAT AAT20161219151511812/19/16 15:15:31  5-MIN KAAT 192315Z AUTO 00000KT 10SM OVC100 01/M06 A3038 3960 63 3200 000/00 RMK AO2 T00061056 TSNO
94299KAAT AAT20161219152011812/19/16 15:20:31  5-MIN KAAT 192320Z AUTO 00000KT 10SM BKN100 01/M05 A3038 3960 64 3300 000/00 RMK AO2 T00111050 TSNO
94299KAAT AAT20161219152511812/19/16 15:25:31  5-MIN KAAT 192325Z AUTO 00000KT 10SM BKN100 01/M06 A3038 3960 63 3200 000/00 RMK AO2 T00061056 TSNO
94299KAAT AAT20161219153011812/19/16 15:30:31  5-MIN KAAT 192330Z AUTO 00000KT 10SM BKN100 01/M06 A3038 3960 61 3300 000/00 RMK AO2 T00111056 TSNO
94299KAAT AAT20161219153511812/19/16 15:35:31  5-MIN KAAT 192335Z AUTO 00000KT 10SM SCT100 01/M06 A3039 3950 61 3300 000/00 RMK AO2 T00111056 TSNO
94299KAAT AAT20161219154011812/19/16 15:40:31  5-MIN KAAT 192340Z AUTO 00000KT 10SM FEW100 01/M05 A3038 3960 64 3300 000/00 RMK AO2 T00111050 TSNO
94299KAAT AAT20161219154511812/19/16 15:45:31  5-MIN KAAT 192345Z AUTO 00000KT 10SM FEW110 01/M05 A3038 3960 64 3300 000/00 RMK AO2 T00111050 TSNO
94299KAAT AAT20161219155014312/19/16 15:50:31  5-MIN KAAT 192350Z AUTO 00000KT 10SM FEW110 01/M04 A3038 3960 66 3300 000/00 RMK AO2 SLP323 T00111044 10011 21067 56012 TSNO
94299KAAT AAT20161219155514012/19/16 15:55:31  5-MIN KAAT 192355Z AUTO 00000KT 10SM CLR 01/M04 A3037 3960 66 3300 000/00 RMK AO2 SLP322 T00111044 10011 21067 58004 TSNO
94299KAAT AAT20161219160011512/19/16 16:00:31  5-MIN KAAT 200000Z AUTO 17003KT 10SM CLR 01/M04 A3037 3970 69 3200 150/03 RMK AO2 T00061044 TSNO
94299KAAT AAT20161219160511512/19/16 16:05:31  5-MIN KAAT 200005Z AUTO 00000KT 10SM CLR 01/M04 A3037 3970 69 3200 000/00 RMK AO2 T00061044 TSNO
94299KAAT AAT20161219161011512/19/16 16:10:31  5-MIN KAAT 200010Z AUTO 17004KT 10SM CLR 01/M04 A3036 3980 72 3200 150/04 RMK AO2 T00061039 TSNO
94299KAAT AAT20161219161512512/19/16 16:15:31  5-MIN KAAT 200015Z AUTO 16005KT 10SM SCT110 00/M04 A3035 3990 72 3200 150/05 RMK AO2 PRESFR T00001044 TSNO
94299KAAT AAT20161219162011812/19/16 16:20:31  5-MIN KAAT 200020Z AUTO 14004KT 10SM BKN110 00/M04 A3035 3990 72 3200 120/04 RMK AO2 T00001044 TSNO
94299KAAT AAT20161219162511812/19/16 16:25:31  5-MIN KAAT 200025Z AUTO 00000KT 10SM BKN110 00/M04 A3035 3980 75 3200 000/00 RMK AO2 T00001039 TSNO
94299KAAT AAT20161219163011812/19/16 16:30:31  5-MIN KAAT 200030Z AUTO 14004KT 10SM BKN110 00/M04 A3034 3990 75 3200 130/04 RMK AO2 T00001039 TSNO
94299KAAT AAT20161219163511812/19/16 16:35:31  5-MIN KAAT 200035Z AUTO 14003KT 10SM BKN110 00/M04 A3034 3990 75 3200 130/03 RMK AO2 T00001039 TSNO
94299KAAT AAT20161219164011812/19/16 16:40:31  5-MIN KAAT 200040Z AUTO 00000KT 10SM BKN110 00/M04 A3034 3990 75 3200 000/00 RMK AO2 T00001039 TSNO
94299KAAT AAT20161219164511812/19/16 16:45:31  5-MIN KAAT 200045Z AUTO 00000KT 10SM BKN110 00/M04 A3035 3990 75 3200 000/00 RMK AO2 T00001039 TSNO
94299KAAT AAT20161219165012512/19/16 16:50:31  5-MIN KAAT 200050Z AUTO 00000KT 10SM OVC110 00/M04 A3035 3990 75 3200 000/00 RMK AO2 SLP314 T00001039 TSNO
94299KAAT AAT20161219165512512/19/16 16:55:31  5-MIN KAAT 200055Z AUTO 00000KT 10SM OVC110 00/M04 A3034 3990 75 3200 000/00 RMK AO2 SLP313 T00001039 TSNO
94299KAAT AAT20161219170011812/19/16 17:00:31  5-MIN KAAT 200100Z AUTO 00000KT 10SM BKN120 00/M04 A3035 3990 75 3200 000/00 RMK AO2 T00001039 TSNO
94299KAAT AAT20161219170511812/19/16 17:05:31  5-MIN KAAT 200105Z AUTO 00000KT 10SM BKN120 00/M04 A3034 3990 75 3200 000/00 RMK AO2 T00001039 TSNO
94299KAAT AAT20161219171010912/19/16 17:10:31  5-MIN KAAT 200110Z AUTO 10SM BKN120 M01/M04 A3035 3990 78 3100 M /M RMK AO2 T10061039 TSNO
94299KAAT AAT20161219171512612/19/16 17:15:31  5-MIN KAAT 200115Z AUTO 32003KT 10SM FEW060 BKN120 M01/M04 A3035 3980 78 3100 310/03 RMK AO2 T10061039 TSNO
94299KAAT AAT20161219172012512/19/16 17:20:31  5-MIN KAAT 200120Z AUTO 00000KT 10SM FEW060 BKN120 00/M04 A3034 3990 75 3200 000/00 RMK AO2 T00001039 TSNO
94299KAAT AAT20161219172512612/19/16 17:25:31  5-MIN KAAT 200125Z AUTO 00000KT 10SM FEW060 BKN120 M01/M04 A3034 4000 78 3100 000/00 RMK AO2 T10061039 TSNO
94299KAAT AAT20161219173012612/19/16 17:30:31  5-MIN KAAT 200130Z AUTO 16004KT 10SM FEW060 BKN120 M01/M04 A3033 4010 78 3100 140/04 RMK AO2 T10061039 TSNO
94299KAAT AAT20161219173512612/19/16 17:35:31  5-MIN KAAT 200135Z AUTO 14005KT 10SM FEW060 SCT120 M01/M04 A3032 4010 78 3100 130/05 RMK AO2 T10061039 TSNO
94299KAAT AAT20161219174012612/19/16 17:40:31  5-MIN KAAT 200140Z AUTO 15004KT 10SM FEW060 SCT120 M01/M04 A3033 4010 78 3100 140/04 RMK AO2 T10061039 TSNO
94299KAAT AAT20161219174511912/19/16 17:45:31  5-MIN KAAT 200145Z AUTO 00000KT 10SM FEW120 M01/M04 A3034 4000 81 3000 000/00 RMK AO2 T10111039 TSNO
94299KAAT AAT20161219175012612/19/16 17:50:31  5-MIN KAAT 200150Z AUTO 00000KT 10SM FEW120 M01/M04 A3033 4000 78 3100 000/00 RMK AO2 SLP309 T10061039 TSNO
94299KAAT AAT20161219175512312/19/16 17:55:31  5-MIN KAAT 200155Z AUTO 00000KT 10SM CLR M01/M04 A3033 4000 78 3100 000/00 RMK AO2 SLP309 T10061039 TSNO
94299KAAT AAT20161219180011612/19/16 18:00:31  5-MIN KAAT 200200Z AUTO 00000KT 10SM CLR M01/M04 A3033 4000 81 3000 000/00 RMK AO2 T10111039 TSNO
94299KAAT AAT20161219180511612/19/16 18:05:31  5-MIN KAAT 200205Z AUTO 00000KT 10SM CLR M01/M04 A3034 4000 81 3000 000/00 RMK AO2 T10111039 TSNO
94299KAAT AAT20161219181011612/19/16 18:10:31  5-MIN KAAT 200210Z AUTO 00000KT 10SM CLR M01/M04 A3034 4000 81 3000 000/00 RMK AO2 T10111039 TSNO
94299KAAT AAT20161219181511612/19/16 18:15:31  5-MIN KAAT 200215Z AUTO 00000KT 10SM CLR M01/M04 A3034 4000 81 3000 000/00 RMK AO2 T10111039 TSNO
94299KAAT AAT20161219182011612/19/16 18:20:31  5-MIN KAAT 200220Z AUTO 00000KT 10SM CLR M01/M04 A3034 4000 81 3000 000/00 RMK AO2 T10111039 TSNO
94299KAAT AAT20161219182511612/19/16 18:25:31  5-MIN KAAT 200225Z AUTO 00000KT 10SM CLR M01/M04 A3034 4000 81 3000 000/00 RMK AO2 T10111039 TSNO
94299KAAT AAT20161219183011612/19/16 18:30:31  5-MIN KAAT 200230Z AUTO 00000KT 10SM CLR M01/M04 A3034 3990 81 3000 000/00 RMK AO2 T10111039 TSNO
94299KAAT AAT20161219183511612/19/16 18:35:31  5-MIN KAAT 200235Z AUTO 00000KT 10SM CLR M02/M04 A3034 3990 85 3000 000/00 RMK AO2 T10171039 TSNO
94299KAAT AAT20161219184011612/19/16 18:40:31  5-MIN KAAT 200240Z AUTO 00000KT 10SM CLR M02/M04 A3035 3990 85 3000 000/00 RMK AO2 T10171039 TSNO
94299KAAT AAT20161219184511912/19/16 18:45:31  5-MIN KAAT 200245Z AUTO 00000KT 10SM FEW048 M01/M04 A3035 3980 81 3000 000/00 RMK AO2 T10111039 TSNO
94299KAAT AAT20161219185013212/19/16 18:50:31  5-MIN KAAT 200250Z AUTO 00000KT 10SM SCT048 M02/M04 A3035 3990 85 3000 000/00 RMK AO2 SLP316 T10171039 58004 TSNO
94299KAAT AAT20161219185513212/19/16 18:55:31  5-MIN KAAT 200255Z AUTO 00000KT 10SM SCT048 M02/M04 A3035 3990 85 3000 000/00 RMK AO2 SLP315 T10171039 55007 TSNO
94299KAAT AAT20161219190011912/19/16 19:00:31  5-MIN KAAT 200300Z AUTO 27003KT 10SM FEW048 M02/M04 A3036 3980 85 3000 250/03 RMK AO2 T10171039 TSNO
94299KAAT AAT20161219190511912/19/16 19:05:31  5-MIN KAAT 200305Z AUTO 26003KT 10SM SCT048 M02/M04 A3036 3980 85 3000 240/03 RMK AO2 T10171039 TSNO
94299KAAT AAT20161219191011912/19/16 19:10:31  5-MIN KAAT 200310Z AUTO 23003KT 10SM BKN048 M02/M04 A3036 3980 88 2900 210/03 RMK AO2 T10221039 TSNO
94299KAAT AAT20161219191511912/19/16 19:15:31  5-MIN KAAT 200315Z AUTO 23003KT 10SM BKN048 M02/M04 A3037 3970 88 2900 220/03 RMK AO2 T10221039 TSNO
94299KAAT AAT20161219192011912/19/16 19:20:31  5-MIN KAAT 200320Z AUTO 26003KT 10SM BKN047 M02/M04 A3037 3970 88 2900 240/03 RMK AO2 T10221039 TSNO
94299KAAT AAT20161219192511912/19/16 19:25:31  5-MIN KAAT 200325Z AUTO 25003KT 10SM BKN047 M02/M04 A3037 3970 88 2900 230/03 RMK AO2 T10221039 TSNO
94299KAAT AAT20161219193011912/19/16 19:30:31  5-MIN KAAT 200330Z AUTO 00000KT 10SM OVC047 M02/M04 A3037 3970 85 2900 000/00 RMK AO2 T10171039 TSNO
94299KAAT AAT20161219193511912/19/16 19:35:31  5-MIN KAAT 200335Z AUTO 00000KT 10SM OVC047 M02/M04 A3037 3970 85 2900 000/00 RMK AO2 T10171039 TSNO
94299KAAT AAT20161219194011912/19/16 19:40:31  5-MIN KAAT 200340Z AUTO 00000KT 10SM OVC047 M02/M04 A3037 3970 85 2900 000/00 RMK AO2 T10171039 TSNO
94299KAAT AAT20161219194511912/19/16 19:45:31  5-MIN KAAT 200345Z AUTO 00000KT 10SM OVC047 M01/M03 A3037 3960 85 3000 000/00 RMK AO2 T10111033 TSNO
94299KAAT AAT20161219195012612/19/16 19:50:31  5-MIN KAAT 200350Z AUTO 00000KT 10SM OVC045 M01/M03 A3038 3960 85 3000 000/00 RMK AO2 SLP323 T10111033 TSNO
94299KAAT AAT20161219195512612/19/16 19:55:31  5-MIN KAAT 200355Z AUTO 00000KT 10SM OVC043 M01/M03 A3037 3960 85 3000 000/00 RMK AO2 SLP322 T10111033 TSNO
94299KAAT AAT20161219200011912/19/16 20:00:31  5-MIN KAAT 200400Z AUTO 00000KT 10SM OVC043 M01/M03 A3038 3960 85 3000 000/00 RMK AO2 T10111033 TSNO
94299KAAT AAT20161219200511912/19/16 20:05:31  5-MIN KAAT 200405Z AUTO 00000KT 10SM OVC043 M01/M03 A3038 3960 85 3100 000/00 RMK AO2 T10061028 TSNO
94299KAAT AAT20161219201011912/19/16 20:10:31  5-MIN KAAT 200410Z AUTO 00000KT 10SM OVC043 M01/M03 A3037 3960 81 3100 000/00 RMK AO2 T10061033 TSNO
94299KAAT AAT20161219201511912/19/16 20:15:31  5-MIN KAAT 200415Z AUTO 00000KT 10SM OVC041 M01/M03 A3037 3970 85 3100 000/00 RMK AO2 T10061028 TSNO
94299KAAT AAT20161219202011812/19/16 20:20:31  5-MIN KAAT 200420Z AUTO 00000KT 8SM OVC043 M01/M03 A3037 3970 85 3100 000/00 RMK AO2 T10061028 TSNO
94299KAAT AAT20161219202511812/19/16 20:25:31  5-MIN KAAT 200425Z AUTO 00000KT 7SM OVC043 M01/M03 A3037 3970 81 3100 000/00 RMK AO2 T10061033 TSNO
94299KAAT AAT20161219203011812/19/16 20:30:31  5-MIN KAAT 200430Z AUTO 00000KT 8SM OVC043 M01/M03 A3037 3970 85 3100 000/00 RMK AO2 T10061028 TSNO
94299KAAT AAT20161219203511812/19/16 20:35:31  5-MIN KAAT 200435Z AUTO 00000KT 9SM OVC045 M01/M03 A3037 3970 85 3100 000/00 RMK AO2 T10061028 TSNO
94299KAAT AAT20161219204011812/19/16 20:40:31  5-MIN KAAT 200440Z AUTO 00000KT 8SM OVC045 M01/M03 A3037 3970 85 3100 000/00 RMK AO2 T10061028 TSNO
94299KAAT AAT20161219204511812/19/16 20:45:31  5-MIN KAAT 200445Z AUTO 00000KT 7SM OVC045 M01/M03 A3036 3970 85 3100 000/00 RMK AO2 T10061028 TSNO
94299KAAT AAT20161219205012512/19/16 20:50:31  5-MIN KAAT 200450Z AUTO 00000KT 9SM OVC047 M01/M03 A3036 3970 85 3100 000/00 RMK AO2 SLP315 T10061028 TSNO
94299KAAT AAT20161219205512612/19/16 20:55:31  5-MIN KAAT 200455Z AUTO 00000KT 10SM OVC047 M01/M03 A3036 3970 85 3000 000/00 RMK AO2 SLP316 T10111033 TSNO
94299KAAT AAT20161219210011912/19/16 21:00:31  5-MIN KAAT 200500Z AUTO 00000KT 10SM OVC045 M01/M03 A3037 3970 85 3000 000/00 RMK AO2 T10111033 TSNO
94299KAAT AAT20161219210511912/19/16 21:05:31  5-MIN KAAT 200505Z AUTO 00000KT 10SM BKN045 M01/M03 A3036 3970 85 3000 000/00 RMK AO2 T10111033 TSNO
94299KAAT AAT20161219211011912/19/16 21:10:31  5-MIN KAAT 200510Z AUTO 00000KT 10SM BKN045 M01/M03 A3036 3970 85 3000 000/00 RMK AO2 T10111033 TSNO
94299KAAT AAT20161219211511912/19/16 21:15:31  5-MIN KAAT 200515Z AUTO 00000KT 10SM BKN045 M01/M03 A3037 3970 85 3000 000/00 RMK AO2 T10111033 TSNO
94299KAAT AAT20161219212011912/19/16 21:20:31  5-MIN KAAT 200520Z AUTO 00000KT 10SM BKN045 M01/M03 A3037 3970 85 3000 000/00 RMK AO2 T10111033 TSNO
94299KAAT AAT20161219212511912/19/16 21:25:31  5-MIN KAAT 200525Z AUTO 00000KT 10SM BKN045 M01/M03 A3037 3970 85 3000 000/00 RMK AO2 T10111033 TSNO
94299KAAT AAT20161219213011912/19/16 21:30:31  5-MIN KAAT 200530Z AUTO 00000KT 10SM BKN045 M01/M03 A3037 3970 85 3000 000/00 RMK AO2 T10111033 TSNO
94299KAAT AAT20161219213511912/19/16 21:35:31  5-MIN KAAT 200535Z AUTO 00000KT 10SM OVC045 M01/M03 A3037 3970 88 3000 000/00 RMK AO2 T10111028 TSNO
94299KAAT AAT20161219214011912/19/16 21:40:31  5-MIN KAAT 200540Z AUTO 00000KT 10SM OVC045 M01/M03 A3037 3970 88 3000 000/00 RMK AO2 T10111028 TSNO
94299KAAT AAT20161219214511912/19/16 21:45:31  5-MIN KAAT 200545Z AUTO 00000KT 10SM OVC045 M01/M03 A3037 3970 88 3000 000/00 RMK AO2 T10111028 TSNO
94299KAAT AAT20161219215015112/19/16 21:50:31  5-MIN KAAT 200550Z AUTO 16003KT 10SM BKN045 OVC055 M01/M03 A3037 3970 88 3000 140/03 RMK AO2 SLP317 T10111028 10011 21022 55007 TSNO
94299KAAT AAT20161219215515112/19/16 21:55:31  5-MIN KAAT 200555Z AUTO 14003KT 10SM BKN045 BKN055 M01/M03 A3037 3970 85 3000 120/03 RMK AO2 SLP316 T10111033 10011 21022 51005 TSNO
94299KAAT AAT20161219220012612/19/16 22:00:31  5-MIN KAAT 200600Z AUTO 13004KT 10SM SCT047 BKN060 M02/M03 A3036 3970 88 2900 120/04 RMK AO2 T10171033 TSNO
94299KAAT AAT20161219220512512/19/16 22:05:31  5-MIN KAAT 200605Z AUTO 12004KT 8SM SCT047 BKN060 M02/M03 A3036 3970 88 2900 100/04 RMK AO2 T10171033 TSNO
94299KAAT AAT20161219221012512/19/16 22:10:31  5-MIN KAAT 200610Z AUTO 11003KT 7SM FEW045 SCT060 M02/M03 A3036 3970 88 2900 090/03 RMK AO2 T10171033 TSNO
94299KAAT AAT20161219221511812/19/16 22:15:31  5-MIN KAAT 200615Z AUTO 10003KT 8SM FEW060 M02/M03 A3036 3980 92 3000 090/03 RMK AO2 T10171028 TSNO
94299KAAT AAT20161219222011912/19/16 22:20:31  5-MIN KAAT 200620Z AUTO 00000KT 10SM FEW060 M02/M03 A3036 3980 92 3000 000/00 RMK AO2 T10171028 TSNO
94299KAAT AAT20161219222512612/19/16 22:25:31  5-MIN KAAT 200625Z AUTO 00000KT 10SM FEW040 FEW060 M02/M03 A3036 3970 92 2900 000/00 RMK AO2 T10221033 TSNO
94299KAAT AAT20161219223011812/19/16 22:30:31  5-MIN KAAT 200630Z AUTO 33004KT 9SM SCT040 M02/M03 A3037 3970 92 2900 320/04 RMK AO2 T10221033 TSNO
94299KAAT AAT20161219223511812/19/16 22:35:31  5-MIN KAAT 200635Z AUTO 33004KT 7SM BKN040 M02/M03 A3037 3970 88 2900 310/04 RMK AO2 T10171033 TSNO
94299KAAT AAT20161219224012112/19/16 22:40:31  5-MIN KAAT 200640Z AUTO 32003KT 6SM BR BKN041 M02/M03 A3036 3970 92 2900 310/03 RMK AO2 T10171028 TSNO
94299KAAT AAT20161219224511812/19/16 22:45:31  5-MIN KAAT 200645Z AUTO 31004KT 8SM BKN041 M02/M03 A3037 3970 92 2900 300/04 RMK AO2 T10171028 TSNO
94299KAAT AAT20161219225012612/19/16 22:50:31  5-MIN KAAT 200650Z AUTO 30004KT 10SM OVC041 M02/M03 A3037 3970 92 2900 290/04 RMK AO2 SLP312 T10171028 TSNO
94299KAAT AAT20161219225512612/19/16 22:55:31  5-MIN KAAT 200655Z AUTO 36004KT 10SM OVC041 M02/M03 A3036 3970 92 2900 350/04 RMK AO2 SLP311 T10171028 TSNO
94299KAAT AAT20161219230011912/19/16 23:00:31  5-MIN KAAT 200700Z AUTO 36003KT 10SM OVC041 M01/M03 A3036 3970 88 3000 350/03 RMK AO2 T10111028 TSNO
94299KAAT AAT20161219230511912/19/16 23:05:31  5-MIN KAAT 200705Z AUTO 35003KT 10SM OVC040 M01/M03 A3037 3970 88 3000 340/03 RMK AO2 T10111028 TSNO
94299KAAT AAT20161219231012612/19/16 23:10:31  5-MIN KAAT 200710Z AUTO 00000KT 10SM BKN040 OVC050 M01/M03 A3036 3980 85 3000 000/00 RMK AO2 T10111033 TSNO
94299KAAT AAT20161219231512612/19/16 23:15:31  5-MIN KAAT 200715Z AUTO 00000KT 10SM BKN042 OVC050 M01/M03 A3036 3980 85 3000 000/00 RMK AO2 T10111033 TSNO
94299KAAT AAT20161219232012612/19/16 23:20:31  5-MIN KAAT 200720Z AUTO 00000KT 10SM BKN042 OVC050 M01/M03 A3036 3980 81 3100 000/00 RMK AO2 T10061033 TSNO
94299KAAT AAT20161219232512612/19/16 23:25:31  5-MIN KAAT 200725Z AUTO 00000KT 10SM BKN042 OVC050 M01/M03 A3037 3970 81 3100 000/00 RMK AO2 T10061033 TSNO
94299KAAT AAT20161219233012512/19/16 23:30:31  5-MIN KAAT 200730Z AUTO 00000KT 10SM BKN042 OVC050 00/M04 A3037 3970 75 3100 000/00 RMK AO2 T00001039 TSNO
94299KAAT AAT20161219233512512/19/16 23:35:31  5-MIN KAAT 200735Z AUTO 00000KT 10SM BKN040 OVC050 00/M04 A3037 3970 75 3100 000/00 RMK AO2 T00001039 TSNO
94299KAAT AAT20161219234011812/19/16 23:40:31  5-MIN KAAT 200740Z AUTO 00000KT 10SM OVC040 01/M04 A3037 3970 72 3200 000/00 RMK AO2 T00061039 TSNO
94299KAAT AAT20161219234511812/19/16 23:45:31  5-MIN KAAT 200745Z AUTO 20003KT 10SM OVC040 01/M04 A3036 3970 72 3200 190/03 RMK AO2 T00061039 TSNO
94299KAAT AAT20161219235013512/19/16 23:50:31  5-MIN KAAT 200750Z AUTO 00000KT 10SM OVC040 00/M04 A3037 3970 75 3100 000/00 RMK AO2 SLP305 T00001039 400111122 TSNO
94299KAAT AAT20161219235513512/19/16 23:55:31  5-MIN KAAT 200755Z AUTO 17003KT 10SM OVC040 00/M04 A3036 3970 75 3200 160/03 RMK AO2 SLP303 T00001039 400111122 TSNO
94299KAAT AAT20161220000011812/20/16 00:00:31  5-MIN KAAT 200800Z AUTO 19005KT 10SM OVC040 00/M03 A3036 3980 78 3200 180/05 RMK AO2 T00001033 TSNO
94299KAAT AAT20161220000512612/20/16 00:05:31  5-MIN KAAT 200805Z AUTO 18004KT 10SM BKN039 OVC050 M01/M03 A3036 3980 81 3100 170/04 RMK AO2 T10061033 TSNO
94299KAAT AAT20161220001012612/20/16 00:10:31  5-MIN KAAT 200810Z AUTO 15003KT 10SM BKN039 OVC050 M01/M03 A3035 3980 81 3100 130/03 RMK AO2 T10061033 TSNO
94299KAAT AAT20161220001512612/20/16 00:15:31  5-MIN KAAT 200815Z AUTO 00000KT 10SM BKN039 OVC050 M01/M03 A3035 3990 81 3100 000/00 RMK AO2 T10061033 TSNO
94299KAAT AAT20161220002012612/20/16 00:20:31  5-MIN KAAT 200820Z AUTO 00000KT 10SM SCT039 OVC049 M01/M03 A3035 3980 81 3100 000/00 RMK AO2 T10061033 TSNO
94299KAAT AAT20161220002512612/20/16 00:25:31  5-MIN KAAT 200825Z AUTO 00000KT 10SM FEW039 OVC049 M01/M03 A3035 3980 85 3000 000/00 RMK AO2 T10111033 TSNO
94299KAAT AAT20161220003012612/20/16 00:30:31  5-MIN KAAT 200830Z AUTO 00000KT 10SM FEW039 BKN049 M01/M03 A3035 3990 85 3000 000/00 RMK AO2 T10111033 TSNO
94299KAAT AAT20161220003511912/20/16 00:35:31  5-MIN KAAT 200835Z AUTO 00000KT 10SM BKN049 M02/M03 A3035 3990 88 3000 000/00 RMK AO2 T10171033 TSNO
94299KAAT AAT20161220004011912/20/16 00:40:31  5-MIN KAAT 200840Z AUTO 00000KT 10SM SCT049 M02/M03 A3035 3990 88 3000 000/00 RMK AO2 T10171033 TSNO
94299KAAT AAT20161220004511912/20/16 00:45:31  5-MIN KAAT 200845Z AUTO 00000KT 10SM FEW049 M02/M04 A3035 3990 88 2900 000/00 RMK AO2 T10221039 TSNO
94299KAAT AAT20161220005013212/20/16 00:50:31  5-MIN KAAT 200850Z AUTO 00000KT 10SM FEW047 M02/M04 A3034 3990 85 3000 000/00 RMK AO2 SLP298 T10171039 51005 TSNO
94299KAAT AAT20161220005512912/20/16 00:55:31  5-MIN KAAT 200855Z AUTO 00000KT 10SM CLR M02/M04 A3034 3990 88 2900 000/00 RMK AO2 SLP297 T10221039 58007 TSNO
94299KAAT AAT20161220010011612/20/16 01:00:31  5-MIN KAAT 200900Z AUTO 00000KT 10SM CLR M02/M04 A3034 3990 88 2900 000/00 RMK AO2 T10221039 TSNO
94299KAAT AAT20161220010511612/20/16 01:05:31  5-MIN KAAT 200905Z AUTO 00000KT 10SM CLR M03/M04 A3034 3990 88 2800 000/00 RMK AO2 T10281044 TSNO
94299KAAT AAT20161220011011612/20/16 01:10:31  5-MIN KAAT 200910Z AUTO 00000KT 10SM CLR M03/M04 A3034 3990 92 2800 000/00 RMK AO2 T10331044 TSNO
94299KAAT AAT20161220011511612/20/16 01:15:31  5-MIN KAAT 200915Z AUTO 32003KT 10SM CLR M03/M04 A3034 3990 88 2800 310/03 RMK AO2 T10281044 TSNO
94299KAAT AAT20161220012011912/20/16 01:20:31  5-MIN KAAT 200920Z AUTO 32003KT 10SM FEW037 M03/M04 A3035 3990 88 2800 300/03 RMK AO2 T10281044 TSNO
94299KAAT AAT20161220012511912/20/16 01:25:31  5-MIN KAAT 200925Z AUTO 29003KT 10SM SCT037 M03/M04 A3035 3990 92 2800 280/03 RMK AO2 T10281039 TSNO
94299KAAT AAT20161220013011912/20/16 01:30:31  5-MIN KAAT 200930Z AUTO 00000KT 10SM BKN037 M03/M04 A3034 4000 92 2800 000/00 RMK AO2 T10281039 TSNO
94299KAAT AAT20161220013511912/20/16 01:35:31  5-MIN KAAT 200935Z AUTO 00000KT 10SM BKN039 M02/M04 A3034 4000 88 2900 000/00 RMK AO2 T10221039 TSNO
94299KAAT AAT20161220014011912/20/16 01:40:31  5-MIN KAAT 200940Z AUTO 00000KT 10SM BKN039 M02/M04 A3034 3990 88 2900 000/00 RMK AO2 T10221039 TSNO
94299KAAT AAT20161220014511912/20/16 01:45:31  5-MIN KAAT 200945Z AUTO 00000KT 10SM OVC039 M02/M03 A3034 3990 92 2900 000/00 RMK AO2 T10221033 TSNO
94299KAAT AAT20161220015012612/20/16 01:50:31  5-MIN KAAT 200950Z AUTO 00000KT 10SM OVC039 M02/M03 A3034 3990 88 3000 000/00 RMK AO2 SLP295 T10171033 TSNO
94299KAAT AAT20161220015512612/20/16 01:55:31  5-MIN KAAT 200955Z AUTO 00000KT 10SM OVC039 M02/M03 A3034 4000 92 3000 000/00 RMK AO2 SLP295 T10171028 TSNO
94299KAAT AAT20161220020011912/20/16 02:00:31  5-MIN KAAT 201000Z AUTO 00000KT 10SM OVC039 M01/M03 A3034 3990 88 3000 000/00 RMK AO2 T10111028 TSNO
94299KAAT AAT20161220020511912/20/16 02:05:31  5-MIN KAAT 201005Z AUTO 00000KT 10SM OVC039 M01/M03 A3035 3990 88 3000 000/00 RMK AO2 T10111028 TSNO
94299KAAT AAT20161220021011912/20/16 02:10:31  5-MIN KAAT 201010Z AUTO 00000KT 10SM OVC039 M02/M03 A3035 3990 92 3000 000/00 RMK AO2 T10171028 TSNO
94299KAAT AAT20161220021511912/20/16 02:15:31  5-MIN KAAT 201015Z AUTO 00000KT 10SM OVC039 M02/M03 A3034 3990 92 3000 000/00 RMK AO2 T10171028 TSNO
94299KAAT AAT20161220022011912/20/16 02:20:31  5-MIN KAAT 201020Z AUTO 00000KT 10SM OVC039 M02/M03 A3034 3990 92 2900 000/00 RMK AO2 T10221033 TSNO
94299KAAT AAT20161220022511812/20/16 02:25:31  5-MIN KAAT 201025Z AUTO 00000KT 8SM BKN038 M02/M03 A3034 4000 92 2900 000/00 RMK AO2 T10221033 TSNO
94299KAAT AAT20161220023012112/20/16 02:30:31  5-MIN KAAT 201030Z AUTO 00000KT 6SM BR BKN038 M02/M04 A3034 4000 88 2900 000/00 RMK AO2 T10221039 TSNO
94299KAAT AAT20161220023512112/20/16 02:35:31  5-MIN KAAT 201035Z AUTO 00000KT 5SM BR SCT038 M03/M04 A3035 3990 92 2800 000/00 RMK AO2 T10281039 TSNO
94299KAAT AAT20161220024012112/20/16 02:40:31  5-MIN KAAT 201040Z AUTO 00000KT 5SM BR FEW038 M03/M04 A3034 3990 92 2800 000/00 RMK AO2 T10281039 TSNO
94299KAAT AAT20161220024512112/20/16 02:45:31  5-MIN KAAT 201045Z AUTO 00000KT 5SM BR FEW037 M03/M04 A3034 4000 92 2800 000/00 RMK AO2 T10281039 TSNO
94299KAAT AAT20161220025012512/20/16 02:50:31  5-MIN KAAT 201050Z AUTO 30003KT 6SM BR CLR M03/M04 A3034 3990 92 2800 280/03 RMK AO2 SLP298 T10331044 TSNO
94299KAAT AAT20161220025512512/20/16 02:55:31  5-MIN KAAT 201055Z AUTO 00000KT 8SM FEW039 M03/M04 A3034 3990 92 2800 000/00 RMK AO2 SLP297 T10331044 TSNO
94299KAAT AAT20161220030011912/20/16 03:00:31  5-MIN KAAT 201100Z AUTO 00000KT 10SM SCT039 M03/M04 A3034 4000 92 2800 000/00 RMK AO2 T10331044 TSNO
94299KAAT AAT20161220030511912/20/16 03:05:31  5-MIN KAAT 201105Z AUTO 00000KT 10SM SCT039 M03/M04 A3034 4000 88 2800 000/00 RMK AO2 T10281044 TSNO
94299KAAT AAT20161220031011912/20/16 03:10:31  5-MIN KAAT 201110Z AUTO 00000KT 10SM BKN039 M03/M04 A3033 4000 92 2800 000/00 RMK AO2 T10331044 TSNO
94299KAAT AAT20161220031511912/20/16 03:15:31  5-MIN KAAT 201115Z AUTO 00000KT 10SM BKN038 M03/M04 A3034 4000 92 2800 000/00 RMK AO2 T10331044 TSNO
94299KAAT AAT20161220032011912/20/16 03:20:31  5-MIN KAAT 201120Z AUTO 00000KT 10SM BKN038 M03/M04 A3033 4000 92 2800 000/00 RMK AO2 T10331044 TSNO
94299KAAT AAT20161220032511912/20/16 03:25:31  5-MIN KAAT 201125Z AUTO 00000KT 10SM SCT038 M03/M04 A3033 4000 92 2800 000/00 RMK AO2 T10331044 TSNO
94299KAAT AAT20161220033011912/20/16 03:30:31  5-MIN KAAT 201130Z AUTO 00000KT 10SM SCT038 M04/M04 A3033 4000 96 2700 000/00 RMK AO2 T10391044 TSNO
94299KAAT AAT20161220033511912/20/16 03:35:31  5-MIN KAAT 201135Z AUTO 00000KT 10SM FEW038 M04/M04 A3033 4010 96 2700 000/00 RMK AO2 T10391044 TSNO
94299KAAT AAT20161220034012612/20/16 03:40:31  5-MIN KAAT 201140Z AUTO 00000KT 10SM FEW038 FEW050 M04/M04 A3033 4000 96 2700 000/00 RMK AO2 T10391044 TSNO
94299KAAT AAT20161220034511912/20/16 03:45:31  5-MIN KAAT 201145Z AUTO 00000KT 10SM FEW050 M04/M05 A3033 4000 92 2700 000/00 RMK AO2 T10391050 TSNO
94299KAAT AAT20161220035014412/20/16 03:50:31  5-MIN KAAT 201150Z AUTO 00000KT 10SM SCT048 M04/M05 A3033 4000 92 2700 000/00 RMK AO2 SLP294 T10391050 10006 21044 58007 TSNO
94299KAAT AAT20161220035514412/20/16 03:55:31  5-MIN KAAT 201155Z AUTO 00000KT 10SM BKN048 M04/M05 A3033 4000 96 2600 000/00 RMK AO2 SLP296 T10441050 10006 21044 58003 TSNO
94299KAAT AAT20161220040011912/20/16 04:00:31  5-MIN KAAT 201200Z AUTO 00000KT 10SM BKN048 M04/M05 A3033 4000 96 2600 000/00 RMK AO2 T10441050 TSNO
94299KAAT AAT20161220040511912/20/16 04:05:31  5-MIN KAAT 201205Z AUTO 00000KT 10SM BKN048 M04/M05 A3033 4000 92 2700 000/00 RMK AO2 T10391050 TSNO
94299KAAT AAT20161220041011912/20/16 04:10:31  5-MIN KAAT 201210Z AUTO 00000KT 10SM BKN048 M03/M04 A3033 4000 92 2800 000/00 RMK AO2 T10331044 TSNO
94299KAAT AAT20161220041511912/20/16 04:15:31  5-MIN KAAT 201215Z AUTO 00000KT 10SM BKN048 M03/M04 A3033 4000 92 2800 000/00 RMK AO2 T10331044 TSNO
94299KAAT AAT20161220042011912/20/16 04:20:31  5-MIN KAAT 201220Z AUTO 34003KT 10SM SCT048 M03/M04 A3033 4000 92 2800 330/03 RMK AO2 T10331044 TSNO
94299KAAT AAT20161220042512612/20/16 04:25:31  5-MIN KAAT 201225Z AUTO 00000KT 10SM FEW048 SCT060 M04/M05 A3033 4010 92 2700 000/00 RMK AO2 T10391050 TSNO
94299KAAT AAT20161220043012612/20/16 04:30:31  5-MIN KAAT 201230Z AUTO 00000KT 10SM FEW048 SCT060 M03/M04 A3033 4010 92 2800 000/00 RMK AO2 T10331044 TSNO
94299KAAT AAT20161220043511912/20/16 04:35:31  5-MIN KAAT 201235Z AUTO 29003KT 10SM FEW060 M03/M04 A3033 4010 92 2800 270/03 RMK AO2 T10331044 TSNO
94299KAAT AAT20161220044011912/20/16 04:40:31  5-MIN KAAT 201240Z AUTO 00000KT 10SM FEW060 M03/M04 A3032 4010 92 2800 000/00 RMK AO2 T10331044 TSNO
94299KAAT AAT20161220044511912/20/16 04:45:31  5-MIN KAAT 201245Z AUTO 00000KT 10SM FEW060 M03/M04 A3033 4010 92 2800 000/00 RMK AO2 T10331044 TSNO
94299KAAT AAT20161220045012612/20/16 04:50:31  5-MIN KAAT 201250Z AUTO 00000KT 10SM FEW060 M04/M04 A3032 4010 96 2700 000/00 RMK AO2 SLP293 T10391044 TSNO
94299KAAT AAT20161220045512612/20/16 04:55:31  5-MIN KAAT 201255Z AUTO 00000KT 10SM SCT060 M03/M04 A3032 4010 92 2800 000/00 RMK AO2 SLP291 T10331044 TSNO
94299KAAT AAT20161220050011912/20/16 05:00:31  5-MIN KAAT 201300Z AUTO 00000KT 10SM FEW060 M04/M04 A3032 4020 96 2700 000/00 RMK AO2 T10391044 TSNO
94299KAAT AAT20161220050511912/20/16 05:05:31  5-MIN KAAT 201305Z AUTO 34003KT 10SM FEW060 M04/M05 A3032 4010 96 2700 320/03 RMK AO2 T10441050 TSNO
94299KAAT AAT20161220051011912/20/16 05:10:31  5-MIN KAAT 201310Z AUTO 32003KT 10SM FEW060 M04/M05 A3032 4020 96 2700 310/03 RMK AO2 T10441050 TSNO
94299KAAT AAT20161220051511912/20/16 05:15:31  5-MIN KAAT 201315Z AUTO 00000KT 10SM FEW060 M04/M05 A3032 4020 96 2700 000/00 RMK AO2 T10441050 TSNO
94299KAAT AAT20161220052011912/20/16 05:20:31  5-MIN KAAT 201320Z AUTO 29003KT 10SM FEW055 M04/M05 A3032 4010 96 2700 280/03 RMK AO2 T10441050 TSNO
94299KAAT AAT20161220052511612/20/16 05:25:31  5-MIN KAAT 201325Z AUTO 00000KT 10SM CLR M04/M05 A3032 4020 96 2700 000/00 RMK AO2 T10441050 TSNO
94299KAAT AAT20161220053011612/20/16 05:30:31  5-MIN KAAT 201330Z AUTO 32003KT 10SM CLR M04/M06 A3032 4020 92 2700 310/03 RMK AO2 T10441056 TSNO
94299KAAT AAT20161220053511612/20/16 05:35:31  5-MIN KAAT 201335Z AUTO 32003KT 10SM CLR M04/M06 A3032 4010 92 2700 310/03 RMK AO2 T10441056 TSNO
94299KAAT AAT20161220054011612/20/16 05:40:31  5-MIN KAAT 201340Z AUTO 00000KT 10SM CLR M04/M06 A3032 4010 92 2700 000/00 RMK AO2 T10441056 TSNO
94299KAAT AAT20161220054511612/20/16 05:45:31  5-MIN KAAT 201345Z AUTO 00000KT 10SM CLR M04/M06 A3032 4020 92 2700 000/00 RMK AO2 T10441056 TSNO
94299KAAT AAT20161220055012312/20/16 05:50:31  5-MIN KAAT 201350Z AUTO 34003KT 10SM CLR M04/M06 A3032 4020 92 2700 320/03 RMK AO2 SLP292 T10441056 TSNO
94299KAAT AAT20161220055512312/20/16 05:55:31  5-MIN KAAT 201355Z AUTO 00000KT 10SM CLR M04/M05 A3032 4020 96 2700 000/00 RMK AO2 SLP292 T10441050 TSNO
94299KAAT AAT20161220060011612/20/16 06:00:31  5-MIN KAAT 201400Z AUTO 00000KT 10SM CLR M04/M05 A3031 4020 92 2700 000/00 RMK AO2 T10391050 TSNO
94299KAAT AAT20161220060511612/20/16 06:05:31  5-MIN KAAT 201405Z AUTO 00000KT 10SM CLR M04/M05 A3031 4020 92 2700 000/00 RMK AO2 T10391050 TSNO
94299KAAT AAT20161220061011612/20/16 06:10:31  5-MIN KAAT 201410Z AUTO 34003KT 10SM CLR M04/M05 A3032 4020 96 2700 330/03 RMK AO2 T10441050 TSNO
94299KAAT AAT20161220061511612/20/16 06:15:31  5-MIN KAAT 201415Z AUTO 00000KT 10SM CLR M05/M06 A3032 4020 96 2600 000/00 RMK AO2 T10501056 TSNO
94299KAAT AAT20161220062011612/20/16 06:20:31  5-MIN KAAT 201420Z AUTO 00000KT 10SM CLR M04/M06 A3032 4020 92 2700 000/00 RMK AO2 T10441056 TSNO
94299KAAT AAT20161220062511612/20/16 06:25:31  5-MIN KAAT 201425Z AUTO 35003KT 10SM CLR M04/M06 A3032 4020 92 2700 330/03 RMK AO2 T10441056 TSNO
94299KAAT AAT20161220063011612/20/16 06:30:31  5-MIN KAAT 201430Z AUTO 00000KT 10SM CLR M04/M06 A3031 4020 88 2700 000/00 RMK AO2 T10391056 TSNO
94299KAAT AAT20161220063511612/20/16 06:35:31  5-MIN KAAT 201435Z AUTO 00000KT 10SM CLR M04/M05 A3031 4020 96 2700 000/00 RMK AO2 T10441050 TSNO
94299KAAT AAT20161220064011512/20/16 06:40:31  5-MIN KAAT 201440Z AUTO 00000KT 9SM CLR M04/M05 A3031 4020 96 2700 000/00 RMK AO2 T10441050 TSNO
94299KAAT AAT20161220064511512/20/16 06:45:31  5-MIN KAAT 201445Z AUTO 00000KT 9SM CLR M05/M06 A3031 4020 96 2600 000/00 RMK AO2 T10501056 TSNO
94299KAAT AAT20161220065012812/20/16 06:50:31  5-MIN KAAT 201450Z AUTO 00000KT 8SM CLR M05/M06 A3031 4020 96 2600 000/00 RMK AO2 SLP294 T10501056 58003 TSNO
94299KAAT AAT20161220065513112/20/16 06:55:31  5-MIN KAAT 201455Z AUTO 00000KT 6SM BR CLR M05/M06 A3031 4020 96 2600 000/00 RMK AO2 SLP293 T10501056 56007 TSNO
94299KAAT AAT20161220070011812/20/16 07:00:31  5-MIN KAAT 201500Z AUTO 00000KT 6SM BR CLR M05/M06 A3031 4020 92 2600 000/00 RMK AO2 T10501061 TSNO
94299KAAT AAT20161220070511812/20/16 07:05:31  5-MIN KAAT 201505Z AUTO 03003KT 7SM FEW090 M06/M06 A3031 4020 96 2500 020/03 RMK AO2 T10561061 TSNO
94299KAAT AAT20161220071011812/20/16 07:10:31  5-MIN KAAT 201510Z AUTO VRB03KT 7SM FEW090 M05/M06 A3031 4020 92 2600 VRB/03 RMK AO2 T10501061 TSNO
94299KAAT AAT20161220071512112/20/16 07:15:31  5-MIN KAAT 201515Z AUTO 00000KT 4SM BR FEW090 M05/M06 A3031 4020 96 2600 000/00 RMK AO2 T10501056 TSNO
94299KAAT AAT20161220072012812/20/16 07:20:31  5-MIN KAAT 201520Z AUTO 00000KT 4SM BR FEW055 SCT090 M05/M06 A3031 4020 96 2600 000/00 RMK AO2 T10501056 TSNO
94299KAAT AAT20161220072512812/20/16 07:25:31  5-MIN KAAT 201525Z AUTO 00000KT 4SM BR SCT055 SCT090 M05/M06 A3031 4020 96 2600 000/00 RMK AO2 T10501056 TSNO
94299KAAT AAT20161220073012812/20/16 07:30:31  5-MIN KAAT 201530Z AUTO 00000KT 4SM BR SCT050 BKN090 M05/M06 A3031 4020 92 2600 000/00 RMK AO2 T10501061 TSNO
94299KAAT AAT20161220073512112/20/16 07:35:31  5-MIN KAAT 201535Z AUTO 00000KT 4SM BR BKN050 M06/M06 A3031 4020 96 2500 000/00 RMK AO2 T10561061 TSNO
94299KAAT AAT20161220074012112/20/16 07:40:31  5-MIN KAAT 201540Z AUTO 00000KT 5SM BR BKN050 M05/M06 A3031 4020 96 2600 000/00 RMK AO2 T10501056 TSNO
94299KAAT AAT20161220074512112/20/16 07:45:31  5-MIN KAAT 201545Z AUTO 00000KT 6SM BR OVC050 M04/M06 A3031 4020 92 2700 000/00 RMK AO2 T10441056 TSNO
94299KAAT AAT20161220075012812/20/16 07:50:31  5-MIN KAAT 201550Z AUTO 14003KT 6SM BR OVC050 M04/M05 A3032 4020 96 2700 120/03 RMK AO2 SLP294 T10441050 TSNO
94299KAAT AAT20161220075512512/20/16 07:55:31  5-MIN KAAT 201555Z AUTO 00000KT 8SM OVC050 M04/M05 A3032 4020 96 2700 000/00 RMK AO2 SLP294 T10441050 TSNO
94299KAAT AAT20161220080011912/20/16 08:00:31  5-MIN KAAT 201600Z AUTO 00000KT 10SM BKN050 M04/M05 A3032 4020 96 2700 000/00 RMK AO2 T10441050 TSNO
94299KAAT AAT20161220080511912/20/16 08:05:31  5-MIN KAAT 201605Z AUTO 00000KT 10SM BKN050 M04/M05 A3032 4020 96 2700 000/00 RMK AO2 T10441050 TSNO
94299KAAT AAT20161220081012612/20/16 08:10:31  5-MIN KAAT 201610Z AUTO 00000KT 10SM SCT050 BKN095 M04/M04 A3031 4020 96 2700 000/00 RMK AO2 T10391044 TSNO
94299KAAT AAT20161220081512612/20/16 08:15:31  5-MIN KAAT 201615Z AUTO 00000KT 10SM FEW050 BKN095 M04/M04 A3032 4020 96 2700 000/00 RMK AO2 T10391044 TSNO
94299KAAT AAT20161220082012612/20/16 08:20:31  5-MIN KAAT 201620Z AUTO 00000KT 10SM FEW050 BKN090 M03/M04 A3032 4020 92 2800 000/00 RMK AO2 T10331044 TSNO
94299KAAT AAT20161220082511912/20/16 08:25:31  5-MIN KAAT 201625Z AUTO 00000KT 10SM BKN090 M03/M04 A3032 4010 96 2800 000/00 RMK AO2 T10331039 TSNO
94299KAAT AAT20161220083011912/20/16 08:30:31  5-MIN KAAT 201630Z AUTO 00000KT 10SM BKN090 M03/M04 A3032 4010 92 2900 000/00 RMK AO2 T10281039 TSNO
94299KAAT AAT20161220083511912/20/16 08:35:31  5-MIN KAAT 201635Z AUTO 00000KT 10SM BKN090 M03/M04 A3032 4010 92 2900 000/00 RMK AO2 T10281039 TSNO
94299KAAT AAT20161220084011912/20/16 08:40:31  5-MIN KAAT 201640Z AUTO 00000KT 10SM BKN090 M02/M03 A3032 4010 92 2900 000/00 RMK AO2 T10221033 TSNO
94299KAAT AAT20161220084511912/20/16 08:45:31  5-MIN KAAT 201645Z AUTO 00000KT 10SM BKN090 M02/M03 A3032 4010 92 2900 000/00 RMK AO2 T10221033 TSNO
94299KAAT AAT20161220085012612/20/16 08:50:31  5-MIN KAAT 201650Z AUTO 00000KT 10SM BKN090 M02/M03 A3032 4010 92 3000 000/00 RMK AO2 SLP291 T10171028 TSNO
94299KAAT AAT20161220085512612/20/16 08:55:31  5-MIN KAAT 201655Z AUTO 00000KT 10SM BKN090 M02/M03 A3033 4010 92 3000 000/00 RMK AO2 SLP292 T10171028 TSNO
94299KAAT AAT20161220090012512/20/16 09:00:31  5-MIN KAAT 201700Z AUTO 00000KT 9SM FEW055 BKN090 M01/M03 A3033 4010 88 3100 000/00 RMK AO2 T10111028 TSNO
94299KAAT AAT20161220090512512/20/16 09:05:31  5-MIN KAAT 201705Z AUTO 00000KT 9SM FEW060 BKN090 M01/M03 A3032 4010 88 3100 000/00 RMK AO2 T10111028 TSNO
94299KAAT AAT20161220091012612/20/16 09:10:31  5-MIN KAAT 201710Z AUTO 00000KT 10SM FEW055 OVC090 M01/M02 A3032 4010 88 3100 000/00 RMK AO2 T10061022 TSNO
94299KAAT AAT20161220091512512/20/16 09:15:31  5-MIN KAAT 201715Z AUTO 00000KT 10SM FEW055 OVC090 00/M02 A3033 4010 85 3200 000/00 RMK AO2 T00001022 TSNO
94299KAAT AAT20161220092012512/20/16 09:20:31  5-MIN KAAT 201720Z AUTO 00000KT 10SM SCT055 OVC090 00/M02 A3033 4010 85 3200 000/00 RMK AO2 T00001022 TSNO
94299KAAT AAT20161220092512512/20/16 09:25:31  5-MIN KAAT 201725Z AUTO 00000KT 10SM BKN055 OVC090 00/M02 A3033 4000 88 3200 000/00 RMK AO2 T00001017 TSNO
94299KAAT AAT20161220093012512/20/16 09:30:31  5-MIN KAAT 201730Z AUTO 00000KT 10SM BKN055 OVC090 00/M02 A3033 4000 85 3200 000/00 RMK AO2 T00001022 TSNO
94299KAAT AAT20161220093512512/20/16 09:35:31  5-MIN KAAT 201735Z AUTO 00000KT 10SM BKN055 OVC090 00/M02 A3033 4000 85 3200 000/00 RMK AO2 T00001022 TSNO
94299KAAT AAT20161220094011812/20/16 09:40:31  5-MIN KAAT 201740Z AUTO 00000KT 10SM OVC055 00/M02 A3033 4000 85 3200 000/00 RMK AO2 T00001022 TSNO
94299KAAT AAT20161220094511812/20/16 09:45:31  5-MIN KAAT 201745Z AUTO 00000KT 10SM OVC055 01/M02 A3034 4000 82 3300 000/00 RMK AO2 T00061022 TSNO
94299KAAT AAT20161220095014312/20/16 09:50:31  5-MIN KAAT 201750Z AUTO 00000KT 10SM OVC055 01/M02 A3034 4000 82 3300 000/00 RMK AO2 SLP292 T00061022 10006 21056 56007 TSNO
94299KAAT AAT20161220095514312/20/16 09:55:31  5-MIN KAAT 201755Z AUTO 00000KT 10SM OVC055 01/M02 A3034 4000 82 3300 000/00 RMK AO2 SLP292 T00061022 10006 21056 53008 TSNO
94299KAAT AAT20161220100011812/20/16 10:00:31  5-MIN KAAT 201800Z AUTO 00000KT 10SM OVC055 01/M02 A3034 4000 82 3200 000/00 RMK AO2 T00061022 TSNO
94299KAAT AAT20161220100511812/20/16 10:05:31  5-MIN KAAT 201805Z AUTO 00000KT 10SM OVC055 01/M02 A3034 4000 82 3200 000/00 RMK AO2 T00061022 TSNO
94299KAAT AAT20161220101011812/20/16 10:10:31  5-MIN KAAT 201810Z AUTO 00000KT 10SM OVC055 01/M02 A3034 3990 82 3300 000/00 RMK AO2 T00111017 TSNO
94299KAAT AAT20161220101511812/20/16 10:15:31  5-MIN KAAT 201815Z AUTO 00000KT 10SM OVC055 01/M02 A3034 4000 82 3300 000/00 RMK AO2 T00111017 TSNO
94299KAAT AAT20161220102012512/20/16 10:20:31  5-MIN KAAT 201820Z AUTO 00000KT 10SM FEW044 OVC055 01/M02 A3034 4000 82 3300 000/00 RMK AO2 T00111017 TSNO
94299KAAT AAT20161220102512512/20/16 10:25:31  5-MIN KAAT 201825Z AUTO 00000KT 10SM FEW044 OVC055 01/M02 A3034 3990 82 3300 000/00 RMK AO2 T00111017 TSNO
94299KAAT AAT20161220103012512/20/16 10:30:31  5-MIN KAAT 201830Z AUTO 00000KT 10SM SCT043 OVC055 01/M02 A3034 4000 82 3300 000/00 RMK AO2 T00111017 TSNO
94299KAAT AAT20161220103512512/20/16 10:35:31  5-MIN KAAT 201835Z AUTO 00000KT 10SM SCT043 OVC055 01/M01 A3034 4000 85 3300 000/00 RMK AO2 T00111011 TSNO
94299KAAT AAT20161220104012512/20/16 10:40:31  5-MIN KAAT 201840Z AUTO 00000KT 10SM SCT043 OVC050 02/M01 A3033 4000 82 3400 000/00 RMK AO2 T00171011 TSNO
94299KAAT AAT20161220104512512/20/16 10:45:31  5-MIN KAAT 201845Z AUTO 00000KT 10SM SCT043 OVC050 02/M01 A3033 4000 82 3400 000/00 RMK AO2 T00171011 TSNO
94299KAAT AAT20161220105013212/20/16 10:50:31  5-MIN KAAT 201850Z AUTO 00000KT 10SM FEW043 OVC050 02/M01 A3033 4000 82 3400 000/00 RMK AO2 SLP291 T00171011 TSNO
94299KAAT AAT20161220105513212/20/16 10:55:31  5-MIN KAAT 201855Z AUTO 00000KT 10SM SCT043 OVC050 02/M01 A3033 4000 82 3400 000/00 RMK AO2 SLP291 T00171011 TSNO
94299KAAT AAT20161220110012512/20/16 11:00:31  5-MIN KAAT 201900Z AUTO 00000KT 10SM SCT041 OVC050 02/M01 A3033 4010 82 3400 000/00 RMK AO2 T00171011 TSNO
94299KAAT AAT20161220110512512/20/16 11:05:31  5-MIN KAAT 201905Z AUTO 00000KT 10SM BKN041 OVC050 02/M01 A3032 4010 82 3400 000/00 RMK AO2 T00171011 TSNO
94299KAAT AAT20161220111012512/20/16 11:10:31  5-MIN KAAT 201910Z AUTO 00000KT 10SM SCT043 OVC050 02/M01 A3032 4010 85 3400 000/00 RMK AO2 T00171006 TSNO
94299KAAT AAT20161220111512512/20/16 11:15:31  5-MIN KAAT 201915Z AUTO 00000KT 10SM BKN045 OVC050 02/M01 A3032 4010 85 3400 000/00 RMK AO2 T00171006 TSNO
94299KAAT AAT20161220112012512/20/16 11:20:31  5-MIN KAAT 201920Z AUTO 00000KT 10SM SCT043 OVC050 02/M01 A3032 4010 82 3500 000/00 RMK AO2 T00221006 TSNO
94299KAAT AAT20161220112512512/20/16 11:25:31  5-MIN KAAT 201925Z AUTO 00000KT 10SM BKN043 OVC050 02/M01 A3032 4010 78 3500 000/00 RMK AO2 T00221011 TSNO
94299KAAT AAT20161220113013312/20/16 11:30:31  5-MIN KAAT 201930Z AUTO 00000KT 10SM UP OVC046 02/M01 A3032 4010 78 3500 000/00 RMK AO2 UPB30 P0000 T00221011 TSNO
94299KAAT AAT20161220113514212/20/16 11:35:31  5-MIN KAAT 201935Z AUTO 00000KT 10SM -RA OVC048 02/M01 A3032 4020 78 3500 000/00 RMK AO2 UPB30E35RAB35 P0000 T00221011 TSNO
94299KAAT AAT20161220114014912/20/16 11:40:31  5-MIN KAAT 201940Z AUTO 00000KT 10SM -RA BKN048 OVC055 02/M01 A3032 4020 82 3500 000/00 RMK AO2 UPB30E35RAB35 P0000 T00221006 TSNO
94299KAAT AAT20161220114514912/20/16 11:45:31  5-MIN KAAT 201945Z AUTO 00000KT 10SM -RA BKN048 OVC055 02/M01 A3032 4020 82 3500 000/00 RMK AO2 UPB30E35RAB35 P0000 T00221006 TSNO
94299KAAT AAT20161220115015512/20/16 11:50:31  5-MIN KAAT 201950Z AUTO 00000KT 10SM UP BKN045 OVC055 02/M01 A3032 4020 82 3500 000/00 RMK AO2 UPB30RAB35E47 SLP281 P0000 T00221006 TSNO
94299KAAT AAT20161220115515512/20/16 11:55:31  5-MIN KAAT 201955Z AUTO 00000KT 10SM UP BKN045 OVC055 02/M01 A3032 4020 78 3500 000/00 RMK AO2 UPB30RAB35E47 SLP281 P0000 T00221011 TSNO
94299KAAT AAT20161220120013412/20/16 12:00:31  5-MIN KAAT 202000Z AUTO 00000KT 10SM UP BKN041 OVC050 03/M01 A3032 4020 79 3500 000/00 RMK AO2 P0000 T00281006 TSNO
94299KAAT AAT20161220120512712/20/16 12:05:31  5-MIN KAAT 202005Z AUTO 00000KT 10SM UP OVC041 02/M01 A3032 4020 82 3500 000/00 RMK AO2 P0000 T00221006 TSNO
94299KAAT AAT20161220121014512/20/16 12:10:31  5-MIN KAAT 202010Z AUTO 00000KT 10SM -RA BKN037 OVC044 02/01 A3032 4020 89 3500 000/00 RMK AO2 UPE08RAB08 P0000 T00220006 TSNO
94299KAAT AAT20161220121513812/20/16 12:15:31  5-MIN KAAT 202015Z AUTO 31003KT 10SM -RA OVC039 02/00 A3032 4020 85 3500 300/03 RMK AO2 UPE08RAB08 P0000 T00220000 TSNO
94299KAAT AAT20161220122013812/20/16 12:20:31  5-MIN KAAT 202020Z AUTO 33003KT 10SM -RA OVC037 02/00 A3032 4020 85 3500 310/03 RMK AO2 UPE08RAB08 P0000 T00220000 TSNO
94299KAAT AAT20161220122513512/20/16 12:25:31  5-MIN KAAT 202025Z AUTO 32003KT 10SM UP OVC035 02/00 A3032 4010 89 3400 310/03 RMK AO2 RAB08E21 P0000 T00170000 TSNO
94299KAAT AAT20161220123013812/20/16 12:30:31  5-MIN KAAT 202030Z AUTO 00000KT 10SM -RA OVC035 02/01 A3032 4020 89 3500 000/00 RMK AO2 UPE28RAB08 P0000 T00220006 TSNO
94299KAAT AAT20161220123513812/20/16 12:35:31  5-MIN KAAT 202035Z AUTO 33005KT 10SM -RA OVC033 02/01 A3032 4010 89 3500 320/05 RMK AO2 UPE28RAB08 P0000 T00220006 TSNO
94299KAAT AAT20161220124013812/20/16 12:40:31  5-MIN KAAT 202040Z AUTO 00000KT 10SM -RA OVC033 02/01 A3032 4010 89 3500 000/00 RMK AO2 UPE28RAB08 P0001 T00220006 TSNO
94299KAAT AAT20161220124514212/20/16 12:45:31  5-MIN KAAT 202045Z AUTO 00000KT 10SM UP BKN028 OVC035 02/01 A3032 4010 92 3500 000/00 RMK AO2 RAB08E42 P0001 T00220011 TSNO
94299KAAT AAT20161220125015412/20/16 12:50:31  5-MIN KAAT 202050Z AUTO 00000KT 10SM UP OVC030 02/01 A3032 4010 92 3500 000/00 RMK AO2 RAB08E42 SLP286 P0001 60001 T00220011 53008 TSNO
94299KAAT AAT20161220125515612/20/16 12:55:31  5-MIN KAAT 202055Z AUTO 00000KT 10SM OVC030 02/01 A3032 4010 92 3500 000/00 RMK AO2 UPE54RAB08E42 SLP288 P0001 60001 T00220011 55004 TSNO
94299KAAT AAT20161220130011712/20/16 13:00:31  5-MIN KAAT 202100Z AUTO 00000KT 10SM OVC030 02/01 A3032 4010 96 3400 000/00 RMK AO2 T00170011 TSNO
94299KAAT AAT20161220130513312/20/16 13:05:31  5-MIN KAAT 202105Z AUTO 00000KT 10SM -RA OVC030 02/01 A3033 4010 92 3400 000/00 RMK AO2 RAB03 P0000 T00170006 TSNO
94299KAAT AAT20161220131013312/20/16 13:10:31  5-MIN KAAT 202110Z AUTO 00000KT 10SM -RA OVC028 02/01 A3033 4010 96 3400 000/00 RMK AO2 RAB03 P0000 T00170011 TSNO
94299KAAT AAT20161220131514012/20/16 13:15:31  5-MIN KAAT 202115Z AUTO 00000KT 10SM -RA SCT022 OVC029 02/01 A3033 4010 92 3500 000/00 RMK AO2 RAB03 P0000 T00220011 TSNO
94299KAAT AAT20161220132014012/20/16 13:20:31  5-MIN KAAT 202120Z AUTO 00000KT 10SM -RA BKN020 OVC029 02/01 A3033 4010 92 3500 000/00 RMK AO2 RAB03 P0000 T00220011 TSNO
94299KAAT AAT20161220132514012/20/16 13:25:31  5-MIN KAAT 202125Z AUTO 00000KT 10SM -RA BKN020 OVC027 02/02 A3033 4010 96 3500 000/00 RMK AO2 RAB03 P0000 T00220017 TSNO
94299KAAT AAT20161220133013912/20/16 13:30:31  5-MIN KAAT 202130Z AUTO 15003KT 9SM -RA BKN022 OVC027 02/01 A3033 4010 92 3500 130/03 RMK AO2 RAB03 P0001 T00220011 TSNO
94299KAAT AAT20161220133514012/20/16 13:35:31  5-MIN KAAT 202135Z AUTO 15004KT 10SM -RA BKN022 OVC029 02/02 A3033 4010 96 3500 140/04 RMK AO2 RAB03 P0001 T00220017 TSNO
94299KAAT AAT20161220134014712/20/16 13:40:31  5-MIN KAAT 202140Z AUTO 15003KT 10SM -RA SCT022 SCT027 OVC032 02/02 A3033 4010 96 3500 130/03 RMK AO2 RAB03 P0001 T00220017 TSNO
94299KAAT AAT20161220134514612/20/16 13:45:31  5-MIN KAAT 202145Z AUTO 16003KT 9SM -RA SCT020 SCT027 OVC032 02/02 A3033 4010 96 3500 140/03 RMK AO2 RAB03 P0002 T00220017 TSNO
94299KAAT AAT20161220135015312/20/16 13:50:31  5-MIN KAAT 202150Z AUTO 17004KT 8SM -RA FEW020 SCT026 OVC034 02/02 A3033 4010 96 3500 160/04 RMK AO2 RAB03 SLP288 P0002 T00220017 TSNO
94299KAAT AAT20161220135515312/20/16 13:55:31  5-MIN KAAT 202155Z AUTO 18004KT 8SM -RA FEW018 FEW026 OVC036 02/02 A3033 4000 96 3500 170/04 RMK AO2 RAB03 SLP288 P0002 T00220017 TSNO
94299KAAT AAT20161220140014012/20/16 14:00:31  5-MIN KAAT 202200Z AUTO 18005KT 8SM -RA FEW018 BKN036 OVC048 02/02 A3033 4010 96 3500 160/05 RMK AO2 P0000 T00220017 TSNO
94299KAAT AAT20161220140514012/20/16 14:05:31  5-MIN KAAT 202205Z AUTO 18005KT 7SM -RA FEW018 BKN038 OVC048 02/02 A3032 4010 96 3500 160/05 RMK AO2 P0001 T00220017 TSNO
94299KAAT AAT20161220141013312/20/16 14:10:31  5-MIN KAAT 202210Z AUTO 16006KT 7SM -RA FEW018 OVC040 02/01 A3032 4010 96 3400 140/06 RMK AO2 P0001 T00170011 TSNO
94299KAAT AAT20161220141513312/20/16 14:15:31  5-MIN KAAT 202215Z AUTO 00000KT 7SM -RA BKN038 OVC049 02/01 A3033 4000 96 3400 000/00 RMK AO2 P0001 T00170011 TSNO
94299KAAT AAT20161220142014112/20/16 14:20:31  5-MIN KAAT 202220Z AUTO 20004KT 8SM -RA FEW008 BKN038 OVC047 02/02 A3033 4010 100 3400 190/04 RMK AO2 P0002 T00170017 TSNO
94299KAAT AAT20161220142514112/20/16 14:25:31  5-MIN KAAT 202225Z AUTO 20003KT 10SM -RA FEW006 BKN042 OVC050 02/02 A3033 4000 96 3500 180/03 RMK AO2 P0002 T00220017 TSNO
94299KAAT AAT20161220143015112/20/16 14:30:31  5-MIN KAAT 202230Z AUTO 00000KT 10SM FEW008 BKN042 OVC070 02/02 A3034 3990 96 3400 000/00 RMK AO2 RAE27UPB27E29 P0002 T00220017 TSNO
94299KAAT AAT20161220143515112/20/16 14:35:31  5-MIN KAAT 202235Z AUTO 00000KT 10SM SCT006 BKN042 OVC050 02/02 A3034 4000 96 3500 000/00 RMK AO2 RAE27UPB27E29 P0002 T00220017 TSNO
94299KAAT AAT20161220144014412/20/16 14:40:31  5-MIN KAAT 202240Z AUTO 21003KT 10SM BKN006 OVC044 02/02 A3033 4000 96 3500 190/03 RMK AO2 RAE27UPB27E29 P0002 T00220017 TSNO
94299KAAT AAT20161220144515112/20/16 14:45:31  5-MIN KAAT 202245Z AUTO 18004KT 10SM BKN006 BKN055 OVC075 02/02 A3032 4010 96 3500 170/04 RMK AO2 RAE27UPB27E29 P0002 T00220017 TSNO
94299KAAT AAT20161220145015812/20/16 14:50:31  5-MIN KAAT 202250Z AUTO 20004KT 10SM BKN006 BKN060 OVC080 02/02 A3033 4010 96 3500 180/04 RMK AO2 RAE27UPB27E29 SLP290 P0002 T00220017 TSNO
94299KAAT AAT20161220145517012/20/16 14:55:31  5-MIN KAAT 202255Z AUTO 15003KT 10SM BKN006 BKN080 OVC095 02/02 A3032 4010 96 3500 140/03 RMK AO2 RAE27UPB27E29 CIG 005V013 SLP289 P0002 T00220017 TSNO
94299KAAT AAT20161220150013112/20/16 15:00:31  5-MIN KAAT 202300Z AUTO 00000KT 10SM BKN006 BKN080 OVC100 02/02 A3032 4010 96 3500 000/00 RMK AO2 T00220017 TSNO
94299KAAT AAT20161220150512412/20/16 15:05:31  5-MIN KAAT 202305Z AUTO 32007KT 10SM BKN006 OVC080 02/02 A3034 4000 96 3500 300/07 RMK AO2 T00220017 TSNO
94299KAAT AAT20161220151012412/20/16 15:10:31  5-MIN KAAT 202310Z AUTO 34005KT 10SM BKN006 OVC080 02/01 A3033 4000 96 3400 330/05 RMK AO2 T00170011 TSNO
94299KAAT AAT20161220151512412/20/16 15:15:31  5-MIN KAAT 202315Z AUTO 00000KT 10SM BKN006 OVC080 01/01 A3033 4010 96 3300 000/00 RMK AO2 T00110006 TSNO
94299KAAT AAT20161220152011712/20/16 15:20:31  5-MIN KAAT 202320Z AUTO 00000KT 10SM OVC006 02/01 A3033 4000 96 3400 000/00 RMK AO2 T00170011 TSNO
94299KAAT AAT20161220152511712/20/16 15:25:31  5-MIN KAAT 202325Z AUTO 00000KT 10SM OVC006 02/01 A3034 4000 96 3400 000/00 RMK AO2 T00170011 TSNO
94299KAAT AAT20161220153011712/20/16 15:30:31  5-MIN KAAT 202330Z AUTO 29004KT 10SM OVC006 02/01 A3034 3990 96 3400 270/04 RMK AO2 T00170011 TSNO
94299KAAT AAT20161220153511712/20/16 15:35:31  5-MIN KAAT 202335Z AUTO 27004KT 10SM OVC006 02/01 A3034 3990 96 3400 260/04 RMK AO2 T00170011 TSNO
94299KAAT AAT20161220154011712/20/16 15:40:31  5-MIN KAAT 202340Z AUTO 00000KT 10SM OVC006 02/01 A3035 3990 96 3400 000/00 RMK AO2 T00170011 TSNO
94299KAAT AAT20161220154511712/20/16 15:45:31  5-MIN KAAT 202345Z AUTO 19004KT 10SM OVC006 02/01 A3034 4000 96 3400 170/04 RMK AO2 T00170011 TSNO
94299KAAT AAT20161220155015512/20/16 15:50:31  5-MIN KAAT 202350Z AUTO 17008KT 10SM BKN006 OVC060 02/01 A3033 4010 96 3400 160/08 RMK AO2 SLP292 60005 T00170011 10028 20006 55004 TSNO
94299KAAT AAT20161220155516912/20/16 15:55:31  5-MIN KAAT 202355Z AUTO 15008KT 10SM BKN006 BKN037 OVC060 02/01 A3031 4020 96 3400 140/08 RMK AO2 PRESFR SLP286 60005 T00170011 10028 20006 58004 TSNO
94299KAAT AAT20161220160013112/20/16 16:00:31  5-MIN KAAT 210000Z AUTO 14006KT 10SM SCT006 BKN039 OVC065 01/01 A3031 4020 96 3300 130/06 RMK AO2 T00110006 TSNO
94299KAAT AAT20161220160513212/20/16 16:05:31  5-MIN KAAT 210005Z AUTO 15008KT 10SM FEW006 SCT039 OVC070 01/01 A3031 4030 100 3400 130/08 RMK AO2 T00110011 TSNO
94299KAAT AAT20161220161013112/20/16 16:10:31  5-MIN KAAT 210010Z AUTO 15006KT 10SM FEW006 BKN065 OVC080 02/01 A3031 4020 96 3400 140/06 RMK AO2 T00170011 TSNO
94299KAAT AAT20161220161513112/20/16 16:15:31  5-MIN KAAT 210015Z AUTO 16007KT 10SM FEW038 BKN065 OVC080 02/01 A3031 4020 96 3400 150/07 RMK AO2 T00170011 TSNO
94299KAAT AAT20161220162012412/20/16 16:20:31  5-MIN KAAT 210020Z AUTO 16005KT 10SM SCT070 OVC085 02/01 A3032 4020 96 3400 140/05 RMK AO2 T00170011 TSNO
94299KAAT AAT20161220162512412/20/16 16:25:31  5-MIN KAAT 210025Z AUTO 14004KT 10SM BKN075 OVC090 02/01 A3032 4020 96 3400 130/04 RMK AO2 T00170011 TSNO
94299KAAT AAT20161220163012512/20/16 16:30:31  5-MIN KAAT 210030Z AUTO 00000KT 10SM BKN075 OVC090 02/02 A3032 4010 100 3400 000/00 RMK AO2 T00170017 TSNO
94299KAAT AAT20161220163512512/20/16 16:35:31  5-MIN KAAT 210035Z AUTO 00000KT 10SM SCT011 OVC085 02/02 A3032 4010 100 3400 000/00 RMK AO2 T00170017 TSNO
94299KAAT AAT20161220164012412/20/16 16:40:31  5-MIN KAAT 210040Z AUTO 35003KT 10SM BKN011 OVC085 02/01 A3032 4010 96 3400 330/03 RMK AO2 T00170011 TSNO
94299KAAT AAT20161220164512412/20/16 16:45:31  5-MIN KAAT 210045Z AUTO 35004KT 10SM BKN012 OVC090 02/01 A3032 4020 96 3400 340/04 RMK AO2 T00170011 TSNO
94299KAAT AAT20161220165012112/20/16 16:50:31  5-MIN KAAT 210050Z AUTO 00000KT 10SM SCT012 BKN075 OVC090 02/01 A3032 4020 96 3400 000/00 RMK AO2 TSNO
94299KAAT AAT20161220165513912/20/16 16:55:31  5-MIN KAAT 210055Z AUTO 35003KT 10SM SCT012 SCT070 OVC095 01/01 A3032 4020 100 3300 340/03 RMK AO2 SLP289 T00110011 TSNO
94299KAAT AAT20161220170012312/20/16 17:00:31  5-MIN KAAT 210100Z AUTO 34004KT 9SM SCT012 OVC100 01/01 A3032 4020 96 3300 330/04 RMK AO2 T00110006 TSNO
94299KAAT AAT20161220170512312/20/16 17:05:31  5-MIN KAAT 210105Z AUTO 34004KT 9SM FEW012 OVC100 01/01 A3032 4010 96 3300 320/04 RMK AO2 T00110006 TSNO
94299KAAT AAT20161220171012412/20/16 17:10:31  5-MIN KAAT 210110Z AUTO 34007KT 10SM FEW009 OVC100 01/01 A3033 4010 96 3300 330/07 RMK AO2 T00110006 TSNO
94299KAAT AAT20161220171511712/20/16 17:15:31  5-MIN KAAT 210115Z AUTO 35007KT 10SM OVC100 02/01 A3033 4010 96 3400 330/07 RMK AO2 T00170011 TSNO
94299KAAT AAT20161220172011712/20/16 17:20:31  5-MIN KAAT 210120Z AUTO 34004KT 10SM OVC100 02/01 A3032 4010 96 3400 330/04 RMK AO2 T00170011 TSNO
94299KAAT AAT20161220172511712/20/16 17:25:31  5-MIN KAAT 210125Z AUTO 36004KT 10SM OVC110 02/02 A3033 4010 96 3500 350/04 RMK AO2 T00220017 TSNO
94299KAAT AAT20161220173011712/20/16 17:30:31  5-MIN KAAT 210130Z AUTO 34003KT 10SM OVC110 02/02 A3033 4010 96 3500 320/03 RMK AO2 T00220017 TSNO
94299KAAT AAT20161220173512512/20/16 17:35:31  5-MIN KAAT 210135Z AUTO 32005KT 10SM FEW100 OVC110 02/02 A3033 4010 100 3400 310/05 RMK AO2 T00170017 TSNO
94299KAAT AAT20161220174011712/20/16 17:40:31  5-MIN KAAT 210140Z AUTO 00000KT 10SM BKN110 02/02 A3032 4010 96 3500 000/00 RMK AO2 T00220017 TSNO
94299KAAT AAT20161220174512512/20/16 17:45:31  5-MIN KAAT 210145Z AUTO 35003KT 10SM FEW022 BKN110 02/02 A3033 4000 100 3400 330/03 RMK AO2 T00170017 TSNO
94299KAAT AAT20161220175013112/20/16 17:50:31  5-MIN KAAT 210150Z AUTO 03003KT 10SM SCT022 BKN120 02/01 A3033 4000 96 3400 010/03 RMK AO2 SLP294 T00170011 TSNO
94299KAAT AAT20161220175513012/20/16 17:55:31  5-MIN KAAT 210155Z AUTO 02005KT 9SM BKN021 BKN120 02/02 A3034 4000 96 3500 010/05 RMK AO2 SLP296 T00220017 TSNO
94299KAAT AAT20161220180012412/20/16 18:00:31  5-MIN KAAT 210200Z AUTO 03003KT 9SM BKN021 BKN120 02/02 A3034 4000 100 3500 010/03 RMK AO2 T00220022 TSNO
94299KAAT AAT20161220180511612/20/16 18:05:31  5-MIN KAAT 210205Z AUTO 03006KT 9SM BKN019 03/02 A3034 4000 96 3500 020/06 RMK AO2 T00280022 TSNO
94299KAAT AAT20161220181011612/20/16 18:10:31  5-MIN KAAT 210210Z AUTO 03004KT 9SM OVC019 03/02 A3034 4000 96 3500 020/04 RMK AO2 T00280022 TSNO
94299KAAT AAT20161220181511712/20/16 18:15:31  5-MIN KAAT 210215Z AUTO 03006KT 10SM OVC019 03/02 A3034 4000 96 3500 010/06 RMK AO2 T00280022 TSNO
94299KAAT AAT20161220182011712/20/16 18:20:31  5-MIN KAAT 210220Z AUTO 03004KT 10SM OVC019 03/02 A3033 4000 96 3500 020/04 RMK AO2 T00280022 TSNO
94299KAAT AAT20161220182511712/20/16 18:25:31  5-MIN KAAT 210225Z AUTO 06004KT 10SM OVC017 03/02 A3034 4000 96 3500 050/04 RMK AO2 T00280022 TSNO
94299KAAT AAT20161220183011612/20/16 18:30:31  5-MIN KAAT 210230Z AUTO 11003KT 9SM OVC017 03/02 A3034 3990 96 3500 090/03 RMK AO2 T00280022 TSNO
94299KAAT AAT20161220183511712/20/16 18:35:31  5-MIN KAAT 210235Z AUTO 08004KT 7SM OVC017 02/02 A3033 4000 100 3500 070/04 RMK AO2 T00220022 TSNO
94299KAAT AAT20161220184011712/20/16 18:40:31  5-MIN KAAT 210240Z AUTO 08004KT 8SM OVC017 02/02 A3034 4000 100 3500 060/04 RMK AO2 T00220022 TSNO
94299KAAT AAT20161220184511712/20/16 18:45:31  5-MIN KAAT 210245Z AUTO 13004KT 8SM OVC017 02/02 A3034 4000 100 3500 120/04 RMK AO2 T00220022 TSNO
94299KAAT AAT20161220185012912/20/16 18:50:31  5-MIN KAAT 210250Z AUTO 13003KT 8SM OVC017 02/02 A3034 4000 96 3500 110/03 RMK AO2 SLP296 T00220017 58004 TSNO
94299KAAT AAT20161220185513012/20/16 18:55:31  5-MIN KAAT 210255Z AUTO 00000KT 8SM OVC017 02/02 A3034 4000 100 3400 000/00 RMK AO2 SLP297 T00170017 51006 TSNO
94299KAAT AAT20161220190011712/20/16 19:00:31  5-MIN KAAT 210300Z AUTO 00000KT 7SM BKN017 02/02 A3034 3990 100 3400 000/00 RMK AO2 T00170017 TSNO
94299KAAT AAT20161220190512312/20/16 19:05:31  5-MIN KAAT 210305Z AUTO 00000KT 7SM BKN017 OVC110 02/01 A3034 3990 96 3400 000/00 RMK AO2 T00170011 TSNO
94299KAAT AAT20161220191012712/20/16 19:10:31  5-MIN KAAT 210310Z AUTO 00000KT 6SM BR SCT017 OVC120 01/01 A3034 4000 100 3300 000/00 RMK AO2 T00110011 TSNO
94299KAAT AAT20161220191512712/20/16 19:15:31  5-MIN KAAT 210315Z AUTO 00000KT 4SM BR SCT017 BKN120 01/01 A3034 3990 100 3300 000/00 RMK AO2 T00110011 TSNO
94299KAAT AAT20161220192012712/20/16 19:20:31  5-MIN KAAT 210320Z AUTO 21003KT 3SM BR FEW017 BKN120 01/01 A3034 4000 100 3300 190/03 RMK AO2 T00110011 TSNO
94299KAAT AAT20161220192512012/20/16 19:25:31  5-MIN KAAT 210325Z AUTO 20003KT 3SM BR BKN110 01/01 A3034 3990 100 3300 180/03 RMK AO2 T00110011 TSNO
94299KAAT AAT20161220193012012/20/16 19:30:31  5-MIN KAAT 210330Z AUTO 21004KT 3SM BR BKN120 01/01 A3034 4000 100 3300 200/04 RMK AO2 T00110011 TSNO
94299KAAT AAT20161220193512012/20/16 19:35:31  5-MIN KAAT 210335Z AUTO 22003KT 3SM BR SCT120 01/01 A3034 3990 100 3300 210/03 RMK AO2 T00110011 TSNO
94299KAAT AAT20161220194012012/20/16 19:40:31  5-MIN KAAT 210340Z AUTO 21003KT 4SM BR SCT120 01/01 A3034 4000 100 3200 200/03 RMK AO2 T00060006 TSNO
94299KAAT AAT20161220194513412/20/16 19:45:31  5-MIN KAAT 210345Z AUTO 00000KT 5SM BR FEW005 FEW013 SCT120 01/01 A3034 3990 100 3200 000/00 RMK AO2 T00060006 TSNO
94299KAAT AAT20161220195012412/20/16 19:50:31  5-MIN KAAT 210350Z AUTO 00000KT 4SM BR FEW005 SCT013 BKN120 01/01 A3034 4000 100 3200 000/00 RMK AO2 TSNO
94299KAAT AAT20161220195514112/20/16 19:55:31  5-MIN KAAT 210355Z AUTO 31003KT 4SM BR FEW005 SCT013 BKN120 01/01 A3034 4000 100 3300 290/03 RMK AO2 SLP297 T00060006 TSNO
94299KAAT AAT20161220200013412/20/16 20:00:31  5-MIN KAAT 210400Z AUTO 32003KT 3SM BR FEW005 FEW013 SCT120 01/01 A3034 3990 100 3200 300/03 RMK AO2 T00060006 TSNO
94299KAAT AAT20161220200513312/20/16 20:05:31  5-MIN KAAT 210405Z AUTO 31004KT 4SM BR FEW004 FEW012 BKN120 01/01 A3034 4000 96 3300 290/04 RMK AO2 T00110006 TSNO
94299KAAT AAT20161220201013312/20/16 20:10:31  5-MIN KAAT 210410Z AUTO 29003KT 4SM BR SCT004 SCT012 BKN120 01/01 A3034 4000 96 3300 280/03 RMK AO2 T00110006 TSNO
94299KAAT AAT20161220201513312/20/16 20:15:31  5-MIN KAAT 210415Z AUTO 28003KT 5SM BR BKN004 BKN012 BKN120 01/01 A3034 4000 96 3300 270/03 RMK AO2 T00110006 TSNO
94299KAAT AAT20161220202012712/20/16 20:20:31  5-MIN KAAT 210420Z AUTO 28004KT 6SM BR BKN003 BKN120 01/01 A3034 4000 100 3300 270/04 RMK AO2 T00110011 TSNO
94299KAAT AAT20161220202512412/20/16 20:25:31  5-MIN KAAT 210425Z AUTO 28005KT 7SM BKN003 BKN120 01/01 A3034 4000 100 3300 270/05 RMK AO2 T00110011 TSNO
94299KAAT AAT20161220203011712/20/16 20:30:31  5-MIN KAAT 210430Z AUTO 27004KT 7SM OVC003 01/01 A3034 3990 100 3300 260/04 RMK AO2 T00110011 TSNO
94299KAAT AAT20161220203511712/20/16 20:35:31  5-MIN KAAT 210435Z AUTO 27005KT 8SM OVC003 01/01 A3035 3990 100 3300 260/05 RMK AO2 T00110011 TSNO
94299KAAT AAT20161220204012412/20/16 20:40:31  5-MIN KAAT 210440Z AUTO 27005KT 9SM BKN003 BKN120 01/01 A3035 3990 100 3300 260/05 RMK AO2 T00110011 TSNO
94299KAAT AAT20161220204512412/20/16 20:45:31  5-MIN KAAT 210445Z AUTO 27005KT 10SM BKN003 BKN120 02/01 A3035 3990 96 3400 250/05 RMK AO2 T00170011 TSNO
94299KAAT AAT20161220205010712/20/16 20:50:31  5-MIN KAAT 210450Z AUTO 25003KT 10SM SCT003 02/01 A3035 3990 96 3400 230/03 RMK AO2 TSNO
94299KAAT AAT20161220205512512/20/16 20:55:31  5-MIN KAAT 210455Z AUTO 24004KT 10SM SCT003 01/01 A3035 3990 100 3300 230/04 RMK AO2 SLP297 T00110011 TSNO
94299KAAT AAT20161220210011812/20/16 21:00:31  5-MIN KAAT 210500Z AUTO 25003KT 10SM FEW003 01/01 A3035 3990 100 3300 230/03 RMK AO2 T00110011 TSNO
94299KAAT AAT20161220210511412/20/16 21:05:31  5-MIN KAAT 210505Z AUTO 00000KT 9SM CLR 01/01 A3035 3990 100 3300 000/00 RMK AO2 T00110011 TSNO
94299KAAT AAT20161220211011312/20/16 21:10:31  5-MIN KAAT 210510Z AUTO 23003KT 8SM CLR 01/01 A3035 3990 96 3300 210/03 RMK AO2 T00110006 TSNO
94299KAAT AAT20161220211511412/20/16 21:15:31  5-MIN KAAT 210515Z AUTO 23003KT 9SM CLR 01/01 A3035 3990 100 3300 220/03 RMK AO2 T00110011 TSNO
94299KAAT AAT20161220212011412/20/16 21:20:31  5-MIN KAAT 210520Z AUTO 00000KT 9SM CLR 01/01 A3035 3980 100 3300 000/00 RMK AO2 T00110011 TSNO
94299KAAT AAT20161220212511412/20/16 21:25:31  5-MIN KAAT 210525Z AUTO 00000KT 8SM CLR 01/01 A3035 3990 100 3300 000/00 RMK AO2 T00110011 TSNO
94299KAAT AAT20161220213011412/20/16 21:30:31  5-MIN KAAT 210530Z AUTO 00000KT 8SM CLR 01/01 A3035 3990 100 3300 000/00 RMK AO2 T00110011 TSNO
94299KAAT AAT20161220213511312/20/16 21:35:31  5-MIN KAAT 210535Z AUTO 00000KT 8SM CLR 01/01 A3035 3980 96 3300 000/00 RMK AO2 T00110006 TSNO
94299KAAT AAT20161220214011312/20/16 21:40:31  5-MIN KAAT 210540Z AUTO 00000KT 8SM CLR 02/01 A3036 3980 96 3400 000/00 RMK AO2 T00170011 TSNO
94299KAAT AAT20161220214512412/20/16 21:45:31  5-MIN KAAT 210545Z AUTO 00000KT 7SM FEW002 FEW021 01/01 A3036 3980 100 3300 000/00 RMK AO2 T00110011 TSNO
94299KAAT AAT20161220215015112/20/16 21:50:31  5-MIN KAAT 210550Z AUTO 08003KT 5SM BR FEW002 SCT021 01/01 A3036 3970 96 3300 060/03 RMK AO2 SLP298 T00110006 10028 20006 51006 TSNO
94299KAAT AAT20161220215515812/20/16 21:55:31  5-MIN KAAT 210555Z AUTO 09004KT 3SM BR FEW002 SCT007 BKN021 01/01 A3037 3970 96 3300 070/04 RMK AO2 SLP299 T00110006 10028 20006 53010 TSNO
94299KAAT AAT20161220220013712/20/16 22:00:31  5-MIN KAAT 210600Z AUTO 00000KT 2 1/2SM BR FEW002 BKN007 BKN020 01/01 A3037 3970 96 3300 000/00 RMK AO2 T00110006 TSNO
94299KAAT AAT20161220220513812/20/16 22:05:31  5-MIN KAAT 210605Z AUTO 02004KT 2 1/2SM BR FEW002 BKN007 OVC020 01/01 A3037 3970 100 3300 360/04 RMK AO2 T00110011 TSNO
94299KAAT AAT20161220221013812/20/16 22:10:31  5-MIN KAAT 210610Z AUTO 04003KT 1 1/2SM BR FEW002 BKN007 OVC020 01/01 A3037 3970 100 3300 020/03 RMK AO2 T00110011 TSNO
94299KAAT AAT20161220221513112/20/16 22:15:31  5-MIN KAAT 210615Z AUTO 03003KT 1 1/4SM BR SCT008 BKN017 01/01 A3037 3970 100 3300 010/03 RMK AO2 T00110011 TSNO
94299KAAT AAT20161220222013112/20/16 22:20:31  5-MIN KAAT 210620Z AUTO 01004KT 1 3/4SM BR SCT008 BKN017 01/01 A3037 3970 100 3300 350/04 RMK AO2 T00110011 TSNO
94299KAAT AAT20161220222512612/20/16 22:25:31  5-MIN KAAT 210625Z AUTO 01006KT 4SM BR FEW008 BKN017 02/01 A3037 3970 96 3400 350/06 RMK AO2 T00170011 TSNO
94299KAAT AAT20161220223012312/20/16 22:30:31  5-MIN KAAT 210630Z AUTO 01006KT 9SM FEW008 BKN015 02/01 A3037 3970 92 3400 360/06 RMK AO2 T00220011 TSNO
94299KAAT AAT20161220223511712/20/16 22:35:31  5-MIN KAAT 210635Z AUTO 03004KT 10SM BKN015 02/01 A3037 3970 92 3400 010/04 RMK AO2 T00220011 TSNO
94299KAAT AAT20161220224011712/20/16 22:40:31  5-MIN KAAT 210640Z AUTO 00000KT 10SM BKN015 02/01 A3037 3970 96 3400 000/00 RMK AO2 T00170011 TSNO
94299KAAT AAT20161220224511712/20/16 22:45:31  5-MIN KAAT 210645Z AUTO 36004KT 10SM SCT015 02/01 A3037 3970 92 3400 350/04 RMK AO2 T00220011 TSNO
94299KAAT AAT20161220225012412/20/16 22:50:31  5-MIN KAAT 210650Z AUTO 01003KT 10SM SCT015 02/00 A3037 3970 89 3400 350/03 RMK AO2 SLP296 T00170000 TSNO
94299KAAT AAT20161220225512412/20/16 22:55:31  5-MIN KAAT 210655Z AUTO 00000KT 10SM FEW015 02/00 A3037 3970 89 3400 000/00 RMK AO2 SLP296 T00170000 TSNO
94299KAAT AAT20161220230011812/20/16 23:00:31  5-MIN KAAT 210700Z AUTO 01003KT 10SM FEW015 02/M01 A3036 3970 85 3400 360/03 RMK AO2 T00171006 TSNO
94299KAAT AAT20161220230511512/20/16 23:05:31  5-MIN KAAT 210705Z AUTO 03005KT 10SM CLR 02/M01 A3036 3970 85 3400 010/05 RMK AO2 T00171006 TSNO
94299KAAT AAT20161220231011512/20/16 23:10:31  5-MIN KAAT 210710Z AUTO 02005KT 10SM CLR 02/M01 A3036 3970 82 3400 010/05 RMK AO2 T00171011 TSNO
94299KAAT AAT20161220231511512/20/16 23:15:31  5-MIN KAAT 210715Z AUTO 04006KT 10SM CLR 02/M01 A3036 3970 82 3400 030/06 RMK AO2 T00171011 TSNO
94299KAAT AAT20161220232011512/20/16 23:20:31  5-MIN KAAT 210720Z AUTO 03007KT 10SM CLR 02/M01 A3036 3970 82 3400 020/07 RMK AO2 T00171011 TSNO
94299KAAT AAT20161220232511512/20/16 23:25:31  5-MIN KAAT 210725Z AUTO 02005KT 10SM CLR 01/M01 A3037 3970 85 3300 010/05 RMK AO2 T00111011 TSNO
94299KAAT AAT20161220233011512/20/16 23:30:31  5-MIN KAAT 210730Z AUTO 02006KT 10SM CLR 01/M01 A3037 3970 85 3300 360/06 RMK AO2 T00111011 TSNO
94299KAAT AAT20161220233511512/20/16 23:35:31  5-MIN KAAT 210735Z AUTO 03005KT 10SM CLR 01/M01 A3037 3970 85 3300 010/05 RMK AO2 T00111011 TSNO
94299KAAT AAT20161220234011512/20/16 23:40:31  5-MIN KAAT 210740Z AUTO 03005KT 10SM CLR 01/M01 A3037 3970 85 3300 010/05 RMK AO2 T00111011 TSNO
94299KAAT AAT20161220234511512/20/16 23:45:31  5-MIN KAAT 210745Z AUTO 01005KT 10SM CLR 01/M02 A3037 3970 82 3300 360/05 RMK AO2 T00111017 TSNO
94299KAAT AAT20161220235013212/20/16 23:50:31  5-MIN KAAT 210750Z AUTO 36004KT 10SM CLR 01/M02 A3036 3970 82 3300 350/04 RMK AO2 SLP296 T00111017 400281056 TSNO
94299KAAT AAT20161220235513212/20/16 23:55:31  5-MIN KAAT 210755Z AUTO 01005KT 10SM CLR 01/M02 A3036 3980 82 3300 350/05 RMK AO2 SLP295 T00111017 400281056 TSNO
94299KAAT AAT20161221000011512/21/16 00:00:31  5-MIN KAAT 210800Z AUTO 35007KT 10SM CLR 01/M02 A3036 3980 82 3300 330/07 RMK AO2 T00111017 TSNO
94299KAAT AAT20161221000511512/21/16 00:05:31  5-MIN KAAT 210805Z AUTO 01008KT 10SM CLR 01/M02 A3036 3980 78 3300 350/08 RMK AO2 T00111022 TSNO
94299KAAT AAT20161221001011512/21/16 00:10:31  5-MIN KAAT 210810Z AUTO 36007KT 10SM CLR 01/M02 A3035 3980 78 3300 350/07 RMK AO2 T00111022 TSNO
94299KAAT AAT20161221001511512/21/16 00:15:31  5-MIN KAAT 210815Z AUTO 01006KT 10SM CLR 01/M02 A3035 3980 78 3300 350/06 RMK AO2 T00111022 TSNO
94299KAAT AAT20161221002011512/21/16 00:20:31  5-MIN KAAT 210820Z AUTO 02006KT 10SM CLR 01/M02 A3036 3980 82 3200 010/06 RMK AO2 T00061022 TSNO
94299KAAT AAT20161221002511512/21/16 00:25:31  5-MIN KAAT 210825Z AUTO 04006KT 10SM CLR 01/M02 A3035 3980 82 3200 030/06 RMK AO2 T00061022 TSNO
94299KAAT AAT20161221003011512/21/16 00:30:31  5-MIN KAAT 210830Z AUTO 03007KT 10SM CLR 01/M02 A3035 3980 82 3200 010/07 RMK AO2 T00061022 TSNO
94299KAAT AAT20161221003511512/21/16 00:35:31  5-MIN KAAT 210835Z AUTO 05007KT 10SM CLR 01/M03 A3036 3980 78 3200 030/07 RMK AO2 T00061028 TSNO
94299KAAT AAT20161221004011512/21/16 00:40:31  5-MIN KAAT 210840Z AUTO 02007KT 10SM CLR 01/M03 A3036 3980 78 3200 010/07 RMK AO2 T00061028 TSNO
94299KAAT AAT20161221004511512/21/16 00:45:31  5-MIN KAAT 210845Z AUTO 04005KT 10SM CLR 01/M03 A3036 3980 78 3200 020/05 RMK AO2 T00061028 TSNO
94299KAAT AAT20161221005012812/21/16 00:50:31  5-MIN KAAT 210850Z AUTO 06004KT 10SM CLR 01/M03 A3036 3980 78 3200 050/04 RMK AO2 SLP294 T00061028 53010 TSNO
94299KAAT AAT20161221005512812/21/16 00:55:31  5-MIN KAAT 210855Z AUTO 00000KT 10SM CLR 01/M03 A3036 3980 78 3200 000/00 RMK AO2 SLP293 T00061028 58004 TSNO
94299KAAT AAT20161221010011512/21/16 01:00:31  5-MIN KAAT 210900Z AUTO VRB04KT 10SM CLR 01/M03 A3036 3980 75 3200 VRB/04 RMK AO2 T00061033 TSNO
94299KAAT AAT20161221010511512/21/16 01:05:31  5-MIN KAAT 210905Z AUTO 07004KT 10SM CLR 00/M03 A3036 3980 78 3200 050/04 RMK AO2 T00001033 TSNO
94299KAAT AAT20161221011011512/21/16 01:10:31  5-MIN KAAT 210910Z AUTO 00000KT 10SM CLR 00/M04 A3036 3980 75 3200 000/00 RMK AO2 T00001039 TSNO
94299KAAT AAT20161221011511512/21/16 01:15:31  5-MIN KAAT 210915Z AUTO 08003KT 10SM CLR 00/M04 A3037 3970 75 3200 060/03 RMK AO2 T00001039 TSNO
94299KAAT AAT20161221012011512/21/16 01:20:31  5-MIN KAAT 210920Z AUTO 00000KT 10SM CLR 00/M04 A3036 3980 75 3200 000/00 RMK AO2 T00001039 TSNO
94299KAAT AAT20161221012511612/21/16 01:25:31  5-MIN KAAT 210925Z AUTO 00000KT 10SM CLR M01/M04 A3036 3980 78 3100 000/00 RMK AO2 T10061039 TSNO
94299KAAT AAT20161221013011612/21/16 01:30:31  5-MIN KAAT 210930Z AUTO 01004KT 10SM CLR M01/M04 A3036 3980 75 3100 360/04 RMK AO2 T10061044 TSNO
94299KAAT AAT20161221013511612/21/16 01:35:31  5-MIN KAAT 210935Z AUTO 03004KT 10SM CLR M01/M04 A3036 3980 75 3100 020/04 RMK AO2 T10061044 TSNO
94299KAAT AAT20161221014011512/21/16 01:40:31  5-MIN KAAT 210940Z AUTO 00000KT 10SM CLR 00/M04 A3036 3980 72 3200 000/00 RMK AO2 T00001044 TSNO
94299KAAT AAT20161221014511512/21/16 01:45:31  5-MIN KAAT 210945Z AUTO 06003KT 10SM CLR 00/M04 A3036 3980 72 3200 050/03 RMK AO2 T00001044 TSNO
94299KAAT AAT20161221015012212/21/16 01:50:31  5-MIN KAAT 210950Z AUTO VRB03KT 10SM CLR 00/M04 A3036 3980 72 3200 VRB/03 RMK AO2 SLP296 T00001044 TSNO
94299KAAT AAT20161221015512212/21/16 01:55:31  5-MIN KAAT 210955Z AUTO 03003KT 10SM CLR 00/M04 A3036 3970 72 3200 020/03 RMK AO2 SLP297 T00001044 TSNO
94299KAAT AAT20161221020011612/21/16 02:00:31  5-MIN KAAT 211000Z AUTO 00000KT 10SM CLR M01/M04 A3036 3980 75 3100 000/00 RMK AO2 T10061044 TSNO
94299KAAT AAT20161221020511612/21/16 02:05:31  5-MIN KAAT 211005Z AUTO VRB05KT 10SM CLR M01/M05 A3036 3980 72 3100 VRB/05 RMK AO2 T10061050 TSNO
94299KAAT AAT20161221021011612/21/16 02:10:31  5-MIN KAAT 211010Z AUTO 02005KT 10SM CLR M01/M05 A3036 3980 72 3100 360/05 RMK AO2 T10061050 TSNO
94299KAAT AAT20161221021511612/21/16 02:15:31  5-MIN KAAT 211015Z AUTO 01007KT 10SM CLR M01/M05 A3036 3980 72 3100 360/07 RMK AO2 T10061050 TSNO
94299KAAT AAT20161221022011612/21/16 02:20:31  5-MIN KAAT 211020Z AUTO 03006KT 10SM CLR M01/M05 A3035 3980 72 3100 010/06 RMK AO2 T10061050 TSNO
94299KAAT AAT20161221022511612/21/16 02:25:31  5-MIN KAAT 211025Z AUTO VRB04KT 10SM CLR M01/M05 A3036 3980 72 3100 VRB/04 RMK AO2 T10061050 TSNO
94299KAAT AAT20161221023011612/21/16 02:30:31  5-MIN KAAT 211030Z AUTO 03005KT 10SM CLR M01/M05 A3036 3980 72 3100 010/05 RMK AO2 T10061050 TSNO
94299KAAT AAT20161221023511612/21/16 02:35:31  5-MIN KAAT 211035Z AUTO VRB04KT 10SM CLR M01/M06 A3036 3980 69 3100 VRB/04 RMK AO2 T10061056 TSNO
94299KAAT AAT20161221024011612/21/16 02:40:31  5-MIN KAAT 211040Z AUTO 05004KT 10SM CLR M01/M06 A3036 3980 72 3000 040/04 RMK AO2 T10111056 TSNO
94299KAAT AAT20161221024511612/21/16 02:45:31  5-MIN KAAT 211045Z AUTO 05004KT 10SM CLR M01/M06 A3036 3980 69 3100 040/04 RMK AO2 T10061056 TSNO
94299KAAT AAT20161221025012312/21/16 02:50:31  5-MIN KAAT 211050Z AUTO VRB03KT 10SM CLR M01/M06 A3036 3980 69 3100 VRB/03 RMK AO2 SLP296 T10061056 TSNO
94299KAAT AAT20161221025512312/21/16 02:55:31  5-MIN KAAT 211055Z AUTO 02006KT 10SM CLR M01/M06 A3036 3980 69 3100 010/06 RMK AO2 SLP296 T10061056 TSNO
94299KAAT AAT20161221030011612/21/16 03:00:31  5-MIN KAAT 211100Z AUTO 05005KT 10SM CLR M01/M06 A3036 3980 69 3100 040/05 RMK AO2 T10061056 TSNO
94299KAAT AAT20161221030511612/21/16 03:05:31  5-MIN KAAT 211105Z AUTO 03006KT 10SM CLR M01/M06 A3036 3980 69 3000 020/06 RMK AO2 T10111061 TSNO
94299KAAT AAT20161221031011612/21/16 03:10:31  5-MIN KAAT 211110Z AUTO VRB05KT 10SM CLR M01/M06 A3035 3980 66 3100 VRB/05 RMK AO2 T10061061 TSNO
94299KAAT AAT20161221031511612/21/16 03:15:31  5-MIN KAAT 211115Z AUTO 11003KT 10SM CLR M02/M06 A3035 3990 72 3000 090/03 RMK AO2 T10171061 TSNO
94299KAAT AAT20161221032011612/21/16 03:20:31  5-MIN KAAT 211120Z AUTO VRB04KT 10SM CLR M02/M06 A3035 3980 72 3000 VRB/04 RMK AO2 T10171061 TSNO
94299KAAT AAT20161221032511612/21/16 03:25:31  5-MIN KAAT 211125Z AUTO VRB03KT 10SM CLR M01/M07 A3035 3990 66 3000 VRB/03 RMK AO2 T10111067 TSNO
94299KAAT AAT20161221033011612/21/16 03:30:31  5-MIN KAAT 211130Z AUTO 00000KT 10SM CLR M02/M06 A3035 3990 72 3000 000/00 RMK AO2 T10171061 TSNO
94299KAAT AAT20161221033511612/21/16 03:35:31  5-MIN KAAT 211135Z AUTO VRB03KT 10SM CLR M02/M06 A3035 3990 72 3000 VRB/03 RMK AO2 T10171061 TSNO
94299KAAT AAT20161221034011612/21/16 03:40:31  5-MIN KAAT 211140Z AUTO 06003KT 10SM CLR M01/M07 A3035 3990 66 3000 050/03 RMK AO2 T10111067 TSNO
94299KAAT AAT20161221034511612/21/16 03:45:31  5-MIN KAAT 211145Z AUTO 00000KT 10SM CLR M02/M07 A3034 3990 69 3000 000/00 RMK AO2 T10171067 TSNO
94299KAAT AAT20161221035014712/21/16 03:50:31  5-MIN KAAT 211150Z AUTO 11004KT 10SM CLR M02/M07 A3034 3990 69 3000 090/04 RMK AO2 SLP295 70005 T10171067 10022 21017 58004 TSNO
94299KAAT AAT20161221035514712/21/16 03:55:31  5-MIN KAAT 211155Z AUTO 04004KT 10SM CLR M02/M07 A3034 3990 69 3000 020/04 RMK AO2 SLP294 70005 T10171067 10022 21017 58004 TSNO
94299KAAT AAT20161221040011612/21/16 04:00:31  5-MIN KAAT 211200Z AUTO 00000KT 10SM CLR M02/M07 A3034 4000 69 3000 000/00 RMK AO2 T10171067 TSNO
94299KAAT AAT20161221040511612/21/16 04:05:31  5-MIN KAAT 211205Z AUTO 02003KT 10SM CLR M02/M07 A3034 4000 69 3000 360/03 RMK AO2 T10171067 TSNO
94299KAAT AAT20161221041011612/21/16 04:10:31  5-MIN KAAT 211210Z AUTO 00000KT 10SM CLR M02/M07 A3034 4000 69 3000 000/00 RMK AO2 T10171067 TSNO
94299KAAT AAT20161221041511612/21/16 04:15:31  5-MIN KAAT 211215Z AUTO 01003KT 10SM CLR M02/M07 A3034 4000 72 2900 350/03 RMK AO2 T10221067 TSNO
94299KAAT AAT20161221042011612/21/16 04:20:31  5-MIN KAAT 211220Z AUTO 00000KT 10SM CLR M02/M07 A3033 4000 69 2900 000/00 RMK AO2 T10221072 TSNO
94299KAAT AAT20161221042511612/21/16 04:25:31  5-MIN KAAT 211225Z AUTO 00000KT 10SM CLR M02/M07 A3033 4000 69 2900 000/00 RMK AO2 T10221072 TSNO
94299KAAT AAT20161221043011612/21/16 04:30:31  5-MIN KAAT 211230Z AUTO 00000KT 10SM CLR M03/M07 A3033 4000 71 2800 000/00 RMK AO2 T10281072 TSNO
94299KAAT AAT20161221043511612/21/16 04:35:31  5-MIN KAAT 211235Z AUTO 00000KT 10SM CLR M03/M07 A3033 4000 74 2800 000/00 RMK AO2 T10331072 TSNO
94299KAAT AAT20161221044011612/21/16 04:40:31  5-MIN KAAT 211240Z AUTO 03004KT 10SM CLR M03/M07 A3033 4000 74 2800 020/04 RMK AO2 T10331072 TSNO
94299KAAT AAT20161221044511612/21/16 04:45:31  5-MIN KAAT 211245Z AUTO 04005KT 10SM CLR M03/M08 A3033 4000 68 2800 030/05 RMK AO2 T10281078 TSNO
94299KAAT AAT20161221045012312/21/16 04:50:31  5-MIN KAAT 211250Z AUTO 04004KT 10SM CLR M03/M08 A3033 4000 68 2800 020/04 RMK AO2 SLP293 T10281078 TSNO
94299KAAT AAT20161221045512312/21/16 04:55:31  5-MIN KAAT 211255Z AUTO 03004KT 10SM CLR M02/M08 A3033 4000 66 2900 010/04 RMK AO2 SLP292 T10221078 TSNO
94299KAAT AAT20161221050011612/21/16 05:00:31  5-MIN KAAT 211300Z AUTO 03005KT 10SM CLR M03/M08 A3033 4000 68 2800 020/05 RMK AO2 T10281078 TSNO
94299KAAT AAT20161221050511612/21/16 05:05:31  5-MIN KAAT 211305Z AUTO 03006KT 10SM CLR M02/M08 A3034 4000 66 2900 010/06 RMK AO2 T10221078 TSNO
94299KAAT AAT20161221051011612/21/16 05:10:31  5-MIN KAAT 211310Z AUTO 03006KT 10SM CLR M02/M08 A3033 4000 66 2900 010/06 RMK AO2 T10221078 TSNO
94299KAAT AAT20161221051511612/21/16 05:15:31  5-MIN KAAT 211315Z AUTO 03006KT 10SM CLR M03/M08 A3033 4000 68 2800 010/06 RMK AO2 T10281078 TSNO
94299KAAT AAT20161221052011612/21/16 05:20:31  5-MIN KAAT 211320Z AUTO 04004KT 10SM CLR M02/M08 A3034 4000 66 2900 020/04 RMK AO2 T10221078 TSNO
94299KAAT AAT20161221052511612/21/16 05:25:31  5-MIN KAAT 211325Z AUTO 01005KT 10SM CLR M02/M08 A3034 4000 66 2900 360/05 RMK AO2 T10221078 TSNO
94299KAAT AAT20161221053011612/21/16 05:30:31  5-MIN KAAT 211330Z AUTO 02006KT 10SM CLR M03/M08 A3033 4000 68 2800 360/06 RMK AO2 T10281078 TSNO
94299KAAT AAT20161221053511612/21/16 05:35:31  5-MIN KAAT 211335Z AUTO 02006KT 10SM CLR M03/M08 A3033 4000 71 2800 010/06 RMK AO2 T10331078 TSNO
94299KAAT AAT20161221054011612/21/16 05:40:31  5-MIN KAAT 211340Z AUTO 01006KT 10SM CLR M03/M08 A3033 4010 68 2800 360/06 RMK AO2 T10331083 TSNO
94299KAAT AAT20161221054511612/21/16 05:45:31  5-MIN KAAT 211345Z AUTO 01007KT 10SM CLR M03/M08 A3033 4010 68 2800 350/07 RMK AO2 T10331083 TSNO
94299KAAT AAT20161221055012312/21/16 05:50:31  5-MIN KAAT 211350Z AUTO 36007KT 10SM CLR M03/M08 A3033 4000 66 2800 350/07 RMK AO2 SLP292 T10281083 TSNO
94299KAAT AAT20161221055512312/21/16 05:55:31  5-MIN KAAT 211355Z AUTO 01005KT 10SM CLR M02/M08 A3033 4000 63 2900 350/05 RMK AO2 SLP290 T10221083 TSNO
94299KAAT AAT20161221060011612/21/16 06:00:31  5-MIN KAAT 211400Z AUTO 02006KT 10SM CLR M02/M08 A3033 4000 63 2900 360/06 RMK AO2 T10221083 TSNO
94299KAAT AAT20161221060511612/21/16 06:05:31  5-MIN KAAT 211405Z AUTO 01009KT 10SM CLR M02/M08 A3033 4000 63 2900 360/09 RMK AO2 T10221083 TSNO
94299KAAT AAT20161221061011612/21/16 06:10:31  5-MIN KAAT 211410Z AUTO 02006KT 10SM CLR M02/M08 A3033 4000 63 2900 360/06 RMK AO2 T10221083 TSNO
94299KAAT AAT20161221061511612/21/16 06:15:31  5-MIN KAAT 211415Z AUTO 01005KT 10SM CLR M03/M08 A3033 4000 68 2800 360/05 RMK AO2 T10331083 TSNO
94299KAAT AAT20161221062011612/21/16 06:20:31  5-MIN KAAT 211420Z AUTO 01003KT 10SM CLR M03/M08 A3033 4000 68 2800 350/03 RMK AO2 T10331083 TSNO
94299KAAT AAT20161221062511612/21/16 06:25:31  5-MIN KAAT 211425Z AUTO 02004KT 10SM CLR M04/M08 A3033 4000 74 2600 010/04 RMK AO2 T10441083 TSNO
94299KAAT AAT20161221063011612/21/16 06:30:31  5-MIN KAAT 211430Z AUTO 01004KT 10SM CLR M05/M08 A3033 4000 77 2600 360/04 RMK AO2 T10501083 TSNO
94299KAAT AAT20161221063511612/21/16 06:35:31  5-MIN KAAT 211435Z AUTO 04005KT 10SM CLR M04/M08 A3034 4000 74 2600 020/05 RMK AO2 T10441083 TSNO
94299KAAT AAT20161221064011612/21/16 06:40:31  5-MIN KAAT 211440Z AUTO VRB03KT 10SM CLR M05/M09 A3034 4000 74 2600 VRB/03 RMK AO2 T10501089 TSNO
94299KAAT AAT20161221064511612/21/16 06:45:31  5-MIN KAAT 211445Z AUTO 00000KT 10SM CLR M07/M09 A3034 4000 84 2400 000/00 RMK AO2 T10671089 TSNO
94299KAAT AAT20161221065012912/21/16 06:50:31  5-MIN KAAT 211450Z AUTO 00000KT 10SM CLR M06/M08 A3034 4000 84 2400 000/00 RMK AO2 SLP298 T10611083 58004 TSNO
94299KAAT AAT20161221065512912/21/16 06:55:31  5-MIN KAAT 211455Z AUTO 00000KT 10SM CLR M07/M08 A3034 4000 92 2400 000/00 RMK AO2 SLP300 T10671078 55001 TSNO
94299KAAT AAT20161221070011612/21/16 07:00:31  5-MIN KAAT 211500Z AUTO 00000KT 10SM CLR M06/M08 A3034 4000 88 2400 000/00 RMK AO2 T10611078 TSNO
94299KAAT AAT20161221070511612/21/16 07:05:31  5-MIN KAAT 211505Z AUTO 00000KT 10SM CLR M06/M08 A3034 4000 88 2400 000/00 RMK AO2 T10611078 TSNO
94299KAAT AAT20161221071011612/21/16 07:10:31  5-MIN KAAT 211510Z AUTO 00000KT 10SM CLR M06/M08 A3034 4000 88 2400 000/00 RMK AO2 T10611078 TSNO
94299KAAT AAT20161221071511612/21/16 07:15:31  5-MIN KAAT 211515Z AUTO 00000KT 10SM CLR M06/M08 A3034 3990 84 2500 000/00 RMK AO2 T10561078 TSNO
94299KAAT AAT20161221072011612/21/16 07:20:31  5-MIN KAAT 211520Z AUTO 36003KT 10SM CLR M06/M08 A3034 4000 84 2500 340/03 RMK AO2 T10561078 TSNO
94299KAAT AAT20161221072511612/21/16 07:25:31  5-MIN KAAT 211525Z AUTO 35003KT 10SM CLR M06/M08 A3034 3990 88 2400 340/03 RMK AO2 T10611078 TSNO
94299KAAT AAT20161221073011612/21/16 07:30:31  5-MIN KAAT 211530Z AUTO 17003KT 10SM CLR M07/M08 A3034 3990 88 2400 150/03 RMK AO2 T10671083 TSNO
94299KAAT AAT20161221073511612/21/16 07:35:31  5-MIN KAAT 211535Z AUTO 00000KT 10SM CLR M07/M09 A3034 4000 88 2300 000/00 RMK AO2 T10721089 TSNO
94299KAAT AAT20161221074011812/21/16 07:40:31  5-MIN KAAT 211540Z AUTO 00000KT 6SM BR CLR M08/M09 A3034 4000 92 2200 000/00 RMK AO2 T10781089 TSNO
94299KAAT AAT20161221074511812/21/16 07:45:31  5-MIN KAAT 211545Z AUTO 00000KT 5SM BR CLR M08/M09 A3034 4000 88 2200 000/00 RMK AO2 T10781094 TSNO
94299KAAT AAT20161221075012512/21/16 07:50:31  5-MIN KAAT 211550Z AUTO 00000KT 5SM BR CLR M07/M09 A3034 4000 88 2300 000/00 RMK AO2 SLP303 T10721089 TSNO
94299KAAT AAT20161221075512512/21/16 07:55:31  5-MIN KAAT 211555Z AUTO 00000KT 6SM BR CLR M07/M08 A3034 4000 92 2300 000/00 RMK AO2 SLP303 T10721083 TSNO
94299KAAT AAT20161221080011612/21/16 08:00:31  5-MIN KAAT 211600Z AUTO 00000KT 10SM CLR M07/M08 A3034 4000 92 2300 000/00 RMK AO2 T10721083 TSNO
94299KAAT AAT20161221080511612/21/16 08:05:31  5-MIN KAAT 211605Z AUTO 00000KT 10SM CLR M07/M08 A3034 4000 88 2400 000/00 RMK AO2 T10671083 TSNO
94299KAAT AAT20161221081011612/21/16 08:10:31  5-MIN KAAT 211610Z AUTO 00000KT 10SM CLR M07/M08 A3034 4000 92 2400 000/00 RMK AO2 T10671078 TSNO
94299KAAT AAT20161221081511612/21/16 08:15:31  5-MIN KAAT 211615Z AUTO 00000KT 10SM CLR M07/M08 A3034 4000 88 2400 000/00 RMK AO2 T10671083 TSNO
94299KAAT AAT20161221082011612/21/16 08:20:31  5-MIN KAAT 211620Z AUTO 00000KT 10SM CLR M06/M08 A3034 4000 88 2400 000/00 RMK AO2 T10611078 TSNO
94299KAAT AAT20161221082511612/21/16 08:25:31  5-MIN KAAT 211625Z AUTO 00000KT 10SM CLR M06/M08 A3034 4000 84 2500 000/00 RMK AO2 T10561078 TSNO
94299KAAT AAT20161221083011612/21/16 08:30:31  5-MIN KAAT 211630Z AUTO 00000KT 10SM CLR M05/M08 A3034 4000 81 2600 000/00 RMK AO2 T10501078 TSNO
94299KAAT AAT20161221083511612/21/16 08:35:31  5-MIN KAAT 211635Z AUTO 00000KT 10SM CLR M04/M08 A3034 4000 78 2600 000/00 RMK AO2 T10441078 TSNO
94299KAAT AAT20161221084011612/21/16 08:40:31  5-MIN KAAT 211640Z AUTO 00000KT 10SM CLR M05/M07 A3034 4000 84 2600 000/00 RMK AO2 T10501072 TSNO
94299KAAT AAT20161221084511612/21/16 08:45:31  5-MIN KAAT 211645Z AUTO 00000KT 10SM CLR M04/M07 A3034 4000 81 2600 000/00 RMK AO2 T10441072 TSNO
94299KAAT AAT20161221085012312/21/16 08:50:31  5-MIN KAAT 211650Z AUTO 00000KT 10SM CLR M04/M07 A3034 3990 81 2700 000/00 RMK AO2 SLP297 T10391067 TSNO
94299KAAT AAT20161221085512312/21/16 08:55:31  5-MIN KAAT 211655Z AUTO 00000KT 10SM CLR M03/M06 A3034 3990 81 2800 000/00 RMK AO2 SLP297 T10331061 TSNO
94299KAAT AAT20161221090011612/21/16 09:00:31  5-MIN KAAT 211700Z AUTO 00000KT 10SM CLR M03/M06 A3034 3990 81 2800 000/00 RMK AO2 T10331061 TSNO
94299KAAT AAT20161221090511612/21/16 09:05:31  5-MIN KAAT 211705Z AUTO 00000KT 10SM CLR M03/M06 A3035 3990 85 2800 000/00 RMK AO2 T10331056 TSNO
94299KAAT AAT20161221091011612/21/16 09:10:31  5-MIN KAAT 211710Z AUTO 00000KT 10SM CLR M03/M06 A3034 3990 81 2800 000/00 RMK AO2 T10281056 TSNO
94299KAAT AAT20161221091511612/21/16 09:15:31  5-MIN KAAT 211715Z AUTO 00000KT 10SM CLR M03/M06 A3035 3990 81 2800 000/00 RMK AO2 T10281056 TSNO
94299KAAT AAT20161221092011612/21/16 09:20:31  5-MIN KAAT 211720Z AUTO 00000KT 10SM CLR M02/M06 A3035 3990 78 2900 000/00 RMK AO2 T10221056 TSNO
94299KAAT AAT20161221092511612/21/16 09:25:31  5-MIN KAAT 211725Z AUTO 00000KT 10SM CLR M02/M06 A3035 3990 75 2900 000/00 RMK AO2 T10221061 TSNO
94299KAAT AAT20161221093011612/21/16 09:30:31  5-MIN KAAT 211730Z AUTO 00000KT 10SM CLR M02/M06 A3035 3990 75 2900 000/00 RMK AO2 T10221061 TSNO
94299KAAT AAT20161221093511612/21/16 09:35:31  5-MIN KAAT 211735Z AUTO 00000KT 10SM CLR M02/M06 A3035 3990 75 2900 000/00 RMK AO2 T10221061 TSNO
94299KAAT AAT20161221094011612/21/16 09:40:31  5-MIN KAAT 211740Z AUTO 00000KT 10SM CLR M02/M06 A3035 3990 75 3000 000/00 RMK AO2 T10171056 TSNO
94299KAAT AAT20161221094511612/21/16 09:45:31  5-MIN KAAT 211745Z AUTO 00000KT 10SM CLR M01/M06 A3035 3980 72 3000 000/00 RMK AO2 T10111056 TSNO
94299KAAT AAT20161221095014112/21/16 09:50:31  5-MIN KAAT 211750Z AUTO 00000KT 10SM CLR M01/M05 A3035 3980 72 3100 000/00 RMK AO2 SLP296 T10061050 11006 21078 55001 TSNO
94299KAAT AAT20161221095514112/21/16 09:55:31  5-MIN KAAT 211755Z AUTO 00000KT 10SM CLR M01/M05 A3035 3990 75 3000 000/00 RMK AO2 SLP297 T10111050 11006 21078 53003 TSNO
94299KAAT AAT20161221100011612/21/16 10:00:31  5-MIN KAAT 211800Z AUTO 00000KT 10SM CLR M01/M06 A3035 3990 66 3100 000/00 RMK AO2 T10061061 TSNO
94299KAAT AAT20161221100511612/21/16 10:05:31  5-MIN KAAT 211805Z AUTO 00000KT 10SM CLR M01/M06 A3035 3990 69 3100 000/00 RMK AO2 T10061056 TSNO
94299KAAT AAT20161221101011612/21/16 10:10:31  5-MIN KAAT 211810Z AUTO 00000KT 10SM CLR M01/M05 A3035 3990 72 3100 000/00 RMK AO2 T10061050 TSNO
94299KAAT AAT20161221101511512/21/16 10:15:31  5-MIN KAAT 211815Z AUTO 00000KT 10SM CLR 00/M05 A3035 3990 69 3200 000/00 RMK AO2 T00001050 TSNO
94299KAAT AAT20161221102011512/21/16 10:20:31  5-MIN KAAT 211820Z AUTO 00000KT 10SM CLR 00/M04 A3035 3990 72 3200 000/00 RMK AO2 T00001044 TSNO
94299KAAT AAT20161221102511512/21/16 10:25:31  5-MIN KAAT 211825Z AUTO 00000KT 10SM CLR 00/M03 A3035 3990 78 3200 000/00 RMK AO2 T00001033 TSNO
94299KAAT AAT20161221103011512/21/16 10:30:31  5-MIN KAAT 211830Z AUTO 00000KT 10SM CLR 00/M03 A3034 3990 78 3200 000/00 RMK AO2 T00001033 TSNO
94299KAAT AAT20161221103511512/21/16 10:35:31  5-MIN KAAT 211835Z AUTO 00000KT 10SM CLR 00/M03 A3034 3990 78 3200 000/00 RMK AO2 T00001033 TSNO
94299KAAT AAT20161221104011512/21/16 10:40:31  5-MIN KAAT 211840Z AUTO 00000KT 10SM CLR 01/M04 A3034 3990 69 3200 000/00 RMK AO2 T00061044 TSNO
94299KAAT AAT20161221104511512/21/16 10:45:31  5-MIN KAAT 211845Z AUTO 00000KT 10SM CLR 01/M04 A3034 3990 69 3200 000/00 RMK AO2 T00061044 TSNO
94299KAAT AAT20161221105012212/21/16 10:50:31  5-MIN KAAT 211850Z AUTO 00000KT 10SM CLR 01/M04 A3034 3990 69 3300 000/00 RMK AO2 SLP288 T00111039 TSNO
94299KAAT AAT20161221105512212/21/16 10:55:31  5-MIN KAAT 211855Z AUTO 00000KT 10SM CLR 01/M04 A3033 4000 69 3300 000/00 RMK AO2 SLP285 T00111039 TSNO
94299KAAT AAT20161221110011512/21/16 11:00:31  5-MIN KAAT 211900Z AUTO 00000KT 10SM CLR 01/M03 A3033 4000 72 3300 000/00 RMK AO2 T00111033 TSNO
94299KAAT AAT20161221110511512/21/16 11:05:31  5-MIN KAAT 211905Z AUTO 00000KT 10SM CLR 01/M04 A3033 4010 69 3300 000/00 RMK AO2 T00111039 TSNO
94299KAAT AAT20161221111011512/21/16 11:10:31  5-MIN KAAT 211910Z AUTO 00000KT 10SM CLR 02/M04 A3033 4010 66 3400 000/00 RMK AO2 T00171039 TSNO
94299KAAT AAT20161221111511512/21/16 11:15:31  5-MIN KAAT 211915Z AUTO 00000KT 10SM CLR 02/M04 A3032 4010 66 3400 000/00 RMK AO2 T00171039 TSNO
94299KAAT AAT20161221112011512/21/16 11:20:31  5-MIN KAAT 211920Z AUTO 16004KT 10SM CLR 02/M03 A3032 4010 72 3400 140/04 RMK AO2 T00171028 TSNO
94299KAAT AAT20161221112511512/21/16 11:25:31  5-MIN KAAT 211925Z AUTO 15005KT 10SM CLR 02/M02 A3032 4010 75 3400 130/05 RMK AO2 T00171022 TSNO
94299KAAT AAT20161221113011512/21/16 11:30:31  5-MIN KAAT 211930Z AUTO 16004KT 10SM CLR 01/M02 A3032 4010 78 3300 140/04 RMK AO2 T00111022 TSNO
94299KAAT AAT20161221113511512/21/16 11:35:31  5-MIN KAAT 211935Z AUTO 15003KT 10SM CLR 01/M02 A3032 4010 78 3300 130/03 RMK AO2 T00111022 TSNO
94299KAAT AAT20161221114011512/21/16 11:40:31  5-MIN KAAT 211940Z AUTO 15003KT 10SM CLR 01/M02 A3032 4020 78 3300 130/03 RMK AO2 T00111022 TSNO
94299KAAT AAT20161221114511512/21/16 11:45:31  5-MIN KAAT 211945Z AUTO VRB03KT 10SM CLR 01/M03 A3031 4020 75 3300 VRB/03 RMK AO2 T00111028 TSNO
94299KAAT AAT20161221115012212/21/16 11:50:31  5-MIN KAAT 211950Z AUTO 00000KT 10SM CLR 02/M03 A3031 4020 69 3400 000/00 RMK AO2 SLP278 T00171033 TSNO
94299KAAT AAT20161221115512212/21/16 11:55:31  5-MIN KAAT 211955Z AUTO 00000KT 10SM CLR 02/M03 A3031 4020 69 3400 000/00 RMK AO2 SLP276 T00171033 TSNO
94299KAAT AAT20161221120011512/21/16 12:00:31  5-MIN KAAT 212000Z AUTO 00000KT 10SM CLR 02/M03 A3030 4030 67 3500 000/00 RMK AO2 T00221033 TSNO
94299KAAT AAT20161221120511512/21/16 12:05:31  5-MIN KAAT 212005Z AUTO 00000KT 10SM CLR 02/M03 A3030 4030 67 3500 000/00 RMK AO2 T00221033 TSNO
94299KAAT AAT20161221121011512/21/16 12:10:31  5-MIN KAAT 212010Z AUTO VRB03KT 10SM CLR 03/M03 A3029 4040 64 3600 VRB/03 RMK AO2 T00281033 TSNO
94299KAAT AAT20161221121511512/21/16 12:15:31  5-MIN KAAT 212015Z AUTO 00000KT 10SM CLR 03/M04 A3029 4040 61 3600 000/00 RMK AO2 T00281039 TSNO
94299KAAT AAT20161221122011512/21/16 12:20:31  5-MIN KAAT 212020Z AUTO 00000KT 10SM CLR 03/M04 A3029 4040 61 3600 000/00 RMK AO2 T00281039 TSNO
94299KAAT AAT20161221122511512/21/16 12:25:31  5-MIN KAAT 212025Z AUTO 00000KT 10SM CLR 03/M04 A3029 4040 59 3600 000/00 RMK AO2 T00331039 TSNO
94299KAAT AAT20161221123011512/21/16 12:30:31  5-MIN KAAT 212030Z AUTO 00000KT 10SM CLR 03/M04 A3028 4050 59 3600 000/00 RMK AO2 T00331039 TSNO
94299KAAT AAT20161221123511512/21/16 12:35:31  5-MIN KAAT 212035Z AUTO 00000KT 10SM CLR 04/M03 A3028 4050 59 3700 000/00 RMK AO2 T00391033 TSNO
94299KAAT AAT20161221124011512/21/16 12:40:31  5-MIN KAAT 212040Z AUTO 00000KT 10SM CLR 03/M04 A3028 4050 59 3700 000/00 RMK AO2 T00331039 TSNO
94299KAAT AAT20161221124511512/21/16 12:45:31  5-MIN KAAT 212045Z AUTO 14003KT 10SM CLR 04/M03 A3027 4060 59 3700 120/03 RMK AO2 T00391033 TSNO
94299KAAT AAT20161221125012812/21/16 12:50:31  5-MIN KAAT 212050Z AUTO 00000KT 10SM CLR 04/M03 A3027 4060 59 3700 000/00 RMK AO2 SLP261 T00391033 53003 TSNO
94299KAAT AAT20161221125512812/21/16 12:55:31  5-MIN KAAT 212055Z AUTO 15003KT 10SM CLR 04/M03 A3027 4060 57 3800 130/03 RMK AO2 SLP258 T00441033 58025 TSNO
94299KAAT AAT20161221130011512/21/16 13:00:31  5-MIN KAAT 212100Z AUTO 13003KT 10SM CLR 04/M04 A3027 4060 55 3800 110/03 RMK AO2 T00441039 TSNO
94299KAAT AAT20161221130511512/21/16 13:05:31  5-MIN KAAT 212105Z AUTO 15004KT 10SM CLR 04/M03 A3026 4060 57 3800 130/04 RMK AO2 T00441033 TSNO
94299KAAT AAT20161221131011512/21/16 13:10:31  5-MIN KAAT 212110Z AUTO 15004KT 10SM CLR 04/M03 A3026 4070 59 3700 130/04 RMK AO2 T00391033 TSNO
94299KAAT AAT20161221131511512/21/16 13:15:31  5-MIN KAAT 212115Z AUTO 17004KT 10SM CLR 04/M03 A3026 4070 59 3700 160/04 RMK AO2 T00391033 TSNO
94299KAAT AAT20161221132011512/21/16 13:20:31  5-MIN KAAT 212120Z AUTO 17003KT 10SM CLR 04/M03 A3026 4070 57 3800 150/03 RMK AO2 T00441033 TSNO
94299KAAT AAT20161221132511512/21/16 13:25:31  5-MIN KAAT 212125Z AUTO VRB03KT 10SM CLR 04/M04 A3025 4070 55 3800 VRB/03 RMK AO2 T00441039 TSNO
94299KAAT AAT20161221133011512/21/16 13:30:31  5-MIN KAAT 212130Z AUTO 16003KT 10SM CLR 04/M04 A3025 4070 55 3800 140/03 RMK AO2 T00441039 TSNO
94299KAAT AAT20161221133511512/21/16 13:35:31  5-MIN KAAT 212135Z AUTO 00000KT 10SM CLR 04/M03 A3025 4080 57 3800 000/00 RMK AO2 T00441033 TSNO
94299KAAT AAT20161221134011512/21/16 13:40:31  5-MIN KAAT 212140Z AUTO 15003KT 10SM CLR 04/M03 A3025 4080 57 3800 130/03 RMK AO2 T00441033 TSNO
94299KAAT AAT20161221134511512/21/16 13:45:31  5-MIN KAAT 212145Z AUTO VRB03KT 10SM CLR 04/M04 A3025 4080 55 3800 VRB/03 RMK AO2 T00441039 TSNO
94299KAAT AAT20161221135012212/21/16 13:50:31  5-MIN KAAT 212150Z AUTO 15004KT 10SM CLR 04/M03 A3025 4080 57 3800 140/04 RMK AO2 SLP253 T00441033 TSNO
94299KAAT AAT20161221135512212/21/16 13:55:31  5-MIN KAAT 212155Z AUTO 16004KT 10SM CLR 04/M04 A3024 4080 55 3800 150/04 RMK AO2 SLP252 T00441039 TSNO
94299KAAT AAT20161221140011512/21/16 14:00:31  5-MIN KAAT 212200Z AUTO 17004KT 10SM CLR 04/M04 A3024 4080 55 3800 160/04 RMK AO2 T00441039 TSNO
94299KAAT AAT20161221140511512/21/16 14:05:31  5-MIN KAAT 212205Z AUTO 16003KT 10SM CLR 04/M04 A3024 4090 55 3800 150/03 RMK AO2 T00441039 TSNO
94299KAAT AAT20161221141011512/21/16 14:10:31  5-MIN KAAT 212210Z AUTO 17004KT 10SM CLR 04/M04 A3024 4090 52 3800 150/04 RMK AO2 T00441044 TSNO
94299KAAT AAT20161221141511512/21/16 14:15:31  5-MIN KAAT 212215Z AUTO 17003KT 10SM CLR 04/M04 A3024 4090 55 3800 150/03 RMK AO2 T00441039 TSNO
94299KAAT AAT20161221142011512/21/16 14:20:31  5-MIN KAAT 212220Z AUTO VRB04KT 10SM CLR 04/M04 A3024 4090 55 3800 VRB/04 RMK AO2 T00441039 TSNO
94299KAAT AAT20161221142511512/21/16 14:25:31  5-MIN KAAT 212225Z AUTO 19003KT 10SM CLR 04/M04 A3024 4090 52 3800 180/03 RMK AO2 T00441044 TSNO
94299KAAT AAT20161221143011512/21/16 14:30:31  5-MIN KAAT 212230Z AUTO 17003KT 10SM CLR 05/M04 A3024 4090 50 3900 150/03 RMK AO2 T00501044 TSNO
94299KAAT AAT20161221143511512/21/16 14:35:31  5-MIN KAAT 212235Z AUTO 00000KT 10SM CLR 05/M05 A3024 4090 48 3900 000/00 RMK AO2 T00501050 TSNO
